"STATION","DATE","SOURCE","LATITUDE","LONGITUDE","ELEVATION","NAME","REPORT_TYPE","CALL_SIGN","QUALITY_CONTROL","WND","CIG","VIS","TMP","DEW","SLP","GA1","GF1","KA1","MA1","REM","EQD"
"00826899999","2010-05-19T21:14:00","4","32.95","65.5666666","1156.72","WXPOD8278, AF","FM-15","8268 ","V020","160,1,N,0057,1","22000,1,9,N","999999,9,N,1","+0300,1","+0010,1","99999,9",,"00,99,1,99,9,99,9,99999,9,99,9,99,9",,"09458,1,99999,9","MET085MOBOB0 METAR 8268 //000 000000 192114Z 16011KT //// CLR 30/01 A2793 RMK CDP03528 CLR;","Q01    003SCCGA1"
"00826899999","2010-05-19T21:44:00","4","32.95","65.5666666","1156.72","WXPOD8278, AF","FM-15","8268 ","V020","120,1,N,0031,1","22000,1,9,N","999999,9,N,1","+0310,1","+0010,1","99999,9",,"00,99,1,99,9,99,9,99999,9,99,9,99,9",,"09451,1,99999,9","MET085MOBOB0 METAR 8268 //000 000000 192144Z 12006KT //// CLR 31/01 A2791 RMK CDP03528 CLR;","Q01    003SCCGA1"
"00826899999","2010-05-20T18:14:00","4","32.95","65.5666666","1156.72","WXPOD8278, AF","FM-15","8268 ","V020","070,1,N,0010,1","22000,1,9,N","999999,9,N,1","+0320,1","+0040,1","99999,9",,"00,99,1,99,9,99,9,99999,9,99,9,99,9",,"10098,1,99999,9","MET085MOBOB0 METAR 8268 //057 000000 201814Z 07002KT //// CLR 32/04 A2982 RMK CDP03528 CLR;","Q01    003SCCGA1"
"00826899999","2010-05-20T19:00:00","4","32.95","65.5666666","1156.72","WXPOD8278, AF","FM-15","8268 ","V020","160,1,N,0010,1","22000,1,9,N","999999,9,N,1","+0330,1","+0040,1","99999,9",,"00,99,1,99,9,99,9,99999,9,99,9,99,9",,"10095,1,99999,9","MET085MOBOB0 METAR 8268 //057 000000 201859Z 16002KT //// CLR 33/04 A2981 RMK CDP03528 CLR;","Q01    003SCCGA1"
"00826899999","2010-05-20T19:29:00","4","32.95","65.5666666","1156.72","WXPOD8278, AF","FM-15","8268 ","V020","160,1,N,0021,1","22000,1,9,N","999999,9,N,1","+0330,1","+0030,1","99999,9",,"00,99,1,99,9,99,9,99999,9,99,9,99,9",,"10088,1,99999,9","MET085MOBOB0 METAR 8268 //057 000000 201929Z 16004KT //// CLR 33/03 A2979 RMK CDP03528 CLR;","Q01    003SCCGA1"
"00826899999","2010-05-20T20:00:00","4","32.95","65.5666666","1156.72","WXPOD8278, AF","FM-15","8268 ","V020","180,1,N,0051,1","22000,1,9,N","999999,9,N,1","+0340,1","+0030,1","99999,9",,"00,99,1,99,9,99,9,99999,9,99,9,99,9",,"10085,1,99999,9","MET085MOBOB0 METAR 8268 //057 000000 201959Z 18010KT //// CLR 34/03 A2978 RMK CDP03528 CLR;","Q01    003SCCGA1"
"00826899999","2010-05-20T20:14:00","4","32.95","65.5666666","1156.72","WXPOD8278, AF","FM-15","8268 ","V020","190,1,N,0036,1","22000,1,9,N","999999,9,N,1","+0320,1","+0040,1","99999,9",,"00,99,1,99,9,99,9,99999,9,99,9,99,9",,"10081,1,99999,9","MET085MOBOB0 METAR 8268 //057 000000 202014Z 19007KT //// CLR 32/04 A2977 RMK CDP03528 CLR;","Q01    003SCCGA1"
"00826899999","2010-05-20T21:29:00","4","32.95","65.5666666","1156.72","WXPOD8278, AF","FM-15","8268 ","V020","130,1,N,0021,1","22000,1,9,N","999999,9,N,1","+0330,1","+0020,1","99999,9",,"00,99,1,99,9,99,9,99999,9,99,9,99,9",,"10064,1,99999,9","MET085MOBOB0 METAR 8268 //057 000000 202129Z 13004KT //// CLR 33/02 A2972 RMK CDP03528 CLR;","Q01    003SCCGA1"
"00826899999","2010-05-20T21:44:00","4","32.95","65.5666666","1156.72","WXPOD8278, AF","FM-15","8268 ","V020","090,1,N,0031,1","22000,1,9,N","999999,9,N,1","+0340,1","+0020,1","99999,9",,"00,99,1,99,9,99,9,99999,9,99,9,99,9",,"10064,1,99999,9","MET085MOBOB0 METAR 8268 //057 000000 202144Z 09006KT //// CLR 34/02 A2972 RMK CDP03528 CLR;","Q01    003SCCGA1"
"00826899999","2010-05-20T22:00:00","4","32.95","65.5666666","1156.72","WXPOD8278, AF","FM-15","8268 ","V020","230,1,N,0015,1","22000,1,9,N","999999,9,N,1","+0340,1","+0020,1","99999,9",,"00,99,1,99,9,99,9,99999,9,99,9,99,9",,"10061,1,99999,9","MET085MOBOB0 METAR 8268 //057 000000 202159Z 23003KT //// CLR 34/02 A2971 RMK CDP03528 CLR;","Q01    003SCCGA1"
"00826899999","2010-05-20T22:29:00","4","32.95","65.5666666","1156.72","WXPOD8278, AF","FM-15","8268 ","V020","110,1,N,0026,1","22000,1,9,N","999999,9,N,1","+0340,1","+0020,1","99999,9",,"00,99,1,99,9,99,9,99999,9,99,9,99,9",,"10054,1,99999,9","MET085MOBOB0 METAR 8268 //057 000000 202229Z 11005KT //// CLR 34/02 A2969 RMK CDP03528 CLR;","Q01    003SCCGA1"
"00826899999","2010-07-21T17:29:00","4","32.95","65.5666666","1156.72","WXPOD8278, AF","FM-16","8268 ","V020","340,1,N,0010,1","22000,1,9,N","999999,9,N,1","+0300,1","+0050,1","99999,9",,,,"10135,1,99999,9","MET090MOBOB0 METAR 8268 //122 000000 211729Z AUTO 34002KT //// CLR 30/05 A2993 RMK CDP03528 CLR;",
"00826899999","2010-07-21T17:44:00","4","32.95","65.5666666","1156.72","WXPOD8278, AF","FM-16","8268 ","V020","140,1,N,0010,1","22000,1,9,N","999999,9,N,1","+0300,1","+0040,1","99999,9",,,,"10135,1,99999,9","MET090MOBOB0 METAR 8268 //122 000000 211744Z AUTO 14002KT //// CLR 30/04 A2993 RMK CDP03528 CLR;",
"00826899999","2010-07-21T18:00:00","4","32.95","65.5666666","1156.72","WXPOD8278, AF","FM-15","8268 ","V020","170,1,N,0005,1","22000,1,9,N","999999,9,N,1","+0300,1","+0050,1","99999,9",,,,"10135,1,99999,9","MET090MOBOB0 METAR 8268 //122 000000 211759Z AUTO 17001KT //// CLR 30/05 A2993 RMK CDP03528 CLR;",
"00826899999","2010-07-21T18:14:00","4","32.95","65.5666666","1156.72","WXPOD8278, AF","FM-16","8268 ","V020","270,1,N,0010,1","22000,1,9,N","999999,9,N,1","+0310,1","+0050,1","99999,9",,,,"10132,1,99999,9","MET090MOBOB0 METAR 8268 //122 000000 211814Z AUTO 27002KT //// CLR 31/05 A2992 RMK CDP03528 CLR;",
"00826899999","2010-07-21T18:29:00","4","32.95","65.5666666","1156.72","WXPOD8278, AF","FM-16","8268 ","V020","250,1,N,0021,1","22000,1,9,N","999999,9,N,1","+0300,1","+0040,1","99999,9",,,,"10132,1,99999,9","MET090MOBOB0 METAR 8268 //122 000000 211829Z AUTO 25004KT //// CLR 30/04 A2992 RMK CDP03528 CLR;",
"00826899999","2010-07-21T18:44:00","4","32.95","65.5666666","1156.72","WXPOD8278, AF","FM-16","8268 ","V020","290,1,N,0026,1","22000,1,9,N","999999,9,N,1","+0300,1","+0050,1","99999,9",,,,"10132,1,99999,9","MET090MOBOB0 METAR 8268 //122 000000 211844Z AUTO 29005KT //// CLR 30/05 A2992 RMK CDP03528 CLR;",
"00826899999","2010-07-21T19:00:00","4","32.95","65.5666666","1156.72","WXPOD8278, AF","FM-15","8268 ","V020","280,1,N,0026,1","22000,1,9,N","999999,9,N,1","+0310,1","+0050,1","99999,9",,,,"10128,1,99999,9","MET090MOBOB0 METAR 8268 //122 000000 211859Z AUTO 28005KT //// CLR 31/05 A2991 RMK CDP03528 CLR;",
"00826899999","2010-07-21T19:14:00","4","32.95","65.5666666","1156.72","WXPOD8278, AF","FM-16","8268 ","V020","270,1,N,0026,1","22000,1,9,N","999999,9,N,1","+0310,1","+0040,1","99999,9",,,,"10128,1,99999,9","MET090MOBOB0 METAR 8268 //122 000000 211914Z AUTO 27005KT //// CLR 31/04 A2991 RMK CDP03528 CLR;",
"00826899999","2010-07-21T19:29:00","4","32.95","65.5666666","1156.72","WXPOD8278, AF","FM-16","8268 ","V020","300,1,N,0026,1","22000,1,9,N","999999,9,N,1","+0320,1","+0050,1","99999,9",,,,"10128,1,99999,9","MET090MOBOB0 METAR 8268 //122 000000 211929Z AUTO 30005KT //// CLR 32/05 A2991 RMK CDP03528 CLR;",
"00826899999","2010-07-21T19:44:00","4","32.95","65.5666666","1156.72","WXPOD8278, AF","FM-16","8268 ","V020","300,1,N,0031,1","22000,1,9,N","999999,9,N,1","+0310,1","+0050,1","99999,9",,,,"10125,1,99999,9","MET090MOBOB0 METAR 8268 //122 000000 211944Z AUTO 30006KT //// CLR 31/05 A2990 RMK CDP03528 CLR;",
"00826899999","2010-07-21T20:00:00","4","32.95","65.5666666","1156.72","WXPOD8278, AF","FM-15","8268 ","V020","300,1,N,0041,1","22000,1,9,N","999999,9,N,1","+0320,1","+0050,1","99999,9",,,,"10125,1,99999,9","MET090MOBOB0 METAR 8268 //122 000000 211959Z AUTO 30008KT //// CLR 32/05 A2990 RMK CDP03528 CLR;",
"00826899999","2010-07-21T20:14:00","4","32.95","65.5666666","1156.72","WXPOD8278, AF","FM-16","8268 ","V020","260,1,N,0046,1","22000,1,9,N","999999,9,N,1","+0310,1","+0050,1","99999,9",,,,"10125,1,99999,9","MET090MOBOB0 METAR 8268 //122 000000 212014Z AUTO 26009KT //// CLR 31/05 A2990 RMK CDP03528 CLR;",
"00826899999","2010-07-21T20:29:00","4","32.95","65.5666666","1156.72","WXPOD8278, AF","FM-16","8268 ","V020","300,1,N,0036,1","22000,1,9,N","999999,9,N,1","+0320,1","+0040,1","99999,9",,,,"10125,1,99999,9","MET090MOBOB0 METAR 8268 //122 000000 212029Z AUTO 30007KT //// CLR 32/04 A2990 RMK CDP03528 CLR;",
"00826899999","2010-07-21T20:44:00","4","32.95","65.5666666","1156.72","WXPOD8278, AF","FM-16","8268 ","V020","240,1,N,0026,1","22000,1,9,N","999999,9,N,1","+0330,1","+0040,1","99999,9",,,,"10125,1,99999,9","MET090MOBOB0 METAR 8268 //122 000000 212044Z AUTO 24005KT //// CLR 33/04 A2990 RMK CDP03528 CLR;",
"00826899999","2010-07-21T21:00:00","4","32.95","65.5666666","1156.72","WXPOD8278, AF","FM-15","8268 ","V020","240,1,N,0026,1","22000,1,9,N","999999,9,N,1","+0330,1","+0040,1","99999,9",,,,"10121,1,99999,9","MET090MOBOB0 METAR 8268 //122 000000 212059Z AUTO 24005KT //// CLR 33/04 A2989 RMK CDP03528 CLR;",
"00826899999","2010-07-21T21:14:00","4","32.95","65.5666666","1156.72","WXPOD8278, AF","FM-16","8268 ","V020","320,1,N,0036,1","22000,1,9,N","999999,9,N,1","+0330,1","+0040,1","99999,9",,,,"10121,1,99999,9","MET090MOBOB0 METAR 8268 //122 000000 212114Z AUTO 32007KT //// CLR 33/04 A2989 RMK CDP03528 CLR;",
"00826899999","2010-07-21T21:29:00","4","32.95","65.5666666","1156.72","WXPOD8278, AF","FM-16","8268 ","V020","290,1,N,0021,1","22000,1,9,N","999999,9,N,1","+0320,1","+0040,1","99999,9",,,,"10121,1,99999,9","MET090MOBOB0 METAR 8268 //122 000000 212129Z AUTO 29004KT //// CLR 32/04 A2989 RMK CDP03528 CLR;",
"00826899999","2010-07-21T21:44:00","4","32.95","65.5666666","1156.72","WXPOD8278, AF","FM-16","8268 ","V020","290,1,N,0041,1","22000,1,9,N","999999,9,N,1","+0340,1","+0050,1","99999,9",,,,"10118,1,99999,9","MET090MOBOB0 METAR 8268 //122 000000 212144Z AUTO 29008KT //// CLR 34/05 A2988 RMK CDP03528 CLR;",
"00826899999","2010-07-21T22:14:00","4","32.95","65.5666666","1156.72","WXPOD8278, AF","FM-16","8268 ","V020","290,1,N,0041,1","22000,1,9,N","999999,9,N,1","+0340,1","+0030,1","99999,9",,,,"10118,1,99999,9","MET090MOBOB0 METAR 8268 //122 000000 212214Z AUTO 29008KT //// CLR 34/03 A2988 RMK CDP03528 CLR;",
"00826899999","2010-07-21T22:29:00","4","32.95","65.5666666","1156.72","WXPOD8278, AF","FM-16","8268 ","V020","260,1,N,0046,1","22000,1,9,N","999999,9,N,1","+0340,1","+0030,1","99999,9",,,,"10118,1,99999,9","MET090MOBOB0 METAR 8268 //122 000000 212229Z AUTO 26009KT //// CLR 34/03 A2988 RMK CDP03528 CLR;",
"00826899999","2010-07-21T22:44:00","4","32.95","65.5666666","1156.72","WXPOD8278, AF","FM-16","8268 ","V020","240,1,N,0046,1","22000,1,9,N","999999,9,N,1","+0340,1","+0030,1","99999,9",,,,"10118,1,99999,9","MET090MOBOB0 METAR 8268 //122 000000 212244Z AUTO 24009KT //// CLR 34/03 A2988 RMK CDP03528 CLR;",
"00826899999","2010-07-21T23:00:00","4","32.95","65.5666666","1156.72","WXPOD8278, AF","FM-15","8268 ","V020","260,1,N,0046,1","22000,1,9,N","999999,9,N,1","+0340,1","+0020,1","99999,9",,,,"10118,1,99999,9","MET090MOBOB0 METAR 8268 //122 000000 212259Z AUTO 26009KT //// CLR 34/02 A2988 RMK CDP03528 CLR;",
"00826899999","2010-07-21T23:14:00","4","32.95","65.5666666","1156.72","WXPOD8278, AF","FM-16","8268 ","V020","250,1,N,0041,1","22000,1,9,N","999999,9,N,1","+0330,1","+0030,1","99999,9",,,,"10118,1,99999,9","MET090MOBOB0 METAR 8268 //122 000000 212314Z AUTO 25008KT //// CLR 33/03 A2988 RMK CDP03528 CLR;",
"00826899999","2010-07-21T23:29:00","4","32.95","65.5666666","1156.72","WXPOD8278, AF","FM-16","8268 ","V020","260,1,N,0046,1","22000,1,9,N","999999,9,N,1","+0340,1","+0030,1","99999,9",,,,"10118,1,99999,9","MET090MOBOB0 METAR 8268 //122 000000 212329Z AUTO 26009KT //// CLR 34/03 A2988 RMK CDP03528 CLR;",
"00826899999","2010-07-21T23:44:00","4","32.95","65.5666666","1156.72","WXPOD8278, AF","FM-16","8268 ","V020","250,1,N,0041,1","22000,1,9,N","999999,9,N,1","+0340,1","+0030,1","99999,9",,,,"10118,1,99999,9","MET090MOBOB0 METAR 8268 //122 000000 212344Z AUTO 25008KT //// CLR 34/03 A2988 RMK CDP03528 CLR;",
"00826899999","2010-07-22T00:00:00","4","32.95","65.5666666","1156.72","WXPOD8278, AF","FM-15","8268 ","V020","270,1,N,0026,1","22000,1,9,N","999999,9,N,1","+0340,1","+0040,1","99999,9",,,,"10121,1,99999,9","MET090MOBOB0 METAR 8268 //122 000000 212359Z AUTO 27005KT //// CLR 34/04 A2989 RMK CDP03528 CLR;",
"00826899999","2010-07-22T00:14:00","4","32.95","65.5666666","1156.72","WXPOD8278, AF","FM-16","8268 ","V020","270,1,N,0046,1","22000,1,9,N","999999,9,N,1","+0340,1","+0040,1","99999,9",,,,"10121,1,99999,9","MET090MOBOB0 METAR 8268 //122 000000 220014Z AUTO 27009KT //// CLR 34/04 A2989 RMK CDP03528 CLR;",
"00826899999","2010-07-22T00:29:00","4","32.95","65.5666666","1156.72","WXPOD8278, AF","FM-16","8268 ","V020","240,1,N,0031,1","22000,1,9,N","999999,9,N,1","+0330,1","+0030,1","99999,9",,,,"10121,1,99999,9","MET090MOBOB0 METAR 8268 //122 000000 220029Z AUTO 24006KT //// CLR 33/03 A2989 RMK CDP03528 CLR;",
"00826899999","2010-07-22T00:44:00","4","32.95","65.5666666","1156.72","WXPOD8278, AF","FM-16","8268 ","V020","280,1,N,0041,1","22000,1,9,N","999999,9,N,1","+0330,1","+0030,1","99999,9",,,,"10121,1,99999,9","MET090MOBOB0 METAR 8268 //122 000000 220044Z AUTO 28008KT //// CLR 33/03 A2989 RMK CDP03528 CLR;",
"00826899999","2010-07-22T01:00:00","4","32.95","65.5666666","1156.72","WXPOD8278, AF","FM-15","8268 ","V020","240,1,N,0051,1","22000,1,9,N","999999,9,N,1","+0330,1","+0030,1","99999,9",,,,"10118,1,99999,9","MET090MOBOB0 METAR 8268 //122 000000 220059Z AUTO 24010KT //// CLR 33/03 A2988 RMK CDP03528 CLR;",
"00826899999","2010-07-22T01:14:00","4","32.95","65.5666666","1156.72","WXPOD8278, AF","FM-16","8268 ","V020","240,1,N,0041,1","22000,1,9,N","999999,9,N,1","+0330,1","+0040,1","99999,9",,,,"10121,1,99999,9","MET090MOBOB0 METAR 8268 //122 000000 220114Z AUTO 24008KT //// CLR 33/04 A2989 RMK CDP03528 CLR;",
"00826899999","2010-07-22T01:29:00","4","32.95","65.5666666","1156.72","WXPOD8278, AF","FM-16","8268 ","V020","240,1,N,0046,1","22000,1,9,N","999999,9,N,1","+0330,1","+0040,1","99999,9",,,,"10121,1,99999,9","MET090MOBOB0 METAR 8268 //122 000000 220129Z AUTO 24009KT //// CLR 33/04 A2989 RMK CDP03528 CLR;",
"00826899999","2010-07-22T01:44:00","4","32.95","65.5666666","1156.72","WXPOD8278, AF","FM-16","8268 ","V020","240,1,N,0041,1","22000,1,9,N","999999,9,N,1","+0320,1","+0030,1","99999,9",,,,"10121,1,99999,9","MET090MOBOB0 METAR 8268 //122 000000 220144Z AUTO 24008KT //// CLR 32/03 A2989 RMK CDP03528 CLR;",
"00826899999","2010-07-22T02:00:00","4","32.95","65.5666666","1156.72","WXPOD8278, AF","FM-15","8268 ","V020","260,1,N,0036,1","22000,1,9,N","999999,9,N,1","+0310,1","+0030,1","99999,9",,,,"10121,1,99999,9","MET090MOBOB0 METAR 8268 //122 000000 220159Z AUTO 26007KT //// CLR 31/03 A2989 RMK CDP03528 CLR;",
"00826899999","2010-07-22T02:14:00","4","32.95","65.5666666","1156.72","WXPOD8278, AF","FM-16","8268 ","V020","240,1,N,0046,1","22000,1,9,N","999999,9,N,1","+0310,1","+0020,1","99999,9",,,,"10125,1,99999,9","MET090MOBOB0 METAR 8268 //122 000000 220214Z AUTO 24009KT //// CLR 31/02 A2990 RMK CDP03528 CLR;",
"00826899999","2010-07-22T02:29:00","4","32.95","65.5666666","1156.72","WXPOD8278, AF","FM-16","8268 ","V020","240,1,N,0036,1","22000,1,9,N","999999,9,N,1","+0300,1","+0040,1","99999,9",,,,"10125,1,99999,9","MET090MOBOB0 METAR 8268 //122 000000 220229Z AUTO 24007KT //// CLR 30/04 A2990 RMK CDP03528 CLR;",
"00826899999","2010-07-22T02:44:00","4","32.95","65.5666666","1156.72","WXPOD8278, AF","FM-16","8268 ","V020","240,1,N,0046,1","22000,1,9,N","999999,9,N,1","+0290,1","+0040,1","99999,9",,,,"10125,1,99999,9","MET090MOBOB0 METAR 8268 //122 000000 220244Z AUTO 24009KT //// CLR 29/04 A2990 RMK CDP03528 CLR;",
"00826899999","2010-07-22T03:00:00","4","32.95","65.5666666","1156.72","WXPOD8278, AF","FM-15","8268 ","V020","250,1,N,0046,1","22000,1,9,N","999999,9,N,1","+0290,1","+0040,1","99999,9",,,,"10125,1,99999,9","MET090MOBOB0 METAR 8268 //122 000000 220259Z AUTO 25009KT //// CLR 29/04 A2990 RMK CDP03528 CLR;",
"00826899999","2010-07-22T03:14:00","4","32.95","65.5666666","1156.72","WXPOD8278, AF","FM-16","8268 ","V020","250,1,N,0036,1","22000,1,9,N","999999,9,N,1","+0280,1","+0040,1","99999,9",,,,"10128,1,99999,9","MET090MOBOB0 METAR 8268 //122 000000 220314Z AUTO 25007KT //// CLR 28/04 A2991 RMK CDP03528 CLR;",
"00826899999","2010-07-22T03:29:00","4","32.95","65.5666666","1156.72","WXPOD8278, AF","FM-16","8268 ","V020","260,1,N,0026,1","22000,1,9,N","999999,9,N,1","+0270,1","+0040,1","99999,9",,,,"10128,1,99999,9","MET090MOBOB0 METAR 8268 //122 000000 220329Z AUTO 26005KT //// CLR 27/04 A2991 RMK CDP03528 CLR;",
"00826899999","2010-07-22T03:44:00","4","32.95","65.5666666","1156.72","WXPOD8278, AF","FM-16","8268 ","V020","250,1,N,0031,1","22000,1,9,N","999999,9,N,1","+0260,1","+0050,1","99999,9",,,,"10132,1,99999,9","MET090MOBOB0 METAR 8268 //122 000000 220344Z AUTO 25006KT //// CLR 26/05 A2992 RMK CDP03528 CLR;",
"00826899999","2010-07-22T04:00:00","4","32.95","65.5666666","1156.72","WXPOD8278, AF","FM-15","8268 ","V020","260,1,N,0031,1","22000,1,9,N","999999,9,N,1","+0260,1","+0060,1","99999,9",,,,"10135,1,99999,9","MET090MOBOB0 METAR 8268 //122 000000 220359Z AUTO 26006KT //// CLR 26/06 A2993 RMK CDP03528 CLR;",
"00826899999","2010-10-19T13:29:00","4","32.95","65.5666666","1156.72","WXPOD8278, AF","FM-16","8268 ","V020","150,1,N,0010,1","22000,1,9,N","999999,9,N,1","+0180,1","+0180,1","99999,9",,,,"10155,1,99999,9","MET090MOBOB0 METAR 8268 //003 000000 191329Z AUTO 15002KT //// CLR 18/18 A2999 RMK CDP03528 CLR;",
"00826899999","2010-10-19T13:44:00","4","32.95","65.5666666","1156.72","WXPOD8278, AF","FM-16","8268 ","V020","180,1,N,0010,1","22000,1,9,N","999999,9,N,1","+0190,1","+0190,1","99999,9",,,,"10155,1,99999,9","MET090MOBOB0 METAR 8268 //003 000000 191344Z AUTO 18002KT //// CLR 19/19 A2999 RMK CDP03528 CLR;",
"00826899999","2010-10-19T14:00:00","4","32.95","65.5666666","1156.72","WXPOD8278, AF","FM-15","8268 ","V020","140,1,N,0010,1","22000,1,9,N","999999,9,N,1","+0200,1","+0180,1","99999,9",,,,"10155,1,99999,9","MET090MOBOB0 METAR 8268 //003 000000 191359Z AUTO 14002KT //// CLR 20/18 A2999 RMK CDP03528 CLR;",
"00826899999","2010-10-19T14:14:00","4","32.95","65.5666666","1156.72","WXPOD8278, AF","FM-16","8268 ","V020","130,1,N,0005,1","22000,1,9,N","999999,9,N,1","+0190,1","+0180,1","99999,9",,,,"10159,1,99999,9","MET090MOBOB0 METAR 8268 //003 000000 191414Z AUTO 13001KT //// CLR 19/18 A3000 RMK CDP03528 CLR;",
"00826899999","2010-10-19T14:29:00","4","32.95","65.5666666","1156.72","WXPOD8278, AF","FM-16","8268 ","V020","150,1,N,0010,1","22000,1,9,N","999999,9,N,1","+0200,1","+0190,1","99999,9",,,,"10159,1,99999,9","MET090MOBOB0 METAR 8268 //003 000000 191429Z AUTO 15002KT //// CLR 20/19 A3000 RMK CDP03528 CLR;",
"00826899999","2010-10-19T15:00:00","4","32.95","65.5666666","1156.72","WXPOD8278, AF","FM-15","8268 ","V020","090,1,N,0005,1","22000,1,9,N","999999,9,N,1","+0210,1","+0190,1","99999,9","02,5,+01440,5,99,9",,,"10162,1,99999,9","MET108MOBOB0 METAR 8268 //003 000000 191459Z AUTO 09001KT //// FEW048 21/19 A3001 RMK CDP03528 FEW048 CLD AVG 048;",
"00826899999","2010-10-19T15:14:00","4","32.95","65.5666666","1156.72","WXPOD8278, AF","FM-16","8268 ","V020","200,1,N,0010,1","22000,1,9,N","999999,9,N,1","+0240,1","+0200,1","99999,9",,,,"10162,1,99999,9","MET090MOBOB0 METAR 8268 //003 000000 191514Z AUTO 20002KT //// CLR 24/20 A3001 RMK CDP03528 CLR;",
"00826899999","2010-10-19T15:29:00","4","32.95","65.5666666","1156.72","WXPOD8278, AF","FM-16","8268 ","V020","150,1,N,0005,1","22000,1,9,N","999999,9,N,1","+0250,1","+0190,1","99999,9",,,,"10159,1,99999,9","MET090MOBOB0 METAR 8268 //003 000000 191529Z AUTO 15001KT //// CLR 25/19 A3000 RMK CDP03528 CLR;",
"00826899999","2010-10-19T15:44:00","4","32.95","65.5666666","1156.72","WXPOD8278, AF","FM-16","8268 ","V020","290,1,N,0005,1","22000,1,9,N","999999,9,N,1","+0270,1","+0200,1","99999,9",,,,"10159,1,99999,9","MET090MOBOB0 METAR 8268 //003 000000 191544Z AUTO 29001KT //// CLR 27/20 A3000 RMK CDP03528 CLR;",
"00826899999","2010-10-19T16:00:00","4","32.95","65.5666666","1156.72","WXPOD8278, AF","FM-15","8268 ","V020","280,1,N,0005,1","22000,1,9,N","999999,9,N,1","+0280,1","+0200,1","99999,9",,,,"10159,1,99999,9","MET090MOBOB0 METAR 8268 //003 000000 191559Z AUTO 28001KT //// CLR 28/20 A3000 RMK CDP03528 CLR;",
"00826899999","2010-10-19T16:14:00","4","32.95","65.5666666","1156.72","WXPOD8278, AF","FM-16","8268 ","V020","240,1,N,0005,1","22000,1,9,N","999999,9,N,1","+0290,1","+0190,1","99999,9",,,,"10159,1,99999,9","MET090MOBOB0 METAR 8268 //003 000000 191614Z AUTO 24001KT //// CLR 29/19 A3000 RMK CDP03528 CLR;",
"00826899999","2010-10-19T16:29:00","4","32.95","65.5666666","1156.72","WXPOD8278, AF","FM-16","8268 ","V020","270,1,N,0026,1","22000,1,9,N","999999,9,N,1","+0270,1","+0190,1","99999,9",,,,"10159,1,99999,9","MET090MOBOB0 METAR 8268 //003 000000 191629Z AUTO 27005KT //// CLR 27/19 A3000 RMK CDP03528 CLR;",
"00826899999","2010-10-19T16:44:00","4","32.95","65.5666666","1156.72","WXPOD8278, AF","FM-16","8268 ","V020","260,1,N,0026,1","22000,1,9,N","999999,9,N,1","+0270,1","+0180,1","99999,9","02,5,+01950,5,99,9",,,"10155,1,99999,9","MET108MOBOB0 METAR 8268 //003 000000 191644Z AUTO 26005KT //// FEW065 27/18 A2999 RMK CDP03528 FEW065 CLD AVG 065;",
"00826899999","2010-10-19T17:00:00","4","32.95","65.5666666","1156.72","WXPOD8278, AF","FM-15","8268 ","V020","240,1,N,0036,1","22000,1,9,N","999999,9,N,1","+0260,1","+0180,1","99999,9",,,,"10155,1,99999,9","MET090MOBOB0 METAR 8268 //003 000000 191659Z AUTO 24007KT //// CLR 26/18 A2999 RMK CDP03528 CLR;",
"00826899999","2010-10-19T17:14:00","4","32.95","65.5666666","1156.72","WXPOD8278, AF","FM-16","8268 ","V020","240,1,N,0021,1","22000,1,9,N","999999,9,N,1","+0280,1","+0180,1","99999,9",,,,"10152,1,99999,9","MET090MOBOB0 METAR 8268 //003 000000 191714Z AUTO 24004KT //// CLR 28/18 A2998 RMK CDP03528 CLR;",
"00826899999","2010-10-19T17:29:00","4","32.95","65.5666666","1156.72","WXPOD8278, AF","FM-16","8268 ","V020","240,1,N,0021,1","22000,1,9,N","999999,9,N,1","+0280,1","+0180,1","99999,9",,,,"10149,1,99999,9","MET090MOBOB0 METAR 8268 //003 000000 191729Z AUTO 24004KT //// CLR 28/18 A2997 RMK CDP03528 CLR;",
"00826899999","2010-10-19T17:44:00","4","32.95","65.5666666","1156.72","WXPOD8278, AF","FM-16","8268 ","V020","220,1,N,0026,1","22000,1,9,N","999999,9,N,1","+0290,1","+0180,1","99999,9",,,,"10149,1,99999,9","MET090MOBOB0 METAR 8268 //003 000000 191744Z AUTO 22005KT //// CLR 29/18 A2997 RMK CDP03528 CLR;",
"00826899999","2010-10-19T18:00:00","4","32.95","65.5666666","1156.72","WXPOD8278, AF","FM-15","8268 ","V020","260,1,N,0005,1","22000,1,9,N","999999,9,N,1","+0290,1","+0170,1","99999,9",,,,"10145,1,99999,9","MET090MOBOB0 METAR 8268 //003 000000 191759Z AUTO 26001KT //// CLR 29/17 A2996 RMK CDP03528 CLR;",
"00826899999","2010-10-19T18:14:00","4","32.95","65.5666666","1156.72","WXPOD8278, AF","FM-16","8268 ","V020","260,1,N,0015,1","22000,1,9,N","999999,9,N,1","+0310,1","+0180,1","99999,9",,,,"10142,1,99999,9","MET090MOBOB0 METAR 8268 //003 000000 191814Z AUTO 26003KT //// CLR 31/18 A2995 RMK CDP03528 CLR;",
"00826899999","2010-10-19T18:29:00","4","32.95","65.5666666","1156.72","WXPOD8278, AF","FM-16","8268 ","V020","360,1,N,0031,1","22000,1,9,N","999999,9,N,1","+0290,1","+0250,2","99999,9","02,5,+01500,5,99,9",,,"10142,1,99999,9","MET108MOBOB0 METAR 8268 //003 000000 191829Z AUTO 36006KT //// FEW050 29/25 A2995 RMK CDP03528 FEW050 CLD AVG 050;",
"00826899999","2010-10-19T18:44:00","4","32.95","65.5666666","1156.72","WXPOD8278, AF","FM-16","8268 ","V020","030,1,N,0067,1","22000,1,9,N","999999,9,N,1","+0200,1","+0200,1","99999,9",,,,"10138,1,99999,9","MET090MOBOB0 METAR 8268 //003 000000 191844Z AUTO 03013KT //// CLR 20/20 A2994 RMK CDP03528 CLR;",
"00826899999","2010-10-19T19:00:00","4","32.95","65.5666666","1156.72","WXPOD8278, AF","FM-15","8268 ","V020","030,1,N,0026,1","22000,1,9,N","999999,9,N,1","+0200,1","+0200,1","99999,9",,,,"10135,1,99999,9","MET090MOBOB0 METAR 8268 //003 000000 191859Z AUTO 03005KT //// CLR 20/20 A2993 RMK CDP03528 CLR;",
"00826899999","2010-10-19T19:14:00","4","32.95","65.5666666","1156.72","WXPOD8278, AF","FM-16","8268 ","V020","330,1,N,0036,1","22000,1,9,N","999999,9,N,1","+0190,1","+0190,1","99999,9",,,,"10138,1,99999,9","MET090MOBOB0 METAR 8268 //003 000000 191914Z AUTO 33007KT //// CLR 19/19 A2994 RMK CDP03528 CLR;",
"00826899999","2010-10-19T19:29:00","4","32.95","65.5666666","1156.72","WXPOD8278, AF","FM-16","8268 ","V020","060,1,N,0015,1","22000,1,9,N","999999,9,N,1","+0180,1","+0180,1","99999,9",,,,"10135,1,99999,9","MET090MOBOB0 METAR 8268 //003 000000 191929Z AUTO 06003KT //// CLR 18/18 A2993 RMK CDP03528 CLR;",
"00826899999","2010-10-19T19:44:00","4","32.95","65.5666666","1156.72","WXPOD8278, AF","FM-16","8268 ","V020","080,1,N,0010,1","22000,1,9,N","999999,9,N,1","+0200,1","+0200,1","99999,9",,,,"10132,1,99999,9","MET090MOBOB0 METAR 8268 //003 000000 191944Z AUTO 08002KT //// CLR 20/20 A2992 RMK CDP03528 CLR;",
"00826899999","2010-10-19T20:00:00","4","32.95","65.5666666","1156.72","WXPOD8278, AF","FM-15","8268 ","V020","120,1,N,0015,1","22000,1,9,N","999999,9,N,1","+0200,1","+0200,1","99999,9",,,,"10125,1,99999,9","MET090MOBOB0 METAR 8268 //003 000000 191959Z AUTO 12003KT //// CLR 20/20 A2990 RMK CDP03528 CLR;",
"00826899999","2010-10-19T20:14:00","4","32.95","65.5666666","1156.72","WXPOD8278, AF","FM-16","8268 ","V020","110,1,N,0010,1","99999,9,9,N","999999,9,N,1","+0200,1","+0200,1","99999,9",,,"999,M,+9999,9","10125,1,99999,9","MET090MOBOB0 METAR 8268 //003 000000 192014Z AUTO 11002KT //// CLR 20/20 A2990 RMK CDP03528 CLR;","Q01 -00022ATMX  "
"00826899999","2010-10-19T20:29:00","4","32.95","65.5666666","1156.72","WXPOD8278, AF","FM-16","8268 ","V020","120,1,N,0010,1","22000,1,9,N","999999,9,N,1","+0210,1","+0210,1","99999,9",,,,"10125,1,99999,9","MET090MOBOB0 METAR 8268 //003 000000 192029Z AUTO 12002KT //// CLR 21/21 A2990 RMK CDP03528 CLR;",
"00826899999","2010-10-19T20:44:00","4","32.95","65.5666666","1156.72","WXPOD8278, AF","FM-16","8268 ","V020","170,1,N,0015,1","22000,1,9,N","999999,9,N,1","+0220,1","+0220,1","99999,9",,,,"10128,1,99999,9","MET090MOBOB0 METAR 8268 //003 000000 192044Z AUTO 17003KT //// CLR 22/22 A2991 RMK CDP03528 CLR;",
"00826899999","2010-10-19T21:00:00","4","32.95","65.5666666","1156.72","WXPOD8278, AF","FM-15","8268 ","V020","160,1,N,0010,1","22000,1,9,N","999999,9,N,1","+0220,1","+0220,1","99999,9",,,,"10128,1,99999,9","MET090MOBOB0 METAR 8268 //003 000000 192059Z AUTO 16002KT //// CLR 22/22 A2991 RMK CDP03528 CLR;",
"00826899999","2010-10-19T21:14:00","4","32.95","65.5666666","1156.72","WXPOD8278, AF","FM-16","8268 ","V020","120,1,N,0005,1","22000,1,9,N","999999,9,N,1","+0220,1","+0220,1","99999,9",,,,"10125,1,99999,9","MET090MOBOB0 METAR 8268 //003 000000 192114Z AUTO 12001KT //// CLR 22/22 A2990 RMK CDP03528 CLR;",
"00826899999","2010-10-19T21:29:00","4","32.95","65.5666666","1156.72","WXPOD8278, AF","FM-16","8268 ","V020","050,1,N,0015,1","22000,1,9,N","999999,9,N,1","+0220,1","+0220,1","99999,9",,,,"10128,1,99999,9","MET090MOBOB0 METAR 8268 //003 000000 192129Z AUTO 05003KT //// CLR 22/22 A2991 RMK CDP03528 CLR;",
"00826899999","2010-10-19T21:44:00","4","32.95","65.5666666","1156.72","WXPOD8278, AF","FM-16","8268 ","V020","090,1,N,0015,1","22000,1,9,N","999999,9,N,1","+0230,1","+0230,1","99999,9",,,,"10125,1,99999,9","MET090MOBOB0 METAR 8268 //003 000000 192144Z AUTO 09003KT //// CLR 23/23 A2990 RMK CDP03528 CLR;",
"00826899999","2010-10-19T22:00:00","4","32.95","65.5666666","1156.72","WXPOD8278, AF","FM-15","8268 ","V020","350,1,N,0057,1","22000,1,9,N","999999,9,N,1","+0230,1","+0230,1","99999,9",,,,"10135,1,99999,9","MET090MOBOB0 METAR 8268 //003 000000 192159Z AUTO 35011KT //// CLR 23/23 A2993 RMK CDP03528 CLR;",
"00826899999","2010-10-19T22:14:00","4","32.95","65.5666666","1156.72","WXPOD8278, AF","FM-16","8268 ","V020","030,1,N,0046,1","22000,1,9,N","999999,9,N,1","+0180,1","+0180,1","99999,9",,,,"10132,1,99999,9","MET090MOBOB0 METAR 8268 //003 000000 192214Z AUTO 03009KT //// CLR 18/18 A2992 RMK CDP03528 CLR;",
"00826899999","2010-10-19T22:29:00","4","32.95","65.5666666","1156.72","WXPOD8278, AF","FM-16","8268 ","V020","220,1,N,0015,1","22000,1,9,N","999999,9,N,1","+0180,1","+0180,1","99999,9",,,,"10135,1,99999,9","MET090MOBOB0 METAR 8268 //003 000000 192229Z AUTO 22003KT //// CLR 18/18 A2993 RMK CDP03528 CLR;",
"00826899999","2010-10-19T22:44:00","4","32.95","65.5666666","1156.72","WXPOD8278, AF","FM-16","8268 ","V020","080,1,N,0021,1","22000,1,9,N","999999,9,N,1","+0180,1","+0180,1","99999,9",,,,"10132,1,99999,9","MET090MOBOB0 METAR 8268 //003 000000 192244Z AUTO 08004KT //// CLR 18/18 A2992 RMK CDP03528 CLR;",
"00826899999","2010-10-19T23:00:00","4","32.95","65.5666666","1156.72","WXPOD8278, AF","FM-15","8268 ","V020","060,1,N,0015,1","22000,1,9,N","999999,9,N,1","+0180,1","+0180,1","99999,9",,,,"10132,1,99999,9","MET090MOBOB0 METAR 8268 //003 000000 192259Z AUTO 06003KT //// CLR 18/18 A2992 RMK CDP03528 CLR;",
"00826899999","2010-10-19T23:14:00","4","32.95","65.5666666","1156.72","WXPOD8278, AF","FM-16","8268 ","V020","050,1,N,0026,1","22000,1,9,N","999999,9,N,1","+0180,1","+0180,1","99999,9",,,,"10135,1,99999,9","MET090MOBOB0 METAR 8268 //003 000000 192314Z AUTO 05005KT //// CLR 18/18 A2993 RMK CDP03528 CLR;",
"00826899999","2010-10-19T23:29:00","4","32.95","65.5666666","1156.72","WXPOD8278, AF","FM-16","8268 ","V020","060,1,N,0010,1","22000,1,9,N","999999,9,N,1","+0180,1","+0180,1","99999,9",,,,"10132,1,99999,9","MET090MOBOB0 METAR 8268 //003 000000 192329Z AUTO 06002KT //// CLR 18/18 A2992 RMK CDP03528 CLR;",
"00826899999","2010-10-19T23:44:00","4","32.95","65.5666666","1156.72","WXPOD8278, AF","FM-16","8268 ","V020","350,1,N,0005,1","22000,1,9,N","999999,9,N,1","+0180,1","+0180,1","99999,9",,,,"10132,1,99999,9","MET090MOBOB0 METAR 8268 //003 000000 192344Z AUTO 35001KT //// CLR 18/18 A2992 RMK CDP03528 CLR;",
"00826899999","2010-10-20T00:00:00","4","32.95","65.5666666","1156.72","WXPOD8278, AF","FM-15","8268 ","V020","200,1,N,0010,1","22000,1,9,N","999999,9,N,1","+0180,1","+0180,1","99999,9",,,,"10135,1,99999,9","MET090MOBOB0 METAR 8268 //003 000000 192359Z AUTO 20002KT //// CLR 18/18 A2993 RMK CDP03528 CLR;",
"00826899999","2010-10-20T00:14:00","4","32.95","65.5666666","1156.72","WXPOD8278, AF","FM-16","8268 ","V020","130,1,N,0005,1","22000,1,9,N","999999,9,N,1","+0180,1","+0180,1","99999,9",,,,"10138,1,99999,9","MET090MOBOB0 METAR 8268 //003 000000 200014Z AUTO 13001KT //// CLR 18/18 A2994 RMK CDP03528 CLR;",
"00826899999","2010-10-20T00:29:00","4","32.95","65.5666666","1156.72","WXPOD8278, AF","FM-16","8268 ","V020","070,1,N,0005,1","22000,1,9,N","999999,9,N,1","+0180,1","+0180,1","99999,9",,,,"10138,1,99999,9","MET090MOBOB0 METAR 8268 //003 000000 200029Z AUTO 07001KT //// CLR 18/18 A2994 RMK CDP03528 CLR;",
"00826899999","2010-10-20T00:44:00","4","32.95","65.5666666","1156.72","WXPOD8278, AF","FM-16","8268 ","V020","040,1,N,0005,1","22000,1,9,N","999999,9,N,1","+0180,1","+0180,1","99999,9",,,,"10142,1,99999,9","MET090MOBOB0 METAR 8268 //003 000000 200044Z AUTO 04001KT //// CLR 18/18 A2995 RMK CDP03528 CLR;",
"00826899999","2010-10-20T01:00:00","4","32.95","65.5666666","1156.72","WXPOD8278, AF","FM-15","8268 ","V020","030,1,N,0005,1","22000,1,9,N","999999,9,N,1","+0180,1","+0180,1","99999,9",,,,"10142,1,99999,9","MET090MOBOB0 METAR 8268 //003 000000 200059Z AUTO 03001KT //// CLR 18/18 A2995 RMK CDP03528 CLR;",
"00826899999","2010-10-20T01:14:00","4","32.95","65.5666666","1156.72","WXPOD8278, AF","FM-16","8268 ","V020","030,1,N,0015,1","22000,1,9,N","999999,9,N,1","+0190,1","+0190,1","99999,9",,,,"10149,1,99999,9","MET090MOBOB0 METAR 8268 //003 000000 200114Z AUTO 03003KT //// CLR 19/19 A2997 RMK CDP03528 CLR;",
"00826899999","2010-10-20T01:29:00","4","32.95","65.5666666","1156.72","WXPOD8278, AF","FM-16","8268 ","V020","060,1,N,0015,1","22000,1,9,N","999999,9,N,1","+0190,1","+0190,1","99999,9",,,,"10149,1,99999,9","MET090MOBOB0 METAR 8268 //003 000000 200129Z AUTO 06003KT //// CLR 19/19 A2997 RMK CDP03528 CLR;",
"00826899999","2010-10-20T01:44:00","4","32.95","65.5666666","1156.72","WXPOD8278, AF","FM-16","8268 ","V020","060,1,N,0015,1","22000,1,9,N","999999,9,N,1","+0190,1","+0190,1","99999,9",,,,"10145,1,99999,9","MET090MOBOB0 METAR 8268 //003 000000 200144Z AUTO 06003KT //// CLR 19/19 A2996 RMK CDP03528 CLR;",
"00826899999","2010-10-20T02:00:00","4","32.95","65.5666666","1156.72","WXPOD8278, AF","FM-15","8268 ","V020","090,1,N,0015,1","22000,1,9,N","999999,9,N,1","+0190,1","+0190,1","99999,9",,,,"10145,1,99999,9","MET090MOBOB0 METAR 8268 //003 000000 200159Z AUTO 09003KT //// CLR 19/19 A2996 RMK CDP03528 CLR;",
"00826899999","2010-10-20T02:14:00","4","32.95","65.5666666","1156.72","WXPOD8278, AF","FM-16","8268 ","V020","090,1,N,0015,1","22000,1,9,N","999999,9,N,1","+0190,1","+0190,1","99999,9",,,,"10149,1,99999,9","MET090MOBOB0 METAR 8268 //003 000000 200214Z AUTO 09003KT //// CLR 19/19 A2997 RMK CDP03528 CLR;",
"00826899999","2010-10-20T02:29:00","4","32.95","65.5666666","1156.72","WXPOD8278, AF","FM-16","8268 ","V020","120,1,N,0015,1","22000,1,9,N","999999,9,N,1","+0190,1","+0190,1","99999,9",,,,"10152,1,99999,9","MET090MOBOB0 METAR 8268 //003 000000 200229Z AUTO 12003KT //// CLR 19/19 A2998 RMK CDP03528 CLR;",
"00826899999","2010-10-20T02:44:00","4","32.95","65.5666666","1156.72","WXPOD8278, AF","FM-16","8268 ","V020","110,1,N,0010,1","99999,9,9,N","999999,9,N,1","+0190,1","+0190,1","99999,9",,,"999,M,+9999,9","10152,1,99999,9","MET090MOBOB0 METAR 8268 //003 000000 200244Z AUTO 11002KT //// CLR 19/19 A2998 RMK CDP03528 CLR;","Q01 -00022ATMX  "
"00826899999","2010-10-20T03:00:00","4","32.95","65.5666666","1156.72","WXPOD8278, AF","FM-15","8268 ","V020","110,1,N,0010,1","99999,9,9,N","999999,9,N,1","+0190,1","+0190,1","99999,9",,,"999,M,+9999,9","10149,1,99999,9","MET090MOBOB0 METAR 8268 //003 000000 200259Z AUTO 11002KT //// CLR 19/19 A2997 RMK CDP03528 CLR;","Q01 -00022ATMX  "
"00826899999","2010-10-20T03:14:00","4","32.95","65.5666666","1156.72","WXPOD8278, AF","FM-16","8268 ","V020","120,1,N,0010,1","22000,1,9,N","999999,9,N,1","+0190,1","+0190,1","99999,9",,,,"10149,1,99999,9","MET090MOBOB0 METAR 8268 //003 000000 200314Z AUTO 12002KT //// CLR 19/19 A2997 RMK CDP03528 CLR;",
"00826899999","2010-10-20T03:29:00","4","32.95","65.5666666","1156.72","WXPOD8278, AF","FM-16","8268 ","V020","120,1,N,0010,1","22000,1,9,N","999999,9,N,1","+0190,1","+0190,1","99999,9",,,,"10152,1,99999,9","MET090MOBOB0 METAR 8268 //003 000000 200329Z AUTO 12002KT //// CLR 19/19 A2998 RMK CDP03528 CLR;",
"00826899999","2010-10-20T03:44:00","4","32.95","65.5666666","1156.72","WXPOD8278, AF","FM-16","8268 ","V020","120,1,N,0010,1","22000,1,9,N","999999,9,N,1","+0190,1","+0190,1","99999,9",,,,"10152,1,99999,9","MET090MOBOB0 METAR 8268 //003 000000 200344Z AUTO 12002KT //// CLR 19/19 A2998 RMK CDP03528 CLR;",
"00826899999","2010-10-20T04:00:00","4","32.95","65.5666666","1156.72","WXPOD8278, AF","FM-15","8268 ","V020","120,1,N,0005,1","22000,1,9,N","999999,9,N,1","+0190,1","+0190,1","99999,9",,,,"10152,1,99999,9","MET090MOBOB0 METAR 8268 //003 000000 200359Z AUTO 12001KT //// CLR 19/19 A2998 RMK CDP03528 CLR;",
"00826899999","2010-10-20T04:14:00","4","32.95","65.5666666","1156.72","WXPOD8278, AF","FM-16","8268 ","V020","130,1,N,0005,1","22000,1,9,N","999999,9,N,1","+0190,1","+0190,1","99999,9",,,,"10152,1,99999,9","MET090MOBOB0 METAR 8268 //003 000000 200414Z AUTO 13001KT //// CLR 19/19 A2998 RMK CDP03528 CLR;",
"00826899999","2010-10-20T04:29:00","4","32.95","65.5666666","1156.72","WXPOD8278, AF","FM-16","8268 ","V020","130,1,N,0010,1","22000,1,9,N","999999,9,N,1","+0190,1","+0190,1","99999,9",,,,"10152,1,99999,9","MET090MOBOB0 METAR 8268 //003 000000 200429Z AUTO 13002KT //// CLR 19/19 A2998 RMK CDP03528 CLR;",
"00826899999","2010-10-20T05:00:00","4","32.95","65.5666666","1156.72","WXPOD8278, AF","FM-15","8268 ","V020","140,1,N,0005,1","22000,1,9,N","999999,9,N,1","+0190,1","+0190,1","99999,9",,,,"10149,1,99999,9","MET090MOBOB0 METAR 8268 //003 000000 200459Z AUTO 14001KT //// CLR 19/19 A2997 RMK CDP03528 CLR;",
"00826899999","2010-10-20T05:14:00","4","32.95","65.5666666","1156.72","WXPOD8278, AF","FM-16","8268 ","V020","140,1,N,0010,1","22000,1,9,N","999999,9,N,1","+0190,1","+0190,1","99999,9",,,,"10145,1,99999,9","MET090MOBOB0 METAR 8268 //003 000000 200514Z AUTO 14002KT //// CLR 19/19 A2996 RMK CDP03528 CLR;",
"00826899999","2010-10-20T05:29:00","4","32.95","65.5666666","1156.72","WXPOD8278, AF","FM-16","8268 ","V020","190,1,N,0010,1","22000,1,9,N","999999,9,N,1","+0190,1","+0190,1","99999,9",,,,"10145,1,99999,9","MET090MOBOB0 METAR 8268 //003 000000 200529Z AUTO 19002KT //// CLR 19/19 A2996 RMK CDP03528 CLR;",
"00826899999","2010-10-20T05:44:00","4","32.95","65.5666666","1156.72","WXPOD8278, AF","FM-16","8268 ","V020","190,1,N,0005,1","22000,1,9,N","999999,9,N,1","+0180,1","+0180,1","99999,9",,,,"10142,1,99999,9","MET090MOBOB0 METAR 8268 //003 000000 200544Z AUTO 19001KT //// CLR 18/18 A2995 RMK CDP03528 CLR;",
"00826899999","2010-10-20T06:00:00","4","32.95","65.5666666","1156.72","WXPOD8278, AF","FM-15","8268 ","V020","200,1,N,0005,1","22000,1,9,N","999999,9,N,1","+0180,1","+0180,1","99999,9",,,,"10145,1,99999,9","MET090MOBOB0 METAR 8268 //003 000000 200559Z AUTO 20001KT //// CLR 18/18 A2996 RMK CDP03528 CLR;",
"00826899999","2010-10-20T06:14:00","4","32.95","65.5666666","1156.72","WXPOD8278, AF","FM-16","8268 ","V020","180,1,N,0005,1","22000,1,9,N","999999,9,N,1","+0180,1","+0180,1","99999,9",,,,"10142,1,99999,9","MET090MOBOB0 METAR 8268 //003 000000 200614Z AUTO 18001KT //// CLR 18/18 A2995 RMK CDP03528 CLR;",
"00826899999","2010-10-20T06:29:00","4","32.95","65.5666666","1156.72","WXPOD8278, AF","FM-16","8268 ","V020","210,1,N,0005,1","22000,1,9,N","999999,9,N,1","+0180,1","+0180,1","99999,9",,,,"10142,1,99999,9","MET090MOBOB0 METAR 8268 //003 000000 200629Z AUTO 21001KT //// CLR 18/18 A2995 RMK CDP03528 CLR;",
"00826899999","2010-10-20T06:44:00","4","32.95","65.5666666","1156.72","WXPOD8278, AF","FM-16","8268 ","V020","190,1,N,0005,1","22000,1,9,N","999999,9,N,1","+0180,1","+0180,1","99999,9",,,,"10145,1,99999,9","MET090MOBOB0 METAR 8268 //003 000000 200644Z AUTO 19001KT //// CLR 18/18 A2996 RMK CDP03528 CLR;",
"00826899999","2010-10-20T07:00:00","4","32.95","65.5666666","1156.72","WXPOD8278, AF","FM-15","8268 ","V020","100,1,N,0005,1","99999,9,9,N","999999,9,N,1","+0180,1","+0180,1","99999,9",,,"999,M,+9999,9","10145,1,99999,9","MET090MOBOB0 METAR 8268 //003 000000 200659Z AUTO 10001KT //// CLR 18/18 A2996 RMK CDP03528 CLR;","Q01 +00012ATMX  "
"00826899999","2010-10-20T07:14:00","4","32.95","65.5666666","1156.72","WXPOD8278, AF","FM-16","8268 ","V020","100,1,N,0005,1","99999,9,9,N","999999,9,N,1","+0180,1","+0180,1","99999,9",,,"999,M,+9999,9","10145,1,99999,9","MET090MOBOB0 METAR 8268 //003 000000 200714Z AUTO 10001KT //// CLR 18/18 A2996 RMK CDP03528 CLR;","Q01 +00012ATMX  "
"00826899999","2010-10-20T07:29:00","4","32.95","65.5666666","1156.72","WXPOD8278, AF","FM-16","8268 ","V020","030,1,N,0015,1","22000,1,9,N","999999,9,N,1","+0180,1","+0180,1","99999,9",,,,"10145,1,99999,9","MET090MOBOB0 METAR 8268 //003 000000 200729Z AUTO 03003KT //// CLR 18/18 A2996 RMK CDP03528 CLR;",
"00826899999","2010-10-20T08:00:00","4","32.95","65.5666666","1156.72","WXPOD8278, AF","FM-15","8268 ","V020","050,1,N,0010,1","22000,1,9,N","999999,9,N,1","+0180,1","+0180,1","99999,9",,,,"10145,1,99999,9","MET090MOBOB0 METAR 8268 //003 000000 200759Z AUTO 05002KT //// CLR 18/18 A2996 RMK CDP03528 CLR;",
"00826899999","2010-10-20T08:14:00","4","32.95","65.5666666","1156.72","WXPOD8278, AF","FM-16","8268 ","V020","050,1,N,0015,1","22000,1,9,N","999999,9,N,1","+0180,1","+0180,1","99999,9",,,,"10145,1,99999,9","MET090MOBOB0 METAR 8268 //003 000000 200814Z AUTO 05003KT //// CLR 18/18 A2996 RMK CDP03528 CLR;",
"00826899999","2010-10-20T08:29:00","4","32.95","65.5666666","1156.72","WXPOD8278, AF","FM-16","8268 ","V020","100,1,N,0010,1","99999,9,9,N","999999,9,N,1","+0180,1","+0180,1","99999,9",,,"999,M,+9999,9","10142,1,99999,9","MET090MOBOB0 METAR 8268 //003 000000 200829Z AUTO 10002KT //// CLR 18/18 A2995 RMK CDP03528 CLR;","Q01 +00022ATMX  "
"00826899999","2010-10-20T08:44:00","4","32.95","65.5666666","1156.72","WXPOD8278, AF","FM-16","8268 ","V020","090,1,N,0010,1","22000,1,9,N","999999,9,N,1","+0180,1","+0180,1","99999,9",,,,"10142,1,99999,9","MET090MOBOB0 METAR 8268 //003 000000 200844Z AUTO 09002KT //// CLR 18/18 A2995 RMK CDP03528 CLR;",
"00826899999","2010-10-20T09:00:00","4","32.95","65.5666666","1156.72","WXPOD8278, AF","FM-15","8268 ","V020","120,1,N,0010,1","22000,1,9,N","999999,9,N,1","+0180,1","+0180,1","99999,9",,,,"10142,1,99999,9","MET090MOBOB0 METAR 8268 //003 000000 200859Z AUTO 12002KT //// CLR 18/18 A2995 RMK CDP03528 CLR;",
"00826899999","2010-10-20T09:14:00","4","32.95","65.5666666","1156.72","WXPOD8278, AF","FM-16","8268 ","V020","060,1,N,0005,1","22000,1,9,N","999999,9,N,1","+0180,1","+0180,1","99999,9",,,,"10142,1,99999,9","MET090MOBOB0 METAR 8268 //003 000000 200914Z AUTO 06001KT //// CLR 18/18 A2995 RMK CDP03528 CLR;",
"00826899999","2010-10-20T09:29:00","4","32.95","65.5666666","1156.72","WXPOD8278, AF","FM-16","8268 ","V020","150,1,N,0010,1","22000,1,9,N","999999,9,N,1","+0180,1","+0180,1","99999,9",,,,"10142,1,99999,9","MET090MOBOB0 METAR 8268 //003 000000 200929Z AUTO 15002KT //// CLR 18/18 A2995 RMK CDP03528 CLR;",
"00826899999","2010-10-20T09:44:00","4","32.95","65.5666666","1156.72","WXPOD8278, AF","FM-16","8268 ","V020","999,9,C,0000,1","22000,1,9,N","999999,9,N,1","+0180,1","+0180,1","99999,9",,,,"10145,1,99999,9","MET090MOBOB0 METAR 8268 //003 000000 200944Z AUTO 00000KT //// CLR 18/18 A2996 RMK CDP03528 CLR;",
"00826899999","2010-10-20T10:00:00","4","32.95","65.5666666","1156.72","WXPOD8278, AF","FM-15","8268 ","V020","110,1,N,0005,1","99999,9,9,N","999999,9,N,1","+0180,1","+0180,1","99999,9",,,"999,M,+9999,9","10145,1,99999,9","MET090MOBOB0 METAR 8268 //003 000000 200959Z AUTO 11001KT //// CLR 18/18 A2996 RMK CDP03528 CLR;","Q01 -00012ATMX  "
"00826899999","2010-10-20T10:14:00","4","32.95","65.5666666","1156.72","WXPOD8278, AF","FM-16","8268 ","V020","999,9,C,0000,1","22000,1,9,N","999999,9,N,1","+0180,1","+0180,1","99999,9",,,,"10149,1,99999,9","MET090MOBOB0 METAR 8268 //003 000000 201014Z AUTO 00000KT //// CLR 18/18 A2997 RMK CDP03528 CLR;",
"00826899999","2010-10-20T10:29:00","4","32.95","65.5666666","1156.72","WXPOD8278, AF","FM-16","8268 ","V020","020,1,N,0005,1","22000,1,9,N","999999,9,N,1","+0180,1","+0180,1","99999,9",,,,"10149,1,99999,9","MET090MOBOB0 METAR 8268 //003 000000 201029Z AUTO 02001KT //// CLR 18/18 A2997 RMK CDP03528 CLR;",
"00826899999","2010-10-20T10:44:00","4","32.95","65.5666666","1156.72","WXPOD8278, AF","FM-16","8268 ","V020","999,9,C,0000,1","22000,1,9,N","999999,9,N,1","+0180,1","+0180,1","99999,9",,,,"10152,1,99999,9","MET090MOBOB0 METAR 8268 //003 000000 201044Z AUTO 00000KT //// CLR 18/18 A2998 RMK CDP03528 CLR;",
"00826899999","2010-10-20T11:00:00","4","32.95","65.5666666","1156.72","WXPOD8278, AF","FM-15","8268 ","V020","050,1,N,0005,1","22000,1,9,N","999999,9,N,1","+0180,1","+0180,1","99999,9",,,,"10152,1,99999,9","MET090MOBOB0 METAR 8268 //003 000000 201059Z AUTO 05001KT //// CLR 18/18 A2998 RMK CDP03528 CLR;",
"00826899999","2010-10-20T11:14:00","4","32.95","65.5666666","1156.72","WXPOD8278, AF","FM-16","8268 ","V020","030,1,N,0010,1","22000,1,9,N","999999,9,N,1","+0170,1","+0170,1","99999,9",,,,"10155,1,99999,9","MET090MOBOB0 METAR 8268 //003 000000 201114Z AUTO 03002KT //// CLR 17/17 A2999 RMK CDP03528 CLR;",
"00826899999","2010-10-20T11:29:00","4","32.95","65.5666666","1156.72","WXPOD8278, AF","FM-16","8268 ","V020","090,1,N,0005,1","22000,1,9,N","999999,9,N,1","+0170,1","+0170,1","99999,9",,,,"10155,1,99999,9","MET090MOBOB0 METAR 8268 //003 000000 201129Z AUTO 09001KT //// CLR 17/17 A2999 RMK CDP03528 CLR;",
"00826899999","2010-10-20T11:44:00","4","32.95","65.5666666","1156.72","WXPOD8278, AF","FM-16","8268 ","V020","090,1,N,0005,1","22000,1,9,N","999999,9,N,1","+0170,1","+0170,1","99999,9",,,,"10155,1,99999,9","MET090MOBOB0 METAR 8268 //003 000000 201144Z AUTO 09001KT //// CLR 17/17 A2999 RMK CDP03528 CLR;",
"00826899999","2010-10-20T12:00:00","4","32.95","65.5666666","1156.72","WXPOD8278, AF","FM-15","8268 ","V020","070,1,N,0005,1","22000,1,9,N","999999,9,N,1","+0170,1","+0170,1","99999,9",,,,"10159,1,99999,9","MET090MOBOB0 METAR 8268 //003 000000 201159Z AUTO 07001KT //// CLR 17/17 A3000 RMK CDP03528 CLR;",
"00826899999","2010-10-20T12:14:00","4","32.95","65.5666666","1156.72","WXPOD8278, AF","FM-16","8268 ","V020","070,1,N,0010,1","22000,1,9,N","999999,9,N,1","+0170,1","+0170,1","99999,9",,,,"10159,1,99999,9","MET090MOBOB0 METAR 8268 //003 000000 201214Z AUTO 07002KT //// CLR 17/17 A3000 RMK CDP03528 CLR;",
"00826899999","2010-10-20T12:29:00","4","32.95","65.5666666","1156.72","WXPOD8278, AF","FM-16","8268 ","V020","090,1,N,0010,1","22000,1,9,N","999999,9,N,1","+0170,1","+0170,1","99999,9",,,,"10159,1,99999,9","MET090MOBOB0 METAR 8268 //003 000000 201229Z AUTO 09002KT //// CLR 17/17 A3000 RMK CDP03528 CLR;",
"00826899999","2010-10-20T12:44:00","4","32.95","65.5666666","1156.72","WXPOD8278, AF","FM-16","8268 ","V020","120,1,N,0005,1","22000,1,9,N","999999,9,N,1","+0180,1","+0180,1","99999,9",,,,"10159,1,99999,9","MET090MOBOB0 METAR 8268 //003 000000 201244Z AUTO 12001KT //// CLR 18/18 A3000 RMK CDP03528 CLR;",
"00826899999","2010-10-20T13:00:00","4","32.95","65.5666666","1156.72","WXPOD8278, AF","FM-15","8268 ","V020","110,1,N,0005,1","99999,9,9,N","999999,9,N,1","+0180,1","+0180,1","99999,9",,,"999,M,+9999,9","10159,1,99999,9","MET090MOBOB0 METAR 8268 //003 000000 201259Z AUTO 11001KT //// CLR 18/18 A3000 RMK CDP03528 CLR;","Q01 -00012ATMX  "
"00826899999","2010-10-20T13:14:00","4","32.95","65.5666666","1156.72","WXPOD8278, AF","FM-16","8268 ","V020","090,1,N,0010,1","22000,1,9,N","999999,9,N,1","+0180,1","+0180,1","99999,9",,,,"10162,1,99999,9","MET090MOBOB0 METAR 8268 //003 000000 201314Z AUTO 09002KT //// CLR 18/18 A3001 RMK CDP03528 CLR;",
"00826899999","2010-10-20T13:29:00","4","32.95","65.5666666","1156.72","WXPOD8278, AF","FM-16","8268 ","V020","060,1,N,0005,1","22000,1,9,N","999999,9,N,1","+0180,1","+0180,1","99999,9",,,,"10162,1,99999,9","MET090MOBOB0 METAR 8268 //003 000000 201329Z AUTO 06001KT //// CLR 18/18 A3001 RMK CDP03528 CLR;",
"00826899999","2010-10-20T13:44:00","4","32.95","65.5666666","1156.72","WXPOD8278, AF","FM-16","8268 ","V020","010,1,N,0005,1","00030,5,9,N","999999,9,N,1","+0190,1","+0190,1","99999,9","08,5,+00030,5,99,9",,,"10165,1,99999,9","MET108MOBOB0 METAR 8268 //003 000000 201344Z AUTO 01001KT //// OVC001 19/19 A3002 RMK CDP03528 OVC001 CLD AVG 001;",
"00826899999","2010-10-20T14:00:00","4","32.95","65.5666666","1156.72","WXPOD8278, AF","FM-15","8268 ","V020","040,1,N,0005,1","00030,5,9,N","999999,9,N,1","+0190,1","+0190,1","99999,9","08,5,+00030,5,99,9",,,"10165,1,99999,9","MET108MOBOB0 METAR 8268 //003 000000 201359Z AUTO 04001KT //// OVC001 19/19 A3002 RMK CDP03528 OVC001 CLD AVG 001;",
"00826899999","2010-10-20T14:14:00","4","32.95","65.5666666","1156.72","WXPOD8278, AF","FM-16","8268 ","V020","050,1,N,0010,1","00030,5,9,N","999999,9,N,1","+0190,1","+0190,1","99999,9","08,5,+00030,5,99,9",,,"10169,1,99999,9","MET108MOBOB0 METAR 8268 //003 000000 201414Z AUTO 05002KT //// OVC001 19/19 A3003 RMK CDP03528 OVC001 CLD AVG 001;",
"00826899999","2010-10-20T14:29:00","4","32.95","65.5666666","1156.72","WXPOD8278, AF","FM-16","8268 ","V020","999,9,C,0000,1","00030,5,9,N","999999,9,N,1","+0190,1","+0190,1","99999,9","08,5,+00030,5,99,9",,,"10169,1,99999,9","MET108MOBOB0 METAR 8268 //003 000000 201429Z AUTO 00000KT //// OVC001 19/19 A3003 RMK CDP03528 OVC001 CLD AVG 002;",
"00826899999","2010-10-20T14:44:00","4","32.95","65.5666666","1156.72","WXPOD8278, AF","FM-16","8268 ","V020","200,1,N,0005,1","00090,5,9,N","999999,9,N,1","+0200,1","+0200,1","99999,9","08,5,+00090,5,99,9",,,"10172,1,99999,9","MET108MOBOB0 METAR 8268 //003 000000 201444Z AUTO 20001KT //// OVC003 20/20 A3004 RMK CDP03528 OVC003 CLD AVG 004;",
"00826899999","2010-10-20T15:00:00","4","32.95","65.5666666","1156.72","WXPOD8278, AF","FM-15","8268 ","V020","140,1,N,0005,1","00090,5,9,N","999999,9,N,1","+0200,1","+0200,1","99999,9","08,5,+00090,5,99,9",,,"10172,1,99999,9","MET108MOBOB0 METAR 8268 //003 000000 201459Z AUTO 14001KT //// OVC003 20/20 A3004 RMK CDP03528 OVC003 CLD AVG 006;",
"00826899999","2010-10-20T15:14:00","4","32.95","65.5666666","1156.72","WXPOD8278, AF","FM-16","8268 ","V020","210,1,N,0010,1","00210,5,9,N","999999,9,N,1","+0200,1","+0200,1","99999,9","08,5,+00210,5,99,9",,,"10172,1,99999,9","MET108MOBOB0 METAR 8268 //003 000000 201514Z AUTO 21002KT //// OVC007 20/20 A3004 RMK CDP03528 OVC007 CLD AVG 008;",
"00826899999","2010-10-20T15:29:00","4","32.95","65.5666666","1156.72","WXPOD8278, AF","FM-16","8268 ","V020","270,1,N,0010,1","00180,5,9,N","999999,9,N,1","+0200,1","+0200,1","99999,9","07,5,+00180,5,99,9",,,"10172,1,99999,9","MET108MOBOB0 METAR 8268 //003 000000 201529Z AUTO 27002KT //// BKN006 20/20 A3004 RMK CDP03528 BKN006 CLD AVG 007;",
"00826899999","2010-10-20T15:44:00","4","32.95","65.5666666","1156.72","WXPOD8278, AF","FM-16","8268 ","V020","210,1,N,0015,1","00210,5,9,N","999999,9,N,1","+0210,1","+0210,1","99999,9","08,5,+00210,5,99,9",,,"10172,1,99999,9","MET108MOBOB0 METAR 8268 //003 000000 201544Z AUTO 21003KT //// OVC007 21/21 A3004 RMK CDP03528 OVC007 CLD AVG 007;",
"00826899999","2010-10-20T16:00:00","4","32.95","65.5666666","1156.72","WXPOD8278, AF","FM-15","8268 ","V020","220,1,N,0010,1","00210,5,9,N","999999,9,N,1","+0220,1","+0220,1","99999,9","07,5,+00210,5,99,9",,,"10172,1,99999,9","MET108MOBOB0 METAR 8268 //003 000000 201559Z AUTO 22002KT //// BKN007 22/22 A3004 RMK CDP03528 BKN007 CLD AVG 009;",
"00826899999","2010-10-20T16:14:00","4","32.95","65.5666666","1156.72","WXPOD8278, AF","FM-16","8268 ","V020","130,1,N,0005,1","00270,5,9,N","999999,9,N,1","+0220,1","+0210,1","99999,9","08,5,+00270,5,99,9",,,"10172,1,99999,9","MET108MOBOB0 METAR 8268 //003 000000 201614Z AUTO 13001KT //// OVC009 22/21 A3004 RMK CDP03528 OVC009 CLD AVG 009;",
"00826899999","2010-10-20T16:29:00","4","32.95","65.5666666","1156.72","WXPOD8278, AF","FM-16","8268 ","V020","010,1,N,0005,1","00300,5,9,N","999999,9,N,1","+0220,1","+0220,1","99999,9","08,5,+00300,5,99,9",,,"10172,1,99999,9","MET108MOBOB0 METAR 8268 //003 000000 201629Z AUTO 01001KT //// OVC010 22/22 A3004 RMK CDP03528 OVC010 CLD AVG 010;",
"00826899999","2010-10-20T16:44:00","4","32.95","65.5666666","1156.72","WXPOD8278, AF","FM-16","8268 ","V020","360,1,N,0005,1","00330,5,9,N","999999,9,N,1","+0230,1","+0220,1","99999,9","08,5,+00330,5,99,9",,,"10172,1,99999,9","MET108MOBOB0 METAR 8268 //003 000000 201644Z AUTO 36001KT //// OVC011 23/22 A3004 RMK CDP03528 OVC011 CLD AVG 012;",
"00826899999","2010-10-20T17:00:00","4","32.95","65.5666666","1156.72","WXPOD8278, AF","FM-15","8268 ","V020","320,1,N,0010,1","00360,5,9,N","999999,9,N,1","+0230,1","+0220,1","99999,9","08,5,+00360,5,99,9",,,"10172,1,99999,9","MET108MOBOB0 METAR 8268 //003 000000 201659Z AUTO 32002KT //// OVC012 23/22 A3004 RMK CDP03528 OVC012 CLD AVG 015;",
"00826899999","2010-10-20T17:14:00","4","32.95","65.5666666","1156.72","WXPOD8278, AF","FM-16","8268 ","V020","340,1,N,0015,1","00390,5,9,N","999999,9,N,1","+0230,1","+0210,1","99999,9","08,5,+00390,5,99,9",,,"10172,1,99999,9","MET108MOBOB0 METAR 8268 //003 000000 201714Z AUTO 34003KT //// OVC013 23/21 A3004 RMK CDP03528 OVC013 CLD AVG 014;",
"00826899999","2010-10-20T17:29:00","4","32.95","65.5666666","1156.72","WXPOD8278, AF","FM-16","8268 ","V020","010,1,N,0026,1","22000,1,9,N","999999,9,N,1","+0230,1","+0210,1","99999,9","04,5,+00450,5,99,9",,,"10172,1,99999,9","MET108MOBOB0 METAR 8268 //003 000000 201729Z AUTO 01005KT //// SCT015 23/21 A3004 RMK CDP03528 SCT015 CLD AVG 016;",
"00826899999","2010-10-20T17:44:00","4","32.95","65.5666666","1156.72","WXPOD8278, AF","FM-16","8268 ","V020","020,1,N,0010,1","22000,1,9,N","999999,9,N,1","+0250,1","+0210,1","99999,9",,,,"10169,1,99999,9","MET090MOBOB0 METAR 8268 //003 000000 201744Z AUTO 02002KT //// CLR 25/21 A3003 RMK CDP03528 CLR;",
"00826899999","2010-10-20T18:00:00","4","32.95","65.5666666","1156.72","WXPOD8278, AF","FM-15","8268 ","V020","110,1,N,0015,1","22000,1,9,N","999999,9,N,1","+0250,1","+0210,1","99999,9","04,5,+00570,5,99,9",,"999,M,+9999,9","10169,1,99999,9","MET108MOBOB0 METAR 8268 //003 000000 201759Z AUTO 11003KT //// SCT019 25/21 A3003 RMK CDP03528 SCT019 CLD AVG 020;","Q01 -00032ATMX  "
"00826899999","2010-10-20T18:14:00","4","32.95","65.5666666","1156.72","WXPOD8278, AF","FM-16","8268 ","V020","130,1,N,0015,1","22000,1,9,N","999999,9,N,1","+0260,1","+0220,1","99999,9","02,5,+00600,5,99,9",,,"10165,1,99999,9","MET108MOBOB0 METAR 8268 //003 000000 201814Z AUTO 13003KT //// FEW020 26/22 A3002 RMK CDP03528 FEW020 CLD AVG 020;",
"00826899999","2010-10-20T18:29:00","4","32.95","65.5666666","1156.72","WXPOD8278, AF","FM-16","8268 ","V020","040,1,N,0010,1","22000,1,9,N","999999,9,N,1","+0280,1","+0220,1","99999,9","04,5,+00630,5,99,9",,,"10162,1,99999,9","MET108MOBOB0 METAR 8268 //003 000000 201829Z AUTO 04002KT //// SCT021 28/22 A3001 RMK CDP03528 SCT021 CLD AVG 022;",
"00826899999","2010-10-20T18:44:00","4","32.95","65.5666666","1156.72","WXPOD8278, AF","FM-16","8268 ","V020","050,1,N,0010,1","22000,1,9,N","999999,9,N,1","+0250,1","+0200,1","99999,9","02,5,+00690,5,99,9",,,"10159,1,99999,9","MET108MOBOB0 METAR 8268 //003 000000 201844Z AUTO 05002KT //// FEW023 25/20 A3000 RMK CDP03528 FEW023 CLD AVG 023;",
"00826899999","2010-10-20T19:00:00","4","32.95","65.5666666","1156.72","WXPOD8278, AF","FM-15","8268 ","V020","050,1,N,0005,1","22000,1,9,N","999999,9,N,1","+0270,1","+0200,1","99999,9",,,,"10159,1,99999,9","MET090MOBOB0 METAR 8268 //003 000000 201859Z AUTO 05001KT //// CLR 27/20 A3000 RMK CDP03528 CLR;",
"00826899999","2010-10-20T19:14:00","4","32.95","65.5666666","1156.72","WXPOD8278, AF","FM-16","8268 ","V020","060,1,N,0015,1","00810,5,9,N","999999,9,N,1","+0270,1","+0210,1","99999,9","07,5,+00810,5,99,9",,,"10155,1,99999,9","MET108MOBOB0 METAR 8268 //003 000000 201914Z AUTO 06003KT //// BKN027 27/21 A2999 RMK CDP03528 BKN027 CLD AVG 031;",
"00826899999","2010-10-20T19:29:00","4","32.95","65.5666666","1156.72","WXPOD8278, AF","FM-16","8268 ","V020","090,1,N,0010,1","22000,1,9,N","999999,9,N,1","+0270,1","+0200,1","99999,9","02,5,+00930,5,99,9",,,"10155,1,99999,9","MET108MOBOB0 METAR 8268 //003 000000 201929Z AUTO 09002KT //// FEW031 27/20 A2999 RMK CDP03528 FEW031 CLD AVG 032;",
"00826899999","2010-10-20T19:44:00","4","32.95","65.5666666","1156.72","WXPOD8278, AF","FM-16","8268 ","V020","040,1,N,0010,1","00960,5,9,N","999999,9,N,1","+0290,1","+0210,1","99999,9","07,5,+00960,5,99,9",,,"10155,1,99999,9","MET108MOBOB0 METAR 8268 //003 000000 201944Z AUTO 04002KT //// BKN032 29/21 A2999 RMK CDP03528 BKN032 CLD AVG 032;",
"00826899999","2010-10-20T20:00:00","4","32.95","65.5666666","1156.72","WXPOD8278, AF","FM-15","8268 ","V020","040,1,N,0021,1","22000,1,9,N","999999,9,N,1","+0280,1","+0210,1","99999,9",,,,"10152,1,99999,9","MET090MOBOB0 METAR 8268 //003 000000 201959Z AUTO 04004KT //// CLR 28/21 A2998 RMK CDP03528 CLR;",
"00826899999","2010-10-20T20:14:00","4","32.95","65.5666666","1156.72","WXPOD8278, AF","FM-16","8268 ","V020","310,1,N,0010,1","22000,1,9,N","999999,9,N,1","+0270,1","+0200,1","99999,9",,,,"10152,1,99999,9","MET090MOBOB0 METAR 8268 //003 000000 202014Z AUTO 31002KT //// CLR 27/20 A2998 RMK CDP03528 CLR;",
"00826899999","2010-10-20T20:29:00","4","32.95","65.5666666","1156.72","WXPOD8278, AF","FM-16","8268 ","V020","999,9,C,0000,1","00900,5,9,N","999999,9,N,1","+0280,1","+0190,1","99999,9","07,5,+00900,5,99,9",,,"10152,1,99999,9","MET108MOBOB0 METAR 8268 //003 000000 202029Z AUTO 00000KT //// BKN030 28/19 A2998 RMK CDP03528 BKN030 CLD AVG 035;",
"00826899999","2010-10-20T20:44:00","4","32.95","65.5666666","1156.72","WXPOD8278, AF","FM-16","8268 ","V020","070,1,N,0015,1","22000,1,9,N","999999,9,N,1","+0270,1","+0200,1","99999,9",,,,"10152,1,99999,9","MET090MOBOB0 METAR 8268 //003 000000 202044Z AUTO 07003KT //// CLR 27/20 A2998 RMK CDP03528 CLR;",
"00826899999","2010-10-20T21:00:00","4","32.95","65.5666666","1156.72","WXPOD8278, AF","FM-15","8268 ","V020","250,1,N,0010,1","22000,1,9,N","999999,9,N,1","+0270,1","+0190,1","99999,9",,,,"10152,1,99999,9","MET090MOBOB0 METAR 8268 //003 000000 202059Z AUTO 25002KT //// CLR 27/19 A2998 RMK CDP03528 CLR;",
"00826899999","2010-10-20T21:14:00","4","32.95","65.5666666","1156.72","WXPOD8278, AF","FM-16","8268 ","V020","090,1,N,0005,1","22000,1,9,N","999999,9,N,1","+0290,1","+0200,1","99999,9",,,,"10152,1,99999,9","MET090MOBOB0 METAR 8268 //003 000000 202114Z AUTO 09001KT //// CLR 29/20 A2998 RMK CDP03528 CLR;",
"00826899999","2010-10-20T21:29:00","4","32.95","65.5666666","1156.72","WXPOD8278, AF","FM-16","8268 ","V020","060,1,N,0021,1","01080,5,9,N","999999,9,N,1","+0290,1","+0200,1","99999,9","07,5,+01080,5,99,9",,,"10149,1,99999,9","MET108MOBOB0 METAR 8268 //003 000000 202129Z AUTO 06004KT //// BKN036 29/20 A2997 RMK CDP03528 BKN036 CLD AVG 037;",
"00826899999","2010-10-20T21:44:00","4","32.95","65.5666666","1156.72","WXPOD8278, AF","FM-16","8268 ","V020","030,1,N,0005,1","22000,1,9,N","999999,9,N,1","+0280,1","+0190,1","99999,9","04,5,+01320,5,99,9",,,"10149,1,99999,9","MET108MOBOB0 METAR 8268 //003 000000 202144Z AUTO 03001KT //// SCT044 28/19 A2997 RMK CDP03528 SCT044 CLD AVG 045;",
"00826899999","2010-10-20T22:00:00","4","32.95","65.5666666","1156.72","WXPOD8278, AF","FM-15","8268 ","V020","100,1,N,0021,1","22000,1,9,N","999999,9,N,1","+0280,1","+0200,1","99999,9","02,5,+01110,5,99,9",,"999,M,+9999,9","10149,1,99999,9","MET108MOBOB0 METAR 8268 //003 000000 202159Z AUTO 10004KT //// FEW037 28/20 A2997 RMK CDP03528 FEW037 CLD AVG 038;","Q01 +00042ATMX  "
"00826899999","2010-10-20T22:14:00","4","32.95","65.5666666","1156.72","WXPOD8278, AF","FM-16","8268 ","V020","060,1,N,0021,1","01350,5,9,N","999999,9,N,1","+0260,1","+0200,1","99999,9","07,5,+01350,5,99,9",,,"10149,1,99999,9","MET108MOBOB0 METAR 8268 //003 000000 202214Z AUTO 06004KT //// BKN045 26/20 A2997 RMK CDP03528 BKN045 CLD AVG 048;",
"00826899999","2010-10-20T22:29:00","4","32.95","65.5666666","1156.72","WXPOD8278, AF","FM-16","8268 ","V020","060,1,N,0015,1","22000,1,9,N","999999,9,N,1","+0260,1","+0200,1","99999,9",,,,"10149,1,99999,9","MET090MOBOB0 METAR 8268 //003 000000 202229Z AUTO 06003KT //// CLR 26/20 A2997 RMK CDP03528 CLR;",
"00826899999","2010-10-20T22:44:00","4","32.95","65.5666666","1156.72","WXPOD8278, AF","FM-16","8268 ","V020","070,1,N,0015,1","22000,1,9,N","999999,9,N,1","+0250,1","+0200,1","99999,9",,,,"10152,1,99999,9","MET090MOBOB0 METAR 8268 //003 000000 202244Z AUTO 07003KT //// CLR 25/20 A2998 RMK CDP03528 CLR;",
"00826899999","2010-10-20T23:00:00","4","32.95","65.5666666","1156.72","WXPOD8278, AF","FM-15","8268 ","V020","060,1,N,0010,1","22000,1,9,N","999999,9,N,1","+0250,1","+0200,1","99999,9",,,,"10152,1,99999,9","MET090MOBOB0 METAR 8268 //003 000000 202259Z AUTO 06002KT //// CLR 25/20 A2998 RMK CDP03528 CLR;",
"00826899999","2010-10-20T23:14:00","4","32.95","65.5666666","1156.72","WXPOD8278, AF","FM-16","8268 ","V020","070,1,N,0015,1","22000,1,9,N","999999,9,N,1","+0240,1","+0200,1","99999,9",,,,"10152,1,99999,9","MET090MOBOB0 METAR 8268 //003 000000 202314Z AUTO 07003KT //// CLR 24/20 A2998 RMK CDP03528 CLR;",
"00826899999","2010-10-20T23:29:00","4","32.95","65.5666666","1156.72","WXPOD8278, AF","FM-16","8268 ","V020","080,1,N,0015,1","22000,1,9,N","999999,9,N,1","+0240,1","+0200,1","99999,9",,,,"10152,1,99999,9","MET090MOBOB0 METAR 8268 //003 000000 202329Z AUTO 08003KT //// CLR 24/20 A2998 RMK CDP03528 CLR;",
"00826899999","2010-10-20T23:44:00","4","32.95","65.5666666","1156.72","WXPOD8278, AF","FM-16","8268 ","V020","070,1,N,0015,1","22000,1,9,N","999999,9,N,1","+0230,1","+0200,1","99999,9",,,,"10155,1,99999,9","MET090MOBOB0 METAR 8268 //003 000000 202344Z AUTO 07003KT //// CLR 23/20 A2999 RMK CDP03528 CLR;",
"00826899999","2010-10-21T00:00:00","4","32.95","65.5666666","1156.72","WXPOD8278, AF","FM-15","8268 ","V020","060,1,N,0015,1","22000,1,9,N","999999,9,N,1","+0230,1","+0200,1","99999,9",,,,"10155,1,99999,9","MET090MOBOB0 METAR 8268 //003 000000 202359Z AUTO 06003KT //// CLR 23/20 A2999 RMK CDP03528 CLR;",
"00826899999","2010-10-21T00:14:00","4","32.95","65.5666666","1156.72","WXPOD8278, AF","FM-16","8268 ","V020","070,1,N,0010,1","22000,1,9,N","999999,9,N,1","+0220,1","+0200,1","99999,9",,,,"10159,1,99999,9","MET090MOBOB0 METAR 8268 //003 000000 210014Z AUTO 07002KT //// CLR 22/20 A3000 RMK CDP03528 CLR;",
"00826899999","2010-10-21T00:29:00","4","32.95","65.5666666","1156.72","WXPOD8278, AF","FM-16","8268 ","V020","060,1,N,0010,1","22000,1,9,N","999999,9,N,1","+0220,1","+0200,1","99999,9",,,,"10159,1,99999,9","MET090MOBOB0 METAR 8268 //003 000000 210029Z AUTO 06002KT //// CLR 22/20 A3000 RMK CDP03528 CLR;",
"00826899999","2010-10-21T00:44:00","4","32.95","65.5666666","1156.72","WXPOD8278, AF","FM-16","8268 ","V020","070,1,N,0005,1","22000,1,9,N","999999,9,N,1","+0210,1","+0200,1","99999,9",,,,"10162,1,99999,9","MET090MOBOB0 METAR 8268 //003 000000 210044Z AUTO 07001KT //// CLR 21/20 A3001 RMK CDP03528 CLR;",
"00826899999","2010-10-21T01:14:00","4","32.95","65.5666666","1156.72","WXPOD8278, AF","FM-16","8268 ","V020","040,1,N,0010,1","22000,1,9,N","999999,9,N,1","+0210,1","+0200,1","99999,9",,,,"10162,1,99999,9","MET090MOBOB0 METAR 8268 //003 000000 210114Z AUTO 04002KT //// CLR 21/20 A3001 RMK CDP03528 CLR;",
"00826899999","2010-10-21T01:29:00","4","32.95","65.5666666","1156.72","WXPOD8278, AF","FM-16","8268 ","V020","070,1,N,0005,1","22000,1,9,N","999999,9,N,1","+0210,1","+0200,1","99999,9","02,5,+01890,5,99,9",,,"10165,1,99999,9","MET108MOBOB0 METAR 8268 //003 000000 210129Z AUTO 07001KT //// FEW063 21/20 A3002 RMK CDP03528 FEW063 CLD AVG 063;",
"00826899999","2010-10-21T01:44:00","4","32.95","65.5666666","1156.72","WXPOD8278, AF","FM-16","8268 ","V020","080,1,N,0010,1","22000,1,9,N","999999,9,N,1","+0200,1","+0200,1","99999,9",,,,"10165,1,99999,9","MET090MOBOB0 METAR 8268 //003 000000 210144Z AUTO 08002KT //// CLR 20/20 A3002 RMK CDP03528 CLR;",
"00826899999","2010-10-21T02:00:00","4","32.95","65.5666666","1156.72","WXPOD8278, AF","FM-15","8268 ","V020","050,1,N,0005,1","22000,1,9,N","999999,9,N,1","+0200,1","+0200,1","99999,9",,,,"10165,1,99999,9","MET090MOBOB0 METAR 8268 //003 000000 210159Z AUTO 05001KT //// CLR 20/20 A3002 RMK CDP03528 CLR;",
"00826899999","2010-10-21T02:14:00","4","32.95","65.5666666","1156.72","WXPOD8278, AF","FM-16","8268 ","V020","060,1,N,0005,1","22000,1,9,N","999999,9,N,1","+0200,1","+0200,1","99999,9",,,,"10165,1,99999,9","MET090MOBOB0 METAR 8268 //003 000000 210214Z AUTO 06001KT //// CLR 20/20 A3002 RMK CDP03528 CLR;",
"00826899999","2010-10-21T02:29:00","4","32.95","65.5666666","1156.72","WXPOD8278, AF","FM-16","8268 ","V020","060,1,N,0005,1","22000,1,9,N","999999,9,N,1","+0190,1","+0190,1","99999,9",,,,"10169,1,99999,9","MET090MOBOB0 METAR 8268 //003 000000 210229Z AUTO 06001KT //// CLR 19/19 A3003 RMK CDP03528 CLR;",
"00826899999","2010-10-21T03:00:00","4","32.95","65.5666666","1156.72","WXPOD8278, AF","FM-15","8268 ","V020","999,9,C,0000,1","22000,1,9,N","999999,9,N,1","+0190,1","+0190,1","99999,9",,,,"10169,1,99999,9","MET090MOBOB0 METAR 8268 //003 000000 210259Z AUTO 00000KT //// CLR 19/19 A3003 RMK CDP03528 CLR;",
"00826899999","2010-10-21T03:14:00","4","32.95","65.5666666","1156.72","WXPOD8278, AF","FM-16","8268 ","V020","130,1,N,0005,1","22000,1,9,N","999999,9,N,1","+0190,1","+0190,1","99999,9",,,,"10172,1,99999,9","MET090MOBOB0 METAR 8268 //003 000000 210314Z AUTO 13001KT //// CLR 19/19 A3004 RMK CDP03528 CLR;",
"00826899999","2010-10-21T03:29:00","4","32.95","65.5666666","1156.72","WXPOD8278, AF","FM-16","8268 ","V020","120,1,N,0005,1","22000,1,9,N","999999,9,N,1","+0190,1","+0190,1","99999,9",,,,"10172,1,99999,9","MET090MOBOB0 METAR 8268 //003 000000 210329Z AUTO 12001KT //// CLR 19/19 A3004 RMK CDP03528 CLR;",
"00826899999","2010-10-21T03:44:00","4","32.95","65.5666666","1156.72","WXPOD8278, AF","FM-16","8268 ","V020","999,9,C,0000,1","22000,1,9,N","999999,9,N,1","+0180,1","+0180,1","99999,9",,,,"10172,1,99999,9","MET090MOBOB0 METAR 8268 //003 000000 210344Z AUTO 00000KT //// CLR 18/18 A3004 RMK CDP03528 CLR;",
"00826899999","2010-10-21T04:00:00","4","32.95","65.5666666","1156.72","WXPOD8278, AF","FM-15","8268 ","V020","999,9,C,0000,1","22000,1,9,N","999999,9,N,1","+0180,1","+0180,1","99999,9",,,,"10172,1,99999,9","MET090MOBOB0 METAR 8268 //003 000000 210359Z AUTO 00000KT //// CLR 18/18 A3004 RMK CDP03528 CLR;",
"00826899999","2010-10-21T04:29:00","4","32.95","65.5666666","1156.72","WXPOD8278, AF","FM-16","8268 ","V020","999,9,C,0000,1","22000,1,9,N","999999,9,N,1","+0180,1","+0180,1","99999,9",,,,"10172,1,99999,9","MET090MOBOB0 METAR 8268 //003 000000 210429Z AUTO 00000KT //// CLR 18/18 A3004 RMK CDP03528 CLR;",
"00826899999","2010-10-21T04:44:00","4","32.95","65.5666666","1156.72","WXPOD8278, AF","FM-16","8268 ","V020","190,1,N,0005,1","22000,1,9,N","999999,9,N,1","+0180,1","+0180,1","99999,9",,,,"10172,1,99999,9","MET090MOBOB0 METAR 8268 //003 000000 210444Z AUTO 19001KT //// CLR 18/18 A3004 RMK CDP03528 CLR;",
"00826899999","2010-10-21T05:00:00","4","32.95","65.5666666","1156.72","WXPOD8278, AF","FM-15","8268 ","V020","210,1,N,0005,1","22000,1,9,N","999999,9,N,1","+0180,1","+0180,1","99999,9",,,,"10169,1,99999,9","MET090MOBOB0 METAR 8268 //003 000000 210459Z AUTO 21001KT //// CLR 18/18 A3003 RMK CDP03528 CLR;",
"00826899999","2010-10-21T05:14:00","4","32.95","65.5666666","1156.72","WXPOD8278, AF","FM-16","8268 ","V020","060,1,N,0005,1","22000,1,9,N","999999,9,N,1","+0180,1","+0180,1","99999,9",,,,"10169,1,99999,9","MET090MOBOB0 METAR 8268 //003 000000 210514Z AUTO 06001KT //// CLR 18/18 A3003 RMK CDP03528 CLR;",
"00826899999","2010-10-21T05:29:00","4","32.95","65.5666666","1156.72","WXPOD8278, AF","FM-16","8268 ","V020","200,1,N,0005,1","22000,1,9,N","999999,9,N,1","+0180,1","+0180,1","99999,9",,,,"10169,1,99999,9","MET090MOBOB0 METAR 8268 //003 000000 210529Z AUTO 20001KT //// CLR 18/18 A3003 RMK CDP03528 CLR;",
"00826899999","2010-10-21T05:44:00","4","32.95","65.5666666","1156.72","WXPOD8278, AF","FM-16","8268 ","V020","120,1,N,0005,1","22000,1,9,N","999999,9,N,1","+0180,1","+0180,1","99999,9",,,,"10169,1,99999,9","MET090MOBOB0 METAR 8268 //003 000000 210544Z AUTO 12001KT //// CLR 18/18 A3003 RMK CDP03528 CLR;",
"00826899999","2010-10-21T06:00:00","4","32.95","65.5666666","1156.72","WXPOD8278, AF","FM-15","8268 ","V020","070,1,N,0005,1","22000,1,9,N","999999,9,N,1","+0180,1","+0180,1","99999,9",,,,"10169,1,99999,9","MET090MOBOB0 METAR 8268 //003 000000 210559Z AUTO 07001KT //// CLR 18/18 A3003 RMK CDP03528 CLR;",
"00826899999","2010-10-21T06:14:00","4","32.95","65.5666666","1156.72","WXPOD8278, AF","FM-16","8268 ","V020","110,1,N,0005,1","99999,9,9,N","999999,9,N,1","+0170,1","+0170,1","99999,9",,,"999,M,+9999,9","10169,1,99999,9","MET090MOBOB0 METAR 8268 //003 000000 210614Z AUTO 11001KT //// CLR 17/17 A3003 RMK CDP03528 CLR;","Q01 -00012ATMX  "
"00826899999","2010-10-21T06:29:00","4","32.95","65.5666666","1156.72","WXPOD8278, AF","FM-16","8268 ","V020","030,1,N,0005,1","22000,1,9,N","999999,9,N,1","+0170,1","+0170,1","99999,9",,,,"10169,1,99999,9","MET090MOBOB0 METAR 8268 //003 000000 210629Z AUTO 03001KT //// CLR 17/17 A3003 RMK CDP03528 CLR;",
"00826899999","2010-10-21T06:44:00","4","32.95","65.5666666","1156.72","WXPOD8278, AF","FM-16","8268 ","V020","030,1,N,0005,1","22000,1,9,N","999999,9,N,1","+0170,1","+0170,1","99999,9",,,,"10169,1,99999,9","MET090MOBOB0 METAR 8268 //003 000000 210644Z AUTO 03001KT //// CLR 17/17 A3003 RMK CDP03528 CLR;",
"00826899999","2010-10-21T07:00:00","4","32.95","65.5666666","1156.72","WXPOD8278, AF","FM-15","8268 ","V020","050,1,N,0005,1","22000,1,9,N","999999,9,N,1","+0170,1","+0170,1","99999,9",,,,"10169,1,99999,9","MET090MOBOB0 METAR 8268 //003 000000 210659Z AUTO 05001KT //// CLR 17/17 A3003 RMK CDP03528 CLR;",
"00826899999","2010-10-21T07:14:00","4","32.95","65.5666666","1156.72","WXPOD8278, AF","FM-16","8268 ","V020","060,1,N,0005,1","22000,1,9,N","999999,9,N,1","+0170,1","+0170,1","99999,9",,,,"10169,1,99999,9","MET090MOBOB0 METAR 8268 //003 000000 210714Z AUTO 06001KT //// CLR 17/17 A3003 RMK CDP03528 CLR;",
"00826899999","2010-10-21T07:29:00","4","32.95","65.5666666","1156.72","WXPOD8278, AF","FM-16","8268 ","V020","030,1,N,0005,1","22000,1,9,N","999999,9,N,1","+0170,1","+0170,1","99999,9",,,,"10169,1,99999,9","MET090MOBOB0 METAR 8268 //003 000000 210729Z AUTO 03001KT //// CLR 17/17 A3003 RMK CDP03528 CLR;",
"00826899999","2010-10-21T07:44:00","4","32.95","65.5666666","1156.72","WXPOD8278, AF","FM-16","8268 ","V020","030,1,N,0005,1","22000,1,9,N","999999,9,N,1","+0170,1","+0170,1","99999,9",,,,"10169,1,99999,9","MET090MOBOB0 METAR 8268 //003 000000 210744Z AUTO 03001KT //// CLR 17/17 A3003 RMK CDP03528 CLR;",
"00826899999","2010-10-21T08:00:00","4","32.95","65.5666666","1156.72","WXPOD8278, AF","FM-15","8268 ","V020","150,1,N,0005,1","22000,1,9,N","999999,9,N,1","+0170,1","+0170,1","99999,9",,,,"10169,1,99999,9","MET090MOBOB0 METAR 8268 //003 000000 210759Z AUTO 15001KT //// CLR 17/17 A3003 RMK CDP03528 CLR;",
"00826899999","2010-10-21T08:14:00","4","32.95","65.5666666","1156.72","WXPOD8278, AF","FM-16","8268 ","V020","050,1,N,0005,1","22000,1,9,N","999999,9,N,1","+0170,1","+0170,1","99999,9",,,,"10169,1,99999,9","MET090MOBOB0 METAR 8268 //003 000000 210814Z AUTO 05001KT //// CLR 17/17 A3003 RMK CDP03528 CLR;",
"00826899999","2010-10-21T08:29:00","4","32.95","65.5666666","1156.72","WXPOD8278, AF","FM-16","8268 ","V020","030,1,N,0005,1","22000,1,9,N","999999,9,N,1","+0170,1","+0170,1","99999,9",,,,"10169,1,99999,9","MET090MOBOB0 METAR 8268 //003 000000 210829Z AUTO 03001KT //// CLR 17/17 A3003 RMK CDP03528 CLR;",
"00826899999","2010-10-21T08:44:00","4","32.95","65.5666666","1156.72","WXPOD8278, AF","FM-16","8268 ","V020","050,1,N,0005,1","22000,1,9,N","999999,9,N,1","+0170,1","+0170,1","99999,9",,,,"10169,1,99999,9","MET090MOBOB0 METAR 8268 //003 000000 210844Z AUTO 05001KT //// CLR 17/17 A3003 RMK CDP03528 CLR;",
"00826899999","2010-10-21T09:00:00","4","32.95","65.5666666","1156.72","WXPOD8278, AF","FM-15","8268 ","V020","050,1,N,0005,1","22000,1,9,N","999999,9,N,1","+0170,1","+0170,1","99999,9",,,,"10169,1,99999,9","MET090MOBOB0 METAR 8268 //003 000000 210859Z AUTO 05001KT //// CLR 17/17 A3003 RMK CDP03528 CLR;",
"00826899999","2010-10-21T09:14:00","4","32.95","65.5666666","1156.72","WXPOD8278, AF","FM-16","8268 ","V020","030,1,N,0005,1","22000,1,9,N","999999,9,N,1","+0170,1","+0170,1","99999,9","02,5,+04230,5,99,9",,,"10165,1,99999,9","MET108MOBOB0 METAR 8268 //003 000000 210914Z AUTO 03001KT //// FEW141 17/17 A3002 RMK CDP03528 FEW141 CLD AVG 141;",
"00826899999","2010-10-21T09:29:00","4","32.95","65.5666666","1156.72","WXPOD8278, AF","FM-16","8268 ","V020","070,1,N,0005,1","22000,1,9,N","999999,9,N,1","+0170,1","+0170,1","99999,9",,,,"10165,1,99999,9","MET090MOBOB0 METAR 8268 //003 000000 210929Z AUTO 07001KT //// CLR 17/17 A3002 RMK CDP03528 CLR;",
"00826899999","2010-10-21T09:44:00","4","32.95","65.5666666","1156.72","WXPOD8278, AF","FM-16","8268 ","V020","050,1,N,0005,1","22000,1,9,N","999999,9,N,1","+0170,1","+0170,1","99999,9",,,,"10165,1,99999,9","MET090MOBOB0 METAR 8268 //003 000000 210944Z AUTO 05001KT //// CLR 17/17 A3002 RMK CDP03528 CLR;",
"00826899999","2010-10-21T10:00:00","4","32.95","65.5666666","1156.72","WXPOD8278, AF","FM-15","8268 ","V020","080,1,N,0005,1","22000,1,9,N","999999,9,N,1","+0160,1","+0160,1","99999,9",,,,"10165,1,99999,9","MET090MOBOB0 METAR 8268 //003 000000 210959Z AUTO 08001KT //// CLR 16/16 A3002 RMK CDP03528 CLR;",
"00826899999","2010-10-21T10:14:00","4","32.95","65.5666666","1156.72","WXPOD8278, AF","FM-16","8268 ","V020","120,1,N,0005,1","22000,1,9,N","999999,9,N,1","+0160,1","+0160,1","99999,9",,,,"10169,1,99999,9","MET090MOBOB0 METAR 8268 //003 000000 211014Z AUTO 12001KT //// CLR 16/16 A3003 RMK CDP03528 CLR;",
"00826899999","2010-10-21T10:29:00","4","32.95","65.5666666","1156.72","WXPOD8278, AF","FM-16","8268 ","V020","090,1,N,0005,1","22000,1,9,N","999999,9,N,1","+0160,1","+0160,1","99999,9",,,,"10169,1,99999,9","MET090MOBOB0 METAR 8268 //003 000000 211029Z AUTO 09001KT //// CLR 16/16 A3003 RMK CDP03528 CLR;",
"00826899999","2010-10-21T10:44:00","4","32.95","65.5666666","1156.72","WXPOD8278, AF","FM-16","8268 ","V020","030,1,N,0005,1","22000,1,9,N","999999,9,N,1","+0160,1","+0160,1","99999,9",,,,"10169,1,99999,9","MET090MOBOB0 METAR 8268 //003 000000 211044Z AUTO 03001KT //// CLR 16/16 A3003 RMK CDP03528 CLR;",
"00826899999","2010-10-21T11:00:00","4","32.95","65.5666666","1156.72","WXPOD8278, AF","FM-15","8268 ","V020","060,1,N,0005,1","22000,1,9,N","999999,9,N,1","+0160,1","+0160,1","99999,9",,,,"10169,1,99999,9","MET090MOBOB0 METAR 8268 //003 000000 211059Z AUTO 06001KT //// CLR 16/16 A3003 RMK CDP03528 CLR;",
"00826899999","2010-10-21T11:29:00","4","32.95","65.5666666","1156.72","WXPOD8278, AF","FM-16","8268 ","V020","999,9,C,0000,1","22000,1,9,N","999999,9,N,1","+0160,1","+0160,1","99999,9",,,,"10169,1,99999,9","MET090MOBOB0 METAR 8268 //003 000000 211129Z AUTO 00000KT //// CLR 16/16 A3003 RMK CDP03528 CLR;",
"00826899999","2010-10-21T11:44:00","4","32.95","65.5666666","1156.72","WXPOD8278, AF","FM-16","8268 ","V020","999,9,C,0000,1","22000,1,9,N","999999,9,N,1","+0150,1","+0150,1","99999,9",,,,"10172,1,99999,9","MET090MOBOB0 METAR 8268 //003 000000 211144Z AUTO 00000KT //// CLR 15/15 A3004 RMK CDP03528 CLR;",
"00826899999","2010-10-21T12:00:00","4","32.95","65.5666666","1156.72","WXPOD8278, AF","FM-15","8268 ","V020","070,1,N,0005,1","22000,1,9,N","999999,9,N,1","+0160,1","+0160,1","99999,9",,,,"10172,1,99999,9","MET090MOBOB0 METAR 8268 //003 000000 211159Z AUTO 07001KT //// CLR 16/16 A3004 RMK CDP03528 CLR;",
"00826899999","2010-10-21T12:14:00","4","32.95","65.5666666","1156.72","WXPOD8278, AF","FM-16","8268 ","V020","040,1,N,0005,1","22000,1,9,N","999999,9,N,1","+0150,1","+0150,1","99999,9",,,,"10172,1,99999,9","MET090MOBOB0 METAR 8268 //003 000000 211214Z AUTO 04001KT //// CLR 15/15 A3004 RMK CDP03528 CLR;",
"00826899999","2010-10-21T12:29:00","4","32.95","65.5666666","1156.72","WXPOD8278, AF","FM-16","8268 ","V020","010,1,N,0005,1","22000,1,9,N","999999,9,N,1","+0150,1","+0150,1","99999,9",,,,"10176,1,99999,9","MET090MOBOB0 METAR 8268 //003 000000 211229Z AUTO 01001KT //// CLR 15/15 A3005 RMK CDP03528 CLR;",
"00826899999","2010-10-21T12:44:00","4","32.95","65.5666666","1156.72","WXPOD8278, AF","FM-16","8268 ","V020","999,9,C,0000,1","22000,1,9,N","999999,9,N,1","+0160,1","+0160,1","99999,9",,,,"10176,1,99999,9","MET090MOBOB0 METAR 8268 //003 000000 211244Z AUTO 00000KT //// CLR 16/16 A3005 RMK CDP03528 CLR;",
"00826899999","2010-10-21T13:14:00","4","32.95","65.5666666","1156.72","WXPOD8278, AF","FM-16","8268 ","V020","030,1,N,0005,1","22000,1,9,N","999999,9,N,1","+0180,1","+0180,1","99999,9",,,,"10179,1,99999,9","MET090MOBOB0 METAR 8268 //003 000000 211314Z AUTO 03001KT //// CLR 18/18 A3006 RMK CDP03528 CLR;",
"00826899999","2010-10-21T13:29:00","4","32.95","65.5666666","1156.72","WXPOD8278, AF","FM-16","8268 ","V020","030,1,N,0005,1","22000,1,9,N","999999,9,N,1","+0190,1","+0190,1","99999,9",,,,"10179,1,99999,9","MET090MOBOB0 METAR 8268 //003 000000 211329Z AUTO 03001KT //// CLR 19/19 A3006 RMK CDP03528 CLR;",
"00826899999","2010-10-21T13:44:00","4","32.95","65.5666666","1156.72","WXPOD8278, AF","FM-16","8268 ","V020","090,1,N,0005,1","22000,1,9,N","999999,9,N,1","+0200,1","+0190,1","99999,9",,,,"10182,1,99999,9","MET090MOBOB0 METAR 8268 //003 000000 211344Z AUTO 09001KT //// CLR 20/19 A3007 RMK CDP03528 CLR;",
"00826899999","2010-10-21T14:00:00","4","32.95","65.5666666","1156.72","WXPOD8278, AF","FM-15","8268 ","V020","040,1,N,0005,1","22000,1,9,N","999999,9,N,1","+0230,1","+0200,1","99999,9",,,,"10182,1,99999,9","MET090MOBOB0 METAR 8268 //003 000000 211359Z AUTO 04001KT //// CLR 23/20 A3007 RMK CDP03528 CLR;",
"00826899999","2010-10-21T14:14:00","4","32.95","65.5666666","1156.72","WXPOD8278, AF","FM-16","8268 ","V020","020,1,N,0005,1","22000,1,9,N","999999,9,N,1","+0230,1","+0190,1","99999,9",,,,"10182,1,99999,9","MET090MOBOB0 METAR 8268 //003 000000 211414Z AUTO 02001KT //// CLR 23/19 A3007 RMK CDP03528 CLR;",
"00826899999","2010-10-21T14:29:00","4","32.95","65.5666666","1156.72","WXPOD8278, AF","FM-16","8268 ","V020","070,1,N,0005,1","22000,1,9,N","999999,9,N,1","+0230,1","+0190,1","99999,9",,,,"10186,1,99999,9","MET090MOBOB0 METAR 8268 //003 000000 211429Z AUTO 07001KT //// CLR 23/19 A3008 RMK CDP03528 CLR;",
"00826899999","2010-10-21T14:44:00","4","32.95","65.5666666","1156.72","WXPOD8278, AF","FM-16","8268 ","V020","120,1,N,0015,1","22000,1,9,N","999999,9,N,1","+0230,1","+0200,1","99999,9",,,,"10186,1,99999,9","MET090MOBOB0 METAR 8268 //003 000000 211444Z AUTO 12003KT //// CLR 23/20 A3008 RMK CDP03528 CLR;",
"00826899999","2010-10-21T15:00:00","4","32.95","65.5666666","1156.72","WXPOD8278, AF","FM-15","8268 ","V020","100,1,N,0005,1","99999,9,9,N","999999,9,N,1","+0240,1","+0190,1","99999,9",,,"999,M,+9999,9","10186,1,99999,9","MET090MOBOB0 METAR 8268 //003 000000 211459Z AUTO 10001KT //// CLR 24/19 A3008 RMK CDP03528 CLR;","Q01 +00012ATMX  "
"00826899999","2010-10-21T15:14:00","4","32.95","65.5666666","1156.72","WXPOD8278, AF","FM-16","8268 ","V020","160,1,N,0010,1","22000,1,9,N","999999,9,N,1","+0250,1","+0200,1","99999,9",,,,"10186,1,99999,9","MET090MOBOB0 METAR 8268 //003 000000 211514Z AUTO 16002KT //// CLR 25/20 A3008 RMK CDP03528 CLR;",
"00826899999","2010-10-21T15:29:00","4","32.95","65.5666666","1156.72","WXPOD8278, AF","FM-16","8268 ","V020","130,1,N,0010,1","22000,1,9,N","999999,9,N,1","+0260,1","+0200,1","99999,9",,,,"10186,1,99999,9","MET090MOBOB0 METAR 8268 //003 000000 211529Z AUTO 13002KT //// CLR 26/20 A3008 RMK CDP03528 CLR;",
"00826899999","2010-10-21T15:44:00","4","32.95","65.5666666","1156.72","WXPOD8278, AF","FM-16","8268 ","V020","190,1,N,0010,1","22000,1,9,N","999999,9,N,1","+0270,1","+0200,1","99999,9",,,,"10186,1,99999,9","MET090MOBOB0 METAR 8268 //003 000000 211544Z AUTO 19002KT //// CLR 27/20 A3008 RMK CDP03528 CLR;",
"00826899999","2010-10-21T16:00:00","4","32.95","65.5666666","1156.72","WXPOD8278, AF","FM-15","8268 ","V020","200,1,N,0010,1","22000,1,9,N","999999,9,N,1","+0260,1","+0190,1","99999,9",,,,"10186,1,99999,9","MET090MOBOB0 METAR 8268 //003 000000 211559Z AUTO 20002KT //// CLR 26/19 A3008 RMK CDP03528 CLR;",
"00826899999","2010-10-21T16:14:00","4","32.95","65.5666666","1156.72","WXPOD8278, AF","FM-16","8268 ","V020","170,1,N,0010,1","22000,1,9,N","999999,9,N,1","+0270,1","+0170,1","99999,9",,,,"10186,1,99999,9","MET090MOBOB0 METAR 8268 //003 000000 211614Z AUTO 17002KT //// CLR 27/17 A3008 RMK CDP03528 CLR;",
"00826899999","2010-10-21T16:29:00","4","32.95","65.5666666","1156.72","WXPOD8278, AF","FM-16","8268 ","V020","999,9,C,0000,1","22000,1,9,N","999999,9,N,1","+0280,1","+0180,1","99999,9",,,,"10186,1,99999,9","MET090MOBOB0 METAR 8268 //003 000000 211629Z AUTO 00000KT //// CLR 28/18 A3008 RMK CDP03528 CLR;",
"00826899999","2010-10-21T16:44:00","4","32.95","65.5666666","1156.72","WXPOD8278, AF","FM-16","8268 ","V020","360,1,N,0005,1","22000,1,9,N","999999,9,N,1","+0270,1","+0180,1","99999,9",,,,"10186,1,99999,9","MET090MOBOB0 METAR 8268 //003 000000 211644Z AUTO 36001KT //// CLR 27/18 A3008 RMK CDP03528 CLR;",
"00826899999","2010-10-21T17:14:00","4","32.95","65.5666666","1156.72","WXPOD8278, AF","FM-16","8268 ","V020","210,1,N,0005,1","22000,1,9,N","999999,9,N,1","+0280,1","+0180,1","99999,9",,,,"10182,1,99999,9","MET090MOBOB0 METAR 8268 //003 000000 211714Z AUTO 21001KT //// CLR 28/18 A3007 RMK CDP03528 CLR;",
"00826899999","2010-10-21T17:29:00","4","32.95","65.5666666","1156.72","WXPOD8278, AF","FM-16","8268 ","V020","140,1,N,0015,1","22000,1,9,N","999999,9,N,1","+0280,1","+0180,1","99999,9",,,,"10182,1,99999,9","MET090MOBOB0 METAR 8268 //003 000000 211729Z AUTO 14003KT //// CLR 28/18 A3007 RMK CDP03528 CLR;",
"00826899999","2010-10-21T17:44:00","4","32.95","65.5666666","1156.72","WXPOD8278, AF","FM-16","8268 ","V020","080,1,N,0010,1","22000,1,9,N","999999,9,N,1","+0280,1","+0160,1","99999,9",,,,"10179,1,99999,9","MET090MOBOB0 METAR 8268 //003 000000 211744Z AUTO 08002KT //// CLR 28/16 A3006 RMK CDP03528 CLR;",
"00826899999","2010-10-21T18:00:00","4","32.95","65.5666666","1156.72","WXPOD8278, AF","FM-15","8268 ","V020","999,9,C,0000,1","22000,1,9,N","999999,9,N,1","+0290,1","+0160,1","99999,9",,,,"10179,1,99999,9","MET090MOBOB0 METAR 8268 //003 000000 211759Z AUTO 00000KT //// CLR 29/16 A3006 RMK CDP03528 CLR;",
"00826899999","2010-10-21T18:14:00","4","32.95","65.5666666","1156.72","WXPOD8278, AF","FM-16","8268 ","V020","130,1,N,0015,1","22000,1,9,N","999999,9,N,1","+0290,1","+0160,1","99999,9",,,,"10172,1,99999,9","MET090MOBOB0 METAR 8268 //003 000000 211814Z AUTO 13003KT //// CLR 29/16 A3004 RMK CDP03528 CLR;",
"00826899999","2010-10-21T18:29:00","4","32.95","65.5666666","1156.72","WXPOD8278, AF","FM-16","8268 ","V020","090,1,N,0015,1","22000,1,9,N","999999,9,N,1","+0280,1","+0150,1","99999,9",,,,"10172,1,99999,9","MET090MOBOB0 METAR 8268 //003 000000 211829Z AUTO 09003KT //// CLR 28/15 A3004 RMK CDP03528 CLR;",
"00826899999","2010-10-21T18:44:00","4","32.95","65.5666666","1156.72","WXPOD8278, AF","FM-16","8268 ","V020","070,1,N,0010,1","22000,1,9,N","999999,9,N,1","+0280,1","+0160,1","99999,9",,,,"10169,1,99999,9","MET090MOBOB0 METAR 8268 //003 000000 211844Z AUTO 07002KT //// CLR 28/16 A3003 RMK CDP03528 CLR;",
"00826899999","2010-10-21T19:00:00","4","32.95","65.5666666","1156.72","WXPOD8278, AF","FM-15","8268 ","V020","060,1,N,0010,1","22000,1,9,N","999999,9,N,1","+0280,1","+0160,1","99999,9",,,,"10165,1,99999,9","MET090MOBOB0 METAR 8268 //003 000000 211859Z AUTO 06002KT //// CLR 28/16 A3002 RMK CDP03528 CLR;",
"00826899999","2010-10-21T19:14:00","4","32.95","65.5666666","1156.72","WXPOD8278, AF","FM-16","8268 ","V020","180,1,N,0010,1","22000,1,9,N","999999,9,N,1","+0290,1","+0150,1","99999,9",,,,"10162,1,99999,9","MET090MOBOB0 METAR 8268 //003 000000 211914Z AUTO 18002KT //// CLR 29/15 A3001 RMK CDP03528 CLR;",
"00826899999","2010-10-21T19:29:00","4","32.95","65.5666666","1156.72","WXPOD8278, AF","FM-16","8268 ","V020","150,1,N,0005,1","22000,1,9,N","999999,9,N,1","+0300,1","+0150,1","99999,9",,,,"10162,1,99999,9","MET090MOBOB0 METAR 8268 //003 000000 211929Z AUTO 15001KT //// CLR 30/15 A3001 RMK CDP03528 CLR;",
"00826899999","2010-10-21T19:44:00","4","32.95","65.5666666","1156.72","WXPOD8278, AF","FM-16","8268 ","V020","090,1,N,0015,1","22000,1,9,N","999999,9,N,1","+0300,1","+0150,1","99999,9",,,,"10159,1,99999,9","MET090MOBOB0 METAR 8268 //003 000000 211944Z AUTO 09003KT //// CLR 30/15 A3000 RMK CDP03528 CLR;",
"00826899999","2010-10-21T20:00:00","4","32.95","65.5666666","1156.72","WXPOD8278, AF","FM-15","8268 ","V020","170,1,N,0005,1","22000,1,9,N","999999,9,N,1","+0290,1","+0120,1","99999,9",,,,"10159,1,99999,9","MET090MOBOB0 METAR 8268 //003 000000 211959Z AUTO 17001KT //// CLR 29/12 A3000 RMK CDP03528 CLR;",
"00826899999","2010-10-21T20:14:00","4","32.95","65.5666666","1156.72","WXPOD8278, AF","FM-16","8268 ","V020","200,1,N,0010,1","22000,1,9,N","999999,9,N,1","+0300,1","+0140,1","99999,9","02,5,+00720,5,99,9",,,"10159,1,99999,9","MET108MOBOB0 METAR 8268 //003 000000 212014Z AUTO 20002KT //// FEW024 30/14 A3000 RMK CDP03528 FEW024 CLD AVG 024;",
"00826899999","2010-10-21T20:29:00","4","32.95","65.5666666","1156.72","WXPOD8278, AF","FM-16","8268 ","V020","130,1,N,0015,1","22000,1,9,N","999999,9,N,1","+0300,1","+0130,1","99999,9",,,,"10155,1,99999,9","MET090MOBOB0 METAR 8268 //003 000000 212029Z AUTO 13003KT //// CLR 30/13 A2999 RMK CDP03528 CLR;",
"00826899999","2010-10-21T20:44:00","4","32.95","65.5666666","1156.72","WXPOD8278, AF","FM-16","8268 ","V020","190,1,N,0010,1","22000,1,9,N","999999,9,N,1","+0310,1","+0120,1","99999,9",,,,"10155,1,99999,9","MET090MOBOB0 METAR 8268 //003 000000 212044Z AUTO 19002KT //// CLR 31/12 A2999 RMK CDP03528 CLR;",
"00826899999","2010-10-21T21:00:00","4","32.95","65.5666666","1156.72","WXPOD8278, AF","FM-15","8268 ","V020","150,1,N,0010,1","22000,1,9,N","999999,9,N,1","+0300,1","+0110,1","99999,9",,,,"10155,1,99999,9","MET090MOBOB0 METAR 8268 //003 000000 212059Z AUTO 15002KT //// CLR 30/11 A2999 RMK CDP03528 CLR;",
"00826899999","2010-10-21T21:14:00","4","32.95","65.5666666","1156.72","WXPOD8278, AF","FM-16","8268 ","V020","110,1,N,0010,1","99999,9,9,N","999999,9,N,1","+0300,1","+0090,1","99999,9",,,"999,M,+9999,9","10155,1,99999,9","MET090MOBOB0 METAR 8268 //003 000000 212114Z AUTO 11002KT //// CLR 30/09 A2999 RMK CDP03528 CLR;","Q01 -00022ATMX  "
"00826899999","2010-10-21T21:29:00","4","32.95","65.5666666","1156.72","WXPOD8278, AF","FM-16","8268 ","V020","080,1,N,0005,1","22000,1,9,N","999999,9,N,1","+0310,1","+0100,1","99999,9",,,,"10155,1,99999,9","MET090MOBOB0 METAR 8268 //003 000000 212129Z AUTO 08001KT //// CLR 31/10 A2999 RMK CDP03528 CLR;",
"00826899999","2010-10-21T21:44:00","4","32.95","65.5666666","1156.72","WXPOD8278, AF","FM-16","8268 ","V020","130,1,N,0010,1","22000,1,9,N","999999,9,N,1","+0310,1","+0100,1","99999,9",,,,"10155,1,99999,9","MET090MOBOB0 METAR 8268 //003 000000 212144Z AUTO 13002KT //// CLR 31/10 A2999 RMK CDP03528 CLR;",
"00826899999","2010-10-21T22:00:00","4","32.95","65.5666666","1156.72","WXPOD8278, AF","FM-15","8268 ","V020","140,1,N,0010,1","22000,1,9,N","999999,9,N,1","+0300,1","+0110,1","99999,9",,,,"10152,1,99999,9","MET090MOBOB0 METAR 8268 //003 000000 212159Z AUTO 14002KT //// CLR 30/11 A2998 RMK CDP03528 CLR;",
"00826899999","2010-10-21T22:14:00","4","32.95","65.5666666","1156.72","WXPOD8278, AF","FM-16","8268 ","V020","120,1,N,0010,1","22000,1,9,N","999999,9,N,1","+0300,1","+0110,1","99999,9",,,,"10152,1,99999,9","MET090MOBOB0 METAR 8268 //003 000000 212214Z AUTO 12002KT //// CLR 30/11 A2998 RMK CDP03528 CLR;",
"00826899999","2010-10-21T22:29:00","4","32.95","65.5666666","1156.72","WXPOD8278, AF","FM-16","8268 ","V020","110,1,N,0010,1","99999,9,9,N","999999,9,N,1","+0290,1","+0110,1","99999,9",,,"999,M,+9999,9","10152,1,99999,9","MET090MOBOB0 METAR 8268 //003 000000 212229Z AUTO 11002KT //// CLR 29/11 A2998 RMK CDP03528 CLR;","Q01 -00022ATMX  "
"00826899999","2010-10-21T22:44:00","4","32.95","65.5666666","1156.72","WXPOD8278, AF","FM-16","8268 ","V020","100,1,N,0010,1","99999,9,9,N","999999,9,N,1","+0290,1","+0120,1","99999,9",,,"999,M,+9999,9","10152,1,99999,9","MET090MOBOB0 METAR 8268 //003 000000 212244Z AUTO 10002KT //// CLR 29/12 A2998 RMK CDP03528 CLR;","Q01 +00022ATMX  "
"00826899999","2010-10-21T23:00:00","4","32.95","65.5666666","1156.72","WXPOD8278, AF","FM-15","8268 ","V020","120,1,N,0005,1","22000,1,9,N","999999,9,N,1","+0280,1","+0130,1","99999,9",,,,"10152,1,99999,9","MET090MOBOB0 METAR 8268 //003 000000 212259Z AUTO 12001KT //// CLR 28/13 A2998 RMK CDP03528 CLR;",
"00826899999","2010-10-21T23:14:00","4","32.95","65.5666666","1156.72","WXPOD8278, AF","FM-16","8268 ","V020","120,1,N,0005,1","22000,1,9,N","999999,9,N,1","+0270,1","+0140,1","99999,9",,,,"10152,1,99999,9","MET090MOBOB0 METAR 8268 //003 000000 212314Z AUTO 12001KT //// CLR 27/14 A2998 RMK CDP03528 CLR;",
"00826899999","2010-10-21T23:29:00","4","32.95","65.5666666","1156.72","WXPOD8278, AF","FM-16","8268 ","V020","090,1,N,0005,1","22000,1,9,N","999999,9,N,1","+0250,1","+0150,1","99999,9",,,,"10152,1,99999,9","MET090MOBOB0 METAR 8268 //003 000000 212329Z AUTO 09001KT //// CLR 25/15 A2998 RMK CDP03528 CLR;",
"00826899999","2010-10-21T23:44:00","4","32.95","65.5666666","1156.72","WXPOD8278, AF","FM-16","8268 ","V020","120,1,N,0010,1","22000,1,9,N","999999,9,N,1","+0240,1","+0160,1","99999,9",,,,"10152,1,99999,9","MET090MOBOB0 METAR 8268 //003 000000 212344Z AUTO 12002KT //// CLR 24/16 A2998 RMK CDP03528 CLR;",
"00826899999","2010-10-22T00:00:00","4","32.95","65.5666666","1156.72","WXPOD8278, AF","FM-15","8268 ","V020","110,1,N,0005,1","99999,9,9,N","999999,9,N,1","+0240,1","+0160,1","99999,9",,,"999,M,+9999,9","10155,1,99999,9","MET090MOBOB0 METAR 8268 //003 000000 212359Z AUTO 11001KT //// CLR 24/16 A2999 RMK CDP03528 CLR;","Q01 -00012ATMX  "
