"STATION","DATE","SOURCE","LATITUDE","LONGITUDE","ELEVATION","NAME","REPORT_TYPE","CALL_SIGN","QUALITY_CONTROL","WND","CIG","VIS","TMP","DEW","SLP","GA1","GA2","GA3","GF1","MA1","MW1","MW2","MW3","OC1","REM","EQD"
"01023199999","2010-01-01T08:10:00","4","64.35","7.8","0.0","DRAUGEN, NO","FM-15","ENDR ","V020","080,1,N,0144,1","22000,1,9,N","011265,1,N,1","+0000,1","-0060,1","99999,9","04,5,+00750,1,99,9",,,"04,99,1,99,9,99,9,99999,9,99,9,99,9","10102,1,99999,9",,,,,"MET052METAR ENDR 010810Z 08028KT 9999 SCT025 00/M06 Q1010;",
"01023199999","2010-01-01T09:10:00","4","64.35","7.8","0.0","DRAUGEN, NO","FM-15","ENDR ","V020","100,1,N,0149,1","22000,1,9,N","011265,1,N,1","-0010,1","-0060,1","99999,9","04,5,+00600,1,99,9",,,"04,99,1,99,9,99,9,99999,9,99,9,99,9","10108,1,99999,9",,,,,"MET053METAR ENDR 010910Z 10029KT 9999 SCT020 M01/M06 Q1011;",
"01023199999","2010-01-01T09:50:00","4","64.35","7.8","0.0","DRAUGEN, NO","FM-15","ENDR ","V020","100,1,N,0149,1","22000,1,9,N","011265,1,N,1","+0000,1","-0060,1","99999,9","04,5,+00600,1,99,9",,,"04,99,1,99,9,99,9,99999,9,99,9,99,9","10119,1,99999,9",,,,,"MET053METAR ENDR 010950Z 10029KT 9999 SCT020 M00/M06 Q1012;",
"01023199999","2010-01-01T12:10:00","4","64.35","7.8","0.0","DRAUGEN, NO","FM-15","ENDR ","V020","100,1,N,0165,1","22000,1,9,N","011265,1,N,1","+0000,1","-0070,1","99999,9","02,5,+00600,1,99,9",,,"02,99,1,99,9,99,9,99999,9,99,9,99,9","10129,1,99999,9",,,,,"MET053METAR ENDR 011210Z 10032KT 9999 FEW020 M00/M07 Q1013;",
"01023199999","2010-01-01T15:10:00","4","64.35","7.8","0.0","DRAUGEN, NO","FM-15","ENDR ","V020","100,1,N,0144,1","22000,1,9,N","011265,1,N,1","-0010,1","-0060,1","99999,9","02,5,+00600,1,99,9",,,"02,99,1,99,9,99,9,99999,9,99,9,99,9","10159,1,99999,9",,,,,"MET053METAR ENDR 011510Z 10028KT 9999 FEW020 M01/M06 Q1016;",
"01023199999","2010-01-02T06:50:00","4","64.35","7.8","0.0","DRAUGEN, NO","FM-15","ENDR ","V020","100,1,N,0031,1","22000,1,9,N","011265,1,N,1","+0000,1","-0050,1","99999,9","02,5,+00600,1,99,9",,,"02,99,1,99,9,99,9,99999,9,99,9,99,9","10230,1,99999,9",,,,,"MET052METAR ENDR 020650Z 10006KT 9999 FEW020 00/M05 Q1023;",
"01023199999","2010-01-02T08:40:00","4","64.35","7.8","0.0","DRAUGEN, NO","FM-15","ENDR ","V020","150,1,N,0036,1","99999,9,9,Y","009900,1,N,1","+0000,1","-0050,1","99999,9",,,,,"10230,1,99999,9",,,,,"MET055METAR ENDR 020840Z 15007KT 110V180 CAVOK M00/M05 Q1023;",
"01023199999","2010-01-02T09:20:00","4","64.35","7.8","0.0","DRAUGEN, NO","FM-15","ENDR ","V020","130,1,N,0021,1","99999,9,9,Y","009900,1,N,1","+0000,1","-0050,1","99999,9",,,,,"10240,1,99999,9",,,,,"MET055METAR ENDR 020920Z 13004KT 080V160 CAVOK M00/M05 Q1024;",
"01023199999","2010-01-02T12:10:00","4","64.35","7.8","0.0","DRAUGEN, NO","FM-15","ENDR ","V020","210,1,N,0046,1","99999,9,9,Y","009900,1,N,1","+0010,1","-0040,1","99999,9",,,,,"10230,1,99999,9",,,,,"MET046METAR ENDR 021210Z 21009KT CAVOK 01/M04 Q1023;",
"01023199999","2010-01-02T15:10:00","4","64.35","7.8","0.0","DRAUGEN, NO","FM-15","ENDR ","V020","230,1,N,0103,1","00660,1,C,N","011265,1,N,1","+0030,1","-0010,1","99999,9","02,5,+00510,1,99,9","07,5,+00660,1,99,9",,"07,99,1,99,9,99,9,99999,9,99,9,99,9","10210,1,99999,9","16,1",,,,"MET064METAR ENDR 021510Z 23020KT 9999 VCSH FEW017 BKN022 03/M01 Q1021;",
"01023199999","2010-01-02T20:40:00","4","64.35","7.8","0.0","DRAUGEN, NO","FM-15","ENDR ","V020","280,1,N,0046,1","03600,1,C,N","011265,1,N,1","+0050,1","+0010,1","99999,9","02,5,+02100,1,99,9","08,5,+03600,1,99,9",,"08,99,1,99,9,99,9,99999,9,99,9,99,9","10200,1,99999,9",,,,,"MET058METAR ENDR 022040Z 28009KT 9999 FEW070 OVC120 05/01 Q1020;",
"01023199999","2010-01-03T06:20:00","4","64.35","7.8","0.0","DRAUGEN, NO","FM-15","ENDR ","V020","340,1,N,0118,1","01800,1,C,N","011265,1,N,1","+0050,1","-0030,1","99999,9","02,5,+00600,1,99,9","07,5,+01800,1,99,9",,"07,99,1,99,9,99,9,99999,9,99,9,99,9","10139,1,99999,9","84,1","90,1",,,"MET068METAR ENDR 030620Z 34023KT 9999 SHRASNGR FEW020 BKN060 05/M03 Q1014;",
"01023199999","2010-01-03T09:20:00","4","64.35","7.8","0.0","DRAUGEN, NO","FM-15","ENDR ","V020","340,1,N,0118,1","00600,1,C,N","011265,1,N,1","+0040,1","-0030,1","99999,9","07,5,+00600,1,02,1","07,5,+01500,1,99,9",,"07,99,1,99,9,99,9,99999,9,99,9,99,9","10129,1,99999,9","86,5",,,"0190,1","MET070METAR ENDR 030920Z 34023G37KT 9999 SHSN BKN020TCU BKN050 04/M03 Q1013;",
"01023199999","2010-01-03T12:10:00","4","64.35","7.8","0.0","DRAUGEN, NO","FM-15","ENDR ","V020","330,1,N,0129,1","99999,9,C,N","011265,1,N,1","+0030,1","-0050,1","99999,9","04,5,+00600,1,02,1","04,5,+01500,1,99,9",,"04,99,1,99,9,99,9,99999,9,99,9,99,9","10129,1,99999,9","86,5",,,"0190,1","MET070METAR ENDR 031210Z 33025G37KT 9999 SHSN SCT020TCU SCT050 03/M05 Q1013;","P01 015003SCOCIG"
"01023199999","2010-01-03T15:20:00","4","64.35","7.8","0.0","DRAUGEN, NO","FM-15","ENDR ","V020","340,1,N,0098,1","99999,9,C,N","011265,1,N,1","+0030,1","-0040,1","99999,9","04,5,+00600,1,09,1","04,5,+01500,1,99,9",,"04,99,1,99,9,99,9,99999,9,99,9,99,9","10119,1,99999,9","90,1",,,"0154,1","MET071METAR ENDR 031520Z 34019G30KT 9999 SHSNGR SCT020CB SCT050 03/M04 Q1012;","P01 015003SCOCIG"
"01023199999","2010-01-03T17:40:00","4","64.35","7.8","0.0","DRAUGEN, NO","FM-15","ENDR ","V020","320,1,N,0144,1","00600,1,C,N","004000,1,N,1","+0020,1","-0020,1","99999,9","07,5,+00600,1,09,1",,,"07,99,1,99,9,99,9,99999,9,99,9,99,9","10102,1,99999,9","90,1",,,,"MET061METAR ENDR 031740Z 32028KT 4000 SHSNGR BKN020CB 02/M02 Q1010;",
"01023199999","2010-01-04T06:10:00","4","64.35","7.8","0.0","DRAUGEN, NO","FM-15","ENDR ","V020","340,1,N,0057,1","22000,1,9,N","011265,1,N,1","+0040,1","-0010,1","99999,9","04,5,+00600,1,99,9",,,"04,99,1,99,9,99,9,99999,9,99,9,99,9","10020,1,99999,9","81,1",,,,"MET065METAR ENDR 040610Z 34011KT 300V030 9999 SHRA SCT020 04/M01 Q1002;",
"01023199999","2010-01-04T07:50:00","4","64.35","7.8","0.0","DRAUGEN, NO","FM-15","ENDR ","V020","010,1,N,0087,1","99999,9,C,N","011265,1,N,1","+0040,1","-0020,1","99999,9","02,5,+00600,1,02,1","04,5,+03600,1,99,9",,"04,99,1,99,9,99,9,99999,9,99,9,99,9","10031,1,99999,9","81,1","90,1",,,"MET069METAR ENDR 040750Z 01017KT 9999 SHRAGR FEW020TCU SCT120 04/M02 Q1003;","P01 036003SCOCIG"
"01023199999","2010-01-04T12:10:00","4","64.35","7.8","0.0","DRAUGEN, NO","FM-15","ENDR ","V020","010,1,N,0057,1","00300,1,C,N","004000,1,N,1","+0020,1","+0010,1","99999,9","08,5,+00300,1,99,9",,,"08,99,1,99,9,99,9,99999,9,99,9,99,9","10031,1,99999,9","10,1","73,1",,,"MET057METAR ENDR 041210Z 01011KT 4000 SN BR OVC010 02/01 Q1003;",
"01023199999","2010-01-04T15:20:00","4","64.35","7.8","0.0","DRAUGEN, NO","FM-15","ENDR ","V020","080,1,N,0072,1","22000,1,9,N","011265,1,N,1","+0030,1","-0080,1","99999,9","04,5,+01200,1,99,9",,,"04,99,1,99,9,99,9,99999,9,99,9,99,9","10041,1,99999,9",,,,,"MET052METAR ENDR 041520Z 08014KT 9999 SCT040 03/M08 Q1004;",
"01023199999","2010-01-05T06:20:00","4","64.35","7.8","0.0","DRAUGEN, NO","FM-15","ENDR ","V020","080,1,N,0072,1","22000,1,9,N","011265,1,N,1","+0000,1","-0080,1","99999,9","04,5,+00900,1,99,9",,,"04,99,1,99,9,99,9,99999,9,99,9,99,9","10129,1,99999,9",,,,,"MET053METAR ENDR 050620Z 08014KT 9999 SCT030 M00/M08 Q1013;",
"01023199999","2010-01-05T09:10:00","4","64.35","7.8","0.0","DRAUGEN, NO","FM-15","ENDR ","V020","080,1,N,0072,1","22000,1,9,N","011265,1,N,1","-0020,1","-0080,1","99999,9","04,5,+00900,1,99,9",,,"04,99,1,99,9,99,9,99999,9,99,9,99,9","10129,1,99999,9",,,,,"MET053METAR ENDR 050910Z 08014KT 9999 SCT030 M02/M08 Q1013;",
"01023199999","2010-01-05T09:40:00","4","64.35","7.8","0.0","DRAUGEN, NO","FM-15","ENDR ","V020","080,1,N,0072,1","22000,1,9,N","011265,1,N,1","-0020,1","-0080,1","99999,9","04,5,+00900,1,99,9",,,"04,99,1,99,9,99,9,99999,9,99,9,99,9","10129,1,99999,9",,,,,"MET053METAR ENDR 050940Z 08014KT 9999 SCT030 M02/M08 Q1013;",
"01023199999","2010-01-05T12:10:00","4","64.35","7.8","0.0","DRAUGEN, NO","FM-15","ENDR ","V020","080,1,N,0072,1","01200,1,C,N","011265,1,N,1","-0010,1","-0090,1","99999,9","07,5,+01200,1,99,9","07,5,+02100,1,99,9",,"07,99,1,99,9,99,9,99999,9,99,9,99,9","10119,1,99999,9",,,,,"MET060METAR ENDR 051210Z 08014KT 9999 BKN040 BKN070 M01/M09 Q1012;",
"01023199999","2010-01-05T15:20:00","4","64.35","7.8","0.0","DRAUGEN, NO","FM-15","ENDR ","V020","080,1,N,0072,1","22000,1,9,N","011265,1,N,1","-0010,1","-0070,1","99999,9","04,5,+00900,1,99,9",,,"04,99,1,99,9,99,9,99999,9,99,9,99,9","10119,1,99999,9",,,,,"MET053METAR ENDR 051520Z 08014KT 9999 SCT030 M01/M07 Q1012;",
"01023199999","2010-01-06T06:10:00","4","64.35","7.8","0.0","DRAUGEN, NO","FM-15","ENDR ","V020","120,1,N,0098,1","03600,1,C,N","011265,1,N,1","+0000,1","-0060,1","99999,9","02,5,+00900,1,99,9","07,5,+03600,1,99,9",,"07,99,1,99,9,99,9,99999,9,99,9,99,9","10108,1,99999,9",,,,,"MET060METAR ENDR 060610Z 12019KT 9999 FEW030 BKN120 M00/M06 Q1011;",
"01023199999","2010-01-06T07:10:00","4","64.35","7.8","0.0","DRAUGEN, NO","FM-15","ENDR ","V020","120,1,N,0098,1","99999,9,9,Y","009900,1,N,1","+0000,1","-0070,1","99999,9",,,,,"10119,1,99999,9",,,,,"MET047METAR ENDR 060710Z 12019KT CAVOK M00/M07 Q1012;",
"01023199999","2010-01-06T09:10:00","4","64.35","7.8","0.0","DRAUGEN, NO","FM-15","ENDR ","V020","120,1,N,0098,1","99999,9,9,Y","009900,1,N,1","+0000,1","-0080,1","99999,9",,,,,"10129,1,99999,9",,,,,"MET047METAR ENDR 060910Z 12019KT CAVOK M00/M08 Q1013;",
"01023199999","2010-01-06T10:10:00","4","64.35","7.8","0.0","DRAUGEN, NO","FM-15","ENDR ","V020","120,1,N,0098,1","22000,1,9,N","011265,1,N,1","+0000,1","-0080,1","99999,9","02,5,+00900,1,99,9",,,"02,99,1,99,9,99,9,99999,9,99,9,99,9","10129,1,99999,9",,,,,"MET053METAR ENDR 061010Z 12019KT 9999 FEW030 M00/M08 Q1013;",
"01023199999","2010-01-06T10:40:00","4","64.35","7.8","0.0","DRAUGEN, NO","FM-15","ENDR ","V020","120,1,N,0098,1","22000,1,9,N","011265,1,N,1","+0000,1","-0070,1","99999,9","02,5,+00810,1,99,9",,,"02,99,1,99,9,99,9,99999,9,99,9,99,9","10129,1,99999,9",,,,,"MET053METAR ENDR 061040Z 12019KT 9999 FEW027 M00/M07 Q1013;",
"01023199999","2010-01-06T11:10:00","4","64.35","7.8","0.0","DRAUGEN, NO","FM-15","ENDR ","V020","120,1,N,0098,1","99999,9,9,Y","009900,1,N,1","+0000,1","-0080,1","99999,9",,,,,"10129,1,99999,9",,,,,"MET047METAR ENDR 061110Z 12019KT CAVOK M00/M08 Q1013;",
"01023199999","2010-01-06T12:10:00","4","64.35","7.8","0.0","DRAUGEN, NO","FM-15","ENDR ","V020","120,1,N,0098,1","99999,9,9,Y","009900,1,N,1","+0000,1","-0080,1","99999,9",,,,,"10129,1,99999,9",,,,,"MET047METAR ENDR 061210Z 12019KT CAVOK M00/M08 Q1013;",
"01023199999","2010-01-06T15:10:00","4","64.35","7.8","0.0","DRAUGEN, NO","FM-15","ENDR ","V020","120,1,N,0098,1","99999,9,9,Y","009900,1,N,1","-0010,1","-0090,1","99999,9",,,,,"10129,1,99999,9",,,,,"MET047METAR ENDR 061510Z 12019KT CAVOK M01/M09 Q1013;",
"01023199999","2010-01-06T15:50:00","4","64.35","7.8","0.0","DRAUGEN, NO","FM-15","ENDR ","V020","120,1,N,0098,1","99999,9,9,Y","009900,1,N,1","-0010,1","-0090,1","99999,9",,,,,"10129,1,99999,9",,,,,"MET047METAR ENDR 061550Z 12019KT CAVOK M01/M09 Q1013;",
"01023199999","2010-01-07T06:10:00","4","64.35","7.8","0.0","DRAUGEN, NO","FM-15","ENDR ","V020","120,1,N,0098,1","99999,9,9,Y","009900,1,N,1","-0020,1","-0070,1","99999,9",,,,,"10159,1,99999,9",,,,,"MET047METAR ENDR 070610Z 12019KT CAVOK M02/M07 Q1016;",
"01023199999","2010-01-07T09:10:00","4","64.35","7.8","0.0","DRAUGEN, NO","FM-16","ENDR ","V020","120,1,N,0087,1","22000,1,9,N","999999,9,N,1","-0020,1","-0070,1","99999,9","02,5,+00660,5,99,9",,,,"10170,1,99999,9",,,,,"MET048METAR ENDR 070910Z 12017KT FEW022 M02/M07 Q1017;",
"01023199999","2010-01-07T09:40:00","4","64.35","7.8","0.0","DRAUGEN, NO","FM-15","ENDR ","V020","120,1,N,0082,1","22000,1,9,N","011265,1,N,1","-0020,1","-0070,1","99999,9","02,5,+00660,1,99,9",,,"02,99,1,99,9,99,9,99999,9,99,9,99,9","10180,1,99999,9",,,,,"MET053METAR ENDR 070940Z 12016KT 9999 FEW022 M02/M07 Q1018;",
"01023199999","2010-01-07T10:10:00","4","64.35","7.8","0.0","DRAUGEN, NO","FM-15","ENDR ","V020","120,1,N,0072,1","22000,1,9,N","011265,1,N,1","-0020,1","-0080,1","99999,9","02,5,+00660,1,99,9",,,"02,99,1,99,9,99,9,99999,9,99,9,99,9","10180,1,99999,9",,,,,"MET053METAR ENDR 071010Z 12014KT 9999 FEW022 M02/M08 Q1018;",
"01023199999","2010-01-07T15:10:00","4","64.35","7.8","0.0","DRAUGEN, NO","FM-15","ENDR ","V020","110,1,N,0077,1","22000,1,9,N","011265,1,N,1","-0010,1","-0070,1","99999,9","02,5,+00750,1,99,9",,,"02,99,1,99,9,99,9,99999,9,99,9,99,9","10190,1,99999,9",,,,,"MET053METAR ENDR 071510Z 11015KT 9999 FEW025 M01/M07 Q1019;",
"01023199999","2010-01-08T06:10:00","4","64.35","7.8","0.0","DRAUGEN, NO","FM-15","ENDR ","V020","110,1,N,0077,1","99999,9,9,Y","009900,1,N,1","+0020,1","-0040,1","99999,9",,,,,"10230,1,99999,9",,,,,"MET046METAR ENDR 080610Z 11015KT CAVOK 02/M04 Q1023;",
"01023199999","2010-01-08T09:10:00","4","64.35","7.8","0.0","DRAUGEN, NO","FM-15","ENDR ","V020","110,1,N,0077,1","99999,9,C,N","011265,1,N,1","+0020,1","-0030,1","99999,9","02,5,+00750,1,99,9","04,5,+03000,1,99,9",,"04,99,1,99,9,99,9,99999,9,99,9,99,9","10240,1,99999,9",,,,,"MET059METAR ENDR 080910Z 11015KT 9999 FEW025 SCT100 02/M03 Q1024;","P01 030003SCOCIG"
"01023199999","2010-01-08T12:10:00","4","64.35","7.8","0.0","DRAUGEN, NO","FM-15","ENDR ","V020","110,1,N,0077,1","04500,1,C,N","011265,1,N,1","+0030,1","-0040,1","99999,9","02,5,+00750,1,99,9","07,5,+04500,1,99,9",,"07,99,1,99,9,99,9,99999,9,99,9,99,9","10251,1,99999,9",,,,,"MET059METAR ENDR 081210Z 11015KT 9999 FEW025 BKN150 03/M04 Q1025;",
"01023199999","2010-01-08T15:10:00","4","64.35","7.8","0.0","DRAUGEN, NO","FM-15","ENDR ","V020","110,1,N,0077,1","22000,1,9,N","011265,1,N,1","+0030,1","-0040,1","99999,9","04,5,+00750,1,99,9",,,"04,99,1,99,9,99,9,99999,9,99,9,99,9","10261,1,99999,9",,,,,"MET052METAR ENDR 081510Z 11015KT 9999 SCT025 03/M04 Q1026;",
"01023199999","2010-01-09T06:10:00","4","64.35","7.8","0.0","DRAUGEN, NO","FM-15","ENDR ","V020","110,1,N,0077,1","00600,1,C,N","011265,1,N,1","+0040,1","-0010,1","99999,9","07,5,+00600,1,99,9",,,"07,99,1,99,9,99,9,99999,9,99,9,99,9","10318,1,99999,9",,,,,"MET052METAR ENDR 090610Z 11015KT 9999 BKN020 04/M01 Q1032;",
"01023199999","2010-01-09T15:10:00","4","64.35","7.8","0.0","DRAUGEN, NO","FM-15","ENDR ","V020","110,1,N,0077,1","22000,1,9,N","011265,1,N,1","+0040,1","-0010,1","99999,9","04,5,+00690,1,99,9",,,"04,99,1,99,9,99,9,99999,9,99,9,99,9","10339,1,99999,9",,,,,"MET052METAR ENDR 091510Z 11015KT 9999 SCT023 04/M01 Q1034;",
"01023199999","2010-01-10T06:10:00","4","64.35","7.8","0.0","DRAUGEN, NO","FM-15","ENDR ","V020","110,1,N,0077,1","01170,1,C,N","011265,1,N,1","+0050,1","+0020,1","99999,9","04,5,+00540,1,99,9","07,5,+01170,1,99,9",,"07,99,1,99,9,99,9,99999,9,99,9,99,9","10339,1,99999,9",,,,,"MET058METAR ENDR 100610Z 11015KT 9999 SCT018 BKN039 05/02 Q1034;",
"01023199999","2010-01-10T09:10:00","4","64.35","7.8","0.0","DRAUGEN, NO","FM-15","ENDR ","V020","110,1,N,0077,1","01050,1,C,N","011265,1,N,1","+0060,1","+0030,1","99999,9","02,5,+00420,1,99,9","07,5,+01050,1,99,9","07,5,+06000,1,99,9","07,99,1,99,9,99,9,99999,9,99,9,99,9","10339,1,99999,9","16,1",,,,"MET070METAR ENDR 100910Z 11015KT 9999 VCSH FEW014 BKN035 BKN200 06/03 Q1034;",
"01023199999","2010-01-10T12:10:00","4","64.35","7.8","0.0","DRAUGEN, NO","FM-15","ENDR ","V020","110,1,N,0077,1","00570,1,C,N","011265,1,N,1","+0060,1","+0030,1","99999,9","07,5,+00570,1,99,9",,,"07,99,1,99,9,99,9,99999,9,99,9,99,9","10339,1,99999,9","16,1",,,,"MET056METAR ENDR 101210Z 11015KT 9999 VCSH BKN019 06/03 Q1034;",
"01023199999","2010-01-10T15:10:00","4","64.35","7.8","0.0","DRAUGEN, NO","FM-15","ENDR ","V020","110,1,N,0077,1","00960,1,C,N","011265,1,N,1","+0060,1","+0040,1","99999,9","02,5,+00450,1,99,9","04,5,+00960,1,99,9","07,5,+01410,1,99,9","07,99,1,99,9,99,9,99999,9,99,9,99,9","10339,1,99999,9","16,1",,,,"MET070METAR ENDR 101510Z 11015KT 9999 VCSH FEW015 SCT032 BKN047 06/04 Q1034;",
"01023199999","2010-01-11T06:10:00","4","64.35","7.8","0.0","DRAUGEN, NO","FM-15","ENDR ","V020","110,1,N,0077,1","00900,1,C,N","011265,1,N,1","+0060,1","+0050,1","99999,9","02,5,+00270,1,99,9","07,5,+00900,1,99,9","07,5,+01710,5,99,9","07,99,1,99,9,99,9,99999,9,99,9,99,9","10329,1,99999,9",,,,,"MET065METAR ENDR 110610Z 11015KT 9999 FEW009 BKN030 BKN057 06/05 Q1033;",
"01023199999","2010-01-11T09:10:00","4","64.35","7.8","0.0","DRAUGEN, NO","FM-15","ENDR ","V020","110,1,N,0077,1","00270,1,C,N","011265,1,N,1","+0070,1","+0060,1","99999,9","07,5,+00270,1,99,9","08,5,+01920,5,99,9",,"08,99,1,99,9,99,9,99999,9,99,9,99,9","10329,1,99999,9","16,1",,,,"MET063METAR ENDR 110910Z 11015KT 9999 VCSH BKN009 OVC064 07/06 Q1033;",
"01023199999","2010-01-11T12:10:00","4","64.35","7.8","0.0","DRAUGEN, NO","FM-15","ENDR ","V020","110,1,N,0077,1","00150,1,C,N","004000,1,N,1","+0070,1","+0060,1","99999,9","08,5,+00150,1,99,9",,,"08,99,1,99,9,99,9,99999,9,99,9,99,9","10318,1,99999,9","10,1",,,,"MET054METAR ENDR 111210Z 11015KT 4000 BR OVC005 07/06 Q1032;",
"01023199999","2010-01-11T15:10:00","4","64.35","7.8","0.0","DRAUGEN, NO","FM-15","ENDR ","V020","110,1,N,0077,1","00180,1,C,N","011265,1,N,1","+0080,1","+0060,1","99999,9","07,5,+00180,1,99,9","07,5,+01770,5,99,9",,"07,99,1,99,9,99,9,99999,9,99,9,99,9","10312,1,99999,9",,,,,"MET058METAR ENDR 111510Z 11015KT 9999 BKN006 BKN059 08/06 Q1031;",
"01023199999","2010-01-12T06:10:00","4","64.35","7.8","0.0","DRAUGEN, NO","FM-15","ENDR ","V020","050,1,N,0031,1","00360,1,C,N","011265,1,N,1","+0060,1","+0020,1","99999,9","08,5,+00360,1,99,9",,,"08,99,1,99,9,99,9,99999,9,99,9,99,9","10281,1,99999,9",,,,,"MET059METAR ENDR 120610Z 05006KT 010V110 9999 OVC012 06/02 Q1028;",
"01023199999","2010-01-12T09:10:00","4","64.35","7.8","0.0","DRAUGEN, NO","FM-15","ENDR ","V020","080,1,N,0031,1","00300,1,C,N","011265,1,N,1","+0060,1","+0020,1","99999,9","07,5,+00300,1,99,9",,,"07,99,1,99,9,99,9,99999,9,99,9,99,9","10271,1,99999,9",,,,,"MET051METAR ENDR 120910Z 08006KT 9999 BKN010 06/02 Q1027;",
"01023199999","2010-01-12T12:10:00","4","64.35","7.8","0.0","DRAUGEN, NO","FM-15","ENDR ","V020","060,1,N,0021,1","00360,1,C,N","011265,1,N,1","+0060,1","+0030,1","99999,9","07,5,+00360,1,99,9",,,"07,99,1,99,9,99,9,99999,9,99,9,99,9","10261,1,99999,9",,,,,"MET059METAR ENDR 121210Z 06004KT 040V100 9999 BKN012 06/03 Q1026;",
"01023199999","2010-01-12T15:10:00","4","64.35","7.8","0.0","DRAUGEN, NO","FM-15","ENDR ","V020","090,1,N,0062,1","00510,1,C,N","011265,1,N,1","+0060,1","+0020,1","99999,9","07,5,+00510,1,99,9",,,"07,99,1,99,9,99,9,99999,9,99,9,99,9","10251,1,99999,9",,,,,"MET051METAR ENDR 121510Z 09012KT 9999 BKN017 06/02 Q1025;",
"01023199999","2010-01-13T06:10:00","4","64.35","7.8","0.0","DRAUGEN, NO","FM-15","ENDR ","V020","120,1,N,0067,1","22000,1,9,N","011265,1,N,1","+0030,1","+0000,1","99999,9","02,5,+00600,1,99,9",,,"02,99,1,99,9,99,9,99999,9,99,9,99,9","10180,1,99999,9",,,,,"MET051METAR ENDR 130610Z 12013KT 9999 FEW020 03/00 Q1018;",
"01023199999","2010-01-13T09:20:00","4","64.35","7.8","0.0","DRAUGEN, NO","FM-15","ENDR ","V020","200,1,N,0041,1","99999,9,C,N","011265,1,N,1","+0040,1","+0010,1","99999,9","02,5,+00330,1,99,9","04,5,+00360,1,99,9",,"04,99,1,99,9,99,9,99999,9,99,9,99,9","10180,1,99999,9",,,,,"MET058METAR ENDR 130920Z 20008KT 9999 FEW011 SCT012 04/01 Q1018;","P01 003603SCOCIG"
"01023199999","2010-01-13T12:10:00","4","64.35","7.8","0.0","DRAUGEN, NO","FM-15","ENDR ","V020","190,1,N,0046,1","00330,1,C,N","011265,1,N,1","+0040,1","+0020,1","99999,9","07,5,+00330,1,99,9",,,"07,99,1,99,9,99,9,99999,9,99,9,99,9","10169,1,99999,9",,,,,"MET051METAR ENDR 131210Z 19009KT 9999 BKN011 04/02 Q1017;",
"01023199999","2010-01-13T15:10:00","4","64.35","7.8","0.0","DRAUGEN, NO","FM-15","ENDR ","V020","250,1,N,0057,1","00480,1,C,N","011265,1,N,1","+0050,1","+0010,1","99999,9","07,5,+00480,1,99,9",,,"07,99,1,99,9,99,9,99999,9,99,9,99,9","10169,1,99999,9",,,,,"MET051METAR ENDR 131510Z 25011KT 9999 BKN016 05/01 Q1017;",
"01023199999","2010-01-14T06:10:00","4","64.35","7.8","0.0","DRAUGEN, NO","FM-15","ENDR ","V020","100,1,N,0031,1","00450,1,C,N","011265,1,N,1","+0040,1","+0010,1","99999,9","07,5,+00450,1,99,9",,,"07,99,1,99,9,99,9,99999,9,99,9,99,9","10149,1,99999,9",,,,,"MET051METAR ENDR 140610Z 10006KT 9999 BKN015 04/01 Q1015;",
"01023199999","2010-01-14T09:10:00","4","64.35","7.8","0.0","DRAUGEN, NO","FM-15","ENDR ","V020","110,1,N,0021,1","22000,1,9,N","011265,1,N,1","+0040,1","+0000,1","99999,9","04,5,+00510,1,99,9",,,"04,99,1,99,9,99,9,99999,9,99,9,99,9","10159,1,99999,9",,,,,"MET052METAR ENDR 140910Z 11004KT 9999 SCT017 04/M00 Q1016;",
"01023199999","2010-01-14T15:10:00","4","64.35","7.8","0.0","DRAUGEN, NO","FM-15","ENDR ","V020","100,1,N,0046,1","22000,1,9,N","011265,1,N,1","+0040,1","+0000,1","99999,9","02,5,+00450,1,99,9",,,"02,99,1,99,9,99,9,99999,9,99,9,99,9","10159,1,99999,9",,,,,"MET051METAR ENDR 141510Z 10009KT 9999 FEW015 04/00 Q1016;",
"01023199999","2010-01-15T06:10:00","4","64.35","7.8","0.0","DRAUGEN, NO","FM-15","ENDR ","V020","210,1,N,0062,1","99999,9,9,Y","009900,1,N,1","+0050,1","+0000,1","99999,9",,,,,"10169,1,99999,9",,,,,"MET045METAR ENDR 150610Z 21012KT CAVOK 05/00 Q1017;",
"01023199999","2010-01-15T09:10:00","4","64.35","7.8","0.0","DRAUGEN, NO","FM-15","ENDR ","V020","220,1,N,0036,1","22000,1,9,N","011265,1,N,1","+0060,1","+0020,1","99999,9","04,5,+00480,1,99,9",,,"04,99,1,99,9,99,9,99999,9,99,9,99,9","10190,1,99999,9",,,,,"MET059METAR ENDR 150910Z 22007KT 190V260 9999 SCT016 06/02 Q1019;",
"01023199999","2010-01-15T15:10:00","4","64.35","7.8","0.0","DRAUGEN, NO","FM-15","ENDR ","V020","210,1,N,0031,1","22000,1,9,N","011265,1,N,1","+0050,1","+0000,1","99999,9","04,5,+00450,1,99,9",,,"04,99,1,99,9,99,9,99999,9,99,9,99,9","10190,1,99999,9",,,,,"MET052METAR ENDR 151510Z 21006KT 9999 SCT015 05/M00 Q1019;",
"01023199999","2010-01-16T06:20:00","4","64.35","7.8","0.0","DRAUGEN, NO","FM-15","ENDR ","V020","140,1,N,0093,1","02040,5,C,N","011265,1,N,1","+0050,1","-0010,1","99999,9","08,5,+02040,5,99,9",,,"08,99,1,99,9,99,9,99999,9,99,9,99,9","10149,1,99999,9",,,,,"MET052METAR ENDR 160620Z 14018KT 9999 OVC068 05/M01 Q1015;",
"01023199999","2010-01-16T09:10:00","4","64.35","7.8","0.0","DRAUGEN, NO","FM-15","ENDR ","V020","150,1,N,0093,1","01350,1,C,N","011265,1,N,1","+0050,1","+0010,1","99999,9","07,5,+01350,1,99,9","07,5,+02250,5,99,9",,"07,99,1,99,9,99,9,99999,9,99,9,99,9","10149,1,99999,9",,,,,"MET058METAR ENDR 160910Z 15018KT 9999 BKN045 BKN075 05/01 Q1015;",
"01023199999","2010-01-16T12:10:00","4","64.35","7.8","0.0","DRAUGEN, NO","FM-15","ENDR ","V020","130,1,N,0113,1","01470,1,C,N","011265,1,N,1","+0050,1","+0000,1","99999,9","07,5,+01470,1,99,9","07,5,+03960,5,99,9",,"07,99,1,99,9,99,9,99999,9,99,9,99,9","10139,1,99999,9",,,,,"MET059METAR ENDR 161210Z 13022KT 9999 BKN049 BKN132 05/M00 Q1014;",
"01023199999","2010-01-16T15:10:00","4","64.35","7.8","0.0","DRAUGEN, NO","FM-15","ENDR ","V020","140,1,N,0108,1","01770,5,C,N","011265,1,N,1","+0050,1","-0010,1","99999,9","07,5,+01770,5,99,9",,,"07,99,1,99,9,99,9,99999,9,99,9,99,9","10129,1,99999,9",,,,,"MET052METAR ENDR 161510Z 14021KT 9999 BKN059 05/M01 Q1013;",
"01023199999","2010-01-17T06:10:00","4","64.35","7.8","0.0","DRAUGEN, NO","FM-15","ENDR ","V020","140,1,N,0134,1","99999,9,9,Y","009900,1,N,1","+0040,1","-0020,1","99999,9",,,,,"10091,1,99999,9",,,,,"MET046METAR ENDR 170610Z 14026KT CAVOK 04/M02 Q1009;",
"01023199999","2010-01-17T09:10:00","4","64.35","7.8","0.0","DRAUGEN, NO","FM-15","ENDR ","V020","160,1,N,0108,1","03000,1,C,N","011265,1,N,1","+0040,1","-0040,1","99999,9","02,5,+02040,5,99,9","07,5,+03000,1,99,9",,"07,99,1,99,9,99,9,99999,9,99,9,99,9","10102,1,99999,9",,,,,"MET059METAR ENDR 170910Z 16021KT 9999 FEW068 BKN100 04/M04 Q1010;",
"01023199999","2010-01-17T12:10:00","4","64.35","7.8","0.0","DRAUGEN, NO","FM-15","ENDR ","V020","160,1,N,0098,1","03150,5,C,N","011265,1,N,1","+0050,1","-0010,1","99999,9","08,5,+03150,5,99,9",,,"08,99,1,99,9,99,9,99999,9,99,9,99,9","10108,1,99999,9",,,,,"MET052METAR ENDR 171210Z 16019KT 9999 OVC105 05/M01 Q1011;",
"01023199999","2010-01-17T15:10:00","4","64.35","7.8","0.0","DRAUGEN, NO","FM-15","ENDR ","V020","180,1,N,0103,1","01560,5,C,N","011265,1,N,1","+0050,1","-0020,1","99999,9","02,5,+01290,1,99,9","08,5,+01560,5,99,9",,"08,99,1,99,9,99,9,99999,9,99,9,99,9","10129,1,99999,9",,,,,"MET059METAR ENDR 171510Z 18020KT 9999 FEW043 OVC052 05/M02 Q1013;",
"01023199999","2010-01-18T06:20:00","4","64.35","7.8","0.0","DRAUGEN, NO","FM-15","ENDR ","V020","170,1,N,0103,1","00600,1,C,N","011265,1,N,1","+0040,1","+0000,1","99999,9","08,5,+00600,1,99,9",,,"08,99,1,99,9,99,9,99999,9,99,9,99,9","10159,1,99999,9",,,,,"MET051METAR ENDR 180620Z 17020KT 9999 OVC020 04/00 Q1016;",
"01023199999","2010-01-18T09:10:00","4","64.35","7.8","0.0","DRAUGEN, NO","FM-15","ENDR ","V020","160,1,N,0098,1","00660,1,C,N","011265,1,N,1","+0040,1","+0000,1","99999,9","08,5,+00660,1,99,9",,,"08,99,1,99,9,99,9,99999,9,99,9,99,9","10159,1,99999,9",,,,,"MET051METAR ENDR 180910Z 16019KT 9999 OVC022 04/00 Q1016;",
"01023199999","2010-01-18T12:10:00","4","64.35","7.8","0.0","DRAUGEN, NO","FM-15","ENDR ","V020","160,1,N,0082,1","00660,1,C,N","011265,1,N,1","+0040,1","-0010,1","99999,9","07,5,+00660,1,99,9","07,5,+06000,1,99,9",,"07,99,1,99,9,99,9,99999,9,99,9,99,9","10159,1,99999,9",,,,,"MET059METAR ENDR 181210Z 16016KT 9999 BKN022 BKN200 04/M01 Q1016;",
"01023199999","2010-01-19T06:20:00","4","64.35","7.8","0.0","DRAUGEN, NO","FM-15","ENDR ","V020","240,1,N,0072,1","22000,1,9,N","011265,1,N,1","+0070,1","+0050,1","99999,9","02,5,+01290,1,99,9",,,"02,99,1,99,9,99,9,99999,9,99,9,99,9","10200,1,99999,9",,,,,"MET051METAR ENDR 190620Z 24014KT 9999 FEW043 07/05 Q1020;",
"01023199999","2010-01-19T09:10:00","4","64.35","7.8","0.0","DRAUGEN, NO","FM-15","ENDR ","V020","220,1,N,0108,1","00660,1,C,N","011265,1,N,1","+0070,1","+0050,1","99999,9","07,5,+00660,1,99,9",,,"07,99,1,99,9,99,9,99999,9,99,9,99,9","10220,1,99999,9",,,,,"MET051METAR ENDR 190910Z 22021KT 9999 BKN022 07/05 Q1022;",
"01023199999","2010-01-19T12:10:00","4","64.35","7.8","0.0","DRAUGEN, NO","FM-15","ENDR ","V020","220,1,N,0123,1","00240,1,C,N","011265,1,N,1","+0070,1","+0050,1","99999,9","07,5,+00240,1,99,9",,,"07,99,1,99,9,99,9,99999,9,99,9,99,9","10230,1,99999,9","16,1",,,,"MET056METAR ENDR 191210Z 22024KT 9999 VCSH BKN008 07/05 Q1023;",
"01023199999","2010-01-19T15:10:00","4","64.35","7.8","0.0","DRAUGEN, NO","FM-15","ENDR ","V020","220,1,N,0113,1","00270,1,C,N","011265,1,N,1","+0060,1","+0050,1","99999,9","07,5,+00270,1,99,9","07,5,+01170,1,99,9",,"07,99,1,99,9,99,9,99999,9,99,9,99,9","10251,1,99999,9","16,1",,,,"MET063METAR ENDR 191510Z 22022KT 9999 VCSH BKN009 BKN039 06/05 Q1025;",
"01023199999","2010-01-20T06:10:00","4","64.35","7.8","0.0","DRAUGEN, NO","FM-15","ENDR ","V020","110,1,N,0067,1","99999,9,9,Y","009900,1,N,1","+0050,1","+0010,1","99999,9",,,,,"10291,1,99999,9",,,,,"MET045METAR ENDR 200610Z 11013KT CAVOK 05/01 Q1029;",
"01023199999","2010-01-20T09:10:00","4","64.35","7.8","0.0","DRAUGEN, NO","FM-15","ENDR ","V020","120,1,N,0098,1","99999,9,9,Y","009900,1,N,1","+0050,1","+0000,1","99999,9",,,,,"10291,1,99999,9",,,,,"MET045METAR ENDR 200910Z 12019KT CAVOK 05/00 Q1029;",
"01023199999","2010-01-20T12:10:00","4","64.35","7.8","0.0","DRAUGEN, NO","FM-15","ENDR ","V020","120,1,N,0139,1","99999,9,C,N","011265,1,N,1","+0050,1","+0000,1","99999,9","02,5,+02400,1,99,9","04,5,+04200,1,99,9",,"04,99,1,99,9,99,9,99999,9,99,9,99,9","10281,1,99999,9",,,,,"MET059METAR ENDR 201210Z 12027KT 9999 FEW080 SCT140 05/M00 Q1028;","P01 042003SCOCIG"
"01023199999","2010-01-20T15:10:00","4","64.35","7.8","0.0","DRAUGEN, NO","FM-15","ENDR ","V020","120,1,N,0149,1","99999,9,9,Y","009900,1,N,1","+0050,1","+0000,1","99999,9",,,,,"10271,1,99999,9",,,,,"MET045METAR ENDR 201510Z 12029KT CAVOK 05/00 Q1027;",
"01023199999","2010-01-21T06:10:00","4","64.35","7.8","0.0","DRAUGEN, NO","FM-15","ENDR ","V020","160,1,N,0108,1","01530,5,C,N","011265,1,N,1","+0030,1","-0030,1","99999,9","07,5,+01530,5,99,9",,,"07,99,1,99,9,99,9,99999,9,99,9,99,9","10281,1,99999,9",,,,,"MET052METAR ENDR 210610Z 16021KT 9999 BKN051 03/M03 Q1028;",
"01023199999","2010-01-21T09:10:00","4","64.35","7.8","0.0","DRAUGEN, NO","FM-15","ENDR ","V020","150,1,N,0098,1","22000,1,9,N","011265,1,N,1","+0030,1","-0040,1","99999,9","04,5,+00810,1,99,9",,,"04,99,1,99,9,99,9,99999,9,99,9,99,9","10301,1,99999,9","16,1",,,,"MET057METAR ENDR 210910Z 15019KT 9999 VCSH SCT027 03/M04 Q1030;",
"01023199999","2010-01-22T06:10:00","4","64.35","7.8","0.0","DRAUGEN, NO","FM-15","ENDR ","V020","140,1,N,0077,1","99999,9,9,Y","009900,1,N,1","+0040,1","-0050,1","99999,9",,,,,"10281,1,99999,9",,,,,"MET046METAR ENDR 220610Z 14015KT CAVOK 04/M05 Q1028;",
"01023199999","2010-02-02T12:10:00","4","64.35","7.8","0.0","DRAUGEN, NO","FM-15","ENDR ","V020","080,1,N,0077,1","99999,9,C,N","011265,1,N,1","+0000,1","-0050,1","99999,9","02,5,+00600,1,99,9","04,5,+00900,1,99,9",,"04,99,1,99,9,99,9,99999,9,99,9,99,9","09980,1,99999,9",,,,,"MET060METAR ENDR 021210Z 08015KT 9999 FEW020 SCT030 M00/M05 Q0998;","P01 009003SCOCIG"
"01023199999","2010-02-02T15:10:00","4","64.35","7.8","0.0","DRAUGEN, NO","FM-15","ENDR ","V020","040,1,N,0098,1","00720,1,C,N","011265,1,N,1","-0010,1","-0060,1","99999,9","07,5,+00720,1,99,9",,,"07,99,1,99,9,99,9,99999,9,99,9,99,9","09970,1,99999,9",,,,,"MET053METAR ENDR 021510Z 04019KT 9999 BKN024 M01/M06 Q0997;",
"01023199999","2010-02-03T06:10:00","4","64.35","7.8","0.0","DRAUGEN, NO","FM-15","ENDR ","V020","140,1,N,0031,1","99999,9,9,Y","009900,1,N,1","-0010,1","-0060,1","99999,9",,,,,"10000,1,99999,9",,,,,"MET047METAR ENDR 030610Z 14006KT CAVOK M01/M06 Q1000;",
"01023199999","2010-02-03T12:10:00","4","64.35","7.8","0.0","DRAUGEN, NO","FM-16","ENDR ","V020","140,1,N,0046,1","22000,1,9,N","999999,9,N,1","-0010,1","-0060,1","99999,9","02,5,+00600,5,99,9",,,,"10020,1,99999,9",,,,,"MET048METAR ENDR 031210Z 14009KT FEW020 M01/M06 Q1002;",
"01023199999","2010-02-04T06:10:00","4","64.35","7.8","0.0","DRAUGEN, NO","FM-15","ENDR ","V020","130,1,N,0180,1","22000,1,9,N","011265,1,N,1","+0000,1","-0060,1","99999,9","04,5,+00750,1,99,9",,,"04,99,1,99,9,99,9,99999,9,99,9,99,9","10091,1,99999,9",,,,,"MET052METAR ENDR 040610Z 13035KT 9999 SCT025 00/M06 Q1009;",
"01023199999","2010-02-04T12:40:00","4","64.35","7.8","0.0","DRAUGEN, NO","FM-15","ENDR ","V020","130,1,N,0129,1","22000,1,9,N","011265,1,N,1","+0010,1","-0060,1","99999,9","04,5,+00900,1,99,9",,,"04,99,1,99,9,99,9,99999,9,99,9,99,9","10108,1,99999,9",,,,,"MET052METAR ENDR 041240Z 13025KT 9999 SCT030 01/M06 Q1011;",
"01023199999","2010-02-04T15:10:00","4","64.35","7.8","0.0","DRAUGEN, NO","FM-15","ENDR ","V020","130,1,N,0108,1","22000,1,9,N","011265,1,N,1","+0010,1","-0070,1","99999,9","02,5,+00900,1,99,9",,,"02,99,1,99,9,99,9,99999,9,99,9,99,9","10108,1,99999,9",,,,,"MET052METAR ENDR 041510Z 13021KT 9999 FEW030 01/M07 Q1011;",
"01023199999","2010-02-05T07:20:00","4","64.35","7.8","0.0","DRAUGEN, NO","FM-15","ENDR ","V020","120,1,N,0098,1","00300,1,C,N","005000,1,N,1","+0000,1","-0010,1","99999,9","07,5,+00300,1,99,9",,,"07,99,1,99,9,99,9,99999,9,99,9,99,9","10091,1,99999,9","10,1","73,1",,,"MET058METAR ENDR 050720Z 12019KT 5000 SN BR BKN010 00/M01 Q1009;",
"01023199999","2010-02-05T09:10:00","4","64.35","7.8","0.0","DRAUGEN, NO","FM-15","ENDR ","V020","120,1,N,0098,1","00300,1,C,N","005000,1,N,1","+0010,1","+0010,1","99999,9","07,5,+00300,1,99,9",,,"07,99,1,99,9,99,9,99999,9,99,9,99,9","10091,1,99999,9","10,1","73,1",,,"MET057METAR ENDR 050910Z 12019KT 5000 SN BR BKN010 01/01 Q1009;",
"01023199999","2010-02-05T12:10:00","4","64.35","7.8","0.0","DRAUGEN, NO","FM-15","ENDR ","V020","130,1,N,0129,1","00450,1,C,N","007000,1,N,1","+0020,1","+0020,1","99999,9","07,5,+00450,1,99,9",,,"07,99,1,99,9,99,9,99999,9,99,9,99,9","10091,1,99999,9","61,1",,,,"MET055METAR ENDR 051210Z 13025KT 7000 -RA BKN015 02/02 Q1009;",
"01023199999","2010-02-05T15:10:00","4","64.35","7.8","0.0","DRAUGEN, NO","FM-15","ENDR ","V020","200,1,N,0123,1","00750,1,C,N","011265,1,N,1","+0050,1","+0040,1","99999,9","07,5,+00750,1,99,9",,,"07,99,1,99,9,99,9,99999,9,99,9,99,9","10071,1,99999,9","63,1",,,,"MET054METAR ENDR 051510Z 20024KT 9999 RA BKN025 05/04 Q1007;",
"01023199999","2010-02-06T06:10:00","4","64.35","7.8","0.0","DRAUGEN, NO","FM-15","ENDR ","V020","020,1,N,0113,1","99999,9,9,Y","009900,1,N,1","+0030,1","-0020,1","99999,9",,,,,"10240,1,99999,9",,,,,"MET046METAR ENDR 060610Z 02022KT CAVOK 03/M02 Q1024;",
"01023199999","2010-02-06T09:10:00","4","64.35","7.8","0.0","DRAUGEN, NO","FM-15","ENDR ","V020","020,1,N,0062,1","00600,1,C,N","011265,1,N,1","+0050,1","+0010,1","99999,9","07,5,+00600,1,99,9",,,"07,99,1,99,9,99,9,99999,9,99,9,99,9","10261,1,99999,9","81,1",,,,"MET056METAR ENDR 060910Z 02012KT 9999 SHRA BKN020 05/01 Q1026;",
"01023199999","2010-02-06T14:50:00","4","64.35","7.8","0.0","DRAUGEN, NO","FM-15","ENDR ","V020","340,1,N,0057,1","01650,5,C,N","011265,1,N,1","+0070,1","-0010,1","99999,9","02,5,+00600,1,99,9","07,5,+01650,5,99,9",,"07,99,1,99,9,99,9,99999,9,99,9,99,9","10281,1,99999,9","16,1",,,,"MET064METAR ENDR 061450Z 34011KT 9999 VCSH FEW020 BKN055 07/M01 Q1028;",
"01023199999","2010-02-06T15:10:00","4","64.35","7.8","0.0","DRAUGEN, NO","FM-15","ENDR ","V020","330,1,N,0046,1","22000,1,9,N","011265,1,N,1","+0070,1","-0010,1","99999,9","04,5,+01350,1,99,9",,,"04,99,1,99,9,99,9,99999,9,99,9,99,9","10281,1,99999,9","16,1",,,,"MET057METAR ENDR 061510Z 33009KT 9999 VCSH SCT045 07/M01 Q1028;",
"01023199999","2010-02-07T06:20:00","4","64.35","7.8","0.0","DRAUGEN, NO","FM-15","ENDR ","V020","300,1,N,0129,1","01650,5,C,N","011265,1,N,1","+0040,1","+0000,1","99999,9","04,5,+01050,1,99,9","07,5,+01650,5,99,9",,"07,99,1,99,9,99,9,99999,9,99,9,99,9","10251,1,99999,9",,,,,"MET058METAR ENDR 070620Z 30025KT 9999 SCT035 BKN055 04/00 Q1025;",
"01023199999","2010-02-07T07:50:00","4","64.35","7.8","0.0","DRAUGEN, NO","FM-15","ENDR ","V020","340,1,N,0113,1","01650,5,C,N","011265,1,N,1","+0050,1","+0000,1","99999,9","04,5,+00750,1,99,9","07,5,+01650,5,99,9",,"07,99,1,99,9,99,9,99999,9,99,9,99,9","10240,1,99999,9","81,1",,,,"MET064METAR ENDR 070750Z 34022KT 9999 SHRA SCT025 BKN055 05/M00 Q1024;",
"01023199999","2010-02-07T09:10:00","4","64.35","7.8","0.0","DRAUGEN, NO","FM-15","ENDR ","V020","340,1,N,0077,1","01650,5,C,N","011265,1,N,1","+0040,1","+0010,1","99999,9","04,5,+00750,1,99,9","07,5,+01650,5,99,9",,"07,99,1,99,9,99,9,99999,9,99,9,99,9","10251,1,99999,9","81,1",,,,"MET063METAR ENDR 070910Z 34015KT 9999 SHRA SCT025 BKN055 04/01 Q1025;",
"01023199999","2010-02-07T15:20:00","4","64.35","7.8","0.0","DRAUGEN, NO","FM-15","ENDR ","V020","320,1,N,0098,1","01350,1,C,N","011265,1,N,1","+0050,1","+0000,1","99999,9","04,5,+00450,1,99,9","07,5,+01350,1,99,9",,"07,99,1,99,9,99,9,99999,9,99,9,99,9","10230,1,99999,9","16,1",,,,"MET064METAR ENDR 071520Z 32019KT 9999 VCSH SCT015 BKN045 05/M00 Q1023;",
"01023199999","2010-02-08T07:50:00","4","64.35","7.8","0.0","DRAUGEN, NO","FM-15","ENDR ","V020","350,1,N,0134,1","00600,1,C,N","011265,1,N,1","+0040,1","+0020,1","99999,9","02,5,+00300,1,99,9","07,5,+00600,1,99,9",,"07,99,1,99,9,99,9,99999,9,99,9,99,9","10129,1,99999,9","90,1",,,"0221,1","MET068METAR ENDR 080750Z 35026G43KT 9999 SHSNGR FEW010 BKN020 04/02 Q1013;",
"01023199999","2010-02-08T09:40:00","4","64.35","7.8","0.0","DRAUGEN, NO","FM-15","ENDR ","V020","350,1,N,0134,1","22000,1,9,N","011265,1,N,1","+0060,1","-0010,1","99999,9","04,5,+00900,1,99,9",,,"04,99,1,99,9,99,9,99999,9,99,9,99,9","10119,1,99999,9","16,1",,,,"MET057METAR ENDR 080940Z 35026KT 9999 VCSH SCT030 06/M01 Q1012;",
"01023199999","2010-02-08T12:20:00","4","64.35","7.8","0.0","DRAUGEN, NO","FM-15","ENDR ","V020","350,1,N,0134,1","01500,1,C,N","011265,1,N,1","+0060,1","-0030,1","99999,9","04,5,+00900,1,09,1","07,5,+01500,1,99,9",,"07,99,1,99,9,99,9,99999,9,99,9,99,9","10108,1,99999,9","81,1","88,1",,,"MET068METAR ENDR 081220Z 35026KT 9999 SHRAGS SCT030CB BKN050 06/M03 Q1011;",
"01023199999","2010-02-08T15:10:00","4","64.35","7.8","0.0","DRAUGEN, NO","FM-15","ENDR ","V020","350,1,N,0134,1","01500,1,C,N","011265,1,N,1","+0040,1","-0010,1","99999,9","04,5,+00750,1,02,1","04,5,+01500,1,99,9","07,5,+03000,1,99,9","07,99,1,99,9,99,9,99999,9,99,9,99,9","10119,1,99999,9","90,1",,,,"MET076METAR ENDR 081510Z 35026KT 9999 SHSNGR SCT025TCU SCT050 BKN100 04/M01 Q1012;",
"01023199999","2010-02-09T07:50:00","4","64.35","7.8","0.0","DRAUGEN, NO","FM-15","ENDR ","V020","350,1,N,0134,1","22000,1,9,N","011265,1,N,1","+0020,1","-0050,1","99999,9","02,5,+00900,1,99,9",,,"02,99,1,99,9,99,9,99999,9,99,9,99,9","10159,1,99999,9",,,,,"MET052METAR ENDR 090750Z 35026KT 9999 FEW030 02/M05 Q1016;",
"01023199999","2010-02-09T09:10:00","4","64.35","7.8","0.0","DRAUGEN, NO","FM-15","ENDR ","V020","060,1,N,0057,1","22000,1,9,N","011265,1,N,1","+0030,1","-0060,1","99999,9","02,5,+00900,1,99,9",,,"02,99,1,99,9,99,9,99999,9,99,9,99,9","10169,1,99999,9",,,,,"MET052METAR ENDR 090910Z 06011KT 9999 FEW030 03/M06 Q1017;",
"01023199999","2010-02-09T12:10:00","4","64.35","7.8","0.0","DRAUGEN, NO","FM-15","ENDR ","V020","060,1,N,0057,1","99999,9,9,Y","009900,1,N,1","+0030,1","-0070,1","99999,9",,,,,"10169,1,99999,9",,,,,"MET046METAR ENDR 091210Z 06011KT CAVOK 03/M07 Q1017;",
"01023199999","2010-02-09T15:10:00","4","64.35","7.8","0.0","DRAUGEN, NO","FM-15","ENDR ","V020","120,1,N,0015,1","99999,9,9,Y","009900,1,N,1","+0020,1","-0070,1","99999,9",,,,,"10180,1,99999,9",,,,,"MET046METAR ENDR 091510Z 12003KT CAVOK 02/M07 Q1018;",
"01023199999","2010-02-09T17:10:00","4","64.35","7.8","0.0","DRAUGEN, NO","FM-15","ENDR ","V020","120,1,N,0015,1","99999,9,9,Y","009900,1,N,1","+0000,1","-0070,1","99999,9",,,,,"10180,1,99999,9",,,,,"MET046METAR ENDR 091710Z 12003KT CAVOK 00/M07 Q1018;",
"01023199999","2010-02-10T06:20:00","4","64.35","7.8","0.0","DRAUGEN, NO","FM-15","ENDR ","V020","120,1,N,0015,1","00300,1,C,N","011265,1,N,1","+0020,1","+0010,1","99999,9","07,5,+00300,1,99,9","08,5,+01500,1,99,9",,"08,99,1,99,9,99,9,99999,9,99,9,99,9","10139,1,99999,9","81,1",,,,"MET063METAR ENDR 100620Z 12003KT 9999 SHRA BKN010 OVC050 02/01 Q1014;",
"01023199999","2010-02-10T09:20:00","4","64.35","7.8","0.0","DRAUGEN, NO","FM-15","ENDR ","V020","120,1,N,0015,1","01800,1,C,N","011265,1,N,1","+0040,1","+0000,1","99999,9","04,5,+00750,1,99,9","07,5,+01800,1,99,9",,"07,99,1,99,9,99,9,99999,9,99,9,99,9","10129,1,99999,9","16,1",,,,"MET063METAR ENDR 100920Z 12003KT 9999 VCSH SCT025 BKN060 04/00 Q1013;",
"01023199999","2010-02-10T12:20:00","4","64.35","7.8","0.0","DRAUGEN, NO","FM-15","ENDR ","V020","120,1,N,0015,1","01800,1,C,N","011265,1,N,1","+0040,1","+0010,1","99999,9","04,5,+00390,1,99,9","07,5,+01800,1,99,9",,"07,99,1,99,9,99,9,99999,9,99,9,99,9","10119,1,99999,9","16,1",,,,"MET063METAR ENDR 101220Z 12003KT 9999 VCSH SCT013 BKN060 04/01 Q1012;",
"01023199999","2010-02-10T15:10:00","4","64.35","7.8","0.0","DRAUGEN, NO","FM-15","ENDR ","V020","300,1,N,0129,1","01500,1,C,N","011265,1,N,1","+0050,1","+0000,1","99999,9","04,5,+00750,1,99,9","07,5,+01500,1,99,9",,"07,99,1,99,9,99,9,99999,9,99,9,99,9","10108,1,99999,9","16,1",,,,"MET063METAR ENDR 101510Z 30025KT 9999 VCSH SCT025 BKN050 05/00 Q1011;",
"01023199999","2010-02-11T06:10:00","4","64.35","7.8","0.0","DRAUGEN, NO","FM-15","ENDR ","V020","310,1,N,0067,1","22000,1,9,N","011265,1,N,1","+0040,1","+0010,1","99999,9","04,5,+00450,1,99,9",,,"04,99,1,99,9,99,9,99999,9,99,9,99,9","10129,1,99999,9",,,,,"MET051METAR ENDR 110610Z 31013KT 9999 SCT015 04/01 Q1013;",
"01023199999","2010-02-11T08:50:00","4","64.35","7.8","0.0","DRAUGEN, NO","FM-15","ENDR ","V020","330,1,N,0072,1","99999,9,C,N","011265,1,N,1","+0050,1","-0020,1","99999,9","04,5,+00600,1,99,9","04,5,+01800,1,99,9",,"04,99,1,99,9,99,9,99999,9,99,9,99,9","10129,1,99999,9",,,,,"MET059METAR ENDR 110850Z 33014KT 9999 SCT020 SCT060 05/M02 Q1013;","P01 018003SCOCIG"
"01023199999","2010-02-11T09:10:00","4","64.35","7.8","0.0","DRAUGEN, NO","FM-15","ENDR ","V020","320,1,N,0082,1","99999,9,C,N","011265,1,N,1","+0050,1","-0020,1","99999,9","04,5,+00600,1,99,9","04,5,+01800,1,99,9",,"04,99,1,99,9,99,9,99999,9,99,9,99,9","10139,1,99999,9","16,1",,,,"MET064METAR ENDR 110910Z 32016KT 9999 VCSH SCT020 SCT060 05/M02 Q1014;","P01 018003SCOCIG"
"01023199999","2010-02-11T12:10:00","4","64.35","7.8","0.0","DRAUGEN, NO","FM-15","ENDR ","V020","340,1,N,0057,1","00810,1,C,N","011265,1,N,1","+0060,1","-0030,1","99999,9","07,5,+00810,1,99,9",,,"07,99,1,99,9,99,9,99999,9,99,9,99,9","10159,1,99999,9","16,1",,,,"MET057METAR ENDR 111210Z 34011KT 9999 VCSH BKN027 06/M03 Q1016;",
"01023199999","2010-02-11T15:10:00","4","64.35","7.8","0.0","DRAUGEN, NO","FM-15","ENDR ","V020","350,1,N,0057,1","01800,1,C,N","011265,1,N,1","+0040,1","-0010,1","99999,9","04,5,+00600,1,99,9","07,5,+01800,1,99,9",,"07,99,1,99,9,99,9,99999,9,99,9,99,9","10180,1,99999,9","16,1",,,,"MET072METAR ENDR 111510Z 35011KT 300V020 9999 VCSH SCT020 BKN060 04/M01 Q1018;",
"01023199999","2010-02-11T15:40:00","4","64.35","7.8","0.0","DRAUGEN, NO","FM-15","ENDR ","V020","340,1,N,0046,1","01650,5,C,N","011265,1,N,1","+0050,1","-0010,1","99999,9","04,5,+00600,1,99,9","07,5,+01650,5,99,9",,"07,99,1,99,9,99,9,99999,9,99,9,99,9","10190,1,99999,9","16,1",,,,"MET072METAR ENDR 111540Z 34009KT 310V010 9999 VCSH SCT020 BKN055 05/M01 Q1019;",
"01023199999","2010-02-12T06:10:00","4","64.35","7.8","0.0","DRAUGEN, NO","FM-15","ENDR ","V020","250,1,N,0077,1","99999,9,C,N","011265,1,N,1","+0060,1","+0040,1","99999,9","04,5,+00600,1,99,9","04,5,+02700,1,99,9",,"04,99,1,99,9,99,9,99999,9,99,9,99,9","10240,1,99999,9",,,,,"MET058METAR ENDR 120610Z 25015KT 9999 SCT020 SCT090 06/04 Q1024;","P01 027003SCOCIG"
"01023199999","2010-02-12T09:10:00","4","64.35","7.8","0.0","DRAUGEN, NO","FM-15","ENDR ","V020","290,1,N,0082,1","01800,1,C,N","011265,1,N,1","+0060,1","+0000,1","99999,9","04,5,+00600,1,99,9","07,5,+01800,1,99,9",,"07,99,1,99,9,99,9,99999,9,99,9,99,9","10251,1,99999,9","53,1",,,,"MET062METAR ENDR 120910Z 29016KT 9999 DZ SCT020 BKN060 06/M00 Q1025;",
"01023199999","2010-02-12T12:10:00","4","64.35","7.8","0.0","DRAUGEN, NO","FM-15","ENDR ","V020","250,1,N,0118,1","01800,1,C,N","011265,1,N,1","+0060,1","+0030,1","99999,9","02,5,+00750,1,99,9","07,5,+01800,1,99,9",,"07,99,1,99,9,99,9,99999,9,99,9,99,9","10251,1,99999,9",,,,,"MET058METAR ENDR 121210Z 25023KT 9999 FEW025 BKN060 06/03 Q1025;",
"01023199999","2010-02-12T15:10:00","4","64.35","7.8","0.0","DRAUGEN, NO","FM-15","ENDR ","V020","230,1,N,0093,1","02100,1,C,N","011265,1,N,1","+0060,1","+0020,1","99999,9","02,5,+00750,1,99,9","04,5,+02100,1,99,9","07,5,+04500,1,99,9","07,99,1,99,9,99,9,99999,9,99,9,99,9","10240,1,99999,9",,,,,"MET065METAR ENDR 121510Z 23018KT 9999 FEW025 SCT070 BKN150 06/02 Q1024;",
"01023199999","2010-02-13T06:10:00","4","64.35","7.8","0.0","DRAUGEN, NO","FM-15","ENDR ","V020","290,1,N,0103,1","00600,1,C,N","011265,1,N,1","+0060,1","+0050,1","99999,9","07,5,+00600,1,99,9","07,5,+02100,1,99,9",,"07,99,1,99,9,99,9,99999,9,99,9,99,9","10200,1,99999,9","81,1",,,,"MET063METAR ENDR 130610Z 29020KT 9999 SHRA BKN020 BKN070 06/05 Q1020;",
"01023199999","2010-02-13T09:50:00","4","64.35","7.8","0.0","DRAUGEN, NO","FM-15","ENDR ","V020","310,1,N,0108,1","00540,1,C,N","011265,1,N,1","+0070,1","+0030,1","99999,9","07,5,+00540,1,99,9",,,"07,99,1,99,9,99,9,99999,9,99,9,99,9","10200,1,99999,9",,,,,"MET051METAR ENDR 130950Z 31021KT 9999 BKN018 07/03 Q1020;",
"01023199999","2010-02-13T10:10:00","4","64.35","7.8","0.0","DRAUGEN, NO","FM-15","ENDR ","V020","320,1,N,0087,1","00450,1,C,N","011265,1,N,1","+0060,1","+0040,1","99999,9","07,5,+00450,1,99,9",,,"07,99,1,99,9,99,9,99999,9,99,9,99,9","10200,1,99999,9","80,1",,,,"MET057METAR ENDR 131010Z 32017KT 9999 -SHRA BKN015 06/04 Q1020;",
"01023199999","2010-02-13T12:10:00","4","64.35","7.8","0.0","DRAUGEN, NO","FM-15","ENDR ","V020","310,1,N,0103,1","00660,1,C,N","011265,1,N,1","+0060,1","+0010,1","99999,9","07,5,+00660,1,99,9",,,"07,99,1,99,9,99,9,99999,9,99,9,99,9","10200,1,99999,9","16,1",,,,"MET056METAR ENDR 131210Z 31020KT 9999 VCSH BKN022 06/01 Q1020;",
"01023199999","2010-02-13T14:40:00","4","64.35","7.8","0.0","DRAUGEN, NO","FM-15","ENDR ","V020","330,1,N,0041,1","22000,1,9,N","011265,1,N,1","+0060,1","+0020,1","99999,9","04,5,+00450,1,99,9",,,"04,99,1,99,9,99,9,99999,9,99,9,99,9","10200,1,99999,9",,,,,"MET059METAR ENDR 131440Z 33008KT 280V020 9999 SCT015 06/02 Q1020;",
"01023199999","2010-02-13T15:20:00","4","64.35","7.8","0.0","DRAUGEN, NO","FM-15","ENDR ","V020","330,1,N,0041,1","00450,1,C,N","011265,1,N,1","+0060,1","+0020,1","99999,9","07,5,+00450,1,99,9",,,"07,99,1,99,9,99,9,99999,9,99,9,99,9","10200,1,99999,9","80,1",,,,"MET065METAR ENDR 131520Z 33008KT 280V050 9999 -SHRA BKN015 06/02 Q1020;",
"01023199999","2010-02-14T06:50:00","4","64.35","7.8","0.0","DRAUGEN, NO","FM-15","ENDR ","V020","130,1,N,0036,1","00450,1,C,N","011265,1,N,1","+0040,1","+0020,1","99999,9","07,5,+00450,1,99,9","08,5,+00900,1,99,9",,"08,99,1,99,9,99,9,99999,9,99,9,99,9","10169,1,99999,9","61,1",,,,"MET062METAR ENDR 140650Z 13007KT 9999 -RA BKN015 OVC030 04/02 Q1017;",
"01023199999","2010-02-14T09:20:00","4","64.35","7.8","0.0","DRAUGEN, NO","FM-15","ENDR ","V020","150,1,N,0021,1","01950,5,C,N","011265,1,N,1","+0040,1","+0020,1","99999,9","04,5,+00750,1,99,9","07,5,+01950,5,99,9",,"07,99,1,99,9,99,9,99999,9,99,9,99,9","10159,1,99999,9","16,1",,,,"MET063METAR ENDR 140920Z 15004KT 9999 VCSH SCT025 BKN065 04/02 Q1016;",
"01023199999","2010-02-14T12:10:00","4","64.35","7.8","0.0","DRAUGEN, NO","FM-15","ENDR ","V020","200,1,N,0077,1","02400,1,C,N","011265,1,N,1","+0040,1","+0020,1","99999,9","04,5,+00600,1,99,9","07,5,+02400,1,99,9",,"07,99,1,99,9,99,9,99999,9,99,9,99,9","10149,1,99999,9","16,1",,,,"MET063METAR ENDR 141210Z 20015KT 9999 VCSH SCT020 BKN080 04/02 Q1015;",
"01023199999","2010-02-14T14:50:00","4","64.35","7.8","0.0","DRAUGEN, NO","FM-15","ENDR ","V020","240,1,N,0015,1","00390,1,C,N","011265,1,N,1","+0040,1","+0030,1","99999,9","07,5,+00390,1,99,9",,,"07,99,1,99,9,99,9,99999,9,99,9,99,9","10139,1,99999,9","61,1",,,,"MET055METAR ENDR 141450Z 24003KT 9999 -RA BKN013 04/03 Q1014;",
"01023199999","2010-02-14T15:20:00","4","64.35","7.8","0.0","DRAUGEN, NO","FM-15","ENDR ","V020","230,1,N,0026,1","00420,1,C,N","011265,1,N,1","+0050,1","+0030,1","99999,9","08,5,+00420,1,99,9",,,"08,99,1,99,9,99,9,99999,9,99,9,99,9","10139,1,99999,9","61,1",,,,"MET055METAR ENDR 141520Z 23005KT 9999 -RA OVC014 05/03 Q1014;",
"01023199999","2010-02-15T06:20:00","4","64.35","7.8","0.0","DRAUGEN, NO","FM-15","ENDR ","V020","080,1,N,0082,1","00450,1,C,N","011265,1,N,1","+0060,1","+0020,1","99999,9","07,5,+00450,1,99,9",,,"07,99,1,99,9,99,9,99999,9,99,9,99,9","10091,1,99999,9",,,,,"MET051METAR ENDR 150620Z 08016KT 9999 BKN015 06/02 Q1009;",
"01023199999","2010-02-15T08:40:00","4","64.35","7.8","0.0","DRAUGEN, NO","FM-15","ENDR ","V020","070,1,N,0108,1","00450,1,C,N","011265,1,N,1","+0050,1","+0020,1","99999,9","07,5,+00450,1,99,9","07,5,+03300,1,99,9",,"07,99,1,99,9,99,9,99999,9,99,9,99,9","10091,1,99999,9",,,,,"MET058METAR ENDR 150840Z 07021KT 9999 BKN015 BKN110 05/02 Q1009;",
"01023199999","2010-02-15T09:10:00","4","64.35","7.8","0.0","DRAUGEN, NO","FM-15","ENDR ","V020","080,1,N,0108,1","03300,1,C,N","011265,1,N,1","+0050,1","+0000,1","99999,9","04,5,+00450,1,99,9","07,5,+03300,1,99,9",,"07,99,1,99,9,99,9,99999,9,99,9,99,9","10091,1,99999,9",,,,,"MET058METAR ENDR 150910Z 08021KT 9999 SCT015 BKN110 05/00 Q1009;",
"01023199999","2010-02-15T12:20:00","4","64.35","7.8","0.0","DRAUGEN, NO","FM-15","ENDR ","V020","070,1,N,0123,1","99999,9,9,Y","009900,1,N,1","+0050,1","-0020,1","99999,9",,,,,"10091,1,99999,9",,,,,"MET046METAR ENDR 151220Z 07024KT CAVOK 05/M02 Q1009;",
"01023199999","2010-02-15T13:20:00","4","64.35","7.8","0.0","DRAUGEN, NO","FM-15","ENDR ","V020","060,1,N,0129,1","99999,9,9,Y","009900,1,N,1","+0050,1","-0040,1","99999,9",,,,,"10081,1,99999,9",,,,,"MET046METAR ENDR 151320Z 06025KT CAVOK 05/M04 Q1008;",
"01023199999","2010-02-15T15:10:00","4","64.35","7.8","0.0","DRAUGEN, NO","FM-15","ENDR ","V020","070,1,N,0134,1","99999,9,9,Y","009900,1,N,1","+0050,1","-0050,1","99999,9",,,,,"10081,1,99999,9",,,,,"MET046METAR ENDR 151510Z 07026KT CAVOK 05/M05 Q1008;",
"01023199999","2010-02-15T20:20:00","4","64.35","7.8","0.0","DRAUGEN, NO","FM-15","ENDR ","V020","060,1,N,0149,1","22000,1,9,N","011265,1,N,1","+0040,1","-0030,1","99999,9","04,5,+00840,1,99,9",,,"04,99,1,99,9,99,9,99999,9,99,9,99,9","10081,1,99999,9",,,,,"MET052METAR ENDR 152020Z 06029KT 9999 SCT028 04/M03 Q1008;",
"01023199999","2010-02-16T09:10:00","4","64.35","7.8","0.0","DRAUGEN, NO","FM-15","ENDR ","V020","060,1,N,0093,1","22000,1,9,N","011265,1,N,1","+0050,1","-0030,1","99999,9","04,5,+00840,1,99,9",,,"04,99,1,99,9,99,9,99999,9,99,9,99,9","10071,1,99999,9","86,5",,,,"MET057METAR ENDR 160910Z 06018KT 9999 SHSN SCT028 05/M03 Q1007;",
"01023199999","2010-02-16T12:20:00","4","64.35","7.8","0.0","DRAUGEN, NO","FM-15","ENDR ","V020","060,1,N,0077,1","22000,1,9,N","011265,1,N,1","+0050,1","-0040,1","99999,9","02,5,+00750,1,99,9",,,"02,99,1,99,9,99,9,99999,9,99,9,99,9","10071,1,99999,9","16,1",,,,"MET057METAR ENDR 161220Z 06015KT 9999 VCSH FEW025 05/M04 Q1007;",
"01023199999","2010-02-16T14:40:00","4","64.35","7.8","0.0","DRAUGEN, NO","FM-15","ENDR ","V020","050,1,N,0087,1","22000,1,9,N","011265,1,N,1","+0040,1","-0050,1","99999,9","04,5,+00840,1,99,9",,,"04,99,1,99,9,99,9,99999,9,99,9,99,9","10061,1,99999,9","16,1",,,,"MET057METAR ENDR 161440Z 05017KT 9999 VCSH SCT028 04/M05 Q1006;",
"01023199999","2010-02-16T15:10:00","4","64.35","7.8","0.0","DRAUGEN, NO","FM-15","ENDR ","V020","060,1,N,0087,1","22000,1,9,N","011265,1,N,1","+0040,1","-0050,1","99999,9","02,5,+00840,1,99,9",,,"02,99,1,99,9,99,9,99999,9,99,9,99,9","10061,1,99999,9","16,1",,,,"MET057METAR ENDR 161510Z 06017KT 9999 VCSH FEW028 04/M05 Q1006;",
"01023199999","2010-02-16T16:40:00","4","64.35","7.8","0.0","DRAUGEN, NO","FM-15","ENDR ","V020","060,1,N,0093,1","99999,9,9,Y","009900,1,N,1","+0030,1","-0050,1","99999,9",,,,,"10061,1,99999,9",,,,,"MET046METAR ENDR 161640Z 06018KT CAVOK 03/M05 Q1006;",
"01023199999","2010-02-17T06:50:00","4","64.35","7.8","0.0","DRAUGEN, NO","FM-15","ENDR ","V020","100,1,N,0077,1","00750,1,C,N","011265,1,N,1","+0010,1","-0050,1","99999,9","07,5,+00750,1,99,9",,,"07,99,1,99,9,99,9,99999,9,99,9,99,9","10031,1,99999,9",,,,,"MET052METAR ENDR 170650Z 10015KT 9999 BKN025 01/M05 Q1003;",
"01023199999","2010-02-17T09:10:00","4","64.35","7.8","0.0","DRAUGEN, NO","FM-15","ENDR ","V020","130,1,N,0082,1","00750,1,C,N","011265,1,N,1","+0020,1","-0030,1","99999,9","07,5,+00750,1,99,9",,,"07,99,1,99,9,99,9,99999,9,99,9,99,9","10020,1,99999,9",,,,,"MET052METAR ENDR 170910Z 13016KT 9999 BKN025 02/M03 Q1002;",
"01023199999","2010-02-17T10:50:00","4","64.35","7.8","0.0","DRAUGEN, NO","FM-15","ENDR ","V020","130,1,N,0082,1","00750,1,C,N","011265,1,N,1","+0010,1","-0020,1","99999,9","07,5,+00750,1,99,9",,,"07,99,1,99,9,99,9,99999,9,99,9,99,9","10020,1,99999,9","86,5",,,,"MET057METAR ENDR 171050Z 13016KT 9999 SHSN BKN025 01/M02 Q1002;",
"01023199999","2010-02-17T12:10:00","4","64.35","7.8","0.0","DRAUGEN, NO","FM-15","ENDR ","V020","170,1,N,0087,1","00600,1,C,N","006000,1,N,1","+0010,1","+0000,1","99999,9","07,5,+00600,1,99,9",,,"07,99,1,99,9,99,9,99999,9,99,9,99,9","10020,1,99999,9","86,5",,,,"MET057METAR ENDR 171210Z 17017KT 6000 SHSN BKN020 01/M00 Q1002;",
"01023199999","2010-02-17T15:20:00","4","64.35","7.8","0.0","DRAUGEN, NO","FM-15","ENDR ","V020","160,1,N,0103,1","00450,1,C,N","004000,1,N,1","+0010,1","+0000,1","99999,9","08,5,+00450,1,99,9",,,"08,99,1,99,9,99,9,99999,9,99,9,99,9","10020,1,99999,9","73,1",,,,"MET054METAR ENDR 171520Z 16020KT 4000 SN OVC015 01/00 Q1002;",
"01023199999","2010-02-17T15:40:00","4","64.35","7.8","0.0","DRAUGEN, NO","FM-15","ENDR ","V020","190,1,N,0118,1","00300,1,C,N","011265,1,N,1","+0010,1","+0000,1","99999,9","08,5,+00300,1,99,9",,,"08,99,1,99,9,99,9,99999,9,99,9,99,9","10020,1,99999,9","86,5",,,,"MET056METAR ENDR 171540Z 19023KT 9999 SHSN OVC010 01/00 Q1002;",
"01023199999","2010-02-17T17:20:00","4","64.35","7.8","0.0","DRAUGEN, NO","FM-15","ENDR ","V020","190,1,N,0098,1","00360,1,C,N","006000,1,N,1","+0010,1","-0010,1","99999,9","07,5,+00360,1,99,9","07,5,+01500,1,99,9",,"07,99,1,99,9,99,9,99999,9,99,9,99,9","10020,1,99999,9","86,5",,,,"MET064METAR ENDR 171720Z 19019KT 6000 SHSN BKN012 BKN050 01/M01 Q1002;",
"01023199999","2010-02-18T06:10:00","4","64.35","7.8","0.0","DRAUGEN, NO","FM-15","ENDR ","V020","130,1,N,0067,1","99999,9,9,Y","009900,1,N,1","+0010,1","-0060,1","99999,9",,,,,"10020,1,99999,9",,,,,"MET046METAR ENDR 180610Z 13013KT CAVOK 01/M06 Q1002;",
"01023199999","2010-02-18T12:10:00","4","64.35","7.8","0.0","DRAUGEN, NO","FM-15","ENDR ","V020","140,1,N,0067,1","04500,1,C,N","011265,1,N,1","+0010,1","-0060,1","99999,9","04,5,+00570,1,99,9","07,5,+04500,1,99,9",,"07,99,1,99,9,99,9,99999,9,99,9,99,9","10031,1,99999,9",,,,,"MET059METAR ENDR 181210Z 14013KT 9999 SCT019 BKN150 01/M06 Q1003;",
"01023199999","2010-02-18T15:10:00","4","64.35","7.8","0.0","DRAUGEN, NO","FM-15","ENDR ","V020","140,1,N,0067,1","04500,1,C,N","011265,1,N,1","+0000,1","-0060,1","99999,9","02,5,+00600,1,99,9","07,5,+04500,1,99,9",,"07,99,1,99,9,99,9,99999,9,99,9,99,9","10020,1,99999,9",,,,,"MET059METAR ENDR 181510Z 14013KT 9999 FEW020 BKN150 00/M06 Q1002;",
"01023199999","2010-02-19T06:10:00","4","64.35","7.8","0.0","DRAUGEN, NO","FM-15","ENDR ","V020","140,1,N,0067,1","00600,1,C,N","011265,1,N,1","-0030,1","-0080,1","99999,9","07,5,+00600,1,99,9",,,"07,99,1,99,9,99,9,99999,9,99,9,99,9","10000,1,99999,9",,,,,"MET053METAR ENDR 190610Z 14013KT 9999 BKN020 M03/M08 Q1000;",
"01023199999","2010-02-19T09:10:00","4","64.35","7.8","0.0","DRAUGEN, NO","FM-15","ENDR ","V020","140,1,N,0067,1","00630,1,C,N","011265,1,N,1","-0030,1","-0080,1","99999,9","07,5,+00630,1,99,9",,,"07,99,1,99,9,99,9,99999,9,99,9,99,9","10000,1,99999,9",,,,,"MET053METAR ENDR 190910Z 14013KT 9999 BKN021 M03/M08 Q1000;",
"01023199999","2010-02-19T12:10:00","4","64.35","7.8","0.0","DRAUGEN, NO","FM-15","ENDR ","V020","140,1,N,0067,1","00600,1,C,N","011265,1,N,1","-0040,1","-0090,1","99999,9","07,5,+00600,1,99,9",,,"07,99,1,99,9,99,9,99999,9,99,9,99,9","10000,1,99999,9",,,,,"MET053METAR ENDR 191210Z 14013KT 9999 BKN020 M04/M09 Q1000;",
"01023199999","2010-02-20T06:10:00","4","64.35","7.8","0.0","DRAUGEN, NO","FM-15","ENDR ","V020","140,1,N,0067,1","00600,1,C,N","011265,1,N,1","-0060,1","-0110,1","99999,9","07,5,+00600,1,99,9",,,"07,99,1,99,9,99,9,99999,9,99,9,99,9","09980,1,99999,9","71,1",,,,"MET057METAR ENDR 200610Z 14013KT 9999 -SN BKN020 M06/M11 Q0998;",
"01023199999","2010-02-20T09:10:00","4","64.35","7.8","0.0","DRAUGEN, NO","FM-15","ENDR ","V020","140,1,N,0067,1","00660,1,C,N","011265,1,N,1","-0060,1","-0100,1","99999,9","07,5,+00660,1,99,9",,,"07,99,1,99,9,99,9,99999,9,99,9,99,9","09980,1,99999,9",,,,,"MET053METAR ENDR 200910Z 14013KT 9999 BKN022 M06/M10 Q0998;",
"01023199999","2010-02-20T12:10:00","4","64.35","7.8","0.0","DRAUGEN, NO","FM-15","ENDR ","V020","140,1,N,0067,1","00660,1,C,N","011265,1,N,1","-0050,1","-0100,1","99999,9","07,5,+00660,1,99,9",,,"07,99,1,99,9,99,9,99999,9,99,9,99,9","09990,1,99999,9",,,,,"MET053METAR ENDR 201210Z 14013KT 9999 BKN022 M05/M10 Q0999;",
"01023199999","2010-02-20T15:40:00","4","64.35","7.8","0.0","DRAUGEN, NO","FM-15","ENDR ","V020","140,1,N,0067,1","00720,1,C,N","011265,1,N,1","-0050,1","-0120,1","99999,9","07,5,+00720,1,99,9",,,"07,99,1,99,9,99,9,99999,9,99,9,99,9","09990,1,99999,9",,,,,"MET053METAR ENDR 201540Z 14013KT 9999 BKN024 M05/M12 Q0999;",
"01023199999","2010-02-21T06:20:00","4","64.35","7.8","0.0","DRAUGEN, NO","FM-15","ENDR ","V020","140,1,N,0067,1","00570,1,C,N","011265,1,N,1","-0080,1","-0120,1","99999,9","07,5,+00570,1,99,9","07,5,+03090,5,99,9",,"07,99,1,99,9,99,9,99999,9,99,9,99,9","10000,1,99999,9",,,,,"MET060METAR ENDR 210620Z 14013KT 9999 BKN019 BKN103 M08/M12 Q1000;",
"01023199999","2010-02-21T09:10:00","4","64.35","7.8","0.0","DRAUGEN, NO","FM-15","ENDR ","V020","140,1,N,0067,1","00480,1,C,N","011265,1,N,1","-0080,1","-0110,1","99999,9","07,5,+00480,1,99,9","07,5,+03450,5,99,9",,"07,99,1,99,9,99,9,99999,9,99,9,99,9","10000,1,99999,9",,,,,"MET060METAR ENDR 210910Z 14013KT 9999 BKN016 BKN115 M08/M11 Q1000;",
"01023199999","2010-02-21T12:10:00","4","64.35","7.8","0.0","DRAUGEN, NO","FM-15","ENDR ","V020","140,1,N,0067,1","00540,1,C,N","011265,1,N,1","-0070,1","-0110,1","99999,9","08,5,+00540,1,99,9",,,"08,99,1,99,9,99,9,99999,9,99,9,99,9","10000,1,99999,9","16,1",,,,"MET058METAR ENDR 211210Z 14013KT 9999 VCSH OVC018 M07/M11 Q1000;",
"01023199999","2010-02-21T15:10:00","4","64.35","7.8","0.0","DRAUGEN, NO","FM-15","ENDR ","V020","140,1,N,0067,1","00450,1,C,N","011265,1,N,1","-0070,1","-0120,1","99999,9","07,5,+00450,1,99,9",,,"07,99,1,99,9,99,9,99999,9,99,9,99,9","09990,1,99999,9","16,1","71,1",,,"MET062METAR ENDR 211510Z 14013KT 9999 -SN VCSH BKN015 M07/M12 Q0999;",
"01023199999","2010-02-22T06:10:00","4","64.35","7.8","0.0","DRAUGEN, NO","FM-15","ENDR ","V020","140,1,N,0067,1","00420,1,C,N","005000,1,N,1","-0100,1","-0130,1","99999,9","07,5,+00420,1,99,9",,,"07,99,1,99,9,99,9,99999,9,99,9,99,9","09959,1,99999,9","71,1",,,,"MET057METAR ENDR 220610Z 14013KT 5000 -SN BKN014 M10/M13 Q0996;",
"01023199999","2010-02-22T09:10:00","4","64.35","7.8","0.0","DRAUGEN, NO","FM-15","ENDR ","V020","140,1,N,0067,1","00450,1,C,N","005000,1,N,1","-0100,1","-0130,1","99999,9","07,5,+00450,1,99,9",,,"07,99,1,99,9,99,9,99999,9,99,9,99,9","09970,1,99999,9","16,1","71,1",,,"MET062METAR ENDR 220910Z 14013KT 5000 -SN VCSH BKN015 M10/M13 Q0997;",
"01023199999","2010-02-22T12:10:00","4","64.35","7.8","0.0","DRAUGEN, NO","FM-15","ENDR ","V020","140,1,N,0067,1","00600,1,C,N","011265,1,N,1","-0090,1","-0160,1","99999,9","07,5,+00600,1,99,9",,,"07,99,1,99,9,99,9,99999,9,99,9,99,9","09959,1,99999,9","16,1",,,,"MET058METAR ENDR 221210Z 14013KT 9999 VCSH BKN020 M09/M16 Q0996;",
"01023199999","2010-02-22T15:10:00","4","64.35","7.8","0.0","DRAUGEN, NO","FM-15","ENDR ","V020","140,1,N,0067,1","22000,1,9,N","011265,1,N,1","-0100,1","-0160,1","99999,9","04,5,+00690,1,99,9",,,"04,99,1,99,9,99,9,99999,9,99,9,99,9","09959,1,99999,9","16,1",,,,"MET058METAR ENDR 221510Z 14013KT 9999 VCSH SCT023 M10/M16 Q0996;",
"01023199999","2010-02-23T06:10:00","4","64.35","7.8","0.0","DRAUGEN, NO","FM-15","ENDR ","V020","140,1,N,0067,1","00630,1,C,N","011265,1,N,1","-0090,1","-0140,1","99999,9","07,5,+00630,1,99,9",,,"07,99,1,99,9,99,9,99999,9,99,9,99,9","09949,1,99999,9","71,1",,,,"MET057METAR ENDR 230610Z 14013KT 9999 -SN BKN021 M09/M14 Q0995;",
"01023199999","2010-02-23T09:10:00","4","64.35","7.8","0.0","DRAUGEN, NO","FM-15","ENDR ","V020","140,1,N,0067,1","00420,1,C,N","005000,1,N,1","-0090,1","-0120,1","99999,9","08,5,+00420,1,99,9",,,"08,99,1,99,9,99,9,99999,9,99,9,99,9","09959,1,99999,9","16,1","75,1",,,"MET062METAR ENDR 230910Z 14013KT 5000 +SN VCSH OVC014 M09/M12 Q0996;","Q01+050002VODIS "
"01023199999","2010-02-23T12:10:00","4","64.35","7.8","0.0","DRAUGEN, NO","FM-15","ENDR ","V020","140,1,N,0067,1","99999,9,C,N","011265,1,N,1","-0070,1","-0140,1","99999,9","02,5,+00540,1,99,9","04,5,+06000,1,99,9",,"04,99,1,99,9,99,9,99999,9,99,9,99,9","09959,1,99999,9",,,,,"MET060METAR ENDR 231210Z 14013KT 9999 FEW018 SCT200 M07/M14 Q0996;","P01 060003SCOCIG"
"01023199999","2010-02-23T15:10:00","4","64.35","7.8","0.0","DRAUGEN, NO","FM-15","ENDR ","V020","140,1,N,0067,1","99999,9,C,N","011265,1,N,1","-0060,1","-0130,1","99999,9","02,5,+00600,1,99,9","04,5,+06000,1,99,9",,"04,99,1,99,9,99,9,99999,9,99,9,99,9","09959,1,99999,9",,,,,"MET060METAR ENDR 231510Z 14013KT 9999 FEW020 SCT200 M06/M13 Q0996;","P01 060003SCOCIG"
"01023199999","2010-02-24T06:10:00","4","64.35","7.8","0.0","DRAUGEN, NO","FM-15","ENDR ","V020","140,1,N,0067,1","22000,1,9,N","011265,1,N,1","+0020,1","-0040,1","99999,9","04,5,+00600,1,99,9",,,"04,99,1,99,9,99,9,99999,9,99,9,99,9","09919,1,99999,9","16,1",,,,"MET057METAR ENDR 240610Z 14013KT 9999 VCSH SCT020 02/M04 Q0992;",
"01023199999","2010-02-24T09:20:00","4","64.35","7.8","0.0","DRAUGEN, NO","FM-15","ENDR ","V020","140,1,N,0067,1","00750,1,C,N","011265,1,N,1","+0030,1","-0060,1","99999,9","07,5,+00750,1,09,1",,,"07,99,1,99,9,99,9,99999,9,99,9,99,9","09939,1,99999,9","16,1",,,,"MET059METAR ENDR 240920Z 14013KT 9999 VCSH BKN025CB 03/M06 Q0994;",
"01023199999","2010-02-24T12:10:00","4","64.35","7.8","0.0","DRAUGEN, NO","FM-15","ENDR ","V020","140,1,N,0067,1","04350,5,C,N","011265,1,N,1","+0030,1","-0040,1","99999,9","04,5,+01170,1,09,1","07,5,+04350,5,99,9",,"07,99,1,99,9,99,9,99999,9,99,9,99,9","09970,1,99999,9","16,1",,,,"MET066METAR ENDR 241210Z 14013KT 9999 VCSH SCT039CB BKN145 03/M04 Q0997;",
"01023199999","2010-02-24T15:10:00","4","64.35","7.8","0.0","DRAUGEN, NO","FM-15","ENDR ","V020","140,1,N,0067,1","04680,5,C,N","011265,1,N,1","+0040,1","-0070,1","99999,9","04,5,+01200,1,02,1","07,5,+04680,5,99,9",,"07,99,1,99,9,99,9,99999,9,99,9,99,9","09980,1,99999,9","16,1",,,,"MET067METAR ENDR 241510Z 14013KT 9999 VCSH SCT040TCU BKN156 04/M07 Q0998;",
"01023199999","2010-02-25T06:20:00","4","64.35","7.8","0.0","DRAUGEN, NO","FM-15","ENDR ","V020","140,1,N,0067,1","01350,1,C,N","011265,1,N,1","+0020,1","-0040,1","99999,9","04,5,+00930,1,99,9","07,5,+01350,1,99,9",,"07,99,1,99,9,99,9,99999,9,99,9,99,9","09990,1,99999,9","16,1",,,,"MET064METAR ENDR 250620Z 14013KT 9999 VCSH SCT031 BKN045 02/M04 Q0999;",
"01023199999","2010-02-25T09:20:00","4","64.35","7.8","0.0","DRAUGEN, NO","FM-15","ENDR ","V020","140,1,N,0067,1","00750,1,C,N","011265,1,N,1","+0020,1","-0030,1","99999,9","07,5,+00750,1,02,1",,,"07,99,1,99,9,99,9,99999,9,99,9,99,9","09990,1,99999,9","16,1",,,,"MET060METAR ENDR 250920Z 14013KT 9999 VCSH BKN025TCU 02/M03 Q0999;",
"01023199999","2010-02-25T12:40:00","4","64.35","7.8","0.0","DRAUGEN, NO","FM-15","ENDR ","V020","140,1,N,0067,1","99999,9,C,N","011265,1,N,1","+0020,1","-0040,1","99999,9","02,5,+00660,1,02,1","04,5,+00810,1,99,9",,"04,99,1,99,9,99,9,99999,9,99,9,99,9","10000,1,99999,9","16,1",,,,"MET067METAR ENDR 251240Z 14013KT 9999 VCSH FEW022TCU SCT027 02/M04 Q1000;","P01 008103SCOCIG"
"01023199999","2010-02-25T15:10:00","4","64.35","7.8","0.0","DRAUGEN, NO","FM-15","ENDR ","V020","140,1,N,0067,1","00570,1,C,N","011265,1,N,1","+0030,1","-0020,1","99999,9","07,5,+00570,1,02,1",,,"07,99,1,99,9,99,9,99999,9,99,9,99,9","10000,1,99999,9","16,1",,,,"MET060METAR ENDR 251510Z 14013KT 9999 VCSH BKN019TCU 03/M02 Q1000;",
"01023199999","2010-02-26T06:10:00","4","64.35","7.8","0.0","DRAUGEN, NO","FM-15","ENDR ","V020","140,1,N,0067,1","00330,1,C,N","011265,1,N,1","+0010,1","-0040,1","99999,9","07,5,+00330,1,09,1","07,5,+00810,1,99,9",,"07,99,1,99,9,99,9,99999,9,99,9,99,9","09970,1,99999,9","16,1",,,,"MET066METAR ENDR 260610Z 14013KT 9999 VCSH BKN011CB BKN027 01/M04 Q0997;",
"01023199999","2010-02-26T09:10:00","4","64.35","7.8","0.0","DRAUGEN, NO","FM-15","ENDR ","V020","140,1,N,0067,1","99999,9,C,N","011265,1,N,1","+0040,1","-0060,1","99999,9","02,5,+00750,1,09,1","04,5,+03000,1,99,9",,"04,99,1,99,9,99,9,99999,9,99,9,99,9","09970,1,99999,9","16,1",,,,"MET066METAR ENDR 260910Z 14013KT 9999 VCSH FEW025CB SCT100 04/M06 Q0997;","P01 030003SCOCIG"
"01023199999","2010-02-26T12:20:00","4","64.35","7.8","0.0","DRAUGEN, NO","FM-15","ENDR ","V020","140,1,N,0067,1","03000,1,C,N","011265,1,N,1","+0050,1","-0040,1","99999,9","04,5,+01170,1,09,1","07,5,+03000,1,99,9",,"07,99,1,99,9,99,9,99999,9,99,9,99,9","09959,1,99999,9","16,1",,,,"MET066METAR ENDR 261220Z 14013KT 9999 VCSH SCT039CB BKN100 05/M04 Q0996;",
"01023199999","2010-02-26T15:10:00","4","64.35","7.8","0.0","DRAUGEN, NO","FM-15","ENDR ","V020","140,1,N,0067,1","99999,9,C,N","011265,1,N,1","+0030,1","-0020,1","99999,9","02,5,+01140,1,09,1","04,5,+03000,1,99,9",,"04,99,1,99,9,99,9,99999,9,99,9,99,9","09959,1,99999,9","16,1",,,,"MET066METAR ENDR 261510Z 14013KT 9999 VCSH FEW038CB SCT100 03/M02 Q0996;","P01 030003SCOCIG"
"01023199999","2010-02-27T06:10:00","4","64.35","7.8","0.0","DRAUGEN, NO","FM-15","ENDR ","V020","140,1,N,0067,1","22000,1,9,N","011265,1,N,1","+0030,1","-0020,1","99999,9","04,5,+00360,1,09,1",,,"04,99,1,99,9,99,9,99999,9,99,9,99,9","09959,1,99999,9","16,1",,,,"MET059METAR ENDR 270610Z 14013KT 9999 VCSH SCT012CB 03/M02 Q0996;",
"01023199999","2010-02-27T09:10:00","4","64.35","7.8","0.0","DRAUGEN, NO","FM-15","ENDR ","V020","250,1,N,0051,1","22000,1,9,N","011265,1,N,1","+0040,1","-0030,1","99999,9","04,5,+00960,1,09,1",,,"04,99,1,99,9,99,9,99999,9,99,9,99,9","09970,1,99999,9","16,1",,,,"MET059METAR ENDR 270910Z 25010KT 9999 VCSH SCT032CB 04/M03 Q0997;",
"01023199999","2010-02-27T12:10:00","4","64.35","7.8","0.0","DRAUGEN, NO","FM-15","ENDR ","V020","250,1,N,0077,1","00660,1,C,N","011265,1,N,1","+0050,1","-0020,1","99999,9","07,5,+00660,1,09,1",,,"07,99,1,99,9,99,9,99999,9,99,9,99,9","09970,1,99999,9","16,1",,,,"MET059METAR ENDR 271210Z 25015KT 9999 VCSH BKN022CB 05/M02 Q0997;",
"01023199999","2010-02-27T15:10:00","4","64.35","7.8","0.0","DRAUGEN, NO","FM-15","ENDR ","V020","260,1,N,0067,1","00780,1,C,N","011265,1,N,1","+0050,1","-0020,1","99999,9","07,5,+00780,1,09,1",,,"07,99,1,99,9,99,9,99999,9,99,9,99,9","09970,1,99999,9","16,1",,,,"MET059METAR ENDR 271510Z 26013KT 9999 VCSH BKN026CB 05/M02 Q0997;",
"01023199999","2010-02-28T06:10:00","4","64.35","7.8","0.0","DRAUGEN, NO","FM-15","ENDR ","V020","210,1,N,0041,1","22000,1,9,N","011265,1,N,1","+0020,1","+0000,1","99999,9","04,5,+00600,1,09,1",,,"04,99,1,99,9,99,9,99999,9,99,9,99,9","09939,1,99999,9","16,1",,,,"MET059METAR ENDR 280610Z 21008KT 9999 VCSH SCT020CB 02/M00 Q0994;",
"01023199999","2010-02-28T09:10:00","4","64.35","7.8","0.0","DRAUGEN, NO","FM-15","ENDR ","V020","220,1,N,0062,1","00570,1,C,N","003000,1,N,1","+0020,1","+0000,1","99999,9","04,5,+00300,1,09,1","07,5,+00570,1,99,9","07,5,+01590,5,99,9","07,99,1,99,9,99,9,99999,9,99,9,99,9","09939,1,99999,9","16,1","71,1",,,"MET078METAR ENDR 280910Z 22012KT 3000W -SN VCSH SCT010CB BKN019 BKN053 02/M00 Q0994;",
"01023199999","2010-02-28T12:10:00","4","64.35","7.8","0.0","DRAUGEN, NO","FM-15","ENDR ","V020","140,1,N,0046,1","00540,1,C,N","003000,1,N,1","+0020,1","+0000,1","99999,9","02,5,+00390,1,09,1","07,5,+00540,1,99,9",,"07,99,1,99,9,99,9,99999,9,99,9,99,9","09939,1,99999,9","16,1",,,,"MET075METAR ENDR 281210Z 14009KT 110V180 3000N VCSH FEW013CB BKN018 02/M00 Q0994;",
"01023199999","2010-02-28T15:10:00","4","64.35","7.8","0.0","DRAUGEN, NO","FM-15","ENDR ","V020","110,1,N,0015,1","22000,1,9,N","011265,1,N,1","+0010,1","-0010,1","99999,9","04,5,+00600,1,09,1",,,"04,99,1,99,9,99,9,99999,9,99,9,99,9","09939,1,99999,9","16,1",,,,"MET067METAR ENDR 281510Z 11003KT 090V150 9999 VCSH SCT020CB 01/M01 Q0994;",
"01023199999","2010-03-01T06:10:00","4","64.35","7.8","0.0","DRAUGEN, NO","FM-15","ENDR ","V020","070,1,N,0062,1","22000,1,9,N","011265,1,N,1","+0010,1","-0060,1","99999,9","04,5,+01050,1,99,9",,,"04,99,1,99,9,99,9,99999,9,99,9,99,9","09949,1,99999,9","16,1",,,,"MET057METAR ENDR 010610Z 07012KT 9999 VCSH SCT035 01/M06 Q0995;",
"01023199999","2010-03-01T09:10:00","4","64.35","7.8","0.0","DRAUGEN, NO","FM-15","ENDR ","V020","040,1,N,0098,1","00600,1,C,N","011265,1,N,1","+0010,1","-0040,1","99999,9","07,5,+00600,1,99,9",,,"07,99,1,99,9,99,9,99999,9,99,9,99,9","09970,1,99999,9","16,1",,,,"MET057METAR ENDR 010910Z 04019KT 9999 VCSH BKN020 01/M04 Q0997;",
"01023199999","2010-03-01T12:10:00","4","64.35","7.8","0.0","DRAUGEN, NO","FM-15","ENDR ","V020","030,1,N,0123,1","00870,1,C,N","011265,1,N,1","+0020,1","-0060,1","99999,9","07,5,+00870,1,99,9",,,"07,99,1,99,9,99,9,99999,9,99,9,99,9","09990,1,99999,9",,,,,"MET052METAR ENDR 011210Z 03024KT 9999 BKN029 02/M06 Q0999;",
"01023199999","2010-03-01T15:10:00","4","64.35","7.8","0.0","DRAUGEN, NO","FM-15","ENDR ","V020","020,1,N,0108,1","00930,1,C,N","011265,1,N,1","+0020,1","-0050,1","99999,9","07,5,+00930,1,99,9",,,"07,99,1,99,9,99,9,99999,9,99,9,99,9","10000,1,99999,9","16,1",,,,"MET057METAR ENDR 011510Z 02021KT 9999 VCSH BKN031 02/M05 Q1000;",
"01023199999","2010-03-02T06:10:00","4","64.35","7.8","0.0","DRAUGEN, NO","FM-15","ENDR ","V020","010,1,N,0072,1","00540,1,C,N","011265,1,N,1","+0020,1","-0030,1","99999,9","07,5,+00540,1,02,1",,,"07,99,1,99,9,99,9,99999,9,99,9,99,9","10051,1,99999,9","16,1",,,,"MET060METAR ENDR 020610Z 01014KT 9999 VCSH BKN018TCU 02/M03 Q1005;",
"01023199999","2010-03-02T09:10:00","4","64.35","7.8","0.0","DRAUGEN, NO","FM-15","ENDR ","V020","270,1,N,0015,1","99999,9,C,N","011265,1,N,1","+0030,1","-0010,1","99999,9","02,5,+00870,1,02,1","04,5,+02040,5,99,9",,"04,99,1,99,9,99,9,99999,9,99,9,99,9","10071,1,99999,9","16,1",,,,"MET067METAR ENDR 020910Z 27003KT 9999 VCSH FEW029TCU SCT068 03/M01 Q1007;","P01 020403SCOCIG"
"01023199999","2010-03-02T12:10:00","4","64.35","7.8","0.0","DRAUGEN, NO","FM-15","ENDR ","V020","360,1,N,0067,1","02400,1,C,N","011265,1,N,1","+0050,1","-0060,1","99999,9","02,5,+01140,1,09,1","07,5,+02400,1,99,9",,"07,99,1,99,9,99,9,99999,9,99,9,99,9","10071,1,99999,9","16,1",,,,"MET066METAR ENDR 021210Z 36013KT 9999 VCSH FEW038CB BKN080 05/M06 Q1007;",
"01023199999","2010-03-02T15:10:00","4","64.35","7.8","0.0","DRAUGEN, NO","FM-15","ENDR ","V020","350,1,N,0123,1","00690,1,C,N","007000,1,N,1","+0040,1","-0030,1","99999,9","07,5,+00690,1,09,1",,,"07,99,1,99,9,99,9,99999,9,99,9,99,9","10071,1,99999,9","16,1",,,,"MET059METAR ENDR 021510Z 35024KT 7000 VCSH BKN023CB 04/M03 Q1007;",
"01023199999","2010-03-03T06:10:00","4","64.35","7.8","0.0","DRAUGEN, NO","FM-15","ENDR ","V020","330,1,N,0103,1","02100,1,C,N","011265,1,N,1","+0040,1","-0090,1","99999,9","04,5,+01560,5,99,9","04,5,+02220,5,99,9","07,5,+04230,5,99,9","07,99,1,99,9,99,9,99999,9,99,9,99,9","10149,1,99999,9","16,1",,,,"MET071METAR ENDR 030610Z 33020KT 9999 VCSH SCT052 SCT074 BKN141 04/M09 Q1015;",
"01023199999","2010-03-03T09:20:00","4","64.35","7.8","0.0","DRAUGEN, NO","FM-15","ENDR ","V020","360,1,N,0098,1","00390,1,C,N","005000,1,N,1","+0010,1","-0020,1","99999,9","07,5,+00390,1,99,9","07,5,+01830,5,99,9",,"07,99,1,99,9,99,9,99999,9,99,9,99,9","10159,1,99999,9","16,1","86,5",,,"MET072METAR ENDR 030920Z 36019KT 5000NW +SHSN VCSH BKN013 BKN061 01/M02 Q1016;",
"01023199999","2010-03-03T15:10:00","4","64.35","7.8","0.0","DRAUGEN, NO","FM-15","ENDR ","V020","010,1,N,0082,1","00750,1,C,N","011265,1,N,1","+0020,1","-0040,1","99999,9","07,5,+00750,1,09,1",,,"07,99,1,99,9,99,9,99999,9,99,9,99,9","10190,1,99999,9","16,1",,,,"MET059METAR ENDR 031510Z 01016KT 9999 VCSH BKN025CB 02/M04 Q1019;",
"01023199999","2010-03-04T06:20:00","4","64.35","7.8","0.0","DRAUGEN, NO","FM-15","ENDR ","V020","120,1,N,0036,1","00015,1,C,N","005000,1,N,1","+0010,1","+0000,1","99999,9","07,5,+00000,5,99,9",,,"07,99,1,99,9,99,9,99999,9,99,9,99,9","10200,1,99999,9","16,1","71,1",,,"MET062METAR ENDR 040620Z 12007KT 5000SE -SN VCSH BKN000 01/00 Q1020;",
"01023199999","2010-03-04T09:10:00","4","64.35","7.8","0.0","DRAUGEN, NO","FM-15","ENDR ","V020","060,1,N,0026,1","01380,1,C,N","005000,1,N,1","+0050,1","+0000,1","99999,9","02,5,+00840,1,09,1","07,5,+01380,1,99,9","07,5,+01620,5,99,9","07,99,1,99,9,99,9,99999,9,99,9,99,9","10210,1,99999,9","16,1",,,,"MET075METAR ENDR 040910Z 06005KT 5000SW VCSH FEW028CB BKN046 BKN054 05/M00 Q1021;",
"01023199999","2010-03-04T14:50:00","4","64.35","7.8","0.0","DRAUGEN, NO","FM-15","ENDR ","V020","210,1,N,0021,1","22000,1,9,N","011265,1,N,1","+0040,1","-0020,1","99999,9","04,5,+00840,1,99,9",,,"04,99,1,99,9,99,9,99999,9,99,9,99,9","10210,1,99999,9","86,5",,,,"MET057METAR ENDR 041450Z 21004KT 9999 SHSN SCT028 04/M02 Q1021;",
"01023199999","2010-03-04T15:10:00","4","64.35","7.8","0.0","DRAUGEN, NO","FM-15","ENDR ","V020","200,1,N,0026,1","22000,1,9,N","011265,1,N,1","+0050,1","-0020,1","99999,9","04,5,+00750,1,99,9",,,"04,99,1,99,9,99,9,99999,9,99,9,99,9","10210,1,99999,9","16,1",,,,"MET057METAR ENDR 041510Z 20005KT 9999 VCSH SCT025 05/M02 Q1021;",
"01023199999","2010-03-05T06:10:00","4","64.35","7.8","0.0","DRAUGEN, NO","FM-15","ENDR ","V020","120,1,N,0139,1","99999,9,9,Y","009900,1,N,1","+0020,1","-0020,1","99999,9",,,,,"10102,1,99999,9",,,,,"MET046METAR ENDR 050610Z 12027KT CAVOK 02/M02 Q1010;",
"01023199999","2010-03-05T07:10:00","4","64.35","7.8","0.0","DRAUGEN, NO","FM-15","ENDR ","V020","120,1,N,0108,1","99999,9,9,Y","009900,1,N,1","+0020,1","-0020,1","99999,9",,,,,"10108,1,99999,9",,,,,"MET046METAR ENDR 050710Z 12021KT CAVOK 02/M02 Q1011;",
"01023199999","2010-03-05T08:50:00","4","64.35","7.8","0.0","DRAUGEN, NO","FM-15","ENDR ","V020","120,1,N,0093,1","99999,9,9,Y","009900,1,N,1","+0010,1","-0040,1","99999,9",,,,,"10119,1,99999,9",,,,,"MET046METAR ENDR 050850Z 12018KT CAVOK 01/M04 Q1012;",
"01023199999","2010-03-05T09:20:00","4","64.35","7.8","0.0","DRAUGEN, NO","FM-15","ENDR ","V020","120,1,N,0093,1","22000,1,9,N","011265,1,N,1","+0010,1","-0040,1","99999,9","02,5,+00450,1,99,9",,,"02,99,1,99,9,99,9,99999,9,99,9,99,9","10119,1,99999,9",,,,,"MET052METAR ENDR 050920Z 12018KT 9999 FEW015 01/M04 Q1012;",
"01023199999","2010-03-05T10:10:00","4","64.35","7.8","0.0","DRAUGEN, NO","FM-15","ENDR ","V020","110,1,N,0082,1","99999,9,9,Y","009900,1,N,1","+0010,1","-0050,1","99999,9",,,,,"10129,1,99999,9",,,,,"MET046METAR ENDR 051010Z 11016KT CAVOK 01/M05 Q1013;",
"01023199999","2010-03-05T15:10:00","4","64.35","7.8","0.0","DRAUGEN, NO","FM-15","ENDR ","V020","100,1,N,0036,1","99999,9,9,Y","009900,1,N,1","+0020,1","-0050,1","99999,9",,,,,"10159,1,99999,9",,,,,"MET046METAR ENDR 051510Z 10007KT CAVOK 02/M05 Q1016;",
"01023199999","2010-03-06T06:20:00","4","64.35","7.8","0.0","DRAUGEN, NO","FM-15","ENDR ","V020","240,1,N,0108,1","22000,1,9,N","011265,1,N,1","+0040,1","+0000,1","99999,9","04,5,+00450,1,99,9",,,"04,99,1,99,9,99,9,99999,9,99,9,99,9","10190,1,99999,9",,,,,"MET052METAR ENDR 060620Z 24021KT 9999 SCT015 04/M00 Q1019;",
"01023199999","2010-03-06T09:10:00","4","64.35","7.8","0.0","DRAUGEN, NO","FM-15","ENDR ","V020","230,1,N,0139,1","00900,1,C,N","011265,1,N,1","+0050,1","-0020,1","99999,9","07,5,+00900,1,99,9",,,"07,99,1,99,9,99,9,99999,9,99,9,99,9","10190,1,99999,9",,,,,"MET052METAR ENDR 060910Z 23027KT 9999 BKN030 05/M02 Q1019;",
"01023199999","2010-03-06T09:40:00","4","64.35","7.8","0.0","DRAUGEN, NO","FM-15","ENDR ","V020","230,1,N,0129,1","01050,1,C,N","011265,1,N,1","+0050,1","-0040,1","99999,9","07,5,+01050,1,99,9",,,"07,99,1,99,9,99,9,99999,9,99,9,99,9","10200,1,99999,9",,,,,"MET052METAR ENDR 060940Z 23025KT 9999 BKN035 05/M04 Q1020;",
"01023199999","2010-03-06T12:10:00","4","64.35","7.8","0.0","DRAUGEN, NO","FM-15","ENDR ","V020","220,1,N,0180,1","00450,1,C,N","011265,1,N,1","+0050,1","+0030,1","99999,9","08,5,+00450,1,99,9",,,"08,99,1,99,9,99,9,99999,9,99,9,99,9","10190,1,99999,9","81,1",,,,"MET056METAR ENDR 061210Z 22035KT 9999 SHRA OVC015 05/03 Q1019;",
"01023199999","2010-03-06T13:10:00","4","64.35","7.8","0.0","DRAUGEN, NO","FM-15","ENDR ","V020","220,1,N,0201,1","00300,1,C,N","006000,1,N,1","+0040,1","+0020,1","99999,9","08,5,+00300,1,99,9",,,"08,99,1,99,9,99,9,99999,9,99,9,99,9","10190,1,99999,9","63,1",,,,"MET054METAR ENDR 061310Z 22039KT 6000 RA OVC010 04/02 Q1019;",
"01023199999","2010-03-06T17:50:00","4","64.35","7.8","0.0","DRAUGEN, NO","FM-15","ENDR ","V020","220,1,N,0216,1","00600,1,C,N","011265,1,N,1","+0050,1","+0030,1","99999,9","08,5,+00600,1,99,9",,,"08,99,1,99,9,99,9,99999,9,99,9,99,9","10169,1,99999,9","81,1",,,,"MET056METAR ENDR 061750Z 22042KT 9999 SHRA OVC020 05/03 Q1017;",
"01023199999","2010-03-07T06:20:00","4","64.35","7.8","0.0","DRAUGEN, NO","FM-15","ENDR ","V020","240,1,N,0144,1","01650,5,C,N","011265,1,N,1","+0080,1","+0070,1","99999,9","04,5,+00450,1,99,9","07,5,+01650,5,99,9","07,5,+02400,1,99,9","07,99,1,99,9,99,9,99999,9,99,9,99,9","10180,1,99999,9","16,1",,,,"MET070METAR ENDR 070620Z 24028KT 9999 VCSH SCT015 BKN055 BKN080 08/07 Q1018;",
"01023199999","2010-03-07T09:10:00","4","64.35","7.8","0.0","DRAUGEN, NO","FM-15","ENDR ","V020","240,1,N,0149,1","00450,1,C,N","009000,1,N,1","+0080,1","+0060,1","99999,9","07,5,+00450,1,99,9","07,5,+02250,5,99,9",,"07,99,1,99,9,99,9,99999,9,99,9,99,9","10190,1,99999,9",,,,,"MET058METAR ENDR 070910Z 24029KT 9000 BKN015 BKN075 08/06 Q1019;",
"01023199999","2010-03-07T12:20:00","4","64.35","7.8","0.0","DRAUGEN, NO","FM-15","ENDR ","V020","230,1,N,0170,1","01650,5,C,N","009000,1,N,1","+0080,1","+0050,1","99999,9","07,5,+01650,5,99,9",,,"07,99,1,99,9,99,9,99999,9,99,9,99,9","10200,1,99999,9",,,,,"MET051METAR ENDR 071220Z 23033KT 9000 BKN055 08/05 Q1020;",
"01023199999","2010-03-07T13:10:00","4","64.35","7.8","0.0","DRAUGEN, NO","FM-15","ENDR ","V020","230,1,N,0165,1","01650,5,C,N","009000,1,N,1","+0080,1","+0050,1","99999,9","07,5,+01650,5,99,9",,,"07,99,1,99,9,99,9,99999,9,99,9,99,9","10200,1,99999,9",,,,,"MET051METAR ENDR 071310Z 23032KT 9000 BKN055 08/05 Q1020;",
"01023199999","2010-03-07T14:40:00","4","64.35","7.8","0.0","DRAUGEN, NO","FM-15","ENDR ","V020","240,1,N,0165,1","01800,1,C,N","009000,1,N,1","+0080,1","+0050,1","99999,9","07,5,+01800,1,99,9",,,"07,99,1,99,9,99,9,99999,9,99,9,99,9","10190,1,99999,9",,,,,"MET051METAR ENDR 071440Z 24032KT 9000 BKN060 08/05 Q1019;",
"01023199999","2010-03-07T15:10:00","4","64.35","7.8","0.0","DRAUGEN, NO","FM-15","ENDR ","V020","240,1,N,0180,1","01800,1,C,N","009000,1,N,1","+0080,1","+0050,1","99999,9","07,5,+01800,1,99,9",,,"07,99,1,99,9,99,9,99999,9,99,9,99,9","10190,1,99999,9",,,,,"MET051METAR ENDR 071510Z 24035KT 9000 BKN060 08/05 Q1019;",
"01023199999","2010-03-08T06:10:00","4","64.35","7.8","0.0","DRAUGEN, NO","FM-15","ENDR ","V020","300,1,N,0211,1","00600,1,C,N","009000,1,N,1","+0040,1","+0020,1","99999,9","08,5,+00600,1,99,9",,,"08,99,1,99,9,99,9,99999,9,99,9,99,9","10169,1,99999,9","63,1",,,,"MET054METAR ENDR 080610Z 30041KT 9000 RA OVC020 04/02 Q1017;",
"01023199999","2010-03-08T09:40:00","4","64.35","7.8","0.0","DRAUGEN, NO","FM-15","ENDR ","V020","300,1,N,0201,1","01050,1,C,N","011265,1,N,1","+0030,1","-0070,1","99999,9","07,5,+01050,1,99,9",,,"07,99,1,99,9,99,9,99999,9,99,9,99,9","10210,1,99999,9",,,,,"MET052METAR ENDR 080940Z 30039KT 9999 BKN035 03/M07 Q1021;",
"01023199999","2010-03-08T15:10:00","4","64.35","7.8","0.0","DRAUGEN, NO","FM-15","ENDR ","V020","320,1,N,0149,1","01200,1,C,N","011265,1,N,1","+0030,1","-0080,1","99999,9","07,5,+01200,1,99,9",,,"07,99,1,99,9,99,9,99999,9,99,9,99,9","10251,1,99999,9",,,,,"MET052METAR ENDR 081510Z 32029KT 9999 BKN040 03/M08 Q1025;",
"01023199999","2010-03-09T06:20:00","4","64.35","7.8","0.0","DRAUGEN, NO","FM-15","ENDR ","V020","270,1,N,0144,1","00600,1,C,N","011265,1,N,1","+0030,1","+0000,1","99999,9","07,5,+00600,1,99,9",,,"07,99,1,99,9,99,9,99999,9,99,9,99,9","10220,1,99999,9",,,,,"MET052METAR ENDR 090620Z 27028KT 9999 BKN020 03/M00 Q1022;",
"01023199999","2010-03-09T09:20:00","4","64.35","7.8","0.0","DRAUGEN, NO","FM-15","ENDR ","V020","260,1,N,0170,1","00360,1,C,N","011265,1,N,1","+0060,1","+0040,1","99999,9","07,5,+00360,1,99,9","07,5,+00900,1,99,9",,"07,99,1,99,9,99,9,99999,9,99,9,99,9","10200,1,99999,9","16,1",,,,"MET063METAR ENDR 090920Z 26033KT 9999 VCSH BKN012 BKN030 06/04 Q1020;",
"01023199999","2010-03-09T12:20:00","4","64.35","7.8","0.0","DRAUGEN, NO","FM-15","ENDR ","V020","270,1,N,0165,1","00450,1,C,N","011265,1,N,1","+0060,1","+0030,1","99999,9","07,5,+00450,1,99,9",,,"07,99,1,99,9,99,9,99999,9,99,9,99,9","10190,1,99999,9","81,1",,,,"MET056METAR ENDR 091220Z 27032KT 9999 SHRA BKN015 06/03 Q1019;",
"01023199999","2010-03-09T15:20:00","4","64.35","7.8","0.0","DRAUGEN, NO","FM-15","ENDR ","V020","260,1,N,0144,1","00450,1,C,N","011265,1,N,1","+0070,1","+0030,1","99999,9","07,5,+00450,1,99,9","07,5,+01800,1,99,9",,"07,99,1,99,9,99,9,99999,9,99,9,99,9","10180,1,99999,9","16,1",,,,"MET063METAR ENDR 091520Z 26028KT 9999 VCSH BKN015 BKN060 07/03 Q1018;",
"01023199999","2010-03-09T15:50:00","4","64.35","7.8","0.0","DRAUGEN, NO","FM-15","ENDR ","V020","270,1,N,0165,1","01950,5,C,N","011265,1,N,1","+0070,1","+0040,1","99999,9","04,5,+00450,1,99,9","07,5,+01950,5,99,9",,"07,99,1,99,9,99,9,99999,9,99,9,99,9","10180,1,99999,9",,,,,"MET058METAR ENDR 091550Z 27032KT 9999 SCT015 BKN065 07/04 Q1018;",
"01023199999","2010-03-09T16:50:00","4","64.35","7.8","0.0","DRAUGEN, NO","FM-15","ENDR ","V020","260,1,N,0175,1","01800,1,C,N","011265,1,N,1","+0070,1","+0030,1","99999,9","04,5,+00450,1,99,9","07,5,+01800,1,99,9",,"07,99,1,99,9,99,9,99999,9,99,9,99,9","10180,1,99999,9",,,,,"MET058METAR ENDR 091650Z 26034KT 9999 SCT015 BKN060 07/03 Q1018;",
"01023199999","2010-03-10T06:10:00","4","64.35","7.8","0.0","DRAUGEN, NO","FM-15","ENDR ","V020","260,1,N,0185,1","00540,1,C,N","011265,1,N,1","+0070,1","+0040,1","99999,9","07,5,+00540,1,99,9","07,5,+04500,1,99,9",,"07,99,1,99,9,99,9,99999,9,99,9,99,9","10149,1,99999,9",,,,,"MET058METAR ENDR 100610Z 26036KT 9999 BKN018 BKN150 07/04 Q1015;",
"01023199999","2010-03-10T09:20:00","4","64.35","7.8","0.0","DRAUGEN, NO","FM-15","ENDR ","V020","250,1,N,0165,1","00360,1,C,N","011265,1,N,1","+0070,1","+0050,1","99999,9","07,5,+00360,1,99,9","07,5,+02100,1,99,9",,"07,99,1,99,9,99,9,99999,9,99,9,99,9","10139,1,99999,9",,,,,"MET058METAR ENDR 100920Z 25032KT 9999 BKN012 BKN070 07/05 Q1014;",
"01023199999","2010-03-10T09:50:00","4","64.35","7.8","0.0","DRAUGEN, NO","FM-15","ENDR ","V020","260,1,N,0175,1","00390,1,C,N","011265,1,N,1","+0070,1","+0050,1","99999,9","07,5,+00390,1,99,9","07,5,+02100,1,99,9",,"07,99,1,99,9,99,9,99999,9,99,9,99,9","10139,1,99999,9",,,,,"MET058METAR ENDR 100950Z 26034KT 9999 BKN013 BKN070 07/05 Q1014;",
"01023199999","2010-03-10T10:40:00","4","64.35","7.8","0.0","DRAUGEN, NO","FM-15","ENDR ","V020","250,1,N,0165,1","00330,1,C,N","011265,1,N,1","+0070,1","+0050,1","99999,9","07,5,+00330,1,99,9","07,5,+03000,1,99,9",,"07,99,1,99,9,99,9,99999,9,99,9,99,9","10139,1,99999,9",,,,,"MET058METAR ENDR 101040Z 25032KT 9999 BKN011 BKN100 07/05 Q1014;",
"01023199999","2010-03-10T12:20:00","4","64.35","7.8","0.0","DRAUGEN, NO","FM-15","ENDR ","V020","250,1,N,0165,1","01200,1,C,N","011265,1,N,1","+0070,1","+0050,1","99999,9","02,5,+00300,1,99,9","04,5,+01200,1,99,9","07,5,+02400,1,99,9","07,99,1,99,9,99,9,99999,9,99,9,99,9","10139,1,99999,9",,,,,"MET065METAR ENDR 101220Z 25032KT 9999 FEW010 SCT040 BKN080 07/05 Q1014;",
"01023199999","2010-03-10T15:20:00","4","64.35","7.8","0.0","DRAUGEN, NO","FM-15","ENDR ","V020","260,1,N,0165,1","01350,1,C,N","011265,1,N,1","+0070,1","+0050,1","99999,9","04,5,+00450,1,99,9","07,5,+01350,1,99,9",,"07,99,1,99,9,99,9,99999,9,99,9,99,9","10119,1,99999,9",,,,,"MET058METAR ENDR 101520Z 26032KT 9999 SCT015 BKN045 07/05 Q1012;",
"01023199999","2010-03-11T06:20:00","4","64.35","7.8","0.0","DRAUGEN, NO","FM-15","ENDR ","V020","280,1,N,0185,1","01500,1,C,N","011265,1,N,1","+0070,1","+0010,1","99999,9","04,5,+00450,1,99,9","07,5,+01500,1,99,9",,"07,99,1,99,9,99,9,99999,9,99,9,99,9","10041,1,99999,9",,,,,"MET058METAR ENDR 110620Z 28036KT 9999 SCT015 BKN050 07/01 Q1004;",
"01023199999","2010-03-11T09:10:00","4","64.35","7.8","0.0","DRAUGEN, NO","FM-15","ENDR ","V020","280,1,N,0185,1","00900,1,C,N","011265,1,N,1","+0070,1","+0040,1","99999,9","02,5,+00300,1,99,9","07,5,+00900,1,99,9","07,5,+03600,1,99,9","07,99,1,99,9,99,9,99999,9,99,9,99,9","10041,1,99999,9",,,,,"MET065METAR ENDR 110910Z 28036KT 9999 FEW010 BKN030 BKN120 07/04 Q1004;",
"01023199999","2010-03-11T12:20:00","4","64.35","7.8","0.0","DRAUGEN, NO","FM-15","ENDR ","V020","280,1,N,0134,1","00300,1,C,N","007000,1,N,1","+0050,1","+0030,1","99999,9","07,5,+00300,1,99,9","07,5,+00900,1,99,9",,"07,99,1,99,9,99,9,99999,9,99,9,99,9","10051,1,99999,9","61,1",,,,"MET062METAR ENDR 111220Z 28026KT 7000 -RA BKN010 BKN030 05/03 Q1005;",
"01023199999","2010-03-12T07:50:00","4","64.35","7.8","0.0","DRAUGEN, NO","FM-15","ENDR ","V020","280,1,N,0134,1","00480,1,C,N","011265,1,N,1","+0020,1","-0030,1","99999,9","07,5,+00480,1,99,9","07,5,+03300,1,99,9",,"07,99,1,99,9,99,9,99999,9,99,9,99,9","10102,1,99999,9","86,5",,,,"MET064METAR ENDR 120750Z 28026KT 9999 SHSN BKN016 BKN110 02/M03 Q1010;",
"01023199999","2010-03-12T11:50:00","4","64.35","7.8","0.0","DRAUGEN, NO","FM-15","ENDR ","V020","310,1,N,0103,1","00540,1,C,N","005000,1,N,1","+0020,1","-0030,1","99999,9","08,5,+00540,1,99,9",,,"08,99,1,99,9,99,9,99999,9,99,9,99,9","10091,1,99999,9","10,1","86,5",,,"MET060METAR ENDR 121150Z 31020KT 5000 SHSN BR OVC018 02/M03 Q1009;",
"01023199999","2010-03-12T12:10:00","4","64.35","7.8","0.0","DRAUGEN, NO","FM-15","ENDR ","V020","330,1,N,0082,1","00540,1,C,N","011265,1,N,1","+0030,1","-0010,1","99999,9","07,5,+00540,1,99,9",,,"07,99,1,99,9,99,9,99999,9,99,9,99,9","10081,1,99999,9","86,5",,,,"MET057METAR ENDR 121210Z 33016KT 9999 SHSN BKN018 03/M01 Q1008;",
"01023199999","2010-03-12T15:20:00","4","64.35","7.8","0.0","DRAUGEN, NO","FM-15","ENDR ","V020","310,1,N,0113,1","00300,1,C,N","002000,1,N,1","+0010,1","+0000,1","99999,9","07,5,+00300,1,99,9",,,"07,99,1,99,9,99,9,99999,9,99,9,99,9","10081,1,99999,9","10,1","73,1",,,"MET057METAR ENDR 121520Z 31022KT 2000 SN BR BKN010 01/00 Q1008;",
"01023199999","2010-03-13T06:50:00","4","64.35","7.8","0.0","DRAUGEN, NO","FM-15","ENDR ","V020","310,1,N,0113,1","02100,1,C,N","011265,1,N,1","+0010,1","-0030,1","99999,9","04,5,+00600,1,02,1","07,5,+02100,1,99,9",,"07,99,1,99,9,99,9,99999,9,99,9,99,9","10061,1,99999,9","86,5",,,,"MET067METAR ENDR 130650Z 31022KT 9999 SHSN SCT020TCU BKN070 01/M03 Q1006;",
"01023199999","2010-03-13T09:10:00","4","64.35","7.8","0.0","DRAUGEN, NO","FM-15","ENDR ","V020","320,1,N,0129,1","00600,1,C,N","011265,1,N,1","+0020,1","-0040,1","99999,9","07,5,+00600,1,02,1",,,"07,99,1,99,9,99,9,99999,9,99,9,99,9","10061,1,99999,9","86,5",,,,"MET060METAR ENDR 130910Z 32025KT 9999 SHSN BKN020TCU 02/M04 Q1006;",
"01023199999","2010-03-13T11:40:00","4","64.35","7.8","0.0","DRAUGEN, NO","FM-15","ENDR ","V020","320,1,N,0129,1","22000,1,9,N","011265,1,N,1","+0040,1","-0050,1","99999,9","04,5,+00900,1,02,1",,,"04,99,1,99,9,99,9,99999,9,99,9,99,9","10071,1,99999,9","86,5",,,,"MET060METAR ENDR 131140Z 32025KT 9999 SHSN SCT030TCU 04/M05 Q1007;",
"01023199999","2010-03-13T15:10:00","4","64.35","7.8","0.0","DRAUGEN, NO","FM-15","ENDR ","V020","340,1,N,0072,1","99999,9,C,N","011265,1,N,1","+0040,1","-0070,1","99999,9","04,5,+01200,1,02,1","04,5,+02100,1,99,9",,"04,99,1,99,9,99,9,99999,9,99,9,99,9","10061,1,99999,9","90,1",,,"0139,1","MET072METAR ENDR 131510Z 34014G27KT 9999 SHSNGR SCT040TCU SCT070 04/M07 Q1006;","P01 021003SCOCIG"
"01023199999","2010-03-14T06:10:00","4","64.35","7.8","0.0","DRAUGEN, NO","FM-15","ENDR ","V020","350,1,N,0057,1","22000,1,9,N","011265,1,N,1","+0030,1","-0050,1","99999,9","04,5,+00900,1,99,9",,,"04,99,1,99,9,99,9,99999,9,99,9,99,9","10051,1,99999,9",,,,,"MET052METAR ENDR 140610Z 35011KT 9999 SCT030 03/M05 Q1005;",
"01023199999","2010-03-14T07:40:00","4","64.35","7.8","0.0","DRAUGEN, NO","FM-15","ENDR ","V020","350,1,N,0057,1","99999,9,C,N","011265,1,N,1","+0020,1","-0030,1","99999,9","04,5,+00450,1,99,9","04,5,+01950,5,99,9",,"04,99,1,99,9,99,9,99999,9,99,9,99,9","10061,1,99999,9","86,5",,,,"MET064METAR ENDR 140740Z 35011KT 9999 SHSN SCT015 SCT065 02/M03 Q1006;","P01 019503SCOCIG"
"01023199999","2010-03-14T09:10:00","4","64.35","7.8","0.0","DRAUGEN, NO","FM-15","ENDR ","V020","360,1,N,0113,1","00900,1,C,N","011265,1,N,1","+0010,1","-0020,1","99999,9","07,5,+00900,1,99,9",,,"07,99,1,99,9,99,9,99999,9,99,9,99,9","10071,1,99999,9","86,5",,,,"MET057METAR ENDR 140910Z 36022KT 9999 SHSN BKN030 01/M02 Q1007;",
"01023199999","2010-03-14T15:10:00","4","64.35","7.8","0.0","DRAUGEN, NO","FM-15","ENDR ","V020","350,1,N,0118,1","00900,1,C,N","011265,1,N,1","+0030,1","-0060,1","99999,9","07,5,+00900,1,02,1",,,"07,99,1,99,9,99,9,99999,9,99,9,99,9","10071,1,99999,9","90,1",,,,"MET062METAR ENDR 141510Z 35023KT 9999 SHSNGR BKN030TCU 03/M06 Q1007;",
"01023199999","2010-03-15T06:10:00","4","64.35","7.8","0.0","DRAUGEN, NO","FM-15","ENDR ","V020","340,1,N,0051,1","00900,1,C,N","011265,1,N,1","+0020,1","-0040,1","99999,9","07,5,+00900,1,02,1",,,"07,99,1,99,9,99,9,99999,9,99,9,99,9","10061,1,99999,9","90,1",,,,"MET062METAR ENDR 150610Z 34010KT 9999 SHSNGR BKN030TCU 02/M04 Q1006;",
"01023199999","2010-03-15T07:20:00","4","64.35","7.8","0.0","DRAUGEN, NO","FM-15","ENDR ","V020","350,1,N,0098,1","00810,1,C,N","011265,1,N,1","+0020,1","-0040,1","99999,9","07,5,+00810,1,02,1","04,5,+02100,1,99,9",,,"10071,1,99999,9","90,1",,,,"MET069METAR ENDR 150720Z 35019KT 9999 SHSNGR BKN027TCU SCT070 02/M04 Q1007;","Q01+000042SCOTCV"
"01023199999","2010-03-15T12:20:00","4","64.35","7.8","0.0","DRAUGEN, NO","FM-15","ENDR ","V020","330,1,N,0041,1","00450,1,C,N","011265,1,N,1","+0020,1","-0030,1","99999,9","07,5,+00450,1,02,1","07,5,+01800,1,99,9",,"07,99,1,99,9,99,9,99999,9,99,9,99,9","10081,1,99999,9","90,1",,,,"MET069METAR ENDR 151220Z 33008KT 9999 SHSNGR BKN015TCU BKN060 02/M03 Q1008;",
"01023199999","2010-03-15T15:10:00","4","64.35","7.8","0.0","DRAUGEN, NO","FM-15","ENDR ","V020","350,1,N,0113,1","03000,1,C,N","011265,1,N,1","+0040,1","-0060,1","99999,9","04,5,+00900,1,02,1","07,5,+03000,1,99,9",,"07,99,1,99,9,99,9,99999,9,99,9,99,9","10081,1,99999,9","90,1",,,,"MET069METAR ENDR 151510Z 35022KT 9999 SHSNGR SCT030TCU BKN100 04/M06 Q1008;",
"01023199999","2010-03-15T15:40:00","4","64.35","7.8","0.0","DRAUGEN, NO","FM-15","ENDR ","V020","340,1,N,0077,1","22000,1,9,N","011265,1,N,1","+0030,1","-0060,1","99999,9","04,5,+01050,1,02,1",,,"04,99,1,99,9,99,9,99999,9,99,9,99,9","10081,1,99999,9","90,1",,,,"MET062METAR ENDR 151540Z 34015KT 9999 SHSNGR SCT035TCU 03/M06 Q1008;",
"01023199999","2010-03-16T06:20:00","4","64.35","7.8","0.0","DRAUGEN, NO","FM-15","ENDR ","V020","280,1,N,0031,1","05100,1,C,N","011265,1,N,1","+0010,1","-0050,1","99999,9","04,5,+00750,1,02,1","07,5,+05100,1,99,9",,"07,99,1,99,9,99,9,99999,9,99,9,99,9","10108,1,99999,9","86,5",,,,"MET067METAR ENDR 160620Z 28006KT 9999 SHSN SCT025TCU BKN170 01/M05 Q1011;",
"01023199999","2010-03-16T09:20:00","4","64.35","7.8","0.0","DRAUGEN, NO","FM-15","ENDR ","V020","300,1,N,0046,1","99999,9,C,N","011265,1,N,1","+0020,1","-0040,1","99999,9","04,5,+00750,1,02,1","04,5,+01800,1,99,9",,"04,99,1,99,9,99,9,99999,9,99,9,99,9","10108,1,99999,9","90,1",,,,"MET069METAR ENDR 160920Z 30009KT 9999 SHSNGR SCT025TCU SCT060 02/M04 Q1011;","P01 018003SCOCIG"
"01023199999","2010-03-16T09:40:00","4","64.35","7.8","0.0","DRAUGEN, NO","FM-15","ENDR ","V020","340,1,N,0031,1","99999,9,C,N","011265,1,N,1","+0030,1","-0030,1","99999,9","04,5,+00750,1,02,1","04,5,+01800,1,99,9",,"04,99,1,99,9,99,9,99999,9,99,9,99,9","10108,1,99999,9","90,1",,,,"MET077METAR ENDR 160940Z 34006KT 310V080 9999 SHSNGR SCT025TCU SCT060 03/M03 Q1011;","P01 018003SCOCIG"
"01023199999","2010-03-16T12:10:00","4","64.35","7.8","0.0","DRAUGEN, NO","FM-15","ENDR ","V020","260,1,N,0051,1","99999,9,C,N","011265,1,N,1","+0010,1","-0030,1","99999,9","04,5,+00750,1,02,1","04,5,+02100,1,99,9",,"04,99,1,99,9,99,9,99999,9,99,9,99,9","10108,1,99999,9","86,5",,,,"MET067METAR ENDR 161210Z 26010KT 9999 SHSN SCT025TCU SCT070 01/M03 Q1011;","P01 021003SCOCIG"
"01023199999","2010-03-17T06:10:00","4","64.35","7.8","0.0","DRAUGEN, NO","FM-15","ENDR ","V020","030,1,N,0036,1","99999,9,C,N","011265,1,N,1","+0020,1","-0030,1","99999,9","04,5,+00750,1,99,9","04,5,+01500,1,99,9",,"04,99,1,99,9,99,9,99999,9,99,9,99,9","10091,1,99999,9","86,5",,,,"MET064METAR ENDR 170610Z 03007KT 9999 SHSN SCT025 SCT050 02/M03 Q1009;","P01 015003SCOCIG"
"01023199999","2010-03-17T09:10:00","4","64.35","7.8","0.0","DRAUGEN, NO","FM-15","ENDR ","V020","170,1,N,0021,1","01350,1,C,N","011265,1,N,1","+0020,1","-0030,1","99999,9","04,5,+00600,1,99,9","07,5,+01350,1,99,9",,"07,99,1,99,9,99,9,99999,9,99,9,99,9","10091,1,99999,9",,,,,"MET059METAR ENDR 170910Z 17004KT 9999 SCT020 BKN045 02/M03 Q1009;",
"01023199999","2010-03-17T12:20:00","4","64.35","7.8","0.0","DRAUGEN, NO","FM-15","ENDR ","V020","140,1,N,0041,1","01500,1,C,N","011265,1,N,1","+0020,1","-0030,1","99999,9","04,5,+00600,1,99,9","07,5,+01500,1,99,9",,"07,99,1,99,9,99,9,99999,9,99,9,99,9","10091,1,99999,9",,,,,"MET059METAR ENDR 171220Z 14008KT 9999 SCT020 BKN050 02/M03 Q1009;",
"01023199999","2010-03-17T15:20:00","4","64.35","7.8","0.0","DRAUGEN, NO","FM-15","ENDR ","V020","140,1,N,0051,1","00420,1,C,N","009000,1,N,1","+0020,1","-0010,1","99999,9","08,5,+00420,1,99,9",,,"08,99,1,99,9,99,9,99999,9,99,9,99,9","10071,1,99999,9","73,1",,,,"MET055METAR ENDR 171520Z 14010KT 9000 SN OVC014 02/M01 Q1007;",
"01023199999","2010-03-18T06:20:00","4","64.35","7.8","0.0","DRAUGEN, NO","FM-15","ENDR ","V020","140,1,N,0051,1","01200,1,C,N","011265,1,N,1","+0070,1","+0070,1","99999,9","02,5,+00360,1,99,9","04,5,+01200,1,99,9","07,5,+01800,1,99,9","07,99,1,99,9,99,9,99999,9,99,9,99,9","09949,1,99999,9",,,,,"MET065METAR ENDR 180620Z 14010KT 9999 FEW012 SCT040 BKN060 07/07 Q0995;",
"01023199999","2010-03-18T09:10:00","4","64.35","7.8","0.0","DRAUGEN, NO","FM-15","ENDR ","V020","260,1,N,0108,1","01200,1,C,N","009000,1,N,1","+0070,1","+0060,1","99999,9","04,5,+00600,1,99,9","07,5,+01200,1,99,9",,"07,99,1,99,9,99,9,99999,9,99,9,99,9","09949,1,99999,9","51,1",,,,"MET062METAR ENDR 180910Z 26021KT 9000 -DZ SCT020 BKN040 07/06 Q0995;",
"01023199999","2010-03-18T12:00:00","4","64.35","7.8","0.0","DRAUGEN, NO","FM-15","ENDR ","V020","260,1,N,0077,1","01500,1,C,N","011265,1,N,1","+0080,1","+0060,1","99999,9","02,5,+00300,1,99,9","07,5,+01500,1,99,9",,"07,99,1,99,9,99,9,99999,9,99,9,99,9","09959,1,99999,9",,,,,"MET058METAR ENDR 181200Z 26015KT 9999 FEW010 BKN050 08/06 Q0996;",
"01023199999","2010-03-19T06:50:00","4","64.35","7.8","0.0","DRAUGEN, NO","FM-15","ENDR ","V020","130,1,N,0108,1","00900,1,C,N","009000,1,N,1","+0060,1","+0060,1","99999,9","07,5,+00900,1,99,9",,,"07,99,1,99,9,99,9,99999,9,99,9,99,9","09919,1,99999,9","61,1",,,,"MET055METAR ENDR 190650Z 13021KT 9000 -RA BKN030 06/06 Q0992;",
"01023199999","2010-03-19T09:40:00","4","64.35","7.8","0.0","DRAUGEN, NO","FM-15","ENDR ","V020","120,1,N,0118,1","00900,1,C,N","011265,1,N,1","+0060,1","+0050,1","99999,9","07,5,+00900,1,99,9",,,"07,99,1,99,9,99,9,99999,9,99,9,99,9","09892,1,99999,9",,,,,"MET051METAR ENDR 190940Z 12023KT 9999 BKN030 06/05 Q0989;",
"01023199999","2010-03-19T10:10:00","4","64.35","7.8","0.0","DRAUGEN, NO","FM-15","ENDR ","V020","130,1,N,0113,1","00900,1,C,N","011265,1,N,1","+0060,1","+0050,1","99999,9","07,5,+00900,1,99,9",,,"07,99,1,99,9,99,9,99999,9,99,9,99,9","09892,1,99999,9",,,,,"MET051METAR ENDR 191010Z 13022KT 9999 BKN030 06/05 Q0989;",
"01023199999","2010-03-19T12:10:00","4","64.35","7.8","0.0","DRAUGEN, NO","FM-15","ENDR ","V020","160,1,N,0077,1","00990,1,C,N","009000,1,N,1","+0060,1","+0050,1","99999,9","07,5,+00990,1,99,9","07,5,+01200,1,99,9",,"07,99,1,99,9,99,9,99999,9,99,9,99,9","09882,1,99999,9","51,1","61,1",,,"MET064METAR ENDR 191210Z 16015KT 9000 -RADZ BKN033 BKN040 06/05 Q0988;",
"01023199999","2010-03-19T14:40:00","4","64.35","7.8","0.0","DRAUGEN, NO","FM-15","ENDR ","V020","160,1,N,0067,1","00900,1,C,N","011265,1,N,1","+0060,1","+0060,1","99999,9","04,5,+00600,1,99,9","07,5,+00900,1,99,9",,"07,99,1,99,9,99,9,99999,9,99,9,99,9","09861,1,99999,9","61,1",,,,"MET062METAR ENDR 191440Z 16013KT 9999 -RA SCT020 BKN030 06/06 Q0986;",
"01023199999","2010-03-19T16:10:00","4","64.35","7.8","0.0","DRAUGEN, NO","FM-15","ENDR ","V020","210,1,N,0139,1","00300,1,C,N","005000,1,N,1","+0070,1","+0060,1","99999,9","07,5,+00300,1,99,9","07,5,+00900,1,99,9",,"07,99,1,99,9,99,9,99999,9,99,9,99,9","09851,1,99999,9","53,1","63,1",,,"MET063METAR ENDR 191610Z 21027KT 5000 RADZ BKN010 BKN030 07/06 Q0985;",
"01023199999","2010-03-19T18:10:00","4","64.35","7.8","0.0","DRAUGEN, NO","FM-15","ENDR ","V020","230,1,N,0123,1","22000,1,9,N","011265,1,N,1","+0070,1","+0050,1","99999,9","02,5,+00240,1,99,9",,,"02,99,1,99,9,99,9,99999,9,99,9,99,9","09851,1,99999,9",,,,,"MET051METAR ENDR 191810Z 23024KT 9999 FEW008 07/05 Q0985;",
"01023199999","2010-03-20T15:10:00","4","64.35","7.8","0.0","DRAUGEN, NO","FM-15","ENDR ","V020","030,1,N,0144,1","22000,1,9,N","011265,1,N,1","+0040,1","-0040,1","99999,9","04,5,+00990,1,99,9",,,"04,99,1,99,9,99,9,99999,9,99,9,99,9","09959,1,99999,9",,,,,"MET052METAR ENDR 201510Z 03028KT 9999 SCT033 04/M04 Q0996;",
"01023199999","2010-03-20T17:50:00","4","64.35","7.8","0.0","DRAUGEN, NO","FM-15","ENDR ","V020","040,1,N,0149,1","22000,1,9,N","011265,1,N,1","+0040,1","-0050,1","99999,9","04,5,+01200,1,99,9",,,"04,99,1,99,9,99,9,99999,9,99,9,99,9","09990,1,99999,9",,,,,"MET052METAR ENDR 201750Z 04029KT 9999 SCT040 04/M05 Q0999;",
"01023199999","2010-03-21T07:50:00","4","64.35","7.8","0.0","DRAUGEN, NO","FM-15","ENDR ","V020","350,1,N,0077,1","22000,1,9,N","011265,1,N,1","+0060,1","-0010,1","99999,9","02,5,+00600,1,99,9",,,"02,99,1,99,9,99,9,99999,9,99,9,99,9","10051,1,99999,9",,,,,"MET052METAR ENDR 210750Z 35015KT 9999 FEW020 06/M01 Q1005;",
"01023199999","2010-03-21T09:10:00","4","64.35","7.8","0.0","DRAUGEN, NO","FM-15","ENDR ","V020","360,1,N,0108,1","00450,1,C,N","006000,1,N,1","+0040,1","+0000,1","99999,9","07,5,+00450,1,02,1",,,"07,99,1,99,9,99,9,99999,9,99,9,99,9","10061,1,99999,9","89,1",,,,"MET060METAR ENDR 210910Z 36021KT 6000 -SHGR BKN015TCU 04/00 Q1006;",
"01023199999","2010-03-21T12:10:00","4","64.35","7.8","0.0","DRAUGEN, NO","FM-15","ENDR ","V020","340,1,N,0051,1","99999,9,C,N","011265,1,N,1","+0060,1","-0050,1","99999,9","04,5,+01200,1,99,9","04,5,+01800,1,99,9",,"04,99,1,99,9,99,9,99999,9,99,9,99,9","10071,1,99999,9",,,,,"MET059METAR ENDR 211210Z 34010KT 9999 SCT040 SCT060 06/M05 Q1007;","P01 018003SCOCIG"
"01023199999","2010-03-21T15:20:00","4","64.35","7.8","0.0","DRAUGEN, NO","FM-15","ENDR ","V020","020,1,N,0072,1","22000,1,9,N","011265,1,N,1","+0060,1","-0040,1","99999,9","02,5,+00840,1,99,9",,,"02,99,1,99,9,99,9,99999,9,99,9,99,9","10091,1,99999,9",,,,,"MET052METAR ENDR 211520Z 02014KT 9999 FEW028 06/M04 Q1009;",
"01023199999","2010-03-22T06:10:00","4","64.35","7.8","0.0","DRAUGEN, NO","FM-15","ENDR ","V020","140,1,N,0041,1","22000,1,9,N","011265,1,N,1","+0010,1","-0010,1","99999,9","04,5,+00960,1,99,9",,,"04,99,1,99,9,99,9,99999,9,99,9,99,9","10129,1,99999,9",,,,,"MET052METAR ENDR 220610Z 14008KT 9999 SCT032 01/M01 Q1013;",
"01023199999","2010-03-22T09:10:00","4","64.35","7.8","0.0","DRAUGEN, NO","FM-15","ENDR ","V020","160,1,N,0051,1","01500,1,C,N","011265,1,N,1","+0020,1","-0040,1","99999,9","02,5,+00900,1,99,9","07,5,+01500,1,99,9",,"07,99,1,99,9,99,9,99999,9,99,9,99,9","10129,1,99999,9",,,,,"MET059METAR ENDR 220910Z 16010KT 9999 FEW030 BKN050 02/M04 Q1013;",
"01023199999","2010-03-22T10:10:00","4","64.35","7.8","0.0","DRAUGEN, NO","FM-15","ENDR ","V020","170,1,N,0036,1","02100,1,C,N","011265,1,N,1","+0030,1","-0040,1","99999,9","07,5,+02100,1,99,9",,,"07,99,1,99,9,99,9,99999,9,99,9,99,9","10139,1,99999,9",,,,,"MET052METAR ENDR 221010Z 17007KT 9999 BKN070 03/M04 Q1014;",
"01023199999","2010-03-22T12:40:00","4","64.35","7.8","0.0","DRAUGEN, NO","FM-15","ENDR ","V020","140,1,N,0051,1","02100,1,C,N","011265,1,N,1","+0030,1","-0040,1","99999,9","02,5,+00900,1,99,9","07,5,+02100,1,99,9",,"07,99,1,99,9,99,9,99999,9,99,9,99,9","10139,1,99999,9",,,,,"MET059METAR ENDR 221240Z 14010KT 9999 FEW030 BKN070 03/M04 Q1014;",
"01023199999","2010-03-22T18:10:00","4","64.35","7.8","0.0","DRAUGEN, NO","FM-15","ENDR ","V020","060,1,N,0072,1","99999,9,C,N","011265,1,N,1","+0030,1","+0000,1","99999,9","02,5,+00450,1,99,9","04,5,+01800,1,99,9",,"04,99,1,99,9,99,9,99999,9,99,9,99,9","10129,1,99999,9",,,,,"MET059METAR ENDR 221810Z 06014KT 9999 FEW015 SCT060 03/M00 Q1013;","P01 018003SCOCIG"
"01023199999","2010-03-23T08:50:00","4","64.35","7.8","0.0","DRAUGEN, NO","FM-15","ENDR ","V020","070,1,N,0170,1","22000,1,9,N","011265,1,N,1","+0030,1","-0050,1","99999,9","02,5,+00780,1,99,9",,,"02,99,1,99,9,99,9,99999,9,99,9,99,9","10071,1,99999,9",,,,,"MET052METAR ENDR 230850Z 07033KT 9999 FEW026 03/M05 Q1007;",
"01023199999","2010-03-23T15:20:00","4","64.35","7.8","0.0","DRAUGEN, NO","FM-15","ENDR ","V020","050,1,N,0165,1","22000,1,9,N","011265,1,N,1","+0040,1","-0040,1","99999,9",,,,"00,99,1,99,9,99,9,99999,9,99,9,99,9","10081,1,99999,9",,,,,"MET049METAR ENDR 231520Z 05032KT 9999 NSC 04/M04 Q1008;","Q01    003SCCGA1"
"01023199999","2010-03-23T18:10:00","4","64.35","7.8","0.0","DRAUGEN, NO","FM-15","ENDR ","V020","050,1,N,0165,1","22000,1,9,N","011265,1,N,1","+0030,1","-0050,1","99999,9","02,5,+00840,1,99,9",,,"02,99,1,99,9,99,9,99999,9,99,9,99,9","10102,1,99999,9",,,,,"MET052METAR ENDR 231810Z 05032KT 9999 FEW028 03/M05 Q1010;",
"01023199999","2010-03-24T05:50:00","4","64.35","7.8","0.0","DRAUGEN, NO","FM-15","ENDR ","V020","060,1,N,0123,1","22000,1,9,N","011265,1,N,1","+0030,1","-0060,1","99999,9",,,,,"10129,1,99999,9",,,,,"MET045METAR ENDR 240550Z 06024KT 9999 03/M06 Q1013;",
"01023199999","2010-03-24T07:10:00","4","64.35","7.8","0.0","DRAUGEN, NO","FM-15","ENDR ","V020","060,1,N,0123,1","02700,1,C,N","011265,1,N,1","+0030,1","-0070,1","99999,9","07,5,+02700,1,99,9",,,"07,99,1,99,9,99,9,99999,9,99,9,99,9","10129,1,99999,9",,,,,"MET052METAR ENDR 240710Z 06024KT 9999 BKN090 03/M07 Q1013;",
"01023199999","2010-03-24T08:50:00","4","64.35","7.8","0.0","DRAUGEN, NO","FM-15","ENDR ","V020","070,1,N,0113,1","03600,1,C,N","011265,1,N,1","+0030,1","-0070,1","99999,9","02,5,+02400,1,99,9","07,5,+03600,1,99,9",,"07,99,1,99,9,99,9,99999,9,99,9,99,9","10139,1,99999,9",,,,,"MET059METAR ENDR 240850Z 07022KT 9999 FEW080 BKN120 03/M07 Q1014;",
"01023199999","2010-03-24T09:00:00","4","64.35","7.8","0.0","DRAUGEN, NO","FM-15","ENDR ","V020","070,1,N,0118,1","03600,1,C,N","011265,1,N,1","+0030,1","-0070,1","99999,9","02,5,+03000,1,99,9","07,5,+03600,1,99,9",,"07,99,1,99,9,99,9,99999,9,99,9,99,9","10139,1,99999,9",,,,,"MET059METAR ENDR 240900Z 07023KT 9999 FEW100 BKN120 03/M07 Q1014;",
"01023199999","2010-03-24T13:40:00","4","64.35","7.8","0.0","DRAUGEN, NO","FM-15","ENDR ","V020","070,1,N,0108,1","02400,1,C,N","011265,1,N,1","+0040,1","-0090,1","99999,9","04,5,+01800,1,99,9","07,5,+02400,1,99,9",,"07,99,1,99,9,99,9,99999,9,99,9,99,9","10139,1,99999,9",,,,,"MET059METAR ENDR 241340Z 07021KT 9999 SCT060 BKN080 04/M09 Q1014;",
"01023199999","2010-03-24T18:10:00","4","64.35","7.8","0.0","DRAUGEN, NO","FM-15","ENDR ","V020","070,1,N,0103,1","99999,9,9,Y","009900,1,N,1","+0030,1","-0030,1","99999,9",,,,,"10119,1,99999,9",,,,,"MET046METAR ENDR 241810Z 07020KT CAVOK 03/M03 Q1012;",
"01023199999","2010-03-25T08:40:00","4","64.35","7.8","0.0","DRAUGEN, NO","FM-15","ENDR ","V020","140,1,N,0077,1","01500,1,C,N","011265,1,N,1","+0050,1","+0020,1","99999,9","04,5,+01140,1,99,9","07,5,+01500,1,99,9",,"07,99,1,99,9,99,9,99999,9,99,9,99,9","10061,1,99999,9","61,1",,,,"MET062METAR ENDR 250840Z 14015KT 9999 -RA SCT038 BKN050 05/02 Q1006;",
"01023199999","2010-03-25T11:10:00","4","64.35","7.8","0.0","DRAUGEN, NO","FM-15","ENDR ","V020","130,1,N,0098,1","00810,1,C,N","011265,1,N,1","+0040,1","+0030,1","99999,9","07,5,+00810,1,99,9","07,5,+01800,1,99,9",,"07,99,1,99,9,99,9,99999,9,99,9,99,9","10051,1,99999,9","61,1",,,,"MET062METAR ENDR 251110Z 13019KT 9999 -RA BKN027 BKN060 04/03 Q1005;",
"01023199999","2010-03-25T12:10:00","4","64.35","7.8","0.0","DRAUGEN, NO","FM-15","ENDR ","V020","140,1,N,0087,1","00660,1,C,N","011265,1,N,1","+0050,1","+0040,1","99999,9","07,5,+00660,1,99,9",,,"07,99,1,99,9,99,9,99999,9,99,9,99,9","10051,1,99999,9","61,1",,,,"MET055METAR ENDR 251210Z 14017KT 9999 -RA BKN022 05/04 Q1005;",
"01023199999","2010-03-25T18:20:00","4","64.35","7.8","0.0","DRAUGEN, NO","FM-15","ENDR ","V020","220,1,N,0108,1","01200,1,C,N","005000,1,N,1","+0070,1","+0060,1","99999,9","02,5,+00180,1,99,9","07,5,+01200,1,99,9",,"07,99,1,99,9,99,9,99999,9,99,9,99,9","10061,1,99999,9","61,1",,,,"MET062METAR ENDR 251820Z 22021KT 5000 -RA FEW006 BKN040 07/06 Q1006;",
"01023199999","2010-03-25T18:40:00","4","64.35","7.8","0.0","DRAUGEN, NO","FM-15","ENDR ","V020","220,1,N,0108,1","00960,1,C,N","005000,1,N,1","+0070,1","+0060,1","99999,9","04,5,+00150,1,99,9","07,5,+00960,1,99,9",,"07,99,1,99,9,99,9,99999,9,99,9,99,9","10061,1,99999,9",,,,,"MET058METAR ENDR 251840Z 22021KT 5000 SCT005 BKN032 07/06 Q1006;",
"01023199999","2010-03-26T06:10:00","4","64.35","7.8","0.0","DRAUGEN, NO","FM-15","ENDR ","V020","040,1,N,0062,1","00600,1,C,N","005000,1,N,1","+0070,1","+0050,1","99999,9","02,5,+00180,1,99,9","04,5,+00600,1,99,9","07,5,+01800,1,99,9","07,99,1,99,9,99,9,99999,9,99,9,99,9","10020,1,99999,9","41,1",,,,"MET070METAR ENDR 260610Z 04012KT 5000 BCFG FEW006 SCT020 BKN060 07/05 Q1002;",
"01023199999","2010-03-26T10:20:00","4","64.35","7.8","0.0","DRAUGEN, NO","FM-15","ENDR ","V020","050,1,N,0087,1","01500,1,C,N","011265,1,N,1","+0070,1","+0050,1","99999,9","04,5,+00150,1,99,9","07,5,+01500,1,99,9",,"07,99,1,99,9,99,9,99999,9,99,9,99,9","10010,1,99999,9",,,,,"MET058METAR ENDR 261020Z 05017KT 9999 SCT005 BKN050 07/05 Q1001;",
"01023199999","2010-03-26T13:50:00","4","64.35","7.8","0.0","DRAUGEN, NO","FM-15","ENDR ","V020","060,1,N,0098,1","01110,1,C,N","011265,1,N,1","+0060,1","+0030,1","99999,9","07,5,+01110,1,99,9",,,"07,99,1,99,9,99,9,99999,9,99,9,99,9","10000,1,99999,9",,,,,"MET051METAR ENDR 261350Z 06019KT 9999 BKN037 06/03 Q1000;",
"01023199999","2010-03-26T14:40:00","4","64.35","7.8","0.0","DRAUGEN, NO","FM-15","ENDR ","V020","060,1,N,0087,1","01110,1,C,N","011265,1,N,1","+0060,1","+0030,1","99999,9","07,5,+01110,1,99,9",,,"07,99,1,99,9,99,9,99999,9,99,9,99,9","10000,1,99999,9",,,,,"MET051METAR ENDR 261440Z 06017KT 9999 BKN037 06/03 Q1000;",
"01023199999","2010-03-26T15:10:00","4","64.35","7.8","0.0","DRAUGEN, NO","FM-15","ENDR ","V020","050,1,N,0103,1","01260,1,C,N","011265,1,N,1","+0070,1","+0040,1","99999,9","07,5,+01260,1,99,9",,,"07,99,1,99,9,99,9,99999,9,99,9,99,9","10000,1,99999,9",,,,,"MET051METAR ENDR 261510Z 05020KT 9999 BKN042 07/04 Q1000;",
"01023199999","2010-03-27T05:50:00","4","64.35","7.8","0.0","DRAUGEN, NO","FM-15","ENDR ","V020","060,1,N,0123,1","00300,1,C,N","011265,1,N,1","+0060,1","+0030,1","99999,9","07,5,+00300,1,99,9",,,"07,99,1,99,9,99,9,99999,9,99,9,99,9","09990,1,99999,9",,,,,"MET051METAR ENDR 270550Z 06024KT 9999 BKN010 06/03 Q0999;",
"01023199999","2010-03-27T11:50:00","4","64.35","7.8","0.0","DRAUGEN, NO","FM-15","ENDR ","V020","040,1,N,0154,1","00330,1,C,N","011265,1,N,1","+0050,1","+0020,1","99999,9","07,5,+00330,1,99,9",,,"07,99,1,99,9,99,9,99999,9,99,9,99,9","09980,1,99999,9",,,,,"MET051METAR ENDR 271150Z 04030KT 9999 BKN011 05/02 Q0998;",
"01023199999","2010-03-27T16:20:00","4","64.35","7.8","0.0","DRAUGEN, NO","FM-15","ENDR ","V020","040,1,N,0170,1","00630,1,C,N","011265,1,N,1","+0040,1","-0010,1","99999,9","07,5,+00630,1,99,9",,,"07,99,1,99,9,99,9,99999,9,99,9,99,9","09980,1,99999,9",,,,,"MET052METAR ENDR 271620Z 04033KT 9999 BKN021 04/M01 Q0998;",
"01023199999","2010-03-28T06:10:00","4","64.35","7.8","0.0","DRAUGEN, NO","FM-15","ENDR ","V020","020,1,N,0113,1","01380,1,C,N","011265,1,N,1","+0030,1","-0070,1","99999,9","07,5,+01380,1,99,9",,,"07,99,1,99,9,99,9,99999,9,99,9,99,9","09980,1,99999,9",,,,,"MET052METAR ENDR 280610Z 02022KT 9999 BKN046 03/M07 Q0998;",
"01023199999","2010-03-28T12:10:00","4","64.35","7.8","0.0","DRAUGEN, NO","FM-15","ENDR ","V020","020,1,N,0093,1","01200,1,C,N","011265,1,N,1","+0040,1","-0030,1","99999,9","04,5,+00840,1,99,9","07,5,+01200,1,99,9",,"07,99,1,99,9,99,9,99999,9,99,9,99,9","09970,1,99999,9",,,,,"MET059METAR ENDR 281210Z 02018KT 9999 SCT028 BKN040 04/M03 Q0997;",
"01023199999","2010-03-28T14:40:00","4","64.35","7.8","0.0","DRAUGEN, NO","FM-15","ENDR ","V020","010,1,N,0087,1","01500,1,C,N","011265,1,N,1","+0040,1","-0070,1","99999,9","02,5,+00960,1,99,9","07,5,+01500,1,99,9",,"07,99,1,99,9,99,9,99999,9,99,9,99,9","09970,1,99999,9",,,,,"MET059METAR ENDR 281440Z 01017KT 9999 FEW032 BKN050 04/M07 Q0997;",
"01023199999","2010-03-29T06:10:00","4","64.35","7.8","0.0","DRAUGEN, NO","FM-16","ENDR ","V020","080,1,N,0031,1","00600,5,9,N","999999,9,N,1","+0010,1","+0000,1","99999,9","02,5,+00210,5,99,9","04,5,+00600,5,02,5",,,"09960,1,99999,9",,,,,"MET067METAR ENDR 290610Z 08006KT VCSH FEW007 SCT020TCU 01/M00 Q0996 REGS;",
"01023199999","2010-03-29T08:50:00","4","64.35","7.8","0.0","DRAUGEN, NO","FM-15","ENDR ","V020","050,1,N,0051,1","02100,5,9,N","999999,9,N,1","+0030,1","-0020,1","99999,9","02,5,+00900,5,99,9","04,5,+02100,5,99,9",,,"09970,1,99999,9",,,,,"MET054METAR ENDR 290850Z 05010KT FEW030 SCT070 03/M02 Q0997;",
"01023199999","2010-03-29T09:10:00","4","64.35","7.8","0.0","DRAUGEN, NO","FM-15","ENDR ","V020","050,1,N,0051,1","99999,9,C,N","011265,1,N,1","+0040,1","-0040,1","99999,9","02,5,+00900,1,99,9","04,5,+02100,1,99,9",,"04,99,1,99,9,99,9,99999,9,99,9,99,9","09970,1,99999,9",,,,,"MET059METAR ENDR 290910Z 05010KT 9999 FEW030 SCT070 04/M04 Q0997;","P01 021003SCOCIG"
"01023199999","2010-03-29T12:10:00","4","64.35","7.8","0.0","DRAUGEN, NO","FM-15","ENDR ","V020","040,1,N,0072,1","22000,1,9,N","011265,1,N,1","+0050,1","-0050,1","99999,9","04,5,+00900,1,99,9",,,"04,99,1,99,9,99,9,99999,9,99,9,99,9","09970,1,99999,9",,,,,"MET052METAR ENDR 291210Z 04014KT 9999 SCT030 05/M05 Q0997;",
"01023199999","2010-03-29T15:10:00","4","64.35","7.8","0.0","DRAUGEN, NO","FM-15","ENDR ","V020","050,1,N,0057,1","22000,1,9,N","011265,1,N,1","+0040,1","-0040,1","99999,9","02,5,+00900,1,99,9",,,"02,99,1,99,9,99,9,99999,9,99,9,99,9","09980,1,99999,9",,,,,"MET052METAR ENDR 291510Z 05011KT 9999 FEW030 04/M04 Q0998;",
"01023199999","2010-03-30T06:10:00","4","64.35","7.8","0.0","DRAUGEN, NO","FM-15","ENDR ","V020","200,1,N,0046,1","01800,1,C,N","011265,1,N,1","+0030,1","-0030,1","99999,9","02,5,+00780,1,99,9","07,5,+01800,1,99,9",,"07,99,1,99,9,99,9,99999,9,99,9,99,9","10000,1,99999,9",,,,,"MET059METAR ENDR 300610Z 20009KT 9999 FEW026 BKN060 03/M03 Q1000;",
"01023199999","2010-03-30T12:10:00","4","64.35","7.8","0.0","DRAUGEN, NO","FM-16","ENDR ","V020","210,1,N,0041,1","22000,1,9,N","999999,9,N,1","+0040,1","-0010,1","99999,9","02,5,+00660,5,09,5",,,,"10010,1,99999,9",,,,,"MET054METAR ENDR 301210Z 21008KT VCSH FEW022CB 04/M01 Q1001;",
"01023199999","2010-03-30T15:10:00","4","64.35","7.8","0.0","DRAUGEN, NO","FM-15","ENDR ","V020","190,1,N,0041,1","22000,1,9,N","011265,1,N,1","+0050,1","-0020,1","99999,9","02,5,+00900,1,02,1",,,"02,99,1,99,9,99,9,99999,9,99,9,99,9","10010,1,99999,9",,,,,"MET055METAR ENDR 301510Z 19008KT 9999 FEW030TCU 05/M02 Q1001;",
"01023199999","2010-03-31T06:10:00","4","64.35","7.8","0.0","DRAUGEN, NO","FM-15","ENDR ","V020","060,1,N,0057,1","22000,1,9,N","011265,1,N,1","+0040,1","+0000,1","99999,9","02,5,+00540,1,02,1",,,"02,99,1,99,9,99,9,99999,9,99,9,99,9","09980,1,99999,9",,,,,"MET055METAR ENDR 310610Z 06011KT 9999 FEW018TCU 04/M00 Q0998;",
"01023199999","2010-03-31T09:40:00","4","64.35","7.8","0.0","DRAUGEN, NO","FM-15","ENDR ","V020","060,1,N,0082,1","99999,9,9,Y","009900,1,N,1","+0070,1","+0000,1","99999,9",,,,,"09970,1,99999,9",,,,,"MET046METAR ENDR 310940Z 06016KT CAVOK 07/M00 Q0997;",
"01023199999","2010-04-01T05:40:00","4","64.35","7.8","0.0","DRAUGEN, NO","FM-15","ENDR ","V020","090,1,N,0051,1","01110,1,C,N","011265,1,N,1","+0060,1","+0040,1","99999,9","07,5,+01110,1,99,9","07,5,+01620,5,99,9",,"07,99,1,99,9,99,9,99999,9,99,9,99,9","09970,1,99999,9","51,1",,,,"MET062METAR ENDR 010540Z 09010KT 9999 -DZ BKN037 BKN054 06/04 Q0997;",
"01023199999","2010-04-01T08:40:00","4","64.35","7.8","0.0","DRAUGEN, NO","FM-15","ENDR ","V020","100,1,N,0082,1","99999,9,9,Y","009900,1,N,1","+0070,1","+0040,1","99999,9",,,,,"09959,1,99999,9",,,,,"MET045METAR ENDR 010840Z 10016KT CAVOK 07/04 Q0996;",
"01023199999","2010-04-01T09:10:00","4","64.35","7.8","0.0","DRAUGEN, NO","FM-15","ENDR ","V020","100,1,N,0082,1","99999,9,9,Y","009900,1,N,1","+0080,1","+0030,1","99999,9",,,,,"09959,1,99999,9",,,,,"MET045METAR ENDR 010910Z 10016KT CAVOK 08/03 Q0996;",
"01023199999","2010-04-01T15:10:00","4","64.35","7.8","0.0","DRAUGEN, NO","FM-15","ENDR ","V020","130,1,N,0072,1","00630,1,C,N","011265,1,N,1","+0060,1","+0050,1","99999,9","08,5,+00630,1,99,9",,,"08,99,1,99,9,99,9,99999,9,99,9,99,9","09939,1,99999,9","61,1",,,,"MET055METAR ENDR 011510Z 13014KT 9999 -RA OVC021 06/05 Q0994;",
"01023199999","2010-04-02T09:10:00","4","64.35","7.8","0.0","DRAUGEN, NO","FM-15","ENDR ","V020","240,1,N,0046,1","02190,5,C,N","011265,1,N,1","+0060,1","+0030,1","99999,9","02,5,+01590,5,99,9","07,5,+02190,5,99,9",,"07,99,1,99,9,99,9,99999,9,99,9,99,9","09990,1,99999,9",,,,,"MET058METAR ENDR 020910Z 24009KT 9999 FEW053 BKN073 06/03 Q0999;",
"01023199999","2010-04-02T10:20:00","4","64.35","7.8","0.0","DRAUGEN, NO","FM-15","ENDR ","V020","200,1,N,0036,1","01560,5,C,N","011265,1,N,1","+0060,1","+0030,1","99999,9","07,5,+01560,5,99,9",,,"07,99,1,99,9,99,9,99999,9,99,9,99,9","10000,1,99999,9",,,,,"MET051METAR ENDR 021020Z 20007KT 9999 BKN052 06/03 Q1000;",
"01023199999","2010-04-02T15:10:00","4","64.35","7.8","0.0","DRAUGEN, NO","FM-15","ENDR ","V020","200,1,N,0082,1","01740,5,C,N","011265,1,N,1","+0070,1","+0010,1","99999,9","02,5,+01560,5,99,9","04,5,+01740,5,99,9","07,5,+02520,5,99,9","07,99,1,99,9,99,9,99999,9,99,9,99,9","10031,1,99999,9","16,1",,,,"MET070METAR ENDR 021510Z 20016KT 9999 VCSH FEW052 SCT058 BKN084 07/01 Q1003;",
"01023199999","2010-04-03T06:10:00","4","64.35","7.8","0.0","DRAUGEN, NO","FM-15","ENDR ","V020","160,1,N,0082,1","99999,9,C,N","011265,1,N,1","+0050,1","+0010,1","99999,9","02,5,+00900,1,99,9","04,5,+06000,1,99,9",,"04,99,1,99,9,99,9,99999,9,99,9,99,9","10102,1,99999,9",,,,,"MET058METAR ENDR 030610Z 16016KT 9999 FEW030 SCT200 05/01 Q1010;","P01 060003SCOCIG"
"01023199999","2010-04-03T09:10:00","4","64.35","7.8","0.0","DRAUGEN, NO","FM-15","ENDR ","V020","170,1,N,0077,1","99999,9,C,N","011265,1,N,1","+0060,1","+0000,1","99999,9","02,5,+00900,1,99,9","04,5,+06000,1,99,9",,"04,99,1,99,9,99,9,99999,9,99,9,99,9","10108,1,99999,9",,,,,"MET058METAR ENDR 030910Z 17015KT 9999 FEW030 SCT200 06/00 Q1011;","P01 060003SCOCIG"
"01023199999","2010-04-03T15:10:00","4","64.35","7.8","0.0","DRAUGEN, NO","FM-15","ENDR ","V020","140,1,N,0041,1","99999,9,9,Y","009900,1,N,1","+0070,1","-0020,1","99999,9",,,,,"10139,1,99999,9",,,,,"MET046METAR ENDR 031510Z 14008KT CAVOK 07/M02 Q1014;",
"01023199999","2010-04-04T06:10:00","4","64.35","7.8","0.0","DRAUGEN, NO","FM-15","ENDR ","V020","120,1,N,0046,1","99999,9,9,Y","009900,1,N,1","+0050,1","+0020,1","99999,9",,,,,"10139,1,99999,9",,,,,"MET045METAR ENDR 040610Z 12009KT CAVOK 05/02 Q1014;",
"01023199999","2010-04-04T09:10:00","4","64.35","7.8","0.0","DRAUGEN, NO","FM-15","ENDR ","V020","130,1,N,0062,1","99999,9,9,Y","009900,1,N,1","+0060,1","+0010,1","99999,9",,,,,"10139,1,99999,9",,,,,"MET045METAR ENDR 040910Z 13012KT CAVOK 06/01 Q1014;",
"01023199999","2010-04-04T12:10:00","4","64.35","7.8","0.0","DRAUGEN, NO","FM-15","ENDR ","V020","120,1,N,0077,1","99999,9,9,Y","009900,1,N,1","+0060,1","-0010,1","99999,9",,,,,"10139,1,99999,9",,,,,"MET046METAR ENDR 041210Z 12015KT CAVOK 06/M01 Q1014;",
"01023199999","2010-04-04T15:10:00","4","64.35","7.8","0.0","DRAUGEN, NO","FM-15","ENDR ","V020","130,1,N,0087,1","99999,9,9,Y","009900,1,N,1","+0080,1","+0000,1","99999,9",,,,,"10129,1,99999,9",,,,,"MET045METAR ENDR 041510Z 13017KT CAVOK 08/00 Q1013;",
"01023199999","2010-04-05T06:10:00","4","64.35","7.8","0.0","DRAUGEN, NO","FM-15","ENDR ","V020","350,1,N,0051,1","99999,9,9,Y","009900,1,N,1","+0080,1","+0040,1","99999,9",,,,,"10159,1,99999,9",,,,,"MET045METAR ENDR 050610Z 35010KT CAVOK 08/04 Q1016;",
"01023199999","2010-04-05T09:10:00","4","64.35","7.8","0.0","DRAUGEN, NO","FM-15","ENDR ","V020","050,1,N,0031,1","99999,9,9,Y","009900,1,N,1","+0110,1","+0040,1","99999,9",,,,,"10159,1,99999,9",,,,,"MET045METAR ENDR 050910Z 05006KT CAVOK 11/04 Q1016;",
"01023199999","2010-04-05T12:10:00","4","64.35","7.8","0.0","DRAUGEN, NO","FM-15","ENDR ","V020","170,1,N,0010,1","99999,9,9,Y","009900,1,N,1","+0090,1","+0040,1","99999,9",,,,,"10159,1,99999,9",,,,,"MET045METAR ENDR 051210Z 17002KT CAVOK 09/04 Q1016;",
"01023199999","2010-04-05T15:10:00","4","64.35","7.8","0.0","DRAUGEN, NO","FM-15","ENDR ","V020","140,1,N,0036,1","99999,9,9,Y","009900,1,N,1","+0070,1","+0040,1","99999,9",,,,,"10159,1,99999,9",,,,,"MET045METAR ENDR 051510Z 14007KT CAVOK 07/04 Q1016;",
"01023199999","2010-04-06T06:10:00","4","64.35","7.8","0.0","DRAUGEN, NO","FM-15","ENDR ","V020","140,1,N,0093,1","03060,5,C,N","011265,1,N,1","+0050,1","+0010,1","99999,9","07,5,+03060,5,99,9",,,"07,99,1,99,9,99,9,99999,9,99,9,99,9","10139,1,99999,9",,,,,"MET051METAR ENDR 060610Z 14018KT 9999 BKN102 05/01 Q1014;",
"01023199999","2010-04-06T09:20:00","4","64.35","7.8","0.0","DRAUGEN, NO","FM-15","ENDR ","V020","140,1,N,0087,1","01200,1,C,N","011265,1,N,1","+0050,1","+0010,1","99999,9","08,5,+01200,1,99,9",,,"08,99,1,99,9,99,9,99999,9,99,9,99,9","10139,1,99999,9","61,1",,,,"MET055METAR ENDR 060920Z 14017KT 9999 -RA OVC040 05/01 Q1014;",
"01023199999","2010-04-06T12:10:00","4","64.35","7.8","0.0","DRAUGEN, NO","FM-15","ENDR ","V020","140,1,N,0113,1","01350,1,C,N","011265,1,N,1","+0060,1","+0000,1","99999,9","07,5,+01350,1,99,9",,,"07,99,1,99,9,99,9,99999,9,99,9,99,9","10139,1,99999,9",,,,,"MET051METAR ENDR 061210Z 14022KT 9999 BKN045 06/00 Q1014;",
"01023199999","2010-04-06T15:10:00","4","64.35","7.8","0.0","DRAUGEN, NO","FM-15","ENDR ","V020","130,1,N,0118,1","01770,5,C,N","011265,1,N,1","+0070,1","+0010,1","99999,9","07,5,+01770,5,99,9",,,"07,99,1,99,9,99,9,99999,9,99,9,99,9","10139,1,99999,9",,,,,"MET051METAR ENDR 061510Z 13023KT 9999 BKN059 07/01 Q1014;",
"01023199999","2010-04-07T06:10:00","4","64.35","7.8","0.0","DRAUGEN, NO","FM-15","ENDR ","V020","150,1,N,0087,1","01350,1,C,N","011265,1,N,1","+0080,1","+0010,1","99999,9","08,5,+01350,1,99,9",,,"08,99,1,99,9,99,9,99999,9,99,9,99,9","10129,1,99999,9",,,,,"MET051METAR ENDR 070610Z 15017KT 9999 OVC045 08/01 Q1013;",
"01023199999","2010-04-07T12:10:00","4","64.35","7.8","0.0","DRAUGEN, NO","FM-15","ENDR ","V020","220,1,N,0170,1","01110,1,C,N","008000,1,N,1","+0070,1","+0050,1","99999,9","07,5,+01110,1,99,9",,,"07,99,1,99,9,99,9,99999,9,99,9,99,9","10139,1,99999,9","61,1",,,,"MET055METAR ENDR 071210Z 22033KT 8000 -RA BKN037 07/05 Q1014;",
"01023199999","2010-04-07T15:10:00","4","64.35","7.8","0.0","DRAUGEN, NO","FM-15","ENDR ","V020","210,1,N,0093,1","01350,1,C,N","011265,1,N,1","+0070,1","+0060,1","99999,9","02,5,+00150,1,99,9","08,5,+01350,1,99,9",,"08,99,1,99,9,99,9,99999,9,99,9,99,9","10159,1,99999,9",,,,,"MET058METAR ENDR 071510Z 21018KT 9999 FEW005 OVC045 07/06 Q1016;",
"01023199999","2010-04-08T06:10:00","4","64.35","7.8","0.0","DRAUGEN, NO","FM-15","ENDR ","V020","200,1,N,0051,1","00060,1,C,N","002000,1,N,1","+0040,1","+0040,1","99999,9","08,5,+00060,1,99,9",,,"08,99,1,99,9,99,9,99999,9,99,9,99,9","10180,1,99999,9","10,1",,,,"MET055METAR ENDR 080610Z 20010KT 2000E BR OVC002 04/04 Q1018;",
"01023199999","2010-04-08T09:10:00","4","64.35","7.8","0.0","DRAUGEN, NO","FM-15","ENDR ","V020","200,1,N,0062,1","00090,1,C,N","011265,1,N,1","+0050,1","+0040,1","99999,9","08,5,+00090,1,99,9",,,"08,99,1,99,9,99,9,99999,9,99,9,99,9","10169,1,99999,9",,,,,"MET051METAR ENDR 080910Z 20012KT 9999 OVC003 05/04 Q1017;",
"01023199999","2010-04-08T12:10:00","4","64.35","7.8","0.0","DRAUGEN, NO","FM-15","ENDR ","V020","210,1,N,0046,1","99999,9,C,N","011265,1,N,1","+0070,1","+0040,1","99999,9","02,5,+00900,1,99,9","04,5,+03600,1,99,9",,"04,99,1,99,9,99,9,99999,9,99,9,99,9","10169,1,99999,9",,,,,"MET058METAR ENDR 081210Z 21009KT 9999 FEW030 SCT120 07/04 Q1017;","P01 036003SCOCIG"
"01023199999","2010-04-08T15:10:00","4","64.35","7.8","0.0","DRAUGEN, NO","FM-15","ENDR ","V020","210,1,N,0062,1","99999,9,C,N","011265,1,N,1","+0080,1","+0030,1","99999,9","04,5,+00360,1,99,9","04,5,+06000,1,09,5",,"04,99,1,99,9,99,9,99999,9,99,9,99,9","10169,1,99999,9",,,,,"MET060METAR ENDR 081510Z 21012KT 9999 SCT012 SCT200CB 08/03 Q1017;","P01 060003SCOCIG"
"01023199999","2010-04-09T06:10:00","4","64.35","7.8","0.0","DRAUGEN, NO","FM-15","ENDR ","V020","290,1,N,0108,1","99999,9,C,N","011265,1,N,1","+0060,1","+0030,1","99999,9","02,5,+00540,1,09,1","04,5,+02400,1,99,9",,"04,99,1,99,9,99,9,99999,9,99,9,99,9","10190,1,99999,9","16,1",,,,"MET065METAR ENDR 090610Z 29021KT 9999 VCSH FEW018CB SCT080 06/03 Q1019;","P01 024003SCOCIG"
"01023199999","2010-04-09T09:10:00","4","64.35","7.8","0.0","DRAUGEN, NO","FM-15","ENDR ","V020","300,1,N,0123,1","01050,1,C,N","011265,1,N,1","+0060,1","+0010,1","99999,9","02,5,+00540,1,09,1","07,5,+01050,1,99,9",,"07,99,1,99,9,99,9,99999,9,99,9,99,9","10220,1,99999,9","16,1",,,,"MET065METAR ENDR 090910Z 30024KT 9999 VCSH FEW018CB BKN035 06/01 Q1022;",
"01023199999","2010-04-09T15:10:00","4","64.35","7.8","0.0","DRAUGEN, NO","FM-15","ENDR ","V020","310,1,N,0113,1","00870,1,C,N","011265,1,N,1","+0070,1","+0000,1","99999,9","07,5,+00870,1,99,9",,,"07,99,1,99,9,99,9,99999,9,99,9,99,9","10271,1,99999,9","16,1",,,,"MET057METAR ENDR 091510Z 31022KT 9999 VCSH BKN029 07/M00 Q1027;",
"01023199999","2010-04-10T06:10:00","4","64.35","7.8","0.0","DRAUGEN, NO","FM-15","ENDR ","V020","250,1,N,0031,1","06000,1,C,N","011265,1,N,1","+0060,1","-0010,1","99999,9","02,5,+00690,1,99,9","07,5,+06000,1,99,9",,"07,99,1,99,9,99,9,99999,9,99,9,99,9","10349,1,99999,9",,,,,"MET059METAR ENDR 100610Z 25006KT 9999 FEW023 BKN200 06/M01 Q1035;",
"01023199999","2010-04-10T09:10:00","4","64.35","7.8","0.0","DRAUGEN, NO","FM-15","ENDR ","V020","220,1,N,0031,1","03690,5,C,N","011265,1,N,1","+0060,1","+0000,1","99999,9","02,5,+00900,1,99,9","07,5,+03690,5,99,9",,"07,99,1,99,9,99,9,99999,9,99,9,99,9","10359,1,99999,9",,,,,"MET059METAR ENDR 100910Z 22006KT 9999 FEW030 BKN123 06/M00 Q1036;",
"01023199999","2010-04-10T12:10:00","4","64.35","7.8","0.0","DRAUGEN, NO","FM-15","ENDR ","V020","190,1,N,0036,1","03450,5,C,N","011265,1,N,1","+0070,1","+0000,1","99999,9","08,5,+03450,5,99,9",,,"08,99,1,99,9,99,9,99999,9,99,9,99,9","10359,1,99999,9",,,,,"MET051METAR ENDR 101210Z 19007KT 9999 OVC115 07/00 Q1036;",
"01023199999","2010-04-10T15:10:00","4","64.35","7.8","0.0","DRAUGEN, NO","FM-15","ENDR ","V020","160,1,N,0021,1","03090,5,C,N","011265,1,N,1","+0060,1","+0010,1","99999,9","08,5,+03090,5,99,9",,,"08,99,1,99,9,99,9,99999,9,99,9,99,9","10359,1,99999,9",,,,,"MET051METAR ENDR 101510Z 16004KT 9999 OVC103 06/01 Q1036;",
"01023199999","2010-04-11T06:10:00","4","64.35","7.8","0.0","DRAUGEN, NO","FM-15","ENDR ","V020","200,1,N,0072,1","01440,1,C,N","011265,1,N,1","+0060,1","+0040,1","99999,9","08,5,+01440,1,99,9",,,"08,99,1,99,9,99,9,99999,9,99,9,99,9","10339,1,99999,9",,,,,"MET051METAR ENDR 110610Z 20014KT 9999 OVC048 06/04 Q1034;",
"01023199999","2010-04-11T09:10:00","4","64.35","7.8","0.0","DRAUGEN, NO","FM-15","ENDR ","V020","210,1,N,0093,1","01350,1,C,N","011265,1,N,1","+0070,1","+0030,1","99999,9","08,5,+01350,1,99,9",,,"08,99,1,99,9,99,9,99999,9,99,9,99,9","10339,1,99999,9",,,,,"MET051METAR ENDR 110910Z 21018KT 9999 OVC045 07/03 Q1034;",
"01023199999","2010-04-11T12:20:00","4","64.35","7.8","0.0","DRAUGEN, NO","FM-15","ENDR ","V020","200,1,N,0098,1","01560,5,C,N","011265,1,N,1","+0080,1","+0020,1","99999,9","07,5,+01560,5,99,9",,,"07,99,1,99,9,99,9,99999,9,99,9,99,9","10339,1,99999,9",,,,,"MET051METAR ENDR 111220Z 20019KT 9999 BKN052 08/02 Q1034;",
"01023199999","2010-04-11T15:10:00","4","64.35","7.8","0.0","DRAUGEN, NO","FM-15","ENDR ","V020","220,1,N,0103,1","22000,1,9,N","011265,1,N,1","+0070,1","+0030,1","99999,9","04,5,+02700,1,99,9",,,"04,99,1,99,9,99,9,99999,9,99,9,99,9","10329,1,99999,9",,,,,"MET051METAR ENDR 111510Z 22020KT 9999 SCT090 07/03 Q1033;",
"01023199999","2010-04-12T06:20:00","4","64.35","7.8","0.0","DRAUGEN, NO","FM-15","ENDR ","V020","230,1,N,0175,1","22000,1,9,N","011265,1,N,1","+0070,1","+0040,1","99999,9","04,5,+00450,1,99,9",,,"04,99,1,99,9,99,9,99999,9,99,9,99,9","10230,1,99999,9","16,1",,,,"MET056METAR ENDR 120620Z 23034KT 9999 VCSH SCT015 07/04 Q1023;",
"01023199999","2010-04-12T12:10:00","4","64.35","7.8","0.0","DRAUGEN, NO","FM-15","ENDR ","V020","260,1,N,0123,1","01140,1,C,N","011265,1,N,1","+0080,1","+0050,1","99999,9","07,5,+01140,1,99,9",,,"07,99,1,99,9,99,9,99999,9,99,9,99,9","10220,1,99999,9",,,,,"MET051METAR ENDR 121210Z 26024KT 9999 BKN038 08/05 Q1022;",
"01023199999","2010-04-12T15:10:00","4","64.35","7.8","0.0","DRAUGEN, NO","FM-15","ENDR ","V020","270,1,N,0118,1","22000,1,9,N","011265,1,N,1","+0090,1","+0040,1","99999,9","04,5,+00450,1,99,9",,,"04,99,1,99,9,99,9,99999,9,99,9,99,9","10230,1,99999,9","16,1",,,,"MET056METAR ENDR 121510Z 27023KT 9999 VCSH SCT015 09/04 Q1023;",
"01023199999","2010-04-13T06:10:00","4","64.35","7.8","0.0","DRAUGEN, NO","FM-15","ENDR ","V020","310,1,N,0103,1","99999,9,C,N","011265,1,N,1","+0060,1","+0010,1","99999,9","04,5,+00480,1,99,9","04,5,+00780,1,99,9",,"04,99,1,99,9,99,9,99999,9,99,9,99,9","10271,1,99999,9",,,,,"MET058METAR ENDR 130610Z 31020KT 9999 SCT016 SCT026 06/01 Q1027;","P01 007803SCOCIG"
"01023199999","2010-04-13T09:10:00","4","64.35","7.8","0.0","DRAUGEN, NO","FM-15","ENDR ","V020","310,1,N,0098,1","99999,9,C,N","011265,1,N,1","+0060,1","+0000,1","99999,9","02,5,+00540,1,99,9","04,5,+01020,1,09,5",,"04,99,1,99,9,99,9,99999,9,99,9,99,9","10281,1,99999,9","16,1",,,,"MET065METAR ENDR 130910Z 31019KT 9999 VCSH FEW018 SCT034CB 06/00 Q1028;","P01 010203SCOCIG"
"01023199999","2010-04-13T15:10:00","4","64.35","7.8","0.0","DRAUGEN, NO","FM-15","ENDR ","V020","310,1,N,0067,1","00570,1,C,N","011265,1,N,1","+0060,1","+0020,1","99999,9","07,5,+00570,1,99,9",,,"07,99,1,99,9,99,9,99999,9,99,9,99,9","10291,1,99999,9","16,1",,,,"MET056METAR ENDR 131510Z 31013KT 9999 VCSH BKN019 06/02 Q1029;",
"01023199999","2010-04-14T06:10:00","4","64.35","7.8","0.0","DRAUGEN, NO","FM-15","ENDR ","V020","240,1,N,0118,1","00570,1,C,N","011265,1,N,1","+0060,1","+0040,1","99999,9","07,5,+00570,1,99,9","07,5,+01530,5,99,9","08,5,+01890,5,99,9","08,99,1,99,9,99,9,99999,9,99,9,99,9","10230,1,99999,9","16,1","61,1",,,"MET074METAR ENDR 140610Z 24023KT 9999 -RA VCSH BKN019 BKN051 OVC063 06/04 Q1023;",
"01023199999","2010-04-14T09:10:00","4","64.35","7.8","0.0","DRAUGEN, NO","FM-15","ENDR ","V020","240,1,N,0134,1","00570,1,C,N","011265,1,N,1","+0070,1","+0040,1","99999,9","07,5,+00570,1,99,9","08,5,+01500,1,99,9",,"08,99,1,99,9,99,9,99999,9,99,9,99,9","10220,1,99999,9",,,,,"MET058METAR ENDR 140910Z 24026KT 9999 BKN019 OVC050 07/04 Q1022;",
"01023199999","2010-04-14T12:10:00","4","64.35","7.8","0.0","DRAUGEN, NO","FM-15","ENDR ","V020","230,1,N,0123,1","00360,1,C,N","006000,1,N,1","+0060,1","+0040,1","99999,9","07,5,+00360,1,99,9","08,5,+00930,1,99,9",,"08,99,1,99,9,99,9,99999,9,99,9,99,9","10210,1,99999,9","61,1",,,,"MET062METAR ENDR 141210Z 23024KT 6000 -RA BKN012 OVC031 06/04 Q1021;",
"01023199999","2010-04-14T15:10:00","4","64.35","7.8","0.0","DRAUGEN, NO","FM-15","ENDR ","V020","240,1,N,0129,1","00015,1,C,N","011265,1,N,1","+0060,1","+0050,1","99999,9","08,5,+00000,5,99,9",,,"08,99,1,99,9,99,9,99999,9,99,9,99,9","10190,1,99999,9","61,1",,,,"MET055METAR ENDR 141510Z 24025KT 9999 -RA OVC000 06/05 Q1019;",
"01023199999","2010-04-15T06:10:00","4","64.35","7.8","0.0","DRAUGEN, NO","FM-15","ENDR ","V020","250,1,N,0108,1","00900,1,C,N","011265,1,N,1","+0060,1","+0040,1","99999,9","07,5,+00900,1,99,9","07,5,+02160,5,99,9","07,5,+02580,5,99,9","07,99,1,99,9,99,9,99999,9,99,9,99,9","10091,1,99999,9","61,1",,,,"MET069METAR ENDR 150610Z 25021KT 9999 -RA BKN030 BKN086 BKN072 06/04 Q1009;",
"01023199999","2010-04-15T09:10:00","4","64.35","7.8","0.0","DRAUGEN, NO","FM-15","ENDR ","V020","290,1,N,0144,1","02400,1,C,N","011265,1,N,1","+0060,1","+0020,1","99999,9","04,5,+00510,1,99,9","07,5,+02400,1,99,9",,"07,99,1,99,9,99,9,99999,9,99,9,99,9","10091,1,99999,9","16,1",,,,"MET063METAR ENDR 150910Z 29028KT 9999 VCSH SCT017 BKN080 06/02 Q1009;",
"01023199999","2010-04-15T12:20:00","4","64.35","7.8","0.0","DRAUGEN, NO","FM-15","ENDR ","V020","290,1,N,0103,1","00630,1,C,N","011265,1,N,1","+0060,1","+0020,1","99999,9","02,5,+00450,1,09,1","07,5,+00630,1,99,9",,"07,99,1,99,9,99,9,99999,9,99,9,99,9","10102,1,99999,9","16,1","87,1",,,"MET071METAR ENDR 151220Z 29020KT 9999 -SHGS VCSH FEW015CB BKN021 06/02 Q1010;",
"01023199999","2010-04-15T15:10:00","4","64.35","7.8","0.0","DRAUGEN, NO","FM-15","ENDR ","V020","290,1,N,0139,1","22000,1,9,N","011265,1,N,1","+0060,1","+0010,1","99999,9","04,5,+00930,1,99,9",,,"04,99,1,99,9,99,9,99999,9,99,9,99,9","10091,1,99999,9","16,1",,,,"MET056METAR ENDR 151510Z 29027KT 9999 VCSH SCT031 06/01 Q1009;",
"01023199999","2010-04-16T06:10:00","4","64.35","7.8","0.0","DRAUGEN, NO","FM-15","ENDR ","V020","310,1,N,0144,1","00960,1,C,N","011265,1,N,1","+0040,1","-0030,1","99999,9","04,5,+00480,1,09,1","07,5,+00960,1,99,9",,"07,99,1,99,9,99,9,99999,9,99,9,99,9","10108,1,99999,9",,,,,"MET061METAR ENDR 160610Z 31028KT 9999 SCT016CB BKN032 04/M03 Q1011;",
"01023199999","2010-04-16T12:20:00","4","64.35","7.8","0.0","DRAUGEN, NO","FM-15","ENDR ","V020","260,1,N,0108,1","01050,1,C,N","011265,1,N,1","+0040,1","-0050,1","99999,9","08,5,+01050,1,99,9",,,"08,99,1,99,9,99,9,99999,9,99,9,99,9","10108,1,99999,9","16,1",,,,"MET057METAR ENDR 161220Z 26021KT 9999 VCSH OVC035 04/M05 Q1011;",
"01023199999","2010-04-16T15:10:00","4","64.35","7.8","0.0","DRAUGEN, NO","FM-15","ENDR ","V020","260,1,N,0082,1","00210,1,C,N","011265,1,N,1","+0020,1","+0010,1","99999,9","08,5,+00210,1,99,9",,,"08,99,1,99,9,99,9,99999,9,99,9,99,9","10091,1,99999,9","16,1","61,1",,,"MET060METAR ENDR 161510Z 26016KT 9999 -RA VCSH OVC007 02/01 Q1009;",
"01023199999","2010-04-17T06:10:00","4","64.35","7.8","0.0","DRAUGEN, NO","FM-15","ENDR ","V020","010,1,N,0149,1","00270,1,C,N","011265,1,N,1","+0040,1","+0020,1","99999,9","07,5,+00270,1,99,9",,,"07,99,1,99,9,99,9,99999,9,99,9,99,9","09909,1,99999,9","16,1",,,,"MET056METAR ENDR 170610Z 01029KT 9999 VCSH BKN009 04/02 Q0991;",
"01023199999","2010-04-17T12:10:00","4","64.35","7.8","0.0","DRAUGEN, NO","FM-15","ENDR ","V020","350,1,N,0098,1","22000,1,9,N","011265,1,N,1","+0060,1","-0050,1","99999,9","04,5,+01050,1,99,9",,,"04,99,1,99,9,99,9,99999,9,99,9,99,9","09970,1,99999,9",,,,,"MET052METAR ENDR 171210Z 35019KT 9999 SCT035 06/M05 Q0997;",
"01023199999","2010-04-17T15:10:00","4","64.35","7.8","0.0","DRAUGEN, NO","FM-15","ENDR ","V020","320,1,N,0057,1","01410,1,C,N","011265,1,N,1","+0060,1","-0030,1","99999,9","04,5,+00960,1,99,9","07,5,+01410,1,99,9","07,5,+03510,5,99,9","07,99,1,99,9,99,9,99999,9,99,9,99,9","09990,1,99999,9","16,1",,,,"MET071METAR ENDR 171510Z 32011KT 9999 VCSH SCT032 BKN047 BKN117 06/M03 Q0999;",
"01023199999","2010-04-18T06:10:00","4","64.35","7.8","0.0","DRAUGEN, NO","FM-15","ENDR ","V020","250,1,N,0098,1","01110,1,C,N","011265,1,N,1","+0020,1","-0010,1","99999,9","04,5,+00540,1,99,9","07,5,+01110,1,09,5",,"07,99,1,99,9,99,9,99999,9,99,9,99,9","10000,1,99999,9","16,1",,,,"MET066METAR ENDR 180610Z 25019KT 9999 VCSH SCT018 BKN037CB 02/M01 Q1000;",
"01023199999","2010-04-18T09:10:00","4","64.35","7.8","0.0","DRAUGEN, NO","FM-15","ENDR ","V020","320,1,N,0057,1","00960,1,C,N","011265,1,N,1","+0040,1","-0040,1","99999,9","02,5,+00330,1,99,9","07,5,+00960,1,02,5",,"07,99,1,99,9,99,9,99999,9,99,9,99,9","10010,1,99999,9","16,1",,,,"MET067METAR ENDR 180910Z 32011KT 9999 VCSH FEW011 BKN032TCU 04/M04 Q1001;",
"01023199999","2010-04-18T12:10:00","4","64.35","7.8","0.0","DRAUGEN, NO","FM-15","ENDR ","V020","330,1,N,0103,1","01350,1,C,N","011265,1,N,1","+0060,1","-0050,1","99999,9","02,5,+00900,1,99,9","07,5,+01350,1,99,9",,"07,99,1,99,9,99,9,99999,9,99,9,99,9","10031,1,99999,9",,,,,"MET059METAR ENDR 181210Z 33020KT 9999 FEW030 BKN045 06/M05 Q1003;",
"01023199999","2010-04-18T15:10:00","4","64.35","7.8","0.0","DRAUGEN, NO","FM-15","ENDR ","V020","310,1,N,0129,1","00750,1,C,N","011265,1,N,1","+0040,1","-0030,1","99999,9","04,5,+00600,1,99,9","07,5,+00750,1,99,9",,"07,99,1,99,9,99,9,99999,9,99,9,99,9","10051,1,99999,9","16,1",,,,"MET064METAR ENDR 181510Z 31025KT 9999 VCSH SCT020 BKN025 04/M03 Q1005;",
"01023199999","2010-04-19T06:10:00","4","64.35","7.8","0.0","DRAUGEN, NO","FM-15","ENDR ","V020","250,1,N,0103,1","01200,1,C,N","009000,1,N,1","+0020,1","-0020,1","99999,9","04,5,+00600,1,02,1","07,5,+01200,1,99,9",,"07,99,1,99,9,99,9,99999,9,99,9,99,9","10081,1,99999,9","86,5",,,,"MET075METAR ENDR 190610Z 25020KT 210V280 9000 SHSN SCT020TCU BKN040 02/M02 Q1008;",
"01023199999","2010-04-19T12:10:00","4","64.35","7.8","0.0","DRAUGEN, NO","FM-15","ENDR ","V020","260,1,N,0062,1","00690,1,C,N","011265,1,N,1","+0040,1","-0030,1","99999,9","07,5,+00690,1,02,1","07,5,+01200,1,99,9",,"07,99,1,99,9,99,9,99999,9,99,9,99,9","10102,1,99999,9","16,1",,,,"MET067METAR ENDR 191210Z 26012KT 9999 VCSH BKN023TCU BKN040 04/M03 Q1010;",
"01023199999","2010-04-19T15:10:00","4","64.35","7.8","0.0","DRAUGEN, NO","FM-15","ENDR ","V020","220,1,N,0103,1","01050,1,C,N","011265,1,N,1","+0030,1","-0020,1","99999,9","07,5,+01050,1,99,9",,,"07,99,1,99,9,99,9,99999,9,99,9,99,9","10102,1,99999,9","16,1",,,,"MET057METAR ENDR 191510Z 22020KT 9999 VCSH BKN035 03/M02 Q1010;",
"01023199999","2010-04-20T06:10:00","4","64.35","7.8","0.0","DRAUGEN, NO","FM-15","ENDR ","V020","290,1,N,0067,1","00600,1,C,N","011265,1,N,1","+0040,1","-0030,1","99999,9","07,5,+00600,1,99,9",,,"07,99,1,99,9,99,9,99999,9,99,9,99,9","10081,1,99999,9",,,,,"MET052METAR ENDR 200610Z 29013KT 9999 BKN020 04/M03 Q1008;",
"01023199999","2010-04-20T09:10:00","4","64.35","7.8","0.0","DRAUGEN, NO","FM-15","ENDR ","V020","330,1,N,0031,1","00660,1,C,N","011265,1,N,1","+0060,1","-0010,1","99999,9","07,5,+00660,1,99,9",,,"07,99,1,99,9,99,9,99999,9,99,9,99,9","10091,1,99999,9",,,,,"MET060METAR ENDR 200910Z 33006KT 290V020 9999 BKN022 06/M01 Q1009;",
"01023199999","2010-04-20T12:10:00","4","64.35","7.8","0.0","DRAUGEN, NO","FM-15","ENDR ","V020","010,1,N,0010,1","22000,1,9,N","011265,1,N,1","+0070,1","-0030,1","99999,9","02,5,+00750,1,99,9",,,"02,99,1,99,9,99,9,99999,9,99,9,99,9","10102,1,99999,9",,,,,"MET052METAR ENDR 201210Z 01002KT 9999 FEW025 07/M03 Q1010;",
"01023199999","2010-04-20T15:10:00","4","64.35","7.8","0.0","DRAUGEN, NO","FM-15","ENDR ","V020","040,1,N,0031,1","22000,1,9,N","011265,1,N,1","+0080,1","-0030,1","99999,9","02,5,+00900,1,99,9",,,"02,99,1,99,9,99,9,99999,9,99,9,99,9","10102,1,99999,9",,,,,"MET052METAR ENDR 201510Z 04006KT 9999 FEW030 08/M03 Q1010;",
"01023199999","2010-04-21T06:10:00","4","64.35","7.8","0.0","DRAUGEN, NO","FM-15","ENDR ","V020","020,1,N,0031,1","22000,1,9,N","011265,1,N,1","+0050,1","-0050,1","99999,9","02,5,+00990,1,99,9",,,"02,99,1,99,9,99,9,99999,9,99,9,99,9","10108,1,99999,9",,,,,"MET052METAR ENDR 210610Z 02006KT 9999 FEW033 05/M05 Q1011;",
"01023199999","2010-04-21T09:00:00","4","64.35","7.8","0.0","DRAUGEN, NO","FM-15","ENDR ","V020","060,1,N,0021,1","22000,1,9,N","011265,1,N,1","+0080,1","-0060,1","99999,9","02,5,+01050,1,99,9",,,"02,99,1,99,9,99,9,99999,9,99,9,99,9","10119,1,99999,9",,,,,"MET052METAR ENDR 210900Z 06004KT 9999 FEW035 08/M06 Q1012;",
"01023199999","2010-04-28T09:10:00","4","64.35","7.8","0.0","DRAUGEN, NO","FM-15","ENDR ","V020","120,1,N,0057,1","01050,1,C,N","011265,1,N,1","+0040,1","-0040,1","99999,9","07,5,+01050,1,99,9",,,"07,99,1,99,9,99,9,99999,9,99,9,99,9","10139,1,99999,9",,,,,"MET052METAR ENDR 280910Z 12011KT 9999 BKN035 04/M04 Q1014;",
"01023199999","2010-04-28T15:10:00","4","64.35","7.8","0.0","DRAUGEN, NO","FM-15","ENDR ","V020","110,1,N,0077,1","00750,1,C,N","011265,1,N,1","+0040,1","-0010,1","99999,9","08,5,+00750,1,99,9",,,"08,99,1,99,9,99,9,99999,9,99,9,99,9","10091,1,99999,9","53,1",,,,"MET055METAR ENDR 281510Z 11015KT 9999 DZ OVC025 04/M01 Q1009;",
"01023199999","2010-04-29T05:50:00","4","64.35","7.8","0.0","DRAUGEN, NO","FM-15","ENDR ","V020","090,1,N,0118,1","00150,1,C,N","005000,1,N,1","+0060,1","+0050,1","99999,9","08,5,+00150,1,99,9",,,"08,99,1,99,9,99,9,99999,9,99,9,99,9","09980,1,99999,9","10,1","53,1",,,"MET057METAR ENDR 290550Z 09023KT 5000 DZ BR OVC005 06/05 Q0998;",
"01023199999","2010-04-29T06:10:00","4","64.35","7.8","0.0","DRAUGEN, NO","FM-15","ENDR ","V020","080,1,N,0123,1","00150,1,C,N","005000,1,N,1","+0060,1","+0050,1","99999,9","08,5,+00150,1,99,9",,,"08,99,1,99,9,99,9,99999,9,99,9,99,9","09980,1,99999,9","10,1","53,1",,,"MET057METAR ENDR 290610Z 08024KT 5000 DZ BR OVC005 06/05 Q0998;",
"01023199999","2010-04-29T09:20:00","4","64.35","7.8","0.0","DRAUGEN, NO","FM-15","ENDR ","V020","080,1,N,0113,1","00150,1,C,N","005000,1,N,1","+0060,1","+0050,1","99999,9","08,5,+00150,1,99,9",,,"08,99,1,99,9,99,9,99999,9,99,9,99,9","09970,1,99999,9","10,1","53,1",,,"MET057METAR ENDR 290920Z 08022KT 5000 DZ BR OVC005 06/05 Q0997;",
"01023199999","2010-04-29T11:50:00","4","64.35","7.8","0.0","DRAUGEN, NO","FM-15","ENDR ","V020","060,1,N,0087,1","00150,1,C,N","007000,1,N,1","+0070,1","+0050,1","99999,9","08,5,+00150,1,99,9",,,"08,99,1,99,9,99,9,99999,9,99,9,99,9","09970,1,99999,9","53,1",,,,"MET054METAR ENDR 291150Z 06017KT 7000 DZ OVC005 07/05 Q0997;",
"01023199999","2010-04-29T12:20:00","4","64.35","7.8","0.0","DRAUGEN, NO","FM-15","ENDR ","V020","060,1,N,0098,1","00150,1,C,N","006000,1,N,1","+0070,1","+0050,1","99999,9","08,5,+00150,1,99,9",,,"08,99,1,99,9,99,9,99999,9,99,9,99,9","09959,1,99999,9","53,1",,,,"MET054METAR ENDR 291220Z 06019KT 6000 DZ OVC005 07/05 Q0996;",
"01023199999","2010-04-29T13:40:00","4","64.35","7.8","0.0","DRAUGEN, NO","FM-15","ENDR ","V020","060,1,N,0103,1","00150,1,C,N","008000,1,N,1","+0070,1","+0060,1","99999,9","08,5,+00150,1,99,9",,,"08,99,1,99,9,99,9,99999,9,99,9,99,9","09959,1,99999,9","53,1",,,,"MET054METAR ENDR 291340Z 06020KT 8000 DZ OVC005 07/06 Q0996;",
"01023199999","2010-04-29T15:20:00","4","64.35","7.8","0.0","DRAUGEN, NO","FM-15","ENDR ","V020","060,1,N,0103,1","00180,1,C,N","011265,1,N,1","+0070,1","+0050,1","99999,9","08,5,+00180,1,99,9",,,"08,99,1,99,9,99,9,99999,9,99,9,99,9","09959,1,99999,9",,,,,"MET051METAR ENDR 291520Z 06020KT 9999 OVC006 07/05 Q0996;",
"01023199999","2010-04-30T04:50:00","4","64.35","7.8","0.0","DRAUGEN, NO","FM-15","ENDR ","V020","040,1,N,0098,1","00300,1,C,N","011265,1,N,1","+0050,1","+0020,1","99999,9","08,5,+00300,1,99,9",,,"08,99,1,99,9,99,9,99999,9,99,9,99,9","09949,1,99999,9","53,1",,,,"MET054METAR ENDR 300450Z 04019KT 9999 DZ OVC010 05/02 Q0995;",
"01023199999","2010-04-30T05:40:00","4","64.35","7.8","0.0","DRAUGEN, NO","FM-15","ENDR ","V020","030,1,N,0098,1","00300,1,C,N","011265,1,N,1","+0040,1","+0030,1","99999,9","08,5,+00300,1,99,9",,,"08,99,1,99,9,99,9,99999,9,99,9,99,9","09959,1,99999,9","53,1",,,,"MET054METAR ENDR 300540Z 03019KT 9999 DZ OVC010 04/03 Q0996;",
"01023199999","2010-04-30T08:20:00","4","64.35","7.8","0.0","DRAUGEN, NO","FM-15","ENDR ","V020","030,1,N,0098,1","00360,1,C,N","011265,1,N,1","+0050,1","+0020,1","99999,9","08,5,+00360,1,99,9",,,"08,99,1,99,9,99,9,99999,9,99,9,99,9","09959,1,99999,9",,,,,"MET051METAR ENDR 300820Z 03019KT 9999 OVC012 05/02 Q0996;",
"01023199999","2010-04-30T09:10:00","4","64.35","7.8","0.0","DRAUGEN, NO","FM-15","ENDR ","V020","030,1,N,0077,1","00450,1,C,N","011265,1,N,1","+0050,1","+0020,1","99999,9","08,5,+00450,1,99,9",,,"08,99,1,99,9,99,9,99999,9,99,9,99,9","09959,1,99999,9","53,1",,,,"MET054METAR ENDR 300910Z 03015KT 9999 DZ OVC015 05/02 Q0996;",
"01023199999","2010-04-30T12:10:00","4","64.35","7.8","0.0","DRAUGEN, NO","FM-15","ENDR ","V020","030,1,N,0093,1","00750,1,C,N","011265,1,N,1","+0050,1","+0020,1","99999,9","04,5,+00450,1,99,9","07,5,+00750,1,99,9",,"07,99,1,99,9,99,9,99999,9,99,9,99,9","09959,1,99999,9","61,1",,,,"MET062METAR ENDR 301210Z 03018KT 9999 -RA SCT015 BKN025 05/02 Q0996;",
"01023199999","2010-04-30T13:10:00","4","64.35","7.8","0.0","DRAUGEN, NO","FM-15","ENDR ","V020","030,1,N,0093,1","00450,1,C,N","011265,1,N,1","+0040,1","+0020,1","99999,9","08,5,+00450,1,99,9",,,"08,99,1,99,9,99,9,99999,9,99,9,99,9","09959,1,99999,9","61,1",,,,"MET055METAR ENDR 301310Z 03018KT 9999 -RA OVC015 04/02 Q0996;",
"01023199999","2010-04-30T15:40:00","4","64.35","7.8","0.0","DRAUGEN, NO","FM-15","ENDR ","V020","010,1,N,0118,1","00450,1,C,N","011265,1,N,1","+0040,1","+0010,1","99999,9","08,5,+00450,1,99,9",,,"08,99,1,99,9,99,9,99999,9,99,9,99,9","09959,1,99999,9","61,1",,,,"MET055METAR ENDR 301540Z 01023KT 9999 -RA OVC015 04/01 Q0996;",
"01023199999","2010-05-01T06:10:00","4","64.35","7.8","0.0","DRAUGEN, NO","FM-15","ENDR ","V020","350,1,N,0144,1","99999,9,C,N","011265,1,N,1","+0060,1","-0010,1","99999,9","02,5,+00750,1,99,9","04,5,+01050,1,99,9",,"04,99,1,99,9,99,9,99999,9,99,9,99,9","09990,1,99999,9",,,,,"MET059METAR ENDR 010610Z 35028KT 9999 FEW025 SCT035 06/M01 Q0999;","P01 010503SCOCIG"
"01023199999","2010-05-01T09:10:00","4","64.35","7.8","0.0","DRAUGEN, NO","FM-15","ENDR ","V020","350,1,N,0165,1","99999,9,C,N","011265,1,N,1","+0070,1","-0010,1","99999,9","02,5,+00600,1,02,1","04,5,+01050,1,99,9",,"04,99,1,99,9,99,9,99999,9,99,9,99,9","10000,1,99999,9","86,5",,,,"MET067METAR ENDR 010910Z 35032KT 9999 SHSN FEW020TCU SCT035 07/M01 Q1000;","P01 010503SCOCIG"
"01023199999","2010-05-01T12:20:00","4","64.35","7.8","0.0","DRAUGEN, NO","FM-15","ENDR ","V020","360,1,N,0165,1","22000,1,9,N","011265,1,N,1","+0060,1","-0010,1","99999,9","04,5,+00750,1,02,1",,,"04,99,1,99,9,99,9,99999,9,99,9,99,9","10020,1,99999,9","86,5",,,,"MET060METAR ENDR 011220Z 36032KT 9999 SHSN SCT025TCU 06/M01 Q1002;",
"01023199999","2010-05-01T15:20:00","4","64.35","7.8","0.0","DRAUGEN, NO","FM-15","ENDR ","V020","350,1,N,0149,1","22000,1,9,N","011265,1,N,1","+0070,1","-0030,1","99999,9","04,5,+00900,1,99,9",,,"04,99,1,99,9,99,9,99999,9,99,9,99,9","10051,1,99999,9","16,1",,,,"MET057METAR ENDR 011520Z 35029KT 9999 VCSH SCT030 07/M03 Q1005;",
"01023199999","2010-05-02T06:10:00","4","64.35","7.8","0.0","DRAUGEN, NO","FM-15","ENDR ","V020","320,1,N,0087,1","01050,1,C,N","011265,1,N,1","+0040,1","+0010,1","99999,9","02,5,+00450,1,99,9","07,5,+01050,1,99,9",,"07,99,1,99,9,99,9,99999,9,99,9,99,9","10102,1,99999,9","81,1",,,,"MET063METAR ENDR 020610Z 32017KT 9999 SHRA FEW015 BKN035 04/01 Q1010;",
"01023199999","2010-05-02T09:20:00","4","64.35","7.8","0.0","DRAUGEN, NO","FM-15","ENDR ","V020","350,1,N,0103,1","01200,1,C,N","011265,1,N,1","+0050,1","+0000,1","99999,9","02,5,+00450,1,99,9","04,5,+01200,1,99,9","07,5,+01800,1,99,9","07,99,1,99,9,99,9,99999,9,99,9,99,9","10108,1,99999,9","80,1",,,,"MET073METAR ENDR 020920Z 35020KT 9999 -SHSNRA FEW015 SCT040 BKN060 05/00 Q1011;",
"01023199999","2010-05-02T12:20:00","4","64.35","7.8","0.0","DRAUGEN, NO","FM-15","ENDR ","V020","240,1,N,0036,1","22000,1,9,N","011265,1,N,1","+0060,1","+0000,1","99999,9","04,5,+00750,1,99,9",,,"04,99,1,99,9,99,9,99999,9,99,9,99,9","10129,1,99999,9",,,,,"MET052METAR ENDR 021220Z 24007KT 9999 SCT025 06/M00 Q1013;",
"01023199999","2010-05-02T16:10:00","4","64.35","7.8","0.0","DRAUGEN, NO","FM-15","ENDR ","V020","340,1,N,0046,1","22000,1,9,N","011265,1,N,1","+0080,1","-0020,1","99999,9","04,5,+00750,1,99,9",,,"04,99,1,99,9,99,9,99999,9,99,9,99,9","10139,1,99999,9",,,,,"MET052METAR ENDR 021610Z 34009KT 9999 SCT025 08/M02 Q1014;",
"01023199999","2010-05-03T06:10:00","4","64.35","7.8","0.0","DRAUGEN, NO","FM-15","ENDR ","V020","300,1,N,0046,1","99999,9,C,N","011265,1,N,1","+0030,1","-0010,1","99999,9","02,5,+00600,1,99,9","04,5,+01350,1,99,9",,"04,99,1,99,9,99,9,99999,9,99,9,99,9","10169,1,99999,9","16,1",,,,"MET064METAR ENDR 030610Z 30009KT 9999 VCSH FEW020 SCT045 03/M01 Q1017;","P01 013503SCOCIG"
"01023199999","2010-05-03T12:20:00","4","64.35","7.8","0.0","DRAUGEN, NO","FM-15","ENDR ","V020","350,1,N,0087,1","01350,1,C,N","011265,1,N,1","+0040,1","+0000,1","99999,9","02,5,+00600,1,99,9","07,5,+01350,1,99,9",,"07,99,1,99,9,99,9,99999,9,99,9,99,9","10180,1,99999,9","77,1","81,1",,,"MET065METAR ENDR 031220Z 35017KT 9999 SHRASG FEW020 BKN045 04/00 Q1018;",
"01023199999","2010-05-03T14:20:00","4","64.35","7.8","0.0","DRAUGEN, NO","FM-15","ENDR ","V020","320,1,N,0046,1","01500,1,C,N","011265,1,N,1","+0040,1","-0030,1","99999,9","02,5,+00600,1,99,9","07,5,+01500,1,99,9",,"07,99,1,99,9,99,9,99999,9,99,9,99,9","10180,1,99999,9","77,1","81,1",,,"MET066METAR ENDR 031420Z 32009KT 9999 SHRASG FEW020 BKN050 04/M03 Q1018;",
"01023199999","2010-05-03T15:10:00","4","64.35","7.8","0.0","DRAUGEN, NO","FM-15","ENDR ","V020","340,1,N,0036,1","00600,1,C,N","007000,1,N,1","+0030,1","-0010,1","99999,9","07,5,+00600,1,99,9",,,"07,99,1,99,9,99,9,99999,9,99,9,99,9","10190,1,99999,9","86,5",,,,"MET057METAR ENDR 031510Z 34007KT 7000 SHSN BKN020 03/M01 Q1019;",
"01023199999","2010-05-03T18:20:00","4","64.35","7.8","0.0","DRAUGEN, NO","FM-15","ENDR ","V020","290,1,N,0036,1","22000,1,9,N","011265,1,N,1","+0010,1","-0010,1","99999,9","04,5,+00750,1,99,9",,,"04,99,1,99,9,99,9,99999,9,99,9,99,9","10190,1,99999,9","16,1",,,,"MET057METAR ENDR 031820Z 29007KT 9999 VCSH SCT025 01/M01 Q1019;",
"01023199999","2010-05-04T04:40:00","4","64.35","7.8","0.0","DRAUGEN, NO","FM-15","ENDR ","V020","310,1,N,0067,1","01500,1,C,N","011265,1,N,1","+0050,1","-0010,1","99999,9","02,5,+00750,1,99,9","07,5,+01500,1,99,9","07,5,+03600,1,99,9","07,99,1,99,9,99,9,99999,9,99,9,99,9","10210,1,99999,9","16,1",,,,"MET071METAR ENDR 040440Z 31013KT 9999 VCSH FEW025 BKN050 BKN120 05/M01 Q1021;",
"01023199999","2010-05-04T05:50:00","4","64.35","7.8","0.0","DRAUGEN, NO","FM-15","ENDR ","V020","080,1,N,0021,1","01500,1,C,N","011265,1,N,1","+0040,1","+0010,1","99999,9","02,5,+00450,1,99,9","07,5,+01500,1,99,9",,"07,99,1,99,9,99,9,99999,9,99,9,99,9","10210,1,99999,9","16,1",,,,"MET071METAR ENDR 040550Z 08004KT 050V120 9999 VCSH FEW015 BKN050 04/01 Q1021;",
"01023199999","2010-05-04T06:10:00","4","64.35","7.8","0.0","DRAUGEN, NO","FM-15","ENDR ","V020","320,1,N,0093,1","01500,1,C,N","011265,1,N,1","+0040,1","+0010,1","99999,9","02,5,+00450,1,99,9","07,5,+01500,1,99,9",,"07,99,1,99,9,99,9,99999,9,99,9,99,9","10210,1,99999,9","84,1",,,,"MET065METAR ENDR 040610Z 32018KT 9999 SHRASN FEW015 BKN050 04/01 Q1021;",
"01023199999","2010-05-04T09:10:00","4","64.35","7.8","0.0","DRAUGEN, NO","FM-15","ENDR ","V020","310,1,N,0036,1","01200,1,C,N","011265,1,N,1","+0050,1","-0010,1","99999,9","02,5,+00450,1,99,9","07,5,+01200,1,99,9","07,5,+02700,1,99,9","07,99,1,99,9,99,9,99999,9,99,9,99,9","10220,1,99999,9","16,1",,,,"MET071METAR ENDR 040910Z 31007KT 9999 VCSH FEW015 BKN040 BKN090 05/M01 Q1022;",
"01023199999","2010-05-04T12:20:00","4","64.35","7.8","0.0","DRAUGEN, NO","FM-15","ENDR ","V020","260,1,N,0041,1","01350,1,C,N","011265,1,N,1","+0060,1","+0000,1","99999,9","04,5,+00660,1,99,9","07,5,+01350,1,99,9",,"07,99,1,99,9,99,9,99999,9,99,9,99,9","10220,1,99999,9","16,1",,,,"MET064METAR ENDR 041220Z 26008KT 9999 VCSH SCT022 BKN045 06/M00 Q1022;",
"01023199999","2010-05-04T15:10:00","4","64.35","7.8","0.0","DRAUGEN, NO","FM-15","ENDR ","V020","350,1,N,0041,1","00600,1,C,N","011265,1,N,1","+0060,1","+0010,1","99999,9","07,5,+00600,1,99,9","04,5,+01800,1,99,9",,,"10220,1,99999,9","16,1",,,,"MET063METAR ENDR 041510Z 35008KT 9999 VCSH BKN020 SCT060 06/01 Q1022;","Q01+000042SCOTCV"
"01023199999","2010-05-05T06:20:00","4","64.35","7.8","0.0","DRAUGEN, NO","FM-15","ENDR ","V020","230,1,N,0031,1","00600,1,C,N","011265,1,N,1","+0030,1","+0000,1","99999,9","07,5,+00600,1,99,9","04,5,+01800,1,99,9",,,"10200,1,99999,9","84,1",,,,"MET065METAR ENDR 050620Z 23006KT 9999 SHRASN BKN020 SCT060 03/00 Q1020;","Q01+000042SCOTCV"
"01023199999","2010-05-05T07:50:00","4","64.35","7.8","0.0","DRAUGEN, NO","FM-15","ENDR ","V020","260,1,N,0036,1","01050,1,C,N","011265,1,N,1","+0050,1","-0010,1","99999,9","07,5,+01050,1,99,9","04,5,+01800,1,99,9",,,"10200,1,99999,9","84,1",,,,"MET066METAR ENDR 050750Z 26007KT 9999 SHRASN BKN035 SCT060 05/M01 Q1020;","Q01+000042SCOTCV"
"01023199999","2010-05-05T09:20:00","4","64.35","7.8","0.0","DRAUGEN, NO","FM-15","ENDR ","V020","230,1,N,0031,1","01950,5,C,N","011265,1,N,1","+0040,1","+0010,1","99999,9","04,5,+00750,1,99,9","07,5,+01950,5,99,9",,"07,99,1,99,9,99,9,99999,9,99,9,99,9","10190,1,99999,9","84,1",,,,"MET065METAR ENDR 050920Z 23006KT 9999 SHRASN SCT025 BKN065 04/01 Q1019;",
"01023199999","2010-05-05T15:20:00","4","64.35","7.8","0.0","DRAUGEN, NO","FM-15","ENDR ","V020","290,1,N,0036,1","00450,1,C,N","011265,1,N,1","+0030,1","+0010,1","99999,9","08,5,+00450,1,99,9",,,"08,99,1,99,9,99,9,99999,9,99,9,99,9","10190,1,99999,9","77,1","81,1",,,"MET058METAR ENDR 051520Z 29007KT 9999 SHRASG OVC015 03/01 Q1019;",
"01023199999","2010-05-06T06:20:00","4","64.35","7.8","0.0","DRAUGEN, NO","FM-15","ENDR ","V020","080,1,N,0026,1","00600,1,C,N","011265,1,N,1","+0050,1","+0000,1","99999,9","07,5,+00600,1,99,9",,,"07,99,1,99,9,99,9,99999,9,99,9,99,9","10210,1,99999,9",,,,,"MET051METAR ENDR 060620Z 08005KT 9999 BKN020 05/00 Q1021;",
"01023199999","2010-05-06T08:10:00","4","64.35","7.8","0.0","DRAUGEN, NO","FM-15","ENDR ","V020","070,1,N,0041,1","22000,1,9,N","011265,1,N,1","+0070,1","+0010,1","99999,9","04,5,+00600,1,99,9",,,"04,99,1,99,9,99,9,99999,9,99,9,99,9","10220,1,99999,9",,,,,"MET051METAR ENDR 060810Z 07008KT 9999 SCT020 07/01 Q1022;",
"01023199999","2010-05-06T12:10:00","4","64.35","7.8","0.0","DRAUGEN, NO","FM-15","ENDR ","V020","070,1,N,0041,1","22000,1,9,N","011265,1,N,1","+0090,1","+0000,1","99999,9","04,5,+00600,1,99,9",,,"04,99,1,99,9,99,9,99999,9,99,9,99,9","10230,1,99999,9",,,,,"MET051METAR ENDR 061210Z 07008KT 9999 SCT020 09/00 Q1023;",
"01023199999","2010-05-06T15:10:00","4","64.35","7.8","0.0","DRAUGEN, NO","FM-15","ENDR ","V020","050,1,N,0077,1","99999,9,9,Y","009900,1,N,1","+0080,1","+0010,1","99999,9",,,,,"10240,1,99999,9",,,,,"MET045METAR ENDR 061510Z 05015KT CAVOK 08/01 Q1024;",
"01023199999","2010-05-06T17:20:00","4","64.35","7.8","0.0","DRAUGEN, NO","FM-15","ENDR ","V020","050,1,N,0093,1","99999,9,9,Y","009900,1,N,1","+0080,1","+0010,1","99999,9",,,,,"10240,1,99999,9",,,,,"MET045METAR ENDR 061720Z 05018KT CAVOK 08/01 Q1024;",
"01023199999","2010-05-07T05:50:00","4","64.35","7.8","0.0","DRAUGEN, NO","FM-15","ENDR ","V020","190,1,N,0010,1","99999,9,9,Y","009900,1,N,1","+0070,1","+0040,1","99999,9",,,,,"10240,1,99999,9",,,,,"MET045METAR ENDR 070550Z 19002KT CAVOK 07/04 Q1024;",
"01023199999","2010-05-07T08:10:00","4","64.35","7.8","0.0","DRAUGEN, NO","FM-15","ENDR ","V020","999,9,C,0000,1","99999,9,9,Y","009900,1,N,1","+0090,1","+0040,1","99999,9",,,,,"10230,1,99999,9",,,,,"MET045METAR ENDR 070810Z 00000KT CAVOK 09/04 Q1023;",
"01023199999","2010-05-07T09:10:00","4","64.35","7.8","0.0","DRAUGEN, NO","FM-15","ENDR ","V020","260,1,N,0010,1","99999,9,9,Y","009900,1,N,1","+0090,1","+0040,1","99999,9",,,,,"10230,1,99999,9",,,,,"MET045METAR ENDR 070910Z 26002KT CAVOK 09/04 Q1023;",
"01023199999","2010-05-07T12:20:00","4","64.35","7.8","0.0","DRAUGEN, NO","FM-15","ENDR ","V020","300,1,N,0046,1","99999,9,9,Y","009900,1,N,1","+0080,1","+0040,1","99999,9",,,,,"10230,1,99999,9",,,,,"MET045METAR ENDR 071220Z 30009KT CAVOK 08/04 Q1023;",
"01023199999","2010-05-07T15:10:00","4","64.35","7.8","0.0","DRAUGEN, NO","FM-15","ENDR ","V020","270,1,N,0046,1","99999,9,9,Y","009900,1,N,1","+0110,1","+0020,1","99999,9",,,,,"10220,1,99999,9",,,,,"MET045METAR ENDR 071510Z 27009KT CAVOK 11/02 Q1022;",
"01023199999","2010-05-08T05:40:00","4","64.35","7.8","0.0","DRAUGEN, NO","FM-15","ENDR ","V020","360,1,N,0139,1","00540,1,C,N","008000,1,N,1","+0060,1","+0040,1","99999,9","07,5,+00540,1,99,9",,,"07,99,1,99,9,99,9,99999,9,99,9,99,9","10149,1,99999,9","61,1",,,,"MET055METAR ENDR 080540Z 36027KT 8000 -RA BKN018 06/04 Q1015;",
"01023199999","2010-05-08T06:10:00","4","64.35","7.8","0.0","DRAUGEN, NO","FM-15","ENDR ","V020","360,1,N,0134,1","00300,1,C,N","009000,1,N,1","+0050,1","+0040,1","99999,9","07,5,+00300,1,99,9",,,"07,99,1,99,9,99,9,99999,9,99,9,99,9","10149,1,99999,9","61,1",,,,"MET055METAR ENDR 080610Z 36026KT 9000 -RA BKN010 05/04 Q1015;",
"01023199999","2010-05-08T09:20:00","4","64.35","7.8","0.0","DRAUGEN, NO","FM-15","ENDR ","V020","350,1,N,0098,1","00900,1,C,N","011265,1,N,1","+0070,1","-0020,1","99999,9","07,5,+00900,1,99,9",,,"07,99,1,99,9,99,9,99999,9,99,9,99,9","10159,1,99999,9",,,,,"MET052METAR ENDR 080920Z 35019KT 9999 BKN030 07/M02 Q1016;",
"01023199999","2010-05-08T12:10:00","4","64.35","7.8","0.0","DRAUGEN, NO","FM-15","ENDR ","V020","320,1,N,0098,1","01050,1,C,N","011265,1,N,1","+0070,1","-0040,1","99999,9","07,5,+01050,1,99,9",,,"07,99,1,99,9,99,9,99999,9,99,9,99,9","10169,1,99999,9",,,,,"MET052METAR ENDR 081210Z 32019KT 9999 BKN035 07/M04 Q1017;",
"01023199999","2010-05-08T15:10:00","4","64.35","7.8","0.0","DRAUGEN, NO","FM-15","ENDR ","V020","320,1,N,0051,1","22000,1,9,N","011265,1,N,1","+0080,1","-0060,1","99999,9","04,5,+01050,1,99,9",,,"04,99,1,99,9,99,9,99999,9,99,9,99,9","10169,1,99999,9",,,,,"MET052METAR ENDR 081510Z 32010KT 9999 SCT035 08/M06 Q1017;",
"01023199999","2010-05-08T19:10:00","4","64.35","7.8","0.0","DRAUGEN, NO","FM-15","ENDR ","V020","240,1,N,0057,1","99999,9,9,Y","009900,1,N,1","+0050,1","-0040,1","99999,9",,,,,"10159,1,99999,9",,,,,"MET046METAR ENDR 081910Z 24011KT CAVOK 05/M04 Q1016;",
"01023199999","2010-05-09T05:10:00","4","64.35","7.8","0.0","DRAUGEN, NO","FM-15","ENDR ","V020","260,1,N,0159,1","00750,1,C,N","011265,1,N,1","+0030,1","+0010,1","99999,9","07,5,+00750,1,99,9",,,"07,99,1,99,9,99,9,99999,9,99,9,99,9","10061,1,99999,9","61,1",,,,"MET055METAR ENDR 090510Z 26031KT 9999 -RA BKN025 03/01 Q1006;",
"01023199999","2010-05-09T06:20:00","4","64.35","7.8","0.0","DRAUGEN, NO","FM-15","ENDR ","V020","270,1,N,0123,1","01200,1,C,N","011265,1,N,1","+0030,1","+0010,1","99999,9","04,5,+00450,1,99,9","07,5,+01200,1,99,9",,"07,99,1,99,9,99,9,99999,9,99,9,99,9","10061,1,99999,9","16,1",,,,"MET063METAR ENDR 090620Z 27024KT 9999 VCSH SCT015 BKN040 03/01 Q1006;",
"01023199999","2010-05-09T09:10:00","4","64.35","7.8","0.0","DRAUGEN, NO","FM-15","ENDR ","V020","240,1,N,0077,1","00900,1,C,N","011265,1,N,1","+0040,1","-0030,1","99999,9","07,5,+00900,1,99,9","07,5,+01800,1,99,9",,"07,99,1,99,9,99,9,99999,9,99,9,99,9","10041,1,99999,9","16,1",,,,"MET064METAR ENDR 090910Z 24015KT 9999 VCSH BKN030 BKN060 04/M03 Q1004;",
"01023199999","2010-05-09T12:10:00","4","64.35","7.8","0.0","DRAUGEN, NO","FM-15","ENDR ","V020","280,1,N,0093,1","00450,1,C,N","011265,1,N,1","+0020,1","+0000,1","99999,9","07,5,+00450,1,99,9",,,"07,99,1,99,9,99,9,99999,9,99,9,99,9","10031,1,99999,9","16,1",,,,"MET057METAR ENDR 091210Z 28018KT 9999 VCSH BKN015 02/M00 Q1003;",
"01023199999","2010-05-09T15:10:00","4","64.35","7.8","0.0","DRAUGEN, NO","FM-15","ENDR ","V020","250,1,N,0041,1","01800,1,C,N","011265,1,N,1","+0040,1","-0020,1","99999,9","04,5,+00750,1,99,9","07,5,+01800,1,99,9","07,5,+03300,1,99,9","07,99,1,99,9,99,9,99999,9,99,9,99,9","10031,1,99999,9","16,1",,,,"MET071METAR ENDR 091510Z 25008KT 9999 VCSH SCT025 BKN060 BKN110 04/M02 Q1003;",
"01023199999","2010-05-09T15:50:00","4","64.35","7.8","0.0","DRAUGEN, NO","FM-15","ENDR ","V020","250,1,N,0051,1","03000,1,C,N","011265,1,N,1","+0050,1","-0060,1","99999,9","04,5,+00900,1,99,9","07,5,+03000,1,99,9",,"07,99,1,99,9,99,9,99999,9,99,9,99,9","10031,1,99999,9","16,1",,,,"MET064METAR ENDR 091550Z 25010KT 9999 VCSH SCT030 BKN100 05/M06 Q1003;",
"01023199999","2010-05-10T08:40:00","4","64.35","7.8","0.0","DRAUGEN, NO","FM-15","ENDR ","V020","250,1,N,0026,1","22000,1,9,N","011265,1,N,1","+0050,1","-0030,1","99999,9","02,5,+00900,1,99,9",,,"02,99,1,99,9,99,9,99999,9,99,9,99,9","10020,1,99999,9",,,,,"MET052METAR ENDR 100840Z 25005KT 9999 FEW030 05/M03 Q1002;",
"01023199999","2010-05-10T15:10:00","4","64.35","7.8","0.0","DRAUGEN, NO","FM-15","ENDR ","V020","200,1,N,0041,1","99999,9,9,Y","009900,1,N,1","+0060,1","-0010,1","99999,9",,,,,"10020,1,99999,9",,,,,"MET046METAR ENDR 101510Z 20008KT CAVOK 06/M01 Q1002;",
"01023199999","2010-05-10T15:50:00","4","64.35","7.8","0.0","DRAUGEN, NO","FM-15","ENDR ","V020","210,1,N,0036,1","22000,1,9,N","011265,1,N,1","+0060,1","+0000,1","99999,9","02,5,+00600,1,99,9",,,"02,99,1,99,9,99,9,99999,9,99,9,99,9","10020,1,99999,9",,,,,"MET052METAR ENDR 101550Z 21007KT 9999 FEW020 06/M00 Q1002;",
"01023199999","2010-05-11T04:50:00","4","64.35","7.8","0.0","DRAUGEN, NO","FM-15","ENDR ","V020","170,1,N,0072,1","00390,1,C,N","011265,1,N,1","+0040,1","+0010,1","99999,9","07,5,+00390,1,99,9",,,"07,99,1,99,9,99,9,99999,9,99,9,99,9","10010,1,99999,9","16,1",,,,"MET056METAR ENDR 110450Z 17014KT 9999 VCSH BKN013 04/01 Q1001;",
"01023199999","2010-05-11T06:10:00","4","64.35","7.8","0.0","DRAUGEN, NO","FM-15","ENDR ","V020","170,1,N,0093,1","00300,1,C,N","008000,1,N,1","+0010,1","+0010,1","99999,9","07,5,+00300,1,99,9",,,"07,99,1,99,9,99,9,99999,9,99,9,99,9","10010,1,99999,9","61,1","77,1",,,"MET057METAR ENDR 110610Z 17018KT 8000 -RASG BKN010 01/01 Q1001;",
"01023199999","2010-05-11T07:50:00","4","64.35","7.8","0.0","DRAUGEN, NO","FM-15","ENDR ","V020","200,1,N,0082,1","00300,1,C,N","011265,1,N,1","+0030,1","+0010,1","99999,9","07,5,+00300,1,99,9",,,"07,99,1,99,9,99,9,99999,9,99,9,99,9","10020,1,99999,9","61,1","77,1",,,"MET057METAR ENDR 110750Z 20016KT 9999 -RASG BKN010 03/01 Q1002;",
"01023199999","2010-05-11T09:10:00","4","64.35","7.8","0.0","DRAUGEN, NO","FM-15","ENDR ","V020","230,1,N,0098,1","22000,1,9,N","011265,1,N,1","+0050,1","+0000,1","99999,9","04,5,+00450,1,99,9",,,"04,99,1,99,9,99,9,99999,9,99,9,99,9","10031,1,99999,9","16,1",,,,"MET057METAR ENDR 110910Z 23019KT 9999 VCSH SCT015 05/M00 Q1003;",
"01023199999","2010-05-11T12:20:00","4","64.35","7.8","0.0","DRAUGEN, NO","FM-15","ENDR ","V020","230,1,N,0098,1","01650,5,C,N","011265,1,N,1","+0040,1","+0000,1","99999,9","04,5,+00450,1,99,9","07,5,+01650,5,99,9",,"07,99,1,99,9,99,9,99999,9,99,9,99,9","10051,1,99999,9","77,1","80,1",,,"MET066METAR ENDR 111220Z 23019KT 9999 -SHRASG SCT015 BKN055 04/00 Q1005;",
"01023199999","2010-05-11T15:10:00","4","64.35","7.8","0.0","DRAUGEN, NO","FM-15","ENDR ","V020","200,1,N,0190,1","00600,1,C,N","011265,1,N,1","+0060,1","+0000,1","99999,9","07,5,+00600,1,99,9",,,"07,99,1,99,9,99,9,99999,9,99,9,99,9","10061,1,99999,9","16,1",,,,"MET057METAR ENDR 111510Z 20037KT 9999 VCSH BKN020 06/M00 Q1006;",
"01023199999","2010-05-12T05:50:00","4","64.35","7.8","0.0","DRAUGEN, NO","FM-15","ENDR ","V020","210,1,N,0165,1","00750,1,C,N","011265,1,N,1","+0050,1","+0000,1","99999,9","07,5,+00750,1,99,9",,,"07,99,1,99,9,99,9,99999,9,99,9,99,9","10102,1,99999,9",,,,,"MET052METAR ENDR 120550Z 21032KT 9999 BKN025 05/M00 Q1010;",
"01023199999","2010-05-12T07:40:00","4","64.35","7.8","0.0","DRAUGEN, NO","FM-15","ENDR ","V020","220,1,N,0180,1","00660,1,C,N","011265,1,N,1","+0060,1","+0010,1","99999,9","07,5,+00660,1,99,9",,,"07,99,1,99,9,99,9,99999,9,99,9,99,9","10108,1,99999,9",,,,,"MET051METAR ENDR 120740Z 22035KT 9999 BKN022 06/01 Q1011;",
"01023199999","2010-05-12T08:20:00","4","64.35","7.8","0.0","DRAUGEN, NO","FM-15","ENDR ","V020","220,1,N,0180,1","00660,1,C,N","011265,1,N,1","+0060,1","+0010,1","99999,9","07,5,+00660,1,99,9",,,"07,99,1,99,9,99,9,99999,9,99,9,99,9","10108,1,99999,9",,,,,"MET051METAR ENDR 120820Z 22035KT 9999 BKN022 06/01 Q1011;",
"01023199999","2010-05-12T09:10:00","4","64.35","7.8","0.0","DRAUGEN, NO","FM-15","ENDR ","V020","210,1,N,0159,1","00660,1,C,N","011265,1,N,1","+0060,1","+0000,1","99999,9","07,5,+00660,1,99,9",,,"07,99,1,99,9,99,9,99999,9,99,9,99,9","10119,1,99999,9",,,,,"MET051METAR ENDR 120910Z 21031KT 9999 BKN022 06/00 Q1012;",
"01023199999","2010-05-12T12:10:00","4","64.35","7.8","0.0","DRAUGEN, NO","FM-15","ENDR ","V020","200,1,N,0134,1","00480,1,C,N","011265,1,N,1","+0070,1","+0020,1","99999,9","07,5,+00480,1,99,9",,,"07,99,1,99,9,99,9,99999,9,99,9,99,9","10129,1,99999,9",,,,,"MET051METAR ENDR 121210Z 20026KT 9999 BKN016 07/02 Q1013;",
"01023199999","2010-05-12T16:00:00","4","64.35","7.8","0.0","DRAUGEN, NO","FM-15","ENDR ","V020","260,1,N,0118,1","00810,1,C,N","011265,1,N,1","+0070,1","+0030,1","99999,9","04,5,+00450,1,99,9","07,5,+00810,1,99,9",,"07,99,1,99,9,99,9,99999,9,99,9,99,9","10149,1,99999,9",,,,,"MET058METAR ENDR 121600Z 26023KT 9999 SCT015 BKN027 07/03 Q1015;",
"01023199999","2010-05-13T05:20:00","4","64.35","7.8","0.0","DRAUGEN, NO","FM-15","ENDR ","V020","080,1,N,0103,1","22000,1,9,N","011265,1,N,1","+0080,1","+0030,1","99999,9","04,5,+05400,1,99,9",,,"04,99,1,99,9,99,9,99999,9,99,9,99,9","10149,1,99999,9",,,,,"MET051METAR ENDR 130520Z 08020KT 9999 SCT180 08/03 Q1015;",
"01023199999","2010-05-13T06:10:00","4","64.35","7.8","0.0","DRAUGEN, NO","FM-15","ENDR ","V020","080,1,N,0113,1","05400,1,C,N","011265,1,N,1","+0080,1","+0030,1","99999,9","07,5,+05400,1,99,9",,,"07,99,1,99,9,99,9,99999,9,99,9,99,9","10139,1,99999,9",,,,,"MET051METAR ENDR 130610Z 08022KT 9999 BKN180 08/03 Q1014;",
"01023199999","2010-05-13T12:10:00","4","64.35","7.8","0.0","DRAUGEN, NO","FM-15","ENDR ","V020","080,1,N,0103,1","22000,1,9,N","011265,1,N,1","+0110,1","+0030,1","99999,9","04,5,+02400,1,99,9",,,"04,99,1,99,9,99,9,99999,9,99,9,99,9","10108,1,99999,9",,,,,"MET051METAR ENDR 131210Z 08020KT 9999 SCT080 11/03 Q1011;",
"01023199999","2010-05-13T15:10:00","4","64.35","7.8","0.0","DRAUGEN, NO","FM-15","ENDR ","V020","090,1,N,0072,1","99999,9,9,Y","009900,1,N,1","+0120,1","+0030,1","99999,9",,,,,"10102,1,99999,9",,,,,"MET045METAR ENDR 131510Z 09014KT CAVOK 12/03 Q1010;",
"01023199999","2010-05-14T06:10:00","4","64.35","7.8","0.0","DRAUGEN, NO","FM-15","ENDR ","V020","020,1,N,0036,1","22000,1,9,N","011265,1,N,1","+0090,1","+0060,1","99999,9","04,5,+02400,1,99,9",,,"04,99,1,99,9,99,9,99999,9,99,9,99,9","10119,1,99999,9",,,,,"MET051METAR ENDR 140610Z 02007KT 9999 SCT080 09/06 Q1012;",
"01023199999","2010-05-14T09:10:00","4","64.35","7.8","0.0","DRAUGEN, NO","FM-15","ENDR ","V020","040,1,N,0041,1","99999,9,9,Y","009900,1,N,1","+0140,1","+0050,1","99999,9",,,,,"10129,1,99999,9",,,,,"MET045METAR ENDR 140910Z 04008KT CAVOK 14/05 Q1013;",
"01023199999","2010-05-14T10:40:00","4","64.35","7.8","0.0","DRAUGEN, NO","FM-15","ENDR ","V020","040,1,N,0051,1","99999,9,9,Y","009900,1,N,1","+0130,1","+0050,1","99999,9",,,,,"10129,1,99999,9",,,,,"MET045METAR ENDR 141040Z 04010KT CAVOK 13/05 Q1013;",
"01023199999","2010-05-14T11:40:00","4","64.35","7.8","0.0","DRAUGEN, NO","FM-15","ENDR ","V020","020,1,N,0051,1","99999,9,9,Y","009900,1,N,1","+0120,1","+0040,1","99999,9",,,,,"10129,1,99999,9",,,,,"MET045METAR ENDR 141140Z 02010KT CAVOK 12/04 Q1013;",
"01023199999","2010-05-14T14:50:00","4","64.35","7.8","0.0","DRAUGEN, NO","FM-15","ENDR ","V020","010,1,N,0072,1","99999,9,9,Y","009900,1,N,1","+0110,1","+0060,1","99999,9",,,,,"10129,1,99999,9",,,,,"MET045METAR ENDR 141450Z 01014KT CAVOK 11/06 Q1013;",
"01023199999","2010-05-15T05:50:00","4","64.35","7.8","0.0","DRAUGEN, NO","FM-15","ENDR ","V020","050,1,N,0051,1","00180,1,C,N","011265,1,N,1","+0090,1","+0070,1","99999,9","08,5,+00180,1,99,9",,,"08,99,1,99,9,99,9,99999,9,99,9,99,9","10119,1,99999,9",,,,,"MET051METAR ENDR 150550Z 05010KT 9999 OVC006 09/07 Q1012;",
"01023199999","2010-05-15T06:10:00","4","64.35","7.8","0.0","DRAUGEN, NO","FM-15","ENDR ","V020","060,1,N,0046,1","00150,1,C,N","011265,1,N,1","+0090,1","+0070,1","99999,9","08,5,+00150,1,99,9",,,"08,99,1,99,9,99,9,99999,9,99,9,99,9","10119,1,99999,9",,,,,"MET051METAR ENDR 150610Z 06009KT 9999 OVC005 09/07 Q1012;",
"01023199999","2010-05-15T06:40:00","4","64.35","7.8","0.0","DRAUGEN, NO","FM-15","ENDR ","V020","050,1,N,0046,1","00150,1,C,N","011265,1,N,1","+0090,1","+0070,1","99999,9","07,5,+00150,1,99,9","08,5,+00600,1,99,9",,"08,99,1,99,9,99,9,99999,9,99,9,99,9","10119,1,99999,9",,,,,"MET058METAR ENDR 150640Z 05009KT 9999 BKN005 OVC020 09/07 Q1012;",
"01023199999","2010-05-15T09:00:00","4","64.35","7.8","0.0","DRAUGEN, NO","FM-15","ENDR ","V020","040,1,N,0072,1","00390,1,C,N","011265,1,N,1","+0110,1","+0070,1","99999,9","02,5,+00120,1,99,9","04,5,+00390,1,99,9","07,5,+00960,1,99,9","07,99,1,99,9,99,9,99999,9,99,9,99,9","10119,1,99999,9",,,,,"MET065METAR ENDR 150900Z 04014KT 9999 FEW004 SCT013 BKN032 11/07 Q1012;",
"01023199999","2010-05-15T11:50:00","4","64.35","7.8","0.0","DRAUGEN, NO","FM-15","ENDR ","V020","050,1,N,0062,1","00120,1,C,N","011265,1,N,1","+0100,1","+0080,1","99999,9","07,5,+00120,1,99,9","07,5,+00900,1,99,9",,"07,99,1,99,9,99,9,99999,9,99,9,99,9","10119,1,99999,9",,,,,"MET058METAR ENDR 151150Z 05012KT 9999 BKN004 BKN030 10/08 Q1012;",
"01023199999","2010-05-15T12:10:00","4","64.35","7.8","0.0","DRAUGEN, NO","FM-15","ENDR ","V020","070,1,N,0046,1","00120,1,C,N","011265,1,N,1","+0100,1","+0080,1","99999,9","08,5,+00120,1,99,9",,,"08,99,1,99,9,99,9,99999,9,99,9,99,9","10119,1,99999,9",,,,,"MET051METAR ENDR 151210Z 07009KT 9999 OVC004 10/08 Q1012;",
"01023199999","2010-05-15T14:40:00","4","64.35","7.8","0.0","DRAUGEN, NO","FM-15","ENDR ","V020","030,1,N,0057,1","00090,1,C,N","003000,1,N,1","+0100,1","+0080,1","99999,9","07,5,+00090,1,99,9",,,"07,99,1,99,9,99,9,99999,9,99,9,99,9","10108,1,99999,9","12,1",,,,"MET056METAR ENDR 151440Z 03011KT 3000 MIFG BKN003 10/08 Q1011;",
"01023199999","2010-05-15T17:20:00","4","64.35","7.8","0.0","DRAUGEN, NO","FM-15","ENDR ","V020","040,1,N,0082,1","00900,1,C,N","011265,1,N,1","+0110,1","+0080,1","99999,9","02,5,+00090,1,99,9","07,5,+00900,1,99,9",,"07,99,1,99,9,99,9,99999,9,99,9,99,9","10102,1,99999,9","12,1",,,,"MET065METAR ENDR 151720Z 04016KT 9999 VCMIFG FEW003 BKN030 11/08 Q1010;",
"01023199999","2010-05-16T06:10:00","4","64.35","7.8","0.0","DRAUGEN, NO","FM-15","ENDR ","V020","120,1,N,0041,1","03900,1,C,N","011265,1,N,1","+0110,1","+0100,1","99999,9","07,5,+03900,1,99,9",,,"07,99,1,99,9,99,9,99999,9,99,9,99,9","10071,1,99999,9",,,,,"MET051METAR ENDR 160610Z 12008KT 9999 BKN130 11/10 Q1007;",
"01023199999","2010-05-16T09:10:00","4","64.35","7.8","0.0","DRAUGEN, NO","FM-15","ENDR ","V020","999,9,9,9999,9","22000,1,9,N","011265,1,N,1","+0170,1","+0100,1","99999,9","02,5,+03000,1,99,9",,,"02,99,1,99,9,99,9,99999,9,99,9,99,9","10071,1,99999,9",,,,,"MET043METAR ENDR 160910Z 9999 FEW100 17/10 Q1007;",
"01023199999","2010-05-16T12:10:00","4","64.35","7.8","0.0","DRAUGEN, NO","FM-15","ENDR ","V020","080,1,N,0098,1","99999,9,9,Y","009900,1,N,1","+0170,1","+0080,1","99999,9",,,,,"10061,1,99999,9",,,,,"MET045METAR ENDR 161210Z 08019KT CAVOK 17/08 Q1006;",
"01023199999","2010-05-16T15:10:00","4","64.35","7.8","0.0","DRAUGEN, NO","FM-15","ENDR ","V020","100,1,N,0134,1","22000,1,9,N","011265,1,N,1","+0160,1","+0080,1","99999,9","02,5,+03300,1,99,9",,,"02,99,1,99,9,99,9,99999,9,99,9,99,9","10041,1,99999,9",,,,,"MET051METAR ENDR 161510Z 10026KT 9999 FEW110 16/08 Q1004;",
"01023199999","2010-05-16T19:10:00","4","64.35","7.8","0.0","DRAUGEN, NO","FM-15","ENDR ","V020","120,1,N,0175,1","22000,1,9,N","011265,1,N,1","+0150,1","+0100,1","99999,9","02,5,+03900,1,99,9",,,"02,99,1,99,9,99,9,99999,9,99,9,99,9","10041,1,99999,9",,,,,"MET051METAR ENDR 161910Z 12034KT 9999 FEW130 15/10 Q1004;",
"01023199999","2010-05-17T05:40:00","4","64.35","7.8","0.0","DRAUGEN, NO","FM-15","ENDR ","V020","230,1,N,0087,1","00240,1,C,N","011265,1,N,1","+0080,1","+0080,1","99999,9","07,5,+00240,1,99,9",,,"07,99,1,99,9,99,9,99999,9,99,9,99,9","10091,1,99999,9",,,,,"MET051METAR ENDR 170540Z 23017KT 9999 BKN008 08/08 Q1009;",
"01023199999","2010-05-17T09:10:00","4","64.35","7.8","0.0","DRAUGEN, NO","FM-15","ENDR ","V020","260,1,N,0103,1","00270,1,C,N","011265,1,N,1","+0080,1","+0070,1","99999,9","07,5,+00270,1,99,9","07,5,+01800,1,99,9",,"07,99,1,99,9,99,9,99999,9,99,9,99,9","10129,1,99999,9",,,,,"MET058METAR ENDR 170910Z 26020KT 9999 BKN009 BKN060 08/07 Q1013;",
"01023199999","2010-05-17T13:40:00","4","64.35","7.8","0.0","DRAUGEN, NO","FM-15","ENDR ","V020","230,1,N,0093,1","00810,1,C,N","011265,1,N,1","+0090,1","+0060,1","99999,9","07,5,+00810,1,99,9","07,5,+02700,1,99,9",,"07,99,1,99,9,99,9,99999,9,99,9,99,9","10169,1,99999,9",,,,,"MET058METAR ENDR 171340Z 23018KT 9999 BKN027 BKN090 09/06 Q1017;",
"01023199999","2010-05-17T15:10:00","4","64.35","7.8","0.0","DRAUGEN, NO","FM-15","ENDR ","V020","230,1,N,0072,1","00330,1,C,N","011265,1,N,1","+0090,1","+0060,1","99999,9","07,5,+00330,1,99,9","04,5,+01050,1,99,9","07,5,+02700,1,99,9","07,99,1,99,9,99,9,99999,9,99,9,99,9","10180,1,99999,9",,,,,"MET065METAR ENDR 171510Z 23014KT 9999 BKN011 SCT035 BKN090 09/06 Q1018;",
"01023199999","2010-05-17T17:40:00","4","64.35","7.8","0.0","DRAUGEN, NO","FM-15","ENDR ","V020","220,1,N,0057,1","01050,1,C,N","011265,1,N,1","+0090,1","+0060,1","99999,9","04,5,+00240,1,99,9","04,5,+01050,1,99,9","07,5,+02700,1,99,9","07,99,1,99,9,99,9,99999,9,99,9,99,9","10190,1,99999,9",,,,,"MET065METAR ENDR 171740Z 22011KT 9999 SCT008 SCT035 BKN090 09/06 Q1019;",
"01023199999","2010-05-18T06:40:00","4","64.35","7.8","0.0","DRAUGEN, NO","FM-15","ENDR ","V020","220,1,N,0041,1","99999,9,9,Y","009900,1,N,1","+0080,1","+0070,1","99999,9",,,,,"10271,1,99999,9",,,,,"MET045METAR ENDR 180640Z 22008KT CAVOK 08/07 Q1027;",
"01023199999","2010-05-18T08:40:00","4","64.35","7.8","0.0","DRAUGEN, NO","FM-15","ENDR ","V020","250,1,N,0031,1","22000,1,9,N","011265,1,N,1","+0100,1","+0070,1","99999,9","04,5,+01200,1,99,9",,,"04,99,1,99,9,99,9,99999,9,99,9,99,9","10281,1,99999,9",,,,,"MET051METAR ENDR 180840Z 25006KT 9999 SCT040 10/07 Q1028;",
"01023199999","2010-05-18T09:50:00","4","64.35","7.8","0.0","DRAUGEN, NO","FM-15","ENDR ","V020","290,1,N,0046,1","99999,9,9,Y","009900,1,N,1","+0100,1","+0060,1","99999,9",,,,,"10281,1,99999,9",,,,,"MET045METAR ENDR 180950Z 29009KT CAVOK 10/06 Q1028;",
"01023199999","2010-05-18T14:40:00","4","64.35","7.8","0.0","DRAUGEN, NO","FM-15","ENDR ","V020","020,1,N,0041,1","99999,9,9,Y","009900,1,N,1","+0140,1","+0070,1","99999,9",,,,,"10301,1,99999,9",,,,,"MET045METAR ENDR 181440Z 02008KT CAVOK 14/07 Q1030;",
"01023199999","2010-05-19T09:10:00","4","64.35","7.8","0.0","DRAUGEN, NO","FM-15","ENDR ","V020","050,1,N,0113,1","99999,9,C,N","011265,1,N,1","+0100,1","+0060,1","99999,9","04,5,+00240,1,99,9","04,5,+02100,1,99,9",,"04,99,1,99,9,99,9,99999,9,99,9,99,9","10271,1,99999,9",,,,,"MET058METAR ENDR 190910Z 05022KT 9999 SCT008 SCT070 10/06 Q1027;","P01 021003SCOCIG"
"01023199999","2010-05-19T12:10:00","4","64.35","7.8","0.0","DRAUGEN, NO","FM-15","ENDR ","V020","050,1,N,0072,1","22000,1,9,N","011265,1,N,1","+0110,1","+0070,1","99999,9","02,5,+00210,1,99,9",,,"02,99,1,99,9,99,9,99999,9,99,9,99,9","10261,1,99999,9",,,,,"MET051METAR ENDR 191210Z 05014KT 9999 FEW007 11/07 Q1026;",
"01023199999","2010-05-20T06:00:00","4","64.35","7.8","0.0","DRAUGEN, NO","FM-15","ENDR ","V020","260,1,N,0062,1","00390,1,C,N","011265,1,N,1","+0090,1","+0060,1","99999,9","08,5,+00390,1,99,9",,,"08,99,1,99,9,99,9,99999,9,99,9,99,9","10291,1,99999,9",,,,,"MET051METAR ENDR 200600Z 26012KT 9999 OVC013 09/06 Q1029;",
"01023199999","2010-05-20T15:10:00","4","64.35","7.8","0.0","DRAUGEN, NO","FM-15","ENDR ","V020","360,1,N,0031,1","00480,1,C,N","011265,1,N,1","+0130,1","+0060,1","99999,9","02,5,+00450,1,99,9","07,5,+00480,1,99,9",,"07,99,1,99,9,99,9,99999,9,99,9,99,9","10318,1,99999,9",,,,,"MET058METAR ENDR 201510Z 36006KT 9999 FEW015 BKN016 13/06 Q1032;",
"01023199999","2010-05-21T06:20:00","4","64.35","7.8","0.0","DRAUGEN, NO","FM-15","ENDR ","V020","070,1,N,0046,1","22000,1,9,N","011265,1,N,1","+0110,1","+0060,1","99999,9","02,5,+00300,1,99,9",,,"02,99,1,99,9,99,9,99999,9,99,9,99,9","10312,1,99999,9",,,,,"MET051METAR ENDR 210620Z 07009KT 9999 FEW010 11/06 Q1031;",
"01023199999","2010-05-21T09:10:00","4","64.35","7.8","0.0","DRAUGEN, NO","FM-15","ENDR ","V020","080,1,N,0057,1","99999,9,9,Y","009900,1,N,1","+0130,1","+0050,1","99999,9",,,,,"10312,1,99999,9",,,,,"MET045METAR ENDR 210910Z 08011KT CAVOK 13/05 Q1031;",
"01023199999","2010-05-21T12:10:00","4","64.35","7.8","0.0","DRAUGEN, NO","FM-15","ENDR ","V020","070,1,N,0051,1","99999,9,9,Y","009900,1,N,1","+0140,1","+0050,1","99999,9",,,,,"10301,1,99999,9",,,,,"MET045METAR ENDR 211210Z 07010KT CAVOK 14/05 Q1030;",
"01023199999","2010-05-22T06:10:00","4","64.35","7.8","0.0","DRAUGEN, NO","FM-15","ENDR ","V020","250,1,N,0103,1","22000,1,9,N","003000,1,N,1","+0090,1","+0090,1","99999,9",,,,,"10230,1,99999,9","10,1",,,,"MET047METAR ENDR 220610Z 25020KT 3000 BR 09/09 Q1023;",
"01023199999","2010-05-22T09:20:00","4","64.35","7.8","0.0","DRAUGEN, NO","FM-15","ENDR ","V020","250,1,N,0098,1","00060,1,C,N","001000,1,N,1","+0090,1","+0090,1","99999,9","08,5,+00060,1,99,9",,,"08,99,1,99,9,99,9,99999,9,99,9,99,9","10230,1,99999,9","44,1","53,1",,,"MET057METAR ENDR 220920Z 25019KT 1000 DZ FG OVC002 09/09 Q1023;",
"01023199999","2010-05-22T12:20:00","4","64.35","7.8","0.0","DRAUGEN, NO","FM-15","ENDR ","V020","270,1,N,0077,1","00150,1,C,N","009000,1,N,1","+0090,1","+0090,1","99999,9","08,5,+00150,1,99,9",,,"08,99,1,99,9,99,9,99999,9,99,9,99,9","10230,1,99999,9","51,1",,,,"MET055METAR ENDR 221220Z 27015KT 9000 -DZ OVC005 09/09 Q1023;",
"01023199999","2010-05-23T06:20:00","4","64.35","7.8","0.0","DRAUGEN, NO","FM-15","ENDR ","V020","270,1,N,0077,1","01200,1,C,N","011265,1,N,1","+0090,1","+0050,1","99999,9","04,5,+00450,1,99,9","07,5,+01200,1,99,9",,"07,99,1,99,9,99,9,99999,9,99,9,99,9","10159,1,99999,9","80,1",,,,"MET064METAR ENDR 230620Z 27015KT 9999 -SHRA SCT015 BKN040 09/05 Q1016;",
"01023199999","2010-05-23T09:20:00","4","64.35","7.8","0.0","DRAUGEN, NO","FM-15","ENDR ","V020","300,1,N,0046,1","01200,1,C,N","011265,1,N,1","+0080,1","+0020,1","99999,9","02,5,+00600,1,99,9","07,5,+01200,1,99,9",,"07,99,1,99,9,99,9,99999,9,99,9,99,9","10159,1,99999,9",,,,,"MET058METAR ENDR 230920Z 30009KT 9999 FEW020 BKN040 08/02 Q1016;",
"01023199999","2010-05-23T12:20:00","4","64.35","7.8","0.0","DRAUGEN, NO","FM-15","ENDR ","V020","350,1,N,0010,1","00750,1,C,N","011265,1,N,1","+0100,1","+0020,1","99999,9","07,5,+00750,1,99,9",,,"07,99,1,99,9,99,9,99999,9,99,9,99,9","10149,1,99999,9",,,,,"MET051METAR ENDR 231220Z 35002KT 9999 BKN025 10/02 Q1015;",
"01023199999","2010-05-23T15:20:00","4","64.35","7.8","0.0","DRAUGEN, NO","FM-15","ENDR ","V020","010,1,N,0036,1","01800,1,C,N","011265,1,N,1","+0110,1","+0030,1","99999,9","04,5,+00750,1,99,9","07,5,+01800,1,99,9",,"07,99,1,99,9,99,9,99999,9,99,9,99,9","10129,1,99999,9",,,,,"MET058METAR ENDR 231520Z 01007KT 9999 SCT025 BKN060 11/03 Q1013;",
"01023199999","2010-05-24T06:20:00","4","64.35","7.8","0.0","DRAUGEN, NO","FM-15","ENDR ","V020","010,1,N,0036,1","01800,1,C,N","011265,1,N,1","+0070,1","+0030,1","99999,9","04,5,+00450,1,99,9","07,5,+01800,1,99,9",,"07,99,1,99,9,99,9,99999,9,99,9,99,9","10071,1,99999,9","51,1",,,,"MET062METAR ENDR 240620Z 01007KT 9999 -DZ SCT015 BKN060 07/03 Q1007;",
"01023199999","2010-05-24T08:40:00","4","64.35","7.8","0.0","DRAUGEN, NO","FM-15","ENDR ","V020","350,1,N,0026,1","00510,1,C,N","011265,1,N,1","+0080,1","+0020,1","99999,9","07,5,+00510,1,99,9",,,"07,99,1,99,9,99,9,99999,9,99,9,99,9","10071,1,99999,9","80,1",,,,"MET057METAR ENDR 240840Z 35005KT 9999 -SHRA BKN017 08/02 Q1007;",
"01023199999","2010-05-24T09:20:00","4","64.35","7.8","0.0","DRAUGEN, NO","FM-15","ENDR ","V020","340,1,N,0021,1","00900,1,C,N","011265,1,N,1","+0080,1","+0020,1","99999,9","07,5,+00900,1,99,9",,,"07,99,1,99,9,99,9,99999,9,99,9,99,9","10071,1,99999,9","16,1",,,,"MET064METAR ENDR 240920Z 34004KT 270V030 9999 VCSH BKN030 08/02 Q1007;",
"01023199999","2010-05-24T12:10:00","4","64.35","7.8","0.0","DRAUGEN, NO","FM-15","ENDR ","V020","310,1,N,0057,1","00900,1,C,N","011265,1,N,1","+0080,1","+0020,1","99999,9","07,5,+00900,1,99,9",,,"07,99,1,99,9,99,9,99999,9,99,9,99,9","10061,1,99999,9","16,1",,,,"MET056METAR ENDR 241210Z 31011KT 9999 VCSH BKN030 08/02 Q1006;",
"01023199999","2010-05-24T14:10:00","4","64.35","7.8","0.0","DRAUGEN, NO","FM-15","ENDR ","V020","010,1,N,0057,1","02700,1,C,N","011265,1,N,1","+0080,1","+0030,1","99999,9","04,5,+00600,1,99,9","07,5,+02700,1,99,9",,"07,99,1,99,9,99,9,99999,9,99,9,99,9","10051,1,99999,9","81,1",,,,"MET063METAR ENDR 241410Z 01011KT 9999 SHRA SCT020 BKN090 08/03 Q1005;",
"01023199999","2010-05-24T15:20:00","4","64.35","7.8","0.0","DRAUGEN, NO","FM-15","ENDR ","V020","320,1,N,0031,1","00600,1,C,N","011265,1,N,1","+0100,1","+0020,1","99999,9","07,5,+00600,1,99,9",,,"07,99,1,99,9,99,9,99999,9,99,9,99,9","10051,1,99999,9",,,,,"MET051METAR ENDR 241520Z 32006KT 9999 BKN020 10/02 Q1005;",
"01023199999","2010-05-25T06:20:00","4","64.35","7.8","0.0","DRAUGEN, NO","FM-15","ENDR ","V020","280,1,N,0031,1","22000,1,9,N","011265,1,N,1","+0070,1","+0010,1","99999,9","04,5,+00750,1,99,9",,,"04,99,1,99,9,99,9,99999,9,99,9,99,9","10031,1,99999,9",,,,,"MET051METAR ENDR 250620Z 28006KT 9999 SCT025 07/01 Q1003;",
"01023199999","2010-05-25T16:40:00","4","64.35","7.8","0.0","DRAUGEN, NO","FM-15","ENDR ","V020","310,1,N,0036,1","22000,1,9,N","011265,1,N,1","+0090,1","+0010,1","99999,9","04,5,+00750,1,99,9",,,"04,99,1,99,9,99,9,99999,9,99,9,99,9","10051,1,99999,9",,,,,"MET051METAR ENDR 251640Z 31007KT 9999 SCT025 09/01 Q1005;",
"01023199999","2010-05-26T08:20:00","4","64.35","7.8","0.0","DRAUGEN, NO","FM-15","ENDR ","V020","280,1,N,0015,1","99999,9,9,Y","009900,1,N,1","+0100,1","+0000,1","99999,9",,,,,"10081,1,99999,9",,,,,"MET045METAR ENDR 260820Z 28003KT CAVOK 10/00 Q1008;",
"01023199999","2010-05-26T11:40:00","4","64.35","7.8","0.0","DRAUGEN, NO","FM-15","ENDR ","V020","290,1,N,0015,1","99999,9,9,Y","009900,1,N,1","+0120,1","+0010,1","99999,9",,,,,"10091,1,99999,9",,,,,"MET045METAR ENDR 261140Z 29003KT CAVOK 12/01 Q1009;",
"01023199999","2010-05-26T12:10:00","4","64.35","7.8","0.0","DRAUGEN, NO","FM-15","ENDR ","V020","020,1,N,0005,1","99999,9,9,Y","009900,1,N,1","+0110,1","+0010,1","99999,9",,,,,"10102,1,99999,9",,,,,"MET045METAR ENDR 261210Z 02001KT CAVOK 11/01 Q1010;",
"01023199999","2010-05-26T15:10:00","4","64.35","7.8","0.0","DRAUGEN, NO","FM-16","ENDR ","V020","030,1,N,0031,1","22000,1,9,N","999999,9,N,1","+0130,1","+0010,1","99999,9","02,5,+00900,5,99,9",,,,"10100,1,99999,9",,,,,"MET046METAR ENDR 261510Z 03006KT FEW030 13/01 Q1010;",
"01023199999","2010-05-26T16:20:00","4","64.35","7.8","0.0","DRAUGEN, NO","FM-15","ENDR ","V020","030,1,N,0036,1","22000,1,9,N","999999,9,N,1","+0120,1","+0010,1","99999,9","02,5,+01050,5,99,9",,,,"10100,1,99999,9",,,,,"MET046METAR ENDR 261620Z 03007KT FEW035 12/01 Q1010;",
"01023199999","2010-05-27T08:20:00","4","64.35","7.8","0.0","DRAUGEN, NO","FM-15","ENDR ","V020","100,1,N,0067,1","22000,1,9,N","011265,1,N,1","+0100,1","+0070,1","99999,9","04,5,+00300,1,99,9",,,"04,99,1,99,9,99,9,99999,9,99,9,99,9","10071,1,99999,9",,,,,"MET051METAR ENDR 270820Z 10013KT 9999 SCT010 10/07 Q1007;",
"01023199999","2010-05-27T11:10:00","4","64.35","7.8","0.0","DRAUGEN, NO","FM-15","ENDR ","V020","100,1,N,0062,1","99999,9,9,Y","009900,1,N,1","+0100,1","+0060,1","99999,9",,,,,"10081,1,99999,9",,,,,"MET045METAR ENDR 271110Z 10012KT CAVOK 10/06 Q1008;",
"01023199999","2010-05-27T14:10:00","4","64.35","7.8","0.0","DRAUGEN, NO","FM-15","ENDR ","V020","080,1,N,0036,1","99999,9,9,Y","009900,1,N,1","+0140,1","+0070,1","99999,9",,,,,"10081,1,99999,9",,,,,"MET045METAR ENDR 271410Z 08007KT CAVOK 14/07 Q1008;",
"01023199999","2010-05-27T15:20:00","4","64.35","7.8","0.0","DRAUGEN, NO","FM-15","ENDR ","V020","060,1,N,0026,1","99999,9,9,Y","009900,1,N,1","+0150,1","+0070,1","99999,9",,,,,"10081,1,99999,9",,,,,"MET045METAR ENDR 271520Z 06005KT CAVOK 15/07 Q1008;",
"01023199999","2010-05-27T17:10:00","4","64.35","7.8","0.0","DRAUGEN, NO","FM-15","ENDR ","V020","040,1,N,0046,1","99999,9,9,Y","009900,1,N,1","+0140,1","+0080,1","99999,9",,,,,"10081,1,99999,9",,,,,"MET045METAR ENDR 271710Z 04009KT CAVOK 14/08 Q1008;",
"01023199999","2010-05-27T18:40:00","4","64.35","7.8","0.0","DRAUGEN, NO","FM-15","ENDR ","V020","040,1,N,0026,1","99999,9,9,Y","009900,1,N,1","+0120,1","+0080,1","99999,9",,,,,"10091,1,99999,9",,,,,"MET045METAR ENDR 271840Z 04005KT CAVOK 12/08 Q1009;",
"01023199999","2010-05-28T06:20:00","4","64.35","7.8","0.0","DRAUGEN, NO","FM-15","ENDR ","V020","030,1,N,0051,1","99999,9,9,Y","009900,1,N,1","+0110,1","+0090,1","99999,9",,,,,"10081,1,99999,9",,,,,"MET045METAR ENDR 280620Z 03010KT CAVOK 11/09 Q1008;",
"01023199999","2010-05-28T09:10:00","4","64.35","7.8","0.0","DRAUGEN, NO","FM-15","ENDR ","V020","090,1,N,0041,1","01800,1,C,N","011265,1,N,1","+0120,1","+0090,1","99999,9","04,5,+00900,1,99,9","07,5,+01800,1,99,9",,"07,99,1,99,9,99,9,99999,9,99,9,99,9","10091,1,99999,9",,,,,"MET058METAR ENDR 280910Z 09008KT 9999 SCT030 BKN060 12/09 Q1009;",
"01023199999","2010-05-28T12:10:00","4","64.35","7.8","0.0","DRAUGEN, NO","FM-16","ENDR ","V020","050,1,N,0026,1","00900,5,9,N","999999,9,N,1","+0110,1","+0080,1","99999,9","08,5,+00900,5,99,9",,,,"10090,1,99999,9",,,,,"MET050METAR ENDR 281210Z 05005KT -RA OVC030 11/08 Q1009;",
"01023199999","2010-05-29T06:10:00","4","64.35","7.8","0.0","DRAUGEN, NO","FM-15","ENDR ","V020","280,1,N,0041,1","00600,1,C,N","005000,1,N,1","+0100,1","+0090,1","99999,9","08,5,+00600,1,99,9",,,"08,99,1,99,9,99,9,99999,9,99,9,99,9","10071,1,99999,9","10,1","61,1",,,"MET058METAR ENDR 290610Z 28008KT 5000 -RA BR OVC020 10/09 Q1007;",
"01023199999","2010-05-29T09:10:00","4","64.35","7.8","0.0","DRAUGEN, NO","FM-15","ENDR ","V020","270,1,N,0067,1","00900,1,C,N","011265,1,N,1","+0110,1","+0090,1","99999,9","02,5,+00300,1,99,9","07,5,+00900,1,99,9",,"07,99,1,99,9,99,9,99999,9,99,9,99,9","10071,1,99999,9",,,,,"MET058METAR ENDR 290910Z 27013KT 9999 FEW010 BKN030 11/09 Q1007;",
"01023199999","2010-05-29T12:10:00","4","64.35","7.8","0.0","DRAUGEN, NO","FM-15","ENDR ","V020","350,1,N,0031,1","99999,9,9,Y","009900,1,N,1","+0120,1","+0060,1","99999,9",,,,,"10081,1,99999,9",,,,,"MET045METAR ENDR 291210Z 35006KT CAVOK 12/06 Q1008;",
"01023199999","2010-05-29T15:20:00","4","64.35","7.8","0.0","DRAUGEN, NO","FM-15","ENDR ","V020","320,1,N,0031,1","99999,9,9,Y","009900,1,N,1","+0120,1","+0060,1","99999,9",,,,,"10091,1,99999,9",,,,,"MET045METAR ENDR 291520Z 32006KT CAVOK 12/06 Q1009;",
"01023199999","2010-05-29T16:50:00","4","64.35","7.8","0.0","DRAUGEN, NO","FM-15","ENDR ","V020","310,1,N,0046,1","99999,9,9,Y","009900,1,N,1","+0120,1","+0060,1","99999,9",,,,,"10102,1,99999,9",,,,,"MET045METAR ENDR 291650Z 31009KT CAVOK 12/06 Q1010;",
"01023199999","2010-05-30T06:20:00","4","64.35","7.8","0.0","DRAUGEN, NO","FM-15","ENDR ","V020","010,1,N,0062,1","00900,1,C,N","011265,1,N,1","+0100,1","+0060,1","99999,9","07,5,+00900,1,99,9",,,"07,99,1,99,9,99,9,99999,9,99,9,99,9","10129,1,99999,9",,,,,"MET051METAR ENDR 300620Z 01012KT 9999 BKN030 10/06 Q1013;",
"01023199999","2010-05-30T09:10:00","4","64.35","7.8","0.0","DRAUGEN, NO","FM-15","ENDR ","V020","020,1,N,0057,1","00750,1,C,N","011265,1,N,1","+0100,1","+0040,1","99999,9","07,5,+00750,1,99,9",,,"07,99,1,99,9,99,9,99999,9,99,9,99,9","10139,1,99999,9",,,,,"MET051METAR ENDR 300910Z 02011KT 9999 BKN025 10/04 Q1014;",
"01023199999","2010-05-30T12:10:00","4","64.35","7.8","0.0","DRAUGEN, NO","FM-15","ENDR ","V020","010,1,N,0051,1","00750,1,C,N","011265,1,N,1","+0110,1","+0030,1","99999,9","07,5,+00750,1,99,9",,,"07,99,1,99,9,99,9,99999,9,99,9,99,9","10149,1,99999,9",,,,,"MET051METAR ENDR 301210Z 01010KT 9999 BKN025 11/03 Q1015;",
"01023199999","2010-05-30T15:10:00","4","64.35","7.8","0.0","DRAUGEN, NO","FM-15","ENDR ","V020","360,1,N,0046,1","00900,1,C,N","011265,1,N,1","+0110,1","+0020,1","99999,9","07,5,+00900,1,99,9",,,"07,99,1,99,9,99,9,99999,9,99,9,99,9","10159,1,99999,9",,,,,"MET051METAR ENDR 301510Z 36009KT 9999 BKN030 11/02 Q1016;",
"01023199999","2010-05-31T05:40:00","4","64.35","7.8","0.0","DRAUGEN, NO","FM-15","ENDR ","V020","300,1,N,0072,1","01020,1,C,N","011265,1,N,1","+0080,1","+0000,1","99999,9","08,5,+01020,1,99,9",,,"08,99,1,99,9,99,9,99999,9,99,9,99,9","10180,1,99999,9",,,,,"MET051METAR ENDR 310540Z 30014KT 9999 OVC034 08/00 Q1018;",
"01023199999","2010-05-31T06:10:00","4","64.35","7.8","0.0","DRAUGEN, NO","FM-15","ENDR ","V020","290,1,N,0046,1","01020,1,C,N","011265,1,N,1","+0080,1","+0010,1","99999,9","07,5,+01020,1,99,9",,,"07,99,1,99,9,99,9,99999,9,99,9,99,9","10190,1,99999,9",,,,,"MET051METAR ENDR 310610Z 29009KT 9999 BKN034 08/01 Q1019;",
"01023199999","2010-05-31T07:40:00","4","64.35","7.8","0.0","DRAUGEN, NO","FM-15","ENDR ","V020","280,1,N,0057,1","00960,1,C,N","011265,1,N,1","+0080,1","+0010,1","99999,9","07,5,+00960,1,99,9",,,"07,99,1,99,9,99,9,99999,9,99,9,99,9","10190,1,99999,9",,,,,"MET051METAR ENDR 310740Z 28011KT 9999 BKN032 08/01 Q1019;",
"01023199999","2010-05-31T12:20:00","4","64.35","7.8","0.0","DRAUGEN, NO","FM-15","ENDR ","V020","280,1,N,0072,1","00960,1,C,N","011265,1,N,1","+0090,1","+0020,1","99999,9","07,5,+00960,1,99,9",,,"07,99,1,99,9,99,9,99999,9,99,9,99,9","10200,1,99999,9",,,,,"MET051METAR ENDR 311220Z 28014KT 9999 BKN032 09/02 Q1020;",
"01023199999","2010-05-31T15:20:00","4","64.35","7.8","0.0","DRAUGEN, NO","FM-15","ENDR ","V020","280,1,N,0077,1","00600,1,C,N","011265,1,N,1","+0070,1","+0040,1","99999,9","07,5,+00600,1,99,9",,,"07,99,1,99,9,99,9,99999,9,99,9,99,9","10210,1,99999,9","80,1",,,,"MET057METAR ENDR 311520Z 28015KT 9999 -SHRA BKN020 07/04 Q1021;",
"01023199999","2010-06-01T06:20:00","4","64.35","7.8","0.0","DRAUGEN, NO","FM-15","ENDR ","V020","060,1,N,0051,1","01050,1,C,N","011265,1,N,1","+0100,1","+0000,1","99999,9","07,5,+01050,1,99,9",,,"07,99,1,99,9,99,9,99999,9,99,9,99,9","10190,1,99999,9",,,,,"MET052METAR ENDR 010620Z 06010KT 9999 BKN035 10/M00 Q1019;",
"01023199999","2010-06-01T09:20:00","4","64.35","7.8","0.0","DRAUGEN, NO","FM-15","ENDR ","V020","060,1,N,0051,1","00990,1,C,N","011265,1,N,1","+0100,1","+0000,1","99999,9","07,5,+00990,1,99,9",,,"07,99,1,99,9,99,9,99999,9,99,9,99,9","10190,1,99999,9",,,,,"MET052METAR ENDR 010920Z 06010KT 9999 BKN033 10/M00 Q1019;",
"01023199999","2010-06-01T12:10:00","4","64.35","7.8","0.0","DRAUGEN, NO","FM-15","ENDR ","V020","070,1,N,0077,1","99999,9,9,Y","009900,1,N,1","+0120,1","+0020,1","99999,9",,,,,"10169,1,99999,9",,,,,"MET045METAR ENDR 011210Z 07015KT CAVOK 12/02 Q1017;",
"01023199999","2010-06-01T14:40:00","4","64.35","7.8","0.0","DRAUGEN, NO","FM-15","ENDR ","V020","060,1,N,0072,1","99999,9,9,Y","009900,1,N,1","+0130,1","+0040,1","99999,9",,,,,"10159,1,99999,9",,,,,"MET045METAR ENDR 011440Z 06014KT CAVOK 13/04 Q1016;",
"01023199999","2010-06-01T16:20:00","4","64.35","7.8","0.0","DRAUGEN, NO","FM-15","ENDR ","V020","060,1,N,0087,1","99999,9,9,Y","009900,1,N,1","+0120,1","+0050,1","99999,9",,,,,"10159,1,99999,9",,,,,"MET045METAR ENDR 011620Z 06017KT CAVOK 12/05 Q1016;",
"01023199999","2010-06-02T09:20:00","4","64.35","7.8","0.0","DRAUGEN, NO","FM-15","ENDR ","V020","160,1,N,0093,1","01500,1,C,N","011265,1,N,1","+0090,1","+0080,1","99999,9","07,5,+01500,1,99,9",,,"07,99,1,99,9,99,9,99999,9,99,9,99,9","10129,1,99999,9",,,,,"MET051METAR ENDR 020920Z 16018KT 9999 BKN050 09/08 Q1013;",
"01023199999","2010-06-02T12:10:00","4","64.35","7.8","0.0","DRAUGEN, NO","FM-15","ENDR ","V020","200,1,N,0098,1","01050,1,C,N","011265,1,N,1","+0100,1","+0070,1","99999,9","07,5,+01050,1,99,9",,,"07,99,1,99,9,99,9,99999,9,99,9,99,9","10119,1,99999,9","61,1",,,,"MET055METAR ENDR 021210Z 20019KT 9999 -RA BKN035 10/07 Q1012;",
"01023199999","2010-06-02T12:40:00","4","64.35","7.8","0.0","DRAUGEN, NO","FM-15","ENDR ","V020","210,1,N,0123,1","01020,1,C,N","011265,1,N,1","+0090,1","+0080,1","99999,9","07,5,+01020,1,99,9",,,"07,99,1,99,9,99,9,99999,9,99,9,99,9","10119,1,99999,9","61,1",,,,"MET055METAR ENDR 021240Z 21024KT 9999 -RA BKN034 09/08 Q1012;",
"01023199999","2010-06-02T14:50:00","4","64.35","7.8","0.0","DRAUGEN, NO","FM-15","ENDR ","V020","200,1,N,0129,1","00300,1,C,N","011265,1,N,1","+0100,1","+0090,1","99999,9","08,5,+00300,1,99,9",,,"08,99,1,99,9,99,9,99999,9,99,9,99,9","10119,1,99999,9","61,1",,,,"MET055METAR ENDR 021450Z 20025KT 9999 -RA OVC010 10/09 Q1012;",
"01023199999","2010-06-02T15:20:00","4","64.35","7.8","0.0","DRAUGEN, NO","FM-15","ENDR ","V020","210,1,N,0123,1","00300,1,C,N","009000,1,N,1","+0100,1","+0090,1","99999,9","08,5,+00300,1,99,9",,,"08,99,1,99,9,99,9,99999,9,99,9,99,9","10108,1,99999,9","61,1",,,,"MET055METAR ENDR 021520Z 21024KT 9000 -RA OVC010 10/09 Q1011;",
"01023199999","2010-06-03T06:10:00","4","64.35","7.8","0.0","DRAUGEN, NO","FM-15","ENDR ","V020","280,1,N,0113,1","00660,1,C,N","011265,1,N,1","+0100,1","+0080,1","99999,9","04,5,+00300,1,99,9","07,5,+00660,1,99,9",,"07,99,1,99,9,99,9,99999,9,99,9,99,9","10119,1,99999,9","16,1","61,1",,,"MET067METAR ENDR 030610Z 28022KT 9999 -RA VCSH SCT010 BKN022 10/08 Q1012;",
"01023199999","2010-06-03T08:10:00","4","64.35","7.8","0.0","DRAUGEN, NO","FM-15","ENDR ","V020","290,1,N,0118,1","00660,1,C,N","011265,1,N,1","+0100,1","+0060,1","99999,9","02,5,+00450,1,99,9","07,5,+00660,1,99,9","07,5,+01650,5,99,9","07,99,1,99,9,99,9,99999,9,99,9,99,9","10139,1,99999,9",,,,,"MET065METAR ENDR 030810Z 29023KT 9999 FEW015 BKN022 BKN055 10/06 Q1014;",
"01023199999","2010-06-03T12:20:00","4","64.35","7.8","0.0","DRAUGEN, NO","FM-15","ENDR ","V020","310,1,N,0108,1","00600,1,C,N","011265,1,N,1","+0100,1","+0040,1","99999,9","07,5,+00600,1,99,9",,,"07,99,1,99,9,99,9,99999,9,99,9,99,9","10180,1,99999,9",,,,,"MET051METAR ENDR 031220Z 31021KT 9999 BKN020 10/04 Q1018;",
"01023199999","2010-06-03T15:20:00","4","64.35","7.8","0.0","DRAUGEN, NO","FM-15","ENDR ","V020","300,1,N,0087,1","22000,1,9,N","011265,1,N,1","+0100,1","+0050,1","99999,9","02,5,+00600,1,99,9",,,"02,99,1,99,9,99,9,99999,9,99,9,99,9","10200,1,99999,9",,,,,"MET051METAR ENDR 031520Z 30017KT 9999 FEW020 10/05 Q1020;",
"01023199999","2010-06-04T06:10:00","4","64.35","7.8","0.0","DRAUGEN, NO","FM-15","ENDR ","V020","350,1,N,0077,1","22000,1,9,N","011265,1,N,1","+0090,1","+0010,1","99999,9","04,5,+00750,1,99,9",,,"04,99,1,99,9,99,9,99999,9,99,9,99,9","10230,1,99999,9",,,,,"MET051METAR ENDR 040610Z 35015KT 9999 SCT025 09/01 Q1023;",
"01023199999","2010-06-04T12:20:00","4","64.35","7.8","0.0","DRAUGEN, NO","FM-15","ENDR ","V020","310,1,N,0041,1","99999,9,C,N","011265,1,N,1","+0100,1","+0020,1","99999,9","04,5,+00750,1,99,9","04,5,+01200,1,99,9",,"04,99,1,99,9,99,9,99999,9,99,9,99,9","10251,1,99999,9",,,,,"MET058METAR ENDR 041220Z 31008KT 9999 SCT025 SCT040 10/02 Q1025;","P01 012003SCOCIG"
"01023199999","2010-06-04T12:40:00","4","64.35","7.8","0.0","DRAUGEN, NO","FM-15","ENDR ","V020","340,1,N,0036,1","00660,1,C,N","011265,1,N,1","+0090,1","+0020,1","99999,9","07,5,+00660,1,99,9",,,"07,99,1,99,9,99,9,99999,9,99,9,99,9","10251,1,99999,9",,,,,"MET059METAR ENDR 041240Z 34007KT 280V140 9999 BKN022 09/02 Q1025;",
"01023199999","2010-06-04T15:10:00","4","64.35","7.8","0.0","DRAUGEN, NO","FM-15","ENDR ","V020","310,1,N,0036,1","01050,1,C,N","011265,1,N,1","+0090,1","+0000,1","99999,9","07,5,+01050,1,99,9",,,"07,99,1,99,9,99,9,99999,9,99,9,99,9","10240,1,99999,9",,,,,"MET051METAR ENDR 041510Z 31007KT 9999 BKN035 09/00 Q1024;",
"01023199999","2010-06-05T06:20:00","4","64.35","7.8","0.0","DRAUGEN, NO","FM-15","ENDR ","V020","050,1,N,0026,1","00750,1,C,N","011265,1,N,1","+0080,1","+0000,1","99999,9","08,5,+00750,1,99,9",,,"08,99,1,99,9,99,9,99999,9,99,9,99,9","10210,1,99999,9",,,,,"MET051METAR ENDR 050620Z 05005KT 9999 OVC025 08/00 Q1021;",
"01023199999","2010-06-05T09:10:00","4","64.35","7.8","0.0","DRAUGEN, NO","FM-15","ENDR ","V020","040,1,N,0021,1","00750,1,C,N","011265,1,N,1","+0090,1","+0010,1","99999,9","08,5,+00750,1,99,9",,,"08,99,1,99,9,99,9,99999,9,99,9,99,9","10200,1,99999,9",,,,,"MET051METAR ENDR 050910Z 04004KT 9999 OVC025 09/01 Q1020;",
"01023199999","2010-06-05T12:20:00","4","64.35","7.8","0.0","DRAUGEN, NO","FM-15","ENDR ","V020","040,1,N,0026,1","00900,1,C,N","011265,1,N,1","+0100,1","+0010,1","99999,9","08,5,+00900,1,99,9",,,"08,99,1,99,9,99,9,99999,9,99,9,99,9","10190,1,99999,9",,,,,"MET051METAR ENDR 051220Z 04005KT 9999 OVC030 10/01 Q1019;",
"01023199999","2010-06-05T15:10:00","4","64.35","7.8","0.0","DRAUGEN, NO","FM-15","ENDR ","V020","010,1,N,0036,1","00900,1,C,N","011265,1,N,1","+0100,1","+0000,1","99999,9","07,5,+00900,1,99,9",,,"07,99,1,99,9,99,9,99999,9,99,9,99,9","10190,1,99999,9",,,,,"MET051METAR ENDR 051510Z 01007KT 9999 BKN030 10/00 Q1019;",
"01023199999","2010-06-06T06:10:00","4","64.35","7.8","0.0","DRAUGEN, NO","FM-15","ENDR ","V020","300,1,N,0062,1","01350,1,C,N","011265,1,N,1","+0070,1","+0020,1","99999,9","07,5,+01350,1,99,9",,,"07,99,1,99,9,99,9,99999,9,99,9,99,9","10149,1,99999,9",,,,,"MET051METAR ENDR 060610Z 30012KT 9999 BKN045 07/02 Q1015;",
"01023199999","2010-06-06T09:10:00","4","64.35","7.8","0.0","DRAUGEN, NO","FM-15","ENDR ","V020","340,1,N,0021,1","01050,1,C,N","011265,1,N,1","+0090,1","+0020,1","99999,9","07,5,+01050,1,99,9",,,"07,99,1,99,9,99,9,99999,9,99,9,99,9","10149,1,99999,9","61,1",,,,"MET063METAR ENDR 060910Z 34004KT 300V080 9999 -RA BKN035 09/02 Q1015;",
"01023199999","2010-06-06T12:20:00","4","64.35","7.8","0.0","DRAUGEN, NO","FM-15","ENDR ","V020","320,1,N,0015,1","01560,5,C,N","011265,1,N,1","+0080,1","+0010,1","99999,9","02,5,+00900,1,99,9","07,5,+01560,5,99,9",,"07,99,1,99,9,99,9,99999,9,99,9,99,9","10149,1,99999,9",,,,,"MET066METAR ENDR 061220Z 32003KT 250V110 9999 FEW030 BKN052 08/01 Q1015;",
"01023199999","2010-06-06T15:10:00","4","64.35","7.8","0.0","DRAUGEN, NO","FM-15","ENDR ","V020","230,1,N,0036,1","01800,1,C,N","011265,1,N,1","+0090,1","+0030,1","99999,9","04,5,+00600,1,99,9","07,5,+01800,1,99,9",,"07,99,1,99,9,99,9,99999,9,99,9,99,9","10149,1,99999,9",,,,,"MET058METAR ENDR 061510Z 23007KT 9999 SCT020 BKN060 09/03 Q1015;",
"01023199999","2010-06-07T06:20:00","4","64.35","7.8","0.0","DRAUGEN, NO","FM-15","ENDR ","V020","140,1,N,0036,1","01350,1,C,N","011265,1,N,1","+0080,1","+0030,1","99999,9","04,5,+00900,1,99,9","07,5,+01350,1,99,9","07,5,+01800,1,99,9","07,99,1,99,9,99,9,99999,9,99,9,99,9","10108,1,99999,9","16,1",,,,"MET070METAR ENDR 070620Z 14007KT 9999 VCSH SCT030 BKN045 BKN060 08/03 Q1011;",
"01023199999","2010-06-07T09:10:00","4","64.35","7.8","0.0","DRAUGEN, NO","FM-15","ENDR ","V020","090,1,N,0057,1","01350,1,C,N","011265,1,N,1","+0090,1","+0020,1","99999,9","02,5,+00750,1,99,9","04,5,+01350,1,99,9","07,5,+02040,5,99,9","07,99,1,99,9,99,9,99999,9,99,9,99,9","10108,1,99999,9",,,,,"MET065METAR ENDR 070910Z 09011KT 9999 FEW025 SCT045 BKN068 09/02 Q1011;",
"01023199999","2010-06-07T12:20:00","4","64.35","7.8","0.0","DRAUGEN, NO","FM-15","ENDR ","V020","090,1,N,0057,1","22000,1,9,N","011265,1,N,1","+0120,1","+0020,1","99999,9","02,5,+00750,1,99,9",,,"02,99,1,99,9,99,9,99999,9,99,9,99,9","10108,1,99999,9",,,,,"MET051METAR ENDR 071220Z 09011KT 9999 FEW025 12/02 Q1011;",
"01023199999","2010-06-07T19:20:00","4","64.35","7.8","0.0","DRAUGEN, NO","FM-15","ENDR ","V020","030,1,N,0123,1","22000,1,9,N","011265,1,N,1","+0090,1","+0020,1","99999,9","04,5,+00750,1,99,9",,,"04,99,1,99,9,99,9,99999,9,99,9,99,9","10102,1,99999,9",,,,,"MET051METAR ENDR 071920Z 03024KT 9999 SCT025 09/02 Q1010;",
"01023199999","2010-06-08T06:20:00","4","64.35","7.8","0.0","DRAUGEN, NO","FM-15","ENDR ","V020","030,1,N,0123,1","01800,1,C,N","011265,1,N,1","+0100,1","+0070,1","99999,9","04,5,+00360,1,99,9","07,5,+01800,1,99,9",,"07,99,1,99,9,99,9,99999,9,99,9,99,9","10081,1,99999,9",,,,,"MET058METAR ENDR 080620Z 03024KT 9999 SCT012 BKN060 10/07 Q1008;",
"01023199999","2010-06-08T12:20:00","4","64.35","7.8","0.0","DRAUGEN, NO","FM-15","ENDR ","V020","030,1,N,0123,1","99999,9,9,Y","009900,1,N,1","+0130,1","+0070,1","99999,9",,,,,"10102,1,99999,9",,,,,"MET045METAR ENDR 081220Z 03024KT CAVOK 13/07 Q1010;",
"01023199999","2010-06-08T13:20:00","4","64.35","7.8","0.0","DRAUGEN, NO","FM-15","ENDR ","V020","020,1,N,0108,1","99999,9,9,Y","009900,1,N,1","+0130,1","+0070,1","99999,9",,,,,"10102,1,99999,9",,,,,"MET045METAR ENDR 081320Z 02021KT CAVOK 13/07 Q1010;",
"01023199999","2010-06-08T14:40:00","4","64.35","7.8","0.0","DRAUGEN, NO","FM-15","ENDR ","V020","020,1,N,0123,1","99999,9,9,Y","009900,1,N,1","+0130,1","+0070,1","99999,9",,,,,"10102,1,99999,9",,,,,"MET045METAR ENDR 081440Z 02024KT CAVOK 13/07 Q1010;",
"01023199999","2010-06-08T15:40:00","4","64.35","7.8","0.0","DRAUGEN, NO","FM-15","ENDR ","V020","020,1,N,0118,1","99999,9,9,Y","009900,1,N,1","+0120,1","+0070,1","99999,9",,,,,"10102,1,99999,9",,,,,"MET045METAR ENDR 081540Z 02023KT CAVOK 12/07 Q1010;",
"01023199999","2010-06-08T16:50:00","4","64.35","7.8","0.0","DRAUGEN, NO","FM-15","ENDR ","V020","020,1,N,0118,1","22000,1,9,N","011265,1,N,1","+0120,1","+0070,1","99999,9","04,5,+01020,1,99,9",,,"04,99,1,99,9,99,9,99999,9,99,9,99,9","10102,1,99999,9",,,,,"MET051METAR ENDR 081650Z 02023KT 9999 SCT034 12/07 Q1010;",
"01023199999","2010-06-08T17:20:00","4","64.35","7.8","0.0","DRAUGEN, NO","FM-15","ENDR ","V020","020,1,N,0134,1","22000,1,9,N","011265,1,N,1","+0120,1","+0070,1","99999,9","02,5,+01020,1,99,9",,,"02,99,1,99,9,99,9,99999,9,99,9,99,9","10102,1,99999,9",,,,,"MET051METAR ENDR 081720Z 02026KT 9999 FEW034 12/07 Q1010;",
"01023199999","2010-06-09T06:20:00","4","64.35","7.8","0.0","DRAUGEN, NO","FM-15","ENDR ","V020","010,1,N,0108,1","22000,1,9,N","011265,1,N,1","+0090,1","+0040,1","99999,9","04,5,+00600,1,99,9",,,"04,99,1,99,9,99,9,99999,9,99,9,99,9","10159,1,99999,9",,,,,"MET051METAR ENDR 090620Z 01021KT 9999 SCT020 09/04 Q1016;",
"01023199999","2010-06-09T08:10:00","4","64.35","7.8","0.0","DRAUGEN, NO","FM-15","ENDR ","V020","020,1,N,0077,1","22000,1,9,N","011265,1,N,1","+0110,1","+0040,1","99999,9","04,5,+00750,1,99,9",,,"04,99,1,99,9,99,9,99999,9,99,9,99,9","10169,1,99999,9",,,,,"MET051METAR ENDR 090810Z 02015KT 9999 SCT025 11/04 Q1017;",
"01023199999","2010-06-09T09:10:00","4","64.35","7.8","0.0","DRAUGEN, NO","FM-15","ENDR ","V020","020,1,N,0082,1","22000,1,9,N","011265,1,N,1","+0110,1","+0040,1","99999,9","04,5,+00750,1,99,9",,,"04,99,1,99,9,99,9,99999,9,99,9,99,9","10169,1,99999,9",,,,,"MET051METAR ENDR 090910Z 02016KT 9999 SCT025 11/04 Q1017;",
"01023199999","2010-06-09T11:10:00","4","64.35","7.8","0.0","DRAUGEN, NO","FM-15","ENDR ","V020","010,1,N,0098,1","22000,1,9,N","011265,1,N,1","+0120,1","+0030,1","99999,9","02,5,+00900,1,99,9",,,"02,99,1,99,9,99,9,99999,9,99,9,99,9","10180,1,99999,9",,,,,"MET051METAR ENDR 091110Z 01019KT 9999 FEW030 12/03 Q1018;",
"01023199999","2010-06-09T12:10:00","4","64.35","7.8","0.0","DRAUGEN, NO","FM-15","ENDR ","V020","010,1,N,0098,1","22000,1,9,N","011265,1,N,1","+0120,1","+0020,1","99999,9","02,5,+00900,1,99,9",,,"02,99,1,99,9,99,9,99999,9,99,9,99,9","10190,1,99999,9",,,,,"MET051METAR ENDR 091210Z 01019KT 9999 FEW030 12/02 Q1019;",
"01023199999","2010-06-09T15:10:00","4","64.35","7.8","0.0","DRAUGEN, NO","FM-15","ENDR ","V020","020,1,N,0077,1","22000,1,9,N","011265,1,N,1","+0110,1","+0010,1","99999,9","04,5,+00900,1,99,9",,,"04,99,1,99,9,99,9,99999,9,99,9,99,9","10200,1,99999,9",,,,,"MET051METAR ENDR 091510Z 02015KT 9999 SCT030 11/01 Q1020;",
"01023199999","2010-06-10T04:50:00","4","64.35","7.8","0.0","DRAUGEN, NO","FM-15","ENDR ","V020","040,1,N,0062,1","00840,1,C,N","011265,1,N,1","+0090,1","+0030,1","99999,9","07,5,+00840,1,99,9",,,"07,99,1,99,9,99,9,99999,9,99,9,99,9","10210,1,99999,9",,,,,"MET051METAR ENDR 100450Z 04012KT 9999 BKN028 09/03 Q1021;",
"01023199999","2010-06-10T12:10:00","4","64.35","7.8","0.0","DRAUGEN, NO","FM-15","ENDR ","V020","050,1,N,0067,1","99999,9,9,Y","009900,1,N,1","+0120,1","+0030,1","99999,9",,,,,"10180,1,99999,9",,,,,"MET045METAR ENDR 101210Z 05013KT CAVOK 12/03 Q1018;",
"01023199999","2010-06-10T15:10:00","4","64.35","7.8","0.0","DRAUGEN, NO","FM-15","ENDR ","V020","030,1,N,0098,1","99999,9,9,Y","009900,1,N,1","+0120,1","+0040,1","99999,9",,,,,"10149,1,99999,9",,,,,"MET045METAR ENDR 101510Z 03019KT CAVOK 12/04 Q1015;",
"01023199999","2010-06-10T18:50:00","4","64.35","7.8","0.0","DRAUGEN, NO","FM-15","ENDR ","V020","050,1,N,0098,1","99999,9,9,Y","009900,1,N,1","+0090,1","+0040,1","99999,9",,,,,"10129,1,99999,9",,,,,"MET045METAR ENDR 101850Z 05019KT CAVOK 09/04 Q1013;",
"01023199999","2010-06-11T05:50:00","4","64.35","7.8","0.0","DRAUGEN, NO","FM-15","ENDR ","V020","040,1,N,0093,1","01500,1,C,N","011265,1,N,1","+0090,1","+0070,1","99999,9","02,5,+00450,1,99,9","07,5,+01500,1,99,9",,"07,99,1,99,9,99,9,99999,9,99,9,99,9","10051,1,99999,9","61,1",,,,"MET062METAR ENDR 110550Z 04018KT 9999 -RA FEW015 BKN050 09/07 Q1005;",
"01023199999","2010-06-11T15:00:00","4","64.35","7.8","0.0","DRAUGEN, NO","FM-15","ENDR ","V020","010,1,N,0077,1","01800,1,C,N","011265,1,N,1","+0100,1","+0070,1","99999,9","04,5,+00300,1,99,9","07,5,+01800,1,99,9",,"07,99,1,99,9,99,9,99999,9,99,9,99,9","10010,1,99999,9",,,,,"MET058METAR ENDR 111500Z 01015KT 9999 SCT010 BKN060 10/07 Q1001;",
"01023199999","2010-06-12T05:40:00","4","64.35","7.8","0.0","DRAUGEN, NO","FM-15","ENDR ","V020","360,1,N,0154,1","01800,1,C,N","011265,1,N,1","+0100,1","+0070,1","99999,9","02,5,+00210,1,99,9","07,5,+01800,1,99,9",,"07,99,1,99,9,99,9,99999,9,99,9,99,9","09970,1,99999,9",,,,,"MET058METAR ENDR 120540Z 36030KT 9999 FEW007 BKN060 10/07 Q0997;",
"01023199999","2010-06-12T09:10:00","4","64.35","7.8","0.0","DRAUGEN, NO","FM-15","ENDR ","V020","360,1,N,0144,1","01800,1,C,N","011265,1,N,1","+0100,1","+0080,1","99999,9","02,5,+00270,1,99,9","07,5,+01800,1,99,9",,"07,99,1,99,9,99,9,99999,9,99,9,99,9","09980,1,99999,9","16,1",,,,"MET063METAR ENDR 120910Z 36028KT 9999 VCSH FEW009 BKN060 10/08 Q0998;",
"01023199999","2010-06-12T11:40:00","4","64.35","7.8","0.0","DRAUGEN, NO","FM-15","ENDR ","V020","350,1,N,0129,1","01800,1,C,N","011265,1,N,1","+0100,1","+0070,1","99999,9","04,5,+00330,1,99,9","07,5,+01800,1,99,9",,"07,99,1,99,9,99,9,99999,9,99,9,99,9","09990,1,99999,9",,,,,"MET058METAR ENDR 121140Z 35025KT 9999 SCT011 BKN060 10/07 Q0999;",
"01023199999","2010-06-13T06:10:00","4","64.35","7.8","0.0","DRAUGEN, NO","FM-15","ENDR ","V020","320,1,N,0036,1","00450,1,C,N","011265,1,N,1","+0100,1","+0070,1","99999,9","02,5,+00330,1,99,9","07,5,+00450,1,99,9","07,5,+01200,1,99,9","07,99,1,99,9,99,9,99999,9,99,9,99,9","10061,1,99999,9","80,1",,,,"MET079METAR ENDR 130610Z 32007KT 300V010 9999 -SHRA FEW011 BKN015 BKN040 10/07 Q1006;",
"01023199999","2010-06-13T08:40:00","4","64.35","7.8","0.0","DRAUGEN, NO","FM-15","ENDR ","V020","350,1,N,0077,1","00600,1,C,N","011265,1,N,1","+0100,1","+0060,1","99999,9","02,5,+00300,1,99,9","07,5,+00600,1,99,9","07,5,+01200,1,99,9","07,99,1,99,9,99,9,99999,9,99,9,99,9","10071,1,99999,9",,,,,"MET065METAR ENDR 130840Z 35015KT 9999 FEW010 BKN020 BKN040 10/06 Q1007;",
"01023199999","2010-06-13T15:10:00","4","64.35","7.8","0.0","DRAUGEN, NO","FM-15","ENDR ","V020","360,1,N,0077,1","01200,1,C,N","011265,1,N,1","+0100,1","+0040,1","99999,9","04,5,+00600,1,99,9","07,5,+01200,1,99,9",,"07,99,1,99,9,99,9,99999,9,99,9,99,9","10102,1,99999,9","16,1",,,,"MET063METAR ENDR 131510Z 36015KT 9999 VCSH SCT020 BKN040 10/04 Q1010;",
"01023199999","2010-06-14T07:50:00","4","64.35","7.8","0.0","DRAUGEN, NO","FM-15","ENDR ","V020","350,1,N,0062,1","22000,1,9,N","011265,1,N,1","+0100,1","+0040,1","99999,9","04,5,+00600,1,99,9",,,"04,99,1,99,9,99,9,99999,9,99,9,99,9","10169,1,99999,9","16,1",,,,"MET064METAR ENDR 140750Z 35012KT 310V010 9999 VCSH SCT020 10/04 Q1017;",
"01023199999","2010-06-14T08:40:00","4","64.35","7.8","0.0","DRAUGEN, NO","FM-15","ENDR ","V020","350,1,N,0077,1","99999,9,C,N","011265,1,N,1","+0100,1","+0030,1","99999,9","02,5,+00600,1,99,9","04,5,+00900,1,99,9",,"04,99,1,99,9,99,9,99999,9,99,9,99,9","10180,1,99999,9",,,,,"MET066METAR ENDR 140840Z 35015KT 280V010 9999 FEW020 SCT030 10/03 Q1018;","P01 009003SCOCIG"
"01023199999","2010-06-14T14:40:00","4","64.35","7.8","0.0","DRAUGEN, NO","FM-15","ENDR ","V020","360,1,N,0087,1","00750,1,C,N","011265,1,N,1","+0120,1","+0040,1","99999,9","02,5,+00510,1,99,9","07,5,+00750,1,99,9",,"07,99,1,99,9,99,9,99999,9,99,9,99,9","10200,1,99999,9",,,,,"MET058METAR ENDR 141440Z 36017KT 9999 FEW017 BKN025 12/04 Q1020;",
"01023199999","2010-06-15T05:40:00","4","64.35","7.8","0.0","DRAUGEN, NO","FM-15","ENDR ","V020","280,1,N,0051,1","01350,1,C,N","011265,1,N,1","+0080,1","+0040,1","99999,9","04,5,+00450,1,99,9","07,5,+01350,1,99,9",,"07,99,1,99,9,99,9,99999,9,99,9,99,9","10240,1,99999,9",,,,,"MET058METAR ENDR 150540Z 28010KT 9999 SCT015 BKN045 08/04 Q1024;",
"01023199999","2010-06-15T09:10:00","4","64.35","7.8","0.0","DRAUGEN, NO","FM-15","ENDR ","V020","260,1,N,0026,1","22000,1,9,N","011265,1,N,1","+0100,1","+0020,1","99999,9","02,5,+01350,1,99,9",,,"02,99,1,99,9,99,9,99999,9,99,9,99,9","10251,1,99999,9",,,,,"MET051METAR ENDR 150910Z 26005KT 9999 FEW045 10/02 Q1025;",
"01023199999","2010-06-15T12:10:00","4","64.35","7.8","0.0","DRAUGEN, NO","FM-15","ENDR ","V020","250,1,N,0041,1","01500,1,C,N","011265,1,N,1","+0110,1","+0020,1","99999,9","02,5,+00900,1,99,9","07,5,+01500,1,99,9",,"07,99,1,99,9,99,9,99999,9,99,9,99,9","10261,1,99999,9",,,,,"MET058METAR ENDR 151210Z 25008KT 9999 FEW030 BKN050 11/02 Q1026;",
"01023199999","2010-06-16T06:10:00","4","64.35","7.8","0.0","DRAUGEN, NO","FM-15","ENDR ","V020","220,1,N,0103,1","01800,1,C,N","011265,1,N,1","+0100,1","+0060,1","99999,9","07,5,+01800,1,99,9",,,"07,99,1,99,9,99,9,99999,9,99,9,99,9","10210,1,99999,9",,,,,"MET051METAR ENDR 160610Z 22020KT 9999 BKN060 10/06 Q1021;",
"01023199999","2010-06-16T12:40:00","4","64.35","7.8","0.0","DRAUGEN, NO","FM-15","ENDR ","V020","220,1,N,0149,1","00150,1,C,N","002000,1,N,1","+0090,1","+0090,1","99999,9","08,5,+00150,1,99,9",,,"08,99,1,99,9,99,9,99999,9,99,9,99,9","10190,1,99999,9","63,1",,,,"MET054METAR ENDR 161240Z 22029KT 2000 RA OVC005 09/09 Q1019;",
"01023199999","2010-06-16T14:40:00","4","64.35","7.8","0.0","DRAUGEN, NO","FM-16","ENDR ","V020","240,1,N,0134,1","00120,1,9,N","003000,1,N,1","+9999,9","+9999,9","99999,9","08,1,+00120,1,99,9",,,"08,99,1,99,9,99,9,99999,9,99,9,99,9",,"63,1",,,,"MET042METAR ENDR 161440Z 24026KT 3000 RA OVC004;",
"01023199999","2010-06-16T15:10:00","4","64.35","7.8","0.0","DRAUGEN, NO","FM-15","ENDR ","V020","999,9,9,9999,9","00120,1,C,N","001000,1,N,1","+0100,1","+0100,1","99999,9","08,5,+00120,1,99,9",,,"08,99,1,99,9,99,9,99999,9,99,9,99,9","10190,1,99999,9","63,1",,,,"MET046METAR ENDR 161510Z 1000 RA OVC004 10/10 Q1019;",
"01023199999","2010-06-17T05:50:00","4","64.35","7.8","0.0","DRAUGEN, NO","FM-15","ENDR ","V020","220,1,N,0123,1","00150,1,C,N","009000,1,N,1","+0100,1","+0090,1","99999,9","07,5,+00150,1,99,9","07,5,+00300,1,99,9",,"07,99,1,99,9,99,9,99999,9,99,9,99,9","10159,1,99999,9","16,1",,,,"MET063METAR ENDR 170550Z 22024KT 9000 VCSH BKN005 BKN010 10/09 Q1016;",
"01023199999","2010-06-17T13:40:00","4","64.35","7.8","0.0","DRAUGEN, NO","FM-15","ENDR ","V020","230,1,N,0118,1","00090,1,9,N","003000,1,N,1","+0100,1","+0100,1","99999,9","09,1,+00090,1,99,9",,,"09,99,1,99,9,99,9,00025,1,99,9,99,9","10108,1,99999,9","45,1","61,1",,,"MET057METAR ENDR 171340Z 23023KT 3000 -RA FG VV003 10/10 Q1011;",
"01023199999","2010-06-17T14:40:00","4","64.35","7.8","0.0","DRAUGEN, NO","FM-15","ENDR ","V020","230,1,N,0123,1","00150,1,C,N","002000,1,N,1","+0100,1","+0100,1","99999,9","07,5,+00150,1,99,9",,,"07,99,1,99,9,99,9,99999,9,99,9,99,9","10102,1,99999,9","44,1","61,1",,,"MET058METAR ENDR 171440Z 23024KT 2000 -RA FG BKN005 10/10 Q1010;",
"01023199999","2010-06-17T16:40:00","4","64.35","7.8","0.0","DRAUGEN, NO","FM-15","ENDR ","V020","230,1,N,0118,1","01200,1,C,N","009000,1,N,1","+0100,1","+0090,1","99999,9","04,5,+00330,1,99,9","07,5,+01200,1,99,9",,"07,99,1,99,9,99,9,99999,9,99,9,99,9","10081,1,99999,9",,,,,"MET058METAR ENDR 171640Z 23023KT 9000 SCT011 BKN040 10/09 Q1008;",
"01023199999","2010-06-18T06:40:00","4","64.35","7.8","0.0","DRAUGEN, NO","FM-15","ENDR ","V020","310,1,N,0129,1","01200,1,C,N","011265,1,N,1","+0100,1","+0060,1","99999,9","04,5,+00060,1,99,9","07,5,+01200,1,99,9",,"07,99,1,99,9,99,9,99999,9,99,9,99,9","10071,1,99999,9",,,,,"MET058METAR ENDR 180640Z 31025KT 9999 SCT002 BKN040 10/06 Q1007;",
"01023199999","2010-06-18T09:00:00","4","64.35","7.8","0.0","DRAUGEN, NO","FM-15","ENDR ","V020","350,1,N,0185,1","00180,1,C,N","009000,1,N,1","+0110,1","+0070,1","99999,9","07,5,+00180,1,99,9","08,5,+01200,1,99,9",,"08,99,1,99,9,99,9,99999,9,99,9,99,9","10061,1,99999,9","61,1",,,,"MET062METAR ENDR 180900Z 35036KT 9000 -RA BKN006 OVC040 11/07 Q1006;",
"01023199999","2010-06-18T14:40:00","4","64.35","7.8","0.0","DRAUGEN, NO","FM-15","ENDR ","V020","350,1,N,0206,1","00900,1,C,N","009000,1,N,1","+0100,1","+0070,1","99999,9","04,5,+00360,1,99,9","07,5,+00900,1,99,9",,"07,99,1,99,9,99,9,99999,9,99,9,99,9","10071,1,99999,9","63,1",,,,"MET061METAR ENDR 181440Z 35040KT 9000 RA SCT012 BKN030 10/07 Q1007;",
"01023199999","2010-06-19T05:40:00","4","64.35","7.8","0.0","DRAUGEN, NO","FM-15","ENDR ","V020","360,1,N,0211,1","00600,1,C,N","011265,1,N,1","+0080,1","+0020,1","99999,9","07,5,+00600,1,99,9",,,"07,99,1,99,9,99,9,99999,9,99,9,99,9","10102,1,99999,9",,,,,"MET051METAR ENDR 190540Z 36041KT 9999 BKN020 08/02 Q1010;",
"01023199999","2010-06-19T09:10:00","4","64.35","7.8","0.0","DRAUGEN, NO","FM-15","ENDR ","V020","360,1,N,0175,1","00720,1,C,N","011265,1,N,1","+0080,1","+0030,1","99999,9","07,5,+00720,1,99,9",,,"07,99,1,99,9,99,9,99999,9,99,9,99,9","10102,1,99999,9",,,,,"MET051METAR ENDR 190910Z 36034KT 9999 BKN024 08/03 Q1010;",
"01023199999","2010-06-19T12:10:00","4","64.35","7.8","0.0","DRAUGEN, NO","FM-15","ENDR ","V020","360,1,N,0149,1","00510,1,C,N","011265,1,N,1","+0080,1","+0040,1","99999,9","07,5,+00510,1,99,9","07,5,+00900,1,99,9",,"07,99,1,99,9,99,9,99999,9,99,9,99,9","10108,1,99999,9","16,1",,,,"MET063METAR ENDR 191210Z 36029KT 9999 VCSH BKN017 BKN030 08/04 Q1011;",
"01023199999","2010-06-19T15:10:00","4","64.35","7.8","0.0","DRAUGEN, NO","FM-15","ENDR ","V020","350,1,N,0129,1","01020,1,C,N","011265,1,N,1","+0100,1","+0040,1","99999,9","07,5,+01020,1,99,9",,,"07,99,1,99,9,99,9,99999,9,99,9,99,9","10108,1,99999,9",,,,,"MET051METAR ENDR 191510Z 35025KT 9999 BKN034 10/04 Q1011;",
"01023199999","2010-06-20T06:10:00","4","64.35","7.8","0.0","DRAUGEN, NO","FM-15","ENDR ","V020","340,1,N,0062,1","22000,1,9,N","011265,1,N,1","+0090,1","+0020,1","99999,9","02,5,+00900,1,99,9",,,"02,99,1,99,9,99,9,99999,9,99,9,99,9","10108,1,99999,9",,,,,"MET059METAR ENDR 200610Z 34012KT 290V350 9999 FEW030 09/02 Q1011;",
"01023199999","2010-06-20T07:50:00","4","64.35","7.8","0.0","DRAUGEN, NO","FM-15","ENDR ","V020","350,1,N,0046,1","22000,1,9,N","011265,1,N,1","+0100,1","+0030,1","99999,9","02,5,+00600,1,99,9",,,"02,99,1,99,9,99,9,99999,9,99,9,99,9","10119,1,99999,9",,,,,"MET059METAR ENDR 200750Z 35009KT 300V010 9999 FEW020 10/03 Q1012;",
"01023199999","2010-06-20T08:50:00","4","64.35","7.8","0.0","DRAUGEN, NO","FM-15","ENDR ","V020","320,1,N,0046,1","22000,1,9,N","011265,1,N,1","+0100,1","+0020,1","99999,9","02,5,+00600,1,99,9",,,"02,99,1,99,9,99,9,99999,9,99,9,99,9","10119,1,99999,9",,,,,"MET059METAR ENDR 200850Z 32009KT 290V010 9999 FEW020 10/02 Q1012;",
"01023199999","2010-06-20T11:50:00","4","64.35","7.8","0.0","DRAUGEN, NO","FM-15","ENDR ","V020","290,1,N,0041,1","99999,9,C,N","011265,1,N,1","+0090,1","+0030,1","99999,9","02,5,+00600,1,99,9","04,5,+00900,1,99,9",,"04,99,1,99,9,99,9,99999,9,99,9,99,9","10129,1,99999,9",,,,,"MET058METAR ENDR 201150Z 29008KT 9999 FEW020 SCT030 09/03 Q1013;","P01 009003SCOCIG"
"01023199999","2010-06-20T14:50:00","4","64.35","7.8","0.0","DRAUGEN, NO","FM-15","ENDR ","V020","310,1,N,0046,1","99999,9,C,N","011265,1,N,1","+0080,1","+0030,1","99999,9","02,5,+00510,1,99,9","04,5,+00900,1,99,9",,"04,99,1,99,9,99,9,99999,9,99,9,99,9","10139,1,99999,9",,,,,"MET066METAR ENDR 201450Z 31009KT 290V350 9999 FEW017 SCT030 08/03 Q1014;","P01 009003SCOCIG"
"01023199999","2010-06-21T11:40:00","4","64.35","7.8","0.0","DRAUGEN, NO","FM-15","ENDR ","V020","350,1,N,0026,1","01110,1,C,N","011265,1,N,1","+0120,1","+0040,1","99999,9","07,5,+01110,1,99,9",,,"07,99,1,99,9,99,9,99999,9,99,9,99,9","10180,1,99999,9",,,,,"MET059METAR ENDR 211140Z 35005KT 250V130 9999 BKN037 12/04 Q1018;",
"01023199999","2010-06-21T14:50:00","4","64.35","7.8","0.0","DRAUGEN, NO","FM-15","ENDR ","V020","310,1,N,0026,1","00990,1,C,N","011265,1,N,1","+0090,1","+0020,1","99999,9","07,5,+00990,1,99,9",,,"07,99,1,99,9,99,9,99999,9,99,9,99,9","10190,1,99999,9",,,,,"MET051METAR ENDR 211450Z 31005KT 9999 BKN033 09/02 Q1019;",
"01023199999","2010-06-22T05:40:00","4","64.35","7.8","0.0","DRAUGEN, NO","FM-15","ENDR ","V020","260,1,N,0015,1","00750,1,C,N","011265,1,N,1","+0090,1","+0030,1","99999,9","07,5,+00750,1,99,9","08,5,+01200,1,99,9",,"08,99,1,99,9,99,9,99999,9,99,9,99,9","10180,1,99999,9",,,,,"MET058METAR ENDR 220540Z 26003KT 9999 BKN025 OVC040 09/03 Q1018;",
"01023199999","2010-06-22T06:10:00","4","64.35","7.8","0.0","DRAUGEN, NO","FM-15","ENDR ","V020","240,1,N,0021,1","01200,1,C,N","011265,1,N,1","+0090,1","+0030,1","99999,9","04,5,+00750,1,99,9","08,5,+01200,1,99,9",,"08,99,1,99,9,99,9,99999,9,99,9,99,9","10180,1,99999,9",,,,,"MET058METAR ENDR 220610Z 24004KT 9999 SCT025 OVC040 09/03 Q1018;",
"01023199999","2010-06-22T09:10:00","4","64.35","7.8","0.0","DRAUGEN, NO","FM-15","ENDR ","V020","260,1,N,0031,1","00900,1,C,N","011265,1,N,1","+0090,1","+0060,1","99999,9","02,5,+00420,1,99,9","04,5,+00900,1,99,9","07,5,+01800,1,99,9","07,99,1,99,9,99,9,99999,9,99,9,99,9","10180,1,99999,9",,,,,"MET065METAR ENDR 220910Z 26006KT 9999 FEW014 SCT030 BKN060 09/06 Q1018;",
"01023199999","2010-06-22T11:20:00","4","64.35","7.8","0.0","DRAUGEN, NO","FM-15","ENDR ","V020","260,1,N,0041,1","99999,9,C,N","011265,1,N,1","+0110,1","+0060,1","99999,9","02,5,+00750,1,99,9","04,5,+01800,1,99,9",,"04,99,1,99,9,99,9,99999,9,99,9,99,9","10190,1,99999,9",,,,,"MET058METAR ENDR 221120Z 26008KT 9999 FEW025 SCT060 11/06 Q1019;","P01 018003SCOCIG"
"01023199999","2010-06-22T17:40:00","4","64.35","7.8","0.0","DRAUGEN, NO","FM-15","ENDR ","V020","260,1,N,0041,1","22000,1,9,N","011265,1,N,1","+0100,1","+0050,1","99999,9","04,5,+00630,1,99,9",,,"04,99,1,99,9,99,9,99999,9,99,9,99,9","10200,1,99999,9",,,,,"MET051METAR ENDR 221740Z 26008KT 9999 SCT021 10/05 Q1020;",
"01023199999","2010-06-22T20:50:00","4","64.35","7.8","0.0","DRAUGEN, NO","FM-15","ENDR ","V020","270,1,N,0036,1","22000,1,9,N","011265,1,N,1","+0100,1","+0050,1","99999,9","02,5,+00660,1,99,9",,,"02,99,1,99,9,99,9,99999,9,99,9,99,9","10210,1,99999,9",,,,,"MET051METAR ENDR 222050Z 27007KT 9999 FEW022 10/05 Q1021;",
"01023199999","2010-06-23T06:10:00","4","64.35","7.8","0.0","DRAUGEN, NO","FM-15","ENDR ","V020","160,1,N,0041,1","01200,1,C,N","011265,1,N,1","+0090,1","+0070,1","99999,9","02,5,+00660,1,99,9","07,5,+01200,1,99,9",,"07,99,1,99,9,99,9,99999,9,99,9,99,9","10200,1,99999,9",,,,,"MET058METAR ENDR 230610Z 16008KT 9999 FEW022 BKN040 09/07 Q1020;",
"01023199999","2010-06-23T11:50:00","4","64.35","7.8","0.0","DRAUGEN, NO","FM-15","ENDR ","V020","180,1,N,0036,1","01200,1,C,N","011265,1,N,1","+0130,1","+0080,1","99999,9","02,5,+00300,1,99,9","07,5,+01200,1,99,9",,"07,99,1,99,9,99,9,99999,9,99,9,99,9","10200,1,99999,9",,,,,"MET058METAR ENDR 231150Z 18007KT 9999 FEW010 BKN040 13/08 Q1020;",
"01023199999","2010-06-24T06:10:00","4","64.35","7.8","0.0","DRAUGEN, NO","FM-15","ENDR ","V020","080,1,N,0077,1","02700,1,C,N","011265,1,N,1","+0120,1","+0060,1","99999,9","07,5,+02700,1,99,9",,,"07,99,1,99,9,99,9,99999,9,99,9,99,9","10139,1,99999,9",,,,,"MET051METAR ENDR 240610Z 08015KT 9999 BKN090 12/06 Q1014;",
"01023199999","2010-06-24T06:40:00","4","64.35","7.8","0.0","DRAUGEN, NO","FM-15","ENDR ","V020","080,1,N,0077,1","03000,1,C,N","011265,1,N,1","+0120,1","+0060,1","99999,9","07,5,+03000,1,99,9",,,"07,99,1,99,9,99,9,99999,9,99,9,99,9","10139,1,99999,9",,,,,"MET051METAR ENDR 240640Z 08015KT 9999 BKN100 12/06 Q1014;",
"01023199999","2010-06-24T09:10:00","4","64.35","7.8","0.0","DRAUGEN, NO","FM-15","ENDR ","V020","060,1,N,0051,1","02100,1,C,N","011265,1,N,1","+0130,1","+0080,1","99999,9","02,5,+01500,1,99,9","07,5,+02100,1,99,9",,"07,99,1,99,9,99,9,99999,9,99,9,99,9","10129,1,99999,9",,,,,"MET058METAR ENDR 240910Z 06010KT 9999 FEW050 BKN070 13/08 Q1013;",
"01023199999","2010-06-24T09:40:00","4","64.35","7.8","0.0","DRAUGEN, NO","FM-16","ENDR ","V020","070,1,N,0051,1","99999,9,9,Y","011265,1,N,1","+0140,1","+0080,1","99999,9",,,,,"10130,1,99999,9",,,,,"MET050METAR ENDR 240940Z 07010KT 9999 CAVOK 14/08 Q1013;",
"01023199999","2010-06-24T12:20:00","4","64.35","7.8","0.0","DRAUGEN, NO","FM-15","ENDR ","V020","070,1,N,0036,1","99999,9,9,Y","009900,1,N,1","+0130,1","+0080,1","99999,9",,,,,"10129,1,99999,9",,,,,"MET045METAR ENDR 241220Z 07007KT CAVOK 13/08 Q1013;",
"01023199999","2010-06-25T06:20:00","4","64.35","7.8","0.0","DRAUGEN, NO","FM-15","ENDR ","V020","280,1,N,0015,1","00750,1,C,N","008000,1,N,1","+0110,1","+0090,1","99999,9","04,5,+00300,1,99,9","07,5,+00750,1,99,9","07,5,+01800,1,99,9","07,99,1,99,9,99,9,99999,9,99,9,99,9","10081,1,99999,9","61,1",,,,"MET077METAR ENDR 250620Z 28003KT 230V300 8000 -RA SCT010 BKN025 BKN060 11/09 Q1008;",
"01023199999","2010-06-25T09:10:00","4","64.35","7.8","0.0","DRAUGEN, NO","FM-15","ENDR ","V020","120,1,N,0015,1","00150,1,C,N","005000,1,N,1","+0100,1","+0100,1","99999,9","08,5,+00150,1,99,9",,,"08,99,1,99,9,99,9,99999,9,99,9,99,9","10081,1,99999,9","10,1","61,1",,,"MET058METAR ENDR 250910Z 12003KT 5000 -RA BR OVC005 10/10 Q1008;",
"01023199999","2010-06-25T12:10:00","4","64.35","7.8","0.0","DRAUGEN, NO","FM-15","ENDR ","V020","270,1,N,0062,1","00150,1,C,N","005000,1,N,1","+0110,1","+0100,1","99999,9","08,5,+00150,1,99,9",,,"08,99,1,99,9,99,9,99999,9,99,9,99,9","10081,1,99999,9","10,1","61,1",,,"MET058METAR ENDR 251210Z 27012KT 5000 -RA BR OVC005 11/10 Q1008;",
"01023199999","2010-06-25T15:20:00","4","64.35","7.8","0.0","DRAUGEN, NO","FM-15","ENDR ","V020","280,1,N,0041,1","00600,1,C,N","009000,1,N,1","+0110,1","+0100,1","99999,9","04,5,+00150,1,99,9","08,5,+00600,1,99,9",,"08,99,1,99,9,99,9,99999,9,99,9,99,9","10081,1,99999,9","61,1",,,,"MET062METAR ENDR 251520Z 28008KT 9000 -RA SCT005 OVC020 11/10 Q1008;",
"01023199999","2010-06-26T06:20:00","4","64.35","7.8","0.0","DRAUGEN, NO","FM-15","ENDR ","V020","290,1,N,0103,1","00750,1,C,N","011265,1,N,1","+0100,1","+0070,1","99999,9","02,5,+00450,1,99,9","07,5,+00750,1,99,9",,"07,99,1,99,9,99,9,99999,9,99,9,99,9","10119,1,99999,9","81,1",,,,"MET063METAR ENDR 260620Z 29020KT 9999 SHRA FEW015 BKN025 10/07 Q1012;",
"01023199999","2010-06-26T09:20:00","4","64.35","7.8","0.0","DRAUGEN, NO","FM-15","ENDR ","V020","310,1,N,0108,1","01500,1,C,N","011265,1,N,1","+0090,1","+0030,1","99999,9","04,5,+00450,1,99,9","07,5,+01500,1,99,9",,"07,99,1,99,9,99,9,99999,9,99,9,99,9","10149,1,99999,9","16,1",,,,"MET063METAR ENDR 260920Z 31021KT 9999 VCSH SCT015 BKN050 09/03 Q1015;",
"01023199999","2010-06-26T12:20:00","4","64.35","7.8","0.0","DRAUGEN, NO","FM-15","ENDR ","V020","310,1,N,0077,1","01500,1,C,N","011265,1,N,1","+0090,1","+0040,1","99999,9","04,5,+00750,1,99,9","07,5,+01500,1,99,9",,"07,99,1,99,9,99,9,99999,9,99,9,99,9","10159,1,99999,9","16,1",,,,"MET063METAR ENDR 261220Z 31015KT 9999 VCSH SCT025 BKN050 09/04 Q1016;",
"01023199999","2010-06-26T15:20:00","4","64.35","7.8","0.0","DRAUGEN, NO","FM-15","ENDR ","V020","270,1,N,0098,1","01050,1,C,N","011265,1,N,1","+0090,1","+0030,1","99999,9","04,5,+00600,1,99,9","07,5,+01050,1,99,9",,"07,99,1,99,9,99,9,99999,9,99,9,99,9","10180,1,99999,9","16,1",,,,"MET063METAR ENDR 261520Z 27019KT 9999 VCSH SCT020 BKN035 09/03 Q1018;",
"01023199999","2010-06-27T06:10:00","4","64.35","7.8","0.0","DRAUGEN, NO","FM-15","ENDR ","V020","300,1,N,0046,1","99999,9,C,N","011265,1,N,1","+0080,1","+0050,1","99999,9","02,5,+00450,1,99,9","04,5,+00750,1,99,9",,"04,99,1,99,9,99,9,99999,9,99,9,99,9","10200,1,99999,9","81,1",,,,"MET063METAR ENDR 270610Z 30009KT 9999 SHRA FEW015 SCT025 08/05 Q1020;","P01 007503SCOCIG"
"01023199999","2010-06-27T09:10:00","4","64.35","7.8","0.0","DRAUGEN, NO","FM-15","ENDR ","V020","270,1,N,0057,1","00750,1,C,N","011265,1,N,1","+0090,1","+0030,1","99999,9","07,5,+00750,1,99,9",,,"07,99,1,99,9,99,9,99999,9,99,9,99,9","10200,1,99999,9","16,1",,,,"MET056METAR ENDR 270910Z 27011KT 9999 VCSH BKN025 09/03 Q1020;",
"01023199999","2010-06-27T12:10:00","4","64.35","7.8","0.0","DRAUGEN, NO","FM-15","ENDR ","V020","250,1,N,0041,1","00840,1,C,N","011265,1,N,1","+0090,1","+0050,1","99999,9","07,5,+00840,1,99,9",,,"07,99,1,99,9,99,9,99999,9,99,9,99,9","10210,1,99999,9","16,1",,,,"MET056METAR ENDR 271210Z 25008KT 9999 VCSH BKN028 09/05 Q1021;",
"01023199999","2010-06-28T06:10:00","4","64.35","7.8","0.0","DRAUGEN, NO","FM-15","ENDR ","V020","090,1,N,0082,1","01800,1,C,N","011265,1,N,1","+0090,1","+0050,1","99999,9","04,5,+01200,1,99,9","07,5,+01800,1,99,9",,"07,99,1,99,9,99,9,99999,9,99,9,99,9","10190,1,99999,9",,,,,"MET058METAR ENDR 280610Z 09016KT 9999 SCT040 BKN060 09/05 Q1019;",
"01023199999","2010-06-28T09:20:00","4","64.35","7.8","0.0","DRAUGEN, NO","FM-15","ENDR ","V020","090,1,N,0087,1","99999,9,9,Y","009900,1,N,1","+0110,1","+0060,1","99999,9",,,,,"10180,1,99999,9",,,,,"MET045METAR ENDR 280920Z 09017KT CAVOK 11/06 Q1018;",
"01023199999","2010-06-28T12:20:00","4","64.35","7.8","0.0","DRAUGEN, NO","FM-15","ENDR ","V020","090,1,N,0087,1","99999,9,9,Y","009900,1,N,1","+0120,1","+0060,1","99999,9",,,,,"10169,1,99999,9",,,,,"MET045METAR ENDR 281220Z 09017KT CAVOK 12/06 Q1017;",
"01023199999","2010-06-28T15:20:00","4","64.35","7.8","0.0","DRAUGEN, NO","FM-15","ENDR ","V020","060,1,N,0062,1","99999,9,9,Y","009900,1,N,1","+0140,1","+0070,1","99999,9",,,,,"10159,1,99999,9",,,,,"MET045METAR ENDR 281520Z 06012KT CAVOK 14/07 Q1016;",
"01023199999","2010-06-29T06:10:00","4","64.35","7.8","0.0","DRAUGEN, NO","FM-15","ENDR ","V020","220,1,N,0051,1","99999,9,9,Y","009900,1,N,1","+0130,1","+0100,1","99999,9",,,,,"10139,1,99999,9",,,,,"MET045METAR ENDR 290610Z 22010KT CAVOK 13/10 Q1014;",
"01023199999","2010-06-29T12:10:00","4","64.35","7.8","0.0","DRAUGEN, NO","FM-15","ENDR ","V020","190,1,N,0026,1","99999,9,9,Y","009900,1,N,1","+0150,1","+0110,1","99999,9",,,,,"10149,1,99999,9",,,,,"MET045METAR ENDR 291210Z 19005KT CAVOK 15/11 Q1015;",
"01023199999","2010-06-29T14:20:00","4","64.35","7.8","0.0","DRAUGEN, NO","FM-15","ENDR ","V020","130,1,N,0041,1","99999,9,9,Y","009900,1,N,1","+0130,1","+0110,1","99999,9",,,,,"10149,1,99999,9",,,,,"MET045METAR ENDR 291420Z 13008KT CAVOK 13/11 Q1015;",
"01023199999","2010-06-29T15:20:00","4","64.35","7.8","0.0","DRAUGEN, NO","FM-15","ENDR ","V020","130,1,N,0041,1","99999,9,9,Y","009900,1,N,1","+0140,1","+0100,1","99999,9",,,,,"10139,1,99999,9",,,,,"MET045METAR ENDR 291520Z 13008KT CAVOK 14/10 Q1014;",
"01023199999","2010-06-30T08:10:00","4","64.35","7.8","0.0","DRAUGEN, NO","FM-15","ENDR ","V020","310,1,N,0026,1","01800,1,C,N","011265,1,N,1","+0120,1","+0090,1","99999,9","02,5,+00600,1,99,9","07,5,+01800,1,99,9",,"07,99,1,99,9,99,9,99999,9,99,9,99,9","10119,1,99999,9",,,,,"MET058METAR ENDR 300810Z 31005KT 9999 FEW020 BKN060 12/09 Q1012;",
"01023199999","2010-06-30T12:20:00","4","64.35","7.8","0.0","DRAUGEN, NO","FM-15","ENDR ","V020","250,1,N,0046,1","00810,1,C,N","011265,1,N,1","+0130,1","+0100,1","99999,9","07,5,+00810,1,99,9",,,"07,99,1,99,9,99,9,99999,9,99,9,99,9","10129,1,99999,9",,,,,"MET051METAR ENDR 301220Z 25009KT 9999 BKN027 13/10 Q1013;",
"01023199999","2010-06-30T15:10:00","4","64.35","7.8","0.0","DRAUGEN, NO","FM-15","ENDR ","V020","270,1,N,0051,1","01800,1,C,N","011265,1,N,1","+0160,1","+0100,1","99999,9","04,5,+00750,1,99,9","07,5,+01800,1,99,9",,"07,99,1,99,9,99,9,99999,9,99,9,99,9","10129,1,99999,9",,,,,"MET058METAR ENDR 301510Z 27010KT 9999 SCT025 BKN060 16/10 Q1013;",
"01023199999","2010-07-01T06:10:00","4","64.35","7.8","0.0","DRAUGEN, NO","FM-15","ENDR ","V020","040,1,N,0046,1","00300,1,C,N","011265,1,N,1","+0120,1","+0100,1","99999,9","07,5,+00300,1,99,9",,,"07,99,1,99,9,99,9,99999,9,99,9,99,9","10159,1,99999,9",,,,,"MET051METAR ENDR 010610Z 04009KT 9999 BKN010 12/10 Q1016;",
"01023199999","2010-07-01T09:10:00","4","64.35","7.8","0.0","DRAUGEN, NO","FM-15","ENDR ","V020","080,1,N,0031,1","00750,1,C,N","011265,1,N,1","+0130,1","+0080,1","99999,9","07,5,+00750,1,99,9",,,"07,99,1,99,9,99,9,99999,9,99,9,99,9","10169,1,99999,9",,,,,"MET051METAR ENDR 010910Z 08006KT 9999 BKN025 13/08 Q1017;",
"01023199999","2010-07-01T12:10:00","4","64.35","7.8","0.0","DRAUGEN, NO","FM-15","ENDR ","V020","060,1,N,0046,1","00300,1,C,N","011265,1,N,1","+0130,1","+0090,1","99999,9","07,5,+00300,1,99,9",,,"07,99,1,99,9,99,9,99999,9,99,9,99,9","10169,1,99999,9",,,,,"MET051METAR ENDR 011210Z 06009KT 9999 BKN010 13/09 Q1017;",
"01023199999","2010-07-01T14:10:00","4","64.35","7.8","0.0","DRAUGEN, NO","FM-15","ENDR ","V020","060,1,N,0062,1","00750,1,C,N","011265,1,N,1","+0130,1","+0080,1","99999,9","07,5,+00750,1,99,9",,,"07,99,1,99,9,99,9,99999,9,99,9,99,9","10169,1,99999,9",,,,,"MET051METAR ENDR 011410Z 06012KT 9999 BKN025 13/08 Q1017;",
"01023199999","2010-07-02T06:10:00","4","64.35","7.8","0.0","DRAUGEN, NO","FM-15","ENDR ","V020","070,1,N,0113,1","99999,9,C,N","011265,1,N,1","+0110,1","+0080,1","99999,9","04,5,+00210,1,99,9","04,5,+02400,1,99,9",,"04,99,1,99,9,99,9,99999,9,99,9,99,9","10139,1,99999,9",,,,,"MET058METAR ENDR 020610Z 07022KT 9999 SCT007 SCT080 11/08 Q1014;","P01 024003SCOCIG"
"01023199999","2010-07-02T09:20:00","4","64.35","7.8","0.0","DRAUGEN, NO","FM-15","ENDR ","V020","070,1,N,0108,1","99999,9,9,Y","009900,1,N,1","+0120,1","+0080,1","99999,9",,,,,"10129,1,99999,9",,,,,"MET045METAR ENDR 020920Z 07021KT CAVOK 12/08 Q1013;",
"01023199999","2010-07-02T12:10:00","4","64.35","7.8","0.0","DRAUGEN, NO","FM-15","ENDR ","V020","070,1,N,0082,1","99999,9,9,Y","009900,1,N,1","+0130,1","+0090,1","99999,9",,,,,"10129,1,99999,9",,,,,"MET045METAR ENDR 021210Z 07016KT CAVOK 13/09 Q1013;",
"01023199999","2010-07-03T09:20:00","4","64.35","7.8","0.0","DRAUGEN, NO","FM-15","ENDR ","V020","140,1,N,0051,1","01350,1,C,N","011265,1,N,1","+0140,1","+0130,1","99999,9","02,5,+00450,1,99,9","07,5,+01350,1,99,9",,"07,99,1,99,9,99,9,99999,9,99,9,99,9","10129,1,99999,9",,,,,"MET058METAR ENDR 030920Z 14010KT 9999 FEW015 BKN045 14/13 Q1013;",
"01023199999","2010-07-03T12:10:00","4","64.35","7.8","0.0","DRAUGEN, NO","FM-15","ENDR ","V020","130,1,N,0067,1","99999,9,9,Y","009900,1,N,1","+0170,1","+0100,1","99999,9",,,,,"10129,1,99999,9",,,,,"MET045METAR ENDR 031210Z 13013KT CAVOK 17/10 Q1013;",
"01023199999","2010-07-03T14:10:00","4","64.35","7.8","0.0","DRAUGEN, NO","FM-15","ENDR ","V020","130,1,N,0067,1","99999,9,9,Y","009900,1,N,1","+0160,1","+0120,1","99999,9",,,,,"10129,1,99999,9",,,,,"MET045METAR ENDR 031410Z 13013KT CAVOK 16/12 Q1013;",
"01023199999","2010-07-03T15:10:00","4","64.35","7.8","0.0","DRAUGEN, NO","FM-15","ENDR ","V020","140,1,N,0067,1","99999,9,9,Y","009900,1,N,1","+0150,1","+0120,1","99999,9",,,,,"10139,1,99999,9",,,,,"MET045METAR ENDR 031510Z 14013KT CAVOK 15/12 Q1014;",
"01023199999","2010-07-04T06:10:00","4","64.35","7.8","0.0","DRAUGEN, NO","FM-15","ENDR ","V020","200,1,N,0072,1","99999,9,9,Y","009900,1,N,1","+0120,1","+0110,1","99999,9",,,,,"10139,1,99999,9",,,,,"MET045METAR ENDR 040610Z 20014KT CAVOK 12/11 Q1014;",
"01023199999","2010-07-04T09:20:00","4","64.35","7.8","0.0","DRAUGEN, NO","FM-15","ENDR ","V020","190,1,N,0051,1","01800,5,9,N","999999,9,N,1","+0130,1","+0110,1","99999,9","04,5,+00450,5,99,9","07,5,+01800,5,99,9",,,"10150,1,99999,9",,,,,"MET053METAR ENDR 040920Z 19010KT SCT015 BKN060 13/11 Q1015;",
"01023199999","2010-07-04T12:20:00","4","64.35","7.8","0.0","DRAUGEN, NO","FM-15","ENDR ","V020","130,1,N,0082,1","99999,9,9,Y","009900,1,N,1","+0130,1","+0100,1","99999,9",,,,,"10139,1,99999,9",,,,,"MET045METAR ENDR 041220Z 13016KT CAVOK 13/10 Q1014;",
"01023199999","2010-07-04T15:20:00","4","64.35","7.8","0.0","DRAUGEN, NO","FM-15","ENDR ","V020","110,1,N,0072,1","99999,9,9,Y","009900,1,N,1","+0130,1","+0100,1","99999,9",,,,,"10129,1,99999,9",,,,,"MET045METAR ENDR 041520Z 11014KT CAVOK 13/10 Q1013;",
"01023199999","2010-07-05T06:10:00","4","64.35","7.8","0.0","DRAUGEN, NO","FM-15","ENDR ","V020","100,1,N,0062,1","99999,9,9,Y","009900,1,N,1","+0130,1","+0110,1","99999,9",,,,,"10000,1,99999,9",,,,,"MET045METAR ENDR 050610Z 10012KT CAVOK 13/11 Q1000;",
"01023199999","2010-07-05T12:10:00","4","64.35","7.8","0.0","DRAUGEN, NO","FM-15","ENDR ","V020","220,1,N,0154,1","99999,9,9,Y","009900,1,N,1","+0130,1","+0100,1","99999,9",,,,,"10041,1,99999,9",,,,,"MET045METAR ENDR 051210Z 22030KT CAVOK 13/10 Q1004;",
"01023199999","2010-07-05T15:10:00","4","64.35","7.8","0.0","DRAUGEN, NO","FM-15","ENDR ","V020","210,1,N,0201,1","00300,1,C,N","005000,1,N,1","+0120,1","+0110,1","99999,9","08,5,+00300,1,99,9",,,"08,99,1,99,9,99,9,99999,9,99,9,99,9","10041,1,99999,9","10,1","63,1",,,"MET057METAR ENDR 051510Z 21039KT 5000 RA BR OVC010 12/11 Q1004;",
"01023199999","2010-07-06T05:40:00","4","64.35","7.8","0.0","DRAUGEN, NO","FM-15","ENDR ","V020","230,1,N,0149,1","00900,1,C,N","011265,1,N,1","+0110,1","+0080,1","99999,9","02,5,+00300,1,99,9","04,5,+00900,1,99,9","07,5,+01500,1,99,9","07,99,1,99,9,99,9,99999,9,99,9,99,9","10091,1,99999,9",,,,,"MET065METAR ENDR 060540Z 23029KT 9999 FEW010 SCT030 BKN050 11/08 Q1009;",
"01023199999","2010-07-06T06:10:00","4","64.35","7.8","0.0","DRAUGEN, NO","FM-15","ENDR ","V020","230,1,N,0134,1","00900,1,C,N","011265,1,N,1","+0110,1","+0090,1","99999,9","02,5,+00300,1,99,9","04,5,+00900,1,99,9","07,5,+01500,1,99,9","07,99,1,99,9,99,9,99999,9,99,9,99,9","10102,1,99999,9",,,,,"MET065METAR ENDR 060610Z 23026KT 9999 FEW010 SCT030 BKN050 11/09 Q1010;",
"01023199999","2010-07-06T09:10:00","4","64.35","7.8","0.0","DRAUGEN, NO","FM-15","ENDR ","V020","220,1,N,0129,1","01500,1,C,N","011265,1,N,1","+0110,1","+0100,1","99999,9","04,5,+00360,1,99,9","07,5,+01500,1,99,9",,"07,99,1,99,9,99,9,99999,9,99,9,99,9","10108,1,99999,9",,,,,"MET058METAR ENDR 060910Z 22025KT 9999 SCT012 BKN050 11/10 Q1011;",
"01023199999","2010-07-06T12:10:00","4","64.35","7.8","0.0","DRAUGEN, NO","FM-15","ENDR ","V020","220,1,N,0123,1","01500,1,C,N","011265,1,N,1","+0120,1","+0100,1","99999,9","04,5,+00300,1,99,9","07,5,+01500,1,99,9",,"07,99,1,99,9,99,9,99999,9,99,9,99,9","10119,1,99999,9",,,,,"MET058METAR ENDR 061210Z 22024KT 9999 SCT010 BKN050 12/10 Q1012;",
"01023199999","2010-07-06T15:10:00","4","64.35","7.8","0.0","DRAUGEN, NO","FM-15","ENDR ","V020","220,1,N,0123,1","02100,1,C,N","011265,1,N,1","+0120,1","+0100,1","99999,9","04,5,+00300,1,99,9","07,5,+02100,1,99,9",,"07,99,1,99,9,99,9,99999,9,99,9,99,9","10129,1,99999,9","16,1",,,,"MET063METAR ENDR 061510Z 22024KT 9999 VCSH SCT010 BKN070 12/10 Q1013;",
"01023199999","2010-07-07T06:20:00","4","64.35","7.8","0.0","DRAUGEN, NO","FM-15","ENDR ","V020","160,1,N,0031,1","00210,1,C,N","011265,1,N,1","+0110,1","+0090,1","99999,9","07,5,+00210,1,99,9","04,5,+01500,1,99,9",,,"10129,1,99999,9",,,,,"MET058METAR ENDR 070620Z 16006KT 9999 BKN007 SCT050 11/09 Q1013;","Q01+000042SCOTCV"
"01023199999","2010-07-07T12:10:00","4","64.35","7.8","0.0","DRAUGEN, NO","FM-15","ENDR ","V020","080,1,N,0087,1","99999,9,9,Y","009900,1,N,1","+0140,1","+0090,1","99999,9",,,,,"10102,1,99999,9",,,,,"MET045METAR ENDR 071210Z 08017KT CAVOK 14/09 Q1010;",
"01023199999","2010-07-07T15:10:00","4","64.35","7.8","0.0","DRAUGEN, NO","FM-15","ENDR ","V020","140,1,N,0072,1","99999,9,9,Y","009900,1,N,1","+0130,1","+0090,1","99999,9",,,,,"10102,1,99999,9",,,,,"MET045METAR ENDR 071510Z 14014KT CAVOK 13/09 Q1010;",
"01023199999","2010-07-08T06:10:00","4","64.35","7.8","0.0","DRAUGEN, NO","FM-15","ENDR ","V020","130,1,N,0087,1","99999,9,9,Y","009900,1,N,1","+0130,1","+0090,1","99999,9",,,,,"10091,1,99999,9",,,,,"MET045METAR ENDR 080610Z 13017KT CAVOK 13/09 Q1009;",
"01023199999","2010-07-13T06:10:00","4","64.35","7.8","0.0","DRAUGEN, NO","FM-15","ENDR ","V020","060,1,N,0108,1","01050,1,C,N","011265,1,N,1","+0120,1","+0080,1","99999,9","04,5,+00300,1,99,9","07,5,+01050,1,99,9",,"07,99,1,99,9,99,9,99999,9,99,9,99,9","10129,1,99999,9",,,,,"MET058METAR ENDR 130610Z 06021KT 9999 SCT010 BKN035 12/08 Q1013;",
"01023199999","2010-07-13T09:10:00","4","64.35","7.8","0.0","DRAUGEN, NO","FM-15","ENDR ","V020","040,1,N,0123,1","00240,1,C,N","009000,1,N,1","+0110,1","+0090,1","99999,9","07,5,+00240,1,99,9","08,5,+01500,1,99,9",,"08,99,1,99,9,99,9,99999,9,99,9,99,9","10119,1,99999,9","63,1",,,,"MET061METAR ENDR 130910Z 04024KT 9000 RA BKN008 OVC050 11/09 Q1012;",
"01023199999","2010-07-13T12:40:00","4","64.35","7.8","0.0","DRAUGEN, NO","FM-16","ENDR ","V020","020,1,N,0134,1","00240,5,9,N","999999,9,N,1","+0120,1","+0080,1","99999,9","07,5,+00240,5,99,9","08,5,+01500,5,99,9",,,"10110,1,99999,9",,,,,"MET053METAR ENDR 131240Z 02026KT BKN008 OVC050 12/08 Q1011;",
"01023199999","2010-07-13T15:10:00","4","64.35","7.8","0.0","DRAUGEN, NO","FM-15","ENDR ","V020","010,1,N,0134,1","01020,1,C,N","011265,1,N,1","+0120,1","+0080,1","99999,9","04,5,+00360,1,99,9","07,5,+01020,1,99,9","08,5,+01650,5,99,9","08,99,1,99,9,99,9,99999,9,99,9,99,9","10102,1,99999,9",,,,,"MET065METAR ENDR 131510Z 01026KT 9999 SCT012 BKN034 OVC055 12/08 Q1010;",
"01023199999","2010-07-14T06:10:00","4","64.35","7.8","0.0","DRAUGEN, NO","FM-15","ENDR ","V020","360,1,N,0098,1","01020,1,C,N","011265,1,N,1","+0110,1","+0070,1","99999,9","04,5,+00360,1,99,9","04,5,+01020,1,99,9","08,5,+01800,1,99,9","08,99,1,99,9,99,9,99999,9,99,9,99,9","10119,1,99999,9",,,,,"MET065METAR ENDR 140610Z 36019KT 9999 SCT012 SCT034 OVC060 11/07 Q1012;",
"01023199999","2010-07-14T09:10:00","4","64.35","7.8","0.0","DRAUGEN, NO","FM-16","ENDR ","V020","360,1,N,0087,1","22000,1,9,N","011265,1,N,1","+9999,9","+9999,9","99999,9","02,5,+00360,1,99,9","04,1,+01200,1,99,9",,"04,99,1,99,9,99,9,99999,9,99,9,99,9",,,,,,"MET046METAR ENDR 140910Z 36017KT 9999 FEW012 SCT040;",
"01023199999","2010-07-14T12:10:00","4","64.35","7.8","0.0","DRAUGEN, NO","FM-16","ENDR ","V020","010,1,N,0077,1","22000,1,9,N","011265,1,N,1","+9999,9","+9999,9","99999,9","02,5,+00360,1,99,9","07,1,+01200,1,99,9",,"07,99,1,99,9,99,9,99999,9,99,9,99,9",,,,,,"MET046METAR ENDR 141210Z 01015KT 9999 FEW012 BKN040;",
"01023199999","2010-07-14T15:10:00","4","64.35","7.8","0.0","DRAUGEN, NO","FM-15","ENDR ","V020","030,1,N,0067,1","22000,1,9,N","011265,1,N,1","+0180,1","+0060,1","99999,9","04,5,+00420,1,99,9",,,"04,99,1,99,9,99,9,99999,9,99,9,99,9","10159,1,99999,9",,,,,"MET051METAR ENDR 141510Z 03013KT 9999 SCT014 18/06 Q1016;",
"01023199999","2010-07-15T06:10:00","4","64.35","7.8","0.0","DRAUGEN, NO","FM-15","ENDR ","V020","060,1,N,0216,1","22000,1,9,N","011265,1,N,1","+0110,1","+0060,1","99999,9","02,5,+00450,1,99,9",,,"02,99,1,99,9,99,9,99999,9,99,9,99,9","10108,1,99999,9",,,,,"MET051METAR ENDR 150610Z 06042KT 9999 FEW015 11/06 Q1011;",
"01023199999","2010-07-15T09:10:00","4","64.35","7.8","0.0","DRAUGEN, NO","FM-15","ENDR ","V020","060,1,N,0221,1","22000,1,9,N","011265,1,N,1","+0140,1","+0050,1","99999,9","04,5,+00300,1,99,9",,,"04,99,1,99,9,99,9,99999,9,99,9,99,9","10081,1,99999,9",,,,,"MET051METAR ENDR 150910Z 06043KT 9999 SCT010 14/05 Q1008;",
"01023199999","2010-07-15T12:10:00","4","64.35","7.8","0.0","DRAUGEN, NO","FM-15","ENDR ","V020","070,1,N,0165,1","99999,9,9,Y","009900,1,N,1","+0140,1","+0080,1","99999,9",,,,,"10061,1,99999,9",,,,,"MET045METAR ENDR 151210Z 07032KT CAVOK 14/08 Q1006;",
"01023199999","2010-07-15T15:10:00","4","64.35","7.8","0.0","DRAUGEN, NO","FM-15","ENDR ","V020","090,1,N,0149,1","01800,1,C,N","011265,1,N,1","+0160,1","+0110,1","99999,9","07,5,+01800,1,99,9",,,"07,99,1,99,9,99,9,99999,9,99,9,99,9","10041,1,99999,9","61,1",,,,"MET055METAR ENDR 151510Z 09029KT 9999 -RA BKN060 16/11 Q1004;",
"01023199999","2010-07-16T06:10:00","4","64.35","7.8","0.0","DRAUGEN, NO","FM-15","ENDR ","V020","100,1,N,0082,1","99999,9,9,Y","009900,1,N,1","+0150,1","+0110,1","99999,9",,,,,"10071,1,99999,9",,,,,"MET045METAR ENDR 160610Z 10016KT CAVOK 15/11 Q1007;",
"01023199999","2010-07-16T09:10:00","4","64.35","7.8","0.0","DRAUGEN, NO","FM-15","ENDR ","V020","200,1,N,0057,1","99999,9,9,Y","009900,1,N,1","+0190,1","+0100,1","99999,9",,,,,"10102,1,99999,9",,,,,"MET045METAR ENDR 160910Z 20011KT CAVOK 19/10 Q1010;",
"01023199999","2010-07-16T12:10:00","4","64.35","7.8","0.0","DRAUGEN, NO","FM-15","ENDR ","V020","120,1,N,0010,1","99999,9,9,Y","009900,1,N,1","+0200,1","+0100,1","99999,9",,,,,"10108,1,99999,9",,,,,"MET045METAR ENDR 161210Z 12002KT CAVOK 20/10 Q1011;",
"01023199999","2010-07-16T15:10:00","4","64.35","7.8","0.0","DRAUGEN, NO","FM-15","ENDR ","V020","060,1,N,0098,1","99999,9,9,Y","009900,1,N,1","+0230,1","+0090,1","99999,9",,,,,"10102,1,99999,9",,,,,"MET045METAR ENDR 161510Z 06019KT CAVOK 23/09 Q1010;",
"01023199999","2010-07-17T06:10:00","4","64.35","7.8","0.0","DRAUGEN, NO","FM-15","ENDR ","V020","320,1,N,0082,1","01800,1,C,N","011265,1,N,1","+0160,1","+0110,1","99999,9","04,5,+01500,1,99,9","07,5,+01800,1,99,9",,"07,99,1,99,9,99,9,99999,9,99,9,99,9","10108,1,99999,9",,,,,"MET058METAR ENDR 170610Z 32016KT 9999 SCT050 BKN060 16/11 Q1011;",
"01023199999","2010-07-17T09:10:00","4","64.35","7.8","0.0","DRAUGEN, NO","FM-16","ENDR ","V020","050,1,N,0051,1","99999,9,9,Y","009900,1,N,1","+9999,9","+9999,9","99999,9",,,,,,,,,,"MET033METAR ENDR 170910Z 05010KT CAVOK;",
"01023199999","2010-07-17T12:10:00","4","64.35","7.8","0.0","DRAUGEN, NO","FM-16","ENDR ","V020","090,1,N,0108,1","99999,9,9,Y","009900,1,N,1","+9999,9","+9999,9","99999,9",,,,,,,,,,"MET033METAR ENDR 171210Z 09021KT CAVOK;",
"01023199999","2010-07-17T15:10:00","4","64.35","7.8","0.0","DRAUGEN, NO","FM-15","ENDR ","V020","080,1,N,0139,1","99999,9,9,Y","009900,1,N,1","+0170,1","+0100,1","99999,9",,,,,"10129,1,99999,9",,,,,"MET045METAR ENDR 171510Z 08027KT CAVOK 17/10 Q1013;",
"01023199999","2010-07-18T06:10:00","4","64.35","7.8","0.0","DRAUGEN, NO","FM-16","ENDR ","V020","240,1,N,0118,1","00000,5,9,N","999999,9,N,1","+0120,1","+0110,1","99999,9","07,5,+00000,5,99,9","08,5,+01800,5,99,9",,,"10100,1,99999,9",,,,,"MET056METAR ENDR 180610Z 24023KT RA BKN000 OVC060 12/11 Q1010;",
"01023199999","2010-07-18T09:10:00","4","64.35","7.8","0.0","DRAUGEN, NO","FM-15","ENDR ","V020","220,1,N,0113,1","01800,1,C,N","011265,1,N,1","+0120,1","+0100,1","99999,9","02,5,+00300,1,99,9","07,5,+01800,1,99,9",,"07,99,1,99,9,99,9,99999,9,99,9,99,9","10108,1,99999,9",,,,,"MET058METAR ENDR 180910Z 22022KT 9999 FEW010 BKN060 12/10 Q1011;",
"01023199999","2010-07-18T15:10:00","4","64.35","7.8","0.0","DRAUGEN, NO","FM-15","ENDR ","V020","220,1,N,0144,1","99999,9,9,Y","009900,1,N,1","+0130,1","+0090,1","99999,9",,,,,"10129,1,99999,9",,,,,"MET045METAR ENDR 181510Z 22028KT CAVOK 13/09 Q1013;",
"01023199999","2010-07-19T06:10:00","4","64.35","7.8","0.0","DRAUGEN, NO","FM-15","ENDR ","V020","230,1,N,0108,1","00120,1,C,N","005000,1,N,1","+0120,1","+0110,1","99999,9","08,5,+00120,1,99,9",,,"08,99,1,99,9,99,9,99999,9,99,9,99,9","10091,1,99999,9","61,1",,,,"MET055METAR ENDR 190610Z 23021KT 5000 -RA OVC004 12/11 Q1009;",
"01023199999","2010-07-19T09:10:00","4","64.35","7.8","0.0","DRAUGEN, NO","FM-15","ENDR ","V020","240,1,N,0113,1","00600,1,C,N","011265,1,N,1","+0120,1","+0110,1","99999,9","04,5,+00240,1,99,9","08,5,+00600,1,99,9",,"08,99,1,99,9,99,9,99999,9,99,9,99,9","10108,1,99999,9",,,,,"MET058METAR ENDR 190910Z 24022KT 9999 SCT008 OVC020 12/11 Q1011;",
"01023199999","2010-07-19T12:10:00","4","64.35","7.8","0.0","DRAUGEN, NO","FM-15","ENDR ","V020","230,1,N,0098,1","22000,1,9,N","011265,1,N,1","+0120,1","+0100,1","99999,9","02,5,+00300,1,99,9",,,"02,99,1,99,9,99,9,99999,9,99,9,99,9","10119,1,99999,9",,,,,"MET051METAR ENDR 191210Z 23019KT 9999 FEW010 12/10 Q1012;",
"01023199999","2010-07-19T15:10:00","4","64.35","7.8","0.0","DRAUGEN, NO","FM-15","ENDR ","V020","220,1,N,0108,1","00900,1,C,N","011265,1,N,1","+0120,1","+0110,1","99999,9","02,5,+00180,1,99,9","07,5,+00900,1,99,9",,"07,99,1,99,9,99,9,99999,9,99,9,99,9","10119,1,99999,9",,,,,"MET058METAR ENDR 191510Z 22021KT 9999 FEW006 BKN030 12/11 Q1012;",
"01023199999","2010-07-20T06:10:00","4","64.35","7.8","0.0","DRAUGEN, NO","FM-15","ENDR ","V020","230,1,N,0062,1","01200,1,C,N","011265,1,N,1","+0120,1","+0090,1","99999,9","02,5,+00480,1,99,9","07,5,+01200,1,99,9",,"07,99,1,99,9,99,9,99999,9,99,9,99,9","10119,1,99999,9",,,,,"MET058METAR ENDR 200610Z 23012KT 9999 FEW016 BKN040 12/09 Q1012;",
"01023199999","2010-07-20T09:10:00","4","64.35","7.8","0.0","DRAUGEN, NO","FM-15","ENDR ","V020","210,1,N,0051,1","00960,1,C,N","011265,1,N,1","+0120,1","+0100,1","99999,9","02,5,+00240,1,99,9","07,5,+00960,1,99,9",,"07,99,1,99,9,99,9,99999,9,99,9,99,9","10119,1,99999,9",,,,,"MET058METAR ENDR 200910Z 21010KT 9999 FEW008 BKN032 12/10 Q1012;",
"01023199999","2010-07-20T15:10:00","4","64.35","7.8","0.0","DRAUGEN, NO","FM-15","ENDR ","V020","340,1,N,0010,1","01200,1,C,N","011265,1,N,1","+0130,1","+0100,1","99999,9","02,5,+00300,1,99,9","07,5,+01200,1,99,9",,"07,99,1,99,9,99,9,99999,9,99,9,99,9","10108,1,99999,9",,,,,"MET058METAR ENDR 201510Z 34002KT 9999 FEW010 BKN040 13/10 Q1011;",
"01023199999","2010-07-21T06:10:00","4","64.35","7.8","0.0","DRAUGEN, NO","FM-15","ENDR ","V020","080,1,N,0051,1","01050,1,C,N","011265,1,N,1","+0130,1","+0100,1","99999,9","02,5,+00210,1,99,9","08,5,+01050,1,99,9",,"08,99,1,99,9,99,9,99999,9,99,9,99,9","10081,1,99999,9","61,1",,,,"MET062METAR ENDR 210610Z 08010KT 9999 -RA FEW007 OVC035 13/10 Q1008;",
"01023199999","2010-07-21T09:10:00","4","64.35","7.8","0.0","DRAUGEN, NO","FM-15","ENDR ","V020","060,1,N,0067,1","00660,1,C,N","011265,1,N,1","+0130,1","+0100,1","99999,9","02,5,+00210,1,99,9","08,5,+00660,1,99,9",,"08,99,1,99,9,99,9,99999,9,99,9,99,9","10081,1,99999,9",,,,,"MET058METAR ENDR 210910Z 06013KT 9999 FEW007 OVC022 13/10 Q1008;",
"01023199999","2010-07-21T12:10:00","4","64.35","7.8","0.0","DRAUGEN, NO","FM-15","ENDR ","V020","060,1,N,0093,1","00240,1,C,N","011265,1,N,1","+0120,1","+0090,1","99999,9","08,5,+00240,1,99,9",,,"08,99,1,99,9,99,9,99999,9,99,9,99,9","10071,1,99999,9","51,1",,,,"MET055METAR ENDR 211210Z 06018KT 9999 -DZ OVC008 12/09 Q1007;",
"01023199999","2010-07-22T06:10:00","4","64.35","7.8","0.0","DRAUGEN, NO","FM-15","ENDR ","V020","020,1,N,0139,1","00510,1,C,N","011265,1,N,1","+0110,1","+0070,1","99999,9","07,5,+00510,1,99,9","08,5,+01350,1,99,9",,"08,99,1,99,9,99,9,99999,9,99,9,99,9","10020,1,99999,9","63,1",,,,"MET061METAR ENDR 220610Z 02027KT 9999 RA BKN017 OVC045 11/07 Q1002;",
"01023199999","2010-07-22T09:10:00","4","64.35","7.8","0.0","DRAUGEN, NO","FM-15","ENDR ","V020","360,1,N,0118,1","01050,1,C,N","011265,1,N,1","+0100,1","+0050,1","99999,9","04,5,+00660,1,99,9","07,5,+01050,1,99,9",,"07,99,1,99,9,99,9,99999,9,99,9,99,9","10041,1,99999,9","61,1",,,,"MET062METAR ENDR 220910Z 36023KT 9999 -RA SCT022 BKN035 10/05 Q1004;",
"01023199999","2010-07-22T15:10:00","4","64.35","7.8","0.0","DRAUGEN, NO","FM-15","ENDR ","V020","340,1,N,0098,1","22000,1,9,N","011265,1,N,1","+0120,1","+0030,1","99999,9","02,5,+00720,1,99,9",,,"02,99,1,99,9,99,9,99999,9,99,9,99,9","10102,1,99999,9",,,,,"MET051METAR ENDR 221510Z 34019KT 9999 FEW024 12/03 Q1010;",
"01023199999","2010-07-23T06:10:00","4","64.35","7.8","0.0","DRAUGEN, NO","FM-15","ENDR ","V020","280,1,N,0031,1","22000,1,9,N","011265,1,N,1","+0110,1","+0020,1","99999,9","02,5,+00450,1,99,9",,,"02,99,1,99,9,99,9,99999,9,99,9,99,9","10210,1,99999,9",,,,,"MET051METAR ENDR 230610Z 28006KT 9999 FEW015 11/02 Q1021;",
"01023199999","2010-07-23T09:10:00","4","64.35","7.8","0.0","DRAUGEN, NO","FM-15","ENDR ","V020","210,1,N,0021,1","99999,9,9,Y","009900,1,N,1","+0120,1","+0030,1","99999,9",,,,,"10220,1,99999,9",,,,,"MET045METAR ENDR 230910Z 21004KT CAVOK 12/03 Q1022;",
"01023199999","2010-07-23T12:10:00","4","64.35","7.8","0.0","DRAUGEN, NO","FM-15","ENDR ","V020","160,1,N,0010,1","22000,1,9,N","011265,1,N,1","+0130,1","+0030,1","99999,9","02,5,+00900,1,99,9",,,"02,99,1,99,9,99,9,99999,9,99,9,99,9","10220,1,99999,9",,,,,"MET051METAR ENDR 231210Z 16002KT 9999 FEW030 13/03 Q1022;",
"01023199999","2010-07-23T15:10:00","4","64.35","7.8","0.0","DRAUGEN, NO","FM-15","ENDR ","V020","080,1,N,0021,1","22000,1,9,N","011265,1,N,1","+0130,1","+0040,1","99999,9","02,5,+00600,1,99,9",,,"02,99,1,99,9,99,9,99999,9,99,9,99,9","10220,1,99999,9",,,,,"MET059METAR ENDR 231510Z 08004KT 040V120 9999 FEW020 13/04 Q1022;",
"01023199999","2010-07-24T06:10:00","4","64.35","7.8","0.0","DRAUGEN, NO","FM-15","ENDR ","V020","040,1,N,0072,1","99999,9,9,Y","009900,1,N,1","+0120,1","+0070,1","99999,9",,,,,"10200,1,99999,9",,,,,"MET045METAR ENDR 240610Z 04014KT CAVOK 12/07 Q1020;",
"01023199999","2010-07-24T09:10:00","4","64.35","7.8","0.0","DRAUGEN, NO","FM-15","ENDR ","V020","050,1,N,0072,1","99999,9,9,Y","009900,1,N,1","+0140,1","+0070,1","99999,9",,,,,"10200,1,99999,9",,,,,"MET045METAR ENDR 240910Z 05014KT CAVOK 14/07 Q1020;",
"01023199999","2010-07-24T12:10:00","4","64.35","7.8","0.0","DRAUGEN, NO","FM-15","ENDR ","V020","070,1,N,0067,1","99999,9,9,Y","009900,1,N,1","+0150,1","+0080,1","99999,9",,,,,"10200,1,99999,9",,,,,"MET045METAR ENDR 241210Z 07013KT CAVOK 15/08 Q1020;",
"01023199999","2010-07-24T15:10:00","4","64.35","7.8","0.0","DRAUGEN, NO","FM-15","ENDR ","V020","070,1,N,0051,1","99999,9,9,Y","009900,1,N,1","+0160,1","+0080,1","99999,9",,,,,"10200,1,99999,9",,,,,"MET045METAR ENDR 241510Z 07010KT CAVOK 16/08 Q1020;",
"01023199999","2010-07-25T06:10:00","4","64.35","7.8","0.0","DRAUGEN, NO","FM-15","ENDR ","V020","060,1,N,0077,1","99999,9,9,Y","009900,1,N,1","+0140,1","+0100,1","99999,9",,,,,"10159,1,99999,9",,,,,"MET045METAR ENDR 250610Z 06015KT CAVOK 14/10 Q1016;",
"01023199999","2010-07-25T09:10:00","4","64.35","7.8","0.0","DRAUGEN, NO","FM-15","ENDR ","V020","999,9,9,9999,9","22000,1,9,N","999999,9,N,1","+0150,1","+0100,1","99999,9",,,,,"10159,1,99999,9",,,,,"MET035METAR ENDR 250910Z SKC 15/10 Q1016;",
"01023199999","2010-07-25T12:10:00","4","64.35","7.8","0.0","DRAUGEN, NO","FM-15","ENDR ","V020","050,1,N,0062,1","99999,9,9,Y","009900,1,N,1","+0140,1","+0100,1","99999,9",,,,,"10159,1,99999,9",,,,,"MET045METAR ENDR 251210Z 05012KT CAVOK 14/10 Q1016;",
"01023199999","2010-07-25T15:10:00","4","64.35","7.8","0.0","DRAUGEN, NO","FM-15","ENDR ","V020","030,1,N,0087,1","99999,9,9,Y","009900,1,N,1","+0150,1","+0110,1","99999,9",,,,,"10149,1,99999,9",,,,,"MET045METAR ENDR 251510Z 03017KT CAVOK 15/11 Q1015;",
"01023199999","2010-07-26T06:10:00","4","64.35","7.8","0.0","DRAUGEN, NO","FM-15","ENDR ","V020","060,1,N,0087,1","99999,9,9,Y","009900,1,N,1","+0150,1","+0100,1","99999,9",,,,,"10108,1,99999,9",,,,,"MET045METAR ENDR 260610Z 06017KT CAVOK 15/10 Q1011;",
"01023199999","2010-07-26T09:10:00","4","64.35","7.8","0.0","DRAUGEN, NO","FM-15","ENDR ","V020","050,1,N,0087,1","01050,1,C,N","011265,1,N,1","+0140,1","+0100,1","99999,9","07,5,+01050,1,99,9","07,5,+01350,1,99,9",,"07,99,1,99,9,99,9,99999,9,99,9,99,9","10102,1,99999,9",,,,,"MET058METAR ENDR 260910Z 05017KT 9999 BKN035 BKN045 14/10 Q1010;",
"01023199999","2010-07-26T12:10:00","4","64.35","7.8","0.0","DRAUGEN, NO","FM-15","ENDR ","V020","050,1,N,0082,1","00750,1,C,N","011265,1,N,1","+0140,1","+0110,1","99999,9","07,5,+00750,1,99,9",,,"07,99,1,99,9,99,9,99999,9,99,9,99,9","10091,1,99999,9",,,,,"MET051METAR ENDR 261210Z 05016KT 9999 BKN025 14/11 Q1009;",
"01023199999","2010-07-27T05:10:00","4","64.35","7.8","0.0","DRAUGEN, NO","FM-15","ENDR ","V020","230,1,N,0072,1","22000,1,9,N","011265,1,N,1","+0120,1","+0110,1","99999,9","04,5,+00240,1,99,9",,,"04,99,1,99,9,99,9,99999,9,99,9,99,9","10091,1,99999,9",,,,,"MET051METAR ENDR 270510Z 23014KT 9999 SCT008 12/11 Q1009;",
"01023199999","2010-07-27T06:10:00","4","64.35","7.8","0.0","DRAUGEN, NO","FM-15","ENDR ","V020","220,1,N,0093,1","99999,9,C,N","011265,1,N,1","+0130,1","+0110,1","99999,9","02,5,+00210,1,99,9","04,5,+00600,1,99,9",,"04,99,1,99,9,99,9,99999,9,99,9,99,9","10091,1,99999,9",,,,,"MET058METAR ENDR 270610Z 22018KT 9999 FEW007 SCT020 13/11 Q1009;","P01 006003SCOCIG"
"01023199999","2010-07-27T09:10:00","4","64.35","7.8","0.0","DRAUGEN, NO","FM-15","ENDR ","V020","250,1,N,0087,1","00450,1,C,N","011265,1,N,1","+0130,1","+0090,1","99999,9","07,5,+00450,1,99,9",,,"07,99,1,99,9,99,9,99999,9,99,9,99,9","10102,1,99999,9",,,,,"MET051METAR ENDR 270910Z 25017KT 9999 BKN015 13/09 Q1010;",
"01023199999","2010-07-27T12:10:00","4","64.35","7.8","0.0","DRAUGEN, NO","FM-15","ENDR ","V020","250,1,N,0051,1","00300,1,C,N","011265,1,N,1","+0120,1","+0100,1","99999,9","08,5,+00300,1,99,9",,,"08,99,1,99,9,99,9,99999,9,99,9,99,9","10119,1,99999,9",,,,,"MET051METAR ENDR 271210Z 25010KT 9999 OVC010 12/10 Q1012;",
"01023199999","2010-07-27T15:10:00","4","64.35","7.8","0.0","DRAUGEN, NO","FM-15","ENDR ","V020","200,1,N,0026,1","99999,9,9,Y","009900,1,N,1","+0140,1","+0100,1","99999,9",,,,,"10119,1,99999,9",,,,,"MET045METAR ENDR 271510Z 20005KT CAVOK 14/10 Q1012;",
"01023199999","2010-07-28T12:10:00","4","64.35","7.8","0.0","DRAUGEN, NO","FM-15","ENDR ","V020","030,1,N,0098,1","99999,9,9,Y","009900,1,N,1","+0160,1","+0110,1","99999,9",,,,,"10119,1,99999,9",,,,,"MET045METAR ENDR 281210Z 03019KT CAVOK 16/11 Q1012;",
"01023199999","2010-07-28T15:10:00","4","64.35","7.8","0.0","DRAUGEN, NO","FM-15","ENDR ","V020","030,1,N,0113,1","99999,9,9,Y","009900,1,N,1","+0160,1","+0110,1","99999,9",,,,,"10119,1,99999,9",,,,,"MET045METAR ENDR 281510Z 03022KT CAVOK 16/11 Q1012;",
"01023199999","2010-07-29T06:10:00","4","64.35","7.8","0.0","DRAUGEN, NO","FM-16","ENDR ","V020","040,1,N,0144,1","00000,5,9,N","999999,9,N,1","+0120,1","+0100,1","99999,9","08,5,+00000,5,99,9",,,,"10130,1,99999,9",,,,,"MET046METAR ENDR 290610Z 04028KT OVC000 12/10 Q1013;",
"01023199999","2010-07-29T12:10:00","4","64.35","7.8","0.0","DRAUGEN, NO","FM-15","ENDR ","V020","020,1,N,0129,1","00270,1,C,N","011265,1,N,1","+0130,1","+0100,1","99999,9","08,5,+00270,1,99,9",,,"08,99,1,99,9,99,9,99999,9,99,9,99,9","10119,1,99999,9",,,,,"MET051METAR ENDR 291210Z 02025KT 9999 OVC009 13/10 Q1012;",
"01023199999","2010-07-29T15:10:00","4","64.35","7.8","0.0","DRAUGEN, NO","FM-15","ENDR ","V020","020,1,N,0144,1","00240,1,C,N","011265,1,N,1","+0130,1","+0100,1","99999,9","08,5,+00240,1,99,9",,,"08,99,1,99,9,99,9,99999,9,99,9,99,9","10108,1,99999,9",,,,,"MET051METAR ENDR 291510Z 02028KT 9999 OVC008 13/10 Q1011;",
"01023199999","2010-07-30T06:10:00","4","64.35","7.8","0.0","DRAUGEN, NO","FM-15","ENDR ","V020","030,1,N,0062,1","00060,1,C,N","005000,1,N,1","+0130,1","+0120,1","99999,9","08,5,+00060,1,99,9",,,"08,99,1,99,9,99,9,99999,9,99,9,99,9","10010,1,99999,9",,,,,"MET052METAR ENDR 300610Z 03012KT 5000W OVC002 13/12 Q1001;",
"01023199999","2010-07-30T09:10:00","4","64.35","7.8","0.0","DRAUGEN, NO","FM-15","ENDR ","V020","110,1,N,0021,1","00030,1,C,N","002000,1,N,1","+0130,1","+0120,1","99999,9","08,5,+00030,1,99,9",,,"08,99,1,99,9,99,9,99999,9,99,9,99,9","10000,1,99999,9","10,1",,,,"MET054METAR ENDR 300910Z 11004KT 2000 BR OVC001 13/12 Q1000;",
"01023199999","2010-07-30T12:10:00","4","64.35","7.8","0.0","DRAUGEN, NO","FM-15","ENDR ","V020","160,1,N,0010,1","00030,1,C,N","001000,1,N,1","+0140,1","+0130,1","99999,9","08,5,+00030,1,99,9",,,"08,99,1,99,9,99,9,99999,9,99,9,99,9","09980,1,99999,9","10,1",,,,"MET054METAR ENDR 301210Z 16002KT 1000 BR OVC001 14/13 Q0998;",
"01023199999","2010-07-30T15:10:00","4","64.35","7.8","0.0","DRAUGEN, NO","FM-15","ENDR ","V020","190,1,N,0046,1","00120,1,C,N","003000,1,N,1","+0140,1","+0120,1","99999,9","08,5,+00120,1,99,9",,,"08,99,1,99,9,99,9,99999,9,99,9,99,9","09970,1,99999,9","10,1",,,,"MET054METAR ENDR 301510Z 19009KT 3000 BR OVC004 14/12 Q0997;",
"01023199999","2010-07-31T06:10:00","4","64.35","7.8","0.0","DRAUGEN, NO","FM-15","ENDR ","V020","250,1,N,0118,1","00270,1,C,N","003000,1,N,1","+0120,1","+0100,1","99999,9","07,5,+00270,1,99,9","07,5,+02610,5,99,9",,"07,99,1,99,9,99,9,99999,9,99,9,99,9","09990,1,99999,9","16,1",,,,"MET063METAR ENDR 310610Z 25023KT 3000 VCSH BKN009 BKN087 12/10 Q0999;",
"01023199999","2010-07-31T09:10:00","4","64.35","7.8","0.0","DRAUGEN, NO","FM-15","ENDR ","V020","230,1,N,0129,1","00300,1,C,N","011265,1,N,1","+0120,1","+0090,1","99999,9","07,5,+00300,1,99,9",,,"07,99,1,99,9,99,9,99999,9,99,9,99,9","10010,1,99999,9","16,1",,,,"MET056METAR ENDR 310910Z 23025KT 9999 VCSH BKN010 12/09 Q1001;",
"01023199999","2010-07-31T12:10:00","4","64.35","7.8","0.0","DRAUGEN, NO","FM-15","ENDR ","V020","240,1,N,0123,1","00420,1,C,N","011265,1,N,1","+0120,1","+0090,1","99999,9","07,5,+00420,1,99,9",,,"07,99,1,99,9,99,9,99999,9,99,9,99,9","10020,1,99999,9",,,,,"MET051METAR ENDR 311210Z 24024KT 9999 BKN014 12/09 Q1002;",
"01023199999","2010-07-31T15:10:00","4","64.35","7.8","0.0","DRAUGEN, NO","FM-15","ENDR ","V020","230,1,N,0118,1","00330,1,C,N","011265,1,N,1","+0120,1","+0090,1","99999,9","08,5,+00330,1,99,9",,,"08,99,1,99,9,99,9,99999,9,99,9,99,9","10031,1,99999,9","16,1",,,,"MET056METAR ENDR 311510Z 23023KT 9999 VCSH OVC011 12/09 Q1003;",
"01023199999","2010-08-01T06:10:00","4","64.35","7.8","0.0","DRAUGEN, NO","FM-15","ENDR ","V020","260,1,N,0041,1","00540,1,C,N","011265,1,N,1","+0120,1","+0070,1","99999,9","08,5,+00540,1,99,9",,,"08,99,1,99,9,99,9,99999,9,99,9,99,9","10051,1,99999,9",,,,,"MET051METAR ENDR 010610Z 26008KT 9999 OVC018 12/07 Q1005;",
"01023199999","2010-08-01T09:10:00","4","64.35","7.8","0.0","DRAUGEN, NO","FM-15","ENDR ","V020","290,1,N,0036,1","04080,5,C,N","011265,1,N,1","+0120,1","+0080,1","99999,9","04,5,+02580,5,99,9","07,5,+04080,5,99,9",,"07,99,1,99,9,99,9,99999,9,99,9,99,9","10061,1,99999,9",,,,,"MET058METAR ENDR 010910Z 29007KT 9999 SCT086 BKN136 12/08 Q1006;",
"01023199999","2010-08-01T12:10:00","4","64.35","7.8","0.0","DRAUGEN, NO","FM-15","ENDR ","V020","260,1,N,0041,1","00570,1,C,N","011265,1,N,1","+0150,1","+0070,1","99999,9","07,5,+00570,1,99,9","07,5,+01050,1,99,9","07,5,+01200,1,99,9","07,99,1,99,9,99,9,99999,9,99,9,99,9","10061,1,99999,9",,,,,"MET065METAR ENDR 011210Z 26008KT 9999 BKN019 BKN035 BKN040 15/07 Q1006;",
"01023199999","2010-08-01T15:10:00","4","64.35","7.8","0.0","DRAUGEN, NO","FM-15","ENDR ","V020","240,1,N,0051,1","03900,1,C,N","011265,1,N,1","+0130,1","+0080,1","99999,9","04,5,+00570,1,99,9","07,5,+03900,1,99,9",,"07,99,1,99,9,99,9,99999,9,99,9,99,9","10071,1,99999,9",,,,,"MET058METAR ENDR 011510Z 24010KT 9999 SCT019 BKN130 13/08 Q1007;",
"01023199999","2010-08-02T06:10:00","4","64.35","7.8","0.0","DRAUGEN, NO","FM-15","ENDR ","V020","220,1,N,0098,1","99999,9,C,N","011265,1,N,1","+0120,1","+0090,1","99999,9","04,5,+00300,1,99,9","04,5,+02400,1,99,9",,"04,99,1,99,9,99,9,99999,9,99,9,99,9","10102,1,99999,9","16,1",,,,"MET063METAR ENDR 020610Z 22019KT 9999 VCSH SCT010 SCT080 12/09 Q1010;","P01 024003SCOCIG"
"01023199999","2010-08-02T09:20:00","4","64.35","7.8","0.0","DRAUGEN, NO","FM-15","ENDR ","V020","220,1,N,0103,1","01740,5,C,N","011265,1,N,1","+0120,1","+0100,1","99999,9","04,5,+00240,1,99,9","07,5,+01740,5,99,9",,"07,99,1,99,9,99,9,99999,9,99,9,99,9","10102,1,99999,9","16,1",,,,"MET063METAR ENDR 020920Z 22020KT 9999 VCSH SCT008 BKN058 12/10 Q1010;",
"01023199999","2010-08-02T12:10:00","4","64.35","7.8","0.0","DRAUGEN, NO","FM-15","ENDR ","V020","230,1,N,0098,1","00270,1,C,N","011265,1,N,1","+0120,1","+0100,1","99999,9","07,5,+00270,1,99,9","07,5,+01350,1,99,9","07,5,+01830,5,99,9","07,99,1,99,9,99,9,99999,9,99,9,99,9","10102,1,99999,9",,,,,"MET065METAR ENDR 021210Z 23019KT 9999 BKN009 BKN045 BKN061 12/10 Q1010;",
"01023199999","2010-08-02T15:10:00","4","64.35","7.8","0.0","DRAUGEN, NO","FM-15","ENDR ","V020","240,1,N,0087,1","00900,1,C,N","011265,1,N,1","+0120,1","+0110,1","99999,9","08,5,+00900,1,99,9",,,"08,99,1,99,9,99,9,99999,9,99,9,99,9","10102,1,99999,9","16,1",,,,"MET056METAR ENDR 021510Z 24017KT 9999 VCSH OVC030 12/11 Q1010;",
"01023199999","2010-08-03T06:10:00","4","64.35","7.8","0.0","DRAUGEN, NO","FM-15","ENDR ","V020","210,1,N,0026,1","00690,1,C,N","011265,1,N,1","+0110,1","+0090,1","99999,9","02,5,+00360,1,99,9","04,5,+00690,1,99,9","07,5,+01890,5,99,9","07,99,1,99,9,99,9,99999,9,99,9,99,9","10102,1,99999,9","16,1",,,,"MET070METAR ENDR 030610Z 21005KT 9999 VCSH FEW012 SCT023 BKN063 11/09 Q1010;",
"01023199999","2010-08-03T09:10:00","4","64.35","7.8","0.0","DRAUGEN, NO","FM-15","ENDR ","V020","200,1,N,0041,1","00720,1,C,N","011265,1,N,1","+0120,1","+0090,1","99999,9","02,5,+00300,1,99,9","08,5,+00720,1,99,9",,"08,99,1,99,9,99,9,99999,9,99,9,99,9","10102,1,99999,9",,,,,"MET058METAR ENDR 030910Z 20008KT 9999 FEW010 OVC024 12/09 Q1010;",
"01023199999","2010-08-03T12:20:00","4","64.35","7.8","0.0","DRAUGEN, NO","FM-15","ENDR ","V020","210,1,N,0046,1","00840,1,C,N","011265,1,N,1","+0120,1","+0090,1","99999,9","04,5,+00300,1,99,9","04,5,+00840,1,99,9","07,5,+03900,1,99,9","07,99,1,99,9,99,9,99999,9,99,9,99,9","10091,1,99999,9",,,,,"MET065METAR ENDR 031220Z 21009KT 9999 SCT010 SCT028 BKN130 12/09 Q1009;",
"01023199999","2010-08-03T15:10:00","4","64.35","7.8","0.0","DRAUGEN, NO","FM-15","ENDR ","V020","220,1,N,0036,1","01920,5,C,N","011265,1,N,1","+0120,1","+0090,1","99999,9","02,5,+00240,1,99,9","07,5,+01920,5,99,9","07,5,+04140,5,99,9","07,99,1,99,9,99,9,99999,9,99,9,99,9","10091,1,99999,9",,,,,"MET065METAR ENDR 031510Z 22007KT 9999 FEW008 BKN064 BKN138 12/09 Q1009;",
"01023199999","2010-08-04T06:10:00","4","64.35","7.8","0.0","DRAUGEN, NO","FM-15","ENDR ","V020","060,1,N,0051,1","01980,5,C,N","011265,1,N,1","+0140,1","+0100,1","99999,9","04,5,+00240,1,99,9","07,5,+01980,5,99,9",,"07,99,1,99,9,99,9,99999,9,99,9,99,9","10061,1,99999,9",,,,,"MET058METAR ENDR 040610Z 06010KT 9999 SCT008 BKN066 14/10 Q1006;",
"01023199999","2010-08-04T09:10:00","4","64.35","7.8","0.0","DRAUGEN, NO","FM-15","ENDR ","V020","050,1,N,0082,1","02280,5,C,N","011265,1,N,1","+0140,1","+0100,1","99999,9","02,5,+00210,1,99,9","07,5,+02280,5,99,9",,"07,99,1,99,9,99,9,99999,9,99,9,99,9","10061,1,99999,9",,,,,"MET058METAR ENDR 040910Z 05016KT 9999 FEW007 BKN076 14/10 Q1006;",
"01023199999","2010-08-04T12:10:00","4","64.35","7.8","0.0","DRAUGEN, NO","FM-15","ENDR ","V020","040,1,N,0077,1","01110,1,C,N","011265,1,N,1","+0150,1","+0100,1","99999,9","07,5,+01110,1,99,9","07,5,+01800,1,99,9",,"07,99,1,99,9,99,9,99999,9,99,9,99,9","10051,1,99999,9",,,,,"MET058METAR ENDR 041210Z 04015KT 9999 BKN037 BKN060 15/10 Q1005;",
"01023199999","2010-08-04T15:10:00","4","64.35","7.8","0.0","DRAUGEN, NO","FM-15","ENDR ","V020","030,1,N,0072,1","01230,1,C,N","011265,1,N,1","+0140,1","+0100,1","99999,9","07,5,+01230,1,99,9","07,5,+01890,5,99,9",,"07,99,1,99,9,99,9,99999,9,99,9,99,9","10061,1,99999,9",,,,,"MET058METAR ENDR 041510Z 03014KT 9999 BKN041 BKN063 14/10 Q1006;",
"01023199999","2010-08-05T06:10:00","4","64.35","7.8","0.0","DRAUGEN, NO","FM-15","ENDR ","V020","040,1,N,0082,1","00270,1,C,N","011265,1,N,1","+0130,1","+0100,1","99999,9","07,5,+00270,1,99,9",,,"07,99,1,99,9,99,9,99999,9,99,9,99,9","10081,1,99999,9",,,,,"MET051METAR ENDR 050610Z 04016KT 9999 BKN009 13/10 Q1008;",
"01023199999","2010-08-05T09:20:00","4","64.35","7.8","0.0","DRAUGEN, NO","FM-15","ENDR ","V020","050,1,N,0087,1","02400,1,C,N","011265,1,N,1","+0140,1","+0100,1","99999,9","04,5,+00270,1,99,9","07,5,+02400,1,99,9",,"07,99,1,99,9,99,9,99999,9,99,9,99,9","10091,1,99999,9",,,,,"MET058METAR ENDR 050920Z 05017KT 9999 SCT009 BKN080 14/10 Q1009;",
"01023199999","2010-08-05T12:10:00","4","64.35","7.8","0.0","DRAUGEN, NO","FM-15","ENDR ","V020","050,1,N,0118,1","00270,1,C,N","011265,1,N,1","+0140,1","+0100,1","99999,9","07,5,+00270,1,99,9","07,5,+02400,1,99,9",,"07,99,1,99,9,99,9,99999,9,99,9,99,9","10091,1,99999,9",,,,,"MET058METAR ENDR 051210Z 05023KT 9999 BKN009 BKN080 14/10 Q1009;",
"01023199999","2010-08-05T15:10:00","4","64.35","7.8","0.0","DRAUGEN, NO","FM-15","ENDR ","V020","050,1,N,0134,1","99999,9,C,N","011265,1,N,1","+0150,1","+0110,1","99999,9","02,5,+00210,1,09,1","04,5,+02400,1,99,9",,"04,99,1,99,9,99,9,99999,9,99,9,99,9","10091,1,99999,9",,,,,"MET060METAR ENDR 051510Z 05026KT 9999 FEW007CB SCT080 15/11 Q1009;","P01 024003SCOCIG"
"01023199999","2010-08-06T06:20:00","4","64.35","7.8","0.0","DRAUGEN, NO","FM-15","ENDR ","V020","080,1,N,0098,1","02100,1,C,N","011265,1,N,1","+0160,1","+0120,1","99999,9","07,5,+02100,1,99,9",,,"07,99,1,99,9,99,9,99999,9,99,9,99,9","10081,1,99999,9","16,1",,,,"MET056METAR ENDR 060620Z 08019KT 9999 VCSH BKN070 16/12 Q1008;",
"01023199999","2010-08-06T09:10:00","4","64.35","7.8","0.0","DRAUGEN, NO","FM-15","ENDR ","V020","200,1,N,0067,1","99999,9,9,Y","009900,1,N,1","+0170,1","+0120,1","99999,9",,,,,"10091,1,99999,9",,,,,"MET045METAR ENDR 060910Z 20013KT CAVOK 17/12 Q1009;",
"01023199999","2010-08-06T12:10:00","4","64.35","7.8","0.0","DRAUGEN, NO","FM-15","ENDR ","V020","210,1,N,0021,1","99999,9,C,N","011265,1,N,1","+0210,1","+0120,1","99999,9","02,5,+02400,1,99,9","04,5,+06000,1,09,5",,"04,99,1,99,9,99,9,99999,9,99,9,99,9","10102,1,99999,9",,,,,"MET060METAR ENDR 061210Z 21004KT 9999 FEW080 SCT200CB 21/12 Q1010;","P01 060003SCOCIG"
"01023199999","2010-08-06T15:10:00","4","64.35","7.8","0.0","DRAUGEN, NO","FM-15","ENDR ","V020","310,1,N,0015,1","02820,5,C,N","011265,1,N,1","+0180,1","+0120,1","99999,9","07,5,+02820,5,99,9",,,"07,99,1,99,9,99,9,99999,9,99,9,99,9","10108,1,99999,9","16,1",,,,"MET056METAR ENDR 061510Z 31003KT 9999 VCSH BKN094 18/12 Q1011;",
"01023199999","2010-08-07T06:20:00","4","64.35","7.8","0.0","DRAUGEN, NO","FM-15","ENDR ","V020","170,1,N,0041,1","99999,9,9,Y","009900,1,N,1","+0140,1","+0120,1","99999,9",,,,,"10180,1,99999,9",,,,,"MET045METAR ENDR 070620Z 17008KT CAVOK 14/12 Q1018;",
"01023199999","2010-08-07T09:10:00","4","64.35","7.8","0.0","DRAUGEN, NO","FM-15","ENDR ","V020","100,1,N,0046,1","99999,9,9,Y","009900,1,N,1","+0140,1","+0110,1","99999,9",,,,,"10190,1,99999,9",,,,,"MET045METAR ENDR 070910Z 10009KT CAVOK 14/11 Q1019;",
"01023199999","2010-08-07T12:10:00","4","64.35","7.8","0.0","DRAUGEN, NO","FM-15","ENDR ","V020","060,1,N,0062,1","99999,9,9,Y","009900,1,N,1","+0180,1","+0120,1","99999,9",,,,,"10180,1,99999,9",,,,,"MET045METAR ENDR 071210Z 06012KT CAVOK 18/12 Q1018;",
"01023199999","2010-08-07T15:10:00","4","64.35","7.8","0.0","DRAUGEN, NO","FM-15","ENDR ","V020","040,1,N,0087,1","99999,9,9,Y","009900,1,N,1","+0160,1","+0110,1","99999,9",,,,,"10180,1,99999,9",,,,,"MET045METAR ENDR 071510Z 04017KT CAVOK 16/11 Q1018;",
"01023199999","2010-08-08T06:10:00","4","64.35","7.8","0.0","DRAUGEN, NO","FM-15","ENDR ","V020","040,1,N,0103,1","99999,9,9,Y","009900,1,N,1","+0140,1","+0120,1","99999,9",,,,,"10159,1,99999,9",,,,,"MET045METAR ENDR 080610Z 04020KT CAVOK 14/12 Q1016;",
"01023199999","2010-08-08T09:10:00","4","64.35","7.8","0.0","DRAUGEN, NO","FM-15","ENDR ","V020","040,1,N,0098,1","99999,9,9,Y","009900,1,N,1","+0150,1","+0120,1","99999,9",,,,,"10169,1,99999,9",,,,,"MET045METAR ENDR 080910Z 04019KT CAVOK 15/12 Q1017;",
"01023199999","2010-08-08T12:10:00","4","64.35","7.8","0.0","DRAUGEN, NO","FM-15","ENDR ","V020","030,1,N,0113,1","00150,1,C,N","011265,1,N,1","+0140,1","+0110,1","99999,9","07,5,+00150,1,99,9",,,"07,99,1,99,9,99,9,99999,9,99,9,99,9","10169,1,99999,9","40,1",,,,"MET056METAR ENDR 081210Z 03022KT 9999 VCFG BKN005 14/11 Q1017;",
"01023199999","2010-08-08T15:10:00","4","64.35","7.8","0.0","DRAUGEN, NO","FM-15","ENDR ","V020","030,1,N,0093,1","00180,1,C,N","011265,1,N,1","+0140,1","+0110,1","99999,9","07,5,+00180,1,99,9",,,"07,99,1,99,9,99,9,99999,9,99,9,99,9","10169,1,99999,9","40,1",,,,"MET056METAR ENDR 081510Z 03018KT 9999 VCFG BKN006 14/11 Q1017;",
"01023199999","2010-08-09T06:10:00","4","64.35","7.8","0.0","DRAUGEN, NO","FM-15","ENDR ","V020","040,1,N,0103,1","00270,1,C,N","011265,1,N,1","+0120,1","+0090,1","99999,9","08,5,+00270,1,99,9",,,"08,99,1,99,9,99,9,99999,9,99,9,99,9","10139,1,99999,9",,,,,"MET051METAR ENDR 090610Z 04020KT 9999 OVC009 12/09 Q1014;",
"01023199999","2010-08-09T09:10:00","4","64.35","7.8","0.0","DRAUGEN, NO","FM-15","ENDR ","V020","040,1,N,0108,1","00330,1,C,N","011265,1,N,1","+0130,1","+0090,1","99999,9","08,5,+00330,1,99,9",,,"08,99,1,99,9,99,9,99999,9,99,9,99,9","10139,1,99999,9",,,,,"MET051METAR ENDR 090910Z 04021KT 9999 OVC011 13/09 Q1014;",
"01023199999","2010-08-09T12:10:00","4","64.35","7.8","0.0","DRAUGEN, NO","FM-15","ENDR ","V020","040,1,N,0113,1","00390,1,C,N","011265,1,N,1","+0140,1","+0090,1","99999,9","07,5,+00390,1,99,9",,,"07,99,1,99,9,99,9,99999,9,99,9,99,9","10129,1,99999,9",,,,,"MET051METAR ENDR 091210Z 04022KT 9999 BKN013 14/09 Q1013;",
"01023199999","2010-08-09T15:10:00","4","64.35","7.8","0.0","DRAUGEN, NO","FM-15","ENDR ","V020","030,1,N,0108,1","00360,1,C,N","011265,1,N,1","+0130,1","+0090,1","99999,9","07,5,+00360,1,99,9",,,"07,99,1,99,9,99,9,99999,9,99,9,99,9","10119,1,99999,9",,,,,"MET051METAR ENDR 091510Z 03021KT 9999 BKN012 13/09 Q1012;",
"01023199999","2010-08-10T06:10:00","4","64.35","7.8","0.0","DRAUGEN, NO","FM-15","ENDR ","V020","040,1,N,0046,1","00300,1,C,N","011265,1,N,1","+0130,1","+0090,1","99999,9","08,5,+00300,1,99,9",,,"08,99,1,99,9,99,9,99999,9,99,9,99,9","10108,1,99999,9",,,,,"MET051METAR ENDR 100610Z 04009KT 9999 OVC010 13/09 Q1011;",
"01023199999","2010-08-10T09:10:00","4","64.35","7.8","0.0","DRAUGEN, NO","FM-15","ENDR ","V020","050,1,N,0051,1","00270,1,C,N","011265,1,N,1","+0130,1","+0100,1","99999,9","08,5,+00270,1,99,9",,,"08,99,1,99,9,99,9,99999,9,99,9,99,9","10108,1,99999,9",,,,,"MET051METAR ENDR 100910Z 05010KT 9999 OVC009 13/10 Q1011;",
"01023199999","2010-08-10T12:10:00","4","64.35","7.8","0.0","DRAUGEN, NO","FM-15","ENDR ","V020","040,1,N,0062,1","00240,1,C,N","011265,1,N,1","+0130,1","+0100,1","99999,9","07,5,+00240,1,99,9","08,5,+00840,1,99,9",,"08,99,1,99,9,99,9,99999,9,99,9,99,9","10108,1,99999,9",,,,,"MET058METAR ENDR 101210Z 04012KT 9999 BKN008 OVC028 13/10 Q1011;",
"01023199999","2010-08-10T15:10:00","4","64.35","7.8","0.0","DRAUGEN, NO","FM-15","ENDR ","V020","040,1,N,0062,1","00330,1,C,N","011265,1,N,1","+0140,1","+0090,1","99999,9","08,5,+00330,1,99,9",,,"08,99,1,99,9,99,9,99999,9,99,9,99,9","10108,1,99999,9",,,,,"MET051METAR ENDR 101510Z 04012KT 9999 OVC011 14/09 Q1011;",
"01023199999","2010-08-11T06:10:00","4","64.35","7.8","0.0","DRAUGEN, NO","FM-15","ENDR ","V020","040,1,N,0113,1","00120,1,C,N","011265,1,N,1","+0120,1","+0110,1","99999,9","08,5,+00120,1,99,9",,,"08,99,1,99,9,99,9,99999,9,99,9,99,9","10091,1,99999,9",,,,,"MET051METAR ENDR 110610Z 04022KT 9999 OVC004 12/11 Q1009;",
"01023199999","2010-08-11T09:10:00","4","64.35","7.8","0.0","DRAUGEN, NO","FM-15","ENDR ","V020","040,1,N,0134,1","00120,1,C,N","011265,1,N,1","+0120,1","+0110,1","99999,9","08,5,+00120,1,99,9",,,"08,99,1,99,9,99,9,99999,9,99,9,99,9","10091,1,99999,9",,,,,"MET051METAR ENDR 110910Z 04026KT 9999 OVC004 12/11 Q1009;",
"01023199999","2010-08-11T12:10:00","4","64.35","7.8","0.0","DRAUGEN, NO","FM-15","ENDR ","V020","040,1,N,0134,1","00180,1,C,N","011265,1,N,1","+0130,1","+0110,1","99999,9","08,5,+00180,1,99,9",,,"08,99,1,99,9,99,9,99999,9,99,9,99,9","10102,1,99999,9",,,,,"MET051METAR ENDR 111210Z 04026KT 9999 OVC006 13/11 Q1010;",
"01023199999","2010-08-11T15:10:00","4","64.35","7.8","0.0","DRAUGEN, NO","FM-15","ENDR ","V020","040,1,N,0159,1","06000,1,C,N","011265,1,N,1","+0140,1","+0100,1","99999,9","04,5,+00210,1,99,9","07,5,+06000,1,99,9",,"07,99,1,99,9,99,9,99999,9,99,9,99,9","10102,1,99999,9",,,,,"MET058METAR ENDR 111510Z 04031KT 9999 SCT007 BKN200 14/10 Q1010;",
"01023199999","2010-08-12T09:10:00","4","64.35","7.8","0.0","DRAUGEN, NO","FM-15","ENDR ","V020","210,1,N,0067,1","00030,1,C,N","001000,1,N,1","+0140,1","+0130,1","99999,9","08,5,+00030,1,99,9",,,"08,99,1,99,9,99,9,99999,9,99,9,99,9","10139,1,99999,9","44,1",,,,"MET054METAR ENDR 120910Z 21013KT 1000 FG OVC001 14/13 Q1014;",
"01023199999","2010-08-12T15:10:00","4","64.35","7.8","0.0","DRAUGEN, NO","FM-15","ENDR ","V020","210,1,N,0082,1","00060,1,C,N","001100,1,N,1","+0130,1","+0130,1","99999,9","08,5,+00060,1,99,9",,,"08,99,1,99,9,99,9,99999,9,99,9,99,9","10169,1,99999,9","40,1",,,,"MET056METAR ENDR 121510Z 21016KT 1100 VCFG OVC002 13/13 Q1017;",
"01023199999","2010-08-13T09:10:00","4","64.35","7.8","0.0","DRAUGEN, NO","FM-15","ENDR ","V020","050,1,N,0021,1","00150,1,C,N","011265,1,N,1","+0140,1","+0110,1","99999,9","08,5,+00150,1,99,9",,,"08,99,1,99,9,99,9,99999,9,99,9,99,9","10220,1,99999,9",,,,,"MET059METAR ENDR 130910Z 05004KT 010V080 9999 OVC005 14/11 Q1022;",
"01023199999","2010-08-13T12:10:00","4","64.35","7.8","0.0","DRAUGEN, NO","FM-15","ENDR ","V020","040,1,N,0036,1","00120,1,C,N","011265,1,N,1","+0140,1","+0110,1","99999,9","08,5,+00120,1,99,9",,,"08,99,1,99,9,99,9,99999,9,99,9,99,9","10210,1,99999,9",,,,,"MET051METAR ENDR 131210Z 04007KT 9999 OVC004 14/11 Q1021;",
"01023199999","2010-08-13T15:10:00","4","64.35","7.8","0.0","DRAUGEN, NO","FM-15","ENDR ","V020","010,1,N,0072,1","00060,1,C,N","011265,1,N,1","+0140,1","+0110,1","99999,9","08,5,+00060,1,99,9",,,"08,99,1,99,9,99,9,99999,9,99,9,99,9","10200,1,99999,9",,,,,"MET051METAR ENDR 131510Z 01014KT 9999 OVC002 14/11 Q1020;",
"01023199999","2010-08-14T06:10:00","4","64.35","7.8","0.0","DRAUGEN, NO","FM-15","ENDR ","V020","260,1,N,0077,1","00030,1,C,N","004000,1,N,1","+0120,1","+0120,1","99999,9","08,5,+00030,1,99,9",,,"08,99,1,99,9,99,9,99999,9,99,9,99,9","10169,1,99999,9","10,1",,,,"MET054METAR ENDR 140610Z 26015KT 4000 BR OVC001 12/12 Q1017;",
"01023199999","2010-08-14T09:10:00","4","64.35","7.8","0.0","DRAUGEN, NO","FM-15","ENDR ","V020","250,1,N,0051,1","00060,1,C,N","006000,1,N,1","+0130,1","+0120,1","99999,9","08,5,+00060,1,99,9",,,"08,99,1,99,9,99,9,99999,9,99,9,99,9","10180,1,99999,9","10,1","51,1",,,"MET058METAR ENDR 140910Z 25010KT 6000 -DZ BR OVC002 13/12 Q1018;",
"01023199999","2010-08-14T12:10:00","4","64.35","7.8","0.0","DRAUGEN, NO","FM-15","ENDR ","V020","270,1,N,0087,1","00210,1,C,N","011265,1,N,1","+0120,1","+0100,1","99999,9","08,5,+00210,1,99,9",,,"08,99,1,99,9,99,9,99999,9,99,9,99,9","10190,1,99999,9",,,,,"MET051METAR ENDR 141210Z 27017KT 9999 OVC007 12/10 Q1019;",
"01023199999","2010-08-14T15:20:00","4","64.35","7.8","0.0","DRAUGEN, NO","FM-15","ENDR ","V020","260,1,N,0093,1","00300,1,C,N","011265,1,N,1","+0120,1","+0100,1","99999,9","08,5,+00300,1,99,9",,,"08,99,1,99,9,99,9,99999,9,99,9,99,9","10200,1,99999,9",,,,,"MET051METAR ENDR 141520Z 26018KT 9999 OVC010 12/10 Q1020;",
"01023199999","2010-08-15T06:10:00","4","64.35","7.8","0.0","DRAUGEN, NO","FM-15","ENDR ","V020","360,1,N,0067,1","00570,1,C,N","011265,1,N,1","+0120,1","+0080,1","99999,9","07,5,+00570,1,99,9",,,"07,99,1,99,9,99,9,99999,9,99,9,99,9","10261,1,99999,9",,,,,"MET051METAR ENDR 150610Z 36013KT 9999 BKN019 12/08 Q1026;",
"01023199999","2010-08-15T09:10:00","4","64.35","7.8","0.0","DRAUGEN, NO","FM-15","ENDR ","V020","040,1,N,0062,1","00660,1,C,N","011265,1,N,1","+0130,1","+0070,1","99999,9","08,5,+00660,1,99,9",,,"08,99,1,99,9,99,9,99999,9,99,9,99,9","10271,1,99999,9",,,,,"MET051METAR ENDR 150910Z 04012KT 9999 OVC022 13/07 Q1027;",
"01023199999","2010-08-15T12:10:00","4","64.35","7.8","0.0","DRAUGEN, NO","FM-15","ENDR ","V020","050,1,N,0057,1","00810,1,C,N","011265,1,N,1","+0140,1","+0060,1","99999,9","08,5,+00810,1,99,9",,,"08,99,1,99,9,99,9,99999,9,99,9,99,9","10281,1,99999,9",,,,,"MET051METAR ENDR 151210Z 05011KT 9999 OVC027 14/06 Q1028;",
"01023199999","2010-08-15T15:10:00","4","64.35","7.8","0.0","DRAUGEN, NO","FM-15","ENDR ","V020","050,1,N,0093,1","22000,1,9,N","011265,1,N,1","+0150,1","+0060,1","99999,9","02,5,+00570,1,99,9",,,"02,99,1,99,9,99,9,99999,9,99,9,99,9","10281,1,99999,9",,,,,"MET051METAR ENDR 151510Z 05018KT 9999 FEW019 15/06 Q1028;",
"01023199999","2010-08-16T06:10:00","4","64.35","7.8","0.0","DRAUGEN, NO","FM-15","ENDR ","V020","060,1,N,0154,1","99999,9,9,Y","009900,1,N,1","+0120,1","+0050,1","99999,9",,,,,"10210,1,99999,9",,,,,"MET045METAR ENDR 160610Z 06030KT CAVOK 12/05 Q1021;",
"01023199999","2010-08-16T09:10:00","4","64.35","7.8","0.0","DRAUGEN, NO","FM-15","ENDR ","V020","060,1,N,0139,1","99999,9,9,Y","009900,1,N,1","+0140,1","+0070,1","99999,9",,,,,"10190,1,99999,9",,,,,"MET045METAR ENDR 160910Z 06027KT CAVOK 14/07 Q1019;",
"01023199999","2010-08-16T12:10:00","4","64.35","7.8","0.0","DRAUGEN, NO","FM-15","ENDR ","V020","060,1,N,0098,1","22000,1,9,N","011265,1,N,1","+0150,1","+0090,1","99999,9",,,,"00,99,1,99,9,99,9,99999,9,99,9,99,9","10180,1,99999,9",,,,,"MET048METAR ENDR 161210Z 06019KT 9999 SKC 15/09 Q1018;","Q01    003SCCGA1"
"01023199999","2010-08-16T15:20:00","4","64.35","7.8","0.0","DRAUGEN, NO","FM-15","ENDR ","V020","070,1,N,0077,1","22000,1,9,N","011265,1,N,1","+0170,1","+0100,1","99999,9",,,,"00,99,1,99,9,99,9,99999,9,99,9,99,9","10159,1,99999,9",,,,,"MET048METAR ENDR 161520Z 07015KT 9999 SKC 17/10 Q1016;","Q01    003SCCGA1"
"01023199999","2010-08-17T06:10:00","4","64.35","7.8","0.0","DRAUGEN, NO","FM-15","ENDR ","V020","120,1,N,0051,1","99999,9,9,Y","009900,1,N,1","+0180,1","+0090,1","99999,9",,,,,"10108,1,99999,9",,,,,"MET045METAR ENDR 170610Z 12010KT CAVOK 18/09 Q1011;",
"01023199999","2010-08-17T09:40:00","4","64.35","7.8","0.0","DRAUGEN, NO","FM-15","ENDR ","V020","050,1,N,0067,1","99999,9,9,Y","009900,1,N,1","+0190,1","+0100,1","99999,9",,,,,"10108,1,99999,9",,,,,"MET045METAR ENDR 170940Z 05013KT CAVOK 19/10 Q1011;",
"01023199999","2010-08-17T12:10:00","4","64.35","7.8","0.0","DRAUGEN, NO","FM-15","ENDR ","V020","040,1,N,0098,1","99999,9,9,Y","009900,1,N,1","+0200,1","+0110,1","99999,9",,,,,"10102,1,99999,9",,,,,"MET045METAR ENDR 171210Z 04019KT CAVOK 20/11 Q1010;",
"01023199999","2010-08-17T15:10:00","4","64.35","7.8","0.0","DRAUGEN, NO","FM-15","ENDR ","V020","040,1,N,0123,1","99999,9,9,Y","009900,1,N,1","+0190,1","+0120,1","99999,9",,,,,"10081,1,99999,9",,,,,"MET045METAR ENDR 171510Z 04024KT CAVOK 19/12 Q1008;",
"01023199999","2010-08-18T06:20:00","4","64.35","7.8","0.0","DRAUGEN, NO","FM-15","ENDR ","V020","060,1,N,0129,1","99999,9,9,Y","009900,1,N,1","+0150,1","+0120,1","99999,9",,,,,"10041,1,99999,9",,,,,"MET045METAR ENDR 180620Z 06025KT CAVOK 15/12 Q1004;",
"01023199999","2010-08-18T09:10:00","4","64.35","7.8","0.0","DRAUGEN, NO","FM-15","ENDR ","V020","090,1,N,0149,1","99999,9,9,Y","009900,1,N,1","+0180,1","+0110,1","99999,9",,,,,"10041,1,99999,9",,,,,"MET045METAR ENDR 180910Z 09029KT CAVOK 18/11 Q1004;",
"01023199999","2010-08-18T15:10:00","4","64.35","7.8","0.0","DRAUGEN, NO","FM-15","ENDR ","V020","080,1,N,0159,1","99999,9,9,Y","009900,1,N,1","+0190,1","+0100,1","99999,9",,,,,"10031,1,99999,9",,,,,"MET045METAR ENDR 181510Z 08031KT CAVOK 19/10 Q1003;",
"01023199999","2010-08-19T06:10:00","4","64.35","7.8","0.0","DRAUGEN, NO","FM-15","ENDR ","V020","080,1,N,0129,1","22000,1,9,N","011265,1,N,1","+0160,1","+0090,1","99999,9",,,,"00,99,1,99,9,99,9,99999,9,99,9,99,9","10031,1,99999,9",,,,,"MET048METAR ENDR 190610Z 08025KT 9999 SKC 16/09 Q1003;","Q01    003SCCGA1"
"01023199999","2010-08-19T09:10:00","4","64.35","7.8","0.0","DRAUGEN, NO","FM-15","ENDR ","V020","080,1,N,0134,1","99999,9,9,Y","009900,1,N,1","+0160,1","+0090,1","99999,9",,,,,"10041,1,99999,9",,,,,"MET045METAR ENDR 190910Z 08026KT CAVOK 16/09 Q1004;",
"01023199999","2010-08-19T12:10:00","4","64.35","7.8","0.0","DRAUGEN, NO","FM-15","ENDR ","V020","070,1,N,0098,1","99999,9,9,Y","009900,1,N,1","+0170,1","+0090,1","99999,9",,,,,"10041,1,99999,9",,,,,"MET045METAR ENDR 191210Z 07019KT CAVOK 17/09 Q1004;",
"01023199999","2010-08-19T15:10:00","4","64.35","7.8","0.0","DRAUGEN, NO","FM-15","ENDR ","V020","050,1,N,0134,1","99999,9,9,Y","009900,1,N,1","+0170,1","+0090,1","99999,9",,,,,"10041,1,99999,9",,,,,"MET045METAR ENDR 191510Z 05026KT CAVOK 17/09 Q1004;",
"01023199999","2010-08-20T06:20:00","4","64.35","7.8","0.0","DRAUGEN, NO","FM-15","ENDR ","V020","220,1,N,0113,1","00600,1,C,N","005000,1,N,1","+0150,1","+0150,1","99999,9","07,5,+00600,1,99,9","07,5,+02700,1,99,9",,"07,99,1,99,9,99,9,99999,9,99,9,99,9","10051,1,99999,9","40,1",,,,"MET063METAR ENDR 200620Z 22022KT 5000 VCFG BKN020 BKN090 15/15 Q1005;",
"01023199999","2010-08-20T12:10:00","4","64.35","7.8","0.0","DRAUGEN, NO","FM-15","ENDR ","V020","230,1,N,0087,1","01200,1,C,N","011265,1,N,1","+0140,1","+0120,1","99999,9","07,5,+01200,1,99,9","07,5,+02700,1,99,9",,"07,99,1,99,9,99,9,99999,9,99,9,99,9","10091,1,99999,9",,,,,"MET058METAR ENDR 201210Z 23017KT 9999 BKN040 BKN090 14/12 Q1009;",
"01023199999","2010-08-20T15:10:00","4","64.35","7.8","0.0","DRAUGEN, NO","FM-15","ENDR ","V020","210,1,N,0062,1","02100,1,C,N","011265,1,N,1","+0150,1","+0110,1","99999,9","02,5,+01200,1,99,9","07,5,+02100,1,99,9",,"07,99,1,99,9,99,9,99999,9,99,9,99,9","10091,1,99999,9",,,,,"MET058METAR ENDR 201510Z 21012KT 9999 FEW040 BKN070 15/11 Q1009;",
"01023199999","2010-08-21T06:20:00","4","64.35","7.8","0.0","DRAUGEN, NO","FM-15","ENDR ","V020","110,1,N,0113,1","02700,1,C,N","011265,1,N,1","+0140,1","+0100,1","99999,9","04,5,+01200,1,99,9","07,5,+02700,1,99,9",,"07,99,1,99,9,99,9,99999,9,99,9,99,9","10020,1,99999,9","61,1",,,,"MET062METAR ENDR 210620Z 11022KT 9999 -RA SCT040 BKN090 14/10 Q1002;",
"01023199999","2010-08-21T09:10:00","4","64.35","7.8","0.0","DRAUGEN, NO","FM-15","ENDR ","V020","140,1,N,0082,1","00960,1,C,N","011265,1,N,1","+0140,1","+0110,1","99999,9","07,5,+00960,1,99,9",,,"07,99,1,99,9,99,9,99999,9,99,9,99,9","10020,1,99999,9",,,,,"MET051METAR ENDR 210910Z 14016KT 9999 BKN032 14/11 Q1002;",
"01023199999","2010-08-21T12:10:00","4","64.35","7.8","0.0","DRAUGEN, NO","FM-15","ENDR ","V020","230,1,N,0170,1","99999,9,9,Y","009900,1,N,1","+0160,1","+0120,1","99999,9",,,,,"10020,1,99999,9",,,,,"MET045METAR ENDR 211210Z 23033KT CAVOK 16/12 Q1002;",
"01023199999","2010-08-21T15:10:00","4","64.35","7.8","0.0","DRAUGEN, NO","FM-15","ENDR ","V020","240,1,N,0103,1","99999,9,9,Y","009900,1,N,1","+0150,1","+0110,1","99999,9",,,,,"10031,1,99999,9",,,,,"MET045METAR ENDR 211510Z 24020KT CAVOK 15/11 Q1003;",
"01023199999","2010-08-22T06:20:00","4","64.35","7.8","0.0","DRAUGEN, NO","FM-15","ENDR ","V020","200,1,N,0123,1","00510,1,C,N","011265,1,N,1","+0130,1","+0110,1","99999,9","07,5,+00510,1,99,9",,,"07,99,1,99,9,99,9,99999,9,99,9,99,9","09959,1,99999,9","81,1",,,,"MET056METAR ENDR 220620Z 20024KT 9999 SHRA BKN017 13/11 Q0996;",
"01023199999","2010-08-22T09:10:00","4","64.35","7.8","0.0","DRAUGEN, NO","FM-15","ENDR ","V020","210,1,N,0113,1","00900,1,C,N","011265,1,N,1","+0140,1","+0110,1","99999,9","07,5,+00900,1,99,9","07,5,+03300,1,99,9",,"07,99,1,99,9,99,9,99999,9,99,9,99,9","09970,1,99999,9","81,1",,,,"MET063METAR ENDR 220910Z 21022KT 9999 SHRA BKN030 BKN110 14/11 Q0997;",
"01023199999","2010-08-22T12:10:00","4","64.35","7.8","0.0","DRAUGEN, NO","FM-15","ENDR ","V020","220,1,N,0098,1","01500,1,C,N","011265,1,N,1","+0140,1","+0110,1","99999,9","02,5,+00420,1,99,9","07,5,+01500,1,99,9",,"07,99,1,99,9,99,9,99999,9,99,9,99,9","09970,1,99999,9","16,1",,,,"MET063METAR ENDR 221210Z 22019KT 9999 VCSH FEW014 BKN050 14/11 Q0997;",
"01023199999","2010-08-22T15:10:00","4","64.35","7.8","0.0","DRAUGEN, NO","FM-15","ENDR ","V020","230,1,N,0113,1","99999,9,C,N","011265,1,N,1","+0140,1","+0100,1","99999,9","04,5,+00420,1,99,9","04,5,+02400,1,99,9",,"04,99,1,99,9,99,9,99999,9,99,9,99,9","09980,1,99999,9","16,1",,,,"MET063METAR ENDR 221510Z 23022KT 9999 VCSH SCT014 SCT080 14/10 Q0998;","P01 024003SCOCIG"
"01023199999","2010-08-23T06:10:00","4","64.35","7.8","0.0","DRAUGEN, NO","FM-15","ENDR ","V020","240,1,N,0154,1","00240,1,C,N","008000,1,N,1","+0110,1","+0110,1","99999,9","07,5,+00240,1,99,9",,,"07,99,1,99,9,99,9,99999,9,99,9,99,9","09970,1,99999,9","63,1",,,,"MET054METAR ENDR 230610Z 24030KT 8000 RA BKN008 11/11 Q0997;",
"01023199999","2010-08-23T07:50:00","4","64.35","7.8","0.0","DRAUGEN, NO","FM-15","ENDR ","V020","360,1,N,0067,1","00300,1,C,N","011265,1,N,1","+0130,1","+0120,1","99999,9","07,5,+00300,1,99,9",,,"07,99,1,99,9,99,9,99999,9,99,9,99,9","09980,1,99999,9","16,1",,,,"MET056METAR ENDR 230750Z 36013KT 9999 VCSH BKN010 13/12 Q0998;",
"01023199999","2010-08-23T09:10:00","4","64.35","7.8","0.0","DRAUGEN, NO","FM-15","ENDR ","V020","350,1,N,0072,1","00750,1,C,N","011265,1,N,1","+0130,1","+0110,1","99999,9","02,5,+00420,1,99,9","07,5,+00750,1,99,9",,"07,99,1,99,9,99,9,99999,9,99,9,99,9","09990,1,99999,9","16,1",,,,"MET063METAR ENDR 230910Z 35014KT 9999 VCSH FEW014 BKN025 13/11 Q0999;",
"01023199999","2010-08-23T12:10:00","4","64.35","7.8","0.0","DRAUGEN, NO","FM-16","ENDR ","V020","350,1,N,0015,1","02400,5,9,N","999999,9,N,1","+0150,1","+0100,1","99999,9","04,5,+00450,5,99,9","07,5,+02400,5,99,9",,,"10000,1,99999,9",,,,,"MET061METAR ENDR 231210Z 35003KT 170V040 SCT015 BKN080 15/10 Q1000;",
"01023199999","2010-08-23T15:10:00","4","64.35","7.8","0.0","DRAUGEN, NO","FM-16","ENDR ","V020","010,1,N,0026,1","00900,5,9,N","999999,9,N,1","+0150,1","+0110,1","99999,9","04,5,+00300,5,99,9","07,5,+00900,5,99,9",,,"10000,1,99999,9",,,,,"MET061METAR ENDR 231510Z 01005KT 340V040 SCT010 BKN030 15/11 Q1000;",
"01023199999","2010-08-24T09:10:00","4","64.35","7.8","0.0","DRAUGEN, NO","FM-15","ENDR ","V020","070,1,N,0139,1","99999,9,9,Y","009900,1,N,1","+0140,1","+0100,1","99999,9",,,,,"09929,1,99999,9",,,,,"MET045METAR ENDR 240910Z 07027KT CAVOK 14/10 Q0993;",
"01023199999","2010-08-24T12:10:00","4","64.35","7.8","0.0","DRAUGEN, NO","FM-15","ENDR ","V020","070,1,N,0139,1","99999,9,9,Y","009900,1,N,1","+0140,1","+0100,1","99999,9",,,,,"09929,1,99999,9",,,,,"MET045METAR ENDR 241210Z 07027KT CAVOK 14/10 Q0993;",
"01023199999","2010-08-25T06:20:00","4","64.35","7.8","0.0","DRAUGEN, NO","FM-15","ENDR ","V020","060,1,N,0113,1","22000,1,9,N","011265,1,N,1","+0130,1","+0060,1","99999,9","02,5,+00750,1,99,9",,,"02,99,1,99,9,99,9,99999,9,99,9,99,9","09959,1,99999,9",,,,,"MET051METAR ENDR 250620Z 06022KT 9999 FEW025 13/06 Q0996;",
"01023199999","2010-08-25T12:10:00","4","64.35","7.8","0.0","DRAUGEN, NO","FM-15","ENDR ","V020","050,1,N,0087,1","22000,1,9,N","011265,1,N,1","+0150,1","+0060,1","99999,9","02,5,+00810,1,99,9",,,"02,99,1,99,9,99,9,99999,9,99,9,99,9","09990,1,99999,9",,,,,"MET051METAR ENDR 251210Z 05017KT 9999 FEW027 15/06 Q0999;",
"01023199999","2010-08-25T15:40:00","4","64.35","7.8","0.0","DRAUGEN, NO","FM-15","ENDR ","V020","030,1,N,0072,1","99999,9,9,Y","009900,1,N,1","+0160,1","+0060,1","99999,9",,,,,"10000,1,99999,9",,,,,"MET045METAR ENDR 251540Z 03014KT CAVOK 16/06 Q1000;",
"01023199999","2010-08-26T06:10:00","4","64.35","7.8","0.0","DRAUGEN, NO","FM-15","ENDR ","V020","350,1,N,0062,1","99999,9,9,Y","009900,1,N,1","+0130,1","+0050,1","99999,9",,,,,"10041,1,99999,9",,,,,"MET045METAR ENDR 260610Z 35012KT CAVOK 13/05 Q1004;",
"01023199999","2010-08-26T09:10:00","4","64.35","7.8","0.0","DRAUGEN, NO","FM-15","ENDR ","V020","320,1,N,0036,1","99999,9,9,Y","009900,1,N,1","+0140,1","+0050,1","99999,9",,,,,"10041,1,99999,9",,,,,"MET053METAR ENDR 260910Z 32007KT 260V050 CAVOK 14/05 Q1004;",
"01023199999","2010-08-26T15:10:00","4","64.35","7.8","0.0","DRAUGEN, NO","FM-15","ENDR ","V020","310,1,N,0051,1","99999,9,9,Y","009900,1,N,1","+0140,1","+0060,1","99999,9",,,,,"10051,1,99999,9",,,,,"MET045METAR ENDR 261510Z 31010KT CAVOK 14/06 Q1005;",
"01023199999","2010-08-27T06:10:00","4","64.35","7.8","0.0","DRAUGEN, NO","FM-15","ENDR ","V020","210,1,N,0010,1","99999,9,9,Y","009900,1,N,1","+0120,1","+0050,1","99999,9",,,,,"10051,1,99999,9",,,,,"MET045METAR ENDR 270610Z 21002KT CAVOK 12/05 Q1005;",
"01023199999","2010-08-27T09:20:00","4","64.35","7.8","0.0","DRAUGEN, NO","FM-15","ENDR ","V020","170,1,N,0026,1","99999,9,9,Y","009900,1,N,1","+0140,1","+0070,1","99999,9",,,,,"10061,1,99999,9",,,,,"MET045METAR ENDR 270920Z 17005KT CAVOK 14/07 Q1006;",
"01023199999","2010-08-27T15:10:00","4","64.35","7.8","0.0","DRAUGEN, NO","FM-15","ENDR ","V020","150,1,N,0031,1","99999,9,9,Y","009900,1,N,1","+0130,1","+0050,1","99999,9",,,,,"10061,1,99999,9",,,,,"MET045METAR ENDR 271510Z 15006KT CAVOK 13/05 Q1006;",
"01023199999","2010-08-28T06:10:00","4","64.35","7.8","0.0","DRAUGEN, NO","FM-15","ENDR ","V020","330,1,N,0010,1","22000,1,9,N","011265,1,N,1","+0120,1","+0080,1","99999,9","04,5,+00600,1,99,9",,,"04,99,1,99,9,99,9,99999,9,99,9,99,9","10061,1,99999,9",,,,,"MET051METAR ENDR 280610Z 33002KT 9999 SCT020 12/08 Q1006;",
"01023199999","2010-08-28T09:10:00","4","64.35","7.8","0.0","DRAUGEN, NO","FM-15","ENDR ","V020","260,1,N,0010,1","99999,9,9,Y","009900,1,N,1","+0150,1","+0070,1","99999,9",,,,,"10061,1,99999,9",,,,,"MET045METAR ENDR 280910Z 26002KT CAVOK 15/07 Q1006;",
"01023199999","2010-08-28T12:10:00","4","64.35","7.8","0.0","DRAUGEN, NO","FM-15","ENDR ","V020","160,1,N,0005,1","22000,1,9,N","011265,1,N,1","+0170,1","+0080,1","99999,9","04,5,+00600,1,99,9",,,"04,99,1,99,9,99,9,99999,9,99,9,99,9","10061,1,99999,9",,,,,"MET051METAR ENDR 281210Z 16001KT 9999 SCT020 17/08 Q1006;",
"01023199999","2010-08-28T15:10:00","4","64.35","7.8","0.0","DRAUGEN, NO","FM-15","ENDR ","V020","010,1,N,0031,1","01650,5,C,N","011265,1,N,1","+0150,1","+0070,1","99999,9","02,5,+00600,1,99,9","07,5,+01650,5,99,9",,"07,99,1,99,9,99,9,99999,9,99,9,99,9","10061,1,99999,9",,,,,"MET058METAR ENDR 281510Z 01006KT 9999 FEW020 BKN055 15/07 Q1006;",
"01023199999","2010-08-29T06:10:00","4","64.35","7.8","0.0","DRAUGEN, NO","FM-15","ENDR ","V020","070,1,N,0077,1","03000,1,C,N","011265,1,N,1","+0140,1","+0090,1","99999,9","02,5,+00600,1,99,9","07,5,+03000,1,99,9",,"07,99,1,99,9,99,9,99999,9,99,9,99,9","10071,1,99999,9",,,,,"MET058METAR ENDR 290610Z 07015KT 9999 FEW020 BKN100 14/09 Q1007;",
"01023199999","2010-08-29T09:10:00","4","64.35","7.8","0.0","DRAUGEN, NO","FM-15","ENDR ","V020","090,1,N,0057,1","99999,9,9,Y","009900,1,N,1","+0160,1","+0090,1","99999,9",,,,,"10102,1,99999,9",,,,,"MET045METAR ENDR 290910Z 09011KT CAVOK 16/09 Q1010;",
"01023199999","2010-08-29T12:10:00","4","64.35","7.8","0.0","DRAUGEN, NO","FM-15","ENDR ","V020","060,1,N,0046,1","99999,9,9,Y","009900,1,N,1","+0170,1","+0080,1","99999,9",,,,,"10108,1,99999,9",,,,,"MET045METAR ENDR 291210Z 06009KT CAVOK 17/08 Q1011;",
"01023199999","2010-08-30T09:20:00","4","64.35","7.8","0.0","DRAUGEN, NO","FM-15","ENDR ","V020","280,1,N,0077,1","99999,9,C,N","011265,1,N,1","+0130,1","+0080,1","99999,9","04,5,+00540,1,99,9","04,5,+01500,1,99,9",,"04,99,1,99,9,99,9,99999,9,99,9,99,9","10159,1,99999,9",,,,,"MET058METAR ENDR 300920Z 28015KT 9999 SCT018 SCT050 13/08 Q1016;","P01 015003SCOCIG"
"01023199999","2010-08-30T12:10:00","4","64.35","7.8","0.0","DRAUGEN, NO","FM-15","ENDR ","V020","260,1,N,0082,1","01800,1,C,N","011265,1,N,1","+0130,1","+0060,1","99999,9","04,5,+00660,1,99,9","07,5,+01800,1,99,9",,"07,99,1,99,9,99,9,99999,9,99,9,99,9","10159,1,99999,9",,,,,"MET058METAR ENDR 301210Z 26016KT 9999 SCT022 BKN060 13/06 Q1016;",
"01023199999","2010-08-30T15:20:00","4","64.35","7.8","0.0","DRAUGEN, NO","FM-15","ENDR ","V020","240,1,N,0098,1","01200,1,C,N","011265,1,N,1","+0120,1","+0060,1","99999,9","02,5,+00600,1,99,9","04,5,+01200,1,99,9","07,5,+03300,1,99,9","07,99,1,99,9,99,9,99999,9,99,9,99,9","10149,1,99999,9",,,,,"MET065METAR ENDR 301520Z 24019KT 9999 FEW020 SCT040 BKN110 12/06 Q1015;",
"01023199999","2010-08-30T15:50:00","4","64.35","7.8","0.0","DRAUGEN, NO","FM-15","ENDR ","V020","250,1,N,0103,1","01200,1,C,N","011265,1,N,1","+0120,1","+0070,1","99999,9","02,5,+00600,1,99,9","07,5,+01200,1,99,9","07,5,+03300,1,99,9","07,99,1,99,9,99,9,99999,9,99,9,99,9","10139,1,99999,9",,,,,"MET065METAR ENDR 301550Z 25020KT 9999 FEW020 BKN040 BKN110 12/07 Q1014;",
"01023199999","2010-08-30T21:50:00","4","64.35","7.8","0.0","DRAUGEN, NO","FM-15","ENDR ","V020","220,1,N,0154,1","00300,1,C,N","004000,1,N,1","+0100,1","+0090,1","99999,9","07,5,+00300,1,99,9",,,"07,99,1,99,9,99,9,99999,9,99,9,99,9","10108,1,99999,9","10,1","63,1",,,"MET057METAR ENDR 302150Z 22030KT 4000 RA BR BKN010 10/09 Q1011;",
"01023199999","2010-08-31T04:50:00","4","64.35","7.8","0.0","DRAUGEN, NO","FM-15","ENDR ","V020","280,1,N,0103,1","00750,1,C,N","011265,1,N,1","+0100,1","+0070,1","99999,9","07,5,+00750,1,99,9",,,"07,99,1,99,9,99,9,99999,9,99,9,99,9","10108,1,99999,9","81,1",,,,"MET056METAR ENDR 310450Z 28020KT 9999 SHRA BKN025 10/07 Q1011;",
"01023199999","2010-08-31T06:20:00","4","64.35","7.8","0.0","DRAUGEN, NO","FM-15","ENDR ","V020","280,1,N,0087,1","00450,1,C,N","011265,1,N,1","+0100,1","+0080,1","99999,9","07,5,+00450,1,99,9",,,"07,99,1,99,9,99,9,99999,9,99,9,99,9","10119,1,99999,9","16,1",,,,"MET056METAR ENDR 310620Z 28017KT 9999 VCSH BKN015 10/08 Q1012;",
"01023199999","2010-08-31T07:10:00","4","64.35","7.8","0.0","DRAUGEN, NO","FM-15","ENDR ","V020","300,1,N,0098,1","00450,1,C,N","011265,1,N,1","+0100,1","+0070,1","99999,9","07,5,+00450,1,99,9","08,5,+01530,5,99,9",,"08,99,1,99,9,99,9,99999,9,99,9,99,9","10119,1,99999,9","81,1",,,,"MET063METAR ENDR 310710Z 30019KT 9999 SHRA BKN015 OVC051 10/07 Q1012;",
"01023199999","2010-08-31T12:10:00","4","64.35","7.8","0.0","DRAUGEN, NO","FM-15","ENDR ","V020","340,1,N,0026,1","00900,1,C,N","011265,1,N,1","+0120,1","+0060,1","99999,9","02,5,+00360,1,99,9","07,5,+00900,1,99,9","07,5,+02100,1,99,9","07,99,1,99,9,99,9,99999,9,99,9,99,9","10129,1,99999,9","16,1",,,,"MET078METAR ENDR 311210Z 34005KT 230V090 9999 VCSH FEW012 BKN030 BKN070 12/06 Q1013;",
"01023199999","2010-08-31T15:10:00","4","64.35","7.8","0.0","DRAUGEN, NO","FM-15","ENDR ","V020","340,1,N,0051,1","99999,9,C,N","011265,1,N,1","+0130,1","+0030,1","99999,9","02,5,+00900,1,99,9","04,5,+01500,1,99,9",,"04,99,1,99,9,99,9,99999,9,99,9,99,9","10139,1,99999,9",,,,,"MET058METAR ENDR 311510Z 34010KT 9999 FEW030 SCT050 13/03 Q1014;","P01 015003SCOCIG"
"01023199999","2010-09-01T06:10:00","4","64.35","7.8","0.0","DRAUGEN, NO","FM-15","ENDR ","V020","280,1,N,0067,1","01200,1,C,N","011265,1,N,1","+0090,1","+0040,1","99999,9","02,5,+00900,1,02,1","07,5,+01200,1,99,9",,"07,99,1,99,9,99,9,99999,9,99,9,99,9","10169,1,99999,9","81,1",,,,"MET066METAR ENDR 010610Z 28013KT 9999 SHRA FEW030TCU BKN040 09/04 Q1017;",
"01023199999","2010-09-01T08:20:00","4","64.35","7.8","0.0","DRAUGEN, NO","FM-15","ENDR ","V020","300,1,N,0067,1","99999,9,C,N","011265,1,N,1","+0100,1","+0040,1","99999,9","04,5,+00600,1,99,9","04,5,+01500,1,99,9",,"04,99,1,99,9,99,9,99999,9,99,9,99,9","10180,1,99999,9","16,1",,,,"MET063METAR ENDR 010820Z 30013KT 9999 VCSH SCT020 SCT050 10/04 Q1018;","P01 015003SCOCIG"
"01023199999","2010-09-02T06:20:00","4","64.35","7.8","0.0","DRAUGEN, NO","FM-15","ENDR ","V020","050,1,N,0051,1","01500,1,C,N","011265,1,N,1","+0120,1","+0040,1","99999,9","02,5,+00840,1,99,9","07,5,+01500,1,99,9",,"07,99,1,99,9,99,9,99999,9,99,9,99,9","10240,1,99999,9",,,,,"MET058METAR ENDR 020620Z 05010KT 9999 FEW028 BKN050 12/04 Q1024;",
"01023199999","2010-09-02T15:20:00","4","64.35","7.8","0.0","DRAUGEN, NO","FM-15","ENDR ","V020","200,1,N,0005,1","00840,1,C,N","011265,1,N,1","+0120,1","+0040,1","99999,9","07,5,+00840,1,99,9","07,5,+01500,1,99,9",,"07,99,1,99,9,99,9,99999,9,99,9,99,9","10240,1,99999,9","16,1",,,,"MET063METAR ENDR 021520Z 20001KT 9999 VCSH BKN028 BKN050 12/04 Q1024;",
"01023199999","2010-09-03T06:10:00","4","64.35","7.8","0.0","DRAUGEN, NO","FM-15","ENDR ","V020","350,1,N,0036,1","01800,1,C,N","011265,1,N,1","+0130,1","+0050,1","99999,9","02,5,+00840,1,99,9","07,5,+01800,1,99,9",,"07,99,1,99,9,99,9,99999,9,99,9,99,9","10220,1,99999,9",,,,,"MET066METAR ENDR 030610Z 35007KT 310V020 9999 FEW028 BKN060 13/05 Q1022;",
"01023199999","2010-09-03T09:10:00","4","64.35","7.8","0.0","DRAUGEN, NO","FM-15","ENDR ","V020","030,1,N,0046,1","99999,9,C,N","011265,1,N,1","+0140,1","+0060,1","99999,9","04,5,+00600,1,99,9","04,5,+02400,1,99,9",,"04,99,1,99,9,99,9,99999,9,99,9,99,9","10230,1,99999,9",,,,,"MET058METAR ENDR 030910Z 03009KT 9999 SCT020 SCT080 14/06 Q1023;","P01 024003SCOCIG"
"01023199999","2010-09-03T11:50:00","4","64.35","7.8","0.0","DRAUGEN, NO","FM-15","ENDR ","V020","040,1,N,0036,1","99999,9,C,N","011265,1,N,1","+0150,1","+0060,1","99999,9","02,5,+00600,1,99,9","04,5,+02400,1,99,9",,"04,99,1,99,9,99,9,99999,9,99,9,99,9","10230,1,99999,9",,,,,"MET058METAR ENDR 031150Z 04007KT 9999 FEW020 SCT080 15/06 Q1023;","P01 024003SCOCIG"
"01023199999","2010-09-03T12:10:00","4","64.35","7.8","0.0","DRAUGEN, NO","FM-15","ENDR ","V020","050,1,N,0031,1","22000,1,9,N","011265,1,N,1","+0150,1","+0050,1","99999,9","02,5,+00600,1,99,9",,,"02,99,1,99,9,99,9,99999,9,99,9,99,9","10230,1,99999,9",,,,,"MET051METAR ENDR 031210Z 05006KT 9999 FEW020 15/05 Q1023;",
"01023199999","2010-09-03T14:20:00","4","64.35","7.8","0.0","DRAUGEN, NO","FM-15","ENDR ","V020","040,1,N,0015,1","99999,9,9,Y","009900,1,N,1","+0150,1","+0050,1","99999,9",,,,,"10230,1,99999,9",,,,,"MET053METAR ENDR 031420Z 04003KT 340V050 CAVOK 15/05 Q1023;",
"01023199999","2010-09-03T15:20:00","4","64.35","7.8","0.0","DRAUGEN, NO","FM-15","ENDR ","V020","030,1,N,0010,1","99999,9,9,Y","009900,1,N,1","+0150,1","+0050,1","99999,9",,,,,"10230,1,99999,9",,,,,"MET045METAR ENDR 031520Z 03002KT CAVOK 15/05 Q1023;",
"01023199999","2010-09-04T06:10:00","4","64.35","7.8","0.0","DRAUGEN, NO","FM-15","ENDR ","V020","220,1,N,0036,1","01350,1,C,N","011265,1,N,1","+0120,1","+0080,1","99999,9","07,5,+01350,1,99,9",,,"07,99,1,99,9,99,9,99999,9,99,9,99,9","10251,1,99999,9",,,,,"MET051METAR ENDR 040610Z 22007KT 9999 BKN045 12/08 Q1025;",
"01023199999","2010-09-04T09:20:00","4","64.35","7.8","0.0","DRAUGEN, NO","FM-15","ENDR ","V020","220,1,N,0031,1","01050,1,C,N","011265,1,N,1","+0120,1","+0080,1","99999,9","07,5,+01050,1,99,9",,,"07,99,1,99,9,99,9,99999,9,99,9,99,9","10251,1,99999,9",,,,,"MET051METAR ENDR 040920Z 22006KT 9999 BKN035 12/08 Q1025;",
"01023199999","2010-09-04T12:10:00","4","64.35","7.8","0.0","DRAUGEN, NO","FM-15","ENDR ","V020","240,1,N,0026,1","22000,1,9,N","011265,1,N,1","+0140,1","+0090,1","99999,9","02,5,+01050,1,99,9",,,"02,99,1,99,9,99,9,99999,9,99,9,99,9","10261,1,99999,9",,,,,"MET051METAR ENDR 041210Z 24005KT 9999 FEW035 14/09 Q1026;",
"01023199999","2010-09-04T14:40:00","4","64.35","7.8","0.0","DRAUGEN, NO","FM-15","ENDR ","V020","260,1,N,0010,1","99999,9,9,Y","009900,1,N,1","+0160,1","+0090,1","99999,9",,,,,"10261,1,99999,9",,,,,"MET045METAR ENDR 041440Z 26002KT CAVOK 16/09 Q1026;",
"01023199999","2010-09-04T15:10:00","4","64.35","7.8","0.0","DRAUGEN, NO","FM-15","ENDR ","V020","280,1,N,0015,1","22000,1,9,N","011265,1,N,1","+0160,1","+0090,1","99999,9","04,5,+00900,1,99,9",,,"04,99,1,99,9,99,9,99999,9,99,9,99,9","10261,1,99999,9",,,,,"MET051METAR ENDR 041510Z 28003KT 9999 SCT030 16/09 Q1026;",
"01023199999","2010-09-04T19:40:00","4","64.35","7.8","0.0","DRAUGEN, NO","FM-15","ENDR ","V020","060,1,N,0010,1","22000,1,9,N","011265,1,N,1","+0120,1","+0100,1","99999,9","04,5,+00600,1,99,9",,,"04,99,1,99,9,99,9,99999,9,99,9,99,9","10271,1,99999,9",,,,,"MET051METAR ENDR 041940Z 06002KT 9999 SCT020 12/10 Q1027;",
"01023199999","2010-09-05T06:10:00","4","64.35","7.8","0.0","DRAUGEN, NO","FM-15","ENDR ","V020","110,1,N,0026,1","99999,9,9,Y","009900,1,N,1","+0120,1","+0100,1","99999,9",,,,,"10281,1,99999,9",,,,,"MET045METAR ENDR 050610Z 11005KT CAVOK 12/10 Q1028;",
"01023199999","2010-09-05T07:40:00","4","64.35","7.8","0.0","DRAUGEN, NO","FM-16","ENDR ","V020","120,1,N,0031,1","22000,1,9,N","999999,9,N,1","+0130,1","+0100,1","99999,9","02,5,+00450,5,99,9",,,,"10290,1,99999,9",,,,,"MET046METAR ENDR 050740Z 12006KT FEW015 13/10 Q1029;",
"01023199999","2010-09-05T09:10:00","4","64.35","7.8","0.0","DRAUGEN, NO","FM-16","ENDR ","V020","130,1,N,0026,1","22000,1,9,N","999999,9,N,1","+0130,1","+0100,1","99999,9","02,5,+00450,5,99,9",,,,"10290,1,99999,9",,,,,"MET046METAR ENDR 050910Z 13005KT FEW015 13/10 Q1029;",
"01023199999","2010-09-05T12:20:00","4","64.35","7.8","0.0","DRAUGEN, NO","FM-15","ENDR ","V020","130,1,N,0026,1","99999,9,9,Y","009900,1,N,1","+0130,1","+0090,1","99999,9",,,,,"10291,1,99999,9",,,,,"MET045METAR ENDR 051220Z 13005KT CAVOK 13/09 Q1029;",
"01023199999","2010-09-05T15:10:00","4","64.35","7.8","0.0","DRAUGEN, NO","FM-15","ENDR ","V020","100,1,N,0041,1","99999,9,9,Y","009900,1,N,1","+0130,1","+0090,1","99999,9",,,,,"10291,1,99999,9",,,,,"MET045METAR ENDR 051510Z 10008KT CAVOK 13/09 Q1029;",
"01023199999","2010-09-06T06:10:00","4","64.35","7.8","0.0","DRAUGEN, NO","FM-15","ENDR ","V020","060,1,N,0062,1","99999,9,9,Y","009900,1,N,1","+0140,1","+0120,1","99999,9",,,,,"10281,1,99999,9",,,,,"MET045METAR ENDR 060610Z 06012KT CAVOK 14/12 Q1028;",
"01023199999","2010-09-06T07:40:00","4","64.35","7.8","0.0","DRAUGEN, NO","FM-15","ENDR ","V020","060,1,N,0067,1","99999,9,9,Y","009900,1,N,1","+0150,1","+0110,1","99999,9",,,,,"10281,1,99999,9",,,,,"MET045METAR ENDR 060740Z 06013KT CAVOK 15/11 Q1028;",
"01023199999","2010-09-06T08:40:00","4","64.35","7.8","0.0","DRAUGEN, NO","FM-15","ENDR ","V020","070,1,N,0077,1","99999,9,9,Y","009900,1,N,1","+0150,1","+0100,1","99999,9",,,,,"10281,1,99999,9",,,,,"MET045METAR ENDR 060840Z 07015KT CAVOK 15/10 Q1028;",
"01023199999","2010-09-06T12:10:00","4","64.35","7.8","0.0","DRAUGEN, NO","FM-15","ENDR ","V020","050,1,N,0077,1","99999,9,9,Y","009900,1,N,1","+0160,1","+0100,1","99999,9",,,,,"10271,1,99999,9",,,,,"MET045METAR ENDR 061210Z 05015KT CAVOK 16/10 Q1027;",
"01023199999","2010-09-06T15:10:00","4","64.35","7.8","0.0","DRAUGEN, NO","FM-15","ENDR ","V020","050,1,N,0103,1","99999,9,9,Y","009900,1,N,1","+0150,1","+0100,1","99999,9",,,,,"10261,1,99999,9",,,,,"MET045METAR ENDR 061510Z 05020KT CAVOK 15/10 Q1026;",
"01023199999","2010-09-07T06:10:00","4","64.35","7.8","0.0","DRAUGEN, NO","FM-15","ENDR ","V020","060,1,N,0113,1","99999,9,9,Y","009900,1,N,1","+0140,1","+0120,1","99999,9",,,,,"10220,1,99999,9",,,,,"MET045METAR ENDR 070610Z 06022KT CAVOK 14/12 Q1022;",
"01023199999","2010-09-07T12:10:00","4","64.35","7.8","0.0","DRAUGEN, NO","FM-15","ENDR ","V020","080,1,N,0082,1","99999,9,9,Y","009900,1,N,1","+0160,1","+0120,1","99999,9",,,,,"10210,1,99999,9",,,,,"MET045METAR ENDR 071210Z 08016KT CAVOK 16/12 Q1021;",
"01023199999","2010-09-07T19:10:00","4","64.35","7.8","0.0","DRAUGEN, NO","FM-15","ENDR ","V020","070,1,N,0103,1","99999,9,9,Y","009900,1,N,1","+0160,1","+0120,1","99999,9",,,,,"10190,1,99999,9",,,,,"MET045METAR ENDR 071910Z 07020KT CAVOK 16/12 Q1019;",
"01023199999","2010-09-08T05:20:00","4","64.35","7.8","0.0","DRAUGEN, NO","FM-15","ENDR ","V020","190,1,N,0067,1","22000,1,9,N","000100,1,N,1","+0120,1","+0110,1","99999,9",,,,,"10180,1,99999,9","44,1",,,,"MET047METAR ENDR 080520Z 19013KT 0100 FG 12/11 Q1018;",
"01023199999","2010-09-08T06:20:00","4","64.35","7.8","0.0","DRAUGEN, NO","FM-15","ENDR ","V020","180,1,N,0057,1","22000,1,9,N","000100,1,N,1","+0120,1","+0110,1","99999,9",,,,,"10190,1,99999,9","44,1",,,,"MET047METAR ENDR 080620Z 18011KT 0100 FG 12/11 Q1019;",
"01023199999","2010-09-08T07:40:00","4","64.35","7.8","0.0","DRAUGEN, NO","FM-15","ENDR ","V020","190,1,N,0062,1","22000,1,9,N","000100,1,N,1","+0120,1","+0110,1","99999,9",,,,,"10190,1,99999,9","44,1",,,,"MET047METAR ENDR 080740Z 19012KT 0100 FG 12/11 Q1019;",
"01023199999","2010-09-08T09:50:00","4","64.35","7.8","0.0","DRAUGEN, NO","FM-15","ENDR ","V020","200,1,N,0067,1","00060,1,C,N","011265,1,N,1","+0120,1","+0110,1","99999,9","08,5,+00060,1,99,9",,,"08,99,1,99,9,99,9,99999,9,99,9,99,9","10200,1,99999,9",,,,,"MET051METAR ENDR 080950Z 20013KT 9999 OVC002 12/11 Q1020;",
"01023199999","2010-09-08T12:20:00","4","64.35","7.8","0.0","DRAUGEN, NO","FM-15","ENDR ","V020","210,1,N,0051,1","00180,1,C,N","011265,1,N,1","+0120,1","+0100,1","99999,9","08,5,+00180,1,99,9",,,"08,99,1,99,9,99,9,99999,9,99,9,99,9","10200,1,99999,9",,,,,"MET051METAR ENDR 081220Z 21010KT 9999 OVC006 12/10 Q1020;",
"01023199999","2010-09-08T15:20:00","4","64.35","7.8","0.0","DRAUGEN, NO","FM-15","ENDR ","V020","230,1,N,0021,1","00090,1,C,N","011265,1,N,1","+0120,1","+0100,1","99999,9","08,5,+00090,1,99,9",,,"08,99,1,99,9,99,9,99999,9,99,9,99,9","10200,1,99999,9","41,1",,,,"MET058METAR ENDR 081520Z 23004KT 9999 VCBCFG OVC003 12/10 Q1020;",
"01023199999","2010-09-09T06:10:00","4","64.35","7.8","0.0","DRAUGEN, NO","FM-15","ENDR ","V020","120,1,N,0031,1","99999,9,9,Y","009900,1,N,1","+0140,1","+0110,1","99999,9",,,,,"10190,1,99999,9",,,,,"MET045METAR ENDR 090610Z 12006KT CAVOK 14/11 Q1019;",
"01023199999","2010-09-09T12:10:00","4","64.35","7.8","0.0","DRAUGEN, NO","FM-15","ENDR ","V020","200,1,N,0041,1","99999,9,9,Y","009900,1,N,1","+0160,1","+0130,1","99999,9",,,,,"10200,1,99999,9",,,,,"MET045METAR ENDR 091210Z 20008KT CAVOK 16/13 Q1020;",
"01023199999","2010-09-10T06:10:00","4","64.35","7.8","0.0","DRAUGEN, NO","FM-16","ENDR ","V020","120,1,N,0051,1","22000,1,9,N","999999,9,N,1","+0130,1","+0120,1","99999,9",,,,,"10180,1,99999,9",,,,,"MET050METAR ENDR 100610Z 12010KT VCFG VV099 13/12 Q1018;",
"01023199999","2010-09-10T12:10:00","4","64.35","7.8","0.0","DRAUGEN, NO","FM-16","ENDR ","V020","130,1,N,0057,1","02100,5,9,N","999999,9,N,1","+0140,1","+0110,1","99999,9","07,5,+02100,5,99,9",,,,"10160,1,99999,9",,,,,"MET046METAR ENDR 101210Z 13011KT BKN070 14/11 Q1016;",
"01023199999","2010-09-10T15:10:00","4","64.35","7.8","0.0","DRAUGEN, NO","FM-15","ENDR ","V020","140,1,N,0041,1","02100,1,C,N","011265,1,N,1","+0160,1","+0070,1","99999,9","07,5,+02100,1,99,9",,,"07,99,1,99,9,99,9,99999,9,99,9,99,9","10149,1,99999,9",,,,,"MET051METAR ENDR 101510Z 14008KT 9999 BKN070 16/07 Q1015;",
"01023199999","2010-09-11T06:10:00","4","64.35","7.8","0.0","DRAUGEN, NO","FM-15","ENDR ","V020","150,1,N,0072,1","99999,9,9,Y","009900,1,N,1","+0140,1","+0100,1","99999,9",,,,,"10091,1,99999,9",,,,,"MET045METAR ENDR 110610Z 15014KT CAVOK 14/10 Q1009;",
"01023199999","2010-09-11T09:10:00","4","64.35","7.8","0.0","DRAUGEN, NO","FM-15","ENDR ","V020","150,1,N,0057,1","99999,9,9,Y","009900,1,N,1","+0140,1","+0090,1","99999,9",,,,,"10091,1,99999,9",,,,,"MET045METAR ENDR 110910Z 15011KT CAVOK 14/09 Q1009;",
"01023199999","2010-09-16T12:10:00","4","64.35","7.8","0.0","DRAUGEN, NO","FM-15","ENDR ","V020","160,1,N,0087,1","01020,1,C,N","011265,1,N,1","+0120,1","+0070,1","99999,9","07,5,+01020,1,02,1",,,"07,99,1,99,9,99,9,99999,9,99,9,99,9","09821,1,99999,9","16,1",,,,"MET059METAR ENDR 161210Z 16017KT 9999 VCSH BKN034TCU 12/07 Q0982;",
"01023199999","2010-09-16T15:10:00","4","64.35","7.8","0.0","DRAUGEN, NO","FM-15","ENDR ","V020","130,1,N,0077,1","01620,5,C,N","011265,1,N,1","+0110,1","+0080,1","99999,9","07,5,+01620,5,02,1",,,"07,99,1,99,9,99,9,99999,9,99,9,99,9","09841,1,99999,9","16,1",,,,"MET059METAR ENDR 161510Z 13015KT 9999 VCSH BKN054TCU 11/08 Q0984;",
"01023199999","2010-09-17T06:10:00","4","64.35","7.8","0.0","DRAUGEN, NO","FM-15","ENDR ","V020","020,1,N,0051,1","01560,5,C,N","011265,1,N,1","+0120,1","+0090,1","99999,9","02,5,+00900,1,02,1","07,5,+01560,5,99,9",,"07,99,1,99,9,99,9,99999,9,99,9,99,9","09882,1,99999,9","16,1",,,,"MET066METAR ENDR 170610Z 02010KT 9999 VCSH FEW030TCU BKN052 12/09 Q0988;",
"01023199999","2010-09-17T09:20:00","4","64.35","7.8","0.0","DRAUGEN, NO","FM-15","ENDR ","V020","070,1,N,0026,1","99999,9,C,N","011265,1,N,1","+0150,1","+0080,1","99999,9","02,5,+00900,1,09,1","04,5,+01500,1,99,9",,"04,99,1,99,9,99,9,99999,9,99,9,99,9","09892,1,99999,9","16,1",,,,"MET065METAR ENDR 170920Z 07005KT 9999 VCSH FEW030CB SCT050 15/08 Q0989;","P01 015003SCOCIG"
"01023199999","2010-09-17T12:10:00","4","64.35","7.8","0.0","DRAUGEN, NO","FM-15","ENDR ","V020","140,1,N,0031,1","01740,5,C,N","011265,1,N,1","+0130,1","+0070,1","99999,9","04,5,+00510,1,02,1","07,5,+01740,5,99,9",,"07,99,1,99,9,99,9,99999,9,99,9,99,9","09898,1,99999,9","16,1",,,,"MET066METAR ENDR 171210Z 14006KT 9999 VCSH SCT017TCU BKN058 13/07 Q0990;",
"01023199999","2010-09-17T15:10:00","4","64.35","7.8","0.0","DRAUGEN, NO","FM-15","ENDR ","V020","080,1,N,0021,1","01320,1,C,N","011265,1,N,1","+0120,1","+0070,1","99999,9","04,5,+00510,1,09,1","07,5,+01320,1,99,9",,"07,99,1,99,9,99,9,99999,9,99,9,99,9","09909,1,99999,9","16,1",,,,"MET065METAR ENDR 171510Z 08004KT 9999 VCSH SCT017CB BKN044 12/07 Q0991;",
"01023199999","2010-09-18T06:10:00","4","64.35","7.8","0.0","DRAUGEN, NO","FM-15","ENDR ","V020","040,1,N,0067,1","01860,5,C,N","011265,1,N,1","+0130,1","+0100,1","99999,9","07,5,+01860,5,99,9",,,"07,99,1,99,9,99,9,99999,9,99,9,99,9","09949,1,99999,9",,,,,"MET051METAR ENDR 180610Z 04013KT 9999 BKN062 13/10 Q0995;",
"01023199999","2010-09-18T09:10:00","4","64.35","7.8","0.0","DRAUGEN, NO","FM-15","ENDR ","V020","030,1,N,0046,1","99999,9,9,Y","009900,1,N,1","+0150,1","+0100,1","99999,9",,,,,"09959,1,99999,9",,,,,"MET045METAR ENDR 180910Z 03009KT CAVOK 15/10 Q0996;",
"01023199999","2010-09-18T12:10:00","4","64.35","7.8","0.0","DRAUGEN, NO","FM-15","ENDR ","V020","010,1,N,0036,1","99999,9,C,N","011265,1,N,1","+0170,1","+0090,1","99999,9","02,5,+00750,1,99,9","04,5,+02100,1,99,9",,"04,99,1,99,9,99,9,99999,9,99,9,99,9","09970,1,99999,9",,,,,"MET058METAR ENDR 181210Z 01007KT 9999 FEW025 SCT070 17/09 Q0997;","P01 021003SCOCIG"
"01023199999","2010-09-18T15:10:00","4","64.35","7.8","0.0","DRAUGEN, NO","FM-15","ENDR ","V020","020,1,N,0041,1","99999,9,C,N","011265,1,N,1","+0160,1","+0100,1","99999,9","02,5,+00390,1,09,1","04,5,+02100,1,99,9",,"04,99,1,99,9,99,9,99999,9,99,9,99,9","09980,1,99999,9","16,1",,,,"MET065METAR ENDR 181510Z 02008KT 9999 VCSH FEW013CB SCT070 16/10 Q0998;","P01 021003SCOCIG"
"01023199999","2010-09-19T06:10:00","4","64.35","7.8","0.0","DRAUGEN, NO","FM-15","ENDR ","V020","360,1,N,0031,1","00870,1,C,N","011265,1,N,1","+0120,1","+0060,1","99999,9","08,5,+00870,1,99,9",,,"08,99,1,99,9,99,9,99999,9,99,9,99,9","10000,1,99999,9","16,1",,,,"MET064METAR ENDR 190610Z 36006KT 300V030 9999 VCSH OVC029 12/06 Q1000;",
"01023199999","2010-09-19T09:10:00","4","64.35","7.8","0.0","DRAUGEN, NO","FM-15","ENDR ","V020","300,1,N,0057,1","01140,1,C,N","011265,1,N,1","+0120,1","+0070,1","99999,9","02,5,+00840,1,99,9","07,5,+01140,1,99,9",,"07,99,1,99,9,99,9,99999,9,99,9,99,9","10010,1,99999,9","16,1",,,,"MET063METAR ENDR 190910Z 30011KT 9999 VCSH FEW028 BKN038 12/07 Q1001;",
"01023199999","2010-09-19T12:10:00","4","64.35","7.8","0.0","DRAUGEN, NO","FM-15","ENDR ","V020","300,1,N,0057,1","01470,1,C,N","011265,1,N,1","+0120,1","+0040,1","99999,9","02,5,+00750,1,09,1","04,5,+01470,1,99,9","07,5,+06000,1,99,9","07,99,1,99,9,99,9,99999,9,99,9,99,9","10010,1,99999,9",,,,,"MET067METAR ENDR 191210Z 30011KT 9999 FEW025CB SCT049 BKN200 12/04 Q1001;",
"01023199999","2010-09-19T15:10:00","4","64.35","7.8","0.0","DRAUGEN, NO","FM-15","ENDR ","V020","280,1,N,0067,1","99999,9,C,N","011265,1,N,1","+0140,1","+0050,1","99999,9","02,5,+00600,1,02,1","04,5,+01680,5,99,9",,"04,99,1,99,9,99,9,99999,9,99,9,99,9","10020,1,99999,9",,,,,"MET061METAR ENDR 191510Z 28013KT 9999 FEW020TCU SCT056 14/05 Q1002;","P01 016803SCOCIG"
"01023199999","2010-09-20T06:10:00","4","64.35","7.8","0.0","DRAUGEN, NO","FM-15","ENDR ","V020","250,1,N,0062,1","01080,1,C,N","011265,1,N,1","+0100,1","+0060,1","99999,9","02,5,+00540,1,99,9","07,5,+01080,1,99,9",,"07,99,1,99,9,99,9,99999,9,99,9,99,9","10020,1,99999,9","16,1",,,,"MET063METAR ENDR 200610Z 25012KT 9999 VCSH FEW018 BKN036 10/06 Q1002;",
"01023199999","2010-09-20T09:10:00","4","64.35","7.8","0.0","DRAUGEN, NO","FM-15","ENDR ","V020","240,1,N,0077,1","22000,1,9,N","011265,1,N,1","+0100,1","+0050,1","99999,9","02,5,+03900,1,99,9",,,"02,99,1,99,9,99,9,99999,9,99,9,99,9","10031,1,99999,9","16,1",,,,"MET056METAR ENDR 200910Z 24015KT 9999 VCSH FEW130 10/05 Q1003;",
"01023199999","2010-09-21T09:10:00","4","64.35","7.8","0.0","DRAUGEN, NO","FM-15","ENDR ","V020","999,9,9,9999,9","02400,1,C,N","011265,1,N,1","+0110,1","+0040,1","99999,9","04,5,+00720,1,09,1","07,5,+02400,1,99,9",,"07,99,1,99,9,99,9,99999,9,99,9,99,9","10108,1,99999,9","16,1",,,,"MET057METAR ENDR 210910Z 9999 VCSH SCT024CB BKN080 11/04 Q1011;",
"01023199999","2010-09-21T12:10:00","4","64.35","7.8","0.0","DRAUGEN, NO","FM-15","ENDR ","V020","260,1,N,0067,1","02400,1,C,N","011265,1,N,1","+0140,1","+0050,1","99999,9","04,5,+00780,1,02,1","07,5,+02400,1,99,9",,"07,99,1,99,9,99,9,99999,9,99,9,99,9","10129,1,99999,9","16,1",,,,"MET066METAR ENDR 211210Z 26013KT 9999 VCSH SCT026TCU BKN080 14/05 Q1013;",
"01023199999","2010-09-21T15:10:00","4","64.35","7.8","0.0","DRAUGEN, NO","FM-15","ENDR ","V020","280,1,N,0072,1","01110,1,C,N","011265,1,N,1","+0120,1","+0060,1","99999,9","04,5,+00540,1,09,1","04,5,+01110,1,99,9","07,5,+06000,1,99,9","07,99,1,99,9,99,9,99999,9,99,9,99,9","10139,1,99999,9","16,1",,,,"MET072METAR ENDR 211510Z 28014KT 9999 VCSH SCT018CB SCT037 BKN200 12/06 Q1014;",
"01023199999","2010-09-22T06:10:00","4","64.35","7.8","0.0","DRAUGEN, NO","FM-15","ENDR ","V020","120,1,N,0021,1","01080,1,C,N","011265,1,N,1","+0090,1","+0050,1","99999,9","08,5,+01080,1,99,9",,,"08,99,1,99,9,99,9,99999,9,99,9,99,9","10129,1,99999,9","61,1",,,,"MET063METAR ENDR 220610Z 12004KT 100V160 9999 -RA OVC036 09/05 Q1013;",
"01023199999","2010-09-22T09:20:00","4","64.35","7.8","0.0","DRAUGEN, NO","FM-15","ENDR ","V020","090,1,N,0057,1","00840,1,C,N","011265,1,N,1","+0100,1","+0060,1","99999,9","02,5,+00480,1,99,9","08,5,+00840,1,99,9",,"08,99,1,99,9,99,9,99999,9,99,9,99,9","10119,1,99999,9","61,1",,,,"MET062METAR ENDR 220920Z 09011KT 9999 -RA FEW016 OVC028 10/06 Q1012;",
"01023199999","2010-09-22T15:10:00","4","64.35","7.8","0.0","DRAUGEN, NO","FM-15","ENDR ","V020","080,1,N,0098,1","00210,1,C,N","009000,1,N,1","+0100,1","+0080,1","99999,9","07,5,+00210,1,99,9","08,5,+01200,1,99,9",,"08,99,1,99,9,99,9,99999,9,99,9,99,9","10071,1,99999,9","65,1",,,,"MET062METAR ENDR 221510Z 08019KT 9000 +RA BKN007 OVC040 10/08 Q1007;",
"01023199999","2010-09-23T06:10:00","4","64.35","7.8","0.0","DRAUGEN, NO","FM-15","ENDR ","V020","350,1,N,0129,1","00570,1,C,N","011265,1,N,1","+0110,1","+0060,1","99999,9","02,5,+00480,1,02,1","07,5,+00570,1,99,9",,"07,99,1,99,9,99,9,99999,9,99,9,99,9","10061,1,99999,9","16,1",,,,"MET066METAR ENDR 230610Z 35025KT 9999 VCSH FEW016TCU BKN019 11/06 Q1006;",
"01023199999","2010-09-23T09:10:00","4","64.35","7.8","0.0","DRAUGEN, NO","FM-15","ENDR ","V020","350,1,N,0134,1","00720,1,C,N","006000,1,N,1","+0110,1","+0050,1","99999,9","07,5,+00720,1,99,9",,,"07,99,1,99,9,99,9,99999,9,99,9,99,9","10081,1,99999,9","16,1",,,,"MET056METAR ENDR 230910Z 35026KT 6000 VCSH BKN024 11/05 Q1008;",
"01023199999","2010-09-23T15:10:00","4","64.35","7.8","0.0","DRAUGEN, NO","FM-15","ENDR ","V020","330,1,N,0062,1","00570,1,C,N","011265,1,N,1","+0100,1","+0030,1","99999,9","07,5,+00570,1,09,1",,,"07,99,1,99,9,99,9,99999,9,99,9,99,9","10091,1,99999,9","16,1",,,,"MET058METAR ENDR 231510Z 33012KT 9999 VCSH BKN019CB 10/03 Q1009;",
"01023199999","2010-09-24T06:10:00","4","64.35","7.8","0.0","DRAUGEN, NO","FM-15","ENDR ","V020","260,1,N,0031,1","00690,1,C,N","004000,1,N,1","+0080,1","+0050,1","99999,9","07,5,+00690,1,99,9",,,"07,99,1,99,9,99,9,99999,9,99,9,99,9","10061,1,99999,9","16,1",,,,"MET057METAR ENDR 240610Z 26006KT 4000S VCSH BKN023 08/05 Q1006;",
"01023199999","2010-09-24T12:20:00","4","64.35","7.8","0.0","DRAUGEN, NO","FM-15","ENDR ","V020","040,1,N,0062,1","00840,1,C,N","011265,1,N,1","+0120,1","+0020,1","99999,9","07,5,+00840,1,09,1",,,"07,99,1,99,9,99,9,99999,9,99,9,99,9","10071,1,99999,9","16,1",,,,"MET058METAR ENDR 241220Z 04012KT 9999 VCSH BKN028CB 12/02 Q1007;",
"01023199999","2010-09-24T15:10:00","4","64.35","7.8","0.0","DRAUGEN, NO","FM-15","ENDR ","V020","050,1,N,0087,1","99999,9,C,N","011265,1,N,1","+0110,1","+0020,1","99999,9","04,5,+00840,1,09,1","04,5,+01440,1,99,9",,"04,99,1,99,9,99,9,99999,9,99,9,99,9","10081,1,99999,9","16,1",,,,"MET065METAR ENDR 241510Z 05017KT 9999 VCSH SCT028CB SCT048 11/02 Q1008;","P01 014403SCOCIG"
"01023199999","2010-09-25T06:10:00","4","64.35","7.8","0.0","DRAUGEN, NO","FM-15","ENDR ","V020","030,1,N,0129,1","22000,1,9,N","011265,1,N,1","+0110,1","+0040,1","99999,9","04,5,+00810,1,99,9",,,"04,99,1,99,9,99,9,99999,9,99,9,99,9","10139,1,99999,9","16,1",,,,"MET056METAR ENDR 250610Z 03025KT 9999 VCSH SCT027 11/04 Q1014;",
"01023199999","2010-09-25T09:10:00","4","64.35","7.8","0.0","DRAUGEN, NO","FM-15","ENDR ","V020","030,1,N,0123,1","22000,1,9,N","011265,1,N,1","+0120,1","+0040,1","99999,9","04,5,+01440,1,09,1",,,"04,99,1,99,9,99,9,99999,9,99,9,99,9","10159,1,99999,9","16,1",,,,"MET058METAR ENDR 250910Z 03024KT 9999 VCSH SCT048CB 12/04 Q1016;",
"01023199999","2010-09-25T12:20:00","4","64.35","7.8","0.0","DRAUGEN, NO","FM-15","ENDR ","V020","030,1,N,0093,1","22000,1,9,N","011265,1,N,1","+0130,1","+0030,1","99999,9","04,5,+00780,1,99,9",,,"04,99,1,99,9,99,9,99999,9,99,9,99,9","10180,1,99999,9",,,,,"MET051METAR ENDR 251220Z 03018KT 9999 SCT026 13/03 Q1018;",
"01023199999","2010-09-25T15:10:00","4","64.35","7.8","0.0","DRAUGEN, NO","FM-15","ENDR ","V020","030,1,N,0093,1","99999,9,C,N","011265,1,N,1","+0120,1","+0030,1","99999,9","04,5,+00930,1,99,9","04,5,+06000,1,99,9",,"04,99,1,99,9,99,9,99999,9,99,9,99,9","10190,1,99999,9",,,,,"MET058METAR ENDR 251510Z 03018KT 9999 SCT031 SCT200 12/03 Q1019;","P01 060003SCOCIG"
"01023199999","2010-09-26T06:10:00","4","64.35","7.8","0.0","DRAUGEN, NO","FM-15","ENDR ","V020","060,1,N,0082,1","22000,1,9,N","011265,1,N,1","+0110,1","+0040,1","99999,9","04,5,+00900,1,02,1",,,"04,99,1,99,9,99,9,99999,9,99,9,99,9","10220,1,99999,9","16,1",,,,"MET059METAR ENDR 260610Z 06016KT 9999 VCSH SCT030TCU 11/04 Q1022;",
"01023199999","2010-09-26T15:10:00","4","64.35","7.8","0.0","DRAUGEN, NO","FM-15","ENDR ","V020","060,1,N,0082,1","22000,1,9,N","011265,1,N,1","+0130,1","+0040,1","99999,9","02,5,+00750,1,99,9",,,"02,99,1,99,9,99,9,99999,9,99,9,99,9","10230,1,99999,9",,,,,"MET051METAR ENDR 261510Z 06016KT 9999 FEW025 13/04 Q1023;",
"01023199999","2010-09-27T06:10:00","4","64.35","7.8","0.0","DRAUGEN, NO","FM-15","ENDR ","V020","070,1,N,0118,1","99999,9,9,Y","009900,1,N,1","+0110,1","+0030,1","99999,9",,,,,"10230,1,99999,9",,,,,"MET045METAR ENDR 270610Z 07023KT CAVOK 11/03 Q1023;",
"01023199999","2010-09-27T15:10:00","4","64.35","7.8","0.0","DRAUGEN, NO","FM-15","ENDR ","V020","080,1,N,0108,1","99999,9,9,Y","009900,1,N,1","+0130,1","+0020,1","99999,9",,,,,"10230,1,99999,9",,,,,"MET045METAR ENDR 271510Z 08021KT CAVOK 13/02 Q1023;",
"01023199999","2010-09-28T06:10:00","4","64.35","7.8","0.0","DRAUGEN, NO","FM-15","ENDR ","V020","110,1,N,0123,1","22000,1,9,N","011265,1,N,1","+0100,1","+0030,1","99999,9",,,,"00,99,1,99,9,99,9,99999,9,99,9,99,9","10210,1,99999,9",,,,,"MET048METAR ENDR 280610Z 11024KT 9999 SKC 10/03 Q1021;","Q01    003SCCGA1"
"01023199999","2010-09-28T09:10:00","4","64.35","7.8","0.0","DRAUGEN, NO","FM-15","ENDR ","V020","130,1,N,0093,1","22000,1,9,N","011265,1,N,1","+0100,1","+0040,1","99999,9",,,,"00,99,1,99,9,99,9,99999,9,99,9,99,9","10220,1,99999,9",,,,,"MET048METAR ENDR 280910Z 13018KT 9999 SKC 10/04 Q1022;","Q01    003SCCGA1"
"01023199999","2010-09-28T12:10:00","4","64.35","7.8","0.0","DRAUGEN, NO","FM-15","ENDR ","V020","140,1,N,0051,1","99999,9,9,Y","009900,1,N,1","+0110,1","+0050,1","99999,9",,,,,"10220,1,99999,9",,,,,"MET045METAR ENDR 281210Z 14010KT CAVOK 11/05 Q1022;",
"01023199999","2010-09-28T15:10:00","4","64.35","7.8","0.0","DRAUGEN, NO","FM-15","ENDR ","V020","999,9,9,9999,9","99999,9,9,Y","009900,1,N,1","+0130,1","+0080,1","99999,9",,,,,"10220,1,99999,9",,,,,"MET037METAR ENDR 281510Z CAVOK 13/08 Q1022;",
"01023199999","2010-09-29T06:10:00","4","64.35","7.8","0.0","DRAUGEN, NO","FM-15","ENDR ","V020","210,1,N,0046,1","99999,9,C,N","011265,1,N,1","+0110,1","+0090,1","99999,9","02,5,+00750,1,99,9","04,5,+06000,1,99,9",,"04,99,1,99,9,99,9,99999,9,99,9,99,9","10230,1,99999,9",,,,,"MET058METAR ENDR 290610Z 21009KT 9999 FEW025 SCT200 11/09 Q1023;","P01 060003SCOCIG"
"01023199999","2010-09-29T09:10:00","4","64.35","7.8","0.0","DRAUGEN, NO","FM-15","ENDR ","V020","200,1,N,0041,1","99999,9,C,N","011265,1,N,1","+0130,1","+0080,1","99999,9","02,5,+00750,1,99,9","04,5,+06000,1,99,9",,"04,99,1,99,9,99,9,99999,9,99,9,99,9","10240,1,99999,9",,,,,"MET058METAR ENDR 290910Z 20008KT 9999 FEW025 SCT200 13/08 Q1024;","P01 060003SCOCIG"
"01023199999","2010-09-29T12:10:00","4","64.35","7.8","0.0","DRAUGEN, NO","FM-15","ENDR ","V020","180,1,N,0036,1","99999,9,9,Y","009900,1,N,1","+0140,1","+0070,1","99999,9",,,,,"10240,1,99999,9",,,,,"MET045METAR ENDR 291210Z 18007KT CAVOK 14/07 Q1024;",
"01023199999","2010-09-29T15:10:00","4","64.35","7.8","0.0","DRAUGEN, NO","FM-15","ENDR ","V020","160,1,N,0036,1","99999,9,9,Y","009900,1,N,1","+0110,1","+0070,1","99999,9",,,,,"10240,1,99999,9",,,,,"MET045METAR ENDR 291510Z 16007KT CAVOK 11/07 Q1024;",
"01023199999","2010-09-30T09:10:00","4","64.35","7.8","0.0","DRAUGEN, NO","FM-15","ENDR ","V020","150,1,N,0036,1","99999,9,9,Y","009900,1,N,1","+0110,1","+0050,1","99999,9",,,,,"10210,1,99999,9",,,,,"MET045METAR ENDR 300910Z 15007KT CAVOK 11/05 Q1021;",
"01023199999","2010-09-30T12:10:00","4","64.35","7.8","0.0","DRAUGEN, NO","FM-15","ENDR ","V020","120,1,N,0015,1","99999,9,9,Y","009900,1,N,1","+0120,1","+0050,1","99999,9",,,,,"10210,1,99999,9",,,,,"MET045METAR ENDR 301210Z 12003KT CAVOK 12/05 Q1021;",
"01023199999","2010-09-30T15:10:00","4","64.35","7.8","0.0","DRAUGEN, NO","FM-15","ENDR ","V020","090,1,N,0010,1","99999,9,9,Y","009900,1,N,1","+0130,1","+0050,1","99999,9",,,,,"10200,1,99999,9",,,,,"MET045METAR ENDR 301510Z 09002KT CAVOK 13/05 Q1020;",
"01023199999","2010-10-01T09:10:00","4","64.35","7.8","0.0","DRAUGEN, NO","FM-15","ENDR ","V020","170,1,N,0051,1","99999,9,9,Y","009900,1,N,1","+0110,1","+0070,1","99999,9",,,,,"10159,1,99999,9",,,,,"MET045METAR ENDR 010910Z 17010KT CAVOK 11/07 Q1016;",
"01023199999","2010-10-01T12:10:00","4","64.35","7.8","0.0","DRAUGEN, NO","FM-15","ENDR ","V020","180,1,N,0051,1","99999,9,9,Y","009900,1,N,1","+0130,1","+0080,1","99999,9",,,,,"10159,1,99999,9",,,,,"MET045METAR ENDR 011210Z 18010KT CAVOK 13/08 Q1016;",
"01023199999","2010-10-01T15:10:00","4","64.35","7.8","0.0","DRAUGEN, NO","FM-15","ENDR ","V020","150,1,N,0010,1","99999,9,9,Y","009900,1,N,1","+0120,1","+0080,1","99999,9",,,,,"10149,1,99999,9",,,,,"MET045METAR ENDR 011510Z 15002KT CAVOK 12/08 Q1015;",
"01023199999","2010-10-02T06:10:00","4","64.35","7.8","0.0","DRAUGEN, NO","FM-15","ENDR ","V020","150,1,N,0067,1","99999,9,9,Y","009900,1,N,1","+0110,1","+0050,1","99999,9",,,,,"10119,1,99999,9",,,,,"MET045METAR ENDR 020610Z 15013KT CAVOK 11/05 Q1012;",
"01023199999","2010-10-11T12:10:00","4","64.35","7.8","0.0","DRAUGEN, NO","FM-15","ENDR ","V020","280,1,N,0144,1","00360,1,C,N","011265,1,N,1","+0090,1","+0070,1","99999,9","07,5,+00360,1,99,9",,,"07,99,1,99,9,99,9,99999,9,99,9,99,9","10190,1,99999,9","81,1",,,,"MET056METAR ENDR 111210Z 28028KT 9999 SHRA BKN012 09/07 Q1019;",
"01023199999","2010-10-11T15:10:00","4","64.35","7.8","0.0","DRAUGEN, NO","FM-15","ENDR ","V020","310,1,N,0118,1","00510,1,C,N","011265,1,N,1","+0090,1","+0060,1","99999,9","04,5,+00330,1,99,9","07,5,+00510,1,99,9",,"07,99,1,99,9,99,9,99999,9,99,9,99,9","10180,1,99999,9","81,1",,,,"MET063METAR ENDR 111510Z 31023KT 9999 SHRA SCT011 BKN017 09/06 Q1018;",
"01023199999","2010-10-12T06:50:00","4","64.35","7.8","0.0","DRAUGEN, NO","FM-15","ENDR ","V020","010,1,N,0072,1","02700,1,C,N","011265,1,N,1","+0070,1","+0020,1","99999,9","04,5,+00600,1,99,9","07,5,+02700,1,99,9",,"07,99,1,99,9,99,9,99999,9,99,9,99,9","10220,1,99999,9",,,,,"MET058METAR ENDR 120650Z 01014KT 9999 SCT020 BKN090 07/02 Q1022;",
"01023199999","2010-10-12T09:10:00","4","64.35","7.8","0.0","DRAUGEN, NO","FM-15","ENDR ","V020","010,1,N,0057,1","04500,1,C,N","011265,1,N,1","+0070,1","+0010,1","99999,9","04,5,+00750,1,99,9","07,5,+04500,1,99,9",,"07,99,1,99,9,99,9,99999,9,99,9,99,9","10220,1,99999,9",,,,,"MET058METAR ENDR 120910Z 01011KT 9999 SCT025 BKN150 07/01 Q1022;",
"01023199999","2010-10-12T14:20:00","4","64.35","7.8","0.0","DRAUGEN, NO","FM-15","ENDR ","V020","340,1,N,0026,1","02100,5,9,N","999999,9,N,1","+0080,1","+0010,1","99999,9","04,5,+01500,5,99,9","07,5,+02100,5,99,9",,,"10220,1,99999,9",,,,,"MET061METAR ENDR 121420Z 34005KT 300V020 SCT050 BKN070 08/01 Q1022;",
"01023199999","2010-10-12T15:20:00","4","64.35","7.8","0.0","DRAUGEN, NO","FM-15","ENDR ","V020","320,1,N,0057,1","01050,5,9,N","999999,9,N,1","+0080,1","+0010,1","99999,9","04,5,+00750,5,99,9","07,5,+01050,5,99,9","07,5,+01650,5,99,9",,"10210,1,99999,9",,,,,"MET065METAR ENDR 121520Z 32011KT SHRA SCT025 BKN035 BKN055 08/01 Q1021;",
"01023199999","2010-10-13T06:10:00","4","64.35","7.8","0.0","DRAUGEN, NO","FM-16","ENDR ","V020","180,1,N,0041,1","00750,5,9,N","999999,9,N,1","+0060,1","+0050,1","99999,9","02,5,+00450,5,99,9","07,5,+00750,5,99,9",,,"10150,1,99999,9",,,,,"MET057METAR ENDR 130610Z 18008KT -RA FEW015 BKN025 06/05 Q1015;",
"01023199999","2010-10-14T09:20:00","4","64.35","7.8","0.0","DRAUGEN, NO","FM-15","ENDR ","V020","350,1,N,0103,1","00600,1,C,N","011265,1,N,1","+0060,1","+0000,1","99999,9","07,5,+00600,1,99,9","07,5,+01800,1,99,9",,"07,99,1,99,9,99,9,99999,9,99,9,99,9","10129,1,99999,9","63,1","90,1",,"0159,1","MET068METAR ENDR 140920Z 35020G31KT 9999 SHGRRA BKN020 BKN060 06/00 Q1013;",
"01023199999","2010-10-14T09:50:00","4","64.35","7.8","0.0","DRAUGEN, NO","FM-15","ENDR ","V020","360,1,N,0149,1","01800,1,C,N","011265,1,N,1","+0080,1","+0000,1","99999,9","02,5,+01200,1,99,9","07,5,+01800,1,99,9",,"07,99,1,99,9,99,9,99999,9,99,9,99,9","10129,1,99999,9",,,,,"MET059METAR ENDR 140950Z 36029KT 9999 FEW040 BKN060 08/M00 Q1013;",
"01023199999","2010-10-15T09:10:00","4","64.35","7.8","0.0","DRAUGEN, NO","FM-15","ENDR ","V020","360,1,N,0077,1","22000,1,9,N","011265,1,N,1","+0070,1","+0020,1","99999,9","04,5,+00600,1,02,1",,,"04,99,1,99,9,99,9,99999,9,99,9,99,9","10129,1,99999,9","81,1",,,,"MET067METAR ENDR 150910Z 36015KT 310V020 9999 SHRA SCT020TCU 07/02 Q1013;",
"01023199999","2010-10-15T15:10:00","4","64.35","7.8","0.0","DRAUGEN, NO","FM-15","ENDR ","V020","360,1,N,0062,1","22000,1,9,N","011265,1,N,1","+0080,1","-0020,1","99999,9","04,5,+00900,1,99,9",,,"04,99,1,99,9,99,9,99999,9,99,9,99,9","10149,1,99999,9",,,,,"MET052METAR ENDR 151510Z 36012KT 9999 SCT030 08/M02 Q1015;",
"01023199999","2010-10-16T09:10:00","4","64.35","7.8","0.0","DRAUGEN, NO","FM-15","ENDR ","V020","300,1,N,0072,1","00750,1,C,N","011265,1,N,1","+0080,1","+0020,1","99999,9","07,5,+00750,1,99,9","07,5,+02400,1,99,9",,"07,99,1,99,9,99,9,99999,9,99,9,99,9","10180,1,99999,9",,,,,"MET058METAR ENDR 160910Z 30014KT 9999 BKN025 BKN080 08/02 Q1018;",
"01023199999","2010-10-16T12:10:00","4","64.35","7.8","0.0","DRAUGEN, NO","FM-15","ENDR ","V020","260,1,N,0082,1","00750,1,C,N","011265,1,N,1","+0090,1","+0040,1","99999,9","07,5,+00750,1,99,9","07,5,+02550,5,99,9",,"07,99,1,99,9,99,9,99999,9,99,9,99,9","10180,1,99999,9",,,,,"MET058METAR ENDR 161210Z 26016KT 9999 BKN025 BKN085 09/04 Q1018;",
"01023199999","2010-10-18T15:10:00","4","64.35","7.8","0.0","DRAUGEN, NO","FM-15","ENDR ","V020","210,1,N,0134,1","01200,1,C,N","011265,1,N,1","+0090,1","+0050,1","99999,9","04,5,+00450,1,99,9","07,5,+01200,1,99,9",,"07,99,1,99,9,99,9,99999,9,99,9,99,9","09871,1,99999,9","16,1",,,,"MET063METAR ENDR 181510Z 21026KT 9999 VCSH SCT015 BKN040 09/05 Q0987;",
"01023199999","2010-10-19T09:20:00","4","64.35","7.8","0.0","DRAUGEN, NO","FM-15","ENDR ","V020","350,1,N,0129,1","01500,1,C,N","011265,1,N,1","+0050,1","+0010,1","99999,9","02,5,+00450,1,99,9","07,5,+01500,1,99,9","07,5,+02400,1,99,9","07,99,1,99,9,99,9,99999,9,99,9,99,9","09970,1,99999,9","81,1",,,"0206,1","MET073METAR ENDR 190920Z 35025G40KT 9999 SHRA FEW015 BKN050 BKN080 05/01 Q0997;",
"01023199999","2010-10-20T09:20:00","4","64.35","7.8","0.0","DRAUGEN, NO","FM-15","ENDR ","V020","330,1,N,0046,1","99999,9,C,N","011265,1,N,1","+0040,1","-0070,1","99999,9","04,5,+00600,1,09,1","04,5,+01200,1,99,9",,"04,99,1,99,9,99,9,99999,9,99,9,99,9","10031,1,99999,9","16,1",,,,"MET074METAR ENDR 200920Z 33009KT 310V020 9999 VCSH SCT020CB SCT040 04/M07 Q1003;","P01 012003SCOCIG"
"01023199999","2010-10-21T12:10:00","4","64.35","7.8","0.0","DRAUGEN, NO","FM-15","ENDR ","V020","110,1,N,0041,1","00300,1,C,N","011265,1,N,1","+0010,1","+0000,1","99999,9","08,5,+00300,1,99,9",,,"08,99,1,99,9,99,9,99999,9,99,9,99,9","09959,1,99999,9","10,1","63,1","73,1",,"MET059METAR ENDR 211210Z 11008KT 9999 SNRA BR OVC010 01/00 Q0996;",
"01023199999","2010-10-22T14:10:00","4","64.35","7.8","0.0","DRAUGEN, NO","FM-15","ENDR ","V020","250,1,N,0123,1","03300,1,C,N","011265,1,N,1","+0060,1","-0010,1","99999,9","04,5,+01050,1,99,9","07,5,+03300,1,99,9",,"07,99,1,99,9,99,9,99999,9,99,9,99,9","09949,1,99999,9",,,,,"MET059METAR ENDR 221410Z 25024KT 9999 SCT035 BKN110 06/M01 Q0995;",
"01023199999","2010-10-24T06:10:00","4","64.35","7.8","0.0","DRAUGEN, NO","FM-15","ENDR ","V020","310,1,N,0159,1","00750,1,C,N","011265,1,N,1","+0060,1","+0000,1","99999,9","07,5,+00750,1,99,9","07,5,+02700,1,99,9",,"07,99,1,99,9,99,9,99999,9,99,9,99,9","10000,1,99999,9","16,1",,,,"MET064METAR ENDR 240610Z 31031KT 9999 VCSH BKN025 BKN090 06/M00 Q1000;",
"01023199999","2010-10-24T12:10:00","4","64.35","7.8","0.0","DRAUGEN, NO","FM-15","ENDR ","V020","280,1,N,0149,1","22000,1,9,N","011265,1,N,1","+0060,1","+0020,1","99999,9","04,5,+00750,1,02,1",,,"04,99,1,99,9,99,9,99999,9,99,9,99,9","10010,1,99999,9","16,1",,,,"MET059METAR ENDR 241210Z 28029KT 9999 VCSH SCT025TCU 06/02 Q1001;",
"01023199999","2010-10-25T15:10:00","4","64.35","7.8","0.0","DRAUGEN, NO","FM-15","ENDR ","V020","330,1,N,0087,1","00660,1,C,N","011265,1,N,1","+0080,1","+0030,1","99999,9","07,5,+00660,1,99,9","04,5,+01800,1,99,9",,,"10091,1,99999,9","16,1",,,,"MET063METAR ENDR 251510Z 33017KT 9999 VCSH BKN022 SCT060 08/03 Q1009;","Q01+000042SCOTCV"
"01023199999","2010-10-26T12:10:00","4","64.35","7.8","0.0","DRAUGEN, NO","FM-15","ENDR ","V020","180,1,N,0077,1","02100,1,C,N","011265,1,N,1","+0070,1","+0020,1","99999,9","04,5,+00600,1,99,9","07,5,+02100,1,99,9",,"07,99,1,99,9,99,9,99999,9,99,9,99,9","10149,1,99999,9","16,1",,,,"MET063METAR ENDR 261210Z 18015KT 9999 VCSH SCT020 BKN070 07/02 Q1015;",
"01023199999","2010-10-27T09:10:00","4","64.35","7.8","0.0","DRAUGEN, NO","FM-15","ENDR ","V020","120,1,N,0113,1","01650,5,C,N","011265,1,N,1","+0070,1","+0020,1","99999,9","08,5,+01650,5,99,9",,,"08,99,1,99,9,99,9,99999,9,99,9,99,9","09929,1,99999,9","53,1",,,,"MET054METAR ENDR 270910Z 12022KT 9999 DZ OVC055 07/02 Q0993;",
"01023199999","2010-10-27T12:10:00","4","64.35","7.8","0.0","DRAUGEN, NO","FM-15","ENDR ","V020","120,1,N,0123,1","01800,1,C,N","011265,1,N,1","+0070,1","+0050,1","99999,9","04,5,+01200,1,99,9","08,5,+01800,1,99,9",,"08,99,1,99,9,99,9,99999,9,99,9,99,9","09892,1,99999,9","61,1",,,,"MET062METAR ENDR 271210Z 12024KT 9999 -RA SCT040 OVC060 07/05 Q0989;",
"01023199999","2010-10-28T12:20:00","4","64.35","7.8","0.0","DRAUGEN, NO","FM-15","ENDR ","V020","230,1,N,0247,1","00510,1,C,N","011265,1,N,1","+0080,1","+0060,1","99999,9","07,5,+00510,1,99,9",,,"07,99,1,99,9,99,9,99999,9,99,9,99,9","09871,1,99999,9","16,1",,,,"MET056METAR ENDR 281220Z 23048KT 9999 VCSH BKN017 08/06 Q0987;",
"01023199999","2010-11-03T15:10:00","4","64.35","7.8","0.0","DRAUGEN, NO","FM-15","ENDR ","V020","230,1,N,0247,1","00660,1,C,N","011265,1,N,1","+0080,1","+0050,1","99999,9","04,5,+00480,1,09,1","07,5,+00660,1,99,9","07,5,+02400,1,99,9","07,99,1,99,9,99,9,99999,9,99,9,99,9","09790,1,99999,9","16,1",,,,"MET072METAR ENDR 031510Z 23048KT 9999 VCSH SCT016CB BKN022 BKN080 08/05 Q0979;",
"01023199999","2010-11-07T09:10:00","4","64.35","7.8","0.0","DRAUGEN, NO","FM-15","ENDR ","V020","320,1,N,0123,1","22000,1,9,N","011265,1,N,1","+0030,1","-0060,1","99999,9","04,5,+01740,5,09,1",,,"04,99,1,99,9,99,9,99999,9,99,9,99,9","10000,1,99999,9","16,1",,,,"MET059METAR ENDR 070910Z 32024KT 9999 VCSH SCT058CB 03/M06 Q1000;",
"01023199999","2010-12-12T18:20:00","4","64.35","7.8","0.0","DRAUGEN, NO","FM-15","ENDR ","V020","999,9,9,9999,9","22000,1,9,N","999999,9,N,1","+0050,1","+0010,1","99999,9",,,,,"10160,1,99999,9",,,,,"MET051METAR ENDR 121820Z 121FEW024/// 05/01 Q1016 W03/S4;",
"01023199999","2010-12-14T10:50:00","4","64.35","7.8","0.0","DRAUGEN, NO","AUTO ","ENDR ","V020","010,1,N,0062,1","22000,1,9,N","999999,9,N,1","+0050,1","-0010,1","99999,9",,,,,"10318,1,99999,9",,,,,"MET045METAR ENDR 141050Z AUTO 01012KT 05/M01 Q1032;",
"01023199999","2010-12-14T11:20:00","4","64.35","7.8","0.0","DRAUGEN, NO","AUTO ","ENDR ","V020","360,1,N,0046,1","22000,1,9,N","999999,9,N,1","+0050,1","-0010,1","99999,9",,,,,"10318,1,99999,9",,,,,"MET045METAR ENDR 141120Z AUTO 36009KT 05/M01 Q1032;",
"01023199999","2010-12-14T11:50:00","4","64.35","7.8","0.0","DRAUGEN, NO","AUTO ","ENDR ","V020","350,1,N,0057,1","22000,1,9,N","999999,9,N,1","+0060,1","-0020,1","99999,9",,,,,"10318,1,99999,9",,,,,"MET045METAR ENDR 141150Z AUTO 35011KT 06/M02 Q1032;",
"01023199999","2010-12-14T12:20:00","4","64.35","7.8","0.0","DRAUGEN, NO","AUTO ","ENDR ","V020","350,1,N,0036,1","22000,1,9,N","999999,9,N,1","+0060,1","-0010,1","99999,9",,,,,"10318,1,99999,9",,,,,"MET045METAR ENDR 141220Z AUTO 35007KT 06/M01 Q1032;",
"01023199999","2010-12-14T12:50:00","4","64.35","7.8","0.0","DRAUGEN, NO","AUTO ","ENDR ","V020","350,1,N,0026,1","22000,1,9,N","999999,9,N,1","+0070,1","-0010,1","99999,9",,,,,"10318,1,99999,9",,,,,"MET053METAR ENDR 141250Z AUTO 35005KT 290V040 07/M01 Q1032;",
"01023199999","2010-12-14T13:20:00","4","64.35","7.8","0.0","DRAUGEN, NO","AUTO ","ENDR ","V020","360,1,N,0036,1","22000,1,9,N","999999,9,N,1","+0060,1","-0020,1","99999,9",,,,,"10318,1,99999,9",,,,,"MET045METAR ENDR 141320Z AUTO 36007KT 06/M02 Q1032;",
"01023199999","2010-12-14T13:50:00","4","64.35","7.8","0.0","DRAUGEN, NO","AUTO ","ENDR ","V020","260,1,N,0041,1","22000,1,9,N","999999,9,N,1","+0050,1","-0010,1","99999,9",,,,,"10329,1,99999,9",,,,,"MET045METAR ENDR 141350Z AUTO 26008KT 05/M01 Q1033;",
"01023199999","2010-12-14T14:20:00","4","64.35","7.8","0.0","DRAUGEN, NO","AUTO ","ENDR ","V020","290,1,N,0046,1","22000,1,9,N","999999,9,N,1","+0050,1","-0010,1","99999,9",,,,,"10329,1,99999,9",,,,,"MET045METAR ENDR 141420Z AUTO 29009KT 05/M01 Q1033;",
"01023199999","2010-12-14T14:50:00","4","64.35","7.8","0.0","DRAUGEN, NO","AUTO ","ENDR ","V020","340,1,N,0021,1","22000,1,9,N","999999,9,N,1","+0060,1","-0010,1","99999,9",,,,,"10329,1,99999,9",,,,,"MET045METAR ENDR 141450Z AUTO 34004KT 06/M01 Q1033;",
"01023199999","2010-12-14T15:10:00","4","64.35","7.8","0.0","DRAUGEN, NO","FM-15","ENDR ","V020","320,1,N,0021,1","01230,1,C,N","011265,1,N,1","+0050,1","-0010,1","99999,9","08,5,+01230,1,99,9",,,"08,99,1,99,9,99,9,99999,9,99,9,99,9","10329,1,99999,9",,,,,"MET052METAR ENDR 141510Z 32004KT 9999 OVC041 05/M01 Q1033;",
"01023199999","2010-12-14T15:50:00","4","64.35","7.8","0.0","DRAUGEN, NO","AUTO ","ENDR ","V020","270,1,N,0041,1","22000,1,9,N","999999,9,N,1","+0050,1","-0010,1","99999,9",,,,,"10329,1,99999,9",,,,,"MET045METAR ENDR 141550Z AUTO 27008KT 05/M01 Q1033;",
"01023199999","2010-12-14T16:20:00","4","64.35","7.8","0.0","DRAUGEN, NO","AUTO ","ENDR ","V020","270,1,N,0031,1","22000,1,9,N","999999,9,N,1","+0050,1","-0020,1","99999,9",,,,,"10329,1,99999,9",,,,,"MET045METAR ENDR 141620Z AUTO 27006KT 05/M02 Q1033;",
"01023199999","2010-12-14T16:50:00","4","64.35","7.8","0.0","DRAUGEN, NO","AUTO ","ENDR ","V020","250,1,N,0031,1","22000,1,9,N","999999,9,N,1","+0050,1","-0010,1","99999,9",,,,,"10329,1,99999,9",,,,,"MET045METAR ENDR 141650Z AUTO 25006KT 05/M01 Q1033;",
"01023199999","2010-12-14T19:50:00","4","64.35","7.8","0.0","DRAUGEN, NO","AUTO ","ENDR ","V020","250,1,N,0067,1","22000,1,9,N","999999,9,N,1","+0050,1","-0020,1","99999,9",,,,,"10329,1,99999,9",,,,,"MET045METAR ENDR 141950Z AUTO 25013KT 05/M02 Q1033;",
"01023199999","2010-12-14T20:20:00","4","64.35","7.8","0.0","DRAUGEN, NO","AUTO ","ENDR ","V020","240,1,N,0062,1","22000,1,9,N","999999,9,N,1","+0050,1","-0010,1","99999,9",,,,,"10329,1,99999,9",,,,,"MET045METAR ENDR 142020Z AUTO 24012KT 05/M01 Q1033;",
"01023199999","2010-12-14T20:50:00","4","64.35","7.8","0.0","DRAUGEN, NO","AUTO ","ENDR ","V020","250,1,N,0067,1","22000,1,9,N","999999,9,N,1","+0060,1","-0010,1","99999,9",,,,,"10329,1,99999,9",,,,,"MET045METAR ENDR 142050Z AUTO 25013KT 06/M01 Q1033;",
"01023199999","2010-12-14T21:20:00","4","64.35","7.8","0.0","DRAUGEN, NO","AUTO ","ENDR ","V020","240,1,N,0072,1","22000,1,9,N","999999,9,N,1","+0050,1","+0000,1","99999,9",,,,,"10318,1,99999,9",,,,,"MET045METAR ENDR 142120Z AUTO 24014KT 05/M00 Q1032;",
"01023199999","2010-12-14T21:50:00","4","64.35","7.8","0.0","DRAUGEN, NO","AUTO ","ENDR ","V020","240,1,N,0077,1","22000,1,9,N","999999,9,N,1","+0060,1","-0010,1","99999,9",,,,,"10318,1,99999,9",,,,,"MET045METAR ENDR 142150Z AUTO 24015KT 06/M01 Q1032;",
"01023199999","2010-12-14T22:20:00","4","64.35","7.8","0.0","DRAUGEN, NO","AUTO ","ENDR ","V020","240,1,N,0087,1","22000,1,9,N","999999,9,N,1","+0050,1","-0010,1","99999,9",,,,,"10312,1,99999,9",,,,,"MET045METAR ENDR 142220Z AUTO 24017KT 05/M01 Q1031;",
"01023199999","2010-12-14T22:50:00","4","64.35","7.8","0.0","DRAUGEN, NO","AUTO ","ENDR ","V020","230,1,N,0098,1","22000,1,9,N","999999,9,N,1","+0050,1","-0010,1","99999,9",,,,,"10312,1,99999,9",,,,,"MET045METAR ENDR 142250Z AUTO 23019KT 05/M01 Q1031;",
"01023199999","2010-12-14T23:20:00","4","64.35","7.8","0.0","DRAUGEN, NO","AUTO ","ENDR ","V020","230,1,N,0087,1","22000,1,9,N","999999,9,N,1","+0050,1","+0000,1","99999,9",,,,,"10312,1,99999,9",,,,,"MET044METAR ENDR 142320Z AUTO 23017KT 05/00 Q1031;",
"01023199999","2010-12-14T23:50:00","4","64.35","7.8","0.0","DRAUGEN, NO","AUTO ","ENDR ","V020","240,1,N,0108,1","22000,1,9,N","999999,9,N,1","+0050,1","+0020,1","99999,9",,,,,"10301,1,99999,9",,,,,"MET044METAR ENDR 142350Z AUTO 24021KT 05/02 Q1030;",
"01023199999","2010-12-15T00:20:00","4","64.35","7.8","0.0","DRAUGEN, NO","AUTO ","ENDR ","V020","230,1,N,0113,1","22000,1,9,N","999999,9,N,1","+0050,1","+0030,1","99999,9",,,,,"10301,1,99999,9",,,,,"MET044METAR ENDR 150020Z AUTO 23022KT 05/03 Q1030;",
"01023199999","2010-12-15T00:50:00","4","64.35","7.8","0.0","DRAUGEN, NO","AUTO ","ENDR ","V020","230,1,N,0123,1","22000,1,9,N","999999,9,N,1","+0050,1","+0030,1","99999,9",,,,,"10291,1,99999,9",,,,,"MET044METAR ENDR 150050Z AUTO 23024KT 05/03 Q1029;",
"01023199999","2010-12-15T01:20:00","4","64.35","7.8","0.0","DRAUGEN, NO","AUTO ","ENDR ","V020","230,1,N,0113,1","22000,1,9,N","999999,9,N,1","+0050,1","+0040,1","99999,9",,,,,"10291,1,99999,9",,,,,"MET044METAR ENDR 150120Z AUTO 23022KT 05/04 Q1029;",
"01023199999","2010-12-15T01:50:00","4","64.35","7.8","0.0","DRAUGEN, NO","AUTO ","ENDR ","V020","230,1,N,0123,1","22000,1,9,N","999999,9,N,1","+0050,1","+0040,1","99999,9",,,,,"10281,1,99999,9",,,,,"MET044METAR ENDR 150150Z AUTO 23024KT 05/04 Q1028;",
"01023199999","2010-12-15T02:20:00","4","64.35","7.8","0.0","DRAUGEN, NO","AUTO ","ENDR ","V020","220,1,N,0123,1","22000,1,9,N","999999,9,N,1","+0050,1","+0030,1","99999,9",,,,,"10271,1,99999,9",,,,,"MET044METAR ENDR 150220Z AUTO 22024KT 05/03 Q1027;",
"01023199999","2010-12-15T02:50:00","4","64.35","7.8","0.0","DRAUGEN, NO","AUTO ","ENDR ","V020","230,1,N,0144,1","22000,1,9,N","999999,9,N,1","+0050,1","+0040,1","99999,9",,,,,"10261,1,99999,9",,,,,"MET044METAR ENDR 150250Z AUTO 23028KT 05/04 Q1026;",
"01023199999","2010-12-15T03:20:00","4","64.35","7.8","0.0","DRAUGEN, NO","AUTO ","ENDR ","V020","230,1,N,0149,1","22000,1,9,N","999999,9,N,1","+0050,1","+0040,1","99999,9",,,,,"10251,1,99999,9",,,,,"MET044METAR ENDR 150320Z AUTO 23029KT 05/04 Q1025;",
"01023199999","2010-12-15T03:50:00","4","64.35","7.8","0.0","DRAUGEN, NO","AUTO ","ENDR ","V020","230,1,N,0144,1","22000,1,9,N","999999,9,N,1","+0050,1","+0040,1","99999,9",,,,,"10251,1,99999,9",,,,,"MET044METAR ENDR 150350Z AUTO 23028KT 05/04 Q1025;",
"01023199999","2010-12-15T04:20:00","4","64.35","7.8","0.0","DRAUGEN, NO","AUTO ","ENDR ","V020","230,1,N,0149,1","22000,1,9,N","999999,9,N,1","+0050,1","+0040,1","99999,9",,,,,"10240,1,99999,9",,,,,"MET044METAR ENDR 150420Z AUTO 23029KT 05/04 Q1024;",
"01023199999","2010-12-15T04:50:00","4","64.35","7.8","0.0","DRAUGEN, NO","AUTO ","ENDR ","V020","240,1,N,0149,1","22000,1,9,N","999999,9,N,1","+0050,1","+0040,1","99999,9",,,,,"10230,1,99999,9",,,,,"MET044METAR ENDR 150450Z AUTO 24029KT 05/04 Q1023;",
"01023199999","2010-12-15T05:20:00","4","64.35","7.8","0.0","DRAUGEN, NO","AUTO ","ENDR ","V020","230,1,N,0149,1","22000,1,9,N","999999,9,N,1","+0050,1","+0030,1","99999,9",,,,,"10220,1,99999,9",,,,,"MET044METAR ENDR 150520Z AUTO 23029KT 05/03 Q1022;",
"01023199999","2010-12-15T05:50:00","4","64.35","7.8","0.0","DRAUGEN, NO","AUTO ","ENDR ","V020","230,1,N,0144,1","22000,1,9,N","999999,9,N,1","+0050,1","+0040,1","99999,9",,,,,"10220,1,99999,9",,,,,"MET044METAR ENDR 150550Z AUTO 23028KT 05/04 Q1022;",
"01023199999","2010-12-15T06:10:00","4","64.35","7.8","0.0","DRAUGEN, NO","FM-15","ENDR ","V020","220,1,N,0159,1","00180,1,C,N","006000,1,N,1","+0050,1","+0040,1","99999,9","07,5,+00180,1,99,9",,,"07,99,1,99,9,99,9,99999,9,99,9,99,9","10210,1,99999,9","61,1",,,,"MET055METAR ENDR 150610Z 22031KT 6000 -RA BKN006 05/04 Q1021;",
"01023199999","2010-12-15T06:50:00","4","64.35","7.8","0.0","DRAUGEN, NO","AUTO ","ENDR ","V020","220,1,N,0159,1","22000,1,9,N","999999,9,N,1","+0050,1","+0050,1","99999,9",,,,,"10200,1,99999,9",,,,,"MET044METAR ENDR 150650Z AUTO 22031KT 05/05 Q1020;",
"01023199999","2010-12-15T07:20:00","4","64.35","7.8","0.0","DRAUGEN, NO","AUTO ","ENDR ","V020","220,1,N,0170,1","22000,1,9,N","999999,9,N,1","+0060,1","+0050,1","99999,9",,,,,"10190,1,99999,9",,,,,"MET044METAR ENDR 150720Z AUTO 22033KT 06/05 Q1019;",
"01023199999","2010-12-15T07:50:00","4","64.35","7.8","0.0","DRAUGEN, NO","AUTO ","ENDR ","V020","220,1,N,0175,1","22000,1,9,N","999999,9,N,1","+0060,1","+0050,1","99999,9",,,,,"10180,1,99999,9",,,,,"MET044METAR ENDR 150750Z AUTO 22034KT 06/05 Q1018;",
"01023199999","2010-12-15T08:20:00","4","64.35","7.8","0.0","DRAUGEN, NO","AUTO ","ENDR ","V020","220,1,N,0190,1","22000,1,9,N","999999,9,N,1","+0060,1","+0050,1","99999,9",,,,,"10169,1,99999,9",,,,,"MET044METAR ENDR 150820Z AUTO 22037KT 06/05 Q1017;",
"01023199999","2010-12-15T08:50:00","4","64.35","7.8","0.0","DRAUGEN, NO","AUTO ","ENDR ","V020","220,1,N,0195,1","22000,1,9,N","999999,9,N,1","+0060,1","+0050,1","99999,9",,,,,"10159,1,99999,9",,,,,"MET044METAR ENDR 150850Z AUTO 22038KT 06/05 Q1016;",
"01023199999","2010-12-15T09:10:00","4","64.35","7.8","0.0","DRAUGEN, NO","FM-15","ENDR ","V020","220,1,N,0195,1","00120,1,C,N","002500,1,N,1","+0060,1","+0060,1","99999,9","08,5,+00120,1,99,9",,,"08,99,1,99,9,99,9,99999,9,99,9,99,9","10159,1,99999,9","61,1",,,,"MET055METAR ENDR 150910Z 22038KT 2500 -RA OVC004 06/06 Q1016;",
"01023199999","2010-12-15T09:50:00","4","64.35","7.8","0.0","DRAUGEN, NO","AUTO ","ENDR ","V020","220,1,N,0195,1","22000,1,9,N","999999,9,N,1","+0070,1","+0060,1","99999,9",,,,,"10139,1,99999,9",,,,,"MET044METAR ENDR 150950Z AUTO 22038KT 07/06 Q1014;",
"01023199999","2010-12-15T10:20:00","4","64.35","7.8","0.0","DRAUGEN, NO","AUTO ","ENDR ","V020","220,1,N,0206,1","22000,1,9,N","999999,9,N,1","+0070,1","+0060,1","99999,9",,,,,"10129,1,99999,9",,,,,"MET044METAR ENDR 151020Z AUTO 22040KT 07/06 Q1013;",
"01023199999","2010-12-15T10:50:00","4","64.35","7.8","0.0","DRAUGEN, NO","AUTO ","ENDR ","V020","220,1,N,0201,1","22000,1,9,N","999999,9,N,1","+0070,1","+0060,1","99999,9",,,,,"10108,1,99999,9",,,,,"MET044METAR ENDR 151050Z AUTO 22039KT 07/06 Q1011;",
"01023199999","2010-12-15T11:20:00","4","64.35","7.8","0.0","DRAUGEN, NO","AUTO ","ENDR ","V020","220,1,N,0211,1","22000,1,9,N","999999,9,N,1","+0070,1","+0060,1","99999,9",,,,,"10102,1,99999,9",,,,,"MET044METAR ENDR 151120Z AUTO 22041KT 07/06 Q1010;",
"01023199999","2010-12-15T11:50:00","4","64.35","7.8","0.0","DRAUGEN, NO","AUTO ","ENDR ","V020","220,1,N,0211,1","22000,1,9,N","999999,9,N,1","+0070,1","+0060,1","99999,9",,,,,"10091,1,99999,9",,,,,"MET044METAR ENDR 151150Z AUTO 22041KT 07/06 Q1009;",
"01023199999","2010-12-15T12:10:00","4","64.35","7.8","0.0","DRAUGEN, NO","FM-15","ENDR ","V020","220,1,N,0216,1","00120,1,C,N","001700,1,N,1","+0070,1","+0060,1","99999,9","08,5,+00120,1,99,9",,,"08,99,1,99,9,99,9,99999,9,99,9,99,9","10081,1,99999,9","65,1",,,,"MET055METAR ENDR 151210Z 22042KT 1700 +RA OVC004 07/06 Q1008;",
"01023199999","2010-12-15T12:50:00","4","64.35","7.8","0.0","DRAUGEN, NO","AUTO ","ENDR ","V020","230,1,N,0206,1","22000,1,9,N","999999,9,N,1","+0070,1","+0060,1","99999,9",,,,,"10071,1,99999,9",,,,,"MET044METAR ENDR 151250Z AUTO 23040KT 07/06 Q1007;",
"01023199999","2010-12-15T13:20:00","4","64.35","7.8","0.0","DRAUGEN, NO","AUTO ","ENDR ","V020","240,1,N,0201,1","22000,1,9,N","999999,9,N,1","+0070,1","+0050,1","99999,9",,,,,"10061,1,99999,9",,,,,"MET044METAR ENDR 151320Z AUTO 24039KT 07/05 Q1006;",
"01023199999","2010-12-15T13:50:00","4","64.35","7.8","0.0","DRAUGEN, NO","AUTO ","ENDR ","V020","240,1,N,0195,1","22000,1,9,N","999999,9,N,1","+0070,1","+0050,1","99999,9",,,,,"10051,1,99999,9",,,,,"MET044METAR ENDR 151350Z AUTO 24038KT 07/05 Q1005;",
"01023199999","2010-12-15T14:20:00","4","64.35","7.8","0.0","DRAUGEN, NO","AUTO ","ENDR ","V020","240,1,N,0201,1","22000,1,9,N","999999,9,N,1","+0070,1","+0050,1","99999,9",,,,,"10041,1,99999,9",,,,,"MET044METAR ENDR 151420Z AUTO 24039KT 07/05 Q1004;",
"01023199999","2010-12-15T14:50:00","4","64.35","7.8","0.0","DRAUGEN, NO","AUTO ","ENDR ","V020","230,1,N,0195,1","22000,1,9,N","999999,9,N,1","+0070,1","+0040,1","99999,9",,,,,"10031,1,99999,9",,,,,"MET044METAR ENDR 151450Z AUTO 23038KT 07/04 Q1003;",
"01023199999","2010-12-15T15:10:00","4","64.35","7.8","0.0","DRAUGEN, NO","FM-15","ENDR ","V020","230,1,N,0211,1","00420,1,C,N","011265,1,N,1","+0060,1","+0050,1","99999,9","07,5,+00420,1,99,9",,,"07,99,1,99,9,99,9,99999,9,99,9,99,9","10020,1,99999,9","61,1",,,,"MET055METAR ENDR 151510Z 23041KT 9999 -RA BKN014 06/05 Q1002;",
"01023199999","2010-12-15T15:50:00","4","64.35","7.8","0.0","DRAUGEN, NO","AUTO ","ENDR ","V020","240,1,N,0216,1","22000,1,9,N","999999,9,N,1","+0070,1","+0040,1","99999,9",,,,,"10000,1,99999,9",,,,,"MET044METAR ENDR 151550Z AUTO 24042KT 07/04 Q1000;",
"01023199999","2010-12-15T16:20:00","4","64.35","7.8","0.0","DRAUGEN, NO","AUTO ","ENDR ","V020","230,1,N,0195,1","22000,1,9,N","999999,9,N,1","+0070,1","+0050,1","99999,9",,,,,"09980,1,99999,9",,,,,"MET044METAR ENDR 151620Z AUTO 23038KT 07/05 Q0998;",
"01023199999","2010-12-15T16:50:00","4","64.35","7.8","0.0","DRAUGEN, NO","AUTO ","ENDR ","V020","230,1,N,0185,1","22000,1,9,N","999999,9,N,1","+0070,1","+0050,1","99999,9",,,,,"09970,1,99999,9",,,,,"MET044METAR ENDR 151650Z AUTO 23036KT 07/05 Q0997;",
"01023199999","2010-12-15T17:20:00","4","64.35","7.8","0.0","DRAUGEN, NO","AUTO ","ENDR ","V020","310,1,N,0134,1","22000,1,9,N","999999,9,N,1","+0040,1","+0020,1","99999,9",,,,,"09959,1,99999,9",,,,,"MET044METAR ENDR 151720Z AUTO 31026KT 04/02 Q0996;",
"01023199999","2010-12-15T17:50:00","4","64.35","7.8","0.0","DRAUGEN, NO","AUTO ","ENDR ","V020","320,1,N,0139,1","22000,1,9,N","999999,9,N,1","+0040,1","+0020,1","99999,9",,,,,"09959,1,99999,9",,,,,"MET044METAR ENDR 151750Z AUTO 32027KT 04/02 Q0996;",
"01023199999","2010-12-15T18:20:00","4","64.35","7.8","0.0","DRAUGEN, NO","AUTO ","ENDR ","V020","310,1,N,0139,1","22000,1,9,N","999999,9,N,1","+0030,1","+0010,1","99999,9",,,,,"09959,1,99999,9",,,,,"MET044METAR ENDR 151820Z AUTO 31027KT 03/01 Q0996;",
"01023199999","2010-12-15T20:20:00","4","64.35","7.8","0.0","DRAUGEN, NO","AUTO ","ENDR ","V020","330,1,N,0175,1","22000,1,9,N","999999,9,N,1","+0010,1","-0010,1","99999,9",,,,,"09929,1,99999,9",,,,,"MET045METAR ENDR 152020Z AUTO 33034KT 01/M01 Q0993;",
"01023199999","2010-12-15T20:50:00","4","64.35","7.8","0.0","DRAUGEN, NO","AUTO ","ENDR ","V020","320,1,N,0180,1","22000,1,9,N","999999,9,N,1","+0000,1","-0020,1","99999,9",,,,,"09929,1,99999,9",,,,,"MET045METAR ENDR 152050Z AUTO 32035KT 00/M02 Q0993;",
"01023199999","2010-12-15T21:20:00","4","64.35","7.8","0.0","DRAUGEN, NO","AUTO ","ENDR ","V020","320,1,N,0180,1","22000,1,9,N","999999,9,N,1","+0010,1","-0060,1","99999,9",,,,,"09939,1,99999,9",,,,,"MET045METAR ENDR 152120Z AUTO 32035KT 01/M06 Q0994;",
"01023199999","2010-12-15T21:50:00","4","64.35","7.8","0.0","DRAUGEN, NO","AUTO ","ENDR ","V020","320,1,N,0180,1","22000,1,9,N","999999,9,N,1","+0010,1","-0060,1","99999,9",,,,,"09929,1,99999,9",,,,,"MET045METAR ENDR 152150Z AUTO 32035KT 01/M06 Q0993;",
"01023199999","2010-12-15T22:20:00","4","64.35","7.8","0.0","DRAUGEN, NO","AUTO ","ENDR ","V020","320,1,N,0180,1","22000,1,9,N","999999,9,N,1","+0010,1","-0080,1","99999,9",,,,,"09929,1,99999,9",,,,,"MET045METAR ENDR 152220Z AUTO 32035KT 01/M08 Q0993;",
"01023199999","2010-12-15T22:50:00","4","64.35","7.8","0.0","DRAUGEN, NO","AUTO ","ENDR ","V020","310,1,N,0180,1","22000,1,9,N","999999,9,N,1","+0010,1","-0100,1","99999,9",,,,,"09939,1,99999,9",,,,,"MET045METAR ENDR 152250Z AUTO 31035KT 01/M10 Q0994;",
"01023199999","2010-12-15T23:20:00","4","64.35","7.8","0.0","DRAUGEN, NO","AUTO ","ENDR ","V020","310,1,N,0170,1","22000,1,9,N","999999,9,N,1","+0010,1","-0130,2","99999,9",,,,,"09939,1,99999,9",,,,,"MET045METAR ENDR 152320Z AUTO 31033KT 01/M13 Q0994;",
"01023199999","2010-12-15T23:50:00","4","64.35","7.8","0.0","DRAUGEN, NO","AUTO ","ENDR ","V020","310,1,N,0154,1","22000,1,9,N","999999,9,N,1","+0000,1","-0110,1","99999,9",,,,,"09929,1,99999,9",,,,,"MET045METAR ENDR 152350Z AUTO 31030KT 00/M11 Q0993;",
"01023199999","2010-12-16T00:20:00","4","64.35","7.8","0.0","DRAUGEN, NO","AUTO ","ENDR ","V020","310,1,N,0149,1","22000,1,9,N","999999,9,N,1","+0000,1","-0110,1","99999,9",,,,,"09929,1,99999,9",,,,,"MET046METAR ENDR 160020Z AUTO 31029KT M00/M11 Q0993;",
"01023199999","2010-12-16T00:50:00","4","64.35","7.8","0.0","DRAUGEN, NO","AUTO ","ENDR ","V020","280,1,N,0185,1","22000,1,9,N","999999,9,N,1","-0020,1","-0050,1","99999,9",,,,,"09929,1,99999,9",,,,,"MET046METAR ENDR 160050Z AUTO 28036KT M02/M05 Q0993;",
"01023199999","2010-12-16T01:20:00","4","64.35","7.8","0.0","DRAUGEN, NO","AUTO ","ENDR ","V020","300,1,N,0108,1","22000,1,9,N","999999,9,N,1","+0000,1","-0050,1","99999,9",,,,,"09929,1,99999,9",,,,,"MET054METAR ENDR 160120Z AUTO 30021KT 280V360 M00/M05 Q0993;",
"01023199999","2010-12-16T01:50:00","4","64.35","7.8","0.0","DRAUGEN, NO","AUTO ","ENDR ","V020","260,1,N,0129,1","22000,1,9,N","999999,9,N,1","-0020,1","-0050,1","99999,9",,,,,"09919,1,99999,9",,,,,"MET046METAR ENDR 160150Z AUTO 26025KT M02/M05 Q0992;",
"01023199999","2010-12-16T02:20:00","4","64.35","7.8","0.0","DRAUGEN, NO","AUTO ","ENDR ","V020","270,1,N,0139,1","22000,1,9,N","999999,9,N,1","-0020,1","-0040,1","99999,9",,,,,"09909,1,99999,9",,,,,"MET046METAR ENDR 160220Z AUTO 27027KT M02/M04 Q0991;",
"01023199999","2010-12-16T02:50:00","4","64.35","7.8","0.0","DRAUGEN, NO","AUTO ","ENDR ","V020","280,1,N,0154,1","22000,1,9,N","999999,9,N,1","-0020,1","-0040,1","99999,9",,,,,"09909,1,99999,9",,,,,"MET046METAR ENDR 160250Z AUTO 28030KT M02/M04 Q0991;",
"01023199999","2010-12-16T03:20:00","4","64.35","7.8","0.0","DRAUGEN, NO","AUTO ","ENDR ","V020","340,1,N,0093,1","22000,1,9,N","999999,9,N,1","-0010,1","-0040,1","99999,9",,,,,"09909,1,99999,9",,,,,"MET046METAR ENDR 160320Z AUTO 34018KT M01/M04 Q0991;",
"01023199999","2010-12-16T03:50:00","4","64.35","7.8","0.0","DRAUGEN, NO","AUTO ","ENDR ","V020","330,1,N,0087,1","22000,1,9,N","999999,9,N,1","+0000,1","-0040,1","99999,9",,,,,"09898,1,99999,9",,,,,"MET046METAR ENDR 160350Z AUTO 33017KT M00/M04 Q0990;",
"01023199999","2010-12-16T05:20:00","4","64.35","7.8","0.0","DRAUGEN, NO","AUTO ","ENDR ","V020","320,1,N,0185,1","22000,1,9,N","999999,9,N,1","-0030,1","-0030,1","99999,9",,,,,"09892,1,99999,9",,,,,"MET046METAR ENDR 160520Z AUTO 32036KT M03/M03 Q0989;",
"01023199999","2010-12-16T05:50:00","4","64.35","7.8","0.0","DRAUGEN, NO","AUTO ","ENDR ","V020","320,1,N,0118,1","22000,1,9,N","999999,9,N,1","-0010,1","-0060,1","99999,9",,,,,"09892,1,99999,9",,,,,"MET046METAR ENDR 160550Z AUTO 32023KT M01/M06 Q0989;",
"01023199999","2010-12-16T06:10:00","4","64.35","7.8","0.0","DRAUGEN, NO","FM-15","ENDR ","V020","350,1,N,0108,1","01020,1,C,N","011265,1,N,1","-0010,1","-0070,1","99999,9","07,5,+01020,1,99,9",,,"07,99,1,99,9,99,9,99999,9,99,9,99,9","09882,1,99999,9",,,,,"MET053METAR ENDR 160610Z 35021KT 9999 BKN034 M01/M07 Q0988;",
"01023199999","2010-12-16T06:50:00","4","64.35","7.8","0.0","DRAUGEN, NO","AUTO ","ENDR ","V020","360,1,N,0123,1","22000,1,9,N","999999,9,N,1","-0010,1","-0040,1","99999,9",,,,,"09882,1,99999,9",,,,,"MET046METAR ENDR 160650Z AUTO 36024KT M01/M04 Q0988;",
"01023199999","2010-12-16T07:20:00","4","64.35","7.8","0.0","DRAUGEN, NO","AUTO ","ENDR ","V020","350,1,N,0139,1","22000,1,9,N","999999,9,N,1","-0010,1","-0030,1","99999,9",,,,,"09882,1,99999,9",,,,"0195,1","MET049METAR ENDR 160720Z AUTO 35027G38KT M01/M03 Q0988;",
"01023199999","2010-12-16T07:50:00","4","64.35","7.8","0.0","DRAUGEN, NO","AUTO ","ENDR ","V020","360,1,N,0149,1","22000,1,9,N","999999,9,N,1","-0020,1","-0040,1","99999,9",,,,,"09882,1,99999,9",,,,,"MET046METAR ENDR 160750Z AUTO 36029KT M02/M04 Q0988;",
"01023199999","2010-12-16T08:20:00","4","64.35","7.8","0.0","DRAUGEN, NO","AUTO ","ENDR ","V020","350,1,N,0175,1","22000,1,9,N","999999,9,N,1","-0020,1","-0040,1","99999,9",,,,,"09871,1,99999,9",,,,,"MET046METAR ENDR 160820Z AUTO 35034KT M02/M04 Q0987;",
"01023199999","2010-12-16T08:50:00","4","64.35","7.8","0.0","DRAUGEN, NO","AUTO ","ENDR ","V020","360,1,N,0149,1","22000,1,9,N","999999,9,N,1","-0010,1","-0080,1","99999,9",,,,,"09871,1,99999,9",,,,,"MET046METAR ENDR 160850Z AUTO 36029KT M01/M08 Q0987;",
"01023199999","2010-12-16T09:10:00","4","64.35","7.8","0.0","DRAUGEN, NO","FM-15","ENDR ","V020","360,1,N,0129,1","01050,1,C,N","005000,1,N,1","-0010,1","-0070,1","99999,9","08,5,+01050,1,99,9",,,"08,99,1,99,9,99,9,99999,9,99,9,99,9","09871,1,99999,9","16,1",,,,"MET059METAR ENDR 160910Z 36025KT 5000S VCSH OVC035 M01/M07 Q0987;",
"01023199999","2010-12-16T09:50:00","4","64.35","7.8","0.0","DRAUGEN, NO","AUTO ","ENDR ","V020","360,1,N,0123,1","22000,1,9,N","999999,9,N,1","+0000,1","-0080,1","99999,9",,,,,"09871,1,99999,9",,,,,"MET046METAR ENDR 160950Z AUTO 36024KT M00/M08 Q0987;",
"01023199999","2010-12-16T10:20:00","4","64.35","7.8","0.0","DRAUGEN, NO","AUTO ","ENDR ","V020","350,1,N,0098,1","22000,1,9,N","999999,9,N,1","+0000,1","-0100,1","99999,9",,,,,"09871,1,99999,9",,,,,"MET046METAR ENDR 161020Z AUTO 35019KT M00/M10 Q0987;",
"01023199999","2010-12-16T10:50:00","4","64.35","7.8","0.0","DRAUGEN, NO","AUTO ","ENDR ","V020","350,1,N,0087,1","22000,1,9,N","999999,9,N,1","+0000,1","-0100,1","99999,9",,,,,"09871,1,99999,9",,,,,"MET045METAR ENDR 161050Z AUTO 35017KT 00/M10 Q0987;",
"01023199999","2010-12-16T11:20:00","4","64.35","7.8","0.0","DRAUGEN, NO","AUTO ","ENDR ","V020","010,1,N,0093,1","22000,1,9,N","999999,9,N,1","+0000,1","-0110,1","99999,9",,,,,"09871,1,99999,9",,,,,"MET046METAR ENDR 161120Z AUTO 01018KT M00/M11 Q0987;",
"01023199999","2010-12-16T11:50:00","4","64.35","7.8","0.0","DRAUGEN, NO","AUTO ","ENDR ","V020","360,1,N,0077,1","22000,1,9,N","999999,9,N,1","+0000,1","-0110,1","99999,9",,,,,"09871,1,99999,9",,,,,"MET046METAR ENDR 161150Z AUTO 36015KT M00/M11 Q0987;",
"01023199999","2010-12-16T12:10:00","4","64.35","7.8","0.0","DRAUGEN, NO","FM-15","ENDR ","V020","350,1,N,0062,1","00900,1,C,N","011265,1,N,1","+0000,1","-0110,1","99999,9","07,5,+00900,1,99,9",,,"07,99,1,99,9,99,9,99999,9,99,9,99,9","09871,1,99999,9","16,1",,,,"MET065METAR ENDR 161210Z 35012KT 300V020 9999 VCSH BKN030 00/M11 Q0987;",
"01023199999","2010-12-16T12:50:00","4","64.35","7.8","0.0","DRAUGEN, NO","AUTO ","ENDR ","V020","360,1,N,0067,1","22000,1,9,N","999999,9,N,1","+0000,1","-0120,1","99999,9",,,,,"09861,1,99999,9",,,,,"MET046METAR ENDR 161250Z AUTO 36013KT M00/M12 Q0986;",
"01023199999","2010-12-16T13:20:00","4","64.35","7.8","0.0","DRAUGEN, NO","AUTO ","ENDR ","V020","360,1,N,0062,1","22000,1,9,N","999999,9,N,1","+0000,1","-0120,1","99999,9",,,,,"09861,1,99999,9",,,,,"MET046METAR ENDR 161320Z AUTO 36012KT M00/M12 Q0986;",
"01023199999","2010-12-16T13:50:00","4","64.35","7.8","0.0","DRAUGEN, NO","AUTO ","ENDR ","V020","360,1,N,0062,1","22000,1,9,N","999999,9,N,1","+0000,1","-0110,1","99999,9",,,,,"09861,1,99999,9",,,,,"MET053METAR ENDR 161350Z AUTO 36012KT 320V020 00/M11 Q0986;",
"01023199999","2010-12-16T14:20:00","4","64.35","7.8","0.0","DRAUGEN, NO","AUTO ","ENDR ","V020","999,9,9,9999,9","22000,1,9,N","999999,9,N,1","+0000,1","-0100,1","99999,9",,,,,"09861,1,99999,9",,,,,"MET038METAR ENDR 161420Z AUTO M00/M10 Q0986;",
"01023199999","2010-12-16T14:50:00","4","64.35","7.8","0.0","DRAUGEN, NO","AUTO ","ENDR ","V020","020,1,N,0077,1","22000,1,9,N","999999,9,N,1","+0000,1","-0110,1","99999,9",,,,,"09861,1,99999,9",,,,,"MET046METAR ENDR 161450Z AUTO 02015KT M00/M11 Q0986;",
"01023199999","2010-12-16T15:10:00","4","64.35","7.8","0.0","DRAUGEN, NO","FM-15","ENDR ","V020","020,1,N,0093,1","01380,1,C,N","011265,1,N,1","+0000,1","-0100,1","99999,9","02,5,+01260,1,99,9","04,5,+01380,1,99,9","07,5,+04290,5,99,9","07,99,1,99,9,99,9,99999,9,99,9,99,9","09851,1,99999,9",,,,,"MET066METAR ENDR 161510Z 02018KT 9999 FEW042 SCT046 BKN143 00/M10 Q0985;",
"01023199999","2010-12-16T15:50:00","4","64.35","7.8","0.0","DRAUGEN, NO","AUTO ","ENDR ","V020","020,1,N,0093,1","22000,1,9,N","999999,9,N,1","+0000,1","-0090,1","99999,9",,,,,"09851,1,99999,9",,,,,"MET045METAR ENDR 161550Z AUTO 02018KT 00/M09 Q0985;",
"01023199999","2010-12-16T16:20:00","4","64.35","7.8","0.0","DRAUGEN, NO","AUTO ","ENDR ","V020","020,1,N,0082,1","22000,1,9,N","999999,9,N,1","+0010,1","-0100,1","99999,9",,,,,"09851,1,99999,9",,,,,"MET045METAR ENDR 161620Z AUTO 02016KT 01/M10 Q0985;",
"01023199999","2010-12-16T16:50:00","4","64.35","7.8","0.0","DRAUGEN, NO","AUTO ","ENDR ","V020","020,1,N,0087,1","22000,1,9,N","999999,9,N,1","+0010,1","-0100,1","99999,9",,,,,"09851,1,99999,9",,,,,"MET045METAR ENDR 161650Z AUTO 02017KT 01/M10 Q0985;",
"01023199999","2010-12-16T17:20:00","4","64.35","7.8","0.0","DRAUGEN, NO","AUTO ","ENDR ","V020","030,1,N,0082,1","22000,1,9,N","999999,9,N,1","+0010,1","-0110,1","99999,9",,,,,"09851,1,99999,9",,,,,"MET045METAR ENDR 161720Z AUTO 03016KT 01/M11 Q0985;",
"01023199999","2010-12-16T17:50:00","4","64.35","7.8","0.0","DRAUGEN, NO","AUTO ","ENDR ","V020","030,1,N,0087,1","22000,1,9,N","999999,9,N,1","+0010,1","-0090,1","99999,9",,,,,"09851,1,99999,9",,,,,"MET045METAR ENDR 161750Z AUTO 03017KT 01/M09 Q0985;",
"01023199999","2010-12-16T19:20:00","4","64.35","7.8","0.0","DRAUGEN, NO","AUTO ","ENDR ","V020","040,1,N,0113,1","22000,1,9,N","999999,9,N,1","+0010,1","-0090,1","99999,9",,,,,"09841,1,99999,9",,,,,"MET045METAR ENDR 161920Z AUTO 04022KT 01/M09 Q0984;",
"01023199999","2010-12-16T19:50:00","4","64.35","7.8","0.0","DRAUGEN, NO","AUTO ","ENDR ","V020","030,1,N,0113,1","22000,1,9,N","999999,9,N,1","+0010,1","-0100,1","99999,9",,,,,"09841,1,99999,9",,,,,"MET045METAR ENDR 161950Z AUTO 03022KT 01/M10 Q0984;",
"01023199999","2010-12-16T20:20:00","4","64.35","7.8","0.0","DRAUGEN, NO","AUTO ","ENDR ","V020","030,1,N,0123,1","22000,1,9,N","999999,9,N,1","+0010,1","-0080,1","99999,9",,,,,"09841,1,99999,9",,,,,"MET045METAR ENDR 162020Z AUTO 03024KT 01/M08 Q0984;",
"01023199999","2010-12-16T20:50:00","4","64.35","7.8","0.0","DRAUGEN, NO","AUTO ","ENDR ","V020","030,1,N,0123,1","22000,1,9,N","999999,9,N,1","+0010,1","-0070,1","99999,9",,,,,"09841,1,99999,9",,,,,"MET045METAR ENDR 162050Z AUTO 03024KT 01/M07 Q0984;",
"01023199999","2010-12-16T21:20:00","4","64.35","7.8","0.0","DRAUGEN, NO","AUTO ","ENDR ","V020","020,1,N,0129,1","22000,1,9,N","999999,9,N,1","+0010,1","-0080,1","99999,9",,,,,"09841,1,99999,9",,,,,"MET045METAR ENDR 162120Z AUTO 02025KT 01/M08 Q0984;",
"01023199999","2010-12-16T21:50:00","4","64.35","7.8","0.0","DRAUGEN, NO","AUTO ","ENDR ","V020","030,1,N,0129,1","22000,1,9,N","999999,9,N,1","+0010,1","-0050,1","99999,9",,,,,"09841,1,99999,9",,,,,"MET045METAR ENDR 162150Z AUTO 03025KT 01/M05 Q0984;",
"01023199999","2010-12-16T22:20:00","4","64.35","7.8","0.0","DRAUGEN, NO","AUTO ","ENDR ","V020","010,1,N,0134,1","22000,1,9,N","999999,9,N,1","+0010,1","-0030,1","99999,9",,,,,"09841,1,99999,9",,,,,"MET045METAR ENDR 162220Z AUTO 01026KT 01/M03 Q0984;",
"01023199999","2010-12-16T22:50:00","4","64.35","7.8","0.0","DRAUGEN, NO","AUTO ","ENDR ","V020","010,1,N,0139,1","22000,1,9,N","999999,9,N,1","+0010,1","-0040,1","99999,9",,,,,"09841,1,99999,9",,,,,"MET045METAR ENDR 162250Z AUTO 01027KT 01/M04 Q0984;",
"01023199999","2010-12-16T23:20:00","4","64.35","7.8","0.0","DRAUGEN, NO","AUTO ","ENDR ","V020","020,1,N,0129,1","22000,1,9,N","999999,9,N,1","+0000,1","-0030,1","99999,9",,,,,"09841,1,99999,9",,,,,"MET045METAR ENDR 162320Z AUTO 02025KT 00/M03 Q0984;",
"01023199999","2010-12-16T23:50:00","4","64.35","7.8","0.0","DRAUGEN, NO","AUTO ","ENDR ","V020","360,1,N,0123,1","22000,1,9,N","999999,9,N,1","+0000,1","-0020,1","99999,9",,,,,"09841,1,99999,9",,,,,"MET046METAR ENDR 162350Z AUTO 36024KT M00/M02 Q0984;",
"01023199999","2010-12-17T00:20:00","4","64.35","7.8","0.0","DRAUGEN, NO","AUTO ","ENDR ","V020","350,1,N,0093,1","22000,1,9,N","999999,9,N,1","+0000,1","-0020,1","99999,9",,,,,"09841,1,99999,9",,,,,"MET046METAR ENDR 170020Z AUTO 35018KT M00/M02 Q0984;",
"01023199999","2010-12-17T00:50:00","4","64.35","7.8","0.0","DRAUGEN, NO","AUTO ","ENDR ","V020","050,1,N,0051,1","22000,1,9,N","999999,9,N,1","-0010,1","-0020,1","99999,9",,,,,"09841,1,99999,9",,,,,"MET046METAR ENDR 170050Z AUTO 05010KT M01/M02 Q0984;",
"01023199999","2010-12-17T01:20:00","4","64.35","7.8","0.0","DRAUGEN, NO","AUTO ","ENDR ","V020","010,1,N,0093,1","22000,1,9,N","999999,9,N,1","+0000,1","-0020,1","99999,9",,,,,"09841,1,99999,9",,,,,"MET046METAR ENDR 170120Z AUTO 01018KT M00/M02 Q0984;",
"01023199999","2010-12-17T01:50:00","4","64.35","7.8","0.0","DRAUGEN, NO","AUTO ","ENDR ","V020","010,1,N,0170,1","22000,1,9,N","999999,9,N,1","+0000,1","-0020,1","99999,9",,,,,"09841,1,99999,9",,,,,"MET046METAR ENDR 170150Z AUTO 01033KT M00/M02 Q0984;",
"01023199999","2010-12-17T02:20:00","4","64.35","7.8","0.0","DRAUGEN, NO","AUTO ","ENDR ","V020","060,1,N,0067,1","22000,1,9,N","999999,9,N,1","+0000,1","-0010,1","99999,9",,,,,"09851,1,99999,9",,,,,"MET045METAR ENDR 170220Z AUTO 06013KT 00/M01 Q0985;",
"01023199999","2010-12-17T02:50:00","4","64.35","7.8","0.0","DRAUGEN, NO","AUTO ","ENDR ","V020","140,1,N,0051,1","22000,1,9,N","999999,9,N,1","+0000,1","-0020,1","99999,9",,,,,"09851,1,99999,9",,,,,"MET054METAR ENDR 170250Z AUTO 14010KT 040V210 M00/M02 Q0985;",
"01023199999","2010-12-17T03:20:00","4","64.35","7.8","0.0","DRAUGEN, NO","AUTO ","ENDR ","V020","170,1,N,0062,1","22000,1,9,N","999999,9,N,1","+0000,1","-0020,1","99999,9",,,,,"09861,1,99999,9",,,,,"MET046METAR ENDR 170320Z AUTO 17012KT M00/M02 Q0986;",
"01023199999","2010-12-17T03:50:00","4","64.35","7.8","0.0","DRAUGEN, NO","AUTO ","ENDR ","V020","190,1,N,0051,1","22000,1,9,N","999999,9,N,1","+0000,1","-0030,1","99999,9",,,,,"09861,1,99999,9",,,,,"MET046METAR ENDR 170350Z AUTO 19010KT M00/M03 Q0986;",
"01023199999","2010-12-17T04:20:00","4","64.35","7.8","0.0","DRAUGEN, NO","AUTO ","ENDR ","V020","200,1,N,0072,1","22000,1,9,N","999999,9,N,1","+0000,1","-0030,1","99999,9",,,,,"09861,1,99999,9",,,,,"MET046METAR ENDR 170420Z AUTO 20014KT M00/M03 Q0986;",
"01023199999","2010-12-17T04:50:00","4","64.35","7.8","0.0","DRAUGEN, NO","AUTO ","ENDR ","V020","190,1,N,0093,1","22000,1,9,N","999999,9,N,1","+0000,1","-0030,1","99999,9",,,,,"09851,1,99999,9",,,,,"MET045METAR ENDR 170450Z AUTO 19018KT 00/M03 Q0985;",
"01023199999","2010-12-17T05:20:00","4","64.35","7.8","0.0","DRAUGEN, NO","AUTO ","ENDR ","V020","180,1,N,0129,1","22000,1,9,N","999999,9,N,1","+0000,1","-0030,1","99999,9",,,,,"09851,1,99999,9",,,,,"MET045METAR ENDR 170520Z AUTO 18025KT 00/M03 Q0985;",
"01023199999","2010-12-17T05:50:00","4","64.35","7.8","0.0","DRAUGEN, NO","AUTO ","ENDR ","V020","170,1,N,0103,1","22000,1,9,N","999999,9,N,1","+0010,1","-0020,1","99999,9",,,,,"09861,1,99999,9",,,,"0159,1","MET048METAR ENDR 170550Z AUTO 17020G31KT 01/M02 Q0986;",
"01023199999","2010-12-17T06:50:00","4","64.35","7.8","0.0","DRAUGEN, NO","AUTO ","ENDR ","V020","160,1,N,0134,1","22000,1,9,N","999999,9,N,1","+0010,1","-0020,1","99999,9",,,,,"09871,1,99999,9",,,,,"MET045METAR ENDR 170650Z AUTO 16026KT 01/M02 Q0987;",
"01023199999","2010-12-17T07:20:00","4","64.35","7.8","0.0","DRAUGEN, NO","AUTO ","ENDR ","V020","150,1,N,0154,1","22000,1,9,N","999999,9,N,1","+0010,1","-0040,1","99999,9",,,,,"09871,1,99999,9",,,,,"MET045METAR ENDR 170720Z AUTO 15030KT 01/M04 Q0987;",
"01023199999","2010-12-17T07:50:00","4","64.35","7.8","0.0","DRAUGEN, NO","AUTO ","ENDR ","V020","150,1,N,0149,1","22000,1,9,N","999999,9,N,1","+0000,1","-0020,1","99999,9",,,,,"09882,1,99999,9",,,,,"MET046METAR ENDR 170750Z AUTO 15029KT M00/M02 Q0988;",
"01023199999","2010-12-17T08:20:00","4","64.35","7.8","0.0","DRAUGEN, NO","AUTO ","ENDR ","V020","140,1,N,0154,1","22000,1,9,N","999999,9,N,1","-0010,1","-0030,1","99999,9",,,,,"09892,1,99999,9",,,,,"MET046METAR ENDR 170820Z AUTO 14030KT M01/M03 Q0989;",
"01023199999","2010-12-17T08:50:00","4","64.35","7.8","0.0","DRAUGEN, NO","AUTO ","ENDR ","V020","130,1,N,0139,1","22000,1,9,N","999999,9,N,1","+0000,1","-0040,1","99999,9",,,,,"09898,1,99999,9",,,,,"MET046METAR ENDR 170850Z AUTO 13027KT M00/M04 Q0990;",
"01023199999","2010-12-17T09:10:00","4","64.35","7.8","0.0","DRAUGEN, NO","FM-15","ENDR ","V020","130,1,N,0129,1","00630,1,C,N","011265,1,N,1","+0000,1","-0050,1","99999,9","07,5,+00630,1,99,9",,,"07,99,1,99,9,99,9,99999,9,99,9,99,9","09909,1,99999,9","16,1",,,,"MET058METAR ENDR 170910Z 13025KT 9999 VCSH BKN021 M00/M05 Q0991;",
"01023199999","2010-12-17T09:50:00","4","64.35","7.8","0.0","DRAUGEN, NO","AUTO ","ENDR ","V020","130,1,N,0123,1","22000,1,9,N","999999,9,N,1","+0000,1","-0040,1","99999,9",,,,,"09919,1,99999,9",,,,,"MET046METAR ENDR 170950Z AUTO 13024KT M00/M04 Q0992;",
"01023199999","2010-12-17T10:20:00","4","64.35","7.8","0.0","DRAUGEN, NO","AUTO ","ENDR ","V020","130,1,N,0123,1","22000,1,9,N","999999,9,N,1","+0000,1","-0050,1","99999,9",,,,,"09919,1,99999,9",,,,,"MET046METAR ENDR 171020Z AUTO 13024KT M00/M05 Q0992;",
"01023199999","2010-12-17T10:50:00","4","64.35","7.8","0.0","DRAUGEN, NO","AUTO ","ENDR ","V020","130,1,N,0113,1","22000,1,9,N","999999,9,N,1","+0000,1","-0060,1","99999,9",,,,,"09929,1,99999,9",,,,,"MET046METAR ENDR 171050Z AUTO 13022KT M00/M06 Q0993;",
"01023199999","2010-12-17T11:20:00","4","64.35","7.8","0.0","DRAUGEN, NO","AUTO ","ENDR ","V020","130,1,N,0118,1","22000,1,9,N","999999,9,N,1","+0000,1","-0070,1","99999,9",,,,,"09939,1,99999,9",,,,,"MET046METAR ENDR 171120Z AUTO 13023KT M00/M07 Q0994;",
"01023199999","2010-12-17T11:50:00","4","64.35","7.8","0.0","DRAUGEN, NO","AUTO ","ENDR ","V020","140,1,N,0123,1","22000,1,9,N","999999,9,N,1","+0000,1","-0080,1","99999,9",,,,,"09939,1,99999,9",,,,,"MET046METAR ENDR 171150Z AUTO 14024KT M00/M08 Q0994;",
"01023199999","2010-12-17T12:10:00","4","64.35","7.8","0.0","DRAUGEN, NO","FM-15","ENDR ","V020","140,1,N,0129,1","22000,1,9,N","011265,1,N,1","+0000,1","-0070,1","99999,9","04,5,+00840,1,99,9",,,"04,99,1,99,9,99,9,99999,9,99,9,99,9","09949,1,99999,9",,,,,"MET053METAR ENDR 171210Z 14025KT 9999 SCT028 M00/M07 Q0995;",
"01023199999","2010-12-17T12:50:00","4","64.35","7.8","0.0","DRAUGEN, NO","AUTO ","ENDR ","V020","130,1,N,0154,1","22000,1,9,N","999999,9,N,1","+0000,1","-0060,1","99999,9",,,,,"09959,1,99999,9",,,,,"MET046METAR ENDR 171250Z AUTO 13030KT M00/M06 Q0996;",
"01023199999","2010-12-17T13:20:00","4","64.35","7.8","0.0","DRAUGEN, NO","AUTO ","ENDR ","V020","130,1,N,0170,1","22000,1,9,N","999999,9,N,1","-0010,1","-0060,1","99999,9",,,,,"09959,1,99999,9",,,,,"MET046METAR ENDR 171320Z AUTO 13033KT M01/M06 Q0996;",
"01023199999","2010-12-17T13:50:00","4","64.35","7.8","0.0","DRAUGEN, NO","AUTO ","ENDR ","V020","130,1,N,0159,1","22000,1,9,N","999999,9,N,1","-0010,1","-0070,1","99999,9",,,,,"09970,1,99999,9",,,,,"MET046METAR ENDR 171350Z AUTO 13031KT M01/M07 Q0997;",
"01023199999","2010-12-17T14:20:00","4","64.35","7.8","0.0","DRAUGEN, NO","AUTO ","ENDR ","V020","130,1,N,0180,1","22000,1,9,N","999999,9,N,1","-0010,1","-0070,1","99999,9",,,,,"09970,1,99999,9",,,,,"MET046METAR ENDR 171420Z AUTO 13035KT M01/M07 Q0997;",
"01023199999","2010-12-17T14:50:00","4","64.35","7.8","0.0","DRAUGEN, NO","AUTO ","ENDR ","V020","130,1,N,0170,1","22000,1,9,N","999999,9,N,1","-0010,1","-0060,1","99999,9",,,,,"09980,1,99999,9",,,,,"MET046METAR ENDR 171450Z AUTO 13033KT M01/M06 Q0998;",
"01023199999","2010-12-17T15:10:00","4","64.35","7.8","0.0","DRAUGEN, NO","FM-15","ENDR ","V020","130,1,N,0175,1","22000,1,9,N","011265,1,N,1","-0010,1","-0070,1","99999,9","02,5,+00750,1,99,9",,,"02,99,1,99,9,99,9,99999,9,99,9,99,9","09990,1,99999,9",,,,,"MET053METAR ENDR 171510Z 13034KT 9999 FEW025 M01/M07 Q0999;",
"01023199999","2010-12-17T15:50:00","4","64.35","7.8","0.0","DRAUGEN, NO","AUTO ","ENDR ","V020","130,1,N,0185,1","22000,1,9,N","999999,9,N,1","-0010,1","-0070,1","99999,9",,,,,"09990,1,99999,9",,,,,"MET046METAR ENDR 171550Z AUTO 13036KT M01/M07 Q0999;",
"01023199999","2010-12-17T16:20:00","4","64.35","7.8","0.0","DRAUGEN, NO","AUTO ","ENDR ","V020","130,1,N,0175,1","22000,1,9,N","999999,9,N,1","-0010,1","-0080,1","99999,9",,,,,"10000,1,99999,9",,,,,"MET046METAR ENDR 171620Z AUTO 13034KT M01/M08 Q1000;",
"01023199999","2010-12-17T16:50:00","4","64.35","7.8","0.0","DRAUGEN, NO","AUTO ","ENDR ","V020","130,1,N,0170,1","22000,1,9,N","999999,9,N,1","-0010,1","-0070,1","99999,9",,,,,"10010,1,99999,9",,,,,"MET046METAR ENDR 171650Z AUTO 13033KT M01/M07 Q1001;",
"01023199999","2010-12-17T17:20:00","4","64.35","7.8","0.0","DRAUGEN, NO","AUTO ","ENDR ","V020","130,1,N,0170,1","22000,1,9,N","999999,9,N,1","-0010,1","-0070,1","99999,9",,,,,"10020,1,99999,9",,,,,"MET046METAR ENDR 171720Z AUTO 13033KT M01/M07 Q1002;",
"01023199999","2010-12-17T17:50:00","4","64.35","7.8","0.0","DRAUGEN, NO","AUTO ","ENDR ","V020","130,1,N,0175,1","22000,1,9,N","999999,9,N,1","-0010,1","-0080,1","99999,9",,,,,"10020,1,99999,9",,,,,"MET046METAR ENDR 171750Z AUTO 13034KT M01/M08 Q1002;",
"01023199999","2010-12-17T18:20:00","4","64.35","7.8","0.0","DRAUGEN, NO","AUTO ","ENDR ","V020","130,1,N,0159,1","22000,1,9,N","999999,9,N,1","+0000,1","-0070,1","99999,9",,,,,"10041,1,99999,9",,,,,"MET046METAR ENDR 171820Z AUTO 13031KT M00/M07 Q1004;",
"01023199999","2010-12-17T18:50:00","4","64.35","7.8","0.0","DRAUGEN, NO","AUTO ","ENDR ","V020","120,1,N,0165,1","22000,1,9,N","999999,9,N,1","-0010,1","-0070,1","99999,9",,,,,"10041,1,99999,9",,,,,"MET046METAR ENDR 171850Z AUTO 12032KT M01/M07 Q1004;",
"01023199999","2010-12-17T19:20:00","4","64.35","7.8","0.0","DRAUGEN, NO","AUTO ","ENDR ","V020","120,1,N,0165,1","22000,1,9,N","999999,9,N,1","+0000,1","-0080,1","99999,9",,,,,"10051,1,99999,9",,,,,"MET046METAR ENDR 171920Z AUTO 12032KT M00/M08 Q1005;",
"01023199999","2010-12-17T19:50:00","4","64.35","7.8","0.0","DRAUGEN, NO","AUTO ","ENDR ","V020","120,1,N,0165,1","22000,1,9,N","999999,9,N,1","+0000,1","-0060,1","99999,9",,,,,"10061,1,99999,9",,,,,"MET045METAR ENDR 171950Z AUTO 12032KT 00/M06 Q1006;",
"01023199999","2010-12-17T20:20:00","4","64.35","7.8","0.0","DRAUGEN, NO","AUTO ","ENDR ","V020","120,1,N,0165,1","22000,1,9,N","999999,9,N,1","+0000,1","-0070,1","99999,9",,,,,"10061,1,99999,9",,,,,"MET045METAR ENDR 172020Z AUTO 12032KT 00/M07 Q1006;",
"01023199999","2010-12-17T20:50:00","4","64.35","7.8","0.0","DRAUGEN, NO","AUTO ","ENDR ","V020","120,1,N,0180,1","22000,1,9,N","999999,9,N,1","+0010,1","-0060,1","99999,9",,,,,"10071,1,99999,9",,,,,"MET045METAR ENDR 172050Z AUTO 12035KT 01/M06 Q1007;",
"01023199999","2010-12-17T21:20:00","4","64.35","7.8","0.0","DRAUGEN, NO","AUTO ","ENDR ","V020","110,1,N,0201,1","22000,1,9,N","999999,9,N,1","+0010,1","-0040,1","99999,9",,,,,"10071,1,99999,9",,,,,"MET045METAR ENDR 172120Z AUTO 11039KT 01/M04 Q1007;",
"01023199999","2010-12-17T21:50:00","4","64.35","7.8","0.0","DRAUGEN, NO","AUTO ","ENDR ","V020","110,1,N,0180,1","22000,1,9,N","999999,9,N,1","+0010,1","-0040,1","99999,9",,,,,"10081,1,99999,9",,,,,"MET045METAR ENDR 172150Z AUTO 11035KT 01/M04 Q1008;",
"01023199999","2010-12-17T22:20:00","4","64.35","7.8","0.0","DRAUGEN, NO","AUTO ","ENDR ","V020","110,1,N,0175,1","22000,1,9,N","999999,9,N,1","+0010,1","-0040,1","99999,9",,,,,"10091,1,99999,9",,,,,"MET045METAR ENDR 172220Z AUTO 11034KT 01/M04 Q1009;",
"01023199999","2010-12-17T22:50:00","4","64.35","7.8","0.0","DRAUGEN, NO","AUTO ","ENDR ","V020","110,1,N,0175,1","22000,1,9,N","999999,9,N,1","+0010,1","-0050,1","99999,9",,,,,"10091,1,99999,9",,,,,"MET045METAR ENDR 172250Z AUTO 11034KT 01/M05 Q1009;",
"01023199999","2010-12-17T23:20:00","4","64.35","7.8","0.0","DRAUGEN, NO","AUTO ","ENDR ","V020","110,1,N,0180,1","22000,1,9,N","999999,9,N,1","+0020,1","-0040,1","99999,9",,,,,"10091,1,99999,9",,,,,"MET045METAR ENDR 172320Z AUTO 11035KT 02/M04 Q1009;",
"01023199999","2010-12-17T23:50:00","4","64.35","7.8","0.0","DRAUGEN, NO","AUTO ","ENDR ","V020","110,1,N,0175,1","22000,1,9,N","999999,9,N,1","+0010,1","-0040,1","99999,9",,,,,"10102,1,99999,9",,,,,"MET045METAR ENDR 172350Z AUTO 11034KT 01/M04 Q1010;",
"01023199999","2010-12-18T00:20:00","4","64.35","7.8","0.0","DRAUGEN, NO","AUTO ","ENDR ","V020","110,1,N,0190,1","22000,1,9,N","999999,9,N,1","+0010,1","-0050,1","99999,9",,,,,"10102,1,99999,9",,,,,"MET045METAR ENDR 180020Z AUTO 11037KT 01/M05 Q1010;",
"01023199999","2010-12-18T00:50:00","4","64.35","7.8","0.0","DRAUGEN, NO","AUTO ","ENDR ","V020","110,1,N,0190,1","22000,1,9,N","999999,9,N,1","+0010,1","-0060,1","99999,9",,,,,"10102,1,99999,9",,,,,"MET045METAR ENDR 180050Z AUTO 11037KT 01/M06 Q1010;",
"01023199999","2010-12-18T01:20:00","4","64.35","7.8","0.0","DRAUGEN, NO","AUTO ","ENDR ","V020","110,1,N,0201,1","22000,1,9,N","999999,9,N,1","+0010,1","-0050,1","99999,9",,,,,"10102,1,99999,9",,,,,"MET045METAR ENDR 180120Z AUTO 11039KT 01/M05 Q1010;",
"01023199999","2010-12-18T01:50:00","4","64.35","7.8","0.0","DRAUGEN, NO","AUTO ","ENDR ","V020","110,1,N,0201,1","22000,1,9,N","999999,9,N,1","+0010,1","-0060,1","99999,9",,,,,"10108,1,99999,9",,,,,"MET045METAR ENDR 180150Z AUTO 11039KT 01/M06 Q1011;",
"01023199999","2010-12-18T02:20:00","4","64.35","7.8","0.0","DRAUGEN, NO","AUTO ","ENDR ","V020","120,1,N,0190,1","22000,1,9,N","999999,9,N,1","+0010,1","-0060,1","99999,9",,,,,"10108,1,99999,9",,,,,"MET045METAR ENDR 180220Z AUTO 12037KT 01/M06 Q1011;",
"01023199999","2010-12-18T02:50:00","4","64.35","7.8","0.0","DRAUGEN, NO","AUTO ","ENDR ","V020","110,1,N,0190,1","22000,1,9,N","999999,9,N,1","+0010,1","-0050,1","99999,9",,,,,"10108,1,99999,9",,,,,"MET045METAR ENDR 180250Z AUTO 11037KT 01/M05 Q1011;",
"01023199999","2010-12-18T03:20:00","4","64.35","7.8","0.0","DRAUGEN, NO","AUTO ","ENDR ","V020","100,1,N,0201,1","22000,1,9,N","999999,9,N,1","+0010,1","-0050,1","99999,9",,,,,"10119,1,99999,9",,,,,"MET045METAR ENDR 180320Z AUTO 10039KT 01/M05 Q1012;",
"01023199999","2010-12-18T03:50:00","4","64.35","7.8","0.0","DRAUGEN, NO","AUTO ","ENDR ","V020","110,1,N,0175,1","22000,1,9,N","999999,9,N,1","+0000,1","-0060,1","99999,9",,,,,"10119,1,99999,9",,,,,"MET045METAR ENDR 180350Z AUTO 11034KT 00/M06 Q1012;",
"01023199999","2010-12-18T04:20:00","4","64.35","7.8","0.0","DRAUGEN, NO","AUTO ","ENDR ","V020","110,1,N,0170,1","22000,1,9,N","999999,9,N,1","+0000,1","-0060,1","99999,9",,,,,"10119,1,99999,9",,,,,"MET045METAR ENDR 180420Z AUTO 11033KT 00/M06 Q1012;",
"01023199999","2010-12-18T04:50:00","4","64.35","7.8","0.0","DRAUGEN, NO","AUTO ","ENDR ","V020","100,1,N,0180,1","22000,1,9,N","999999,9,N,1","+0000,1","-0060,1","99999,9",,,,,"10129,1,99999,9",,,,,"MET046METAR ENDR 180450Z AUTO 10035KT M00/M06 Q1013;",
"01023199999","2010-12-18T05:20:00","4","64.35","7.8","0.0","DRAUGEN, NO","AUTO ","ENDR ","V020","100,1,N,0170,1","22000,1,9,N","999999,9,N,1","+0000,1","-0060,1","99999,9",,,,,"10129,1,99999,9",,,,"0226,1","MET048METAR ENDR 180520Z AUTO 10033G44KT 00/M06 Q1013;",
"01023199999","2010-12-18T05:50:00","4","64.35","7.8","0.0","DRAUGEN, NO","AUTO ","ENDR ","V020","100,1,N,0195,1","22000,1,9,N","999999,9,N,1","-0010,1","-0070,1","99999,9",,,,,"10129,1,99999,9",,,,,"MET046METAR ENDR 180550Z AUTO 10038KT M01/M07 Q1013;",
"01023199999","2010-12-18T06:10:00","4","64.35","7.8","0.0","DRAUGEN, NO","FM-15","ENDR ","V020","100,1,N,0180,1","05130,5,C,N","011265,1,N,1","-0010,1","-0070,1","99999,9","04,5,+00780,1,99,9","07,5,+05130,5,99,9",,"07,99,1,99,9,99,9,99999,9,99,9,99,9","10129,1,99999,9",,,,,"MET060METAR ENDR 180610Z 10035KT 9999 SCT026 BKN171 M01/M07 Q1013;",
"01023199999","2010-12-18T06:50:00","4","64.35","7.8","0.0","DRAUGEN, NO","AUTO ","ENDR ","V020","100,1,N,0190,1","22000,1,9,N","999999,9,N,1","-0010,1","-0070,1","99999,9",,,,,"10129,1,99999,9",,,,,"MET046METAR ENDR 180650Z AUTO 10037KT M01/M07 Q1013;",
"01023199999","2010-12-18T07:20:00","4","64.35","7.8","0.0","DRAUGEN, NO","AUTO ","ENDR ","V020","110,1,N,0185,1","22000,1,9,N","999999,9,N,1","-0010,1","-0060,1","99999,9",,,,,"10129,1,99999,9",,,,,"MET046METAR ENDR 180720Z AUTO 11036KT M01/M06 Q1013;",
"01023199999","2010-12-18T07:50:00","4","64.35","7.8","0.0","DRAUGEN, NO","AUTO ","ENDR ","V020","100,1,N,0180,1","22000,1,9,N","999999,9,N,1","-0010,1","-0060,1","99999,9",,,,,"10139,1,99999,9",,,,,"MET046METAR ENDR 180750Z AUTO 10035KT M01/M06 Q1014;",
"01023199999","2010-12-18T08:20:00","4","64.35","7.8","0.0","DRAUGEN, NO","AUTO ","ENDR ","V020","110,1,N,0185,1","22000,1,9,N","999999,9,N,1","-0010,1","-0060,1","99999,9",,,,,"10139,1,99999,9",,,,,"MET046METAR ENDR 180820Z AUTO 11036KT M01/M06 Q1014;",
"01023199999","2010-12-18T08:50:00","4","64.35","7.8","0.0","DRAUGEN, NO","AUTO ","ENDR ","V020","100,1,N,0185,1","22000,1,9,N","999999,9,N,1","-0020,1","-0080,1","99999,9",,,,,"10139,1,99999,9",,,,,"MET046METAR ENDR 180850Z AUTO 10036KT M02/M08 Q1014;",
"01023199999","2010-12-18T09:10:00","4","64.35","7.8","0.0","DRAUGEN, NO","FM-15","ENDR ","V020","110,1,N,0190,1","00660,1,C,N","011265,1,N,1","-0020,1","-0080,1","99999,9","07,5,+00660,1,99,9","07,5,+06000,1,99,9",,"07,99,1,99,9,99,9,99999,9,99,9,99,9","10139,1,99999,9",,,,,"MET060METAR ENDR 180910Z 11037KT 9999 BKN022 BKN200 M02/M08 Q1014;",
"01023199999","2010-12-18T09:50:00","4","64.35","7.8","0.0","DRAUGEN, NO","AUTO ","ENDR ","V020","110,1,N,0195,1","22000,1,9,N","999999,9,N,1","-0020,1","-0080,1","99999,9",,,,,"10139,1,99999,9",,,,,"MET046METAR ENDR 180950Z AUTO 11038KT M02/M08 Q1014;",
"01023199999","2010-12-18T10:20:00","4","64.35","7.8","0.0","DRAUGEN, NO","AUTO ","ENDR ","V020","100,1,N,0180,1","22000,1,9,N","999999,9,N,1","-0020,1","-0080,1","99999,9",,,,,"10149,1,99999,9",,,,,"MET046METAR ENDR 181020Z AUTO 10035KT M02/M08 Q1015;",
"01023199999","2010-12-18T10:50:00","4","64.35","7.8","0.0","DRAUGEN, NO","AUTO ","ENDR ","V020","100,1,N,0175,1","22000,1,9,N","999999,9,N,1","-0020,1","-0070,1","99999,9",,,,,"10149,1,99999,9",,,,,"MET046METAR ENDR 181050Z AUTO 10034KT M02/M07 Q1015;",
"01023199999","2010-12-18T11:20:00","4","64.35","7.8","0.0","DRAUGEN, NO","AUTO ","ENDR ","V020","100,1,N,0190,1","22000,1,9,N","999999,9,N,1","-0020,1","-0080,1","99999,9",,,,,"10149,1,99999,9",,,,,"MET046METAR ENDR 181120Z AUTO 10037KT M02/M08 Q1015;",
"01023199999","2010-12-18T11:50:00","4","64.35","7.8","0.0","DRAUGEN, NO","AUTO ","ENDR ","V020","100,1,N,0170,1","22000,1,9,N","999999,9,N,1","-0020,1","-0080,1","99999,9",,,,,"10149,1,99999,9",,,,,"MET046METAR ENDR 181150Z AUTO 10033KT M02/M08 Q1015;",
"01023199999","2010-12-18T12:10:00","4","64.35","7.8","0.0","DRAUGEN, NO","FM-15","ENDR ","V020","100,1,N,0185,1","03600,1,C,N","011265,1,N,1","-0020,1","-0070,1","99999,9","04,5,+00660,1,99,9","07,5,+03600,1,99,9","07,5,+05430,5,99,9","07,99,1,99,9,99,9,99999,9,99,9,99,9","10149,1,99999,9",,,,,"MET067METAR ENDR 181210Z 10036KT 9999 SCT022 BKN120 BKN181 M02/M07 Q1015;",
"01023199999","2010-12-18T12:50:00","4","64.35","7.8","0.0","DRAUGEN, NO","AUTO ","ENDR ","V020","100,1,N,0180,1","22000,1,9,N","999999,9,N,1","-0020,1","-0080,1","99999,9",,,,,"10149,1,99999,9",,,,,"MET046METAR ENDR 181250Z AUTO 10035KT M02/M08 Q1015;",
"01023199999","2010-12-18T13:20:00","4","64.35","7.8","0.0","DRAUGEN, NO","AUTO ","ENDR ","V020","100,1,N,0190,1","22000,1,9,N","999999,9,N,1","-0030,1","-0080,1","99999,9",,,,,"10149,1,99999,9",,,,,"MET046METAR ENDR 181320Z AUTO 10037KT M03/M08 Q1015;",
"01023199999","2010-12-18T13:50:00","4","64.35","7.8","0.0","DRAUGEN, NO","AUTO ","ENDR ","V020","100,1,N,0180,1","22000,1,9,N","999999,9,N,1","-0020,1","-0080,1","99999,9",,,,,"10149,1,99999,9",,,,,"MET046METAR ENDR 181350Z AUTO 10035KT M02/M08 Q1015;",
"01023199999","2010-12-18T14:20:00","4","64.35","7.8","0.0","DRAUGEN, NO","AUTO ","ENDR ","V020","110,1,N,0180,1","22000,1,9,N","999999,9,N,1","-0030,1","-0070,1","99999,9",,,,,"10149,1,99999,9",,,,,"MET046METAR ENDR 181420Z AUTO 11035KT M03/M07 Q1015;",
"01023199999","2010-12-18T14:50:00","4","64.35","7.8","0.0","DRAUGEN, NO","AUTO ","ENDR ","V020","110,1,N,0175,1","22000,1,9,N","999999,9,N,1","-0020,1","-0070,1","99999,9",,,,,"10149,1,99999,9",,,,,"MET046METAR ENDR 181450Z AUTO 11034KT M02/M07 Q1015;",
"01023199999","2010-12-18T15:10:00","4","64.35","7.8","0.0","DRAUGEN, NO","FM-15","ENDR ","V020","110,1,N,0180,1","22000,1,9,N","011265,1,N,1","-0030,1","-0080,1","99999,9","04,5,+00600,1,99,9",,,"04,99,1,99,9,99,9,99999,9,99,9,99,9","10149,1,99999,9",,,,,"MET053METAR ENDR 181510Z 11035KT 9999 SCT020 M03/M08 Q1015;",
"01023199999","2010-12-18T15:50:00","4","64.35","7.8","0.0","DRAUGEN, NO","AUTO ","ENDR ","V020","100,1,N,0185,1","22000,1,9,N","999999,9,N,1","-0030,1","-0080,1","99999,9",,,,,"10149,1,99999,9",,,,,"MET046METAR ENDR 181550Z AUTO 10036KT M03/M08 Q1015;",
"01023199999","2010-12-18T16:20:00","4","64.35","7.8","0.0","DRAUGEN, NO","AUTO ","ENDR ","V020","110,1,N,0175,1","22000,1,9,N","999999,9,N,1","-0030,1","-0080,1","99999,9",,,,,"10149,1,99999,9",,,,,"MET046METAR ENDR 181620Z AUTO 11034KT M03/M08 Q1015;",
"01023199999","2010-12-18T16:50:00","4","64.35","7.8","0.0","DRAUGEN, NO","AUTO ","ENDR ","V020","100,1,N,0190,1","22000,1,9,N","999999,9,N,1","-0030,1","-0090,1","99999,9",,,,,"10149,1,99999,9",,,,,"MET046METAR ENDR 181650Z AUTO 10037KT M03/M09 Q1015;",
"01023199999","2010-12-18T17:20:00","4","64.35","7.8","0.0","DRAUGEN, NO","AUTO ","ENDR ","V020","120,1,N,0185,1","22000,1,9,N","999999,9,N,1","-0030,1","-0090,1","99999,9",,,,,"10149,1,99999,9",,,,,"MET046METAR ENDR 181720Z AUTO 12036KT M03/M09 Q1015;",
"01023199999","2010-12-18T17:50:00","4","64.35","7.8","0.0","DRAUGEN, NO","AUTO ","ENDR ","V020","110,1,N,0185,1","22000,1,9,N","999999,9,N,1","-0030,1","-0080,1","99999,9",,,,,"10139,1,99999,9",,,,,"MET046METAR ENDR 181750Z AUTO 11036KT M03/M08 Q1014;",
"01023199999","2010-12-18T18:20:00","4","64.35","7.8","0.0","DRAUGEN, NO","AUTO ","ENDR ","V020","100,1,N,0185,1","22000,1,9,N","999999,9,N,1","-0030,1","-0090,1","99999,9",,,,,"10139,1,99999,9",,,,,"MET046METAR ENDR 181820Z AUTO 10036KT M03/M09 Q1014;",
"01023199999","2010-12-18T18:50:00","4","64.35","7.8","0.0","DRAUGEN, NO","AUTO ","ENDR ","V020","110,1,N,0190,1","22000,1,9,N","999999,9,N,1","-0030,1","-0080,1","99999,9",,,,,"10139,1,99999,9",,,,,"MET046METAR ENDR 181850Z AUTO 11037KT M03/M08 Q1014;",
"01023199999","2010-12-18T19:20:00","4","64.35","7.8","0.0","DRAUGEN, NO","AUTO ","ENDR ","V020","110,1,N,0170,1","22000,1,9,N","999999,9,N,1","-0030,1","-0100,1","99999,9",,,,,"10149,1,99999,9",,,,,"MET046METAR ENDR 181920Z AUTO 11033KT M03/M10 Q1015;",
"01023199999","2010-12-18T19:50:00","4","64.35","7.8","0.0","DRAUGEN, NO","AUTO ","ENDR ","V020","110,1,N,0170,1","22000,1,9,N","999999,9,N,1","-0030,1","-0090,1","99999,9",,,,,"10149,1,99999,9",,,,,"MET046METAR ENDR 181950Z AUTO 11033KT M03/M09 Q1015;",
"01023199999","2010-12-18T20:20:00","4","64.35","7.8","0.0","DRAUGEN, NO","AUTO ","ENDR ","V020","110,1,N,0154,1","22000,1,9,N","999999,9,N,1","-0030,1","-0080,1","99999,9",,,,,"10149,1,99999,9",,,,,"MET046METAR ENDR 182020Z AUTO 11030KT M03/M08 Q1015;",
"01023199999","2010-12-18T20:50:00","4","64.35","7.8","0.0","DRAUGEN, NO","AUTO ","ENDR ","V020","110,1,N,0165,1","22000,1,9,N","999999,9,N,1","-0030,1","-0080,1","99999,9",,,,,"10149,1,99999,9",,,,,"MET046METAR ENDR 182050Z AUTO 11032KT M03/M08 Q1015;",
"01023199999","2010-12-18T21:20:00","4","64.35","7.8","0.0","DRAUGEN, NO","AUTO ","ENDR ","V020","110,1,N,0165,1","22000,1,9,N","999999,9,N,1","-0030,1","-0090,1","99999,9",,,,,"10149,1,99999,9",,,,,"MET046METAR ENDR 182120Z AUTO 11032KT M03/M09 Q1015;",
"01023199999","2010-12-18T21:50:00","4","64.35","7.8","0.0","DRAUGEN, NO","AUTO ","ENDR ","V020","100,1,N,0170,1","22000,1,9,N","999999,9,N,1","-0030,1","-0090,1","99999,9",,,,,"10149,1,99999,9",,,,,"MET046METAR ENDR 182150Z AUTO 10033KT M03/M09 Q1015;",
"01023199999","2010-12-18T22:20:00","4","64.35","7.8","0.0","DRAUGEN, NO","AUTO ","ENDR ","V020","100,1,N,0165,1","22000,1,9,N","999999,9,N,1","-0040,1","-0080,1","99999,9",,,,,"10139,1,99999,9",,,,,"MET046METAR ENDR 182220Z AUTO 10032KT M04/M08 Q1014;",
"01023199999","2010-12-18T22:50:00","4","64.35","7.8","0.0","DRAUGEN, NO","AUTO ","ENDR ","V020","100,1,N,0159,1","22000,1,9,N","999999,9,N,1","-0040,1","-0080,1","99999,9",,,,,"10139,1,99999,9",,,,,"MET046METAR ENDR 182250Z AUTO 10031KT M04/M08 Q1014;",
"01023199999","2010-12-18T23:20:00","4","64.35","7.8","0.0","DRAUGEN, NO","AUTO ","ENDR ","V020","090,1,N,0175,1","22000,1,9,N","999999,9,N,1","-0040,1","-0080,1","99999,9",,,,,"10139,1,99999,9",,,,,"MET046METAR ENDR 182320Z AUTO 09034KT M04/M08 Q1014;",
"01023199999","2010-12-18T23:50:00","4","64.35","7.8","0.0","DRAUGEN, NO","AUTO ","ENDR ","V020","100,1,N,0180,1","22000,1,9,N","999999,9,N,1","-0040,1","-0090,1","99999,9",,,,,"10129,1,99999,9",,,,,"MET046METAR ENDR 182350Z AUTO 10035KT M04/M09 Q1013;",
"01023199999","2010-12-19T00:20:00","4","64.35","7.8","0.0","DRAUGEN, NO","AUTO ","ENDR ","V020","100,1,N,0175,1","22000,1,9,N","999999,9,N,1","-0040,1","-0080,1","99999,9",,,,,"10129,1,99999,9",,,,,"MET046METAR ENDR 190020Z AUTO 10034KT M04/M08 Q1013;",
"01023199999","2010-12-19T00:50:00","4","64.35","7.8","0.0","DRAUGEN, NO","AUTO ","ENDR ","V020","110,1,N,0175,1","22000,1,9,N","999999,9,N,1","-0040,1","-0090,1","99999,9",,,,,"10129,1,99999,9",,,,,"MET046METAR ENDR 190050Z AUTO 11034KT M04/M09 Q1013;",
"01023199999","2010-12-19T01:20:00","4","64.35","7.8","0.0","DRAUGEN, NO","AUTO ","ENDR ","V020","110,1,N,0185,1","22000,1,9,N","999999,9,N,1","-0040,1","-0090,1","99999,9",,,,,"10129,1,99999,9",,,,,"MET046METAR ENDR 190120Z AUTO 11036KT M04/M09 Q1013;",
"01023199999","2010-12-19T01:50:00","4","64.35","7.8","0.0","DRAUGEN, NO","AUTO ","ENDR ","V020","110,1,N,0180,1","22000,1,9,N","999999,9,N,1","-0040,1","-0090,1","99999,9",,,,,"10129,1,99999,9",,,,,"MET046METAR ENDR 190150Z AUTO 11035KT M04/M09 Q1013;",
"01023199999","2010-12-19T02:20:00","4","64.35","7.8","0.0","DRAUGEN, NO","AUTO ","ENDR ","V020","110,1,N,0185,1","22000,1,9,N","999999,9,N,1","-0040,1","-0080,1","99999,9",,,,,"10119,1,99999,9",,,,,"MET046METAR ENDR 190220Z AUTO 11036KT M04/M08 Q1012;",
"01023199999","2010-12-19T02:50:00","4","64.35","7.8","0.0","DRAUGEN, NO","AUTO ","ENDR ","V020","110,1,N,0175,1","22000,1,9,N","999999,9,N,1","-0040,1","-0080,1","99999,9",,,,,"10119,1,99999,9",,,,,"MET046METAR ENDR 190250Z AUTO 11034KT M04/M08 Q1012;",
"01023199999","2010-12-19T03:20:00","4","64.35","7.8","0.0","DRAUGEN, NO","AUTO ","ENDR ","V020","110,1,N,0185,1","22000,1,9,N","999999,9,N,1","-0040,1","-0080,1","99999,9",,,,,"10119,1,99999,9",,,,,"MET046METAR ENDR 190320Z AUTO 11036KT M04/M08 Q1012;",
"01023199999","2010-12-19T03:50:00","4","64.35","7.8","0.0","DRAUGEN, NO","AUTO ","ENDR ","V020","110,1,N,0180,1","22000,1,9,N","999999,9,N,1","-0040,1","-0100,1","99999,9",,,,,"10119,1,99999,9",,,,,"MET046METAR ENDR 190350Z AUTO 11035KT M04/M10 Q1012;",
"01023199999","2010-12-19T04:20:00","4","64.35","7.8","0.0","DRAUGEN, NO","AUTO ","ENDR ","V020","100,1,N,0165,1","22000,1,9,N","999999,9,N,1","-0040,1","-0080,1","99999,9",,,,,"10119,1,99999,9",,,,,"MET046METAR ENDR 190420Z AUTO 10032KT M04/M08 Q1012;",
"01023199999","2010-12-19T04:50:00","4","64.35","7.8","0.0","DRAUGEN, NO","AUTO ","ENDR ","V020","110,1,N,0165,1","22000,1,9,N","999999,9,N,1","-0040,1","-0090,1","99999,9",,,,,"10119,1,99999,9",,,,,"MET046METAR ENDR 190450Z AUTO 11032KT M04/M09 Q1012;",
"01023199999","2010-12-19T05:20:00","4","64.35","7.8","0.0","DRAUGEN, NO","AUTO ","ENDR ","V020","120,1,N,0165,1","22000,1,9,N","999999,9,N,1","-0040,1","-0090,1","99999,9",,,,,"10108,1,99999,9",,,,,"MET046METAR ENDR 190520Z AUTO 12032KT M04/M09 Q1011;",
"01023199999","2010-12-19T05:50:00","4","64.35","7.8","0.0","DRAUGEN, NO","AUTO ","ENDR ","V020","110,1,N,0175,1","22000,1,9,N","999999,9,N,1","-0030,1","-0080,1","99999,9",,,,,"10108,1,99999,9",,,,,"MET046METAR ENDR 190550Z AUTO 11034KT M03/M08 Q1011;",
"01023199999","2010-12-19T06:10:00","4","64.35","7.8","0.0","DRAUGEN, NO","FM-15","ENDR ","V020","110,1,N,0170,1","22000,1,9,N","011265,1,N,1","-0030,1","-0080,1","99999,9","04,5,+00510,1,99,9",,,"04,99,1,99,9,99,9,99999,9,99,9,99,9","10108,1,99999,9",,,,,"MET053METAR ENDR 190610Z 11033KT 9999 SCT017 M03/M08 Q1011;",
"01023199999","2010-12-19T06:50:00","4","64.35","7.8","0.0","DRAUGEN, NO","AUTO ","ENDR ","V020","110,1,N,0165,1","22000,1,9,N","999999,9,N,1","-0040,1","-0080,1","99999,9",,,,,"10108,1,99999,9",,,,,"MET046METAR ENDR 190650Z AUTO 11032KT M04/M08 Q1011;",
"01023199999","2010-12-19T07:20:00","4","64.35","7.8","0.0","DRAUGEN, NO","AUTO ","ENDR ","V020","110,1,N,0175,1","22000,1,9,N","999999,9,N,1","-0040,1","-0080,1","99999,9",,,,,"10102,1,99999,9",,,,,"MET046METAR ENDR 190720Z AUTO 11034KT M04/M08 Q1010;",
"01023199999","2010-12-19T07:50:00","4","64.35","7.8","0.0","DRAUGEN, NO","AUTO ","ENDR ","V020","110,1,N,0170,1","22000,1,9,N","999999,9,N,1","-0030,1","-0080,1","99999,9",,,,,"10102,1,99999,9",,,,,"MET046METAR ENDR 190750Z AUTO 11033KT M03/M08 Q1010;",
"01023199999","2010-12-19T08:20:00","4","64.35","7.8","0.0","DRAUGEN, NO","AUTO ","ENDR ","V020","110,1,N,0180,1","22000,1,9,N","999999,9,N,1","-0040,1","-0080,1","99999,9",,,,,"10102,1,99999,9",,,,,"MET046METAR ENDR 190820Z AUTO 11035KT M04/M08 Q1010;",
"01023199999","2010-12-19T08:50:00","4","64.35","7.8","0.0","DRAUGEN, NO","AUTO ","ENDR ","V020","100,1,N,0165,1","22000,1,9,N","999999,9,N,1","-0030,1","-0090,1","99999,9",,,,,"10108,1,99999,9",,,,,"MET046METAR ENDR 190850Z AUTO 10032KT M03/M09 Q1011;",
"01023199999","2010-12-19T09:10:00","4","64.35","7.8","0.0","DRAUGEN, NO","FM-15","ENDR ","V020","090,1,N,0154,1","99999,9,C,N","011265,1,N,1","-0030,1","-0080,1","99999,9","04,5,+00510,1,99,9","04,5,+04500,1,99,9",,"04,99,1,99,9,99,9,99999,9,99,9,99,9","10108,1,99999,9",,,,,"MET060METAR ENDR 190910Z 09030KT 9999 SCT017 SCT150 M03/M08 Q1011;","P01 045003SCOCIG"
"01023199999","2010-12-19T09:50:00","4","64.35","7.8","0.0","DRAUGEN, NO","AUTO ","ENDR ","V020","100,1,N,0159,1","22000,1,9,N","999999,9,N,1","-0040,1","-0080,1","99999,9",,,,,"10108,1,99999,9",,,,,"MET046METAR ENDR 190950Z AUTO 10031KT M04/M08 Q1011;",
"01023199999","2010-12-19T10:20:00","4","64.35","7.8","0.0","DRAUGEN, NO","AUTO ","ENDR ","V020","100,1,N,0159,1","22000,1,9,N","999999,9,N,1","-0040,1","-0080,1","99999,9",,,,,"10102,1,99999,9",,,,,"MET046METAR ENDR 191020Z AUTO 10031KT M04/M08 Q1010;",
"01023199999","2010-12-19T10:50:00","4","64.35","7.8","0.0","DRAUGEN, NO","AUTO ","ENDR ","V020","100,1,N,0154,1","22000,1,9,N","999999,9,N,1","-0040,1","-0080,1","99999,9",,,,,"10102,1,99999,9",,,,,"MET046METAR ENDR 191050Z AUTO 10030KT M04/M08 Q1010;",
"01023199999","2010-12-19T11:20:00","4","64.35","7.8","0.0","DRAUGEN, NO","AUTO ","ENDR ","V020","100,1,N,0144,1","22000,1,9,N","999999,9,N,1","-0040,1","-0090,1","99999,9",,,,,"10102,1,99999,9",,,,,"MET046METAR ENDR 191120Z AUTO 10028KT M04/M09 Q1010;",
"01023199999","2010-12-19T11:50:00","4","64.35","7.8","0.0","DRAUGEN, NO","AUTO ","ENDR ","V020","090,1,N,0139,1","22000,1,9,N","999999,9,N,1","-0040,1","-0080,1","99999,9",,,,,"10102,1,99999,9",,,,,"MET046METAR ENDR 191150Z AUTO 09027KT M04/M08 Q1010;",
"01023199999","2010-12-19T12:10:00","4","64.35","7.8","0.0","DRAUGEN, NO","FM-15","ENDR ","V020","100,1,N,0149,1","00420,1,C,N","011265,1,N,1","-0040,1","-0080,1","99999,9","07,5,+00420,1,99,9","07,5,+04500,1,99,9",,"07,99,1,99,9,99,9,99999,9,99,9,99,9","10091,1,99999,9",,,,,"MET060METAR ENDR 191210Z 10029KT 9999 BKN014 BKN150 M04/M08 Q1009;",
"01023199999","2010-12-19T12:50:00","4","64.35","7.8","0.0","DRAUGEN, NO","AUTO ","ENDR ","V020","090,1,N,0144,1","22000,1,9,N","999999,9,N,1","-0040,1","-0080,1","99999,9",,,,,"10091,1,99999,9",,,,,"MET046METAR ENDR 191250Z AUTO 09028KT M04/M08 Q1009;",
"01023199999","2010-12-19T13:20:00","4","64.35","7.8","0.0","DRAUGEN, NO","AUTO ","ENDR ","V020","090,1,N,0144,1","22000,1,9,N","999999,9,N,1","-0040,1","-0090,1","99999,9",,,,,"10091,1,99999,9",,,,,"MET046METAR ENDR 191320Z AUTO 09028KT M04/M09 Q1009;",
"01023199999","2010-12-19T13:50:00","4","64.35","7.8","0.0","DRAUGEN, NO","AUTO ","ENDR ","V020","090,1,N,0139,1","22000,1,9,N","999999,9,N,1","-0040,1","-0090,1","99999,9",,,,,"10091,1,99999,9",,,,,"MET046METAR ENDR 191350Z AUTO 09027KT M04/M09 Q1009;",
"01023199999","2010-12-19T14:20:00","4","64.35","7.8","0.0","DRAUGEN, NO","AUTO ","ENDR ","V020","090,1,N,0134,1","22000,1,9,N","999999,9,N,1","-0050,1","-0090,1","99999,9",,,,,"10091,1,99999,9",,,,,"MET046METAR ENDR 191420Z AUTO 09026KT M05/M09 Q1009;",
"01023199999","2010-12-19T14:50:00","4","64.35","7.8","0.0","DRAUGEN, NO","AUTO ","ENDR ","V020","090,1,N,0139,1","22000,1,9,N","999999,9,N,1","-0050,1","-0090,1","99999,9",,,,,"10091,1,99999,9",,,,,"MET046METAR ENDR 191450Z AUTO 09027KT M05/M09 Q1009;",
"01023199999","2010-12-19T15:10:00","4","64.35","7.8","0.0","DRAUGEN, NO","FM-15","ENDR ","V020","090,1,N,0134,1","00420,1,C,N","011265,1,N,1","-0040,1","-0080,1","99999,9","07,5,+00420,1,99,9",,,"07,99,1,99,9,99,9,99999,9,99,9,99,9","10091,1,99999,9",,,,,"MET053METAR ENDR 191510Z 09026KT 9999 BKN014 M04/M08 Q1009;",
"01023199999","2010-12-19T15:50:00","4","64.35","7.8","0.0","DRAUGEN, NO","AUTO ","ENDR ","V020","080,1,N,0129,1","22000,1,9,N","999999,9,N,1","-0040,1","-0090,1","99999,9",,,,,"10081,1,99999,9",,,,,"MET046METAR ENDR 191550Z AUTO 08025KT M04/M09 Q1008;",
"01023199999","2010-12-19T16:20:00","4","64.35","7.8","0.0","DRAUGEN, NO","AUTO ","ENDR ","V020","080,1,N,0129,1","22000,1,9,N","999999,9,N,1","-0040,1","-0080,1","99999,9",,,,,"10081,1,99999,9",,,,,"MET046METAR ENDR 191620Z AUTO 08025KT M04/M08 Q1008;",
"01023199999","2010-12-19T16:50:00","4","64.35","7.8","0.0","DRAUGEN, NO","AUTO ","ENDR ","V020","080,1,N,0118,1","22000,1,9,N","999999,9,N,1","-0040,1","-0080,1","99999,9",,,,,"10081,1,99999,9",,,,,"MET046METAR ENDR 191650Z AUTO 08023KT M04/M08 Q1008;",
"01023199999","2010-12-19T17:20:00","4","64.35","7.8","0.0","DRAUGEN, NO","AUTO ","ENDR ","V020","080,1,N,0113,1","22000,1,9,N","999999,9,N,1","-0040,1","-0080,1","99999,9",,,,,"10081,1,99999,9",,,,,"MET046METAR ENDR 191720Z AUTO 08022KT M04/M08 Q1008;",
"01023199999","2010-12-19T17:50:00","4","64.35","7.8","0.0","DRAUGEN, NO","AUTO ","ENDR ","V020","080,1,N,0123,1","22000,1,9,N","999999,9,N,1","-0030,1","-0080,1","99999,9",,,,,"10071,1,99999,9",,,,,"MET046METAR ENDR 191750Z AUTO 08024KT M03/M08 Q1007;",
"01023199999","2010-12-19T18:20:00","4","64.35","7.8","0.0","DRAUGEN, NO","AUTO ","ENDR ","V020","080,1,N,0129,1","22000,1,9,N","999999,9,N,1","-0040,1","-0080,1","99999,9",,,,,"10071,1,99999,9",,,,,"MET046METAR ENDR 191820Z AUTO 08025KT M04/M08 Q1007;",
"01023199999","2010-12-19T18:50:00","4","64.35","7.8","0.0","DRAUGEN, NO","AUTO ","ENDR ","V020","080,1,N,0134,1","22000,1,9,N","999999,9,N,1","-0040,1","-0090,1","99999,9",,,,,"10071,1,99999,9",,,,,"MET046METAR ENDR 191850Z AUTO 08026KT M04/M09 Q1007;",
"01023199999","2010-12-19T19:20:00","4","64.35","7.8","0.0","DRAUGEN, NO","AUTO ","ENDR ","V020","080,1,N,0139,1","22000,1,9,N","999999,9,N,1","-0040,1","-0090,1","99999,9",,,,,"10071,1,99999,9",,,,,"MET046METAR ENDR 191920Z AUTO 08027KT M04/M09 Q1007;",
"01023199999","2010-12-19T19:50:00","4","64.35","7.8","0.0","DRAUGEN, NO","AUTO ","ENDR ","V020","090,1,N,0129,1","22000,1,9,N","999999,9,N,1","-0040,1","-0100,1","99999,9",,,,,"10071,1,99999,9",,,,,"MET046METAR ENDR 191950Z AUTO 09025KT M04/M10 Q1007;",
"01023199999","2010-12-19T20:20:00","4","64.35","7.8","0.0","DRAUGEN, NO","AUTO ","ENDR ","V020","090,1,N,0134,1","22000,1,9,N","999999,9,N,1","-0040,1","-0090,1","99999,9",,,,,"10071,1,99999,9",,,,,"MET046METAR ENDR 192020Z AUTO 09026KT M04/M09 Q1007;",
"01023199999","2010-12-19T20:50:00","4","64.35","7.8","0.0","DRAUGEN, NO","AUTO ","ENDR ","V020","080,1,N,0134,1","22000,1,9,N","999999,9,N,1","-0040,1","-0090,1","99999,9",,,,,"10061,1,99999,9",,,,,"MET046METAR ENDR 192050Z AUTO 08026KT M04/M09 Q1006;",
"01023199999","2010-12-19T21:20:00","4","64.35","7.8","0.0","DRAUGEN, NO","AUTO ","ENDR ","V020","080,1,N,0139,1","22000,1,9,N","999999,9,N,1","-0040,1","-0090,1","99999,9",,,,,"10061,1,99999,9",,,,,"MET046METAR ENDR 192120Z AUTO 08027KT M04/M09 Q1006;",
"01023199999","2010-12-19T21:50:00","4","64.35","7.8","0.0","DRAUGEN, NO","AUTO ","ENDR ","V020","080,1,N,0139,1","22000,1,9,N","999999,9,N,1","-0040,1","-0080,1","99999,9",,,,,"10061,1,99999,9",,,,,"MET046METAR ENDR 192150Z AUTO 08027KT M04/M08 Q1006;",
"01023199999","2010-12-19T22:20:00","4","64.35","7.8","0.0","DRAUGEN, NO","AUTO ","ENDR ","V020","090,1,N,0149,1","22000,1,9,N","999999,9,N,1","-0040,1","-0090,1","99999,9",,,,,"10061,1,99999,9",,,,,"MET046METAR ENDR 192220Z AUTO 09029KT M04/M09 Q1006;",
"01023199999","2010-12-19T22:50:00","4","64.35","7.8","0.0","DRAUGEN, NO","AUTO ","ENDR ","V020","090,1,N,0149,1","22000,1,9,N","999999,9,N,1","-0040,1","-0090,1","99999,9",,,,,"10061,1,99999,9",,,,,"MET046METAR ENDR 192250Z AUTO 09029KT M04/M09 Q1006;",
"01023199999","2010-12-19T23:20:00","4","64.35","7.8","0.0","DRAUGEN, NO","AUTO ","ENDR ","V020","090,1,N,0154,1","22000,1,9,N","999999,9,N,1","-0040,1","-0090,1","99999,9",,,,,"10061,1,99999,9",,,,,"MET046METAR ENDR 192320Z AUTO 09030KT M04/M09 Q1006;",
"01023199999","2010-12-19T23:50:00","4","64.35","7.8","0.0","DRAUGEN, NO","AUTO ","ENDR ","V020","100,1,N,0154,1","22000,1,9,N","999999,9,N,1","-0050,1","-0100,1","99999,9",,,,,"10061,1,99999,9",,,,,"MET046METAR ENDR 192350Z AUTO 10030KT M05/M10 Q1006;",
"01023199999","2010-12-20T00:20:00","4","64.35","7.8","0.0","DRAUGEN, NO","AUTO ","ENDR ","V020","090,1,N,0159,1","22000,1,9,N","999999,9,N,1","-0040,1","-0090,1","99999,9",,,,,"10051,1,99999,9",,,,,"MET046METAR ENDR 200020Z AUTO 09031KT M04/M09 Q1005;",
"01023199999","2010-12-20T00:50:00","4","64.35","7.8","0.0","DRAUGEN, NO","AUTO ","ENDR ","V020","090,1,N,0159,1","22000,1,9,N","999999,9,N,1","-0040,1","-0090,1","99999,9",,,,,"10051,1,99999,9",,,,,"MET046METAR ENDR 200050Z AUTO 09031KT M04/M09 Q1005;",
"01023199999","2010-12-20T01:20:00","4","64.35","7.8","0.0","DRAUGEN, NO","AUTO ","ENDR ","V020","080,1,N,0170,1","22000,1,9,N","999999,9,N,1","-0050,1","-0090,1","99999,9",,,,,"10051,1,99999,9",,,,,"MET046METAR ENDR 200120Z AUTO 08033KT M05/M09 Q1005;",
"01023199999","2010-12-20T01:50:00","4","64.35","7.8","0.0","DRAUGEN, NO","AUTO ","ENDR ","V020","080,1,N,0165,1","22000,1,9,N","999999,9,N,1","-0050,1","-0090,1","99999,9",,,,,"10051,1,99999,9",,,,,"MET046METAR ENDR 200150Z AUTO 08032KT M05/M09 Q1005;",
"01023199999","2010-12-20T02:20:00","4","64.35","7.8","0.0","DRAUGEN, NO","AUTO ","ENDR ","V020","090,1,N,0165,1","22000,1,9,N","999999,9,N,1","-0050,1","-0090,1","99999,9",,,,,"10051,1,99999,9",,,,,"MET046METAR ENDR 200220Z AUTO 09032KT M05/M09 Q1005;",
"01023199999","2010-12-20T02:50:00","4","64.35","7.8","0.0","DRAUGEN, NO","AUTO ","ENDR ","V020","090,1,N,0159,1","22000,1,9,N","999999,9,N,1","-0050,1","-0090,1","99999,9",,,,,"10051,1,99999,9",,,,,"MET046METAR ENDR 200250Z AUTO 09031KT M05/M09 Q1005;",
"01023199999","2010-12-20T03:20:00","4","64.35","7.8","0.0","DRAUGEN, NO","AUTO ","ENDR ","V020","080,1,N,0154,1","22000,1,9,N","999999,9,N,1","-0050,1","-0090,1","99999,9",,,,,"10041,1,99999,9",,,,,"MET046METAR ENDR 200320Z AUTO 08030KT M05/M09 Q1004;",
"01023199999","2010-12-20T03:50:00","4","64.35","7.8","0.0","DRAUGEN, NO","AUTO ","ENDR ","V020","080,1,N,0139,1","22000,1,9,N","999999,9,N,1","-0050,1","-0100,1","99999,9",,,,,"10041,1,99999,9",,,,,"MET046METAR ENDR 200350Z AUTO 08027KT M05/M10 Q1004;",
"01023199999","2010-12-20T04:20:00","4","64.35","7.8","0.0","DRAUGEN, NO","AUTO ","ENDR ","V020","090,1,N,0144,1","22000,1,9,N","999999,9,N,1","-0050,1","-0090,1","99999,9",,,,,"10041,1,99999,9",,,,,"MET046METAR ENDR 200420Z AUTO 09028KT M05/M09 Q1004;",
"01023199999","2010-12-20T04:50:00","4","64.35","7.8","0.0","DRAUGEN, NO","AUTO ","ENDR ","V020","080,1,N,0139,1","22000,1,9,N","999999,9,N,1","-0050,1","-0100,1","99999,9",,,,,"10041,1,99999,9",,,,,"MET046METAR ENDR 200450Z AUTO 08027KT M05/M10 Q1004;",
"01023199999","2010-12-20T05:20:00","4","64.35","7.8","0.0","DRAUGEN, NO","AUTO ","ENDR ","V020","080,1,N,0134,1","22000,1,9,N","999999,9,N,1","-0050,1","-0090,1","99999,9",,,,,"10041,1,99999,9",,,,,"MET046METAR ENDR 200520Z AUTO 08026KT M05/M09 Q1004;",
"01023199999","2010-12-20T05:50:00","4","64.35","7.8","0.0","DRAUGEN, NO","AUTO ","ENDR ","V020","080,1,N,0123,1","22000,1,9,N","999999,9,N,1","-0050,1","-0090,1","99999,9",,,,,"10041,1,99999,9",,,,,"MET046METAR ENDR 200550Z AUTO 08024KT M05/M09 Q1004;",
"01023199999","2010-12-20T06:10:00","4","64.35","7.8","0.0","DRAUGEN, NO","FM-15","ENDR ","V020","080,1,N,0134,1","00420,1,C,N","011265,1,N,1","-0050,1","-0090,1","99999,9","07,5,+00420,1,99,9",,,"07,99,1,99,9,99,9,99999,9,99,9,99,9","10041,1,99999,9",,,,,"MET053METAR ENDR 200610Z 08026KT 9999 BKN014 M05/M09 Q1004;",
"01023199999","2010-12-20T06:50:00","4","64.35","7.8","0.0","DRAUGEN, NO","AUTO ","ENDR ","V020","080,1,N,0129,1","22000,1,9,N","999999,9,N,1","-0050,1","-0090,1","99999,9",,,,,"10041,1,99999,9",,,,,"MET046METAR ENDR 200650Z AUTO 08025KT M05/M09 Q1004;",
"01023199999","2010-12-20T07:20:00","4","64.35","7.8","0.0","DRAUGEN, NO","AUTO ","ENDR ","V020","070,1,N,0123,1","22000,1,9,N","999999,9,N,1","-0040,1","-0090,1","99999,9",,,,,"10041,1,99999,9",,,,,"MET046METAR ENDR 200720Z AUTO 07024KT M04/M09 Q1004;",
"01023199999","2010-12-20T07:50:00","4","64.35","7.8","0.0","DRAUGEN, NO","AUTO ","ENDR ","V020","070,1,N,0129,1","22000,1,9,N","999999,9,N,1","-0040,1","-0090,1","99999,9",,,,,"10031,1,99999,9",,,,,"MET046METAR ENDR 200750Z AUTO 07025KT M04/M09 Q1003;",
"01023199999","2010-12-20T08:20:00","4","64.35","7.8","0.0","DRAUGEN, NO","AUTO ","ENDR ","V020","070,1,N,0129,1","22000,1,9,N","999999,9,N,1","-0040,1","-0090,1","99999,9",,,,,"10031,1,99999,9",,,,,"MET046METAR ENDR 200820Z AUTO 07025KT M04/M09 Q1003;",
"01023199999","2010-12-20T08:50:00","4","64.35","7.8","0.0","DRAUGEN, NO","AUTO ","ENDR ","V020","070,1,N,0113,1","22000,1,9,N","999999,9,N,1","-0040,1","-0090,1","99999,9",,,,,"10041,1,99999,9",,,,,"MET046METAR ENDR 200850Z AUTO 07022KT M04/M09 Q1004;",
"01023199999","2010-12-20T09:10:00","4","64.35","7.8","0.0","DRAUGEN, NO","FM-15","ENDR ","V020","070,1,N,0108,1","00510,1,C,N","011265,1,N,1","-0040,1","-0090,1","99999,9","07,5,+00510,1,99,9",,,"07,99,1,99,9,99,9,99999,9,99,9,99,9","10041,1,99999,9","16,1",,,,"MET058METAR ENDR 200910Z 07021KT 9999 VCSH BKN017 M04/M09 Q1004;",
"01023199999","2010-12-20T09:50:00","4","64.35","7.8","0.0","DRAUGEN, NO","AUTO ","ENDR ","V020","080,1,N,0118,1","22000,1,9,N","999999,9,N,1","-0040,1","-0090,1","99999,9",,,,,"10041,1,99999,9",,,,,"MET046METAR ENDR 200950Z AUTO 08023KT M04/M09 Q1004;",
"01023199999","2010-12-20T10:20:00","4","64.35","7.8","0.0","DRAUGEN, NO","AUTO ","ENDR ","V020","080,1,N,0108,1","22000,1,9,N","999999,9,N,1","-0040,1","-0100,1","99999,9",,,,,"10041,1,99999,9",,,,,"MET046METAR ENDR 201020Z AUTO 08021KT M04/M10 Q1004;",
"01023199999","2010-12-20T10:50:00","4","64.35","7.8","0.0","DRAUGEN, NO","AUTO ","ENDR ","V020","060,1,N,0108,1","22000,1,9,N","999999,9,N,1","-0040,1","-0080,1","99999,9",,,,,"10031,1,99999,9",,,,,"MET046METAR ENDR 201050Z AUTO 06021KT M04/M08 Q1003;",
"01023199999","2010-12-20T11:20:00","4","64.35","7.8","0.0","DRAUGEN, NO","AUTO ","ENDR ","V020","060,1,N,0098,1","22000,1,9,N","999999,9,N,1","-0040,1","-0090,1","99999,9",,,,,"10031,1,99999,9",,,,,"MET046METAR ENDR 201120Z AUTO 06019KT M04/M09 Q1003;",
"01023199999","2010-12-20T11:50:00","4","64.35","7.8","0.0","DRAUGEN, NO","AUTO ","ENDR ","V020","060,1,N,0087,1","22000,1,9,N","999999,9,N,1","-0040,1","-0090,1","99999,9",,,,,"10031,1,99999,9",,,,,"MET046METAR ENDR 201150Z AUTO 06017KT M04/M09 Q1003;",
"01023199999","2010-12-20T12:10:00","4","64.35","7.8","0.0","DRAUGEN, NO","FM-15","ENDR ","V020","060,1,N,0093,1","00480,1,C,N","011265,1,N,1","-0040,1","-0090,1","99999,9","07,5,+00480,1,99,9",,,"07,99,1,99,9,99,9,99999,9,99,9,99,9","10031,1,99999,9",,,,,"MET053METAR ENDR 201210Z 06018KT 9999 BKN016 M04/M09 Q1003;",
"01023199999","2010-12-20T12:50:00","4","64.35","7.8","0.0","DRAUGEN, NO","AUTO ","ENDR ","V020","070,1,N,0087,1","22000,1,9,N","999999,9,N,1","-0040,1","-0090,1","99999,9",,,,,"10031,1,99999,9",,,,,"MET046METAR ENDR 201250Z AUTO 07017KT M04/M09 Q1003;",
"01023199999","2010-12-20T13:20:00","4","64.35","7.8","0.0","DRAUGEN, NO","AUTO ","ENDR ","V020","060,1,N,0082,1","22000,1,9,N","999999,9,N,1","-0040,1","-0090,1","99999,9",,,,,"10031,1,99999,9",,,,,"MET046METAR ENDR 201320Z AUTO 06016KT M04/M09 Q1003;",
"01023199999","2010-12-20T13:50:00","4","64.35","7.8","0.0","DRAUGEN, NO","AUTO ","ENDR ","V020","070,1,N,0072,1","22000,1,9,N","999999,9,N,1","-0040,1","-0100,1","99999,9",,,,,"10031,1,99999,9",,,,,"MET046METAR ENDR 201350Z AUTO 07014KT M04/M10 Q1003;",
"01023199999","2010-12-20T14:20:00","4","64.35","7.8","0.0","DRAUGEN, NO","AUTO ","ENDR ","V020","070,1,N,0072,1","22000,1,9,N","999999,9,N,1","-0040,1","-0100,1","99999,9",,,,,"10031,1,99999,9",,,,,"MET046METAR ENDR 201420Z AUTO 07014KT M04/M10 Q1003;",
"01023199999","2010-12-20T14:50:00","4","64.35","7.8","0.0","DRAUGEN, NO","AUTO ","ENDR ","V020","070,1,N,0062,1","22000,1,9,N","999999,9,N,1","-0040,1","-0090,1","99999,9",,,,,"10031,1,99999,9",,,,,"MET046METAR ENDR 201450Z AUTO 07012KT M04/M09 Q1003;",
"01023199999","2010-12-20T15:10:00","4","64.35","7.8","0.0","DRAUGEN, NO","FM-15","ENDR ","V020","050,1,N,0067,1","00570,1,C,N","011265,1,N,1","-0040,1","-0090,1","99999,9","07,5,+00570,1,99,9",,,"07,99,1,99,9,99,9,99999,9,99,9,99,9","10031,1,99999,9",,,,,"MET053METAR ENDR 201510Z 05013KT 9999 BKN019 M04/M09 Q1003;",
"01023199999","2010-12-20T15:50:00","4","64.35","7.8","0.0","DRAUGEN, NO","AUTO ","ENDR ","V020","060,1,N,0072,1","22000,1,9,N","999999,9,N,1","-0040,1","-0090,1","99999,9",,,,,"10031,1,99999,9",,,,,"MET046METAR ENDR 201550Z AUTO 06014KT M04/M09 Q1003;",
"01023199999","2010-12-20T16:20:00","4","64.35","7.8","0.0","DRAUGEN, NO","AUTO ","ENDR ","V020","070,1,N,0077,1","22000,1,9,N","999999,9,N,1","-0040,1","-0090,1","99999,9",,,,,"10031,1,99999,9",,,,,"MET046METAR ENDR 201620Z AUTO 07015KT M04/M09 Q1003;",
"01023199999","2010-12-20T16:50:00","4","64.35","7.8","0.0","DRAUGEN, NO","AUTO ","ENDR ","V020","070,1,N,0082,1","22000,1,9,N","999999,9,N,1","-0040,1","-0100,1","99999,9",,,,,"10031,1,99999,9",,,,,"MET046METAR ENDR 201650Z AUTO 07016KT M04/M10 Q1003;",
"01023199999","2010-12-20T17:20:00","4","64.35","7.8","0.0","DRAUGEN, NO","AUTO ","ENDR ","V020","070,1,N,0072,1","22000,1,9,N","999999,9,N,1","-0040,1","-0090,1","99999,9",,,,,"10020,1,99999,9",,,,,"MET046METAR ENDR 201720Z AUTO 07014KT M04/M09 Q1002;",
"01023199999","2010-12-20T17:50:00","4","64.35","7.8","0.0","DRAUGEN, NO","AUTO ","ENDR ","V020","060,1,N,0072,1","22000,1,9,N","999999,9,N,1","-0040,1","-0100,1","99999,9",,,,,"10020,1,99999,9",,,,,"MET046METAR ENDR 201750Z AUTO 06014KT M04/M10 Q1002;",
"01023199999","2010-12-20T18:20:00","4","64.35","7.8","0.0","DRAUGEN, NO","AUTO ","ENDR ","V020","060,1,N,0072,1","22000,1,9,N","999999,9,N,1","-0040,1","-0090,1","99999,9",,,,,"10020,1,99999,9",,,,,"MET046METAR ENDR 201820Z AUTO 06014KT M04/M09 Q1002;",
"01023199999","2010-12-20T18:50:00","4","64.35","7.8","0.0","DRAUGEN, NO","AUTO ","ENDR ","V020","040,1,N,0087,1","22000,1,9,N","999999,9,N,1","-0040,1","-0090,1","99999,9",,,,,"10020,1,99999,9",,,,,"MET046METAR ENDR 201850Z AUTO 04017KT M04/M09 Q1002;",
"01023199999","2010-12-20T19:20:00","4","64.35","7.8","0.0","DRAUGEN, NO","AUTO ","ENDR ","V020","050,1,N,0087,1","22000,1,9,N","999999,9,N,1","-0040,1","-0080,1","99999,9",,,,,"10020,1,99999,9",,,,,"MET046METAR ENDR 201920Z AUTO 05017KT M04/M08 Q1002;",
"01023199999","2010-12-20T19:50:00","4","64.35","7.8","0.0","DRAUGEN, NO","AUTO ","ENDR ","V020","060,1,N,0082,1","22000,1,9,N","999999,9,N,1","-0040,1","-0070,1","99999,9",,,,,"10020,1,99999,9",,,,,"MET046METAR ENDR 201950Z AUTO 06016KT M04/M07 Q1002;",
"01023199999","2010-12-20T20:20:00","4","64.35","7.8","0.0","DRAUGEN, NO","AUTO ","ENDR ","V020","070,1,N,0077,1","22000,1,9,N","999999,9,N,1","-0040,1","-0070,1","99999,9",,,,,"10020,1,99999,9",,,,,"MET046METAR ENDR 202020Z AUTO 07015KT M04/M07 Q1002;",
"01023199999","2010-12-20T20:50:00","4","64.35","7.8","0.0","DRAUGEN, NO","AUTO ","ENDR ","V020","070,1,N,0077,1","22000,1,9,N","999999,9,N,1","-0040,1","-0060,1","99999,9",,,,,"10020,1,99999,9",,,,,"MET046METAR ENDR 202050Z AUTO 07015KT M04/M06 Q1002;",
"01023199999","2010-12-20T21:20:00","4","64.35","7.8","0.0","DRAUGEN, NO","AUTO ","ENDR ","V020","070,1,N,0072,1","22000,1,9,N","999999,9,N,1","-0040,1","-0080,1","99999,9",,,,,"10020,1,99999,9",,,,,"MET046METAR ENDR 202120Z AUTO 07014KT M04/M08 Q1002;",
"01023199999","2010-12-20T21:50:00","4","64.35","7.8","0.0","DRAUGEN, NO","AUTO ","ENDR ","V020","070,1,N,0062,1","22000,1,9,N","999999,9,N,1","-0040,1","-0070,1","99999,9",,,,,"10020,1,99999,9",,,,,"MET046METAR ENDR 202150Z AUTO 07012KT M04/M07 Q1002;",
"01023199999","2010-12-20T22:20:00","4","64.35","7.8","0.0","DRAUGEN, NO","AUTO ","ENDR ","V020","070,1,N,0072,1","22000,1,9,N","999999,9,N,1","-0040,1","-0080,1","99999,9",,,,,"10020,1,99999,9",,,,,"MET046METAR ENDR 202220Z AUTO 07014KT M04/M08 Q1002;",
"01023199999","2010-12-20T22:50:00","4","64.35","7.8","0.0","DRAUGEN, NO","AUTO ","ENDR ","V020","070,1,N,0087,1","22000,1,9,N","999999,9,N,1","-0040,1","-0080,1","99999,9",,,,,"10020,1,99999,9",,,,,"MET046METAR ENDR 202250Z AUTO 07017KT M04/M08 Q1002;",
"01023199999","2010-12-20T23:20:00","4","64.35","7.8","0.0","DRAUGEN, NO","AUTO ","ENDR ","V020","070,1,N,0077,1","22000,1,9,N","999999,9,N,1","-0040,1","-0090,1","99999,9",,,,,"10020,1,99999,9",,,,,"MET046METAR ENDR 202320Z AUTO 07015KT M04/M09 Q1002;",
"01023199999","2010-12-20T23:50:00","4","64.35","7.8","0.0","DRAUGEN, NO","AUTO ","ENDR ","V020","070,1,N,0067,1","22000,1,9,N","999999,9,N,1","-0040,1","-0100,1","99999,9",,,,,"10020,1,99999,9",,,,,"MET046METAR ENDR 202350Z AUTO 07013KT M04/M10 Q1002;",
"01023199999","2010-12-21T00:20:00","4","64.35","7.8","0.0","DRAUGEN, NO","AUTO ","ENDR ","V020","060,1,N,0057,1","22000,1,9,N","999999,9,N,1","-0040,1","-0090,1","99999,9",,,,,"10020,1,99999,9",,,,,"MET046METAR ENDR 210020Z AUTO 06011KT M04/M09 Q1002;",
"01023199999","2010-12-21T00:50:00","4","64.35","7.8","0.0","DRAUGEN, NO","AUTO ","ENDR ","V020","060,1,N,0057,1","22000,1,9,N","999999,9,N,1","-0040,1","-0100,1","99999,9",,,,,"10020,1,99999,9",,,,,"MET046METAR ENDR 210050Z AUTO 06011KT M04/M10 Q1002;",
"01023199999","2010-12-21T01:20:00","4","64.35","7.8","0.0","DRAUGEN, NO","AUTO ","ENDR ","V020","060,1,N,0057,1","22000,1,9,N","999999,9,N,1","-0040,1","-0100,1","99999,9",,,,,"10020,1,99999,9",,,,,"MET046METAR ENDR 210120Z AUTO 06011KT M04/M10 Q1002;",
"01023199999","2010-12-21T01:50:00","4","64.35","7.8","0.0","DRAUGEN, NO","AUTO ","ENDR ","V020","060,1,N,0057,1","22000,1,9,N","999999,9,N,1","-0030,1","-0090,1","99999,9",,,,,"10020,1,99999,9",,,,,"MET054METAR ENDR 210150Z AUTO 06011KT 020V090 M03/M09 Q1002;",
"01023199999","2010-12-21T02:20:00","4","64.35","7.8","0.0","DRAUGEN, NO","AUTO ","ENDR ","V020","070,1,N,0051,1","22000,1,9,N","999999,9,N,1","-0030,1","-0090,1","99999,9",,,,,"10020,1,99999,9",,,,,"MET046METAR ENDR 210220Z AUTO 07010KT M03/M09 Q1002;",
"01023199999","2010-12-21T02:50:00","4","64.35","7.8","0.0","DRAUGEN, NO","AUTO ","ENDR ","V020","070,1,N,0067,1","22000,1,9,N","999999,9,N,1","-0040,1","-0080,1","99999,9",,,,,"10020,1,99999,9",,,,,"MET046METAR ENDR 210250Z AUTO 07013KT M04/M08 Q1002;",
"01023199999","2010-12-21T03:50:00","4","64.35","7.8","0.0","DRAUGEN, NO","AUTO ","ENDR ","V020","070,1,N,0067,1","22000,1,9,N","999999,9,N,1","-0040,1","-0080,1","99999,9",,,,,"10020,1,99999,9",,,,,"MET046METAR ENDR 210350Z AUTO 07013KT M04/M08 Q1002;",
"01023199999","2010-12-21T04:20:00","4","64.35","7.8","0.0","DRAUGEN, NO","AUTO ","ENDR ","V020","070,1,N,0072,1","22000,1,9,N","999999,9,N,1","-0040,1","-0070,1","99999,9",,,,,"10020,1,99999,9",,,,,"MET046METAR ENDR 210420Z AUTO 07014KT M04/M07 Q1002;",
"01023199999","2010-12-21T04:50:00","4","64.35","7.8","0.0","DRAUGEN, NO","AUTO ","ENDR ","V020","070,1,N,0067,1","22000,1,9,N","999999,9,N,1","-0040,1","-0080,1","99999,9",,,,,"10020,1,99999,9",,,,,"MET046METAR ENDR 210450Z AUTO 07013KT M04/M08 Q1002;",
"01023199999","2010-12-21T05:20:00","4","64.35","7.8","0.0","DRAUGEN, NO","AUTO ","ENDR ","V020","080,1,N,0057,1","22000,1,9,N","999999,9,N,1","-0040,1","-0100,1","99999,9",,,,,"10020,1,99999,9",,,,,"MET046METAR ENDR 210520Z AUTO 08011KT M04/M10 Q1002;",
"01023199999","2010-12-21T05:50:00","4","64.35","7.8","0.0","DRAUGEN, NO","AUTO ","ENDR ","V020","130,1,N,0057,1","22000,1,9,N","999999,9,N,1","-0040,1","-0070,1","99999,9",,,,,"10020,1,99999,9",,,,,"MET046METAR ENDR 210550Z AUTO 13011KT M04/M07 Q1002;",
"01023199999","2010-12-21T06:10:00","4","64.35","7.8","0.0","DRAUGEN, NO","FM-15","ENDR ","V020","110,1,N,0072,1","00240,1,C,N","002500,1,N,1","-0050,1","-0070,1","99999,9","08,5,+00240,1,99,9",,,"08,99,1,99,9,99,9,99999,9,99,9,99,9","10020,1,99999,9","75,1",,,,"MET057METAR ENDR 210610Z 11014KT 2500 +SN OVC008 M05/M07 Q1002;",
"01023199999","2010-12-21T06:50:00","4","64.35","7.8","0.0","DRAUGEN, NO","AUTO ","ENDR ","V020","120,1,N,0051,1","22000,1,9,N","999999,9,N,1","-0050,1","-0090,1","99999,9",,,,,"10020,1,99999,9",,,,,"MET046METAR ENDR 210650Z AUTO 12010KT M05/M09 Q1002;",
"01023199999","2010-12-21T07:20:00","4","64.35","7.8","0.0","DRAUGEN, NO","AUTO ","ENDR ","V020","090,1,N,0057,1","22000,1,9,N","999999,9,N,1","-0040,1","-0080,1","99999,9",,,,,"10020,1,99999,9",,,,,"MET046METAR ENDR 210720Z AUTO 09011KT M04/M08 Q1002;",
"01023199999","2010-12-21T07:50:00","4","64.35","7.8","0.0","DRAUGEN, NO","AUTO ","ENDR ","V020","100,1,N,0057,1","22000,1,9,N","999999,9,N,1","-0050,1","-0070,1","99999,9",,,,,"10031,1,99999,9",,,,,"MET046METAR ENDR 210750Z AUTO 10011KT M05/M07 Q1003;",
"01023199999","2010-12-21T08:20:00","4","64.35","7.8","0.0","DRAUGEN, NO","AUTO ","ENDR ","V020","100,1,N,0041,1","22000,1,9,N","999999,9,N,1","-0040,1","-0070,1","99999,9",,,,,"10031,1,99999,9",,,,,"MET054METAR ENDR 210820Z AUTO 10008KT 050V130 M04/M07 Q1003;",
"01023199999","2010-12-21T08:50:00","4","64.35","7.8","0.0","DRAUGEN, NO","AUTO ","ENDR ","V020","100,1,N,0031,1","22000,1,9,N","999999,9,N,1","-0040,1","-0070,1","99999,9",,,,,"10031,1,99999,9",,,,,"MET046METAR ENDR 210850Z AUTO 10006KT M04/M07 Q1003;",
"01023199999","2010-12-21T09:20:00","4","64.35","7.8","0.0","DRAUGEN, NO","FM-15","ENDR ","V020","090,1,N,0041,1","00450,1,C,N","006000,1,N,1","-0040,1","-0080,1","99999,9","08,5,+00450,1,99,9",,,"08,99,1,99,9,99,9,99999,9,99,9,99,9","10031,1,99999,9","16,1","71,1",,,"MET062METAR ENDR 210920Z 09008KT 6000 -SN VCSH OVC015 M04/M08 Q1003;",
"01023199999","2010-12-21T09:50:00","4","64.35","7.8","0.0","DRAUGEN, NO","AUTO ","ENDR ","V020","080,1,N,0057,1","22000,1,9,N","999999,9,N,1","-0040,1","-0080,1","99999,9",,,,,"10031,1,99999,9",,,,,"MET046METAR ENDR 210950Z AUTO 08011KT M04/M08 Q1003;",
"01023199999","2010-12-21T10:20:00","4","64.35","7.8","0.0","DRAUGEN, NO","AUTO ","ENDR ","V020","080,1,N,0072,1","22000,1,9,N","999999,9,N,1","-0040,1","-0080,1","99999,9",,,,,"10031,1,99999,9",,,,,"MET046METAR ENDR 211020Z AUTO 08014KT M04/M08 Q1003;",
"01023199999","2010-12-21T10:50:00","4","64.35","7.8","0.0","DRAUGEN, NO","AUTO ","ENDR ","V020","080,1,N,0067,1","22000,1,9,N","999999,9,N,1","-0040,1","-0090,1","99999,9",,,,,"10031,1,99999,9",,,,,"MET054METAR ENDR 211050Z AUTO 08013KT 020V100 M04/M09 Q1003;",
"01023199999","2010-12-21T11:20:00","4","64.35","7.8","0.0","DRAUGEN, NO","AUTO ","ENDR ","V020","090,1,N,0062,1","22000,1,9,N","999999,9,N,1","-0040,1","-0070,1","99999,9",,,,,"10041,1,99999,9",,,,,"MET046METAR ENDR 211120Z AUTO 09012KT M04/M07 Q1004;",
"01023199999","2010-12-21T11:50:00","4","64.35","7.8","0.0","DRAUGEN, NO","AUTO ","ENDR ","V020","060,1,N,0072,1","22000,1,9,N","999999,9,N,1","-0040,1","-0090,1","99999,9",,,,,"10031,1,99999,9",,,,,"MET046METAR ENDR 211150Z AUTO 06014KT M04/M09 Q1003;",
"01023199999","2010-12-21T12:20:00","4","64.35","7.8","0.0","DRAUGEN, NO","FM-15","ENDR ","V020","050,1,N,0077,1","00600,1,C,N","011265,1,N,1","-0030,1","-0090,1","99999,9","07,5,+00600,1,99,9",,,"07,99,1,99,9,99,9,99999,9,99,9,99,9","10041,1,99999,9",,,,,"MET053METAR ENDR 211220Z 05015KT 9999 BKN020 M03/M09 Q1004;",
"01023199999","2010-12-21T12:50:00","4","64.35","7.8","0.0","DRAUGEN, NO","AUTO ","ENDR ","V020","050,1,N,0072,1","22000,1,9,N","999999,9,N,1","-0040,1","-0090,1","99999,9",,,,,"10041,1,99999,9",,,,,"MET046METAR ENDR 211250Z AUTO 05014KT M04/M09 Q1004;",
"01023199999","2010-12-21T13:20:00","4","64.35","7.8","0.0","DRAUGEN, NO","AUTO ","ENDR ","V020","040,1,N,0072,1","22000,1,9,N","999999,9,N,1","-0040,1","-0090,1","99999,9",,,,,"10041,1,99999,9",,,,,"MET046METAR ENDR 211320Z AUTO 04014KT M04/M09 Q1004;",
"01023199999","2010-12-21T13:50:00","4","64.35","7.8","0.0","DRAUGEN, NO","AUTO ","ENDR ","V020","040,1,N,0077,1","22000,1,9,N","999999,9,N,1","-0040,1","-0100,1","99999,9",,,,,"10041,1,99999,9",,,,,"MET046METAR ENDR 211350Z AUTO 04015KT M04/M10 Q1004;",
"01023199999","2010-12-21T14:20:00","4","64.35","7.8","0.0","DRAUGEN, NO","AUTO ","ENDR ","V020","040,1,N,0072,1","22000,1,9,N","999999,9,N,1","-0040,1","-0110,1","99999,9",,,,,"10041,1,99999,9",,,,,"MET046METAR ENDR 211420Z AUTO 04014KT M04/M11 Q1004;",
"01023199999","2010-12-21T14:50:00","4","64.35","7.8","0.0","DRAUGEN, NO","AUTO ","ENDR ","V020","030,1,N,0057,1","22000,1,9,N","999999,9,N,1","-0040,1","-0100,1","99999,9",,,,,"10041,1,99999,9",,,,,"MET046METAR ENDR 211450Z AUTO 03011KT M04/M10 Q1004;",
"01023199999","2010-12-21T15:10:00","4","64.35","7.8","0.0","DRAUGEN, NO","FM-15","ENDR ","V020","010,1,N,0062,1","00750,1,C,N","011265,1,N,1","-0040,1","-0110,1","99999,9","02,5,+00630,1,99,9","07,5,+00750,1,99,9",,"07,99,1,99,9,99,9,99999,9,99,9,99,9","10041,1,99999,9",,,,,"MET060METAR ENDR 211510Z 01012KT 9999 FEW021 BKN025 M04/M11 Q1004;",
"01023199999","2010-12-21T15:50:00","4","64.35","7.8","0.0","DRAUGEN, NO","AUTO ","ENDR ","V020","020,1,N,0093,1","22000,1,9,N","999999,9,N,1","-0040,1","-0060,1","99999,9",,,,,"10041,1,99999,9",,,,,"MET054METAR ENDR 211550Z AUTO 02018KT 350V080 M04/M06 Q1004;",
"01023199999","2010-12-21T16:20:00","4","64.35","7.8","0.0","DRAUGEN, NO","AUTO ","ENDR ","V020","110,1,N,0103,1","22000,1,9,N","999999,9,N,1","-0050,1","-0060,1","99999,9",,,,,"10041,1,99999,9",,,,,"MET046METAR ENDR 211620Z AUTO 11020KT M05/M06 Q1004;",
"01023199999","2010-12-21T16:50:00","4","64.35","7.8","0.0","DRAUGEN, NO","AUTO ","ENDR ","V020","130,1,N,0087,1","22000,1,9,N","999999,9,N,1","-0050,1","-0070,1","99999,9",,,,,"10041,1,99999,9",,,,,"MET046METAR ENDR 211650Z AUTO 13017KT M05/M07 Q1004;",
"01023199999","2010-12-21T17:20:00","4","64.35","7.8","0.0","DRAUGEN, NO","AUTO ","ENDR ","V020","130,1,N,0082,1","22000,1,9,N","999999,9,N,1","-0040,1","-0080,1","99999,9",,,,,"10051,1,99999,9",,,,,"MET046METAR ENDR 211720Z AUTO 13016KT M04/M08 Q1005;",
"01023199999","2010-12-21T17:50:00","4","64.35","7.8","0.0","DRAUGEN, NO","AUTO ","ENDR ","V020","130,1,N,0087,1","22000,1,9,N","999999,9,N,1","-0040,1","-0070,1","99999,9",,,,,"10051,1,99999,9",,,,,"MET046METAR ENDR 211750Z AUTO 13017KT M04/M07 Q1005;",
"01023199999","2010-12-21T18:20:00","4","64.35","7.8","0.0","DRAUGEN, NO","AUTO ","ENDR ","V020","130,1,N,0077,1","22000,1,9,N","999999,9,N,1","-0040,1","-0080,1","99999,9",,,,,"10051,1,99999,9",,,,,"MET046METAR ENDR 211820Z AUTO 13015KT M04/M08 Q1005;",
"01023199999","2010-12-21T18:50:00","4","64.35","7.8","0.0","DRAUGEN, NO","AUTO ","ENDR ","V020","120,1,N,0072,1","22000,1,9,N","999999,9,N,1","-0040,1","-0090,1","99999,9",,,,,"10051,1,99999,9",,,,,"MET046METAR ENDR 211850Z AUTO 12014KT M04/M09 Q1005;",
"01023199999","2010-12-21T19:20:00","4","64.35","7.8","0.0","DRAUGEN, NO","AUTO ","ENDR ","V020","120,1,N,0067,1","22000,1,9,N","999999,9,N,1","-0050,1","-0090,1","99999,9",,,,,"10051,1,99999,9",,,,,"MET046METAR ENDR 211920Z AUTO 12013KT M05/M09 Q1005;",
"01023199999","2010-12-21T19:50:00","4","64.35","7.8","0.0","DRAUGEN, NO","AUTO ","ENDR ","V020","110,1,N,0072,1","22000,1,9,N","999999,9,N,1","-0050,1","-0090,1","99999,9",,,,,"10061,1,99999,9",,,,,"MET046METAR ENDR 211950Z AUTO 11014KT M05/M09 Q1006;",
"01023199999","2010-12-21T20:20:00","4","64.35","7.8","0.0","DRAUGEN, NO","AUTO ","ENDR ","V020","100,1,N,0067,1","22000,1,9,N","999999,9,N,1","-0040,1","-0090,1","99999,9",,,,,"10061,1,99999,9",,,,,"MET046METAR ENDR 212020Z AUTO 10013KT M04/M09 Q1006;",
"01023199999","2010-12-21T20:50:00","4","64.35","7.8","0.0","DRAUGEN, NO","AUTO ","ENDR ","V020","070,1,N,0067,1","22000,1,9,N","999999,9,N,1","-0040,1","-0090,1","99999,9",,,,,"10061,1,99999,9",,,,,"MET046METAR ENDR 212050Z AUTO 07013KT M04/M09 Q1006;",
"01023199999","2010-12-21T21:20:00","4","64.35","7.8","0.0","DRAUGEN, NO","AUTO ","ENDR ","V020","080,1,N,0082,1","22000,1,9,N","999999,9,N,1","-0040,1","-0090,1","99999,9",,,,,"10071,1,99999,9",,,,,"MET046METAR ENDR 212120Z AUTO 08016KT M04/M09 Q1007;",
"01023199999","2010-12-21T21:50:00","4","64.35","7.8","0.0","DRAUGEN, NO","AUTO ","ENDR ","V020","090,1,N,0067,1","22000,1,9,N","999999,9,N,1","-0040,1","-0090,1","99999,9",,,,,"10071,1,99999,9",,,,,"MET046METAR ENDR 212150Z AUTO 09013KT M04/M09 Q1007;",
"01023199999","2010-12-21T22:20:00","4","64.35","7.8","0.0","DRAUGEN, NO","AUTO ","ENDR ","V020","090,1,N,0072,1","22000,1,9,N","999999,9,N,1","-0040,1","-0090,1","99999,9",,,,,"10071,1,99999,9",,,,,"MET046METAR ENDR 212220Z AUTO 09014KT M04/M09 Q1007;",
"01023199999","2010-12-21T22:50:00","4","64.35","7.8","0.0","DRAUGEN, NO","AUTO ","ENDR ","V020","090,1,N,0072,1","22000,1,9,N","999999,9,N,1","-0040,1","-0080,1","99999,9",,,,,"10071,1,99999,9",,,,,"MET046METAR ENDR 212250Z AUTO 09014KT M04/M08 Q1007;",
"01023199999","2010-12-21T23:20:00","4","64.35","7.8","0.0","DRAUGEN, NO","AUTO ","ENDR ","V020","070,1,N,0057,1","22000,1,9,N","999999,9,N,1","-0040,1","-0070,1","99999,9",,,,,"10071,1,99999,9",,,,,"MET046METAR ENDR 212320Z AUTO 07011KT M04/M07 Q1007;",
"01023199999","2010-12-21T23:50:00","4","64.35","7.8","0.0","DRAUGEN, NO","AUTO ","ENDR ","V020","080,1,N,0067,1","22000,1,9,N","999999,9,N,1","-0040,1","-0070,1","99999,9",,,,,"10081,1,99999,9",,,,,"MET046METAR ENDR 212350Z AUTO 08013KT M04/M07 Q1008;",
"01023199999","2010-12-22T00:20:00","4","64.35","7.8","0.0","DRAUGEN, NO","AUTO ","ENDR ","V020","080,1,N,0067,1","22000,1,9,N","999999,9,N,1","-0040,1","-0070,1","99999,9",,,,,"10081,1,99999,9",,,,,"MET046METAR ENDR 220020Z AUTO 08013KT M04/M07 Q1008;",
"01023199999","2010-12-22T00:50:00","4","64.35","7.8","0.0","DRAUGEN, NO","AUTO ","ENDR ","V020","070,1,N,0082,1","22000,1,9,N","999999,9,N,1","-0030,1","-0080,1","99999,9",,,,,"10081,1,99999,9",,,,,"MET046METAR ENDR 220050Z AUTO 07016KT M03/M08 Q1008;",
"01023199999","2010-12-22T01:20:00","4","64.35","7.8","0.0","DRAUGEN, NO","AUTO ","ENDR ","V020","060,1,N,0072,1","22000,1,9,N","999999,9,N,1","-0030,1","-0090,1","99999,9",,,,,"10081,1,99999,9",,,,,"MET046METAR ENDR 220120Z AUTO 06014KT M03/M09 Q1008;",
"01023199999","2010-12-22T01:50:00","4","64.35","7.8","0.0","DRAUGEN, NO","AUTO ","ENDR ","V020","070,1,N,0067,1","22000,1,9,N","999999,9,N,1","-0030,1","-0090,1","99999,9",,,,,"10081,1,99999,9",,,,,"MET046METAR ENDR 220150Z AUTO 07013KT M03/M09 Q1008;",
"01023199999","2010-12-22T02:20:00","4","64.35","7.8","0.0","DRAUGEN, NO","AUTO ","ENDR ","V020","070,1,N,0077,1","22000,1,9,N","999999,9,N,1","-0030,1","-0080,1","99999,9",,,,,"10091,1,99999,9",,,,,"MET046METAR ENDR 220220Z AUTO 07015KT M03/M08 Q1009;",
"01023199999","2010-12-22T02:50:00","4","64.35","7.8","0.0","DRAUGEN, NO","AUTO ","ENDR ","V020","050,1,N,0082,1","22000,1,9,N","999999,9,N,1","-0030,1","-0100,1","99999,9",,,,,"10091,1,99999,9",,,,,"MET046METAR ENDR 220250Z AUTO 05016KT M03/M10 Q1009;",
"01023199999","2010-12-22T03:20:00","4","64.35","7.8","0.0","DRAUGEN, NO","AUTO ","ENDR ","V020","060,1,N,0067,1","22000,1,9,N","999999,9,N,1","-0030,1","-0100,1","99999,9",,,,,"10091,1,99999,9",,,,,"MET046METAR ENDR 220320Z AUTO 06013KT M03/M10 Q1009;",
"01023199999","2010-12-22T03:50:00","4","64.35","7.8","0.0","DRAUGEN, NO","AUTO ","ENDR ","V020","070,1,N,0082,1","22000,1,9,N","999999,9,N,1","-0030,1","-0090,1","99999,9",,,,,"10091,1,99999,9",,,,,"MET046METAR ENDR 220350Z AUTO 07016KT M03/M09 Q1009;",
"01023199999","2010-12-22T04:20:00","4","64.35","7.8","0.0","DRAUGEN, NO","AUTO ","ENDR ","V020","070,1,N,0087,1","22000,1,9,N","999999,9,N,1","-0030,1","-0090,1","99999,9",,,,,"10091,1,99999,9",,,,,"MET046METAR ENDR 220420Z AUTO 07017KT M03/M09 Q1009;",
"01023199999","2010-12-22T04:50:00","4","64.35","7.8","0.0","DRAUGEN, NO","AUTO ","ENDR ","V020","070,1,N,0077,1","22000,1,9,N","999999,9,N,1","-0040,1","-0100,1","99999,9",,,,,"10102,1,99999,9",,,,,"MET046METAR ENDR 220450Z AUTO 07015KT M04/M10 Q1010;",
"01023199999","2010-12-22T05:20:00","4","64.35","7.8","0.0","DRAUGEN, NO","AUTO ","ENDR ","V020","070,1,N,0077,1","22000,1,9,N","999999,9,N,1","-0040,1","-0090,1","99999,9",,,,,"10102,1,99999,9",,,,,"MET054METAR ENDR 220520Z AUTO 07015KT 050V120 M04/M09 Q1010;",
"01023199999","2010-12-22T05:50:00","4","64.35","7.8","0.0","DRAUGEN, NO","AUTO ","ENDR ","V020","060,1,N,0082,1","22000,1,9,N","999999,9,N,1","-0040,1","-0100,1","99999,9",,,,,"10102,1,99999,9",,,,,"MET046METAR ENDR 220550Z AUTO 06016KT M04/M10 Q1010;",
"01023199999","2010-12-22T06:10:00","4","64.35","7.8","0.0","DRAUGEN, NO","FM-15","ENDR ","V020","070,1,N,0087,1","00660,1,C,N","011265,1,N,1","-0040,1","-0090,1","99999,9","07,5,+00660,1,99,9",,,"07,99,1,99,9,99,9,99999,9,99,9,99,9","10102,1,99999,9","71,1",,,,"MET057METAR ENDR 220610Z 07017KT 9999 -SN BKN022 M04/M09 Q1010;",
"01023199999","2010-12-22T06:50:00","4","64.35","7.8","0.0","DRAUGEN, NO","AUTO ","ENDR ","V020","060,1,N,0077,1","22000,1,9,N","999999,9,N,1","-0030,1","-0100,1","99999,9",,,,,"10108,1,99999,9",,,,,"MET046METAR ENDR 220650Z AUTO 06015KT M03/M10 Q1011;",
"01023199999","2010-12-22T07:20:00","4","64.35","7.8","0.0","DRAUGEN, NO","AUTO ","ENDR ","V020","060,1,N,0082,1","22000,1,9,N","999999,9,N,1","-0040,1","-0100,1","99999,9",,,,,"10108,1,99999,9",,,,,"MET046METAR ENDR 220720Z AUTO 06016KT M04/M10 Q1011;",
"01023199999","2010-12-22T07:50:00","4","64.35","7.8","0.0","DRAUGEN, NO","AUTO ","ENDR ","V020","060,1,N,0077,1","22000,1,9,N","999999,9,N,1","-0040,1","-0090,1","99999,9",,,,,"10108,1,99999,9",,,,,"MET046METAR ENDR 220750Z AUTO 06015KT M04/M09 Q1011;",
"01023199999","2010-12-22T08:20:00","4","64.35","7.8","0.0","DRAUGEN, NO","AUTO ","ENDR ","V020","060,1,N,0082,1","22000,1,9,N","999999,9,N,1","-0040,1","-0100,1","99999,9",,,,,"10119,1,99999,9",,,,,"MET046METAR ENDR 220820Z AUTO 06016KT M04/M10 Q1012;",
"01023199999","2010-12-22T08:50:00","4","64.35","7.8","0.0","DRAUGEN, NO","AUTO ","ENDR ","V020","070,1,N,0087,1","22000,1,9,N","999999,9,N,1","-0040,1","-0100,1","99999,9",,,,,"10119,1,99999,9",,,,,"MET046METAR ENDR 220850Z AUTO 07017KT M04/M10 Q1012;",
"01023199999","2010-12-22T09:20:00","4","64.35","7.8","0.0","DRAUGEN, NO","AUTO ","ENDR ","V020","060,1,N,0082,1","22000,1,9,N","999999,9,N,1","-0040,1","-0100,1","99999,9",,,,,"10119,1,99999,9",,,,,"MET046METAR ENDR 220920Z AUTO 06016KT M04/M10 Q1012;",
"01023199999","2010-12-22T09:40:00","4","64.35","7.8","0.0","DRAUGEN, NO","FM-15","ENDR ","V020","070,1,N,0093,1","00600,1,C,N","011265,1,N,1","-0040,1","-0100,1","99999,9","07,5,+00600,1,99,9",,,"07,99,1,99,9,99,9,99999,9,99,9,99,9","10119,1,99999,9",,,,,"MET053METAR ENDR 220940Z 07018KT 9999 BKN020 M04/M10 Q1012;",
"01023199999","2010-12-22T10:20:00","4","64.35","7.8","0.0","DRAUGEN, NO","AUTO ","ENDR ","V020","070,1,N,0077,1","22000,1,9,N","999999,9,N,1","-0040,1","-0100,1","99999,9",,,,,"10129,1,99999,9",,,,,"MET046METAR ENDR 221020Z AUTO 07015KT M04/M10 Q1013;",
"01023199999","2010-12-22T10:50:00","4","64.35","7.8","0.0","DRAUGEN, NO","AUTO ","ENDR ","V020","070,1,N,0077,1","22000,1,9,N","999999,9,N,1","-0040,1","-0100,1","99999,9",,,,,"10129,1,99999,9",,,,,"MET046METAR ENDR 221050Z AUTO 07015KT M04/M10 Q1013;",
"01023199999","2010-12-22T11:20:00","4","64.35","7.8","0.0","DRAUGEN, NO","AUTO ","ENDR ","V020","060,1,N,0082,1","22000,1,9,N","999999,9,N,1","-0040,1","-0100,1","99999,9",,,,,"10129,1,99999,9",,,,,"MET046METAR ENDR 221120Z AUTO 06016KT M04/M10 Q1013;",
"01023199999","2010-12-22T11:50:00","4","64.35","7.8","0.0","DRAUGEN, NO","AUTO ","ENDR ","V020","060,1,N,0082,1","22000,1,9,N","999999,9,N,1","-0040,1","-0100,1","99999,9",,,,,"10129,1,99999,9",,,,,"MET046METAR ENDR 221150Z AUTO 06016KT M04/M10 Q1013;",
"01023199999","2010-12-22T12:10:00","4","64.35","7.8","0.0","DRAUGEN, NO","FM-15","ENDR ","V020","060,1,N,0082,1","00690,1,C,N","011265,1,N,1","-0040,1","-0100,1","99999,9","07,5,+00690,1,99,9",,,"07,99,1,99,9,99,9,99999,9,99,9,99,9","10139,1,99999,9","16,1",,,,"MET058METAR ENDR 221210Z 06016KT 9999 VCSH BKN023 M04/M10 Q1014;",
"01023199999","2010-12-22T12:50:00","4","64.35","7.8","0.0","DRAUGEN, NO","AUTO ","ENDR ","V020","060,1,N,0082,1","22000,1,9,N","999999,9,N,1","-0040,1","-0100,1","99999,9",,,,,"10139,1,99999,9",,,,,"MET046METAR ENDR 221250Z AUTO 06016KT M04/M10 Q1014;",
"01023199999","2010-12-22T13:20:00","4","64.35","7.8","0.0","DRAUGEN, NO","AUTO ","ENDR ","V020","060,1,N,0077,1","22000,1,9,N","999999,9,N,1","-0040,1","-0100,1","99999,9",,,,,"10139,1,99999,9",,,,,"MET046METAR ENDR 221320Z AUTO 06015KT M04/M10 Q1014;",
"01023199999","2010-12-22T13:50:00","4","64.35","7.8","0.0","DRAUGEN, NO","AUTO ","ENDR ","V020","070,1,N,0072,1","22000,1,9,N","999999,9,N,1","-0040,1","-0100,1","99999,9",,,,,"10139,1,99999,9",,,,,"MET046METAR ENDR 221350Z AUTO 07014KT M04/M10 Q1014;",
"01023199999","2010-12-22T14:20:00","4","64.35","7.8","0.0","DRAUGEN, NO","AUTO ","ENDR ","V020","080,1,N,0072,1","22000,1,9,N","999999,9,N,1","-0040,1","-0100,1","99999,9",,,,,"10139,1,99999,9",,,,,"MET046METAR ENDR 221420Z AUTO 08014KT M04/M10 Q1014;",
"01023199999","2010-12-22T14:50:00","4","64.35","7.8","0.0","DRAUGEN, NO","AUTO ","ENDR ","V020","080,1,N,0082,1","22000,1,9,N","999999,9,N,1","-0040,1","-0090,1","99999,9",,,,,"10149,1,99999,9",,,,,"MET046METAR ENDR 221450Z AUTO 08016KT M04/M09 Q1015;",
"01023199999","2010-12-22T15:10:00","4","64.35","7.8","0.0","DRAUGEN, NO","FM-15","ENDR ","V020","100,1,N,0082,1","00600,1,C,N","011265,1,N,1","-0040,1","-0100,1","99999,9","07,5,+00600,1,99,9",,,"07,99,1,99,9,99,9,99999,9,99,9,99,9","10149,1,99999,9","71,1",,,,"MET057METAR ENDR 221510Z 10016KT 9999 -SN BKN020 M04/M10 Q1015;",
"01023199999","2010-12-22T15:50:00","4","64.35","7.8","0.0","DRAUGEN, NO","AUTO ","ENDR ","V020","090,1,N,0087,1","22000,1,9,N","999999,9,N,1","-0040,1","-0100,1","99999,9",,,,,"10149,1,99999,9",,,,,"MET046METAR ENDR 221550Z AUTO 09017KT M04/M10 Q1015;",
"01023199999","2010-12-22T16:20:00","4","64.35","7.8","0.0","DRAUGEN, NO","AUTO ","ENDR ","V020","090,1,N,0093,1","22000,1,9,N","999999,9,N,1","-0050,1","-0100,1","99999,9",,,,,"10149,1,99999,9",,,,,"MET046METAR ENDR 221620Z AUTO 09018KT M05/M10 Q1015;",
"01023199999","2010-12-22T16:50:00","4","64.35","7.8","0.0","DRAUGEN, NO","AUTO ","ENDR ","V020","070,1,N,0093,1","22000,1,9,N","999999,9,N,1","-0040,1","-0100,1","99999,9",,,,,"10159,1,99999,9",,,,,"MET046METAR ENDR 221650Z AUTO 07018KT M04/M10 Q1016;",
"01023199999","2010-12-22T17:20:00","4","64.35","7.8","0.0","DRAUGEN, NO","AUTO ","ENDR ","V020","090,1,N,0087,1","22000,1,9,N","999999,9,N,1","-0050,1","-0100,1","99999,9",,,,,"10159,1,99999,9",,,,,"MET046METAR ENDR 221720Z AUTO 09017KT M05/M10 Q1016;",
"01023199999","2010-12-22T17:50:00","4","64.35","7.8","0.0","DRAUGEN, NO","AUTO ","ENDR ","V020","080,1,N,0093,1","22000,1,9,N","999999,9,N,1","-0040,1","-0100,1","99999,9",,,,,"10159,1,99999,9",,,,,"MET046METAR ENDR 221750Z AUTO 08018KT M04/M10 Q1016;",
"01023199999","2010-12-22T18:20:00","4","64.35","7.8","0.0","DRAUGEN, NO","AUTO ","ENDR ","V020","080,1,N,0093,1","22000,1,9,N","999999,9,N,1","-0040,1","-0100,1","99999,9",,,,,"10159,1,99999,9",,,,,"MET046METAR ENDR 221820Z AUTO 08018KT M04/M10 Q1016;",
"01023199999","2010-12-22T18:50:00","4","64.35","7.8","0.0","DRAUGEN, NO","AUTO ","ENDR ","V020","080,1,N,0093,1","22000,1,9,N","999999,9,N,1","-0040,1","-0100,1","99999,9",,,,,"10159,1,99999,9",,,,,"MET046METAR ENDR 221850Z AUTO 08018KT M04/M10 Q1016;",
"01023199999","2010-12-22T19:20:00","4","64.35","7.8","0.0","DRAUGEN, NO","AUTO ","ENDR ","V020","080,1,N,0098,1","22000,1,9,N","999999,9,N,1","-0040,1","-0100,1","99999,9",,,,,"10159,1,99999,9",,,,,"MET046METAR ENDR 221920Z AUTO 08019KT M04/M10 Q1016;",
"01023199999","2010-12-22T19:50:00","4","64.35","7.8","0.0","DRAUGEN, NO","AUTO ","ENDR ","V020","090,1,N,0098,1","22000,1,9,N","999999,9,N,1","-0040,1","-0090,1","99999,9",,,,,"10159,1,99999,9",,,,,"MET046METAR ENDR 221950Z AUTO 09019KT M04/M09 Q1016;",
"01023199999","2010-12-22T20:20:00","4","64.35","7.8","0.0","DRAUGEN, NO","AUTO ","ENDR ","V020","080,1,N,0103,1","22000,1,9,N","999999,9,N,1","-0040,1","-0090,1","99999,9",,,,,"10169,1,99999,9",,,,,"MET046METAR ENDR 222020Z AUTO 08020KT M04/M09 Q1017;",
"01023199999","2010-12-22T20:50:00","4","64.35","7.8","0.0","DRAUGEN, NO","AUTO ","ENDR ","V020","080,1,N,0098,1","22000,1,9,N","999999,9,N,1","-0050,1","-0100,1","99999,9",,,,,"10169,1,99999,9",,,,,"MET046METAR ENDR 222050Z AUTO 08019KT M05/M10 Q1017;",
"01023199999","2010-12-22T21:20:00","4","64.35","7.8","0.0","DRAUGEN, NO","AUTO ","ENDR ","V020","080,1,N,0098,1","22000,1,9,N","999999,9,N,1","-0050,1","-0100,1","99999,9",,,,,"10169,1,99999,9",,,,,"MET046METAR ENDR 222120Z AUTO 08019KT M05/M10 Q1017;",
"01023199999","2010-12-22T21:50:00","4","64.35","7.8","0.0","DRAUGEN, NO","AUTO ","ENDR ","V020","070,1,N,0098,1","22000,1,9,N","999999,9,N,1","-0040,1","-0100,1","99999,9",,,,,"10180,1,99999,9",,,,,"MET046METAR ENDR 222150Z AUTO 07019KT M04/M10 Q1018;",
"01023199999","2010-12-22T22:20:00","4","64.35","7.8","0.0","DRAUGEN, NO","AUTO ","ENDR ","V020","070,1,N,0108,1","22000,1,9,N","999999,9,N,1","-0040,1","-0100,1","99999,9",,,,,"10180,1,99999,9",,,,,"MET046METAR ENDR 222220Z AUTO 07021KT M04/M10 Q1018;",
"01023199999","2010-12-22T22:50:00","4","64.35","7.8","0.0","DRAUGEN, NO","AUTO ","ENDR ","V020","080,1,N,0108,1","22000,1,9,N","999999,9,N,1","-0040,1","-0100,1","99999,9",,,,,"10180,1,99999,9",,,,,"MET046METAR ENDR 222250Z AUTO 08021KT M04/M10 Q1018;",
"01023199999","2010-12-22T23:20:00","4","64.35","7.8","0.0","DRAUGEN, NO","AUTO ","ENDR ","V020","080,1,N,0108,1","22000,1,9,N","999999,9,N,1","-0050,1","-0100,1","99999,9",,,,,"10180,1,99999,9",,,,,"MET046METAR ENDR 222320Z AUTO 08021KT M05/M10 Q1018;",
"01023199999","2010-12-22T23:50:00","4","64.35","7.8","0.0","DRAUGEN, NO","AUTO ","ENDR ","V020","080,1,N,0103,1","22000,1,9,N","999999,9,N,1","-0050,1","-0100,1","99999,9",,,,,"10180,1,99999,9",,,,,"MET046METAR ENDR 222350Z AUTO 08020KT M05/M10 Q1018;",
"01023199999","2010-12-23T00:20:00","4","64.35","7.8","0.0","DRAUGEN, NO","AUTO ","ENDR ","V020","080,1,N,0103,1","22000,1,9,N","999999,9,N,1","-0050,1","-0100,1","99999,9",,,,,"10180,1,99999,9",,,,,"MET046METAR ENDR 230020Z AUTO 08020KT M05/M10 Q1018;",
"01023199999","2010-12-23T00:50:00","4","64.35","7.8","0.0","DRAUGEN, NO","AUTO ","ENDR ","V020","080,1,N,0108,1","22000,1,9,N","999999,9,N,1","-0050,1","-0090,1","99999,9",,,,,"10180,1,99999,9",,,,,"MET046METAR ENDR 230050Z AUTO 08021KT M05/M09 Q1018;",
"01023199999","2010-12-23T01:20:00","4","64.35","7.8","0.0","DRAUGEN, NO","AUTO ","ENDR ","V020","080,1,N,0108,1","22000,1,9,N","999999,9,N,1","-0050,1","-0100,1","99999,9",,,,,"10180,1,99999,9",,,,,"MET046METAR ENDR 230120Z AUTO 08021KT M05/M10 Q1018;",
"01023199999","2010-12-23T01:50:00","4","64.35","7.8","0.0","DRAUGEN, NO","AUTO ","ENDR ","V020","080,1,N,0118,1","22000,1,9,N","999999,9,N,1","-0040,1","-0100,1","99999,9",,,,,"10180,1,99999,9",,,,,"MET046METAR ENDR 230150Z AUTO 08023KT M04/M10 Q1018;",
"01023199999","2010-12-23T02:20:00","4","64.35","7.8","0.0","DRAUGEN, NO","AUTO ","ENDR ","V020","080,1,N,0118,1","22000,1,9,N","999999,9,N,1","-0040,1","-0090,1","99999,9",,,,,"10180,1,99999,9",,,,,"MET046METAR ENDR 230220Z AUTO 08023KT M04/M09 Q1018;",
"01023199999","2010-12-23T02:50:00","4","64.35","7.8","0.0","DRAUGEN, NO","AUTO ","ENDR ","V020","070,1,N,0123,1","22000,1,9,N","999999,9,N,1","-0040,1","-0100,1","99999,9",,,,,"10180,1,99999,9",,,,,"MET046METAR ENDR 230250Z AUTO 07024KT M04/M10 Q1018;",
"01023199999","2010-12-23T03:20:00","4","64.35","7.8","0.0","DRAUGEN, NO","AUTO ","ENDR ","V020","070,1,N,0123,1","22000,1,9,N","999999,9,N,1","-0040,1","-0090,1","99999,9",,,,,"10180,1,99999,9",,,,,"MET046METAR ENDR 230320Z AUTO 07024KT M04/M09 Q1018;",
"01023199999","2010-12-23T03:50:00","4","64.35","7.8","0.0","DRAUGEN, NO","AUTO ","ENDR ","V020","080,1,N,0118,1","22000,1,9,N","999999,9,N,1","-0040,1","-0090,1","99999,9",,,,,"10180,1,99999,9",,,,,"MET046METAR ENDR 230350Z AUTO 08023KT M04/M09 Q1018;",
"01023199999","2010-12-23T04:20:00","4","64.35","7.8","0.0","DRAUGEN, NO","AUTO ","ENDR ","V020","080,1,N,0113,1","22000,1,9,N","999999,9,N,1","-0040,1","-0090,1","99999,9",,,,,"10180,1,99999,9",,,,,"MET046METAR ENDR 230420Z AUTO 08022KT M04/M09 Q1018;",
"01023199999","2010-12-23T04:50:00","4","64.35","7.8","0.0","DRAUGEN, NO","AUTO ","ENDR ","V020","080,1,N,0118,1","22000,1,9,N","999999,9,N,1","-0040,1","-0090,1","99999,9",,,,,"10180,1,99999,9",,,,,"MET046METAR ENDR 230450Z AUTO 08023KT M04/M09 Q1018;",
"01023199999","2010-12-23T05:20:00","4","64.35","7.8","0.0","DRAUGEN, NO","AUTO ","ENDR ","V020","090,1,N,0113,1","22000,1,9,N","999999,9,N,1","-0040,1","-0090,1","99999,9",,,,,"10180,1,99999,9",,,,,"MET046METAR ENDR 230520Z AUTO 09022KT M04/M09 Q1018;",
"01023199999","2010-12-23T05:50:00","4","64.35","7.8","0.0","DRAUGEN, NO","AUTO ","ENDR ","V020","080,1,N,0113,1","22000,1,9,N","999999,9,N,1","-0040,1","-0090,1","99999,9",,,,,"10180,1,99999,9",,,,,"MET046METAR ENDR 230550Z AUTO 08022KT M04/M09 Q1018;",
"01023199999","2010-12-23T06:10:00","4","64.35","7.8","0.0","DRAUGEN, NO","FM-15","ENDR ","V020","080,1,N,0118,1","22000,1,9,N","011265,1,N,1","-0040,1","-0090,1","99999,9","02,5,+00540,1,99,9",,,"02,99,1,99,9,99,9,99999,9,99,9,99,9","10180,1,99999,9",,,,,"MET053METAR ENDR 230610Z 08023KT 9999 FEW018 M04/M09 Q1018;",
"01023199999","2010-12-23T06:50:00","4","64.35","7.8","0.0","DRAUGEN, NO","AUTO ","ENDR ","V020","070,1,N,0118,1","22000,1,9,N","999999,9,N,1","-0030,1","-0090,1","99999,9",,,,,"10190,1,99999,9",,,,,"MET046METAR ENDR 230650Z AUTO 07023KT M03/M09 Q1019;",
"01023199999","2010-12-23T07:20:00","4","64.35","7.8","0.0","DRAUGEN, NO","AUTO ","ENDR ","V020","080,1,N,0113,1","22000,1,9,N","999999,9,N,1","-0040,1","-0090,1","99999,9",,,,,"10190,1,99999,9",,,,,"MET046METAR ENDR 230720Z AUTO 08022KT M04/M09 Q1019;",
"01023199999","2010-12-23T07:50:00","4","64.35","7.8","0.0","DRAUGEN, NO","AUTO ","ENDR ","V020","070,1,N,0118,1","22000,1,9,N","999999,9,N,1","-0040,1","-0090,1","99999,9",,,,,"10190,1,99999,9",,,,,"MET046METAR ENDR 230750Z AUTO 07023KT M04/M09 Q1019;",
"01023199999","2010-12-23T08:20:00","4","64.35","7.8","0.0","DRAUGEN, NO","AUTO ","ENDR ","V020","070,1,N,0113,1","22000,1,9,N","999999,9,N,1","-0030,1","-0090,1","99999,9",,,,,"10190,1,99999,9",,,,,"MET046METAR ENDR 230820Z AUTO 07022KT M03/M09 Q1019;",
"01023199999","2010-12-23T08:50:00","4","64.35","7.8","0.0","DRAUGEN, NO","AUTO ","ENDR ","V020","080,1,N,0113,1","22000,1,9,N","999999,9,N,1","-0040,1","-0090,1","99999,9",,,,,"10190,1,99999,9",,,,,"MET046METAR ENDR 230850Z AUTO 08022KT M04/M09 Q1019;",
"01023199999","2010-12-23T09:20:00","4","64.35","7.8","0.0","DRAUGEN, NO","FM-15","ENDR ","V020","080,1,N,0108,1","00570,1,C,N","011265,1,N,1","-0040,1","-0090,1","99999,9","07,5,+00570,1,99,9",,,"07,99,1,99,9,99,9,99999,9,99,9,99,9","10190,1,99999,9",,,,,"MET053METAR ENDR 230920Z 08021KT 9999 BKN019 M04/M09 Q1019;",
"01023199999","2010-12-23T09:50:00","4","64.35","7.8","0.0","DRAUGEN, NO","AUTO ","ENDR ","V020","070,1,N,0108,1","22000,1,9,N","999999,9,N,1","-0030,1","-0090,1","99999,9",,,,,"10200,1,99999,9",,,,,"MET046METAR ENDR 230950Z AUTO 07021KT M03/M09 Q1020;",
"01023199999","2010-12-23T10:20:00","4","64.35","7.8","0.0","DRAUGEN, NO","AUTO ","ENDR ","V020","070,1,N,0103,1","22000,1,9,N","999999,9,N,1","-0030,1","-0090,1","99999,9",,,,,"10200,1,99999,9",,,,,"MET046METAR ENDR 231020Z AUTO 07020KT M03/M09 Q1020;",
"01023199999","2010-12-23T10:50:00","4","64.35","7.8","0.0","DRAUGEN, NO","AUTO ","ENDR ","V020","070,1,N,0113,1","22000,1,9,N","999999,9,N,1","-0030,1","-0090,1","99999,9",,,,,"10200,1,99999,9",,,,,"MET046METAR ENDR 231050Z AUTO 07022KT M03/M09 Q1020;",
"01023199999","2010-12-23T11:20:00","4","64.35","7.8","0.0","DRAUGEN, NO","AUTO ","ENDR ","V020","080,1,N,0108,1","22000,1,9,N","999999,9,N,1","-0030,1","-0090,1","99999,9",,,,,"10200,1,99999,9",,,,,"MET046METAR ENDR 231120Z AUTO 08021KT M03/M09 Q1020;",
"01023199999","2010-12-23T11:50:00","4","64.35","7.8","0.0","DRAUGEN, NO","AUTO ","ENDR ","V020","080,1,N,0103,1","22000,1,9,N","999999,9,N,1","-0030,1","-0090,1","99999,9",,,,,"10200,1,99999,9",,,,,"MET046METAR ENDR 231150Z AUTO 08020KT M03/M09 Q1020;",
"01023199999","2010-12-23T12:20:00","4","64.35","7.8","0.0","DRAUGEN, NO","AUTO ","ENDR ","V020","080,1,N,0103,1","22000,1,9,N","999999,9,N,1","-0030,1","-0090,1","99999,9",,,,,"10200,1,99999,9",,,,,"MET046METAR ENDR 231220Z AUTO 08020KT M03/M09 Q1020;",
"01023199999","2010-12-23T12:50:00","4","64.35","7.8","0.0","DRAUGEN, NO","AUTO ","ENDR ","V020","070,1,N,0108,1","22000,1,9,N","999999,9,N,1","-0030,1","-0090,1","99999,9",,,,,"10200,1,99999,9",,,,,"MET046METAR ENDR 231250Z AUTO 07021KT M03/M09 Q1020;",
"01023199999","2010-12-23T13:20:00","4","64.35","7.8","0.0","DRAUGEN, NO","AUTO ","ENDR ","V020","080,1,N,0098,1","22000,1,9,N","999999,9,N,1","-0030,1","-0090,1","99999,9",,,,,"10200,1,99999,9",,,,,"MET046METAR ENDR 231320Z AUTO 08019KT M03/M09 Q1020;",
"01023199999","2010-12-23T13:50:00","4","64.35","7.8","0.0","DRAUGEN, NO","AUTO ","ENDR ","V020","080,1,N,0098,1","22000,1,9,N","999999,9,N,1","-0030,1","-0090,1","99999,9",,,,,"10200,1,99999,9",,,,,"MET046METAR ENDR 231350Z AUTO 08019KT M03/M09 Q1020;",
"01023199999","2010-12-23T14:20:00","4","64.35","7.8","0.0","DRAUGEN, NO","AUTO ","ENDR ","V020","070,1,N,0093,1","22000,1,9,N","999999,9,N,1","-0030,1","-0090,1","99999,9",,,,,"10200,1,99999,9",,,,,"MET046METAR ENDR 231420Z AUTO 07018KT M03/M09 Q1020;",
"01023199999","2010-12-23T14:50:00","4","64.35","7.8","0.0","DRAUGEN, NO","AUTO ","ENDR ","V020","070,1,N,0093,1","22000,1,9,N","999999,9,N,1","-0030,1","-0090,1","99999,9",,,,,"10200,1,99999,9",,,,,"MET046METAR ENDR 231450Z AUTO 07018KT M03/M09 Q1020;",
"01023199999","2010-12-23T15:20:00","4","64.35","7.8","0.0","DRAUGEN, NO","AUTO ","ENDR ","V020","070,1,N,0087,1","22000,1,9,N","999999,9,N,1","-0020,1","-0090,1","99999,9",,,,,"10200,1,99999,9",,,,,"MET046METAR ENDR 231520Z AUTO 07017KT M02/M09 Q1020;",
"01023199999","2010-12-23T15:50:00","4","64.35","7.8","0.0","DRAUGEN, NO","AUTO ","ENDR ","V020","060,1,N,0098,1","22000,1,9,N","999999,9,N,1","-0020,1","-0080,1","99999,9",,,,,"10200,1,99999,9",,,,,"MET046METAR ENDR 231550Z AUTO 06019KT M02/M08 Q1020;",
"01023199999","2010-12-23T16:20:00","4","64.35","7.8","0.0","DRAUGEN, NO","AUTO ","ENDR ","V020","070,1,N,0108,1","22000,1,9,N","999999,9,N,1","-0030,1","-0090,1","99999,9",,,,,"10200,1,99999,9",,,,,"MET046METAR ENDR 231620Z AUTO 07021KT M03/M09 Q1020;",
"01023199999","2010-12-23T16:50:00","4","64.35","7.8","0.0","DRAUGEN, NO","AUTO ","ENDR ","V020","070,1,N,0103,1","22000,1,9,N","999999,9,N,1","-0030,1","-0090,1","99999,9",,,,,"10200,1,99999,9",,,,,"MET046METAR ENDR 231650Z AUTO 07020KT M03/M09 Q1020;",
"01023199999","2010-12-23T17:20:00","4","64.35","7.8","0.0","DRAUGEN, NO","AUTO ","ENDR ","V020","070,1,N,0103,1","22000,1,9,N","999999,9,N,1","-0030,1","-0090,1","99999,9",,,,,"10200,1,99999,9",,,,,"MET046METAR ENDR 231720Z AUTO 07020KT M03/M09 Q1020;",
"01023199999","2010-12-23T17:50:00","4","64.35","7.8","0.0","DRAUGEN, NO","AUTO ","ENDR ","V020","070,1,N,0098,1","22000,1,9,N","999999,9,N,1","-0030,1","-0090,1","99999,9",,,,,"10200,1,99999,9",,,,,"MET046METAR ENDR 231750Z AUTO 07019KT M03/M09 Q1020;",
"01023199999","2010-12-23T18:20:00","4","64.35","7.8","0.0","DRAUGEN, NO","AUTO ","ENDR ","V020","060,1,N,0093,1","22000,1,9,N","999999,9,N,1","-0020,1","-0090,1","99999,9",,,,,"10200,1,99999,9",,,,,"MET046METAR ENDR 231820Z AUTO 06018KT M02/M09 Q1020;",
"01023199999","2010-12-26T11:50:00","4","64.35","7.8","0.0","DRAUGEN, NO","AUTO ","ENDR ","V020","070,1,N,0051,1","22000,1,9,N","999999,9,N,1","+0030,1","-0030,1","99999,9",,,,,"10240,1,99999,9",,,,,"MET045METAR ENDR 261150Z AUTO 07010KT 03/M03 Q1024;",
"01023199999","2010-12-26T12:20:00","4","64.35","7.8","0.0","DRAUGEN, NO","AUTO ","ENDR ","V020","080,1,N,0057,1","22000,1,9,N","999999,9,N,1","+0030,1","-0040,1","99999,9",,,,,"10240,1,99999,9",,,,,"MET045METAR ENDR 261220Z AUTO 08011KT 03/M04 Q1024;",
"01023199999","2010-12-26T12:50:00","4","64.35","7.8","0.0","DRAUGEN, NO","AUTO ","ENDR ","V020","070,1,N,0067,1","22000,1,9,N","999999,9,N,1","+0030,1","-0040,1","99999,9",,,,,"10240,1,99999,9",,,,,"MET045METAR ENDR 261250Z AUTO 07013KT 03/M04 Q1024;",
"01023199999","2010-12-26T13:20:00","4","64.35","7.8","0.0","DRAUGEN, NO","AUTO ","ENDR ","V020","080,1,N,0062,1","22000,1,9,N","999999,9,N,1","+0020,1","-0040,1","99999,9",,,,,"10240,1,99999,9",,,,,"MET045METAR ENDR 261320Z AUTO 08012KT 02/M04 Q1024;",
"01023199999","2010-12-26T13:50:00","4","64.35","7.8","0.0","DRAUGEN, NO","AUTO ","ENDR ","V020","080,1,N,0067,1","22000,1,9,N","999999,9,N,1","+0020,1","-0040,1","99999,9",,,,,"10240,1,99999,9",,,,,"MET045METAR ENDR 261350Z AUTO 08013KT 02/M04 Q1024;",
"01023199999","2010-12-26T14:20:00","4","64.35","7.8","0.0","DRAUGEN, NO","AUTO ","ENDR ","V020","080,1,N,0062,1","22000,1,9,N","999999,9,N,1","+0020,1","-0040,1","99999,9",,,,,"10240,1,99999,9",,,,,"MET045METAR ENDR 261420Z AUTO 08012KT 02/M04 Q1024;",
"01023199999","2010-12-26T14:50:00","4","64.35","7.8","0.0","DRAUGEN, NO","AUTO ","ENDR ","V020","090,1,N,0067,1","22000,1,9,N","999999,9,N,1","+0010,1","-0040,1","99999,9",,,,,"10240,1,99999,9",,,,,"MET045METAR ENDR 261450Z AUTO 09013KT 01/M04 Q1024;",
"01023199999","2010-12-26T15:50:00","4","64.35","7.8","0.0","DRAUGEN, NO","AUTO ","ENDR ","V020","100,1,N,0072,1","22000,1,9,N","999999,9,N,1","+0010,1","-0050,1","99999,9",,,,,"10240,1,99999,9",,,,,"MET045METAR ENDR 261550Z AUTO 10014KT 01/M05 Q1024;",
"01023199999","2010-12-26T16:20:00","4","64.35","7.8","0.0","DRAUGEN, NO","AUTO ","ENDR ","V020","110,1,N,0072,1","22000,1,9,N","999999,9,N,1","+0010,1","-0060,1","99999,9",,,,,"10230,1,99999,9",,,,,"MET045METAR ENDR 261620Z AUTO 11014KT 01/M06 Q1023;",
"01023199999","2010-12-26T16:50:00","4","64.35","7.8","0.0","DRAUGEN, NO","AUTO ","ENDR ","V020","100,1,N,0072,1","22000,1,9,N","999999,9,N,1","+0010,1","-0060,1","99999,9",,,,,"10240,1,99999,9",,,,,"MET045METAR ENDR 261650Z AUTO 10014KT 01/M06 Q1024;",
"01023199999","2010-12-26T17:20:00","4","64.35","7.8","0.0","DRAUGEN, NO","AUTO ","ENDR ","V020","090,1,N,0072,1","22000,1,9,N","999999,9,N,1","+0010,1","-0060,1","99999,9",,,,,"10240,1,99999,9",,,,,"MET045METAR ENDR 261720Z AUTO 09014KT 01/M06 Q1024;",
"01023199999","2010-12-26T17:50:00","4","64.35","7.8","0.0","DRAUGEN, NO","AUTO ","ENDR ","V020","100,1,N,0067,1","22000,1,9,N","999999,9,N,1","+0010,1","-0060,1","99999,9",,,,,"10240,1,99999,9",,,,,"MET045METAR ENDR 261750Z AUTO 10013KT 01/M06 Q1024;",
"01023199999","2010-12-26T18:20:00","4","64.35","7.8","0.0","DRAUGEN, NO","AUTO ","ENDR ","V020","999,9,9,9999,9","22000,1,9,N","999999,9,N,1","+0010,1","-0060,1","99999,9",,,,,"10240,1,99999,9",,,,,"MET037METAR ENDR 261820Z AUTO 01/M06 Q1024;",
"01023199999","2010-12-26T18:50:00","4","64.35","7.8","0.0","DRAUGEN, NO","AUTO ","ENDR ","V020","090,1,N,0062,1","22000,1,9,N","999999,9,N,1","+0010,1","-0050,1","99999,9",,,,,"10230,1,99999,9",,,,,"MET045METAR ENDR 261850Z AUTO 09012KT 01/M05 Q1023;",
"01023199999","2010-12-26T19:20:00","4","64.35","7.8","0.0","DRAUGEN, NO","AUTO ","ENDR ","V020","080,1,N,0067,1","22000,1,9,N","999999,9,N,1","+0010,1","-0060,1","99999,9",,,,,"10230,1,99999,9",,,,,"MET045METAR ENDR 261920Z AUTO 08013KT 01/M06 Q1023;",
"01023199999","2010-12-26T19:50:00","4","64.35","7.8","0.0","DRAUGEN, NO","AUTO ","ENDR ","V020","080,1,N,0072,1","22000,1,9,N","999999,9,N,1","+0010,1","-0060,1","99999,9",,,,,"10230,1,99999,9",,,,,"MET045METAR ENDR 261950Z AUTO 08014KT 01/M06 Q1023;",
"01023199999","2010-12-26T20:20:00","4","64.35","7.8","0.0","DRAUGEN, NO","AUTO ","ENDR ","V020","090,1,N,0077,1","22000,1,9,N","999999,9,N,1","+0010,1","-0060,1","99999,9",,,,,"10230,1,99999,9",,,,,"MET045METAR ENDR 262020Z AUTO 09015KT 01/M06 Q1023;",
"01023199999","2010-12-26T20:50:00","4","64.35","7.8","0.0","DRAUGEN, NO","AUTO ","ENDR ","V020","090,1,N,0077,1","22000,1,9,N","999999,9,N,1","+0010,1","-0060,1","99999,9",,,,,"10230,1,99999,9",,,,,"MET045METAR ENDR 262050Z AUTO 09015KT 01/M06 Q1023;",
"01023199999","2010-12-26T21:20:00","4","64.35","7.8","0.0","DRAUGEN, NO","AUTO ","ENDR ","V020","100,1,N,0082,1","22000,1,9,N","999999,9,N,1","+0000,1","-0060,1","99999,9",,,,,"10230,1,99999,9",,,,,"MET045METAR ENDR 262120Z AUTO 10016KT 00/M06 Q1023;",
"01023199999","2010-12-26T21:50:00","4","64.35","7.8","0.0","DRAUGEN, NO","AUTO ","ENDR ","V020","090,1,N,0082,1","22000,1,9,N","999999,9,N,1","+0000,1","-0070,1","99999,9",,,,,"10230,1,99999,9",,,,,"MET045METAR ENDR 262150Z AUTO 09016KT 00/M07 Q1023;",
"01023199999","2010-12-26T22:20:00","4","64.35","7.8","0.0","DRAUGEN, NO","AUTO ","ENDR ","V020","100,1,N,0087,1","22000,1,9,N","999999,9,N,1","+0000,1","-0070,1","99999,9",,,,,"10230,1,99999,9",,,,,"MET045METAR ENDR 262220Z AUTO 10017KT 00/M07 Q1023;",
"01023199999","2010-12-26T22:50:00","4","64.35","7.8","0.0","DRAUGEN, NO","AUTO ","ENDR ","V020","100,1,N,0072,1","22000,1,9,N","999999,9,N,1","+0000,1","-0070,1","99999,9",,,,,"10230,1,99999,9",,,,,"MET046METAR ENDR 262250Z AUTO 10014KT M00/M07 Q1023;",
"01023199999","2010-12-26T23:20:00","4","64.35","7.8","0.0","DRAUGEN, NO","AUTO ","ENDR ","V020","090,1,N,0072,1","22000,1,9,N","999999,9,N,1","+0000,1","-0080,1","99999,9",,,,,"10230,1,99999,9",,,,,"MET045METAR ENDR 262320Z AUTO 09014KT 00/M08 Q1023;",
"01023199999","2010-12-26T23:50:00","4","64.35","7.8","0.0","DRAUGEN, NO","AUTO ","ENDR ","V020","070,1,N,0087,1","22000,1,9,N","999999,9,N,1","+0010,1","-0070,1","99999,9",,,,,"10230,1,99999,9",,,,,"MET045METAR ENDR 262350Z AUTO 07017KT 01/M07 Q1023;",
"01023199999","2010-12-27T00:20:00","4","64.35","7.8","0.0","DRAUGEN, NO","AUTO ","ENDR ","V020","080,1,N,0082,1","22000,1,9,N","999999,9,N,1","+0000,1","-0060,1","99999,9",,,,,"10220,1,99999,9",,,,,"MET045METAR ENDR 270020Z AUTO 08016KT 00/M06 Q1022;",
"01023199999","2010-12-27T00:50:00","4","64.35","7.8","0.0","DRAUGEN, NO","AUTO ","ENDR ","V020","090,1,N,0098,1","22000,1,9,N","999999,9,N,1","+0000,1","-0070,1","99999,9",,,,,"10220,1,99999,9",,,,,"MET045METAR ENDR 270050Z AUTO 09019KT 00/M07 Q1022;",
"01023199999","2010-12-27T01:20:00","4","64.35","7.8","0.0","DRAUGEN, NO","AUTO ","ENDR ","V020","080,1,N,0103,1","22000,1,9,N","999999,9,N,1","+0010,1","-0070,1","99999,9",,,,,"10220,1,99999,9",,,,,"MET045METAR ENDR 270120Z AUTO 08020KT 01/M07 Q1022;",
"01023199999","2010-12-27T01:50:00","4","64.35","7.8","0.0","DRAUGEN, NO","AUTO ","ENDR ","V020","090,1,N,0113,1","22000,1,9,N","999999,9,N,1","+0000,1","-0070,1","99999,9",,,,,"10220,1,99999,9",,,,,"MET045METAR ENDR 270150Z AUTO 09022KT 00/M07 Q1022;",
"01023199999","2010-12-27T02:20:00","4","64.35","7.8","0.0","DRAUGEN, NO","AUTO ","ENDR ","V020","080,1,N,0113,1","22000,1,9,N","999999,9,N,1","+0010,1","-0080,1","99999,9",,,,,"10220,1,99999,9",,,,,"MET045METAR ENDR 270220Z AUTO 08022KT 01/M08 Q1022;",
"01023199999","2010-12-27T02:50:00","4","64.35","7.8","0.0","DRAUGEN, NO","AUTO ","ENDR ","V020","080,1,N,0113,1","22000,1,9,N","999999,9,N,1","+0010,1","-0080,1","99999,9",,,,,"10220,1,99999,9",,,,,"MET045METAR ENDR 270250Z AUTO 08022KT 01/M08 Q1022;",
"01023199999","2010-12-27T03:20:00","4","64.35","7.8","0.0","DRAUGEN, NO","AUTO ","ENDR ","V020","080,1,N,0113,1","22000,1,9,N","999999,9,N,1","+0010,1","-0080,1","99999,9",,,,,"10210,1,99999,9",,,,,"MET045METAR ENDR 270320Z AUTO 08022KT 01/M08 Q1021;",
"01023199999","2010-12-27T03:50:00","4","64.35","7.8","0.0","DRAUGEN, NO","AUTO ","ENDR ","V020","080,1,N,0113,1","22000,1,9,N","999999,9,N,1","+0010,1","-0070,1","99999,9",,,,,"10210,1,99999,9",,,,,"MET045METAR ENDR 270350Z AUTO 08022KT 01/M07 Q1021;",
"01023199999","2010-12-27T04:20:00","4","64.35","7.8","0.0","DRAUGEN, NO","AUTO ","ENDR ","V020","090,1,N,0113,1","22000,1,9,N","999999,9,N,1","+0000,1","-0080,1","99999,9",,,,,"10210,1,99999,9",,,,,"MET045METAR ENDR 270420Z AUTO 09022KT 00/M08 Q1021;",
"01023199999","2010-12-27T04:50:00","4","64.35","7.8","0.0","DRAUGEN, NO","AUTO ","ENDR ","V020","090,1,N,0113,1","22000,1,9,N","999999,9,N,1","+0000,1","-0070,1","99999,9",,,,,"10210,1,99999,9",,,,,"MET046METAR ENDR 270450Z AUTO 09022KT M00/M07 Q1021;",
"01023199999","2010-12-27T05:20:00","4","64.35","7.8","0.0","DRAUGEN, NO","AUTO ","ENDR ","V020","090,1,N,0118,1","22000,1,9,N","999999,9,N,1","+0000,1","-0070,1","99999,9",,,,,"10210,1,99999,9",,,,,"MET046METAR ENDR 270520Z AUTO 09023KT M00/M07 Q1021;",
"01023199999","2010-12-27T05:50:00","4","64.35","7.8","0.0","DRAUGEN, NO","AUTO ","ENDR ","V020","090,1,N,0108,1","22000,1,9,N","999999,9,N,1","+0000,1","-0070,1","99999,9",,,,,"10210,1,99999,9",,,,,"MET046METAR ENDR 270550Z AUTO 09021KT M00/M07 Q1021;",
"01023199999","2010-12-27T06:50:00","4","64.35","7.8","0.0","DRAUGEN, NO","AUTO ","ENDR ","V020","100,1,N,0098,1","22000,1,9,N","999999,9,N,1","+0000,1","-0070,1","99999,9",,,,,"10210,1,99999,9",,,,,"MET046METAR ENDR 270650Z AUTO 10019KT M00/M07 Q1021;",
"01023199999","2010-12-27T07:20:00","4","64.35","7.8","0.0","DRAUGEN, NO","AUTO ","ENDR ","V020","100,1,N,0087,1","22000,1,9,N","999999,9,N,1","+0000,1","-0060,1","99999,9",,,,,"10210,1,99999,9",,,,,"MET046METAR ENDR 270720Z AUTO 10017KT M00/M06 Q1021;",
"01023199999","2010-12-27T07:50:00","4","64.35","7.8","0.0","DRAUGEN, NO","AUTO ","ENDR ","V020","090,1,N,0077,1","22000,1,9,N","999999,9,N,1","+0000,1","-0070,1","99999,9",,,,,"10210,1,99999,9",,,,,"MET046METAR ENDR 270750Z AUTO 09015KT M00/M07 Q1021;",
"01023199999","2010-12-27T08:20:00","4","64.35","7.8","0.0","DRAUGEN, NO","AUTO ","ENDR ","V020","100,1,N,0072,1","22000,1,9,N","999999,9,N,1","+0000,1","-0070,1","99999,9",,,,,"10210,1,99999,9",,,,,"MET046METAR ENDR 270820Z AUTO 10014KT M00/M07 Q1021;",
"01023199999","2010-12-27T08:50:00","4","64.35","7.8","0.0","DRAUGEN, NO","AUTO ","ENDR ","V020","100,1,N,0072,1","22000,1,9,N","999999,9,N,1","+0000,1","-0060,1","99999,9",,,,,"10210,1,99999,9",,,,,"MET046METAR ENDR 270850Z AUTO 10014KT M00/M06 Q1021;",
"01023199999","2010-12-27T09:50:00","4","64.35","7.8","0.0","DRAUGEN, NO","AUTO ","ENDR ","V020","100,1,N,0087,1","22000,1,9,N","999999,9,N,1","+0000,1","-0070,1","99999,9",,,,,"10210,1,99999,9",,,,,"MET046METAR ENDR 270950Z AUTO 10017KT M00/M07 Q1021;",
"01023199999","2010-12-27T10:20:00","4","64.35","7.8","0.0","DRAUGEN, NO","AUTO ","ENDR ","V020","100,1,N,0098,1","22000,1,9,N","999999,9,N,1","+0000,1","-0060,1","99999,9",,,,,"10210,1,99999,9",,,,,"MET046METAR ENDR 271020Z AUTO 10019KT M00/M06 Q1021;",
"01023199999","2010-12-27T10:50:00","4","64.35","7.8","0.0","DRAUGEN, NO","AUTO ","ENDR ","V020","100,1,N,0098,1","22000,1,9,N","999999,9,N,1","+0000,1","-0070,1","99999,9",,,,,"10210,1,99999,9",,,,,"MET045METAR ENDR 271050Z AUTO 10019KT 00/M07 Q1021;",
"01023199999","2010-12-27T11:20:00","4","64.35","7.8","0.0","DRAUGEN, NO","AUTO ","ENDR ","V020","090,1,N,0108,1","22000,1,9,N","999999,9,N,1","+0010,1","-0070,1","99999,9",,,,,"10210,1,99999,9",,,,,"MET045METAR ENDR 271120Z AUTO 09021KT 01/M07 Q1021;",
"01023199999","2010-12-27T11:50:00","4","64.35","7.8","0.0","DRAUGEN, NO","AUTO ","ENDR ","V020","100,1,N,0118,1","22000,1,9,N","999999,9,N,1","+0000,1","-0080,1","99999,9",,,,,"10210,1,99999,9",,,,,"MET045METAR ENDR 271150Z AUTO 10023KT 00/M08 Q1021;",
"01023199999","2010-12-27T12:50:00","4","64.35","7.8","0.0","DRAUGEN, NO","AUTO ","ENDR ","V020","090,1,N,0139,1","22000,1,9,N","999999,9,N,1","+0000,1","-0080,1","99999,9",,,,,"10200,1,99999,9",,,,,"MET046METAR ENDR 271250Z AUTO 09027KT M00/M08 Q1020;",
"01023199999","2010-12-27T13:20:00","4","64.35","7.8","0.0","DRAUGEN, NO","AUTO ","ENDR ","V020","090,1,N,0134,1","22000,1,9,N","999999,9,N,1","+0000,1","-0060,1","99999,9",,,,,"10200,1,99999,9",,,,,"MET046METAR ENDR 271320Z AUTO 09026KT M00/M06 Q1020;",
"01023199999","2010-12-27T13:50:00","4","64.35","7.8","0.0","DRAUGEN, NO","AUTO ","ENDR ","V020","090,1,N,0144,1","22000,1,9,N","999999,9,N,1","+0000,1","-0070,1","99999,9",,,,,"10200,1,99999,9",,,,,"MET046METAR ENDR 271350Z AUTO 09028KT M00/M07 Q1020;",
"01023199999","2010-12-27T14:20:00","4","64.35","7.8","0.0","DRAUGEN, NO","AUTO ","ENDR ","V020","090,1,N,0154,1","22000,1,9,N","999999,9,N,1","-0010,1","-0070,1","99999,9",,,,,"10200,1,99999,9",,,,,"MET046METAR ENDR 271420Z AUTO 09030KT M01/M07 Q1020;",
"01023199999","2010-12-27T14:50:00","4","64.35","7.8","0.0","DRAUGEN, NO","AUTO ","ENDR ","V020","090,1,N,0149,1","22000,1,9,N","999999,9,N,1","-0010,1","-0060,1","99999,9",,,,,"10200,1,99999,9",,,,,"MET046METAR ENDR 271450Z AUTO 09029KT M01/M06 Q1020;",
"01023199999","2010-12-27T15:20:00","4","64.35","7.8","0.0","DRAUGEN, NO","AUTO ","ENDR ","V020","100,1,N,0129,1","22000,1,9,N","999999,9,N,1","-0010,1","-0070,1","99999,9",,,,,"10200,1,99999,9",,,,,"MET046METAR ENDR 271520Z AUTO 10025KT M01/M07 Q1020;",
"01023199999","2010-12-27T15:50:00","4","64.35","7.8","0.0","DRAUGEN, NO","AUTO ","ENDR ","V020","100,1,N,0134,1","22000,1,9,N","999999,9,N,1","-0010,1","-0070,1","99999,9",,,,,"10200,1,99999,9",,,,,"MET046METAR ENDR 271550Z AUTO 10026KT M01/M07 Q1020;",
"01023199999","2010-12-27T16:20:00","4","64.35","7.8","0.0","DRAUGEN, NO","AUTO ","ENDR ","V020","100,1,N,0144,1","22000,1,9,N","999999,9,N,1","-0020,1","-0060,1","99999,9",,,,,"10200,1,99999,9",,,,,"MET046METAR ENDR 271620Z AUTO 10028KT M02/M06 Q1020;",
"01023199999","2010-12-27T16:50:00","4","64.35","7.8","0.0","DRAUGEN, NO","AUTO ","ENDR ","V020","100,1,N,0144,1","22000,1,9,N","999999,9,N,1","-0010,1","-0070,1","99999,9",,,,,"10200,1,99999,9",,,,,"MET046METAR ENDR 271650Z AUTO 10028KT M01/M07 Q1020;",
"01023199999","2010-12-27T17:20:00","4","64.35","7.8","0.0","DRAUGEN, NO","AUTO ","ENDR ","V020","100,1,N,0144,1","22000,1,9,N","999999,9,N,1","-0010,1","-0070,1","99999,9",,,,,"10200,1,99999,9",,,,,"MET046METAR ENDR 271720Z AUTO 10028KT M01/M07 Q1020;",
"01023199999","2010-12-27T17:50:00","4","64.35","7.8","0.0","DRAUGEN, NO","AUTO ","ENDR ","V020","100,1,N,0149,1","22000,1,9,N","999999,9,N,1","-0020,1","-0070,1","99999,9",,,,,"10200,1,99999,9",,,,,"MET046METAR ENDR 271750Z AUTO 10029KT M02/M07 Q1020;",
"01023199999","2010-12-27T18:20:00","4","64.35","7.8","0.0","DRAUGEN, NO","AUTO ","ENDR ","V020","110,1,N,0149,1","22000,1,9,N","999999,9,N,1","-0010,1","-0070,1","99999,9",,,,,"10200,1,99999,9",,,,,"MET046METAR ENDR 271820Z AUTO 11029KT M01/M07 Q1020;",
"01023199999","2010-12-27T18:50:00","4","64.35","7.8","0.0","DRAUGEN, NO","AUTO ","ENDR ","V020","110,1,N,0154,1","22000,1,9,N","999999,9,N,1","-0010,1","-0070,1","99999,9",,,,,"10200,1,99999,9",,,,,"MET046METAR ENDR 271850Z AUTO 11030KT M01/M07 Q1020;",
"01023199999","2010-12-27T19:20:00","4","64.35","7.8","0.0","DRAUGEN, NO","AUTO ","ENDR ","V020","110,1,N,0165,1","22000,1,9,N","999999,9,N,1","-0020,1","-0070,1","99999,9",,,,,"10200,1,99999,9",,,,,"MET046METAR ENDR 271920Z AUTO 11032KT M02/M07 Q1020;",
"01023199999","2010-12-27T19:50:00","4","64.35","7.8","0.0","DRAUGEN, NO","AUTO ","ENDR ","V020","110,1,N,0154,1","22000,1,9,N","999999,9,N,1","-0020,1","-0070,1","99999,9",,,,,"10200,1,99999,9",,,,,"MET046METAR ENDR 271950Z AUTO 11030KT M02/M07 Q1020;",
"01023199999","2010-12-27T20:20:00","4","64.35","7.8","0.0","DRAUGEN, NO","AUTO ","ENDR ","V020","120,1,N,0144,1","22000,1,9,N","999999,9,N,1","-0020,1","-0070,1","99999,9",,,,,"10200,1,99999,9",,,,,"MET046METAR ENDR 272020Z AUTO 12028KT M02/M07 Q1020;",
"01023199999","2010-12-27T20:50:00","4","64.35","7.8","0.0","DRAUGEN, NO","AUTO ","ENDR ","V020","120,1,N,0134,1","22000,1,9,N","999999,9,N,1","-0020,1","-0070,1","99999,9",,,,,"10200,1,99999,9",,,,,"MET046METAR ENDR 272050Z AUTO 12026KT M02/M07 Q1020;",
"01023199999","2010-12-27T21:20:00","4","64.35","7.8","0.0","DRAUGEN, NO","AUTO ","ENDR ","V020","120,1,N,0118,1","22000,1,9,N","999999,9,N,1","-0020,1","-0070,1","99999,9",,,,,"10210,1,99999,9",,,,,"MET046METAR ENDR 272120Z AUTO 12023KT M02/M07 Q1021;",
"01023199999","2010-12-27T21:50:00","4","64.35","7.8","0.0","DRAUGEN, NO","AUTO ","ENDR ","V020","120,1,N,0118,1","22000,1,9,N","999999,9,N,1","-0020,1","-0070,1","99999,9",,,,,"10210,1,99999,9",,,,,"MET046METAR ENDR 272150Z AUTO 12023KT M02/M07 Q1021;",
"01023199999","2010-12-27T22:20:00","4","64.35","7.8","0.0","DRAUGEN, NO","AUTO ","ENDR ","V020","120,1,N,0113,1","22000,1,9,N","999999,9,N,1","-0020,1","-0070,1","99999,9",,,,,"10210,1,99999,9",,,,,"MET046METAR ENDR 272220Z AUTO 12022KT M02/M07 Q1021;",
"01023199999","2010-12-27T22:50:00","4","64.35","7.8","0.0","DRAUGEN, NO","AUTO ","ENDR ","V020","120,1,N,0108,1","22000,1,9,N","999999,9,N,1","-0010,1","-0060,1","99999,9",,,,,"10210,1,99999,9",,,,,"MET046METAR ENDR 272250Z AUTO 12021KT M01/M06 Q1021;",
"01023199999","2010-12-27T23:20:00","4","64.35","7.8","0.0","DRAUGEN, NO","AUTO ","ENDR ","V020","120,1,N,0108,1","22000,1,9,N","999999,9,N,1","-0010,1","-0050,1","99999,9",,,,,"10210,1,99999,9",,,,,"MET046METAR ENDR 272320Z AUTO 12021KT M01/M05 Q1021;",
"01023199999","2010-12-27T23:50:00","4","64.35","7.8","0.0","DRAUGEN, NO","AUTO ","ENDR ","V020","130,1,N,0087,1","22000,1,9,N","999999,9,N,1","-0010,1","-0050,1","99999,9",,,,,"10210,1,99999,9",,,,,"MET046METAR ENDR 272350Z AUTO 13017KT M01/M05 Q1021;",
"01023199999","2010-12-28T00:20:00","4","64.35","7.8","0.0","DRAUGEN, NO","AUTO ","ENDR ","V020","150,1,N,0067,1","22000,1,9,N","999999,9,N,1","-0010,1","-0060,1","99999,9",,,,,"10210,1,99999,9",,,,,"MET046METAR ENDR 280020Z AUTO 15013KT M01/M06 Q1021;",
"01023199999","2010-12-28T00:50:00","4","64.35","7.8","0.0","DRAUGEN, NO","AUTO ","ENDR ","V020","140,1,N,0072,1","22000,1,9,N","999999,9,N,1","+0000,1","-0050,1","99999,9",,,,,"10210,1,99999,9",,,,,"MET046METAR ENDR 280050Z AUTO 14014KT M00/M05 Q1021;",
"01023199999","2010-12-28T01:20:00","4","64.35","7.8","0.0","DRAUGEN, NO","AUTO ","ENDR ","V020","140,1,N,0077,1","22000,1,9,N","999999,9,N,1","+0000,1","-0050,1","99999,9",,,,,"10210,1,99999,9",,,,,"MET046METAR ENDR 280120Z AUTO 14015KT M00/M05 Q1021;",
"01023199999","2010-12-28T01:50:00","4","64.35","7.8","0.0","DRAUGEN, NO","AUTO ","ENDR ","V020","150,1,N,0087,1","22000,1,9,N","999999,9,N,1","+0000,1","-0040,1","99999,9",,,,,"10210,1,99999,9",,,,,"MET045METAR ENDR 280150Z AUTO 15017KT 00/M04 Q1021;",
"01023199999","2010-12-28T02:20:00","4","64.35","7.8","0.0","DRAUGEN, NO","AUTO ","ENDR ","V020","150,1,N,0093,1","22000,1,9,N","999999,9,N,1","+0010,1","-0030,1","99999,9",,,,,"10210,1,99999,9",,,,,"MET045METAR ENDR 280220Z AUTO 15018KT 01/M03 Q1021;",
"01023199999","2010-12-28T02:50:00","4","64.35","7.8","0.0","DRAUGEN, NO","AUTO ","ENDR ","V020","150,1,N,0093,1","22000,1,9,N","999999,9,N,1","+0010,1","-0020,1","99999,9",,,,,"10210,1,99999,9",,,,,"MET045METAR ENDR 280250Z AUTO 15018KT 01/M02 Q1021;",
"01023199999","2010-12-28T03:20:00","4","64.35","7.8","0.0","DRAUGEN, NO","AUTO ","ENDR ","V020","140,1,N,0098,1","22000,1,9,N","999999,9,N,1","+0010,1","-0010,1","99999,9",,,,,"10210,1,99999,9",,,,,"MET045METAR ENDR 280320Z AUTO 14019KT 01/M01 Q1021;",
"01023199999","2010-12-28T03:50:00","4","64.35","7.8","0.0","DRAUGEN, NO","AUTO ","ENDR ","V020","210,1,N,0062,1","22000,1,9,N","999999,9,N,1","+0010,1","-0010,1","99999,9",,,,,"10210,1,99999,9",,,,,"MET045METAR ENDR 280350Z AUTO 21012KT 01/M01 Q1021;",
"01023199999","2010-12-28T04:20:00","4","64.35","7.8","0.0","DRAUGEN, NO","AUTO ","ENDR ","V020","210,1,N,0062,1","22000,1,9,N","999999,9,N,1","+0010,1","-0010,1","99999,9",,,,,"10210,1,99999,9",,,,,"MET045METAR ENDR 280420Z AUTO 21012KT 01/M01 Q1021;",
"01023199999","2010-12-28T04:50:00","4","64.35","7.8","0.0","DRAUGEN, NO","AUTO ","ENDR ","V020","210,1,N,0087,1","22000,1,9,N","999999,9,N,1","+0020,1","-0020,1","99999,9",,,,,"10210,1,99999,9",,,,,"MET045METAR ENDR 280450Z AUTO 21017KT 02/M02 Q1021;",
"01023199999","2010-12-28T05:20:00","4","64.35","7.8","0.0","DRAUGEN, NO","AUTO ","ENDR ","V020","200,1,N,0093,1","22000,1,9,N","999999,9,N,1","+0020,1","-0030,1","99999,9",,,,,"10210,1,99999,9",,,,,"MET045METAR ENDR 280520Z AUTO 20018KT 02/M03 Q1021;",
"01023199999","2010-12-28T05:50:00","4","64.35","7.8","0.0","DRAUGEN, NO","AUTO ","ENDR ","V020","200,1,N,0103,1","22000,1,9,N","999999,9,N,1","+0020,1","-0030,1","99999,9",,,,,"10210,1,99999,9",,,,,"MET045METAR ENDR 280550Z AUTO 20020KT 02/M03 Q1021;",
"01023199999","2010-12-28T06:50:00","4","64.35","7.8","0.0","DRAUGEN, NO","AUTO ","ENDR ","V020","190,1,N,0103,1","22000,1,9,N","999999,9,N,1","+0020,1","-0040,1","99999,9",,,,,"10220,1,99999,9",,,,,"MET045METAR ENDR 280650Z AUTO 19020KT 02/M04 Q1022;",
"01023199999","2010-12-28T07:20:00","4","64.35","7.8","0.0","DRAUGEN, NO","AUTO ","ENDR ","V020","200,1,N,0087,1","22000,1,9,N","999999,9,N,1","+0020,1","-0050,1","99999,9",,,,,"10220,1,99999,9",,,,,"MET045METAR ENDR 280720Z AUTO 20017KT 02/M05 Q1022;",
"01023199999","2010-12-28T07:50:00","4","64.35","7.8","0.0","DRAUGEN, NO","AUTO ","ENDR ","V020","180,1,N,0082,1","22000,1,9,N","999999,9,N,1","+0020,1","-0050,1","99999,9",,,,,"10230,1,99999,9",,,,,"MET045METAR ENDR 280750Z AUTO 18016KT 02/M05 Q1023;",
"01023199999","2010-12-28T08:20:00","4","64.35","7.8","0.0","DRAUGEN, NO","AUTO ","ENDR ","V020","170,1,N,0082,1","22000,1,9,N","999999,9,N,1","+0020,1","-0050,1","99999,9",,,,,"10230,1,99999,9",,,,,"MET045METAR ENDR 280820Z AUTO 17016KT 02/M05 Q1023;",
"01023199999","2010-12-28T08:50:00","4","64.35","7.8","0.0","DRAUGEN, NO","AUTO ","ENDR ","V020","190,1,N,0077,1","22000,1,9,N","999999,9,N,1","+0020,1","-0050,1","99999,9",,,,,"10230,1,99999,9",,,,,"MET045METAR ENDR 280850Z AUTO 19015KT 02/M05 Q1023;",
"01023199999","2010-12-28T09:50:00","4","64.35","7.8","0.0","DRAUGEN, NO","AUTO ","ENDR ","V020","180,1,N,0077,1","22000,1,9,N","999999,9,N,1","+0020,1","-0070,1","99999,9",,,,,"10230,1,99999,9",,,,,"MET045METAR ENDR 280950Z AUTO 18015KT 02/M07 Q1023;",
"01023199999","2010-12-28T10:20:00","4","64.35","7.8","0.0","DRAUGEN, NO","AUTO ","ENDR ","V020","190,1,N,0072,1","22000,1,9,N","999999,9,N,1","+0020,1","-0070,1","99999,9",,,,,"10230,1,99999,9",,,,,"MET045METAR ENDR 281020Z AUTO 19014KT 02/M07 Q1023;",
"01023199999","2010-12-28T10:50:00","4","64.35","7.8","0.0","DRAUGEN, NO","AUTO ","ENDR ","V020","200,1,N,0067,1","22000,1,9,N","999999,9,N,1","+0020,1","-0060,1","99999,9",,,,,"10230,1,99999,9",,,,,"MET045METAR ENDR 281050Z AUTO 20013KT 02/M06 Q1023;",
"01023199999","2010-12-28T11:20:00","4","64.35","7.8","0.0","DRAUGEN, NO","AUTO ","ENDR ","V020","190,1,N,0062,1","22000,1,9,N","999999,9,N,1","+0020,1","-0060,1","99999,9",,,,,"10230,1,99999,9",,,,,"MET045METAR ENDR 281120Z AUTO 19012KT 02/M06 Q1023;",
"01023199999","2010-12-28T11:50:00","4","64.35","7.8","0.0","DRAUGEN, NO","AUTO ","ENDR ","V020","170,1,N,0062,1","22000,1,9,N","999999,9,N,1","+0020,1","-0060,1","99999,9",,,,,"10230,1,99999,9",,,,,"MET045METAR ENDR 281150Z AUTO 17012KT 02/M06 Q1023;",
"01023199999","2010-12-28T12:20:00","4","64.35","7.8","0.0","DRAUGEN, NO","AUTO ","ENDR ","V020","180,1,N,0062,1","22000,1,9,N","999999,9,N,1","+0020,1","-0060,1","99999,9",,,,,"10230,1,99999,9",,,,,"MET045METAR ENDR 281220Z AUTO 18012KT 02/M06 Q1023;",
"01023199999","2010-12-28T12:50:00","4","64.35","7.8","0.0","DRAUGEN, NO","AUTO ","ENDR ","V020","180,1,N,0062,1","22000,1,9,N","999999,9,N,1","+0020,1","-0050,1","99999,9",,,,,"10230,1,99999,9",,,,,"MET045METAR ENDR 281250Z AUTO 18012KT 02/M05 Q1023;",
"01023199999","2010-12-28T13:20:00","4","64.35","7.8","0.0","DRAUGEN, NO","AUTO ","ENDR ","V020","190,1,N,0062,1","22000,1,9,N","999999,9,N,1","+0020,1","-0040,1","99999,9",,,,,"10230,1,99999,9",,,,,"MET045METAR ENDR 281320Z AUTO 19012KT 02/M04 Q1023;",
"01023199999","2010-12-28T13:50:00","4","64.35","7.8","0.0","DRAUGEN, NO","AUTO ","ENDR ","V020","190,1,N,0057,1","22000,1,9,N","999999,9,N,1","+0020,1","-0030,1","99999,9",,,,,"10240,1,99999,9",,,,,"MET045METAR ENDR 281350Z AUTO 19011KT 02/M03 Q1024;",
"01023199999","2010-12-28T14:20:00","4","64.35","7.8","0.0","DRAUGEN, NO","AUTO ","ENDR ","V020","180,1,N,0057,1","22000,1,9,N","999999,9,N,1","+0020,1","-0010,1","99999,9",,,,,"10230,1,99999,9",,,,,"MET045METAR ENDR 281420Z AUTO 18011KT 02/M01 Q1023;",
"01023199999","2010-12-28T14:50:00","4","64.35","7.8","0.0","DRAUGEN, NO","AUTO ","ENDR ","V020","190,1,N,0067,1","22000,1,9,N","999999,9,N,1","+0010,1","-0010,1","99999,9",,,,,"10230,1,99999,9",,,,,"MET045METAR ENDR 281450Z AUTO 19013KT 01/M01 Q1023;",
"01023199999","2010-12-28T15:50:00","4","64.35","7.8","0.0","DRAUGEN, NO","AUTO ","ENDR ","V020","200,1,N,0057,1","22000,1,9,N","999999,9,N,1","+0020,1","-0010,1","99999,9",,,,,"10230,1,99999,9",,,,,"MET045METAR ENDR 281550Z AUTO 20011KT 02/M01 Q1023;",
"01023199999","2010-12-28T16:20:00","4","64.35","7.8","0.0","DRAUGEN, NO","AUTO ","ENDR ","V020","210,1,N,0067,1","22000,1,9,N","999999,9,N,1","+0020,1","+0000,1","99999,9",,,,,"10240,1,99999,9",,,,,"MET045METAR ENDR 281620Z AUTO 21013KT 02/M00 Q1024;",
"01023199999","2010-12-28T16:50:00","4","64.35","7.8","0.0","DRAUGEN, NO","AUTO ","ENDR ","V020","200,1,N,0067,1","22000,1,9,N","999999,9,N,1","+0010,1","+0000,1","99999,9",,,,,"10230,1,99999,9",,,,,"MET045METAR ENDR 281650Z AUTO 20013KT 01/M00 Q1023;",
"01023199999","2010-12-28T17:20:00","4","64.35","7.8","0.0","DRAUGEN, NO","AUTO ","ENDR ","V020","210,1,N,0062,1","22000,1,9,N","999999,9,N,1","+0020,1","-0010,1","99999,9",,,,,"10230,1,99999,9",,,,,"MET045METAR ENDR 281720Z AUTO 21012KT 02/M01 Q1023;",
"01023199999","2010-12-28T17:50:00","4","64.35","7.8","0.0","DRAUGEN, NO","AUTO ","ENDR ","V020","220,1,N,0067,1","22000,1,9,N","999999,9,N,1","+0020,1","-0020,1","99999,9",,,,,"10230,1,99999,9",,,,,"MET045METAR ENDR 281750Z AUTO 22013KT 02/M02 Q1023;",
"01023199999","2010-12-28T18:20:00","4","64.35","7.8","0.0","DRAUGEN, NO","AUTO ","ENDR ","V020","230,1,N,0082,1","22000,1,9,N","999999,9,N,1","+0020,1","-0030,1","99999,9",,,,,"10230,1,99999,9",,,,,"MET045METAR ENDR 281820Z AUTO 23016KT 02/M03 Q1023;",
"01023199999","2010-12-28T18:50:00","4","64.35","7.8","0.0","DRAUGEN, NO","AUTO ","ENDR ","V020","220,1,N,0087,1","22000,1,9,N","999999,9,N,1","+0020,1","-0030,1","99999,9",,,,,"10230,1,99999,9",,,,,"MET045METAR ENDR 281850Z AUTO 22017KT 02/M03 Q1023;",
"01023199999","2010-12-28T19:20:00","4","64.35","7.8","0.0","DRAUGEN, NO","AUTO ","ENDR ","V020","220,1,N,0087,1","22000,1,9,N","999999,9,N,1","+0020,1","-0030,1","99999,9",,,,,"10230,1,99999,9",,,,,"MET045METAR ENDR 281920Z AUTO 22017KT 02/M03 Q1023;",
"01023199999","2010-12-28T19:50:00","4","64.35","7.8","0.0","DRAUGEN, NO","AUTO ","ENDR ","V020","230,1,N,0093,1","22000,1,9,N","999999,9,N,1","+0020,1","-0020,1","99999,9",,,,,"10240,1,99999,9",,,,,"MET045METAR ENDR 281950Z AUTO 23018KT 02/M02 Q1024;",
"01023199999","2010-12-28T20:20:00","4","64.35","7.8","0.0","DRAUGEN, NO","AUTO ","ENDR ","V020","230,1,N,0087,1","22000,1,9,N","999999,9,N,1","+0020,1","-0030,1","99999,9",,,,,"10240,1,99999,9",,,,,"MET045METAR ENDR 282020Z AUTO 23017KT 02/M03 Q1024;",
"01023199999","2010-12-28T20:50:00","4","64.35","7.8","0.0","DRAUGEN, NO","AUTO ","ENDR ","V020","230,1,N,0082,1","22000,1,9,N","999999,9,N,1","+0030,1","-0030,1","99999,9",,,,,"10240,1,99999,9",,,,,"MET045METAR ENDR 282050Z AUTO 23016KT 03/M03 Q1024;",
"01023199999","2010-12-28T21:20:00","4","64.35","7.8","0.0","DRAUGEN, NO","AUTO ","ENDR ","V020","220,1,N,0087,1","22000,1,9,N","999999,9,N,1","+0030,1","-0040,1","99999,9",,,,,"10240,1,99999,9",,,,,"MET045METAR ENDR 282120Z AUTO 22017KT 03/M04 Q1024;",
"01023199999","2010-12-28T21:50:00","4","64.35","7.8","0.0","DRAUGEN, NO","AUTO ","ENDR ","V020","220,1,N,0082,1","22000,1,9,N","999999,9,N,1","+0030,1","-0030,1","99999,9",,,,,"10240,1,99999,9",,,,,"MET045METAR ENDR 282150Z AUTO 22016KT 03/M03 Q1024;",
"01023199999","2010-12-28T22:20:00","4","64.35","7.8","0.0","DRAUGEN, NO","AUTO ","ENDR ","V020","220,1,N,0087,1","22000,1,9,N","999999,9,N,1","+0020,1","-0030,1","99999,9",,,,,"10240,1,99999,9",,,,,"MET045METAR ENDR 282220Z AUTO 22017KT 02/M03 Q1024;",
"01023199999","2010-12-28T22:50:00","4","64.35","7.8","0.0","DRAUGEN, NO","AUTO ","ENDR ","V020","220,1,N,0087,1","22000,1,9,N","999999,9,N,1","+0020,1","-0040,1","99999,9",,,,,"10240,1,99999,9",,,,,"MET045METAR ENDR 282250Z AUTO 22017KT 02/M04 Q1024;",
"01023199999","2010-12-28T23:20:00","4","64.35","7.8","0.0","DRAUGEN, NO","AUTO ","ENDR ","V020","220,1,N,0077,1","22000,1,9,N","999999,9,N,1","+0020,1","-0040,1","99999,9",,,,,"10240,1,99999,9",,,,,"MET045METAR ENDR 282320Z AUTO 22015KT 02/M04 Q1024;",
"01023199999","2010-12-28T23:50:00","4","64.35","7.8","0.0","DRAUGEN, NO","AUTO ","ENDR ","V020","210,1,N,0082,1","22000,1,9,N","999999,9,N,1","+0020,1","-0040,1","99999,9",,,,,"10230,1,99999,9",,,,,"MET045METAR ENDR 282350Z AUTO 21016KT 02/M04 Q1023;",
"01023199999","2010-12-29T00:20:00","4","64.35","7.8","0.0","DRAUGEN, NO","AUTO ","ENDR ","V020","220,1,N,0082,1","22000,1,9,N","999999,9,N,1","+0020,1","-0040,1","99999,9",,,,,"10230,1,99999,9",,,,,"MET045METAR ENDR 290020Z AUTO 22016KT 02/M04 Q1023;",
"01023199999","2010-12-29T00:50:00","4","64.35","7.8","0.0","DRAUGEN, NO","AUTO ","ENDR ","V020","220,1,N,0093,1","22000,1,9,N","999999,9,N,1","+0020,1","-0040,1","99999,9",,,,,"10230,1,99999,9",,,,,"MET045METAR ENDR 290050Z AUTO 22018KT 02/M04 Q1023;",
"01023199999","2010-12-29T01:20:00","4","64.35","7.8","0.0","DRAUGEN, NO","AUTO ","ENDR ","V020","220,1,N,0093,1","22000,1,9,N","999999,9,N,1","+0020,1","-0040,1","99999,9",,,,,"10230,1,99999,9",,,,,"MET045METAR ENDR 290120Z AUTO 22018KT 02/M04 Q1023;",
"01023199999","2010-12-29T01:50:00","4","64.35","7.8","0.0","DRAUGEN, NO","AUTO ","ENDR ","V020","210,1,N,0082,1","22000,1,9,N","999999,9,N,1","+0020,1","-0040,1","99999,9",,,,,"10230,1,99999,9",,,,,"MET045METAR ENDR 290150Z AUTO 21016KT 02/M04 Q1023;",
"01023199999","2010-12-29T02:20:00","4","64.35","7.8","0.0","DRAUGEN, NO","AUTO ","ENDR ","V020","210,1,N,0082,1","22000,1,9,N","999999,9,N,1","+0020,1","-0030,1","99999,9",,,,,"10230,1,99999,9",,,,,"MET045METAR ENDR 290220Z AUTO 21016KT 02/M03 Q1023;",
"01023199999","2010-12-29T02:50:00","4","64.35","7.8","0.0","DRAUGEN, NO","AUTO ","ENDR ","V020","210,1,N,0082,1","22000,1,9,N","999999,9,N,1","+0020,1","-0040,1","99999,9",,,,,"10230,1,99999,9",,,,,"MET045METAR ENDR 290250Z AUTO 21016KT 02/M04 Q1023;",
"01023199999","2010-12-29T03:20:00","4","64.35","7.8","0.0","DRAUGEN, NO","AUTO ","ENDR ","V020","210,1,N,0082,1","22000,1,9,N","999999,9,N,1","+0020,1","-0040,1","99999,9",,,,,"10230,1,99999,9",,,,,"MET045METAR ENDR 290320Z AUTO 21016KT 02/M04 Q1023;",
"01023199999","2010-12-29T03:50:00","4","64.35","7.8","0.0","DRAUGEN, NO","AUTO ","ENDR ","V020","210,1,N,0082,1","22000,1,9,N","999999,9,N,1","+0020,1","-0040,1","99999,9",,,,,"10230,1,99999,9",,,,,"MET045METAR ENDR 290350Z AUTO 21016KT 02/M04 Q1023;",
"01023199999","2010-12-29T04:20:00","4","64.35","7.8","0.0","DRAUGEN, NO","AUTO ","ENDR ","V020","210,1,N,0082,1","22000,1,9,N","999999,9,N,1","+0020,1","-0040,1","99999,9",,,,,"10220,1,99999,9",,,,,"MET045METAR ENDR 290420Z AUTO 21016KT 02/M04 Q1022;",
"01023199999","2010-12-29T04:50:00","4","64.35","7.8","0.0","DRAUGEN, NO","AUTO ","ENDR ","V020","210,1,N,0087,1","22000,1,9,N","999999,9,N,1","+0020,1","-0040,1","99999,9",,,,,"10220,1,99999,9",,,,,"MET045METAR ENDR 290450Z AUTO 21017KT 02/M04 Q1022;",
"01023199999","2010-12-29T05:20:00","4","64.35","7.8","0.0","DRAUGEN, NO","AUTO ","ENDR ","V020","210,1,N,0087,1","22000,1,9,N","999999,9,N,1","+0020,1","-0050,1","99999,9",,,,,"10220,1,99999,9",,,,,"MET045METAR ENDR 290520Z AUTO 21017KT 02/M05 Q1022;",
"01023199999","2010-12-29T05:50:00","4","64.35","7.8","0.0","DRAUGEN, NO","AUTO ","ENDR ","V020","210,1,N,0093,1","22000,1,9,N","999999,9,N,1","+0020,1","-0050,1","99999,9",,,,,"10220,1,99999,9",,,,,"MET045METAR ENDR 290550Z AUTO 21018KT 02/M05 Q1022;",
"01023199999","2010-12-29T06:50:00","4","64.35","7.8","0.0","DRAUGEN, NO","AUTO ","ENDR ","V020","210,1,N,0103,1","22000,1,9,N","999999,9,N,1","+0020,1","-0050,1","99999,9",,,,,"10220,1,99999,9",,,,,"MET045METAR ENDR 290650Z AUTO 21020KT 02/M05 Q1022;",
"01023199999","2010-12-29T07:20:00","4","64.35","7.8","0.0","DRAUGEN, NO","AUTO ","ENDR ","V020","210,1,N,0093,1","22000,1,9,N","999999,9,N,1","+0020,1","-0040,1","99999,9",,,,,"10220,1,99999,9",,,,,"MET045METAR ENDR 290720Z AUTO 21018KT 02/M04 Q1022;",
"01023199999","2010-12-29T07:50:00","4","64.35","7.8","0.0","DRAUGEN, NO","AUTO ","ENDR ","V020","210,1,N,0098,1","22000,1,9,N","999999,9,N,1","+0010,1","-0050,1","99999,9",,,,,"10220,1,99999,9",,,,,"MET045METAR ENDR 290750Z AUTO 21019KT 01/M05 Q1022;",
"01023199999","2010-12-29T08:20:00","4","64.35","7.8","0.0","DRAUGEN, NO","AUTO ","ENDR ","V020","210,1,N,0103,1","22000,1,9,N","999999,9,N,1","+0010,1","-0050,1","99999,9",,,,,"10220,1,99999,9",,,,,"MET045METAR ENDR 290820Z AUTO 21020KT 01/M05 Q1022;",
"01023199999","2010-12-29T08:50:00","4","64.35","7.8","0.0","DRAUGEN, NO","AUTO ","ENDR ","V020","210,1,N,0108,1","22000,1,9,N","999999,9,N,1","+0010,1","-0050,1","99999,9",,,,,"10220,1,99999,9",,,,,"MET045METAR ENDR 290850Z AUTO 21021KT 01/M05 Q1022;",
"01023199999","2010-12-29T09:20:00","4","64.35","7.8","0.0","DRAUGEN, NO","AUTO ","ENDR ","V020","200,1,N,0098,1","22000,1,9,N","999999,9,N,1","+0010,1","-0060,1","99999,9",,,,,"10220,1,99999,9",,,,,"MET045METAR ENDR 290920Z AUTO 20019KT 01/M06 Q1022;",
"01023199999","2010-12-29T09:50:00","4","64.35","7.8","0.0","DRAUGEN, NO","AUTO ","ENDR ","V020","190,1,N,0098,1","22000,1,9,N","999999,9,N,1","+0010,1","-0060,1","99999,9",,,,,"10210,1,99999,9",,,,,"MET045METAR ENDR 290950Z AUTO 19019KT 01/M06 Q1021;",
"01023199999","2010-12-29T10:20:00","4","64.35","7.8","0.0","DRAUGEN, NO","AUTO ","ENDR ","V020","200,1,N,0098,1","22000,1,9,N","999999,9,N,1","+0010,1","-0070,1","99999,9",,,,,"10210,1,99999,9",,,,,"MET045METAR ENDR 291020Z AUTO 20019KT 01/M07 Q1021;",
"01023199999","2010-12-29T10:50:00","4","64.35","7.8","0.0","DRAUGEN, NO","AUTO ","ENDR ","V020","190,1,N,0087,1","22000,1,9,N","999999,9,N,1","+0010,1","-0050,1","99999,9",,,,,"10210,1,99999,9",,,,,"MET045METAR ENDR 291050Z AUTO 19017KT 01/M05 Q1021;",
"01023199999","2010-12-29T11:20:00","4","64.35","7.8","0.0","DRAUGEN, NO","AUTO ","ENDR ","V020","190,1,N,0098,1","22000,1,9,N","999999,9,N,1","+0010,1","-0040,1","99999,9",,,,,"10200,1,99999,9",,,,,"MET045METAR ENDR 291120Z AUTO 19019KT 01/M04 Q1020;",
"01023199999","2010-12-29T11:50:00","4","64.35","7.8","0.0","DRAUGEN, NO","AUTO ","ENDR ","V020","180,1,N,0113,1","22000,1,9,N","999999,9,N,1","+0010,1","-0030,1","99999,9",,,,,"10190,1,99999,9",,,,,"MET045METAR ENDR 291150Z AUTO 18022KT 01/M03 Q1019;",
"01023199999","2010-12-29T12:50:00","4","64.35","7.8","0.0","DRAUGEN, NO","AUTO ","ENDR ","V020","190,1,N,0103,1","22000,1,9,N","999999,9,N,1","+0010,1","-0040,1","99999,9",,,,,"10190,1,99999,9",,,,,"MET045METAR ENDR 291250Z AUTO 19020KT 01/M04 Q1019;",
"01023199999","2010-12-29T13:20:00","4","64.35","7.8","0.0","DRAUGEN, NO","AUTO ","ENDR ","V020","190,1,N,0118,1","22000,1,9,N","999999,9,N,1","+0010,1","-0030,1","99999,9",,,,,"10180,1,99999,9",,,,,"MET045METAR ENDR 291320Z AUTO 19023KT 01/M03 Q1018;",
"01023199999","2010-12-29T13:50:00","4","64.35","7.8","0.0","DRAUGEN, NO","AUTO ","ENDR ","V020","190,1,N,0129,1","22000,1,9,N","999999,9,N,1","+0020,1","-0040,1","99999,9",,,,,"10180,1,99999,9",,,,,"MET045METAR ENDR 291350Z AUTO 19025KT 02/M04 Q1018;",
"01023199999","2010-12-29T14:20:00","4","64.35","7.8","0.0","DRAUGEN, NO","AUTO ","ENDR ","V020","200,1,N,0134,1","22000,1,9,N","999999,9,N,1","+0020,1","-0030,1","99999,9",,,,,"10169,1,99999,9",,,,,"MET045METAR ENDR 291420Z AUTO 20026KT 02/M03 Q1017;",
"01023199999","2010-12-29T14:50:00","4","64.35","7.8","0.0","DRAUGEN, NO","AUTO ","ENDR ","V020","200,1,N,0139,1","22000,1,9,N","999999,9,N,1","+0020,1","-0010,1","99999,9",,,,,"10169,1,99999,9",,,,,"MET045METAR ENDR 291450Z AUTO 20027KT 02/M01 Q1017;",
"01023199999","2010-12-29T15:20:00","4","64.35","7.8","0.0","DRAUGEN, NO","AUTO ","ENDR ","V020","200,1,N,0159,1","22000,1,9,N","999999,9,N,1","+0020,1","-0010,1","99999,9",,,,,"10159,1,99999,9",,,,,"MET045METAR ENDR 291520Z AUTO 20031KT 02/M01 Q1016;",
"01023199999","2010-12-29T15:50:00","4","64.35","7.8","0.0","DRAUGEN, NO","AUTO ","ENDR ","V020","200,1,N,0170,1","22000,1,9,N","999999,9,N,1","+0010,1","+0000,1","99999,9",,,,,"10159,1,99999,9",,,,,"MET045METAR ENDR 291550Z AUTO 20033KT 01/M00 Q1016;",
"01023199999","2010-12-29T16:20:00","4","64.35","7.8","0.0","DRAUGEN, NO","AUTO ","ENDR ","V020","200,1,N,0170,1","22000,1,9,N","999999,9,N,1","+0010,1","+0000,1","99999,9",,,,,"10149,1,99999,9",,,,,"MET044METAR ENDR 291620Z AUTO 20033KT 01/00 Q1015;",
"01023199999","2010-12-29T16:50:00","4","64.35","7.8","0.0","DRAUGEN, NO","AUTO ","ENDR ","V020","200,1,N,0190,1","22000,1,9,N","999999,9,N,1","+0020,1","+0010,1","99999,9",,,,,"10139,1,99999,9",,,,,"MET044METAR ENDR 291650Z AUTO 20037KT 02/01 Q1014;",
"01023199999","2010-12-29T17:20:00","4","64.35","7.8","0.0","DRAUGEN, NO","AUTO ","ENDR ","V020","200,1,N,0201,1","22000,1,9,N","999999,9,N,1","+0020,1","+0010,1","99999,9",,,,,"10139,1,99999,9",,,,,"MET044METAR ENDR 291720Z AUTO 20039KT 02/01 Q1014;",
"01023199999","2010-12-29T17:50:00","4","64.35","7.8","0.0","DRAUGEN, NO","AUTO ","ENDR ","V020","210,1,N,0206,1","22000,1,9,N","999999,9,N,1","+0030,1","+0010,1","99999,9",,,,,"10129,1,99999,9",,,,,"MET044METAR ENDR 291750Z AUTO 21040KT 03/01 Q1013;",
"01023199999","2010-12-29T18:20:00","4","64.35","7.8","0.0","DRAUGEN, NO","AUTO ","ENDR ","V020","210,1,N,0221,1","22000,1,9,N","999999,9,N,1","+0030,1","+0010,1","99999,9",,,,,"10129,1,99999,9",,,,,"MET044METAR ENDR 291820Z AUTO 21043KT 03/01 Q1013;",
"01023199999","2010-12-29T18:50:00","4","64.35","7.8","0.0","DRAUGEN, NO","AUTO ","ENDR ","V020","220,1,N,0242,1","22000,1,9,N","999999,9,N,1","+0040,1","+0010,1","99999,9",,,,,"10119,1,99999,9",,,,,"MET044METAR ENDR 291850Z AUTO 22047KT 04/01 Q1012;",
"01023199999","2010-12-29T19:20:00","4","64.35","7.8","0.0","DRAUGEN, NO","AUTO ","ENDR ","V020","220,1,N,0242,1","22000,1,9,N","999999,9,N,1","+0040,1","+0020,1","99999,9",,,,,"10119,1,99999,9",,,,,"MET044METAR ENDR 291920Z AUTO 22047KT 04/02 Q1012;",
"01023199999","2010-12-29T19:50:00","4","64.35","7.8","0.0","DRAUGEN, NO","AUTO ","ENDR ","V020","220,1,N,0216,1","22000,1,9,N","999999,9,N,1","+0040,1","+0020,1","99999,9",,,,,"10108,1,99999,9",,,,,"MET044METAR ENDR 291950Z AUTO 22042KT 04/02 Q1011;",
"01023199999","2010-12-29T20:20:00","4","64.35","7.8","0.0","DRAUGEN, NO","AUTO ","ENDR ","V020","220,1,N,0237,1","22000,1,9,N","999999,9,N,1","+0040,1","+0020,1","99999,9",,,,,"10108,1,99999,9",,,,,"MET044METAR ENDR 292020Z AUTO 22046KT 04/02 Q1011;",
"01023199999","2010-12-29T20:50:00","4","64.35","7.8","0.0","DRAUGEN, NO","AUTO ","ENDR ","V020","220,1,N,0237,1","22000,1,9,N","999999,9,N,1","+0050,1","+0030,1","99999,9",,,,,"10108,1,99999,9",,,,,"MET044METAR ENDR 292050Z AUTO 22046KT 05/03 Q1011;",
"01023199999","2010-12-29T21:20:00","4","64.35","7.8","0.0","DRAUGEN, NO","AUTO ","ENDR ","V020","230,1,N,0237,1","22000,1,9,N","999999,9,N,1","+0050,1","+0030,1","99999,9",,,,,"10108,1,99999,9",,,,,"MET044METAR ENDR 292120Z AUTO 23046KT 05/03 Q1011;",
"01023199999","2010-12-29T21:50:00","4","64.35","7.8","0.0","DRAUGEN, NO","AUTO ","ENDR ","V020","230,1,N,0231,1","22000,1,9,N","999999,9,N,1","+0050,1","+0040,1","99999,9",,,,,"10108,1,99999,9",,,,"0288,1","MET047METAR ENDR 292150Z AUTO 23045G56KT 05/04 Q1011;",
"01023199999","2010-12-29T22:20:00","4","64.35","7.8","0.0","DRAUGEN, NO","AUTO ","ENDR ","V020","260,1,N,0108,1","22000,1,9,N","999999,9,N,1","+0050,1","+0030,1","99999,9",,,,,"10119,1,99999,9",,,,,"MET044METAR ENDR 292220Z AUTO 26021KT 05/03 Q1012;",
"01023199999","2010-12-29T22:50:00","4","64.35","7.8","0.0","DRAUGEN, NO","AUTO ","ENDR ","V020","270,1,N,0103,1","22000,1,9,N","999999,9,N,1","+0050,1","+0020,1","99999,9",,,,,"10119,1,99999,9",,,,,"MET044METAR ENDR 292250Z AUTO 27020KT 05/02 Q1012;",
"01023199999","2010-12-29T23:20:00","4","64.35","7.8","0.0","DRAUGEN, NO","AUTO ","ENDR ","V020","250,1,N,0103,1","22000,1,9,N","999999,9,N,1","+0050,1","+0030,1","99999,9",,,,,"10119,1,99999,9",,,,,"MET044METAR ENDR 292320Z AUTO 25020KT 05/03 Q1012;",
"01023199999","2010-12-29T23:50:00","4","64.35","7.8","0.0","DRAUGEN, NO","AUTO ","ENDR ","V020","290,1,N,0108,1","22000,1,9,N","999999,9,N,1","+0060,1","+0010,1","99999,9",,,,,"10119,1,99999,9",,,,,"MET044METAR ENDR 292350Z AUTO 29021KT 06/01 Q1012;",
"01023199999","2010-12-30T00:20:00","4","64.35","7.8","0.0","DRAUGEN, NO","AUTO ","ENDR ","V020","280,1,N,0118,1","22000,1,9,N","999999,9,N,1","+0050,1","+0010,1","99999,9",,,,,"10119,1,99999,9",,,,,"MET044METAR ENDR 300020Z AUTO 28023KT 05/01 Q1012;",
"01023199999","2010-12-30T00:50:00","4","64.35","7.8","0.0","DRAUGEN, NO","AUTO ","ENDR ","V020","260,1,N,0118,1","22000,1,9,N","999999,9,N,1","+0040,1","+0010,1","99999,9",,,,,"10119,1,99999,9",,,,,"MET044METAR ENDR 300050Z AUTO 26023KT 04/01 Q1012;",
"01023199999","2010-12-30T01:20:00","4","64.35","7.8","0.0","DRAUGEN, NO","AUTO ","ENDR ","V020","260,1,N,0108,1","22000,1,9,N","999999,9,N,1","+0040,1","+0020,1","99999,9",,,,,"10129,1,99999,9",,,,,"MET044METAR ENDR 300120Z AUTO 26021KT 04/02 Q1013;",
"01023199999","2010-12-30T01:50:00","4","64.35","7.8","0.0","DRAUGEN, NO","AUTO ","ENDR ","V020","240,1,N,0082,1","22000,1,9,N","999999,9,N,1","+0040,1","+0020,1","99999,9",,,,,"10129,1,99999,9",,,,,"MET044METAR ENDR 300150Z AUTO 24016KT 04/02 Q1013;",
"01023199999","2010-12-30T02:20:00","4","64.35","7.8","0.0","DRAUGEN, NO","AUTO ","ENDR ","V020","280,1,N,0098,1","22000,1,9,N","999999,9,N,1","+0050,1","-0010,1","99999,9",,,,,"10119,1,99999,9",,,,,"MET045METAR ENDR 300220Z AUTO 28019KT 05/M01 Q1012;",
"01023199999","2010-12-30T02:50:00","4","64.35","7.8","0.0","DRAUGEN, NO","AUTO ","ENDR ","V020","300,1,N,0098,1","22000,1,9,N","999999,9,N,1","+0050,1","-0010,1","99999,9",,,,,"10119,1,99999,9",,,,,"MET045METAR ENDR 300250Z AUTO 30019KT 05/M01 Q1012;",
"01023199999","2010-12-30T03:20:00","4","64.35","7.8","0.0","DRAUGEN, NO","AUTO ","ENDR ","V020","280,1,N,0129,1","22000,1,9,N","999999,9,N,1","+0050,1","-0010,1","99999,9",,,,,"10119,1,99999,9",,,,,"MET045METAR ENDR 300320Z AUTO 28025KT 05/M01 Q1012;",
"01023199999","2010-12-30T03:50:00","4","64.35","7.8","0.0","DRAUGEN, NO","AUTO ","ENDR ","V020","280,1,N,0098,1","22000,1,9,N","999999,9,N,1","+0050,1","-0010,1","99999,9",,,,,"10119,1,99999,9",,,,,"MET045METAR ENDR 300350Z AUTO 28019KT 05/M01 Q1012;",
"01023199999","2010-12-30T04:20:00","4","64.35","7.8","0.0","DRAUGEN, NO","AUTO ","ENDR ","V020","270,1,N,0134,1","22000,1,9,N","999999,9,N,1","+0050,1","-0020,1","99999,9",,,,,"10119,1,99999,9",,,,,"MET045METAR ENDR 300420Z AUTO 27026KT 05/M02 Q1012;",
"01023199999","2010-12-30T04:50:00","4","64.35","7.8","0.0","DRAUGEN, NO","AUTO ","ENDR ","V020","270,1,N,0144,1","22000,1,9,N","999999,9,N,1","+0050,1","-0040,1","99999,9",,,,,"10119,1,99999,9",,,,,"MET045METAR ENDR 300450Z AUTO 27028KT 05/M04 Q1012;",
"01023199999","2010-12-30T05:20:00","4","64.35","7.8","0.0","DRAUGEN, NO","AUTO ","ENDR ","V020","270,1,N,0149,1","22000,1,9,N","999999,9,N,1","+0050,1","-0030,1","99999,9",,,,,"10108,1,99999,9",,,,,"MET045METAR ENDR 300520Z AUTO 27029KT 05/M03 Q1011;",
"01023199999","2010-12-30T05:50:00","4","64.35","7.8","0.0","DRAUGEN, NO","AUTO ","ENDR ","V020","260,1,N,0159,1","22000,1,9,N","999999,9,N,1","+0050,1","-0010,1","99999,9",,,,,"10108,1,99999,9",,,,,"MET045METAR ENDR 300550Z AUTO 26031KT 05/M01 Q1011;",
"01023199999","2010-12-30T06:20:00","4","64.35","7.8","0.0","DRAUGEN, NO","AUTO ","ENDR ","V020","280,1,N,0185,1","22000,1,9,N","999999,9,N,1","+0020,1","+0000,1","99999,9",,,,,"10108,1,99999,9",,,,,"MET044METAR ENDR 300620Z AUTO 28036KT 02/00 Q1011;",
"01023199999","2010-12-30T06:50:00","4","64.35","7.8","0.0","DRAUGEN, NO","AUTO ","ENDR ","V020","270,1,N,0129,1","22000,1,9,N","999999,9,N,1","+0030,1","+0000,1","99999,9",,,,,"10108,1,99999,9",,,,,"MET045METAR ENDR 300650Z AUTO 27025KT 03/M00 Q1011;",
"01023199999","2010-12-30T07:20:00","4","64.35","7.8","0.0","DRAUGEN, NO","AUTO ","ENDR ","V020","290,1,N,0144,1","22000,1,9,N","999999,9,N,1","+0040,1","+0000,1","99999,9",,,,,"10108,1,99999,9",,,,,"MET045METAR ENDR 300720Z AUTO 29028KT 04/M00 Q1011;",
"01023199999","2010-12-30T07:50:00","4","64.35","7.8","0.0","DRAUGEN, NO","AUTO ","ENDR ","V020","280,1,N,0180,1","22000,1,9,N","999999,9,N,1","+0030,1","-0010,1","99999,9",,,,,"10108,1,99999,9",,,,"0247,1","MET048METAR ENDR 300750Z AUTO 28035G48KT 03/M01 Q1011;",
"01023199999","2010-12-30T08:20:00","4","64.35","7.8","0.0","DRAUGEN, NO","AUTO ","ENDR ","V020","290,1,N,0201,1","22000,1,9,N","999999,9,N,1","+0030,1","+0000,1","99999,9",,,,,"10102,1,99999,9",,,,,"MET045METAR ENDR 300820Z AUTO 29039KT 03/M00 Q1010;",
"01023199999","2010-12-30T08:50:00","4","64.35","7.8","0.0","DRAUGEN, NO","AUTO ","ENDR ","V020","290,1,N,0175,1","22000,1,9,N","999999,9,N,1","+0030,1","-0020,1","99999,9",,,,,"10108,1,99999,9",,,,,"MET045METAR ENDR 300850Z AUTO 29034KT 03/M02 Q1011;",
"01023199999","2010-12-30T09:50:00","4","64.35","7.8","0.0","DRAUGEN, NO","AUTO ","ENDR ","V020","310,1,N,0170,1","22000,1,9,N","999999,9,N,1","+0040,1","-0030,1","99999,9",,,,,"10108,1,99999,9",,,,,"MET045METAR ENDR 300950Z AUTO 31033KT 04/M03 Q1011;",
"01023199999","2010-12-30T10:20:00","4","64.35","7.8","0.0","DRAUGEN, NO","AUTO ","ENDR ","V020","310,1,N,0175,1","22000,1,9,N","999999,9,N,1","+0030,1","-0040,1","99999,9",,,,,"10102,1,99999,9",,,,,"MET045METAR ENDR 301020Z AUTO 31034KT 03/M04 Q1010;",
"01023199999","2010-12-30T10:50:00","4","64.35","7.8","0.0","DRAUGEN, NO","AUTO ","ENDR ","V020","310,1,N,0195,1","22000,1,9,N","999999,9,N,1","+0030,1","-0020,1","99999,9",,,,,"10102,1,99999,9",,,,,"MET045METAR ENDR 301050Z AUTO 31038KT 03/M02 Q1010;",
"01023199999","2010-12-30T11:20:00","4","64.35","7.8","0.0","DRAUGEN, NO","AUTO ","ENDR ","V020","290,1,N,0180,1","22000,1,9,N","999999,9,N,1","+0020,1","-0020,1","99999,9",,,,,"10102,1,99999,9",,,,,"MET045METAR ENDR 301120Z AUTO 29035KT 02/M02 Q1010;",
"01023199999","2010-12-30T11:50:00","4","64.35","7.8","0.0","DRAUGEN, NO","AUTO ","ENDR ","V020","300,1,N,0165,1","22000,1,9,N","999999,9,N,1","+0030,1","-0060,1","99999,9",,,,,"10102,1,99999,9",,,,,"MET045METAR ENDR 301150Z AUTO 30032KT 03/M06 Q1010;",
"01023199999","2010-12-30T12:50:00","4","64.35","7.8","0.0","DRAUGEN, NO","AUTO ","ENDR ","V020","300,1,N,0144,1","22000,1,9,N","999999,9,N,1","+0030,1","-0030,1","99999,9",,,,,"10102,1,99999,9",,,,,"MET045METAR ENDR 301250Z AUTO 30028KT 03/M03 Q1010;",
"01023199999","2010-12-30T13:20:00","4","64.35","7.8","0.0","DRAUGEN, NO","AUTO ","ENDR ","V020","310,1,N,0165,1","22000,1,9,N","999999,9,N,1","+0030,1","-0050,1","99999,9",,,,,"10102,1,99999,9",,,,,"MET045METAR ENDR 301320Z AUTO 31032KT 03/M05 Q1010;",
"01023199999","2010-12-30T13:50:00","4","64.35","7.8","0.0","DRAUGEN, NO","AUTO ","ENDR ","V020","300,1,N,0134,1","22000,1,9,N","999999,9,N,1","+0020,1","-0040,1","99999,9",,,,,"10108,1,99999,9",,,,,"MET045METAR ENDR 301350Z AUTO 30026KT 02/M04 Q1011;",
"01023199999","2010-12-30T14:20:00","4","64.35","7.8","0.0","DRAUGEN, NO","AUTO ","ENDR ","V020","320,1,N,0159,1","22000,1,9,N","999999,9,N,1","+0030,1","-0030,1","99999,9",,,,,"10108,1,99999,9",,,,,"MET045METAR ENDR 301420Z AUTO 32031KT 03/M03 Q1011;",
"01023199999","2010-12-30T14:50:00","4","64.35","7.8","0.0","DRAUGEN, NO","AUTO ","ENDR ","V020","310,1,N,0159,1","22000,1,9,N","999999,9,N,1","+0030,1","-0040,1","99999,9",,,,,"10108,1,99999,9",,,,,"MET045METAR ENDR 301450Z AUTO 31031KT 03/M04 Q1011;",
"01023199999","2010-12-30T15:50:00","4","64.35","7.8","0.0","DRAUGEN, NO","AUTO ","ENDR ","V020","300,1,N,0154,1","22000,1,9,N","999999,9,N,1","+0030,1","-0030,1","99999,9",,,,,"10108,1,99999,9",,,,,"MET045METAR ENDR 301550Z AUTO 30030KT 03/M03 Q1011;",
"01023199999","2010-12-30T16:20:00","4","64.35","7.8","0.0","DRAUGEN, NO","AUTO ","ENDR ","V020","310,1,N,0144,1","22000,1,9,N","999999,9,N,1","+0030,1","-0040,1","99999,9",,,,,"10108,1,99999,9",,,,,"MET045METAR ENDR 301620Z AUTO 31028KT 03/M04 Q1011;",
"01023199999","2010-12-30T16:50:00","4","64.35","7.8","0.0","DRAUGEN, NO","AUTO ","ENDR ","V020","300,1,N,0134,1","22000,1,9,N","999999,9,N,1","+0030,1","-0050,1","99999,9",,,,,"10108,1,99999,9",,,,,"MET045METAR ENDR 301650Z AUTO 30026KT 03/M05 Q1011;",
"01023199999","2010-12-30T17:20:00","4","64.35","7.8","0.0","DRAUGEN, NO","AUTO ","ENDR ","V020","310,1,N,0123,1","22000,1,9,N","999999,9,N,1","+0030,1","-0010,1","99999,9",,,,,"10108,1,99999,9",,,,,"MET045METAR ENDR 301720Z AUTO 31024KT 03/M01 Q1011;",
"01023199999","2010-12-30T18:20:00","4","64.35","7.8","0.0","DRAUGEN, NO","AUTO ","ENDR ","V020","320,1,N,0129,1","22000,1,9,N","999999,9,N,1","+0030,1","-0010,1","99999,9",,,,,"10108,1,99999,9",,,,,"MET045METAR ENDR 301820Z AUTO 32025KT 03/M01 Q1011;",
"01023199999","2010-12-30T18:50:00","4","64.35","7.8","0.0","DRAUGEN, NO","AUTO ","ENDR ","V020","320,1,N,0149,1","22000,1,9,N","999999,9,N,1","+0030,1","-0020,1","99999,9",,,,,"10108,1,99999,9",,,,"0206,1","MET048METAR ENDR 301850Z AUTO 32029G40KT 03/M02 Q1011;",
"01023199999","2010-12-30T19:20:00","4","64.35","7.8","0.0","DRAUGEN, NO","AUTO ","ENDR ","V020","290,1,N,0129,1","22000,1,9,N","999999,9,N,1","+0020,1","-0030,1","99999,9",,,,,"10108,1,99999,9",,,,,"MET045METAR ENDR 301920Z AUTO 29025KT 02/M03 Q1011;",
"01023199999","2010-12-30T19:50:00","4","64.35","7.8","0.0","DRAUGEN, NO","AUTO ","ENDR ","V020","300,1,N,0159,1","22000,1,9,N","999999,9,N,1","+0030,1","-0040,1","99999,9",,,,,"10108,1,99999,9",,,,,"MET045METAR ENDR 301950Z AUTO 30031KT 03/M04 Q1011;",
"01023199999","2010-12-30T20:20:00","4","64.35","7.8","0.0","DRAUGEN, NO","AUTO ","ENDR ","V020","300,1,N,0159,1","22000,1,9,N","999999,9,N,1","+0030,1","-0010,1","99999,9",,,,,"10102,1,99999,9",,,,,"MET045METAR ENDR 302020Z AUTO 30031KT 03/M01 Q1010;",
"01023199999","2010-12-30T20:50:00","4","64.35","7.8","0.0","DRAUGEN, NO","AUTO ","ENDR ","V020","310,1,N,0159,1","22000,1,9,N","999999,9,N,1","+0030,1","-0040,1","99999,9",,,,,"10102,1,99999,9",,,,,"MET045METAR ENDR 302050Z AUTO 31031KT 03/M04 Q1010;",
"01023199999","2010-12-30T21:20:00","4","64.35","7.8","0.0","DRAUGEN, NO","AUTO ","ENDR ","V020","310,1,N,0154,1","22000,1,9,N","999999,9,N,1","+0030,1","-0030,1","99999,9",,,,,"10102,1,99999,9",,,,,"MET045METAR ENDR 302120Z AUTO 31030KT 03/M03 Q1010;",
"01023199999","2010-12-30T21:50:00","4","64.35","7.8","0.0","DRAUGEN, NO","AUTO ","ENDR ","V020","320,1,N,0113,1","22000,1,9,N","999999,9,N,1","+0030,1","-0010,1","99999,9",,,,,"10102,1,99999,9",,,,,"MET045METAR ENDR 302150Z AUTO 32022KT 03/M01 Q1010;",
"01023199999","2010-12-30T22:20:00","4","64.35","7.8","0.0","DRAUGEN, NO","AUTO ","ENDR ","V020","320,1,N,0129,1","22000,1,9,N","999999,9,N,1","+0030,1","-0010,1","99999,9",,,,,"10108,1,99999,9",,,,,"MET045METAR ENDR 302220Z AUTO 32025KT 03/M01 Q1011;",
"01023199999","2010-12-30T22:50:00","4","64.35","7.8","0.0","DRAUGEN, NO","AUTO ","ENDR ","V020","310,1,N,0129,1","22000,1,9,N","999999,9,N,1","+0030,1","-0020,1","99999,9",,,,,"10102,1,99999,9",,,,,"MET045METAR ENDR 302250Z AUTO 31025KT 03/M02 Q1010;",
"01023199999","2010-12-30T23:20:00","4","64.35","7.8","0.0","DRAUGEN, NO","AUTO ","ENDR ","V020","310,1,N,0134,1","22000,1,9,N","999999,9,N,1","+0030,1","-0020,1","99999,9",,,,,"10102,1,99999,9",,,,,"MET045METAR ENDR 302320Z AUTO 31026KT 03/M02 Q1010;",
"01023199999","2010-12-30T23:50:00","4","64.35","7.8","0.0","DRAUGEN, NO","AUTO ","ENDR ","V020","310,1,N,0139,1","22000,1,9,N","999999,9,N,1","+0020,1","-0020,1","99999,9",,,,,"10102,1,99999,9",,,,,"MET045METAR ENDR 302350Z AUTO 31027KT 02/M02 Q1010;",
"01023199999","2010-12-31T00:20:00","4","64.35","7.8","0.0","DRAUGEN, NO","AUTO ","ENDR ","V020","280,1,N,0165,1","22000,1,9,N","999999,9,N,1","+0030,1","-0020,1","99999,9",,,,,"10102,1,99999,9",,,,,"MET045METAR ENDR 310020Z AUTO 28032KT 03/M02 Q1010;",
"01023199999","2010-12-31T00:50:00","4","64.35","7.8","0.0","DRAUGEN, NO","AUTO ","ENDR ","V020","310,1,N,0129,1","22000,1,9,N","999999,9,N,1","+0040,1","-0010,1","99999,9",,,,,"10102,1,99999,9",,,,,"MET045METAR ENDR 310050Z AUTO 31025KT 04/M01 Q1010;",
"01023199999","2010-12-31T01:20:00","4","64.35","7.8","0.0","DRAUGEN, NO","AUTO ","ENDR ","V020","290,1,N,0149,1","22000,1,9,N","999999,9,N,1","+0030,1","-0030,1","99999,9",,,,,"10091,1,99999,9",,,,,"MET045METAR ENDR 310120Z AUTO 29029KT 03/M03 Q1009;",
"01023199999","2010-12-31T01:50:00","4","64.35","7.8","0.0","DRAUGEN, NO","AUTO ","ENDR ","V020","290,1,N,0108,1","22000,1,9,N","999999,9,N,1","+0030,1","-0020,1","99999,9",,,,,"10102,1,99999,9",,,,,"MET045METAR ENDR 310150Z AUTO 29021KT 03/M02 Q1010;",
"01023199999","2010-12-31T02:20:00","4","64.35","7.8","0.0","DRAUGEN, NO","AUTO ","ENDR ","V020","270,1,N,0139,1","22000,1,9,N","999999,9,N,1","+0030,1","-0020,1","99999,9",,,,,"10091,1,99999,9",,,,,"MET045METAR ENDR 310220Z AUTO 27027KT 03/M02 Q1009;",
"01023199999","2010-12-31T02:50:00","4","64.35","7.8","0.0","DRAUGEN, NO","AUTO ","ENDR ","V020","280,1,N,0123,1","22000,1,9,N","999999,9,N,1","+0040,1","-0030,1","99999,9",,,,,"10091,1,99999,9",,,,,"MET045METAR ENDR 310250Z AUTO 28024KT 04/M03 Q1009;",
"01023199999","2010-12-31T03:20:00","4","64.35","7.8","0.0","DRAUGEN, NO","AUTO ","ENDR ","V020","270,1,N,0159,1","22000,1,9,N","999999,9,N,1","+0030,1","-0010,1","99999,9",,,,,"10081,1,99999,9",,,,,"MET045METAR ENDR 310320Z AUTO 27031KT 03/M01 Q1008;",
"01023199999","2010-12-31T03:50:00","4","64.35","7.8","0.0","DRAUGEN, NO","AUTO ","ENDR ","V020","260,1,N,0134,1","22000,1,9,N","999999,9,N,1","+0020,1","-0010,1","99999,9",,,,,"10081,1,99999,9",,,,,"MET045METAR ENDR 310350Z AUTO 26026KT 02/M01 Q1008;",
"01023199999","2010-12-31T04:20:00","4","64.35","7.8","0.0","DRAUGEN, NO","AUTO ","ENDR ","V020","260,1,N,0134,1","22000,1,9,N","999999,9,N,1","+0030,1","+0000,1","99999,9",,,,,"10071,1,99999,9",,,,,"MET045METAR ENDR 310420Z AUTO 26026KT 03/M00 Q1007;",
"01023199999","2010-12-31T04:50:00","4","64.35","7.8","0.0","DRAUGEN, NO","AUTO ","ENDR ","V020","270,1,N,0108,1","22000,1,9,N","999999,9,N,1","+0020,1","-0020,1","99999,9",,,,,"10071,1,99999,9",,,,,"MET045METAR ENDR 310450Z AUTO 27021KT 02/M02 Q1007;",
"01023199999","2010-12-31T05:20:00","4","64.35","7.8","0.0","DRAUGEN, NO","AUTO ","ENDR ","V020","250,1,N,0113,1","22000,1,9,N","999999,9,N,1","+0020,1","+0000,1","99999,9",,,,,"10071,1,99999,9",,,,,"MET045METAR ENDR 310520Z AUTO 25022KT 02/M00 Q1007;",
"01023199999","2010-12-31T05:50:00","4","64.35","7.8","0.0","DRAUGEN, NO","AUTO ","ENDR ","V020","250,1,N,0098,1","22000,1,9,N","999999,9,N,1","+0020,1","+0000,1","99999,9",,,,,"10061,1,99999,9",,,,,"MET044METAR ENDR 310550Z AUTO 25019KT 02/00 Q1006;",
"01023199999","2010-12-31T06:50:00","4","64.35","7.8","0.0","DRAUGEN, NO","AUTO ","ENDR ","V020","220,1,N,0082,1","22000,1,9,N","999999,9,N,1","+0020,1","+0010,1","99999,9",,,,,"10041,1,99999,9",,,,,"MET044METAR ENDR 310650Z AUTO 22016KT 02/01 Q1004;",
"01023199999","2010-12-31T07:20:00","4","64.35","7.8","0.0","DRAUGEN, NO","AUTO ","ENDR ","V020","210,1,N,0093,1","22000,1,9,N","999999,9,N,1","+0020,1","+0010,1","99999,9",,,,,"10031,1,99999,9",,,,,"MET044METAR ENDR 310720Z AUTO 21018KT 02/01 Q1003;",
"01023199999","2010-12-31T07:50:00","4","64.35","7.8","0.0","DRAUGEN, NO","AUTO ","ENDR ","V020","220,1,N,0108,1","22000,1,9,N","999999,9,N,1","+0020,1","+0010,1","99999,9",,,,,"10020,1,99999,9",,,,,"MET044METAR ENDR 310750Z AUTO 22021KT 02/01 Q1002;",
"01023199999","2010-12-31T08:20:00","4","64.35","7.8","0.0","DRAUGEN, NO","AUTO ","ENDR ","V020","210,1,N,0134,1","22000,1,9,N","999999,9,N,1","+0030,1","+0010,1","99999,9",,,,,"10010,1,99999,9",,,,,"MET044METAR ENDR 310820Z AUTO 21026KT 03/01 Q1001;",
"01023199999","2010-12-31T08:50:00","4","64.35","7.8","0.0","DRAUGEN, NO","AUTO ","ENDR ","V020","200,1,N,0118,1","22000,1,9,N","999999,9,N,1","+0020,1","+0010,1","99999,9",,,,,"09990,1,99999,9",,,,,"MET044METAR ENDR 310850Z AUTO 20023KT 02/01 Q0999;",
"01023199999","2010-12-31T09:50:00","4","64.35","7.8","0.0","DRAUGEN, NO","AUTO ","ENDR ","V020","200,1,N,0144,1","22000,1,9,N","999999,9,N,1","+0040,1","+0030,1","99999,9",,,,,"09949,1,99999,9",,,,,"MET044METAR ENDR 310950Z AUTO 20028KT 04/03 Q0995;",
"01023199999","2010-12-31T10:20:00","4","64.35","7.8","0.0","DRAUGEN, NO","AUTO ","ENDR ","V020","220,1,N,0134,1","22000,1,9,N","999999,9,N,1","+0050,1","+0040,1","99999,9",,,,,"09939,1,99999,9",,,,,"MET044METAR ENDR 311020Z AUTO 22026KT 05/04 Q0994;",
"01023199999","2010-12-31T10:50:00","4","64.35","7.8","0.0","DRAUGEN, NO","AUTO ","ENDR ","V020","240,1,N,0118,1","22000,1,9,N","999999,9,N,1","+0050,1","+0040,1","99999,9",,,,,"09919,1,99999,9",,,,,"MET044METAR ENDR 311050Z AUTO 24023KT 05/04 Q0992;",
"01023199999","2010-12-31T11:20:00","4","64.35","7.8","0.0","DRAUGEN, NO","AUTO ","ENDR ","V020","250,1,N,0139,1","22000,1,9,N","999999,9,N,1","+0050,1","+0040,1","99999,9",,,,,"09898,1,99999,9",,,,,"MET044METAR ENDR 311120Z AUTO 25027KT 05/04 Q0990;",
"01023199999","2010-12-31T11:50:00","4","64.35","7.8","0.0","DRAUGEN, NO","AUTO ","ENDR ","V020","270,1,N,0144,1","22000,1,9,N","999999,9,N,1","+0060,1","+0040,1","99999,9",,,,,"09892,1,99999,9",,,,,"MET044METAR ENDR 311150Z AUTO 27028KT 06/04 Q0989;",
"01023199999","2010-12-31T12:50:00","4","64.35","7.8","0.0","DRAUGEN, NO","AUTO ","ENDR ","V020","270,1,N,0139,1","22000,1,9,N","999999,9,N,1","+0050,1","+0030,1","99999,9",,,,,"09871,1,99999,9",,,,,"MET044METAR ENDR 311250Z AUTO 27027KT 05/03 Q0987;",
"01023199999","2010-12-31T13:20:00","4","64.35","7.8","0.0","DRAUGEN, NO","AUTO ","ENDR ","V020","270,1,N,0134,1","22000,1,9,N","999999,9,N,1","+0050,1","+0030,1","99999,9",,,,,"09861,1,99999,9",,,,,"MET044METAR ENDR 311320Z AUTO 27026KT 05/03 Q0986;",
"01023199999","2010-12-31T13:50:00","4","64.35","7.8","0.0","DRAUGEN, NO","AUTO ","ENDR ","V020","270,1,N,0123,1","22000,1,9,N","999999,9,N,1","+0050,1","+0030,1","99999,9",,,,,"09851,1,99999,9",,,,,"MET044METAR ENDR 311350Z AUTO 27024KT 05/03 Q0985;",
"01023199999","2010-12-31T14:20:00","4","64.35","7.8","0.0","DRAUGEN, NO","AUTO ","ENDR ","V020","270,1,N,0118,1","22000,1,9,N","999999,9,N,1","+0050,1","+0030,1","99999,9",,,,,"09841,1,99999,9",,,,,"MET044METAR ENDR 311420Z AUTO 27023KT 05/03 Q0984;",
"01023199999","2010-12-31T14:50:00","4","64.35","7.8","0.0","DRAUGEN, NO","AUTO ","ENDR ","V020","270,1,N,0206,1","22000,1,9,N","999999,9,N,1","+0020,1","+0010,1","99999,9",,,,,"09831,2,99999,9",,,,,"MET044METAR ENDR 311450Z AUTO 27040KT 02/01 Q0983;",
"01023199999","2010-12-31T15:50:00","4","64.35","7.8","0.0","DRAUGEN, NO","AUTO ","ENDR ","V020","290,1,N,0180,1","22000,1,9,N","999999,9,N,1","+0030,1","+0010,1","99999,9",,,,,"99999,9,99999,9",,,,,"MET044METAR ENDR 311550Z AUTO 29035KT 03/01 Q0983;","Q01 098313APOA  "
"01023199999","2010-12-31T16:20:00","4","64.35","7.8","0.0","DRAUGEN, NO","AUTO ","ENDR ","V020","290,1,N,0175,1","22000,1,9,N","999999,9,N,1","+0030,1","+0010,1","99999,9",,,,,"99999,9,99999,9",,,,,"MET044METAR ENDR 311620Z AUTO 29034KT 03/01 Q0983;","Q01 098313APOA  "
"01023199999","2010-12-31T16:50:00","4","64.35","7.8","0.0","DRAUGEN, NO","AUTO ","ENDR ","V020","290,1,N,0165,1","22000,1,9,N","999999,9,N,1","+0040,1","+0020,1","99999,9",,,,,"99999,9,99999,9",,,,,"MET044METAR ENDR 311650Z AUTO 29032KT 04/02 Q0983;","Q01 098313APOA  "
"01023199999","2010-12-31T17:20:00","4","64.35","7.8","0.0","DRAUGEN, NO","AUTO ","ENDR ","V020","020,1,N,0221,1","22000,1,9,N","999999,9,N,1","+0030,1","+0010,1","99999,9",,,,,"99999,9,99999,9",,,,,"MET044METAR ENDR 311720Z AUTO 02043KT 03/01 Q0984;","Q01 098413APOA  "
"01023199999","2010-12-31T17:50:00","4","64.35","7.8","0.0","DRAUGEN, NO","AUTO ","ENDR ","V020","020,1,N,0221,1","22000,1,9,N","999999,9,N,1","+0030,1","+0010,1","99999,9",,,,,"99999,9,99999,9",,,,,"MET044METAR ENDR 311750Z AUTO 02043KT 03/01 Q0985;","Q01 098513APOA  "
"01023199999","2010-12-31T18:20:00","4","64.35","7.8","0.0","DRAUGEN, NO","AUTO ","ENDR ","V020","020,1,N,0237,1","22000,1,9,N","999999,9,N,1","+0030,1","+0010,1","99999,9",,,,,"09871,1,99999,9",,,,,"MET044METAR ENDR 311820Z AUTO 02046KT 03/01 Q0987;",
"01023199999","2010-12-31T18:50:00","4","64.35","7.8","0.0","DRAUGEN, NO","AUTO ","ENDR ","V020","020,1,N,0231,1","22000,1,9,N","999999,9,N,1","+0030,1","+0000,1","99999,9",,,,,"09892,1,99999,9",,,,,"MET044METAR ENDR 311850Z AUTO 02045KT 03/00 Q0989;",
"01023199999","2010-12-31T19:20:00","4","64.35","7.8","0.0","DRAUGEN, NO","AUTO ","ENDR ","V020","010,1,N,0226,1","22000,1,9,N","999999,9,N,1","+0030,1","+0000,1","99999,9",,,,,"09909,1,99999,9",,,,,"MET044METAR ENDR 311920Z AUTO 01044KT 03/00 Q0991;",
"01023199999","2010-12-31T19:50:00","4","64.35","7.8","0.0","DRAUGEN, NO","AUTO ","ENDR ","V020","360,1,N,0226,1","22000,1,9,N","999999,9,N,1","+0030,1","+0000,1","99999,9",,,,,"09919,1,99999,9",,,,,"MET045METAR ENDR 311950Z AUTO 36044KT 03/M00 Q0992;",
"01023199999","2010-12-31T20:20:00","4","64.35","7.8","0.0","DRAUGEN, NO","AUTO ","ENDR ","V020","360,1,N,0216,1","22000,1,9,N","999999,9,N,1","+0030,1","-0010,1","99999,9",,,,,"09929,1,99999,9",,,,,"MET045METAR ENDR 312020Z AUTO 36042KT 03/M01 Q0993;",
"01023199999","2010-12-31T20:50:00","4","64.35","7.8","0.0","DRAUGEN, NO","AUTO ","ENDR ","V020","010,1,N,0185,1","22000,1,9,N","999999,9,N,1","+0030,1","-0010,1","99999,9",,,,,"09939,1,99999,9",,,,,"MET045METAR ENDR 312050Z AUTO 01036KT 03/M01 Q0994;",
"01023199999","2010-12-31T21:20:00","4","64.35","7.8","0.0","DRAUGEN, NO","AUTO ","ENDR ","V020","350,1,N,0226,1","22000,1,9,N","999999,9,N,1","+0030,1","-0010,1","99999,9",,,,,"09939,1,99999,9",,,,,"MET045METAR ENDR 312120Z AUTO 35044KT 03/M01 Q0994;",
"01023199999","2010-12-31T21:50:00","4","64.35","7.8","0.0","DRAUGEN, NO","AUTO ","ENDR ","V020","360,1,N,0180,1","22000,1,9,N","999999,9,N,1","+0030,1","-0030,1","99999,9",,,,,"09959,1,99999,9",,,,,"MET045METAR ENDR 312150Z AUTO 36035KT 03/M03 Q0996;",
"01023199999","2010-12-31T22:20:00","4","64.35","7.8","0.0","DRAUGEN, NO","AUTO ","ENDR ","V020","350,1,N,0170,1","22000,1,9,N","999999,9,N,1","+0040,1","-0030,1","99999,9",,,,,"09959,1,99999,9",,,,,"MET045METAR ENDR 312220Z AUTO 35033KT 04/M03 Q0996;",
"01023199999","2010-12-31T22:50:00","4","64.35","7.8","0.0","DRAUGEN, NO","AUTO ","ENDR ","V020","350,1,N,0175,1","22000,1,9,N","999999,9,N,1","+0050,1","-0040,1","99999,9",,,,,"09959,1,99999,9",,,,,"MET045METAR ENDR 312250Z AUTO 35034KT 05/M04 Q0996;",
"01023199999","2010-12-31T23:20:00","4","64.35","7.8","0.0","DRAUGEN, NO","AUTO ","ENDR ","V020","350,1,N,0165,1","22000,1,9,N","999999,9,N,1","+0050,1","-0040,1","99999,9",,,,,"09970,1,99999,9",,,,,"MET045METAR ENDR 312320Z AUTO 35032KT 05/M04 Q0997;",
"01023199999","2010-12-31T23:50:00","4","64.35","7.8","0.0","DRAUGEN, NO","AUTO ","ENDR ","V020","330,1,N,0113,1","22000,1,9,N","999999,9,N,1","+0050,1","-0020,1","99999,9",,,,,"09970,1,99999,9",,,,,"MET045METAR ENDR 312350Z AUTO 33022KT 05/M02 Q0997;",
