"STATION","DATE","SOURCE","LATITUDE","LONGITUDE","ELEVATION","NAME","REPORT_TYPE","CALL_SIGN","QUALITY_CONTROL","WND","CIG","VIS","TMP","DEW","SLP","AA1","AA2","AJ1","AY1","AY2","GA1","GF1","IA1","KA1","MA1","MD1","MW1","REM","EQD"
"01047099999","2010-01-01T00:00:00","4","69.0166667","23.0666667","307.0","KAUTOKEINO II, NO","FM-12","ENKA ","V020","050,1,N,0030,1","01200,1,9,N","065000,1,N,1","-0162,1","-0181,1","10197,1",,,,"2,1,06,1","2,1,06,1",,"08,99,1,08,1,05,1,01250,1,99,9,99,9",,,"99999,9,09809,1","1,1,008,1,+999,9","02,1","SYN088AAXX  01001 01047 11687 80503 11162 21181 39809 40197 51008 6//// 70222 885// 333 4////;",
"01047099999","2010-01-01T06:00:00","4","69.0166667","23.0666667","307.0","KAUTOKEINO II, NO","FM-12","ENKA ","V020","050,1,N,0010,1","01200,1,9,N","070000,1,N,1","-0146,1","-0167,1","10215,1","12,0000,9,1","24,0003,9,1","0048,9,1,999999,9,9","7,1,06,1","2,1,06,1",,"08,99,1,08,1,00,1,01250,1,02,1,99,9","24,9","999,N,-0178,1","99999,9,09828,1","3,1,006,1,+999,9","02,1","SYN100AAXX  01061 01047 11688 80501 11146 21167 39828 40215 53006 69912 70272 8802/ 333 21178 48048 70003;","Q01  00002PRCP12"
"01047099999","2010-01-01T09:00:00","4","69.0166667","23.0666667","307.0","KAUTOKEINO II, NO","FM-12","ENKA ","V020","050,1,N,0010,1","01200,1,9,N","065000,1,N,1","-0165,1","-0186,1","10230,1",,,,"2,1,03,1","2,1,03,1",,"08,99,1,08,1,00,1,01250,1,02,1,99,9",,,"99999,9,09841,1","3,1,014,1,+999,9","02,1","SYN082AAXX  01091 01047 41687 80501 11165 21186 39841 40230 53014 70222 8802/ 333 4////;",
"01047099999","2010-01-01T12:00:00","4","69.0166667","23.0666667","307.0","KAUTOKEINO II, NO","FM-12","ENKA ","V020","050,1,N,0010,1","01200,1,9,N","030000,1,N,1","-0140,1","-0161,1","10237,1",,,,"2,1,06,1","2,1,06,1",,"08,99,1,08,1,00,1,01250,1,02,1,99,9",,,"99999,9,09848,1","1,1,007,1,+999,9","02,1","SYN088AAXX  01121 01047 11680 80501 11140 21161 39848 40237 51007 6//// 70222 8802/ 333 4////;",
"01047099999","2010-01-01T15:00:00","4","69.0166667","23.0666667","307.0","KAUTOKEINO II, NO","FM-12","ENKA ","V020","050,1,N,0030,1","01500,1,9,N","070000,1,N,1","-0178,1","-0199,1","10238,1",,,,"2,1,03,1","2,1,03,1",,"08,99,1,08,1,00,1,01750,1,07,1,99,9",,,"99999,9,09848,1","4,1,000,1,+999,9","02,1","SYN082AAXX  01151 01047 41788 80503 11178 21199 39848 40238 54000 70222 8807/ 333 4////;",
"01047099999","2010-01-01T18:00:00","4","69.0166667","23.0666667","307.0","KAUTOKEINO II, NO","FM-12","ENKA ","V020","180,1,N,0030,1","00750,1,9,N","065000,1,N,1","-0165,1","-0185,1","10240,1","12,0000,9,1",,,"2,1,06,1","2,1,06,1",,"08,99,1,08,1,05,1,00800,1,99,9,99,9",,"120,M,-0120,1","99999,9,09850,1","2,1,003,1,+999,9","02,1","SYN094AAXX  01181 01047 11587 81803 11165 21185 39850 40240 52003 60002 70222 885// 333 11120 4////;","Q01  00002PRCP12"
"01047099999","2010-01-02T00:00:00","4","69.0166667","23.0666667","307.0","KAUTOKEINO II, NO","FM-12","ENKA ","V020","180,1,N,0010,1","01200,1,9,N","010000,1,N,1","-0158,1","-0178,1","10227,1",,,,"7,1,06,1","2,1,06,1",,"08,99,1,08,1,00,1,01250,1,02,1,99,9",,,"99999,9,09838,1","8,1,005,1,+999,9","71,1","SYN088AAXX  02001 01047 11660 81801 11158 21178 39838 40227 58005 6//// 77172 8802/ 333 4////;",
"01047099999","2010-01-02T06:00:00","4","69.0166667","23.0666667","307.0","KAUTOKEINO II, NO","FM-12","ENKA ","V020","180,1,N,0010,1","01200,1,9,N","004000,1,N,1","-0163,1","-0183,1","10210,1","12,0003,9,1","24,0003,9,1","0049,9,1,999999,9,9","7,1,06,1","2,1,06,1",,"08,99,1,08,1,00,1,01250,1,02,1,99,9","24,9","999,N,-0165,1","99999,9,09822,1","6,1,007,1,+999,9","70,1","SYN100AAXX  02061 01047 11640 81801 11163 21183 39822 40210 56007 69932 77072 8802/ 333 21165 48049 70003;",
"01047099999","2010-01-02T09:00:00","4","69.0166667","23.0666667","307.0","KAUTOKEINO II, NO","FM-12","ENKA ","V020","220,1,N,0050,1","01200,1,9,N","006000,1,N,1","-0170,1","-0188,1","10195,1",,,,"7,1,03,1","7,1,03,1",,"08,99,1,08,1,00,1,01250,1,02,1,99,9",,,"99999,9,09807,1","7,1,014,1,+999,9","71,1","SYN082AAXX  02091 01047 41656 82205 11170 21188 39807 40195 57014 77177 8802/ 333 4////;",
"01047099999","2010-01-02T12:00:00","4","69.0166667","23.0666667","307.0","KAUTOKEINO II, NO","FM-12","ENKA ","V020","220,1,N,0050,1","01200,1,9,N","055000,1,N,1","-0178,1","-0199,1","10172,1",,,,"7,1,06,1","2,1,06,1",,"08,99,1,08,1,00,1,01250,1,02,1,99,9",,,"99999,9,09784,1","8,1,023,1,+999,9","22,1","SYN088AAXX  02121 01047 11685 82205 11178 21199 39784 40172 58023 6//// 72272 8802/ 333 4////;",
"01047099999","2010-01-02T15:00:00","4","69.0166667","23.0666667","307.0","KAUTOKEINO II, NO","FM-12","ENKA ","V020","270,1,N,0050,1","01200,1,9,N","007000,1,N,1","-0174,1","-0198,1","10145,1",,,,"7,1,03,1","2,1,03,1",,"08,99,1,08,1,00,1,01250,1,02,1,99,9",,,"99999,9,09759,1","7,1,026,1,+999,9","71,1","SYN082AAXX  02151 01047 41657 82705 11174 21198 39759 40145 57026 77172 8802/ 333 4////;",
"01047099999","2010-01-02T18:00:00","4","69.0166667","23.0666667","307.0","KAUTOKEINO II, NO","FM-12","ENKA ","V020","270,1,N,0050,1","01200,1,9,N","005000,1,N,1","-0171,1","-0197,1","10114,1","12,0003,9,1",,,"7,1,06,1","2,1,06,1",,"08,99,1,08,1,00,1,01250,1,02,1,99,9",,"120,M,-0131,1","99999,9,09729,1","7,1,029,1,+999,9","71,1","SYN094AAXX  02181 01047 11650 82705 11171 21197 39729 40114 57029 69932 77172 8802/ 333 11131 4////;",
"01047099999","2010-01-03T00:00:00","4","69.0166667","23.0666667","307.0","KAUTOKEINO II, NO","FM-12","ENKA ","V020","270,1,N,0050,1","00750,1,9,N","070000,1,N,1","-0174,1","-0198,1","10035,1",,,,"7,1,06,1","2,1,06,1",,"08,99,1,08,1,05,1,00800,1,99,9,99,9",,,"99999,9,09653,1","7,1,025,1,+999,9","02,1","SYN088AAXX  03001 01047 11588 82705 11174 21198 39653 40035 57025 6//// 70272 885// 333 4////;",
"01047099999","2010-01-03T06:00:00","4","69.0166667","23.0666667","307.0","KAUTOKEINO II, NO","FM-12","ENKA ","V020","270,1,N,0010,1","01500,1,9,N","070000,1,N,1","-0178,1","-0201,1","10000,1","12,0000,2,1","24,0005,9,1","0049,9,1,999999,9,9","7,1,06,1","2,1,06,1",,"05,99,1,05,1,00,1,01750,1,07,1,00,1","24,9","999,N,-0178,1","99999,9,09619,1","7,1,008,1,+999,9","02,1","SYN100AAXX  03061 01047 11788 52701 11178 21201 39619 40000 57008 69912 70272 85070 333 21178 48049 70004;",
"01047099999","2010-01-03T09:00:00","4","69.0166667","23.0666667","307.0","KAUTOKEINO II, NO","FM-12","ENKA ","V020","220,1,N,0030,1","01200,1,9,N","070000,1,N,1","-0213,1","-0236,1","09999,1",,,,"2,1,03,1","2,1,03,1",,"08,99,1,08,1,00,1,01250,1,02,1,99,9",,,"99999,9,09616,1","6,1,002,1,+999,9","02,1","SYN082AAXX  03091 01047 41688 82203 11213 21236 39616 49999 56002 70222 8802/ 333 4////;",
"01047099999","2010-01-03T12:00:00","4","69.0166667","23.0666667","307.0","KAUTOKEINO II, NO","FM-12","ENKA ","V020","220,1,N,0010,1","00750,1,9,N","070000,1,N,1","-0215,1","-0240,1","09994,1",,,,"2,1,06,1","2,1,06,1",,"08,99,1,08,1,05,1,00800,1,99,9,99,9",,,"99999,9,09612,1","7,1,004,1,+999,9","02,1","SYN088AAXX  03121 01047 11588 82201 11215 21240 39612 49994 57004 6//// 70222 885// 333 4////;",
"01047099999","2010-01-03T15:00:00","4","69.0166667","23.0666667","307.0","KAUTOKEINO II, NO","FM-12","ENKA ","V020","320,1,N,0030,1","00750,1,9,N","070000,1,N,1","-0202,1","-0228,1","10000,1",,,,"2,1,03,1","2,1,03,1",,"08,99,1,08,1,05,1,00800,1,99,9,99,9",,,"99999,9,09618,1","2,1,005,1,+999,9","02,1","SYN082AAXX  03151 01047 41588 83203 11202 21228 39618 40000 52005 70222 885// 333 4////;",
"01047099999","2010-01-03T18:00:00","4","69.0166667","23.0666667","307.0","KAUTOKEINO II, NO","FM-12","ENKA ","V020","360,1,N,0050,1","01200,1,9,N","007000,1,N,1","-0176,1","-0203,1","10019,1","12,9999,9,9",,,"7,1,06,1","2,1,06,1",,"08,99,1,08,1,00,1,01250,1,02,1,99,9",,"120,M,-0148,1","99999,9,09637,1","3,1,020,1,+999,9","71,1","SYN094AAXX  03181 01047 11657 83605 11176 21203 39637 40019 53020 69922 77172 8802/ 333 11148 4////;","Q01  00002PRCP12Q02  00002PRCP12"
"01047099999","2010-01-04T00:00:00","4","69.0166667","23.0666667","307.0","KAUTOKEINO II, NO","FM-12","ENKA ","V020","360,1,N,0050,1","00750,1,9,N","010000,1,N,1","-0204,1","-0234,1","10059,1",,,,"8,1,06,1","7,1,06,1",,"06,99,1,06,1,09,1,00800,1,00,1,00,1",,,"99999,9,09675,1","1,1,015,1,+999,9","85,1","SYN088AAXX  04001 01047 11560 63605 11204 21234 39675 40059 51015 6//// 78587 86900 333 4////;",
"01047099999","2010-01-04T06:00:00","4","69.0166667","23.0666667","307.0","KAUTOKEINO II, NO","FM-12","ENKA ","V020","999,9,C,0000,1","22000,1,9,N","070000,1,N,1","-0280,1","-0305,1","10098,1","12,0000,2,1","24,0005,9,1","0050,9,1,999999,9,9","8,1,06,1","7,1,06,1","00,1,+99999,9,99,9","00,99,1,00,1,00,1,99999,9,00,1,00,1","24,9","999,N,-0282,1","99999,9,09709,1","3,1,007,1,+999,9","02,1","SYN094AAXX  04061 01047 11988 00000 11280 21305 39709 40098 53007 69922 70287 333 21282 48050 70004;",
"01047099999","2010-01-04T09:00:00","4","69.0166667","23.0666667","307.0","KAUTOKEINO II, NO","FM-12","ENKA ","V020","360,1,N,0010,1","22000,1,9,N","070000,1,N,1","-0314,1","-0341,1","10113,1",,,,"0,1,03,1","0,1,03,1",,"02,99,1,02,1,00,1,02250,1,04,1,00,1",,,"99999,9,09722,1","2,1,013,1,+999,9","02,1","SYN082AAXX  04091 01047 41888 23601 11314 21341 39722 40113 52013 70200 82040 333 4////;",
"01047099999","2010-01-04T12:00:00","4","69.0166667","23.0666667","307.0","KAUTOKEINO II, NO","FM-12","ENKA ","V020","360,1,N,0010,1","22000,1,9,N","070000,1,N,1","-0334,1","-0361,1","10118,1",,,,"0,1,06,1","0,1,06,1",,"02,99,1,02,1,00,1,02250,1,04,1,00,1",,,"99999,9,09726,1","1,1,004,1,+999,9","02,1","SYN088AAXX  04121 01047 11888 23601 11334 21361 39726 40118 51004 6//// 70200 82040 333 4////;",
"01047099999","2010-01-04T15:00:00","4","69.0166667","23.0666667","307.0","KAUTOKEINO II, NO","FM-12","ENKA ","V020","360,1,N,0010,1","22000,1,9,N","070000,1,N,1","-0334,1","-0358,1","10124,1",,,,"0,1,03,1","0,1,03,1",,"02,99,1,02,1,00,1,02250,1,04,1,00,1",,,"99999,9,09731,1","2,1,005,1,+999,9","02,1","SYN082AAXX  04151 01047 41888 23601 11334 21358 39731 40124 52005 70200 82040 333 4////;",
"01047099999","2010-01-04T18:00:00","4","69.0166667","23.0666667","307.0","KAUTOKEINO II, NO","FM-12","ENKA ","V020","220,1,N,0030,1","22000,1,9,N","070000,1,N,1","-0340,1","-0366,1","10123,1","12,0000,9,1",,,"0,1,06,1","0,1,06,1","00,1,+99999,9,99,9","00,99,1,00,1,00,1,99999,9,00,1,00,1",,"120,M,-0150,1","99999,9,09730,1","4,1,000,1,+999,9","02,1","SYN088AAXX  04181 01047 11988 02203 11340 21366 39730 40123 54000 60002 70200 333 11150 4////;","Q01  00002PRCP12"
"01047099999","2010-01-05T00:00:00","4","69.0166667","23.0666667","307.0","KAUTOKEINO II, NO","FM-12","ENKA ","V020","220,1,N,0030,1","01200,1,9,N","010000,1,N,1","-0296,1","-0323,1","10121,1",,,,"7,1,06,1","2,1,06,1",,"08,99,1,08,1,00,1,01250,1,02,1,99,9",,,"99999,9,09730,1","4,1,000,1,+999,9","71,1","SYN088AAXX  05001 01047 11660 82203 11296 21323 39730 40121 54000 6//// 77172 8802/ 333 4////;",
"01047099999","2010-01-05T06:00:00","4","69.0166667","23.0666667","307.0","KAUTOKEINO II, NO","FM-12","ENKA ","V020","999,9,C,0000,1","01200,1,9,N","065000,1,N,1","-0254,1","-0282,1","10120,1","12,0000,2,1","24,0000,2,1","0050,9,1,999999,9,9","7,1,06,1","2,1,06,1",,"07,99,1,07,1,00,1,01250,1,02,1,00,1","24,9","999,N,-0343,1","99999,9,09731,1","4,1,000,1,+999,9","02,1","SYN100AAXX  05061 01047 11687 70000 11254 21282 39731 40120 54000 69912 70272 87020 333 21343 48050 70001;",
"01047099999","2010-01-05T09:00:00","4","69.0166667","23.0666667","307.0","KAUTOKEINO II, NO","FM-12","ENKA ","V020","220,1,N,0010,1","01200,1,9,N","070000,1,N,1","-0268,1","-0296,1","10125,1",,,,"2,1,03,1","2,1,03,1",,"08,99,1,08,1,00,1,01250,1,02,1,99,9",,,"99999,9,09735,1","3,1,004,1,+999,9","02,1","SYN082AAXX  05091 01047 41688 82201 11268 21296 39735 40125 53004 70222 8802/ 333 4////;",
"01047099999","2010-01-05T12:00:00","4","69.0166667","23.0666667","307.0","KAUTOKEINO II, NO","FM-12","ENKA ","V020","340,1,N,0010,1","01200,1,9,N","010000,1,N,1","-0272,1","-0300,1","10129,1",,,,"7,1,06,1","2,1,06,1",,"08,99,1,08,1,00,1,01250,1,02,1,99,9",,,"99999,9,09739,1","2,1,004,1,+999,9","70,1","SYN088AAXX  05121 01047 11660 83401 11272 21300 39739 40129 52004 6//// 77072 8802/ 333 4////;",
"01047099999","2010-01-05T15:00:00","4","69.0166667","23.0666667","307.0","KAUTOKEINO II, NO","FM-12","ENKA ","V020","360,1,N,0010,1","22000,1,9,N","070000,1,N,1","-0296,1","-0323,1","10135,1",,,,"7,1,03,1","2,1,03,1",,"04,99,1,04,1,05,1,00800,1,00,1,00,1",,,"99999,9,09744,1","2,1,006,1,+999,9","02,1","SYN082AAXX  05151 01047 41588 43601 11296 21323 39744 40135 52006 70272 84500 333 4////;",
"01047099999","2010-01-05T18:00:00","4","69.0166667","23.0666667","307.0","KAUTOKEINO II, NO","FM-12","ENKA ","V020","999,9,C,0000,1","22000,1,9,N","070000,1,N,1","-0314,1","-0342,1","10139,1","12,0000,2,1",,,"0,1,06,1","0,1,06,1",,"03,99,1,03,1,05,1,00800,1,00,1,00,1",,"120,M,-0225,1","99999,9,09747,1","1,1,002,1,+999,9","02,1","SYN094AAXX  05181 01047 11588 30000 11314 21342 39747 40139 51002 69912 70200 83500 333 11225 4////;",
"01047099999","2010-01-06T00:00:00","4","69.0166667","23.0666667","307.0","KAUTOKEINO II, NO","FM-12","ENKA ","V020","360,1,N,0010,1","22000,1,9,N","070000,1,N,1","-0348,1","-0375,1","10148,1",,,,"0,1,06,1","0,1,06,1","00,1,+99999,9,99,9","00,99,1,00,1,00,1,99999,9,00,1,00,1",,,"99999,9,09754,1","4,1,000,1,+999,9","02,1","SYN082AAXX  06001 01047 11988 03601 11348 21375 39754 40148 54000 6//// 70200 333 4////;",
"01047099999","2010-01-06T06:00:00","4","69.0166667","23.0666667","307.0","KAUTOKEINO II, NO","FM-12","ENKA ","V020","999,9,C,0000,1","22000,1,9,N","070000,1,N,1","-0356,1","-0382,1","10149,1","12,0000,9,1","24,0000,2,1","0050,9,1,999999,9,9","0,1,06,1","0,1,06,1","00,1,+99999,9,99,9","00,99,1,00,1,00,1,99999,9,00,1,00,1","24,9","999,N,-0356,1","99999,9,09754,1","4,1,000,1,+999,9","02,1","SYN094AAXX  06061 01047 11988 00000 11356 21382 39754 40149 54000 60002 70200 333 21356 48050 70001;","Q01  00002PRCP12"
"01047099999","2010-01-06T09:00:00","4","69.0166667","23.0666667","307.0","KAUTOKEINO II, NO","FM-12","ENKA ","V020","999,9,C,0000,1","22000,1,9,N","070000,1,N,1","-0362,1","-0388,1","10159,1",,,,"0,1,03,1","0,1,03,1","00,1,+99999,9,99,9","00,99,1,00,1,00,1,99999,9,00,1,00,1",,,"99999,9,09763,1","1,1,009,1,+999,9","02,1","SYN076AAXX  06091 01047 41988 00000 11362 21388 39763 40159 51009 70200 333 4////;",
"01047099999","2010-01-06T12:00:00","4","69.0166667","23.0666667","307.0","KAUTOKEINO II, NO","FM-12","ENKA ","V020","180,1,N,0010,1","22000,1,9,N","070000,1,N,1","-0365,1","-0391,1","10162,1",,,,"0,1,06,1","0,1,06,1",,"02,99,1,00,1,00,1,99999,9,00,1,08,1",,,"99999,9,09767,1","1,1,003,1,+999,9","02,1","SYN088AAXX  06121 01047 11988 21801 11365 21391 39767 40162 51003 6//// 70200 80008 333 4////;",
"01047099999","2010-01-06T15:00:00","4","69.0166667","23.0666667","307.0","KAUTOKEINO II, NO","FM-12","ENKA ","V020","180,1,N,0030,1","22000,1,9,N","070000,1,N,1","-0380,1","-0407,1","10167,1",,,,"0,1,03,1","0,1,03,1","00,1,+99999,9,99,9","00,99,1,00,1,00,1,99999,9,00,1,00,1",,,"99999,9,09771,1","2,1,004,1,+999,9","02,1","SYN076AAXX  06151 01047 41988 01803 11380 21407 39771 40167 52004 70200 333 4////;",
"01047099999","2010-01-06T18:00:00","4","69.0166667","23.0666667","307.0","KAUTOKEINO II, NO","FM-12","ENKA ","V020","180,1,N,0030,1","22000,1,9,N","070000,1,N,1","-0388,1","-0413,1","10170,1","12,0000,9,1",,,"0,1,06,1","0,1,06,1","00,1,+99999,9,99,9","00,99,1,00,1,00,1,99999,9,00,1,00,1",,"120,M,-0282,1","99999,9,09773,1","2,1,003,1,+999,9","02,1","SYN088AAXX  06181 01047 11988 01803 11388 21413 39773 40170 52003 60002 70200 333 11282 4////;","Q01  00002PRCP12"
"01047099999","2010-01-07T00:00:00","4","69.0166667","23.0666667","307.0","KAUTOKEINO II, NO","FM-12","ENKA ","V020","180,1,N,0010,1","22000,1,9,N","070000,1,N,1","-0392,1","-0417,1","10171,1",,,,"0,1,06,1","0,1,06,1","00,1,+99999,9,99,9","00,99,1,00,1,00,1,99999,9,00,1,00,1",,,"99999,9,09774,1","4,1,000,1,+999,9","02,1","SYN082AAXX  07001 01047 11988 01801 11392 21417 39774 40171 54000 6//// 70200 333 4////;",
"01047099999","2010-01-07T06:00:00","4","69.0166667","23.0666667","307.0","KAUTOKEINO II, NO","FM-12","ENKA ","V020","999,9,C,0000,1","22000,1,9,N","070000,1,N,1","-0338,1","-0366,1","10164,1","12,0000,9,1","24,0000,9,1","0050,9,1,999999,9,9","0,1,06,1","0,1,06,1","00,1,+99999,9,99,9","00,99,1,00,1,00,1,99999,9,00,1,00,1","24,9","999,N,-0392,1","99999,9,09769,1","6,1,004,1,+999,9","02,1","SYN094AAXX  07061 01047 11988 00000 11338 21366 39769 40164 56004 60002 70200 333 21392 48050 70000;","Q01  00002PRCP24Q02  00002PRCP12"
"01047099999","2010-01-07T09:00:00","4","69.0166667","23.0666667","307.0","KAUTOKEINO II, NO","FM-12","ENKA ","V020","999,9,C,0000,1","22000,1,9,N","065000,1,N,1","-0340,1","-0368,1","10170,1",,,,"0,1,03,1","0,1,03,1",,"02,99,1,02,1,00,1,01250,1,07,1,00,1",,,"99999,9,09776,1","5,1,006,1,+999,9","02,1","SYN082AAXX  07091 01047 41687 20000 11340 21368 39776 40170 55006 70200 82070 333 4////;",
"01047099999","2010-01-07T12:00:00","4","69.0166667","23.0666667","307.0","KAUTOKEINO II, NO","FM-12","ENKA ","V020","999,9,C,0000,1","22000,1,9,N","065000,1,N,1","-0339,1","-0367,1","10169,1",,,,"0,1,06,1","0,1,06,1",,"03,99,1,03,1,00,1,01250,1,07,1,00,1",,,"99999,9,09774,1","0,1,001,1,+999,9","02,1","SYN088AAXX  07121 01047 11687 30000 11339 21367 39774 40169 50001 6//// 70200 83070 333 4////;",
"01047099999","2010-01-07T15:00:00","4","69.0166667","23.0666667","307.0","KAUTOKEINO II, NO","FM-12","ENKA ","V020","180,1,N,0030,1","22000,1,9,N","070000,1,N,1","-0328,1","-0356,1","10164,1",,,,"0,1,03,1","0,1,03,1",,"03,99,1,03,1,00,1,01750,1,07,1,00,1",,,"99999,9,09770,1","7,1,004,1,+999,9","02,1","SYN082AAXX  07151 01047 41788 31803 11328 21356 39770 40164 57004 70200 83070 333 4////;",
"01047099999","2010-01-07T18:00:00","4","69.0166667","23.0666667","307.0","KAUTOKEINO II, NO","FM-12","ENKA ","V020","180,1,N,0010,1","22000,1,9,N","070000,1,N,1","-0330,1","-0357,1","10164,1","12,0000,9,1",,,"0,1,06,1","0,1,06,1",,"02,99,1,02,1,00,1,01750,1,07,1,00,1",,"120,M,-0315,1","99999,9,09770,1","4,1,000,1,+999,9","02,1","SYN094AAXX  07181 01047 11788 21801 11330 21357 39770 40164 54000 60002 70200 82070 333 11315 4////;","Q01  00002PRCP12"
"01047099999","2010-01-08T00:00:00","4","69.0166667","23.0666667","307.0","KAUTOKEINO II, NO","FM-12","ENKA ","V020","180,1,N,0030,1","22000,1,9,N","070000,1,N,1","-0336,1","-0364,1","10159,1",,,,"0,1,06,1","0,1,06,1","00,1,+99999,9,99,9","00,99,1,00,1,00,1,99999,9,00,1,00,1",,,"99999,9,09765,1","7,1,004,1,+999,9","02,1","SYN082AAXX  08001 01047 11988 01803 11336 21364 39765 40159 57004 6//// 70200 333 4////;",
"01047099999","2010-01-08T06:00:00","4","69.0166667","23.0666667","307.0","KAUTOKEINO II, NO","FM-12","ENKA ","V020","180,1,N,0030,1","01200,1,9,N","065000,1,N,1","-0228,1","-0258,1","10129,1","12,0000,9,1","24,0000,9,1","0050,9,1,999999,9,9","2,1,06,1","0,1,06,1",,"06,99,1,06,1,05,1,01250,1,00,1,00,1","24,9","999,N,-0337,1","99999,9,09741,1","6,1,010,1,+999,9","03,1","SYN100AAXX  08061 01047 11687 61803 11228 21258 39741 40129 56010 60002 70320 86500 333 21337 48050 70000;","Q01  00002PRCP24Q02  00002PRCP12"
"01047099999","2010-01-08T09:00:00","4","69.0166667","23.0666667","307.0","KAUTOKEINO II, NO","FM-12","ENKA ","V020","220,1,N,0030,1","99999,9,9,N","070000,1,N,1","-0240,1","-0270,1","10138,1",,,,"2,1,03,1","2,1,03,1",,"08,99,1,08,1,00,1,01250,1,07,1,99,9",,,"99999,9,09749,1","3,1,009,1,+999,9","02,1","SYN082AAXX  08091 01047 41688 82203 11240 21270 39749 40138 53009 70222 8807/ 333 4////;",
"01047099999","2010-01-08T12:00:00","4","69.0166667","23.0666667","307.0","KAUTOKEINO II, NO","FM-12","ENKA ","V020","180,1,N,0050,1","99999,9,9,N","070000,1,N,1","-0258,1","-0288,1","10149,1",,,,"2,1,06,1","2,1,06,1",,"06,99,1,06,1,00,1,01250,1,07,1,00,1",,,"99999,9,09759,1","1,1,010,1,+999,9","02,1","SYN088AAXX  08121 01047 11688 61805 11258 21288 39759 40149 51010 6//// 70222 86070 333 4////;",
"01047099999","2010-01-08T15:00:00","4","69.0166667","23.0666667","307.0","KAUTOKEINO II, NO","FM-12","ENKA ","V020","220,1,N,0050,1","22000,1,9,N","070000,1,N,1","-0264,1","-0292,1","10163,1",,,,"1,1,03,1","1,1,03,1",,"03,99,1,03,1,00,1,01250,1,07,1,00,1",,,"99999,9,09772,1","3,1,013,1,+999,9","01,1","SYN082AAXX  08151 01047 41688 32205 11264 21292 39772 40163 53013 70111 83070 333 4////;",
"01047099999","2010-01-08T18:00:00","4","69.0166667","23.0666667","307.0","KAUTOKEINO II, NO","FM-12","ENKA ","V020","180,1,N,0030,1","22000,1,9,N","070000,1,N,1","-0270,1","-0295,1","10185,1","12,0000,9,1",,,"0,1,06,1","0,1,06,1","00,1,+99999,9,99,9","00,99,1,00,1,00,1,99999,9,00,1,00,1",,"120,M,-0195,1","99999,9,09793,1","2,1,021,1,+999,9","02,1","SYN088AAXX  08181 01047 11988 01803 11270 21295 39793 40185 52021 60002 70200 333 11195 4////;","Q01  00002PRCP12"
"01047099999","2010-01-09T00:00:00","4","69.0166667","23.0666667","307.0","KAUTOKEINO II, NO","FM-12","ENKA ","V020","220,1,N,0050,1","22000,1,9,N","070000,1,N,1","-0248,1","-0274,1","10216,1",,,,"0,1,06,1","0,1,06,1","00,1,+99999,9,99,9","00,99,1,00,1,00,1,99999,9,00,1,00,1",,,"99999,9,09823,1","2,1,015,1,+999,9","02,1","SYN082AAXX  09001 01047 11988 02205 11248 21274 39823 40216 52015 6//// 70200 333 4////;",
"01047099999","2010-01-09T06:00:00","4","69.0166667","23.0666667","307.0","KAUTOKEINO II, NO","FM-12","ENKA ","V020","220,1,N,0030,1","22000,1,9,N","070000,1,N,1","-0214,1","-0239,1","10225,1","12,0000,9,1","24,0000,9,1","0050,9,1,999999,9,9","0,1,06,1","0,1,06,1",,"04,99,1,04,1,00,1,01750,1,01,1,00,1","24,9","999,N,-0276,1","99999,9,09834,1","0,1,002,1,+999,9","02,1","SYN100AAXX  09061 01047 11788 42203 11214 21239 39834 40225 50002 60002 70200 84010 333 21276 48050 70000;","Q01  00002PRCP24Q02  00002PRCP12"
"01047099999","2010-01-09T09:00:00","4","69.0166667","23.0666667","307.0","KAUTOKEINO II, NO","FM-12","ENKA ","V020","220,1,N,0030,1","00750,1,9,N","070000,1,N,1","-0208,1","-0233,1","10214,1",,,,"2,1,03,1","2,1,03,1",,"08,99,1,08,1,05,1,00800,1,99,9,99,9",,,"99999,9,09823,1","7,1,010,1,+999,9","02,1","SYN082AAXX  09091 01047 41588 82203 11208 21233 39823 40214 57010 70222 885// 333 4////;",
"01047099999","2010-01-09T12:00:00","4","69.0166667","23.0666667","307.0","KAUTOKEINO II, NO","FM-12","ENKA ","V020","180,1,N,0070,1","01500,1,9,N","070000,1,N,1","-0110,1","-0137,1","10191,1",,,,"2,1,06,1","2,1,06,1",,"08,99,1,08,1,00,1,01750,1,07,1,99,9",,,"99999,9,09806,1","8,1,018,1,+999,9","02,1","SYN088AAXX  09121 01047 11788 81807 11110 21137 39806 40191 58018 6//// 70222 8807/ 333 4////;",
"01047099999","2010-01-09T15:00:00","4","69.0166667","23.0666667","307.0","KAUTOKEINO II, NO","FM-12","ENKA ","V020","180,1,N,0070,1","01500,1,9,N","070000,1,N,1","-0085,1","-0109,1","10195,1",,,,"2,1,03,1","2,1,03,1",,"08,99,1,08,1,00,1,01750,1,07,1,99,9",,,"99999,9,09811,1","3,1,006,1,+999,9","02,1","SYN082AAXX  09151 01047 41788 81807 11085 21109 39811 40195 53006 70222 8807/ 333 4////;",
"01047099999","2010-01-09T18:00:00","4","69.0166667","23.0666667","307.0","KAUTOKEINO II, NO","FM-12","ENKA ","V020","180,1,N,0050,1","01500,1,9,N","070000,1,N,1","-0062,1","-0074,1","10195,1","12,0000,9,1",,,"2,1,06,1","2,1,06,1",,"08,99,1,08,1,00,1,01750,1,07,1,99,9",,"120,M,-0055,1","99999,9,09812,1","0,1,001,1,+999,9","02,1","SYN094AAXX  09181 01047 11788 81805 11062 21074 39812 40195 50001 60002 70222 8807/ 333 11055 4////;","Q01  00002PRCP12"
"01047099999","2010-01-10T00:00:00","4","69.0166667","23.0666667","307.0","KAUTOKEINO II, NO","FM-12","ENKA ","V020","180,1,N,0070,1","01500,1,9,N","070000,1,N,1","+0014,1","-0027,1","10180,1",,,,"2,1,06,1","2,1,06,1",,"08,99,1,08,1,00,1,01750,1,07,1,99,9",,,"99999,9,09800,1","7,1,005,1,+999,9","02,1","SYN088AAXX  10001 01047 11788 81807 10014 21027 39800 40180 57005 6//// 70222 8807/ 333 4////;",
"01047099999","2010-01-10T06:00:00","4","69.0166667","23.0666667","307.0","KAUTOKEINO II, NO","FM-12","ENKA ","V020","180,1,N,0050,1","01500,1,9,N","070000,1,N,1","+0016,1","-0027,1","10148,1","12,0000,9,1","24,0000,9,1","0047,9,1,999999,9,9","2,1,06,1","2,1,06,1",,"07,99,1,07,1,00,1,01750,1,07,1,00,1","24,9","999,N,-0065,1","99999,9,09770,1","7,1,013,1,+999,9","02,1","SYN100AAXX  10061 01047 11788 71805 10016 21027 39770 40148 57013 60002 70222 87070 333 21065 48047 70000;","Q01  00002PRCP24Q02  00002PRCP12"
"01047099999","2010-01-10T09:00:00","4","69.0166667","23.0666667","307.0","KAUTOKEINO II, NO","FM-12","ENKA ","V020","180,1,N,0050,1","01500,1,9,N","070000,1,N,1","+0018,1","-0018,1","10140,1",,,,"2,1,03,1","1,1,03,1",,"06,99,1,06,1,00,1,01750,1,07,1,00,1",,,"99999,9,09762,1","8,1,008,1,+999,9","02,1","SYN082AAXX  10091 01047 41788 61805 10018 21018 39762 40140 58008 70221 86070 333 4////;",
"01047099999","2010-01-10T12:00:00","4","69.0166667","23.0666667","307.0","KAUTOKEINO II, NO","FM-12","ENKA ","V020","180,1,N,0070,1","01500,1,9,N","070000,1,N,1","+0008,1","-0028,1","10138,1",,,,"2,1,06,1","2,1,06,1",,"08,99,1,08,1,00,1,01750,1,07,1,99,9",,,"99999,9,09759,1","6,1,003,1,+999,9","02,1","SYN088AAXX  10121 01047 11788 81807 10008 21028 39759 40138 56003 6//// 70222 8807/ 333 4////;",
"01047099999","2010-01-10T15:00:00","4","69.0166667","23.0666667","307.0","KAUTOKEINO II, NO","FM-12","ENKA ","V020","180,1,N,0070,1","22000,1,9,N","070000,1,N,1","+0008,1","-0021,1","10135,1",,,,"1,1,03,1","1,1,03,1",,"04,99,1,04,1,00,1,02250,1,04,1,00,1",,,"99999,9,09757,1","4,1,000,1,+999,9","02,1","SYN082AAXX  10151 01047 41888 41807 10008 21021 39757 40135 54000 70211 84040 333 4////;",
"01047099999","2010-01-10T18:00:00","4","69.0166667","23.0666667","307.0","KAUTOKEINO II, NO","FM-12","ENKA ","V020","220,1,N,0070,1","22000,1,9,N","070000,1,N,1","+0006,1","-0035,1","10137,1","12,0000,9,1",,,"1,1,06,1","1,1,06,1",,"03,99,1,03,1,00,1,02250,1,04,1,00,1",,"120,M,+0025,1","99999,9,09759,1","4,1,000,1,+999,9","02,1","SYN094AAXX  10181 01047 11888 32207 10006 21035 39759 40137 54000 60002 70211 83040 333 10025 4////;","Q01  00002PRCP12"
"01047099999","2010-01-11T00:00:00","4","69.0166667","23.0666667","307.0","KAUTOKEINO II, NO","FM-12","ENKA ","V020","320,1,N,0070,1","01500,1,9,N","070000,1,N,1","+0030,1","-0029,1","10143,1",,,,"1,1,06,1","1,1,06,1",,"06,99,1,06,1,00,1,01750,1,07,1,00,1",,,"99999,9,09767,1","3,1,005,1,+999,9","02,1","SYN088AAXX  11001 01047 11788 63207 10030 21029 39767 40143 53005 6//// 70211 86070 333 4////;",
"01047099999","2010-01-11T06:00:00","4","69.0166667","23.0666667","307.0","KAUTOKEINO II, NO","FM-12","ENKA ","V020","999,9,C,0000,1","01500,1,9,N","070000,1,N,1","+0002,1","-0054,1","10175,1","12,0000,9,1","24,0000,9,1","0045,9,1,999999,9,9","2,1,06,1","1,1,06,1",,"05,99,1,05,1,00,1,01750,1,07,1,00,1","24,9","999,N,-0036,1","99999,9,09795,1","3,1,013,1,+999,9","02,1","SYN100AAXX  11061 01047 11788 50000 10002 21054 39795 40175 53013 60002 70221 85070 333 21036 48045 70000;","Q01  00002PRCP24Q02  00002PRCP12"
"01047099999","2010-01-11T09:00:00","4","69.0166667","23.0666667","307.0","KAUTOKEINO II, NO","FM-12","ENKA ","V020","320,1,N,0030,1","01500,1,9,N","070000,1,N,1","-0049,1","-0087,1","10192,1",,,,"2,1,03,1","2,1,03,1",,"08,99,1,08,1,00,1,01750,1,07,1,99,9",,,"99999,9,09809,1","1,1,014,1,+999,9","02,1","SYN082AAXX  11091 01047 41788 83203 11049 21087 39809 40192 51014 70222 8807/ 333 4////;",
"01047099999","2010-01-11T12:00:00","4","69.0166667","23.0666667","307.0","KAUTOKEINO II, NO","FM-12","ENKA ","V020","220,1,N,0030,1","00750,1,9,N","070000,1,N,1","-0045,1","-0071,1","10175,1",,,,"2,1,06,1","2,1,06,1",,"08,99,1,08,1,05,1,00800,1,99,9,99,9",,,"99999,9,09793,1","8,1,016,1,+999,9","02,1","SYN088AAXX  11121 01047 11588 82203 11045 21071 39793 40175 58016 6//// 70222 885// 333 4////;",
"01047099999","2010-01-11T15:00:00","4","69.0166667","23.0666667","307.0","KAUTOKEINO II, NO","FM-12","ENKA ","V020","270,1,N,0030,1","00750,1,9,N","070000,1,N,1","-0080,1","-0093,1","10158,1",,,,"2,1,03,1","2,1,03,1",,"08,99,1,08,1,05,1,00800,1,99,9,99,9",,,"99999,9,09775,1","7,1,018,1,+999,9","02,1","SYN082AAXX  11151 01047 41588 82703 11080 21093 39775 40158 57018 70222 885// 333 4////;",
"01047099999","2010-01-11T18:00:00","4","69.0166667","23.0666667","307.0","KAUTOKEINO II, NO","FM-12","ENKA ","V020","320,1,N,0030,1","01200,1,9,N","001000,1,N,1","-0060,1","-0067,1","10148,1","12,0010,9,1",,,"7,1,06,1","2,1,06,1",,"08,99,1,08,1,00,1,01250,1,02,1,99,9",,"120,M,+0012,1","99999,9,09766,1","5,1,009,1,+999,9","73,1","SYN094AAXX  11181 01047 11610 83203 11060 21067 39766 40148 55009 60012 77372 8802/ 333 10012 4////;",
"01047099999","2010-01-12T00:00:00","4","69.0166667","23.0666667","307.0","KAUTOKEINO II, NO","FM-12","ENKA ","V020","220,1,N,0030,1","01200,1,9,N","070000,1,N,1","-0122,1","-0137,1","10183,1",,,,"7,1,06,1","2,1,06,1",,"08,99,1,08,1,00,1,01250,1,02,1,99,9",,,"99999,9,09797,1","1,1,008,1,+999,9","02,1","SYN088AAXX  12001 01047 11688 82203 11122 21137 39797 40183 51008 6//// 70272 8802/ 333 4////;",
"01047099999","2010-01-12T06:00:00","4","69.0166667","23.0666667","307.0","KAUTOKEINO II, NO","FM-12","ENKA ","V020","220,1,N,0030,1","00750,1,9,N","070000,1,N,1","-0078,1","-0090,1","10162,1","12,0010,9,1","24,0018,9,1","0040,9,1,999999,9,9","7,1,06,1","2,1,06,1",,"06,99,1,06,1,05,1,00800,1,00,1,00,1","24,9","999,N,-0126,1","99999,9,09780,1","8,1,007,1,+999,9","02,1","SYN100AAXX  12061 01047 11588 62203 11078 21090 39780 40162 58007 69992 70272 86500 333 21126 48040 70019;",
"01047099999","2010-01-12T09:00:00","4","69.0166667","23.0666667","307.0","KAUTOKEINO II, NO","FM-12","ENKA ","V020","360,1,N,0030,1","00750,1,9,N","070000,1,N,1","-0092,1","-0104,1","10158,1",,,,"2,1,03,1","2,1,03,1",,"08,99,1,08,1,05,1,00800,1,99,9,99,9",,,"99999,9,09775,1","6,1,004,1,+999,9","02,1","SYN082AAXX  12091 01047 41588 83603 11092 21104 39775 40158 56004 70222 885// 333 4////;",
"01047099999","2010-01-12T12:00:00","4","69.0166667","23.0666667","307.0","KAUTOKEINO II, NO","FM-12","ENKA ","V020","360,1,N,0010,1","00750,1,9,N","070000,1,N,1","-0084,1","-0096,1","10162,1",,,,"2,1,06,1","2,1,06,1",,"08,99,1,08,1,05,1,00800,1,99,9,99,9",,,"99999,9,09779,1","2,1,004,1,+999,9","02,1","SYN088AAXX  12121 01047 11588 83601 11084 21096 39779 40162 52004 6//// 70222 885// 333 4////;",
"01047099999","2010-01-12T15:00:00","4","69.0166667","23.0666667","307.0","KAUTOKEINO II, NO","FM-12","ENKA ","V020","180,1,N,0030,1","01200,1,9,N","010000,1,N,1","-0068,1","-0080,1","10164,1",,,,"7,1,03,1","2,1,03,1",,"08,99,1,08,1,00,1,01250,1,02,1,99,9",,,"99999,9,09781,1","4,1,000,1,+999,9","71,1","SYN082AAXX  12151 01047 41660 81803 11068 21080 39781 40164 54000 77172 8802/ 333 4////;",
"01047099999","2010-01-12T18:00:00","4","69.0166667","23.0666667","307.0","KAUTOKEINO II, NO","FM-12","ENKA ","V020","180,1,N,0030,1","01200,1,9,N","007000,1,N,1","-0060,1","-0067,1","10163,1","12,0000,2,1",,,"7,1,06,1","7,1,06,1",,"08,99,1,08,1,00,1,01250,1,02,1,99,9",,"120,M,-0060,1","99999,9,09781,1","4,1,000,1,+999,9","71,1","SYN094AAXX  12181 01047 11657 81803 11060 21067 39781 40163 54000 69922 77177 8802/ 333 11060 4////;",
"01047099999","2010-01-13T00:00:00","4","69.0166667","23.0666667","307.0","KAUTOKEINO II, NO","FM-12","ENKA ","V020","180,1,N,0010,1","01200,1,9,N","070000,1,N,1","-0052,1","-0059,1","10155,1",,,,"7,1,06,1","2,1,06,1",,"08,99,1,08,1,00,1,01250,1,02,1,99,9",,,"99999,9,09774,1","8,1,004,1,+999,9","22,1","SYN088AAXX  13001 01047 11688 81801 11052 21059 39774 40155 58004 6//// 72272 8802/ 333 4////;",
"01047099999","2010-01-13T06:00:00","4","69.0166667","23.0666667","307.0","KAUTOKEINO II, NO","FM-12","ENKA ","V020","999,9,C,0000,1","00750,1,9,N","070000,1,N,1","-0084,1","-0092,1","10164,1","12,0000,2,1","24,0003,9,1","0041,9,1,999999,9,9","7,1,06,1","2,1,06,1",,"05,99,1,05,1,05,1,00800,1,00,1,00,1","24,9","999,N,-0084,1","99999,9,09781,1","3,1,003,1,+999,9","02,1","SYN100AAXX  13061 01047 11588 50000 11084 21092 39781 40164 53003 69912 70272 85500 333 21084 48041 70003;",
"01047099999","2010-01-13T09:00:00","4","69.0166667","23.0666667","307.0","KAUTOKEINO II, NO","FM-12","ENKA ","V020","140,1,N,0010,1","00750,1,9,N","070000,1,N,1","-0083,1","-0095,1","10176,1",,,,"2,1,03,1","2,1,03,1",,"08,99,1,08,1,05,1,00800,1,99,9,99,9",,,"99999,9,09792,1","2,1,012,1,+999,9","02,1","SYN082AAXX  13091 01047 41588 81401 11083 21095 39792 40176 52012 70222 885// 333 4////;",
"01047099999","2010-01-13T12:00:00","4","69.0166667","23.0666667","307.0","KAUTOKEINO II, NO","FM-12","ENKA ","V020","140,1,N,0010,1","01200,1,9,N","065000,1,N,1","-0058,1","-0070,1","10178,1",,,,"7,1,06,1","2,1,06,1",,"08,99,1,08,1,00,1,01250,1,02,1,99,9",,,"99999,9,09795,1","1,1,003,1,+999,9","02,1","SYN088AAXX  13121 01047 11687 81401 11058 21070 39795 40178 51003 6//// 70272 8802/ 333 4////;",
"01047099999","2010-01-13T15:00:00","4","69.0166667","23.0666667","307.0","KAUTOKEINO II, NO","FM-12","ENKA ","V020","180,1,N,0030,1","00750,1,9,N","070000,1,N,1","-0070,1","-0082,1","10174,1",,,,"2,1,03,1","2,1,03,1",,"08,99,1,08,1,05,1,00800,1,99,9,99,9",,,"99999,9,09791,1","7,1,005,1,+999,9","02,1","SYN082AAXX  13151 01047 41588 81803 11070 21082 39791 40174 57005 70222 885// 333 4////;",
"01047099999","2010-01-13T18:00:00","4","69.0166667","23.0666667","307.0","KAUTOKEINO II, NO","FM-12","ENKA ","V020","180,1,N,0030,1","00750,1,9,N","070000,1,N,1","-0056,1","-0067,1","10170,1","12,0000,9,1",,,"2,1,06,1","2,1,06,1",,"08,99,1,08,1,05,1,00800,1,99,9,99,9",,"120,M,-0045,1","99999,9,09788,1","7,1,003,1,+999,9","02,1","SYN094AAXX  13181 01047 11588 81803 11056 21067 39788 40170 57003 60002 70222 885// 333 11045 4////;","Q01  00002PRCP12"
"01047099999","2010-01-14T00:00:00","4","69.0166667","23.0666667","307.0","KAUTOKEINO II, NO","FM-12","ENKA ","V020","180,1,N,0030,1","00750,1,9,N","070000,1,N,1","-0073,1","-0084,1","10156,1",,,,"2,1,06,1","2,1,06,1",,"08,99,1,08,1,05,1,00800,1,99,9,99,9",,,"99999,9,09773,1","7,1,005,1,+999,9","02,1","SYN088AAXX  14001 01047 11588 81803 11073 21084 39773 40156 57005 6//// 70222 885// 333 4////;",
"01047099999","2010-01-14T06:00:00","4","69.0166667","23.0666667","307.0","KAUTOKEINO II, NO","FM-12","ENKA ","V020","999,9,C,0000,1","22000,1,9,N","070000,1,N,1","-0100,1","-0111,1","10156,1","12,0000,9,1","24,0000,9,1","0041,9,1,999999,9,9","2,1,06,1","1,1,06,1",,"04,99,1,04,1,00,1,01250,1,01,1,00,1","24,9","999,N,-0100,1","99999,9,09773,1","3,1,001,1,+999,9","02,1","SYN100AAXX  14061 01047 11688 40000 11100 21111 39773 40156 53001 60002 70221 84010 333 21100 48041 70000;","Q01  00002PRCP24Q02  00002PRCP12"
"01047099999","2010-01-14T09:00:00","4","69.0166667","23.0666667","307.0","KAUTOKEINO II, NO","FM-12","ENKA ","V020","180,1,N,0050,1","22000,1,9,N","070000,1,N,1","-0134,1","-0146,1","10182,1",,,,"1,1,03,1","1,1,03,1",,"03,99,1,03,1,00,1,01750,1,07,1,00,1",,,"99999,9,09796,1","3,1,024,1,+999,9","02,1","SYN082AAXX  14091 01047 41788 31805 11134 21146 39796 40182 53024 70211 83070 333 4////;",
"01047099999","2010-01-14T12:00:00","4","69.0166667","23.0666667","307.0","KAUTOKEINO II, NO","FM-12","ENKA ","V020","180,1,N,0010,1","22000,1,9,N","070000,1,N,1","-0160,1","-0175,1","10200,1",,,,"0,1,06,1","0,1,06,1","00,1,+99999,9,99,9","00,99,1,00,1,00,1,99999,9,00,1,00,1",,,"99999,9,09812,1","1,1,016,1,+999,9","02,1","SYN082AAXX  14121 01047 11988 01801 11160 21175 39812 40200 51016 6//// 70200 333 4////;",
"01047099999","2010-01-14T15:00:00","4","69.0166667","23.0666667","307.0","KAUTOKEINO II, NO","FM-12","ENKA ","V020","999,9,C,0000,1","22000,1,9,N","070000,1,N,1","-0183,1","-0205,1","10218,1",,,,"0,1,03,1","0,1,03,1","00,1,+99999,9,99,9","00,99,1,00,1,00,1,99999,9,00,1,00,1",,,"99999,9,09828,1","2,1,016,1,+999,9","02,1","SYN076AAXX  14151 01047 41988 00000 11183 21205 39828 40218 52016 70200 333 4////;",
"01047099999","2010-01-14T18:00:00","4","69.0166667","23.0666667","307.0","KAUTOKEINO II, NO","FM-12","ENKA ","V020","050,1,N,0030,1","22000,1,9,N","070000,1,N,1","-0192,1","-0210,1","10238,1","12,0000,9,1",,,"0,1,06,1","0,1,06,1","00,1,+99999,9,99,9","00,99,1,00,1,00,1,99999,9,00,1,00,1",,"120,M,-0058,1","99999,9,09847,1","2,1,019,1,+999,9","02,1","SYN088AAXX  14181 01047 11988 00503 11192 21210 39847 40238 52019 60002 70200 333 11058 4////;","Q01  00002PRCP12"
"01047099999","2010-01-15T00:00:00","4","69.0166667","23.0666667","307.0","KAUTOKEINO II, NO","FM-12","ENKA ","V020","050,1,N,0010,1","00420,1,9,N","004000,1,N,1","-0196,1","-0215,1","10265,1",,,,"2,1,06,1","0,1,06,1",,"08,99,1,08,1,06,1,00450,1,99,9,99,9",,,"99999,9,09873,1","2,1,012,1,+999,9","10,1","SYN088AAXX  15001 01047 11440 80501 11196 21215 39873 40265 52012 6//// 71020 886// 333 4////;",
"01047099999","2010-01-15T06:00:00","4","69.0166667","23.0666667","307.0","KAUTOKEINO II, NO","FM-12","ENKA ","V020","999,9,C,0000,1","00030,1,9,N","000500,1,N,1","-0147,1","-0166,1","10258,1","12,0000,9,1","24,0000,9,1","0041,9,1,999999,9,9","4,1,06,1","2,1,06,1","09,1,+99999,9,99,9","09,99,1,09,1,99,9,99999,9,99,9,99,9","24,9","999,N,-0221,1","99999,9,09868,1","6,1,002,1,+999,9","45,1","SYN094AAXX  15061 01047 11/05 90000 11147 21166 39868 40258 56002 60002 74542 333 21221 48041 70000;","Q01  00002PRCP24Q02  00002PRCP12"
"01047099999","2010-01-15T09:00:00","4","69.0166667","23.0666667","307.0","KAUTOKEINO II, NO","FM-12","ENKA ","V020","999,9,C,0000,1","00420,1,9,N","005000,1,N,1","-0112,1","-0129,1","10254,1",,,,"4,1,03,1","2,1,03,1",,"08,99,1,08,1,06,1,00450,1,99,9,99,9",,,"99999,9,09866,1","1,1,003,1,+999,9","10,1","SYN082AAXX  15091 01047 41450 80000 11112 21129 39866 40254 51003 71042 886// 333 4////;",
"01047099999","2010-01-15T12:00:00","4","69.0166667","23.0666667","307.0","KAUTOKEINO II, NO","FM-12","ENKA ","V020","180,1,N,0030,1","01200,1,9,N","070000,1,N,1","-0117,1","-0134,1","10249,1",,,,"2,1,06,1","2,1,06,1",,"08,99,1,08,1,00,1,01250,1,02,1,99,9",,,"99999,9,09861,1","7,1,004,1,+999,9","02,1","SYN088AAXX  15121 01047 11688 81803 11117 21134 39861 40249 57004 6//// 70222 8802/ 333 4////;",
"01047099999","2010-01-15T15:00:00","4","69.0166667","23.0666667","307.0","KAUTOKEINO II, NO","FM-12","ENKA ","V020","180,1,N,0050,1","00420,1,9,N","070000,1,N,1","-0124,1","-0139,1","10245,1",,,,"2,1,03,1","2,1,03,1",,"08,99,1,08,1,06,1,00450,1,99,9,99,9",,,"99999,9,09857,1","7,1,004,1,+999,9","02,1","SYN082AAXX  15151 01047 41488 81805 11124 21139 39857 40245 57004 70222 886// 333 4////;",
"01047099999","2010-01-15T18:00:00","4","69.0166667","23.0666667","307.0","KAUTOKEINO II, NO","FM-12","ENKA ","V020","220,1,N,0070,1","00420,1,9,N","070000,1,N,1","-0120,1","-0135,1","10244,1","12,0000,9,1",,,"2,1,06,1","2,1,06,1",,"08,99,1,08,1,06,1,00450,1,99,9,99,9",,"120,M,-0095,1","99999,9,09856,1","4,1,000,1,+999,9","02,1","SYN094AAXX  15181 01047 11488 82207 11120 21135 39856 40244 54000 60002 70222 886// 333 11095 4////;","Q01  00002PRCP12"
"01047099999","2010-01-16T00:00:00","4","69.0166667","23.0666667","307.0","KAUTOKEINO II, NO","FM-12","ENKA ","V020","220,1,N,0050,1","22000,1,9,N","070000,1,N,1","-0170,1","-0187,1","10244,1",,,,"2,1,06,1","0,1,06,1","00,1,+99999,9,99,9","00,99,1,00,1,00,1,99999,9,00,1,00,1",,,"99999,9,09854,1","4,1,000,1,+999,9","01,1","SYN082AAXX  16001 01047 11988 02205 11170 21187 39854 40244 54000 6//// 70120 333 4////;",
"01047099999","2010-01-16T06:00:00","4","69.0166667","23.0666667","307.0","KAUTOKEINO II, NO","FM-12","ENKA ","V020","220,1,N,0030,1","22000,1,9,N","070000,1,N,1","-0186,1","-0204,1","10220,1","12,0000,9,1","24,0000,9,1","0041,9,1,999999,9,9","2,1,06,1","0,1,06,1","00,1,+99999,9,99,9","00,99,1,00,1,00,1,99999,9,00,1,00,1","24,9","999,N,-0186,1","99999,9,09830,1","7,1,010,1,+999,9","02,1","SYN094AAXX  16061 01047 11988 02203 11186 21204 39830 40220 57010 60002 70220 333 21186 48041 70000;","Q01  00002PRCP24Q02  00002PRCP12"
"01047099999","2010-01-16T09:00:00","4","69.0166667","23.0666667","307.0","KAUTOKEINO II, NO","FM-12","ENKA ","V020","220,1,N,0030,1","22000,1,9,N","070000,1,N,1","-0175,1","-0193,1","10223,1",,,,"0,1,03,1","0,1,03,1",,"02,99,1,02,1,00,1,01750,1,04,1,00,1",,,"99999,9,09834,1","5,1,003,1,+999,9","02,1","SYN082AAXX  16091 01047 41788 22203 11175 21193 39834 40223 55003 70200 82040 333 4////;",
"01047099999","2010-01-16T12:00:00","4","69.0166667","23.0666667","307.0","KAUTOKEINO II, NO","FM-12","ENKA ","V020","180,1,N,0050,1","00750,1,9,N","070000,1,N,1","-0172,1","-0190,1","10226,1",,,,"2,1,06,1","0,1,06,1",,"06,99,1,06,1,05,1,00800,1,00,1,00,1",,,"99999,9,09836,1","1,1,003,1,+999,9","03,1","SYN088AAXX  16121 01047 11588 61805 11172 21190 39836 40226 51003 6//// 70320 86500 333 4////;",
"01047099999","2010-01-16T15:00:00","4","69.0166667","23.0666667","307.0","KAUTOKEINO II, NO","FM-12","ENKA ","V020","180,1,N,0050,1","00750,1,9,N","070000,1,N,1","-0210,1","-0229,1","10226,1",,,,"2,1,03,1","2,1,03,1",,"06,99,1,06,1,05,1,00800,1,00,1,00,1",,,"99999,9,09835,1","4,1,000,1,+999,9","02,1","SYN082AAXX  16151 01047 41588 61805 11210 21229 39835 40226 54000 70222 86500 333 4////;",
"01047099999","2010-01-16T18:00:00","4","69.0166667","23.0666667","307.0","KAUTOKEINO II, NO","FM-12","ENKA ","V020","180,1,N,0030,1","22000,1,9,N","070000,1,N,1","-0206,1","-0228,1","10231,1","12,0000,9,1",,,"2,1,06,1","2,1,06,1",,"03,99,1,03,1,05,1,00800,1,00,1,00,1",,"120,M,-0110,1","99999,9,09840,1","2,1,005,1,+999,9","01,1","SYN094AAXX  16181 01047 11588 31803 11206 21228 39840 40231 52005 60002 70122 83500 333 11110 4////;","Q01  00002PRCP12"
"01047099999","2010-01-17T00:00:00","4","69.0166667","23.0666667","307.0","KAUTOKEINO II, NO","FM-12","ENKA ","V020","180,1,N,0010,1","22000,1,9,N","070000,1,N,1","-0218,1","-0243,1","10234,1",,,,"0,1,06,1","0,1,06,1","00,1,+99999,9,99,9","00,99,1,00,1,00,1,99999,9,00,1,00,1",,,"99999,9,09842,1","4,1,000,1,+999,9","02,1","SYN082AAXX  17001 01047 11988 01801 11218 21243 39842 40234 54000 6//// 70200 333 4////;",
"01047099999","2010-01-17T06:00:00","4","69.0166667","23.0666667","307.0","KAUTOKEINO II, NO","FM-12","ENKA ","V020","999,9,C,0000,1","22000,1,9,N","065000,1,N,1","-0171,1","-0192,1","10225,1","12,0000,9,1","24,0000,9,1","0041,9,1,999999,9,9","0,1,06,1","0,1,06,1","00,1,+99999,9,99,9","00,99,1,00,1,00,1,99999,9,00,1,00,1","24,9","999,N,-0218,1","99999,9,09835,1","8,1,003,1,+999,9","02,1","SYN094AAXX  17061 01047 11987 00000 11171 21192 39835 40225 58003 60002 70200 333 21218 48041 70000;","Q01  00002PRCP24Q02  00002PRCP12"
"01047099999","2010-01-17T09:00:00","4","69.0166667","23.0666667","307.0","KAUTOKEINO II, NO","FM-12","ENKA ","V020","180,1,N,0070,1","01200,1,9,N","002000,1,N,1","-0115,1","-0127,1","10217,1",,,,"7,1,03,1","2,1,03,1",,"08,99,1,08,1,00,1,01250,1,02,1,99,9",,,"99999,9,09830,1","6,1,005,1,+999,9","71,1","SYN082AAXX  17091 01047 41620 81807 11115 21127 39830 40217 56005 77172 8802/ 333 4////;",
"01047099999","2010-01-17T12:00:00","4","69.0166667","23.0666667","307.0","KAUTOKEINO II, NO","FM-12","ENKA ","V020","180,1,N,0070,1","01200,1,9,N","002000,1,N,1","-0092,1","-0104,1","10218,1",,,,"7,1,06,1","7,1,06,1",,"08,99,1,08,1,00,1,01250,1,02,1,99,9",,,"99999,9,09833,1","4,1,000,1,+999,9","71,1","SYN088AAXX  17121 01047 11620 81807 11092 21104 39833 40218 54000 6//// 77177 8802/ 333 4////;",
"01047099999","2010-01-17T15:00:00","4","69.0166667","23.0666667","307.0","KAUTOKEINO II, NO","FM-12","ENKA ","V020","180,1,N,0100,1","01200,1,9,N","002000,1,N,1","-0072,1","-0091,1","10213,1",,,,"7,1,03,1","3,1,03,1",,"08,99,1,08,1,00,1,01250,1,02,1,99,9",,,"99999,9,09829,1","5,1,004,1,+999,9","71,1","SYN082AAXX  17151 01047 41620 81810 11072 21091 39829 40213 55004 77173 8802/ 333 4////;",
"01047099999","2010-01-17T18:00:00","4","69.0166667","23.0666667","307.0","KAUTOKEINO II, NO","FM-12","ENKA ","V020","180,1,N,0100,1","01200,1,9,N","004000,1,N,1","-0070,1","-0090,1","10215,1","12,0008,9,1",,,"7,1,06,1","3,1,06,1",,"08,99,1,08,1,00,1,01250,1,02,1,99,9",,"120,M,-0065,1","99999,9,09831,1","4,1,000,1,+999,9","71,1","SYN094AAXX  17181 01047 11640 81810 11070 21090 39831 40215 54000 69972 77173 8802/ 333 11065 4////;",
"01047099999","2010-01-18T00:00:00","4","69.0166667","23.0666667","307.0","KAUTOKEINO II, NO","FM-12","ENKA ","V020","180,1,N,0100,1","01200,1,9,N","070000,1,N,1","-0060,1","-0095,1","10222,1",,,,"7,1,06,1","3,1,06,1",,"08,99,1,08,1,00,1,01250,1,02,1,99,9",,,"99999,9,09838,1","4,1,000,1,+999,9","36,1","SYN088AAXX  18001 01047 11688 81810 11060 21095 39838 40222 54000 6//// 73673 8802/ 333 4////;",
"01047099999","2010-01-18T06:00:00","4","69.0166667","23.0666667","307.0","KAUTOKEINO II, NO","FM-12","ENKA ","V020","180,1,N,0100,1","01200,1,9,N","070000,1,N,1","-0051,1","-0094,1","10213,1","12,0000,2,1","24,0008,9,1","0036,9,1,999999,9,9","7,1,06,1","3,1,06,1",,"07,99,1,07,1,00,1,01250,1,02,1,00,1","24,9","999,N,-0070,1","99999,9,09830,1","6,1,004,1,+999,9","36,1","SYN100AAXX  18061 01047 11688 71810 11051 21094 39830 40213 56004 69912 73673 87020 333 21070 48036 70008;",
"01047099999","2010-01-18T09:00:00","4","69.0166667","23.0666667","307.0","KAUTOKEINO II, NO","FM-12","ENKA ","V020","180,1,N,0100,1","01200,1,9,N","070000,1,N,1","-0153,1","-0193,1","10223,1",,,,"3,1,03,1","2,1,03,1",,"08,99,1,08,1,00,1,01250,1,02,1,99,9",,,"99999,9,09834,1","1,1,005,1,+999,9","36,1","SYN082AAXX  18091 01047 41688 81810 11153 21193 39834 40223 51005 73632 8802/ 333 4////;",
"01047099999","2010-01-18T12:00:00","4","69.0166667","23.0666667","307.0","KAUTOKEINO II, NO","FM-12","ENKA ","V020","180,1,N,0100,1","01200,1,9,N","010000,1,N,1","-0058,1","-0100,1","10215,1",,,,"3,1,06,1","3,1,06,1",,"08,99,1,08,1,00,1,01250,1,02,1,99,9",,,"99999,9,09831,1","7,1,003,1,+999,9","38,1","SYN088AAXX  18121 01047 11660 81810 11058 21100 39831 40215 57003 6//// 73833 8802/ 333 4////;",
"01047099999","2010-01-18T15:00:00","4","69.0166667","23.0666667","307.0","KAUTOKEINO II, NO","FM-12","ENKA ","V020","180,1,N,0100,1","00750,1,9,N","070000,1,N,1","-0064,1","-0100,1","10214,1",,,,"3,1,03,1","3,1,03,1",,"08,99,1,08,1,05,1,00800,1,99,9,99,9",,,"99999,9,09830,1","6,1,001,1,+999,9","36,1","SYN082AAXX  18151 01047 41588 81810 11064 21100 39830 40214 56001 73633 885// 333 4////;",
"01047099999","2010-01-18T18:00:00","4","69.0166667","23.0666667","307.0","KAUTOKEINO II, NO","FM-12","ENKA ","V020","180,1,N,0100,1","00750,1,9,N","070000,1,N,1","-0064,1","-0106,1","10224,1","12,0000,9,1",,,"3,1,06,1","3,1,06,1",,"05,99,1,05,1,05,1,00800,1,00,1,00,1",,"120,M,-0030,1","99999,9,09839,1","2,1,009,1,+999,9","36,1","SYN094AAXX  18181 01047 11588 51810 11064 21106 39839 40224 52009 60002 73633 85500 333 11030 4////;","Q01  00002PRCP12"
"01047099999","2010-01-19T00:00:00","4","69.0166667","23.0666667","307.0","KAUTOKEINO II, NO","FM-12","ENKA ","V020","180,1,N,0100,1","00750,1,9,N","070000,1,N,1","-0040,1","-0081,1","10218,1",,,,"3,1,06,1","2,1,06,1",,"08,99,1,08,1,05,1,00800,1,99,9,99,9",,,"99999,9,09835,1","8,1,005,1,+999,9","36,1","SYN088AAXX  19001 01047 11588 81810 11040 21081 39835 40218 58005 6//// 73632 885// 333 4////;",
"01047099999","2010-01-19T06:00:00","4","69.0166667","23.0666667","307.0","KAUTOKEINO II, NO","FM-12","ENKA ","V020","180,1,N,0070,1","00750,1,9,N","070000,1,N,1","-0048,1","-0081,1","10200,1","12,0000,9,1","24,0000,9,1","0035,9,1,999999,9,9","3,1,06,1","2,1,06,1",,"08,99,1,08,1,05,1,00800,1,99,9,99,9","24,9","999,N,-0064,1","99999,9,09817,1","0,1,002,1,+999,9","36,1","SYN100AAXX  19061 01047 11588 81807 11048 21081 39817 40200 50002 60002 73632 885// 333 21064 48035 70000;","Q01  00002PRCP24Q02  00002PRCP12"
"01047099999","2010-01-19T09:00:00","4","69.0166667","23.0666667","307.0","KAUTOKEINO II, NO","FM-12","ENKA ","V020","160,1,N,0070,1","01200,1,9,N","070000,1,N,1","-0057,1","-0090,1","10207,1",,,,"3,1,03,1","2,1,03,1",,"08,99,1,08,1,00,1,01250,1,02,1,99,9",,,"99999,9,09824,1","2,1,004,1,+999,9","02,1","SYN082AAXX  19091 01047 41688 81607 11057 21090 39824 40207 52004 70232 8802/ 333 4////;",
"01047099999","2010-01-19T12:00:00","4","69.0166667","23.0666667","307.0","KAUTOKEINO II, NO","FM-12","ENKA ","V020","180,1,N,0100,1","01200,1,9,N","070000,1,N,1","-0056,1","-0085,1","10207,1",,,,"3,1,06,1","2,1,06,1",,"08,99,1,08,1,00,1,01250,1,02,1,99,9",,,"99999,9,09823,1","4,1,000,1,+999,9","36,1","SYN088AAXX  19121 01047 11688 81810 11056 21085 39823 40207 54000 6//// 73632 8802/ 333 4////;",
"01047099999","2010-01-19T15:00:00","4","69.0166667","23.0666667","307.0","KAUTOKEINO II, NO","FM-12","ENKA ","V020","180,1,N,0100,1","00750,1,9,N","070000,1,N,1","-0052,1","-0082,1","10209,1",,,,"3,1,03,1","2,1,03,1",,"07,99,1,07,1,05,1,00800,1,00,1,00,1",,,"99999,9,09826,1","4,1,000,1,+999,9","36,1","SYN082AAXX  19151 01047 41588 71810 11052 21082 39826 40209 54000 73632 87500 333 4////;",
"01047099999","2010-01-19T18:00:00","4","69.0166667","23.0666667","307.0","KAUTOKEINO II, NO","FM-12","ENKA ","V020","180,1,N,0100,1","00750,1,9,N","070000,1,N,1","-0065,1","-0093,1","10219,1","12,0000,9,1",,,"3,1,06,1","2,1,06,1",,"05,99,1,05,1,05,1,00800,1,00,1,00,1",,"120,M,-0025,1","99999,9,09835,1","1,1,010,1,+999,9","02,1","SYN094AAXX  19181 01047 11588 51810 11065 21093 39835 40219 51010 60002 70232 85500 333 11025 4////;","Q01  00002PRCP12"
"01047099999","2010-01-20T00:00:00","4","69.0166667","23.0666667","307.0","KAUTOKEINO II, NO","FM-12","ENKA ","V020","160,1,N,0070,1","22000,1,9,N","070000,1,N,1","-0076,1","-0099,1","10246,1",,,,"1,1,06,1","1,1,06,1",,"04,99,1,04,1,00,1,01750,1,07,1,00,1",,,"99999,9,09860,1","2,1,008,1,+999,9","02,1","SYN088AAXX  20001 01047 11788 41607 11076 21099 39860 40246 52008 6//// 70211 84070 333 4////;",
"01047099999","2010-01-20T06:00:00","4","69.0166667","23.0666667","307.0","KAUTOKEINO II, NO","FM-12","ENKA ","V020","160,1,N,0030,1","01500,1,9,N","070000,1,N,1","-0078,1","-0101,1","10272,1","12,0000,9,1","24,0000,9,1","0035,9,1,999999,9,9","2,1,06,1","1,1,06,1",,"06,99,1,06,1,00,1,01750,1,07,1,00,1","24,9","999,N,-0081,1","99999,9,09885,1","2,1,010,1,+999,9","02,1","SYN100AAXX  20061 01047 11788 61603 11078 21101 39885 40272 52010 60002 70221 86070 333 21081 48035 70000;","Q01  00002PRCP24Q02  00002PRCP12"
"01047099999","2010-01-20T09:00:00","4","69.0166667","23.0666667","307.0","KAUTOKEINO II, NO","FM-12","ENKA ","V020","180,1,N,0050,1","01500,1,9,N","070000,1,N,1","-0079,1","-0100,1","10294,1",,,,"1,1,03,1","1,1,03,1",,"05,99,1,05,1,00,1,01750,1,07,1,00,1",,,"99999,9,09906,1","2,1,021,1,+999,9","02,1","SYN082AAXX  20091 01047 41788 51805 11079 21100 39906 40294 52021 70211 85070 333 4////;",
"01047099999","2010-01-20T12:00:00","4","69.0166667","23.0666667","307.0","KAUTOKEINO II, NO","FM-12","ENKA ","V020","180,1,N,0050,1","00750,1,9,N","070000,1,N,1","-0080,1","-0100,1","10315,1",,,,"1,1,06,1","1,1,06,1",,"06,99,1,06,1,05,1,00800,1,00,1,00,1",,,"99999,9,09926,1","2,1,020,1,+999,9","02,1","SYN088AAXX  20121 01047 11588 61805 11080 21100 39926 40315 52020 6//// 70211 86500 333 4////;",
"01047099999","2010-01-20T15:00:00","4","69.0166667","23.0666667","307.0","KAUTOKEINO II, NO","FM-12","ENKA ","V020","160,1,N,0050,1","00750,1,9,N","070000,1,N,1","-0058,1","-0077,1","10332,1",,,,"2,1,03,1","2,1,03,1",,"08,99,1,08,1,05,1,00800,1,99,9,99,9",,,"99999,9,09944,1","2,1,018,1,+999,9","02,1","SYN082AAXX  20151 01047 41588 81605 11058 21077 39944 40332 52018 70222 885// 333 4////;",
"01047099999","2010-01-20T18:00:00","4","69.0166667","23.0666667","307.0","KAUTOKEINO II, NO","FM-12","ENKA ","V020","160,1,N,0050,1","00750,1,9,N","070000,1,N,1","-0061,1","-0080,1","10345,1","12,0000,9,1",,,"2,1,06,1","2,1,06,1",,"08,99,1,08,1,05,1,00800,1,99,9,99,9",,"120,M,-0055,1","99999,9,09956,1","1,1,012,1,+999,9","02,1","SYN094AAXX  20181 01047 11588 81605 11061 21080 39956 40345 51012 60002 70222 885// 333 11055 4////;","Q01  00002PRCP12"
"01047099999","2010-01-21T00:00:00","4","69.0166667","23.0666667","307.0","KAUTOKEINO II, NO","FM-12","ENKA ","V020","320,1,N,0050,1","00750,1,9,N","070000,1,N,1","-0058,1","-0077,1","10370,1",,,,"2,1,06,1","2,1,06,1",,"08,99,1,08,1,05,1,00800,1,99,9,99,9",,,"99999,9,09980,1","1,1,005,1,+999,9","02,1","SYN088AAXX  21001 01047 11588 83205 11058 21077 39980 40370 51005 6//// 70222 885// 333 4////;",
"01047099999","2010-01-21T06:00:00","4","69.0166667","23.0666667","307.0","KAUTOKEINO II, NO","FM-12","ENKA ","V020","320,1,N,0010,1","00750,1,9,N","070000,1,N,1","-0052,1","-0070,1","10377,1","12,0000,9,1","24,0000,9,1","0035,9,1,999999,9,9","2,1,06,1","2,1,06,1",,"08,99,1,08,1,05,1,00800,1,99,9,99,9","24,9","999,N,-0062,1","99999,9,09987,1","3,1,002,1,+999,9","02,1","SYN100AAXX  21061 01047 11588 83201 11052 21070 39987 40377 53002 60002 70222 885// 333 21062 48035 70000;","Q01  00002PRCP24Q02  00002PRCP12"
"01047099999","2010-01-21T09:00:00","4","69.0166667","23.0666667","307.0","KAUTOKEINO II, NO","FM-12","ENKA ","V020","320,1,N,0010,1","01200,1,9,N","070000,1,N,1","-0060,1","-0076,1","10388,1",,,,"2,1,03,1","2,1,03,1",,"08,99,1,08,1,00,1,01250,1,02,1,99,9",,,"99999,9,09997,1","3,1,010,1,+999,9","02,1","SYN082AAXX  21091 01047 41688 83201 11060 21076 39997 40388 53010 70222 8802/ 333 4////;",
"01047099999","2010-01-21T12:00:00","4","69.0166667","23.0666667","307.0","KAUTOKEINO II, NO","FM-12","ENKA ","V020","140,1,N,0050,1","01200,1,9,N","070000,1,N,1","-0050,1","-0066,1","10393,1",,,,"2,1,06,1","2,1,06,1",,"08,99,1,08,1,00,1,01250,1,02,1,99,9",,,"99999,9,10002,1","1,1,005,1,+999,9","02,1","SYN088AAXX  21121 01047 11688 81405 11050 21066 30002 40393 51005 6//// 70222 8802/ 333 4////;",
"01047099999","2010-01-21T15:00:00","4","69.0166667","23.0666667","307.0","KAUTOKEINO II, NO","FM-12","ENKA ","V020","140,1,N,0050,1","01200,1,9,N","070000,1,N,1","-0045,1","-0053,1","10392,1",,,,"2,1,03,1","2,1,03,1",,"08,99,1,08,1,00,1,01250,1,02,1,99,9",,,"99999,9,10002,1","4,1,000,1,+999,9","02,1","SYN082AAXX  21151 01047 41688 81405 11045 21053 30002 40392 54000 70222 8802/ 333 4////;",
"01047099999","2010-01-21T18:00:00","4","69.0166667","23.0666667","307.0","KAUTOKEINO II, NO","FM-12","ENKA ","V020","160,1,N,0050,1","00120,1,9,N","070000,1,N,1","-0058,1","-0065,1","10395,1","12,0000,9,1",,,"2,1,06,1","2,1,06,1",,"08,99,1,08,1,06,1,00150,1,99,9,99,9",,"120,M,-0035,1","99999,9,10004,1","4,1,000,1,+999,9","02,1","SYN094AAXX  21181 01047 11288 81605 11058 21065 30004 40395 54000 60002 70222 886// 333 11035 4////;","Q01  00002PRCP12"
"01047099999","2010-01-22T00:00:00","4","69.0166667","23.0666667","307.0","KAUTOKEINO II, NO","FM-12","ENKA ","V020","160,1,N,0070,1","00120,1,9,N","070000,1,N,1","-0076,1","-0083,1","10397,1",,,,"2,1,06,1","2,1,06,1",,"08,99,1,08,1,06,1,00150,1,99,9,99,9",,,"99999,9,10005,1","1,1,004,1,+999,9","02,1","SYN088AAXX  22001 01047 11288 81607 11076 21083 30005 40397 51004 6//// 70222 886// 333 4////;",
"01047099999","2010-01-22T06:00:00","4","69.0166667","23.0666667","307.0","KAUTOKEINO II, NO","FM-12","ENKA ","V020","160,1,N,0050,1","00420,1,9,N","065000,1,N,1","-0131,1","-0143,1","10394,1","12,0000,9,1","24,0000,9,1","0035,9,1,999999,9,9","2,1,06,1","2,1,06,1",,"08,99,1,08,1,06,1,00450,1,99,9,99,9","24,9","999,N,-0131,1","99999,9,10000,1","3,1,007,1,+999,9","02,1","SYN100AAXX  22061 01047 11487 81605 11131 21143 30000 40394 53007 60002 70222 886// 333 21131 48035 70000;","Q01  00002PRCP24Q02  00002PRCP12"
"01047099999","2010-01-22T09:00:00","4","69.0166667","23.0666667","307.0","KAUTOKEINO II, NO","FM-12","ENKA ","V020","160,1,N,0050,1","00420,1,9,N","070000,1,N,1","-0156,1","-0171,1","10396,1",,,,"2,1,03,1","2,1,03,1",,"06,99,1,06,1,06,1,00450,1,00,1,00,1",,,"99999,9,10001,1","4,1,000,1,+999,9","01,1","SYN082AAXX  22091 01047 41488 61605 11156 21171 30001 40396 54000 70122 86600 333 4////;",
"01047099999","2010-01-22T12:00:00","4","69.0166667","23.0666667","307.0","KAUTOKEINO II, NO","FM-12","ENKA ","V020","160,1,N,0050,1","01200,1,9,N","070000,1,N,1","-0145,1","-0160,1","10389,1",,,,"2,1,06,1","2,1,06,1",,"08,99,1,08,1,00,1,01250,1,02,1,99,9",,,"99999,9,09995,1","7,1,007,1,+999,9","02,1","SYN088AAXX  22121 01047 11688 81605 11145 21160 39995 40389 57007 6//// 70222 8802/ 333 4////;",
"01047099999","2010-01-22T15:00:00","4","69.0166667","23.0666667","307.0","KAUTOKEINO II, NO","FM-12","ENKA ","V020","160,1,N,0050,1","01200,1,9,N","010000,1,N,1","-0150,1","-0167,1","10383,1",,,,"7,1,03,1","2,1,03,1",,"08,99,1,08,1,00,1,01250,1,02,1,99,9",,,"99999,9,09988,1","7,1,006,1,+999,9","71,1","SYN082AAXX  22151 01047 41660 81605 11150 21167 39988 40383 57006 77172 8802/ 333 4////;",
"01047099999","2010-01-22T18:00:00","4","69.0166667","23.0666667","307.0","KAUTOKEINO II, NO","FM-12","ENKA ","V020","220,1,N,0070,1","01200,1,9,N","010000,1,N,1","-0140,1","-0158,1","10378,1","12,0000,2,1",,,"7,1,06,1","2,1,06,1",,"08,99,1,08,1,00,1,01250,1,02,1,99,9",,"120,M,-0068,1","99999,9,09984,1","6,1,005,1,+999,9","70,1","SYN094AAXX  22181 01047 11660 82207 11140 21158 39984 40378 56005 69912 77072 8802/ 333 11068 4////;",
"01047099999","2010-01-23T00:00:00","4","69.0166667","23.0666667","307.0","KAUTOKEINO II, NO","FM-12","ENKA ","V020","220,1,N,0070,1","22000,1,9,N","070000,1,N,1","-0160,1","-0180,1","10371,1",,,,"7,1,06,1","2,1,06,1",,"03,99,1,03,1,05,1,00800,1,00,1,00,1",,,"99999,9,09977,1","7,1,005,1,+999,9","01,1","SYN088AAXX  23001 01047 11588 32207 11160 21180 39977 40371 57005 6//// 70172 83500 333 4////;",
"01047099999","2010-01-23T06:00:00","4","69.0166667","23.0666667","307.0","KAUTOKEINO II, NO","FM-12","ENKA ","V020","220,1,N,0030,1","22000,1,9,N","070000,1,N,1","-0199,1","-0222,1","10366,1","12,0000,2,1","24,0003,9,1","0035,9,1,999999,9,9","7,1,06,1","2,1,06,1","00,1,+99999,9,99,9","00,99,1,00,1,00,1,99999,9,00,1,00,1","24,9","999,N,-0199,1","99999,9,09970,1","6,1,006,1,+999,9","02,1","SYN094AAXX  23061 01047 11988 02203 11199 21222 39970 40366 56006 69912 70272 333 21199 48035 70002;",
"01047099999","2010-01-23T09:00:00","4","69.0166667","23.0666667","307.0","KAUTOKEINO II, NO","FM-12","ENKA ","V020","220,1,N,0030,1","22000,1,9,N","070000,1,N,1","-0214,1","-0239,1","10367,1",,,,"0,1,03,1","0,1,03,1","00,1,+99999,9,99,9","00,99,1,00,1,00,1,99999,9,00,1,00,1",,,"99999,9,09971,1","5,1,001,1,+999,9","02,1","SYN076AAXX  23091 01047 41988 02203 11214 21239 39971 40367 55001 70200 333 4////;",
"01047099999","2010-01-23T12:00:00","4","69.0166667","23.0666667","307.0","KAUTOKEINO II, NO","FM-12","ENKA ","V020","220,1,N,0050,1","22000,1,9,N","070000,1,N,1","-0213,1","-0238,1","10362,1",,,,"0,1,06,1","0,1,06,1",,"02,99,1,02,1,05,1,00800,1,00,1,00,1",,,"99999,9,09966,1","8,1,005,1,+999,9","02,1","SYN088AAXX  23121 01047 11588 22205 11213 21238 39966 40362 58005 6//// 70200 82500 333 4////;",
"01047099999","2010-01-23T15:00:00","4","69.0166667","23.0666667","307.0","KAUTOKEINO II, NO","FM-12","ENKA ","V020","220,1,N,0030,1","22000,1,9,N","070000,1,N,1","-0260,1","-0284,1","10362,1",,,,"0,1,03,1","0,1,03,1","00,1,+99999,9,99,9","00,99,1,00,1,00,1,99999,9,00,1,00,1",,,"99999,9,09964,1","6,1,002,1,+999,9","02,1","SYN076AAXX  23151 01047 41988 02203 11260 21284 39964 40362 56002 70200 333 4////;",
"01047099999","2010-01-23T18:00:00","4","69.0166667","23.0666667","307.0","KAUTOKEINO II, NO","FM-12","ENKA ","V020","220,1,N,0030,1","22000,1,9,N","070000,1,N,1","-0294,1","-0318,1","10359,1","12,0000,9,1",,,"0,1,06,1","0,1,06,1",,"03,99,1,03,1,00,1,01750,1,07,1,00,1",,"120,M,-0135,1","99999,9,09959,1","6,1,004,1,+999,9","02,1","SYN094AAXX  23181 01047 11788 32203 11294 21318 39959 40359 56004 60002 70200 83070 333 11135 4////;","Q01  00002PRCP12"
"01047099999","2010-01-24T00:00:00","4","69.0166667","23.0666667","307.0","KAUTOKEINO II, NO","FM-12","ENKA ","V020","180,1,N,0030,1","01500,1,9,N","070000,1,N,1","-0205,1","-0227,1","10334,1",,,,"2,1,06,1","2,1,06,1",,"08,99,1,08,1,00,1,01750,1,07,1,99,9",,,"99999,9,09939,1","7,1,012,1,+999,9","02,1","SYN088AAXX  24001 01047 11788 81803 11205 21227 39939 40334 57012 6//// 70222 8807/ 333 4////;",
"01047099999","2010-01-24T06:00:00","4","69.0166667","23.0666667","307.0","KAUTOKEINO II, NO","FM-12","ENKA ","V020","999,9,C,0000,1","01500,1,9,N","065000,1,N,1","-0183,1","-0209,1","10309,1","12,0000,9,1","24,0000,9,1","0035,9,1,999999,9,9","2,1,06,1","2,1,06,1",,"08,99,1,08,1,00,1,01750,1,02,1,99,9","24,9","999,N,-0295,1","99999,9,09916,1","8,1,005,1,+999,9","02,1","SYN100AAXX  24061 01047 11787 80000 11183 21209 39916 40309 58005 60002 70222 8802/ 333 21295 48035 70000;","Q01  00002PRCP24Q02  00002PRCP12"
"01047099999","2010-01-24T09:00:00","4","69.0166667","23.0666667","307.0","KAUTOKEINO II, NO","FM-12","ENKA ","V020","180,1,N,0030,1","01200,1,9,N","065000,1,N,1","-0175,1","-0201,1","10305,1",,,,"2,1,03,1","2,1,03,1",,"08,99,1,08,1,00,1,01250,1,02,1,99,9",,,"99999,9,09913,1","6,1,004,1,+999,9","02,1","SYN082AAXX  24091 01047 41687 81803 11175 21201 39913 40305 56004 70222 8802/ 333 4////;",
"01047099999","2010-01-24T12:00:00","4","69.0166667","23.0666667","307.0","KAUTOKEINO II, NO","FM-12","ENKA ","V020","180,1,N,0030,1","01200,1,9,N","070000,1,N,1","-0176,1","-0202,1","10301,1",,,,"2,1,06,1","2,1,06,1",,"08,99,1,08,1,00,1,01250,1,02,1,99,9",,,"99999,9,09909,1","4,1,000,1,+999,9","02,1","SYN088AAXX  24121 01047 11688 81803 11176 21202 39909 40301 54000 6//// 70222 8802/ 333 4////;",
"01047099999","2010-01-24T15:00:00","4","69.0166667","23.0666667","307.0","KAUTOKEINO II, NO","FM-12","ENKA ","V020","220,1,N,0030,1","22000,1,9,N","070000,1,N,1","-0216,1","-0241,1","10306,1",,,,"2,1,03,1","2,1,03,1",,"03,99,1,03,1,00,1,01750,1,07,1,00,1",,,"99999,9,09912,1","4,1,000,1,+999,9","01,1","SYN082AAXX  24151 01047 41788 32203 11216 21241 39912 40306 54000 70122 83070 333 4////;",
"01047099999","2010-01-24T18:00:00","4","69.0166667","23.0666667","307.0","KAUTOKEINO II, NO","FM-12","ENKA ","V020","220,1,N,0030,1","22000,1,9,N","070000,1,N,1","-0242,1","-0267,1","10313,1","12,0000,9,1",,,"0,1,06,1","0,1,06,1",,"02,99,1,02,1,00,1,01750,1,07,1,00,1",,"120,M,-0158,1","99999,9,09917,1","3,1,005,1,+999,9","02,1","SYN094AAXX  24181 01047 11788 22203 11242 21267 39917 40313 53005 60002 70200 82070 333 11158 4////;","Q01  00002PRCP12"
"01047099999","2010-01-25T00:00:00","4","69.0166667","23.0666667","307.0","KAUTOKEINO II, NO","FM-12","ENKA ","V020","220,1,N,0010,1","22000,1,9,N","070000,1,N,1","-0260,1","-0284,1","10327,1",,,,"0,1,06,1","0,1,06,1","00,1,+99999,9,99,9","00,99,1,00,1,00,1,99999,9,00,1,00,1",,,"99999,9,09930,1","1,1,005,1,+999,9","02,1","SYN082AAXX  25001 01047 11988 02201 11260 21284 39930 40327 51005 6//// 70200 333 4////;",
"01047099999","2010-01-25T06:00:00","4","69.0166667","23.0666667","307.0","KAUTOKEINO II, NO","FM-12","ENKA ","V020","999,9,C,0000,1","01200,1,9,N","030000,1,N,1","-0180,1","-0206,1","10330,1","12,0000,9,1","24,0000,9,1","0095,9,1,999999,9,9","2,1,06,1","0,1,06,1",,"08,99,1,08,1,00,1,01250,1,02,1,99,9","24,9","999,N,-0266,1","99999,9,09936,1","1,1,002,1,+999,9","02,1","SYN100AAXX  25061 01047 11680 80000 11180 21206 39936 40330 51002 60002 70220 8802/ 333 21266 48095 70000;","Q01  00002PRCP24Q02  00002PRCP12"
"01047099999","2010-01-25T12:00:00","4","69.0166667","23.0666667","307.0","KAUTOKEINO II, NO","FM-12","ENKA ","V020","220,1,N,0070,1","01200,1,9,N","010000,1,N,1","-0094,1","-0114,1","10337,1",,,,"7,1,06,1","2,1,06,1",,"08,99,1,08,1,00,1,01250,1,02,1,99,9",,,"99999,9,09947,1","2,1,005,1,+999,9","71,1","SYN088AAXX  25121 01047 11660 82207 11094 21114 39947 40337 52005 6//// 77172 8802/ 333 4////;",
"01047099999","2010-01-25T15:00:00","4","69.0166667","23.0666667","307.0","KAUTOKEINO II, NO","FM-12","ENKA ","V020","220,1,N,0050,1","01200,1,9,N","070000,1,N,1","-0090,1","-0106,1","10337,1",,,,"7,1,03,1","2,1,03,1",,"08,99,1,08,1,00,1,01250,1,02,1,99,9",,,"99999,9,09948,1","4,1,000,1,+999,9","02,1","SYN082AAXX  25151 01047 41688 82205 11090 21106 39948 40337 54000 70272 8802/ 333 4////;",
"01047099999","2010-01-25T18:00:00","4","69.0166667","23.0666667","307.0","KAUTOKEINO II, NO","FM-12","ENKA ","V020","220,1,N,0050,1","01200,1,9,N","070000,1,N,1","-0081,1","-0097,1","10339,1","12,0000,2,1",,,"7,1,06,1","2,1,06,1",,"08,99,1,08,1,00,1,01250,1,02,1,99,9",,"120,M,-0078,1","99999,9,09949,1","1,1,002,1,+999,9","02,1","SYN094AAXX  25181 01047 11688 82205 11081 21097 39949 40339 51002 69912 70272 8802/ 333 11078 4////;",
"01047099999","2010-01-26T00:00:00","4","69.0166667","23.0666667","307.0","KAUTOKEINO II, NO","FM-12","ENKA ","V020","220,1,N,0070,1","22000,1,9,N","070000,1,N,1","-0096,1","-0116,1","10338,1",,,,"1,1,06,1","1,1,06,1",,"03,99,1,03,1,00,1,01750,1,07,1,00,1",,,"99999,9,09948,1","4,1,000,1,+999,9","02,1","SYN088AAXX  26001 01047 11788 32207 11096 21116 39948 40338 54000 6//// 70211 83070 333 4////;",
"01047099999","2010-01-26T06:00:00","4","69.0166667","23.0666667","307.0","KAUTOKEINO II, NO","FM-12","ENKA ","V020","220,1,N,0050,1","01500,1,9,N","070000,1,N,1","-0081,1","-0098,1","10315,1","12,0000,9,1","24,0000,2,1","0035,9,1,999999,9,9","2,1,06,1","1,1,06,1",,"06,99,1,06,1,00,1,01750,1,07,1,00,1","24,9","999,N,-0114,1","99999,9,09926,1","6,1,012,1,+999,9","02,1","SYN100AAXX  26061 01047 11788 62205 11081 21098 39926 40315 56012 60002 70221 86070 333 21114 48035 70001;","Q01  00002PRCP12"
"01047099999","2010-01-26T09:00:00","4","69.0166667","23.0666667","307.0","KAUTOKEINO II, NO","FM-12","ENKA ","V020","220,1,N,0100,1","01200,1,9,N","065000,1,N,1","-0079,1","-0097,1","10285,1",,,,"3,1,03,1","2,1,03,1",,"08,99,1,08,1,00,1,01250,1,02,1,99,9",,,"99999,9,09898,1","7,1,027,1,+999,9","36,1","SYN082AAXX  26091 01047 41687 82210 11079 21097 39898 40285 57027 73632 8802/ 333 4////;",
"01047099999","2010-01-26T12:00:00","4","69.0166667","23.0666667","307.0","KAUTOKEINO II, NO","FM-12","ENKA ","V020","180,1,N,0100,1","01200,1,9,N","004000,1,N,1","-0070,1","-0090,1","10242,1",,,,"3,1,06,1","3,1,06,1",,"08,99,1,08,1,00,1,01250,1,02,1,99,9",,,"99999,9,09857,1","7,1,041,1,+999,9","38,1","SYN088AAXX  26121 01047 11640 81810 11070 21090 39857 40242 57041 6//// 73833 8802/ 333 4////;",
"01047099999","2010-01-26T15:00:00","4","69.0166667","23.0666667","307.0","KAUTOKEINO II, NO","FM-12","ENKA ","V020","220,1,N,0100,1","00750,1,9,N","004000,1,N,1","-0050,1","-0069,1","10183,1",,,,"3,1,03,1","3,1,03,1",,"08,99,1,08,1,05,1,00800,1,99,9,99,9",,,"99999,9,09800,1","7,1,056,1,+999,9","38,1","SYN082AAXX  26151 01047 41540 82210 11050 21069 39800 40183 57056 73833 885// 333 4////;",
"01047099999","2010-01-26T18:00:00","4","69.0166667","23.0666667","307.0","KAUTOKEINO II, NO","FM-12","ENKA ","V020","220,1,N,0120,1","01200,1,9,N","001500,1,N,1","-0032,1","-0051,1","10115,1","12,9999,9,9",,,"7,1,06,1","3,1,06,1",,"08,99,1,08,1,00,1,01250,1,02,1,99,9",,"120,M,-0032,1","99999,9,09736,1","7,1,064,1,+999,9","71,1","SYN094AAXX  26181 01047 11615 82212 11032 21051 39736 40115 57064 69922 77173 8802/ 333 11032 4////;","Q01  00002PRCP12Q02  00002PRCP12"
"01047099999","2010-01-27T00:00:00","4","69.0166667","23.0666667","307.0","KAUTOKEINO II, NO","FM-12","ENKA ","V020","220,1,N,0120,1","01200,1,9,N","003000,1,N,1","-0024,1","-0046,1","99999,9",,,,"7,1,06,1","3,1,06,1",,"08,99,1,08,1,00,1,01250,1,02,1,99,9",,,,"7,1,060,2,+999,9","38,1","SYN088AAXX  27001 01047 11630 82212 11024 21046 39621 49995 57060 6//// 73873 8802/ 333 4////;","Q01+096213APOSP "
"01047099999","2010-01-27T06:00:00","4","69.0166667","23.0666667","307.0","KAUTOKEINO II, NO","FM-12","ENKA ","V020","220,1,N,0100,1","01200,1,9,N","065000,1,N,1","-0029,1","-0050,1","09901,1","12,0000,2,1","24,0003,9,1","0037,9,1,999999,9,9","7,1,06,1","3,1,06,1",,"08,99,1,08,1,00,1,01250,1,02,1,99,9","24,9","999,N,-0041,1","99999,9,09531,1","8,1,019,1,+999,9","36,1","SYN100AAXX  27061 01047 11687 82210 11029 21050 39531 49901 58019 69912 73673 8802/ 333 21041 48037 70003;",
"01047099999","2010-01-27T09:00:00","4","69.0166667","23.0666667","307.0","KAUTOKEINO II, NO","FM-12","ENKA ","V020","180,1,N,0120,1","00750,1,9,N","010000,1,N,1","-0031,1","-0057,1","09866,1",,,,"3,1,03,1","3,1,03,1",,"08,99,1,08,1,05,1,00800,1,99,9,99,9",,,"99999,9,09496,1","6,1,035,1,+999,9","38,1","SYN082AAXX  27091 01047 41560 81812 11031 21057 39496 49866 56035 73833 885// 333 4////;",
"01047099999","2010-01-27T12:00:00","4","69.0166667","23.0666667","307.0","KAUTOKEINO II, NO","FM-12","ENKA ","V020","180,1,N,0100,1","00750,1,9,N","004000,1,N,1","-0040,1","-0063,1","09862,1",,,,"3,1,06,1","3,1,06,1",,"08,99,1,08,1,05,1,00800,1,99,9,99,9",,,"99999,9,09492,1","6,1,004,1,+999,9","38,1","SYN088AAXX  27121 01047 11540 81810 11040 21063 39492 49862 56004 6//// 73833 885// 333 4////;",
"01047099999","2010-01-27T15:00:00","4","69.0166667","23.0666667","307.0","KAUTOKEINO II, NO","FM-12","ENKA ","V020","180,1,N,0100,1","00750,1,9,N","000400,1,N,1","-0048,1","-0067,1","09867,1",,,,"7,1,03,1","3,1,03,1",,"08,99,1,08,1,00,1,00800,1,02,1,99,9",,,"99999,9,09496,1","2,1,005,1,+999,9","73,1","SYN082AAXX  27151 01047 41504 81810 11048 21067 39496 49867 52005 77373 8802/ 333 4////;",
"01047099999","2010-01-27T18:00:00","4","69.0166667","23.0666667","307.0","KAUTOKEINO II, NO","FM-12","ENKA ","V020","180,1,N,0100,1","01200,1,9,N","002000,1,N,1","-0050,1","-0069,1","09879,1","12,0030,9,1",,,"7,1,06,1","3,1,06,1",,"08,99,1,08,1,00,1,01250,1,02,1,99,9",,"120,M,-0015,1","99999,9,09508,1","2,1,011,1,+999,9","73,1","SYN094AAXX  27181 01047 11620 81810 11050 21069 39508 49879 52011 60032 77373 8802/ 333 11015 4////;",
"01047099999","2010-01-28T00:00:00","4","69.0166667","23.0666667","307.0","KAUTOKEINO II, NO","FM-12","ENKA ","V020","180,1,N,0120,1","01200,1,9,N","001500,1,N,1","-0080,1","-0105,1","09909,1",,,,"7,1,06,1","3,1,06,1",,"08,99,1,08,1,00,1,01250,1,02,1,99,9",,,"99999,9,09536,1","2,1,012,1,+999,9","71,1","SYN088AAXX  28001 01047 11615 81812 11080 21105 39536 49909 52012 6//// 77173 8802/ 333 4////;",
"01047099999","2010-01-28T06:00:00","4","69.0166667","23.0666667","307.0","KAUTOKEINO II, NO","FM-12","ENKA ","V020","180,1,N,0100,1","01200,1,9,N","065000,1,N,1","-0155,1","-0186,1","09952,1","12,0010,9,1","24,0036,9,1","0039,9,1,999999,9,9","7,1,06,1","3,1,06,1",,"08,99,1,08,1,00,1,01250,1,02,1,99,9","24,9","999,N,-0155,1","99999,9,09574,1","8,1,013,1,+999,9","36,1","SYN100AAXX  28061 01047 11687 81810 11155 21186 39574 49952 58013 60012 73673 8802/ 333 21155 48039 70036;",
"01047099999","2010-01-28T09:00:00","4","69.0166667","23.0666667","307.0","KAUTOKEINO II, NO","FM-12","ENKA ","V020","180,1,N,0100,1","01200,1,9,N","065000,1,N,1","-0174,1","-0206,1","09977,1",,,,"3,1,03,1","2,1,03,1",,"08,99,1,08,1,00,1,01250,1,02,1,99,9",,,"99999,9,09597,1","2,1,023,1,+999,9","36,1","SYN082AAXX  28091 01047 41687 81810 11174 21206 39597 49977 52023 73632 8802/ 333 4////;",
"01047099999","2010-01-28T12:00:00","4","69.0166667","23.0666667","307.0","KAUTOKEINO II, NO","FM-12","ENKA ","V020","180,1,N,0100,1","01200,1,9,N","003000,1,N,1","-0192,1","-0223,1","10000,1",,,,"7,1,06,1","3,1,06,1",,"08,99,1,08,1,00,1,01250,1,02,1,99,9",,,"99999,9,09619,1","2,1,022,1,+999,9","71,1","SYN088AAXX  28121 01047 11630 81810 11192 21223 39619 40000 52022 6//// 77173 8802/ 333 4////;",
"01047099999","2010-01-28T15:00:00","4","69.0166667","23.0666667","307.0","KAUTOKEINO II, NO","FM-12","ENKA ","V020","180,1,N,0070,1","01200,1,9,N","004000,1,N,1","-0228,1","-0258,1","10018,1",,,,"7,1,03,1","3,1,03,1",,"06,99,1,06,1,00,1,01250,1,02,1,00,1",,,"99999,9,09634,1","2,1,015,1,+999,9","38,1","SYN082AAXX  28151 01047 41640 61807 11228 21258 39634 40018 52015 73873 86020 333 4////;",
"01047099999","2010-01-28T18:00:00","4","69.0166667","23.0666667","307.0","KAUTOKEINO II, NO","FM-12","ENKA ","V020","180,1,N,0050,1","01500,1,9,N","070000,1,N,1","-0242,1","-0272,1","10025,1","12,0000,2,1",,,"3,1,06,1","2,1,06,1",,"08,99,1,99,9,00,1,01750,1,07,1,00,1",,"120,M,-0055,1","99999,9,09640,1","1,1,006,1,+999,9","02,1","SYN094AAXX  28181 01047 11788 81805 11242 21272 39640 40025 51006 69912 70232 85070 333 11055 4////;","Q01+000052SCOTLC"
"01047099999","2010-01-29T00:00:00","4","69.0166667","23.0666667","307.0","KAUTOKEINO II, NO","FM-12","ENKA ","V020","180,1,N,0030,1","22000,1,9,N","070000,1,N,1","-0286,1","-0315,1","10025,1",,,,"1,1,06,1","1,1,06,1",,"04,99,1,04,1,00,1,01750,1,07,1,00,1",,,"99999,9,09638,1","4,1,000,1,+999,9","02,1","SYN088AAXX  29001 01047 11788 41803 11286 21315 39638 40025 54000 6//// 70211 84070 333 4////;",
"01047099999","2010-01-29T06:00:00","4","69.0166667","23.0666667","307.0","KAUTOKEINO II, NO","FM-12","ENKA ","V020","180,1,N,0030,1","01500,1,9,N","065000,1,N,1","-0240,1","-0270,1","10011,1","12,0000,9,1","24,0000,2,1","0039,9,1,999999,9,9","2,1,06,1","1,1,06,1",,"06,99,1,06,1,00,1,01750,1,07,1,00,1","24,9","999,N,-0302,1","99999,9,09626,1","6,1,008,1,+999,9","02,1","SYN100AAXX  29061 01047 11787 61803 11240 21270 39626 40011 56008 60002 70221 86070 333 21302 48039 70001;","Q01  00002PRCP12"
"01047099999","2010-01-29T09:00:00","4","69.0166667","23.0666667","307.0","KAUTOKEINO II, NO","FM-12","ENKA ","V020","180,1,N,0030,1","99999,9,9,N","070000,1,N,1","-0228,1","-0260,1","10007,1",,,,"2,1,03,1","2,1,03,1",,"08,99,1,08,1,00,1,01250,1,07,1,99,9",,,"99999,9,09624,1","6,1,002,1,+999,9","02,1","SYN082AAXX  29091 01047 41688 81803 11228 21260 39624 40007 56002 70222 8807/ 333 4////;",
"01047099999","2010-01-29T12:00:00","4","69.0166667","23.0666667","307.0","KAUTOKEINO II, NO","FM-12","ENKA ","V020","360,1,N,0030,1","22000,1,9,N","070000,1,N,1","-0234,1","-0264,1","10001,1",,,,"2,1,06,1","2,1,06,1",,"04,99,1,04,1,00,1,01750,1,07,1,00,1",,,"99999,9,09617,1","7,1,007,1,+999,9","01,1","SYN088AAXX  29121 01047 11788 43603 11234 21264 39617 40001 57007 6//// 70122 84070 333 4////;",
"01047099999","2010-01-29T15:00:00","4","69.0166667","23.0666667","307.0","KAUTOKEINO II, NO","FM-12","ENKA ","V020","360,1,N,0030,1","01500,1,9,N","070000,1,N,1","-0286,1","-0315,1","10002,1",,,,"1,1,03,1","1,1,03,1",,"05,99,1,05,1,00,1,01750,1,07,1,00,1",,,"99999,9,09617,1","4,1,000,1,+999,9","02,1","SYN082AAXX  29151 01047 41788 53603 11286 21315 39617 40002 54000 70211 85070 333 4////;",
"01047099999","2010-01-29T18:00:00","4","69.0166667","23.0666667","307.0","KAUTOKEINO II, NO","FM-12","ENKA ","V020","180,1,N,0010,1","01500,1,9,N","070000,1,N,1","-0266,1","-0295,1","10009,1","12,0000,9,1",,,"2,1,06,1","2,1,06,1",,"08,99,1,08,1,00,1,01750,1,07,1,99,9",,"120,M,-0215,1","99999,9,09624,1","2,1,008,1,+999,9","02,1","SYN094AAXX  29181 01047 11788 81801 11266 21295 39624 40009 52008 60002 70222 8807/ 333 11215 4////;","Q01  00002PRCP12"
"01047099999","2010-01-30T00:00:00","4","69.0166667","23.0666667","307.0","KAUTOKEINO II, NO","FM-12","ENKA ","V020","180,1,N,0010,1","01500,1,9,N","070000,1,N,1","-0241,1","-0267,1","10025,1",,,,"2,1,06,1","2,1,06,1",,"08,99,1,08,1,00,1,01750,1,07,1,99,9",,,"99999,9,09640,1","1,1,005,1,+999,9","02,1","SYN088AAXX  30001 01047 11788 81801 11241 21267 39640 40025 51005 6//// 70222 8807/ 333 4////;",
"01047099999","2010-01-30T06:00:00","4","69.0166667","23.0666667","307.0","KAUTOKEINO II, NO","FM-12","ENKA ","V020","999,9,C,0000,1","22000,1,9,N","065000,1,N,1","-0268,1","-0297,1","10032,1","12,0000,9,1","24,0000,9,1","0039,9,1,999999,9,9","2,1,06,1","1,1,06,1",,"04,99,1,04,1,00,1,01750,1,07,1,00,1","24,9","999,N,-0273,1","99999,9,09646,1","1,1,002,1,+999,9","02,1","SYN100AAXX  30061 01047 11787 40000 11268 21297 39646 40032 51002 60002 70221 84070 333 21273 48039 70000;","Q01  00002PRCP24Q02  00002PRCP12"
"01047099999","2010-01-30T09:00:00","4","69.0166667","23.0666667","307.0","KAUTOKEINO II, NO","FM-12","ENKA ","V020","999,9,C,0000,1","01200,1,9,N","006000,1,N,1","-0228,1","-0253,1","10034,1",,,,"7,1,03,1","2,1,03,1",,"08,99,1,08,1,00,1,01250,1,02,1,99,9",,,"99999,9,09650,1","3,1,003,1,+999,9","71,1","SYN082AAXX  30091 01047 41656 80000 11228 21253 39650 40034 53003 77172 8802/ 333 4////;",
"01047099999","2010-01-30T12:00:00","4","69.0166667","23.0666667","307.0","KAUTOKEINO II, NO","FM-12","ENKA ","V020","999,9,C,0000,1","00750,1,9,N","001500,1,N,1","-0234,1","-0264,1","10037,1",,,,"7,1,06,1","7,1,06,1",,"08,99,1,08,1,00,1,00800,1,02,1,99,9",,,"99999,9,09652,1","1,1,002,1,+999,9","71,1","SYN088AAXX  30121 01047 11515 80000 11234 21264 39652 40037 51002 6//// 77177 8802/ 333 4////;",
"01047099999","2010-01-30T15:00:00","4","69.0166667","23.0666667","307.0","KAUTOKEINO II, NO","FM-12","ENKA ","V020","999,9,C,0000,1","01200,1,9,N","065000,1,N,1","-0240,1","-0270,1","10041,1",,,,"7,1,03,1","2,1,03,1",,"06,99,1,06,1,00,1,01250,1,02,1,00,1",,,"99999,9,09656,1","3,1,004,1,+999,9","02,1","SYN082AAXX  30151 01047 41687 60000 11240 21270 39656 40041 53004 70272 86020 333 4////;",
"01047099999","2010-01-30T18:00:00","4","69.0166667","23.0666667","307.0","KAUTOKEINO II, NO","FM-12","ENKA ","V020","180,1,N,0030,1","01500,1,9,N","070000,1,N,1","-0264,1","-0293,1","10050,1","12,0008,9,1",,,"2,1,06,1","2,1,06,1",,"06,99,1,06,1,00,1,01750,1,01,1,00,1",,"120,M,-0200,1","99999,9,09663,1","2,1,008,1,+999,9","02,1","SYN094AAXX  30181 01047 11788 61803 11264 21293 39663 40050 52008 69982 70222 86010 333 11200 4////;",
"01047099999","2010-01-31T00:00:00","4","69.0166667","23.0666667","307.0","KAUTOKEINO II, NO","FM-12","ENKA ","V020","180,1,N,0030,1","22000,1,9,N","070000,1,N,1","-0296,1","-0325,1","10068,1",,,,"1,1,06,1","1,1,06,1",,"04,99,1,04,1,00,1,01750,1,07,1,00,1",,,"99999,9,09679,1","2,1,005,1,+999,9","02,1","SYN088AAXX  31001 01047 11788 41803 11296 21325 39679 40068 52005 6//// 70211 84070 333 4////;",
"01047099999","2010-01-31T06:00:00","4","69.0166667","23.0666667","307.0","KAUTOKEINO II, NO","FM-12","ENKA ","V020","180,1,N,0030,1","01200,1,9,N","025000,1,N,1","-0236,1","-0266,1","10079,1","12,9999,9,9","24,0010,9,1","0040,9,1,999999,9,9","7,1,06,1","2,1,06,1",,"08,99,1,08,1,00,1,01250,1,02,1,99,9","23,9","999,N,-0297,1","99999,9,09692,1","1,1,003,1,+999,9","70,1","SYN100AAXX  31061 01047 11675 81803 11236 21266 39692 40079 51003 69912 77072 8802/ 333 21297 47040 70009;","Q01  00002PRCP12Q02  00002PRCP12"
"01047099999","2010-01-31T09:00:00","4","69.0166667","23.0666667","307.0","KAUTOKEINO II, NO","FM-12","ENKA ","V020","180,1,N,0010,1","01200,1,9,N","010000,1,N,1","-0208,1","-0239,1","10087,1",,,,"7,1,03,1","7,1,03,1",,"08,99,1,08,1,00,1,01250,1,02,1,99,9",,,"99999,9,09702,1","3,1,009,1,+999,9","70,1","SYN082AAXX  31091 01047 41660 81801 11208 21239 39702 40087 53009 77077 8802/ 333 4////;",
"01047099999","2010-01-31T12:00:00","4","69.0166667","23.0666667","307.0","KAUTOKEINO II, NO","FM-12","ENKA ","V020","180,1,N,0010,1","01200,1,9,N","070000,1,N,1","-0182,1","-0213,1","10088,1",,,,"7,1,06,1","2,1,06,1",,"08,99,1,08,1,00,1,01250,1,02,1,99,9",,,"99999,9,09703,1","1,1,002,1,+999,9","02,1","SYN088AAXX  31121 01047 11688 81801 11182 21213 39703 40088 51002 6//// 70272 8802/ 333 4////;",
"01047099999","2010-01-31T15:00:00","4","69.0166667","23.0666667","307.0","KAUTOKEINO II, NO","FM-12","ENKA ","V020","180,1,N,0010,1","01200,1,9,N","010000,1,N,1","-0182,1","-0213,1","10088,1",,,,"7,1,03,1","2,1,03,1",,"08,99,1,08,1,00,1,01250,1,02,1,99,9",,,"99999,9,09703,1","4,1,000,1,+999,9","70,1","SYN082AAXX  31151 01047 41660 81801 11182 21213 39703 40088 54000 77072 8802/ 333 4////;",
"01047099999","2010-01-31T18:00:00","4","69.0166667","23.0666667","307.0","KAUTOKEINO II, NO","FM-12","ENKA ","V020","360,1,N,0050,1","01200,1,9,N","003000,1,N,1","-0172,1","-0200,1","10076,1","12,0008,9,1",,,"7,1,06,1","7,1,06,1",,"08,99,1,08,1,00,1,01250,1,02,1,99,9",,"120,M,-0172,1","99999,9,09693,1","8,1,011,1,+999,9","71,1","SYN094AAXX  31181 01047 11630 83605 11172 21200 39693 40076 58011 69982 77177 8802/ 333 11172 4////;",
"01047099999","2010-02-01T00:00:00","4","69.0166667","23.0666667","307.0","KAUTOKEINO II, NO","FM-12","ENKA ","V020","270,1,N,0030,1","01200,1,9,N","003000,1,N,1","-0166,1","-0198,1","10066,1",,,,"7,1,06,1","7,1,06,1",,"08,99,1,08,1,00,1,01250,1,02,1,99,9",,,"99999,9,09683,1","7,1,005,1,+999,9","71,1","SYN088AAXX  01001 01047 11630 82703 11166 21198 39683 40066 57005 6//// 77177 8802/ 333 4////;",
"01047099999","2010-02-01T06:00:00","4","69.0166667","23.0666667","307.0","KAUTOKEINO II, NO","FM-12","ENKA ","V020","999,9,C,0000,1","01200,1,9,N","065000,1,N,1","-0188,1","-0218,1","10074,1","12,0008,9,1","24,0015,9,1","0042,9,1,999999,9,9","7,1,06,1","2,1,06,1",,"08,99,1,08,1,00,1,01250,1,02,1,99,9","24,9","999,N,-0188,1","99999,9,09689,1","1,1,002,1,+999,9","02,1","SYN100AAXX  01061 01047 11687 80000 11188 21218 39689 40074 51002 69982 70272 8802/ 333 21188 48042 70016;",
"01047099999","2010-02-01T09:00:00","4","69.0166667","23.0666667","307.0","KAUTOKEINO II, NO","FM-12","ENKA ","V020","999,9,C,0000,1","01200,1,9,N","003000,1,N,1","-0216,1","-0241,1","10084,1",,,,"7,1,03,1","2,1,03,1",,"08,99,1,08,1,00,1,01250,1,02,1,99,9",,,"99999,9,09698,1","2,1,009,1,+999,9","71,1","SYN082AAXX  01091 01047 41630 80000 11216 21241 39698 40084 52009 77172 8802/ 333 4////;",
"01047099999","2010-02-01T12:00:00","4","69.0166667","23.0666667","307.0","KAUTOKEINO II, NO","FM-12","ENKA ","V020","360,1,N,0030,1","01200,1,9,N","003000,1,N,1","-0180,1","-0206,1","10087,1",,,,"7,1,06,1","7,1,06,1",,"08,99,1,08,1,00,1,01250,1,02,1,99,9",,,"99999,9,09702,1","1,1,004,1,+999,9","71,1","SYN088AAXX  01121 01047 11630 83603 11180 21206 39702 40087 51004 6//// 77177 8802/ 333 4////;",
"01047099999","2010-02-01T15:00:00","4","69.0166667","23.0666667","307.0","KAUTOKEINO II, NO","FM-12","ENKA ","V020","360,1,N,0010,1","01200,1,9,N","010000,1,N,1","-0202,1","-0228,1","10101,1",,,,"7,1,03,1","7,1,03,1",,"08,99,1,08,1,00,1,01250,1,02,1,99,9",,,"99999,9,09715,1","2,1,013,1,+999,9","71,1","SYN082AAXX  01151 01047 41660 83601 11202 21228 39715 40101 52013 77177 8802/ 333 4////;",
"01047099999","2010-02-01T18:00:00","4","69.0166667","23.0666667","307.0","KAUTOKEINO II, NO","FM-12","ENKA ","V020","180,1,N,0030,1","01200,1,9,N","010000,1,N,1","-0205,1","-0231,1","10118,1","12,0005,9,1",,,"7,1,06,1","7,1,06,1",,"08,99,1,08,1,00,1,01250,1,02,1,99,9",,"120,M,-0150,1","99999,9,09731,1","2,1,016,1,+999,9","71,1","SYN094AAXX  01181 01047 11660 81803 11205 21231 39731 40118 52016 69952 77177 8802/ 333 11150 4////;",
"01047099999","2010-02-02T00:00:00","4","69.0166667","23.0666667","307.0","KAUTOKEINO II, NO","FM-12","ENKA ","V020","320,1,N,0050,1","22000,1,9,N","070000,1,N,1","-0234,1","-0259,1","10144,1",,,,"7,1,06,1","2,1,06,1","00,1,+99999,9,99,9","00,99,1,00,1,00,1,99999,9,00,1,00,1",,,"99999,9,09755,1","2,1,012,1,+999,9","01,1","SYN082AAXX  02001 01047 11988 03205 11234 21259 39755 40144 52012 6//// 70172 333 4////;",
"01047099999","2010-02-02T06:00:00","4","69.0166667","23.0666667","307.0","KAUTOKEINO II, NO","FM-12","ENKA ","V020","999,9,C,0000,1","22000,1,9,N","070000,1,N,1","-0261,1","-0285,1","10144,1","12,0000,2,1","24,0005,9,1","0042,9,1,999999,9,9","7,1,06,1","2,1,06,1",,"03,99,1,03,1,00,1,01750,1,01,1,00,1","24,9","999,N,-0261,1","99999,9,09754,1","0,1,001,1,+999,9","02,1","SYN100AAXX  02061 01047 11788 30000 11261 21285 39754 40144 50001 69912 70272 83010 333 21261 48042 70006;",
"01047099999","2010-02-02T09:00:00","4","69.0166667","23.0666667","307.0","KAUTOKEINO II, NO","FM-12","ENKA ","V020","360,1,N,0030,1","01500,1,9,N","070000,1,N,1","-0218,1","-0243,1","10123,1",,,,"2,1,03,1","2,1,03,1",,"08,99,1,08,1,00,1,01750,1,01,1,99,9",,,"99999,9,09736,1","8,1,023,1,+999,9","02,1","SYN082AAXX  02091 01047 41788 83603 11218 21243 39736 40123 58023 70222 8801/ 333 4////;",
"01047099999","2010-02-02T12:00:00","4","69.0166667","23.0666667","307.0","KAUTOKEINO II, NO","FM-12","ENKA ","V020","360,1,N,0050,1","01200,1,9,N","001500,1,N,1","-0174,1","-0198,1","10091,1",,,,"7,1,06,1","2,1,06,1",,"08,99,1,08,1,00,1,01250,1,02,1,99,9",,,"99999,9,09707,1","7,1,024,1,+999,9","71,1","SYN088AAXX  02121 01047 11615 83605 11174 21198 39707 40091 57024 6//// 77172 8802/ 333 4////;",
"01047099999","2010-02-02T15:00:00","4","69.0166667","23.0666667","307.0","KAUTOKEINO II, NO","FM-12","ENKA ","V020","090,1,N,0050,1","01200,1,9,N","070000,1,N,1","-0128,1","-0155,1","10074,1",,,,"7,1,03,1","7,1,03,1",,"08,99,1,08,1,00,1,01250,1,02,1,99,9",,,"99999,9,09692,1","6,1,015,1,+999,9","22,1","SYN082AAXX  02151 01047 41688 80905 11128 21155 39692 40074 56015 72277 8802/ 333 4////;",
"01047099999","2010-02-02T18:00:00","4","69.0166667","23.0666667","307.0","KAUTOKEINO II, NO","FM-12","ENKA ","V020","050,1,N,0030,1","01200,1,9,N","006000,1,N,1","-0121,1","-0148,1","10078,1","12,0020,9,1",,,"7,1,06,1","2,1,06,1",,"08,99,1,08,1,00,1,01250,1,02,1,99,9",,"120,M,-0121,1","99999,9,09696,1","2,1,004,1,+999,9","71,1","SYN094AAXX  02181 01047 11656 80503 11121 21148 39696 40078 52004 60022 77172 8802/ 333 11121 4////;",
"01047099999","2010-02-03T00:00:00","4","69.0166667","23.0666667","307.0","KAUTOKEINO II, NO","FM-12","ENKA ","V020","140,1,N,0050,1","00750,1,9,N","010000,1,N,1","-0082,1","-0110,1","10080,1",,,,"7,1,06,1","2,1,06,1",,"08,99,1,06,1,07,1,00800,1,02,1,99,9",,,"99999,9,09700,1","4,1,000,1,+999,9","70,1","SYN088AAXX  03001 01047 11560 81405 11082 21110 39700 40080 54000 6//// 77072 8672/ 333 4////;",
"01047099999","2010-02-03T06:00:00","4","69.0166667","23.0666667","307.0","KAUTOKEINO II, NO","FM-12","ENKA ","V020","140,1,N,0050,1","00750,1,9,N","070000,1,N,1","-0081,1","-0109,1","10106,1","12,0010,9,1","24,0028,9,1","0048,9,1,999999,9,9","7,1,06,1","2,1,06,1",,"07,99,1,07,1,07,1,00800,1,00,1,00,1","23,9","999,N,-0122,1","99999,9,09726,1","3,1,006,1,+999,9","02,1","SYN100AAXX  03061 01047 11588 71405 11081 21109 39726 40106 53006 69992 70272 87700 333 21122 47048 70027;",
"01047099999","2010-02-03T09:00:00","4","69.0166667","23.0666667","307.0","KAUTOKEINO II, NO","FM-12","ENKA ","V020","140,1,N,0050,1","22000,1,9,N","065000,1,N,1","-0121,1","-0148,1","10132,1",,,,"2,1,03,1","0,1,03,1",,"04,99,1,04,1,00,1,01250,1,07,1,00,1",,,"99999,9,09748,1","3,1,029,1,+999,9","01,1","SYN082AAXX  03091 01047 41687 41405 11121 21148 39748 40132 53029 70120 84070 333 4////;",
"01047099999","2010-02-03T12:00:00","4","69.0166667","23.0666667","307.0","KAUTOKEINO II, NO","FM-12","ENKA ","V020","090,1,N,0030,1","01500,1,9,N","070000,1,N,1","-0154,1","-0174,1","10145,1",,,,"1,1,06,1","1,1,06,1",,"08,99,1,08,1,00,1,01750,1,01,1,99,9",,,"99999,9,09759,1","1,1,011,1,+999,9","02,1","SYN088AAXX  03121 01047 11788 80903 11154 21174 39759 40145 51011 6//// 70211 8801/ 333 4////;",
"01047099999","2010-02-03T15:00:00","4","69.0166667","23.0666667","307.0","KAUTOKEINO II, NO","FM-12","ENKA ","V020","140,1,N,0030,1","01500,1,9,N","070000,1,N,1","-0171,1","-0191,1","10143,1",,,,"2,1,03,1","2,1,03,1",,"08,99,1,08,1,00,1,01750,1,07,1,99,9",,,"99999,9,09757,1","4,1,000,1,+999,9","02,1","SYN082AAXX  03151 01047 41788 81403 11171 21191 39757 40143 54000 70222 8807/ 333 4////;",
"01047099999","2010-02-03T18:00:00","4","69.0166667","23.0666667","307.0","KAUTOKEINO II, NO","FM-12","ENKA ","V020","999,9,C,0000,1","01500,1,9,N","070000,1,N,1","-0185,1","-0207,1","10147,1","12,0000,9,1",,,"2,1,06,1","2,1,06,1",,"08,99,1,08,1,00,1,01750,1,07,1,99,9",,"120,M,-0065,1","99999,9,09760,1","1,1,003,1,+999,9","02,1","SYN094AAXX  03181 01047 11788 80000 11185 21207 39760 40147 51003 60002 70222 8807/ 333 11065 4////;","Q01  00002PRCP12"
"01047099999","2010-02-04T00:00:00","4","69.0166667","23.0666667","307.0","KAUTOKEINO II, NO","FM-12","ENKA ","V020","180,1,N,0050,1","01500,1,9,N","070000,1,N,1","-0164,1","-0186,1","10156,1",,,,"2,1,06,1","2,1,06,1",,"08,99,1,08,1,00,1,01750,1,07,1,99,9",,,"99999,9,09769,1","3,1,005,1,+999,9","02,1","SYN088AAXX  04001 01047 11788 81805 11164 21186 39769 40156 53005 6//// 70222 8807/ 333 4////;",
"01047099999","2010-02-04T06:00:00","4","69.0166667","23.0666667","307.0","KAUTOKEINO II, NO","FM-12","ENKA ","V020","180,1,N,0050,1","01200,1,9,N","070000,1,N,1","-0143,1","-0171,1","10224,1","12,0000,9,1","24,0000,9,1","0048,9,1,999999,9,9","2,1,06,1","2,1,06,1",,"08,99,1,08,1,00,1,01250,1,02,1,99,9","23,9","999,N,-0198,1","99999,9,09836,1","2,1,019,1,+999,9","02,1","SYN100AAXX  04061 01047 11688 81805 11143 21171 39836 40224 52019 60002 70222 8802/ 333 21198 47048 70000;","Q01  00002PRCP24Q02  00002PRCP12"
"01047099999","2010-02-04T09:00:00","4","69.0166667","23.0666667","307.0","KAUTOKEINO II, NO","FM-12","ENKA ","V020","180,1,N,0050,1","22000,1,9,N","070000,1,N,1","-0151,1","-0179,1","10269,1",,,,"2,1,03,1","0,1,03,1",,"04,99,1,04,1,00,1,01250,1,04,1,00,1",,,"99999,9,09879,1","2,1,044,1,+999,9","01,1","SYN082AAXX  04091 01047 41688 41805 11151 21179 39879 40269 52044 70120 84040 333 4////;",
"01047099999","2010-02-04T12:00:00","4","69.0166667","23.0666667","307.0","KAUTOKEINO II, NO","FM-12","ENKA ","V020","180,1,N,0070,1","22000,1,9,N","070000,1,N,1","-0154,1","-0182,1","10288,1",,,,"0,1,06,1","0,1,06,1","00,1,+99999,9,99,9","00,99,1,00,1,00,1,99999,9,00,1,00,1",,,"99999,9,09897,1","1,1,017,1,+999,9","02,1","SYN082AAXX  04121 01047 11988 01807 11154 21182 39897 40288 51017 6//// 70200 333 4////;",
"01047099999","2010-02-04T15:00:00","4","69.0166667","23.0666667","307.0","KAUTOKEINO II, NO","FM-12","ENKA ","V020","180,1,N,0050,1","22000,1,9,N","070000,1,N,1","-0169,1","-0193,1","10301,1",,,,"0,1,03,1","0,1,03,1",,"04,99,1,04,1,00,1,01750,1,01,1,00,1",,,"99999,9,09909,1","3,1,012,1,+999,9","02,1","SYN082AAXX  04151 01047 41788 41805 11169 21193 39909 40301 53012 70200 84010 333 4////;",
"01047099999","2010-02-04T18:00:00","4","69.0166667","23.0666667","307.0","KAUTOKEINO II, NO","FM-12","ENKA ","V020","220,1,N,0050,1","01500,1,9,N","070000,1,N,1","-0158,1","-0178,1","10299,1","12,0000,9,1",,,"2,1,06,1","2,1,06,1",,"08,99,1,08,1,00,1,01750,1,01,1,99,9",,"120,M,-0115,1","99999,9,09907,1","4,1,000,1,+999,9","02,1","SYN094AAXX  04181 01047 11788 82205 11158 21178 39907 40299 54000 60002 70222 8801/ 333 11115 4////;","Q01  00002PRCP12"
"01047099999","2010-02-05T00:00:00","4","69.0166667","23.0666667","307.0","KAUTOKEINO II, NO","FM-12","ENKA ","V020","050,1,N,0030,1","01200,1,9,N","070000,1,N,1","-0166,1","-0188,1","10263,1",,,,"2,1,06,1","2,1,06,1",,"08,99,1,08,1,00,1,01250,1,02,1,99,9",,,"99999,9,09872,1","8,1,012,1,+999,9","02,1","SYN088AAXX  05001 01047 11688 80503 11166 21188 39872 40263 58012 6//// 70222 8802/ 333 4////;",
"01047099999","2010-02-05T06:00:00","4","69.0166667","23.0666667","307.0","KAUTOKEINO II, NO","FM-12","ENKA ","V020","999,9,C,0000,1","01200,1,9,N","005000,1,N,1","-0146,1","-0167,1","10210,1","12,0020,9,1","24,0023,9,1","0050,9,1,999999,9,9","7,1,06,1","2,1,06,1",,"08,99,1,08,1,00,1,01250,1,02,1,99,9","23,9","999,N,-0175,1","99999,9,09823,1","7,1,011,1,+999,9","70,1","SYN100AAXX  05061 01047 11650 80000 11146 21167 39823 40210 57011 60022 77072 8802/ 333 21175 47050 70024;",
"01047099999","2010-02-05T09:00:00","4","69.0166667","23.0666667","307.0","KAUTOKEINO II, NO","FM-12","ENKA ","V020","220,1,N,0050,1","01200,1,9,N","001500,1,N,1","-0126,1","-0146,1","10188,1",,,,"7,1,03,1","7,1,03,1",,"08,99,1,08,1,00,1,01250,1,02,1,99,9",,,"99999,9,09802,1","6,1,021,1,+999,9","73,1","SYN082AAXX  05091 01047 41615 82205 11126 21146 39802 40188 56021 77377 8802/ 333 4////;",
"01047099999","2010-02-05T12:00:00","4","69.0166667","23.0666667","307.0","KAUTOKEINO II, NO","FM-12","ENKA ","V020","220,1,N,0050,1","01200,1,9,N","001500,1,N,1","-0110,1","-0131,1","10174,1",,,,"7,1,06,1","7,1,06,1",,"08,99,1,08,1,00,1,01250,1,02,1,99,9",,,"99999,9,09789,1","6,1,013,1,+999,9","73,1","SYN088AAXX  05121 01047 11615 82205 11110 21131 39789 40174 56013 6//// 77377 8802/ 333 4////;",
"01047099999","2010-02-05T15:00:00","4","69.0166667","23.0666667","307.0","KAUTOKEINO II, NO","FM-12","ENKA ","V020","220,1,N,0050,1","01200,1,9,N","065000,1,N,1","-0120,1","-0141,1","10166,1",,,,"7,1,03,1","2,1,03,1",,"08,99,1,08,1,00,1,01250,1,02,1,99,9",,,"99999,9,09781,1","7,1,009,1,+999,9","02,1","SYN082AAXX  05151 01047 41687 82205 11120 21141 39781 40166 57009 70272 8802/ 333 4////;",
"01047099999","2010-02-05T18:00:00","4","69.0166667","23.0666667","307.0","KAUTOKEINO II, NO","FM-12","ENKA ","V020","220,1,N,0070,1","01200,1,9,N","070000,1,N,1","-0122,1","-0149,1","10154,1","12,0020,9,1",,,"7,1,06,1","3,1,06,1",,"08,99,1,08,1,00,1,01250,1,02,1,99,9",,"120,M,-0115,1","99999,9,09769,1","7,1,012,1,+999,9","02,1","SYN094AAXX  05181 01047 11688 82207 11122 21149 39769 40154 57012 60022 70273 8802/ 333 11115 4////;",
"01047099999","2010-02-06T00:00:00","4","69.0166667","23.0666667","307.0","KAUTOKEINO II, NO","FM-12","ENKA ","V020","220,1,N,0100,1","01200,1,9,N","006000,1,N,1","-0124,1","-0151,1","10133,1",,,,"7,1,06,1","3,1,06,1",,"08,99,1,08,1,00,1,01250,1,02,1,99,9",,,"99999,9,09749,1","7,1,012,1,+999,9","71,1","SYN088AAXX  06001 01047 11656 82210 11124 21151 39749 40133 57012 6//// 77173 8802/ 333 4////;",
"01047099999","2010-02-06T06:00:00","4","69.0166667","23.0666667","307.0","KAUTOKEINO II, NO","FM-12","ENKA ","V020","220,1,N,0050,1","01200,1,9,N","065000,1,N,1","-0100,1","-0125,1","10109,1","12,0003,9,1","24,0023,9,1","0049,9,1,999999,9,9","7,1,06,1","3,1,06,1",,"08,99,1,08,1,00,1,01250,1,02,1,99,9","24,9","999,N,-0126,1","99999,9,09728,1","6,1,007,1,+999,9","02,1","SYN100AAXX  06061 01047 11687 82205 11100 21125 39728 40109 56007 69932 70273 8802/ 333 21126 48049 70023;",
"01047099999","2010-02-06T09:00:00","4","69.0166667","23.0666667","307.0","KAUTOKEINO II, NO","FM-12","ENKA ","V020","220,1,N,0050,1","00750,1,9,N","065000,1,N,1","-0091,1","-0115,1","10102,1",,,,"2,1,03,1","2,1,03,1",,"08,99,1,08,1,00,1,00800,1,02,1,99,9",,,"99999,9,09721,1","7,1,007,1,+999,9","02,1","SYN082AAXX  06091 01047 41587 82205 11091 21115 39721 40102 57007 70222 8802/ 333 4////;",
"01047099999","2010-02-06T12:00:00","4","69.0166667","23.0666667","307.0","KAUTOKEINO II, NO","FM-12","ENKA ","V020","220,1,N,0050,1","01200,1,9,N","070000,1,N,1","-0054,1","-0078,1","10083,1",,,,"2,1,06,1","2,1,06,1",,"08,99,1,08,1,00,1,01250,1,02,1,99,9",,,"99999,9,09704,1","7,1,016,1,+999,9","02,1","SYN088AAXX  06121 01047 11688 82205 11054 21078 39704 40083 57016 6//// 70222 8802/ 333 4////;",
"01047099999","2010-02-06T15:00:00","4","69.0166667","23.0666667","307.0","KAUTOKEINO II, NO","FM-12","ENKA ","V020","999,9,C,0000,1","01200,1,9,N","070000,1,N,1","-0071,1","-0091,1","10086,1",,,,"2,1,03,1","2,1,03,1",,"08,99,1,08,1,00,1,01250,1,02,1,99,9",,,"99999,9,09706,1","5,1,002,1,+999,9","02,1","SYN082AAXX  06151 01047 41688 80000 11071 21091 39706 40086 55002 70222 8802/ 333 4////;",
"01047099999","2010-02-06T18:00:00","4","69.0166667","23.0666667","307.0","KAUTOKEINO II, NO","FM-12","ENKA ","V020","220,1,N,0050,1","01500,1,9,N","070000,1,N,1","-0100,1","-0118,1","10099,1","12,0000,9,1",,,"2,1,06,1","2,1,06,1",,"05,99,1,05,1,00,1,01750,1,07,1,00,1",,"120,M,-0054,1","99999,9,09718,1","3,1,011,1,+999,9","01,1","SYN094AAXX  06181 01047 11788 52205 11100 21118 39718 40099 53011 60002 70122 85070 333 11054 4////;","Q01  00002PRCP12"
"01047099999","2010-02-07T00:00:00","4","69.0166667","23.0666667","307.0","KAUTOKEINO II, NO","FM-12","ENKA ","V020","220,1,N,0030,1","01500,1,9,N","070000,1,N,1","-0118,1","-0135,1","10112,1",,,,"1,1,06,1","1,1,06,1",,"08,99,1,08,1,00,1,01750,1,07,1,99,9",,,"99999,9,09730,1","1,1,005,1,+999,9","02,1","SYN088AAXX  07001 01047 11788 82203 11118 21135 39730 40112 51005 6//// 70211 8807/ 333 4////;",
"01047099999","2010-02-07T06:00:00","4","69.0166667","23.0666667","307.0","KAUTOKEINO II, NO","FM-12","ENKA ","V020","220,1,N,0030,1","01200,1,9,N","030000,1,N,1","-0099,1","-0116,1","10104,1","12,9999,9,9","24,9999,9,9","0050,9,1,999999,9,9","7,1,06,1","2,1,06,1",,"08,99,1,08,1,00,1,01250,1,02,1,99,9","24,9","999,N,-0122,1","99999,9,09722,1","6,1,004,1,+999,9","70,1","SYN100AAXX  07061 01047 11680 82203 11099 21116 39722 40104 56004 69912 77072 8802/ 333 21122 48050 70001;","Q01  00002PRCP24Q02  00002PRCP12Q03  00002PRCP12Q04  00002PRCP24"
"01047099999","2010-02-07T09:00:00","4","69.0166667","23.0666667","307.0","KAUTOKEINO II, NO","FM-12","ENKA ","V020","220,1,N,0030,1","01200,1,9,N","070000,1,N,1","-0044,1","-0070,1","10099,1",,,,"7,1,03,1","2,1,03,1",,"08,99,1,08,1,00,1,01250,1,02,1,99,9",,,"99999,9,09720,1","3,1,002,1,+999,9","02,1","SYN082AAXX  07091 01047 41688 82203 11044 21070 39720 40099 53002 70272 8802/ 333 4////;",
"01047099999","2010-02-07T12:00:00","4","69.0166667","23.0666667","307.0","KAUTOKEINO II, NO","FM-12","ENKA ","V020","220,1,N,0030,1","01200,1,9,N","070000,1,N,1","-0076,1","-0101,1","10103,1",,,,"2,1,06,1","2,1,06,1",,"08,99,1,08,1,00,1,01250,1,02,1,99,9",,,"99999,9,09722,1","1,1,002,1,+999,9","02,1","SYN088AAXX  07121 01047 11688 82203 11076 21101 39722 40103 51002 6//// 70222 8802/ 333 4////;",
"01047099999","2010-02-07T15:00:00","4","69.0166667","23.0666667","307.0","KAUTOKEINO II, NO","FM-12","ENKA ","V020","220,1,N,0010,1","01200,1,9,N","010000,1,N,1","-0100,1","-0117,1","10108,1",,,,"7,1,03,1","2,1,03,1",,"08,99,1,08,1,00,1,01250,1,02,1,99,9",,,"99999,9,09727,1","3,1,004,1,+999,9","70,1","SYN082AAXX  07151 01047 41660 82201 11100 21117 39727 40108 53004 77072 8802/ 333 4////;",
"01047099999","2010-02-07T18:00:00","4","69.0166667","23.0666667","307.0","KAUTOKEINO II, NO","FM-12","ENKA ","V020","050,1,N,0010,1","22000,1,9,N","070000,1,N,1","-0150,1","-0170,1","10115,1","12,0000,2,1",,,"7,1,06,1","2,1,06,1",,"03,99,1,03,1,00,1,01750,1,07,1,00,1",,"120,M,-0038,1","99999,9,09731,1","2,1,004,1,+999,9","02,1","SYN094AAXX  07181 01047 11788 30501 11150 21170 39731 40115 52004 69902 70272 83070 333 11038 4////;",
"01047099999","2010-02-08T00:00:00","4","69.0166667","23.0666667","307.0","KAUTOKEINO II, NO","FM-12","ENKA ","V020","999,9,C,0000,1","00420,1,9,N","070000,1,N,1","-0148,1","-0166,1","10133,1",,,,"1,1,06,1","1,1,06,1",,"08,99,1,08,1,06,1,00450,1,99,9,99,9",,,"99999,9,09748,1","1,1,005,1,+999,9","02,1","SYN088AAXX  08001 01047 11488 80000 11148 21166 39748 40133 51005 6//// 70211 886// 333 4////;",
"01047099999","2010-02-08T06:00:00","4","69.0166667","23.0666667","307.0","KAUTOKEINO II, NO","FM-12","ENKA ","V020","999,9,C,0000,1","01200,1,9,N","065000,1,N,1","-0097,1","-0110,1","10140,1","12,0000,9,1","24,0000,2,1","0050,9,1,999999,9,9","2,1,06,1","1,1,06,1",,"08,99,1,08,1,00,1,01250,1,02,1,99,9","24,9","999,N,-0211,1","99999,9,09757,1","3,1,004,1,+999,9","02,1","SYN100AAXX  08061 01047 11687 80000 11097 21110 39757 40140 53004 60002 70221 8802/ 333 21211 48050 70000;","Q01  00002PRCP12"
"01047099999","2010-02-08T09:00:00","4","69.0166667","23.0666667","307.0","KAUTOKEINO II, NO","FM-12","ENKA ","V020","999,9,C,0000,1","01200,1,9,N","070000,1,N,1","-0079,1","-0091,1","10147,1",,,,"7,1,03,1","2,1,03,1",,"08,99,1,08,1,00,1,01250,1,02,1,99,9",,,"99999,9,09764,1","2,1,007,1,+999,9","22,1","SYN082AAXX  08091 01047 41688 80000 11079 21091 39764 40147 52007 72272 8802/ 333 4////;",
"01047099999","2010-02-08T12:00:00","4","69.0166667","23.0666667","307.0","KAUTOKEINO II, NO","FM-12","ENKA ","V020","090,1,N,0010,1","01200,1,9,N","010000,1,N,1","-0072,1","-0084,1","10151,1",,,,"7,1,06,1","2,1,06,1",,"08,99,1,08,1,00,1,01250,1,02,1,99,9",,,"99999,9,09769,1","1,1,005,1,+999,9","71,1","SYN088AAXX  08121 01047 11660 80901 11072 21084 39769 40151 51005 6//// 77172 8802/ 333 4////;",
"01047099999","2010-02-08T15:00:00","4","69.0166667","23.0666667","307.0","KAUTOKEINO II, NO","FM-12","ENKA ","V020","140,1,N,0010,1","01200,1,9,N","010000,1,N,1","-0092,1","-0105,1","10155,1",,,,"7,1,03,1","2,1,03,1",,"08,99,1,08,1,00,1,01250,1,02,1,99,9",,,"99999,9,09772,1","1,1,003,1,+999,9","70,1","SYN082AAXX  08151 01047 41660 81401 11092 21105 39772 40155 51003 77072 8802/ 333 4////;",
"01047099999","2010-02-08T18:00:00","4","69.0166667","23.0666667","307.0","KAUTOKEINO II, NO","FM-12","ENKA ","V020","999,9,C,0000,1","01200,1,9,N","007000,1,N,1","-0132,1","-0151,1","10163,1","12,0008,9,1",,,"7,1,06,1","7,1,06,1",,"08,99,1,08,1,00,1,01250,1,02,1,99,9",,"120,M,-0065,1","99999,9,09778,1","2,1,005,1,+999,9","71,1","SYN094AAXX  08181 01047 11657 80000 11132 21151 39778 40163 52005 69982 77177 8802/ 333 11065 4////;",
"01047099999","2010-02-09T00:00:00","4","69.0166667","23.0666667","307.0","KAUTOKEINO II, NO","FM-12","ENKA ","V020","090,1,N,0010,1","01500,1,9,N","070000,1,N,1","-0186,1","-0205,1","10183,1",,,,"7,1,06,1","2,1,06,1",,"08,99,1,08,1,00,1,01750,1,07,1,99,9",,,"99999,9,09794,1","2,1,005,1,+999,9","02,1","SYN088AAXX  09001 01047 11788 80901 11186 21205 39794 40183 52005 6//// 70272 8807/ 333 4////;",
"01047099999","2010-02-09T06:00:00","4","69.0166667","23.0666667","307.0","KAUTOKEINO II, NO","FM-12","ENKA ","V020","999,9,C,0000,1","01500,1,9,N","070000,1,N,1","-0150,1","-0170,1","10189,1","12,0000,2,1","24,0008,9,1","0050,9,1,999999,9,9","2,1,06,1","2,1,06,1",,"08,99,1,08,1,00,1,01750,1,07,1,99,9","24,9","999,N,-0198,1","99999,9,09802,1","1,1,004,1,+999,9","02,1","SYN100AAXX  09061 01047 11788 80000 11150 21170 39802 40189 51004 60002 70222 8807/ 333 21198 48050 70008;",
"01047099999","2010-02-09T09:00:00","4","69.0166667","23.0666667","307.0","KAUTOKEINO II, NO","FM-12","ENKA ","V020","140,1,N,0010,1","01500,1,9,N","070000,1,N,1","-0134,1","-0154,1","10196,1",,,,"2,1,03,1","2,1,03,1",,"08,99,1,08,1,00,1,01750,1,01,1,99,9",,,"99999,9,09810,1","2,1,008,1,+999,9","02,1","SYN082AAXX  09091 01047 41788 81401 11134 21154 39810 40196 52008 70222 8801/ 333 4////;",
"01047099999","2010-02-09T12:00:00","4","69.0166667","23.0666667","307.0","KAUTOKEINO II, NO","FM-12","ENKA ","V020","999,9,C,0000,1","22000,1,9,N","070000,1,N,1","-0155,1","-0182,1","10200,1",,,,"2,1,06,1","2,1,06,1",,"04,99,1,04,1,05,1,01250,1,00,1,00,1",,,"99999,9,09812,1","1,1,003,1,+999,9","01,1","SYN088AAXX  09121 01047 11688 40000 11155 21182 39812 40200 51003 6//// 70122 84500 333 4////;",
"01047099999","2010-02-09T15:00:00","4","69.0166667","23.0666667","307.0","KAUTOKEINO II, NO","FM-12","ENKA ","V020","140,1,N,0010,1","00750,1,9,N","070000,1,N,1","-0193,1","-0219,1","10200,1",,,,"8,1,03,1","2,1,03,1",,"06,99,1,06,1,09,1,00800,1,00,1,00,1",,,"99999,9,09811,1","4,1,000,1,+999,9","26,1","SYN082AAXX  09151 01047 41588 61401 11193 21219 39811 40200 54000 72682 86900 333 4////;",
"01047099999","2010-02-09T18:00:00","4","69.0166667","23.0666667","307.0","KAUTOKEINO II, NO","FM-12","ENKA ","V020","160,1,N,0050,1","00750,1,9,N","070000,1,N,1","-0254,1","-0279,1","10204,1","12,0000,2,1",,,"8,1,06,1","2,1,06,1",,"06,99,1,06,1,09,1,00800,1,00,1,00,1",,"120,M,-0125,1","99999,9,09812,1","4,1,000,1,+999,9","02,1","SYN094AAXX  09181 01047 11588 61605 11254 21279 39812 40204 54000 69922 70282 86900 333 11125 4////;",
"01047099999","2010-02-10T00:00:00","4","69.0166667","23.0666667","307.0","KAUTOKEINO II, NO","FM-12","ENKA ","V020","220,1,N,0030,1","00750,1,9,N","070000,1,N,1","-0256,1","-0281,1","10194,1",,,,"2,1,06,1","2,1,06,1",,"08,99,1,08,1,05,1,00800,1,99,9,99,9",,,"99999,9,09802,1","8,1,005,1,+999,9","02,1","SYN088AAXX  10001 01047 11588 82203 11256 21281 39802 40194 58005 6//// 70222 885// 333 4////;",
"01047099999","2010-02-10T06:00:00","4","69.0166667","23.0666667","307.0","KAUTOKEINO II, NO","FM-12","ENKA ","V020","999,9,C,0000,1","00750,1,9,N","070000,1,N,1","-0180,1","-0206,1","10168,1","12,0000,9,1","24,0003,9,1","0050,9,1,999999,9,9","2,1,06,1","2,1,06,1",,"08,99,1,08,1,05,1,00800,1,99,9,99,9","24,9","999,N,-0272,1","99999,9,09781,1","6,1,008,1,+999,9","02,1","SYN100AAXX  10061 01047 11588 80000 11180 21206 39781 40168 56008 60002 70222 885// 333 21272 48050 70002;","Q01  00002PRCP12"
"01047099999","2010-02-10T09:00:00","4","69.0166667","23.0666667","307.0","KAUTOKEINO II, NO","FM-12","ENKA ","V020","180,1,N,0050,1","00750,1,9,N","008000,1,N,1","-0154,1","-0174,1","10152,1",,,,"2,1,03,1","2,1,03,1",,"07,99,1,07,1,05,1,00800,1,00,1,00,1",,,"99999,9,09766,1","7,1,015,1,+999,9","10,1","SYN082AAXX  10091 01047 41558 71805 11154 21174 39766 40152 57015 71022 87500 333 4////;",
"01047099999","2010-02-10T12:00:00","4","69.0166667","23.0666667","307.0","KAUTOKEINO II, NO","FM-12","ENKA ","V020","180,1,N,0050,1","00750,1,9,N","030000,1,N,1","-0156,1","-0176,1","10140,1",,,,"2,1,06,1","2,1,06,1",,"08,99,1,08,1,05,1,00800,1,99,9,99,9",,,"99999,9,09755,1","7,1,010,1,+999,9","02,1","SYN088AAXX  10121 01047 11580 81805 11156 21176 39755 40140 57010 6//// 70222 885// 333 4////;",
"01047099999","2010-02-10T15:00:00","4","69.0166667","23.0666667","307.0","KAUTOKEINO II, NO","FM-12","ENKA ","V020","180,1,N,0050,1","01500,1,9,N","070000,1,N,1","-0171,1","-0197,1","10123,1",,,,"2,1,03,1","2,1,03,1",,"08,99,1,08,1,00,1,01750,1,07,1,99,9",,,"99999,9,09738,1","7,1,017,1,+999,9","02,1","SYN082AAXX  10151 01047 41788 81805 11171 21197 39738 40123 57017 70222 8807/ 333 4////;",
"01047099999","2010-02-10T18:00:00","4","69.0166667","23.0666667","307.0","KAUTOKEINO II, NO","FM-12","ENKA ","V020","180,1,N,0050,1","01500,1,9,N","070000,1,N,1","-0172,1","-0198,1","10114,1","12,0000,9,1",,,"2,1,06,1","2,1,06,1",,"08,99,1,08,1,00,1,01750,1,07,1,99,9",,"120,M,-0132,1","99999,9,09729,1","6,1,009,1,+999,9","02,1","SYN094AAXX  10181 01047 11788 81805 11172 21198 39729 40114 56009 60002 70222 8807/ 333 11132 4////;","Q01  00002PRCP12"
"01047099999","2010-02-11T00:00:00","4","69.0166667","23.0666667","307.0","KAUTOKEINO II, NO","FM-12","ENKA ","V020","180,1,N,0050,1","00750,1,9,N","010000,1,N,1","-0163,1","-0189,1","10104,1",,,,"8,1,06,1","2,1,06,1",,"06,99,1,06,1,09,1,00800,1,00,1,00,1",,,"99999,9,09720,1","7,1,005,1,+999,9","85,1","SYN088AAXX  11001 01047 11560 61805 11163 21189 39720 40104 57005 6//// 78582 86900 333 4////;",
"01047099999","2010-02-11T06:00:00","4","69.0166667","23.0666667","307.0","KAUTOKEINO II, NO","FM-12","ENKA ","V020","180,1,N,0030,1","22000,1,9,N","070000,1,N,1","-0225,1","-0250,1","10118,1","12,0000,2,1","24,0003,9,1","0051,9,1,999999,9,9","8,1,06,1","2,1,06,1",,"04,99,1,04,1,00,1,01750,1,07,1,00,1","24,9","999,N,-0225,1","99999,9,09730,1","3,1,003,1,+999,9","02,1","SYN100AAXX  11061 01047 11788 41803 11225 21250 39730 40118 53003 69922 70282 84070 333 21225 48051 70002;",
"01047099999","2010-02-11T09:00:00","4","69.0166667","23.0666667","307.0","KAUTOKEINO II, NO","FM-12","ENKA ","V020","999,9,C,0000,1","22000,1,9,N","070000,1,N,1","-0185,1","-0211,1","10133,1",,,,"1,1,03,1","1,1,03,1",,"04,99,1,04,1,00,1,01750,1,07,1,00,1",,,"99999,9,09747,1","3,1,016,1,+999,9","02,1","SYN082AAXX  11091 01047 41788 40000 11185 21211 39747 40133 53016 70211 84070 333 4////;",
"01047099999","2010-02-11T12:00:00","4","69.0166667","23.0666667","307.0","KAUTOKEINO II, NO","FM-12","ENKA ","V020","320,1,N,0010,1","22000,1,9,N","070000,1,N,1","-0196,1","-0234,1","10145,1",,,,"1,1,06,1","1,1,06,1",,"02,99,1,02,1,00,1,01750,1,07,1,00,1",,,"99999,9,09758,1","1,1,011,1,+999,9","01,1","SYN088AAXX  11121 01047 11788 23201 11196 21234 39758 40145 51011 6//// 70111 82070 333 4////;",
"01047099999","2010-02-11T15:00:00","4","69.0166667","23.0666667","307.0","KAUTOKEINO II, NO","FM-12","ENKA ","V020","320,1,N,0010,1","22000,1,9,N","070000,1,N,1","-0258,1","-0288,1","10163,1",,,,"0,1,03,1","0,1,03,1",,"04,99,1,04,1,00,1,01750,1,07,1,00,1",,,"99999,9,09772,1","2,1,015,1,+999,9","02,1","SYN082AAXX  11151 01047 41788 43201 11258 21288 39772 40163 52015 70200 84070 333 4////;",
"01047099999","2010-02-11T18:00:00","4","69.0166667","23.0666667","307.0","KAUTOKEINO II, NO","FM-12","ENKA ","V020","180,1,N,0030,1","22000,1,9,N","070000,1,N,1","-0262,1","-0286,1","10181,1","12,0000,9,1",,,"0,1,06,1","0,1,06,1","00,1,+99999,9,99,9","00,99,1,00,1,00,1,99999,9,00,1,00,1",,"120,M,-0150,1","99999,9,09789,1","2,1,017,1,+999,9","02,1","SYN088AAXX  11181 01047 11988 01803 11262 21286 39789 40181 52017 60002 70200 333 11150 4////;","Q01  00002PRCP12"
"01047099999","2010-02-12T00:00:00","4","69.0166667","23.0666667","307.0","KAUTOKEINO II, NO","FM-12","ENKA ","V020","180,1,N,0010,1","01500,1,9,N","070000,1,N,1","-0265,1","-0293,1","10188,1",,,,"2,1,06,1","0,1,06,1",,"08,99,1,08,1,00,1,01750,1,01,1,99,9",,,"99999,9,09796,1","1,1,005,1,+999,9","02,1","SYN088AAXX  12001 01047 11788 81801 11265 21293 39796 40188 51005 6//// 70220 8801/ 333 4////;",
"01047099999","2010-02-12T06:00:00","4","69.0166667","23.0666667","307.0","KAUTOKEINO II, NO","FM-12","ENKA ","V020","999,9,C,0000,1","01200,1,9,N","070000,1,N,1","-0202,1","-0228,1","10184,1","12,0000,9,1","24,0000,9,1","0051,9,1,999999,9,9","2,1,06,1","0,1,06,1",,"08,99,1,08,1,00,1,01250,1,02,1,99,9","24,9","999,N,-0271,1","99999,9,09795,1","4,1,000,1,+999,9","02,1","SYN100AAXX  12061 01047 11688 80000 11202 21228 39795 40184 54000 60002 70220 8802/ 333 21271 48051 70000;","Q01  00002PRCP24Q02  00002PRCP12"
"01047099999","2010-02-12T09:00:00","4","69.0166667","23.0666667","307.0","KAUTOKEINO II, NO","FM-12","ENKA ","V020","180,1,N,0070,1","01500,1,9,N","070000,1,N,1","-0131,1","-0158,1","10169,1",,,,"2,1,03,1","2,1,03,1",,"08,99,1,08,1,00,1,01750,1,01,1,99,9",,,"99999,9,09784,1","7,1,012,1,+999,9","02,1","SYN082AAXX  12091 01047 41788 81807 11131 21158 39784 40169 57012 70222 8801/ 333 4////;",
"01047099999","2010-02-12T12:00:00","4","69.0166667","23.0666667","307.0","KAUTOKEINO II, NO","FM-12","ENKA ","V020","140,1,N,0050,1","01200,1,9,N","007000,1,N,1","-0114,1","-0141,1","10156,1",,,,"7,1,06,1","2,1,06,1",,"08,99,1,08,1,00,1,01250,1,02,1,99,9",,,"99999,9,09772,1","8,1,012,1,+999,9","71,1","SYN088AAXX  12121 01047 11657 81405 11114 21141 39772 40156 58012 6//// 77172 8802/ 333 4////;",
"01047099999","2010-02-12T15:00:00","4","69.0166667","23.0666667","307.0","KAUTOKEINO II, NO","FM-12","ENKA ","V020","140,1,N,0070,1","01200,1,9,N","070000,1,N,1","-0105,1","-0126,1","10134,1",,,,"7,1,03,1","2,1,03,1",,"08,99,1,08,1,00,1,01250,1,02,1,99,9",,,"99999,9,09751,1","7,1,020,1,+999,9","02,1","SYN082AAXX  12151 01047 41688 81407 11105 21126 39751 40134 57020 70272 8802/ 333 4////;",
"01047099999","2010-02-12T18:00:00","4","69.0166667","23.0666667","307.0","KAUTOKEINO II, NO","FM-12","ENKA ","V020","160,1,N,0070,1","01200,1,9,N","070000,1,N,1","-0084,1","-0105,1","10125,1","12,0005,9,1",,,"7,1,06,1","2,1,06,1",,"08,99,1,08,1,00,1,01250,1,02,1,99,9",,"120,M,-0080,1","99999,9,09743,1","6,1,008,1,+999,9","02,1","SYN094AAXX  12181 01047 11688 81607 11084 21105 39743 40125 56008 69952 70272 8802/ 333 11080 4////;",
"01047099999","2010-02-13T00:00:00","4","69.0166667","23.0666667","307.0","KAUTOKEINO II, NO","FM-12","ENKA ","V020","160,1,N,0070,1","01500,1,9,N","070000,1,N,1","-0013,1","-0043,1","10104,1",,,,"2,1,06,1","2,1,06,1",,"08,99,1,08,1,00,1,01750,1,07,1,99,9",,,"99999,9,09726,1","8,1,005,1,+999,9","02,1","SYN088AAXX  13001 01047 11788 81607 11013 21043 39726 40104 58005 6//// 70222 8807/ 333 4////;",
"01047099999","2010-02-13T06:00:00","4","69.0166667","23.0666667","307.0","KAUTOKEINO II, NO","FM-12","ENKA ","V020","160,1,N,0050,1","01200,1,9,N","070000,1,N,1","-0038,1","-0064,1","10065,1","12,0000,9,1","24,0005,9,1","0050,9,1,999999,9,9","2,1,06,1","2,1,06,1",,"07,99,1,07,1,00,1,01250,1,02,1,00,1","24,9","999,N,-0086,1","99999,9,09687,1","7,1,017,1,+999,9","02,1","SYN100AAXX  13061 01047 11688 71605 11038 21064 39687 40065 57017 60002 70222 87020 333 21086 48050 70005;","Q01  00002PRCP12"
"01047099999","2010-02-13T09:00:00","4","69.0166667","23.0666667","307.0","KAUTOKEINO II, NO","FM-12","ENKA ","V020","160,1,N,0050,1","03000,1,9,N","070000,1,N,1","-0036,1","-0062,1","10057,1",,,,"2,1,03,1","2,1,03,1",,"07,99,1,03,1,04,1,00800,1,02,1,00,1",,,"99999,9,09680,1","6,1,008,1,+999,9","02,1","SYN082AAXX  13091 01047 41588 71605 11036 21062 39680 40057 56008 70222 83420 333 4////;",
"01047099999","2010-02-13T12:00:00","4","69.0166667","23.0666667","307.0","KAUTOKEINO II, NO","FM-12","ENKA ","V020","320,1,N,0050,1","01500,1,9,N","070000,1,N,1","-0033,1","-0059,1","10058,1",,,,"2,1,06,1","2,1,06,1",,"06,99,1,06,1,00,1,01750,1,07,1,00,1",,,"99999,9,09682,1","4,1,000,1,+999,9","02,1","SYN088AAXX  13121 01047 11788 63205 11033 21059 39682 40058 54000 6//// 70222 86070 333 4////;",
"01047099999","2010-02-13T15:00:00","4","69.0166667","23.0666667","307.0","KAUTOKEINO II, NO","FM-12","ENKA ","V020","320,1,N,0050,1","22000,1,9,N","070000,1,N,1","-0081,1","-0121,1","10062,1",,,,"2,1,03,1","2,1,03,1",,"02,99,1,02,1,00,1,01750,1,07,1,00,1",,,"99999,9,09683,1","4,1,000,1,+999,9","01,1","SYN082AAXX  13151 01047 41788 23205 11081 21121 39683 40062 54000 70122 82070 333 4////;",
"01047099999","2010-02-13T18:00:00","4","69.0166667","23.0666667","307.0","KAUTOKEINO II, NO","FM-12","ENKA ","V020","320,1,N,0050,1","22000,1,9,N","070000,1,N,1","-0072,1","-0128,1","10053,1","12,0000,9,1",,,"1,1,06,1","1,1,06,1",,"04,99,1,04,1,00,1,01750,1,07,1,00,1",,"120,M,-0018,1","99999,9,09675,1","7,1,008,1,+999,9","02,1","SYN094AAXX  13181 01047 11788 43205 11072 21128 39675 40053 57008 60002 70211 84070 333 11018 4////;","Q01  00002PRCP12"
"01047099999","2010-02-14T00:00:00","4","69.0166667","23.0666667","307.0","KAUTOKEINO II, NO","FM-12","ENKA ","V020","180,1,N,0070,1","01500,1,9,N","070000,1,N,1","-0060,1","-0109,1","10002,1",,,,"2,1,06,1","2,1,06,1",,"08,99,1,08,1,00,1,01750,1,07,1,99,9",,,"99999,9,09626,1","7,1,020,1,+999,9","02,1","SYN088AAXX  14001 01047 11788 81807 11060 21109 39626 40002 57020 6//// 70222 8807/ 333 4////;",
"01047099999","2010-02-14T06:00:00","4","69.0166667","23.0666667","307.0","KAUTOKEINO II, NO","FM-12","ENKA ","V020","180,1,N,0070,1","00750,1,9,N","070000,1,N,1","-0058,1","-0107,1","09958,1","12,0000,9,1","24,0000,9,1","0050,9,1,999999,9,9","2,1,06,1","2,1,06,1",,"07,99,1,07,1,04,1,00800,1,00,1,00,1","24,9","999,N,-0131,1","99999,9,09584,1","7,1,013,1,+999,9","02,1","SYN100AAXX  14061 01047 11588 71807 11058 21107 39584 49958 57013 60002 70222 87400 333 21131 48050 70000;","Q01  00002PRCP24Q02  00002PRCP12"
"01047099999","2010-02-14T09:00:00","4","69.0166667","23.0666667","307.0","KAUTOKEINO II, NO","FM-12","ENKA ","V020","340,1,N,0100,1","22000,1,9,N","070000,1,N,1","-0040,1","-0078,1","09983,1",,,,"3,1,03,1","2,1,03,1",,"04,99,1,04,1,05,1,00800,1,00,1,00,1",,,"99999,9,09608,1","3,1,025,1,+999,9","36,1","SYN082AAXX  14091 01047 41588 43410 11040 21078 39608 49983 53025 73632 84500 333 4////;",
"01047099999","2010-02-14T12:00:00","4","69.0166667","23.0666667","307.0","KAUTOKEINO II, NO","FM-12","ENKA ","V020","320,1,N,0030,1","01500,1,9,N","070000,1,N,1","-0035,1","-0083,1","09993,1",,,,"3,1,06,1","2,1,06,1",,"08,99,1,08,1,00,1,01750,1,07,1,99,9",,,"99999,9,09619,1","1,1,010,1,+999,9","02,1","SYN088AAXX  14121 01047 11788 83203 11035 21083 39619 49993 51010 6//// 70232 8807/ 333 4////;",
"01047099999","2010-02-14T15:00:00","4","69.0166667","23.0666667","307.0","KAUTOKEINO II, NO","FM-12","ENKA ","V020","320,1,N,0070,1","01500,1,9,N","070000,1,N,1","-0024,1","-0073,1","09960,1",,,,"2,1,03,1","2,1,03,1",,"08,99,1,08,1,00,1,01750,1,07,1,99,9",,,"99999,9,09587,1","8,1,032,1,+999,9","02,1","SYN082AAXX  14151 01047 41788 83207 11024 21073 39587 49960 58032 70222 8807/ 333 4////;",
"01047099999","2010-02-14T18:00:00","4","69.0166667","23.0666667","307.0","KAUTOKEINO II, NO","FM-12","ENKA ","V020","320,1,N,0050,1","22000,1,9,N","070000,1,N,1","-0048,1","-0089,1","09991,1","12,0000,9,1",,,"3,1,06,1","2,1,06,1",,"04,99,1,04,1,00,1,01750,1,07,1,00,1",,"120,M,-0020,1","99999,9,09616,1","3,1,029,1,+999,9","02,1","SYN094AAXX  14181 01047 11788 43205 11048 21089 39616 49991 53029 60002 70232 84070 333 11020 4////;","Q01  00002PRCP12"
"01047099999","2010-02-15T00:00:00","4","69.0166667","23.0666667","307.0","KAUTOKEINO II, NO","FM-12","ENKA ","V020","320,1,N,0100,1","01500,1,9,N","070000,1,N,1","-0010,1","-0046,1","09991,1",,,,"1,1,06,1","1,1,06,1",,"06,99,1,06,1,00,1,01750,1,07,1,00,1",,,"99999,9,09618,1","4,1,000,1,+999,9","02,1","SYN088AAXX  15001 01047 11788 63210 11010 21046 39618 49991 54000 6//// 70211 86070 333 4////;",
"01047099999","2010-02-15T06:00:00","4","69.0166667","23.0666667","307.0","KAUTOKEINO II, NO","FM-12","ENKA ","V020","320,1,N,0050,1","01500,1,9,N","070000,1,N,1","-0054,1","-0089,1","10048,1","12,0000,9,1","24,0000,9,1","0042,9,1,999999,9,9","2,1,06,1","1,1,06,1",,"07,99,1,07,1,00,1,01750,1,07,1,00,1","24,9","999,N,-0054,1","99999,9,09670,1","3,1,020,1,+999,9","02,1","SYN100AAXX  15061 01047 11788 73205 11054 21089 39670 40048 53020 60002 70221 87070 333 21054 48042 70000;","Q01  00002PRCP24Q02  00002PRCP12"
"01047099999","2010-02-15T09:00:00","4","69.0166667","23.0666667","307.0","KAUTOKEINO II, NO","FM-12","ENKA ","V020","340,1,N,0030,1","22000,1,9,N","070000,1,N,1","-0106,1","-0134,1","10066,1",,,,"1,1,03,1","1,1,03,1",,"02,99,1,02,1,05,1,01250,1,00,1,00,1",,,"99999,9,09686,1","1,1,015,1,+999,9","02,1","SYN082AAXX  15091 01047 41688 23403 11106 21134 39686 40066 51015 70211 82500 333 4////;",
"01047099999","2010-02-15T12:00:00","4","69.0166667","23.0666667","307.0","KAUTOKEINO II, NO","FM-12","ENKA ","V020","320,1,N,0070,1","01500,1,9,N","070000,1,N,1","-0060,1","-0111,1","10063,1",,,,"1,1,06,1","1,1,06,1",,"06,99,1,06,1,00,1,01750,1,07,1,00,1",,,"99999,9,09685,1","4,1,000,1,+999,9","02,1","SYN088AAXX  15121 01047 11788 63207 11060 21111 39685 40063 54000 6//// 70211 86070 333 4////;",
"01047099999","2010-02-15T15:00:00","4","69.0166667","23.0666667","307.0","KAUTOKEINO II, NO","FM-12","ENKA ","V020","340,1,N,0100,1","01500,1,9,N","070000,1,N,1","-0052,1","-0093,1","10062,1",,,,"2,1,03,1","2,1,03,1",,"08,99,1,08,1,00,1,01750,1,07,1,99,9",,,"99999,9,09684,1","4,1,000,1,+999,9","02,1","SYN082AAXX  15151 01047 41788 83410 11052 21093 39684 40062 54000 70222 8807/ 333 4////;",
"01047099999","2010-02-15T18:00:00","4","69.0166667","23.0666667","307.0","KAUTOKEINO II, NO","FM-12","ENKA ","V020","360,1,N,0050,1","01200,1,9,N","010000,1,N,1","-0042,1","-0068,1","10071,1","12,9999,9,9",,,"7,1,06,1","2,1,06,1",,"08,99,1,08,1,00,1,01250,1,02,1,99,9",,"120,M,-0025,1","99999,9,09693,1","3,1,009,1,+999,9","71,1","SYN094AAXX  15181 01047 11660 83605 11042 21068 39693 40071 53009 69912 77172 8802/ 333 11025 4////;","Q01  00002PRCP12Q02  00002PRCP12"
"01047099999","2010-02-16T00:00:00","4","69.0166667","23.0666667","307.0","KAUTOKEINO II, NO","FM-12","ENKA ","V020","360,1,N,0050,1","01200,1,9,N","070000,1,N,1","-0072,1","-0100,1","10098,1",,,,"7,1,06,1","2,1,06,1",,"06,99,1,06,1,05,1,01250,1,00,1,00,1",,,"99999,9,09718,1","1,1,005,1,+999,9","02,1","SYN088AAXX  16001 01047 11688 63605 11072 21100 39718 40098 51005 6//// 70272 86500 333 4////;",
"01047099999","2010-02-16T06:00:00","4","69.0166667","23.0666667","307.0","KAUTOKEINO II, NO","FM-12","ENKA ","V020","999,9,C,0000,1","01200,1,9,N","070000,1,N,1","-0090,1","-0107,1","10126,1","12,0000,2,1","24,0003,9,1","0042,9,1,999999,9,9","7,1,06,1","2,1,06,1",,"08,99,1,08,1,00,1,01250,1,02,1,99,9","24,9","999,N,-0104,1","99999,9,09744,1","2,1,010,1,+999,9","02,1","SYN100AAXX  16061 01047 11688 80000 11090 21107 39744 40126 52010 69912 70272 8802/ 333 21104 48042 70002;",
"01047099999","2010-02-16T09:00:00","4","69.0166667","23.0666667","307.0","KAUTOKEINO II, NO","FM-12","ENKA ","V020","050,1,N,0010,1","01500,1,9,N","070000,1,N,1","-0121,1","-0139,1","10142,1",,,,"2,1,03,1","2,1,03,1",,"05,99,1,05,1,00,1,01750,1,07,1,00,1",,,"99999,9,09758,1","2,1,015,1,+999,9","02,1","SYN082AAXX  16091 01047 41788 50501 11121 21139 39758 40142 52015 70222 85070 333 4////;",
"01047099999","2010-02-16T12:00:00","4","69.0166667","23.0666667","307.0","KAUTOKEINO II, NO","FM-12","ENKA ","V020","050,1,N,0030,1","01500,1,9,N","070000,1,N,1","-0110,1","-0129,1","10154,1",,,,"2,1,06,1","2,1,06,1",,"05,99,1,05,1,00,1,01750,1,07,1,00,1",,,"99999,9,09770,1","1,1,012,1,+999,9","02,1","SYN088AAXX  16121 01047 11788 50503 11110 21129 39770 40154 51012 6//// 70222 85070 333 4////;",
"01047099999","2010-02-16T15:00:00","4","69.0166667","23.0666667","307.0","KAUTOKEINO II, NO","FM-12","ENKA ","V020","360,1,N,0030,1","01500,1,9,N","070000,1,N,1","-0160,1","-0179,1","10165,1",,,,"2,1,03,1","2,1,03,1",,"06,99,1,06,1,00,1,01750,1,07,1,00,1",,,"99999,9,09778,1","1,1,008,1,+999,9","02,1","SYN082AAXX  16151 01047 41788 63603 11160 21179 39778 40165 51008 70222 86070 333 4////;",
"01047099999","2010-02-16T18:00:00","4","69.0166667","23.0666667","307.0","KAUTOKEINO II, NO","FM-12","ENKA ","V020","360,1,N,0010,1","01500,1,9,N","070000,1,N,1","-0188,1","-0207,1","10177,1","12,0000,9,1",,,"2,1,06,1","2,1,06,1",,"05,99,1,05,1,00,1,01750,1,07,1,00,1",,"120,M,-0055,1","99999,9,09789,1","2,1,010,1,+999,9","02,1","SYN094AAXX  16181 01047 11788 53601 11188 21207 39789 40177 52010 60002 70222 85070 333 11055 4////;","Q01  00002PRCP12"
"01047099999","2010-02-17T00:00:00","4","69.0166667","23.0666667","307.0","KAUTOKEINO II, NO","FM-12","ENKA ","V020","220,1,N,0030,1","01200,1,9,N","007000,1,N,1","-0194,1","-0212,1","10195,1",,,,"7,1,06,1","2,1,06,1",,"08,99,1,08,1,00,1,01250,1,02,1,99,9",,,"99999,9,09806,1","1,1,005,1,+999,9","71,1","SYN088AAXX  17001 01047 11657 82203 11194 21212 39806 40195 51005 6//// 77172 8802/ 333 4////;",
"01047099999","2010-02-17T06:00:00","4","69.0166667","23.0666667","307.0","KAUTOKEINO II, NO","FM-12","ENKA ","V020","999,9,C,0000,1","01200,1,9,N","065000,1,N,1","-0199,1","-0220,1","10195,1","12,0003,9,1","24,0003,9,1","0043,9,1,999999,9,9","7,1,06,1","2,1,06,1",,"08,99,1,08,1,00,1,01250,1,02,1,99,9","17,9","999,N,-0236,1","99999,9,09805,1","4,1,000,1,+999,9","02,1","SYN100AAXX  17061 01047 11687 80000 11199 21220 39805 40195 54000 69932 70272 8802/ 333 21236 40043 70003;",
"01047099999","2010-02-17T09:00:00","4","69.0166667","23.0666667","307.0","KAUTOKEINO II, NO","FM-12","ENKA ","V020","999,9,C,0000,1","01500,1,9,N","070000,1,N,1","-0218,1","-0238,1","10199,1",,,,"2,1,03,1","2,1,03,1",,"08,99,1,08,1,00,1,01750,1,01,1,99,9",,,"99999,9,09809,1","3,1,003,1,+999,9","02,1","SYN082AAXX  17091 01047 41788 80000 11218 21238 39809 40199 53003 70222 8801/ 333 4////;",
"01047099999","2010-02-17T12:00:00","4","69.0166667","23.0666667","307.0","KAUTOKEINO II, NO","FM-12","ENKA ","V020","180,1,N,0030,1","01500,1,9,N","070000,1,N,1","-0201,1","-0221,1","10192,1",,,,"2,1,06,1","2,1,06,1",,"06,99,1,06,1,00,1,01750,1,01,1,00,1",,,"99999,9,09803,1","7,1,005,1,+999,9","02,1","SYN088AAXX  17121 01047 11788 61803 11201 21221 39803 40192 57005 6//// 70222 86010 333 4////;",
"01047099999","2010-02-17T15:00:00","4","69.0166667","23.0666667","307.0","KAUTOKEINO II, NO","FM-12","ENKA ","V020","180,1,N,0030,1","01500,1,9,N","070000,1,N,1","-0248,1","-0273,1","10186,1",,,,"2,1,03,1","2,1,03,1",,"08,99,1,08,1,00,1,01750,1,01,1,99,9",,,"99999,9,09795,1","7,1,008,1,+999,9","02,1","SYN082AAXX  17151 01047 41788 81803 11248 21273 39795 40186 57008 70222 8801/ 333 4////;",
"01047099999","2010-02-17T18:00:00","4","69.0166667","23.0666667","307.0","KAUTOKEINO II, NO","FM-12","ENKA ","V020","180,1,N,0010,1","99999,9,9,N","070000,1,N,1","-0265,1","-0289,1","10179,1","12,0000,9,1",,,"2,1,06,1","2,1,06,1",,"08,99,1,08,1,00,1,99999,9,01,1,99,9",,"120,M,-0168,1","99999,9,09787,1","7,1,008,1,+999,9","02,1","SYN094AAXX  17181 01047 11/88 81801 11265 21289 39787 40179 57008 60002 70222 8801/ 333 11168 4////;","Q01  00002PRCP12"
"01047099999","2010-02-18T00:00:00","4","69.0166667","23.0666667","307.0","KAUTOKEINO II, NO","FM-12","ENKA ","V020","180,1,N,0030,1","00750,1,9,N","070000,1,N,1","-0334,1","-0357,1","10174,1",,,,"2,1,06,1","2,1,06,1",,"05,99,1,05,1,05,1,00800,1,00,1,00,1",,,"99999,9,09780,1","7,1,005,1,+999,9","02,1","SYN088AAXX  18001 01047 11588 51803 11334 21357 39780 40174 57005 6//// 70222 85500 333 4////;",
"01047099999","2010-02-18T06:00:00","4","69.0166667","23.0666667","307.0","KAUTOKEINO II, NO","FM-12","ENKA ","V020","999,9,C,0000,1","22000,1,9,N","065000,1,N,1","-0342,1","-0370,1","10165,1","12,0000,9,1","24,0000,9,1","0043,9,1,999999,9,9","2,1,06,1","1,1,06,1",,"04,99,1,04,1,00,1,01750,1,01,1,00,1","24,9","999,N,-0342,1","99999,9,09770,1","6,1,006,1,+999,9","02,1","SYN100AAXX  18061 01047 11787 40000 11342 21370 39770 40165 56006 60002 70221 84010 333 21342 48043 70000;","Q01  00002PRCP24Q02  00002PRCP12"
"01047099999","2010-02-18T09:00:00","4","69.0166667","23.0666667","307.0","KAUTOKEINO II, NO","FM-12","ENKA ","V020","180,1,N,0010,1","22000,1,9,N","070000,1,N,1","-0328,1","-0356,1","10167,1",,,,"1,1,03,1","1,1,03,1",,"03,99,1,00,1,00,1,99999,9,00,1,08,1",,,"99999,9,09773,1","4,1,000,1,+999,9","02,1","SYN082AAXX  18091 01047 41988 31801 11328 21356 39773 40167 54000 70211 80008 333 4////;",
"01047099999","2010-02-18T12:00:00","4","69.0166667","23.0666667","307.0","KAUTOKEINO II, NO","FM-12","ENKA ","V020","180,1,N,0010,1","22000,1,9,N","070000,1,N,1","-0271,1","-0300,1","10167,1",,,,"1,1,06,1","1,1,06,1",,"04,99,1,00,1,00,1,99999,9,00,1,08,1",,,"99999,9,09776,1","0,1,003,1,+999,9","02,1","SYN088AAXX  18121 01047 11988 41801 11271 21300 39776 40167 50003 6//// 70211 80008 333 4////;",
"01047099999","2010-02-18T15:00:00","4","69.0166667","23.0666667","307.0","KAUTOKEINO II, NO","FM-12","ENKA ","V020","180,1,N,0030,1","22000,1,9,N","070000,1,N,1","-0312,1","-0340,1","10163,1",,,,"0,1,03,1","0,1,03,1",,"02,99,1,00,1,00,1,99999,9,00,1,08,1",,,"99999,9,09769,1","7,1,006,1,+999,9","02,1","SYN082AAXX  18151 01047 41988 21803 11312 21340 39769 40163 57006 70200 80008 333 4////;",
"01047099999","2010-02-18T18:00:00","4","69.0166667","23.0666667","307.0","KAUTOKEINO II, NO","FM-12","ENKA ","V020","180,1,N,0030,1","22000,1,9,N","070000,1,N,1","-0320,1","-0348,1","10165,1","12,0000,9,1",,,"0,1,06,1","0,1,06,1","00,1,+99999,9,99,9","00,99,1,00,1,00,1,99999,9,00,1,00,1",,"120,M,-0230,1","99999,9,09771,1","4,1,000,1,+999,9","02,1","SYN088AAXX  18181 01047 11988 01803 11320 21348 39771 40165 54000 60002 70200 333 11230 4////;","Q01  00002PRCP12"
"01047099999","2010-02-19T00:00:00","4","69.0166667","23.0666667","307.0","KAUTOKEINO II, NO","FM-12","ENKA ","V020","999,9,C,0000,1","22000,1,9,N","070000,1,N,1","-0342,1","-0370,1","10177,1",,,,"0,1,06,1","0,1,06,1","00,1,+99999,9,99,9","00,99,1,00,1,00,1,99999,9,00,1,00,1",,,"99999,9,09782,1","2,1,005,1,+999,9","02,1","SYN082AAXX  19001 01047 11988 00000 11342 21370 39782 40177 52005 6//// 70200 333 4////;",
"01047099999","2010-02-19T06:00:00","4","69.0166667","23.0666667","307.0","KAUTOKEINO II, NO","FM-12","ENKA ","V020","999,9,C,0000,1","01500,1,9,N","060000,1,N,1","-0275,1","-0304,1","10174,1","12,0000,9,1","24,0000,9,1","0043,9,1,999999,9,9","2,1,06,1","0,1,06,1",,"06,99,1,06,1,00,1,01750,1,01,1,00,1","24,9","999,N,-0345,1","99999,9,09782,1","4,1,000,1,+999,9","02,1","SYN100AAXX  19061 01047 11786 60000 11275 21304 39782 40174 54000 60002 70220 86010 333 21345 48043 70000;","Q01  00002PRCP24Q02  00002PRCP12"
"01047099999","2010-02-19T09:00:00","4","69.0166667","23.0666667","307.0","KAUTOKEINO II, NO","FM-12","ENKA ","V020","999,9,C,0000,1","01200,1,9,N","060000,1,N,1","-0233,1","-0263,1","10178,1",,,,"2,1,03,1","2,1,03,1",,"08,99,1,08,1,00,1,01250,1,02,1,99,9",,,"99999,9,09788,1","3,1,005,1,+999,9","02,1","SYN082AAXX  19091 01047 41686 80000 11233 21263 39788 40178 53005 70222 8802/ 333 4////;",
"01047099999","2010-02-19T12:00:00","4","69.0166667","23.0666667","307.0","KAUTOKEINO II, NO","FM-12","ENKA ","V020","050,1,N,0010,1","99999,9,9,N","070000,1,N,1","-0221,1","-0246,1","10181,1",,,,"2,1,06,1","2,1,06,1",,"08,99,1,08,1,00,1,01250,1,01,1,99,9",,,"99999,9,09791,1","1,1,003,1,+999,9","02,1","SYN088AAXX  19121 01047 11688 80501 11221 21246 39791 40181 51003 6//// 70222 8801/ 333 4////;",
"01047099999","2010-02-19T15:00:00","4","69.0166667","23.0666667","307.0","KAUTOKEINO II, NO","FM-12","ENKA ","V020","050,1,N,0030,1","01500,1,9,N","070000,1,N,1","-0220,1","-0243,1","10179,1",,,,"2,1,03,1","2,1,03,1",,"08,99,1,08,1,00,1,01750,1,07,1,99,9",,,"99999,9,09789,1","4,1,000,1,+999,9","02,1","SYN082AAXX  19151 01047 41788 80503 11220 21243 39789 40179 54000 70222 8807/ 333 4////;",
"01047099999","2010-02-19T18:00:00","4","69.0166667","23.0666667","307.0","KAUTOKEINO II, NO","FM-12","ENKA ","V020","999,9,C,0000,1","99999,9,9,N","070000,1,N,1","-0255,1","-0280,1","10182,1","12,0000,9,1",,,"2,1,06,1","2,1,06,1",,"08,99,1,08,1,00,1,01250,1,01,1,99,9",,"120,M,-0220,1","99999,9,09790,1","4,1,000,1,+999,9","02,1","SYN094AAXX  19181 01047 11688 80000 11255 21280 39790 40182 54000 60002 70222 8801/ 333 11220 4////;","Q01  00002PRCP12"
"01047099999","2010-02-20T00:00:00","4","69.0166667","23.0666667","307.0","KAUTOKEINO II, NO","FM-12","ENKA ","V020","999,9,C,0000,1","99999,9,9,N","002000,1,N,1","-0282,1","-0302,1","10193,1",,,,"2,1,06,1","2,1,06,1",,"08,99,1,08,1,00,1,01250,1,01,1,99,9",,,"99999,9,09800,1","4,1,000,1,+999,9","10,1","SYN088AAXX  20001 01047 11620 80000 11282 21302 39800 40193 54000 6//// 71022 8801/ 333 4////;",
"01047099999","2010-02-20T06:00:00","4","69.0166667","23.0666667","307.0","KAUTOKEINO II, NO","FM-12","ENKA ","V020","999,9,C,0000,1","00015,1,9,N","000100,1,N,1","-0325,1","-0348,1","10199,1","12,0000,9,1","24,0000,9,1","0043,9,1,999999,9,9","4,1,06,1","2,1,06,1","09,1,+99999,9,99,9","09,99,1,09,1,99,9,99999,9,99,9,99,9","24,9","999,N,-0329,1","99999,9,09804,1","5,1,000,1,+999,9","45,1","SYN094AAXX  20061 01047 11/01 90000 11325 21348 39804 40199 55000 60002 74542 333 21329 48043 70000;","Q01  00002PRCP24Q02  00002PRCP12"
"01047099999","2010-02-20T09:00:00","4","69.0166667","23.0666667","307.0","KAUTOKEINO II, NO","FM-12","ENKA ","V020","999,9,C,0000,1","00420,1,9,N","010000,1,N,1","-0309,1","-0332,1","10204,1",,,,"4,1,03,1","2,1,03,1",,"08,99,1,08,1,06,1,00450,1,99,9,99,9",,,"99999,9,09809,1","4,1,000,1,+999,9","10,1","SYN082AAXX  20091 01047 41460 80000 11309 21332 39809 40204 54000 71042 886// 333 4////;",
"01047099999","2010-02-20T12:00:00","4","69.0166667","23.0666667","307.0","KAUTOKEINO II, NO","FM-12","ENKA ","V020","360,1,N,0030,1","22000,1,9,N","070000,1,N,1","-0284,1","-0308,1","10207,1",,,,"2,1,06,1","0,1,06,1","00,1,+99999,9,99,9","00,99,1,00,1,00,1,99999,9,00,1,00,1",,,"99999,9,09813,1","2,1,004,1,+999,9","01,1","SYN082AAXX  20121 01047 11988 03603 11284 21308 39813 40207 52004 6//// 70120 333 4////;",
"01047099999","2010-02-20T15:00:00","4","69.0166667","23.0666667","307.0","KAUTOKEINO II, NO","FM-12","ENKA ","V020","360,1,N,0010,1","22000,1,9,N","070000,1,N,1","-0314,1","-0337,1","10207,1",,,,"1,1,03,1","1,1,03,1",,"04,99,1,04,1,00,1,01250,1,01,1,00,1",,,"99999,9,09812,1","4,1,000,1,+999,9","02,1","SYN082AAXX  20151 01047 41688 43601 11314 21337 39812 40207 54000 70211 84010 333 4////;",
"01047099999","2010-02-20T18:00:00","4","69.0166667","23.0666667","307.0","KAUTOKEINO II, NO","FM-12","ENKA ","V020","180,1,N,0010,1","22000,1,9,N","070000,1,N,1","-0340,1","-0363,1","10207,1","12,0000,9,1",,,"0,1,06,1","0,1,06,1","00,1,+99999,9,99,9","00,99,1,00,1,00,1,99999,9,00,1,00,1",,"120,M,-0235,1","99999,9,09811,1","4,1,000,1,+999,9","02,1","SYN088AAXX  20181 01047 11988 01801 11340 21363 39811 40207 54000 60002 70200 333 11235 4////;","Q01  00002PRCP12"
"01047099999","2010-02-21T00:00:00","4","69.0166667","23.0666667","307.0","KAUTOKEINO II, NO","FM-12","ENKA ","V020","140,1,N,0010,1","22000,1,9,N","070000,1,N,1","-0390,1","-0412,1","10211,1",,,,"0,1,06,1","0,1,06,1","00,1,+99999,9,99,9","00,99,1,00,1,00,1,99999,9,00,1,00,1",,,"99999,9,09812,1","4,1,000,1,+999,9","02,1","SYN082AAXX  21001 01047 11988 01401 11390 21412 39812 40211 54000 6//// 70200 333 4////;",
"01047099999","2010-02-21T06:00:00","4","69.0166667","23.0666667","307.0","KAUTOKEINO II, NO","FM-12","ENKA ","V020","999,9,C,0000,1","22000,1,9,N","065000,1,N,1","-0416,1","-0437,1","10196,1","12,0000,9,1","24,0000,9,1","0043,9,1,999999,9,9","0,1,06,1","0,1,06,1","00,1,+99999,9,99,9","00,99,1,00,1,00,1,99999,9,00,1,00,1","24,9","999,N,-0416,1","99999,9,09797,1","6,1,004,1,+999,9","02,1","SYN094AAXX  21061 01047 11987 00000 11416 21437 39797 40196 56004 60002 70200 333 21416 48043 70000;","Q01  00002PRCP24Q02  00002PRCP12"
"01047099999","2010-02-21T09:00:00","4","69.0166667","23.0666667","307.0","KAUTOKEINO II, NO","FM-12","ENKA ","V020","140,1,N,0010,1","22000,1,9,N","070000,1,N,1","-0382,1","-0404,1","10191,1",,,,"0,1,03,1","0,1,03,1","00,1,+99999,9,99,9","00,99,1,00,1,00,1,99999,9,00,1,00,1",,,"99999,9,09793,1","6,1,003,1,+999,9","02,1","SYN076AAXX  21091 01047 41988 01401 11382 21404 39793 40191 56003 70200 333 4////;",
"01047099999","2010-02-21T12:00:00","4","69.0166667","23.0666667","307.0","KAUTOKEINO II, NO","FM-12","ENKA ","V020","140,1,N,0010,1","22000,1,9,N","070000,1,N,1","-0326,1","-0349,1","10178,1",,,,"0,1,06,1","0,1,06,1","00,1,+99999,9,99,9","00,99,1,00,1,00,1,99999,9,00,1,00,1",,,"99999,9,09784,1","7,1,009,1,+999,9","02,1","SYN082AAXX  21121 01047 11988 01401 11326 21349 39784 40178 57009 6//// 70200 333 4////;",
"01047099999","2010-02-21T15:00:00","4","69.0166667","23.0666667","307.0","KAUTOKEINO II, NO","FM-12","ENKA ","V020","999,9,C,0000,1","22000,1,9,N","070000,1,N,1","-0345,1","-0368,1","10166,1",,,,"0,1,03,1","0,1,03,1","00,1,+99999,9,99,9","00,99,1,00,1,00,1,99999,9,00,1,00,1",,,"99999,9,09771,1","8,1,013,1,+999,9","02,1","SYN076AAXX  21151 01047 41988 00000 11345 21368 39771 40166 58013 70200 333 4////;",
"01047099999","2010-02-21T18:00:00","4","69.0166667","23.0666667","307.0","KAUTOKEINO II, NO","FM-12","ENKA ","V020","180,1,N,0030,1","22000,1,9,N","070000,1,N,1","-0386,1","-0408,1","10160,1","12,0000,9,1",,,"0,1,06,1","0,1,06,1","00,1,+99999,9,99,9","00,99,1,00,1,00,1,99999,9,00,1,00,1",,"120,M,-0300,1","99999,9,09763,1","7,1,008,1,+999,9","02,1","SYN088AAXX  21181 01047 11988 01803 11386 21408 39763 40160 57008 60002 70200 333 11300 4////;","Q01  00002PRCP12"
"01047099999","2010-02-22T00:00:00","4","69.0166667","23.0666667","307.0","KAUTOKEINO II, NO","FM-12","ENKA ","V020","140,1,N,0010,1","22000,1,9,N","070000,1,N,1","-0344,1","-0367,1","10136,1",,,,"0,1,06,1","0,1,06,1","00,1,+99999,9,99,9","00,99,1,00,1,00,1,99999,9,00,1,00,1",,,"99999,9,09742,1","7,1,008,1,+999,9","02,1","SYN082AAXX  22001 01047 11988 01401 11344 21367 39742 40136 57008 6//// 70200 333 4////;",
"01047099999","2010-02-22T06:00:00","4","69.0166667","23.0666667","307.0","KAUTOKEINO II, NO","FM-12","ENKA ","V020","340,1,N,0010,1","01200,1,9,N","065000,1,N,1","-0286,1","-0310,1","10101,1","12,0000,9,1","24,0000,9,1","0043,9,1,999999,9,9","2,1,06,1","0,1,06,1",,"08,99,1,08,1,00,1,01250,1,02,1,99,9","24,9","999,N,-0386,1","99999,9,09711,1","7,1,010,1,+999,9","02,1","SYN100AAXX  22061 01047 11687 83401 11286 21310 39711 40101 57010 60002 70220 8802/ 333 21386 48043 70000;","Q01  00002PRCP24Q02  00002PRCP12"
"01047099999","2010-02-22T09:00:00","4","69.0166667","23.0666667","307.0","KAUTOKEINO II, NO","FM-12","ENKA ","V020","050,1,N,0030,1","01200,1,9,N","006000,1,N,1","-0192,1","-0218,1","10080,1",,,,"7,1,03,1","2,1,03,1",,"08,99,1,08,1,00,1,01250,1,02,1,99,9",,,"99999,9,09696,1","7,1,016,1,+999,9","71,1","SYN082AAXX  22091 01047 41656 80503 11192 21218 39696 40080 57016 77172 8802/ 333 4////;",
"01047099999","2010-02-22T12:00:00","4","69.0166667","23.0666667","307.0","KAUTOKEINO II, NO","FM-12","ENKA ","V020","050,1,N,0050,1","01200,1,9,N","003000,1,N,1","-0162,1","-0184,1","10060,1",,,,"7,1,06,1","7,1,06,1",,"08,99,1,08,1,00,1,01250,1,02,1,99,9",,,"99999,9,09677,1","7,1,018,1,+999,9","71,1","SYN088AAXX  22121 01047 11630 80505 11162 21184 39677 40060 57018 6//// 77177 8802/ 333 4////;",
"01047099999","2010-02-22T15:00:00","4","69.0166667","23.0666667","307.0","KAUTOKEINO II, NO","FM-12","ENKA ","V020","050,1,N,0050,1","01200,1,9,N","004000,1,N,1","-0174,1","-0206,1","10038,1",,,,"7,1,03,1","7,1,03,1",,"08,99,1,08,1,00,1,01250,1,02,1,99,9",,,"99999,9,09656,1","7,1,022,1,+999,9","71,1","SYN082AAXX  22151 01047 41640 80505 11174 21206 39656 40038 57022 77177 8802/ 333 4////;",
"01047099999","2010-02-22T18:00:00","4","69.0166667","23.0666667","307.0","KAUTOKEINO II, NO","FM-12","ENKA ","V020","050,1,N,0050,1","01200,1,9,N","005000,1,N,1","-0188,1","-0214,1","10029,1","12,0010,9,1",,,"7,1,06,1","7,1,06,1",,"08,99,1,08,1,00,1,01250,1,02,1,99,9",,"120,M,-0158,1","99999,9,09646,1","6,1,009,1,+999,9","71,1","SYN094AAXX  22181 01047 11650 80505 11188 21214 39646 40029 56009 60012 77177 8802/ 333 11158 4////;",
"01047099999","2010-02-23T00:00:00","4","69.0166667","23.0666667","307.0","KAUTOKEINO II, NO","FM-12","ENKA ","V020","180,1,N,0030,1","01500,1,9,N","070000,1,N,1","-0324,1","-0352,1","10030,1",,,,"7,1,06,1","2,1,06,1",,"06,99,1,06,1,00,1,01750,1,07,1,00,1",,,"99999,9,09641,1","7,1,005,1,+999,9","02,1","SYN088AAXX  23001 01047 11788 61803 11324 21352 39641 40030 57005 6//// 70272 86070 333 4////;",
"01047099999","2010-02-23T06:00:00","4","69.0166667","23.0666667","307.0","KAUTOKEINO II, NO","FM-12","ENKA ","V020","999,9,C,0000,1","01200,1,9,N","065000,1,N,1","-0303,1","-0332,1","10016,1","12,0000,2,1","24,0015,9,1","0044,9,1,999999,9,9","7,1,06,1","2,1,06,1",,"08,99,1,08,1,00,1,01250,1,02,1,99,9","24,9","999,N,-0326,1","99999,9,09629,1","6,1,004,1,+999,9","02,1","SYN100AAXX  23061 01047 11687 80000 11303 21332 39629 40016 56004 69922 70272 8802/ 333 21326 48044 70016;",
"01047099999","2010-02-23T09:00:00","4","69.0166667","23.0666667","307.0","KAUTOKEINO II, NO","FM-12","ENKA ","V020","180,1,N,0050,1","01200,1,9,N","003000,1,N,1","-0280,1","-0309,1","10006,1",,,,"7,1,03,1","2,1,03,1",,"08,99,1,08,1,00,1,01250,1,02,1,99,9",,,"99999,9,09620,1","7,1,009,1,+999,9","71,1","SYN082AAXX  23091 01047 41630 81805 11280 21309 39620 40006 57009 77172 8802/ 333 4////;",
"01047099999","2010-02-23T12:00:00","4","69.0166667","23.0666667","307.0","KAUTOKEINO II, NO","FM-12","ENKA ","V020","180,1,N,0030,1","22000,1,9,N","070000,1,N,1","-0241,1","-0275,1","09996,1",,,,"7,1,06,1","2,1,06,1","00,1,+99999,9,99,9","00,99,1,00,1,00,1,99999,9,00,1,00,1",,,"99999,9,09612,1","7,1,007,1,+999,9","01,1","SYN082AAXX  23121 01047 11988 01803 11241 21275 39612 49996 57007 6//// 70172 333 4////;",
"01047099999","2010-02-23T15:00:00","4","69.0166667","23.0666667","307.0","KAUTOKEINO II, NO","FM-12","ENKA ","V020","180,1,N,0030,1","22000,1,9,N","070000,1,N,1","-0276,1","-0312,1","09992,1",,,,"0,1,03,1","0,1,03,1","00,1,+99999,9,99,9","00,99,1,00,1,00,1,99999,9,00,1,00,1",,,"99999,9,09607,1","7,1,005,1,+999,9","02,1","SYN076AAXX  23151 01047 41988 01803 11276 21312 39607 49992 57005 70200 333 4////;",
"01047099999","2010-02-23T18:00:00","4","69.0166667","23.0666667","307.0","KAUTOKEINO II, NO","FM-12","ENKA ","V020","180,1,N,0030,1","22000,1,9,N","070000,1,N,1","-0340,1","-0368,1","09997,1","12,0000,2,1",,,"0,1,06,1","0,1,06,1",,"04,99,1,04,1,00,1,01750,1,07,1,00,1",,"120,M,-0174,1","99999,9,09609,1","4,1,000,1,+999,9","02,1","SYN094AAXX  23181 01047 11788 41803 11340 21368 39609 49997 54000 69912 70200 84070 333 11174 4////;",
"01047099999","2010-02-24T00:00:00","4","69.0166667","23.0666667","307.0","KAUTOKEINO II, NO","FM-12","ENKA ","V020","220,1,N,0050,1","22000,1,9,N","070000,1,N,1","-0394,1","-0422,1","10008,1",,,,"0,1,06,1","0,1,06,1",,"03,99,1,03,1,00,1,01750,1,07,1,00,1",,,"99999,9,09617,1","2,1,005,1,+999,9","02,1","SYN088AAXX  24001 01047 11788 32205 11394 21422 39617 40008 52005 6//// 70200 83070 333 4////;",
"01047099999","2010-02-24T06:00:00","4","69.0166667","23.0666667","307.0","KAUTOKEINO II, NO","FM-12","ENKA ","V020","220,1,N,0010,1","22000,1,9,N","070000,1,N,1","-0389,1","-0418,1","10011,1","12,0000,9,1","24,0000,2,1","0044,9,1,999999,9,9","0,1,06,1","0,1,06,1",,"04,99,1,00,1,00,1,99999,9,00,1,08,1","24,9","999,N,-0396,1","99999,9,09620,1","4,1,000,1,+999,9","02,1","SYN100AAXX  24061 01047 11988 42201 11389 21418 39620 40011 54000 60002 70200 80008 333 21396 48044 70001;","Q01  00002PRCP12"
"01047099999","2010-02-24T09:00:00","4","69.0166667","23.0666667","307.0","KAUTOKEINO II, NO","FM-12","ENKA ","V020","999,9,C,0000,1","22000,1,9,N","070000,1,N,1","-0370,1","-0398,1","10014,1",,,,"0,1,03,1","0,1,03,1","00,1,+99999,9,99,9","00,99,1,00,1,00,1,99999,9,00,1,00,1",,,"99999,9,09624,1","2,1,003,1,+999,9","02,1","SYN076AAXX  24091 01047 41988 00000 11370 21398 39624 40014 52003 70200 333 4////;",
"01047099999","2010-02-24T12:00:00","4","69.0166667","23.0666667","307.0","KAUTOKEINO II, NO","FM-12","ENKA ","V020","999,9,C,0000,1","01500,1,9,N","065000,1,N,1","-0316,1","-0349,1","10012,1",,,,"2,1,06,1","0,1,06,1",,"07,99,1,07,1,00,1,01750,1,01,1,00,1",,,"99999,9,09624,1","4,1,000,1,+999,9","03,1","SYN088AAXX  24121 01047 11787 70000 11316 21349 39624 40012 54000 6//// 70320 87010 333 4////;",
"01047099999","2010-02-24T15:00:00","4","69.0166667","23.0666667","307.0","KAUTOKEINO II, NO","FM-12","ENKA ","V020","360,1,N,0030,1","01200,1,9,N","003000,1,N,1","-0265,1","-0294,1","10002,1",,,,"7,1,03,1","2,1,03,1",,"08,99,1,08,1,00,1,01250,1,02,1,99,9",,,"99999,9,09617,1","7,1,007,1,+999,9","71,1","SYN082AAXX  24151 01047 41630 83603 11265 21294 39617 40002 57007 77172 8802/ 333 4////;",
"01047099999","2010-02-24T18:00:00","4","69.0166667","23.0666667","307.0","KAUTOKEINO II, NO","FM-12","ENKA ","V020","360,1,N,0030,1","01200,1,9,N","003000,1,N,1","-0234,1","-0259,1","09992,1","12,0005,9,1",,,"7,1,06,1","7,1,06,1",,"08,99,1,08,1,00,1,01250,1,02,1,99,9",,"120,M,-0230,1","99999,9,09609,1","6,1,008,1,+999,9","71,1","SYN094AAXX  24181 01047 11630 83603 11234 21259 39609 49992 56008 69952 77177 8802/ 333 11230 4////;",
"01047099999","2010-02-25T06:00:00","4","69.0166667","23.0666667","307.0","KAUTOKEINO II, NO","FM-12","ENKA ","V020","180,1,N,0010,1","00750,1,9,N","065000,1,N,1","-0193,1","-0219,1","09968,1","12,0010,9,1","24,0015,9,1","0045,9,1,999999,9,9","7,1,06,1","2,1,06,1",,"08,99,1,06,1,07,1,00800,1,02,1,99,9","24,9","999,N,-0234,1","99999,9,09587,1","6,1,010,1,+999,9","02,1","SYN100AAXX  25061 01047 11587 81801 11193 21219 39587 49968 56010 69992 70272 8672/ 333 21234 48045 70014;",
"01047099999","2010-02-25T09:00:00","4","69.0166667","23.0666667","307.0","KAUTOKEINO II, NO","FM-12","ENKA ","V020","180,1,N,0030,1","01200,1,9,N","010000,1,N,1","-0170,1","-0196,1","09978,1",,,,"7,1,03,1","2,1,03,1",,"08,99,1,08,1,00,1,01250,1,02,1,99,9",,,"99999,9,09599,1","3,1,011,1,+999,9","71,1","SYN082AAXX  25091 01047 41660 81803 11170 21196 39599 49978 53011 77172 8802/ 333 4////;",
"01047099999","2010-02-25T12:00:00","4","69.0166667","23.0666667","307.0","KAUTOKEINO II, NO","FM-12","ENKA ","V020","140,1,N,0030,1","01500,1,9,N","070000,1,N,1","-0134,1","-0167,1","09987,1",,,,"7,1,06,1","2,1,06,1",,"06,99,1,06,1,00,1,01750,1,07,1,00,1",,,"99999,9,09609,1","2,1,010,1,+999,9","02,1","SYN088AAXX  25121 01047 11788 61403 11134 21167 39609 49987 52010 6//// 70272 86070 333 4////;",
"01047099999","2010-02-25T15:00:00","4","69.0166667","23.0666667","307.0","KAUTOKEINO II, NO","FM-12","ENKA ","V020","140,1,N,0010,1","01500,1,9,N","070000,1,N,1","-0156,1","-0188,1","09998,1",,,,"2,1,03,1","2,1,03,1",,"06,99,1,06,1,00,1,01750,1,07,1,00,1",,,"99999,9,09618,1","2,1,009,1,+999,9","02,1","SYN082AAXX  25151 01047 41788 61401 11156 21188 39618 49998 52009 70222 86070 333 4////;",
"01047099999","2010-02-25T18:00:00","4","69.0166667","23.0666667","307.0","KAUTOKEINO II, NO","FM-12","ENKA ","V020","140,1,N,0010,1","22000,1,9,N","070000,1,N,1","-0201,1","-0223,1","10014,1","12,0000,2,1",,,"2,1,06,1","2,1,06,1",,"03,99,1,03,1,00,1,01750,1,07,1,00,1",,"120,M,-0134,1","99999,9,09632,1","2,1,014,1,+999,9","01,1","SYN094AAXX  25181 01047 11788 31401 11201 21223 39632 40014 52014 69912 70122 83070 333 11134 4////;",
"01047099999","2010-02-26T00:00:00","4","69.0166667","23.0666667","307.0","KAUTOKEINO II, NO","FM-12","ENKA ","V020","180,1,N,0030,1","22000,1,9,N","070000,1,N,1","-0302,1","-0326,1","10046,1",,,,"0,1,06,1","0,1,06,1","00,1,+99999,9,99,9","00,99,1,00,1,00,1,99999,9,00,1,00,1",,,"99999,9,09657,1","2,1,010,1,+999,9","02,1","SYN082AAXX  26001 01047 11988 01803 11302 21326 39657 40046 52010 6//// 70200 333 4////;",
"01047099999","2010-02-26T06:00:00","4","69.0166667","23.0666667","307.0","KAUTOKEINO II, NO","FM-12","ENKA ","V020","999,9,C,0000,1","22000,1,9,N","070000,1,N,1","-0330,1","-0357,1","10063,1","12,0000,9,1","24,0000,2,1","0045,9,1,999999,9,9","0,1,06,1","0,1,06,1",,"02,99,1,00,1,00,1,99999,9,00,1,08,1","24,9","999,N,-0330,1","99999,9,09673,1","3,1,005,1,+999,9","02,1","SYN100AAXX  26061 01047 11988 20000 11330 21357 39673 40063 53005 60002 70200 80008 333 21330 48045 70001;","Q01  00002PRCP12"
"01047099999","2010-02-26T09:00:00","4","69.0166667","23.0666667","307.0","KAUTOKEINO II, NO","FM-12","ENKA ","V020","090,1,N,0010,1","00750,1,9,N","010000,1,N,1","-0290,1","-0319,1","10074,1",,,,"8,1,03,1","2,1,03,1",,"08,99,1,08,1,09,1,00800,1,99,9,99,9",,,"99999,9,09685,1","2,1,011,1,+999,9","85,1","SYN082AAXX  26091 01047 41560 80901 11290 21319 39685 40074 52011 78582 889// 333 4////;",
"01047099999","2010-02-26T12:00:00","4","69.0166667","23.0666667","307.0","KAUTOKEINO II, NO","FM-12","ENKA ","V020","050,1,N,0030,1","00750,1,9,N","040000,1,N,1","-0236,1","-0266,1","10074,1",,,,"8,1,06,1","2,1,06,1",,"08,99,1,08,1,09,1,00800,1,99,9,99,9",,,"99999,9,09687,1","1,1,003,1,+999,9","02,1","SYN088AAXX  26121 01047 11582 80503 11236 21266 39687 40074 51003 6//// 70282 889// 333 4////;",
"01047099999","2010-02-26T15:00:00","4","69.0166667","23.0666667","307.0","KAUTOKEINO II, NO","FM-12","ENKA ","V020","050,1,N,0030,1","01200,1,9,N","050000,1,N,1","-0197,1","-0228,1","10073,1",,,,"2,1,03,1","2,1,03,1",,"08,99,1,08,1,00,1,01250,1,02,1,99,9",,,"99999,9,09688,1","1,1,001,1,+999,9","02,1","SYN082AAXX  26151 01047 41684 80503 11197 21228 39688 40073 51001 70222 8802/ 333 4////;",
"01047099999","2010-02-26T18:00:00","4","69.0166667","23.0666667","307.0","KAUTOKEINO II, NO","FM-12","ENKA ","V020","140,1,N,0030,1","00750,1,9,N","070000,1,N,1","-0202,1","-0228,1","10070,1","12,0000,2,1",,,"2,1,06,1","2,1,06,1",,"08,99,1,08,1,05,1,00800,1,99,9,99,9",,"120,M,-0185,1","99999,9,09686,1","7,1,003,1,+999,9","02,1","SYN094AAXX  26181 01047 11588 81403 11202 21228 39686 40070 57003 69912 70222 885// 333 11185 4////;",
"01047099999","2010-02-27T00:00:00","4","69.0166667","23.0666667","307.0","KAUTOKEINO II, NO","FM-12","ENKA ","V020","180,1,N,0010,1","01200,1,9,N","006000,1,N,1","-0182,1","-0200,1","10062,1",,,,"7,1,06,1","2,1,06,1",,"08,99,1,08,1,00,1,01250,1,02,1,99,9",,,"99999,9,09679,1","7,1,005,1,+999,9","71,1","SYN088AAXX  27001 01047 11656 81801 11182 21200 39679 40062 57005 6//// 77172 8802/ 333 4////;",
"01047099999","2010-02-27T06:00:00","4","69.0166667","23.0666667","307.0","KAUTOKEINO II, NO","FM-12","ENKA ","V020","050,1,N,0050,1","01200,1,9,N","025000,1,N,1","-0151,1","-0178,1","10041,1","12,0020,9,1","24,0020,9,1","0057,9,1,999999,9,9","7,1,06,1","2,1,06,1",,"08,99,1,08,1,00,1,01250,1,02,1,99,9","24,9","999,N,-0225,1","99999,9,09660,1","7,1,006,1,+999,9","02,1","SYN100AAXX  27061 01047 11675 80505 11151 21178 39660 40041 57006 60022 70272 8802/ 333 21225 48057 70021;",
"01047099999","2010-02-27T09:00:00","4","69.0166667","23.0666667","307.0","KAUTOKEINO II, NO","FM-12","ENKA ","V020","360,1,N,0050,1","01200,1,9,N","000400,1,N,1","-0152,1","-0179,1","10033,1",,,,"7,1,03,1","2,1,03,1",,"08,99,1,08,1,00,1,01250,1,02,1,99,9",,,"99999,9,09652,1","6,1,007,1,+999,9","73,1","SYN082AAXX  27091 01047 41604 83605 11152 21179 39652 40033 56007 77372 8802/ 333 4////;",
"01047099999","2010-02-27T12:00:00","4","69.0166667","23.0666667","307.0","KAUTOKEINO II, NO","FM-12","ENKA ","V020","050,1,N,0050,1","01200,1,9,N","000600,1,N,1","-0155,1","-0187,1","10017,1",,,,"7,1,06,1","7,1,06,1",,"08,99,1,08,1,00,1,01250,1,02,1,99,9",,,"99999,9,09636,1","7,1,016,1,+999,9","73,1","SYN088AAXX  27121 01047 11606 80505 11155 21187 39636 40017 57016 6//// 77377 8802/ 333 4////;",
"01047099999","2010-02-27T15:00:00","4","69.0166667","23.0666667","307.0","KAUTOKEINO II, NO","FM-12","ENKA ","V020","050,1,N,0050,1","01200,1,9,N","001500,1,N,1","-0158,1","-0190,1","10007,1",,,,"7,1,03,1","7,1,03,1",,"08,99,1,08,1,00,1,01250,1,02,1,99,9",,,"99999,9,09626,1","6,1,010,1,+999,9","73,1","SYN082AAXX  27151 01047 41615 80505 11158 21190 39626 40007 56010 77377 8802/ 333 4////;",
"01047099999","2010-02-27T18:00:00","4","69.0166667","23.0666667","307.0","KAUTOKEINO II, NO","FM-12","ENKA ","V020","050,1,N,0050,1","01200,1,9,N","010000,1,N,1","-0170,1","-0194,1","09999,1","12,0030,9,1",,,"7,1,06,1","7,1,06,1",,"08,99,1,08,1,00,1,01250,1,02,1,99,9",,"120,M,-0125,1","99999,9,09618,1","7,1,008,1,+999,9","71,1","SYN094AAXX  27181 01047 11660 80505 11170 21194 39618 49999 57008 60032 77177 8802/ 333 11125 4////;",
"01047099999","2010-02-28T00:00:00","4","69.0166667","23.0666667","307.0","KAUTOKEINO II, NO","FM-12","ENKA ","V020","090,1,N,0030,1","22000,1,9,N","070000,1,N,1","-0282,1","-0306,1","10012,1",,,,"7,1,06,1","1,1,06,1",,"02,99,1,02,1,00,1,02250,1,04,1,00,1",,,"99999,9,09626,1","2,1,005,1,+999,9","02,1","SYN088AAXX  28001 01047 11888 20903 11282 21306 39626 40012 52005 6//// 70271 82040 333 4////;",
"01047099999","2010-02-28T06:00:00","4","69.0166667","23.0666667","307.0","KAUTOKEINO II, NO","FM-12","ENKA ","V020","090,1,N,0010,1","22000,1,9,N","070000,1,N,1","-0346,1","-0374,1","10037,1","12,0000,2,1","24,0030,9,1","0050,9,1,999999,9,9","7,1,06,1","1,1,06,1",,"03,99,1,03,1,00,1,01750,1,07,1,00,1","23,9","999,N,-0346,1","99999,9,09647,1","1,1,008,1,+999,9","02,1","SYN100AAXX  28061 01047 11788 30901 11346 21374 39647 40037 51008 69912 70271 83070 333 21346 47050 70031;",
"01047099999","2010-02-28T09:00:00","4","69.0166667","23.0666667","307.0","KAUTOKEINO II, NO","FM-12","ENKA ","V020","090,1,N,0010,1","22000,1,9,N","070000,1,N,1","-0302,1","-0331,1","10046,1",,,,"0,1,03,1","0,1,03,1","00,1,+99999,9,99,9","00,99,1,00,1,00,1,99999,9,00,1,00,1",,,"99999,9,09658,1","3,1,010,1,+999,9","02,1","SYN076AAXX  28091 01047 41988 00901 11302 21331 39658 40046 53010 70200 333 4////;",
"01047099999","2010-02-28T12:00:00","4","69.0166667","23.0666667","307.0","KAUTOKEINO II, NO","FM-12","ENKA ","V020","140,1,N,0030,1","22000,1,9,N","070000,1,N,1","-0224,1","-0259,1","10038,1",,,,"0,1,06,1","0,1,06,1",,"02,99,1,02,1,00,1,01750,1,07,1,00,1",,,"99999,9,09654,1","8,1,004,1,+999,9","02,1","SYN088AAXX  28121 01047 11788 21403 11224 21259 39654 40038 58004 6//// 70200 82070 333 4////;",
"01047099999","2010-02-28T15:00:00","4","69.0166667","23.0666667","307.0","KAUTOKEINO II, NO","FM-12","ENKA ","V020","140,1,N,0030,1","22000,1,9,N","070000,1,N,1","-0232,1","-0269,1","10033,1",,,,"0,1,03,1","0,1,03,1",,"03,99,1,03,1,00,1,01750,1,07,1,00,1",,,"99999,9,09649,1","7,1,005,1,+999,9","02,1","SYN082AAXX  28151 01047 41788 31403 11232 21269 39649 40033 57005 70200 83070 333 4////;",
"01047099999","2010-02-28T18:00:00","4","69.0166667","23.0666667","307.0","KAUTOKEINO II, NO","FM-12","ENKA ","V020","180,1,N,0050,1","22000,1,9,N","070000,1,N,1","-0300,1","-0329,1","10036,1","12,0000,9,1",,,"0,1,06,1","0,1,06,1",,"03,99,1,03,1,00,1,01750,1,07,1,00,1",,"120,M,-0150,1","99999,9,09649,1","4,1,000,1,+999,9","02,1","SYN094AAXX  28181 01047 11788 31805 11300 21329 39649 40036 54000 60002 70200 83070 333 11150 4////;","Q01  00002PRCP12"
"01047099999","2010-03-01T00:00:00","4","69.0166667","23.0666667","307.0","KAUTOKEINO II, NO","FM-12","ENKA ","V020","140,1,N,0010,1","22000,1,9,N","070000,1,N,1","-0302,1","-0331,1","10032,1",,,,"0,1,06,1","0,1,06,1",,"04,99,1,04,1,00,1,01750,1,07,1,00,1",,,"99999,9,09645,1","7,1,004,1,+999,9","02,1","SYN088AAXX  01001 01047 11788 41401 11302 21331 39645 40032 57004 6//// 70200 84070 333 4////;",
"01047099999","2010-03-01T06:00:00","4","69.0166667","23.0666667","307.0","KAUTOKEINO II, NO","FM-12","ENKA ","V020","140,1,N,0010,1","01500,1,9,N","070000,1,N,1","-0327,1","-0355,1","10025,1","12,0000,9,1","24,0000,9,1","0050,9,1,999999,9,9","1,1,06,1","0,1,06,1",,"06,99,1,06,1,00,1,01750,1,07,1,00,1","23,9","999,N,-0327,1","99999,9,09637,1","8,1,003,1,+999,9","02,1","SYN100AAXX  01061 01047 11788 61401 11327 21355 39637 40025 58003 60002 70210 86070 333 21327 47050 70000;","Q01  00002PRCP24Q02  00002PRCP12"
"01047099999","2010-03-01T09:00:00","4","69.0166667","23.0666667","307.0","KAUTOKEINO II, NO","FM-12","ENKA ","V020","140,1,N,0010,1","01500,1,9,N","070000,1,N,1","-0270,1","-0303,1","10026,1",,,,"2,1,03,1","1,1,03,1",,"06,99,1,06,1,00,1,01750,1,01,1,00,1",,,"99999,9,09640,1","3,1,004,1,+999,9","02,1","SYN082AAXX  01091 01047 41788 61401 11270 21303 39640 40026 53004 70221 86010 333 4////;",
"01047099999","2010-03-01T12:00:00","4","69.0166667","23.0666667","307.0","KAUTOKEINO II, NO","FM-12","ENKA ","V020","050,1,N,0010,1","01500,1,9,N","070000,1,N,1","-0234,1","-0271,1","10024,1",,,,"2,1,06,1","2,1,06,1",,"08,99,1,08,1,00,1,01750,1,07,1,99,9",,,"99999,9,09640,1","4,1,000,1,+999,9","02,1","SYN088AAXX  01121 01047 11788 80501 11234 21271 39640 40024 54000 6//// 70222 8807/ 333 4////;",
"01047099999","2010-03-01T15:00:00","4","69.0166667","23.0666667","307.0","KAUTOKEINO II, NO","FM-12","ENKA ","V020","999,9,C,0000,1","01500,1,9,N","070000,1,N,1","-0214,1","-0258,1","10023,1",,,,"2,1,03,1","2,1,03,1",,"08,99,1,08,1,00,1,01750,1,07,1,99,9",,,"99999,9,09640,1","4,1,000,1,+999,9","02,1","SYN082AAXX  01151 01047 41788 80000 11214 21258 39640 40023 54000 70222 8807/ 333 4////;",
"01047099999","2010-03-01T18:00:00","4","69.0166667","23.0666667","307.0","KAUTOKEINO II, NO","FM-12","ENKA ","V020","320,1,N,0030,1","01500,1,9,N","070000,1,N,1","-0234,1","-0264,1","10034,1","12,0000,9,1",,,"2,1,06,1","2,1,06,1",,"08,99,1,08,1,00,1,01750,1,07,1,99,9",,"120,M,-0210,1","99999,9,09650,1","3,1,010,1,+999,9","02,1","SYN094AAXX  01181 01047 11788 83203 11234 21264 39650 40034 53010 60002 70222 8807/ 333 11210 4////;","Q01  00002PRCP12"
"01047099999","2010-03-02T00:00:00","4","69.0166667","23.0666667","307.0","KAUTOKEINO II, NO","FM-12","ENKA ","V020","360,1,N,0030,1","01500,1,9,N","070000,1,N,1","-0254,1","-0284,1","10054,1",,,,"2,1,06,1","2,1,06,1",,"06,99,1,06,1,00,1,01750,1,07,1,00,1",,,"99999,9,09667,1","2,1,008,1,+999,9","02,1","SYN088AAXX  02001 01047 11788 63603 11254 21284 39667 40054 52008 6//// 70222 86070 333 4////;",
"01047099999","2010-03-02T06:00:00","4","69.0166667","23.0666667","307.0","KAUTOKEINO II, NO","FM-12","ENKA ","V020","360,1,N,0030,1","01500,1,9,N","070000,1,N,1","-0160,1","-0181,1","10062,1","12,0000,9,1","24,0000,9,1","0050,9,1,999999,9,9","2,1,06,1","2,1,06,1",,"07,99,1,07,1,00,1,01750,1,07,1,00,1","23,9","999,N,-0256,1","99999,9,09679,1","3,1,003,1,+999,9","02,1","SYN100AAXX  02061 01047 11788 73603 11160 21181 39679 40062 53003 60002 70222 87070 333 21256 47050 70000;","Q01  00002PRCP24Q02  00002PRCP12"
"01047099999","2010-03-02T09:00:00","4","69.0166667","23.0666667","307.0","KAUTOKEINO II, NO","FM-12","ENKA ","V020","050,1,N,0050,1","01500,1,9,N","070000,1,N,1","-0108,1","-0129,1","10068,1",,,,"2,1,03,1","2,1,03,1",,"08,99,1,08,1,00,1,01750,1,07,1,99,9",,,"99999,9,09687,1","2,1,018,1,+999,9","02,1","SYN082AAXX  02091 01047 41788 80505 11108 21129 39687 40068 52018 70222 8807/ 333 4////;",
"01047099999","2010-03-02T12:00:00","4","69.0166667","23.0666667","307.0","KAUTOKEINO II, NO","FM-12","ENKA ","V020","050,1,N,0050,1","01500,1,9,N","070000,1,N,1","-0092,1","-0126,1","10074,1",,,,"2,1,06,1","2,1,06,1",,"06,99,1,06,1,00,1,01750,1,07,1,00,1",,,"99999,9,09694,1","1,1,007,1,+999,9","02,1","SYN088AAXX  02121 01047 11788 60505 11092 21126 39694 40074 51007 6//// 70222 86070 333 4////;",
"01047099999","2010-03-02T15:00:00","4","69.0166667","23.0666667","307.0","KAUTOKEINO II, NO","FM-12","ENKA ","V020","050,1,N,0050,1","01500,1,9,N","070000,1,N,1","-0102,1","-0134,1","10083,1",,,,"2,1,03,1","2,1,03,1",,"06,99,1,06,1,00,1,01750,1,07,1,00,1",,,"99999,9,09702,1","2,1,008,1,+999,9","02,1","SYN082AAXX  02151 01047 41788 60505 11102 21134 39702 40083 52008 70222 86070 333 4////;",
"01047099999","2010-03-02T18:00:00","4","69.0166667","23.0666667","307.0","KAUTOKEINO II, NO","FM-12","ENKA ","V020","050,1,N,0050,1","01500,1,9,N","070000,1,N,1","-0102,1","-0130,1","10088,1","12,0000,9,1",,,"2,1,06,1","2,1,06,1",,"08,99,1,08,1,00,1,01750,1,07,1,99,9",,"120,M,-0085,1","99999,9,09707,1","2,1,005,1,+999,9","02,1","SYN094AAXX  02181 01047 11788 80505 11102 21130 39707 40088 52005 60002 70222 8807/ 333 11085 4////;","Q01  00002PRCP12"
"01047099999","2010-03-03T00:00:00","4","69.0166667","23.0666667","307.0","KAUTOKEINO II, NO","FM-12","ENKA ","V020","050,1,N,0070,1","01500,1,9,N","070000,1,N,1","-0092,1","-0126,1","10099,1",,,,"2,1,06,1","2,1,06,1",,"06,99,1,06,1,00,1,01750,1,07,1,00,1",,,"99999,9,09718,1","2,1,005,1,+999,9","02,1","SYN088AAXX  03001 01047 11788 60507 11092 21126 39718 40099 52005 6//// 70222 86070 333 4////;",
"01047099999","2010-03-03T06:00:00","4","69.0166667","23.0666667","307.0","KAUTOKEINO II, NO","FM-12","ENKA ","V020","050,1,N,0050,1","01500,1,9,N","070000,1,N,1","-0096,1","-0121,1","10104,1","12,0000,9,1","24,0000,9,1","0050,9,1,999999,9,9","2,1,06,1","2,1,06,1",,"06,99,1,06,1,00,1,01750,1,07,1,00,1","23,9","999,N,-0103,1","99999,9,09723,1","4,1,000,1,+999,9","02,1","SYN100AAXX  03061 01047 11788 60505 11096 21121 39723 40104 54000 60002 70222 86070 333 21103 47050 70000;","Q01  00002PRCP24Q02  00002PRCP12"
"01047099999","2010-03-03T09:00:00","4","69.0166667","23.0666667","307.0","KAUTOKEINO II, NO","FM-12","ENKA ","V020","050,1,N,0070,1","01200,1,9,N","065000,1,N,1","-0072,1","-0105,1","10112,1",,,,"2,1,03,1","2,1,03,1",,"08,99,1,08,1,00,1,01250,1,02,1,99,9",,,"99999,9,09731,1","3,1,009,1,+999,9","02,1","SYN082AAXX  03091 01047 41687 80507 11072 21105 39731 40112 53009 70222 8802/ 333 4////;",
"01047099999","2010-03-03T12:00:00","4","69.0166667","23.0666667","307.0","KAUTOKEINO II, NO","FM-12","ENKA ","V020","050,1,N,0070,1","01500,1,9,N","070000,1,N,1","-0074,1","-0107,1","10125,1",,,,"2,1,06,1","2,1,06,1",,"06,99,1,06,1,00,1,01750,1,07,1,00,1",,,"99999,9,09744,1","2,1,012,1,+999,9","02,1","SYN088AAXX  03121 01047 11788 60507 11074 21107 39744 40125 52012 6//// 70222 86070 333 4////;",
"01047099999","2010-03-03T15:00:00","4","69.0166667","23.0666667","307.0","KAUTOKEINO II, NO","FM-12","ENKA ","V020","050,1,N,0050,1","01500,1,9,N","070000,1,N,1","-0090,1","-0131,1","10137,1",,,,"2,1,03,1","2,1,03,1",,"06,99,1,06,1,00,1,01750,1,07,1,00,1",,,"99999,9,09755,1","2,1,011,1,+999,9","02,1","SYN082AAXX  03151 01047 41788 60505 11090 21131 39755 40137 52011 70222 86070 333 4////;",
"01047099999","2010-03-03T18:00:00","4","69.0166667","23.0666667","307.0","KAUTOKEINO II, NO","FM-12","ENKA ","V020","050,1,N,0050,1","22000,1,9,N","070000,1,N,1","-0140,1","-0167,1","10151,1","12,0000,9,1",,,"2,1,06,1","2,1,06,1",,"03,99,1,03,1,00,1,01750,1,07,1,00,1",,"120,M,-0065,1","99999,9,09766,1","2,1,011,1,+999,9","01,1","SYN094AAXX  03181 01047 11788 30505 11140 21167 39766 40151 52011 60002 70122 83070 333 11065 4////;","Q01  00002PRCP12"
"01047099999","2010-03-04T00:00:00","4","69.0166667","23.0666667","307.0","KAUTOKEINO II, NO","FM-12","ENKA ","V020","360,1,N,0010,1","22000,1,9,N","070000,1,N,1","-0180,1","-0198,1","10157,1",,,,"0,1,06,1","0,1,06,1","00,1,+99999,9,99,9","00,99,1,00,1,00,1,99999,9,00,1,00,1",,,"99999,9,09770,1","4,1,000,1,+999,9","02,1","SYN082AAXX  04001 01047 11988 03601 11180 21198 39770 40157 54000 6//// 70200 333 4////;",
"01047099999","2010-03-04T06:00:00","4","69.0166667","23.0666667","307.0","KAUTOKEINO II, NO","FM-12","ENKA ","V020","999,9,C,0000,1","03000,1,9,N","070000,1,N,1","-0262,1","-0286,1","10150,1","12,0000,9,1","24,0000,9,1","0050,9,1,999999,9,9","2,1,06,1","0,1,06,1",,"06,99,1,02,1,04,1,01250,1,07,1,00,1","23,9","999,N,-0262,1","99999,9,09759,1","8,1,007,1,+999,9","03,1","SYN100AAXX  04061 01047 11688 60000 11262 21286 39759 40150 58007 60002 70320 82470 333 21262 47050 70000;","Q01  00002PRCP24Q02  00002PRCP12"
"01047099999","2010-03-04T09:00:00","4","69.0166667","23.0666667","307.0","KAUTOKEINO II, NO","FM-12","ENKA ","V020","140,1,N,0030,1","22000,1,9,N","070000,1,N,1","-0160,1","-0186,1","10146,1",,,,"1,1,03,1","1,1,03,1",,"04,99,1,04,1,00,1,01750,1,07,1,00,1",,,"99999,9,09760,1","4,1,000,1,+999,9","02,1","SYN082AAXX  04091 01047 41788 41403 11160 21186 39760 40146 54000 70211 84070 333 4////;",
"01047099999","2010-03-04T12:00:00","4","69.0166667","23.0666667","307.0","KAUTOKEINO II, NO","FM-12","ENKA ","V020","090,1,N,0050,1","22000,1,9,N","070000,1,N,1","-0086,1","-0134,1","10144,1",,,,"1,1,06,1","1,1,06,1",,"04,99,1,04,1,00,1,01750,1,07,1,00,1",,,"99999,9,09761,1","4,1,000,1,+999,9","02,1","SYN088AAXX  04121 01047 11788 40905 11086 21134 39761 40144 54000 6//// 70211 84070 333 4////;",
"01047099999","2010-03-04T15:00:00","4","69.0166667","23.0666667","307.0","KAUTOKEINO II, NO","FM-12","ENKA ","V020","090,1,N,0050,1","01500,1,9,N","070000,1,N,1","-0100,1","-0141,1","10144,1",,,,"2,1,03,1","2,1,03,1",,"08,99,1,08,1,00,1,01750,1,07,1,99,9",,,"99999,9,09761,1","4,1,000,1,+999,9","02,1","SYN082AAXX  04151 01047 41788 80905 11100 21141 39761 40144 54000 70222 8807/ 333 4////;",
"01047099999","2010-03-04T18:00:00","4","69.0166667","23.0666667","307.0","KAUTOKEINO II, NO","FM-12","ENKA ","V020","090,1,N,0050,1","01200,1,9,N","070000,1,N,1","-0116,1","-0149,1","10139,1","12,0000,9,1",,,"2,1,06,1","2,1,06,1",,"08,99,1,08,1,00,1,01250,1,02,1,99,9",,"120,M,-0075,1","99999,9,09755,1","7,1,006,1,+999,9","02,1","SYN094AAXX  04181 01047 11688 80905 11116 21149 39755 40139 57006 60002 70222 8802/ 333 11075 4////;","Q01  00002PRCP12"
"01047099999","2010-03-05T00:00:00","4","69.0166667","23.0666667","307.0","KAUTOKEINO II, NO","FM-12","ENKA ","V020","050,1,N,0030,1","01200,1,9,N","070000,1,N,1","-0120,1","-0139,1","10119,1",,,,"7,1,06,1","2,1,06,1",,"08,99,1,08,1,00,1,01250,1,02,1,99,9",,,"99999,9,09736,1","7,1,008,1,+999,9","02,1","SYN088AAXX  05001 01047 11688 80503 11120 21139 39736 40119 57008 6//// 70272 8802/ 333 4////;",
"01047099999","2010-03-05T06:00:00","4","69.0166667","23.0666667","307.0","KAUTOKEINO II, NO","FM-12","ENKA ","V020","999,9,C,0000,1","00750,1,9,N","065000,1,N,1","-0127,1","-0142,1","10099,1","12,0000,9,1","24,0000,9,1","0050,9,1,999999,9,9","7,1,06,1","2,1,06,1",,"07,99,1,05,1,04,1,00800,1,02,1,00,1","23,9","999,N,-0131,1","99999,9,09717,1","6,1,009,1,+999,9","02,1","SYN100AAXX  05061 01047 11587 70000 11127 21142 39717 40099 56009 69912 70272 85420 333 21131 47050 70001;","Q01  00002PRCP24Q02  00002PRCP12"
"01047099999","2010-03-05T09:00:00","4","69.0166667","23.0666667","307.0","KAUTOKEINO II, NO","FM-12","ENKA ","V020","360,1,N,0030,1","00750,1,9,N","006000,1,N,1","-0108,1","-0133,1","10096,1",,,,"8,1,03,1","2,1,03,1",,"08,99,1,08,1,09,1,00800,1,99,9,99,9",,,"99999,9,09714,1","6,1,002,1,+999,9","85,1","SYN082AAXX  05091 01047 41556 83603 11108 21133 39714 40096 56002 78582 889// 333 4////;",
"01047099999","2010-03-05T12:00:00","4","69.0166667","23.0666667","307.0","KAUTOKEINO II, NO","FM-12","ENKA ","V020","360,1,N,0030,1","00750,1,9,N","070000,1,N,1","-0076,1","-0097,1","10099,1",,,,"8,1,06,1","2,1,06,1",,"07,99,1,07,1,09,1,00800,1,00,1,00,1",,,"99999,9,09719,1","3,1,004,1,+999,9","26,1","SYN088AAXX  05121 01047 11588 73603 11076 21097 39719 40099 53004 6//// 72682 87900 333 4////;",
"01047099999","2010-03-05T15:00:00","4","69.0166667","23.0666667","307.0","KAUTOKEINO II, NO","FM-12","ENKA ","V020","050,1,N,0030,1","01200,1,9,N","000700,1,N,1","-0066,1","-0086,1","10105,1",,,,"8,1,03,1","7,1,03,1",,"08,99,1,08,1,00,1,01250,1,02,1,99,9",,,"99999,9,09725,1","2,1,006,1,+999,9","73,1","SYN082AAXX  05151 01047 41607 80503 11066 21086 39725 40105 52006 77387 8802/ 333 4////;",
"01047099999","2010-03-05T18:00:00","4","69.0166667","23.0666667","307.0","KAUTOKEINO II, NO","FM-12","ENKA ","V020","050,1,N,0030,1","01200,1,9,N","010000,1,N,1","-0094,1","-0110,1","10121,1","12,0020,9,1",,,"7,1,06,1","7,1,06,1",,"08,99,1,08,1,00,1,01250,1,02,1,99,9",,"120,M,-0055,1","99999,9,09739,1","2,1,014,1,+999,9","71,1","SYN094AAXX  05181 01047 11660 80503 11094 21110 39739 40121 52014 60022 77177 8802/ 333 11055 4////;",
"01047099999","2010-03-06T00:00:00","4","69.0166667","23.0666667","307.0","KAUTOKEINO II, NO","FM-12","ENKA ","V020","340,1,N,0030,1","01200,1,9,N","070000,1,N,1","-0224,1","-0245,1","10165,1",,,,"7,1,06,1","2,1,06,1",,"08,99,1,08,1,00,1,01250,1,02,1,99,9",,,"99999,9,09776,1","2,1,008,1,+999,9","02,1","SYN088AAXX  06001 01047 11688 83403 11224 21245 39776 40165 52008 6//// 70272 8802/ 333 4////;",
"01047099999","2010-03-06T06:00:00","4","69.0166667","23.0666667","307.0","KAUTOKEINO II, NO","FM-12","ENKA ","V020","999,9,C,0000,1","01500,1,9,N","070000,1,N,1","-0231,1","-0252,1","10196,1","12,0005,9,1","24,0023,9,1","0057,9,1,999999,9,9","7,1,06,1","2,1,06,1",,"06,99,1,06,1,00,1,01750,1,07,1,00,1","23,9","999,N,-0231,1","99999,9,09805,1","3,1,007,1,+999,9","02,1","SYN100AAXX  06061 01047 11788 60000 11231 21252 39805 40196 53007 69942 70272 86070 333 21231 47057 70024;",
"01047099999","2010-03-06T09:00:00","4","69.0166667","23.0666667","307.0","KAUTOKEINO II, NO","FM-12","ENKA ","V020","999,9,C,0000,1","22000,1,9,N","070000,1,N,1","-0204,1","-0235,1","10205,1",,,,"2,1,03,1","0,1,03,1",,"03,99,1,00,1,00,1,99999,9,00,1,08,1",,,"99999,9,09815,1","1,1,009,1,+999,9","01,1","SYN082AAXX  06091 01047 41988 30000 11204 21235 39815 40205 51009 70120 80008 333 4////;",
"01047099999","2010-03-06T12:00:00","4","69.0166667","23.0666667","307.0","KAUTOKEINO II, NO","FM-12","ENKA ","V020","140,1,N,0030,1","22000,1,9,N","070000,1,N,1","-0130,1","-0169,1","10204,1",,,,"0,1,06,1","0,1,06,1",,"02,99,1,00,1,00,1,99999,9,00,1,08,1",,,"99999,9,09817,1","1,1,002,1,+999,9","02,1","SYN088AAXX  06121 01047 11988 21403 11130 21169 39817 40204 51002 6//// 70200 80008 333 4////;",
"01047099999","2010-03-06T15:00:00","4","69.0166667","23.0666667","307.0","KAUTOKEINO II, NO","FM-12","ENKA ","V020","180,1,N,0050,1","01500,1,9,N","070000,1,N,1","-0130,1","-0154,1","10193,1",,,,"1,1,03,1","1,1,03,1",,"06,99,1,06,1,00,1,01750,1,07,1,00,1",,,"99999,9,09807,1","7,1,009,1,+999,9","02,1","SYN082AAXX  06151 01047 41788 61805 11130 21154 39807 40193 57009 70211 86070 333 4////;",
"01047099999","2010-03-06T18:00:00","4","69.0166667","23.0666667","307.0","KAUTOKEINO II, NO","FM-12","ENKA ","V020","180,1,N,0050,1","01500,1,9,N","070000,1,N,1","-0128,1","-0145,1","10183,1","12,0000,9,1",,,"2,1,06,1","2,1,06,1",,"06,99,1,06,1,00,1,01750,1,07,1,00,1",,"120,M,-0095,1","99999,9,09797,1","7,1,010,1,+999,9","02,1","SYN094AAXX  06181 01047 11788 61805 11128 21145 39797 40183 57010 60002 70222 86070 333 11095 4////;","Q01  00002PRCP12"
"01047099999","2010-03-07T00:00:00","4","69.0166667","23.0666667","307.0","KAUTOKEINO II, NO","FM-12","ENKA ","V020","180,1,N,0070,1","01200,1,9,N","070000,1,N,1","-0094,1","-0114,1","10142,1",,,,"2,1,06,1","2,1,06,1",,"08,99,1,08,1,00,1,01250,1,02,1,99,9",,,"99999,9,09759,1","7,1,015,1,+999,9","02,1","SYN088AAXX  07001 01047 11688 81807 11094 21114 39759 40142 57015 6//// 70222 8802/ 333 4////;",
"01047099999","2010-03-07T06:00:00","4","69.0166667","23.0666667","307.0","KAUTOKEINO II, NO","FM-12","ENKA ","V020","180,1,N,0100,1","01200,1,9,N","065000,1,N,1","-0073,1","-0097,1","10098,1","12,0000,9,1","24,0000,9,1","0055,9,1,999999,9,9","7,1,06,1","3,1,06,1",,"08,99,1,08,1,00,1,01250,1,02,1,99,9","24,9","999,N,-0129,1","99999,9,09718,1","6,1,013,1,+999,9","36,1","SYN100AAXX  07061 01047 11687 81810 11073 21097 39718 40098 56013 69912 73673 8802/ 333 21129 48055 70001;","Q01  00002PRCP24Q02  00002PRCP12"
"01047099999","2010-03-07T09:00:00","4","69.0166667","23.0666667","307.0","KAUTOKEINO II, NO","FM-12","ENKA ","V020","180,1,N,0100,1","01200,1,9,N","065000,1,N,1","-0052,1","-0076,1","10090,1",,,,"3,1,03,1","2,1,03,1",,"08,99,1,08,1,00,1,01250,1,02,1,99,9",,,"99999,9,09711,1","8,1,006,1,+999,9","36,1","SYN082AAXX  07091 01047 41687 81810 11052 21076 39711 40090 58006 73632 8802/ 333 4////;",
"01047099999","2010-03-07T12:00:00","4","69.0166667","23.0666667","307.0","KAUTOKEINO II, NO","FM-12","ENKA ","V020","180,1,N,0100,1","01500,1,9,N","070000,1,N,1","-0044,1","-0073,1","10077,1",,,,"3,1,06,1","3,1,06,1",,"08,99,1,08,1,00,1,01750,1,07,1,99,9",,,"99999,9,09698,1","7,1,013,1,+999,9","36,1","SYN088AAXX  07121 01047 11788 81810 11044 21073 39698 40077 57013 6//// 73633 8807/ 333 4////;",
"01047099999","2010-03-07T15:00:00","4","69.0166667","23.0666667","307.0","KAUTOKEINO II, NO","FM-12","ENKA ","V020","160,1,N,0100,1","01500,1,9,N","070000,1,N,1","-0042,1","-0071,1","10053,1",,,,"3,1,03,1","2,1,03,1",,"08,99,1,08,1,00,1,01750,1,07,1,99,9",,,"99999,9,09676,1","7,1,022,1,+999,9","02,1","SYN082AAXX  07151 01047 41788 81610 11042 21071 39676 40053 57022 70232 8807/ 333 4////;",
"01047099999","2010-03-07T18:00:00","4","69.0166667","23.0666667","307.0","KAUTOKEINO II, NO","FM-12","ENKA ","V020","160,1,N,0100,1","01500,1,9,N","070000,1,N,1","-0032,1","-0057,1","10020,1","12,0000,9,1",,,"2,1,06,1","2,1,06,1",,"08,99,1,08,1,00,1,01750,1,07,1,99,9",,"120,M,-0025,1","99999,9,09644,1","7,1,032,1,+999,9","02,1","SYN094AAXX  07181 01047 11788 81610 11032 21057 39644 40020 57032 60002 70222 8807/ 333 11025 4////;","Q01  00002PRCP12"
"01047099999","2010-03-08T00:00:00","4","69.0166667","23.0666667","307.0","KAUTOKEINO II, NO","FM-12","ENKA ","V020","180,1,N,0100,1","22000,1,9,N","070000,1,N,1","+0018,1","-0031,1","99999,9",,,,"1,1,06,1","1,1,06,1","00,1,+99999,9,99,9","00,99,1,00,1,00,1,99999,9,00,1,00,1",,,,"8,1,040,1,+999,9","01,1","SYN082AAXX  08001 01047 11988 01810 10018 21031 39557 49926 58040 6//// 70111 333 4////;","Q01+095573APOSP "
"01047099999","2010-03-08T06:00:00","4","69.0166667","23.0666667","307.0","KAUTOKEINO II, NO","FM-12","ENKA ","V020","360,1,N,0070,1","00420,1,9,N","070000,1,N,1","-0026,1","-0038,1","09909,1","12,9999,9,9","24,0003,9,1","0056,9,1,999999,9,9","8,1,06,1","1,1,06,1",,"05,99,1,05,1,09,1,00450,1,00,1,00,1","24,9","999,N,-0034,1","99999,9,09538,1","6,1,010,1,+999,9","26,1","SYN100AAXX  08061 01047 11488 53607 11026 21038 39538 49909 56010 69922 72681 85900 333 21034 48056 70002;","Q01  00002PRCP12Q02  00002PRCP12"
"01047099999","2010-03-08T09:00:00","4","69.0166667","23.0666667","307.0","KAUTOKEINO II, NO","FM-12","ENKA ","V020","220,1,N,0070,1","22000,1,9,N","070000,1,N,1","-0054,1","-0114,1","09932,1",,,,"1,1,03,1","1,1,03,1",,"03,99,1,03,1,00,1,01750,1,07,1,00,1",,,"99999,9,09559,1","1,1,021,1,+999,9","02,1","SYN082AAXX  08091 01047 41788 32207 11054 21114 39559 49932 51021 70211 83070 333 4////;",
"01047099999","2010-03-08T12:00:00","4","69.0166667","23.0666667","307.0","KAUTOKEINO II, NO","FM-12","ENKA ","V020","220,1,N,0070,1","22000,1,9,N","070000,1,N,1","-0050,1","-0107,1","09950,1",,,,"0,1,06,1","0,1,06,1","00,1,+99999,9,99,9","00,99,1,00,1,00,1,99999,9,00,1,00,1",,,"99999,9,09576,1","1,1,018,1,+999,9","02,1","SYN082AAXX  08121 01047 11988 02207 11050 21107 39576 49950 51018 6//// 70200 333 4////;",
"01047099999","2010-03-08T15:00:00","4","69.0166667","23.0666667","307.0","KAUTOKEINO II, NO","FM-12","ENKA ","V020","270,1,N,0070,1","00750,1,9,N","004000,1,N,1","-0070,1","-0115,1","09967,1",,,,"8,1,03,1","2,1,03,1",,"08,99,1,08,1,09,1,00800,1,99,9,99,9",,,"99999,9,09592,1","2,1,015,1,+999,9","85,1","SYN082AAXX  08151 01047 41540 82707 11070 21115 39592 49967 52015 78582 889// 333 4////;",
"01047099999","2010-03-08T18:00:00","4","69.0166667","23.0666667","307.0","KAUTOKEINO II, NO","FM-12","ENKA ","V020","320,1,N,0100,1","01200,1,9,N","004000,1,N,1","-0050,1","-0070,1","09967,1","12,0010,9,1",,,"8,1,06,1","7,1,06,1",,"08,99,1,08,1,00,1,01250,1,02,1,99,9",,"120,M,+0000,1","99999,9,09593,1","1,1,001,1,+999,9","71,1","SYN094AAXX  08181 01047 11640 83210 11050 21070 39593 49967 51001 60012 77187 8802/ 333 10000 4////;",
"01047099999","2010-03-09T00:00:00","4","69.0166667","23.0666667","307.0","KAUTOKEINO II, NO","FM-12","ENKA ","V020","320,1,N,0050,1","22000,1,9,N","070000,1,N,1","-0076,1","-0110,1","10014,1",,,,"7,1,06,1","3,1,06,1","00,1,+99999,9,99,9","00,99,1,00,1,00,1,99999,9,00,1,00,1",,,"99999,9,09637,1","1,1,015,1,+999,9","01,1","SYN082AAXX  09001 01047 11988 03205 11076 21110 39637 40014 51015 6//// 70173 333 4////;",
"01047099999","2010-03-09T06:00:00","4","69.0166667","23.0666667","307.0","KAUTOKEINO II, NO","FM-12","ENKA ","V020","320,1,N,0050,1","22000,1,9,N","070000,1,N,1","-0089,1","-0121,1","10029,1","12,0000,2,1","24,0010,9,1","0057,9,1,999999,9,9","7,1,06,1","3,1,06,1",,"03,99,1,03,1,00,1,01750,1,07,1,00,1","24,9","999,N,-0128,1","99999,9,09651,1","1,1,004,1,+999,9","02,1","SYN100AAXX  09061 01047 11788 33205 11089 21121 39651 40029 51004 69912 70273 83070 333 21128 48057 70011;",
"01047099999","2010-03-09T09:00:00","4","69.0166667","23.0666667","307.0","KAUTOKEINO II, NO","FM-12","ENKA ","V020","220,1,N,0050,1","22000,1,9,N","070000,1,N,1","-0080,1","-0139,1","10035,1",,,,"0,1,03,1","0,1,03,1","00,1,+99999,9,99,9","00,99,1,00,1,00,1,99999,9,00,1,00,1",,,"99999,9,09657,1","2,1,006,1,+999,9","02,1","SYN076AAXX  09091 01047 41988 02205 11080 21139 39657 40035 52006 70200 333 4////;",
"01047099999","2010-03-09T12:00:00","4","69.0166667","23.0666667","307.0","KAUTOKEINO II, NO","FM-12","ENKA ","V020","220,1,N,0030,1","22000,1,9,N","070000,1,N,1","-0065,1","-0136,1","10038,1",,,,"0,1,06,1","0,1,06,1",,"01,99,1,00,1,00,1,99999,9,00,1,01,1",,,"99999,9,09660,1","2,1,004,1,+999,9","02,1","SYN088AAXX  09121 01047 11988 12203 11065 21136 39660 40038 52004 6//// 70200 80001 333 4////;",
"01047099999","2010-03-09T15:00:00","4","69.0166667","23.0666667","307.0","KAUTOKEINO II, NO","FM-12","ENKA ","V020","220,1,N,0030,1","22000,1,9,N","070000,1,N,1","-0090,1","-0152,1","10038,1",,,,"0,1,03,1","0,1,03,1",,"02,99,1,00,1,00,1,99999,9,00,1,02,1",,,"99999,9,09659,1","4,1,000,1,+999,9","02,1","SYN082AAXX  09151 01047 41988 22203 11090 21152 39659 40038 54000 70200 80002 333 4////;",
"01047099999","2010-03-09T18:00:00","4","69.0166667","23.0666667","307.0","KAUTOKEINO II, NO","FM-12","ENKA ","V020","999,9,C,0000,1","22000,1,9,N","070000,1,N,1","-0134,1","-0180,1","10032,1","12,0000,9,1",,,"0,1,06,1","0,1,06,1","00,1,+99999,9,99,9","00,99,1,00,1,00,1,99999,9,00,1,00,1",,"120,M,-0055,1","99999,9,09652,1","7,1,006,1,+999,9","02,1","SYN088AAXX  09181 01047 11988 00000 11134 21180 39652 40032 57006 60002 70200 333 11055 4////;","Q01  00002PRCP12"
"01047099999","2010-03-10T00:00:00","4","69.0166667","23.0666667","307.0","KAUTOKEINO II, NO","FM-12","ENKA ","V020","050,1,N,0030,1","22000,1,9,N","070000,1,N,1","-0180,1","-0203,1","10024,1",,,,"0,1,06,1","0,1,06,1","00,1,+99999,9,99,9","00,99,1,00,1,00,1,99999,9,00,1,00,1",,,"99999,9,09642,1","7,1,005,1,+999,9","02,1","SYN082AAXX  10001 01047 11988 00503 11180 21203 39642 40024 57005 6//// 70200 333 4////;",
"01047099999","2010-03-10T06:00:00","4","69.0166667","23.0666667","307.0","KAUTOKEINO II, NO","FM-12","ENKA ","V020","160,1,N,0030,1","22000,1,9,N","070000,1,N,1","-0209,1","-0228,1","10028,1","12,0000,9,1","24,0000,9,1","0057,9,1,999999,9,9","0,1,06,1","0,1,06,1",,"02,99,1,00,1,00,1,99999,9,00,1,08,1","24,9","999,N,-0226,1","99999,9,09645,1","4,1,000,1,+999,9","02,1","SYN100AAXX  10061 01047 11988 21603 11209 21228 39645 40028 54000 60002 70200 80008 333 21226 48057 70000;","Q01  00002PRCP24Q02  00002PRCP12"
"01047099999","2010-03-10T09:00:00","4","69.0166667","23.0666667","307.0","KAUTOKEINO II, NO","FM-12","ENKA ","V020","050,1,N,0030,1","22000,1,9,N","070000,1,N,1","-0080,1","-0143,1","10028,1",,,,"0,1,03,1","0,1,03,1","00,1,+99999,9,99,9","00,99,1,00,1,00,1,99999,9,00,1,00,1",,,"99999,9,09651,1","3,1,006,1,+999,9","02,1","SYN076AAXX  10091 01047 41988 00503 11080 21143 39651 40028 53006 70200 333 4////;",
"01047099999","2010-03-10T12:00:00","4","69.0166667","23.0666667","307.0","KAUTOKEINO II, NO","FM-12","ENKA ","V020","320,1,N,0030,1","22000,1,9,N","070000,1,N,1","-0066,1","-0126,1","10034,1",,,,"0,1,06,1","0,1,06,1","00,1,+99999,9,99,9","00,99,1,00,1,00,1,99999,9,00,1,00,1",,,"99999,9,09657,1","2,1,006,1,+999,9","02,1","SYN082AAXX  10121 01047 11988 03203 11066 21126 39657 40034 52006 6//// 70200 333 4////;",
"01047099999","2010-03-10T15:00:00","4","69.0166667","23.0666667","307.0","KAUTOKEINO II, NO","FM-12","ENKA ","V020","220,1,N,0050,1","22000,1,9,N","070000,1,N,1","-0072,1","-0128,1","10029,1",,,,"0,1,03,1","0,1,03,1",,"02,99,1,02,1,00,1,01750,1,07,1,00,1",,,"99999,9,09652,1","8,1,005,1,+999,9","02,1","SYN082AAXX  10151 01047 41788 22205 11072 21128 39652 40029 58005 70200 82070 333 4////;",
"01047099999","2010-03-10T18:00:00","4","69.0166667","23.0666667","307.0","KAUTOKEINO II, NO","FM-12","ENKA ","V020","220,1,N,0050,1","22000,1,9,N","070000,1,N,1","-0110,1","-0143,1","10019,1","12,0000,9,1",,,"0,1,06,1","0,1,06,1","00,1,+99999,9,99,9","00,99,1,00,1,00,1,99999,9,00,1,00,1",,"120,M,-0054,1","99999,9,09640,1","7,1,012,1,+999,9","02,1","SYN088AAXX  10181 01047 11988 02205 11110 21143 39640 40019 57012 60002 70200 333 11054 4////;","Q01  00002PRCP12"
"01047099999","2010-03-11T00:00:00","4","69.0166667","23.0666667","307.0","KAUTOKEINO II, NO","FM-12","ENKA ","V020","220,1,N,0030,1","22000,1,9,N","070000,1,N,1","-0196,1","-0215,1","09999,1",,,,"0,1,06,1","0,1,06,1",,"04,99,1,04,1,00,1,01750,1,07,1,00,1",,,"99999,9,09617,1","7,1,012,1,+999,9","02,1","SYN088AAXX  11001 01047 11788 42203 11196 21215 39617 49999 57012 6//// 70200 84070 333 4////;",
"01047099999","2010-03-11T06:00:00","4","69.0166667","23.0666667","307.0","KAUTOKEINO II, NO","FM-12","ENKA ","V020","999,9,C,0000,1","22000,1,9,N","070000,1,N,1","-0268,1","-0292,1","09980,1","12,0000,9,1","24,0000,9,1","0057,9,1,999999,9,9","0,1,06,1","0,1,06,1",,"02,99,1,02,1,00,1,01750,1,07,1,00,1","24,9","999,N,-0268,1","99999,9,09596,1","6,1,006,1,+999,9","02,1","SYN100AAXX  11061 01047 11788 20000 11268 21292 39596 49980 56006 60002 70200 82070 333 21268 48057 70000;","Q01  00002PRCP24Q02  00002PRCP12"
"01047099999","2010-03-11T09:00:00","4","69.0166667","23.0666667","307.0","KAUTOKEINO II, NO","FM-12","ENKA ","V020","999,9,C,0000,1","22000,1,9,N","070000,1,N,1","-0166,1","-0188,1","09970,1",,,,"0,1,03,1","0,1,03,1",,"03,99,1,03,1,00,1,01750,1,07,1,00,1",,,"99999,9,09591,1","6,1,005,1,+999,9","02,1","SYN082AAXX  11091 01047 41788 30000 11166 21188 39591 49970 56005 70200 83070 333 4////;",
"01047099999","2010-03-11T12:00:00","4","69.0166667","23.0666667","307.0","KAUTOKEINO II, NO","FM-12","ENKA ","V020","140,1,N,0010,1","01500,1,9,N","070000,1,N,1","-0072,1","-0135,1","09959,1",,,,"2,1,06,1","0,1,06,1",,"06,99,1,06,1,00,1,01750,1,07,1,00,1",,,"99999,9,09584,1","7,1,007,1,+999,9","02,1","SYN088AAXX  11121 01047 11788 61401 11072 21135 39584 49959 57007 6//// 70220 86070 333 4////;",
"01047099999","2010-03-11T15:00:00","4","69.0166667","23.0666667","307.0","KAUTOKEINO II, NO","FM-12","ENKA ","V020","360,1,N,0030,1","01500,1,9,N","070000,1,N,1","-0094,1","-0149,1","09960,1",,,,"2,1,03,1","2,1,03,1",,"06,99,1,06,1,00,1,01750,1,07,1,00,1",,,"99999,9,09584,1","3,1,001,1,+999,9","02,1","SYN082AAXX  11151 01047 41788 63603 11094 21149 39584 49960 53001 70222 86070 333 4////;",
"01047099999","2010-03-11T18:00:00","4","69.0166667","23.0666667","307.0","KAUTOKEINO II, NO","FM-12","ENKA ","V020","360,1,N,0030,1","01200,1,9,N","070000,1,N,1","-0122,1","-0155,1","09969,1","12,0000,9,1",,,"2,1,06,1","2,1,06,1",,"07,99,1,07,1,05,1,01250,1,00,1,00,1",,"120,M,-0060,1","99999,9,09591,1","2,1,007,1,+999,9","02,1","SYN094AAXX  11181 01047 11688 73603 11122 21155 39591 49969 52007 60002 70222 87500 333 11060 4////;","Q01  00002PRCP12"
"01047099999","2010-03-12T00:00:00","4","69.0166667","23.0666667","307.0","KAUTOKEINO II, NO","FM-12","ENKA ","V020","180,1,N,0050,1","01500,1,9,N","070000,1,N,1","-0210,1","-0228,1","09967,1",,,,"1,1,06,1","1,1,06,1",,"05,99,1,05,1,00,1,01750,1,07,1,00,1",,,"99999,9,09586,1","8,1,005,1,+999,9","02,1","SYN088AAXX  12001 01047 11788 51805 11210 21228 39586 49967 58005 6//// 70211 85070 333 4////;",
"01047099999","2010-03-12T06:00:00","4","69.0166667","23.0666667","307.0","KAUTOKEINO II, NO","FM-12","ENKA ","V020","999,9,C,0000,1","01500,1,9,N","070000,1,N,1","-0143,1","-0159,1","09937,1","12,0000,9,1","24,0000,9,1","0056,9,1,999999,9,9","2,1,06,1","1,1,06,1",,"06,99,1,06,1,00,1,01750,1,07,1,00,1","24,9","999,N,-0214,1","99999,9,09560,1","6,1,010,1,+999,9","02,1","SYN100AAXX  12061 01047 11788 60000 11143 21159 39560 49937 56010 60002 70221 86070 333 21214 48056 70000;","Q01  00002PRCP24Q02  00002PRCP12"
"01047099999","2010-03-12T09:00:00","4","69.0166667","23.0666667","307.0","KAUTOKEINO II, NO","FM-12","ENKA ","V020","140,1,N,0030,1","00750,1,9,N","070000,1,N,1","-0078,1","-0091,1","09943,1",,,,"8,1,03,1","2,1,03,1",,"06,99,1,06,1,09,1,00800,1,00,1,00,1",,,"99999,9,09568,1","3,1,009,1,+999,9","02,1","SYN082AAXX  12091 01047 41588 61403 11078 21091 39568 49943 53009 70282 86900 333 4////;",
"01047099999","2010-03-12T12:00:00","4","69.0166667","23.0666667","307.0","KAUTOKEINO II, NO","FM-12","ENKA ","V020","050,1,N,0010,1","00750,1,9,N","070000,1,N,1","-0066,1","-0108,1","09949,1",,,,"2,1,06,1","2,1,06,1",,"06,99,1,06,1,09,1,00800,1,00,1,00,1",,,"99999,9,09575,1","1,1,006,1,+999,9","02,1","SYN088AAXX  12121 01047 11588 60501 11066 21108 39575 49949 51006 6//// 70222 86900 333 4////;",
"01047099999","2010-03-12T15:00:00","4","69.0166667","23.0666667","307.0","KAUTOKEINO II, NO","FM-12","ENKA ","V020","050,1,N,0030,1","03000,1,9,N","070000,1,N,1","-0090,1","-0131,1","09944,1",,,,"2,1,03,1","2,1,03,1",,"07,99,1,03,1,05,1,00800,1,02,1,00,1",,,"99999,9,09569,1","7,1,005,1,+999,9","02,1","SYN082AAXX  12151 01047 41588 70503 11090 21131 39569 49944 57005 70222 83520 333 4////;",
"01047099999","2010-03-12T18:00:00","4","69.0166667","23.0666667","307.0","KAUTOKEINO II, NO","FM-12","ENKA ","V020","160,1,N,0050,1","01200,1,9,N","070000,1,N,1","-0108,1","-0136,1","09929,1","12,0005,9,1",,,"2,1,06,1","2,1,06,1",,"08,99,1,08,1,00,1,01250,1,02,1,99,9",,"120,M,-0048,1","99999,9,09554,1","7,1,016,1,+999,9","02,1","SYN094AAXX  12181 01047 11688 81605 11108 21136 39554 49929 57016 69962 70222 8802/ 333 11048 4////;",
"01047099999","2010-03-13T00:00:00","4","69.0166667","23.0666667","307.0","KAUTOKEINO II, NO","FM-12","ENKA ","V020","090,1,N,0030,1","01500,1,9,N","070000,1,N,1","-0188,1","-0206,1","09932,1",,,,"1,1,06,1","1,1,06,1",,"05,99,1,05,1,00,1,01750,1,07,1,00,1",,,"99999,9,09554,1","4,1,000,1,+999,9","02,1","SYN088AAXX  13001 01047 11788 50903 11188 21206 39554 49932 54000 6//// 70211 85070 333 4////;",
"01047099999","2010-03-13T06:00:00","4","69.0166667","23.0666667","307.0","KAUTOKEINO II, NO","FM-12","ENKA ","V020","999,9,C,0000,1","22000,1,9,N","070000,1,N,1","-0276,1","-0300,1","09946,1","12,0000,9,1","24,0005,9,1","0056,9,1,999999,9,9","2,1,06,1","1,1,06,1",,"04,99,1,04,1,00,1,01750,1,07,1,00,1","24,9","999,N,-0278,1","99999,9,09562,1","3,1,004,1,+999,9","02,1","SYN100AAXX  13061 01047 11788 40000 11276 21300 39562 49946 53004 60002 70221 84070 333 21278 48056 70006;","Q01  00002PRCP12"
"01047099999","2010-03-13T09:00:00","4","69.0166667","23.0666667","307.0","KAUTOKEINO II, NO","FM-12","ENKA ","V020","999,9,C,0000,1","01200,1,9,N","065000,1,N,1","-0186,1","-0208,1","09954,1",,,,"2,1,03,1","1,1,03,1",,"08,99,1,08,1,00,1,01250,1,02,1,99,9",,,"99999,9,09574,1","3,1,012,1,+999,9","02,1","SYN082AAXX  13091 01047 41687 80000 11186 21208 39574 49954 53012 70221 8802/ 333 4////;",
"01047099999","2010-03-13T12:00:00","4","69.0166667","23.0666667","307.0","KAUTOKEINO II, NO","FM-12","ENKA ","V020","360,1,N,0030,1","22000,1,9,N","070000,1,N,1","-0100,1","-0148,1","09955,1",,,,"2,1,06,1","0,1,06,1",,"02,99,1,00,1,00,1,99999,9,00,1,01,1",,,"99999,9,09579,1","1,1,004,1,+999,9","02,1","SYN088AAXX  13121 01047 11988 23603 11100 21148 39579 49955 51004 6//// 70220 80001 333 4////;",
"01047099999","2010-03-13T15:00:00","4","69.0166667","23.0666667","307.0","KAUTOKEINO II, NO","FM-12","ENKA ","V020","360,1,N,0050,1","22000,1,9,N","070000,1,N,1","-0104,1","-0158,1","09962,1",,,,"0,1,03,1","0,1,03,1",,"03,99,1,00,1,00,1,99999,9,00,1,08,1",,,"99999,9,09586,1","2,1,007,1,+999,9","02,1","SYN082AAXX  13151 01047 41988 33605 11104 21158 39586 49962 52007 70200 80008 333 4////;",
"01047099999","2010-03-13T18:00:00","4","69.0166667","23.0666667","307.0","KAUTOKEINO II, NO","FM-12","ENKA ","V020","050,1,N,0030,1","01500,1,9,N","070000,1,N,1","-0148,1","-0188,1","09965,1","12,0000,9,1",,,"1,1,06,1","1,1,06,1",,"06,99,1,06,1,00,1,01750,1,07,1,00,1",,"120,M,-0080,1","99999,9,09587,1","4,1,000,1,+999,9","02,1","SYN094AAXX  13181 01047 11788 60503 11148 21188 39587 49965 54000 60002 70211 86070 333 11080 4////;","Q01  00002PRCP12"
"01047099999","2010-03-14T00:00:00","4","69.0166667","23.0666667","307.0","KAUTOKEINO II, NO","FM-12","ENKA ","V020","050,1,N,0030,1","22000,1,9,N","070000,1,N,1","-0242,1","-0263,1","09969,1",,,,"1,1,06,1","1,1,06,1",,"03,99,1,03,1,00,1,01750,1,07,1,00,1",,,"99999,9,09586,1","4,1,000,1,+999,9","02,1","SYN088AAXX  14001 01047 11788 30503 11242 21263 39586 49969 54000 6//// 70211 83070 333 4////;",
"01047099999","2010-03-14T06:00:00","4","69.0166667","23.0666667","307.0","KAUTOKEINO II, NO","FM-12","ENKA ","V020","999,9,C,0000,1","22000,1,9,N","070000,1,N,1","-0281,1","-0306,1","09978,1","12,0000,9,1","24,0000,9,1","0056,9,1,999999,9,9","2,1,06,1","1,1,06,1",,"02,99,1,02,1,00,1,01750,1,07,1,00,1","24,9","999,N,-0284,1","99999,9,09593,1","1,1,002,1,+999,9","02,1","SYN100AAXX  14061 01047 11788 20000 11281 21306 39593 49978 51002 60002 70221 82070 333 21284 48056 70000;","Q01  00002PRCP24Q02  00002PRCP12"
"01047099999","2010-03-14T12:00:00","4","69.0166667","23.0666667","307.0","KAUTOKEINO II, NO","FM-12","ENKA ","V020","360,1,N,0030,1","22000,1,9,N","070000,1,N,1","-0080,2","-0135,2","09979,1",,,,"1,1,06,1","1,1,06,1",,"04,99,1,04,1,05,1,01250,1,00,1,00,1",,,"99999,9,09603,1","1,1,004,1,+999,9","02,1","SYN088AAXX  14121 01047 11688 43603 11080 21135 39603 49979 51004 6//// 70211 84500 333 4////;",
"01047099999","2010-03-14T15:00:00","4","69.0166667","23.0666667","307.0","KAUTOKEINO II, NO","FM-12","ENKA ","V020","360,1,N,0030,1","22000,1,9,N","070000,1,N,1","-0106,1","-0160,1","09978,1",,,,"1,1,03,1","1,1,03,1",,"04,99,1,00,1,00,1,99999,9,00,1,02,1",,,"99999,9,09601,1","4,1,000,1,+999,9","02,1","SYN082AAXX  14151 01047 41988 43603 11106 21160 39601 49978 54000 70211 80002 333 4////;",
"01047099999","2010-03-14T18:00:00","4","69.0166667","23.0666667","307.0","KAUTOKEINO II, NO","FM-12","ENKA ","V020","360,1,N,0030,1","22000,1,9,N","070000,1,N,1","-0208,1","-0235,1","09988,1","12,0000,9,1",,,"0,1,06,1","0,1,06,1",,"03,99,1,00,1,00,1,99999,9,00,1,02,1",,"120,M,-0075,1","99999,9,09606,1","2,1,004,1,+999,9","02,1","SYN094AAXX  14181 01047 11988 33603 11208 21235 39606 49988 52004 60002 70200 80002 333 11075 4////;","Q01  00002PRCP12"
"01047099999","2010-03-15T00:00:00","4","69.0166667","23.0666667","307.0","KAUTOKEINO II, NO","FM-12","ENKA ","V020","360,1,N,0030,1","22000,1,9,N","070000,1,N,1","-0294,1","-0319,1","10007,1",,,,"0,1,06,1","0,1,06,1","00,1,+99999,9,99,9","00,99,1,00,1,00,1,99999,9,00,1,00,1",,,"99999,9,09621,1","2,1,005,1,+999,9","02,1","SYN082AAXX  15001 01047 11988 03603 11294 21319 39621 40007 52005 6//// 70200 333 4////;",
"01047099999","2010-03-15T06:00:00","4","69.0166667","23.0666667","307.0","KAUTOKEINO II, NO","FM-12","ENKA ","V020","999,9,C,0000,1","01200,1,9,N","065000,1,N,1","-0214,1","-0239,1","10016,1","12,0000,9,1","24,0000,9,1","0056,9,1,999999,9,9","2,1,06,1","0,1,06,1",,"08,99,1,08,1,00,1,01250,1,02,1,99,9","24,9","999,N,-0303,1","99999,9,09633,1","1,1,003,1,+999,9","02,1","SYN100AAXX  15061 01047 11687 80000 11214 21239 39633 40016 51003 60002 70220 8802/ 333 21303 48056 70000;","Q01  00002PRCP24Q02  00002PRCP12"
"01047099999","2010-03-15T09:00:00","4","69.0166667","23.0666667","307.0","KAUTOKEINO II, NO","FM-12","ENKA ","V020","360,1,N,0030,1","00750,1,9,N","010000,1,N,1","-0160,1","-0188,1","10024,1",,,,"8,1,03,1","2,1,03,1",,"08,99,1,06,1,09,1,00800,1,02,1,99,9",,,"99999,9,09643,1","1,1,011,1,+999,9","85,1","SYN082AAXX  15091 01047 41560 83603 11160 21188 39643 40024 51011 78582 8692/ 333 4////;",
"01047099999","2010-03-15T12:00:00","4","69.0166667","23.0666667","307.0","KAUTOKEINO II, NO","FM-12","ENKA ","V020","090,1,N,0030,1","22000,1,9,N","070000,1,N,1","-0118,1","-0162,1","10031,1",,,,"8,1,06,1","2,1,06,1",,"02,99,1,02,1,09,1,00800,1,00,1,00,1",,,"99999,9,09652,1","1,1,008,1,+999,9","01,1","SYN088AAXX  15121 01047 11588 20903 11118 21162 39652 40031 51008 6//// 70182 82900 333 4////;",
"01047099999","2010-03-15T15:00:00","4","69.0166667","23.0666667","307.0","KAUTOKEINO II, NO","FM-12","ENKA ","V020","090,1,N,0010,1","22000,1,9,N","070000,1,N,1","-0121,1","-0170,1","10035,1",,,,"0,1,03,1","0,1,03,1",,"02,99,1,00,1,00,1,99999,9,00,1,02,1",,,"99999,9,09655,1","3,1,003,1,+999,9","02,1","SYN082AAXX  15151 01047 41988 20901 11121 21170 39655 40035 53003 70200 80002 333 4////;",
"01047099999","2010-03-15T18:00:00","4","69.0166667","23.0666667","307.0","KAUTOKEINO II, NO","FM-12","ENKA ","V020","999,9,C,0000,1","00015,1,9,N","000000,1,N,1","-0216,1","-0237,1","10049,1","12,0000,2,1",,,"4,1,06,1","0,1,06,1","09,1,+99999,9,99,9","09,99,1,09,1,99,9,99999,9,99,9,99,9",,"120,M,-0095,1","99999,9,09664,1","2,1,010,1,+999,9","46,1","SYN088AAXX  15181 01047 11/00 90000 11216 21237 39664 40049 52010 69912 74640 333 11095 4////;",
"01047099999","2010-03-16T00:00:00","4","69.0166667","23.0666667","307.0","KAUTOKEINO II, NO","FM-12","ENKA ","V020","999,9,C,0000,1","00030,1,9,N","000200,1,N,1","-0288,1","-0312,1","10060,1",,,,"4,1,06,1","4,1,06,1","09,1,+99999,9,99,9","09,99,1,09,1,99,9,99999,9,99,9,99,9",,,"99999,9,09672,1","4,1,000,1,+999,9","44,1","SYN082AAXX  16001 01047 11/02 90000 11288 21312 39672 40060 54000 6//// 74444 333 4////;",
"01047099999","2010-03-16T06:00:00","4","69.0166667","23.0666667","307.0","KAUTOKEINO II, NO","FM-12","ENKA ","V020","180,1,N,0030,1","01500,1,9,N","065000,1,N,1","-0304,1","-0331,1","10042,1","12,0000,9,1","24,0000,2,1","0056,9,1,999999,9,9","4,1,06,1","2,1,06,1",,"06,99,1,06,1,00,1,01750,1,07,1,00,1","24,9","999,N,-0304,1","99999,9,09654,1","7,1,008,1,+999,9","02,1","SYN100AAXX  16061 01047 11787 61803 11304 21331 39654 40042 57008 60002 70242 86070 333 21304 48056 70001;","Q01  00002PRCP12"
"01047099999","2010-03-16T09:00:00","4","69.0166667","23.0666667","307.0","KAUTOKEINO II, NO","FM-12","ENKA ","V020","180,1,N,0030,1","01200,1,9,N","070000,1,N,1","-0180,1","-0203,1","10031,1",,,,"2,1,03,1","2,1,03,1",,"08,99,1,08,1,00,1,01250,1,02,1,99,9",,,"99999,9,09648,1","7,1,005,1,+999,9","02,1","SYN082AAXX  16091 01047 41688 81803 11180 21203 39648 40031 57005 70222 8802/ 333 4////;",
"01047099999","2010-03-16T12:00:00","4","69.0166667","23.0666667","307.0","KAUTOKEINO II, NO","FM-12","ENKA ","V020","999,9,C,0000,1","01500,1,9,N","070000,1,N,1","-0160,1","-0182,1","10038,1",,,,"2,1,06,1","1,1,06,1",,"07,99,1,07,1,00,1,01750,1,07,1,00,1",,,"99999,9,09656,1","5,1,007,1,+999,9","02,1","SYN088AAXX  16121 01047 11788 70000 11160 21182 39656 40038 55007 6//// 70221 87070 333 4////;",
"01047099999","2010-03-16T15:00:00","4","69.0166667","23.0666667","307.0","KAUTOKEINO II, NO","FM-12","ENKA ","V020","360,1,N,0030,1","01500,1,9,N","070000,1,N,1","-0166,1","-0211,1","10039,1",,,,"2,1,03,1","2,1,03,1",,"06,99,1,06,1,00,1,01750,1,07,1,00,1",,,"99999,9,09657,1","4,1,000,1,+999,9","02,1","SYN082AAXX  16151 01047 41788 63603 11166 21211 39657 40039 54000 70222 86070 333 4////;",
"01047099999","2010-03-16T18:00:00","4","69.0166667","23.0666667","307.0","KAUTOKEINO II, NO","FM-12","ENKA ","V020","360,1,N,0030,1","01500,1,9,N","070000,1,N,1","-0182,1","-0213,1","10042,1","12,0000,9,1",,,"2,1,06,1","2,1,06,1",,"08,99,1,08,1,00,1,01750,1,07,1,99,9",,"120,M,-0130,1","99999,9,09659,1","4,1,000,1,+999,9","02,1","SYN094AAXX  16181 01047 11788 83603 11182 21213 39659 40042 54000 60002 70222 8807/ 333 11130 4////;","Q01  00002PRCP12"
"01047099999","2010-03-17T00:00:00","4","69.0166667","23.0666667","307.0","KAUTOKEINO II, NO","FM-12","ENKA ","V020","360,1,N,0010,1","22000,1,9,N","070000,1,N,1","-0266,1","-0290,1","10045,1",,,,"2,1,06,1","0,1,06,1","00,1,+99999,9,99,9","00,99,1,00,1,00,1,99999,9,00,1,00,1",,,"99999,9,09659,1","4,1,000,1,+999,9","02,1","SYN082AAXX  17001 01047 11988 03601 11266 21290 39659 40045 54000 6//// 70220 333 4////;",
"01047099999","2010-03-17T06:00:00","4","69.0166667","23.0666667","307.0","KAUTOKEINO II, NO","FM-12","ENKA ","V020","180,1,N,0030,1","22000,1,9,N","070000,1,N,1","-0302,1","-0327,1","10051,1","12,0000,9,1","24,0000,9,1","0056,9,1,999999,9,9","2,1,06,1","0,1,06,1","00,1,+99999,9,99,9","00,99,1,00,1,00,1,99999,9,00,1,00,1","24,9","999,N,-0306,1","99999,9,09662,1","6,1,001,1,+999,9","02,1","SYN094AAXX  17061 01047 11988 01803 11302 21327 39662 40051 56001 60002 70220 333 21306 48056 70000;","Q01  00002PRCP24Q02  00002PRCP12"
"01047099999","2010-03-17T09:00:00","4","69.0166667","23.0666667","307.0","KAUTOKEINO II, NO","FM-12","ENKA ","V020","140,1,N,0030,1","22000,1,9,N","070000,1,N,1","-0185,1","-0216,1","10052,1",,,,"0,1,03,1","0,1,03,1",,"01,99,1,00,1,00,1,99999,9,00,1,01,1",,,"99999,9,09669,1","1,1,006,1,+999,9","02,1","SYN082AAXX  17091 01047 41988 11403 11185 21216 39669 40052 51006 70200 80001 333 4////;",
"01047099999","2010-03-17T12:00:00","4","69.0166667","23.0666667","307.0","KAUTOKEINO II, NO","FM-12","ENKA ","V020","140,1,N,0030,1","22000,1,9,N","070000,1,N,1","-0116,2","-0175,1","10052,1",,,,"0,1,06,1","0,1,06,1",,"01,99,1,00,1,00,1,99999,9,00,1,01,1",,,"99999,9,09672,1","1,1,003,1,+999,9","02,1","SYN088AAXX  17121 01047 11988 11403 11116 21175 39672 40052 51003 6//// 70200 80001 333 4////;",
"01047099999","2010-03-17T15:00:00","4","69.0166667","23.0666667","307.0","KAUTOKEINO II, NO","FM-12","ENKA ","V020","160,1,N,0010,1","22000,1,9,N","070000,1,N,1","-0120,1","-0191,1","10056,1",,,,"0,1,03,1","0,1,03,1","00,1,+99999,9,99,9","00,99,1,00,1,00,1,99999,9,00,1,00,1",,,"99999,9,09675,1","2,1,004,1,+999,9","02,1","SYN076AAXX  17151 01047 41988 01601 11120 21191 39675 40056 52004 70200 333 4////;",
"01047099999","2010-03-17T18:00:00","4","69.0166667","23.0666667","307.0","KAUTOKEINO II, NO","FM-12","ENKA ","V020","220,1,N,0030,1","22000,1,9,N","070000,1,N,1","-0230,1","-0260,1","10069,1","12,0000,9,1",,,"0,1,06,1","0,1,06,1","00,1,+99999,9,99,9","00,99,1,00,1,00,1,99999,9,00,1,00,1",,"120,M,-0095,1","99999,9,09683,1","2,1,007,1,+999,9","02,1","SYN088AAXX  17181 01047 11988 02203 11230 21260 39683 40069 52007 60002 70200 333 11095 4////;","Q01  00002PRCP12"
"01047099999","2010-03-18T00:00:00","4","69.0166667","23.0666667","307.0","KAUTOKEINO II, NO","FM-12","ENKA ","V020","999,9,C,0000,1","22000,1,9,N","070000,1,N,1","-0298,1","-0319,1","10084,1",,,,"0,1,06,1","0,1,06,1","00,1,+99999,9,99,9","00,99,1,00,1,00,1,99999,9,00,1,00,1",,,"99999,9,09694,1","1,1,004,1,+999,9","02,1","SYN082AAXX  18001 01047 11988 00000 11298 21319 39694 40084 51004 6//// 70200 333 4////;",
"01047099999","2010-03-18T06:00:00","4","69.0166667","23.0666667","307.0","KAUTOKEINO II, NO","FM-12","ENKA ","V020","999,9,C,0000,1","22000,1,9,N","070000,1,N,1","-0321,1","-0348,1","10088,1","12,0000,9,1","24,0000,9,1","0056,9,1,999999,9,9","0,1,06,1","0,1,06,1","00,1,+99999,9,99,9","00,99,1,00,1,00,1,99999,9,00,1,00,1","24,9","999,N,-0321,1","99999,9,09698,1","4,1,000,1,+999,9","02,1","SYN094AAXX  18061 01047 11988 00000 11321 21348 39698 40088 54000 60002 70200 333 21321 48056 70000;","Q01  00002PRCP24Q02  00002PRCP12"
"01047099999","2010-03-18T09:00:00","4","69.0166667","23.0666667","307.0","KAUTOKEINO II, NO","FM-12","ENKA ","V020","180,1,N,0030,1","22000,1,9,N","070000,1,N,1","-0216,1","-0254,1","10077,1",,,,"0,1,03,1","0,1,03,1","00,1,+99999,9,99,9","00,99,1,00,1,00,1,99999,9,00,1,00,1",,,"99999,9,09691,1","7,1,006,1,+999,9","02,1","SYN076AAXX  18091 01047 41988 01803 11216 21254 39691 40077 57006 70200 333 4////;",
"01047099999","2010-03-18T12:00:00","4","69.0166667","23.0666667","307.0","KAUTOKEINO II, NO","FM-12","ENKA ","V020","180,1,N,0030,1","00750,1,9,N","070000,1,N,1","-0150,1","-0190,1","10070,1",,,,"2,1,06,1","0,1,06,1",,"06,99,1,06,1,09,1,00800,1,00,1,00,1",,,"99999,9,09688,1","8,1,004,1,+999,9","03,1","SYN088AAXX  18121 01047 11588 61803 11150 21190 39688 40070 58004 6//// 70320 86900 333 4////;",
"01047099999","2010-03-18T15:00:00","4","69.0166667","23.0666667","307.0","KAUTOKEINO II, NO","FM-12","ENKA ","V020","180,1,N,0030,1","22000,1,9,N","070000,1,N,1","-0128,1","-0180,1","10063,1",,,,"1,1,03,1","1,1,03,1",,"02,99,1,02,1,09,1,00800,1,00,1,00,1",,,"99999,9,09682,1","7,1,006,1,+999,9","01,1","SYN082AAXX  18151 01047 41588 21803 11128 21180 39682 40063 57006 70111 82900 333 4////;",
"01047099999","2010-03-18T18:00:00","4","69.0166667","23.0666667","307.0","KAUTOKEINO II, NO","FM-12","ENKA ","V020","360,1,N,0010,1","22000,1,9,N","070000,1,N,1","-0240,1","-0270,1","10068,1","12,0000,9,1",,,"0,1,06,1","0,1,06,1","00,1,+99999,9,99,9","00,99,1,00,1,00,1,99999,9,00,1,00,1",,"120,M,-0125,1","99999,9,09682,1","4,1,000,1,+999,9","02,1","SYN088AAXX  18181 01047 11988 03601 11240 21270 39682 40068 54000 60002 70200 333 11125 4////;","Q01  00002PRCP12"
"01047099999","2010-03-19T00:00:00","4","69.0166667","23.0666667","307.0","KAUTOKEINO II, NO","FM-12","ENKA ","V020","220,1,N,0050,1","00750,1,9,N","010000,1,N,1","-0262,1","-0292,1","10070,1",,,,"8,1,06,1","1,1,06,1",,"06,99,1,06,1,09,1,00800,1,00,1,00,1",,,"99999,9,09683,1","4,1,000,1,+999,9","85,1","SYN088AAXX  19001 01047 11560 62205 11262 21292 39683 40070 54000 6//// 78581 86900 333 4////;",
"01047099999","2010-03-19T06:00:00","4","69.0166667","23.0666667","307.0","KAUTOKEINO II, NO","FM-12","ENKA ","V020","999,9,C,0000,1","01200,1,9,N","020000,1,N,1","-0228,1","-0253,1","10064,1","12,0000,2,1","24,0003,9,1","0056,9,1,999999,9,9","8,1,06,1","7,1,06,1",,"08,99,1,08,1,00,1,01250,1,02,1,99,9","23,9","999,N,-0286,1","99999,9,09678,1","6,1,004,1,+999,9","70,1","SYN100AAXX  19061 01047 11670 80000 11228 21253 39678 40064 56004 69922 77087 8802/ 333 21286 47056 70002;",
"01047099999","2010-03-19T09:00:00","4","69.0166667","23.0666667","307.0","KAUTOKEINO II, NO","FM-12","ENKA ","V020","180,1,N,0030,1","01200,1,9,N","010000,1,N,1","-0158,1","-0197,1","10045,1",,,,"7,1,03,1","2,1,03,1",,"08,99,1,08,1,00,1,01250,1,02,1,99,9",,,"99999,9,09663,1","7,1,015,1,+999,9","70,1","SYN082AAXX  19091 01047 41660 81803 11158 21197 39663 40045 57015 77072 8802/ 333 4////;",
"01047099999","2010-03-19T12:00:00","4","69.0166667","23.0666667","307.0","KAUTOKEINO II, NO","FM-12","ENKA ","V020","180,1,N,0050,1","01200,1,9,N","070000,1,N,1","-0102,1","-0137,1","10025,1",,,,"7,1,06,1","2,1,06,1",,"08,99,1,08,1,00,1,01250,1,02,1,99,9",,,"99999,9,09647,1","8,1,017,1,+999,9","02,1","SYN088AAXX  19121 01047 11688 81805 11102 21137 39647 40025 58017 6//// 70272 8802/ 333 4////;",
"01047099999","2010-03-19T15:00:00","4","69.0166667","23.0666667","307.0","KAUTOKEINO II, NO","FM-12","ENKA ","V020","180,1,N,0030,1","01200,1,9,N","010000,1,N,1","-0090,1","-0124,1","09999,1",,,,"7,1,03,1","2,1,03,1",,"08,99,1,08,1,00,1,01250,1,02,1,99,9",,,"99999,9,09622,1","7,1,025,1,+999,9","70,1","SYN082AAXX  19151 01047 41660 81803 11090 21124 39622 49999 57025 77072 8802/ 333 4////;",
"01047099999","2010-03-19T18:00:00","4","69.0166667","23.0666667","307.0","KAUTOKEINO II, NO","FM-12","ENKA ","V020","180,1,N,0050,1","01200,1,9,N","010000,1,N,1","-0090,1","-0110,1","09971,1","12,0000,2,1",,,"7,1,06,1","2,1,06,1",,"08,99,1,08,1,00,1,01250,1,02,1,99,9",,"120,M,-0085,1","99999,9,09595,1","7,1,027,1,+999,9","70,1","SYN094AAXX  19181 01047 11660 81805 11090 21110 39595 49971 57027 69922 77072 8802/ 333 11085 4////;",
"01047099999","2010-03-20T00:00:00","4","69.0166667","23.0666667","307.0","KAUTOKEINO II, NO","FM-12","ENKA ","V020","999,9,C,0000,1","01200,1,9,N","010000,1,N,1","-0106,1","-0122,1","09931,1",,,,"7,1,06,1","2,1,06,1",,"08,99,1,08,1,00,1,01250,1,02,1,99,9",,,"99999,9,09556,1","7,1,018,1,+999,9","70,1","SYN088AAXX  20001 01047 11660 80000 11106 21122 39556 49931 57018 6//// 77072 8802/ 333 4////;",
"01047099999","2010-03-20T06:00:00","4","69.0166667","23.0666667","307.0","KAUTOKEINO II, NO","FM-12","ENKA ","V020","999,9,C,0000,1","22000,1,9,N","065000,1,N,1","-0195,1","-0212,1","09921,1","12,0000,2,1","24,0005,9,1","0055,9,1,999999,9,9","7,1,06,1","2,1,06,1",,"04,99,1,04,1,00,1,01750,1,07,1,00,1","24,9","999,N,-0195,1","99999,9,09543,1","6,1,003,1,+999,9","02,1","SYN100AAXX  20061 01047 11787 40000 11195 21212 39543 49921 56003 69922 70272 84070 333 21195 48055 70004;",
"01047099999","2010-03-20T09:00:00","4","69.0166667","23.0666667","307.0","KAUTOKEINO II, NO","FM-12","ENKA ","V020","999,9,C,0000,1","22000,1,9,N","070000,1,N,1","-0164,1","-0194,1","09921,1",,,,"0,1,03,1","0,1,03,1",,"03,99,1,03,1,00,1,01750,1,07,1,00,1",,,"99999,9,09544,1","5,1,000,1,+999,9","02,1","SYN082AAXX  20091 01047 41788 30000 11164 21194 39544 49921 55000 70200 83070 333 4////;",
"01047099999","2010-03-20T12:00:00","4","69.0166667","23.0666667","307.0","KAUTOKEINO II, NO","FM-12","ENKA ","V020","360,1,N,0030,1","22000,1,9,N","070000,1,N,1","-0106,1","-0168,1","09918,1",,,,"0,1,06,1","0,1,06,1","00,1,+99999,9,99,9","00,99,1,00,1,00,1,99999,9,00,1,00,1",,,"99999,9,09543,1","4,1,000,1,+999,9","02,1","SYN082AAXX  20121 01047 11988 03603 11106 21168 39543 49918 54000 6//// 70200 333 4////;",
"01047099999","2010-03-20T15:00:00","4","69.0166667","23.0666667","307.0","KAUTOKEINO II, NO","FM-12","ENKA ","V020","360,1,N,0030,1","22000,1,9,N","070000,1,N,1","-0074,1","-0141,1","09918,1",,,,"0,1,03,1","0,1,03,1",,"01,99,1,01,1,01,1,01250,1,00,1,00,1",,,"99999,9,09544,1","4,1,000,1,+999,9","02,1","SYN082AAXX  20151 01047 41688 13603 11074 21141 39544 49918 54000 70200 81100 333 4////;",
"01047099999","2010-03-20T18:00:00","4","69.0166667","23.0666667","307.0","KAUTOKEINO II, NO","FM-12","ENKA ","V020","360,1,N,0050,1","22000,1,9,N","070000,1,N,1","-0102,1","-0127,1","09940,1","12,0000,9,1",,,"0,1,06,1","0,1,06,1",,"02,99,1,02,1,04,1,01250,1,00,1,00,1",,"120,M,-0070,1","99999,9,09564,1","3,1,020,1,+999,9","02,1","SYN094AAXX  20181 01047 11688 23605 11102 21127 39564 49940 53020 60002 70200 82400 333 11070 4////;","Q01  00002PRCP12"
"01047099999","2010-03-21T00:00:00","4","69.0166667","23.0666667","307.0","KAUTOKEINO II, NO","FM-12","ENKA ","V020","180,1,N,0010,1","22000,1,9,N","070000,1,N,1","-0202,1","-0224,1","09973,1",,,,"0,1,06,1","0,1,06,1","00,1,+99999,9,99,9","00,99,1,00,1,00,1,99999,9,00,1,00,1",,,"99999,9,09592,1","2,1,012,1,+999,9","02,1","SYN082AAXX  21001 01047 11988 01801 11202 21224 39592 49973 52012 6//// 70200 333 4////;",
"01047099999","2010-03-21T06:00:00","4","69.0166667","23.0666667","307.0","KAUTOKEINO II, NO","FM-12","ENKA ","V020","180,1,N,0030,1","22000,1,9,N","070000,1,N,1","-0213,1","-0232,1","09981,1","12,0000,9,1","24,0000,9,1","0055,9,1,999999,9,9","0,1,06,1","0,1,06,1",,"02,99,1,02,1,00,1,01750,1,07,1,00,1","24,9","999,N,-0232,1","99999,9,09600,1","4,1,000,1,+999,9","02,1","SYN100AAXX  21061 01047 11788 21803 11213 21232 39600 49981 54000 60002 70200 82070 333 21232 48055 70000;","Q01  00002PRCP24Q02  00002PRCP12"
"01047099999","2010-03-21T09:00:00","4","69.0166667","23.0666667","307.0","KAUTOKEINO II, NO","FM-12","ENKA ","V020","180,1,N,0030,1","22000,1,9,N","070000,1,N,1","-0092,1","-0147,1","09976,1",,,,"0,1,03,1","0,1,03,1",,"03,99,1,03,1,00,1,01750,1,07,1,00,1",,,"99999,9,09599,1","4,1,000,1,+999,9","02,1","SYN082AAXX  21091 01047 41788 31803 11092 21147 39599 49976 54000 70200 83070 333 4////;",
"01047099999","2010-03-21T12:00:00","4","69.0166667","23.0666667","307.0","KAUTOKEINO II, NO","FM-12","ENKA ","V020","180,1,N,0030,1","22000,1,9,N","070000,1,N,1","-0048,1","-0134,1","09979,1",,,,"0,1,06,1","0,1,06,1",,"03,99,1,00,1,00,1,99999,9,00,1,02,1",,,"99999,9,09604,1","2,1,005,1,+999,9","02,1","SYN088AAXX  21121 01047 11988 31803 11048 21134 39604 49979 52005 6//// 70200 80002 333 4////;",
"01047099999","2010-03-21T15:00:00","4","69.0166667","23.0666667","307.0","KAUTOKEINO II, NO","FM-12","ENKA ","V020","180,1,N,0030,1","22000,1,9,N","070000,1,N,1","-0058,1","-0136,1","09978,1",,,,"0,1,03,1","0,1,03,1",,"04,99,1,00,1,00,1,99999,9,00,1,02,1",,,"99999,9,09603,1","4,1,000,1,+999,9","02,1","SYN082AAXX  21151 01047 41988 41803 11058 21136 39603 49978 54000 70200 80002 333 4////;",
"01047099999","2010-03-21T18:00:00","4","69.0166667","23.0666667","307.0","KAUTOKEINO II, NO","FM-12","ENKA ","V020","180,1,N,0050,1","22000,1,9,N","070000,1,N,1","-0154,1","-0200,1","09975,1","12,0000,9,1",,,"0,1,06,1","0,1,06,1",,"02,99,1,02,1,04,1,01250,1,00,1,00,1",,"120,M,-0045,1","99999,9,09596,1","7,1,006,1,+999,9","02,1","SYN094AAXX  21181 01047 11688 21805 11154 21200 39596 49975 57006 60002 70200 82400 333 11045 4////;","Q01  00002PRCP12"
"01047099999","2010-03-22T00:00:00","4","69.0166667","23.0666667","307.0","KAUTOKEINO II, NO","FM-12","ENKA ","V020","180,1,N,0050,1","22000,1,9,N","070000,1,N,1","-0186,1","-0201,1","09973,1",,,,"0,1,06,1","0,1,06,1","00,1,+99999,9,99,9","00,99,1,00,1,00,1,99999,9,00,1,00,1",,,"99999,9,09592,1","7,1,004,1,+999,9","02,1","SYN082AAXX  22001 01047 11988 01805 11186 21201 39592 49973 57004 6//// 70200 333 4////;",
"01047099999","2010-03-22T06:00:00","4","69.0166667","23.0666667","307.0","KAUTOKEINO II, NO","FM-12","ENKA ","V020","180,1,N,0050,1","00750,1,9,N","070000,1,N,1","-0199,1","-0217,1","09971,1","12,0000,9,1","24,0000,9,1","0055,9,1,999999,9,9","2,1,06,1","0,1,06,1",,"06,99,1,06,1,04,1,00800,1,00,1,00,1","24,9","999,N,-0223,1","99999,9,09591,1","6,1,002,1,+999,9","03,1","SYN100AAXX  22061 01047 11588 61805 11199 21217 39591 49971 56002 60002 70320 86400 333 21223 48055 70000;","Q01  00002PRCP24Q02  00002PRCP12"
"01047099999","2010-03-22T09:00:00","4","69.0166667","23.0666667","307.0","KAUTOKEINO II, NO","FM-12","ENKA ","V020","140,1,N,0030,1","00750,1,9,N","070000,1,N,1","-0076,1","-0126,1","09962,1",,,,"2,1,03,1","2,1,03,1",,"08,99,1,08,1,05,1,00800,1,99,9,99,9",,,"99999,9,09586,1","6,1,004,1,+999,9","02,1","SYN082AAXX  22091 01047 41588 81403 11076 21126 39586 49962 56004 70222 885// 333 4////;",
"01047099999","2010-03-22T12:00:00","4","69.0166667","23.0666667","307.0","KAUTOKEINO II, NO","FM-12","ENKA ","V020","320,1,N,0070,1","03000,1,9,N","070000,1,N,1","-0042,1","-0111,1","09974,1",,,,"2,1,06,1","2,1,06,1",,"08,99,1,02,1,05,1,00800,1,02,1,99,9",,,"99999,9,09600,1","3,1,013,1,+999,9","02,1","SYN088AAXX  22121 01047 11588 83207 11042 21111 39600 49974 53013 6//// 70222 8252/ 333 4////;",
"01047099999","2010-03-22T15:00:00","4","69.0166667","23.0666667","307.0","KAUTOKEINO II, NO","FM-12","ENKA ","V020","320,1,N,0100,1","00750,1,9,N","000500,1,N,1","-0042,1","-0079,1","09985,1",,,,"8,1,03,1","2,1,03,1",,"08,99,1,08,1,09,1,00800,1,99,9,99,9",,,"99999,9,09611,1","2,1,011,1,+999,9","86,1","SYN082AAXX  22151 01047 41505 83210 11042 21079 39611 49985 52011 78682 889// 333 4////;",
"01047099999","2010-03-22T18:00:00","4","69.0166667","23.0666667","307.0","KAUTOKEINO II, NO","FM-12","ENKA ","V020","320,1,N,0100,1","00750,1,9,N","070000,1,N,1","-0044,1","-0079,1","09994,1","12,0000,2,1",,,"8,1,06,1","2,1,06,1",,"06,99,1,06,1,09,1,00800,1,00,1,00,1",,"120,M,-0040,1","99999,9,09619,1","2,1,008,1,+999,9","02,1","SYN094AAXX  22181 01047 11588 63210 11044 21079 39619 49994 52008 69912 70282 86900 333 11040 4////;",
"01047099999","2010-03-23T00:00:00","4","69.0166667","23.0666667","307.0","KAUTOKEINO II, NO","FM-12","ENKA ","V020","320,1,N,0100,1","22000,1,9,N","070000,1,N,1","-0076,1","-0100,1","10027,1",,,,"2,1,06,1","0,1,06,1","00,1,+99999,9,99,9","00,99,1,00,1,00,1,99999,9,00,1,00,1",,,"99999,9,09649,1","1,1,008,1,+999,9","02,1","SYN082AAXX  23001 01047 11988 03210 11076 21100 39649 40027 51008 6//// 70220 333 4////;",
"01047099999","2010-03-23T06:00:00","4","69.0166667","23.0666667","307.0","KAUTOKEINO II, NO","FM-12","ENKA ","V020","320,1,N,0050,1","03000,1,9,N","070000,1,N,1","-0060,1","-0086,1","10048,1","12,0000,9,1","24,0000,2,1","0054,9,1,999999,9,9","2,1,06,1","0,1,06,1",,"07,99,1,02,1,04,1,01250,1,07,1,00,1","24,9","999,N,-0085,1","99999,9,09670,1","3,1,005,1,+999,9","03,1","SYN100AAXX  23061 01047 11688 73205 11060 21086 39670 40048 53005 60002 70320 82470 333 21085 48054 70001;","Q01  00002PRCP12"
"01047099999","2010-03-23T09:00:00","4","69.0166667","23.0666667","307.0","KAUTOKEINO II, NO","FM-12","ENKA ","V020","340,1,N,0050,1","00750,1,9,N","070000,1,N,1","-0040,1","-0080,1","10062,1",,,,"2,1,03,1","2,1,03,1",,"08,99,1,05,1,05,1,00800,1,02,1,99,9",,,"99999,9,09685,1","2,1,014,1,+999,9","02,1","SYN082AAXX  23091 01047 41588 83405 11040 21080 39685 40062 52014 70222 8552/ 333 4////;",
"01047099999","2010-03-23T12:00:00","4","69.0166667","23.0666667","307.0","KAUTOKEINO II, NO","FM-12","ENKA ","V020","340,1,N,0050,1","00750,1,9,N","070000,1,N,1","-0020,1","-0076,1","10074,1",,,,"2,1,06,1","2,1,06,1",,"06,99,1,05,1,09,1,00800,1,04,1,00,1",,,"99999,9,09697,1","2,1,012,1,+999,9","02,1","SYN088AAXX  23121 01047 11588 63405 11020 21076 39697 40074 52012 6//// 70222 85940 333 4////;",
"01047099999","2010-03-23T15:00:00","4","69.0166667","23.0666667","307.0","KAUTOKEINO II, NO","FM-12","ENKA ","V020","340,1,N,0050,1","03000,1,9,N","070000,1,N,1","-0035,1","-0092,1","10081,1",,,,"2,1,03,1","2,1,03,1",,"05,99,1,03,1,09,1,00800,1,04,1,00,1",,,"99999,9,09703,1","1,1,006,1,+999,9","02,1","SYN082AAXX  23151 01047 41588 53405 11035 21092 39703 40081 51006 70222 83940 333 4////;",
"01047099999","2010-03-23T18:00:00","4","69.0166667","23.0666667","307.0","KAUTOKEINO II, NO","FM-12","ENKA ","V020","340,1,N,0030,1","22000,1,9,N","070000,1,N,1","-0096,1","-0124,1","10093,1","12,0000,9,1",,,"1,1,06,1","1,1,06,1",,"04,99,1,02,1,04,1,01250,1,04,1,00,1",,"120,M,-0015,1","99999,9,09712,1","2,1,009,1,+999,9","02,1","SYN094AAXX  23181 01047 11688 43403 11096 21124 39712 40093 52009 60002 70211 82440 333 11015 4////;","Q01  00002PRCP12"
"01047099999","2010-03-24T00:00:00","4","69.0166667","23.0666667","307.0","KAUTOKEINO II, NO","FM-12","ENKA ","V020","340,1,N,0010,1","22000,1,9,N","070000,1,N,1","-0170,1","-0185,1","10127,1",,,,"0,1,06,1","0,1,06,1",,"02,99,1,02,1,04,1,01250,1,00,1,00,1",,,"99999,9,09742,1","2,1,010,1,+999,9","02,1","SYN088AAXX  24001 01047 11688 23401 11170 21185 39742 40127 52010 6//// 70200 82400 333 4////;",
"01047099999","2010-03-24T06:00:00","4","69.0166667","23.0666667","307.0","KAUTOKEINO II, NO","FM-12","ENKA ","V020","999,9,C,0000,1","22000,1,9,N","070000,1,N,1","-0230,1","-0249,1","10153,1","12,0000,9,1","24,0000,9,1","0054,9,1,999999,9,9","0,1,06,1","0,1,06,1","00,1,+99999,9,99,9","00,99,1,00,1,00,1,99999,9,00,1,00,1","24,9","999,N,-0234,1","99999,9,09764,1","3,1,009,1,+999,9","02,1","SYN094AAXX  24061 01047 11988 00000 11230 21249 39764 40153 53009 60002 70200 333 21234 48054 70000;","Q01  00002PRCP24Q02  00002PRCP12"
"01047099999","2010-03-24T09:00:00","4","69.0166667","23.0666667","307.0","KAUTOKEINO II, NO","FM-12","ENKA ","V020","360,1,N,0030,1","22000,1,9,N","070000,1,N,1","+9999,9","+9999,9","10158,1",,,,"0,1,03,1","0,1,03,1",,"01,99,1,01,1,01,1,01250,1,00,1,00,1",,,"99999,9,09775,1","2,1,011,1,+999,9","02,1","SYN082AAXX  24091 01047 41688 13603 11098 21139 39775 40158 52011 70200 81100 333 4////;","Q01-000983ATOT  "
"01047099999","2010-03-24T12:00:00","4","69.0166667","23.0666667","307.0","KAUTOKEINO II, NO","FM-12","ENKA ","V020","360,1,N,0030,1","22000,1,9,N","070000,1,N,1","-0036,2","-0093,1","10167,1",,,,"0,1,06,1","0,1,06,1",,"03,99,1,03,1,01,1,01250,1,00,1,00,1",,,"99999,9,09786,1","2,1,011,1,+999,9","02,1","SYN088AAXX  24121 01047 11688 33603 11036 21093 39786 40167 52011 6//// 70200 83100 333 4////;",
"01047099999","2010-03-24T15:00:00","4","69.0166667","23.0666667","307.0","KAUTOKEINO II, NO","FM-12","ENKA ","V020","360,1,N,0050,1","22000,1,9,N","070000,1,N,1","-0042,1","-0099,1","10175,1",,,,"0,1,03,1","0,1,03,1",,"01,99,1,00,1,00,1,99999,9,00,1,01,1",,,"99999,9,09793,1","1,1,007,1,+999,9","02,1","SYN082AAXX  24151 01047 41988 13605 11042 21099 39793 40175 51007 70200 80001 333 4////;",
"01047099999","2010-03-24T18:00:00","4","69.0166667","23.0666667","307.0","KAUTOKEINO II, NO","FM-12","ENKA ","V020","360,1,N,0030,1","22000,1,9,N","070000,1,N,1","-0122,1","-0149,1","10189,1","12,0000,9,1",,,"0,1,06,1","0,1,06,1",,"02,99,1,02,1,00,1,02250,1,04,1,00,1",,"120,M,-0028,1","99999,9,09804,1","2,1,011,1,+999,9","02,1","SYN094AAXX  24181 01047 11888 23603 11122 21149 39804 40189 52011 60002 70200 82040 333 11028 4////;","Q01  00002PRCP12"
"01047099999","2010-03-25T00:00:00","4","69.0166667","23.0666667","307.0","KAUTOKEINO II, NO","FM-12","ENKA ","V020","180,1,N,0030,1","22000,1,9,N","070000,1,N,1","-0208,1","-0226,1","10208,1",,,,"0,1,06,1","0,1,06,1","00,1,+99999,9,99,9","00,99,1,00,1,00,1,99999,9,00,1,00,1",,,"99999,9,09818,1","1,1,005,1,+999,9","02,1","SYN082AAXX  25001 01047 11988 01803 11208 21226 39818 40208 51005 6//// 70200 333 4////;",
"01047099999","2010-03-25T06:00:00","4","69.0166667","23.0666667","307.0","KAUTOKEINO II, NO","FM-12","ENKA ","V020","180,1,N,0030,1","22000,1,9,N","070000,1,N,1","-0239,1","-0260,1","99999,9","12,0000,9,1","24,0000,9,1","0054,9,1,999999,9,9","0,1,06,1","0,1,06,1",,"02,99,1,00,1,00,1,99999,9,00,1,08,1","24,9","999,N,-0271,1",,"8,1,004,1,+999,9","02,1","SYN088AAXX  25061 01047 11988 21803 11239 21260 58004 60002 70200 80008 333 21271 48054 70000;","Q01  00002PRCP24Q02  00002PRCP12"
"01047099999","2010-03-25T09:00:00","4","69.0166667","23.0666667","307.0","KAUTOKEINO II, NO","FM-12","ENKA ","V020","180,1,N,0050,1","99999,9,9,N","070000,1,N,1","-0111,1","-0138,1","10186,1",,,,"2,1,03,1","0,1,03,1",,"06,99,1,00,1,00,1,99999,9,00,1,08,1",,,"99999,9,09801,1","7,1,009,1,+999,9","02,1","SYN082AAXX  25091 01047 41988 61805 11111 21138 39801 40186 57009 70220 80008 333 4////;",
"01047099999","2010-03-25T12:00:00","4","69.0166667","23.0666667","307.0","KAUTOKEINO II, NO","FM-12","ENKA ","V020","180,1,N,0070,1","99999,9,9,N","070000,1,N,1","-0060,1","-0140,1","10176,1",,,,"2,1,06,1","2,1,06,1",,"05,99,1,00,1,00,1,99999,9,00,1,08,1",,,"99999,9,09793,1","7,1,007,1,+999,9","02,1","SYN088AAXX  25121 01047 11988 51807 11060 21140 39793 40176 57007 6//// 70222 80008 333 4////;",
"01047099999","2010-03-25T15:00:00","4","69.0166667","23.0666667","307.0","KAUTOKEINO II, NO","FM-12","ENKA ","V020","160,1,N,0050,1","22000,1,9,N","070000,1,N,1","-0050,1","-0124,1","10155,1",,,,"2,1,03,1","0,1,03,1",,"02,99,1,00,1,00,1,99999,9,00,1,08,1",,,"99999,9,09774,1","8,1,020,1,+999,9","01,1","SYN082AAXX  25151 01047 41988 21605 11050 21124 39774 40155 58020 70120 80008 333 4////;",
"01047099999","2010-03-25T18:00:00","4","69.0166667","23.0666667","307.0","KAUTOKEINO II, NO","FM-12","ENKA ","V020","160,1,N,0030,1","01200,1,9,N","070000,1,N,1","-0086,1","-0141,1","10144,1","12,0000,9,1",,,"2,1,06,1","0,1,06,1",,"08,99,1,08,1,00,1,01250,1,02,1,99,9",,"120,M,-0040,1","99999,9,09761,1","7,1,012,1,+999,9","02,1","SYN094AAXX  25181 01047 11688 81603 11086 21141 39761 40144 57012 60002 70220 8802/ 333 11040 4////;","Q01  00002PRCP12"
"01047099999","2010-03-26T00:00:00","4","69.0166667","23.0666667","307.0","KAUTOKEINO II, NO","FM-12","ENKA ","V020","999,9,C,0000,1","01500,1,9,N","070000,1,N,1","-0150,1","-0169,1","10116,1",,,,"2,1,06,1","2,1,06,1",,"05,99,1,05,1,00,1,01750,1,07,1,00,1",,,"99999,9,09732,1","7,1,008,1,+999,9","02,1","SYN088AAXX  26001 01047 11788 50000 11150 21169 39732 40116 57008 6//// 70222 85070 333 4////;",
"01047099999","2010-03-26T06:00:00","4","69.0166667","23.0666667","307.0","KAUTOKEINO II, NO","FM-12","ENKA ","V020","999,9,C,0000,1","01500,1,9,N","070000,1,N,1","-0236,1","-0255,1","10157,1","12,0000,9,1","24,0000,9,1","0054,9,1,999999,9,9","2,1,06,1","2,1,06,1",,"06,99,1,06,1,00,1,01750,1,07,1,00,1","24,9","999,N,-0236,1","99999,9,09768,1","6,1,004,1,+999,9","02,1","SYN100AAXX  26061 01047 11788 60000 11236 21255 39768 40157 56004 60002 70222 86070 333 21236 48054 70000;","Q01  00002PRCP24Q02  00002PRCP12"
"01047099999","2010-03-26T09:00:00","4","69.0166667","23.0666667","307.0","KAUTOKEINO II, NO","FM-12","ENKA ","V020","090,1,N,0010,1","22000,1,9,N","070000,1,N,1","-0108,1","-0155,1","10090,1",,,,"1,1,03,1","1,1,03,1",,"04,99,1,00,1,00,1,99999,9,00,1,08,1",,,"99999,9,09709,1","7,1,009,1,+999,9","02,1","SYN082AAXX  26091 01047 41988 40901 11108 21155 39709 40090 57009 70211 80008 333 4////;",
"01047099999","2010-03-26T12:00:00","4","69.0166667","23.0666667","307.0","KAUTOKEINO II, NO","FM-12","ENKA ","V020","050,1,N,0030,1","99999,9,9,N","070000,1,N,1","-0062,1","-0126,1","10084,1",,,,"2,1,06,1","2,1,06,1",,"05,99,1,00,1,00,1,99999,9,00,1,08,1",,,"99999,9,09705,1","6,1,003,1,+999,9","02,1","SYN088AAXX  26121 01047 11988 50503 11062 21126 39705 40084 56003 6//// 70222 80008 333 4////;",
"01047099999","2010-03-26T15:00:00","4","69.0166667","23.0666667","307.0","KAUTOKEINO II, NO","FM-12","ENKA ","V020","050,1,N,0030,1","00750,1,9,N","070000,1,N,1","-0036,1","-0086,1","10080,1",,,,"2,1,03,1","2,1,03,1",,"07,99,1,07,1,05,1,00800,1,00,1,00,1",,,"99999,9,09702,1","7,1,004,1,+999,9","02,1","SYN082AAXX  26151 01047 41588 70503 11036 21086 39702 40080 57004 70222 87500 333 4////;",
"01047099999","2010-03-26T18:00:00","4","69.0166667","23.0666667","307.0","KAUTOKEINO II, NO","FM-12","ENKA ","V020","050,1,N,0030,1","00750,1,9,N","070000,1,N,1","-0032,1","-0072,1","10083,1","12,0000,9,1",,,"2,1,06,1","2,1,06,1",,"08,99,1,08,1,05,1,00800,1,99,9,99,9",,"120,M,-0028,1","99999,9,09706,1","2,1,004,1,+999,9","02,1","SYN094AAXX  26181 01047 11588 80503 11032 21072 39706 40083 52004 60002 70222 885// 333 11028 4////;","Q01  00002PRCP12"
"01047099999","2010-03-27T00:00:00","4","69.0166667","23.0666667","307.0","KAUTOKEINO II, NO","FM-12","ENKA ","V020","050,1,N,0030,1","00750,1,9,N","070000,1,N,1","-0080,1","-0096,1","10099,1",,,,"2,1,06,1","2,1,06,1",,"05,99,1,05,1,05,1,00800,1,00,1,00,1",,,"99999,9,09718,1","2,1,005,1,+999,9","02,1","SYN088AAXX  27001 01047 11588 50503 11080 21096 39718 40099 52005 6//// 70222 85500 333 4////;",
"01047099999","2010-03-27T06:00:00","4","69.0166667","23.0666667","307.0","KAUTOKEINO II, NO","FM-12","ENKA ","V020","050,1,N,0010,1","00750,1,9,N","070000,1,N,1","-0125,1","-0138,1","10108,1","12,0000,9,1","24,0000,9,1","0054,9,1,999999,9,9","2,1,06,1","2,1,06,1",,"06,99,1,06,1,05,1,00800,1,00,1,00,1","24,9","999,N,-0143,1","99999,9,09725,1","4,1,000,1,+999,9","02,1","SYN100AAXX  27061 01047 11588 60501 11125 21138 39725 40108 54000 60002 70222 86500 333 21143 48054 70000;","Q01  00002PRCP24Q02  00002PRCP12"
"01047099999","2010-03-27T09:00:00","4","69.0166667","23.0666667","307.0","KAUTOKEINO II, NO","FM-12","ENKA ","V020","160,1,N,0050,1","22000,1,9,N","070000,1,N,1","-0052,1","-0085,1","10107,1",,,,"2,1,03,1","2,1,03,1",,"05,99,1,02,1,09,1,00800,1,00,1,08,1",,,"99999,9,09728,1","1,1,002,1,+999,9","02,1","SYN082AAXX  27091 01047 41588 51605 11052 21085 39728 40107 51002 70222 82908 333 4////;",
"01047099999","2010-03-27T12:00:00","4","69.0166667","23.0666667","307.0","KAUTOKEINO II, NO","FM-12","ENKA ","V020","160,1,N,0010,1","99999,9,9,N","070000,1,N,1","-0050,1","-0085,1","10106,1",,,,"2,1,06,1","2,1,06,1",,"08,99,1,08,1,00,1,01250,1,01,1,99,9",,,"99999,9,09726,1","4,1,000,1,+999,9","02,1","SYN088AAXX  27121 01047 11688 81601 11050 21085 39726 40106 54000 6//// 70222 8801/ 333 4////;",
"01047099999","2010-03-27T15:00:00","4","69.0166667","23.0666667","307.0","KAUTOKEINO II, NO","FM-12","ENKA ","V020","140,1,N,0010,1","01200,1,9,N","010000,1,N,1","-0042,1","-0085,1","10098,1",,,,"7,1,03,1","2,1,03,1",,"08,99,1,08,1,00,1,01250,1,02,1,99,9",,,"99999,9,09719,1","7,1,007,1,+999,9","71,1","SYN082AAXX  27151 01047 41660 81401 11042 21085 39719 40098 57007 77172 8802/ 333 4////;",
"01047099999","2010-03-27T18:00:00","4","69.0166667","23.0666667","307.0","KAUTOKEINO II, NO","FM-12","ENKA ","V020","140,1,N,0010,1","01200,1,9,N","010000,1,N,1","-0056,1","-0082,1","10094,1","12,0000,2,1",,,"7,1,06,1","2,1,06,1",,"08,99,1,08,1,00,1,01250,1,02,1,99,9",,"120,M,-0030,1","99999,9,09715,1","7,1,005,1,+999,9","70,1","SYN094AAXX  27181 01047 11660 81401 11056 21082 39715 40094 57005 69912 77072 8802/ 333 11030 4////;",
"01047099999","2010-03-28T00:00:00","4","69.0166667","23.0666667","307.0","KAUTOKEINO II, NO","FM-12","ENKA ","V020","050,1,N,0050,1","01200,1,9,N","070000,1,N,1","-0074,1","-0099,1","10085,1",,,,"7,1,06,1","2,1,06,1",,"08,99,1,08,1,00,1,01250,1,02,1,99,9",,,"99999,9,09705,1","8,1,005,1,+999,9","02,1","SYN088AAXX  28001 01047 11688 80505 11074 21099 39705 40085 58005 6//// 70272 8802/ 333 4////;",
"01047099999","2010-03-28T06:00:00","4","69.0166667","23.0666667","307.0","KAUTOKEINO II, NO","FM-12","ENKA ","V020","050,1,N,0050,1","01200,1,9,N","070000,1,N,1","-0073,1","-0101,1","10072,1","12,0003,9,1","24,0005,9,1","0053,9,1,999999,9,9","7,1,06,1","2,1,06,1",,"08,99,1,08,1,00,1,01250,1,02,1,99,9","24,9","999,N,-0080,1","99999,9,09693,1","7,1,006,1,+999,9","02,1","SYN100AAXX  28061 01047 11688 80505 11073 21101 39693 40072 57006 69932 70272 8802/ 333 21080 48053 70004;",
"01047099999","2010-03-28T09:00:00","4","69.0166667","23.0666667","307.0","KAUTOKEINO II, NO","FM-12","ENKA ","V020","050,1,N,0050,1","01200,1,9,N","025000,1,N,1","-0054,1","-0084,1","10058,1",,,,"7,1,03,1","2,1,03,1",,"08,99,1,08,1,00,1,01250,1,02,1,99,9",,,"99999,9,09680,1","8,1,012,1,+999,9","70,1","SYN082AAXX  28091 01047 41675 80505 11054 21084 39680 40058 58012 77072 8802/ 333 4////;",
"01047099999","2010-03-28T12:00:00","4","69.0166667","23.0666667","307.0","KAUTOKEINO II, NO","FM-12","ENKA ","V020","050,1,N,0100,1","01200,1,9,N","004000,1,N,1","-0054,1","-0080,1","10041,1",,,,"7,1,06,1","3,1,06,1",,"08,99,1,08,1,00,1,01250,1,02,1,99,9",,,"99999,9,09664,1","7,1,017,1,+999,9","71,1","SYN088AAXX  28121 01047 11640 80510 11054 21080 39664 40041 57017 6//// 77173 8802/ 333 4////;",
"01047099999","2010-03-28T15:00:00","4","69.0166667","23.0666667","307.0","KAUTOKEINO II, NO","FM-12","ENKA ","V020","050,1,N,0100,1","01200,1,9,N","003000,1,N,1","-0050,1","-0079,1","10028,1",,,,"7,1,03,1","3,1,03,1",,"08,99,1,08,1,00,1,01250,1,02,1,99,9",,,"99999,9,09652,1","7,1,012,1,+999,9","71,1","SYN082AAXX  28151 01047 41630 80510 11050 21079 39652 40028 57012 77173 8802/ 333 4////;",
"01047099999","2010-03-28T18:00:00","4","69.0166667","23.0666667","307.0","KAUTOKEINO II, NO","FM-12","ENKA ","V020","050,1,N,0070,1","01200,1,9,N","006000,1,N,1","-0056,1","-0085,1","10026,1","12,0000,2,1",,,"7,1,06,1","3,1,06,1",,"08,99,1,08,1,00,1,01250,1,02,1,99,9",,"120,M,-0045,1","99999,9,09649,1","6,1,002,1,+999,9","70,1","SYN094AAXX  28181 01047 11656 80507 11056 21085 39649 40026 56002 69912 77073 8802/ 333 11045 4////;",
"01047099999","2010-03-29T00:00:00","4","69.0166667","23.0666667","307.0","KAUTOKEINO II, NO","FM-12","ENKA ","V020","050,1,N,0070,1","01200,1,9,N","006000,1,N,1","-0072,1","-0097,1","10018,1",,,,"7,1,06,1","2,1,06,1",,"08,99,1,08,1,00,1,01250,1,02,1,99,9",,,"99999,9,09641,1","7,1,004,1,+999,9","71,1","SYN088AAXX  29001 01047 11656 80507 11072 21097 39641 40018 57004 6//// 77172 8802/ 333 4////;",
"01047099999","2010-03-29T06:00:00","4","69.0166667","23.0666667","307.0","KAUTOKEINO II, NO","FM-12","ENKA ","V020","050,1,N,0050,1","01200,1,9,N","006000,1,N,1","-0074,1","-0097,1","10023,1","12,0000,2,1","24,0003,9,1","0055,9,1,999999,9,9","7,1,06,1","2,1,06,1",,"08,99,1,08,1,00,1,01250,1,02,1,99,9","24,9","999,N,-0076,1","99999,9,09646,1","4,1,000,1,+999,9","71,1","SYN100AAXX  29061 01047 11656 80505 11074 21097 39646 40023 54000 69922 77172 8802/ 333 21076 48055 70003;",
"01047099999","2010-03-29T09:00:00","4","69.0166667","23.0666667","307.0","KAUTOKEINO II, NO","FM-12","ENKA ","V020","050,1,N,0070,1","00750,1,9,N","070000,1,N,1","-0058,1","-0093,1","10024,1",,,,"7,1,03,1","2,1,03,1",,"08,99,1,08,1,09,1,00800,1,99,9,99,9",,,"99999,9,09648,1","2,1,002,1,+999,9","02,1","SYN082AAXX  29091 01047 41588 80507 11058 21093 39648 40024 52002 70272 889// 333 4////;",
"01047099999","2010-03-29T12:00:00","4","69.0166667","23.0666667","307.0","KAUTOKEINO II, NO","FM-12","ENKA ","V020","050,1,N,0050,1","01200,1,9,N","070000,1,N,1","-0050,1","-0086,1","10027,1",,,,"2,1,06,1","2,1,06,1",,"08,99,1,08,1,00,1,01250,1,02,1,99,9",,,"99999,9,09651,1","2,1,003,1,+999,9","02,1","SYN088AAXX  29121 01047 11688 80505 11050 21086 39651 40027 52003 6//// 70222 8802/ 333 4////;",
"01047099999","2010-03-29T15:00:00","4","69.0166667","23.0666667","307.0","KAUTOKEINO II, NO","FM-12","ENKA ","V020","050,1,N,0050,1","01200,1,9,N","004000,1,N,1","-0050,1","-0079,1","10030,1",,,,"7,1,03,1","2,1,03,1",,"08,99,1,08,1,00,1,01250,1,02,1,99,9",,,"99999,9,09653,1","2,1,002,1,+999,9","71,1","SYN082AAXX  29151 01047 41640 80505 11050 21079 39653 40030 52002 77172 8802/ 333 4////;",
"01047099999","2010-03-29T18:00:00","4","69.0166667","23.0666667","307.0","KAUTOKEINO II, NO","FM-12","ENKA ","V020","050,1,N,0050,1","01200,1,9,N","010000,1,N,1","-0058,1","-0078,1","10032,1","12,0000,2,1",,,"7,1,06,1","7,1,06,1",,"08,99,1,08,1,00,1,01250,1,02,1,99,9",,"120,M,-0045,1","99999,9,09655,1","2,1,002,1,+999,9","71,1","SYN094AAXX  29181 01047 11660 80505 11058 21078 39655 40032 52002 69922 77177 8802/ 333 11045 4////;",
"01047099999","2010-03-30T00:00:00","4","69.0166667","23.0666667","307.0","KAUTOKEINO II, NO","FM-12","ENKA ","V020","050,1,N,0030,1","01200,1,9,N","070000,1,N,1","-0066,1","-0086,1","10030,1",,,,"7,1,06,1","2,1,06,1",,"08,99,1,08,1,00,1,01250,1,02,1,99,9",,,"99999,9,09653,1","4,1,000,1,+999,9","02,1","SYN088AAXX  30001 01047 11688 80503 11066 21086 39653 40030 54000 6//// 70272 8802/ 333 4////;",
"01047099999","2010-03-30T06:00:00","4","69.0166667","23.0666667","307.0","KAUTOKEINO II, NO","FM-12","ENKA ","V020","050,1,N,0050,1","01200,1,9,N","020000,1,N,1","-0071,1","-0091,1","10027,1","12,0010,9,1","24,0015,9,1","0058,9,1,999999,9,9","7,1,06,1","2,1,06,1",,"08,99,1,08,1,00,1,01250,1,02,1,99,9","23,9","999,N,-0073,1","99999,9,09649,1","8,1,002,1,+999,9","70,1","SYN100AAXX  30061 01047 11670 80505 11071 21091 39649 40027 58002 60012 77072 8802/ 333 21073 47058 70014;",
"01047099999","2010-03-30T09:00:00","4","69.0166667","23.0666667","307.0","KAUTOKEINO II, NO","FM-12","ENKA ","V020","090,1,N,0050,1","01200,1,9,N","004000,1,N,1","-0062,1","-0088,1","10027,1",,,,"7,1,03,1","7,1,03,1",,"08,99,1,08,1,00,1,01250,1,02,1,99,9",,,"99999,9,09650,1","4,1,000,1,+999,9","71,1","SYN082AAXX  30091 01047 41640 80905 11062 21088 39650 40027 54000 77177 8802/ 333 4////;",
"01047099999","2010-03-30T12:00:00","4","69.0166667","23.0666667","307.0","KAUTOKEINO II, NO","FM-12","ENKA ","V020","090,1,N,0050,1","01200,1,9,N","070000,1,N,1","-0052,1","-0087,1","10032,1",,,,"7,1,06,1","7,1,06,1",,"08,99,1,08,1,00,1,01250,1,02,1,99,9",,,"99999,9,09655,1","2,1,006,1,+999,9","22,1","SYN088AAXX  30121 01047 11688 80905 11052 21087 39655 40032 52006 6//// 72277 8802/ 333 4////;",
"01047099999","2010-03-30T15:00:00","4","69.0166667","23.0666667","307.0","KAUTOKEINO II, NO","FM-12","ENKA ","V020","090,1,N,0030,1","01200,1,9,N","010000,1,N,1","-0056,1","-0085,1","10041,1",,,,"7,1,03,1","2,1,03,1",,"08,99,1,08,1,00,1,01250,1,02,1,99,9",,,"99999,9,09664,1","1,1,008,1,+999,9","70,1","SYN082AAXX  30151 01047 41660 80903 11056 21085 39664 40041 51008 77072 8802/ 333 4////;",
"01047099999","2010-03-30T18:00:00","4","69.0166667","23.0666667","307.0","KAUTOKEINO II, NO","FM-12","ENKA ","V020","050,1,N,0030,1","01200,1,9,N","007000,1,N,1","-0074,1","-0094,1","10051,1","12,0008,9,1",,,"7,1,06,1","2,1,06,1",,"08,99,1,08,1,00,1,01250,1,02,1,99,9",,"120,M,-0048,1","99999,9,09673,1","2,1,009,1,+999,9","70,1","SYN094AAXX  30181 01047 11657 80503 11074 21094 39673 40051 52009 69982 77072 8802/ 333 11048 4////;",
"01047099999","2010-03-31T00:00:00","4","69.0166667","23.0666667","307.0","KAUTOKEINO II, NO","FM-12","ENKA ","V020","090,1,N,0030,1","01200,1,9,N","002000,1,N,1","-0102,1","-0114,1","10073,1",,,,"7,1,06,1","2,1,06,1",,"08,99,1,08,1,00,1,01250,1,02,1,99,9",,,"99999,9,09692,1","2,1,008,1,+999,9","71,1","SYN088AAXX  31001 01047 11620 80903 11102 21114 39692 40073 52008 6//// 77172 8802/ 333 4////;",
"01047099999","2010-03-31T06:00:00","4","69.0166667","23.0666667","307.0","KAUTOKEINO II, NO","FM-12","ENKA ","V020","180,1,N,0030,1","03000,1,9,N","065000,1,N,1","-0058,1","-0070,1","10075,1","12,0003,9,1","24,0010,9,1","0059,9,1,999999,9,9","7,1,06,1","2,1,06,1",,"07,99,1,02,1,04,1,01250,1,02,1,00,1","23,9","999,N,-0122,1","99999,9,09696,1","5,1,000,1,+999,9","02,1","SYN100AAXX  31061 01047 11687 71803 11058 21070 39696 40075 55000 69932 70272 82420 333 21122 47059 70011;",
"01047099999","2010-03-31T09:00:00","4","69.0166667","23.0666667","307.0","KAUTOKEINO II, NO","FM-12","ENKA ","V020","180,1,N,0050,1","22000,1,9,N","070000,1,N,1","-0054,1","-0097,1","10092,1",,,,"2,1,03,1","2,1,03,1",,"04,99,1,00,1,00,1,99999,9,00,1,08,1",,,"99999,9,09713,1","3,1,017,1,+999,9","02,1","SYN082AAXX  31091 01047 41988 41805 11054 21097 39713 40092 53017 70222 80008 333 4////;",
"01047099999","2010-03-31T12:00:00","4","69.0166667","23.0666667","307.0","KAUTOKEINO II, NO","FM-12","ENKA ","V020","180,1,N,0050,1","01200,1,9,N","070000,1,N,1","-0024,1","-0066,1","10102,1",,,,"2,1,06,1","2,1,06,1",,"08,99,1,08,1,05,1,01250,1,99,9,99,9",,,"99999,9,09724,1","1,1,012,1,+999,9","02,1","SYN088AAXX  31121 01047 11688 81805 11024 21066 39724 40102 51012 6//// 70222 885// 333 4////;",
"01047099999","2010-03-31T15:00:00","4","69.0166667","23.0666667","307.0","KAUTOKEINO II, NO","FM-12","ENKA ","V020","180,1,N,0070,1","01200,1,9,N","070000,1,N,1","-0016,1","-0047,1","10103,1",,,,"2,1,03,1","2,1,03,1",,"08,99,1,08,1,05,1,01250,1,99,9,99,9",,,"99999,9,09725,1","4,1,000,1,+999,9","02,1","SYN082AAXX  31151 01047 41688 81807 11016 21047 39725 40103 54000 70222 885// 333 4////;",
"01047099999","2010-03-31T18:00:00","4","69.0166667","23.0666667","307.0","KAUTOKEINO II, NO","FM-12","ENKA ","V020","160,1,N,0050,1","01200,1,9,N","070000,1,N,1","-0024,1","-0046,1","10114,1","12,0000,9,1",,,"2,1,06,1","2,1,06,1",,"08,99,1,08,1,00,1,01250,1,02,1,99,9",,"120,M,-0008,1","99999,9,09735,1","3,1,010,1,+999,9","02,1","SYN094AAXX  31181 01047 11688 81605 11024 21046 39735 40114 53010 60002 70222 8802/ 333 11008 4////;","Q01  00002PRCP12"
"01047099999","2010-04-01T00:00:00","4","69.0166667","23.0666667","307.0","KAUTOKEINO II, NO","FM-12","ENKA ","V020","180,1,N,0050,1","01200,1,9,N","070000,1,N,1","-0016,1","-0027,1","10118,1",,,,"2,1,06,1","2,1,06,1",,"08,99,1,08,1,00,1,01250,1,02,1,99,9",,,"99999,9,09740,1","0,1,003,1,+999,9","02,1","SYN088AAXX  01001 01047 11688 81805 11016 21027 39740 40118 50003 6//// 70222 8802/ 333 4////;",
"01047099999","2010-04-01T06:00:00","4","69.0166667","23.0666667","307.0","KAUTOKEINO II, NO","FM-12","ENKA ","V020","180,1,N,0050,1","03000,1,9,N","070000,1,N,1","-0030,1","-0042,1","10117,1","12,0000,9,1","24,0000,9,1","0057,9,1,999999,9,9","2,1,06,1","2,1,06,1",,"07,99,1,04,1,05,1,00800,1,02,1,00,1","24,9","999,N,-0031,1","99999,9,09738,1","6,1,002,1,+999,9","02,1","SYN100AAXX  01061 01047 11588 71805 11030 21042 39738 40117 56002 60002 70222 84520 333 21031 48057 70000;","Q01  00002PRCP24Q02  00002PRCP12"
"01047099999","2010-04-01T09:00:00","4","69.0166667","23.0666667","307.0","KAUTOKEINO II, NO","FM-12","ENKA ","V020","180,1,N,0050,1","01200,1,9,N","065000,1,N,1","-0021,1","-0034,1","10119,1",,,,"2,1,03,1","2,1,03,1",,"08,99,1,08,1,00,1,01250,1,02,1,99,9",,,"99999,9,09740,1","1,1,003,1,+999,9","02,1","SYN082AAXX  01091 01047 41687 81805 11021 21034 39740 40119 51003 70222 8802/ 333 4////;",
"01047099999","2010-04-01T12:00:00","4","69.0166667","23.0666667","307.0","KAUTOKEINO II, NO","FM-12","ENKA ","V020","160,1,N,0050,1","01200,1,9,N","070000,1,N,1","-0002,1","-0015,1","10116,1",,,,"2,1,06,1","2,1,06,1",,"08,99,1,08,1,00,1,01250,1,02,1,99,9",,,"99999,9,09738,1","7,1,003,1,+999,9","02,1","SYN088AAXX  01121 01047 11688 81605 11002 21015 39738 40116 57003 6//// 70222 8802/ 333 4////;",
"01047099999","2010-04-01T15:00:00","4","69.0166667","23.0666667","307.0","KAUTOKEINO II, NO","FM-12","ENKA ","V020","160,1,N,0050,1","01200,1,9,N","070000,1,N,1","+0004,1","-0010,1","10114,1",,,,"2,1,03,1","2,1,03,1",,"08,99,1,08,1,00,1,01250,1,02,1,99,9",,,"99999,9,09737,1","4,1,000,1,+999,9","02,1","SYN082AAXX  01151 01047 41688 81605 10004 21010 39737 40114 54000 70222 8802/ 333 4////;",
"01047099999","2010-04-01T18:00:00","4","69.0166667","23.0666667","307.0","KAUTOKEINO II, NO","FM-12","ENKA ","V020","160,1,N,0050,1","01200,1,9,N","070000,1,N,1","+0000,1","-0009,1","10116,1","12,0000,9,1",,,"2,1,06,1","2,1,06,1",,"08,99,1,08,1,00,1,01250,1,02,1,99,9",,"120,M,+0005,1","99999,9,09739,1","4,1,000,1,+999,9","02,1","SYN094AAXX  01181 01047 11688 81605 10000 21009 39739 40116 54000 60002 70222 8802/ 333 10005 4////;","Q01  00002PRCP12"
"01047099999","2010-04-02T00:00:00","4","69.0166667","23.0666667","307.0","KAUTOKEINO II, NO","FM-12","ENKA ","V020","999,9,C,0000,1","00030,1,9,N","000500,1,N,1","+0006,1","-0001,1","10110,1",,,,"4,1,06,1","2,1,06,1","09,1,+99999,9,99,9","09,99,1,09,1,99,9,99999,9,99,9,99,9",,,"99999,9,09732,1","7,1,005,1,+999,9","44,1","SYN082AAXX  02001 01047 11/05 90000 10006 21001 39732 40110 57005 6//// 74442 333 4////;",
"01047099999","2010-04-02T06:00:00","4","69.0166667","23.0666667","307.0","KAUTOKEINO II, NO","FM-12","ENKA ","V020","999,9,C,0000,1","01200,1,9,N","065000,1,N,1","+0016,1","+0007,1","10105,1","12,0000,9,1","24,0000,9,1","0053,9,1,999999,9,9","4,1,06,1","2,1,06,1",,"08,99,1,08,1,00,1,01250,1,02,1,99,9","28,9","999,N,+0000,1","99999,9,09728,1","6,1,002,1,+999,9","02,1","SYN100AAXX  02061 01047 11687 80000 10016 20007 39728 40105 56002 60002 70242 8802/ 333 20000 44053 70000;","Q01  00002PRCP24Q02  00002PRCP12"
"01047099999","2010-04-02T12:00:00","4","69.0166667","23.0666667","307.0","KAUTOKEINO II, NO","FM-12","ENKA ","V020","160,1,N,0050,1","01200,1,9,N","030000,1,N,1","+0030,1","+0011,1","10104,1",,,,"2,1,06,1","2,1,06,1",,"08,99,1,08,1,00,1,01250,1,02,1,99,9",,,"99999,9,09729,1","4,1,000,1,+999,9","02,1","SYN088AAXX  02121 01047 11680 81605 10030 20011 39729 40104 54000 6//// 70222 8802/ 333 4////;",
"01047099999","2010-04-02T15:00:00","4","69.0166667","23.0666667","307.0","KAUTOKEINO II, NO","FM-12","ENKA ","V020","160,1,N,0070,1","01200,1,9,N","030000,1,N,1","+0026,1","+0013,1","10110,1",,,,"2,1,03,1","2,1,03,1",,"08,99,1,08,1,00,1,01250,1,02,1,99,9",,,"99999,9,09735,1","2,1,006,1,+999,9","02,1","SYN082AAXX  02151 01047 41680 81607 10026 20013 39735 40110 52006 70222 8802/ 333 4////;",
"01047099999","2010-04-02T18:00:00","4","69.0166667","23.0666667","307.0","KAUTOKEINO II, NO","FM-12","ENKA ","V020","160,1,N,0070,1","01500,1,9,N","070000,1,N,1","+0020,1","-0002,1","10119,1","12,0000,9,1",,,"2,1,06,1","2,1,06,1",,"07,99,1,07,1,00,1,01750,1,07,1,00,1",,"120,M,+0030,1","99999,9,09743,1","2,1,008,1,+999,9","02,1","SYN094AAXX  02181 01047 11788 71607 10020 21002 39743 40119 52008 60002 70222 87070 333 10030 4////;","Q01  00002PRCP12"
"01047099999","2010-04-03T00:00:00","4","69.0166667","23.0666667","307.0","KAUTOKEINO II, NO","FM-12","ENKA ","V020","180,1,N,0050,1","22000,1,9,N","070000,1,N,1","-0036,1","-0056,1","10157,1",,,,"1,1,06,1","1,1,06,1",,"03,99,1,03,1,00,1,01750,1,07,1,00,1",,,"99999,9,09777,1","2,1,010,1,+999,9","02,1","SYN088AAXX  03001 01047 11788 31805 11036 21056 39777 40157 52010 6//// 70211 83070 333 4////;",
"01047099999","2010-04-03T06:00:00","4","69.0166667","23.0666667","307.0","KAUTOKEINO II, NO","FM-12","ENKA ","V020","180,1,N,0050,1","01200,1,9,N","065000,1,N,1","-0008,1","-0021,1","10178,1","12,0000,9,1","24,0000,9,1","0051,9,1,999999,9,9","2,1,06,1","1,1,06,1",,"08,99,1,08,1,00,1,01250,1,02,1,99,9","28,9","999,N,-0037,1","99999,9,09798,1","3,1,005,1,+999,9","02,1","SYN100AAXX  03061 01047 11687 81805 11008 21021 39798 40178 53005 60002 70221 8802/ 333 21037 44051 70000;","Q01  00002PRCP24Q02  00002PRCP12"
"01047099999","2010-04-03T09:00:00","4","69.0166667","23.0666667","307.0","KAUTOKEINO II, NO","FM-12","ENKA ","V020","180,1,N,0050,1","01200,1,9,N","065000,1,N,1","-0002,1","-0016,1","10189,1",,,,"2,1,03,1","2,1,03,1",,"08,99,1,08,1,00,1,01250,1,02,1,99,9",,,"99999,9,09808,1","3,1,011,1,+999,9","02,1","SYN082AAXX  03091 01047 41687 81805 11002 21016 39808 40189 53011 70222 8802/ 333 4////;",
"01047099999","2010-04-03T12:00:00","4","69.0166667","23.0666667","307.0","KAUTOKEINO II, NO","FM-12","ENKA ","V020","160,1,N,0070,1","00750,1,9,N","070000,1,N,1","+0000,1","-0030,1","10191,1",,,,"2,1,06,1","2,1,06,1",,"08,99,1,08,1,05,1,00800,1,99,9,99,9",,,"99999,9,09811,1","1,1,002,1,+999,9","02,1","SYN088AAXX  03121 01047 11588 81607 10000 21030 39811 40191 51002 6//// 70222 885// 333 4////;",
"01047099999","2010-04-03T15:00:00","4","69.0166667","23.0666667","307.0","KAUTOKEINO II, NO","FM-12","ENKA ","V020","180,1,N,0050,1","01200,1,9,N","070000,1,N,1","+0000,1","-0030,1","10196,1",,,,"2,1,03,1","2,1,03,1",,"08,99,1,08,1,00,1,01250,1,02,1,99,9",,,"99999,9,09816,1","2,1,005,1,+999,9","02,1","SYN082AAXX  03151 01047 41688 81805 10000 21030 39816 40196 52005 70222 8802/ 333 4////;",
"01047099999","2010-04-03T18:00:00","4","69.0166667","23.0666667","307.0","KAUTOKEINO II, NO","FM-12","ENKA ","V020","220,1,N,0050,1","01200,1,9,N","070000,1,N,1","-0004,1","-0031,1","10199,1","12,0000,9,1",,,"2,1,06,1","2,1,06,1",,"08,99,1,08,1,00,1,01250,1,02,1,99,9",,"120,M,+0005,1","99999,9,09818,1","2,1,002,1,+999,9","02,1","SYN094AAXX  03181 01047 11688 82205 11004 21031 39818 40199 52002 60002 70222 8802/ 333 10005 4////;","Q01  00002PRCP12"
"01047099999","2010-04-04T00:00:00","4","69.0166667","23.0666667","307.0","KAUTOKEINO II, NO","FM-12","ENKA ","V020","220,1,N,0030,1","00750,1,9,N","070000,1,N,1","-0016,1","-0037,1","10206,1",,,,"2,1,06,1","2,1,06,1",,"08,99,1,08,1,05,1,00800,1,99,9,99,9",,,"99999,9,09825,1","1,1,002,1,+999,9","02,1","SYN088AAXX  04001 01047 11588 82203 11016 21037 39825 40206 51002 6//// 70222 885// 333 4////;",
"01047099999","2010-04-04T06:00:00","4","69.0166667","23.0666667","307.0","KAUTOKEINO II, NO","FM-12","ENKA ","V020","999,9,C,0000,1","22000,1,9,N","070000,1,N,1","-0090,1","-0101,1","10221,1","12,0000,9,1","24,0000,9,1","0050,9,1,999999,9,9","2,1,06,1","0,1,06,1",,"03,99,1,03,1,00,1,01750,1,07,1,00,1","28,9","999,N,-0096,1","99999,9,09835,1","1,1,004,1,+999,9","02,1","SYN100AAXX  04061 01047 11788 30000 11090 21101 39835 40221 51004 60002 70220 83070 333 21096 44050 70000;","Q01  00002PRCP24Q02  00002PRCP12"
"01047099999","2010-04-04T09:00:00","4","69.0166667","23.0666667","307.0","KAUTOKEINO II, NO","FM-12","ENKA ","V020","999,9,C,0000,1","22000,1,9,N","070000,1,N,1","-0052,1","-0100,1","10226,1",,,,"0,1,03,1","0,1,03,1",,"02,99,1,02,1,00,1,01750,1,07,1,00,1",,,"99999,9,09842,1","1,1,006,1,+999,9","02,1","SYN082AAXX  04091 01047 41788 20000 11052 21100 39842 40226 51006 70200 82070 333 4////;",
"01047099999","2010-04-04T12:00:00","4","69.0166667","23.0666667","307.0","KAUTOKEINO II, NO","FM-12","ENKA ","V020","999,9,C,0000,1","22000,1,9,N","070000,1,N,1","+0012,1","-0063,1","10221,1",,,,"0,1,06,1","0,1,06,1","00,1,+99999,9,99,9","00,99,1,00,1,00,1,99999,9,00,1,00,1",,,"99999,9,09840,1","4,1,000,1,+999,9","02,1","SYN082AAXX  04121 01047 11988 00000 10012 21063 39840 40221 54000 6//// 70200 333 4////;",
"01047099999","2010-04-04T15:00:00","4","69.0166667","23.0666667","307.0","KAUTOKEINO II, NO","FM-12","ENKA ","V020","050,1,N,0030,1","22000,1,9,N","070000,1,N,1","+0031,1","-0055,1","10219,1",,,,"0,1,03,1","0,1,03,1","00,1,+99999,9,99,9","00,99,1,00,1,00,1,99999,9,00,1,00,1",,,"99999,9,09840,1","4,1,000,1,+999,9","02,1","SYN076AAXX  04151 01047 41988 00503 10031 21055 39840 40219 54000 70200 333 4////;",
"01047099999","2010-04-04T18:00:00","4","69.0166667","23.0666667","307.0","KAUTOKEINO II, NO","FM-12","ENKA ","V020","360,1,N,0030,1","22000,1,9,N","070000,1,N,1","-0022,1","-0066,1","10230,1","12,0000,9,1",,,"0,1,06,1","0,1,06,1","00,1,+99999,9,99,9","00,99,1,00,1,00,1,99999,9,00,1,00,1",,"120,M,+0035,1","99999,9,09847,1","2,1,007,1,+999,9","02,1","SYN088AAXX  04181 01047 11988 03603 11022 21066 39847 40230 52007 60002 70200 333 10035 4////;","Q01  00002PRCP12"
"01047099999","2010-04-05T00:00:00","4","69.0166667","23.0666667","307.0","KAUTOKEINO II, NO","FM-12","ENKA ","V020","180,1,N,0030,1","00750,1,9,N","070000,1,N,1","-0092,1","-0104,1","10237,1",,,,"2,1,06,1","0,1,06,1",,"08,99,1,08,1,05,1,00800,1,99,9,99,9",,,"99999,9,09851,1","4,1,000,1,+999,9","02,1","SYN088AAXX  05001 01047 11588 81803 11092 21104 39851 40237 54000 6//// 70220 885// 333 4////;",
"01047099999","2010-04-05T06:00:00","4","69.0166667","23.0666667","307.0","KAUTOKEINO II, NO","FM-12","ENKA ","V020","360,1,N,0010,1","01200,1,9,N","070000,1,N,1","-0052,1","-0066,1","10234,1","12,0000,9,1","24,0000,9,1","0050,9,1,999999,9,9","2,1,06,1","0,1,06,1",,"08,99,1,08,1,00,1,01250,1,02,1,99,9","28,9","999,N,-0103,1","99999,9,09850,1","8,1,002,1,+999,9","02,1","SYN100AAXX  05061 01047 11688 83601 11052 21066 39850 40234 58002 60002 70220 8802/ 333 21103 44050 70000;","Q01  00002PRCP24Q02  00002PRCP12"
"01047099999","2010-04-05T09:00:00","4","69.0166667","23.0666667","307.0","KAUTOKEINO II, NO","FM-12","ENKA ","V020","320,1,N,0030,1","01200,1,9,N","065000,1,N,1","-0003,1","-0021,1","10230,1",,,,"2,1,03,1","2,1,03,1",,"08,99,1,08,1,00,1,01250,1,02,1,99,9",,,"99999,9,09848,1","3,1,001,1,+999,9","02,1","SYN082AAXX  05091 01047 41687 83203 11003 21021 39848 40230 53001 70222 8802/ 333 4////;",
"01047099999","2010-04-05T12:00:00","4","69.0166667","23.0666667","307.0","KAUTOKEINO II, NO","FM-12","ENKA ","V020","320,1,N,0030,1","00750,1,9,N","070000,1,N,1","+0020,1","-0031,1","10229,1",,,,"2,1,06,1","2,1,06,1",,"08,99,1,08,1,05,1,00800,1,99,9,99,9",,,"99999,9,09849,1","4,1,000,1,+999,9","02,1","SYN088AAXX  05121 01047 11588 83203 10020 21031 39849 40229 54000 6//// 70222 885// 333 4////;",
"01047099999","2010-04-05T15:00:00","4","69.0166667","23.0666667","307.0","KAUTOKEINO II, NO","FM-12","ENKA ","V020","320,1,N,0050,1","00750,1,9,N","070000,1,N,1","+0022,1","-0037,1","10227,1",,,,"2,1,03,1","2,1,03,1",,"07,99,1,07,1,05,1,00800,1,00,1,00,1",,,"99999,9,09847,1","4,1,000,1,+999,9","02,1","SYN082AAXX  05151 01047 41588 73205 10022 21037 39847 40227 54000 70222 87500 333 4////;",
"01047099999","2010-04-05T18:00:00","4","69.0166667","23.0666667","307.0","KAUTOKEINO II, NO","FM-12","ENKA ","V020","320,1,N,0030,1","00750,1,9,N","070000,1,N,1","+0006,1","-0044,1","10236,1","12,0000,9,1",,,"2,1,06,1","2,1,06,1",,"08,99,1,08,1,05,1,00800,1,99,9,99,9",,"120,M,+0028,1","99999,9,09854,1","3,1,008,1,+999,9","02,1","SYN094AAXX  05181 01047 11588 83203 10006 21044 39854 40236 53008 60002 70222 885// 333 10028 4////;","Q01  00002PRCP12"
"01047099999","2010-04-06T00:00:00","4","69.0166667","23.0666667","307.0","KAUTOKEINO II, NO","FM-12","ENKA ","V020","340,1,N,0050,1","22000,1,9,N","070000,1,N,1","-0042,1","-0071,1","10251,1",,,,"2,1,06,1","2,1,06,1",,"04,99,1,04,1,05,1,00800,1,00,1,00,1",,,"99999,9,09867,1","2,1,005,1,+999,9","02,1","SYN088AAXX  06001 01047 11588 43405 11042 21071 39867 40251 52005 6//// 70222 84500 333 4////;",
"01047099999","2010-04-06T06:00:00","4","69.0166667","23.0666667","307.0","KAUTOKEINO II, NO","FM-12","ENKA ","V020","999,9,C,0000,1","01200,1,9,N","070000,1,N,1","-0048,1","-0071,1","10261,1","12,0000,9,1","24,0000,9,1","0049,9,1,999999,9,9","2,1,06,1","1,1,06,1",,"08,99,1,08,1,00,1,01250,1,02,1,99,9","28,9","999,N,-0058,1","99999,9,09876,1","1,1,002,1,+999,9","02,1","SYN100AAXX  06061 01047 11688 80000 11048 21071 39876 40261 51002 60002 70221 8802/ 333 21058 44049 70000;","Q01  00002PRCP24Q02  00002PRCP12"
"01047099999","2010-04-06T09:00:00","4","69.0166667","23.0666667","307.0","KAUTOKEINO II, NO","FM-12","ENKA ","V020","140,1,N,0030,1","01200,1,9,N","070000,1,N,1","-0026,1","-0066,1","10261,1",,,,"2,1,03,1","2,1,03,1",,"08,99,1,08,1,00,1,01250,1,02,1,99,9",,,"99999,9,09876,1","4,1,000,1,+999,9","02,1","SYN082AAXX  06091 01047 41688 81403 11026 21066 39876 40261 54000 70222 8802/ 333 4////;",
"01047099999","2010-04-06T12:00:00","4","69.0166667","23.0666667","307.0","KAUTOKEINO II, NO","FM-12","ENKA ","V020","220,1,N,0030,1","01200,1,9,N","070000,1,N,1","+0006,1","-0052,1","10260,1",,,,"2,1,06,1","2,1,06,1",,"08,99,1,08,1,00,1,01250,1,02,1,99,9",,,"99999,9,09878,1","4,1,000,1,+999,9","02,1","SYN088AAXX  06121 01047 11688 82203 10006 21052 39878 40260 54000 6//// 70222 8802/ 333 4////;",
"01047099999","2010-04-06T15:00:00","4","69.0166667","23.0666667","307.0","KAUTOKEINO II, NO","FM-12","ENKA ","V020","140,1,N,0010,1","01200,1,9,N","070000,1,N,1","+0018,1","-0033,1","10259,1",,,,"2,1,03,1","2,1,03,1",,"08,99,1,08,1,00,1,01250,1,02,1,99,9",,,"99999,9,09877,1","4,1,000,1,+999,9","02,1","SYN082AAXX  06151 01047 41688 81401 10018 21033 39877 40259 54000 70222 8802/ 333 4////;",
"01047099999","2010-04-06T18:00:00","4","69.0166667","23.0666667","307.0","KAUTOKEINO II, NO","FM-12","ENKA ","V020","999,9,C,0000,1","00750,1,9,N","070000,1,N,1","+0008,1","-0033,1","10260,1","12,0000,9,1",,,"2,1,06,1","2,1,06,1",,"08,99,1,08,1,05,1,00800,1,99,9,99,9",,"120,M,+0018,1","99999,9,09877,1","4,1,000,1,+999,9","02,1","SYN094AAXX  06181 01047 11588 80000 10008 21033 39877 40260 54000 60002 70222 885// 333 10018 4////;","Q01  00002PRCP12"
"01047099999","2010-04-07T00:00:00","4","69.0166667","23.0666667","307.0","KAUTOKEINO II, NO","FM-12","ENKA ","V020","999,9,C,0000,1","00750,1,9,N","070000,1,N,1","-0010,1","-0031,1","10265,1",,,,"2,1,06,1","2,1,06,1",,"08,99,1,08,1,05,1,00800,1,99,9,99,9",,,"99999,9,09881,1","1,1,002,1,+999,9","02,1","SYN088AAXX  07001 01047 11588 80000 11010 21031 39881 40265 51002 6//// 70222 885// 333 4////;",
"01047099999","2010-04-07T06:00:00","4","69.0166667","23.0666667","307.0","KAUTOKEINO II, NO","FM-12","ENKA ","V020","999,9,C,0000,1","00750,1,9,N","070000,1,N,1","-0007,1","-0037,1","10261,1","12,0000,9,1","24,0000,9,1","0049,9,1,999999,9,9","2,1,06,1","2,1,06,1",,"08,99,1,08,1,05,1,00800,1,99,9,99,9","28,9","999,N,-0016,1","99999,9,09878,1","4,1,000,1,+999,9","02,1","SYN100AAXX  07061 01047 11588 80000 11007 21037 39878 40261 54000 60002 70222 885// 333 21016 44049 70000;","Q01  00002PRCP24Q02  00002PRCP12"
"01047099999","2010-04-07T09:00:00","4","69.0166667","23.0666667","307.0","KAUTOKEINO II, NO","FM-12","ENKA ","V020","360,1,N,0030,1","00750,1,9,N","070000,1,N,1","+0011,1","-0053,1","10255,1",,,,"2,1,03,1","2,1,03,1",,"08,99,1,06,1,05,1,00800,1,02,1,99,9",,,"99999,9,09873,1",,"02,1","SYN082AAXX  07091 01047 41588 83603 10011 21053 39873 40255 59006 70222 8652/ 333 4////;",
"01047099999","2010-04-07T12:00:00","4","69.0166667","23.0666667","307.0","KAUTOKEINO II, NO","FM-12","ENKA ","V020","160,1,N,0030,1","00750,1,9,N","070000,1,N,1","+0014,1","-0061,1","10241,1",,,,"2,1,06,1","2,1,06,1",,"08,99,1,08,1,05,1,00800,1,99,9,99,9",,,"99999,9,09860,1","8,1,012,1,+999,9","02,1","SYN088AAXX  07121 01047 11588 81603 10014 21061 39860 40241 58012 6//// 70222 885// 333 4////;",
"01047099999","2010-04-07T15:00:00","4","69.0166667","23.0666667","307.0","KAUTOKEINO II, NO","FM-12","ENKA ","V020","180,1,N,0030,1","00750,1,9,N","070000,1,N,1","+0010,1","-0063,1","10231,1",,,,"2,1,03,1","2,1,03,1",,"08,99,1,08,1,05,1,00800,1,99,9,99,9",,,"99999,9,09850,1","7,1,010,1,+999,9","02,1","SYN082AAXX  07151 01047 41588 81803 10010 21063 39850 40231 57010 70222 885// 333 4////;",
"01047099999","2010-04-07T18:00:00","4","69.0166667","23.0666667","307.0","KAUTOKEINO II, NO","FM-12","ENKA ","V020","180,1,N,0030,1","00750,1,9,N","070000,1,N,1","+0002,1","-0044,1","10222,1","12,0000,9,1",,,"2,1,06,1","2,1,06,1",,"08,99,1,08,1,05,1,00800,1,99,9,99,9",,"120,M,+0018,1","99999,9,09841,1","6,1,009,1,+999,9","02,1","SYN094AAXX  07181 01047 11588 81803 10002 21044 39841 40222 56009 60002 70222 885// 333 10018 4////;","Q01  00002PRCP12"
"01047099999","2010-04-08T00:00:00","4","69.0166667","23.0666667","307.0","KAUTOKEINO II, NO","FM-12","ENKA ","V020","999,9,C,0000,1","00750,1,9,N","070000,1,N,1","-0012,1","-0033,1","10204,1",,,,"2,1,06,1","2,1,06,1",,"08,99,1,08,1,05,1,00800,1,99,9,99,9",,,"99999,9,09822,1","8,1,015,1,+999,9","02,1","SYN088AAXX  08001 01047 11588 80000 11012 21033 39822 40204 58015 6//// 70222 885// 333 4////;",
"01047099999","2010-04-08T06:00:00","4","69.0166667","23.0666667","307.0","KAUTOKEINO II, NO","FM-12","ENKA ","V020","999,9,C,0000,1","01200,1,9,N","070000,1,N,1","-0009,1","-0026,1","10192,1","12,0000,9,1","24,0000,9,1","0049,9,1,999999,9,9","2,1,06,1","2,1,06,1",,"08,99,1,08,1,00,1,01250,1,02,1,99,9","28,9","999,N,-0018,1","99999,9,09811,1","7,1,007,1,+999,9","02,1","SYN100AAXX  08061 01047 11688 80000 11009 21026 39811 40192 57007 60002 70222 8802/ 333 21018 44049 70000;","Q01  00002PRCP24Q02  00002PRCP12"
"01047099999","2010-04-08T09:00:00","4","69.0166667","23.0666667","307.0","KAUTOKEINO II, NO","FM-12","ENKA ","V020","140,1,N,0030,1","00750,1,9,N","065000,1,N,1","+0010,1","-0017,1","10185,1",,,,"2,1,03,1","2,1,03,1",,"08,99,1,06,1,05,1,00800,1,02,1,99,9",,,"99999,9,09805,1","6,1,005,1,+999,9","02,1","SYN082AAXX  08091 01047 41587 81403 10010 21017 39805 40185 56005 70222 8652/ 333 4////;",
"01047099999","2010-04-08T12:00:00","4","69.0166667","23.0666667","307.0","KAUTOKEINO II, NO","FM-12","ENKA ","V020","220,1,N,0050,1","01200,1,9,N","070000,1,N,1","+0024,1","-0035,1","10179,1",,,,"2,1,06,1","2,1,06,1",,"07,99,1,07,1,05,1,01250,1,00,1,00,1",,,"99999,9,09801,1","7,1,005,1,+999,9","02,1","SYN088AAXX  08121 01047 11688 72205 10024 21035 39801 40179 57005 6//// 70222 87500 333 4////;",
"01047099999","2010-04-08T15:00:00","4","69.0166667","23.0666667","307.0","KAUTOKEINO II, NO","FM-12","ENKA ","V020","180,1,N,0050,1","22000,1,9,N","070000,1,N,1","+0026,1","-0041,1","10176,1",,,,"1,1,03,1","1,1,03,1",,"04,99,1,04,1,00,1,01750,1,03,1,00,1",,,"99999,9,09798,1","7,1,003,1,+999,9","02,1","SYN082AAXX  08151 01047 41788 41805 10026 21041 39798 40176 57003 70211 84030 333 4////;",
"01047099999","2010-04-08T18:00:00","4","69.0166667","23.0666667","307.0","KAUTOKEINO II, NO","FM-12","ENKA ","V020","180,1,N,0030,1","01200,1,9,N","070000,1,N,1","+0008,1","-0038,1","10179,1","12,0000,9,1",,,"2,1,06,1","2,1,06,1",,"06,99,1,06,1,05,1,01250,1,00,1,00,1",,"120,M,+0035,1","99999,9,09799,1","4,1,000,1,+999,9","02,1","SYN094AAXX  08181 01047 11688 61803 10008 21038 39799 40179 54000 60002 70222 86500 333 10035 4////;","Q01  00002PRCP12"
"01047099999","2010-04-09T00:00:00","4","69.0166667","23.0666667","307.0","KAUTOKEINO II, NO","FM-12","ENKA ","V020","160,1,N,0050,1","22000,1,9,N","070000,1,N,1","-0038,1","-0045,1","10186,1",,,,"1,1,06,1","1,1,06,1",,"03,99,1,03,1,05,1,01250,1,00,1,00,1",,,"99999,9,09804,1","2,1,004,1,+999,9","01,1","SYN088AAXX  09001 01047 11688 31605 11038 21045 39804 40186 52004 6//// 70111 83500 333 4////;",
"01047099999","2010-04-09T06:00:00","4","69.0166667","23.0666667","307.0","KAUTOKEINO II, NO","FM-12","ENKA ","V020","160,1,N,0030,1","00420,1,9,N","001000,1,N,1","-0052,1","-0056,1","10209,1","12,0000,9,1","24,0000,9,1","0048,9,1,999999,9,9","4,1,06,1","2,1,06,1",,"08,99,1,08,1,06,1,00450,1,99,9,99,9","28,9","999,N,-0072,1","99999,9,09826,1","3,1,010,1,+999,9","10,1","SYN100AAXX  09061 01047 11410 81603 11052 21056 39826 40209 53010 60002 71042 886// 333 21072 44048 70000;","Q01  00002PRCP24Q02  00002PRCP12"
"01047099999","2010-04-09T09:00:00","4","69.0166667","23.0666667","307.0","KAUTOKEINO II, NO","FM-12","ENKA ","V020","999,9,C,0000,1","00420,1,9,N","070000,1,N,1","-0014,1","-0020,1","10218,1",,,,"4,1,03,1","2,1,03,1",,"08,99,1,08,1,06,1,00450,1,99,9,99,9",,,"99999,9,09836,1","2,1,010,1,+999,9","28,1","SYN082AAXX  09091 01047 41488 80000 11014 21020 39836 40218 52010 72842 886// 333 4////;",
"01047099999","2010-04-09T12:00:00","4","69.0166667","23.0666667","307.0","KAUTOKEINO II, NO","FM-12","ENKA ","V020","160,1,N,0030,1","00750,1,9,N","070000,1,N,1","+0022,1","-0012,1","10225,1",,,,"2,1,06,1","2,1,06,1",,"08,99,1,08,1,05,1,00800,1,99,9,99,9",,,"99999,9,09845,1","2,1,009,1,+999,9","02,1","SYN088AAXX  09121 01047 11588 81603 10022 21012 39845 40225 52009 6//// 70222 885// 333 4////;",
"01047099999","2010-04-09T15:00:00","4","69.0166667","23.0666667","307.0","KAUTOKEINO II, NO","FM-12","ENKA ","V020","180,1,N,0050,1","00750,1,9,N","070000,1,N,1","+0040,1","-0024,1","10230,1",,,,"2,1,03,1","2,1,03,1",,"05,99,1,05,1,05,1,00800,1,00,1,00,1",,,"99999,9,09852,1","1,1,007,1,+999,9","01,1","SYN082AAXX  09151 01047 41588 51805 10040 21024 39852 40230 51007 70122 85500 333 4////;",
"01047099999","2010-04-09T18:00:00","4","69.0166667","23.0666667","307.0","KAUTOKEINO II, NO","FM-12","ENKA ","V020","999,9,C,0000,1","00750,1,9,N","070000,1,N,1","+0018,1","-0018,1","10250,1","12,0000,9,1",,,"1,1,06,1","1,1,06,1",,"08,99,1,08,1,05,1,00800,1,99,9,99,9",,"120,M,+0045,1","99999,9,09869,1","2,1,017,1,+999,9","02,1","SYN094AAXX  09181 01047 11588 80000 10018 21018 39869 40250 52017 60002 70211 885// 333 10045 4////;","Q01  00002PRCP12"
"01047099999","2010-04-10T00:00:00","4","69.0166667","23.0666667","307.0","KAUTOKEINO II, NO","FM-12","ENKA ","V020","320,1,N,0030,1","00750,1,9,N","070000,1,N,1","-0038,1","-0050,1","10284,1",,,,"2,1,06,1","2,1,06,1",,"08,99,1,08,1,05,1,00800,1,99,9,99,9",,,"99999,9,09898,1","1,1,015,1,+999,9","02,1","SYN088AAXX  10001 01047 11588 83203 11038 21050 39898 40284 51015 6//// 70222 885// 333 4////;",
"01047099999","2010-04-10T06:00:00","4","69.0166667","23.0666667","307.0","KAUTOKEINO II, NO","FM-12","ENKA ","V020","360,1,N,0010,1","00750,1,9,N","070000,1,N,1","-0018,1","-0037,1","10307,1","12,0000,9,1","24,0000,9,1","0048,9,1,999999,9,9","2,1,06,1","2,1,06,1",,"08,99,1,08,1,05,1,00800,1,99,9,99,9","28,9","999,N,-0038,1","99999,9,09922,1","1,1,012,1,+999,9","02,1","SYN100AAXX  10061 01047 11588 83601 11018 21037 39922 40307 51012 60002 70222 885// 333 21038 44048 70000;","Q01  00002PRCP24Q02  00002PRCP12"
"01047099999","2010-04-10T09:00:00","4","69.0166667","23.0666667","307.0","KAUTOKEINO II, NO","FM-12","ENKA ","V020","360,1,N,0010,1","00750,1,9,N","070000,1,N,1","+0025,1","-0009,1","10312,1",,,,"2,1,03,1","2,1,03,1",,"08,99,1,08,1,05,1,00800,1,99,9,99,9",,,"99999,9,09929,1","1,1,007,1,+999,9","02,1","SYN082AAXX  10091 01047 41588 83601 10025 21009 39929 40312 51007 70222 885// 333 4////;",
"01047099999","2010-04-10T12:00:00","4","69.0166667","23.0666667","307.0","KAUTOKEINO II, NO","FM-12","ENKA ","V020","360,1,N,0030,1","22000,1,9,N","070000,1,N,1","+0016,1","-0031,1","10318,1",,,,"1,1,06,1","1,1,06,1","00,1,+99999,9,99,9","00,99,1,00,1,00,1,99999,9,00,1,00,1",,,"99999,9,09934,1","2,1,006,1,+999,9","01,1","SYN082AAXX  10121 01047 11988 03603 10016 21031 39934 40318 52006 6//// 70111 333 4////;",
"01047099999","2010-04-10T15:00:00","4","69.0166667","23.0666667","307.0","KAUTOKEINO II, NO","FM-12","ENKA ","V020","360,1,N,0030,1","22000,1,9,N","070000,1,N,1","+0014,1","-0040,1","10326,1",,,,"0,1,03,1","0,1,03,1","00,1,+99999,9,99,9","00,99,1,00,1,00,1,99999,9,00,1,00,1",,,"99999,9,09942,1","2,1,007,1,+999,9","02,1","SYN076AAXX  10151 01047 41988 03603 10014 21040 39942 40326 52007 70200 333 4////;",
"01047099999","2010-04-10T18:00:00","4","69.0166667","23.0666667","307.0","KAUTOKEINO II, NO","FM-12","ENKA ","V020","340,1,N,0050,1","22000,1,9,N","070000,1,N,1","-0014,1","-0056,1","10337,1","12,0000,9,1",,,"0,1,06,1","0,1,06,1",,"03,99,1,03,1,05,1,01250,1,00,1,00,1",,"120,M,+0035,1","99999,9,09951,1","2,1,009,1,+999,9","03,1","SYN094AAXX  10181 01047 11688 33405 11014 21056 39951 40337 52009 60002 70300 83500 333 10035 4////;","Q01  00002PRCP12"
"01047099999","2010-04-11T00:00:00","4","69.0166667","23.0666667","307.0","KAUTOKEINO II, NO","FM-12","ENKA ","V020","180,1,N,0010,1","22000,1,9,N","070000,1,N,1","-0054,1","-0074,1","10356,1",,,,"1,1,06,1","1,1,06,1",,"04,99,1,04,1,05,1,01250,1,00,1,00,1",,,"99999,9,09967,1","2,1,008,1,+999,9","02,1","SYN088AAXX  11001 01047 11688 41801 11054 21074 39967 40356 52008 6//// 70211 84500 333 4////;",
"01047099999","2010-04-11T06:00:00","4","69.0166667","23.0666667","307.0","KAUTOKEINO II, NO","FM-12","ENKA ","V020","999,9,C,0000,1","99999,9,9,N","070000,1,N,1","-0057,1","-0076,1","10354,1","12,0000,9,1","24,0000,9,1","0048,9,1,999999,9,9","1,1,06,1","1,1,06,1",,"05,99,1,00,1,00,1,99999,9,00,1,08,1","28,9","999,N,-0096,1","99999,9,09965,1","0,1,002,1,+999,9","02,1","SYN100AAXX  11061 01047 11988 50000 11057 21076 39965 40354 50002 60002 70211 80008 333 21096 44048 70000;","Q01  00002PRCP24Q02  00002PRCP12"
"01047099999","2010-04-11T09:00:00","4","69.0166667","23.0666667","307.0","KAUTOKEINO II, NO","FM-12","ENKA ","V020","140,1,N,0030,1","01500,1,9,N","070000,1,N,1","+0005,1","-0049,1","10340,1",,,,"2,1,03,1","1,1,03,1",,"06,99,1,06,1,00,1,01750,1,07,1,00,1",,,"99999,9,09954,1","7,1,010,1,+999,9","02,1","SYN082AAXX  11091 01047 41788 61403 10005 21049 39954 40340 57010 70221 86070 333 4////;",
"01047099999","2010-04-11T12:00:00","4","69.0166667","23.0666667","307.0","KAUTOKEINO II, NO","FM-12","ENKA ","V020","220,1,N,0070,1","01200,1,9,N","070000,1,N,1","+0038,1","-0034,1","10313,1",,,,"2,1,06,1","2,1,06,1",,"08,99,1,08,1,00,1,01250,1,02,1,99,9",,,"99999,9,09932,1","8,1,023,1,+999,9","02,1","SYN088AAXX  11121 01047 11688 82207 10038 21034 39932 40313 58023 6//// 70222 8802/ 333 4////;",
"01047099999","2010-04-11T15:00:00","4","69.0166667","23.0666667","307.0","KAUTOKEINO II, NO","FM-12","ENKA ","V020","220,1,N,0070,1","01200,1,9,N","070000,1,N,1","+0040,1","-0033,1","10288,1",,,,"2,1,03,1","2,1,03,1",,"08,99,1,08,1,00,1,01250,1,02,1,99,9",,,"99999,9,09908,1","7,1,024,1,+999,9","02,1","SYN082AAXX  11151 01047 41688 82207 10040 21033 39908 40288 57024 70222 8802/ 333 4////;",
"01047099999","2010-04-11T18:00:00","4","69.0166667","23.0666667","307.0","KAUTOKEINO II, NO","FM-12","ENKA ","V020","180,1,N,0070,1","00750,1,9,N","070000,1,N,1","+0030,1","-0029,1","10267,1","12,9999,9,9",,,"8,1,06,1","2,1,06,1",,"08,99,1,08,1,09,1,00800,1,99,9,99,9",,"120,M,+0050,1","99999,9,09886,1","6,1,021,1,+999,9","25,1","SYN094AAXX  11181 01047 11588 81807 10030 21029 39886 40267 56021 69912 72582 889// 333 10050 4////;","Q01  00002PRCP12Q02  00002PRCP12"
"01047099999","2010-04-12T00:00:00","4","69.0166667","23.0666667","307.0","KAUTOKEINO II, NO","FM-12","ENKA ","V020","180,1,N,0070,1","00750,1,9,N","020000,1,N,1","+0024,1","-0025,1","10228,1",,,,"8,1,06,1","2,1,06,1",,"08,99,1,08,1,09,1,00800,1,99,9,99,9",,,"99999,9,09848,1","7,1,018,1,+999,9","83,1","SYN088AAXX  12001 01047 11570 81807 10024 21025 39848 40228 57018 6//// 78382 889// 333 4////;",
"01047099999","2010-04-12T06:00:00","4","69.0166667","23.0666667","307.0","KAUTOKEINO II, NO","FM-12","ENKA ","V020","180,1,N,0050,1","00750,1,9,N","065000,1,N,1","+0032,1","-0008,1","10179,1","12,0000,2,1","24,0003,9,1","0045,9,1,999999,9,9","8,1,06,1","2,1,06,1",,"08,99,1,06,1,07,1,00800,1,02,1,99,9","28,9","999,N,+0022,1","99999,9,09802,1","7,1,021,1,+999,9","02,1","SYN100AAXX  12061 01047 11587 81805 10032 21008 39802 40179 57021 69922 70282 8672/ 333 20022 44045 70003;",
"01047099999","2010-04-12T09:00:00","4","69.0166667","23.0666667","307.0","KAUTOKEINO II, NO","FM-12","ENKA ","V020","140,1,N,0070,1","01200,1,9,N","070000,1,N,1","+0048,1","-0012,1","10146,1",,,,"2,1,03,1","2,1,03,1",,"08,99,1,08,1,00,1,01250,1,02,1,99,9",,,"99999,9,09773,1","7,1,029,1,+999,9","02,1","SYN082AAXX  12091 01047 41688 81407 10048 21012 39773 40146 57029 70222 8802/ 333 4////;",
"01047099999","2010-04-12T12:00:00","4","69.0166667","23.0666667","307.0","KAUTOKEINO II, NO","FM-12","ENKA ","V020","140,1,N,0070,1","01200,1,9,N","070000,1,N,1","+0078,1","+0001,1","10124,1",,,,"2,1,06,1","2,1,06,1",,"08,99,1,08,1,00,1,01250,1,02,1,99,9",,,"99999,9,09755,1","7,1,018,1,+999,9","02,1","SYN088AAXX  12121 01047 11688 81407 10078 20001 39755 40124 57018 6//// 70222 8802/ 333 4////;",
"01047099999","2010-04-12T15:00:00","4","69.0166667","23.0666667","307.0","KAUTOKEINO II, NO","FM-12","ENKA ","V020","180,1,N,0070,1","03000,1,9,N","070000,1,N,1","+0062,1","-0017,1","10098,1",,,,"2,1,03,1","2,1,03,1",,"08,99,1,04,1,05,1,00800,1,02,1,99,9",,,"99999,9,09728,1","7,1,026,1,+999,9","02,1","SYN082AAXX  12151 01047 41588 81807 10062 21017 39728 40098 57026 70222 8452/ 333 4////;",
"01047099999","2010-04-12T18:00:00","4","69.0166667","23.0666667","307.0","KAUTOKEINO II, NO","FM-12","ENKA ","V020","140,1,N,0050,1","01200,1,9,N","040000,1,N,1","+0028,1","+0013,1","10082,1","12,0003,9,1",,,"6,1,06,1","2,1,06,1",,"08,99,1,08,1,00,1,01250,1,02,1,99,9",,"120,M,+0070,1","99999,9,09708,1","7,1,020,1,+999,9","60,1","SYN094AAXX  12181 01047 11682 81405 10028 20013 39708 40082 57020 69932 76062 8802/ 333 10070 4////;",
"01047099999","2010-04-13T00:00:00","4","69.0166667","23.0666667","307.0","KAUTOKEINO II, NO","FM-12","ENKA ","V020","140,1,N,0030,1","00750,1,9,N","070000,1,N,1","+0026,1","-0017,1","10072,1",,,,"6,1,06,1","2,1,06,1",,"05,99,1,05,1,05,1,00800,1,00,1,00,1",,,"99999,9,09698,1","6,1,005,1,+999,9","02,1","SYN088AAXX  13001 01047 11588 51403 10026 21017 39698 40072 56005 6//// 70262 85500 333 4////;",
"01047099999","2010-04-13T06:00:00","4","69.0166667","23.0666667","307.0","KAUTOKEINO II, NO","FM-12","ENKA ","V020","050,1,N,0030,1","00750,1,9,N","070000,1,N,1","+0013,1","-0035,1","10107,1","12,0000,2,1","24,0005,9,1","0036,9,1,999999,9,9","6,1,06,1","2,1,06,1",,"08,99,1,06,1,05,1,00800,1,02,1,99,9","28,9","999,N,+0009,1","99999,9,09730,1","2,1,010,1,+999,9","02,1","SYN100AAXX  13061 01047 11588 80503 10013 21035 39730 40107 52010 69922 70262 8652/ 333 20009 44036 70005;",
"01047099999","2010-04-13T09:00:00","4","69.0166667","23.0666667","307.0","KAUTOKEINO II, NO","FM-12","ENKA ","V020","320,1,N,0050,1","01200,1,9,N","070000,1,N,1","+0010,1","-0044,1","10129,1",,,,"2,1,03,1","2,1,03,1",,"08,99,1,08,1,00,1,01250,1,02,1,99,9",,,"99999,9,09752,1","2,1,021,1,+999,9","02,1","SYN082AAXX  13091 01047 41688 83205 10010 21044 39752 40129 52021 70222 8802/ 333 4////;",
"01047099999","2010-04-13T12:00:00","4","69.0166667","23.0666667","307.0","KAUTOKEINO II, NO","FM-12","ENKA ","V020","320,1,N,0070,1","03000,1,9,N","070000,1,N,1","+0012,1","-0046,1","10146,1",,,,"2,1,06,1","2,1,06,1",,"08,99,1,04,1,05,1,00800,1,02,1,99,9",,,"99999,9,09768,1","2,1,016,1,+999,9","02,1","SYN088AAXX  13121 01047 11588 83207 10012 21046 39768 40146 52016 6//// 70222 8452/ 333 4////;",
"01047099999","2010-04-13T15:00:00","4","69.0166667","23.0666667","307.0","KAUTOKEINO II, NO","FM-12","ENKA ","V020","320,1,N,0050,1","00750,1,9,N","070000,1,N,1","+0006,1","-0060,1","10153,1",,,,"2,1,03,1","2,1,03,1",,"08,99,1,08,1,05,1,00800,1,99,9,99,9",,,"99999,9,09774,1","1,1,007,1,+999,9","02,1","SYN082AAXX  13151 01047 41588 83205 10006 21060 39774 40153 51007 70222 885// 333 4////;",
"01047099999","2010-04-13T18:00:00","4","69.0166667","23.0666667","307.0","KAUTOKEINO II, NO","FM-12","ENKA ","V020","320,1,N,0070,1","22000,1,9,N","070000,1,N,1","-0016,1","-0067,1","10162,1","12,0000,9,1",,,"1,1,06,1","1,1,06,1",,"03,99,1,02,1,04,1,01250,1,04,1,00,1",,"120,M,+0020,1","99999,9,09782,1","1,1,007,1,+999,9","02,1","SYN094AAXX  13181 01047 11688 33207 11016 21067 39782 40162 51007 60002 70211 82440 333 10020 4////;","Q01  00002PRCP12"
"01047099999","2010-04-14T00:00:00","4","69.0166667","23.0666667","307.0","KAUTOKEINO II, NO","FM-12","ENKA ","V020","320,1,N,0030,1","22000,1,9,N","070000,1,N,1","-0072,1","-0092,1","10173,1",,,,"1,1,06,1","1,1,06,1",,"03,99,1,03,1,00,1,02250,1,04,1,00,1",,,"99999,9,09790,1","4,1,000,1,+999,9","02,1","SYN088AAXX  14001 01047 11888 33203 11072 21092 39790 40173 54000 6//// 70211 83040 333 4////;",
"01047099999","2010-04-14T06:00:00","4","69.0166667","23.0666667","307.0","KAUTOKEINO II, NO","FM-12","ENKA ","V020","999,9,C,0000,1","01500,1,9,N","070000,1,N,1","-0058,1","-0078,1","10168,1","12,0000,9,1","24,0000,9,1","0036,9,1,999999,9,9","2,1,06,1","1,1,06,1",,"06,99,1,06,1,00,1,01750,1,07,1,00,1","28,9","999,N,-0096,1","99999,9,09786,1","8,1,004,1,+999,9","02,1","SYN100AAXX  14061 01047 11788 60000 11058 21078 39786 40168 58004 60002 70221 86070 333 21096 44036 70000;","Q01  00002PRCP24Q02  00002PRCP12"
"01047099999","2010-04-14T09:00:00","4","69.0166667","23.0666667","307.0","KAUTOKEINO II, NO","FM-12","ENKA ","V020","140,1,N,0050,1","22000,1,9,N","070000,1,N,1","+0004,1","-0056,1","10150,1",,,,"1,1,03,1","1,1,03,1",,"02,99,1,02,1,00,1,02250,1,04,1,00,1",,,"99999,9,09772,1","8,1,014,1,+999,9","02,1","SYN082AAXX  14091 01047 41888 21405 10004 21056 39772 40150 58014 70211 82040 333 4////;",
"01047099999","2010-04-14T12:00:00","4","69.0166667","23.0666667","307.0","KAUTOKEINO II, NO","FM-12","ENKA ","V020","180,1,N,0050,1","01200,1,9,N","070000,1,N,1","+0022,1","-0066,1","10137,1",,,,"1,1,06,1","1,1,06,1",,"08,99,1,08,1,05,1,01250,1,99,9,99,9",,,"99999,9,09760,1","7,1,012,1,+999,9","02,1","SYN088AAXX  14121 01047 11688 81805 10022 21066 39760 40137 57012 6//// 70211 885// 333 4////;",
"01047099999","2010-04-14T15:00:00","4","69.0166667","23.0666667","307.0","KAUTOKEINO II, NO","FM-12","ENKA ","V020","160,1,N,0050,1","03000,1,9,N","070000,1,N,1","+0020,1","-0056,1","10119,1",,,,"2,1,03,1","2,1,03,1",,"08,99,1,04,1,05,1,00800,1,02,1,99,9",,,"99999,9,09742,1","7,1,017,1,+999,9","02,1","SYN082AAXX  14151 01047 41588 81605 10020 21056 39742 40119 57017 70222 8452/ 333 4////;",
"01047099999","2010-04-14T18:00:00","4","69.0166667","23.0666667","307.0","KAUTOKEINO II, NO","FM-12","ENKA ","V020","160,1,N,0050,1","01200,1,9,N","006000,1,N,1","+0006,1","-0007,1","10094,1","12,9999,9,9",,,"7,1,06,1","2,1,06,1",,"08,99,1,08,1,00,1,01250,1,02,1,99,9",,"120,M,+0030,1","99999,9,09717,1","7,1,025,1,+999,9","71,1","SYN094AAXX  14181 01047 11656 81605 10006 21007 39717 40094 57025 69912 77172 8802/ 333 10030 4////;","Q01  00002PRCP12Q02  00002PRCP12"
"01047099999","2010-04-15T00:00:00","4","69.0166667","23.0666667","307.0","KAUTOKEINO II, NO","FM-12","ENKA ","V020","180,1,N,0010,1","22000,1,9,N","070000,1,N,1","+0010,1","-0014,1","10057,1",,,,"7,1,06,1","2,1,06,1",,"04,99,1,04,1,05,1,01250,1,00,1,00,1",,,"99999,9,09682,1","7,1,018,1,+999,9","02,1","SYN088AAXX  15001 01047 11688 41801 10010 21014 39682 40057 57018 6//// 70272 84500 333 4////;",
"01047099999","2010-04-15T06:00:00","4","69.0166667","23.0666667","307.0","KAUTOKEINO II, NO","FM-12","ENKA ","V020","180,1,N,0030,1","01500,1,9,N","070000,1,N,1","+0019,1","-0024,1","10035,1","12,0000,2,1","24,0003,9,1","0034,9,1,999999,9,9","7,1,06,1","2,1,06,1",,"05,99,1,05,1,00,1,01750,1,07,1,00,1","28,9","999,N,-0013,1","99999,9,09661,1","8,1,004,1,+999,9","02,1","SYN100AAXX  15061 01047 11788 51803 10019 21024 39661 40035 58004 69912 70272 85070 333 21013 44034 70002;",
"01047099999","2010-04-15T09:00:00","4","69.0166667","23.0666667","307.0","KAUTOKEINO II, NO","FM-12","ENKA ","V020","220,1,N,0070,1","01500,1,9,N","070000,1,N,1","+0040,1","-0033,1","10021,1",,,,"2,1,03,1","2,1,03,1",,"08,99,1,08,1,00,1,01750,1,07,1,99,9",,,"99999,9,09651,1","7,1,011,1,+999,9","02,1","SYN082AAXX  15091 01047 41788 82207 10040 21033 39651 40021 57011 70222 8807/ 333 4////;",
"01047099999","2010-04-15T12:00:00","4","69.0166667","23.0666667","307.0","KAUTOKEINO II, NO","FM-12","ENKA ","V020","180,1,N,0050,1","02100,1,9,N","070000,1,N,1","+0050,1","-0023,1","10007,1",,,,"2,1,06,1","2,1,06,1",,"06,99,1,06,1,00,1,02250,1,04,1,00,1",,,"99999,9,09638,1","7,1,012,1,+999,9","02,1","SYN088AAXX  15121 01047 11888 61805 10050 21023 39638 40007 57012 6//// 70222 86040 333 4////;",
"01047099999","2010-04-15T15:00:00","4","69.0166667","23.0666667","307.0","KAUTOKEINO II, NO","FM-12","ENKA ","V020","180,1,N,0050,1","02100,1,9,N","070000,1,N,1","+0053,1","-0023,1","09994,1",,,,"2,1,03,1","2,1,03,1",,"07,99,1,07,1,00,1,02250,1,04,1,00,1",,,"99999,9,09626,1","6,1,012,1,+999,9","02,1","SYN082AAXX  15151 01047 41888 71805 10053 21023 39626 49994 56012 70222 87040 333 4////;",
"01047099999","2010-04-15T18:00:00","4","69.0166667","23.0666667","307.0","KAUTOKEINO II, NO","FM-12","ENKA ","V020","140,1,N,0030,1","01200,1,9,N","070000,1,N,1","+0028,1","-0008,1","09975,1","12,9999,9,9",,,"6,1,06,1","2,1,06,1",,"08,99,1,08,1,00,1,01250,1,02,1,99,9",,"120,M,+0055,1","99999,9,09605,1","7,1,021,1,+999,9","21,1","SYN094AAXX  15181 01047 11688 81403 10028 21008 39605 49975 57021 69912 72162 8802/ 333 10055 4////;","Q01  00002PRCP12Q02  00002PRCP12"
"01047099999","2010-04-16T00:00:00","4","69.0166667","23.0666667","307.0","KAUTOKEINO II, NO","FM-12","ENKA ","V020","999,9,C,0000,1","01200,1,9,N","001500,1,N,1","+0004,1","-0006,1","09956,1",,,,"7,1,06,1","2,1,06,1",,"08,99,1,08,1,00,1,01250,1,02,1,99,9",,,"99999,9,09585,1","7,1,012,1,+999,9","73,1","SYN088AAXX  16001 01047 11615 80000 10004 21006 39585 49956 57012 6//// 77372 8802/ 333 4////;",
"01047099999","2010-04-16T06:00:00","4","69.0166667","23.0666667","307.0","KAUTOKEINO II, NO","FM-12","ENKA ","V020","320,1,N,0050,1","01200,1,9,N","065000,1,N,1","+0003,1","-0047,1","09957,1","12,0020,9,2","24,0018,9,2","0036,9,1,999999,9,9","7,1,06,1","2,1,06,1",,"08,99,1,08,1,00,1,01250,1,02,1,99,9","28,9","999,N,-0002,1","99999,9,09585,1","4,1,000,1,+999,9","02,1","SYN100AAXX  16061 01047 11687 83205 10003 21047 39585 49957 54000 60022 70272 8802/ 333 21002 44036 70018;",
"01047099999","2010-04-16T09:00:00","4","69.0166667","23.0666667","307.0","KAUTOKEINO II, NO","FM-12","ENKA ","V020","320,1,N,0050,1","03000,1,9,N","070000,1,N,1","+0006,1","-0065,1","09956,1",,,,"2,1,03,1","2,1,03,1",,"08,99,1,04,1,05,1,00800,1,02,1,99,9",,,"99999,9,09584,1","4,1,000,1,+999,9","02,1","SYN082AAXX  16091 01047 41588 83205 10006 21065 39584 49956 54000 70222 8452/ 333 4////;",
"01047099999","2010-04-16T12:00:00","4","69.0166667","23.0666667","307.0","KAUTOKEINO II, NO","FM-12","ENKA ","V020","320,1,N,0050,1","00420,1,9,N","065000,1,N,1","+0021,1","-0042,1","09958,1",,,,"8,1,06,1","2,1,06,1",,"07,99,1,07,1,09,1,00450,1,00,1,00,1",,,"99999,9,09587,1","1,1,003,1,+999,9","26,1","SYN088AAXX  16121 01047 11487 73205 10021 21042 39587 49958 51003 6//// 72682 87900 333 4////;",
"01047099999","2010-04-16T15:00:00","4","69.0166667","23.0666667","307.0","KAUTOKEINO II, NO","FM-12","ENKA ","V020","320,1,N,0050,1","00750,1,9,N","070000,1,N,1","+0006,1","-0060,1","09959,1",,,,"8,1,03,1","2,1,03,1",,"07,99,1,07,1,09,1,00800,1,00,1,00,1",,,"99999,9,09588,1","4,1,000,1,+999,9","02,1","SYN082AAXX  16151 01047 41588 73205 10006 21060 39588 49959 54000 70282 87900 333 4////;",
"01047099999","2010-04-16T18:00:00","4","69.0166667","23.0666667","307.0","KAUTOKEINO II, NO","FM-12","ENKA ","V020","320,1,N,0050,1","00750,1,9,N","070000,1,N,1","-0025,1","-0069,1","09958,1","12,0000,2,1",,,"8,1,06,1","2,1,06,1",,"06,99,1,05,1,09,1,00800,1,04,1,00,1",,"120,M,+0028,1","99999,9,09585,1","7,1,002,1,+999,9","02,1","SYN094AAXX  16181 01047 11588 63205 11025 21069 39585 49958 57002 69922 70282 85940 333 10028 4////;",
"01047099999","2010-04-17T00:00:00","4","69.0166667","23.0666667","307.0","KAUTOKEINO II, NO","FM-12","ENKA ","V020","180,1,N,0050,1","22000,1,9,N","070000,1,N,1","-0088,1","-0117,1","09945,1",,,,"1,1,06,1","1,1,06,1",,"02,99,1,02,1,04,1,01250,1,00,1,00,1",,,"99999,9,09570,1","7,1,005,1,+999,9","02,1","SYN088AAXX  17001 01047 11688 21805 11088 21117 39570 49945 57005 6//// 70211 82400 333 4////;",
"01047099999","2010-04-17T06:00:00","4","69.0166667","23.0666667","307.0","KAUTOKEINO II, NO","FM-12","ENKA ","V020","180,1,N,0030,1","01200,1,9,N","070000,1,N,1","-0043,1","-0086,1","09928,1","12,0005,9,1","24,0008,9,1","0036,9,1,999999,9,9","8,1,06,1","2,1,06,1",,"07,99,1,05,1,04,1,01250,1,07,1,00,1","28,9","999,N,-0102,1","99999,9,09556,1","6,1,006,1,+999,9","02,1","SYN100AAXX  17061 01047 11688 71803 11043 21086 39556 49928 56006 69962 70282 85470 333 21102 44036 70008;",
"01047099999","2010-04-17T09:00:00","4","69.0166667","23.0666667","307.0","KAUTOKEINO II, NO","FM-12","ENKA ","V020","180,1,N,0030,1","22000,1,9,N","070000,1,N,1","-0002,1","-0066,1","09927,1",,,,"2,1,03,1","0,1,03,1",,"03,99,1,03,1,00,1,01750,1,07,1,00,1",,,"99999,9,09556,1","5,1,001,1,+999,9","01,1","SYN082AAXX  17091 01047 41788 31803 11002 21066 39556 49927 55001 70120 83070 333 4////;",
"01047099999","2010-04-17T12:00:00","4","69.0166667","23.0666667","307.0","KAUTOKEINO II, NO","FM-12","ENKA ","V020","180,1,N,0070,1","22000,1,9,N","070000,1,N,1","+0010,1","-0077,1","09933,1",,,,"0,1,06,1","0,1,06,1",,"03,99,1,00,1,00,1,99999,9,00,1,02,1",,,"99999,9,09563,1","3,1,006,1,+999,9","02,1","SYN088AAXX  17121 01047 11988 31807 10010 21077 39563 49933 53006 6//// 70200 80002 333 4////;",
"01047099999","2010-04-17T15:00:00","4","69.0166667","23.0666667","307.0","KAUTOKEINO II, NO","FM-12","ENKA ","V020","270,1,N,0050,1","22000,1,9,N","070000,1,N,1","+0016,1","-0084,1","09933,1",,,,"0,1,03,1","0,1,03,1",,"03,99,1,03,1,00,1,02250,1,04,1,00,1",,,"99999,9,09563,1","4,1,000,1,+999,9","02,1","SYN082AAXX  17151 01047 41888 32705 10016 21084 39563 49933 54000 70200 83040 333 4////;",
"01047099999","2010-04-17T18:00:00","4","69.0166667","23.0666667","307.0","KAUTOKEINO II, NO","FM-12","ENKA ","V020","220,1,N,0050,1","22000,1,9,N","070000,1,N,1","-0020,1","-0094,1","09932,1","12,0000,9,1",,,"0,1,06,1","0,1,06,1",,"02,99,1,02,1,00,1,02250,1,04,1,00,1",,"120,M,+0020,1","99999,9,09561,1","7,1,002,1,+999,9","02,1","SYN094AAXX  17181 01047 11888 22205 11020 21094 39561 49932 57002 60002 70200 82040 333 10020 4////;","Q01  00002PRCP12"
"01047099999","2010-04-18T00:00:00","4","69.0166667","23.0666667","307.0","KAUTOKEINO II, NO","FM-12","ENKA ","V020","180,1,N,0010,1","22000,1,9,N","070000,1,N,1","-0118,1","-0130,1","09933,1",,,,"0,1,06,1","0,1,06,1",,"03,99,1,03,1,00,1,02250,1,04,1,00,1",,,"99999,9,09557,1","4,1,000,1,+999,9","02,1","SYN088AAXX  18001 01047 11888 31801 11118 21130 39557 49933 54000 6//// 70200 83040 333 4////;",
"01047099999","2010-04-18T06:00:00","4","69.0166667","23.0666667","307.0","KAUTOKEINO II, NO","FM-12","ENKA ","V020","999,9,C,0000,1","22000,1,9,N","070000,1,N,1","-0090,1","-0122,1","09925,1","12,0000,9,1","24,0000,9,1","0036,9,1,999999,9,9","0,1,06,1","0,1,06,1",,"02,99,1,00,1,00,1,99999,9,00,1,08,1","28,9","999,N,-0144,1","99999,9,09550,1","6,1,003,1,+999,9","02,1","SYN100AAXX  18061 01047 11988 20000 11090 21122 39550 49925 56003 60002 70200 80008 333 21144 44036 70000;","Q01  00002PRCP24Q02  00002PRCP12"
"01047099999","2010-04-18T09:00:00","4","69.0166667","23.0666667","307.0","KAUTOKEINO II, NO","FM-12","ENKA ","V020","999,9,C,0000,1","22000,1,9,N","070000,1,N,1","-0018,1","-0094,1","09917,1",,,,"0,1,03,1","0,1,03,1",,"03,99,1,00,1,00,1,99999,9,00,1,08,1",,,"99999,9,09546,1","6,1,005,1,+999,9","02,1","SYN082AAXX  18091 01047 41988 30000 11018 21094 39546 49917 56005 70200 80008 333 4////;",
"01047099999","2010-04-18T12:00:00","4","69.0166667","23.0666667","307.0","KAUTOKEINO II, NO","FM-12","ENKA ","V020","180,1,N,0010,1","22000,1,9,N","070000,1,N,1","-0004,1","-0085,1","09921,1",,,,"0,1,06,1","0,1,06,1","00,1,+99999,9,99,9","00,99,1,00,1,00,1,99999,9,00,1,00,1",,,"99999,9,09551,1","2,1,005,1,+999,9","02,1","SYN082AAXX  18121 01047 11988 01801 11004 21085 39551 49921 52005 6//// 70200 333 4////;",
"01047099999","2010-04-18T15:00:00","4","69.0166667","23.0666667","307.0","KAUTOKEINO II, NO","FM-12","ENKA ","V020","320,1,N,0030,1","22000,1,9,N","070000,1,N,1","+0006,1","-0096,1","09928,1",,,,"0,1,03,1","0,1,03,1","00,1,+99999,9,99,9","00,99,1,00,1,00,1,99999,9,00,1,00,1",,,"99999,9,09558,1","2,1,007,1,+999,9","02,1","SYN076AAXX  18151 01047 41988 03203 10006 21096 39558 49928 52007 70200 333 4////;",
"01047099999","2010-04-18T18:00:00","4","69.0166667","23.0666667","307.0","KAUTOKEINO II, NO","FM-12","ENKA ","V020","320,1,N,0030,1","22000,1,9,N","070000,1,N,1","-0038,1","-0101,1","09937,1","12,0000,9,1",,,"0,1,06,1","0,1,06,1",,"02,99,1,02,1,00,1,01750,1,03,1,00,1",,"120,M,+0015,1","99999,9,09565,1","2,1,007,1,+999,9","02,1","SYN094AAXX  18181 01047 11788 23203 11038 21101 39565 49937 52007 60002 70200 82030 333 10015 4////;","Q01  00002PRCP12"
"01047099999","2010-04-19T00:00:00","4","69.0166667","23.0666667","307.0","KAUTOKEINO II, NO","FM-12","ENKA ","V020","999,9,C,0000,1","22000,1,9,N","070000,1,N,1","-0145,1","-0156,1","09961,1",,,,"0,1,06,1","0,1,06,1","00,1,+99999,9,99,9","00,99,1,00,1,00,1,99999,9,00,1,00,1",,,"99999,9,09583,1","2,1,008,1,+999,9","02,1","SYN082AAXX  19001 01047 11988 00000 11145 21156 39583 49961 52008 6//// 70200 333 4////;",
"01047099999","2010-04-19T06:00:00","4","69.0166667","23.0666667","307.0","KAUTOKEINO II, NO","FM-12","ENKA ","V020","999,9,C,0000,1","22000,1,9,N","070000,1,N,1","-0089,1","-0134,1","09977,1","12,0000,9,1","24,0000,9,1","0036,9,1,999999,9,9","0,1,06,1","0,1,06,1",,"02,99,1,00,1,00,1,99999,9,00,1,08,1","28,9","999,N,-0163,1","99999,9,09601,1","1,1,006,1,+999,9","02,1","SYN100AAXX  19061 01047 11988 20000 11089 21134 39601 49977 51006 60002 70200 80008 333 21163 44036 70000;","Q01  00002PRCP24Q02  00002PRCP12"
"01047099999","2010-04-19T09:00:00","4","69.0166667","23.0666667","307.0","KAUTOKEINO II, NO","FM-12","ENKA ","V020","320,1,N,0030,1","01500,1,9,N","070000,1,N,1","-0012,1","-0086,1","09986,1",,,,"1,1,03,1","1,1,03,1",,"05,99,1,05,1,00,1,01750,1,07,1,00,1",,,"99999,9,09612,1","2,1,012,1,+999,9","02,1","SYN082AAXX  19091 01047 41788 53203 11012 21086 39612 49986 52012 70211 85070 333 4////;",
"01047099999","2010-04-19T12:00:00","4","69.0166667","23.0666667","307.0","KAUTOKEINO II, NO","FM-12","ENKA ","V020","320,1,N,0050,1","01500,1,9,N","070000,1,N,1","+0008,1","-0052,1","10002,1",,,,"1,1,06,1","1,1,06,1",,"05,99,1,05,1,00,1,01750,1,07,1,00,1",,,"99999,9,09629,1","2,1,017,1,+999,9","02,1","SYN088AAXX  19121 01047 11788 53205 10008 21052 39629 40002 52017 6//// 70211 85070 333 4////;",
"01047099999","2010-04-19T15:00:00","4","69.0166667","23.0666667","307.0","KAUTOKEINO II, NO","FM-12","ENKA ","V020","320,1,N,0050,1","01500,1,9,N","070000,1,N,1","+0018,1","-0049,1","10013,1",,,,"1,1,03,1","1,1,03,1",,"06,99,1,06,1,00,1,01750,1,09,1,00,1",,,"99999,9,09640,1","2,1,011,1,+999,9","02,1","SYN082AAXX  19151 01047 41788 63205 10018 21049 39640 40013 52011 70211 86090 333 4////;",
"01047099999","2010-04-19T18:00:00","4","69.0166667","23.0666667","307.0","KAUTOKEINO II, NO","FM-12","ENKA ","V020","320,1,N,0050,1","01200,1,9,N","070000,1,N,1","-0010,1","-0054,1","10026,1","12,0000,9,1",,,"2,1,06,1","2,1,06,1",,"06,99,1,06,1,05,1,01250,1,00,1,00,1",,"120,M,+0030,1","99999,9,09651,1","2,1,011,1,+999,9","02,1","SYN094AAXX  19181 01047 11688 63205 11010 21054 39651 40026 52011 60002 70222 86500 333 10030 4////;","Q01  00002PRCP12"
"01047099999","2010-04-20T00:00:00","4","69.0166667","23.0666667","307.0","KAUTOKEINO II, NO","FM-12","ENKA ","V020","180,1,N,0050,1","01200,1,9,N","070000,1,N,1","-0080,1","-0092,1","10051,1",,,,"2,1,06,1","2,1,06,1",,"06,99,1,06,1,05,1,01250,1,00,1,00,1",,,"99999,9,09672,1","1,1,008,1,+999,9","02,1","SYN088AAXX  20001 01047 11688 61805 11080 21092 39672 40051 51008 6//// 70222 86500 333 4////;",
"01047099999","2010-04-20T06:00:00","4","69.0166667","23.0666667","307.0","KAUTOKEINO II, NO","FM-12","ENKA ","V020","999,9,C,0000,1","22000,1,9,N","070000,1,N,1","-0040,1","-0081,1","10065,1","12,0000,9,1","24,0000,9,1","0035,9,1,999999,9,9","2,1,06,1","0,1,06,1","00,1,+99999,9,99,9","00,99,1,00,1,00,1,99999,9,00,1,00,1","28,9","999,N,-0083,1","99999,9,09688,1","3,1,005,1,+999,9","02,1","SYN094AAXX  20061 01047 11988 00000 11040 21081 39688 40065 53005 60002 70220 333 21083 44035 70000;","Q01  00002PRCP24Q02  00002PRCP12"
"01047099999","2010-04-20T09:00:00","4","69.0166667","23.0666667","307.0","KAUTOKEINO II, NO","FM-12","ENKA ","V020","180,1,N,0010,1","22000,1,9,N","070000,1,N,1","+0008,1","-0079,1","10072,1",,,,"0,1,03,1","0,1,03,1",,"04,99,1,04,1,00,1,02250,1,04,1,00,1",,,"99999,9,09696,1","2,1,009,1,+999,9","02,1","SYN082AAXX  20091 01047 41888 41801 10008 21079 39696 40072 52009 70200 84040 333 4////;",
"01047099999","2010-04-20T12:00:00","4","69.0166667","23.0666667","307.0","KAUTOKEINO II, NO","FM-12","ENKA ","V020","320,1,N,0050,1","22000,1,9,N","070000,1,N,1","+0018,1","-0065,1","10080,1",,,,"0,1,06,1","0,1,06,1",,"03,99,1,03,1,01,1,01250,1,00,1,00,1",,,"99999,9,09705,1","2,1,008,1,+999,9","02,1","SYN088AAXX  20121 01047 11688 33205 10018 21065 39705 40080 52008 6//// 70200 83100 333 4////;",
"01047099999","2010-04-20T15:00:00","4","69.0166667","23.0666667","307.0","KAUTOKEINO II, NO","FM-12","ENKA ","V020","320,1,N,0030,1","01200,1,9,N","070000,1,N,1","+0028,1","-0039,1","10083,1",,,,"1,1,03,1","1,1,03,1",,"05,99,1,05,1,05,1,01250,1,00,1,00,1",,,"99999,9,09709,1","1,1,004,1,+999,9","02,1","SYN082AAXX  20151 01047 41688 53203 10028 21039 39709 40083 51004 70211 85500 333 4////;",
"01047099999","2010-04-20T18:00:00","4","69.0166667","23.0666667","307.0","KAUTOKEINO II, NO","FM-12","ENKA ","V020","320,1,N,0030,1","22000,1,9,N","070000,1,N,1","-0005,1","-0049,1","10091,1","12,0000,9,1",,,"1,1,06,1","1,1,06,1",,"04,99,1,04,1,05,1,01250,1,00,1,00,1",,"120,M,+0035,1","99999,9,09714,1","3,1,005,1,+999,9","02,1","SYN094AAXX  20181 01047 11688 43203 11005 21049 39714 40091 53005 60002 70211 84500 333 10035 4////;","Q01  00002PRCP12"
"01047099999","2010-04-21T00:00:00","4","69.0166667","23.0666667","307.0","KAUTOKEINO II, NO","FM-12","ENKA ","V020","340,1,N,0010,1","01200,1,9,N","070000,1,N,1","-0065,1","-0095,1","10114,1",,,,"2,1,06,1","2,1,06,1",,"06,99,1,06,1,05,1,01250,1,00,1,00,1",,,"99999,9,09734,1","2,1,005,1,+999,9","02,1","SYN088AAXX  21001 01047 11688 63401 11065 21095 39734 40114 52005 6//// 70222 86500 333 4////;",
"01047099999","2010-04-21T06:00:00","4","69.0166667","23.0666667","307.0","KAUTOKEINO II, NO","FM-12","ENKA ","V020","999,9,C,0000,1","01500,1,9,N","070000,1,N,1","-0042,1","-0090,1","10123,1","12,0000,9,1","24,0000,9,1","0035,9,1,999999,9,9","2,1,06,1","1,1,06,1",,"05,99,1,05,1,00,1,01750,1,03,1,00,1","28,9","999,N,-0095,1","99999,9,09744,1","3,1,003,1,+999,9","02,1","SYN100AAXX  21061 01047 11788 50000 11042 21090 39744 40123 53003 60002 70221 85030 333 21095 44035 70000;","Q01  00002PRCP24Q02  00002PRCP12"
"01047099999","2010-04-21T09:00:00","4","69.0166667","23.0666667","307.0","KAUTOKEINO II, NO","FM-12","ENKA ","V020","999,9,C,0000,1","22000,1,9,N","070000,1,N,1","-0002,1","-0073,1","10122,1",,,,"1,1,03,1","1,1,03,1",,"03,99,1,00,1,00,1,99999,9,00,1,02,1",,,"99999,9,09744,1","4,1,000,1,+999,9","02,1","SYN082AAXX  21091 01047 41988 30000 11002 21073 39744 40122 54000 70211 80002 333 4////;",
"01047099999","2010-04-21T12:00:00","4","69.0166667","23.0666667","307.0","KAUTOKEINO II, NO","FM-12","ENKA ","V020","999,9,C,0000,1","22000,1,9,N","070000,1,N,1","+0013,1","-0067,1","10122,1",,,,"1,1,06,1","1,1,06,1",,"04,99,1,00,1,00,1,99999,9,00,1,02,1",,,"99999,9,09745,1","1,1,001,1,+999,9","02,1","SYN088AAXX  21121 01047 11988 40000 10013 21067 39745 40122 51001 6//// 70211 80002 333 4////;",
"01047099999","2010-04-21T15:00:00","4","69.0166667","23.0666667","307.0","KAUTOKEINO II, NO","FM-12","ENKA ","V020","320,1,N,0030,1","22000,1,9,N","070000,1,N,1","+0031,1","-0060,1","10116,1",,,,"0,1,03,1","0,1,03,1",,"04,99,1,00,1,00,1,99999,9,00,1,02,1",,,"99999,9,09741,1","7,1,004,1,+999,9","02,1","SYN082AAXX  21151 01047 41988 43203 10031 21060 39741 40116 57004 70200 80002 333 4////;",
"01047099999","2010-04-21T18:00:00","4","69.0166667","23.0666667","307.0","KAUTOKEINO II, NO","FM-12","ENKA ","V020","320,1,N,0010,1","03000,1,9,N","070000,1,N,1","+0002,1","-0062,1","10122,1","12,0000,9,1",,,"1,1,06,1","0,1,06,1",,"05,99,1,03,1,04,1,01250,1,04,1,00,1",,"120,M,+0036,1","99999,9,09744,1","4,1,000,1,+999,9","02,1","SYN094AAXX  21181 01047 11688 53201 10002 21062 39744 40122 54000 60002 70210 83440 333 10036 4////;","Q01  00002PRCP12"
"01047099999","2010-04-22T00:00:00","4","69.0166667","23.0666667","307.0","KAUTOKEINO II, NO","FM-12","ENKA ","V020","270,1,N,0030,1","00030,1,9,N","000300,1,N,1","-0048,1","-0054,1","10134,1",,,,"4,1,06,1","2,1,06,1","09,1,+99999,9,99,9","09,99,1,09,1,99,9,99999,9,99,9,99,9",,,"99999,9,09753,1","2,1,005,1,+999,9","44,1","SYN082AAXX  22001 01047 11/03 92703 11048 21054 39753 40134 52005 6//// 74442 333 4////;",
"01047099999","2010-04-22T06:00:00","4","69.0166667","23.0666667","307.0","KAUTOKEINO II, NO","FM-12","ENKA ","V020","270,1,N,0010,1","01200,1,9,N","006000,1,N,1","-0094,1","-0105,1","10138,1","12,0000,9,1","24,0000,9,1","0035,9,1,999999,9,9","4,1,06,1","2,1,06,1",,"08,99,1,08,1,00,1,01250,1,02,1,99,9","28,9","999,N,-0102,1","99999,9,09755,1","4,1,000,1,+999,9","10,1","SYN100AAXX  22061 01047 11656 82701 11094 21105 39755 40138 54000 60002 71042 8802/ 333 21102 44035 70000;","Q01  00002PRCP24Q02  00002PRCP12"
"01047099999","2010-04-22T09:00:00","4","69.0166667","23.0666667","307.0","KAUTOKEINO II, NO","FM-12","ENKA ","V020","270,1,N,0010,1","01500,1,9,N","070000,1,N,1","-0042,1","-0079,1","10133,1",,,,"2,1,03,1","2,1,03,1",,"08,99,1,08,1,00,1,01750,1,07,1,99,9",,,"99999,9,09753,1","4,1,000,1,+999,9","02,1","SYN082AAXX  22091 01047 41788 82701 11042 21079 39753 40133 54000 70222 8807/ 333 4////;",
"01047099999","2010-04-22T12:00:00","4","69.0166667","23.0666667","307.0","KAUTOKEINO II, NO","FM-12","ENKA ","V020","320,1,N,0030,1","01500,1,9,N","070000,1,N,1","+0006,1","-0060,1","10121,1",,,,"2,1,06,1","2,1,06,1",,"06,99,1,06,1,00,1,01750,1,07,1,00,1",,,"99999,9,09744,1","8,1,010,1,+999,9","02,1","SYN088AAXX  22121 01047 11788 63203 10006 21060 39744 40121 58010 6//// 70222 86070 333 4////;",
"01047099999","2010-04-22T15:00:00","4","69.0166667","23.0666667","307.0","KAUTOKEINO II, NO","FM-12","ENKA ","V020","320,1,N,0030,1","99999,9,9,N","070000,1,N,1","+0020,1","-0056,1","10112,1",,,,"2,1,03,1","2,1,03,1",,"05,99,1,00,1,00,1,99999,9,00,1,08,1",,,"99999,9,09736,1","7,1,008,1,+999,9","02,1","SYN082AAXX  22151 01047 41988 53203 10020 21056 39736 40112 57008 70222 80008 333 4////;",
"01047099999","2010-04-22T18:00:00","4","69.0166667","23.0666667","307.0","KAUTOKEINO II, NO","FM-12","ENKA ","V020","320,1,N,0030,1","22000,1,9,N","070000,1,N,1","-0020,1","-0064,1","10110,1","12,0000,9,1",,,"2,1,06,1","2,1,06,1",,"04,99,1,00,1,00,1,99999,9,00,1,08,1",,"120,M,+0025,1","99999,9,09732,1","6,1,003,1,+999,9","02,1","SYN094AAXX  22181 01047 11988 43203 11020 21064 39732 40110 56003 60002 70222 80008 333 10025 4////;","Q01  00002PRCP12"
"01047099999","2010-04-23T00:00:00","4","69.0166667","23.0666667","307.0","KAUTOKEINO II, NO","FM-12","ENKA ","V020","340,1,N,0030,1","01200,1,9,N","070000,1,N,1","-0058,1","-0078,1","10094,1",,,,"2,1,06,1","2,1,06,1",,"06,99,1,06,1,05,1,01250,1,00,1,00,1",,,"99999,9,09714,1","7,1,008,1,+999,9","02,1","SYN088AAXX  23001 01047 11688 63403 11058 21078 39714 40094 57008 6//// 70222 86500 333 4////;",
"01047099999","2010-04-23T06:00:00","4","69.0166667","23.0666667","307.0","KAUTOKEINO II, NO","FM-12","ENKA ","V020","999,9,C,0000,1","01200,1,9,N","070000,1,N,1","-0024,1","-0073,1","10082,1","12,0000,9,1","24,0000,9,1","0034,9,1,999999,9,9","2,1,06,1","2,1,06,1",,"05,99,1,05,1,05,1,01250,1,00,1,00,1","28,9","999,N,-0060,1","99999,9,09704,1","6,1,002,1,+999,9","02,1","SYN100AAXX  23061 01047 11688 50000 11024 21073 39704 40082 56002 60002 70222 85500 333 21060 44034 70000;","Q01  00002PRCP24Q02  00002PRCP12"
"01047099999","2010-04-23T09:00:00","4","69.0166667","23.0666667","307.0","KAUTOKEINO II, NO","FM-12","ENKA ","V020","360,1,N,0070,1","01500,1,9,N","070000,1,N,1","+0000,1","-0059,1","10076,1",,,,"2,1,03,1","2,1,03,1",,"06,99,1,06,1,00,1,01750,1,07,1,00,1",,,"99999,9,09700,1","6,1,005,1,+999,9","02,1","SYN082AAXX  23091 01047 41788 63607 10000 21059 39700 40076 56005 70222 86070 333 4////;",
"01047099999","2010-04-23T12:00:00","4","69.0166667","23.0666667","307.0","KAUTOKEINO II, NO","FM-12","ENKA ","V020","360,1,N,0100,1","01200,1,9,N","070000,1,N,1","+0010,1","-0056,1","10065,1",,,,"2,1,06,1","2,1,06,1",,"08,99,1,08,1,00,1,01250,1,02,1,99,9",,,"99999,9,09690,1","7,1,010,1,+999,9","02,1","SYN088AAXX  23121 01047 11688 83610 10010 21056 39690 40065 57010 6//// 70222 8802/ 333 4////;",
"01047099999","2010-04-23T15:00:00","4","69.0166667","23.0666667","307.0","KAUTOKEINO II, NO","FM-12","ENKA ","V020","360,1,N,0070,1","00750,1,9,N","010000,1,N,1","+0004,1","-0042,1","10066,1",,,,"8,1,03,1","2,1,03,1",,"08,99,1,08,1,09,1,00800,1,99,9,99,9",,,"99999,9,09690,1","4,1,000,1,+999,9","85,1","SYN082AAXX  23151 01047 41560 83607 10004 21042 39690 40066 54000 78582 889// 333 4////;",
"01047099999","2010-04-23T18:00:00","4","69.0166667","23.0666667","307.0","KAUTOKEINO II, NO","FM-12","ENKA ","V020","360,1,N,0070,1","00750,1,9,N","010000,1,N,1","-0004,1","-0038,1","10068,1","12,0000,2,1",,,"8,1,06,1","2,1,06,1",,"08,99,1,08,1,09,1,00800,1,99,9,99,9",,"120,M,+0012,1","99999,9,09692,1","3,1,002,1,+999,9","85,1","SYN094AAXX  23181 01047 11560 83607 11004 21038 39692 40068 53002 69912 78582 889// 333 10012 4////;",
"01047099999","2010-04-24T00:00:00","4","69.0166667","23.0666667","307.0","KAUTOKEINO II, NO","FM-12","ENKA ","V020","360,1,N,0070,1","00750,1,9,N","070000,1,N,1","-0020,1","-0038,1","10075,1",,,,"8,1,06,1","7,1,06,1",,"08,99,1,06,1,07,1,00800,1,02,1,99,9",,,"99999,9,09698,1","4,1,000,1,+999,9","02,1","SYN088AAXX  24001 01047 11588 83607 11020 21038 39698 40075 54000 6//// 70287 8672/ 333 4////;",
"01047099999","2010-04-24T06:00:00","4","69.0166667","23.0666667","307.0","KAUTOKEINO II, NO","FM-12","ENKA ","V020","320,1,N,0070,1","01500,1,9,N","070000,1,N,1","-0019,1","-0070,1","10095,1","12,0008,9,1","24,0008,9,1","0036,9,1,999999,9,9","8,1,06,1","7,1,06,1",,"08,99,1,08,1,00,1,01750,1,01,1,99,9","24,9","999,N,-0023,1","99999,9,09718,1","3,1,008,1,+999,9","02,1","SYN100AAXX  24061 01047 11788 83207 11019 21070 39718 40095 53008 69972 70287 8801/ 333 21023 48036 70008;",
"01047099999","2010-04-24T09:00:00","4","69.0166667","23.0666667","307.0","KAUTOKEINO II, NO","FM-12","ENKA ","V020","320,1,N,0070,1","00750,1,9,N","070000,1,N,1","-0009,1","-0060,1","10107,1",,,,"2,1,03,1","2,1,03,1",,"08,99,1,06,1,07,1,00800,1,02,1,99,9",,,"99999,9,09729,1","2,1,012,1,+999,9","02,1","SYN082AAXX  24091 01047 41588 83207 11009 21060 39729 40107 52012 70222 8672/ 333 4////;",
"01047099999","2010-04-24T12:00:00","4","69.0166667","23.0666667","307.0","KAUTOKEINO II, NO","FM-12","ENKA ","V020","360,1,N,0100,1","00750,1,9,N","002500,1,N,1","-0014,1","-0058,1","10117,1",,,,"8,1,06,1","2,1,06,1",,"08,99,1,08,1,09,1,00800,1,99,9,99,9",,,"99999,9,09739,1","2,1,009,1,+999,9","85,1","SYN088AAXX  24121 01047 11525 83610 11014 21058 39739 40117 52009 6//// 78582 889// 333 4////;",
"01047099999","2010-04-24T15:00:00","4","69.0166667","23.0666667","307.0","KAUTOKEINO II, NO","FM-12","ENKA ","V020","360,1,N,0100,1","03000,1,9,N","070000,1,N,1","-0006,1","-0072,1","10136,1",,,,"8,1,03,1","2,1,03,1",,"05,99,1,04,1,09,1,00800,1,04,1,00,1",,,"99999,9,09757,1","2,1,018,1,+999,9","02,1","SYN082AAXX  24151 01047 41588 53610 11006 21072 39757 40136 52018 70282 84940 333 4////;",
"01047099999","2010-04-24T18:00:00","4","69.0166667","23.0666667","307.0","KAUTOKEINO II, NO","FM-12","ENKA ","V020","340,1,N,0070,1","00750,1,9,N","003500,1,N,1","-0032,1","-0075,1","10154,1","12,0000,2,1",,,"8,1,06,1","2,1,06,1",,"08,99,1,08,1,09,1,00800,1,99,9,99,9",,"120,M,+0000,1","99999,9,09774,1","1,1,017,1,+999,9","85,1","SYN094AAXX  24181 01047 11535 83407 11032 21075 39774 40154 51017 69912 78582 889// 333 10000 4////;",
"01047099999","2010-04-25T00:00:00","4","69.0166667","23.0666667","307.0","KAUTOKEINO II, NO","FM-12","ENKA ","V020","320,1,N,0070,1","00750,1,9,N","070000,1,N,1","-0064,1","-0105,1","10176,1",,,,"8,1,06,1","2,1,06,1",,"08,99,1,08,1,05,1,00800,1,99,9,99,9",,,"99999,9,09793,1","2,1,010,1,+999,9","02,1","SYN088AAXX  25001 01047 11588 83207 11064 21105 39793 40176 52010 6//// 70282 885// 333 4////;",
"01047099999","2010-04-25T06:00:00","4","69.0166667","23.0666667","307.0","KAUTOKEINO II, NO","FM-12","ENKA ","V020","999,9,C,0000,1","01500,1,9,N","070000,1,N,1","-0036,1","-0093,1","10203,1","12,0000,2,1","24,0000,2,1","0034,9,1,999999,9,9","2,1,06,1","2,1,06,1",,"08,99,1,08,1,00,1,01750,1,07,1,99,9","30,9","999,N,-0070,1","99999,9,09820,1","2,1,010,1,+999,9","02,1","SYN100AAXX  25061 01047 11788 80000 11036 21093 39820 40203 52010 69902 70222 8807/ 333 21070 42034 70001;",
"01047099999","2010-04-25T09:00:00","4","69.0166667","23.0666667","307.0","KAUTOKEINO II, NO","FM-12","ENKA ","V020","320,1,N,0010,1","01500,1,9,N","070000,1,N,1","-0006,1","-0083,1","10210,1",,,,"2,1,03,1","2,1,03,1",,"05,99,1,05,1,00,1,01750,1,07,1,00,1",,,"99999,9,09828,1","2,1,009,1,+999,9","02,1","SYN082AAXX  25091 01047 41788 53201 11006 21083 39828 40210 52009 70222 85070 333 4////;",
"01047099999","2010-04-25T12:00:00","4","69.0166667","23.0666667","307.0","KAUTOKEINO II, NO","FM-12","ENKA ","V020","140,1,N,0050,1","22000,1,9,N","070000,1,N,1","-0005,1","-0080,1","10214,1",,,,"2,1,06,1","0,1,06,1","00,1,+99999,9,99,9","00,99,1,00,1,00,1,99999,9,00,1,00,1",,,"99999,9,09833,1","1,1,004,1,+999,9","01,1","SYN082AAXX  25121 01047 11988 01405 11005 21080 39833 40214 51004 6//// 70120 333 4////;",
"01047099999","2010-04-25T15:00:00","4","69.0166667","23.0666667","307.0","KAUTOKEINO II, NO","FM-12","ENKA ","V020","140,1,N,0050,1","22000,1,9,N","070000,1,N,1","+0006,1","-0076,1","10214,1",,,,"0,1,03,1","0,1,03,1",,"03,99,1,00,1,00,1,99999,9,00,1,08,1",,,"99999,9,09833,1","4,1,000,1,+999,9","02,1","SYN082AAXX  25151 01047 41988 31405 10006 21076 39833 40214 54000 70200 80008 333 4////;",
"01047099999","2010-04-25T18:00:00","4","69.0166667","23.0666667","307.0","KAUTOKEINO II, NO","FM-12","ENKA ","V020","180,1,N,0050,1","01500,1,9,N","070000,1,N,1","-0020,1","-0082,1","10209,1","12,0000,9,1",,,"2,1,06,1","2,1,06,1",,"08,99,1,08,1,00,1,01750,1,07,1,99,9",,"120,M,+0010,1","99999,9,09827,1","7,1,006,1,+999,9","02,1","SYN094AAXX  25181 01047 11788 81805 11020 21082 39827 40209 57006 60002 70222 8807/ 333 10010 4////;","Q01  00002PRCP12"
"01047099999","2010-04-26T00:00:00","4","69.0166667","23.0666667","307.0","KAUTOKEINO II, NO","FM-12","ENKA ","V020","090,1,N,0030,1","01500,1,9,N","070000,1,N,1","-0070,1","-0090,1","10204,1",,,,"2,1,06,1","2,1,06,1",,"06,99,1,06,1,00,1,01750,1,07,1,00,1",,,"99999,9,09820,1","7,1,004,1,+999,9","02,1","SYN088AAXX  26001 01047 11788 60903 11070 21090 39820 40204 57004 6//// 70222 86070 333 4////;",
"01047099999","2010-04-26T06:00:00","4","69.0166667","23.0666667","307.0","KAUTOKEINO II, NO","FM-12","ENKA ","V020","090,1,N,0010,1","01200,1,9,N","070000,1,N,1","-0050,1","-0074,1","10179,1","12,0000,9,1","24,0000,9,1","0034,9,1,999999,9,9","2,1,06,1","2,1,06,1",,"08,99,1,08,1,00,1,01250,1,02,1,99,9","30,9","999,N,-0087,1","99999,9,09797,1","7,1,013,1,+999,9","02,1","SYN100AAXX  26061 01047 11688 80901 11050 21074 39797 40179 57013 60002 70222 8802/ 333 21087 42034 70000;","Q01  00002PRCP24Q02  00002PRCP12"
"01047099999","2010-04-26T09:00:00","4","69.0166667","23.0666667","307.0","KAUTOKEINO II, NO","FM-12","ENKA ","V020","180,1,N,0100,1","99999,9,9,N","070000,1,N,1","+0000,1","-0051,1","10129,1",,,,"2,1,03,1","2,1,03,1",,"08,99,1,08,1,00,1,01250,1,01,1,99,9",,,"99999,9,09751,1","7,1,047,1,+999,9","02,1","SYN082AAXX  26091 01047 41688 81810 10000 21051 39751 40129 57047 70222 8801/ 333 4////;",
"01047099999","2010-04-26T12:00:00","4","69.0166667","23.0666667","307.0","KAUTOKEINO II, NO","FM-12","ENKA ","V020","180,1,N,0100,1","01200,1,9,N","001300,1,N,1","+0008,1","-0014,1","10088,1",,,,"7,1,06,1","2,1,06,1",,"08,99,1,08,1,00,1,01250,1,02,1,99,9",,,"99999,9,09712,1","7,1,038,1,+999,9","73,1","SYN088AAXX  26121 01047 11613 81810 10008 21014 39712 40088 57038 6//// 77372 8802/ 333 4////;",
"01047099999","2010-04-26T15:00:00","4","69.0166667","23.0666667","307.0","KAUTOKEINO II, NO","FM-12","ENKA ","V020","180,1,N,0100,1","01200,1,9,N","070000,1,N,1","+0022,1","-0009,1","10047,1",,,,"7,1,03,1","2,1,03,1",,"08,99,1,08,1,00,1,01250,1,02,1,99,9",,,"99999,9,09673,1","7,1,039,1,+999,9","02,1","SYN082AAXX  26151 01047 41688 81810 10022 21009 39673 40047 57039 70272 8802/ 333 4////;",
"01047099999","2010-04-26T18:00:00","4","69.0166667","23.0666667","307.0","KAUTOKEINO II, NO","FM-12","ENKA ","V020","180,1,N,0100,1","01200,1,9,N","070000,1,N,1","+0032,1","-0008,1","10008,1","12,0000,2,1",,,"7,1,06,1","2,1,06,1",,"08,99,1,08,1,00,1,01250,1,02,1,99,9",,"120,M,+0035,1","99999,9,09637,1","7,1,036,1,+999,9","02,1","SYN094AAXX  26181 01047 11688 81810 10032 21008 39637 40008 57036 69922 70272 8802/ 333 10035 4////;",
"01047099999","2010-04-27T00:00:00","4","69.0166667","23.0666667","307.0","KAUTOKEINO II, NO","FM-12","ENKA ","V020","320,1,N,0050,1","00750,1,9,N","070000,1,N,1","+0018,1","-0031,1","09976,1",,,,"2,1,06,1","2,1,06,1",,"08,99,1,08,1,05,1,00800,1,99,9,99,9",,,"99999,9,09605,1","6,1,015,1,+999,9","02,1","SYN088AAXX  27001 01047 11588 83205 10018 21031 39605 49976 56015 6//// 70222 885// 333 4////;",
"01047099999","2010-04-27T06:00:00","4","69.0166667","23.0666667","307.0","KAUTOKEINO II, NO","FM-12","ENKA ","V020","220,1,N,0070,1","22000,1,9,N","070000,1,N,1","+0005,1","-0065,1","09973,1","12,0000,9,1","24,0003,9,1","0034,9,1,999999,9,9","2,1,06,1","0,1,06,1",,"04,99,1,00,1,00,1,99999,9,00,1,08,1","30,9","999,N,+0005,1","99999,9,09601,1","6,1,002,1,+999,9","02,1","SYN100AAXX  27061 01047 11988 42207 10005 21065 39601 49973 56002 60002 70220 80008 333 20005 42034 70002;","Q01  00002PRCP12"
"01047099999","2010-04-27T09:00:00","4","69.0166667","23.0666667","307.0","KAUTOKEINO II, NO","FM-12","ENKA ","V020","220,1,N,0100,1","22000,1,9,N","070000,1,N,1","+0014,1","-0044,1","10003,1",,,,"0,1,03,1","0,1,03,1",,"02,99,1,02,1,01,1,01250,1,00,1,00,1",,,"99999,9,09630,1","3,1,029,1,+999,9","02,1","SYN082AAXX  27091 01047 41688 22210 10014 21044 39630 40003 53029 70200 82100 333 4////;",
"01047099999","2010-04-27T12:00:00","4","69.0166667","23.0666667","307.0","KAUTOKEINO II, NO","FM-12","ENKA ","V020","270,1,N,0100,1","99999,9,9,N","070000,1,N,1","+0018,1","-0049,1","10022,1",,,,"1,1,06,1","1,1,06,1",,"05,99,1,00,1,00,1,99999,9,00,1,08,1",,,"99999,9,09649,1","1,1,019,1,+999,9","02,1","SYN088AAXX  27121 01047 11988 52710 10018 21049 39649 40022 51019 6//// 70211 80008 333 4////;",
"01047099999","2010-04-27T15:00:00","4","69.0166667","23.0666667","307.0","KAUTOKEINO II, NO","FM-12","ENKA ","V020","320,1,N,0070,1","03000,1,9,N","070000,1,N,1","+0018,1","-0055,1","10039,1",,,,"2,1,03,1","2,1,03,1",,"06,99,1,02,1,02,1,01250,1,09,1,08,1",,,"99999,9,09665,1","1,1,016,1,+999,9","02,1","SYN082AAXX  27151 01047 41688 63207 10018 21055 39665 40039 51016 70222 82298 333 4////;",
"01047099999","2010-04-27T18:00:00","4","69.0166667","23.0666667","307.0","KAUTOKEINO II, NO","FM-12","ENKA ","V020","320,1,N,0070,1","01500,1,9,N","070000,1,N,1","-0010,1","-0066,1","10032,1","12,0000,9,1",,,"2,1,06,1","2,1,06,1",,"06,99,1,06,1,00,1,01750,1,04,1,00,1",,"120,M,+0025,1","99999,9,09657,1","6,1,009,1,+999,9","02,1","SYN094AAXX  27181 01047 11788 63207 11010 21066 39657 40032 56009 60002 70222 86040 333 10025 4////;","Q01  00002PRCP12"
"01047099999","2010-04-28T00:00:00","4","69.0166667","23.0666667","307.0","KAUTOKEINO II, NO","FM-12","ENKA ","V020","320,1,N,0070,1","01500,1,9,N","070000,1,N,1","-0044,1","-0090,1","10037,1",,,,"2,1,06,1","2,1,06,1",,"05,99,1,05,1,00,1,01750,1,04,1,00,1",,,"99999,9,09661,1","4,1,000,1,+999,9","02,1","SYN088AAXX  28001 01047 11788 53207 11044 21090 39661 40037 54000 6//// 70222 85040 333 4////;",
"01047099999","2010-04-28T06:00:00","4","69.0166667","23.0666667","307.0","KAUTOKEINO II, NO","FM-12","ENKA ","V020","220,1,N,0050,1","07500,1,9,N","070000,1,N,1","-0029,1","-0079,1","10024,1","12,0000,9,1","24,0000,9,1","0033,9,1,999999,9,9","2,1,06,1","2,1,06,1",,"06,99,1,04,1,00,1,01750,1,04,1,05,1","30,9","999,N,-0052,1","99999,9,09649,1","7,1,009,1,+999,9","02,1","SYN100AAXX  28061 01047 11788 62205 11029 21079 39649 40024 57009 60002 70222 84045 333 21052 42033 70000;","Q01  00002PRCP24Q02  00002PRCP12"
"01047099999","2010-04-28T09:00:00","4","69.0166667","23.0666667","307.0","KAUTOKEINO II, NO","FM-12","ENKA ","V020","220,1,N,0070,1","01500,1,9,N","070000,1,N,1","-0008,1","-0070,1","10023,1",,,,"2,1,03,1","2,1,03,1",,"07,99,1,06,1,00,1,01750,1,04,1,05,1",,,"99999,9,09648,1","4,1,000,1,+999,9","02,1","SYN082AAXX  28091 01047 41788 72207 11008 21070 39648 40023 54000 70222 86045 333 4////;",
"01047099999","2010-04-28T12:00:00","4","69.0166667","23.0666667","307.0","KAUTOKEINO II, NO","FM-12","ENKA ","V020","220,1,N,0050,1","00750,1,9,N","070000,1,N,1","-0002,1","-0061,1","10019,1",,,,"2,1,06,1","2,1,06,1",,"07,99,1,05,1,09,1,00800,1,04,1,00,1",,,"99999,9,09645,1","6,1,004,1,+999,9","02,1","SYN088AAXX  28121 01047 11588 72205 11002 21061 39645 40019 56004 6//// 70222 85940 333 4////;",
"01047099999","2010-04-28T15:00:00","4","69.0166667","23.0666667","307.0","KAUTOKEINO II, NO","FM-12","ENKA ","V020","270,1,N,0070,1","03000,1,9,N","070000,1,N,1","+0018,1","-0049,1","10009,1",,,,"2,1,03,1","2,1,03,1",,"07,99,1,02,1,04,1,01250,1,04,1,00,1",,,"99999,9,09636,1","8,1,008,1,+999,9","02,1","SYN082AAXX  28151 01047 41688 72707 10018 21049 39636 40009 58008 70222 82440 333 4////;",
"01047099999","2010-04-28T18:00:00","4","69.0166667","23.0666667","307.0","KAUTOKEINO II, NO","FM-12","ENKA ","V020","270,1,N,0070,1","01500,1,9,N","070000,1,N,1","-0015,1","-0071,1","10003,1","12,0000,9,1",,,"2,1,06,1","2,1,06,1",,"06,99,1,06,1,00,1,01750,1,07,1,00,1",,"120,M,+0018,1","99999,9,09629,1","6,1,007,1,+999,9","02,1","SYN094AAXX  28181 01047 11788 62707 11015 21071 39629 40003 56007 60002 70222 86070 333 10018 4////;","Q01  00002PRCP12"
"01047099999","2010-04-29T00:00:00","4","69.0166667","23.0666667","307.0","KAUTOKEINO II, NO","FM-12","ENKA ","V020","220,1,N,0050,1","22000,1,9,N","070000,1,N,1","-0042,1","-0072,1","10007,1",,,,"1,1,06,1","1,1,06,1",,"03,99,1,01,1,04,1,01250,1,04,1,00,1",,,"99999,9,09632,1","4,1,000,1,+999,9","02,1","SYN088AAXX  29001 01047 11688 32205 11042 21072 39632 40007 54000 6//// 70211 81440 333 4////;",
"01047099999","2010-04-29T06:00:00","4","69.0166667","23.0666667","307.0","KAUTOKEINO II, NO","FM-12","ENKA ","V020","220,1,N,0030,1","00750,1,9,N","070000,1,N,1","-0031,1","-0056,1","10008,1","12,0005,9,1","24,0005,9,1","0030,9,1,999999,9,9","8,1,06,1","2,1,06,1",,"05,99,1,05,1,09,1,00800,1,00,1,00,1","30,9","999,N,-0046,1","99999,9,09633,1","6,1,002,1,+999,9","02,1","SYN100AAXX  29061 01047 11588 52203 11031 21056 39633 40008 56002 69942 70282 85900 333 21046 42030 70004;",
"01047099999","2010-04-29T09:00:00","4","69.0166667","23.0666667","307.0","KAUTOKEINO II, NO","FM-12","ENKA ","V020","320,1,N,0070,1","22000,1,9,N","070000,1,N,1","-0004,1","-0057,1","10011,1",,,,"1,1,03,1","1,1,03,1",,"01,99,1,01,1,01,1,01250,1,00,1,00,1",,,"99999,9,09637,1","2,1,004,1,+999,9","02,1","SYN082AAXX  29091 01047 41688 13207 11004 21057 39637 40011 52004 70211 81100 333 4////;",
"01047099999","2010-04-29T12:00:00","4","69.0166667","23.0666667","307.0","KAUTOKEINO II, NO","FM-12","ENKA ","V020","320,1,N,0070,1","22000,1,9,N","070000,1,N,1","+0010,1","-0070,1","10015,1",,,,"0,1,06,1","0,1,06,1",,"02,99,1,02,1,01,1,01250,1,00,1,00,1",,,"99999,9,09642,1","2,1,004,1,+999,9","02,1","SYN088AAXX  29121 01047 11688 23207 10010 21070 39642 40015 52004 6//// 70200 82100 333 4////;",
"01047099999","2010-04-29T15:00:00","4","69.0166667","23.0666667","307.0","KAUTOKEINO II, NO","FM-12","ENKA ","V020","320,1,N,0070,1","22000,1,9,N","070000,1,N,1","+0018,1","-0067,1","10021,1",,,,"0,1,03,1","0,1,03,1",,"02,99,1,02,1,01,1,01250,1,00,1,00,1",,,"99999,9,09647,1","1,1,006,1,+999,9","02,1","SYN082AAXX  29151 01047 41688 23207 10018 21067 39647 40021 51006 70200 82100 333 4////;",
"01047099999","2010-04-29T18:00:00","4","69.0166667","23.0666667","307.0","KAUTOKEINO II, NO","FM-12","ENKA ","V020","320,1,N,0050,1","22000,1,9,N","070000,1,N,1","-0015,1","-0073,1","10030,1","12,0000,9,1",,,"0,1,06,1","0,1,06,1",,"01,99,1,01,1,01,1,01250,1,00,1,00,1",,"120,M,+0020,1","99999,9,09654,1","2,1,007,1,+999,9","02,1","SYN094AAXX  29181 01047 11688 13205 11015 21073 39654 40030 52007 60002 70200 81100 333 10020 4////;","Q01  00002PRCP12"
"01047099999","2010-04-30T00:00:00","4","69.0166667","23.0666667","307.0","KAUTOKEINO II, NO","FM-12","ENKA ","V020","220,1,N,0030,1","22000,1,9,N","070000,1,N,1","-0102,1","-0121,1","10044,1",,,,"0,1,06,1","0,1,06,1",,"02,99,1,02,1,04,1,01250,1,00,1,00,1",,,"99999,9,09665,1","2,1,004,1,+999,9","02,1","SYN088AAXX  30001 01047 11688 22203 11102 21121 39665 40044 52004 6//// 70200 82400 333 4////;",
"01047099999","2010-04-30T06:00:00","4","69.0166667","23.0666667","307.0","KAUTOKEINO II, NO","FM-12","ENKA ","V020","220,1,N,0030,1","22000,1,9,N","070000,1,N,1","-0050,1","-0099,1","10048,1","12,0000,9,1","24,0000,9,1","0030,9,1,999999,9,9","0,1,06,1","0,1,06,1",,"02,99,1,00,1,00,1,99999,9,00,1,01,1","30,9","999,N,-0118,1","99999,9,09671,1","2,1,004,1,+999,9","02,1","SYN100AAXX  30061 01047 11988 22203 11050 21099 39671 40048 52004 60002 70200 80001 333 21118 42030 70000;","Q01  00002PRCP24Q02  00002PRCP12"
"01047099999","2010-04-30T09:00:00","4","69.0166667","23.0666667","307.0","KAUTOKEINO II, NO","FM-12","ENKA ","V020","220,1,N,0030,1","22000,1,9,N","070000,1,N,1","-0004,1","-0077,1","10042,1",,,,"0,1,03,1","0,1,03,1",,"03,99,1,00,1,00,1,99999,9,00,1,08,1",,,"99999,9,09667,1","8,1,003,1,+999,9","02,1","SYN082AAXX  30091 01047 41988 32203 11004 21077 39667 40042 58003 70200 80008 333 4////;",
"01047099999","2010-04-30T12:00:00","4","69.0166667","23.0666667","307.0","KAUTOKEINO II, NO","FM-12","ENKA ","V020","140,1,N,0030,1","22000,1,9,N","070000,1,N,1","+0012,1","-0083,1","10037,1",,,,"0,1,06,1","0,1,06,1",,"03,99,1,00,1,00,1,99999,9,00,1,08,1",,,"99999,9,09663,1","7,1,004,1,+999,9","02,1","SYN088AAXX  30121 01047 11988 31403 10012 21083 39663 40037 57004 6//// 70200 80008 333 4////;",
"01047099999","2010-04-30T15:00:00","4","69.0166667","23.0666667","307.0","KAUTOKEINO II, NO","FM-12","ENKA ","V020","140,1,N,0050,1","99999,9,9,N","070000,1,N,1","+0012,1","-0083,1","10028,1",,,,"2,1,03,1","0,1,03,1",,"06,99,1,00,1,00,1,99999,9,00,1,06,1",,,"99999,9,09654,1","7,1,009,1,+999,9","03,1","SYN082AAXX  30151 01047 41988 61405 10012 21083 39654 40028 57009 70320 80006 333 4////;",
"01047099999","2010-04-30T18:00:00","4","69.0166667","23.0666667","307.0","KAUTOKEINO II, NO","FM-12","ENKA ","V020","140,1,N,0050,1","01500,1,9,N","070000,1,N,1","+0004,1","-0080,1","10019,1","12,0000,9,1",,,"2,1,06,1","2,1,06,1",,"08,99,1,08,1,00,1,01750,1,07,1,99,9",,"120,M,+0022,1","99999,9,09645,1","7,1,009,1,+999,9","02,1","SYN094AAXX  30181 01047 11788 81405 10004 21080 39645 40019 57009 60002 70222 8807/ 333 10022 4////;","Q01  00002PRCP12"
"01047099999","2010-05-01T00:00:00","4","69.0166667","23.0666667","307.0","KAUTOKEINO II, NO","FM-12","ENKA ","V020","050,1,N,0050,1","01200,1,9,N","000500,1,N,1","-0015,1","-0026,1","09999,1",,,,"7,1,06,1","2,1,06,1",,"08,99,1,08,1,00,1,01250,1,02,1,99,9",,,"99999,9,09625,1","8,1,012,1,+999,9","73,1","SYN088AAXX  01001 01047 11605 80505 11015 21026 39625 49999 58012 6//// 77372 8802/ 333 4////;",
"01047099999","2010-05-01T06:00:00","4","69.0166667","23.0666667","307.0","KAUTOKEINO II, NO","FM-12","ENKA ","V020","050,1,N,0010,1","01200,1,9,N","006000,1,N,1","-0002,1","-0015,1","09975,1","12,0041,9,2","24,0038,9,2","0032,9,1,999999,9,9","7,1,06,1","2,1,06,1",,"08,99,1,08,1,00,1,01250,1,02,1,99,9","27,9","999,N,-0016,1","99999,9,09602,1","7,1,010,1,+999,9","71,1","SYN100AAXX  01061 01047 11656 80501 11002 21015 39602 49975 57010 60042 77172 8802/ 333 21016 43032 70038;",
"01047099999","2010-05-01T09:00:00","4","69.0166667","23.0666667","307.0","KAUTOKEINO II, NO","FM-12","ENKA ","V020","050,1,N,0030,1","03000,1,9,N","065000,1,N,1","+0009,1","-0020,1","09967,1",,,,"7,1,03,1","2,1,03,1",,"08,99,1,04,1,05,1,01250,1,02,1,99,9",,,"99999,9,09596,1","6,1,007,1,+999,9","02,1","SYN082AAXX  01091 01047 41687 80503 10009 21020 39596 49967 56007 70272 8452/ 333 4////;",
"01047099999","2010-05-01T12:00:00","4","69.0166667","23.0666667","307.0","KAUTOKEINO II, NO","FM-12","ENKA ","V020","050,1,N,0070,1","01200,1,9,N","010000,1,N,1","+0022,1","-0012,1","09958,1",,,,"7,1,06,1","2,1,06,1",,"08,99,1,08,1,00,1,01250,1,02,1,99,9",,,"99999,9,09588,1","6,1,007,1,+999,9","70,1","SYN088AAXX  01121 01047 11660 80507 10022 21012 39588 49958 56007 6//// 77072 8802/ 333 4////;",
"01047099999","2010-05-01T15:00:00","4","69.0166667","23.0666667","307.0","KAUTOKEINO II, NO","FM-12","ENKA ","V020","050,1,N,0070,1","01200,1,9,N","004000,1,N,1","+0015,1","-0009,1","09951,1",,,,"7,1,03,1","2,1,03,1",,"08,99,1,08,1,00,1,01250,1,02,1,99,9",,,"99999,9,09580,1","7,1,008,1,+999,9","70,1","SYN082AAXX  01151 01047 41640 80507 10015 21009 39580 49951 57008 77072 8802/ 333 4////;",
"01047099999","2010-05-01T18:00:00","4","69.0166667","23.0666667","307.0","KAUTOKEINO II, NO","FM-12","ENKA ","V020","050,1,N,0070,1","01200,1,9,N","000500,1,N,1","+0002,1","-0008,1","09939,1","12,0020,9,1",,,"7,1,06,1","7,1,06,1",,"08,99,1,08,1,00,1,01250,1,02,1,99,9",,"120,M,+0025,1","99999,9,09568,1","7,1,013,1,+999,9","73,1","SYN094AAXX  01181 01047 11605 80507 10002 21008 39568 49939 57013 60022 77377 8802/ 333 10025 4////;",
"01047099999","2010-05-02T00:00:00","4","69.0166667","23.0666667","307.0","KAUTOKEINO II, NO","FM-12","ENKA ","V020","360,1,N,0070,1","01200,1,9,N","002500,1,N,1","-0006,1","-0017,1","09923,1",,,,"7,1,06,1","7,1,06,1",,"08,99,1,08,1,00,1,01250,1,02,1,99,9",,,"99999,9,09552,1","7,1,008,1,+999,9","71,1","SYN088AAXX  02001 01047 11625 83607 11006 21017 39552 49923 57008 6//// 77177 8802/ 333 4////;",
"01047099999","2010-05-02T06:00:00","4","69.0166667","23.0666667","307.0","KAUTOKEINO II, NO","FM-12","ENKA ","V020","360,1,N,0050,1","00060,1,9,N","001000,1,N,1","+0002,1","-0012,1","09920,1","12,0051,9,1","24,0064,9,1","0034,9,1,999999,9,9","7,1,06,1","7,1,06,1","09,1,+99999,9,99,9","09,99,1,09,1,99,9,99999,9,99,9,99,9","27,9","999,N,-0007,1","99999,9,09550,1","6,1,001,1,+999,9","73,1","SYN094AAXX  02061 01047 11/10 93605 10002 21012 39550 49920 56001 60052 77377 333 21007 43034 70064;",
"01047099999","2010-05-02T09:00:00","4","69.0166667","23.0666667","307.0","KAUTOKEINO II, NO","FM-12","ENKA ","V020","360,1,N,0050,1","01200,1,9,N","065000,1,N,1","+0026,1","+0005,1","09927,1",,,,"8,1,03,1","7,1,03,1",,"08,99,1,08,1,00,1,01250,1,02,1,99,9",,,"99999,9,09559,1","3,1,009,1,+999,9","23,1","SYN082AAXX  02091 01047 41687 83605 10026 20005 39559 49927 53009 72387 8802/ 333 4////;",
"01047099999","2010-05-02T12:00:00","4","69.0166667","23.0666667","307.0","KAUTOKEINO II, NO","FM-12","ENKA ","V020","320,1,N,0050,1","01200,1,9,N","070000,1,N,1","+0028,1","-0019,1","09939,1",,,,"2,1,06,1","2,1,06,1",,"08,99,1,08,1,00,1,01250,1,02,1,99,9",,,"99999,9,09570,1","2,1,012,1,+999,9","02,1","SYN088AAXX  02121 01047 11688 83205 10028 21019 39570 49939 52012 6//// 70222 8802/ 333 4////;",
"01047099999","2010-05-02T15:00:00","4","69.0166667","23.0666667","307.0","KAUTOKEINO II, NO","FM-12","ENKA ","V020","320,1,N,0030,1","01200,1,9,N","070000,1,N,1","+0030,1","-0019,1","09951,1",,,,"5,1,03,1","2,1,03,1",,"08,99,1,08,1,00,1,01250,1,02,1,99,9",,,"99999,9,09582,1","2,1,012,1,+999,9","02,1","SYN082AAXX  02151 01047 41688 83203 10030 21019 39582 49951 52012 70252 8802/ 333 4////;",
"01047099999","2010-05-02T18:00:00","4","69.0166667","23.0666667","307.0","KAUTOKEINO II, NO","FM-12","ENKA ","V020","320,1,N,0030,1","01200,1,9,N","070000,1,N,1","+0024,1","-0016,1","09970,1","12,0020,9,1",,,"2,1,06,1","2,1,06,1",,"08,99,1,08,1,00,1,01250,1,02,1,99,9",,"120,M,+0035,1","99999,9,09599,1","2,1,017,1,+999,9","02,1","SYN094AAXX  02181 01047 11688 83203 10024 21016 39599 49970 52017 60022 70222 8802/ 333 10035 4////;",
"01047099999","2010-05-03T00:00:00","4","69.0166667","23.0666667","307.0","KAUTOKEINO II, NO","FM-12","ENKA ","V020","340,1,N,0030,1","01200,1,9,N","070000,1,N,1","+0010,1","-0031,1","10010,1",,,,"2,1,06,1","2,1,06,1",,"08,99,1,08,1,00,1,01250,1,02,1,99,9",,,"99999,9,09636,1","2,1,018,1,+999,9","02,1","SYN088AAXX  03001 01047 11688 83403 10010 21031 39636 40010 52018 6//// 70222 8802/ 333 4////;",
"01047099999","2010-05-03T06:00:00","4","69.0166667","23.0666667","307.0","KAUTOKEINO II, NO","FM-12","ENKA ","V020","340,1,N,0010,1","01500,1,9,N","070000,1,N,1","+0012,1","-0046,1","10045,1","12,0000,9,1","24,0015,9,1","0027,9,1,999999,9,9","2,1,06,1","2,1,06,1",,"07,99,1,07,1,00,1,01750,1,07,1,00,1","30,9","999,N,-0002,1","99999,9,09670,1","2,1,015,1,+999,9","02,1","SYN100AAXX  03061 01047 11788 73401 10012 21046 39670 40045 52015 60002 70222 87070 333 21002 42027 70015;","Q01  00002PRCP12"
"01047099999","2010-05-03T09:00:00","4","69.0166667","23.0666667","307.0","KAUTOKEINO II, NO","FM-12","ENKA ","V020","320,1,N,0050,1","22000,1,9,N","070000,1,N,1","+0030,1","-0051,1","10063,1",,,,"1,1,03,1","1,1,03,1",,"03,99,1,03,1,00,1,01750,1,04,1,00,1",,,"99999,9,09690,1","2,1,019,1,+999,9","02,1","SYN082AAXX  03091 01047 41788 33205 10030 21051 39690 40063 52019 70211 83040 333 4////;",
"01047099999","2010-05-03T12:00:00","4","69.0166667","23.0666667","307.0","KAUTOKEINO II, NO","FM-12","ENKA ","V020","320,1,N,0050,1","22000,1,9,N","070000,1,N,1","+0034,1","-0055,1","10083,1",,,,"0,1,06,1","0,1,06,1",,"04,99,1,03,1,01,1,01250,1,00,1,01,1",,,"99999,9,09710,1","2,1,020,1,+999,9","02,1","SYN088AAXX  03121 01047 11688 43205 10034 21055 39710 40083 52020 6//// 70200 83101 333 4////;",
"01047099999","2010-05-03T15:00:00","4","69.0166667","23.0666667","307.0","KAUTOKEINO II, NO","FM-12","ENKA ","V020","320,1,N,0070,1","22000,1,9,N","070000,1,N,1","+0036,1","-0053,1","10102,1",,,,"0,1,03,1","0,1,03,1",,"03,99,1,03,1,02,1,01250,1,00,1,00,1",,,"99999,9,09728,1","2,1,019,1,+999,9","02,1","SYN082AAXX  03151 01047 41688 33207 10036 21053 39728 40102 52019 70200 83200 333 4////;",
"01047099999","2010-05-03T18:00:00","4","69.0166667","23.0666667","307.0","KAUTOKEINO II, NO","FM-12","ENKA ","V020","320,1,N,0050,1","22000,1,9,N","070000,1,N,1","+0010,1","-0072,1","10114,1","12,0000,9,1",,,"0,1,06,1","0,1,06,1",,"03,99,1,03,1,04,1,01250,1,00,1,00,1",,"120,M,+0040,1","99999,9,09737,1","1,1,008,1,+999,9","02,1","SYN094AAXX  03181 01047 11688 33205 10010 21072 39737 40114 51008 60002 70200 83400 333 10040 4////;","Q01  00002PRCP12"
"01047099999","2010-05-04T00:00:00","4","69.0166667","23.0666667","307.0","KAUTOKEINO II, NO","FM-12","ENKA ","V020","090,1,N,0030,1","22000,1,9,N","070000,1,N,1","-0063,1","-0083,1","10148,1",,,,"0,1,06,1","0,1,06,1",,"04,99,1,04,1,00,1,01750,1,03,1,00,1",,,"99999,9,09767,1","2,1,010,1,+999,9","02,1","SYN088AAXX  04001 01047 11788 40903 11063 21083 39767 40148 52010 6//// 70200 84030 333 4////;",
"01047099999","2010-05-04T06:00:00","4","69.0166667","23.0666667","307.0","KAUTOKEINO II, NO","FM-12","ENKA ","V020","999,9,C,0000,1","01500,1,9,N","070000,1,N,1","-0021,1","-0070,1","10164,1","12,0000,9,1","24,0000,9,1","0020,9,1,999999,9,9","2,1,06,1","1,1,06,1",,"06,99,1,06,1,00,1,01750,1,04,1,00,1","30,9","999,N,-0069,1","99999,9,09783,1","3,1,004,1,+999,9","02,1","SYN100AAXX  04061 01047 11788 60000 11021 21070 39783 40164 53004 60002 70221 86040 333 21069 42020 70000;","Q01  00002PRCP24Q02  00002PRCP12"
"01047099999","2010-05-04T09:00:00","4","69.0166667","23.0666667","307.0","KAUTOKEINO II, NO","FM-12","ENKA ","V020","320,1,N,0030,1","01500,1,9,N","070000,1,N,1","+0020,1","-0065,1","10173,1",,,,"2,1,03,1","2,1,03,1",,"06,99,1,06,1,00,1,01750,1,07,1,00,1",,,"99999,9,09795,1","2,1,011,1,+999,9","02,1","SYN082AAXX  04091 01047 41788 63203 10020 21065 39795 40173 52011 70222 86070 333 4////;",
"01047099999","2010-05-04T12:00:00","4","69.0166667","23.0666667","307.0","KAUTOKEINO II, NO","FM-12","ENKA ","V020","320,1,N,0030,1","01200,1,9,N","070000,1,N,1","+0034,1","-0055,1","10174,1",,,,"2,1,06,1","2,1,06,1",,"06,99,1,06,1,05,1,01250,1,00,1,00,1",,,"99999,9,09797,1","1,1,003,1,+999,9","02,1","SYN088AAXX  04121 01047 11688 63203 10034 21055 39797 40174 51003 6//// 70222 86500 333 4////;",
"01047099999","2010-05-04T15:00:00","4","69.0166667","23.0666667","307.0","KAUTOKEINO II, NO","FM-12","ENKA ","V020","360,1,N,0030,1","01200,1,9,N","070000,1,N,1","+0030,1","-0054,1","10179,1",,,,"2,1,03,1","2,1,03,1",,"08,99,1,08,1,05,1,01250,1,99,9,99,9",,,"99999,9,09801,1","1,1,004,1,+999,9","02,1","SYN082AAXX  04151 01047 41688 83603 10030 21054 39801 40179 51004 70222 885// 333 4////;",
"01047099999","2010-05-04T18:00:00","4","69.0166667","23.0666667","307.0","KAUTOKEINO II, NO","FM-12","ENKA ","V020","360,1,N,0030,1","01200,1,9,N","070000,1,N,1","+0020,1","-0035,1","10186,1","12,0000,9,1",,,"2,1,06,1","2,1,06,1",,"08,99,1,06,1,05,1,01250,1,02,1,99,9",,"120,M,+0044,1","99999,9,09807,1","3,1,006,1,+999,9","02,1","SYN094AAXX  04181 01047 11688 83603 10020 21035 39807 40186 53006 60002 70222 8652/ 333 10044 4////;","Q01  00002PRCP12"
"01047099999","2010-05-05T00:00:00","4","69.0166667","23.0666667","307.0","KAUTOKEINO II, NO","FM-12","ENKA ","V020","320,1,N,0050,1","01500,1,9,N","070000,1,N,1","-0014,1","-0039,1","10186,1",,,,"2,1,06,1","2,1,06,1",,"08,99,1,08,1,00,1,01750,1,07,1,99,9",,,"99999,9,09805,1","4,1,000,1,+999,9","02,1","SYN088AAXX  05001 01047 11788 83205 11014 21039 39805 40186 54000 6//// 70222 8807/ 333 4////;",
"01047099999","2010-05-05T06:00:00","4","69.0166667","23.0666667","307.0","KAUTOKEINO II, NO","FM-12","ENKA ","V020","320,1,N,0030,1","01500,1,9,N","070000,1,N,1","-0002,1","-0023,1","10179,1","12,0000,9,1","24,0003,9,1","0015,9,1,999999,9,9","7,1,06,1","2,1,06,1",,"08,99,1,08,1,00,1,01750,1,02,1,99,9","30,9","999,N,-0014,1","99999,9,09799,1","4,1,000,1,+999,9","02,1","SYN100AAXX  05061 01047 11788 83203 11002 21023 39799 40179 54000 69922 70272 8802/ 333 21014 42015 70002;","Q01  00002PRCP12"
"01047099999","2010-05-05T09:00:00","4","69.0166667","23.0666667","307.0","KAUTOKEINO II, NO","FM-12","ENKA ","V020","320,1,N,0050,1","01200,1,9,N","070000,1,N,1","+0023,1","-0017,1","10178,1",,,,"2,1,03,1","2,1,03,1",,"08,99,1,08,1,05,1,01250,1,99,9,99,9",,,"99999,9,09800,1","4,1,000,1,+999,9","02,1","SYN082AAXX  05091 01047 41688 83205 10023 21017 39800 40178 54000 70222 885// 333 4////;",
"01047099999","2010-05-05T12:00:00","4","69.0166667","23.0666667","307.0","KAUTOKEINO II, NO","FM-12","ENKA ","V020","320,1,N,0050,1","00750,1,9,N","070000,1,N,1","+0018,1","-0023,1","10181,1",,,,"8,1,06,1","2,1,06,1",,"08,99,1,08,1,09,1,00800,1,99,9,99,9",,,"99999,9,09802,1","4,1,000,1,+999,9","26,1","SYN088AAXX  05121 01047 11588 83205 10018 21023 39802 40181 54000 6//// 72682 889// 333 4////;",
"01047099999","2010-05-05T15:00:00","4","69.0166667","23.0666667","307.0","KAUTOKEINO II, NO","FM-12","ENKA ","V020","360,1,N,0050,1","01500,1,9,N","070000,1,N,1","+0020,1","-0041,1","10186,1",,,,"8,1,03,1","2,1,03,1",,"07,99,1,07,1,08,1,01250,1,00,1,00,1",,,"99999,9,09807,1","3,1,005,1,+999,9","02,1","SYN082AAXX  05151 01047 41688 73605 10020 21041 39807 40186 53005 70282 87800 333 4////;",
"01047099999","2010-05-05T18:00:00","4","69.0166667","23.0666667","307.0","KAUTOKEINO II, NO","FM-12","ENKA ","V020","360,1,N,0050,1","01500,1,9,N","070000,1,N,1","+0012,1","-0048,1","10189,1","12,0000,2,1",,,"2,1,06,1","2,1,06,1",,"07,99,1,07,1,00,1,01750,1,07,1,00,1",,"120,M,+0025,1","99999,9,09809,1","1,1,002,1,+999,9","02,1","SYN094AAXX  05181 01047 11788 73605 10012 21048 39809 40189 51002 69912 70222 87070 333 10025 4////;",
"01047099999","2010-05-06T00:00:00","4","69.0166667","23.0666667","307.0","KAUTOKEINO II, NO","FM-12","ENKA ","V020","360,1,N,0030,1","01200,1,9,N","070000,1,N,1","-0010,1","-0046,1","10208,1",,,,"7,1,06,1","2,1,06,1",,"08,99,1,08,1,00,1,01250,1,02,1,99,9",,,"99999,9,09827,1","2,1,005,1,+999,9","02,1","SYN088AAXX  06001 01047 11688 83603 11010 21046 39827 40208 52005 6//// 70272 8802/ 333 4////;",
"01047099999","2010-05-06T06:00:00","4","69.0166667","23.0666667","307.0","KAUTOKEINO II, NO","FM-12","ENKA ","V020","360,1,N,0030,1","01200,1,9,N","065000,1,N,1","-0009,1","-0039,1","10233,1","12,0000,9,1","24,0003,9,1","0010,9,1,999999,9,9","7,1,06,1","2,1,06,1",,"08,99,1,08,1,00,1,01250,1,02,1,99,9","30,9","999,N,-0014,1","99999,9,09851,1","2,1,006,1,+999,9","02,1","SYN100AAXX  06061 01047 11687 83603 11009 21039 39851 40233 52006 69912 70272 8802/ 333 21014 42010 70002;","Q01  00002PRCP12"
"01047099999","2010-05-06T09:00:00","4","69.0166667","23.0666667","307.0","KAUTOKEINO II, NO","FM-12","ENKA ","V020","140,1,N,0050,1","00750,1,9,N","070000,1,N,1","-0006,1","-0045,1","10247,1",,,,"2,1,03,1","2,1,03,1",,"08,99,1,08,1,05,1,00800,1,99,9,99,9",,,"99999,9,09864,1","2,1,013,1,+999,9","02,1","SYN082AAXX  06091 01047 41588 81405 11006 21045 39864 40247 52013 70222 885// 333 4////;",
"01047099999","2010-05-06T12:00:00","4","69.0166667","23.0666667","307.0","KAUTOKEINO II, NO","FM-12","ENKA ","V020","140,1,N,0050,1","00750,1,9,N","070000,1,N,1","+0006,1","-0052,1","10257,1",,,,"2,1,06,1","2,1,06,1",,"08,99,1,08,1,05,1,00800,1,99,9,99,9",,,"99999,9,09874,1","1,1,011,1,+999,9","02,1","SYN088AAXX  06121 01047 11588 81405 10006 21052 39874 40257 51011 6//// 70222 885// 333 4////;",
"01047099999","2010-05-06T15:00:00","4","69.0166667","23.0666667","307.0","KAUTOKEINO II, NO","FM-12","ENKA ","V020","090,1,N,0030,1","00750,1,9,N","070000,1,N,1","+0004,1","-0078,1","10266,1",,,,"2,1,03,1","2,1,03,1",,"08,99,1,08,1,05,1,00800,1,99,9,99,9",,,"99999,9,09883,1","2,1,009,1,+999,9","02,1","SYN082AAXX  06151 01047 41588 80903 10004 21078 39883 40266 52009 70222 885// 333 4////;",
"01047099999","2010-05-06T18:00:00","4","69.0166667","23.0666667","307.0","KAUTOKEINO II, NO","FM-12","ENKA ","V020","999,9,C,0000,1","00750,1,9,N","070000,1,N,1","+0007,1","-0057,1","10273,1","12,0000,9,1",,,"2,1,06,1","2,1,06,1",,"07,99,1,07,1,05,1,00800,1,00,1,00,1",,"120,M,+0008,1","99999,9,09889,1","1,1,006,1,+999,9","02,1","SYN094AAXX  06181 01047 11588 70000 10007 21057 39889 40273 51006 60002 70222 87500 333 10008 4////;","Q01  00002PRCP12"
"01047099999","2010-05-07T00:00:00","4","69.0166667","23.0666667","307.0","KAUTOKEINO II, NO","FM-12","ENKA ","V020","140,1,N,0050,1","22000,1,9,N","070000,1,N,1","-0070,1","-0090,1","10288,1",,,,"2,1,06,1","0,1,06,1",,"02,99,1,02,1,00,1,01750,1,04,1,00,1",,,"99999,9,09901,1","1,1,005,1,+999,9","02,1","SYN088AAXX  07001 01047 11788 21405 11070 21090 39901 40288 51005 6//// 70220 82040 333 4////;",
"01047099999","2010-05-07T06:00:00","4","69.0166667","23.0666667","307.0","KAUTOKEINO II, NO","FM-12","ENKA ","V020","140,1,N,0030,1","22000,1,9,N","070000,1,N,1","-0007,1","-0065,1","10278,1","12,0000,9,1","24,0000,9,1","0010,9,1,999999,9,9","2,1,06,1","0,1,06,1","00,1,+99999,9,99,9","00,99,1,00,1,00,1,99999,9,00,1,00,1","30,9","999,N,-0081,1","99999,9,09894,1","4,1,000,1,+999,9","02,1","SYN094AAXX  07061 01047 11988 01403 11007 21065 39894 40278 54000 60002 70220 333 21081 42010 70000;","Q01  00002PRCP24Q02  00002PRCP12"
"01047099999","2010-05-07T09:00:00","4","69.0166667","23.0666667","307.0","KAUTOKEINO II, NO","FM-12","ENKA ","V020","180,1,N,0070,1","22000,1,9,N","070000,1,N,1","+0018,1","-0058,1","10267,1",,,,"0,1,03,1","0,1,03,1","00,1,+99999,9,99,9","00,99,1,00,1,00,1,99999,9,00,1,00,1",,,"99999,9,09885,1","8,1,009,1,+999,9","02,1","SYN076AAXX  07091 01047 41988 01807 10018 21058 39885 40267 58009 70200 333 4////;",
"01047099999","2010-05-07T12:00:00","4","69.0166667","23.0666667","307.0","KAUTOKEINO II, NO","FM-12","ENKA ","V020","220,1,N,0050,1","22000,1,9,N","070000,1,N,1","+0044,1","-0048,1","10249,1",,,,"0,1,06,1","0,1,06,1","00,1,+99999,9,99,9","00,99,1,00,1,00,1,99999,9,00,1,00,1",,,"99999,9,09871,1","7,1,014,1,+999,9","02,1","SYN082AAXX  07121 01047 11988 02205 10044 21048 39871 40249 57014 6//// 70200 333 4////;",
"01047099999","2010-05-07T15:00:00","4","69.0166667","23.0666667","307.0","KAUTOKEINO II, NO","FM-12","ENKA ","V020","180,1,N,0050,1","22000,1,9,N","070000,1,N,1","+0060,1","-0041,1","10225,1",,,,"0,1,03,1","0,1,03,1","00,1,+99999,9,99,9","00,99,1,00,1,00,1,99999,9,00,1,00,1",,,"99999,9,09850,1","7,1,024,1,+999,9","02,1","SYN076AAXX  07151 01047 41988 01805 10060 21041 39850 40225 57024 70200 333 4////;",
"01047099999","2010-05-07T18:00:00","4","69.0166667","23.0666667","307.0","KAUTOKEINO II, NO","FM-12","ENKA ","V020","180,1,N,0030,1","22000,1,9,N","070000,1,N,1","+0050,1","-0051,1","10211,1","12,0000,9,1",,,"0,1,06,1","0,1,06,1","00,1,+99999,9,99,9","00,99,1,00,1,00,1,99999,9,00,1,00,1",,"120,M,+0064,1","99999,9,09835,1","6,1,015,1,+999,9","02,1","SYN088AAXX  07181 01047 11988 01803 10050 21051 39835 40211 56015 60002 70200 333 10064 4////;","Q01  00002PRCP12"
"01047099999","2010-05-08T00:00:00","4","69.0166667","23.0666667","307.0","KAUTOKEINO II, NO","FM-12","ENKA ","V020","180,1,N,0050,1","22000,1,9,N","070000,1,N,1","-0020,1","-0049,1","10192,1",,,,"0,1,06,1","0,1,06,1",,"02,99,1,02,1,00,1,02250,1,04,1,00,1",,,"99999,9,09810,1","7,1,012,1,+999,9","02,1","SYN088AAXX  08001 01047 11888 21805 11020 21049 39810 40192 57012 6//// 70200 82040 333 4////;",
"01047099999","2010-05-08T06:00:00","4","69.0166667","23.0666667","307.0","KAUTOKEINO II, NO","FM-12","ENKA ","V020","180,1,N,0050,1","22000,1,9,N","070000,1,N,1","+0012,1","-0046,1","10158,1","12,0000,9,1","24,0000,9,1","9999,2,9,999999,9,9","0,1,06,1","0,1,06,1",,"03,99,1,03,1,00,1,02250,1,04,1,00,1","25,9","999,N,-0024,1","99999,9,09779,1","7,1,011,1,+999,9","02,1","SYN100AAXX  08061 01047 11888 31805 10012 21046 39779 40158 57011 60002 70200 83040 333 21024 41998 70000;","Q01  00002PRCP24Q02  00002PRCP12Q03  09982SNDP  "
"01047099999","2010-05-08T09:00:00","4","69.0166667","23.0666667","307.0","KAUTOKEINO II, NO","FM-12","ENKA ","V020","180,1,N,0070,1","99999,9,9,N","070000,1,N,1","+0052,1","-0012,1","10139,1",,,,"1,1,03,1","0,1,03,1",,"05,99,1,99,9,00,1,02250,1,04,1,00,1",,,"99999,9,09766,1","7,1,013,1,+999,9","02,1","SYN082AAXX  08091 01047 41888 51807 10052 21012 39766 40139 57013 70210 84040 333 4////;","Q01+000042SCOTLC"
"01047099999","2010-05-08T12:00:00","4","69.0166667","23.0666667","307.0","KAUTOKEINO II, NO","FM-12","ENKA ","V020","160,1,N,0070,1","01500,1,9,N","070000,1,N,1","+0062,1","-0031,1","10122,1",,,,"2,1,06,1","2,1,06,1",,"06,99,1,06,1,00,1,01750,1,07,1,00,1",,,"99999,9,09751,1","7,1,015,1,+999,9","02,1","SYN088AAXX  08121 01047 11788 61607 10062 21031 39751 40122 57015 6//// 70222 86070 333 4////;",
"01047099999","2010-05-08T15:00:00","4","69.0166667","23.0666667","307.0","KAUTOKEINO II, NO","FM-12","ENKA ","V020","160,1,N,0070,1","01500,1,9,N","070000,1,N,1","+0066,1","-0036,1","10108,1",,,,"2,1,03,1","2,1,03,1",,"08,99,1,08,1,00,1,01750,1,07,1,99,9",,,"99999,9,09738,1","7,1,014,1,+999,9","02,1","SYN082AAXX  08151 01047 41788 81607 10066 21036 39738 40108 57014 70222 8807/ 333 4////;",
"01047099999","2010-05-08T18:00:00","4","69.0166667","23.0666667","307.0","KAUTOKEINO II, NO","FM-12","ENKA ","V020","160,1,N,0050,1","01500,1,9,N","070000,1,N,1","+0042,1","-0040,1","10099,1","12,0000,9,1",,,"2,1,06,1","2,1,06,1",,"08,99,1,08,1,00,1,01750,1,07,1,99,9",,"120,M,+0072,1","99999,9,09726,1","7,1,011,1,+999,9","02,1","SYN094AAXX  08181 01047 11788 81605 10042 21040 39726 40099 57011 60002 70222 8807/ 333 10072 4////;","Q01  00002PRCP12"
"01047099999","2010-05-09T00:00:00","4","69.0166667","23.0666667","307.0","KAUTOKEINO II, NO","FM-12","ENKA ","V020","160,1,N,0010,1","01500,1,9,N","070000,1,N,1","+0012,1","-0038,1","10081,1",,,,"2,1,06,1","2,1,06,1",,"06,99,1,06,1,00,1,01750,1,07,1,00,1",,,"99999,9,09705,1","7,1,012,1,+999,9","02,1","SYN088AAXX  09001 01047 11788 61601 10012 21038 39705 40081 57012 6//// 70222 86070 333 4////;",
"01047099999","2010-05-09T06:00:00","4","69.0166667","23.0666667","307.0","KAUTOKEINO II, NO","FM-12","ENKA ","V020","140,1,N,0050,1","01500,1,9,N","070000,1,N,1","+0036,1","-0032,1","10060,1","12,0000,9,1","24,0000,9,1","9999,2,9,999999,9,9","2,1,06,1","2,1,06,1",,"06,99,1,06,1,00,1,01750,1,07,1,00,1","25,9","999,N,+0000,1","99999,9,09688,1","6,1,005,1,+999,9","02,1","SYN100AAXX  09061 01047 11788 61405 10036 21032 39688 40060 56005 60002 70222 86070 333 20000 41998 70000;","Q01  00002PRCP24Q02  00002PRCP12Q03  09982SNDP  "
"01047099999","2010-05-09T09:00:00","4","69.0166667","23.0666667","307.0","KAUTOKEINO II, NO","FM-12","ENKA ","V020","160,1,N,0050,1","01500,1,9,N","070000,1,N,1","+0050,1","-0033,1","10055,1",,,,"2,1,03,1","2,1,03,1",,"06,99,1,06,1,00,1,01750,1,07,1,00,1",,,"99999,9,09685,1","6,1,002,1,+999,9","02,1","SYN082AAXX  09091 01047 41788 61605 10050 21033 39685 40055 56002 70222 86070 333 4////;",
"01047099999","2010-05-09T12:00:00","4","69.0166667","23.0666667","307.0","KAUTOKEINO II, NO","FM-12","ENKA ","V020","320,1,N,0050,1","01500,1,9,N","070000,1,N,1","+0052,1","-0017,1","10049,1",,,,"2,1,06,1","2,1,06,1",,"06,99,1,06,1,00,1,01750,1,09,1,00,1",,,"99999,9,09680,1","7,1,006,1,+999,9","02,1","SYN088AAXX  09121 01047 11788 63205 10052 21017 39680 40049 57006 6//// 70222 86090 333 4////;",
"01047099999","2010-05-09T15:00:00","4","69.0166667","23.0666667","307.0","KAUTOKEINO II, NO","FM-12","ENKA ","V020","320,1,N,0050,1","01500,1,9,N","070000,1,N,1","+0045,1","-0017,1","10049,1",,,,"2,1,03,1","2,1,03,1",,"06,99,1,06,1,00,1,01750,1,09,1,00,1",,,"99999,9,09679,1","4,1,000,1,+999,9","02,1","SYN082AAXX  09151 01047 41788 63205 10045 21017 39679 40049 54000 70222 86090 333 4////;",
"01047099999","2010-05-09T18:00:00","4","69.0166667","23.0666667","307.0","KAUTOKEINO II, NO","FM-12","ENKA ","V020","320,1,N,0050,1","01200,1,9,N","070000,1,N,1","+0028,1","-0014,1","10055,1","12,0000,9,1",,,"2,1,06,1","2,1,06,1",,"07,99,1,07,1,05,1,01250,1,00,1,00,1",,"120,M,+0065,1","99999,9,09682,1","2,1,003,1,+999,9","02,1","SYN094AAXX  09181 01047 11688 73205 10028 21014 39682 40055 52003 60002 70222 87500 333 10065 4////;","Q01  00002PRCP12"
"01047099999","2010-05-10T00:00:00","4","69.0166667","23.0666667","307.0","KAUTOKEINO II, NO","FM-12","ENKA ","V020","320,1,N,0050,1","01200,1,9,N","070000,1,N,1","+0003,1","-0026,1","10074,1",,,,"2,1,06,1","2,1,06,1",,"07,99,1,07,1,05,1,01250,1,00,1,00,1",,,"99999,9,09698,1","2,1,005,1,+999,9","02,1","SYN088AAXX  10001 01047 11688 73205 10003 21026 39698 40074 52005 6//// 70222 87500 333 4////;",
"01047099999","2010-05-10T06:00:00","4","69.0166667","23.0666667","307.0","KAUTOKEINO II, NO","FM-12","ENKA ","V020","999,9,C,0000,1","01200,1,9,N","070000,1,N,1","+0017,1","-0009,1","10090,1","12,0000,9,1","24,0003,9,1","9999,2,9,999999,9,9","7,1,06,1","2,1,06,1",,"06,99,1,06,1,05,1,01250,1,00,1,00,1","25,9","999,N,+0001,1","99999,9,09715,1","1,1,006,1,+999,9","02,1","SYN100AAXX  10061 01047 11688 60000 10017 21009 39715 40090 51006 69922 70272 86500 333 20001 41998 70002;","Q01  00002PRCP12Q02  09982SNDP  "
"01047099999","2010-05-10T09:00:00","4","69.0166667","23.0666667","307.0","KAUTOKEINO II, NO","FM-12","ENKA ","V020","320,1,N,0030,1","00750,1,9,N","070000,1,N,1","+0030,1","-0001,1","10100,1",,,,"8,1,03,1","2,1,03,1",,"08,99,1,08,1,09,1,00800,1,99,9,99,9",,,"99999,9,09726,1","1,1,011,1,+999,9","26,1","SYN082AAXX  10091 01047 41588 83203 10030 21001 39726 40100 51011 72682 889// 333 4////;",
"01047099999","2010-05-10T12:00:00","4","69.0166667","23.0666667","307.0","KAUTOKEINO II, NO","FM-12","ENKA ","V020","999,9,C,0000,1","22000,1,9,N","070000,1,N,1","+0062,1","-0007,1","10101,1",,,,"2,1,06,1","0,1,06,1",,"02,99,1,02,1,00,1,02250,1,04,1,00,1",,,"99999,9,09731,1","1,1,004,1,+999,9","01,1","SYN088AAXX  10121 01047 11888 20000 10062 21007 39731 40101 51004 6//// 70120 82040 333 4////;",
"01047099999","2010-05-10T15:00:00","4","69.0166667","23.0666667","307.0","KAUTOKEINO II, NO","FM-12","ENKA ","V020","140,1,N,0030,1","22000,1,9,N","070000,1,N,1","+0070,1","-0024,1","10104,1",,,,"0,1,03,1","0,1,03,1",,"02,99,1,00,1,00,1,99999,9,00,1,02,1",,,"99999,9,09734,1","3,1,005,1,+999,9","02,1","SYN082AAXX  10151 01047 41988 21403 10070 21024 39734 40104 53005 70200 80002 333 4////;",
"01047099999","2010-05-10T18:00:00","4","69.0166667","23.0666667","307.0","KAUTOKEINO II, NO","FM-12","ENKA ","V020","140,1,N,0030,1","22000,1,9,N","070000,1,N,1","+0060,1","-0041,1","10108,1","12,0000,2,1",,,"0,1,06,1","0,1,06,1",,"04,99,1,00,1,00,1,99999,9,00,1,05,1",,"120,M,+0078,1","99999,9,09737,1","1,1,003,1,+999,9","02,1","SYN094AAXX  10181 01047 11988 41403 10060 21041 39737 40108 51003 60002 70200 80005 333 10078 4////;",
"01047099999","2010-05-11T00:00:00","4","69.0166667","23.0666667","307.0","KAUTOKEINO II, NO","FM-12","ENKA ","V020","050,1,N,0050,1","01200,1,9,N","070000,1,N,1","+0014,1","-0017,1","10116,1",,,,"2,1,06,1","2,1,06,1",,"08,99,1,08,1,00,1,01250,1,02,1,99,9",,,"99999,9,09739,1","4,1,000,1,+999,9","02,1","SYN088AAXX  11001 01047 11688 80505 10014 21017 39739 40116 54000 6//// 70222 8802/ 333 4////;",
"01047099999","2010-05-11T06:00:00","4","69.0166667","23.0666667","307.0","KAUTOKEINO II, NO","FM-12","ENKA ","V020","050,1,N,0030,1","01200,1,9,N","055000,1,N,1","+0019,1","+0000,1","10101,1","12,0008,9,1","24,0008,9,1","9999,2,9,999999,9,9","7,1,06,1","2,1,06,1",,"08,99,1,08,1,00,1,01250,1,02,1,99,9","25,9","999,N,+0007,1","99999,9,09725,1","6,1,004,1,+999,9",,"SYN100AAXX  11061 01047 11685 80503 10019 21000 39725 40101 56004 69982 77872 8802/ 333 20007 41998 70008;","Q01+000782PRSWM1Q02  09982SNDP  "
"01047099999","2010-05-11T09:00:00","4","69.0166667","23.0666667","307.0","KAUTOKEINO II, NO","FM-12","ENKA ","V020","180,1,N,0070,1","01200,1,9,N","070000,1,N,1","+0030,1","+0007,1","10104,1",,,,"7,1,03,1","2,1,03,1",,"08,99,1,08,1,00,1,01250,1,02,1,99,9",,,"99999,9,09730,1","2,1,004,1,+999,9","02,1","SYN082AAXX  11091 01047 41688 81807 10030 20007 39730 40104 52004 70272 8802/ 333 4////;",
"01047099999","2010-05-11T12:00:00","4","69.0166667","23.0666667","307.0","KAUTOKEINO II, NO","FM-12","ENKA ","V020","180,1,N,0050,1","03000,1,9,N","070000,1,N,1","+0050,1","+0008,1","10105,1",,,,"7,1,06,1","2,1,06,1",,"08,99,1,04,1,05,1,00800,1,02,1,99,9",,,"99999,9,09733,1","3,1,003,1,+999,9","02,1","SYN088AAXX  11121 01047 11588 81805 10050 20008 39733 40105 53003 6//// 70272 8452/ 333 4////;",
"01047099999","2010-05-11T15:00:00","4","69.0166667","23.0666667","307.0","KAUTOKEINO II, NO","FM-12","ENKA ","V020","180,1,N,0070,1","00750,1,9,N","070000,1,N,1","+0061,1","+0026,1","10114,1",,,,"2,1,03,1","2,1,03,1",,"07,99,1,07,1,09,1,00800,1,00,1,00,1",,,"99999,9,09743,1","2,1,010,1,+999,9","02,1","SYN082AAXX  11151 01047 41588 71807 10061 20026 39743 40114 52010 70222 87900 333 4////;",
"01047099999","2010-05-11T18:00:00","4","69.0166667","23.0666667","307.0","KAUTOKEINO II, NO","FM-12","ENKA ","V020","180,1,N,0070,1","01200,1,9,N","070000,1,N,1","+0042,1","+0005,1","10124,1","12,0000,9,1",,,"2,1,06,1","2,1,06,1",,"07,99,1,07,1,05,1,01250,1,00,1,00,1",,"120,M,+0065,1","99999,9,09751,1","2,1,008,1,+999,9","02,1","SYN094AAXX  11181 01047 11688 71807 10042 20005 39751 40124 52008 69912 70222 87500 333 10065 4////;","Q01  00002PRCP12"
"01047099999","2010-05-12T00:00:00","4","69.0166667","23.0666667","307.0","KAUTOKEINO II, NO","FM-12","ENKA ","V020","180,1,N,0050,1","22000,1,9,N","070000,1,N,1","+0004,1","-0010,1","10152,1",,,,"2,1,06,1","0,1,06,1",,"02,99,1,02,1,04,1,01250,1,00,1,00,1",,,"99999,9,09774,1","2,1,008,1,+999,9","02,1","SYN088AAXX  12001 01047 11688 21805 10004 21010 39774 40152 52008 6//// 70220 82400 333 4////;",
"01047099999","2010-05-12T06:00:00","4","69.0166667","23.0666667","307.0","KAUTOKEINO II, NO","FM-12","ENKA ","V020","180,1,N,0050,1","22000,1,9,N","070000,1,N,1","+0049,1","-0024,1","10163,1","12,0000,9,1","24,0000,9,1","9999,2,9,999999,9,9","2,1,06,1","0,1,06,1",,"01,99,1,00,1,00,1,99999,9,00,1,08,1","25,9","999,N,-0003,1","99999,9,09789,1","1,1,003,1,+999,9","02,1","SYN100AAXX  12061 01047 11988 11805 10049 21024 39789 40163 51003 60002 70220 80008 333 21003 41998 70001;","Q01  00002PRCP24Q02  00002PRCP12Q03  09982SNDP  "
"01047099999","2010-05-12T09:00:00","4","69.0166667","23.0666667","307.0","KAUTOKEINO II, NO","FM-12","ENKA ","V020","180,1,N,0050,1","22000,1,9,N","070000,1,N,1","+0070,1","-0027,1","10161,1",,,,"0,1,03,1","0,1,03,1",,"03,99,1,00,1,00,1,99999,9,00,1,08,1",,,"99999,9,09790,1","4,1,000,1,+999,9","02,1","SYN082AAXX  12091 01047 41988 31805 10070 21027 39790 40161 54000 70200 80008 333 4////;",
"01047099999","2010-05-12T12:00:00","4","69.0166667","23.0666667","307.0","KAUTOKEINO II, NO","FM-12","ENKA ","V020","180,1,N,0070,1","22000,1,9,N","070000,1,N,1","+0084,1","-0028,1","10157,1",,,,"0,1,06,1","0,1,06,1",,"02,99,1,02,1,01,1,01250,1,00,1,00,1",,,"99999,9,09787,1","7,1,002,1,+999,9","02,1","SYN088AAXX  12121 01047 11688 21807 10084 21028 39787 40157 57002 6//// 70200 82100 333 4////;",
"01047099999","2010-05-12T15:00:00","4","69.0166667","23.0666667","307.0","KAUTOKEINO II, NO","FM-12","ENKA ","V020","160,1,N,0070,1","22000,1,9,N","070000,1,N,1","+0082,1","-0016,1","10158,1",,,,"0,1,03,1","0,1,03,1",,"02,99,1,02,1,00,1,01750,1,04,1,00,1",,,"99999,9,09788,1","0,1,001,1,+999,9","02,1","SYN082AAXX  12151 01047 41788 21607 10082 21016 39788 40158 50001 70200 82040 333 4////;",
"01047099999","2010-05-12T18:00:00","4","69.0166667","23.0666667","307.0","KAUTOKEINO II, NO","FM-12","ENKA ","V020","180,1,N,0050,1","00750,1,9,N","030000,1,N,1","+0032,1","+0001,1","10179,1","12,9999,9,9",,,"8,1,06,1","2,1,06,1",,"08,99,1,08,1,09,1,00800,1,99,9,99,9",,"120,M,+0085,1","99999,9,09802,1","3,1,013,1,+999,9","80,1","SYN094AAXX  12181 01047 11580 81805 10032 20001 39802 40179 53013 69912 78082 889// 333 10085 4////;","Q01  00002PRCP12Q02  00002PRCP12"
"01047099999","2010-05-13T00:00:00","4","69.0166667","23.0666667","307.0","KAUTOKEINO II, NO","FM-12","ENKA ","V020","180,1,N,0010,1","22000,1,9,N","030000,1,N,1","-0018,1","-0024,1","10208,1",,,,"8,1,06,1","1,1,06,1","00,1,+99999,9,99,9","00,99,1,00,1,00,1,99999,9,00,1,00,1",,,"99999,9,09826,1","2,1,010,1,+999,9","01,1","SYN082AAXX  13001 01047 11980 01801 11018 21024 39826 40208 52010 6//// 70181 333 4////;",
"01047099999","2010-05-13T06:00:00","4","69.0166667","23.0666667","307.0","KAUTOKEINO II, NO","FM-12","ENKA ","V020","180,1,N,0030,1","22000,1,9,N","070000,1,N,1","+0047,1","-0021,1","10228,1","12,0003,9,1","24,0005,9,1","9999,2,9,999999,9,9","8,1,06,1","0,1,06,1",,"02,99,1,00,1,00,1,99999,9,00,1,08,1","25,9","999,N,-0023,1","99999,9,09851,1","2,1,009,1,+999,9","02,1","SYN100AAXX  13061 01047 11988 21803 10047 21021 39851 40228 52009 69932 70280 80008 333 21023 41998 70004;","Q01  09982SNDP  "
"01047099999","2010-05-13T09:00:00","4","69.0166667","23.0666667","307.0","KAUTOKEINO II, NO","FM-12","ENKA ","V020","180,1,N,0050,1","01500,1,9,N","070000,1,N,1","+0078,1","-0025,1","10238,1",,,,"2,1,03,1","0,1,03,1",,"06,99,1,06,1,00,1,01750,1,07,1,00,1",,,"99999,9,09864,1","1,1,013,1,+999,9","02,1","SYN082AAXX  13091 01047 41788 61805 10078 21025 39864 40238 51013 70220 86070 333 4////;",
"01047099999","2010-05-13T12:00:00","4","69.0166667","23.0666667","307.0","KAUTOKEINO II, NO","FM-12","ENKA ","V020","180,1,N,0050,1","01500,1,9,N","070000,1,N,1","+0094,1","-0019,1","10236,1",,,,"2,1,06,1","2,1,06,1",,"07,99,1,07,1,00,1,01750,1,07,1,00,1",,,"99999,9,09865,1","4,1,000,1,+999,9","02,1","SYN088AAXX  13121 01047 11788 71805 10094 21019 39865 40236 54000 6//// 70222 87070 333 4////;",
"01047099999","2010-05-13T15:00:00","4","69.0166667","23.0666667","307.0","KAUTOKEINO II, NO","FM-12","ENKA ","V020","180,1,N,0050,1","01500,1,9,N","070000,1,N,1","+0080,1","-0023,1","10234,1",,,,"2,1,03,1","2,1,03,1",,"08,99,1,08,1,00,1,01750,1,07,1,99,9",,,"99999,9,09862,1","7,1,003,1,+999,9","02,1","SYN082AAXX  13151 01047 41788 81805 10080 21023 39862 40234 57003 70222 8807/ 333 4////;",
"01047099999","2010-05-13T18:00:00","4","69.0166667","23.0666667","307.0","KAUTOKEINO II, NO","FM-12","ENKA ","V020","999,9,C,0000,1","01500,1,9,N","070000,1,N,1","+0074,1","-0029,1","10230,1","12,0000,9,1",,,"2,1,06,1","2,1,06,1",,"07,99,1,07,1,00,1,01750,1,07,1,00,1",,"120,M,+0100,1","99999,9,09856,1","7,1,005,1,+999,9","02,1","SYN094AAXX  13181 01047 11788 70000 10074 21029 39856 40230 57005 60002 70222 87070 333 10100 4////;","Q01  00002PRCP12"
"01047099999","2010-05-14T00:00:00","4","69.0166667","23.0666667","307.0","KAUTOKEINO II, NO","FM-12","ENKA ","V020","360,1,N,0010,1","00750,1,9,N","070000,1,N,1","+0040,1","-0020,1","10213,1",,,,"8,1,06,1","2,1,06,1",,"08,99,1,08,1,09,1,00800,1,99,9,99,9",,,"99999,9,09835,1","7,1,005,1,+999,9","25,1","SYN088AAXX  14001 01047 11588 83601 10040 21020 39835 40213 57005 6//// 72582 889// 333 4////;",
"01047099999","2010-05-14T06:00:00","4","69.0166667","23.0666667","307.0","KAUTOKEINO II, NO","FM-12","ENKA ","V020","360,1,N,0010,1","03000,1,9,N","010000,1,N,1","+0046,1","+0037,1","10187,1","12,0030,9,2","24,0028,9,2","9999,2,9,999999,9,9","8,1,06,1","6,1,06,1",,"08,99,1,04,1,05,1,00800,1,02,1,99,9","25,9","999,N,+0039,1","99999,9,09812,1","5,1,001,1,+999,9","62,1","SYN100AAXX  14061 01047 11560 83601 10046 20037 39812 40187 55001 60032 76286 8452/ 333 20039 41998 70028;","Q01  09982SNDP  "
"01047099999","2010-05-14T09:00:00","4","69.0166667","23.0666667","307.0","KAUTOKEINO II, NO","FM-12","ENKA ","V020","180,1,N,0030,1","01200,1,9,N","000800,1,N,1","+0063,1","+0053,1","10186,1",,,,"6,1,03,1","4,1,03,1",,"08,99,1,08,1,00,1,01250,1,02,1,99,9",,,"99999,9,09813,1","4,1,000,1,+999,9","46,1","SYN082AAXX  14091 01047 41608 81803 10063 20053 39813 40186 54000 74664 8802/ 333 4////;",
"01047099999","2010-05-14T12:00:00","4","69.0166667","23.0666667","307.0","KAUTOKEINO II, NO","FM-12","ENKA ","V020","160,1,N,0030,1","00750,1,9,N","002000,1,N,1","+0072,1","+0061,1","10191,1",,,,"5,1,06,1","4,1,06,1",,"08,99,1,06,1,07,1,00800,1,02,1,99,9",,,"99999,9,09819,1","1,1,006,1,+999,9","10,1","SYN088AAXX  14121 01047 11520 81603 10072 20061 39819 40191 51006 6//// 71054 8672/ 333 4////;",
"01047099999","2010-05-14T15:00:00","4","69.0166667","23.0666667","307.0","KAUTOKEINO II, NO","FM-12","ENKA ","V020","180,1,N,0030,1","00750,1,9,N","040000,1,N,1","+0082,1","+0057,1","10191,1",,,,"2,1,03,1","2,1,03,1",,"08,99,1,06,1,07,1,00800,1,02,1,99,9",,,"99999,9,09820,1","4,1,000,1,+999,9","02,1","SYN082AAXX  14151 01047 41582 81803 10082 20057 39820 40191 54000 70222 8672/ 333 4////;",
"01047099999","2010-05-14T18:00:00","4","69.0166667","23.0666667","307.0","KAUTOKEINO II, NO","FM-12","ENKA ","V020","180,1,N,0010,1","00210,1,9,N","030000,1,N,1","+0078,1","+0058,1","10197,1","12,0000,2,1",,,"2,1,06,1","2,1,06,1",,"08,99,1,08,1,06,1,00250,1,99,9,99,9",,"120,M,+0085,1","99999,9,09825,1","2,1,006,1,+999,9","02,1","SYN094AAXX  14181 01047 11380 81801 10078 20058 39825 40197 52006 69912 70222 886// 333 10085 4////;",
"01047099999","2010-05-15T00:00:00","4","69.0166667","23.0666667","307.0","KAUTOKEINO II, NO","FM-12","ENKA ","V020","999,9,C,0000,1","00750,1,9,N","001200,1,N,1","+0038,1","+0025,1","10215,1",,,,"5,1,06,1","2,1,06,1",,"08,99,1,06,1,07,1,00800,1,02,1,99,9",,,"99999,9,09838,1","2,1,005,1,+999,9","51,1","SYN088AAXX  15001 01047 11512 80000 10038 20025 39838 40215 52005 6//// 75152 8672/ 333 4////;",
"01047099999","2010-05-15T06:00:00","4","69.0166667","23.0666667","307.0","KAUTOKEINO II, NO","FM-12","ENKA ","V020","360,1,N,0010,1","00420,1,9,N","001500,1,N,1","+0056,1","+0046,1","10208,1","12,0003,9,1","24,0005,9,1","9999,2,9,999999,9,9","5,1,06,1","2,1,06,1",,"08,99,1,08,1,06,1,00450,1,99,9,99,9","25,9","999,N,+0038,1","99999,9,09833,1","0,1,001,1,+999,9","10,1","SYN100AAXX  15061 01047 11415 83601 10056 20046 39833 40208 50001 69932 71052 886// 333 20038 41998 70004;","Q01  09982SNDP  "
"01047099999","2010-05-15T09:00:00","4","69.0166667","23.0666667","307.0","KAUTOKEINO II, NO","FM-12","ENKA ","V020","320,1,N,0050,1","22000,1,9,N","070000,1,N,1","+0113,1","+0058,1","10202,1",,,,"2,1,03,1","2,1,03,1",,"02,99,1,02,1,06,1,00450,1,00,1,00,1",,,"99999,9,09834,1","3,1,002,1,+999,9","01,1","SYN082AAXX  15091 01047 41488 23205 10113 20058 39834 40202 53002 70122 82600 333 4////;",
"01047099999","2010-05-15T12:00:00","4","69.0166667","23.0666667","307.0","KAUTOKEINO II, NO","FM-12","ENKA ","V020","090,1,N,0050,1","22000,1,9,N","070000,1,N,1","+0114,1","+0069,1","10210,1",,,,"0,1,06,1","0,1,06,1",,"02,99,1,01,1,04,1,01250,1,04,1,00,1",,,"99999,9,09843,1","2,1,008,1,+999,9","02,1","SYN088AAXX  15121 01047 11688 20905 10114 20069 39843 40210 52008 6//// 70200 81440 333 4////;",
"01047099999","2010-05-15T15:00:00","4","69.0166667","23.0666667","307.0","KAUTOKEINO II, NO","FM-12","ENKA ","V020","360,1,N,0050,1","22000,1,9,N","070000,1,N,1","+0144,1","+0070,1","10202,1",,,,"0,1,03,1","0,1,03,1","00,1,+99999,9,99,9","00,99,1,00,1,00,1,99999,9,00,1,00,1",,,"99999,9,09838,1","8,1,004,1,+999,9","02,1","SYN076AAXX  15151 01047 41988 03605 10144 20070 39838 40202 58004 70200 333 4////;",
"01047099999","2010-05-15T18:00:00","4","69.0166667","23.0666667","307.0","KAUTOKEINO II, NO","FM-12","ENKA ","V020","360,1,N,0050,1","22000,1,9,N","070000,1,N,1","+0120,1","+0056,1","10206,1","12,0000,9,1",,,"0,1,06,1","0,1,06,1","00,1,+99999,9,99,9","00,99,1,00,1,00,1,99999,9,00,1,00,1",,"120,M,+0148,1","99999,9,09839,1","4,1,000,1,+999,9","02,1","SYN088AAXX  15181 01047 11988 03605 10120 20056 39839 40206 54000 60002 70200 333 10148 4////;","Q01  00002PRCP12"
"01047099999","2010-05-16T00:00:00","4","69.0166667","23.0666667","307.0","KAUTOKEINO II, NO","FM-12","ENKA ","V020","360,1,N,0010,1","00015,1,9,N","000100,1,N,1","+0038,1","+0028,1","10235,1",,,,"4,1,06,1","0,1,06,1","09,1,+99999,9,99,9","09,99,1,09,1,99,9,99999,9,99,9,99,9",,,"99999,9,09857,1","1,1,006,1,+999,9","45,1","SYN082AAXX  16001 01047 11/01 93601 10038 20028 39857 40235 51006 6//// 74540 333 4////;",
"01047099999","2010-05-16T06:00:00","4","69.0166667","23.0666667","307.0","KAUTOKEINO II, NO","FM-12","ENKA ","V020","360,1,N,0030,1","03000,1,9,N","060000,1,N,1","+0050,1","+0040,1","10240,1","12,0000,9,1","24,0000,9,1","9999,2,9,999999,9,9","4,1,06,1","2,1,06,1",,"08,99,1,03,1,05,1,00800,1,02,1,99,9","25,9","999,N,+0037,1","99999,9,09863,1","1,1,002,1,+999,9","02,1","SYN100AAXX  16061 01047 11586 83603 10050 20040 39863 40240 51002 60002 70242 8352/ 333 20037 41998 70000;","Q01  00002PRCP24Q02  00002PRCP12Q03  09982SNDP  "
"01047099999","2010-05-16T09:00:00","4","69.0166667","23.0666667","307.0","KAUTOKEINO II, NO","FM-12","ENKA ","V020","360,1,N,0030,1","00750,1,9,N","065000,1,N,1","+0069,1","+0041,1","10241,1",,,,"2,1,03,1","2,1,03,1",,"08,99,1,05,1,05,1,00800,1,02,1,99,9",,,"99999,9,09866,1","3,1,004,1,+999,9","02,1","SYN082AAXX  16091 01047 41587 83603 10069 20041 39866 40241 53004 70222 8552/ 333 4////;",
"01047099999","2010-05-16T12:00:00","4","69.0166667","23.0666667","307.0","KAUTOKEINO II, NO","FM-12","ENKA ","V020","360,1,N,0050,1","22000,1,9,N","070000,1,N,1","+0092,1","+0040,1","10233,1",,,,"2,1,06,1","2,1,06,1",,"03,99,1,03,1,05,1,01250,1,00,1,00,1",,,"99999,9,09862,1","6,1,005,1,+999,9","01,1","SYN088AAXX  16121 01047 11688 33605 10092 20040 39862 40233 56005 6//// 70122 83500 333 4////;",
"01047099999","2010-05-16T15:00:00","4","69.0166667","23.0666667","307.0","KAUTOKEINO II, NO","FM-12","ENKA ","V020","360,1,N,0030,1","22000,1,9,N","070000,1,N,1","+0140,1","+0056,1","10212,1",,,,"0,1,03,1","0,1,03,1",,"02,99,1,02,1,00,1,02250,1,04,1,00,1",,,"99999,9,09847,1","8,1,014,1,+999,9","02,1","SYN082AAXX  16151 01047 41888 23603 10140 20056 39847 40212 58014 70200 82040 333 4////;",
"01047099999","2010-05-16T18:00:00","4","69.0166667","23.0666667","307.0","KAUTOKEINO II, NO","FM-12","ENKA ","V020","090,1,N,0050,1","22000,1,9,N","070000,1,N,1","+0125,1","+0054,1","10214,1","12,0000,9,1",,,"0,1,06,1","0,1,06,1",,"03,99,1,03,1,00,1,01750,1,09,1,00,1",,"120,M,+0145,1","99999,9,09847,1","4,1,000,1,+999,9","02,1","SYN094AAXX  16181 01047 11788 30905 10125 20054 39847 40214 54000 60002 70200 83090 333 10145 4////;","Q01  00002PRCP12"
"01047099999","2010-05-17T00:00:00","4","69.0166667","23.0666667","307.0","KAUTOKEINO II, NO","FM-12","ENKA ","V020","360,1,N,0030,1","03000,1,9,N","040000,1,N,1","+0052,1","+0037,1","10224,1",,,,"2,1,06,1","2,1,06,1",,"07,99,1,04,1,02,1,01250,1,09,1,00,1",,,"99999,9,09848,1","4,1,000,1,+999,9","02,1","SYN088AAXX  17001 01047 11682 73603 10052 20037 39848 40224 54000 6//// 70222 84290 333 4////;",
"01047099999","2010-05-17T06:00:00","4","69.0166667","23.0666667","307.0","KAUTOKEINO II, NO","FM-12","ENKA ","V020","999,9,C,0000,1","22000,1,9,N","070000,1,N,1","+0102,1","+0048,1","10214,1","12,0000,9,1","24,0000,9,1",,"2,1,06,1","1,1,06,1",,"04,99,1,00,1,00,1,99999,9,00,1,08,1",,"999,N,+0047,1","99999,9,09845,1","4,1,000,1,+999,9","02,1","SYN100AAXX  17061 01047 11988 40000 10102 20048 39845 40214 54000 60002 70221 80008 333 20047 4//// 70000;","Q01  00002PRCP24Q02  00002PRCP12"
"01047099999","2010-05-17T09:00:00","4","69.0166667","23.0666667","307.0","KAUTOKEINO II, NO","FM-12","ENKA ","V020","140,1,N,0050,1","99999,9,9,N","070000,1,N,1","+0168,1","+0072,1","10202,1",,,,"2,1,03,1","2,1,03,1",,"05,99,1,00,1,00,1,99999,9,00,1,08,1",,,"99999,9,09842,1","7,1,003,1,+999,9","02,1","SYN082AAXX  17091 01047 41988 51405 10168 20072 39842 40202 57003 70222 80008 333 4////;",
"01047099999","2010-05-17T12:00:00","4","69.0166667","23.0666667","307.0","KAUTOKEINO II, NO","FM-12","ENKA ","V020","160,1,N,0050,1","99999,9,9,N","070000,1,N,1","+0200,1","+0087,1","10192,1",,,,"2,1,06,1","2,1,06,1",,"05,99,1,00,1,00,1,99999,9,00,1,08,1",,,"99999,9,09836,1","7,1,006,1,+999,9","02,1","SYN088AAXX  17121 01047 11988 51605 10200 20087 39836 40192 57006 6//// 70222 80008 333 4////;",
"01047099999","2010-05-17T15:00:00","4","69.0166667","23.0666667","307.0","KAUTOKEINO II, NO","FM-12","ENKA ","V020","160,1,N,0050,1","22000,1,9,N","070000,1,N,1","+0208,1","+0078,1","10182,1",,,,"1,1,03,1","1,1,03,1",,"03,99,1,00,1,00,1,99999,9,00,1,02,1",,,"99999,9,09827,1","7,1,008,1,+999,9","02,1","SYN082AAXX  17151 01047 41988 31605 10208 20078 39827 40182 57008 70211 80002 333 4////;",
"01047099999","2010-05-17T18:00:00","4","69.0166667","23.0666667","307.0","KAUTOKEINO II, NO","FM-12","ENKA ","V020","140,1,N,0050,1","22000,1,9,N","070000,1,N,1","+0188,1","+0070,1","10186,1","12,0000,9,1",,,"0,1,06,1","0,1,06,1",,"02,99,1,00,1,00,1,99999,9,00,1,02,1",,"120,M,+0215,1","99999,9,09829,1","4,1,000,1,+999,9","02,1","SYN094AAXX  17181 01047 11988 21405 10188 20070 39829 40186 54000 60002 70200 80002 333 10215 4////;","Q01  00002PRCP12"
"01047099999","2010-05-18T00:00:00","4","69.0166667","23.0666667","307.0","KAUTOKEINO II, NO","FM-12","ENKA ","V020","999,9,C,0000,1","03000,1,9,N","070000,1,N,1","+0096,1","+0054,1","10220,1",,,,"1,1,06,1","1,1,06,1",,"06,99,1,03,1,02,1,01250,1,09,1,00,1",,,"99999,9,09850,1","2,1,008,1,+999,9","02,1","SYN088AAXX  18001 01047 11688 60000 10096 20054 39850 40220 52008 6//// 70211 83290 333 4////;",
"01047099999","2010-05-18T06:00:00","4","69.0166667","23.0666667","307.0","KAUTOKEINO II, NO","FM-12","ENKA ","V020","999,9,C,0000,1","22000,1,9,N","070000,1,N,1","+0149,1","+0067,1","10223,1","12,0000,9,1","24,0000,9,1",,"1,1,06,1","0,1,06,1","00,1,+99999,9,99,9","00,99,1,00,1,00,1,99999,9,00,1,00,1",,"999,N,+0078,1","99999,9,09859,1","3,1,002,1,+999,9","02,1","SYN094AAXX  18061 01047 11988 00000 10149 20067 39859 40223 53002 60002 70210 333 20078 4//// 70000;","Q01  00002PRCP24Q02  00002PRCP12"
"01047099999","2010-05-18T09:00:00","4","69.0166667","23.0666667","307.0","KAUTOKEINO II, NO","FM-12","ENKA ","V020","180,1,N,0050,1","22000,1,9,N","070000,1,N,1","+0210,1","+0096,1","10220,1",,,,"0,1,03,1","0,1,03,1",,"01,99,1,00,1,00,1,99999,9,00,1,01,1",,,"99999,9,09864,1","2,1,005,1,+999,9","02,1","SYN082AAXX  18091 01047 41988 11805 10210 20096 39864 40220 52005 70200 80001 333 4////;",
"01047099999","2010-05-18T12:00:00","4","69.0166667","23.0666667","307.0","KAUTOKEINO II, NO","FM-12","ENKA ","V020","140,1,N,0010,1","01200,1,9,N","070000,1,N,1","+0226,1","+0101,1","10220,1",,,,"2,1,06,1","0,1,06,1",,"05,99,1,05,1,02,1,01250,1,00,1,00,1",,,"99999,9,09866,1","1,1,002,1,+999,9","02,1","SYN088AAXX  18121 01047 11688 51401 10226 20101 39866 40220 51002 6//// 70220 85200 333 4////;",
"01047099999","2010-05-18T15:00:00","4","69.0166667","23.0666667","307.0","KAUTOKEINO II, NO","FM-12","ENKA ","V020","320,1,N,0050,1","00750,1,9,N","040000,1,N,1","+0126,1","+0096,1","10255,1",,,,"9,1,03,1","8,1,03,1",,"07,99,1,07,1,09,1,00800,1,00,1,00,1",,,"99999,9,09888,1","3,1,022,1,+999,9","80,1","SYN082AAXX  18151 01047 41582 73205 10126 20096 39888 40255 53022 78098 87900 333 4////;",
"01047099999","2010-05-18T18:00:00","4","69.0166667","23.0666667","307.0","KAUTOKEINO II, NO","FM-12","ENKA ","V020","320,1,N,0030,1","00750,1,9,N","070000,1,N,1","+0088,1","+0071,1","10287,1","12,0030,9,1",,,"8,1,06,1","2,1,06,1",,"07,99,1,07,1,09,1,00800,1,00,1,00,1",,"120,M,+0235,1","99999,9,09914,1","1,1,026,1,+999,9","25,1","SYN094AAXX  18181 01047 11588 73203 10088 20071 39914 40287 51026 60032 72582 87900 333 10235 4////;",
"01047099999","2010-05-19T00:00:00","4","69.0166667","23.0666667","307.0","KAUTOKEINO II, NO","FM-12","ENKA ","V020","320,1,N,0050,1","00750,1,9,N","070000,1,N,1","+0048,1","+0033,1","10309,1",,,,"8,1,06,1","2,1,06,1",,"08,99,1,08,1,09,1,00800,1,99,9,99,9",,,"99999,9,09930,1","2,1,006,1,+999,9","02,1","SYN088AAXX  19001 01047 11588 83205 10048 20033 39930 40309 52006 6//// 70282 889// 333 4////;",
"01047099999","2010-05-19T06:00:00","4","69.0166667","23.0666667","307.0","KAUTOKEINO II, NO","FM-12","ENKA ","V020","320,1,N,0050,1","03000,1,9,N","070000,1,N,1","+0062,1","+0037,1","10313,1","12,0003,9,1","24,0028,9,1",,"8,1,06,1","2,1,06,1",,"08,99,1,04,1,05,1,00800,1,02,1,99,9",,"999,N,+0047,1","99999,9,09935,1","4,1,000,1,+999,9","02,1","SYN100AAXX  19061 01047 11588 83205 10062 20037 39935 40313 54000 69932 70282 8452/ 333 20047 4//// 70028;",
"01047099999","2010-05-19T09:00:00","4","69.0166667","23.0666667","307.0","KAUTOKEINO II, NO","FM-12","ENKA ","V020","320,1,N,0050,1","01200,1,9,N","070000,1,N,1","+0065,1","+0037,1","10319,1",,,,"2,1,03,1","2,1,03,1",,"08,99,1,08,1,00,1,01250,1,02,1,99,9",,,"99999,9,09941,1","3,1,006,1,+999,9","02,1","SYN082AAXX  19091 01047 41688 83205 10065 20037 39941 40319 53006 70222 8802/ 333 4////;",
"01047099999","2010-05-19T12:00:00","4","69.0166667","23.0666667","307.0","KAUTOKEINO II, NO","FM-12","ENKA ","V020","360,1,N,0050,1","00750,1,9,N","070000,1,N,1","+0070,1","+0038,1","10319,1",,,,"2,1,06,1","2,1,06,1",,"08,99,1,06,1,07,1,00800,1,02,1,99,9",,,"99999,9,09941,1","4,1,000,1,+999,9","02,1","SYN088AAXX  19121 01047 11588 83605 10070 20038 39941 40319 54000 6//// 70222 8672/ 333 4////;",
"01047099999","2010-05-19T15:00:00","4","69.0166667","23.0666667","307.0","KAUTOKEINO II, NO","FM-12","ENKA ","V020","360,1,N,0050,1","00750,1,9,N","070000,1,N,1","+0070,1","+0043,1","10314,1",,,,"2,1,03,1","2,1,03,1",,"08,99,1,06,1,07,1,00800,1,02,1,99,9",,,"99999,9,09937,1","7,1,005,1,+999,9","02,1","SYN082AAXX  19151 01047 41588 83605 10070 20043 39937 40314 57005 70222 8672/ 333 4////;",
"01047099999","2010-05-19T18:00:00","4","69.0166667","23.0666667","307.0","KAUTOKEINO II, NO","FM-12","ENKA ","V020","360,1,N,0050,1","00750,1,9,N","070000,1,N,1","+0066,1","+0041,1","10310,1","12,0000,9,1",,,"2,1,06,1","2,1,06,1",,"08,99,1,06,1,07,1,00800,1,02,1,99,9",,"120,M,+0072,1","99999,9,09933,1","6,1,004,1,+999,9","02,1","SYN094AAXX  19181 01047 11588 83605 10066 20041 39933 40310 56004 60002 70222 8672/ 333 10072 4////;","Q01  00002PRCP12"
"01047099999","2010-05-20T00:00:00","4","69.0166667","23.0666667","307.0","KAUTOKEINO II, NO","FM-12","ENKA ","V020","999,9,C,0000,1","00030,1,9,N","000200,1,N,1","+0044,1","+0034,1","10303,1",,,,"4,1,06,1","2,1,06,1","09,1,+99999,9,99,9","09,99,1,09,1,99,9,99999,9,99,9,99,9",,,"99999,9,09923,1","7,1,005,1,+999,9","46,1","SYN082AAXX  20001 01047 11/02 90000 10044 20034 39923 40303 57005 6//// 74642 333 4////;",
"01047099999","2010-05-20T06:00:00","4","69.0166667","23.0666667","307.0","KAUTOKEINO II, NO","FM-12","ENKA ","V020","999,9,C,0000,1","01200,1,9,N","065000,1,N,1","+0070,1","+0055,1","10271,1","12,0000,9,1","24,0000,9,1",,"4,1,06,1","2,1,06,1",,"08,99,1,08,1,00,1,01250,1,02,1,99,9",,"999,N,+0041,1","99999,9,09896,1","7,1,007,1,+999,9","02,1","SYN100AAXX  20061 01047 11687 80000 10070 20055 39896 40271 57007 60002 70242 8802/ 333 20041 4//// 70000;","Q01  00002PRCP24Q02  00002PRCP12"
"01047099999","2010-05-20T09:00:00","4","69.0166667","23.0666667","307.0","KAUTOKEINO II, NO","FM-12","ENKA ","V020","999,9,C,0000,1","01500,1,9,N","070000,1,N,1","+0136,1","+0065,1","10242,1",,,,"2,1,03,1","2,1,03,1",,"07,99,1,07,1,00,1,01750,1,07,1,00,1",,,"99999,9,09876,1","7,1,019,1,+999,9","02,1","SYN082AAXX  20091 01047 41788 70000 10136 20065 39876 40242 57019 70222 87070 333 4////;",
"01047099999","2010-05-20T12:00:00","4","69.0166667","23.0666667","307.0","KAUTOKEINO II, NO","FM-12","ENKA ","V020","180,1,N,0050,1","01500,1,9,N","070000,1,N,1","+0174,1","+0080,1","10219,1",,,,"2,1,06,1","2,1,06,1",,"08,99,1,08,1,00,1,01750,1,07,1,99,9",,,"99999,9,09859,1","7,1,018,1,+999,9","02,1","SYN088AAXX  20121 01047 11788 81805 10174 20080 39859 40219 57018 6//// 70222 8807/ 333 4////;",
"01047099999","2010-05-20T15:00:00","4","69.0166667","23.0666667","307.0","KAUTOKEINO II, NO","FM-12","ENKA ","V020","320,1,N,0050,1","00750,1,9,N","070000,1,N,1","+0160,1","+0080,1","10208,1",,,,"8,1,03,1","2,1,03,1",,"08,99,1,08,1,09,1,00800,1,99,9,99,9",,,"99999,9,09846,1","6,1,013,1,+999,9","25,1","SYN082AAXX  20151 01047 41588 83205 10160 20080 39846 40208 56013 72582 889// 333 4////;",
"01047099999","2010-05-20T18:00:00","4","69.0166667","23.0666667","307.0","KAUTOKEINO II, NO","FM-12","ENKA ","V020","320,1,N,0050,1","00750,1,9,N","015000,1,N,1","+0110,1","+0093,1","10219,1","12,0020,9,1",,,"8,1,06,1","6,1,06,1",,"08,99,1,06,1,07,1,00800,1,02,1,99,9",,"120,M,+0185,1","99999,9,09851,1","3,1,005,1,+999,9","63,1","SYN094AAXX  20181 01047 11565 83205 10110 20093 39851 40219 53005 60022 76386 8672/ 333 10185 4////;",
"01047099999","2010-05-21T00:00:00","4","69.0166667","23.0666667","307.0","KAUTOKEINO II, NO","FM-12","ENKA ","V020","320,1,N,0030,1","00750,1,9,N","070000,1,N,1","+0066,1","+0051,1","10245,1",,,,"6,1,06,1","2,1,06,1",,"08,99,1,06,1,07,1,00800,1,02,1,99,9",,,"99999,9,09870,1","1,1,008,1,+999,9","02,1","SYN088AAXX  21001 01047 11588 83203 10066 20051 39870 40245 51008 6//// 70262 8672/ 333 4////;",
"01047099999","2010-05-21T06:00:00","4","69.0166667","23.0666667","307.0","KAUTOKEINO II, NO","FM-12","ENKA ","V020","320,1,N,0050,1","03000,1,9,N","070000,1,N,1","+0082,1","+0005,1","10255,1","12,0000,2,1","24,0015,9,1",,"6,1,06,1","2,1,06,1",,"05,99,1,02,1,09,1,00800,1,04,1,00,1",,"999,N,+0028,1","99999,9,09882,1","3,1,003,1,+999,9","02,1","SYN100AAXX  21061 01047 11588 53205 10082 20005 39882 40255 53003 69912 70262 82940 333 20028 4//// 70016;",
"01047099999","2010-05-21T09:00:00","4","69.0166667","23.0666667","307.0","KAUTOKEINO II, NO","FM-12","ENKA ","V020","320,1,N,0070,1","00750,1,9,N","070000,1,N,1","+0091,1","-0013,1","10257,1",,,,"2,1,03,1","2,1,03,1",,"07,99,1,07,1,05,1,00800,1,00,1,00,1",,,"99999,9,09885,1","3,1,003,1,+999,9","02,1","SYN082AAXX  21091 01047 41588 73207 10091 21013 39885 40257 53003 70222 87500 333 4////;",
"01047099999","2010-05-21T12:00:00","4","69.0166667","23.0666667","307.0","KAUTOKEINO II, NO","FM-12","ENKA ","V020","320,1,N,0100,1","01200,1,9,N","070000,1,N,1","+0106,1","+0001,1","10257,1",,,,"2,1,06,1","2,1,06,1",,"06,99,1,06,1,05,1,01250,1,00,1,00,1",,,"99999,9,09887,1","1,1,002,1,+999,9","02,1","SYN088AAXX  21121 01047 11688 63210 10106 20001 39887 40257 51002 6//// 70222 86500 333 4////;",
"01047099999","2010-05-21T15:00:00","4","69.0166667","23.0666667","307.0","KAUTOKEINO II, NO","FM-12","ENKA ","V020","320,1,N,0100,1","01200,1,9,N","070000,1,N,1","+0106,1","+0009,1","10265,1",,,,"2,1,03,1","2,1,03,1",,"06,99,1,06,1,05,1,01250,1,00,1,00,1",,,"99999,9,09894,1","3,1,008,1,+999,9","02,1","SYN082AAXX  21151 01047 41688 63210 10106 20009 39894 40265 53008 70222 86500 333 4////;",
"01047099999","2010-05-21T18:00:00","4","69.0166667","23.0666667","307.0","KAUTOKEINO II, NO","FM-12","ENKA ","V020","320,1,N,0070,1","01200,1,9,N","070000,1,N,1","+0068,1","+0009,1","10276,1","12,0000,9,1",,,"2,1,06,1","2,1,06,1",,"08,99,1,08,1,05,1,01250,1,99,9,99,9",,"120,M,+0115,1","99999,9,09900,1","2,1,006,1,+999,9","02,1","SYN094AAXX  21181 01047 11688 83207 10068 20009 39900 40276 52006 60002 70222 885// 333 10115 4////;","Q01  00002PRCP12"
"01047099999","2010-05-22T00:00:00","4","69.0166667","23.0666667","307.0","KAUTOKEINO II, NO","FM-12","ENKA ","V020","999,9,C,0000,1","01200,1,9,N","070000,1,N,1","+0045,1","+0015,1","10272,1",,,,"2,1,06,1","2,1,06,1",,"08,99,1,08,1,05,1,01250,1,99,9,99,9",,,"99999,9,09893,1","8,1,005,1,+999,9","02,1","SYN088AAXX  22001 01047 11688 80000 10045 20015 39893 40272 58005 6//// 70222 885// 333 4////;",
"01047099999","2010-05-22T06:00:00","4","69.0166667","23.0666667","307.0","KAUTOKEINO II, NO","FM-12","ENKA ","V020","180,1,N,0050,1","07500,1,9,N","070000,1,N,1","+0082,1","+0020,1","10236,1","12,0000,9,1","24,0000,9,1",,"2,1,06,1","1,1,06,1",,"05,99,1,04,1,00,1,01750,1,04,1,05,1",,"999,N,+0041,1","99999,9,09863,1","7,1,012,1,+999,9","02,1","SYN100AAXX  22061 01047 11788 51805 10082 20020 39863 40236 57012 60002 70221 84045 333 20041 4//// 70000;","Q01  00002PRCP24Q02  00002PRCP12"
"01047099999","2010-05-22T09:00:00","4","69.0166667","23.0666667","307.0","KAUTOKEINO II, NO","FM-12","ENKA ","V020","180,1,N,0050,1","03000,1,9,N","070000,1,N,1","+0112,1","+0025,1","10207,1",,,,"2,1,03,1","2,1,03,1",,"07,99,1,03,1,04,1,01250,1,07,1,00,1",,,"99999,9,09840,1","7,1,024,1,+999,9","03,1","SYN082AAXX  22091 01047 41688 71805 10112 20025 39840 40207 57024 70322 83470 333 4////;",
"01047099999","2010-05-22T12:00:00","4","69.0166667","23.0666667","307.0","KAUTOKEINO II, NO","FM-12","ENKA ","V020","180,1,N,0070,1","03000,1,9,N","070000,1,N,1","+0130,1","+0026,1","10175,1",,,,"2,1,06,1","2,1,06,1",,"08,99,1,03,1,05,1,01250,1,02,1,99,9",,,"99999,9,09811,1","7,1,029,1,+999,9","02,1","SYN088AAXX  22121 01047 11688 81807 10130 20026 39811 40175 57029 6//// 70222 8352/ 333 4////;",
"01047099999","2010-05-22T15:00:00","4","69.0166667","23.0666667","307.0","KAUTOKEINO II, NO","FM-12","ENKA ","V020","180,1,N,0070,1","00750,1,9,N","070000,1,N,1","+0120,1","+0027,1","10147,1",,,,"8,1,03,1","2,1,03,1",,"08,99,1,08,1,09,1,00800,1,99,9,99,9",,,"99999,9,09782,1","7,1,029,1,+999,9","25,1","SYN082AAXX  22151 01047 41588 81807 10120 20027 39782 40147 57029 72582 889// 333 4////;",
"01047099999","2010-05-22T18:00:00","4","69.0166667","23.0666667","307.0","KAUTOKEINO II, NO","FM-12","ENKA ","V020","220,1,N,0050,1","00750,1,9,N","015000,1,N,1","+0100,1","+0079,1","10128,1","12,0005,9,1",,,"8,1,06,1","6,1,06,1",,"08,99,1,06,1,07,1,00800,1,02,1,99,9",,"120,M,+0135,1","99999,9,09762,1","6,1,019,1,+999,9","61,1","SYN094AAXX  22181 01047 11565 82205 10100 20079 39762 40128 56019 69952 76186 8672/ 333 10135 4////;",
"01047099999","2010-05-23T00:00:00","4","69.0166667","23.0666667","307.0","KAUTOKEINO II, NO","FM-12","ENKA ","V020","999,9,C,0000,1","03000,1,9,N","030000,1,N,1","+0066,1","+0041,1","10092,1",,,,"6,1,06,1","2,1,06,1",,"08,99,1,04,1,05,1,00800,1,02,1,99,9",,,"99999,9,09723,1","7,1,020,1,+999,9","02,1","SYN088AAXX  23001 01047 11580 80000 10066 20041 39723 40092 57020 6//// 70262 8452/ 333 4////;",
"01047099999","2010-05-23T06:00:00","4","69.0166667","23.0666667","307.0","KAUTOKEINO II, NO","FM-12","ENKA ","V020","360,1,N,0010,1","00750,1,9,N","065000,1,N,1","+0062,1","+0039,1","10083,1","12,0010,9,1","24,0015,9,1",,"6,1,06,1","2,1,06,1",,"08,99,1,08,1,07,1,00800,1,99,9,99,9",,"999,N,+0051,1","99999,9,09713,1","6,1,003,1,+999,9","02,1","SYN100AAXX  23061 01047 11587 83601 10062 20039 39713 40083 56003 69992 70262 887// 333 20051 4//// 70014;",
"01047099999","2010-05-23T09:00:00","4","69.0166667","23.0666667","307.0","KAUTOKEINO II, NO","FM-12","ENKA ","V020","360,1,N,0030,1","00750,1,9,N","065000,1,N,1","+0071,1","+0018,1","10082,1",,,,"6,1,03,1","2,1,03,1",,"08,99,1,06,1,07,1,00800,1,02,1,99,9",,,"99999,9,09714,1","4,1,000,1,+999,9","21,1","SYN082AAXX  23091 01047 41587 83603 10071 20018 39714 40082 54000 72162 8672/ 333 4////;",
"01047099999","2010-05-23T12:00:00","4","69.0166667","23.0666667","307.0","KAUTOKEINO II, NO","FM-12","ENKA ","V020","050,1,N,0050,1","00750,1,9,N","040000,1,N,1","+0082,1","+0005,1","10072,1",,,,"8,1,06,1","2,1,06,1",,"08,99,1,08,1,09,1,00800,1,99,9,99,9",,,"99999,9,09705,1","8,1,008,1,+999,9","80,1","SYN088AAXX  23121 01047 11582 80505 10082 20005 39705 40072 58008 6//// 78082 889// 333 4////;",
"01047099999","2010-05-23T15:00:00","4","69.0166667","23.0666667","307.0","KAUTOKEINO II, NO","FM-12","ENKA ","V020","320,1,N,0050,1","00750,1,9,N","070000,1,N,1","+0086,1","+0001,1","10070,1",,,,"8,1,03,1","2,1,03,1",,"08,99,1,08,1,09,1,00800,1,99,9,99,9",,,"99999,9,09704,1","4,1,000,1,+999,9","02,1","SYN082AAXX  23151 01047 41588 83205 10086 20001 39704 40070 54000 70282 889// 333 4////;",
"01047099999","2010-05-23T18:00:00","4","69.0166667","23.0666667","307.0","KAUTOKEINO II, NO","FM-12","ENKA ","V020","050,1,N,0050,1","00750,1,9,N","070000,1,N,1","+0064,1","-0015,1","10068,1","12,0010,9,1",,,"8,1,06,1","2,1,06,1",,"08,99,1,08,1,05,1,00800,1,99,9,99,9",,"120,M,+0092,1","99999,9,09699,1","7,1,004,1,+999,9","02,1","SYN094AAXX  23181 01047 11588 80505 10064 21015 39699 40068 57004 60012 70282 885// 333 10092 4////;",
"01047099999","2010-05-24T00:00:00","4","69.0166667","23.0666667","307.0","KAUTOKEINO II, NO","FM-12","ENKA ","V020","360,1,N,0010,1","00750,1,9,N","070000,1,N,1","+0034,1","-0017,1","10073,1",,,,"2,1,06,1","2,1,06,1",,"08,99,1,08,1,05,1,00800,1,99,9,99,9",,,"99999,9,09700,1","4,1,000,1,+999,9","02,1","SYN088AAXX  24001 01047 11588 83601 10034 21017 39700 40073 54000 6//// 70222 885// 333 4////;",
"01047099999","2010-05-24T06:00:00","4","69.0166667","23.0666667","307.0","KAUTOKEINO II, NO","FM-12","ENKA ","V020","050,1,N,0070,1","22000,1,9,N","070000,1,N,1","+0056,1","-0027,1","10063,1","12,0000,9,1","24,0010,9,1",,"2,1,06,1","1,1,06,1",,"05,99,1,04,1,01,1,01250,1,00,1,08,1",,"999,N,+0028,1","99999,9,09693,1","6,1,004,1,+999,9","02,1","SYN100AAXX  24061 01047 11688 50507 10056 21027 39693 40063 56004 60002 70221 84108 333 20028 4//// 70010;","Q01  00002PRCP12"
"01047099999","2010-05-24T09:00:00","4","69.0166667","23.0666667","307.0","KAUTOKEINO II, NO","FM-12","ENKA ","V020","050,1,N,0070,1","01200,1,9,N","070000,1,N,1","+0084,1","-0017,1","10050,1",,,,"1,1,03,1","1,1,03,1",,"05,99,1,05,1,01,1,01250,1,00,1,00,1",,,"99999,9,09685,1","8,1,009,1,+999,9","02,1","SYN082AAXX  24091 01047 41688 50507 10084 21017 39685 40050 58009 70211 85100 333 4////;",
"01047099999","2010-05-24T12:00:00","4","69.0166667","23.0666667","307.0","KAUTOKEINO II, NO","FM-12","ENKA ","V020","360,1,N,0070,1","00750,1,9,N","070000,1,N,1","+0084,1","-0019,1","10047,1",,,,"2,1,06,1","2,1,06,1",,"07,99,1,06,1,09,1,00800,1,04,1,00,1",,,"99999,9,09681,1","6,1,003,1,+999,9","02,1","SYN088AAXX  24121 01047 11588 73607 10084 21019 39681 40047 56003 6//// 70222 86940 333 4////;",
"01047099999","2010-05-24T15:00:00","4","69.0166667","23.0666667","307.0","KAUTOKEINO II, NO","FM-12","ENKA ","V020","360,1,N,0100,1","00750,1,9,N","070000,1,N,1","+0060,1","-0014,1","10047,1",,,,"2,1,03,1","2,1,03,1",,"08,99,1,08,1,05,1,00800,1,99,9,99,9",,,"99999,9,09678,1","7,1,003,1,+999,9","02,1","SYN082AAXX  24151 01047 41588 83610 10060 21014 39678 40047 57003 70222 885// 333 4////;",
"01047099999","2010-05-24T18:00:00","4","69.0166667","23.0666667","307.0","KAUTOKEINO II, NO","FM-12","ENKA ","V020","360,1,N,0100,1","00750,1,9,N","020000,1,N,1","+0042,1","+0026,1","10048,1","12,0003,9,1",,,"6,1,06,1","2,1,06,1",,"08,99,1,06,1,05,1,00800,1,02,1,99,9",,"120,M,+0092,1","99999,9,09677,1","6,1,001,1,+999,9","63,1","SYN094AAXX  24181 01047 11570 83610 10042 20026 39677 40048 56001 69932 76362 8652/ 333 10092 4////;",
"01047099999","2010-05-25T00:00:00","4","69.0166667","23.0666667","307.0","KAUTOKEINO II, NO","FM-12","ENKA ","V020","360,1,N,0050,1","00750,1,9,N","070000,1,N,1","+0040,1","+0027,1","10035,1",,,,"6,1,06,1","2,1,06,1",,"08,99,1,06,1,07,1,00800,1,02,1,99,9",,,"99999,9,09664,1","7,1,008,1,+999,9","21,1","SYN088AAXX  25001 01047 11588 83605 10040 20027 39664 40035 57008 6//// 72162 8672/ 333 4////;",
"01047099999","2010-05-25T06:00:00","4","69.0166667","23.0666667","307.0","KAUTOKEINO II, NO","FM-12","ENKA ","V020","320,1,N,0070,1","00750,1,9,N","065000,1,N,1","+0065,1","+0022,1","10035,1","12,0079,9,1","24,0086,9,1",,"6,1,06,1","2,1,06,1",,"08,99,1,08,1,07,1,00800,1,99,9,99,9",,"999,N,+0023,1","99999,9,09668,1","4,1,000,1,+999,9","02,1","SYN100AAXX  25061 01047 11587 83207 10065 20022 39668 40035 54000 60082 70262 887// 333 20023 4//// 70086;",
"01047099999","2010-05-25T09:00:00","4","69.0166667","23.0666667","307.0","KAUTOKEINO II, NO","FM-12","ENKA ","V020","050,1,N,0100,1","00750,1,9,N","070000,1,N,1","+0098,1","+0020,1","10041,1",,,,"2,1,03,1","2,1,03,1",,"08,99,1,08,1,09,1,00800,1,99,9,99,9",,,"99999,9,09678,1","3,1,006,1,+999,9","02,1","SYN082AAXX  25091 01047 41588 80510 10098 20020 39678 40041 53006 70222 889// 333 4////;",
"01047099999","2010-05-25T12:00:00","4","69.0166667","23.0666667","307.0","KAUTOKEINO II, NO","FM-12","ENKA ","V020","090,1,N,0100,1","00750,1,9,N","070000,1,N,1","+0106,1","+0025,1","10043,1",,,,"2,1,06,1","2,1,06,1",,"08,99,1,08,1,09,1,00800,1,99,9,99,9",,,"99999,9,09680,1","1,1,002,1,+999,9","02,1","SYN088AAXX  25121 01047 11588 80910 10106 20025 39680 40043 51002 6//// 70222 889// 333 4////;",
"01047099999","2010-05-25T15:00:00","4","69.0166667","23.0666667","307.0","KAUTOKEINO II, NO","FM-12","ENKA ","V020","090,1,N,0100,1","00750,1,9,N","070000,1,N,1","+0130,1","+0026,1","10046,1",,,,"2,1,03,1","2,1,03,1",,"07,99,1,07,1,09,1,00800,1,00,1,00,1",,,"99999,9,09686,1","2,1,006,1,+999,9","02,1","SYN082AAXX  25151 01047 41588 70910 10130 20026 39686 40046 52006 70222 87900 333 4////;",
"01047099999","2010-05-25T18:00:00","4","69.0166667","23.0666667","307.0","KAUTOKEINO II, NO","FM-12","ENKA ","V020","050,1,N,0100,1","99999,9,9,N","070000,1,N,1","+0094,1","+0001,1","10072,1","12,0000,9,1",,,"2,1,06,1","2,1,06,1",,"07,99,1,07,1,00,1,01250,1,09,1,00,1",,"120,M,+0135,1","99999,9,09707,1","3,1,021,1,+999,9","02,1","SYN094AAXX  25181 01047 11688 70510 10094 20001 39707 40072 53021 60002 70222 87090 333 10135 4////;","Q01  00002PRCP12"
"01047099999","2010-05-26T00:00:00","4","69.0166667","23.0666667","307.0","KAUTOKEINO II, NO","FM-12","ENKA ","V020","360,1,N,0070,1","00750,1,9,N","005000,1,N,1","+0008,1","-0014,1","10124,1",,,,"8,1,06,1","2,1,06,1",,"08,99,1,08,1,09,1,00800,1,99,9,99,9",,,"99999,9,09746,1","1,1,015,1,+999,9","81,1","SYN088AAXX  26001 01047 11550 83607 10008 21014 39746 40124 51015 6//// 78182 889// 333 4////;",
"01047099999","2010-05-26T06:00:00","4","69.0166667","23.0666667","307.0","KAUTOKEINO II, NO","FM-12","ENKA ","V020","360,1,N,0070,1","03000,1,9,N","065000,1,N,1","+0005,1","-0036,1","10141,1","12,0061,9,2","24,0056,9,2",,"8,1,06,1","6,1,06,1",,"08,99,1,03,1,04,1,01250,1,07,1,99,9",,"999,N,-0004,1","99999,9,09762,1","3,1,006,1,+999,9","02,1","SYN100AAXX  26061 01047 11687 83607 10005 21036 39762 40141 53006 60062 70286 8347/ 333 21004 4//// 70057;",
"01047099999","2010-05-26T09:00:00","4","69.0166667","23.0666667","307.0","KAUTOKEINO II, NO","FM-12","ENKA ","V020","090,1,N,0070,1","01500,1,9,N","070000,1,N,1","+0050,1","-0025,1","10142,1",,,,"2,1,03,1","2,1,03,1",,"06,99,1,06,1,00,1,01750,1,07,1,00,1",,,"99999,9,09769,1","2,1,006,1,+999,9","02,1","SYN082AAXX  26091 01047 41788 60907 10050 21025 39769 40142 52006 70222 86070 333 4////;",
"01047099999","2010-05-26T12:00:00","4","69.0166667","23.0666667","307.0","KAUTOKEINO II, NO","FM-12","ENKA ","V020","140,1,N,0070,1","22000,1,9,N","070000,1,N,1","+0100,1","-0013,1","10140,1",,,,"1,1,06,1","1,1,06,1",,"03,99,1,00,1,00,1,99999,9,00,1,08,1",,,"99999,9,09774,1","1,1,005,1,+999,9","02,1","SYN088AAXX  26121 01047 11988 31407 10100 21013 39774 40140 51005 6//// 70211 80008 333 4////;",
"01047099999","2010-05-26T15:00:00","4","69.0166667","23.0666667","307.0","KAUTOKEINO II, NO","FM-12","ENKA ","V020","090,1,N,0070,1","22000,1,9,N","070000,1,N,1","+0102,1","-0021,1","10144,1",,,,"0,1,03,1","0,1,03,1",,"01,99,1,00,1,00,1,99999,9,00,1,01,1",,,"99999,9,09778,1","2,1,004,1,+999,9","02,1","SYN082AAXX  26151 01047 41988 10907 10102 21021 39778 40144 52004 70200 80001 333 4////;",
"01047099999","2010-05-26T18:00:00","4","69.0166667","23.0666667","307.0","KAUTOKEINO II, NO","FM-12","ENKA ","V020","090,1,N,0050,1","22000,1,9,N","070000,1,N,1","+0086,1","-0023,1","10156,1","12,0000,9,1",,,"2,1,06,1","0,1,06,1","00,1,+99999,9,99,9","00,99,1,00,1,00,1,99999,9,00,1,00,1",,"120,M,+0103,1","99999,9,09786,1","3,1,009,1,+999,9","02,1","SYN088AAXX  26181 01047 11988 00905 10086 21023 39786 40156 53009 60002 70220 333 10103 4////;","Q01  00002PRCP12"
"01047099999","2010-05-27T00:00:00","4","69.0166667","23.0666667","307.0","KAUTOKEINO II, NO","FM-12","ENKA ","V020","050,1,N,0050,1","00750,1,9,N","070000,1,N,1","+0008,1","-0028,1","10191,1",,,,"2,1,06,1","0,1,06,1",,"08,99,1,08,1,05,1,00800,1,99,9,99,9",,,"99999,9,09810,1","2,1,010,1,+999,9","02,1","SYN088AAXX  27001 01047 11588 80505 10008 21028 39810 40191 52010 6//// 70220 885// 333 4////;",
"01047099999","2010-05-27T06:00:00","4","69.0166667","23.0666667","307.0","KAUTOKEINO II, NO","FM-12","ENKA ","V020","999,9,C,0000,1","00750,1,9,N","070000,1,N,1","+0007,1","-0027,1","10187,1","12,0000,9,1","24,0000,9,1",,"2,1,06,1","0,1,06,1",,"08,99,1,06,1,05,1,00800,1,02,1,99,9",,"999,N,-0002,1","99999,9,09807,1","6,1,002,1,+999,9","02,1","SYN100AAXX  27061 01047 11588 80000 10007 21027 39807 40187 56002 60002 70220 8652/ 333 21002 4//// 70000;","Q01  00002PRCP24Q02  00002PRCP12"
"01047099999","2010-05-27T09:00:00","4","69.0166667","23.0666667","307.0","KAUTOKEINO II, NO","FM-12","ENKA ","V020","050,1,N,0070,1","22000,1,9,N","070000,1,N,1","+0062,1","-0014,1","10171,1",,,,"2,1,03,1","2,1,03,1",,"04,99,1,04,1,05,1,00800,1,00,1,00,1",,,"99999,9,09798,1","7,1,008,1,+999,9","01,1","SYN082AAXX  27091 01047 41588 40507 10062 21014 39798 40171 57008 70122 84500 333 4////;",
"01047099999","2010-05-27T12:00:00","4","69.0166667","23.0666667","307.0","KAUTOKEINO II, NO","FM-12","ENKA ","V020","090,1,N,0050,1","22000,1,9,N","070000,1,N,1","+0100,1","-0013,1","10154,1",,,,"0,1,06,1","0,1,06,1",,"01,99,1,01,1,01,1,01250,1,00,1,00,1",,,"99999,9,09786,1","7,1,012,1,+999,9","02,1","SYN088AAXX  27121 01047 11688 10905 10100 21013 39786 40154 57012 6//// 70200 81100 333 4////;",
"01047099999","2010-05-27T15:00:00","4","69.0166667","23.0666667","307.0","KAUTOKEINO II, NO","FM-12","ENKA ","V020","090,1,N,0070,1","22000,1,9,N","070000,1,N,1","+0110,1","-0020,1","10145,1",,,,"0,1,03,1","0,1,03,1",,"01,99,1,01,1,01,1,01250,1,00,1,00,1",,,"99999,9,09780,1","7,1,007,1,+999,9","02,1","SYN082AAXX  27151 01047 41688 10907 10110 21020 39780 40145 57007 70200 81100 333 4////;",
"01047099999","2010-05-27T18:00:00","4","69.0166667","23.0666667","307.0","KAUTOKEINO II, NO","FM-12","ENKA ","V020","090,1,N,0050,1","22000,1,9,N","070000,1,N,1","+0100,1","-0029,1","10147,1","12,0000,9,1",,,"0,1,06,1","0,1,06,1","00,1,+99999,9,99,9","00,99,1,00,1,00,1,99999,9,00,1,00,1",,"120,M,+0110,1","99999,9,09780,1","4,1,000,1,+999,9","02,1","SYN088AAXX  27181 01047 11988 00905 10100 21029 39780 40147 54000 60002 70200 333 10110 4////;","Q01  00002PRCP12"
"01047099999","2010-05-28T00:00:00","4","69.0166667","23.0666667","307.0","KAUTOKEINO II, NO","FM-12","ENKA ","V020","050,1,N,0030,1","00750,1,9,N","040000,1,N,1","+0018,1","-0008,1","10179,1",,,,"2,1,06,1","0,1,06,1",,"08,99,1,08,1,05,1,00800,1,99,9,99,9",,,"99999,9,09800,1","2,1,008,1,+999,9","02,1","SYN088AAXX  28001 01047 11582 80503 10018 21008 39800 40179 52008 6//// 70220 885// 333 4////;",
"01047099999","2010-05-28T06:00:00","4","69.0166667","23.0666667","307.0","KAUTOKEINO II, NO","FM-12","ENKA ","V020","050,1,N,0030,1","00750,1,9,N","065000,1,N,1","+0013,1","-0008,1","10176,1","12,0000,9,1","24,0000,9,1",,"2,1,06,1","0,1,06,1",,"08,99,1,08,1,05,1,00800,1,99,9,99,9",,"999,N,+0013,1","99999,9,09797,1","6,1,003,1,+999,9","02,1","SYN100AAXX  28061 01047 11587 80503 10013 21008 39797 40176 56003 60002 70220 885// 333 20013 4//// 70000;","Q01  00002PRCP24Q02  00002PRCP12"
"01047099999","2010-05-28T09:00:00","4","69.0166667","23.0666667","307.0","KAUTOKEINO II, NO","FM-12","ENKA ","V020","050,1,N,0050,1","00750,1,9,N","065000,1,N,1","+0033,1","-0009,1","10168,1",,,,"2,1,03,1","2,1,03,1",,"08,99,1,08,1,05,1,00800,1,99,9,99,9",,,"99999,9,09792,1","7,1,005,1,+999,9","02,1","SYN072AAXX  28091 01047 41587 80505 10033 21009 39792 40168 57005 70222 885//;",
"01047099999","2010-05-28T12:00:00","4","69.0166667","23.0666667","307.0","KAUTOKEINO II, NO","FM-12","ENKA ","V020","050,1,N,0030,1","22000,1,9,N","070000,1,N,1","+0086,1","-0018,1","10142,1",,,,"2,1,06,1","0,1,06,1",,"02,99,1,02,1,01,1,01250,1,00,1,00,1",,,"99999,9,09774,1","8,1,018,1,+999,9","02,1","SYN078AAXX  28121 01047 11688 20503 10086 21018 39774 40142 58018 6//// 70220 82100;",
"01047099999","2010-05-28T15:00:00","4","69.0166667","23.0666667","307.0","KAUTOKEINO II, NO","FM-12","ENKA ","V020","050,1,N,0050,1","22000,1,9,N","070000,1,N,1","+0114,1","-0013,1","10124,1",,,,"0,1,03,1","0,1,03,1",,"02,99,1,02,1,01,1,01250,1,00,1,00,1",,,"99999,9,09760,1","7,1,014,1,+999,9","02,1","SYN072AAXX  28151 01047 41688 20505 10114 21013 39760 40124 57014 70200 82100;",
"01047099999","2010-05-28T18:00:00","4","69.0166667","23.0666667","307.0","KAUTOKEINO II, NO","FM-12","ENKA ","V020","140,1,N,0050,1","22000,1,9,N","070000,1,N,1","+0111,1","-0016,1","10118,1","12,0000,9,1",,,"0,1,06,1","0,1,06,1",,"02,99,1,02,1,04,1,01250,1,00,1,00,1",,"999,M,+0120,1","99999,9,09754,1","6,1,006,1,+999,9","02,1","SYN088AAXX  28181 01047 11688 21405 10111 21016 39754 40118 56006 60002 70200 82400 333 10120;","Q01  00002PRCP12"
"01047099999","2010-05-29T00:00:00","4","69.0166667","23.0666667","307.0","KAUTOKEINO II, NO","FM-12","ENKA ","V020","999,9,C,0000,1","22000,1,9,N","070000,1,N,1","+0008,1","-0026,1","10129,1",,,,"0,1,06,1","0,1,06,1","00,1,+99999,9,99,9","00,99,1,00,1,00,1,99999,9,00,1,00,1",,,"99999,9,09752,1","4,1,000,1,+999,9","02,1","SYN072AAXX  29001 01047 11988 00000 10008 21026 39752 40129 54000 6//// 70200;",
"01047099999","2010-05-29T06:00:00","4","69.0166667","23.0666667","307.0","KAUTOKEINO II, NO","FM-12","ENKA ","V020","999,9,C,0000,1","22000,1,9,N","070000,1,N,1","+0088,1","+0003,1","10103,1","12,0000,9,1","24,0000,9,1",,"0,1,06,1","0,1,06,1","00,1,+99999,9,99,9","00,99,1,00,1,00,1,99999,9,00,1,00,1",,"999,N,+0001,1","99999,9,09736,1","7,1,010,1,+999,9","02,1","SYN088AAXX  29061 01047 11988 00000 10088 20003 39736 40103 57010 60002 70200 333 20001 70000;","Q01  00002PRCP24Q02  00002PRCP12"
"01047099999","2010-05-29T09:00:00","4","69.0166667","23.0666667","307.0","KAUTOKEINO II, NO","FM-12","ENKA ","V020","140,1,N,0030,1","01200,1,9,N","070000,1,N,1","+0127,1","-0002,1","10085,1",,,,"1,1,03,1","1,1,03,1",,"05,99,1,05,1,02,1,01250,1,00,1,00,1",,,"99999,9,09723,1","6,1,012,1,+999,9","02,1","SYN072AAXX  29091 01047 41688 51403 10127 21002 39723 40085 56012 70211 85200;",
"01047099999","2010-05-29T12:00:00","4","69.0166667","23.0666667","307.0","KAUTOKEINO II, NO","FM-12","ENKA ","V020","140,1,N,0050,1","01200,1,9,N","070000,1,N,1","+0143,1","-0013,1","10071,1",,,,"2,1,06,1","2,1,06,1",,"06,99,1,06,1,02,1,01250,1,00,1,00,1",,,"99999,9,09712,1","7,1,011,1,+999,9","02,1","SYN078AAXX  29121 01047 11688 61405 10143 21013 39712 40071 57011 6//// 70222 86200;",
"01047099999","2010-05-29T15:00:00","4","69.0166667","23.0666667","307.0","KAUTOKEINO II, NO","FM-12","ENKA ","V020","180,1,N,0030,1","01500,1,9,N","070000,1,N,1","+0140,1","-0016,1","10064,1",,,,"2,1,03,1","2,1,03,1",,"06,99,1,06,1,08,1,01250,1,00,1,00,1",,,"99999,9,09705,1","7,1,007,1,+999,9","02,1","SYN072AAXX  29151 01047 41688 61803 10140 21016 39705 40064 57007 70222 86800;",
"01047099999","2010-05-29T18:00:00","4","69.0166667","23.0666667","307.0","KAUTOKEINO II, NO","FM-12","ENKA ","V020","180,1,N,0030,1","01500,1,9,N","070000,1,N,1","+0132,1","-0019,1","10060,1","12,0000,9,1",,,"2,1,06,1","2,1,06,1",,"06,99,1,06,1,08,1,01250,1,00,1,00,1",,"999,M,+0150,1","99999,9,09700,1","6,1,005,1,+999,9","02,1","SYN088AAXX  29181 01047 11688 61803 10132 21019 39700 40060 56005 60002 70222 86800 333 10150;","Q01  00002PRCP12"
"01047099999","2010-05-30T00:00:00","4","69.0166667","23.0666667","307.0","KAUTOKEINO II, NO","FM-12","ENKA ","V020","180,1,N,0030,1","01200,1,9,N","070000,1,N,1","+0024,1","-0005,1","10074,1",,,,"2,1,06,1","2,1,06,1",,"05,99,1,05,1,04,1,01250,1,00,1,00,1",,,"99999,9,09700,1","4,1,000,1,+999,9","02,1","SYN078AAXX  30001 01047 11688 51803 10024 21005 39700 40074 54000 6//// 70222 85400;",
"01047099999","2010-05-30T06:00:00","4","69.0166667","23.0666667","307.0","KAUTOKEINO II, NO","FM-12","ENKA ","V020","999,9,C,0000,1","03000,1,9,N","070000,1,N,1","+0089,1","+0027,1","10063,1","12,0000,9,1","24,0000,9,1",,"2,1,06,1","1,1,06,1",,"07,99,1,04,1,04,1,01250,1,07,1,00,1",,"999,N,+0013,1","99999,9,09698,1","4,1,000,1,+999,9","02,1","SYN094AAXX  30061 01047 11688 70000 10089 20027 39698 40063 54000 60002 70221 84470 333 20013 70000;","Q01  00002PRCP24Q02  00002PRCP12"
"01047099999","2010-05-30T09:00:00","4","69.0166667","23.0666667","307.0","KAUTOKEINO II, NO","FM-12","ENKA ","V020","360,1,N,0010,1","00420,1,9,N","070000,1,N,1","+0141,1","+0011,1","10057,1",,,,"2,1,03,1","2,1,03,1",,"07,99,1,07,1,09,1,00450,1,00,1,00,1",,,"99999,9,09698,1","4,1,000,1,+999,9","02,1","SYN072AAXX  30091 01047 41488 73601 10141 20011 39698 40057 54000 70222 87900;",
"01047099999","2010-05-30T12:00:00","4","69.0166667","23.0666667","307.0","KAUTOKEINO II, NO","FM-12","ENKA ","V020","340,1,N,0050,1","00750,1,9,N","070000,1,N,1","+0138,1","+0005,1","10058,1",,,,"2,1,06,1","2,1,06,1",,"08,99,1,08,1,09,1,00800,1,99,9,99,9",,,"99999,9,09699,1","4,1,000,1,+999,9","02,1","SYN078AAXX  30121 01047 11588 83405 10138 20005 39699 40058 54000 6//// 70222 889//;",
"01047099999","2010-05-30T15:00:00","4","69.0166667","23.0666667","307.0","KAUTOKEINO II, NO","FM-12","ENKA ","V020","340,1,N,0050,1","00750,1,9,N","070000,1,N,1","+0136,1","+0013,1","10059,1",,,,"2,1,03,1","2,1,03,1",,"07,99,1,07,1,09,1,00800,1,00,1,00,1",,,"99999,9,09699,1","4,1,000,1,+999,9","02,1","SYN072AAXX  30151 01047 41588 73405 10136 20013 39699 40059 54000 70222 87900;",
"01047099999","2010-05-30T18:00:00","4","69.0166667","23.0666667","307.0","KAUTOKEINO II, NO","FM-12","ENKA ","V020","340,1,N,0070,1","00750,1,9,N","070000,1,N,1","+0110,1","+0018,1","10073,1","12,0000,9,1",,,"2,1,06,1","2,1,06,1",,"08,99,1,08,1,09,1,00800,1,99,9,99,9",,"999,M,+0142,1","99999,9,09710,1","3,1,011,1,+999,9","02,1","SYN088AAXX  30181 01047 11588 83407 10110 20018 39710 40073 53011 60002 70222 889// 333 10142;","Q01  00002PRCP12"
"01047099999","2010-05-31T00:00:00","4","69.0166667","23.0666667","307.0","KAUTOKEINO II, NO","FM-12","ENKA ","V020","320,1,N,0050,1","00750,1,9,N","070000,1,N,1","+0056,1","+0030,1","10097,1",,,,"2,1,06,1","2,1,06,1",,"08,99,1,08,1,05,1,00800,1,99,9,99,9",,,"99999,9,09726,1","2,1,005,1,+999,9","02,1","SYN078AAXX  31001 01047 11588 83205 10056 20030 39726 40097 52005 6//// 70222 885//;",
"01047099999","2010-05-31T06:00:00","4","69.0166667","23.0666667","307.0","KAUTOKEINO II, NO","FM-12","ENKA ","V020","320,1,N,0010,1","00750,1,9,N","065000,1,N,1","+0064,1","+0042,1","10106,1","12,0020,9,2","24,0018,9,2",,"6,1,06,1","2,1,06,1",,"08,99,1,08,1,07,1,00800,1,99,9,99,9",,"999,N,+0053,1","99999,9,09736,1","3,1,003,1,+999,9","02,1","SYN094AAXX  31061 01047 11587 83201 10064 20042 39736 40106 53003 60022 70262 887// 333 20053 70019;",
"01047099999","2010-05-31T09:00:00","4","69.0166667","23.0666667","307.0","KAUTOKEINO II, NO","FM-12","ENKA ","V020","360,1,N,0050,1","00750,1,9,N","070000,1,N,1","+0080,1","+0018,1","10106,1",,,,"2,1,03,1","2,1,03,1",,"08,99,1,08,1,05,1,00800,1,99,9,99,9",,,"99999,9,09738,1","4,1,000,1,+999,9","02,1","SYN072AAXX  31091 01047 41588 83605 10080 20018 39738 40106 54000 70222 885//;",
"01047099999","2010-05-31T12:00:00","4","69.0166667","23.0666667","307.0","KAUTOKEINO II, NO","FM-12","ENKA ","V020","360,1,N,0030,1","00750,1,9,N","070000,1,N,1","+0080,1","+0044,1","10106,1",,,,"8,1,06,1","2,1,06,1",,"06,99,1,06,1,09,1,00800,1,00,1,00,1",,,"99999,9,09737,1","4,1,000,1,+999,9","25,1","SYN078AAXX  31121 01047 11588 63603 10080 20044 39737 40106 54000 6//// 72582 86900;",
"01047099999","2010-05-31T15:00:00","4","69.0166667","23.0666667","307.0","KAUTOKEINO II, NO","FM-12","ENKA ","V020","360,1,N,0030,1","00750,1,9,N","070000,1,N,1","+0078,1","+0025,1","10098,1",,,,"8,1,03,1","2,1,03,1",,"08,99,1,08,1,09,1,00800,1,99,9,99,9",,,"99999,9,09730,1","7,1,008,1,+999,9","25,1","SYN072AAXX  31151 01047 41588 83603 10078 20025 39730 40098 57008 72582 889//;",
"01047099999","2010-05-31T18:00:00","4","69.0166667","23.0666667","307.0","KAUTOKEINO II, NO","FM-12","ENKA ","V020","180,1,N,0050,1","00750,1,9,N","070000,1,N,1","+0086,1","-0015,1","10083,1","12,0030,9,1",,,"8,1,06,1","2,1,06,1",,"06,99,1,05,1,09,1,00800,1,04,1,00,1",,"999,M,+0095,1","99999,9,09716,1","8,1,014,1,+999,9","02,1","SYN088AAXX  31181 01047 11588 61805 10086 21015 39716 40083 58014 60032 70282 85940 333 10095;",
"01047099999","2010-06-01T00:00:00","4","69.0166667","23.0666667","307.0","KAUTOKEINO II, NO","FM-12","ENKA ","V020","320,1,N,0050,1","22000,1,9,N","070000,1,N,1","+0012,1","-0038,1","10134,1",,,,"8,1,06,1","2,1,06,1",,"03,99,1,03,1,04,1,01250,1,00,1,00,1",,,"99999,9,09756,1","3,1,020,1,+999,9","01,1","SYN078AAXX  01001 01047 11688 33205 10012 21038 39756 40134 53020 6//// 70182 83400;",
"01047099999","2010-06-01T06:00:00","4","69.0166667","23.0666667","307.0","KAUTOKEINO II, NO","FM-12","ENKA ","V020","320,1,N,0070,1","01200,1,9,N","070000,1,N,1","+0046,1","-0036,1","10161,1","12,0000,9,1","24,0030,9,1",,"8,1,06,1","2,1,06,1",,"06,99,1,05,1,04,1,01250,1,07,1,00,1",,"999,N,+0012,1","99999,9,09786,1","2,1,012,1,+999,9","02,1","SYN094AAXX  01061 01047 11688 63207 10046 21036 39786 40161 52012 69912 70282 85470 333 20012 70031;","Q01  00002PRCP12"
"01047099999","2010-06-01T09:00:00","4","69.0166667","23.0666667","307.0","KAUTOKEINO II, NO","FM-12","ENKA ","V020","320,1,N,0070,1","00750,1,9,N","070000,1,N,1","+0060,1","-0041,1","10181,1",,,,"2,1,03,1","2,1,03,1",,"07,99,1,07,1,05,1,00800,1,00,1,00,1",,,"99999,9,09807,1","1,1,022,1,+999,9","02,1","SYN072AAXX  01091 01047 41588 73207 10060 21041 39807 40181 51022 70222 87500;",
"01047099999","2010-06-01T12:00:00","4","69.0166667","23.0666667","307.0","KAUTOKEINO II, NO","FM-12","ENKA ","V020","320,1,N,0070,1","00750,1,9,N","070000,1,N,1","+0074,1","-0043,1","10186,1",,,,"2,1,06,1","2,1,06,1",,"07,99,1,07,1,05,1,00800,1,00,1,00,1",,,"99999,9,09814,1","1,1,007,1,+999,9","02,1","SYN078AAXX  01121 01047 11588 73207 10074 21043 39814 40186 51007 6//// 70222 87500;",
"01047099999","2010-06-01T15:00:00","4","69.0166667","23.0666667","307.0","KAUTOKEINO II, NO","FM-12","ENKA ","V020","320,1,N,0050,1","00750,1,9,N","070000,1,N,1","+0084,1","-0040,1","10197,1",,,,"2,1,03,1","2,1,03,1",,"06,99,1,06,1,05,1,00800,1,00,1,00,1",,,"99999,9,09826,1","2,1,012,1,+999,9","02,1","SYN072AAXX  01151 01047 41588 63205 10084 21040 39826 40197 52012 70222 86500;",
"01047099999","2010-06-02T00:00:00","4","69.0166667","23.0666667","307.0","KAUTOKEINO II, NO","FM-12","ENKA ","V020","360,1,N,0030,1","22000,1,9,N","070000,1,N,1","+0000,1","-0025,1","10219,1",,,,"2,1,06,1","0,1,06,1",,"02,99,1,02,1,00,1,02250,1,04,1,00,1",,,"99999,9,09837,1","1,1,005,1,+999,9","02,1","SYN078AAXX  02001 01047 11888 23603 10000 21025 39837 40219 51005 6//// 70220 82040;",
"01047099999","2010-06-02T06:00:00","4","69.0166667","23.0666667","307.0","KAUTOKEINO II, NO","FM-12","ENKA ","V020","140,1,N,0030,1","02100,1,9,N","070000,1,N,1","+0093,1","-0014,1","10175,1","12,0000,9,1",,,"2,1,06,1","0,1,06,1",,"07,99,1,07,1,00,1,02250,1,01,1,00,1",,"999,N,-0005,1","99999,9,09806,1","8,1,010,1,+999,9","02,1","SYN088AAXX  02061 01047 11888 71403 10093 21014 39806 40175 58010 60002 70220 87010 333 21005;","Q01  00002PRCP12"
"01047099999","2010-06-02T09:00:00","4","69.0166667","23.0666667","307.0","KAUTOKEINO II, NO","FM-12","ENKA ","V020","180,1,N,0100,1","01500,1,9,N","070000,1,N,1","+0132,1","-0011,1","10151,1",,,,"2,1,03,1","2,1,03,1",,"08,99,1,08,1,00,1,01750,1,07,1,99,9",,,"99999,9,09788,1","7,1,018,1,+999,9","02,1","SYN072AAXX  02091 01047 41788 81810 10132 21011 39788 40151 57018 70222 8807/;",
"01047099999","2010-06-02T12:00:00","4","69.0166667","23.0666667","307.0","KAUTOKEINO II, NO","FM-12","ENKA ","V020","180,1,N,0100,1","01500,1,9,N","070000,1,N,1","+0144,1","-0012,1","10135,1",,,,"2,1,06,1","2,1,06,1",,"06,99,1,06,1,00,1,01750,1,07,1,00,1",,,"99999,9,09774,1","7,1,014,1,+999,9","02,1","SYN078AAXX  02121 01047 11788 61810 10144 21012 39774 40135 57014 6//// 70222 86070;",
"01047099999","2010-06-02T15:00:00","4","69.0166667","23.0666667","307.0","KAUTOKEINO II, NO","FM-12","ENKA ","V020","180,1,N,0100,1","99999,9,9,N","070000,1,N,1","+0164,1","+0005,1","10115,1",,,,"2,1,03,1","2,1,03,1",,"06,99,1,06,1,00,1,01250,1,07,1,00,1",,,"99999,9,09757,1","7,1,017,1,+999,9","02,1","SYN072AAXX  02151 01047 41688 61810 10164 20005 39757 40115 57017 70222 86070;",
"01047099999","2010-06-02T18:00:00","4","69.0166667","23.0666667","307.0","KAUTOKEINO II, NO","FM-12","ENKA ","V020","180,1,N,0030,1","00750,1,9,N","070000,1,N,1","+0120,1","+0025,1","10118,1","12,0000,9,1",,,"2,1,06,1","2,1,06,1",,"08,99,1,08,1,09,1,00800,1,99,9,99,9",,"999,M,+0165,1","99999,9,09754,1","6,1,003,1,+999,9","02,1","SYN088AAXX  02181 01047 11588 81803 10120 20025 39754 40118 56003 60002 70222 889// 333 10165;","Q01  00002PRCP12"
"01047099999","2010-06-03T00:00:00","4","69.0166667","23.0666667","307.0","KAUTOKEINO II, NO","FM-12","ENKA ","V020","090,1,N,0030,1","03000,1,9,N","070000,1,N,1","+0076,1","+0044,1","10096,1",,,,"2,1,06,1","2,1,06,1",,"08,99,1,03,1,05,1,00800,1,07,1,99,9",,,"99999,9,09728,1","7,1,012,1,+999,9","02,1","SYN078AAXX  03001 01047 11588 80903 10076 20044 39728 40096 57012 6//// 70222 8357/;",
"01047099999","2010-06-03T06:00:00","4","69.0166667","23.0666667","307.0","KAUTOKEINO II, NO","FM-12","ENKA ","V020","999,9,C,0000,1","00750,1,9,N","025000,1,N,1","+0094,1","+0034,1","10066,1","12,9999,9,9","24,9999,9,9",,"6,1,06,1","2,1,06,1",,"08,99,1,06,1,07,1,00800,1,02,1,99,9",,"999,N,+0071,1","99999,9,09701,1","6,1,009,1,+999,9","60,1","SYN094AAXX  03061 01047 11575 80000 10094 20034 39701 40066 56009 69912 76062 8672/ 333 20071 70001;","Q01  00002PRCP24Q02  00002PRCP12Q03  00002PRCP12Q04  00002PRCP24"
"01047099999","2010-06-03T09:00:00","4","69.0166667","23.0666667","307.0","KAUTOKEINO II, NO","FM-12","ENKA ","V020","090,1,N,0010,1","00750,1,9,N","065000,1,N,1","+0132,1","+0009,1","10045,1",,,,"6,1,03,1","2,1,03,1",,"08,99,1,08,1,07,1,00800,1,99,9,99,9",,,"99999,9,09686,1","7,1,016,1,+999,9","02,1","SYN072AAXX  03091 01047 41587 80901 10132 20009 39686 40045 57016 70262 887//;",
"01047099999","2010-06-03T12:00:00","4","69.0166667","23.0666667","307.0","KAUTOKEINO II, NO","FM-12","ENKA ","V020","180,1,N,0050,1","00750,1,9,N","020000,1,N,1","+0096,1","+0058,1","10045,1",,,,"6,1,06,1","2,1,06,1",,"08,99,1,06,1,07,1,00800,1,02,1,99,9",,,"99999,9,09681,1","6,1,004,1,+999,9","61,1","SYN078AAXX  03121 01047 11570 81805 10096 20058 39681 40045 56004 6//// 76162 8672/;",
"01047099999","2010-06-03T15:00:00","4","69.0166667","23.0666667","307.0","KAUTOKEINO II, NO","FM-12","ENKA ","V020","220,1,N,0030,1","00750,1,9,N","030000,1,N,1","+0094,1","+0077,1","10035,1",,,,"6,1,03,1","6,1,03,1",,"08,99,1,06,1,07,1,00800,1,02,1,99,9",,,"99999,9,09671,1","7,1,010,1,+999,9","61,1","SYN072AAXX  03151 01047 41580 82203 10094 20077 39671 40035 57010 76166 8672/;",
"01047099999","2010-06-03T18:00:00","4","69.0166667","23.0666667","307.0","KAUTOKEINO II, NO","FM-12","ENKA ","V020","270,1,N,0050,1","00750,1,9,N","020000,1,N,1","+0074,1","+0059,1","10043,1","12,0051,9,1",,,"6,1,06,1","2,1,06,1",,"08,99,1,07,1,07,1,00800,1,02,1,99,9",,"999,M,+0143,1","99999,9,09677,1","6,1,004,1,+999,9","63,1","SYN088AAXX  03181 01047 11570 82705 10074 20059 39677 40043 56004 60052 76362 8772/ 333 10143;",
"01047099999","2010-06-04T00:00:00","4","69.0166667","23.0666667","307.0","KAUTOKEINO II, NO","FM-12","ENKA ","V020","340,1,N,0100,1","03000,1,9,N","070000,1,N,1","+0036,1","+0005,1","10064,1",,,,"6,1,06,1","2,1,06,1",,"08,99,1,03,1,05,1,00800,1,02,1,99,9",,,"99999,9,09691,1","2,1,010,1,+999,9","02,1","SYN078AAXX  04001 01047 11588 83410 10036 20005 39691 40064 52010 6//// 70262 8352/;",
"01047099999","2010-06-04T06:00:00","4","69.0166667","23.0666667","307.0","KAUTOKEINO II, NO","FM-12","ENKA ","V020","320,1,N,0070,1","00420,1,9,N","070000,1,N,1","+0050,1","+0013,1","10066,1","12,0041,9,1","24,0091,9,1",,"6,1,06,1","2,1,06,1",,"08,99,1,08,1,09,1,00450,1,99,9,99,9",,"999,N,+0032,1","99999,9,09695,1","4,1,000,1,+999,9","02,1","SYN094AAXX  04061 01047 11488 83207 10050 20013 39695 40066 54000 60042 70262 889// 333 20032 70091;",
"01047099999","2010-06-04T09:00:00","4","69.0166667","23.0666667","307.0","KAUTOKEINO II, NO","FM-12","ENKA ","V020","320,1,N,0100,1","00750,1,9,N","070000,1,N,1","+0070,1","+0000,1","10068,1",,,,"2,1,03,1","2,1,03,1",,"08,99,1,08,1,05,1,00800,1,99,9,99,9",,,"99999,9,09700,1","2,1,005,1,+999,9","02,1","SYN072AAXX  04091 01047 41588 83210 10070 20000 39700 40068 52005 70222 885//;",
"01047099999","2010-06-04T12:00:00","4","69.0166667","23.0666667","307.0","KAUTOKEINO II, NO","FM-12","ENKA ","V020","320,1,N,0100,1","01200,1,9,N","070000,1,N,1","+0071,1","-0006,1","10080,1",,,,"2,1,06,1","2,1,06,1",,"07,99,1,05,1,04,1,01250,1,07,1,00,1",,,"99999,9,09712,1","3,1,011,1,+999,9","02,1","SYN078AAXX  04121 01047 11688 73210 10071 21006 39712 40080 53011 6//// 70222 85470;",
"01047099999","2010-06-04T15:00:00","4","69.0166667","23.0666667","307.0","KAUTOKEINO II, NO","FM-12","ENKA ","V020","320,1,N,0100,1","00750,1,9,N","070000,1,N,1","+0070,1","-0029,1","10085,1",,,,"2,1,03,1","2,1,03,1",,"06,99,1,05,1,09,1,00800,1,04,1,00,1",,,"99999,9,09717,1","1,1,005,1,+999,9","02,1","SYN072AAXX  04151 01047 41588 63210 10070 21029 39717 40085 51005 70222 85940;",
"01047099999","2010-06-04T18:00:00","4","69.0166667","23.0666667","307.0","KAUTOKEINO II, NO","FM-12","ENKA ","V020","320,1,N,0100,1","03000,1,9,N","070000,1,N,1","+0048,1","-0044,1","10088,1","12,0000,9,1",,,"2,1,06,1","2,1,06,1",,"05,99,1,03,1,04,1,00800,1,07,1,00,1",,"999,M,+0092,1","99999,9,09717,1","4,1,000,1,+999,9","02,1","SYN088AAXX  04181 01047 11588 53210 10048 21044 39717 40088 54000 60002 70222 83470 333 10092;","Q01  00002PRCP12"
"01047099999","2010-06-05T00:00:00","4","69.0166667","23.0666667","307.0","KAUTOKEINO II, NO","FM-12","ENKA ","V020","320,1,N,0050,1","22000,1,9,N","070000,1,N,1","+0000,1","-0031,1","10082,1",,,,"2,1,06,1","2,1,06,1",,"04,99,1,02,1,04,1,01250,1,04,1,00,1",,,"99999,9,09705,1","8,1,005,1,+999,9","02,1","SYN078AAXX  05001 01047 11688 43205 10000 21031 39705 40082 58005 6//// 70222 82440;",
"01047099999","2010-06-05T06:00:00","4","69.0166667","23.0666667","307.0","KAUTOKEINO II, NO","FM-12","ENKA ","V020","320,1,N,0070,1","01200,1,9,N","070000,1,N,1","+0038,1","-0024,1","10064,1","12,0000,9,1","24,0000,9,1",,"2,1,06,1","1,1,06,1",,"07,99,1,05,1,04,1,01250,1,07,1,00,1",,"999,N,-0001,1","99999,9,09692,1","6,1,004,1,+999,9","02,1","SYN094AAXX  05061 01047 11688 73207 10038 21024 39692 40064 56004 60002 70221 85470 333 21001 70000;","Q01  00002PRCP24Q02  00002PRCP12"
"01047099999","2010-06-05T09:00:00","4","69.0166667","23.0666667","307.0","KAUTOKEINO II, NO","FM-12","ENKA ","V020","320,1,N,0070,1","03000,1,9,N","065000,1,N,1","+0047,1","-0026,1","10068,1",,,,"2,1,03,1","2,1,03,1",,"08,99,1,03,1,04,1,01250,1,02,1,99,9",,,"99999,9,09697,1","6,1,006,1,+999,9","02,1","SYN072AAXX  05091 01047 41687 83207 10047 21026 39697 40068 56006 70222 8342/;",
"01047099999","2010-06-05T12:00:00","4","69.0166667","23.0666667","307.0","KAUTOKEINO II, NO","FM-12","ENKA ","V020","340,1,N,0100,1","00750,1,9,N","070000,1,N,1","+0048,1","-0034,1","10076,1",,,,"2,1,06,1","2,1,06,1",,"08,99,1,08,1,09,1,00800,1,99,9,99,9",,,"99999,9,09705,1","2,1,007,1,+999,9","02,1","SYN078AAXX  05121 01047 11588 83410 10048 21034 39705 40076 52007 6//// 70222 889//;",
"01047099999","2010-06-05T15:00:00","4","69.0166667","23.0666667","307.0","KAUTOKEINO II, NO","FM-12","ENKA ","V020","320,1,N,0120,1","07500,1,9,N","070000,1,N,1","+0050,1","-0033,1","10090,1",,,,"2,1,03,1","2,1,03,1",,"06,99,1,04,1,05,1,00800,1,00,1,08,1",,,"99999,9,09719,1","2,1,014,1,+999,9","02,1","SYN072AAXX  05151 01047 41588 63212 10050 21033 39719 40090 52014 70222 84508;",
"01047099999","2010-06-05T18:00:00","4","69.0166667","23.0666667","307.0","KAUTOKEINO II, NO","FM-12","ENKA ","V020","320,1,N,0100,1","00750,1,9,N","070000,1,N,1","+0030,1","-0031,1","10097,1","12,0000,9,1",,,"2,1,06,1","2,1,06,1",,"07,99,1,07,1,05,1,00800,1,00,1,00,1",,"999,M,+0060,1","99999,9,09722,1","1,1,004,1,+999,9","02,1","SYN088AAXX  05181 01047 11588 73210 10030 21031 39722 40097 51004 60002 70222 87500 333 10060;","Q01  00002PRCP12"
"01047099999","2010-06-06T00:00:00","4","69.0166667","23.0666667","307.0","KAUTOKEINO II, NO","FM-12","ENKA ","V020","320,1,N,0050,1","00750,1,9,N","070000,1,N,1","+0012,1","-0035,1","10097,1",,,,"2,1,06,1","2,1,06,1",,"06,99,1,06,1,05,1,00800,1,00,1,00,1",,,"99999,9,09721,1","4,1,000,1,+999,9","02,1","SYN078AAXX  06001 01047 11588 63205 10012 21035 39721 40097 54000 6//// 70222 86500;",
"01047099999","2010-06-06T06:00:00","4","69.0166667","23.0666667","307.0","KAUTOKEINO II, NO","FM-12","ENKA ","V020","320,1,N,0070,1","00750,1,9,N","070000,1,N,1","+0036,1","-0039,1","10088,1","12,0000,9,1","24,0000,9,1",,"2,1,06,1","2,1,06,1",,"08,99,1,08,1,05,1,00800,1,99,9,99,9",,"999,N,+0010,1","99999,9,09714,1","6,1,002,1,+999,9","02,1","SYN094AAXX  06061 01047 11588 83207 10036 21039 39714 40088 56002 60002 70222 885// 333 20010 70000;","Q01  00002PRCP24Q02  00002PRCP12"
"01047099999","2010-06-06T12:00:00","4","69.0166667","23.0666667","307.0","KAUTOKEINO II, NO","FM-12","ENKA ","V020","320,1,N,0100,1","00750,1,9,N","070000,1,N,1","+0064,1","-0035,1","10091,1",,,,"2,1,06,1","2,1,06,1",,"08,99,1,08,1,05,1,00800,1,99,9,99,9",,,"99999,9,09721,1","2,1,004,1,+999,9","02,1","SYN078AAXX  06121 01047 11588 83210 10064 21035 39721 40091 52004 6//// 70222 885//;",
"01047099999","2010-06-06T15:00:00","4","69.0166667","23.0666667","307.0","KAUTOKEINO II, NO","FM-12","ENKA ","V020","320,1,N,0100,1","00750,1,9,N","070000,1,N,1","+0058,1","-0030,1","10099,1",,,,"2,1,03,1","2,1,03,1",,"08,99,1,08,1,09,1,00800,1,99,9,99,9",,,"99999,9,09728,1","2,1,007,1,+999,9","02,1","SYN072AAXX  06151 01047 41588 83210 10058 21030 39728 40099 52007 70222 889//;",
"01047099999","2010-06-06T18:00:00","4","69.0166667","23.0666667","307.0","KAUTOKEINO II, NO","FM-12","ENKA ","V020","320,1,N,0100,1","00750,1,9,N","070000,1,N,1","+0042,1","-0026,1","10102,1","12,0000,9,1",,,"2,1,06,1","2,1,06,1",,"08,99,1,08,1,09,1,00800,1,99,9,99,9",,"999,M,+0070,1","99999,9,09729,1","1,1,001,1,+999,9","02,1","SYN088AAXX  06181 01047 11588 83210 10042 21026 39729 40102 51001 60002 70222 889// 333 10070;","Q01  00002PRCP12"
"01047099999","2010-06-07T00:00:00","4","69.0166667","23.0666667","307.0","KAUTOKEINO II, NO","FM-12","ENKA ","V020","320,1,N,0070,1","00750,1,9,N","070000,1,N,1","+0016,1","-0018,1","10109,1",,,,"2,1,06,1","2,1,06,1",,"08,99,1,08,1,09,1,00800,1,99,9,99,9",,,"99999,9,09732,1","4,1,000,1,+999,9","02,1","SYN078AAXX  07001 01047 11588 83207 10016 21018 39732 40109 54000 6//// 70222 889//;",
"01047099999","2010-06-07T06:00:00","4","69.0166667","23.0666667","307.0","KAUTOKEINO II, NO","FM-12","ENKA ","V020","320,1,N,0050,1","00750,1,9,N","030000,1,N,1","+0034,1","-0006,1","10114,1","12,9999,9,9","24,9999,9,9",,"6,1,06,1","2,1,06,1",,"08,99,1,05,1,05,1,00800,1,02,1,99,9",,"999,N,+0009,1","99999,9,09740,1","4,1,000,1,+999,9","60,1","SYN094AAXX  07061 01047 11580 83205 10034 21006 39740 40114 54000 69912 76062 8552/ 333 20009 70001;","Q01  00002PRCP24Q02  00002PRCP12Q03  00002PRCP12Q04  00002PRCP24"
"01047099999","2010-06-07T09:00:00","4","69.0166667","23.0666667","307.0","KAUTOKEINO II, NO","FM-12","ENKA ","V020","360,1,N,0070,1","00750,1,9,N","070000,1,N,1","+0058,1","-0011,1","10114,1",,,,"2,1,03,1","2,1,03,1",,"08,99,1,08,1,09,1,00800,1,99,9,99,9",,,"99999,9,09743,1","2,1,004,1,+999,9","02,1","SYN072AAXX  07091 01047 41588 83607 10058 21011 39743 40114 52004 70222 889//;",
"01047099999","2010-06-07T12:00:00","4","69.0166667","23.0666667","307.0","KAUTOKEINO II, NO","FM-12","ENKA ","V020","320,1,N,0070,1","00750,1,9,N","070000,1,N,1","+0057,1","-0006,1","10123,1",,,,"8,1,06,1","2,1,06,1",,"08,99,1,08,1,09,1,00800,1,99,9,99,9",,,"99999,9,09752,1","2,1,008,1,+999,9","25,1","SYN078AAXX  07121 01047 11588 83207 10057 21006 39752 40123 52008 6//// 72582 889//;",
"01047099999","2010-06-07T15:00:00","4","69.0166667","23.0666667","307.0","KAUTOKEINO II, NO","FM-12","ENKA ","V020","360,1,N,0070,1","00750,1,9,N","070000,1,N,1","+0060,1","-0016,1","10129,1",,,,"8,1,03,1","2,1,03,1",,"08,99,1,08,1,09,1,00800,1,99,9,99,9",,,"99999,9,09758,1","2,1,006,1,+999,9","02,1","SYN072AAXX  07151 01047 41588 83607 10060 21016 39758 40129 52006 70282 889//;",
"01047099999","2010-06-07T18:00:00","4","69.0166667","23.0666667","307.0","KAUTOKEINO II, NO","FM-12","ENKA ","V020","340,1,N,0070,1","00750,1,9,N","070000,1,N,1","+0046,1","-0022,1","10137,1","12,0000,2,1",,,"2,1,06,1","2,1,06,1",,"06,99,1,05,1,09,1,00800,1,04,1,00,1",,"999,M,+0068,1","99999,9,09763,1","2,1,005,1,+999,9","02,1","SYN088AAXX  07181 01047 11588 63407 10046 21022 39763 40137 52005 69912 70222 85940 333 10068;",
"01047099999","2010-06-08T00:00:00","4","69.0166667","23.0666667","307.0","KAUTOKEINO II, NO","FM-12","ENKA ","V020","360,1,N,0030,1","00750,1,9,N","070000,1,N,1","+0004,1","-0037,1","10149,1",,,,"2,1,06,1","2,1,06,1",,"06,99,1,06,1,05,1,00800,1,00,1,00,1",,,"99999,9,09770,1","2,1,004,1,+999,9","02,1","SYN078AAXX  08001 01047 11588 63603 10004 21037 39770 40149 52004 6//// 70222 86500;",
"01047099999","2010-06-08T06:00:00","4","69.0166667","23.0666667","307.0","KAUTOKEINO II, NO","FM-12","ENKA ","V020","050,1,N,0010,1","00750,1,9,N","070000,1,N,1","+0032,1","-0027,1","10146,1","12,0000,9,1","24,0000,2,1",,"2,1,06,1","2,1,06,1",,"08,99,1,08,1,05,1,00800,1,99,9,99,9",,"999,N,+0001,1","99999,9,09770,1","4,1,000,1,+999,9","02,1","SYN094AAXX  08061 01047 11588 80501 10032 21027 39770 40146 54000 60002 70222 885// 333 20001 70001;","Q01  00002PRCP12"
"01047099999","2010-06-08T09:00:00","4","69.0166667","23.0666667","307.0","KAUTOKEINO II, NO","FM-12","ENKA ","V020","050,1,N,0010,1","00750,1,9,N","070000,1,N,1","+0056,1","-0027,1","10141,1",,,,"2,1,03,1","2,1,03,1",,"08,99,1,08,1,05,1,00800,1,99,9,99,9",,,"99999,9,09768,1","6,1,001,1,+999,9","02,1","SYN072AAXX  08091 01047 41588 80501 10056 21027 39768 40141 56001 70222 885//;",
"01047099999","2010-06-08T12:00:00","4","69.0166667","23.0666667","307.0","KAUTOKEINO II, NO","FM-12","ENKA ","V020","050,1,N,0030,1","00750,1,9,N","070000,1,N,1","+0082,1","-0018,1","10129,1",,,,"2,1,06,1","2,1,06,1",,"06,99,1,06,1,05,1,00800,1,00,1,00,1",,,"99999,9,09761,1","6,1,008,1,+999,9","02,1","SYN078AAXX  08121 01047 11588 60503 10082 21018 39761 40129 56008 6//// 70222 86500;",
"01047099999","2010-06-08T15:00:00","4","69.0166667","23.0666667","307.0","KAUTOKEINO II, NO","FM-12","ENKA ","V020","360,1,N,0050,1","00750,1,9,N","070000,1,N,1","+0106,1","+0012,1","10113,1",,,,"2,1,03,1","2,1,03,1",,"06,99,1,06,1,05,1,00800,1,00,1,00,1",,,"99999,9,09748,1","7,1,012,1,+999,9","02,1","SYN072AAXX  08151 01047 41588 63605 10106 20012 39748 40113 57012 70222 86500;",
"01047099999","2010-06-08T18:00:00","4","69.0166667","23.0666667","307.0","KAUTOKEINO II, NO","FM-12","ENKA ","V020","360,1,N,0030,1","00750,1,9,N","070000,1,N,1","+0088,1","-0007,1","10110,1","12,9999,9,9",,,"8,1,06,1","2,1,06,1",,"07,99,1,07,1,09,1,00800,1,00,1,00,1",,"999,M,+0112,1","99999,9,09743,1","6,1,006,1,+999,9","25,1","SYN088AAXX  08181 01047 11588 73603 10088 21007 39743 40110 56006 69912 72582 87900 333 10112;","Q01  00002PRCP12Q02  00002PRCP12"
"01047099999","2010-06-09T00:00:00","4","69.0166667","23.0666667","307.0","KAUTOKEINO II, NO","FM-12","ENKA ","V020","360,1,N,0010,1","03000,1,9,N","070000,1,N,1","+0026,1","-0015,1","10117,1",,,,"2,1,06,1","2,1,06,1",,"06,99,1,04,1,09,1,00800,1,04,1,00,1",,,"99999,9,09742,1","4,1,000,1,+999,9","02,1","SYN078AAXX  09001 01047 11588 63601 10026 21015 39742 40117 54000 6//// 70222 84940;",
"01047099999","2010-06-09T06:00:00","4","69.0166667","23.0666667","307.0","KAUTOKEINO II, NO","FM-12","ENKA ","V020","999,9,C,0000,1","01200,1,9,N","070000,1,N,1","+0085,1","+0014,1","10104,1","12,0000,2,1","24,0000,2,1",,"2,1,06,1","1,1,06,1",,"07,99,1,05,1,04,1,01250,1,07,1,00,1",,"999,N,+0017,1","99999,9,09736,1","6,1,002,1,+999,9","02,1","SYN094AAXX  09061 01047 11688 70000 10085 20014 39736 40104 56002 60002 70221 85470 333 20017 70001;",
"01047099999","2010-06-09T09:00:00","4","69.0166667","23.0666667","307.0","KAUTOKEINO II, NO","FM-12","ENKA ","V020","360,1,N,0050,1","03000,1,9,N","070000,1,N,1","+0114,1","-0013,1","10099,1",,,,"2,1,03,1","2,1,03,1",,"06,99,1,03,1,02,1,01250,1,09,1,00,1",,,"99999,9,09735,1","4,1,000,1,+999,9","02,1","SYN072AAXX  09091 01047 41688 63605 10114 21013 39735 40099 54000 70222 83290;",
"01047099999","2010-06-09T12:00:00","4","69.0166667","23.0666667","307.0","KAUTOKEINO II, NO","FM-12","ENKA ","V020","320,1,N,0050,1","03000,1,9,N","070000,1,N,1","+0126,1","-0017,1","10100,1",,,,"2,1,06,1","2,1,06,1",,"06,99,1,03,1,02,1,01250,1,09,1,08,1",,,"99999,9,09738,1","2,1,004,1,+999,9","02,1","SYN078AAXX  09121 01047 11688 63205 10126 21017 39738 40100 52004 6//// 70222 83298;",
"01047099999","2010-06-09T15:00:00","4","69.0166667","23.0666667","307.0","KAUTOKEINO II, NO","FM-12","ENKA ","V020","320,1,N,0050,1","07500,1,9,N","070000,1,N,1","+0118,1","-0024,1","10108,1",,,,"2,1,03,1","2,1,03,1",,"06,99,1,04,1,02,1,01250,1,00,1,08,1",,,"99999,9,09744,1","2,1,006,1,+999,9","02,1","SYN072AAXX  09151 01047 41688 63205 10118 21024 39744 40108 52006 70222 84208;",
"01047099999","2010-06-09T18:00:00","4","69.0166667","23.0666667","307.0","KAUTOKEINO II, NO","FM-12","ENKA ","V020","320,1,N,0070,1","03000,1,9,N","070000,1,N,1","+0086,1","-0009,1","10128,1","12,0000,9,1",,,"2,1,06,1","2,1,06,1",,"06,99,1,03,1,02,1,01250,1,09,1,00,1",,"999,M,+0135,1","99999,9,09759,1","3,1,015,1,+999,9","02,1","SYN088AAXX  09181 01047 11688 63207 10086 21009 39759 40128 53015 60002 70222 83290 333 10135;","Q01  00002PRCP12"
"01047099999","2010-06-10T00:00:00","4","69.0166667","23.0666667","307.0","KAUTOKEINO II, NO","FM-12","ENKA ","V020","320,1,N,0030,1","01500,1,9,N","070000,1,N,1","+0038,1","-0028,1","10152,1",,,,"2,1,06,1","2,1,06,1",,"06,99,1,06,1,00,1,01750,1,07,1,00,1",,,"99999,9,09777,1","1,1,005,1,+999,9","02,1","SYN078AAXX  10001 01047 11788 63203 10038 21028 39777 40152 51005 6//// 70222 86070;",
"01047099999","2010-06-10T06:00:00","4","69.0166667","23.0666667","307.0","KAUTOKEINO II, NO","FM-12","ENKA ","V020","320,1,N,0050,1","01200,1,9,N","070000,1,N,1","+0057,1","-0019,1","10157,1","12,0000,9,1","24,0000,9,1",,"2,1,06,1","1,1,06,1",,"05,99,1,05,1,02,1,01250,1,00,1,00,1",,"999,N,+0032,1","99999,9,09784,1","1,1,003,1,+999,9","02,1","SYN094AAXX  10061 01047 11688 53205 10057 21019 39784 40157 51003 60002 70221 85200 333 20032 70000;","Q01  00002PRCP24Q02  00002PRCP12"
"01047099999","2010-06-10T09:00:00","4","69.0166667","23.0666667","307.0","KAUTOKEINO II, NO","FM-12","ENKA ","V020","270,1,N,0070,1","01200,1,9,N","070000,1,N,1","+0068,1","-0040,1","10158,1",,,,"2,1,03,1","2,1,03,1",,"07,99,1,05,1,05,1,01250,1,00,1,08,1",,,"99999,9,09786,1","2,1,003,1,+999,9","02,1","SYN072AAXX  10091 01047 41688 72707 10068 21040 39786 40158 52003 70222 85508;",
"01047099999","2010-06-10T12:00:00","4","69.0166667","23.0666667","307.0","KAUTOKEINO II, NO","FM-12","ENKA ","V020","320,1,N,0070,1","01200,1,9,N","070000,1,N,1","+0084,1","-0054,1","10153,1",,,,"2,1,06,1","2,1,06,1",,"08,99,1,05,1,05,1,01250,1,02,1,99,9",,,"99999,9,09783,1","7,1,003,1,+999,9","02,1","SYN078AAXX  10121 01047 11688 83207 10084 21054 39783 40153 57003 6//// 70222 8552/;",
"01047099999","2010-06-10T15:00:00","4","69.0166667","23.0666667","307.0","KAUTOKEINO II, NO","FM-12","ENKA ","V020","320,1,N,0070,1","03000,1,9,N","070000,1,N,1","+0081,1","-0037,1","10155,1",,,,"2,1,03,1","2,1,03,1",,"08,99,1,04,1,05,1,00800,1,02,1,99,9",,,"99999,9,09785,1","4,1,000,1,+999,9","02,1","SYN072AAXX  10151 01047 41588 83207 10081 21037 39785 40155 54000 70222 8452/;",
"01047099999","2010-06-10T18:00:00","4","69.0166667","23.0666667","307.0","KAUTOKEINO II, NO","FM-12","ENKA ","V020","320,1,N,0010,1","03000,1,9,N","070000,1,N,1","+0055,1","-0007,1","10156,1","12,0000,9,1",,,"2,1,06,1","2,1,06,1",,"08,99,1,03,1,05,1,00800,1,02,1,99,9",,"999,M,+0093,1","99999,9,09783,1","6,1,001,1,+999,9","02,1","SYN088AAXX  10181 01047 11588 83201 10055 21007 39783 40156 56001 60002 70222 8352/ 333 10093;","Q01  00002PRCP12"
"01047099999","2010-06-11T00:00:00","4","69.0166667","23.0666667","307.0","KAUTOKEINO II, NO","FM-12","ENKA ","V020","140,1,N,0030,1","01200,1,9,N","040000,1,N,1","+0030,1","+0020,1","10143,1",,,,"6,1,06,1","2,1,06,1",,"08,99,1,08,1,00,1,01250,1,02,1,99,9",,,"99999,9,09767,1","7,1,008,1,+999,9","61,1","SYN078AAXX  11001 01047 11682 81403 10030 20020 39767 40143 57008 6//// 76162 8802/;",
"01047099999","2010-06-11T06:00:00","4","69.0166667","23.0666667","307.0","KAUTOKEINO II, NO","FM-12","ENKA ","V020","140,1,N,0030,1","00750,1,9,N","070000,1,N,1","+0050,1","+0020,1","10115,1","12,0010,9,1","24,0013,9,1",,"6,1,06,1","2,1,06,1",,"08,99,1,06,1,07,1,00800,1,02,1,99,9",,"999,N,+0030,1","99999,9,09742,1","7,1,012,1,+999,9","02,1","SYN094AAXX  11061 01047 11588 81403 10050 20020 39742 40115 57012 60012 70262 8672/ 333 20030 70012;",
"01047099999","2010-06-11T09:00:00","4","69.0166667","23.0666667","307.0","KAUTOKEINO II, NO","FM-12","ENKA ","V020","050,1,N,0050,1","00750,1,9,N","070000,1,N,1","+0074,1","+0004,1","10103,1",,,,"2,1,03,1","2,1,03,1",,"08,99,1,08,1,05,1,00800,1,99,9,99,9",,,"99999,9,09734,1","6,1,007,1,+999,9","02,1","SYN072AAXX  11091 01047 41588 80505 10074 20004 39734 40103 56007 70222 885//;",
"01047099999","2010-06-11T12:00:00","4","69.0166667","23.0666667","307.0","KAUTOKEINO II, NO","FM-12","ENKA ","V020","090,1,N,0050,1","00750,1,9,N","070000,1,N,1","+0102,1","-0003,1","10086,1",,,,"2,1,06,1","2,1,06,1",,"08,99,1,05,1,05,1,00800,1,02,1,99,9",,,"99999,9,09722,1","7,1,013,1,+999,9","02,1","SYN078AAXX  11121 01047 11588 80905 10102 21003 39722 40086 57013 6//// 70222 8552/;",
"01047099999","2010-06-11T15:00:00","4","69.0166667","23.0666667","307.0","KAUTOKEINO II, NO","FM-12","ENKA ","V020","090,1,N,0050,1","03000,1,9,N","070000,1,N,1","+0110,1","-0001,1","10076,1",,,,"2,1,03,1","2,1,03,1",,"06,99,1,04,1,05,1,00800,1,02,1,00,1",,,"99999,9,09713,1","7,1,009,1,+999,9","02,1","SYN072AAXX  11151 01047 41588 60905 10110 21001 39713 40076 57009 70222 84520;",
"01047099999","2010-06-11T18:00:00","4","69.0166667","23.0666667","307.0","KAUTOKEINO II, NO","FM-12","ENKA ","V020","140,1,N,0070,1","01200,1,9,N","070000,1,N,1","+0102,1","-0006,1","10070,1","12,0000,9,1",,,"2,1,06,1","2,1,06,1",,"05,99,1,05,1,05,1,01250,1,00,1,00,1",,"999,M,+0115,1","99999,9,09706,1","6,1,006,1,+999,9","01,1","SYN088AAXX  11181 01047 11688 51407 10102 21006 39706 40070 56006 60002 70122 85500 333 10115;","Q01  00002PRCP12"
"01047099999","2010-06-12T00:00:00","4","69.0166667","23.0666667","307.0","KAUTOKEINO II, NO","FM-12","ENKA ","V020","090,1,N,0030,1","22000,1,9,N","070000,1,N,1","+0028,1","-0027,1","10081,1",,,,"1,1,06,1","1,1,06,1",,"04,99,1,02,1,05,1,01250,1,00,1,08,1",,,"99999,9,09707,1","4,1,000,1,+999,9","02,1","SYN078AAXX  12001 01047 11688 40903 10028 21027 39707 40081 54000 6//// 70211 82508;",
"01047099999","2010-06-12T06:00:00","4","69.0166667","23.0666667","307.0","KAUTOKEINO II, NO","FM-12","ENKA ","V020","140,1,N,0050,1","07500,1,9,N","070000,1,N,1","+0082,1","-0003,1","10053,1","12,0000,9,1","24,0000,9,1",,"1,1,06,1","0,1,06,1",,"05,99,1,01,1,02,1,01250,1,00,1,05,1",,"999,N,+0018,1","99999,9,09687,1","7,1,006,1,+999,9","02,1","SYN094AAXX  12061 01047 11688 51405 10082 21003 39687 40053 57006 60002 70210 81205 333 20018 70000;","Q01  00002PRCP24Q02  00002PRCP12"
"01047099999","2010-06-12T09:00:00","4","69.0166667","23.0666667","307.0","KAUTOKEINO II, NO","FM-12","ENKA ","V020","140,1,N,0050,1","22000,1,9,N","070000,1,N,1","+0106,1","-0017,1","10035,1",,,,"1,1,03,1","1,1,03,1",,"05,99,1,03,1,01,1,01250,1,00,1,08,1",,,"99999,9,09673,1","7,1,013,1,+999,9","02,1","SYN072AAXX  12091 01047 41688 51405 10106 21017 39673 40035 57013 70211 83108;",
"01047099999","2010-06-12T12:00:00","4","69.0166667","23.0666667","307.0","KAUTOKEINO II, NO","FM-12","ENKA ","V020","090,1,N,0070,1","22000,1,9,N","070000,1,N,1","+0128,1","-0015,1","10012,1",,,,"0,1,06,1","0,1,06,1",,"01,99,1,00,1,00,1,99999,9,00,1,01,1",,,"99999,9,09653,1","7,1,021,1,+999,9","02,1","SYN078AAXX  12121 01047 11988 10907 10128 21015 39653 40012 57021 6//// 70200 80001;",
"01047099999","2010-06-12T15:00:00","4","69.0166667","23.0666667","307.0","KAUTOKEINO II, NO","FM-12","ENKA ","V020","090,1,N,0070,1","22000,1,9,N","070000,1,N,1","+0134,1","-0038,1","09999,1",,,,"0,1,03,1","0,1,03,1",,"03,99,1,00,1,00,1,99999,9,00,1,01,1",,,"99999,9,09641,1","6,1,011,1,+999,9","02,1","SYN072AAXX  12151 01047 41988 30907 10134 21038 39641 49999 56011 70200 80001;",
"01047099999","2010-06-12T18:00:00","4","69.0166667","23.0666667","307.0","KAUTOKEINO II, NO","FM-12","ENKA ","V020","090,1,N,0070,1","22000,1,9,N","070000,1,N,1","+0122,1","-0040,1","09994,1","12,0000,9,1",,,"0,1,06,1","0,1,06,1",,"04,99,1,00,1,00,1,99999,9,00,1,08,1",,"999,M,+0140,1","99999,9,09635,1","6,1,006,1,+999,9","02,1","SYN088AAXX  12181 01047 11988 40907 10122 21040 39635 49994 56006 60002 70200 80008 333 10140;","Q01  00002PRCP12"
"01047099999","2010-06-13T00:00:00","4","69.0166667","23.0666667","307.0","KAUTOKEINO II, NO","FM-12","ENKA ","V020","360,1,N,0050,1","01500,1,9,N","070000,1,N,1","+0044,1","-0020,1","10017,1",,,,"1,1,06,1","1,1,06,1",,"06,99,1,06,1,00,1,01750,1,07,1,00,1",,,"99999,9,09647,1","2,1,005,1,+999,9","02,1","SYN078AAXX  13001 01047 11788 63605 10044 21020 39647 40017 52005 6//// 70211 86070;",
"01047099999","2010-06-13T06:00:00","4","69.0166667","23.0666667","307.0","KAUTOKEINO II, NO","FM-12","ENKA ","V020","050,1,N,0050,1","01500,1,9,N","070000,1,N,1","+0050,1","-0008,1","10018,1","12,0000,9,1","24,0000,9,1",,"2,1,06,1","1,1,06,1",,"07,99,1,07,1,00,1,01750,1,07,1,00,1",,"999,N,+0031,1","99999,9,09649,1","4,1,000,1,+999,9","02,1","SYN094AAXX  13061 01047 11788 70505 10050 21008 39649 40018 54000 60002 70221 87070 333 20031 70000;","Q01  00002PRCP24Q02  00002PRCP12"
"01047099999","2010-06-13T09:00:00","4","69.0166667","23.0666667","307.0","KAUTOKEINO II, NO","FM-12","ENKA ","V020","050,1,N,0050,1","22000,1,9,N","070000,1,N,1","+0082,1","-0013,1","10020,1",,,,"2,1,03,1","0,1,03,1",,"04,99,1,04,1,00,1,01750,1,04,1,00,1",,,"99999,9,09656,1","3,1,006,1,+999,9","01,1","SYN072AAXX  13091 01047 41788 40505 10082 21013 39656 40020 53006 70120 84040;",
"01047099999","2010-06-13T12:00:00","4","69.0166667","23.0666667","307.0","KAUTOKEINO II, NO","FM-12","ENKA ","V020","360,1,N,0070,1","22000,1,9,N","070000,1,N,1","+0104,1","-0016,1","10021,1",,,,"0,1,06,1","0,1,06,1",,"03,99,1,01,1,04,1,01250,1,04,1,00,1",,,"99999,9,09659,1","2,1,003,1,+999,9","02,1","SYN078AAXX  13121 01047 11688 33607 10104 21016 39659 40021 52003 6//// 70200 81440;",
"01047099999","2010-06-13T15:00:00","4","69.0166667","23.0666667","307.0","KAUTOKEINO II, NO","FM-12","ENKA ","V020","360,1,N,0050,1","03000,1,9,N","070000,1,N,1","+0108,1","-0019,1","10026,1",,,,"1,1,03,1","1,1,03,1",,"05,99,1,01,1,04,1,01250,1,07,1,00,1",,,"99999,9,09664,1","2,1,006,1,+999,9","02,1","SYN072AAXX  13151 01047 41688 53605 10108 21019 39664 40026 52006 70211 81470;",
"01047099999","2010-06-13T18:00:00","4","69.0166667","23.0666667","307.0","KAUTOKEINO II, NO","FM-12","ENKA ","V020","050,1,N,0050,1","01500,1,9,N","070000,1,N,1","+0106,1","-0021,1","10038,1","12,0000,9,1",,,"2,1,06,1","2,1,06,1",,"06,99,1,06,1,00,1,01750,1,07,1,00,1",,"999,M,+0122,1","99999,9,09676,1","3,1,012,1,+999,9","02,1","SYN088AAXX  13181 01047 11788 60505 10106 21021 39676 40038 53012 60002 70222 86070 333 10122;","Q01  00002PRCP12"
"01047099999","2010-06-14T00:00:00","4","69.0166667","23.0666667","307.0","KAUTOKEINO II, NO","FM-12","ENKA ","V020","050,1,N,0050,1","01500,1,9,N","070000,1,N,1","+0050,1","-0006,1","10084,1",,,,"2,1,06,1","2,1,06,1",,"08,99,1,08,1,00,1,01750,1,07,1,99,9",,,"99999,9,09713,1","2,1,020,1,+999,9","02,1","SYN078AAXX  14001 01047 11788 80505 10050 21006 39713 40084 52020 6//// 70222 8807/;",
"01047099999","2010-06-14T06:00:00","4","69.0166667","23.0666667","307.0","KAUTOKEINO II, NO","FM-12","ENKA ","V020","999,9,C,0000,1","03000,1,9,N","070000,1,N,1","+0076,1","+0012,1","10101,1","12,0000,9,1","24,0000,9,1",,"2,1,06,1","2,1,06,1",,"07,99,1,03,1,04,1,01250,1,07,1,00,1",,"999,N,+0048,1","99999,9,09733,1","1,1,008,1,+999,9","02,1","SYN094AAXX  14061 01047 11688 70000 10076 20012 39733 40101 51008 60002 70222 83470 333 20048 70000;","Q01  00002PRCP24Q02  00002PRCP12"
"01047099999","2010-06-14T09:00:00","4","69.0166667","23.0666667","307.0","KAUTOKEINO II, NO","FM-12","ENKA ","V020","360,1,N,0050,1","00750,1,9,N","070000,1,N,1","+0091,1","+0011,1","10108,1",,,,"2,1,03,1","2,1,03,1",,"08,99,1,08,1,05,1,00800,1,99,9,99,9",,,"99999,9,09741,1","3,1,008,1,+999,9","02,1","SYN072AAXX  14091 01047 41588 83605 10091 20011 39741 40108 53008 70222 885//;",
"01047099999","2010-06-14T12:00:00","4","69.0166667","23.0666667","307.0","KAUTOKEINO II, NO","FM-12","ENKA ","V020","360,1,N,0050,1","00750,1,9,N","070000,1,N,1","+0090,1","+0012,1","10120,1",,,,"2,1,06,1","2,1,06,1",,"08,99,1,08,1,09,1,00800,1,99,9,99,9",,,"99999,9,09753,1","2,1,011,1,+999,9","02,1","SYN078AAXX  14121 01047 11588 83605 10090 20012 39753 40120 52011 6//// 70222 889//;",
"01047099999","2010-06-14T15:00:00","4","69.0166667","23.0666667","307.0","KAUTOKEINO II, NO","FM-12","ENKA ","V020","360,1,N,0070,1","00750,1,9,N","070000,1,N,1","+0080,1","-0010,1","10131,1",,,,"2,1,03,1","2,1,03,1",,"08,99,1,08,1,09,1,00800,1,99,9,99,9",,,"99999,9,09762,1","1,1,010,1,+999,9","02,1","SYN072AAXX  14151 01047 41588 83607 10080 21010 39762 40131 51010 70222 889//;",
"01047099999","2010-06-14T18:00:00","4","69.0166667","23.0666667","307.0","KAUTOKEINO II, NO","FM-12","ENKA ","V020","360,1,N,0070,1","03000,1,9,N","070000,1,N,1","+0068,1","-0016,1","10145,1","12,0000,9,1",,,"2,1,06,1","2,1,06,1",,"07,99,1,03,1,05,1,00800,1,07,1,00,1",,"999,M,+0098,1","99999,9,09774,1","2,1,013,1,+999,9","02,1","SYN088AAXX  14181 01047 11588 73607 10068 21016 39774 40145 52013 60002 70222 83570 333 10098;","Q01  00002PRCP12"
"01047099999","2010-06-15T00:00:00","4","69.0166667","23.0666667","307.0","KAUTOKEINO II, NO","FM-12","ENKA ","V020","360,1,N,0030,1","01500,1,9,N","070000,1,N,1","-0004,1","-0017,1","10177,1",,,,"2,1,06,1","2,1,06,1",,"05,99,1,05,1,00,1,01750,1,07,1,00,1",,,"99999,9,09797,1","2,1,012,1,+999,9","02,1","SYN078AAXX  15001 01047 11788 53603 11004 21017 39797 40177 52012 6//// 70222 85070;",
"01047099999","2010-06-15T06:00:00","4","69.0166667","23.0666667","307.0","KAUTOKEINO II, NO","FM-12","ENKA ","V020","360,1,N,0050,1","03000,1,9,N","070000,1,N,1","+0072,1","-0020,1","10172,1","12,0000,9,1","24,0000,9,1",,"2,1,06,1","2,1,06,1",,"07,99,1,04,1,04,1,01250,1,07,1,00,1",,"999,N,-0005,1","99999,9,09801,1","4,1,000,1,+999,9","02,1","SYN094AAXX  15061 01047 11688 73605 10072 21020 39801 40172 54000 60002 70222 84470 333 21005 70000;","Q01  00002PRCP24Q02  00002PRCP12"
"01047099999","2010-06-15T09:00:00","4","69.0166667","23.0666667","307.0","KAUTOKEINO II, NO","FM-12","ENKA ","V020","340,1,N,0050,1","00750,1,9,N","070000,1,N,1","+0088,1","-0016,1","10173,1",,,,"2,1,03,1","2,1,03,1",,"08,99,1,08,1,05,1,00800,1,99,9,99,9",,,"99999,9,09803,1","2,1,002,1,+999,9","02,1","SYN072AAXX  15091 01047 41588 83405 10088 21016 39803 40173 52002 70222 885//;",
"01047099999","2010-06-15T12:00:00","4","69.0166667","23.0666667","307.0","KAUTOKEINO II, NO","FM-12","ENKA ","V020","340,1,N,0050,1","00750,1,9,N","070000,1,N,1","+0106,1","-0014,1","10167,1",,,,"2,1,06,1","2,1,06,1",,"08,99,1,08,1,05,1,00800,1,99,9,99,9",,,"99999,9,09800,1","7,1,003,1,+999,9","02,1","SYN078AAXX  15121 01047 11588 83405 10106 21014 39800 40167 57003 6//// 70222 885//;",
"01047099999","2010-06-15T15:00:00","4","69.0166667","23.0666667","307.0","KAUTOKEINO II, NO","FM-12","ENKA ","V020","340,1,N,0050,1","00750,1,9,N","070000,1,N,1","+0112,1","-0015,1","10161,1",,,,"2,1,03,1","2,1,03,1",,"07,99,1,07,1,05,1,00800,1,00,1,00,1",,,"99999,9,09795,1","7,1,004,1,+999,9","02,1","SYN072AAXX  15151 01047 41588 73405 10112 21015 39795 40161 57004 70222 87500;",
"01047099999","2010-06-15T18:00:00","4","69.0166667","23.0666667","307.0","KAUTOKEINO II, NO","FM-12","ENKA ","V020","340,1,N,0050,1","03000,1,9,N","070000,1,N,1","+0114,1","-0013,1","10155,1","12,0000,9,1",,,"2,1,06,1","2,1,06,1",,"06,99,1,04,1,05,1,00800,1,07,1,00,1",,"999,M,+0120,1","99999,9,09789,1","7,1,006,1,+999,9","02,1","SYN088AAXX  15181 01047 11588 63405 10114 21013 39789 40155 57006 60002 70222 84570 333 10120;","Q01  00002PRCP12"
"01047099999","2010-06-16T00:00:00","4","69.0166667","23.0666667","307.0","KAUTOKEINO II, NO","FM-12","ENKA ","V020","360,1,N,0010,1","22000,1,9,N","070000,1,N,1","+0028,1","-0003,1","10166,1",,,,"2,1,06,1","2,1,06,1",,"04,99,1,04,1,00,1,01750,1,04,1,00,1",,,"99999,9,09789,1","4,1,000,1,+999,9","02,1","SYN078AAXX  16001 01047 11788 43601 10028 21003 39789 40166 54000 6//// 70222 84040;",
"01047099999","2010-06-16T06:00:00","4","69.0166667","23.0666667","307.0","KAUTOKEINO II, NO","FM-12","ENKA ","V020","360,1,N,0010,1","01500,1,9,N","070000,1,N,1","+0083,1","+0008,1","10142,1","12,0000,9,1","24,0000,9,1",,"2,1,06,1","2,1,06,1",,"07,99,1,07,1,00,1,01750,1,07,1,00,1",,"999,N,+0020,1","99999,9,09773,1","7,1,008,1,+999,9","02,1","SYN094AAXX  16061 01047 11788 73601 10083 20008 39773 40142 57008 60002 70222 87070 333 20020 70000;","Q01  00002PRCP24Q02  00002PRCP12"
"01047099999","2010-06-16T09:00:00","4","69.0166667","23.0666667","307.0","KAUTOKEINO II, NO","FM-12","ENKA ","V020","360,1,N,0050,1","03000,1,9,N","070000,1,N,1","+0105,1","+0024,1","10128,1",,,,"2,1,03,1","2,1,03,1",,"08,99,1,04,1,05,1,00800,1,02,1,99,9",,,"99999,9,09762,1","7,1,010,1,+999,9","02,1","SYN072AAXX  16091 01047 41588 83605 10105 20024 39762 40128 57010 70222 8452/;",
"01047099999","2010-06-16T12:00:00","4","69.0166667","23.0666667","307.0","KAUTOKEINO II, NO","FM-12","ENKA ","V020","320,1,N,0030,1","00750,1,9,N","070000,1,N,1","+0116,1","+0013,1","10121,1",,,,"2,1,06,1","2,1,06,1",,"08,99,1,08,1,05,1,00800,1,99,9,99,9",,,"99999,9,09756,1","6,1,006,1,+999,9","02,1","SYN078AAXX  16121 01047 11588 83203 10116 20013 39756 40121 56006 6//// 70222 885//;",
"01047099999","2010-06-16T15:00:00","4","69.0166667","23.0666667","307.0","KAUTOKEINO II, NO","FM-12","ENKA ","V020","220,1,N,0050,1","01500,1,9,N","070000,1,N,1","+0135,1","+0009,1","10105,1",,,,"2,1,03,1","2,1,03,1",,"07,99,1,07,1,00,1,01750,1,09,1,00,1",,,"99999,9,09744,1","7,1,013,1,+999,9","02,1","SYN072AAXX  16151 01047 41788 72205 10135 20009 39744 40105 57013 70222 87090;",
"01047099999","2010-06-16T18:00:00","4","69.0166667","23.0666667","307.0","KAUTOKEINO II, NO","FM-12","ENKA ","V020","270,1,N,0050,1","03000,1,9,N","070000,1,N,1","+0142,1","+0015,1","10094,1","12,0000,9,1",,,"2,1,06,1","2,1,06,1",,"07,99,1,04,1,02,1,01250,1,09,1,00,1",,"999,M,+0150,1","99999,9,09734,1","7,1,010,1,+999,9","02,1","SYN088AAXX  16181 01047 11688 72705 10142 20015 39734 40094 57010 60002 70222 84290 333 10150;","Q01  00002PRCP12"
"01047099999","2010-06-17T00:00:00","4","69.0166667","23.0666667","307.0","KAUTOKEINO II, NO","FM-12","ENKA ","V020","999,9,C,0000,1","03000,1,9,N","070000,1,N,1","+0060,1","+0028,1","10110,1",,,,"2,1,06,1","2,1,06,1",,"05,99,1,03,1,04,1,01250,1,04,1,00,1",,,"99999,9,09739,1","4,1,000,1,+999,9","02,1","SYN078AAXX  17001 01047 11688 50000 10060 20028 39739 40110 54000 6//// 70222 83440;",
"01047099999","2010-06-17T06:00:00","4","69.0166667","23.0666667","307.0","KAUTOKEINO II, NO","FM-12","ENKA ","V020","360,1,N,0030,1","00420,1,9,N","070000,1,N,1","+0115,1","+0035,1","10103,1","12,0000,9,1","24,0000,9,1",,"2,1,06,1","1,1,06,1",,"06,99,1,06,1,09,1,00450,1,00,1,00,1",,"999,N,+0058,1","99999,9,09739,1","4,1,000,1,+999,9","02,1","SYN094AAXX  17061 01047 11488 63603 10115 20035 39739 40103 54000 60002 70221 86900 333 20058 70000;","Q01  00002PRCP24Q02  00002PRCP12"
"01047099999","2010-06-17T09:00:00","4","69.0166667","23.0666667","307.0","KAUTOKEINO II, NO","FM-12","ENKA ","V020","320,1,N,0050,1","00750,1,9,N","070000,1,N,1","+0116,1","+0021,1","10103,1",,,,"2,1,03,1","2,1,03,1",,"08,99,1,08,1,05,1,00800,1,99,9,99,9",,,"99999,9,09740,1","4,1,000,1,+999,9","02,1","SYN072AAXX  17091 01047 41588 83205 10116 20021 39740 40103 54000 70222 885//;",
"01047099999","2010-06-17T12:00:00","4","69.0166667","23.0666667","307.0","KAUTOKEINO II, NO","FM-12","ENKA ","V020","320,1,N,0030,1","00750,1,9,N","040000,1,N,1","+0124,1","+0046,1","10095,1",,,,"8,1,06,1","2,1,06,1",,"08,99,1,08,1,09,1,00800,1,99,9,99,9",,,"99999,9,09733,1","8,1,007,1,+999,9","80,1","SYN078AAXX  17121 01047 11582 83203 10124 20046 39733 40095 58007 6//// 78082 889//;",
"01047099999","2010-06-17T15:00:00","4","69.0166667","23.0666667","307.0","KAUTOKEINO II, NO","FM-12","ENKA ","V020","360,1,N,0030,1","00750,1,9,N","070000,1,N,1","+0130,1","+0039,1","10081,1",,,,"8,1,03,1","2,1,03,1",,"08,99,1,08,1,09,1,00800,1,99,9,99,9",,,"99999,9,09720,1","7,1,013,1,+999,9","02,1","SYN072AAXX  17151 01047 41588 83603 10130 20039 39720 40081 57013 70282 889//;",
"01047099999","2010-06-17T18:00:00","4","69.0166667","23.0666667","307.0","KAUTOKEINO II, NO","FM-12","ENKA ","V020","360,1,N,0010,1","03000,1,9,N","070000,1,N,1","+0120,1","+0040,1","10072,1","12,0000,2,1",,,"8,1,06,1","2,1,06,1",,"06,99,1,03,1,04,1,00800,1,04,1,00,1",,"999,M,+0132,1","99999,9,09710,1","7,1,010,1,+999,9","02,1","SYN088AAXX  17181 01047 11588 63601 10120 20040 39710 40072 57010 69912 70282 83440 333 10132;",
"01047099999","2010-06-18T00:00:00","4","69.0166667","23.0666667","307.0","KAUTOKEINO II, NO","FM-12","ENKA ","V020","999,9,C,0000,1","00750,1,9,N","070000,1,N,1","+0076,1","+0062,1","10064,1",,,,"8,1,06,1","2,1,06,1",,"06,99,1,06,1,09,1,00800,1,00,1,00,1",,,"99999,9,09697,1","7,1,005,1,+999,9","25,1","SYN078AAXX  18001 01047 11588 60000 10076 20062 39697 40064 57005 6//// 72582 86900;",
"01047099999","2010-06-18T06:00:00","4","69.0166667","23.0666667","307.0","KAUTOKEINO II, NO","FM-12","ENKA ","V020","999,9,C,0000,1","01500,1,9,N","070000,1,N,1","+0112,1","+0064,1","10059,1","12,0000,2,1","24,0003,9,1",,"8,1,06,1","2,1,06,1",,"08,99,1,08,1,00,1,01750,1,07,1,99,9",,"999,N,+0068,1","99999,9,09696,1","6,1,001,1,+999,9","02,1","SYN094AAXX  18061 01047 11788 80000 10112 20064 39696 40059 56001 69912 70282 8807/ 333 20068 70002;",
"01047099999","2010-06-18T09:00:00","4","69.0166667","23.0666667","307.0","KAUTOKEINO II, NO","FM-12","ENKA ","V020","050,1,N,0010,1","00750,1,9,N","070000,1,N,1","+0145,1","+0021,1","10057,1",,,,"2,1,03,1","2,1,03,1",,"08,99,1,08,1,09,1,00800,1,99,9,99,9",,,"99999,9,09699,1","2,1,002,1,+999,9","02,1","SYN072AAXX  18091 01047 41588 80501 10145 20021 39699 40057 52002 70222 889//;",
"01047099999","2010-06-18T12:00:00","4","69.0166667","23.0666667","307.0","KAUTOKEINO II, NO","FM-12","ENKA ","V020","360,1,N,0010,1","01200,1,9,N","070000,1,N,1","+0164,1","+0038,1","10053,1",,,,"2,1,06,1","2,1,06,1",,"06,99,1,06,1,02,1,01250,1,00,1,00,1",,,"99999,9,09697,1","4,1,000,1,+999,9","02,1","SYN078AAXX  18121 01047 11688 63601 10164 20038 39697 40053 54000 6//// 70222 86200;",
"01047099999","2010-06-18T15:00:00","4","69.0166667","23.0666667","307.0","KAUTOKEINO II, NO","FM-12","ENKA ","V020","360,1,N,0050,1","00750,1,9,N","070000,1,N,1","+0156,1","+0049,1","10060,1",,,,"2,1,03,1","2,1,03,1",,"07,99,1,06,1,09,1,00800,1,04,1,00,1",,,"99999,9,09703,1","3,1,007,1,+999,9","02,1","SYN072AAXX  18151 01047 41588 73605 10156 20049 39703 40060 53007 70222 86940;",
"01047099999","2010-06-18T18:00:00","4","69.0166667","23.0666667","307.0","KAUTOKEINO II, NO","FM-12","ENKA ","V020","320,1,N,0050,1","00750,1,9,N","070000,1,N,1","+0122,1","+0058,1","10079,1","12,0000,9,1",,,"2,1,06,1","2,1,06,1",,"08,99,1,08,1,09,1,00800,1,99,9,99,9",,"999,M,+0174,1","99999,9,09717,1","2,1,012,1,+999,9","02,1","SYN088AAXX  18181 01047 11588 83205 10122 20058 39717 40079 52012 60002 70222 889// 333 10174;","Q01  00002PRCP12"
"01047099999","2010-06-19T00:00:00","4","69.0166667","23.0666667","307.0","KAUTOKEINO II, NO","FM-12","ENKA ","V020","320,1,N,0050,1","00750,1,9,N","040000,1,N,1","+0084,1","+0069,1","10084,1",,,,"8,1,06,1","2,1,06,1",,"08,99,1,08,1,09,1,00800,1,99,9,99,9",,,"99999,9,09717,1","4,1,000,1,+999,9","02,1","SYN078AAXX  19001 01047 11582 83205 10084 20069 39717 40084 54000 6//// 70282 889//;",
"01047099999","2010-06-19T06:00:00","4","69.0166667","23.0666667","307.0","KAUTOKEINO II, NO","FM-12","ENKA ","V020","320,1,N,0030,1","00750,1,9,N","065000,1,N,1","+0092,1","+0075,1","10074,1","12,0020,9,1","24,0023,9,1",,"8,1,06,1","2,1,06,1",,"08,99,1,08,1,07,1,00800,1,99,9,99,9",,"999,N,+0082,1","99999,9,09709,1","6,1,002,1,+999,9","02,1","SYN094AAXX  19061 01047 11587 83203 10092 20075 39709 40074 56002 60022 70282 887// 333 20082 70023;",
"01047099999","2010-06-19T09:00:00","4","69.0166667","23.0666667","307.0","KAUTOKEINO II, NO","FM-12","ENKA ","V020","320,1,N,0050,1","00750,1,9,N","070000,1,N,1","+0101,1","+0070,1","10065,1",,,,"2,1,03,1","2,1,03,1",,"08,99,1,08,1,07,1,00800,1,99,9,99,9",,,"99999,9,09701,1","8,1,008,1,+999,9","02,1","SYN072AAXX  19091 01047 41588 83205 10101 20070 39701 40065 58008 70222 887//;",
"01047099999","2010-06-19T12:00:00","4","69.0166667","23.0666667","307.0","KAUTOKEINO II, NO","FM-12","ENKA ","V020","360,1,N,0050,1","00750,1,9,N","010000,1,N,1","+0094,1","+0078,1","10054,1",,,,"6,1,06,1","2,1,06,1",,"08,99,1,06,1,07,1,00800,1,02,1,99,9",,,"99999,9,09689,1","7,1,011,1,+999,9","63,1","SYN078AAXX  19121 01047 11560 83605 10094 20078 39689 40054 57011 6//// 76362 8672/;",
"01047099999","2010-06-19T15:00:00","4","69.0166667","23.0666667","307.0","KAUTOKEINO II, NO","FM-12","ENKA ","V020","360,1,N,0010,1","00750,1,9,N","070000,1,N,1","+0106,1","+0092,1","10049,1",,,,"6,1,03,1","6,1,03,1",,"08,99,1,06,1,07,1,00800,1,02,1,99,9",,,"99999,9,09687,1","6,1,003,1,+999,9","21,1","SYN072AAXX  19151 01047 41588 83601 10106 20092 39687 40049 56003 72166 8672/;",
"01047099999","2010-06-19T18:00:00","4","69.0166667","23.0666667","307.0","KAUTOKEINO II, NO","FM-12","ENKA ","V020","140,1,N,0050,1","00750,1,9,N","010000,1,N,1","+0110,1","+0094,1","10048,1","12,0109,9,1",,,"6,1,06,1","2,1,06,1",,"08,99,1,06,1,07,1,00800,1,02,1,99,9",,"999,M,+0120,1","99999,9,09685,1","4,1,000,1,+999,9","63,1","SYN088AAXX  19181 01047 11560 81405 10110 20094 39685 40048 54000 60112 76362 8672/ 333 10120;",
"01047099999","2010-06-20T00:00:00","4","69.0166667","23.0666667","307.0","KAUTOKEINO II, NO","FM-12","ENKA ","V020","140,1,N,0010,1","00750,1,9,N","020000,1,N,1","+0104,1","+0090,1","10034,1",,,,"6,1,06,1","6,1,06,1",,"08,99,1,06,1,07,1,00800,1,02,1,99,9",,,"99999,9,09671,1","7,1,005,1,+999,9","63,1","SYN078AAXX  20001 01047 11570 81401 10104 20090 39671 40034 57005 6//// 76366 8672/;",
"01047099999","2010-06-20T06:00:00","4","69.0166667","23.0666667","307.0","KAUTOKEINO II, NO","FM-12","ENKA ","V020","140,1,N,0010,1","00750,1,9,N","015000,1,N,1","+0098,1","+0084,1","10018,1","12,0160,9,1","24,0262,9,1",,"6,1,06,1","6,1,06,1",,"08,99,1,06,1,07,1,00800,1,02,1,99,9",,"999,N,+0098,1","99999,9,09655,1","6,1,006,1,+999,9","63,1","SYN094AAXX  20061 01047 11565 81401 10098 20084 39655 40018 56006 60162 76366 8672/ 333 20098 70261;",
"01047099999","2010-06-20T09:00:00","4","69.0166667","23.0666667","307.0","KAUTOKEINO II, NO","FM-12","ENKA ","V020","360,1,N,0050,1","00750,1,9,N","005000,1,N,1","+0095,1","+0084,1","10006,1",,,,"6,1,03,1","6,1,03,1",,"08,99,1,07,1,07,1,00800,1,02,1,99,9",,,"99999,9,09643,1","7,1,012,1,+999,9","65,1","SYN072AAXX  20091 01047 41550 83605 10095 20084 39643 40006 57012 76566 8772/;",
"01047099999","2010-06-20T12:00:00","4","69.0166667","23.0666667","307.0","KAUTOKEINO II, NO","FM-12","ENKA ","V020","320,1,N,0050,1","00750,1,9,N","003000,1,N,1","+0091,1","+0077,1","09996,1",,,,"6,1,06,1","5,1,06,1",,"08,99,1,06,1,07,1,00800,1,02,1,99,9",,,"99999,9,09633,1","6,1,009,1,+999,9","53,1","SYN078AAXX  20121 01047 11530 83205 10091 20077 39633 49996 56009 6//// 75365 8672/;",
"01047099999","2010-06-20T15:00:00","4","69.0166667","23.0666667","307.0","KAUTOKEINO II, NO","FM-12","ENKA ","V020","320,1,N,0070,1","00750,1,9,N","007000,1,N,1","+0082,1","+0068,1","09989,1",,,,"6,1,03,1","5,1,03,1",,"08,99,1,06,1,07,1,00800,1,02,1,99,9",,,"99999,9,09625,1","7,1,008,1,+999,9","63,1","SYN072AAXX  20151 01047 41557 83207 10082 20068 39625 49989 57008 76365 8672/;",
"01047099999","2010-06-20T18:00:00","4","69.0166667","23.0666667","307.0","KAUTOKEINO II, NO","FM-12","ENKA ","V020","320,1,N,0050,1","00750,1,9,N","065000,1,N,1","+0066,1","+0051,1","09996,1","12,0290,9,1",,,"6,1,06,1","6,1,06,1",,"08,99,1,06,1,07,1,00800,1,02,1,99,9",,"999,M,+0105,1","99999,9,09630,1","3,1,005,1,+999,9","21,1","SYN088AAXX  20181 01047 11587 83205 10066 20051 39630 49996 53005 60292 72166 8672/ 333 10105;",
"01047099999","2010-06-21T00:00:00","4","69.0166667","23.0666667","307.0","KAUTOKEINO II, NO","FM-12","ENKA ","V020","320,1,N,0050,1","01200,1,9,N","030000,1,N,1","+0030,1","+0015,1","10034,1",,,,"6,1,06,1","2,1,06,1",,"08,99,1,08,1,00,1,01250,1,02,1,99,9",,,"99999,9,09662,1","3,1,018,1,+999,9","61,1","SYN078AAXX  21001 01047 11680 83205 10030 20015 39662 40034 53018 6//// 76162 8802/;",
"01047099999","2010-06-21T06:00:00","4","69.0166667","23.0666667","307.0","KAUTOKEINO II, NO","FM-12","ENKA ","V020","220,1,N,0030,1","01200,1,9,N","070000,1,N,1","+0061,1","-0006,1","10058,1","12,0119,9,1","24,0406,9,1",,"6,1,06,1","2,1,06,1",,"08,99,1,06,1,05,1,01250,1,02,1,99,9",,"999,N,+0028,1","99999,9,09689,1","3,1,008,1,+999,9","02,1","SYN094AAXX  21061 01047 11688 82203 10061 21006 39689 40058 53008 60122 70262 8652/ 333 20028 70406;",
"01047099999","2010-06-21T09:00:00","4","69.0166667","23.0666667","307.0","KAUTOKEINO II, NO","FM-12","ENKA ","V020","320,1,N,0050,1","00750,1,9,N","070000,1,N,1","+0084,1","-0017,1","10070,1",,,,"2,1,03,1","2,1,03,1",,"07,99,1,07,1,05,1,00800,1,00,1,00,1",,,"99999,9,09704,1","2,1,014,1,+999,9","02,1","SYN072AAXX  21091 01047 41588 73205 10084 21017 39704 40070 52014 70222 87500;",
"01047099999","2010-06-21T12:00:00","4","69.0166667","23.0666667","307.0","KAUTOKEINO II, NO","FM-12","ENKA ","V020","320,1,N,0050,1","00750,1,9,N","070000,1,N,1","+0082,1","-0013,1","10078,1",,,,"2,1,06,1","2,1,06,1",,"08,99,1,08,1,05,1,00800,1,99,9,99,9",,,"99999,9,09711,1","1,1,007,1,+999,9","02,1","SYN078AAXX  21121 01047 11588 83205 10082 21013 39711 40078 51007 6//// 70222 885//;",
"01047099999","2010-06-21T15:00:00","4","69.0166667","23.0666667","307.0","KAUTOKEINO II, NO","FM-12","ENKA ","V020","320,1,N,0050,1","00750,1,9,N","070000,1,N,1","+0092,1","-0027,1","10079,1",,,,"2,1,03,1","2,1,03,1",,"08,99,1,08,1,05,1,00800,1,99,9,99,9",,,"99999,9,09714,1","1,1,003,1,+999,9","02,1","SYN072AAXX  21151 01047 41588 83205 10092 21027 39714 40079 51003 70222 885//;",
"01047099999","2010-06-21T18:00:00","4","69.0166667","23.0666667","307.0","KAUTOKEINO II, NO","FM-12","ENKA ","V020","220,1,N,0050,1","00750,1,9,N","070000,1,N,1","+0096,1","-0030,1","10079,1","12,0000,9,1",,,"2,1,06,1","2,1,06,1",,"05,99,1,05,1,05,1,00800,1,00,1,00,1",,"999,M,+0105,1","99999,9,09714,1","4,1,000,1,+999,9","01,1","SYN088AAXX  21181 01047 11588 52205 10096 21030 39714 40079 54000 60002 70122 85500 333 10105;","Q01  00002PRCP12"
"01047099999","2010-06-22T00:00:00","4","69.0166667","23.0666667","307.0","KAUTOKEINO II, NO","FM-12","ENKA ","V020","180,1,N,0070,1","01200,1,9,N","070000,1,N,1","+0054,1","-0015,1","10074,1",,,,"2,1,06,1","2,1,06,1",,"08,99,1,08,1,00,1,01250,1,02,1,99,9",,,"99999,9,09704,1","7,1,005,1,+999,9","02,1","SYN078AAXX  22001 01047 11688 81807 10054 21015 39704 40074 57005 6//// 70222 8802/;",
"01047099999","2010-06-22T06:00:00","4","69.0166667","23.0666667","307.0","KAUTOKEINO II, NO","FM-12","ENKA ","V020","180,1,N,0070,1","03000,1,9,N","070000,1,N,1","+0089,1","-0001,1","10054,1","12,0000,9,1","24,0000,9,1",,"2,1,06,1","2,1,06,1",,"05,99,1,02,1,04,1,01250,1,07,1,00,1",,"999,N,+0044,1","99999,9,09688,1","6,1,010,1,+999,9","02,1","SYN094AAXX  22061 01047 11688 51807 10089 21001 39688 40054 56010 60002 70222 82470 333 20044 70000;","Q01  00002PRCP24Q02  00002PRCP12"
"01047099999","2010-06-22T09:00:00","4","69.0166667","23.0666667","307.0","KAUTOKEINO II, NO","FM-12","ENKA ","V020","180,1,N,0100,1","01200,1,9,N","070000,1,N,1","+0122,1","+0007,1","10036,1",,,,"2,1,03,1","2,1,03,1",,"07,99,1,07,1,05,1,01250,1,00,1,00,1",,,"99999,9,09675,1","7,1,013,1,+999,9","02,1","SYN072AAXX  22091 01047 41688 71810 10122 20007 39675 40036 57013 70222 87500;",
"01047099999","2010-06-22T12:00:00","4","69.0166667","23.0666667","307.0","KAUTOKEINO II, NO","FM-12","ENKA ","V020","220,1,N,0100,1","03000,1,9,N","070000,1,N,1","+0110,1","-0004,1","10039,1",,,,"2,1,06,1","2,1,06,1",,"08,99,1,04,1,05,1,00800,1,02,1,99,9",,,"99999,9,09677,1","3,1,002,1,+999,9","02,1","SYN078AAXX  22121 01047 11588 82210 10110 21004 39677 40039 53002 6//// 70222 8452/;",
"01047099999","2010-06-22T15:00:00","4","69.0166667","23.0666667","307.0","KAUTOKEINO II, NO","FM-12","ENKA ","V020","270,1,N,0100,1","00750,1,9,N","070000,1,N,1","+0104,1","-0001,1","10042,1",,,,"2,1,03,1","2,1,03,1",,"08,99,1,05,1,05,1,00800,1,02,1,99,9",,,"99999,9,09679,1","1,1,002,1,+999,9","02,1","SYN072AAXX  22151 01047 41588 82710 10104 21001 39679 40042 51002 70222 8552/;",
"01047099999","2010-06-22T18:00:00","4","69.0166667","23.0666667","307.0","KAUTOKEINO II, NO","FM-12","ENKA ","V020","270,1,N,0070,1","01200,1,9,N","030000,1,N,1","+0064,1","+0001,1","10060,1","12,0003,9,1",,,"6,1,06,1","2,1,06,1",,"08,99,1,08,1,00,1,01250,1,02,1,99,9",,"999,M,+0130,1","99999,9,09691,1","3,1,012,1,+999,9","61,1","SYN088AAXX  22181 01047 11680 82707 10064 20001 39691 40060 53012 69932 76162 8802/ 333 10130;",
"01047099999","2010-06-23T00:00:00","4","69.0166667","23.0666667","307.0","KAUTOKEINO II, NO","FM-12","ENKA ","V020","220,1,N,0050,1","01200,1,9,N","070000,1,N,1","+0056,1","+0000,1","10069,1",,,,"6,1,06,1","2,1,06,1",,"07,99,1,07,1,05,1,01250,1,00,1,00,1",,,"99999,9,09699,1","1,1,004,1,+999,9","02,1","SYN078AAXX  23001 01047 11688 72205 10056 21000 39699 40069 51004 6//// 70262 87500;",
"01047099999","2010-06-23T06:00:00","4","69.0166667","23.0666667","307.0","KAUTOKEINO II, NO","FM-12","ENKA ","V020","320,1,N,0050,1","00420,1,9,N","070000,1,N,1","+0085,1","+0025,1","10106,1","12,0000,2,1","24,0005,9,1",,"6,1,06,1","2,1,06,1",,"07,99,1,06,1,09,1,00450,1,04,1,00,1",,"999,N,+0055,1","99999,9,09739,1","2,1,012,1,+999,9","02,1","SYN094AAXX  23061 01047 11488 73205 10085 20025 39739 40106 52012 69912 70262 86940 333 20055 70004;",
"01047099999","2010-06-23T09:00:00","4","69.0166667","23.0666667","307.0","KAUTOKEINO II, NO","FM-12","ENKA ","V020","320,1,N,0050,1","01200,1,9,N","070000,1,N,1","+0110,1","+0021,1","10118,1",,,,"2,1,03,1","2,1,03,1",,"06,99,1,06,1,04,1,01250,1,00,1,00,1",,,"99999,9,09753,1","2,1,014,1,+999,9","02,1","SYN072AAXX  23091 01047 41688 63205 10110 20021 39753 40118 52014 70222 86400;",
"01047099999","2010-06-23T12:00:00","4","69.0166667","23.0666667","307.0","KAUTOKEINO II, NO","FM-12","ENKA ","V020","320,1,N,0070,1","01200,1,9,N","070000,1,N,1","+0110,1","+0004,1","10131,1",,,,"2,1,06,1","2,1,06,1",,"06,99,1,06,1,05,1,01250,1,00,1,00,1",,,"99999,9,09766,1","2,1,014,1,+999,9","02,1","SYN078AAXX  23121 01047 11688 63207 10110 20004 39766 40131 52014 6//// 70222 86500;",
"01047099999","2010-06-23T15:00:00","4","69.0166667","23.0666667","307.0","KAUTOKEINO II, NO","FM-12","ENKA ","V020","320,1,N,0070,1","01200,1,9,N","070000,1,N,1","+0122,1","+0015,1","10142,1",,,,"2,1,03,1","2,1,03,1",,"07,99,1,07,1,05,1,01250,1,00,1,00,1",,,"99999,9,09778,1","1,1,011,1,+999,9","02,1","SYN072AAXX  23151 01047 41688 73207 10122 20015 39778 40142 51011 70222 87500;",
"01047099999","2010-06-23T18:00:00","4","69.0166667","23.0666667","307.0","KAUTOKEINO II, NO","FM-12","ENKA ","V020","320,1,N,0010,1","01200,1,9,N","070000,1,N,1","+0110,1","+0010,1","10148,1","12,0000,9,1",,,"2,1,06,1","2,1,06,1",,"08,99,1,08,1,05,1,01250,1,99,9,99,9",,"999,M,+0132,1","99999,9,09783,1","1,1,005,1,+999,9","02,1","SYN088AAXX  23181 01047 11688 83201 10110 20010 39783 40148 51005 60002 70222 885// 333 10132;","Q01  00002PRCP12"
"01047099999","2010-06-24T00:00:00","4","69.0166667","23.0666667","307.0","KAUTOKEINO II, NO","FM-12","ENKA ","V020","999,9,C,0000,1","01500,1,9,N","070000,1,N,1","+0070,1","+0027,1","10161,1",,,,"2,1,06,1","2,1,06,1",,"06,99,1,06,1,00,1,01750,1,07,1,00,1",,,"99999,9,09789,1","1,1,005,1,+999,9","02,1","SYN078AAXX  24001 01047 11788 60000 10070 20027 39789 40161 51005 6//// 70222 86070;",
"01047099999","2010-06-24T06:00:00","4","69.0166667","23.0666667","307.0","KAUTOKEINO II, NO","FM-12","ENKA ","V020","999,9,C,0000,1","01500,1,9,N","070000,1,N,1","+0090,1","+0014,1","10153,1","12,0000,9,1","24,0000,9,1",,"2,1,06,1","2,1,06,1",,"07,99,1,07,1,00,1,01750,1,07,1,00,1",,"999,N,+0059,1","99999,9,09784,1","4,1,000,1,+999,9","02,1","SYN094AAXX  24061 01047 11788 70000 10090 20014 39784 40153 54000 60002 70222 87070 333 20059 70000;","Q01  00002PRCP24Q02  00002PRCP12"
"01047099999","2010-06-24T09:00:00","4","69.0166667","23.0666667","307.0","KAUTOKEINO II, NO","FM-12","ENKA ","V020","320,1,N,0010,1","01200,1,9,N","070000,1,N,1","+0123,1","+0019,1","10147,1",,,,"2,1,03,1","2,1,03,1",,"06,99,1,05,1,02,1,01250,1,00,1,05,1",,,"99999,9,09783,1","6,1,002,1,+999,9","02,1","SYN072AAXX  24091 01047 41688 63201 10123 20019 39783 40147 56002 70222 85205;",
"01047099999","2010-06-24T12:00:00","4","69.0166667","23.0666667","307.0","KAUTOKEINO II, NO","FM-12","ENKA ","V020","360,1,N,0050,1","01200,1,9,N","070000,1,N,1","+0130,1","+0007,1","10143,1",,,,"2,1,06,1","2,1,06,1",,"07,99,1,07,1,05,1,01250,1,00,1,00,1",,,"99999,9,09780,1","4,1,000,1,+999,9","02,1","SYN078AAXX  24121 01047 11688 73605 10130 20007 39780 40143 54000 6//// 70222 87500;",
"01047099999","2010-06-24T15:00:00","4","69.0166667","23.0666667","307.0","KAUTOKEINO II, NO","FM-12","ENKA ","V020","360,1,N,0050,1","01200,1,9,N","070000,1,N,1","+0138,1","+0015,1","10144,1",,,,"2,1,03,1","2,1,03,1",,"06,99,1,06,1,05,1,01250,1,00,1,00,1",,,"99999,9,09782,1","4,1,000,1,+999,9","02,1","SYN072AAXX  24151 01047 41688 63605 10138 20015 39782 40144 54000 70222 86500;",
"01047099999","2010-06-24T18:00:00","4","69.0166667","23.0666667","307.0","KAUTOKEINO II, NO","FM-12","ENKA ","V020","360,1,N,0030,1","22000,1,9,N","070000,1,N,1","+0128,1","+0015,1","10145,1","12,0000,9,1",,,"2,1,06,1","0,1,06,1",,"03,99,1,03,1,00,1,01750,1,04,1,00,1",,"999,M,+0138,1","99999,9,09782,1","4,1,000,1,+999,9","02,1","SYN088AAXX  24181 01047 11788 33603 10128 20015 39782 40145 54000 60002 70220 83040 333 10138;","Q01  00002PRCP12"
"01047099999","2010-06-25T00:00:00","4","69.0166667","23.0666667","307.0","KAUTOKEINO II, NO","FM-12","ENKA ","V020","360,1,N,0030,1","22000,1,9,N","070000,1,N,1","+0054,1","+0012,1","10160,1",,,,"0,1,06,1","0,1,06,1",,"02,99,1,00,1,00,1,99999,9,00,1,01,1",,,"99999,9,09786,1","1,1,004,1,+999,9","02,1","SYN078AAXX  25001 01047 11988 23603 10054 20012 39786 40160 51004 6//// 70200 80001;",
"01047099999","2010-06-25T06:00:00","4","69.0166667","23.0666667","307.0","KAUTOKEINO II, NO","FM-12","ENKA ","V020","180,1,N,0010,1","22000,1,9,N","070000,1,N,1","+0132,1","+0051,1","10120,1","12,0000,9,1","24,0000,9,1",,"0,1,06,1","0,1,06,1",,"03,99,1,00,1,00,1,99999,9,00,1,08,1",,"999,N,+0053,1","99999,9,09758,1","7,1,010,1,+999,9","02,1","SYN094AAXX  25061 01047 11988 31801 10132 20051 39758 40120 57010 60002 70200 80008 333 20053 70000;","Q01  00002PRCP24Q02  00002PRCP12"
"01047099999","2010-06-25T09:00:00","4","69.0166667","23.0666667","307.0","KAUTOKEINO II, NO","FM-12","ENKA ","V020","180,1,N,0050,1","22000,1,9,N","070000,1,N,1","+0182,1","+0070,1","10096,1",,,,"0,1,03,1","0,1,03,1",,"03,99,1,02,1,01,1,01250,1,00,1,01,1",,,"99999,9,09741,1","7,1,017,1,+999,9","02,1","SYN072AAXX  25091 01047 41688 31805 10182 20070 39741 40096 57017 70200 82101;",
"01047099999","2010-06-25T12:00:00","4","69.0166667","23.0666667","307.0","KAUTOKEINO II, NO","FM-12","ENKA ","V020","180,1,N,0070,1","01200,1,9,N","070000,1,N,1","+0206,1","+0069,1","10077,1",,,,"1,1,06,1","1,1,06,1",,"06,99,1,05,1,02,1,01250,1,00,1,01,1",,,"99999,9,09726,1","7,1,015,1,+999,9","02,1","SYN078AAXX  25121 01047 11688 61807 10206 20069 39726 40077 57015 6//// 70211 85201;",
"01047099999","2010-06-25T15:00:00","4","69.0166667","23.0666667","307.0","KAUTOKEINO II, NO","FM-12","ENKA ","V020","180,1,N,0070,1","07500,1,9,N","070000,1,N,1","+0200,1","+0080,1","10069,1",,,,"2,1,03,1","2,1,03,1",,"06,99,1,04,1,02,1,01250,1,00,1,08,1",,,"99999,9,09717,1","6,1,009,1,+999,9","02,1","SYN072AAXX  25151 01047 41688 61807 10200 20080 39717 40069 56009 70222 84208;",
"01047099999","2010-06-25T18:00:00","4","69.0166667","23.0666667","307.0","KAUTOKEINO II, NO","FM-12","ENKA ","V020","180,1,N,0050,1","01500,1,9,N","070000,1,N,1","+0186,1","+0074,1","10062,1","12,0000,9,1",,,"2,1,06,1","2,1,06,1",,"07,99,1,07,1,00,1,01750,1,09,1,00,1",,"999,M,+0212,1","99999,9,09709,1","7,1,008,1,+999,9","02,1","SYN088AAXX  25181 01047 11788 71805 10186 20074 39709 40062 57008 60002 70222 87090 333 10212;","Q01  00002PRCP12"
"01047099999","2010-06-26T00:00:00","4","69.0166667","23.0666667","307.0","KAUTOKEINO II, NO","FM-12","ENKA ","V020","999,9,C,0000,1","01500,1,9,N","070000,1,N,1","+0102,1","+0065,1","10056,1",,,,"2,1,06,1","2,1,06,1",,"05,99,1,05,1,00,1,01750,1,07,1,00,1",,,"99999,9,09693,1","7,1,008,1,+999,9","02,1","SYN078AAXX  26001 01047 11788 50000 10102 20065 39693 40056 57008 6//// 70222 85070;",
"01047099999","2010-06-26T06:00:00","4","69.0166667","23.0666667","307.0","KAUTOKEINO II, NO","FM-12","ENKA ","V020","180,1,N,0010,1","22000,1,9,N","070000,1,N,1","+0189,1","+0074,1","10021,1","12,0000,9,1","24,0000,9,1",,"1,1,06,1","0,1,06,1",,"04,99,1,04,1,00,1,01750,1,04,1,00,1",,"999,N,+0088,1","99999,9,09670,1","7,1,009,1,+999,9","02,1","SYN094AAXX  26061 01047 11788 41801 10189 20074 39670 40021 57009 60002 70210 84040 333 20088 70000;","Q01  00002PRCP24Q02  00002PRCP12"
"01047099999","2010-06-26T09:00:00","4","69.0166667","23.0666667","307.0","KAUTOKEINO II, NO","FM-12","ENKA ","V020","180,1,N,0030,1","99999,9,9,N","070000,1,N,1","+0212,1","+0081,1","10005,1",,,,"2,1,03,1","0,1,03,1",,"07,99,1,07,1,00,1,01250,1,09,1,00,1",,,"99999,9,09656,1","7,1,013,1,+999,9","03,1","SYN072AAXX  26091 01047 41688 71803 10212 20081 39656 40005 57013 70320 87090;",
"01047099999","2010-06-26T12:00:00","4","69.0166667","23.0666667","307.0","KAUTOKEINO II, NO","FM-12","ENKA ","V020","270,1,N,0050,1","00750,1,9,N","010000,1,N,1","+0140,1","+0086,1","10010,1",,,,"8,1,06,1","2,1,06,1",,"08,99,1,08,1,09,1,00800,1,99,9,99,9",,,"99999,9,09653,1","6,1,002,1,+999,9","81,1","SYN078AAXX  26121 01047 11560 82705 10140 20086 39653 40010 56002 6//// 78182 889//;",
"01047099999","2010-06-26T15:00:00","4","69.0166667","23.0666667","307.0","KAUTOKEINO II, NO","FM-12","ENKA ","V020","180,1,N,0030,1","00750,1,9,N","070000,1,N,1","+0150,1","+0123,1","10004,1",,,,"8,1,03,1","2,1,03,1",,"08,99,1,08,1,09,1,00800,1,99,9,99,9",,,"99999,9,09649,1","6,1,006,1,+999,9","25,1","SYN072AAXX  26151 01047 41588 81803 10150 20123 39649 40004 56006 72582 889//;",
"01047099999","2010-06-26T18:00:00","4","69.0166667","23.0666667","307.0","KAUTOKEINO II, NO","FM-12","ENKA ","V020","360,1,N,0030,1","00750,1,9,N","070000,1,N,1","+0142,1","+0121,1","09999,1","12,0010,9,1",,,"8,1,06,1","2,1,06,1",,"08,99,1,08,1,09,1,00800,1,99,9,99,9",,"999,M,+0215,1","99999,9,09642,1","7,1,006,1,+999,9","02,1","SYN088AAXX  26181 01047 11588 83603 10142 20121 39642 49999 57006 60012 70282 889// 333 10215;",
"01047099999","2010-06-27T00:00:00","4","69.0166667","23.0666667","307.0","KAUTOKEINO II, NO","FM-12","ENKA ","V020","360,1,N,0070,1","00750,1,9,N","006000,1,N,1","+0074,1","+0059,1","10026,1",,,,"6,1,06,1","2,1,06,1",,"08,99,1,06,1,07,1,00800,1,02,1,99,9",,,"99999,9,09660,1","3,1,012,1,+999,9","63,1","SYN078AAXX  27001 01047 11556 83607 10074 20059 39660 40026 53012 6//// 76362 8672/;",
"01047099999","2010-06-27T06:00:00","4","69.0166667","23.0666667","307.0","KAUTOKEINO II, NO","FM-12","ENKA ","V020","360,1,N,0050,1","00750,1,9,N","015000,1,N,1","+0064,1","+0039,1","10035,1","12,0239,9,1","24,0251,9,1",,"6,1,06,1","2,1,06,1",,"08,99,1,07,1,07,1,00800,1,02,1,99,9",,"999,N,+0051,1","99999,9,09667,1","1,1,004,1,+999,9","63,1","SYN094AAXX  27061 01047 11565 83605 10064 20039 39667 40035 51004 60242 76362 8772/ 333 20051 70252;",
"01047099999","2010-06-27T09:00:00","4","69.0166667","23.0666667","307.0","KAUTOKEINO II, NO","FM-12","ENKA ","V020","360,1,N,0070,1","00750,1,9,N","070000,1,N,1","+0079,1","+0013,1","10055,1",,,,"6,1,03,1","2,1,03,1",,"08,99,1,08,1,07,1,00800,1,99,9,99,9",,,"99999,9,09689,1","3,1,007,1,+999,9","21,1","SYN072AAXX  27091 01047 41588 83607 10079 20013 39689 40055 53007 72162 887//;",
"01047099999","2010-06-27T12:00:00","4","69.0166667","23.0666667","307.0","KAUTOKEINO II, NO","FM-12","ENKA ","V020","340,1,N,0100,1","00750,1,9,N","070000,1,N,1","+0090,1","+0012,1","10061,1",,,,"2,1,06,1","2,1,06,1",,"08,99,1,05,1,05,1,00800,1,02,1,99,9",,,"99999,9,09696,1","2,1,007,1,+999,9","02,1","SYN078AAXX  27121 01047 11588 83410 10090 20012 39696 40061 52007 6//// 70222 8552/;",
"01047099999","2010-06-27T15:00:00","4","69.0166667","23.0666667","307.0","KAUTOKEINO II, NO","FM-12","ENKA ","V020","340,1,N,0070,1","03000,1,9,N","070000,1,N,1","+0088,1","+0013,1","10061,1",,,,"2,1,03,1","2,1,03,1",,"08,99,1,04,1,05,1,00800,1,02,1,99,9",,,"99999,9,09696,1","4,1,000,1,+999,9","02,1","SYN072AAXX  27151 01047 41588 83407 10088 20013 39696 40061 54000 70222 8452/;",
"01047099999","2010-06-27T18:00:00","4","69.0166667","23.0666667","307.0","KAUTOKEINO II, NO","FM-12","ENKA ","V020","340,1,N,0070,1","01200,1,9,N","030000,1,N,1","+0070,1","+0019,1","10068,1","12,0000,2,1",,,"6,1,06,1","2,1,06,1",,"08,99,1,08,1,00,1,01250,1,02,1,99,9",,"999,M,+0095,1","99999,9,09700,1","2,1,004,1,+999,9","61,1","SYN088AAXX  27181 01047 11680 83407 10070 20019 39700 40068 52004 69922 76162 8802/ 333 10095;",
"01047099999","2010-06-28T00:00:00","4","69.0166667","23.0666667","307.0","KAUTOKEINO II, NO","FM-12","ENKA ","V020","340,1,N,0050,1","00750,1,9,N","030000,1,N,1","+0048,1","+0023,1","10076,1",,,,"6,1,06,1","2,1,06,1",,"08,99,1,06,1,07,1,00800,1,02,1,99,9",,,"99999,9,09705,1","4,1,000,1,+999,9","61,1","SYN078AAXX  28001 01047 11580 83405 10048 20023 39705 40076 54000 6//// 76162 8672/;",
"01047099999","2010-06-28T06:00:00","4","69.0166667","23.0666667","307.0","KAUTOKEINO II, NO","FM-12","ENKA ","V020","340,1,N,0030,1","00750,1,9,N","065000,1,N,1","+0075,1","+0032,1","10110,1","12,0030,9,2","24,0028,9,2",,"6,1,06,1","2,1,06,1",,"08,99,1,06,1,05,1,00800,1,02,1,99,9",,"999,N,+0041,1","99999,9,09741,1","2,1,012,1,+999,9","02,1","SYN094AAXX  28061 01047 11587 83403 10075 20032 39741 40110 52012 60032 70262 8652/ 333 20041 70028;",
"01047099999","2010-06-28T09:00:00","4","69.0166667","23.0666667","307.0","KAUTOKEINO II, NO","FM-12","ENKA ","V020","320,1,N,0070,1","00750,1,9,N","070000,1,N,1","+0096,1","+0036,1","10128,1",,,,"2,1,03,1","2,1,03,1",,"08,99,1,08,1,05,1,00800,1,99,9,99,9",,,"99999,9,09762,1","3,1,020,1,+999,9","02,1","SYN072AAXX  28091 01047 41588 83207 10096 20036 39762 40128 53020 70222 885//;",
"01047099999","2010-06-28T12:00:00","4","69.0166667","23.0666667","307.0","KAUTOKEINO II, NO","FM-12","ENKA ","V020","320,1,N,0070,1","00750,1,9,N","070000,1,N,1","+0104,1","+0032,1","10141,1",,,,"2,1,06,1","2,1,06,1",,"07,99,1,07,1,05,1,00800,1,00,1,00,1",,,"99999,9,09775,1","1,1,013,1,+999,9","02,1","SYN078AAXX  28121 01047 11588 73207 10104 20032 39775 40141 51013 6//// 70222 87500;",
"01047099999","2010-06-28T15:00:00","4","69.0166667","23.0666667","307.0","KAUTOKEINO II, NO","FM-12","ENKA ","V020","320,1,N,0070,1","00750,1,9,N","070000,1,N,1","+0102,1","+0026,1","10153,1",,,,"2,1,03,1","2,1,03,1",,"08,99,1,08,1,05,1,00800,1,99,9,99,9",,,"99999,9,09786,1","1,1,011,1,+999,9","02,1","SYN072AAXX  28151 01047 41588 83207 10102 20026 39786 40153 51011 70222 885//;",
"01047099999","2010-06-28T18:00:00","4","69.0166667","23.0666667","307.0","KAUTOKEINO II, NO","FM-12","ENKA ","V020","360,1,N,0050,1","00750,1,9,N","070000,1,N,1","+0098,1","+0029,1","10159,1","12,0000,9,1",,,"2,1,06,1","2,1,06,1",,"08,99,1,08,1,05,1,00800,1,99,9,99,9",,"999,M,+0106,1","99999,9,09791,1","1,1,005,1,+999,9","02,1","SYN088AAXX  28181 01047 11588 83605 10098 20029 39791 40159 51005 60002 70222 885// 333 10106;","Q01  00002PRCP12"
"01047099999","2010-06-29T00:00:00","4","69.0166667","23.0666667","307.0","KAUTOKEINO II, NO","FM-12","ENKA ","V020","360,1,N,0030,1","00750,1,9,N","070000,1,N,1","+0076,1","+0038,1","10171,1",,,,"2,1,06,1","2,1,06,1",,"08,99,1,08,1,05,1,00800,1,99,9,99,9",,,"99999,9,09800,1","2,1,005,1,+999,9","02,1","SYN078AAXX  29001 01047 11588 83603 10076 20038 39800 40171 52005 6//// 70222 885//;",
"01047099999","2010-06-29T06:00:00","4","69.0166667","23.0666667","307.0","KAUTOKEINO II, NO","FM-12","ENKA ","V020","999,9,C,0000,1","00750,1,9,N","070000,1,N,1","+0093,1","+0033,1","10172,1","12,0000,9,1","24,0000,9,1",,"2,1,06,1","2,1,06,1",,"08,99,1,08,1,05,1,00800,1,99,9,99,9",,"999,N,+0074,1","99999,9,09803,1","4,1,000,1,+999,9","02,1","SYN094AAXX  29061 01047 11588 80000 10093 20033 39803 40172 54000 60002 70222 885// 333 20074 70000;","Q01  00002PRCP24Q02  00002PRCP12"
"01047099999","2010-06-29T09:00:00","4","69.0166667","23.0666667","307.0","KAUTOKEINO II, NO","FM-12","ENKA ","V020","140,1,N,0030,1","01200,1,9,N","070000,1,N,1","+0110,1","+0033,1","10170,1",,,,"2,1,03,1","2,1,03,1",,"08,99,1,08,1,05,1,01250,1,99,9,99,9",,,"99999,9,09803,1","4,1,000,1,+999,9","02,1","SYN072AAXX  29091 01047 41688 81403 10110 20033 39803 40170 54000 70222 885//;",
"01047099999","2010-06-29T12:00:00","4","69.0166667","23.0666667","307.0","KAUTOKEINO II, NO","FM-12","ENKA ","V020","140,1,N,0030,1","01200,1,9,N","070000,1,N,1","+0140,1","+0035,1","10159,1",,,,"2,1,06,1","2,1,06,1",,"08,99,1,08,1,05,1,01250,1,99,9,99,9",,,"99999,9,09797,1","7,1,007,1,+999,9","02,1","SYN078AAXX  29121 01047 11688 81403 10140 20035 39797 40159 57007 6//// 70222 885//;",
"01047099999","2010-06-29T15:00:00","4","69.0166667","23.0666667","307.0","KAUTOKEINO II, NO","FM-12","ENKA ","V020","180,1,N,0050,1","07500,1,9,N","070000,1,N,1","+0170,1","+0044,1","10146,1",,,,"2,1,03,1","2,1,03,1",,"06,99,1,04,1,02,1,01250,1,00,1,08,1",,,"99999,9,09787,1","7,1,009,1,+999,9","02,1","SYN072AAXX  29151 01047 41688 61805 10170 20044 39787 40146 57009 70222 84208;",
"01047099999","2010-06-29T18:00:00","4","69.0166667","23.0666667","307.0","KAUTOKEINO II, NO","FM-12","ENKA ","V020","180,1,N,0050,1","01200,1,9,N","070000,1,N,1","+0164,1","+0048,1","10136,1","12,0000,9,1",,,"2,1,06,1","2,1,06,1",,"06,99,1,06,1,05,1,01250,1,00,1,00,1",,"999,M,+0175,1","99999,9,09778,1","7,1,010,1,+999,9","02,1","SYN088AAXX  29181 01047 11688 61805 10164 20048 39778 40136 57010 60002 70222 86500 333 10175;","Q01  00002PRCP12"
"01047099999","2010-06-30T00:00:00","4","69.0166667","23.0666667","307.0","KAUTOKEINO II, NO","FM-12","ENKA ","V020","360,1,N,0050,1","01500,1,9,N","070000,1,N,1","+0090,1","+0046,1","10149,1",,,,"2,1,06,1","2,1,06,1",,"06,99,1,06,1,00,1,01750,1,07,1,00,1",,,"99999,9,09781,1","4,1,000,1,+999,9","02,1","SYN078AAXX  30001 01047 11788 63605 10090 20046 39781 40149 54000 6//// 70222 86070;",
"01047099999","2010-06-30T06:00:00","4","69.0166667","23.0666667","307.0","KAUTOKEINO II, NO","FM-12","ENKA ","V020","360,1,N,0010,1","00750,1,9,N","070000,1,N,1","+0100,1","+0062,1","10136,1","12,0000,9,1","24,0000,9,1",,"2,1,06,1","2,1,06,1",,"08,99,1,08,1,05,1,00800,1,99,9,99,9",,"999,N,+0074,1","99999,9,09769,1","7,1,006,1,+999,9","02,1","SYN094AAXX  30061 01047 11588 83601 10100 20062 39769 40136 57006 60002 70222 885// 333 20074 70000;","Q01  00002PRCP24Q02  00002PRCP12"
"01047099999","2010-06-30T09:00:00","4","69.0166667","23.0666667","307.0","KAUTOKEINO II, NO","FM-12","ENKA ","V020","360,1,N,0050,1","01500,1,9,N","070000,1,N,1","+0126,1","+0081,1","10124,1",,,,"2,1,03,1","2,1,03,1",,"08,99,1,08,1,00,1,01750,1,07,1,99,9",,,"99999,9,09761,1","7,1,008,1,+999,9","02,1","SYN072AAXX  30091 01047 41788 83605 10126 20081 39761 40124 57008 70222 8807/;",
"01047099999","2010-06-30T12:00:00","4","69.0166667","23.0666667","307.0","KAUTOKEINO II, NO","FM-12","ENKA ","V020","360,1,N,0050,1","00750,1,9,N","070000,1,N,1","+0168,1","+0095,1","10107,1",,,,"2,1,06,1","2,1,06,1",,"08,99,1,08,1,09,1,00800,1,99,9,99,9",,,"99999,9,09750,1","7,1,012,1,+999,9","02,1","SYN078AAXX  30121 01047 11588 83605 10168 20095 39750 40107 57012 6//// 70222 889//;",
"01047099999","2010-06-30T15:00:00","4","69.0166667","23.0666667","307.0","KAUTOKEINO II, NO","FM-12","ENKA ","V020","140,1,N,0030,1","00750,1,9,N","040000,1,N,1","+0138,1","+0122,1","10110,1",,,,"8,1,03,1","6,1,03,1",,"08,99,1,06,1,07,1,00800,1,02,1,99,9",,,"99999,9,09749,1","4,1,000,1,+999,9","61,1","SYN072AAXX  30151 01047 41582 81403 10138 20122 39749 40110 54000 76186 8672/;",
"01047099999","2010-06-30T18:00:00","4","69.0166667","23.0666667","307.0","KAUTOKEINO II, NO","FM-12","ENKA ","V020","999,9,C,0000,1","00750,1,9,N","065000,1,N,1","+0142,1","+0119,1","10106,1","12,0071,9,1",,,"8,1,06,1","2,1,06,1",,"08,99,1,08,1,07,1,00800,1,99,9,99,9",,"999,M,+0169,1","99999,9,09746,1","6,1,004,1,+999,9","02,1","SYN088AAXX  30181 01047 11587 80000 10142 20119 39746 40106 56004 60072 70282 887// 333 10169;",
"01047099999","2010-07-01T00:00:00","4","69.0166667","23.0666667","307.0","KAUTOKEINO II, NO","FM-12","ENKA ","V020","050,1,N,0030,1","00750,1,9,N","030000,1,N,1","+0118,1","+0104,1","10098,1",,,,"8,1,06,1","2,1,06,1",,"08,99,1,08,1,09,1,00800,1,99,9,99,9",,,"99999,9,09735,1","7,1,005,1,+999,9","02,1","SYN078AAXX  01001 01047 11580 80503 10118 20104 39735 40098 57005 6//// 70282 889//;",
"01047099999","2010-07-01T06:00:00","4","69.0166667","23.0666667","307.0","KAUTOKEINO II, NO","FM-12","ENKA ","V020","050,1,N,0050,1","03000,1,9,N","040000,1,N,1","+0103,1","+0087,1","10102,1","12,0003,9,1","24,0069,9,1",,"8,1,06,1","2,1,06,1",,"08,99,1,04,1,05,1,00800,1,02,1,99,9",,"999,N,+0101,1","99999,9,09737,1","4,1,000,1,+999,9","02,1","SYN094AAXX  01061 01047 11582 80505 10103 20087 39737 40102 54000 69932 70282 8452/ 333 20101 70069;",
"01047099999","2010-07-01T09:00:00","4","69.0166667","23.0666667","307.0","KAUTOKEINO II, NO","FM-12","ENKA ","V020","360,1,N,0050,1","00750,1,9,N","030000,1,N,1","+0112,1","+0095,1","10104,1",,,,"6,1,03,1","2,1,03,1",,"08,99,1,06,1,07,1,00800,1,02,1,99,9",,,"99999,9,09740,1","1,1,003,1,+999,9","60,1","SYN072AAXX  01091 01047 41580 83605 10112 20095 39740 40104 51003 76062 8672/;",
"01047099999","2010-07-01T12:00:00","4","69.0166667","23.0666667","307.0","KAUTOKEINO II, NO","FM-12","ENKA ","V020","360,1,N,0050,1","00750,1,9,N","070000,1,N,1","+0125,1","+0070,1","10103,1",,,,"6,1,06,1","2,1,06,1",,"08,99,1,05,1,05,1,00800,1,02,1,99,9",,,"99999,9,09740,1","4,1,000,1,+999,9","02,1","SYN078AAXX  01121 01047 11588 83605 10125 20070 39740 40103 54000 6//// 70262 8552/;",
"01047099999","2010-07-01T15:00:00","4","69.0166667","23.0666667","307.0","KAUTOKEINO II, NO","FM-12","ENKA ","V020","360,1,N,0030,1","00750,1,9,N","070000,1,N,1","+0130,1","+0070,1","10106,1",,,,"2,1,03,1","2,1,03,1",,"08,99,1,08,1,09,1,00800,1,99,9,99,9",,,"99999,9,09744,1","2,1,004,1,+999,9","02,1","SYN072AAXX  01151 01047 41588 83603 10130 20070 39744 40106 52004 70222 889//;",
"01047099999","2010-07-01T18:00:00","4","69.0166667","23.0666667","307.0","KAUTOKEINO II, NO","FM-12","ENKA ","V020","360,1,N,0070,1","00750,1,9,N","070000,1,N,1","+0124,1","+0060,1","10111,1","12,0000,2,1",,,"2,1,06,1","2,1,06,1",,"08,99,1,08,1,09,1,00800,1,99,9,99,9",,"999,M,+0135,1","99999,9,09749,1","2,1,004,1,+999,9","02,1","SYN088AAXX  01181 01047 11588 83607 10124 20060 39749 40111 52004 60002 70222 889// 333 10135;",
"01047099999","2010-07-02T00:00:00","4","69.0166667","23.0666667","307.0","KAUTOKEINO II, NO","FM-12","ENKA ","V020","320,1,N,0050,1","00750,1,9,N","070000,1,N,1","+0078,1","+0053,1","10142,1",,,,"2,1,06,1","2,1,06,1",,"08,99,1,08,1,05,1,00800,1,99,9,99,9",,,"99999,9,09772,1","2,1,008,1,+999,9","02,1","SYN078AAXX  02001 01047 11588 83205 10078 20053 39772 40142 52008 6//// 70222 885//;",
"01047099999","2010-07-02T06:00:00","4","69.0166667","23.0666667","307.0","KAUTOKEINO II, NO","FM-12","ENKA ","V020","320,1,N,0050,1","00750,1,9,N","070000,1,N,1","+0076,1","+0031,1","10160,1","12,0000,9,1","24,0000,2,1",,"2,1,06,1","2,1,06,1",,"08,99,1,05,1,05,1,00800,1,02,1,99,9",,"999,N,+0071,1","99999,9,09789,1","2,1,007,1,+999,9","02,1","SYN094AAXX  02061 01047 11588 83205 10076 20031 39789 40160 52007 60002 70222 8552/ 333 20071 70000;","Q01  00002PRCP12"
"01047099999","2010-07-02T09:00:00","4","69.0166667","23.0666667","307.0","KAUTOKEINO II, NO","FM-12","ENKA ","V020","320,1,N,0050,1","00750,1,9,N","070000,1,N,1","+0092,1","+0021,1","10168,1",,,,"2,1,03,1","2,1,03,1",,"08,99,1,08,1,05,1,00800,1,99,9,99,9",,,"99999,9,09799,1","2,1,010,1,+999,9","02,1","SYN072AAXX  02091 01047 41588 83205 10092 20021 39799 40168 52010 70222 885//;",
"01047099999","2010-07-02T12:00:00","4","69.0166667","23.0666667","307.0","KAUTOKEINO II, NO","FM-12","ENKA ","V020","360,1,N,0070,1","01200,1,9,N","070000,1,N,1","+0120,1","+0025,1","10167,1",,,,"2,1,06,1","2,1,06,1",,"05,99,1,05,1,02,1,01250,1,00,1,00,1",,,"99999,9,09802,1","1,1,002,1,+999,9","02,1","SYN078AAXX  02121 01047 11688 53607 10120 20025 39802 40167 51002 6//// 70222 85200;",
"01047099999","2010-07-02T15:00:00","4","69.0166667","23.0666667","307.0","KAUTOKEINO II, NO","FM-12","ENKA ","V020","360,1,N,0050,1","22000,1,9,N","070000,1,N,1","+0130,1","+0023,1","10160,1",,,,"2,1,03,1","2,1,03,1",,"02,99,1,02,1,02,1,01250,1,00,1,00,1",,,"99999,9,09796,1","8,1,006,1,+999,9","01,1","SYN072AAXX  02151 01047 41688 23605 10130 20023 39796 40160 58006 70122 82200;",
"01047099999","2010-07-02T18:00:00","4","69.0166667","23.0666667","307.0","KAUTOKEINO II, NO","FM-12","ENKA ","V020","360,1,N,0050,1","01500,1,9,N","070000,1,N,1","+0128,1","+0021,1","10161,1","12,0000,9,1",,,"1,1,06,1","1,1,06,1",,"05,99,1,05,1,00,1,01750,1,07,1,00,1",,"999,M,+0135,1","99999,9,09797,1","4,1,000,1,+999,9","02,1","SYN088AAXX  02181 01047 11788 53605 10128 20021 39797 40161 54000 60002 70211 85070 333 10135;","Q01  00002PRCP12"
"01047099999","2010-07-03T00:00:00","4","69.0166667","23.0666667","307.0","KAUTOKEINO II, NO","FM-12","ENKA ","V020","140,1,N,0050,1","01200,1,9,N","070000,1,N,1","+0078,1","+0046,1","10153,1",,,,"2,1,06,1","2,1,06,1",,"08,99,1,08,1,05,1,01250,1,99,9,99,9",,,"99999,9,09783,1","7,1,005,1,+999,9","02,1","SYN078AAXX  03001 01047 11688 81405 10078 20046 39783 40153 57005 6//// 70222 885//;",
"01047099999","2010-07-03T06:00:00","4","69.0166667","23.0666667","307.0","KAUTOKEINO II, NO","FM-12","ENKA ","V020","140,1,N,0030,1","01200,1,9,N","070000,1,N,1","+0131,1","+0067,1","10113,1","12,0000,9,1","24,0000,9,1",,"2,1,06,1","2,1,06,1",,"07,99,1,07,1,05,1,01250,1,00,1,00,1",,"999,N,+0073,1","99999,9,09751,1","7,1,008,1,+999,9","02,1","SYN094AAXX  03061 01047 11688 71403 10131 20067 39751 40113 57008 60002 70222 87500 333 20073 70000;","Q01  00002PRCP24Q02  00002PRCP12"
"01047099999","2010-07-03T09:00:00","4","69.0166667","23.0666667","307.0","KAUTOKEINO II, NO","FM-12","ENKA ","V020","140,1,N,0030,1","01500,1,9,N","070000,1,N,1","+0153,1","+0085,1","10111,1",,,,"2,1,03,1","2,1,03,1",,"08,99,1,08,1,00,1,01750,1,07,1,99,9",,,"99999,9,09752,1","4,1,000,1,+999,9","02,1","SYN072AAXX  03091 01047 41788 81403 10153 20085 39752 40111 54000 70222 8807/;",
"01047099999","2010-07-03T12:00:00","4","69.0166667","23.0666667","307.0","KAUTOKEINO II, NO","FM-12","ENKA ","V020","340,1,N,0050,1","03000,1,9,N","070000,1,N,1","+0208,1","+0078,1","10106,1",,,,"2,1,06,1","2,1,06,1",,"06,99,1,03,1,02,1,01250,1,09,1,00,1",,,"99999,9,09753,1","4,1,000,1,+999,9","02,1","SYN078AAXX  03121 01047 11688 63405 10208 20078 39753 40106 54000 6//// 70222 83290;",
"01047099999","2010-07-03T15:00:00","4","69.0166667","23.0666667","307.0","KAUTOKEINO II, NO","FM-12","ENKA ","V020","320,1,N,0010,1","99999,9,9,N","070000,1,N,1","+0206,1","+0062,1","10109,1",,,,"2,1,03,1","2,1,03,1",,"07,99,1,07,1,00,1,01250,1,07,1,00,1",,,"99999,9,09756,1","2,1,003,1,+999,9","02,1","SYN072AAXX  03151 01047 41688 73201 10206 20062 39756 40109 52003 70222 87070;",
"01047099999","2010-07-03T18:00:00","4","69.0166667","23.0666667","307.0","KAUTOKEINO II, NO","FM-12","ENKA ","V020","360,1,N,0050,1","01200,1,9,N","070000,1,N,1","+0182,1","+0070,1","10119,1","12,0000,9,1",,,"2,1,06,1","2,1,06,1",,"06,99,1,06,1,05,1,01250,1,00,1,00,1",,"999,M,+0215,1","99999,9,09763,1","2,1,006,1,+999,9","02,1","SYN088AAXX  03181 01047 11688 63605 10182 20070 39763 40119 52006 60002 70222 86500 333 10215;","Q01  00002PRCP12"
"01047099999","2010-07-04T00:00:00","4","69.0166667","23.0666667","307.0","KAUTOKEINO II, NO","FM-12","ENKA ","V020","360,1,N,0010,1","22000,1,9,N","070000,1,N,1","+0088,1","+0063,1","10146,1",,,,"2,1,06,1","2,1,06,1",,"04,99,1,04,1,00,1,01750,1,07,1,00,1",,,"99999,9,09777,1","2,1,005,1,+999,9","02,1","SYN078AAXX  04001 01047 11788 43601 10088 20063 39777 40146 52005 6//// 70222 84070;",
"01047099999","2010-07-04T06:00:00","4","69.0166667","23.0666667","307.0","KAUTOKEINO II, NO","FM-12","ENKA ","V020","999,9,C,0000,1","03000,1,9,N","070000,1,N,1","+0130,1","+0087,1","10144,1","12,0000,9,1","24,0000,9,1",,"2,1,06,1","1,1,06,1",,"07,99,1,02,1,04,1,01250,1,07,1,00,1",,"999,N,+0079,1","99999,9,09781,1","4,1,000,1,+999,9","03,1","SYN094AAXX  04061 01047 11688 70000 10130 20087 39781 40144 54000 60002 70321 82470 333 20079 70000;","Q01  00002PRCP24Q02  00002PRCP12"
"01047099999","2010-07-04T09:00:00","4","69.0166667","23.0666667","307.0","KAUTOKEINO II, NO","FM-12","ENKA ","V020","999,9,C,0000,1","01500,1,9,N","070000,1,N,1","+0172,1","+0103,1","10133,1",,,,"2,1,03,1","2,1,03,1",,"06,99,1,05,1,00,1,01750,1,09,1,08,1",,,"99999,9,09775,1","8,1,005,1,+999,9","02,1","SYN072AAXX  04091 01047 41788 60000 10172 20103 39775 40133 58005 70222 85098;",
"01047099999","2010-07-04T12:00:00","4","69.0166667","23.0666667","307.0","KAUTOKEINO II, NO","FM-12","ENKA ","V020","180,1,N,0050,1","00750,1,9,N","070000,1,N,1","+0202,1","+0098,1","10117,1",,,,"2,1,06,1","2,1,06,1",,"08,99,1,08,1,09,1,00800,1,99,9,99,9",,,"99999,9,09763,1","7,1,012,1,+999,9","02,1","SYN078AAXX  04121 01047 11588 81805 10202 20098 39763 40117 57012 6//// 70222 889//;",
"01047099999","2010-07-04T15:00:00","4","69.0166667","23.0666667","307.0","KAUTOKEINO II, NO","FM-12","ENKA ","V020","180,1,N,0050,1","00750,1,9,N","040000,1,N,1","+0154,1","+0136,1","10120,1",,,,"8,1,03,1","2,1,03,1",,"08,99,1,08,1,09,1,00800,1,99,9,99,9",,,"99999,9,09760,1","6,1,003,1,+999,9","80,1","SYN072AAXX  04151 01047 41582 81805 10154 20136 39760 40120 56003 78082 889//;",
"01047099999","2010-07-04T18:00:00","4","69.0166667","23.0666667","307.0","KAUTOKEINO II, NO","FM-12","ENKA ","V020","180,1,N,0050,1","00750,1,9,N","030000,1,N,1","+0144,1","+0128,1","10114,1","12,0041,9,1",,,"8,1,06,1","6,1,06,1",,"08,99,1,06,1,07,1,00800,1,02,1,99,9",,"999,M,+0210,1","99999,9,09753,1","8,1,007,1,+999,9","61,1","SYN088AAXX  04181 01047 11580 81805 10144 20128 39753 40114 58007 60042 76186 8672/ 333 10210;",
"01047099999","2010-07-05T00:00:00","4","69.0166667","23.0666667","307.0","KAUTOKEINO II, NO","FM-12","ENKA ","V020","360,1,N,0030,1","00750,1,9,N","030000,1,N,1","+0128,1","+0112,1","10121,1",,,,"6,1,06,1","2,1,06,1",,"08,99,1,06,1,07,1,00800,1,02,1,99,9",,,"99999,9,09758,1","4,1,000,1,+999,9","02,1","SYN078AAXX  05001 01047 11580 83603 10128 20112 39758 40121 54000 6//// 70262 8672/;",
"01047099999","2010-07-05T06:00:00","4","69.0166667","23.0666667","307.0","KAUTOKEINO II, NO","FM-12","ENKA ","V020","360,1,N,0030,1","00750,1,9,N","055000,1,N,1","+0130,1","+0102,1","10115,1","12,0020,9,1","24,0056,9,1",,"6,1,06,1","2,1,06,1",,"08,99,1,08,1,07,1,00800,1,99,9,99,9",,"999,N,+0124,1","99999,9,09753,1","8,1,004,1,+999,9","02,1","SYN094AAXX  05061 01047 11585 83603 10130 20102 39753 40115 58004 60022 70262 887// 333 20124 70055;",
"01047099999","2010-07-05T09:00:00","4","69.0166667","23.0666667","307.0","KAUTOKEINO II, NO","FM-12","ENKA ","V020","360,1,N,0050,1","00750,1,9,N","070000,1,N,1","+0151,1","+0111,1","10097,1",,,,"2,1,03,1","2,1,03,1",,"08,99,1,08,1,05,1,00800,1,99,9,99,9",,,"99999,9,09738,1","7,1,014,1,+999,9","02,1","SYN072AAXX  05091 01047 41588 83605 10151 20111 39738 40097 57014 70222 885//;",
"01047099999","2010-07-05T12:00:00","4","69.0166667","23.0666667","307.0","KAUTOKEINO II, NO","FM-12","ENKA ","V020","090,1,N,0050,1","00750,1,9,N","070000,1,N,1","+0180,1","+0113,1","10070,1",,,,"2,1,06,1","2,1,06,1",,"08,99,1,08,1,05,1,00800,1,99,9,99,9",,,"99999,9,09715,1","8,1,023,1,+999,9","02,1","SYN078AAXX  05121 01047 11588 80905 10180 20113 39715 40070 58023 6//// 70222 885//;",
"01047099999","2010-07-05T15:00:00","4","69.0166667","23.0666667","307.0","KAUTOKEINO II, NO","FM-12","ENKA ","V020","160,1,N,0070,1","00750,1,9,N","070000,1,N,1","+0176,1","+0149,1","10049,1",,,,"8,1,03,1","2,1,03,1",,"08,99,1,08,1,09,1,00800,1,99,9,99,9",,,"99999,9,09695,1","6,1,020,1,+999,9","02,1","SYN072AAXX  05151 01047 41588 81607 10176 20149 39695 40049 56020 70282 889//;",
"01047099999","2010-07-05T18:00:00","4","69.0166667","23.0666667","307.0","KAUTOKEINO II, NO","FM-12","ENKA ","V020","160,1,N,0070,1","00750,1,9,N","070000,1,N,1","+0180,1","+0145,1","10038,1","12,0010,9,1",,,"8,1,06,1","2,1,06,1",,"08,99,1,08,1,09,1,00800,1,99,9,99,9",,"999,M,+0185,1","99999,9,09685,1","6,1,011,1,+999,9","02,1","SYN088AAXX  05181 01047 11588 81607 10180 20145 39685 40038 56011 60012 70282 889// 333 10185;",
"01047099999","2010-07-06T00:00:00","4","69.0166667","23.0666667","307.0","KAUTOKEINO II, NO","FM-12","ENKA ","V020","999,9,C,0000,1","00015,1,9,N","000000,1,N,1","+0110,1","+0096,1","10053,1",,,,"8,1,06,1","4,1,06,1","09,1,+99999,9,99,9","09,99,1,09,1,99,9,99999,9,99,9,99,9",,,"99999,9,09691,1","2,1,005,1,+999,9","46,1","SYN072AAXX  06001 01047 11/00 90000 10110 20096 39691 40053 52005 6//// 74684;",
"01047099999","2010-07-06T06:00:00","4","69.0166667","23.0666667","307.0","KAUTOKEINO II, NO","FM-12","ENKA ","V020","360,1,N,0030,1","22000,1,9,N","070000,1,N,1","+0173,1","+0111,1","10057,1","12,0041,9,1","24,0046,9,1",,"8,1,06,1","4,1,06,1",,"04,99,1,03,1,01,1,01250,1,00,1,05,1",,"999,N,+0097,1","99999,9,09702,1","1,1,003,1,+999,9","02,1","SYN094AAXX  06061 01047 11688 43603 10173 20111 39702 40057 51003 60042 70284 83105 333 20097 70045;",
"01047099999","2010-07-06T09:00:00","4","69.0166667","23.0666667","307.0","KAUTOKEINO II, NO","FM-12","ENKA ","V020","360,1,N,0050,1","03000,1,9,N","070000,1,N,1","+0172,1","+0106,1","10067,1",,,,"2,1,03,1","2,1,03,1",,"06,99,1,04,1,02,1,01250,1,09,1,00,1",,,"99999,9,09711,1","2,1,009,1,+999,9","03,1","SYN072AAXX  06091 01047 41688 63605 10172 20106 39711 40067 52009 70322 84290;",
"01047099999","2010-07-06T12:00:00","4","69.0166667","23.0666667","307.0","KAUTOKEINO II, NO","FM-12","ENKA ","V020","270,1,N,0100,1","00750,1,9,N","000400,1,N,1","+0176,1","+0107,1","10070,1",,,,"9,1,06,1","8,1,06,1",,"08,99,1,08,1,09,1,00800,1,99,9,99,9",,,"99999,9,09715,1","1,1,004,1,+999,9","82,1","SYN078AAXX  06121 01047 11504 82710 10176 20107 39715 40070 51004 6//// 78298 889//;",
"01047099999","2010-07-06T15:00:00","4","69.0166667","23.0666667","307.0","KAUTOKEINO II, NO","FM-12","ENKA ","V020","360,1,N,0070,1","03000,1,9,N","070000,1,N,1","+0174,1","+0119,1","10072,1",,,,"9,1,03,1","8,1,03,1",,"06,99,1,03,1,02,1,01250,1,09,1,00,1",,,"99999,9,09717,1","4,1,000,1,+999,9","02,1","SYN072AAXX  06151 01047 41688 63607 10174 20119 39717 40072 54000 70298 83290;",
"01047099999","2010-07-06T18:00:00","4","69.0166667","23.0666667","307.0","KAUTOKEINO II, NO","FM-12","ENKA ","V020","360,1,N,0050,1","22000,1,9,N","070000,1,N,1","+0164,1","+0118,1","10084,1","12,0071,9,1",,,"8,1,06,1","2,1,06,1",,"04,99,1,03,1,03,1,01250,1,04,1,00,1",,"999,M,+0188,1","99999,9,09727,1","2,1,010,1,+999,9","01,1","SYN088AAXX  06181 01047 11688 43605 10164 20118 39727 40084 52010 60072 70182 83340 333 10188;",
"01047099999","2010-07-07T00:00:00","4","69.0166667","23.0666667","307.0","KAUTOKEINO II, NO","FM-12","ENKA ","V020","999,9,C,0000,1","22000,1,9,N","010000,1,N,1","+0098,1","+0082,1","10117,1",,,,"1,1,06,1","1,1,06,1",,"04,99,1,03,1,04,1,01250,1,04,1,00,1",,,"99999,9,09751,1","2,1,012,1,+999,9","10,1","SYN078AAXX  07001 01047 11660 40000 10098 20082 39751 40117 52012 6//// 71011 83440;",
"01047099999","2010-07-07T06:00:00","4","69.0166667","23.0666667","307.0","KAUTOKEINO II, NO","FM-12","ENKA ","V020","999,9,C,0000,1","00750,1,9,N","065000,1,N,1","+0140,1","+0094,1","10117,1","12,0000,9,1","24,0071,9,1",,"2,1,06,1","1,1,06,1",,"08,99,1,08,1,07,1,00800,1,99,9,99,9",,"999,N,+0086,1","99999,9,09756,1","1,1,004,1,+999,9","02,1","SYN094AAXX  07061 01047 11587 80000 10140 20094 39756 40117 51004 60002 70221 887// 333 20086 70070;","Q01  00002PRCP12"
"01047099999","2010-07-07T09:00:00","4","69.0166667","23.0666667","307.0","KAUTOKEINO II, NO","FM-12","ENKA ","V020","999,9,C,0000,1","00750,1,9,N","070000,1,N,1","+0152,1","+0098,1","10116,1",,,,"2,1,03,1","2,1,03,1",,"08,99,1,05,1,04,1,00800,1,02,1,99,9",,,"99999,9,09756,1","1,1,001,1,+999,9","02,1","SYN072AAXX  07091 01047 41588 80000 10152 20098 39756 40116 51001 70222 8542/;",
"01047099999","2010-07-07T12:00:00","4","69.0166667","23.0666667","307.0","KAUTOKEINO II, NO","FM-12","ENKA ","V020","140,1,N,0050,1","03000,1,9,N","030000,1,N,1","+0148,1","+0102,1","10115,1",,,,"6,1,06,1","2,1,06,1",,"08,99,1,03,1,05,1,00800,1,02,1,99,9",,,"99999,9,09755,1","4,1,000,1,+999,9","61,1","SYN078AAXX  07121 01047 11580 81405 10148 20102 39755 40115 54000 6//// 76162 8352/;",
"01047099999","2010-07-07T15:00:00","4","69.0166667","23.0666667","307.0","KAUTOKEINO II, NO","FM-12","ENKA ","V020","140,1,N,0030,1","03000,1,9,N","070000,1,N,1","+0144,1","+0088,1","10115,1",,,,"6,1,03,1","6,1,03,1",,"08,99,1,02,1,05,1,00800,1,02,1,99,9",,,"99999,9,09754,1","4,1,000,1,+999,9","21,1","SYN072AAXX  07151 01047 41588 81403 10144 20088 39754 40115 54000 72166 8252/;",
"01047099999","2010-07-07T18:00:00","4","69.0166667","23.0666667","307.0","KAUTOKEINO II, NO","FM-12","ENKA ","V020","050,1,N,0070,1","03000,1,9,N","070000,1,N,1","+0132,1","+0093,1","10125,1","12,0005,9,1",,,"2,1,06,1","2,1,06,1",,"05,99,1,04,1,09,1,00800,1,04,1,00,1",,"999,M,+0165,1","99999,9,09763,1","3,1,009,1,+999,9","02,1","SYN088AAXX  07181 01047 11588 50507 10132 20093 39763 40125 53009 69942 70222 84940 333 10165;",
"01047099999","2010-07-08T00:00:00","4","69.0166667","23.0666667","307.0","KAUTOKEINO II, NO","FM-12","ENKA ","V020","160,1,N,0010,1","01500,1,9,N","000200,1,N,1","+0064,1","+0050,1","10170,1",,,,"4,1,06,1","2,1,06,1",,"05,99,1,05,1,00,1,01750,1,07,1,00,1",,,"99999,9,09797,1","1,1,012,1,+999,9","46,1","SYN078AAXX  08001 01047 11702 51601 10064 20050 39797 40170 51012 6//// 74642 85070;",
"01047099999","2010-07-08T06:00:00","4","69.0166667","23.0666667","307.0","KAUTOKEINO II, NO","FM-12","ENKA ","V020","140,1,N,0030,1","22000,1,9,N","070000,1,N,1","+0141,1","+0081,1","10141,1","12,0000,9,1","24,0005,9,1",,"2,1,06,1","1,1,06,1",,"04,99,1,04,1,00,1,01750,1,03,1,00,1",,"999,N,+0056,1","99999,9,09779,1","4,1,000,1,+999,9","02,1","SYN094AAXX  08061 01047 11788 41403 10141 20081 39779 40141 54000 60002 70221 84030 333 20056 70004;","Q01  00002PRCP12"
"01047099999","2010-07-08T09:00:00","4","69.0166667","23.0666667","307.0","KAUTOKEINO II, NO","FM-12","ENKA ","V020","160,1,N,0070,1","03000,1,9,N","070000,1,N,1","+0198,1","+0088,1","10123,1",,,,"2,1,03,1","2,1,03,1",,"06,99,1,03,1,02,1,01250,1,09,1,08,1",,,"99999,9,09769,1","7,1,009,1,+999,9","02,1","SYN072AAXX  08091 01047 41688 61607 10198 20088 39769 40123 57009 70222 83298;",
"01047099999","2010-07-08T12:00:00","4","69.0166667","23.0666667","307.0","KAUTOKEINO II, NO","FM-12","ENKA ","V020","180,1,N,0100,1","01200,1,9,N","070000,1,N,1","+0208,1","+0067,1","10116,1",,,,"2,1,06,1","2,1,06,1",,"08,99,1,05,1,05,1,01250,1,07,1,99,9",,,"99999,9,09763,1","6,1,006,1,+999,9","02,1","SYN078AAXX  08121 01047 11688 81810 10208 20067 39763 40116 56006 6//// 70222 8557/;",
"01047099999","2010-07-08T15:00:00","4","69.0166667","23.0666667","307.0","KAUTOKEINO II, NO","FM-12","ENKA ","V020","180,1,N,0070,1","01200,1,9,N","070000,1,N,1","+0186,1","+0074,1","10117,1",,,,"2,1,03,1","2,1,03,1",,"08,99,1,08,1,00,1,01250,1,02,1,99,9",,,"99999,9,09761,1","6,1,002,1,+999,9","02,1","SYN072AAXX  08151 01047 41688 81807 10186 20074 39761 40117 56002 70222 8802/;",
"01047099999","2010-07-08T18:00:00","4","69.0166667","23.0666667","307.0","KAUTOKEINO II, NO","FM-12","ENKA ","V020","180,1,N,0050,1","01200,1,9,N","070000,1,N,1","+0154,1","+0106,1","10119,1","12,0000,9,1",,,"6,1,06,1","2,1,06,1",,"08,99,1,06,1,05,1,01250,1,02,1,99,9",,"999,M,+0209,1","99999,9,09759,1","6,1,002,1,+999,9","02,1","SYN088AAXX  08181 01047 11688 81805 10154 20106 39759 40119 56002 69912 70262 8652/ 333 10209;","Q01  00002PRCP12"
"01047099999","2010-07-09T00:00:00","4","69.0166667","23.0666667","307.0","KAUTOKEINO II, NO","FM-12","ENKA ","V020","160,1,N,0030,1","01200,1,9,N","070000,1,N,1","+0126,1","+0110,1","10111,1",,,,"6,1,06,1","2,1,06,1",,"07,99,1,07,1,05,1,01250,1,00,1,00,1",,,"99999,9,09748,1","6,1,004,1,+999,9","02,1","SYN078AAXX  09001 01047 11688 71603 10126 20110 39748 40111 56004 6//// 70262 87500;",
"01047099999","2010-07-09T06:00:00","4","69.0166667","23.0666667","307.0","KAUTOKEINO II, NO","FM-12","ENKA ","V020","999,9,C,0000,1","01200,1,9,N","070000,1,N,1","+0139,1","+0116,1","10110,1","12,0005,9,1","24,0005,9,1",,"6,1,06,1","2,1,06,1",,"08,99,1,06,1,05,1,01250,1,02,1,99,9",,"999,N,+0125,1","99999,9,09749,1","4,1,000,1,+999,9","02,1","SYN094AAXX  09061 01047 11688 80000 10139 20116 39749 40110 54000 69952 70262 8652/ 333 20125 70006;",
"01047099999","2010-07-09T09:00:00","4","69.0166667","23.0666667","307.0","KAUTOKEINO II, NO","FM-12","ENKA ","V020","360,1,N,0050,1","03000,1,9,N","070000,1,N,1","+0167,1","+0087,1","10114,1",,,,"2,1,03,1","2,1,03,1",,"06,99,1,03,1,02,1,01250,1,09,1,00,1",,,"99999,9,09756,1","2,1,007,1,+999,9","02,1","SYN072AAXX  09091 01047 41688 63605 10167 20087 39756 40114 52007 70222 83290;",
"01047099999","2010-07-09T12:00:00","4","69.0166667","23.0666667","307.0","KAUTOKEINO II, NO","FM-12","ENKA ","V020","360,1,N,0050,1","01200,1,9,N","070000,1,N,1","+0178,1","+0073,1","10113,1",,,,"2,1,06,1","2,1,06,1",,"06,99,1,05,1,03,1,01250,1,04,1,00,1",,,"99999,9,09756,1","4,1,000,1,+999,9","02,1","SYN078AAXX  09121 01047 11688 63605 10178 20073 39756 40113 54000 6//// 70222 85340;",
"01047099999","2010-07-09T15:00:00","4","69.0166667","23.0666667","307.0","KAUTOKEINO II, NO","FM-12","ENKA ","V020","360,1,N,0050,1","03000,1,9,N","070000,1,N,1","+0191,1","+0069,1","10112,1",,,,"2,1,03,1","2,1,03,1",,"05,99,1,04,1,03,1,01250,1,04,1,00,1",,,"99999,9,09757,1","4,1,000,1,+999,9","02,1","SYN072AAXX  09151 01047 41688 53605 10191 20069 39757 40112 54000 70222 84340;",
"01047099999","2010-07-09T18:00:00","4","69.0166667","23.0666667","307.0","KAUTOKEINO II, NO","FM-12","ENKA ","V020","090,1,N,0050,1","01200,1,9,N","070000,1,N,1","+0170,1","+0059,1","10119,1","12,0000,9,1",,,"2,1,06,1","2,1,06,1",,"06,99,1,06,1,05,1,01250,1,00,1,00,1",,"999,M,+0195,1","99999,9,09761,1","2,1,005,1,+999,9","02,1","SYN088AAXX  09181 01047 11688 60905 10170 20059 39761 40119 52005 60002 70222 86500 333 10195;","Q01  00002PRCP12"
"01047099999","2010-07-10T00:00:00","4","69.0166667","23.0666667","307.0","KAUTOKEINO II, NO","FM-12","ENKA ","V020","999,9,C,0000,1","03000,1,9,N","070000,1,N,1","+0104,1","+0088,1","10140,1",,,,"2,1,06,1","2,1,06,1",,"05,99,1,03,1,04,1,01250,1,04,1,00,1",,,"99999,9,09773,1","2,1,005,1,+999,9","02,1","SYN078AAXX  10001 01047 11688 50000 10104 20088 39773 40140 52005 6//// 70222 83440;",
"01047099999","2010-07-10T06:00:00","4","69.0166667","23.0666667","307.0","KAUTOKEINO II, NO","FM-12","ENKA ","V020","180,1,N,0030,1","00750,1,9,N","070000,1,N,1","+0153,1","+0105,1","10126,1","12,0000,9,1","24,0000,9,1",,"2,1,06,1","1,1,06,1",,"07,99,1,05,1,09,1,00800,1,04,1,00,1",,"999,N,+0099,1","99999,9,09766,1","8,1,003,1,+999,9","03,1","SYN094AAXX  10061 01047 11588 71803 10153 20105 39766 40126 58003 60002 70321 85940 333 20099 70000;","Q01  00002PRCP24Q02  00002PRCP12"
"01047099999","2010-07-10T09:00:00","4","69.0166667","23.0666667","307.0","KAUTOKEINO II, NO","FM-12","ENKA ","V020","180,1,N,0050,1","03000,1,9,N","070000,1,N,1","+0175,1","+0084,1","10111,1",,,,"2,1,03,1","2,1,03,1",,"07,99,1,04,1,09,1,00800,1,04,1,00,1",,,"99999,9,09754,1","8,1,012,1,+999,9","02,1","SYN072AAXX  10091 01047 41588 71805 10175 20084 39754 40111 58012 70222 84940;",
"01047099999","2010-07-10T12:00:00","4","69.0166667","23.0666667","307.0","KAUTOKEINO II, NO","FM-12","ENKA ","V020","180,1,N,0050,1","03000,1,9,N","070000,1,N,1","+0170,1","+0113,1","10098,1",,,,"2,1,06,1","2,1,06,1",,"08,99,1,03,1,09,1,00800,1,02,1,99,9",,,"99999,9,09741,1","7,1,013,1,+999,9","02,1","SYN078AAXX  10121 01047 11588 81805 10170 20113 39741 40098 57013 6//// 70222 8392/;",
"01047099999","2010-07-10T15:00:00","4","69.0166667","23.0666667","307.0","KAUTOKEINO II, NO","FM-12","ENKA ","V020","180,1,N,0050,1","01200,1,9,N","015000,1,N,1","+0134,1","+0097,1","10105,1",,,,"6,1,03,1","2,1,03,1",,"08,99,1,08,1,00,1,01250,1,02,1,99,9",,,"99999,9,09743,1","4,1,000,1,+999,9","63,1","SYN072AAXX  10151 01047 41665 81805 10134 20097 39743 40105 54000 76362 8802/;",
"01047099999","2010-07-10T18:00:00","4","69.0166667","23.0666667","307.0","KAUTOKEINO II, NO","FM-12","ENKA ","V020","180,1,N,0010,1","00750,1,9,N","070000,1,N,1","+0134,1","+0118,1","10096,1","12,0020,9,1",,,"6,1,06,1","2,1,06,1",,"06,99,1,05,1,09,1,00800,1,04,1,00,1",,"999,M,+0175,1","99999,9,09735,1","7,1,008,1,+999,9","02,1","SYN088AAXX  10181 01047 11588 61801 10134 20118 39735 40096 57008 60022 70262 85940 333 10175;",
"01047099999","2010-07-11T00:00:00","4","69.0166667","23.0666667","307.0","KAUTOKEINO II, NO","FM-12","ENKA ","V020","360,1,N,0030,1","22000,1,9,N","070000,1,N,1","+0106,1","+0075,1","10127,1",,,,"2,1,06,1","2,1,06,1",,"04,99,1,03,1,04,1,01250,1,04,1,00,1",,,"99999,9,09761,1","2,1,012,1,+999,9","02,1","SYN078AAXX  11001 01047 11688 43603 10106 20075 39761 40127 52012 6//// 70222 83440;",
"01047099999","2010-07-11T06:00:00","4","69.0166667","23.0666667","307.0","KAUTOKEINO II, NO","FM-12","ENKA ","V020","999,9,C,0000,1","00750,1,9,N","070000,1,N,1","+0131,1","+0080,1","10159,1","12,0000,9,1","24,0020,9,1",,"2,1,06,1","1,1,06,1",,"07,99,1,07,1,09,1,00800,1,00,1,00,1",,"999,N,+0094,1","99999,9,09795,1","2,1,010,1,+999,9","02,1","SYN094AAXX  11061 01047 11588 70000 10131 20080 39795 40159 52010 60002 70221 87900 333 20094 70020;","Q01  00002PRCP12"
"01047099999","2010-07-11T09:00:00","4","69.0166667","23.0666667","307.0","KAUTOKEINO II, NO","FM-12","ENKA ","V020","360,1,N,0030,1","00750,1,9,N","070000,1,N,1","+0148,1","+0066,1","10177,1",,,,"2,1,03,1","2,1,03,1",,"06,99,1,06,1,05,1,00800,1,00,1,00,1",,,"99999,9,09815,1","2,1,020,1,+999,9","02,1","SYN072AAXX  11091 01047 41588 63603 10148 20066 39815 40177 52020 70222 86500;",
"01047099999","2010-07-11T12:00:00","4","69.0166667","23.0666667","307.0","KAUTOKEINO II, NO","FM-12","ENKA ","V020","360,1,N,0030,1","01200,1,9,N","070000,1,N,1","+0152,1","+0062,1","10187,1",,,,"2,1,06,1","2,1,06,1",,"08,99,1,08,1,05,1,01250,1,99,9,99,9",,,"99999,9,09825,1","1,1,010,1,+999,9","02,1","SYN078AAXX  11121 01047 11688 83603 10152 20062 39825 40187 51010 6//// 70222 885//;",
"01047099999","2010-07-11T15:00:00","4","69.0166667","23.0666667","307.0","KAUTOKEINO II, NO","FM-12","ENKA ","V020","360,1,N,0010,1","01200,1,9,N","070000,1,N,1","+0162,1","+0058,1","10185,1",,,,"2,1,03,1","2,1,03,1",,"07,99,1,07,1,02,1,01250,1,00,1,00,1",,,"99999,9,09824,1","1,1,001,1,+999,9","02,1","SYN072AAXX  11151 01047 41688 73601 10162 20058 39824 40185 51001 70222 87200;",
"01047099999","2010-07-11T18:00:00","4","69.0166667","23.0666667","307.0","KAUTOKEINO II, NO","FM-12","ENKA ","V020","360,1,N,0010,1","22000,1,9,N","070000,1,N,1","+0174,1","+0054,1","10174,1","12,0000,9,1",,,"2,1,06,1","2,1,06,1",,"05,99,1,04,1,02,1,01250,1,00,1,01,1",,"999,M,+0190,1","99999,9,09815,1","7,1,008,1,+999,9","02,1","SYN088AAXX  11181 01047 11688 53601 10174 20054 39815 40174 57008 60002 70222 84201 333 10190;","Q01  00002PRCP12"
"01047099999","2010-07-12T00:00:00","4","69.0166667","23.0666667","307.0","KAUTOKEINO II, NO","FM-12","ENKA ","V020","999,9,C,0000,1","01500,1,9,N","070000,1,N,1","+0104,1","+0078,1","10158,1",,,,"2,1,06,1","2,1,06,1",,"08,99,1,08,1,00,1,01750,1,07,1,99,9",,,"99999,9,09791,1","7,1,012,1,+999,9","02,1","SYN078AAXX  12001 01047 11788 80000 10104 20078 39791 40158 57012 6//// 70222 8807/;",
"01047099999","2010-07-12T06:00:00","4","69.0166667","23.0666667","307.0","KAUTOKEINO II, NO","FM-12","ENKA ","V020","180,1,N,0050,1","00750,1,9,N","070000,1,N,1","+0152,1","+0084,1","10113,1","12,0000,9,1","24,0000,9,1",,"2,1,06,1","2,1,06,1",,"08,99,1,07,1,09,1,00800,1,04,1,00,1",,"999,N,+0104,1","99999,9,09754,1","7,1,016,1,+999,9","02,1","SYN094AAXX  12061 01047 11588 81805 10152 20084 39754 40113 57016 60002 70222 87940 333 20104 70000;","Q01  00002PRCP24Q02  00002PRCP12"
"01047099999","2010-07-12T09:00:00","4","69.0166667","23.0666667","307.0","KAUTOKEINO II, NO","FM-12","ENKA ","V020","180,1,N,0070,1","00750,1,9,N","070000,1,N,1","+0136,1","+0110,1","10094,1",,,,"2,1,03,1","2,1,03,1",,"08,99,1,05,1,05,1,00800,1,02,1,99,9",,,"99999,9,09733,1","7,1,021,1,+999,9","02,1","SYN072AAXX  12091 01047 41588 81807 10136 20110 39733 40094 57021 70222 8552/;",
"01047099999","2010-07-12T12:00:00","4","69.0166667","23.0666667","307.0","KAUTOKEINO II, NO","FM-12","ENKA ","V020","180,1,N,0070,1","03000,1,9,N","070000,1,N,1","+0150,1","+0112,1","10087,1",,,,"2,1,06,1","2,1,06,1",,"08,99,1,03,1,05,1,00800,1,02,1,99,9",,,"99999,9,09728,1","6,1,005,1,+999,9","02,1","SYN078AAXX  12121 01047 11588 81807 10150 20112 39728 40087 56005 6//// 70222 8352/;",
"01047099999","2010-07-12T15:00:00","4","69.0166667","23.0666667","307.0","KAUTOKEINO II, NO","FM-12","ENKA ","V020","180,1,N,0030,1","00750,1,9,N","070000,1,N,1","+0170,1","+0123,1","10079,1",,,,"2,1,03,1","2,1,03,1",,"08,99,1,08,1,05,1,00800,1,99,9,99,9",,,"99999,9,09723,1","7,1,005,1,+999,9","02,1","SYN072AAXX  12151 01047 41588 81803 10170 20123 39723 40079 57005 70222 885//;",
"01047099999","2010-07-12T18:00:00","4","69.0166667","23.0666667","307.0","KAUTOKEINO II, NO","FM-12","ENKA ","V020","180,1,N,0010,1","03000,1,9,N","070000,1,N,1","+0182,1","+0124,1","10069,1","12,0000,9,1",,,"2,1,06,1","2,1,06,1",,"06,99,1,02,1,04,1,01250,1,07,1,00,1",,"999,M,+0195,1","99999,9,09715,1","7,1,007,1,+999,9","02,1","SYN088AAXX  12181 01047 11688 61801 10182 20124 39715 40069 57007 60002 70222 82470 333 10195;","Q01  00002PRCP12"
"01047099999","2010-07-13T00:00:00","4","69.0166667","23.0666667","307.0","KAUTOKEINO II, NO","FM-12","ENKA ","V020","180,1,N,0030,1","00750,1,9,N","020000,1,N,1","+0120,1","+0106,1","10076,1",,,,"2,1,06,1","2,1,06,1",,"07,99,1,07,1,09,1,00800,1,00,1,00,1",,,"99999,9,09714,1","4,1,000,1,+999,9","10,1","SYN078AAXX  13001 01047 11570 71803 10120 20106 39714 40076 54000 6//// 71022 87900;",
"01047099999","2010-07-13T06:00:00","4","69.0166667","23.0666667","307.0","KAUTOKEINO II, NO","FM-12","ENKA ","V020","320,1,N,0070,1","22000,1,9,N","070000,1,N,1","+0148,1","+0045,1","10095,1","12,0000,9,1","24,0000,9,1",,"2,1,06,1","1,1,06,1",,"05,99,1,02,1,04,1,01250,1,00,1,08,1",,"999,N,+0120,1","99999,9,09736,1","3,1,006,1,+999,9","02,1","SYN094AAXX  13061 01047 11688 53207 10148 20045 39736 40095 53006 60002 70221 82408 333 20120 70000;","Q01  00002PRCP24Q02  00002PRCP12"
"01047099999","2010-07-13T09:00:00","4","69.0166667","23.0666667","307.0","KAUTOKEINO II, NO","FM-12","ENKA ","V020","320,1,N,0070,1","03000,1,9,N","070000,1,N,1","+0156,1","+0040,1","10115,1",,,,"2,1,03,1","2,1,03,1",,"06,99,1,03,1,02,1,01250,1,09,1,00,1",,,"99999,9,09756,1","2,1,021,1,+999,9","02,1","SYN072AAXX  13091 01047 41688 63207 10156 20040 39756 40115 52021 70222 83290;",
"01047099999","2010-07-13T12:00:00","4","69.0166667","23.0666667","307.0","KAUTOKEINO II, NO","FM-12","ENKA ","V020","320,1,N,0030,1","01200,1,9,N","070000,1,N,1","+0162,1","+0036,1","10128,1",,,,"2,1,06,1","2,1,06,1",,"07,99,1,07,1,05,1,01250,1,00,1,00,1",,,"99999,9,09769,1","1,1,013,1,+999,9","02,1","SYN078AAXX  13121 01047 11688 73203 10162 20036 39769 40128 51013 6//// 70222 87500;",
"01047099999","2010-07-13T15:00:00","4","69.0166667","23.0666667","307.0","KAUTOKEINO II, NO","FM-12","ENKA ","V020","320,1,N,0050,1","03000,1,9,N","070000,1,N,1","+0160,1","+0041,1","10127,1",,,,"2,1,03,1","2,1,03,1",,"07,99,1,04,1,05,1,01250,1,07,1,00,1",,,"99999,9,09768,1","4,1,000,1,+999,9","02,1","SYN072AAXX  13151 01047 41688 73205 10160 20041 39768 40127 54000 70222 84570;",
"01047099999","2010-07-13T18:00:00","4","69.0166667","23.0666667","307.0","KAUTOKEINO II, NO","FM-12","ENKA ","V020","999,9,C,0000,1","01200,1,9,N","070000,1,N,1","+0147,1","+0041,1","10128,1","12,0000,9,1",,,"2,1,06,1","2,1,06,1",,"08,99,1,06,1,05,1,01250,1,02,1,99,9",,"999,M,+0163,1","99999,9,09767,1","0,1,001,1,+999,9","02,1","SYN088AAXX  13181 01047 11688 80000 10147 20041 39767 40128 50001 60002 70222 8652/ 333 10163;","Q01  00002PRCP12"
"01047099999","2010-07-14T00:00:00","4","69.0166667","23.0666667","307.0","KAUTOKEINO II, NO","FM-12","ENKA ","V020","360,1,N,0050,1","01200,1,9,N","070000,1,N,1","+0100,1","+0073,1","10126,1",,,,"6,1,06,1","2,1,06,1",,"08,99,1,08,1,00,1,01250,1,02,1,99,9",,,"99999,9,09760,1","8,1,004,1,+999,9","02,1","SYN078AAXX  14001 01047 11688 83605 10100 20073 39760 40126 58004 6//// 70262 8802/;",
"01047099999","2010-07-14T06:00:00","4","69.0166667","23.0666667","307.0","KAUTOKEINO II, NO","FM-12","ENKA ","V020","360,1,N,0050,1","01200,1,9,N","070000,1,N,1","+0102,1","+0065,1","10086,1","12,0008,9,1","24,0008,9,1",,"6,1,06,1","2,1,06,1",,"08,99,1,08,1,00,1,01250,1,02,1,99,9",,"999,N,+0096,1","99999,9,09722,1","7,1,015,1,+999,9","02,1","SYN094AAXX  14061 01047 11688 83605 10102 20065 39722 40086 57015 69972 70262 8802/ 333 20096 70007;",
"01047099999","2010-07-14T09:00:00","4","69.0166667","23.0666667","307.0","KAUTOKEINO II, NO","FM-12","ENKA ","V020","360,1,N,0030,1","00750,1,9,N","003000,1,N,1","+0100,1","+0086,1","10050,1",,,,"6,1,03,1","2,1,03,1",,"08,99,1,06,1,07,1,00800,1,02,1,99,9",,,"99999,9,09687,1","7,1,035,1,+999,9","65,1","SYN072AAXX  14091 01047 41530 83603 10100 20086 39687 40050 57035 76562 8672/;",
"01047099999","2010-07-14T15:00:00","4","69.0166667","23.0666667","307.0","KAUTOKEINO II, NO","FM-12","ENKA ","V020","360,1,N,0050,1","00750,1,9,N","070000,1,N,1","+0120,1","+0094,1","10052,1",,,,"6,1,03,1","2,1,03,1",,"08,99,1,08,1,05,1,00800,1,99,9,99,9",,,"99999,9,09691,1","3,1,004,1,+999,9","02,1","SYN072AAXX  14151 01047 41588 83605 10120 20094 39691 40052 53004 70262 885//;",
"01047099999","2010-07-14T18:00:00","4","69.0166667","23.0666667","307.0","KAUTOKEINO II, NO","FM-12","ENKA ","V020","320,1,N,0070,1","00750,1,9,N","070000,1,N,1","+0110,1","+0066,1","10073,1","12,0119,9,1",,,"2,1,06,1","2,1,06,1",,"08,99,1,08,1,05,1,00800,1,99,9,99,9",,"999,M,+0125,1","99999,9,09710,1","1,1,020,1,+999,9","02,1","SYN088AAXX  14181 01047 11588 83207 10110 20066 39710 40073 51020 60122 70222 885// 333 10125;",
"01047099999","2010-07-15T00:00:00","4","69.0166667","23.0666667","307.0","KAUTOKEINO II, NO","FM-12","ENKA ","V020","320,1,N,0050,1","00750,1,9,N","070000,1,N,1","+0070,1","+0027,1","10125,1",,,,"2,1,06,1","2,1,06,1",,"08,99,1,08,1,05,1,00800,1,99,9,99,9",,,"99999,9,09755,1","2,1,025,1,+999,9","02,1","SYN078AAXX  15001 01047 11588 83205 10070 20027 39755 40125 52025 6//// 70222 885//;",
"01047099999","2010-07-15T06:00:00","4","69.0166667","23.0666667","307.0","KAUTOKEINO II, NO","FM-12","ENKA ","V020","320,1,N,0050,1","01200,1,9,N","070000,1,N,1","+0112,1","+0042,1","10164,1","12,0000,9,1","24,0119,9,1",,"2,1,06,1","1,1,06,1",,"05,99,1,05,1,05,1,01250,1,00,1,00,1",,"999,N,+0064,1","99999,9,09798,1","2,1,014,1,+999,9","02,1","SYN094AAXX  15061 01047 11688 53205 10112 20042 39798 40164 52014 60002 70221 85500 333 20064 70120;","Q01  00002PRCP12"
"01047099999","2010-07-15T09:00:00","4","69.0166667","23.0666667","307.0","KAUTOKEINO II, NO","FM-12","ENKA ","V020","320,1,N,0070,1","01200,1,9,N","070000,1,N,1","+0113,1","+0026,1","10186,1",,,,"2,1,03,1","2,1,03,1",,"07,99,1,07,1,05,1,01250,1,00,1,00,1",,,"99999,9,09819,1","2,1,021,1,+999,9","02,1","SYN072AAXX  15091 01047 41688 73207 10113 20026 39819 40186 52021 70222 87500;",
"01047099999","2010-07-15T12:00:00","4","69.0166667","23.0666667","307.0","KAUTOKEINO II, NO","FM-12","ENKA ","V020","320,1,N,0070,1","00750,1,9,N","070000,1,N,1","+0128,1","+0024,1","10195,1",,,,"2,1,06,1","2,1,06,1",,"08,99,1,08,1,05,1,00800,1,99,9,99,9",,,"99999,9,09830,1","1,1,011,1,+999,9","02,1","SYN078AAXX  15121 01047 11588 83207 10128 20024 39830 40195 51011 6//// 70222 885//;",
"01047099999","2010-07-15T15:00:00","4","69.0166667","23.0666667","307.0","KAUTOKEINO II, NO","FM-12","ENKA ","V020","050,1,N,0070,1","00750,1,9,N","070000,1,N,1","+0120,1","+0025,1","10203,1",,,,"2,1,03,1","2,1,03,1",,"07,99,1,07,1,05,1,00800,1,00,1,00,1",,,"99999,9,09837,1","1,1,007,1,+999,9","02,1","SYN072AAXX  15151 01047 41588 70507 10120 20025 39837 40203 51007 70222 87500;",
"01047099999","2010-07-15T18:00:00","4","69.0166667","23.0666667","307.0","KAUTOKEINO II, NO","FM-12","ENKA ","V020","360,1,N,0050,1","22000,1,9,N","070000,1,N,1","+0120,1","+0025,1","10200,1","12,0000,9,1",,,"2,1,06,1","2,1,06,1",,"04,99,1,04,1,05,1,01250,1,00,1,00,1",,"999,M,+0130,1","99999,9,09834,1","7,1,003,1,+999,9","01,1","SYN088AAXX  15181 01047 11688 43605 10120 20025 39834 40200 57003 60002 70122 84500 333 10130;","Q01  00002PRCP12"
"01047099999","2010-07-16T00:00:00","4","69.0166667","23.0666667","307.0","KAUTOKEINO II, NO","FM-12","ENKA ","V020","999,9,C,0000,1","22000,1,9,N","070000,1,N,1","+0048,1","+0028,1","10219,1",,,,"1,1,06,1","1,1,06,1",,"04,99,1,04,1,00,1,01750,1,07,1,00,1",,,"99999,9,09843,1","2,1,005,1,+999,9","02,1","SYN078AAXX  16001 01047 11788 40000 10048 20028 39843 40219 52005 6//// 70211 84070;",
"01047099999","2010-07-16T06:00:00","4","69.0166667","23.0666667","307.0","KAUTOKEINO II, NO","FM-12","ENKA ","V020","180,1,N,0050,1","07500,1,9,N","070000,1,N,1","+0122,1","+0049,1","10193,1","12,0000,9,1","24,0000,9,1",,"2,1,06,1","1,1,06,1",,"05,99,1,02,1,02,1,01250,1,00,1,09,1",,"999,N,+0039,1","99999,9,09827,1","8,1,006,1,+999,9","02,1","SYN094AAXX  16061 01047 11688 51805 10122 20049 39827 40193 58006 60002 70221 82209 333 20039 70000;","Q01  00002PRCP24Q02  00002PRCP12"
"01047099999","2010-07-16T09:00:00","4","69.0166667","23.0666667","307.0","KAUTOKEINO II, NO","FM-12","ENKA ","V020","180,1,N,0070,1","01500,1,9,N","070000,1,N,1","+0134,1","+0026,1","10183,1",,,,"2,1,03,1","2,1,03,1",,"06,99,1,06,1,00,1,01750,1,09,1,00,1",,,"99999,9,09818,1","7,1,009,1,+999,9","02,1","SYN072AAXX  16091 01047 41788 61807 10134 20026 39818 40183 57009 70222 86090;",
"01047099999","2010-07-16T12:00:00","4","69.0166667","23.0666667","307.0","KAUTOKEINO II, NO","FM-12","ENKA ","V020","180,1,N,0070,1","03000,1,9,N","070000,1,N,1","+0140,1","+0032,1","10172,1",,,,"2,1,06,1","2,1,06,1",,"08,99,1,04,1,05,1,00800,1,07,1,99,9",,,"99999,9,09809,1","7,1,009,1,+999,9","02,1","SYN078AAXX  16121 01047 11588 81807 10140 20032 39809 40172 57009 6//// 70222 8457/;",
"01047099999","2010-07-16T15:00:00","4","69.0166667","23.0666667","307.0","KAUTOKEINO II, NO","FM-12","ENKA ","V020","180,1,N,0010,1","01500,1,9,N","070000,1,N,1","+0136,1","+0040,1","10165,1",,,,"2,1,03,1","2,1,03,1",,"08,99,1,08,1,00,1,01750,1,07,1,99,9",,,"99999,9,09801,1","7,1,008,1,+999,9","02,1","SYN072AAXX  16151 01047 41788 81801 10136 20040 39801 40165 57008 70222 8807/;",
"01047099999","2010-07-16T18:00:00","4","69.0166667","23.0666667","307.0","KAUTOKEINO II, NO","FM-12","ENKA ","V020","999,9,C,0000,1","01200,1,9,N","006000,1,N,1","+0120,1","+0094,1","10168,1","12,0008,9,1",,,"6,1,06,1","2,1,06,1",,"08,99,1,08,1,00,1,01250,1,02,1,99,9",,"999,M,+0152,1","99999,9,09802,1","4,1,000,1,+999,9","63,1","SYN088AAXX  16181 01047 11656 80000 10120 20094 39802 40168 54000 69982 76362 8802/ 333 10152;",
"01047099999","2010-07-17T00:00:00","4","69.0166667","23.0666667","307.0","KAUTOKEINO II, NO","FM-12","ENKA ","V020","999,9,C,0000,1","03000,1,9,N","070000,1,N,1","+0110,1","+0096,1","10170,1",,,,"6,1,06,1","2,1,06,1",,"08,99,1,03,1,05,1,00800,1,02,1,99,9",,,"99999,9,09803,1","4,1,000,1,+999,9","02,1","SYN078AAXX  17001 01047 11588 80000 10110 20096 39803 40170 54000 6//// 70262 8352/;",
"01047099999","2010-07-17T06:00:00","4","69.0166667","23.0666667","307.0","KAUTOKEINO II, NO","FM-12","ENKA ","V020","999,9,C,0000,1","00750,1,9,N","070000,1,N,1","+0130,1","+0107,1","10166,1","12,0010,9,1","24,0018,9,1",,"6,1,06,1","2,1,06,1",,"08,99,1,06,1,07,1,00800,1,02,1,99,9",,"999,N,+0108,1","99999,9,09802,1","4,1,000,1,+999,9","02,1","SYN094AAXX  17061 01047 11588 80000 10130 20107 39802 40166 54000 60012 70262 8672/ 333 20108 70018;",
"01047099999","2010-07-17T12:00:00","4","69.0166667","23.0666667","307.0","KAUTOKEINO II, NO","FM-12","ENKA ","V020","180,1,N,0070,1","01200,1,9,N","070000,1,N,1","+0198,1","+0113,1","10146,1",,,,"2,1,06,1","2,1,06,1",,"06,99,1,06,1,02,1,01250,1,00,1,00,1",,,"99999,9,09791,1","7,1,004,1,+999,9","02,1","SYN078AAXX  17121 01047 11688 61807 10198 20113 39791 40146 57004 6//// 70222 86200;",
"01047099999","2010-07-17T15:00:00","4","69.0166667","23.0666667","307.0","KAUTOKEINO II, NO","FM-12","ENKA ","V020","180,1,N,0070,1","01200,1,9,N","070000,1,N,1","+0200,1","+0115,1","10136,1",,,,"2,1,03,1","2,1,03,1",,"06,99,1,05,1,02,1,01250,1,00,1,01,1",,,"99999,9,09781,1","7,1,009,1,+999,9","02,1","SYN072AAXX  17151 01047 41688 61807 10200 20115 39781 40136 57009 70222 85201;",
"01047099999","2010-07-17T18:00:00","4","69.0166667","23.0666667","307.0","KAUTOKEINO II, NO","FM-12","ENKA ","V020","180,1,N,0070,1","03000,1,9,N","070000,1,N,1","+0198,1","+0123,1","10133,1","12,0000,9,1",,,"2,1,06,1","2,1,06,1",,"05,99,1,02,1,02,1,01250,1,09,1,00,1",,"999,M,+0218,1","99999,9,09778,1","6,1,003,1,+999,9","02,1","SYN088AAXX  17181 01047 11688 51807 10198 20123 39778 40133 56003 60002 70222 82290 333 10218;","Q01  00002PRCP12"
"01047099999","2010-07-18T00:00:00","4","69.0166667","23.0666667","307.0","KAUTOKEINO II, NO","FM-12","ENKA ","V020","180,1,N,0050,1","01500,1,9,N","030000,1,N,1","+0142,1","+0124,1","10151,1",,,,"2,1,06,1","2,1,06,1",,"06,99,1,06,1,00,1,01750,1,07,1,00,1",,,"99999,9,09789,1","2,1,005,1,+999,9","02,1","SYN078AAXX  18001 01047 11780 61805 10142 20124 39789 40151 52005 6//// 70222 86070;",
"01047099999","2010-07-18T06:00:00","4","69.0166667","23.0666667","307.0","KAUTOKEINO II, NO","FM-12","ENKA ","V020","180,1,N,0050,1","01200,1,9,N","030000,1,N,1","+0152,1","+0136,1","10128,1","12,0000,9,1","24,0000,9,1",,"2,1,06,1","2,1,06,1",,"08,99,1,08,1,00,1,01250,1,02,1,99,9",,"999,N,+0140,1","99999,9,09768,1","8,1,008,1,+999,9","02,1","SYN094AAXX  18061 01047 11680 81805 10152 20136 39768 40128 58008 60002 70222 8802/ 333 20140 70000;","Q01  00002PRCP24Q02  00002PRCP12"
"01047099999","2010-07-18T09:00:00","4","69.0166667","23.0666667","307.0","KAUTOKEINO II, NO","FM-12","ENKA ","V020","180,1,N,0050,1","01200,1,9,N","010000,1,N,1","+0164,1","+0148,1","10106,1",,,,"6,1,03,1","2,1,03,1",,"08,99,1,08,1,00,1,01250,1,02,1,99,9",,,"99999,9,09748,1","7,1,019,1,+999,9","63,1","SYN072AAXX  18091 01047 41660 81805 10164 20148 39748 40106 57019 76362 8802/;",
"01047099999","2010-07-18T12:00:00","4","69.0166667","23.0666667","307.0","KAUTOKEINO II, NO","FM-12","ENKA ","V020","180,1,N,0070,1","00750,1,9,N","030000,1,N,1","+0168,1","+0150,1","10065,1",,,,"6,1,06,1","6,1,06,1",,"08,99,1,06,1,07,1,00800,1,02,1,99,9",,,"99999,9,09709,1","8,1,039,1,+999,9","61,1","SYN078AAXX  18121 01047 11580 81807 10168 20150 39709 40065 58039 6//// 76166 8672/;",
"01047099999","2010-07-18T15:00:00","4","69.0166667","23.0666667","307.0","KAUTOKEINO II, NO","FM-12","ENKA ","V020","180,1,N,0070,1","00750,1,9,N","020000,1,N,1","+0168,1","+0152,1","10027,1",,,,"6,1,03,1","6,1,03,1",,"08,99,1,06,1,07,1,00800,1,02,1,99,9",,,"99999,9,09672,1","7,1,037,1,+999,9","61,1","SYN072AAXX  18151 01047 41570 81807 10168 20152 39672 40027 57037 76166 8672/;",
"01047099999","2010-07-18T18:00:00","4","69.0166667","23.0666667","307.0","KAUTOKEINO II, NO","FM-12","ENKA ","V020","180,1,N,0050,1","03000,1,9,N","070000,1,N,1","+0170,1","+0153,1","09988,1","12,0099,9,1",,,"6,1,06,1","6,1,06,1",,"08,99,1,04,1,09,1,00800,1,02,1,99,9",,"999,M,+0175,1","99999,9,09636,1","7,1,037,1,+999,9","21,1","SYN088AAXX  18181 01047 11588 81805 10170 20153 39636 49988 57037 60102 72166 8492/ 333 10175;",
"01047099999","2010-07-19T00:00:00","4","69.0166667","23.0666667","307.0","KAUTOKEINO II, NO","FM-12","ENKA ","V020","220,1,N,0050,1","01200,1,9,N","070000,1,N,1","+0124,1","+0087,1","10046,1",,,,"6,1,06,1","2,1,06,1",,"08,99,1,08,1,00,1,01250,1,02,1,99,9",,,"99999,9,09685,1","3,1,030,1,+999,9","02,1","SYN078AAXX  19001 01047 11688 82205 10124 20087 39685 40046 53030 6//// 70262 8802/;",
"01047099999","2010-07-19T06:00:00","4","69.0166667","23.0666667","307.0","KAUTOKEINO II, NO","FM-12","ENKA ","V020","180,1,N,0050,1","01200,1,9,N","070000,1,N,1","+0130,1","+0052,1","10064,1","12,0079,9,1","24,0178,9,1",,"2,1,06,1","2,1,06,1",,"08,99,1,08,1,05,1,01250,1,99,9,99,9",,"999,N,+0109,1","99999,9,09704,1","2,1,008,1,+999,9","02,1","SYN094AAXX  19061 01047 11688 81805 10130 20052 39704 40064 52008 60082 70222 885// 333 20109 70178;",
"01047099999","2010-07-19T09:00:00","4","69.0166667","23.0666667","307.0","KAUTOKEINO II, NO","FM-12","ENKA ","V020","220,1,N,0070,1","01200,1,9,N","070000,1,N,1","+0156,1","+0049,1","10066,1",,,,"2,1,03,1","2,1,03,1",,"07,99,1,07,1,05,1,01250,1,00,1,00,1",,,"99999,9,09709,1","2,1,005,1,+999,9","02,1","SYN072AAXX  19091 01047 41688 72207 10156 20049 39709 40066 52005 70222 87500;",
"01047099999","2010-07-19T12:00:00","4","69.0166667","23.0666667","307.0","KAUTOKEINO II, NO","FM-12","ENKA ","V020","180,1,N,0100,1","01200,1,9,N","070000,1,N,1","+0170,1","+0050,1","10055,1",,,,"2,1,06,1","2,1,06,1",,"06,99,1,06,1,02,1,01250,1,00,1,00,1",,,"99999,9,09700,1","7,1,008,1,+999,9","02,1","SYN078AAXX  19121 01047 11688 61810 10170 20050 39700 40055 57008 6//// 70222 86200;",
"01047099999","2010-07-19T15:00:00","4","69.0166667","23.0666667","307.0","KAUTOKEINO II, NO","FM-12","ENKA ","V020","180,1,N,0050,1","00750,1,9,N","070000,1,N,1","+0140,1","+0056,1","10052,1",,,,"2,1,03,1","2,1,03,1",,"08,99,1,08,1,09,1,00800,1,99,9,99,9",,,"99999,9,09693,1","7,1,007,1,+999,9","02,1","SYN072AAXX  19151 01047 41588 81805 10140 20056 39693 40052 57007 70222 889//;",
"01047099999","2010-07-19T18:00:00","4","69.0166667","23.0666667","307.0","KAUTOKEINO II, NO","FM-12","ENKA ","V020","180,1,N,0030,1","00750,1,9,N","070000,1,N,1","+0116,1","+0071,1","10042,1","12,0010,9,1",,,"8,1,06,1","2,1,06,1",,"08,99,1,08,1,09,1,00800,1,99,9,99,9",,"999,M,+0178,1","99999,9,09680,1","8,1,013,1,+999,9","25,1","SYN088AAXX  19181 01047 11588 81803 10116 20071 39680 40042 58013 60012 72582 889// 333 10178;",
"01047099999","2010-07-20T00:00:00","4","69.0166667","23.0666667","307.0","KAUTOKEINO II, NO","FM-12","ENKA ","V020","140,1,N,0030,1","22000,1,9,N","070000,1,N,1","+0078,1","+0061,1","10049,1",,,,"2,1,06,1","2,1,06,1",,"04,99,1,03,1,04,1,01250,1,04,1,00,1",,,"99999,9,09682,1","4,1,000,1,+999,9","02,1","SYN078AAXX  20001 01047 11688 41403 10078 20061 39682 40049 54000 6//// 70222 83440;",
"01047099999","2010-07-20T06:00:00","4","69.0166667","23.0666667","307.0","KAUTOKEINO II, NO","FM-12","ENKA ","V020","220,1,N,0070,1","01500,1,9,N","070000,1,N,1","+0134,1","+0061,1","10046,1","12,0000,2,1","24,0010,9,1",,"2,1,06,1","2,1,06,1",,"06,99,1,06,1,00,1,01750,1,07,1,00,1",,"999,N,+0075,1","99999,9,09687,1","4,1,000,1,+999,9","02,1","SYN094AAXX  20061 01047 11788 62207 10134 20061 39687 40046 54000 60002 70222 86070 333 20075 70010;",
"01047099999","2010-07-20T09:00:00","4","69.0166667","23.0666667","307.0","KAUTOKEINO II, NO","FM-12","ENKA ","V020","220,1,N,0070,1","00750,1,9,N","070000,1,N,1","+0158,1","+0048,1","10043,1",,,,"2,1,03,1","2,1,03,1",,"07,99,1,07,1,09,1,00800,1,00,1,00,1",,,"99999,9,09687,1","4,1,000,1,+999,9","02,1","SYN072AAXX  20091 01047 41588 72207 10158 20048 39687 40043 54000 70222 87900;",
"01047099999","2010-07-20T12:00:00","4","69.0166667","23.0666667","307.0","KAUTOKEINO II, NO","FM-12","ENKA ","V020","270,1,N,0070,1","03000,1,9,N","070000,1,N,1","+0166,1","+0046,1","10041,1",,,,"2,1,06,1","2,1,06,1",,"07,99,1,03,1,02,1,01250,1,09,1,00,1",,,"99999,9,09685,1","4,1,000,1,+999,9","02,1","SYN078AAXX  20121 01047 11688 72707 10166 20046 39685 40041 54000 6//// 70222 83290;",
"01047099999","2010-07-20T15:00:00","4","69.0166667","23.0666667","307.0","KAUTOKEINO II, NO","FM-12","ENKA ","V020","270,1,N,0070,1","03000,1,9,N","070000,1,N,1","+0160,1","+0044,1","10038,1",,,,"2,1,03,1","2,1,03,1",,"08,99,1,03,1,05,1,00800,1,02,1,99,9",,,"99999,9,09683,1","4,1,000,1,+999,9","02,1","SYN072AAXX  20151 01047 41588 82707 10160 20044 39683 40038 54000 70222 8352/;",
"01047099999","2010-07-20T18:00:00","4","69.0166667","23.0666667","307.0","KAUTOKEINO II, NO","FM-12","ENKA ","V020","320,1,N,0070,1","03000,1,9,N","070000,1,N,1","+0140,1","+0043,1","10052,1","12,0000,9,1",,,"2,1,06,1","2,1,06,1",,"05,99,1,03,1,04,1,01250,1,04,1,00,1",,"999,M,+0176,1","99999,9,09693,1","3,1,010,1,+999,9","02,1","SYN088AAXX  20181 01047 11688 53207 10140 20043 39693 40052 53010 60002 70222 83440 333 10176;","Q01  00002PRCP12"
"01047099999","2010-07-21T00:00:00","4","69.0166667","23.0666667","307.0","KAUTOKEINO II, NO","FM-12","ENKA ","V020","360,1,N,0050,1","22000,1,9,N","070000,1,N,1","+0048,1","+0027,1","10092,1",,,,"1,1,06,1","1,1,06,1","00,1,+99999,9,99,9","00,99,1,00,1,00,1,99999,9,00,1,00,1",,,"99999,9,09720,1","1,1,012,1,+999,9","01,1","SYN072AAXX  21001 01047 11988 03605 10048 20027 39720 40092 51012 6//// 70111;",
"01047099999","2010-07-21T06:00:00","4","69.0166667","23.0666667","307.0","KAUTOKEINO II, NO","FM-12","ENKA ","V020","320,1,N,0050,1","22000,1,9,N","070000,1,N,1","+0108,1","+0014,1","10090,1","12,0000,9,1","24,0000,9,1",,"0,1,06,1","0,1,06,1",,"04,99,1,03,1,02,1,01250,1,00,1,01,1",,"999,N,+0025,1","99999,9,09726,1","1,1,004,1,+999,9","02,1","SYN094AAXX  21061 01047 11688 43205 10108 20014 39726 40090 51004 60002 70200 83201 333 20025 70000;","Q01  00002PRCP24Q02  00002PRCP12"
"01047099999","2010-07-21T09:00:00","4","69.0166667","23.0666667","307.0","KAUTOKEINO II, NO","FM-12","ENKA ","V020","320,1,N,0050,1","01200,1,9,N","070000,1,N,1","+0120,1","+0014,1","10086,1",,,,"2,1,03,1","2,1,03,1",,"05,99,1,05,1,02,1,01250,1,00,1,00,1",,,"99999,9,09723,1","8,1,003,1,+999,9","03,1","SYN072AAXX  21091 01047 41688 53205 10120 20014 39723 40086 58003 70322 85200;",
"01047099999","2010-07-21T12:00:00","4","69.0166667","23.0666667","307.0","KAUTOKEINO II, NO","FM-12","ENKA ","V020","320,1,N,0050,1","01200,1,9,N","070000,1,N,1","+0140,1","+0010,1","10084,1",,,,"2,1,06,1","2,1,06,1",,"06,99,1,06,1,05,1,01250,1,00,1,00,1",,,"99999,9,09724,1","4,1,000,1,+999,9","02,1","SYN078AAXX  21121 01047 11688 63205 10140 20010 39724 40084 54000 6//// 70222 86500;",
"01047099999","2010-07-21T15:00:00","4","69.0166667","23.0666667","307.0","KAUTOKEINO II, NO","FM-12","ENKA ","V020","220,1,N,0050,1","01200,1,9,N","070000,1,N,1","+0150,1","+0019,1","10078,1",,,,"2,1,03,1","2,1,03,1",,"06,99,1,06,1,05,1,01250,1,00,1,00,1",,,"99999,9,09720,1","7,1,004,1,+999,9","02,1","SYN072AAXX  21151 01047 41688 62205 10150 20019 39720 40078 57004 70222 86500;",
"01047099999","2010-07-21T18:00:00","4","69.0166667","23.0666667","307.0","KAUTOKEINO II, NO","FM-12","ENKA ","V020","999,9,C,0000,1","00750,1,9,N","070000,1,N,1","+0144,1","+0030,1","10072,1","12,0000,9,1",,,"2,1,06,1","2,1,06,1",,"08,99,1,08,1,05,1,00800,1,99,9,99,9",,"999,M,+0162,1","99999,9,09714,1","7,1,006,1,+999,9","02,1","SYN088AAXX  21181 01047 11588 80000 10144 20030 39714 40072 57006 60002 70222 885// 333 10162;","Q01  00002PRCP12"
"01047099999","2010-07-22T00:00:00","4","69.0166667","23.0666667","307.0","KAUTOKEINO II, NO","FM-12","ENKA ","V020","220,1,N,0050,1","00750,1,9,N","003000,1,N,1","+0080,1","+0066,1","10054,1",,,,"6,1,06,1","2,1,06,1",,"08,99,1,06,1,07,1,00800,1,02,1,99,9",,,"99999,9,09687,1","8,1,012,1,+999,9","65,1","SYN078AAXX  22001 01047 11530 82205 10080 20066 39687 40054 58012 6//// 76562 8672/;",
"01047099999","2010-07-22T06:00:00","4","69.0166667","23.0666667","307.0","KAUTOKEINO II, NO","FM-12","ENKA ","V020","360,1,N,0070,1","01200,1,9,N","005000,1,N,1","+0074,1","+0060,1","10026,1","12,0201,9,1","24,0203,9,1",,"6,1,06,1","6,1,06,1",,"08,99,1,08,1,00,1,01250,1,02,1,99,9",,"999,N,+0074,1","99999,9,09660,1","7,1,015,1,+999,9","63,1","SYN094AAXX  22061 01047 11650 83607 10074 20060 39660 40026 57015 60202 76366 8802/ 333 20074 70202;",
"01047099999","2010-07-22T09:00:00","4","69.0166667","23.0666667","307.0","KAUTOKEINO II, NO","FM-12","ENKA ","V020","360,1,N,0070,1","01200,1,9,N","002500,1,N,1","+0082,1","+0068,1","10015,1",,,,"6,1,03,1","5,1,03,1",,"08,99,1,08,1,00,1,01250,1,02,1,99,9",,,"99999,9,09651,1","7,1,009,1,+999,9","53,1","SYN072AAXX  22091 01047 41625 83607 10082 20068 39651 40015 57009 75365 8802/;",
"01047099999","2010-07-22T12:00:00","4","69.0166667","23.0666667","307.0","KAUTOKEINO II, NO","FM-12","ENKA ","V020","050,1,N,0070,1","00750,1,9,N","004000,1,N,1","+0090,1","+0075,1","09982,1",,,,"6,1,06,1","5,1,06,1",,"08,99,1,06,1,07,1,00800,1,02,1,99,9",,,"99999,9,09619,1","8,1,031,1,+999,9","58,1","SYN078AAXX  22121 01047 11540 80507 10090 20075 39619 49982 58031 6//// 75865 8672/;",
"01047099999","2010-07-22T15:00:00","4","69.0166667","23.0666667","307.0","KAUTOKEINO II, NO","FM-12","ENKA ","V020","050,1,N,0100,1","00750,1,9,N","070000,1,N,1","+0098,1","+0082,1","09964,1",,,,"6,1,03,1","5,1,03,1",,"08,99,1,06,1,07,1,00800,1,02,1,99,9",,,"99999,9,09603,1","6,1,016,1,+999,9","02,1","SYN072AAXX  22151 01047 41588 80510 10098 20082 39603 49964 56016 70265 8672/;",
"01047099999","2010-07-22T18:00:00","4","69.0166667","23.0666667","307.0","KAUTOKEINO II, NO","FM-12","ENKA ","V020","050,1,N,0070,1","00750,1,9,N","006000,1,N,1","+0080,1","+0066,1","09959,1","12,0079,9,1",,,"6,1,06,1","5,1,06,1",,"08,99,1,06,1,07,1,00800,1,02,1,99,9",,"999,M,+0100,1","99999,9,09596,1","6,1,007,1,+999,9","58,1","SYN088AAXX  22181 01047 11556 80507 10080 20066 39596 49959 56007 60082 75865 8672/ 333 10100;",
"01047099999","2010-07-23T00:00:00","4","69.0166667","23.0666667","307.0","KAUTOKEINO II, NO","FM-12","ENKA ","V020","340,1,N,0100,1","00750,1,9,N","006000,1,N,1","+0052,1","+0039,1","09975,1",,,,"6,1,06,1","5,1,06,1",,"08,99,1,06,1,07,1,00800,1,02,1,99,9",,,"99999,9,09608,1","2,1,007,1,+999,9","63,1","SYN078AAXX  23001 01047 11556 83410 10052 20039 39608 49975 52007 6//// 76365 8672/;",
"01047099999","2010-07-23T06:00:00","4","69.0166667","23.0666667","307.0","KAUTOKEINO II, NO","FM-12","ENKA ","V020","320,1,N,0100,1","00750,1,9,N","070000,1,N,1","+0054,1","+0002,1","10032,1","12,0079,9,1","24,0150,9,1",,"6,1,06,1","2,1,06,1",,"08,99,1,06,1,07,1,00800,1,02,1,99,9",,"999,N,+0042,1","99999,9,09663,1","3,1,030,1,+999,9","02,1","SYN094AAXX  23061 01047 11588 83210 10054 20002 39663 40032 53030 60082 70262 8672/ 333 20042 70150;",
"01047099999","2010-07-23T09:00:00","4","69.0166667","23.0666667","307.0","KAUTOKEINO II, NO","FM-12","ENKA ","V020","320,1,N,0100,1","00750,1,9,N","070000,1,N,1","+0102,1","+0033,1","10077,1",,,,"2,1,03,1","2,1,03,1",,"06,99,1,06,1,05,1,00800,1,00,1,00,1",,,"99999,9,09713,1","2,1,050,1,+999,9","02,1","SYN072AAXX  23091 01047 41588 63210 10102 20033 39713 40077 52050 70222 86500;",
"01047099999","2010-07-23T12:00:00","4","69.0166667","23.0666667","307.0","KAUTOKEINO II, NO","FM-12","ENKA ","V020","320,1,N,0100,1","00750,1,9,N","070000,1,N,1","+0104,1","-0001,1","10114,1",,,,"2,1,06,1","2,1,06,1",,"06,99,1,06,1,05,1,00800,1,00,1,00,1",,,"99999,9,09749,1","2,1,036,1,+999,9","02,1","SYN078AAXX  23121 01047 11588 63210 10104 21001 39749 40114 52036 6//// 70222 86500;",
"01047099999","2010-07-23T15:00:00","4","69.0166667","23.0666667","307.0","KAUTOKEINO II, NO","FM-12","ENKA ","V020","320,1,N,0070,1","01200,1,9,N","070000,1,N,1","+0104,1","-0010,1","10139,1",,,,"2,1,03,1","2,1,03,1",,"05,99,1,05,1,05,1,01250,1,00,1,00,1",,,"99999,9,09773,1","1,1,025,1,+999,9","02,1","SYN072AAXX  23151 01047 41688 53207 10104 21010 39773 40139 51025 70222 85500;",
"01047099999","2010-07-23T18:00:00","4","69.0166667","23.0666667","307.0","KAUTOKEINO II, NO","FM-12","ENKA ","V020","220,1,N,0070,1","01200,1,9,N","070000,1,N,1","+0090,1","-0020,1","10155,1","12,0000,9,1",,,"2,1,06,1","2,1,06,1",,"06,99,1,06,1,05,1,01250,1,00,1,00,1",,"999,M,+0115,1","99999,9,09786,1","1,1,013,1,+999,9","02,1","SYN088AAXX  23181 01047 11688 62207 10090 21020 39786 40155 51013 60002 70222 86500 333 10115;","Q01  00002PRCP12"
"01047099999","2010-07-24T00:00:00","4","69.0166667","23.0666667","307.0","KAUTOKEINO II, NO","FM-12","ENKA ","V020","320,1,N,0050,1","01500,1,9,N","070000,1,N,1","+0076,1","+0015,1","10170,1",,,,"2,1,06,1","2,1,06,1",,"05,99,1,05,1,00,1,01750,1,07,1,00,1",,,"99999,9,09799,1","2,1,008,1,+999,9","02,1","SYN078AAXX  24001 01047 11788 53205 10076 20015 39799 40170 52008 6//// 70222 85070;",
"01047099999","2010-07-24T06:00:00","4","69.0166667","23.0666667","307.0","KAUTOKEINO II, NO","FM-12","ENKA ","V020","220,1,N,0050,1","01500,1,9,N","070000,1,N,1","+0112,1","+0023,1","10183,1","12,0000,9,1","24,0000,9,1",,"2,1,06,1","2,1,06,1",,"06,99,1,06,1,00,1,01750,1,07,1,00,1",,"999,N,+0050,1","99999,9,09816,1","1,1,012,1,+999,9","02,1","SYN094AAXX  24061 01047 11788 62205 10112 20023 39816 40183 51012 60002 70222 86070 333 20050 70000;","Q01  00002PRCP24Q02  00002PRCP12"
"01047099999","2010-07-24T09:00:00","4","69.0166667","23.0666667","307.0","KAUTOKEINO II, NO","FM-12","ENKA ","V020","320,1,N,0050,1","03000,1,9,N","070000,1,N,1","+0140,1","+0032,1","10186,1",,,,"2,1,03,1","2,1,03,1",,"05,99,1,04,1,02,1,01250,1,04,1,00,1",,,"99999,9,09822,1","2,1,007,1,+999,9","02,1","SYN072AAXX  24091 01047 41688 53205 10140 20032 39822 40186 52007 70222 84240;",
"01047099999","2010-07-24T12:00:00","4","69.0166667","23.0666667","307.0","KAUTOKEINO II, NO","FM-12","ENKA ","V020","320,1,N,0070,1","01200,1,9,N","070000,1,N,1","+0152,1","+0027,1","10187,1",,,,"2,1,06,1","2,1,06,1",,"06,99,1,06,1,05,1,01250,1,00,1,00,1",,,"99999,9,09825,1","2,1,003,1,+999,9","02,1","SYN078AAXX  24121 01047 11688 63207 10152 20027 39825 40187 52003 6//// 70222 86500;",
"01047099999","2010-07-24T15:00:00","4","69.0166667","23.0666667","307.0","KAUTOKEINO II, NO","FM-12","ENKA ","V020","320,1,N,0030,1","01200,1,9,N","070000,1,N,1","+0158,1","+0029,1","10193,1",,,,"2,1,03,1","2,1,03,1",,"05,99,1,05,1,05,1,01250,1,00,1,00,1",,,"99999,9,09832,1","2,1,006,1,+999,9","02,1","SYN072AAXX  24151 01047 41688 53203 10158 20029 39832 40193 52006 70222 85500;",
"01047099999","2010-07-24T18:00:00","4","69.0166667","23.0666667","307.0","KAUTOKEINO II, NO","FM-12","ENKA ","V020","340,1,N,0030,1","22000,1,9,N","070000,1,N,1","+0154,1","+0036,1","10202,1","12,0000,9,1",,,"2,1,06,1","2,1,06,1",,"02,99,1,02,1,05,1,01250,1,00,1,00,1",,"999,M,+0165,1","99999,9,09840,1","2,1,009,1,+999,9","01,1","SYN088AAXX  24181 01047 11688 23403 10154 20036 39840 40202 52009 60002 70122 82500 333 10165;","Q01  00002PRCP12"
"01047099999","2010-07-25T00:00:00","4","69.0166667","23.0666667","307.0","KAUTOKEINO II, NO","FM-12","ENKA ","V020","360,1,N,0010,1","22000,1,9,N","070000,1,N,1","+0044,1","+0029,1","10232,1",,,,"0,1,06,1","0,1,06,1","00,1,+99999,9,99,9","00,99,1,00,1,00,1,99999,9,00,1,00,1",,,"99999,9,09855,1","1,1,008,1,+999,9","11,1","SYN072AAXX  25001 01047 11988 03601 10044 20029 39855 40232 51008 6//// 71100;",
"01047099999","2010-07-25T06:00:00","4","69.0166667","23.0666667","307.0","KAUTOKEINO II, NO","FM-12","ENKA ","V020","140,1,N,0010,1","99999,9,9,N","070000,1,N,1","+0114,1","+0051,1","10219,1","12,0000,9,1","24,0000,9,1",,"2,1,06,1","0,1,06,1",,"06,99,1,00,1,00,1,99999,9,00,1,08,1",,"999,N,+0035,1","99999,9,09851,1","4,1,000,1,+999,9","02,1","SYN094AAXX  25061 01047 11988 61401 10114 20051 39851 40219 54000 60002 70220 80008 333 20035 70000;","Q01  00002PRCP24Q02  00002PRCP12"
"01047099999","2010-07-25T09:00:00","4","69.0166667","23.0666667","307.0","KAUTOKEINO II, NO","FM-12","ENKA ","V020","999,9,C,0000,1","01500,1,9,N","070000,1,N,1","+0160,1","+0062,1","10209,1",,,,"2,1,03,1","2,1,03,1",,"07,99,1,07,1,00,1,01750,1,01,1,00,1",,,"99999,9,09847,1","7,1,004,1,+999,9","02,1","SYN072AAXX  25091 01047 41788 70000 10160 20062 39847 40209 57004 70222 87010;",
"01047099999","2010-07-25T12:00:00","4","69.0166667","23.0666667","307.0","KAUTOKEINO II, NO","FM-12","ENKA ","V020","140,1,N,0050,1","01500,1,9,N","070000,1,N,1","+0174,1","+0054,1","10207,1",,,,"2,1,06,1","2,1,06,1",,"07,99,1,07,1,00,1,01750,1,01,1,00,1",,,"99999,9,09847,1","4,1,000,1,+999,9","02,1","SYN078AAXX  25121 01047 11788 71405 10174 20054 39847 40207 54000 6//// 70222 87010;",
"01047099999","2010-07-25T15:00:00","4","69.0166667","23.0666667","307.0","KAUTOKEINO II, NO","FM-12","ENKA ","V020","180,1,N,0070,1","01500,1,9,N","070000,1,N,1","+0176,1","+0049,1","10201,1",,,,"2,1,03,1","2,1,03,1",,"06,99,1,06,1,00,1,01750,1,07,1,00,1",,,"99999,9,09841,1","7,1,005,1,+999,9","02,1","SYN072AAXX  25151 01047 41788 61807 10176 20049 39841 40201 57005 70222 86070;",
"01047099999","2010-07-25T18:00:00","4","69.0166667","23.0666667","307.0","KAUTOKEINO II, NO","FM-12","ENKA ","V020","180,1,N,0100,1","01500,1,9,N","070000,1,N,1","+0146,1","+0040,1","10204,1","12,0000,9,1",,,"2,1,06,1","2,1,06,1",,"08,99,1,08,1,00,1,01750,1,07,1,99,9",,"999,M,+0182,1","99999,9,09841,1","4,1,000,1,+999,9","02,1","SYN088AAXX  25181 01047 11788 81810 10146 20040 39841 40204 54000 60002 70222 8807/ 333 10182;","Q01  00002PRCP12"
"01047099999","2010-07-26T00:00:00","4","69.0166667","23.0666667","307.0","KAUTOKEINO II, NO","FM-12","ENKA ","V020","999,9,C,0000,1","01500,1,9,N","070000,1,N,1","+0084,1","+0069,1","10205,1",,,,"2,1,06,1","2,1,06,1",,"06,99,1,06,1,00,1,01750,1,07,1,00,1",,,"99999,9,09834,1","7,1,004,1,+999,9","02,1","SYN078AAXX  26001 01047 11788 60000 10084 20069 39834 40205 57004 6//// 70222 86070;",
"01047099999","2010-07-26T09:00:00","4","69.0166667","23.0666667","307.0","KAUTOKEINO II, NO","FM-12","ENKA ","V020","320,1,N,0030,1","07500,1,9,N","070000,1,N,1","+0158,1","+0060,1","10180,1",,,,"2,1,03,1","2,1,03,1",,"06,99,1,03,1,02,1,01250,1,00,1,08,1",,,"99999,9,09819,1","4,1,000,1,+999,9","02,1","SYN072AAXX  26091 01047 41688 63203 10158 20060 39819 40180 54000 70222 83208;",
"01047099999","2010-07-26T12:00:00","4","69.0166667","23.0666667","307.0","KAUTOKEINO II, NO","FM-12","ENKA ","V020","360,1,N,0050,1","22000,1,9,N","070000,1,N,1","+0182,1","+0064,1","10169,1",,,,"2,1,06,1","2,1,06,1",,"03,99,1,00,1,00,1,99999,9,00,1,08,1",,,"99999,9,09811,1","7,1,007,1,+999,9","02,1","SYN078AAXX  26121 01047 11988 33605 10182 20064 39811 40169 57007 6//// 70222 80008;",
"01047099999","2010-07-26T15:00:00","4","69.0166667","23.0666667","307.0","KAUTOKEINO II, NO","FM-12","ENKA ","V020","180,1,N,0070,1","01500,1,9,N","070000,1,N,1","+0180,1","+0068,1","10164,1",,,,"1,1,03,1","1,1,03,1",,"06,99,1,06,1,00,1,01750,1,07,1,00,1",,,"99999,9,09806,1","6,1,005,1,+999,9","02,1","SYN072AAXX  26151 01047 41788 61807 10180 20068 39806 40164 56005 70211 86070;",
"01047099999","2010-07-26T18:00:00","4","69.0166667","23.0666667","307.0","KAUTOKEINO II, NO","FM-12","ENKA ","V020","140,1,N,0050,1","01500,1,9,N","070000,1,N,1","+0160,1","+0067,1","10163,1","12,0000,9,1",,,"1,1,06,1","1,1,06,1",,"05,99,1,05,1,00,1,01750,1,07,1,00,1",,"999,M,+0192,1","99999,9,09803,1","6,1,004,1,+999,9","02,1","SYN088AAXX  26181 01047 11788 51405 10160 20067 39803 40163 56004 60002 70211 85070 333 10192;","Q01  00002PRCP12"
"01047099999","2010-07-27T00:00:00","4","69.0166667","23.0666667","307.0","KAUTOKEINO II, NO","FM-12","ENKA ","V020","180,1,N,0010,1","01500,1,9,N","070000,1,N,1","+0120,1","+0094,1","10157,1",,,,"2,1,06,1","2,1,06,1",,"08,99,1,08,1,00,1,01750,1,07,1,99,9",,,"99999,9,09792,1","7,1,004,1,+999,9","02,1","SYN078AAXX  27001 01047 11788 81801 10120 20094 39792 40157 57004 6//// 70222 8807/;",
"01047099999","2010-07-27T06:00:00","4","69.0166667","23.0666667","307.0","KAUTOKEINO II, NO","FM-12","ENKA ","V020","140,1,N,0010,1","01200,1,9,N","070000,1,N,1","+0149,1","+0119,1","10132,1","12,0000,9,1","24,0000,9,1",,"2,1,06,1","2,1,06,1",,"08,99,1,08,1,05,1,01250,1,99,9,99,9",,"999,N,+0107,1","99999,9,09772,1","7,1,008,1,+999,9","02,1","SYN094AAXX  27061 01047 11688 81401 10149 20119 39772 40132 57008 60002 70222 885// 333 20107 70000;","Q01  00002PRCP24Q02  00002PRCP12"
"01047099999","2010-07-27T09:00:00","4","69.0166667","23.0666667","307.0","KAUTOKEINO II, NO","FM-12","ENKA ","V020","140,1,N,0030,1","01200,1,9,N","070000,1,N,1","+0163,1","+0119,1","10124,1",,,,"2,1,03,1","2,1,03,1",,"08,99,1,06,1,05,1,01250,1,02,1,99,9",,,"99999,9,09766,1","6,1,006,1,+999,9","02,1","SYN072AAXX  27091 01047 41688 81403 10163 20119 39766 40124 56006 70222 8652/;",
"01047099999","2010-07-27T12:00:00","4","69.0166667","23.0666667","307.0","KAUTOKEINO II, NO","FM-12","ENKA ","V020","160,1,N,0030,1","03000,1,9,N","070000,1,N,1","+0190,1","+0151,1","10104,1",,,,"2,1,06,1","2,1,06,1",,"08,99,1,04,1,05,1,00800,1,02,1,99,9",,,"99999,9,09749,1","8,1,016,1,+999,9","02,1","SYN078AAXX  27121 01047 11588 81603 10190 20151 39749 40104 58016 6//// 70222 8452/;",
"01047099999","2010-07-27T15:00:00","4","69.0166667","23.0666667","307.0","KAUTOKEINO II, NO","FM-12","ENKA ","V020","999,9,C,0000,1","00750,1,9,N","070000,1,N,1","+0202,1","+0162,1","10078,1",,,,"2,1,03,1","2,1,03,1",,"08,99,1,08,1,09,1,00800,1,99,9,99,9",,,"99999,9,09726,1","7,1,025,1,+999,9","02,1","SYN072AAXX  27151 01047 41588 80000 10202 20162 39726 40078 57025 70222 889//;",
"01047099999","2010-07-27T18:00:00","4","69.0166667","23.0666667","307.0","KAUTOKEINO II, NO","FM-12","ENKA ","V020","180,1,N,0030,1","00750,1,9,N","020000,1,N,1","+0184,1","+0167,1","10058,1","12,0000,9,1",,,"8,1,06,1","2,1,06,1",,"08,99,1,08,1,09,1,00800,1,99,9,99,9",,"999,M,+0205,1","99999,9,09704,1","7,1,021,1,+999,9","10,1","SYN088AAXX  27181 01047 11570 81803 10184 20167 39704 40058 57021 69922 71082 889// 333 10205;","Q01  00002PRCP12"
"01047099999","2010-07-28T00:00:00","4","69.0166667","23.0666667","307.0","KAUTOKEINO II, NO","FM-12","ENKA ","V020","050,1,N,0010,1","00750,1,9,N","030000,1,N,1","+0154,1","+0138,1","10062,1",,,,"8,1,06,1","2,1,06,1",,"08,99,1,08,1,09,1,00800,1,99,9,99,9",,,"99999,9,09704,1","4,1,000,1,+999,9","02,1","SYN078AAXX  28001 01047 11580 80501 10154 20138 39704 40062 54000 6//// 70282 889//;",
"01047099999","2010-07-28T06:00:00","4","69.0166667","23.0666667","307.0","KAUTOKEINO II, NO","FM-12","ENKA ","V020","320,1,N,0050,1","03000,1,9,N","070000,1,N,1","+0133,1","+0105,1","10096,1","12,0010,9,1","24,0013,9,1",,"8,1,06,1","2,1,06,1",,"08,99,1,04,1,05,1,01250,1,02,1,99,9",,"999,N,+0133,1","99999,9,09735,1","2,1,010,1,+999,9","02,1","SYN094AAXX  28061 01047 11688 83205 10133 20105 39735 40096 52010 60012 70282 8452/ 333 20133 70013;",
"01047099999","2010-07-28T09:00:00","4","69.0166667","23.0666667","307.0","KAUTOKEINO II, NO","FM-12","ENKA ","V020","320,1,N,0050,1","01200,1,9,N","065000,1,N,1","+0136,1","+0120,1","10109,1",,,,"5,1,03,1","2,1,03,1",,"08,99,1,08,1,00,1,01250,1,02,1,99,9",,,"99999,9,09748,1","2,1,014,1,+999,9","20,1","SYN072AAXX  28091 01047 41687 83205 10136 20120 39748 40109 52014 72052 8802/;",
"01047099999","2010-07-28T12:00:00","4","69.0166667","23.0666667","307.0","KAUTOKEINO II, NO","FM-12","ENKA ","V020","320,1,N,0050,1","01200,1,9,N","065000,1,N,1","+0153,1","+0121,1","10118,1",,,,"2,1,06,1","2,1,06,1",,"08,99,1,05,1,05,1,01250,1,02,1,99,9",,,"99999,9,09758,1","2,1,010,1,+999,9","02,1","SYN078AAXX  28121 01047 11687 83205 10153 20121 39758 40118 52010 6//// 70222 8552/;",
"01047099999","2010-07-28T15:00:00","4","69.0166667","23.0666667","307.0","KAUTOKEINO II, NO","FM-12","ENKA ","V020","360,1,N,0050,1","00750,1,9,N","070000,1,N,1","+0140,1","+0102,1","10126,1",,,,"2,1,03,1","2,1,03,1",,"08,99,1,08,1,09,1,00800,1,99,9,99,9",,,"99999,9,09764,1","1,1,006,1,+999,9","02,1","SYN072AAXX  28151 01047 41588 83605 10140 20102 39764 40126 51006 70222 889//;",
"01047099999","2010-07-28T18:00:00","4","69.0166667","23.0666667","307.0","KAUTOKEINO II, NO","FM-12","ENKA ","V020","360,1,N,0050,1","01200,1,9,N","065000,1,N,1","+0142,1","+0121,1","10132,1","12,0000,2,1",,,"5,1,06,1","2,1,06,1",,"08,99,1,08,1,05,1,01250,1,99,9,99,9",,"999,M,+0158,1","99999,9,09770,1","3,1,006,1,+999,9","02,1","SYN088AAXX  28181 01047 11687 83605 10142 20121 39770 40132 53006 69922 70252 885// 333 10158;",
"01047099999","2010-07-29T00:00:00","4","69.0166667","23.0666667","307.0","KAUTOKEINO II, NO","FM-12","ENKA ","V020","360,1,N,0050,1","00750,1,9,N","070000,1,N,1","+0120,1","+0104,1","10149,1",,,,"2,1,06,1","2,1,06,1",,"08,99,1,08,1,09,1,00800,1,99,9,99,9",,,"99999,9,09784,1","1,1,005,1,+999,9","02,1","SYN078AAXX  29001 01047 11588 83605 10120 20104 39784 40149 51005 6//// 70222 889//;",
"01047099999","2010-07-29T06:00:00","4","69.0166667","23.0666667","307.0","KAUTOKEINO II, NO","FM-12","ENKA ","V020","999,9,C,0000,1","00750,1,9,N","070000,1,N,1","+0133,1","+0110,1","10158,1","12,0000,9,1","24,0003,9,1",,"8,1,06,1","2,1,06,1",,"08,99,1,08,1,05,1,00800,1,99,9,99,9",,"999,N,+0120,1","99999,9,09795,1","3,1,002,1,+999,9","02,1","SYN094AAXX  29061 01047 11588 80000 10133 20110 39795 40158 53002 69912 70282 885// 333 20120 70003;","Q01  00002PRCP12"
"01047099999","2010-07-29T09:00:00","4","69.0166667","23.0666667","307.0","KAUTOKEINO II, NO","FM-12","ENKA ","V020","360,1,N,0030,1","00750,1,9,N","070000,1,N,1","+0150,1","+0118,1","10155,1",,,,"2,1,03,1","2,1,03,1",,"08,99,1,08,1,05,1,00800,1,99,9,99,9",,,"99999,9,09794,1","1,1,001,1,+999,9","02,1","SYN072AAXX  29091 01047 41588 83603 10150 20118 39794 40155 51001 70222 885//;",
"01047099999","2010-07-29T12:00:00","4","69.0166667","23.0666667","307.0","KAUTOKEINO II, NO","FM-12","ENKA ","V020","140,1,N,0050,1","00750,1,9,N","070000,1,N,1","+0168,1","+0102,1","10156,1",,,,"2,1,06,1","2,1,06,1",,"07,99,1,07,1,05,1,00800,1,00,1,00,1",,,"99999,9,09797,1","2,1,004,1,+999,9","02,1","SYN078AAXX  29121 01047 11588 71405 10168 20102 39797 40156 52004 6//// 70222 87500;",
"01047099999","2010-07-29T15:00:00","4","69.0166667","23.0666667","307.0","KAUTOKEINO II, NO","FM-12","ENKA ","V020","140,1,N,0050,1","00750,1,9,N","070000,1,N,1","+0174,1","+0098,1","10155,1",,,,"2,1,03,1","2,1,03,1",,"08,99,1,08,1,05,1,00800,1,99,9,99,9",,,"99999,9,09797,1","4,1,000,1,+999,9","02,1","SYN072AAXX  29151 01047 41588 81405 10174 20098 39797 40155 54000 70222 885//;",
"01047099999","2010-07-29T18:00:00","4","69.0166667","23.0666667","307.0","KAUTOKEINO II, NO","FM-12","ENKA ","V020","140,1,N,0030,1","01200,1,9,N","030000,1,N,1","+0148,1","+0116,1","10159,1","12,9999,9,9",,,"6,1,06,1","2,1,06,1",,"08,99,1,08,1,00,1,01250,1,02,1,99,9",,"999,M,+0180,1","99999,9,09797,1","4,1,000,1,+999,9","61,1","SYN088AAXX  29181 01047 11680 81403 10148 20116 39797 40159 54000 69912 76162 8802/ 333 10180;","Q01  00002PRCP12Q02  00002PRCP12"
"01047099999","2010-07-30T00:00:00","4","69.0166667","23.0666667","307.0","KAUTOKEINO II, NO","FM-12","ENKA ","V020","999,9,C,0000,1","00750,1,9,N","070000,1,N,1","+0128,1","+0112,1","10155,1",,,,"6,1,06,1","2,1,06,1",,"08,99,1,06,1,07,1,00800,1,02,1,99,9",,,"99999,9,09791,1","4,1,000,1,+999,9","21,1","SYN078AAXX  30001 01047 11588 80000 10128 20112 39791 40155 54000 6//// 72162 8672/;",
"01047099999","2010-07-30T06:00:00","4","69.0166667","23.0666667","307.0","KAUTOKEINO II, NO","FM-12","ENKA ","V020","360,1,N,0030,1","01200,1,9,N","070000,1,N,1","+0131,1","+0115,1","10122,1","12,0008,9,1","24,0010,9,1",,"6,1,06,1","2,1,06,1",,"08,99,1,08,1,00,1,01250,1,02,1,99,9",,"999,N,+0123,1","99999,9,09760,1","7,1,012,1,+999,9","02,1","SYN094AAXX  30061 01047 11688 83603 10131 20115 39760 40122 57012 69982 70262 8802/ 333 20123 70009;",
"01047099999","2010-07-30T09:00:00","4","69.0166667","23.0666667","307.0","KAUTOKEINO II, NO","FM-12","ENKA ","V020","360,1,N,0030,1","01200,1,9,N","070000,1,N,1","+0140,1","+0122,1","10103,1",,,,"2,1,03,1","2,1,03,1",,"08,99,1,08,1,00,1,01250,1,02,1,99,9",,,"99999,9,09743,1","7,1,017,1,+999,9","02,1","SYN072AAXX  30091 01047 41688 83603 10140 20122 39743 40103 57017 70222 8802/;",
"01047099999","2010-07-30T12:00:00","4","69.0166667","23.0666667","307.0","KAUTOKEINO II, NO","FM-12","ENKA ","V020","140,1,N,0050,1","00750,1,9,N","010000,1,N,1","+0168,1","+0141,1","10076,1",,,,"2,1,06,1","2,1,06,1",,"08,99,1,06,1,07,1,00800,1,02,1,99,9",,,"99999,9,09720,1","7,1,023,1,+999,9","10,1","SYN078AAXX  30121 01047 11560 81405 10168 20141 39720 40076 57023 6//// 71022 8672/;",
"01047099999","2010-07-30T15:00:00","4","69.0166667","23.0666667","307.0","KAUTOKEINO II, NO","FM-12","ENKA ","V020","140,1,N,0030,1","00750,1,9,N","005000,1,N,1","+0168,1","+0141,1","10063,1",,,,"2,1,03,1","2,1,03,1",,"08,99,1,06,1,07,1,00800,1,02,1,99,9",,,"99999,9,09707,1","6,1,013,1,+999,9","10,1","SYN072AAXX  30151 01047 41550 81403 10168 20141 39707 40063 56013 71022 8672/;",
"01047099999","2010-07-30T18:00:00","4","69.0166667","23.0666667","307.0","KAUTOKEINO II, NO","FM-12","ENKA ","V020","999,9,C,0000,1","00750,1,9,N","006000,1,N,1","+0164,1","+0142,1","10049,1","12,0000,9,1",,,"6,1,06,1","2,1,06,1",,"08,99,1,06,1,07,1,00800,1,02,1,99,9",,"999,M,+0172,1","99999,9,09693,1","6,1,013,1,+999,9","10,1","SYN088AAXX  30181 01047 11556 80000 10164 20142 39693 40049 56013 69912 71062 8672/ 333 10172;","Q01  00002PRCP12"
"01047099999","2010-07-31T00:00:00","4","69.0166667","23.0666667","307.0","KAUTOKEINO II, NO","FM-12","ENKA ","V020","160,1,N,0050,1","22000,1,9,N","030000,1,N,1","+0152,1","+0136,1","10041,1",,,,"4,1,06,1","2,1,06,1",,"04,99,1,04,1,05,1,01250,1,00,1,00,1",,,"99999,9,09684,1","7,1,008,1,+999,9","02,1","SYN078AAXX  31001 01047 11680 41605 10152 20136 39684 40041 57008 6//// 70242 84500;",
"01047099999","2010-07-31T06:00:00","4","69.0166667","23.0666667","307.0","KAUTOKEINO II, NO","FM-12","ENKA ","V020","180,1,N,0070,1","00750,1,9,N","070000,1,N,1","+0162,1","+0114,1","10033,1","12,0000,9,1","24,0000,9,1",,"2,1,06,1","2,1,06,1",,"07,99,1,06,1,09,1,00800,1,04,1,00,1",,"999,N,+0129,1","99999,9,09678,1","6,1,002,1,+999,9","02,1","SYN094AAXX  31061 01047 11588 71807 10162 20114 39678 40033 56002 60002 70222 86940 333 20129 70001;","Q01  00002PRCP24Q02  00002PRCP12"
"01047099999","2010-07-31T09:00:00","4","69.0166667","23.0666667","307.0","KAUTOKEINO II, NO","FM-12","ENKA ","V020","180,1,N,0070,1","00750,1,9,N","070000,1,N,1","+0174,1","+0093,1","10022,1",,,,"2,1,03,1","2,1,03,1",,"07,99,1,05,1,09,1,00800,1,04,1,00,1",,,"99999,9,09668,1","8,1,009,1,+999,9","02,1","SYN072AAXX  31091 01047 41588 71807 10174 20093 39668 40022 58009 70222 85940;",
"01047099999","2010-07-31T12:00:00","4","69.0166667","23.0666667","307.0","KAUTOKEINO II, NO","FM-12","ENKA ","V020","180,1,N,0100,1","00750,1,9,N","070000,1,N,1","+0178,1","+0097,1","10017,1",,,,"2,1,06,1","2,1,06,1",,"07,99,1,07,1,09,1,00800,1,00,1,00,1",,,"99999,9,09664,1","6,1,005,1,+999,9","02,1","SYN078AAXX  31121 01047 11588 71810 10178 20097 39664 40017 56005 6//// 70222 87900;",
"01047099999","2010-07-31T15:00:00","4","69.0166667","23.0666667","307.0","KAUTOKEINO II, NO","FM-12","ENKA ","V020","180,1,N,0100,1","00750,1,9,N","070000,1,N,1","+0182,1","+0098,1","10007,1",,,,"2,1,03,1","2,1,03,1",,"07,99,1,05,1,09,1,00800,1,04,1,00,1",,,"99999,9,09655,1","6,1,010,1,+999,9","02,1","SYN072AAXX  31151 01047 41588 71810 10182 20098 39655 40007 56010 70222 85940;",
"01047099999","2010-07-31T18:00:00","4","69.0166667","23.0666667","307.0","KAUTOKEINO II, NO","FM-12","ENKA ","V020","180,1,N,0070,1","01200,1,9,N","070000,1,N,1","+0163,1","+0115,1","10006,1","12,0000,9,1",,,"2,1,06,1","2,1,06,1",,"07,99,1,07,1,05,1,01250,1,00,1,00,1",,"999,M,+0191,1","99999,9,09652,1","6,1,002,1,+999,9","02,1","SYN088AAXX  31181 01047 11688 71807 10163 20115 39652 40006 56002 60002 70222 87500 333 10191;","Q01  00002PRCP12"
"01047099999","2010-08-01T00:00:00","4","69.0166667","23.0666667","307.0","KAUTOKEINO II, NO","FM-12","ENKA ","V020","180,1,N,0010,1","00750,1,9,N","065000,1,N,1","+0140,1","+0119,1","10008,1",,,,"6,1,06,1","2,1,06,1",,"08,99,1,06,1,05,1,00800,1,02,1,99,9",,,"99999,9,09651,1","4,1,000,1,+999,9","02,1","SYN078AAXX  01001 01047 11587 81801 10140 20119 39651 40008 54000 6//// 70262 8652/;",
"01047099999","2010-08-01T06:00:00","4","69.0166667","23.0666667","307.0","KAUTOKEINO II, NO","FM-12","ENKA ","V020","999,9,C,0000,1","00750,1,9,N","065000,1,N,1","+0131,1","+0106,1","10042,1","12,0003,9,1","24,0003,9,1",,"6,1,06,1","2,1,06,1",,"08,99,1,05,1,05,1,00800,1,02,1,99,9",,"999,N,+0124,1","99999,9,09683,1","3,1,010,1,+999,9","02,1","SYN094AAXX  01061 01047 11587 80000 10131 20106 39683 40042 53010 69932 70262 8552/ 333 20124 70003;",
"01047099999","2010-08-01T09:00:00","4","69.0166667","23.0666667","307.0","KAUTOKEINO II, NO","FM-12","ENKA ","V020","180,1,N,0030,1","00750,1,9,N","070000,1,N,1","+0172,1","+0067,1","10050,1",,,,"2,1,03,1","2,1,03,1",,"07,99,1,05,1,02,1,00800,1,09,1,00,1",,,"99999,9,09695,1","2,1,012,1,+999,9","02,1","SYN072AAXX  01091 01047 41588 71803 10172 20067 39695 40050 52012 70222 85290;",
"01047099999","2010-08-01T12:00:00","4","69.0166667","23.0666667","307.0","KAUTOKEINO II, NO","FM-12","ENKA ","V020","180,1,N,0030,1","01200,1,9,N","070000,1,N,1","+0196,1","+0067,1","10052,1",,,,"2,1,06,1","1,1,06,1",,"06,99,1,06,1,02,1,01250,1,00,1,00,1",,,"99999,9,09700,1","1,1,005,1,+999,9","02,1","SYN078AAXX  01121 01047 11688 61803 10196 20067 39700 40052 51005 6//// 70221 86200;",
"01047099999","2010-08-01T15:00:00","4","69.0166667","23.0666667","307.0","KAUTOKEINO II, NO","FM-12","ENKA ","V020","180,1,N,0030,1","00750,1,9,N","070000,1,N,1","+0203,1","+0083,1","10052,1",,,,"2,1,03,1","1,1,03,1",,"07,99,1,06,1,09,1,00800,1,04,1,00,1",,,"99999,9,09701,1","1,1,001,1,+999,9","02,1","SYN072AAXX  01151 01047 41588 71803 10203 20083 39701 40052 51001 70221 86940;",
"01047099999","2010-08-01T18:00:00","4","69.0166667","23.0666667","307.0","KAUTOKEINO II, NO","FM-12","ENKA ","V020","999,9,C,0000,1","03000,1,9,N","070000,1,N,1","+0187,1","+0122,1","10060,1","12,0000,9,1",,,"8,1,06,1","2,1,06,1",,"06,99,1,03,1,04,1,01250,1,04,1,00,1",,"999,M,+0212,1","99999,9,09707,1","1,1,006,1,+999,9","02,1","SYN088AAXX  01181 01047 11688 60000 10187 20122 39707 40060 51006 69912 70282 83440 333 10212;","Q01  00002PRCP12"
"01047099999","2010-08-02T00:00:00","4","69.0166667","23.0666667","307.0","KAUTOKEINO II, NO","FM-12","ENKA ","V020","999,9,C,0000,1","00750,1,9,N","070000,1,N,1","+0137,1","+0116,1","10072,1",,,,"8,1,06,1","2,1,06,1",,"07,99,1,07,1,09,1,00800,1,00,1,00,1",,,"99999,9,09713,1","3,1,003,1,+999,9","02,1","SYN078AAXX  02001 01047 11588 70000 10137 20116 39713 40072 53003 6//// 70282 87900;",
"01047099999","2010-08-02T06:00:00","4","69.0166667","23.0666667","307.0","KAUTOKEINO II, NO","FM-12","ENKA ","V020","140,1,N,0050,1","00750,1,9,N","003000,1,N,1","+0145,1","+0129,1","10061,1","12,0051,9,2","24,0048,9,2",,"8,1,06,1","6,1,06,1",,"08,99,1,06,1,05,1,00800,1,02,1,99,9",,"999,N,+0137,1","99999,9,09702,1","6,1,004,1,+999,9","64,1","SYN094AAXX  02061 01047 11530 81405 10145 20129 39702 40061 56004 60052 76486 8652/ 333 20137 70047;",
"01047099999","2010-08-02T09:00:00","4","69.0166667","23.0666667","307.0","KAUTOKEINO II, NO","FM-12","ENKA ","V020","140,1,N,0050,1","00750,1,9,N","065000,1,N,1","+0176,1","+0152,1","10053,1",,,,"6,1,03,1","2,1,03,1",,"07,99,1,07,1,07,1,00800,1,00,1,00,1",,,"99999,9,09698,1","6,1,004,1,+999,9","21,1","SYN072AAXX  02091 01047 41587 71405 10176 20152 39698 40053 56004 72162 87700;",
"01047099999","2010-08-02T15:00:00","4","69.0166667","23.0666667","307.0","KAUTOKEINO II, NO","FM-12","ENKA ","V020","160,1,N,0050,1","00750,1,9,N","020000,1,N,1","+0162,1","+0139,1","10055,1",,,,"6,1,03,1","2,1,03,1",,"08,99,1,06,1,07,1,00800,1,02,1,99,9",,,"99999,9,09698,1","4,1,000,1,+999,9","63,1","SYN072AAXX  02151 01047 41570 81605 10162 20139 39698 40055 54000 76362 8672/;",
"01047099999","2010-08-02T18:00:00","4","69.0166667","23.0666667","307.0","KAUTOKEINO II, NO","FM-12","ENKA ","V020","320,1,N,0050,1","00750,1,9,N","070000,1,N,1","+0154,1","+0116,1","10058,1","12,0160,9,1",,,"6,1,06,1","2,1,06,1",,"07,99,1,07,1,05,1,00800,1,00,1,00,1",,"999,M,+0205,1","99999,9,09700,1","4,1,000,1,+999,9","02,1","SYN088AAXX  02181 01047 11588 73205 10154 20116 39700 40058 54000 60162 70262 87500 333 10205;",
"01047099999","2010-08-03T00:00:00","4","69.0166667","23.0666667","307.0","KAUTOKEINO II, NO","FM-12","ENKA ","V020","360,1,N,0010,1","00750,1,9,N","070000,1,N,1","+0110,1","+0089,1","10077,1",,,,"2,1,06,1","2,1,06,1",,"08,99,1,08,1,05,1,00800,1,99,9,99,9",,,"99999,9,09714,1","1,1,005,1,+999,9","02,1","SYN078AAXX  03001 01047 11588 83601 10110 20089 39714 40077 51005 6//// 70222 885//;",
"01047099999","2010-08-03T06:00:00","4","69.0166667","23.0666667","307.0","KAUTOKEINO II, NO","FM-12","ENKA ","V020","999,9,C,0000,1","22000,1,9,N","070000,1,N,1","+0137,1","+0085,1","10071,1","12,0000,9,1","24,0165,9,1",,"2,1,06,1","1,1,06,1",,"04,99,1,04,1,02,1,01250,1,00,1,00,1",,"999,N,+0105,1","99999,9,09711,1","4,1,000,1,+999,9","02,1","SYN094AAXX  03061 01047 11688 40000 10137 20085 39711 40071 54000 69922 70221 84200 333 20105 70164;","Q01  00002PRCP12"
"01047099999","2010-08-03T09:00:00","4","69.0166667","23.0666667","307.0","KAUTOKEINO II, NO","FM-12","ENKA ","V020","999,9,C,0000,1","01200,1,9,N","070000,1,N,1","+0154,1","+0074,1","10067,1",,,,"2,1,03,1","0,1,03,1",,"07,99,1,05,1,02,1,01250,1,09,1,00,1",,,"99999,9,09709,1","6,1,001,1,+999,9","03,1","SYN072AAXX  03091 01047 41688 70000 10154 20074 39709 40067 56001 70320 85290;",
"01047099999","2010-08-03T12:00:00","4","69.0166667","23.0666667","307.0","KAUTOKEINO II, NO","FM-12","ENKA ","V020","180,1,N,0010,1","00750,1,9,N","070000,1,N,1","+0170,1","+0071,1","10063,1",,,,"2,1,06,1","2,1,06,1",,"08,99,1,08,1,09,1,00800,1,99,9,99,9",,,"99999,9,09708,1","4,1,000,1,+999,9","02,1","SYN078AAXX  03121 01047 11588 81801 10170 20071 39708 40063 54000 6//// 70222 889//;",
"01047099999","2010-08-03T15:00:00","4","69.0166667","23.0666667","307.0","KAUTOKEINO II, NO","FM-12","ENKA ","V020","180,1,N,0050,1","00750,1,9,N","070000,1,N,1","+0162,1","+0087,1","10065,1",,,,"2,1,03,1","2,1,03,1",,"08,99,1,08,1,09,1,00800,1,99,9,99,9",,,"99999,9,09709,1","4,1,000,1,+999,9","02,1","SYN072AAXX  03151 01047 41588 81805 10162 20087 39709 40065 54000 70222 889//;",
"01047099999","2010-08-03T18:00:00","4","69.0166667","23.0666667","307.0","KAUTOKEINO II, NO","FM-12","ENKA ","V020","180,1,N,0030,1","00750,1,9,N","070000,1,N,1","+0140,1","+0117,1","10073,1","12,0005,9,1",,,"8,1,06,1","2,1,06,1",,"07,99,1,07,1,09,1,00800,1,00,1,00,1",,"999,M,+0175,1","99999,9,09714,1","2,1,005,1,+999,9","25,1","SYN088AAXX  03181 01047 11588 71803 10140 20117 39714 40073 52005 69962 72582 87900 333 10175;",
"01047099999","2010-08-04T00:00:00","4","69.0166667","23.0666667","307.0","KAUTOKEINO II, NO","FM-12","ENKA ","V020","999,9,C,0000,1","00030,1,9,N","000500,1,N,1","+0086,1","+0072,1","10091,1",,,,"4,1,06,1","2,1,06,1","09,1,+99999,9,99,9","09,99,1,09,1,99,9,99999,9,99,9,99,9",,,"99999,9,09724,1","2,1,005,1,+999,9","46,1","SYN072AAXX  04001 01047 11/05 90000 10086 20072 39724 40091 52005 6//// 74642;",
"01047099999","2010-08-04T06:00:00","4","69.0166667","23.0666667","307.0","KAUTOKEINO II, NO","FM-12","ENKA ","V020","999,9,C,0000,1","00060,1,9,N","000600,1,N,1","+0102,1","+0091,1","10097,1","12,0000,2,1","24,0008,9,1",,"5,1,06,1","4,1,06,1","09,1,+99999,9,99,9","09,99,1,09,1,99,9,99999,9,99,9,99,9",,"999,N,+0058,1","99999,9,09732,1","1,1,004,1,+999,9","45,1","SYN088AAXX  04061 01047 11/06 90000 10102 20091 39732 40097 51004 69922 74554 333 20058 70008;",
"01047099999","2010-08-04T09:00:00","4","69.0166667","23.0666667","307.0","KAUTOKEINO II, NO","FM-12","ENKA ","V020","140,1,N,0030,1","22000,1,9,N","070000,1,N,1","+0164,1","+0100,1","10086,1",,,,"4,1,03,1","2,1,03,1",,"04,99,1,03,1,04,1,01250,1,04,1,00,1",,,"99999,9,09729,1","4,1,000,1,+999,9","02,1","SYN072AAXX  04091 01047 41688 41403 10164 20100 39729 40086 54000 70242 83440;",
"01047099999","2010-08-04T12:00:00","4","69.0166667","23.0666667","307.0","KAUTOKEINO II, NO","FM-12","ENKA ","V020","160,1,N,0050,1","01200,1,9,N","070000,1,N,1","+0190,1","+0078,1","10077,1",,,,"2,1,06,1","2,1,06,1",,"06,99,1,06,1,02,1,01250,1,00,1,00,1",,,"99999,9,09724,1","7,1,005,1,+999,9","02,1","SYN078AAXX  04121 01047 11688 61605 10190 20078 39724 40077 57005 6//// 70222 86200;",
"01047099999","2010-08-04T15:00:00","4","69.0166667","23.0666667","307.0","KAUTOKEINO II, NO","FM-12","ENKA ","V020","160,1,N,0050,1","03000,1,9,N","070000,1,N,1","+0198,1","+0085,1","10066,1",,,,"2,1,03,1","2,1,03,1",,"06,99,1,03,1,02,1,01250,1,09,1,00,1",,,"99999,9,09714,1","7,1,010,1,+999,9","02,1","SYN072AAXX  04151 01047 41688 61605 10198 20085 39714 40066 57010 70222 83290;",
"01047099999","2010-08-04T18:00:00","4","69.0166667","23.0666667","307.0","KAUTOKEINO II, NO","FM-12","ENKA ","V020","050,1,N,0030,1","03000,1,9,N","070000,1,N,1","+0194,1","+0075,1","10059,1","12,0000,9,1",,,"2,1,06,1","2,1,06,1",,"08,99,1,03,1,05,1,01250,1,02,1,99,9",,"999,M,+0205,1","99999,9,09706,1","7,1,007,1,+999,9","02,1","SYN088AAXX  04181 01047 11688 80503 10194 20075 39706 40059 57007 60002 70222 8352/ 333 10205;","Q01  00002PRCP12"
"01047099999","2010-08-05T00:00:00","4","69.0166667","23.0666667","307.0","KAUTOKEINO II, NO","FM-12","ENKA ","V020","360,1,N,0050,1","03000,1,9,N","070000,1,N,1","+0140,1","+0113,1","10044,1",,,,"2,1,06,1","2,1,06,1",,"08,99,1,03,1,05,1,00800,1,02,1,99,9",,,"99999,9,09685,1","7,1,008,1,+999,9","02,1","SYN078AAXX  05001 01047 11588 83605 10140 20113 39685 40044 57008 6//// 70222 8352/;",
"01047099999","2010-08-05T06:00:00","4","69.0166667","23.0666667","307.0","KAUTOKEINO II, NO","FM-12","ENKA ","V020","360,1,N,0070,1","03000,1,9,N","010000,1,N,1","+0121,1","+0105,1","10026,1","12,0099,9,1","24,0099,9,1",,"6,1,06,1","2,1,06,1",,"08,99,1,04,1,05,1,00800,1,02,1,99,9",,"999,N,+0121,1","99999,9,09665,1","7,1,010,1,+999,9","62,1","SYN094AAXX  05061 01047 11560 83607 10121 20105 39665 40026 57010 60102 76262 8452/ 333 20121 70099;",
"01047099999","2010-08-05T09:00:00","4","69.0166667","23.0666667","307.0","KAUTOKEINO II, NO","FM-12","ENKA ","V020","360,1,N,0070,1","00750,1,9,N","070000,1,N,1","+0134,1","+0113,1","10034,1",,,,"6,1,03,1","6,1,03,1",,"08,99,1,06,1,07,1,00800,1,02,1,99,9",,,"99999,9,09675,1","3,1,010,1,+999,9","21,1","SYN072AAXX  05091 01047 41588 83607 10134 20113 39675 40034 53010 72166 8672/;",
"01047099999","2010-08-05T12:00:00","4","69.0166667","23.0666667","307.0","KAUTOKEINO II, NO","FM-12","ENKA ","V020","360,1,N,0070,1","00750,1,9,N","003000,1,N,1","+0140,1","+0112,1","10061,1",,,,"5,1,06,1","2,1,06,1",,"08,99,1,06,1,07,1,00800,1,02,1,99,9",,,"99999,9,09702,1","2,1,027,1,+999,9","53,1","SYN078AAXX  05121 01047 11530 83607 10140 20112 39702 40061 52027 6//// 75352 8672/;",
"01047099999","2010-08-05T15:00:00","4","69.0166667","23.0666667","307.0","KAUTOKEINO II, NO","FM-12","ENKA ","V020","360,1,N,0070,1","00750,1,9,N","070000,1,N,1","+0141,1","+0095,1","10095,1",,,,"5,1,03,1","2,1,03,1",,"08,99,1,08,1,05,1,00800,1,99,9,99,9",,,"99999,9,09734,1","2,1,032,1,+999,9","02,1","SYN072AAXX  05151 01047 41588 83607 10141 20095 39734 40095 52032 70252 885//;",
"01047099999","2010-08-05T18:00:00","4","69.0166667","23.0666667","307.0","KAUTOKEINO II, NO","FM-12","ENKA ","V020","999,9,C,0000,1","22000,1,9,N","070000,1,N,1","+0150,1","+0083,1","10113,1","12,0030,9,1",,,"6,1,06,1","5,1,06,1",,"03,99,1,03,1,05,1,00800,1,00,1,00,1",,"999,M,+0152,1","99999,9,09753,1","2,1,019,1,+999,9","02,1","SYN088AAXX  05181 01047 11588 30000 10150 20083 39753 40113 52019 60032 70265 83500 333 10152;",
"01047099999","2010-08-06T00:00:00","4","69.0166667","23.0666667","307.0","KAUTOKEINO II, NO","FM-12","ENKA ","V020","999,9,C,0000,1","00015,1,9,N","000000,1,N,1","+0050,1","+0037,1","10171,1",,,,"4,1,06,1","2,1,06,1","09,1,+99999,9,99,9","09,99,1,09,1,99,9,99999,9,99,9,99,9",,,"99999,9,09797,1","1,1,020,1,+999,9","45,1","SYN072AAXX  06001 01047 11/00 90000 10050 20037 39797 40171 51020 6//// 74542;",
"01047099999","2010-08-06T06:00:00","4","69.0166667","23.0666667","307.0","KAUTOKEINO II, NO","FM-12","ENKA ","V020","999,9,C,0000,1","22000,1,9,N","070000,1,N,1","+0123,1","+0109,1","10185,1","12,0000,9,1","24,0030,9,1",,"4,1,06,1","2,1,06,1",,"03,99,1,03,1,04,1,01250,1,00,1,00,1",,"999,N,+0047,1","99999,9,09819,1","2,1,009,1,+999,9","02,1","SYN094AAXX  06061 01047 11688 30000 10123 20109 39819 40185 52009 60002 70242 83400 333 20047 70030;","Q01  00002PRCP12"
"01047099999","2010-08-06T09:00:00","4","69.0166667","23.0666667","307.0","KAUTOKEINO II, NO","FM-12","ENKA ","V020","180,1,N,0070,1","01500,1,9,N","070000,1,N,1","+0178,1","+0084,1","10183,1",,,,"1,1,03,1","1,1,03,1",,"05,99,1,05,1,00,1,01750,1,09,1,00,1",,,"99999,9,09824,1","1,1,005,1,+999,9","02,1","SYN072AAXX  06091 01047 41788 51807 10178 20084 39824 40183 51005 70211 85090;",
"01047099999","2010-08-06T12:00:00","4","69.0166667","23.0666667","307.0","KAUTOKEINO II, NO","FM-12","ENKA ","V020","180,1,N,0100,1","01500,1,9,N","070000,1,N,1","+0202,1","+0089,1","10180,1",,,,"1,1,06,1","1,1,06,1",,"05,99,1,05,1,00,1,01750,1,09,1,00,1",,,"99999,9,09824,1","4,1,000,1,+999,9","02,1","SYN078AAXX  06121 01047 11788 51810 10202 20089 39824 40180 54000 6//// 70211 85090;",
"01047099999","2010-08-06T15:00:00","4","69.0166667","23.0666667","307.0","KAUTOKEINO II, NO","FM-12","ENKA ","V020","180,1,N,0100,1","03000,1,9,N","070000,1,N,1","+0210,1","+0096,1","10179,1",,,,"2,1,03,1","2,1,03,1",,"05,99,1,02,1,02,1,01250,1,09,1,00,1",,,"99999,9,09825,1","4,1,000,1,+999,9","02,1","SYN072AAXX  06151 01047 41688 51810 10210 20096 39825 40179 54000 70222 82290;",
"01047099999","2010-08-06T18:00:00","4","69.0166667","23.0666667","307.0","KAUTOKEINO II, NO","FM-12","ENKA ","V020","180,1,N,0070,1","01500,1,9,N","070000,1,N,1","+0184,1","+0103,1","10187,1","12,0000,9,1",,,"2,1,06,1","2,1,06,1",,"06,99,1,06,1,00,1,01750,1,07,1,00,1",,"999,M,+0216,1","99999,9,09829,1","3,1,004,1,+999,9","02,1","SYN088AAXX  06181 01047 11788 61807 10184 20103 39829 40187 53004 60002 70222 86070 333 10216;","Q01  00002PRCP12"
"01047099999","2010-08-07T00:00:00","4","69.0166667","23.0666667","307.0","KAUTOKEINO II, NO","FM-12","ENKA ","V020","180,1,N,0070,1","03000,1,9,N","070000,1,N,1","+0130,1","+0114,1","10199,1",,,,"2,1,06,1","2,1,06,1",,"05,99,1,02,1,04,1,01250,1,07,1,00,1",,,"99999,9,09834,1","4,1,000,1,+999,9","02,1","SYN078AAXX  07001 01047 11688 51807 10130 20114 39834 40199 54000 6//// 70222 82470;",
"01047099999","2010-08-07T06:00:00","4","69.0166667","23.0666667","307.0","KAUTOKEINO II, NO","FM-12","ENKA ","V020","180,1,N,0050,1","22000,1,9,N","070000,1,N,1","+0165,1","+0112,1","10187,1","12,0000,9,1","24,0000,9,1",,"2,1,06,1","1,1,06,1",,"04,99,1,04,1,00,1,01750,1,07,1,00,1",,"999,N,+0116,1","99999,9,09827,1","6,1,005,1,+999,9","02,1","SYN094AAXX  07061 01047 11788 41805 10165 20112 39827 40187 56005 60002 70221 84070 333 20116 70000;","Q01  00002PRCP24Q02  00002PRCP12"
"01047099999","2010-08-07T09:00:00","4","69.0166667","23.0666667","307.0","KAUTOKEINO II, NO","FM-12","ENKA ","V020","180,1,N,0070,1","22000,1,9,N","070000,1,N,1","+0204,1","+0111,1","10174,1",,,,"1,1,03,1","1,1,03,1",,"03,99,1,03,1,01,1,01250,1,00,1,00,1",,,"99999,9,09818,1","7,1,008,1,+999,9","02,1","SYN072AAXX  07091 01047 41688 31807 10204 20111 39818 40174 57008 70211 83100;",
"01047099999","2010-08-07T12:00:00","4","69.0166667","23.0666667","307.0","KAUTOKEINO II, NO","FM-12","ENKA ","V020","180,1,N,0100,1","22000,1,9,N","070000,1,N,1","+0222,1","+0083,1","10166,1",,,,"0,1,06,1","0,1,06,1",,"03,99,1,03,1,02,1,01250,1,00,1,00,1",,,"99999,9,09813,1","7,1,005,1,+999,9","02,1","SYN078AAXX  07121 01047 11688 31810 10222 20083 39813 40166 57005 6//// 70200 83200;",
"01047099999","2010-08-07T15:00:00","4","69.0166667","23.0666667","307.0","KAUTOKEINO II, NO","FM-12","ENKA ","V020","180,1,N,0100,1","22000,1,9,N","070000,1,N,1","+0228,1","+0085,1","10162,1",,,,"0,1,03,1","0,1,03,1",,"04,99,1,02,1,02,1,01250,1,04,1,00,1",,,"99999,9,09810,1","7,1,004,1,+999,9","02,1","SYN072AAXX  07151 01047 41688 41810 10228 20085 39810 40162 57004 70200 82240;",
"01047099999","2010-08-07T18:00:00","4","69.0166667","23.0666667","307.0","KAUTOKEINO II, NO","FM-12","ENKA ","V020","320,1,N,0070,1","01200,1,9,N","070000,1,N,1","+0182,1","+0115,1","10172,1","12,0000,9,1",,,"2,1,06,1","2,1,06,1",,"06,99,1,05,1,03,1,01250,1,04,1,00,1",,"999,M,+0230,1","99999,9,09814,1","2,1,004,1,+999,9","02,1","SYN088AAXX  07181 01047 11688 63207 10182 20115 39814 40172 52004 60002 70222 85340 333 10230;","Q01  00002PRCP12"
"01047099999","2010-08-08T00:00:00","4","69.0166667","23.0666667","307.0","KAUTOKEINO II, NO","FM-12","ENKA ","V020","360,1,N,0050,1","00750,1,9,N","030000,1,N,1","+0132,1","+0116,1","10180,1",,,,"8,1,06,1","2,1,06,1",,"07,99,1,07,1,09,1,00800,1,00,1,00,1",,,"99999,9,09815,1","4,1,000,1,+999,9","80,1","SYN078AAXX  08001 01047 11580 73605 10132 20116 39815 40180 54000 6//// 78082 87900;",
"01047099999","2010-08-08T06:00:00","4","69.0166667","23.0666667","307.0","KAUTOKEINO II, NO","FM-12","ENKA ","V020","999,9,C,0000,1","00750,1,9,N","070000,1,N,1","+0153,1","+0121,1","10174,1","12,0020,9,2","24,0015,9,2",,"8,1,06,1","2,1,06,1",,"06,99,1,06,1,05,1,00800,1,00,1,00,1",,"999,N,+0100,1","99999,9,09812,1",,"02,1","SYN094AAXX  08061 01047 11588 60000 10153 20121 39812 40174 59002 60022 70282 86500 333 20100 70015;",
"01047099999","2010-08-08T09:00:00","4","69.0166667","23.0666667","307.0","KAUTOKEINO II, NO","FM-12","ENKA ","V020","050,1,N,0010,1","22000,1,9,N","070000,1,N,1","+0182,1","+0124,1","10166,1",,,,"2,1,03,1","1,1,03,1",,"05,99,1,03,1,02,1,00800,1,00,1,01,1",,,"99999,9,09808,1","6,1,004,1,+999,9","02,1","SYN072AAXX  08091 01047 41588 50501 10182 20124 39808 40166 56004 70221 83201;",
"01047099999","2010-08-08T12:00:00","4","69.0166667","23.0666667","307.0","KAUTOKEINO II, NO","FM-12","ENKA ","V020","320,1,N,0010,1","03000,1,9,N","070000,1,N,1","+0208,1","+0106,1","10148,1",,,,"2,1,06,1","2,1,06,1",,"07,99,1,03,1,02,1,01250,1,09,1,08,1",,,"99999,9,09795,1","7,1,014,1,+999,9","02,1","SYN078AAXX  08121 01047 11688 73201 10208 20106 39795 40148 57014 6//// 70222 83298;",
"01047099999","2010-08-08T15:00:00","4","69.0166667","23.0666667","307.0","KAUTOKEINO II, NO","FM-12","ENKA ","V020","360,1,N,0050,1","00750,1,9,N","070000,1,N,1","+0200,1","+0107,1","10139,1",,,,"2,1,03,1","2,1,03,1",,"08,99,1,08,1,09,1,00800,1,99,9,99,9",,,"99999,9,09785,1","7,1,010,1,+999,9","02,1","SYN072AAXX  08151 01047 41588 83605 10200 20107 39785 40139 57010 70222 889//;",
"01047099999","2010-08-08T18:00:00","4","69.0166667","23.0666667","307.0","KAUTOKEINO II, NO","FM-12","ENKA ","V020","360,1,N,0050,1","00750,1,9,N","070000,1,N,1","+0174,1","+0117,1","10143,1","12,0000,9,1",,,"2,1,06,1","2,1,06,1",,"07,99,1,05,1,09,1,00800,1,04,1,00,1",,"999,M,+0210,1","99999,9,09785,1","4,1,000,1,+999,9","02,1","SYN088AAXX  08181 01047 11588 73605 10174 20117 39785 40143 54000 60002 70222 85940 333 10210;","Q01  00002PRCP12"
"01047099999","2010-08-09T00:00:00","4","69.0166667","23.0666667","307.0","KAUTOKEINO II, NO","FM-12","ENKA ","V020","360,1,N,0050,1","00750,1,9,N","070000,1,N,1","+0126,1","+0098,1","10155,1",,,,"2,1,06,1","2,1,06,1",,"08,99,1,08,1,05,1,00800,1,99,9,99,9",,,"99999,9,09791,1","1,1,005,1,+999,9","02,1","SYN078AAXX  09001 01047 11588 83605 10126 20098 39791 40155 51005 6//// 70222 885//;",
"01047099999","2010-08-09T06:00:00","4","69.0166667","23.0666667","307.0","KAUTOKEINO II, NO","FM-12","ENKA ","V020","360,1,N,0050,1","01200,1,9,N","070000,1,N,1","+0122,1","+0096,1","10155,1","12,0000,9,1","24,0000,9,1",,"2,1,06,1","2,1,06,1",,"08,99,1,08,1,00,1,01250,1,02,1,99,9",,"999,N,+0118,1","99999,9,09791,1","5,1,000,1,+999,9","02,1","SYN094AAXX  09061 01047 11688 83605 10122 20096 39791 40155 55000 60002 70222 8802/ 333 20118 70000;","Q01  00002PRCP24Q02  00002PRCP12"
"01047099999","2010-08-09T09:00:00","4","69.0166667","23.0666667","307.0","KAUTOKEINO II, NO","FM-12","ENKA ","V020","360,1,N,0050,1","03000,1,9,N","070000,1,N,1","+0126,1","+0083,1","10153,1",,,,"2,1,03,1","2,1,03,1",,"08,99,1,03,1,05,1,01250,1,02,1,99,9",,,"99999,9,09789,1","6,1,002,1,+999,9","02,1","SYN072AAXX  09091 01047 41688 83605 10126 20083 39789 40153 56002 70222 8352/;",
"01047099999","2010-08-09T12:00:00","4","69.0166667","23.0666667","307.0","KAUTOKEINO II, NO","FM-12","ENKA ","V020","360,1,N,0050,1","01200,1,9,N","070000,1,N,1","+0142,1","+0094,1","10142,1",,,,"2,1,06,1","2,1,06,1",,"08,99,1,08,1,05,1,01250,1,99,9,99,9",,,"99999,9,09780,1","7,1,008,1,+999,9","02,1","SYN078AAXX  09121 01047 11688 83605 10142 20094 39780 40142 57008 6//// 70222 885//;",
"01047099999","2010-08-09T15:00:00","4","69.0166667","23.0666667","307.0","KAUTOKEINO II, NO","FM-12","ENKA ","V020","360,1,N,0050,1","01200,1,9,N","070000,1,N,1","+0146,1","+0081,1","10135,1",,,,"2,1,03,1","2,1,03,1",,"08,99,1,08,1,05,1,01250,1,99,9,99,9",,,"99999,9,09774,1","7,1,006,1,+999,9","02,1","SYN072AAXX  09151 01047 41688 83605 10146 20081 39774 40135 57006 70222 885//;",
"01047099999","2010-08-09T18:00:00","4","69.0166667","23.0666667","307.0","KAUTOKEINO II, NO","FM-12","ENKA ","V020","360,1,N,0030,1","01200,1,9,N","070000,1,N,1","+0132,1","+0087,1","10132,1","12,0000,9,1",,,"2,1,06,1","2,1,06,1",,"08,99,1,08,1,05,1,01250,1,99,9,99,9",,"999,M,+0150,1","99999,9,09769,1","6,1,005,1,+999,9","02,1","SYN088AAXX  09181 01047 11688 83603 10132 20087 39769 40132 56005 60002 70222 885// 333 10150;","Q01  00002PRCP12"
"01047099999","2010-08-10T00:00:00","4","69.0166667","23.0666667","307.0","KAUTOKEINO II, NO","FM-12","ENKA ","V020","999,9,C,0000,1","01200,1,9,N","070000,1,N,1","+0108,1","+0092,1","10126,1",,,,"2,1,06,1","2,1,06,1",,"08,99,1,08,1,05,1,01250,1,99,9,99,9",,,"99999,9,09761,1","7,1,005,1,+999,9","02,1","SYN078AAXX  10001 01047 11688 80000 10108 20092 39761 40126 57005 6//// 70222 885//;",
"01047099999","2010-08-10T06:00:00","4","69.0166667","23.0666667","307.0","KAUTOKEINO II, NO","FM-12","ENKA ","V020","999,9,C,0000,1","01200,1,9,N","070000,1,N,1","+0125,1","+0072,1","10119,1","12,0000,9,1","24,0000,9,1",,"2,1,06,1","2,1,06,1",,"07,99,1,05,1,04,1,01250,1,07,1,00,1",,"999,N,+0106,1","99999,9,09756,1","6,1,002,1,+999,9","02,1","SYN094AAXX  10061 01047 11688 70000 10125 20072 39756 40119 56002 60002 70222 85470 333 20106 70000;","Q01  00002PRCP24Q02  00002PRCP12"
"01047099999","2010-08-10T09:00:00","4","69.0166667","23.0666667","307.0","KAUTOKEINO II, NO","FM-12","ENKA ","V020","180,1,N,0030,1","01200,1,9,N","070000,1,N,1","+0144,1","+0047,1","10114,1",,,,"2,1,03,1","2,1,03,1",,"08,99,1,08,1,05,1,01250,1,99,9,99,9",,,"99999,9,09754,1","4,1,000,1,+999,9","02,1","SYN072AAXX  10091 01047 41688 81803 10144 20047 39754 40114 54000 70222 885//;",
"01047099999","2010-08-10T12:00:00","4","69.0166667","23.0666667","307.0","KAUTOKEINO II, NO","FM-12","ENKA ","V020","180,1,N,0030,1","22000,1,9,N","070000,1,N,1","+0160,1","+0059,1","10106,1",,,,"2,1,06,1","2,1,06,1",,"04,99,1,04,1,05,1,01250,1,00,1,00,1",,,"99999,9,09748,1","7,1,005,1,+999,9","01,1","SYN078AAXX  10121 01047 11688 41803 10160 20059 39748 40106 57005 6//// 70122 84500;",
"01047099999","2010-08-10T15:00:00","4","69.0166667","23.0666667","307.0","KAUTOKEINO II, NO","FM-12","ENKA ","V020","180,1,N,0050,1","22000,1,9,N","070000,1,N,1","+0172,1","+0061,1","10098,1",,,,"0,1,03,1","0,1,03,1",,"02,99,1,02,1,01,1,01250,1,00,1,00,1",,,"99999,9,09742,1","7,1,007,1,+999,9","02,1","SYN072AAXX  10151 01047 41688 21805 10172 20061 39742 40098 57007 70200 82100;",
"01047099999","2010-08-10T18:00:00","4","69.0166667","23.0666667","307.0","KAUTOKEINO II, NO","FM-12","ENKA ","V020","180,1,N,0050,1","22000,1,9,N","070000,1,N,1","+0154,1","+0072,1","10097,1","12,0000,9,1",,,"0,1,06,1","0,1,06,1",,"02,99,1,01,1,04,1,01250,1,04,1,00,1",,"999,M,+0172,1","99999,9,09738,1","7,1,004,1,+999,9","02,1","SYN088AAXX  10181 01047 11688 21805 10154 20072 39738 40097 57004 60002 70200 81440 333 10172;","Q01  00002PRCP12"
"01047099999","2010-08-11T00:00:00","4","69.0166667","23.0666667","307.0","KAUTOKEINO II, NO","FM-12","ENKA ","V020","180,1,N,0070,1","01200,1,9,N","070000,1,N,1","+0091,1","+0076,1","10108,1",,,,"2,1,06,1","0,1,06,1",,"06,99,1,06,1,05,1,01250,1,00,1,00,1",,,"99999,9,09741,1","4,1,000,1,+999,9","03,1","SYN078AAXX  11001 01047 11688 61807 10091 20076 39741 40108 54000 6//// 70320 86500;",
"01047099999","2010-08-11T06:00:00","4","69.0166667","23.0666667","307.0","KAUTOKEINO II, NO","FM-12","ENKA ","V020","140,1,N,0050,1","00750,1,9,N","065000,1,N,1","+0112,1","+0096,1","10094,1","12,0000,9,1","24,0003,9,1",,"6,1,06,1","2,1,06,1",,"08,99,1,05,1,05,1,00800,1,02,1,99,9",,"999,N,+0090,1","99999,9,09730,1","7,1,006,1,+999,9","02,1","SYN094AAXX  11061 01047 11587 81405 10112 20096 39730 40094 57006 69922 70262 8552/ 333 20090 70002;","Q01  00002PRCP12"
"01047099999","2010-08-11T09:00:00","4","69.0166667","23.0666667","307.0","KAUTOKEINO II, NO","FM-12","ENKA ","V020","160,1,N,0070,1","00750,1,9,N","070000,1,N,1","+0130,1","+0105,1","10088,1",,,,"2,1,03,1","2,1,03,1",,"08,99,1,06,1,07,1,00800,1,02,1,99,9",,,"99999,9,09727,1","6,1,004,1,+999,9","02,1","SYN072AAXX  11091 01047 41588 81607 10130 20105 39727 40088 56004 70222 8672/;",
"01047099999","2010-08-11T12:00:00","4","69.0166667","23.0666667","307.0","KAUTOKEINO II, NO","FM-12","ENKA ","V020","160,1,N,0070,1","00750,1,9,N","070000,1,N,1","+0156,1","+0108,1","10076,1",,,,"2,1,06,1","2,1,06,1",,"07,99,1,07,1,05,1,00800,1,00,1,00,1",,,"99999,9,09718,1","7,1,009,1,+999,9","02,1","SYN078AAXX  11121 01047 11588 71607 10156 20108 39718 40076 57009 6//// 70222 87500;",
"01047099999","2010-08-11T15:00:00","4","69.0166667","23.0666667","307.0","KAUTOKEINO II, NO","FM-12","ENKA ","V020","320,1,N,0100,1","03000,1,9,N","070000,1,N,1","+0202,1","+0069,1","10076,1",,,,"2,1,03,1","2,1,03,1",,"06,99,1,03,1,02,1,01250,1,09,1,00,1",,,"99999,9,09724,1","3,1,007,1,+999,9","02,1","SYN072AAXX  11151 01047 41688 63210 10202 20069 39724 40076 53007 70222 83290;",
"01047099999","2010-08-11T18:00:00","4","69.0166667","23.0666667","307.0","KAUTOKEINO II, NO","FM-12","ENKA ","V020","320,1,N,0100,1","03000,1,9,N","070000,1,N,1","+0104,1","+0050,1","10134,1","12,0000,9,1",,,"2,1,06,1","2,1,06,1",,"06,99,1,04,1,09,1,00800,1,04,1,00,1",,"999,M,+0202,1","99999,9,09767,1","2,1,043,1,+999,9","02,1","SYN088AAXX  11181 01047 11588 63210 10104 20050 39767 40134 52043 60002 70222 84940 333 10202;","Q01  00002PRCP12"
"01047099999","2010-08-12T00:00:00","4","69.0166667","23.0666667","307.0","KAUTOKEINO II, NO","FM-12","ENKA ","V020","320,1,N,0050,1","22000,1,9,N","070000,1,N,1","+0020,1","+0005,1","10207,1",,,,"2,1,06,1","0,1,06,1",,"01,99,1,01,1,00,1,02250,1,04,1,00,1",,,"99999,9,09827,1","2,1,020,1,+999,9","02,1","SYN078AAXX  12001 01047 11888 13205 10020 20005 39827 40207 52020 6//// 70220 81040;",
"01047099999","2010-08-12T06:00:00","4","69.0166667","23.0666667","307.0","KAUTOKEINO II, NO","FM-12","ENKA ","V020","999,9,C,0000,1","22000,1,9,N","065000,1,N,1","+0058,1","+0028,1","10227,1","12,0000,9,1","24,0000,9,1",,"2,1,06,1","0,1,06,1",,"03,99,1,02,1,02,1,01250,1,00,1,01,1",,"999,N,+0001,1","99999,9,09852,1","2,1,008,1,+999,9","02,1","SYN094AAXX  12061 01047 11687 30000 10058 20028 39852 40227 52008 60002 70220 82201 333 20001 70000;","Q01  00002PRCP24Q02  00002PRCP12"
"01047099999","2010-08-12T09:00:00","4","69.0166667","23.0666667","307.0","KAUTOKEINO II, NO","FM-12","ENKA ","V020","180,1,N,0050,1","01500,1,9,N","070000,1,N,1","+0098,1","+0012,1","10215,1",,,,"2,1,03,1","2,1,03,1",,"07,99,1,07,1,00,1,01750,1,07,1,00,1",,,"99999,9,09845,1","8,1,006,1,+999,9","02,1","SYN072AAXX  12091 01047 41788 71805 10098 20012 39845 40215 58006 70222 87070;",
"01047099999","2010-08-12T12:00:00","4","69.0166667","23.0666667","307.0","KAUTOKEINO II, NO","FM-12","ENKA ","V020","180,1,N,0070,1","01200,1,9,N","070000,1,N,1","+0130,1","+0026,1","10197,1",,,,"2,1,06,1","2,1,06,1",,"07,99,1,05,1,05,1,01250,1,07,1,00,1",,,"99999,9,09832,1","7,1,015,1,+999,9","02,1","SYN078AAXX  12121 01047 11688 71807 10130 20026 39832 40197 57015 6//// 70222 85570;",
"01047099999","2010-08-12T15:00:00","4","69.0166667","23.0666667","307.0","KAUTOKEINO II, NO","FM-12","ENKA ","V020","180,1,N,0070,1","01200,1,9,N","070000,1,N,1","+0132,1","+0044,1","10191,1",,,,"2,1,03,1","2,1,03,1",,"08,99,1,08,1,05,1,01250,1,99,9,99,9",,,"99999,9,09826,1","6,1,004,1,+999,9","02,1","SYN072AAXX  12151 01047 41688 81807 10132 20044 39826 40191 56004 70222 885//;",
"01047099999","2010-08-12T18:00:00","4","69.0166667","23.0666667","307.0","KAUTOKEINO II, NO","FM-12","ENKA ","V020","180,1,N,0070,1","01200,1,9,N","070000,1,N,1","+0146,1","+0086,1","10182,1","12,0000,9,1",,,"2,1,06,1","0,1,06,1",,"06,99,1,06,1,05,1,01250,1,00,1,00,1",,"999,M,+0149,1","99999,9,09819,1","6,1,007,1,+999,9","02,1","SYN088AAXX  12181 01047 11688 61807 10146 20086 39819 40182 56007 60002 70220 86500 333 10149;","Q01  00002PRCP12"
"01047099999","2010-08-13T00:00:00","4","69.0166667","23.0666667","307.0","KAUTOKEINO II, NO","FM-12","ENKA ","V020","999,9,C,0000,1","00030,1,9,N","000200,1,N,1","+0080,1","+0065,1","10194,1",,,,"4,1,06,1","2,1,06,1","09,1,+99999,9,99,9","09,99,1,09,1,99,9,99999,9,99,9,99,9",,,"99999,9,09823,1","4,1,000,1,+999,9","46,1","SYN072AAXX  13001 01047 11/02 90000 10080 20065 39823 40194 54000 6//// 74642;",
"01047099999","2010-08-13T06:00:00","4","69.0166667","23.0666667","307.0","KAUTOKEINO II, NO","FM-12","ENKA ","V020","180,1,N,0030,1","01500,1,9,N","070000,1,N,1","+0144,1","+0116,1","10193,1","12,0000,9,1","24,0000,9,1",,"4,1,06,1","2,1,06,1",,"05,99,1,05,1,00,1,01750,1,07,1,00,1",,"999,N,+0076,1","99999,9,09830,1","1,1,002,1,+999,9","02,1","SYN094AAXX  13061 01047 11788 51803 10144 20116 39830 40193 51002 60002 70242 85070 333 20076 70000;","Q01  00002PRCP24Q02  00002PRCP12"
"01047099999","2010-08-13T09:00:00","4","69.0166667","23.0666667","307.0","KAUTOKEINO II, NO","FM-12","ENKA ","V020","180,1,N,0070,1","03000,1,9,N","070000,1,N,1","+0164,1","+0109,1","10189,1",,,,"2,1,03,1","2,1,03,1",,"06,99,1,02,1,02,1,01250,1,09,1,00,1",,,"99999,9,09828,1","4,1,000,1,+999,9","02,1","SYN072AAXX  13091 01047 41688 61807 10164 20109 39828 40189 54000 70222 82290;",
"01047099999","2010-08-13T12:00:00","4","69.0166667","23.0666667","307.0","KAUTOKEINO II, NO","FM-12","ENKA ","V020","180,1,N,0070,1","03000,1,9,N","070000,1,N,1","+0206,1","+0121,1","10181,1",,,,"2,1,06,1","2,1,06,1",,"06,99,1,03,1,02,1,01250,1,09,1,00,1",,,"99999,9,09826,1","4,1,000,1,+999,9","02,1","SYN078AAXX  13121 01047 11688 61807 10206 20121 39826 40181 54000 6//// 70222 83290;",
"01047099999","2010-08-13T15:00:00","4","69.0166667","23.0666667","307.0","KAUTOKEINO II, NO","FM-12","ENKA ","V020","180,1,N,0050,1","00750,1,9,N","070000,1,N,1","+0194,1","+0124,1","10182,1",,,,"2,1,03,1","2,1,03,1",,"07,99,1,07,1,09,1,00800,1,00,1,00,1",,,"99999,9,09825,1","4,1,000,1,+999,9","02,1","SYN072AAXX  13151 01047 41588 71805 10194 20124 39825 40182 54000 70222 87900;",
"01047099999","2010-08-13T18:00:00","4","69.0166667","23.0666667","307.0","KAUTOKEINO II, NO","FM-12","ENKA ","V020","180,1,N,0050,1","03000,1,9,N","070000,1,N,1","+0190,1","+0123,1","10183,1","12,0000,9,1",,,"2,1,06,1","2,1,06,1",,"06,99,1,02,1,02,1,01250,1,09,1,00,1",,"999,M,+0208,1","99999,9,09826,1","4,1,000,1,+999,9","02,1","SYN088AAXX  13181 01047 11688 61805 10190 20123 39826 40183 54000 60002 70222 82290 333 10208;","Q01  00002PRCP12"
"01047099999","2010-08-14T00:00:00","4","69.0166667","23.0666667","307.0","KAUTOKEINO II, NO","FM-12","ENKA ","V020","999,9,C,0000,1","22000,1,9,N","003000,1,N,1","+0072,1","+0057,1","10206,1",,,,"2,1,06,1","0,1,06,1",,"02,99,1,02,1,00,1,01750,1,04,1,00,1",,,"99999,9,09833,1","4,1,000,1,+999,9","10,1","SYN078AAXX  14001 01047 11730 20000 10072 20057 39833 40206 54000 6//// 71020 82040;",
"01047099999","2010-08-14T06:00:00","4","69.0166667","23.0666667","307.0","KAUTOKEINO II, NO","FM-12","ENKA ","V020","999,9,C,0000,1","00420,1,9,N","030000,1,N,1","+0115,1","+0101,1","10173,1","12,0000,9,1","24,0000,9,1",,"4,1,06,1","2,1,06,1",,"07,99,1,07,1,06,1,00450,1,00,1,00,1",,"999,N,+0054,1","99999,9,09806,1","7,1,010,1,+999,9","02,1","SYN094AAXX  14061 01047 11480 70000 10115 20101 39806 40173 57010 60002 70242 87600 333 20054 70000;","Q01  00002PRCP24Q02  00002PRCP12"
"01047099999","2010-08-14T09:00:00","4","69.0166667","23.0666667","307.0","KAUTOKEINO II, NO","FM-12","ENKA ","V020","180,1,N,0070,1","00750,1,9,N","070000,1,N,1","+0173,1","+0132,1","10133,1",,,,"2,1,03,1","2,1,03,1",,"06,99,1,06,1,07,1,00800,1,00,1,00,1",,,"99999,9,09776,1","7,1,031,1,+999,9","02,1","SYN072AAXX  14091 01047 41588 61807 10173 20132 39776 40133 57031 70222 86700;",
"01047099999","2010-08-14T12:00:00","4","69.0166667","23.0666667","307.0","KAUTOKEINO II, NO","FM-12","ENKA ","V020","180,1,N,0100,1","00750,1,9,N","065000,1,N,1","+0196,1","+0146,1","10096,1",,,,"2,1,06,1","2,1,06,1",,"08,99,1,08,1,09,1,00800,1,99,9,99,9",,,"99999,9,09742,1","7,1,033,1,+999,9","02,1","SYN078AAXX  14121 01047 11587 81810 10196 20146 39742 40096 57033 6//// 70222 889//;",
"01047099999","2010-08-14T15:00:00","4","69.0166667","23.0666667","307.0","KAUTOKEINO II, NO","FM-12","ENKA ","V020","180,1,N,0100,1","00750,1,9,N","065000,1,N,1","+0188,1","+0147,1","10057,1",,,,"8,1,03,1","2,1,03,1",,"08,99,1,08,1,09,1,00800,1,99,9,99,9",,,"99999,9,09704,1","7,1,039,1,+999,9","02,1","SYN072AAXX  14151 01047 41587 81810 10188 20147 39704 40057 57039 70282 889//;",
"01047099999","2010-08-14T18:00:00","4","69.0166667","23.0666667","307.0","KAUTOKEINO II, NO","FM-12","ENKA ","V020","180,1,N,0070,1","00750,1,9,N","040000,1,N,1","+0180,1","+0145,1","10038,1","12,9999,9,9",,,"8,1,06,1","2,1,06,1",,"07,99,1,07,1,09,1,00800,1,00,1,00,1",,"999,M,+0195,1","99999,9,09685,1","6,1,019,1,+999,9","80,1","SYN088AAXX  14181 01047 11582 71807 10180 20145 39685 40038 56019 69922 78082 87900 333 10195;","Q01  00002PRCP12Q02  00002PRCP12"
"01047099999","2010-08-15T00:00:00","4","69.0166667","23.0666667","307.0","KAUTOKEINO II, NO","FM-12","ENKA ","V020","180,1,N,0050,1","00750,1,9,N","070000,1,N,1","+0110,1","+0066,1","10048,1",,,,"8,1,06,1","2,1,06,1",,"08,99,1,08,1,09,1,00800,1,99,9,99,9",,,"99999,9,09686,1","4,1,000,1,+999,9","02,1","SYN078AAXX  15001 01047 11588 81805 10110 20066 39686 40048 54000 6//// 70282 889//;",
"01047099999","2010-08-15T06:00:00","4","69.0166667","23.0666667","307.0","KAUTOKEINO II, NO","FM-12","ENKA ","V020","360,1,N,0100,1","22000,1,9,N","070000,1,N,1","+0092,1","+0016,1","10083,1","12,0000,2,1","24,0003,9,1",,"8,1,06,1","2,1,06,1",,"04,99,1,04,1,04,1,01250,1,00,1,00,1",,"999,N,+0089,1","99999,9,09717,1","3,1,015,1,+999,9","02,1","SYN094AAXX  15061 01047 11688 43610 10092 20016 39717 40083 53015 69912 70282 84400 333 20089 70003;",
"01047099999","2010-08-15T09:00:00","4","69.0166667","23.0666667","307.0","KAUTOKEINO II, NO","FM-12","ENKA ","V020","360,1,N,0100,1","00750,1,9,N","070000,1,N,1","+0088,1","+0000,1","10141,1",,,,"2,1,03,1","1,1,03,1",,"06,99,1,06,1,09,1,00800,1,00,1,00,1",,,"99999,9,09773,1","2,1,055,1,+999,9","02,1","SYN072AAXX  15091 01047 41588 63610 10088 20000 39773 40141 52055 70221 86900;",
"01047099999","2010-08-15T12:00:00","4","69.0166667","23.0666667","307.0","KAUTOKEINO II, NO","FM-12","ENKA ","V020","360,1,N,0100,1","01200,1,9,N","070000,1,N,1","+0100,1","+0001,1","10155,1",,,,"2,1,06,1","1,1,06,1",,"06,99,1,06,1,02,1,01250,1,00,1,00,1",,,"99999,9,09788,1","2,1,022,1,+999,9","02,1","SYN078AAXX  15121 01047 11688 63610 10100 20001 39788 40155 52022 6//// 70221 86200;",
"01047099999","2010-08-15T15:00:00","4","69.0166667","23.0666667","307.0","KAUTOKEINO II, NO","FM-12","ENKA ","V020","320,1,N,0070,1","22000,1,9,N","070000,1,N,1","+0090,1","-0011,1","10173,1",,,,"2,1,03,1","1,1,03,1",,"04,99,1,04,1,04,1,01250,1,00,1,00,1",,,"99999,9,09803,1","3,1,013,1,+999,9","02,1","SYN072AAXX  15151 01047 41688 43207 10090 21011 39803 40173 53013 70221 84400;",
"01047099999","2010-08-15T18:00:00","4","69.0166667","23.0666667","307.0","KAUTOKEINO II, NO","FM-12","ENKA ","V020","320,1,N,0070,1","22000,1,9,N","070000,1,N,1","+0050,1","-0014,1","10199,1","12,0000,9,1",,,"2,1,06,1","2,1,06,1",,"03,99,1,03,1,05,1,01250,1,00,1,00,1",,"999,M,+0105,1","99999,9,09824,1","2,1,019,1,+999,9","01,1","SYN088AAXX  15181 01047 11688 33207 10050 21014 39824 40199 52019 60002 70122 83500 333 10105;","Q01  00002PRCP12"
"01047099999","2010-08-16T00:00:00","4","69.0166667","23.0666667","307.0","KAUTOKEINO II, NO","FM-12","ENKA ","V020","320,1,N,0070,1","22000,1,9,N","070000,1,N,1","+0016,1","-0010,1","10199,1",,,,"0,1,06,1","0,1,06,1",,"02,99,1,02,1,04,1,01250,1,00,1,00,1",,,"99999,9,09819,1","4,1,000,1,+999,9","02,1","SYN078AAXX  16001 01047 11688 23207 10016 21010 39819 40199 54000 6//// 70200 82400;",
"01047099999","2010-08-16T06:00:00","4","69.0166667","23.0666667","307.0","KAUTOKEINO II, NO","FM-12","ENKA ","V020","320,1,N,0070,1","22000,1,9,N","070000,1,N,1","+0052,1","-0012,1","10221,1","12,0000,9,1","24,0000,9,1",,"0,1,06,1","0,1,06,1",,"03,99,1,03,1,04,1,01250,1,00,1,00,1",,"999,N,+0015,1","99999,9,09845,1","2,1,009,1,+999,9","02,1","SYN094AAXX  16061 01047 11688 33207 10052 21012 39845 40221 52009 60002 70200 83400 333 20015 70000;","Q01  00002PRCP24Q02  00002PRCP12"
"01047099999","2010-08-16T09:00:00","4","69.0166667","23.0666667","307.0","KAUTOKEINO II, NO","FM-12","ENKA ","V020","320,1,N,0070,1","01200,1,9,N","070000,1,N,1","+0082,1","-0021,1","10232,1",,,,"2,1,03,1","2,1,03,1",,"06,99,1,06,1,05,1,01250,1,00,1,00,1",,,"99999,9,09859,1","1,1,014,1,+999,9","03,1","SYN072AAXX  16091 01047 41688 63207 10082 21021 39859 40232 51014 70322 86500;",
"01047099999","2010-08-16T12:00:00","4","69.0166667","23.0666667","307.0","KAUTOKEINO II, NO","FM-12","ENKA ","V020","320,1,N,0100,1","22000,1,9,N","070000,1,N,1","+0098,1","+0002,1","10227,1",,,,"1,1,06,1","1,1,06,1",,"04,99,1,04,1,05,1,01250,1,00,1,00,1",,,"99999,9,09857,1","4,1,000,1,+999,9","02,1","SYN078AAXX  16121 01047 11688 43210 10098 20002 39857 40227 54000 6//// 70211 84500;",
"01047099999","2010-08-16T15:00:00","4","69.0166667","23.0666667","307.0","KAUTOKEINO II, NO","FM-12","ENKA ","V020","320,1,N,0100,1","22000,1,9,N","070000,1,N,1","+0096,1","-0017,1","10223,1",,,,"1,1,03,1","1,1,03,1",,"04,99,1,04,1,05,1,01250,1,00,1,00,1",,,"99999,9,09853,1","7,1,005,1,+999,9","02,1","SYN072AAXX  16151 01047 41688 43210 10096 21017 39853 40223 57005 70211 84500;",
"01047099999","2010-08-16T18:00:00","4","69.0166667","23.0666667","307.0","KAUTOKEINO II, NO","FM-12","ENKA ","V020","320,1,N,0030,1","22000,1,9,N","070000,1,N,1","+0074,1","-0018,1","10213,1","12,0000,9,1",,,"0,1,06,1","0,1,06,1",,"03,99,1,01,1,04,1,01250,1,04,1,00,1",,"999,M,+0105,1","99999,9,09840,1","7,1,013,1,+999,9","02,1","SYN088AAXX  16181 01047 11688 33203 10074 21018 39840 40213 57013 60002 70200 81440 333 10105;","Q01  00002PRCP12"
"01047099999","2010-08-17T00:00:00","4","69.0166667","23.0666667","307.0","KAUTOKEINO II, NO","FM-12","ENKA ","V020","180,1,N,0030,1","01500,1,9,N","070000,1,N,1","+0038,1","+0003,1","10197,1",,,,"2,1,06,1","0,1,06,1",,"08,99,1,08,1,00,1,01750,1,07,1,99,9",,,"99999,9,09820,1","8,1,012,1,+999,9","02,1","SYN078AAXX  17001 01047 11788 81803 10038 20003 39820 40197 58012 6//// 70220 8807/;",
"01047099999","2010-08-17T06:00:00","4","69.0166667","23.0666667","307.0","KAUTOKEINO II, NO","FM-12","ENKA ","V020","320,1,N,0050,1","00750,1,9,N","070000,1,N,1","+0070,1","+0011,1","10169,1","12,0000,9,1","24,0000,9,1",,"2,1,06,1","0,1,06,1",,"07,99,1,06,1,09,1,00800,1,04,1,00,1",,"999,N,+0038,1","99999,9,09797,1","6,1,010,1,+999,9","02,1","SYN094AAXX  17061 01047 11588 73205 10070 20011 39797 40169 56010 60002 70220 86940 333 20038 70000;","Q01  00002PRCP24Q02  00002PRCP12"
"01047099999","2010-08-17T09:00:00","4","69.0166667","23.0666667","307.0","KAUTOKEINO II, NO","FM-12","ENKA ","V020","320,1,N,0070,1","01200,1,9,N","070000,1,N,1","+0098,1","+0010,1","10158,1",,,,"2,1,03,1","2,1,03,1",,"06,99,1,06,1,05,1,01250,1,00,1,00,1",,,"99999,9,09790,1","7,1,008,1,+999,9","02,1","SYN072AAXX  17091 01047 41688 63207 10098 20010 39790 40158 57008 70222 86500;",
"01047099999","2010-08-17T12:00:00","4","69.0166667","23.0666667","307.0","KAUTOKEINO II, NO","FM-12","ENKA ","V020","360,1,N,0070,1","01200,1,9,N","070000,1,N,1","+0112,1","+0030,1","10150,1",,,,"2,1,06,1","2,1,06,1",,"05,99,1,05,1,05,1,01250,1,00,1,00,1",,,"99999,9,09784,1","7,1,006,1,+999,9","02,1","SYN078AAXX  17121 01047 11688 53607 10112 20030 39784 40150 57006 6//// 70222 85500;",
"01047099999","2010-08-17T15:00:00","4","69.0166667","23.0666667","307.0","KAUTOKEINO II, NO","FM-12","ENKA ","V020","360,1,N,0070,1","22000,1,9,N","070000,1,N,1","+0100,1","+0006,1","10147,1",,,,"1,1,03,1","1,1,03,1",,"04,99,1,04,1,04,1,01250,1,00,1,00,1",,,"99999,9,09780,1","6,1,003,1,+999,9","02,1","SYN072AAXX  17151 01047 41688 43607 10100 20006 39780 40147 56003 70211 84400;",
"01047099999","2010-08-17T18:00:00","4","69.0166667","23.0666667","307.0","KAUTOKEINO II, NO","FM-12","ENKA ","V020","360,1,N,0070,1","22000,1,9,N","070000,1,N,1","+0058,1","-0011,1","10155,1","12,0000,9,1",,,"1,1,06,1","1,1,06,1",,"04,99,1,04,1,05,1,01250,1,00,1,00,1",,"999,M,+0118,1","99999,9,09782,1","4,1,000,1,+999,9","02,1","SYN088AAXX  17181 01047 11688 43607 10058 21011 39782 40155 54000 60002 70211 84500 333 10118;","Q01  00002PRCP12"
"01047099999","2010-08-18T00:00:00","4","69.0166667","23.0666667","307.0","KAUTOKEINO II, NO","FM-12","ENKA ","V020","340,1,N,0050,1","01200,1,9,N","070000,1,N,1","+0028,1","+0005,1","10173,1",,,,"2,1,06,1","2,1,06,1",,"08,99,1,08,1,05,1,01250,1,99,9,99,9",,,"99999,9,09796,1","1,1,005,1,+999,9","02,1","SYN078AAXX  18001 01047 11688 83405 10028 20005 39796 40173 51005 6//// 70222 885//;",
"01047099999","2010-08-18T06:00:00","4","69.0166667","23.0666667","307.0","KAUTOKEINO II, NO","FM-12","ENKA ","V020","320,1,N,0070,1","00750,1,9,N","070000,1,N,1","+0050,1","-0010,1","10165,1","12,0000,9,1","24,0000,9,1",,"2,1,06,1","2,1,06,1",,"08,99,1,08,1,05,1,00800,1,99,9,99,9",,"999,N,+0022,1","99999,9,09791,1","7,1,005,1,+999,9","02,1","SYN094AAXX  18061 01047 11588 83207 10050 21010 39791 40165 57005 60002 70222 885// 333 20022 70000;","Q01  00002PRCP24Q02  00002PRCP12"
"01047099999","2010-08-18T09:00:00","4","69.0166667","23.0666667","307.0","KAUTOKEINO II, NO","FM-12","ENKA ","V020","320,1,N,0070,1","00750,1,9,N","070000,1,N,1","+0070,1","+0000,1","10161,1",,,,"2,1,03,1","2,1,03,1",,"07,99,1,07,1,05,1,00800,1,00,1,00,1",,,"99999,9,09789,1","4,1,000,1,+999,9","02,1","SYN072AAXX  18091 01047 41588 73207 10070 20000 39789 40161 54000 70222 87500;",
"01047099999","2010-08-18T12:00:00","4","69.0166667","23.0666667","307.0","KAUTOKEINO II, NO","FM-12","ENKA ","V020","340,1,N,0070,1","00750,1,9,N","070000,1,N,1","+0100,1","+0009,1","10143,1",,,,"2,1,06,1","2,1,06,1",,"06,99,1,06,1,05,1,00800,1,00,1,00,1",,,"99999,9,09777,1","8,1,012,1,+999,9","02,1","SYN078AAXX  18121 01047 11588 63407 10100 20009 39777 40143 58012 6//// 70222 86500;",
"01047099999","2010-08-18T15:00:00","4","69.0166667","23.0666667","307.0","KAUTOKEINO II, NO","FM-12","ENKA ","V020","340,1,N,0070,1","00750,1,9,N","070000,1,N,1","+0088,1","+0003,1","10139,1",,,,"2,1,03,1","2,1,03,1",,"06,99,1,05,1,05,1,00800,1,00,1,01,1",,,"99999,9,09771,1","7,1,006,1,+999,9","02,1","SYN072AAXX  18151 01047 41588 63407 10088 20003 39771 40139 57006 70222 85501;",
"01047099999","2010-08-18T18:00:00","4","69.0166667","23.0666667","307.0","KAUTOKEINO II, NO","FM-12","ENKA ","V020","320,1,N,0070,1","01200,1,9,N","070000,1,N,1","+0068,1","+0007,1","10134,1","12,0000,9,1",,,"2,1,06,1","2,1,06,1",,"06,99,1,06,1,05,1,01250,1,00,1,00,1",,"999,M,+0106,1","99999,9,09764,1","7,1,007,1,+999,9","02,1","SYN088AAXX  18181 01047 11688 63207 10068 20007 39764 40134 57007 60002 70222 86500 333 10106;","Q01  00002PRCP12"
"01047099999","2010-08-19T00:00:00","4","69.0166667","23.0666667","307.0","KAUTOKEINO II, NO","FM-12","ENKA ","V020","360,1,N,0050,1","00750,1,9,N","070000,1,N,1","+0042,1","+0007,1","10140,1",,,,"2,1,06,1","2,1,06,1",,"08,99,1,08,1,05,1,00800,1,99,9,99,9",,,"99999,9,09765,1","4,1,000,1,+999,9","02,1","SYN078AAXX  19001 01047 11588 83605 10042 20007 39765 40140 54000 6//// 70222 885//;",
"01047099999","2010-08-19T06:00:00","4","69.0166667","23.0666667","307.0","KAUTOKEINO II, NO","FM-12","ENKA ","V020","360,1,N,0050,1","00750,1,9,N","070000,1,N,1","+0050,1","+0025,1","10133,1","12,0000,9,1","24,0000,9,1",,"2,1,06,1","2,1,06,1",,"08,99,1,08,1,05,1,00800,1,99,9,99,9",,"999,N,+0042,1","99999,9,09760,1","6,1,004,1,+999,9","02,1","SYN094AAXX  19061 01047 11588 83605 10050 20025 39760 40133 56004 60002 70222 885// 333 20042 70000;","Q01  00002PRCP24Q02  00002PRCP12"
"01047099999","2010-08-19T09:00:00","4","69.0166667","23.0666667","307.0","KAUTOKEINO II, NO","FM-12","ENKA ","V020","360,1,N,0010,1","00750,1,9,N","070000,1,N,1","+0068,1","+0032,1","10128,1",,,,"2,1,03,1","2,1,03,1",,"08,99,1,08,1,05,1,00800,1,99,9,99,9",,,"99999,9,09758,1","4,1,000,1,+999,9","02,1","SYN072AAXX  19091 01047 41588 83601 10068 20032 39758 40128 54000 70222 885//;",
"01047099999","2010-08-19T15:00:00","4","69.0166667","23.0666667","307.0","KAUTOKEINO II, NO","FM-12","ENKA ","V020","360,1,N,0030,1","00750,1,9,N","070000,1,N,1","+0092,1","+0023,1","10124,1",,,,"2,1,03,1","2,1,03,1",,"08,99,1,08,1,05,1,00800,1,99,9,99,9",,,"99999,9,09757,1","4,1,000,1,+999,9","02,1","SYN072AAXX  19151 01047 41588 83603 10092 20023 39757 40124 54000 70222 885//;",
"01047099999","2010-08-19T18:00:00","4","69.0166667","23.0666667","307.0","KAUTOKEINO II, NO","FM-12","ENKA ","V020","999,9,C,0000,1","00750,1,9,N","070000,1,N,1","+0088,1","+0026,1","10120,1","12,0000,9,1",,,"2,1,06,1","2,1,06,1",,"08,99,1,08,1,05,1,00800,1,99,9,99,9",,"999,M,+0100,1","99999,9,09752,1","6,1,005,1,+999,9","02,1","SYN088AAXX  19181 01047 11588 80000 10088 20026 39752 40120 56005 60002 70222 885// 333 10100;","Q01  00002PRCP12"
"01047099999","2010-08-20T00:00:00","4","69.0166667","23.0666667","307.0","KAUTOKEINO II, NO","FM-12","ENKA ","V020","999,9,C,0000,1","00750,1,9,N","070000,1,N,1","+0054,1","+0041,1","10134,1",,,,"2,1,06,1","2,1,06,1",,"08,99,1,08,1,05,1,00800,1,99,9,99,9",,,"99999,9,09761,1","1,1,005,1,+999,9","02,1","SYN078AAXX  20001 01047 11588 80000 10054 20041 39761 40134 51005 6//// 70222 885//;",
"01047099999","2010-08-20T06:00:00","4","69.0166667","23.0666667","307.0","KAUTOKEINO II, NO","FM-12","ENKA ","V020","180,1,N,0050,1","01200,1,9,N","070000,1,N,1","+0074,1","+0021,1","10130,1","12,0000,9,1","24,0000,9,1",,"2,1,06,1","2,1,06,1",,"08,99,1,08,1,05,1,01250,1,99,9,99,9",,"999,N,+0054,1","99999,9,09760,1","4,1,000,1,+999,9","02,1","SYN094AAXX  20061 01047 11688 81805 10074 20021 39760 40130 54000 60002 70222 885// 333 20054 70000;","Q01  00002PRCP24Q02  00002PRCP12"
"01047099999","2010-08-20T09:00:00","4","69.0166667","23.0666667","307.0","KAUTOKEINO II, NO","FM-12","ENKA ","V020","180,1,N,0050,1","01200,1,9,N","070000,1,N,1","+0091,1","+0029,1","10124,1",,,,"2,1,03,1","2,1,03,1",,"08,99,1,08,1,05,1,01250,1,99,9,99,9",,,"99999,9,09757,1","4,1,000,1,+999,9","02,1","SYN072AAXX  20091 01047 41688 81805 10091 20029 39757 40124 54000 70222 885//;",
"01047099999","2010-08-20T12:00:00","4","69.0166667","23.0666667","307.0","KAUTOKEINO II, NO","FM-12","ENKA ","V020","180,1,N,0070,1","01200,1,9,N","070000,1,N,1","+0120,1","+0040,1","10114,1",,,,"2,1,06,1","2,1,06,1",,"06,99,1,06,1,05,1,01250,1,00,1,00,1",,,"99999,9,09751,1","7,1,006,1,+999,9","02,1","SYN078AAXX  20121 01047 11688 61807 10120 20040 39751 40114 57006 6//// 70222 86500;",
"01047099999","2010-08-20T15:00:00","4","69.0166667","23.0666667","307.0","KAUTOKEINO II, NO","FM-12","ENKA ","V020","180,1,N,0070,1","01200,1,9,N","070000,1,N,1","+0150,1","+0050,1","10101,1",,,,"2,1,03,1","2,1,03,1",,"06,99,1,06,1,05,1,01250,1,00,1,00,1",,,"99999,9,09741,1","7,1,009,1,+999,9","02,1","SYN072AAXX  20151 01047 41688 61807 10150 20050 39741 40101 57009 70222 86500;",
"01047099999","2010-08-20T18:00:00","4","69.0166667","23.0666667","307.0","KAUTOKEINO II, NO","FM-12","ENKA ","V020","180,1,N,0050,1","01500,1,9,N","070000,1,N,1","+0126,1","+0053,1","10098,1","12,0000,9,1",,,"2,1,06,1","2,1,06,1",,"05,99,1,05,1,00,1,01750,1,07,1,00,1",,"999,M,+0155,1","99999,9,09735,1","7,1,006,1,+999,9","02,1","SYN088AAXX  20181 01047 11788 51805 10126 20053 39735 40098 57006 60002 70222 85070 333 10155;","Q01  00002PRCP12"
"01047099999","2010-08-21T00:00:00","4","69.0166667","23.0666667","307.0","KAUTOKEINO II, NO","FM-12","ENKA ","V020","999,9,C,0000,1","22000,1,9,N","065000,1,N,1","+0042,1","+0032,1","10116,1",,,,"2,1,06,1","2,1,06,1",,"03,99,1,03,1,00,1,01750,1,07,1,00,1",,,"99999,9,09743,1","2,1,004,1,+999,9","01,1","SYN078AAXX  21001 01047 11787 30000 10042 20032 39743 40116 52004 6//// 70122 83070;",
"01047099999","2010-08-21T06:00:00","4","69.0166667","23.0666667","307.0","KAUTOKEINO II, NO","FM-12","ENKA ","V020","999,9,C,0000,1","00015,1,9,N","000000,1,N,1","+0051,1","+0042,1","10115,1","12,0000,9,1","24,0000,9,1",,"4,1,06,1","2,1,06,1","09,1,+99999,9,99,9","09,99,1,09,1,99,9,99999,9,99,9,99,9",,"999,N,+0025,1","99999,9,09743,1","4,1,000,1,+999,9","45,1","SYN088AAXX  21061 01047 11/00 90000 10051 20042 39743 40115 54000 60002 74542 333 20025 70000;","Q01  00002PRCP24Q02  00002PRCP12"
"01047099999","2010-08-21T09:00:00","4","69.0166667","23.0666667","307.0","KAUTOKEINO II, NO","FM-12","ENKA ","V020","999,9,C,0000,1","03000,1,9,N","060000,1,N,1","+0116,1","+0069,1","10103,1",,,,"4,1,03,1","2,1,03,1",,"07,99,1,02,1,04,1,01250,1,07,1,00,1",,,"99999,9,09739,1","6,1,004,1,+999,9","02,1","SYN072AAXX  21091 01047 41686 70000 10116 20069 39739 40103 56004 70242 82470;",
"01047099999","2010-08-21T12:00:00","4","69.0166667","23.0666667","307.0","KAUTOKEINO II, NO","FM-12","ENKA ","V020","180,1,N,0050,1","01200,1,9,N","070000,1,N,1","+0146,1","+0049,1","10089,1",,,,"2,1,06,1","2,1,06,1",,"08,99,1,08,1,05,1,01250,1,99,9,99,9",,,"99999,9,09730,1","7,1,010,1,+999,9","02,1","SYN078AAXX  21121 01047 11688 81805 10146 20049 39730 40089 57010 6//// 70222 885//;",
"01047099999","2010-08-21T15:00:00","4","69.0166667","23.0666667","307.0","KAUTOKEINO II, NO","FM-12","ENKA ","V020","180,1,N,0050,1","01200,1,9,N","070000,1,N,1","+0146,1","+0040,1","10081,1",,,,"2,1,03,1","2,1,03,1",,"08,99,1,08,1,05,1,01250,1,99,9,99,9",,,"99999,9,09722,1","7,1,007,1,+999,9","02,1","SYN072AAXX  21151 01047 41688 81805 10146 20040 39722 40081 57007 70222 885//;",
"01047099999","2010-08-21T18:00:00","4","69.0166667","23.0666667","307.0","KAUTOKEINO II, NO","FM-12","ENKA ","V020","180,1,N,0030,1","01200,1,9,N","070000,1,N,1","+0122,1","+0040,1","10079,1","12,0000,9,1",,,"2,1,06,1","2,1,06,1",,"08,99,1,08,1,05,1,01250,1,99,9,99,9",,"999,M,+0150,1","99999,9,09717,1","7,1,006,1,+999,9","02,1","SYN088AAXX  21181 01047 11688 81803 10122 20040 39717 40079 57006 60002 70222 885// 333 10150;","Q01  00002PRCP12"
"01047099999","2010-08-22T00:00:00","4","69.0166667","23.0666667","307.0","KAUTOKEINO II, NO","FM-12","ENKA ","V020","180,1,N,0030,1","01200,1,9,N","070000,1,N,1","+0086,1","+0069,1","10071,1",,,,"2,1,06,1","2,1,06,1",,"08,99,1,08,1,05,1,01250,1,99,9,99,9",,,"99999,9,09705,1","7,1,005,1,+999,9","02,1","SYN078AAXX  22001 01047 11688 81803 10086 20069 39705 40071 57005 6//// 70222 885//;",
"01047099999","2010-08-22T06:00:00","4","69.0166667","23.0666667","307.0","KAUTOKEINO II, NO","FM-12","ENKA ","V020","140,1,N,0050,1","00750,1,9,N","030000,1,N,1","+0083,1","+0066,1","10051,1","12,0000,9,1","24,0000,9,1",,"2,1,06,1","2,1,06,1",,"08,99,1,06,1,07,1,00800,1,02,1,99,9",,"999,N,+0076,1","99999,9,09686,1","7,1,012,1,+999,9","02,1","SYN094AAXX  22061 01047 11580 81405 10083 20066 39686 40051 57012 60002 70222 8672/ 333 20076 70000;","Q01  00002PRCP24Q02  00002PRCP12"
"01047099999","2010-08-22T09:00:00","4","69.0166667","23.0666667","307.0","KAUTOKEINO II, NO","FM-12","ENKA ","V020","090,1,N,0050,1","00750,1,9,N","050000,1,N,1","+0088,1","+0063,1","10049,1",,,,"2,1,03,1","2,1,03,1",,"08,99,1,07,1,07,1,00800,1,02,1,99,9",,,"99999,9,09684,1","6,1,002,1,+999,9","02,1","SYN072AAXX  22091 01047 41584 80905 10088 20063 39684 40049 56002 70222 8772/;",
"01047099999","2010-08-22T12:00:00","4","69.0166667","23.0666667","307.0","KAUTOKEINO II, NO","FM-12","ENKA ","V020","050,1,N,0050,1","00750,1,9,N","040000,1,N,1","+0092,1","+0046,1","10044,1",,,,"2,1,06,1","2,1,06,1",,"08,99,1,06,1,07,1,00800,1,02,1,99,9",,,"99999,9,09680,1","6,1,004,1,+999,9","02,1","SYN078AAXX  22121 01047 11582 80505 10092 20046 39680 40044 56004 6//// 70222 8672/;",
"01047099999","2010-08-22T15:00:00","4","69.0166667","23.0666667","307.0","KAUTOKEINO II, NO","FM-12","ENKA ","V020","140,1,N,0050,1","00750,1,9,N","040000,1,N,1","+0092,1","+0042,1","10037,1",,,,"2,1,03,1","2,1,03,1",,"08,99,1,06,1,07,1,00800,1,02,1,99,9",,,"99999,9,09673,1","7,1,006,1,+999,9","05,1","SYN072AAXX  22151 01047 41582 81405 10092 20042 39673 40037 57006 70522 8672/;",
"01047099999","2010-08-22T18:00:00","4","69.0166667","23.0666667","307.0","KAUTOKEINO II, NO","FM-12","ENKA ","V020","140,1,N,0050,1","00750,1,9,N","065000,1,N,1","+0078,1","+0025,1","10038,1","12,0000,9,1",,,"6,1,06,1","2,1,06,1",,"08,99,1,06,1,07,1,00800,1,02,1,99,9",,"999,M,+0100,1","99999,9,09672,1","4,1,000,1,+999,9","02,1","SYN088AAXX  22181 01047 11587 81405 10078 20025 39672 40038 54000 69902 70262 8672/ 333 10100;","Q01  00002PRCP12"
"01047099999","2010-08-23T00:00:00","4","69.0166667","23.0666667","307.0","KAUTOKEINO II, NO","FM-12","ENKA ","V020","050,1,N,0050,1","00750,1,9,N","040000,1,N,1","+0060,1","+0037,1","10039,1",,,,"6,1,06,1","2,1,06,1",,"08,99,1,06,1,07,1,00800,1,02,1,99,9",,,"99999,9,09671,1","4,1,000,1,+999,9","61,1","SYN078AAXX  23001 01047 11582 80505 10060 20037 39671 40039 54000 6//// 76162 8672/;",
"01047099999","2010-08-23T06:00:00","4","69.0166667","23.0666667","307.0","KAUTOKEINO II, NO","FM-12","ENKA ","V020","050,1,N,0050,1","00750,1,9,N","030000,1,N,1","+0042,1","+0029,1","10046,1","12,0008,9,1","24,0008,9,1",,"6,1,06,1","2,1,06,1",,"08,99,1,06,1,05,1,00800,1,02,1,99,9",,"999,N,+0042,1","99999,9,09675,1","4,1,000,1,+999,9","60,1","SYN094AAXX  23061 01047 11580 80505 10042 20029 39675 40046 54000 69982 76062 8652/ 333 20042 70008;",
"01047099999","2010-08-23T09:00:00","4","69.0166667","23.0666667","307.0","KAUTOKEINO II, NO","FM-12","ENKA ","V020","050,1,N,0050,1","03000,1,9,N","065000,1,N,1","+0048,1","+0022,1","10050,1",,,,"6,1,03,1","2,1,03,1",,"08,99,1,04,1,05,1,00800,1,02,1,99,9",,,"99999,9,09679,1","3,1,004,1,+999,9","21,1","SYN072AAXX  23091 01047 41587 80505 10048 20022 39679 40050 53004 72162 8452/;",
"01047099999","2010-08-23T12:00:00","4","69.0166667","23.0666667","307.0","KAUTOKEINO II, NO","FM-12","ENKA ","V020","360,1,N,0050,1","01200,1,9,N","070000,1,N,1","+0084,1","+0013,1","10043,1",,,,"2,1,06,1","2,1,06,1",,"07,99,1,07,1,05,1,01250,1,00,1,00,1",,,"99999,9,09678,1","4,1,000,1,+999,9","02,1","SYN078AAXX  23121 01047 11688 73605 10084 20013 39678 40043 54000 6//// 70222 87500;",
"01047099999","2010-08-23T15:00:00","4","69.0166667","23.0666667","307.0","KAUTOKEINO II, NO","FM-12","ENKA ","V020","360,1,N,0050,1","22000,1,9,N","070000,1,N,1","+0102,1","-0009,1","10040,1",,,,"2,1,03,1","2,1,03,1",,"04,99,1,04,1,05,1,01250,1,00,1,00,1",,,"99999,9,09677,1","4,1,000,1,+999,9","01,1","SYN072AAXX  23151 01047 41688 43605 10102 21009 39677 40040 54000 70122 84500;",
"01047099999","2010-08-23T18:00:00","4","69.0166667","23.0666667","307.0","KAUTOKEINO II, NO","FM-12","ENKA ","V020","999,9,C,0000,1","22000,1,9,N","070000,1,N,1","+0074,1","+0006,1","10045,1","12,0000,2,1",,,"1,1,06,1","1,1,06,1",,"04,99,1,04,1,05,1,01250,1,00,1,00,1",,"999,M,+0115,1","99999,9,09678,1","4,1,000,1,+999,9","02,1","SYN088AAXX  23181 01047 11688 40000 10074 20006 39678 40045 54000 60002 70211 84500 333 10115;",
"01047099999","2010-08-24T00:00:00","4","69.0166667","23.0666667","307.0","KAUTOKEINO II, NO","FM-12","ENKA ","V020","999,9,C,0000,1","01200,1,9,N","070000,1,N,1","+0008,1","-0002,1","10070,1",,,,"2,1,06,1","2,1,06,1",,"08,99,1,08,1,05,1,01250,1,99,9,99,9",,,"99999,9,09695,1","2,1,005,1,+999,9","02,1","SYN078AAXX  24001 01047 11688 80000 10008 21002 39695 40070 52005 6//// 70222 885//;",
"01047099999","2010-08-24T06:00:00","4","69.0166667","23.0666667","307.0","KAUTOKEINO II, NO","FM-12","ENKA ","V020","999,9,C,0000,1","01200,1,9,N","070000,1,N,1","+0037,1","+0028,1","10062,1","12,0000,9,1","24,0000,2,1",,"2,1,06,1","2,1,06,1",,"08,99,1,08,1,05,1,01250,1,99,9,99,9",,"999,N,-0003,1","99999,9,09690,1","6,1,004,1,+999,9","02,1","SYN094AAXX  24061 01047 11688 80000 10037 20028 39690 40062 56004 60002 70222 885// 333 21003 70000;","Q01  00002PRCP12"
"01047099999","2010-08-24T09:00:00","4","69.0166667","23.0666667","307.0","KAUTOKEINO II, NO","FM-12","ENKA ","V020","180,1,N,0030,1","00750,1,9,N","070000,1,N,1","+0072,1","+0004,1","10054,1",,,,"2,1,03,1","2,1,03,1",,"08,99,1,08,1,05,1,00800,1,99,9,99,9",,,"99999,9,09686,1","7,1,003,1,+999,9","02,1","SYN072AAXX  24091 01047 41588 81803 10072 20004 39686 40054 57003 70222 885//;",
"01047099999","2010-08-24T12:00:00","4","69.0166667","23.0666667","307.0","KAUTOKEINO II, NO","FM-12","ENKA ","V020","050,1,N,0030,1","00750,1,9,N","070000,1,N,1","+0083,1","-0002,1","10051,1",,,,"2,1,06,1","2,1,06,1",,"08,99,1,08,1,05,1,00800,1,99,9,99,9",,,"99999,9,09686,1","4,1,000,1,+999,9","02,1","SYN078AAXX  24121 01047 11588 80503 10083 21002 39686 40051 54000 6//// 70222 885//;",
"01047099999","2010-08-24T15:00:00","4","69.0166667","23.0666667","307.0","KAUTOKEINO II, NO","FM-12","ENKA ","V020","050,1,N,0050,1","01200,1,9,N","070000,1,N,1","+0084,1","-0011,1","10047,1",,,,"2,1,03,1","2,1,03,1",,"05,99,1,05,1,05,1,01250,1,00,1,00,1",,,"99999,9,09682,1","7,1,004,1,+999,9","02,1","SYN072AAXX  24151 01047 41688 50505 10084 21011 39682 40047 57004 70222 85500;",
"01047099999","2010-08-24T18:00:00","4","69.0166667","23.0666667","307.0","KAUTOKEINO II, NO","FM-12","ENKA ","V020","050,1,N,0050,1","01200,1,9,N","070000,1,N,1","+0060,1","-0023,1","10051,1","12,0000,9,1",,,"2,1,06,1","2,1,06,1",,"06,99,1,06,1,05,1,01250,1,00,1,00,1",,"999,M,+0085,1","99999,9,09682,1","4,1,000,1,+999,9","02,1","SYN088AAXX  24181 01047 11688 60505 10060 21023 39682 40051 54000 60002 70222 86500 333 10085;","Q01  00002PRCP12"
"01047099999","2010-08-25T00:00:00","4","69.0166667","23.0666667","307.0","KAUTOKEINO II, NO","FM-12","ENKA ","V020","050,1,N,0030,1","01200,1,9,N","070000,1,N,1","+0038,1","-0004,1","10061,1",,,,"2,1,06,1","2,1,06,1",,"08,99,1,08,1,05,1,01250,1,99,9,99,9",,,"99999,9,09689,1","2,1,004,1,+999,9","02,1","SYN078AAXX  25001 01047 11688 80503 10038 21004 39689 40061 52004 6//// 70222 885//;",
"01047099999","2010-08-25T06:00:00","4","69.0166667","23.0666667","307.0","KAUTOKEINO II, NO","FM-12","ENKA ","V020","050,1,N,0030,1","01200,1,9,N","070000,1,N,1","+0043,1","+0013,1","10065,1","12,0000,9,1","24,0000,9,1",,"2,1,06,1","2,1,06,1",,"07,99,1,07,1,04,1,01250,1,00,1,00,1",,"999,N,+0022,1","99999,9,09693,1","4,1,000,1,+999,9","02,1","SYN094AAXX  25061 01047 11688 70503 10043 20013 39693 40065 54000 60002 70222 87400 333 20022 70000;","Q01  00002PRCP24Q02  00002PRCP12"
"01047099999","2010-08-25T09:00:00","4","69.0166667","23.0666667","307.0","KAUTOKEINO II, NO","FM-12","ENKA ","V020","050,1,N,0030,1","00750,1,9,N","070000,1,N,1","+0057,1","+0009,1","10065,1",,,,"8,1,03,1","2,1,03,1",,"07,99,1,07,1,09,1,00800,1,00,1,00,1",,,"99999,9,09695,1","2,1,002,1,+999,9","25,1","SYN072AAXX  25091 01047 41588 70503 10057 20009 39695 40065 52002 72582 87900;",
"01047099999","2010-08-25T12:00:00","4","69.0166667","23.0666667","307.0","KAUTOKEINO II, NO","FM-12","ENKA ","V020","050,1,N,0030,1","00750,1,9,N","070000,1,N,1","+0083,1","+0003,1","10062,1",,,,"8,1,06,1","2,1,06,1",,"07,99,1,06,1,09,1,00800,1,04,1,00,1",,,"99999,9,09696,1","4,1,000,1,+999,9","02,1","SYN078AAXX  25121 01047 11588 70503 10083 20003 39696 40062 54000 6//// 70282 86940;",
"01047099999","2010-08-25T15:00:00","4","69.0166667","23.0666667","307.0","KAUTOKEINO II, NO","FM-12","ENKA ","V020","360,1,N,0050,1","00750,1,9,N","070000,1,N,1","+0080,1","-0012,1","10062,1",,,,"2,1,03,1","2,1,03,1",,"07,99,1,07,1,09,1,00800,1,00,1,00,1",,,"99999,9,09695,1","4,1,000,1,+999,9","02,1","SYN072AAXX  25151 01047 41588 73605 10080 21012 39695 40062 54000 70222 87900;",
"01047099999","2010-08-25T18:00:00","4","69.0166667","23.0666667","307.0","KAUTOKEINO II, NO","FM-12","ENKA ","V020","999,9,C,0000,1","00750,1,9,N","070000,1,N,1","+0064,1","+0001,1","10072,1","12,0005,9,1",,,"8,1,06,1","2,1,06,1",,"07,99,1,07,1,09,1,00800,1,00,1,00,1",,"999,M,+0089,1","99999,9,09703,1","3,1,008,1,+999,9","02,1","SYN088AAXX  25181 01047 11588 70000 10064 20001 39703 40072 53008 69952 70282 87900 333 10089;",
"01047099999","2010-08-26T00:00:00","4","69.0166667","23.0666667","307.0","KAUTOKEINO II, NO","FM-12","ENKA ","V020","360,1,N,0050,1","00750,1,9,N","070000,1,N,1","+0035,1","+0014,1","10087,1",,,,"2,1,06,1","2,1,06,1",,"08,99,1,08,1,05,1,00800,1,99,9,99,9",,,"99999,9,09713,1","2,1,005,1,+999,9","02,1","SYN078AAXX  26001 01047 11588 83605 10035 20014 39713 40087 52005 6//// 70222 885//;",
"01047099999","2010-08-26T06:00:00","4","69.0166667","23.0666667","307.0","KAUTOKEINO II, NO","FM-12","ENKA ","V020","360,1,N,0010,1","00750,1,9,N","070000,1,N,1","+0045,1","+0022,1","10091,1","12,0000,9,1","24,0005,9,1",,"2,1,06,1","2,1,06,1",,"08,99,1,06,1,05,1,00800,1,02,1,99,9",,"999,N,+0031,1","99999,9,09719,1","4,1,000,1,+999,9","02,1","SYN094AAXX  26061 01047 11588 83601 10045 20022 39719 40091 54000 60002 70222 8652/ 333 20031 70005;","Q01  00002PRCP12"
"01047099999","2010-08-26T09:00:00","4","69.0166667","23.0666667","307.0","KAUTOKEINO II, NO","FM-12","ENKA ","V020","360,1,N,0030,1","00750,1,9,N","070000,1,N,1","+0071,1","+0001,1","10089,1",,,,"2,1,03,1","2,1,03,1",,"07,99,1,07,1,09,1,00800,1,00,1,00,1",,,"99999,9,09720,1","1,1,001,1,+999,9","02,1","SYN072AAXX  26091 01047 41588 73603 10071 20001 39720 40089 51001 70222 87900;",
"01047099999","2010-08-26T12:00:00","4","69.0166667","23.0666667","307.0","KAUTOKEINO II, NO","FM-12","ENKA ","V020","360,1,N,0050,1","00750,1,9,N","040000,1,N,1","+0076,1","+0006,1","10087,1",,,,"8,1,06,1","2,1,06,1",,"07,99,1,07,1,09,1,00800,1,00,1,00,1",,,"99999,9,09719,1","4,1,000,1,+999,9","80,1","SYN078AAXX  26121 01047 11582 73605 10076 20006 39719 40087 54000 6//// 78082 87900;",
"01047099999","2010-08-26T15:00:00","4","69.0166667","23.0666667","307.0","KAUTOKEINO II, NO","FM-12","ENKA ","V020","140,1,N,0050,1","00750,1,9,N","040000,1,N,1","+0080,1","+0010,1","10083,1",,,,"8,1,03,1","2,1,03,1",,"06,99,1,06,1,09,1,00800,1,00,1,00,1",,,"99999,9,09716,1","7,1,004,1,+999,9","80,1","SYN072AAXX  26151 01047 41582 61405 10080 20010 39716 40083 57004 78082 86900;",
"01047099999","2010-08-26T18:00:00","4","69.0166667","23.0666667","307.0","KAUTOKEINO II, NO","FM-12","ENKA ","V020","999,9,C,0000,1","01200,1,9,N","070000,1,N,1","+0058,1","-0009,1","10093,1","12,0000,2,1",,,"8,1,06,1","2,1,06,1",,"07,99,1,07,1,05,1,01250,1,00,1,00,1",,"999,M,+0092,1","99999,9,09722,1","3,1,007,1,+999,9","02,1","SYN088AAXX  26181 01047 11688 70000 10058 21009 39722 40093 53007 69922 70282 87500 333 10092;",
"01047099999","2010-08-27T00:00:00","4","69.0166667","23.0666667","307.0","KAUTOKEINO II, NO","FM-12","ENKA ","V020","360,1,N,0030,1","00750,1,9,N","070000,1,N,1","+0038,1","+0018,1","10099,1",,,,"2,1,06,1","2,1,06,1",,"08,99,1,08,1,05,1,00800,1,99,9,99,9",,,"99999,9,09726,1","4,1,000,1,+999,9","02,1","SYN078AAXX  27001 01047 11588 83603 10038 20018 39726 40099 54000 6//// 70222 885//;",
"01047099999","2010-08-27T06:00:00","4","69.0166667","23.0666667","307.0","KAUTOKEINO II, NO","FM-12","ENKA ","V020","999,9,C,0000,1","00750,1,9,N","070000,1,N,1","+0049,1","+0034,1","10103,1","12,0000,9,1","24,0003,9,1",,"2,1,06,1","2,1,06,1",,"07,99,1,07,1,05,1,00800,1,00,1,00,1",,"999,N,+0029,1","99999,9,09731,1","3,1,002,1,+999,9","02,1","SYN094AAXX  27061 01047 11588 70000 10049 20034 39731 40103 53002 60002 70222 87500 333 20029 70002;","Q01  00002PRCP12"
"01047099999","2010-08-27T09:00:00","4","69.0166667","23.0666667","307.0","KAUTOKEINO II, NO","FM-12","ENKA ","V020","180,1,N,0030,1","00750,1,9,N","070000,1,N,1","+0076,1","-0016,1","10101,1",,,,"2,1,03,1","2,1,03,1",,"07,99,1,07,1,05,1,00800,1,00,1,00,1",,,"99999,9,09732,1","4,1,000,1,+999,9","02,1","SYN072AAXX  27091 01047 41588 71803 10076 21016 39732 40101 54000 70222 87500;",
"01047099999","2010-08-27T12:00:00","4","69.0166667","23.0666667","307.0","KAUTOKEINO II, NO","FM-12","ENKA ","V020","340,1,N,0030,1","01200,1,9,N","070000,1,N,1","+0076,1","-0024,1","10101,1",,,,"2,1,06,1","2,1,06,1",,"08,99,1,08,1,05,1,01250,1,99,9,99,9",,,"99999,9,09733,1","4,1,000,1,+999,9","02,1","SYN078AAXX  27121 01047 11688 83403 10076 21024 39733 40101 54000 6//// 70222 885//;",
"01047099999","2010-08-27T15:00:00","4","69.0166667","23.0666667","307.0","KAUTOKEINO II, NO","FM-12","ENKA ","V020","050,1,N,0030,1","01200,1,9,N","070000,1,N,1","+0092,1","-0015,1","10100,1",,,,"2,1,03,1","2,1,03,1",,"08,99,1,08,1,05,1,01250,1,99,9,99,9",,,"99999,9,09733,1","4,1,000,1,+999,9","02,1","SYN072AAXX  27151 01047 41688 80503 10092 21015 39733 40100 54000 70222 885//;",
"01047099999","2010-08-27T18:00:00","4","69.0166667","23.0666667","307.0","KAUTOKEINO II, NO","FM-12","ENKA ","V020","050,1,N,0010,1","01200,1,9,N","070000,1,N,1","+0078,1","+0017,1","10102,1","12,0000,9,1",,,"2,1,06,1","2,1,06,1",,"08,99,1,08,1,05,1,01250,1,99,9,99,9",,"999,M,+0096,1","99999,9,09734,1","4,1,000,1,+999,9","02,1","SYN088AAXX  27181 01047 11688 80501 10078 20017 39734 40102 54000 60002 70222 885// 333 10096;","Q01  00002PRCP12"
"01047099999","2010-08-28T00:00:00","4","69.0166667","23.0666667","307.0","KAUTOKEINO II, NO","FM-12","ENKA ","V020","360,1,N,0030,1","01200,1,9,N","070000,1,N,1","+0050,1","+0015,1","10120,1",,,,"2,1,06,1","2,1,06,1",,"08,99,1,08,1,05,1,01250,1,99,9,99,9",,,"99999,9,09747,1","1,1,008,1,+999,9","02,1","SYN078AAXX  28001 01047 11688 83603 10050 20015 39747 40120 51008 6//// 70222 885//;",
"01047099999","2010-08-28T06:00:00","4","69.0166667","23.0666667","307.0","KAUTOKEINO II, NO","FM-12","ENKA ","V020","999,9,C,0000,1","01200,1,9,N","070000,1,N,1","+0051,1","+0034,1","10121,1","12,0000,9,1","24,0000,9,1",,"2,1,06,1","2,1,06,1",,"08,99,1,06,1,05,1,01250,1,02,1,99,9",,"999,N,+0042,1","99999,9,09748,1","4,1,000,1,+999,9","02,1","SYN094AAXX  28061 01047 11688 80000 10051 20034 39748 40121 54000 60002 70222 8652/ 333 20042 70000;","Q01  00002PRCP24Q02  00002PRCP12"
"01047099999","2010-08-28T09:00:00","4","69.0166667","23.0666667","307.0","KAUTOKEINO II, NO","FM-12","ENKA ","V020","999,9,C,0000,1","01200,1,9,N","070000,1,N,1","+0069,1","+0028,1","10122,1",,,,"2,1,03,1","2,1,03,1",,"08,99,1,06,1,07,1,01250,1,02,1,99,9",,,"99999,9,09752,1","3,1,004,1,+999,9","02,1","SYN072AAXX  28091 01047 41688 80000 10069 20028 39752 40122 53004 70222 8672/;",
"01047099999","2010-08-28T12:00:00","4","69.0166667","23.0666667","307.0","KAUTOKEINO II, NO","FM-12","ENKA ","V020","140,1,N,0050,1","00750,1,9,N","070000,1,N,1","+0072,1","+0025,1","10124,1",,,,"8,1,06,1","2,1,06,1",,"08,99,1,08,1,09,1,00800,1,99,9,99,9",,,"99999,9,09754,1","2,1,002,1,+999,9","02,1","SYN078AAXX  28121 01047 11588 81405 10072 20025 39754 40124 52002 6//// 70282 889//;",
"01047099999","2010-08-28T15:00:00","4","69.0166667","23.0666667","307.0","KAUTOKEINO II, NO","FM-12","ENKA ","V020","140,1,N,0030,1","00750,1,9,N","070000,1,N,1","+0070,1","+0027,1","10122,1",,,,"8,1,03,1","2,1,03,1",,"06,99,1,06,1,09,1,00800,1,00,1,00,1",,,"99999,9,09752,1","4,1,000,1,+999,9","25,1","SYN072AAXX  28151 01047 41588 61403 10070 20027 39752 40122 54000 72582 86900;",
"01047099999","2010-08-28T18:00:00","4","69.0166667","23.0666667","307.0","KAUTOKEINO II, NO","FM-12","ENKA ","V020","090,1,N,0010,1","00750,1,9,N","070000,1,N,1","+0054,1","+0037,1","10126,1","12,0010,9,1",,,"8,1,06,1","2,1,06,1",,"07,99,1,07,1,09,1,00800,1,00,1,00,1",,"999,M,+0085,1","99999,9,09754,1","4,1,000,1,+999,9","25,1","SYN088AAXX  28181 01047 11588 70901 10054 20037 39754 40126 54000 60012 72582 87900 333 10085;",
"01047099999","2010-08-29T00:00:00","4","69.0166667","23.0666667","307.0","KAUTOKEINO II, NO","FM-12","ENKA ","V020","999,9,C,0000,1","00750,1,9,N","070000,1,N,1","+0022,1","+0013,1","10143,1",,,,"8,1,06,1","2,1,06,1",,"06,99,1,06,1,09,1,00800,1,00,1,00,1",,,"99999,9,09766,1","2,1,005,1,+999,9","02,1","SYN078AAXX  29001 01047 11588 60000 10022 20013 39766 40143 52005 6//// 70282 86900;",
"01047099999","2010-08-29T06:00:00","4","69.0166667","23.0666667","307.0","KAUTOKEINO II, NO","FM-12","ENKA ","V020","999,9,C,0000,1","00420,1,9,N","000500,1,N,1","+0029,1","+0020,1","10153,1","12,0003,9,1","24,0013,9,1",,"8,1,06,1","4,1,06,1",,"07,99,1,07,1,06,1,00450,1,00,1,00,1",,"999,N,+0004,1","99999,9,09776,1","3,1,004,1,+999,9","44,1","SYN094AAXX  29061 01047 11405 70000 10029 20020 39776 40153 53004 69932 74484 87600 333 20004 70013;",
"01047099999","2010-08-29T09:00:00","4","69.0166667","23.0666667","307.0","KAUTOKEINO II, NO","FM-12","ENKA ","V020","999,9,C,0000,1","00750,1,9,N","065000,1,N,1","+0071,1","+0028,1","10151,1",,,,"4,1,03,1","2,1,03,1",,"07,99,1,07,1,09,1,00800,1,00,1,00,1",,,"99999,9,09780,1","1,1,003,1,+999,9","02,1","SYN072AAXX  29091 01047 41587 70000 10071 20028 39780 40151 51003 70242 87900;",
"01047099999","2010-08-29T12:00:00","4","69.0166667","23.0666667","307.0","KAUTOKEINO II, NO","FM-12","ENKA ","V020","360,1,N,0010,1","00750,1,9,N","065000,1,N,1","+0086,1","+0028,1","10151,1",,,,"8,1,06,1","2,1,06,1",,"07,99,1,05,1,09,1,00800,1,04,1,00,1",,,"99999,9,09782,1","1,1,003,1,+999,9","25,1","SYN078AAXX  29121 01047 11587 73601 10086 20028 39782 40151 51003 6//// 72582 85940;",
"01047099999","2010-08-29T15:00:00","4","69.0166667","23.0666667","307.0","KAUTOKEINO II, NO","FM-12","ENKA ","V020","999,9,C,0000,1","03000,1,9,N","070000,1,N,1","+0082,1","+0020,1","10151,1",,,,"2,1,03,1","2,1,03,1",,"07,99,1,04,1,09,1,00800,1,04,1,00,1",,,"99999,9,09782,1","6,1,001,1,+999,9","02,1","SYN072AAXX  29151 01047 41588 70000 10082 20020 39782 40151 56001 70222 84940;",
"01047099999","2010-08-29T18:00:00","4","69.0166667","23.0666667","307.0","KAUTOKEINO II, NO","FM-12","ENKA ","V020","999,9,C,0000,1","00750,1,9,N","070000,1,N,1","+0070,1","+0034,1","10156,1","12,0000,2,1",,,"2,1,06,1","2,1,06,1",,"07,99,1,07,1,05,1,00800,1,00,1,00,1",,"999,M,+0100,1","99999,9,09785,1","1,1,003,1,+999,9","02,1","SYN088AAXX  29181 01047 11588 70000 10070 20034 39785 40156 51003 69912 70222 87500 333 10100;",
"01047099999","2010-08-30T00:00:00","4","69.0166667","23.0666667","307.0","KAUTOKEINO II, NO","FM-12","ENKA ","V020","999,9,C,0000,1","00015,1,9,N","000000,1,N,1","-0006,1","-0015,1","10170,1",,,,"4,1,06,1","2,1,06,1","09,1,+99999,9,99,9","09,99,1,09,1,99,9,99999,9,99,9,99,9",,,"99999,9,09790,1","2,1,004,1,+999,9","44,1","SYN072AAXX  30001 01047 11/00 90000 11006 21015 39790 40170 52004 6//// 74442;",
"01047099999","2010-08-30T06:00:00","4","69.0166667","23.0666667","307.0","KAUTOKEINO II, NO","FM-12","ENKA ","V020","999,9,C,0000,1","00015,1,9,N","000100,1,N,1","+0021,1","+0012,1","10158,1","12,0000,9,1","24,0000,2,1",,"4,1,06,1","2,1,06,1","09,1,+99999,9,99,9","09,99,1,09,1,99,9,99999,9,99,9,99,9",,"999,N,-0010,1","99999,9,09780,1","8,1,003,1,+999,9","45,1","SYN088AAXX  30061 01047 11/01 90000 10021 20012 39780 40158 58003 60002 74542 333 21010 70001;","Q01  00002PRCP12"
"01047099999","2010-08-30T09:00:00","4","69.0166667","23.0666667","307.0","KAUTOKEINO II, NO","FM-12","ENKA ","V020","180,1,N,0070,1","01200,1,9,N","070000,1,N,1","+0098,1","+0012,1","10135,1",,,,"2,1,03,1","2,1,03,1",,"06,99,1,06,1,05,1,01250,1,00,1,00,1",,,"99999,9,09768,1","8,1,011,1,+999,9","02,1","SYN072AAXX  30091 01047 41688 61807 10098 20012 39768 40135 58011 70222 86500;",
"01047099999","2010-08-30T12:00:00","4","69.0166667","23.0666667","307.0","KAUTOKEINO II, NO","FM-12","ENKA ","V020","180,1,N,0070,1","00750,1,9,N","070000,1,N,1","+0100,1","+0011,1","10127,1",,,,"2,1,06,1","2,1,06,1",,"07,99,1,06,1,09,1,00800,1,04,1,00,1",,,"99999,9,09761,1","7,1,008,1,+999,9","02,1","SYN078AAXX  30121 01047 11588 71807 10100 20011 39761 40127 57008 6//// 70222 86940;",
"01047099999","2010-08-30T15:00:00","4","69.0166667","23.0666667","307.0","KAUTOKEINO II, NO","FM-12","ENKA ","V020","050,1,N,0050,1","00750,1,9,N","070000,1,N,1","+0098,1","+0040,1","10112,1",,,,"8,1,03,1","2,1,03,1",,"06,99,1,05,1,09,1,00800,1,04,1,00,1",,,"99999,9,09746,1","7,1,015,1,+999,9","25,1","SYN072AAXX  30151 01047 41588 60505 10098 20040 39746 40112 57015 72582 85940;",
"01047099999","2010-08-30T18:00:00","4","69.0166667","23.0666667","307.0","KAUTOKEINO II, NO","FM-12","ENKA ","V020","140,1,N,0050,1","00750,1,9,N","070000,1,N,1","+0074,1","+0036,1","10111,1","12,0005,9,1",,,"2,1,06,1","2,1,06,1",,"06,99,1,06,1,05,1,00800,1,00,1,00,1",,"999,M,+0112,1","99999,9,09742,1","6,1,004,1,+999,9","02,1","SYN088AAXX  30181 01047 11588 61405 10074 20036 39742 40111 56004 69942 70222 86500 333 10112;",
"01047099999","2010-08-31T00:00:00","4","69.0166667","23.0666667","307.0","KAUTOKEINO II, NO","FM-12","ENKA ","V020","180,1,N,0030,1","03000,1,9,N","003000,1,N,1","+0016,1","+0003,1","10102,1",,,,"2,1,06,1","2,1,06,1",,"05,99,1,03,1,04,1,01250,1,07,1,00,1",,,"99999,9,09726,1","7,1,008,1,+999,9","10,1","SYN078AAXX  31001 01047 11630 51803 10016 20003 39726 40102 57008 6//// 71022 83470;",
"01047099999","2010-08-31T06:00:00","4","69.0166667","23.0666667","307.0","KAUTOKEINO II, NO","FM-12","ENKA ","V020","140,1,N,0050,1","03000,1,9,N","050000,1,N,1","+0052,1","+0042,1","10077,1","12,0000,9,1","24,0005,9,1",,"6,1,06,1","2,1,06,1",,"08,99,1,03,1,05,1,01250,1,02,1,99,9",,"999,N,+0010,1","99999,9,09707,1","7,1,010,1,+999,9","02,1","SYN094AAXX  31061 01047 11684 81405 10052 20042 39707 40077 57010 69922 70262 8352/ 333 20010 70006;","Q01  00002PRCP12"
"01047099999","2010-08-31T09:00:00","4","69.0166667","23.0666667","307.0","KAUTOKEINO II, NO","FM-12","ENKA ","V020","140,1,N,0050,1","01200,1,9,N","070000,1,N,1","+0081,1","+0036,1","10067,1",,,,"2,1,03,1","2,1,03,1",,"06,99,1,06,1,05,1,01250,1,00,1,00,1",,,"99999,9,09700,1","6,1,006,1,+999,9","02,1","SYN072AAXX  31091 01047 41688 61405 10081 20036 39700 40067 56006 70222 86500;",
"01047099999","2010-08-31T12:00:00","4","69.0166667","23.0666667","307.0","KAUTOKEINO II, NO","FM-12","ENKA ","V020","180,1,N,0100,1","03000,1,9,N","070000,1,N,1","+0114,1","+0019,1","10046,1",,,,"2,1,06,1","2,1,06,1",,"06,99,1,04,1,09,1,00800,1,04,1,00,1",,,"99999,9,09685,1","7,1,016,1,+999,9","02,1","SYN078AAXX  31121 01047 11588 61810 10114 20019 39685 40046 57016 6//// 70222 84940;",
"01047099999","2010-08-31T15:00:00","4","69.0166667","23.0666667","307.0","KAUTOKEINO II, NO","FM-12","ENKA ","V020","180,1,N,0070,1","03000,1,9,N","070000,1,N,1","+0106,1","+0025,1","10034,1",,,,"2,1,03,1","2,1,03,1",,"07,99,1,04,1,05,1,00800,1,02,1,00,1",,,"99999,9,09672,1","7,1,013,1,+999,9","02,1","SYN072AAXX  31151 01047 41588 71807 10106 20025 39672 40034 57013 70222 84520;",
"01047099999","2010-08-31T18:00:00","4","69.0166667","23.0666667","307.0","KAUTOKEINO II, NO","FM-12","ENKA ","V020","180,1,N,0030,1","00750,1,9,N","006000,1,N,1","+0074,1","+0057,1","10031,1","12,0051,9,1",,,"8,1,06,1","2,1,06,1",,"08,99,1,08,1,09,1,00800,1,99,9,99,9",,"999,M,+0120,1","99999,9,09665,1","6,1,007,1,+999,9","81,1","SYN088AAXX  31181 01047 11556 81803 10074 20057 39665 40031 56007 60052 78182 889// 333 10120;",
"01047099999","2010-09-01T00:00:00","4","69.0166667","23.0666667","307.0","KAUTOKEINO II, NO","FM-12","ENKA ","V020","180,1,N,0030,1","00750,1,9,N","070000,1,N,1","+0050,1","+0035,1","10030,1",,,,"8,1,06,1","2,1,06,1",,"06,99,1,06,1,09,1,00800,1,00,1,00,1",,,"99999,9,09661,1","4,1,000,1,+999,9","02,1","SYN078AAXX  01001 01047 11588 61803 10050 20035 39661 40030 54000 6//// 70282 86900;",
"01047099999","2010-09-01T06:00:00","4","69.0166667","23.0666667","307.0","KAUTOKEINO II, NO","FM-12","ENKA ","V020","999,9,C,0000,1","03000,1,9,N","070000,1,N,1","+0042,1","+0033,1","10035,1","12,0010,9,1","24,0061,9,1",,"8,1,06,1","2,1,06,1",,"08,99,1,04,1,05,1,00800,1,02,1,99,9",,"999,N,+0027,1","99999,9,09665,1","4,1,000,1,+999,9","02,1","SYN094AAXX  01061 01047 11588 80000 10042 20033 39665 40035 54000 60012 70282 8452/ 333 20027 70060;",
"01047099999","2010-09-01T09:00:00","4","69.0166667","23.0666667","307.0","KAUTOKEINO II, NO","FM-12","ENKA ","V020","180,1,N,0050,1","00750,1,9,N","070000,1,N,1","+0066,1","+0039,1","10043,1",,,,"2,1,03,1","2,1,03,1",,"08,99,1,06,1,07,1,00800,1,02,1,99,9",,,"99999,9,09675,1","3,1,011,1,+999,9","02,1","SYN072AAXX  01091 01047 41588 81805 10066 20039 39675 40043 53011 70222 8672/;",
"01047099999","2010-09-01T12:00:00","4","69.0166667","23.0666667","307.0","KAUTOKEINO II, NO","FM-12","ENKA ","V020","180,1,N,0010,1","03000,1,9,N","070000,1,N,1","+0070,1","+0040,1","10055,1",,,,"6,1,06,1","2,1,06,1",,"08,99,1,03,1,05,1,00800,1,02,1,99,9",,,"99999,9,09687,1","2,1,012,1,+999,9","21,1","SYN078AAXX  01121 01047 11588 81801 10070 20040 39687 40055 52012 6//// 72162 8352/;",
"01047099999","2010-09-01T15:00:00","4","69.0166667","23.0666667","307.0","KAUTOKEINO II, NO","FM-12","ENKA ","V020","320,1,N,0070,1","00750,1,9,N","020000,1,N,1","+0050,1","+0025,1","10070,1",,,,"6,1,03,1","2,1,03,1",,"08,99,1,06,1,07,1,00800,1,02,1,99,9",,,"99999,9,09700,1","1,1,012,1,+999,9","63,1","SYN072AAXX  01151 01047 41570 83207 10050 20025 39700 40070 51012 76362 8672/;",
"01047099999","2010-09-01T18:00:00","4","69.0166667","23.0666667","307.0","KAUTOKEINO II, NO","FM-12","ENKA ","V020","320,1,N,0100,1","00750,1,9,N","070000,1,N,1","+0058,1","+0033,1","10083,1","12,0061,9,1",,,"6,1,06,1","6,1,06,1",,"08,99,1,06,1,07,1,00800,1,02,1,99,9",,"999,M,+0078,1","99999,9,09713,1","2,1,013,1,+999,9","21,1","SYN088AAXX  01181 01047 11588 83210 10058 20033 39713 40083 52013 60062 72166 8672/ 333 10078;",
"01047099999","2010-09-02T00:00:00","4","69.0166667","23.0666667","307.0","KAUTOKEINO II, NO","FM-12","ENKA ","V020","320,1,N,0100,1","01200,1,9,N","070000,1,N,1","+0044,1","+0000,1","10138,1",,,,"6,1,06,1","2,1,06,1",,"08,99,1,08,1,00,1,01250,1,02,1,99,9",,,"99999,9,09764,1","2,1,020,1,+999,9","02,1","SYN078AAXX  02001 01047 11688 83210 10044 20000 39764 40138 52020 6//// 70262 8802/;",
"01047099999","2010-09-02T06:00:00","4","69.0166667","23.0666667","307.0","KAUTOKEINO II, NO","FM-12","ENKA ","V020","320,1,N,0100,1","22000,1,9,N","070000,1,N,1","+0054,1","-0004,1","10169,1","12,0010,9,1","24,0071,9,1",,"6,1,06,1","2,1,06,1",,"04,99,1,04,1,04,1,01250,1,00,1,00,1",,"999,N,+0035,1","99999,9,09795,1","2,1,010,1,+999,9","02,1","SYN094AAXX  02061 01047 11688 43210 10054 21004 39795 40169 52010 69992 70262 84400 333 20035 70071;",
"01047099999","2010-09-02T09:00:00","4","69.0166667","23.0666667","307.0","KAUTOKEINO II, NO","FM-12","ENKA ","V020","320,1,N,0100,1","00750,1,9,N","070000,1,N,1","+0076,1","-0001,1","10184,1",,,,"2,1,03,1","2,1,03,1",,"06,99,1,06,1,05,1,00800,1,00,1,00,1",,,"99999,9,09813,1","2,1,018,1,+999,9","02,1","SYN072AAXX  02091 01047 41588 63210 10076 21001 39813 40184 52018 70222 86500;",
"01047099999","2010-09-02T12:00:00","4","69.0166667","23.0666667","307.0","KAUTOKEINO II, NO","FM-12","ENKA ","V020","320,1,N,0070,1","00750,1,9,N","070000,1,N,1","+0082,1","-0010,1","10195,1",,,,"2,1,06,1","2,1,06,1",,"06,99,1,06,1,05,1,00800,1,00,1,00,1",,,"99999,9,09824,1","1,1,011,1,+999,9","02,1","SYN078AAXX  02121 01047 11588 63207 10082 21010 39824 40195 51011 6//// 70222 86500;",
"01047099999","2010-09-02T15:00:00","4","69.0166667","23.0666667","307.0","KAUTOKEINO II, NO","FM-12","ENKA ","V020","320,1,N,0050,1","00750,1,9,N","070000,1,N,1","+0080,1","-0012,1","10199,1",,,,"2,1,03,1","2,1,03,1",,"06,99,1,06,1,05,1,00800,1,00,1,00,1",,,"99999,9,09828,1","1,1,004,1,+999,9","02,1","SYN072AAXX  02151 01047 41588 63205 10080 21012 39828 40199 51004 70222 86500;",
"01047099999","2010-09-02T18:00:00","4","69.0166667","23.0666667","307.0","KAUTOKEINO II, NO","FM-12","ENKA ","V020","999,9,C,0000,1","22000,1,9,N","070000,1,N,1","+0036,1","-0006,1","10217,1","12,0000,9,1",,,"2,1,06,1","0,1,06,1",,"03,99,1,03,1,04,1,01250,1,00,1,00,1",,"999,M,+0095,1","99999,9,09839,1","3,1,012,1,+999,9","01,1","SYN088AAXX  02181 01047 11688 30000 10036 21006 39839 40217 53012 60002 70120 83400 333 10095;","Q01  00002PRCP12"
"01047099999","2010-09-03T00:00:00","4","69.0166667","23.0666667","307.0","KAUTOKEINO II, NO","FM-12","ENKA ","V020","140,1,N,0030,1","01500,1,9,N","070000,1,N,1","-0030,1","-0039,1","10236,1",,,,"1,1,06,1","1,1,06,1",,"05,99,1,05,1,00,1,01750,1,07,1,00,1",,,"99999,9,09852,1","1,1,008,1,+999,9","02,1","SYN078AAXX  03001 01047 11788 51403 11030 21039 39852 40236 51008 6//// 70211 85070;",
"01047099999","2010-09-03T06:00:00","4","69.0166667","23.0666667","307.0","KAUTOKEINO II, NO","FM-12","ENKA ","V020","999,9,C,0000,1","22000,1,9,N","070000,1,N,1","+0011,1","+0001,1","10234,1","12,0000,9,1","24,0000,9,1",,"1,1,06,1","0,1,06,1","00,1,+99999,9,99,9","00,99,1,00,1,00,1,99999,9,00,1,00,1",,"999,N,-0030,1","99999,9,09852,1","6,1,001,1,+999,9","02,1","SYN088AAXX  03061 01047 11988 00000 10011 20001 39852 40234 56001 60002 70210 333 21030 70000;","Q01  00002PRCP24Q02  00002PRCP12"
"01047099999","2010-09-03T09:00:00","4","69.0166667","23.0666667","307.0","KAUTOKEINO II, NO","FM-12","ENKA ","V020","999,9,C,0000,1","01200,1,9,N","070000,1,N,1","+0071,1","-0015,1","10217,1",,,,"2,1,03,1","1,1,03,1",,"05,99,1,05,1,02,1,01250,1,00,1,00,1",,,"99999,9,09844,1","6,1,008,1,+999,9","03,1","SYN072AAXX  03091 01047 41688 50000 10071 21015 39844 40217 56008 70321 85200;",
"01047099999","2010-09-03T12:00:00","4","69.0166667","23.0666667","307.0","KAUTOKEINO II, NO","FM-12","ENKA ","V020","360,1,N,0050,1","01200,1,9,N","070000,1,N,1","+0091,1","-0013,1","10199,1",,,,"2,1,06,1","2,1,06,1",,"06,99,1,06,1,05,1,01250,1,00,1,00,1",,,"99999,9,09828,1","8,1,016,1,+999,9","02,1","SYN078AAXX  03121 01047 11688 63605 10091 21013 39828 40199 58016 6//// 70222 86500;",
"01047099999","2010-09-03T15:00:00","4","69.0166667","23.0666667","307.0","KAUTOKEINO II, NO","FM-12","ENKA ","V020","999,9,C,0000,1","01200,1,9,N","070000,1,N,1","+0090,1","-0011,1","10191,1",,,,"2,1,03,1","1,1,03,1",,"05,99,1,05,1,05,1,01250,1,00,1,00,1",,,"99999,9,09821,1","6,1,007,1,+999,9","02,1","SYN072AAXX  03151 01047 41688 50000 10090 21011 39821 40191 56007 70221 85500;",
"01047099999","2010-09-03T18:00:00","4","69.0166667","23.0666667","307.0","KAUTOKEINO II, NO","FM-12","ENKA ","V020","999,9,C,0000,1","22000,1,9,N","070000,1,N,1","+0038,1","+0002,1","10189,1","12,0000,9,1",,,"2,1,06,1","2,1,06,1",,"03,99,1,03,1,05,1,01250,1,00,1,00,1",,"999,M,+0095,1","99999,9,09812,1","7,1,009,1,+999,9","01,1","SYN088AAXX  03181 01047 11688 30000 10038 20002 39812 40189 57009 60002 70122 83500 333 10095;","Q01  00002PRCP12"
"01047099999","2010-09-04T00:00:00","4","69.0166667","23.0666667","307.0","KAUTOKEINO II, NO","FM-12","ENKA ","V020","180,1,N,0030,1","00030,1,9,N","000500,1,N,1","-0032,1","-0043,1","10177,1",,,,"4,1,06,1","0,1,06,1","09,1,+99999,9,99,9","09,99,1,09,1,99,9,99999,9,99,9,99,9",,,"99999,9,09796,1","7,1,008,1,+999,9","44,1","SYN072AAXX  04001 01047 11/05 91803 11032 21043 39796 40177 57008 6//// 74440;",
"01047099999","2010-09-04T06:00:00","4","69.0166667","23.0666667","307.0","KAUTOKEINO II, NO","FM-12","ENKA ","V020","999,9,C,0000,1","01200,1,9,N","050000,1,N,1","+0035,1","+0025,1","10146,1","12,0000,9,1","24,0000,9,1",,"4,1,06,1","2,1,06,1",,"08,99,1,08,1,05,1,01250,1,99,9,99,9",,"999,N,-0032,1","99999,9,09770,1","6,1,009,1,+999,9","02,1","SYN094AAXX  04061 01047 11684 80000 10035 20025 39770 40146 56009 60002 70242 885// 333 21032 70000;","Q01  00002PRCP24Q02  00002PRCP12"
"01047099999","2010-09-04T09:00:00","4","69.0166667","23.0666667","307.0","KAUTOKEINO II, NO","FM-12","ENKA ","V020","999,9,C,0000,1","01200,1,9,N","070000,1,N,1","+0110,1","+0033,1","10120,1",,,,"2,1,03,1","2,1,03,1",,"08,99,1,06,1,05,1,01250,1,02,1,99,9",,,"99999,9,09755,1","7,1,016,1,+999,9","02,1","SYN072AAXX  04091 01047 41688 80000 10110 20033 39755 40120 57016 70222 8652/;",
"01047099999","2010-09-04T12:00:00","4","69.0166667","23.0666667","307.0","KAUTOKEINO II, NO","FM-12","ENKA ","V020","320,1,N,0070,1","00750,1,9,N","070000,1,N,1","+0110,1","+0045,1","10124,1",,,,"2,1,06,1","2,1,06,1",,"08,99,1,05,1,05,1,00800,1,02,1,99,9",,,"99999,9,09759,1","3,1,004,1,+999,9","02,1","SYN078AAXX  04121 01047 11588 83207 10110 20045 39759 40124 53004 6//// 70222 8552/;",
"01047099999","2010-09-04T15:00:00","4","69.0166667","23.0666667","307.0","KAUTOKEINO II, NO","FM-12","ENKA ","V020","320,1,N,0070,1","00750,1,9,N","070000,1,N,1","+0106,1","+0043,1","10131,1",,,,"2,1,03,1","2,1,03,1",,"08,99,1,05,1,05,1,00800,1,02,1,99,9",,,"99999,9,09766,1","2,1,007,1,+999,9","02,1","SYN072AAXX  04151 01047 41588 83207 10106 20043 39766 40131 52007 70222 8552/;",
"01047099999","2010-09-04T18:00:00","4","69.0166667","23.0666667","307.0","KAUTOKEINO II, NO","FM-12","ENKA ","V020","320,1,N,0050,1","00750,1,9,N","070000,1,N,1","+0092,1","+0048,1","10142,1","12,0000,9,1",,,"2,1,06,1","2,1,06,1",,"08,99,1,08,1,05,1,00800,1,99,9,99,9",,"999,M,+0112,1","99999,9,09774,1","2,1,008,1,+999,9","02,1","SYN088AAXX  04181 01047 11588 83205 10092 20048 39774 40142 52008 60002 70222 885// 333 10112;","Q01  00002PRCP12"
"01047099999","2010-09-05T00:00:00","4","69.0166667","23.0666667","307.0","KAUTOKEINO II, NO","FM-12","ENKA ","V020","320,1,N,0030,1","01200,1,9,N","030000,1,N,1","+0060,1","+0045,1","10168,1",,,,"6,1,06,1","2,1,06,1",,"08,99,1,08,1,00,1,01250,1,02,1,99,9",,,"99999,9,09795,1","1,1,008,1,+999,9","61,1","SYN078AAXX  05001 01047 11680 83203 10060 20045 39795 40168 51008 6//// 76162 8802/;",
"01047099999","2010-09-05T06:00:00","4","69.0166667","23.0666667","307.0","KAUTOKEINO II, NO","FM-12","ENKA ","V020","999,9,C,0000,1","01200,1,9,N","065000,1,N,1","+0062,1","+0047,1","10189,1","12,0003,9,1","24,0003,9,1",,"6,1,06,1","2,1,06,1",,"08,99,1,08,1,00,1,01250,1,02,1,99,9",,"999,N,+0055,1","99999,9,09815,1","3,1,006,1,+999,9","02,1","SYN094AAXX  05061 01047 11687 80000 10062 20047 39815 40189 53006 69932 70262 8802/ 333 20055 70003;",
"01047099999","2010-09-05T09:00:00","4","69.0166667","23.0666667","307.0","KAUTOKEINO II, NO","FM-12","ENKA ","V020","999,9,C,0000,1","01200,1,9,N","070000,1,N,1","+0079,1","+0064,1","10198,1",,,,"2,1,03,1","2,1,03,1",,"08,99,1,08,1,00,1,01250,1,02,1,99,9",,,"99999,9,09826,1","2,1,011,1,+999,9","02,1","SYN072AAXX  05091 01047 41688 80000 10079 20064 39826 40198 52011 70222 8802/;",
"01047099999","2010-09-05T12:00:00","4","69.0166667","23.0666667","307.0","KAUTOKEINO II, NO","FM-12","ENKA ","V020","140,1,N,0010,1","01200,1,9,N","070000,1,N,1","+0102,1","+0076,1","10201,1",,,,"2,1,06,1","2,1,06,1",,"08,99,1,08,1,05,1,01250,1,99,9,99,9",,,"99999,9,09833,1","1,1,006,1,+999,9","02,1","SYN078AAXX  05121 01047 11688 81401 10102 20076 39833 40201 51006 6//// 70222 885//;",
"01047099999","2010-09-05T15:00:00","4","69.0166667","23.0666667","307.0","KAUTOKEINO II, NO","FM-12","ENKA ","V020","999,9,C,0000,1","00750,1,9,N","005000,1,N,1","+0106,1","+0080,1","10206,1",,,,"6,1,03,1","2,1,03,1",,"08,99,1,06,1,07,1,00800,1,02,1,99,9",,,"99999,9,09837,1","1,1,005,1,+999,9","63,1","SYN072AAXX  05151 01047 41550 80000 10106 20080 39837 40206 51005 76362 8672/;",
"01047099999","2010-09-05T18:00:00","4","69.0166667","23.0666667","307.0","KAUTOKEINO II, NO","FM-12","ENKA ","V020","140,1,N,0010,1","00750,1,9,N","070000,1,N,1","+0094,1","+0080,1","10214,1","12,0005,9,1",,,"6,1,06,1","2,1,06,1",,"08,99,1,06,1,07,1,00800,1,02,1,99,9",,"999,M,+0106,1","99999,9,09843,1","2,1,006,1,+999,9","02,1","SYN088AAXX  05181 01047 11588 81401 10094 20080 39843 40214 52006 69952 70262 8672/ 333 10106;",
"01047099999","2010-09-06T00:00:00","4","69.0166667","23.0666667","307.0","KAUTOKEINO II, NO","FM-12","ENKA ","V020","999,9,C,0000,1","00750,1,9,N","070000,1,N,1","+0084,1","+0069,1","10226,1",,,,"6,1,06,1","2,1,06,1",,"08,99,1,06,1,07,1,00800,1,02,1,99,9",,,"99999,9,09854,1","2,1,006,1,+999,9","02,1","SYN078AAXX  06001 01047 11588 80000 10084 20069 39854 40226 52006 6//// 70262 8672/;",
"01047099999","2010-09-06T06:00:00","4","69.0166667","23.0666667","307.0","KAUTOKEINO II, NO","FM-12","ENKA ","V020","999,9,C,0000,1","00750,1,9,N","070000,1,N,1","+0103,1","+0057,1","10239,1","12,0000,9,1","24,0008,9,1",,"6,1,06,1","2,1,06,1",,"08,99,1,07,1,05,1,00800,1,02,1,99,9",,"999,N,+0083,1","99999,9,09869,1","3,1,004,1,+999,9","02,1","SYN094AAXX  06061 01047 11588 80000 10103 20057 39869 40239 53004 69922 70262 8752/ 333 20083 70007;","Q01  00002PRCP12"
"01047099999","2010-09-06T09:00:00","4","69.0166667","23.0666667","307.0","KAUTOKEINO II, NO","FM-12","ENKA ","V020","320,1,N,0050,1","00750,1,9,N","070000,1,N,1","+0124,1","+0062,1","10245,1",,,,"2,1,03,1","2,1,03,1",,"08,99,1,08,1,05,1,00800,1,99,9,99,9",,,"99999,9,09877,1","3,1,008,1,+999,9","02,1","SYN072AAXX  06091 01047 41588 83205 10124 20062 39877 40245 53008 70222 885//;",
"01047099999","2010-09-06T12:00:00","4","69.0166667","23.0666667","307.0","KAUTOKEINO II, NO","FM-12","ENKA ","V020","320,1,N,0070,1","00750,1,9,N","070000,1,N,1","+0150,1","+0066,1","10237,1",,,,"2,1,06,1","2,1,06,1",,"06,99,1,06,1,05,1,00800,1,00,1,00,1",,,"99999,9,09873,1","8,1,005,1,+999,9","02,1","SYN078AAXX  06121 01047 11588 63207 10150 20066 39873 40237 58005 6//// 70222 86500;",
"01047099999","2010-09-06T15:00:00","4","69.0166667","23.0666667","307.0","KAUTOKEINO II, NO","FM-12","ENKA ","V020","320,1,N,0030,1","22000,1,9,N","070000,1,N,1","+0157,1","+0059,1","10232,1",,,,"2,1,03,1","0,1,03,1",,"03,99,1,03,1,00,1,01750,1,04,1,00,1",,,"99999,9,09869,1","6,1,003,1,+999,9","01,1","SYN072AAXX  06151 01047 41788 33203 10157 20059 39869 40232 56003 70120 83040;",
"01047099999","2010-09-06T18:00:00","4","69.0166667","23.0666667","307.0","KAUTOKEINO II, NO","FM-12","ENKA ","V020","320,1,N,0070,1","22000,1,9,N","070000,1,N,1","+0110,1","+0038,1","10240,1","12,0000,9,1",,,"0,1,06,1","0,1,06,1",,"02,99,1,02,1,00,1,02250,1,04,1,00,1",,"999,M,+0165,1","99999,9,09871,1","4,1,000,1,+999,9","02,1","SYN088AAXX  06181 01047 11888 23207 10110 20038 39871 40240 54000 60002 70200 82040 333 10165;","Q01  00002PRCP12"
"01047099999","2010-09-07T00:00:00","4","69.0166667","23.0666667","307.0","KAUTOKEINO II, NO","FM-12","ENKA ","V020","140,1,N,0030,1","22000,1,9,N","070000,1,N,1","+0012,1","-0003,1","10251,1",,,,"0,1,06,1","0,1,06,1",,"03,99,1,03,1,00,1,01750,1,07,1,00,1",,,"99999,9,09869,1","4,1,000,1,+999,9","02,1","SYN078AAXX  07001 01047 11788 31403 10012 21003 39869 40251 54000 6//// 70200 83070;",
"01047099999","2010-09-07T06:00:00","4","69.0166667","23.0666667","307.0","KAUTOKEINO II, NO","FM-12","ENKA ","V020","140,1,N,0030,1","01500,1,9,N","030000,1,N,1","+0013,1","+0003,1","10253,1","12,0000,9,1","24,0000,9,1",,"2,1,06,1","0,1,06,1",,"08,99,1,08,1,00,1,01750,1,07,1,99,9",,"999,N,-0003,1","99999,9,09871,1","4,1,000,1,+999,9","02,1","SYN094AAXX  07061 01047 11780 81403 10013 20003 39871 40253 54000 60002 70220 8807/ 333 21003 70000;","Q01  00002PRCP24Q02  00002PRCP12"
"01047099999","2010-09-07T09:00:00","4","69.0166667","23.0666667","307.0","KAUTOKEINO II, NO","FM-12","ENKA ","V020","320,1,N,0070,1","01500,1,9,N","070000,1,N,1","+0108,1","+0026,1","10236,1",,,,"2,1,03,1","2,1,03,1",,"06,99,1,06,1,00,1,01750,1,07,1,00,1",,,"99999,9,09867,1","7,1,004,1,+999,9","02,1","SYN072AAXX  07091 01047 41788 63207 10108 20026 39867 40236 57004 70222 86070;",
"01047099999","2010-09-07T12:00:00","4","69.0166667","23.0666667","307.0","KAUTOKEINO II, NO","FM-12","ENKA ","V020","320,1,N,0070,1","03000,1,9,N","070000,1,N,1","+0132,1","+0027,1","10234,1",,,,"2,1,06,1","2,1,06,1",,"07,99,1,02,1,05,1,01250,1,07,1,00,1",,,"99999,9,09868,1","4,1,000,1,+999,9","02,1","SYN078AAXX  07121 01047 11688 73207 10132 20027 39868 40234 54000 6//// 70222 82570;",
"01047099999","2010-09-07T15:00:00","4","69.0166667","23.0666667","307.0","KAUTOKEINO II, NO","FM-12","ENKA ","V020","320,1,N,0050,1","03000,1,9,N","070000,1,N,1","+0146,1","+0037,1","10234,1",,,,"2,1,03,1","2,1,03,1",,"06,99,1,04,1,05,1,01250,1,07,1,00,1",,,"99999,9,09869,1","4,1,000,1,+999,9","02,1","SYN072AAXX  07151 01047 41688 63205 10146 20037 39869 40234 54000 70222 84570;",
"01047099999","2010-09-07T18:00:00","4","69.0166667","23.0666667","307.0","KAUTOKEINO II, NO","FM-12","ENKA ","V020","320,1,N,0010,1","01500,1,9,N","070000,1,N,1","+0074,1","+0042,1","10250,1","12,0000,9,1",,,"2,1,06,1","2,1,06,1",,"05,99,1,05,1,00,1,01750,1,07,1,00,1",,"999,M,+0146,1","99999,9,09876,1","2,1,007,1,+999,9","02,1","SYN088AAXX  07181 01047 11788 53201 10074 20042 39876 40250 52007 60002 70222 85070 333 10146;","Q01  00002PRCP12"
"01047099999","2010-09-08T00:00:00","4","69.0166667","23.0666667","307.0","KAUTOKEINO II, NO","FM-12","ENKA ","V020","999,9,C,0000,1","00015,1,9,N","000000,1,N,1","+0004,1","-0010,1","10264,1",,,,"4,1,06,1","2,1,06,1","09,1,+99999,9,99,9","09,99,1,09,1,99,9,99999,9,99,9,99,9",,,"99999,9,09880,1","4,1,000,1,+999,9","44,1","SYN072AAXX  08001 01047 11/00 90000 10004 21010 39880 40264 54000 6//// 74442;",
"01047099999","2010-09-08T06:00:00","4","69.0166667","23.0666667","307.0","KAUTOKEINO II, NO","FM-12","ENKA ","V020","999,9,C,0000,1","00015,1,9,N","000000,1,N,1","+0001,1","-0009,1","10258,1","12,0000,9,1","24,0000,9,1",,"4,1,06,1","2,1,06,1","09,1,+99999,9,99,9","09,99,1,09,1,99,9,99999,9,99,9,99,9",,"999,N,-0011,1","99999,9,09875,1","6,1,004,1,+999,9","45,1","SYN088AAXX  08061 01047 11/00 90000 10001 21009 39875 40258 56004 60002 74542 333 21011 70000;","Q01  00002PRCP24Q02  00002PRCP12"
"01047099999","2010-09-08T09:00:00","4","69.0166667","23.0666667","307.0","KAUTOKEINO II, NO","FM-12","ENKA ","V020","320,1,N,0030,1","00420,1,9,N","010000,1,N,1","+0058,1","+0044,1","10248,1",,,,"4,1,03,1","2,1,03,1",,"08,99,1,08,1,06,1,00450,1,99,9,99,9",,,"99999,9,09872,1","4,1,000,1,+999,9","10,1","SYN072AAXX  08091 01047 41460 83203 10058 20044 39872 40248 54000 71042 886//;",
"01047099999","2010-09-08T12:00:00","4","69.0166667","23.0666667","307.0","KAUTOKEINO II, NO","FM-12","ENKA ","V020","360,1,N,0010,1","22000,1,9,N","070000,1,N,1","+0128,1","+0048,1","10235,1",,,,"2,1,06,1","0,1,06,1","00,1,+99999,9,99,9","00,99,1,00,1,00,1,99999,9,00,1,00,1",,,"99999,9,09868,1","6,1,003,1,+999,9","01,1","SYN072AAXX  08121 01047 11988 03601 10128 20048 39868 40235 56003 6//// 70120;",
"01047099999","2010-09-08T15:00:00","4","69.0166667","23.0666667","307.0","KAUTOKEINO II, NO","FM-12","ENKA ","V020","320,1,N,0010,1","22000,1,9,N","070000,1,N,1","+0162,1","+0049,1","10224,1",,,,"0,1,03,1","0,1,03,1",,"01,99,1,00,1,00,1,99999,9,00,1,01,1",,,"99999,9,09862,1","7,1,007,1,+999,9","02,1","SYN072AAXX  08151 01047 41988 13201 10162 20049 39862 40224 57007 70200 80001;",
"01047099999","2010-09-08T18:00:00","4","69.0166667","23.0666667","307.0","KAUTOKEINO II, NO","FM-12","ENKA ","V020","999,9,C,0000,1","22000,1,9,N","070000,1,N,1","+0086,1","+0050,1","10235,1","12,0000,9,1",,,"0,1,06,1","0,1,06,1",,"02,99,1,00,1,00,1,99999,9,00,1,02,1",,"999,M,+0165,1","99999,9,09863,1","4,1,000,1,+999,9","02,1","SYN088AAXX  08181 01047 11988 20000 10086 20050 39863 40235 54000 60002 70200 80002 333 10165;","Q01  00002PRCP12"
"01047099999","2010-09-09T00:00:00","4","69.0166667","23.0666667","307.0","KAUTOKEINO II, NO","FM-12","ENKA ","V020","999,9,C,0000,1","22000,1,9,N","030000,1,N,1","+0018,1","+0003,1","10257,1",,,,"0,1,06,1","0,1,06,1","00,1,+99999,9,99,9","00,99,1,00,1,00,1,99999,9,00,1,00,1",,,"99999,9,09875,1","3,1,008,1,+999,9","02,1","SYN072AAXX  09001 01047 11980 00000 10018 20003 39875 40257 53008 6//// 70200;",
"01047099999","2010-09-09T06:00:00","4","69.0166667","23.0666667","307.0","KAUTOKEINO II, NO","FM-12","ENKA ","V020","999,9,C,0000,1","00015,1,9,N","000000,1,N,1","+0032,1","+0019,1","10262,1","12,0000,9,1","24,0000,9,1",,"4,1,06,1","0,1,06,1","09,1,+99999,9,99,9","09,99,1,09,1,99,9,99999,9,99,9,99,9",,"999,N,-0002,1","99999,9,09882,1","3,1,002,1,+999,9","45,1","SYN088AAXX  09061 01047 11/00 90000 10032 20019 39882 40262 53002 60002 74540 333 21002 70000;","Q01  00002PRCP24Q02  00002PRCP12"
"01047099999","2010-09-09T09:00:00","4","69.0166667","23.0666667","307.0","KAUTOKEINO II, NO","FM-12","ENKA ","V020","999,9,C,0000,1","00210,1,9,N","006000,1,N,1","+0056,1","+0041,1","10260,1",,,,"4,1,03,1","2,1,03,1",,"08,99,1,08,1,06,1,00250,1,99,9,99,9",,,"99999,9,09883,1","4,1,000,1,+999,9","10,1","SYN072AAXX  09091 01047 41356 80000 10056 20041 39883 40260 54000 71042 886//;",
"01047099999","2010-09-09T12:00:00","4","69.0166667","23.0666667","307.0","KAUTOKEINO II, NO","FM-12","ENKA ","V020","999,9,C,0000,1","22000,1,9,N","070000,1,N,1","+0130,1","+0064,1","10238,1",,,,"0,1,06,1","0,1,06,1",,"03,99,1,03,1,04,1,01250,1,00,1,00,1",,,"99999,9,09871,1","8,1,011,1,+999,9","02,1","SYN078AAXX  09121 01047 11688 30000 10130 20064 39871 40238 58011 6//// 70200 83400;",
"01047099999","2010-09-09T15:00:00","4","69.0166667","23.0666667","307.0","KAUTOKEINO II, NO","FM-12","ENKA ","V020","180,1,N,0070,1","00750,1,9,N","070000,1,N,1","+0094,1","+0070,1","10239,1",,,,"2,1,03,1","2,1,03,1",,"08,99,1,08,1,05,1,00800,1,99,9,99,9",,,"99999,9,09868,1","6,1,004,1,+999,9","02,1","SYN072AAXX  09151 01047 41588 81807 10094 20070 39868 40239 56004 70222 885//;",
"01047099999","2010-09-09T18:00:00","4","69.0166667","23.0666667","307.0","KAUTOKEINO II, NO","FM-12","ENKA ","V020","180,1,N,0050,1","00750,1,9,N","006000,1,N,1","+0084,1","+0069,1","10238,1","12,9999,9,9",,,"5,1,06,1","2,1,06,1",,"08,99,1,08,1,05,1,00800,1,99,9,99,9",,"999,M,+0131,1","99999,9,09866,1","6,1,002,1,+999,9","50,1","SYN088AAXX  09181 01047 11556 81805 10084 20069 39866 40238 56002 69912 75052 885// 333 10131;","Q01  00002PRCP12Q02  00002PRCP12"
"01047099999","2010-09-10T00:00:00","4","69.0166667","23.0666667","307.0","KAUTOKEINO II, NO","FM-12","ENKA ","V020","180,1,N,0030,1","00750,1,9,N","010000,1,N,1","+0076,1","+0061,1","10231,1",,,,"6,1,06,1","5,1,06,1",,"08,99,1,06,1,07,1,00800,1,02,1,99,9",,,"99999,9,09858,1","7,1,005,1,+999,9","51,1","SYN078AAXX  10001 01047 11560 81803 10076 20061 39858 40231 57005 6//// 75165 8672/;",
"01047099999","2010-09-10T06:00:00","4","69.0166667","23.0666667","307.0","KAUTOKEINO II, NO","FM-12","ENKA ","V020","999,9,C,0000,1","00015,1,9,N","000000,1,N,1","+0053,1","+0043,1","10227,1","12,0000,2,1","24,0003,9,1",,"6,1,06,1","5,1,06,1","09,1,+99999,9,99,9","09,99,1,09,1,99,9,99999,9,99,9,99,9",,"999,N,+0053,1","99999,9,09851,1","6,1,007,1,+999,9","45,1","SYN088AAXX  10061 01047 11/00 90000 10053 20043 39851 40227 56007 69912 74565 333 20053 70002;",
"01047099999","2010-09-10T09:00:00","4","69.0166667","23.0666667","307.0","KAUTOKEINO II, NO","FM-12","ENKA ","V020","180,1,N,0030,1","00210,1,9,N","003000,1,N,1","+0070,1","+0055,1","10222,1",,,,"4,1,03,1","2,1,03,1",,"08,99,1,08,1,06,1,00250,1,99,9,99,9",,,"99999,9,09848,1","6,1,003,1,+999,9","10,1","SYN072AAXX  10091 01047 41330 81803 10070 20055 39848 40222 56003 71042 886//;",
"01047099999","2010-09-10T12:00:00","4","69.0166667","23.0666667","307.0","KAUTOKEINO II, NO","FM-12","ENKA ","V020","180,1,N,0050,1","00750,1,9,N","070000,1,N,1","+0100,1","+0079,1","10209,1",,,,"2,1,06,1","2,1,06,1",,"08,99,1,08,1,05,1,00800,1,99,9,99,9",,,"99999,9,09840,1","7,1,009,1,+999,9","02,1","SYN078AAXX  10121 01047 11588 81805 10100 20079 39840 40209 57009 6//// 70222 885//;",
"01047099999","2010-09-10T15:00:00","4","69.0166667","23.0666667","307.0","KAUTOKEINO II, NO","FM-12","ENKA ","V020","180,1,N,0070,1","00750,1,9,N","070000,1,N,1","+0098,1","+0077,1","10203,1",,,,"2,1,03,1","2,1,03,1",,"08,99,1,08,1,05,1,00800,1,99,9,99,9",,,"99999,9,09833,1","7,1,006,1,+999,9","02,1","SYN072AAXX  10151 01047 41588 81807 10098 20077 39833 40203 57006 70222 885//;",
"01047099999","2010-09-10T18:00:00","4","69.0166667","23.0666667","307.0","KAUTOKEINO II, NO","FM-12","ENKA ","V020","180,1,N,0050,1","00750,1,9,N","070000,1,N,1","+0078,1","+0054,1","10200,1","12,0000,9,1",,,"2,1,06,1","2,1,06,1",,"08,99,1,08,1,05,1,00800,1,99,9,99,9",,"999,M,+0100,1","99999,9,09829,1","7,1,005,1,+999,9","02,1","SYN088AAXX  10181 01047 11588 81805 10078 20054 39829 40200 57005 60002 70222 885// 333 10100;","Q01  00002PRCP12"
"01047099999","2010-09-11T00:00:00","4","69.0166667","23.0666667","307.0","KAUTOKEINO II, NO","FM-12","ENKA ","V020","999,9,C,0000,1","00420,1,9,N","065000,1,N,1","+0082,1","+0067,1","10185,1",,,,"2,1,06,1","2,1,06,1",,"08,99,1,08,1,06,1,00450,1,99,9,99,9",,,"99999,9,09814,1","7,1,006,1,+999,9","02,1","SYN078AAXX  11001 01047 11487 80000 10082 20067 39814 40185 57006 6//// 70222 886//;",
"01047099999","2010-09-11T06:00:00","4","69.0166667","23.0666667","307.0","KAUTOKEINO II, NO","FM-12","ENKA ","V020","180,1,N,0010,1","00420,1,9,N","000800,1,N,1","+0059,1","+0044,1","10174,1","12,9999,9,9","24,9999,9,9",,"5,1,06,1","2,1,06,1",,"08,99,1,08,1,06,1,00450,1,99,9,99,9",,"999,N,+0059,1","99999,9,09801,1","6,1,003,1,+999,9","55,1","SYN094AAXX  11061 01047 11408 81801 10059 20044 39801 40174 56003 69912 75552 886// 333 20059 70001;","Q01  00002PRCP24Q02  00002PRCP12Q03  00002PRCP12Q04  00002PRCP24"
"01047099999","2010-09-11T09:00:00","4","69.0166667","23.0666667","307.0","KAUTOKEINO II, NO","FM-12","ENKA ","V020","180,1,N,0010,1","00420,1,9,N","010000,1,N,1","+0057,1","+0042,1","10175,1",,,,"5,1,03,1","2,1,03,1",,"08,99,1,08,1,06,1,00450,1,99,9,99,9",,,"99999,9,09801,1","4,1,000,1,+999,9","51,1","SYN072AAXX  11091 01047 41460 81801 10057 20042 39801 40175 54000 75152 886//;",
"01047099999","2010-09-11T12:00:00","4","69.0166667","23.0666667","307.0","KAUTOKEINO II, NO","FM-12","ENKA ","V020","180,1,N,0050,1","00750,1,9,N","070000,1,N,1","+0076,1","+0056,1","10168,1",,,,"5,1,06,1","2,1,06,1",,"08,99,1,06,1,07,1,00800,1,02,1,99,9",,,"99999,9,09797,1","7,1,004,1,+999,9","02,1","SYN078AAXX  11121 01047 11588 81805 10076 20056 39797 40168 57004 6//// 70252 8672/;",
"01047099999","2010-09-11T15:00:00","4","69.0166667","23.0666667","307.0","KAUTOKEINO II, NO","FM-12","ENKA ","V020","180,1,N,0050,1","00750,1,9,N","070000,1,N,1","+0111,1","+0032,1","10156,1",,,,"2,1,03,1","2,1,03,1",,"08,99,1,08,1,05,1,00800,1,99,9,99,9",,,"99999,9,09790,1","7,1,008,1,+999,9","02,1","SYN072AAXX  11151 01047 41588 81805 10111 20032 39790 40156 57008 70222 885//;",
"01047099999","2010-09-11T18:00:00","4","69.0166667","23.0666667","307.0","KAUTOKEINO II, NO","FM-12","ENKA ","V020","180,1,N,0010,1","00750,1,9,N","070000,1,N,1","+0096,1","+0034,1","10150,1","12,0000,2,1",,,"2,1,06,1","2,1,06,1",,"08,99,1,08,1,05,1,00800,1,99,9,99,9",,"999,M,+0111,1","99999,9,09782,1","7,1,007,1,+999,9","02,1","SYN088AAXX  11181 01047 11588 81801 10096 20034 39782 40150 57007 69902 70222 885// 333 10111;",
"01047099999","2010-09-12T00:00:00","4","69.0166667","23.0666667","307.0","KAUTOKEINO II, NO","FM-12","ENKA ","V020","180,1,N,0030,1","00750,1,9,N","070000,1,N,1","+0082,1","+0039,1","10142,1",,,,"2,1,06,1","2,1,06,1",,"08,99,1,08,1,05,1,00800,1,99,9,99,9",,,"99999,9,09773,1","7,1,006,1,+999,9","02,1","SYN078AAXX  12001 01047 11588 81803 10082 20039 39773 40142 57006 6//// 70222 885//;",
"01047099999","2010-09-12T06:00:00","4","69.0166667","23.0666667","307.0","KAUTOKEINO II, NO","FM-12","ENKA ","V020","220,1,N,0030,1","22000,1,9,N","070000,1,N,1","+0052,1","+0035,1","10135,1","12,0000,9,1","24,0000,2,1",,"2,1,06,1","0,1,06,1",,"02,99,1,00,1,00,1,99999,9,00,1,08,1",,"999,N,+0038,1","99999,9,09762,1","6,1,002,1,+999,9","02,1","SYN094AAXX  12061 01047 11988 22203 10052 20035 39762 40135 56002 60002 70220 80008 333 20038 79999;","Q01  00002PRCP12"
"01047099999","2010-09-12T09:00:00","4","69.0166667","23.0666667","307.0","KAUTOKEINO II, NO","FM-12","ENKA ","V020","180,1,N,0050,1","22000,1,9,N","070000,1,N,1","+0109,1","+0048,1","10125,1",,,,"0,1,03,1","0,1,03,1",,"03,99,1,03,1,00,1,01750,1,04,1,00,1",,,"99999,9,09760,1","6,1,002,1,+999,9","02,1","SYN072AAXX  12091 01047 41788 31805 10109 20048 39760 40125 56002 70200 83040;",
"01047099999","2010-09-12T12:00:00","4","69.0166667","23.0666667","307.0","KAUTOKEINO II, NO","FM-12","ENKA ","V020","220,1,N,0100,1","01200,1,9,N","070000,1,N,1","+0128,1","+0045,1","10113,1",,,,"2,1,06,1","2,1,06,1",,"06,99,1,06,1,05,1,01250,1,00,1,00,1",,,"99999,9,09751,1","7,1,009,1,+999,9","02,1","SYN078AAXX  12121 01047 11688 62210 10128 20045 39751 40113 57009 6//// 70222 86500;",
"01047099999","2010-09-12T15:00:00","4","69.0166667","23.0666667","307.0","KAUTOKEINO II, NO","FM-12","ENKA ","V020","220,1,N,0100,1","01200,1,9,N","070000,1,N,1","+0122,1","+0058,1","10106,1",,,,"2,1,03,1","2,1,03,1",,"08,99,1,07,1,05,1,01250,1,02,1,99,9",,,"99999,9,09743,1","6,1,007,1,+999,9","02,1","SYN072AAXX  12151 01047 41688 82210 10122 20058 39743 40106 56007 70222 8752/;",
"01047099999","2010-09-12T18:00:00","4","69.0166667","23.0666667","307.0","KAUTOKEINO II, NO","FM-12","ENKA ","V020","180,1,N,0030,1","00750,1,9,N","020000,1,N,1","+0102,1","+0073,1","10094,1","12,9999,9,9",,,"5,1,06,1","2,1,06,1",,"08,99,1,06,1,07,1,00800,1,02,1,99,9",,"999,M,+0136,1","99999,9,09729,1","7,1,014,1,+999,9","51,1","SYN088AAXX  12181 01047 11570 81803 10102 20073 39729 40094 57014 69912 75152 8672/ 333 10136;","Q01  00002PRCP12Q02  00002PRCP12"
"01047099999","2010-09-13T00:00:00","4","69.0166667","23.0666667","307.0","KAUTOKEINO II, NO","FM-12","ENKA ","V020","180,1,N,0050,1","00750,1,9,N","070000,1,N,1","+0096,1","+0079,1","10074,1",,,,"5,1,06,1","2,1,06,1",,"08,99,1,06,1,07,1,00800,1,02,1,99,9",,,"99999,9,09709,1","7,1,008,1,+999,9","02,1","SYN078AAXX  13001 01047 11588 81805 10096 20079 39709 40074 57008 6//// 70252 8672/;",
"01047099999","2010-09-13T06:00:00","4","69.0166667","23.0666667","307.0","KAUTOKEINO II, NO","FM-12","ENKA ","V020","999,9,C,0000,1","00750,1,9,N","010000,1,N,1","+0102,1","+0086,1","10051,1","12,0003,9,1","24,0005,9,1",,"5,1,06,1","2,1,06,1",,"08,99,1,07,1,07,1,00800,1,02,1,99,9",,"999,N,+0095,1","99999,9,09687,1","6,1,007,1,+999,9","51,1","SYN094AAXX  13061 01047 11560 80000 10102 20086 39687 40051 56007 69932 75152 8772/ 333 20095 70004;",
"01047099999","2010-09-13T09:00:00","4","69.0166667","23.0666667","307.0","KAUTOKEINO II, NO","FM-12","ENKA ","V020","220,1,N,0070,1","01200,1,9,N","070000,1,N,1","+0136,1","+0053,1","10043,1",,,,"5,1,03,1","2,1,03,1",,"06,99,1,05,1,05,1,01250,1,04,1,00,1",,,"99999,9,09684,1","7,1,004,1,+999,9","02,1","SYN072AAXX  13091 01047 41688 62207 10136 20053 39684 40043 57004 70252 85540;",
"01047099999","2010-09-13T12:00:00","4","69.0166667","23.0666667","307.0","KAUTOKEINO II, NO","FM-12","ENKA ","V020","220,1,N,0030,1","01200,1,9,N","070000,1,N,1","+0085,1","+0000,1","10057,1",,,,"2,1,06,1","1,1,06,1",,"07,99,1,05,1,04,1,01250,1,04,1,00,1",,,"99999,9,09691,1","3,1,008,1,+999,9","02,1","SYN078AAXX  13121 01047 11688 72203 10085 20000 39691 40057 53008 6//// 70221 85440;",
"01047099999","2010-09-13T15:00:00","4","69.0166667","23.0666667","307.0","KAUTOKEINO II, NO","FM-12","ENKA ","V020","270,1,N,0050,1","01200,1,9,N","070000,1,N,1","+0136,1","+0040,1","10058,1",,,,"2,1,03,1","2,1,03,1",,"07,99,1,07,1,05,1,01250,1,00,1,00,1",,,"99999,9,09699,1","2,1,007,1,+999,9","02,1","SYN072AAXX  13151 01047 41688 72705 10136 20040 39699 40058 52007 70222 87500;",
"01047099999","2010-09-13T18:00:00","4","69.0166667","23.0666667","307.0","KAUTOKEINO II, NO","FM-12","ENKA ","V020","270,1,N,0030,1","01200,1,9,N","070000,1,N,1","+0108,1","+0036,1","10067,1","12,0000,2,1",,,"2,1,06,1","2,1,06,1",,"07,99,1,07,1,05,1,01250,1,00,1,00,1",,"999,M,+0145,1","99999,9,09703,1","1,1,005,1,+999,9","02,1","SYN088AAXX  13181 01047 11688 72703 10108 20036 39703 40067 51005 69912 70222 87500 333 10145;",
"01047099999","2010-09-14T00:00:00","4","69.0166667","23.0666667","307.0","KAUTOKEINO II, NO","FM-12","ENKA ","V020","220,1,N,0030,1","22000,1,9,N","070000,1,N,1","+0026,1","+0011,1","10081,1",,,,"1,1,06,1","1,1,06,1",,"03,99,1,03,1,00,1,01750,1,07,1,00,1",,,"99999,9,09707,1","4,1,000,1,+999,9","02,1","SYN078AAXX  14001 01047 11788 32203 10026 20011 39707 40081 54000 6//// 70211 83070;",
"01047099999","2010-09-14T06:00:00","4","69.0166667","23.0666667","307.0","KAUTOKEINO II, NO","FM-12","ENKA ","V020","220,1,N,0030,1","01500,1,9,N","000600,1,N,1","+0005,1","-0005,1","10070,1","12,0000,9,1","24,0000,2,1",,"4,1,06,1","1,1,06,1",,"05,99,1,05,1,00,1,01750,1,04,1,00,1",,"999,N,+0003,1","99999,9,09694,1","8,1,004,1,+999,9","44,1","SYN094AAXX  14061 01047 11706 52203 10005 21005 39694 40070 58004 60002 74441 85040 333 20003 70001;","Q01  00002PRCP12"
"01047099999","2010-09-14T09:00:00","4","69.0166667","23.0666667","307.0","KAUTOKEINO II, NO","FM-12","ENKA ","V020","220,1,N,0010,1","01200,1,9,N","065000,1,N,1","+0080,1","+0039,1","10051,1",,,,"4,1,03,1","2,1,03,1",,"07,99,1,07,1,05,1,01250,1,00,1,00,1",,,"99999,9,09685,1","7,1,010,1,+999,9","02,1","SYN072AAXX  14091 01047 41687 72201 10080 20039 39685 40051 57010 70242 87500;",
"01047099999","2010-09-14T12:00:00","4","69.0166667","23.0666667","307.0","KAUTOKEINO II, NO","FM-12","ENKA ","V020","220,1,N,0050,1","03000,1,9,N","070000,1,N,1","+0130,1","+0034,1","10026,1",,,,"2,1,06,1","2,1,06,1",,"07,99,1,03,1,05,1,01250,1,07,1,00,1",,,"99999,9,09667,1","8,1,017,1,+999,9","02,1","SYN078AAXX  14121 01047 11688 72205 10130 20034 39667 40026 58017 6//// 70222 83570;",
"01047099999","2010-09-14T15:00:00","4","69.0166667","23.0666667","307.0","KAUTOKEINO II, NO","FM-12","ENKA ","V020","220,1,N,0050,1","03000,1,9,N","070000,1,N,1","+0128,1","+0045,1","10008,1",,,,"2,1,03,1","2,1,03,1",,"08,99,1,02,1,05,1,01250,1,07,1,99,9",,,"99999,9,09650,1","7,1,018,1,+999,9","02,1","SYN072AAXX  14151 01047 41688 82205 10128 20045 39650 40008 57018 70222 8257/;",
"01047099999","2010-09-14T18:00:00","4","69.0166667","23.0666667","307.0","KAUTOKEINO II, NO","FM-12","ENKA ","V020","180,1,N,0050,1","01500,1,9,N","070000,1,N,1","+0104,1","+0052,1","10004,1","12,0000,9,1",,,"2,1,06,1","2,1,06,1",,"08,99,1,08,1,00,1,01750,1,07,1,99,9",,"999,M,+0136,1","99999,9,09643,1","6,1,007,1,+999,9","02,1","SYN088AAXX  14181 01047 11788 81805 10104 20052 39643 40004 56007 60002 70222 8807/ 333 10136;","Q01  00002PRCP12"
"01047099999","2010-09-15T00:00:00","4","69.0166667","23.0666667","307.0","KAUTOKEINO II, NO","FM-12","ENKA ","V020","180,1,N,0030,1","00750,1,9,N","070000,1,N,1","+0082,1","+0065,1","09995,1",,,,"8,1,06,1","2,1,06,1",,"08,99,1,08,1,09,1,00800,1,99,9,99,9",,,"99999,9,09631,1","7,1,006,1,+999,9","02,1","SYN078AAXX  15001 01047 11588 81803 10082 20065 39631 49995 57006 6//// 70282 889//;",
"01047099999","2010-09-15T06:00:00","4","69.0166667","23.0666667","307.0","KAUTOKEINO II, NO","FM-12","ENKA ","V020","180,1,N,0050,1","03000,1,9,N","020000,1,N,1","+0088,1","+0074,1","09984,1","12,0005,9,1","24,0005,9,1",,"8,1,06,1","6,1,06,1",,"08,99,1,04,1,05,1,00800,1,02,1,99,9",,"999,N,+0082,1","99999,9,09621,1","6,1,005,1,+999,9","60,1","SYN094AAXX  15061 01047 11570 81805 10088 20074 39621 49984 56005 69962 76086 8452/ 333 20082 70006;",
"01047099999","2010-09-15T09:00:00","4","69.0166667","23.0666667","307.0","KAUTOKEINO II, NO","FM-12","ENKA ","V020","140,1,N,0050,1","00750,1,9,N","030000,1,N,1","+0094,1","+0074,1","09981,1",,,,"6,1,03,1","6,1,03,1",,"08,99,1,06,1,07,1,00800,1,02,1,99,9",,,"99999,9,09620,1","6,1,002,1,+999,9","61,1","SYN072AAXX  15091 01047 41580 81405 10094 20074 39620 49981 56002 76166 8672/;",
"01047099999","2010-09-15T12:00:00","4","69.0166667","23.0666667","307.0","KAUTOKEINO II, NO","FM-12","ENKA ","V020","140,1,N,0050,1","00750,1,9,N","070000,1,N,1","+0104,1","+0060,1","09977,1",,,,"6,1,06,1","2,1,06,1",,"08,99,1,06,1,07,1,00800,1,02,1,99,9",,,"99999,9,09617,1","7,1,003,1,+999,9","02,1","SYN078AAXX  15121 01047 11588 81405 10104 20060 39617 49977 57003 6//// 70262 8672/;",
"01047099999","2010-09-15T15:00:00","4","69.0166667","23.0666667","307.0","KAUTOKEINO II, NO","FM-12","ENKA ","V020","140,1,N,0070,1","00750,1,9,N","070000,1,N,1","+0102,1","+0069,1","09970,1",,,,"5,1,03,1","2,1,03,1",,"08,99,1,06,1,07,1,00800,1,02,1,99,9",,,"99999,9,09610,1","7,1,007,1,+999,9","02,1","SYN072AAXX  15151 01047 41588 81407 10102 20069 39610 49970 57007 70252 8672/;",
"01047099999","2010-09-15T18:00:00","4","69.0166667","23.0666667","307.0","KAUTOKEINO II, NO","FM-12","ENKA ","V020","140,1,N,0050,1","00750,1,9,N","065000,1,N,1","+0101,1","+0080,1","09967,1","12,0010,9,1",,,"6,1,06,1","5,1,06,1",,"08,99,1,08,1,07,1,00800,1,99,9,99,9",,"999,M,+0105,1","99999,9,09607,1","6,1,003,1,+999,9","20,1","SYN088AAXX  15181 01047 11587 81405 10101 20080 39607 49967 56003 60012 72065 887// 333 10105;",
"01047099999","2010-09-16T00:00:00","4","69.0166667","23.0666667","307.0","KAUTOKEINO II, NO","FM-12","ENKA ","V020","140,1,N,0050,1","00750,1,9,N","010000,1,N,1","+0100,1","+0084,1","09954,1",,,,"5,1,06,1","2,1,06,1",,"08,99,1,06,1,07,1,00800,1,02,1,99,9",,,"99999,9,09594,1","7,1,006,1,+999,9","51,1","SYN078AAXX  16001 01047 11560 81405 10100 20084 39594 49954 57006 6//// 75152 8672/;",
"01047099999","2010-09-16T06:00:00","4","69.0166667","23.0666667","307.0","KAUTOKEINO II, NO","FM-12","ENKA ","V020","140,1,N,0050,1","01200,1,9,N","070000,1,N,1","+0109,1","+0081,1","09946,1","12,0000,2,1","24,0015,9,1",,"5,1,06,1","2,1,06,1",,"07,99,1,05,1,04,1,01250,1,07,1,00,1",,"999,N,+0096,1","99999,9,09587,1","8,1,004,1,+999,9","02,1","SYN094AAXX  16061 01047 11688 71405 10109 20081 39587 49946 58004 69922 70252 85470 333 20096 70016;",
"01047099999","2010-09-16T09:00:00","4","69.0166667","23.0666667","307.0","KAUTOKEINO II, NO","FM-12","ENKA ","V020","140,1,N,0070,1","00750,1,9,N","010000,1,N,1","+0110,1","+0082,1","09945,1",,,,"6,1,03,1","2,1,03,1",,"08,99,1,06,1,07,1,00800,1,02,1,99,9",,,"99999,9,09586,1","6,1,001,1,+999,9","63,1","SYN072AAXX  16091 01047 41560 81407 10110 20082 39586 49945 56001 76362 8672/;",
"01047099999","2010-09-16T12:00:00","4","69.0166667","23.0666667","307.0","KAUTOKEINO II, NO","FM-12","ENKA ","V020","180,1,N,0070,1","00750,1,9,N","070000,1,N,1","+0106,1","+0043,1","09975,1",,,,"6,1,06,1","2,1,06,1",,"06,99,1,06,1,05,1,00800,1,00,1,00,1",,,"99999,9,09615,1","3,1,028,1,+999,9","02,1","SYN078AAXX  16121 01047 11588 61807 10106 20043 39615 49975 53028 6//// 70262 86500;",
"01047099999","2010-09-16T15:00:00","4","69.0166667","23.0666667","307.0","KAUTOKEINO II, NO","FM-12","ENKA ","V020","180,1,N,0070,1","00750,1,9,N","070000,1,N,1","+0104,1","+0041,1","09997,1",,,,"2,1,03,1","2,1,03,1",,"06,99,1,06,1,05,1,00800,1,00,1,00,1",,,"99999,9,09636,1","1,1,021,1,+999,9","02,1","SYN072AAXX  16151 01047 41588 61807 10104 20041 39636 49997 51021 70222 86500;",
"01047099999","2010-09-16T18:00:00","4","69.0166667","23.0666667","307.0","KAUTOKEINO II, NO","FM-12","ENKA ","V020","180,1,N,0070,1","22000,1,9,N","070000,1,N,1","+0090,1","+0054,1","10017,1","12,0010,9,1",,,"2,1,06,1","2,1,06,1",,"04,99,1,04,1,05,1,00800,1,00,1,00,1",,"999,M,+0110,1","99999,9,09653,1","2,1,017,1,+999,9","01,1","SYN088AAXX  16181 01047 11588 41807 10090 20054 39653 40017 52017 60012 70122 84500 333 10110;",
"01047099999","2010-09-17T00:00:00","4","69.0166667","23.0666667","307.0","KAUTOKEINO II, NO","FM-12","ENKA ","V020","999,9,C,0000,1","00015,1,9,N","000000,1,N,1","+0008,1","-0005,1","10041,1",,,,"4,1,06,1","2,1,06,1","09,1,+99999,9,99,9","09,99,1,09,1,99,9,99999,9,99,9,99,9",,,"99999,9,09667,1","1,1,005,1,+999,9","46,1","SYN072AAXX  17001 01047 11/00 90000 10008 21005 39667 40041 51005 6//// 74642;",
"01047099999","2010-09-17T06:00:00","4","69.0166667","23.0666667","307.0","KAUTOKEINO II, NO","FM-12","ENKA ","V020","999,9,C,0000,1","00750,1,9,N","070000,1,N,1","+0048,1","+0038,1","10029,1","12,0003,9,1","24,0015,9,1",,"6,1,06,1","4,1,06,1",,"08,99,1,06,1,05,1,00800,1,02,1,99,9",,"999,N,+0003,1","99999,9,09660,1","8,1,006,1,+999,9","02,1","SYN094AAXX  17061 01047 11588 80000 10048 20038 39660 40029 58006 69932 70264 8652/ 333 20003 70015;",
"01047099999","2010-09-17T09:00:00","4","69.0166667","23.0666667","307.0","KAUTOKEINO II, NO","FM-12","ENKA ","V020","999,9,C,0000,1","00750,1,9,N","070000,1,N,1","+0078,1","+0056,1","10017,1",,,,"2,1,03,1","2,1,03,1",,"07,99,1,05,1,05,1,00800,1,02,1,00,1",,,"99999,9,09652,1","6,1,008,1,+999,9","02,1","SYN072AAXX  17091 01047 41588 70000 10078 20056 39652 40017 56008 70222 85520;",
"01047099999","2010-09-17T12:00:00","4","69.0166667","23.0666667","307.0","KAUTOKEINO II, NO","FM-12","ENKA ","V020","360,1,N,0050,1","01200,1,9,N","070000,1,N,1","+0098,1","+0036,1","10004,1",,,,"2,1,06,1","2,1,06,1",,"08,99,1,08,1,05,1,01250,1,99,9,99,9",,,"99999,9,09642,1","7,1,010,1,+999,9","02,1","SYN078AAXX  17121 01047 11688 83605 10098 20036 39642 40004 57010 6//// 70222 885//;",
"01047099999","2010-09-17T15:00:00","4","69.0166667","23.0666667","307.0","KAUTOKEINO II, NO","FM-12","ENKA ","V020","050,1,N,0050,1","03000,1,9,N","070000,1,N,1","+0085,1","+0049,1","10000,1",,,,"2,1,03,1","2,1,03,1",,"08,99,1,04,1,05,1,00800,1,02,1,99,9",,,"99999,9,09637,1","6,1,005,1,+999,9","02,1","SYN072AAXX  17151 01047 41588 80505 10085 20049 39637 40000 56005 70222 8452/;",
"01047099999","2010-09-17T18:00:00","4","69.0166667","23.0666667","307.0","KAUTOKEINO II, NO","FM-12","ENKA ","V020","050,1,N,0030,1","01200,1,9,N","004000,1,N,1","+0075,1","+0060,1","09997,1","12,9999,9,9",,,"5,1,06,1","2,1,06,1",,"08,99,1,08,1,00,1,01250,1,02,1,99,9",,"999,M,+0098,1","99999,9,09632,1","6,1,004,1,+999,9","51,1","SYN088AAXX  17181 01047 11640 80503 10075 20060 39632 49997 56004 69912 75152 8802/ 333 10098;","Q01  00002PRCP12Q02  00002PRCP12"
"01047099999","2010-09-18T00:00:00","4","69.0166667","23.0666667","307.0","KAUTOKEINO II, NO","FM-12","ENKA ","V020","999,9,C,0000,1","01200,1,9,N","010000,1,N,1","+0068,1","+0053,1","09993,1",,,,"6,1,06,1","5,1,06,1",,"08,99,1,08,1,00,1,01250,1,02,1,99,9",,,"99999,9,09628,1","7,1,005,1,+999,9","51,1","SYN078AAXX  18001 01047 11660 80000 10068 20053 39628 49993 57005 6//// 75165 8802/;",
"01047099999","2010-09-18T06:00:00","4","69.0166667","23.0666667","307.0","KAUTOKEINO II, NO","FM-12","ENKA ","V020","999,9,C,0000,1","01200,1,9,N","070000,1,N,1","+0067,1","+0050,1","09984,1","12,0010,9,1","24,0010,9,1",,"6,1,06,1","5,1,06,1",,"08,99,1,08,1,00,1,01250,1,02,1,99,9",,"999,N,+0067,1","99999,9,09618,1","6,1,006,1,+999,9","02,1","SYN094AAXX  18061 01047 11688 80000 10067 20050 39618 49984 56006 60012 70265 8802/ 333 20067 70011;",
"01047099999","2010-09-18T09:00:00","4","69.0166667","23.0666667","307.0","KAUTOKEINO II, NO","FM-12","ENKA ","V020","999,9,C,0000,1","00750,1,9,N","070000,1,N,1","+0084,1","+0064,1","09979,1",,,,"6,1,03,1","2,1,03,1",,"08,99,1,06,1,05,1,00800,1,02,1,99,9",,,"99999,9,09616,1","6,1,003,1,+999,9","21,1","SYN072AAXX  18091 01047 41588 80000 10084 20064 39616 49979 56003 72162 8652/;",
"01047099999","2010-09-18T12:00:00","4","69.0166667","23.0666667","307.0","KAUTOKEINO II, NO","FM-12","ENKA ","V020","999,9,C,0000,1","00750,1,9,N","070000,1,N,1","+0102,1","+0037,1","09974,1",,,,"2,1,06,1","2,1,06,1",,"08,99,1,08,1,00,1,00800,1,02,1,99,9",,,"99999,9,09613,1","6,1,002,1,+999,9","02,1","SYN078AAXX  18121 01047 11588 80000 10102 20037 39613 49974 56002 6//// 70222 8802/;",
"01047099999","2010-09-18T15:00:00","4","69.0166667","23.0666667","307.0","KAUTOKEINO II, NO","FM-12","ENKA ","V020","180,1,N,0050,1","99999,9,9,N","070000,1,N,1","+0111,1","+0032,1","09962,1",,,,"2,1,03,1","2,1,03,1",,"08,99,1,08,1,00,1,01250,1,07,1,99,9",,,"99999,9,09603,1","7,1,011,1,+999,9","02,1","SYN072AAXX  18151 01047 41688 81805 10111 20032 39603 49962 57011 70222 8807/;",
"01047099999","2010-09-18T18:00:00","4","69.0166667","23.0666667","307.0","KAUTOKEINO II, NO","FM-12","ENKA ","V020","160,1,N,0050,1","99999,9,9,N","070000,1,N,1","+0090,1","+0030,1","09964,1","12,0000,2,1",,,"2,1,06,1","2,1,06,1",,"06,99,1,06,1,00,1,01250,1,07,1,00,1",,"999,M,+0111,1","99999,9,09602,1","4,1,000,1,+999,9","02,1","SYN088AAXX  18181 01047 11688 61605 10090 20030 39602 49964 54000 69912 70222 86070 333 10111;",
"01047099999","2010-09-19T00:00:00","4","69.0166667","23.0666667","307.0","KAUTOKEINO II, NO","FM-12","ENKA ","V020","180,1,N,0050,1","01500,1,9,N","070000,1,N,1","+0052,1","+0027,1","09970,1",,,,"2,1,06,1","2,1,06,1",,"08,99,1,08,1,00,1,01750,1,07,1,99,9",,,"99999,9,09603,1","4,1,000,1,+999,9","02,1","SYN078AAXX  19001 01047 11788 81805 10052 20027 39603 49970 54000 6//// 70222 8807/;",
"01047099999","2010-09-19T06:00:00","4","69.0166667","23.0666667","307.0","KAUTOKEINO II, NO","FM-12","ENKA ","V020","180,1,N,0010,1","01500,1,9,N","070000,1,N,1","+0047,1","+0032,1","09971,1","12,0000,9,1","24,0000,2,1",,"2,1,06,1","2,1,06,1",,"07,99,1,07,1,00,1,01750,1,07,1,00,1",,"999,N,+0039,1","99999,9,09603,1","4,1,000,1,+999,9","02,1","SYN094AAXX  19061 01047 11788 71801 10047 20032 39603 49971 54000 60002 70222 87070 333 20039 70001;","Q01  00002PRCP12"
"01047099999","2010-09-19T09:00:00","4","69.0166667","23.0666667","307.0","KAUTOKEINO II, NO","FM-12","ENKA ","V020","180,1,N,0050,1","01500,1,9,N","070000,1,N,1","+0091,1","+0041,1","09966,1",,,,"2,1,03,1","2,1,03,1",,"07,99,1,07,1,00,1,01750,1,07,1,00,1",,,"99999,9,09605,1","3,1,001,1,+999,9","02,1","SYN072AAXX  19091 01047 41788 71805 10091 20041 39605 49966 53001 70222 87070;",
"01047099999","2010-09-19T12:00:00","4","69.0166667","23.0666667","307.0","KAUTOKEINO II, NO","FM-12","ENKA ","V020","140,1,N,0050,1","00750,1,9,N","070000,1,N,1","+0113,1","+0058,1","09964,1",,,,"2,1,06,1","2,1,06,1",,"06,99,1,06,1,09,1,00800,1,00,1,00,1",,,"99999,9,09605,1","4,1,000,1,+999,9","02,1","SYN078AAXX  19121 01047 11588 61405 10113 20058 39605 49964 54000 6//// 70222 86900;",
"01047099999","2010-09-19T15:00:00","4","69.0166667","23.0666667","307.0","KAUTOKEINO II, NO","FM-12","ENKA ","V020","140,1,N,0010,1","00750,1,9,N","070000,1,N,1","+0102,1","+0048,1","09969,1",,,,"8,1,03,1","2,1,03,1",,"07,99,1,07,1,09,1,00800,1,00,1,00,1",,,"99999,9,09609,1","2,1,003,1,+999,9","02,1","SYN072AAXX  19151 01047 41588 71401 10102 20048 39609 49969 52003 70282 87900;",
"01047099999","2010-09-19T18:00:00","4","69.0166667","23.0666667","307.0","KAUTOKEINO II, NO","FM-12","ENKA ","V020","140,1,N,0050,1","00750,1,9,N","070000,1,N,1","+0069,1","+0052,1","09986,1","12,0020,9,1",,,"2,1,06,1","2,1,06,1",,"07,99,1,07,1,05,1,00800,1,00,1,00,1",,"999,M,+0115,1","99999,9,09621,1","2,1,012,1,+999,9","02,1","SYN088AAXX  19181 01047 11588 71405 10069 20052 39621 49986 52012 60022 70222 87500 333 10115;",
"01047099999","2010-09-20T00:00:00","4","69.0166667","23.0666667","307.0","KAUTOKEINO II, NO","FM-12","ENKA ","V020","999,9,C,0000,1","00015,1,9,N","000000,1,N,1","+0012,1","-0001,1","10007,1",,,,"4,1,06,1","2,1,06,1","09,1,+99999,9,99,9","09,99,1,09,1,99,9,99999,9,99,9,99,9",,,"99999,9,09634,1","2,1,006,1,+999,9","44,1","SYN072AAXX  20001 01047 11/00 90000 10012 21001 39634 40007 52006 6//// 74442;",
"01047099999","2010-09-20T06:00:00","4","69.0166667","23.0666667","307.0","KAUTOKEINO II, NO","FM-12","ENKA ","V020","999,9,C,0000,1","01200,1,9,N","070000,1,N,1","+0014,1","+0004,1","10026,1","12,0003,9,1","24,0023,9,1",,"6,1,06,1","4,1,06,1",,"08,99,1,08,1,00,1,01250,1,02,1,99,9",,"999,N,+0007,1","99999,9,09652,1","3,1,007,1,+999,9","02,1","SYN094AAXX  20061 01047 11688 80000 10014 20004 39652 40026 53007 69932 70264 8802/ 333 20007 70023;",
"01047099999","2010-09-20T09:00:00","4","69.0166667","23.0666667","307.0","KAUTOKEINO II, NO","FM-12","ENKA ","V020","999,9,C,0000,1","03000,1,9,N","070000,1,N,1","+0053,1","+0043,1","10030,1",,,,"2,1,03,1","2,1,03,1",,"08,99,1,03,1,05,1,00800,1,02,1,99,9",,,"99999,9,09661,1","3,1,009,1,+999,9","02,1","SYN072AAXX  20091 01047 41588 80000 10053 20043 39661 40030 53009 70222 8352/;",
"01047099999","2010-09-20T12:00:00","4","69.0166667","23.0666667","307.0","KAUTOKEINO II, NO","FM-12","ENKA ","V020","999,9,C,0000,1","01500,1,9,N","070000,1,N,1","+0090,1","+0046,1","10033,1",,,,"2,1,06,1","2,1,06,1",,"06,99,1,06,1,08,1,01250,1,00,1,00,1",,,"99999,9,09669,1","2,1,007,1,+999,9","02,1","SYN072AAXX  20121 01047 41688 60000 10090 20046 39669 40033 52007 70222 86800;",
"01047099999","2010-09-20T15:00:00","4","69.0166667","23.0666667","307.0","KAUTOKEINO II, NO","FM-12","ENKA ","V020","180,1,N,0030,1","01500,1,9,N","070000,1,N,1","+0116,1","+0024,1","10033,1",,,,"2,1,03,1","2,1,03,1",,"05,99,1,05,1,08,1,01250,1,00,1,00,1",,,"99999,9,09672,1","1,1,004,1,+999,9","02,1","SYN072AAXX  20151 01047 41688 51803 10116 20024 39672 40033 51004 70222 85800;",
"01047099999","2010-09-20T18:00:00","4","69.0166667","23.0666667","307.0","KAUTOKEINO II, NO","FM-12","ENKA ","V020","180,1,N,0010,1","03000,1,9,N","070000,1,N,1","+0056,1","+0021,1","10058,1",,,,"2,1,06,1","2,1,06,1",,"05,99,1,04,1,09,1,00800,1,04,1,00,1",,"999,M,+0120,1","99999,9,09688,1","3,1,015,1,+999,9","02,1","SYN082AAXX  20181 01047 31588 51801 10056 20021 39688 40058 53015 70222 84940 333 10120;",
"01047099999","2010-09-21T00:00:00","4","69.0166667","23.0666667","307.0","KAUTOKEINO II, NO","FM-12","ENKA ","V020","999,9,C,0000,1","22000,1,9,N","003000,1,N,1","+0014,1","+0001,1","10087,1",,,,"0,1,06,1","0,1,06,1","00,1,+99999,9,99,9","00,99,1,00,1,00,1,99999,9,00,1,00,1",,,"99999,9,09711,1","1,1,006,1,+999,9","10,1","SYN066AAXX  21001 01047 41930 00000 10014 20001 39711 40087 51006 71000;",
"01047099999","2010-09-21T06:00:00","4","69.0166667","23.0666667","307.0","KAUTOKEINO II, NO","FM-12","ENKA ","V020","999,9,C,0000,1","00750,1,9,N","070000,1,N,1","+0009,1","-0001,1","10112,1","12,0000,9,1","24,0000,9,1",,"6,1,06,1","2,1,06,1",,"07,99,1,06,1,07,1,00800,1,02,1,00,1",,"999,N,-0011,1","99999,9,09735,1","2,1,006,1,+999,9","02,1","SYN094AAXX  21061 01047 11588 70000 10009 21001 39735 40112 52006 69912 70262 86720 333 21011 70001;","Q01  00002PRCP24Q02  00002PRCP12"
"01047099999","2010-09-21T09:00:00","4","69.0166667","23.0666667","307.0","KAUTOKEINO II, NO","FM-12","ENKA ","V020","180,1,N,0010,1","00750,1,9,N","070000,1,N,1","+0054,1","+0041,1","10115,1",,,,"8,1,03,1","2,1,03,1",,"07,99,1,07,1,09,1,00800,1,00,1,00,1",,,"99999,9,09743,1","2,1,008,1,+999,9","02,1","SYN072AAXX  21091 01047 41588 71801 10054 20041 39743 40115 52008 70282 87900;",
"01047099999","2010-09-21T12:00:00","4","69.0166667","23.0666667","307.0","KAUTOKEINO II, NO","FM-12","ENKA ","V020","180,1,N,0050,1","00750,1,9,N","070000,1,N,1","+0096,1","+0052,1","10116,1",,,,"2,1,06,1","2,1,06,1",,"06,99,1,06,1,05,1,00800,1,00,1,00,1",,,"99999,9,09749,1","2,1,007,1,+999,9","02,1","SYN072AAXX  21121 01047 41588 61805 10096 20052 39749 40116 52007 70222 86500;",
"01047099999","2010-09-21T15:00:00","4","69.0166667","23.0666667","307.0","KAUTOKEINO II, NO","FM-12","ENKA ","V020","180,1,N,0030,1","03000,1,9,N","070000,1,N,1","+0102,1","+0033,1","10119,1",,,,"2,1,03,1","2,1,03,1",,"05,99,1,02,1,04,1,01250,1,07,1,00,1",,,"99999,9,09753,1","1,1,003,1,+999,9","02,1","SYN072AAXX  21151 01047 41688 51803 10102 20033 39753 40119 51003 70222 82470;",
"01047099999","2010-09-21T18:00:00","4","69.0166667","23.0666667","307.0","KAUTOKEINO II, NO","FM-12","ENKA ","V020","180,1,N,0050,1","01200,1,9,N","030000,1,N,1","+0050,1","+0037,1","10137,1","12,0008,9,1",,,"2,1,06,1","2,1,06,1",,"08,99,1,08,1,00,1,01250,1,02,1,99,9",,"999,M,+0108,1","99999,9,09764,1","2,1,011,1,+999,9","02,1","SYN088AAXX  21181 01047 11680 81805 10050 20037 39764 40137 52011 69982 70222 8802/ 333 10108;",
"01047099999","2010-09-22T00:00:00","4","69.0166667","23.0666667","307.0","KAUTOKEINO II, NO","FM-12","ENKA ","V020","180,1,N,0010,1","00210,1,9,N","070000,1,N,1","+0054,1","+0041,1","10138,1",,,,"2,1,06,1","2,1,06,1",,"08,99,1,08,1,06,1,00250,1,99,9,99,9",,,"99999,9,09766,1","4,1,000,1,+999,9","02,1","SYN072AAXX  22001 01047 41388 81801 10054 20041 39766 40138 54000 70222 886//;",
"01047099999","2010-09-22T06:00:00","4","69.0166667","23.0666667","307.0","KAUTOKEINO II, NO","FM-12","ENKA ","V020","999,9,C,0000,1","03000,1,9,N","065000,1,N,1","+0052,1","+0037,1","10134,1","12,0010,9,1","24,0023,9,1",,"6,1,06,1","2,1,06,1",,"08,99,1,03,1,05,1,00800,1,02,1,99,9",,"999,N,+0047,1","99999,9,09761,1","6,1,002,1,+999,9","02,1","SYN094AAXX  22061 01047 11587 80000 10052 20037 39761 40134 56002 60012 70262 8352/ 333 20047 70022;",
"01047099999","2010-09-22T09:00:00","4","69.0166667","23.0666667","307.0","KAUTOKEINO II, NO","FM-12","ENKA ","V020","220,1,N,0010,1","00750,1,9,N","070000,1,N,1","+0061,1","+0046,1","10128,1",,,,"2,1,03,1","2,1,03,1",,"08,99,1,06,1,07,1,00800,1,02,1,99,9",,,"99999,9,09756,1","7,1,005,1,+999,9","02,1","SYN072AAXX  22091 01047 41588 82201 10061 20046 39756 40128 57005 70222 8672/;",
"01047099999","2010-09-22T12:00:00","4","69.0166667","23.0666667","307.0","KAUTOKEINO II, NO","FM-12","ENKA ","V020","320,1,N,0030,1","00750,1,9,N","070000,1,N,1","+0070,1","+0034,1","10121,1",,,,"2,1,06,1","2,1,06,1",,"08,99,1,08,1,05,1,00800,1,99,9,99,9",,,"99999,9,09751,1","7,1,005,1,+999,9","02,1","SYN072AAXX  22121 01047 41588 83203 10070 20034 39751 40121 57005 70222 885//;",
"01047099999","2010-09-22T15:00:00","4","69.0166667","23.0666667","307.0","KAUTOKEINO II, NO","FM-12","ENKA ","V020","320,1,N,0030,1","00750,1,9,N","070000,1,N,1","+0082,1","+0029,1","10111,1",,,,"2,1,03,1","2,1,03,1",,"06,99,1,06,1,05,1,00800,1,00,1,00,1",,,"99999,9,09743,1","7,1,009,1,+999,9","02,1","SYN072AAXX  22151 01047 41588 63203 10082 20029 39743 40111 57009 70222 86500;",
"01047099999","2010-09-22T18:00:00","4","69.0166667","23.0666667","307.0","KAUTOKEINO II, NO","FM-12","ENKA ","V020","270,1,N,0030,1","22000,1,9,N","070000,1,N,1","+0040,1","+0024,1","10114,1",,,,"2,1,06,1","2,1,06,1",,"04,99,1,04,1,05,1,00800,1,00,1,00,1",,"999,M,+0090,1","99999,9,09741,1","6,1,002,1,+999,9","02,1","SYN082AAXX  22181 01047 31588 42703 10040 20024 39741 40114 56002 70222 84500 333 10090;",
"01047099999","2010-09-23T00:00:00","4","69.0166667","23.0666667","307.0","KAUTOKEINO II, NO","FM-12","ENKA ","V020","220,1,N,0010,1","00015,1,9,N","000000,1,N,1","-0022,1","-0033,1","10108,1",,,,"4,1,06,1","2,1,06,1","09,1,+99999,9,99,9","09,99,1,09,1,99,9,99999,9,99,9,99,9",,,"99999,9,09730,1","7,1,005,1,+999,9","46,1","SYN066AAXX  23001 01047 41/00 92201 11022 21033 39730 40108 57005 74642;",
"01047099999","2010-09-23T06:00:00","4","69.0166667","23.0666667","307.0","KAUTOKEINO II, NO","FM-12","ENKA ","V020","999,9,C,0000,1","00015,1,9,N","000000,1,N,1","-0003,1","-0012,1","10088,1","24,0000,9,1",,,"4,1,06,1","2,1,06,1","09,1,+99999,9,99,9","09,99,1,09,1,99,9,99999,9,99,9,99,9",,"999,N,-0026,1","99999,9,09712,1","8,1,010,1,+999,9","45,1","SYN082AAXX  23061 01047 31/00 90000 11003 21012 39712 40088 58010 74542 333 21026 70000;","Q01  00002PRCP24"
"01047099999","2010-09-23T09:00:00","4","69.0166667","23.0666667","307.0","KAUTOKEINO II, NO","FM-12","ENKA ","V020","999,9,C,0000,1","00015,1,9,N","000000,1,N,1","+0012,1","-0001,1","10077,1",,,,"4,1,03,1","4,1,03,1","09,1,+99999,9,99,9","09,99,1,09,1,99,9,99999,9,99,9,99,9",,,"99999,9,09702,1","6,1,010,1,+999,9","45,1","SYN066AAXX  23091 01047 41/00 90000 10012 21001 39702 40077 56010 74544;",
"01047099999","2010-09-23T12:00:00","4","69.0166667","23.0666667","307.0","KAUTOKEINO II, NO","FM-12","ENKA ","V020","999,9,C,0000,1","00210,1,9,N","007000,1,N,1","+0031,1","+0018,1","10061,1",,,,"4,1,06,1","2,1,06,1",,"08,99,1,08,1,06,1,00250,1,99,9,99,9",,,"99999,9,09688,1","7,1,013,1,+999,9","10,1","SYN072AAXX  23121 01047 41357 80000 10031 20018 39688 40061 57013 71042 886//;",
"01047099999","2010-09-23T15:00:00","4","69.0166667","23.0666667","307.0","KAUTOKEINO II, NO","FM-12","ENKA ","V020","360,1,N,0030,1","00750,1,9,N","040000,1,N,1","+0044,1","+0031,1","10048,1",,,,"2,1,03,1","2,1,03,1",,"08,99,1,08,1,05,1,00800,1,99,9,99,9",,,"99999,9,09677,1","6,1,011,1,+999,9","02,1","SYN072AAXX  23151 01047 41582 83603 10044 20031 39677 40048 56011 70222 885//;",
"01047099999","2010-09-23T18:00:00","4","69.0166667","23.0666667","307.0","KAUTOKEINO II, NO","FM-12","ENKA ","V020","999,9,C,0000,1","00750,1,9,N","030000,1,N,1","+0047,1","+0032,1","10041,1","12,0000,9,1",,,"6,1,06,1","4,1,06,1",,"08,99,1,08,1,05,1,00800,1,99,9,99,9",,"999,M,+0047,1","99999,9,09671,1","6,1,007,1,+999,9","02,1","SYN088AAXX  23181 01047 11580 80000 10047 20032 39671 40041 56007 69912 70264 885// 333 10047;","Q01  00002PRCP12"
"01047099999","2010-09-24T00:00:00","4","69.0166667","23.0666667","307.0","KAUTOKEINO II, NO","FM-12","ENKA ","V020","360,1,N,0030,1","00750,1,9,N","070000,1,N,1","+0032,1","+0017,1","10042,1",,,,"2,1,06,1","2,1,06,1",,"08,99,1,08,1,05,1,00800,1,99,9,99,9",,,"99999,9,09670,1","4,1,000,1,+999,9","02,1","SYN072AAXX  24001 01047 41588 83603 10032 20017 39670 40042 54000 70222 885//;",
"01047099999","2010-09-24T06:00:00","4","69.0166667","23.0666667","307.0","KAUTOKEINO II, NO","FM-12","ENKA ","V020","999,9,C,0000,1","22000,1,9,N","070000,1,N,1","+0008,1","-0005,1","10051,1","24,0000,9,1",,,"2,1,06,1","0,1,06,1",,"02,99,1,02,1,00,1,02250,1,04,1,00,1",,"999,N,+0003,1","99999,9,09676,1","3,1,002,1,+999,9","02,1","SYN088AAXX  24061 01047 31888 20000 10008 21005 39676 40051 53002 70220 82040 333 20003 70001;","Q01  00002PRCP24"
"01047099999","2010-09-24T09:00:00","4","69.0166667","23.0666667","307.0","KAUTOKEINO II, NO","FM-12","ENKA ","V020","340,1,N,0070,1","01200,1,9,N","070000,1,N,1","+0062,1","-0007,1","10052,1",,,,"2,1,03,1","0,1,03,1",,"06,99,1,06,1,05,1,01250,1,00,1,00,1",,,"99999,9,09683,1","3,1,007,1,+999,9","03,1","SYN072AAXX  24091 01047 41688 63407 10062 21007 39683 40052 53007 70320 86500;",
"01047099999","2010-09-24T12:00:00","4","69.0166667","23.0666667","307.0","KAUTOKEINO II, NO","FM-12","ENKA ","V020","340,1,N,0070,1","01200,1,9,N","070000,1,N,1","+0079,1","-0016,1","10052,1",,,,"2,1,06,1","2,1,06,1",,"05,99,1,05,1,05,1,01250,1,00,1,00,1",,,"99999,9,09686,1","1,1,003,1,+999,9","02,1","SYN072AAXX  24121 01047 41688 53407 10079 21016 39686 40052 51003 70222 85500;",
"01047099999","2010-09-24T15:00:00","4","69.0166667","23.0666667","307.0","KAUTOKEINO II, NO","FM-12","ENKA ","V020","320,1,N,0070,1","22000,1,9,N","070000,1,N,1","+0068,1","-0023,1","10059,1",,,,"1,1,03,1","1,1,03,1",,"04,99,1,04,1,05,1,01250,1,00,1,00,1",,,"99999,9,09691,1","2,1,005,1,+999,9","02,1","SYN072AAXX  24151 01047 41688 43207 10068 21023 39691 40059 52005 70211 84500;",
"01047099999","2010-09-24T18:00:00","4","69.0166667","23.0666667","307.0","KAUTOKEINO II, NO","FM-12","ENKA ","V020","320,1,N,0030,1","01200,1,9,N","070000,1,N,1","+0030,1","-0004,1","10070,1",,,,"1,1,06,1","1,1,06,1",,"06,99,1,06,1,05,1,01250,1,00,1,00,1",,"999,M,+0085,1","99999,9,09697,1","2,1,006,1,+999,9","02,1","SYN082AAXX  24181 01047 31688 63203 10030 21004 39697 40070 52006 70211 86500 333 10085;",
"01047099999","2010-09-25T00:00:00","4","69.0166667","23.0666667","307.0","KAUTOKEINO II, NO","FM-12","ENKA ","V020","320,1,N,0050,1","01500,1,9,N","070000,1,N,1","+0028,1","-0006,1","10083,1",,,,"1,1,06,1","1,1,06,1",,"05,99,1,05,1,00,1,01750,1,07,1,00,1",,,"99999,9,09709,1","2,1,006,1,+999,9","02,1","SYN072AAXX  25001 01047 41788 53205 10028 21006 39709 40083 52006 70211 85070;",
"01047099999","2010-09-25T06:00:00","4","69.0166667","23.0666667","307.0","KAUTOKEINO II, NO","FM-12","ENKA ","V020","999,9,C,0000,1","22000,1,9,N","070000,1,N,1","+0029,1","+0000,1","10092,1","24,0000,9,1",,,"1,1,06,1","0,1,06,1",,"02,99,1,00,1,00,1,99999,9,00,1,08,1",,"999,N,-0001,1","99999,9,09718,1","1,1,003,1,+999,9","02,1","SYN088AAXX  25061 01047 31988 20000 10029 21000 39718 40092 51003 70210 80008 333 21001 70000;","Q01  00002PRCP24"
"01047099999","2010-09-25T09:00:00","4","69.0166667","23.0666667","307.0","KAUTOKEINO II, NO","FM-12","ENKA ","V020","360,1,N,0050,1","22000,1,9,N","070000,1,N,1","+0062,1","-0012,1","10095,1",,,,"2,1,03,1","0,1,03,1",,"04,99,1,04,1,04,1,01250,1,00,1,00,1",,,"99999,9,09725,1","3,1,007,1,+999,9","03,1","SYN072AAXX  25091 01047 41688 43605 10062 21012 39725 40095 53007 70320 84400;",
"01047099999","2010-09-25T12:00:00","4","69.0166667","23.0666667","307.0","KAUTOKEINO II, NO","FM-12","ENKA ","V020","320,1,N,0070,1","01200,1,9,N","070000,1,N,1","+0068,1","-0021,1","10103,1",,,,"2,1,06,1","2,1,06,1",,"06,99,1,06,1,05,1,01250,1,00,1,00,1",,,"99999,9,09733,1","2,1,009,1,+999,9","02,1","SYN072AAXX  25121 01047 41688 63207 10068 21021 39733 40103 52009 70222 86500;",
"01047099999","2010-09-25T15:00:00","4","69.0166667","23.0666667","307.0","KAUTOKEINO II, NO","FM-12","ENKA ","V020","320,1,N,0050,1","03000,1,9,N","070000,1,N,1","+0071,1","-0015,1","10109,1",,,,"2,1,03,1","1,1,03,1",,"05,99,1,03,1,04,1,01250,1,04,1,00,1",,,"99999,9,09739,1","3,1,006,1,+999,9","02,1","SYN072AAXX  25151 01047 41688 53205 10071 21015 39739 40109 53006 70221 83440;",
"01047099999","2010-09-25T18:00:00","4","69.0166667","23.0666667","307.0","KAUTOKEINO II, NO","FM-12","ENKA ","V020","320,1,N,0050,1","01500,1,9,N","070000,1,N,1","+0038,1","-0011,1","10128,1",,,,"1,1,06,1","1,1,06,1",,"05,99,1,05,1,00,1,01750,1,07,1,00,1",,"999,M,+0078,1","99999,9,09753,1","2,1,014,1,+999,9","02,1","SYN082AAXX  25181 01047 31788 53205 10038 21011 39753 40128 52014 70211 85070 333 10078;",
"01047099999","2010-09-26T00:00:00","4","69.0166667","23.0666667","307.0","KAUTOKEINO II, NO","FM-12","ENKA ","V020","320,1,N,0050,1","22000,1,9,N","070000,1,N,1","+0024,1","-0010,1","10151,1",,,,"1,1,06,1","1,1,06,1",,"03,99,1,03,1,00,1,02250,1,04,1,00,1",,,"99999,9,09774,1","2,1,008,1,+999,9","02,1","SYN072AAXX  26001 01047 41888 33205 10024 21010 39774 40151 52008 70211 83040;",
"01047099999","2010-09-26T06:00:00","4","69.0166667","23.0666667","307.0","KAUTOKEINO II, NO","FM-12","ENKA ","V020","320,1,N,0010,1","22000,1,9,N","070000,1,N,1","+0026,1","+0000,1","10177,1","24,0000,9,1",,,"1,1,06,1","1,1,06,1",,"04,99,1,01,1,02,1,01250,1,00,1,08,1",,"999,N,+0008,1","99999,9,09800,1","1,1,006,1,+999,9","02,1","SYN088AAXX  26061 01047 31688 43201 10026 20000 39800 40177 51006 70211 81208 333 20008 70000;","Q01  00002PRCP24"
"01047099999","2010-09-26T09:00:00","4","69.0166667","23.0666667","307.0","KAUTOKEINO II, NO","FM-12","ENKA ","V020","320,1,N,0050,1","01200,1,9,N","070000,1,N,1","+0061,1","-0013,1","10192,1",,,,"2,1,03,1","1,1,03,1",,"05,99,1,05,1,04,1,01250,1,00,1,00,1",,,"99999,9,09818,1","2,1,019,1,+999,9","02,1","SYN072AAXX  26091 01047 41688 53205 10061 21013 39818 40192 52019 70221 85400;",
"01047099999","2010-09-26T12:00:00","4","69.0166667","23.0666667","307.0","KAUTOKEINO II, NO","FM-12","ENKA ","V020","320,1,N,0050,1","03000,1,9,N","070000,1,N,1","+0062,1","-0014,1","10203,1",,,,"2,1,06,1","1,1,06,1",,"07,99,1,03,1,04,1,01250,1,04,1,00,1",,,"99999,9,09829,1","2,1,014,1,+999,9","02,1","SYN072AAXX  26121 01047 41688 73205 10062 21014 39829 40203 52014 70221 83440;",
"01047099999","2010-09-26T15:00:00","4","69.0166667","23.0666667","307.0","KAUTOKEINO II, NO","FM-12","ENKA ","V020","320,1,N,0050,1","01500,1,9,N","070000,1,N,1","+0054,1","-0006,1","10214,1",,,,"2,1,03,1","2,1,03,1",,"07,99,1,07,1,00,1,01750,1,04,1,00,1",,,"99999,9,09839,1","2,1,006,1,+999,9","02,1","SYN072AAXX  26151 01047 41788 73205 10054 21006 39839 40214 52006 70222 87040;",
"01047099999","2010-09-26T18:00:00","4","69.0166667","23.0666667","307.0","KAUTOKEINO II, NO","FM-12","ENKA ","V020","320,1,N,0050,1","01500,1,9,N","070000,1,N,1","+0018,1","+0002,1","10220,1",,,,"2,1,06,1","2,1,06,1",,"05,99,1,05,1,00,1,01750,1,07,1,00,1",,"999,M,+0075,1","99999,9,09840,1","4,1,000,1,+999,9","02,1","SYN082AAXX  26181 01047 31788 53205 10018 20002 39840 40220 54000 70222 85070 333 10075;",
"01047099999","2010-09-27T00:00:00","4","69.0166667","23.0666667","307.0","KAUTOKEINO II, NO","FM-12","ENKA ","V020","050,1,N,0030,1","00750,1,9,N","070000,1,N,1","+0007,1","-0007,1","10235,1",,,,"2,1,06,1","2,1,06,1",,"08,99,1,08,1,05,1,00800,1,99,9,99,9",,,"99999,9,09853,1","1,1,005,1,+999,9","02,1","SYN072AAXX  27001 01047 41588 80503 10007 21007 39853 40235 51005 70222 885//;",
"01047099999","2010-09-27T06:00:00","4","69.0166667","23.0666667","307.0","KAUTOKEINO II, NO","FM-12","ENKA ","V020","050,1,N,0010,1","00750,1,9,N","070000,1,N,1","-0002,1","-0009,1","10236,1","24,0000,9,1",,,"2,1,06,1","2,1,06,1",,"07,99,1,06,1,05,1,00800,1,02,1,00,1",,"999,N,-0026,1","99999,9,09854,1","4,1,000,1,+999,9","02,1","SYN088AAXX  27061 01047 31588 70501 11002 21009 39854 40236 54000 70222 86520 333 21026 70000;","Q01  00002PRCP24"
"01047099999","2010-09-27T09:00:00","4","69.0166667","23.0666667","307.0","KAUTOKEINO II, NO","FM-12","ENKA ","V020","050,1,N,0010,1","00750,1,9,N","020000,1,N,1","+0051,1","+0007,1","10231,1",,,,"6,1,03,1","2,1,03,1",,"08,99,1,05,1,05,1,00800,1,02,1,99,9",,,"99999,9,09854,1","4,1,000,1,+999,9","60,1","SYN072AAXX  27091 01047 41570 80501 10051 20007 39854 40231 54000 76062 8552/;",
"01047099999","2010-09-27T12:00:00","4","69.0166667","23.0666667","307.0","KAUTOKEINO II, NO","FM-12","ENKA ","V020","050,1,N,0010,1","01200,1,9,N","070000,1,N,1","+0070,1","+0011,1","10219,1",,,,"6,1,06,1","2,1,06,1",,"08,99,1,08,1,00,1,01250,1,02,1,99,9",,,"99999,9,09846,1","7,1,009,1,+999,9","02,1","SYN072AAXX  27121 01047 41688 80501 10070 20011 39846 40219 57009 70262 8802/;",
"01047099999","2010-09-27T15:00:00","4","69.0166667","23.0666667","307.0","KAUTOKEINO II, NO","FM-12","ENKA ","V020","360,1,N,0030,1","01500,1,9,N","070000,1,N,1","+0082,1","+0012,1","10212,1",,,,"2,1,03,1","2,1,03,1",,"08,99,1,08,1,00,1,01750,1,07,1,99,9",,,"99999,9,09841,1","7,1,005,1,+999,9","02,1","SYN072AAXX  27151 01047 41788 83603 10082 20012 39841 40212 57005 70222 8807/;",
"01047099999","2010-09-27T18:00:00","4","69.0166667","23.0666667","307.0","KAUTOKEINO II, NO","FM-12","ENKA ","V020","360,1,N,0030,1","01200,1,9,N","070000,1,N,1","+0060,1","+0017,1","10218,1","12,0000,2,1",,,"2,1,06,1","2,1,06,1",,"06,99,1,06,1,05,1,01250,1,00,1,00,1",,"999,M,+0085,1","99999,9,09843,1","3,1,003,1,+999,9","02,1","SYN088AAXX  27181 01047 11688 63603 10060 20017 39843 40218 53003 69922 70222 86500 333 10085;",
"01047099999","2010-09-28T00:00:00","4","69.0166667","23.0666667","307.0","KAUTOKEINO II, NO","FM-12","ENKA ","V020","050,1,N,0030,1","01200,1,9,N","070000,1,N,1","+0015,1","-0004,1","10228,1",,,,"2,1,06,1","2,1,06,1",,"08,99,1,08,1,05,1,01250,1,99,9,99,9",,,"99999,9,09847,1","4,1,000,1,+999,9","02,1","SYN072AAXX  28001 01047 41688 80503 10015 21004 39847 40228 54000 70222 885//;",
"01047099999","2010-09-28T06:00:00","4","69.0166667","23.0666667","307.0","KAUTOKEINO II, NO","FM-12","ENKA ","V020","050,1,N,0010,1","03000,1,9,N","070000,1,N,1","+0044,1","+0031,1","10222,1","24,0003,9,1",,,"2,1,06,1","2,1,06,1",,"07,99,1,02,1,04,1,01250,1,07,1,00,1",,"999,N,+0015,1","99999,9,09845,1","4,1,000,1,+999,9","02,1","SYN088AAXX  28061 01047 31688 70501 10044 20031 39845 40222 54000 70222 82470 333 20015 70002;",
"01047099999","2010-09-28T09:00:00","4","69.0166667","23.0666667","307.0","KAUTOKEINO II, NO","FM-12","ENKA ","V020","050,1,N,0010,1","00750,1,9,N","070000,1,N,1","+0079,1","+0034,1","10217,1",,,,"2,1,03,1","2,1,03,1",,"08,99,1,06,1,05,1,00800,1,02,1,99,9",,,"99999,9,09845,1","4,1,000,1,+999,9","02,1","SYN072AAXX  28091 01047 41588 80501 10079 20034 39845 40217 54000 70222 8652/;",
"01047099999","2010-09-28T12:00:00","4","69.0166667","23.0666667","307.0","KAUTOKEINO II, NO","FM-12","ENKA ","V020","340,1,N,0070,1","00750,1,9,N","070000,1,N,1","+0090,1","+0028,1","10216,1",,,,"2,1,06,1","2,1,06,1",,"08,99,1,06,1,07,1,00800,1,02,1,99,9",,,"99999,9,09845,1","4,1,000,1,+999,9","02,1","SYN072AAXX  28121 01047 41588 83407 10090 20028 39845 40216 54000 70222 8672/;",
"01047099999","2010-09-28T15:00:00","4","69.0166667","23.0666667","307.0","KAUTOKEINO II, NO","FM-12","ENKA ","V020","340,1,N,0050,1","00750,1,9,N","020000,1,N,1","+0056,1","+0035,1","10226,1",,,,"6,1,03,1","2,1,03,1",,"08,99,1,06,1,07,1,00800,1,02,1,99,9",,,"99999,9,09851,1","3,1,005,1,+999,9","61,1","SYN072AAXX  28151 01047 41570 83405 10056 20035 39851 40226 53005 76162 8672/;",
"01047099999","2010-09-28T18:00:00","4","69.0166667","23.0666667","307.0","KAUTOKEINO II, NO","FM-12","ENKA ","V020","340,1,N,0030,1","00750,1,9,N","070000,1,N,1","+0051,1","+0034,1","10222,1","12,0030,9,1",,,"6,1,06,1","2,1,06,1",,"08,99,1,06,1,07,1,00800,1,02,1,99,9",,"999,M,+0090,1","99999,9,09846,1","8,1,005,1,+999,9","02,1","SYN088AAXX  28181 01047 11588 83403 10051 20034 39846 40222 58005 60032 70262 8672/ 333 10090;",
"01047099999","2010-09-29T00:00:00","4","69.0166667","23.0666667","307.0","KAUTOKEINO II, NO","FM-12","ENKA ","V020","320,1,N,0050,1","00750,1,9,N","070000,1,N,1","+0060,1","+0017,1","10211,1",,,,"6,1,06,1","2,1,06,1",,"08,99,1,08,1,05,1,00800,1,99,9,99,9",,,"99999,9,09837,1","7,1,005,1,+999,9","02,1","SYN072AAXX  29001 01047 41588 83205 10060 20017 39837 40211 57005 70262 885//;",
"01047099999","2010-09-29T06:00:00","4","69.0166667","23.0666667","307.0","KAUTOKEINO II, NO","FM-12","ENKA ","V020","999,9,C,0000,1","00750,1,9,N","070000,1,N,1","+0027,1","+0012,1","10214,1","12,0000,9,1","24,0025,9,1",,"6,1,06,1","2,1,06,1",,"07,99,1,06,1,05,1,00800,1,02,1,00,1",,"999,N,+0024,1","99999,9,09835,1","6,1,002,1,+999,9","02,1","SYN094AAXX  29061 01047 11588 70000 10027 20012 39835 40214 56002 69912 70262 86520 333 20024 70026;","Q01  00002PRCP12"
"01047099999","2010-09-29T09:00:00","4","69.0166667","23.0666667","307.0","KAUTOKEINO II, NO","FM-12","ENKA ","V020","140,1,N,0030,1","01500,1,9,N","070000,1,N,1","+0052,1","+0027,1","10212,1",,,,"2,1,03,1","2,1,03,1",,"08,99,1,08,1,00,1,01750,1,07,1,99,9",,,"99999,9,09836,1","2,1,002,1,+999,9","02,1","SYN072AAXX  29091 01047 41788 81403 10052 20027 39836 40212 52002 70222 8807/;",
"01047099999","2010-09-29T12:00:00","4","69.0166667","23.0666667","307.0","KAUTOKEINO II, NO","FM-12","ENKA ","V020","090,1,N,0030,1","01500,1,9,N","070000,1,N,1","+0090,1","+0014,1","10201,1",,,,"2,1,06,1","2,1,06,1",,"06,99,1,06,1,00,1,01750,1,07,1,00,1",,,"99999,9,09831,1","8,1,006,1,+999,9","02,1","SYN072AAXX  29121 01047 41788 60903 10090 20014 39831 40201 58006 70222 86070;",
"01047099999","2010-09-29T15:00:00","4","69.0166667","23.0666667","307.0","KAUTOKEINO II, NO","FM-12","ENKA ","V020","140,1,N,0030,1","01500,1,9,N","070000,1,N,1","+0073,1","+0012,1","10204,1",,,,"2,1,03,1","2,1,03,1",,"05,99,1,05,1,00,1,01750,1,07,1,00,1",,,"99999,9,09831,1","4,1,000,1,+999,9","02,1","SYN072AAXX  29151 01047 41788 51403 10073 20012 39831 40204 54000 70222 85070;",
"01047099999","2010-09-29T18:00:00","4","69.0166667","23.0666667","307.0","KAUTOKEINO II, NO","FM-12","ENKA ","V020","090,1,N,0010,1","22000,1,9,N","070000,1,N,1","+0018,1","+0003,1","10213,1",,,,"2,1,06,1","2,1,06,1",,"03,99,1,03,1,00,1,01750,1,07,1,00,1",,"999,M,+0102,1","99999,9,09833,1","4,1,000,1,+999,9","01,1","SYN082AAXX  29181 01047 31788 30901 10018 20003 39833 40213 54000 70122 83070 333 10102;",
"01047099999","2010-09-30T00:00:00","4","69.0166667","23.0666667","307.0","KAUTOKEINO II, NO","FM-12","ENKA ","V020","180,1,N,0050,1","01500,1,9,N","070000,1,N,1","-0024,1","-0035,1","10224,1",,,,"1,1,06,1","1,1,06,1",,"05,99,1,05,1,00,1,01750,1,07,1,00,1",,,"99999,9,09841,1","2,1,005,1,+999,9","02,1","SYN072AAXX  30001 01047 41788 51805 11024 21035 39841 40224 52005 70211 85070;",
"01047099999","2010-09-30T06:00:00","4","69.0166667","23.0666667","307.0","KAUTOKEINO II, NO","FM-12","ENKA ","V020","999,9,C,0000,1","01500,1,9,N","070000,1,N,1","-0033,1","-0042,1","10223,1","24,0000,9,1",,,"2,1,06,1","2,1,06,1",,"07,99,1,07,1,00,1,01750,1,07,1,00,1",,"999,N,-0037,1","99999,9,09840,1","4,1,000,1,+999,9","02,1","SYN088AAXX  30061 01047 31788 70000 11033 21042 39840 40223 54000 70222 87070 333 21037 70000;","Q01  00002PRCP24"
"01047099999","2010-09-30T09:00:00","4","69.0166667","23.0666667","307.0","KAUTOKEINO II, NO","FM-12","ENKA ","V020","180,1,N,0030,1","01500,1,9,N","070000,1,N,1","+0041,1","+0011,1","10222,1",,,,"2,1,03,1","2,1,03,1",,"07,99,1,07,1,00,1,01750,1,07,1,00,1",,,"99999,9,09845,1","2,1,004,1,+999,9","02,1","SYN072AAXX  30091 01047 41788 71803 10041 20011 39845 40222 52004 70222 87070;",
"01047099999","2010-09-30T12:00:00","4","69.0166667","23.0666667","307.0","KAUTOKEINO II, NO","FM-12","ENKA ","V020","180,1,N,0010,1","01500,1,9,N","070000,1,N,1","+0070,1","+0017,1","10215,1",,,,"2,1,06,1","2,1,06,1",,"07,99,1,07,1,00,1,01750,1,07,1,00,1",,,"99999,9,09841,1","4,1,000,1,+999,9","02,1","SYN072AAXX  30121 01047 41788 71801 10070 20017 39841 40215 54000 70222 87070;",
"01047099999","2010-09-30T15:00:00","4","69.0166667","23.0666667","307.0","KAUTOKEINO II, NO","FM-12","ENKA ","V020","340,1,N,0030,1","03000,1,9,N","070000,1,N,1","+0079,1","+0017,1","10221,1",,,,"2,1,03,1","2,1,03,1",,"05,99,1,02,1,05,1,01250,1,07,1,00,1",,,"99999,9,09848,1","2,1,007,1,+999,9","02,1","SYN072AAXX  30151 01047 41688 53403 10079 20017 39848 40221 52007 70222 82570;",
"01047099999","2010-09-30T18:00:00","4","69.0166667","23.0666667","307.0","KAUTOKEINO II, NO","FM-12","ENKA ","V020","340,1,N,0030,1","01200,1,9,N","070000,1,N,1","+0034,1","+0018,1","10231,1",,,,"2,1,06,1","2,1,06,1",,"05,99,1,05,1,05,1,01250,1,00,1,00,1",,"999,M,+0095,1","99999,9,09853,1","1,1,004,1,+999,9","02,1","SYN082AAXX  30181 01047 31688 53403 10034 20018 39853 40231 51004 70222 85500 333 10095;",
"01047099999","2010-10-01T00:00:00","4","69.0166667","23.0666667","307.0","KAUTOKEINO II, NO","FM-12","ENKA ","V020","340,1,N,0010,1","01200,1,9,N","070000,1,N,1","+0031,1","+0018,1","10243,1",,,,"2,1,06,1","2,1,06,1",,"08,99,1,08,1,05,1,01250,1,99,9,99,9",,,"99999,9,09863,1","2,1,004,1,+999,9","02,1","SYN072AAXX  01001 01047 41688 83401 10031 20018 39863 40243 52004 70222 885//;",
"01047099999","2010-10-01T06:00:00","4","69.0166667","23.0666667","307.0","KAUTOKEINO II, NO","FM-12","ENKA ","V020","999,9,C,0000,1","01200,1,9,N","070000,1,N,1","+0030,1","+0017,1","10245,1","24,0000,9,1",,,"2,1,06,1","2,1,06,1",,"08,99,1,08,1,05,1,01250,1,99,9,99,9",,"999,N,+0030,1","99999,9,09866,1","4,1,000,1,+999,9","02,1","SYN088AAXX  01061 01047 31688 80000 10030 20017 39866 40245 54000 70222 885// 333 20030 70000;","Q01  00002PRCP24"
"01047099999","2010-10-01T09:00:00","4","69.0166667","23.0666667","307.0","KAUTOKEINO II, NO","FM-12","ENKA ","V020","999,9,C,0000,1","01200,1,9,N","070000,1,N,1","+0056,1","+0043,1","10240,1",,,,"2,1,03,1","2,1,03,1",,"07,99,1,07,1,05,1,01250,1,00,1,00,1",,,"99999,9,09864,1","6,1,001,1,+999,9","02,1","SYN072AAXX  01091 01047 41688 70000 10056 20043 39864 40240 56001 70222 87500;",
"01047099999","2010-10-01T12:00:00","4","69.0166667","23.0666667","307.0","KAUTOKEINO II, NO","FM-12","ENKA ","V020","180,1,N,0050,1","00750,1,9,N","070000,1,N,1","+0088,1","+0026,1","10230,1",,,,"2,1,06,1","2,1,06,1",,"08,99,1,08,1,09,1,00800,1,99,9,99,9",,,"99999,9,09859,1","7,1,006,1,+999,9","02,1","SYN072AAXX  01121 01047 41588 81805 10088 20026 39859 40230 57006 70222 889//;",
"01047099999","2010-10-01T15:00:00","4","69.0166667","23.0666667","307.0","KAUTOKEINO II, NO","FM-12","ENKA ","V020","180,1,N,0030,1","22000,1,9,N","070000,1,N,1","+0068,1","-0002,1","10227,1",,,,"2,1,03,1","2,1,03,1",,"04,99,1,04,1,05,1,01250,1,00,1,00,1",,,"99999,9,09853,1","7,1,006,1,+999,9","01,1","SYN072AAXX  01151 01047 41688 41803 10068 21002 39853 40227 57006 70122 84500;",
"01047099999","2010-10-01T18:00:00","4","69.0166667","23.0666667","307.0","KAUTOKEINO II, NO","FM-12","ENKA ","V020","180,1,N,0030,1","22000,1,9,N","070000,1,N,1","+0022,1","+0006,1","10232,1",,,,"0,1,06,1","0,1,06,1","00,1,+99999,9,99,9","00,99,1,00,1,00,1,99999,9,00,1,00,1",,"999,M,+0096,1","99999,9,09852,1","4,1,000,1,+999,9","02,1","SYN076AAXX  01181 01047 31988 01803 10022 20006 39852 40232 54000 70200 333 10096;",
"01047099999","2010-10-02T00:00:00","4","69.0166667","23.0666667","307.0","KAUTOKEINO II, NO","FM-12","ENKA ","V020","180,1,N,0030,1","22000,1,9,N","070000,1,N,1","-0012,1","-0023,1","10231,1",,,,"0,1,06,1","0,1,06,1","00,1,+99999,9,99,9","00,99,1,00,1,00,1,99999,9,00,1,00,1",,,"99999,9,09848,1","7,1,004,1,+999,9","02,1","SYN066AAXX  02001 01047 41988 01803 11012 21023 39848 40231 57004 70200;",
"01047099999","2010-10-02T06:00:00","4","69.0166667","23.0666667","307.0","KAUTOKEINO II, NO","FM-12","ENKA ","V020","180,1,N,0050,1","01200,1,9,N","010000,1,N,1","+0019,1","+0010,1","10216,1","12,9999,9,9","24,9999,9,9",,"5,1,06,1","2,1,06,1",,"08,99,1,08,1,00,1,01250,1,02,1,99,9",,"999,N,-0023,1","99999,9,09836,1","6,1,005,1,+999,9","50,1","SYN094AAXX  02061 01047 11660 81805 10019 20010 39836 40216 56005 69912 75052 8802/ 333 21023 70001;","Q01  00002PRCP24Q02  00002PRCP12Q03  00002PRCP12Q04  00002PRCP24"
"01047099999","2010-10-02T09:00:00","4","69.0166667","23.0666667","307.0","KAUTOKEINO II, NO","FM-12","ENKA ","V020","180,1,N,0050,1","03000,1,9,N","025000,1,N,1","+0026,1","+0011,1","10216,1",,,,"5,1,03,1","2,1,03,1",,"08,99,1,04,1,05,1,00800,1,02,1,99,9",,,"99999,9,09837,1","4,1,000,1,+999,9","02,1","SYN072AAXX  02091 01047 41575 81805 10026 20011 39837 40216 54000 70252 8452/;",
"01047099999","2010-10-02T12:00:00","4","69.0166667","23.0666667","307.0","KAUTOKEINO II, NO","FM-12","ENKA ","V020","180,1,N,0070,1","00750,1,9,N","070000,1,N,1","+0028,1","+0005,1","10208,1",,,,"2,1,06,1","2,1,06,1",,"08,99,1,08,1,05,1,00800,1,99,9,99,9",,,"99999,9,09829,1","6,1,007,1,+999,9","02,1","SYN072AAXX  02121 01047 41588 81807 10028 20005 39829 40208 56007 70222 885//;",
"01047099999","2010-10-02T15:00:00","4","69.0166667","23.0666667","307.0","KAUTOKEINO II, NO","FM-12","ENKA ","V020","180,1,N,0070,1","00750,1,9,N","070000,1,N,1","+0030,1","+0007,1","10198,1",,,,"2,1,03,1","2,1,03,1",,"08,99,1,08,1,05,1,00800,1,99,9,99,9",,,"99999,9,09820,1","7,1,009,1,+999,9","02,1","SYN072AAXX  02151 01047 41588 81807 10030 20007 39820 40198 57009 70222 885//;",
"01047099999","2010-10-02T18:00:00","4","69.0166667","23.0666667","307.0","KAUTOKEINO II, NO","FM-12","ENKA ","V020","180,1,N,0070,1","00750,1,9,N","070000,1,N,1","+0022,1","+0000,1","10199,1",,,,"2,1,06,1","2,1,06,1",,"08,99,1,08,1,05,1,00800,1,99,9,99,9",,"999,M,+0032,1","99999,9,09820,1","4,1,000,1,+999,9","02,1","SYN082AAXX  02181 01047 31588 81807 10022 21000 39820 40199 54000 70222 885// 333 10032;",
"01047099999","2010-10-03T00:00:00","4","69.0166667","23.0666667","307.0","KAUTOKEINO II, NO","FM-12","ENKA ","V020","180,1,N,0050,1","00750,1,9,N","070000,1,N,1","+0036,1","+0001,1","10184,1",,,,"2,1,06,1","2,1,06,1",,"08,99,1,08,1,05,1,00800,1,99,9,99,9",,,"99999,9,09807,1","7,1,008,1,+999,9","02,1","SYN072AAXX  03001 01047 41588 81805 10036 20001 39807 40184 57008 70222 885//;",
"01047099999","2010-10-03T06:00:00","4","69.0166667","23.0666667","307.0","KAUTOKEINO II, NO","FM-12","ENKA ","V020","180,1,N,0010,1","00750,1,9,N","070000,1,N,1","+0035,1","+0009,1","10184,1","24,0000,2,1",,,"2,1,06,1","2,1,06,1",,"08,99,1,08,1,05,1,00800,1,99,9,99,9",,"999,N,+0022,1","99999,9,09807,1","4,1,000,1,+999,9","02,1","SYN088AAXX  03061 01047 31588 81801 10035 20009 39807 40184 54000 70222 885// 333 20022 70000;",
"01047099999","2010-10-03T09:00:00","4","69.0166667","23.0666667","307.0","KAUTOKEINO II, NO","FM-12","ENKA ","V020","180,1,N,0030,1","01200,1,9,N","070000,1,N,1","+0035,1","+0009,1","10188,1",,,,"2,1,03,1","2,1,03,1",,"08,99,1,08,1,00,1,01250,1,02,1,99,9",,,"99999,9,09811,1","3,1,003,1,+999,9","02,1","SYN072AAXX  03091 01047 41688 81803 10035 20009 39811 40188 53003 70222 8802/;",
"01047099999","2010-10-03T12:00:00","4","69.0166667","23.0666667","307.0","KAUTOKEINO II, NO","FM-12","ENKA ","V020","180,1,N,0070,1","01200,1,9,N","070000,1,N,1","+0048,1","+0006,1","10179,1",,,,"2,1,06,1","2,1,06,1",,"08,99,1,08,1,05,1,01250,1,99,9,99,9",,,"99999,9,09804,1","8,1,006,1,+999,9","02,1","SYN072AAXX  03121 01047 41688 81807 10048 20006 39804 40179 58006 70222 885//;",
"01047099999","2010-10-03T15:00:00","4","69.0166667","23.0666667","307.0","KAUTOKEINO II, NO","FM-12","ENKA ","V020","180,1,N,0070,1","03000,1,9,N","070000,1,N,1","+0058,1","-0005,1","10163,1",,,,"2,1,03,1","2,1,03,1",,"05,99,1,02,1,04,1,01250,1,04,1,00,1",,,"99999,9,09790,1","8,1,014,1,+999,9","01,1","SYN072AAXX  03151 01047 41688 51807 10058 21005 39790 40163 58014 70122 82440;",
"01047099999","2010-10-03T18:00:00","4","69.0166667","23.0666667","307.0","KAUTOKEINO II, NO","FM-12","ENKA ","V020","180,1,N,0070,1","01200,1,9,N","070000,1,N,1","+0060,1","+0004,1","10153,1",,,,"2,1,06,1","2,1,06,1",,"08,99,1,08,1,05,1,01250,1,99,9,99,9",,"999,M,+0074,1","99999,9,09781,1","6,1,010,1,+999,9","02,1","SYN082AAXX  03181 01047 31688 81807 10060 20004 39781 40153 56010 70222 885// 333 10074;",
"01047099999","2010-10-04T00:00:00","4","69.0166667","23.0666667","307.0","KAUTOKEINO II, NO","FM-12","ENKA ","V020","180,1,N,0070,1","01200,1,9,N","070000,1,N,1","+0060,1","+0023,1","10129,1",,,,"2,1,06,1","2,1,06,1",,"08,99,1,08,1,05,1,01250,1,99,9,99,9",,,"99999,9,09757,1","7,1,008,1,+999,9","02,1","SYN072AAXX  04001 01047 41688 81807 10060 20023 39757 40129 57008 70222 885//;",
"01047099999","2010-10-04T06:00:00","4","69.0166667","23.0666667","307.0","KAUTOKEINO II, NO","FM-12","ENKA ","V020","180,1,N,0050,1","00750,1,9,N","070000,1,N,1","+0077,1","+0030,1","10095,1","24,0000,9,1",,,"2,1,06,1","2,1,06,1",,"08,99,1,06,1,05,1,00800,1,02,1,99,9",,"999,N,+0051,1","99999,9,09727,1","7,1,010,1,+999,9","02,1","SYN088AAXX  04061 01047 31588 81805 10077 20030 39727 40095 57010 70222 8652/ 333 20051 70000;","Q01  00002PRCP24"
"01047099999","2010-10-04T09:00:00","4","69.0166667","23.0666667","307.0","KAUTOKEINO II, NO","FM-12","ENKA ","V020","180,1,N,0070,1","00750,1,9,N","070000,1,N,1","+0082,1","+0035,1","10084,1",,,,"2,1,03,1","2,1,03,1",,"08,99,1,07,1,05,1,00800,1,02,1,99,9",,,"99999,9,09717,1","6,1,010,1,+999,9","02,1","SYN072AAXX  04091 01047 41588 81807 10082 20035 39717 40084 56010 70222 8752/;",
"01047099999","2010-10-04T12:00:00","4","69.0166667","23.0666667","307.0","KAUTOKEINO II, NO","FM-12","ENKA ","V020","180,1,N,0100,1","00750,1,9,N","070000,1,N,1","+0094,1","+0040,1","10074,1",,,,"2,1,06,1","2,1,06,1",,"08,99,1,08,1,05,1,00800,1,99,9,99,9",,,"99999,9,09708,1","7,1,008,1,+999,9","02,1","SYN072AAXX  04121 01047 41588 81810 10094 20040 39708 40074 57008 70222 885//;",
"01047099999","2010-10-04T15:00:00","4","69.0166667","23.0666667","307.0","KAUTOKEINO II, NO","FM-12","ENKA ","V020","180,1,N,0100,1","00750,1,9,N","070000,1,N,1","+0096,1","+0034,1","10072,1",,,,"2,1,03,1","2,1,03,1",,"08,99,1,08,1,05,1,00800,1,99,9,99,9",,,"99999,9,09707,1","6,1,002,1,+999,9","02,1","SYN072AAXX  04151 01047 41588 81810 10096 20034 39707 40072 56002 70222 885//;",
"01047099999","2010-10-04T18:00:00","4","69.0166667","23.0666667","307.0","KAUTOKEINO II, NO","FM-12","ENKA ","V020","180,1,N,0100,1","00750,1,9,N","070000,1,N,1","+0088,1","+0026,1","10075,1",,,,"2,1,06,1","2,1,06,1",,"08,99,1,08,1,05,1,00800,1,99,9,99,9",,"999,M,+0098,1","99999,9,09709,1","4,1,000,1,+999,9","02,1","SYN082AAXX  04181 01047 31588 81810 10088 20026 39709 40075 54000 70222 885// 333 10098;",
"01047099999","2010-10-05T00:00:00","4","69.0166667","23.0666667","307.0","KAUTOKEINO II, NO","FM-12","ENKA ","V020","180,1,N,0100,1","00750,1,9,N","070000,1,N,1","+0084,1","+0031,1","10081,1",,,,"2,1,06,1","2,1,06,1",,"08,99,1,08,1,05,1,00800,1,99,9,99,9",,,"99999,9,09715,1","1,1,005,1,+999,9","02,1","SYN072AAXX  05001 01047 41588 81810 10084 20031 39715 40081 51005 70222 885//;",
"01047099999","2010-10-05T06:00:00","4","69.0166667","23.0666667","307.0","KAUTOKEINO II, NO","FM-12","ENKA ","V020","180,1,N,0050,1","00750,1,9,N","070000,1,N,1","+0080,1","+0042,1","10089,1","24,0000,9,1",,,"2,1,06,1","2,1,06,1",,"08,99,1,08,1,05,1,00800,1,99,9,99,9",,"999,N,+0080,1","99999,9,09721,1","0,1,001,1,+999,9","02,1","SYN088AAXX  05061 01047 31588 81805 10080 20042 39721 40089 50001 70222 885// 333 20080 70000;","Q01  00002PRCP24"
"01047099999","2010-10-05T09:00:00","4","69.0166667","23.0666667","307.0","KAUTOKEINO II, NO","FM-12","ENKA ","V020","180,1,N,0070,1","00750,1,9,N","005000,1,N,1","+0086,1","+0061,1","10094,1",,,,"5,1,03,1","2,1,03,1",,"08,99,1,06,1,07,1,00800,1,02,1,99,9",,,"99999,9,09727,1","2,1,006,1,+999,9","51,1","SYN072AAXX  05091 01047 41550 81807 10086 20061 39727 40094 52006 75152 8672/;",
"01047099999","2010-10-05T12:00:00","4","69.0166667","23.0666667","307.0","KAUTOKEINO II, NO","FM-12","ENKA ","V020","180,1,N,0070,1","00750,1,9,N","065000,1,N,1","+0091,1","+0062,1","10096,1",,,,"5,1,06,1","2,1,06,1",,"08,99,1,07,1,07,1,00800,1,02,1,99,9",,,"99999,9,09729,1","1,1,002,1,+999,9","02,1","SYN072AAXX  05121 01047 41587 81807 10091 20062 39729 40096 51002 70252 8772/;",
"01047099999","2010-10-05T15:00:00","4","69.0166667","23.0666667","307.0","KAUTOKEINO II, NO","FM-12","ENKA ","V020","180,1,N,0070,1","00750,1,9,N","070000,1,N,1","+0092,1","+0056,1","10103,1",,,,"2,1,03,1","2,1,03,1",,"08,99,1,08,1,05,1,00800,1,99,9,99,9",,,"99999,9,09737,1","2,1,007,1,+999,9","02,1","SYN072AAXX  05151 01047 41588 81807 10092 20056 39737 40103 52007 70222 885//;",
"01047099999","2010-10-05T18:00:00","4","69.0166667","23.0666667","307.0","KAUTOKEINO II, NO","FM-12","ENKA ","V020","180,1,N,0070,1","00750,1,9,N","070000,1,N,1","+0094,1","+0050,1","10105,1","12,0000,2,1",,,"2,1,06,1","2,1,06,1",,"08,99,1,08,1,05,1,00800,1,99,9,99,9",,"999,M,+0094,1","99999,9,09739,1","1,1,002,1,+999,9","02,1","SYN088AAXX  05181 01047 11588 81807 10094 20050 39739 40105 51002 69912 70222 885// 333 10094;",
"01047099999","2010-10-06T00:00:00","4","69.0166667","23.0666667","307.0","KAUTOKEINO II, NO","FM-12","ENKA ","V020","180,1,N,0070,1","00750,1,9,N","070000,1,N,1","+0088,1","+0052,1","10105,1",,,,"2,1,06,1","2,1,06,1",,"08,99,1,08,1,05,1,00800,1,99,9,99,9",,,"99999,9,09738,1","4,1,000,1,+999,9","02,1","SYN072AAXX  06001 01047 41588 81807 10088 20052 39738 40105 54000 70222 885//;",
"01047099999","2010-10-06T06:00:00","4","69.0166667","23.0666667","307.0","KAUTOKEINO II, NO","FM-12","ENKA ","V020","180,1,N,0070,1","00750,1,9,N","070000,1,N,1","+0084,1","+0042,1","10107,1","24,0000,2,1",,,"2,1,06,1","2,1,06,1",,"08,99,1,08,1,05,1,00800,1,99,9,99,9",,"999,N,+0083,1","99999,9,09739,1","6,1,002,1,+999,9","02,1","SYN088AAXX  06061 01047 31588 81807 10084 20042 39739 40107 56002 70222 885// 333 20083 70001;",
"01047099999","2010-10-06T09:00:00","4","69.0166667","23.0666667","307.0","KAUTOKEINO II, NO","FM-12","ENKA ","V020","180,1,N,0100,1","01200,1,9,N","070000,1,N,1","+0078,1","+0027,1","10116,1",,,,"2,1,03,1","2,1,03,1",,"08,99,1,08,1,05,1,01250,1,99,9,99,9",,,"99999,9,09748,1","3,1,008,1,+999,9","02,1","SYN072AAXX  06091 01047 41688 81810 10078 20027 39748 40116 53008 70222 885//;",
"01047099999","2010-10-06T12:00:00","4","69.0166667","23.0666667","307.0","KAUTOKEINO II, NO","FM-12","ENKA ","V020","180,1,N,0100,1","01200,1,9,N","070000,1,N,1","+0079,1","+0034,1","10128,1",,,,"2,1,06,1","2,1,06,1",,"08,99,1,08,1,05,1,01250,1,99,9,99,9",,,"99999,9,09759,1","2,1,011,1,+999,9","02,1","SYN072AAXX  06121 01047 41688 81810 10079 20034 39759 40128 52011 70222 885//;",
"01047099999","2010-10-06T15:00:00","4","69.0166667","23.0666667","307.0","KAUTOKEINO II, NO","FM-12","ENKA ","V020","180,1,N,0070,1","01200,1,9,N","070000,1,N,1","+0076,1","+0035,1","10134,1",,,,"2,1,03,1","2,1,03,1",,"08,99,1,08,1,05,1,01250,1,99,9,99,9",,,"99999,9,09765,1","1,1,006,1,+999,9","02,1","SYN072AAXX  06151 01047 41688 81807 10076 20035 39765 40134 51006 70222 885//;",
"01047099999","2010-10-06T18:00:00","4","69.0166667","23.0666667","307.0","KAUTOKEINO II, NO","FM-12","ENKA ","V020","180,1,N,0070,1","01200,1,9,N","070000,1,N,1","+0082,1","+0044,1","10139,1",,,,"2,1,06,1","2,1,06,1",,"08,99,1,08,1,05,1,01250,1,99,9,99,9",,"999,M,+0090,1","99999,9,09770,1","2,1,005,1,+999,9","02,1","SYN082AAXX  06181 01047 31688 81807 10082 20044 39770 40139 52005 70222 885// 333 10090;",
"01047099999","2010-10-07T00:00:00","4","69.0166667","23.0666667","307.0","KAUTOKEINO II, NO","FM-12","ENKA ","V020","220,1,N,0100,1","00750,1,9,N","070000,1,N,1","+0078,1","+0063,1","10122,1",,,,"5,1,06,1","2,1,06,1",,"08,99,1,06,1,07,1,00800,1,02,1,99,9",,,"99999,9,09753,1","8,1,008,1,+999,9","02,1","SYN072AAXX  07001 01047 41588 82210 10078 20063 39753 40122 58008 70252 8672/;",
"01047099999","2010-10-07T06:00:00","4","69.0166667","23.0666667","307.0","KAUTOKEINO II, NO","FM-12","ENKA ","V020","220,1,N,0070,1","00750,1,9,N","070000,1,N,1","+0071,1","+0034,1","10101,1","12,0000,9,1","24,0000,9,1",,"5,1,06,1","2,1,06,1",,"08,99,1,05,1,05,1,00800,1,02,1,99,9",,"999,N,+0068,1","99999,9,09732,1",,"02,1","SYN094AAXX  07061 01047 11588 82207 10071 20034 39732 40101 58000 69912 70252 8552/ 333 20068 70001;","Q01+000082APCTENQ02  00002PRCP24Q03  00002PRCP12"
"01047099999","2010-10-07T09:00:00","4","69.0166667","23.0666667","307.0","KAUTOKEINO II, NO","FM-12","ENKA ","V020","220,1,N,0100,1","00750,1,9,N","020000,1,N,1","+0078,1","+0051,1","10101,1",,,,"5,1,03,1","2,1,03,1",,"08,99,1,06,1,07,1,00800,1,02,1,99,9",,,"99999,9,09733,1","3,1,002,1,+999,9","51,1","SYN072AAXX  07091 01047 41570 82210 10078 20051 39733 40101 53002 75152 8672/;",
"01047099999","2010-10-07T12:00:00","4","69.0166667","23.0666667","307.0","KAUTOKEINO II, NO","FM-12","ENKA ","V020","220,1,N,0100,1","00750,1,9,N","070000,1,N,1","+0092,1","+0046,1","10097,1",,,,"5,1,06,1","2,1,06,1",,"08,99,1,08,1,05,1,00800,1,99,9,99,9",,,"99999,9,09731,1","4,1,000,1,+999,9","02,1","SYN072AAXX  07121 01047 41588 82210 10092 20046 39731 40097 54000 70252 885//;",
"01047099999","2010-10-07T15:00:00","4","69.0166667","23.0666667","307.0","KAUTOKEINO II, NO","FM-12","ENKA ","V020","220,1,N,0100,1","22000,1,9,N","070000,1,N,1","+0098,1","+0044,1","10109,1",,,,"2,1,03,1","2,1,03,1",,"04,99,1,04,1,05,1,01250,1,00,1,00,1",,,"99999,9,09743,1","2,1,012,1,+999,9","01,1","SYN072AAXX  07151 01047 41688 42210 10098 20044 39743 40109 52012 70122 84500;",
"01047099999","2010-10-07T18:00:00","4","69.0166667","23.0666667","307.0","KAUTOKEINO II, NO","FM-12","ENKA ","V020","220,1,N,0050,1","22000,1,9,N","070000,1,N,1","+0094,1","+0032,1","10138,1","12,0000,2,1",,,"0,1,06,1","0,1,06,1",,"02,99,1,02,1,04,1,01250,1,00,1,00,1",,"999,M,+0102,1","99999,9,09770,1","3,1,028,1,+999,9","02,1","SYN088AAXX  07181 01047 11688 22205 10094 20032 39770 40138 53028 69912 70200 82400 333 10102;",
"01047099999","2010-10-08T00:00:00","4","69.0166667","23.0666667","307.0","KAUTOKEINO II, NO","FM-12","ENKA ","V020","220,1,N,0070,1","22000,1,9,N","070000,1,N,1","+0070,1","+0019,1","10195,1",,,,"0,1,06,1","0,1,06,1","00,1,+99999,9,99,9","00,99,1,00,1,00,1,99999,9,00,1,00,1",,,"99999,9,09823,1","1,1,018,1,+999,9","02,1","SYN066AAXX  08001 01047 41988 02207 10070 20019 39823 40195 51018 70200;",
"01047099999","2010-10-08T06:00:00","4","69.0166667","23.0666667","307.0","KAUTOKEINO II, NO","FM-12","ENKA ","V020","999,9,C,0000,1","01200,1,9,N","070000,1,N,1","+0046,1","+0020,1","10220,1","24,0000,2,1",,,"2,1,06,1","0,1,06,1",,"07,99,1,07,1,00,1,01250,1,02,1,00,1",,"999,N,+0046,1","99999,9,09843,1","2,1,006,1,+999,9","03,1","SYN088AAXX  08061 01047 31688 70000 10046 20020 39843 40220 52006 70320 87020 333 20046 70001;",
"01047099999","2010-10-08T09:00:00","4","69.0166667","23.0666667","307.0","KAUTOKEINO II, NO","FM-12","ENKA ","V020","180,1,N,0050,1","01500,1,9,N","070000,1,N,1","+0112,1","+0033,1","10215,1",,,,"2,1,03,1","1,1,03,1",,"06,99,1,06,1,00,1,01750,1,07,1,00,1",,,"99999,9,09847,1","3,1,003,1,+999,9","02,1","SYN072AAXX  08091 01047 41788 61805 10112 20033 39847 40215 53003 70221 86070;",
"01047099999","2010-10-08T12:00:00","4","69.0166667","23.0666667","307.0","KAUTOKEINO II, NO","FM-12","ENKA ","V020","180,1,N,0070,1","03000,1,9,N","070000,1,N,1","+0130,1","+0031,1","10208,1",,,,"2,1,06,1","2,1,06,1",,"07,99,1,03,1,05,1,01250,1,07,1,00,1",,,"99999,9,09843,1","7,1,004,1,+999,9","02,1","SYN072AAXX  08121 01047 41688 71807 10130 20031 39843 40208 57004 70222 83570;",
"01047099999","2010-10-08T15:00:00","4","69.0166667","23.0666667","307.0","KAUTOKEINO II, NO","FM-12","ENKA ","V020","180,1,N,0070,1","01500,1,9,N","070000,1,N,1","+0112,1","+0017,1","10194,1",,,,"2,1,03,1","2,1,03,1",,"06,99,1,06,1,00,1,01750,1,07,1,00,1",,,"99999,9,09827,1","7,1,015,1,+999,9","02,1","SYN072AAXX  08151 01047 41788 61807 10112 20017 39827 40194 57015 70222 86070;",
"01047099999","2010-10-08T18:00:00","4","69.0166667","23.0666667","307.0","KAUTOKEINO II, NO","FM-12","ENKA ","V020","180,1,N,0050,1","22000,1,9,N","070000,1,N,1","+0092,1","+0021,1","10195,1",,,,"1,1,06,1","1,1,06,1",,"04,99,1,04,1,00,1,01750,1,07,1,00,1",,"999,M,+0132,1","99999,9,09825,1","6,1,003,1,+999,9","02,1","SYN082AAXX  08181 01047 31788 41805 10092 20021 39825 40195 56003 70211 84070 333 10132;",
"01047099999","2010-10-09T00:00:00","4","69.0166667","23.0666667","307.0","KAUTOKEINO II, NO","FM-12","ENKA ","V020","180,1,N,0050,1","22000,1,9,N","070000,1,N,1","+0058,1","+0023,1","10202,1",,,,"1,1,06,1","1,1,06,1",,"02,99,1,02,1,00,1,01750,1,07,1,00,1",,,"99999,9,09827,1","4,1,000,1,+999,9","02,1","SYN072AAXX  09001 01047 41788 21805 10058 20023 39827 40202 54000 70211 82070;",
"01047099999","2010-10-09T06:00:00","4","69.0166667","23.0666667","307.0","KAUTOKEINO II, NO","FM-12","ENKA ","V020","180,1,N,0050,1","00750,1,9,N","070000,1,N,1","+0053,1","+0027,1","10177,1","12,0000,9,1","24,0000,9,1",,"6,1,06,1","2,1,06,1",,"07,99,1,05,1,05,1,00800,1,02,1,00,1",,"999,N,+0035,1","99999,9,09803,1","8,1,010,1,+999,9","02,1","SYN094AAXX  09061 01047 11588 71805 10053 20027 39803 40177 58010 69912 70262 85520 333 20035 70001;","Q01  00002PRCP24Q02  00002PRCP12"
"01047099999","2010-10-09T09:00:00","4","69.0166667","23.0666667","307.0","KAUTOKEINO II, NO","FM-12","ENKA ","V020","180,1,N,0050,1","99999,9,9,N","070000,1,N,1","+0072,1","+0050,1","10155,1",,,,"2,1,03,1","2,1,03,1",,"08,99,1,99,9,99,9,00800,1,99,9,99,9",,,"99999,9,09784,1","7,1,019,1,+999,9","02,1","SYN066AAXX  09091 01047 41588 81805 10072 20050 39784 40155 57019 70222;",
"01047099999","2010-10-09T12:00:00","4","69.0166667","23.0666667","307.0","KAUTOKEINO II, NO","FM-12","ENKA ","V020","140,1,N,0030,1","00750,1,9,N","070000,1,N,1","+0078,1","+0063,1","10120,1",,,,"8,1,06,1","2,1,06,1",,"08,99,1,08,1,09,1,00800,1,99,9,99,9",,,"99999,9,09751,1","8,1,033,1,+999,9","25,1","SYN072AAXX  09121 01047 41588 81403 10078 20063 39751 40120 58033 72582 889//;",
"01047099999","2010-10-09T15:00:00","4","69.0166667","23.0666667","307.0","KAUTOKEINO II, NO","FM-12","ENKA ","V020","140,1,N,0010,1","01500,1,9,N","070000,1,N,1","+0066,1","+0031,1","10097,1",,,,"2,1,03,1","2,1,03,1",,"08,99,1,08,1,00,1,01750,1,07,1,99,9",,,"99999,9,09727,1","7,1,023,1,+999,9","02,1","SYN072AAXX  09151 01047 41788 81401 10066 20031 39727 40097 57023 70222 8807/;",
"01047099999","2010-10-09T18:00:00","4","69.0166667","23.0666667","307.0","KAUTOKEINO II, NO","FM-12","ENKA ","V020","160,1,N,0010,1","22000,1,9,N","070000,1,N,1","+0051,1","+0019,1","10063,1","12,0005,9,1",,,"2,1,06,1","2,1,06,1",,"04,99,1,04,1,00,1,01750,1,07,1,00,1",,"999,M,+0082,1","99999,9,09692,1","7,1,035,1,+999,9","01,1","SYN088AAXX  09181 01047 11788 41601 10051 20019 39692 40063 57035 69952 70122 84070 333 10082;",
"01047099999","2010-10-10T06:00:00","4","69.0166667","23.0666667","307.0","KAUTOKEINO II, NO","FM-12","ENKA ","V020","320,1,N,0050,1","00750,1,9,N","070000,1,N,1","+0013,1","-0013,1","10044,1","12,0000,9,1","24,0005,9,1",,"8,1,06,1","2,1,06,1",,"06,99,1,06,1,04,1,00800,1,00,1,00,1",,"999,N,+0009,1","99999,9,09670,1","5,1,001,1,+999,9","02,1","SYN094AAXX  10061 01047 11588 63205 10013 21013 39670 40044 55001 69912 70282 86400 333 20009 70006;","Q01  00002PRCP12"
"01047099999","2010-10-10T09:00:00","4","69.0166667","23.0666667","307.0","KAUTOKEINO II, NO","FM-12","ENKA ","V020","360,1,N,0100,1","03000,1,9,N","070000,1,N,1","+0040,1","+0000,1","10068,1",,,,"2,1,03,1","2,1,03,1",,"06,99,1,02,1,04,1,01250,1,07,1,00,1",,,"99999,9,09696,1","2,1,026,1,+999,9","02,1","SYN072AAXX  10091 01047 41688 63610 10040 21000 39696 40068 52026 70222 82470;",
"01047099999","2010-10-10T12:00:00","4","69.0166667","23.0666667","307.0","KAUTOKEINO II, NO","FM-12","ENKA ","V020","360,1,N,0100,1","22000,1,9,N","070000,1,N,1","+0051,1","-0009,1","10087,1",,,,"2,1,06,1","1,1,06,1",,"04,99,1,04,1,02,1,01250,1,00,1,00,1",,,"99999,9,09716,1","2,1,020,1,+999,9","02,1","SYN072AAXX  10121 01047 41688 43610 10051 21009 39716 40087 52020 70221 84200;",
"01047099999","2010-10-10T15:00:00","4","69.0166667","23.0666667","307.0","KAUTOKEINO II, NO","FM-12","ENKA ","V020","340,1,N,0070,1","01200,1,9,N","070000,1,N,1","+0042,1","-0002,1","10102,1",,,,"1,1,03,1","1,1,03,1",,"07,99,1,07,1,05,1,01250,1,00,1,00,1",,,"99999,9,09729,1","1,1,013,1,+999,9","02,1","SYN072AAXX  10151 01047 41688 73407 10042 21002 39729 40102 51013 70211 87500;",
"01047099999","2010-10-10T18:00:00","4","69.0166667","23.0666667","307.0","KAUTOKEINO II, NO","FM-12","ENKA ","V020","320,1,N,0070,1","01200,1,9,N","070000,1,N,1","+0034,1","-0001,1","10105,1",,,,"2,1,06,1","2,1,06,1",,"08,99,1,08,1,05,1,01250,1,99,9,99,9",,"999,M,+0055,1","99999,9,09731,1","1,1,003,1,+999,9","02,1","SYN082AAXX  10181 01047 31688 83207 10034 21001 39731 40105 51003 70222 885// 333 10055;",
"01047099999","2010-10-11T00:00:00","4","69.0166667","23.0666667","307.0","KAUTOKEINO II, NO","FM-12","ENKA ","V020","340,1,N,0070,1","22000,1,9,N","070000,1,N,1","+0014,1","-0027,1","10096,1",,,,"1,1,06,1","1,1,06,1",,"04,99,1,04,1,05,1,01250,1,00,1,00,1",,,"99999,9,09720,1","7,1,005,1,+999,9","02,1","SYN072AAXX  11001 01047 41688 43407 10014 21027 39720 40096 57005 70211 84500;",
"01047099999","2010-10-11T06:00:00","4","69.0166667","23.0666667","307.0","KAUTOKEINO II, NO","FM-12","ENKA ","V020","340,1,N,0010,1","00750,1,9,N","070000,1,N,1","+0010,1","-0033,1","10076,1","24,0000,9,1",,,"2,1,06,1","1,1,06,1",,"07,99,1,05,1,04,1,00800,1,07,1,00,1",,"999,N,+0004,1","99999,9,09700,1","8,1,010,1,+999,9","02,1","SYN088AAXX  11061 01047 31588 73401 10010 21033 39700 40076 58010 70221 85470 333 20004 70000;","Q01  00002PRCP24"
"01047099999","2010-10-11T09:00:00","4","69.0166667","23.0666667","307.0","KAUTOKEINO II, NO","FM-12","ENKA ","V020","340,1,N,0030,1","01200,1,9,N","070000,1,N,1","+0013,1","-0030,1","10056,1",,,,"2,1,03,1","2,1,03,1",,"08,99,1,08,1,00,1,01250,1,02,1,99,9",,,"99999,9,09681,1","7,1,019,1,+999,9","02,1","SYN072AAXX  11091 01047 41688 83403 10013 21030 39681 40056 57019 70222 8802/;",
"01047099999","2010-10-11T12:00:00","4","69.0166667","23.0666667","307.0","KAUTOKEINO II, NO","FM-12","ENKA ","V020","320,1,N,0050,1","03000,1,9,N","070000,1,N,1","+0021,1","-0030,1","10030,1",,,,"2,1,06,1","2,1,06,1",,"08,99,1,03,1,05,1,00800,1,02,1,99,9",,,"99999,9,09657,1","7,1,025,1,+999,9","02,1","SYN072AAXX  11121 01047 41588 83205 10021 21030 39657 40030 57025 70222 8352/;",
"01047099999","2010-10-11T15:00:00","4","69.0166667","23.0666667","307.0","KAUTOKEINO II, NO","FM-12","ENKA ","V020","320,1,N,0070,1","00750,1,9,N","000300,1,N,1","+0012,1","-0038,1","10009,1",,,,"8,1,03,1","2,1,03,1",,"08,99,1,08,1,09,1,00800,1,99,9,99,9",,,"99999,9,09635,1","7,1,021,1,+999,9","86,1","SYN072AAXX  11151 01047 41503 83207 10012 21038 39635 40009 57021 78682 889//;",
"01047099999","2010-10-11T18:00:00","4","69.0166667","23.0666667","307.0","KAUTOKEINO II, NO","FM-12","ENKA ","V020","320,1,N,0050,1","00750,1,9,N","070000,1,N,1","-0030,1","-0059,1","10014,1","12,0005,9,1",,,"8,1,06,1","2,1,06,1",,"08,99,1,08,1,09,1,00800,1,99,9,99,9",,"999,M,+0022,1","99999,9,09639,1","3,1,003,1,+999,9","02,1","SYN088AAXX  11181 01047 11588 83205 11030 21059 39639 40014 53003 69962 70282 889// 333 10022;",
"01047099999","2010-10-12T00:00:00","4","69.0166667","23.0666667","307.0","KAUTOKEINO II, NO","FM-12","ENKA ","V020","320,1,N,0050,1","22000,1,9,N","070000,1,N,1","-0042,1","-0068,1","10033,1",,,,"1,1,06,1","1,1,06,1",,"04,99,1,04,1,00,1,01750,1,07,1,00,1",,,"99999,9,09657,1","3,1,010,1,+999,9","02,1","SYN072AAXX  12001 01047 41788 43205 11042 21068 39657 40033 53010 70211 84070;",
"01047099999","2010-10-12T06:00:00","4","69.0166667","23.0666667","307.0","KAUTOKEINO II, NO","FM-12","ENKA ","V020","320,1,N,0030,1","03000,1,9,N","070000,1,N,1","-0004,1","-0035,1","10040,1","24,0005,9,1",,"0002,9,1,999999,9,9","2,1,06,1","1,1,06,1",,"06,99,1,02,1,04,1,01250,1,07,1,00,1","23,9","999,N,-0078,1","99999,9,09665,1","1,1,002,1,+999,9","02,1","SYN094AAXX  12061 01047 31688 63203 11004 21035 39665 40040 51002 70221 82470 333 21078 47002 70006;",
"01047099999","2010-10-12T09:00:00","4","69.0166667","23.0666667","307.0","KAUTOKEINO II, NO","FM-12","ENKA ","V020","320,1,N,0070,1","01200,1,9,N","070000,1,N,1","+0022,1","-0023,1","10040,1",,,,"1,1,03,1","1,1,03,1",,"05,99,1,05,1,04,1,01250,1,00,1,00,1",,,"99999,9,09667,1","2,1,003,1,+999,9","02,1","SYN072AAXX  12091 01047 41688 53207 10022 21023 39667 40040 52003 70211 85400;",
"01047099999","2010-10-12T12:00:00","4","69.0166667","23.0666667","307.0","KAUTOKEINO II, NO","FM-12","ENKA ","V020","320,1,N,0100,1","01200,1,9,N","070000,1,N,1","+0034,1","-0017,1","10041,1",,,,"1,1,06,1","1,1,06,1",,"06,99,1,06,1,05,1,01250,1,00,1,00,1",,,"99999,9,09669,1","2,1,002,1,+999,9","02,1","SYN072AAXX  12121 01047 41688 63210 10034 21017 39669 40041 52002 70211 86500;",
"01047099999","2010-10-12T15:00:00","4","69.0166667","23.0666667","307.0","KAUTOKEINO II, NO","FM-12","ENKA ","V020","320,1,N,0100,1","01200,1,9,N","070000,1,N,1","+0027,1","-0028,1","10052,1",,,,"2,1,03,1","1,1,03,1",,"07,99,1,05,1,05,1,01250,1,02,1,00,1",,,"99999,9,09679,1","3,1,009,1,+999,9","02,1","SYN072AAXX  12151 01047 41688 73210 10027 21028 39679 40052 53009 70221 85520;",
"01047099999","2010-10-12T18:00:00","4","69.0166667","23.0666667","307.0","KAUTOKEINO II, NO","FM-12","ENKA ","V020","320,1,N,0100,1","01200,1,9,N","070000,1,N,1","+0018,1","-0025,1","10056,1",,,,"2,1,06,1","2,1,06,1",,"05,99,1,05,1,05,1,01250,1,00,1,00,1",,"999,M,+0035,1","99999,9,09682,1","2,1,003,1,+999,9","02,1","SYN082AAXX  12181 01047 31688 53210 10018 21025 39682 40056 52003 70222 85500 333 10035;",
"01047099999","2010-10-13T00:00:00","4","69.0166667","23.0666667","307.0","KAUTOKEINO II, NO","FM-12","ENKA ","V020","320,1,N,0070,1","01200,1,9,N","020000,1,N,1","+0014,1","-0010,1","10064,1",,,,"7,1,06,1","2,1,06,1",,"08,99,1,08,1,00,1,01250,1,02,1,99,9",,,"99999,9,09689,1","2,1,004,1,+999,9","71,1","SYN072AAXX  13001 01047 41670 83207 10014 21010 39689 40064 52004 77172 8802/;",
"01047099999","2010-10-13T06:00:00","4","69.0166667","23.0666667","307.0","KAUTOKEINO II, NO","FM-12","ENKA ","V020","999,9,C,0000,1","01500,1,9,N","070000,1,N,1","-0013,1","-0030,1","10065,1","12,0000,2,1","24,0000,2,1",,"7,1,06,1","2,1,06,1",,"06,99,1,06,1,00,1,01750,1,07,1,00,1",,"999,N,-0019,1","99999,9,09688,1","4,1,000,1,+999,9","02,1","SYN094AAXX  13061 01047 11788 60000 11013 21030 39688 40065 54000 69912 70272 86070 333 21019 70001;",
"01047099999","2010-10-13T09:00:00","4","69.0166667","23.0666667","307.0","KAUTOKEINO II, NO","FM-12","ENKA ","V020","999,9,C,0000,1","00750,1,9,N","070000,1,N,1","+0002,1","-0012,1","10059,1",,,,"2,1,03,1","2,1,03,1",,"07,99,1,07,1,05,1,00800,1,00,1,00,1",,,"99999,9,09684,1","7,1,004,1,+999,9","02,1","SYN072AAXX  13091 01047 41588 70000 10002 21012 39684 40059 57004 70222 87500;",
"01047099999","2010-10-13T12:00:00","4","69.0166667","23.0666667","307.0","KAUTOKEINO II, NO","FM-12","ENKA ","V020","180,1,N,0030,1","00750,1,9,N","070000,1,N,1","+0012,1","-0012,1","10050,1",,,,"2,1,06,1","2,1,06,1",,"08,99,1,08,1,05,1,00800,1,99,9,99,9",,,"99999,9,09675,1","7,1,009,1,+999,9","02,1","SYN072AAXX  13121 01047 41588 81803 10012 21012 39675 40050 57009 70222 885//;",
"01047099999","2010-10-13T15:00:00","4","69.0166667","23.0666667","307.0","KAUTOKEINO II, NO","FM-12","ENKA ","V020","180,1,N,0050,1","01200,1,9,N","002500,1,N,1","+0004,1","-0010,1","10034,1",,,,"7,1,03,1","2,1,03,1",,"08,99,1,08,1,00,1,01250,1,02,1,99,9",,,"99999,9,09660,1","7,1,015,1,+999,9","73,1","SYN072AAXX  13151 01047 41625 81805 10004 21010 39660 40034 57015 77372 8802/;",
"01047099999","2010-10-13T18:00:00","4","69.0166667","23.0666667","307.0","KAUTOKEINO II, NO","FM-12","ENKA ","V020","180,1,N,0030,1","01200,1,9,N","010000,1,N,1","-0006,1","-0013,1","10021,1","12,0010,9,1",,,"7,1,06,1","2,1,06,1",,"08,99,1,08,1,00,1,01250,1,02,1,99,9",,"999,M,+0015,1","99999,9,09647,1","7,1,013,1,+999,9","70,1","SYN088AAXX  13181 01047 11660 81803 11006 21013 39647 40021 57013 60012 77072 8802/ 333 10015;",
"01047099999","2010-10-14T00:00:00","4","69.0166667","23.0666667","307.0","KAUTOKEINO II, NO","FM-12","ENKA ","V020","180,1,N,0030,1","01200,1,9,N","020000,1,N,1","-0016,1","-0025,1","10012,1",,,,"7,1,06,1","2,1,06,1",,"08,99,1,08,1,00,1,01250,1,02,1,99,9",,,"99999,9,09638,1","4,1,000,1,+999,9","71,1","SYN072AAXX  14001 01047 41670 81803 11016 21025 39638 40012 54000 77172 8802/;",
"01047099999","2010-10-14T06:00:00","4","69.0166667","23.0666667","307.0","KAUTOKEINO II, NO","FM-12","ENKA ","V020","050,1,N,0010,1","01500,1,9,N","070000,1,N,1","-0042,1","-0051,1","10015,1","12,0010,9,1","24,0025,9,1","0004,9,1,999999,9,9","7,1,06,1","2,1,06,1",,"07,99,1,07,1,07,1,01750,1,00,1,07,1","23,9","999,N,-0061,1","99999,9,09640,1","4,1,000,1,+999,9","02,1","SYN100AAXX  14061 01047 11788 70501 11042 21051 39640 40015 54000 60012 70272 87707 333 21061 47004 70026;",
"01047099999","2010-10-14T09:00:00","4","69.0166667","23.0666667","307.0","KAUTOKEINO II, NO","FM-12","ENKA ","V020","320,1,N,0070,1","01200,1,9,N","070000,1,N,1","+0002,1","-0032,1","10023,1",,,,"2,1,03,1","2,1,03,1",,"06,99,1,06,1,05,1,01250,1,00,1,00,1",,,"99999,9,09649,1","3,1,009,1,+999,9","02,1","SYN072AAXX  14091 01047 41688 63207 10002 21032 39649 40023 53009 70222 86500;",
"01047099999","2010-10-14T12:00:00","4","69.0166667","23.0666667","307.0","KAUTOKEINO II, NO","FM-12","ENKA ","V020","320,1,N,0070,1","00750,1,9,N","070000,1,N,1","+0006,1","-0035,1","10028,1",,,,"2,1,06,1","2,1,06,1",,"08,99,1,08,1,09,1,00800,1,99,9,99,9",,,"99999,9,09654,1","1,1,005,1,+999,9","02,1","SYN072AAXX  14121 01047 41588 83207 10006 21035 39654 40028 51005 70222 889//;",
"01047099999","2010-10-14T15:00:00","4","69.0166667","23.0666667","307.0","KAUTOKEINO II, NO","FM-12","ENKA ","V020","320,1,N,0070,1","22000,1,9,N","070000,1,N,1","-0012,1","-0049,1","10028,1",,,,"2,1,03,1","2,1,03,1",,"03,99,1,03,1,09,1,00800,1,00,1,00,1",,,"99999,9,09653,1","4,1,000,1,+999,9","01,1","SYN072AAXX  14151 01047 41588 33207 11012 21049 39653 40028 54000 70122 83900;",
"01047099999","2010-10-14T18:00:00","4","69.0166667","23.0666667","307.0","KAUTOKEINO II, NO","FM-12","ENKA ","V020","320,1,N,0070,1","01200,1,9,N","070000,1,N,1","-0029,1","-0054,1","10028,1",,,,"2,1,06,1","1,1,06,1",,"06,99,1,06,1,05,1,01250,1,00,1,00,1",,"999,M,+0015,1","99999,9,09652,1","6,1,001,1,+999,9","02,1","SYN082AAXX  14181 01047 31688 63207 11029 21054 39652 40028 56001 70221 86500 333 10015;",
"01047099999","2010-10-15T00:00:00","4","69.0166667","23.0666667","307.0","KAUTOKEINO II, NO","FM-12","ENKA ","V020","320,1,N,0070,1","22000,1,9,N","070000,1,N,1","-0021,1","-0057,1","10022,1",,,,"1,1,06,1","1,1,06,1",,"03,99,1,03,1,05,1,01250,1,00,1,00,1",,,"99999,9,09647,1","6,1,005,1,+999,9","02,1","SYN072AAXX  15001 01047 41688 33207 11021 21057 39647 40022 56005 70211 83500;",
"01047099999","2010-10-15T06:00:00","4","69.0166667","23.0666667","307.0","KAUTOKEINO II, NO","FM-12","ENKA ","V020","320,1,N,0070,1","01200,1,9,N","070000,1,N,1","-0023,1","-0045,1","10024,1","24,0000,9,1",,"0004,9,1,999999,9,9","2,1,06,1","1,1,06,1",,"07,99,1,07,1,05,1,01250,1,00,1,00,1","23,9","999,N,-0029,1","99999,9,09649,1","4,1,000,1,+999,9","02,1","SYN094AAXX  15061 01047 31688 73207 11023 21045 39649 40024 54000 70221 87500 333 21029 47004 70000;","Q01  00002PRCP24"
"01047099999","2010-10-15T09:00:00","4","69.0166667","23.0666667","307.0","KAUTOKEINO II, NO","FM-12","ENKA ","V020","320,1,N,0100,1","22000,1,9,N","070000,1,N,1","-0010,1","-0054,1","10032,1",,,,"1,1,03,1","1,1,03,1",,"04,99,1,04,1,00,1,01750,1,07,1,00,1",,,"99999,9,09657,1","3,1,009,1,+999,9","02,1","SYN072AAXX  15091 01047 41788 43210 11010 21054 39657 40032 53009 70211 84070;",
"01047099999","2010-10-15T12:00:00","4","69.0166667","23.0666667","307.0","KAUTOKEINO II, NO","FM-12","ENKA ","V020","320,1,N,0100,1","22000,1,9,N","070000,1,N,1","-0009,1","-0053,1","10044,1",,,,"1,1,06,1","1,1,06,1",,"04,99,1,04,1,05,1,01250,1,00,1,00,1",,,"99999,9,09669,1","2,1,011,1,+999,9","02,1","SYN072AAXX  15121 01047 41688 43210 11009 21053 39669 40044 52011 70211 84500;",
"01047099999","2010-10-15T15:00:00","4","69.0166667","23.0666667","307.0","KAUTOKEINO II, NO","FM-12","ENKA ","V020","340,1,N,0100,1","01200,1,9,N","070000,1,N,1","-0014,1","-0051,1","10050,1",,,,"1,1,03,1","1,1,03,1",,"06,99,1,06,1,05,1,01250,1,00,1,00,1",,,"99999,9,09674,1","1,1,006,1,+999,9","02,1","SYN072AAXX  15151 01047 41688 63410 11014 21051 39674 40050 51006 70211 86500;",
"01047099999","2010-10-15T18:00:00","4","69.0166667","23.0666667","307.0","KAUTOKEINO II, NO","FM-12","ENKA ","V020","340,1,N,0100,1","01200,1,9,N","070000,1,N,1","-0024,1","-0059,1","10054,1",,,,"2,1,06,1","2,1,06,1",,"06,99,1,06,1,05,1,01250,1,00,1,00,1",,"999,M,+0002,1","99999,9,09678,1","2,1,003,1,+999,9","02,1","SYN082AAXX  15181 01047 31688 63410 11024 21059 39678 40054 52003 70222 86500 333 10002;",
"01047099999","2010-10-16T00:00:00","4","69.0166667","23.0666667","307.0","KAUTOKEINO II, NO","FM-12","ENKA ","V020","320,1,N,0050,1","01200,1,9,N","070000,1,N,1","-0014,1","-0050,1","10060,1",,,,"2,1,06,1","2,1,06,1",,"08,99,1,08,1,05,1,01250,1,99,9,99,9",,,"99999,9,09684,1","1,1,005,1,+999,9","02,1","SYN072AAXX  16001 01047 41688 83205 11014 21050 39684 40060 51005 70222 885//;",
"01047099999","2010-10-16T06:00:00","4","69.0166667","23.0666667","307.0","KAUTOKEINO II, NO","FM-12","ENKA ","V020","320,1,N,0030,1","00750,1,9,N","070000,1,N,1","-0016,1","-0050,1","10061,1","24,0000,9,1",,"0003,9,1,999999,9,9","2,1,06,1","2,1,06,1",,"07,99,1,07,1,07,1,00800,1,00,1,00,1","23,9","999,N,-0025,1","99999,9,09685,1","4,1,000,1,+999,9","02,1","SYN094AAXX  16061 01047 31588 73203 11016 21050 39685 40061 54000 70222 87700 333 21025 47003 70000;","Q01  00002PRCP24"
"01047099999","2010-10-16T09:00:00","4","69.0166667","23.0666667","307.0","KAUTOKEINO II, NO","FM-12","ENKA ","V020","320,1,N,0030,1","03000,1,9,N","070000,1,N,1","-0012,1","-0051,1","10065,1",,,,"2,1,03,1","2,1,03,1",,"07,99,1,03,1,04,1,01250,1,07,1,00,1",,,"99999,9,09688,1","3,1,003,1,+999,9","02,1","SYN072AAXX  16091 01047 41688 73203 11012 21051 39688 40065 53003 70222 83470;",
"01047099999","2010-10-16T12:00:00","4","69.0166667","23.0666667","307.0","KAUTOKEINO II, NO","FM-12","ENKA ","V020","180,1,N,0050,1","01200,1,9,N","070000,1,N,1","+0010,1","-0036,1","10056,1",,,,"2,1,06,1","2,1,06,1",,"08,99,1,08,1,00,1,01250,1,02,1,99,9",,,"99999,9,09681,1","8,1,008,1,+999,9","02,1","SYN072AAXX  16121 01047 41688 81805 10010 21036 39681 40056 58008 70222 8802/;",
"01047099999","2010-10-16T15:00:00","4","69.0166667","23.0666667","307.0","KAUTOKEINO II, NO","FM-12","ENKA ","V020","180,1,N,0050,1","01200,1,9,N","070000,1,N,1","+0018,1","-0027,1","10044,1",,,,"2,1,03,1","2,1,03,1",,"08,99,1,08,1,00,1,01250,1,02,1,99,9",,,"99999,9,09670,1","7,1,011,1,+999,9","02,1","SYN072AAXX  16151 01047 41688 81805 10018 21027 39670 40044 57011 70222 8802/;",
"01047099999","2010-10-16T18:00:00","4","69.0166667","23.0666667","307.0","KAUTOKEINO II, NO","FM-12","ENKA ","V020","180,1,N,0050,1","01200,1,9,N","070000,1,N,1","+0000,1","-0030,1","10044,1",,,,"2,1,06,1","2,1,06,1",,"07,99,1,07,1,00,1,01250,1,02,1,00,1",,"999,M,+0018,1","99999,9,09669,1","4,1,000,1,+999,9","02,1","SYN082AAXX  16181 01047 31688 71805 10000 21030 39669 40044 54000 70222 87020 333 10018;",
"01047099999","2010-10-17T00:00:00","4","69.0166667","23.0666667","307.0","KAUTOKEINO II, NO","FM-12","ENKA ","V020","160,1,N,0050,1","01200,1,9,N","070000,1,N,1","-0012,1","-0025,1","10040,1",,,,"2,1,06,1","2,1,06,1",,"08,99,1,08,1,00,1,01250,1,02,1,99,9",,,"99999,9,09665,1","4,1,000,1,+999,9","02,1","SYN072AAXX  17001 01047 41688 81605 11012 21025 39665 40040 54000 70222 8802/;",
"01047099999","2010-10-17T06:00:00","4","69.0166667","23.0666667","307.0","KAUTOKEINO II, NO","FM-12","ENKA ","V020","999,9,C,0000,1","01500,1,9,N","070000,1,N,1","-0009,1","-0016,1","10030,1","24,0000,9,1",,"0002,9,1,999999,9,9","2,1,06,1","2,1,06,1",,"08,99,1,08,1,00,1,01750,1,02,1,99,9","23,9","999,N,-0013,1","99999,9,09655,1","6,1,007,1,+999,9","02,1","SYN094AAXX  17061 01047 31788 80000 11009 21016 39655 40030 56007 70222 8802/ 333 21013 47002 70000;","Q01  00002PRCP24"
"01047099999","2010-10-17T09:00:00","4","69.0166667","23.0666667","307.0","KAUTOKEINO II, NO","FM-12","ENKA ","V020","999,9,C,0000,1","00750,1,9,N","070000,1,N,1","+0001,1","-0007,1","10030,1",,,,"2,1,03,1","2,1,03,1",,"07,99,1,05,1,05,1,00800,1,02,1,00,1",,,"99999,9,09656,1","4,1,000,1,+999,9","02,1","SYN072AAXX  17091 01047 41588 70000 10001 21007 39656 40030 54000 70222 85520;",
"01047099999","2010-10-17T12:00:00","4","69.0166667","23.0666667","307.0","KAUTOKEINO II, NO","FM-12","ENKA ","V020","180,1,N,0050,1","01200,1,9,N","070000,1,N,1","+0018,1","-0008,1","10026,1",,,,"2,1,06,1","2,1,06,1",,"08,99,1,08,1,00,1,01250,1,02,1,99,9",,,"99999,9,09653,1","4,1,000,1,+999,9","02,1","SYN072AAXX  17121 01047 41688 81805 10018 21008 39653 40026 54000 70222 8802/;",
"01047099999","2010-10-17T15:00:00","4","69.0166667","23.0666667","307.0","KAUTOKEINO II, NO","FM-12","ENKA ","V020","180,1,N,0050,1","01200,1,9,N","070000,1,N,1","+0008,1","-0014,1","10023,1",,,,"2,1,03,1","2,1,03,1",,"08,99,1,08,1,05,1,01250,1,99,9,99,9",,,"99999,9,09649,1","7,1,005,1,+999,9","02,1","SYN072AAXX  17151 01047 41688 81805 10008 21014 39649 40023 57005 70222 885//;",
"01047099999","2010-10-17T18:00:00","4","69.0166667","23.0666667","307.0","KAUTOKEINO II, NO","FM-12","ENKA ","V020","180,1,N,0050,1","01200,1,9,N","070000,1,N,1","+0008,1","-0008,1","10016,1",,,,"2,1,06,1","2,1,06,1",,"08,99,1,08,1,05,1,01250,1,99,9,99,9",,"999,M,+0020,1","99999,9,09642,1","7,1,007,1,+999,9","02,1","SYN082AAXX  17181 01047 31688 81805 10008 21008 39642 40016 57007 70222 885// 333 10020;",
"01047099999","2010-10-18T00:00:00","4","69.0166667","23.0666667","307.0","KAUTOKEINO II, NO","FM-12","ENKA ","V020","180,1,N,0030,1","01200,1,9,N","070000,1,N,1","+0006,1","-0008,1","09980,1",,,,"2,1,06,1","2,1,06,1",,"08,99,1,08,1,05,1,01250,1,99,9,99,9",,,"99999,9,09608,1","8,1,015,1,+999,9","02,1","SYN072AAXX  18001 01047 41688 81803 10006 21008 39608 49980 58015 70222 885//;",
"01047099999","2010-10-18T06:00:00","4","69.0166667","23.0666667","307.0","KAUTOKEINO II, NO","FM-12","ENKA ","V020","180,1,N,0030,1","00750,1,9,N","020000,1,N,1","+0017,1","+0007,1","09936,1","12,0003,9,1","24,0003,9,1","9999,2,9,999999,9,9","6,1,06,1","2,1,06,1",,"08,99,1,06,1,05,1,00800,1,02,1,99,9","30,9","999,N,+0002,1","99999,9,09566,1","7,1,010,1,+999,9","60,1","SYN100AAXX  18061 01047 11570 81803 10017 20007 39566 49936 57010 69932 76062 8652/ 333 20002 42998 70003;","Q01  09982SNDP  "
"01047099999","2010-10-18T09:00:00","4","69.0166667","23.0666667","307.0","KAUTOKEINO II, NO","FM-12","ENKA ","V020","180,1,N,0050,1","01200,1,9,N","070000,1,N,1","+0018,1","+0009,1","09918,1",,,,"6,1,03,1","2,1,03,1",,"08,99,1,08,1,00,1,01250,1,02,1,99,9",,,"99999,9,09549,1","7,1,016,1,+999,9","02,1","SYN072AAXX  18091 01047 41688 81805 10018 20009 39549 49918 57016 70262 8802/;",
"01047099999","2010-10-18T12:00:00","4","69.0166667","23.0666667","307.0","KAUTOKEINO II, NO","FM-12","ENKA ","V020","180,1,N,0050,1","01200,1,9,N","070000,1,N,1","+0029,1","+0016,1","09901,1",,,,"6,1,06,1","2,1,06,1",,"08,99,1,08,1,00,1,01250,1,02,1,99,9",,,"99999,9,09533,1","7,1,016,1,+999,9","02,1","SYN072AAXX  18121 01047 41688 81805 10029 20016 39533 49901 57016 70262 8802/;",
"01047099999","2010-10-18T15:00:00","4","69.0166667","23.0666667","307.0","KAUTOKEINO II, NO","FM-12","ENKA ","V020","180,1,N,0050,1","00750,1,9,N","070000,1,N,1","+0034,1","+0019,1","09882,1",,,,"2,1,03,1","2,1,03,1",,"08,99,1,08,1,05,1,00800,1,99,9,99,9",,,"99999,9,09516,1","7,1,018,1,+999,9","02,1","SYN072AAXX  18151 01047 41588 81805 10034 20019 39516 49882 57018 70222 885//;",
"01047099999","2010-10-18T18:00:00","4","69.0166667","23.0666667","307.0","KAUTOKEINO II, NO","FM-12","ENKA ","V020","180,1,N,0070,1","00750,1,9,N","070000,1,N,1","+0036,1","+0007,1","09872,1","12,0010,9,1",,,"2,1,06,1","2,1,06,1",,"08,99,1,08,1,05,1,00800,1,99,9,99,9",,"999,M,+0036,1","99999,9,09507,1","6,1,009,1,+999,9","02,1","SYN088AAXX  18181 01047 11588 81807 10036 20007 39507 49872 56009 60012 70222 885// 333 10036;",
"01047099999","2010-10-19T00:00:00","4","69.0166667","23.0666667","307.0","KAUTOKEINO II, NO","FM-12","ENKA ","V020","180,1,N,0100,1","00750,1,9,N","070000,1,N,1","+0028,1","-0001,1","09852,1",,,,"2,1,06,1","2,1,06,1",,"08,99,1,08,1,05,1,00800,1,99,9,99,9",,,"99999,9,09487,1","7,1,012,1,+999,9","02,1","SYN072AAXX  19001 01047 41588 81810 10028 21001 39487 49852 57012 70222 885//;",
"01047099999","2010-10-19T06:00:00","4","69.0166667","23.0666667","307.0","KAUTOKEINO II, NO","FM-12","ENKA ","V020","180,1,N,0070,1","00750,1,9,N","070000,1,N,1","+0018,1","-0006,1","09864,1","24,0010,9,1",,,"2,1,06,1","2,1,06,1",,"08,99,1,06,1,05,1,00800,1,02,1,99,9",,"999,N,+0018,1","99999,9,09497,1","3,1,002,1,+999,9","02,1","SYN088AAXX  19061 01047 31588 81807 10018 21006 39497 49864 53002 70222 8652/ 333 20018 70011;",
"01047099999","2010-10-19T09:00:00","4","69.0166667","23.0666667","307.0","KAUTOKEINO II, NO","FM-12","ENKA ","V020","180,1,N,0070,1","03000,1,9,N","070000,1,N,1","+0020,1","-0007,1","09876,1",,,,"2,1,03,1","2,1,03,1",,"08,99,1,03,1,05,1,00800,1,02,1,99,9",,,"99999,9,09509,1","3,1,012,1,+999,9","02,1","SYN072AAXX  19091 01047 41588 81807 10020 21007 39509 49876 53012 70222 8352/;",
"01047099999","2010-10-19T12:00:00","4","69.0166667","23.0666667","307.0","KAUTOKEINO II, NO","FM-12","ENKA ","V020","180,1,N,0070,1","00750,1,9,N","010000,1,N,1","+0040,1","+0005,1","09887,1",,,,"5,1,06,1","2,1,06,1",,"08,99,1,06,1,07,1,00800,1,02,1,99,9",,,"99999,9,09522,1","2,1,013,1,+999,9","51,1","SYN072AAXX  19121 01047 41560 81807 10040 20005 39522 49887 52013 75152 8672/;",
"01047099999","2010-10-19T15:00:00","4","69.0166667","23.0666667","307.0","KAUTOKEINO II, NO","FM-12","ENKA ","V020","340,1,N,0070,1","00750,1,9,N","005000,1,N,1","+0011,1","-0003,1","09915,1",,,,"5,1,03,1","2,1,03,1",,"08,99,1,06,1,07,1,00800,1,02,1,99,9",,,"99999,9,09546,1","3,1,024,1,+999,9","50,1","SYN072AAXX  19151 01047 41550 83407 10011 21003 39546 49915 53024 75052 8672/;",
"01047099999","2010-10-19T18:00:00","4","69.0166667","23.0666667","307.0","KAUTOKEINO II, NO","FM-12","ENKA ","V020","340,1,N,0070,1","00750,1,9,N","003000,1,N,1","+0004,1","-0009,1","09944,1","12,0020,9,1",,,"7,1,06,1","5,1,06,1",,"08,99,1,06,1,07,1,00800,1,02,1,99,9",,"999,M,+0040,1","99999,9,09573,1","2,1,027,1,+999,9","71,1","SYN088AAXX  19181 01047 11530 83407 10004 21009 39573 49944 52027 60022 77175 8672/ 333 10040;",
"01047099999","2010-10-20T00:00:00","4","69.0166667","23.0666667","307.0","KAUTOKEINO II, NO","FM-12","ENKA ","V020","360,1,N,0050,1","01200,1,9,N","070000,1,N,1","-0010,1","-0031,1","09980,1",,,,"7,1,06,1","2,1,06,1",,"08,99,1,08,1,00,1,01250,1,02,1,99,9",,,"99999,9,09607,1","1,1,015,1,+999,9","22,1","SYN072AAXX  20001 01047 41688 83605 11010 21031 39607 49980 51015 72272 8802/;",
"01047099999","2010-10-20T06:00:00","4","69.0166667","23.0666667","307.0","KAUTOKEINO II, NO","FM-12","ENKA ","V020","360,1,N,0050,1","01200,1,9,N","004000,1,N,1","-0009,1","-0016,1","09976,1","12,0010,9,1","24,0033,9,1","0005,9,1,999999,9,9","7,1,06,1","2,1,06,1",,"08,99,1,08,1,00,1,01250,1,02,1,99,9","27,9","999,N,-0012,1","99999,9,09603,1","6,1,003,1,+999,9","70,1","SYN100AAXX  20061 01047 11640 83605 11009 21016 39603 49976 56003 60012 77072 8802/ 333 21012 43005 70032;",
"01047099999","2010-10-20T09:00:00","4","69.0166667","23.0666667","307.0","KAUTOKEINO II, NO","FM-12","ENKA ","V020","360,1,N,0050,1","01200,1,9,N","004000,1,N,1","+0012,1","+0003,1","09977,1",,,,"7,1,03,1","7,1,03,1",,"08,99,1,08,1,00,1,01250,1,02,1,99,9",,,"99999,9,09605,1","6,1,002,1,+999,9","71,1","SYN072AAXX  20091 01047 41640 83605 10012 20003 39605 49977 56002 77177 8802/;",
"01047099999","2010-10-20T12:00:00","4","69.0166667","23.0666667","307.0","KAUTOKEINO II, NO","FM-12","ENKA ","V020","180,1,N,0050,1","00750,1,9,N","004000,1,N,1","+0011,1","+0002,1","09978,1",,,,"7,1,06,1","7,1,06,1",,"08,99,1,06,1,07,1,00800,1,02,1,99,9",,,"99999,9,09606,1","4,1,000,1,+999,9","68,1","SYN072AAXX  20121 01047 41540 81805 10011 20002 39606 49978 54000 76877 8672/;",
"01047099999","2010-10-20T15:00:00","4","69.0166667","23.0666667","307.0","KAUTOKEINO II, NO","FM-12","ENKA ","V020","180,1,N,0050,1","00750,1,9,N","005000,1,N,1","+0008,1","-0001,1","09976,1",,,,"7,1,03,1","7,1,03,1",,"08,99,1,06,1,07,1,00800,1,02,1,99,9",,,"99999,9,09604,1","4,1,000,1,+999,9","68,1","SYN072AAXX  20151 01047 41550 81805 10008 21001 39604 49976 54000 76877 8672/;",
"01047099999","2010-10-20T18:00:00","4","69.0166667","23.0666667","307.0","KAUTOKEINO II, NO","FM-12","ENKA ","V020","180,1,N,0050,1","00750,1,9,N","015000,1,N,1","+0012,1","+0003,1","09976,1","12,0061,9,1",,,"7,1,06,1","6,1,06,1",,"08,99,1,06,1,07,1,00800,1,02,1,99,9",,"999,M,+0017,1","99999,9,09604,1","4,1,000,1,+999,9","60,1","SYN088AAXX  20181 01047 11565 81805 10012 20003 39604 49976 54000 60062 76076 8672/ 333 10017;",
"01047099999","2010-10-21T00:00:00","4","69.0166667","23.0666667","307.0","KAUTOKEINO II, NO","FM-12","ENKA ","V020","180,1,N,0050,1","00750,1,9,N","010000,1,N,1","+0026,1","+0016,1","09974,1",,,,"7,1,06,1","7,1,06,1",,"08,99,1,06,1,07,1,00800,1,02,1,99,9",,,"99999,9,09603,1","4,1,000,1,+999,9","68,1","SYN072AAXX  21001 01047 41560 81805 10026 20016 39603 49974 54000 76877 8672/;",
"01047099999","2010-10-21T06:00:00","4","69.0166667","23.0666667","307.0","KAUTOKEINO II, NO","FM-12","ENKA ","V020","999,9,C,0000,1","00420,1,9,N","005000,1,N,1","+0021,1","+0012,1","09964,1","12,0005,9,1","24,0066,9,1","0004,9,1,999999,9,9","7,1,06,1","6,1,06,1",,"08,99,1,08,1,06,1,00450,1,99,9,99,9","27,9","999,N,+0012,1","99999,9,09594,1","8,1,003,1,+999,9","10,1","SYN100AAXX  21061 01047 11450 80000 10021 20012 39594 49964 58003 69952 71076 886// 333 20012 43004 70066;",
"01047099999","2010-10-21T09:00:00","4","69.0166667","23.0666667","307.0","KAUTOKEINO II, NO","FM-12","ENKA ","V020","360,1,N,0050,1","00750,1,9,N","020000,1,N,1","+0018,1","+0009,1","09957,1",,,,"6,1,03,1","2,1,03,1",,"08,99,1,06,1,07,1,00800,1,02,1,99,9",,,"99999,9,09586,1","7,1,008,1,+999,9","61,1","SYN072AAXX  21091 01047 41570 83605 10018 20009 39586 49957 57008 76162 8672/;",
"01047099999","2010-10-21T12:00:00","4","69.0166667","23.0666667","307.0","KAUTOKEINO II, NO","FM-12","ENKA ","V020","360,1,N,0050,1","00750,1,9,N","001000,1,N,1","+0008,1","-0001,1","09943,1",,,,"7,1,06,1","6,1,06,1",,"08,99,1,06,1,07,1,00800,1,02,1,99,9",,,"99999,9,09572,1","7,1,014,1,+999,9","73,1","SYN072AAXX  21121 01047 41510 83605 10008 21001 39572 49943 57014 77376 8672/;",
"01047099999","2010-10-21T15:00:00","4","69.0166667","23.0666667","307.0","KAUTOKEINO II, NO","FM-12","ENKA ","V020","360,1,N,0030,1","00750,1,9,N","000600,1,N,1","+0005,1","-0003,1","09923,1",,,,"7,1,03,1","7,1,03,1",,"08,99,1,06,1,07,1,00800,1,02,1,99,9",,,"99999,9,09552,1","7,1,019,1,+999,9","73,1","SYN072AAXX  21151 01047 41506 83603 10005 21003 39552 49923 57019 77377 8672/;",
"01047099999","2010-10-21T18:00:00","4","69.0166667","23.0666667","307.0","KAUTOKEINO II, NO","FM-12","ENKA ","V020","999,9,C,0000,1","00750,1,9,N","002000,1,N,1","+0004,1","-0004,1","09902,1","12,0051,9,1",,,"7,1,06,1","7,1,06,1",,"08,99,1,07,1,07,1,00800,1,02,1,99,9",,"999,M,+0035,1","99999,9,09532,1","7,1,020,1,+999,9","71,1","SYN088AAXX  21181 01047 11520 80000 10004 21004 39532 49902 57020 60052 77177 8772/ 333 10035;",
"01047099999","2010-10-22T00:00:00","4","69.0166667","23.0666667","307.0","KAUTOKEINO II, NO","FM-12","ENKA ","V020","360,1,N,0030,1","01200,1,9,N","010000,1,N,1","+0004,1","-0004,1","09861,1",,,,"7,1,06,1","7,1,06,1",,"08,99,1,08,1,00,1,01250,1,02,1,99,9",,,"99999,9,09493,1","7,1,015,1,+999,9","71,1","SYN072AAXX  22001 01047 41660 83603 10004 21004 39493 49861 57015 77177 8802/;",
"01047099999","2010-10-22T06:00:00","4","69.0166667","23.0666667","307.0","KAUTOKEINO II, NO","FM-12","ENKA ","V020","999,9,C,0000,1","22000,1,9,N","070000,1,N,1","-0034,1","-0043,1","09848,1","12,0030,9,1","24,0084,9,1","0005,9,1,999999,9,9","7,1,06,1","2,1,06,1",,"04,99,1,04,1,00,1,01750,1,07,1,00,1","23,9","999,N,-0034,1","99999,9,09479,1","7,1,005,1,+999,9","01,1","SYN100AAXX  22061 01047 11788 40000 11034 21043 39479 49848 57005 60032 70172 84070 333 21034 47005 70083;",
"01047099999","2010-10-22T09:00:00","4","69.0166667","23.0666667","307.0","KAUTOKEINO II, NO","FM-12","ENKA ","V020","180,1,N,0050,1","22000,1,9,N","070000,1,N,1","-0036,1","-0048,1","09846,1",,,,"0,1,03,1","0,1,03,1","00,1,+99999,9,99,9","00,99,1,00,1,00,1,99999,9,00,1,00,1",,,"99999,9,09477,1","4,1,000,1,+999,9","02,1","SYN066AAXX  22091 01047 41988 01805 11036 21048 39477 49846 54000 70200;",
"01047099999","2010-10-22T12:00:00","4","69.0166667","23.0666667","307.0","KAUTOKEINO II, NO","FM-12","ENKA ","V020","180,1,N,0050,1","22000,1,9,N","070000,1,N,1","-0020,1","-0041,1","09846,1",,,,"0,1,06,1","0,1,06,1",,"02,99,1,00,1,00,1,99999,9,00,1,01,1",,,"99999,9,09477,1","4,1,000,1,+999,9","02,1","SYN072AAXX  22121 01047 41988 21805 11020 21041 39477 49846 54000 70200 80001;",
"01047099999","2010-10-22T15:00:00","4","69.0166667","23.0666667","307.0","KAUTOKEINO II, NO","FM-12","ENKA ","V020","180,1,N,0010,1","22000,1,9,N","070000,1,N,1","-0052,1","-0068,1","09846,1",,,,"0,1,03,1","0,1,03,1",,"03,99,1,00,1,00,1,99999,9,00,1,08,1",,,"99999,9,09477,1","4,1,000,1,+999,9","02,1","SYN072AAXX  22151 01047 41988 31801 11052 21068 39477 49846 54000 70200 80008;",
"01047099999","2010-10-22T18:00:00","4","69.0166667","23.0666667","307.0","KAUTOKEINO II, NO","FM-12","ENKA ","V020","999,9,C,0000,1","01500,1,9,N","070000,1,N,1","-0070,1","-0082,1","09846,1",,,,"2,1,06,1","0,1,06,1",,"08,99,1,08,1,00,1,01750,1,01,1,99,9",,"999,M,-0015,1","99999,9,09475,1","4,1,000,1,+999,9","02,1","SYN082AAXX  22181 01047 31788 80000 11070 21082 39475 49846 54000 70220 8801/ 333 11015;",
"01047099999","2010-10-23T00:00:00","4","69.0166667","23.0666667","307.0","KAUTOKEINO II, NO","FM-12","ENKA ","V020","180,1,N,0030,1","00750,1,9,N","070000,1,N,1","-0051,1","-0062,1","09831,1",,,,"2,1,06,1","2,1,06,1",,"08,99,1,08,1,05,1,00800,1,99,9,99,9",,,"99999,9,09462,1","8,1,005,1,+999,9","02,1","SYN072AAXX  23001 01047 41588 81803 11051 21062 39462 49831 58005 70222 885//;",
"01047099999","2010-10-23T06:00:00","4","69.0166667","23.0666667","307.0","KAUTOKEINO II, NO","FM-12","ENKA ","V020","180,1,N,0030,1","01200,1,9,N","010000,1,N,1","-0021,1","-0028,1","09817,1","12,0005,9,1","24,0005,9,1","0007,9,1,999999,9,9","7,1,06,1","2,1,06,1",,"08,99,1,08,1,00,1,01250,1,02,1,99,9","23,9","999,N,-0074,1","99999,9,09449,1","7,1,007,1,+999,9","70,1","SYN100AAXX  23061 01047 11660 81803 11021 21028 39449 49817 57007 69942 77072 8802/ 333 21074 47007 70004;",
"01047099999","2010-10-23T09:00:00","4","69.0166667","23.0666667","307.0","KAUTOKEINO II, NO","FM-12","ENKA ","V020","180,1,N,0030,1","01200,1,9,N","005000,1,N,1","+0011,1","+0001,1","09815,1",,,,"7,1,03,1","7,1,03,1",,"08,99,1,08,1,00,1,01250,1,02,1,99,9",,,"99999,9,09449,1","4,1,000,1,+999,9","71,1","SYN072AAXX  23091 01047 41650 81803 10011 20001 39449 49815 54000 77177 8802/;",
"01047099999","2010-10-23T12:00:00","4","69.0166667","23.0666667","307.0","KAUTOKEINO II, NO","FM-12","ENKA ","V020","320,1,N,0050,1","01200,1,9,N","005000,1,N,1","+0011,1","-0003,1","09821,1",,,,"7,1,06,1","7,1,06,1",,"08,99,1,08,1,00,1,01250,1,02,1,99,9",,,"99999,9,09454,1","3,1,005,1,+999,9","71,1","SYN072AAXX  23121 01047 41650 83205 10011 21003 39454 49821 53005 77177 8802/;",
"01047099999","2010-10-23T15:00:00","4","69.0166667","23.0666667","307.0","KAUTOKEINO II, NO","FM-12","ENKA ","V020","320,1,N,0050,1","01200,1,9,N","004000,1,N,1","+0011,1","-0003,1","09830,1",,,,"7,1,03,1","7,1,03,1",,"08,99,1,08,1,00,1,01250,1,02,1,99,9",,,"99999,9,09463,1","2,1,009,1,+999,9","71,1","SYN072AAXX  23151 01047 41640 83205 10011 21003 39463 49830 52009 77177 8802/;",
"01047099999","2010-10-23T18:00:00","4","69.0166667","23.0666667","307.0","KAUTOKEINO II, NO","FM-12","ENKA ","V020","320,1,N,0050,1","01200,1,9,N","006000,1,N,1","+0010,1","-0003,1","09838,1","12,0030,9,1",,,"7,1,06,1","7,1,06,1",,"08,99,1,08,1,00,1,01250,1,02,1,99,9",,"999,M,+0018,1","99999,9,09471,1","2,1,007,1,+999,9","71,1","SYN088AAXX  23181 01047 11656 83205 10010 21003 39471 49838 52007 60032 77177 8802/ 333 10018;",
"01047099999","2010-10-24T00:00:00","4","69.0166667","23.0666667","307.0","KAUTOKEINO II, NO","FM-12","ENKA ","V020","320,1,N,0050,1","00750,1,9,N","010000,1,N,1","+0013,1","-0003,1","09860,1",,,,"7,1,06,1","7,1,06,1",,"08,99,1,06,1,07,1,00800,1,02,1,99,9",,,"99999,9,09492,1","1,1,005,1,+999,9","71,1","SYN072AAXX  24001 01047 41560 83205 10013 21003 39492 49860 51005 77177 8672/;",
"01047099999","2010-10-24T06:00:00","4","69.0166667","23.0666667","307.0","KAUTOKEINO II, NO","FM-12","ENKA ","V020","320,1,N,0050,1","01200,1,9,N","070000,1,N,1","+0007,1","-0034,1","09882,1","12,0020,9,1","24,0041,9,1","0006,9,1,999999,9,9","7,1,06,1","2,1,06,1",,"08,99,1,06,1,05,1,01250,1,02,1,99,9","28,9","999,N,+0005,1","99999,9,09514,1","2,1,007,1,+999,9","02,1","SYN100AAXX  24061 01047 11688 83205 10007 21034 39514 49882 52007 60022 70272 8652/ 333 20005 44006 70041;",
"01047099999","2010-10-24T09:00:00","4","69.0166667","23.0666667","307.0","KAUTOKEINO II, NO","FM-12","ENKA ","V020","320,1,N,0050,1","01200,1,9,N","070000,1,N,1","+0012,1","-0022,1","09902,1",,,,"2,1,03,1","2,1,03,1",,"06,99,1,06,1,00,1,01250,1,02,1,00,1",,,"99999,9,09533,1","2,1,019,1,+999,9","02,1","SYN072AAXX  24091 01047 41688 63205 10012 21022 39533 49902 52019 70222 86020;",
"01047099999","2010-10-24T12:00:00","4","69.0166667","23.0666667","307.0","KAUTOKEINO II, NO","FM-12","ENKA ","V020","320,1,N,0050,1","01200,1,9,N","070000,1,N,1","+0010,1","-0026,1","09923,1",,,,"2,1,06,1","2,1,06,1",,"06,99,1,06,1,05,1,01250,1,00,1,00,1",,,"99999,9,09553,1","2,1,021,1,+999,9","02,1","SYN072AAXX  24121 01047 41688 63205 10010 21026 39553 49923 52021 70222 86500;",
"01047099999","2010-10-24T15:00:00","4","69.0166667","23.0666667","307.0","KAUTOKEINO II, NO","FM-12","ENKA ","V020","320,1,N,0050,1","01200,1,9,N","070000,1,N,1","+0012,1","-0014,1","09944,1",,,,"2,1,03,1","2,1,03,1",,"08,99,1,07,1,05,1,01250,1,02,1,99,9",,,"99999,9,09573,1","2,1,020,1,+999,9","02,1","SYN072AAXX  24151 01047 41688 83205 10012 21014 39573 49944 52020 70222 8752/;",
"01047099999","2010-10-24T18:00:00","4","69.0166667","23.0666667","307.0","KAUTOKEINO II, NO","FM-12","ENKA ","V020","320,1,N,0050,1","01200,1,9,N","020000,1,N,1","+0004,1","-0021,1","09964,1","12,9999,9,9",,,"7,1,06,1","2,1,06,1",,"08,99,1,08,1,00,1,01250,1,02,1,99,9",,"999,M,+0021,1","99999,9,09592,1","2,1,019,1,+999,9","70,1","SYN088AAXX  24181 01047 11670 83205 10004 21021 39592 49964 52019 69912 77072 8802/ 333 10021;","Q01  00002PRCP12Q02  00002PRCP12"
"01047099999","2010-10-25T00:00:00","4","69.0166667","23.0666667","307.0","KAUTOKEINO II, NO","FM-12","ENKA ","V020","320,1,N,0030,1","01200,1,9,N","020000,1,N,1","-0002,1","-0022,1","09991,1",,,,"7,1,06,1","2,1,06,1",,"08,99,1,08,1,00,1,01250,1,02,1,99,9",,,"99999,9,09618,1","2,1,018,1,+999,9","70,1","SYN072AAXX  25001 01047 41670 83203 11002 21022 39618 49991 52018 77072 8802/;",
"01047099999","2010-10-25T06:00:00","4","69.0166667","23.0666667","307.0","KAUTOKEINO II, NO","FM-12","ENKA ","V020","999,9,C,0000,1","01200,1,9,N","070000,1,N,1","-0010,1","-0028,1","10019,1","12,0000,2,1","24,0003,9,1","0006,9,1,999999,9,9","7,1,06,1","2,1,06,1",,"08,99,1,08,1,00,1,01250,1,02,1,99,9","28,9","999,N,-0011,1","99999,9,09644,1","2,1,010,1,+999,9","02,1","SYN100AAXX  25061 01047 11688 80000 11010 21028 39644 40019 52010 69922 70272 8802/ 333 21011 44006 70003;",
"01047099999","2010-10-25T09:00:00","4","69.0166667","23.0666667","307.0","KAUTOKEINO II, NO","FM-12","ENKA ","V020","999,9,C,0000,1","01200,1,9,N","070000,1,N,1","-0002,1","-0023,1","10039,1",,,,"7,1,03,1","2,1,03,1",,"08,99,1,08,1,00,1,01250,1,02,1,99,9",,,"99999,9,09665,1","2,1,020,1,+999,9","22,1","SYN072AAXX  25091 01047 41688 80000 11002 21023 39665 40039 52020 72272 8802/;",
"01047099999","2010-10-25T12:00:00","4","69.0166667","23.0666667","307.0","KAUTOKEINO II, NO","FM-12","ENKA ","V020","360,1,N,0050,1","01200,1,9,N","070000,1,N,1","+0000,1","-0021,1","10055,1",,,,"7,1,06,1","2,1,06,1",,"08,99,1,08,1,00,1,01250,1,02,1,99,9",,,"99999,9,09680,1","2,1,016,1,+999,9","02,1","SYN072AAXX  25121 01047 41688 83605 10000 21021 39680 40055 52016 70272 8802/;",
"01047099999","2010-10-25T18:00:00","4","69.0166667","23.0666667","307.0","KAUTOKEINO II, NO","FM-12","ENKA ","V020","360,1,N,0030,1","01200,1,9,N","070000,1,N,1","-0021,1","-0034,1","10085,1","12,0000,2,1",,,"2,1,06,1","2,1,06,1",,"08,99,1,08,1,00,1,01250,1,02,1,99,9",,"999,M,+0005,1","99999,9,09708,1","2,1,013,1,+999,9","02,1","SYN088AAXX  25181 01047 11688 83603 11021 21034 39708 40085 52013 69912 70222 8802/ 333 10005;",
"01047099999","2010-10-26T00:00:00","4","69.0166667","23.0666667","307.0","KAUTOKEINO II, NO","FM-12","ENKA ","V020","180,1,N,0010,1","00750,1,9,N","070000,1,N,1","-0031,1","-0040,1","10103,1",,,,"2,1,06,1","2,1,06,1",,"08,99,1,08,1,05,1,00800,1,99,9,99,9",,,"99999,9,09725,1","1,1,008,1,+999,9","02,1","SYN072AAXX  26001 01047 41588 81801 11031 21040 39725 40103 51008 70222 885//;",
"01047099999","2010-10-26T06:00:00","4","69.0166667","23.0666667","307.0","KAUTOKEINO II, NO","FM-12","ENKA ","V020","999,9,C,0000,1","00750,1,9,N","070000,1,N,1","-0038,1","-0050,1","10115,1","24,0000,2,1",,"0006,9,1,999999,9,9","2,1,06,1","1,1,06,1",,"06,99,1,06,1,05,1,00800,1,00,1,00,1","24,9","999,N,-0038,1","99999,9,09736,1","1,1,002,1,+999,9","02,1","SYN094AAXX  26061 01047 31588 60000 11038 21050 39736 40115 51002 70221 86500 333 21038 48006 70001;",
"01047099999","2010-10-26T09:00:00","4","69.0166667","23.0666667","307.0","KAUTOKEINO II, NO","FM-12","ENKA ","V020","360,1,N,0010,1","22000,1,9,N","070000,1,N,1","-0068,1","-0102,1","10127,1",,,,"2,1,03,1","0,1,03,1",,"04,99,1,03,1,00,1,01750,1,07,1,08,1",,,"99999,9,09746,1","3,1,010,1,+999,9","01,1","SYN072AAXX  26091 01047 41788 43601 11068 21102 39746 40127 53010 70120 83078;",
"01047099999","2010-10-26T12:00:00","4","69.0166667","23.0666667","307.0","KAUTOKEINO II, NO","FM-12","ENKA ","V020","999,9,C,0000,1","22000,1,9,N","070000,1,N,1","-0054,1","-0097,1","10129,1",,,,"1,1,06,1","1,1,06,1",,"04,99,1,04,1,05,1,01250,1,00,1,00,1",,,"99999,9,09748,1","1,1,003,1,+999,9","02,1","SYN072AAXX  26121 01047 41688 40000 11054 21097 39748 40129 51003 70211 84500;",
"01047099999","2010-10-26T15:00:00","4","69.0166667","23.0666667","307.0","KAUTOKEINO II, NO","FM-12","ENKA ","V020","180,1,N,0030,1","22000,1,9,N","070000,1,N,1","-0084,1","-0105,1","10144,1",,,,"0,1,03,1","0,1,03,1",,"03,99,1,03,1,05,1,01250,1,00,1,00,1",,,"99999,9,09762,1","2,1,013,1,+999,9","02,1","SYN072AAXX  26151 01047 41688 31803 11084 21105 39762 40144 52013 70200 83500;",
"01047099999","2010-10-26T18:00:00","4","69.0166667","23.0666667","307.0","KAUTOKEINO II, NO","FM-12","ENKA ","V020","180,1,N,0030,1","22000,1,9,N","070000,1,N,1","-0116,1","-0131,1","10152,1",,,,"2,1,06,1","1,1,06,1",,"02,99,1,02,1,00,1,01750,1,01,1,00,1",,"999,M,-0010,1","99999,9,09768,1","1,1,006,1,+999,9","02,1","SYN082AAXX  26181 01047 31788 21803 11116 21131 39768 40152 51006 70221 82010 333 11010;",
"01047099999","2010-10-27T00:00:00","4","69.0166667","23.0666667","307.0","KAUTOKEINO II, NO","FM-12","ENKA ","V020","180,1,N,0030,1","01500,1,9,N","070000,1,N,1","-0120,1","-0132,1","10133,1",,,,"2,1,06,1","0,1,06,1",,"08,99,1,08,1,00,1,01750,1,01,1,99,9",,,"99999,9,09749,1","8,1,005,1,+999,9","02,1","SYN072AAXX  27001 01047 41788 81803 11120 21132 39749 40133 58005 70220 8801/;",
"01047099999","2010-10-27T06:00:00","4","69.0166667","23.0666667","307.0","KAUTOKEINO II, NO","FM-12","ENKA ","V020","180,1,N,0030,1","01500,1,9,N","070000,1,N,1","-0070,1","-0082,1","10103,1","24,0000,9,1",,"0006,9,1,999999,9,9","2,1,06,1","0,1,06,1",,"08,99,1,08,1,00,1,01750,1,02,1,99,9","24,9","999,N,-0129,1","99999,9,09723,1","7,1,011,1,+999,9","02,1","SYN094AAXX  27061 01047 31788 81803 11070 21082 39723 40103 57011 70220 8802/ 333 21129 48006 70000;","Q01  00002PRCP24"
"01047099999","2010-10-27T09:00:00","4","69.0166667","23.0666667","307.0","KAUTOKEINO II, NO","FM-12","ENKA ","V020","180,1,N,0070,1","01500,1,9,N","070000,1,N,1","-0062,1","-0075,1","10090,1",,,,"2,1,03,1","2,1,03,1",,"06,99,1,06,1,00,1,01750,1,07,1,00,1",,,"99999,9,09710,1","6,1,012,1,+999,9","02,1","SYN072AAXX  27091 01047 41788 61807 11062 21075 39710 40090 56012 70222 86070;",
"01047099999","2010-10-27T12:00:00","4","69.0166667","23.0666667","307.0","KAUTOKEINO II, NO","FM-12","ENKA ","V020","180,1,N,0070,1","22000,1,9,N","070000,1,N,1","-0056,1","-0076,1","10070,1",,,,"1,1,06,1","1,1,06,1",,"04,99,1,04,1,05,1,01250,1,00,1,00,1",,,"99999,9,09692,1","7,1,019,1,+999,9","02,1","SYN072AAXX  27121 01047 41688 41807 11056 21076 39692 40070 57019 70211 84500;",
"01047099999","2010-10-27T15:00:00","4","69.0166667","23.0666667","307.0","KAUTOKEINO II, NO","FM-12","ENKA ","V020","180,1,N,0070,1","01200,1,9,N","070000,1,N,1","-0061,1","-0077,1","10057,1",,,,"2,1,03,1","2,1,03,1",,"06,99,1,06,1,05,1,01250,1,00,1,00,1",,,"99999,9,09679,1","7,1,013,1,+999,9","02,1","SYN072AAXX  27151 01047 41688 61807 11061 21077 39679 40057 57013 70222 86500;",
"01047099999","2010-10-27T18:00:00","4","69.0166667","23.0666667","307.0","KAUTOKEINO II, NO","FM-12","ENKA ","V020","180,1,N,0070,1","00750,1,9,N","070000,1,N,1","-0045,1","-0053,1","10041,1",,,,"2,1,06,1","2,1,06,1",,"08,99,1,08,1,05,1,00800,1,99,9,99,9",,"999,M,-0045,1","99999,9,09664,1","7,1,015,1,+999,9","02,1","SYN082AAXX  27181 01047 31588 81807 11045 21053 39664 40041 57015 70222 885// 333 11045;",
"01047099999","2010-10-28T00:00:00","4","69.0166667","23.0666667","307.0","KAUTOKEINO II, NO","FM-12","ENKA ","V020","180,1,N,0030,1","01200,1,9,N","001500,1,N,1","-0020,1","-0029,1","09967,1",,,,"7,1,06,1","2,1,06,1",,"08,99,1,08,1,00,1,01250,1,02,1,99,9",,,"99999,9,09594,1","7,1,030,1,+999,9","73,1","SYN072AAXX  28001 01047 41615 81803 11020 21029 39594 49967 57030 77372 8802/;",
"01047099999","2010-10-28T06:00:00","4","69.0166667","23.0666667","307.0","KAUTOKEINO II, NO","FM-12","ENKA ","V020","180,1,N,0050,1","01200,1,9,N","010000,1,N,1","-0007,1","-0014,1","09899,1","12,0041,9,2","24,0038,9,2","0010,9,1,999999,9,9","7,1,06,1","2,1,06,1",,"08,99,1,08,1,00,1,01250,1,02,1,99,9","28,9","999,N,-0045,1","99999,9,09529,1","7,1,019,1,+999,9","70,1","SYN100AAXX  28061 01047 11660 81805 11007 21014 39529 49899 57019 60042 77072 8802/ 333 21045 44010 70038;",
"01047099999","2010-10-28T09:00:00","4","69.0166667","23.0666667","307.0","KAUTOKEINO II, NO","FM-12","ENKA ","V020","180,1,N,0030,1","01200,1,9,N","070000,1,N,1","-0010,1","-0019,1","09883,1",,,,"7,1,03,1","2,1,03,1",,"08,99,1,08,1,00,1,01250,1,02,1,99,9",,,"99999,9,09514,1","6,1,016,1,+999,9","02,1","SYN072AAXX  28091 01047 41688 81803 11010 21019 39514 49883 56016 70272 8802/;",
"01047099999","2010-10-28T12:00:00","4","69.0166667","23.0666667","307.0","KAUTOKEINO II, NO","FM-12","ENKA ","V020","180,1,N,0010,1","01200,1,9,N","070000,1,N,1","-0004,1","-0015,1","09881,1",,,,"2,1,06,1","2,1,06,1",,"08,99,1,08,1,00,1,01250,1,02,1,99,9",,,"99999,9,09512,1","6,1,002,1,+999,9","02,1","SYN072AAXX  28121 01047 41688 81801 11004 21015 39512 49881 56002 70222 8802/;",
"01047099999","2010-10-28T15:00:00","4","69.0166667","23.0666667","307.0","KAUTOKEINO II, NO","FM-12","ENKA ","V020","180,1,N,0030,1","00750,1,9,N","070000,1,N,1","-0022,1","-0035,1","09890,1",,,,"2,1,03,1","2,1,03,1",,"08,99,1,08,1,05,1,00800,1,99,9,99,9",,,"99999,9,09520,1","3,1,009,1,+999,9","02,1","SYN072AAXX  28151 01047 41588 81803 11022 21035 39520 49890 53009 70222 885//;",
"01047099999","2010-10-28T18:00:00","4","69.0166667","23.0666667","307.0","KAUTOKEINO II, NO","FM-12","ENKA ","V020","999,9,C,0000,1","00750,1,9,N","070000,1,N,1","-0031,1","-0043,1","09904,1","12,0000,2,1",,,"7,1,06,1","2,1,06,1",,"08,99,1,08,1,05,1,00800,1,99,9,99,9",,"999,M,+0004,1","99999,9,09533,1","1,1,013,1,+999,9","02,1","SYN088AAXX  28181 01047 11588 80000 11031 21043 39533 49904 51013 69922 70272 885// 333 10004;",
"01047099999","2010-10-29T00:00:00","4","69.0166667","23.0666667","307.0","KAUTOKEINO II, NO","FM-12","ENKA ","V020","360,1,N,0050,1","01200,1,9,N","003000,1,N,1","-0016,1","-0027,1","09932,1",,,,"7,1,06,1","2,1,06,1",,"08,99,1,08,1,00,1,01250,1,02,1,99,9",,,"99999,9,09561,1","2,1,012,1,+999,9","71,1","SYN072AAXX  29001 01047 41630 83605 11016 21027 39561 49932 52012 77172 8802/;",
"01047099999","2010-10-29T06:00:00","4","69.0166667","23.0666667","307.0","KAUTOKEINO II, NO","FM-12","ENKA ","V020","360,1,N,0010,1","00750,1,9,N","070000,1,N,1","-0030,1","-0052,1","09983,1","12,0005,9,1","24,0008,9,1","0013,9,1,999999,9,9","7,1,06,1","2,1,06,1",,"07,99,1,07,1,07,1,00800,1,00,1,00,1","23,9","999,N,-0032,1","99999,9,09609,1","2,1,013,1,+999,9","02,1","SYN100AAXX  29061 01047 11588 73601 11030 21052 39609 49983 52013 69952 70272 87700 333 21032 47013 70007;",
"01047099999","2010-10-29T09:00:00","4","69.0166667","23.0666667","307.0","KAUTOKEINO II, NO","FM-12","ENKA ","V020","360,1,N,0050,1","22000,1,9,N","070000,1,N,1","-0028,1","-0059,1","10020,1",,,,"2,1,03,1","2,1,03,1",,"02,99,1,02,1,05,1,00800,1,00,1,00,1",,,"99999,9,09645,1","2,1,035,1,+999,9","01,1","SYN072AAXX  29091 01047 41588 23605 11028 21059 39645 40020 52035 70122 82500;",
"01047099999","2010-10-29T12:00:00","4","69.0166667","23.0666667","307.0","KAUTOKEINO II, NO","FM-12","ENKA ","V020","340,1,N,0050,1","22000,1,9,N","070000,1,N,1","-0036,1","-0062,1","10041,1",,,,"0,1,06,1","0,1,06,1","00,1,+99999,9,99,9","00,99,1,00,1,00,1,99999,9,00,1,00,1",,,"99999,9,09665,1","1,1,020,1,+999,9","02,1","SYN066AAXX  29121 01047 41988 03405 11036 21062 39665 40041 51020 70200;",
"01047099999","2010-10-29T15:00:00","4","69.0166667","23.0666667","307.0","KAUTOKEINO II, NO","FM-12","ENKA ","V020","999,9,C,0000,1","22000,1,9,N","070000,1,N,1","-0096,1","-0114,1","10060,1",,,,"0,1,03,1","0,1,03,1","00,1,+99999,9,99,9","00,99,1,00,1,00,1,99999,9,00,1,00,1",,,"99999,9,09680,1","1,1,015,1,+999,9","02,1","SYN066AAXX  29151 01047 41988 00000 11096 21114 39680 40060 51015 70200;",
"01047099999","2010-10-29T18:00:00","4","69.0166667","23.0666667","307.0","KAUTOKEINO II, NO","FM-12","ENKA ","V020","999,9,C,0000,1","22000,1,9,N","070000,1,N,1","-0140,1","-0153,1","10077,1",,,,"0,1,06,1","0,1,06,1","00,1,+99999,9,99,9","00,99,1,00,1,00,1,99999,9,00,1,00,1",,"999,M,-0020,1","99999,9,09695,1","2,1,015,1,+999,9","02,1","SYN076AAXX  29181 01047 31988 00000 11140 21153 39695 40077 52015 70200 333 11020;",
"01047099999","2010-10-30T00:00:00","4","69.0166667","23.0666667","307.0","KAUTOKEINO II, NO","FM-12","ENKA ","V020","180,1,N,0030,1","22000,1,9,N","030000,1,N,1","-0182,1","-0200,1","10097,1",,,,"0,1,06,1","0,1,06,1","00,1,+99999,9,99,9","00,99,1,00,1,00,1,99999,9,00,1,00,1",,,"99999,9,09712,1","2,1,010,1,+999,9","02,1","SYN066AAXX  30001 01047 41980 01803 11182 21200 39712 40097 52010 70200;",
"01047099999","2010-10-30T06:00:00","4","69.0166667","23.0666667","307.0","KAUTOKEINO II, NO","FM-12","ENKA ","V020","180,1,N,0030,1","00420,1,9,N","000700,1,N,1","-0184,1","-0204,1","10101,1","24,0000,9,1",,"0013,9,1,999999,9,9","4,1,06,1","2,1,06,1",,"08,99,1,08,1,06,1,00450,1,99,9,99,9","23,9","999,N,-0196,1","99999,9,09716,1","4,1,000,1,+999,9","44,1","SYN094AAXX  30061 01047 31407 81803 11184 21204 39716 40101 54000 74442 886// 333 21196 47013 70000;","Q01  00002PRCP24"
"01047099999","2010-10-30T09:00:00","4","69.0166667","23.0666667","307.0","KAUTOKEINO II, NO","FM-12","ENKA ","V020","999,9,C,0000,1","00030,1,9,N","000500,1,N,1","-0167,1","-0187,1","10095,1",,,,"4,1,03,1","4,1,03,1","09,1,+99999,9,99,9","09,99,1,09,1,99,9,99999,9,99,9,99,9",,,"99999,9,09710,1","4,1,000,1,+999,9","46,1","SYN066AAXX  30091 01047 41/05 90000 11167 21187 39710 40095 54000 74644;",
"01047099999","2010-10-30T12:00:00","4","69.0166667","23.0666667","307.0","KAUTOKEINO II, NO","FM-12","ENKA ","V020","999,9,C,0000,1","00015,1,9,N","000000,1,N,1","-0154,1","-0173,1","10080,1",,,,"4,1,06,1","4,1,06,1","09,1,+99999,9,99,9","09,99,1,09,1,99,9,99999,9,99,9,99,9",,,"99999,9,09697,1","8,1,012,1,+999,9","49,1","SYN066AAXX  30121 01047 41/00 90000 11154 21173 39697 40080 58012 74944;",
"01047099999","2010-10-30T15:00:00","4","69.0166667","23.0666667","307.0","KAUTOKEINO II, NO","FM-12","ENKA ","V020","180,1,N,0010,1","00750,1,9,N","030000,1,N,1","-0140,1","-0159,1","10053,1",,,,"4,1,03,1","2,1,03,1",,"08,99,1,08,1,05,1,00800,1,99,9,99,9",,,"99999,9,09672,1","7,1,026,1,+999,9","02,1","SYN072AAXX  30151 01047 41580 81801 11140 21159 39672 40053 57026 70242 885//;",
"01047099999","2010-10-30T18:00:00","4","69.0166667","23.0666667","307.0","KAUTOKEINO II, NO","FM-12","ENKA ","V020","180,1,N,0030,1","00750,1,9,N","003000,1,N,1","-0121,1","-0139,1","10012,1","12,0008,9,1",,,"7,1,06,1","2,1,06,1",,"08,99,1,06,1,07,1,00800,1,02,1,99,9",,"999,M,-0121,1","99999,9,09633,1","7,1,039,1,+999,9","71,1","SYN088AAXX  30181 01047 11530 81803 11121 21139 39633 40012 57039 69982 77172 8672/ 333 11121;",
"01047099999","2010-10-31T00:00:00","4","69.0166667","23.0666667","307.0","KAUTOKEINO II, NO","FM-12","ENKA ","V020","180,1,N,0010,1","00750,1,9,N","001500,1,N,1","-0052,1","-0060,1","99999,9",,,,"7,1,06,1","7,1,06,1",,"08,99,1,06,1,07,1,00800,1,02,1,99,9",,,,"7,1,038,1,+999,9","73,1","SYN072AAXX  31001 01047 41515 81801 11052 21060 39551 49923 57038 77377 8672/;","Q01+095513APOSP "
"01047099999","2010-10-31T06:00:00","4","69.0166667","23.0666667","307.0","KAUTOKEINO II, NO","FM-12","ENKA ","V020","999,9,C,0000,1","01200,1,9,N","002000,1,N,1","-0041,1","-0050,1","09877,1","12,0089,9,1","24,0094,9,1","0018,9,1,999999,9,9","7,1,06,1","7,1,06,1",,"08,99,1,08,1,00,1,01250,1,02,1,99,9","23,9","999,N,-0121,1","99999,9,09506,1","6,1,012,1,+999,9","73,1","SYN100AAXX  31061 01047 11620 80000 11041 21050 39506 49877 56012 60092 77377 8802/ 333 21121 47018 70094;",
"01047099999","2010-10-31T09:00:00","4","69.0166667","23.0666667","307.0","KAUTOKEINO II, NO","FM-12","ENKA ","V020","999,9,C,0000,1","01200,1,9,N","070000,1,N,1","-0040,1","-0049,1","09900,1",,,,"7,1,03,1","2,1,03,1",,"08,99,1,08,1,00,1,01250,1,02,1,99,9",,,"99999,9,09529,1","3,1,022,1,+999,9","02,1","SYN072AAXX  31091 01047 41688 80000 11040 21049 39529 49900 53022 70272 8802/;",
"01047099999","2010-10-31T12:00:00","4","69.0166667","23.0666667","307.0","KAUTOKEINO II, NO","FM-12","ENKA ","V020","180,1,N,0030,1","00750,1,9,N","070000,1,N,1","-0034,1","-0043,1","09914,1",,,,"2,1,06,1","2,1,06,1",,"06,99,1,06,1,05,1,00800,1,00,1,00,1",,,"99999,9,09543,1","2,1,014,1,+999,9","02,1","SYN072AAXX  31121 01047 41588 61803 11034 21043 39543 49914 52014 70222 86500;",
"01047099999","2010-10-31T15:00:00","4","69.0166667","23.0666667","307.0","KAUTOKEINO II, NO","FM-12","ENKA ","V020","180,1,N,0050,1","22000,1,9,N","070000,1,N,1","-0051,1","-0062,1","09919,1",,,,"2,1,03,1","2,1,03,1",,"04,99,1,04,1,05,1,00800,1,00,1,00,1",,,"99999,9,09547,1","1,1,004,1,+999,9","02,1","SYN072AAXX  31151 01047 41588 41805 11051 21062 39547 49919 51004 70222 84500;",
"01047099999","2010-10-31T18:00:00","4","69.0166667","23.0666667","307.0","KAUTOKEINO II, NO","FM-12","ENKA ","V020","999,9,C,0000,1","00750,1,9,N","070000,1,N,1","-0078,1","-0089,1","09925,1","12,0008,9,1",,,"7,1,06,1","2,1,06,1",,"06,99,1,06,1,05,1,00800,1,00,1,00,1",,"999,M,-0029,1","99999,9,09551,1","1,1,004,1,+999,9","02,1","SYN088AAXX  31181 01047 11588 60000 11078 21089 39551 49925 51004 69982 70272 86500 333 11029;",
"01047099999","2010-11-01T00:00:00","4","69.0166667","23.0666667","307.0","KAUTOKEINO II, NO","FM-12","ENKA ","V020","180,1,N,0050,1","00750,1,9,N","002500,1,N,1","-0040,1","-0049,1","09899,1",,,,"7,1,06,1","2,1,06,1",,"08,99,1,06,1,07,1,00800,1,02,1,99,9",,,"99999,9,09528,1","8,1,010,1,+999,9","71,1","SYN072AAXX  01001 01047 41525 81805 11040 21049 39528 49899 58010 77172 8672/;",
"01047099999","2010-11-01T06:00:00","4","69.0166667","23.0666667","307.0","KAUTOKEINO II, NO","FM-12","ENKA ","V020","180,1,N,0050,1","01200,1,9,N","070000,1,N,1","+0003,1","-0005,1","09880,1","12,0000,2,1","24,0010,9,1","0018,9,1,999999,9,9","7,1,06,1","2,1,06,1",,"08,99,1,08,1,00,1,01250,1,02,1,99,9","23,9","999,N,-0106,1","99999,9,09511,1","8,1,006,1,+999,9","02,1","SYN100AAXX  01061 01047 11688 81805 10003 21005 39511 49880 58006 69912 70272 8802/ 333 21106 47018 70009;",
"01047099999","2010-11-01T09:00:00","4","69.0166667","23.0666667","307.0","KAUTOKEINO II, NO","FM-12","ENKA ","V020","160,1,N,0070,1","01200,1,9,N","070000,1,N,1","+0008,1","-0001,1","09872,1",,,,"2,1,03,1","2,1,03,1",,"08,99,1,08,1,00,1,01250,1,02,1,99,9",,,"99999,9,09504,1","6,1,008,1,+999,9","02,1","SYN072AAXX  01091 01047 41688 81607 10008 21001 39504 49872 56008 70222 8802/;",
"01047099999","2010-11-01T12:00:00","4","69.0166667","23.0666667","307.0","KAUTOKEINO II, NO","FM-12","ENKA ","V020","180,1,N,0070,1","00750,1,9,N","070000,1,N,1","+0014,1","-0007,1","09870,1",,,,"2,1,06,1","2,1,06,1",,"07,99,1,07,1,05,1,00800,1,00,1,00,1",,,"99999,9,09502,1","4,1,000,1,+999,9","02,1","SYN072AAXX  01121 01047 41588 71807 10014 21007 39502 49870 54000 70222 87500;",
"01047099999","2010-11-01T15:00:00","4","69.0166667","23.0666667","307.0","KAUTOKEINO II, NO","FM-12","ENKA ","V020","180,1,N,0070,1","22000,1,9,N","070000,1,N,1","-0018,1","-0062,1","09870,1",,,,"2,1,03,1","0,1,03,1","00,1,+99999,9,99,9","00,99,1,00,1,00,1,99999,9,00,1,00,1",,,"99999,9,09501,1","4,1,000,1,+999,9","01,1","SYN066AAXX  01151 01047 41988 01807 11018 21062 39501 49870 54000 70120;",
"01047099999","2010-11-01T18:00:00","4","69.0166667","23.0666667","307.0","KAUTOKEINO II, NO","FM-12","ENKA ","V020","180,1,N,0100,1","00750,1,9,N","020000,1,N,1","+0004,1","-0046,1","09855,1","12,9999,9,9",,,"7,1,06,1","2,1,06,1",,"08,99,1,06,1,07,1,00800,1,02,1,99,9",,"999,M,+0022,1","99999,9,09488,1","8,1,012,1,+999,9","71,1","SYN088AAXX  01181 01047 11570 81810 10004 21046 39488 49855 58012 69912 77172 8672/ 333 10022;","Q01  00002PRCP12Q02  00002PRCP12"
"01047099999","2010-11-02T00:00:00","4","69.0166667","23.0666667","307.0","KAUTOKEINO II, NO","FM-12","ENKA ","V020","220,1,N,0100,1","22000,1,9,N","070000,1,N,1","-0015,1","-0056,1","09897,1",,,,"7,1,06,1","2,1,06,1",,"04,99,1,04,1,05,1,00800,1,00,1,00,1",,,"99999,9,09527,1","3,1,022,1,+999,9","02,1","SYN072AAXX  02001 01047 41588 42210 11015 21056 39527 49897 53022 70272 84500;",
"01047099999","2010-11-02T06:00:00","4","69.0166667","23.0666667","307.0","KAUTOKEINO II, NO","FM-12","ENKA ","V020","270,1,N,0100,1","22000,1,9,N","070000,1,N,1","-0018,1","-0067,1","09933,1","12,0000,2,1","24,0003,9,1","0018,9,1,999999,9,9","1,1,06,1","1,1,06,1",,"03,99,1,03,1,00,1,01750,1,07,1,00,1","23,9","999,N,-0018,1","99999,9,09561,1","2,1,020,1,+999,9","02,1","SYN100AAXX  02061 01047 11788 32710 11018 21067 39561 49933 52020 69912 70211 83070 333 21018 47018 70002;",
"01047099999","2010-11-02T09:00:00","4","69.0166667","23.0666667","307.0","KAUTOKEINO II, NO","FM-12","ENKA ","V020","270,1,N,0070,1","22000,1,9,N","070000,1,N,1","-0014,1","-0072,1","09956,1",,,,"1,1,03,1","0,1,03,1",,"05,99,1,03,1,04,1,01250,1,00,1,08,1",,,"99999,9,09584,1","2,1,023,1,+999,9","02,1","SYN072AAXX  02091 01047 41688 52707 11014 21072 39584 49956 52023 70210 83408;",
"01047099999","2010-11-02T12:00:00","4","69.0166667","23.0666667","307.0","KAUTOKEINO II, NO","FM-12","ENKA ","V020","160,1,N,0070,1","01500,1,9,N","070000,1,N,1","-0022,1","-0086,1","09977,1",,,,"2,1,06,1","2,1,06,1",,"08,99,1,08,1,00,1,01750,1,07,1,99,9",,,"99999,9,09604,1","1,1,020,1,+999,9","02,1","SYN072AAXX  02121 01047 41788 81607 11022 21086 39604 49977 51020 70222 8807/;",
"01047099999","2010-11-02T15:00:00","4","69.0166667","23.0666667","307.0","KAUTOKEINO II, NO","FM-12","ENKA ","V020","160,1,N,0050,1","01500,1,9,N","070000,1,N,1","-0034,1","-0091,1","09972,1",,,,"2,1,03,1","2,1,03,1",,"08,99,1,08,1,00,1,01750,1,07,1,99,9",,,"99999,9,09598,1","7,1,006,1,+999,9","02,1","SYN072AAXX  02151 01047 41788 81605 11034 21091 39598 49972 57006 70222 8807/;",
"01047099999","2010-11-02T18:00:00","4","69.0166667","23.0666667","307.0","KAUTOKEINO II, NO","FM-12","ENKA ","V020","180,1,N,0050,1","01500,1,9,N","070000,1,N,1","-0066,1","-0108,1","09958,1",,,,"2,1,06,1","2,1,06,1",,"08,99,1,08,1,00,1,01750,1,07,1,99,9",,"999,M,-0014,1","99999,9,09584,1","8,1,014,1,+999,9","02,1","SYN082AAXX  02181 01047 31788 81805 11066 21108 39584 49958 58014 70222 8807/ 333 11014;",
"01047099999","2010-11-03T00:00:00","4","69.0166667","23.0666667","307.0","KAUTOKEINO II, NO","FM-12","ENKA ","V020","180,1,N,0030,1","01200,1,9,N","005000,1,N,1","-0030,1","-0042,1","09898,1",,,,"7,1,06,1","2,1,06,1",,"08,99,1,08,1,00,1,01250,1,02,1,99,9",,,"99999,9,09527,1","7,1,020,1,+999,9","71,1","SYN072AAXX  03001 01047 41650 81803 11030 21042 39527 49898 57020 77172 8802/;",
"01047099999","2010-11-03T06:00:00","4","69.0166667","23.0666667","307.0","KAUTOKEINO II, NO","FM-12","ENKA ","V020","180,1,N,0030,1","01200,1,9,N","005000,1,N,1","-0016,1","-0025,1","09847,1","12,0030,9,2","24,0025,9,2","0020,9,1,999999,9,9","7,1,06,1","7,1,06,1",,"08,99,1,08,1,00,1,01250,1,02,1,99,9","23,9","999,N,-0066,1","99999,9,09478,1","7,1,020,1,+999,9","71,1","SYN100AAXX  03061 01047 11650 81803 11016 21025 39478 49847 57020 60032 77177 8802/ 333 21066 47020 70025;",
"01047099999","2010-11-03T09:00:00","4","69.0166667","23.0666667","307.0","KAUTOKEINO II, NO","FM-12","ENKA ","V020","180,1,N,0030,1","01200,1,9,N","070000,1,N,1","+0000,1","-0009,1","09832,1",,,,"7,1,03,1","2,1,03,1",,"08,99,1,08,1,00,1,01250,1,02,1,99,9",,,"99999,9,09465,1","6,1,013,1,+999,9","02,1","SYN072AAXX  03091 01047 41688 81803 10000 21009 39465 49832 56013 70272 8802/;",
"01047099999","2010-11-03T12:00:00","4","69.0166667","23.0666667","307.0","KAUTOKEINO II, NO","FM-12","ENKA ","V020","180,1,N,0030,1","01200,1,9,N","070000,1,N,1","+0002,1","-0008,1","09821,1",,,,"7,1,06,1","2,1,06,1",,"08,99,1,08,1,00,1,01250,1,02,1,99,9",,,"99999,9,09454,1","6,1,010,1,+999,9","22,1","SYN072AAXX  03121 01047 41688 81803 10002 21008 39454 49821 56010 72272 8802/;",
"01047099999","2010-11-03T15:00:00","4","69.0166667","23.0666667","307.0","KAUTOKEINO II, NO","FM-12","ENKA ","V020","180,1,N,0030,1","01200,1,9,N","070000,1,N,1","-0016,1","-0029,1","09821,1",,,,"7,1,03,1","2,1,03,1",,"08,99,1,08,1,00,1,01250,1,02,1,99,9",,,"99999,9,09454,1","4,1,000,1,+999,9","02,1","SYN072AAXX  03151 01047 41688 81803 11016 21029 39454 49821 54000 70272 8802/;",
"01047099999","2010-11-03T18:00:00","4","69.0166667","23.0666667","307.0","KAUTOKEINO II, NO","FM-12","ENKA ","V020","360,1,N,0030,1","01200,1,9,N","070000,1,N,1","-0038,1","-0058,1","09829,1","12,0005,9,1",,,"2,1,06,1","2,1,06,1",,"08,99,1,08,1,00,1,01250,1,02,1,99,9",,"999,M,+0002,1","99999,9,09460,1","2,1,007,1,+999,9","02,1","SYN088AAXX  03181 01047 11688 83603 11038 21058 39460 49829 52007 69942 70222 8802/ 333 10002;",
"01047099999","2010-11-04T00:00:00","4","69.0166667","23.0666667","307.0","KAUTOKEINO II, NO","FM-12","ENKA ","V020","999,9,C,0000,1","01200,1,9,N","070000,1,N,1","-0050,1","-0070,1","09836,1",,,,"2,1,06,1","2,1,06,1",,"08,99,1,08,1,00,1,01250,1,02,1,99,9",,,"99999,9,09467,1","2,1,003,1,+999,9","02,1","SYN072AAXX  04001 01047 41688 80000 11050 21070 39467 49836 52003 70222 8802/;",
"01047099999","2010-11-04T06:00:00","4","69.0166667","23.0666667","307.0","KAUTOKEINO II, NO","FM-12","ENKA ","V020","999,9,C,0000,1","01200,1,9,N","070000,1,N,1","-0048,1","-0060,1","09846,1","24,0005,9,1",,"0020,9,1,999999,9,9","2,1,06,1","2,1,06,1",,"08,99,1,08,1,00,1,01250,1,02,1,99,9","23,9","999,N,-0055,1","99999,9,09476,1","1,1,002,1,+999,9","02,1","SYN094AAXX  04061 01047 31688 80000 11048 21060 39476 49846 51002 70222 8802/ 333 21055 47020 70004;",
"01047099999","2010-11-04T09:00:00","4","69.0166667","23.0666667","307.0","KAUTOKEINO II, NO","FM-12","ENKA ","V020","999,9,C,0000,1","01200,1,9,N","070000,1,N,1","-0010,1","-0021,1","09857,1",,,,"2,1,03,1","2,1,03,1",,"08,99,1,05,1,05,1,01250,1,02,1,99,9",,,"99999,9,09489,1","3,1,012,1,+999,9","02,1","SYN072AAXX  04091 01047 41688 80000 11010 21021 39489 49857 53012 70222 8552/;",
"01047099999","2010-11-04T12:00:00","4","69.0166667","23.0666667","307.0","KAUTOKEINO II, NO","FM-12","ENKA ","V020","360,1,N,0050,1","00750,1,9,N","070000,1,N,1","-0002,1","-0027,1","09878,1",,,,"2,1,06,1","2,1,06,1",,"08,99,1,08,1,05,1,00800,1,99,9,99,9",,,"99999,9,09509,1","3,1,021,1,+999,9","02,1","SYN072AAXX  04121 01047 41588 83605 11002 21027 39509 49878 53021 70222 885//;",
"01047099999","2010-11-04T15:00:00","4","69.0166667","23.0666667","307.0","KAUTOKEINO II, NO","FM-12","ENKA ","V020","360,1,N,0070,1","00750,1,9,N","070000,1,N,1","-0016,1","-0045,1","09893,1",,,,"2,1,03,1","2,1,03,1",,"06,99,1,06,1,05,1,00800,1,00,1,00,1",,,"99999,9,09523,1","1,1,013,1,+999,9","02,1","SYN072AAXX  04151 01047 41588 63607 11016 21045 39523 49893 51013 70222 86500;",
"01047099999","2010-11-04T18:00:00","4","69.0166667","23.0666667","307.0","KAUTOKEINO II, NO","FM-12","ENKA ","V020","360,1,N,0030,1","00750,1,9,N","070000,1,N,1","-0052,1","-0081,1","09913,1",,,,"2,1,06,1","2,1,06,1",,"05,99,1,05,1,05,1,00800,1,00,1,00,1",,"999,M,+0000,1","99999,9,09541,1","2,1,018,1,+999,9","02,1","SYN082AAXX  04181 01047 31588 53603 11052 21081 39541 49913 52018 70222 85500 333 10000;",
"01047099999","2010-11-05T00:00:00","4","69.0166667","23.0666667","307.0","KAUTOKEINO II, NO","FM-12","ENKA ","V020","320,1,N,0030,1","00750,1,9,N","070000,1,N,1","-0102,1","-0120,1","09953,1",,,,"2,1,06,1","2,1,06,1",,"05,99,1,05,1,05,1,00800,1,00,1,00,1",,,"99999,9,09577,1","2,1,015,1,+999,9","02,1","SYN072AAXX  05001 01047 41588 53203 11102 21120 39577 49953 52015 70222 85500;",
"01047099999","2010-11-05T06:00:00","4","69.0166667","23.0666667","307.0","KAUTOKEINO II, NO","FM-12","ENKA ","V020","999,9,C,0000,1","22000,1,9,N","070000,1,N,1","-0174,1","-0190,1","09974,1","24,0000,9,1",,"0020,9,1,999999,9,9","2,1,06,1","0,1,06,1","00,1,+99999,9,99,9","00,99,1,00,1,00,1,99999,9,00,1,00,1","23,9","999,N,-0174,1","99999,9,09594,1","1,1,006,1,+999,9","02,1","SYN088AAXX  05061 01047 31988 00000 11174 21190 39594 49974 51006 70220 333 21174 47020 70000;","Q01  00002PRCP24"
"01047099999","2010-11-05T09:00:00","4","69.0166667","23.0666667","307.0","KAUTOKEINO II, NO","FM-12","ENKA ","V020","180,1,N,0030,1","22000,1,9,N","070000,1,N,1","-0179,1","-0197,1","09982,1",,,,"0,1,03,1","0,1,03,1",,"04,99,1,04,1,00,1,01750,1,07,1,00,1",,,"99999,9,09602,1","2,1,008,1,+999,9","02,1","SYN072AAXX  05091 01047 41788 41803 11179 21197 39602 49982 52008 70200 84070;",
"01047099999","2010-11-05T12:00:00","4","69.0166667","23.0666667","307.0","KAUTOKEINO II, NO","FM-12","ENKA ","V020","180,1,N,0030,1","01500,1,9,N","070000,1,N,1","-0170,1","-0188,1","09990,1",,,,"2,1,06,1","2,1,06,1",,"08,99,1,08,1,00,1,01750,1,07,1,99,9",,,"99999,9,09610,1","1,1,008,1,+999,9","02,1","SYN072AAXX  05121 01047 41788 81803 11170 21188 39610 49990 51008 70222 8807/;",
"01047099999","2010-11-05T15:00:00","4","69.0166667","23.0666667","307.0","KAUTOKEINO II, NO","FM-12","ENKA ","V020","180,1,N,0030,1","01500,1,9,N","070000,1,N,1","-0171,1","-0189,1","09988,1",,,,"2,1,03,1","2,1,03,1",,"08,99,1,08,1,00,1,01750,1,07,1,99,9",,,"99999,9,09608,1","4,1,000,1,+999,9","02,1","SYN072AAXX  05151 01047 41788 81803 11171 21189 39608 49988 54000 70222 8807/;",
"01047099999","2010-11-05T18:00:00","4","69.0166667","23.0666667","307.0","KAUTOKEINO II, NO","FM-12","ENKA ","V020","180,1,N,0030,1","00750,1,9,N","070000,1,N,1","-0164,1","-0183,1","09988,1",,,,"2,1,06,1","2,1,06,1",,"08,99,1,08,1,05,1,00800,1,99,9,99,9",,"999,M,-0085,1","99999,9,09608,1","4,1,000,1,+999,9","02,1","SYN082AAXX  05181 01047 31588 81803 11164 21183 39608 49988 54000 70222 885// 333 11085;",
"01047099999","2010-11-06T00:00:00","4","69.0166667","23.0666667","307.0","KAUTOKEINO II, NO","FM-12","ENKA ","V020","180,1,N,0030,1","22000,1,9,N","070000,1,N,1","-0178,1","-0196,1","09978,1",,,,"2,1,06,1","2,1,06,1",,"04,99,1,04,1,05,1,00800,1,00,1,00,1",,,"99999,9,09597,1","8,1,008,1,+999,9","02,1","SYN072AAXX  06001 01047 41588 41803 11178 21196 39597 49978 58008 70222 84500;",
"01047099999","2010-11-06T06:00:00","4","69.0166667","23.0666667","307.0","KAUTOKEINO II, NO","FM-12","ENKA ","V020","999,9,C,0000,1","00750,1,9,N","070000,1,N,1","-0140,1","-0160,1","09961,1","24,0000,9,1",,"0020,9,1,999999,9,9","2,1,06,1","2,1,06,1",,"07,99,1,07,1,05,1,00800,1,00,1,00,1","23,9","999,N,-0186,1","99999,9,09583,1","7,1,006,1,+999,9","02,1","SYN094AAXX  06061 01047 31588 70000 11140 21160 39583 49961 57006 70222 87500 333 21186 47020 70000;","Q01  00002PRCP24"
"01047099999","2010-11-06T09:00:00","4","69.0166667","23.0666667","307.0","KAUTOKEINO II, NO","FM-12","ENKA ","V020","999,9,C,0000,1","01200,1,9,N","065000,1,N,1","-0115,1","-0132,1","09956,1",,,,"2,1,03,1","2,1,03,1",,"08,99,1,08,1,00,1,01250,1,02,1,99,9",,,"99999,9,09580,1","6,1,003,1,+999,9","02,1","SYN072AAXX  06091 01047 41687 80000 11115 21132 39580 49956 56003 70222 8802/;",
"01047099999","2010-11-06T12:00:00","4","69.0166667","23.0666667","307.0","KAUTOKEINO II, NO","FM-12","ENKA ","V020","999,9,C,0000,1","00750,1,9,N","020000,1,N,1","-0094,1","-0112,1","09949,1",,,,"7,1,06,1","2,1,06,1",,"08,99,1,06,1,07,1,00800,1,02,1,99,9",,,"99999,9,09574,1","7,1,006,1,+999,9","70,1","SYN072AAXX  06121 01047 41570 80000 11094 21112 39574 49949 57006 77072 8672/;",
"01047099999","2010-11-06T15:00:00","4","69.0166667","23.0666667","307.0","KAUTOKEINO II, NO","FM-12","ENKA ","V020","180,1,N,0010,1","00750,1,9,N","070000,1,N,1","-0092,1","-0105,1","09945,1",,,,"7,1,03,1","2,1,03,1",,"08,99,1,08,1,05,1,00800,1,99,9,99,9",,,"99999,9,09570,1","6,1,004,1,+999,9","02,1","SYN072AAXX  06151 01047 41588 81801 11092 21105 39570 49945 56004 70272 885//;",
"01047099999","2010-11-06T18:00:00","4","69.0166667","23.0666667","307.0","KAUTOKEINO II, NO","FM-12","ENKA ","V020","360,1,N,0030,1","00750,1,9,N","070000,1,N,1","-0088,1","-0101,1","09942,1","12,0000,2,1",,,"2,1,06,1","2,1,06,1",,"08,99,1,08,1,05,1,00800,1,99,9,99,9",,"999,M,-0078,1","99999,9,09567,1","7,1,003,1,+999,9","02,1","SYN088AAXX  06181 01047 11588 83603 11088 21101 39567 49942 57003 69912 70222 885// 333 11078;",
"01047099999","2010-11-07T00:00:00","4","69.0166667","23.0666667","307.0","KAUTOKEINO II, NO","FM-12","ENKA ","V020","999,9,C,0000,1","22000,1,9,N","070000,1,N,1","-0192,1","-0211,1","09945,1",,,,"2,1,06,1","2,1,06,1",,"03,99,1,03,1,05,1,00800,1,00,1,00,1",,,"99999,9,09566,1","4,1,000,1,+999,9","01,1","SYN072AAXX  07001 01047 41588 30000 11192 21211 39566 49945 54000 70122 83500;",
"01047099999","2010-11-07T06:00:00","4","69.0166667","23.0666667","307.0","KAUTOKEINO II, NO","FM-12","ENKA ","V020","999,9,C,0000,1","01200,1,9,N","005000,1,N,1","-0191,1","-0210,1","09941,1","24,0000,2,1",,"0020,9,1,999999,9,9","2,1,06,1","2,1,06,1",,"08,99,1,08,1,00,1,01250,1,02,1,99,9","23,9","999,N,-0204,1","99999,9,09562,1","8,1,003,1,+999,9","10,1","SYN094AAXX  07061 01047 31650 80000 11191 21210 39562 49941 58003 71022 8802/ 333 21204 47020 70001;",
"01047099999","2010-11-07T09:00:00","4","69.0166667","23.0666667","307.0","KAUTOKEINO II, NO","FM-12","ENKA ","V020","999,9,C,0000,1","00030,1,9,N","000200,1,N,1","-0188,1","-0210,1","09950,1",,,,"4,1,03,1","2,1,03,1","09,1,+99999,9,99,9","09,99,1,09,1,99,9,99999,9,99,9,99,9",,,"99999,9,09571,1","5,1,006,1,+999,9","45,1","SYN066AAXX  07091 01047 41/02 90000 11188 21210 39571 49950 55006 74542;",
"01047099999","2010-11-07T12:00:00","4","69.0166667","23.0666667","307.0","KAUTOKEINO II, NO","FM-12","ENKA ","V020","360,1,N,0010,1","01200,1,9,N","070000,1,N,1","-0175,1","-0197,1","09944,1",,,,"4,1,06,1","2,1,06,1",,"08,99,1,08,1,00,1,01250,1,02,1,99,9",,,"99999,9,09566,1","8,1,005,1,+999,9","02,1","SYN072AAXX  07121 01047 41688 83601 11175 21197 39566 49944 58005 70242 8802/;",
"01047099999","2010-11-07T15:00:00","4","69.0166667","23.0666667","307.0","KAUTOKEINO II, NO","FM-12","ENKA ","V020","360,1,N,0010,1","00015,1,9,N","000100,1,N,1","-0166,1","-0188,1","09941,1",,,,"4,1,03,1","2,1,03,1","09,1,+99999,9,99,9","09,99,1,09,1,99,9,99999,9,99,9,99,9",,,"99999,9,09563,1","6,1,003,1,+999,9","47,1","SYN066AAXX  07151 01047 41/01 93601 11166 21188 39563 49941 56003 74742;",
"01047099999","2010-11-07T18:00:00","4","69.0166667","23.0666667","307.0","KAUTOKEINO II, NO","FM-12","ENKA ","V020","360,1,N,0010,1","00030,1,9,N","000200,1,N,1","-0160,1","-0181,1","09939,1",,,,"4,1,06,1","2,1,06,1","09,1,+99999,9,99,9","09,99,1,09,1,99,9,99999,9,99,9,99,9",,"999,M,-0116,1","99999,9,09561,1","6,1,002,1,+999,9","45,1","SYN076AAXX  07181 01047 31/02 93601 11160 21181 39561 49939 56002 74542 333 11116;",
"01047099999","2010-11-08T00:00:00","4","69.0166667","23.0666667","307.0","KAUTOKEINO II, NO","FM-12","ENKA ","V020","360,1,N,0030,1","22000,1,9,N","070000,1,N,1","-0158,1","-0177,1","09929,1",,,,"7,1,06,1","4,1,06,1","00,1,+99999,9,99,9","00,99,1,00,1,00,1,99999,9,00,1,00,1",,,"99999,9,09552,1","7,1,005,1,+999,9","02,1","SYN066AAXX  08001 01047 41988 03603 11158 21177 39552 49929 57005 70274;",
"01047099999","2010-11-08T06:00:00","4","69.0166667","23.0666667","307.0","KAUTOKEINO II, NO","FM-12","ENKA ","V020","220,1,N,0030,1","22000,1,9,N","070000,1,N,1","-0159,1","-0178,1","09924,1","12,0000,9,1","24,0000,9,1","0020,9,1,999999,9,9","7,1,06,1","4,1,06,1",,"04,99,1,04,1,04,1,01250,1,00,1,00,1","23,9","999,N,-0170,1","99999,9,09547,1","6,1,003,1,+999,9","02,1","SYN100AAXX  08061 01047 11688 42203 11159 21178 39547 49924 56003 69912 70274 84400 333 21170 47020 70001;","Q01  00002PRCP24Q02  00002PRCP12"
"01047099999","2010-11-08T09:00:00","4","69.0166667","23.0666667","307.0","KAUTOKEINO II, NO","FM-12","ENKA ","V020","999,9,C,0000,1","22000,1,9,N","070000,1,N,1","-0200,1","-0222,1","09944,1",,,,"0,1,03,1","0,1,03,1",,"01,99,1,00,1,00,1,99999,9,00,1,01,1",,,"99999,9,09565,1","3,1,017,1,+999,9","02,1","SYN072AAXX  08091 01047 41988 10000 11200 21222 39565 49944 53017 70200 80001;",
"01047099999","2010-11-08T12:00:00","4","69.0166667","23.0666667","307.0","KAUTOKEINO II, NO","FM-12","ENKA ","V020","999,9,C,0000,1","22000,1,9,N","070000,1,N,1","-0201,1","-0224,1","09962,1",,,,"1,1,06,1","0,1,06,1",,"03,99,1,00,1,00,1,99999,9,00,1,01,1",,,"99999,9,09582,1","2,1,017,1,+999,9","02,1","SYN072AAXX  08121 01047 41988 30000 11201 21224 39582 49962 52017 70210 80001;",
"01047099999","2010-11-08T15:00:00","4","69.0166667","23.0666667","307.0","KAUTOKEINO II, NO","FM-12","ENKA ","V020","180,1,N,0030,1","22000,1,9,N","070000,1,N,1","-0224,1","-0247,1","09987,1",,,,"0,1,03,1","0,1,03,1",,"04,99,1,04,1,00,1,01750,1,07,1,00,1",,,"99999,9,09605,1","2,1,023,1,+999,9","02,1","SYN072AAXX  08151 01047 41788 41803 11224 21247 39605 49987 52023 70200 84070;",
"01047099999","2010-11-08T18:00:00","4","69.0166667","23.0666667","307.0","KAUTOKEINO II, NO","FM-12","ENKA ","V020","360,1,N,0010,1","22000,1,9,N","070000,1,N,1","-0211,1","-0236,1","10011,1",,,,"0,1,06,1","0,1,06,1",,"03,99,1,03,1,00,1,01750,1,07,1,00,1",,"999,M,-0135,1","99999,9,09628,1","2,1,023,1,+999,9","02,1","SYN082AAXX  08181 01047 31788 33601 11211 21236 39628 40011 52023 70200 83070 333 11135;",
"01047099999","2010-11-09T00:00:00","4","69.0166667","23.0666667","307.0","KAUTOKEINO II, NO","FM-12","ENKA ","V020","180,1,N,0050,1","00750,1,9,N","070000,1,N,1","-0165,1","-0189,1","10052,1",,,,"2,1,06,1","0,1,06,1",,"08,99,1,08,1,05,1,00800,1,99,9,99,9",,,"99999,9,09670,1","2,1,020,1,+999,9","02,1","SYN072AAXX  09001 01047 41588 81805 11165 21189 39670 40052 52020 70220 885//;",
"01047099999","2010-11-09T06:00:00","4","69.0166667","23.0666667","307.0","KAUTOKEINO II, NO","FM-12","ENKA ","V020","999,9,C,0000,1","22000,1,9,N","070000,1,N,1","-0239,1","-0260,1","10087,1","24,0000,9,1",,"0020,9,1,999999,9,9","2,1,06,1","0,1,06,1","00,1,+99999,9,99,9","00,99,1,00,1,00,1,99999,9,00,1,00,1","23,9","999,N,-0239,1","99999,9,09700,1","2,1,010,1,+999,9","02,1","SYN088AAXX  09061 01047 31988 00000 11239 21260 39700 40087 52010 70220 333 21239 47020 70000;","Q01  00002PRCP24"
"01047099999","2010-11-09T09:00:00","4","69.0166667","23.0666667","307.0","KAUTOKEINO II, NO","FM-12","ENKA ","V020","999,9,C,0000,1","00750,1,9,N","025000,1,N,1","-0248,1","-0269,1","10100,1",,,,"2,1,03,1","2,1,03,1",,"06,99,1,06,1,05,1,00800,1,00,1,00,1",,,"99999,9,09712,1","2,1,013,1,+999,9","10,1","SYN072AAXX  09091 01047 41575 60000 11248 21269 39712 40100 52013 71022 86500;",
"01047099999","2010-11-09T12:00:00","4","69.0166667","23.0666667","307.0","KAUTOKEINO II, NO","FM-12","ENKA ","V020","999,9,C,0000,1","00750,1,9,N","020000,1,N,1","-0220,1","-0243,1","10099,1",,,,"2,1,06,1","2,1,06,1",,"07,99,1,07,1,05,1,00800,1,00,1,00,1",,,"99999,9,09712,1","4,1,000,1,+999,9","10,1","SYN072AAXX  09121 01047 41570 70000 11220 21243 39712 40099 54000 71022 87500;",
"01047099999","2010-11-09T15:00:00","4","69.0166667","23.0666667","307.0","KAUTOKEINO II, NO","FM-12","ENKA ","V020","999,9,C,0000,1","00750,1,9,N","025000,1,N,1","-0174,1","-0198,1","10092,1",,,,"2,1,03,1","2,1,03,1",,"08,99,1,08,1,05,1,00800,1,99,9,99,9",,,"99999,9,09707,1","8,1,005,1,+999,9","02,1","SYN072AAXX  09151 01047 41575 80000 11174 21198 39707 40092 58005 70222 885//;",
"01047099999","2010-11-09T18:00:00","4","69.0166667","23.0666667","307.0","KAUTOKEINO II, NO","FM-12","ENKA ","V020","180,1,N,0050,1","00750,1,9,N","070000,1,N,1","-0110,1","-0125,1","10090,1",,,,"2,1,06,1","2,1,06,1",,"07,99,1,07,1,05,1,00800,1,00,1,00,1",,"999,M,-0100,1","99999,9,09708,1","4,1,000,1,+999,9","02,1","SYN082AAXX  09181 01047 31588 71805 11110 21125 39708 40090 54000 70222 87500 333 11100;",
"01047099999","2010-11-10T00:00:00","4","69.0166667","23.0666667","307.0","KAUTOKEINO II, NO","FM-12","ENKA ","V020","180,1,N,0050,1","00750,1,9,N","070000,1,N,1","-0150,1","-0166,1","10102,1",,,,"2,1,06,1","2,1,06,1",,"05,99,1,05,1,05,1,00800,1,00,1,00,1",,,"99999,9,09718,1","2,1,005,1,+999,9","02,1","SYN072AAXX  10001 01047 41588 51805 11150 21166 39718 40102 52005 70222 85500;",
"01047099999","2010-11-10T06:00:00","4","69.0166667","23.0666667","307.0","KAUTOKEINO II, NO","FM-12","ENKA ","V020","999,9,C,0000,1","00750,1,9,N","025000,1,N,1","-0186,1","-0207,1","10108,1","24,0000,9,1",,"0019,9,1,999999,9,9","2,1,06,1","2,1,06,1",,"08,99,1,08,1,05,1,00800,1,99,9,99,9","23,9","999,N,-0186,1","99999,9,09723,1","1,1,002,1,+999,9","02,1","SYN094AAXX  10061 01047 31575 80000 11186 21207 39723 40108 51002 70222 885// 333 21186 47019 70000;","Q01  00002PRCP24"
"01047099999","2010-11-10T09:00:00","4","69.0166667","23.0666667","307.0","KAUTOKEINO II, NO","FM-12","ENKA ","V020","180,1,N,0010,1","01200,1,9,N","030000,1,N,1","-0190,1","-0211,1","10114,1",,,,"2,1,03,1","2,1,03,1",,"08,99,1,08,1,00,1,01250,1,02,1,99,9",,,"99999,9,09728,1","1,1,006,1,+999,9","02,1","SYN072AAXX  10091 01047 41680 81801 11190 21211 39728 40114 51006 70222 8802/;",
"01047099999","2010-11-10T12:00:00","4","69.0166667","23.0666667","307.0","KAUTOKEINO II, NO","FM-12","ENKA ","V020","320,1,N,0030,1","99999,9,9,N","002000,1,N,1","-0190,1","-0212,1","10108,1",,,,"2,1,06,1","2,1,06,1",,"08,99,1,08,1,00,1,01250,1,01,1,99,9",,,"99999,9,09723,1","8,1,006,1,+999,9","10,1","SYN072AAXX  10121 01047 41620 83203 11190 21212 39723 40108 58006 71022 8801/;",
"01047099999","2010-11-10T15:00:00","4","69.0166667","23.0666667","307.0","KAUTOKEINO II, NO","FM-12","ENKA ","V020","320,1,N,0050,1","01200,1,9,N","030000,1,N,1","-0188,1","-0210,1","10102,1",,,,"2,1,03,1","2,1,03,1",,"08,99,1,08,1,00,1,01250,1,02,1,99,9",,,"99999,9,09717,1","6,1,006,1,+999,9","02,1","SYN072AAXX  10151 01047 41680 83205 11188 21210 39717 40102 56006 70222 8802/;",
"01047099999","2010-11-10T18:00:00","4","69.0166667","23.0666667","307.0","KAUTOKEINO II, NO","FM-12","ENKA ","V020","340,1,N,0050,1","01200,1,9,N","030000,1,N,1","-0170,1","-0192,1","10093,1",,,,"2,1,06,1","2,1,06,1",,"08,99,1,08,1,00,1,01250,1,02,1,99,9",,"999,M,-0120,1","99999,9,09709,1","7,1,008,1,+999,9","02,1","SYN082AAXX  10181 01047 31680 83405 11170 21192 39709 40093 57008 70222 8802/ 333 11120;",
"01047099999","2010-11-11T00:00:00","4","69.0166667","23.0666667","307.0","KAUTOKEINO II, NO","FM-12","ENKA ","V020","320,1,N,0050,1","00750,1,9,N","010000,1,N,1","-0134,1","-0153,1","10054,1",,,,"7,1,06,1","2,1,06,1",,"08,99,1,06,1,07,1,00800,1,02,1,99,9",,,"99999,9,09673,1","8,1,015,1,+999,9","71,1","SYN072AAXX  11001 01047 41560 83205 11134 21153 39673 40054 58015 77172 8672/;",
"01047099999","2010-11-11T06:00:00","4","69.0166667","23.0666667","307.0","KAUTOKEINO II, NO","FM-12","ENKA ","V020","999,9,C,0000,1","01200,1,9,N","065000,1,N,1","-0092,1","-0108,1","10015,1","12,0000,2,1","24,0003,9,1","0020,9,1,999999,9,9","7,1,06,1","2,1,06,1",,"08,99,1,08,1,00,1,01250,1,02,1,99,9","23,9","999,N,-0171,1","99999,9,09637,1","7,1,012,1,+999,9","02,1","SYN100AAXX  11061 01047 11687 80000 11092 21108 39637 40015 57012 69922 70272 8802/ 333 21171 47020 70002;",
"01047099999","2010-11-11T09:00:00","4","69.0166667","23.0666667","307.0","KAUTOKEINO II, NO","FM-12","ENKA ","V020","360,1,N,0050,1","00750,1,9,N","070000,1,N,1","-0069,1","-0080,1","09998,1",,,,"2,1,03,1","2,1,03,1",,"08,99,1,08,1,05,1,00800,1,99,9,99,9",,,"99999,9,09622,1","7,1,014,1,+999,9","02,1","SYN072AAXX  11091 01047 41588 83605 11069 21080 39622 49998 57014 70222 885//;",
"01047099999","2010-11-11T12:00:00","4","69.0166667","23.0666667","307.0","KAUTOKEINO II, NO","FM-12","ENKA ","V020","360,1,N,0030,1","01200,1,9,N","070000,1,N,1","-0050,1","-0061,1","09979,1",,,,"2,1,06,1","2,1,06,1",,"08,99,1,08,1,00,1,01250,1,02,1,99,9",,,"99999,9,09605,1","7,1,017,1,+999,9","02,1","SYN072AAXX  11121 01047 41688 83603 11050 21061 39605 49979 57017 70222 8802/;",
"01047099999","2010-11-11T15:00:00","4","69.0166667","23.0666667","307.0","KAUTOKEINO II, NO","FM-12","ENKA ","V020","320,1,N,0030,1","01200,1,9,N","070000,1,N,1","-0056,1","-0064,1","09961,1",,,,"2,1,03,1","2,1,03,1",,"08,99,1,08,1,00,1,01250,1,02,1,99,9",,,"99999,9,09587,1","7,1,018,1,+999,9","02,1","SYN072AAXX  11151 01047 41688 83203 11056 21064 39587 49961 57018 70222 8802/;",
"01047099999","2010-11-11T18:00:00","4","69.0166667","23.0666667","307.0","KAUTOKEINO II, NO","FM-12","ENKA ","V020","320,1,N,0030,1","01200,1,9,N","070000,1,N,1","-0051,1","-0059,1","09944,1",,,,"2,1,06,1","2,1,06,1",,"08,99,1,08,1,00,1,01250,1,02,1,99,9",,"999,M,-0048,1","99999,9,09571,1","7,1,016,1,+999,9","02,1","SYN082AAXX  11181 01047 31688 83203 11051 21059 39571 49944 57016 70222 8802/ 333 11048;",
"01047099999","2010-11-12T00:00:00","4","69.0166667","23.0666667","307.0","KAUTOKEINO II, NO","FM-12","ENKA ","V020","360,1,N,0050,1","00750,1,9,N","002000,1,N,1","-0040,1","-0049,1","09900,1",,,,"7,1,06,1","2,1,06,1",,"08,99,1,06,1,07,1,00800,1,02,1,99,9",,,"99999,9,09529,1","7,1,015,1,+999,9","71,1","SYN072AAXX  12001 01047 41520 83605 11040 21049 39529 49900 57015 77172 8672/;",
"01047099999","2010-11-12T06:00:00","4","69.0166667","23.0666667","307.0","KAUTOKEINO II, NO","FM-12","ENKA ","V020","360,1,N,0030,1","00750,1,9,N","010000,1,N,1","-0037,1","-0046,1","09871,1","12,0030,9,2","24,0028,9,2","0023,9,1,999999,9,9","7,1,06,1","2,1,06,1",,"08,99,1,06,1,07,1,00800,1,02,1,99,9","24,9","999,N,-0051,1","99999,9,09501,1","7,1,008,1,+999,9","70,1","SYN100AAXX  12061 01047 11560 83603 11037 21046 39501 49871 57008 60032 77072 8672/ 333 21051 48023 70028;",
"01047099999","2010-11-12T09:00:00","4","69.0166667","23.0666667","307.0","KAUTOKEINO II, NO","FM-12","ENKA ","V020","360,1,N,0030,1","01200,1,9,N","004000,1,N,1","-0034,1","-0045,1","09863,1",,,,"7,1,03,1","7,1,03,1",,"08,99,1,08,1,00,1,01250,1,02,1,99,9",,,"99999,9,09493,1","6,1,009,1,+999,9","71,1","SYN072AAXX  12091 01047 41640 83603 11034 21045 39493 49863 56009 77177 8802/;",
"01047099999","2010-11-12T12:00:00","4","69.0166667","23.0666667","307.0","KAUTOKEINO II, NO","FM-12","ENKA ","V020","360,1,N,0030,1","01200,1,9,N","001500,1,N,1","-0028,1","-0039,1","09856,1",,,,"7,1,06,1","7,1,06,1",,"08,99,1,08,1,00,1,01250,1,02,1,99,9",,,"99999,9,09487,1","6,1,006,1,+999,9","73,1","SYN072AAXX  12121 01047 41615 83603 11028 21039 39487 49856 56006 77377 8802/;",
"01047099999","2010-11-12T15:00:00","4","69.0166667","23.0666667","307.0","KAUTOKEINO II, NO","FM-12","ENKA ","V020","360,1,N,0030,1","01200,1,9,N","002000,1,N,1","-0032,1","-0041,1","09848,1",,,,"7,1,03,1","7,1,03,1",,"08,99,1,08,1,00,1,01250,1,02,1,99,9",,,"99999,9,09479,1","7,1,008,1,+999,9","71,1","SYN072AAXX  12151 01047 41620 83603 11032 21041 39479 49848 57008 77177 8802/;",
"01047099999","2010-11-12T18:00:00","4","69.0166667","23.0666667","307.0","KAUTOKEINO II, NO","FM-12","ENKA ","V020","360,1,N,0010,1","01200,1,9,N","006000,1,N,1","-0038,1","-0047,1","09842,1","12,0020,9,1",,,"7,1,06,1","7,1,06,1",,"08,99,1,08,1,00,1,01250,1,02,1,99,9",,"999,M,-0018,1","99999,9,09473,1","6,1,005,1,+999,9","71,1","SYN088AAXX  12181 01047 11656 83601 11038 21047 39473 49842 56005 60022 77177 8802/ 333 11018;",
"01047099999","2010-11-13T00:00:00","4","69.0166667","23.0666667","307.0","KAUTOKEINO II, NO","FM-12","ENKA ","V020","999,9,C,0000,1","01200,1,9,N","010000,1,N,1","-0050,1","-0058,1","09828,1",,,,"7,1,06,1","7,1,06,1",,"08,99,1,08,1,00,1,01250,1,02,1,99,9",,,"99999,9,09459,1","7,1,005,1,+999,9","71,1","SYN072AAXX  13001 01047 41660 80000 11050 21058 39459 49828 57005 77177 8802/;",
"01047099999","2010-11-13T06:00:00","4","69.0166667","23.0666667","307.0","KAUTOKEINO II, NO","FM-12","ENKA ","V020","999,9,C,0000,1","01200,1,9,N","065000,1,N,1","-0063,1","-0071,1","09820,1","12,0010,9,1","24,0028,9,1","0030,9,1,999999,9,9","7,1,06,1","2,1,06,1",,"08,99,1,08,1,00,1,01250,1,02,1,99,9","23,9","999,N,-0063,1","99999,9,09451,1","6,1,003,1,+999,9","02,1","SYN100AAXX  13061 01047 11687 80000 11063 21071 39451 49820 56003 60012 70272 8802/ 333 21063 47030 70027;",
"01047099999","2010-11-13T09:00:00","4","69.0166667","23.0666667","307.0","KAUTOKEINO II, NO","FM-12","ENKA ","V020","180,1,N,0030,1","01200,1,9,N","070000,1,N,1","-0066,1","-0074,1","09818,1",,,,"2,1,03,1","2,1,03,1",,"08,99,1,08,1,00,1,01250,1,02,1,99,9",,,"99999,9,09449,1","4,1,000,1,+999,9","02,1","SYN072AAXX  13091 01047 41688 81803 11066 21074 39449 49818 54000 70222 8802/;",
"01047099999","2010-11-13T12:00:00","4","69.0166667","23.0666667","307.0","KAUTOKEINO II, NO","FM-12","ENKA ","V020","180,1,N,0030,1","01200,1,9,N","003000,1,N,1","-0064,1","-0072,1","09819,1",,,,"2,1,06,1","2,1,06,1",,"08,99,1,08,1,00,1,01250,1,02,1,99,9",,,"99999,9,09450,1","4,1,000,1,+999,9","10,1","SYN072AAXX  13121 01047 41630 81803 11064 21072 39450 49819 54000 71022 8802/;",
"01047099999","2010-11-13T15:00:00","4","69.0166667","23.0666667","307.0","KAUTOKEINO II, NO","FM-12","ENKA ","V020","180,1,N,0010,1","00015,1,9,N","000000,1,N,1","-0063,1","-0071,1","09821,1",,,,"4,1,03,1","2,1,03,1","09,1,+99999,9,99,9","09,99,1,09,1,99,9,99999,9,99,9,99,9",,,"99999,9,09452,1","4,1,000,1,+999,9","49,1","SYN066AAXX  13151 01047 41/00 91801 11063 21071 39452 49821 54000 74942;",
"01047099999","2010-11-13T18:00:00","4","69.0166667","23.0666667","307.0","KAUTOKEINO II, NO","FM-12","ENKA ","V020","999,9,C,0000,1","00015,1,9,N","000100,1,N,1","-0061,1","-0068,1","09823,1",,,,"4,1,06,1","2,1,06,1","09,1,+99999,9,99,9","09,99,1,09,1,99,9,99999,9,99,9,99,9",,"999,M,-0043,1","99999,9,09453,1","1,1,002,1,+999,9","45,1","SYN076AAXX  13181 01047 31/01 90000 11061 21068 39453 49823 51002 74542 333 11043;",
"01047099999","2010-11-14T00:00:00","4","69.0166667","23.0666667","307.0","KAUTOKEINO II, NO","FM-12","ENKA ","V020","180,1,N,0050,1","00420,1,9,N","040000,1,N,1","-0104,1","-0115,1","09840,1",,,,"4,1,06,1","2,1,06,1",,"08,99,1,08,1,06,1,00450,1,99,9,99,9",,,"99999,9,09468,1","2,1,008,1,+999,9","02,1","SYN072AAXX  14001 01047 41482 81805 11104 21115 39468 49840 52008 70242 886//;",
"01047099999","2010-11-14T06:00:00","4","69.0166667","23.0666667","307.0","KAUTOKEINO II, NO","FM-12","ENKA ","V020","180,1,N,0050,1","00420,1,9,N","065000,1,N,1","-0118,1","-0131,1","09863,1","24,0000,9,1",,"0030,9,1,999999,9,9","4,1,06,1","2,1,06,1",,"08,99,1,08,1,06,1,00450,1,99,9,99,9","23,9","999,N,-0118,1","99999,9,09490,1","2,1,007,1,+999,9","02,1","SYN094AAXX  14061 01047 31487 81805 11118 21131 39490 49863 52007 70242 886// 333 21118 47030 70000;","Q01  00002PRCP24"
"01047099999","2010-11-14T09:00:00","4","69.0166667","23.0666667","307.0","KAUTOKEINO II, NO","FM-12","ENKA ","V020","180,1,N,0050,1","00420,1,9,N","030000,1,N,1","-0111,1","-0126,1","09885,1",,,,"2,1,03,1","2,1,03,1",,"08,99,1,08,1,06,1,00450,1,99,9,99,9",,,"99999,9,09511,1","2,1,020,1,+999,9","02,1","SYN072AAXX  14091 01047 41480 81805 11111 21126 39511 49885 52020 70222 886//;",
"01047099999","2010-11-14T12:00:00","4","69.0166667","23.0666667","307.0","KAUTOKEINO II, NO","FM-12","ENKA ","V020","999,9,C,0000,1","03000,1,9,N","070000,1,N,1","+9999,9","+9999,9","09886,1",,,,"2,1,06,1","2,1,06,1",,"07,99,1,02,1,04,1,00800,1,07,1,00,1",,,"99999,9,09531,1","2,1,020,1,+999,9","02,1","SYN072AAXX  14121 01047 41588 70000 10122 20101 39531 49886 52020 70222 82470;","Q01+001223ATOT  Q02 +01223ATOT  Q03 +01013ATOD  "
"01047099999","2010-11-14T15:00:00","4","69.0166667","23.0666667","307.0","KAUTOKEINO II, NO","FM-12","ENKA ","V020","180,1,N,0030,1","00750,1,9,N","070000,1,N,1","-0121,1","-0136,1","09921,1",,,,"2,1,03,1","2,1,03,1",,"08,99,1,08,1,05,1,00800,1,99,9,99,9",,,"99999,9,09545,1","2,1,015,1,+999,9","02,1","SYN072AAXX  14151 01047 41588 81803 11121 21136 39545 49921 52015 70222 885//;",
"01047099999","2010-11-14T18:00:00","4","69.0166667","23.0666667","307.0","KAUTOKEINO II, NO","FM-12","ENKA ","V020","270,1,N,0030,1","22000,1,9,N","070000,1,N,1","-0182,1","-0202,1","09950,1",,,,"2,1,06,1","2,1,06,1",,"03,99,1,03,1,05,1,00800,1,00,1,00,1",,"999,M,-0080,1","99999,9,09571,1","2,1,025,1,+999,9","01,1","SYN082AAXX  14181 01047 31588 32703 11182 21202 39571 49950 52025 70122 83500 333 11080;",
"01047099999","2010-11-15T00:00:00","4","69.0166667","23.0666667","307.0","KAUTOKEINO II, NO","FM-12","ENKA ","V020","180,1,N,0050,1","22000,1,9,N","070000,1,N,1","-0218,1","-0239,1","09988,1",,,,"0,1,06,1","0,1,06,1","00,1,+99999,9,99,9","00,99,1,00,1,00,1,99999,9,00,1,00,1",,,"99999,9,09606,1","2,1,018,1,+999,9","02,1","SYN066AAXX  15001 01047 41988 01805 11218 21239 39606 49988 52018 70200;",
"01047099999","2010-11-15T06:00:00","4","69.0166667","23.0666667","307.0","KAUTOKEINO II, NO","FM-12","ENKA ","V020","180,1,N,0030,1","22000,1,9,N","070000,1,N,1","-0246,1","-0267,1","10016,1","24,0000,9,1",,"0030,9,1,999999,9,9","0,1,06,1","0,1,06,1",,"02,99,1,02,1,00,1,02250,1,01,1,00,1","23,9","999,N,-0246,1","99999,9,09632,1","3,1,006,1,+999,9","02,1","SYN094AAXX  15061 01047 31888 21803 11246 21267 39632 40016 53006 70200 82010 333 21246 47030 70000;","Q01  00002PRCP24"
"01047099999","2010-11-15T09:00:00","4","69.0166667","23.0666667","307.0","KAUTOKEINO II, NO","FM-12","ENKA ","V020","180,1,N,0010,1","22000,1,9,N","070000,1,N,1","-0236,1","-0257,1","10034,1",,,,"0,1,03,1","0,1,03,1",,"02,99,1,00,1,00,1,99999,9,00,1,01,1",,,"99999,9,09649,1","2,1,018,1,+999,9","02,1","SYN072AAXX  15091 01047 41988 21801 11236 21257 39649 40034 52018 70200 80001;",
"01047099999","2010-11-15T12:00:00","4","69.0166667","23.0666667","307.0","KAUTOKEINO II, NO","FM-12","ENKA ","V020","999,9,C,0000,1","22000,1,9,N","070000,1,N,1","-0240,1","-0261,1","10046,1",,,,"0,1,06,1","0,1,06,1",,"04,99,1,04,1,00,1,01750,1,01,1,00,1",,,"99999,9,09660,1","1,1,011,1,+999,9","02,1","SYN072AAXX  15121 01047 41788 40000 11240 21261 39660 40046 51011 70200 84010;",
"01047099999","2010-11-15T15:00:00","4","69.0166667","23.0666667","307.0","KAUTOKEINO II, NO","FM-12","ENKA ","V020","180,1,N,0030,1","22000,1,9,N","070000,1,N,1","-0255,1","-0277,1","10052,1",,,,"0,1,03,1","0,1,03,1",,"04,99,1,04,1,00,1,01750,1,07,1,00,1",,,"99999,9,09665,1","1,1,005,1,+999,9","02,1","SYN072AAXX  15151 01047 41788 41803 11255 21277 39665 40052 51005 70200 84070;",
"01047099999","2010-11-15T18:00:00","4","69.0166667","23.0666667","307.0","KAUTOKEINO II, NO","FM-12","ENKA ","V020","999,9,C,0000,1","00015,1,9,N","000000,1,N,1","-0246,1","-0268,1","10061,1",,,,"4,1,06,1","0,1,06,1","09,1,+99999,9,99,9","09,99,1,09,1,99,9,99999,9,99,9,99,9",,"999,M,-0205,1","99999,9,09675,1","2,1,009,1,+999,9","47,1","SYN076AAXX  15181 01047 31/00 90000 11246 21268 39675 40061 52009 74740 333 11205;",
"01047099999","2010-11-16T00:00:00","4","69.0166667","23.0666667","307.0","KAUTOKEINO II, NO","FM-12","ENKA ","V020","180,1,N,0050,1","22000,1,9,N","070000,1,N,1","-0244,1","-0266,1","10094,1",,,,"4,1,06,1","0,1,06,1","00,1,+99999,9,99,9","00,99,1,00,1,00,1,99999,9,00,1,00,1",,,"99999,9,09706,1","2,1,012,1,+999,9","02,1","SYN066AAXX  16001 01047 41988 01805 11244 21266 39706 40094 52012 70240;",
"01047099999","2010-11-16T06:00:00","4","69.0166667","23.0666667","307.0","KAUTOKEINO II, NO","FM-12","ENKA ","V020","999,9,C,0000,1","22000,1,9,N","070000,1,N,1","-0263,1","-0283,1","10138,1","24,0000,9,1",,"0030,9,1,999999,9,9","4,1,06,1","2,1,06,1",,"03,99,1,03,1,00,1,01750,1,04,1,00,1","23,9","999,N,-0263,1","99999,9,09748,1","2,1,010,1,+999,9","02,1","SYN094AAXX  16061 01047 31788 30000 11263 21283 39748 40138 52010 70242 83040 333 21263 47030 70000;","Q01  00002PRCP24"
"01047099999","2010-11-16T09:00:00","4","69.0166667","23.0666667","307.0","KAUTOKEINO II, NO","FM-12","ENKA ","V020","999,9,C,0000,1","22000,1,9,N","070000,1,N,1","-0238,1","-0260,1","10166,1",,,,"0,1,03,1","0,1,03,1",,"04,99,1,04,1,05,1,01250,1,00,1,00,1",,,"99999,9,09776,1","3,1,029,1,+999,9","02,1","SYN072AAXX  16091 01047 41688 40000 11238 21260 39776 40166 53029 70200 84500;",
"01047099999","2010-11-16T12:00:00","4","69.0166667","23.0666667","307.0","KAUTOKEINO II, NO","FM-12","ENKA ","V020","999,9,C,0000,1","22000,1,9,N","070000,1,N,1","-0251,1","-0272,1","10185,1",,,,"0,1,06,1","0,1,06,1","00,1,+99999,9,99,9","00,99,1,00,1,00,1,99999,9,00,1,00,1",,,"99999,9,09793,1","2,1,017,1,+999,9","02,1","SYN066AAXX  16121 01047 41988 00000 11251 21272 39793 40185 52017 70200;",
"01047099999","2010-11-16T15:00:00","4","69.0166667","23.0666667","307.0","KAUTOKEINO II, NO","FM-12","ENKA ","V020","180,1,N,0030,1","22000,1,9,N","070000,1,N,1","-0264,1","-0286,1","10200,1",,,,"0,1,03,1","0,1,03,1",,"02,99,1,02,1,00,1,02250,1,04,1,00,1",,,"99999,9,09807,1","1,1,014,1,+999,9","02,1","SYN072AAXX  16151 01047 41888 21803 11264 21286 39807 40200 51014 70200 82040;",
"01047099999","2010-11-16T18:00:00","4","69.0166667","23.0666667","307.0","KAUTOKEINO II, NO","FM-12","ENKA ","V020","180,1,N,0030,1","22000,1,9,N","070000,1,N,1","-0256,1","-0278,1","10213,1",,,,"0,1,06,1","0,1,06,1","00,1,+99999,9,99,9","00,99,1,00,1,00,1,99999,9,00,1,00,1",,"999,M,-0225,1","99999,9,09820,1","2,1,013,1,+999,9","02,1","SYN076AAXX  16181 01047 31988 01803 11256 21278 39820 40213 52013 70200 333 11225;",
"01047099999","2010-11-17T00:00:00","4","69.0166667","23.0666667","307.0","KAUTOKEINO II, NO","FM-12","ENKA ","V020","999,9,C,0000,1","22000,1,9,N","070000,1,N,1","-0248,1","-0273,1","10232,1",,,,"0,1,06,1","0,1,06,1",,"02,99,1,02,1,00,1,02250,1,04,1,00,1",,,"99999,9,09839,1","1,1,008,1,+999,9","02,1","SYN072AAXX  17001 01047 41888 20000 11248 21273 39839 40232 51008 70200 82040;",
"01047099999","2010-11-17T06:00:00","4","69.0166667","23.0666667","307.0","KAUTOKEINO II, NO","FM-12","ENKA ","V020","999,9,C,0000,1","22000,1,9,N","070000,1,N,1","-0236,1","-0257,1","10247,1","24,0000,9,1",,"0030,9,1,999999,9,9","0,1,06,1","0,1,06,1",,"03,99,1,03,1,00,1,02250,1,04,1,00,1","23,9","999,N,-0257,1","99999,9,09854,1","3,1,005,1,+999,9","02,1","SYN094AAXX  17061 01047 31888 30000 11236 21257 39854 40247 53005 70200 83040 333 21257 47030 70000;","Q01  00002PRCP24"
"01047099999","2010-11-17T09:00:00","4","69.0166667","23.0666667","307.0","KAUTOKEINO II, NO","FM-12","ENKA ","V020","180,1,N,0030,1","01500,1,9,N","070000,1,N,1","-0159,1","-0181,1","10255,1",,,,"2,1,03,1","0,1,03,1",,"07,99,1,07,1,00,1,01750,1,04,1,00,1",,,"99999,9,09865,1","3,1,011,1,+999,9","03,1","SYN072AAXX  17091 01047 41788 71803 11159 21181 39865 40255 53011 70320 87040;",
"01047099999","2010-11-17T12:00:00","4","69.0166667","23.0666667","307.0","KAUTOKEINO II, NO","FM-12","ENKA ","V020","999,9,C,0000,1","00750,1,9,N","070000,1,N,1","-0170,1","-0194,1","10262,1",,,,"2,1,06,1","2,1,06,1",,"05,99,1,05,1,05,1,00800,1,00,1,00,1",,,"99999,9,09871,1","1,1,006,1,+999,9","02,1","SYN072AAXX  17121 01047 41588 50000 11170 21194 39871 40262 51006 70222 85500;",
"01047099999","2010-11-17T15:00:00","4","69.0166667","23.0666667","307.0","KAUTOKEINO II, NO","FM-12","ENKA ","V020","180,1,N,0050,1","01500,1,9,N","070000,1,N,1","-0116,1","-0135,1","10260,1",,,,"2,1,03,1","2,1,03,1",,"06,99,1,06,1,00,1,01750,1,07,1,00,1",,,"99999,9,09872,1","4,1,000,1,+999,9","02,1","SYN072AAXX  17151 01047 41788 61805 11116 21135 39872 40260 54000 70222 86070;",
"01047099999","2010-11-17T18:00:00","4","69.0166667","23.0666667","307.0","KAUTOKEINO II, NO","FM-12","ENKA ","V020","180,1,N,0050,1","01500,1,9,N","070000,1,N,1","-0123,1","-0141,1","10259,1",,,,"2,1,06,1","2,1,06,1",,"05,99,1,05,1,00,1,01750,1,07,1,00,1",,"999,M,-0108,1","99999,9,09871,1","4,1,000,1,+999,9","02,1","SYN082AAXX  17181 01047 31788 51805 11123 21141 39871 40259 54000 70222 85070 333 11108;",
"01047099999","2010-11-18T00:00:00","4","69.0166667","23.0666667","307.0","KAUTOKEINO II, NO","FM-12","ENKA ","V020","180,1,N,0070,1","01500,1,9,N","070000,1,N,1","-0110,1","-0128,1","10250,1",,,,"2,1,06,1","2,1,06,1",,"08,99,1,08,1,00,1,01750,1,07,1,99,9",,,"99999,9,09862,1","8,1,005,1,+999,9","02,1","SYN072AAXX  18001 01047 41788 81807 11110 21128 39862 40250 58005 70222 8807/;",
"01047099999","2010-11-18T06:00:00","4","69.0166667","23.0666667","307.0","KAUTOKEINO II, NO","FM-12","ENKA ","V020","180,1,N,0070,1","01500,1,9,N","070000,1,N,1","-0129,1","-0147,1","10243,1","24,0000,9,1",,"0029,9,1,999999,9,9","2,1,06,1","2,1,06,1",,"06,99,1,06,1,00,1,01750,1,07,1,00,1","23,9","999,N,-0129,1","99999,9,09855,1","6,1,002,1,+999,9","02,1","SYN094AAXX  18061 01047 31788 61807 11129 21147 39855 40243 56002 70222 86070 333 21129 47029 70000;","Q01  00002PRCP24"
"01047099999","2010-11-18T09:00:00","4","69.0166667","23.0666667","307.0","KAUTOKEINO II, NO","FM-12","ENKA ","V020","180,1,N,0070,1","01500,1,9,N","070000,1,N,1","-0126,1","-0144,1","10241,1",,,,"2,1,03,1","2,1,03,1",,"05,99,1,05,1,00,1,01750,1,07,1,00,1",,,"99999,9,09853,1","4,1,000,1,+999,9","02,1","SYN072AAXX  18091 01047 41788 51807 11126 21144 39853 40241 54000 70222 85070;",
"01047099999","2010-11-18T12:00:00","4","69.0166667","23.0666667","307.0","KAUTOKEINO II, NO","FM-12","ENKA ","V020","180,1,N,0050,1","22000,1,9,N","070000,1,N,1","-0136,1","-0155,1","10239,1",,,,"2,1,06,1","2,1,06,1",,"04,99,1,04,1,00,1,01750,1,07,1,00,1",,,"99999,9,09851,1","4,1,000,1,+999,9","02,1","SYN072AAXX  18121 01047 41788 41805 11136 21155 39851 40239 54000 70222 84070;",
"01047099999","2010-11-18T15:00:00","4","69.0166667","23.0666667","307.0","KAUTOKEINO II, NO","FM-12","ENKA ","V020","180,1,N,0050,1","22000,1,9,N","070000,1,N,1","-0150,1","-0173,1","10231,1",,,,"1,1,03,1","1,1,03,1",,"03,99,1,03,1,00,1,01750,1,07,1,00,1",,,"99999,9,09842,1","7,1,008,1,+999,9","02,1","SYN072AAXX  18151 01047 41788 31805 11150 21173 39842 40231 57008 70211 83070;",
"01047099999","2010-11-18T18:00:00","4","69.0166667","23.0666667","307.0","KAUTOKEINO II, NO","FM-12","ENKA ","V020","180,1,N,0030,1","22000,1,9,N","070000,1,N,1","-0170,1","-0194,1","10222,1",,,,"2,1,06,1","1,1,06,1","00,1,+99999,9,99,9","00,99,1,00,1,00,1,99999,9,00,1,00,1",,"999,M,-0094,1","99999,9,09833,1","7,1,009,1,+999,9","02,1","SYN076AAXX  18181 01047 31988 01803 11170 21194 39833 40222 57009 70221 333 11094;",
"01047099999","2010-11-19T00:00:00","4","69.0166667","23.0666667","307.0","KAUTOKEINO II, NO","FM-12","ENKA ","V020","220,1,N,0030,1","01200,1,9,N","010000,1,N,1","-0157,1","-0184,1","10221,1",,,,"7,1,06,1","2,1,06,1",,"08,99,1,08,1,00,1,01250,1,02,1,99,9",,,"99999,9,09832,1","4,1,000,1,+999,9","71,1","SYN072AAXX  19001 01047 41660 82203 11157 21184 39832 40221 54000 77172 8802/;",
"01047099999","2010-11-19T06:00:00","4","69.0166667","23.0666667","307.0","KAUTOKEINO II, NO","FM-12","ENKA ","V020","999,9,C,0000,1","01200,1,9,N","010000,1,N,1","-0098,1","-0115,1","10259,1","12,0005,9,1","24,0005,9,1","0030,9,1,999999,9,9","7,1,06,1","2,1,06,1",,"08,99,1,08,1,00,1,01250,1,02,1,99,9","24,9","999,N,-0191,1","99999,9,09872,1","2,1,013,1,+999,9","70,1","SYN100AAXX  19061 01047 11660 80000 11098 21115 39872 40259 52013 69952 77072 8802/ 333 21191 48030 70005;",
"01047099999","2010-11-19T09:00:00","4","69.0166667","23.0666667","307.0","KAUTOKEINO II, NO","FM-12","ENKA ","V020","999,9,C,0000,1","01200,1,9,N","010000,1,N,1","-0058,1","-0069,1","10291,1",,,,"7,1,03,1","2,1,03,1",,"08,99,1,08,1,00,1,01250,1,02,1,99,9",,,"99999,9,09904,1","3,1,032,1,+999,9","70,1","SYN072AAXX  19091 01047 41660 80000 11058 21069 39904 40291 53032 77072 8802/;",
"01047099999","2010-11-19T12:00:00","4","69.0166667","23.0666667","307.0","KAUTOKEINO II, NO","FM-12","ENKA ","V020","360,1,N,0030,1","01200,1,9,N","007000,1,N,1","-0046,1","-0057,1","10317,1",,,,"7,1,06,1","7,1,06,1",,"08,99,1,08,1,00,1,01250,1,02,1,99,9",,,"99999,9,09929,1","2,1,025,1,+999,9","71,1","SYN072AAXX  19121 01047 41657 83603 11046 21057 39929 40317 52025 77177 8802/;",
"01047099999","2010-11-19T15:00:00","4","69.0166667","23.0666667","307.0","KAUTOKEINO II, NO","FM-12","ENKA ","V020","360,1,N,0030,1","01200,1,9,N","070000,1,N,1","-0074,1","-0086,1","10339,1",,,,"7,1,03,1","2,1,03,1",,"08,99,1,08,1,00,1,01250,1,02,1,99,9",,,"99999,9,09949,1","2,1,020,1,+999,9","02,1","SYN072AAXX  19151 01047 41688 83603 11074 21086 39949 40339 52020 70272 8802/;",
"01047099999","2010-11-19T18:00:00","4","69.0166667","23.0666667","307.0","KAUTOKEINO II, NO","FM-12","ENKA ","V020","360,1,N,0030,1","01500,1,9,N","070000,1,N,1","-0142,1","-0162,1","10359,1","12,0008,9,1",,,"2,1,06,1","2,1,06,1",,"06,99,1,06,1,00,1,01750,1,07,1,00,1",,"999,M,-0038,1","99999,9,09966,1","1,1,017,1,+999,9","02,1","SYN088AAXX  19181 01047 11788 63603 11142 21162 39966 40359 51017 69982 70222 86070 333 11038;",
"01047099999","2010-11-20T00:00:00","4","69.0166667","23.0666667","307.0","KAUTOKEINO II, NO","FM-12","ENKA ","V020","180,1,N,0050,1","00750,1,9,N","070000,1,N,1","-0160,1","-0177,1","10365,1",,,,"2,1,06,1","2,1,06,1",,"07,99,1,07,1,05,1,00800,1,00,1,00,1",,,"99999,9,09971,1","0,1,005,1,+999,9","02,1","SYN072AAXX  20001 01047 41588 71805 11160 21177 39971 40365 50005 70222 87500;",
"01047099999","2010-11-20T06:00:00","4","69.0166667","23.0666667","307.0","KAUTOKEINO II, NO","FM-12","ENKA ","V020","180,1,N,0050,1","00750,1,9,N","070000,1,N,1","-0078,1","-0094,1","10328,1","24,0008,9,1",,"0031,9,1,999999,9,9","2,1,06,1","2,1,06,1",,"07,99,1,07,1,05,1,00800,1,00,1,00,1","24,9","999,N,-0192,1","99999,9,09939,1","7,1,014,1,+999,9","02,1","SYN094AAXX  20061 01047 31588 71805 11078 21094 39939 40328 57014 70222 87500 333 21192 48031 70008;",
"01047099999","2010-11-20T09:00:00","4","69.0166667","23.0666667","307.0","KAUTOKEINO II, NO","FM-12","ENKA ","V020","180,1,N,0050,1","01200,1,9,N","010000,1,N,1","-0080,1","-0096,1","10322,1",,,,"2,1,03,1","2,1,03,1",,"08,99,1,08,1,00,1,01250,1,02,1,99,9",,,"99999,9,09933,1","6,1,005,1,+999,9","10,1","SYN072AAXX  20091 01047 41660 81805 11080 21096 39933 40322 56005 71022 8802/;",
"01047099999","2010-11-20T12:00:00","4","69.0166667","23.0666667","307.0","KAUTOKEINO II, NO","FM-12","ENKA ","V020","180,1,N,0070,1","00750,1,9,N","070000,1,N,1","-0060,1","-0073,1","10308,1",,,,"2,1,06,1","2,1,06,1",,"08,99,1,08,1,05,1,00800,1,99,9,99,9",,,"99999,9,09920,1","7,1,013,1,+999,9","02,1","SYN072AAXX  20121 01047 41588 81807 11060 21073 39920 40308 57013 70222 885//;",
"01047099999","2010-11-20T15:00:00","4","69.0166667","23.0666667","307.0","KAUTOKEINO II, NO","FM-12","ENKA ","V020","180,1,N,0050,1","00210,1,9,N","070000,1,N,1","-0072,1","-0083,1","10298,1",,,,"2,1,03,1","2,1,03,1",,"08,99,1,08,1,06,1,00250,1,99,9,99,9",,,"99999,9,09910,1","7,1,010,1,+999,9","02,1","SYN072AAXX  20151 01047 41388 81805 11072 21083 39910 40298 57010 70222 886//;",
"01047099999","2010-11-20T18:00:00","4","69.0166667","23.0666667","307.0","KAUTOKEINO II, NO","FM-12","ENKA ","V020","180,1,N,0030,1","00210,1,9,N","025000,1,N,1","-0107,1","-0119,1","10294,1",,,,"2,1,06,1","2,1,06,1",,"08,99,1,08,1,06,1,00250,1,99,9,99,9",,"999,M,-0059,1","99999,9,09905,1","6,1,006,1,+999,9","02,1","SYN082AAXX  20181 01047 31375 81803 11107 21119 39905 40294 56006 70222 886// 333 11059;",
"01047099999","2010-11-21T00:00:00","4","69.0166667","23.0666667","307.0","KAUTOKEINO II, NO","FM-12","ENKA ","V020","180,1,N,0030,1","01200,1,9,N","070000,1,N,1","-0141,1","-0160,1","10281,1",,,,"2,1,06,1","2,1,06,1",,"07,99,1,07,1,05,1,01250,1,00,1,00,1",,,"99999,9,09891,1","6,1,005,1,+999,9","02,1","SYN072AAXX  21001 01047 41688 71803 11141 21160 39891 40281 56005 70222 87500;",
"01047099999","2010-11-21T06:00:00","4","69.0166667","23.0666667","307.0","KAUTOKEINO II, NO","FM-12","ENKA ","V020","360,1,N,0030,1","22000,1,9,N","070000,1,N,1","-0110,1","-0128,1","10274,1","24,0000,9,1",,"0031,9,1,999999,9,9","2,1,06,1","0,1,06,1",,"04,99,1,04,1,00,1,01750,1,04,1,00,1","24,9","999,N,-0164,1","99999,9,09885,1","8,1,003,1,+999,9","02,1","SYN094AAXX  21061 01047 31788 43603 11110 21128 39885 40274 58003 70220 84040 333 21164 48031 70000;","Q01  00002PRCP24"
"01047099999","2010-11-21T09:00:00","4","69.0166667","23.0666667","307.0","KAUTOKEINO II, NO","FM-12","ENKA ","V020","140,1,N,0030,1","01200,1,9,N","070000,1,N,1","-0108,1","-0125,1","10280,1",,,,"2,1,03,1","2,1,03,1",,"06,99,1,06,1,04,1,01250,1,00,1,00,1",,,"99999,9,09891,1","2,1,006,1,+999,9","02,1","SYN072AAXX  21091 01047 41688 61403 11108 21125 39891 40280 52006 70222 86400;",
"01047099999","2010-11-21T12:00:00","4","69.0166667","23.0666667","307.0","KAUTOKEINO II, NO","FM-12","ENKA ","V020","140,1,N,0030,1","00750,1,9,N","070000,1,N,1","-0079,1","-0095,1","10274,1",,,,"2,1,06,1","2,1,06,1",,"08,99,1,08,1,05,1,00800,1,99,9,99,9",,,"99999,9,09887,1","4,1,000,1,+999,9","02,1","SYN072AAXX  21121 01047 41588 81403 11079 21095 39887 40274 54000 70222 885//;",
"01047099999","2010-11-21T15:00:00","4","69.0166667","23.0666667","307.0","KAUTOKEINO II, NO","FM-12","ENKA ","V020","180,1,N,0050,1","01200,1,9,N","070000,1,N,1","-0120,1","-0135,1","10264,1",,,,"2,1,03,1","2,1,03,1",,"08,99,1,08,1,05,1,01250,1,99,9,99,9",,,"99999,9,09875,1","7,1,011,1,+999,9","02,1","SYN072AAXX  21151 01047 41688 81805 11120 21135 39875 40264 57011 70222 885//;",
"01047099999","2010-11-21T18:00:00","4","69.0166667","23.0666667","307.0","KAUTOKEINO II, NO","FM-12","ENKA ","V020","180,1,N,0030,1","01500,1,9,N","070000,1,N,1","-0128,1","-0146,1","10239,1",,,,"2,1,06,1","2,1,06,1",,"05,99,1,05,1,00,1,01750,1,07,1,00,1",,"999,M,-0074,1","99999,9,09852,1","7,1,024,1,+999,9","02,1","SYN082AAXX  21181 01047 31788 51803 11128 21146 39852 40239 57024 70222 85070 333 11074;",
"01047099999","2010-11-22T00:00:00","4","69.0166667","23.0666667","307.0","KAUTOKEINO II, NO","FM-12","ENKA ","V020","999,9,C,0000,1","22000,1,9,N","070000,1,N,1","-0046,1","-0081,1","10175,1",,,,"2,1,06,1","0,1,06,1",,"02,99,1,02,1,00,1,01750,1,07,1,00,1",,,"99999,9,09793,1","8,1,025,1,+999,9","02,1","SYN072AAXX  22001 01047 41788 20000 11046 21081 39793 40175 58025 70220 82070;",
"01047099999","2010-11-22T06:00:00","4","69.0166667","23.0666667","307.0","KAUTOKEINO II, NO","FM-12","ENKA ","V020","999,9,C,0000,1","01200,1,9,N","070000,1,N,1","-0044,1","-0074,1","10163,1","12,0003,9,1","24,0003,9,1","0032,9,1,999999,9,9","7,1,06,1","2,1,06,1",,"06,99,1,06,1,05,1,01250,1,00,1,00,1","24,9","999,N,-0160,1","99999,9,09782,1","6,1,004,1,+999,9","02,1","SYN100AAXX  22061 01047 11688 60000 11044 21074 39782 40163 56004 69932 70272 86500 333 21160 48032 70003;",
"01047099999","2010-11-22T09:00:00","4","69.0166667","23.0666667","307.0","KAUTOKEINO II, NO","FM-12","ENKA ","V020","360,1,N,0050,1","01200,1,9,N","010000,1,N,1","-0073,1","-0101,1","10179,1",,,,"7,1,03,1","2,1,03,1",,"08,99,1,08,1,00,1,01250,1,02,1,99,9",,,"99999,9,09796,1","3,1,014,1,+999,9","70,1","SYN072AAXX  22091 01047 41660 83605 11073 21101 39796 40179 53014 77072 8802/;",
"01047099999","2010-11-22T12:00:00","4","69.0166667","23.0666667","307.0","KAUTOKEINO II, NO","FM-12","ENKA ","V020","360,1,N,0050,1","01200,1,9,N","070000,1,N,1","-0112,1","-0145,1","10193,1",,,,"7,1,06,1","2,1,06,1",,"05,99,1,05,1,05,1,01250,1,00,1,00,1",,,"99999,9,09808,1","1,1,012,1,+999,9","02,1","SYN072AAXX  22121 01047 41688 53605 11112 21145 39808 40193 51012 70272 85500;",
"01047099999","2010-11-22T15:00:00","4","69.0166667","23.0666667","307.0","KAUTOKEINO II, NO","FM-12","ENKA ","V020","360,1,N,0030,1","22000,1,9,N","070000,1,N,1","-0141,1","-0175,1","10205,1",,,,"2,1,03,1","0,1,03,1","00,1,+99999,9,99,9","00,99,1,00,1,00,1,99999,9,00,1,00,1",,,"99999,9,09818,1","1,1,010,1,+999,9","01,1","SYN066AAXX  22151 01047 41988 03603 11141 21175 39818 40205 51010 70120;",
"01047099999","2010-11-22T18:00:00","4","69.0166667","23.0666667","307.0","KAUTOKEINO II, NO","FM-12","ENKA ","V020","320,1,N,0050,1","22000,1,9,N","070000,1,N,1","-0126,1","-0166,1","10196,1",,,,"0,1,06,1","0,1,06,1","00,1,+99999,9,99,9","00,99,1,00,1,00,1,99999,9,00,1,00,1",,"999,M,-0030,1","99999,9,09810,1","8,1,008,1,+999,9","02,1","SYN076AAXX  22181 01047 31988 03205 11126 21166 39810 40196 58008 70200 333 11030;",
"01047099999","2010-11-23T00:00:00","4","69.0166667","23.0666667","307.0","KAUTOKEINO II, NO","FM-12","ENKA ","V020","320,1,N,0070,1","01200,1,9,N","010000,1,N,1","-0062,1","-0096,1","10193,1",,,,"7,1,06,1","2,1,06,1",,"08,99,1,08,1,00,1,01250,1,02,1,99,9",,,"99999,9,09810,1","4,1,000,1,+999,9","71,1","SYN072AAXX  23001 01047 41660 83207 11062 21096 39810 40193 54000 77172 8802/;",
"01047099999","2010-11-23T06:00:00","4","69.0166667","23.0666667","307.0","KAUTOKEINO II, NO","FM-12","ENKA ","V020","999,9,C,0000,1","01500,1,9,N","070000,1,N,1","-0119,1","-0138,1","10219,1","12,0005,9,1","24,0005,9,1","0030,9,1,999999,9,9","7,1,06,1","2,1,06,1",,"06,99,1,06,1,00,1,01750,1,07,1,00,1","24,9","999,N,-0126,1","99999,9,09832,1","3,1,003,1,+999,9","02,1","SYN100AAXX  23061 01047 11788 60000 11119 21138 39832 40219 53003 69952 70272 86070 333 21126 48030 70005;",
"01047099999","2010-11-23T09:00:00","4","69.0166667","23.0666667","307.0","KAUTOKEINO II, NO","FM-12","ENKA ","V020","999,9,C,0000,1","22000,1,9,N","070000,1,N,1","-0193,1","-0215,1","10233,1",,,,"2,1,03,1","2,1,03,1",,"03,99,1,03,1,00,1,01750,1,07,1,00,1",,,"99999,9,09842,1","2,1,010,1,+999,9","01,1","SYN072AAXX  23091 01047 41788 30000 11193 21215 39842 40233 52010 70122 83070;",
"01047099999","2010-11-23T12:00:00","4","69.0166667","23.0666667","307.0","KAUTOKEINO II, NO","FM-12","ENKA ","V020","999,9,C,0000,1","99999,9,9,N","000800,1,N,1","-0203,1","-0225,1","10241,1",,,,"4,1,06,1","1,1,06,1",,"06,99,1,06,1,00,1,01250,1,01,1,00,1",,,"99999,9,09850,1","2,1,007,1,+999,9","46,1","SYN072AAXX  23121 01047 41608 60000 11203 21225 39850 40241 52007 74641 86010;",
"01047099999","2010-11-23T15:00:00","4","69.0166667","23.0666667","307.0","KAUTOKEINO II, NO","FM-12","ENKA ","V020","220,1,N,0050,1","22000,1,9,N","030000,1,N,1","-0230,1","-0251,1","10243,1",,,,"4,1,03,1","1,1,03,1",,"04,99,1,04,1,00,1,01250,1,01,1,00,1",,,"99999,9,09851,1","4,1,000,1,+999,9","02,1","SYN072AAXX  23151 01047 41680 42205 11230 21251 39851 40243 54000 70241 84010;",
"01047099999","2010-11-23T18:00:00","4","69.0166667","23.0666667","307.0","KAUTOKEINO II, NO","FM-12","ENKA ","V020","220,1,N,0050,1","22000,1,9,N","070000,1,N,1","-0246,1","-0267,1","10248,1",,,,"0,1,06,1","0,1,06,1","00,1,+99999,9,99,9","00,99,1,00,1,00,1,99999,9,00,1,00,1",,"999,M,-0088,1","99999,9,09854,1","2,1,004,1,+999,9","02,1","SYN076AAXX  23181 01047 31988 02205 11246 21267 39854 40248 52004 70200 333 11088;",
"01047099999","2010-11-24T00:00:00","4","69.0166667","23.0666667","307.0","KAUTOKEINO II, NO","FM-12","ENKA ","V020","180,1,N,0030,1","22000,1,9,N","070000,1,N,1","-0276,1","-0296,1","10250,1",,,,"0,1,06,1","0,1,06,1","00,1,+99999,9,99,9","00,99,1,00,1,00,1,99999,9,00,1,00,1",,,"99999,9,09856,1","4,1,000,1,+999,9","02,1","SYN066AAXX  24001 01047 41988 01803 11276 21296 39856 40250 54000 70200;",
"01047099999","2010-11-24T06:00:00","4","69.0166667","23.0666667","307.0","KAUTOKEINO II, NO","FM-12","ENKA ","V020","180,1,N,0030,1","22000,1,9,N","070000,1,N,1","-0292,1","-0311,1","10245,1","24,0000,9,1",,"0030,9,1,999999,9,9","1,1,06,1","0,1,06,1",,"04,99,1,04,1,00,1,01750,1,07,1,00,1","24,9","999,N,-0292,1","99999,9,09850,1","8,1,003,1,+999,9","02,1","SYN094AAXX  24061 01047 31788 41803 11292 21311 39850 40245 58003 70210 84070 333 21292 48030 70000;","Q01  00002PRCP24"
"01047099999","2010-11-24T09:00:00","4","69.0166667","23.0666667","307.0","KAUTOKEINO II, NO","FM-12","ENKA ","V020","180,1,N,0030,1","22000,1,9,N","070000,1,N,1","-0285,1","-0304,1","10243,1",,,,"0,1,03,1","0,1,03,1","00,1,+99999,9,99,9","00,99,1,00,1,00,1,99999,9,00,1,00,1",,,"99999,9,09848,1","4,1,000,1,+999,9","02,1","SYN066AAXX  24091 01047 41988 01803 11285 21304 39848 40243 54000 70200;",
"01047099999","2010-11-24T12:00:00","4","69.0166667","23.0666667","307.0","KAUTOKEINO II, NO","FM-12","ENKA ","V020","180,1,N,0030,1","22000,1,9,N","070000,1,N,1","-0300,1","-0320,1","10240,1",,,,"0,1,06,1","0,1,06,1",,"02,99,1,02,1,05,1,01250,1,00,1,00,1",,,"99999,9,09844,1","7,1,003,1,+999,9","02,1","SYN072AAXX  24121 01047 41688 21803 11300 21320 39844 40240 57003 70200 82500;",
"01047099999","2010-11-24T15:00:00","4","69.0166667","23.0666667","307.0","KAUTOKEINO II, NO","FM-12","ENKA ","V020","180,1,N,0010,1","22000,1,9,N","070000,1,N,1","-0312,1","-0332,1","10235,1",,,,"0,1,03,1","0,1,03,1","00,1,+99999,9,99,9","00,99,1,00,1,00,1,99999,9,00,1,00,1",,,"99999,9,09839,1","7,1,005,1,+999,9","02,1","SYN066AAXX  24151 01047 41988 01801 11312 21332 39839 40235 57005 70200;",
"01047099999","2010-11-24T18:00:00","4","69.0166667","23.0666667","307.0","KAUTOKEINO II, NO","FM-12","ENKA ","V020","180,1,N,0030,1","22000,1,9,N","070000,1,N,1","-0316,1","-0336,1","10233,1",,,,"0,1,06,1","0,1,06,1",,"03,99,1,03,1,00,1,01750,1,07,1,00,1",,"999,M,-0228,1","99999,9,09837,1","4,1,000,1,+999,9","02,1","SYN082AAXX  24181 01047 31788 31803 11316 21336 39837 40233 54000 70200 83070 333 11228;",
"01047099999","2010-11-25T00:00:00","4","69.0166667","23.0666667","307.0","KAUTOKEINO II, NO","FM-12","ENKA ","V020","180,1,N,0010,1","22000,1,9,N","070000,1,N,1","-0310,1","-0330,1","10229,1",,,,"0,1,06,1","0,1,06,1",,"03,99,1,03,1,00,1,01750,1,07,1,00,1",,,"99999,9,09833,1","7,1,005,1,+999,9","02,1","SYN072AAXX  25001 01047 41788 31801 11310 21330 39833 40229 57005 70200 83070;",
"01047099999","2010-11-25T06:00:00","4","69.0166667","23.0666667","307.0","KAUTOKEINO II, NO","FM-12","ENKA ","V020","999,9,C,0000,1","01500,1,9,N","010000,1,N,1","-0272,1","-0293,1","10238,1","24,0000,9,1",,"0030,9,1,999999,9,9","2,1,06,1","0,1,06,1",,"06,99,1,06,1,00,1,01750,1,07,1,00,1","24,9","999,N,-0317,1","99999,9,09844,1","3,1,004,1,+999,9","10,1","SYN094AAXX  25061 01047 31760 60000 11272 21293 39844 40238 53004 71020 86070 333 21317 48030 70000;","Q01  00002PRCP24"
"01047099999","2010-11-25T09:00:00","4","69.0166667","23.0666667","307.0","KAUTOKEINO II, NO","FM-12","ENKA ","V020","999,9,C,0000,1","01200,1,9,N","010000,1,N,1","-0246,1","-0267,1","10250,1",,,,"2,1,03,1","2,1,03,1",,"08,99,1,08,1,00,1,01250,1,02,1,99,9",,,"99999,9,09856,1","3,1,012,1,+999,9","10,1","SYN072AAXX  25091 01047 41660 80000 11246 21267 39856 40250 53012 71022 8802/;",
"01047099999","2010-11-25T12:00:00","4","69.0166667","23.0666667","307.0","KAUTOKEINO II, NO","FM-12","ENKA ","V020","360,1,N,0030,1","01200,1,9,N","030000,1,N,1","-0240,1","-0261,1","10260,1",,,,"2,1,06,1","2,1,06,1",,"08,99,1,08,1,00,1,01250,1,02,1,99,9",,,"99999,9,09866,1","2,1,010,1,+999,9","02,1","SYN072AAXX  25121 01047 41680 83603 11240 21261 39866 40260 52010 70222 8802/;",
"01047099999","2010-11-25T15:00:00","4","69.0166667","23.0666667","307.0","KAUTOKEINO II, NO","FM-12","ENKA ","V020","360,1,N,0030,1","01200,1,9,N","005000,1,N,1","-0221,1","-0242,1","10266,1",,,,"7,1,03,1","2,1,03,1",,"08,99,1,08,1,00,1,01250,1,02,1,99,9",,,"99999,9,09873,1","2,1,007,1,+999,9","71,1","SYN072AAXX  25151 01047 41650 83603 11221 21242 39873 40266 52007 77172 8802/;",
"01047099999","2010-11-25T18:00:00","4","69.0166667","23.0666667","307.0","KAUTOKEINO II, NO","FM-12","ENKA ","V020","999,9,C,0000,1","01200,1,9,N","025000,1,N,1","-0234,1","-0255,1","10276,1","12,0000,2,1",,,"7,1,06,1","2,1,06,1",,"08,99,1,08,1,00,1,01250,1,02,1,99,9",,"999,M,-0213,1","99999,9,09882,1","2,1,011,1,+999,9","02,1","SYN088AAXX  25181 01047 11675 80000 11234 21255 39882 40276 52011 69902 70272 8802/ 333 11213;",
"01047099999","2010-11-26T00:00:00","4","69.0166667","23.0666667","307.0","KAUTOKEINO II, NO","FM-12","ENKA ","V020","360,1,N,0030,1","99999,9,9,N","070000,1,N,1","-0238,1","-0259,1","10288,1",,,,"2,1,06,1","2,1,06,1",,"08,99,1,08,1,00,1,01250,1,01,1,99,9",,,"99999,9,09893,1","2,1,005,1,+999,9","02,1","SYN072AAXX  26001 01047 41688 83603 11238 21259 39893 40288 52005 70222 8801/;",
"01047099999","2010-11-26T06:00:00","4","69.0166667","23.0666667","307.0","KAUTOKEINO II, NO","FM-12","ENKA ","V020","999,9,C,0000,1","22000,1,9,N","070000,1,N,1","-0308,1","-0328,1","10299,1","24,0000,2,1",,"0030,9,1,999999,9,9","2,1,06,1","0,1,06,1",,"04,99,1,04,1,00,1,01750,1,04,1,00,1","24,9","999,N,-0308,1","99999,9,09900,1","1,1,004,1,+999,9","02,1","SYN094AAXX  26061 01047 31788 40000 11308 21328 39900 40299 51004 70220 84040 333 21308 48030 79999;",
"01047099999","2010-11-26T09:00:00","4","69.0166667","23.0666667","307.0","KAUTOKEINO II, NO","FM-12","ENKA ","V020","050,1,N,0030,1","01200,1,9,N","070000,1,N,1","-0303,1","-0323,1","10309,1",,,,"2,1,03,1","2,1,03,1",,"06,99,1,06,1,05,1,01250,1,00,1,00,1",,,"99999,9,09911,1","3,1,010,1,+999,9","02,1","SYN072AAXX  26091 01047 41688 60503 11303 21323 39911 40309 53010 70222 86500;",
"01047099999","2010-11-26T12:00:00","4","69.0166667","23.0666667","307.0","KAUTOKEINO II, NO","FM-12","ENKA ","V020","360,1,N,0030,1","01200,1,9,N","070000,1,N,1","-0258,1","-0279,1","10309,1",,,,"2,1,06,1","2,1,06,1",,"08,99,1,08,1,00,1,01250,1,02,1,99,9",,,"99999,9,09913,1","1,1,003,1,+999,9","02,1","SYN072AAXX  26121 01047 41688 83603 11258 21279 39913 40309 51003 70222 8802/;",
"01047099999","2010-11-26T15:00:00","4","69.0166667","23.0666667","307.0","KAUTOKEINO II, NO","FM-12","ENKA ","V020","360,1,N,0030,1","22000,1,9,N","070000,1,N,1","-0290,1","-0310,1","10310,1",,,,"2,1,03,1","2,1,03,1",,"04,99,1,04,1,00,1,01250,1,02,1,00,1",,,"99999,9,09913,1","4,1,000,1,+999,9","01,1","SYN072AAXX  26151 01047 41688 43603 11290 21310 39913 40310 54000 70122 84020;",
"01047099999","2010-11-26T18:00:00","4","69.0166667","23.0666667","307.0","KAUTOKEINO II, NO","FM-12","ENKA ","V020","050,1,N,0010,1","22000,1,9,N","070000,1,N,1","-0312,1","-0332,1","10315,1",,,,"0,1,06,1","0,1,06,1","00,1,+99999,9,99,9","00,99,1,00,1,00,1,99999,9,00,1,00,1",,"999,M,-0228,1","99999,9,09916,1","4,1,000,1,+999,9","02,1","SYN076AAXX  26181 01047 31988 00501 11312 21332 39916 40315 54000 70200 333 11228;",
"01047099999","2010-11-27T00:00:00","4","69.0166667","23.0666667","307.0","KAUTOKEINO II, NO","FM-12","ENKA ","V020","360,1,N,0010,1","22000,1,9,N","070000,1,N,1","-0344,1","-0363,1","10319,1",,,,"0,1,06,1","0,1,06,1","00,1,+99999,9,99,9","00,99,1,00,1,00,1,99999,9,00,1,00,1",,,"99999,9,09918,1","4,1,000,1,+999,9","02,1","SYN066AAXX  27001 01047 41988 03601 11344 21363 39918 40319 54000 70200;",
"01047099999","2010-11-27T06:00:00","4","69.0166667","23.0666667","307.0","KAUTOKEINO II, NO","FM-12","ENKA ","V020","999,9,C,0000,1","22000,1,9,N","070000,1,N,1","-0335,1","-0355,1","10319,1","24,0000,9,1",,"0030,9,1,999999,9,9","0,1,06,1","0,1,06,1","00,1,+99999,9,99,9","00,99,1,00,1,00,1,99999,9,00,1,00,1","24,9","999,N,-0344,1","99999,9,09918,1","4,1,000,1,+999,9","02,1","SYN088AAXX  27061 01047 31988 00000 11335 21355 39918 40319 54000 70200 333 21344 48030 70000;","Q01  00002PRCP24"
"01047099999","2010-11-27T09:00:00","4","69.0166667","23.0666667","307.0","KAUTOKEINO II, NO","FM-12","ENKA ","V020","999,9,C,0000,1","01200,1,9,N","070000,1,N,1","-0302,1","-0322,1","10323,1",,,,"2,1,03,1","0,1,03,1",,"08,99,1,08,1,00,1,01250,1,02,1,99,9",,,"99999,9,09924,1","3,1,006,1,+999,9","02,1","SYN072AAXX  27091 01047 41688 80000 11302 21322 39924 40323 53006 70220 8802/;",
"01047099999","2010-11-27T12:00:00","4","69.0166667","23.0666667","307.0","KAUTOKEINO II, NO","FM-12","ENKA ","V020","360,1,N,0030,1","01500,1,9,N","070000,1,N,1","-0254,1","-0275,1","10324,1",,,,"2,1,06,1","2,1,06,1",,"08,99,1,08,1,00,1,01750,1,07,1,99,9",,,"99999,9,09927,1","1,1,003,1,+999,9","02,1","SYN072AAXX  27121 01047 41788 83603 11254 21275 39927 40324 51003 70222 8807/;",
"01047099999","2010-11-27T15:00:00","4","69.0166667","23.0666667","307.0","KAUTOKEINO II, NO","FM-12","ENKA ","V020","360,1,N,0030,1","22000,1,9,N","070000,1,N,1","-0285,1","-0305,1","10326,1",,,,"2,1,03,1","2,1,03,1",,"04,99,1,04,1,00,1,01750,1,07,1,00,1",,,"99999,9,09928,1","4,1,000,1,+999,9","01,1","SYN072AAXX  27151 01047 41788 43603 11285 21305 39928 40326 54000 70122 84070;",
"01047099999","2010-11-27T18:00:00","4","69.0166667","23.0666667","307.0","KAUTOKEINO II, NO","FM-12","ENKA ","V020","360,1,N,0030,1","22000,1,9,N","070000,1,N,1","-0300,1","-0320,1","10329,1",,,,"0,1,06,1","0,1,06,1","00,1,+99999,9,99,9","00,99,1,00,1,00,1,99999,9,00,1,00,1",,"999,M,-0250,1","99999,9,09930,1","4,1,000,1,+999,9","02,1","SYN076AAXX  27181 01047 31988 03603 11300 21320 39930 40329 54000 70200 333 11250;",
"01047099999","2010-11-28T00:00:00","4","69.0166667","23.0666667","307.0","KAUTOKEINO II, NO","FM-12","ENKA ","V020","360,1,N,0030,1","01500,1,9,N","070000,1,N,1","-0231,1","-0252,1","10329,1",,,,"1,1,06,1","1,1,06,1",,"05,99,1,05,1,00,1,01750,1,07,1,00,1",,,"99999,9,09933,1","4,1,000,1,+999,9","02,1","SYN072AAXX  28001 01047 41788 53603 11231 21252 39933 40329 54000 70211 85070;",
"01047099999","2010-11-28T06:00:00","4","69.0166667","23.0666667","307.0","KAUTOKEINO II, NO","FM-12","ENKA ","V020","999,9,C,0000,1","22000,1,9,N","070000,1,N,1","-0256,1","-0277,1","10327,1","24,0000,9,1",,"0030,9,1,999999,9,9","1,1,06,1","0,1,06,1",,"04,99,1,04,1,00,1,01750,1,07,1,00,1","24,9","999,N,-0301,1","99999,9,09930,1","6,1,002,1,+999,9","02,1","SYN094AAXX  28061 01047 31788 40000 11256 21277 39930 40327 56002 70210 84070 333 21301 48030 70000;","Q01  00002PRCP24"
"01047099999","2010-11-28T09:00:00","4","69.0166667","23.0666667","307.0","KAUTOKEINO II, NO","FM-12","ENKA ","V020","999,9,C,0000,1","01500,1,9,N","070000,1,N,1","-0248,1","-0269,1","10325,1",,,,"2,1,03,1","0,1,03,1",,"07,99,1,07,1,00,1,01750,1,07,1,00,1",,,"99999,9,09929,1","6,1,001,1,+999,9","03,1","SYN072AAXX  28091 01047 41788 70000 11248 21269 39929 40325 56001 70320 87070;",
"01047099999","2010-11-28T12:00:00","4","69.0166667","23.0666667","307.0","KAUTOKEINO II, NO","FM-12","ENKA ","V020","050,1,N,0010,1","01200,1,9,N","070000,1,N,1","-0220,1","-0241,1","10330,1",,,,"2,1,06,1","2,1,06,1",,"08,99,1,08,1,05,1,01250,1,99,9,99,9",,,"99999,9,09934,1","2,1,006,1,+999,9","02,1","SYN072AAXX  28121 01047 41688 80501 11220 21241 39934 40330 52006 70222 885//;",
"01047099999","2010-11-28T15:00:00","4","69.0166667","23.0666667","307.0","KAUTOKEINO II, NO","FM-12","ENKA ","V020","050,1,N,0010,1","22000,1,9,N","070000,1,N,1","-0252,1","-0273,1","10333,1",,,,"2,1,03,1","2,1,03,1",,"02,99,1,02,1,05,1,01250,1,00,1,00,1",,,"99999,9,09936,1","1,1,002,1,+999,9","01,1","SYN072AAXX  28151 01047 41688 20501 11252 21273 39936 40333 51002 70122 82500;",
"01047099999","2010-11-28T18:00:00","4","69.0166667","23.0666667","307.0","KAUTOKEINO II, NO","FM-12","ENKA ","V020","050,1,N,0010,1","22000,1,9,N","070000,1,N,1","-0269,1","-0290,1","10340,1",,,,"2,1,06,1","1,1,06,1",,"04,99,1,04,1,05,1,01250,1,00,1,00,1",,"999,M,-0216,1","99999,9,09942,1","3,1,006,1,+999,9","02,1","SYN082AAXX  28181 01047 31688 40501 11269 21290 39942 40340 53006 70221 84500 333 11216;",
"01047099999","2010-11-29T00:00:00","4","69.0166667","23.0666667","307.0","KAUTOKEINO II, NO","FM-12","ENKA ","V020","180,1,N,0030,1","00750,1,9,N","070000,1,N,1","-0270,1","-0291,1","10345,1",,,,"1,1,06,1","1,1,06,1",,"08,99,1,08,1,05,1,00800,1,99,9,99,9",,,"99999,9,09946,1","4,1,000,1,+999,9","02,1","SYN072AAXX  29001 01047 41588 81803 11270 21291 39946 40345 54000 70211 885//;",
"01047099999","2010-11-29T06:00:00","4","69.0166667","23.0666667","307.0","KAUTOKEINO II, NO","FM-12","ENKA ","V020","999,9,C,0000,1","00750,1,9,N","070000,1,N,1","-0182,1","-0204,1","10326,1","24,0000,9,1",,"0029,9,1,999999,9,9","2,1,06,1","0,1,06,1",,"07,99,1,07,1,05,1,00800,1,00,1,00,1","24,9","999,N,-0285,1","99999,9,09933,1","8,1,009,1,+999,9","02,1","SYN094AAXX  29061 01047 31588 70000 11182 21204 39933 40326 58009 70220 87500 333 21285 48029 70000;","Q01  00002PRCP24"
"01047099999","2010-11-29T09:00:00","4","69.0166667","23.0666667","307.0","KAUTOKEINO II, NO","FM-12","ENKA ","V020","180,1,N,0010,1","00750,1,9,N","070000,1,N,1","-0167,1","-0188,1","10318,1",,,,"2,1,03,1","2,1,03,1",,"06,99,1,06,1,05,1,00800,1,00,1,00,1",,,"99999,9,09925,1","6,1,007,1,+999,9","02,1","SYN072AAXX  29091 01047 41588 61801 11167 21188 39925 40318 56007 70222 86500;",
"01047099999","2010-11-29T12:00:00","4","69.0166667","23.0666667","307.0","KAUTOKEINO II, NO","FM-12","ENKA ","V020","180,1,N,0050,1","00750,1,9,N","070000,1,N,1","-0152,1","-0173,1","10303,1",,,,"2,1,06,1","2,1,06,1",,"06,99,1,06,1,05,1,00800,1,00,1,00,1",,,"99999,9,09911,1","7,1,014,1,+999,9","02,1","SYN072AAXX  29121 01047 41588 61805 11152 21173 39911 40303 57014 70222 86500;",
"01047099999","2010-11-29T15:00:00","4","69.0166667","23.0666667","307.0","KAUTOKEINO II, NO","FM-12","ENKA ","V020","180,1,N,0030,1","00750,1,9,N","070000,1,N,1","-0148,1","-0171,1","10289,1",,,,"2,1,03,1","2,1,03,1",,"08,99,1,08,1,05,1,00800,1,99,9,99,9",,,"99999,9,09898,1","7,1,013,1,+999,9","02,1","SYN072AAXX  29151 01047 41588 81803 11148 21171 39898 40289 57013 70222 885//;",
"01047099999","2010-11-29T18:00:00","4","69.0166667","23.0666667","307.0","KAUTOKEINO II, NO","FM-12","ENKA ","V020","180,1,N,0050,1","00750,1,9,N","070000,1,N,1","-0118,1","-0136,1","10274,1",,,,"2,1,06,1","2,1,06,1",,"08,99,1,08,1,05,1,00800,1,99,9,99,9",,"999,M,-0118,1","99999,9,09885,1","7,1,013,1,+999,9","02,1","SYN082AAXX  29181 01047 31588 81805 11118 21136 39885 40274 57013 70222 885// 333 11118;",
"01047099999","2010-11-30T00:00:00","4","69.0166667","23.0666667","307.0","KAUTOKEINO II, NO","FM-12","ENKA ","V020","180,1,N,0050,1","00750,1,9,N","070000,1,N,1","-0126,1","-0141,1","10258,1",,,,"2,1,06,1","2,1,06,1",,"08,99,1,08,1,05,1,00800,1,99,9,99,9",,,"99999,9,09870,1","7,1,008,1,+999,9","02,1","SYN072AAXX  30001 01047 41588 81805 11126 21141 39870 40258 57008 70222 885//;",
"01047099999","2010-11-30T06:00:00","4","69.0166667","23.0666667","307.0","KAUTOKEINO II, NO","FM-12","ENKA ","V020","180,1,N,0030,1","22000,1,9,N","070000,1,N,1","-0158,1","-0173,1","10236,1","24,0000,9,1",,"0029,9,1,999999,9,9","2,1,06,1","0,1,06,1",,"04,99,1,04,1,00,1,01750,1,07,1,00,1","24,9","999,N,-0158,1","99999,9,09847,1","7,1,007,1,+999,9","02,1","SYN094AAXX  30061 01047 31788 41803 11158 21173 39847 40236 57007 70220 84070 333 21158 48029 70000;","Q01  00002PRCP24"
"01047099999","2010-11-30T09:00:00","4","69.0166667","23.0666667","307.0","KAUTOKEINO II, NO","FM-12","ENKA ","V020","180,1,N,0050,1","00750,1,9,N","070000,1,N,1","-0174,1","-0195,1","10229,1",,,,"2,1,03,1","2,1,03,1",,"06,99,1,06,1,05,1,00800,1,00,1,00,1",,,"99999,9,09839,1","6,1,008,1,+999,9","02,1","SYN072AAXX  30091 01047 41588 61805 11174 21195 39839 40229 56008 70222 86500;",
"01047099999","2010-11-30T12:00:00","4","69.0166667","23.0666667","307.0","KAUTOKEINO II, NO","FM-12","ENKA ","V020","180,1,N,0030,1","00750,1,9,N","070000,1,N,1","-0142,1","-0161,1","10210,1",,,,"2,1,06,1","2,1,06,1",,"07,99,1,07,1,05,1,00800,1,00,1,00,1",,,"99999,9,09823,1","8,1,017,1,+999,9","02,1","SYN072AAXX  30121 01047 41588 71803 11142 21161 39823 40210 58017 70222 87500;",
"01047099999","2010-11-30T15:00:00","4","69.0166667","23.0666667","307.0","KAUTOKEINO II, NO","FM-12","ENKA ","V020","090,1,N,0010,1","22000,1,9,N","070000,1,N,1","-0152,1","-0171,1","10194,1",,,,"1,1,03,1","1,1,03,1",,"04,99,1,04,1,05,1,00800,1,00,1,00,1",,,"99999,9,09807,1","6,1,016,1,+999,9","02,1","SYN072AAXX  30151 01047 41588 40901 11152 21171 39807 40194 56016 70211 84500;",
"01047099999","2010-11-30T18:00:00","4","69.0166667","23.0666667","307.0","KAUTOKEINO II, NO","FM-12","ENKA ","V020","090,1,N,0010,1","22000,1,9,N","070000,1,N,1","-0168,1","-0187,1","10176,1",,,,"1,1,06,1","1,1,06,1",,"02,99,1,02,1,00,1,01750,1,07,1,00,1",,"999,M,-0118,1","99999,9,09789,1","7,1,018,1,+999,9","02,1","SYN082AAXX  30181 01047 31788 20901 11168 21187 39789 40176 57018 70211 82070 333 11118;",
"01047099999","2010-12-01T00:00:00","4","69.0166667","23.0666667","307.0","KAUTOKEINO II, NO","FM-12","ENKA ","V020","999,9,C,0000,1","01500,1,9,N","070000,1,N,1","-0130,1","-0149,1","10141,1",,,,"1,1,06,1","1,1,06,1",,"08,99,1,08,1,00,1,01750,1,07,1,99,9",,,"99999,9,09757,1","7,1,015,1,+999,9","02,1","SYN072AAXX  01001 01047 41788 80000 11130 21149 39757 40141 57015 70211 8807/;",
"01047099999","2010-12-01T06:00:00","4","69.0166667","23.0666667","307.0","KAUTOKEINO II, NO","FM-12","ENKA ","V020","180,1,N,0010,1","01500,1,9,N","070000,1,N,1","-0019,1","-0028,1","10112,1","24,0000,9,1",,"0029,9,1,999999,9,9","2,1,06,1","1,1,06,1",,"07,99,1,07,1,00,1,01750,1,07,1,00,1","24,9","999,N,-0172,1","99999,9,09733,1","7,1,010,1,+999,9","02,1","SYN094AAXX  01061 01047 31788 71801 11019 21028 39733 40112 57010 70221 87070 333 21172 48029 70000;","Q01  00002PRCP24"
"01047099999","2010-12-01T09:00:00","4","69.0166667","23.0666667","307.0","KAUTOKEINO II, NO","FM-12","ENKA ","V020","220,1,N,0050,1","00750,1,9,N","070000,1,N,1","-0015,1","-0024,1","10110,1",,,,"2,1,03,1","2,1,03,1",,"08,99,1,08,1,05,1,00800,1,99,9,99,9",,,"99999,9,09732,1","6,1,002,1,+999,9","02,1","SYN072AAXX  01091 01047 41588 82205 11015 21024 39732 40110 56002 70222 885//;",
"01047099999","2010-12-01T12:00:00","4","69.0166667","23.0666667","307.0","KAUTOKEINO II, NO","FM-12","ENKA ","V020","220,1,N,0050,1","01500,1,9,N","070000,1,N,1","-0011,1","-0033,1","10105,1",,,,"2,1,06,1","2,1,06,1",,"08,99,1,08,1,00,1,01750,1,07,1,99,9",,,"99999,9,09727,1","7,1,005,1,+999,9","02,1","SYN072AAXX  01121 01047 41788 82205 11011 21033 39727 40105 57005 70222 8807/;",
"01047099999","2010-12-01T15:00:00","4","69.0166667","23.0666667","307.0","KAUTOKEINO II, NO","FM-12","ENKA ","V020","180,1,N,0070,1","01500,1,9,N","070000,1,N,1","-0004,1","-0042,1","10097,1",,,,"2,1,03,1","2,1,03,1",,"08,99,1,08,1,00,1,01750,1,07,1,99,9",,,"99999,9,09720,1","7,1,007,1,+999,9","02,1","SYN072AAXX  01151 01047 41788 81807 11004 21042 39720 40097 57007 70222 8807/;",
"01047099999","2010-12-01T18:00:00","4","69.0166667","23.0666667","307.0","KAUTOKEINO II, NO","FM-12","ENKA ","V020","180,1,N,0070,1","01500,1,9,N","070000,1,N,1","-0010,1","-0051,1","10079,1",,,,"2,1,06,1","2,1,06,1",,"08,99,1,08,1,00,1,01750,1,07,1,99,9",,"999,M,+0000,1","99999,9,09702,1","8,1,018,1,+999,9","02,1","SYN082AAXX  01181 01047 31788 81807 11010 21051 39702 40079 58018 70222 8807/ 333 10000;",
"01047099999","2010-12-02T00:00:00","4","69.0166667","23.0666667","307.0","KAUTOKEINO II, NO","FM-12","ENKA ","V020","220,1,N,0100,1","01500,1,9,N","070000,1,N,1","-0004,1","-0052,1","10035,1",,,,"2,1,06,1","2,1,06,1",,"08,99,1,08,1,00,1,01750,1,07,1,99,9",,,"99999,9,09660,1","8,1,018,1,+999,9","02,1","SYN072AAXX  02001 01047 41788 82210 11004 21052 39660 40035 58018 70222 8807/;",
"01047099999","2010-12-02T06:00:00","4","69.0166667","23.0666667","307.0","KAUTOKEINO II, NO","FM-12","ENKA ","V020","220,1,N,0070,1","01500,1,9,N","070000,1,N,1","+0005,1","-0039,1","09992,1","24,0000,9,1",,"0028,9,1,999999,9,9","2,1,06,1","2,1,06,1",,"08,99,1,08,1,00,1,01750,1,07,1,99,9","24,9","999,N,-0014,1","99999,9,09619,1","7,1,016,1,+999,9","02,1","SYN094AAXX  02061 01047 31788 82207 10005 21039 39619 49992 57016 70222 8807/ 333 21014 48028 70000;","Q01  00002PRCP24"
"01047099999","2010-12-02T09:00:00","4","69.0166667","23.0666667","307.0","KAUTOKEINO II, NO","FM-12","ENKA ","V020","220,1,N,0070,1","01200,1,9,N","070000,1,N,1","+0007,1","-0039,1","09984,1",,,,"2,1,03,1","2,1,03,1",,"08,99,1,08,1,00,1,01250,1,02,1,99,9",,,"99999,9,09612,1","6,1,008,1,+999,9","02,1","SYN072AAXX  02091 01047 41688 82207 10007 21039 39612 49984 56008 70222 8802/;",
"01047099999","2010-12-02T12:00:00","4","69.0166667","23.0666667","307.0","KAUTOKEINO II, NO","FM-12","ENKA ","V020","220,1,N,0100,1","01200,1,9,N","070000,1,N,1","+0022,1","-0029,1","09975,1",,,,"2,1,06,1","2,1,06,1",,"08,99,1,08,1,00,1,01250,1,02,1,99,9",,,"99999,9,09604,1","7,1,008,1,+999,9","02,1","SYN072AAXX  02121 01047 41688 82210 10022 21029 39604 49975 57008 70222 8802/;",
"01047099999","2010-12-02T15:00:00","4","69.0166667","23.0666667","307.0","KAUTOKEINO II, NO","FM-12","ENKA ","V020","220,1,N,0100,1","01200,1,9,N","070000,1,N,1","+0018,1","-0033,1","09969,1",,,,"2,1,03,1","2,1,03,1",,"08,99,1,08,1,00,1,01250,1,02,1,99,9",,,"99999,9,09598,1","7,1,006,1,+999,9","02,1","SYN072AAXX  02151 01047 41688 82210 10018 21033 39598 49969 57006 70222 8802/;",
"01047099999","2010-12-02T18:00:00","4","69.0166667","23.0666667","307.0","KAUTOKEINO II, NO","FM-12","ENKA ","V020","220,1,N,0070,1","01200,1,9,N","070000,1,N,1","+0018,1","-0033,1","09968,1",,,,"2,1,06,1","2,1,06,1",,"08,99,1,08,1,00,1,01250,1,02,1,99,9",,"999,M,+0023,1","99999,9,09597,1","6,1,001,1,+999,9","02,1","SYN082AAXX  02181 01047 31688 82207 10018 21033 39597 49968 56001 70222 8802/ 333 10023;",
"01047099999","2010-12-03T00:00:00","4","69.0166667","23.0666667","307.0","KAUTOKEINO II, NO","FM-12","ENKA ","V020","180,1,N,0100,1","00750,1,9,N","070000,1,N,1","+0024,1","-0027,1","09981,1",,,,"2,1,06,1","2,1,06,1",,"08,99,1,08,1,05,1,00800,1,99,9,99,9",,,"99999,9,09610,1","1,1,005,1,+999,9","02,1","SYN072AAXX  03001 01047 41588 81810 10024 21027 39610 49981 51005 70222 885//;",
"01047099999","2010-12-03T06:00:00","4","69.0166667","23.0666667","307.0","KAUTOKEINO II, NO","FM-12","ENKA ","V020","180,1,N,0030,1","00750,1,9,N","070000,1,N,1","+0014,1","-0031,1","09992,1","24,0000,9,1",,"0028,9,1,999999,9,9","2,1,06,1","2,1,06,1",,"08,99,1,08,1,05,1,00800,1,99,9,99,9","24,9","999,N,+0007,1","99999,9,09620,1","3,1,002,1,+999,9","02,1","SYN094AAXX  03061 01047 31588 81803 10014 21031 39620 49992 53002 70222 885// 333 20007 48028 70000;","Q01  00002PRCP24"
"01047099999","2010-12-03T09:00:00","4","69.0166667","23.0666667","307.0","KAUTOKEINO II, NO","FM-12","ENKA ","V020","180,1,N,0070,1","01200,1,9,N","070000,1,N,1","+0004,1","-0020,1","10001,1",,,,"2,1,03,1","2,1,03,1",,"08,99,1,08,1,00,1,01250,1,02,1,99,9",,,"99999,9,09628,1","2,1,008,1,+999,9","02,1","SYN072AAXX  03091 01047 41688 81807 10004 21020 39628 40001 52008 70222 8802/;",
"01047099999","2010-12-03T12:00:00","4","69.0166667","23.0666667","307.0","KAUTOKEINO II, NO","FM-12","ENKA ","V020","180,1,N,0050,1","01200,1,9,N","070000,1,N,1","-0029,1","-0050,1","10003,1",,,,"2,1,06,1","2,1,06,1",,"08,99,1,08,1,00,1,01250,1,02,1,99,9",,,"99999,9,09628,1","4,1,000,1,+999,9","02,1","SYN072AAXX  03121 01047 41688 81805 11029 21050 39628 40003 54000 70222 8802/;",
"01047099999","2010-12-03T15:00:00","4","69.0166667","23.0666667","307.0","KAUTOKEINO II, NO","FM-12","ENKA ","V020","180,1,N,0070,1","01200,1,9,N","070000,1,N,1","-0062,1","-0079,1","10007,1",,,,"2,1,03,1","2,1,03,1",,"08,99,1,08,1,00,1,01250,1,02,1,99,9",,,"99999,9,09631,1","3,1,004,1,+999,9","02,1","SYN072AAXX  03151 01047 41688 81807 11062 21079 39631 40007 53004 70222 8802/;",
"01047099999","2010-12-03T18:00:00","4","69.0166667","23.0666667","307.0","KAUTOKEINO II, NO","FM-12","ENKA ","V020","180,1,N,0050,1","01200,1,9,N","070000,1,N,1","-0071,1","-0088,1","10005,1",,,,"2,1,06,1","2,1,06,1",,"08,99,1,08,1,00,1,01250,1,02,1,99,9",,"999,M,+0022,1","99999,9,09628,1","4,1,000,1,+999,9","02,1","SYN082AAXX  03181 01047 31688 81805 11071 21088 39628 40005 54000 70222 8802/ 333 10022;",
"01047099999","2010-12-04T00:00:00","4","69.0166667","23.0666667","307.0","KAUTOKEINO II, NO","FM-12","ENKA ","V020","220,1,N,0070,1","00750,1,9,N","070000,1,N,1","-0092,1","-0116,1","10004,1",,,,"2,1,06,1","2,1,06,1",,"08,99,1,08,1,05,1,00800,1,99,9,99,9",,,"99999,9,09627,1","4,1,000,1,+999,9","02,1","SYN072AAXX  04001 01047 41588 82207 11092 21116 39627 40004 54000 70222 885//;",
"01047099999","2010-12-04T06:00:00","4","69.0166667","23.0666667","307.0","KAUTOKEINO II, NO","FM-12","ENKA ","V020","220,1,N,0070,1","01200,1,9,N","010000,1,N,1","-0096,1","-0118,1","09990,1","12,0005,9,1","24,0005,9,1","0029,9,1,999999,9,9","7,1,06,1","3,1,06,1",,"08,99,1,08,1,00,1,01250,1,02,1,99,9","24,9","999,N,-0096,1","99999,9,09613,1","8,1,003,1,+999,9","70,1","SYN100AAXX  04061 01047 11660 82207 11096 21118 39613 49990 58003 69962 77073 8802/ 333 21096 48029 70006;",
"01047099999","2010-12-04T09:00:00","4","69.0166667","23.0666667","307.0","KAUTOKEINO II, NO","FM-12","ENKA ","V020","180,1,N,0070,1","01200,1,9,N","006000,1,N,1","-0092,1","-0117,1","09985,1",,,,"7,1,03,1","7,1,03,1",,"08,99,1,08,1,00,1,01250,1,02,1,99,9",,,"99999,9,09609,1","7,1,005,1,+999,9","71,1","SYN072AAXX  04091 01047 41656 81807 11092 21117 39609 49985 57005 77177 8802/;",
"01047099999","2010-12-04T12:00:00","4","69.0166667","23.0666667","307.0","KAUTOKEINO II, NO","FM-12","ENKA ","V020","180,1,N,0070,1","01200,1,9,N","007000,1,N,1","-0093,1","-0118,1","09975,1",,,,"7,1,06,1","7,1,06,1",,"08,99,1,08,1,00,1,01250,1,02,1,99,9",,,"99999,9,09599,1","7,1,010,1,+999,9","71,1","SYN072AAXX  04121 01047 41657 81807 11093 21118 39599 49975 57010 77177 8802/;",
"01047099999","2010-12-04T15:00:00","4","69.0166667","23.0666667","307.0","KAUTOKEINO II, NO","FM-12","ENKA ","V020","180,1,N,0070,1","01200,1,9,N","070000,1,N,1","-0098,1","-0123,1","09964,1",,,,"7,1,03,1","2,1,03,1",,"08,99,1,08,1,00,1,01250,1,02,1,99,9",,,"99999,9,09587,1","7,1,011,1,+999,9","02,1","SYN072AAXX  04151 01047 41688 81807 11098 21123 39587 49964 57011 70272 8802/;",
"01047099999","2010-12-04T18:00:00","4","69.0166667","23.0666667","307.0","KAUTOKEINO II, NO","FM-12","ENKA ","V020","180,1,N,0050,1","00750,1,9,N","070000,1,N,1","-0111,1","-0138,1","09958,1","12,0008,9,1",,,"2,1,06,1","2,1,06,1",,"06,99,1,06,1,05,1,00800,1,00,1,00,1",,"999,M,-0085,1","99999,9,09582,1","6,1,006,1,+999,9","02,1","SYN088AAXX  04181 01047 11588 61805 11111 21138 39582 49958 56006 69982 70222 86500 333 11085;",
"01047099999","2010-12-05T00:00:00","4","69.0166667","23.0666667","307.0","KAUTOKEINO II, NO","FM-12","ENKA ","V020","180,1,N,0070,1","01200,1,9,N","020000,1,N,1","-0148,1","-0169,1","09947,1",,,,"7,1,06,1","2,1,06,1",,"08,99,1,08,1,00,1,01250,1,02,1,99,9",,,"99999,9,09570,1","8,1,008,1,+999,9","71,1","SYN072AAXX  05001 01047 41670 81807 11148 21169 39570 49947 58008 77172 8802/;",
"01047099999","2010-12-05T06:00:00","4","69.0166667","23.0666667","307.0","KAUTOKEINO II, NO","FM-12","ENKA ","V020","180,1,N,0050,1","01200,1,9,N","070000,1,N,1","-0117,1","-0140,1","09926,1","12,0003,9,1","24,0010,9,1","0034,9,1,999999,9,9","7,1,06,1","2,1,06,1",,"08,99,1,08,1,00,1,01250,1,02,1,99,9","24,9","999,N,-0159,1","99999,9,09551,1","7,1,006,1,+999,9","02,1","SYN100AAXX  05061 01047 11688 81805 11117 21140 39551 49926 57006 69932 70272 8802/ 333 21159 48034 70011;",
"01047099999","2010-12-05T09:00:00","4","69.0166667","23.0666667","307.0","KAUTOKEINO II, NO","FM-12","ENKA ","V020","180,1,N,0050,1","01200,1,9,N","070000,1,N,1","-0134,1","-0157,1","09921,1",,,,"2,1,03,1","2,1,03,1",,"08,99,1,08,1,00,1,01250,1,02,1,99,9",,,"99999,9,09545,1","6,1,006,1,+999,9","02,1","SYN072AAXX  05091 01047 41688 81805 11134 21157 39545 49921 56006 70222 8802/;",
"01047099999","2010-12-05T12:00:00","4","69.0166667","23.0666667","307.0","KAUTOKEINO II, NO","FM-12","ENKA ","V020","220,1,N,0050,1","22000,1,9,N","070000,1,N,1","-0170,1","-0194,1","09922,1",,,,"2,1,06,1","2,1,06,1",,"03,99,1,03,1,00,1,01750,1,07,1,00,1",,,"99999,9,09545,1","4,1,000,1,+999,9","01,1","SYN072AAXX  05121 01047 41788 32205 11170 21194 39545 49922 54000 70122 83070;",
"01047099999","2010-12-05T15:00:00","4","69.0166667","23.0666667","307.0","KAUTOKEINO II, NO","FM-12","ENKA ","V020","220,1,N,0070,1","22000,1,9,N","070000,1,N,1","-0182,1","-0208,1","09925,1",,,,"0,1,03,1","0,1,03,1","00,1,+99999,9,99,9","00,99,1,00,1,00,1,99999,9,00,1,00,1",,,"99999,9,09547,1","4,1,000,1,+999,9","02,1","SYN066AAXX  05151 01047 41988 02207 11182 21208 39547 49925 54000 70200;",
"01047099999","2010-12-05T18:00:00","4","69.0166667","23.0666667","307.0","KAUTOKEINO II, NO","FM-12","ENKA ","V020","180,1,N,0070,1","22000,1,9,N","070000,1,N,1","-0184,1","-0210,1","09934,1",,,,"0,1,06,1","0,1,06,1",,"03,99,1,03,1,00,1,01750,1,07,1,00,1",,"999,M,-0094,1","99999,9,09556,1","2,1,009,1,+999,9","02,1","SYN082AAXX  05181 01047 31788 31807 11184 21210 39556 49934 52009 70200 83070 333 11094;",
"01047099999","2010-12-06T00:00:00","4","69.0166667","23.0666667","307.0","KAUTOKEINO II, NO","FM-12","ENKA ","V020","180,1,N,0050,1","00750,1,9,N","070000,1,N,1","-0114,1","-0132,1","09932,1",,,,"2,1,06,1","0,1,06,1",,"08,99,1,08,1,05,1,00800,1,99,9,99,9",,,"99999,9,09557,1","4,1,000,1,+999,9","02,1","SYN072AAXX  06001 01047 41588 81805 11114 21132 39557 49932 54000 70220 885//;",
"01047099999","2010-12-06T06:00:00","4","69.0166667","23.0666667","307.0","KAUTOKEINO II, NO","FM-12","ENKA ","V020","180,1,N,0050,1","00750,1,9,N","070000,1,N,1","-0061,1","-0073,1","09918,1","24,0000,9,1",,"0034,9,1,999999,9,9","2,1,06,1","2,1,06,1",,"08,99,1,08,1,05,1,00800,1,99,9,99,9","24,9","999,N,-0184,1","99999,9,09545,1","7,1,010,1,+999,9","02,1","SYN094AAXX  06061 01047 31588 81805 11061 21073 39545 49918 57010 70222 885// 333 21184 48034 70000;","Q01  00002PRCP24"
"01047099999","2010-12-06T09:00:00","4","69.0166667","23.0666667","307.0","KAUTOKEINO II, NO","FM-12","ENKA ","V020","180,1,N,0070,1","01200,1,9,N","070000,1,N,1","-0064,1","-0077,1","09913,1",,,,"2,1,03,1","2,1,03,1",,"08,99,1,08,1,00,1,01250,1,02,1,99,9",,,"99999,9,09540,1","6,1,005,1,+999,9","02,1","SYN072AAXX  06091 01047 41688 81807 11064 21077 39540 49913 56005 70222 8802/;",
"01047099999","2010-12-06T12:00:00","4","69.0166667","23.0666667","307.0","KAUTOKEINO II, NO","FM-12","ENKA ","V020","180,1,N,0070,1","01200,1,9,N","070000,1,N,1","-0051,1","-0065,1","09911,1",,,,"2,1,06,1","2,1,06,1",,"08,99,1,08,1,00,1,01250,1,02,1,99,9",,,"99999,9,09538,1","4,1,000,1,+999,9","02,1","SYN072AAXX  06121 01047 41688 81807 11051 21065 39538 49911 54000 70222 8802/;",
"01047099999","2010-12-06T18:00:00","4","69.0166667","23.0666667","307.0","KAUTOKEINO II, NO","FM-12","ENKA ","V020","180,1,N,0070,1","00750,1,9,N","020000,1,N,1","-0042,1","-0060,1","09904,1","12,9999,9,9",,,"7,1,06,1","2,1,06,1",,"08,99,1,06,1,07,1,00800,1,02,1,99,9",,"999,M,-0038,1","99999,9,09532,1","7,1,002,1,+999,9","71,1","SYN088AAXX  06181 01047 11570 81807 11042 21060 39532 49904 57002 69922 77172 8672/ 333 11038;","Q01  00002PRCP12Q02  00002PRCP12"
"01047099999","2010-12-07T00:00:00","4","69.0166667","23.0666667","307.0","KAUTOKEINO II, NO","FM-12","ENKA ","V020","180,1,N,0050,1","00750,1,9,N","070000,1,N,1","-0056,1","-0075,1","09905,1",,,,"7,1,06,1","2,1,06,1",,"08,99,1,08,1,05,1,00800,1,99,9,99,9",,,"99999,9,09532,1","0,1,002,1,+999,9","02,1","SYN072AAXX  07001 01047 41588 81805 11056 21075 39532 49905 50002 70272 885//;",
"01047099999","2010-12-07T06:00:00","4","69.0166667","23.0666667","307.0","KAUTOKEINO II, NO","FM-12","ENKA ","V020","180,1,N,0050,1","00750,1,9,N","070000,1,N,1","-0058,1","-0069,1","09903,1","12,0003,9,1","24,0005,9,1","0034,9,1,999999,9,9","7,1,06,1","2,1,06,1",,"08,99,1,08,1,05,1,00800,1,99,9,99,9","24,9","999,N,-0058,1","99999,9,09531,1","5,1,001,1,+999,9","02,1","SYN100AAXX  07061 01047 11588 81805 11058 21069 39531 49903 55001 69932 70272 885// 333 21058 48034 70005;",
"01047099999","2010-12-07T09:00:00","4","69.0166667","23.0666667","307.0","KAUTOKEINO II, NO","FM-12","ENKA ","V020","180,1,N,0030,1","01200,1,9,N","070000,1,N,1","-0057,1","-0070,1","09913,1",,,,"2,1,03,1","2,1,03,1",,"08,99,1,08,1,00,1,01250,1,02,1,99,9",,,"99999,9,09541,1","2,1,009,1,+999,9","02,1","SYN072AAXX  07091 01047 41688 81803 11057 21070 39541 49913 52009 70222 8802/;",
"01047099999","2010-12-07T12:00:00","4","69.0166667","23.0666667","307.0","KAUTOKEINO II, NO","FM-12","ENKA ","V020","180,1,N,0030,1","01200,1,9,N","070000,1,N,1","-0067,1","-0084,1","09920,1",,,,"2,1,06,1","2,1,06,1",,"08,99,1,08,1,00,1,01250,1,02,1,99,9",,,"99999,9,09547,1","2,1,006,1,+999,9","02,1","SYN072AAXX  07121 01047 41688 81803 11067 21084 39547 49920 52006 70222 8802/;",
"01047099999","2010-12-07T15:00:00","4","69.0166667","23.0666667","307.0","KAUTOKEINO II, NO","FM-12","ENKA ","V020","180,1,N,0050,1","00750,1,9,N","070000,1,N,1","-0071,1","-0087,1","09923,1",,,,"2,1,03,1","2,1,03,1",,"08,99,1,08,1,05,1,00800,1,99,9,99,9",,,"99999,9,09550,1","2,1,003,1,+999,9","02,1","SYN072AAXX  07151 01047 41588 81805 11071 21087 39550 49923 52003 70222 885//;",
"01047099999","2010-12-07T18:00:00","4","69.0166667","23.0666667","307.0","KAUTOKEINO II, NO","FM-12","ENKA ","V020","180,1,N,0030,1","00750,1,9,N","070000,1,N,1","-0073,1","-0098,1","09931,1",,,,"2,1,06,1","2,1,06,1",,"08,99,1,08,1,05,1,00800,1,99,9,99,9",,"999,M,-0045,1","99999,9,09557,1","2,1,008,1,+999,9","02,1","SYN082AAXX  07181 01047 31588 81803 11073 21098 39557 49931 52008 70222 885// 333 11045;",
"01047099999","2010-12-08T00:00:00","4","69.0166667","23.0666667","307.0","KAUTOKEINO II, NO","FM-12","ENKA ","V020","180,1,N,0030,1","00750,1,9,N","070000,1,N,1","-0094,1","-0116,1","09949,1",,,,"7,1,06,1","2,1,06,1",,"08,99,1,06,1,07,1,00800,1,02,1,99,9",,,"99999,9,09573,1","1,1,008,1,+999,9","02,1","SYN072AAXX  08001 01047 41588 81803 11094 21116 39573 49949 51008 70272 8672/;",
"01047099999","2010-12-08T06:00:00","4","69.0166667","23.0666667","307.0","KAUTOKEINO II, NO","FM-12","ENKA ","V020","320,1,N,0030,1","99999,9,9,N","070000,1,N,1","-0101,1","-0119,1","09961,1","12,0005,9,1","24,0005,9,1","0035,9,1,999999,9,9","7,1,06,1","2,1,06,1",,"08,99,1,08,1,00,1,00800,1,05,1,99,9","24,9","999,N,-0101,1","99999,9,09585,1","2,1,004,1,+999,9","02,1","SYN100AAXX  08061 01047 11588 83203 11101 21119 39585 49961 52004 69942 70272 8805/ 333 21101 48035 70004;",
"01047099999","2010-12-08T09:00:00","4","69.0166667","23.0666667","307.0","KAUTOKEINO II, NO","FM-12","ENKA ","V020","220,1,N,0030,1","01200,1,9,N","070000,1,N,1","-0115,1","-0136,1","09970,1",,,,"2,1,03,1","2,1,03,1",,"08,99,1,08,1,00,1,01250,1,02,1,99,9",,,"99999,9,09592,1","1,1,008,1,+999,9","02,1","SYN072AAXX  08091 01047 41688 82203 11115 21136 39592 49970 51008 70222 8802/;",
"01047099999","2010-12-08T12:00:00","4","69.0166667","23.0666667","307.0","KAUTOKEINO II, NO","FM-12","ENKA ","V020","220,1,N,0030,1","01200,1,9,N","070000,1,N,1","-0118,1","-0140,1","09976,1",,,,"2,1,06,1","2,1,06,1",,"08,99,1,08,1,00,1,01250,1,02,1,99,9",,,"99999,9,09598,1","2,1,006,1,+999,9","02,1","SYN072AAXX  08121 01047 41688 82203 11118 21140 39598 49976 52006 70222 8802/;",
"01047099999","2010-12-08T15:00:00","4","69.0166667","23.0666667","307.0","KAUTOKEINO II, NO","FM-12","ENKA ","V020","180,1,N,0030,1","01200,1,9,N","070000,1,N,1","-0111,1","-0132,1","09984,1",,,,"7,1,03,1","2,1,03,1",,"08,99,1,08,1,00,1,01250,1,02,1,99,9",,,"99999,9,09607,1","2,1,008,1,+999,9","02,1","SYN072AAXX  08151 01047 41688 81803 11111 21132 39607 49984 52008 70272 8802/;",
"01047099999","2010-12-08T18:00:00","4","69.0166667","23.0666667","307.0","KAUTOKEINO II, NO","FM-12","ENKA ","V020","180,1,N,0030,1","01200,1,9,N","070000,1,N,1","-0116,1","-0137,1","09998,1","12,0003,9,1",,,"7,1,06,1","2,1,06,1",,"06,99,1,06,1,00,1,01250,1,02,1,00,1",,"999,M,-0084,1","99999,9,09620,1","2,1,012,1,+999,9","01,1","SYN088AAXX  08181 01047 11688 61803 11116 21137 39620 49998 52012 69932 70172 86020 333 11084;",
"01047099999","2010-12-09T00:00:00","4","69.0166667","23.0666667","307.0","KAUTOKEINO II, NO","FM-12","ENKA ","V020","320,1,N,0050,1","00750,1,9,N","070000,1,N,1","-0050,1","-0085,1","10025,1",,,,"2,1,06,1","2,1,06,1",,"08,99,1,08,1,05,1,00800,1,99,9,99,9",,,"99999,9,09648,1","2,1,016,1,+999,9","02,1","SYN072AAXX  09001 01047 41588 83205 11050 21085 39648 40025 52016 70222 885//;",
"01047099999","2010-12-09T06:00:00","4","69.0166667","23.0666667","307.0","KAUTOKEINO II, NO","FM-12","ENKA ","V020","999,9,C,0000,1","00750,1,9,N","070000,1,N,1","-0116,1","-0139,1","10070,1","24,0003,9,1",,"0035,9,1,999999,9,9","2,1,06,1","2,1,06,1",,"07,99,1,07,1,05,1,00800,1,00,1,00,1","24,9","999,N,-0122,1","99999,9,09690,1","2,1,021,1,+999,9","02,1","SYN094AAXX  09061 01047 31588 70000 11116 21139 39690 40070 52021 70222 87500 333 21122 48035 70003;",
"01047099999","2010-12-09T09:00:00","4","69.0166667","23.0666667","307.0","KAUTOKEINO II, NO","FM-12","ENKA ","V020","999,9,C,0000,1","22000,1,9,N","070000,1,N,1","-0178,1","-0198,1","10098,1",,,,"2,1,03,1","0,1,03,1",,"02,99,1,02,1,05,1,00800,1,00,1,00,1",,,"99999,9,09713,1","2,1,023,1,+999,9","01,1","SYN072AAXX  09091 01047 41588 20000 11178 21198 39713 40098 52023 70120 82500;",
"01047099999","2010-12-09T12:00:00","4","69.0166667","23.0666667","307.0","KAUTOKEINO II, NO","FM-12","ENKA ","V020","999,9,C,0000,1","22000,1,9,N","070000,1,N,1","-0224,1","-0243,1","10117,1",,,,"2,1,06,1","0,1,06,1",,"03,99,1,00,1,00,1,99999,9,00,1,08,1",,,"99999,9,09730,1","2,1,016,1,+999,9","02,1","SYN072AAXX  09121 01047 41988 30000 11224 21243 39730 40117 52016 70220 80008;",
"01047099999","2010-12-09T15:00:00","4","69.0166667","23.0666667","307.0","KAUTOKEINO II, NO","FM-12","ENKA ","V020","180,1,N,0030,1","22000,1,9,N","070000,1,N,1","-0258,1","-0282,1","10125,1",,,,"0,1,03,1","0,1,03,1","00,1,+99999,9,99,9","00,99,1,00,1,00,1,99999,9,00,1,00,1",,,"99999,9,09736,1","2,1,006,1,+999,9","02,1","SYN066AAXX  09151 01047 41988 01803 11258 21282 39736 40125 52006 70200;",
"01047099999","2010-12-09T18:00:00","4","69.0166667","23.0666667","307.0","KAUTOKEINO II, NO","FM-12","ENKA ","V020","180,1,N,0010,1","22000,1,9,N","070000,1,N,1","-0263,1","-0284,1","10131,1",,,,"2,1,06,1","0,1,06,1","00,1,+99999,9,99,9","00,99,1,00,1,00,1,99999,9,00,1,00,1",,"999,M,-0074,1","99999,9,09742,1","1,1,007,1,+999,9","02,1","SYN076AAXX  09181 01047 31988 01801 11263 21284 39742 40131 51007 70220 333 11074;",
"01047099999","2010-12-10T00:00:00","4","69.0166667","23.0666667","307.0","KAUTOKEINO II, NO","FM-12","ENKA ","V020","180,1,N,0030,1","01500,1,9,N","070000,1,N,1","-0279,1","-0303,1","10097,1",,,,"1,1,06,1","1,1,06,1",,"06,99,1,06,1,00,1,01750,1,07,1,00,1",,,"99999,9,09707,1","8,1,024,1,+999,9","02,1","SYN072AAXX  10001 01047 41788 61803 11279 21303 39707 40097 58024 70211 86070;",
"01047099999","2010-12-10T06:00:00","4","69.0166667","23.0666667","307.0","KAUTOKEINO II, NO","FM-12","ENKA ","V020","180,1,N,0050,1","01500,1,9,N","070000,1,N,1","-0153,1","-0173,1","10053,1","24,0000,9,1",,"0035,9,1,999999,9,9","2,1,06,1","1,1,06,1",,"05,99,1,05,1,00,1,01750,1,07,1,00,1","24,9","999,N,-0290,1","99999,9,09672,1","6,1,015,1,+999,9","02,1","SYN094AAXX  10061 01047 31788 51805 11153 21173 39672 40053 56015 70221 85070 333 21290 48035 70000;","Q01  00002PRCP24"
"01047099999","2010-12-10T09:00:00","4","69.0166667","23.0666667","307.0","KAUTOKEINO II, NO","FM-12","ENKA ","V020","180,1,N,0050,1","01500,1,9,N","070000,1,N,1","-0165,1","-0187,1","10043,1",,,,"2,1,03,1","2,1,03,1",,"07,99,1,07,1,00,1,01750,1,07,1,00,1",,,"99999,9,09661,1","6,1,011,1,+999,9","02,1","SYN072AAXX  10091 01047 41788 71805 11165 21187 39661 40043 56011 70222 87070;",
"01047099999","2010-12-10T12:00:00","4","69.0166667","23.0666667","307.0","KAUTOKEINO II, NO","FM-12","ENKA ","V020","180,1,N,0030,1","22000,1,9,N","070000,1,N,1","-0218,1","-0241,1","10045,1",,,,"2,1,06,1","0,1,06,1",,"02,99,1,02,1,05,1,01250,1,00,1,00,1",,,"99999,9,09661,1","4,1,000,1,+999,9","02,1","SYN072AAXX  10121 01047 41688 21803 11218 21241 39661 40045 54000 70220 82500;",
"01047099999","2010-12-10T15:00:00","4","69.0166667","23.0666667","307.0","KAUTOKEINO II, NO","FM-12","ENKA ","V020","360,1,N,0030,1","22000,1,9,N","070000,1,N,1","-0264,1","-0288,1","10050,1",,,,"0,1,03,1","0,1,03,1","00,1,+99999,9,99,9","00,99,1,00,1,00,1,99999,9,00,1,00,1",,,"99999,9,09663,1","2,1,004,1,+999,9","02,1","SYN066AAXX  10151 01047 41988 03603 11264 21288 39663 40050 52004 70200;",
"01047099999","2010-12-10T18:00:00","4","69.0166667","23.0666667","307.0","KAUTOKEINO II, NO","FM-12","ENKA ","V020","360,1,N,0010,1","01200,1,9,N","070000,1,N,1","-0231,1","-0256,1","10042,1",,,,"2,1,06,1","0,1,06,1",,"08,99,1,08,1,00,1,01250,1,02,1,99,9",,"999,M,-0128,1","99999,9,09657,1","7,1,006,1,+999,9","02,1","SYN082AAXX  10181 01047 31688 83601 11231 21256 39657 40042 57006 70220 8802/ 333 11128;",
"01047099999","2010-12-11T00:00:00","4","69.0166667","23.0666667","307.0","KAUTOKEINO II, NO","FM-12","ENKA ","V020","360,1,N,0030,1","01200,1,9,N","007000,1,N,1","-0208,1","-0233,1","10031,1",,,,"7,1,06,1","2,1,06,1",,"08,99,1,08,1,00,1,01250,1,02,1,99,9",,,"99999,9,09647,1","6,1,006,1,+999,9","71,1","SYN072AAXX  11001 01047 41657 83603 11208 21233 39647 40031 56006 77172 8802/;",
"01047099999","2010-12-11T06:00:00","4","69.0166667","23.0666667","307.0","KAUTOKEINO II, NO","FM-12","ENKA ","V020","999,9,C,0000,1","01500,1,9,N","070000,1,N,1","-0238,1","-0260,1","10022,1","12,0000,2,1","24,0003,9,1","0036,9,1,999999,9,9","7,1,06,1","2,1,06,1",,"05,99,1,05,1,00,1,01750,1,07,1,00,1","23,9","999,N,-0238,1","99999,9,09637,1","7,1,005,1,+999,9","02,1","SYN100AAXX  11061 01047 11788 50000 11238 21260 39637 40022 57005 69922 70272 85070 333 21238 47036 70002;",
"01047099999","2010-12-11T09:00:00","4","69.0166667","23.0666667","307.0","KAUTOKEINO II, NO","FM-12","ENKA ","V020","180,1,N,0010,1","22000,1,9,N","070000,1,N,1","-0291,1","-0315,1","10022,1",,,,"1,1,03,1","0,1,03,1","00,1,+99999,9,99,9","00,99,1,00,1,00,1,99999,9,00,1,00,1",,,"99999,9,09636,1","7,1,003,1,+999,9","01,1","SYN066AAXX  11091 01047 41988 01801 11291 21315 39636 40022 57003 70110;",
"01047099999","2010-12-11T12:00:00","4","69.0166667","23.0666667","307.0","KAUTOKEINO II, NO","FM-12","ENKA ","V020","180,1,N,0050,1","22000,1,9,N","070000,1,N,1","-0310,1","-0333,1","10014,1",,,,"0,1,06,1","0,1,06,1","00,1,+99999,9,99,9","00,99,1,00,1,00,1,99999,9,00,1,00,1",,,"99999,9,09627,1","7,1,008,1,+999,9","02,1","SYN066AAXX  11121 01047 41988 01805 11310 21333 39627 40014 57008 70200;",
"01047099999","2010-12-11T15:00:00","4","69.0166667","23.0666667","307.0","KAUTOKEINO II, NO","FM-12","ENKA ","V020","180,1,N,0050,1","22000,1,9,N","070000,1,N,1","-0296,1","-0320,1","09999,1",,,,"0,1,03,1","0,1,03,1","00,1,+99999,9,99,9","00,99,1,00,1,00,1,99999,9,00,1,00,1",,,"99999,9,09612,1","8,1,014,1,+999,9","02,1","SYN066AAXX  11151 01047 41988 01805 11296 21320 39612 49999 58014 70200;",
"01047099999","2010-12-11T18:00:00","4","69.0166667","23.0666667","307.0","KAUTOKEINO II, NO","FM-12","ENKA ","V020","180,1,N,0050,1","22000,1,9,N","070000,1,N,1","-0280,1","-0316,1","09983,1",,,,"0,1,06,1","0,1,06,1","00,1,+99999,9,99,9","00,99,1,00,1,00,1,99999,9,00,1,00,1",,"999,M,-0186,1","99999,9,09598,1","8,1,014,1,+999,9","02,1","SYN076AAXX  11181 01047 31988 01805 11280 21316 39598 49983 58014 70200 333 11186;",
"01047099999","2010-12-12T00:00:00","4","69.0166667","23.0666667","307.0","KAUTOKEINO II, NO","FM-12","ENKA ","V020","320,1,N,0070,1","01200,1,9,N","070000,1,N,1","+9999,9","+9999,9","09981,1",,,,"7,1,06,1","2,1,06,1",,"08,99,1,08,1,00,1,01250,1,02,1,99,9",,,"99999,9,09606,1","2,1,009,1,+999,9","02,1","SYN072AAXX  12001 01047 41688 83207 11064 21098 39606 49981 52009 70272 8802/;","Q01-000643ATOT  "
"01047099999","2010-12-12T06:00:00","4","69.0166667","23.0666667","307.0","KAUTOKEINO II, NO","FM-12","ENKA ","V020","320,1,N,0050,1","01200,1,9,N","070000,1,N,1","-0059,1","-0094,1","10022,1","12,0000,9,1","24,0003,9,1","0035,9,1,999999,9,9","7,1,06,1","2,1,06,1",,"06,99,1,06,1,00,1,01250,1,02,1,00,1","24,9","999,N,-0280,1","99999,9,09646,1","3,1,021,1,+999,9","02,1","SYN100AAXX  12061 01047 11688 63205 11059 21094 39646 40022 53021 69922 70272 86020 333 21280 48035 70002;","Q01  00002PRCP12"
"01047099999","2010-12-12T09:00:00","4","69.0166667","23.0666667","307.0","KAUTOKEINO II, NO","FM-12","ENKA ","V020","320,1,N,0050,1","22000,1,9,N","070000,1,N,1","-0053,1","-0096,1","10052,1",,,,"2,1,03,1","0,1,03,1",,"03,99,1,03,1,00,1,01750,1,07,1,00,1",,,"99999,9,09675,1","2,1,028,1,+999,9","01,1","SYN072AAXX  12091 01047 41788 33205 11053 21096 39675 40052 52028 70120 83070;",
"01047099999","2010-12-12T12:00:00","4","69.0166667","23.0666667","307.0","KAUTOKEINO II, NO","FM-12","ENKA ","V020","320,1,N,0070,1","01200,1,9,N","070000,1,N,1","-0068,1","-0110,1","10083,1",,,,"1,1,06,1","1,1,06,1",,"05,99,1,05,1,05,1,01250,1,00,1,00,1",,,"99999,9,09703,1","1,1,031,1,+999,9","02,1","SYN072AAXX  12121 01047 41688 53207 11068 21110 39703 40083 51031 70211 85500;",
"01047099999","2010-12-12T15:00:00","4","69.0166667","23.0666667","307.0","KAUTOKEINO II, NO","FM-12","ENKA ","V020","320,1,N,0070,1","22000,1,9,N","070000,1,N,1","-0060,1","-0102,1","10115,1",,,,"1,1,03,1","1,1,03,1",,"04,99,1,04,1,05,1,01250,1,00,1,00,1",,,"99999,9,09735,1","2,1,031,1,+999,9","02,1","SYN072AAXX  12151 01047 41688 43207 11060 21102 39735 40115 52031 70211 84500;",
"01047099999","2010-12-12T18:00:00","4","69.0166667","23.0666667","307.0","KAUTOKEINO II, NO","FM-12","ENKA ","V020","320,1,N,0070,1","22000,1,9,N","070000,1,N,1","-0074,1","-0108,1","10148,1",,,,"0,1,06,1","0,1,06,1",,"03,99,1,03,1,00,1,01750,1,07,1,00,1",,"999,M,-0045,1","99999,9,09766,1","2,1,031,1,+999,9","02,1","SYN082AAXX  12181 01047 31788 33207 11074 21108 39766 40148 52031 70200 83070 333 11045;",
"01047099999","2010-12-13T00:00:00","4","69.0166667","23.0666667","307.0","KAUTOKEINO II, NO","FM-12","ENKA ","V020","220,1,N,0050,1","00750,1,9,N","070000,1,N,1","-0083,1","-0111,1","10207,1",,,,"2,1,06,1","0,1,06,1",,"08,99,1,08,1,05,1,00800,1,99,9,99,9",,,"99999,9,09822,1","3,1,024,1,+999,9","02,1","SYN072AAXX  13001 01047 41588 82205 11083 21111 39822 40207 53024 70220 885//;",
"01047099999","2010-12-13T06:00:00","4","69.0166667","23.0666667","307.0","KAUTOKEINO II, NO","FM-12","ENKA ","V020","220,1,N,0050,1","00750,1,9,N","070000,1,N,1","-0132,1","-0152,1","10242,1","24,0000,9,1",,"0035,9,1,999999,9,9","2,1,06,1","1,1,06,1",,"06,99,1,06,1,05,1,00800,1,00,1,00,1","24,9","999,N,-0132,1","99999,9,09853,1","2,1,012,1,+999,9","02,1","SYN094AAXX  13061 01047 31588 62205 11132 21152 39853 40242 52012 70221 86500 333 21132 48035 70000;","Q01  00002PRCP24"
"01047099999","2010-12-13T09:00:00","4","69.0166667","23.0666667","307.0","KAUTOKEINO II, NO","FM-12","ENKA ","V020","180,1,N,0050,1","22000,1,9,N","070000,1,N,1","-0189,1","-0208,1","10256,1",,,,"2,1,03,1","0,1,03,1","00,1,+99999,9,99,9","00,99,1,00,1,00,1,99999,9,00,1,00,1",,,"99999,9,09865,1","2,1,011,1,+999,9","01,1","SYN066AAXX  13091 01047 41988 01805 11189 21208 39865 40256 52011 70120;",
"01047099999","2010-12-13T12:00:00","4","69.0166667","23.0666667","307.0","KAUTOKEINO II, NO","FM-12","ENKA ","V020","180,1,N,0050,1","22000,1,9,N","070000,1,N,1","-0198,1","-0217,1","10247,1",,,,"0,1,06,1","0,1,06,1",,"02,99,1,00,1,00,1,99999,9,00,1,08,1",,,"99999,9,09856,1","8,1,009,1,+999,9","02,1","SYN072AAXX  13121 01047 41988 21805 11198 21217 39856 40247 58009 70200 80008;",
"01047099999","2010-12-13T15:00:00","4","69.0166667","23.0666667","307.0","KAUTOKEINO II, NO","FM-12","ENKA ","V020","180,1,N,0050,1","22000,1,9,N","070000,1,N,1","-0164,1","-0184,1","10234,1",,,,"0,1,03,1","0,1,03,1",,"04,99,1,00,1,00,1,99999,9,00,1,08,1",,,"99999,9,09845,1","8,1,010,1,+999,9","02,1","SYN072AAXX  13151 01047 41988 41805 11164 21184 39845 40234 58010 70200 80008;",
"01047099999","2010-12-13T18:00:00","4","69.0166667","23.0666667","307.0","KAUTOKEINO II, NO","FM-12","ENKA ","V020","180,1,N,0030,1","01500,1,9,N","070000,1,N,1","-0146,1","-0166,1","10223,1",,,,"1,1,06,1","1,1,06,1",,"05,99,1,05,1,00,1,01750,1,07,1,00,1",,"999,M,-0090,1","99999,9,09835,1","5,1,013,1,+999,9","02,1","SYN082AAXX  13181 01047 31788 51803 11146 21166 39835 40223 55013 70211 85070 333 11090;",
"01047099999","2010-12-14T00:00:00","4","69.0166667","23.0666667","307.0","KAUTOKEINO II, NO","FM-12","ENKA ","V020","180,1,N,0070,1","01500,1,9,N","070000,1,N,1","-0120,1","-0147,1","10210,1",,,,"2,1,06,1","2,1,06,1",,"08,99,1,08,1,00,1,01750,1,07,1,99,9",,,"99999,9,09823,1","0,1,003,1,+999,9","02,1","SYN072AAXX  14001 01047 41788 81807 11120 21147 39823 40210 50003 70222 8807/;",
"01047099999","2010-12-14T06:00:00","4","69.0166667","23.0666667","307.0","KAUTOKEINO II, NO","FM-12","ENKA ","V020","999,9,C,0000,1","01500,1,9,N","070000,1,N,1","-0171,1","-0192,1","10249,1","24,0000,9,1",,"0035,9,1,999999,9,9","2,1,06,1","1,1,06,1",,"05,99,1,05,1,00,1,01750,1,07,1,00,1","24,9","999,N,-0171,1","99999,9,09858,1","3,1,025,1,+999,9","02,1","SYN094AAXX  14061 01047 31788 50000 11171 21192 39858 40249 53025 70221 85070 333 21171 48035 70000;","Q01  00002PRCP24"
"01047099999","2010-12-14T09:00:00","4","69.0166667","23.0666667","307.0","KAUTOKEINO II, NO","FM-12","ENKA ","V020","999,9,C,0000,1","22000,1,9,N","070000,1,N,1","-0208,1","-0230,1","10279,1",,,,"1,1,03,1","0,1,03,1","00,1,+99999,9,99,9","00,99,1,00,1,00,1,99999,9,00,1,00,1",,,"99999,9,09887,1","2,1,028,1,+999,9","01,1","SYN066AAXX  14091 01047 41988 00000 11208 21230 39887 40279 52028 70110;",
"01047099999","2010-12-14T12:00:00","4","69.0166667","23.0666667","307.0","KAUTOKEINO II, NO","FM-12","ENKA ","V020","999,9,C,0000,1","03000,1,9,N","070000,1,N,1","-0195,1","-0217,1","10297,1",,,,"2,1,06,1","0,1,06,1",,"07,99,1,02,1,04,1,01250,1,07,1,00,1",,,"99999,9,09903,1","2,1,018,1,+999,9","03,1","SYN072AAXX  14121 01047 41688 70000 11195 21217 39903 40297 52018 70320 82470;",
"01047099999","2010-12-14T15:00:00","4","69.0166667","23.0666667","307.0","KAUTOKEINO II, NO","FM-12","ENKA ","V020","180,1,N,0050,1","01200,1,9,N","070000,1,N,1","-0165,1","-0185,1","10303,1",,,,"2,1,03,1","2,1,03,1",,"08,99,1,08,1,05,1,01250,1,99,9,99,9",,,"99999,9,09912,1","1,1,008,1,+999,9","02,1","SYN072AAXX  14151 01047 41688 81805 11165 21185 39912 40303 51008 70222 885//;",
"01047099999","2010-12-14T18:00:00","4","69.0166667","23.0666667","307.0","KAUTOKEINO II, NO","FM-12","ENKA ","V020","180,1,N,0050,1","01200,1,9,N","070000,1,N,1","-0140,1","-0159,1","10304,1",,,,"2,1,06,1","2,1,06,1",,"07,99,1,07,1,05,1,01250,1,00,1,00,1",,"999,M,-0125,1","99999,9,09913,1","0,1,003,1,+999,9","02,1","SYN082AAXX  14181 01047 31688 71805 11140 21159 39913 40304 50003 70222 87500 333 11125;",
"01047099999","2010-12-15T00:00:00","4","69.0166667","23.0666667","307.0","KAUTOKEINO II, NO","FM-12","ENKA ","V020","180,1,N,0050,1","22000,1,9,N","070000,1,N,1","-0180,1","-0198,1","10264,1",,,,"2,1,06,1","0,1,06,1",,"02,99,1,02,1,05,1,01250,1,00,1,00,1",,,"99999,9,09872,1","8,1,028,1,+999,9","01,1","SYN072AAXX  15001 01047 41688 21805 11180 21198 39872 40264 58028 70120 82500;",
"01047099999","2010-12-15T06:00:00","4","69.0166667","23.0666667","307.0","KAUTOKEINO II, NO","FM-12","ENKA ","V020","180,1,N,0050,1","01200,1,9,N","070000,1,N,1","-0117,1","-0135,1","10161,1","24,0000,9,1",,"0035,9,1,999999,9,9","2,1,06,1","0,1,06,1",,"05,99,1,05,1,05,1,01250,1,00,1,00,1","24,9","999,N,-0189,1","99999,9,09777,1","8,1,053,2,+999,9","02,1","SYN094AAXX  15061 01047 31688 51805 11117 21135 39777 40161 58053 70220 85500 333 21189 48035 70000;","Q01+000532APC3  Q02  00002PRCP24"
"01047099999","2010-12-15T09:00:00","4","69.0166667","23.0666667","307.0","KAUTOKEINO II, NO","FM-12","ENKA ","V020","180,1,N,0050,1","22000,1,9,N","003000,1,N,1","-0116,1","-0134,1","10104,1",,,,"1,1,03,1","1,1,03,1",,"04,99,1,04,1,00,1,02250,1,04,1,00,1",,,"99999,9,09722,1","8,1,055,1,+999,9","10,1","SYN072AAXX  15091 01047 41830 41805 11116 21134 39722 40104 58055 71011 84040;",
"01047099999","2010-12-15T12:00:00","4","69.0166667","23.0666667","307.0","KAUTOKEINO II, NO","FM-12","ENKA ","V020","180,1,N,0100,1","01500,1,9,N","003000,1,N,1","-0110,1","-0129,1","10043,1",,,,"3,1,06,1","1,1,06,1",,"06,99,1,06,1,00,1,01750,1,07,1,00,1",,,"99999,9,09663,1","8,1,058,1,+999,9","38,1","SYN072AAXX  15121 01047 41730 61810 11110 21129 39663 40043 58058 73831 86070;",
"01047099999","2010-12-15T15:00:00","4","69.0166667","23.0666667","307.0","KAUTOKEINO II, NO","FM-12","ENKA ","V020","180,1,N,0100,1","01200,1,9,N","001500,1,N,1","-0104,1","-0123,1","09994,1",,,,"7,1,03,1","3,1,03,1",,"08,99,1,08,1,00,1,01250,1,02,1,99,9",,,"99999,9,09617,1","6,1,048,1,+999,9","71,1","SYN072AAXX  15151 01047 41615 81810 11104 21123 39617 49994 56048 77173 8802/;",
"01047099999","2010-12-15T18:00:00","4","69.0166667","23.0666667","307.0","KAUTOKEINO II, NO","FM-12","ENKA ","V020","180,1,N,0100,1","01200,1,9,N","001000,1,N,1","-0098,1","-0118,1","09950,1","12,0000,2,1",,,"7,1,06,1","3,1,06,1",,"08,99,1,08,1,00,1,01250,1,02,1,99,9",,"999,M,-0098,1","99999,9,09575,1","6,1,041,1,+999,9","71,1","SYN088AAXX  15181 01047 11610 81810 11098 21118 39575 49950 56041 69922 77173 8802/ 333 11098;",
"01047099999","2010-12-16T00:00:00","4","69.0166667","23.0666667","307.0","KAUTOKEINO II, NO","FM-12","ENKA ","V020","180,1,N,0100,1","01200,1,9,N","002500,1,N,1","-0055,1","-0074,1","09895,1",,,,"7,1,06,1","3,1,06,1",,"08,99,1,08,1,00,1,01250,1,02,1,99,9",,,"99999,9,09523,1","6,1,024,1,+999,9","71,1","SYN072AAXX  16001 01047 41625 81810 11055 21074 39523 49895 56024 77173 8802/;",
"01047099999","2010-12-16T06:00:00","4","69.0166667","23.0666667","307.0","KAUTOKEINO II, NO","FM-12","ENKA ","V020","180,1,N,0050,1","01200,1,9,N","007000,1,N,1","-0072,1","-0093,1","09897,1","12,0020,9,2","24,0018,9,2","0038,9,1,999999,9,9","7,1,06,1","3,1,06,1",,"08,99,1,08,1,00,1,01250,1,02,1,99,9","24,9","999,N,-0099,1","99999,9,09525,1","3,1,007,1,+999,9","71,1","SYN100AAXX  16061 01047 11657 81805 11072 21093 39525 49897 53007 60022 77173 8802/ 333 21099 48038 70017;",
"01047099999","2010-12-16T09:00:00","4","69.0166667","23.0666667","307.0","KAUTOKEINO II, NO","FM-12","ENKA ","V020","180,1,N,0100,1","01200,1,9,N","010000,1,N,1","-0084,1","-0109,1","09920,1",,,,"7,1,03,1","3,1,03,1",,"08,99,1,08,1,00,1,01250,1,02,1,99,9",,,"99999,9,09547,1","3,1,021,1,+999,9","71,1","SYN072AAXX  16091 01047 41660 81810 11084 21109 39547 49920 53021 77173 8802/;",
"01047099999","2010-12-16T12:00:00","4","69.0166667","23.0666667","307.0","KAUTOKEINO II, NO","FM-12","ENKA ","V020","180,1,N,0100,1","01200,1,9,N","010000,1,N,1","-0088,1","-0116,1","09950,1",,,,"7,1,06,1","3,1,06,1",,"08,99,1,08,1,00,1,01250,1,02,1,99,9",,,"99999,9,09575,1","1,1,029,1,+999,9","71,1","SYN072AAXX  16121 01047 41660 81810 11088 21116 39575 49950 51029 77173 8802/;",
"01047099999","2010-12-16T15:00:00","4","69.0166667","23.0666667","307.0","KAUTOKEINO II, NO","FM-12","ENKA ","V020","180,1,N,0100,1","01200,1,9,N","003000,1,N,1","-0100,1","-0128,1","09980,1",,,,"7,1,03,1","3,1,03,1",,"08,99,1,08,1,00,1,01250,1,02,1,99,9",,,"99999,9,09603,1","3,1,029,1,+999,9","71,1","SYN072AAXX  16151 01047 41630 81810 11100 21128 39603 49980 53029 77173 8802/;",
"01047099999","2010-12-16T18:00:00","4","69.0166667","23.0666667","307.0","KAUTOKEINO II, NO","FM-12","ENKA ","V020","180,1,N,0100,1","01200,1,9,N","010000,1,N,1","-0098,1","-0126,1","10021,1","12,0010,9,1",,,"7,1,06,1","3,1,06,1",,"08,99,1,08,1,00,1,01250,1,02,1,99,9",,"999,M,-0060,1","99999,9,09642,1","3,1,040,1,+999,9","71,1","SYN088AAXX  16181 01047 11660 81810 11098 21126 39642 40021 53040 60012 77173 8802/ 333 11060;",
"01047099999","2010-12-17T00:00:00","4","69.0166667","23.0666667","307.0","KAUTOKEINO II, NO","FM-12","ENKA ","V020","180,1,N,0050,1","01200,1,9,N","070000,1,N,1","-0110,1","-0143,1","99999,9",,,,"7,1,06,1","3,1,06,1",,"08,99,1,08,1,05,1,01250,1,99,9,99,9",,,,"3,1,042,1,+999,9","02,1","SYN072AAXX  17001 01047 41688 81805 11110 21143 39730 40112 53042 70273 885//;","Q01+097303APOSP "
"01047099999","2010-12-17T06:00:00","4","69.0166667","23.0666667","307.0","KAUTOKEINO II, NO","FM-12","ENKA ","V020","180,1,N,0030,1","01200,1,9,N","070000,1,N,1","-0124,1","-0151,1","10194,1","12,0000,2,1","24,0010,9,1","0037,9,1,999999,9,9","7,1,06,1","3,1,06,1",,"05,99,1,05,1,05,1,01250,1,00,1,00,1","24,9","999,N,-0124,1","99999,9,09808,1","3,1,039,1,+999,9","02,1","SYN100AAXX  17061 01047 11688 51803 11124 21151 39808 40194 53039 69912 70273 85500 333 21124 48037 70011;",
"01047099999","2010-12-17T09:00:00","4","69.0166667","23.0666667","307.0","KAUTOKEINO II, NO","FM-12","ENKA ","V020","180,1,N,0030,1","22000,1,9,N","070000,1,N,1","-0175,1","-0199,1","10238,1",,,,"0,1,03,1","0,1,03,1",,"02,99,1,02,1,00,1,02250,1,04,1,00,1",,,"99999,9,09848,1","3,1,038,1,+999,9","02,1","SYN072AAXX  17091 01047 41888 21803 11175 21199 39848 40238 53038 70200 82040;",
"01047099999","2010-12-17T12:00:00","4","69.0166667","23.0666667","307.0","KAUTOKEINO II, NO","FM-12","ENKA ","V020","180,1,N,0030,1","01200,1,9,N","070000,1,N,1","-0182,1","-0202,1","10272,1",,,,"2,1,06,1","0,1,06,1",,"08,99,1,08,1,05,1,01250,1,99,9,99,9",,,"99999,9,09881,1","3,1,033,1,+999,9","02,1","SYN072AAXX  17121 01047 41688 81803 11182 21202 39881 40272 53033 70220 885//;",
"01047099999","2010-12-17T15:00:00","4","69.0166667","23.0666667","307.0","KAUTOKEINO II, NO","FM-12","ENKA ","V020","090,1,N,0050,1","01200,1,9,N","010000,1,N,1","-0125,1","-0144,1","10294,1",,,,"7,1,03,1","2,1,03,1",,"08,99,1,08,1,00,1,01250,1,02,1,99,9",,,"99999,9,09905,1","2,1,025,1,+999,9","71,1","SYN072AAXX  17151 01047 41660 80905 11125 21144 39905 40294 52025 77172 8802/;",
"01047099999","2010-12-17T18:00:00","4","69.0166667","23.0666667","307.0","KAUTOKEINO II, NO","FM-12","ENKA ","V020","360,1,N,0050,1","01200,1,9,N","070000,1,N,1","-0126,1","-0153,1","10321,1","12,0000,2,1",,,"7,1,06,1","2,1,06,1",,"08,99,1,08,1,00,1,01250,1,02,1,99,9",,"999,M,-0098,1","99999,9,09931,1","2,1,023,1,+999,9","02,1","SYN088AAXX  17181 01047 11688 83605 11126 21153 39931 40321 52023 69912 70272 8802/ 333 11098;",
"01047099999","2010-12-18T00:00:00","4","69.0166667","23.0666667","307.0","KAUTOKEINO II, NO","FM-12","ENKA ","V020","270,1,N,0030,1","22000,1,9,N","070000,1,N,1","-0190,1","-0212,1","10366,1",,,,"2,1,06,1","0,1,06,1","00,1,+99999,9,99,9","00,99,1,00,1,00,1,99999,9,00,1,00,1",,,"99999,9,09971,1","3,1,020,1,+999,9","01,1","SYN066AAXX  18001 01047 41988 02703 11190 21212 39971 40366 53020 70120;",
"01047099999","2010-12-18T06:00:00","4","69.0166667","23.0666667","307.0","KAUTOKEINO II, NO","FM-12","ENKA ","V020","999,9,C,0000,1","22000,1,9,N","070000,1,N,1","-0291,1","-0316,1","10385,1","24,0000,2,1",,"0037,9,1,999999,9,9","2,1,06,1","0,1,06,1","00,1,+99999,9,99,9","00,99,1,00,1,00,1,99999,9,00,1,00,1","24,9","999,N,-0291,1","99999,9,09985,1","1,1,006,1,+999,9","02,1","SYN088AAXX  18061 01047 31988 00000 11291 21316 39985 40385 51006 70220 333 21291 48037 70001;",
"01047099999","2010-12-18T09:00:00","4","69.0166667","23.0666667","307.0","KAUTOKEINO II, NO","FM-12","ENKA ","V020","180,1,N,0010,1","22000,1,9,N","070000,1,N,1","-0337,1","-0361,1","10396,1",,,,"0,1,03,1","0,1,03,1","00,1,+99999,9,99,9","00,99,1,00,1,00,1,99999,9,00,1,00,1",,,"99999,9,09992,1","1,1,008,1,+999,9","02,1","SYN066AAXX  18091 01047 41988 01801 11337 21361 39992 40396 51008 70200;",
"01047099999","2010-12-18T12:00:00","4","69.0166667","23.0666667","307.0","KAUTOKEINO II, NO","FM-12","ENKA ","V020","180,1,N,0010,1","01200,1,9,N","010000,1,N,1","-0290,1","-0315,1","10387,1",,,,"2,1,06,1","0,1,06,1",,"08,99,1,08,1,00,1,01250,1,02,1,99,9",,,"99999,9,09987,1","8,1,006,1,+999,9","10,1","SYN072AAXX  18121 01047 41660 81801 11290 21315 39987 40387 58006 71020 8802/;",
"01047099999","2010-12-18T15:00:00","4","69.0166667","23.0666667","307.0","KAUTOKEINO II, NO","FM-12","ENKA ","V020","180,1,N,0030,1","01200,1,9,N","020000,1,N,1","-0246,1","-0271,1","10378,1",,,,"7,1,03,1","2,1,03,1",,"08,99,1,08,1,00,1,01250,1,02,1,99,9",,,"99999,9,09980,1","7,1,007,1,+999,9","70,1","SYN072AAXX  18151 01047 41670 81803 11246 21271 39980 40378 57007 77072 8802/;",
"01047099999","2010-12-18T18:00:00","4","69.0166667","23.0666667","307.0","KAUTOKEINO II, NO","FM-12","ENKA ","V020","180,1,N,0010,1","01200,1,9,N","030000,1,N,1","-0220,1","-0245,1","10366,1","12,0000,2,1",,,"7,1,06,1","2,1,06,1",,"08,99,1,08,1,00,1,01250,1,02,1,99,9",,"999,M,-0128,1","99999,9,09970,1","7,1,010,1,+999,9","70,1","SYN088AAXX  18181 01047 11680 81801 11220 21245 39970 40366 57010 69912 77072 8802/ 333 11128;",
"01047099999","2010-12-19T00:00:00","4","69.0166667","23.0666667","307.0","KAUTOKEINO II, NO","FM-12","ENKA ","V020","180,1,N,0050,1","01200,1,9,N","008000,1,N,1","-0272,1","-0296,1","10349,1",,,,"7,1,06,1","2,1,06,1",,"08,99,1,08,1,00,1,01250,1,02,1,99,9",,,"99999,9,09951,1","8,1,011,1,+999,9","70,1","SYN072AAXX  19001 01047 41658 81805 11272 21296 39951 40349 58011 77072 8802/;",
"01047099999","2010-12-19T06:00:00","4","69.0166667","23.0666667","307.0","KAUTOKEINO II, NO","FM-12","ENKA ","V020","180,1,N,0030,1","01200,1,9,N","070000,1,N,1","-0263,1","-0287,1","10341,1","12,0000,2,1","24,0003,9,1","0037,9,1,999999,9,9","7,1,06,1","2,1,06,1",,"08,99,1,08,1,00,1,01250,1,02,1,99,9","24,9","999,N,-0282,1","99999,9,09943,1","8,1,016,1,+999,9","02,1","SYN100AAXX  19061 01047 11688 81803 11263 21287 39943 40341 58016 69912 70272 8802/ 333 21282 48037 70002;",
"01047099999","2010-12-19T09:00:00","4","69.0166667","23.0666667","307.0","KAUTOKEINO II, NO","FM-12","ENKA ","V020","180,1,N,0030,1","01200,1,9,N","070000,1,N,1","-0288,1","-0313,1","10310,1",,,,"2,1,03,1","2,1,03,1",,"08,99,1,08,1,00,1,01250,1,02,1,99,9",,,"99999,9,09912,1","6,1,010,1,+999,9","02,1","SYN072AAXX  19091 01047 41688 81803 11288 21313 39912 40310 56010 70222 8802/;",
"01047099999","2010-12-19T12:00:00","4","69.0166667","23.0666667","307.0","KAUTOKEINO II, NO","FM-12","ENKA ","V020","180,1,N,0010,1","01500,1,9,N","070000,1,N,1","-0310,1","-0335,1","10295,1",,,,"2,1,06,1","2,1,06,1",,"07,99,1,07,1,00,1,01750,1,07,1,00,1",,,"99999,9,09897,1","8,1,016,1,+999,9","02,1","SYN072AAXX  19121 01047 41788 71801 11310 21335 39897 40295 58016 70222 87070;",
"01047099999","2010-12-19T15:00:00","4","69.0166667","23.0666667","307.0","KAUTOKEINO II, NO","FM-12","ENKA ","V020","999,9,C,0000,1","22000,1,9,N","070000,1,N,1","-0324,1","-0347,1","10278,1",,,,"2,1,03,1","2,1,03,1",,"03,99,1,03,1,00,1,01750,1,07,1,00,1",,,"99999,9,09880,1","8,1,016,1,+999,9","01,1","SYN072AAXX  19151 01047 41788 30000 11324 21347 39880 40278 58016 70122 83070;",
"01047099999","2010-12-19T18:00:00","4","69.0166667","23.0666667","307.0","KAUTOKEINO II, NO","FM-12","ENKA ","V020","999,9,C,0000,1","22000,1,9,N","070000,1,N,1","-0350,1","-0373,1","10263,1",,,,"0,1,06,1","0,1,06,1","00,1,+99999,9,99,9","00,99,1,00,1,00,1,99999,9,00,1,00,1",,"999,M,-0205,1","99999,9,09865,1","6,1,015,1,+999,9","02,1","SYN076AAXX  19181 01047 31988 00000 11350 21373 39865 40263 56015 70200 333 11205;",
"01047099999","2010-12-20T00:00:00","4","69.0166667","23.0666667","307.0","KAUTOKEINO II, NO","FM-12","ENKA ","V020","999,9,C,0000,1","01200,1,9,N","030000,1,N,1","-0300,1","-0324,1","10227,1",,,,"7,1,06,1","2,1,06,1",,"08,99,1,08,1,00,1,01250,1,02,1,99,9",,,"99999,9,09832,1","7,1,020,1,+999,9","70,1","SYN072AAXX  20001 01047 41680 80000 11300 21324 39832 40227 57020 77072 8802/;",
"01047099999","2010-12-20T06:00:00","4","69.0166667","23.0666667","307.0","KAUTOKEINO II, NO","FM-12","ENKA ","V020","999,9,C,0000,1","01200,1,9,N","070000,1,N,1","-0269,1","-0293,1","10187,1","12,0000,2,1","24,0000,2,1","0038,9,1,999999,9,9","7,1,06,1","2,1,06,1",,"08,99,1,08,1,00,1,01250,1,02,1,99,9","23,9","999,N,-0351,1","99999,9,09795,1","7,1,019,1,+999,9","02,1","SYN100AAXX  20061 01047 11688 80000 11269 21293 39795 40187 57019 69912 70272 8802/ 333 21351 47038 70001;",
"01047099999","2010-12-20T09:00:00","4","69.0166667","23.0666667","307.0","KAUTOKEINO II, NO","FM-12","ENKA ","V020","180,1,N,0010,1","00750,1,9,N","070000,1,N,1","-0290,1","-0314,1","10172,1",,,,"2,1,03,1","2,1,03,1",,"08,99,1,08,1,05,1,00800,1,99,9,99,9",,,"99999,9,09780,1","6,1,013,1,+999,9","02,1","SYN072AAXX  20091 01047 41588 81801 11290 21314 39780 40172 56013 70222 885//;",
"01047099999","2010-12-20T12:00:00","4","69.0166667","23.0666667","307.0","KAUTOKEINO II, NO","FM-12","ENKA ","V020","180,1,N,0030,1","00750,1,9,N","070000,1,N,1","-0282,1","-0306,1","10158,1",,,,"2,1,06,1","2,1,06,1",,"08,99,1,08,1,05,1,00800,1,99,9,99,9",,,"99999,9,09767,1","8,1,012,1,+999,9","02,1","SYN072AAXX  20121 01047 41588 81803 11282 21306 39767 40158 58012 70222 885//;",
"01047099999","2010-12-20T15:00:00","4","69.0166667","23.0666667","307.0","KAUTOKEINO II, NO","FM-12","ENKA ","V020","180,1,N,0030,1","00750,1,9,N","070000,1,N,1","-0253,1","-0278,1","10147,1",,,,"2,1,03,1","2,1,03,1",,"08,99,1,08,1,05,1,00800,1,99,9,99,9",,,"99999,9,09757,1","8,1,009,1,+999,9","02,1","SYN072AAXX  20151 01047 41588 81803 11253 21278 39757 40147 58009 70222 885//;",
"01047099999","2010-12-20T18:00:00","4","69.0166667","23.0666667","307.0","KAUTOKEINO II, NO","FM-12","ENKA ","V020","180,1,N,0030,1","00750,1,9,N","070000,1,N,1","-0243,1","-0268,1","10141,1",,,,"2,1,06,1","2,1,06,1",,"08,99,1,08,1,05,1,00800,1,99,9,99,9",,"999,M,-0243,1","99999,9,09752,1","7,1,007,1,+999,9","02,1","SYN082AAXX  20181 01047 31588 81803 11243 21268 39752 40141 57007 70222 885// 333 11243;",
"01047099999","2010-12-21T00:00:00","4","69.0166667","23.0666667","307.0","KAUTOKEINO II, NO","FM-12","ENKA ","V020","050,1,N,0050,1","01200,1,9,N","020000,1,N,1","-0193,1","-0219,1","10136,1",,,,"7,1,06,1","2,1,06,1",,"08,99,1,08,1,00,1,01250,1,02,1,99,9",,,"99999,9,09750,1","5,1,002,1,+999,9","71,1","SYN072AAXX  21001 01047 41670 80505 11193 21219 39750 40136 55002 77172 8802/;",
"01047099999","2010-12-21T06:00:00","4","69.0166667","23.0666667","307.0","KAUTOKEINO II, NO","FM-12","ENKA ","V020","050,1,N,0030,1","01200,1,9,N","020000,1,N,1","-0160,1","-0198,1","10131,1","12,0010,9,1","24,0010,9,1","0039,9,1,999999,9,9","7,1,06,1","2,1,06,1",,"08,99,1,08,1,00,1,01250,1,02,1,99,9","23,9","999,N,-0244,1","99999,9,09746,1","7,1,001,1,+999,9","70,1","SYN100AAXX  21061 01047 11670 80503 11160 21198 39746 40131 57001 69992 77072 8802/ 333 21244 47039 70009;",
"01047099999","2010-12-21T09:00:00","4","69.0166667","23.0666667","307.0","KAUTOKEINO II, NO","FM-12","ENKA ","V020","360,1,N,0050,1","00750,1,9,N","070000,1,N,1","-0152,1","-0190,1","10133,1",,,,"7,1,03,1","2,1,03,1",,"08,99,1,08,1,05,1,00800,1,99,9,99,9",,,"99999,9,09748,1","3,1,003,1,+999,9","02,1","SYN072AAXX  21091 01047 41588 83605 11152 21190 39748 40133 53003 70272 885//;",
"01047099999","2010-12-21T12:00:00","4","69.0166667","23.0666667","307.0","KAUTOKEINO II, NO","FM-12","ENKA ","V020","360,1,N,0050,1","01200,1,9,N","004000,1,N,1","-0136,1","-0156,1","10134,1",,,,"7,1,06,1","2,1,06,1",,"08,99,1,08,1,00,1,01250,1,02,1,99,9",,,"99999,9,09750,1","0,1,003,1,+999,9","71,1","SYN072AAXX  21121 01047 41640 83605 11136 21156 39750 40134 50003 77172 8802/;",
"01047099999","2010-12-21T15:00:00","4","69.0166667","23.0666667","307.0","KAUTOKEINO II, NO","FM-12","ENKA ","V020","360,1,N,0050,1","01200,1,9,N","008000,1,N,1","-0118,1","-0137,1","10135,1",,,,"7,1,03,1","7,1,03,1",,"08,99,1,08,1,00,1,01250,1,02,1,99,9",,,"99999,9,09752,1","2,1,002,1,+999,9","71,1","SYN072AAXX  21151 01047 41658 83605 11118 21137 39752 40135 52002 77177 8802/;",
"01047099999","2010-12-21T18:00:00","4","69.0166667","23.0666667","307.0","KAUTOKEINO II, NO","FM-12","ENKA ","V020","360,1,N,0050,1","01500,1,9,N","070000,1,N,1","-0125,1","-0148,1","10142,1","12,0000,2,1",,,"7,1,06,1","2,1,06,1",,"08,99,1,08,1,00,1,01750,1,01,1,99,9",,"999,M,-0114,1","99999,9,09757,1","0,1,007,1,+999,9","02,1","SYN088AAXX  21181 01047 11788 83605 11125 21148 39757 40142 50007 69912 70272 8801/ 333 11114;",
"01047099999","2010-12-22T00:00:00","4","69.0166667","23.0666667","307.0","KAUTOKEINO II, NO","FM-12","ENKA ","V020","360,1,N,0050,1","01200,1,9,N","010000,1,N,1","-0150,1","-0174,1","10181,1",,,,"7,1,06,1","2,1,06,1",,"08,99,1,08,1,00,1,01250,1,02,1,99,9",,,"99999,9,09795,1","1,1,015,1,+999,9","70,1","SYN072AAXX  22001 01047 41660 83605 11150 21174 39795 40181 51015 77072 8802/;",
"01047099999","2010-12-22T06:00:00","4","69.0166667","23.0666667","307.0","KAUTOKEINO II, NO","FM-12","ENKA ","V020","360,1,N,0010,1","01200,1,9,N","065000,1,N,1","-0108,1","-0133,1","10185,1","12,0000,2,1","24,0003,9,1","0037,9,1,999999,9,9","7,1,06,1","2,1,06,1",,"08,99,1,08,1,00,1,01250,1,02,1,99,9","24,9","999,N,-0172,1","99999,9,09801,1","0,1,004,1,+999,9","02,1","SYN100AAXX  22061 01047 11687 83601 11108 21133 39801 40185 50004 69912 70272 8802/ 333 21172 48037 70002;",
"01047099999","2010-12-22T09:00:00","4","69.0166667","23.0666667","307.0","KAUTOKEINO II, NO","FM-12","ENKA ","V020","360,1,N,0010,1","01200,1,9,N","010000,1,N,1","-0097,1","-0118,1","10194,1",,,,"7,1,03,1","2,1,03,1",,"08,99,1,08,1,00,1,01250,1,02,1,99,9",,,"99999,9,09810,1","3,1,008,1,+999,9","70,1","SYN072AAXX  22091 01047 41660 83601 11097 21118 39810 40194 53008 77072 8802/;",
"01047099999","2010-12-22T12:00:00","4","69.0166667","23.0666667","307.0","KAUTOKEINO II, NO","FM-12","ENKA ","V020","360,1,N,0030,1","01200,1,9,N","020000,1,N,1","-0094,1","-0107,1","10202,1",,,,"7,1,06,1","2,1,06,1",,"08,99,1,08,1,00,1,01250,1,02,1,99,9",,,"99999,9,09817,1","2,1,008,1,+999,9","70,1","SYN072AAXX  22121 01047 41670 83603 11094 21107 39817 40202 52008 77072 8802/;",
"01047099999","2010-12-22T15:00:00","4","69.0166667","23.0666667","307.0","KAUTOKEINO II, NO","FM-12","ENKA ","V020","360,1,N,0030,1","01200,1,9,N","020000,1,N,1","-0088,1","-0101,1","10209,1",,,,"7,1,03,1","2,1,03,1",,"08,99,1,08,1,00,1,01250,1,02,1,99,9",,,"99999,9,09825,1","2,1,007,1,+999,9","70,1","SYN072AAXX  22151 01047 41670 83603 11088 21101 39825 40209 52007 77072 8802/;",
"01047099999","2010-12-22T18:00:00","4","69.0166667","23.0666667","307.0","KAUTOKEINO II, NO","FM-12","ENKA ","V020","360,1,N,0030,1","01200,1,9,N","002000,1,N,1","-0080,1","-0092,1","10216,1","12,0005,9,1",,,"7,1,06,1","7,1,06,1",,"08,99,1,08,1,00,1,01250,1,02,1,99,9",,"999,M,-0075,1","99999,9,09832,1","2,1,007,1,+999,9","71,1","SYN088AAXX  22181 01047 11620 83603 11080 21092 39832 40216 52007 69952 77177 8802/ 333 11075;",
"01047099999","2010-12-23T00:00:00","4","69.0166667","23.0666667","307.0","KAUTOKEINO II, NO","FM-12","ENKA ","V020","360,1,N,0030,1","01200,1,9,N","070000,1,N,1","-0088,1","-0108,1","10228,1",,,,"2,1,06,1","2,1,06,1",,"08,99,1,08,1,05,1,01250,1,99,9,99,9",,,"99999,9,09842,1","2,1,004,1,+999,9","07,1","SYN072AAXX  23001 01047 41688 83603 11088 21108 39842 40228 52004 70722 885//;",
"01047099999","2010-12-23T06:00:00","4","69.0166667","23.0666667","307.0","KAUTOKEINO II, NO","FM-12","ENKA ","V020","999,9,C,0000,1","01200,1,9,N","070000,1,N,1","-0109,1","-0128,1","10226,1","12,0000,2,1","24,0005,9,1","0038,9,1,999999,9,9","7,1,06,1","2,1,06,1",,"08,99,1,08,1,05,1,01250,1,99,9,99,9","24,9","999,N,-0109,1","99999,9,09840,1","7,1,002,1,+999,9","02,1","SYN100AAXX  23061 01047 11688 80000 11109 21128 39840 40226 57002 69912 70272 885// 333 21109 48038 70006;",
"01047099999","2010-12-23T09:00:00","4","69.0166667","23.0666667","307.0","KAUTOKEINO II, NO","FM-12","ENKA ","V020","999,9,C,0000,1","01500,1,9,N","070000,1,N,1","-0156,1","-0173,1","10229,1",,,,"2,1,03,1","2,1,03,1",,"06,99,1,06,1,00,1,01750,1,07,1,00,1",,,"99999,9,09841,1","2,1,002,1,+999,9","02,1","SYN072AAXX  23091 01047 41788 60000 11156 21173 39841 40229 52002 70222 86070;",
"01047099999","2010-12-23T12:00:00","4","69.0166667","23.0666667","307.0","KAUTOKEINO II, NO","FM-12","ENKA ","V020","180,1,N,0050,1","01200,1,9,N","070000,1,N,1","-0170,1","-0188,1","10227,1",,,,"2,1,06,1","2,1,06,1",,"08,99,1,08,1,05,1,01250,1,99,9,99,9",,,"99999,9,09837,1","8,1,004,1,+999,9","02,1","SYN072AAXX  23121 01047 41688 81805 11170 21188 39837 40227 58004 70222 885//;",
"01047099999","2010-12-23T15:00:00","4","69.0166667","23.0666667","307.0","KAUTOKEINO II, NO","FM-12","ENKA ","V020","180,1,N,0050,1","01200,1,9,N","010000,1,N,1","-0153,1","-0172,1","10215,1",,,,"7,1,03,1","2,1,03,1",,"08,99,1,08,1,00,1,01250,1,02,1,99,9",,,"99999,9,09827,1","7,1,010,1,+999,9","71,1","SYN072AAXX  23151 01047 41660 81805 11153 21172 39827 40215 57010 77172 8802/;",
"01047099999","2010-12-23T18:00:00","4","69.0166667","23.0666667","307.0","KAUTOKEINO II, NO","FM-12","ENKA ","V020","180,1,N,0050,1","01200,1,9,N","070000,1,N,1","-0157,1","-0174,1","10205,1","12,0000,2,1",,,"7,1,06,1","2,1,06,1",,"06,99,1,06,1,00,1,01250,1,02,1,00,1",,"999,M,-0085,1","99999,9,09817,1","7,1,011,1,+999,9","02,1","SYN088AAXX  23181 01047 11688 61805 11157 21174 39817 40205 57011 69912 70272 86020 333 11085;",
"01047099999","2010-12-24T00:00:00","4","69.0166667","23.0666667","307.0","KAUTOKEINO II, NO","FM-12","ENKA ","V020","180,1,N,0050,1","01200,1,9,N","070000,1,N,1","-0126,1","-0145,1","10185,1",,,,"2,1,06,1","2,1,06,1",,"08,99,1,08,1,05,1,01250,1,99,9,99,9",,,"99999,9,09800,1","6,1,015,1,+999,9","02,1","SYN072AAXX  24001 01047 41688 81805 11126 21145 39800 40185 56015 70222 885//;",
"01047099999","2010-12-24T06:00:00","4","69.0166667","23.0666667","307.0","KAUTOKEINO II, NO","FM-12","ENKA ","V020","999,9,C,0000,1","01200,1,9,N","070000,1,N,1","-0106,1","-0124,1","10174,1","24,0000,2,1",,"0038,9,1,999999,9,9","2,1,06,1","2,1,06,1",,"07,99,1,07,1,05,1,01250,1,00,1,00,1","24,9","999,N,-0195,1","99999,9,09790,1","3,1,002,1,+999,9","02,1","SYN094AAXX  24061 01047 31688 70000 11106 21124 39790 40174 53002 70222 87500 333 21195 48038 70001;",
"01047099999","2010-12-24T09:00:00","4","69.0166667","23.0666667","307.0","KAUTOKEINO II, NO","FM-12","ENKA ","V020","999,9,C,0000,1","01200,1,9,N","070000,1,N,1","+9999,9","+9999,9","10169,1",,,,"2,1,03,1","2,1,03,1",,"08,99,1,08,1,00,1,01250,1,02,1,99,9",,,"99999,9,09800,1","2,1,009,1,+999,9","02,1","SYN072AAXX  24091 01047 41688 80000 10085 20065 39800 40169 52009 70222 8802/;","Q01+000853ATOT  "
"01047099999","2010-12-24T12:00:00","4","69.0166667","23.0666667","307.0","KAUTOKEINO II, NO","FM-12","ENKA ","V020","180,1,N,0030,1","01200,1,9,N","070000,1,N,1","-0070,1","-0083,1","10187,1",,,,"2,1,06,1","2,1,06,1",,"08,99,1,08,1,05,1,01250,1,99,9,99,9",,,"99999,9,09803,1","2,1,004,1,+999,9","02,1","SYN072AAXX  24121 01047 41688 81803 11070 21083 39803 40187 52004 70222 885//;",
"01047099999","2010-12-24T15:00:00","4","69.0166667","23.0666667","307.0","KAUTOKEINO II, NO","FM-12","ENKA ","V020","180,1,N,0030,1","22000,1,9,N","070000,1,N,1","-0131,1","-0143,1","10190,1",,,,"2,1,03,1","2,1,03,1",,"02,99,1,02,1,05,1,01250,1,00,1,00,1",,,"99999,9,09803,1","5,1,001,1,+999,9","01,1","SYN072AAXX  24151 01047 41688 21803 11131 21143 39803 40190 55001 70122 82500;",
"01047099999","2010-12-24T18:00:00","4","69.0166667","23.0666667","307.0","KAUTOKEINO II, NO","FM-12","ENKA ","V020","180,1,N,0030,1","22000,1,9,N","070000,1,N,1","-0104,1","-0116,1","10185,1",,,,"1,1,06,1","1,1,06,1",,"04,99,1,04,1,00,1,01750,1,07,1,00,1",,"999,M,-0065,1","99999,9,09801,1","5,1,003,1,+999,9","02,1","SYN082AAXX  24181 01047 31788 41803 11104 21116 39801 40185 55003 70211 84070 333 11065;",
"01047099999","2010-12-25T00:00:00","4","69.0166667","23.0666667","307.0","KAUTOKEINO II, NO","FM-12","ENKA ","V020","220,1,N,0050,1","22000,1,9,N","070000,1,N,1","-0080,1","-0092,1","10199,1",,,,"0,1,06,1","0,1,06,1",,"02,99,1,02,1,00,1,01750,1,07,1,00,1",,,"99999,9,09815,1","2,1,007,1,+999,9","02,1","SYN072AAXX  25001 01047 41788 22205 11080 21092 39815 40199 52007 70200 82070;",
"01047099999","2010-12-25T06:00:00","4","69.0166667","23.0666667","307.0","KAUTOKEINO II, NO","FM-12","ENKA ","V020","220,1,N,0050,1","01200,1,9,N","070000,1,N,1","-0053,1","-0061,1","10217,1","12,0000,9,1","24,0003,9,1","0039,9,1,999999,9,9","7,1,06,1","2,1,06,1",,"08,99,1,08,1,00,1,01250,1,02,1,99,9","24,9","999,N,-0112,1","99999,9,09833,1","2,1,008,1,+999,9","02,1","SYN100AAXX  25061 01047 11688 82205 11053 21061 39833 40217 52008 69922 70272 8802/ 333 21112 48039 70002;","Q01  00002PRCP12"
"01047099999","2010-12-25T09:00:00","4","69.0166667","23.0666667","307.0","KAUTOKEINO II, NO","FM-12","ENKA ","V020","220,1,N,0030,1","01200,1,9,N","070000,1,N,1","-0017,1","-0041,1","10228,1",,,,"2,1,03,1","2,1,03,1",,"08,99,1,08,1,00,1,01250,1,02,1,99,9",,,"99999,9,09846,1","2,1,012,1,+999,9","02,1","SYN072AAXX  25091 01047 41688 82203 11017 21041 39846 40228 52012 70222 8802/;",
"01047099999","2010-12-25T12:00:00","4","69.0166667","23.0666667","307.0","KAUTOKEINO II, NO","FM-12","ENKA ","V020","180,1,N,0030,1","00750,1,9,N","070000,1,N,1","-0034,1","-0059,1","10242,1",,,,"2,1,06,1","2,1,06,1",,"08,99,1,08,1,05,1,00800,1,99,9,99,9",,,"99999,9,09858,1","3,1,012,1,+999,9","02,1","SYN072AAXX  25121 01047 41588 81803 11034 21059 39858 40242 53012 70222 885//;",
"01047099999","2010-12-25T15:00:00","4","69.0166667","23.0666667","307.0","KAUTOKEINO II, NO","FM-12","ENKA ","V020","180,1,N,0050,1","00750,1,9,N","070000,1,N,1","-0048,1","-0067,1","10247,1",,,,"2,1,03,1","2,1,03,1",,"08,99,1,08,1,05,1,00800,1,99,9,99,9",,,"99999,9,09862,1","2,1,005,1,+999,9","02,1","SYN072AAXX  25151 01047 41588 81805 11048 21067 39862 40247 52005 70222 885//;",
"01047099999","2010-12-25T18:00:00","4","69.0166667","23.0666667","307.0","KAUTOKEINO II, NO","FM-12","ENKA ","V020","180,1,N,0050,1","00750,1,9,N","070000,1,N,1","-0085,1","-0102,1","10256,1",,,,"2,1,06,1","2,1,06,1",,"08,99,1,08,1,05,1,00800,1,99,9,99,9",,"999,M,-0015,1","99999,9,09870,1","3,1,007,1,+999,9","02,1","SYN082AAXX  25181 01047 31588 81805 11085 21102 39870 40256 53007 70222 885// 333 11015;",
"01047099999","2010-12-26T00:00:00","4","69.0166667","23.0666667","307.0","KAUTOKEINO II, NO","FM-12","ENKA ","V020","180,1,N,0050,1","22000,1,9,N","070000,1,N,1","-0180,1","-0197,1","10273,1",,,,"2,1,06,1","0,1,06,1","00,1,+99999,9,99,9","00,99,1,00,1,00,1,99999,9,00,1,00,1",,,"99999,9,09882,1","2,1,006,1,+999,9","01,1","SYN066AAXX  26001 01047 41988 01805 11180 21197 39882 40273 52006 70120;",
"01047099999","2010-12-26T06:00:00","4","69.0166667","23.0666667","307.0","KAUTOKEINO II, NO","FM-12","ENKA ","V020","180,1,N,0050,1","22000,1,9,N","070000,1,N,1","-0181,1","-0198,1","10271,1","24,0000,9,1",,"0039,9,1,999999,9,9","2,1,06,1","0,1,06,1","00,1,+99999,9,99,9","00,99,1,00,1,00,1,99999,9,00,1,00,1","24,9","999,N,-0190,1","99999,9,09880,1","4,1,000,1,+999,9","02,1","SYN088AAXX  26061 01047 31988 01805 11181 21198 39880 40271 54001 70220 333 21190 48039 70000;","Q01  00002PRCP24"
"01047099999","2010-12-26T09:00:00","4","69.0166667","23.0666667","307.0","KAUTOKEINO II, NO","FM-12","ENKA ","V020","180,1,N,0050,1","22000,1,9,N","070000,1,N,1","-0204,1","-0223,1","10279,1",,,,"0,1,03,1","0,1,03,1",,"03,99,1,03,1,00,1,01750,1,04,1,00,1",,,"99999,9,09887,1","3,1,010,1,+999,9","02,1","SYN072AAXX  26091 01047 41788 31805 11204 21223 39887 40279 53010 70200 83040;",
"01047099999","2010-12-26T12:00:00","4","69.0166667","23.0666667","307.0","KAUTOKEINO II, NO","FM-12","ENKA ","V020","180,1,N,0010,1","01500,1,9,N","070000,1,N,1","-0225,1","-0244,1","10283,1",,,,"2,1,06,1","2,1,06,1",,"06,99,1,06,1,00,1,01750,1,07,1,00,1",,,"99999,9,09890,1","2,1,003,1,+999,9","02,1","SYN072AAXX  26121 01047 41788 61801 11225 21244 39890 40283 52003 70222 86070;",
"01047099999","2010-12-26T15:00:00","4","69.0166667","23.0666667","307.0","KAUTOKEINO II, NO","FM-12","ENKA ","V020","180,1,N,0010,1","22000,1,9,N","070000,1,N,1","-0228,1","-0249,1","10282,1",,,,"1,1,03,1","1,1,03,1",,"04,99,1,04,1,00,1,01750,1,07,1,00,1",,,"99999,9,09888,1","5,1,001,1,+999,9","02,1","SYN072AAXX  26151 01047 41788 41801 11228 21249 39888 40282 55001 70211 84070;",
"01047099999","2010-12-26T18:00:00","4","69.0166667","23.0666667","307.0","KAUTOKEINO II, NO","FM-12","ENKA ","V020","180,1,N,0010,1","01500,1,9,N","070000,1,N,1","-0216,1","-0237,1","10287,1",,,,"1,1,06,1","1,1,06,1",,"06,99,1,06,1,00,1,01750,1,07,1,00,1",,"999,M,-0085,1","99999,9,09893,1","2,1,005,1,+999,9","02,1","SYN082AAXX  26181 01047 31788 61801 11216 21237 39893 40287 52005 70211 86070 333 11085;",
"01047099999","2010-12-27T00:00:00","4","69.0166667","23.0666667","307.0","KAUTOKEINO II, NO","FM-12","ENKA ","V020","180,1,N,0010,1","01500,1,9,N","070000,1,N,1","-0208,1","-0228,1","10285,1",,,,"2,1,06,1","2,1,06,1",,"08,99,1,08,1,00,1,01750,1,07,1,99,9",,,"99999,9,09892,1","8,1,002,1,+999,9","02,1","SYN072AAXX  27001 01047 41788 81801 11208 21228 39892 40285 58002 70222 8807/;",
"01047099999","2010-12-27T06:00:00","4","69.0166667","23.0666667","307.0","KAUTOKEINO II, NO","FM-12","ENKA ","V020","180,1,N,0010,1","01500,1,9,N","070000,1,N,1","-0251,1","-0271,1","10289,1","24,0000,9,1",,"0039,9,1,999999,9,9","2,1,06,1","1,1,06,1",,"06,99,1,06,1,00,1,01750,1,07,1,00,1","24,9","999,N,-0251,1","99999,9,09893,1","2,1,002,1,+999,9","02,1","SYN094AAXX  27061 01047 31788 61801 11251 21271 39893 40289 52002 70221 86070 333 21251 48039 70000;","Q01  00002PRCP24"
"01047099999","2010-12-27T09:00:00","4","69.0166667","23.0666667","307.0","KAUTOKEINO II, NO","FM-12","ENKA ","V020","999,9,C,0000,1","22000,1,9,N","070000,1,N,1","-0263,1","-0283,1","10302,1",,,,"2,1,03,1","0,1,03,1","00,1,+99999,9,99,9","00,99,1,00,1,00,1,99999,9,00,1,00,1",,,"99999,9,09906,1","2,1,012,1,+999,9","01,1","SYN066AAXX  27091 01047 41988 00000 11263 21283 39906 40302 52012 70120;",
"01047099999","2010-12-27T12:00:00","4","69.0166667","23.0666667","307.0","KAUTOKEINO II, NO","FM-12","ENKA ","V020","180,1,N,0010,1","22000,1,9,N","070000,1,N,1","-0272,1","-0291,1","10307,1",,,,"0,1,06,1","0,1,06,1","00,1,+99999,9,99,9","00,99,1,00,1,00,1,99999,9,00,1,00,1",,,"99999,9,09911,1","2,1,006,1,+999,9","02,1","SYN066AAXX  27121 01047 41988 01801 11272 21291 39911 40307 52006 70200;",
"01047099999","2010-12-27T15:00:00","4","69.0166667","23.0666667","307.0","KAUTOKEINO II, NO","FM-12","ENKA ","V020","180,1,N,0010,1","22000,1,9,N","070000,1,N,1","-0280,1","-0300,1","10317,1",,,,"0,1,03,1","0,1,03,1","00,1,+99999,9,99,9","00,99,1,00,1,00,1,99999,9,00,1,00,1",,,"99999,9,09920,1","3,1,008,1,+999,9","02,1","SYN066AAXX  27151 01047 41988 01801 11280 21300 39920 40317 53008 70200;",
"01047099999","2010-12-27T18:00:00","4","69.0166667","23.0666667","307.0","KAUTOKEINO II, NO","FM-12","ENKA ","V020","180,1,N,0030,1","22000,1,9,N","070000,1,N,1","-0284,1","-0304,1","10325,1",,,,"0,1,06,1","0,1,06,1","00,1,+99999,9,99,9","00,99,1,00,1,00,1,99999,9,00,1,00,1",,"999,M,-0223,1","99999,9,09927,1","2,1,008,1,+999,9","02,1","SYN076AAXX  27181 01047 31988 01803 11284 21304 39927 40325 52008 70200 333 11223;",
"01047099999","2010-12-28T00:00:00","4","69.0166667","23.0666667","307.0","KAUTOKEINO II, NO","FM-12","ENKA ","V020","180,1,N,0010,1","22000,1,9,N","070000,1,N,1","-0288,1","-0308,1","10329,1",,,,"0,1,06,1","0,1,06,1","00,1,+99999,9,99,9","00,99,1,00,1,00,1,99999,9,00,1,00,1",,,"99999,9,09931,1","8,1,003,1,+999,9","02,1","SYN066AAXX  28001 01047 41988 01801 11288 21308 39931 40329 58003 70200;",
"01047099999","2010-12-28T06:00:00","4","69.0166667","23.0666667","307.0","KAUTOKEINO II, NO","FM-12","ENKA ","V020","180,1,N,0010,1","22000,1,9,N","070000,1,N,1","-0298,1","-0318,1","10324,1","24,0000,9,1",,"0039,9,1,999999,9,9","0,1,06,1","0,1,06,1","00,1,+99999,9,99,9","00,99,1,00,1,00,1,99999,9,00,1,00,1","24,9","999,N,-0298,1","99999,9,09926,1","4,1,000,1,+999,9","02,1","SYN088AAXX  28061 01047 31988 01801 11298 21318 39926 40324 54001 70200 333 21298 48039 70000;","Q01  00002PRCP24"
"01047099999","2010-12-28T09:00:00","4","69.0166667","23.0666667","307.0","KAUTOKEINO II, NO","FM-12","ENKA ","V020","180,1,N,0010,1","22000,1,9,N","070000,1,N,1","-0296,1","-0316,1","10326,1",,,,"0,1,03,1","0,1,03,1","00,1,+99999,9,99,9","00,99,1,00,1,00,1,99999,9,00,1,00,1",,,"99999,9,09927,1","2,1,002,1,+999,9","02,1","SYN066AAXX  28091 01047 41988 01801 11296 21316 39927 40326 52002 70200;",
"01047099999","2010-12-28T12:00:00","4","69.0166667","23.0666667","307.0","KAUTOKEINO II, NO","FM-12","ENKA ","V020","180,1,N,0010,1","01500,1,9,N","070000,1,N,1","-0282,1","-0302,1","10322,1",,,,"2,1,06,1","0,1,06,1",,"08,99,1,08,1,00,1,01750,1,07,1,99,9",,,"99999,9,09925,1","8,1,003,1,+999,9","02,1","SYN072AAXX  28121 01047 41788 81801 11282 21302 39925 40322 58003 70220 8807/;",
"01047099999","2010-12-28T15:00:00","4","69.0166667","23.0666667","307.0","KAUTOKEINO II, NO","FM-12","ENKA ","V020","180,1,N,0030,1","01500,1,9,N","070000,1,N,1","-0274,1","-0295,1","10315,1",,,,"2,1,03,1","2,1,03,1",,"08,99,1,08,1,00,1,01750,1,07,1,99,9",,,"99999,9,09917,1","7,1,007,1,+999,9","02,1","SYN072AAXX  28151 01047 41788 81803 11274 21295 39917 40315 57007 70222 8807/;",
"01047099999","2010-12-28T18:00:00","4","69.0166667","23.0666667","307.0","KAUTOKEINO II, NO","FM-12","ENKA ","V020","180,1,N,0050,1","01500,1,9,N","070000,1,N,1","-0184,1","-0206,1","10300,1",,,,"2,1,06,1","2,1,06,1",,"08,99,1,08,1,00,1,01750,1,07,1,99,9",,"999,M,-0175,1","99999,9,09907,1","5,1,010,1,+999,9","02,1","SYN082AAXX  28181 01047 31788 81805 11184 21206 39907 40300 55010 70222 8807/ 333 11175;",
"01047099999","2010-12-29T00:00:00","4","69.0166667","23.0666667","307.0","KAUTOKEINO II, NO","FM-12","ENKA ","V020","180,1,N,0030,1","01500,1,9,N","070000,1,N,1","-0170,1","-0209,1","10295,1",,,,"2,1,06,1","2,1,06,1",,"08,99,1,08,1,00,1,01750,1,07,1,99,9",,,"99999,9,09903,1","7,1,003,1,+999,9","02,1","SYN072AAXX  29001 01047 41788 81803 11170 21209 39903 40295 57003 70222 8807/;",
"01047099999","2010-12-29T06:00:00","4","69.0166667","23.0666667","307.0","KAUTOKEINO II, NO","FM-12","ENKA ","V020","180,1,N,0050,1","01500,1,9,N","070000,1,N,1","-0167,1","-0211,1","10272,1","24,0000,9,1",,"0038,9,1,999999,9,9","2,1,06,1","2,1,06,1",,"08,99,1,08,1,00,1,01750,1,07,1,99,9","24,9","999,N,-0187,1","99999,9,09882,1","8,1,011,1,+999,9","02,1","SYN094AAXX  29061 01047 31788 81805 11167 21211 39882 40272 58011 70222 8807/ 333 21187 48038 70000;","Q01  00002PRCP24"
"01047099999","2010-12-29T09:00:00","4","69.0166667","23.0666667","307.0","KAUTOKEINO II, NO","FM-12","ENKA ","V020","180,1,N,0070,1","01500,1,9,N","070000,1,N,1","-0165,1","-0210,1","10262,1",,,,"2,1,03,1","2,1,03,1",,"06,99,1,06,1,00,1,01750,1,07,1,00,1",,,"99999,9,09872,1","7,1,007,1,+999,9","02,1","SYN072AAXX  29091 01047 41788 61807 11165 21210 39872 40262 57007 70222 86070;",
"01047099999","2010-12-29T12:00:00","4","69.0166667","23.0666667","307.0","KAUTOKEINO II, NO","FM-12","ENKA ","V020","180,1,N,0050,1","01500,1,9,N","070000,1,N,1","-0185,1","-0230,1","10249,1",,,,"1,1,06,1","1,1,06,1",,"05,99,1,05,1,00,1,01750,1,07,1,00,1",,,"99999,9,09858,1","8,1,013,1,+999,9","02,1","SYN072AAXX  29121 01047 41788 51805 11185 21230 39858 40249 58013 70211 85070;",
"01047099999","2010-12-29T15:00:00","4","69.0166667","23.0666667","307.0","KAUTOKEINO II, NO","FM-12","ENKA ","V020","180,1,N,0070,1","22000,1,9,N","070000,1,N,1","-0196,1","-0240,1","10224,1",,,,"1,1,03,1","1,1,03,1",,"04,99,1,04,1,00,1,01750,1,07,1,00,1",,,"99999,9,09833,1","8,1,027,1,+999,9","02,1","SYN072AAXX  29151 01047 41788 41807 11196 21240 39833 40224 58027 70211 84070;",
"01047099999","2010-12-29T18:00:00","4","69.0166667","23.0666667","307.0","KAUTOKEINO II, NO","FM-12","ENKA ","V020","180,1,N,0070,1","01500,1,9,N","070000,1,N,1","-0195,1","-0225,1","10196,1",,,,"1,1,06,1","1,1,06,1",,"05,99,1,05,1,00,1,01750,1,07,1,00,1",,"999,M,-0145,1","99999,9,09807,1","8,1,027,1,+999,9","02,1","SYN082AAXX  29181 01047 31788 51807 11195 21225 39807 40196 58027 70211 85070 333 11145;",
"01047099999","2010-12-30T00:00:00","4","69.0166667","23.0666667","307.0","KAUTOKEINO II, NO","FM-12","ENKA ","V020","180,1,N,0100,1","01200,1,9,N","002000,1,N,1","-0160,1","-0186,1","10122,1",,,,"7,1,06,1","2,1,06,1",,"08,99,1,08,1,00,1,01250,1,02,1,99,9",,,"99999,9,09737,1","8,1,045,1,+999,9","71,1","SYN072AAXX  30001 01047 41620 81810 11160 21186 39737 40122 58045 77172 8802/;",
"01047099999","2010-12-30T06:00:00","4","69.0166667","23.0666667","307.0","KAUTOKEINO II, NO","FM-12","ENKA ","V020","180,1,N,0070,1","01200,1,9,N","020000,1,N,1","-0124,1","-0148,1","10064,1","12,0008,9,1","24,0008,9,1","0039,9,1,999999,9,9","7,1,06,1","2,1,06,1",,"08,99,1,08,1,00,1,01250,1,02,1,99,9","24,9","999,N,-0198,1","99999,9,09682,1","8,1,021,1,+999,9","71,1","SYN100AAXX  30061 01047 11670 81807 11124 21148 39682 40064 58021 69972 77172 8802/ 333 21198 48039 70007;",
"01047099999","2010-12-30T09:00:00","4","69.0166667","23.0666667","307.0","KAUTOKEINO II, NO","FM-12","ENKA ","V020","180,1,N,0070,1","01200,1,9,N","065000,1,N,1","-0125,1","-0149,1","10050,1",,,,"7,1,03,1","2,1,03,1",,"08,99,1,08,1,00,1,01250,1,02,1,99,9",,,"99999,9,09670,1","7,1,010,1,+999,9","02,1","SYN072AAXX  30091 01047 41687 81807 11125 21149 39670 40050 57010 70272 8802/;",
"01047099999","2010-12-30T12:00:00","4","69.0166667","23.0666667","307.0","KAUTOKEINO II, NO","FM-12","ENKA ","V020","180,1,N,0050,1","99999,9,9,N","070000,1,N,1","-0134,1","-0161,1","10031,1",,,,"2,1,06,1","2,1,06,1",,"08,99,1,08,1,00,1,01250,1,07,1,99,9",,,"99999,9,09651,1","8,1,019,1,+999,9","02,1","SYN072AAXX  30121 01047 41688 81805 11134 21161 39651 40031 58019 70222 8807/;",
"01047099999","2010-12-30T15:00:00","4","69.0166667","23.0666667","307.0","KAUTOKEINO II, NO","FM-12","ENKA ","V020","180,1,N,0050,1","99999,9,9,N","070000,1,N,1","-0152,1","-0179,1","10009,1",,,,"2,1,03,1","2,1,03,1",,"06,99,1,06,1,00,1,01250,1,07,1,00,1",,,"99999,9,09628,1","5,1,021,1,+999,9","02,1","SYN072AAXX  30151 01047 41688 61805 11152 21179 39628 40009 55021 70222 86070;",
"01047099999","2010-12-30T18:00:00","4","69.0166667","23.0666667","307.0","KAUTOKEINO II, NO","FM-12","ENKA ","V020","180,1,N,0050,1","99999,9,9,N","070000,1,N,1","-0168,1","-0192,1","09986,1","12,0000,2,1",,,"7,1,06,1","2,1,06,1",,"07,99,1,07,1,00,1,01250,1,07,1,00,1",,"999,M,-0101,1","99999,9,09606,1","6,1,024,1,+999,9","02,1","SYN088AAXX  30181 01047 11688 71805 11168 21192 39606 49986 56024 69912 70272 87070 333 11101;",
"01047099999","2010-12-31T00:00:00","4","69.0166667","23.0666667","307.0","KAUTOKEINO II, NO","FM-12","ENKA ","V020","180,1,N,0070,1","01500,1,9,N","070000,1,N,1","-0171,1","-0195,1","09945,1",,,,"1,1,06,1","1,1,06,1",,"05,99,1,05,1,00,1,01750,1,07,1,00,1",,,"99999,9,09567,1","8,1,021,1,+999,9","02,1","SYN072AAXX  31001 01047 41788 51807 11171 21195 39567 49945 58021 70211 85070;",
"01047099999","2010-12-31T09:00:00","4","69.0166667","23.0666667","307.0","KAUTOKEINO II, NO","FM-12","ENKA ","V020","180,1,N,0070,1","01500,1,9,N","070000,1,N,1","-0178,1","-0201,1","09924,1",,,,"1,1,03,1","1,1,03,1",,"05,99,1,05,1,00,1,01750,1,07,1,00,1",,,"99999,9,09546,1","8,1,001,1,+999,9","02,1","SYN072AAXX  31091 01047 41788 51807 11178 21201 39546 49924 58001 70211 85070;",
"01047099999","2010-12-31T12:00:00","4","69.0166667","23.0666667","307.0","KAUTOKEINO II, NO","FM-12","ENKA ","V020","180,1,N,0070,1","01500,1,9,N","070000,1,N,1","-0167,1","-0193,1","09914,1",,,,"2,1,06,1","2,1,06,1",,"06,99,1,06,1,00,1,01750,1,07,1,00,1",,,"99999,9,09537,1","8,1,009,1,+999,9","02,1","SYN072AAXX  31121 01047 41788 61807 11167 21193 39537 49914 58009 70222 86070;",
"01047099999","2010-12-31T15:00:00","4","69.0166667","23.0666667","307.0","KAUTOKEINO II, NO","FM-12","ENKA ","V020","180,1,N,0070,1","01500,1,9,N","070000,1,N,1","-0156,1","-0183,1","09907,1",,,,"2,1,03,1","2,1,03,1",,"06,99,1,06,1,00,1,01750,1,07,1,00,1",,,"99999,9,09531,1","8,1,006,1,+999,9","02,1","SYN072AAXX  31151 01047 41788 61807 11156 21183 39531 49907 58006 70222 86070;",
"01047099999","2010-12-31T18:00:00","4","69.0166667","23.0666667","307.0","KAUTOKEINO II, NO","FM-12","ENKA ","V020","180,1,N,0050,1","01500,1,9,N","070000,1,N,1","-0144,1","-0168,1","09907,1",,,,"2,1,06,1","2,1,06,1",,"08,99,1,08,1,00,1,01750,1,07,1,99,9",,"999,M,-0130,1","99999,9,09532,1","4,1,000,1,+999,9","02,1","SYN082AAXX  31181 01047 31788 81805 11144 21168 39532 49907 54000 70222 8807/ 333 11130;",
