"STATION","DATE","SOURCE","LATITUDE","LONGITUDE","ELEVATION","NAME","REPORT_TYPE","CALL_SIGN","QUALITY_CONTROL","WND","CIG","VIS","TMP","DEW","SLP","AA1","AA2","AY1","AY2","GA1","GF1","KA1","MA1","MD1","MW1","REM","EQD"
"01108099999","2010-01-01T06:00:00","4","65.7","11.85","9.1","VEGA VALLSJO, NO","FM-12","99999","V020","080,1,N,0030,1","22000,1,9,N","075000,1,N,1","-0059,1","-0108,1","10136,1","12,0000,9,1","24,0000,9,1","2,1,06,1","2,1,06,1",,"02,99,1,01,1,01,1,00800,1,07,1,01,1","999,N,-0064,1","99999,9,10124,1","2,1,022,1,+999,9","01,1","SYN100AAXX  01061 01108 11589 20803 11059 21108 30124 40136 52022 60002 70122 81171 333 21064 4//// 70000;","Q01  00002PRCP24Q02  00002PRCP12"
"01108099999","2010-01-01T12:00:00","4","65.7","11.85","9.1","VEGA VALLSJO, NO","FM-12","99999","V020","140,1,N,0010,1","22000,1,9,N","070000,1,N,1","-0081,1","-0116,1","10179,1",,,"0,1,06,1","0,1,06,1",,"01,99,1,01,1,01,1,00800,1,00,1,00,1",,"99999,9,10167,1","2,1,018,1,+999,9","02,1","SYN088AAXX  01121 01108 11588 11401 11081 21116 30167 40179 52018 6//// 70200 81100 333 4////;",
"01108099999","2010-01-01T18:00:00","4","65.7","11.85","9.1","VEGA VALLSJO, NO","FM-12","99999","V020","120,1,N,0030,1","22000,1,9,N","070000,1,N,1","-0099,1","-0125,1","10219,1","12,0000,9,1",,"0,1,06,1","0,1,06,1",,"02,99,1,02,1,01,1,00800,1,00,1,00,1","120,M,-0050,1","99999,9,10207,1","2,1,021,1,+999,9","03,1","SYN094AAXX  01181 01108 11588 21203 11099 21125 30207 40219 52021 60002 70300 82100 333 11050 4////;","Q01  00002PRCP12"
"01108099999","2010-01-02T06:00:00","4","65.7","11.85","9.1","VEGA VALLSJO, NO","FM-12","99999","V020","190,1,N,0050,1","00420,1,9,N","020000,1,N,1","-0030,1","-0056,1","10228,1","12,9999,9,9","24,9999,9,9","8,1,06,1","2,1,06,1",,"07,99,1,07,1,09,1,00450,1,99,9,99,9","999,N,-0114,1","99999,9,10216,1","7,1,005,1,+999,9","85,1","SYN100AAXX  02061 01108 11470 71905 11030 21056 30216 40228 57005 69912 78582 879// 333 21114 4//// 70001;","Q01  00002PRCP24Q02  00002PRCP12Q03  00002PRCP12Q04  00002PRCP24"
"01108099999","2010-01-02T12:00:00","4","65.7","11.85","9.1","VEGA VALLSJO, NO","FM-12","99999","V020","210,1,N,0070,1","00420,1,9,N","005000,1,N,1","-0030,1","-0056,1","10207,1",,,"8,1,06,1","2,1,06,1",,"07,99,1,07,1,09,1,00450,1,99,9,99,9",,"99999,9,10195,1","7,1,011,1,+999,9","85,1","SYN088AAXX  02121 01108 11450 72107 11030 21056 30195 40207 57011 6//// 78582 879// 333 4////;",
"01108099999","2010-01-02T18:00:00","4","65.7","11.85","9.1","VEGA VALLSJO, NO","FM-12","99999","V020","150,1,N,0030,1","00420,1,9,N","020000,1,N,1","-0005,1","-0030,1","10175,1","12,0005,9,1",,"8,1,06,1","2,1,06,1",,"08,99,1,08,1,09,1,00450,1,99,9,99,9","120,M,+0008,1","99999,9,10163,1","7,1,009,1,+999,9","85,1","SYN094AAXX  02181 01108 11470 81503 11005 21030 30163 40175 57009 69942 78582 889// 333 10008 4////;",
"01108099999","2010-01-03T06:00:00","4","65.7","11.85","9.1","VEGA VALLSJO, NO","FM-12","99999","V020","340,1,N,0090,1","00420,1,9,N","020000,1,N,1","+0010,1","-0031,1","10102,1","12,0030,9,1","24,0036,9,1","8,1,06,1","2,1,06,1",,"07,99,1,07,1,09,1,00450,1,99,9,99,9","999,N,-0011,1","99999,9,10090,1","7,1,017,1,+999,9","26,1","SYN100AAXX  03061 01108 11470 73409 10010 21031 30090 40102 57017 60032 72682 879// 333 21011 4//// 70036;",
"01108099999","2010-01-03T12:00:00","4","65.7","11.85","9.1","VEGA VALLSJO, NO","FM-12","99999","V020","360,1,N,0120,1","00420,1,9,N","003000,1,N,1","-0018,1","-0043,1","10088,1",,,"8,1,06,1","2,1,06,1",,"07,99,1,07,1,09,1,00450,1,99,9,99,9",,"99999,9,10076,1","7,1,004,1,+999,9","88,1","SYN088AAXX  03121 01108 11430 73612 11018 21043 30076 40088 57004 6//// 78882 879// 333 4////;",
"01108099999","2010-01-03T18:00:00","4","65.7","11.85","9.1","VEGA VALLSJO, NO","FM-12","99999","V020","300,1,N,0140,1","00420,1,9,N","020000,1,N,1","+0022,1","-0056,1","10020,1","12,0030,9,1",,"8,1,06,1","2,1,06,1",,"07,99,1,07,1,09,1,00450,1,99,9,99,9","120,M,+0023,1","99999,9,10009,1","7,1,037,1,+999,9","15,1","SYN094AAXX  03181 01108 11470 73014 10022 21056 30009 40020 57037 60032 71582 879// 333 10023 4////;",
"01108099999","2010-01-04T06:00:00","4","65.7","11.85","9.1","VEGA VALLSJO, NO","FM-12","99999","V020","060,1,N,0040,1","22000,1,9,N","075000,1,N,1","-0031,1","-0092,1","10021,1","12,0005,9,1","24,0036,9,1","2,1,06,1","0,1,06,1",,"02,99,1,01,1,01,1,00800,1,00,1,02,1","999,N,-0031,1","99999,9,10009,1","2,1,026,1,+999,9","01,1","SYN100AAXX  04061 01108 11589 20604 11031 21092 30009 40021 52026 69952 70120 81102 333 21031 4//// 70035;",
"01108099999","2010-01-04T12:00:00","4","65.7","11.85","9.1","VEGA VALLSJO, NO","FM-12","99999","V020","140,1,N,0030,1","07500,1,9,N","060000,1,N,1","-0055,1","-0113,1","10042,1",,,"2,1,06,1","1,1,06,1",,"05,99,1,02,1,09,1,00800,1,00,1,02,1",,"99999,9,10030,1","2,1,006,1,+999,9","15,1","SYN088AAXX  04121 01108 11586 51403 11055 21113 30030 40042 52006 6//// 71521 82902 333 4////;",
"01108099999","2010-01-04T18:00:00","4","65.7","11.85","9.1","VEGA VALLSJO, NO","FM-12","99999","V020","070,1,N,0070,1","22000,1,9,N","075000,1,N,1","-0057,1","-0121,1","10076,1","12,0000,9,1",,"2,1,06,1","1,1,06,1",,"01,99,1,01,1,04,1,00800,1,00,1,00,1","120,M,-0030,1","99999,9,10064,1","2,1,023,1,+999,9","01,1","SYN094AAXX  04181 01108 11589 10707 11057 21121 30064 40076 52023 60002 70121 81400 333 11030 4////;","Q01  00002PRCP12"
"01108099999","2010-01-05T06:00:00","4","65.7","11.85","9.1","VEGA VALLSJO, NO","FM-12","99999","V020","160,1,N,0020,1","22000,1,9,N","070000,1,N,1","-0104,1","-0177,1","10136,1","12,0000,9,1","24,0000,9,1","0,1,06,1","0,1,06,1",,"04,99,1,01,1,01,1,00800,1,00,1,02,1","999,N,-0128,1","99999,9,10124,1","6,1,002,1,+999,9","03,1","SYN100AAXX  05061 01108 11588 41602 11104 21177 30124 40136 56002 60002 70300 81102 333 21128 4//// 70000;","Q01  00002PRCP24Q02  00002PRCP12"
"01108099999","2010-01-05T12:00:00","4","65.7","11.85","9.1","VEGA VALLSJO, NO","FM-12","99999","V020","140,1,N,0040,1","03000,1,9,N","030000,1,N,1","-0081,1","-0108,1","10128,1",,,"2,1,06,1","2,1,06,1",,"06,99,1,03,1,09,1,00800,1,06,1,02,1",,"99999,9,10116,1","7,1,002,1,+999,9","15,1","SYN088AAXX  05121 01108 11580 61404 11081 21108 30116 40128 57002 6//// 71522 83962 333 4////;",
"01108099999","2010-01-05T18:00:00","4","65.7","11.85","9.1","VEGA VALLSJO, NO","FM-12","99999","V020","130,1,N,0040,1","07500,1,9,N","050000,1,N,1","-0068,1","-0092,1","10124,1","12,0000,9,1",,"8,1,06,1","2,1,06,1",,"05,99,1,02,1,09,1,00800,1,06,1,01,1","120,M,-0055,1","99999,9,10113,1","7,1,001,1,+999,9","15,1","SYN094AAXX  05181 01108 11584 51304 11068 21092 30113 40124 57001 69912 71582 82961 333 11055 4////;","Q01  00002PRCP12"
"01108099999","2010-01-06T06:00:00","4","65.7","11.85","9.1","VEGA VALLSJO, NO","FM-12","99999","V020","140,1,N,0040,1","22000,1,9,N","060000,1,N,1","-0126,1","-0140,1","10139,1","12,0000,9,1","24,0000,9,1","1,1,06,1","0,1,06,1",,"03,99,1,02,1,02,1,00800,1,06,1,01,1","999,N,-0131,1","99999,9,10127,1","4,1,000,1,+999,9","02,1","SYN100AAXX  06061 01108 11586 31404 11126 21140 30127 40139 54000 60002 70210 82261 333 21131 4//// 70001;","Q01  00002PRCP24Q02  00002PRCP12"
"01108099999","2010-01-06T12:00:00","4","65.7","11.85","9.1","VEGA VALLSJO, NO","FM-12","99999","V020","150,1,N,0040,1","22000,1,9,N","070000,1,N,1","-0121,1","-0134,1","10154,1",,,"0,1,06,1","0,1,06,1",,"01,99,1,01,1,01,1,00800,1,00,1,00,1",,"99999,9,10142,1","2,1,004,1,+999,9","02,1","SYN088AAXX  06121 01108 11588 11504 11121 21134 30142 40154 52004 6//// 70200 81100 333 4////;",
"01108099999","2010-01-06T18:00:00","4","65.7","11.85","9.1","VEGA VALLSJO, NO","FM-12","99999","V020","140,1,N,0030,1","22000,1,9,N","060000,1,N,1","-0116,1","-0135,1","10164,1","12,0000,9,1",,"0,1,06,1","0,1,06,1",,"01,99,1,01,1,01,1,00800,1,00,1,00,1","120,M,-0110,1","99999,9,10152,1","2,1,009,1,+999,9","02,1","SYN094AAXX  06181 01108 11586 11403 11116 21135 30152 40164 52009 69912 70200 81100 333 11110 4////;","Q01  00002PRCP12"
"01108099999","2010-01-07T06:00:00","4","65.7","11.85","9.1","VEGA VALLSJO, NO","FM-12","99999","V020","150,1,N,0040,1","22000,1,9,N","070000,1,N,1","-0093,1","-0130,1","10187,1","12,0000,9,1","24,0000,9,1","0,1,06,1","0,1,06,1",,"01,99,1,01,1,01,1,00800,1,00,1,00,1","999,N,-0128,1","99999,9,10175,1","2,1,001,1,+999,9","02,1","SYN100AAXX  07061 01108 11588 11504 11093 21130 30175 40187 52001 60002 70200 81100 333 21128 4//// 70001;","Q01  00002PRCP24Q02  00002PRCP12"
"01108099999","2010-01-07T12:00:00","4","65.7","11.85","9.1","VEGA VALLSJO, NO","FM-12","99999","V020","140,1,N,0020,1","07500,1,9,N","075000,1,N,1","-0082,1","-0121,1","10199,1",,,"2,1,06,1","1,1,06,1",,"06,99,1,01,1,01,1,00800,1,00,1,02,1",,"99999,9,10187,1","1,1,008,1,+999,9","02,1","SYN088AAXX  07121 01108 11589 61402 11082 21121 30187 40199 51008 6//// 70221 81102 333 4////;",
"01108099999","2010-01-07T18:00:00","4","65.7","11.85","9.1","VEGA VALLSJO, NO","FM-12","99999","V020","140,1,N,0030,1","07500,1,9,N","070000,1,N,1","-0093,1","-0124,1","10210,1","12,0000,9,1",,"2,1,06,1","2,1,06,1",,"07,99,1,01,1,01,1,00800,1,00,1,02,1","120,M,-0071,1","99999,9,10198,1","2,1,004,1,+999,9","02,1","SYN094AAXX  07181 01108 11588 71403 11093 21124 30198 40210 52004 60002 70222 81102 333 11071 4////;","Q01  00002PRCP12"
"01108099999","2010-01-08T06:00:00","4","65.7","11.85","9.1","VEGA VALLSJO, NO","FM-12","99999","V020","190,1,N,0050,1","03000,1,9,N","060000,1,N,1","-0023,1","-0052,1","10223,1","12,0000,9,1","24,0000,9,1","2,1,06,1","2,1,06,1",,"07,99,1,03,1,02,1,00450,1,07,1,02,1","999,N,-0100,1","99999,9,10211,1","4,1,000,1,+999,9","03,1","SYN100AAXX  08061 01108 11486 71905 11023 21052 30211 40223 54000 60002 70322 83272 333 21100 4//// 70000;","Q01  00002PRCP24Q02  00002PRCP12"
"01108099999","2010-01-08T12:00:00","4","65.7","11.85","9.1","VEGA VALLSJO, NO","FM-12","99999","V020","200,1,N,0110,1","00420,1,9,N","000500,1,N,1","+0003,1","-0019,1","10225,1",,,"8,1,06,1","8,1,06,1",,"08,99,1,08,1,09,1,00450,1,99,9,99,9",,"99999,9,10213,1","2,1,005,1,+999,9","86,1","SYN088AAXX  08121 01108 11405 82011 10003 21019 30213 40225 52005 6//// 78688 889// 333 4////;",
"01108099999","2010-01-08T18:00:00","4","65.7","11.85","9.1","VEGA VALLSJO, NO","FM-12","99999","V020","240,1,N,0090,1","00210,1,9,N","015000,1,N,1","+0024,1","+0008,1","10242,1","12,0071,9,1",,"8,1,06,1","2,1,06,1",,"08,99,1,08,1,09,1,00250,1,99,9,99,9","120,M,+0033,1","99999,9,10231,1","2,1,013,1,+999,9","83,1","SYN094AAXX  08181 01108 11365 82409 10024 20008 30231 40242 52013 60072 78382 889// 333 10033 4////;",
"01108099999","2010-01-09T06:00:00","4","65.7","11.85","9.1","VEGA VALLSJO, NO","FM-12","99999","V020","230,1,N,0050,1","00420,1,9,N","020000,1,N,1","+0044,1","-0008,1","10291,1","12,0020,9,1","24,0089,9,1","8,1,06,1","2,1,06,1",,"07,99,1,07,1,09,1,00450,1,99,9,99,9","999,N,+0014,1","99999,9,10280,1","2,1,014,1,+999,9","80,1","SYN100AAXX  09061 01108 11470 72305 10044 21008 30280 40291 52014 60022 78082 879// 333 20014 4//// 70088;",
"01108099999","2010-01-09T12:00:00","4","65.7","11.85","9.1","VEGA VALLSJO, NO","FM-12","99999","V020","230,1,N,0100,1","03000,1,9,N","025000,1,N,1","+0047,1","+0016,1","10317,1",,,"8,1,06,1","2,1,06,1",,"07,99,1,04,1,09,1,00450,1,06,1,01,1",,"99999,9,10305,1","2,1,011,1,+999,9","25,1","SYN088AAXX  09121 01108 11475 72310 10047 20016 30305 40317 52011 6//// 72582 84961 333 4////;",
"01108099999","2010-01-09T18:00:00","4","65.7","11.85","9.1","VEGA VALLSJO, NO","FM-12","99999","V020","220,1,N,0110,1","00420,1,9,N","006000,1,N,1","+0041,1","+0011,1","10327,1","12,0005,9,1",,"8,1,06,1","2,1,06,1",,"08,99,1,08,1,09,1,00450,1,99,9,99,9","120,M,+0049,1","99999,9,10315,1","1,1,003,1,+999,9","81,1","SYN094AAXX  09181 01108 11456 82211 10041 20011 30315 40327 51003 69962 78182 889// 333 10049 4////;",
"01108099999","2010-01-10T06:00:00","4","65.7","11.85","9.1","VEGA VALLSJO, NO","FM-12","99999","V020","230,1,N,0110,1","00210,1,9,N","010000,1,N,1","+0054,1","+0031,1","10307,1","12,0020,9,1","24,0030,9,1","8,1,06,1","6,1,06,1",,"08,99,1,08,1,09,1,00250,1,99,9,99,9","999,N,+0031,1","99999,9,10296,1","6,1,010,1,+999,9","81,1","SYN100AAXX  10061 01108 11360 82311 10054 20031 30296 40307 56010 60022 78186 889// 333 20031 4//// 70030;",
"01108099999","2010-01-10T12:00:00","4","65.7","11.85","9.1","VEGA VALLSJO, NO","FM-12","99999","V020","240,1,N,0100,1","00420,1,9,N","025000,1,N,1","+0060,1","+0035,1","10310,1",,,"8,1,06,1","2,1,06,1",,"08,99,1,08,1,09,1,00450,1,99,9,99,9",,"99999,9,10299,1","4,1,000,1,+999,9","25,1","SYN088AAXX  10121 01108 11475 82410 10060 20035 30299 40310 54000 6//// 72582 889// 333 4////;",
"01108099999","2010-01-10T18:00:00","4","65.7","11.85","9.1","VEGA VALLSJO, NO","FM-12","99999","V020","250,1,N,0080,1","00210,1,9,N","010000,1,N,1","+0058,1","+0044,1","10308,1","12,0030,9,1",,"8,1,06,1","2,1,06,1",,"08,99,1,08,1,09,1,00250,1,99,9,99,9","120,M,+0062,1","99999,9,10297,1","7,1,004,1,+999,9","80,1","SYN094AAXX  10181 01108 11360 82508 10058 20044 30297 40308 57004 60032 78082 889// 333 10062 4////;",
"01108099999","2010-01-11T06:00:00","4","65.7","11.85","9.1","VEGA VALLSJO, NO","FM-12","99999","V020","240,1,N,0040,1","00210,1,9,N","005000,1,N,1","+0056,1","+0044,1","10302,1","12,0010,9,1","24,0036,9,1","8,1,06,1","2,1,06,1",,"07,99,1,07,1,09,1,00250,1,99,9,99,9","999,N,+0051,1","99999,9,10290,1","7,1,008,1,+999,9","80,1","SYN100AAXX  11061 01108 11350 72404 10056 20044 30290 40302 57008 69992 78082 879// 333 20051 4//// 70036;",
"01108099999","2010-01-11T12:00:00","4","65.7","11.85","9.1","VEGA VALLSJO, NO","FM-12","99999","V020","250,1,N,0030,1","00030,1,9,N","001200,1,N,1","+0054,1","+0044,1","10306,1",,,"5,1,06,1","4,1,06,1",,"08,99,1,08,1,06,1,00025,1,99,9,99,9",,"99999,9,10294,1","7,1,002,1,+999,9","52,1","SYN088AAXX  11121 01108 11012 82503 10054 20044 30294 40306 57002 6//// 75254 886// 333 4////;",
"01108099999","2010-01-11T18:00:00","4","65.7","11.85","9.1","VEGA VALLSJO, NO","FM-12","99999","V020","260,1,N,0040,1","00060,1,9,N","003000,1,N,1","+0051,1","+0041,1","10289,1","12,0008,9,1",,"5,1,06,1","2,1,06,1",,"08,99,1,08,1,06,1,00075,1,99,9,99,9","120,M,+0057,1","99999,9,10277,1","7,1,007,1,+999,9","52,1","SYN094AAXX  11181 01108 11130 82604 10051 20041 30277 40289 57007 69972 75252 886// 333 10057 4////;",
"01108099999","2010-01-12T06:00:00","4","65.7","11.85","9.1","VEGA VALLSJO, NO","FM-12","99999","V020","250,1,N,0020,1","00420,1,9,N","030000,1,N,1","+0041,1","+0029,1","10269,1","12,0008,9,1","24,0015,9,1","8,1,06,1","2,1,06,1",,"07,99,1,05,1,09,1,00450,1,00,1,02,1","999,N,+0038,1","99999,9,10258,1","7,1,004,1,+999,9","15,1","SYN100AAXX  12061 01108 11480 72502 10041 20029 30258 40269 57004 69982 71582 85902 333 20038 4//// 70015;",
"01108099999","2010-01-12T12:00:00","4","65.7","11.85","9.1","VEGA VALLSJO, NO","FM-12","99999","V020","210,1,N,0020,1","22000,1,9,N","030000,1,N,1","+0033,1","+0021,1","10263,1",,,"8,1,06,1","2,1,06,1",,"07,99,1,04,1,09,1,00150,1,00,1,01,1",,"99999,9,10251,1","8,1,002,1,+999,9","15,1","SYN088AAXX  12121 01108 11280 72102 10033 20021 30251 40263 58002 6//// 71582 84901 333 4////;",
"01108099999","2010-01-12T18:00:00","4","65.7","11.85","9.1","VEGA VALLSJO, NO","FM-12","99999","V020","170,1,N,0020,1","07500,1,9,N","050000,1,N,1","+0014,1","+0004,1","10248,1","12,0000,9,1",,"8,1,06,1","2,1,06,1",,"07,99,1,03,1,04,1,00450,1,00,1,02,1","120,M,+0041,1","99999,9,10237,1","7,1,008,1,+999,9","01,1","SYN094AAXX  12181 01108 11484 71702 10014 20004 30237 40248 57008 69912 70182 83402 333 10041 4////;","Q01  00002PRCP12"
"01108099999","2010-01-13T06:00:00","4","65.7","11.85","9.1","VEGA VALLSJO, NO","FM-12","99999","V020","130,1,N,0030,1","22000,1,9,N","075000,1,N,1","+0000,1","-0010,1","10205,1","12,0000,9,1","24,0000,9,1","2,1,06,1","2,1,06,1",,"06,99,1,01,1,01,1,00800,1,00,1,01,1","999,N,-0005,1","99999,9,10194,1","7,1,014,1,+999,9","02,1","SYN100AAXX  13061 01108 11589 61303 10000 21010 30194 40205 57014 60002 70222 81101 333 21005 4//// 70001;","Q01  00002PRCP24Q02  00002PRCP12"
"01108099999","2010-01-13T12:00:00","4","65.7","11.85","9.1","VEGA VALLSJO, NO","FM-12","99999","V020","110,1,N,0010,1","22000,1,9,N","075000,1,N,1","-0005,1","-0022,1","10190,1",,,"2,1,06,1","1,1,06,1",,"05,99,1,01,1,01,1,00800,1,00,1,01,1",,"99999,9,10179,1","7,1,006,1,+999,9","03,1","SYN088AAXX  13121 01108 11589 51101 11005 21022 30179 40190 57006 6//// 70321 81101 333 4////;",
"01108099999","2010-01-13T18:00:00","4","65.7","11.85","9.1","VEGA VALLSJO, NO","FM-12","99999","V020","120,1,N,0020,1","22000,1,9,N","075000,1,N,1","-0016,1","-0026,1","10185,1","12,0000,9,1",,"1,1,06,1","1,1,06,1",,"02,99,1,01,1,01,1,00450,1,00,1,01,1","120,M,+0004,1","99999,9,10173,1","2,1,001,1,+999,9","01,1","SYN094AAXX  13181 01108 11489 21202 11016 21026 30173 40185 52001 69912 70111 81101 333 10004 4////;","Q01  00002PRCP12"
"01108099999","2010-01-14T06:00:00","4","65.7","11.85","9.1","VEGA VALLSJO, NO","FM-12","99999","V020","130,1,N,0030,1","22000,1,9,N","075000,1,N,1","-0037,1","-0056,1","10167,1","12,0000,9,1","24,0003,9,1","0,1,06,1","0,1,06,1",,"01,99,1,01,1,01,1,00800,1,00,1,01,1","999,N,-0046,1","99999,9,10155,1","7,1,006,1,+999,9","02,1","SYN100AAXX  14061 01108 11589 11303 11037 21056 30155 40167 57006 69912 70200 81101 333 21046 4//// 70002;","Q01  00002PRCP12"
"01108099999","2010-01-14T12:00:00","4","65.7","11.85","9.1","VEGA VALLSJO, NO","FM-12","99999","V020","130,1,N,0020,1","22000,1,9,N","075000,1,N,1","-0021,1","-0047,1","10173,1",,,"0,1,06,1","0,1,06,1",,"02,99,1,01,1,01,1,00800,1,00,1,01,1",,"99999,9,10161,1","4,1,000,1,+999,9","02,1","SYN088AAXX  14121 01108 11589 21302 11021 21047 30161 40173 54000 6//// 70200 81101 333 4////;",
"01108099999","2010-01-14T18:00:00","4","65.7","11.85","9.1","VEGA VALLSJO, NO","FM-12","99999","V020","150,1,N,0030,1","22000,1,9,N","075000,1,N,1","-0018,1","-0047,1","10181,1","12,0000,9,1",,"0,1,06,1","0,1,06,1",,"01,99,1,01,1,01,1,00800,1,00,1,01,1","120,M,-0015,1","99999,9,10169,1","3,1,008,1,+999,9","02,1","SYN094AAXX  14181 01108 11589 11503 11018 21047 30169 40181 53008 60002 70200 81101 333 11015 4////;","Q01  00002PRCP12"
"01108099999","2010-01-15T06:00:00","4","65.7","11.85","9.1","VEGA VALLSJO, NO","FM-12","99999","V020","060,1,N,0050,1","22000,1,9,N","075000,1,N,1","-0001,1","-0058,1","10191,1","12,0000,9,1","24,0000,9,1","0,1,06,1","0,1,06,1",,"01,99,1,01,1,01,1,00800,1,00,1,01,1","999,N,-0035,1","99999,9,10179,1","4,1,000,1,+999,9","02,1","SYN100AAXX  15061 01108 11589 10605 11001 21058 30179 40191 54000 60002 70200 81101 333 21035 4//// 70000;","Q01  00002PRCP24Q02  00002PRCP12"
"01108099999","2010-01-15T12:00:00","4","65.7","11.85","9.1","VEGA VALLSJO, NO","FM-12","99999","V020","160,1,N,0020,1","22000,1,9,N","075000,1,N,1","+0011,1","-0119,1","10204,1",,,"0,1,06,1","0,1,06,1","00,1,+99999,9,99,9","00,99,1,00,1,00,1,99999,9,00,1,00,1",,"99999,9,10193,1","1,1,003,1,+999,9","02,1","SYN082AAXX  15121 01108 11989 01602 10011 21119 30193 40204 51003 6//// 70200 333 4////;",
"01108099999","2010-01-15T18:00:00","4","65.7","11.85","9.1","VEGA VALLSJO, NO","FM-12","99999","V020","150,1,N,0070,1","22000,1,9,N","075000,1,N,1","+0003,1","-0084,1","10202,1","12,0000,9,1",,"0,1,06,1","0,1,06,1",,"01,99,1,01,1,01,1,00800,1,00,1,00,1","120,M,+0038,1","99999,9,10191,1","0,1,000,1,+999,9","02,1","SYN094AAXX  15181 01108 11589 11507 10003 21084 30191 40202 50000 60002 70200 81100 333 10038 4////;","Q01  00002PRCP12"
"01108099999","2010-01-16T06:00:00","4","65.7","11.85","9.1","VEGA VALLSJO, NO","FM-12","99999","V020","150,1,N,0060,1","03000,1,9,N","075000,1,N,1","+0001,1","-0090,1","10190,1","12,0000,9,1","24,0000,9,1","2,1,06,1","1,1,06,1",,"07,99,1,01,1,01,1,00800,1,07,1,02,1","999,N,-0015,1","99999,9,10178,1","7,1,009,1,+999,9","03,1","SYN100AAXX  16061 01108 11589 71506 10001 21090 30178 40190 57009 60002 70321 81172 333 21015 4//// 70000;","Q01  00002PRCP24Q02  00002PRCP12"
"01108099999","2010-01-16T12:00:00","4","65.7","11.85","9.1","VEGA VALLSJO, NO","FM-12","99999","V020","120,1,N,0070,1","99999,9,9,N","075000,1,N,1","+0013,1","-0096,1","10178,1",,,"2,1,06,1","2,1,06,1",,"07,99,1,04,1,00,1,99999,9,07,1,01,1",,"99999,9,10166,1","7,1,002,1,+999,9","01,1","SYN088AAXX  16121 01108 11989 71207 10013 21096 30166 40178 57002 6//// 70122 84071 333 4////;",
"01108099999","2010-01-16T18:00:00","4","65.7","11.85","9.1","VEGA VALLSJO, NO","FM-12","99999","V020","130,1,N,0080,1","22000,1,9,N","075000,1,N,1","+0004,1","-0104,1","10166,1","12,0000,9,1",,"2,1,06,1","0,1,06,1",,"02,99,1,01,1,00,1,99999,9,07,1,04,1","120,M,+0023,1","99999,9,10154,1","7,1,006,1,+999,9","02,1","SYN094AAXX  16181 01108 11989 21308 10004 21104 30154 40166 57006 60002 70220 81074 333 10023 4////;","Q01  00002PRCP12"
"01108099999","2010-01-17T06:00:00","4","65.7","11.85","9.1","VEGA VALLSJO, NO","FM-12","99999","V020","110,1,N,0050,1","22000,1,9,N","075000,1,N,1","+0011,1","-0112,1","10153,1","12,0000,9,1","24,0000,9,1","0,1,06,1","0,1,06,1",,"01,99,1,00,1,00,1,99999,9,00,1,01,1","999,N,-0006,1","99999,9,10142,1","6,1,003,1,+999,9","02,1","SYN100AAXX  17061 01108 11989 11105 10011 21112 30142 40153 56003 60002 70200 80001 333 21006 4//// 70000;","Q01  00002PRCP24Q02  00002PRCP12"
"01108099999","2010-01-17T12:00:00","4","65.7","11.85","9.1","VEGA VALLSJO, NO","FM-12","99999","V020","140,1,N,0070,1","22000,1,9,N","075000,1,N,1","+0009,1","-0108,1","10157,1",,,"0,1,06,1","0,1,06,1",,"01,99,1,01,1,01,1,01250,1,00,1,01,1",,"99999,9,10145,1","2,1,003,1,+999,9","02,1","SYN088AAXX  17121 01108 11689 11407 10009 21108 30145 40157 52003 6//// 70200 81101 333 4////;",
"01108099999","2010-01-17T18:00:00","4","65.7","11.85","9.1","VEGA VALLSJO, NO","FM-12","99999","V020","160,1,N,0090,1","22000,1,9,N","075000,1,N,1","+0005,1","-0100,1","10175,1","12,0000,9,1",,"0,1,06,1","0,1,06,1",,"02,99,1,01,1,01,1,01250,1,00,1,05,1","120,M,+0012,1","99999,9,10163,1","2,1,011,1,+999,9","03,1","SYN094AAXX  17181 01108 11689 21609 10005 21100 30163 40175 52011 60002 70300 81105 333 10012 4////;","Q01  00002PRCP12"
"01108099999","2010-01-18T06:00:00","4","65.7","11.85","9.1","VEGA VALLSJO, NO","FM-12","99999","V020","140,1,N,0070,1","03000,1,9,N","075000,1,N,1","-0013,1","-0096,1","10190,1","12,0000,9,1","24,0000,9,1","2,1,06,1","1,1,06,1",,"07,99,1,01,1,01,1,00800,1,07,1,01,1","999,N,-0015,1","99999,9,10178,1","6,1,002,1,+999,9","02,1","SYN100AAXX  18061 01108 11589 71407 11013 21096 30178 40190 56002 60002 70221 81171 333 21015 4//// 70000;","Q01  00002PRCP24Q02  00002PRCP12"
"01108099999","2010-01-18T12:00:00","4","65.7","11.85","9.1","VEGA VALLSJO, NO","FM-12","99999","V020","150,1,N,0080,1","03000,1,9,N","075000,1,N,1","-0016,1","-0101,1","10199,1",,,"2,1,06,1","2,1,06,1",,"07,99,1,01,1,05,1,01250,1,01,1,06,1",,"99999,9,10188,1","4,1,000,1,+999,9","03,1","SYN088AAXX  18121 01108 11689 71508 11016 21101 30188 40199 54000 6//// 70322 81516 333 4////;",
"01108099999","2010-01-18T18:00:00","4","65.7","11.85","9.1","VEGA VALLSJO, NO","FM-12","99999","V020","140,1,N,0070,1","07500,1,9,N","075000,1,N,1","-0015,1","-0089,1","10196,1","12,0000,9,1",,"2,1,06,1","2,1,06,1",,"06,99,1,01,1,05,1,01250,1,00,1,08,1","120,M,-0012,1","99999,9,10184,1","4,1,000,1,+999,9","01,1","SYN094AAXX  18181 01108 11689 61407 11015 21089 30184 40196 54000 60002 70122 81508 333 11012 4////;","Q01  00002PRCP12"
"01108099999","2010-01-19T06:00:00","4","65.7","11.85","9.1","VEGA VALLSJO, NO","FM-12","99999","V020","130,1,N,0060,1","00420,1,9,N","003000,1,N,1","-0006,1","-0019,1","10202,1","12,0005,9,1","24,0005,9,1","7,1,06,1","2,1,06,1",,"08,99,1,06,1,07,1,00450,1,02,1,99,9","999,N,-0018,1","99999,9,10190,1","2,1,001,1,+999,9","71,1","SYN100AAXX  19061 01108 11430 81306 11006 21019 30190 40202 52001 69962 77172 8672/ 333 21018 4//// 70006;",
"01108099999","2010-01-19T12:00:00","4","65.7","11.85","9.1","VEGA VALLSJO, NO","FM-12","99999","V020","170,1,N,0090,1","00120,1,9,N","020000,1,N,1","+0024,1","+0006,1","10229,1",,,"8,1,06,1","7,1,06,1",,"07,99,1,07,1,09,1,00150,1,99,9,99,9",,"99999,9,10217,1","2,1,012,1,+999,9","25,1","SYN088AAXX  19121 01108 11270 71709 10024 20006 30217 40229 52012 6//// 72587 879// 333 4////;",
"01108099999","2010-01-19T18:00:00","4","65.7","11.85","9.1","VEGA VALLSJO, NO","FM-12","99999","V020","190,1,N,0040,1","00210,1,9,N","015000,1,N,1","+0045,1","+0030,1","10262,1","12,0010,9,1",,"8,1,06,1","2,1,06,1",,"08,99,1,08,1,09,1,00250,1,99,9,99,9","120,M,+0050,1","99999,9,10251,1","2,1,013,1,+999,9","80,1","SYN094AAXX  19181 01108 11365 81904 10045 20030 30251 40262 52013 60012 78082 889// 333 10050 4////;",
"01108099999","2010-01-20T06:00:00","4","65.7","11.85","9.1","VEGA VALLSJO, NO","FM-12","99999","V020","210,1,N,0030,1","03000,1,9,N","055000,1,N,1","+0049,1","+0010,1","10311,1","12,0008,9,1","24,0020,9,1","8,1,06,1","2,1,06,1",,"07,99,1,02,1,09,1,00800,1,06,1,01,1","999,N,+0041,1","99999,9,10299,1","2,1,006,1,+999,9","15,1","SYN100AAXX  20061 01108 11585 72103 10049 20010 30299 40311 52006 69982 71582 82961 333 20041 4//// 70021;",
"01108099999","2010-01-20T12:00:00","4","65.7","11.85","9.1","VEGA VALLSJO, NO","FM-12","99999","V020","100,1,N,0020,1","03000,1,9,N","075000,1,N,1","+0014,1","-0002,1","10325,1",,,"2,1,06,1","2,1,06,1",,"06,99,1,01,1,04,1,01250,1,07,1,01,1",,"99999,9,10313,1","0,1,002,1,+999,9","02,1","SYN088AAXX  20121 01108 11689 61002 10014 21002 30313 40325 50002 6//// 70222 81471 333 4////;",
"01108099999","2010-01-20T18:00:00","4","65.7","11.85","9.1","VEGA VALLSJO, NO","FM-12","99999","V020","140,1,N,0030,1","22000,1,9,N","075000,1,N,1","+0009,1","-0007,1","10325,1","12,0000,9,1",,"1,1,06,1","0,1,06,1",,"02,99,1,01,1,00,1,99999,9,07,1,01,1","120,M,+0049,1","99999,9,10313,1","4,1,000,1,+999,9","02,1","SYN094AAXX  20181 01108 11989 21403 10009 21007 30313 40325 54000 60002 70210 81071 333 10049 4////;","Q01  00002PRCP12"
"01108099999","2010-01-21T06:00:00","4","65.7","11.85","9.1","VEGA VALLSJO, NO","FM-12","99999","V020","130,1,N,0050,1","22000,1,9,N","075000,1,N,1","+0002,1","-0095,1","10348,1","12,0000,9,1","24,0000,9,1","0,1,06,1","0,1,06,1",,"01,99,1,01,1,01,1,01250,1,00,1,01,1","999,N,-0019,1","99999,9,10337,1","7,1,004,1,+999,9","02,1","SYN100AAXX  21061 01108 11689 11305 10002 21095 30337 40348 57004 60002 70200 81101 333 21019 4//// 70000;","Q01  00002PRCP24Q02  00002PRCP12"
"01108099999","2010-01-21T12:00:00","4","65.7","11.85","9.1","VEGA VALLSJO, NO","FM-12","99999","V020","130,1,N,0070,1","03000,1,9,N","075000,1,N,1","+0002,1","-0134,1","10353,1",,,"2,1,06,1","1,1,06,1",,"07,99,1,01,1,04,1,01250,1,04,1,02,1",,"99999,9,10342,1","2,1,004,1,+999,9","03,1","SYN088AAXX  21121 01108 11689 71307 10002 21134 30342 40353 52004 6//// 70321 81442 333 4////;",
"01108099999","2010-01-21T18:00:00","4","65.7","11.85","9.1","VEGA VALLSJO, NO","FM-12","99999","V020","140,1,N,0090,1","03000,1,9,N","075000,1,N,1","-0006,1","-0121,1","10341,1","12,0000,9,1",,"2,1,06,1","2,1,06,1",,"07,99,1,03,1,04,1,01250,1,04,1,01,1","120,M,+0006,1","99999,9,10329,1","5,1,007,1,+999,9","02,1","SYN094AAXX  21181 01108 11689 71409 11006 21121 30329 40341 55007 60002 70222 83441 333 10006 4////;","Q01  00002PRCP12"
"01108099999","2010-01-22T06:00:00","4","65.7","11.85","9.1","VEGA VALLSJO, NO","FM-12","99999","V020","130,1,N,0050,1","22000,1,9,N","075000,1,N,1","-0015,1","-0096,1","10322,1","12,0000,9,1","24,0000,9,1","0,1,06,1","0,1,06,1",,"01,99,1,01,1,01,1,01250,1,00,1,01,1","999,N,-0019,1","99999,9,10311,1","7,1,010,1,+999,9","02,1","SYN100AAXX  22061 01108 11689 11305 11015 21096 30311 40322 57010 60002 70200 81101 333 21019 4//// 70000;","Q01  00002PRCP24Q02  00002PRCP12"
"01108099999","2010-01-22T12:00:00","4","65.7","11.85","9.1","VEGA VALLSJO, NO","FM-12","99999","V020","140,1,N,0070,1","22000,1,9,N","075000,1,N,1","-0002,1","-0093,1","10316,1",,,"0,1,06,1","0,1,06,1",,"02,99,1,01,1,04,1,01750,1,00,1,01,1",,"99999,9,10304,1","7,1,005,1,+999,9","02,1","SYN088AAXX  22121 01108 11789 21407 11002 21093 30304 40316 57005 6//// 70200 81401 333 4////;",
"01108099999","2010-01-22T18:00:00","4","65.7","11.85","9.1","VEGA VALLSJO, NO","FM-12","99999","V020","140,1,N,0070,1","22000,1,9,N","075000,1,N,1","-0018,1","-0110,1","10317,1","12,0000,9,1",,"0,1,06,1","0,1,06,1",,"02,99,1,01,1,01,1,00800,1,00,1,04,1","120,M,-0001,1","99999,9,10306,1","2,1,001,1,+999,9","03,1","SYN094AAXX  22181 01108 11589 21407 11018 21110 30306 40317 52001 60002 70300 81104 333 11001 4////;","Q01  00002PRCP12"
"01108099999","2010-01-23T06:00:00","4","65.7","11.85","9.1","VEGA VALLSJO, NO","FM-12","99999","V020","130,1,N,0050,1","03000,1,9,N","075000,1,N,1","-0033,1","-0110,1","10331,1","12,0000,9,1","24,0000,9,1","2,1,06,1","1,1,06,1",,"07,99,1,01,1,01,1,00800,1,01,1,06,1","999,N,-0043,1","99999,9,10319,1","4,1,000,1,+999,9","03,1","SYN100AAXX  23061 01108 11589 71305 11033 21110 30319 40331 54000 60002 70321 81116 333 21043 4//// 70000;","Q01  00002PRCP24Q02  00002PRCP12"
"01108099999","2010-01-23T12:00:00","4","65.7","11.85","9.1","VEGA VALLSJO, NO","FM-12","99999","V020","140,1,N,0040,1","03000,1,9,N","075000,1,N,1","-0019,1","-0104,1","10335,1",,,"2,1,06,1","2,1,06,1",,"08,99,1,01,1,01,1,01250,1,07,1,07,1",,"99999,9,10324,1","1,1,002,1,+999,9","03,1","SYN088AAXX  23121 01108 11689 81404 11019 21104 30324 40335 51002 6//// 70322 81177 333 4////;",
"01108099999","2010-01-23T18:00:00","4","65.7","11.85","9.1","VEGA VALLSJO, NO","FM-12","99999","V020","130,1,N,0040,1","03000,1,9,N","075000,1,N,1","-0015,1","-0103,1","10336,1","12,0000,9,1",,"2,1,06,1","2,1,06,1",,"08,99,1,01,1,07,1,01250,1,02,1,99,9","120,M,-0015,1","99999,9,10324,1","3,1,002,1,+999,9","02,1","SYN094AAXX  23181 01108 11689 81304 11015 21103 30324 40336 53002 60002 70222 8172/ 333 11015 4////;","Q01  00002PRCP12"
"01108099999","2010-01-24T06:00:00","4","65.7","11.85","9.1","VEGA VALLSJO, NO","FM-12","99999","V020","140,1,N,0040,1","03000,1,9,N","010000,1,N,1","-0001,1","-0034,1","10299,1","12,9999,9,9","24,9999,9,9","7,1,06,1","2,1,06,1",,"08,99,1,04,1,07,1,00450,1,02,1,99,9","999,N,-0016,1","99999,9,10287,1","7,1,012,1,+999,9","71,1","SYN100AAXX  24061 01108 11460 81404 11001 21034 30287 40299 57012 69912 77172 8472/ 333 21016 4//// 70001;","Q01  00002PRCP24Q02  00002PRCP12Q03  00002PRCP12Q04  00002PRCP24"
"01108099999","2010-01-24T12:00:00","4","65.7","11.85","9.1","VEGA VALLSJO, NO","FM-12","99999","V020","190,1,N,0030,1","00420,1,9,N","004000,1,N,1","+0025,1","+0001,1","10281,1",,,"7,1,06,1","2,1,06,1",,"08,99,1,05,1,07,1,00450,1,02,1,99,9",,"99999,9,10270,1","5,1,014,1,+999,9","68,1","SYN088AAXX  24121 01108 11440 81903 10025 20001 30270 40281 55014 6//// 76872 8572/ 333 4////;",
"01108099999","2010-01-24T18:00:00","4","65.7","11.85","9.1","VEGA VALLSJO, NO","FM-12","99999","V020","210,1,N,0070,1","00420,1,9,N","010000,1,N,1","+0042,1","+0026,1","10261,1","12,0089,9,1",,"7,1,06,1","6,1,06,1",,"08,99,1,07,1,07,1,00450,1,02,1,99,9","120,M,+0042,1","99999,9,10250,1","7,1,005,1,+999,9","63,1","SYN094AAXX  24181 01108 11460 82107 10042 20026 30250 40261 57005 60092 76376 8772/ 333 10042 4////;",
"01108099999","2010-01-25T06:00:00","4","65.7","11.85","9.1","VEGA VALLSJO, NO","FM-12","99999","V020","240,1,N,0050,1","00420,1,9,N","050000,1,N,1","+0033,1","+0009,1","10295,1","12,0089,9,1","24,0178,9,1","8,1,06,1","6,1,06,1",,"07,99,1,07,1,09,1,00450,1,99,9,99,9","999,N,+0026,1","99999,9,10284,1","2,1,018,1,+999,9","15,1","SYN100AAXX  25061 01108 11484 72405 10033 20009 30284 40295 52018 60092 71586 879// 333 20026 4//// 70179;",
"01108099999","2010-01-25T12:00:00","4","65.7","11.85","9.1","VEGA VALLSJO, NO","FM-12","99999","V020","200,1,N,0030,1","00210,1,9,N","040000,1,N,1","+0041,1","+0003,1","10325,1",,,"8,1,06,1","2,1,06,1",,"07,99,1,07,1,09,1,00250,1,99,9,99,9",,"99999,9,10313,1","2,1,010,1,+999,9","15,1","SYN088AAXX  25121 01108 11382 72003 10041 20003 30313 40325 52010 6//// 71582 879// 333 4////;",
"01108099999","2010-01-25T18:00:00","4","65.7","11.85","9.1","VEGA VALLSJO, NO","FM-12","99999","V020","150,1,N,0010,1","00210,1,9,N","020000,1,N,1","+0025,1","+0012,1","10344,1","12,0020,9,1",,"8,1,06,1","2,1,06,1",,"07,99,1,07,1,09,1,00250,1,99,9,99,9","120,M,+0041,1","99999,9,10333,1","2,1,014,1,+999,9","80,1","SYN094AAXX  25181 01108 11370 71501 10025 20012 30333 40344 52014 60022 78082 879// 333 10041 4////;",
"01108099999","2010-01-26T06:00:00","4","65.7","11.85","9.1","VEGA VALLSJO, NO","FM-12","99999","V020","190,1,N,0070,1","03000,1,9,N","050000,1,N,1","+0043,1","-0009,1","10332,1","12,0020,9,1","24,0038,9,1","8,1,06,1","2,1,06,1",,"08,99,1,04,1,07,1,00450,1,02,1,99,9","999,N,+0021,1","99999,9,10321,1","7,1,013,1,+999,9","15,1","SYN100AAXX  26061 01108 11484 81907 10043 21009 30321 40332 57013 60022 71582 8472/ 333 20021 4//// 70038;",
"01108099999","2010-01-26T12:00:00","4","65.7","11.85","9.1","VEGA VALLSJO, NO","FM-12","99999","V020","200,1,N,0090,1","00210,1,9,N","012000,1,N,1","+0030,1","+0007,1","10289,1",,,"6,1,06,1","2,1,06,1",,"08,99,1,06,1,07,1,00250,1,02,1,99,9",,"99999,9,10277,1","7,1,021,1,+999,9","61,1","SYN088AAXX  26121 01108 11362 82009 10030 20007 30277 40289 57021 6//// 76162 8672/ 333 4////;",
"01108099999","2010-01-26T18:00:00","4","65.7","11.85","9.1","VEGA VALLSJO, NO","FM-12","99999","V020","190,1,N,0120,1","00210,1,9,N","005000,1,N,1","+0030,1","+0002,1","99999,9","12,0071,9,1",,"7,1,06,1","6,1,06,1",,"08,99,1,07,1,07,1,00250,1,02,1,99,9","120,M,+0043,1",,"7,1,047,1,+999,9","69,1","SYN094AAXX  26181 01108 11350 81912 10030 20002 30187 40198 57047 60072 76976 8772/ 333 10043 4////;","Q01+101873APOSP "
"01108099999","2010-01-27T06:00:00","4","65.7","11.85","9.1","VEGA VALLSJO, NO","FM-12","99999","V020","210,1,N,0140,1","00210,1,9,N","005000,1,N,1","+0065,1","+0051,1","09907,1","12,0290,9,1","24,0356,9,1","6,1,06,1","6,1,06,1",,"08,99,1,07,1,07,1,00250,1,02,1,99,9","999,N,+0024,1","99999,9,09896,1","7,1,075,2,+999,9","63,1","SYN100AAXX  27061 01108 11350 82114 10065 20051 39896 49907 57075 60292 76366 8772/ 333 20024 4//// 70355;","Q01+000752APC3  "
"01108099999","2010-01-27T12:00:00","4","65.7","11.85","9.1","VEGA VALLSJO, NO","FM-12","99999","V020","320,1,N,0110,1","00420,1,9,N","025000,1,N,1","+0032,1","-0033,1","09940,1",,,"8,1,06,1","6,1,06,1",,"07,99,1,07,1,09,1,00450,1,99,9,99,9",,"99999,9,09929,1","1,1,035,1,+999,9","26,1","SYN088AAXX  27121 01108 11475 73211 10032 21033 39929 49940 51035 6//// 72686 879// 333 4////;",
"01108099999","2010-01-27T18:00:00","4","65.7","11.85","9.1","VEGA VALLSJO, NO","FM-12","99999","V020","310,1,N,0080,1","03000,1,9,N","030000,1,N,1","+0013,1","-0016,1","09936,1","12,0071,9,1",,"8,1,06,1","2,1,06,1",,"07,99,1,04,1,09,1,00450,1,06,1,02,1","120,M,+0070,1","99999,9,09925,1","7,1,002,1,+999,9","27,1","SYN094AAXX  27181 01108 11480 73108 10013 21016 39925 49936 57002 60072 72782 84962 333 10070 4////;",
"01108099999","2010-01-28T06:00:00","4","65.7","11.85","9.1","VEGA VALLSJO, NO","FM-12","99999","V020","340,1,N,0030,1","00420,1,9,N","015000,1,N,1","+0006,1","-0011,1","09892,1","12,0020,9,1","24,0086,9,1","8,1,06,1","2,1,06,1",,"07,99,1,07,1,09,1,00450,1,99,9,99,9","999,N,-0008,1","99999,9,09880,1","7,1,011,1,+999,9","26,1","SYN100AAXX  28061 01108 11465 73403 10006 21011 39880 49892 57011 60022 72682 879// 333 21008 4//// 70086;",
"01108099999","2010-01-28T12:00:00","4","65.7","11.85","9.1","VEGA VALLSJO, NO","FM-12","99999","V020","150,1,N,0050,1","00420,1,9,N","002500,1,N,1","+0001,1","-0012,1","09860,1",,,"8,1,06,1","2,1,06,1",,"07,99,1,07,1,09,1,00450,1,99,9,99,9",,"99999,9,09849,1","7,1,018,1,+999,9","85,1","SYN088AAXX  28121 01108 11425 71505 10001 21012 39849 49860 57018 6//// 78582 879// 333 4////;",
"01108099999","2010-01-28T18:00:00","4","65.7","11.85","9.1","VEGA VALLSJO, NO","FM-12","99999","V020","160,1,N,0060,1","03000,1,9,N","070000,1,N,1","-0031,1","-0057,1","09856,1","12,0061,9,1",,"8,1,06,1","2,1,06,1",,"07,99,1,04,1,04,1,01250,1,06,1,01,1","120,M,+0008,1","99999,9,09845,1","4,1,000,1,+999,9","01,1","SYN094AAXX  28181 01108 11688 71606 11031 21057 39845 49856 54000 60062 70182 84461 333 10008 4////;",
"01108099999","2010-01-29T06:00:00","4","65.7","11.85","9.1","VEGA VALLSJO, NO","FM-12","99999","V020","140,1,N,0110,1","00420,1,9,N","008000,1,N,1","-0073,1","-0115,1","09819,1","12,9999,9,9","24,0056,9,1","8,1,06,1","2,1,06,1",,"08,99,1,07,1,09,1,00450,1,00,1,02,1","999,N,-0075,1","99999,9,09807,1","7,1,020,1,+999,9","85,1","SYN100AAXX  29061 01108 11458 81411 11073 21115 39807 49819 57020 69902 78582 87902 333 21075 4//// 70055;","Q01  00002PRCP12Q02  00002PRCP12"
"01108099999","2010-01-29T12:00:00","4","65.7","11.85","9.1","VEGA VALLSJO, NO","FM-12","99999","V020","140,1,N,0080,1","03000,1,9,N","030000,1,N,1","-0060,1","-0096,1","09817,1",,,"8,1,06,1","2,1,06,1",,"07,99,1,04,1,09,1,00450,1,06,1,02,1",,"99999,9,09806,1","7,1,003,1,+999,9","26,1","SYN088AAXX  29121 01108 11480 71408 11060 21096 39806 49817 57003 6//// 72682 84962 333 4////;",
"01108099999","2010-01-29T18:00:00","4","65.7","11.85","9.1","VEGA VALLSJO, NO","FM-12","99999","V020","140,1,N,0130,1","00420,1,9,N","001000,1,N,1","-0065,1","-0091,1","09821,1","12,0020,9,1",,"8,1,06,1","2,1,06,1",,"07,99,1,07,1,09,1,00450,1,99,9,99,9","120,M,-0056,1","99999,9,09810,1","3,1,003,1,+999,9","86,1","SYN094AAXX  29181 01108 11410 71413 11065 21091 39810 49821 53003 60022 78682 879// 333 11056 4////;",
"01108099999","2010-01-30T06:00:00","4","65.7","11.85","9.1","VEGA VALLSJO, NO","FM-12","99999","V020","140,1,N,0100,1","22000,1,9,N","075000,1,N,1","-0087,1","-0142,1","09866,1","12,0020,9,1","24,0033,9,1","2,1,06,1","2,1,06,1",,"06,99,1,01,1,01,1,01250,1,00,1,01,1","999,N,-0088,1","99999,9,09854,1","2,1,006,1,+999,9","02,1","SYN100AAXX  30061 01108 11689 61410 11087 21142 39854 49866 52006 60022 70222 81101 333 21088 4//// 70032;",
"01108099999","2010-01-30T12:00:00","4","65.7","11.85","9.1","VEGA VALLSJO, NO","FM-12","99999","V020","130,1,N,0070,1","07500,1,9,N","055000,1,N,1","-0097,1","-0161,1","09897,1",,,"2,1,06,1","2,1,06,1",,"07,99,1,01,1,01,1,00800,1,00,1,02,1",,"99999,9,09886,1","2,1,010,1,+999,9","02,1","SYN088AAXX  30121 01108 11585 71307 11097 21161 39886 49897 52010 6//// 70222 81102 333 4////;",
"01108099999","2010-01-30T18:00:00","4","65.7","11.85","9.1","VEGA VALLSJO, NO","FM-12","99999","V020","130,1,N,0090,1","07500,1,9,N","055000,1,N,1","-0096,1","-0162,1","09924,1","12,0000,9,1",,"2,1,06,1","2,1,06,1",,"07,99,1,01,1,01,1,00800,1,00,1,02,1","120,M,-0086,1","99999,9,09912,1","2,1,012,1,+999,9","02,1","SYN094AAXX  30181 01108 11585 71309 11096 21162 39912 49924 52012 60002 70222 81102 333 11086 4////;","Q01  00002PRCP12"
"01108099999","2010-01-31T06:00:00","4","65.7","11.85","9.1","VEGA VALLSJO, NO","FM-12","99999","V020","120,1,N,0040,1","22000,1,9,N","050000,1,N,1","-0105,1","-0172,1","09961,1","12,0000,9,1","24,0000,9,1","2,1,06,1","2,1,06,1",,"07,99,1,01,1,01,1,00800,1,00,1,01,1","999,N,-0116,1","99999,9,09949,1","2,1,003,1,+999,9","02,1","SYN100AAXX  31061 01108 11584 71204 11105 21172 39949 49961 52003 60002 70222 81101 333 21116 4//// 70000;","Q01  00002PRCP24Q02  00002PRCP12"
"01108099999","2010-01-31T12:00:00","4","65.7","11.85","9.1","VEGA VALLSJO, NO","FM-12","99999","V020","120,1,N,0030,1","22000,1,9,N","040000,1,N,1","-0101,1","-0167,1","09980,1",,,"1,1,06,1","1,1,06,1",,"03,99,1,01,1,01,1,00800,1,00,1,01,1",,"99999,9,09968,1","2,1,006,1,+999,9","02,1","SYN088AAXX  31121 01108 11582 31203 11101 21167 39968 49980 52006 6//// 70211 81101 333 4////;",
"01108099999","2010-01-31T18:00:00","4","65.7","11.85","9.1","VEGA VALLSJO, NO","FM-12","99999","V020","130,1,N,0040,1","22000,1,9,N","040000,1,N,1","-0116,1","-0177,1","09988,1","12,0000,9,1",,"1,1,06,1","1,1,06,1",,"04,99,1,01,1,01,1,00800,1,00,1,01,1","120,M,-0096,1","99999,9,09976,1","2,1,002,1,+999,9","02,1","SYN094AAXX  31181 01108 11582 41304 11116 21177 39976 49988 52002 60002 70211 81101 333 11096 4////;","Q01  00002PRCP12"
"01108099999","2010-02-01T06:00:00","4","65.7","11.85","9.1","VEGA VALLSJO, NO","FM-12","99999","V020","130,1,N,0050,1","07500,1,9,N","050000,1,N,1","-0115,1","-0164,1","10014,1","12,0000,9,1","24,0000,9,1","1,1,06,1","1,1,06,1",,"05,99,1,01,1,01,1,00800,1,07,1,01,1","999,N,-0145,1","99999,9,10002,1","2,1,003,1,+999,9","03,1","SYN100AAXX  01061 01108 11584 51305 11115 21164 30002 40014 52003 60002 70311 81171 333 21145 4//// 70000;","Q01  00002PRCP24Q02  00002PRCP12"
"01108099999","2010-02-01T12:00:00","4","65.7","11.85","9.1","VEGA VALLSJO, NO","FM-12","99999","V020","140,1,N,0040,1","03000,1,9,N","060000,1,N,1","-0097,1","-0148,1","10022,1",,,"2,1,06,1","1,1,06,1",,"06,99,1,01,1,01,1,00800,1,04,1,01,1",,"99999,9,10010,1","7,1,001,1,+999,9","02,1","SYN088AAXX  01121 01108 11586 61404 11097 21148 30010 40022 57001 6//// 70221 81141 333 4////;",
"01108099999","2010-02-01T18:00:00","4","65.7","11.85","9.1","VEGA VALLSJO, NO","FM-12","99999","V020","130,1,N,0050,1","22000,1,9,N","060000,1,N,1","-0090,1","-0141,1","10025,1","12,0000,9,1",,"2,1,06,1","2,1,06,1",,"05,99,1,01,1,01,1,00800,1,00,1,01,1","120,M,-0087,1","99999,9,10013,1","2,1,001,1,+999,9","02,1","SYN094AAXX  01181 01108 11586 51305 11090 21141 30013 40025 52001 60002 70222 81101 333 11087 4////;","Q01  00002PRCP12"
"01108099999","2010-02-02T06:00:00","4","65.7","11.85","9.1","VEGA VALLSJO, NO","FM-12","99999","V020","140,1,N,0070,1","22000,1,9,N","075000,1,N,1","-0040,1","-0105,1","10027,1","12,0000,9,1","24,0000,9,1","0,1,06,1","0,1,06,1",,"02,99,1,01,1,01,1,00800,1,00,1,01,1","999,N,-0098,1","99999,9,10015,1","6,1,002,1,+999,9","02,1","SYN100AAXX  02061 01108 11589 21407 11040 21105 30015 40027 56002 60002 70200 81101 333 21098 4//// 70000;","Q01  00002PRCP24Q02  00002PRCP12"
"01108099999","2010-02-02T12:00:00","4","65.7","11.85","9.1","VEGA VALLSJO, NO","FM-12","99999","V020","130,1,N,0020,1","03000,1,9,N","070000,1,N,1","-0044,1","-0105,1","10016,1",,,"2,1,06,1","0,1,06,1",,"07,99,1,01,1,01,1,00800,1,01,1,06,1",,"99999,9,10004,1","7,1,008,1,+999,9","03,1","SYN088AAXX  02121 01108 11588 71302 11044 21105 30004 40016 57008 6//// 70320 81116 333 4////;",
"01108099999","2010-02-02T18:00:00","4","65.7","11.85","9.1","VEGA VALLSJO, NO","FM-12","99999","V020","220,1,N,0020,1","03000,1,9,N","050000,1,N,1","-0040,1","-0099,1","09994,1","12,0000,9,1",,"2,1,06,1","2,1,06,1",,"08,99,1,01,1,01,1,00800,1,02,1,07,1","120,M,-0034,1","99999,9,09983,1","7,1,012,1,+999,9","15,1","SYN094AAXX  02181 01108 11584 82202 11040 21099 39983 49994 57012 60002 71522 81127 333 11034 4////;","Q01  00002PRCP12"
"01108099999","2010-02-03T06:00:00","4","65.7","11.85","9.1","VEGA VALLSJO, NO","FM-12","99999","V020","150,1,N,0090,1","00420,1,9,N","002000,1,N,1","-0041,1","-0070,1","10001,1","12,0041,9,1","24,0043,9,1","7,1,06,1","7,1,06,1",,"08,99,1,07,1,07,1,00450,1,02,1,99,9","999,N,-0049,1","99999,9,09989,1","3,1,010,1,+999,9","73,1","SYN100AAXX  03061 01108 11420 81509 11041 21070 39989 40001 53010 60042 77377 8772/ 333 21049 4//// 70044;",
"01108099999","2010-02-03T12:00:00","4","65.7","11.85","9.1","VEGA VALLSJO, NO","FM-12","99999","V020","150,1,N,0070,1","03000,1,9,N","070000,1,N,1","-0038,1","-0117,1","10047,1",,,"7,1,06,1","2,1,06,1",,"07,99,1,01,1,01,1,01250,1,07,1,02,1",,"99999,9,10036,1","2,1,022,1,+999,9","01,1","SYN088AAXX  03121 01108 11688 71507 11038 21117 30036 40047 52022 6//// 70172 81172 333 4////;",
"01108099999","2010-02-03T18:00:00","4","65.7","11.85","9.1","VEGA VALLSJO, NO","FM-12","99999","V020","140,1,N,0080,1","07500,1,9,N","070000,1,N,1","-0025,1","-0099,1","10080,1","12,0003,9,1",,"2,1,06,1","2,1,06,1",,"06,99,1,01,1,01,1,01250,1,00,1,02,1","120,M,-0024,1","99999,9,10069,1","2,1,020,1,+999,9","01,1","SYN094AAXX  03181 01108 11688 61408 11025 21099 30069 40080 52020 69932 70122 81102 333 11024 4////;",
"01108099999","2010-02-04T06:00:00","4","65.7","11.85","9.1","VEGA VALLSJO, NO","FM-12","99999","V020","140,1,N,0030,1","03000,1,9,N","070000,1,N,1","-0021,1","-0118,1","10169,1","12,0000,9,1","24,0003,9,1","2,1,06,1","2,1,06,1",,"07,99,1,01,1,02,1,00800,1,07,1,02,1","999,N,-0029,1","99999,9,10158,1","2,1,028,1,+999,9","02,1","SYN100AAXX  04061 01108 11588 71403 11021 21118 30158 40169 52028 60002 70222 81272 333 21029 4//// 70003;","Q01  00002PRCP12"
"01108099999","2010-02-04T12:00:00","4","65.7","11.85","9.1","VEGA VALLSJO, NO","FM-12","99999","V020","130,1,N,0110,1","03000,1,9,N","065000,1,N,1","-0023,1","-0106,1","10184,1",,,,,,"07,99,1,03,1,04,1,01250,1,04,1,02,1",,"99999,9,10172,1","2,1,003,1,+999,9",,"SYN088AAXX  04121 01108 11687 71311 11023 21106 30172 40184 52003 6//// 7//22 83442 333 4////;",
"01108099999","2010-02-04T18:00:00","4","65.7","11.85","9.1","VEGA VALLSJO, NO","FM-12","99999","V020","130,1,N,0080,1","03000,1,9,N","060000,1,N,1","-0024,1","-0104,1","10187,1","12,0000,9,1",,"2,1,06,1","2,1,06,1",,"07,99,1,02,1,04,1,01250,1,07,1,02,1","120,M,-0015,1","99999,9,10175,1","7,1,005,1,+999,9","01,1","SYN094AAXX  04181 01108 11686 71308 11024 21104 30175 40187 57005 60002 70122 82472 333 11015 4////;","Q01  00002PRCP12"
"01108099999","2010-02-05T06:00:00","4","65.7","11.85","9.1","VEGA VALLSJO, NO","FM-12","99999","V020","120,1,N,0050,1","03000,1,9,N","070000,1,N,1","-0026,1","-0100,1","10163,1","12,0000,9,1","24,0000,9,1","1,1,06,1","1,1,06,1",,"06,99,1,01,1,04,1,01250,1,07,1,02,1","999,N,-0033,1","99999,9,10152,1","7,1,013,1,+999,9","03,1","SYN100AAXX  05061 01108 11688 61205 11026 21100 30152 40163 57013 60002 70311 81472 333 21033 4//// 70000;","Q01  00002PRCP24Q02  00002PRCP12"
"01108099999","2010-02-05T12:00:00","4","65.7","11.85","9.1","VEGA VALLSJO, NO","FM-12","99999","V020","120,1,N,0070,1","03000,1,9,N","060000,1,N,1","-0019,1","-0091,1","10156,1",,,"2,1,06,1","2,1,06,1",,"07,99,1,01,1,07,1,01250,1,02,1,06,1",,"99999,9,10145,1","7,1,003,1,+999,9","15,1","SYN088AAXX  05121 01108 11686 71207 11019 21091 30145 40156 57003 6//// 71522 81726 333 4////;",
"01108099999","2010-02-05T18:00:00","4","65.7","11.85","9.1","VEGA VALLSJO, NO","FM-12","99999","V020","060,1,N,0060,1","03000,1,9,N","050000,1,N,1","-0019,1","-0070,1","10170,1","12,0000,9,1",,"2,1,06,1","2,1,06,1",,"06,99,1,01,1,07,1,01250,1,02,1,08,1","120,M,-0018,1","99999,9,10158,1","2,1,010,1,+999,9","15,1","SYN094AAXX  05181 01108 11684 60606 11019 21070 30158 40170 52010 60002 71522 81728 333 11018 4////;","Q01  00002PRCP12"
"01108099999","2010-02-06T06:00:00","4","65.7","11.85","9.1","VEGA VALLSJO, NO","FM-12","99999","V020","120,1,N,0030,1","22000,1,9,N","075000,1,N,1","-0056,1","-0076,1","10230,1","12,0000,9,1","24,0000,9,1","0,1,06,1","0,1,06,1",,"02,99,1,01,1,01,1,00800,1,00,1,01,1","999,N,-0066,1","99999,9,10218,1","2,1,010,1,+999,9","03,1","SYN100AAXX  06061 01108 11589 21203 11056 21076 30218 40230 52010 60002 70300 81101 333 21066 4//// 70000;","Q01  00002PRCP24Q02  00002PRCP12"
"01108099999","2010-02-06T12:00:00","4","65.7","11.85","9.1","VEGA VALLSJO, NO","FM-12","99999","V020","220,1,N,0060,1","00210,1,9,N","008000,1,N,1","+0020,1","+0002,1","10240,1",,,"8,1,06,1","2,1,06,1",,"07,99,1,07,1,09,1,00250,1,99,9,99,9",,"99999,9,10229,1","5,1,000,1,+999,9","87,1","SYN088AAXX  06121 01108 11358 72206 10020 20002 30229 40240 55000 6//// 78782 879// 333 4////;",
"01108099999","2010-02-06T18:00:00","4","65.7","11.85","9.1","VEGA VALLSJO, NO","FM-12","99999","V020","300,1,N,0090,1","00420,1,9,N","010000,1,N,1","+0025,1","+0001,1","10237,1","12,0020,9,1",,"8,1,06,1","2,1,06,1",,"08,99,1,08,1,09,1,00450,1,99,9,99,9","120,M,+0038,1","99999,9,10225,1","7,1,002,1,+999,9","83,1","SYN094AAXX  06181 01108 11460 83009 10025 20001 30225 40237 57002 60022 78382 889// 333 10038 4////;",
"01108099999","2010-02-07T06:00:00","4","65.7","11.85","9.1","VEGA VALLSJO, NO","FM-12","99999","V020","340,1,N,0040,1","00420,1,9,N","005000,1,N,1","+0011,1","-0003,1","10215,1","12,0008,9,1","24,0023,9,1","8,1,06,1","2,1,06,1",,"07,99,1,07,1,09,1,00450,1,99,9,99,9","999,N,+0011,1","99999,9,10203,1","6,1,003,1,+999,9","83,1","SYN100AAXX  07061 01108 11450 73404 10011 21003 30203 40215 56003 69982 78382 879// 333 20011 4//// 70024;",
"01108099999","2010-02-07T12:00:00","4","65.7","11.85","9.1","VEGA VALLSJO, NO","FM-12","99999","V020","300,1,N,0070,1","03000,1,9,N","020000,1,N,1","+0023,1","-0004,1","10198,1",,,"8,1,06,1","1,1,06,1",,"06,99,1,04,1,09,1,00250,1,06,1,00,1",,"99999,9,10187,1","7,1,011,1,+999,9","15,1","SYN088AAXX  07121 01108 11370 63007 10023 21004 30187 40198 57011 6//// 71581 84960 333 4////;",
"01108099999","2010-02-07T18:00:00","4","65.7","11.85","9.1","VEGA VALLSJO, NO","FM-12","99999","V020","320,1,N,0070,1","00210,1,9,N","025000,1,N,1","+0020,1","-0004,1","10172,1","12,0041,9,1",,"8,1,06,1","2,1,06,1",,"06,99,1,05,1,09,1,00250,1,06,1,00,1","120,M,+0023,1","99999,9,10161,1","7,1,015,1,+999,9","26,1","SYN094AAXX  07181 01108 11375 63207 10020 21004 30161 40172 57015 60042 72682 85960 333 10023 4////;",
"01108099999","2010-02-08T06:00:00","4","65.7","11.85","9.1","VEGA VALLSJO, NO","FM-12","99999","V020","220,1,N,0040,1","00120,1,9,N","002000,1,N,1","+0006,1","-0004,1","10089,1","12,0041,9,1","24,0079,9,1","8,1,06,1","2,1,06,1",,"08,99,1,08,1,09,1,00150,1,99,9,99,9","999,N,-0010,1","99999,9,10077,1","7,1,042,1,+999,9","86,1","SYN100AAXX  08061 01108 11220 82204 10006 21004 30077 40089 57042 60042 78682 889// 333 21010 4//// 70079;",
"01108099999","2010-02-08T12:00:00","4","65.7","11.85","9.1","VEGA VALLSJO, NO","FM-12","99999","V020","020,1,N,0080,1","00060,1,9,N","010000,1,N,1","+0010,1","-0006,1","10093,1",,,"8,1,06,1","2,1,06,1",,"05,99,1,05,1,09,1,00075,1,00,1,00,1",,"99999,9,10082,1","2,1,004,1,+999,9","83,1","SYN088AAXX  08121 01108 11160 50208 10010 21006 30082 40093 52004 6//// 78382 85900 333 4////;",
"01108099999","2010-02-08T18:00:00","4","65.7","11.85","9.1","VEGA VALLSJO, NO","FM-12","99999","V020","060,1,N,0070,1","22000,1,9,N","075000,1,N,1","-0008,1","-0044,1","10105,1","12,0010,9,1",,"2,1,06,1","0,1,06,1",,"01,99,1,01,1,04,1,00800,1,00,1,00,1","120,M,+0015,1","99999,9,10094,1","2,1,007,1,+999,9","01,1","SYN094AAXX  08181 01108 11589 10607 11008 21044 30094 40105 52007 60012 70120 81400 333 10015 4////;",
"01108099999","2010-02-09T06:00:00","4","65.7","11.85","9.1","VEGA VALLSJO, NO","FM-12","99999","V020","110,1,N,0030,1","22000,1,9,N","075000,1,N,1","-0050,1","-0099,1","10160,1","12,0000,9,1","24,0010,9,1","0,1,06,1","0,1,06,1",,"01,99,1,01,1,01,1,00800,1,00,1,01,1","999,N,-0051,1","99999,9,10148,1","2,1,011,1,+999,9","02,1","SYN100AAXX  09061 01108 11589 11103 11050 21099 30148 40160 52011 60002 70200 81101 333 21051 4//// 70010;","Q01  00002PRCP12"
"01108099999","2010-02-09T12:00:00","4","65.7","11.85","9.1","VEGA VALLSJO, NO","FM-12","99999","V020","140,1,N,0020,1","22000,1,9,N","075000,1,N,1","-0047,1","-0093,1","10178,1",,,"0,1,06,1","0,1,06,1",,"01,99,1,01,1,01,1,00800,1,00,1,01,1",,"99999,9,10166,1","2,1,011,1,+999,9","03,1","SYN088AAXX  09121 01108 11589 11402 11047 21093 30166 40178 52011 6//// 70300 81101 333 4////;",
"01108099999","2010-02-09T18:00:00","4","65.7","11.85","9.1","VEGA VALLSJO, NO","FM-12","99999","V020","120,1,N,0030,1","03000,1,9,N","030000,1,N,1","-0044,1","-0070,1","10183,1","12,0000,9,1",,"2,1,06,1","0,1,06,1",,"07,99,1,04,1,09,1,00450,1,06,1,05,1","120,M,-0037,1","99999,9,10172,1","2,1,004,1,+999,9","15,1","SYN094AAXX  09181 01108 11480 71203 11044 21070 30172 40183 52004 60002 71520 84965 333 11037 4////;","Q01  00002PRCP12"
"01108099999","2010-02-10T06:00:00","4","65.7","11.85","9.1","VEGA VALLSJO, NO","FM-12","99999","V020","130,1,N,0070,1","03000,1,9,N","001500,1,N,1","-0031,1","-0045,1","10152,1","12,0005,9,1","24,0005,9,1","7,1,06,1","2,1,06,1",,"08,99,1,04,1,07,1,00450,1,02,1,99,9","999,N,-0057,1","99999,9,10140,1","7,1,019,1,+999,9","71,1","SYN100AAXX  10061 01108 11415 81307 11031 21045 30140 40152 57019 69942 77172 8472/ 333 21057 4//// 70004;",
"01108099999","2010-02-10T12:00:00","4","65.7","11.85","9.1","VEGA VALLSJO, NO","FM-12","99999","V020","170,1,N,0050,1","00420,1,9,N","001300,1,N,1","-0022,1","-0037,1","10113,1",,,"7,1,06,1","7,1,06,1",,"08,99,1,07,1,07,1,00450,1,02,1,99,9",,"99999,9,10101,1","6,1,012,1,+999,9","71,1","SYN088AAXX  10121 01108 11413 81705 11022 21037 30101 40113 56012 6//// 77177 8772/ 333 4////;",
"01108099999","2010-02-10T18:00:00","4","65.7","11.85","9.1","VEGA VALLSJO, NO","FM-12","99999","V020","140,1,N,0010,1","00210,1,9,N","005000,1,N,1","-0007,1","-0024,1","10089,1","12,0051,9,1",,"7,1,06,1","2,1,06,1",,"08,99,1,07,1,07,1,00250,1,02,1,99,9","120,M,-0005,1","99999,9,10078,1","5,1,002,1,+999,9","71,1","SYN094AAXX  10181 01108 11350 81401 11007 21024 30078 40089 55002 60052 77172 8772/ 333 11005 4////;",
"01108099999","2010-02-11T06:00:00","4","65.7","11.85","9.1","VEGA VALLSJO, NO","FM-12","99999","V020","230,1,N,0020,1","00420,1,9,N","020000,1,N,1","-0004,1","-0015,1","10096,1","12,0030,9,1","24,0074,9,1","8,1,06,1","2,1,06,1",,"08,99,1,08,1,09,1,00450,1,99,9,99,9","999,N,-0011,1","99999,9,10085,1","2,1,005,1,+999,9","85,1","SYN100AAXX  11061 01108 11470 82302 11004 21015 30085 40096 52005 60032 78582 889// 333 21011 4//// 70074;",
"01108099999","2010-02-11T12:00:00","4","65.7","11.85","9.1","VEGA VALLSJO, NO","FM-12","99999","V020","210,1,N,0010,1","22000,1,9,N","030000,1,N,1","+0000,1","-0021,1","10146,1",,,"8,1,06,1","1,1,06,1",,"03,99,1,02,1,09,1,00250,1,06,1,00,1",,"99999,9,10134,1","2,1,027,1,+999,9","15,1","SYN088AAXX  11121 01108 11380 32101 10000 21021 30134 40146 52027 6//// 71581 82960 333 4////;",
"01108099999","2010-02-11T18:00:00","4","65.7","11.85","9.1","VEGA VALLSJO, NO","FM-12","99999","V020","150,1,N,0030,1","03000,1,9,N","050000,1,N,1","-0051,1","-0071,1","10193,1","12,0005,9,1",,"1,1,06,1","0,1,06,1",,"05,99,1,01,1,09,1,00450,1,06,1,05,1","120,M,+0006,1","99999,9,10181,1","2,1,023,1,+999,9","15,1","SYN094AAXX  11181 01108 11484 51503 11051 21071 30181 40193 52023 69942 71510 81965 333 10006 4////;",
"01108099999","2010-02-12T06:00:00","4","65.7","11.85","9.1","VEGA VALLSJO, NO","FM-12","99999","V020","110,1,N,0020,1","03000,1,9,N","007000,1,N,1","+0006,1","-0018,1","10233,1","12,9999,9,9","24,0005,9,1","7,1,06,1","2,1,06,1",,"08,99,1,02,1,07,1,00450,1,02,1,99,9","999,N,-0054,1","99999,9,10222,1","1,1,004,1,+999,9","71,1","SYN100AAXX  12061 01108 11457 81102 10006 21018 30222 40233 51004 69922 77172 8272/ 333 21054 4//// 70006;","Q01  00002PRCP12Q02  00002PRCP12"
"01108099999","2010-02-12T12:00:00","4","65.7","11.85","9.1","VEGA VALLSJO, NO","FM-12","99999","V020","210,1,N,0070,1","03000,1,9,N","020000,1,N,1","+0034,1","+0006,1","10239,1",,,"7,1,06,1","6,1,06,1",,"08,99,1,02,1,07,1,00150,1,02,1,99,9",,"99999,9,10228,1","2,1,004,1,+999,9","60,1","SYN088AAXX  12121 01108 11270 82107 10034 20006 30228 40239 52004 6//// 76076 8272/ 333 4////;",
"01108099999","2010-02-12T18:00:00","4","65.7","11.85","9.1","VEGA VALLSJO, NO","FM-12","99999","V020","210,1,N,0050,1","00210,1,9,N","020000,1,N,1","+0030,1","+0015,1","10233,1","12,0030,9,1",,"8,1,06,1","6,1,06,1",,"08,99,1,08,1,09,1,00250,1,99,9,99,9","120,M,+0036,1","99999,9,10221,1","3,1,002,1,+999,9","80,1","SYN094AAXX  12181 01108 11370 82105 10030 20015 30221 40233 53002 60032 78086 889// 333 10036 4////;",
"01108099999","2010-02-13T06:00:00","4","65.7","11.85","9.1","VEGA VALLSJO, NO","FM-12","99999","V020","280,1,N,0060,1","00420,1,9,N","020000,1,N,1","+0040,1","+0022,1","10174,1","12,0041,9,1","24,0061,9,1","8,1,06,1","2,1,06,1",,"07,99,1,07,1,09,1,00450,1,99,9,99,9","999,N,+0029,1","99999,9,10163,1","7,1,011,1,+999,9","15,1","SYN100AAXX  13061 01108 11470 72806 10040 20022 30163 40174 57011 60042 71582 879// 333 20029 4//// 70061;",
"01108099999","2010-02-13T12:00:00","4","65.7","11.85","9.1","VEGA VALLSJO, NO","FM-12","99999","V020","300,1,N,0030,1","00420,1,9,N","025000,1,N,1","+0024,1","-0023,1","10182,1",,,"8,1,06,1","2,1,06,1",,"07,99,1,07,1,09,1,00450,1,99,9,99,9",,"99999,9,10171,1","0,1,005,1,+999,9","25,1","SYN088AAXX  13121 01108 11475 73003 10024 21023 30171 40182 50005 6//// 72582 879// 333 4////;",
"01108099999","2010-02-13T18:00:00","4","65.7","11.85","9.1","VEGA VALLSJO, NO","FM-12","99999","V020","340,1,N,0080,1","00420,1,9,N","010000,1,N,1","+0016,1","-0031,1","10181,1","12,0003,9,1",,"8,1,06,1","2,1,06,1",,"07,99,1,07,1,09,1,00450,1,99,9,99,9","120,M,+0040,1","99999,9,10170,1","7,1,002,1,+999,9","26,1","SYN094AAXX  13181 01108 11460 73408 10016 21031 30170 40181 57002 69932 72682 879// 333 10040 4////;",
"01108099999","2010-02-14T06:00:00","4","65.7","11.85","9.1","VEGA VALLSJO, NO","FM-12","99999","V020","320,1,N,0060,1","00420,1,9,N","010000,1,N,1","+0010,1","-0019,1","10165,1","12,0020,9,2","24,0018,9,2","8,1,06,1","2,1,06,1",,"07,99,1,07,1,09,1,00450,1,99,9,99,9","999,N,-0005,1","99999,9,10154,1","7,1,006,1,+999,9","85,1","SYN100AAXX  14061 01108 11460 73206 10010 21019 30154 40165 57006 60022 78582 879// 333 21005 4//// 70019;",
"01108099999","2010-02-14T12:00:00","4","65.7","11.85","9.1","VEGA VALLSJO, NO","FM-12","99999","V020","300,1,N,0030,1","00900,1,9,N","050000,1,N,1","+0025,1","-0076,1","10160,1",,,"8,1,06,1","2,1,06,1",,"07,99,1,06,1,08,1,00450,1,00,1,01,1",,"99999,9,10149,1","7,1,001,1,+999,9","02,1","SYN088AAXX  14121 01108 11484 73003 10025 21076 30149 40160 57001 6//// 70282 86801 333 4////;",
"01108099999","2010-02-14T18:00:00","4","65.7","11.85","9.1","VEGA VALLSJO, NO","FM-12","99999","V020","150,1,N,0030,1","00420,1,9,N","040000,1,N,1","-0004,1","-0043,1","10146,1","12,0000,2,1",,"2,1,06,1","2,1,06,1",,"07,99,1,07,1,09,1,00450,1,99,9,99,9","120,M,+0025,1","99999,9,10135,1","7,1,008,1,+999,9","15,1","SYN094AAXX  14181 01108 11482 71503 11004 21043 30135 40146 57008 69902 71522 879// 333 10025 4////;",
"01108099999","2010-02-15T06:00:00","4","65.7","11.85","9.1","VEGA VALLSJO, NO","FM-12","99999","V020","140,1,N,0010,1","07500,1,9,N","075000,1,N,1","-0020,1","-0039,1","10120,1","12,0000,9,1","24,0000,2,1","2,1,06,1","1,1,06,1",,"07,99,1,01,1,01,1,00800,1,00,1,02,1","999,N,-0029,1","99999,9,10108,1","7,1,010,1,+999,9","03,1","SYN100AAXX  15061 01108 11589 71401 11020 21039 30108 40120 57010 60002 70321 81102 333 21029 4//// 70000;","Q01  00002PRCP12"
"01108099999","2010-02-15T12:00:00","4","65.7","11.85","9.1","VEGA VALLSJO, NO","FM-12","99999","V020","130,1,N,0010,1","22000,1,9,N","075000,1,N,1","+0015,1","-0012,1","10114,1",,,"2,1,06,1","0,1,06,1",,"02,99,1,01,1,08,1,00450,1,00,1,01,1",,"99999,9,10103,1","7,1,004,1,+999,9","01,1","SYN088AAXX  15121 01108 11489 21301 10015 21012 30103 40114 57004 6//// 70120 81801 333 4////;",
"01108099999","2010-02-15T18:00:00","4","65.7","11.85","9.1","VEGA VALLSJO, NO","FM-12","99999","V020","080,1,N,0020,1","22000,1,9,N","075000,1,N,1","-0019,1","-0038,1","10105,1","12,0000,9,1",,"0,1,06,1","0,1,06,1",,"01,99,1,01,1,02,1,00450,1,00,1,00,1","120,M,+0016,1","99999,9,10094,1","7,1,003,1,+999,9","02,1","SYN094AAXX  15181 01108 11489 10802 11019 21038 30094 40105 57003 60002 70200 81200 333 10016 4////;","Q01  00002PRCP12"
"01108099999","2010-02-16T06:00:00","4","65.7","11.85","9.1","VEGA VALLSJO, NO","FM-12","99999","V020","100,1,N,0030,1","22000,1,9,N","075000,1,N,1","-0043,1","-0059,1","10087,1","12,0000,9,1","24,0000,9,1","0,1,06,1","0,1,06,1",,"01,99,1,01,1,01,1,00800,1,00,1,00,1","999,N,-0043,1","99999,9,10076,1","7,1,005,1,+999,9","02,1","SYN100AAXX  16061 01108 11589 11003 11043 21059 30076 40087 57005 69912 70200 81100 333 21043 4//// 70001;","Q01  00002PRCP24Q02  00002PRCP12"
"01108099999","2010-02-16T18:00:00","4","65.7","11.85","9.1","VEGA VALLSJO, NO","FM-12","99999","V020","090,1,N,0030,1","22000,1,9,N","075000,1,N,1","-0061,1","-0092,1","10087,1","12,0000,9,1",,"0,1,06,1","0,1,06,1",,"01,99,1,01,1,04,1,00800,1,00,1,00,1","120,M,-0015,1","99999,9,10075,1","4,1,000,1,+999,9","02,1","SYN094AAXX  16181 01108 11589 10903 11061 21092 30075 40087 54000 60002 70200 81400 333 11015 4////;","Q01  00002PRCP12"
"01108099999","2010-02-17T06:00:00","4","65.7","11.85","9.1","VEGA VALLSJO, NO","FM-12","99999","V020","140,1,N,0070,1","00420,1,9,N","005000,1,N,1","-0025,1","-0046,1","10077,1","12,9999,9,9","24,9999,9,9","8,1,06,1","1,1,06,1",,"07,99,1,07,1,09,1,00450,1,99,9,99,9","999,N,-0075,1","99999,9,10066,1","7,1,003,1,+999,9","85,1","SYN100AAXX  17061 01108 11450 71407 11025 21046 30066 40077 57003 69912 78581 879// 333 21075 4//// 70001;","Q01  00002PRCP24Q02  00002PRCP12Q03  00002PRCP12Q04  00002PRCP24"
"01108099999","2010-02-17T12:00:00","4","65.7","11.85","9.1","VEGA VALLSJO, NO","FM-12","99999","V020","140,1,N,0050,1","03000,1,9,N","060000,1,N,1","-0026,1","-0091,1","10077,1",,,"8,1,06,1","2,1,06,1",,"07,99,1,02,1,09,1,00800,1,06,1,02,1",,"99999,9,10066,1","8,1,003,1,+999,9","15,1","SYN088AAXX  17121 01108 11586 71405 11026 21091 30066 40077 58003 6//// 71582 82962 333 4////;",
"01108099999","2010-02-17T18:00:00","4","65.7","11.85","9.1","VEGA VALLSJO, NO","FM-12","99999","V020","140,1,N,0060,1","03000,1,9,N","060000,1,N,1","-0031,1","-0100,1","10072,1","12,0003,9,1",,"2,1,06,1","2,1,06,1",,"07,99,1,01,1,07,1,00800,1,02,1,06,1","120,M,-0022,1","99999,9,10061,1","7,1,001,1,+999,9","15,1","SYN094AAXX  17181 01108 11586 71406 11031 21100 30061 40072 57001 69932 71522 81726 333 11022 4////;",
"01108099999","2010-02-18T06:00:00","4","65.7","11.85","9.1","VEGA VALLSJO, NO","FM-12","99999","V020","140,1,N,0040,1","22000,1,9,N","075000,1,N,1","-0069,1","-0118,1","10068,1","12,0000,9,1","24,0003,9,1","2,1,06,1","2,1,06,1",,"04,99,1,01,1,01,1,00800,1,00,1,01,1","999,N,-0072,1","99999,9,10056,1","7,1,002,1,+999,9","02,1","SYN100AAXX  18061 01108 11589 41404 11069 21118 30056 40068 57002 60002 70222 81101 333 21072 4//// 70003;","Q01  00002PRCP12"
"01108099999","2010-02-18T12:00:00","4","65.7","11.85","9.1","VEGA VALLSJO, NO","FM-12","99999","V020","140,1,N,0030,1","22000,1,9,N","075000,1,N,1","-0042,1","-0115,1","10071,1",,,"1,1,06,1","1,1,06,1",,"04,99,1,01,1,01,1,00800,1,00,1,02,1",,"99999,9,10059,1","2,1,001,1,+999,9","02,1","SYN088AAXX  18121 01108 11589 41403 11042 21115 30059 40071 52001 6//// 70211 81102 333 4////;",
"01108099999","2010-02-18T18:00:00","4","65.7","11.85","9.1","VEGA VALLSJO, NO","FM-12","99999","V020","140,1,N,0040,1","22000,1,9,N","075000,1,N,1","-0098,1","-0135,1","10070,1","12,0000,9,1",,"1,1,06,1","1,1,06,1",,"03,99,1,02,1,02,1,00800,1,00,1,04,1","120,M,-0040,1","99999,9,10058,1","6,1,002,1,+999,9","03,1","SYN094AAXX  18181 01108 11589 31404 11098 21135 30058 40070 56002 60002 70311 82204 333 11040 4////;","Q01  00002PRCP12"
"01108099999","2010-02-19T06:00:00","4","65.7","11.85","9.1","VEGA VALLSJO, NO","FM-12","99999","V020","130,1,N,0050,1","22000,1,9,N","070000,1,N,1","-0090,1","-0143,1","10063,1","12,0000,9,1","24,0000,9,1","1,1,06,1","1,1,06,1",,"03,99,1,01,1,01,1,00800,1,07,1,01,1","999,N,-0100,1","99999,9,10052,1","7,1,008,1,+999,9","02,1","SYN100AAXX  19061 01108 11588 31305 11090 21143 30052 40063 57008 60002 70211 81171 333 21100 4//// 70000;","Q01  00002PRCP24Q02  00002PRCP12"
"01108099999","2010-02-19T12:00:00","4","65.7","11.85","9.1","VEGA VALLSJO, NO","FM-12","99999","V020","130,1,N,0060,1","03000,1,9,N","070000,1,N,1","-0070,1","-0135,1","10069,1",,,"2,1,06,1","2,1,06,1",,"07,99,1,02,1,03,1,00800,1,07,1,02,1",,"99999,9,10057,1","2,1,002,1,+999,9","15,1","SYN088AAXX  19121 01108 11588 71306 11070 21135 30057 40069 52002 6//// 71522 82372 333 4////;",
"01108099999","2010-02-19T18:00:00","4","65.7","11.85","9.1","VEGA VALLSJO, NO","FM-12","99999","V020","130,1,N,0060,1","03000,1,9,N","050000,1,N,1","-0076,1","-0141,1","10077,1","12,0000,9,1",,"2,1,06,1","2,1,06,1",,"08,99,1,02,1,07,1,00800,1,02,1,07,1","120,M,-0067,1","99999,9,10066,1","3,1,005,1,+999,9","15,1","SYN094AAXX  19181 01108 11584 81306 11076 21141 30066 40077 53005 60002 71522 82727 333 11067 4////;","Q01  00002PRCP12"
"01108099999","2010-02-20T06:00:00","4","65.7","11.85","9.1","VEGA VALLSJO, NO","FM-12","99999","V020","130,1,N,0100,1","03000,1,9,N","060000,1,N,1","-0081,1","-0158,1","10083,1","12,0000,9,1","24,0000,9,1","2,1,06,1","2,1,06,1",,"07,99,1,04,1,09,1,01250,1,07,1,02,1","999,N,-0089,1","99999,9,10072,1","7,1,001,1,+999,9","14,1","SYN100AAXX  20061 01108 11686 71310 11081 21158 30072 40083 57001 60002 71422 84972 333 21089 4//// 70000;","Q01  00002PRCP24Q02  00002PRCP12"
"01108099999","2010-02-20T12:00:00","4","65.7","11.85","9.1","VEGA VALLSJO, NO","FM-12","99999","V020","130,1,N,0100,1","07500,1,9,N","070000,1,N,1","-0080,1","-0164,1","10093,1",,,"2,1,06,1","2,1,06,1",,"06,99,1,03,1,04,1,01250,1,00,1,02,1",,"99999,9,10082,1","2,1,001,1,+999,9","01,1","SYN088AAXX  20121 01108 11688 61310 11080 21164 30082 40093 52001 6//// 70122 83402 333 4////;",
"01108099999","2010-02-20T18:00:00","4","65.7","11.85","9.1","VEGA VALLSJO, NO","FM-12","99999","V020","130,1,N,0110,1","22000,1,9,N","070000,1,N,1","-0098,1","-0190,1","10096,1","12,0000,9,1",,"2,1,06,1","1,1,06,1",,"04,99,1,01,1,04,1,01750,1,00,1,01,1","120,M,-0078,1","99999,9,10084,1","7,1,003,1,+999,9","02,1","SYN094AAXX  20181 01108 11788 41311 11098 21190 30084 40096 57003 60002 70221 81401 333 11078 4////;","Q01  00002PRCP12"
"01108099999","2010-02-21T06:00:00","4","65.7","11.85","9.1","VEGA VALLSJO, NO","FM-12","99999","V020","150,1,N,0030,1","22000,1,9,N","075000,1,N,1","-0125,1","-0208,1","10082,1","12,0000,9,1","24,0000,9,1","0,1,06,1","0,1,06,1",,"03,99,1,01,1,01,1,01250,1,01,1,05,1","999,N,-0129,1","99999,9,10070,1","7,1,012,1,+999,9","03,1","SYN100AAXX  21061 01108 11689 31503 11125 21208 30070 40082 57012 60002 70300 81115 333 21129 4//// 70000;","Q01  00002PRCP24Q02  00002PRCP12"
"01108099999","2010-02-21T12:00:00","4","65.7","11.85","9.1","VEGA VALLSJO, NO","FM-12","99999","V020","150,1,N,0030,1","03000,1,9,N","075000,1,N,1","-0092,1","-0182,1","10060,1",,,"2,1,06,1","2,1,06,1",,"07,99,1,01,1,01,1,00800,1,04,1,06,1",,"99999,9,10048,1","7,1,010,1,+999,9","03,1","SYN088AAXX  21121 01108 11589 71503 11092 21182 30048 40060 57010 6//// 70322 81146 333 4////;",
"01108099999","2010-02-21T18:00:00","4","65.7","11.85","9.1","VEGA VALLSJO, NO","FM-12","99999","V020","100,1,N,0020,1","03000,1,9,N","075000,1,N,1","-0104,1","-0191,1","10029,1","12,0000,9,1",,"2,1,06,1","2,1,06,1",,"07,99,1,01,1,01,1,00800,1,07,1,02,1","120,M,-0085,1","99999,9,10018,1","7,1,013,1,+999,9","02,1","SYN094AAXX  21181 01108 11589 71002 11104 21191 30018 40029 57013 60002 70222 81172 333 11085 4////;","Q01  00002PRCP12"
"01108099999","2010-02-22T06:00:00","4","65.7","11.85","9.1","VEGA VALLSJO, NO","FM-12","99999","V020","130,1,N,0040,1","00750,1,9,N","010000,1,N,1","-0126,1","-0194,1","09996,1","12,9999,9,9","24,9999,9,9","7,1,06,1","2,1,06,1",,"08,99,1,06,1,07,1,00800,1,02,1,99,9","999,N,-0133,1","99999,9,09984,1","7,1,007,1,+999,9","70,1","SYN100AAXX  22061 01108 11560 81304 11126 21194 39984 49996 57007 69902 77072 8672/ 333 21133 4//// 70000;","Q01  00002PRCP24Q02  00002PRCP12Q03  00002PRCP12Q04  00002PRCP24"
"01108099999","2010-02-22T12:00:00","4","65.7","11.85","9.1","VEGA VALLSJO, NO","FM-12","99999","V020","130,1,N,0030,1","03000,1,9,N","007000,1,N,1","-0127,1","-0167,1","09993,1",,,"7,1,06,1","2,1,06,1",,"08,99,1,04,1,07,1,00800,1,02,1,99,9",,"99999,9,09981,1","7,1,002,1,+999,9","70,1","SYN088AAXX  22121 01108 11557 81303 11127 21167 39981 49993 57002 6//// 77072 8472/ 333 4////;",
"01108099999","2010-02-22T18:00:00","4","65.7","11.85","9.1","VEGA VALLSJO, NO","FM-12","99999","V020","150,1,N,0030,1","03000,1,9,N","050000,1,N,1","-0142,1","-0193,1","09988,1","12,0000,2,1",,"7,1,06,1","2,1,06,1",,"06,99,1,02,1,02,1,00800,1,07,1,02,1","120,M,-0122,1","99999,9,09976,1","4,1,000,1,+999,9","01,1","SYN094AAXX  22181 01108 11584 61503 11142 21193 39976 49988 54000 69912 70172 82272 333 11122 4////;",
"01108099999","2010-02-23T06:00:00","4","65.7","11.85","9.1","VEGA VALLSJO, NO","FM-12","99999","V020","150,1,N,0050,1","22000,1,9,N","060000,1,N,1","-0144,1","-0195,1","09979,1","12,0000,9,1","24,0000,2,1","1,1,06,1","0,1,06,1",,"03,99,1,02,1,09,1,00800,1,00,1,01,1","999,N,-0165,1","99999,9,09967,1","7,1,008,1,+999,9","15,1","SYN100AAXX  23061 01108 11586 31505 11144 21195 39967 49979 57008 60002 71510 82901 333 21165 4//// 70001;","Q01  00002PRCP12"
"01108099999","2010-02-23T12:00:00","4","65.7","11.85","9.1","VEGA VALLSJO, NO","FM-12","99999","V020","140,1,N,0040,1","22000,1,9,N","060000,1,N,1","-0113,1","-0180,1","09976,1",,,"0,1,06,1","0,1,06,1",,"03,99,1,02,1,09,1,00800,1,00,1,01,1",,"99999,9,09965,1","4,1,000,1,+999,9","15,1","SYN088AAXX  23121 01108 11586 31404 11113 21180 39965 49976 54000 6//// 71500 82901 333 4////;",
"01108099999","2010-02-23T18:00:00","4","65.7","11.85","9.1","VEGA VALLSJO, NO","FM-12","99999","V020","140,1,N,0030,1","22000,1,9,N","070000,1,N,1","-0121,1","-0170,1","09969,1","12,0000,9,1",,"2,1,06,1","0,1,06,1",,"06,99,1,01,1,01,1,00800,1,00,1,06,1","120,M,-0112,1","99999,9,09957,1","6,1,007,1,+999,9","03,1","SYN094AAXX  23181 01108 11588 61403 11121 21170 39957 49969 56007 60002 70320 81106 333 11112 4////;","Q01  00002PRCP12"
"01108099999","2010-02-24T06:00:00","4","65.7","11.85","9.1","VEGA VALLSJO, NO","FM-12","99999","V020","160,1,N,0100,1","03000,1,9,N","015000,1,N,1","-0050,1","-0127,1","09921,1","12,9999,9,9","24,9999,9,9","2,1,06,1","2,1,06,1",,"07,99,1,02,1,07,1,00800,1,02,1,06,1","999,N,-0128,1","99999,9,09910,1","7,1,011,1,+999,9","70,1","SYN100AAXX  24061 01108 11565 71610 11050 21127 39910 49921 57011 69902 77022 82726 333 21128 4//// 70000;","Q01  00002PRCP24Q02  00002PRCP12Q03  00002PRCP12Q04  00002PRCP24"
"01108099999","2010-02-24T12:00:00","4","65.7","11.85","9.1","VEGA VALLSJO, NO","FM-12","99999","V020","210,1,N,0050,1","00420,1,9,N","004000,1,N,1","-0031,1","-0045,1","09940,1",,,"8,1,06,1","7,1,06,1",,"07,99,1,07,1,09,1,00450,1,99,9,99,9",,"99999,9,09929,1","2,1,012,1,+999,9","86,1","SYN088AAXX  24121 01108 11440 72105 11031 21045 39929 49940 52012 6//// 78687 879// 333 4////;",
"01108099999","2010-02-24T18:00:00","4","65.7","11.85","9.1","VEGA VALLSJO, NO","FM-12","99999","V020","230,1,N,0080,1","00210,1,9,N","020000,1,N,1","+0005,1","-0019,1","09954,1","12,0030,9,1",,"8,1,06,1","2,1,06,1",,"07,99,1,07,1,09,1,00250,1,99,9,99,9","120,M,+0009,1","99999,9,09943,1","1,1,004,1,+999,9","26,1","SYN094AAXX  24181 01108 11370 72308 10005 21019 39943 49954 51004 60032 72682 879// 333 10009 4////;",
"01108099999","2010-02-25T06:00:00","4","65.7","11.85","9.1","VEGA VALLSJO, NO","FM-12","99999","V020","220,1,N,0020,1","00420,1,9,N","010000,1,N,1","-0005,1","-0018,1","09993,1","12,0020,9,1","24,0048,9,1","8,1,06,1","2,1,06,1",,"07,99,1,07,1,09,1,00450,1,99,9,99,9","999,N,-0005,1","99999,9,09982,1","3,1,003,1,+999,9","26,1","SYN100AAXX  25061 01108 11460 72202 11005 21018 39982 49993 53003 60022 72682 879// 333 21005 4//// 70049;",
"01108099999","2010-02-25T12:00:00","4","65.7","11.85","9.1","VEGA VALLSJO, NO","FM-12","99999","V020","140,1,N,0030,1","00420,1,9,N","000800,1,N,1","-0001,1","-0014,1","10006,1",,,"8,1,06,1","2,1,06,1",,"07,99,1,07,1,09,1,00450,1,99,9,99,9",,"99999,9,09995,1","2,1,008,1,+999,9","86,1","SYN088AAXX  25121 01108 11408 71403 11001 21014 39995 40006 52008 6//// 78682 879// 333 4////;",
"01108099999","2010-02-25T18:00:00","4","65.7","11.85","9.1","VEGA VALLSJO, NO","FM-12","99999","V020","190,1,N,0030,1","00120,1,9,N","000500,1,N,1","-0004,1","-0017,1","10009,1","12,0051,9,1",,"8,1,06,1","8,1,06,1",,"08,99,1,08,1,09,1,00150,1,99,9,99,9","120,M,+0006,1","99999,9,09998,1","4,1,000,1,+999,9","86,1","SYN094AAXX  25181 01108 11205 81903 11004 21017 39998 40009 54000 60052 78688 889// 333 10006 4////;",
"01108099999","2010-02-26T06:00:00","4","65.7","11.85","9.1","VEGA VALLSJO, NO","FM-12","99999","V020","150,1,N,0020,1","22000,1,9,N","075000,1,N,1","-0050,1","-0118,1","09990,1","12,0005,9,1","24,0061,9,1","1,1,06,1","0,1,06,1",,"04,99,1,01,1,01,1,00800,1,01,1,05,1","999,N,-0062,1","99999,9,09978,1","7,1,011,1,+999,9","03,1","SYN100AAXX  26061 01108 11589 41502 11050 21118 39978 49990 57011 69962 70310 81115 333 21062 4//// 70060;",
"01108099999","2010-02-26T12:00:00","4","65.7","11.85","9.1","VEGA VALLSJO, NO","FM-12","99999","V020","130,1,N,0030,1","07500,1,9,N","075000,1,N,1","-0031,1","-0096,1","09979,1",,,"2,1,06,1","1,1,06,1",,"06,99,1,01,1,01,1,00800,1,02,1,06,1",,"99999,9,09967,1","8,1,005,1,+999,9","03,1","SYN088AAXX  26121 01108 11589 61303 11031 21096 39967 49979 58005 6//// 70321 81126 333 4////;",
"01108099999","2010-02-26T18:00:00","4","65.7","11.85","9.1","VEGA VALLSJO, NO","FM-12","99999","V020","130,1,N,0020,1","03000,1,9,N","070000,1,N,1","-0042,1","-0080,1","09970,1","12,0000,9,1",,"2,1,06,1","2,1,06,1",,"07,99,1,02,1,02,1,00450,1,02,1,08,1","120,M,-0024,1","99999,9,09959,1","6,1,002,1,+999,9","15,1","SYN094AAXX  26181 01108 11488 71302 11042 21080 39959 49970 56002 60002 71522 82228 333 11024 4////;","Q01  00002PRCP12"
"01108099999","2010-02-27T06:00:00","4","65.7","11.85","9.1","VEGA VALLSJO, NO","FM-12","99999","V020","140,1,N,0030,1","22000,1,9,N","050000,1,N,1","-0058,1","-0082,1","09973,1","12,0000,9,1","24,0000,9,1","2,1,06,1","1,1,06,1",,"03,99,1,02,1,09,1,00450,1,00,1,01,1","999,N,-0059,1","99999,9,09962,1","3,1,002,1,+999,9","15,1","SYN100AAXX  27061 01108 11484 31403 11058 21082 39962 49973 53002 69902 71521 82901 333 21059 4//// 70000;","Q01  00002PRCP24Q02  00002PRCP12"
"01108099999","2010-02-27T12:00:00","4","65.7","11.85","9.1","VEGA VALLSJO, NO","FM-12","99999","V020","140,1,N,0050,1","00420,1,9,N","040000,1,N,1","-0004,1","-0037,1","09986,1",,,"2,1,06,1","1,1,06,1",,"07,99,1,07,1,03,1,00450,1,99,9,99,9",,"99999,9,09975,1","2,1,006,1,+999,9","15,1","SYN088AAXX  27121 01108 11482 71405 11004 21037 39975 49986 52006 6//// 71521 873// 333 4////;",
"01108099999","2010-02-27T18:00:00","4","65.7","11.85","9.1","VEGA VALLSJO, NO","FM-12","99999","V020","140,1,N,0040,1","00750,1,9,N","070000,1,N,1","-0013,1","-0049,1","09983,1","12,0000,9,1",,"2,1,06,1","1,1,06,1",,"06,99,1,06,1,04,1,00800,1,00,1,00,1","120,M,+0001,1","99999,9,09972,1","7,1,001,1,+999,9","02,1","SYN094AAXX  27181 01108 11588 61404 11013 21049 39972 49983 57001 60002 70221 86400 333 10001 4////;","Q01  00002PRCP12"
"01108099999","2010-02-28T06:00:00","4","65.7","11.85","9.1","VEGA VALLSJO, NO","FM-12","99999","V020","110,1,N,0040,1","22000,1,9,N","075000,1,N,1","-0056,1","-0083,1","09974,1","12,0000,9,1","24,0000,9,1","0,1,06,1","0,1,06,1",,"02,99,1,01,1,01,1,00800,1,00,1,05,1","999,N,-0060,1","99999,9,09962,1","7,1,002,1,+999,9","03,1","SYN100AAXX  28061 01108 11589 21104 11056 21083 39962 49974 57002 60002 70300 81105 333 21060 4//// 70000;","Q01  00002PRCP24Q02  00002PRCP12"
"01108099999","2010-02-28T12:00:00","4","65.7","11.85","9.1","VEGA VALLSJO, NO","FM-12","99999","V020","140,1,N,0030,1","22000,1,9,N","065000,1,N,1","+0000,1","-0077,1","09967,1",,,"0,1,06,1","0,1,06,1",,"03,99,1,01,1,02,1,00800,1,02,1,05,1",,"99999,9,09956,1","7,1,004,1,+999,9","15,1","SYN088AAXX  28121 01108 11587 31403 10000 21077 39956 49967 57004 6//// 71500 81225 333 4////;",
"01108099999","2010-02-28T18:00:00","4","65.7","11.85","9.1","VEGA VALLSJO, NO","FM-12","99999","V020","130,1,N,0030,1","03000,1,9,N","040000,1,N,1","-0013,1","-0067,1","09963,1","12,0000,9,1",,"2,1,06,1","2,1,06,1",,"07,99,1,02,1,07,1,00800,1,02,1,06,1","120,M,+0000,1","99999,9,09952,1","6,1,002,1,+999,9","16,1","SYN094AAXX  28181 01108 11582 71303 11013 21067 39952 49963 56002 60002 71622 82726 333 10000 4////;","Q01  00002PRCP12"
"01108099999","2010-03-01T06:00:00","4","65.7","11.85","9.1","VEGA VALLSJO, NO","FM-12","99999","V020","090,1,N,0040,1","03000,1,9,N","030000,1,N,1","-0039,1","-0091,1","09971,1","12,0010,9,1","24,0010,9,1","7,1,06,1","2,1,06,1",,"08,99,1,01,1,07,1,00800,1,02,1,07,1","999,N,-0047,1","99999,9,09960,1","3,1,003,1,+999,9","15,1","SYN100AAXX  01061 01108 11580 80904 11039 21091 39960 49971 53003 69992 71572 81727 333 21047 4//// 70009;",
"01108099999","2010-03-01T12:00:00","4","65.7","11.85","9.1","VEGA VALLSJO, NO","FM-12","99999","V020","070,1,N,0040,1","07500,1,9,N","070000,1,N,1","-0028,1","-0086,1","09992,1",,,"7,1,06,1","2,1,06,1",,"07,99,1,02,1,09,1,00450,1,00,1,02,1",,"99999,9,09980,1","2,1,008,1,+999,9","15,1","SYN088AAXX  01121 01108 11488 70704 11028 21086 39980 49992 52008 6//// 71572 82902 333 4////;",
"01108099999","2010-03-01T18:00:00","4","65.7","11.85","9.1","VEGA VALLSJO, NO","FM-12","99999","V020","160,1,N,0020,1","22000,1,9,N","050000,1,N,1","-0049,1","-0092,1","10014,1","12,0000,9,1",,"2,1,06,1","1,1,06,1",,"04,99,1,01,1,09,1,00450,1,00,1,01,1","120,M,-0023,1","99999,9,10003,1","1,1,013,1,+999,9","15,1","SYN094AAXX  01181 01108 11484 41602 11049 21092 30003 40014 51013 69922 71521 81901 333 11023 4////;","Q01  00002PRCP12"
"01108099999","2010-03-02T06:00:00","4","65.7","11.85","9.1","VEGA VALLSJO, NO","FM-12","99999","V020","150,1,N,0030,1","00420,1,9,N","000500,1,N,1","-0043,1","-0053,1","10036,1","12,0010,9,1","24,0013,9,1","8,1,06,1","1,1,06,1",,"08,99,1,08,1,09,1,00450,1,99,9,99,9","999,N,-0072,1","99999,9,10025,1","2,1,001,1,+999,9","86,1","SYN100AAXX  02061 01108 11405 81503 11043 21053 30025 40036 52001 60012 78681 889// 333 21072 4//// 70012;",
"01108099999","2010-03-02T12:00:00","4","65.7","11.85","9.1","VEGA VALLSJO, NO","FM-12","99999","V020","050,1,N,0030,1","22000,1,9,N","075000,1,N,1","-0022,1","-0071,1","10066,1",,,"8,1,06,1","1,1,06,1",,"03,99,1,01,1,09,1,00450,1,06,1,01,1",,"99999,9,10055,1","2,1,018,1,+999,9","15,1","SYN088AAXX  02121 01108 11489 30503 11022 21071 30055 40066 52018 6//// 71581 81961 333 4////;",
"01108099999","2010-03-02T18:00:00","4","65.7","11.85","9.1","VEGA VALLSJO, NO","FM-12","99999","V020","090,1,N,0020,1","22000,1,9,N","075000,1,N,1","-0035,1","-0115,1","10099,1","12,0005,9,1",,"0,1,06,1","0,1,06,1",,"01,99,1,01,1,01,1,00800,1,00,1,03,1","120,M,-0015,1","99999,9,10088,1","2,1,016,1,+999,9","02,1","SYN094AAXX  02181 01108 11589 10902 11035 21115 30088 40099 52016 69962 70200 81103 333 11015 4////;",
"01108099999","2010-03-03T06:00:00","4","65.7","11.85","9.1","VEGA VALLSJO, NO","FM-12","99999","V020","030,1,N,0060,1","22000,1,9,N","075000,1,N,1","-0012,1","-0091,1","10131,1","12,0020,9,1","24,0023,9,1","8,1,06,1","1,1,06,1",,"01,99,1,01,1,02,1,00250,1,00,1,08,1","999,N,-0050,1","99999,9,10120,1","3,1,007,1,+999,9","02,1","SYN100AAXX  03061 01108 11389 10306 11012 21091 30120 40131 53007 60022 70281 81208 333 21050 4//// 70022;",
"01108099999","2010-03-03T12:00:00","4","65.7","11.85","9.1","VEGA VALLSJO, NO","FM-12","99999","V020","060,1,N,0030,1","22000,1,9,N","040000,1,N,1","-0009,1","-0121,1","10158,1",,,"0,1,06,1","0,1,06,1",,"02,99,1,01,1,09,1,00800,1,06,1,08,1",,"99999,9,10146,1","1,1,012,1,+999,9","15,1","SYN088AAXX  03121 01108 11582 20603 11009 21121 30146 40158 51012 6//// 71500 81968 333 4////;",
"01108099999","2010-03-03T18:00:00","4","65.7","11.85","9.1","VEGA VALLSJO, NO","FM-12","99999","V020","030,1,N,0050,1","22000,1,9,N","050000,1,N,1","-0010,1","-0070,1","10177,1","12,0005,9,1",,"8,1,06,1","1,1,06,1",,"02,99,1,01,1,09,1,00450,1,06,1,01,1","120,M,-0005,1","99999,9,10166,1","3,1,009,1,+999,9","15,1","SYN094AAXX  03181 01108 11484 20305 11010 21070 30166 40177 53009 69952 71581 81961 333 11005 4////;",
"01108099999","2010-03-04T06:00:00","4","65.7","11.85","9.1","VEGA VALLSJO, NO","FM-12","99999","V020","150,1,N,0020,1","22000,1,9,N","060000,1,N,1","-0068,1","-0080,1","10203,1","12,0000,9,1","24,0005,9,1","8,1,06,1","1,1,06,1",,"02,99,1,02,1,09,1,00800,1,00,1,00,1","999,N,-0092,1","99999,9,10191,1","2,1,001,1,+999,9","15,1","SYN100AAXX  04061 01108 11586 21502 11068 21080 30191 40203 52001 69912 71581 82900 333 21092 4//// 70006;","Q01  00002PRCP12"
"01108099999","2010-03-04T12:00:00","4","65.7","11.85","9.1","VEGA VALLSJO, NO","FM-12","99999","V020","120,1,N,0010,1","03000,1,9,N","055000,1,N,1","+0005,1","-0079,1","10211,1",,,"1,1,06,1","0,1,06,1",,"05,99,1,03,1,09,1,00450,1,06,1,00,1",,"99999,9,10200,1","1,1,003,1,+999,9","15,1","SYN088AAXX  04121 01108 11485 51201 10005 21079 30200 40211 51003 6//// 71510 83960 333 4////;",
"01108099999","2010-03-04T18:00:00","4","65.7","11.85","9.1","VEGA VALLSJO, NO","FM-12","99999","V020","130,1,N,0040,1","00420,1,9,N","020000,1,N,1","-0006,1","-0047,1","10197,1","12,9999,9,9",,"2,1,06,1","2,1,06,1",,"07,99,1,07,1,09,1,00450,1,99,9,99,9","120,M,+0005,1","99999,9,10186,1","7,1,012,1,+999,9","26,1","SYN094AAXX  04181 01108 11470 71304 11006 21047 30186 40197 57012 69902 72622 879// 333 10005 4////;","Q01  00002PRCP12Q02  00002PRCP12"
"01108099999","2010-03-05T06:00:00","4","65.7","11.85","9.1","VEGA VALLSJO, NO","FM-12","99999","V020","110,1,N,0010,1","01200,1,9,N","075000,1,N,1","-0004,1","-0077,1","10146,1","12,0010,9,1","24,0010,9,1","8,1,06,1","2,1,06,1",,"07,99,1,07,1,04,1,01250,1,99,9,99,9","999,N,-0017,1","99999,9,10135,1","7,1,011,1,+999,9","02,1","SYN100AAXX  05061 01108 11689 71101 11004 21077 30135 40146 57011 69992 70282 874// 333 21017 4//// 70009;",
"01108099999","2010-03-05T12:00:00","4","65.7","11.85","9.1","VEGA VALLSJO, NO","FM-12","99999","V020","110,1,N,0020,1","22000,1,9,N","075000,1,N,1","+0006,1","-0094,1","10164,1",,,"2,1,06,1","0,1,06,1",,"01,99,1,01,1,04,1,01750,1,00,1,01,1",,"99999,9,10153,1","2,1,009,1,+999,9","02,1","SYN088AAXX  05121 01108 11789 11102 10006 21094 30153 40164 52009 6//// 70220 81401 333 4////;",
"01108099999","2010-03-05T18:00:00","4","65.7","11.85","9.1","VEGA VALLSJO, NO","FM-12","99999","V020","180,1,N,0030,1","22000,1,9,N","075000,1,N,1","-0039,1","-0100,1","10181,1","12,0000,9,1",,"0,1,06,1","0,1,06,1",,"01,99,1,01,1,04,1,01750,1,00,1,04,1","120,M,+0014,1","99999,9,10169,1","2,1,003,1,+999,9","02,1","SYN094AAXX  05181 01108 11789 11803 11039 21100 30169 40181 52003 60002 70200 81404 333 10014 4////;","Q01  00002PRCP12"
"01108099999","2010-03-06T06:00:00","4","65.7","11.85","9.1","VEGA VALLSJO, NO","FM-12","99999","V020","160,1,N,0070,1","07500,1,9,N","060000,1,N,1","-0020,1","-0064,1","10201,1","12,0000,9,1","24,0000,9,1","1,1,06,1","0,1,06,1",,"06,99,1,04,1,03,1,00800,1,00,1,05,1","999,N,-0068,1","99999,9,10189,1","7,1,001,1,+999,9","15,1","SYN100AAXX  06061 01108 11586 61607 11020 21064 30189 40201 57001 60002 71510 84305 333 21068 4//// 70000;","Q01  00002PRCP24Q02  00002PRCP12"
"01108099999","2010-03-06T12:00:00","4","65.7","11.85","9.1","VEGA VALLSJO, NO","FM-12","99999","V020","200,1,N,0050,1","03000,1,9,N","050000,1,N,1","+0020,1","-0023,1","10200,1",,,"8,1,06,1","2,1,06,1",,"07,99,1,04,1,09,1,00450,1,01,1,06,1",,"99999,9,10189,1","4,1,000,1,+999,9","15,1","SYN088AAXX  06121 01108 11484 72005 10020 21023 30189 40200 54000 6//// 71582 84916 333 4////;",
"01108099999","2010-03-06T18:00:00","4","65.7","11.85","9.1","VEGA VALLSJO, NO","FM-12","99999","V020","190,1,N,0090,1","00210,1,9,N","005000,1,N,1","+0035,1","+0022,1","10171,1","12,0020,9,1",,"8,1,06,1","7,1,06,1",,"08,99,1,07,1,07,1,00250,1,02,1,99,9","120,M,+0035,1","99999,9,10160,1","7,1,020,1,+999,9","58,1","SYN094AAXX  06181 01108 11350 81909 10035 20022 30160 40171 57020 60022 75887 8772/ 333 10035 4////;",
"01108099999","2010-03-07T06:00:00","4","65.7","11.85","9.1","VEGA VALLSJO, NO","FM-12","99999","V020","210,1,N,0090,1","00210,1,9,N","025000,1,N,1","+0051,1","+0034,1","10160,1","12,0051,9,1","24,0061,9,1","6,1,06,1","2,1,06,1",,"08,99,1,06,1,07,1,00250,1,02,1,99,9","999,N,+0031,1","99999,9,10148,1","7,1,006,1,+999,9","21,1","SYN100AAXX  07061 01108 11375 82109 10051 20034 30148 40160 57006 60052 72162 8672/ 333 20031 4//// 70060;",
"01108099999","2010-03-07T12:00:00","4","65.7","11.85","9.1","VEGA VALLSJO, NO","FM-12","99999","V020","220,1,N,0090,1","00210,1,9,N","015000,1,N,1","+0065,1","+0045,1","10166,1",,,"8,1,06,1","2,1,06,1",,"08,99,1,05,1,09,1,00250,1,06,1,99,9",,"99999,9,10155,1","1,1,001,1,+999,9","15,1","SYN088AAXX  07121 01108 11365 82209 10065 20045 30155 40166 51001 6//// 71582 8596/ 333 4////;",
"01108099999","2010-03-07T18:00:00","4","65.7","11.85","9.1","VEGA VALLSJO, NO","FM-12","99999","V020","220,1,N,0090,1","00210,1,9,N","015000,1,N,1","+0059,1","+0039,1","10154,1","12,0010,9,1",,"8,1,06,1","2,1,06,1",,"08,99,1,08,1,09,1,00250,1,99,9,99,9","120,M,+0067,1","99999,9,10143,1","7,1,008,1,+999,9","80,1","SYN094AAXX  07181 01108 11365 82209 10059 20039 30143 40154 57008 60012 78082 889// 333 10067 4////;",
"01108099999","2010-03-08T06:00:00","4","65.7","11.85","9.1","VEGA VALLSJO, NO","FM-12","99999","V020","290,1,N,0140,1","00750,1,9,N","025000,1,N,1","+0028,1","-0010,1","10111,1","12,0010,9,1","24,0023,9,1","8,1,06,1","2,1,06,1",,"06,99,1,06,1,09,1,00800,1,00,1,00,1","999,N,+0021,1","99999,9,10100,1","2,1,016,1,+999,9","15,1","SYN100AAXX  08061 01108 11575 62914 10028 21010 30100 40111 52016 60012 71582 86900 333 20021 4//// 70024;",
"01108099999","2010-03-08T12:00:00","4","65.7","11.85","9.1","VEGA VALLSJO, NO","FM-12","99999","V020","310,1,N,0130,1","00420,1,9,N","002000,1,N,1","-0009,1","-0053,1","10175,1",,,"8,1,06,1","2,1,06,1",,"07,99,1,06,1,09,1,00450,1,06,1,00,1",,"99999,9,10163,1","2,1,022,1,+999,9","85,1","SYN088AAXX  08121 01108 11420 73113 11009 21053 30163 40175 52022 6//// 78582 86960 333 4////;",
"01108099999","2010-03-08T18:00:00","4","65.7","11.85","9.1","VEGA VALLSJO, NO","FM-12","99999","V020","300,1,N,0100,1","00420,1,9,N","007000,1,N,1","+0001,1","-0023,1","10207,1","12,0020,9,1",,"8,1,06,1","2,1,06,1",,"07,99,1,07,1,09,1,00450,1,99,9,99,9","120,M,+0028,1","99999,9,10195,1","2,1,017,1,+999,9","85,1","SYN094AAXX  08181 01108 11457 73010 10001 21023 30195 40207 52017 60022 78582 879// 333 10028 4////;",
"01108099999","2010-03-09T06:00:00","4","65.7","11.85","9.1","VEGA VALLSJO, NO","FM-12","99999","V020","290,1,N,0100,1","00210,1,9,N","008000,1,N,1","+0019,1","-0046,1","10187,1","12,0041,9,1","24,0056,9,1","8,1,06,1","2,1,06,1",,"08,99,1,06,1,09,1,00250,1,01,1,99,9","999,N,-0010,1","99999,9,10176,1","7,1,011,1,+999,9","15,1","SYN100AAXX  09061 01108 11358 82910 10019 21046 30176 40187 57011 60042 71582 8691/ 333 21010 4//// 70056;",
"01108099999","2010-03-09T12:00:00","4","65.7","11.85","9.1","VEGA VALLSJO, NO","FM-12","99999","V020","210,1,N,0050,1","03000,1,9,N","005000,1,N,1","+0010,1","-0001,1","10137,1",,,"7,1,06,1","2,1,06,1",,"08,99,1,04,1,07,1,00450,1,02,1,99,9",,"99999,9,10126,1","7,1,043,1,+999,9","71,1","SYN088AAXX  09121 01108 11450 82105 10010 21001 30126 40137 57043 6//// 77172 8472/ 333 4////;",
"01108099999","2010-03-09T18:00:00","4","65.7","11.85","9.1","VEGA VALLSJO, NO","FM-12","99999","V020","250,1,N,0100,1","03000,1,9,N","025000,1,N,1","+0052,1","+0034,1","10115,1","12,0030,9,1",,"8,1,06,1","2,1,06,1",,"07,99,1,01,1,01,1,00450,1,07,1,99,9","120,M,+0052,1","99999,9,10104,1","7,1,007,1,+999,9","02,1","SYN094AAXX  09181 01108 11475 72510 10052 20034 30104 40115 57007 60032 70282 8117/ 333 10052 4////;",
"01108099999","2010-03-10T06:00:00","4","65.7","11.85","9.1","VEGA VALLSJO, NO","FM-12","99999","V020","100,1,N,0020,1","03000,1,9,N","002000,1,N,1","+0005,1","-0003,1","10096,1","12,0061,9,1","24,0084,9,1","8,1,06,1","7,1,06,1",,"08,99,1,04,1,07,1,00250,1,02,1,99,9","999,N,+0004,1","99999,9,10085,1","1,1,004,1,+999,9","71,1","SYN100AAXX  10061 01108 11320 81002 10005 21003 30085 40096 51004 60062 77187 8472/ 333 20004 4//// 70084;",
"01108099999","2010-03-10T12:00:00","4","65.7","11.85","9.1","VEGA VALLSJO, NO","FM-12","99999","V020","250,1,N,0080,1","00210,1,9,N","015000,1,N,1","+0047,1","+0034,1","10092,1",,,"7,1,06,1","6,1,06,1",,"07,99,1,07,1,09,1,00250,1,99,9,99,9",,"99999,9,10081,1","8,1,007,1,+999,9","25,1","SYN088AAXX  10121 01108 11365 72508 10047 20034 30081 40092 58007 6//// 72576 879// 333 4////;",
"01108099999","2010-03-10T18:00:00","4","65.7","11.85","9.1","VEGA VALLSJO, NO","FM-12","99999","V020","250,1,N,0070,1","03000,1,9,N","020000,1,N,1","+0050,1","+0033,1","10070,1","12,0041,9,1",,"8,1,06,1","2,1,06,1",,"08,99,1,03,1,07,1,00450,1,02,1,99,9","120,M,+0057,1","99999,9,10059,1","7,1,006,1,+999,9","60,1","SYN094AAXX  10181 01108 11470 82507 10050 20033 30059 40070 57006 60042 76082 8372/ 333 10057 4////;",
"01108099999","2010-03-11T06:00:00","4","65.7","11.85","9.1","VEGA VALLSJO, NO","FM-12","99999","V020","290,1,N,0080,1","00210,1,9,N","003500,1,N,1","+0049,1","+0037,1","09996,1","12,0041,9,1","24,0084,9,1","8,1,06,1","6,1,06,1",,"08,99,1,08,1,09,1,00250,1,99,9,99,9","999,N,+0047,1","99999,9,09984,1","6,1,004,1,+999,9","81,1","SYN100AAXX  11061 01108 11335 82908 10049 20037 39984 49996 56004 60042 78186 889// 333 20047 4//// 70084;",
"01108099999","2010-03-11T12:00:00","4","65.7","11.85","9.1","VEGA VALLSJO, NO","FM-12","99999","V020","020,1,N,0090,1","00210,1,9,N","030000,1,N,1","+0008,1","-0016,1","10046,1",,,"8,1,06,1","2,1,06,1",,"07,99,1,07,1,09,1,00250,1,99,9,99,9",,"99999,9,10034,1","2,1,018,1,+999,9","26,1","SYN088AAXX  11121 01108 11380 70209 10008 21016 30034 40046 52018 6//// 72682 879// 333 4////;",
"01108099999","2010-03-11T18:00:00","4","65.7","11.85","9.1","VEGA VALLSJO, NO","FM-12","99999","V020","320,1,N,0070,1","00420,1,9,N","010000,1,N,1","+0000,1","-0036,1","10068,1","12,0020,9,1",,"8,1,06,1","2,1,06,1",,"06,99,1,06,1,09,1,00450,1,99,9,99,9","120,M,+0049,1","99999,9,10057,1","2,1,010,1,+999,9","27,1","SYN094AAXX  11181 01108 11460 63207 10000 21036 30057 40068 52010 60022 72782 869// 333 10049 4////;",
"01108099999","2010-03-12T06:00:00","4","65.7","11.85","9.1","VEGA VALLSJO, NO","FM-12","99999","V020","310,1,N,0080,1","03000,1,9,N","020000,1,N,1","+0005,1","-0045,1","10064,1","12,0010,9,1","24,0030,9,1","8,1,06,1","1,1,06,1",,"07,99,1,04,1,09,1,00450,1,06,1,01,1","999,N,-0020,1","99999,9,10053,1","7,1,010,1,+999,9","15,1","SYN100AAXX  12061 01108 11470 73108 10005 21045 30053 40064 57010 60012 71581 84961 333 21020 4//// 70030;",
"01108099999","2010-03-12T12:00:00","4","65.7","11.85","9.1","VEGA VALLSJO, NO","FM-12","99999","V020","350,1,N,0060,1","00210,1,9,N","025000,1,N,1","+0001,1","-0021,1","10057,1",,,"8,1,06,1","2,1,06,1",,"07,99,1,05,1,09,1,00250,1,00,1,02,1",,"99999,9,10045,1","7,1,002,1,+999,9","15,1","SYN088AAXX  12121 01108 11375 73506 10001 21021 30045 40057 57002 6//// 71582 85902 333 4////;",
"01108099999","2010-03-12T18:00:00","4","65.7","11.85","9.1","VEGA VALLSJO, NO","FM-12","99999","V020","020,1,N,0040,1","00120,1,9,N","010000,1,N,1","-0006,1","-0019,1","10037,1","12,0008,9,1",,"8,1,06,1","2,1,06,1",,"08,99,1,08,1,09,1,00150,1,99,9,99,9","120,M,+0010,1","99999,9,10026,1","6,1,009,1,+999,9","27,1","SYN094AAXX  12181 01108 11260 80204 11006 21019 30026 40037 56009 69972 72782 889// 333 10010 4////;",
"01108099999","2010-03-13T06:00:00","4","65.7","11.85","9.1","VEGA VALLSJO, NO","FM-12","99999","V020","330,1,N,0070,1","03000,1,9,N","025000,1,N,1","-0001,1","-0042,1","10016,1","12,0020,9,1","24,0023,9,1","8,1,06,1","1,1,06,1",,"05,99,1,04,1,09,1,00250,1,06,1,00,1","999,N,-0019,1","99999,9,10004,1","8,1,005,1,+999,9","15,1","SYN100AAXX  13061 01108 11375 53307 11001 21042 30004 40016 58005 60022 71581 84960 333 21019 4//// 70022;",
"01108099999","2010-03-13T12:00:00","4","65.7","11.85","9.1","VEGA VALLSJO, NO","FM-12","99999","V020","320,1,N,0110,1","00420,1,9,N","030000,1,N,1","+0016,1","-0051,1","10011,1",,,"8,1,06,1","2,1,06,1",,"07,99,1,06,1,09,1,00450,1,06,1,02,1",,"99999,9,10000,1","7,1,002,1,+999,9","26,1","SYN088AAXX  13121 01108 11480 73211 10016 21051 30000 40011 57002 6//// 72682 86962 333 4////;",
"01108099999","2010-03-13T18:00:00","4","65.7","11.85","9.1","VEGA VALLSJO, NO","FM-12","99999","V020","350,1,N,0090,1","22000,1,9,N","030000,1,N,1","+0008,1","-0063,1","10022,1","12,0010,9,1",,"8,1,06,1","1,1,06,1",,"04,99,1,04,1,09,1,00450,1,00,1,00,1","120,M,+0020,1","99999,9,10011,1","2,1,006,1,+999,9","15,1","SYN094AAXX  13181 01108 11480 43509 10008 21063 30011 40022 52006 69992 71581 84900 333 10020 4////;",
"01108099999","2010-03-14T06:00:00","4","65.7","11.85","9.1","VEGA VALLSJO, NO","FM-12","99999","V020","290,1,N,0070,1","00210,1,9,N","040000,1,N,1","-0010,1","-0025,1","10035,1","12,0005,9,1","24,0015,9,1","8,1,06,1","2,1,06,1",,"08,99,1,05,1,09,1,00250,1,06,1,07,1","999,N,-0015,1","99999,9,10023,1","7,1,002,1,+999,9","15,1","SYN100AAXX  14061 01108 11382 82907 11010 21025 30023 40035 57002 69952 71582 85967 333 21015 4//// 70014;",
"01108099999","2010-03-14T12:00:00","4","65.7","11.85","9.1","VEGA VALLSJO, NO","FM-12","99999","V020","310,1,N,0050,1","00210,1,9,N","000500,1,N,1","-0011,1","-0026,1","10036,1",,,"8,1,06,1","2,1,06,1",,"08,99,1,08,1,09,1,00250,1,99,9,99,9",,"99999,9,10025,1","3,1,007,1,+999,9","88,1","SYN088AAXX  14121 01108 11305 83105 11011 21026 30025 40036 53007 6//// 78882 889// 333 4////;",
"01108099999","2010-03-14T18:00:00","4","65.7","11.85","9.1","VEGA VALLSJO, NO","FM-12","99999","V020","350,1,N,0030,1","00120,1,9,N","000400,1,N,1","-0021,1","-0031,1","10028,1","12,0041,9,1",,"8,1,06,1","2,1,06,1",,"08,99,1,08,1,09,1,00150,1,99,9,99,9","120,M,+0006,1","99999,9,10017,1","5,1,001,1,+999,9","86,1","SYN094AAXX  14181 01108 11204 83503 11021 21031 30017 40028 55001 60042 78682 889// 333 10006 4////;",
"01108099999","2010-03-15T06:00:00","4","65.7","11.85","9.1","VEGA VALLSJO, NO","FM-12","99999","V020","300,1,N,0040,1","03000,1,9,N","030000,1,N,1","-0008,1","-0057,1","10043,1","12,0030,9,1","24,0069,9,1","8,1,06,1","1,1,06,1",,"07,99,1,03,1,09,1,00150,1,06,1,02,1","999,N,-0065,1","99999,9,10031,1","8,1,002,1,+999,9","15,1","SYN100AAXX  15061 01108 11280 73004 11008 21057 30031 40043 58002 60032 71581 83962 333 21065 4//// 70068;",
"01108099999","2010-03-15T12:00:00","4","65.7","11.85","9.1","VEGA VALLSJO, NO","FM-12","99999","V020","290,1,N,0030,1","00120,1,9,N","000400,1,N,1","-0014,1","-0028,1","10053,1",,,"8,1,06,1","2,1,06,1",,"08,99,1,08,1,09,1,00150,1,99,9,99,9",,"99999,9,10041,1","2,1,005,1,+999,9","86,1","SYN088AAXX  15121 01108 11204 82903 11014 21028 30041 40053 52005 6//// 78682 889// 333 4////;",
"01108099999","2010-03-15T18:00:00","4","65.7","11.85","9.1","VEGA VALLSJO, NO","FM-12","99999","V020","300,1,N,0060,1","22000,1,9,N","040000,1,N,1","-0005,1","-0049,1","10043,1","12,0041,9,1",,"8,1,06,1","1,1,06,1",,"03,99,1,03,1,09,1,00450,1,00,1,00,1","120,M,+0003,1","99999,9,10032,1","7,1,007,1,+999,9","15,1","SYN094AAXX  15181 01108 11482 33006 11005 21049 30032 40043 57007 60042 71581 83900 333 10003 4////;",
"01108099999","2010-03-16T06:00:00","4","65.7","11.85","9.1","VEGA VALLSJO, NO","FM-12","99999","V020","170,1,N,0020,1","22000,1,9,N","025000,1,N,1","-0050,1","-0062,1","10079,1","12,0051,9,1","24,0097,9,1","8,1,06,1","1,1,06,1",,"05,99,1,04,1,09,1,00150,1,00,1,04,1","999,N,-0050,1","99999,9,10067,1","1,1,005,1,+999,9","15,1","SYN100AAXX  16061 01108 11275 51702 11050 21062 30067 40079 51005 60052 71581 84904 333 21050 4//// 70097;",
"01108099999","2010-03-16T12:00:00","4","65.7","11.85","9.1","VEGA VALLSJO, NO","FM-12","99999","V020","200,1,N,0020,1","07500,1,9,N","030000,1,N,1","+0009,1","-0028,1","10087,1",,,"8,1,06,1","2,1,06,1",,"07,99,1,04,1,09,1,00250,1,00,1,06,1",,"99999,9,10075,1","0,1,003,1,+999,9","15,1","SYN088AAXX  16121 01108 11380 72002 10009 21028 30075 40087 50003 6//// 71582 84906 333 4////;",
"01108099999","2010-03-16T18:00:00","4","65.7","11.85","9.1","VEGA VALLSJO, NO","FM-12","99999","V020","320,1,N,0030,1","00120,1,9,N","005000,1,N,1","-0012,1","-0033,1","10083,1","12,0010,9,1",,"8,1,06,1","2,1,06,1",,"08,99,1,08,1,09,1,00150,1,99,9,99,9","120,M,+0012,1","99999,9,10071,1","7,1,005,1,+999,9","85,1","SYN094AAXX  16181 01108 11250 83203 11012 21033 30071 40083 57005 60012 78582 889// 333 10012 4////;",
"01108099999","2010-03-17T06:00:00","4","65.7","11.85","9.1","VEGA VALLSJO, NO","FM-12","99999","V020","200,1,N,0020,1","00120,1,9,N","007000,1,N,1","-0017,1","-0038,1","10083,1","12,0010,9,1","24,0025,9,1","8,1,06,1","2,1,06,1",,"07,99,1,07,1,09,1,00150,1,99,9,99,9","999,N,-0041,1","99999,9,10072,1","4,1,000,1,+999,9","85,1","SYN100AAXX  17061 01108 11257 72002 11017 21038 30072 40083 54000 60012 78582 879// 333 21041 4//// 70026;",
"01108099999","2010-03-17T12:00:00","4","65.7","11.85","9.1","VEGA VALLSJO, NO","FM-12","99999","V020","350,1,N,0040,1","00420,1,9,N","001500,1,N,1","+0002,1","-0035,1","10094,1",,,"8,1,06,1","1,1,06,1",,"07,99,1,06,1,09,1,00450,1,06,1,04,1",,"99999,9,10083,1","2,1,005,1,+999,9","86,1","SYN088AAXX  17121 01108 11415 73504 10002 21035 30083 40094 52005 6//// 78681 86964 333 4////;",
"01108099999","2010-03-17T18:00:00","4","65.7","11.85","9.1","VEGA VALLSJO, NO","FM-12","99999","V020","140,1,N,0050,1","03000,1,9,N","006000,1,N,1","-0025,1","-0039,1","10087,1","12,0000,2,1",,"2,1,06,1","2,1,06,1",,"08,99,1,03,1,09,1,00450,1,01,1,07,1","120,M,+0021,1","99999,9,10075,1","7,1,008,1,+999,9","16,1","SYN094AAXX  17181 01108 11456 81405 11025 21039 30075 40087 57008 69922 71622 83917 333 10021 4////;",
"01108099999","2010-03-18T06:00:00","4","65.7","11.85","9.1","VEGA VALLSJO, NO","FM-12","99999","V020","120,1,N,0070,1","00210,1,9,N","000900,1,N,1","-0007,1","-0017,1","09975,1","12,0041,9,1","24,0041,9,1","7,1,06,1","2,1,06,1",,"08,99,1,07,1,07,1,00250,1,02,1,99,9","999,N,-0026,1","99999,9,09964,1","7,1,040,1,+999,9","73,1","SYN100AAXX  18061 01108 11309 81207 11007 21017 39964 49975 57040 60042 77372 8772/ 333 21026 4//// 70041;",
"01108099999","2010-03-18T12:00:00","4","65.7","11.85","9.1","VEGA VALLSJO, NO","FM-12","99999","V020","210,1,N,0070,1","00060,1,9,N","010000,1,N,1","+0052,1","+0032,1","09943,1",,,"7,1,06,1","6,1,06,1",,"07,99,1,07,1,09,1,00075,1,99,9,99,9",,"99999,9,09932,1","5,1,008,1,+999,9","25,1","SYN088AAXX  18121 01108 11160 72107 10052 20032 39932 49943 55008 6//// 72576 879// 333 4////;",
"01108099999","2010-03-18T18:00:00","4","65.7","11.85","9.1","VEGA VALLSJO, NO","FM-12","99999","V020","020,1,N,0050,1","00030,1,9,N","007000,1,N,1","+0011,1","+0000,1","09970,1","12,0051,9,1",,"8,1,06,1","2,1,06,1",,"08,99,1,08,1,06,1,00025,1,99,9,99,9","120,M,+0052,1","99999,9,09958,1","2,1,022,1,+999,9","50,1","SYN094AAXX  18181 01108 11057 80205 10011 21000 39958 49970 52022 60052 75082 886// 333 10052 4////;",
"01108099999","2010-03-19T06:00:00","4","65.7","11.85","9.1","VEGA VALLSJO, NO","FM-12","99999","V020","120,1,N,0040,1","00030,1,9,N","006000,1,N,1","+0006,1","-0002,1","09965,1","12,0000,2,1","24,0051,9,1","2,1,06,1","1,1,06,1",,"07,99,1,06,1,06,1,00025,1,01,1,06,1","999,N,-0025,1","99999,9,09954,1","7,1,018,1,+999,9","40,1","SYN100AAXX  19061 01108 11056 71204 10006 21002 39954 49965 57018 69912 74021 86616 333 21025 4//// 70052;",
"01108099999","2010-03-19T12:00:00","4","65.7","11.85","9.1","VEGA VALLSJO, NO","FM-12","99999","V020","120,1,N,0050,1","03000,1,9,N","015000,1,N,1","+0030,1","+0014,1","09922,1",,,"6,1,06,1","5,1,06,1",,"08,99,1,04,1,07,1,00450,1,02,1,99,9",,"99999,9,09911,1","7,1,022,1,+999,9","63,1","SYN088AAXX  19121 01108 11465 81205 10030 20014 39911 49922 57022 6//// 76365 8472/ 333 4////;",
"01108099999","2010-03-19T18:00:00","4","65.7","11.85","9.1","VEGA VALLSJO, NO","FM-12","99999","V020","090,1,N,0050,1","00210,1,9,N","020000,1,N,1","+0021,1","+0008,1","09877,1","12,0051,9,1",,"6,1,06,1","6,1,06,1",,"08,99,1,07,1,07,1,00250,1,02,1,99,9","120,M,+0033,1","99999,9,09866,1","7,1,018,1,+999,9","61,1","SYN094AAXX  19181 01108 11370 80905 10021 20008 39866 49877 57018 60052 76166 8772/ 333 10033 4////;",
"01108099999","2010-03-20T06:00:00","4","65.7","11.85","9.1","VEGA VALLSJO, NO","FM-12","99999","V020","020,1,N,0040,1","00120,1,9,N","002000,1,N,1","+0005,1","-0003,1","09881,1","12,0099,9,1","24,0145,9,1","7,1,06,1","6,1,06,1",,"08,99,1,07,1,07,1,00150,1,02,1,99,9","999,N,+0005,1","99999,9,09870,1","2,1,011,1,+999,9","73,1","SYN100AAXX  20061 01108 11220 80204 10005 21003 39870 49881 52011 60102 77376 8772/ 333 20005 4//// 70146;",
"01108099999","2010-03-20T12:00:00","4","65.7","11.85","9.1","VEGA VALLSJO, NO","FM-12","99999","V020","010,1,N,0120,1","03000,1,9,N","070000,1,N,1","+0011,1","-0071,1","09926,1",,,"7,1,06,1","2,1,06,1",,"07,99,1,01,1,02,1,00450,1,07,1,02,1",,"99999,9,09915,1","2,1,028,1,+999,9","02,1","SYN088AAXX  20121 01108 11488 70112 10011 21071 39915 49926 52028 6//// 70272 81272 333 4////;",
"01108099999","2010-03-20T18:00:00","4","65.7","11.85","9.1","VEGA VALLSJO, NO","FM-12","99999","V020","030,1,N,0090,1","22000,1,9,N","075000,1,N,1","+0012,1","-0052,1","09985,1","12,0003,9,1",,"2,1,06,1","1,1,06,1",,"03,99,1,02,1,02,1,00800,1,00,1,04,1","120,M,+0015,1","99999,9,09974,1","2,1,035,1,+999,9","03,1","SYN094AAXX  20181 01108 11589 30309 10012 21052 39974 49985 52035 69932 70321 82204 333 10015 4////;",
"01108099999","2010-03-21T06:00:00","4","65.7","11.85","9.1","VEGA VALLSJO, NO","FM-12","99999","V020","270,1,N,0080,1","03000,1,9,N","030000,1,N,1","+0019,1","-0026,1","10020,1","12,0000,9,1","24,0005,9,1","8,1,06,1","1,1,06,1",,"07,99,1,03,1,09,1,00150,1,06,1,02,1","999,N,-0051,1","99999,9,10009,1","7,1,005,1,+999,9","15,1","SYN100AAXX  21061 01108 11280 72708 10019 21026 30009 40020 57005 69922 71581 83962 333 21051 4//// 70005;","Q01  00002PRCP12"
"01108099999","2010-03-21T12:00:00","4","65.7","11.85","9.1","VEGA VALLSJO, NO","FM-12","99999","V020","350,1,N,0080,1","03000,1,9,N","045000,1,N,1","+0019,1","-0074,1","10053,1",,,"8,1,06,1","2,1,06,1",,"05,99,1,04,1,09,1,00450,1,06,1,00,1",,"99999,9,10042,1","2,1,024,1,+999,9","15,1","SYN088AAXX  21121 01108 11483 53508 10019 21074 30042 40053 52024 6//// 71582 84960 333 4////;",
"01108099999","2010-03-21T18:00:00","4","65.7","11.85","9.1","VEGA VALLSJO, NO","FM-12","99999","V020","330,1,N,0070,1","00420,1,9,N","015000,1,N,1","+0001,1","-0041,1","10080,1","12,0003,9,1",,"2,1,06,1","1,1,06,1",,"06,99,1,06,1,09,1,00450,1,00,1,00,1","120,M,+0021,1","99999,9,10069,1","1,1,009,1,+999,9","26,1","SYN094AAXX  21181 01108 11465 63307 10001 21041 30069 40080 51009 69932 72621 86900 333 10021 4////;",
"01108099999","2010-03-22T06:00:00","4","65.7","11.85","9.1","VEGA VALLSJO, NO","FM-12","99999","V020","310,1,N,0070,1","00420,1,9,N","020000,1,N,1","-0001,1","-0034,1","10107,1","12,0020,9,1","24,0023,9,1","8,1,06,1","2,1,06,1",,"06,99,1,05,1,09,1,00450,1,06,1,00,1","999,N,-0020,1","99999,9,10095,1","2,1,002,1,+999,9","26,1","SYN100AAXX  22061 01108 11470 63107 11001 21034 30095 40107 52002 60022 72682 85960 333 21020 4//// 70023;",
"01108099999","2010-03-22T12:00:00","4","65.7","11.85","9.1","VEGA VALLSJO, NO","FM-12","99999","V020","310,1,N,0030,1","22000,1,9,N","035000,1,N,1","+0009,1","-0047,1","10134,1",,,"8,1,06,1","1,1,06,1",,"04,99,1,03,1,09,1,00450,1,06,1,00,1",,"99999,9,10123,1","2,1,012,1,+999,9","15,1","SYN088AAXX  22121 01108 11481 43103 10009 21047 30123 40134 52012 6//// 71581 83960 333 4////;",
"01108099999","2010-03-22T18:00:00","4","65.7","11.85","9.1","VEGA VALLSJO, NO","FM-12","99999","V020","270,1,N,0060,1","03000,1,9,N","030000,1,N,1","+0018,1","-0045,1","10128,1","12,0010,9,1",,"8,1,06,1","2,1,06,1",,"07,99,1,04,1,09,1,00800,1,06,1,01,1","120,M,+0018,1","99999,9,10116,1","7,1,009,1,+999,9","15,1","SYN094AAXX  22181 01108 11580 72706 10018 21045 30116 40128 57009 60012 71582 84961 333 10018 4////;",
"01108099999","2010-03-23T06:00:00","4","65.7","11.85","9.1","VEGA VALLSJO, NO","FM-12","99999","V020","140,1,N,0020,1","22000,1,9,N","030000,1,N,1","-0051,1","-0067,1","10109,1","12,0008,9,1","24,0020,9,1","8,1,06,1","1,1,06,1",,"04,99,1,01,1,09,1,00450,1,00,1,05,1","999,N,-0054,1","99999,9,10097,1","7,1,006,1,+999,9","15,1","SYN100AAXX  23061 01108 11480 41402 11051 21067 30097 40109 57006 69972 71581 81905 333 21054 4//// 70020;",
"01108099999","2010-03-23T12:00:00","4","65.7","11.85","9.1","VEGA VALLSJO, NO","FM-12","99999","V020","040,1,N,0060,1","22000,1,9,N","075000,1,N,1","+0013,1","-0034,1","10112,1",,,"1,1,06,1","0,1,06,1",,"04,99,1,03,1,02,1,00450,1,00,1,08,1",,"99999,9,10100,1","3,1,003,1,+999,9","02,1","SYN088AAXX  23121 01108 11489 40406 10013 21034 30100 40112 53003 6//// 70210 83208 333 4////;",
"01108099999","2010-03-23T18:00:00","4","65.7","11.85","9.1","VEGA VALLSJO, NO","FM-12","99999","V020","050,1,N,0050,1","22000,1,9,N","075000,1,N,1","+0002,1","-0077,1","10121,1","12,0000,9,1",,"0,1,06,1","0,1,06,1",,"02,99,1,01,1,02,1,00450,1,00,1,04,1","120,M,+0015,1","99999,9,10110,1","2,1,004,1,+999,9","02,1","SYN094AAXX  23181 01108 11489 20505 10002 21077 30110 40121 52004 60002 70200 81204 333 10015 4////;","Q01  00002PRCP12"
"01108099999","2010-03-24T06:00:00","4","65.7","11.85","9.1","VEGA VALLSJO, NO","FM-12","99999","V020","080,1,N,0050,1","07500,1,9,N","070000,1,N,1","-0026,1","-0082,1","10153,1","12,0000,9,1","24,0000,9,1","2,1,06,1","0,1,06,1",,"06,99,1,01,1,09,1,00450,1,00,1,02,1","999,N,-0028,1","99999,9,10141,1","2,1,007,1,+999,9","02,1","SYN100AAXX  24061 01108 11488 60805 11026 21082 30141 40153 52007 60002 70220 81902 333 21028 4//// 70000;","Q01  00002PRCP24Q02  00002PRCP12"
"01108099999","2010-03-24T12:00:00","4","65.7","11.85","9.1","VEGA VALLSJO, NO","FM-12","99999","V020","070,1,N,0060,1","22000,1,9,N","075000,1,N,1","-0008,1","-0085,1","10169,1",,,"0,1,06,1","0,1,06,1",,"01,99,1,01,1,02,1,00450,1,00,1,01,1",,"99999,9,10158,1","2,1,009,1,+999,9","02,1","SYN088AAXX  24121 01108 11489 10706 11008 21085 30158 40169 52009 6//// 70200 81201 333 4////;",
"01108099999","2010-03-24T18:00:00","4","65.7","11.85","9.1","VEGA VALLSJO, NO","FM-12","99999","V020","070,1,N,0060,1","99999,9,9,N","075000,1,N,1","-0010,1","-0089,1","10166,1","12,0000,9,1",,"2,1,06,1","0,1,06,1",,"06,99,1,00,1,00,1,99999,9,00,1,01,1","120,M,-0005,1","99999,9,10155,1","7,1,003,1,+999,9","03,1","SYN094AAXX  24181 01108 11989 60706 11010 21089 30155 40166 57003 60002 70320 80001 333 11005 4////;","Q01  00002PRCP12"
"01108099999","2010-03-25T06:00:00","4","65.7","11.85","9.1","VEGA VALLSJO, NO","FM-12","99999","V020","140,1,N,0070,1","03000,1,9,N","075000,1,N,1","+0008,1","-0063,1","10129,1","12,0000,9,1","24,0000,9,1","2,1,06,1","2,1,06,1",,"06,99,1,02,1,04,1,01250,1,07,1,01,1","999,N,-0059,1","99999,9,10117,1","6,1,018,1,+999,9","02,1","SYN100AAXX  25061 01108 11689 61407 10008 21063 30117 40129 56018 60002 70222 82471 333 21059 4//// 70000;","Q01  00002PRCP24Q02  00002PRCP12"
"01108099999","2010-03-25T12:00:00","4","65.7","11.85","9.1","VEGA VALLSJO, NO","FM-12","99999","V020","140,1,N,0070,1","03000,1,9,N","075000,1,N,1","+0028,1","-0051,1","10101,1",,,"2,1,06,1","2,1,06,1",,"08,99,1,01,1,04,1,01250,1,01,1,07,1",,"99999,9,10090,1","7,1,011,1,+999,9","03,1","SYN088AAXX  25121 01108 11689 81407 10028 21051 30090 40101 57011 6//// 70322 81417 333 4////;",
"01108099999","2010-03-25T18:00:00","4","65.7","11.85","9.1","VEGA VALLSJO, NO","FM-12","99999","V020","130,1,N,0070,1","00120,1,9,N","015000,1,N,1","+0010,1","-0001,1","10065,1","12,0020,9,1",,"7,1,06,1","2,1,06,1",,"08,99,1,07,1,07,1,00150,1,02,1,99,9","120,M,+0028,1","99999,9,10053,1","7,1,020,1,+999,9","68,1","SYN094AAXX  25181 01108 11265 81307 10010 21001 30053 40065 57020 60022 76872 8772/ 333 10028 4////;",
"01108099999","2010-03-26T06:00:00","4","65.7","11.85","9.1","VEGA VALLSJO, NO","FM-12","99999","V020","050,1,N,0030,1","00750,1,9,N","050000,1,N,1","+0034,1","+0018,1","10046,1","12,0000,2,1","24,0023,9,1","2,1,06,1","2,1,06,1",,"07,99,1,07,1,04,1,00800,1,99,9,99,9","999,N,+0010,1","99999,9,10035,1","6,1,005,1,+999,9","02,1","SYN100AAXX  26061 01108 11584 70503 10034 20018 30035 40046 56005 69912 70222 874// 333 20010 4//// 70022;",
"01108099999","2010-03-26T12:00:00","4","65.7","11.85","9.1","VEGA VALLSJO, NO","FM-12","99999","V020","080,1,N,0020,1","03000,1,9,N","070000,1,N,1","+0051,1","+0021,1","10035,1",,,"2,1,06,1","2,1,06,1",,"06,99,1,01,1,04,1,01250,1,07,1,02,1",,"99999,9,10024,1","6,1,003,1,+999,9","02,1","SYN088AAXX  26121 01108 11688 60802 10051 20021 30024 40035 56003 6//// 70222 81472 333 4////;",
"01108099999","2010-03-26T18:00:00","4","65.7","11.85","9.1","VEGA VALLSJO, NO","FM-12","99999","V020","020,1,N,0040,1","03000,1,9,N","060000,1,N,1","+0035,1","+0020,1","10025,1","12,0000,9,1",,"2,1,06,1","2,1,06,1",,"07,99,1,01,1,01,1,00450,1,01,1,06,1","120,M,+0052,1","99999,9,10014,1","6,1,001,1,+999,9","03,1","SYN094AAXX  26181 01108 11486 70204 10035 20020 30014 40025 56001 60002 70322 81116 333 10052 4////;","Q01  00002PRCP12"
"01108099999","2010-03-27T06:00:00","4","65.7","11.85","9.1","VEGA VALLSJO, NO","FM-12","99999","V020","150,1,N,0040,1","00420,1,9,N","040000,1,N,1","+0025,1","+0001,1","10023,1","12,0000,9,1","24,0000,9,1","2,1,06,1","2,1,06,1",,"08,99,1,06,1,07,1,00450,1,02,1,07,1","999,N,+0025,1","99999,9,10012,1","3,1,003,1,+999,9","15,1","SYN100AAXX  27061 01108 11482 81504 10025 20001 30012 40023 53003 60002 71522 86727 333 20025 4//// 70000;","Q01  00002PRCP24Q02  00002PRCP12"
"01108099999","2010-03-27T12:00:00","4","65.7","11.85","9.1","VEGA VALLSJO, NO","FM-12","99999","V020","060,1,N,0070,1","03000,1,9,N","075000,1,N,1","+0021,1","-0040,1","10013,1",,,"2,1,06,1","2,1,06,1",,"08,99,1,02,1,07,1,00800,1,02,1,99,9",,"99999,9,10002,1","7,1,007,1,+999,9","02,1","SYN088AAXX  27121 01108 11589 80607 10021 21040 30002 40013 57007 6//// 70222 8272/ 333 4////;",
"01108099999","2010-03-27T18:00:00","4","65.7","11.85","9.1","VEGA VALLSJO, NO","FM-12","99999","V020","060,1,N,0050,1","03000,1,9,N","001500,1,N,1","-0005,1","-0018,1","10008,1","12,0005,9,1",,"7,1,06,1","2,1,06,1",,"08,99,1,04,1,07,1,00450,1,02,1,99,9","120,M,+0026,1","99999,9,09996,1","3,1,006,1,+999,9","73,1","SYN094AAXX  27181 01108 11415 80605 11005 21018 39996 40008 53006 69942 77372 8472/ 333 10026 4////;",
"01108099999","2010-03-28T06:00:00","4","65.7","11.85","9.1","VEGA VALLSJO, NO","FM-12","99999","V020","080,1,N,0040,1","00750,1,9,N","065000,1,N,1","-0012,1","-0068,1","09982,1","12,0005,9,1","24,0010,9,1","2,1,06,1","1,1,06,1",,"07,99,1,07,1,03,1,00800,1,00,1,01,1","999,N,-0020,1","99999,9,09970,1","6,1,007,1,+999,9","15,1","SYN100AAXX  28061 01108 11587 70804 11012 21068 39970 49982 56007 69962 71521 87301 333 21020 4//// 70010;",
"01108099999","2010-03-28T12:00:00","4","65.7","11.85","9.1","VEGA VALLSJO, NO","FM-12","99999","V020","030,1,N,0030,1","22000,1,9,N","075000,1,N,1","+0001,1","-0090,1","09974,1",,,"2,1,06,1","0,1,06,1",,"02,99,1,01,1,04,1,00800,1,00,1,09,1",,"99999,9,09963,1","7,1,004,1,+999,9","01,1","SYN088AAXX  28121 01108 11589 20303 10001 21090 39963 49974 57004 6//// 70120 81409 333 4////;",
"01108099999","2010-03-28T18:00:00","4","65.7","11.85","9.1","VEGA VALLSJO, NO","FM-12","99999","V020","080,1,N,0020,1","22000,1,9,N","075000,1,N,1","-0010,1","-0087,1","09972,1","12,0000,9,1",,"0,1,06,1","0,1,06,1",,"02,99,1,01,1,08,1,00450,1,00,1,01,1","120,M,+0005,1","99999,9,09961,1","3,1,001,1,+999,9","02,1","SYN094AAXX  28181 01108 11489 20802 11010 21087 39961 49972 53001 60002 70200 81801 333 10005 4////;","Q01  00002PRCP12"
"01108099999","2010-03-29T06:00:00","4","65.7","11.85","9.1","VEGA VALLSJO, NO","FM-12","99999","V020","120,1,N,0030,1","03000,1,9,N","075000,1,N,1","-0058,1","-0085,1","09981,1","12,0000,9,1","24,0000,9,1","2,1,06,1","0,1,06,1",,"06,99,1,01,1,01,1,00800,1,07,1,01,1","999,N,-0070,1","99999,9,09970,1","2,1,001,1,+999,9","03,1","SYN100AAXX  29061 01108 11589 61203 11058 21085 39970 49981 52001 60002 70320 81171 333 21070 4//// 70000;","Q01  00002PRCP24Q02  00002PRCP12"
"01108099999","2010-03-29T12:00:00","4","65.7","11.85","9.1","VEGA VALLSJO, NO","FM-12","99999","V020","120,1,N,0030,1","22000,1,9,N","075000,1,N,1","+0006,1","-0094,1","09990,1",,,"1,1,06,1","0,1,06,1",,"02,99,1,01,1,02,1,00800,1,00,1,05,1",,"99999,9,09979,1","2,1,005,1,+999,9","03,1","SYN088AAXX  29121 01108 11589 21203 10006 21094 39979 49990 52005 6//// 70310 81205 333 4////;",
"01108099999","2010-03-29T18:00:00","4","65.7","11.85","9.1","VEGA VALLSJO, NO","FM-12","99999","V020","150,1,N,0020,1","22000,1,9,N","075000,1,N,1","-0012,1","-0088,1","09995,1","12,0000,9,1",,"2,1,06,1","1,1,06,1",,"05,99,1,01,1,04,1,00800,1,00,1,06,1","120,M,+0009,1","99999,9,09984,1","1,1,001,1,+999,9","03,1","SYN094AAXX  29181 01108 11589 51502 11012 21088 39984 49995 51001 60002 70321 81406 333 10009 4////;","Q01  00002PRCP12"
"01108099999","2010-03-30T06:00:00","4","65.7","11.85","9.1","VEGA VALLSJO, NO","FM-12","99999","V020","150,1,N,0020,1","22000,1,9,N","075000,1,N,1","-0037,1","-0075,1","10011,1","12,0000,9,1","24,0000,9,1","1,1,06,1","1,1,06,1",,"03,99,1,01,1,01,1,00800,1,07,1,02,1","999,N,-0057,1","99999,9,10000,1","2,1,004,1,+999,9","02,1","SYN100AAXX  30061 01108 11589 31502 11037 21075 30000 40011 52004 60002 70211 81172 333 21057 4//// 70000;","Q01  00002PRCP24Q02  00002PRCP12"
"01108099999","2010-03-30T12:00:00","4","65.7","11.85","9.1","VEGA VALLSJO, NO","FM-12","99999","V020","130,1,N,0030,1","00210,1,9,N","007000,1,N,1","+0003,1","-0021,1","10026,1",,,"1,1,06,1","1,1,06,1",,"07,99,1,05,1,09,1,00250,1,07,1,02,1",,"99999,9,10014,1","2,1,007,1,+999,9","16,1","SYN088AAXX  30121 01108 11357 71303 10003 21021 30014 40026 52007 6//// 71611 85972 333 4////;",
"01108099999","2010-03-30T18:00:00","4","65.7","11.85","9.1","VEGA VALLSJO, NO","FM-12","99999","V020","150,1,N,0020,1","00210,1,9,N","035000,1,N,1","+0002,1","-0027,1","10036,1","12,0000,9,1",,"8,1,06,1","2,1,06,1",,"07,99,1,05,1,09,1,00250,1,00,1,01,1","120,M,+0016,1","99999,9,10025,1","2,1,003,1,+999,9","15,1","SYN094AAXX  30181 01108 11381 71502 10002 21027 30025 40036 52003 69902 71582 85901 333 10016 4////;","Q01  00002PRCP12"
"01108099999","2010-03-31T06:00:00","4","65.7","11.85","9.1","VEGA VALLSJO, NO","FM-12","99999","V020","120,1,N,0040,1","01200,1,9,N","075000,1,N,1","-0007,1","-0034,1","10026,1","12,0000,9,1","24,0000,9,1","2,1,06,1","1,1,06,1",,"07,99,1,07,1,08,1,00800,1,99,9,99,9","999,N,-0037,1","99999,9,10015,1","6,1,008,1,+999,9","15,1","SYN100AAXX  31061 01108 11589 71204 11007 21034 30015 40026 56008 60002 71521 878// 333 21037 4//// 70000;","Q01  00002PRCP24Q02  00002PRCP12"
"01108099999","2010-03-31T12:00:00","4","65.7","11.85","9.1","VEGA VALLSJO, NO","FM-12","99999","V020","130,1,N,0070,1","03000,1,9,N","075000,1,N,1","+0056,1","-0018,1","10012,1",,,"2,1,06,1","2,1,06,1",,"07,99,1,01,1,07,1,01250,1,02,1,06,1",,"99999,9,10001,1","8,1,008,1,+999,9","14,1","SYN088AAXX  31121 01108 11689 71307 10056 21018 30001 40012 58008 6//// 71422 81726 333 4////;",
"01108099999","2010-03-31T18:00:00","4","65.7","11.85","9.1","VEGA VALLSJO, NO","FM-12","99999","V020","130,1,N,0090,1","03000,1,9,N","075000,1,N,1","+0055,1","-0025,1","10003,1","12,0000,9,1",,"2,1,06,1","2,1,06,1",,"07,99,1,02,1,04,1,01250,1,07,1,02,1","120,M,+0069,1","99999,9,09991,1","7,1,004,1,+999,9","02,1","SYN094AAXX  31181 01108 11689 71309 10055 21025 39991 40003 57004 60002 70222 82472 333 10069 4////;","Q01  00002PRCP12"
"01108099999","2010-04-01T06:00:00","4","65.7","11.85","9.1","VEGA VALLSJO, NO","FM-12","99999","V020","100,1,N,0040,1","03000,1,9,N","060000,1,N,1","+0058,1","+0033,1","10000,1","12,0005,9,1","24,0005,9,1","6,1,06,1","2,1,06,1",,"07,99,1,04,1,07,1,01250,1,02,1,99,9","999,N,+0049,1","99999,9,09989,1","7,1,010,1,+999,9","60,1","SYN100AAXX  01061 01108 11686 71004 10058 20033 39989 40000 57010 69952 76062 8472/ 333 20049 4//// 70005;",
"01108099999","2010-04-01T12:00:00","4","65.7","11.85","9.1","VEGA VALLSJO, NO","FM-12","99999","V020","120,1,N,0040,1","03000,1,9,N","060000,1,N,1","+0098,1","+0031,1","09996,1",,,"6,1,06,1","2,1,06,1",,"08,99,1,03,1,07,1,01250,1,02,1,07,1",,"99999,9,09985,1","7,1,002,1,+999,9","60,1","SYN088AAXX  01121 01108 11686 81204 10098 20031 39985 49996 57002 6//// 76062 83727 333 4////;",
"01108099999","2010-04-01T18:00:00","4","65.7","11.85","9.1","VEGA VALLSJO, NO","FM-12","99999","V020","090,1,N,0030,1","01200,1,9,N","050000,1,N,1","+0069,1","+0030,1","09981,1","12,0005,9,1",,"6,1,06,1","2,1,06,1",,"08,99,1,06,1,07,1,01250,1,02,1,99,9","120,M,+0100,1","99999,9,09970,1","7,1,008,1,+999,9","60,1","SYN094AAXX  01181 01108 11684 80903 10069 20030 39970 49981 57008 69942 76062 8672/ 333 10100 4////;",
"01108099999","2010-04-02T06:00:00","4","65.7","11.85","9.1","VEGA VALLSJO, NO","FM-12","99999","V020","140,1,N,0080,1","22000,1,9,N","075000,1,N,1","+0057,1","-0003,1","10019,1","12,0000,2,1","24,0005,9,1","6,1,06,1","2,1,06,1",,"04,99,1,03,1,04,1,01250,1,00,1,01,1","999,N,+0042,1","99999,9,10008,1","3,1,008,1,+999,9","14,1","SYN100AAXX  02061 01108 11689 41408 10057 21003 30008 40019 53008 69912 71462 83401 333 20042 4//// 70005;",
"01108099999","2010-04-02T12:00:00","4","65.7","11.85","9.1","VEGA VALLSJO, NO","FM-12","99999","V020","160,1,N,0110,1","22000,1,9,N","075000,1,N,1","+0074,1","-0034,1","10039,1",,,"1,1,06,1","0,1,06,1",,"03,99,1,02,1,04,1,01250,1,06,1,01,1",,"99999,9,10028,1","2,1,011,1,+999,9","02,1","SYN088AAXX  02121 01108 11689 31611 10074 21034 30028 40039 52011 6//// 70210 82461 333 4////;",
"01108099999","2010-04-02T18:00:00","4","65.7","11.85","9.1","VEGA VALLSJO, NO","FM-12","99999","V020","140,1,N,0050,1","22000,1,9,N","075000,1,N,1","+0060,1","-0039,1","10074,1","12,0000,9,1",,"0,1,06,1","0,1,06,1",,"04,99,1,01,1,04,1,01250,1,04,1,02,1","120,M,+0081,1","99999,9,10063,1","2,1,013,1,+999,9","03,1","SYN094AAXX  02181 01108 11689 41405 10060 21039 30063 40074 52013 60002 70300 81442 333 10081 4////;","Q01  00002PRCP12"
"01108099999","2010-04-03T06:00:00","4","65.7","11.85","9.1","VEGA VALLSJO, NO","FM-12","99999","V020","140,1,N,0050,1","03000,1,9,N","075000,1,N,1","+0047,1","-0017,1","10112,1","12,0000,9,1","24,0000,9,1","2,1,06,1","2,1,06,1",,"07,99,1,02,1,04,1,00800,1,07,1,02,1","999,N,+0039,1","99999,9,10100,1","2,1,011,1,+999,9","02,1","SYN100AAXX  03061 01108 11589 71405 10047 21017 30100 40112 52011 60002 70222 82472 333 20039 4//// 70000;","Q01  00002PRCP24Q02  00002PRCP12"
"01108099999","2010-04-03T12:00:00","4","65.7","11.85","9.1","VEGA VALLSJO, NO","FM-12","99999","V020","150,1,N,0050,1","00750,1,9,N","070000,1,N,1","+0055,1","-0016,1","10149,1",,,"2,1,06,1","2,1,06,1",,"07,99,1,06,1,09,1,00800,1,06,1,01,1",,"99999,9,10138,1","2,1,021,1,+999,9","15,1","SYN088AAXX  03121 01108 11588 71505 10055 21016 30138 40149 52021 6//// 71522 86961 333 4////;",
"01108099999","2010-04-03T18:00:00","4","65.7","11.85","9.1","VEGA VALLSJO, NO","FM-12","99999","V020","140,1,N,0030,1","22000,1,9,N","075000,1,N,1","+0042,1","-0024,1","10170,1","12,0000,9,1",,"2,1,06,1","0,1,06,1",,"03,99,1,01,1,04,1,01250,1,00,1,01,1","120,M,+0070,1","99999,9,10158,1","2,1,004,1,+999,9","03,1","SYN094AAXX  03181 01108 11689 31403 10042 21024 30158 40170 52004 60002 70320 81401 333 10070 4////;","Q01  00002PRCP12"
"01108099999","2010-04-04T06:00:00","4","65.7","11.85","9.1","VEGA VALLSJO, NO","FM-12","99999","V020","090,1,N,0040,1","22000,1,9,N","075000,1,N,1","+0026,1","-0012,1","10178,1","12,0000,9,1","24,0000,9,1","0,1,06,1","0,1,06,1",,"02,99,1,00,1,00,1,99999,9,00,1,01,1","999,N,+0001,1","99999,9,10167,1","7,1,001,1,+999,9","02,1","SYN100AAXX  04061 01108 11989 20904 10026 21012 30167 40178 57001 60002 70200 80001 333 20001 4//// 70000;","Q01  00002PRCP24Q02  00002PRCP12"
"01108099999","2010-04-04T12:00:00","4","65.7","11.85","9.1","VEGA VALLSJO, NO","FM-12","99999","V020","140,1,N,0070,1","99999,9,9,N","075000,1,N,1","+0081,1","-0053,1","10175,1",,,"2,1,06,1","0,1,06,1",,"06,99,1,00,1,00,1,99999,9,00,1,01,1",,"99999,9,10163,1","8,1,003,1,+999,9","03,1","SYN088AAXX  04121 01108 11989 61407 10081 21053 30163 40175 58003 6//// 70320 80001 333 4////;",
"01108099999","2010-04-04T18:00:00","4","65.7","11.85","9.1","VEGA VALLSJO, NO","FM-12","99999","V020","140,1,N,0040,1","99999,9,9,N","075000,1,N,1","+0054,1","-0058,1","10175,1","12,0000,9,1",,"2,1,06,1","2,1,06,1",,"07,99,1,00,1,00,1,99999,9,00,1,02,1","120,M,+0087,1","99999,9,10164,1","2,1,001,1,+999,9","03,1","SYN094AAXX  04181 01108 11989 71404 10054 21058 30164 40175 52001 60002 70322 80002 333 10087 4////;","Q01  00002PRCP12"
"01108099999","2010-04-05T06:00:00","4","65.7","11.85","9.1","VEGA VALLSJO, NO","FM-12","99999","V020","130,1,N,0040,1","22000,1,9,N","075000,1,N,1","+0040,1","-0028,1","10186,1","12,0000,9,1","24,0000,9,1","1,1,06,1","1,1,06,1",,"04,99,1,00,1,00,1,99999,9,00,1,01,1","999,N,+0021,1","99999,9,10175,1","4,1,000,1,+999,9","02,1","SYN100AAXX  05061 01108 11989 41304 10040 21028 30175 40186 54000 60002 70211 80001 333 20021 4//// 70000;","Q01  00002PRCP24Q02  00002PRCP12"
"01108099999","2010-04-05T12:00:00","4","65.7","11.85","9.1","VEGA VALLSJO, NO","FM-12","99999","V020","130,1,N,0070,1","22000,1,9,N","075000,1,N,1","+0079,1","-0077,1","10188,1",,,"1,1,06,1","1,1,06,1",,"04,99,1,01,1,04,1,01250,1,00,1,01,1",,"99999,9,10176,1","4,1,000,1,+999,9","02,1","SYN088AAXX  05121 01108 11689 41307 10079 21077 30176 40188 54000 6//// 70211 81401 333 4////;",
"01108099999","2010-04-05T18:00:00","4","65.7","11.85","9.1","VEGA VALLSJO, NO","FM-12","99999","V020","130,1,N,0040,1","22000,1,9,N","075000,1,N,1","+0057,1","-0053,1","10192,1","12,0000,9,1",,"0,1,06,1","0,1,06,1",,"01,99,1,01,1,04,1,01250,1,00,1,01,1","120,M,+0085,1","99999,9,10181,1","1,1,001,1,+999,9","01,1","SYN094AAXX  05181 01108 11689 11304 10057 21053 30181 40192 51001 60002 70100 81401 333 10085 4////;","Q01  00002PRCP12"
"01108099999","2010-04-06T06:00:00","4","65.7","11.85","9.1","VEGA VALLSJO, NO","FM-12","99999","V020","140,1,N,0070,1","22000,1,9,N","075000,1,N,1","+0041,1","-0025,1","10190,1","12,0000,9,1","24,0000,9,1","0,1,06,1","0,1,06,1",,"01,99,1,01,1,01,1,01250,1,00,1,01,1","999,N,+0000,1","99999,9,10179,1","7,1,006,1,+999,9","02,1","SYN100AAXX  06061 01108 11689 11407 10041 21025 30179 40190 57006 60002 70200 81101 333 20000 4//// 70000;","Q01  00002PRCP24Q02  00002PRCP12"
"01108099999","2010-04-06T12:00:00","4","65.7","11.85","9.1","VEGA VALLSJO, NO","FM-12","99999","V020","130,1,N,0100,1","07500,1,9,N","075000,1,N,1","+0081,1","-0019,1","10180,1",,,"2,1,06,1","0,1,06,1",,"06,99,1,01,1,01,1,01750,1,07,1,06,1",,"99999,9,10168,1","7,1,003,1,+999,9","03,1","SYN088AAXX  06121 01108 11789 61310 10081 21019 30168 40180 57003 6//// 70320 81176 333 4////;",
"01108099999","2010-04-06T18:00:00","4","65.7","11.85","9.1","VEGA VALLSJO, NO","FM-12","99999","V020","140,1,N,0060,1","03000,1,9,N","075000,1,N,1","+0059,1","-0027,1","10177,1","12,0000,9,1",,"2,1,06,1","2,1,06,1",,"07,99,1,01,1,01,1,01250,1,07,1,06,1","120,M,+0087,1","99999,9,10165,1","7,1,009,1,+999,9","02,1","SYN094AAXX  06181 01108 11689 71406 10059 21027 30165 40177 57009 60002 70222 81176 333 10087 4////;","Q01  00002PRCP12"
"01108099999","2010-04-07T06:00:00","4","65.7","11.85","9.1","VEGA VALLSJO, NO","FM-12","99999","V020","120,1,N,0060,1","03000,1,9,N","075000,1,N,1","+0050,1","-0008,1","10158,1","12,0000,9,1","24,0000,9,1","2,1,06,1","2,1,06,1",,"07,99,1,01,1,01,1,01750,1,07,1,06,1","999,N,+0032,1","99999,9,10147,1","7,1,003,1,+999,9","03,1","SYN100AAXX  07061 01108 11789 71206 10050 21008 30147 40158 57003 60002 70322 81176 333 20032 4//// 70000;","Q01  00002PRCP24Q02  00002PRCP12"
"01108099999","2010-04-07T12:00:00","4","65.7","11.85","9.1","VEGA VALLSJO, NO","FM-12","99999","V020","150,1,N,0080,1","03000,1,9,N","075000,1,N,1","+0078,1","-0006,1","10158,1",,,"2,1,06,1","2,1,06,1",,"07,99,1,01,1,04,1,01750,1,07,1,07,1",,"99999,9,10147,1","6,1,003,1,+999,9","01,1","SYN088AAXX  07121 01108 11789 71508 10078 21006 30147 40158 56003 6//// 70122 81477 333 4////;",
"01108099999","2010-04-07T18:00:00","4","65.7","11.85","9.1","VEGA VALLSJO, NO","FM-12","99999","V020","130,1,N,0060,1","03000,1,9,N","075000,1,N,1","+0069,1","-0003,1","10176,1","12,0000,9,1",,"2,1,06,1","2,1,06,1",,"08,99,1,04,1,07,1,00800,1,02,1,99,9","120,M,+0085,1","99999,9,10165,1","1,1,010,1,+999,9","16,1","SYN094AAXX  07181 01108 11589 81306 10069 21003 30165 40176 51010 60002 71622 8472/ 333 10085 4////;","Q01  00002PRCP12"
"01108099999","2010-04-08T06:00:00","4","65.7","11.85","9.1","VEGA VALLSJO, NO","FM-12","99999","V020","150,1,N,0020,1","03000,1,9,N","006000,1,N,1","+0048,1","+0036,1","10187,1","12,0041,9,2","24,0036,9,2","8,1,06,1","6,1,06,1",,"07,99,1,02,1,06,1,00025,1,06,1,02,1","999,N,+0043,1","99999,9,10176,1","4,1,000,1,+999,9","41,1","SYN100AAXX  08061 01108 11056 71502 10048 20036 30176 40187 54000 60042 74186 82662 333 20043 4//// 70035;",
"01108099999","2010-04-08T12:00:00","4","65.7","11.85","9.1","VEGA VALLSJO, NO","FM-12","99999","V020","250,1,N,0030,1","03000,1,9,N","055000,1,N,1","+0069,1","+0030,1","10182,1",,,"2,1,06,1","2,1,06,1",,"07,99,1,04,1,02,1,00250,1,06,1,02,1",,"99999,9,10171,1","7,1,003,1,+999,9","02,1","SYN088AAXX  08121 01108 11385 72503 10069 20030 30171 40182 57003 6//// 70222 84262 333 4////;",
"01108099999","2010-04-08T18:00:00","4","65.7","11.85","9.1","VEGA VALLSJO, NO","FM-12","99999","V020","280,1,N,0020,1","22000,1,9,N","040000,1,N,1","+0041,1","+0026,1","10177,1","12,0000,9,1",,"2,1,06,1","1,1,06,1",,"03,99,1,01,1,06,1,00075,1,07,1,01,1","120,M,+0071,1","99999,9,10166,1","7,1,002,1,+999,9","03,1","SYN094AAXX  08181 01108 11182 32802 10041 20026 30166 40177 57002 60002 70321 81671 333 10071 4////;","Q01  00002PRCP12"
"01108099999","2010-04-09T06:00:00","4","65.7","11.85","9.1","VEGA VALLSJO, NO","FM-12","99999","V020","120,1,N,0040,1","00420,1,9,N","050000,1,N,1","+0035,1","+0020,1","10194,1","12,0000,9,1","24,0000,9,1","2,1,06,1","2,1,06,1",,"07,99,1,07,1,05,1,00450,1,99,9,99,9","999,N,+0020,1","99999,9,10182,1","2,1,007,1,+999,9","03,1","SYN100AAXX  09061 01108 11484 71204 10035 20020 30182 40194 52007 60002 70322 875// 333 20020 4//// 70000;","Q01  00002PRCP24Q02  00002PRCP12"
"01108099999","2010-04-09T12:00:00","4","65.7","11.85","9.1","VEGA VALLSJO, NO","FM-12","99999","V020","270,1,N,0010,1","00420,1,9,N","030000,1,N,1","+0067,1","+0014,1","10216,1",,,"8,1,06,1","2,1,06,1",,"07,99,1,07,1,09,1,00450,1,99,9,99,9",,"99999,9,10204,1","2,1,014,1,+999,9","15,1","SYN088AAXX  09121 01108 11480 72701 10067 20014 30204 40216 52014 6//// 71582 879// 333 4////;",
"01108099999","2010-04-09T18:00:00","4","65.7","11.85","9.1","VEGA VALLSJO, NO","FM-12","99999","V020","270,1,N,0020,1","00030,1,9,N","020000,1,N,1","+0055,1","+0037,1","10255,1","12,0020,9,1",,"8,1,06,1","2,1,06,1",,"07,99,1,07,1,09,1,00025,1,99,9,99,9","120,M,+0067,1","99999,9,10244,1","2,1,021,1,+999,9","25,1","SYN094AAXX  09181 01108 11070 72702 10055 20037 30244 40255 52021 60022 72582 879// 333 10067 4////;",
"01108099999","2010-04-10T06:00:00","4","65.7","11.85","9.1","VEGA VALLSJO, NO","FM-12","99999","V020","290,1,N,0030,1","00900,1,9,N","060000,1,N,1","+0045,1","+0001,1","10344,1","12,0020,9,1","24,0043,9,1","8,1,06,1","2,1,06,1",,"07,99,1,05,1,08,1,00450,1,00,1,01,1","999,N,+0038,1","99999,9,10333,1","2,1,020,1,+999,9","01,1","SYN100AAXX  10061 01108 11486 72903 10045 20001 30333 40344 52020 60022 70182 85801 333 20038 4//// 70044;",
"01108099999","2010-04-10T12:00:00","4","65.7","11.85","9.1","VEGA VALLSJO, NO","FM-12","99999","V020","240,1,N,0040,1","03000,1,9,N","065000,1,N,1","+0066,1","+0001,1","10361,1",,,"2,1,06,1","2,1,06,1",,"06,99,1,04,1,08,1,00800,1,06,1,01,1",,"99999,9,10350,1","2,1,007,1,+999,9","15,1","SYN088AAXX  10121 01108 11587 62404 10066 20001 30350 40361 52007 6//// 71522 84861 333 4////;",
"01108099999","2010-04-10T18:00:00","4","65.7","11.85","9.1","VEGA VALLSJO, NO","FM-12","99999","V020","230,1,N,0010,1","22000,1,9,N","065000,1,N,1","+0052,1","+0017,1","10368,1","12,0000,9,1",,"2,1,06,1","1,1,06,1",,"06,99,1,01,1,08,1,00450,1,00,1,06,1","120,M,+0071,1","99999,9,10356,1","1,1,003,1,+999,9","03,1","SYN094AAXX  10181 01108 11487 62301 10052 20017 30356 40368 51003 60002 70321 81806 333 10071 4////;","Q01  00002PRCP12"
"01108099999","2010-04-11T06:00:00","4","65.7","11.85","9.1","VEGA VALLSJO, NO","FM-12","99999","V020","150,1,N,0010,1","99999,9,9,N","075000,1,N,1","+0039,1","-0012,1","10354,1","12,0000,9,1","24,0000,9,1","2,1,06,1","2,1,06,1",,"07,99,1,01,1,00,1,99999,9,07,1,01,1","999,N,-0002,1","99999,9,10343,1","7,1,005,1,+999,9","02,1","SYN100AAXX  11061 01108 11989 71501 10039 21012 30343 40354 57005 60002 70222 81071 333 21002 4//// 70000;","Q01  00002PRCP24Q02  00002PRCP12"
"01108099999","2010-04-11T12:00:00","4","65.7","11.85","9.1","VEGA VALLSJO, NO","FM-12","99999","V020","200,1,N,0040,1","07500,1,9,N","075000,1,N,1","+0095,1","-0048,1","10345,1",,,"2,1,06,1","1,1,06,1",,"05,99,1,01,1,05,1,02250,1,03,1,01,1",,"99999,9,10334,1","4,1,000,1,+999,9","03,1","SYN088AAXX  11121 01108 11889 52004 10095 21048 30334 40345 54000 6//// 70321 81531 333 4////;",
"01108099999","2010-04-11T18:00:00","4","65.7","11.85","9.1","VEGA VALLSJO, NO","FM-12","99999","V020","220,1,N,0050,1","03000,1,9,N","075000,1,N,1","+0088,1","-0096,1","10324,1","12,0000,9,1",,"2,1,06,1","2,1,06,1",,"07,99,1,01,1,05,1,01250,1,07,1,02,1","120,M,+0097,1","99999,9,10312,1","7,1,013,1,+999,9","01,1","SYN094AAXX  11181 01108 11689 72205 10088 21096 30312 40324 57013 60002 70122 81572 333 10097 4////;","Q01  00002PRCP12"
"01108099999","2010-04-12T06:00:00","4","65.7","11.85","9.1","VEGA VALLSJO, NO","FM-12","99999","V020","200,1,N,0100,1","07500,1,9,N","070000,1,N,1","+0090,1","-0060,1","10239,1","12,0000,9,1","24,0000,9,1","2,1,06,1","1,1,06,1",,"06,99,1,01,1,05,1,01750,1,04,1,03,1","999,N,+0074,1","99999,9,10228,1","7,1,038,1,+999,9","02,1","SYN100AAXX  12061 01108 11788 62010 10090 21060 30228 40239 57038 60002 70221 81543 333 20074 4//// 70000;","Q01  00002PRCP24Q02  00002PRCP12"
"01108099999","2010-04-12T12:00:00","4","65.7","11.85","9.1","VEGA VALLSJO, NO","FM-12","99999","V020","210,1,N,0100,1","00120,1,9,N","005000,1,N,1","+0061,1","+0049,1","10187,1",,,"6,1,06,1","2,1,06,1",,"08,99,1,07,1,07,1,00150,1,02,1,99,9",,"99999,9,10176,1","6,1,021,1,+999,9","63,1","SYN088AAXX  12121 01108 11250 82110 10061 20049 30176 40187 56021 6//// 76362 8772/ 333 4////;",
"01108099999","2010-04-12T18:00:00","4","65.7","11.85","9.1","VEGA VALLSJO, NO","FM-12","99999","V020","250,1,N,0070,1","00900,1,9,N","030000,1,N,1","+0059,1","+0036,1","10205,1","12,0079,9,1",,"8,1,06,1","6,1,06,1",,"07,99,1,07,1,08,1,00450,1,99,9,99,9","120,M,+0090,1","99999,9,10194,1","2,1,014,1,+999,9","03,1","SYN094AAXX  12181 01108 11480 72507 10059 20036 30194 40205 52014 60082 70386 878// 333 10090 4////;",
"01108099999","2010-04-13T06:00:00","4","65.7","11.85","9.1","VEGA VALLSJO, NO","FM-12","99999","V020","270,1,N,0040,1","00210,1,9,N","015000,1,N,1","+0046,1","+0031,1","10231,1","12,9999,9,9","24,0084,9,1","8,1,06,1","2,1,06,1",,"07,99,1,07,1,09,1,00250,1,99,9,99,9","999,N,+0040,1","99999,9,10219,1","2,1,003,1,+999,9","80,1","SYN100AAXX  13061 01108 11365 72704 10046 20031 30219 40231 52003 69922 78082 879// 333 20040 4//// 70085;","Q01  00002PRCP12Q02  00002PRCP12"
"01108099999","2010-04-13T12:00:00","4","65.7","11.85","9.1","VEGA VALLSJO, NO","FM-12","99999","V020","310,1,N,0040,1","00600,1,9,N","055000,1,N,1","+0052,1","+0013,1","10257,1",,,"8,1,06,1","2,1,06,1",,"07,99,1,06,1,08,1,00250,1,06,1,01,1",,"99999,9,10245,1","2,1,011,1,+999,9","15,1","SYN088AAXX  13121 01108 11385 73104 10052 20013 30245 40257 52011 6//// 71582 86861 333 4////;",
"01108099999","2010-04-13T18:00:00","4","65.7","11.85","9.1","VEGA VALLSJO, NO","FM-12","99999","V020","240,1,N,0050,1","00210,1,9,N","040000,1,N,1","+0044,1","+0016,1","10252,1","12,0000,2,1",,"8,1,06,1","2,1,06,1",,"08,99,1,08,1,09,1,00250,1,99,9,99,9","120,M,+0055,1","99999,9,10241,1","8,1,009,1,+999,9","80,1","SYN094AAXX  13181 01108 11382 82405 10044 20016 30241 40252 58009 69912 78082 889// 333 10055 4////;",
"01108099999","2010-04-14T06:00:00","4","65.7","11.85","9.1","VEGA VALLSJO, NO","FM-12","99999","V020","240,1,N,0070,1","00210,1,9,N","020000,1,N,1","+0056,1","+0041,1","10213,1","12,0020,9,1","24,0025,9,1","6,1,06,1","2,1,06,1",,"08,99,1,06,1,07,1,00250,1,02,1,99,9","999,N,+0042,1","99999,9,10201,1","6,1,012,1,+999,9","61,1","SYN100AAXX  14061 01108 11370 82407 10056 20041 30201 40213 56012 60022 76162 8672/ 333 20042 4//// 70025;",
"01108099999","2010-04-14T12:00:00","4","65.7","11.85","9.1","VEGA VALLSJO, NO","FM-12","99999","V020","230,1,N,0060,1","00060,1,9,N","004000,1,N,1","+0057,1","+0047,1","10192,1",,,"6,1,06,1","5,1,06,1",,"08,99,1,99,9,07,1,00075,1,02,1,99,9",,"99999,9,10181,1","6,1,005,1,+999,9","59,1","SYN088AAXX  14121 01108 11140 82306 10057 20047 30181 40192 56005 6//// 75965 8872/ 333 4////;","Q01+000082SCOTLC"
"01108099999","2010-04-14T18:00:00","4","65.7","11.85","9.1","VEGA VALLSJO, NO","FM-12","99999","V020","220,1,N,0070,1","00030,1,9,N","025000,1,N,1","+0056,1","+0044,1","10159,1","12,0061,9,1",,"6,1,06,1","5,1,06,1",,"07,99,1,07,1,09,1,00025,1,99,9,99,9","120,M,+0061,1","99999,9,10148,1","7,1,017,1,+999,9","15,1","SYN094AAXX  14181 01108 11075 72207 10056 20044 30148 40159 57017 60062 71565 879// 333 10061 4////;",
"01108099999","2010-04-15T06:00:00","4","65.7","11.85","9.1","VEGA VALLSJO, NO","FM-12","99999","V020","200,1,N,0060,1","00030,1,9,N","006000,1,N,1","+0053,1","+0035,1","10079,1","12,0051,9,1","24,0104,9,1","8,1,06,1","6,1,06,1",,"08,99,1,05,1,07,1,00025,1,02,1,99,9","999,N,+0045,1","99999,9,10068,1","7,1,035,1,+999,9","63,1","SYN100AAXX  15061 01108 11056 82006 10053 20035 30068 40079 57035 60052 76386 8572/ 333 20045 4//// 70104;",
"01108099999","2010-04-15T12:00:00","4","65.7","11.85","9.1","VEGA VALLSJO, NO","FM-12","99999","V020","280,1,N,0070,1","00420,1,9,N","025000,1,N,1","+0053,1","+0033,1","10057,1",,,"8,1,06,1","6,1,06,1",,"07,99,1,07,1,09,1,00450,1,99,9,99,9",,"99999,9,10045,1","3,1,009,1,+999,9","80,1","SYN088AAXX  15121 01108 11475 72807 10053 20033 30045 40057 53009 6//// 78086 879// 333 4////;",
"01108099999","2010-04-15T18:00:00","4","65.7","11.85","9.1","VEGA VALLSJO, NO","FM-12","99999","V020","270,1,N,0090,1","00420,1,9,N","010000,1,N,1","+0035,1","+0011,1","10053,1","12,0051,9,1",,"8,1,06,1","2,1,06,1",,"07,99,1,07,1,09,1,00450,1,99,9,99,9","120,M,+0060,1","99999,9,10042,1","8,1,004,1,+999,9","81,1","SYN094AAXX  15181 01108 11460 72709 10035 20011 30042 40053 58004 60052 78182 879// 333 10060 4////;",
"01108099999","2010-04-16T06:00:00","4","65.7","11.85","9.1","VEGA VALLSJO, NO","FM-12","99999","V020","340,1,N,0060,1","03000,1,9,N","030000,1,N,1","+0029,1","-0059,1","10073,1","12,0010,9,1","24,0053,9,1","8,1,06,1","2,1,06,1",,"07,99,1,04,1,09,1,00800,1,06,1,99,9","999,N,+0011,1","99999,9,10061,1","2,1,012,1,+999,9","15,1","SYN100AAXX  16061 01108 11580 73406 10029 21059 30061 40073 52012 69992 71582 8496/ 333 20011 4//// 70054;",
"01108099999","2010-04-16T12:00:00","4","65.7","11.85","9.1","VEGA VALLSJO, NO","FM-12","99999","V020","280,1,N,0090,1","00210,1,9,N","000500,1,N,1","+0002,1","-0012,1","10076,1",,,"8,1,06,1","2,1,06,1",,"08,99,1,08,1,09,1,00250,1,99,9,99,9",,"99999,9,10065,1","2,1,005,1,+999,9","86,1","SYN088AAXX  16121 01108 11305 82809 10002 21012 30065 40076 52005 6//// 78682 889// 333 4////;",
"01108099999","2010-04-16T18:00:00","4","65.7","11.85","9.1","VEGA VALLSJO, NO","FM-12","99999","V020","300,1,N,0040,1","00750,1,9,N","030000,1,N,1","+0020,1","-0043,1","10053,1","12,0008,9,1",,"8,1,06,1","2,1,06,1",,"07,99,1,05,1,09,1,00800,1,06,1,05,1","120,M,+0039,1","99999,9,10042,1","8,1,017,1,+999,9","15,1","SYN094AAXX  16181 01108 11580 73004 10020 21043 30042 40053 58017 69982 71582 85965 333 10039 4////;",
"01108099999","2010-04-17T06:00:00","4","65.7","11.85","9.1","VEGA VALLSJO, NO","FM-12","99999","V020","060,1,N,0080,1","03000,1,9,N","004000,1,N,1","+0003,1","-0021,1","09931,1","12,9999,9,9","24,0010,9,1","7,1,06,1","1,1,06,1",,"08,99,1,02,1,07,1,00450,1,02,1,99,9","999,N,-0012,1","99999,9,09920,1","7,1,030,1,+999,9","71,1","SYN100AAXX  17061 01108 11440 80608 10003 21021 39920 49931 57030 69912 77171 8272/ 333 21012 4//// 70009;","Q01  00002PRCP12Q02  00002PRCP12"
"01108099999","2010-04-17T12:00:00","4","65.7","11.85","9.1","VEGA VALLSJO, NO","FM-12","99999","V020","360,1,N,0100,1","22000,1,9,N","075000,1,N,1","+0029,1","-0057,1","09942,1",,,"7,1,06,1","1,1,06,1",,"05,99,1,03,1,01,1,00800,1,00,1,01,1",,"99999,9,09931,1","3,1,015,1,+999,9","03,1","SYN088AAXX  17121 01108 11589 53610 10029 21057 39931 49942 53015 6//// 70371 83101 333 4////;",
"01108099999","2010-04-17T18:00:00","4","65.7","11.85","9.1","VEGA VALLSJO, NO","FM-12","99999","V020","340,1,N,0070,1","00120,1,9,N","025000,1,N,1","+0028,1","+0004,1","09958,1","12,0003,9,1",,"8,1,06,1","2,1,06,1",,"05,99,1,05,1,09,1,00150,1,00,1,00,1","120,M,+0032,1","99999,9,09947,1","8,1,002,1,+999,9","15,1","SYN094AAXX  17181 01108 11275 53407 10028 20004 39947 49958 58002 69932 71582 85900 333 10032 4////;",
"01108099999","2010-04-18T06:00:00","4","65.7","11.85","9.1","VEGA VALLSJO, NO","FM-12","99999","V020","060,1,N,0030,1","00060,1,9,N","030000,1,N,1","+0008,1","-0006,1","09956,1","12,0008,9,1","24,0010,9,1","8,1,06,1","1,1,06,1",,"07,99,1,05,1,09,1,00075,1,06,1,02,1","999,N,+0002,1","99999,9,09945,1","5,1,006,1,+999,9","15,1","SYN100AAXX  18061 01108 11180 70603 10008 21006 39945 49956 55006 69972 71581 85962 333 20002 4//// 70010;",
"01108099999","2010-04-18T12:00:00","4","65.7","11.85","9.1","VEGA VALLSJO, NO","FM-12","99999","V020","280,1,N,0060,1","00900,1,9,N","055000,1,N,1","+0041,1","-0048,1","09993,1",,,"8,1,06,1","2,1,06,1",,"06,99,1,06,1,08,1,00450,1,00,1,00,1",,"99999,9,09982,1","2,1,017,1,+999,9","15,1","SYN088AAXX  18121 01108 11485 62806 10041 21048 39982 49993 52017 6//// 71582 86800 333 4////;",
"01108099999","2010-04-18T18:00:00","4","65.7","11.85","9.1","VEGA VALLSJO, NO","FM-12","99999","V020","280,1,N,0120,1","00120,1,9,N","006000,1,N,1","+0021,1","+0009,1","09990,1","12,0071,9,1",,"8,1,06,1","2,1,06,1",,"08,99,1,08,1,09,1,00150,1,99,9,99,9","120,M,+0044,1","99999,9,09979,1","3,1,001,1,+999,9","87,1","SYN094AAXX  18181 01108 11256 82812 10021 20009 39979 49990 53001 60072 78782 889// 333 10044 4////;",
"01108099999","2010-04-19T06:00:00","4","65.7","11.85","9.1","VEGA VALLSJO, NO","FM-12","99999","V020","260,1,N,0060,1","00120,1,9,N","005000,1,N,1","+0023,1","+0008,1","10044,1","12,0051,9,1","24,0117,9,1","8,1,06,1","2,1,06,1",,"07,99,1,07,1,09,1,00150,1,99,9,99,9","999,N,+0012,1","99999,9,10032,1","2,1,009,1,+999,9","15,1","SYN100AAXX  19061 01108 11250 72606 10023 20008 30032 40044 52009 60052 71582 879// 333 20012 4//// 70116;",
"01108099999","2010-04-19T12:00:00","4","65.7","11.85","9.1","VEGA VALLSJO, NO","FM-12","99999","V020","240,1,N,0060,1","00210,1,9,N","020000,1,N,1","+0036,1","+0012,1","10073,1",,,"8,1,06,1","2,1,06,1",,"07,99,1,06,1,09,1,00250,1,06,1,00,1",,"99999,9,10062,1","2,1,015,1,+999,9","87,1","SYN088AAXX  19121 01108 11370 72406 10036 20012 30062 40073 52015 6//// 78782 86960 333 4////;",
"01108099999","2010-04-19T18:00:00","4","65.7","11.85","9.1","VEGA VALLSJO, NO","FM-12","99999","V020","300,1,N,0060,1","00420,1,9,N","010000,1,N,1","+0022,1","-0009,1","10091,1","12,0030,9,1",,"8,1,06,1","2,1,06,1",,"07,99,1,06,1,09,1,00450,1,06,1,05,1","120,M,+0041,1","99999,9,10080,1","1,1,003,1,+999,9","83,1","SYN094AAXX  19181 01108 11460 73006 10022 21009 30080 40091 51003 60032 78382 86965 333 10041 4////;",
"01108099999","2010-04-20T06:00:00","4","65.7","11.85","9.1","VEGA VALLSJO, NO","FM-12","99999","V020","140,1,N,0050,1","03000,1,9,N","015000,1,N,1","+0015,1","-0030,1","10084,1","12,0000,2,1","24,0033,9,1","2,1,06,1","1,1,06,1",,"08,99,1,01,1,07,1,00800,1,02,1,07,1","999,N,+0001,1","99999,9,10073,1","6,1,004,1,+999,9","16,1","SYN100AAXX  20061 01108 11565 81405 10015 21030 30073 40084 56004 60002 71621 81727 333 20001 4//// 70034;",
"01108099999","2010-04-20T12:00:00","4","65.7","11.85","9.1","VEGA VALLSJO, NO","FM-12","99999","V020","160,1,N,0070,1","00420,1,9,N","015000,1,N,1","+0042,1","-0010,1","10083,1",,,"8,1,06,1","7,1,06,1",,"07,99,1,07,1,09,1,00450,1,99,9,99,9",,"99999,9,10072,1","0,1,001,1,+999,9","83,1","SYN088AAXX  20121 01108 11465 71607 10042 21010 30072 40083 50001 6//// 78387 879// 333 4////;",
"01108099999","2010-04-20T18:00:00","4","65.7","11.85","9.1","VEGA VALLSJO, NO","FM-12","99999","V020","240,1,N,0080,1","00210,1,9,N","030000,1,N,1","+0042,1","+0000,1","10086,1","12,0010,9,1",,"8,1,06,1","2,1,06,1",,"06,99,1,05,1,09,1,00250,1,06,1,01,1","120,M,+0049,1","99999,9,10075,1","3,1,006,1,+999,9","15,1","SYN094AAXX  20181 01108 11380 62408 10042 21000 30075 40086 53006 60012 71582 85961 333 10049 4////;",
"01108099999","2010-04-21T06:00:00","4","65.7","11.85","9.1","VEGA VALLSJO, NO","FM-12","99999","V020","200,1,N,0010,1","03000,1,9,N","030000,1,N,1","+0012,1","-0001,1","10115,1","12,0005,9,1","24,0018,9,1","8,1,06,1","1,1,06,1",,"05,99,1,03,1,09,1,00150,1,06,1,00,1","999,N,-0012,1","99999,9,10104,1","2,1,002,1,+999,9","26,1","SYN100AAXX  21061 01108 11280 52001 10012 21001 30104 40115 52002 69962 72681 83960 333 21012 4//// 70017;",
"01108099999","2010-04-21T12:00:00","4","65.7","11.85","9.1","VEGA VALLSJO, NO","FM-12","99999","V020","300,1,N,0020,1","03000,1,9,N","050000,1,N,1","+0033,1","-0005,1","10126,1",,,"2,1,06,1","1,1,06,1",,"05,99,1,04,1,09,1,00250,1,06,1,01,1",,"99999,9,10115,1","2,1,005,1,+999,9","15,1","SYN088AAXX  21121 01108 11384 53002 10033 21005 30115 40126 52005 6//// 71521 84961 333 4////;",
"01108099999","2010-04-21T18:00:00","4","65.7","11.85","9.1","VEGA VALLSJO, NO","FM-12","99999","V020","010,1,N,0020,1","22000,1,9,N","075000,1,N,1","+0041,1","-0011,1","10120,1","12,0000,2,1",,"1,1,06,1","0,1,06,1",,"02,99,1,01,1,09,1,00800,1,06,1,04,1","120,M,+0045,1","99999,9,10109,1","8,1,006,1,+999,9","15,1","SYN094AAXX  21181 01108 11589 20102 10041 21011 30109 40120 58006 60002 71510 81964 333 10045 4////;",
"01108099999","2010-04-22T06:00:00","4","65.7","11.85","9.1","VEGA VALLSJO, NO","FM-12","99999","V020","190,1,N,0010,1","22000,1,9,N","070000,1,N,1","+0018,1","-0001,1","10103,1","12,0000,9,1","24,0000,2,1","1,1,06,1","0,1,06,1",,"04,99,1,03,1,09,1,00450,1,00,1,01,1","999,N,-0021,1","99999,9,10092,1","7,1,006,1,+999,9","15,1","SYN100AAXX  22061 01108 11488 41901 10018 21001 30092 40103 57006 69912 71510 83901 333 21021 4//// 70001;","Q01  00002PRCP12"
"01108099999","2010-04-22T12:00:00","4","65.7","11.85","9.1","VEGA VALLSJO, NO","FM-12","99999","V020","240,1,N,0050,1","22000,1,9,N","050000,1,N,1","+0056,1","-0015,1","10097,1",,,"8,1,06,1","1,1,06,1",,"04,99,1,04,1,09,1,00450,1,00,1,00,1",,"99999,9,10086,1","7,1,004,1,+999,9","15,1","SYN088AAXX  22121 01108 11484 42405 10056 21015 30086 40097 57004 6//// 71581 84900 333 4////;",
"01108099999","2010-04-22T18:00:00","4","65.7","11.85","9.1","VEGA VALLSJO, NO","FM-12","99999","V020","260,1,N,0030,1","22000,1,9,N","075000,1,N,1","+0048,1","-0012,1","10088,1","12,0000,9,1",,"1,1,06,1","0,1,06,1",,"03,99,1,02,1,02,1,00800,1,00,1,04,1","120,M,+0060,1","99999,9,10077,1","7,1,006,1,+999,9","02,1","SYN094AAXX  22181 01108 11589 32603 10048 21012 30077 40088 57006 69902 70210 82204 333 10060 4////;","Q01  00002PRCP12"
"01108099999","2010-04-23T06:00:00","4","65.7","11.85","9.1","VEGA VALLSJO, NO","FM-12","99999","V020","080,1,N,0030,1","22000,1,9,N","075000,1,N,1","+0022,1","-0023,1","10050,1","12,0000,9,1","24,0000,9,1","0,1,06,1","0,1,06,1",,"01,99,1,01,1,02,1,00800,1,00,1,03,1","999,N,-0035,1","99999,9,10039,1","6,1,007,1,+999,9","02,1","SYN100AAXX  23061 01108 11589 10803 10022 21023 30039 40050 56007 69912 70200 81203 333 21035 4//// 70001;","Q01  00002PRCP24Q02  00002PRCP12"
"01108099999","2010-04-23T12:00:00","4","65.7","11.85","9.1","VEGA VALLSJO, NO","FM-12","99999","V020","050,1,N,0050,1","22000,1,9,N","075000,1,N,1","+0062,1","-0074,1","10057,1",,,"0,1,06,1","0,1,06,1",,"01,99,1,01,1,01,1,00800,1,00,1,01,1",,"99999,9,10046,1","3,1,007,1,+999,9","02,1","SYN088AAXX  23121 01108 11589 10505 10062 21074 30046 40057 53007 6//// 70200 81101 333 4////;",
"01108099999","2010-04-23T18:00:00","4","65.7","11.85","9.1","VEGA VALLSJO, NO","FM-12","99999","V020","010,1,N,0060,1","22000,1,9,N","075000,1,N,1","+0050,1","-0010,1","10077,1","12,0000,9,1",,"0,1,06,1","0,1,06,1",,"04,99,1,01,1,01,1,00800,1,00,1,01,1","120,M,+0065,1","99999,9,10066,1","2,1,010,1,+999,9","03,1","SYN094AAXX  23181 01108 11589 40106 10050 21010 30066 40077 52010 60002 70300 81101 333 10065 4////;","Q01  00002PRCP12"
"01108099999","2010-04-24T06:00:00","4","65.7","11.85","9.1","VEGA VALLSJO, NO","FM-12","99999","V020","350,1,N,0020,1","22000,1,9,N","070000,1,N,1","+0043,1","+0010,1","10145,1","12,0000,9,1","24,0000,9,1","0,1,06,1","0,1,06,1",,"01,99,1,01,1,09,1,00800,1,00,1,01,1","999,N,+0022,1","99999,9,10134,1","2,1,015,1,+999,9","15,1","SYN100AAXX  24061 01108 11588 13502 10043 20010 30134 40145 52015 60002 71500 81901 333 20022 4//// 70000;","Q01  00002PRCP24Q02  00002PRCP12"
"01108099999","2010-04-24T12:00:00","4","65.7","11.85","9.1","VEGA VALLSJO, NO","FM-12","99999","V020","330,1,N,0020,1","07500,1,9,N","075000,1,N,1","+0060,1","-0031,1","10178,1",,,"1,1,06,1","0,1,06,1",,"05,99,1,02,1,02,1,01250,1,00,1,02,1",,"99999,9,10166,1","2,1,014,1,+999,9","01,1","SYN088AAXX  24121 01108 11689 53302 10060 21031 30166 40178 52014 6//// 70110 82202 333 4////;",
"01108099999","2010-04-24T18:00:00","4","65.7","11.85","9.1","VEGA VALLSJO, NO","FM-12","99999","V020","220,1,N,0050,1","22000,1,9,N","055000,1,N,1","+0058,1","+0000,1","10190,1","12,0000,9,1",,"1,1,06,1","0,1,06,1",,"03,99,1,02,1,09,1,00800,1,06,1,01,1","120,M,+0068,1","99999,9,10179,1","4,1,000,1,+999,9","15,1","SYN094AAXX  24181 01108 11585 32205 10058 21000 30179 40190 54000 60002 71510 82961 333 10068 4////;","Q01  00002PRCP12"
"01108099999","2010-04-25T06:00:00","4","65.7","11.85","9.1","VEGA VALLSJO, NO","FM-12","99999","V020","260,1,N,0040,1","03000,1,9,N","050000,1,N,1","+0045,1","-0007,1","10220,1","12,0020,9,1","24,0020,9,1","8,1,06,1","2,1,06,1",,"07,99,1,04,1,09,1,00450,1,06,1,01,1","999,N,+0031,1","99999,9,10208,1","2,1,016,1,+999,9","15,1","SYN100AAXX  25061 01108 11484 72604 10045 21007 30208 40220 52016 60022 71582 84961 333 20031 4//// 70020;",
"01108099999","2010-04-25T12:00:00","4","65.7","11.85","9.1","VEGA VALLSJO, NO","FM-12","99999","V020","210,1,N,0040,1","00750,1,9,N","040000,1,N,1","+0048,1","-0008,1","10247,1",,,"8,1,06,1","2,1,06,1",,"07,99,1,06,1,09,1,00800,1,06,1,99,9",,"99999,9,10236,1","2,1,013,1,+999,9","80,1","SYN088AAXX  25121 01108 11582 72104 10048 21008 30236 40247 52013 6//// 78082 8696/ 333 4////;",
"01108099999","2010-04-25T18:00:00","4","65.7","11.85","9.1","VEGA VALLSJO, NO","FM-12","99999","V020","200,1,N,0020,1","07500,1,9,N","075000,1,N,1","+0049,1","-0033,1","10243,1","12,0000,2,1",,"8,1,06,1","2,1,06,1",,"07,99,1,04,1,08,1,00800,1,00,1,02,1","120,M,+0062,1","99999,9,10231,1","8,1,008,1,+999,9","15,1","SYN094AAXX  25181 01108 11589 72002 10049 21033 30231 40243 58008 69912 71582 84802 333 10062 4////;",
"01108099999","2010-04-26T06:00:00","4","65.7","11.85","9.1","VEGA VALLSJO, NO","FM-12","99999","V020","160,1,N,0090,1","03000,1,9,N","020000,1,N,1","+0060,1","+0040,1","10137,1","12,0010,9,1","24,0013,9,1","6,1,06,1","2,1,06,1",,"08,99,1,01,1,07,1,00800,1,02,1,99,9","999,N,+0008,1","99999,9,10126,1","7,1,030,1,+999,9","61,1","SYN100AAXX  26061 01108 11570 81609 10060 20040 30126 40137 57030 60012 76162 8172/ 333 20008 4//// 70013;",
"01108099999","2010-04-26T12:00:00","4","65.7","11.85","9.1","VEGA VALLSJO, NO","FM-12","99999","V020","220,1,N,0060,1","02100,1,9,N","025000,1,N,1","+0098,1","+0007,1","10102,1",,,"6,1,06,1","2,1,06,1",,"08,99,1,08,1,00,1,02250,1,02,1,99,9",,"99999,9,10091,1","7,1,013,1,+999,9","60,1","SYN088AAXX  26121 01108 11875 82206 10098 20007 30091 40102 57013 6//// 76062 8802/ 333 4////;",
"01108099999","2010-04-26T18:00:00","4","65.7","11.85","9.1","VEGA VALLSJO, NO","FM-12","99999","V020","220,1,N,0100,1","00060,1,9,N","003000,1,N,1","+0070,1","+0058,1","10056,1","12,0051,9,1",,"6,1,06,1","6,1,06,1",,"08,99,1,07,1,07,1,00075,1,02,1,99,9","120,M,+0109,1","99999,9,10045,1","7,1,023,1,+999,9","58,1","SYN094AAXX  26181 01108 11130 82210 10070 20058 30045 40056 57023 60052 75866 8772/ 333 10109 4////;",
"01108099999","2010-04-27T06:00:00","4","65.7","11.85","9.1","VEGA VALLSJO, NO","FM-12","99999","V020","320,1,N,0080,1","00420,1,9,N","030000,1,N,1","+0031,1","-0037,1","10151,1","12,0099,9,1","24,0150,9,1","8,1,06,1","2,1,06,1",,"07,99,1,07,1,09,1,00450,1,99,9,99,9","999,N,-0005,1","99999,9,10140,1","2,1,020,1,+999,9","27,1","SYN100AAXX  27061 01108 11480 73208 10031 21037 30140 40151 52020 60102 72782 879// 333 21005 4//// 70150;",
"01108099999","2010-04-27T12:00:00","4","65.7","11.85","9.1","VEGA VALLSJO, NO","FM-12","99999","V020","260,1,N,0070,1","00420,1,9,N","025000,1,N,1","+0033,1","-0014,1","10177,1",,,"8,1,06,1","2,1,06,1",,"06,99,1,05,1,09,1,00450,1,06,1,99,9",,"99999,9,10166,1","2,1,009,1,+999,9","27,1","SYN088AAXX  27121 01108 11475 62607 10033 21014 30166 40177 52009 6//// 72782 8596/ 333 4////;",
"01108099999","2010-04-27T18:00:00","4","65.7","11.85","9.1","VEGA VALLSJO, NO","FM-12","99999","V020","270,1,N,0070,1","00210,1,9,N","000700,1,N,1","+0011,1","-0003,1","10175,1","12,0010,9,1",,"8,1,06,1","2,1,06,1",,"07,99,1,07,1,09,1,00250,1,99,9,99,9","120,M,+0044,1","99999,9,10164,1","0,1,002,1,+999,9","86,1","SYN094AAXX  27181 01108 11307 72707 10011 21003 30164 40175 50002 69992 78682 879// 333 10044 4////;",
"01108099999","2010-04-28T06:00:00","4","65.7","11.85","9.1","VEGA VALLSJO, NO","FM-12","99999","V020","290,1,N,0070,1","03000,1,9,N","030000,1,N,1","+0028,1","-0010,1","10152,1","12,0010,9,1","24,0018,9,1","8,1,06,1","2,1,06,1",,"06,99,1,04,1,09,1,00250,1,06,1,99,9","999,N,+0009,1","99999,9,10141,1","7,1,013,1,+999,9","15,1","SYN100AAXX  28061 01108 11380 62907 10028 21010 30141 40152 57013 60012 71582 8496/ 333 20009 4//// 70019;",
"01108099999","2010-04-28T12:00:00","4","65.7","11.85","9.1","VEGA VALLSJO, NO","FM-12","99999","V020","230,1,N,0040,1","00210,1,9,N","001000,1,N,1","+0024,1","+0000,1","10139,1",,,"2,1,06,1","2,1,06,1",,"07,99,1,06,1,09,1,00250,1,06,1,99,9",,"99999,9,10127,1","6,1,009,1,+999,9","85,1","SYN088AAXX  28121 01108 11310 72304 10024 21000 30127 40139 56009 6//// 78522 8696/ 333 4////;",
"01108099999","2010-04-28T18:00:00","4","65.7","11.85","9.1","VEGA VALLSJO, NO","FM-12","99999","V020","070,1,N,0020,1","22000,1,9,N","070000,1,N,1","+0035,1","-0016,1","10097,1","12,0000,2,1",,"2,1,06,1","2,1,06,1",,"03,99,1,01,1,08,1,00800,1,06,1,04,1","120,M,+0041,1","99999,9,10085,1","7,1,022,1,+999,9","01,1","SYN094AAXX  28181 01108 11588 30702 10035 21016 30085 40097 57022 69912 70122 81864 333 10041 4////;",
"01108099999","2010-04-29T06:00:00","4","65.7","11.85","9.1","VEGA VALLSJO, NO","FM-12","99999","V020","070,1,N,0050,1","03000,1,9,N","075000,1,N,1","+0020,1","-0035,1","10025,1","12,0000,9,1","24,0000,2,1","2,1,06,1","1,1,06,1",,"07,99,1,01,1,04,1,00800,1,01,1,06,1","999,N,+0008,1","99999,9,10014,1","7,1,015,1,+999,9","03,1","SYN100AAXX  29061 01108 11589 70705 10020 21035 30014 40025 57015 60002 70321 81416 333 20008 4//// 70001;","Q01  00002PRCP12"
"01108099999","2010-04-29T12:00:00","4","65.7","11.85","9.1","VEGA VALLSJO, NO","FM-12","99999","V020","060,1,N,0060,1","03000,1,9,N","040000,1,N,1","+0045,1","-0035,1","09999,1",,,"2,1,06,1","2,1,06,1",,"07,99,1,02,1,07,1,01250,1,02,1,06,1",,"99999,9,09988,1","7,1,010,1,+999,9","15,1","SYN088AAXX  29121 01108 11682 70606 10045 21035 39988 49999 57010 6//// 71522 82726 333 4////;",
"01108099999","2010-04-29T18:00:00","4","65.7","11.85","9.1","VEGA VALLSJO, NO","FM-12","99999","V020","070,1,N,0040,1","03000,1,9,N","030000,1,N,1","+0042,1","+0024,1","09979,1","12,0008,9,1",,"6,1,06,1","2,1,06,1",,"08,99,1,04,1,07,1,00450,1,02,1,99,9","120,M,+0048,1","99999,9,09968,1","7,1,011,1,+999,9","60,1","SYN094AAXX  29181 01108 11480 80704 10042 20024 39968 49979 57011 69982 76062 8472/ 333 10048 4////;",
"01108099999","2010-04-30T06:00:00","4","65.7","11.85","9.1","VEGA VALLSJO, NO","FM-12","99999","V020","050,1,N,0030,1","03000,1,9,N","025000,1,N,1","+0039,1","+0024,1","09949,1","12,0020,9,1","24,0030,9,1","6,1,06,1","2,1,06,1",,"08,99,1,03,1,07,1,00250,1,02,1,99,9","999,N,+0035,1","99999,9,09938,1","7,1,007,1,+999,9","61,1","SYN100AAXX  30061 01108 11375 80503 10039 20024 39938 49949 57007 60022 76162 8372/ 333 20035 4//// 70031;",
"01108099999","2010-04-30T12:00:00","4","65.7","11.85","9.1","VEGA VALLSJO, NO","FM-12","99999","V020","360,1,N,0020,1","00120,1,9,N","025000,1,N,1","+0049,1","+0032,1","09951,1",,,"6,1,06,1","2,1,06,1",,"07,99,1,06,1,07,1,00150,1,02,1,08,1",,"99999,9,09940,1","3,1,002,1,+999,9","60,1","SYN088AAXX  30121 01108 11275 73602 10049 20032 39940 49951 53002 6//// 76062 86728 333 4////;",
"01108099999","2010-04-30T18:00:00","4","65.7","11.85","9.1","VEGA VALLSJO, NO","FM-12","99999","V020","320,1,N,0010,1","03000,1,9,N","020000,1,N,1","+0043,1","+0027,1","09946,1","12,0005,9,1",,"6,1,06,1","2,1,06,1",,"08,99,1,04,1,07,1,00150,1,02,1,99,9","120,M,+0052,1","99999,9,09935,1","7,1,003,1,+999,9","61,1","SYN094AAXX  30181 01108 11270 83201 10043 20027 39935 49946 57003 69942 76162 8472/ 333 10052 4////;",
"01108099999","2010-05-01T06:00:00","4","65.7","11.85","9.1","VEGA VALLSJO, NO","FM-12","99999","V020","010,1,N,0080,1","00210,1,9,N","003000,1,N,1","+0025,1","+0007,1","09956,1","12,0010,9,1","24,0015,9,1","8,1,06,1","6,1,06,1",,"07,99,1,06,1,09,1,00250,1,06,1,99,9","999,N,+0025,1","99999,9,09945,1","3,1,008,1,+999,9","83,1","SYN100AAXX  01061 01108 11330 70108 10025 20007 39945 49956 53008 60012 78386 8696/ 333 20025 4//// 70014;",
"01108099999","2010-05-01T12:00:00","4","65.7","11.85","9.1","VEGA VALLSJO, NO","FM-12","99999","V020","360,1,N,0110,1","00420,1,9,N","005000,1,N,1","+0040,1","+0002,1","09978,1",,,"8,1,06,1","2,1,06,1",,"07,99,1,07,1,09,1,00450,1,99,9,99,9",,"99999,9,09967,1","2,1,013,1,+999,9","83,1","SYN088AAXX  01121 01108 11450 73611 10040 20002 39967 49978 52013 6//// 78382 879// 333 4////;",
"01108099999","2010-05-01T18:00:00","4","65.7","11.85","9.1","VEGA VALLSJO, NO","FM-12","99999","V020","350,1,N,0110,1","00210,1,9,N","004000,1,N,1","+0015,1","+0006,1","10009,1","12,0008,9,1",,"8,1,06,1","2,1,06,1",,"08,99,1,08,1,09,1,00250,1,99,9,99,9","120,M,+0049,1","99999,9,09998,1","2,1,015,1,+999,9","84,1","SYN094AAXX  01181 01108 11340 83511 10015 20006 39998 40009 52015 69972 78482 889// 333 10049 4////;",
"01108099999","2010-05-02T06:00:00","4","65.7","11.85","9.1","VEGA VALLSJO, NO","FM-12","99999","V020","310,1,N,0090,1","00420,1,9,N","020000,1,N,1","+0026,1","-0025,1","10060,1","12,0010,9,1","24,0015,9,1","8,1,06,1","2,1,06,1",,"07,99,1,05,1,09,1,00450,1,06,1,99,9","999,N,+0010,1","99999,9,10049,1","2,1,014,1,+999,9","26,1","SYN100AAXX  02061 01108 11470 73109 10026 21025 30049 40060 52014 69992 72682 8596/ 333 20010 4//// 70016;",
"01108099999","2010-05-02T12:00:00","4","65.7","11.85","9.1","VEGA VALLSJO, NO","FM-12","99999","V020","330,1,N,0060,1","03000,1,9,N","040000,1,N,1","+0033,1","-0026,1","10098,1",,,"8,1,06,1","2,1,06,1",,"05,99,1,04,1,09,1,00800,1,06,1,01,1",,"99999,9,10086,1","2,1,018,1,+999,9","15,1","SYN088AAXX  02121 01108 11582 53306 10033 21026 30086 40098 52018 6//// 71582 84961 333 4////;",
"01108099999","2010-05-02T18:00:00","4","65.7","11.85","9.1","VEGA VALLSJO, NO","FM-12","99999","V020","270,1,N,0050,1","00420,1,9,N","025000,1,N,1","+0024,1","-0007,1","10111,1","12,0005,9,1",,"8,1,06,1","2,1,06,1",,"07,99,1,06,1,09,1,00450,1,06,1,01,1","120,M,+0041,1","99999,9,10100,1","2,1,008,1,+999,9","27,1","SYN094AAXX  02181 01108 11475 72705 10024 21007 30100 40111 52008 69942 72782 86961 333 10041 4////;",
"01108099999","2010-05-03T06:00:00","4","65.7","11.85","9.1","VEGA VALLSJO, NO","FM-12","99999","V020","340,1,N,0030,1","00120,1,9,N","020000,1,N,1","+0008,1","-0006,1","10146,1","12,0030,9,1","24,0033,9,1","8,1,06,1","2,1,06,1",,"07,99,1,05,1,09,1,00150,1,06,1,02,1","999,N,+0005,1","99999,9,10135,1","3,1,006,1,+999,9","27,1","SYN100AAXX  03061 01108 11270 73403 10008 21006 30135 40146 53006 60032 72782 85962 333 20005 4//// 70033;",
"01108099999","2010-05-03T12:00:00","4","65.7","11.85","9.1","VEGA VALLSJO, NO","FM-12","99999","V020","240,1,N,0030,1","00120,1,9,N","000400,1,N,1","+0007,1","-0009,1","10166,1",,,"8,1,06,1","2,1,06,1",,"08,99,1,08,1,09,1,00150,1,99,9,99,9",,"99999,9,10155,1","2,1,009,1,+999,9","86,1","SYN088AAXX  03121 01108 11204 82403 10007 21009 30155 40166 52009 6//// 78682 889// 333 4////;",
"01108099999","2010-05-03T18:00:00","4","65.7","11.85","9.1","VEGA VALLSJO, NO","FM-12","99999","V020","280,1,N,0020,1","22000,1,9,N","060000,1,N,1","+0026,1","-0035,1","10180,1","12,0030,9,1",,"8,1,06,1","1,1,06,1",,"02,99,1,02,1,09,1,00450,1,00,1,00,1","120,M,+0032,1","99999,9,10168,1","2,1,003,1,+999,9","15,1","SYN094AAXX  03181 01108 11486 22802 10026 21035 30168 40180 52003 60032 71581 82900 333 10032 4////;",
"01108099999","2010-05-04T06:00:00","4","65.7","11.85","9.1","VEGA VALLSJO, NO","FM-12","99999","V020","210,1,N,0030,1","00750,1,9,N","030000,1,N,1","+0025,1","-0013,1","10201,1","12,9999,9,9","24,0028,9,1","2,1,06,1","1,1,06,1",,"07,99,1,05,1,09,1,00800,1,06,1,01,1","999,N,-0017,1","99999,9,10190,1","2,1,001,1,+999,9","26,1","SYN100AAXX  04061 01108 11580 72103 10025 21013 30190 40201 52001 69912 72621 85961 333 21017 4//// 70029;","Q01  00002PRCP12Q02  00002PRCP12"
"01108099999","2010-05-04T12:00:00","4","65.7","11.85","9.1","VEGA VALLSJO, NO","FM-12","99999","V020","220,1,N,0050,1","00210,1,9,N","015000,1,N,1","+0029,1","+0006,1","10209,1",,,"8,1,06,1","2,1,06,1",,"07,99,1,07,1,09,1,00250,1,99,9,99,9",,"99999,9,10198,1","2,1,003,1,+999,9","83,1","SYN088AAXX  04121 01108 11365 72205 10029 20006 30198 40209 52003 6//// 78382 879// 333 4////;",
"01108099999","2010-05-04T18:00:00","4","65.7","11.85","9.1","VEGA VALLSJO, NO","FM-12","99999","V020","230,1,N,0030,1","03000,1,9,N","050000,1,N,1","+0042,1","+0000,1","10207,1","12,0003,9,1",,"8,1,06,1","1,1,06,1",,"06,99,1,04,1,09,1,00450,1,06,1,00,1","120,M,+0051,1","99999,9,10195,1","8,1,002,1,+999,9","15,1","SYN094AAXX  04181 01108 11484 62303 10042 21000 30195 40207 58002 69932 71581 84960 333 10051 4////;",
"01108099999","2010-05-05T06:00:00","4","65.7","11.85","9.1","VEGA VALLSJO, NO","FM-12","99999","V020","190,1,N,0020,1","03000,1,9,N","030000,1,N,1","+0043,1","+0018,1","10189,1","12,0000,9,1","24,0005,9,1","8,1,06,1","2,1,06,1",,"07,99,1,04,1,09,1,00150,1,06,1,02,1","999,N,-0009,1","99999,9,10177,1","7,1,007,1,+999,9","15,1","SYN100AAXX  05061 01108 11280 71902 10043 20018 30177 40189 57007 69912 71582 84962 333 21009 4//// 70004;","Q01  00002PRCP12"
"01108099999","2010-05-05T12:00:00","4","65.7","11.85","9.1","VEGA VALLSJO, NO","FM-12","99999","V020","250,1,N,0050,1","03000,1,9,N","030000,1,N,1","+0056,1","+0023,1","10185,1",,,"8,1,06,1","2,1,06,1",,"07,99,1,04,1,09,1,00150,1,06,1,02,1",,"99999,9,10174,1","7,1,002,1,+999,9","15,1","SYN088AAXX  05121 01108 11280 72505 10056 20023 30174 40185 57002 6//// 71582 84962 333 4////;",
"01108099999","2010-05-05T18:00:00","4","65.7","11.85","9.1","VEGA VALLSJO, NO","FM-12","99999","V020","230,1,N,0040,1","22000,1,9,N","050000,1,N,1","+0050,1","+0004,1","10186,1","12,0000,9,1",,"8,1,06,1","1,1,06,1",,"04,99,1,02,1,09,1,00450,1,06,1,02,1","120,M,+0060,1","99999,9,10175,1","7,1,001,1,+999,9","15,1","SYN094AAXX  05181 01108 11484 42304 10050 20004 30175 40186 57001 69922 71581 82962 333 10060 4////;","Q01  00002PRCP12"
"01108099999","2010-05-06T06:00:00","4","65.7","11.85","9.1","VEGA VALLSJO, NO","FM-12","99999","V020","999,9,C,0000,1","22000,1,9,N","060000,1,N,1","+0044,1","+0013,1","10222,1","12,0000,9,1","24,0003,9,1","1,1,06,1","1,1,06,1",,"02,99,1,01,1,02,1,00800,1,06,1,01,1","999,N,-0016,1","99999,9,10210,1","2,1,011,1,+999,9","01,1","SYN100AAXX  06061 01108 11586 20000 10044 20013 30210 40222 52011 60002 70111 81261 333 21016 4//// 70002;","Q01  00002PRCP12"
"01108099999","2010-05-06T12:00:00","4","65.7","11.85","9.1","VEGA VALLSJO, NO","FM-12","99999","V020","360,1,N,0040,1","22000,1,9,N","070000,1,N,1","+0063,1","-0006,1","10243,1",,,"0,1,06,1","0,1,06,1",,"02,99,1,01,1,02,1,00800,1,06,1,01,1",,"99999,9,10232,1","2,1,010,1,+999,9","01,1","SYN088AAXX  06121 01108 11588 23604 10063 21006 30232 40243 52010 6//// 70100 81261 333 4////;",
"01108099999","2010-05-06T18:00:00","4","65.7","11.85","9.1","VEGA VALLSJO, NO","FM-12","99999","V020","010,1,N,0040,1","22000,1,9,N","075000,1,N,1","+0060,1","+0021,1","10257,1","12,0000,9,1",,"0,1,06,1","0,1,06,1",,"01,99,1,01,1,01,1,00800,1,00,1,00,1","120,M,+0069,1","99999,9,10246,1","1,1,004,1,+999,9","01,1","SYN094AAXX  06181 01108 11589 10104 10060 20021 30246 40257 51004 60002 70100 81100 333 10069 4////;","Q01  00002PRCP12"
"01108099999","2010-05-07T06:00:00","4","65.7","11.85","9.1","VEGA VALLSJO, NO","FM-12","99999","V020","140,1,N,0030,1","22000,1,9,N","075000,1,N,1","+0077,1","-0034,1","10252,1","12,0000,9,1","24,0000,9,1","0,1,06,1","0,1,06,1",,"01,99,1,00,1,00,1,99999,9,00,1,04,1","999,N,-0007,1","99999,9,10241,1","7,1,007,1,+999,9","03,1","SYN100AAXX  07061 01108 11989 11403 10077 21034 30241 40252 57007 60002 70300 80004 333 21007 4//// 70000;","Q01  00002PRCP24Q02  00002PRCP12"
"01108099999","2010-05-07T12:00:00","4","65.7","11.85","9.1","VEGA VALLSJO, NO","FM-12","99999","V020","180,1,N,0050,1","07500,1,9,N","075000,1,N,1","+0116,1","-0049,1","10234,1",,,"0,1,06,1","0,1,06,1",,"05,99,1,01,1,01,1,01250,1,00,1,05,1",,"99999,9,10223,1","7,1,013,1,+999,9","03,1","SYN088AAXX  07121 01108 11689 51805 10116 21049 30223 40234 57013 6//// 70300 81105 333 4////;",
"01108099999","2010-05-07T18:00:00","4","65.7","11.85","9.1","VEGA VALLSJO, NO","FM-12","99999","V020","220,1,N,0050,1","22000,1,9,N","075000,1,N,1","+0079,1","-0006,1","10206,1","12,0000,9,1",,"1,1,06,1","0,1,06,1",,"03,99,1,01,1,04,1,01750,1,07,1,05,1","120,M,+0122,1","99999,9,10195,1","7,1,015,1,+999,9","03,1","SYN094AAXX  07181 01108 11789 32205 10079 21006 30195 40206 57015 60002 70310 81475 333 10122 4////;","Q01  00002PRCP12"
"01108099999","2010-05-08T06:00:00","4","65.7","11.85","9.1","VEGA VALLSJO, NO","FM-12","99999","V020","210,1,N,0070,1","00210,1,9,N","008000,1,N,1","+0051,1","+0039,1","10149,1","12,0030,9,1","24,0033,9,1","6,1,06,1","2,1,06,1",,"08,99,1,06,1,07,1,00250,1,02,1,99,9","999,N,+0048,1","99999,9,10138,1","7,1,016,1,+999,9","63,1","SYN100AAXX  08061 01108 11358 82107 10051 20039 30138 40149 57016 60032 76362 8672/ 333 20048 4//// 70032;",
"01108099999","2010-05-08T12:00:00","4","65.7","11.85","9.1","VEGA VALLSJO, NO","FM-12","99999","V020","020,1,N,0020,1","00210,1,9,N","025000,1,N,1","+0040,1","+0020,1","10146,1",,,"6,1,06,1","6,1,06,1",,"08,99,1,07,1,07,1,00250,1,02,1,99,9",,"99999,9,10135,1","8,1,003,1,+999,9","60,1","SYN088AAXX  08121 01108 11375 80202 10040 20020 30135 40146 58003 6//// 76066 8772/ 333 4////;",
"01108099999","2010-05-08T18:00:00","4","65.7","11.85","9.1","VEGA VALLSJO, NO","FM-12","99999","V020","260,1,N,0030,1","00420,1,9,N","030000,1,N,1","+0031,1","-0012,1","10143,1","12,0071,9,1",,"8,1,06,1","6,1,06,1",,"05,99,1,05,1,09,1,00450,1,00,1,00,1","120,M,+0051,1","99999,9,10132,1","8,1,002,1,+999,9","15,1","SYN094AAXX  08181 01108 11480 52603 10031 21012 30132 40143 58002 60072 71586 85900 333 10051 4////;",
"01108099999","2010-05-09T06:00:00","4","65.7","11.85","9.1","VEGA VALLSJO, NO","FM-12","99999","V020","190,1,N,0070,1","00420,1,9,N","020000,1,N,1","+0038,1","-0021,1","10063,1","12,9999,9,9","24,0074,9,1","8,1,06,1","1,1,06,1",,"07,99,1,07,1,09,1,00450,1,99,9,99,9","999,N,+0022,1","99999,9,10052,1","7,1,019,1,+999,9","83,1","SYN100AAXX  09061 01108 11470 71907 10038 21021 30052 40063 57019 69922 78381 879// 333 20022 4//// 70074;","Q01  00002PRCP12Q02  00002PRCP12"
"01108099999","2010-05-09T12:00:00","4","65.7","11.85","9.1","VEGA VALLSJO, NO","FM-12","99999","V020","180,1,N,0070,1","03000,1,9,N","060000,1,N,1","+0064,1","-0052,1","10046,1",,,"8,1,06,1","2,1,06,1",,"07,99,1,04,1,09,1,00800,1,06,1,02,1",,"99999,9,10035,1","7,1,004,1,+999,9","15,1","SYN088AAXX  09121 01108 11586 71807 10064 21052 30035 40046 57004 6//// 71582 84962 333 4////;",
"01108099999","2010-05-09T18:00:00","4","65.7","11.85","9.1","VEGA VALLSJO, NO","FM-12","99999","V020","230,1,N,0040,1","03000,1,9,N","060000,1,N,1","+0050,1","+0011,1","10040,1","12,0000,2,1",,"8,1,06,1","2,1,06,1",,"07,99,1,04,1,09,1,00150,1,06,1,02,1","120,M,+0074,1","99999,9,10029,1","4,1,000,1,+999,9","15,1","SYN094AAXX  09181 01108 11286 72304 10050 20011 30029 40040 54000 69902 71582 84962 333 10074 4////;",
"01108099999","2010-05-10T06:00:00","4","65.7","11.85","9.1","VEGA VALLSJO, NO","FM-12","99999","V020","050,1,N,0040,1","03000,1,9,N","075000,1,N,1","+0049,1","-0049,1","10028,1","12,0000,9,1","24,0000,2,1","2,1,06,1","2,1,06,1",,"07,99,1,01,1,01,1,00450,1,01,1,06,1","999,N,+0009,1","99999,9,10017,1","8,1,012,1,+999,9","03,1","SYN100AAXX  10061 01108 11489 70504 10049 21049 30017 40028 58012 60002 70322 81116 333 20009 4//// 70000;","Q01  00002PRCP12"
"01108099999","2010-05-10T12:00:00","4","65.7","11.85","9.1","VEGA VALLSJO, NO","FM-12","99999","V020","210,1,N,0050,1","00210,1,9,N","050000,1,N,1","+0036,1","+0012,1","10030,1",,,"7,1,06,1","2,1,06,1",,"06,99,1,05,1,09,1,00250,1,00,1,02,1",,"99999,9,10019,1","3,1,003,1,+999,9","15,1","SYN088AAXX  10121 01108 11384 62105 10036 20012 30019 40030 53003 6//// 71572 85902 333 4////;",
"01108099999","2010-05-10T18:00:00","4","65.7","11.85","9.1","VEGA VALLSJO, NO","FM-12","99999","V020","030,1,N,0010,1","00120,1,9,N","000500,1,N,1","+0007,1","+0000,1","10028,1","12,0061,9,1",,"7,1,06,1","2,1,06,1",,"08,99,1,07,1,07,1,00150,1,02,1,99,9","120,M,+0050,1","99999,9,10017,1","8,1,005,1,+999,9","73,1","SYN094AAXX  10181 01108 11205 80301 10007 21000 30017 40028 58005 60062 77372 8772/ 333 10050 4////;",
"01108099999","2010-05-11T06:00:00","4","65.7","11.85","9.1","VEGA VALLSJO, NO","FM-12","99999","V020","200,1,N,0040,1","00210,1,9,N","025000,1,N,1","+0026,1","+0013,1","10030,1","12,0061,9,1","24,0114,9,1","8,1,06,1","2,1,06,1",,"07,99,1,07,1,09,1,00250,1,99,9,99,9","999,N,+0006,1","99999,9,10019,1","2,1,015,1,+999,9","80,1","SYN100AAXX  11061 01108 11375 72004 10026 20013 30019 40030 52015 60062 78082 879// 333 20006 4//// 70115;",
"01108099999","2010-05-11T12:00:00","4","65.7","11.85","9.1","VEGA VALLSJO, NO","FM-12","99999","V020","160,1,N,0080,1","07500,1,9,N","050000,1,N,1","+0063,1","-0011,1","10070,1",,,"8,1,06,1","2,1,06,1",,"05,99,1,03,1,09,1,00800,1,00,1,02,1",,"99999,9,10059,1","2,1,017,1,+999,9","15,1","SYN088AAXX  11121 01108 11584 51608 10063 21011 30059 40070 52017 6//// 71582 83902 333 4////;",
"01108099999","2010-05-11T18:00:00","4","65.7","11.85","9.1","VEGA VALLSJO, NO","FM-12","99999","V020","180,1,N,0070,1","22000,1,9,N","070000,1,N,1","+0069,1","-0036,1","10102,1","12,0020,9,1",,"8,1,06,1","1,1,06,1",,"03,99,1,01,1,09,1,00800,1,06,1,02,1","120,M,+0074,1","99999,9,10091,1","2,1,013,1,+999,9","15,1","SYN094AAXX  11181 01108 11588 31807 10069 21036 30091 40102 52013 60022 71581 81962 333 10074 4////;",
"01108099999","2010-05-12T06:00:00","4","65.7","11.85","9.1","VEGA VALLSJO, NO","FM-12","99999","V020","190,1,N,0040,1","22000,1,9,N","075000,1,N,1","+0072,1","-0065,1","10123,1","12,0000,9,1","24,0015,9,1","0,1,06,1","0,1,06,1",,"01,99,1,01,1,09,1,00800,1,00,1,01,1","999,N,+0013,1","99999,9,10112,1","3,1,002,1,+999,9","15,1","SYN100AAXX  12061 01108 11589 11904 10072 21065 30112 40123 53002 60002 71500 81901 333 20013 4//// 70015;","Q01  00002PRCP12"
"01108099999","2010-05-12T12:00:00","4","65.7","11.85","9.1","VEGA VALLSJO, NO","FM-12","99999","V020","210,1,N,0090,1","22000,1,9,N","060000,1,N,1","+0089,1","-0049,1","10144,1",,,"0,1,06,1","0,1,06,1",,"03,99,1,02,1,09,1,00800,1,04,1,02,1",,"99999,9,10132,1","2,1,014,1,+999,9","15,1","SYN088AAXX  12121 01108 11586 32109 10089 21049 30132 40144 52014 6//// 71500 82942 333 4////;",
"01108099999","2010-05-12T18:00:00","4","65.7","11.85","9.1","VEGA VALLSJO, NO","FM-12","99999","V020","210,1,N,0070,1","22000,1,9,N","075000,1,N,1","+0073,1","-0024,1","10162,1","12,0000,9,1",,"0,1,06,1","0,1,06,1",,"02,99,1,02,1,04,1,01750,1,00,1,00,1","120,M,+0094,1","99999,9,10151,1","1,1,006,1,+999,9","02,1","SYN094AAXX  12181 01108 11789 22107 10073 21024 30151 40162 51006 60002 70200 82400 333 10094 4////;","Q01  00002PRCP12"
"01108099999","2010-05-13T06:00:00","4","65.7","11.85","9.1","VEGA VALLSJO, NO","FM-12","99999","V020","080,1,N,0030,1","22000,1,9,N","075000,1,N,1","+0074,1","+0017,1","10183,1","12,0000,9,1","24,0000,9,1","1,1,06,1","0,1,06,1",,"06,99,1,01,1,00,1,02250,1,04,1,06,1","999,N,+0012,1","99999,9,10172,1","7,1,006,1,+999,9","03,1","SYN100AAXX  13061 01108 11889 60803 10074 20017 30172 40183 57006 60002 70310 81046 333 20012 4//// 70000;","Q01  00002PRCP24Q02  00002PRCP12"
"01108099999","2010-05-13T12:00:00","4","65.7","11.85","9.1","VEGA VALLSJO, NO","FM-12","99999","V020","090,1,N,0060,1","03000,1,9,N","075000,1,N,1","+0091,1","-0019,1","10147,1",,,"2,1,06,1","2,1,06,1",,"08,99,1,01,1,07,1,01250,1,02,1,99,9",,"99999,9,10136,1","7,1,028,1,+999,9","15,1","SYN088AAXX  13121 01108 11689 80906 10091 21019 30136 40147 57028 6//// 71522 8172/ 333 4////;",
"01108099999","2010-05-13T18:00:00","4","65.7","11.85","9.1","VEGA VALLSJO, NO","FM-12","99999","V020","060,1,N,0040,1","03000,1,9,N","035000,1,N,1","+0078,1","+0054,1","10117,1","12,9999,9,9",,"6,1,06,1","2,1,06,1",,"08,99,1,04,1,07,1,00800,1,02,1,99,9","120,M,+0102,1","99999,9,10106,1","7,1,013,1,+999,9","61,1","SYN094AAXX  13181 01108 11581 80604 10078 20054 30106 40117 57013 69912 76162 8472/ 333 10102 4////;","Q01  00002PRCP12Q02  00002PRCP12"
"01108099999","2010-05-14T06:00:00","4","65.7","11.85","9.1","VEGA VALLSJO, NO","FM-12","99999","V020","250,1,N,0010,1","03000,1,9,N","050000,1,N,1","+0085,1","+0073,1","10130,1","12,0008,9,1","24,0008,9,1","6,1,06,1","2,1,06,1",,"07,99,1,01,1,07,1,00150,1,02,1,99,9","999,N,+0070,1","99999,9,10119,1","2,1,007,1,+999,9","02,1","SYN100AAXX  14061 01108 11284 72501 10085 20073 30119 40130 52007 69972 70262 8172/ 333 20070 4//// 70008;",
"01108099999","2010-05-14T12:00:00","4","65.7","11.85","9.1","VEGA VALLSJO, NO","FM-12","99999","V020","350,1,N,0020,1","03000,1,9,N","020000,1,N,1","+0090,1","+0076,1","10138,1",,,"4,1,06,1","2,1,06,1",,"08,99,1,01,1,06,1,00150,1,02,1,99,9",,"99999,9,10127,1","2,1,001,1,+999,9","02,1","SYN088AAXX  14121 01108 11270 83502 10090 20076 30127 40138 52001 6//// 70242 8162/ 333 4////;",
"01108099999","2010-05-14T18:00:00","4","65.7","11.85","9.1","VEGA VALLSJO, NO","FM-12","99999","V020","010,1,N,0010,1","03000,1,9,N","010000,1,N,1","+0083,1","+0072,1","10126,1","12,0030,9,1",,"6,1,06,1","2,1,06,1",,"08,99,1,04,1,07,1,00075,1,02,1,99,9","120,M,+0095,1","99999,9,10114,1","6,1,007,1,+999,9","61,1","SYN094AAXX  14181 01108 11160 80101 10083 20072 30114 40126 56007 60032 76162 8472/ 333 10095 4////;",
"01108099999","2010-05-15T06:00:00","4","65.7","11.85","9.1","VEGA VALLSJO, NO","FM-12","99999","V020","999,9,C,0000,1","00030,1,9,N","000500,1,N,1","+0077,1","+0070,1","10128,1","12,0041,9,1","24,0069,9,1","6,1,06,1","4,1,06,1","09,1,+99999,9,99,9","09,99,1,09,1,99,9,99999,9,99,9,99,9","999,N,+0070,1","99999,9,10117,1","2,1,003,1,+999,9","45,1","SYN094AAXX  15061 01108 11/05 90000 10077 20070 30117 40128 52003 60042 74564 333 20070 4//// 70069;",
"01108099999","2010-05-15T12:00:00","4","65.7","11.85","9.1","VEGA VALLSJO, NO","FM-12","99999","V020","360,1,N,0030,1","22000,1,9,N","040000,1,N,1","+0107,1","+0090,1","10129,1",,,,,,"04,99,1,01,1,01,1,00450,1,07,1,01,1",,"99999,9,10118,1","7,1,002,1,+999,9",,"SYN088AAXX  15121 01108 11482 43603 10107 20090 30118 40129 57002 6//// 7//41 81171 333 4////;",
"01108099999","2010-05-15T18:00:00","4","65.7","11.85","9.1","VEGA VALLSJO, NO","FM-12","99999","V020","090,1,N,0040,1","03000,1,9,N","075000,1,N,1","+0149,1","+0086,1","10116,1","12,0000,9,1",,"2,1,06,1","1,1,06,1",,"06,99,1,02,1,02,1,01250,1,04,1,01,1","120,M,+0150,1","99999,9,10106,1","7,1,010,1,+999,9","03,1","SYN094AAXX  15181 01108 11689 60904 10149 20086 30106 40116 57010 60002 70321 82241 333 10150 4////;","Q01  00002PRCP12"
"01108099999","2010-05-16T06:00:00","4","65.7","11.85","9.1","VEGA VALLSJO, NO","FM-12","99999","V020","110,1,N,0050,1","03000,1,9,N","050000,1,N,1","+0157,1","+0082,1","10098,1","12,0000,9,1","24,0003,9,1","2,1,06,1","2,1,06,1",,"07,99,1,04,1,09,1,01250,1,09,1,99,9","999,N,+0114,1","99999,9,10088,1","7,1,007,1,+999,9","16,1","SYN100AAXX  16061 01108 11684 71105 10157 20082 30088 40098 57007 69922 71622 8499/ 333 20114 4//// 70002;","Q01  00002PRCP12"
"01108099999","2010-05-16T12:00:00","4","65.7","11.85","9.1","VEGA VALLSJO, NO","FM-12","99999","V020","110,1,N,0070,1","03000,1,9,N","065000,1,N,1","+0225,1","+0041,1","10102,1",,,"2,1,06,1","1,1,06,1",,"06,99,1,02,1,02,1,01250,1,04,1,02,1",,"99999,9,10091,1","0,1,000,1,+999,9","03,1","SYN088AAXX  16121 01108 11687 61107 10225 20041 30091 40102 50000 6//// 70321 82242 333 4////;",
"01108099999","2010-05-16T18:00:00","4","65.7","11.85","9.1","VEGA VALLSJO, NO","FM-12","99999","V020","120,1,N,0060,1","03000,1,9,N","055000,1,N,1","+0186,1","+0051,1","10098,1","12,0000,9,1",,"2,1,06,1","1,1,06,1",,"07,99,1,04,1,09,1,01250,1,09,1,02,1","120,M,+0226,1","99999,9,10087,1","7,1,002,1,+999,9","15,1","SYN094AAXX  16181 01108 11685 71206 10186 20051 30087 40098 57002 60002 71521 84992 333 10226 4////;","Q01  00002PRCP12"
"01108099999","2010-05-17T06:00:00","4","65.7","11.85","9.1","VEGA VALLSJO, NO","FM-12","99999","V020","140,1,N,0030,1","03000,1,9,N","020000,1,N,1","+0124,1","+0105,1","10104,1","12,0030,9,2","24,0028,9,2","8,1,06,1","6,1,06,1",,"08,99,1,02,1,07,1,01250,1,02,1,99,9","999,N,+0109,1","99999,9,10094,1","3,1,005,1,+999,9","62,1","SYN100AAXX  17061 01108 11670 81403 10124 20105 30094 40104 53005 60032 76286 8272/ 333 20109 4//// 70029;",
"01108099999","2010-05-17T12:00:00","4","65.7","11.85","9.1","VEGA VALLSJO, NO","FM-12","99999","V020","240,1,N,0080,1","00030,1,9,N","012000,1,N,1","+0090,1","+0078,1","10144,1",,,"6,1,06,1","2,1,06,1",,"08,99,1,06,1,07,1,00025,1,02,1,99,9",,"99999,9,10133,1","2,1,028,1,+999,9","21,1","SYN088AAXX  17121 01108 11062 82408 10090 20078 30133 40144 52028 6//// 72162 8672/ 333 4////;",
"01108099999","2010-05-17T18:00:00","4","65.7","11.85","9.1","VEGA VALLSJO, NO","FM-12","99999","V020","220,1,N,0040,1","00060,1,9,N","012000,1,N,1","+0084,1","+0072,1","10193,1","12,0041,9,1",,"6,1,06,1","2,1,06,1",,"08,99,1,08,1,09,1,00075,1,99,9,99,9","120,M,+0135,1","99999,9,10182,1","2,1,026,1,+999,9","80,1","SYN094AAXX  17181 01108 11162 82204 10084 20072 30182 40193 52026 60042 78062 889// 333 10135 4////;",
"01108099999","2010-05-18T06:00:00","4","65.7","11.85","9.1","VEGA VALLSJO, NO","FM-12","99999","V020","250,1,N,0010,1","03000,1,9,N","025000,1,N,1","+0086,1","+0072,1","10263,1","12,0000,2,1","24,0041,9,1","8,1,06,1","2,1,06,1",,"07,99,1,02,1,01,1,00150,1,07,1,99,9","999,N,+0071,1","99999,9,10251,1","2,1,021,1,+999,9","02,1","SYN100AAXX  18061 01108 11275 72501 10086 20072 30251 40263 52021 69922 70282 8217/ 333 20071 4//// 70040;",
"01108099999","2010-05-18T12:00:00","4","65.7","11.85","9.1","VEGA VALLSJO, NO","FM-12","99999","V020","340,1,N,0030,1","07500,1,9,N","030000,1,N,1","+0097,1","+0073,1","10291,1",,,"2,1,06,1","2,1,06,1",,"05,99,1,02,1,02,1,00250,1,03,1,01,1",,"99999,9,10280,1","2,1,010,1,+999,9","02,1","SYN088AAXX  18121 01108 11380 53403 10097 20073 30280 40291 52010 6//// 70222 82231 333 4////;",
"01108099999","2010-05-18T18:00:00","4","65.7","11.85","9.1","VEGA VALLSJO, NO","FM-12","99999","V020","350,1,N,0050,1","07500,1,9,N","040000,1,N,1","+0085,1","+0071,1","10302,1","12,0000,9,1",,"1,1,06,1","1,1,06,1",,"05,99,1,01,1,01,1,00150,1,07,1,01,1","120,M,+0099,1","99999,9,10290,1","1,1,002,1,+999,9","03,1","SYN094AAXX  18181 01108 11282 53505 10085 20071 30290 40302 51002 60002 70311 81171 333 10099 4////;","Q01  00002PRCP12"
"01108099999","2010-05-19T06:00:00","4","65.7","11.85","9.1","VEGA VALLSJO, NO","FM-12","99999","V020","030,1,N,0040,1","22000,1,9,N","040000,1,N,1","+0080,1","+0066,1","10285,1","12,0000,9,1","24,0000,9,1","1,1,06,1","1,1,06,1",,"04,99,1,01,1,06,1,00075,1,07,1,99,9","999,N,+0069,1","99999,9,10274,1","6,1,008,1,+999,9","01,1","SYN100AAXX  19061 01108 11182 40304 10080 20066 30274 40285 56008 60002 70111 8167/ 333 20069 4//// 70000;","Q01  00002PRCP24Q02  00002PRCP12"
"01108099999","2010-05-19T12:00:00","4","65.7","11.85","9.1","VEGA VALLSJO, NO","FM-12","99999","V020","010,1,N,0040,1","03000,1,9,N","065000,1,N,1","+0099,1","+0075,1","10267,1",,,"2,1,06,1","1,1,06,1",,"07,99,1,01,1,01,1,01750,1,07,1,99,9",,"99999,9,10255,1","7,1,012,1,+999,9","03,1","SYN088AAXX  19121 01108 11787 70104 10099 20075 30255 40267 57012 6//// 70321 8117/ 333 4////;",
"01108099999","2010-05-19T18:00:00","4","65.7","11.85","9.1","VEGA VALLSJO, NO","FM-12","99999","V020","320,1,N,0020,1","03000,1,C,N","050000,1,N,1","+0103,1","+0074,1","10244,1","12,0000,9,1",,"2,1,06,1","2,1,06,1",,"06,99,1,01,1,04,1,01750,1,07,1,99,9","120,M,+0123,1","99999,9,10233,1","7,1,010,1,+999,9","02,1","SYN094AAXX  19181 01108 11784 63202 10103 20074 30233 40244 57010 60002 70222 8147/ 333 10123 4////;","Q01  00002PRCP12"
"01108099999","2010-05-20T06:00:00","4","65.7","11.85","9.1","VEGA VALLSJO, NO","FM-12","99999","V020","210,1,N,0040,1","00120,1,9,N","020000,1,N,1","+0085,1","+0068,1","10288,1","12,9999,9,9","24,9999,9,9","2,1,06,1","2,1,06,1",,"08,99,1,08,1,06,1,00150,1,99,9,99,9","999,N,+0081,1","99999,9,10277,1","2,1,019,1,+999,9","21,1","SYN100AAXX  20061 01108 11270 82104 10085 20068 30277 40288 52019 69912 72122 886// 333 20081 4//// 70001;","Q01  00002PRCP24Q02  00002PRCP12Q03  00002PRCP12Q04  00002PRCP24"
"01108099999","2010-05-20T12:00:00","4","65.7","11.85","9.1","VEGA VALLSJO, NO","FM-12","99999","V020","220,1,N,0060,1","00030,1,9,N","015000,1,N,1","+0091,1","+0071,1","10308,1",,,"6,1,06,1","5,1,06,1",,"08,99,1,08,1,06,1,00025,1,99,9,99,9",,"99999,9,10296,1","2,1,008,1,+999,9","60,1","SYN088AAXX  20121 01108 11065 82206 10091 20071 30296 40308 52008 6//// 76065 886// 333 4////;",
"01108099999","2010-05-20T18:00:00","4","65.7","11.85","9.1","VEGA VALLSJO, NO","FM-12","99999","V020","270,1,N,0020,1","07500,1,9,N","050000,1,N,1","+0089,1","+0064,1","10315,1","12,0000,2,1",,"2,1,06,1","2,1,06,1",,"07,99,1,02,1,04,1,00450,1,00,1,02,1","120,M,+0101,1","99999,9,10304,1","4,1,000,1,+999,9","03,1","SYN094AAXX  20181 01108 11484 72702 10089 20064 30304 40315 54000 69912 70322 82402 333 10101 4////;",
"01108099999","2010-05-21T06:00:00","4","65.7","11.85","9.1","VEGA VALLSJO, NO","FM-12","99999","V020","020,1,N,0020,1","22000,1,9,N","060000,1,N,1","+0085,1","+0060,1","10319,1","12,0000,9,1","24,0000,2,1","0,1,06,1","0,1,06,1",,"01,99,1,01,1,01,1,01250,1,07,1,01,1","999,N,+0032,1","99999,9,10307,1","7,1,002,1,+999,9","02,1","SYN100AAXX  21061 01108 11686 10202 10085 20060 30307 40319 57002 60002 70200 81171 333 20032 4//// 70001;","Q01  00002PRCP12"
"01108099999","2010-05-21T12:00:00","4","65.7","11.85","9.1","VEGA VALLSJO, NO","FM-12","99999","V020","010,1,N,0040,1","22000,1,9,N","060000,1,N,1","+0096,1","+0056,1","10313,1",,,"0,1,06,1","0,1,06,1",,"01,99,1,01,1,06,1,00250,1,00,1,04,1",,"99999,9,10301,1","7,1,005,1,+999,9","03,1","SYN088AAXX  21121 01108 11386 10104 10096 20056 30301 40313 57005 6//// 70300 81604 333 4////;",
"01108099999","2010-05-21T18:00:00","4","65.7","11.85","9.1","VEGA VALLSJO, NO","FM-12","99999","V020","030,1,N,0030,1","22000,1,9,N","075000,1,N,1","+0097,1","+0061,1","10283,1","12,0000,9,1",,"0,1,06,1","0,1,06,1",,"04,99,1,00,1,00,1,99999,9,00,1,05,1","120,M,+0100,1","99999,9,10271,1","7,1,020,1,+999,9","03,1","SYN094AAXX  21181 01108 11989 40303 10097 20061 30271 40283 57020 60002 70300 80005 333 10100 4////;","Q01  00002PRCP12"
"01108099999","2010-05-22T06:00:00","4","65.7","11.85","9.1","VEGA VALLSJO, NO","FM-12","99999","V020","220,1,N,0080,1","03000,1,9,N","020000,1,N,1","+0092,1","+0066,1","10232,1","12,9999,9,9","24,9999,9,9","6,1,06,1","2,1,06,1",,"07,99,1,02,1,07,1,00150,1,02,1,99,9","999,N,+0073,1","99999,9,10221,1","6,1,009,1,+999,9","60,1","SYN100AAXX  22061 01108 11270 72208 10092 20066 30221 40232 56009 69912 76062 8272/ 333 20073 4//// 70001;","Q01  00002PRCP24Q02  00002PRCP12Q03  00002PRCP12Q04  00002PRCP24"
"01108099999","2010-05-22T12:00:00","4","65.7","11.85","9.1","VEGA VALLSJO, NO","FM-12","99999","V020","220,1,N,0070,1","00030,1,9,N","001700,1,N,1","+0098,1","+0089,1","10210,1",,,"6,1,06,1","5,1,06,1",,"08,99,1,08,1,06,1,00025,1,99,9,99,9",,"99999,9,10199,1","6,1,008,1,+999,9","53,1","SYN088AAXX  22121 01108 11017 82207 10098 20089 30199 40210 56008 6//// 75365 886// 333 4////;",
"01108099999","2010-05-22T18:00:00","4","65.7","11.85","9.1","VEGA VALLSJO, NO","FM-12","99999","V020","230,1,N,0030,1","00060,1,9,N","030000,1,N,1","+0088,1","+0076,1","10202,1","12,0020,9,1",,"6,1,06,1","5,1,06,1",,"08,99,1,08,1,06,1,00075,1,99,9,99,9","120,M,+0103,1","99999,9,10191,1","8,1,006,1,+999,9","02,1","SYN094AAXX  22181 01108 11180 82303 10088 20076 30191 40202 58006 60022 70265 886// 333 10103 4////;",
"01108099999","2010-05-23T06:00:00","4","65.7","11.85","9.1","VEGA VALLSJO, NO","FM-12","99999","V020","250,1,N,0030,1","00030,1,9,N","002000,1,N,1","+0080,1","+0073,1","10130,1","12,0020,9,1","24,0038,9,1","6,1,06,1","5,1,06,1",,"08,99,1,08,1,06,1,00025,1,99,9,99,9","999,N,+0077,1","99999,9,10119,1","7,1,020,1,+999,9","52,1","SYN100AAXX  23061 01108 11020 82503 10080 20073 30119 40130 57020 60022 75265 886// 333 20077 4//// 70039;",
"01108099999","2010-05-23T12:00:00","4","65.7","11.85","9.1","VEGA VALLSJO, NO","FM-12","99999","V020","330,1,N,0040,1","03000,1,9,N","050000,1,N,1","+0064,1","+0019,1","10136,1",,,"6,1,06,1","5,1,06,1",,"08,99,1,04,1,09,1,00800,1,07,1,99,9",,"99999,9,10125,1","4,1,000,1,+999,9","15,1","SYN088AAXX  23121 01108 11584 83304 10064 20019 30125 40136 54000 6//// 71565 8497/ 333 4////;",
"01108099999","2010-05-23T18:00:00","4","65.7","11.85","9.1","VEGA VALLSJO, NO","FM-12","99999","V020","320,1,N,0030,1","22000,1,9,N","055000,1,N,1","+0069,1","+0001,1","10115,1","12,0020,9,1",,"8,1,06,1","2,1,06,1",,"05,99,1,04,1,09,1,00800,1,00,1,01,1","120,M,+0080,1","99999,9,10104,1","7,1,012,1,+999,9","15,1","SYN094AAXX  23181 01108 11585 53203 10069 20001 30104 40115 57012 60022 71582 84901 333 10080 4////;",
"01108099999","2010-05-24T06:00:00","4","65.7","11.85","9.1","VEGA VALLSJO, NO","FM-12","99999","V020","260,1,N,0010,1","00210,1,9,N","020000,1,N,1","+0050,1","+0025,1","10065,1","12,0010,9,1","24,0036,9,1","8,1,06,1","2,1,06,1",,"07,99,1,07,1,09,1,00250,1,99,9,99,9","999,N,+0049,1","99999,9,10054,1","7,1,014,1,+999,9","81,1","SYN100AAXX  24061 01108 11370 72601 10050 20025 30054 40065 57014 60012 78182 879// 333 20049 4//// 70035;",
"01108099999","2010-05-24T12:00:00","4","65.7","11.85","9.1","VEGA VALLSJO, NO","FM-12","99999","V020","290,1,N,0040,1","03000,1,9,N","075000,1,N,1","+0075,1","+0026,1","10051,1",,,"8,1,06,1","2,1,06,1",,"05,99,1,04,1,09,1,00450,1,06,1,00,1",,"99999,9,10039,1","7,1,006,1,+999,9","15,1","SYN088AAXX  24121 01108 11489 52904 10075 20026 30039 40051 57006 6//// 71582 84960 333 4////;",
"01108099999","2010-05-24T18:00:00","4","65.7","11.85","9.1","VEGA VALLSJO, NO","FM-12","99999","V020","350,1,N,0040,1","00750,1,9,N","075000,1,N,1","+0075,1","+0016,1","10040,1","12,0000,2,1",,"2,1,06,1","1,1,06,1",,"05,99,1,05,1,02,1,00800,1,00,1,00,1","120,M,+0080,1","99999,9,10029,1","8,1,005,1,+999,9","02,1","SYN094AAXX  24181 01108 11589 53504 10075 20016 30029 40040 58005 69922 70221 85200 333 10080 4////;",
"01108099999","2010-05-25T06:00:00","4","65.7","11.85","9.1","VEGA VALLSJO, NO","FM-12","99999","V020","230,1,N,0050,1","03000,1,9,N","055000,1,N,1","+0068,1","+0015,1","10016,1","12,0000,9,1","24,0003,9,1","1,1,06,1","1,1,06,1",,"07,99,1,04,1,07,1,00450,1,02,1,06,1","999,N,+0058,1","99999,9,10005,1","7,1,006,1,+999,9","15,1","SYN100AAXX  25061 01108 11485 72305 10068 20015 30005 40016 57006 60002 71511 84726 333 20058 4//// 70002;","Q01  00002PRCP12"
"01108099999","2010-05-25T12:00:00","4","65.7","11.85","9.1","VEGA VALLSJO, NO","FM-12","99999","V020","280,1,N,0060,1","00420,1,9,N","040000,1,N,1","+0078,1","+0035,1","10012,1",,,"2,1,06,1","2,1,06,1",,"08,99,1,07,1,07,1,00450,1,02,1,99,9",,"99999,9,10001,1","8,1,004,1,+999,9","15,1","SYN088AAXX  25121 01108 11482 82806 10078 20035 30001 40012 58004 6//// 71522 8772/ 333 4////;",
"01108099999","2010-05-25T18:00:00","4","65.7","11.85","9.1","VEGA VALLSJO, NO","FM-12","99999","V020","250,1,N,0040,1","00210,1,9,N","015000,1,N,1","+0074,1","+0062,1","10016,1","12,9999,9,9",,"6,1,06,1","2,1,06,1",,"08,99,1,06,1,07,1,00250,1,02,1,99,9","120,M,+0087,1","99999,9,10005,1","1,1,002,1,+999,9","60,1","SYN094AAXX  25181 01108 11365 82504 10074 20062 30005 40016 51002 69912 76062 8672/ 333 10087 4////;","Q01  00002PRCP12Q02  00002PRCP12"
"01108099999","2010-05-26T06:00:00","4","65.7","11.85","9.1","VEGA VALLSJO, NO","FM-12","99999","V020","240,1,N,0020,1","00060,1,9,N","025000,1,N,1","+0081,1","+0067,1","10056,1","12,0041,9,1","24,0043,9,1","6,1,06,1","2,1,06,1",,"08,99,1,07,1,07,1,00075,1,02,1,99,9","999,N,+0071,1","99999,9,10045,1","2,1,017,1,+999,9","60,1","SYN100AAXX  26061 01108 11175 82402 10081 20067 30045 40056 52017 60042 76062 8772/ 333 20071 4//// 70042;",
"01108099999","2010-05-26T12:00:00","4","65.7","11.85","9.1","VEGA VALLSJO, NO","FM-12","99999","V020","330,1,N,0020,1","03000,1,9,N","055000,1,N,1","+0092,1","+0068,1","10089,1",,,"6,1,06,1","2,1,06,1",,"07,99,1,02,1,07,1,00150,1,02,1,99,9",,"99999,9,10078,1","2,1,016,1,+999,9","02,1","SYN088AAXX  26121 01108 11285 73302 10092 20068 30078 40089 52016 6//// 70262 8272/ 333 4////;",
"01108099999","2010-05-26T18:00:00","4","65.7","11.85","9.1","VEGA VALLSJO, NO","FM-12","99999","V020","360,1,N,0030,1","00600,1,9,N","075000,1,N,1","+0090,1","+0066,1","10105,1","12,0000,2,1",,"6,1,06,1","2,1,06,1",,"06,99,1,05,1,08,1,00150,1,00,1,01,1","120,M,+0095,1","99999,9,10094,1","2,1,005,1,+999,9","01,1","SYN094AAXX  26181 01108 11289 63603 10090 20066 30094 40105 52005 69902 70162 85801 333 10095 4////;",
"01108099999","2010-05-27T06:00:00","4","65.7","11.85","9.1","VEGA VALLSJO, NO","FM-12","99999","V020","150,1,N,0030,1","03000,1,9,N","070000,1,N,1","+0098,1","+0048,1","10093,1","12,9999,9,9","24,0000,2,1","6,1,06,1","2,1,06,1",,"08,99,1,03,1,07,1,00800,1,02,1,99,9","999,N,+0070,1","99999,9,10082,1","6,1,003,1,+999,9","60,1","SYN100AAXX  27061 01108 11588 81503 10098 20048 30082 40093 56003 69902 76062 8372/ 333 20070 4//// 79999;","Q01  00002PRCP12Q02  00002PRCP12"
"01108099999","2010-05-27T12:00:00","4","65.7","11.85","9.1","VEGA VALLSJO, NO","FM-12","99999","V020","050,1,N,0050,1","03000,1,9,N","075000,1,N,1","+0137,1","+0011,1","10098,1",,,"6,1,06,1","2,1,06,1",,"07,99,1,01,1,04,1,01250,1,04,1,02,1",,"99999,9,10088,1","4,1,000,1,+999,9","01,1","SYN088AAXX  27121 01108 11689 70505 10137 20011 30088 40098 54000 6//// 70162 81442 333 4////;",
"01108099999","2010-05-27T18:00:00","4","65.7","11.85","9.1","VEGA VALLSJO, NO","FM-12","99999","V020","010,1,N,0040,1","03000,1,9,N","075000,1,N,1","+0119,1","+0051,1","10096,1","12,0000,2,1",,"2,1,06,1","2,1,06,1",,"08,99,1,01,1,04,1,01750,1,02,1,07,1","120,M,+0141,1","99999,9,10086,1","7,1,002,1,+999,9","03,1","SYN094AAXX  27181 01108 11789 80104 10119 20051 30086 40096 57002 69902 70322 81427 333 10141 4////;",
"01108099999","2010-05-28T06:00:00","4","65.7","11.85","9.1","VEGA VALLSJO, NO","FM-12","99999","V020","110,1,N,0020,1","03000,1,9,N","075000,1,N,1","+0114,1","+0055,1","10095,1","12,0000,9,1","24,0000,2,1","2,1,06,1","2,1,06,1",,"07,99,1,01,1,04,1,01750,1,04,1,02,1","999,N,+0084,1","99999,9,10084,1","7,1,003,1,+999,9","01,1","SYN100AAXX  28061 01108 11789 71102 10114 20055 30084 40095 57003 60002 70122 81442 333 20084 4//// 79999;","Q01  00002PRCP12"
"01108099999","2010-05-28T12:00:00","4","65.7","11.85","9.1","VEGA VALLSJO, NO","FM-12","99999","V020","030,1,N,0020,1","03000,1,9,N","075000,1,N,1","+0138,1","+0008,1","10089,1",,,"2,1,06,1","2,1,06,1",,"07,99,1,02,1,03,1,01750,1,09,1,02,1",,"99999,9,10078,1","7,1,003,1,+999,9","14,1","SYN078AAXX  28121 01108 11789 70302 10138 20008 30078 40089 57003 6//// 71422 82392;",
"01108099999","2010-05-28T18:00:00","4","65.7","11.85","9.1","VEGA VALLSJO, NO","FM-12","99999","V020","020,1,N,0050,1","03000,1,9,N","075000,1,N,1","+0119,1","+0078,1","10078,1","12,0000,9,1",,"2,1,06,1","2,1,06,1",,"06,99,1,02,1,02,1,01250,1,09,1,02,1","999,M,+0150,1","99999,9,10067,1","7,1,005,1,+999,9","02,1","SYN088AAXX  28181 01108 11689 60205 10119 20078 30067 40078 57005 60002 70222 82292 333 10150;","Q01  00002PRCP12"
"01108099999","2010-05-29T06:00:00","4","65.7","11.85","9.1","VEGA VALLSJO, NO","FM-12","99999","V020","020,1,N,0020,1","03000,1,9,N","075000,1,N,1","+0104,1","+0080,1","10081,1","12,0000,9,1","24,0000,9,1","2,1,06,1","2,1,06,1",,"07,99,1,03,1,09,1,01250,1,07,1,01,1","999,N,+0101,1","99999,9,10070,1","2,1,001,1,+999,9","15,1","SYN094AAXX  29061 01108 11689 70202 10104 20080 30070 40081 52001 60002 71522 83971 333 20101 70000;","Q01  00002PRCP24Q02  00002PRCP12"
"01108099999","2010-05-29T12:00:00","4","65.7","11.85","9.1","VEGA VALLSJO, NO","FM-12","99999","V020","310,1,N,0020,1","03000,1,9,N","075000,1,N,1","+0117,1","+0082,1","10086,1",,,"2,1,06,1","2,1,06,1",,"07,99,1,01,1,01,1,01250,1,07,1,01,1",,"99999,9,10075,1","2,1,003,1,+999,9","01,1","SYN078AAXX  29121 01108 11689 73102 10117 20082 30075 40086 52003 6//// 70122 81171;",
"01108099999","2010-05-29T18:00:00","4","65.7","11.85","9.1","VEGA VALLSJO, NO","FM-12","99999","V020","350,1,N,0040,1","22000,1,9,N","070000,1,N,1","+0111,1","+0085,1","10090,1","12,0000,9,1",,"2,1,06,1","1,1,06,1",,"03,99,1,01,1,02,1,01250,1,07,1,01,1","999,M,+0121,1","99999,9,10079,1","2,1,002,1,+999,9","01,1","SYN088AAXX  29181 01108 11688 33504 10111 20085 30079 40090 52002 60002 70121 81271 333 10121;","Q01  00002PRCP12"
"01108099999","2010-05-30T06:00:00","4","65.7","11.85","9.1","VEGA VALLSJO, NO","FM-12","99999","V020","310,1,N,0040,1","00750,1,9,N","030000,1,N,1","+0081,1","+0028,1","10118,1","12,0000,9,1","24,0000,9,1","2,1,06,1","2,1,06,1",,"08,99,1,07,1,05,1,00800,1,02,1,99,9","999,N,+0081,1","99999,9,10107,1","2,1,006,1,+999,9","15,1","SYN094AAXX  30061 01108 11580 83104 10081 20028 30107 40118 52006 60002 71522 8752/ 333 20081 70000;","Q01  00002PRCP24Q02  00002PRCP12"
"01108099999","2010-05-30T12:00:00","4","65.7","11.85","9.1","VEGA VALLSJO, NO","FM-12","99999","V020","320,1,N,0040,1","00900,1,9,N","055000,1,N,1","+0091,1","+0020,1","10138,1",,,"2,1,06,1","2,1,06,1",,"06,99,1,06,1,08,1,00450,1,00,1,00,1",,"99999,9,10127,1","2,1,010,1,+999,9","01,1","SYN078AAXX  30121 01108 11485 63204 10091 20020 30127 40138 52010 6//// 70122 86800;",
"01108099999","2010-05-30T18:00:00","4","65.7","11.85","9.1","VEGA VALLSJO, NO","FM-12","99999","V020","260,1,N,0030,1","00900,1,9,N","050000,1,N,1","+0090,1","+0044,1","10149,1","12,0000,9,1",,"8,1,06,1","2,1,06,1",,"07,99,1,07,1,08,1,00450,1,99,9,99,9","999,M,+0099,1","99999,9,10138,1","2,1,002,1,+999,9","15,1","SYN088AAXX  30181 01108 11484 72603 10090 20044 30138 40149 52002 69902 71582 878// 333 10099;","Q01  00002PRCP12"
"01108099999","2010-05-31T06:00:00","4","65.7","11.85","9.1","VEGA VALLSJO, NO","FM-12","99999","V020","320,1,N,0020,1","00420,1,9,N","025000,1,N,1","+0067,1","+0033,1","10175,1","12,9999,9,9","24,0003,9,1","8,1,06,1","2,1,06,1",,"07,99,1,07,1,09,1,00450,1,99,9,99,9","999,N,+0066,1","99999,9,10164,1","2,1,008,1,+999,9","25,1","SYN094AAXX  31061 01108 11475 73202 10067 20033 30164 40175 52008 69922 72582 879// 333 20066 70002;","Q01  00002PRCP12Q02  00002PRCP12"
"01108099999","2010-05-31T12:00:00","4","65.7","11.85","9.1","VEGA VALLSJO, NO","FM-12","99999","V020","220,1,N,0060,1","00420,1,9,N","030000,1,N,1","+0088,1","+0034,1","10185,1",,,"8,1,06,1","2,1,06,1",,"06,99,1,05,1,09,1,00450,1,06,1,00,1",,"99999,9,10174,1","2,1,005,1,+999,9","15,1","SYN078AAXX  31121 01108 11480 62206 10088 20034 30174 40185 52005 6//// 71582 85960;",
"01108099999","2010-05-31T18:00:00","4","65.7","11.85","9.1","VEGA VALLSJO, NO","FM-12","99999","V020","310,1,N,0040,1","00210,1,9,N","040000,1,N,1","+0080,1","+0040,1","10197,1","12,0003,9,1",,"8,1,06,1","2,1,06,1",,"08,99,1,08,1,09,1,00250,1,99,9,99,9","999,M,+0095,1","99999,9,10186,1","2,1,006,1,+999,9","15,1","SYN088AAXX  31181 01108 11382 83104 10080 20040 30186 40197 52006 69932 71582 889// 333 10095;",
"01108099999","2010-06-01T06:00:00","4","65.7","11.85","9.1","VEGA VALLSJO, NO","FM-12","99999","V020","040,1,N,0040,1","22000,1,9,N","065000,1,N,1","+0075,1","+0007,1","10213,1","12,0000,9,1","24,0003,9,1","8,1,06,1","1,1,06,1",,"03,99,1,02,1,08,1,00250,1,06,1,01,1","999,N,+0062,1","99999,9,10202,1","2,1,005,1,+999,9","15,1","SYN094AAXX  01061 01108 11387 30404 10075 20007 30202 40213 52005 69902 71581 82861 333 20062 70003;","Q01  00002PRCP12"
"01108099999","2010-06-01T12:00:00","4","65.7","11.85","9.1","VEGA VALLSJO, NO","FM-12","99999","V020","010,1,N,0060,1","22000,1,9,N","075000,1,N,1","+0086,1","-0007,1","10199,1",,,"1,1,06,1","0,1,06,1",,"02,99,1,01,1,01,1,01250,1,00,1,01,1",,"99999,9,10188,1","7,1,009,1,+999,9","01,1","SYN078AAXX  01121 01108 11689 20106 10086 21007 30188 40199 57009 6//// 70110 81101;",
"01108099999","2010-06-01T18:00:00","4","65.7","11.85","9.1","VEGA VALLSJO, NO","FM-12","99999","V020","020,1,N,0060,1","99999,9,9,N","075000,1,N,1","+0095,1","+0035,1","10167,1","12,0000,9,1",,"1,1,06,1","0,1,06,1",,"06,99,1,01,1,00,1,99999,9,07,1,01,1","999,M,+0095,1","99999,9,10156,1","7,1,019,1,+999,9","03,1","SYN088AAXX  01181 01108 11989 60206 10095 20035 30156 40167 57019 60002 70310 81071 333 10095;","Q01  00002PRCP12"
"01108099999","2010-06-02T06:00:00","4","65.7","11.85","9.1","VEGA VALLSJO, NO","FM-12","99999","V020","220,1,N,0090,1","03000,1,9,N","050000,1,N,1","+0109,1","+0068,1","10137,1","12,0000,9,1","24,0000,9,1","6,1,06,1","2,1,06,1",,"07,99,1,01,1,06,1,00250,1,09,1,08,1","999,N,+0055,1","99999,9,10126,1","4,1,000,1,+999,9","02,1","SYN094AAXX  02061 01108 11384 72209 10109 20068 30126 40137 54000 69902 70262 81698 333 20055 79999;","Q01  00002PRCP24Q02  00002PRCP12"
"01108099999","2010-06-02T12:00:00","4","65.7","11.85","9.1","VEGA VALLSJO, NO","FM-12","99999","V020","230,1,N,0080,1","03000,1,9,N","055000,1,N,1","+0107,1","+0076,1","10139,1",,,"2,1,06,1","2,1,06,1",,"08,99,1,01,1,07,1,00250,1,02,1,99,9",,"99999,9,10128,1","8,1,001,1,+999,9","15,1","SYN078AAXX  02121 01108 11385 82308 10107 20076 30128 40139 58001 6//// 71522 8172/;",
"01108099999","2010-06-02T18:00:00","4","65.7","11.85","9.1","VEGA VALLSJO, NO","FM-12","99999","V020","140,1,N,0030,1","03000,1,9,N","030000,1,N,1","+0109,1","+0080,1","10120,1","12,0020,9,1",,"6,1,06,1","2,1,06,1",,"08,99,1,02,1,07,1,01250,1,02,1,99,9","999,M,+0114,1","99999,9,10109,1","7,1,011,1,+999,9","61,1","SYN088AAXX  02181 01108 11680 81403 10109 20080 30109 40120 57011 60022 76162 8272/ 333 10114;",
"01108099999","2010-06-03T06:00:00","4","65.7","11.85","9.1","VEGA VALLSJO, NO","FM-12","99999","V020","220,1,N,0060,1","00120,1,9,N","020000,1,N,1","+0098,1","+0086,1","10081,1","12,0010,9,1","24,0033,9,1","6,1,06,1","2,1,06,1",,"07,99,1,07,1,09,1,00150,1,07,1,99,9","999,N,+0094,1","99999,9,10070,1","7,1,008,1,+999,9","25,1","SYN094AAXX  03061 01108 11270 72206 10098 20086 30070 40081 57008 60012 72562 8797/ 333 20094 70032;",
"01108099999","2010-06-03T12:00:00","4","65.7","11.85","9.1","VEGA VALLSJO, NO","FM-12","99999","V020","300,1,N,0070,1","00120,1,9,N","015000,1,N,1","+0096,1","+0082,1","10117,1",,,"8,1,06,1","2,1,06,1",,"08,99,1,08,1,09,1,00150,1,99,9,99,9",,"99999,9,10106,1","2,1,024,1,+999,9","80,1","SYN078AAXX  03121 01108 11265 83007 10096 20082 30106 40117 52024 6//// 78082 889//;",
"01108099999","2010-06-03T18:00:00","4","65.7","11.85","9.1","VEGA VALLSJO, NO","FM-12","99999","V020","310,1,N,0070,1","03000,1,9,N","035000,1,N,1","+0090,1","+0028,1","10173,1","12,0030,9,1",,"8,1,06,1","2,1,06,1",,"06,99,1,04,1,09,1,00450,1,06,1,02,1","999,M,+0105,1","99999,9,10162,1","2,1,023,1,+999,9","15,1","SYN088AAXX  03181 01108 11481 63107 10090 20028 30162 40173 52023 60032 71582 84962 333 10105;",
"01108099999","2010-06-04T06:00:00","4","65.7","11.85","9.1","VEGA VALLSJO, NO","FM-12","99999","V020","340,1,N,0060,1","00420,1,9,N","025000,1,N,1","+0065,1","+0031,1","10199,1","12,0020,9,1","24,0048,9,1","8,1,06,1","2,1,06,1",,"07,99,1,07,1,09,1,00450,1,99,9,99,9","999,N,+0057,1","99999,9,10188,1","2,1,014,1,+999,9","25,1","SYN094AAXX  04061 01108 11475 73406 10065 20031 30188 40199 52014 60022 72582 879// 333 20057 70047;",
"01108099999","2010-06-04T12:00:00","4","65.7","11.85","9.1","VEGA VALLSJO, NO","FM-12","99999","V020","310,1,N,0070,1","00420,1,9,N","040000,1,N,1","+0072,1","+0019,1","10218,1",,,"8,1,06,1","2,1,06,1",,"06,99,1,06,1,09,1,00450,1,99,9,99,9",,"99999,9,10207,1","2,1,008,1,+999,9","25,1","SYN078AAXX  04121 01108 11482 63107 10072 20019 30207 40218 52008 6//// 72582 869//;",
"01108099999","2010-06-04T18:00:00","4","65.7","11.85","9.1","VEGA VALLSJO, NO","FM-12","99999","V020","310,1,N,0070,1","03000,1,9,N","040000,1,N,1","+0071,1","+0022,1","10213,1","12,0010,9,1",,"8,1,06,1","2,1,06,1",,"06,99,1,04,1,09,1,00450,1,06,1,01,1","999,M,+0078,1","99999,9,10201,1","8,1,005,1,+999,9","25,1","SYN088AAXX  04181 01108 11482 63107 10071 20022 30201 40213 58005 60012 72582 84961 333 10078;",
"01108099999","2010-06-05T06:00:00","4","65.7","11.85","9.1","VEGA VALLSJO, NO","FM-12","99999","V020","350,1,N,0040,1","00420,1,9,N","030000,1,N,1","+0065,1","+0030,1","10191,1","12,0000,2,1","24,0015,9,1","8,1,06,1","2,1,06,1",,"06,99,1,05,1,09,1,00450,1,06,1,00,1","999,N,+0056,1","99999,9,10180,1","4,1,000,1,+999,9","25,1","SYN094AAXX  05061 01108 11480 63504 10065 20030 30180 40191 54000 69922 72582 85960 333 20056 70016;",
"01108099999","2010-06-05T12:00:00","4","65.7","11.85","9.1","VEGA VALLSJO, NO","FM-12","99999","V020","320,1,N,0030,1","00750,1,9,N","050000,1,N,1","+0070,1","+0007,1","10188,1",,,"8,1,06,1","2,1,06,1",,"07,99,1,07,1,09,1,00800,1,99,9,99,9",,"99999,9,10177,1","4,1,000,1,+999,9","80,1","SYN078AAXX  05121 01108 11584 73203 10070 20007 30177 40188 54000 6//// 78082 879//;",
"01108099999","2010-06-05T18:00:00","4","65.7","11.85","9.1","VEGA VALLSJO, NO","FM-12","99999","V020","320,1,N,0020,1","00750,1,9,N","060000,1,N,1","+0068,1","+0001,1","10173,1","12,0000,2,1",,"8,1,06,1","2,1,06,1",,"07,99,1,07,1,09,1,00800,1,99,9,99,9","999,M,+0080,1","99999,9,10162,1","7,1,012,1,+999,9","80,1","SYN088AAXX  05181 01108 11586 73202 10068 20001 30162 40173 57012 69902 78082 879// 333 10080;",
"01108099999","2010-06-06T06:00:00","4","65.7","11.85","9.1","VEGA VALLSJO, NO","FM-12","99999","V020","250,1,N,0020,1","00750,1,9,N","060000,1,N,1","+0068,1","+0021,1","10144,1","12,0000,2,1","24,0000,2,1","8,1,06,1","2,1,06,1",,"07,99,1,07,1,09,1,00800,1,99,9,99,9","999,N,+0033,1","99999,9,10133,1","7,1,007,1,+999,9","25,1","SYN094AAXX  06061 01108 11586 72502 10068 20021 30133 40144 57007 69912 72582 879// 333 20033 70001;",
"01108099999","2010-06-06T12:00:00","4","65.7","11.85","9.1","VEGA VALLSJO, NO","FM-12","99999","V020","270,1,N,0030,1","00750,1,9,N","055000,1,N,1","+0077,1","+0020,1","10145,1",,,"8,1,06,1","2,1,06,1",,"07,99,1,05,1,09,1,00800,1,06,1,02,1",,"99999,9,10133,1","2,1,001,1,+999,9","15,1","SYN078AAXX  06121 01108 11585 72703 10077 20020 30133 40145 52001 6//// 71582 85962;",
"01108099999","2010-06-06T18:00:00","4","65.7","11.85","9.1","VEGA VALLSJO, NO","FM-12","99999","V020","330,1,N,0030,1","00750,1,9,N","075000,1,N,1","+0077,1","+0018,1","10137,1","12,0005,9,1",,"2,1,06,1","2,1,06,1",,"06,99,1,05,1,09,1,00800,1,06,1,00,1","999,M,+0085,1","99999,9,10126,1","7,1,004,1,+999,9","15,1","SYN088AAXX  06181 01108 11589 63303 10077 20018 30126 40137 57004 69952 71522 85960 333 10085;",
"01108099999","2010-06-07T06:00:00","4","65.7","11.85","9.1","VEGA VALLSJO, NO","FM-12","99999","V020","030,1,N,0020,1","00750,1,9,N","070000,1,N,1","+0073,1","+0012,1","10126,1","12,0000,9,1","24,0005,9,1","2,1,06,1","1,1,06,1",,"07,99,1,05,1,09,1,00800,1,00,1,02,1","999,N,+0033,1","99999,9,10114,1","7,1,006,1,+999,9","16,1","SYN094AAXX  07061 01108 11588 70302 10073 20012 30114 40126 57006 60002 71621 85902 333 20033 70005;","Q01  00002PRCP12"
"01108099999","2010-06-07T12:00:00","4","65.7","11.85","9.1","VEGA VALLSJO, NO","FM-12","99999","V020","360,1,N,0050,1","22000,1,9,N","075000,1,N,1","+0086,1","+0015,1","10124,1",,,"8,1,06,1","2,1,06,1",,"05,99,1,01,1,01,1,01250,1,00,1,06,1",,"99999,9,10113,1","5,1,001,1,+999,9","02,1","SYN078AAXX  07121 01108 11689 53605 10086 20015 30113 40124 55001 6//// 70282 81106;",
"01108099999","2010-06-07T18:00:00","4","65.7","11.85","9.1","VEGA VALLSJO, NO","FM-12","99999","V020","010,1,N,0080,1","22000,1,9,N","075000,1,N,1","+0094,1","+0027,1","10111,1","12,0000,9,1",,"1,1,06,1","1,1,06,1",,"03,99,1,02,1,04,1,01250,1,06,1,01,1","999,M,+0099,1","99999,9,10100,1","7,1,005,1,+999,9","02,1","SYN088AAXX  07181 01108 11689 30108 10094 20027 30100 40111 57005 69902 70211 82461 333 10099;","Q01  00002PRCP12"
"01108099999","2010-06-08T06:00:00","4","65.7","11.85","9.1","VEGA VALLSJO, NO","FM-12","99999","V020","070,1,N,0060,1","22000,1,9,N","075000,1,N,1","+0114,1","+0014,1","10102,1","12,0000,9,1","24,0000,9,1","0,1,06,1","0,1,06,1",,"03,99,1,01,1,01,1,01250,1,00,1,05,1","999,N,+0068,1","99999,9,10091,1","6,1,002,1,+999,9","03,1","SYN094AAXX  08061 01108 11689 30706 10114 20014 30091 40102 56002 60002 70300 81105 333 20068 79999;","Q01  00002PRCP24Q02  00002PRCP12"
"01108099999","2010-06-08T12:00:00","4","65.7","11.85","9.1","VEGA VALLSJO, NO","FM-12","99999","V020","010,1,N,0070,1","22000,1,9,N","075000,1,N,1","+0124,1","+0031,1","10109,1",,,"0,1,06,1","0,1,06,1",,"03,99,1,01,1,01,1,01250,1,00,1,08,1",,"99999,9,10098,1","4,1,000,1,+999,9","02,1","SYN078AAXX  08121 01108 11689 30107 10124 20031 30098 40109 54000 6//// 70200 81108;",
"01108099999","2010-06-08T18:00:00","4","65.7","11.85","9.1","VEGA VALLSJO, NO","FM-12","99999","V020","010,1,N,0080,1","22000,1,9,N","075000,1,N,1","+0104,1","+0078,1","10113,1","12,0000,9,1",,"0,1,06,1","0,1,06,1",,"02,99,1,01,1,09,1,01250,1,06,1,01,1","999,M,+0135,1","99999,9,10102,1","4,1,000,1,+999,9","15,1","SYN088AAXX  08181 01108 11689 20108 10104 20078 30102 40113 54000 60002 71500 81961 333 10135;","Q01  00002PRCP12"
"01108099999","2010-06-09T06:00:00","4","65.7","11.85","9.1","VEGA VALLSJO, NO","FM-12","99999","V020","360,1,N,0060,1","07500,1,9,N","075000,1,N,1","+0090,1","+0036,1","10152,1","12,0000,9,1","24,0000,9,1","8,1,06,1","1,1,06,1",,"05,99,1,02,1,08,1,00450,1,03,1,01,1","999,N,+0079,1","99999,9,10141,1","2,1,010,1,+999,9","03,1","SYN094AAXX  09061 01108 11489 53606 10090 20036 30141 40152 52010 69902 70381 82831 333 20079 79999;","Q01  00002PRCP24Q02  00002PRCP12"
"01108099999","2010-06-09T12:00:00","4","65.7","11.85","9.1","VEGA VALLSJO, NO","FM-12","99999","V020","350,1,N,0070,1","03000,1,9,N","075000,1,N,1","+0096,1","+0038,1","10175,1",,,"1,1,06,1","1,1,06,1",,"06,99,1,04,1,08,1,00450,1,06,1,02,1",,"99999,9,10164,1","2,1,010,1,+999,9","03,1","SYN078AAXX  09121 01108 11489 63507 10096 20038 30164 40175 52010 6//// 70311 84862;",
"01108099999","2010-06-09T18:00:00","4","65.7","11.85","9.1","VEGA VALLSJO, NO","FM-12","99999","V020","350,1,N,0060,1","22000,1,9,N","075000,1,N,1","+0090,1","+0024,1","10191,1","12,0000,9,1",,"1,1,06,1","1,1,06,1",,"04,99,1,04,1,02,1,00800,1,00,1,00,1","999,M,+0099,1","99999,9,10180,1","1,1,003,1,+999,9","02,1","SYN088AAXX  09181 01108 11589 43506 10090 20024 30180 40191 51003 60002 70211 84200 333 10099;","Q01  00002PRCP12"
"01108099999","2010-06-10T06:00:00","4","65.7","11.85","9.1","VEGA VALLSJO, NO","FM-12","99999","V020","050,1,N,0010,1","00750,1,9,N","075000,1,N,1","+0084,1","+0020,1","10207,1","12,0000,9,1","24,0000,9,1","8,1,06,1","2,1,06,1",,"07,99,1,07,1,05,1,00800,1,99,9,99,9","999,N,+0076,1","99999,9,10196,1","2,1,001,1,+999,9","02,1","SYN094AAXX  10061 01108 11589 70501 10084 20020 30196 40207 52001 69902 70282 875// 333 20076 79999;","Q01  00002PRCP24Q02  00002PRCP12"
"01108099999","2010-06-10T12:00:00","4","65.7","11.85","9.1","VEGA VALLSJO, NO","FM-12","99999","V020","340,1,N,0030,1","03000,1,9,N","075000,1,N,1","+0095,1","+0021,1","10190,1",,,"2,1,06,1","2,1,06,1",,"07,99,1,01,1,01,1,01250,1,07,1,06,1",,"99999,9,10179,1","7,1,009,1,+999,9","02,1","SYN078AAXX  10121 01108 11689 73403 10095 20021 30179 40190 57009 6//// 70222 81176;",
"01108099999","2010-06-10T18:00:00","4","65.7","11.85","9.1","VEGA VALLSJO, NO","FM-12","99999","V020","010,1,N,0050,1","22000,1,9,N","075000,1,N,1","+0093,1","+0031,1","10147,1","12,0000,9,1",,"2,1,06,1","2,1,06,1",,"06,99,1,01,1,01,1,00800,1,00,1,01,1","999,M,+0099,1","99999,9,10135,1","7,1,032,1,+999,9","02,1","SYN088AAXX  10181 01108 11589 60105 10093 20031 30135 40147 57032 60002 70222 81101 333 10099;","Q01  00002PRCP12"
"01108099999","2010-06-11T06:00:00","4","65.7","11.85","9.1","VEGA VALLSJO, NO","FM-12","99999","V020","010,1,N,0040,1","03000,1,9,N","075000,1,N,1","+0099,1","+0066,1","10054,1","12,0000,9,1","24,0000,9,1","2,1,06,1","1,1,06,1",,"06,99,1,01,1,01,1,00800,1,07,1,01,1","999,N,+0083,1","99999,9,10043,1","7,1,019,1,+999,9","03,1","SYN094AAXX  11061 01108 11589 60104 10099 20066 30043 40054 57019 60002 70321 81171 333 20083 70000;","Q01  00002PRCP24Q02  00002PRCP12"
"01108099999","2010-06-11T12:00:00","4","65.7","11.85","9.1","VEGA VALLSJO, NO","FM-12","99999","V020","360,1,N,0060,1","03000,1,9,N","060000,1,N,1","+0116,1","+0079,1","10026,1",,,"6,1,06,1","2,1,06,1",,"06,99,1,01,1,02,1,01250,1,02,1,02,1",,"99999,9,10015,1","7,1,019,1,+999,9","15,1","SYN078AAXX  11121 01108 11686 63606 10116 20079 30015 40026 57019 6//// 71562 81222;",
"01108099999","2010-06-11T18:00:00","4","65.7","11.85","9.1","VEGA VALLSJO, NO","FM-12","99999","V020","350,1,N,0030,1","03000,1,9,N","060000,1,N,1","+0111,1","+0085,1","09992,1","12,9999,9,9",,"2,1,06,1","2,1,06,1",,"08,99,1,02,1,07,1,01750,1,02,1,07,1","999,M,+0120,1","99999,9,09981,1","7,1,021,1,+999,9","21,1","SYN088AAXX  11181 01108 11786 83503 10111 20085 39981 49992 57021 69902 72122 82727 333 10120;","Q01  00002PRCP12Q02  00002PRCP12"
"01108099999","2010-06-12T06:00:00","4","65.7","11.85","9.1","VEGA VALLSJO, NO","FM-12","99999","V020","360,1,N,0050,1","03000,1,9,N","050000,1,N,1","+0106,1","+0090,1","09964,1","12,0000,2,1","24,0000,2,1","2,1,06,1","2,1,06,1",,"07,99,1,02,1,07,1,00450,1,02,1,99,9","999,N,+0100,1","99999,9,09954,1","6,1,002,1,+999,9","15,1","SYN094AAXX  12061 01108 11484 73605 10106 20090 39954 49964 56002 60002 71522 8272/ 333 20100 79999;",
"01108099999","2010-06-12T12:00:00","4","65.7","11.85","9.1","VEGA VALLSJO, NO","FM-12","99999","V020","350,1,N,0070,1","07500,1,9,N","040000,1,N,1","+0115,1","+0096,1","09966,1",,,"2,1,06,1","2,1,06,1",,"05,99,1,02,1,06,1,00150,1,07,1,01,1",,"99999,9,09955,1","4,1,000,1,+999,9","03,1","SYN078AAXX  12121 01108 11282 53507 10115 20096 39955 49966 54000 6//// 70322 82671;",
"01108099999","2010-06-12T18:00:00","4","65.7","11.85","9.1","VEGA VALLSJO, NO","FM-12","99999","V020","300,1,N,0040,1","00120,1,9,N","020000,1,N,1","+0106,1","+0090,1","09977,1","12,0000,9,1",,"2,1,06,1","1,1,06,1",,"07,99,1,07,1,06,1,00150,1,99,9,99,9","999,M,+0121,1","99999,9,09966,1","2,1,003,1,+999,9","03,1","SYN088AAXX  12181 01108 11270 73004 10106 20090 39966 49977 52003 60002 70321 876// 333 10121;","Q01  00002PRCP12"
"01108099999","2010-06-13T06:00:00","4","65.7","11.85","9.1","VEGA VALLSJO, NO","FM-12","99999","V020","350,1,N,0060,1","00420,1,9,N","025000,1,N,1","+0086,1","+0061,1","10030,1","12,0000,9,1","24,0000,9,1","5,1,06,1","2,1,06,1",,"08,99,1,08,1,05,1,00450,1,99,9,99,9","999,N,+0085,1","99999,9,10019,1","2,1,019,1,+999,9","02,1","SYN094AAXX  13061 01108 11475 83506 10086 20061 30019 40030 52019 69902 70252 885// 333 20085 79999;","Q01  00002PRCP24Q02  00002PRCP12"
"01108099999","2010-06-13T12:00:00","4","65.7","11.85","9.1","VEGA VALLSJO, NO","FM-12","99999","V020","340,1,N,0050,1","00900,1,9,N","040000,1,N,1","+0090,1","+0040,1","10067,1",,,"2,1,06,1","2,1,06,1",,"07,99,1,07,1,08,1,00450,1,99,9,99,9",,"99999,9,10056,1","2,1,018,1,+999,9","02,1","SYN078AAXX  13121 01108 11482 73405 10090 20040 30056 40067 52018 6//// 70222 878//;",
"01108099999","2010-06-13T18:00:00","4","65.7","11.85","9.1","VEGA VALLSJO, NO","FM-12","99999","V020","340,1,N,0050,1","00420,1,9,N","040000,1,N,1","+0084,1","+0031,1","10092,1","12,0000,9,1",,"2,1,06,1","2,1,06,1",,"06,99,1,05,1,09,1,00450,1,06,1,09,1","999,M,+0095,1","99999,9,10081,1","2,1,012,1,+999,9","15,1","SYN088AAXX  13181 01108 11482 63405 10084 20031 30081 40092 52012 60002 71522 85969 333 10095;","Q01  00002PRCP12"
"01108099999","2010-06-14T06:00:00","4","65.7","11.85","9.1","VEGA VALLSJO, NO","FM-12","99999","V020","350,1,N,0070,1","00420,1,9,N","030000,1,N,1","+0079,1","+0039,1","10137,1","12,0010,9,1","24,0010,9,1","8,1,06,1","2,1,06,1",,"07,99,1,07,1,09,1,00450,1,99,9,99,9","999,N,+0071,1","99999,9,10126,1","2,1,011,1,+999,9","25,1","SYN094AAXX  14061 01108 11480 73507 10079 20039 30126 40137 52011 60012 72582 879// 333 20071 70010;",
"01108099999","2010-06-14T12:00:00","4","65.7","11.85","9.1","VEGA VALLSJO, NO","FM-12","99999","V020","350,1,N,0070,1","00900,1,9,N","040000,1,N,1","+0084,1","+0031,1","10168,1",,,"8,1,06,1","2,1,06,1",,"07,99,1,07,1,08,1,00450,1,99,9,99,9",,"99999,9,10157,1","2,1,015,1,+999,9","02,1","SYN078AAXX  14121 01108 11482 73507 10084 20031 30157 40168 52015 6//// 70282 878//;",
"01108099999","2010-06-14T18:00:00","4","65.7","11.85","9.1","VEGA VALLSJO, NO","FM-12","99999","V020","350,1,N,0060,1","01200,1,9,N","055000,1,N,1","+0079,1","+0017,1","10190,1","12,0000,2,1",,"2,1,06,1","2,1,06,1",,"07,99,1,07,1,08,1,00800,1,99,9,99,9","999,M,+0087,1","99999,9,10179,1","2,1,011,1,+999,9","02,1","SYN088AAXX  14181 01108 11585 73506 10079 20017 30179 40190 52011 69902 70222 878// 333 10087;",
"01108099999","2010-06-15T06:00:00","4","65.7","11.85","9.1","VEGA VALLSJO, NO","FM-12","99999","V020","350,1,N,0030,1","00420,1,9,N","030000,1,N,1","+0078,1","+0019,1","10232,1","12,9999,9,9","24,0000,2,1","8,1,06,1","2,1,06,1",,"07,99,1,07,1,09,1,00450,1,99,9,99,9","999,N,+0070,1","99999,9,10221,1","2,1,009,1,+999,9","25,1","SYN094AAXX  15061 01108 11480 73503 10078 20019 30221 40232 52009 69912 72582 879// 333 20070 70001;","Q01  00002PRCP12Q02  00002PRCP12"
"01108099999","2010-06-15T12:00:00","4","65.7","11.85","9.1","VEGA VALLSJO, NO","FM-12","99999","V020","240,1,N,0050,1","00900,1,9,N","075000,1,N,1","+0099,1","+0028,1","10245,1",,,"8,1,06,1","2,1,06,1",,"07,99,1,05,1,08,1,00450,1,06,1,99,9",,"99999,9,10234,1","2,1,006,1,+999,9","03,1","SYN078AAXX  15121 01108 11489 72405 10099 20028 30234 40245 52006 6//// 70382 8586/;",
"01108099999","2010-06-15T18:00:00","4","65.7","11.85","9.1","VEGA VALLSJO, NO","FM-12","99999","V020","250,1,N,0040,1","00420,1,9,N","070000,1,N,1","+0095,1","+0035,1","10238,1","12,0000,2,1",,"2,1,06,1","2,1,06,1",,"07,99,1,07,1,09,1,00450,1,99,9,99,9","999,M,+0105,1","99999,9,10227,1","8,1,007,1,+999,9","15,1","SYN088AAXX  15181 01108 11488 72504 10095 20035 30227 40238 58007 69902 71522 879// 333 10105;",
"01108099999","2010-06-16T06:00:00","4","65.7","11.85","9.1","VEGA VALLSJO, NO","FM-12","99999","V020","220,1,N,0080,1","00120,1,9,N","025000,1,N,1","+0094,1","+0077,1","10203,1","12,9999,9,9","24,0000,2,1","8,1,06,1","2,1,06,1",,"08,99,1,07,1,07,1,00150,1,02,1,99,9","999,N,+0086,1","99999,9,10192,1","6,1,008,1,+999,9","60,1","SYN094AAXX  16061 01108 11275 82208 10094 20077 30192 40203 56008 69912 76082 8772/ 333 20086 70001;","Q01  00002PRCP12Q02  00002PRCP12"
"01108099999","2010-06-16T12:00:00","4","65.7","11.85","9.1","VEGA VALLSJO, NO","FM-12","99999","V020","210,1,N,0080,1","03000,1,9,N","030000,1,N,1","+0108,1","+0064,1","10197,1",,,"6,1,06,1","2,1,06,1",,"08,99,1,04,1,07,1,00450,1,02,1,99,9",,"99999,9,10186,1","7,1,004,1,+999,9","60,1","SYN078AAXX  16121 01108 11480 82108 10108 20064 30186 40197 57004 6//// 76062 8472/;",
"01108099999","2010-06-16T18:00:00","4","65.7","11.85","9.1","VEGA VALLSJO, NO","FM-12","99999","V020","210,1,N,0080,1","00030,1,9,N","001700,1,N,1","+0100,1","+0091,1","10177,1","12,0010,9,1",,"6,1,06,1","5,1,06,1",,"08,99,1,07,1,06,1,00025,1,02,1,99,9","999,M,+0112,1","99999,9,10166,1","6,1,010,1,+999,9","59,1","SYN088AAXX  16181 01108 11017 82108 10100 20091 30166 40177 56010 60012 75965 8762/ 333 10112;",
"01108099999","2010-06-17T06:00:00","4","65.7","11.85","9.1","VEGA VALLSJO, NO","FM-12","99999","V020","210,1,N,0050,1","00120,1,9,N","040000,1,N,1","+0094,1","+0065,1","10164,1","12,0020,9,1","24,0030,9,1","6,1,06,1","5,1,06,1",,"08,99,1,06,1,07,1,00150,1,02,1,99,9","999,N,+0085,1","99999,9,10153,1","7,1,013,1,+999,9","02,1","SYN094AAXX  17061 01108 11282 82105 10094 20065 30153 40164 57013 60022 70265 8672/ 333 20085 70030;",
"01108099999","2010-06-17T12:00:00","4","65.7","11.85","9.1","VEGA VALLSJO, NO","FM-12","99999","V020","200,1,N,0060,1","00120,1,9,N","005000,1,N,1","+0116,1","+0092,1","10116,1",,,"6,1,06,1","2,1,06,1",,"08,99,1,07,1,07,1,00150,1,02,1,99,9",,"99999,9,10105,1","7,1,030,1,+999,9","60,1","SYN078AAXX  17121 01108 11250 82006 10116 20092 30105 40116 57030 6//// 76062 8772/;",
"01108099999","2010-06-17T18:00:00","4","65.7","11.85","9.1","VEGA VALLSJO, NO","FM-12","99999","V020","220,1,N,0080,1","00120,1,9,N","005000,1,N,1","+0102,1","+0091,1","10064,1","12,0030,9,1",,"6,1,06,1","5,1,06,1",,"08,99,1,99,9,07,1,00150,1,02,1,99,9","999,M,+0116,1","99999,9,10053,1","7,1,028,1,+999,9","63,1","SYN088AAXX  17181 01108 11250 82208 10102 20091 30053 40064 57028 60032 76365 8872/ 333 10116;","Q01+000082SCOTLC"
"01108099999","2010-06-18T06:00:00","4","65.7","11.85","9.1","VEGA VALLSJO, NO","FM-12","99999","V020","130,1,N,0040,1","00030,1,9,N","020000,1,N,1","+0100,1","+0089,1","10034,1","12,0020,9,1","24,0053,9,1","6,1,06,1","5,1,06,1",,"08,99,1,08,1,06,1,00025,1,99,9,99,9","999,N,+0093,1","99999,9,10023,1","6,1,004,1,+999,9","02,1","SYN094AAXX  18061 01108 11070 81304 10100 20089 30023 40034 56004 60022 70265 886// 333 20093 70054;",
"01108099999","2010-06-18T12:00:00","4","65.7","11.85","9.1","VEGA VALLSJO, NO","FM-12","99999","V020","010,1,N,0110,1","00120,1,9,N","050000,1,N,1","+0099,1","+0085,1","10047,1",,,"2,1,06,1","2,1,06,1",,"08,99,1,06,1,06,1,00150,1,02,1,07,1",,"99999,9,10036,1","1,1,005,1,+999,9","03,1","SYN078AAXX  18121 01108 11284 80111 10099 20085 30036 40047 51005 6//// 70322 86627;",
"01108099999","2010-06-18T18:00:00","4","65.7","11.85","9.1","VEGA VALLSJO, NO","FM-12","99999","V020","010,1,N,0140,1","00210,1,9,N","013000,1,N,1","+0086,1","+0067,1","10055,1","12,9999,9,9",,"6,1,06,1","2,1,06,1",,"08,99,1,06,1,07,1,00250,1,02,1,99,9","999,M,+0108,1","99999,9,10044,1","7,1,002,1,+999,9","61,1","SYN088AAXX  18181 01108 11363 80114 10086 20067 30044 40055 57002 69902 76162 8672/ 333 10108;","Q01  00002PRCP12Q02  00002PRCP12"
"01108099999","2010-06-19T06:00:00","4","65.7","11.85","9.1","VEGA VALLSJO, NO","FM-12","99999","V020","010,1,N,0140,1","00210,1,9,N","010000,1,N,1","+0070,1","+0059,1","10064,1","12,0071,9,2","24,0066,9,2","6,1,06,1","6,1,06,1",,"08,99,1,07,1,07,1,00250,1,02,1,99,9","999,N,+0070,1","99999,9,10053,1","7,1,002,1,+999,9","63,1","SYN094AAXX  19061 01108 11360 80114 10070 20059 30053 40064 57002 60072 76366 8772/ 333 20070 70065;",
"01108099999","2010-06-19T12:00:00","4","65.7","11.85","9.1","VEGA VALLSJO, NO","FM-12","99999","V020","360,1,N,0120,1","00420,1,9,N","025000,1,N,1","+0065,1","+0050,1","10065,1",,,"6,1,06,1","6,1,06,1",,"08,99,1,99,9,07,1,00450,1,02,1,99,9",,"99999,9,10054,1","7,1,001,1,+999,9","61,1","SYN078AAXX  19121 01108 11475 83612 10065 20050 30054 40065 57001 6//// 76166 8872/;","Q01+000082SCOTLC"
"01108099999","2010-06-19T18:00:00","4","65.7","11.85","9.1","VEGA VALLSJO, NO","FM-12","99999","V020","350,1,N,0110,1","00420,1,9,N","030000,1,N,1","+0073,1","+0044,1","10073,1","12,0020,9,1",,"6,1,06,1","2,1,06,1",,"08,99,1,08,1,06,1,00450,1,99,9,99,9","999,M,+0073,1","99999,9,10062,1","2,1,001,1,+999,9","02,1","SYN088AAXX  19181 01108 11480 83511 10073 20044 30062 40073 52001 60022 70262 886// 333 10073;",
"01108099999","2010-06-20T06:00:00","4","65.7","11.85","9.1","VEGA VALLSJO, NO","FM-12","99999","V020","340,1,N,0050,1","00420,1,9,N","040000,1,N,1","+0071,1","+0037,1","10084,1","12,9999,9,9","24,0018,9,1","8,1,06,1","2,1,06,1",,"06,99,1,06,1,09,1,00450,1,99,9,99,9","999,N,+0059,1","99999,9,10073,1","2,1,002,1,+999,9","25,1","SYN094AAXX  20061 01108 11482 63405 10071 20037 30073 40084 52002 69912 72582 869// 333 20059 70018;","Q01  00002PRCP12Q02  00002PRCP12"
"01108099999","2010-06-20T12:00:00","4","65.7","11.85","9.1","VEGA VALLSJO, NO","FM-12","99999","V020","300,1,N,0060,1","03000,1,9,N","050000,1,N,1","+0082,1","+0042,1","10097,1",,,"8,1,06,1","2,1,06,1",,"06,99,1,04,1,09,1,00450,1,06,1,09,1",,"99999,9,10086,1","2,1,006,1,+999,9","15,1","SYN078AAXX  20121 01108 11484 63006 10082 20042 30086 40097 52006 6//// 71582 84969;",
"01108099999","2010-06-20T18:00:00","4","65.7","11.85","9.1","VEGA VALLSJO, NO","FM-12","99999","V020","280,1,N,0070,1","03000,1,9,N","035000,1,N,1","+0083,1","+0051,1","10119,1","12,0000,2,1",,"8,1,06,1","2,1,06,1",,"07,99,1,04,1,09,1,00450,1,06,1,00,1","999,M,+0086,1","99999,9,10108,1","2,1,010,1,+999,9","15,1","SYN088AAXX  20181 01108 11481 72807 10083 20051 30108 40119 52010 69902 71582 84960 333 10086;",
"01108099999","2010-06-21T06:00:00","4","65.7","11.85","9.1","VEGA VALLSJO, NO","FM-12","99999","V020","240,1,N,0030,1","03000,1,9,N","030000,1,N,1","+0076,1","+0061,1","10144,1","12,0005,9,1","24,0005,9,1","8,1,06,1","2,1,06,1",,"05,99,1,04,1,09,1,00150,1,06,1,00,1","999,N,+0051,1","99999,9,10133,1","2,1,001,1,+999,9","15,1","SYN094AAXX  21061 01108 11280 52403 10076 20061 30133 40144 52001 69942 71582 84960 333 20051 70004;",
"01108099999","2010-06-21T12:00:00","4","65.7","11.85","9.1","VEGA VALLSJO, NO","FM-12","99999","V020","270,1,N,0040,1","22000,1,9,N","075000,1,N,1","+0095,1","+0049,1","10166,1",,,"8,1,06,1","1,1,06,1",,"04,99,1,02,1,09,1,00450,1,06,1,01,1",,"99999,9,10155,1","2,1,008,1,+999,9","15,1","SYN078AAXX  21121 01108 11489 42704 10095 20049 30155 40166 52008 6//// 71581 82961;",
"01108099999","2010-06-21T18:00:00","4","65.7","11.85","9.1","VEGA VALLSJO, NO","FM-12","99999","V020","250,1,N,0050,1","00420,1,9,N","040000,1,N,1","+0085,1","+0056,1","10184,1","12,9999,9,9",,"1,1,06,1","1,1,06,1",,"07,99,1,07,1,09,1,00450,1,99,9,99,9","999,M,+0100,1","99999,9,10173,1","1,1,007,1,+999,9","80,1","SYN088AAXX  21181 01108 11482 72505 10085 20056 30173 40184 51007 69902 78011 879// 333 10100;","Q01  00002PRCP12Q02  00002PRCP12"
"01108099999","2010-06-22T06:00:00","4","65.7","11.85","9.1","VEGA VALLSJO, NO","FM-12","99999","V020","220,1,N,0050,1","00120,1,9,N","040000,1,N,1","+0087,1","+0070,1","10169,1","12,0003,9,1","24,0003,9,1","6,1,06,1","2,1,06,1",,"07,99,1,06,1,07,1,00150,1,02,1,99,9","999,N,+0075,1","99999,9,10158,1","6,1,003,1,+999,9","60,1","SYN094AAXX  22061 01108 11282 72205 10087 20070 30158 40169 56003 69932 76062 8672/ 333 20075 70003;",
"01108099999","2010-06-22T18:00:00","4","65.7","11.85","9.1","VEGA VALLSJO, NO","FM-12","99999","V020","240,1,N,0050,1","00120,1,9,N","020000,1,N,1","+0091,1","+0079,1","10185,1","12,0005,9,1",,"8,1,06,1","2,1,06,1",,"07,99,1,07,1,09,1,00150,1,99,9,99,9","999,M,+0103,1","99999,9,10174,1","2,1,005,1,+999,9","25,1","SYN088AAXX  22181 01108 11270 72405 10091 20079 30174 40185 52005 69942 72582 879// 333 10103;",
"01108099999","2010-06-23T06:00:00","4","65.7","11.85","9.1","VEGA VALLSJO, NO","FM-12","99999","V020","150,1,N,0020,1","00120,1,9,N","030000,1,N,1","+0084,1","+0065,1","10203,1","12,0000,2,1","24,0005,9,1","8,1,06,1","2,1,06,1",,"08,99,1,08,1,09,1,00150,1,99,9,99,9","999,N,+0073,1","99999,9,10192,1","1,1,003,1,+999,9","15,1","SYN094AAXX  23061 01108 11280 81502 10084 20065 30192 40203 51003 69902 71582 889// 333 20073 70004;",
"01108099999","2010-06-23T12:00:00","4","65.7","11.85","9.1","VEGA VALLSJO, NO","FM-12","99999","V020","220,1,N,0050,1","00600,1,9,N","055000,1,N,1","+0097,1","+0076,1","10208,1",,,"8,1,06,1","2,1,06,1",,"08,99,1,08,1,08,1,00150,1,99,9,99,9",,"99999,9,10197,1","2,1,001,1,+999,9","02,1","SYN078AAXX  23121 01108 11285 82205 10097 20076 30197 40208 52001 6//// 70282 888//;",
"01108099999","2010-06-23T18:00:00","4","65.7","11.85","9.1","VEGA VALLSJO, NO","FM-12","99999","V020","310,1,N,0020,1","00600,1,9,N","070000,1,N,1","+0090,1","+0064,1","10197,1","12,0000,9,1",,"2,1,06,1","2,1,06,1",,"07,99,1,07,1,08,1,00250,1,99,9,99,9","999,M,+0102,1","99999,9,10186,1","7,1,009,1,+999,9","02,1","SYN088AAXX  23181 01108 11388 73102 10090 20064 30186 40197 57009 69912 70222 878// 333 10102;","Q01  00002PRCP12"
"01108099999","2010-06-24T06:00:00","4","65.7","11.85","9.1","VEGA VALLSJO, NO","FM-12","99999","V020","070,1,N,0030,1","99999,9,9,N","075000,1,N,1","+0098,1","+0058,1","10161,1","12,0000,9,1","24,0000,9,1","2,1,06,1","2,1,06,1",,"07,99,1,01,1,00,1,99999,9,07,1,06,1","999,N,+0060,1","99999,9,10150,1","7,1,013,1,+999,9","03,1","SYN094AAXX  24061 01108 11989 70703 10098 20058 30150 40161 57013 60002 70322 81076 333 20060 70001;","Q01  00002PRCP24Q02  00002PRCP12"
"01108099999","2010-06-24T12:00:00","4","65.7","11.85","9.1","VEGA VALLSJO, NO","FM-12","99999","V020","010,1,N,0040,1","99999,9,9,N","075000,1,N,1","+0121,1","+0074,1","99999,9",,,"2,1,06,1","2,1,06,1",,"07,99,1,02,1,00,1,99999,9,03,1,01,1",,,"7,1,012,1,+999,9","03,1","SYN066AAXX  24121 01108 11989 70104 10121 20074 57012 6//// 70322 82031;",
"01108099999","2010-06-24T18:00:00","4","65.7","11.85","9.1","VEGA VALLSJO, NO","FM-12","99999","V020","020,1,N,0010,1","03000,1,9,N","075000,1,N,1","+0118,1","+0079,1","99999,9","12,0000,9,1",,"2,1,06,1","2,1,06,1",,"08,99,1,02,1,07,1,01750,1,02,1,07,1","999,M,+0124,1",,"7,1,017,1,+999,9","03,1","SYN076AAXX  24181 01108 11789 80201 10118 20079 57017 60002 70322 82727 333 10124;","Q01  00002PRCP12"
"01108099999","2010-06-25T06:00:00","4","65.7","11.85","9.1","VEGA VALLSJO, NO","FM-12","99999","V020","330,1,N,0020,1","07500,1,9,N","075000,1,N,1","+0110,1","+0089,1","99999,9","12,0008,9,1","24,0008,9,1","6,1,06,1","1,1,06,1",,"05,99,1,01,1,01,1,01750,1,07,1,01,1","999,N,+0103,1",,"7,1,014,1,+999,9","03,1","SYN082AAXX  25061 01108 11789 53302 10110 20089 57014 69982 70361 81171 333 20103 70008;",
"01108099999","2010-06-25T12:00:00","4","65.7","11.85","9.1","VEGA VALLSJO, NO","FM-12","99999","V020","280,1,N,0020,1","00060,1,9,N","010000,1,N,1","+0110,1","+0096,1","99999,9",,,"6,1,06,1","2,1,06,1",,"08,99,1,06,1,07,1,00075,1,02,1,99,9",,,"7,1,006,1,+999,9","60,1","SYN066AAXX  25121 01108 11160 82802 10110 20096 57006 6//// 76062 8672/;",
"01108099999","2010-06-25T18:00:00","4","65.7","11.85","9.1","VEGA VALLSJO, NO","FM-12","99999","V020","240,1,N,0040,1","00030,1,9,N","006000,1,N,1","+0098,1","+0095,1","99999,9","12,0119,9,1",,"6,1,06,1","6,1,06,1",,"08,99,1,99,9,06,1,00025,1,02,1,99,9","999,M,+0113,1",,"6,1,002,1,+999,9","63,1","SYN076AAXX  25181 01108 11056 82404 10098 20095 56002 60122 76366 8862/ 333 10113;","Q01+000082SCOTLC"
"01108099999","2010-06-26T06:00:00","4","65.7","11.85","9.1","VEGA VALLSJO, NO","FM-12","99999","V020","300,1,N,0050,1","00120,1,9,N","020000,1,N,1","+0083,1","+0075,1","99999,9","12,0150,9,1","24,0274,9,1","6,1,06,1","6,1,06,1",,"08,99,1,07,1,07,1,00150,1,02,1,99,9","999,N,+0081,1",,"2,1,020,1,+999,9","61,1","SYN082AAXX  26061 01108 11270 83005 10083 20075 52020 60152 76166 8772/ 333 20081 70274;",
"01108099999","2010-06-26T12:00:00","4","65.7","11.85","9.1","VEGA VALLSJO, NO","FM-12","99999","V020","290,1,N,0070,1","00210,1,9,N","025000,1,N,1","+0090,1","+0066,1","99999,9",,,"6,1,06,1","5,1,06,1",,"07,99,1,07,1,09,1,00250,1,99,9,99,9",,,"2,1,020,1,+999,9","25,1","SYN066AAXX  26121 01108 11375 72907 10090 20066 52020 6//// 72565 879//;",
"01108099999","2010-06-26T18:00:00","4","65.7","11.85","9.1","VEGA VALLSJO, NO","FM-12","99999","V020","260,1,N,0060,1","00420,1,9,N","020000,1,N,1","+0081,1","+0057,1","99999,9","12,0030,9,1",,"8,1,06,1","2,1,06,1",,"07,99,1,07,1,09,1,00450,1,99,9,99,9","999,M,+0093,1",,"2,1,010,1,+999,9","81,1","SYN076AAXX  26181 01108 11470 72606 10081 20057 52010 60032 78182 879// 333 10093;",
"01108099999","2010-06-27T06:00:00","4","65.7","11.85","9.1","VEGA VALLSJO, NO","FM-12","99999","V020","260,1,N,0070,1","00120,1,9,N","015000,1,N,1","+0080,1","+0069,1","99999,9","12,0030,9,1","24,0056,9,1","8,1,06,1","2,1,06,1",,"07,99,1,07,1,09,1,00150,1,99,9,99,9","999,N,+0070,1",,"2,1,005,1,+999,9","81,1","SYN082AAXX  27061 01108 11265 72607 10080 20069 52005 60032 78182 879// 333 20070 70057;",
"01108099999","2010-06-27T12:00:00","4","65.7","11.85","9.1","VEGA VALLSJO, NO","FM-12","99999","V020","240,1,N,0060,1","00120,1,9,N","020000,1,N,1","+0089,1","+0067,1","99999,9",,,"8,1,06,1","2,1,06,1",,"07,99,1,07,1,09,1,00150,1,99,9,99,9",,,"2,1,008,1,+999,9","80,1","SYN066AAXX  27121 01108 11270 72406 10089 20067 52008 6//// 78082 879//;",
"01108099999","2010-06-27T18:00:00","4","65.7","11.85","9.1","VEGA VALLSJO, NO","FM-12","99999","V020","250,1,N,0060,1","00120,1,9,N","030000,1,N,1","+0092,1","+0059,1","99999,9","12,0020,9,1",,"8,1,06,1","2,1,06,1",,"07,99,1,07,1,09,1,00150,1,99,9,99,9","999,M,+0098,1",,"2,1,004,1,+999,9","15,1","SYN076AAXX  27181 01108 11280 72506 10092 20059 52004 60022 71582 879// 333 10098;",
"01108099999","2010-06-28T06:00:00","4","65.7","11.85","9.1","VEGA VALLSJO, NO","FM-12","99999","V020","260,1,N,0010,1","00600,1,9,N","070000,1,N,1","+0092,1","+0050,1","99999,9","12,0000,9,1","24,0023,9,1","8,1,06,1","2,1,06,1",,"08,99,1,08,1,08,1,00250,1,99,9,99,9","999,N,+0077,1",,"0,1,000,1,+999,9","02,1","SYN082AAXX  28061 01108 11388 82601 10092 20050 50000 69922 70282 888// 333 20077 70023;","Q01  00002PRCP12"
"01108099999","2010-06-28T12:00:00","4","65.7","11.85","9.1","VEGA VALLSJO, NO","FM-12","99999","V020","020,1,N,0040,1","03000,1,9,N","075000,1,N,1","+0106,1","+0041,1","99999,9",,,"2,1,06,1","2,1,06,1",,"07,99,1,01,1,08,1,00800,1,03,1,02,1",,,"7,1,011,1,+999,9","01,1","SYN066AAXX  28121 01108 11589 70204 10106 20041 57011 6//// 70122 81832;",
"01108099999","2010-06-28T18:00:00","4","65.7","11.85","9.1","VEGA VALLSJO, NO","FM-12","99999","V020","030,1,N,0040,1","22000,1,9,N","075000,1,N,1","+0105,1","+0076,1","99999,9","12,0000,9,1",,"1,1,06,1","1,1,06,1",,"06,99,1,01,1,00,1,02250,1,08,1,06,1","999,M,+0109,1",,"6,1,020,1,+999,9","03,1","SYN076AAXX  28181 01108 11889 60304 10105 20076 56020 60002 70311 81086 333 10109;","Q01  00002PRCP12"
"01108099999","2010-06-29T06:00:00","4","65.7","11.85","9.1","VEGA VALLSJO, NO","FM-12","99999","V020","250,1,N,0030,1","03000,1,9,N","075000,1,N,1","+0120,1","+0088,1","99999,9","12,0000,9,1","24,0000,9,1","2,1,06,1","2,1,06,1",,"05,99,1,01,1,01,1,01750,1,07,1,00,1","999,N,+0088,1",,"2,1,003,1,+999,9","01,1","SYN082AAXX  29061 01108 11789 52503 10120 20088 52003 60002 70122 81170 333 20088 70000;","Q01  00002PRCP24Q02  00002PRCP12"
"01108099999","2010-06-29T12:00:00","4","65.7","11.85","9.1","VEGA VALLSJO, NO","FM-12","99999","V020","310,1,N,0030,1","22000,1,9,N","075000,1,N,1","+0151,1","+0103,1","99999,9",,,"1,1,06,1","1,1,06,1",,"04,99,1,01,1,02,1,01250,1,07,1,01,1",,,"7,1,002,1,+999,9","02,1","SYN066AAXX  29121 01108 11689 43103 10151 20103 57002 6//// 70211 81271;",
"01108099999","2010-06-29T18:00:00","4","65.7","11.85","9.1","VEGA VALLSJO, NO","FM-12","99999","V020","340,1,N,0010,1","03000,1,9,N","075000,1,N,1","+0127,1","+0084,1","99999,9","12,0000,9,1",,"2,1,06,1","2,1,06,1",,"06,99,1,04,1,03,1,01750,1,07,1,01,1","999,M,+0155,1",,"8,1,005,1,+999,9","15,1","SYN076AAXX  29181 01108 11789 63401 10127 20084 58005 60002 71522 84371 333 10155;","Q01  00002PRCP12"
"01108099999","2010-06-30T06:00:00","4","65.7","11.85","9.1","VEGA VALLSJO, NO","FM-12","99999","V020","360,1,N,0020,1","22000,1,9,N","075000,1,N,1","+0118,1","+0087,1","99999,9","12,0000,9,1","24,0000,9,1","1,1,06,1","0,1,06,1",,"04,99,1,01,1,01,1,01750,1,07,1,05,1","999,N,+0071,1",,"7,1,003,1,+999,9","03,1","SYN082AAXX  30061 01108 11789 43602 10118 20087 57003 60002 70310 81175 333 20071 70000;","Q01  00002PRCP24Q02  00002PRCP12"
"01108099999","2010-06-30T12:00:00","4","65.7","11.85","9.1","VEGA VALLSJO, NO","FM-12","99999","V020","300,1,N,0020,1","03000,1,9,N","075000,1,N,1","+0133,1","+0099,1","99999,9",,,"2,1,06,1","1,1,06,1",,"07,99,1,01,1,01,1,01750,1,07,1,06,1",,,"7,1,004,1,+999,9","03,1","SYN066AAXX  30121 01108 11789 73002 10133 20099 57004 6//// 70321 81176;",
"01108099999","2010-06-30T18:00:00","4","65.7","11.85","9.1","VEGA VALLSJO, NO","FM-12","99999","V020","350,1,N,0060,1","03000,1,9,N","075000,1,N,1","+0116,1","+0090,1","99999,9","12,0000,9,1",,"2,1,06,1","2,1,06,1",,"06,99,1,01,1,02,1,01250,1,07,1,08,1","999,M,+0135,1",,"2,1,001,1,+999,9","01,1","SYN076AAXX  30181 01108 11689 63506 10116 20090 52001 60002 70122 81278 333 10135;","Q01  00002PRCP12"
"01108099999","2010-07-01T06:00:00","4","65.7","11.85","9.1","VEGA VALLSJO, NO","FM-12","99999","V020","350,1,N,0030,1","00210,1,9,N","030000,1,N,1","+0088,1","+0066,1","99999,9","12,0000,9,1","24,0000,9,1","2,1,06,1","2,1,06,1",,"08,99,1,08,1,05,1,00250,1,99,9,99,9","999,N,+0080,1",,"2,1,008,1,+999,9","02,1","SYN082AAXX  01061 01108 11380 83503 10088 20066 52008 60002 70222 885// 333 20080 70000;","Q01  00002PRCP24Q02  00002PRCP12"
"01108099999","2010-07-01T12:00:00","4","65.7","11.85","9.1","VEGA VALLSJO, NO","FM-12","99999","V020","300,1,N,0020,1","00120,1,9,N","015000,1,N,1","+0090,1","+0076,1","99999,9",,,"5,1,06,1","2,1,06,1",,"08,99,1,08,1,06,1,00150,1,99,9,99,9",,,"2,1,009,1,+999,9","50,1","SYN066AAXX  01121 01108 11265 83002 10090 20076 52009 6//// 75052 886//;",
"01108099999","2010-07-01T18:00:00","4","65.7","11.85","9.1","VEGA VALLSJO, NO","FM-12","99999","V020","350,1,N,0020,1","00120,1,9,N","008000,1,N,1","+0086,1","+0077,1","99999,9","12,0000,2,1",,"8,1,06,1","5,1,06,1",,"08,99,1,08,1,09,1,00150,1,99,9,99,9","999,M,+0094,1",,"1,1,001,1,+999,9","80,1","SYN076AAXX  01181 01108 11258 83502 10086 20077 51001 69912 78085 889// 333 10094;",
"01108099999","2010-07-02T06:00:00","4","65.7","11.85","9.1","VEGA VALLSJO, NO","FM-12","99999","V020","050,1,N,0030,1","00120,1,9,N","060000,1,N,1","+0086,1","+0071,1","99999,9","12,0000,2,1","24,0003,9,1","8,1,06,1","2,1,06,1",,"08,99,1,08,1,06,1,00150,1,99,9,99,9","999,N,+0079,1",,"7,1,008,1,+999,9","02,1","SYN082AAXX  02061 01108 11286 80503 10086 20071 57008 69922 70282 886// 333 20079 70003;",
"01108099999","2010-07-02T12:00:00","4","65.7","11.85","9.1","VEGA VALLSJO, NO","FM-12","99999","V020","030,1,N,0040,1","22000,1,9,N","075000,1,N,1","+0113,1","+0085,1","99999,9",,,"2,1,06,1","0,1,06,1",,"03,99,1,01,1,00,1,99999,9,07,1,02,1",,,"8,1,016,1,+999,9","02,1","SYN066AAXX  02121 01108 11989 30304 10113 20085 58016 6//// 70220 81072;",
"01108099999","2010-07-02T18:00:00","4","65.7","11.85","9.1","VEGA VALLSJO, NO","FM-12","99999","V020","040,1,N,0010,1","99999,9,9,N","075000,1,N,1","+0147,1","+0111,1","99999,9","12,0000,9,1",,"2,1,06,1","1,1,06,1",,"07,99,1,02,1,00,1,99999,9,07,1,06,1","999,M,+0149,1",,"7,1,021,1,+999,9","03,1","SYN076AAXX  02181 01108 11989 70401 10147 20111 57021 60002 70321 82076 333 10149;","Q01  00002PRCP12"
"01108099999","2010-07-03T06:00:00","4","65.7","11.85","9.1","VEGA VALLSJO, NO","FM-12","99999","V020","260,1,N,0030,1","03000,1,9,N","075000,1,N,1","+0130,1","+0095,1","99999,9","12,0000,9,1","24,0000,9,1","6,1,06,1","2,1,06,1",,"07,99,1,01,1,02,1,01750,1,02,1,08,1","999,N,+0122,1",,"2,1,018,1,+999,9","01,1","SYN082AAXX  03061 01108 11789 72603 10130 20095 52018 69912 70162 81228 333 20122 70001;","Q01  00002PRCP24Q02  00002PRCP12"
"01108099999","2010-07-03T12:00:00","4","65.7","11.85","9.1","VEGA VALLSJO, NO","FM-12","99999","V020","250,1,N,0030,1","01500,1,9,N","075000,1,N,1","+0139,1","+0109,1","99999,9",,,"2,1,06,1","2,1,06,1",,"07,99,1,07,1,02,1,01750,1,99,9,99,9",,,"2,1,014,1,+999,9","02,1","SYN066AAXX  03121 01108 11789 72503 10139 20109 52014 6//// 70222 872//;",
"01108099999","2010-07-03T18:00:00","4","65.7","11.85","9.1","VEGA VALLSJO, NO","FM-12","99999","V020","090,1,N,0010,1","01200,1,9,N","075000,1,N,1","+0159,1","+0100,1","99999,9","12,0000,9,1",,"2,1,06,1","2,1,06,1",,"07,99,1,07,1,03,1,01250,1,99,9,99,9","999,M,+0160,1",,"8,1,003,1,+999,9","15,1","SYN076AAXX  03181 01108 11689 70901 10159 20100 58003 60002 71522 873// 333 10160;","Q01  00002PRCP12"
"01108099999","2010-07-04T06:00:00","4","65.7","11.85","9.1","VEGA VALLSJO, NO","FM-12","99999","V020","240,1,N,0070,1","00120,1,9,N","020000,1,N,1","+0130,1","+0114,1","99999,9","12,9999,9,9","24,9999,9,9","2,1,06,1","2,1,06,1",,"08,99,1,06,1,07,1,00150,1,02,1,99,9","999,N,+0130,1",,"3,1,016,1,+999,9","60,1","SYN082AAXX  04061 01108 11270 82407 10130 20114 53016 69902 76022 8672/ 333 20130 79999;","Q01  00002PRCP24Q02  00002PRCP12Q03  00002PRCP12Q04  00002PRCP24"
"01108099999","2010-07-04T12:00:00","4","65.7","11.85","9.1","VEGA VALLSJO, NO","FM-12","99999","V020","210,1,N,0040,1","00060,1,9,N","030000,1,N,1","+0125,1","+0116,1","99999,9",,,"6,1,06,1","2,1,06,1",,"08,99,1,05,1,07,1,00075,1,02,1,99,9",,,"2,1,005,1,+999,9","60,1","SYN066AAXX  04121 01108 11180 82104 10125 20116 52005 6//// 76062 8572/;",
"01108099999","2010-07-04T18:00:00","4","65.7","11.85","9.1","VEGA VALLSJO, NO","FM-12","99999","V020","030,1,N,0020,1","03000,1,9,N","060000,1,N,1","+0127,1","+0116,1","99999,9","12,0020,9,1",,"2,1,06,1","2,1,06,1",,"07,99,1,01,1,06,1,00150,1,07,1,02,1","999,M,+0142,1",,"8,1,016,1,+999,9","02,1","SYN076AAXX  04181 01108 11286 70302 10127 20116 58016 60022 70222 81672 333 10142;",
"01108099999","2010-07-05T06:00:00","4","65.7","11.85","9.1","VEGA VALLSJO, NO","FM-12","99999","V020","110,1,N,0030,1","03000,1,9,N","055000,1,N,1","+0180,1","+0143,1","99999,9","12,0010,9,1","24,0033,9,1","6,1,06,1","2,1,06,1",,"07,99,1,01,1,07,1,01250,1,02,1,99,9","999,N,+0118,1",,"6,1,023,1,+999,9","21,1","SYN082AAXX  05061 01108 11685 71103 10180 20143 56023 60012 72162 8172/ 333 20118 70033;",
"01108099999","2010-07-05T12:00:00","4","65.7","11.85","9.1","VEGA VALLSJO, NO","FM-12","99999","V020","240,1,N,0090,1","00420,1,9,N","030000,1,N,1","+0152,1","+0112,1","99999,9",,,"2,1,06,1","1,1,06,1",,"07,99,1,07,1,09,1,00450,1,99,9,99,9",,,"3,1,029,1,+999,9","80,1","SYN066AAXX  05121 01108 11480 72409 10152 20112 53029 6//// 78021 879//;",
"01108099999","2010-07-05T18:00:00","4","65.7","11.85","9.1","VEGA VALLSJO, NO","FM-12","99999","V020","200,1,N,0080,1","00420,1,9,N","008000,1,N,1","+0131,1","+0108,1","99999,9","12,0020,9,1",,"8,1,06,1","2,1,06,1",,"07,99,1,07,1,09,1,00450,1,99,9,99,9","999,M,+0215,1",,"1,1,010,1,+999,9","81,1","SYN076AAXX  05181 01108 11458 72008 10131 20108 51010 60022 78182 879// 333 10215;",
"01108099999","2010-07-06T06:00:00","4","65.7","11.85","9.1","VEGA VALLSJO, NO","FM-12","99999","V020","200,1,N,0090,1","00120,1,9,N","025000,1,N,1","+0126,1","+0091,1","99999,9","12,0003,9,1","24,0023,9,1","8,1,06,1","2,1,06,1",,"07,99,1,07,1,09,1,00150,1,99,9,99,9","999,N,+0115,1",,"2,1,002,1,+999,9","25,1","SYN082AAXX  06061 01108 11275 72009 10126 20091 52002 69932 72582 879// 333 20115 70023;",
"01108099999","2010-07-06T12:00:00","4","65.7","11.85","9.1","VEGA VALLSJO, NO","FM-12","99999","V020","200,1,N,0090,1","03000,1,9,N","040000,1,N,1","+0139,1","+0094,1","99999,9",,,"8,1,06,1","2,1,06,1",,"07,99,1,04,1,09,1,00250,1,06,1,02,1",,,"2,1,012,1,+999,9","15,1","SYN066AAXX  06121 01108 11382 72009 10139 20094 52012 6//// 71582 84962;",
"01108099999","2010-07-06T18:00:00","4","65.7","11.85","9.1","VEGA VALLSJO, NO","FM-12","99999","V020","210,1,N,0070,1","00210,1,9,N","025000,1,N,1","+0125,1","+0099,1","99999,9","12,0000,2,1",,"8,1,06,1","2,1,06,1",,"07,99,1,06,1,09,1,00250,1,06,1,99,9","999,M,+0140,1",,"2,1,007,1,+999,9","15,1","SYN076AAXX  06181 01108 11375 72107 10125 20099 52007 69902 71582 8696/ 333 10140;",
"01108099999","2010-07-07T06:00:00","4","65.7","11.85","9.1","VEGA VALLSJO, NO","FM-12","99999","V020","220,1,N,0040,1","00600,1,9,N","055000,1,N,1","+0122,1","+0098,1","99999,9","12,0000,9,1","24,0000,2,1","2,1,06,1","2,1,06,1",,"07,99,1,07,1,08,1,00150,1,99,9,99,9","999,N,+0108,1",,"8,1,004,1,+999,9","02,1","SYN082AAXX  07061 01108 11285 72204 10122 20098 58004 69902 70222 878// 333 20108 79999;","Q01  00002PRCP12"
"01108099999","2010-07-07T12:00:00","4","65.7","11.85","9.1","VEGA VALLSJO, NO","FM-12","99999","V020","360,1,N,0040,1","22000,1,9,N","075000,1,N,1","+0141,1","+0099,1","99999,9",,,"2,1,06,1","1,1,06,1",,"06,99,1,01,1,01,1,01250,1,00,1,06,1",,,"7,1,012,1,+999,9","03,1","SYN066AAXX  07121 01108 11689 63604 10141 20099 57012 6//// 70321 81106;",
"01108099999","2010-07-07T18:00:00","4","65.7","11.85","9.1","VEGA VALLSJO, NO","FM-12","99999","V020","090,1,N,0030,1","03000,1,9,N","075000,1,N,1","+0160,1","+0110,1","99999,9","12,0000,9,1",,"2,1,06,1","2,1,06,1",,"08,99,1,01,1,07,1,02250,1,02,1,07,1","999,M,+0162,1",,"7,1,021,1,+999,9","03,1","SYN076AAXX  07181 01108 11889 80903 10160 20110 57021 60002 70322 81727 333 10162;","Q01  00002PRCP12"
"01108099999","2010-07-08T06:00:00","4","65.7","11.85","9.1","VEGA VALLSJO, NO","FM-12","99999","V020","060,1,N,0030,1","01200,1,9,N","070000,1,N,1","+0135,1","+0103,1","99999,9","12,0000,9,1","24,0003,9,1","6,1,06,1","2,1,06,1",,"07,99,1,05,1,09,1,01250,1,09,1,01,1","999,N,+0113,1",,"7,1,004,1,+999,9","15,1","SYN082AAXX  08061 01108 11688 70603 10135 20103 57004 69922 71562 85991 333 20113 70002;","Q01  00002PRCP12"
"01108099999","2010-07-08T12:00:00","4","65.7","11.85","9.1","VEGA VALLSJO, NO","FM-12","99999","V020","030,1,N,0030,1","22000,1,9,N","075000,1,N,1","+0156,1","+0097,1","99999,9",,,"2,1,06,1","2,1,06,1",,"04,99,1,02,1,09,1,01250,1,09,1,02,1",,,"2,1,003,1,+999,9","15,1","SYN066AAXX  08121 01108 11689 40303 10156 20097 52003 6//// 71522 82992;",
"01108099999","2010-07-08T18:00:00","4","65.7","11.85","9.1","VEGA VALLSJO, NO","FM-12","99999","V020","270,1,N,0020,1","22000,1,9,N","075000,1,N,1","+0167,1","+0106,1","99999,9","12,0000,9,1",,"1,1,06,1","1,1,06,1",,"04,99,1,02,1,04,1,01750,1,06,1,00,1","999,M,+0171,1",,"2,1,004,1,+999,9","02,1","SYN076AAXX  08181 01108 11789 42702 10167 20106 52004 60002 70211 82460 333 10171;","Q01  00002PRCP12"
"01108099999","2010-07-09T06:00:00","4","65.7","11.85","9.1","VEGA VALLSJO, NO","FM-12","99999","V020","120,1,N,0040,1","03000,1,9,N","040000,1,N,1","+0125,1","+0104,1","99999,9","12,0010,9,1","24,0013,9,1","6,1,06,1","2,1,06,1",,"07,99,1,01,1,07,1,00800,1,02,1,08,1","999,N,+0121,1",,"2,1,005,1,+999,9","60,1","SYN082AAXX  09061 01108 11582 71204 10125 20104 52005 60012 76062 81728 333 20121 70012;",
"01108099999","2010-07-09T12:00:00","4","65.7","11.85","9.1","VEGA VALLSJO, NO","FM-12","99999","V020","160,1,N,0030,1","22000,1,9,N","075000,1,N,1","+0175,1","+0086,1","99999,9",,,"6,1,06,1","2,1,06,1",,"04,99,1,02,1,02,1,01250,1,07,1,00,1",,,"2,1,005,1,+999,9","01,1","SYN066AAXX  09121 01108 11689 41603 10175 20086 52005 6//// 70162 82270;",
"01108099999","2010-07-09T18:00:00","4","65.7","11.85","9.1","VEGA VALLSJO, NO","FM-12","99999","V020","220,1,N,0030,1","03000,1,9,N","070000,1,N,1","+0165,1","+0092,1","99999,9","12,0000,2,1",,"8,1,06,1","1,1,06,1",,"05,99,1,04,1,04,1,01250,1,06,1,04,1","999,M,+0186,1",,"0,1,004,1,+999,9","15,1","SYN076AAXX  09181 01108 11688 52203 10165 20092 50004 69912 71581 84464 333 10186;",
"01108099999","2010-07-10T06:00:00","4","65.7","11.85","9.1","VEGA VALLSJO, NO","FM-12","99999","V020","120,1,N,0040,1","03000,1,9,N","030000,1,N,1","+0135,1","+0109,1","99999,9","12,0020,9,2","24,0015,9,2","6,1,06,1","2,1,06,1",,"07,99,1,04,1,07,1,00800,1,02,1,99,9","999,N,+0125,1",,"7,1,027,1,+999,9","60,1","SYN082AAXX  10061 01108 11580 71204 10135 20109 57027 60022 76062 8472/ 333 20125 70016;",
"01108099999","2010-07-10T12:00:00","4","65.7","11.85","9.1","VEGA VALLSJO, NO","FM-12","99999","V020","210,1,N,0080,1","00120,1,9,N","001500,1,N,1","+0129,1","+0123,1","99999,9",,,"6,1,06,1","2,1,06,1",,"08,99,1,99,9,06,1,00150,1,02,1,99,9",,,"2,1,030,1,+999,9","59,1","SYN066AAXX  10121 01108 11215 82108 10129 20123 52030 6//// 75962 8862/;","Q01+000082SCOTLC"
"01108099999","2010-07-10T18:00:00","4","65.7","11.85","9.1","VEGA VALLSJO, NO","FM-12","99999","V020","240,1,N,0060,1","03000,1,9,N","020000,1,N,1","+0120,1","+0104,1","99999,9","12,0020,9,1",,"6,1,06,1","5,1,06,1",,"07,99,1,04,1,07,1,00250,1,02,1,08,1","999,M,+0164,1",,"2,1,028,1,+999,9","60,1","SYN076AAXX  10181 01108 11370 72406 10120 20104 52028 60022 76065 84728 333 10164;",
"01108099999","2010-07-11T06:00:00","4","65.7","11.85","9.1","VEGA VALLSJO, NO","FM-12","99999","V020","130,1,N,0040,1","22000,1,9,N","060000,1,N,1","+0130,1","+0085,1","99999,9","12,0000,2,1","24,0020,9,1","2,1,06,1","1,1,06,1",,"02,99,1,01,1,01,1,00800,1,00,1,01,1","999,N,+0096,1",,"7,1,008,1,+999,9","02,1","SYN082AAXX  11061 01108 11586 21304 10130 20085 57008 69902 70221 81101 333 20096 70020;",
"01108099999","2010-07-11T12:00:00","4","65.7","11.85","9.1","VEGA VALLSJO, NO","FM-12","99999","V020","050,1,N,0040,1","99999,9,9,N","075000,1,N,1","+0170,1","+0097,1","99999,9",,,"1,1,06,1","0,1,06,1",,"05,99,1,01,1,00,1,99999,9,07,1,05,1",,,"7,1,032,1,+999,9","02,1","SYN066AAXX  11121 01108 11989 50504 10170 20097 57032 6//// 70210 81075;",
"01108099999","2010-07-11T18:00:00","4","65.7","11.85","9.1","VEGA VALLSJO, NO","FM-12","99999","V020","150,1,N,0080,1","03000,1,9,N","075000,1,N,1","+0230,1","+0126,1","99999,9","12,0000,9,1",,"2,1,06,1","2,1,06,1",,"07,99,1,04,1,09,1,01250,1,09,1,06,1","999,M,+0230,1",,"7,1,029,1,+999,9","15,1","SYN076AAXX  11181 01108 11689 71508 10230 20126 57029 60002 71522 84996 333 10230;","Q01  00002PRCP12"
"01108099999","2010-07-12T06:00:00","4","65.7","11.85","9.1","VEGA VALLSJO, NO","FM-12","99999","V020","200,1,N,0040,1","00210,1,9,N","025000,1,N,1","+0149,1","+0119,1","99999,9","12,0020,9,1","24,0023,9,1","6,1,06,1","2,1,06,1",,"08,99,1,07,1,07,1,00250,1,02,1,99,9","999,N,+0144,1",,"1,1,014,1,+999,9","21,1","SYN082AAXX  12061 01108 11375 82004 10149 20119 51014 60022 72162 8772/ 333 20144 70023;",
"01108099999","2010-07-12T12:00:00","4","65.7","11.85","9.1","VEGA VALLSJO, NO","FM-12","99999","V020","210,1,N,0090,1","00420,1,9,N","020000,1,N,1","+0144,1","+0116,1","99999,9",,,"8,1,06,1","2,1,06,1",,"07,99,1,07,1,09,1,00450,1,99,9,99,9",,,"0,1,011,1,+999,9","25,1","SYN066AAXX  12121 01108 11470 72109 10144 20116 50011 6//// 72582 879//;",
"01108099999","2010-07-12T18:00:00","4","65.7","11.85","9.1","VEGA VALLSJO, NO","FM-12","99999","V020","230,1,N,0080,1","00210,1,9,N","008000,1,N,1","+0115,1","+0094,1","99999,9","12,0005,9,1",,"8,1,06,1","2,1,06,1",,"07,99,1,07,1,09,1,00250,1,99,9,99,9","999,M,+0158,1",,"2,1,040,1,+999,9","80,1","SYN076AAXX  12181 01108 11358 72308 10115 20094 52040 69942 78082 879// 333 10158;",
"01108099999","2010-07-13T06:00:00","4","65.7","11.85","9.1","VEGA VALLSJO, NO","FM-12","99999","V020","050,1,N,0030,1","03000,1,9,N","050000,1,N,1","+0110,1","+0093,1","99999,9","12,0000,2,1","24,0005,9,1","6,1,06,1","2,1,06,1",,"08,99,1,03,1,07,1,00450,1,02,1,99,9","999,N,+0100,1",,"6,1,015,1,+999,9","15,1","SYN082AAXX  13061 01108 11484 80503 10110 20093 56015 69922 71562 8372/ 333 20100 70006;",
"01108099999","2010-07-13T12:00:00","4","65.7","11.85","9.1","VEGA VALLSJO, NO","FM-12","99999","V020","020,1,N,0080,1","00120,1,9,N","005000,1,N,1","+0107,1","+0099,1","99999,9",,,"6,1,06,1","2,1,06,1",,"08,99,1,07,1,07,1,00150,1,02,1,99,9",,,"7,1,022,1,+999,9","63,1","SYN066AAXX  13121 01108 11250 80208 10107 20099 57022 6//// 76362 8772/;",
"01108099999","2010-07-13T18:00:00","4","65.7","11.85","9.1","VEGA VALLSJO, NO","FM-12","99999","V020","020,1,N,0060,1","00060,1,9,N","007000,1,N,1","+0103,1","+0100,1","99999,9","12,0079,9,1",,"6,1,06,1","6,1,06,1",,"08,99,1,07,1,07,1,00075,1,02,1,99,9","999,M,+0112,1",,"7,1,011,1,+999,9","58,1","SYN076AAXX  13181 01108 11157 80206 10103 20100 57011 60082 75866 8772/ 333 10112;",
"01108099999","2010-07-14T06:00:00","4","65.7","11.85","9.1","VEGA VALLSJO, NO","FM-12","99999","V020","350,1,N,0070,1","00060,1,9,N","005000,1,N,1","+0097,1","+0092,1","99999,9","12,0130,9,1","24,0211,9,1","6,1,06,1","5,1,06,1",,"08,99,1,99,9,06,1,00075,1,02,1,99,9","999,N,+0095,1",,"2,1,017,1,+999,9","58,1","SYN082AAXX  14061 01108 11150 83507 10097 20092 52017 60132 75865 8862/ 333 20095 70210;","Q01+000082SCOTLC"
"01108099999","2010-07-14T12:00:00","4","65.7","11.85","9.1","VEGA VALLSJO, NO","FM-12","99999","V020","340,1,N,0070,1","00420,1,9,N","015000,1,N,1","+0106,1","+0080,1","99999,9",,,"6,1,06,1","5,1,06,1",,"07,99,1,07,1,09,1,00450,1,99,9,99,9",,,"2,1,019,1,+999,9","80,1","SYN066AAXX  14121 01108 11465 73407 10106 20080 52019 6//// 78065 879//;",
"01108099999","2010-07-14T18:00:00","4","65.7","11.85","9.1","VEGA VALLSJO, NO","FM-12","99999","V020","360,1,N,0070,1","00600,1,9,N","030000,1,N,1","+0104,1","+0080,1","99999,9","12,0000,2,1",,"8,1,06,1","2,1,06,1",,"07,99,1,07,1,08,1,00250,1,99,9,99,9","999,M,+0112,1",,"2,1,012,1,+999,9","25,1","SYN076AAXX  14181 01108 11380 73607 10104 20080 52012 69922 72582 878// 333 10112;",
"01108099999","2010-07-15T06:00:00","4","65.7","11.85","9.1","VEGA VALLSJO, NO","FM-12","99999","V020","020,1,N,0070,1","22000,1,9,N","075000,1,N,1","+0108,1","+0080,1","99999,9","12,0000,2,1","24,0003,9,1","2,1,06,1","0,1,06,1",,"01,99,1,01,1,01,1,00450,1,00,1,01,1","999,N,+0096,1",,"7,1,011,1,+999,9","02,1","SYN082AAXX  15061 01108 11489 10207 10108 20080 57011 69902 70220 81101 333 20096 70002;",
"01108099999","2010-07-15T12:00:00","4","65.7","11.85","9.1","VEGA VALLSJO, NO","FM-12","99999","V020","010,1,N,0060,1","22000,1,9,N","075000,1,N,1","+0142,1","+0102,1","99999,9",,,"0,1,06,1","0,1,06,1",,"04,99,1,01,1,01,1,00800,1,07,1,02,1",,,"7,1,026,1,+999,9","03,1","SYN066AAXX  15121 01108 11589 40106 10142 20102 57026 6//// 70300 81172;",
"01108099999","2010-07-15T18:00:00","4","65.7","11.85","9.1","VEGA VALLSJO, NO","FM-12","99999","V020","110,1,N,0050,1","03000,1,9,N","075000,1,N,1","+0204,1","+0121,1","99999,9","12,0000,9,1",,"2,1,06,1","1,1,06,1",,"07,99,1,04,1,05,1,01250,1,02,1,06,1","999,M,+0211,1",,"7,1,023,1,+999,9","15,1","SYN076AAXX  15181 01108 11689 71105 10204 20121 57023 60002 71521 84526 333 10211;","Q01  00002PRCP12"
"01108099999","2010-07-16T06:00:00","4","65.7","11.85","9.1","VEGA VALLSJO, NO","FM-12","99999","V020","140,1,N,0060,1","03000,1,9,N","075000,1,N,1","+0180,1","+0127,1","99999,9","12,0000,9,1","24,0000,9,1","2,1,06,1","2,1,06,1",,"07,99,1,03,1,01,1,01250,1,07,1,08,1","999,N,+0177,1",,"1,1,008,1,+999,9","01,1","SYN082AAXX  16061 01108 11689 71406 10180 20127 51008 69902 70122 83178 333 20177 79999;","Q01  00002PRCP24Q02  00002PRCP12"
"01108099999","2010-07-16T12:00:00","4","65.7","11.85","9.1","VEGA VALLSJO, NO","FM-12","99999","V020","110,1,N,0050,1","01500,1,9,N","075000,1,N,1","+0216,1","+0130,1","99999,9",,,"1,1,06,1","1,1,06,1",,"06,99,1,05,1,02,1,01750,1,00,1,01,1",,,"2,1,012,1,+999,9","02,1","SYN066AAXX  16121 01108 11789 61105 10216 20130 52012 6//// 70211 85201;",
"01108099999","2010-07-16T18:00:00","4","65.7","11.85","9.1","VEGA VALLSJO, NO","FM-12","99999","V020","290,1,N,0020,1","22000,1,9,N","075000,1,N,1","+0171,1","+0122,1","99999,9","12,0000,9,1",,"1,1,06,1","1,1,06,1",,"03,99,1,01,1,02,1,01750,1,07,1,04,1","999,M,+0229,1",,"4,1,000,1,+999,9","03,1","SYN076AAXX  16181 01108 11789 32902 10171 20122 54000 60002 70311 81274 333 10229;","Q01  00002PRCP12"
"01108099999","2010-07-17T06:00:00","4","65.7","11.85","9.1","VEGA VALLSJO, NO","FM-12","99999","V020","160,1,N,0070,1","03000,1,9,N","070000,1,N,1","+0209,1","+0110,1","99999,9","12,0000,9,1","24,0000,9,1","1,1,06,1","1,1,06,1",,"06,99,1,03,1,03,1,01250,1,07,1,02,1","999,N,+0159,1",,"7,1,001,1,+999,9","14,1","SYN082AAXX  17061 01108 11688 61607 10209 20110 57001 60002 71411 83372 333 20159 70000;","Q01  00002PRCP24Q02  00002PRCP12"
"01108099999","2010-07-17T12:00:00","4","65.7","11.85","9.1","VEGA VALLSJO, NO","FM-12","99999","V020","250,1,N,0040,1","07500,1,9,N","065000,1,N,1","+0173,1","+0111,1","99999,9",,,"1,1,06,1","1,1,06,1",,"05,99,1,02,1,02,1,00450,1,04,1,02,1",,,"2,1,028,1,+999,9","02,1","SYN066AAXX  17121 01108 11487 52504 10173 20111 52028 6//// 70211 82242;",
"01108099999","2010-07-17T18:00:00","4","65.7","11.85","9.1","VEGA VALLSJO, NO","FM-12","99999","V020","040,1,N,0030,1","22000,1,9,N","075000,1,N,1","+0165,1","+0117,1","99999,9","12,0000,9,1",,"1,1,06,1","0,1,06,1",,"03,99,1,01,1,04,1,01250,1,00,1,04,1","999,M,+0214,1",,"7,1,015,1,+999,9","03,1","SYN076AAXX  17181 01108 11689 30403 10165 20117 57015 60002 70310 81404 333 10214;","Q01  00002PRCP12"
"01108099999","2010-07-18T06:00:00","4","65.7","11.85","9.1","VEGA VALLSJO, NO","FM-12","99999","V020","230,1,N,0090,1","00750,1,9,N","060000,1,N,1","+0155,1","+0117,1","99999,9","12,0000,9,1","24,0000,9,1","2,1,06,1","2,1,06,1",,"07,99,1,05,1,07,1,00800,1,02,1,08,1","999,N,+0135,1",,"6,1,010,1,+999,9","15,1","SYN082AAXX  18061 01108 11586 72309 10155 20117 56010 60002 71522 85728 333 20135 70000;","Q01  00002PRCP24Q02  00002PRCP12"
"01108099999","2010-07-18T12:00:00","4","65.7","11.85","9.1","VEGA VALLSJO, NO","FM-12","99999","V020","210,1,N,0090,1","00120,1,9,N","010000,1,N,1","+0125,1","+0112,1","99999,9",,,"8,1,06,1","2,1,06,1",,"08,99,1,08,1,09,1,00150,1,99,9,99,9",,,"2,1,044,1,+999,9","81,1","SYN066AAXX  18121 01108 11260 82109 10125 20112 52044 6//// 78182 889//;",
"01108099999","2010-07-18T18:00:00","4","65.7","11.85","9.1","VEGA VALLSJO, NO","FM-12","99999","V020","210,1,N,0070,1","03000,1,9,N","030000,1,N,1","+0130,1","+0102,1","99999,9","12,0008,9,1",,"8,1,06,1","2,1,06,1",,"06,99,1,03,1,09,1,00450,1,07,1,00,1","999,M,+0163,1",,"1,1,013,1,+999,9","15,1","SYN076AAXX  18181 01108 11480 62107 10130 20102 51013 69972 71582 83970 333 10163;",
"01108099999","2010-07-19T06:00:00","4","65.7","11.85","9.1","VEGA VALLSJO, NO","FM-12","99999","V020","150,1,N,0090,1","00420,1,9,N","012000,1,N,1","+0121,1","+0097,1","99999,9","12,0030,9,1","24,0038,9,1","6,1,06,1","2,1,06,1",,"08,99,1,06,1,07,1,00450,1,02,1,99,9","999,N,+0115,1",,"7,1,025,1,+999,9","63,1","SYN082AAXX  19061 01108 11462 81509 10121 20097 57025 60032 76362 8672/ 333 20115 70038;",
"01108099999","2010-07-19T12:00:00","4","65.7","11.85","9.1","VEGA VALLSJO, NO","FM-12","99999","V020","210,1,N,0080,1","03000,1,9,N","025000,1,N,1","+0141,1","+0118,1","99999,9",,,"8,1,06,1","6,1,06,1",,"06,99,1,04,1,09,1,00150,1,04,1,09,1",,,"2,1,009,1,+999,9","15,1","SYN066AAXX  19121 01108 11275 62108 10141 20118 52009 6//// 71586 84949;",
"01108099999","2010-07-19T18:00:00","4","65.7","11.85","9.1","VEGA VALLSJO, NO","FM-12","99999","V020","210,1,N,0060,1","00060,1,9,N","005000,1,N,1","+0117,1","+0111,1","99999,9","12,0010,9,1",,"8,1,06,1","2,1,06,1",,"07,99,1,07,1,09,1,00075,1,99,9,99,9","999,M,+0144,1",,"2,1,001,1,+999,9","80,1","SYN076AAXX  19181 01108 11150 72106 10117 20111 52001 69992 78082 879// 333 10144;",
"01108099999","2010-07-20T06:00:00","4","65.7","11.85","9.1","VEGA VALLSJO, NO","FM-12","99999","V020","210,1,N,0060,1","00060,1,9,N","025000,1,N,1","+0118,1","+0105,1","99999,9","12,0041,9,1","24,0046,9,1","8,1,06,1","2,1,06,1",,"08,99,1,05,1,09,1,00075,1,07,1,99,9","999,N,+0111,1",,"4,1,000,1,+999,9","15,1","SYN082AAXX  20061 01108 11175 82106 10118 20105 54000 60042 71582 8597/ 333 20111 70045;",
"01108099999","2010-07-20T12:00:00","4","65.7","11.85","9.1","VEGA VALLSJO, NO","FM-12","99999","V020","220,1,N,0060,1","00120,1,9,N","020000,1,N,1","+0132,1","+0111,1","99999,9",,,"8,1,06,1","8,1,06,1",,"07,99,1,07,1,09,1,00150,1,99,9,99,9",,,"0,1,002,1,+999,9","25,1","SYN066AAXX  20121 01108 11270 72206 10132 20111 50002 6//// 72588 879//;",
"01108099999","2010-07-20T18:00:00","4","65.7","11.85","9.1","VEGA VALLSJO, NO","FM-12","99999","V020","270,1,N,0020,1","00060,1,9,N","020000,1,N,1","+0115,1","+0110,1","99999,9","12,0020,9,1",,"2,1,06,1","2,1,06,1",,"08,99,1,06,1,07,1,00075,1,02,1,99,9","999,M,+0138,1",,"7,1,005,1,+999,9","60,1","SYN076AAXX  20181 01108 11170 82702 10115 20110 57005 60022 76022 8672/ 333 10138;",
"01108099999","2010-07-21T06:00:00","4","65.7","11.85","9.1","VEGA VALLSJO, NO","FM-12","99999","V020","020,1,N,0050,1","03000,1,9,N","050000,1,N,1","+0105,1","+0091,1","99999,9","12,0000,2,1","24,0025,9,1","2,1,06,1","2,1,06,1",,"07,99,1,01,1,06,1,00150,1,02,1,08,1","999,N,+0094,1",,"7,1,007,1,+999,9","15,1","SYN082AAXX  21061 01108 11284 70205 10105 20091 57007 69912 71522 81628 333 20094 70025;",
"01108099999","2010-07-21T12:00:00","4","65.7","11.85","9.1","VEGA VALLSJO, NO","FM-12","99999","V020","020,1,N,0060,1","00120,1,9,N","007000,1,N,1","+0103,1","+0095,1","99999,9",,,"6,1,06,1","2,1,06,1",,"08,99,1,07,1,07,1,00150,1,02,1,99,9",,,"7,1,015,1,+999,9","63,1","SYN066AAXX  21121 01108 11257 80206 10103 20095 57015 6//// 76362 8772/;",
"01108099999","2010-07-21T18:00:00","4","65.7","11.85","9.1","VEGA VALLSJO, NO","FM-12","99999","V020","360,1,N,0040,1","00120,1,9,N","020000,1,N,1","+0101,1","+0093,1","99999,9","12,0071,9,1",,"6,1,06,1","6,1,06,1",,"08,99,1,06,1,07,1,00150,1,02,1,99,9","999,M,+0107,1",,"7,1,004,1,+999,9","61,1","SYN076AAXX  21181 01108 11270 83604 10101 20093 57004 60072 76166 8672/ 333 10107;",
"01108099999","2010-07-22T06:00:00","4","65.7","11.85","9.1","VEGA VALLSJO, NO","FM-12","99999","V020","360,1,N,0090,1","00120,1,9,N","007000,1,N,1","+0097,1","+0091,1","99999,9","12,0061,9,1","24,0127,9,1","6,1,06,1","6,1,06,1",,"08,99,1,07,1,07,1,00150,1,02,1,99,9","999,N,+0096,1",,"6,1,011,1,+999,9","63,1","SYN082AAXX  22061 01108 11257 83609 10097 20091 56011 60062 76366 8772/ 333 20096 70127;",
"01108099999","2010-07-22T12:00:00","4","65.7","11.85","9.1","VEGA VALLSJO, NO","FM-12","99999","V020","350,1,N,0080,1","00210,1,9,N","020000,1,N,1","+0097,1","+0080,1","99999,9",,,"6,1,06,1","6,1,06,1",,"08,99,1,06,1,07,1,00250,1,02,1,99,9",,,"2,1,011,1,+999,9","61,1","SYN066AAXX  22121 01108 11370 83508 10097 20080 52011 6//// 76166 8672/;",
"01108099999","2010-07-22T18:00:00","4","65.7","11.85","9.1","VEGA VALLSJO, NO","FM-12","99999","V020","320,1,N,0080,1","00420,1,9,N","020000,1,N,1","+0092,1","+0063,1","99999,9","12,0030,9,1",,"8,1,06,1","6,1,06,1",,"07,99,1,07,1,09,1,00450,1,99,9,99,9","999,M,+0099,1",,"2,1,035,1,+999,9","80,1","SYN076AAXX  22181 01108 11470 73208 10092 20063 52035 60032 78086 879// 333 10099;",
"01108099999","2010-07-23T06:00:00","4","65.7","11.85","9.1","VEGA VALLSJO, NO","FM-12","99999","V020","290,1,N,0050,1","00750,1,9,N","050000,1,N,1","+0099,1","+0047,1","99999,9","12,0005,9,1","24,0038,9,1","8,1,06,1","2,1,06,1",,"06,99,1,05,1,09,1,00800,1,06,1,00,1","999,N,+0082,1",,"2,1,025,1,+999,9","25,1","SYN082AAXX  23061 01108 11584 62905 10099 20047 52025 69942 72582 85960 333 20082 70037;",
"01108099999","2010-07-23T12:00:00","4","65.7","11.85","9.1","VEGA VALLSJO, NO","FM-12","99999","V020","220,1,N,0050,1","22000,1,9,N","070000,1,N,1","+0120,1","+0052,1","99999,9",,,"8,1,06,1","1,1,06,1",,"03,99,1,02,1,09,1,00800,1,06,1,00,1",,,"2,1,008,1,+999,9","15,1","SYN066AAXX  23121 01108 11588 32205 10120 20052 52008 6//// 71581 82960;",
"01108099999","2010-07-23T18:00:00","4","65.7","11.85","9.1","VEGA VALLSJO, NO","FM-12","99999","V020","270,1,N,0030,1","22000,1,9,N","075000,1,N,1","+0117,1","+0062,1","99999,9","12,0000,2,1",,"0,1,06,1","0,1,06,1",,"01,99,1,01,1,04,1,00800,1,00,1,01,1","999,M,+0123,1",,"8,1,005,1,+999,9","02,1","SYN076AAXX  23181 01108 11589 12703 10117 20062 58005 69902 70200 81401 333 10123;",
"01108099999","2010-07-24T06:00:00","4","65.7","11.85","9.1","VEGA VALLSJO, NO","FM-12","99999","V020","050,1,N,0020,1","99999,9,9,N","075000,1,N,1","+0108,1","+0077,1","99999,9","12,0000,9,1","24,0000,2,1","1,1,06,1","1,1,06,1",,"05,99,1,01,1,00,1,99999,9,03,1,09,1","999,N,+0052,1",,"6,1,002,1,+999,9","02,1","SYN082AAXX  24061 01108 11989 50502 10108 20077 56002 60002 70211 81039 333 20052 79999;","Q01  00002PRCP12"
"01108099999","2010-07-24T12:00:00","4","65.7","11.85","9.1","VEGA VALLSJO, NO","FM-12","99999","V020","010,1,N,0050,1","22000,1,9,N","075000,1,N,1","+0125,1","+0078,1","99999,9",,,"1,1,06,1","0,1,06,1",,"01,99,1,01,1,01,1,01250,1,00,1,01,1",,,"8,1,006,1,+999,9","02,1","SYN066AAXX  24121 01108 11689 10105 10125 20078 58006 6//// 70210 81101;",
"01108099999","2010-07-24T18:00:00","4","65.7","11.85","9.1","VEGA VALLSJO, NO","FM-12","99999","V020","010,1,N,0050,1","22000,1,9,N","075000,1,N,1","+0122,1","+0087,1","99999,9","12,0000,9,1",,"0,1,06,1","0,1,06,1",,"01,99,1,01,1,04,1,01250,1,00,1,01,1","999,M,+0132,1",,"7,1,005,1,+999,9","02,1","SYN076AAXX  24181 01108 11689 10105 10122 20087 57005 60002 70200 81401 333 10132;","Q01  00002PRCP12"
"01108099999","2010-07-25T06:00:00","4","65.7","11.85","9.1","VEGA VALLSJO, NO","FM-12","99999","V020","050,1,N,0020,1","22000,1,9,N","075000,1,N,1","+0125,1","+0101,1","99999,9","12,0000,9,1","24,0000,9,1","0,1,06,1","0,1,06,1",,"01,99,1,01,1,00,1,99999,9,07,1,04,1","999,N,+0091,1",,"7,1,005,1,+999,9","03,1","SYN082AAXX  25061 01108 11989 10502 10125 20101 57005 60002 70300 81074 333 20091 70000;","Q01  00002PRCP24Q02  00002PRCP12"
"01108099999","2010-07-25T12:00:00","4","65.7","11.85","9.1","VEGA VALLSJO, NO","FM-12","99999","V020","360,1,N,0030,1","22000,1,9,N","075000,1,N,1","+0149,1","+0113,1","99999,9",,,"0,1,06,1","0,1,06,1",,"04,99,1,01,1,01,1,01750,1,00,1,05,1",,,"7,1,003,1,+999,9","03,1","SYN066AAXX  25121 01108 11789 43603 10149 20113 57003 6//// 70300 81105;",
"01108099999","2010-07-25T18:00:00","4","65.7","11.85","9.1","VEGA VALLSJO, NO","FM-12","99999","V020","010,1,N,0040,1","22000,1,9,N","075000,1,N,1","+0141,1","+0111,1","99999,9","12,0000,9,1",,"1,1,06,1","1,1,06,1",,"04,99,1,01,1,01,1,01750,1,07,1,02,1","999,M,+0154,1",,"7,1,005,1,+999,9","02,1","SYN076AAXX  25181 01108 11789 40104 10141 20111 57005 60002 70211 81172 333 10154;","Q01  00002PRCP12"
"01108099999","2010-07-26T06:00:00","4","65.7","11.85","9.1","VEGA VALLSJO, NO","FM-12","99999","V020","070,1,N,0040,1","03000,1,9,N","050000,1,N,1","+0140,1","+0096,1","99999,9","12,9999,9,9","24,9999,9,9","6,1,06,1","2,1,06,1",,"08,99,1,04,1,07,1,01250,1,02,1,07,1","999,N,+0122,1",,"6,1,009,1,+999,9","60,1","SYN082AAXX  26061 01108 11684 80704 10140 20096 56009 69912 76062 84727 333 20122 70001;","Q01  00002PRCP24Q02  00002PRCP12Q03  00002PRCP12Q04  00002PRCP24"
"01108099999","2010-07-26T12:00:00","4","65.7","11.85","9.1","VEGA VALLSJO, NO","FM-12","99999","V020","090,1,N,0040,1","01200,1,9,N","030000,1,N,1","+0157,1","+0117,1","99999,9",,,"6,1,06,1","2,1,06,1",,"08,99,1,05,1,07,1,01250,1,02,1,99,9",,,"7,1,009,1,+999,9","60,1","SYN066AAXX  26121 01108 11680 80904 10157 20117 57009 6//// 76062 8572/;",
"01108099999","2010-07-26T18:00:00","4","65.7","11.85","9.1","VEGA VALLSJO, NO","FM-12","99999","V020","130,1,N,0040,1","01200,1,9,N","070000,1,N,1","+0172,1","+0133,1","99999,9","12,0000,2,1",,"6,1,06,1","2,1,06,1",,"07,99,1,06,1,02,1,01250,1,02,1,08,1","999,M,+0172,1",,"7,1,013,1,+999,9","15,1","SYN076AAXX  26181 01108 11688 71304 10172 20133 57013 69922 71562 86228 333 10172;",
"01108099999","2010-07-27T06:00:00","4","65.7","11.85","9.1","VEGA VALLSJO, NO","FM-12","99999","V020","210,1,N,0040,1","00060,1,9,N","010000,1,N,1","+0132,1","+0114,1","99999,9","12,9999,9,9","24,0003,9,1","2,1,06,1","2,1,06,1",,"08,99,1,08,1,09,1,00075,1,99,9,99,9","999,N,+0132,1",,"2,1,013,1,+999,9","80,1","SYN082AAXX  27061 01108 11160 82104 10132 20114 52013 69902 78022 889// 333 20132 70002;","Q01  00002PRCP12Q02  00002PRCP12"
"01108099999","2010-07-27T12:00:00","4","65.7","11.85","9.1","VEGA VALLSJO, NO","FM-12","99999","V020","220,1,N,0070,1","03000,1,9,N","050000,1,N,1","+0145,1","+0113,1","99999,9",,,"8,1,06,1","2,1,06,1",,"07,99,1,04,1,09,1,00250,1,06,1,02,1",,,"2,1,006,1,+999,9","15,1","SYN066AAXX  27121 01108 11384 72207 10145 20113 52006 6//// 71582 84962;",
"01108099999","2010-07-27T18:00:00","4","65.7","11.85","9.1","VEGA VALLSJO, NO","FM-12","99999","V020","210,1,N,0050,1","00210,1,9,N","045000,1,N,1","+0132,1","+0113,1","99999,9","12,0000,2,1",,"8,1,06,1","2,1,06,1",,"08,99,1,08,1,09,1,00250,1,99,9,99,9","999,M,+0155,1",,"2,1,008,1,+999,9","15,1","SYN076AAXX  27181 01108 11383 82105 10132 20113 52008 69902 71582 889// 333 10155;",
"01108099999","2010-07-28T06:00:00","4","65.7","11.85","9.1","VEGA VALLSJO, NO","FM-12","99999","V020","040,1,N,0030,1","22000,1,9,N","065000,1,N,1","+0126,1","+0108,1","99999,9","12,0000,9,1","24,0000,2,1","1,1,06,1","0,1,06,1",,"02,99,1,01,1,04,1,01750,1,00,1,04,1","999,N,+0079,1",,"8,1,003,1,+999,9","02,1","SYN082AAXX  28061 01108 11787 20403 10126 20108 58003 60002 70210 81404 333 20079 79999;","Q01  00002PRCP12"
"01108099999","2010-07-28T12:00:00","4","65.7","11.85","9.1","VEGA VALLSJO, NO","FM-12","99999","V020","360,1,N,0050,1","22000,1,9,N","075000,1,N,1","+0135,1","+0107,1","99999,9",,,"1,1,06,1","0,1,06,1",,"01,99,1,01,1,01,1,00450,1,06,1,01,1",,,"1,1,003,1,+999,9","01,1","SYN066AAXX  28121 01108 11489 13605 10135 20107 51003 6//// 70110 81161;",
"01108099999","2010-07-28T18:00:00","4","65.7","11.85","9.1","VEGA VALLSJO, NO","FM-12","99999","V020","360,1,N,0080,1","22000,1,9,N","075000,1,N,1","+0125,1","+0106,1","99999,9","12,0000,9,1",,"0,1,06,1","0,1,06,1",,"01,99,1,01,1,01,1,00450,1,03,1,01,1","999,M,+0137,1",,"2,1,001,1,+999,9","02,1","SYN076AAXX  28181 01108 11489 13608 10125 20106 52001 60002 70200 81131 333 10137;","Q01  00002PRCP12"
"01108099999","2010-07-29T06:00:00","4","65.7","11.85","9.1","VEGA VALLSJO, NO","FM-12","99999","V020","010,1,N,0060,1","00120,1,9,N","040000,1,N,1","+0105,1","+0094,1","99999,9","12,0000,9,1","24,0000,9,1","2,1,06,1","1,1,06,1",,"07,99,1,07,1,06,1,00150,1,99,9,99,9","999,N,+0104,1",,"7,1,006,1,+999,9","03,1","SYN082AAXX  29061 01108 11282 70106 10105 20094 57006 60002 70321 876// 333 20104 70000;","Q01  00002PRCP24Q02  00002PRCP12"
"01108099999","2010-07-29T12:00:00","4","65.7","11.85","9.1","VEGA VALLSJO, NO","FM-12","99999","V020","360,1,N,0060,1","03000,1,9,N","050000,1,N,1","+0127,1","+0108,1","99999,9",,,"2,1,06,1","1,1,06,1",,"06,99,1,01,1,06,1,00150,1,07,1,05,1",,,"7,1,010,1,+999,9","03,1","SYN066AAXX  29121 01108 11284 63606 10127 20108 57010 6//// 70321 81675;",
"01108099999","2010-07-29T18:00:00","4","65.7","11.85","9.1","VEGA VALLSJO, NO","FM-12","99999","V020","160,1,N,0020,1","03000,1,9,N","060000,1,N,1","+0130,1","+0114,1","99999,9","12,0000,9,1",,"2,1,06,1","2,1,06,1",,"07,99,1,01,1,06,1,00250,1,07,1,06,1","999,M,+0141,1",,"7,1,015,1,+999,9","03,1","SYN076AAXX  29181 01108 11386 71602 10130 20114 57015 60002 70322 81676 333 10141;","Q01  00002PRCP12"
"01108099999","2010-07-30T06:00:00","4","65.7","11.85","9.1","VEGA VALLSJO, NO","FM-12","99999","V020","360,1,N,0010,1","01200,1,9,N","050000,1,N,1","+0169,1","+0151,1","99999,9","12,0020,9,1","24,0023,9,1","8,1,06,1","6,1,06,1",,"07,99,1,07,1,09,1,01250,1,99,9,99,9","999,N,+0125,1",,"6,1,015,1,+999,9","15,1","SYN082AAXX  30061 01108 11684 73601 10169 20151 56015 60022 71586 879// 333 20125 70023;",
"01108099999","2010-07-30T12:00:00","4","65.7","11.85","9.1","VEGA VALLSJO, NO","FM-12","99999","V020","220,1,N,0010,1","00030,1,9,N","001500,1,N,1","+0169,1","+0169,1","99999,9",,,"6,1,06,1","2,1,06,1",,"08,99,1,07,1,07,1,00025,1,02,1,99,9",,,"7,1,021,1,+999,9","63,1","SYN066AAXX  30121 01108 11015 82201 10169 20169 57021 6//// 76362 8772/;",
"01108099999","2010-07-30T18:00:00","4","65.7","11.85","9.1","VEGA VALLSJO, NO","FM-12","99999","V020","150,1,N,0050,1","03000,1,9,N","050000,1,N,1","+0177,1","+0157,1","99999,9","12,0140,9,1",,"6,1,06,1","6,1,06,1",,"08,99,1,04,1,07,1,00800,1,02,1,99,9","999,M,+0177,1",,"7,1,003,1,+999,9","21,1","SYN076AAXX  30181 01108 11584 81505 10177 20157 57003 60142 72166 8472/ 333 10177;",
"01108099999","2010-07-31T06:00:00","4","65.7","11.85","9.1","VEGA VALLSJO, NO","FM-12","99999","V020","210,1,N,0080,1","00120,1,9,N","002000,1,N,1","+0125,1","+0120,1","99999,9","12,0041,9,1","24,0183,9,1","6,1,06,1","2,1,06,1",,"08,99,1,07,1,07,1,00150,1,02,1,99,9","999,N,+0125,1",,"3,1,014,1,+999,9","59,1","SYN082AAXX  31061 01108 11220 82108 10125 20120 53014 60042 75962 8772/ 333 20125 70182;",
"01108099999","2010-07-31T12:00:00","4","65.7","11.85","9.1","VEGA VALLSJO, NO","FM-12","99999","V020","210,1,N,0090,1","00210,1,9,N","025000,1,N,1","+0134,1","+0104,1","99999,9",,,"6,1,06,1","5,1,06,1",,"08,99,1,06,1,09,1,00250,1,06,1,99,9",,,"2,1,015,1,+999,9","15,1","SYN066AAXX  31121 01108 11375 82109 10134 20104 52015 6//// 71565 8696/;",
"01108099999","2010-07-31T18:00:00","4","65.7","11.85","9.1","VEGA VALLSJO, NO","FM-12","99999","V020","210,1,N,0070,1","00210,1,9,N","020000,1,N,1","+0126,1","+0103,1","99999,9","12,0030,9,1",,"8,1,06,1","2,1,06,1",,"07,99,1,07,1,09,1,00250,1,99,9,99,9","999,M,+0140,1",,"2,1,008,1,+999,9","80,1","SYN076AAXX  31181 01108 11370 72107 10126 20103 52008 60032 78082 879// 333 10140;",
"01108099999","2010-08-01T06:00:00","4","65.7","11.85","9.1","VEGA VALLSJO, NO","FM-12","99999","V020","210,1,N,0030,1","00210,1,9,N","030000,1,N,1","+0131,1","+0103,1","99999,9","12,0000,2,1","24,0028,9,1","2,1,06,1","2,1,06,1",,"06,99,1,06,1,02,1,00250,1,99,9,99,9","999,N,+0121,1",,"2,1,009,1,+999,9","02,1","SYN082AAXX  01061 01108 11380 62103 10131 20103 52009 69902 70222 862// 333 20121 70027;",
"01108099999","2010-08-01T12:00:00","4","65.7","11.85","9.1","VEGA VALLSJO, NO","FM-12","99999","V020","240,1,N,0040,1","07500,1,9,N","030000,1,N,1","+0148,1","+0110,1","99999,9",,,"2,1,06,1","1,1,06,1",,"05,99,1,02,1,03,1,00450,1,03,1,02,1",,,"2,1,001,1,+999,9","15,1","SYN066AAXX  01121 01108 11480 52404 10148 20110 52001 6//// 71521 82332;",
"01108099999","2010-08-01T18:00:00","4","65.7","11.85","9.1","VEGA VALLSJO, NO","FM-12","99999","V020","270,1,N,0030,1","22000,1,9,N","050000,1,N,1","+0131,1","+0105,1","99999,9","12,0000,9,1",,"2,1,06,1","1,1,06,1",,"04,99,1,02,1,09,1,00150,1,06,1,02,1","999,M,+0149,1",,"2,1,004,1,+999,9","15,1","SYN076AAXX  01181 01108 11284 42703 10131 20105 52004 60002 71521 82962 333 10149;","Q01  00002PRCP12"
"01108099999","2010-08-02T06:00:00","4","65.7","11.85","9.1","VEGA VALLSJO, NO","FM-12","99999","V020","210,1,N,0040,1","00120,1,9,N","007000,1,N,1","+0119,1","+0108,1","99999,9","12,9999,9,9","24,9999,9,9","8,1,06,1","2,1,06,1",,"07,99,1,07,1,09,1,00150,1,99,9,99,9","999,N,+0116,1",,"2,1,010,1,+999,9","80,1","SYN082AAXX  02061 01108 11257 72104 10119 20108 52010 69912 78082 879// 333 20116 70001;","Q01  00002PRCP24Q02  00002PRCP12Q03  00002PRCP12Q04  00002PRCP24"
"01108099999","2010-08-02T12:00:00","4","65.7","11.85","9.1","VEGA VALLSJO, NO","FM-12","99999","V020","210,1,N,0070,1","00210,1,9,N","020000,1,N,1","+0142,1","+0102,1","99999,9",,,"8,1,06,1","2,1,06,1",,"07,99,1,07,1,09,1,00250,1,99,9,99,9",,,"2,1,002,1,+999,9","80,1","SYN066AAXX  02121 01108 11370 72107 10142 20102 52002 6//// 78082 879//;",
"01108099999","2010-08-02T18:00:00","4","65.7","11.85","9.1","VEGA VALLSJO, NO","FM-12","99999","V020","210,1,N,0070,1","00210,1,9,N","030000,1,N,1","+0136,1","+0120,1","99999,9","12,0003,9,1",,"8,1,06,1","2,1,06,1",,"07,99,1,06,1,09,1,00250,1,06,1,99,9","999,M,+0150,1",,"7,1,009,1,+999,9","15,1","SYN076AAXX  02181 01108 11380 72107 10136 20120 57009 69932 71582 8696/ 333 10150;",
"01108099999","2010-08-03T06:00:00","4","65.7","11.85","9.1","VEGA VALLSJO, NO","FM-12","99999","V020","240,1,N,0030,1","00120,1,9,N","003000,1,N,1","+0110,1","+0105,1","99999,9","12,0010,9,1","24,0015,9,1","8,1,06,1","2,1,06,1",,"08,99,1,08,1,09,1,00150,1,99,9,99,9","999,N,+0109,1",,"2,1,003,1,+999,9","80,1","SYN082AAXX  03061 01108 11230 82403 10110 20105 52003 60012 78082 889// 333 20109 70014;",
"01108099999","2010-08-03T12:00:00","4","65.7","11.85","9.1","VEGA VALLSJO, NO","FM-12","99999","V020","110,1,N,0030,1","00060,1,9,N","005000,1,N,1","+0115,1","+0112,1","99999,9",,,"8,1,06,1","8,1,06,1",,"08,99,1,08,1,09,1,00075,1,99,9,99,9",,,"7,1,005,1,+999,9","80,1","SYN066AAXX  03121 01108 11150 81103 10115 20112 57005 6//// 78088 889//;",
"01108099999","2010-08-03T18:00:00","4","65.7","11.85","9.1","VEGA VALLSJO, NO","FM-12","99999","V020","260,1,N,0020,1","03000,1,9,N","070000,1,N,1","+0123,1","+0093,1","99999,9","12,0005,9,1",,"8,1,06,1","2,1,06,1",,"07,99,1,04,1,09,1,00250,1,06,1,02,1","999,M,+0136,1",,"7,1,005,1,+999,9","15,1","SYN076AAXX  03181 01108 11388 72602 10123 20093 57005 69952 71582 84962 333 10136;",
"01108099999","2010-08-04T06:00:00","4","65.7","11.85","9.1","VEGA VALLSJO, NO","FM-12","99999","V020","020,1,N,0020,1","03000,1,9,N","075000,1,N,1","+0118,1","+0105,1","99999,9","12,0000,9,1","24,0005,9,1","8,1,06,1","1,1,06,1",,"06,99,1,03,1,09,1,01250,1,06,1,01,1","999,N,+0095,1",,"7,1,007,1,+999,9","15,1","SYN082AAXX  04061 01108 11689 60202 10118 20105 57007 69902 71581 83961 333 20095 70005;","Q01  00002PRCP12"
"01108099999","2010-08-04T12:00:00","4","65.7","11.85","9.1","VEGA VALLSJO, NO","FM-12","99999","V020","360,1,N,0040,1","22000,1,9,N","075000,1,N,1","+0136,1","+0111,1","99999,9",,,"2,1,06,1","1,1,06,1",,"02,99,1,01,1,02,1,01250,1,06,1,02,1",,,"7,1,009,1,+999,9","01,1","SYN066AAXX  04121 01108 11689 23604 10136 20111 57009 6//// 70121 81262;",
"01108099999","2010-08-04T18:00:00","4","65.7","11.85","9.1","VEGA VALLSJO, NO","FM-12","99999","V020","360,1,N,0040,1","22000,1,9,N","075000,1,N,1","+0128,1","+0112,1","99999,9","12,0000,9,1",,"0,1,06,1","0,1,06,1",,"02,99,1,01,1,06,1,00250,1,06,1,04,1","999,M,+0141,1",,"6,1,003,1,+999,9","03,1","SYN076AAXX  04181 01108 11389 23604 10128 20112 56003 60002 70300 81664 333 10141;","Q01  00002PRCP12"
"01108099999","2010-08-05T06:00:00","4","65.7","11.85","9.1","VEGA VALLSJO, NO","FM-12","99999","V020","360,1,N,0050,1","00120,1,9,N","030000,1,N,1","+0112,1","+0101,1","99999,9","12,0000,9,1","24,0000,9,1","2,1,06,1","1,1,06,1",,"07,99,1,07,1,06,1,00150,1,99,9,99,9","999,N,+0112,1",,"2,1,014,1,+999,9","02,1","SYN082AAXX  05061 01108 11280 73605 10112 20101 52014 60002 70221 876// 333 20112 70000;","Q01  00002PRCP24Q02  00002PRCP12"
"01108099999","2010-08-05T12:00:00","4","65.7","11.85","9.1","VEGA VALLSJO, NO","FM-12","99999","V020","020,1,N,0040,1","03000,1,9,N","050000,1,N,1","+0124,1","+0096,1","99999,9",,,"2,1,06,1","2,1,06,1",,"07,99,1,03,1,06,1,00150,1,02,1,06,1",,,"2,1,011,1,+999,9","02,1","SYN066AAXX  05121 01108 11284 70204 10124 20096 52011 6//// 70222 83626;",
"01108099999","2010-08-05T18:00:00","4","65.7","11.85","9.1","VEGA VALLSJO, NO","FM-12","99999","V020","010,1,N,0050,1","07500,1,9,N","060000,1,N,1","+0116,1","+0100,1","99999,9","12,0000,9,1",,"2,1,06,1","2,1,06,1",,"05,99,1,01,1,06,1,00250,1,07,1,02,1","999,M,+0128,1",,"2,1,001,1,+999,9","01,1","SYN076AAXX  05181 01108 11386 50105 10116 20100 52001 60002 70122 81672 333 10128;","Q01  00002PRCP12"
"01108099999","2010-08-06T06:00:00","4","65.7","11.85","9.1","VEGA VALLSJO, NO","FM-12","99999","V020","070,1,N,0020,1","22000,1,9,N","075000,1,N,1","+0147,1","+0132,1","99999,9","12,0000,9,1","24,0000,9,1","0,1,06,1","0,1,06,1",,"04,99,1,01,1,04,1,01750,1,04,1,06,1","999,N,+0091,1",,"1,1,005,1,+999,9","03,1","SYN082AAXX  06061 01108 11789 40702 10147 20132 51005 60002 70300 81446 333 20091 70000;","Q01  00002PRCP24Q02  00002PRCP12"
"01108099999","2010-08-06T12:00:00","4","65.7","11.85","9.1","VEGA VALLSJO, NO","FM-12","99999","V020","120,1,N,0050,1","03000,1,9,N","075000,1,N,1","+0219,1","+0127,1","99999,9",,,"6,1,06,1","2,1,06,1",,"07,99,1,02,1,02,1,01250,1,02,1,06,1",,,"2,1,001,1,+999,9","03,1","SYN066AAXX  06121 01108 11689 71205 10219 20127 52001 6//// 70362 82226;",
"01108099999","2010-08-06T18:00:00","4","65.7","11.85","9.1","VEGA VALLSJO, NO","FM-12","99999","V020","120,1,N,0060,1","00750,1,9,N","040000,1,N,1","+0170,1","+0139,1","99999,9","12,0008,9,1",,"2,1,06,1","2,1,06,1",,"07,99,1,05,1,09,1,00800,1,09,1,02,1","999,M,+0236,1",,"2,1,005,1,+999,9","29,1","SYN076AAXX  06181 01108 11582 71206 10170 20139 52005 69972 72922 85992 333 10236;",
"01108099999","2010-08-07T06:00:00","4","65.7","11.85","9.1","VEGA VALLSJO, NO","FM-12","99999","V020","210,1,N,0050,1","00120,1,9,N","050000,1,N,1","+0145,1","+0129,1","99999,9","12,0041,9,1","24,0051,9,1","8,1,06,1","2,1,06,1",,"07,99,1,07,1,02,1,00150,1,99,9,99,9","999,N,+0140,1",,"2,1,011,1,+999,9","02,1","SYN082AAXX  07061 01108 11284 72105 10145 20129 52011 60042 70282 872// 333 20140 70051;",
"01108099999","2010-08-07T12:00:00","4","65.7","11.85","9.1","VEGA VALLSJO, NO","FM-12","99999","V020","360,1,N,0030,1","03000,1,9,N","075000,1,N,1","+0152,1","+0122,1","99999,9",,,"2,1,06,1","1,1,06,1",,"06,99,1,01,1,02,1,01250,1,07,1,02,1",,,"6,1,004,1,+999,9","03,1","SYN066AAXX  07121 01108 11689 63603 10152 20122 56004 6//// 70321 81272;",
"01108099999","2010-08-07T18:00:00","4","65.7","11.85","9.1","VEGA VALLSJO, NO","FM-12","99999","V020","350,1,N,0030,1","07500,1,9,N","075000,1,N,1","+0142,1","+0121,1","99999,9","12,0000,9,1",,"2,1,06,1","2,1,06,1",,"05,99,1,01,1,01,1,01250,1,07,1,02,1","999,M,+0163,1",,"7,1,008,1,+999,9","02,1","SYN076AAXX  07181 01108 11689 53503 10142 20121 57008 60002 70222 81172 333 10163;","Q01  00002PRCP12"
"01108099999","2010-08-08T06:00:00","4","65.7","11.85","9.1","VEGA VALLSJO, NO","FM-12","99999","V020","030,1,N,0030,1","03000,1,9,N","040000,1,N,1","+0132,1","+0121,1","99999,9","12,0000,9,1","24,0000,9,1","1,1,06,1","1,1,06,1",,"06,99,1,03,1,06,1,00150,1,08,1,09,1","999,N,+0119,1",,"7,1,003,1,+999,9","03,1","SYN082AAXX  08061 01108 11282 60303 10132 20121 57003 60002 70311 83689 333 20119 70000;","Q01  00002PRCP24Q02  00002PRCP12"
"01108099999","2010-08-08T12:00:00","4","65.7","11.85","9.1","VEGA VALLSJO, NO","FM-12","99999","V020","360,1,N,0080,1","00060,1,9,N","025000,1,N,1","+0132,1","+0119,1","99999,9",,,"2,1,06,1","2,1,06,1",,"07,99,1,07,1,06,1,00075,1,99,9,99,9",,,"7,1,003,1,+999,9","02,1","SYN066AAXX  08121 01108 11175 73608 10132 20119 57003 6//// 70222 876//;",
"01108099999","2010-08-08T18:00:00","4","65.7","11.85","9.1","VEGA VALLSJO, NO","FM-12","99999","V020","330,1,N,0020,1","03000,1,9,N","040000,1,N,1","+0125,1","+0114,1","99999,9","12,0000,9,1",,"2,1,06,1","2,1,06,1",,"06,99,1,04,1,06,1,00150,1,07,1,01,1","999,M,+0138,1",,"7,1,003,1,+999,9","02,1","SYN076AAXX  08181 01108 11282 63302 10125 20114 57003 60002 70222 84671 333 10138;","Q01  00002PRCP12"
"01108099999","2010-08-09T06:00:00","4","65.7","11.85","9.1","VEGA VALLSJO, NO","FM-12","99999","V020","010,1,N,0050,1","00120,1,9,N","025000,1,N,1","+0116,1","+0107,1","99999,9","12,0000,9,1","24,0000,9,1","2,1,06,1","2,1,06,1",,"07,99,1,07,1,06,1,00150,1,99,9,99,9","999,N,+0114,1",,"6,1,008,1,+999,9","02,1","SYN082AAXX  09061 01108 11275 70105 10116 20107 56008 60002 70222 876// 333 20114 70000;","Q01  00002PRCP24Q02  00002PRCP12"
"01108099999","2010-08-09T12:00:00","4","65.7","11.85","9.1","VEGA VALLSJO, NO","FM-12","99999","V020","360,1,N,0050,1","00210,1,9,N","030000,1,N,1","+0125,1","+0111,1","99999,9",,,"2,1,06,1","2,1,06,1",,"07,99,1,07,1,06,1,00250,1,99,9,99,9",,,"7,1,007,1,+999,9","01,1","SYN066AAXX  09121 01108 11380 73605 10125 20111 57007 6//// 70122 876//;",
"01108099999","2010-08-09T18:00:00","4","65.7","11.85","9.1","VEGA VALLSJO, NO","FM-12","99999","V020","360,1,N,0040,1","22000,1,9,N","030000,1,N,1","+0125,1","+0111,1","10107,1","12,0000,9,1",,"2,1,06,1","2,1,06,1",,"03,99,1,03,1,06,1,00250,1,00,1,00,1","999,M,+0128,1","99999,9,10097,1","7,1,008,1,+999,9","02,1","SYN088AAXX  09181 01108 11380 33604 10125 20111 30097 40107 57008 60002 70222 83600 333 10128;","Q01  00002PRCP12"
"01108099999","2010-08-10T06:00:00","4","65.7","11.85","9.1","VEGA VALLSJO, NO","FM-12","99999","V020","280,1,N,0010,1","00030,1,9,N","005000,1,N,1","+0115,1","+0113,1","10104,1","12,9999,9,9","24,9999,9,9","5,1,06,1","2,1,06,1",,"08,99,1,08,1,06,1,00025,1,99,9,99,9","999,N,+0115,1","99999,9,10093,1","2,1,003,1,+999,9","51,1","SYN094AAXX  10061 01108 11050 82801 10115 20113 30093 40104 52003 69902 75152 886// 333 20115 79999;","Q01  00002PRCP24Q02  00002PRCP12Q03  00002PRCP12Q04  00002PRCP24"
"01108099999","2010-08-10T12:00:00","4","65.7","11.85","9.1","VEGA VALLSJO, NO","FM-12","99999","V020","340,1,N,0020,1","00060,1,9,N","015000,1,N,1","+0121,1","+0113,1","10112,1",,,"5,1,06,1","2,1,06,1",,"08,99,1,08,1,06,1,00075,1,99,9,99,9",,"99999,9,10102,1","0,1,002,1,+999,9","50,1","SYN078AAXX  10121 01108 11165 83402 10121 20113 30102 40112 50002 6//// 75052 886//;",
"01108099999","2010-08-10T18:00:00","4","65.7","11.85","9.1","VEGA VALLSJO, NO","FM-12","99999","V020","010,1,N,0030,1","00030,1,9,N","007000,1,N,1","+0120,1","+0117,1","10108,1","12,0000,2,1",,"5,1,06,1","2,1,06,1",,"08,99,1,08,1,06,1,00025,1,99,9,99,9","999,M,+0125,1","99999,9,10097,1","7,1,004,1,+999,9","50,1","SYN088AAXX  10181 01108 11057 80103 10120 20117 30097 40108 57004 69902 75052 886// 333 10125;",
"01108099999","2010-08-11T06:00:00","4","65.7","11.85","9.1","VEGA VALLSJO, NO","FM-12","99999","V020","020,1,N,0040,1","00030,1,9,N","003000,1,N,1","+0104,1","+0104,1","10102,1","12,0000,2,1","24,0000,2,1","5,1,06,1","2,1,06,1",,"08,99,1,08,1,06,1,00025,1,99,9,99,9","999,N,+0103,1","99999,9,10092,1","7,1,002,1,+999,9","41,1","SYN094AAXX  11061 01108 11030 80204 10104 20104 30092 40102 57002 69912 74152 886// 333 20103 70001;",
"01108099999","2010-08-11T12:00:00","4","65.7","11.85","9.1","VEGA VALLSJO, NO","FM-12","99999","V020","360,1,N,0050,1","22000,1,9,N","040000,1,N,1","+0130,1","+0109,1","10113,1",,,"2,1,06,1","2,1,06,1",,"04,99,1,04,1,06,1,00075,1,00,1,00,1",,"99999,9,10102,1","2,1,008,1,+999,9","01,1","SYN078AAXX  11121 01108 11182 43605 10130 20109 30102 40113 52008 6//// 70122 84600;",
"01108099999","2010-08-11T18:00:00","4","65.7","11.85","9.1","VEGA VALLSJO, NO","FM-12","99999","V020","020,1,N,0040,1","22000,1,9,N","060000,1,N,1","+0122,1","+0108,1","10120,1","12,0000,9,1",,"0,1,06,1","0,1,06,1",,"01,99,1,01,1,06,1,00250,1,00,1,01,1","999,M,+0131,1","99999,9,10110,1","2,1,002,1,+999,9","02,1","SYN088AAXX  11181 01108 11386 10204 10122 20108 30110 40120 52002 60002 70200 81601 333 10131;","Q01  00002PRCP12"
"01108099999","2010-08-12T06:00:00","4","65.7","11.85","9.1","VEGA VALLSJO, NO","FM-12","99999","V020","060,1,N,0020,1","22000,1,9,N","070000,1,N,1","+0133,1","+0124,1","10140,1","12,0000,9,1","24,0000,9,1","0,1,06,1","0,1,06,1",,"02,99,1,01,1,00,1,02250,1,08,1,01,1","999,N,+0105,1","99999,9,10130,1","2,1,006,1,+999,9","02,1","SYN094AAXX  12061 01108 11888 20602 10133 20124 30130 40140 52006 60002 70200 81081 333 20105 70000;","Q01  00002PRCP24Q02  00002PRCP12"
"01108099999","2010-08-12T12:00:00","4","65.7","11.85","9.1","VEGA VALLSJO, NO","FM-12","99999","V020","030,1,N,0020,1","03000,1,9,N","070000,1,N,1","+0171,1","+0142,1","10159,1",,,"2,1,06,1","0,1,06,1",,"07,99,1,01,1,02,1,01250,1,07,1,99,9",,"99999,9,10148,1","2,1,006,1,+999,9","03,1","SYN078AAXX  12121 01108 11688 70302 10171 20142 30148 40159 52006 6//// 70320 8127/;",
"01108099999","2010-08-12T18:00:00","4","65.7","11.85","9.1","VEGA VALLSJO, NO","FM-12","99999","V020","230,1,N,0050,1","03000,1,9,N","025000,1,N,1","+0160,1","+0138,1","10177,1","12,0000,9,1",,"6,1,06,1","2,1,06,1",,"07,99,1,04,1,07,1,01250,1,02,1,99,9","999,M,+0182,1","99999,9,10167,1","2,1,010,1,+999,9","41,1","SYN088AAXX  12181 01108 11675 72305 10160 20138 30167 40177 52010 69902 74162 8472/ 333 10182;","Q01  00002PRCP12"
"01108099999","2010-08-13T06:00:00","4","65.7","11.85","9.1","VEGA VALLSJO, NO","FM-12","99999","V020","240,1,N,0040,1","00060,1,9,N","010000,1,N,1","+0131,1","+0126,1","10217,1","12,0000,9,1","24,0000,9,1","5,1,06,1","4,1,06,1",,"07,99,1,07,1,06,1,00075,1,99,9,99,9","999,N,+0122,1","99999,9,10206,1","2,1,008,1,+999,9","16,1","SYN094AAXX  13061 01108 11160 72404 10131 20126 30206 40217 52008 69902 71654 876// 333 20122 79999;","Q01  00002PRCP24Q02  00002PRCP12"
"01108099999","2010-08-13T12:00:00","4","65.7","11.85","9.1","VEGA VALLSJO, NO","FM-12","99999","V020","260,1,N,0030,1","00030,1,9,N","008000,1,N,1","+0143,1","+0129,1","10222,1",,,"2,1,06,1","2,1,06,1",,"07,99,1,07,1,06,1,00025,1,99,9,99,9",,"99999,9,10212,1","7,1,002,1,+999,9","40,1","SYN078AAXX  13121 01108 11058 72603 10143 20129 30212 40222 57002 6//// 74022 876//;",
"01108099999","2010-08-13T18:00:00","4","65.7","11.85","9.1","VEGA VALLSJO, NO","FM-12","99999","V020","030,1,N,0020,1","00030,1,9,N","000400,1,N,1","+0117,1","+0117,1","10197,1","12,0000,9,1",,"4,1,06,1","4,1,06,1","09,1,+99999,9,99,9","09,99,1,09,1,99,9,99999,9,99,9,99,9","999,M,+0150,1","99999,9,10186,1","7,1,015,1,+999,9","45,1","SYN082AAXX  13181 01108 11/04 90302 10117 20117 30186 40197 57015 69902 74544 333 10150;","Q01  00002PRCP12"
"01108099999","2010-08-14T06:00:00","4","65.7","11.85","9.1","VEGA VALLSJO, NO","FM-12","99999","V020","190,1,N,0080,1","03000,1,9,N","025000,1,N,1","+0214,1","+0161,1","10132,1","12,0000,9,1","24,0000,9,1","2,1,06,1","2,1,06,1",,"07,99,1,02,1,07,1,00800,1,02,1,08,1","999,N,+0116,1","99999,9,10122,1","6,1,018,1,+999,9","15,1","SYN094AAXX  14061 01108 11575 71908 10214 20161 30122 40132 56018 60002 71522 82728 333 20116 79999;","Q01  00002PRCP24Q02  00002PRCP12"
"01108099999","2010-08-14T12:00:00","4","65.7","11.85","9.1","VEGA VALLSJO, NO","FM-12","99999","V020","240,1,N,0070,1","00060,1,9,N","020000,1,N,1","+0129,1","+0124,1","10173,1",,,"8,1,06,1","2,1,06,1",,"08,99,1,08,1,09,1,00075,1,99,9,99,9",,"99999,9,10162,1","2,1,020,1,+999,9","25,1","SYN078AAXX  14121 01108 11170 82407 10129 20124 30162 40173 52020 6//// 72582 889//;",
"01108099999","2010-08-14T18:00:00","4","65.7","11.85","9.1","VEGA VALLSJO, NO","FM-12","99999","V020","240,1,N,0050,1","00120,1,9,N","007000,1,N,1","+0119,1","+0114,1","10179,1","12,0041,9,1",,"8,1,06,1","2,1,06,1",,"08,99,1,08,1,09,1,00150,1,99,9,99,9","999,M,+0214,1","99999,9,10167,1","7,1,003,1,+999,9","81,1","SYN088AAXX  14181 01108 11257 82405 10119 20114 30167 40179 57003 60042 78182 889// 333 10214;",
"01108099999","2010-08-15T06:00:00","4","65.7","11.85","9.1","VEGA VALLSJO, NO","FM-12","99999","V020","360,1,N,0050,1","00750,1,9,N","050000,1,N,1","+0105,1","+0063,1","10248,1","12,0008,9,1","24,0051,9,1","8,1,06,1","2,1,06,1",,"07,99,1,07,1,05,1,00800,1,99,9,99,9","999,N,+0100,1","99999,9,10237,1","2,1,020,1,+999,9","01,1","SYN094AAXX  15061 01108 11584 73605 10105 20063 30237 40248 52020 69972 70182 875// 333 20100 70051;",
"01108099999","2010-08-15T12:00:00","4","65.7","11.85","9.1","VEGA VALLSJO, NO","FM-12","99999","V020","350,1,N,0050,1","01200,1,9,N","055000,1,N,1","+0119,1","+0064,1","10284,1",,,"2,1,06,1","1,1,06,1",,"06,99,1,05,1,02,1,01250,1,00,1,01,1",,"99999,9,10272,1","2,1,016,1,+999,9","03,1","SYN078AAXX  15121 01108 11685 63505 10119 20064 30272 40284 52016 6//// 70321 85201;",
"01108099999","2010-08-15T18:00:00","4","65.7","11.85","9.1","VEGA VALLSJO, NO","FM-12","99999","V020","020,1,N,0050,1","22000,1,9,N","070000,1,N,1","+0103,1","+0040,1","10287,1","12,0000,9,1",,"1,1,06,1","1,1,06,1",,"04,99,1,03,1,01,1,00800,1,00,1,01,1","999,M,+0122,1","99999,9,10275,1","6,1,001,1,+999,9","02,1","SYN088AAXX  15181 01108 11588 40205 10103 20040 30275 40287 56001 60002 70211 83101 333 10122;","Q01  00002PRCP12"
"01108099999","2010-08-16T06:00:00","4","65.7","11.85","9.1","VEGA VALLSJO, NO","FM-12","99999","V020","050,1,N,0040,1","22000,1,9,N","075000,1,N,1","+0099,1","+0043,1","10253,1","12,0000,9,1","24,0000,9,1","0,1,06,1","0,1,06,1",,"01,99,1,00,1,00,1,99999,9,00,1,01,1","999,N,+0085,1","99999,9,10242,1","7,1,014,1,+999,9","02,1","SYN094AAXX  16061 01108 11989 10504 10099 20043 30242 40253 57014 60002 70200 80001 333 20085 70000;","Q01  00002PRCP24Q02  00002PRCP12"
"01108099999","2010-08-16T12:00:00","4","65.7","11.85","9.1","VEGA VALLSJO, NO","FM-12","99999","V020","030,1,N,0040,1","22000,1,9,N","075000,1,N,1","+0139,1","+0045,1","10216,1",,,"0,1,06,1","0,1,06,1",,"01,99,1,00,1,00,1,99999,9,00,1,01,1",,"99999,9,10206,1","7,1,017,1,+999,9","02,1","SYN078AAXX  16121 01108 11989 10304 10139 20045 30206 40216 57017 6//// 70200 80001;",
"01108099999","2010-08-16T18:00:00","4","65.7","11.85","9.1","VEGA VALLSJO, NO","FM-12","99999","V020","080,1,N,0030,1","22000,1,9,N","075000,1,N,1","+0138,1","+0097,1","10175,1","12,0000,9,1",,"0,1,06,1","0,1,06,1",,"01,99,1,00,1,00,1,99999,9,00,1,01,1","999,M,+0142,1","99999,9,10165,1","7,1,020,1,+999,9","02,1","SYN088AAXX  16181 01108 11989 10803 10138 20097 30165 40175 57020 60002 70200 80001 333 10142;","Q01  00002PRCP12"
"01108099999","2010-08-17T06:00:00","4","65.7","11.85","9.1","VEGA VALLSJO, NO","FM-12","99999","V020","080,1,N,0030,1","22000,1,9,N","075000,1,N,1","+0148,1","+0102,1","10129,1","12,0000,9,1","24,0000,9,1","0,1,06,1","0,1,06,1",,"01,99,1,00,1,00,1,99999,9,00,1,01,1","999,N,+0096,1","99999,9,10118,1","7,1,007,1,+999,9","02,1","SYN094AAXX  17061 01108 11989 10803 10148 20102 30118 40129 57007 60002 70200 80001 333 20096 70000;","Q01  00002PRCP24Q02  00002PRCP12"
"01108099999","2010-08-17T12:00:00","4","65.7","11.85","9.1","VEGA VALLSJO, NO","FM-12","99999","V020","010,1,N,0040,1","22000,1,9,N","075000,1,N,1","+0164,1","+0113,1","99999,9",,,"0,1,06,1","0,1,06,1",,"02,99,1,00,1,00,1,99999,9,00,1,02,1",,,"7,1,009,1,+999,9","03,1","SYN066AAXX  17121 01108 11989 20104 10164 20113 57009 6//// 70300 80002;",
"01108099999","2010-08-17T18:00:00","4","65.7","11.85","9.1","VEGA VALLSJO, NO","FM-12","99999","V020","340,1,N,0030,1","99999,9,9,N","075000,1,N,1","+0127,1","+0099,1","99999,9","12,0000,9,1",,"1,1,06,1","0,1,06,1",,"05,99,1,01,1,00,1,99999,9,07,1,02,1","999,M,+0179,1",,"7,1,010,1,+999,9","03,1","SYN076AAXX  17181 01108 11989 53403 10127 20099 57010 60002 70310 81072 333 10179;","Q01  00002PRCP12"
"01108099999","2010-08-18T06:00:00","4","65.7","11.85","9.1","VEGA VALLSJO, NO","FM-12","99999","V020","090,1,N,0020,1","22000,1,9,N","075000,1,N,1","+0150,1","+0123,1","99999,9","12,0000,9,1","24,0000,9,1","1,1,06,1","1,1,06,1",,"04,99,1,01,1,04,1,02250,1,00,1,01,1","999,N,+0096,1",,"2,1,001,1,+999,9","01,1","SYN082AAXX  18061 01108 11889 40902 10150 20123 52001 60002 70111 81401 333 20096 70000;","Q01  00002PRCP24Q02  00002PRCP12"
"01108099999","2010-08-18T12:00:00","4","65.7","11.85","9.1","VEGA VALLSJO, NO","FM-12","99999","V020","030,1,N,0040,1","22000,1,9,N","075000,1,N,1","+0207,1","+0090,1","10079,1",,,"0,1,06,1","0,1,06,1",,"01,99,1,01,1,00,1,99999,9,03,1,01,1",,"99999,9,10068,1","7,1,004,1,+999,9","02,1","SYN078AAXX  18121 01108 11989 10304 10207 20090 30068 40079 57004 6//// 70200 81031;",
"01108099999","2010-08-18T18:00:00","4","65.7","11.85","9.1","VEGA VALLSJO, NO","FM-12","99999","V020","050,1,N,0010,1","22000,1,9,N","075000,1,N,1","+0159,1","+0117,1","10063,1","12,0000,9,1",,"0,1,06,1","0,1,06,1",,"01,99,1,01,1,00,1,99999,9,03,1,01,1","999,M,+0217,1","99999,9,10052,1","6,1,006,1,+999,9","02,1","SYN088AAXX  18181 01108 11989 10501 10159 20117 30052 40063 56006 60002 70200 81031 333 10217;","Q01  00002PRCP12"
"01108099999","2010-08-19T06:00:00","4","65.7","11.85","9.1","VEGA VALLSJO, NO","FM-12","99999","V020","160,1,N,0010,1","22000,1,9,N","075000,1,N,1","+0129,1","+0110,1","10069,1","12,0000,9,1","24,0000,9,1","0,1,06,1","0,1,06,1",,"02,99,1,01,1,04,1,01750,1,00,1,01,1","999,N,+0081,1","99999,9,10058,1","2,1,004,1,+999,9","03,1","SYN094AAXX  19061 01108 11789 21601 10129 20110 30058 40069 52004 60002 70300 81401 333 20081 70000;","Q01  00002PRCP24Q02  00002PRCP12"
"01108099999","2010-08-19T12:00:00","4","65.7","11.85","9.1","VEGA VALLSJO, NO","FM-12","99999","V020","360,1,N,0030,1","22000,1,9,N","075000,1,N,1","+0154,1","+0116,1","10072,1",,,"0,1,06,1","0,1,06,1",,"02,99,1,01,1,01,1,01750,1,00,1,01,1",,"99999,9,10062,1","2,1,001,1,+999,9","02,1","SYN078AAXX  19121 01108 11789 23603 10154 20116 30062 40072 52001 6//// 70200 81101;",
"01108099999","2010-08-19T18:00:00","4","65.7","11.85","9.1","VEGA VALLSJO, NO","FM-12","99999","V020","360,1,N,0010,1","07500,1,9,N","075000,1,N,1","+0135,1","+0105,1","10067,1","12,0000,9,1",,"1,1,06,1","0,1,06,1",,"05,99,1,01,1,00,1,02250,1,08,1,02,1","999,M,+0181,1","99999,9,10057,1","7,1,003,1,+999,9","03,1","SYN088AAXX  19181 01108 11889 53601 10135 20105 30057 40067 57003 60002 70310 81082 333 10181;","Q01  00002PRCP12"
"01108099999","2010-08-20T06:00:00","4","65.7","11.85","9.1","VEGA VALLSJO, NO","FM-12","99999","V020","120,1,N,0050,1","03000,1,9,N","075000,1,N,1","+0159,1","+0093,1","10058,1","12,0000,9,1","24,0000,9,1","2,1,06,1","2,1,06,1",,"06,99,1,01,1,01,1,01750,1,04,1,01,1","999,N,+0085,1","99999,9,10047,1","7,1,001,1,+999,9","03,1","SYN094AAXX  20061 01108 11789 61205 10159 20093 30047 40058 57001 60002 70322 81141 333 20085 70000;","Q01  00002PRCP24Q02  00002PRCP12"
"01108099999","2010-08-20T12:00:00","4","65.7","11.85","9.1","VEGA VALLSJO, NO","FM-12","99999","V020","160,1,N,0070,1","00420,1,9,N","005000,1,N,1","+0152,1","+0123,1","10078,1",,,"2,1,06,1","2,1,06,1",,"08,99,1,08,1,09,1,00450,1,99,9,99,9",,"99999,9,10067,1","2,1,009,1,+999,9","80,1","SYN078AAXX  20121 01108 11450 81607 10152 20123 30067 40078 52009 6//// 78022 889//;",
"01108099999","2010-08-20T18:00:00","4","65.7","11.85","9.1","VEGA VALLSJO, NO","FM-12","99999","V020","200,1,N,0050,1","00120,1,9,N","020000,1,N,1","+0125,1","+0107,1","10096,1","12,0030,9,1",,"8,1,06,1","8,1,06,1",,"08,99,1,08,1,09,1,00150,1,99,9,99,9","999,M,+0178,1","99999,9,10086,1","2,1,009,1,+999,9","80,1","SYN088AAXX  20181 01108 11270 82005 10125 20107 30086 40096 52009 60032 78088 889// 333 10178;",
"01108099999","2010-08-21T06:00:00","4","65.7","11.85","9.1","VEGA VALLSJO, NO","FM-12","99999","V020","110,1,N,0020,1","22000,1,9,N","075000,1,N,1","+0121,1","+0112,1","10057,1","12,0008,9,1","24,0041,9,1","8,1,06,1","1,1,06,1",,"02,99,1,01,1,09,1,01250,1,00,1,04,1","999,N,+0079,1","99999,9,10047,1","7,1,014,1,+999,9","15,1","SYN094AAXX  21061 01108 11689 21102 10121 20112 30047 40057 57014 69972 71581 81904 333 20079 70040;",
"01108099999","2010-08-21T12:00:00","4","65.7","11.85","9.1","VEGA VALLSJO, NO","FM-12","99999","V020","100,1,N,0030,1","03000,1,9,N","075000,1,N,1","+0186,1","+0094,1","10033,1",,,"1,1,06,1","0,1,06,1",,"06,99,1,01,1,01,1,01250,1,08,1,05,1",,"99999,9,10022,1","7,1,009,1,+999,9","03,1","SYN078AAXX  21121 01108 11689 61003 10186 20094 30022 40033 57009 6//// 70310 81185;",
"01108099999","2010-08-21T18:00:00","4","65.7","11.85","9.1","VEGA VALLSJO, NO","FM-12","99999","V020","220,1,N,0060,1","03000,1,9,N","035000,1,N,1","+0151,1","+0126,1","10032,1","12,0000,9,1",,"6,1,06,1","2,1,06,1",,"06,99,1,04,1,09,1,00450,1,06,1,01,1","999,M,+0189,1","99999,9,10022,1","7,1,001,1,+999,9","15,1","SYN088AAXX  21181 01108 11481 62206 10151 20126 30022 40032 57001 69912 71562 84961 333 10189;","Q01  00002PRCP12"
"01108099999","2010-08-22T06:00:00","4","65.7","11.85","9.1","VEGA VALLSJO, NO","FM-12","99999","V020","120,1,N,0020,1","03000,1,9,N","040000,1,N,1","+0125,1","+0119,1","09995,1","12,9999,9,9","24,0003,9,1","6,1,06,1","2,1,06,1",,"08,99,1,01,1,07,1,00450,1,02,1,99,9","999,N,+0117,1","99999,9,09985,1","7,1,013,1,+999,9","60,1","SYN094AAXX  22061 01108 11482 81202 10125 20119 39985 49995 57013 69922 76062 8172/ 333 20117 70003;","Q01  00002PRCP12Q02  00002PRCP12"
"01108099999","2010-08-22T12:00:00","4","65.7","11.85","9.1","VEGA VALLSJO, NO","FM-12","99999","V020","040,1,N,0030,1","03000,1,9,N","060000,1,N,1","+0134,1","+0120,1","09988,1",,,"6,1,06,1","2,1,06,1",,"07,99,1,01,1,02,1,00150,1,02,1,99,9",,"99999,9,09977,1","7,1,005,1,+999,9","01,1","SYN078AAXX  22121 01108 11286 70403 10134 20120 39977 49988 57005 6//// 70162 8122/;",
"01108099999","2010-08-22T18:00:00","4","65.7","11.85","9.1","VEGA VALLSJO, NO","FM-12","99999","V020","060,1,N,0010,1","00120,1,9,N","030000,1,N,1","+0131,1","+0123,1","09975,1","12,0008,9,1",,"8,1,06,1","2,1,06,1",,"07,99,1,07,1,09,1,00150,1,99,9,99,9","999,M,+0140,1","99999,9,09965,1","7,1,006,1,+999,9","25,1","SYN088AAXX  22181 01108 11280 70601 10131 20123 39965 49975 57006 69982 72582 879// 333 10140;",
"01108099999","2010-08-23T06:00:00","4","65.7","11.85","9.1","VEGA VALLSJO, NO","FM-12","99999","V020","220,1,N,0070,1","00120,1,9,N","002000,1,N,1","+0120,1","+0120,1","09968,1","12,0041,9,1","24,0043,9,1","8,1,06,1","2,1,06,1",,"08,99,1,08,1,09,1,00150,1,99,9,99,9","999,N,+0118,1","99999,9,09957,1","7,1,001,1,+999,9","81,1","SYN094AAXX  23061 01108 11220 82207 10120 20120 39957 49968 57001 60042 78182 889// 333 20118 70043;",
"01108099999","2010-08-23T12:00:00","4","65.7","11.85","9.1","VEGA VALLSJO, NO","FM-12","99999","V020","150,1,N,0080,1","00120,1,9,N","005000,1,N,1","+0117,1","+0111,1","09985,1",,,"8,1,06,1","2,1,06,1",,"07,99,1,07,1,09,1,00150,1,99,9,99,9",,"99999,9,09975,1","2,1,009,1,+999,9","80,1","SYN078AAXX  23121 01108 11250 71508 10117 20111 39975 49985 52009 6//// 78082 879//;",
"01108099999","2010-08-23T18:00:00","4","65.7","11.85","9.1","VEGA VALLSJO, NO","FM-12","99999","V020","210,1,N,0040,1","00060,1,9,N","020000,1,N,1","+0127,1","+0121,1","09996,1","12,0061,9,1",,"8,1,06,1","8,1,06,1",,"07,99,1,07,1,09,1,00075,1,99,9,99,9","999,M,+0127,1","99999,9,09986,1","2,1,010,1,+999,9","25,1","SYN088AAXX  23181 01108 11170 72104 10127 20121 39986 49996 52010 60062 72588 879// 333 10127;",
"01108099999","2010-08-24T06:00:00","4","65.7","11.85","9.1","VEGA VALLSJO, NO","FM-12","99999","V020","130,1,N,0020,1","03000,1,9,N","075000,1,N,1","+0096,1","+0093,1","09980,1","12,0008,9,1","24,0071,9,1","8,1,06,1","2,1,06,1",,"05,99,1,03,1,02,1,00800,1,06,1,04,1","999,N,+0083,1","99999,9,09970,1","7,1,010,1,+999,9","02,1","SYN094AAXX  24061 01108 11589 51302 10096 20093 39970 49980 57010 69982 70282 83264 333 20083 70070;",
"01108099999","2010-08-24T12:00:00","4","65.7","11.85","9.1","VEGA VALLSJO, NO","FM-12","99999","V020","060,1,N,0050,1","22000,1,9,N","075000,1,N,1","+0163,1","+0106,1","09970,1",,,"2,1,06,1","1,1,06,1",,"06,99,1,02,1,02,1,01250,1,00,1,06,1",,"99999,9,09960,1","7,1,005,1,+999,9","03,1","SYN078AAXX  24121 01108 11689 60605 10163 20106 39960 49970 57005 6//// 70321 82206;",
"01108099999","2010-08-24T18:00:00","4","65.7","11.85","9.1","VEGA VALLSJO, NO","FM-12","99999","V020","080,1,N,0040,1","03000,1,9,N","075000,1,N,1","+0135,1","+0077,1","09969,1","12,0000,9,1",,"2,1,06,1","2,1,06,1",,"06,99,1,02,1,04,1,01250,1,02,1,08,1","999,M,+0175,1","99999,9,09958,1","7,1,001,1,+999,9","02,1","SYN088AAXX  24181 01108 11689 60804 10135 20077 39958 49969 57001 60002 70222 82428 333 10175;","Q01  00002PRCP12"
"01108099999","2010-08-25T06:00:00","4","65.7","11.85","9.1","VEGA VALLSJO, NO","FM-12","99999","V020","080,1,N,0030,1","22000,1,9,N","075000,1,N,1","+0110,1","+0058,1","09977,1","12,0000,9,1","24,0000,9,1","0,1,06,1","0,1,06,1",,"01,99,1,01,1,01,1,01750,1,07,1,01,1","999,N,+0068,1","99999,9,09967,1","2,1,003,1,+999,9","02,1","SYN094AAXX  25061 01108 11789 10803 10110 20058 39967 49977 52003 60002 70200 81171 333 20068 70000;","Q01  00002PRCP24Q02  00002PRCP12"
"01108099999","2010-08-25T12:00:00","4","65.7","11.85","9.1","VEGA VALLSJO, NO","FM-12","99999","V020","030,1,N,0050,1","22000,1,9,N","075000,1,N,1","+0140,1","+0066,1","09990,1",,,"0,1,06,1","0,1,06,1",,"02,99,1,01,1,02,1,01250,1,00,1,01,1",,"99999,9,09980,1","2,1,007,1,+999,9","03,1","SYN078AAXX  25121 01108 11689 20305 10140 20066 39980 49990 52007 6//// 70300 81201;",
"01108099999","2010-08-25T18:00:00","4","65.7","11.85","9.1","VEGA VALLSJO, NO","FM-12","99999","V020","040,1,N,0030,1","22000,1,9,N","070000,1,N,1","+0126,1","+0079,1","10001,1","12,0000,9,1",,"0,1,06,1","0,1,06,1",,"03,99,1,03,1,09,1,01250,1,00,1,00,1","999,M,+0145,1","99999,9,09991,1","2,1,005,1,+999,9","15,1","SYN088AAXX  25181 01108 11688 30403 10126 20079 39991 40001 52005 60002 71500 83900 333 10145;","Q01  00002PRCP12"
"01108099999","2010-08-26T06:00:00","4","65.7","11.85","9.1","VEGA VALLSJO, NO","FM-12","99999","V020","120,1,N,0040,1","03000,1,9,N","055000,1,N,1","+0106,1","+0080,1","10035,1","12,0000,9,1","24,0000,9,1","8,1,06,1","2,1,06,1",,"06,99,1,04,1,09,1,00800,1,06,1,99,9","999,N,+0098,1","99999,9,10025,1","2,1,005,1,+999,9","15,1","SYN094AAXX  26061 01108 11585 61204 10106 20080 30025 40035 52005 69912 71582 8496/ 333 20098 70001;","Q01  00002PRCP24Q02  00002PRCP12"
"01108099999","2010-08-26T12:00:00","4","65.7","11.85","9.1","VEGA VALLSJO, NO","FM-12","99999","V020","320,1,N,0020,1","00750,1,9,N","040000,1,N,1","+0117,1","+0076,1","10051,1",,,"2,1,06,1","2,1,06,1",,"07,99,1,06,1,09,1,00800,1,06,1,99,9",,"99999,9,10041,1","2,1,008,1,+999,9","80,1","SYN078AAXX  26121 01108 11582 73202 10117 20076 30041 40051 52008 6//// 78022 8696/;",
"01108099999","2010-08-26T18:00:00","4","65.7","11.85","9.1","VEGA VALLSJO, NO","FM-12","99999","V020","080,1,N,0030,1","00900,1,9,N","075000,1,N,1","+0125,1","+0086,1","10052,1","12,0051,9,1",,"8,1,06,1","2,1,06,1",,"05,99,1,05,1,08,1,00450,1,00,1,00,1","999,M,+0137,1","99999,9,10042,1","0,1,000,1,+999,9","01,1","SYN088AAXX  26181 01108 11489 50803 10125 20086 30042 40052 50000 60052 70182 85800 333 10137;",
"01108099999","2010-08-27T06:00:00","4","65.7","11.85","9.1","VEGA VALLSJO, NO","FM-12","99999","V020","110,1,N,0030,1","00750,1,9,N","050000,1,N,1","+0096,1","+0082,1","10058,1","12,0008,9,1","24,0053,9,1","8,1,06,1","2,1,06,1",,"07,99,1,07,1,09,1,00800,1,99,9,99,9","999,N,+0070,1","99999,9,10047,1","1,1,002,1,+999,9","25,1","SYN094AAXX  27061 01108 11584 71103 10096 20082 30047 40058 51002 69982 72582 879// 333 20070 70053;",
"01108099999","2010-08-27T12:00:00","4","65.7","11.85","9.1","VEGA VALLSJO, NO","FM-12","99999","V020","160,1,N,0040,1","22000,1,9,N","075000,1,N,1","+0139,1","+0060,1","10071,1",,,"2,1,06,1","2,1,06,1",,"04,99,1,03,1,09,1,00800,1,06,1,01,1",,"99999,9,10061,1","2,1,002,1,+999,9","15,1","SYN078AAXX  27121 01108 11589 41604 10139 20060 30061 40071 52002 6//// 71522 83961;",
"01108099999","2010-08-27T18:00:00","4","65.7","11.85","9.1","VEGA VALLSJO, NO","FM-12","99999","V020","140,1,N,0020,1","03000,1,9,N","075000,1,N,1","+0117,1","+0072,1","10069,1","12,0000,2,1",,"1,1,06,1","1,1,06,1",,"05,99,1,03,1,09,1,00800,1,06,1,00,1","999,M,+0144,1","99999,9,10058,1","7,1,001,1,+999,9","15,1","SYN088AAXX  27181 01108 11589 51402 10117 20072 30058 40069 57001 60002 71511 83960 333 10144;",
"01108099999","2010-08-28T06:00:00","4","65.7","11.85","9.1","VEGA VALLSJO, NO","FM-12","99999","V020","130,1,N,0040,1","01200,1,9,N","075000,1,N,1","+0105,1","+0059,1","10068,1","12,0000,9,1","24,0000,2,1","8,1,06,1","2,1,06,1",,"07,99,1,07,1,09,1,01250,1,99,9,99,9","999,N,+0085,1","99999,9,10057,1","3,1,002,1,+999,9","15,1","SYN094AAXX  28061 01108 11689 71304 10105 20059 30057 40068 53002 69912 71582 879// 333 20085 70001;","Q01  00002PRCP12"
"01108099999","2010-08-28T12:00:00","4","65.7","11.85","9.1","VEGA VALLSJO, NO","FM-12","99999","V020","280,1,N,0020,1","03000,1,9,N","075000,1,N,1","+0133,1","+0064,1","10073,1",,,"2,1,06,1","2,1,06,1",,"06,99,1,04,1,09,1,01250,1,06,1,01,1",,"99999,9,10062,1","2,1,003,1,+999,9","15,1","SYN078AAXX  28121 01108 11689 62802 10133 20064 30062 40073 52003 6//// 71522 84961;",
"01108099999","2010-08-28T18:00:00","4","65.7","11.85","9.1","VEGA VALLSJO, NO","FM-12","99999","V020","070,1,N,0020,1","07500,1,9,N","075000,1,N,1","+0117,1","+0072,1","10067,1","12,0000,9,1",,"2,1,06,1","2,1,06,1",,"05,99,1,01,1,04,1,01250,1,03,1,01,1","999,M,+0138,1","99999,9,10057,1","7,1,004,1,+999,9","01,1","SYN088AAXX  28181 01108 11689 50702 10117 20072 30057 40067 57004 60002 70122 81431 333 10138;","Q01  00002PRCP12"
"01108099999","2010-08-29T06:00:00","4","65.7","11.85","9.1","VEGA VALLSJO, NO","FM-12","99999","V020","130,1,N,0030,1","01200,1,9,N","075000,1,N,1","+0109,1","+0052,1","10096,1","12,0000,9,1","24,0000,9,1","2,1,06,1","1,1,06,1",,"07,99,1,06,1,08,1,00800,1,06,1,01,1","999,N,+0072,1","99999,9,10086,1","2,1,011,1,+999,9","15,1","SYN094AAXX  29061 01108 11589 71303 10109 20052 30086 40096 52011 60002 71521 86861 333 20072 70000;","Q01  00002PRCP24Q02  00002PRCP12"
"01108099999","2010-08-29T12:00:00","4","65.7","11.85","9.1","VEGA VALLSJO, NO","FM-12","99999","V020","030,1,N,0030,1","22000,1,9,N","075000,1,N,1","+0142,1","+0053,1","10121,1",,,"1,1,06,1","1,1,06,1",,"04,99,1,03,1,03,1,01250,1,07,1,01,1",,"99999,9,10111,1","2,1,010,1,+999,9","15,1","SYN078AAXX  29121 01108 11689 40303 10142 20053 30111 40121 52010 6//// 71511 83371;",
"01108099999","2010-08-29T18:00:00","4","65.7","11.85","9.1","VEGA VALLSJO, NO","FM-12","99999","V020","010,1,N,0030,1","22000,1,9,N","075000,1,N,1","+0116,1","+0079,1","10137,1","12,0000,9,1",,"1,1,06,1","0,1,06,1",,"03,99,1,02,1,08,1,00800,1,07,1,01,1","999,M,+0148,1","99999,9,10127,1","1,1,006,1,+999,9","02,1","SYN088AAXX  29181 01108 11589 30103 10116 20079 30127 40137 51006 60002 70210 82871 333 10148;","Q01  00002PRCP12"
"01108099999","2010-08-30T06:00:00","4","65.7","11.85","9.1","VEGA VALLSJO, NO","FM-12","99999","V020","150,1,N,0010,1","22000,1,9,N","060000,1,N,1","+0087,1","+0083,1","10155,1","12,0000,9,1","24,0000,9,1","0,1,06,1","0,1,06,1",,"04,99,1,01,1,09,1,00450,1,00,1,05,1","999,N,+0040,1","99999,9,10143,1","2,1,001,1,+999,9","15,1","SYN094AAXX  30061 01108 11486 41501 10087 20083 30143 40155 52001 69912 71500 81905 333 20040 70001;","Q01  00002PRCP24Q02  00002PRCP12"
"01108099999","2010-08-30T12:00:00","4","65.7","11.85","9.1","VEGA VALLSJO, NO","FM-12","99999","V020","220,1,N,0060,1","07500,1,9,N","075000,1,N,1","+0129,1","+0094,1","10149,1",,,"2,1,06,1","1,1,06,1",,"07,99,1,02,1,09,1,00450,1,00,1,02,1",,"99999,9,10138,1","7,1,005,1,+999,9","15,1","SYN078AAXX  30121 01108 11489 72206 10129 20094 30138 40149 57005 6//// 71521 82902;",
"01108099999","2010-08-30T18:00:00","4","65.7","11.85","9.1","VEGA VALLSJO, NO","FM-12","99999","V020","230,1,N,0060,1","03000,1,9,N","040000,1,N,1","+0115,1","+0078,1","10124,1","12,0020,9,1",,"8,1,06,1","2,1,06,1",,"08,99,1,04,1,09,1,00450,1,01,1,07,1","999,M,+0137,1","99999,9,10113,1","7,1,010,1,+999,9","15,1","SYN088AAXX  30181 01108 11482 82306 10115 20078 30113 40124 57010 60022 71582 84917 333 10137;",
"01108099999","2010-08-31T06:00:00","4","65.7","11.85","9.1","VEGA VALLSJO, NO","FM-12","99999","V020","280,1,N,0100,1","00420,1,9,N","015000,1,N,1","+0100,1","+0084,1","10075,1","12,0071,9,1","24,0086,9,1","8,1,06,1","6,1,06,1",,"07,99,1,07,1,09,1,00450,1,99,9,99,9","999,N,+0094,1","99999,9,10065,1","2,1,016,1,+999,9","81,1","SYN094AAXX  31061 01108 11465 72810 10100 20084 30065 40075 52016 60072 78186 879// 333 20094 70087;",
"01108099999","2010-08-31T12:00:00","4","65.7","11.85","9.1","VEGA VALLSJO, NO","FM-12","99999","V020","280,1,N,0060,1","03000,1,9,N","040000,1,N,1","+0108,1","+0041,1","10103,1",,,"8,1,06,1","2,1,06,1",,"05,99,1,04,1,09,1,00800,1,06,1,00,1",,"99999,9,10092,1","2,1,011,1,+999,9","25,1","SYN078AAXX  31121 01108 11582 52806 10108 20041 30092 40103 52011 6//// 72582 84960;",
"01108099999","2010-08-31T18:00:00","4","65.7","11.85","9.1","VEGA VALLSJO, NO","FM-12","99999","V020","290,1,N,0070,1","03000,1,9,N","030000,1,N,1","+0101,1","+0057,1","10107,1","12,0008,9,1",,"8,1,06,1","2,1,06,1",,"05,99,1,04,1,09,1,00800,1,06,1,00,1","999,M,+0112,1","99999,9,10096,1","4,1,000,1,+999,9","15,1","SYN088AAXX  31181 01108 11580 52907 10101 20057 30096 40107 54000 69972 71582 84960 333 10112;",
"01108099999","2010-09-01T06:00:00","4","65.7","11.85","9.1","VEGA VALLSJO, NO","FM-12","99999","V020","280,1,N,0060,1","03000,1,9,N","040000,1,N,1","+0095,1","+0061,1","10134,1","12,0020,9,1","24,0030,9,1","8,1,06,1","2,1,06,1",,"05,99,1,04,1,09,1,00450,1,06,1,00,1","999,N,+0074,1","99999,9,10122,1","2,1,007,1,+999,9","15,1","SYN094AAXX  01061 01108 11482 52806 10095 20061 30122 40134 52007 60022 71582 84960 333 20074 70031;",
"01108099999","2010-09-01T12:00:00","4","65.7","11.85","9.1","VEGA VALLSJO, NO","FM-12","99999","V020","280,1,N,0030,1","00420,1,9,N","020000,1,N,1","+0098,1","+0072,1","10163,1",,,"8,1,06,1","2,1,06,1",,"07,99,1,07,1,09,1,00450,1,99,9,99,9",,"99999,9,10152,1","2,1,016,1,+999,9","80,1","SYN078AAXX  01121 01108 11470 72803 10098 20072 30152 40163 52016 6//// 78082 879//;",
"01108099999","2010-09-01T18:00:00","4","65.7","11.85","9.1","VEGA VALLSJO, NO","FM-12","99999","V020","010,1,N,0060,1","00420,1,9,N","030000,1,N,1","+0097,1","+0075,1","10189,1","12,0030,9,1",,"8,1,06,1","2,1,06,1",,"06,99,1,05,1,09,1,00450,1,06,1,00,1","999,M,+0115,1","99999,9,10177,1","2,1,014,1,+999,9","25,1","SYN088AAXX  01181 01108 11480 60106 10097 20075 30177 40189 52014 60032 72582 85960 333 10115;",
"01108099999","2010-09-02T06:00:00","4","65.7","11.85","9.1","VEGA VALLSJO, NO","FM-12","99999","V020","160,1,N,0010,1","00420,1,9,N","025000,1,N,1","+0082,1","+0068,1","10227,1","12,0020,9,1","24,0051,9,1","8,1,06,1","2,1,06,1",,"07,99,1,07,1,09,1,00450,1,99,9,99,9","999,N,+0073,1","99999,9,10216,1","2,1,006,1,+999,9","25,1","SYN094AAXX  02061 01108 11475 71601 10082 20068 30216 40227 52006 60022 72582 879// 333 20073 70052;",
"01108099999","2010-09-02T12:00:00","4","65.7","11.85","9.1","VEGA VALLSJO, NO","FM-12","99999","V020","010,1,N,0020,1","03000,1,9,N","050000,1,N,1","+0094,1","+0058,1","10237,1",,,"8,1,06,1","2,1,06,1",,"07,99,1,04,1,09,1,00150,1,06,1,01,1",,"99999,9,10226,1","0,1,000,1,+999,9","15,1","SYN078AAXX  02121 01108 11284 70102 10094 20058 30226 40237 50000 6//// 71582 84961;",
"01108099999","2010-09-02T18:00:00","4","65.7","11.85","9.1","VEGA VALLSJO, NO","FM-12","99999","V020","010,1,N,0020,1","03000,1,9,N","050000,1,N,1","+0090,1","+0057,1","10232,1","12,0000,2,1",,"8,1,06,1","2,1,06,1",,"07,99,1,04,1,09,1,00450,1,06,1,02,1","999,M,+0101,1","99999,9,10221,1","7,1,001,1,+999,9","15,1","SYN088AAXX  02181 01108 11484 70102 10090 20057 30221 40232 57001 69912 71582 84962 333 10101;",
"01108099999","2010-09-03T06:00:00","4","65.7","11.85","9.1","VEGA VALLSJO, NO","FM-12","99999","V020","090,1,N,0010,1","22000,1,9,N","070000,1,N,1","+0078,1","+0061,1","10224,1","12,0005,9,1","24,0008,9,1","8,1,06,1","1,1,06,1",,"02,99,1,02,1,09,1,00450,1,06,1,00,1","999,N,+0062,1","99999,9,10212,1","2,1,003,1,+999,9","15,1","SYN094AAXX  03061 01108 11488 20901 10078 20061 30212 40224 52003 69962 71581 82960 333 20062 70007;",
"01108099999","2010-09-03T12:00:00","4","65.7","11.85","9.1","VEGA VALLSJO, NO","FM-12","99999","V020","010,1,N,0030,1","22000,1,9,N","075000,1,N,1","+0105,1","+0024,1","10227,1",,,"0,1,06,1","0,1,06,1",,"01,99,1,01,1,08,1,00800,1,00,1,00,1",,"99999,9,10216,1","5,1,000,1,+999,9","02,1","SYN078AAXX  03121 01108 11589 10103 10105 20024 30216 40227 55000 6//// 70200 81800;",
"01108099999","2010-09-03T18:00:00","4","65.7","11.85","9.1","VEGA VALLSJO, NO","FM-12","99999","V020","350,1,N,0020,1","22000,1,9,N","075000,1,N,1","+0094,1","+0044,1","10225,1","12,0000,9,1",,"0,1,06,1","0,1,06,1",,"02,99,1,01,1,04,1,01250,1,00,1,01,1","999,M,+0106,1","99999,9,10213,1","7,1,002,1,+999,9","03,1","SYN088AAXX  03181 01108 11689 23502 10094 20044 30213 40225 57002 60002 70300 81401 333 10106;","Q01  00002PRCP12"
"01108099999","2010-09-04T06:00:00","4","65.7","11.85","9.1","VEGA VALLSJO, NO","FM-12","99999","V020","210,1,N,0040,1","00210,1,9,N","050000,1,N,1","+0106,1","+0071,1","10234,1","12,0000,9,1","24,0000,9,1","2,1,06,1","2,1,06,1",,"08,99,1,05,1,07,1,00250,1,02,1,99,9","999,N,+0062,1","99999,9,10222,1","2,1,005,1,+999,9","15,1","SYN094AAXX  04061 01108 11384 82104 10106 20071 30222 40234 52005 60002 71522 8572/ 333 20062 70000;","Q01  00002PRCP24Q02  00002PRCP12"
"01108099999","2010-09-04T12:00:00","4","65.7","11.85","9.1","VEGA VALLSJO, NO","FM-12","99999","V020","240,1,N,0040,1","03000,1,9,N","050000,1,N,1","+0135,1","+0109,1","10245,1",,,"6,1,06,1","2,1,06,1",,"07,99,1,03,1,02,1,00250,1,07,1,08,1",,"99999,9,10233,1","2,1,007,1,+999,9","01,1","SYN078AAXX  04121 01108 11384 72404 10135 20109 30233 40245 52007 6//// 70162 83278;",
"01108099999","2010-09-04T18:00:00","4","65.7","11.85","9.1","VEGA VALLSJO, NO","FM-12","99999","V020","270,1,N,0030,1","00210,1,9,N","025000,1,N,1","+0116,1","+0100,1","10254,1","12,0000,9,1",,"8,1,06,1","2,1,06,1",,"07,99,1,07,1,09,1,00250,1,99,9,99,9","999,M,+0139,1","99999,9,10242,1","2,1,006,1,+999,9","15,1","SYN088AAXX  04181 01108 11375 72703 10116 20100 30242 40254 52006 69922 71582 879// 333 10139;","Q01  00002PRCP12"
"01108099999","2010-09-05T06:00:00","4","65.7","11.85","9.1","VEGA VALLSJO, NO","FM-12","99999","V020","240,1,N,0030,1","00210,1,9,N","050000,1,N,1","+0116,1","+0097,1","10274,1","12,0000,9,1","24,0003,9,1","8,1,06,1","2,1,06,1",,"07,99,1,07,1,09,1,00250,1,99,9,99,9","999,N,+0111,1","99999,9,10262,1","2,1,005,1,+999,9","15,1","SYN094AAXX  05061 01108 11384 72403 10116 20097 30262 40274 52005 69902 71582 879// 333 20111 70002;","Q01  00002PRCP12"
"01108099999","2010-09-05T12:00:00","4","65.7","11.85","9.1","VEGA VALLSJO, NO","FM-12","99999","V020","260,1,N,0030,1","03000,1,9,N","055000,1,N,1","+0132,1","+0104,1","10293,1",,,"8,1,06,1","2,1,06,1",,"07,99,1,02,1,02,1,00250,1,07,1,02,1",,"99999,9,10282,1","2,1,005,1,+999,9","01,1","SYN078AAXX  05121 01108 11385 72603 10132 20104 30282 40293 52005 6//// 70182 82272;",
"01108099999","2010-09-05T18:00:00","4","65.7","11.85","9.1","VEGA VALLSJO, NO","FM-12","99999","V020","220,1,N,0010,1","03000,1,9,N","065000,1,N,1","+0124,1","+0105,1","10300,1","12,0005,9,1",,"2,1,06,1","2,1,06,1",,"07,99,1,01,1,01,1,00250,1,07,1,01,1","999,M,+0134,1","99999,9,10289,1","3,1,003,1,+999,9","01,1","SYN088AAXX  05181 01108 11387 72201 10124 20105 30289 40300 53003 69942 70122 81171 333 10134;",
"01108099999","2010-09-06T06:00:00","4","65.7","11.85","9.1","VEGA VALLSJO, NO","FM-12","99999","V020","110,1,N,0010,1","22000,1,9,N","060000,1,N,1","+0104,1","+0096,1","10294,1","12,0000,9,1","24,0005,9,1","0,1,06,1","0,1,06,1",,"01,99,1,01,1,04,1,01250,1,00,1,01,1","999,N,+0085,1","99999,9,10282,1","6,1,003,1,+999,9","02,1","SYN094AAXX  06061 01108 11686 11101 10104 20096 30282 40294 56003 60002 70200 81401 333 20085 70004;","Q01  00002PRCP12"
"01108099999","2010-09-06T12:00:00","4","65.7","11.85","9.1","VEGA VALLSJO, NO","FM-12","99999","V020","020,1,N,0030,1","22000,1,9,N","075000,1,N,1","+0130,1","+0100,1","10280,1",,,"0,1,06,1","0,1,06,1",,"01,99,1,00,1,00,1,99999,9,00,1,01,1",,"99999,9,10269,1","7,1,012,1,+999,9","02,1","SYN078AAXX  06121 01108 11989 10203 10130 20100 30269 40280 57012 6//// 70200 80001;",
"01108099999","2010-09-06T18:00:00","4","65.7","11.85","9.1","VEGA VALLSJO, NO","FM-12","99999","V020","020,1,N,0040,1","22000,1,9,N","075000,1,N,1","+0116,1","+0100,1","10266,1","12,0000,9,1",,"0,1,06,1","0,1,06,1",,"01,99,1,01,1,06,1,00450,1,00,1,01,1","999,M,+0132,1","99999,9,10255,1","7,1,007,1,+999,9","02,1","SYN088AAXX  06181 01108 11489 10204 10116 20100 30255 40266 57007 60002 70200 81601 333 10132;","Q01  00002PRCP12"
"01108099999","2010-09-07T06:00:00","4","65.7","11.85","9.1","VEGA VALLSJO, NO","FM-12","99999","V020","110,1,N,0010,1","22000,1,9,N","050000,1,N,1","+0099,1","+0098,1","10242,1","12,0000,9,1","24,0000,9,1","4,1,06,1","0,1,06,1",,"01,99,1,01,1,06,1,00075,1,00,1,01,1","999,N,+0085,1","99999,9,10231,1","7,1,003,1,+999,9","03,1","SYN094AAXX  07061 01108 11184 11101 10099 20098 30231 40242 57003 69912 70340 81601 333 20085 70001;","Q01  00002PRCP24Q02  00002PRCP12"
"01108099999","2010-09-07T12:00:00","4","65.7","11.85","9.1","VEGA VALLSJO, NO","FM-12","99999","V020","010,1,N,0020,1","22000,1,9,N","075000,1,N,1","+0136,1","+0110,1","10230,1",,,"0,1,06,1","0,1,06,1",,"01,99,1,00,1,00,1,99999,9,00,1,01,1",,"99999,9,10218,1","7,1,006,1,+999,9","02,1","SYN078AAXX  07121 01108 11989 10102 10136 20110 30218 40230 57006 6//// 70200 80001;",
"01108099999","2010-09-07T18:00:00","4","65.7","11.85","9.1","VEGA VALLSJO, NO","FM-12","99999","V020","060,1,N,0020,1","22000,1,9,N","075000,1,N,1","+0125,1","+0109,1","10215,1","12,0000,9,1",,"0,1,06,1","0,1,06,1",,"01,99,1,00,1,00,1,99999,9,00,1,01,1","999,M,+0138,1","99999,9,10203,1","7,1,005,1,+999,9","02,1","SYN088AAXX  07181 01108 11989 10602 10125 20109 30203 40215 57005 60002 70200 80001 333 10138;","Q01  00002PRCP12"
"01108099999","2010-09-08T06:00:00","4","65.7","11.85","9.1","VEGA VALLSJO, NO","FM-12","99999","V020","110,1,N,0010,1","22000,1,9,N","075000,1,N,1","+0117,1","+0103,1","10212,1","12,0000,9,1","24,0000,9,1","0,1,06,1","0,1,06,1","00,1,+99999,9,99,9","00,99,1,00,1,00,1,99999,9,00,1,00,1","999,N,+0083,1","99999,9,10201,1","2,1,003,1,+999,9","02,1","SYN088AAXX  08061 01108 11989 01101 10117 20103 30201 40212 52003 60002 70200 333 20083 70000;","Q01  00002PRCP24Q02  00002PRCP12"
"01108099999","2010-09-08T12:00:00","4","65.7","11.85","9.1","VEGA VALLSJO, NO","FM-12","99999","V020","320,1,N,0030,1","22000,1,9,N","075000,1,N,1","+0173,1","+0122,1","10214,1",,,"0,1,06,1","0,1,06,1","00,1,+99999,9,99,9","00,99,1,00,1,00,1,99999,9,00,1,00,1",,"99999,9,10203,1","8,1,001,1,+999,9","02,1","SYN072AAXX  08121 01108 11989 03203 10173 20122 30203 40214 58001 6//// 70200;",
"01108099999","2010-09-08T18:00:00","4","65.7","11.85","9.1","VEGA VALLSJO, NO","FM-12","99999","V020","130,1,N,0020,1","22000,1,9,N","075000,1,N,1","+0145,1","+0117,1","10216,1","12,0000,9,1",,"0,1,06,1","0,1,06,1",,"01,99,1,01,1,04,1,01750,1,00,1,00,1","999,M,+0195,1","99999,9,10206,1","2,1,002,1,+999,9","02,1","SYN088AAXX  08181 01108 11789 11302 10145 20117 30206 40216 52002 60002 70200 81400 333 10195;","Q01  00002PRCP12"
"01108099999","2010-09-09T06:00:00","4","65.7","11.85","9.1","VEGA VALLSJO, NO","FM-12","99999","V020","090,1,N,0020,1","22000,1,9,N","075000,1,N,1","+0140,1","+0088,1","10222,1","12,0000,9,1","24,0000,9,1","0,1,06,1","0,1,06,1",,"01,99,1,00,1,00,1,99999,9,00,1,01,1","999,N,+0100,1","99999,9,10212,1","3,1,002,1,+999,9","02,1","SYN094AAXX  09061 01108 11989 10902 10140 20088 30212 40222 53002 60002 70200 80001 333 20100 70000;","Q01  00002PRCP24Q02  00002PRCP12"
"01108099999","2010-09-09T12:00:00","4","65.7","11.85","9.1","VEGA VALLSJO, NO","FM-12","99999","V020","140,1,N,0050,1","22000,1,9,N","075000,1,N,1","+0192,1","+0079,1","10216,1",,,"0,1,06,1","0,1,06,1",,"01,99,1,01,1,01,1,01750,1,00,1,01,1",,"99999,9,10206,1","8,1,006,1,+999,9","03,1","SYN078AAXX  09121 01108 11789 11405 10192 20079 30206 40216 58006 6//// 70300 81101;",
"01108099999","2010-09-09T18:00:00","4","65.7","11.85","9.1","VEGA VALLSJO, NO","FM-12","99999","V020","160,1,N,0040,1","22000,1,9,N","075000,1,N,1","+0170,1","+0079,1","10209,1","12,0000,9,1",,"1,1,06,1","1,1,06,1",,"05,99,1,04,1,04,1,01250,1,00,1,01,1","999,M,+0195,1","99999,9,10198,1","5,1,000,1,+999,9","02,1","SYN088AAXX  09181 01108 11689 51604 10170 20079 30198 40209 55000 60002 70211 84401 333 10195;","Q01  00002PRCP12"
"01108099999","2010-09-10T06:00:00","4","65.7","11.85","9.1","VEGA VALLSJO, NO","FM-12","99999","V020","140,1,N,0040,1","22000,1,9,N","075000,1,N,1","+0135,1","+0071,1","10193,1","12,0000,9,1","24,0000,9,1","0,1,06,1","0,1,06,1",,"01,99,1,01,1,01,1,01750,1,00,1,01,1","999,N,+0111,1","99999,9,10182,1","6,1,003,1,+999,9","03,1","SYN094AAXX  10061 01108 11789 11404 10135 20071 30182 40193 56003 60002 70300 81101 333 20111 70000;","Q01  00002PRCP24Q02  00002PRCP12"
"01108099999","2010-09-10T12:00:00","4","65.7","11.85","9.1","VEGA VALLSJO, NO","FM-12","99999","V020","160,1,N,0050,1","22000,1,9,N","075000,1,N,1","+0173,1","+0074,1","10184,1",,,"0,1,06,1","0,1,06,1",,"01,99,1,01,1,01,1,01750,1,00,1,00,1",,"99999,9,10173,1","6,1,009,1,+999,9","01,1","SYN078AAXX  10121 01108 11789 11605 10173 20074 30173 40184 56009 6//// 70100 81100;",
"01108099999","2010-09-10T18:00:00","4","65.7","11.85","9.1","VEGA VALLSJO, NO","FM-12","99999","V020","130,1,N,0030,1","22000,1,9,N","075000,1,N,1","+0137,1","+0070,1","10164,1","12,0000,9,1",,"1,1,06,1","0,1,06,1",,"03,99,1,02,1,04,1,01750,1,07,1,04,1","999,M,+0184,1","99999,9,10153,1","7,1,008,1,+999,9","02,1","SYN088AAXX  10181 01108 11789 31303 10137 20070 30153 40164 57008 60002 70210 82474 333 10184;","Q01  00002PRCP12"
"01108099999","2010-09-11T06:00:00","4","65.7","11.85","9.1","VEGA VALLSJO, NO","FM-12","99999","V020","130,1,N,0050,1","07500,1,9,N","075000,1,N,1","+0134,1","+0061,1","10123,1","12,0000,9,1","24,0000,9,1","2,1,06,1","1,1,06,1",,"07,99,1,01,1,04,1,01750,1,00,1,02,1","999,N,+0108,1","99999,9,10112,1","7,1,009,1,+999,9","02,1","SYN094AAXX  11061 01108 11789 71305 10134 20061 30112 40123 57009 60002 70221 81402 333 20108 70000;","Q01  00002PRCP24Q02  00002PRCP12"
"01108099999","2010-09-11T12:00:00","4","65.7","11.85","9.1","VEGA VALLSJO, NO","FM-12","99999","V020","120,1,N,0040,1","01200,1,9,N","075000,1,N,1","+0151,1","+0099,1","10110,1",,,"2,1,06,1","2,1,06,1",,"07,99,1,07,1,02,1,01250,1,99,9,99,9",,"99999,9,10100,1","7,1,007,1,+999,9","03,1","SYN078AAXX  11121 01108 11689 71204 10151 20099 30100 40110 57007 6//// 70322 872//;",
"01108099999","2010-09-11T18:00:00","4","65.7","11.85","9.1","VEGA VALLSJO, NO","FM-12","99999","V020","130,1,N,0060,1","03000,1,9,N","055000,1,N,1","+0145,1","+0095,1","10094,1","12,0000,9,1",,"2,1,06,1","2,1,06,1",,"06,99,1,03,1,09,1,01250,1,06,1,02,1","999,M,+0162,1","99999,9,10083,1","7,1,010,1,+999,9","15,1","SYN088AAXX  11181 01108 11685 61306 10145 20095 30083 40094 57010 60002 71522 83962 333 10162;","Q01  00002PRCP12"
"01108099999","2010-09-12T06:00:00","4","65.7","11.85","9.1","VEGA VALLSJO, NO","FM-12","99999","V020","150,1,N,0050,1","00750,1,9,N","060000,1,N,1","+0145,1","+0115,1","10036,1","12,0020,9,2","24,0018,9,2","6,1,06,1","2,1,06,1",,"07,99,1,06,1,07,1,00800,1,02,1,99,9","999,N,+0124,1","99999,9,10026,1","5,1,013,1,+999,9","15,1","SYN094AAXX  12061 01108 11586 71505 10145 20115 30026 40036 55013 60022 71562 8672/ 333 20124 70018;",
"01108099999","2010-09-12T12:00:00","4","65.7","11.85","9.1","VEGA VALLSJO, NO","FM-12","99999","V020","210,1,N,0080,1","00420,1,9,N","050000,1,N,1","+0151,1","+0111,1","10060,1",,,"8,1,06,1","2,1,06,1",,"06,99,1,05,1,09,1,00450,1,04,1,01,1",,"99999,9,10050,1","2,1,013,1,+999,9","15,1","SYN078AAXX  12121 01108 11484 62108 10151 20111 30050 40060 52013 6//// 71582 85941;",
"01108099999","2010-09-12T18:00:00","4","65.7","11.85","9.1","VEGA VALLSJO, NO","FM-12","99999","V020","220,1,N,0060,1","00210,1,9,N","020000,1,N,1","+0122,1","+0108,1","10092,1","12,0005,9,1",,"8,1,06,1","2,1,06,1",,"08,99,1,08,1,09,1,00250,1,99,9,99,9","999,M,+0156,1","99999,9,10082,1","2,1,016,1,+999,9","80,1","SYN088AAXX  12181 01108 11370 82206 10122 20108 30082 40092 52016 69952 78082 889// 333 10156;",
"01108099999","2010-09-13T06:00:00","4","65.7","11.85","9.1","VEGA VALLSJO, NO","FM-12","99999","V020","200,1,N,0050,1","00060,1,9,N","020000,1,N,1","+0122,1","+0104,1","10105,1","12,0051,9,1","24,0058,9,1","8,1,06,1","2,1,06,1",,"07,99,1,05,1,09,1,00075,1,06,1,01,1","999,N,+0117,1","99999,9,10095,1","5,1,002,1,+999,9","25,1","SYN094AAXX  13061 01108 11170 72005 10122 20104 30095 40105 55002 60052 72582 85961 333 20117 70059;",
"01108099999","2010-09-13T12:00:00","4","65.7","11.85","9.1","VEGA VALLSJO, NO","FM-12","99999","V020","230,1,N,0050,1","00420,1,9,N","008000,1,N,1","+0139,1","+0125,1","10109,1",,,"8,1,06,1","2,1,06,1",,"07,99,1,07,1,09,1,00450,1,99,9,99,9",,"99999,9,10098,1","4,1,000,1,+999,9","81,1","SYN078AAXX  13121 01108 11458 72305 10139 20125 30098 40109 54000 6//// 78182 879//;",
"01108099999","2010-09-13T18:00:00","4","65.7","11.85","9.1","VEGA VALLSJO, NO","FM-12","99999","V020","140,1,N,0040,1","22000,1,9,N","075000,1,N,1","+0115,1","+0098,1","10079,1","12,0051,9,1",,"8,1,06,1","1,1,06,1",,"03,99,1,01,1,08,1,00450,1,01,1,05,1","999,M,+0149,1","99999,9,10068,1","7,1,021,1,+999,9","02,1","SYN088AAXX  13181 01108 11489 31404 10115 20098 30068 40079 57021 60052 70281 81815 333 10149;",
"01108099999","2010-09-14T06:00:00","4","65.7","11.85","9.1","VEGA VALLSJO, NO","FM-12","99999","V020","140,1,N,0080,1","03000,1,9,N","075000,1,N,1","+0131,1","+0076,1","09935,1","12,0000,9,1","24,0046,9,1","2,1,06,1","1,1,06,1",,"06,99,1,01,1,01,1,01750,1,04,1,02,1","999,N,+0084,1","99999,9,09925,1","7,1,037,1,+999,9","02,1","SYN094AAXX  14061 01108 11789 61408 10131 20076 39925 49935 57037 60002 70221 81142 333 20084 70046;","Q01  00002PRCP12"
"01108099999","2010-09-14T12:00:00","4","65.7","11.85","9.1","VEGA VALLSJO, NO","FM-12","99999","V020","140,1,N,0080,1","00420,1,9,N","005000,1,N,1","+0120,1","+0111,1","09918,1",,,"6,1,06,1","2,1,06,1",,"08,99,1,07,1,07,1,00450,1,02,1,99,9",,"99999,9,09907,1","5,1,000,1,+999,9","58,1","SYN078AAXX  14121 01108 11450 81408 10120 20111 39907 49918 55000 6//// 75862 8772/;",
"01108099999","2010-09-14T18:00:00","4","65.7","11.85","9.1","VEGA VALLSJO, NO","FM-12","99999","V020","230,1,N,0020,1","03000,1,9,N","020000,1,N,1","+0119,1","+0110,1","09904,1","12,0051,9,1",,"6,1,06,1","2,1,06,1",,"08,99,1,03,1,07,1,00450,1,02,1,99,9","999,M,+0143,1","99999,9,09893,1","7,1,013,1,+999,9","60,1","SYN088AAXX  14181 01108 11470 82302 10119 20110 39893 49904 57013 60052 76062 8372/ 333 10143;",
"01108099999","2010-09-15T06:00:00","4","65.7","11.85","9.1","VEGA VALLSJO, NO","FM-12","99999","V020","210,1,N,0020,1","03000,1,9,N","040000,1,N,1","+0104,1","+0095,1","09808,1","12,0061,9,1","24,0112,9,1","6,1,06,1","2,1,06,1",,"05,99,1,04,1,09,1,00800,1,06,1,00,1","999,N,+0080,1","99999,9,09797,1","7,1,019,1,+999,9","25,1","SYN094AAXX  15061 01108 11582 52102 10104 20095 39797 49808 57019 60062 72562 84960 333 20080 70111;",
"01108099999","2010-09-15T12:00:00","4","65.7","11.85","9.1","VEGA VALLSJO, NO","FM-12","99999","V020","150,1,N,0090,1","03000,1,9,N","050000,1,N,1","+0113,1","+0052,1","09832,1",,,"8,1,06,1","2,1,06,1",,"05,99,1,04,1,09,1,00800,1,06,1,02,1",,"99999,9,09822,1","2,1,015,1,+999,9","15,1","SYN078AAXX  15121 01108 11584 51509 10113 20052 39822 49832 52015 6//// 71582 84962;",
"01108099999","2010-09-15T18:00:00","4","65.7","11.85","9.1","VEGA VALLSJO, NO","FM-12","99999","V020","150,1,N,0060,1","00420,1,9,N","070000,1,N,1","+0118,1","+0061,1","09815,1","12,0000,2,1",,"8,1,06,1","2,1,06,1",,"07,99,1,07,1,09,1,00450,1,99,9,99,9","999,M,+0137,1","99999,9,09805,1","0,1,000,1,+999,9","15,1","SYN088AAXX  15181 01108 11488 71506 10118 20061 39805 49815 50000 69912 71582 879// 333 10137;",
"01108099999","2010-09-16T06:00:00","4","65.7","11.85","9.1","VEGA VALLSJO, NO","FM-12","99999","V020","100,1,N,0030,1","03000,1,9,N","050000,1,N,1","+0095,1","+0061,1","09831,1","12,0010,9,1","24,0015,9,1","8,1,06,1","2,1,06,1",,"06,99,1,04,1,09,1,00800,1,06,1,02,1","999,N,+0080,1","99999,9,09821,1","2,1,008,1,+999,9","15,1","SYN094AAXX  16061 01108 11584 61003 10095 20061 39821 49831 52008 60012 71582 84962 333 20080 70015;",
"01108099999","2010-09-16T12:00:00","4","65.7","11.85","9.1","VEGA VALLSJO, NO","FM-12","99999","V020","140,1,N,0080,1","03000,1,9,N","075000,1,N,1","+0131,1","+0048,1","09869,1",,,"2,1,06,1","2,1,06,1",,"05,99,1,03,1,04,1,01250,1,04,1,03,1",,"99999,9,09858,1","2,1,022,1,+999,9","02,1","SYN078AAXX  16121 01108 11689 51408 10131 20048 39858 49869 52022 6//// 70222 83443;",
"01108099999","2010-09-16T18:00:00","4","65.7","11.85","9.1","VEGA VALLSJO, NO","FM-12","99999","V020","110,1,N,0010,1","01200,1,9,N","070000,1,N,1","+0115,1","+0066,1","09882,1","12,0000,9,1",,"2,1,06,1","2,1,06,1",,"07,99,1,05,1,03,1,01250,1,06,1,02,1","999,M,+0136,1","99999,9,09872,1","1,1,003,1,+999,9","15,1","SYN088AAXX  16181 01108 11688 71101 10115 20066 39872 49882 51003 60002 71522 85362 333 10136;","Q01  00002PRCP12"
"01108099999","2010-09-17T06:00:00","4","65.7","11.85","9.1","VEGA VALLSJO, NO","FM-12","99999","V020","100,1,N,0040,1","01200,1,9,N","075000,1,N,1","+0109,1","+0065,1","09900,1","12,0000,9,1","24,0000,9,1","8,1,06,1","2,1,06,1",,"07,99,1,06,1,09,1,01250,1,06,1,02,1","999,N,+0093,1","99999,9,09890,1","4,1,000,1,+999,9","15,1","SYN094AAXX  17061 01108 11689 71004 10109 20065 39890 49900 54000 69912 71582 86962 333 20093 70001;","Q01  00002PRCP24Q02  00002PRCP12"
"01108099999","2010-09-17T12:00:00","4","65.7","11.85","9.1","VEGA VALLSJO, NO","FM-12","99999","V020","070,1,N,0030,1","03000,1,9,N","075000,1,N,1","+0137,1","+0083,1","09913,1",,,"2,1,06,1","2,1,06,1",,"06,99,1,04,1,02,1,01250,1,06,1,02,1",,"99999,9,09902,1","2,1,004,1,+999,9","01,1","SYN078AAXX  17121 01108 11689 60703 10137 20083 39902 49913 52004 6//// 70122 84262;",
"01108099999","2010-09-17T18:00:00","4","65.7","11.85","9.1","VEGA VALLSJO, NO","FM-12","99999","V020","120,1,N,0020,1","01200,1,9,N","075000,1,N,1","+0121,1","+0086,1","09924,1","12,0000,9,1",,"2,1,06,1","2,1,06,1",,"07,99,1,06,1,04,1,01250,1,00,1,02,1","999,M,+0149,1","99999,9,09913,1","2,1,007,1,+999,9","02,1","SYN088AAXX  17181 01108 11689 71202 10121 20086 39913 49924 52007 60002 70222 86402 333 10149;","Q01  00002PRCP12"
"01108099999","2010-09-18T06:00:00","4","65.7","11.85","9.1","VEGA VALLSJO, NO","FM-12","99999","V020","040,1,N,0020,1","01200,1,9,N","075000,1,N,1","+0107,1","+0083,1","09951,1","12,0000,9,1","24,0000,9,1","2,1,06,1","2,1,06,1",,"07,99,1,06,1,04,1,01250,1,06,1,01,1","999,N,+0083,1","99999,9,09941,1","2,1,005,1,+999,9","02,1","SYN094AAXX  18061 01108 11689 70402 10107 20083 39941 49951 52005 60002 70222 86461 333 20083 70000;","Q01  00002PRCP24Q02  00002PRCP12"
"01108099999","2010-09-18T12:00:00","4","65.7","11.85","9.1","VEGA VALLSJO, NO","FM-12","99999","V020","260,1,N,0020,1","22000,1,9,N","075000,1,N,1","+0137,1","+0090,1","09970,1",,,"2,1,06,1","1,1,06,1",,"04,99,1,04,1,08,1,00800,1,00,1,00,1",,"99999,9,09960,1","2,1,008,1,+999,9","02,1","SYN078AAXX  18121 01108 11589 42602 10137 20090 39960 49970 52008 6//// 70221 84800;",
"01108099999","2010-09-18T18:00:00","4","65.7","11.85","9.1","VEGA VALLSJO, NO","FM-12","99999","V020","300,1,N,0010,1","22000,1,9,N","075000,1,N,1","+0115,1","+0096,1","09977,1","12,0000,9,1",,"1,1,06,1","0,1,06,1",,"02,99,1,02,1,08,1,00800,1,00,1,01,1","999,M,+0140,1","99999,9,09967,1","2,1,006,1,+999,9","02,1","SYN088AAXX  18181 01108 11589 23001 10115 20096 39967 49977 52006 60002 70210 82801 333 10140;","Q01  00002PRCP12"
"01108099999","2010-09-19T06:00:00","4","65.7","11.85","9.1","VEGA VALLSJO, NO","FM-12","99999","V020","310,1,N,0010,1","00420,1,9,N","030000,1,N,1","+0097,1","+0089,1","09982,1","12,0010,9,1","24,0013,9,1","8,1,06,1","2,1,06,1",,"07,99,1,07,1,09,1,00450,1,99,9,99,9","999,N,+0091,1","99999,9,09972,1","3,1,004,1,+999,9","25,1","SYN094AAXX  19061 01108 11480 73101 10097 20089 39972 49982 53004 60012 72582 879// 333 20091 70012;",
"01108099999","2010-09-19T12:00:00","4","65.7","11.85","9.1","VEGA VALLSJO, NO","FM-12","99999","V020","270,1,N,0040,1","01200,1,9,N","075000,1,N,1","+0119,1","+0066,1","09995,1",,,"8,1,06,1","2,1,06,1",,"07,99,1,07,1,08,1,00800,1,99,9,99,9",,"99999,9,09985,1","2,1,005,1,+999,9","15,1","SYN078AAXX  19121 01108 11589 72704 10119 20066 39985 49995 52005 6//// 71582 878//;",
"01108099999","2010-09-19T18:00:00","4","65.7","11.85","9.1","VEGA VALLSJO, NO","FM-12","99999","V020","240,1,N,0050,1","00420,1,9,N","055000,1,N,1","+0104,1","+0078,1","10003,1","12,0005,9,1",,"8,1,06,1","2,1,06,1",,"07,99,1,07,1,09,1,00450,1,99,9,99,9","999,M,+0119,1","99999,9,09992,1","2,1,005,1,+999,9","15,1","SYN088AAXX  19181 01108 11485 72405 10104 20078 39992 40003 52005 69952 71582 879// 333 10119;",
"01108099999","2010-09-20T06:00:00","4","65.7","11.85","9.1","VEGA VALLSJO, NO","FM-12","99999","V020","130,1,N,0030,1","00210,1,9,N","025000,1,N,1","+0072,1","+0066,1","10018,1","12,0030,9,1","24,0030,9,1","8,1,06,1","2,1,06,1",,"07,99,1,07,1,09,1,00250,1,99,9,99,9","999,N,+0067,1","99999,9,10007,1","3,1,002,1,+999,9","15,1","SYN094AAXX  20061 01108 11375 71303 10072 20066 30007 40018 53002 60032 71582 879// 333 20067 70030;",
"01108099999","2010-09-20T12:00:00","4","65.7","11.85","9.1","VEGA VALLSJO, NO","FM-12","99999","V020","220,1,N,0050,1","00420,1,9,N","006000,1,N,1","+0101,1","+0077,1","10031,1",,,"8,1,06,1","8,1,06,1",,"07,99,1,07,1,09,1,00450,1,99,9,99,9",,"99999,9,10021,1","2,1,006,1,+999,9","81,1","SYN072AAXX  20121 01108 41456 72205 10101 20077 30021 40031 52006 78188 879//;",
"01108099999","2010-09-20T18:00:00","4","65.7","11.85","9.1","VEGA VALLSJO, NO","FM-12","99999","V020","140,1,N,0030,1","03000,1,9,N","040000,1,N,1","+0091,1","+0071,1","10042,1","12,0099,9,1",,"8,1,06,1","2,1,06,1",,"07,99,1,04,1,09,1,00450,1,06,1,02,1","999,M,+0105,1","99999,9,10032,1","2,1,006,1,+999,9","25,1","SYN088AAXX  20181 01108 11482 71403 10091 20071 30032 40042 52006 60102 72582 84962 333 10105;",
"01108099999","2010-09-21T06:00:00","4","65.7","11.85","9.1","VEGA VALLSJO, NO","FM-12","99999","V020","140,1,N,0020,1","22000,1,9,N","040000,1,N,1","+0066,1","+0056,1","10084,1","12,0051,9,1","24,0152,9,1","8,1,06,1","2,1,06,1",,"04,99,1,03,1,09,1,00800,1,06,1,02,1","999,N,+0065,1","99999,9,10072,1","2,1,013,1,+999,9","15,1","SYN094AAXX  21061 01108 11582 41402 10066 20056 30072 40084 52013 60052 71582 83962 333 20065 70152;",
"01108099999","2010-09-21T12:00:00","4","65.7","11.85","9.1","VEGA VALLSJO, NO","FM-12","99999","V020","250,1,N,0030,1","00750,1,9,N","050000,1,N,1","+0120,1","+0079,1","10116,1",,,"8,1,06,1","2,1,06,1",,"06,99,1,06,1,09,1,00800,1,99,9,99,9",,"99999,9,10106,1","2,1,014,1,+999,9","15,1","SYN072AAXX  21121 01108 41584 62503 10120 20079 30106 40116 52014 71582 869//;",
"01108099999","2010-09-21T18:00:00","4","65.7","11.85","9.1","VEGA VALLSJO, NO","FM-12","99999","V020","160,1,N,0020,1","00420,1,9,N","060000,1,N,1","+0087,1","+0065,1","10136,1","12,0005,9,1",,"2,1,06,1","2,1,06,1",,"06,99,1,05,1,09,1,00450,1,06,1,01,1","999,M,+0120,1","99999,9,10125,1","2,1,008,1,+999,9","15,1","SYN088AAXX  21181 01108 11486 61602 10087 20065 30125 40136 52008 69942 71522 85961 333 10120;",
"01108099999","2010-09-22T06:00:00","4","65.7","11.85","9.1","VEGA VALLSJO, NO","FM-12","99999","V020","130,1,N,0020,1","03000,1,9,N","025000,1,N,1","+0080,1","+0073,1","10136,1","12,0020,9,1","24,0028,9,1","8,1,06,1","2,1,06,1",,"07,99,1,04,1,09,1,00250,1,06,1,06,1","999,N,+0064,1","99999,9,10125,1","7,1,006,1,+999,9","25,1","SYN094AAXX  22061 01108 11375 71302 10080 20073 30125 40136 57006 60022 72582 84966 333 20064 70027;",
"01108099999","2010-09-22T12:00:00","4","65.7","11.85","9.1","VEGA VALLSJO, NO","FM-12","99999","V020","140,1,N,0020,1","00420,1,9,N","030000,1,N,1","+0101,1","+0089,1","10124,1",,,"8,1,06,1","2,1,06,1",,"08,99,1,05,1,09,1,00450,1,06,1,99,9",,"99999,9,10112,1","7,1,008,1,+999,9","25,1","SYN072AAXX  22121 01108 41480 81402 10101 20089 30112 40124 57008 72582 8596/;",
"01108099999","2010-09-22T18:00:00","4","65.7","11.85","9.1","VEGA VALLSJO, NO","FM-12","99999","V020","060,1,N,0040,1","03000,1,9,N","050000,1,N,1","+0096,1","+0080,1","10093,1","12,0030,9,1",,"8,1,06,1","2,1,06,1",,"08,99,1,02,1,07,1,00450,1,02,1,07,1","999,M,+0102,1","99999,9,10082,1","7,1,015,1,+999,9","60,1","SYN088AAXX  22181 01108 11484 80604 10096 20080 30082 40093 57015 60032 76082 82727 333 10102;",
"01108099999","2010-09-23T06:00:00","4","65.7","11.85","9.1","VEGA VALLSJO, NO","FM-12","99999","V020","010,1,N,0060,1","03000,1,9,N","040000,1,N,1","+0090,1","+0070,1","10027,1","12,0030,9,1","24,0051,9,1","6,1,06,1","2,1,06,1",,"08,99,1,03,1,02,1,00150,1,02,1,99,9","999,N,+0088,1","99999,9,10017,1","3,1,001,1,+999,9","60,1","SYN094AAXX  23061 01108 11282 80106 10090 20070 30017 40027 53001 60032 76062 8322/ 333 20088 70050;",
"01108099999","2010-09-23T12:00:00","4","65.7","11.85","9.1","VEGA VALLSJO, NO","FM-12","99999","V020","310,1,N,0070,1","00420,1,9,N","040000,1,N,1","+0107,1","+0059,1","10055,1",,,"8,1,06,1","2,1,06,1",,"05,99,1,05,1,09,1,00450,1,00,1,00,1",,"99999,9,10045,1","2,1,016,1,+999,9","15,1","SYN072AAXX  23121 01108 41482 53107 10107 20059 30045 40055 52016 71582 85900;",
"01108099999","2010-09-23T18:00:00","4","65.7","11.85","9.1","VEGA VALLSJO, NO","FM-12","99999","V020","320,1,N,0050,1","00420,1,9,N","015000,1,N,1","+0083,1","+0071,1","10071,1","12,0010,9,1",,"8,1,06,1","2,1,06,1",,"07,99,1,07,1,09,1,00450,1,99,9,99,9","999,M,+0109,1","99999,9,10060,1","2,1,005,1,+999,9","80,1","SYN088AAXX  23181 01108 11465 73205 10083 20071 30060 40071 52005 60012 78082 879// 333 10109;",
"01108099999","2010-09-24T06:00:00","4","65.7","11.85","9.1","VEGA VALLSJO, NO","FM-12","99999","V020","180,1,N,0020,1","00210,1,9,N","055000,1,N,1","+0065,1","+0051,1","10068,1","12,0041,9,1","24,0053,9,1","8,1,06,1","2,1,06,1",,"07,99,1,05,1,09,1,00250,1,06,1,99,9","999,N,+0064,1","99999,9,10057,1","2,1,002,1,+999,9","25,1","SYN094AAXX  24061 01108 11385 71802 10065 20051 30057 40068 52002 60042 72582 8596/ 333 20064 70054;",
"01108099999","2010-09-24T12:00:00","4","65.7","11.85","9.1","VEGA VALLSJO, NO","FM-12","99999","V020","010,1,N,0010,1","03000,1,9,N","060000,1,N,1","+0098,1","+0040,1","10075,1",,,"1,1,06,1","1,1,06,1",,"05,99,1,04,1,08,1,00800,1,06,1,01,1",,"99999,9,10065,1","2,1,004,1,+999,9","15,1","SYN072AAXX  24121 01108 41586 50101 10098 20040 30065 40075 52004 71511 84861;",
"01108099999","2010-09-24T18:00:00","4","65.7","11.85","9.1","VEGA VALLSJO, NO","FM-12","99999","V020","030,1,N,0050,1","22000,1,9,N","075000,1,N,1","+0090,1","+0057,1","10090,1",,,"2,1,06,1","1,1,06,1",,"02,99,1,01,1,09,1,00450,1,06,1,08,1","999,M,+0100,1","99999,9,10078,1","2,1,008,1,+999,9","15,1","SYN082AAXX  24181 01108 31489 20305 10090 20057 30078 40090 52008 71521 81968 333 10100;",
"01108099999","2010-09-25T06:00:00","4","65.7","11.85","9.1","VEGA VALLSJO, NO","FM-12","99999","V020","020,1,N,0070,1","22000,1,9,N","075000,1,N,1","+0085,1","+0025,1","10138,1","24,0000,2,1",,"0,1,06,1","0,1,06,1",,"01,99,1,01,1,02,1,00800,1,00,1,08,1","999,N,+0081,1","99999,9,10127,1","2,1,016,1,+999,9","02,1","SYN088AAXX  25061 01108 31589 10207 10085 20025 30127 40138 52016 70200 81208 333 20081 70000;",
"01108099999","2010-09-25T12:00:00","4","65.7","11.85","9.1","VEGA VALLSJO, NO","FM-12","99999","V020","020,1,N,0070,1","22000,1,9,N","075000,1,N,1","+0099,1","+0041,1","10169,1",,,"0,1,06,1","0,1,06,1",,"01,99,1,01,1,02,1,00800,1,00,1,00,1",,"99999,9,10157,1","2,1,014,1,+999,9","02,1","SYN072AAXX  25121 01108 41589 10207 10099 20041 30157 40169 52014 70200 81200;",
"01108099999","2010-09-25T18:00:00","4","65.7","11.85","9.1","VEGA VALLSJO, NO","FM-12","99999","V020","020,1,N,0060,1","22000,1,9,N","055000,1,N,1","+0090,1","+0046,1","10192,1",,,"0,1,06,1","0,1,06,1",,"02,99,1,01,1,03,1,00450,1,00,1,01,1","999,M,+0100,1","99999,9,10181,1","2,1,012,1,+999,9","15,1","SYN082AAXX  25181 01108 31485 20206 10090 20046 30181 40192 52012 71500 81301 333 10100;",
"01108099999","2010-09-26T06:00:00","4","65.7","11.85","9.1","VEGA VALLSJO, NO","FM-12","99999","V020","140,1,N,0020,1","03000,1,9,N","075000,1,N,1","+0055,1","+0027,1","10226,1","24,0000,9,1",,"2,1,06,1","2,1,06,1",,"06,99,1,03,1,09,1,00800,1,07,1,02,1","999,N,+0046,1","99999,9,10215,1","2,1,007,1,+999,9","15,1","SYN088AAXX  26061 01108 31589 61402 10055 20027 30215 40226 52007 71522 83972 333 20046 70000;","Q01  00002PRCP24"
"01108099999","2010-09-26T12:00:00","4","65.7","11.85","9.1","VEGA VALLSJO, NO","FM-12","99999","V020","010,1,N,0020,1","22000,1,9,N","075000,1,N,1","+0099,1","+0032,1","10242,1",,,"2,1,06,1","0,1,06,1",,"01,99,1,01,1,09,1,00800,1,00,1,01,1",,"99999,9,10231,1","1,1,006,1,+999,9","15,1","SYN072AAXX  26121 01108 41589 10102 10099 20032 30231 40242 51006 71520 81901;",
"01108099999","2010-09-26T18:00:00","4","65.7","11.85","9.1","VEGA VALLSJO, NO","FM-12","99999","V020","020,1,N,0040,1","22000,1,9,N","075000,1,N,1","+0089,1","+0041,1","10243,1",,,"0,1,06,1","0,1,06,1",,"01,99,1,01,1,01,1,00800,1,07,1,01,1","999,M,+0099,1","99999,9,10232,1","3,1,003,1,+999,9","02,1","SYN082AAXX  26181 01108 31589 10204 10089 20041 30232 40243 53003 70200 81171 333 10099;",
"01108099999","2010-09-27T06:00:00","4","65.7","11.85","9.1","VEGA VALLSJO, NO","FM-12","99999","V020","130,1,N,0020,1","22000,1,9,N","075000,1,N,1","+0049,1","+0032,1","10254,1","24,0000,9,1",,"0,1,06,1","0,1,06,1",,"01,99,1,01,1,01,1,00800,1,00,1,01,1","999,N,+0022,1","99999,9,10242,1","2,1,003,1,+999,9","02,1","SYN088AAXX  27061 01108 31589 11302 10049 20032 30242 40254 52003 70200 81101 333 20022 70000;","Q01  00002PRCP24"
"01108099999","2010-09-27T12:00:00","4","65.7","11.85","9.1","VEGA VALLSJO, NO","FM-12","99999","V020","060,1,N,0030,1","22000,1,9,N","075000,1,N,1","+0099,1","+0034,1","10262,1",,,"0,1,06,1","0,1,06,1",,"01,99,1,01,1,01,1,00800,1,00,1,04,1",,"99999,9,10250,1","8,1,001,1,+999,9","03,1","SYN072AAXX  27121 01108 41589 10603 10099 20034 30250 40262 58001 70300 81104;",
"01108099999","2010-09-27T18:00:00","4","65.7","11.85","9.1","VEGA VALLSJO, NO","FM-12","99999","V020","060,1,N,0020,1","22000,1,9,N","075000,1,N,1","+0085,1","+0060,1","10258,1",,,"0,1,06,1","0,1,06,1",,"03,99,1,01,1,01,1,00800,1,07,1,01,1","999,M,+0104,1","99999,9,10247,1","0,1,001,1,+999,9","02,1","SYN082AAXX  27181 01108 31589 30602 10085 20060 30247 40258 50001 70200 81171 333 10104;",
"01108099999","2010-09-28T06:00:00","4","65.7","11.85","9.1","VEGA VALLSJO, NO","FM-12","99999","V020","150,1,N,0030,1","22000,1,9,N","075000,1,N,1","+0031,1","+0008,1","10243,1","24,0000,9,1",,"0,1,06,1","0,1,06,1",,"02,99,1,01,1,00,1,01750,1,07,1,02,1","999,N,+0013,1","99999,9,10232,1","7,1,003,1,+999,9","03,1","SYN088AAXX  28061 01108 31789 21503 10031 20008 30232 40243 57003 70300 81072 333 20013 70000;","Q01  00002PRCP24"
"01108099999","2010-09-28T12:00:00","4","65.7","11.85","9.1","VEGA VALLSJO, NO","FM-12","99999","V020","120,1,N,0030,1","22000,1,9,N","075000,1,N,1","+0127,1","+0023,1","10242,1",,,"0,1,06,1","0,1,06,1",,"01,99,1,00,1,00,1,99999,9,00,1,01,1",,"99999,9,10231,1","7,1,003,1,+999,9","01,1","SYN072AAXX  28121 01108 41989 11203 10127 20023 30231 40242 57003 70100 80001;",
"01108099999","2010-09-28T18:00:00","4","65.7","11.85","9.1","VEGA VALLSJO, NO","FM-12","99999","V020","140,1,N,0030,1","22000,1,9,N","075000,1,N,1","+0071,1","+0035,1","10233,1",,,"0,1,06,1","0,1,06,1",,"01,99,1,00,1,00,1,99999,9,00,1,01,1","999,M,+0127,1","99999,9,10222,1","7,1,003,1,+999,9","03,1","SYN082AAXX  28181 01108 31989 11403 10071 20035 30222 40233 57003 70300 80001 333 10127;",
"01108099999","2010-09-29T06:00:00","4","65.7","11.85","9.1","VEGA VALLSJO, NO","FM-12","99999","V020","150,1,N,0020,1","22000,1,9,N","075000,1,N,1","+0062,1","+0034,1","10234,1","24,0000,9,1",,"2,1,06,1","0,1,06,1",,"07,99,1,01,1,02,1,00450,1,00,1,01,1","999,N,+0041,1","99999,9,10222,1","2,1,004,1,+999,9","03,1","SYN088AAXX  29061 01108 31489 71502 10062 20034 30222 40234 52004 70320 81201 333 20041 70000;","Q01  00002PRCP24"
"01108099999","2010-09-29T12:00:00","4","65.7","11.85","9.1","VEGA VALLSJO, NO","FM-12","99999","V020","230,1,N,0030,1","22000,1,9,N","075000,1,N,1","+0125,1","+0082,1","10245,1",,,"2,1,06,1","2,1,06,1",,"06,99,1,04,1,02,1,00450,1,00,1,01,1",,"99999,9,10233,1","1,1,003,1,+999,9","01,1","SYN072AAXX  29121 01108 41489 62303 10125 20082 30233 40245 51003 70122 84201;",
"01108099999","2010-09-29T18:00:00","4","65.7","11.85","9.1","VEGA VALLSJO, NO","FM-12","99999","V020","180,1,N,0020,1","22000,1,9,N","060000,1,N,1","+0082,1","+0063,1","10241,1",,,"2,1,06,1","2,1,06,1",,"06,99,1,02,1,09,1,00450,1,00,1,01,1","999,M,+0126,1","99999,9,10230,1","7,1,003,1,+999,9","15,1","SYN082AAXX  29181 01108 31486 61802 10082 20063 30230 40241 57003 71522 82901 333 10126;",
"01108099999","2010-09-30T06:00:00","4","65.7","11.85","9.1","VEGA VALLSJO, NO","FM-12","99999","V020","120,1,N,0030,1","22000,1,9,N","075000,1,N,1","+0055,1","+0052,1","10218,1","12,0000,9,1","24,0000,9,1","2,1,06,1","2,1,06,1",,"06,99,1,01,1,01,1,00800,1,00,1,01,1","999,N,+0042,1","99999,9,10207,1","7,1,004,1,+999,9","02,1","SYN094AAXX  30061 01108 11589 61203 10055 20052 30207 40218 57004 69912 70222 81101 333 20042 70001;","Q01  00002PRCP24Q02  00002PRCP12"
"01108099999","2010-09-30T12:00:00","4","65.7","11.85","9.1","VEGA VALLSJO, NO","FM-12","99999","V020","050,1,N,0030,1","22000,1,9,N","075000,1,N,1","+0107,1","+0061,1","10211,1",,,"2,1,06,1","1,1,06,1",,"03,99,1,01,1,01,1,00800,1,00,1,01,1",,"99999,9,10200,1","7,1,006,1,+999,9","01,1","SYN072AAXX  30121 01108 41589 30503 10107 20061 30200 40211 57006 70121 81101;",
"01108099999","2010-09-30T18:00:00","4","65.7","11.85","9.1","VEGA VALLSJO, NO","FM-12","99999","V020","130,1,N,0020,1","22000,1,9,N","075000,1,N,1","+0062,1","+0044,1","10206,1",,,"1,1,06,1","1,1,06,1",,"05,99,1,01,1,01,1,00800,1,00,1,01,1","999,M,+0112,1","99999,9,10195,1","7,1,003,1,+999,9","02,1","SYN082AAXX  30181 01108 31589 51302 10062 20044 30195 40206 57003 70211 81101 333 10112;",
"01108099999","2010-10-01T06:00:00","4","65.7","11.85","9.1","VEGA VALLSJO, NO","FM-12","99999","V020","130,1,N,0040,1","22000,1,9,N","075000,1,N,1","+0036,1","+0012,1","10187,1","24,0000,9,1",,"1,1,06,1","1,1,06,1",,"03,99,1,00,1,00,1,99999,9,00,1,01,1","999,N,+0025,1","99999,9,10176,1","7,1,005,1,+999,9","02,1","SYN088AAXX  01061 01108 31989 31304 10036 20012 30176 40187 57005 70211 80001 333 20025 70000;","Q01  00002PRCP24"
"01108099999","2010-10-01T12:00:00","4","65.7","11.85","9.1","VEGA VALLSJO, NO","FM-12","99999","V020","040,1,N,0030,1","22000,1,9,N","075000,1,N,1","+0135,1","+0071,1","10179,1",,,"0,1,06,1","0,1,06,1",,"01,99,1,00,1,00,1,99999,9,00,1,01,1",,"99999,9,10168,1","7,1,004,1,+999,9","01,1","SYN072AAXX  01121 01108 41989 10403 10135 20071 30168 40179 57004 70100 80001;",
"01108099999","2010-10-01T18:00:00","4","65.7","11.85","9.1","VEGA VALLSJO, NO","FM-12","99999","V020","100,1,N,0030,1","22000,1,9,N","075000,1,N,1","+0131,1","+0024,1","10163,1",,,"0,1,06,1","0,1,06,1",,"01,99,1,00,1,00,1,99999,9,00,1,01,1","999,M,+0140,1","99999,9,10152,1","7,1,006,1,+999,9","02,1","SYN082AAXX  01181 01108 31989 11003 10131 20024 30152 40163 57006 70200 80001 333 10140;",
"01108099999","2010-10-02T06:00:00","4","65.7","11.85","9.1","VEGA VALLSJO, NO","FM-12","99999","V020","060,1,N,0020,1","22000,1,9,N","075000,1,N,1","+0090,1","+0032,1","10149,1","24,0000,9,1",,"0,1,06,1","0,1,06,1",,"01,99,1,01,1,01,1,01250,1,00,1,01,1","999,N,+0090,1","99999,9,10137,1","4,1,000,1,+999,9","02,1","SYN088AAXX  02061 01108 31689 10602 10090 20032 30137 40149 54000 70200 81101 333 20090 70000;","Q01  00002PRCP24"
"01108099999","2010-10-02T12:00:00","4","65.7","11.85","9.1","VEGA VALLSJO, NO","FM-12","99999","V020","160,1,N,0040,1","22000,1,9,N","075000,1,N,1","+0125,1","+0012,1","10156,1",,,"0,1,06,1","0,1,06,1",,"03,99,1,01,1,01,1,01250,1,00,1,01,1",,"99999,9,10146,1","8,1,003,1,+999,9","03,1","SYN072AAXX  02121 01108 41689 31604 10125 20012 30146 40156 58003 70300 81101;",
"01108099999","2010-10-02T18:00:00","4","65.7","11.85","9.1","VEGA VALLSJO, NO","FM-12","99999","V020","160,1,N,0070,1","22000,1,9,N","075000,1,N,1","+0117,1","+0022,1","10152,1",,,"0,1,06,1","0,1,06,1",,"04,99,1,01,1,01,1,01250,1,00,1,04,1","999,M,+0131,1","99999,9,10142,1","2,1,002,1,+999,9","03,1","SYN082AAXX  02181 01108 31689 41607 10117 20022 30142 40152 52002 70300 81104 333 10131;",
"01108099999","2010-10-03T06:00:00","4","65.7","11.85","9.1","VEGA VALLSJO, NO","FM-12","99999","V020","130,1,N,0040,1","07500,1,9,N","075000,1,N,1","+0089,1","+0020,1","10128,1","24,0000,9,1",,"2,1,06,1","1,1,06,1",,"05,99,1,01,1,01,1,01250,1,04,1,02,1","999,N,+0084,1","99999,9,10117,1","7,1,007,1,+999,9","01,1","SYN088AAXX  03061 01108 31689 51304 10089 20020 30117 40128 57007 70121 81142 333 20084 70000;","Q01  00002PRCP24"
"01108099999","2010-10-03T12:00:00","4","65.7","11.85","9.1","VEGA VALLSJO, NO","FM-12","99999","V020","150,1,N,0050,1","03000,1,9,N","075000,1,N,1","+0124,1","+0036,1","10103,1",,,"2,1,06,1","1,1,06,1",,"07,99,1,02,1,04,1,01750,1,02,1,06,1",,"99999,9,10092,1","7,1,017,1,+999,9","03,1","SYN072AAXX  03121 01108 41789 71505 10124 20036 30092 40103 57017 70321 82426;",
"01108099999","2010-10-03T18:00:00","4","65.7","11.85","9.1","VEGA VALLSJO, NO","FM-12","99999","V020","150,1,N,0100,1","03000,1,9,N","075000,1,N,1","+0125,1","+0042,1","10061,1",,,"2,1,06,1","2,1,06,1",,"07,99,1,03,1,04,1,00800,1,07,1,02,1","999,M,+0129,1","99999,9,10051,1","7,1,015,1,+999,9","01,1","SYN082AAXX  03181 01108 31589 71510 10125 20042 30051 40061 57015 70122 83472 333 10129;",
"01108099999","2010-10-04T06:00:00","4","65.7","11.85","9.1","VEGA VALLSJO, NO","FM-12","99999","V020","140,1,N,0140,1","03000,1,9,N","050000,1,N,1","+0151,1","+0077,1","09987,1","12,9999,9,9","24,9999,9,9","2,1,06,1","2,1,06,1",,"07,99,1,04,1,07,1,01250,1,02,1,99,9","999,N,+0120,1","99999,9,09977,1","7,1,025,1,+999,9","60,1","SYN094AAXX  04061 01108 11684 71414 10151 20077 39977 49987 57025 69902 76022 8472/ 333 20120 79999;","Q01  00002PRCP24Q02  00002PRCP12Q03  00002PRCP12Q04  00002PRCP24"
"01108099999","2010-10-04T12:00:00","4","65.7","11.85","9.1","VEGA VALLSJO, NO","FM-12","99999","V020","160,1,N,0160,1","03000,1,9,N","050000,1,N,1","+0151,1","+0081,1","09995,1",,,"6,1,06,1","2,1,06,1",,"08,99,1,03,1,07,1,00800,1,02,1,99,9",,"99999,9,09985,1","2,1,010,1,+999,9","60,1","SYN072AAXX  04121 01108 41584 81616 10151 20081 39985 49995 52010 76062 8372/;",
"01108099999","2010-10-04T18:00:00","4","65.7","11.85","9.1","VEGA VALLSJO, NO","FM-12","99999","V020","150,1,N,0090,1","03000,1,9,N","030000,1,N,1","+0136,1","+0093,1","10027,1","12,0000,2,1",,"6,1,06,1","2,1,06,1",,"08,99,1,02,1,07,1,00800,1,02,1,99,9","999,M,+0160,1","99999,9,10017,1","2,1,016,1,+999,9","60,1","SYN088AAXX  04181 01108 11580 81509 10136 20093 30017 40027 52016 69912 76062 8272/ 333 10160;",
"01108099999","2010-10-05T06:00:00","4","65.7","11.85","9.1","VEGA VALLSJO, NO","FM-12","99999","V020","150,1,N,0080,1","07500,1,9,N","060000,1,N,1","+0150,1","+0083,1","10018,1","12,0000,2,1","24,0003,9,1","2,1,06,1","2,1,06,1",,"05,99,1,02,1,04,1,01250,1,04,1,02,1","999,N,+0130,1","99999,9,10007,1","7,1,008,1,+999,9","02,1","SYN094AAXX  05061 01108 11686 51508 10150 20083 30007 40018 57008 69912 70222 82442 333 20130 70002;",
"01108099999","2010-10-05T12:00:00","4","65.7","11.85","9.1","VEGA VALLSJO, NO","FM-12","99999","V020","150,1,N,0100,1","07500,1,9,N","065000,1,N,1","+0170,1","+0087,1","10021,1",,,"1,1,06,1","1,1,06,1",,"05,99,1,01,1,04,1,01250,1,04,1,02,1",,"99999,9,10011,1","2,1,001,1,+999,9","03,1","SYN072AAXX  05121 01108 41687 51510 10170 20087 30011 40021 52001 70311 81442;",
"01108099999","2010-10-05T18:00:00","4","65.7","11.85","9.1","VEGA VALLSJO, NO","FM-12","99999","V020","140,1,N,0090,1","03000,1,9,N","060000,1,N,1","+0156,1","+0079,1","10036,1",,,"2,1,06,1","2,1,06,1",,"07,99,1,04,1,07,1,01250,1,02,1,99,9","999,M,+0175,1","99999,9,10026,1","1,1,007,1,+999,9","15,1","SYN082AAXX  05181 01108 31686 71409 10156 20079 30026 40036 51007 71522 8472/ 333 10175;",
"01108099999","2010-10-06T06:00:00","4","65.7","11.85","9.1","VEGA VALLSJO, NO","FM-12","99999","V020","130,1,N,0080,1","03000,1,9,N","065000,1,N,1","+0130,1","+0068,1","10059,1","24,0000,9,1",,"2,1,06,1","2,1,06,1",,"07,99,1,03,1,04,1,01250,1,02,1,06,1","999,N,+0130,1","99999,9,10048,1","2,1,010,1,+999,9","03,1","SYN088AAXX  06061 01108 31687 71308 10130 20068 30048 40059 52010 70322 83426 333 20130 70000;","Q01  00002PRCP24"
"01108099999","2010-10-06T12:00:00","4","65.7","11.85","9.1","VEGA VALLSJO, NO","FM-12","99999","V020","110,1,N,0060,1","03000,1,9,N","070000,1,N,1","+0132,1","+0070,1","10074,1",,,"6,1,06,1","2,1,06,1",,"08,99,1,02,1,07,1,01250,1,02,1,99,9",,"99999,9,10063,1","1,1,004,1,+999,9","15,1","SYN072AAXX  06121 01108 41688 81106 10132 20070 30063 40074 51004 71562 8272/;",
"01108099999","2010-10-06T18:00:00","4","65.7","11.85","9.1","VEGA VALLSJO, NO","FM-12","99999","V020","130,1,N,0110,1","03000,1,9,N","020000,1,N,1","+0120,1","+0094,1","10034,1","12,0030,9,1",,"6,1,06,1","2,1,06,1",,"08,99,1,03,1,07,1,00800,1,02,1,99,9","999,M,+0135,1","99999,9,10023,1","7,1,031,1,+999,9","61,1","SYN088AAXX  06181 01108 11570 81311 10120 20094 30023 40034 57031 60032 76162 8372/ 333 10135;",
"01108099999","2010-10-07T06:00:00","4","65.7","11.85","9.1","VEGA VALLSJO, NO","FM-12","99999","V020","190,1,N,0120,1","00420,1,9,N","025000,1,N,1","+0124,1","+0081,1","10072,1","12,0089,9,1","24,0124,9,1","6,1,06,1","2,1,06,1",,"07,99,1,07,1,09,1,00450,1,99,9,99,9","999,N,+0112,1","99999,9,10062,1","2,1,045,1,+999,9","15,1","SYN094AAXX  07061 01108 11475 71912 10124 20081 30062 40072 52045 60092 71562 879// 333 20112 70124;",
"01108099999","2010-10-07T12:00:00","4","65.7","11.85","9.1","VEGA VALLSJO, NO","FM-12","99999","V020","220,1,N,0100,1","00420,1,9,N","025000,1,N,1","+0125,1","+0101,1","10169,1",,,"8,1,06,1","2,1,06,1",,"07,99,1,07,1,09,1,00450,1,99,9,99,9",,"99999,9,10158,1","2,1,050,2,+999,9","25,1","SYN072AAXX  07121 01108 41475 72210 10125 20101 30158 40169 52050 72582 879//;","Q01+000502APC3  "
"01108099999","2010-10-07T18:00:00","4","65.7","11.85","9.1","VEGA VALLSJO, NO","FM-12","99999","V020","200,1,N,0070,1","22000,1,9,N","050000,1,N,1","+0116,1","+0092,1","10228,1","12,0005,9,1",,"8,1,06,1","2,1,06,1",,"06,99,1,04,1,02,1,00450,1,00,1,01,1","999,M,+0126,1","99999,9,10217,1","2,1,021,1,+999,9","02,1","SYN088AAXX  07181 01108 11484 62007 10116 20092 30217 40228 52021 69942 70282 84201 333 10126;",
"01108099999","2010-10-08T06:00:00","4","65.7","11.85","9.1","VEGA VALLSJO, NO","FM-12","99999","V020","200,1,N,0070,1","03000,1,9,N","070000,1,N,1","+0135,1","+0064,1","10268,1","24,0005,9,1",,"2,1,06,1","1,1,06,1",,"06,99,1,03,1,05,1,01250,1,07,1,02,1","999,N,+0115,1","99999,9,10257,1","2,1,008,1,+999,9","03,1","SYN088AAXX  08061 01108 31688 62007 10135 20064 30257 40268 52008 70321 83572 333 20115 70004;",
"01108099999","2010-10-08T12:00:00","4","65.7","11.85","9.1","VEGA VALLSJO, NO","FM-12","99999","V020","210,1,N,0080,1","00420,1,9,N","040000,1,N,1","+0131,1","+0101,1","10287,1",,,"2,1,06,1","2,1,06,1",,"08,99,1,07,1,07,1,00450,1,02,1,99,9",,"99999,9,10275,1","1,1,009,1,+999,9","15,1","SYN072AAXX  08121 01108 41482 82108 10131 20101 30275 40287 51009 71522 8772/;",
"01108099999","2010-10-08T18:00:00","4","65.7","11.85","9.1","VEGA VALLSJO, NO","FM-12","99999","V020","220,1,N,0070,1","00210,1,9,N","050000,1,N,1","+0119,1","+0100,1","10298,1",,,"2,1,06,1","2,1,06,1",,"07,99,1,07,1,02,1,00250,1,99,9,99,9","999,M,+0141,1","99999,9,10287,1","2,1,006,1,+999,9","01,1","SYN082AAXX  08181 01108 31384 72207 10119 20100 30287 40298 52006 70122 872// 333 10141;",
"01108099999","2010-10-09T06:00:00","4","65.7","11.85","9.1","VEGA VALLSJO, NO","FM-12","99999","V020","210,1,N,0080,1","03000,1,9,N","055000,1,N,1","+0118,1","+0094,1","10264,1","24,0000,9,1",,"2,1,06,1","2,1,06,1",,"08,99,1,03,1,07,1,00250,1,07,1,07,1","999,N,+0112,1","99999,9,10252,1","7,1,015,1,+999,9","03,1","SYN088AAXX  09061 01108 31385 82108 10118 20094 30252 40264 57015 70322 83777 333 20112 70000;","Q01  00002PRCP24"
"01108099999","2010-10-09T12:00:00","4","65.7","11.85","9.1","VEGA VALLSJO, NO","FM-12","99999","V020","230,1,N,0090,1","00210,1,9,N","020000,1,N,1","+0112,1","+0093,1","10229,1",,,"8,1,06,1","2,1,06,1",,"08,99,1,06,1,09,1,00250,1,06,1,99,9",,"99999,9,10217,1","7,1,027,1,+999,9","25,1","SYN072AAXX  09121 01108 41370 82309 10112 20093 30217 40229 57027 72582 8696/;",
"01108099999","2010-10-09T18:00:00","4","65.7","11.85","9.1","VEGA VALLSJO, NO","FM-12","99999","V020","290,1,N,0080,1","00420,1,9,N","030000,1,N,1","+0103,1","+0057,1","10219,1","12,0020,9,1",,"8,1,06,1","2,1,06,1",,"07,99,1,06,1,09,1,00450,1,06,1,02,1","999,M,+0118,1","99999,9,10207,1","2,1,003,1,+999,9","25,1","SYN088AAXX  09181 01108 11480 72908 10103 20057 30207 40219 52003 60022 72582 86962 333 10118;",
"01108099999","2010-10-10T06:00:00","4","65.7","11.85","9.1","VEGA VALLSJO, NO","FM-12","99999","V020","310,1,N,0070,1","00420,1,9,N","025000,1,N,1","+0056,1","+0010,1","10240,1","12,0010,9,1","24,0033,9,1","8,1,06,1","2,1,06,1",,"07,99,1,07,1,09,1,00450,1,99,9,99,9","999,N,+0050,1","99999,9,10228,1","2,1,018,1,+999,9","80,1","SYN094AAXX  10061 01108 11475 73107 10056 20010 30228 40240 52018 60012 78082 879// 333 20050 70032;",
"01108099999","2010-10-10T12:00:00","4","65.7","11.85","9.1","VEGA VALLSJO, NO","FM-12","99999","V020","320,1,N,0070,1","00420,1,9,N","025000,1,N,1","+0068,1","+0017,1","10253,1",,,"8,1,06,1","2,1,06,1",,"07,99,1,06,1,09,1,00450,1,06,1,02,1",,"99999,9,10242,1","2,1,005,1,+999,9","25,1","SYN072AAXX  10121 01108 41475 73207 10068 20017 30242 40253 52005 72582 86962;",
"01108099999","2010-10-10T18:00:00","4","65.7","11.85","9.1","VEGA VALLSJO, NO","FM-12","99999","V020","310,1,N,0060,1","03000,1,9,N","040000,1,N,1","+0069,1","+0022,1","10245,1","12,0000,2,1",,"8,1,06,1","2,1,06,1",,"07,99,1,03,1,09,1,00450,1,07,1,02,1","999,M,+0072,1","99999,9,10233,1","7,1,004,1,+999,9","15,1","SYN088AAXX  10181 01108 11482 73106 10069 20022 30233 40245 57004 69922 71582 83972 333 10072;",
"01108099999","2010-10-11T06:00:00","4","65.7","11.85","9.1","VEGA VALLSJO, NO","FM-12","99999","V020","310,1,N,0070,1","00420,1,9,N","010000,1,N,1","+0055,1","+0037,1","10186,1","12,0010,9,1","24,0013,9,1","8,1,06,1","2,1,06,1",,"08,99,1,08,1,09,1,00450,1,99,9,99,9","999,N,+0055,1","99999,9,10175,1","7,1,014,1,+999,9","81,1","SYN094AAXX  11061 01108 11460 83107 10055 20037 30175 40186 57014 60012 78182 889// 333 20055 70013;",
"01108099999","2010-10-11T12:00:00","4","65.7","11.85","9.1","VEGA VALLSJO, NO","FM-12","99999","V020","260,1,N,0070,1","00420,1,9,N","025000,1,N,1","+0076,1","+0051,1","10149,1",,,"8,1,06,1","2,1,06,1",,"07,99,1,06,1,09,1,00450,1,06,1,99,9",,"99999,9,10137,1","7,1,023,1,+999,9","25,1","SYN072AAXX  11121 01108 41475 72607 10076 20051 30137 40149 57023 72582 8696/;",
"01108099999","2010-10-11T18:00:00","4","65.7","11.85","9.1","VEGA VALLSJO, NO","FM-12","99999","V020","340,1,N,0090,1","00420,1,9,N","020000,1,N,1","+0067,1","+0022,1","10143,1","12,0020,9,1",,"8,1,06,1","2,1,06,1",,"07,99,1,07,1,09,1,00450,1,99,9,99,9","999,M,+0081,1","99999,9,10132,1","3,1,010,1,+999,9","80,1","SYN088AAXX  11181 01108 11470 73409 10067 20022 30132 40143 53010 60022 78082 879// 333 10081;",
"01108099999","2010-10-12T06:00:00","4","65.7","11.85","9.1","VEGA VALLSJO, NO","FM-12","99999","V020","360,1,N,0090,1","03000,1,9,N","040000,1,N,1","+0051,1","+0019,1","10187,1","12,0000,2,1","24,0018,9,1","8,1,06,1","1,1,06,1",,"06,99,1,04,1,09,1,00800,1,06,1,01,1","999,N,+0045,1","99999,9,10176,1","2,1,008,1,+999,9","80,1","SYN094AAXX  12061 01108 11582 63609 10051 20019 30176 40187 52008 69912 78081 84961 333 20045 70019;",
"01108099999","2010-10-12T12:00:00","4","65.7","11.85","9.1","VEGA VALLSJO, NO","FM-12","99999","V020","320,1,N,0070,1","03000,1,9,N","040000,1,N,1","+0059,1","-0006,1","10192,1",,,"8,1,06,1","2,1,06,1",,"07,99,1,04,1,09,1,00800,1,07,1,02,1",,"99999,9,10181,1","7,1,001,1,+999,9","15,1","SYN072AAXX  12121 01108 41582 73207 10059 21006 30181 40192 57001 71582 84972;",
"01108099999","2010-10-12T18:00:00","4","65.7","11.85","9.1","VEGA VALLSJO, NO","FM-12","99999","V020","310,1,N,0080,1","03000,1,9,N","050000,1,N,1","+0060,1","+0010,1","10178,1","12,0000,2,1",,"8,1,06,1","2,1,06,1",,"08,99,1,04,1,09,1,00800,1,01,1,99,9","999,M,+0064,1","99999,9,10167,1","7,1,006,1,+999,9","15,1","SYN088AAXX  12181 01108 11584 83108 10060 20010 30167 40178 57006 69912 71582 8491/ 333 10064;",
"01108099999","2010-10-13T06:00:00","4","65.7","11.85","9.1","VEGA VALLSJO, NO","FM-12","99999","V020","310,1,N,0030,1","03000,1,9,N","025000,1,N,1","+0052,1","+0010,1","10133,1","12,0020,9,1","24,0020,9,1","8,1,06,1","6,1,06,1",,"08,99,1,04,1,07,1,00450,1,02,1,99,9","999,N,+0041,1","99999,9,10122,1","7,1,014,1,+999,9","60,1","SYN094AAXX  13061 01108 11475 83103 10052 20010 30122 40133 57014 60022 76086 8472/ 333 20041 70020;",
"01108099999","2010-10-13T12:00:00","4","65.7","11.85","9.1","VEGA VALLSJO, NO","FM-12","99999","V020","160,1,N,0020,1","00420,1,9,N","009000,1,N,1","+0053,1","+0041,1","10082,1",,,"6,1,06,1","6,1,06,1",,"08,99,1,06,1,07,1,00450,1,02,1,99,9",,"99999,9,10071,1","7,1,038,1,+999,9","61,1","SYN072AAXX  13121 01108 41459 81602 10053 20041 30071 40082 57038 76166 8672/;",
"01108099999","2010-10-13T18:00:00","4","65.7","11.85","9.1","VEGA VALLSJO, NO","FM-12","99999","V020","260,1,N,0120,1","00420,1,9,N","030000,1,N,1","+0083,1","+0071,1","99999,9","12,0099,9,1",,"8,1,06,1","6,1,06,1",,"06,99,1,06,1,09,1,00450,1,99,9,99,9","999,M,+0089,1",,"7,1,027,1,+999,9","15,1","SYN088AAXX  13181 01108 11480 62612 10083 20071 39981 49991 57027 60102 71586 869// 333 10089;","Q01+099813APOSP "
"01108099999","2010-10-14T06:00:00","4","65.7","11.85","9.1","VEGA VALLSJO, NO","FM-12","99999","V020","360,1,N,0110,1","00750,1,9,N","010000,1,N,1","+0045,1","+0020,1","10057,1","12,0020,9,1","24,0124,9,1","8,1,06,1","2,1,06,1",,"07,99,1,07,1,09,1,00800,1,99,9,99,9","999,N,+0037,1","99999,9,10046,1","2,1,023,1,+999,9","88,1","SYN094AAXX  14061 01108 11560 73611 10045 20020 30046 40057 52023 60022 78882 879// 333 20037 70124;",
"01108099999","2010-10-14T12:00:00","4","65.7","11.85","9.1","VEGA VALLSJO, NO","FM-12","99999","V020","040,1,N,0070,1","00210,1,9,N","020000,1,N,1","+0033,1","+0018,1","10101,1",,,"8,1,06,1","2,1,06,1",,"07,99,1,07,1,09,1,00250,1,99,9,99,9",,"99999,9,10090,1","2,1,021,1,+999,9","80,1","SYN072AAXX  14121 01108 41370 70407 10033 20018 30090 40101 52021 78082 879//;",
"01108099999","2010-10-14T18:00:00","4","65.7","11.85","9.1","VEGA VALLSJO, NO","FM-12","99999","V020","030,1,N,0090,1","00420,1,9,N","020000,1,N,1","+0042,1","+0014,1","10111,1","12,0140,9,1",,"8,1,06,1","2,1,06,1",,"07,99,1,07,1,09,1,00450,1,99,9,99,9","999,M,+0059,1","99999,9,10100,1","2,1,009,1,+999,9","27,1","SYN088AAXX  14181 01108 11470 70309 10042 20014 30100 40111 52009 60142 72782 879// 333 10059;",
"01108099999","2010-10-15T06:00:00","4","65.7","11.85","9.1","VEGA VALLSJO, NO","FM-12","99999","V020","350,1,N,0070,1","03000,1,9,N","040000,1,N,1","+0050,1","-0010,1","10094,1","12,0010,9,1","24,0150,9,1","8,1,06,1","2,1,06,1",,"07,99,1,03,1,09,1,00450,1,06,1,02,1","999,N,+0036,1","99999,9,10082,1","7,1,006,1,+999,9","15,1","SYN094AAXX  15061 01108 11482 73507 10050 21010 30082 40094 57006 60012 71582 83962 333 20036 70150;",
"01108099999","2010-10-15T12:00:00","4","65.7","11.85","9.1","VEGA VALLSJO, NO","FM-12","99999","V020","020,1,N,0030,1","00420,1,9,N","020000,1,N,1","+0044,1","+0018,1","10121,1",,,"8,1,06,1","2,1,06,1",,"07,99,1,07,1,09,1,00450,1,99,9,99,9",,"99999,9,10110,1","2,1,013,1,+999,9","25,1","SYN072AAXX  15121 01108 41470 70203 10044 20018 30110 40121 52013 72582 879//;",
"01108099999","2010-10-15T18:00:00","4","65.7","11.85","9.1","VEGA VALLSJO, NO","FM-12","99999","V020","240,1,N,0020,1","00420,1,9,N","020000,1,N,1","+0033,1","+0017,1","10140,1","12,0008,9,1",,"8,1,06,1","2,1,06,1",,"07,99,1,05,1,09,1,00450,1,06,1,01,1","999,M,+0051,1","99999,9,10128,1","2,1,011,1,+999,9","80,1","SYN088AAXX  15181 01108 11470 72402 10033 20017 30128 40140 52011 69972 78082 85961 333 10051;",
"01108099999","2010-10-16T06:00:00","4","65.7","11.85","9.1","VEGA VALLSJO, NO","FM-12","99999","V020","250,1,N,0050,1","00420,1,9,N","010000,1,N,1","+0049,1","+0036,1","10142,1","12,0041,9,1","24,0046,9,1","8,1,06,1","2,1,06,1",,"08,99,1,08,1,09,1,00450,1,99,9,99,9","999,N,+0017,1","99999,9,10131,1","7,1,002,1,+999,9","81,1","SYN094AAXX  16061 01108 11460 82505 10049 20036 30131 40142 57002 60042 78182 889// 333 20017 70046;",
"01108099999","2010-10-16T12:00:00","4","65.7","11.85","9.1","VEGA VALLSJO, NO","FM-12","99999","V020","300,1,N,0020,1","03000,1,9,N","055000,1,N,1","+0066,1","+0025,1","10153,1",,,"8,1,06,1","2,1,06,1",,"07,99,1,04,1,09,1,00450,1,07,1,06,1",,"99999,9,10142,1","2,1,008,1,+999,9","15,1","SYN072AAXX  16121 01108 41485 73002 10066 20025 30142 40153 52008 71582 84976;",
"01108099999","2010-10-16T18:00:00","4","65.7","11.85","9.1","VEGA VALLSJO, NO","FM-12","99999","V020","210,1,N,0050,1","03000,1,9,N","020000,1,N,1","+0069,1","+0059,1","10140,1","12,0020,9,1",,"8,1,06,1","6,1,06,1",,"08,99,1,04,1,07,1,00450,1,02,1,99,9","999,M,+0070,1","99999,9,10128,1","7,1,013,1,+999,9","60,1","SYN088AAXX  16181 01108 11470 82105 10069 20059 30128 40140 57013 60022 76086 8472/ 333 10070;",
"01108099999","2010-10-17T06:00:00","4","65.7","11.85","9.1","VEGA VALLSJO, NO","FM-12","99999","V020","240,1,N,0080,1","00120,1,9,N","008000,1,N,1","+0095,1","+0084,1","10074,1","12,0041,9,1","24,0053,9,1","6,1,06,1","5,1,06,1",,"08,99,1,07,1,07,1,00150,1,02,1,99,9","999,N,+0069,1","99999,9,10063,1","6,1,015,1,+999,9","50,1","SYN094AAXX  17061 01108 11258 82408 10095 20084 30063 40074 56015 60042 75065 8772/ 333 20069 70054;",
"01108099999","2010-10-17T12:00:00","4","65.7","11.85","9.1","VEGA VALLSJO, NO","FM-12","99999","V020","200,1,N,0040,1","00120,1,9,N","002500,1,N,1","+0095,1","+0094,1","10067,1",,,"2,1,06,1","2,1,06,1",,"08,99,1,07,1,06,1,00150,1,02,1,99,9",,"99999,9,10057,1","8,1,008,1,+999,9","59,1","SYN072AAXX  17121 01108 41225 82004 10095 20094 30057 40067 58008 75922 8762/;",
"01108099999","2010-10-17T18:00:00","4","65.7","11.85","9.1","VEGA VALLSJO, NO","FM-12","99999","V020","220,1,N,0130,1","00210,1,9,N","015000,1,N,1","+0099,1","+0077,1","10034,1","12,0130,9,1",,"6,1,06,1","5,1,06,1",,"08,99,1,07,1,07,1,00250,1,02,1,99,9","999,M,+0101,1","99999,9,10023,1","7,1,016,1,+999,9","61,1","SYN088AAXX  17181 01108 11365 82213 10099 20077 30023 40034 57016 60132 76165 8772/ 333 10101;",
"01108099999","2010-10-18T06:00:00","4","65.7","11.85","9.1","VEGA VALLSJO, NO","FM-12","99999","V020","180,1,N,0110,1","00420,1,9,N","010000,1,N,1","+0086,1","+0054,1","09921,1","12,0109,9,1","24,0236,9,1","6,1,06,1","5,1,06,1",,"07,99,1,07,1,09,1,00450,1,99,9,99,9","999,N,+0079,1","99999,9,09911,1","7,1,025,1,+999,9","81,1","SYN094AAXX  18061 01108 11460 71811 10086 20054 39911 49921 57025 60112 78165 879// 333 20079 70237;",
"01108099999","2010-10-18T12:00:00","4","65.7","11.85","9.1","VEGA VALLSJO, NO","FM-12","99999","V020","180,1,N,0130,1","03000,1,9,N","050000,1,N,1","+0099,1","+0028,1","09884,1",,,"8,1,06,1","2,1,06,1",,"07,99,1,04,1,09,1,00800,1,06,1,02,1",,"99999,9,09873,1","7,1,015,1,+999,9","25,1","SYN072AAXX  18121 01108 41584 71813 10099 20028 39873 49884 57015 72582 84962;",
"01108099999","2010-10-18T18:00:00","4","65.7","11.85","9.1","VEGA VALLSJO, NO","FM-12","99999","V020","210,1,N,0080,1","00420,1,9,N","007000,1,N,1","+0084,1","+0073,1","09872,1","12,0099,9,1",,"8,1,06,1","8,1,06,1",,"08,99,1,08,1,09,1,00450,1,99,9,99,9","999,M,+0099,1","99999,9,09862,1","7,1,004,1,+999,9","81,1","SYN088AAXX  18181 01108 11457 82108 10084 20073 39862 49872 57004 60102 78188 889// 333 10099;",
"01108099999","2010-10-19T06:00:00","4","65.7","11.85","9.1","VEGA VALLSJO, NO","FM-12","99999","V020","350,1,N,0120,1","00420,1,9,N","015000,1,N,1","+0058,1","+0040,1","09895,1","12,0201,9,1","24,0300,9,1","8,1,06,1","6,1,06,1",,"08,99,1,05,1,07,1,00450,1,02,1,99,9","999,N,+0058,1","99999,9,09885,1","2,1,031,1,+999,9","61,1","SYN094AAXX  19061 01108 11465 83512 10058 20040 39885 49895 52031 60202 76186 8572/ 333 20058 70299;",
"01108099999","2010-10-19T12:00:00","4","65.7","11.85","9.1","VEGA VALLSJO, NO","FM-12","99999","V020","360,1,N,0130,1","03000,1,9,N","010000,1,N,1","+0029,1","+0000,1","09971,1",,,"6,1,06,1","6,1,06,1",,"06,99,1,04,1,07,1,00450,1,02,1,99,9",,"99999,9,09960,1","2,1,039,1,+999,9","68,1","SYN072AAXX  19121 01108 41460 63613 10029 21000 39960 49971 52039 76866 8472/;",
"01108099999","2010-10-19T18:00:00","4","65.7","11.85","9.1","VEGA VALLSJO, NO","FM-12","99999","V020","350,1,N,0100,1","00750,1,9,N","050000,1,N,1","+0023,1","-0042,1","10009,1","12,0030,9,1",,"8,1,06,1","2,1,06,1",,"06,99,1,06,1,09,1,00800,1,99,9,99,9","999,M,+0059,1","99999,9,09997,1","2,1,018,1,+999,9","15,1","SYN088AAXX  19181 01108 11584 63510 10023 21042 39997 40009 52018 60032 71582 869// 333 10059;",
"01108099999","2010-10-20T06:00:00","4","65.7","11.85","9.1","VEGA VALLSJO, NO","FM-12","99999","V020","320,1,N,0050,1","00420,1,9,N","020000,1,N,1","+0015,1","-0041,1","10009,1","12,0000,9,1","24,0033,9,1","8,1,06,1","1,1,06,1",,"06,99,1,05,1,09,1,00450,1,00,1,01,1","999,N,-0010,1","99999,9,09997,1","4,1,000,1,+999,9","16,1","SYN094AAXX  20061 01108 11470 63205 10015 21041 39997 40009 54000 69922 71681 85901 333 21010 70033;","Q01  00002PRCP12"
"01108099999","2010-10-20T12:00:00","4","65.7","11.85","9.1","VEGA VALLSJO, NO","FM-12","99999","V020","130,1,N,0030,1","00420,1,9,N","040000,1,N,1","+0000,1","-0004,1","10020,1",,,"8,1,06,1","2,1,06,1",,"06,99,1,06,1,09,1,00450,1,00,1,00,1",,"99999,9,10008,1","1,1,007,1,+999,9","15,1","SYN072AAXX  20121 01108 41482 61303 10000 21004 30008 40020 51007 71582 86900;",
"01108099999","2010-10-20T18:00:00","4","65.7","11.85","9.1","VEGA VALLSJO, NO","FM-12","99999","V020","260,1,N,0080,1","00420,1,9,N","007000,1,N,1","+0016,1","+0006,1","10014,1","12,0020,9,1",,"8,1,06,1","2,1,06,1",,"08,99,1,08,1,09,1,00450,1,99,9,99,9","999,M,+0022,1","99999,9,10002,1","7,1,004,1,+999,9","83,1","SYN088AAXX  20181 01108 11457 82608 10016 20006 30002 40014 57004 60022 78382 889// 333 10022;",
"01108099999","2010-10-21T06:00:00","4","65.7","11.85","9.1","VEGA VALLSJO, NO","FM-12","99999","V020","120,1,N,0050,1","00120,1,9,N","011000,1,N,1","+0014,1","+0014,1","09992,1","12,0051,9,1","24,0071,9,1","9,1,06,1","8,1,06,1",,"07,99,1,07,1,09,1,00150,1,99,9,99,9","999,N,+0000,1","99999,9,09981,1","7,1,010,1,+999,9","14,1","SYN094AAXX  21061 01108 11261 71205 10014 20014 39981 49992 57010 60052 71498 879// 333 20000 70070;",
"01108099999","2010-10-21T12:00:00","4","65.7","11.85","9.1","VEGA VALLSJO, NO","FM-12","99999","V020","160,1,N,0040,1","00120,1,9,N","001500,1,N,1","+0015,1","+0015,1","09981,1",,,"8,1,06,1","2,1,06,1",,"07,99,1,07,1,09,1,00150,1,99,9,99,9",,"99999,9,09970,1","7,1,007,1,+999,9","86,1","SYN072AAXX  21121 01108 41215 71604 10015 20015 39970 49981 57007 78682 879//;",
"01108099999","2010-10-21T18:00:00","4","65.7","11.85","9.1","VEGA VALLSJO, NO","FM-12","99999","V020","130,1,N,0040,1","00420,1,9,N","020000,1,N,1","+0009,1","-0012,1","09962,1","12,0020,9,1",,"8,1,06,1","2,1,06,1",,"07,99,1,07,1,09,1,00450,1,99,9,99,9","999,M,+0020,1","99999,9,09951,1","7,1,009,1,+999,9","15,1","SYN088AAXX  21181 01108 11470 71304 10009 21012 39951 49962 57009 60022 71582 879// 333 10020;",
"01108099999","2010-10-22T06:00:00","4","65.7","11.85","9.1","VEGA VALLSJO, NO","FM-12","99999","V020","170,1,N,0020,1","03000,1,9,N","050000,1,N,1","-0022,1","-0022,1","09931,1","12,0020,9,1","24,0038,9,1","8,1,06,1","1,1,06,1",,"07,99,1,02,1,09,1,00150,1,01,1,06,1","999,N,-0029,1","99999,9,09920,1","7,1,010,1,+999,9","15,1","SYN094AAXX  22061 01108 11284 71702 11022 21022 39920 49931 57010 60022 71581 82916 333 21029 70037;",
"01108099999","2010-10-22T12:00:00","4","65.7","11.85","9.1","VEGA VALLSJO, NO","FM-12","99999","V020","250,1,N,0090,1","00420,1,9,N","020000,1,N,1","+0048,1","+0006,1","09913,1",,,"2,1,06,1","2,1,06,1",,"07,99,1,07,1,09,1,00450,1,99,9,99,9",,"99999,9,09902,1","7,1,011,1,+999,9","26,1","SYN072AAXX  22121 01108 41470 72509 10048 20006 39902 49913 57011 72622 879//;",
"01108099999","2010-10-22T18:00:00","4","65.7","11.85","9.1","VEGA VALLSJO, NO","FM-12","99999","V020","330,1,N,0030,1","00210,1,9,N","007000,1,N,1","+0050,1","+0050,1","09896,1","12,0030,9,1",,"8,1,06,1","6,1,06,1",,"08,99,1,08,1,09,1,00250,1,99,9,99,9","999,M,+0062,1","99999,9,09886,1","5,1,003,1,+999,9","81,1","SYN088AAXX  22181 01108 11357 83303 10050 20050 39886 49896 55003 60032 78186 889// 333 10062;",
"01108099999","2010-10-23T06:00:00","4","65.7","11.85","9.1","VEGA VALLSJO, NO","FM-12","99999","V020","300,1,N,0090,1","00420,1,9,N","020000,1,N,1","+0057,1","+0039,1","09925,1","12,0079,9,1","24,0107,9,1","8,1,06,1","2,1,06,1",,"07,99,1,06,1,09,1,00450,1,06,1,02,1","999,N,+0041,1","99999,9,09915,1","2,1,009,1,+999,9","25,1","SYN094AAXX  23061 01108 11470 73009 10057 20039 39915 49925 52009 60082 72582 86962 333 20041 70106;",
"01108099999","2010-10-23T12:00:00","4","65.7","11.85","9.1","VEGA VALLSJO, NO","FM-12","99999","V020","280,1,N,0100,1","07500,1,9,N","030000,1,N,1","+0068,1","+0032,1","09934,1",,,"8,1,06,1","2,1,06,1",,"06,99,1,04,1,09,1,00800,1,00,1,02,1",,"99999,9,09923,1","1,1,004,1,+999,9","25,1","SYN072AAXX  23121 01108 41580 62810 10068 20032 39923 49934 51004 72582 84902;",
"01108099999","2010-10-23T18:00:00","4","65.7","11.85","9.1","VEGA VALLSJO, NO","FM-12","99999","V020","270,1,N,0080,1","00420,1,9,N","015000,1,N,1","+0061,1","+0052,1","09941,1","12,0005,9,1",,"8,1,06,1","2,1,06,1",,"07,99,1,06,1,09,1,00450,1,06,1,01,1","999,M,+0070,1","99999,9,09931,1","2,1,003,1,+999,9","81,1","SYN088AAXX  23181 01108 11465 72708 10061 20052 39931 49941 52003 69952 78182 86961 333 10070;",
"01108099999","2010-10-24T06:00:00","4","65.7","11.85","9.1","VEGA VALLSJO, NO","FM-12","99999","V020","280,1,N,0050,1","22000,1,9,N","040000,1,N,1","+0061,1","+0027,1","09970,1","12,0008,9,1","24,0013,9,1","8,1,06,1","1,1,06,1",,"04,99,1,04,1,09,1,00800,1,00,1,00,1","999,N,+0053,1","99999,9,09958,1","2,1,003,1,+999,9","15,1","SYN094AAXX  24061 01108 11582 42805 10061 20027 39958 49970 52003 69972 71581 84900 333 20053 70012;",
"01108099999","2010-10-24T12:00:00","4","65.7","11.85","9.1","VEGA VALLSJO, NO","FM-12","99999","V020","250,1,N,0050,1","00420,1,9,N","025000,1,N,1","+0061,1","+0046,1","09980,1",,,"8,1,06,1","2,1,06,1",,"06,99,1,06,1,09,1,00450,1,00,1,00,1",,"99999,9,09968,1","1,1,003,1,+999,9","25,1","SYN072AAXX  24121 01108 41475 62505 10061 20046 39968 49980 51003 72582 86900;",
"01108099999","2010-10-24T18:00:00","4","65.7","11.85","9.1","VEGA VALLSJO, NO","FM-12","99999","V020","300,1,N,0020,1","00420,1,9,N","015000,1,N,1","+0048,1","+0048,1","09983,1","12,0020,9,1",,"8,1,06,1","2,1,06,1",,"07,99,1,07,1,09,1,00450,1,99,9,99,9","999,M,+0066,1","99999,9,09972,1","2,1,004,1,+999,9","81,1","SYN088AAXX  24181 01108 11465 73002 10048 20048 39972 49983 52004 60022 78182 879// 333 10066;",
"01108099999","2010-10-25T06:00:00","4","65.7","11.85","9.1","VEGA VALLSJO, NO","FM-12","99999","V020","040,1,N,0030,1","00420,1,9,N","025000,1,N,1","+0056,1","+0056,1","10009,1","12,0041,9,1","24,0058,9,1","8,1,06,1","2,1,06,1",,"07,99,1,07,1,09,1,00450,1,99,9,99,9","999,N,+0031,1","99999,9,09997,1","2,1,013,1,+999,9","15,1","SYN094AAXX  25061 01108 11475 70403 10056 20056 39997 40009 52013 60042 71582 879// 333 20031 70059;",
"01108099999","2010-10-25T12:00:00","4","65.7","11.85","9.1","VEGA VALLSJO, NO","FM-12","99999","V020","280,1,N,0010,1","00210,1,9,N","015000,1,N,1","+0058,1","+0054,1","10046,1",,,"8,1,06,1","8,1,06,1",,"07,99,1,07,1,09,1,00250,1,99,9,99,9",,"99999,9,10035,1","2,1,017,1,+999,9","80,1","SYN072AAXX  25121 01108 41365 72801 10058 20054 30035 40046 52017 78088 879//;",
"01108099999","2010-10-25T18:00:00","4","65.7","11.85","9.1","VEGA VALLSJO, NO","FM-12","99999","V020","170,1,N,0010,1","22000,1,9,N","050000,1,N,1","+0035,1","+0035,1","10091,1","12,0099,9,1",,"8,1,06,1","1,1,06,1",,"04,99,1,03,1,09,1,00450,1,06,1,00,1","999,M,+0059,1","99999,9,10080,1","2,1,024,1,+999,9","25,1","SYN088AAXX  25181 01108 11484 41701 10035 20035 30080 40091 52024 60102 72581 83960 333 10059;",
"01108099999","2010-10-26T06:00:00","4","65.7","11.85","9.1","VEGA VALLSJO, NO","FM-12","99999","V020","170,1,N,0030,1","00420,1,9,N","010000,1,N,1","+0030,1","+0030,1","10153,1","12,0030,9,1","24,0130,9,1","8,1,06,1","2,1,06,1",,"07,99,1,07,1,09,1,00450,1,99,9,99,9","999,N,+0003,1","99999,9,10142,1","1,1,010,1,+999,9","81,1","SYN094AAXX  26061 01108 11460 71703 10030 20030 30142 40153 51010 60032 78182 879// 333 20003 70130;",
"01108099999","2010-10-26T12:00:00","4","65.7","11.85","9.1","VEGA VALLSJO, NO","FM-12","99999","V020","200,1,N,0030,1","00420,1,9,N","020000,1,N,1","+0049,1","+0046,1","10156,1",,,"8,1,06,1","2,1,06,1",,"07,99,1,05,1,09,1,00450,1,06,1,01,1",,"99999,9,10145,1","0,1,000,1,+999,9","25,1","SYN072AAXX  26121 01108 41470 72003 10049 20046 30145 40156 50000 72582 85961;",
"01108099999","2010-10-26T18:00:00","4","65.7","11.85","9.1","VEGA VALLSJO, NO","FM-12","99999","V020","210,1,N,0040,1","00420,1,9,N","015000,1,N,1","+0052,1","+0039,1","10149,1","12,0030,9,1",,"8,1,06,1","2,1,06,1",,"08,99,1,05,1,09,1,00450,1,06,1,07,1","999,M,+0061,1","99999,9,10137,1","6,1,006,1,+999,9","80,1","SYN088AAXX  26181 01108 11465 82104 10052 20039 30137 40149 56006 60032 78082 85967 333 10061;",
"01108099999","2010-10-27T06:00:00","4","65.7","11.85","9.1","VEGA VALLSJO, NO","FM-12","99999","V020","150,1,N,0020,1","03000,1,9,N","075000,1,N,1","+0035,1","-0012,1","10044,1","24,0030,9,1",,"2,1,06,1","1,1,06,1",,"07,99,1,01,1,01,1,01250,1,07,1,06,1","999,N,+0021,1","99999,9,10032,1","7,1,034,1,+999,9","03,1","SYN088AAXX  27061 01108 31689 71502 10035 21012 30032 40044 57034 70321 81176 333 20021 70031;",
"01108099999","2010-10-27T12:00:00","4","65.7","11.85","9.1","VEGA VALLSJO, NO","FM-12","99999","V020","120,1,N,0090,1","03000,1,9,N","075000,1,N,1","+0052,1","+0000,1","09951,1",,,"2,1,06,1","2,1,06,1",,"08,99,1,01,1,01,1,01250,1,02,1,07,1",,"99999,9,09940,1","7,1,048,1,+999,9","03,1","SYN072AAXX  27121 01108 41689 81209 10052 21000 39940 49951 57048 70322 81127;",
"01108099999","2010-10-27T18:00:00","4","65.7","11.85","9.1","VEGA VALLSJO, NO","FM-12","99999","V020","110,1,N,0070,1","00750,1,9,N","020000,1,N,1","+0058,1","+0058,1","09882,1","12,0020,9,1",,"6,1,06,1","2,1,06,1",,"07,99,1,05,1,07,1,00800,1,02,1,99,9","999,M,+0058,1","99999,9,09872,1","7,1,039,1,+999,9","61,1","SYN088AAXX  27181 01108 11570 71107 10058 20058 39872 49882 57039 60022 76162 8572/ 333 10058;",
"01108099999","2010-10-28T06:00:00","4","65.7","11.85","9.1","VEGA VALLSJO, NO","FM-12","99999","V020","200,1,N,0100,1","00420,1,9,N","020000,1,N,1","+0089,1","+0089,1","09843,1","12,0130,9,1","24,0150,9,1","6,1,06,1","6,1,06,1",,"08,99,1,06,1,07,1,00450,1,02,1,99,9","999,N,+0058,1","99999,9,09832,1","6,1,015,1,+999,9","61,1","SYN094AAXX  28061 01108 11470 82010 10089 20089 39832 49843 56015 60132 76166 8672/ 333 20058 70151;",
"01108099999","2010-10-28T12:00:00","4","65.7","11.85","9.1","VEGA VALLSJO, NO","FM-12","99999","V020","220,1,N,0160,1","00420,1,9,N","007000,1,N,1","+0088,1","+0080,1","09838,1",,,"8,1,06,1","6,1,06,1",,"08,99,1,07,1,07,1,00450,1,02,1,99,9",,"99999,9,09827,1","7,1,003,1,+999,9","63,1","SYN072AAXX  28121 01108 41457 82216 10088 20080 39827 49838 57003 76386 8772/;",
"01108099999","2010-10-28T18:00:00","4","65.7","11.85","9.1","VEGA VALLSJO, NO","FM-12","99999","V020","250,1,N,0100,1","00420,1,9,N","015000,1,N,1","+0081,1","+0081,1","09841,1","12,0099,9,1",,"6,1,06,1","5,1,06,1",,"08,99,1,08,1,09,1,00450,1,99,9,99,9","999,M,+0096,1","99999,9,09831,1","3,1,010,1,+999,9","80,1","SYN088AAXX  28181 01108 11465 82510 10081 20081 39831 49841 53010 60102 78065 889// 333 10096;",
"01108099999","2010-10-29T06:00:00","4","65.7","11.85","9.1","VEGA VALLSJO, NO","FM-12","99999","V020","350,1,N,0090,1","00420,1,9,N","010000,1,N,1","+0053,1","+0041,1","09993,1","12,0010,9,1","24,0114,9,1","8,1,06,1","2,1,06,1",,"07,99,1,06,1,09,1,00450,1,06,1,99,9","999,N,+0050,1","99999,9,09982,1","2,1,025,1,+999,9","81,1","SYN094AAXX  29061 01108 11460 73509 10053 20041 39982 49993 52025 60012 78182 8696/ 333 20050 70114;",
"01108099999","2010-10-29T12:00:00","4","65.7","11.85","9.1","VEGA VALLSJO, NO","FM-12","99999","V020","050,1,N,0040,1","03000,1,9,N","075000,1,N,1","+0056,1","+0026,1","10009,1",,,"8,1,06,1","1,1,06,1",,"07,99,1,01,1,01,1,00450,1,01,1,06,1",,"99999,9,09997,1","0,1,001,1,+999,9","03,1","SYN072AAXX  29121 01108 41489 70504 10056 20026 39997 40009 50001 70381 81116;",
"01108099999","2010-10-29T18:00:00","4","65.7","11.85","9.1","VEGA VALLSJO, NO","FM-12","99999","V020","100,1,N,0040,1","03000,1,9,N","060000,1,N,1","+0039,1","+0013,1","09965,1","12,0000,2,1",,"2,1,06,1","2,1,06,1",,"08,99,1,01,1,07,1,00800,1,02,1,99,9","999,M,+0060,1","99999,9,09953,1","7,1,026,1,+999,9","02,1","SYN088AAXX  29181 01108 11586 81004 10039 20013 39953 49965 57026 69922 70222 8172/ 333 10060;",
"01108099999","2010-10-30T06:00:00","4","65.7","11.85","9.1","VEGA VALLSJO, NO","FM-12","99999","V020","140,1,N,0100,1","03000,1,9,N","050000,1,N,1","+0059,1","+0047,1","09895,1","12,0008,9,1","24,0010,9,1","6,1,06,1","2,1,06,1",,"08,99,1,04,1,07,1,01250,1,02,1,99,9","999,N,+0039,1","99999,9,09885,1","6,1,020,1,+999,9","60,1","SYN094AAXX  30061 01108 11684 81410 10059 20047 39885 49895 56020 69972 76062 8472/ 333 20039 70009;",
"01108099999","2010-10-30T12:00:00","4","65.7","11.85","9.1","VEGA VALLSJO, NO","FM-12","99999","V020","130,1,N,0120,1","01200,1,9,N","040000,1,N,1","+0081,1","+0054,1","09867,1",,,"6,1,06,1","2,1,06,1",,"08,99,1,06,1,07,1,01250,1,02,1,99,9",,"99999,9,09857,1","8,1,003,1,+999,9","60,1","SYN072AAXX  30121 01108 41682 81312 10081 20054 39857 49867 58003 76062 8672/;",
"01108099999","2010-10-30T18:00:00","4","65.7","11.85","9.1","VEGA VALLSJO, NO","FM-12","99999","V020","130,1,N,0070,1","00420,1,9,N","005000,1,N,1","+0066,1","+0066,1","09874,1","12,0071,9,1",,"6,1,06,1","6,1,06,1",,"08,99,1,07,1,07,1,00450,1,02,1,99,9","999,M,+0082,1","99999,9,09863,1","5,1,000,1,+999,9","63,1","SYN088AAXX  30181 01108 11450 81307 10066 20066 39863 49874 55000 60072 76366 8772/ 333 10082;",
"01108099999","2010-10-31T06:00:00","4","65.7","11.85","9.1","VEGA VALLSJO, NO","FM-12","99999","V020","150,1,N,0090,1","03000,1,9,N","075000,1,N,1","+0092,1","+0052,1","09877,1","12,0089,9,1","24,0157,9,1","6,1,06,1","1,1,06,1",,"06,99,1,04,1,01,1,01250,1,07,1,01,1","999,N,+0045,1","99999,9,09867,1","7,1,004,1,+999,9","02,1","SYN094AAXX  31061 01108 11689 61509 10092 20052 39867 49877 57004 60092 70261 84171 333 20045 70157;",
"01108099999","2010-10-31T12:00:00","4","65.7","11.85","9.1","VEGA VALLSJO, NO","FM-12","99999","V020","160,1,N,0110,1","01200,1,9,N","070000,1,N,1","+0102,1","+0016,1","09867,1",,,"8,1,06,1","1,1,06,1",,"07,99,1,07,1,09,1,01250,1,99,9,99,9",,"99999,9,09857,1","7,1,012,1,+999,9","15,1","SYN072AAXX  31121 01108 41688 71611 10102 20016 39857 49867 57012 71581 879//;",
"01108099999","2010-10-31T18:00:00","4","65.7","11.85","9.1","VEGA VALLSJO, NO","FM-12","99999","V020","210,1,N,0120,1","00420,1,9,N","005000,1,N,1","+0090,1","+0090,1","09868,1","12,0051,9,1",,"6,1,06,1","2,1,06,1",,"08,99,1,07,1,07,1,00450,1,02,1,99,9","999,M,+0105,1","99999,9,09857,1","5,1,001,1,+999,9","63,1","SYN088AAXX  31181 01108 11450 82112 10090 20090 39857 49868 55001 60052 76362 8772/ 333 10105;",
"01108099999","2010-11-01T06:00:00","4","65.7","11.85","9.1","VEGA VALLSJO, NO","FM-12","99999","V020","280,1,N,0100,1","00420,1,9,N","030000,1,N,1","+0069,1","+0041,1","09966,1","12,0041,9,1","24,0079,9,1","8,1,06,1","2,1,06,1",,"07,99,1,06,1,09,1,00450,1,06,1,01,1","999,N,+0062,1","99999,9,09956,1","2,1,036,1,+999,9","25,1","SYN094AAXX  01061 01108 11480 72810 10069 20041 39956 49966 52036 60042 72582 86961 333 20062 70080;",
"01108099999","2010-11-01T12:00:00","4","65.7","11.85","9.1","VEGA VALLSJO, NO","FM-12","99999","V020","270,1,N,0100,1","00420,1,9,N","020000,1,N,1","+0061,1","+0011,1","10029,1",,,"8,1,06,1","2,1,06,1",,"07,99,1,06,1,09,1,00450,1,06,1,99,9",,"99999,9,10017,1","1,1,024,1,+999,9","27,1","SYN072AAXX  01121 01108 41470 72710 10061 20011 30017 40029 51024 72782 8696/;",
"01108099999","2010-11-01T18:00:00","4","65.7","11.85","9.1","VEGA VALLSJO, NO","FM-12","99999","V020","260,1,N,0080,1","00750,1,9,N","050000,1,N,1","+0062,1","-0010,1","10064,1","12,0005,9,1",,"8,1,06,1","2,1,06,1",,"07,99,1,07,1,09,1,00800,1,99,9,99,9","999,M,+0069,1","99999,9,10052,1","1,1,014,1,+999,9","15,1","SYN088AAXX  01181 01108 11584 72608 10062 21010 30052 40064 51014 69942 71582 879// 333 10069;",
"01108099999","2010-11-02T06:00:00","4","65.7","11.85","9.1","VEGA VALLSJO, NO","FM-12","99999","V020","120,1,N,0100,1","03000,1,9,N","075000,1,N,1","+0039,1","-0029,1","09979,1","24,0005,9,1",,"2,1,06,1","1,1,06,1",,"07,99,1,01,1,01,1,01250,1,01,1,06,1","999,N,+0023,1","99999,9,09967,1","8,1,054,2,+999,9","03,1","SYN088AAXX  02061 01108 31689 71210 10039 21029 39967 49979 58054 70321 81116 333 20023 70004;","Q01+000542APC3  "
"01108099999","2010-11-02T12:00:00","4","65.7","11.85","9.1","VEGA VALLSJO, NO","FM-12","99999","V020","160,1,N,0090,1","03000,1,9,N","075000,1,N,1","+0059,1","-0019,1","09897,1",,,"2,1,06,1","2,1,06,1",,"07,99,1,02,1,07,1,00800,1,02,1,08,1",,"99999,9,09887,1","7,1,047,1,+999,9","15,1","SYN072AAXX  02121 01108 41589 71609 10059 21019 39887 49897 57047 71522 82728;",
"01108099999","2010-11-02T18:00:00","4","65.7","11.85","9.1","VEGA VALLSJO, NO","FM-12","99999","V020","130,1,N,0070,1","00420,1,9,N","020000,1,N,1","+0054,1","+0037,1","09856,1","12,0005,9,1",,"6,1,06,1","2,1,06,1",,"08,99,1,07,1,07,1,00450,1,02,1,99,9","999,M,+0061,1","99999,9,09846,1","7,1,019,1,+999,9","61,1","SYN088AAXX  02181 01108 11470 81307 10054 20037 39846 49856 57019 69962 76162 8772/ 333 10061;",
"01108099999","2010-11-03T06:00:00","4","65.7","11.85","9.1","VEGA VALLSJO, NO","FM-12","99999","V020","110,1,N,0040,1","03000,1,9,N","075000,1,N,1","+0065,1","+0031,1","09795,1","12,0000,2,1","24,0008,9,1","6,1,06,1","2,1,06,1",,"07,99,1,04,1,04,1,01250,1,07,1,01,1","999,N,+0052,1","99999,9,09785,1","7,1,011,1,+999,9","02,1","SYN094AAXX  03061 01108 11689 71104 10065 20031 39785 49795 57011 69912 70262 84471 333 20052 70007;",
"01108099999","2010-11-03T12:00:00","4","65.7","11.85","9.1","VEGA VALLSJO, NO","FM-12","99999","V020","160,1,N,0050,1","00750,1,9,N","015000,1,N,1","+0083,1","+0034,1","09796,1",,,"6,1,06,1","2,1,06,1",,"07,99,1,07,1,09,1,00800,1,99,9,99,9",,"99999,9,09786,1","5,1,001,1,+999,9","81,1","SYN072AAXX  03121 01108 41565 71605 10083 20034 39786 49796 55001 78162 879//;",
"01108099999","2010-11-03T18:00:00","4","65.7","11.85","9.1","VEGA VALLSJO, NO","FM-12","99999","V020","200,1,N,0070,1","00420,1,9,N","020000,1,N,1","+0082,1","+0055,1","09793,1","12,0051,9,1",,"8,1,06,1","2,1,06,1",,"07,99,1,06,1,09,1,00450,1,00,1,01,1","999,M,+0083,1","99999,9,09782,1","7,1,002,1,+999,9","80,1","SYN088AAXX  03181 01108 11470 72007 10082 20055 39782 49793 57002 60052 78082 86901 333 10083;",
"01108099999","2010-11-04T06:00:00","4","65.7","11.85","9.1","VEGA VALLSJO, NO","FM-12","99999","V020","220,1,N,0090,1","00420,1,9,N","007000,1,N,1","+0070,1","+0047,1","09796,1","12,0051,9,1","24,0097,9,1","8,1,06,1","2,1,06,1",,"08,99,1,08,1,09,1,00450,1,99,9,99,9","999,N,+0069,1","99999,9,09786,1","7,1,007,1,+999,9","81,1","SYN094AAXX  04061 01108 11457 82209 10070 20047 39786 49796 57007 60052 78182 889// 333 20069 70097;",
"01108099999","2010-11-04T12:00:00","4","65.7","11.85","9.1","VEGA VALLSJO, NO","FM-12","99999","V020","270,1,N,0050,1","00210,1,9,N","015000,1,N,1","+0075,1","+0063,1","09823,1",,,"8,1,06,1","2,1,06,1",,"07,99,1,07,1,09,1,00250,1,99,9,99,9",,"99999,9,09812,1","2,1,018,1,+999,9","25,1","SYN072AAXX  04121 01108 41365 72705 10075 20063 39812 49823 52018 72582 879//;",
"01108099999","2010-11-04T18:00:00","4","65.7","11.85","9.1","VEGA VALLSJO, NO","FM-12","99999","V020","280,1,N,0030,1","00120,1,9,N","020000,1,N,1","+0074,1","+0062,1","09860,1","12,0051,9,1",,"8,1,06,1","2,1,06,1",,"07,99,1,05,1,09,1,00150,1,06,1,02,1","999,M,+0080,1","99999,9,09850,1","2,1,021,1,+999,9","25,1","SYN088AAXX  04181 01108 11270 72803 10074 20062 39850 49860 52021 60052 72582 85962 333 10080;",
"01108099999","2010-11-05T06:00:00","4","65.7","11.85","9.1","VEGA VALLSJO, NO","FM-12","99999","V020","320,1,N,0070,1","00210,1,9,N","030000,1,N,1","+0056,1","+0033,1","09925,1","12,0020,9,1","24,0066,9,1","8,1,06,1","2,1,06,1",,"08,99,1,08,1,09,1,00250,1,99,9,99,9","999,N,+0056,1","99999,9,09915,1","2,1,014,1,+999,9","25,1","SYN094AAXX  05061 01108 11380 83207 10056 20033 39915 49925 52014 60022 72582 889// 333 20056 70066;",
"01108099999","2010-11-05T12:00:00","4","65.7","11.85","9.1","VEGA VALLSJO, NO","FM-12","99999","V020","280,1,N,0070,1","00750,1,9,N","040000,1,N,1","+0044,1","-0027,1","09970,1",,,"2,1,06,1","2,1,06,1",,"05,99,1,05,1,09,1,00800,1,00,1,00,1",,"99999,9,09958,1","2,1,018,1,+999,9","27,1","SYN072AAXX  05121 01108 41582 52807 10044 21027 39958 49970 52018 72722 85900;",
"01108099999","2010-11-05T18:00:00","4","65.7","11.85","9.1","VEGA VALLSJO, NO","FM-12","99999","V020","270,1,N,0100,1","22000,1,9,N","030000,1,N,1","+0045,1","-0007,1","09968,1","12,0000,2,1",,"8,1,06,1","1,1,06,1",,"03,99,1,03,1,09,1,00450,1,00,1,00,1","999,M,+0058,1","99999,9,09957,1","7,1,006,1,+999,9","15,1","SYN088AAXX  05181 01108 11480 32710 10045 21007 39957 49968 57006 69922 71581 83900 333 10058;",
"01108099999","2010-11-06T06:00:00","4","65.7","11.85","9.1","VEGA VALLSJO, NO","FM-12","99999","V020","300,1,N,0140,1","00420,1,9,N","015000,1,N,1","+0047,1","+0012,1","09947,1","12,0051,9,2","24,0048,9,2","8,1,06,1","2,1,06,1",,"07,99,1,07,1,09,1,00450,1,99,9,99,9","999,N,+0029,1","99999,9,09936,1","5,1,005,1,+999,9","25,1","SYN094AAXX  06061 01108 11465 73014 10047 20012 39936 49947 55005 60052 72582 879// 333 20029 70048;",
"01108099999","2010-11-06T12:00:00","4","65.7","11.85","9.1","VEGA VALLSJO, NO","FM-12","99999","V020","250,1,N,0100,1","00420,1,9,N","020000,1,N,1","+0039,1","+0008,1","09951,1",,,"8,1,06,1","2,1,06,1",,"07,99,1,05,1,09,1,00450,1,00,1,02,1",,"99999,9,09940,1","8,1,005,1,+999,9","27,1","SYN072AAXX  06121 01108 41470 72510 10039 20008 39940 49951 58005 72782 85902;",
"01108099999","2010-11-06T18:00:00","4","65.7","11.85","9.1","VEGA VALLSJO, NO","FM-12","99999","V020","290,1,N,0100,1","00420,1,9,N","020000,1,N,1","+0022,1","-0025,1","09954,1","12,0051,9,1",,"8,1,06,1","2,1,06,1",,"06,99,1,06,1,09,1,00450,1,99,9,99,9","999,M,+0050,1","99999,9,09942,1","2,1,009,1,+999,9","15,1","SYN088AAXX  06181 01108 11470 62910 10022 21025 39942 49954 52009 60052 71582 869// 333 10050;",
"01108099999","2010-11-07T06:00:00","4","65.7","11.85","9.1","VEGA VALLSJO, NO","FM-12","99999","V020","310,1,N,0120,1","00420,1,9,N","030000,1,N,1","+0032,1","-0025,1","09934,1","12,0051,9,1","24,0099,9,1","8,1,06,1","2,1,06,1",,"07,99,1,07,1,09,1,00450,1,99,9,99,9","999,N,-0004,1","99999,9,09922,1","2,1,012,1,+999,9","15,1","SYN094AAXX  07061 01108 11480 73112 10032 21025 39922 49934 52012 60052 71582 879// 333 21004 70100;",
"01108099999","2010-11-07T12:00:00","4","65.7","11.85","9.1","VEGA VALLSJO, NO","FM-12","99999","V020","310,1,N,0110,1","00750,1,9,N","020000,1,N,1","+0027,1","-0043,1","09954,1",,,"8,1,06,1","2,1,06,1",,"07,99,1,07,1,09,1,00800,1,00,1,00,1",,"99999,9,09942,1","2,1,003,1,+999,9","29,1","SYN072AAXX  07121 01108 41570 73111 10027 21043 39942 49954 52003 72982 87900;",
"01108099999","2010-11-07T18:00:00","4","65.7","11.85","9.1","VEGA VALLSJO, NO","FM-12","99999","V020","300,1,N,0070,1","00420,1,9,N","015000,1,N,1","+0020,1","-0002,1","09968,1","12,0005,9,1",,"8,1,06,1","2,1,06,1",,"07,99,1,07,1,09,1,00450,1,00,1,00,1","999,M,+0032,1","99999,9,09957,1","2,1,006,1,+999,9","27,1","SYN088AAXX  07181 01108 11465 73007 10020 21002 39957 49968 52006 69952 72782 87900 333 10032;",
"01108099999","2010-11-08T06:00:00","4","65.7","11.85","9.1","VEGA VALLSJO, NO","FM-12","99999","V020","160,1,N,0020,1","22000,1,9,N","040000,1,N,1","-0021,1","-0035,1","09998,1","12,0020,9,1","24,0020,9,1","8,1,06,1","1,1,06,1",,"04,99,1,04,1,09,1,00250,1,00,1,00,1","999,N,-0022,1","99999,9,09987,1","2,1,007,1,+999,9","15,1","SYN094AAXX  08061 01108 11382 41602 11021 21035 39987 49998 52007 60022 71581 84900 333 21022 70021;",
"01108099999","2010-11-08T12:00:00","4","65.7","11.85","9.1","VEGA VALLSJO, NO","FM-12","99999","V020","140,1,N,0030,1","03000,1,9,N","020000,1,N,1","+0003,1","-0022,1","10019,1",,,"8,1,06,1","1,1,06,1",,"06,99,1,04,1,09,1,00450,1,06,1,01,1",,"99999,9,10007,1","2,1,008,1,+999,9","15,1","SYN072AAXX  08121 01108 41470 61403 10003 21022 30007 40019 52008 71581 84961;",
"01108099999","2010-11-08T18:00:00","4","65.7","11.85","9.1","VEGA VALLSJO, NO","FM-12","99999","V020","100,1,N,0030,1","22000,1,9,N","055000,1,N,1","-0032,1","-0043,1","10032,1","12,0000,9,1",,"1,1,06,1","0,1,06,1",,"02,99,1,01,1,09,1,00800,1,06,1,01,1","999,M,+0008,1","99999,9,10021,1","2,1,009,1,+999,9","15,1","SYN088AAXX  08181 01108 11585 21003 11032 21043 30021 40032 52009 69902 71510 81961 333 10008;","Q01  00002PRCP12"
"01108099999","2010-11-09T06:00:00","4","65.7","11.85","9.1","VEGA VALLSJO, NO","FM-12","99999","V020","140,1,N,0040,1","22000,1,9,N","075000,1,N,1","-0031,1","-0079,1","10046,1","24,0000,9,1",,"1,1,06,1","1,1,06,1",,"06,99,1,01,1,01,1,00800,1,00,1,01,1","999,N,-0054,1","99999,9,10035,1","2,1,005,1,+999,9","02,1","SYN088AAXX  09061 01108 31589 61404 11031 21079 30035 40046 52005 70211 81101 333 21054 79999;","Q01  00002PRCP24"
"01108099999","2010-11-09T12:00:00","4","65.7","11.85","9.1","VEGA VALLSJO, NO","FM-12","99999","V020","130,1,N,0040,1","22000,1,9,N","075000,1,N,1","-0011,1","-0073,1","10051,1",,,"2,1,06,1","2,1,06,1",,"04,99,1,00,1,00,1,99999,9,00,1,02,1",,"99999,9,10040,1","4,1,000,1,+999,9","01,1","SYN072AAXX  09121 01108 41989 41304 11011 21073 30040 40051 54000 70122 80002;",
"01108099999","2010-11-09T18:00:00","4","65.7","11.85","9.1","VEGA VALLSJO, NO","FM-12","99999","V020","120,1,N,0050,1","22000,1,9,N","075000,1,N,1","-0031,1","-0066,1","10040,1",,,"0,1,06,1","0,1,06,1",,"02,99,1,00,1,00,1,99999,9,00,1,01,1","999,M,-0010,1","99999,9,10028,1","7,1,006,1,+999,9","02,1","SYN082AAXX  09181 01108 31989 21205 11031 21066 30028 40040 57006 70200 80001 333 11010;",
"01108099999","2010-11-10T06:00:00","4","65.7","11.85","9.1","VEGA VALLSJO, NO","FM-12","99999","V020","130,1,N,0040,1","99999,9,9,N","075000,1,N,1","-0036,1","-0091,1","10008,1","24,0000,9,1",,"2,1,06,1","1,1,06,1",,"07,99,1,01,1,00,1,99999,9,01,1,06,1","999,N,-0056,1","99999,9,09997,1","7,1,008,1,+999,9","03,1","SYN088AAXX  10061 01108 31989 71304 11036 21091 39997 40008 57008 70321 81016 333 21056 70000;","Q01  00002PRCP24"
"01108099999","2010-11-10T12:00:00","4","65.7","11.85","9.1","VEGA VALLSJO, NO","FM-12","99999","V020","090,1,N,0060,1","03000,1,9,N","075000,1,N,1","+0003,1","-0079,1","09987,1",,,"2,1,06,1","2,1,06,1",,"07,99,1,03,1,03,1,01750,1,01,1,06,1",,"99999,9,09976,1","7,1,014,1,+999,9","15,1","SYN072AAXX  10121 01108 41789 70906 10003 21079 39976 49987 57014 71522 83316;",
"01108099999","2010-11-10T18:00:00","4","65.7","11.85","9.1","VEGA VALLSJO, NO","FM-12","99999","V020","070,1,N,0080,1","03000,1,9,N","075000,1,N,1","+0003,1","-0072,1","09947,1",,,"2,1,06,1","2,1,06,1",,"06,99,1,03,1,04,1,01750,1,07,1,08,1","999,M,+0010,1","99999,9,09936,1","8,1,024,1,+999,9","01,1","SYN082AAXX  10181 01108 31789 60708 10003 21072 39936 49947 58024 70122 83478 333 10010;",
"01108099999","2010-11-11T06:00:00","4","65.7","11.85","9.1","VEGA VALLSJO, NO","FM-12","99999","V020","090,1,N,0020,1","00210,1,9,N","004000,1,N,1","-0020,1","-0025,1","09908,1","12,0010,9,1","24,0013,9,1","7,1,06,1","2,1,06,1",,"08,99,1,06,1,07,1,00250,1,02,1,99,9","999,N,-0021,1","99999,9,09897,1","7,1,007,1,+999,9","71,1","SYN094AAXX  11061 01108 11340 80902 11020 21025 39897 49908 57007 60012 77172 8672/ 333 21021 70012;",
"01108099999","2010-11-11T12:00:00","4","65.7","11.85","9.1","VEGA VALLSJO, NO","FM-12","99999","V020","140,1,N,0020,1","03000,1,9,N","010000,1,N,1","-0019,1","-0025,1","09889,1",,,"7,1,06,1","7,1,06,1",,"08,99,1,03,1,07,1,00250,1,02,1,07,1",,"99999,9,09877,1","7,1,012,1,+999,9","71,1","SYN072AAXX  11121 01108 41360 81402 11019 21025 39877 49889 57012 77177 83727;",
"01108099999","2010-11-11T18:00:00","4","65.7","11.85","9.1","VEGA VALLSJO, NO","FM-12","99999","V020","140,1,N,0020,1","22000,1,9,N","060000,1,N,1","-0051,1","-0055,1","09865,1","12,0020,9,1",,"7,1,06,1","2,1,06,1",,"04,99,1,02,1,04,1,01250,1,07,1,01,1","999,M,-0018,1","99999,9,09853,1","7,1,015,1,+999,9","02,1","SYN088AAXX  11181 01108 11686 41402 11051 21055 39853 49865 57015 60022 70272 82471 333 11018;",
"01108099999","2010-11-12T06:00:00","4","65.7","11.85","9.1","VEGA VALLSJO, NO","FM-12","99999","V020","120,1,N,0050,1","22000,1,9,N","075000,1,N,1","-0028,1","-0049,1","09804,1","24,0015,9,1",,"0,1,06,1","0,1,06,1",,"02,99,1,01,1,01,1,00800,1,00,1,04,1","999,N,-0061,1","99999,9,09792,1","7,1,012,1,+999,9","03,1","SYN088AAXX  12061 01108 31589 21205 11028 21049 39792 49804 57012 70300 81104 333 21061 70016;",
"01108099999","2010-11-12T12:00:00","4","65.7","11.85","9.1","VEGA VALLSJO, NO","FM-12","99999","V020","120,1,N,0040,1","01200,1,9,N","075000,1,N,1","+0000,1","-0034,1","09805,1",,,"2,1,06,1","1,1,06,1",,"07,99,1,07,1,08,1,00800,1,99,9,99,9",,"99999,9,09793,1","0,1,001,1,+999,9","03,1","SYN072AAXX  12121 01108 41589 71204 10000 21034 39793 49805 50001 70321 878//;",
"01108099999","2010-11-12T18:00:00","4","65.7","11.85","9.1","VEGA VALLSJO, NO","FM-12","99999","V020","080,1,N,0040,1","00750,1,9,N","020000,1,N,1","+0020,1","-0019,1","09802,1","12,9999,9,9",,"2,1,06,1","2,1,06,1",,"07,99,1,07,1,09,1,00800,1,99,9,99,9","999,M,+0020,1","99999,9,09792,1","4,1,000,1,+999,9","85,1","SYN088AAXX  12181 01108 11570 70804 10020 21019 39792 49802 54000 69902 78522 879// 333 10020;","Q01  00002PRCP12Q02  00002PRCP12"
"01108099999","2010-11-13T06:00:00","4","65.7","11.85","9.1","VEGA VALLSJO, NO","FM-12","99999","V020","100,1,N,0020,1","03000,1,9,N","060000,1,N,1","+0008,1","-0024,1","09791,1","12,0000,2,1","24,0000,2,1","8,1,06,1","2,1,06,1",,"08,99,1,03,1,07,1,00800,1,02,1,99,9","999,N,+0005,1","99999,9,09780,1","7,1,002,1,+999,9","02,1","SYN094AAXX  13061 01108 11586 81002 10008 21024 39780 49791 57002 69912 70282 8372/ 333 20005 70001;",
"01108099999","2010-11-13T12:00:00","4","65.7","11.85","9.1","VEGA VALLSJO, NO","FM-12","99999","V020","100,1,N,0030,1","03000,1,9,N","030000,1,N,1","+0012,1","-0004,1","09803,1",,,"2,1,06,1","2,1,06,1",,"07,99,1,02,1,02,1,00450,1,02,1,08,1",,"99999,9,09792,1","2,1,007,1,+999,9","15,1","SYN072AAXX  13121 01108 41480 71003 10012 21004 39792 49803 52007 71522 82228;",
"01108099999","2010-11-13T18:00:00","4","65.7","11.85","9.1","VEGA VALLSJO, NO","FM-12","99999","V020","140,1,N,0010,1","03000,1,9,N","060000,1,N,1","+0010,1","-0011,1","09818,1","12,0000,9,1",,"7,1,06,1","2,1,06,1",,"06,99,1,02,1,02,1,00800,1,07,1,08,1","999,M,+0014,1","99999,9,09807,1","2,1,010,1,+999,9","01,1","SYN088AAXX  13181 01108 11586 61401 10010 21011 39807 49818 52010 69902 70172 82278 333 10014;","Q01  00002PRCP12"
"01108099999","2010-11-14T06:00:00","4","65.7","11.85","9.1","VEGA VALLSJO, NO","FM-12","99999","V020","150,1,N,0020,1","03000,1,9,N","075000,1,N,1","-0025,1","-0035,1","09874,1","24,0000,9,1",,"2,1,06,1","2,1,06,1",,"07,99,1,01,1,01,1,01250,1,07,1,02,1","999,N,-0033,1","99999,9,09862,1","2,1,017,1,+999,9","02,1","SYN088AAXX  14061 01108 31689 71502 11025 21035 39862 49874 52017 70222 81172 333 21033 79999;","Q01  00002PRCP24"
"01108099999","2010-11-14T12:00:00","4","65.7","11.85","9.1","VEGA VALLSJO, NO","FM-12","99999","V020","140,1,N,0030,1","03000,1,9,N","050000,1,N,1","-0024,1","-0034,1","09908,1",,,"2,1,06,1","2,1,06,1",,"06,99,1,01,1,09,1,00800,1,07,1,02,1",,"99999,9,09897,1","2,1,015,1,+999,9","15,1","SYN072AAXX  14121 01108 41584 61403 11024 21034 39897 49908 52015 71522 81972;",
"01108099999","2010-11-14T18:00:00","4","65.7","11.85","9.1","VEGA VALLSJO, NO","FM-12","99999","V020","120,1,N,0030,1","03000,1,9,N","050000,1,N,1","-0019,1","-0023,1","09931,1","12,0000,9,1",,"2,1,06,1","2,1,06,1",,"07,99,1,01,1,09,1,00450,1,07,1,02,1","999,M,-0012,1","99999,9,09920,1","3,1,009,1,+999,9","15,1","SYN088AAXX  14181 01108 11484 71203 11019 21023 39920 49931 53009 69912 71522 81972 333 11012;","Q01  00002PRCP12"
"01108099999","2010-11-15T06:00:00","4","65.7","11.85","9.1","VEGA VALLSJO, NO","FM-12","99999","V020","130,1,N,0030,1","03000,1,9,N","050000,1,N,1","-0025,1","-0029,1","09975,1","12,0000,9,1","24,0003,9,1","2,1,06,1","2,1,06,1",,"07,99,1,04,1,09,1,00800,1,06,1,02,1","999,N,-0041,1","99999,9,09963,1","2,1,012,1,+999,9","15,1","SYN094AAXX  15061 01108 11584 71303 11025 21029 39963 49975 52012 69912 71522 84962 333 21041 70002;","Q01  00002PRCP12"
"01108099999","2010-11-15T12:00:00","4","65.7","11.85","9.1","VEGA VALLSJO, NO","FM-12","99999","V020","140,1,N,0030,1","03000,1,9,N","040000,1,N,1","-0022,1","-0029,1","10015,1",,,"2,1,06,1","2,1,06,1",,"06,99,1,01,1,09,1,00450,1,06,1,02,1",,"99999,9,10003,1","2,1,017,1,+999,9","15,1","SYN072AAXX  15121 01108 41482 61403 11022 21029 30003 40015 52017 71522 81962;",
"01108099999","2010-11-15T18:00:00","4","65.7","11.85","9.1","VEGA VALLSJO, NO","FM-12","99999","V020","130,1,N,0030,1","00420,1,9,N","020000,1,N,1","-0014,1","-0023,1","10056,1","12,9999,9,9",,"8,1,06,1","2,1,06,1",,"07,99,1,07,1,09,1,00450,1,99,9,99,9","999,M,-0014,1","99999,9,10045,1","2,1,023,1,+999,9","83,1","SYN088AAXX  15181 01108 11470 71303 11014 21023 30045 40056 52023 69912 78382 879// 333 11014;","Q01  00002PRCP12Q02  00002PRCP12"
"01108099999","2010-11-16T06:00:00","4","65.7","11.85","9.1","VEGA VALLSJO, NO","FM-12","99999","V020","120,1,N,0030,1","03000,1,9,N","030000,1,N,1","+0015,1","+0006,1","10146,1","12,0020,9,1","24,0025,9,1","8,1,06,1","2,1,06,1",,"06,99,1,02,1,09,1,00450,1,06,1,02,1","999,N,-0016,1","99999,9,10135,1","1,1,020,1,+999,9","15,1","SYN094AAXX  16061 01108 11480 61203 10015 20006 30135 40146 51020 60022 71582 82962 333 21016 70025;",
"01108099999","2010-11-16T12:00:00","4","65.7","11.85","9.1","VEGA VALLSJO, NO","FM-12","99999","V020","130,1,N,0030,1","00120,1,9,N","007000,1,N,1","+0031,1","+0019,1","10189,1",,,"8,1,06,1","2,1,06,1",,"07,99,1,07,1,09,1,00150,1,99,9,99,9",,"99999,9,10177,1","2,1,019,1,+999,9","83,1","SYN072AAXX  16121 01108 41257 71303 10031 20019 30177 40189 52019 78382 879//;",
"01108099999","2010-11-16T18:00:00","4","65.7","11.85","9.1","VEGA VALLSJO, NO","FM-12","99999","V020","140,1,N,0050,1","00210,1,9,N","020000,1,N,1","+0036,1","+0015,1","10216,1","12,0005,9,1",,"8,1,06,1","2,1,06,1",,"07,99,1,07,1,09,1,00250,1,99,9,99,9","999,M,+0042,1","99999,9,10205,1","2,1,013,1,+999,9","25,1","SYN088AAXX  16181 01108 11370 71405 10036 20015 30205 40216 52013 69942 72582 879// 333 10042;",
"01108099999","2010-11-17T06:00:00","4","65.7","11.85","9.1","VEGA VALLSJO, NO","FM-12","99999","V020","150,1,N,0060,1","22000,1,9,N","075000,1,N,1","+0024,1","-0033,1","10252,1","12,0000,2,1","24,0005,9,1","1,1,06,1","0,1,06,1",,"01,99,1,01,1,01,1,00800,1,00,1,01,1","999,N,+0015,1","99999,9,10240,1","2,1,003,1,+999,9","02,1","SYN094AAXX  17061 01108 11589 11506 10024 21033 30240 40252 52003 69912 70210 81101 333 20015 70005;",
"01108099999","2010-11-17T12:00:00","4","65.7","11.85","9.1","VEGA VALLSJO, NO","FM-12","99999","V020","150,1,N,0040,1","22000,1,9,N","075000,1,N,1","+0038,1","-0032,1","10269,1",,,"0,1,06,1","0,1,06,1",,"01,99,1,01,1,02,1,01250,1,00,1,00,1",,"99999,9,10257,1","2,1,007,1,+999,9","03,1","SYN072AAXX  17121 01108 41689 11504 10038 21032 30257 40269 52007 70300 81200;",
"01108099999","2010-11-17T18:00:00","4","65.7","11.85","9.1","VEGA VALLSJO, NO","FM-12","99999","V020","110,1,N,0050,1","22000,1,9,N","075000,1,N,1","+0015,1","-0026,1","10269,1",,,"0,1,06,1","0,1,06,1",,"01,99,1,01,1,01,1,00800,1,00,1,00,1","999,M,+0045,1","99999,9,10257,1","2,1,002,1,+999,9","01,1","SYN082AAXX  17181 01108 31589 11105 10015 21026 30257 40269 52002 70100 81100 333 10045;",
"01108099999","2010-11-18T06:00:00","4","65.7","11.85","9.1","VEGA VALLSJO, NO","FM-12","99999","V020","120,1,N,0030,1","22000,1,9,N","075000,1,N,1","-0011,1","-0045,1","10253,1","24,0000,9,1",,"0,1,06,1","0,1,06,1",,"02,99,1,01,1,01,1,00800,1,00,1,05,1","999,N,-0024,1","99999,9,10242,1","7,1,005,1,+999,9","03,1","SYN088AAXX  18061 01108 31589 21203 11011 21045 30242 40253 57005 70300 81105 333 21024 70000;","Q01  00002PRCP24"
"01108099999","2010-11-18T12:00:00","4","65.7","11.85","9.1","VEGA VALLSJO, NO","FM-12","99999","V020","120,1,N,0040,1","22000,1,9,N","075000,1,N,1","-0013,1","-0059,1","10252,1",,,"0,1,06,1","0,1,06,1",,"01,99,1,01,1,01,1,00800,1,00,1,00,1",,"99999,9,10240,1","0,1,000,1,+999,9","02,1","SYN072AAXX  18121 01108 41589 11204 11013 21059 30240 40252 50000 70200 81100;",
"01108099999","2010-11-18T18:00:00","4","65.7","11.85","9.1","VEGA VALLSJO, NO","FM-12","99999","V020","090,1,N,0030,1","22000,1,9,N","075000,1,N,1","-0052,1","-0068,1","10249,1",,,"0,1,06,1","0,1,06,1",,"01,99,1,01,1,01,1,00800,1,00,1,00,1","999,M,-0009,1","99999,9,10237,1","2,1,002,1,+999,9","02,1","SYN082AAXX  18181 01108 31589 10903 11052 21068 30237 40249 52002 70200 81100 333 11009;",
"01108099999","2010-11-19T06:00:00","4","65.7","11.85","9.1","VEGA VALLSJO, NO","FM-12","99999","V020","130,1,N,0020,1","22000,1,9,N","075000,1,N,1","-0033,1","-0065,1","10269,1","24,0000,9,1",,"0,1,06,1","0,1,06,1","00,1,+99999,9,99,9","00,99,1,00,1,00,1,99999,9,00,1,00,1","999,N,-0065,1","99999,9,10257,1","2,1,009,1,+999,9","02,1","SYN082AAXX  19061 01108 31989 01302 11033 21065 30257 40269 52009 70200 333 21065 70000;","Q01  00002PRCP24"
"01108099999","2010-11-19T12:00:00","4","65.7","11.85","9.1","VEGA VALLSJO, NO","FM-12","99999","V020","100,1,N,0030,1","22000,1,9,N","075000,1,N,1","-0018,1","-0046,1","10285,1",,,"0,1,06,1","0,1,06,1","00,1,+99999,9,99,9","00,99,1,00,1,00,1,99999,9,00,1,00,1",,"99999,9,10274,1","2,1,004,1,+999,9","02,1","SYN066AAXX  19121 01108 41989 01003 11018 21046 30274 40285 52004 70200;",
"01108099999","2010-11-19T18:00:00","4","65.7","11.85","9.1","VEGA VALLSJO, NO","FM-12","99999","V020","999,9,C,0000,1","22000,1,9,N","075000,1,N,1","-0022,1","-0037,1","10293,1",,,"0,1,06,1","0,1,06,1","00,1,+99999,9,99,9","00,99,1,00,1,00,1,99999,9,00,1,00,1","999,M,-0011,1","99999,9,10282,1","3,1,007,1,+999,9","02,1","SYN076AAXX  19181 01108 31989 00000 11022 21037 30282 40293 53007 70200 333 11011;",
"01108099999","2010-11-20T06:00:00","4","65.7","11.85","9.1","VEGA VALLSJO, NO","FM-12","99999","V020","090,1,N,0020,1","22000,1,9,N","075000,1,N,1","-0020,1","-0044,1","10297,1","24,0000,9,1",,"0,1,06,1","0,1,06,1",,"02,99,1,01,1,01,1,01250,1,00,1,01,1","999,N,-0039,1","99999,9,10285,1","2,1,002,1,+999,9","03,1","SYN088AAXX  20061 01108 31689 20902 11020 21044 30285 40297 52002 70300 81101 333 21039 70000;","Q01  00002PRCP24"
"01108099999","2010-11-20T12:00:00","4","65.7","11.85","9.1","VEGA VALLSJO, NO","FM-12","99999","V020","070,1,N,0060,1","22000,1,9,N","075000,1,N,1","+0027,1","-0014,1","10296,1",,,"0,1,06,1","0,1,06,1",,"03,99,1,01,1,01,1,01250,1,07,1,02,1",,"99999,9,10285,1","7,1,002,1,+999,9","02,1","SYN072AAXX  20121 01108 41689 30706 10027 21014 30285 40296 57002 70200 81172;",
"01108099999","2010-11-20T18:00:00","4","65.7","11.85","9.1","VEGA VALLSJO, NO","FM-12","99999","V020","110,1,N,0030,1","22000,1,9,N","075000,1,N,1","-0001,1","-0022,1","10293,1",,,"0,1,06,1","0,1,06,1",,"01,99,1,01,1,01,1,01250,1,00,1,01,1","999,M,+0030,1","99999,9,10282,1","4,1,000,1,+999,9","01,1","SYN082AAXX  20181 01108 31689 11103 11001 21022 30282 40293 54000 70100 81101 333 10030;",
"01108099999","2010-11-21T06:00:00","4","65.7","11.85","9.1","VEGA VALLSJO, NO","FM-12","99999","V020","110,1,N,0020,1","22000,1,9,N","075000,1,N,1","-0015,1","-0028,1","10286,1","24,0000,9,1",,"0,1,06,1","0,1,06,1","00,1,+99999,9,99,9","00,99,1,00,1,00,1,99999,9,00,1,00,1","999,N,-0017,1","99999,9,10275,1","7,1,002,1,+999,9","02,1","SYN082AAXX  21061 01108 31989 01102 11015 21028 30275 40286 57002 70200 333 21017 70000;","Q01  00002PRCP24"
"01108099999","2010-11-21T12:00:00","4","65.7","11.85","9.1","VEGA VALLSJO, NO","FM-12","99999","V020","110,1,N,0030,1","22000,1,9,N","075000,1,N,1","-0007,1","-0025,1","10291,1",,,"0,1,06,1","0,1,06,1",,"01,99,1,01,1,02,1,00800,1,00,1,01,1",,"99999,9,10280,1","7,1,001,1,+999,9","03,1","SYN072AAXX  21121 01108 41589 11103 11007 21025 30280 40291 57001 70300 81201;",
"01108099999","2010-11-21T18:00:00","4","65.7","11.85","9.1","VEGA VALLSJO, NO","FM-12","99999","V020","130,1,N,0020,1","22000,1,9,N","070000,1,N,1","-0024,1","-0037,1","10284,1","12,0000,9,1",,"0,1,06,1","0,1,06,1",,"01,99,1,01,1,03,1,00800,1,00,1,01,1","999,M,+0000,1","99999,9,10272,1","7,1,003,1,+999,9","15,1","SYN088AAXX  21181 01108 11588 11302 11024 21037 30272 40284 57003 69912 71500 81301 333 10000;","Q01  00002PRCP12"
"01108099999","2010-11-22T06:00:00","4","65.7","11.85","9.1","VEGA VALLSJO, NO","FM-12","99999","V020","210,1,N,0010,1","00420,1,9,N","040000,1,N,1","+0007,1","-0017,1","10238,1","12,0000,9,1","24,0003,9,1","8,1,06,1","2,1,06,1",,"08,99,1,08,1,09,1,00450,1,99,9,99,9","999,N,-0035,1","99999,9,10227,1","7,1,016,1,+999,9","16,1","SYN094AAXX  22061 01108 11482 82101 10007 21017 30227 40238 57016 69912 71682 889// 333 21035 70002;","Q01  00002PRCP12"
"01108099999","2010-11-22T12:00:00","4","65.7","11.85","9.1","VEGA VALLSJO, NO","FM-12","99999","V020","290,1,N,0010,1","03000,1,9,N","020000,1,N,1","+0017,1","+0002,1","10206,1",,,"8,1,06,1","2,1,06,1",,"07,99,1,04,1,09,1,00250,1,06,1,02,1",,"99999,9,10195,1","7,1,018,1,+999,9","15,1","SYN072AAXX  22121 01108 41370 72901 10017 20002 30195 40206 57018 71582 84962;",
"01108099999","2010-11-22T18:00:00","4","65.7","11.85","9.1","VEGA VALLSJO, NO","FM-12","99999","V020","030,1,N,0030,1","03000,1,9,N","040000,1,N,1","+0014,1","+0002,1","10183,1","12,0020,9,1",,"8,1,06,1","2,1,06,1",,"07,99,1,04,1,09,1,00250,1,06,1,01,1","999,M,+0021,1","99999,9,10172,1","6,1,010,1,+999,9","26,1","SYN088AAXX  22181 01108 11382 70303 10014 20002 30172 40183 56010 60022 72682 84961 333 10021;",
"01108099999","2010-11-23T06:00:00","4","65.7","11.85","9.1","VEGA VALLSJO, NO","FM-12","99999","V020","050,1,N,0060,1","03000,1,9,N","050000,1,N,1","-0006,1","-0048,1","10166,1","12,0000,2,1","24,0018,9,1","2,1,06,1","2,1,06,1",,"07,99,1,04,1,09,1,00800,1,06,1,01,1","999,N,-0006,1","99999,9,10155,1","7,1,002,1,+999,9","15,1","SYN094AAXX  23061 01108 11584 70506 11006 21048 30155 40166 57002 69902 71522 84961 333 21006 70018;",
"01108099999","2010-11-23T12:00:00","4","65.7","11.85","9.1","VEGA VALLSJO, NO","FM-12","99999","V020","120,1,N,0030,1","00420,1,9,N","020000,1,N,1","-0021,1","-0049,1","10169,1",,,"8,1,06,1","2,1,06,1",,"07,99,1,07,1,09,1,00450,1,99,9,99,9",,"99999,9,10157,1","4,1,000,1,+999,9","85,1","SYN072AAXX  23121 01108 41470 71203 11021 21049 30157 40169 54000 78582 879//;",
"01108099999","2010-11-23T18:00:00","4","65.7","11.85","9.1","VEGA VALLSJO, NO","FM-12","99999","V020","130,1,N,0030,1","00750,1,9,N","060000,1,N,1","-0037,1","-0074,1","10180,1","12,0000,2,1",,"8,1,06,1","2,1,06,1",,"07,99,1,05,1,09,1,00800,1,06,1,99,9","999,M,-0006,1","99999,9,10168,1","2,1,007,1,+999,9","15,1","SYN088AAXX  23181 01108 11586 71303 11037 21074 30168 40180 52007 69922 71582 8596/ 333 11006;",
"01108099999","2010-11-24T06:00:00","4","65.7","11.85","9.1","VEGA VALLSJO, NO","FM-12","99999","V020","080,1,N,0050,1","22000,1,9,N","075000,1,N,1","-0039,1","-0110,1","10220,1","24,0003,9,1",,"1,1,06,1","0,1,06,1",,"01,99,1,01,1,01,1,00800,1,00,1,01,1","999,N,-0069,1","99999,9,10208,1","1,1,005,1,+999,9","02,1","SYN088AAXX  24061 01108 31589 10805 11039 21110 30208 40220 51005 70210 81101 333 21069 70002;",
"01108099999","2010-11-24T12:00:00","4","65.7","11.85","9.1","VEGA VALLSJO, NO","FM-12","99999","V020","060,1,N,0070,1","22000,1,9,N","075000,1,N,1","-0031,1","-0104,1","10230,1",,,"0,1,06,1","0,1,06,1","00,1,+99999,9,99,9","00,99,1,00,1,00,1,99999,9,00,1,00,1",,"99999,9,10218,1","8,1,001,1,+999,9","02,1","SYN066AAXX  24121 01108 41989 00607 11031 21104 30218 40230 58001 70200;",
"01108099999","2010-11-24T18:00:00","4","65.7","11.85","9.1","VEGA VALLSJO, NO","FM-12","99999","V020","140,1,N,0040,1","22000,1,9,N","075000,1,N,1","-0088,1","-0128,1","10222,1",,,"0,1,06,1","0,1,06,1",,"01,99,1,01,1,01,1,00800,1,00,1,04,1","999,M,-0029,1","99999,9,10211,1","7,1,003,1,+999,9","03,1","SYN082AAXX  24181 01108 31589 11404 11088 21128 30211 40222 57003 70300 81104 333 11029;",
"01108099999","2010-11-25T06:00:00","4","65.7","11.85","9.1","VEGA VALLSJO, NO","FM-12","99999","V020","130,1,N,0030,1","22000,1,9,N","075000,1,N,1","-0059,1","-0113,1","10178,1","24,0000,9,1",,"0,1,06,1","0,1,06,1",,"02,99,1,01,1,01,1,00800,1,00,1,01,1","999,N,-0099,1","99999,9,10167,1","6,1,012,1,+999,9","02,1","SYN088AAXX  25061 01108 31589 21303 11059 21113 30167 40178 56012 70200 81101 333 21099 70000;","Q01  00002PRCP24"
"01108099999","2010-11-25T12:00:00","4","65.7","11.85","9.1","VEGA VALLSJO, NO","FM-12","99999","V020","130,1,N,0050,1","22000,1,9,N","075000,1,N,1","-0063,1","-0117,1","10170,1",,,"0,1,06,1","0,1,06,1",,"01,99,1,01,1,01,1,00800,1,00,1,02,1",,"99999,9,10158,1","7,1,002,1,+999,9","01,1","SYN072AAXX  25121 01108 41589 11305 11063 21117 30158 40170 57002 70100 81102;",
"01108099999","2010-11-25T18:00:00","4","65.7","11.85","9.1","VEGA VALLSJO, NO","FM-12","99999","V020","110,1,N,0030,1","22000,1,9,N","075000,1,N,1","-0074,1","-0121,1","10193,1",,,"0,1,06,1","0,1,06,1",,"01,99,1,01,1,01,1,00800,1,00,1,01,1","999,M,-0051,1","99999,9,10182,1","2,1,015,1,+999,9","02,1","SYN082AAXX  25181 01108 31589 11103 11074 21121 30182 40193 52015 70200 81101 333 11051;",
"01108099999","2010-11-26T06:00:00","4","65.7","11.85","9.1","VEGA VALLSJO, NO","FM-12","99999","V020","130,1,N,0030,1","22000,1,9,N","075000,1,N,1","-0080,1","-0135,1","10230,1","24,0000,9,1",,"0,1,06,1","0,1,06,1",,"01,99,1,01,1,01,1,00800,1,00,1,01,1","999,N,-0106,1","99999,9,10218,1","3,1,005,1,+999,9","02,1","SYN088AAXX  26061 01108 31589 11303 11080 21135 30218 40230 53005 70200 81101 333 21106 70000;","Q01  00002PRCP24"
"01108099999","2010-11-26T12:00:00","4","65.7","11.85","9.1","VEGA VALLSJO, NO","FM-12","99999","V020","080,1,N,0050,1","22000,1,9,N","075000,1,N,1","-0069,1","-0134,1","10242,1",,,"0,1,06,1","0,1,06,1",,"01,99,1,01,1,01,1,00800,1,00,1,02,1",,"99999,9,10231,1","1,1,005,1,+999,9","01,1","SYN072AAXX  26121 01108 41589 10805 11069 21134 30231 40242 51005 70100 81102;",
"01108099999","2010-11-26T18:00:00","4","65.7","11.85","9.1","VEGA VALLSJO, NO","FM-12","99999","V020","060,1,N,0080,1","22000,1,9,N","075000,1,N,1","-0061,1","-0103,1","10255,1",,,"0,1,06,1","0,1,06,1",,"01,99,1,01,1,01,1,00800,1,00,1,00,1","999,M,-0061,1","99999,9,10244,1","2,1,007,1,+999,9","02,1","SYN082AAXX  26181 01108 31589 10608 11061 21103 30244 40255 52007 70200 81100 333 11061;",
"01108099999","2010-11-27T06:00:00","4","65.7","11.85","9.1","VEGA VALLSJO, NO","FM-12","99999","V020","080,1,N,0070,1","22000,1,9,N","075000,1,N,1","-0056,1","-0126,1","10278,1","24,0000,9,1",,"1,1,06,1","1,1,06,1",,"04,99,1,01,1,01,1,00800,1,00,1,01,1","999,N,-0065,1","99999,9,10267,1","3,1,008,1,+999,9","01,1","SYN088AAXX  27061 01108 31589 40807 11056 21126 30267 40278 53008 70111 81101 333 21065 70000;","Q01  00002PRCP24"
"01108099999","2010-11-27T12:00:00","4","65.7","11.85","9.1","VEGA VALLSJO, NO","FM-12","99999","V020","080,1,N,0040,1","22000,1,9,N","075000,1,N,1","-0054,1","-0100,1","10298,1",,,"1,1,06,1","0,1,06,1",,"03,99,1,01,1,01,1,00800,1,00,1,01,1",,"99999,9,10287,1","2,1,011,1,+999,9","02,1","SYN072AAXX  27121 01108 41589 30804 11054 21100 30287 40298 52011 70210 81101;",
"01108099999","2010-11-27T18:00:00","4","65.7","11.85","9.1","VEGA VALLSJO, NO","FM-12","99999","V020","120,1,N,0030,1","22000,1,9,N","075000,1,N,1","-0071,1","-0127,1","10298,1",,,"0,1,06,1","0,1,06,1",,"01,99,1,01,1,01,1,00800,1,00,1,01,1","999,M,-0048,1","99999,9,10287,1","2,1,003,1,+999,9","02,1","SYN082AAXX  27181 01108 31589 11203 11071 21127 30287 40298 52003 70200 81101 333 11048;",
"01108099999","2010-11-28T06:00:00","4","65.7","11.85","9.1","VEGA VALLSJO, NO","FM-12","99999","V020","140,1,N,0040,1","22000,1,9,N","075000,1,N,1","-0091,1","-0122,1","10331,1","24,0000,9,1",,"0,1,06,1","0,1,06,1",,"01,99,1,01,1,01,1,00800,1,00,1,01,1","999,N,-0116,1","99999,9,10319,1","2,1,008,1,+999,9","02,1","SYN088AAXX  28061 01108 31589 11404 11091 21122 30319 40331 52008 70200 81101 333 21116 70000;","Q01  00002PRCP24"
"01108099999","2010-11-28T12:00:00","4","65.7","11.85","9.1","VEGA VALLSJO, NO","FM-12","99999","V020","160,1,N,0020,1","22000,1,9,N","075000,1,N,1","-0092,1","-0112,1","10351,1",,,"0,1,06,1","0,1,06,1",,"01,99,1,01,1,01,1,00800,1,00,1,01,1",,"99999,9,10339,1","2,1,006,1,+999,9","02,1","SYN072AAXX  28121 01108 41589 11602 11092 21112 30339 40351 52006 70200 81101;",
"01108099999","2010-11-28T18:00:00","4","65.7","11.85","9.1","VEGA VALLSJO, NO","FM-12","99999","V020","120,1,N,0020,1","22000,1,9,N","075000,1,N,1","-0101,1","-0110,1","10357,1",,,"0,1,06,1","0,1,06,1",,"01,99,1,01,1,01,1,00800,1,00,1,01,1","999,M,-0085,1","99999,9,10345,1","2,1,004,1,+999,9","02,1","SYN082AAXX  28181 01108 31589 11202 11101 21110 30345 40357 52004 70200 81101 333 11085;",
"01108099999","2010-11-29T06:00:00","4","65.7","11.85","9.1","VEGA VALLSJO, NO","FM-12","99999","V020","130,1,N,0030,1","22000,1,9,N","075000,1,N,1","-0080,1","-0103,1","10354,1","24,0000,9,1",,"0,1,06,1","0,1,06,1",,"01,99,1,01,1,01,1,00800,1,00,1,01,1","999,N,-0110,1","99999,9,10342,1","8,1,001,1,+999,9","02,1","SYN088AAXX  29061 01108 31589 11303 11080 21103 30342 40354 58001 70200 81101 333 21110 70000;","Q01  00002PRCP24"
"01108099999","2010-11-29T12:00:00","4","65.7","11.85","9.1","VEGA VALLSJO, NO","FM-12","99999","V020","110,1,N,0030,1","03000,1,9,N","075000,1,N,1","-0091,1","-0104,1","10361,1",,,"2,1,06,1","1,1,06,1",,"06,99,1,01,1,01,1,00800,1,07,1,01,1",,"99999,9,10349,1","2,1,003,1,+999,9","03,1","SYN072AAXX  29121 01108 41589 61103 11091 21104 30349 40361 52003 70321 81171;",
"01108099999","2010-11-29T18:00:00","4","65.7","11.85","9.1","VEGA VALLSJO, NO","FM-12","99999","V020","150,1,N,0020,1","22000,1,9,N","075000,1,N,1","-0085,1","-0098,1","10350,1",,,"1,1,06,1","1,1,06,1",,"04,99,1,01,1,01,1,00800,1,00,1,01,1","999,M,-0072,1","99999,9,10337,1","7,1,002,1,+999,9","02,1","SYN082AAXX  29181 01108 31589 41502 11085 21098 30337 40350 57002 70211 81101 333 11072;",
"01108099999","2010-11-30T06:00:00","4","65.7","11.85","9.1","VEGA VALLSJO, NO","FM-12","99999","V020","150,1,N,0030,1","07500,1,9,N","075000,1,N,1","-0074,1","-0082,1","10323,1","24,0000,9,1",,"1,1,06,1","1,1,06,1",,"05,99,1,01,1,01,1,00800,1,07,1,01,1","999,N,-0108,1","99999,9,10312,1","7,1,011,1,+999,9","02,1","SYN088AAXX  30061 01108 31589 51503 11074 21082 30312 40323 57011 70211 81171 333 21108 70000;","Q01  00002PRCP24"
"01108099999","2010-11-30T12:00:00","4","65.7","11.85","9.1","VEGA VALLSJO, NO","FM-12","99999","V020","230,1,N,0040,1","00900,1,9,N","070000,1,N,1","-0011,1","-0039,1","10312,1",,,"2,1,06,1","2,1,06,1",,"07,99,1,07,1,08,1,00450,1,99,9,99,9",,"99999,9,10300,1","7,1,010,1,+999,9","15,1","SYN072AAXX  30121 01108 41488 72304 11011 21039 30300 40312 57010 71522 878//;",
"01108099999","2010-11-30T18:00:00","4","65.7","11.85","9.1","VEGA VALLSJO, NO","FM-12","99999","V020","270,1,N,0050,1","00900,1,9,N","070000,1,N,1","+0015,1","-0061,1","10293,1",,,"2,1,06,1","2,1,06,1",,"07,99,1,07,1,08,1,00450,1,99,9,99,9","999,M,+0015,1","99999,9,10282,1","7,1,008,1,+999,9","15,1","SYN082AAXX  30181 01108 31488 72705 10015 21061 30282 40293 57008 71522 878// 333 10015;",
"01108099999","2010-12-01T06:00:00","4","65.7","11.85","9.1","VEGA VALLSJO, NO","FM-12","99999","V020","220,1,N,0060,1","03000,1,9,N","030000,1,N,1","+0011,1","-0045,1","10259,1","12,9999,9,9","24,9999,9,9","7,1,06,1","2,1,06,1",,"08,99,1,02,1,07,1,00800,1,02,1,99,9","999,N,+0010,1","99999,9,10247,1","7,1,012,1,+999,9","70,1","SYN094AAXX  01061 01108 11580 82206 10011 21045 30247 40259 57012 69912 77072 8272/ 333 20010 70001;","Q01  00002PRCP24Q02  00002PRCP12Q03  00002PRCP12Q04  00002PRCP24"
"01108099999","2010-12-01T12:00:00","4","65.7","11.85","9.1","VEGA VALLSJO, NO","FM-12","99999","V020","190,1,N,0060,1","00420,1,9,N","030000,1,N,1","+0000,1","-0039,1","10241,1",,,"7,1,06,1","2,1,06,1",,"07,99,1,07,1,09,1,00450,1,99,9,99,9",,"99999,9,10230,1","7,1,014,1,+999,9","26,1","SYN072AAXX  01121 01108 41480 71906 10000 21039 30230 40241 57014 72672 879//;",
"01108099999","2010-12-01T18:00:00","4","65.7","11.85","9.1","VEGA VALLSJO, NO","FM-12","99999","V020","200,1,N,0100,1","00420,1,9,N","030000,1,N,1","+0013,1","-0023,1","10207,1","12,0000,2,1",,"8,1,06,1","2,1,06,1",,"07,99,1,07,1,09,1,00450,1,99,9,99,9","999,M,+0013,1","99999,9,10196,1","7,1,015,1,+999,9","15,1","SYN088AAXX  01181 01108 11480 72010 10013 21023 30196 40207 57015 69912 71582 879// 333 10013;",
"01108099999","2010-12-02T06:00:00","4","65.7","11.85","9.1","VEGA VALLSJO, NO","FM-12","99999","V020","240,1,N,0120,1","00420,1,9,N","008000,1,N,1","+0039,1","-0001,1","10144,1","12,0071,9,2","24,0066,9,2","8,1,06,1","7,1,06,1",,"07,99,1,07,1,09,1,00450,1,99,9,99,9","999,N,+0005,1","99999,9,10132,1","6,1,011,1,+999,9","87,1","SYN094AAXX  02061 01108 11458 72412 10039 21001 30132 40144 56011 60072 78787 879// 333 20005 70067;",
"01108099999","2010-12-02T12:00:00","4","65.7","11.85","9.1","VEGA VALLSJO, NO","FM-12","99999","V020","220,1,N,0110,1","00600,1,9,N","040000,1,N,1","+0038,1","-0024,1","10125,1",,,"2,1,06,1","2,1,06,1",,"07,99,1,07,1,08,1,00250,1,99,9,99,9",,"99999,9,10113,1","8,1,011,1,+999,9","15,1","SYN072AAXX  02121 01108 41382 72211 10038 21024 30113 40125 58011 71522 878//;",
"01108099999","2010-12-02T18:00:00","4","65.7","11.85","9.1","VEGA VALLSJO, NO","FM-12","99999","V020","200,1,N,0090,1","00420,1,9,N","030000,1,N,1","+0017,1","-0021,1","10098,1","12,0000,2,1",,"8,1,06,1","2,1,06,1",,"07,99,1,07,1,09,1,00450,1,99,9,99,9","999,M,+0046,1","99999,9,10087,1","6,1,013,1,+999,9","15,1","SYN088AAXX  02181 01108 11480 72009 10017 21021 30087 40098 56013 69902 71582 879// 333 10046;",
"01108099999","2010-12-03T06:00:00","4","65.7","11.85","9.1","VEGA VALLSJO, NO","FM-12","99999","V020","180,1,N,0060,1","03000,1,9,N","050000,1,N,1","+0011,1","-0041,1","10038,1","12,0003,9,1","24,0003,9,1","2,1,06,1","2,1,06,1",,"07,99,1,02,1,02,1,00800,1,07,1,02,1","999,N,+0004,1","99999,9,10027,1","7,1,015,1,+999,9","02,1","SYN094AAXX  03061 01108 11584 71806 10011 21041 30027 40038 57015 69932 70222 82272 333 20004 70003;",
"01108099999","2010-12-03T12:00:00","4","65.7","11.85","9.1","VEGA VALLSJO, NO","FM-12","99999","V020","150,1,N,0040,1","03000,1,9,N","050000,1,N,1","+0012,1","-0040,1","10028,1",,,"8,1,06,1","2,1,06,1",,"07,99,1,04,1,09,1,00450,1,06,1,99,9",,"99999,9,10017,1","7,1,005,1,+999,9","15,1","SYN072AAXX  03121 01108 41484 71504 10012 21040 30017 40028 57005 71582 8496/;",
"01108099999","2010-12-03T18:00:00","4","65.7","11.85","9.1","VEGA VALLSJO, NO","FM-12","99999","V020","210,1,N,0030,1","03000,1,9,N","060000,1,N,1","+0011,1","-0041,1","10018,1","12,0005,9,1",,"2,1,06,1","2,1,06,1",,"06,99,1,02,1,02,1,00450,1,06,1,01,1","999,M,+0016,1","99999,9,10007,1","7,1,004,1,+999,9","02,1","SYN088AAXX  03181 01108 11486 62103 10011 21041 30007 40018 57004 69942 70222 82261 333 10016;",
"01108099999","2010-12-04T06:00:00","4","65.7","11.85","9.1","VEGA VALLSJO, NO","FM-12","99999","V020","170,1,N,0010,1","22000,1,9,N","075000,1,N,1","-0030,1","-0093,1","09988,1","24,0005,9,1",,"2,1,06,1","0,1,06,1",,"02,99,1,01,1,01,1,00800,1,00,1,01,1","999,N,-0046,1","99999,9,09977,1","7,1,010,1,+999,9","02,1","SYN088AAXX  04061 01108 31589 21701 11030 21093 39977 49988 57010 70220 81101 333 21046 70004;",
"01108099999","2010-12-04T12:00:00","4","65.7","11.85","9.1","VEGA VALLSJO, NO","FM-12","99999","V020","130,1,N,0060,1","07500,1,9,N","075000,1,N,1","-0039,1","-0089,1","09951,1",,,"1,1,06,1","1,1,06,1",,"05,99,1,02,1,08,1,00450,1,00,1,02,1",,"99999,9,09940,1","8,1,025,1,+999,9","03,1","SYN072AAXX  04121 01108 41489 51306 11039 21089 39940 49951 58025 70311 82802;",
"01108099999","2010-12-04T18:00:00","4","65.7","11.85","9.1","VEGA VALLSJO, NO","FM-12","99999","V020","150,1,N,0110,1","03000,1,9,N","070000,1,N,1","-0017,1","-0085,1","09907,1",,,"2,1,06,1","1,1,06,1",,"07,99,1,04,1,08,1,00450,1,06,1,02,1","999,M,-0017,1","99999,9,09896,1","7,1,023,1,+999,9","03,1","SYN082AAXX  04181 01108 31488 71511 11017 21085 39896 49907 57023 70321 84862 333 11017;",
"01108099999","2010-12-05T06:00:00","4","65.7","11.85","9.1","VEGA VALLSJO, NO","FM-12","99999","V020","160,1,N,0090,1","00420,1,9,N","004000,1,N,1","+0010,1","-0012,1","09871,1","12,0071,9,2","24,0066,9,2","8,1,06,1","2,1,06,1",,"07,99,1,07,1,09,1,00450,1,99,9,99,9","999,N,-0026,1","99999,9,09860,1","7,1,016,1,+999,9","85,1","SYN094AAXX  05061 01108 11440 71609 10010 21012 39860 49871 57016 60072 78582 879// 333 21026 70065;",
"01108099999","2010-12-05T12:00:00","4","65.7","11.85","9.1","VEGA VALLSJO, NO","FM-12","99999","V020","170,1,N,0120,1","00420,1,9,N","025000,1,N,1","+0010,1","-0029,1","09856,1",,,"8,1,06,1","2,1,06,1",,"06,99,1,06,1,09,1,00450,1,99,9,99,9",,"99999,9,09845,1","7,1,016,1,+999,9","26,1","SYN072AAXX  05121 01108 41475 61712 10010 21029 39845 49856 57016 72682 869//;",
"01108099999","2010-12-05T18:00:00","4","65.7","11.85","9.1","VEGA VALLSJO, NO","FM-12","99999","V020","150,1,N,0100,1","00420,1,9,N","001000,1,N,1","+0001,1","-0010,1","09803,1","12,0051,9,1",,"8,1,06,1","2,1,06,1",,"08,99,1,08,1,09,1,00450,1,99,9,99,9","999,M,+0011,1","99999,9,09792,1","7,1,026,1,+999,9","86,1","SYN088AAXX  05181 01108 11410 81510 10001 21010 39792 49803 57026 60052 78682 889// 333 10011;",
"01108099999","2010-12-06T06:00:00","4","65.7","11.85","9.1","VEGA VALLSJO, NO","FM-12","99999","V020","230,1,N,0110,1","00420,1,9,N","020000,1,N,1","+0041,1","-0005,1","09843,1","12,0140,9,1","24,0188,9,1","8,1,06,1","2,1,06,1",,"07,99,1,07,1,09,1,00450,1,99,9,99,9","999,N,+0000,1","99999,9,09832,1","2,1,001,1,+999,9","27,1","SYN094AAXX  06061 01108 11470 72311 10041 21005 39832 49843 52001 60142 72782 879// 333 20000 70189;",
"01108099999","2010-12-06T12:00:00","4","65.7","11.85","9.1","VEGA VALLSJO, NO","FM-12","99999","V020","180,1,N,0090,1","00420,1,9,N","020000,1,N,1","+0016,1","-0027,1","09866,1",,,"8,1,06,1","2,1,06,1",,"07,99,1,05,1,09,1,00450,1,00,1,02,1",,"99999,9,09855,1","2,1,012,1,+999,9","15,1","SYN072AAXX  06121 01108 41470 71809 10016 21027 39855 49866 52012 71582 85902;",
"01108099999","2010-12-06T18:00:00","4","65.7","11.85","9.1","VEGA VALLSJO, NO","FM-12","99999","V020","160,1,N,0070,1","00420,1,9,N","030000,1,N,1","+0012,1","-0019,1","09872,1","12,0020,9,1",,"8,1,06,1","2,1,06,1",,"07,99,1,07,1,09,1,00450,1,99,9,99,9","999,M,+0041,1","99999,9,09861,1","3,1,005,1,+999,9","15,1","SYN088AAXX  06181 01108 11480 71607 10012 21019 39861 49872 53005 60022 71582 879// 333 10041;",
"01108099999","2010-12-07T06:00:00","4","65.7","11.85","9.1","VEGA VALLSJO, NO","FM-12","99999","V020","300,1,N,0090,1","00210,1,9,N","010000,1,N,1","+0028,1","+0002,1","09892,1","12,0030,9,1","24,0051,9,1","8,1,06,1","2,1,06,1",,"08,99,1,08,1,09,1,00250,1,99,9,99,9","999,N,-0008,1","99999,9,09881,1","3,1,009,1,+999,9","16,1","SYN094AAXX  07061 01108 11360 83009 10028 20002 39881 49892 53009 60032 71682 889// 333 21008 70052;",
"01108099999","2010-12-07T12:00:00","4","65.7","11.85","9.1","VEGA VALLSJO, NO","FM-12","99999","V020","340,1,N,0090,1","00120,1,9,N","025000,1,N,1","+0035,1","-0003,1","09923,1",,,"8,1,06,1","2,1,06,1",,"06,99,1,05,1,09,1,00150,1,06,1,99,9",,"99999,9,09912,1","2,1,013,1,+999,9","15,1","SYN072AAXX  07121 01108 41275 63409 10035 21003 39912 49923 52013 71582 8596/;",
"01108099999","2010-12-07T18:00:00","4","65.7","11.85","9.1","VEGA VALLSJO, NO","FM-12","99999","V020","320,1,N,0060,1","00420,1,9,N","040000,1,N,1","+0012,1","-0014,1","09958,1","12,0020,9,1",,"8,1,06,1","2,1,06,1",,"05,99,1,05,1,09,1,00450,1,00,1,00,1","999,M,+0037,1","99999,9,09947,1","2,1,015,1,+999,9","15,1","SYN088AAXX  07181 01108 11482 53206 10012 21014 39947 49958 52015 60022 71582 85900 333 10037;",
"01108099999","2010-12-08T06:00:00","4","65.7","11.85","9.1","VEGA VALLSJO, NO","FM-12","99999","V020","160,1,N,0020,1","22000,1,9,N","050000,1,N,1","-0026,1","-0035,1","09996,1","12,0000,9,1","24,0020,9,1","8,1,06,1","1,1,06,1",,"02,99,1,02,1,09,1,00450,1,00,1,01,1","999,N,-0029,1","99999,9,09985,1","2,1,005,1,+999,9","15,1","SYN094AAXX  08061 01108 11484 21602 11026 21035 39985 49996 52005 69922 71581 82901 333 21029 70021;","Q01  00002PRCP12"
"01108099999","2010-12-08T12:00:00","4","65.7","11.85","9.1","VEGA VALLSJO, NO","FM-12","99999","V020","140,1,N,0050,1","07500,1,9,N","010000,1,N,1","-0006,1","-0026,1","09999,1",,,"2,1,06,1","1,1,06,1",,"07,99,1,04,1,09,1,00450,1,00,1,02,1",,"99999,9,09987,1","4,1,000,1,+999,9","85,1","SYN072AAXX  08121 01108 41460 71405 11006 21026 39987 49999 54000 78521 84902;",
"01108099999","2010-12-08T18:00:00","4","65.7","11.85","9.1","VEGA VALLSJO, NO","FM-12","99999","V020","130,1,N,0030,1","00420,1,9,N","007000,1,N,1","-0007,1","-0034,1","10000,1","12,0000,2,1",,"8,1,06,1","2,1,06,1",,"08,99,1,08,1,09,1,00450,1,99,9,99,9","999,M,-0006,1","99999,9,09988,1","3,1,004,1,+999,9","85,1","SYN088AAXX  08181 01108 11457 81303 11007 21034 39988 40000 53004 69912 78582 889// 333 11006;",
"01108099999","2010-12-09T06:00:00","4","65.7","11.85","9.1","VEGA VALLSJO, NO","FM-12","99999","V020","130,1,N,0020,1","22000,1,9,N","070000,1,N,1","-0040,1","-0054,1","10065,1","12,0005,9,1","24,0005,9,1","2,1,06,1","1,1,06,1",,"03,99,1,01,1,01,1,00800,1,00,1,02,1","999,N,-0060,1","99999,9,10053,1","2,1,024,1,+999,9","02,1","SYN094AAXX  09061 01108 11588 31302 11040 21054 30053 40065 52024 69952 70221 81102 333 21060 70006;",
"01108099999","2010-12-09T12:00:00","4","65.7","11.85","9.1","VEGA VALLSJO, NO","FM-12","99999","V020","140,1,N,0030,1","07500,1,9,N","070000,1,N,1","-0056,1","-0064,1","10110,1",,,"2,1,06,1","1,1,06,1",,"05,99,1,01,1,02,1,00450,1,00,1,02,1",,"99999,9,10098,1","6,1,018,1,+999,9","02,1","SYN072AAXX  09121 01108 41488 51403 11056 21064 30098 40110 56018 70221 81202;",
"01108099999","2010-12-09T18:00:00","4","65.7","11.85","9.1","VEGA VALLSJO, NO","FM-12","99999","V020","200,1,N,0040,1","00420,1,9,N","020000,1,N,1","+0001,1","-0024,1","10132,1",,,"2,1,06,1","2,1,06,1",,"07,99,1,05,1,09,1,00450,1,00,1,01,1","999,M,+0001,1","99999,9,10121,1","2,1,006,1,+999,9","15,1","SYN082AAXX  09181 01108 31470 72004 10001 21024 30121 40132 52006 71522 85901 333 10001;",
"01108099999","2010-12-10T06:00:00","4","65.7","11.85","9.1","VEGA VALLSJO, NO","FM-12","99999","V020","150,1,N,0020,1","00420,1,9,N","002000,1,N,1","-0001,1","-0003,1","10090,1","12,0041,9,1","24,0043,9,1","8,1,06,1","2,1,06,1",,"08,99,1,08,1,09,1,00450,1,99,9,99,9","999,N,-0010,1","99999,9,10078,1","7,1,014,1,+999,9","86,1","SYN094AAXX  10061 01108 11420 81502 11001 21003 30078 40090 57014 60042 78682 889// 333 21010 70044;",
"01108099999","2010-12-10T12:00:00","4","65.7","11.85","9.1","VEGA VALLSJO, NO","FM-12","99999","V020","140,1,N,0030,1","00420,1,9,N","001500,1,N,1","-0004,1","-0005,1","10050,1",,,"8,1,06,1","8,1,06,1",,"08,99,1,08,1,09,1,00450,1,99,9,99,9",,"99999,9,10038,1","7,1,026,1,+999,9","85,1","SYN072AAXX  10121 01108 41415 81403 11004 21005 30038 40050 57026 78588 889//;",
"01108099999","2010-12-10T18:00:00","4","65.7","11.85","9.1","VEGA VALLSJO, NO","FM-12","99999","V020","100,1,N,0030,1","07500,1,9,N","050000,1,N,1","-0011,1","-0024,1","09997,1","12,0030,9,1",,"8,1,06,1","2,1,06,1",,"07,99,1,01,1,02,1,00450,1,00,1,02,1","999,M,+0000,1","99999,9,09986,1","7,1,025,1,+999,9","02,1","SYN088AAXX  10181 01108 11484 71003 11011 21024 39986 49997 57025 60032 70282 81202 333 10000;",
"01108099999","2010-12-11T06:00:00","4","65.7","11.85","9.1","VEGA VALLSJO, NO","FM-12","99999","V020","060,1,N,0080,1","22000,1,9,N","075000,1,N,1","-0011,1","-0047,1","09965,1","24,0025,9,1",,"1,1,06,1","0,1,06,1",,"01,99,1,00,1,00,1,99999,9,00,1,01,1","999,N,-0026,1","99999,9,09953,1","2,1,013,1,+999,9","02,1","SYN088AAXX  11061 01108 31989 10608 11011 21047 39953 49965 52013 70210 80001 333 21026 70025;",
"01108099999","2010-12-11T12:00:00","4","65.7","11.85","9.1","VEGA VALLSJO, NO","FM-12","99999","V020","080,1,N,0040,1","07500,1,9,N","070000,1,N,1","-0030,1","-0070,1","10025,1",,,"1,1,06,1","0,1,06,1",,"06,99,1,01,1,03,1,00800,1,00,1,02,1",,"99999,9,10013,1","2,1,030,1,+999,9","15,1","SYN072AAXX  11121 01108 41588 60804 11030 21070 30013 40025 52030 71510 81302;",
"01108099999","2010-12-11T18:00:00","4","65.7","11.85","9.1","VEGA VALLSJO, NO","FM-12","99999","V020","120,1,N,0020,1","22000,1,9,N","075000,1,N,1","-0041,1","-0078,1","10088,1",,,"1,1,06,1","0,1,06,1",,"02,99,1,01,1,04,1,01250,1,00,1,01,1","999,M,-0012,1","99999,9,10077,1","2,1,029,1,+999,9","01,1","SYN082AAXX  11181 01108 31689 21202 11041 21078 30077 40088 52029 70110 81401 333 11012;",
"01108099999","2010-12-12T06:00:00","4","65.7","11.85","9.1","VEGA VALLSJO, NO","FM-12","99999","V020","320,1,N,0050,1","00420,1,9,N","020000,1,N,1","+0030,1","-0025,1","10133,1","12,0010,9,1","24,0013,9,1","8,1,06,1","2,1,06,1",,"07,99,1,07,1,09,1,00450,1,99,9,99,9","999,N,-0074,1","99999,9,10122,1","2,1,007,1,+999,9","15,1","SYN094AAXX  12061 01108 11470 73205 10030 21025 30122 40133 52007 60012 71582 879// 333 21074 70012;",
"01108099999","2010-12-12T12:00:00","4","65.7","11.85","9.1","VEGA VALLSJO, NO","FM-12","99999","V020","200,1,N,0030,1","07500,1,9,N","030000,1,N,1","+0000,1","-0011,1","10162,1",,,"8,1,06,1","2,1,06,1",,"07,99,1,04,1,09,1,00150,1,00,1,02,1",,"99999,9,10151,1","2,1,008,1,+999,9","15,1","SYN072AAXX  12121 01108 41280 72003 10000 21011 30151 40162 52008 71582 84902;",
"01108099999","2010-12-12T18:00:00","4","65.7","11.85","9.1","VEGA VALLSJO, NO","FM-12","99999","V020","130,1,N,0030,1","00120,1,9,N","010000,1,N,1","+0009,1","+0002,1","10181,1","12,0010,9,1",,"8,1,06,1","2,1,06,1",,"08,99,1,08,1,09,1,00150,1,99,9,99,9","999,M,+0031,1","99999,9,10170,1","2,1,010,1,+999,9","85,1","SYN088AAXX  12181 01108 11260 81303 10009 20002 30170 40181 52010 69992 78582 889// 333 10031;",
"01108099999","2010-12-13T06:00:00","4","65.7","11.85","9.1","VEGA VALLSJO, NO","FM-12","99999","V020","150,1,N,0070,1","22000,1,9,N","070000,1,N,1","+0010,1","-0038,1","10218,1","12,0000,2,1","24,0010,9,1","1,1,06,1","1,1,06,1",,"04,99,1,02,1,01,1,00800,1,00,1,01,1","999,N,-0001,1","99999,9,10207,1","2,1,012,1,+999,9","02,1","SYN094AAXX  13061 01108 11588 41507 10010 21038 30207 40218 52012 69912 70211 82101 333 21001 70010;",
"01108099999","2010-12-13T12:00:00","4","65.7","11.85","9.1","VEGA VALLSJO, NO","FM-12","99999","V020","160,1,N,0060,1","00900,1,9,N","075000,1,N,1","+0017,1","-0054,1","10245,1",,,"2,1,06,1","1,1,06,1",,"06,99,1,06,1,08,1,00450,1,99,9,99,9",,"99999,9,10233,1","2,1,009,1,+999,9","03,1","SYN072AAXX  13121 01108 41489 61606 10017 21054 30233 40245 52009 70321 868//;",
"01108099999","2010-12-13T18:00:00","4","65.7","11.85","9.1","VEGA VALLSJO, NO","FM-12","99999","V020","140,1,N,0020,1","03000,1,9,N","070000,1,N,1","+0007,1","-0045,1","10258,1",,,"2,1,06,1","2,1,06,1",,"07,99,1,03,1,08,1,00450,1,03,1,99,9","999,M,+0019,1","99999,9,10247,1","1,1,008,1,+999,9","02,1","SYN082AAXX  13181 01108 31488 71402 10007 21045 30247 40258 51008 70222 8383/ 333 10019;",
"01108099999","2010-12-14T06:00:00","4","65.7","11.85","9.1","VEGA VALLSJO, NO","FM-12","99999","V020","150,1,N,0020,1","00210,1,9,N","030000,1,N,1","+0014,1","+0004,1","10269,1","12,0020,9,2","24,0018,9,2","8,1,06,1","2,1,06,1",,"07,99,1,07,1,09,1,00250,1,99,9,99,9","999,N,+0002,1","99999,9,10257,1","3,1,017,1,+999,9","15,1","SYN094AAXX  14061 01108 11380 71502 10014 20004 30257 40269 53017 60022 71582 879// 333 20002 70018;",
"01108099999","2010-12-14T12:00:00","4","65.7","11.85","9.1","VEGA VALLSJO, NO","FM-12","99999","V020","120,1,N,0020,1","00060,1,9,N","030000,1,N,1","+0011,1","+0007,1","10309,1",,,"8,1,06,1","2,1,06,1",,"07,99,1,07,1,09,1,00075,1,99,9,99,9",,"99999,9,10297,1","1,1,012,1,+999,9","15,1","SYN072AAXX  14121 01108 41180 71202 10011 20007 30297 40309 51012 71582 879//;",
"01108099999","2010-12-15T06:00:00","4","65.7","11.85","9.1","VEGA VALLSJO, NO","FM-12","99999","V020","180,1,N,0070,1","00120,1,9,N","007000,1,N,1","+0037,1","+0019,1","10200,1","12,9999,9,9","24,9999,9,9","8,1,06,1","2,1,06,1",,"07,99,1,07,1,09,1,00150,1,99,9,99,9","999,N,+0010,1","99999,9,10188,1","8,1,051,2,+999,9","80,1","SYN094AAXX  15061 01108 11257 71807 10037 20019 30188 40200 58051 69902 78082 879// 333 20010 70001;","Q01+000512APC3  Q02  00002PRCP24Q03  00002PRCP12Q04  00002PRCP12Q05  00002PRCP24"
"01108099999","2010-12-15T12:00:00","4","65.7","11.85","9.1","VEGA VALLSJO, NO","FM-12","99999","V020","200,1,N,0160,1","00210,1,9,N","004000,1,N,1","+0054,1","+0037,1","99999,9",,,"6,1,06,1","5,1,06,1",,"08,99,1,07,1,07,1,00250,1,02,1,99,9",,,"7,1,084,2,+999,9","63,1","SYN072AAXX  15121 01108 41340 82016 10054 20037 30050 40061 57084 76365 8772/;","Q01+100503APOSP "
"01108099999","2010-12-15T18:00:00","4","65.7","11.85","9.1","VEGA VALLSJO, NO","FM-12","99999","V020","260,1,N,0080,1","00210,1,9,N","007000,1,N,1","+0039,1","+0026,1","99999,9","12,0221,9,1",,"6,1,06,1","6,1,06,1",,"08,99,1,07,1,07,1,00250,1,02,1,99,9","999,M,+0060,1",,"7,1,051,2,+999,9","63,1","SYN088AAXX  15181 01108 11357 82608 10039 20026 39927 49938 57051 60222 76366 8772/ 333 10060;","Q01+099273APOSP "
"01108099999","2010-12-16T06:00:00","4","65.7","11.85","9.1","VEGA VALLSJO, NO","FM-12","99999","V020","360,1,N,0090,1","03000,1,9,N","040000,1,N,1","+0005,1","-0057,1","09864,1","12,0079,9,1","24,0300,9,1","8,1,06,1","2,1,06,1",,"07,99,1,04,1,09,1,00450,1,06,1,02,1","999,N,-0017,1","99999,9,09852,1","7,1,023,1,+999,9","15,1","SYN094AAXX  16061 01108 11482 73609 10005 21057 39852 49864 57023 60082 71582 84962 333 21017 70299;",
"01108099999","2010-12-16T12:00:00","4","65.7","11.85","9.1","VEGA VALLSJO, NO","FM-12","99999","V020","220,1,N,0010,1","07500,1,9,N","030000,1,N,1","-0024,1","-0039,1","09860,1",,,"8,1,06,1","2,1,06,1",,"06,99,1,02,1,09,1,00450,1,00,1,08,1",,"99999,9,09848,1","8,1,006,1,+999,9","15,1","SYN072AAXX  16121 01108 41480 62201 11024 21039 39848 49860 58006 71582 82908;",
"01108099999","2010-12-16T18:00:00","4","65.7","11.85","9.1","VEGA VALLSJO, NO","FM-12","99999","V020","050,1,N,0060,1","03000,1,9,N","070000,1,N,1","-0006,1","-0047,1","09847,1","12,0008,9,1",,"2,1,06,1","2,1,06,1",,"07,99,1,01,1,04,1,00800,1,01,1,06,1","999,M,+0005,1","99999,9,09836,1","7,1,009,1,+999,9","03,1","SYN088AAXX  16181 01108 11588 70506 11006 21047 39836 49847 57009 69982 70322 81416 333 10005;",
"01108099999","2010-12-17T06:00:00","4","65.7","11.85","9.1","VEGA VALLSJO, NO","FM-12","99999","V020","130,1,N,0070,1","00750,1,9,N","030000,1,N,1","+0005,1","-0041,1","09935,1","12,0000,9,1","24,0010,9,1","2,1,06,1","2,1,06,1",,"08,99,1,06,1,07,1,00800,1,02,1,99,9","999,N,-0024,1","99999,9,09923,1","3,1,039,1,+999,9","15,1","SYN094AAXX  17061 01108 11580 81307 10005 21041 39923 49935 53039 69922 71522 8672/ 333 21024 70010;","Q01  00002PRCP12"
"01108099999","2010-12-17T12:00:00","4","65.7","11.85","9.1","VEGA VALLSJO, NO","FM-12","99999","V020","130,1,N,0080,1","00420,1,9,N","050000,1,N,1","+0011,1","-0035,1","10020,1",,,"8,1,06,1","2,1,06,1",,"07,99,1,05,1,09,1,00450,1,06,1,02,1",,"99999,9,10008,1","2,1,042,1,+999,9","15,1","SYN072AAXX  17121 01108 41484 71308 10011 21035 30008 40020 52042 71582 85962;",
"01108099999","2010-12-17T18:00:00","4","65.7","11.85","9.1","VEGA VALLSJO, NO","FM-12","99999","V020","120,1,N,0130,1","03000,1,9,N","070000,1,N,1","+0004,1","-0075,1","99999,9","12,0000,9,1",,"2,1,06,1","2,1,06,1",,"07,99,1,04,1,04,1,00800,1,07,1,02,1","999,M,+0022,1",,"1,1,037,1,+999,9","03,1","SYN088AAXX  17181 01108 11588 71213 10004 21075 30095 40106 51037 69902 70322 84472 333 10022;","Q01+100953APOSP Q02  00002PRCP12"
"01108099999","2010-12-18T06:00:00","4","65.7","11.85","9.1","VEGA VALLSJO, NO","FM-12","99999","V020","120,1,N,0050,1","03000,1,9,N","075000,1,N,1","-0046,1","-0107,1","10212,1","24,0000,9,1",,"2,1,06,1","2,1,06,1",,"07,99,1,02,1,04,1,01250,1,07,1,02,1","999,N,-0048,1","99999,9,10201,1","1,1,019,1,+999,9","02,1","SYN088AAXX  18061 01108 31689 71205 11046 21107 30201 40212 51019 70222 82472 333 21048 79999;","Q01  00002PRCP24"
"01108099999","2010-12-18T12:00:00","4","65.7","11.85","9.1","VEGA VALLSJO, NO","FM-12","99999","V020","130,1,N,0050,1","03000,1,9,N","070000,1,N,1","-0052,1","-0110,1","10232,1",,,"2,1,06,1","2,1,06,1",,"07,99,1,02,1,04,1,01250,1,04,1,02,1",,"99999,9,10221,1","0,1,002,1,+999,9","02,1","SYN072AAXX  18121 01108 41688 71305 11052 21110 30221 40232 50002 70222 82442;",
"01108099999","2010-12-18T18:00:00","4","65.7","11.85","9.1","VEGA VALLSJO, NO","FM-12","99999","V020","130,1,N,0060,1","22000,1,9,N","070000,1,N,1","-0061,1","-0123,1","10223,1",,,"2,1,06,1","2,1,06,1",,"04,99,1,01,1,04,1,01250,1,04,1,01,1","999,M,-0044,1","99999,9,10212,1","8,1,006,1,+999,9","01,1","SYN082AAXX  18181 01108 31688 41306 11061 21123 30212 40223 58006 70122 81441 333 11044;",
"01108099999","2010-12-19T06:00:00","4","65.7","11.85","9.1","VEGA VALLSJO, NO","FM-12","99999","V020","100,1,N,0010,1","07500,1,9,N","060000,1,N,1","-0088,1","-0122,1","10183,1","24,0000,9,1",,"1,1,06,1","1,1,06,1",,"05,99,1,01,1,04,1,01250,1,07,1,01,1","999,N,-0089,1","99999,9,10172,1","7,1,014,1,+999,9","02,1","SYN088AAXX  19061 01108 31686 51001 11088 21122 30172 40183 57014 70211 81471 333 21089 70000;","Q01  00002PRCP24"
"01108099999","2010-12-19T12:00:00","4","65.7","11.85","9.1","VEGA VALLSJO, NO","FM-12","99999","V020","150,1,N,0030,1","22000,1,9,N","050000,1,N,1","-0077,1","-0125,1","10157,1",,,"1,1,06,1","1,1,06,1",,"04,99,1,01,1,01,1,01250,1,00,1,02,1",,"99999,9,10146,1","8,1,014,1,+999,9","02,1","SYN072AAXX  19121 01108 41684 41503 11077 21125 30146 40157 58014 70211 81102;",
"01108099999","2010-12-19T18:00:00","4","65.7","11.85","9.1","VEGA VALLSJO, NO","FM-12","99999","V020","100,1,N,0040,1","07500,1,9,N","055000,1,N,1","-0077,1","-0124,1","10127,1",,,"2,1,06,1","1,1,06,1",,"06,99,1,01,1,01,1,01250,1,00,1,02,1","999,M,-0056,1","99999,9,10116,1","6,1,014,1,+999,9","03,1","SYN082AAXX  19181 01108 31685 61004 11077 21124 30116 40127 56014 70321 81102 333 11056;",
"01108099999","2010-12-20T06:00:00","4","65.7","11.85","9.1","VEGA VALLSJO, NO","FM-12","99999","V020","090,1,N,0030,1","22000,1,9,N","070000,1,N,1","-0090,1","-0119,1","10094,1","24,0000,9,1",,"0,1,06,1","0,1,06,1",,"02,99,1,00,1,00,1,99999,9,00,1,01,1","999,N,-0110,1","99999,9,10082,1","7,1,014,1,+999,9","02,1","SYN088AAXX  20061 01108 31988 20903 11090 21119 30082 40094 57014 70200 80001 333 21110 70000;","Q01  00002PRCP24"
"01108099999","2010-12-20T12:00:00","4","65.7","11.85","9.1","VEGA VALLSJO, NO","FM-12","99999","V020","080,1,N,0050,1","07500,1,9,N","040000,1,N,1","-0080,1","-0112,1","10071,1",,,"2,1,06,1","0,1,06,1",,"06,99,1,02,1,07,1,00800,1,02,1,06,1",,"99999,9,10060,1","8,1,012,1,+999,9","15,1","SYN072AAXX  20121 01108 41582 60805 11080 21112 30060 40071 58012 71520 82726;",
"01108099999","2010-12-20T18:00:00","4","65.7","11.85","9.1","VEGA VALLSJO, NO","FM-12","99999","V020","150,1,N,0030,1","03000,1,9,N","030000,1,N,1","-0082,1","-0112,1","10059,1",,,"2,1,06,1","2,1,06,1",,"07,99,1,04,1,09,1,00800,1,07,1,99,9","999,M,-0079,1","99999,9,10047,1","7,1,006,1,+999,9","16,1","SYN082AAXX  20181 01108 31580 71503 11082 21112 30047 40059 57006 71622 8497/ 333 11079;",
"01108099999","2010-12-21T06:00:00","4","65.7","11.85","9.1","VEGA VALLSJO, NO","FM-12","99999","V020","150,1,N,0040,1","03000,1,9,N","030000,1,N,1","-0100,1","-0124,1","10048,1","12,0005,9,1","24,0005,9,1","8,1,06,1","2,1,06,1",,"07,99,1,02,1,09,1,00800,1,06,1,01,1","999,N,-0110,1","99999,9,10037,1","5,1,000,1,+999,9","15,1","SYN094AAXX  21061 01108 11580 71504 11100 21124 30037 40048 55000 69952 71582 82961 333 21110 70005;",
"01108099999","2010-12-21T12:00:00","4","65.7","11.85","9.1","VEGA VALLSJO, NO","FM-12","99999","V020","130,1,N,0030,1","07500,1,9,N","050000,1,N,1","-0111,1","-0149,1","10068,1",,,"2,1,06,1","2,1,06,1",,"07,99,1,01,1,01,1,00800,1,00,1,02,1",,"99999,9,10057,1","1,1,008,1,+999,9","02,1","SYN072AAXX  21121 01108 41584 71303 11111 21149 30057 40068 51008 70222 81102;",
"01108099999","2010-12-21T18:00:00","4","65.7","11.85","9.1","VEGA VALLSJO, NO","FM-12","99999","V020","140,1,N,0020,1","03000,1,9,N","030000,1,N,1","-0086,1","-0118,1","10078,1",,,"2,1,06,1","2,1,06,1",,"08,99,1,01,1,07,1,00800,1,02,1,99,9","999,M,-0086,1","99999,9,10067,1","2,1,004,1,+999,9","15,1","SYN082AAXX  21181 01108 31580 81402 11086 21118 30067 40078 52004 71522 8172/ 333 11086;",
"01108099999","2010-12-22T06:00:00","4","65.7","11.85","9.1","VEGA VALLSJO, NO","FM-12","99999","V020","110,1,N,0030,1","22000,1,9,N","070000,1,N,1","-0096,1","-0136,1","10141,1","24,0000,9,1",,"1,1,06,1","1,1,06,1",,"04,99,1,02,1,01,1,01250,1,00,1,01,1","999,N,-0106,1","99999,9,10130,1","2,1,014,1,+999,9","02,1","SYN088AAXX  22061 01108 31688 41103 11096 21136 30130 40141 52014 70211 82101 333 21106 70000;","Q01  00002PRCP24"
"01108099999","2010-12-22T12:00:00","4","65.7","11.85","9.1","VEGA VALLSJO, NO","FM-12","99999","V020","140,1,N,0040,1","03000,1,9,N","060000,1,N,1","-0111,1","-0138,1","10179,1",,,"1,1,06,1","1,1,06,1",,"06,99,1,01,1,01,1,01250,1,04,1,01,1",,"99999,9,10167,1","2,1,017,1,+999,9","03,1","SYN072AAXX  22121 01108 41686 61404 11111 21138 30167 40179 52017 70311 81141;",
"01108099999","2010-12-22T18:00:00","4","65.7","11.85","9.1","VEGA VALLSJO, NO","FM-12","99999","V020","150,1,N,0030,1","22000,1,9,N","055000,1,N,1","-0101,1","-0136,1","10204,1",,,"1,1,06,1","1,1,06,1",,"03,99,1,01,1,01,1,01250,1,00,1,01,1","999,M,-0090,1","99999,9,10192,1","2,1,012,1,+999,9","01,1","SYN082AAXX  22181 01108 31685 31503 11101 21136 30192 40204 52012 70111 81101 333 11090;",
"01108099999","2010-12-23T06:00:00","4","65.7","11.85","9.1","VEGA VALLSJO, NO","FM-12","99999","V020","160,1,N,0010,1","22000,1,9,N","070000,1,N,1","-0100,1","-0135,1","10230,1","24,0000,9,1",,"0,1,06,1","0,1,06,1",,"02,99,1,01,1,01,1,01250,1,00,1,01,1","999,N,-0138,1","99999,9,10218,1","2,1,004,1,+999,9","02,1","SYN088AAXX  23061 01108 31688 21601 11100 21135 30218 40230 52004 70200 81101 333 21138 70000;","Q01  00002PRCP24"
"01108099999","2010-12-23T12:00:00","4","65.7","11.85","9.1","VEGA VALLSJO, NO","FM-12","99999","V020","130,1,N,0020,1","22000,1,9,N","075000,1,N,1","-0116,1","-0142,1","10244,1",,,"0,1,06,1","0,1,06,1",,"01,99,1,01,1,01,1,00800,1,00,1,00,1",,"99999,9,10232,1","1,1,003,1,+999,9","02,1","SYN072AAXX  23121 01108 41589 11302 11116 21142 30232 40244 51003 70200 81100;",
"01108099999","2010-12-23T18:00:00","4","65.7","11.85","9.1","VEGA VALLSJO, NO","FM-12","99999","V020","150,1,N,0030,1","22000,1,9,N","075000,1,N,1","-0095,1","-0135,1","10244,1",,,"0,1,06,1","0,1,06,1",,"01,99,1,01,1,01,1,00800,1,00,1,00,1","999,M,-0086,1","99999,9,10232,1","2,1,001,1,+999,9","02,1","SYN082AAXX  23181 01108 31589 11503 11095 21135 30232 40244 52001 70200 81100 333 11086;",
"01108099999","2010-12-24T06:00:00","4","65.7","11.85","9.1","VEGA VALLSJO, NO","FM-12","99999","V020","150,1,N,0020,1","22000,1,9,N","075000,1,N,1","-0103,1","-0121,1","10249,1","24,0000,9,1",,"0,1,06,1","0,1,06,1","00,1,+99999,9,99,9","00,99,1,00,1,00,1,99999,9,00,1,00,1","999,N,-0125,1","99999,9,10237,1","4,1,000,1,+999,9","02,1","SYN082AAXX  24061 01108 31989 01502 11103 21121 30237 40249 54000 70200 333 21125 70000;","Q01  00002PRCP24"
"01108099999","2010-12-24T12:00:00","4","65.7","11.85","9.1","VEGA VALLSJO, NO","FM-12","99999","V020","130,1,N,0020,1","22000,1,9,N","075000,1,N,1","-0093,1","-0107,1","10257,1",,,"0,1,06,1","0,1,06,1",,"01,99,1,01,1,01,1,01250,1,00,1,00,1",,"99999,9,10245,1","1,1,001,1,+999,9","02,1","SYN072AAXX  24121 01108 41689 11302 11093 21107 30245 40257 51001 70200 81100;",
"01108099999","2010-12-24T18:00:00","4","65.7","11.85","9.1","VEGA VALLSJO, NO","FM-12","99999","V020","120,1,N,0030,1","00750,1,9,N","070000,1,N,1","-0056,1","-0071,1","10253,1",,,"2,1,06,1","0,1,06,1",,"07,99,1,07,1,02,1,00800,1,99,9,99,9","999,M,-0056,1","99999,9,10242,1","2,1,001,1,+999,9","03,1","SYN082AAXX  24181 01108 31588 71203 11056 21071 30242 40253 52001 70320 872// 333 11056;",
"01108099999","2010-12-25T06:00:00","4","65.7","11.85","9.1","VEGA VALLSJO, NO","FM-12","99999","V020","140,1,N,0020,1","03000,1,C,N","070000,1,N,1","-0070,1","-0071,1","10259,1","24,0000,9,1",,"1,1,06,1","1,1,06,1",,"06,99,1,01,1,01,1,01250,1,07,1,99,9","999,N,-0113,1","99999,9,10247,1","2,1,002,1,+999,9","03,1","SYN088AAXX  25061 01108 31688 61402 11070 21071 30247 40259 52002 70311 8117/ 333 21113 70000;","Q01  00002PRCP24"
"01108099999","2010-12-25T12:00:00","4","65.7","11.85","9.1","VEGA VALLSJO, NO","FM-12","99999","V020","120,1,N,0020,1","03000,1,9,N","075000,1,N,1","-0050,1","-0066,1","10267,1",,,"2,1,06,1","2,1,06,1",,"07,99,1,01,1,01,1,01250,1,07,1,99,9",,"99999,9,10255,1","1,1,002,1,+999,9","02,1","SYN072AAXX  25121 01108 41689 71202 11050 21066 30255 40267 51002 70222 8117/;",
"01108099999","2010-12-25T18:00:00","4","65.7","11.85","9.1","VEGA VALLSJO, NO","FM-12","99999","V020","110,1,N,0030,1","03000,1,9,N","020000,1,N,1","-0031,1","-0046,1","10260,1","12,9999,9,9",,"7,1,06,1","2,1,06,1",,"08,99,1,01,1,07,1,00800,1,02,1,07,1","999,M,-0031,1","99999,9,10249,1","7,1,002,1,+999,9","70,1","SYN088AAXX  25181 01108 11570 81103 11031 21046 30249 40260 57002 69902 77072 81727 333 11031;","Q01  00002PRCP12Q02  00002PRCP12"
"01108099999","2010-12-26T06:00:00","4","65.7","11.85","9.1","VEGA VALLSJO, NO","FM-12","99999","V020","120,1,N,0030,1","03000,1,9,N","050000,1,N,1","-0012,1","-0033,1","10253,1","12,0000,2,1","24,0000,2,1","2,1,06,1","2,1,06,1",,"08,99,1,01,1,07,1,01250,1,02,1,07,1","999,N,-0032,1","99999,9,10242,1","6,1,001,1,+999,9","15,1","SYN094AAXX  26061 01108 11684 81203 11012 21033 30242 40253 56001 69902 71522 81727 333 21032 79999;",
"01108099999","2010-12-26T12:00:00","4","65.7","11.85","9.1","VEGA VALLSJO, NO","FM-12","99999","V020","110,1,N,0020,1","03000,1,9,N","070000,1,N,1","-0025,1","-0047,1","10255,1",,,"2,1,06,1","2,1,06,1",,"07,99,1,01,1,02,1,00800,1,02,1,08,1",,"99999,9,10244,1","8,1,001,1,+999,9","15,1","SYN072AAXX  26121 01108 41588 71102 11025 21047 30244 40255 58001 71522 81228;",
"01108099999","2010-12-26T18:00:00","4","65.7","11.85","9.1","VEGA VALLSJO, NO","FM-12","99999","V020","110,1,N,0030,1","03000,1,9,N","075000,1,N,1","-0015,1","-0054,1","10248,1",,,"2,1,06,1","2,1,06,1",,"06,99,1,01,1,01,1,00800,1,07,1,08,1","999,M,-0004,1","99999,9,10237,1","8,1,003,1,+999,9","01,1","SYN082AAXX  26181 01108 31589 61103 11015 21054 30237 40248 58003 70122 81178 333 11004;",
"01108099999","2010-12-27T06:00:00","4","65.7","11.85","9.1","VEGA VALLSJO, NO","FM-12","99999","V020","070,1,N,0060,1","22000,1,9,N","075000,1,N,1","-0011,1","-0090,1","10233,1","24,0000,9,1",,"2,1,06,1","2,1,06,1",,"07,99,1,01,1,01,1,00800,1,00,1,01,1","999,N,-0043,1","99999,9,10222,1","7,1,010,1,+999,9","02,1","SYN088AAXX  27061 01108 31589 70706 11011 21090 30222 40233 57010 70222 81101 333 21043 70000;","Q01  00002PRCP24"
"01108099999","2010-12-27T12:00:00","4","65.7","11.85","9.1","VEGA VALLSJO, NO","FM-12","99999","V020","120,1,N,0020,1","22000,1,9,N","075000,1,N,1","-0041,1","-0106,1","10243,1",,,"2,1,06,1","2,1,06,1",,"06,99,1,01,1,04,1,01250,1,00,1,01,1",,"99999,9,10232,1","2,1,006,1,+999,9","02,1","SYN072AAXX  27121 01108 41689 61202 11041 21106 30232 40243 52006 70222 81401;",
"01108099999","2010-12-27T18:00:00","4","65.7","11.85","9.1","VEGA VALLSJO, NO","FM-12","99999","V020","140,1,N,0040,1","22000,1,9,N","075000,1,N,1","-0080,1","-0125,1","10257,1",,,"2,1,06,1","2,1,06,1",,"04,99,1,00,1,00,1,99999,9,00,1,01,1","999,M,-0011,1","99999,9,10245,1","2,1,008,1,+999,9","01,1","SYN082AAXX  27181 01108 31989 41404 11080 21125 30245 40257 52008 70122 80001 333 11011;",
"01108099999","2010-12-28T06:00:00","4","65.7","11.85","9.1","VEGA VALLSJO, NO","FM-12","99999","V020","120,1,N,0070,1","03000,1,9,N","075000,1,N,1","-0038,1","-0134,1","10254,1","24,0000,9,1",,"1,1,06,1","1,1,06,1",,"06,99,1,02,1,01,1,01250,1,07,1,01,1","999,N,-0086,1","99999,9,10242,1","7,1,002,1,+999,9","03,1","SYN088AAXX  28061 01108 31689 61207 11038 21134 30242 40254 57002 70311 82171 333 21086 70000;","Q01  00002PRCP24"
"01108099999","2010-12-28T12:00:00","4","65.7","11.85","9.1","VEGA VALLSJO, NO","FM-12","99999","V020","130,1,N,0100,1","01200,1,9,N","075000,1,N,1","-0019,1","-0106,1","10258,1",,,"2,1,06,1","2,1,06,1",,"07,99,1,07,1,08,1,00800,1,99,9,99,9",,"99999,9,10247,1","5,1,004,1,+999,9","03,1","SYN072AAXX  28121 01108 41589 71310 11019 21106 30247 40258 55004 70322 878//;",
"01108099999","2010-12-28T18:00:00","4","65.7","11.85","9.1","VEGA VALLSJO, NO","FM-12","99999","V020","160,1,N,0080,1","01200,1,9,N","070000,1,N,1","-0019,1","-0089,1","10255,1",,,"2,1,06,1","2,1,06,1",,"08,99,1,08,1,08,1,00800,1,99,9,99,9","999,M,-0018,1","99999,9,10244,1","7,1,002,1,+999,9","03,1","SYN082AAXX  28181 01108 31588 81608 11019 21089 30244 40255 57002 70322 888// 333 11018;",
"01108099999","2010-12-29T06:00:00","4","65.7","11.85","9.1","VEGA VALLSJO, NO","FM-12","99999","V020","150,1,N,0070,1","00420,1,9,N","010000,1,N,1","-0016,1","-0043,1","10231,1","12,9999,9,9","24,9999,9,9","8,1,06,1","2,1,06,1",,"08,99,1,08,1,09,1,00450,1,99,9,99,9","999,N,-0038,1","99999,9,10220,1","7,1,012,1,+999,9","85,1","SYN094AAXX  29061 01108 11460 81507 11016 21043 30220 40231 57012 69912 78582 889// 333 21038 70001;","Q01  00002PRCP24Q02  00002PRCP12Q03  00002PRCP12Q04  00002PRCP24"
"01108099999","2010-12-29T12:00:00","4","65.7","11.85","9.1","VEGA VALLSJO, NO","FM-12","99999","V020","140,1,N,0070,1","00420,1,9,N","012000,1,N,1","-0018,1","-0044,1","10213,1",,,"8,1,06,1","2,1,06,1",,"07,99,1,06,1,09,1,00450,1,06,1,99,9",,"99999,9,10202,1","7,1,013,1,+999,9","85,1","SYN072AAXX  29121 01108 41462 71407 11018 21044 30202 40213 57013 78582 8696/;",
"01108099999","2010-12-29T18:00:00","4","65.7","11.85","9.1","VEGA VALLSJO, NO","FM-12","99999","V020","140,1,N,0110,1","03000,1,9,N","050000,1,N,1","-0032,1","-0075,1","10158,1","12,0030,9,1",,"8,1,06,1","2,1,06,1",,"08,99,1,03,1,04,1,00800,1,02,1,07,1","999,M,-0015,1","99999,9,10147,1","8,1,032,1,+999,9","36,1","SYN088AAXX  29181 01108 11584 81411 11032 21075 30147 40158 58032 60032 73682 83427 333 11015;",
"01108099999","2010-12-30T06:00:00","4","65.7","11.85","9.1","VEGA VALLSJO, NO","FM-12","99999","V020","230,1,N,0050,1","00420,1,9,N","020000,1,N,1","+0030,1","+0004,1","10083,1","12,0071,9,1","24,0094,9,1","8,1,06,1","2,1,06,1",,"07,99,1,07,1,09,1,00450,1,99,9,99,9","999,N,-0035,1","99999,9,10072,1","7,1,011,1,+999,9","16,1","SYN094AAXX  30061 01108 11470 72305 10030 20004 30072 40083 57011 60072 71682 879// 333 21035 70095;",
"01108099999","2010-12-30T12:00:00","4","65.7","11.85","9.1","VEGA VALLSJO, NO","FM-12","99999","V020","290,1,N,0090,1","22000,1,9,N","030000,1,N,1","+0018,1","-0040,1","10060,1",,,"8,1,06,1","1,1,06,1",,"03,99,1,03,1,09,1,00250,1,00,1,00,1",,"99999,9,10048,1","7,1,010,1,+999,9","15,1","SYN072AAXX  30121 01108 41380 32909 10018 21040 30048 40060 57010 71581 83900;",
"01108099999","2010-12-30T18:00:00","4","65.7","11.85","9.1","VEGA VALLSJO, NO","FM-12","99999","V020","300,1,N,0090,1","00420,1,9,N","030000,1,N,1","+0026,1","-0037,1","10065,1","12,0020,9,1",,"8,1,06,1","2,1,06,1",,"07,99,1,07,1,09,1,00450,1,99,9,99,9","999,M,+0031,1","99999,9,10053,1","3,1,004,1,+999,9","15,1","SYN088AAXX  30181 01108 11480 73009 10026 21037 30053 40065 53004 60022 71582 879// 333 10031;",
"01108099999","2010-12-31T06:00:00","4","65.7","11.85","9.1","VEGA VALLSJO, NO","FM-12","99999","V020","260,1,N,0080,1","03000,1,9,N","050000,1,N,1","+0021,1","-0006,1","10030,1","12,0005,9,1","24,0023,9,1","8,1,06,1","2,1,06,1",,"08,99,1,04,1,02,1,00450,1,06,1,01,1","999,N,+0006,1","99999,9,10018,1","7,1,016,1,+999,9","02,1","SYN094AAXX  31061 01108 11484 82608 10021 21006 30018 40030 57016 69942 70282 84261 333 20006 70023;",
"01108099999","2010-12-31T12:00:00","4","65.7","11.85","9.1","VEGA VALLSJO, NO","FM-12","99999","V020","110,1,N,0020,1","00060,1,9,N","004000,1,N,1","+0001,1","-0003,1","09954,1",,,"8,1,06,1","2,1,06,1",,"08,99,1,08,1,09,1,00075,1,99,9,99,9",,"99999,9,09942,1","7,1,052,2,+999,9","85,1","SYN072AAXX  31121 01108 41140 81102 10001 21003 39942 49954 57052 78582 889//;","Q01+000522APC3  "
"01108099999","2010-12-31T18:00:00","4","65.7","11.85","9.1","VEGA VALLSJO, NO","FM-12","99999","V020","040,1,N,0070,1","03000,1,9,N","050000,1,N,1","+0011,1","-0023,1","09905,1","12,0010,9,1",,"7,1,06,1","2,1,06,1",,"08,99,1,01,1,07,1,00450,1,02,1,99,9","999,M,+0021,1","99999,9,09893,1","5,1,004,1,+999,9","15,1","SYN088AAXX  31181 01108 11484 80407 10011 21023 39893 49905 55004 60012 71572 8172/ 333 10021;",
