"STATION","DATE","SOURCE","LATITUDE","LONGITUDE","ELEVATION","NAME","REPORT_TYPE","CALL_SIGN","QUALITY_CONTROL","WND","CIG","VIS","TMP","DEW","SLP","AA1","AA2","AJ1","AY1","AY2","GA1","GF1","IA1","KA1","MA1","MD1","MW1","REM","EQD"
"01278099999","2010-01-01T06:00:00","4","63.7833333","11.6833333","83.0","VERDAL REPPE, NO","FM-12","99999","V020","120,1,N,0030,1","22000,1,9,N","055000,1,N,1","-0088,1","-0138,1","10132,1","12,0000,9,1","24,0000,9,1","0019,9,1,999999,9,9","1,1,06,1","1,1,06,1",,"01,99,1,01,1,00,1,99999,9,04,1,00,1","24,9","999,N,-0094,1","99999,9,10024,1","2,1,020,1,+999,9","02,1","SYN100AAXX  01061 01278 11985 11203 11088 21138 30024 40132 52020 60002 70211 81040 333 21094 48019 70000;","Q01  00002PRCP24Q02  00002PRCP12"
"01278099999","2010-01-01T09:00:00","4","63.7833333","11.6833333","83.0","VERDAL REPPE, NO","FM-12","99999","V020","300,1,N,0010,1","22000,1,9,N","055000,1,N,1","-0101,1","-0142,1","10152,1",,,,"0,1,03,1","0,1,03,1",,"02,99,1,01,1,04,1,01750,1,04,1,00,1",,,"99999,9,10043,1","2,1,019,1,+999,9","02,1","SYN082AAXX  01091 01278 41785 23001 11101 21142 30043 40152 52019 70200 81440 333 4////;",
"01278099999","2010-01-01T12:00:00","4","63.7833333","11.6833333","83.0","VERDAL REPPE, NO","FM-12","99999","V020","120,1,N,0030,1","22000,1,9,N","055000,1,N,1","-0091,1","-0141,1","10166,1",,,,"0,1,06,1","0,1,06,1",,"01,99,1,01,1,01,1,01750,1,04,1,00,1",,,"99999,9,10057,1","2,1,014,1,+999,9","02,1","SYN088AAXX  01121 01278 11785 11203 11091 21141 30057 40166 52014 6//// 70200 81140 333 4////;",
"01278099999","2010-01-01T18:00:00","4","63.7833333","11.6833333","83.0","VERDAL REPPE, NO","FM-12","99999","V020","100,1,N,0010,1","22000,1,9,N","055000,1,N,1","-0088,1","-0141,1","10213,1","12,0000,9,1",,,"0,1,06,1","0,1,06,1",,"01,99,1,01,1,01,1,01750,1,00,1,00,1",,"120,M,-0083,1","99999,9,10104,1","2,1,020,1,+999,9","02,1","SYN094AAXX  01181 01278 11785 11001 11088 21141 30104 40213 52020 60002 70200 81100 333 11083 4////;","Q01  00002PRCP12"
"01278099999","2010-01-02T06:00:00","4","63.7833333","11.6833333","83.0","VERDAL REPPE, NO","FM-12","99999","V020","090,1,N,0010,1","22000,1,9,N","055000,1,N,1","-0153,1","-0178,1","10253,1","12,0000,9,1","24,0000,9,1","0018,9,1,999999,9,9","0,1,06,1","0,1,06,1","00,1,+99999,9,99,9","00,99,1,00,1,00,1,99999,9,00,1,00,1","24,9","999,N,-0155,1","99999,9,10141,1","2,1,003,1,+999,9","02,1","SYN094AAXX  02061 01278 11985 00901 11153 21178 30141 40253 52003 60002 70200 333 21155 48018 70000;","Q01  00002PRCP24Q02  00002PRCP12"
"01278099999","2010-01-02T09:00:00","4","63.7833333","11.6833333","83.0","VERDAL REPPE, NO","FM-12","99999","V020","100,1,N,0050,1","22000,1,9,N","055000,1,N,1","-0163,1","-0188,1","10258,1",,,,"0,1,03,1","0,1,03,1",,"01,99,1,00,1,00,1,99999,9,00,1,01,1",,,"99999,9,10146,1","1,1,004,1,+999,9","02,1","SYN082AAXX  02091 01278 41985 11005 11163 21188 30146 40258 51004 70200 80001 333 4////;",
"01278099999","2010-01-02T12:00:00","4","63.7833333","11.6833333","83.0","VERDAL REPPE, NO","FM-12","99999","V020","130,1,N,0050,1","22000,1,9,N","055000,1,N,1","-0164,1","-0192,1","10263,1",,,,"0,1,06,1","0,1,06,1",,"04,99,1,00,1,00,1,99999,9,00,1,01,1",,,"99999,9,10151,1","2,1,004,1,+999,9","02,1","SYN088AAXX  02121 01278 11985 41305 11164 21192 30151 40263 52004 6//// 70200 80001 333 4////;",
"01278099999","2010-01-02T18:00:00","4","63.7833333","11.6833333","83.0","VERDAL REPPE, NO","FM-12","99999","V020","120,1,N,0050,1","00240,1,9,N","010000,1,N,1","-0135,1","-0168,1","10243,1","12,9999,9,9",,,"7,1,06,1","1,1,06,1","09,1,+99999,9,99,9","09,99,1,09,1,99,9,99999,9,99,9,99,9",,"120,M,-0133,1","99999,9,10132,1","7,1,010,1,+999,9","70,1","SYN088AAXX  02181 01278 11/60 91205 11135 21168 30132 40243 57010 69902 77071 333 11133 4////;","Q01  00002PRCP12Q02  00002PRCP12"
"01278099999","2010-01-03T06:00:00","4","63.7833333","11.6833333","83.0","VERDAL REPPE, NO","FM-12","99999","V020","150,1,N,0010,1","00240,1,9,N","003000,1,N,1","-0064,1","-0074,1","10131,1","12,0030,9,1","24,0030,9,1","0021,9,1,999999,9,9","7,1,06,1","2,1,06,1","09,1,+99999,9,99,9","09,99,1,09,1,99,9,99999,9,99,9,99,9","24,9","999,N,-0135,1","99999,9,10024,1","7,1,030,1,+999,9","71,1","SYN094AAXX  03061 01278 11/30 91501 11064 21074 30024 40131 57030 60032 77172 333 21135 48021 70030;",
"01278099999","2010-01-03T09:00:00","4","63.7833333","11.6833333","83.0","VERDAL REPPE, NO","FM-12","99999","V020","280,1,N,0030,1","00240,1,9,N","005000,1,N,1","-0033,1","-0040,1","10122,1",,,,"8,1,03,1","7,1,03,1","09,1,+99999,9,99,9","09,99,1,09,1,99,9,99999,9,99,9,99,9",,,"99999,9,10017,1","7,1,007,1,+999,9","85,1","SYN076AAXX  03091 01278 41/50 92803 11033 21040 30017 40122 57007 78587 333 4////;",
"01278099999","2010-01-03T18:00:00","4","63.7833333","11.6833333","83.0","VERDAL REPPE, NO","FM-12","99999","V020","290,1,N,0050,1","00420,1,9,N","030000,1,N,1","-0020,1","-0048,1","10091,1","12,0010,9,1",,,"8,1,06,1","2,1,06,1",,"07,99,1,07,1,09,1,00450,1,99,9,99,9",,"120,M,-0009,1","99999,9,09986,1","7,1,015,1,+999,9","02,1","SYN094AAXX  03181 01278 11480 72905 11020 21048 39986 40091 57015 60012 70282 879// 333 11009 4////;",
"01278099999","2010-01-04T06:00:00","4","63.7833333","11.6833333","83.0","VERDAL REPPE, NO","FM-12","99999","V020","290,1,N,0050,1","00420,1,9,N","055000,1,N,1","-0022,1","-0033,1","10005,1","12,0020,9,1","24,0033,9,1","0028,9,1,999999,9,9","8,1,06,1","2,1,06,1",,"05,99,1,05,1,09,1,00450,1,99,9,99,9","24,9","999,N,-0029,1","99999,9,09901,1","2,1,010,1,+999,9","02,1","SYN100AAXX  04061 01278 11485 52905 11022 21033 39901 40005 52010 60022 70282 859// 333 21029 48028 70033;",
"01278099999","2010-01-04T09:00:00","4","63.7833333","11.6833333","83.0","VERDAL REPPE, NO","FM-12","99999","V020","999,9,C,0000,1","22000,1,9,N","055000,1,N,1","-0054,1","-0065,1","10025,1",,,,"1,1,03,1","1,1,03,1",,"02,99,1,01,1,08,1,00450,1,00,1,01,1",,,"99999,9,09920,1","2,1,019,1,+999,9","01,1","SYN082AAXX  04091 01278 41485 20000 11054 21065 39920 40025 52019 70111 81801 333 4////;",
"01278099999","2010-01-04T12:00:00","4","63.7833333","11.6833333","83.0","VERDAL REPPE, NO","FM-12","99999","V020","100,1,N,0030,1","22000,1,9,N","055000,1,N,1","-0094,1","-0112,1","10045,1",,,,"0,1,06,1","0,1,06,1",,"01,99,1,00,1,00,1,99999,9,00,1,08,1",,,"99999,9,09938,1","2,1,019,1,+999,9","02,1","SYN088AAXX  04121 01278 11985 11003 11094 21112 39938 40045 52019 6//// 70200 80008 333 4////;",
"01278099999","2010-01-04T18:00:00","4","63.7833333","11.6833333","83.0","VERDAL REPPE, NO","FM-12","99999","V020","110,1,N,0050,1","22000,1,9,N","055000,1,N,1","-0150,1","-0171,1","10073,1","12,0000,9,1",,,"0,1,06,1","0,1,06,1",,"01,99,1,00,1,00,1,99999,9,00,1,02,1",,"120,M,-0020,1","99999,9,09963,1","1,1,005,1,+999,9","02,1","SYN094AAXX  04181 01278 11985 11105 11150 21171 39963 40073 51005 60002 70200 80002 333 11020 4////;","Q01  00002PRCP12"
"01278099999","2010-01-05T06:00:00","4","63.7833333","11.6833333","83.0","VERDAL REPPE, NO","FM-12","99999","V020","140,1,N,0030,1","22000,1,9,N","055000,1,N,1","-0178,1","-0205,1","10142,1","12,0000,9,1","24,0000,9,1","0027,9,1,999999,9,9","1,1,06,1","1,1,06,1","00,1,+99999,9,99,9","00,99,1,00,1,00,1,99999,9,00,1,00,1","24,9","999,N,-0179,1","99999,9,10030,1","2,1,017,1,+999,9","02,1","SYN094AAXX  05061 01278 11985 01403 11178 21205 30030 40142 52017 60002 70211 333 21179 48027 70000;","Q01  00002PRCP24Q02  00002PRCP12"
"01278099999","2010-01-05T09:00:00","4","63.7833333","11.6833333","83.0","VERDAL REPPE, NO","FM-12","99999","V020","130,1,N,0050,1","22000,1,9,N","055000,1,N,1","-0214,1","-0241,1","10162,1",,,,"0,1,03,1","0,1,03,1","00,1,+99999,9,99,9","00,99,1,00,1,00,1,99999,9,00,1,00,1",,,"99999,9,10048,1","2,1,018,1,+999,9","02,1","SYN076AAXX  05091 01278 41985 01305 11214 21241 30048 40162 52018 70200 333 4////;",
"01278099999","2010-01-05T12:00:00","4","63.7833333","11.6833333","83.0","VERDAL REPPE, NO","FM-12","99999","V020","130,1,N,0050,1","22000,1,9,N","055000,1,N,1","-0223,1","-0252,1","10162,1",,,,,,"00,1,+99999,9,99,9","00,99,1,00,1,00,1,99999,9,00,1,00,1",,,"99999,9,10048,1","4,1,000,1,+999,9",,"SYN082AAXX  05121 01278 11985 01305 11223 21252 30048 40162 54000 6//// 7//00 333 4////;",
"01278099999","2010-01-05T18:00:00","4","63.7833333","11.6833333","83.0","VERDAL REPPE, NO","FM-12","99999","V020","100,1,N,0050,1","22000,1,9,N","055000,1,N,1","-0237,1","-0266,1","10164,1","12,0000,9,1",,,"0,1,06,1","0,1,06,1","00,1,+99999,9,99,9","00,99,1,00,1,00,1,99999,9,00,1,00,1",,"120,M,-0172,1","99999,9,10050,1","7,1,002,1,+999,9","40,1","SYN088AAXX  05181 01278 11985 01005 11237 21266 30050 40164 57002 60002 74000 333 11172 4////;","Q01  00002PRCP12"
"01278099999","2010-01-06T06:00:00","4","63.7833333","11.6833333","83.0","VERDAL REPPE, NO","FM-12","99999","V020","120,1,N,0050,1","22000,1,9,N","055000,1,N,1","-0221,1","-0253,1","10163,1","12,0000,9,1","24,0000,9,1","0026,9,1,999999,9,9","0,1,06,1","0,1,06,1","00,1,+99999,9,99,9","00,99,1,00,1,00,1,99999,9,00,1,00,1","24,9","999,N,-0244,1","99999,9,10049,1","7,1,001,1,+999,9","02,1","SYN094AAXX  06061 01278 11985 01205 11221 21253 30049 40163 57001 60002 70200 333 21244 48026 70000;","Q01  00002PRCP24Q02  00002PRCP12"
"01278099999","2010-01-06T09:00:00","4","63.7833333","11.6833333","83.0","VERDAL REPPE, NO","FM-12","99999","V020","130,1,N,0050,1","22000,1,9,N","055000,1,N,1","-0222,1","-0254,1","10170,1",,,,"0,1,03,1","0,1,03,1","00,1,+99999,9,99,9","00,99,1,00,1,00,1,99999,9,00,1,00,1",,,"99999,9,10055,1","2,1,006,1,+999,9","02,1","SYN076AAXX  06091 01278 41985 01305 11222 21254 30055 40170 52006 70200 333 4////;",
"01278099999","2010-01-06T12:00:00","4","63.7833333","11.6833333","83.0","VERDAL REPPE, NO","FM-12","99999","V020","120,1,N,0050,1","22000,1,9,N","055000,1,N,1","-0210,1","-0242,1","10174,1",,,,"0,1,06,1","0,1,06,1","00,1,+99999,9,99,9","00,99,1,00,1,00,1,99999,9,00,1,00,1",,,"99999,9,10060,1","2,1,004,1,+999,9","02,1","SYN082AAXX  06121 01278 11985 01205 11210 21242 30060 40174 52004 6//// 70200 333 4////;",
"01278099999","2010-01-06T18:00:00","4","63.7833333","11.6833333","83.0","VERDAL REPPE, NO","FM-12","99999","V020","120,1,N,0050,1","22000,1,9,N","055000,1,N,1","-0197,1","-0228,1","10177,1","12,0000,9,1",,,"0,1,06,1","0,1,06,1","00,1,+99999,9,99,9","00,99,1,00,1,00,1,99999,9,00,1,00,1",,"120,M,-0194,1","99999,9,10064,1","2,1,002,1,+999,9","02,1","SYN088AAXX  06181 01278 11985 01205 11197 21228 30064 40177 52002 60002 70200 333 11194 4////;","Q01  00002PRCP12"
"01278099999","2010-01-07T06:00:00","4","63.7833333","11.6833333","83.0","VERDAL REPPE, NO","FM-12","99999","V020","150,1,N,0050,1","22000,1,9,N","055000,1,N,1","-0172,1","-0201,1","10198,1","12,0000,9,1","24,0000,9,1","0026,9,1,999999,9,9","0,1,06,1","0,1,06,1","00,1,+99999,9,99,9","00,99,1,00,1,00,1,99999,9,00,1,00,1","24,9","999,N,-0199,1","99999,9,10086,1","2,1,002,1,+999,9","02,1","SYN094AAXX  07061 01278 11985 01505 11172 21201 30086 40198 52002 60002 70200 333 21199 48026 70000;","Q01  00002PRCP24Q02  00002PRCP12"
"01278099999","2010-01-07T09:00:00","4","63.7833333","11.6833333","83.0","VERDAL REPPE, NO","FM-12","99999","V020","100,1,N,0030,1","22000,1,9,N","075000,1,N,1","-0174,1","-0200,1","10215,1",,,,"0,1,03,1","0,1,03,1",,"01,99,1,00,1,00,1,99999,9,00,1,01,1",,,"99999,9,10103,1","2,1,016,1,+999,9","02,1","SYN082AAXX  07091 01278 41989 11003 11174 21200 30103 40215 52016 70200 80001 333 4////;",
"01278099999","2010-01-07T12:00:00","4","63.7833333","11.6833333","83.0","VERDAL REPPE, NO","FM-12","99999","V020","100,1,N,0030,1","22000,1,9,N","075000,1,N,1","-0163,1","-0192,1","10221,1",,,,"0,1,06,1","0,1,06,1","00,1,+99999,9,99,9","00,99,1,00,1,00,1,99999,9,00,1,00,1",,,"99999,9,10109,1","2,1,006,1,+999,9","02,1","SYN082AAXX  07121 01278 11989 01003 11163 21192 30109 40221 52006 6//// 70200 333 4////;",
"01278099999","2010-01-07T18:00:00","4","63.7833333","11.6833333","83.0","VERDAL REPPE, NO","FM-12","99999","V020","120,1,N,0030,1","22000,1,9,N","055000,1,N,1","-0188,1","-0215,1","10245,1","12,0000,9,1",,,"0,1,06,1","0,1,06,1","00,1,+99999,9,99,9","00,99,1,00,1,00,1,99999,9,00,1,00,1",,"120,M,-0155,1","99999,9,10132,1","2,1,014,1,+999,9","02,1","SYN088AAXX  07181 01278 11985 01203 11188 21215 30132 40245 52014 60002 70200 333 11155 4////;","Q01  00002PRCP12"
"01278099999","2010-01-08T06:00:00","4","63.7833333","11.6833333","83.0","VERDAL REPPE, NO","FM-12","99999","V020","130,1,N,0050,1","22000,1,9,N","055000,1,N,1","-0226,1","-0255,1","10285,1","12,0000,9,1","24,0000,9,1","0026,9,1,999999,9,9","0,1,06,1","0,1,06,1",,"01,99,1,00,1,00,1,99999,9,00,1,01,1","24,9","999,N,-0236,1","99999,9,10170,1","2,1,011,1,+999,9","02,1","SYN100AAXX  08061 01278 11985 11305 11226 21255 30170 40285 52011 60002 70200 80001 333 21236 48026 70000;","Q01  00002PRCP24Q02  00002PRCP12"
"01278099999","2010-01-08T09:00:00","4","63.7833333","11.6833333","83.0","VERDAL REPPE, NO","FM-12","99999","V020","120,1,N,0050,1","22000,1,9,N","055000,1,N,1","-0214,1","-0246,1","10298,1",,,,"0,1,03,1","0,1,03,1",,"02,99,1,00,1,00,1,99999,9,00,1,01,1",,,"99999,9,10183,1","2,1,012,1,+999,9","40,1","SYN082AAXX  08091 01278 41985 21205 11214 21246 30183 40298 52012 74000 80001 333 4////;",
"01278099999","2010-01-08T12:00:00","4","63.7833333","11.6833333","83.0","VERDAL REPPE, NO","FM-12","99999","V020","130,1,N,0030,1","22000,1,9,N","030000,1,N,1","-0215,1","-0244,1","10314,1",,,,"0,1,06,1","0,1,06,1",,"04,99,1,02,1,06,1,00075,1,00,1,08,1",,,"99999,9,10199,1","2,1,016,1,+999,9","15,1","SYN088AAXX  08121 01278 11180 41303 11215 21244 30199 40314 52016 6//// 71500 82608 333 4////;",
"01278099999","2010-01-08T18:00:00","4","63.7833333","11.6833333","83.0","VERDAL REPPE, NO","FM-12","99999","V020","110,1,N,0030,1","22000,1,9,N","055000,1,N,1","-0210,1","-0237,1","10331,1","12,0000,9,1",,,"0,1,06,1","0,1,06,1",,"04,99,1,04,1,06,1,01250,1,00,1,00,1",,"120,M,-0204,1","99999,9,10215,1","2,1,009,1,+999,9","02,1","SYN094AAXX  08181 01278 11685 41103 11210 21237 30215 40331 52009 60002 70200 84600 333 11204 4////;","Q01  00002PRCP12"
"01278099999","2010-01-09T06:00:00","4","63.7833333","11.6833333","83.0","VERDAL REPPE, NO","FM-12","99999","V020","120,1,N,0010,1","22000,1,9,N","055000,1,N,1","-0164,1","-0188,1","10373,1","12,0000,9,1","24,0000,9,1","0026,9,1,999999,9,9","1,1,06,1","1,1,06,1","00,1,+99999,9,99,9","00,99,1,00,1,00,1,99999,9,00,1,00,1","24,9","999,N,-0211,1","99999,9,10260,1","1,1,010,1,+999,9","02,1","SYN094AAXX  09061 01278 11985 01201 11164 21188 30260 40373 51010 60002 70211 333 21211 48026 70000;","Q01  00002PRCP24Q02  00002PRCP12"
"01278099999","2010-01-09T09:00:00","4","63.7833333","11.6833333","83.0","VERDAL REPPE, NO","FM-12","99999","V020","110,1,N,0030,1","22000,1,9,N","055000,1,N,1","-0164,1","-0189,1","10388,1",,,,"0,1,03,1","0,1,03,1",,"02,99,1,00,1,00,1,99999,9,00,1,01,1",,,"99999,9,10274,1","2,1,014,1,+999,9","02,1","SYN082AAXX  09091 01278 41985 21103 11164 21189 30274 40388 52014 70200 80001 333 4////;",
"01278099999","2010-01-09T12:00:00","4","63.7833333","11.6833333","83.0","VERDAL REPPE, NO","FM-12","99999","V020","130,1,N,0050,1","22000,1,9,N","055000,1,N,1","-0144,1","-0175,1","10401,1",,,,"0,1,06,1","0,1,06,1",,"02,99,1,01,1,08,1,01250,1,00,1,01,1",,,"99999,9,10288,1","2,1,014,1,+999,9","02,1","SYN088AAXX  09121 01278 11685 21305 11144 21175 30288 40401 52014 6//// 70200 81801 333 4////;",
"01278099999","2010-01-09T18:00:00","4","63.7833333","11.6833333","83.0","VERDAL REPPE, NO","FM-12","99999","V020","140,1,N,0030,1","22000,1,9,N","055000,1,N,1","-0143,1","-0167,1","10403,1","12,0000,9,1",,,"0,1,06,1","0,1,06,1",,"01,99,1,00,1,00,1,99999,9,00,1,01,1",,"120,M,-0138,1","99999,9,10290,1","2,1,001,1,+999,9","02,1","SYN094AAXX  09181 01278 11985 11403 11143 21167 30290 40403 52001 60002 70200 80001 333 11138 4////;","Q01  00002PRCP12"
"01278099999","2010-01-10T06:00:00","4","63.7833333","11.6833333","83.0","VERDAL REPPE, NO","FM-12","99999","V020","120,1,N,0030,1","22000,1,9,N","055000,1,N,1","-0158,1","-0189,1","10400,1","12,0000,9,1","24,0000,9,1","0026,9,1,999999,9,9","0,1,06,1","0,1,06,1",,"01,99,1,01,1,00,1,99999,9,03,1,00,1","24,9","999,N,-0170,1","99999,9,10286,1","7,1,009,1,+999,9","02,1","SYN100AAXX  10061 01278 11985 11203 11158 21189 30286 40400 57009 60002 70200 81030 333 21170 48026 70000;","Q01  00002PRCP24Q02  00002PRCP12"
"01278099999","2010-01-10T09:00:00","4","63.7833333","11.6833333","83.0","VERDAL REPPE, NO","FM-12","99999","V020","150,1,N,0030,1","01500,1,9,N","055000,1,N,1","-0149,1","-0180,1","10400,1",,,,"1,1,03,1","1,1,03,1",,"08,99,1,06,1,05,1,01750,1,07,1,99,9",,,"99999,9,10286,1","4,1,000,1,+999,9","03,1","SYN082AAXX  10091 01278 41785 81503 11149 21180 30286 40400 54000 70311 8657/ 333 4////;",
"01278099999","2010-01-10T12:00:00","4","63.7833333","11.6833333","83.0","VERDAL REPPE, NO","FM-12","99999","V020","150,1,N,0050,1","00750,1,9,N","055000,1,N,1","-0092,1","-0130,1","10393,1",,,,"1,1,06,1","1,1,06,1",,"07,99,1,07,1,05,1,00800,1,99,9,99,9",,,"99999,9,10282,1","7,1,004,1,+999,9","02,1","SYN088AAXX  10121 01278 11585 71505 11092 21130 30282 40393 57004 6//// 70211 875// 333 4////;",
"01278099999","2010-01-10T18:00:00","4","63.7833333","11.6833333","83.0","VERDAL REPPE, NO","FM-12","99999","V020","150,1,N,0010,1","03000,1,9,N","055000,1,N,1","-0066,1","-0093,1","10380,1","12,0000,9,1",,,"8,1,06,1","2,1,06,1",,"08,99,1,01,1,09,1,01750,1,07,1,99,9",,"120,M,-0059,1","99999,9,10271,1","6,1,006,1,+999,9","02,1","SYN094AAXX  10181 01278 11785 81501 11066 21093 30271 40380 56006 69902 70282 8197/ 333 11059 4////;","Q01  00002PRCP12"
"01278099999","2010-01-11T06:00:00","4","63.7833333","11.6833333","83.0","VERDAL REPPE, NO","FM-12","99999","V020","999,9,C,0000,1","01200,1,9,N","020000,1,N,1","-0022,1","-0031,1","10353,1","12,0005,9,1","24,0005,9,1","0024,9,1,999999,9,9","8,1,06,1","7,1,06,1",,"08,99,1,08,1,00,1,01250,1,02,1,99,9","24,9","999,N,-0070,1","99999,9,10245,1","7,1,005,1,+999,9","70,1","SYN100AAXX  11061 01278 11670 80000 11022 21031 30245 40353 57005 69952 77087 8802/ 333 21070 48024 70005;",
"01278099999","2010-01-11T09:00:00","4","63.7833333","11.6833333","83.0","VERDAL REPPE, NO","FM-12","99999","V020","999,9,C,0000,1","00030,1,9,N","003000,1,N,1","-0016,1","-0023,1","10351,1",,,,"7,1,03,1","5,1,03,1",,"08,99,1,08,1,06,1,00025,1,99,9,99,9",,,"99999,9,10243,1","4,1,000,1,+999,9","50,1","SYN082AAXX  11091 01278 41030 80000 11016 21023 30243 40351 54000 75075 886// 333 4////;",
"01278099999","2010-01-11T12:00:00","4","63.7833333","11.6833333","83.0","VERDAL REPPE, NO","FM-12","99999","V020","999,9,C,0000,1","99999,9,9,N","999999,9,N,1","-0008,1","-0015,1","10343,1",,,,"5,1,06,1","2,1,06,1",,"08,99,1,08,1,06,1,99999,9,99,9,99,9",,,"99999,9,10236,1","7,1,007,1,+999,9","50,1","SYN088AAXX  11121 01278 11/// 80000 11008 21015 30236 40343 57007 6//// 75052 886// 333 4////;",
"01278099999","2010-01-11T18:00:00","4","63.7833333","11.6833333","83.0","VERDAL REPPE, NO","FM-12","99999","V020","999,9,C,0000,1","00060,1,9,N","000800,1,N,1","+0002,1","-0005,1","10324,1","12,0005,9,1",,,"5,1,06,1","4,1,06,1","09,1,+99999,9,99,9","09,99,1,09,1,99,9,99999,9,99,9,99,9",,"120,M,+0003,1","99999,9,10218,1","7,1,018,1,+999,9","56,1","SYN088AAXX  11181 01278 11/08 90000 10002 21005 30218 40324 57018 69962 75654 333 10003 4////;",
"01278099999","2010-01-12T06:00:00","4","63.7833333","11.6833333","83.0","VERDAL REPPE, NO","FM-12","99999","V020","100,1,N,0010,1","22000,1,9,N","055000,1,N,1","-0060,1","-0068,1","10297,1","12,0000,2,1","24,0005,9,1","0023,9,1,999999,9,9","5,1,06,1","4,1,06,1","00,1,+99999,9,99,9","00,99,1,00,1,00,1,99999,9,00,1,00,1","28,9","999,N,-0060,1","99999,9,10188,1","7,1,010,1,+999,9","41,1","SYN094AAXX  12061 01278 11985 01001 11060 21068 30188 40297 57010 69902 74154 333 21060 44023 70006;",
"01278099999","2010-01-12T09:00:00","4","63.7833333","11.6833333","83.0","VERDAL REPPE, NO","FM-12","99999","V020","130,1,N,0030,1","00060,1,9,N","015000,1,N,1","-0082,1","-0091,1","10292,1",,,,"0,1,03,1","0,1,03,1",,"06,99,1,06,1,06,1,00075,1,00,1,01,1",,,"99999,9,10183,1","7,1,005,1,+999,9","40,1","SYN082AAXX  12091 01278 41165 61303 11082 21091 30183 40292 57005 74000 86601 333 4////;",
"01278099999","2010-01-12T12:00:00","4","63.7833333","11.6833333","83.0","VERDAL REPPE, NO","FM-12","99999","V020","100,1,N,0010,1","22000,1,9,N","055000,1,N,1","-0077,1","-0088,1","10293,1",,,,,,,"02,99,1,00,1,00,1,99999,9,00,1,01,1",,,"99999,9,10184,1","4,1,000,1,+999,9",,"SYN088AAXX  12121 01278 11985 21001 11077 21088 30184 40293 54000 6//// 7//11 80001 333 4////;",
"01278099999","2010-01-12T18:00:00","4","63.7833333","11.6833333","83.0","VERDAL REPPE, NO","FM-12","99999","V020","100,1,N,0030,1","22000,1,9,N","055000,1,N,1","-0086,1","-0098,1","10262,1","12,0000,9,1",,,"0,1,06,1","0,1,06,1","00,1,+99999,9,99,9","00,99,1,00,1,00,1,99999,9,00,1,00,1",,"120,M,-0053,1","99999,9,10153,1","7,1,015,1,+999,9","41,1","SYN088AAXX  12181 01278 11985 01003 11086 21098 30153 40262 57015 60002 74100 333 11053 4////;","Q01  00002PRCP12"
"01278099999","2010-01-13T06:00:00","4","63.7833333","11.6833333","83.0","VERDAL REPPE, NO","FM-12","99999","V020","999,9,C,0000,1","22000,1,9,N","055000,1,N,1","-0092,1","-0109,1","10219,1","12,0000,9,1","24,0000,9,1","0023,9,1,999999,9,9","0,1,06,1","0,1,06,1","00,1,+99999,9,99,9","00,99,1,00,1,00,1,99999,9,00,1,00,1","24,9","999,N,-0106,1","99999,9,10110,1","7,1,010,1,+999,9","02,1","SYN094AAXX  13061 01278 11985 00000 11092 21109 30110 40219 57010 60002 70200 333 21106 48023 70000;","Q01  00002PRCP24Q02  00002PRCP12"
"01278099999","2010-01-13T09:00:00","4","63.7833333","11.6833333","83.0","VERDAL REPPE, NO","FM-12","99999","V020","120,1,N,0010,1","22000,1,9,N","055000,1,N,1","-0097,1","-0111,1","10214,1",,,,"0,1,03,1","0,1,03,1",,"01,99,1,00,1,00,1,99999,9,00,1,01,1",,,"99999,9,10105,1","7,1,005,1,+999,9","40,1","SYN082AAXX  13091 01278 41985 11201 11097 21111 30105 40214 57005 74000 80001 333 4////;",
"01278099999","2010-01-13T12:00:00","4","63.7833333","11.6833333","83.0","VERDAL REPPE, NO","FM-12","99999","V020","120,1,N,0030,1","22000,1,9,N","055000,1,N,1","-0088,1","-0106,1","10217,1",,,,,,,"01,99,1,00,1,00,1,99999,9,00,1,01,1",,,"99999,9,10108,1","2,1,003,1,+999,9",,"SYN088AAXX  13121 01278 11985 11203 11088 21106 30108 40217 52003 6//// 7//00 80001 333 4////;",
"01278099999","2010-01-13T18:00:00","4","63.7833333","11.6833333","83.0","VERDAL REPPE, NO","FM-12","99999","V020","120,1,N,0030,1","22000,1,9,N","055000,1,N,1","-0105,1","-0122,1","10210,1","12,0000,9,1",,,"0,1,06,1","0,1,06,1","00,1,+99999,9,99,9","00,99,1,00,1,00,1,99999,9,00,1,00,1",,"120,M,-0085,1","99999,9,10100,1","4,1,000,1,+999,9","02,1","SYN088AAXX  13181 01278 11985 01203 11105 21122 30100 40210 54000 60002 70200 333 11085 4////;","Q01  00002PRCP12"
"01278099999","2010-01-14T06:00:00","4","63.7833333","11.6833333","83.0","VERDAL REPPE, NO","FM-12","99999","V020","150,1,N,0010,1","22000,1,9,N","055000,1,N,1","-0138,1","-0161,1","10181,1","12,0000,9,1","24,0000,9,1","0023,9,1,999999,9,9","0,1,06,1","0,1,06,1","00,1,+99999,9,99,9","00,99,1,00,1,00,1,99999,9,00,1,00,1","24,9","999,N,-0140,1","99999,9,10071,1","7,1,010,1,+999,9","02,1","SYN094AAXX  14061 01278 11985 01501 11138 21161 30071 40181 57010 60002 70200 333 21140 48023 70000;","Q01  00002PRCP24Q02  00002PRCP12"
"01278099999","2010-01-14T09:00:00","4","63.7833333","11.6833333","83.0","VERDAL REPPE, NO","FM-12","99999","V020","999,9,C,0000,1","22000,1,9,N","055000,1,N,1","-0130,1","-0148,1","10188,1",,,,"0,1,03,1","0,1,03,1",,"01,99,1,00,1,00,1,99999,9,00,1,01,1",,,"99999,9,10078,1","2,1,007,1,+999,9","40,1","SYN082AAXX  14091 01278 41985 10000 11130 21148 30078 40188 52007 74000 80001 333 4////;",
"01278099999","2010-01-14T12:00:00","4","63.7833333","11.6833333","83.0","VERDAL REPPE, NO","FM-12","99999","V020","100,1,N,0010,1","22000,1,9,N","075000,1,N,1","-0116,1","-0141,1","10190,1",,,,"0,1,06,1","0,1,06,1",,"03,99,1,00,1,00,1,99999,9,00,1,01,1",,,"99999,9,10080,1","4,1,000,1,+999,9","02,1","SYN088AAXX  14121 01278 11989 31001 11116 21141 30080 40190 54000 6//// 70200 80001 333 4////;",
"01278099999","2010-01-14T18:00:00","4","63.7833333","11.6833333","83.0","VERDAL REPPE, NO","FM-12","99999","V020","110,1,N,0030,1","22000,1,9,N","075000,1,N,1","-0113,1","-0134,1","10197,1","12,0000,9,1",,,"0,1,06,1","0,1,06,1","00,1,+99999,9,99,9","00,99,1,00,1,00,1,99999,9,00,1,00,1",,"120,M,-0102,1","99999,9,10087,1","2,1,002,1,+999,9","02,1","SYN088AAXX  14181 01278 11989 01103 11113 21134 30087 40197 52002 60002 70200 333 11102 4////;","Q01  00002PRCP12"
"01278099999","2010-01-15T06:00:00","4","63.7833333","11.6833333","83.0","VERDAL REPPE, NO","FM-12","99999","V020","150,1,N,0030,1","22000,1,9,N","055000,1,N,1","-0075,1","-0112,1","10217,1","12,0000,9,1","24,0000,9,1","0023,9,1,999999,9,9","0,1,06,1","0,1,06,1","00,1,+99999,9,99,9","00,99,1,00,1,00,1,99999,9,00,1,00,1","24,9","999,N,-0115,1","99999,9,10108,1","2,1,006,1,+999,9","02,1","SYN094AAXX  15061 01278 11985 01503 11075 21112 30108 40217 52006 60002 70200 333 21115 48023 70000;","Q01  00002PRCP24Q02  00002PRCP12"
"01278099999","2010-01-15T09:00:00","4","63.7833333","11.6833333","83.0","VERDAL REPPE, NO","FM-12","99999","V020","150,1,N,0030,1","22000,1,9,N","075000,1,N,1","-0084,1","-0129,1","10234,1",,,,"0,1,03,1","0,1,03,1","00,1,+99999,9,99,9","00,99,1,00,1,00,1,99999,9,00,1,00,1",,,"99999,9,10125,1","2,1,018,1,+999,9","02,1","SYN076AAXX  15091 01278 41989 01503 11084 21129 30125 40234 52018 70200 333 4////;",
"01278099999","2010-01-15T12:00:00","4","63.7833333","11.6833333","83.0","VERDAL REPPE, NO","FM-12","99999","V020","110,1,N,0050,1","22000,1,9,N","075000,1,N,1","-0089,1","-0139,1","10234,1",,,,"0,1,06,1","0,1,06,1","00,1,+99999,9,99,9","00,99,1,00,1,00,1,99999,9,00,1,00,1",,,"99999,9,10125,1","4,1,000,1,+999,9","02,1","SYN082AAXX  15121 01278 11989 01105 11089 21139 30125 40234 54000 6//// 70200 333 4////;",
"01278099999","2010-01-15T18:00:00","4","63.7833333","11.6833333","83.0","VERDAL REPPE, NO","FM-12","99999","V020","150,1,N,0050,1","22000,1,9,N","075000,1,N,1","-0126,1","-0171,1","10240,1","12,0000,9,1",,,"0,1,06,1","0,1,06,1","00,1,+99999,9,99,9","00,99,1,00,1,00,1,99999,9,00,1,00,1",,"120,M,-0070,1","99999,9,10129,1","2,1,001,1,+999,9","02,1","SYN088AAXX  15181 01278 11989 01505 11126 21171 30129 40240 52001 60002 70200 333 11070 4////;","Q01  00002PRCP12"
"01278099999","2010-01-16T06:00:00","4","63.7833333","11.6833333","83.0","VERDAL REPPE, NO","FM-12","99999","V020","120,1,N,0050,1","22000,1,9,N","055000,1,N,1","-0108,1","-0146,1","10221,1","12,0000,9,1","24,0000,9,1","0023,9,1,999999,9,9","0,1,06,1","0,1,06,1",,"01,99,1,01,1,00,1,99999,9,03,1,00,1",,"999,N,-0130,1","99999,9,10111,1","7,1,006,1,+999,9","02,1","SYN100AAXX  16061 01278 11985 11205 11108 21146 30111 40221 57006 60002 70200 81030 333 21130 4/023 70000;","Q01  00002PRCP24Q02  00002PRCP12"
"01278099999","2010-01-16T09:00:00","4","63.7833333","11.6833333","83.0","VERDAL REPPE, NO","FM-12","99999","V020","110,1,N,0030,1","22000,1,9,N","075000,1,N,1","-0110,1","-0148,1","10221,1",,,,"0,1,03,1","0,1,03,1",,"01,99,1,01,1,00,1,99999,9,04,1,01,1",,,"99999,9,10111,1","4,1,000,1,+999,9","02,1","SYN082AAXX  16091 01278 41989 11103 11110 21148 30111 40221 54000 70200 81041 333 4////;",
"01278099999","2010-01-16T12:00:00","4","63.7833333","11.6833333","83.0","VERDAL REPPE, NO","FM-12","99999","V020","130,1,N,0030,1","22000,1,9,N","075000,1,N,1","-0093,1","-0133,1","10218,1",,,,"0,1,06,1","0,1,06,1",,"04,99,1,00,1,00,1,99999,9,00,1,01,1",,,"99999,9,10109,1","7,1,002,1,+999,9","02,1","SYN088AAXX  16121 01278 11989 41303 11093 21133 30109 40218 57002 6//// 70200 80001 333 4////;",
"01278099999","2010-01-16T18:00:00","4","63.7833333","11.6833333","83.0","VERDAL REPPE, NO","FM-12","99999","V020","120,1,N,0050,1","22000,1,9,N","055000,1,N,1","-0007,1","-0093,1","10195,1","12,0000,9,1",,,"0,1,06,1","0,1,06,1","00,1,+99999,9,99,9","00,99,1,00,1,00,1,99999,9,00,1,00,1",,"120,M,-0001,1","99999,9,10089,1","7,1,009,1,+999,9","02,1","SYN088AAXX  16181 01278 11985 01205 11007 21093 30089 40195 57009 60002 70200 333 11001 4////;","Q01  00002PRCP12"
"01278099999","2010-01-17T06:00:00","4","63.7833333","11.6833333","83.0","VERDAL REPPE, NO","FM-12","99999","V020","330,1,N,0010,1","22000,1,9,N","999999,9,N,1","-0025,1","-0101,1","10205,1","12,0000,9,1","24,0000,9,1","0023,9,1,999999,9,9","0,1,06,1","0,1,06,1","00,1,+99999,9,99,9","00,99,1,00,1,00,1,99999,9,00,1,00,1","24,9","999,N,-0036,1","99999,9,10098,1","2,1,005,1,+999,9","02,1","SYN094AAXX  17061 01278 11/// 03301 11025 21101 30098 40205 52005 60002 70200 333 21036 48023 70000;","Q01  00002PRCP24Q02  00002PRCP12"
"01278099999","2010-01-17T09:00:00","4","63.7833333","11.6833333","83.0","VERDAL REPPE, NO","FM-12","99999","V020","100,1,N,0050,1","22000,1,9,N","055000,1,N,1","-0025,1","-0101,1","10205,1",,,,"0,1,03,1","0,1,03,1",,"01,99,1,01,1,01,1,01250,1,00,1,02,1",,,"99999,9,10098,1","4,1,000,1,+999,9","02,1","SYN082AAXX  17091 01278 41685 11005 11025 21101 30098 40205 54000 70200 81102 333 4////;",
"01278099999","2010-01-17T12:00:00","4","63.7833333","11.6833333","83.0","VERDAL REPPE, NO","FM-12","99999","V020","110,1,N,0070,1","22000,1,9,N","055000,1,N,1","-0010,1","-0091,1","10197,1",,,,"0,1,06,1","0,1,06,1",,"01,99,1,01,1,01,1,01250,1,00,1,02,1",,,"99999,9,10091,1","7,1,007,1,+999,9","02,1","SYN088AAXX  17121 01278 11685 11107 11010 21091 30091 40197 57007 6//// 70200 81102 333 4////;",
"01278099999","2010-01-17T18:00:00","4","63.7833333","11.6833333","83.0","VERDAL REPPE, NO","FM-12","99999","V020","150,1,N,0070,1","22000,1,9,N","055000,1,N,1","-0010,1","-0087,1","10206,1","12,0000,9,1",,,"0,1,06,1","0,1,06,1",,"01,99,1,00,1,00,1,99999,9,00,1,02,1",,"120,M,-0002,1","99999,9,10100,1","2,1,007,1,+999,9","02,1","SYN094AAXX  17181 01278 11985 11507 11010 21087 30100 40206 52007 60002 70200 80002 333 11002 4////;","Q01  00002PRCP12"
"01278099999","2010-01-18T06:00:00","4","63.7833333","11.6833333","83.0","VERDAL REPPE, NO","FM-12","99999","V020","120,1,N,0050,1","22000,1,9,N","055000,1,N,1","-0030,1","-0101,1","10211,1","12,0000,9,1","24,0000,9,1","0023,9,1,999999,9,9","0,1,06,1","0,1,06,1",,"01,99,1,00,1,00,1,99999,9,00,1,01,1","24,9","999,N,-0030,1","99999,9,10104,1","2,1,005,1,+999,9","02,1","SYN100AAXX  18061 01278 11985 11205 11030 21101 30104 40211 52005 60002 70200 80001 333 21030 48023 70000;","Q01  00002PRCP24Q02  00002PRCP12"
"01278099999","2010-01-18T09:00:00","4","63.7833333","11.6833333","83.0","VERDAL REPPE, NO","FM-12","99999","V020","120,1,N,0050,1","22000,1,9,N","075000,1,N,1","-0038,1","-0105,1","10215,1",,,,"0,1,03,1","0,1,03,1",,"04,99,1,01,1,01,1,01750,1,04,1,02,1",,,"99999,9,10108,1","2,1,004,1,+999,9","02,1","SYN082AAXX  18091 01278 41789 41205 11038 21105 30108 40215 52004 70200 81142 333 4////;",
"01278099999","2010-01-18T12:00:00","4","63.7833333","11.6833333","83.0","VERDAL REPPE, NO","FM-12","99999","V020","130,1,N,0030,1","03000,1,9,N","075000,1,N,1","-0027,1","-0096,1","10210,1",,,,"1,1,06,1","1,1,06,1",,"07,99,1,01,1,08,1,01750,1,04,1,08,1",,,"99999,9,10104,1","7,1,004,1,+999,9","02,1","SYN088AAXX  18121 01278 11789 71303 11027 21096 30104 40210 57004 6//// 70211 81848 333 4////;",
"01278099999","2010-01-18T18:00:00","4","63.7833333","11.6833333","83.0","VERDAL REPPE, NO","FM-12","99999","V020","100,1,N,0050,1","22000,1,9,N","055000,1,N,1","-0029,1","-0100,1","10207,1","12,0000,9,1",,,"0,1,06,1","0,1,06,1","00,1,+99999,9,99,9","00,99,1,00,1,00,1,99999,9,00,1,00,1",,"120,M,-0018,1","99999,9,10101,1","2,1,006,1,+999,9","02,1","SYN088AAXX  18181 01278 11985 01005 11029 21100 30101 40207 52006 60002 70200 333 11018 4////;","Q01  00002PRCP12"
"01278099999","2010-01-19T06:00:00","4","63.7833333","11.6833333","83.0","VERDAL REPPE, NO","FM-12","99999","V020","120,1,N,0010,1","03000,1,9,N","030000,1,N,1","-0041,1","-0079,1","10248,1","12,9999,9,9","24,9999,9,9","0023,9,1,999999,9,9","8,1,06,1","1,1,06,1",,"08,99,1,01,1,09,1,00800,1,02,1,99,9","24,9","999,N,-0065,1","99999,9,10141,1","2,1,008,1,+999,9","85,1","SYN100AAXX  19061 01278 11580 81201 11041 21079 30141 40248 52008 69902 78581 8192/ 333 21065 48023 70000;","Q01  00002PRCP24Q02  00002PRCP12Q03  00002PRCP12Q04  00002PRCP24"
"01278099999","2010-01-19T09:00:00","4","63.7833333","11.6833333","83.0","VERDAL REPPE, NO","FM-12","99999","V020","140,1,N,0050,1","03000,1,9,N","015000,1,N,1","-0035,1","-0061,1","10270,1",,,,"8,1,03,1","2,1,03,1",,"08,99,1,02,1,07,1,00800,1,02,1,99,9",,,"99999,9,10163,1","2,1,022,1,+999,9","15,1","SYN082AAXX  19091 01278 41565 81405 11035 21061 30163 40270 52022 71582 8272/ 333 4////;",
"01278099999","2010-01-19T12:00:00","4","63.7833333","11.6833333","83.0","VERDAL REPPE, NO","FM-12","99999","V020","110,1,N,0030,1","03000,1,9,N","030000,1,N,1","-0030,1","-0048,1","10277,1",,,,"8,1,06,1","2,1,06,1",,"08,99,1,01,1,09,1,00800,1,02,1,99,9",,,"99999,9,10170,1","2,1,006,1,+999,9","15,1","SYN088AAXX  19121 01278 11580 81103 11030 21048 30170 40277 52006 6//// 71582 8192/ 333 4////;",
"01278099999","2010-01-19T18:00:00","4","63.7833333","11.6833333","83.0","VERDAL REPPE, NO","FM-12","99999","V020","120,1,N,0010,1","00420,1,9,N","030000,1,N,1","-0018,1","-0035,1","10305,1","12,0010,9,1",,,"8,1,06,1","2,1,06,1",,"08,99,1,08,1,00,1,00450,1,02,1,99,9",,"120,M,-0016,1","99999,9,10198,1","2,1,015,1,+999,9","02,1","SYN094AAXX  19181 01278 11480 81201 11018 21035 30198 40305 52015 60012 70282 8802/ 333 11016 4////;",
"01278099999","2010-01-20T06:00:00","4","63.7833333","11.6833333","83.0","VERDAL REPPE, NO","FM-12","99999","V020","150,1,N,0030,1","22000,1,9,N","055000,1,N,1","-0036,1","-0056,1","10327,1","12,0000,9,1","24,0010,9,1","0024,9,1,999999,9,9","1,1,06,1","1,1,06,1",,"01,99,1,00,1,00,1,99999,9,00,1,01,1","24,9","999,N,-0036,1","99999,9,10219,1","2,1,005,1,+999,9","02,1","SYN100AAXX  20061 01278 11985 11503 11036 21056 30219 40327 52005 60002 70211 80001 333 21036 48024 70010;","Q01  00002PRCP12"
"01278099999","2010-01-20T09:00:00","4","63.7833333","11.6833333","83.0","VERDAL REPPE, NO","FM-12","99999","V020","140,1,N,0050,1","22000,1,9,N","055000,1,N,1","-0045,1","-0065,1","10329,1",,,,"0,1,03,1","0,1,03,1",,"04,99,1,01,1,04,1,02250,1,04,1,01,1",,,"99999,9,10221,1","2,1,002,1,+999,9","02,1","SYN082AAXX  20091 01278 41885 41405 11045 21065 30221 40329 52002 70200 81441 333 4////;",
"01278099999","2010-01-20T12:00:00","4","63.7833333","11.6833333","83.0","VERDAL REPPE, NO","FM-12","99999","V020","120,1,N,0050,1","22000,1,9,N","999999,9,N,1","-0014,1","-0050,1","10329,1",,,,"0,1,06,1","0,1,06,1",,"01,99,1,01,1,06,1,99999,9,04,1,02,1",,,"99999,9,10222,1","4,1,000,1,+999,9","02,1","SYN088AAXX  20121 01278 11/// 11205 11014 21050 30222 40329 54000 6//// 70200 81642 333 4////;",
"01278099999","2010-01-20T18:00:00","4","63.7833333","11.6833333","83.0","VERDAL REPPE, NO","FM-12","99999","V020","130,1,N,0050,1","22000,1,9,N","055000,1,N,1","-0040,1","-0085,1","10343,1","12,0000,9,1",,,"0,1,06,1","0,1,06,1",,"01,99,1,00,1,00,1,99999,9,00,1,01,1",,"120,M,-0010,1","99999,9,10234,1","2,1,020,1,+999,9","02,1","SYN094AAXX  20181 01278 11985 11305 11040 21085 30234 40343 52020 60002 70200 80001 333 11010 4////;","Q01  00002PRCP12"
"01278099999","2010-01-21T06:00:00","4","63.7833333","11.6833333","83.0","VERDAL REPPE, NO","FM-12","99999","V020","150,1,N,0100,1","22000,1,9,N","055000,1,N,1","-0033,1","-0087,1","10353,1","12,0000,9,1","24,0000,9,1","0024,9,1,999999,9,9","0,1,06,1","0,1,06,1",,"03,99,1,01,1,04,1,01750,1,04,1,00,1","24,9","999,N,-0050,1","99999,9,10245,1","3,1,002,1,+999,9","02,1","SYN100AAXX  21061 01278 11785 31510 11033 21087 30245 40353 53002 60002 70200 81440 333 21050 48024 70000;","Q01  00002PRCP24Q02  00002PRCP12"
"01278099999","2010-01-21T09:00:00","4","63.7833333","11.6833333","83.0","VERDAL REPPE, NO","FM-12","99999","V020","100,1,N,0050,1","99999,9,9,N","055000,1,N,1","-0038,1","-0093,1","10362,1",,,,"1,1,03,1","1,1,03,1",,"07,99,1,07,1,00,1,99999,9,07,1,99,9",,,"99999,9,10254,1","2,1,008,1,+999,9","03,1","SYN082AAXX  21091 01278 41985 71005 11038 21093 30254 40362 52008 70311 8707/ 333 4////;",
"01278099999","2010-01-21T12:00:00","4","63.7833333","11.6833333","83.0","VERDAL REPPE, NO","FM-12","99999","V020","010,1,N,0050,1","99999,9,9,N","055000,1,N,1","-0032,1","-0103,1","10361,1",,,,"2,1,06,1","2,1,06,1",,"07,99,1,07,1,00,1,99999,9,07,1,99,9",,,"99999,9,10253,1","4,1,000,1,+999,9","02,1","SYN088AAXX  21121 01278 11985 70105 11032 21103 30253 40361 54000 6//// 70222 8707/ 333 4////;",
"01278099999","2010-01-21T18:00:00","4","63.7833333","11.6833333","83.0","VERDAL REPPE, NO","FM-12","99999","V020","100,1,N,0030,1","22000,1,9,N","055000,1,N,1","-0030,1","-0101,1","10350,1","12,0000,9,1",,,"1,1,06,1","1,1,06,1",,"02,99,1,02,1,00,1,99999,9,07,1,99,9",,"120,M,-0027,1","99999,9,10242,1","7,1,010,1,+999,9","02,1","SYN094AAXX  21181 01278 11985 21003 11030 21101 30242 40350 57010 60002 70211 8207/ 333 11027 4////;","Q01  00002PRCP12"
"01278099999","2010-01-22T06:00:00","4","63.7833333","11.6833333","83.0","VERDAL REPPE, NO","FM-12","99999","V020","110,1,N,0030,1","99999,9,9,N","055000,1,N,1","-0026,1","-0091,1","10340,1","12,0000,9,1","24,0000,9,1","0024,9,1,999999,9,9","1,1,06,1","1,1,06,1",,"07,99,1,07,1,00,1,99999,9,07,1,99,9","24,9","999,N,-0030,1","99999,9,10232,1","7,1,003,1,+999,9","03,1","SYN100AAXX  22061 01278 11985 71103 11026 21091 30232 40340 57003 60002 70311 8707/ 333 21030 48024 70000;","Q01  00002PRCP24Q02  00002PRCP12"
"01278099999","2010-01-22T09:00:00","4","63.7833333","11.6833333","83.0","VERDAL REPPE, NO","FM-12","99999","V020","120,1,N,0050,1","22000,1,9,N","075000,1,N,1","-0032,1","-0103,1","10339,1",,,,"1,1,03,1","1,1,03,1",,"03,99,1,03,1,05,1,02250,1,00,1,01,1",,,"99999,9,10232,1","4,1,000,1,+999,9","02,1","SYN082AAXX  22091 01278 41889 31205 11032 21103 30232 40339 54000 70211 83501 333 4////;",
"01278099999","2010-01-22T12:00:00","4","63.7833333","11.6833333","83.0","VERDAL REPPE, NO","FM-12","99999","V020","130,1,N,0070,1","22000,1,9,N","055000,1,N,1","-0039,1","-0100,1","10339,1",,,,"1,1,06,1","1,1,06,1",,"01,99,1,01,1,00,1,02250,1,03,1,01,1",,,"99999,9,10231,1","7,1,001,1,+999,9","02,1","SYN088AAXX  22121 01278 11885 11307 11039 21100 30231 40339 57001 6//// 70211 81031 333 4////;",
"01278099999","2010-01-22T18:00:00","4","63.7833333","11.6833333","83.0","VERDAL REPPE, NO","FM-12","99999","V020","100,1,N,0050,1","22000,1,9,N","055000,1,N,1","-0063,1","-0129,1","10335,1","12,0000,9,1",,,"0,1,06,1","0,1,06,1","00,1,+99999,9,99,9","00,99,1,00,1,00,1,99999,9,00,1,00,1",,"120,M,-0026,1","99999,9,10226,1","4,1,000,1,+999,9","02,1","SYN088AAXX  22181 01278 11985 01005 11063 21129 30226 40335 54000 60002 70200 333 11026 4////;","Q01  00002PRCP12"
"01278099999","2010-01-23T06:00:00","4","63.7833333","11.6833333","83.0","VERDAL REPPE, NO","FM-12","99999","V020","140,1,N,0030,1","99999,9,9,N","055000,1,N,1","-0082,1","-0127,1","10346,1","12,0000,9,1","24,0000,9,1","0023,9,1,999999,9,9","1,1,06,1","1,1,06,1",,"07,99,1,07,1,00,1,99999,9,07,1,99,9","28,9","999,N,-0083,1","99999,9,10236,1","2,1,005,1,+999,9","03,1","SYN100AAXX  23061 01278 11985 71403 11082 21127 30236 40346 52005 60002 70311 8707/ 333 21083 44023 70000;","Q01  00002PRCP24Q02  00002PRCP12"
"01278099999","2010-01-23T09:00:00","4","63.7833333","11.6833333","83.0","VERDAL REPPE, NO","FM-12","99999","V020","110,1,N,0050,1","99999,9,9,N","055000,1,N,1","-0087,1","-0130,1","10353,1",,,,"2,1,03,1","2,1,03,1",,"07,99,1,00,1,00,1,99999,9,00,1,06,1",,,"99999,9,10242,1","2,1,006,1,+999,9","03,1","SYN082AAXX  23091 01278 41985 71105 11087 21130 30242 40353 52006 70322 80006 333 4////;",
"01278099999","2010-01-23T12:00:00","4","63.7833333","11.6833333","83.0","VERDAL REPPE, NO","FM-12","99999","V020","110,1,N,0050,1","99999,9,9,N","055000,1,N,1","-0072,1","-0121,1","10356,1",,,,"2,1,06,1","2,1,06,1",,"08,99,1,08,1,00,1,99999,9,07,1,99,9",,,"99999,9,10246,1","2,1,004,1,+999,9","02,1","SYN088AAXX  23121 01278 11985 81105 11072 21121 30246 40356 52004 6//// 70222 8807/ 333 4////;",
"01278099999","2010-01-23T18:00:00","4","63.7833333","11.6833333","83.0","VERDAL REPPE, NO","FM-12","99999","V020","150,1,N,0030,1","99999,9,9,N","055000,1,N,1","-0070,1","-0110,1","10356,1","12,0000,9,1",,,"2,1,06,1","2,1,06,1",,"07,99,1,07,1,00,1,99999,9,03,1,99,9",,"120,M,-0065,1","99999,9,10246,1","4,1,000,1,+999,9","02,1","SYN094AAXX  23181 01278 11985 71503 11070 21110 30246 40356 54000 60002 70222 8703/ 333 11065 4////;","Q01  00002PRCP12"
"01278099999","2010-01-24T06:00:00","4","63.7833333","11.6833333","83.0","VERDAL REPPE, NO","FM-12","99999","V020","130,1,N,0030,1","99999,9,9,N","055000,1,N,1","-0070,1","-0106,1","10345,1","12,0000,9,1","24,0000,9,1","0023,9,1,999999,9,9","1,1,06,1","1,1,06,1",,"06,99,1,06,1,00,1,99999,9,07,1,99,9","28,9","999,N,-0071,1","99999,9,10236,1","4,1,000,1,+999,9","02,1","SYN100AAXX  24061 01278 11985 61303 11070 21106 30236 40345 54000 60002 70211 8607/ 333 21071 44023 70000;","Q01  00002PRCP24Q02  00002PRCP12"
"01278099999","2010-01-24T09:00:00","4","63.7833333","11.6833333","83.0","VERDAL REPPE, NO","FM-12","99999","V020","110,1,N,0030,1","03000,1,9,N","055000,1,N,1","-0075,1","-0109,1","10346,1",,,,"2,1,03,1","2,1,03,1",,"07,99,1,02,1,05,1,01750,1,07,1,02,1",,,"99999,9,10236,1","4,1,000,1,+999,9","02,1","SYN082AAXX  24091 01278 41785 71103 11075 21109 30236 40346 54000 70222 82572 333 4////;",
"01278099999","2010-01-24T12:00:00","4","63.7833333","11.6833333","83.0","VERDAL REPPE, NO","FM-12","99999","V020","110,1,N,0010,1","00750,1,9,N","055000,1,N,1","-0058,1","-0097,1","10345,1",,,,"2,1,06,1","2,1,06,1",,"08,99,1,07,1,05,1,00800,1,07,1,99,9",,,"99999,9,10236,1","4,1,000,1,+999,9","02,1","SYN088AAXX  24121 01278 11585 81101 11058 21097 30236 40345 54000 6//// 70222 8757/ 333 4////;",
"01278099999","2010-01-24T18:00:00","4","63.7833333","11.6833333","83.0","VERDAL REPPE, NO","FM-12","99999","V020","150,1,N,0030,1","00240,1,9,N","005000,1,N,1","-0052,1","-0079,1","10336,1","12,9999,9,9",,,"7,1,06,1","2,1,06,1","09,1,+99999,9,99,9","09,99,1,09,1,99,9,99999,9,99,9,99,9",,"120,M,-0050,1","99999,9,10227,1","6,1,002,1,+999,9","71,1","SYN088AAXX  24181 01278 11/50 91503 11052 21079 30227 40336 56002 69902 77172 333 11050 4////;","Q01  00002PRCP12Q02  00002PRCP12"
"01278099999","2010-01-25T06:00:00","4","63.7833333","11.6833333","83.0","VERDAL REPPE, NO","FM-12","99999","V020","999,9,C,0000,1","00240,1,9,N","005000,1,N,1","+0004,1","-0004,1","10325,1","12,0099,9,1","24,0099,9,1","0033,9,1,999999,9,9","7,1,06,1","2,1,06,1","09,1,+99999,9,99,9","09,99,1,09,1,99,9,99999,9,99,9,99,9","23,9","999,N,-0055,1","99999,9,10219,1","2,1,003,1,+999,9","70,1","SYN094AAXX  25061 01278 11/50 90000 10004 21004 30219 40325 52003 60102 77072 333 21055 47033 70098;",
"01278099999","2010-01-25T09:00:00","4","63.7833333","11.6833333","83.0","VERDAL REPPE, NO","FM-12","99999","V020","300,1,N,0030,1","00240,1,9,N","010000,1,N,1","+0007,1","-0002,1","10341,1",,,,"8,1,03,1","7,1,03,1","09,1,+99999,9,99,9","09,99,1,09,1,99,9,99999,9,99,9,99,9",,,"99999,9,10235,1","2,1,016,1,+999,9","83,1","SYN076AAXX  25091 01278 41/60 93003 10007 21002 30235 40341 52016 78387 333 4////;",
"01278099999","2010-01-25T12:00:00","4","63.7833333","11.6833333","83.0","VERDAL REPPE, NO","FM-12","99999","V020","300,1,N,0030,1","03000,1,9,N","030000,1,N,1","+0013,1","+0003,1","10350,1",,,,"8,1,06,1","7,1,06,1",,"08,99,1,01,1,09,1,00800,1,02,1,99,9",,,"99999,9,10244,1","2,1,010,1,+999,9","80,1","SYN088AAXX  25121 01278 11580 83003 10013 20003 30244 40350 52010 6//// 78087 8192/ 333 4////;",
"01278099999","2010-01-25T18:00:00","4","63.7833333","11.6833333","83.0","VERDAL REPPE, NO","FM-12","99999","V020","999,9,C,0000,1","00750,1,9,N","030000,1,N,1","+0019,1","+0007,1","10375,1","12,0051,9,1",,,"8,1,06,1","2,1,06,1",,"08,99,1,08,1,00,1,00800,1,02,1,99,9",,"120,M,+0020,1","99999,9,10269,1","2,1,015,1,+999,9","02,1","SYN094AAXX  25181 01278 11580 80000 10019 20007 30269 40375 52015 60052 70282 8802/ 333 10020 4////;",
"01278099999","2010-01-26T06:00:00","4","63.7833333","11.6833333","83.0","VERDAL REPPE, NO","FM-12","99999","V020","999,9,C,0000,1","02100,1,9,N","030000,1,N,1","-0001,1","-0011,1","10370,1","12,0020,9,1","24,0061,9,1","0028,9,1,999999,9,9","8,1,06,1","2,1,06,1",,"08,99,1,08,1,00,1,02250,1,02,1,99,9","27,9","999,N,-0002,1","99999,9,10263,1","7,1,015,1,+999,9","03,1","SYN100AAXX  26061 01278 11880 80000 11001 21011 30263 40370 57015 60022 70382 8802/ 333 21002 43028 70060;",
"01278099999","2010-01-26T09:00:00","4","63.7833333","11.6833333","83.0","VERDAL REPPE, NO","FM-12","99999","V020","120,1,N,0050,1","02100,1,9,N","055000,1,N,1","-0006,1","-0015,1","10353,1",,,,"2,1,03,1","2,1,03,1",,"08,99,1,07,1,00,1,02250,1,07,1,08,1",,,"99999,9,10246,1","7,1,017,1,+999,9","02,1","SYN082AAXX  26091 01278 41885 81205 11006 21015 30246 40353 57017 70222 87078 333 4////;",
"01278099999","2010-01-26T12:00:00","4","63.7833333","11.6833333","83.0","VERDAL REPPE, NO","FM-12","99999","V020","140,1,N,0050,1","02100,1,9,N","055000,1,N,1","-0002,1","-0017,1","10334,1",,,,"2,1,06,1","2,1,06,1",,"08,99,1,08,1,00,1,02250,1,02,1,99,9",,,"99999,9,10227,1","7,1,019,1,+999,9","02,1","SYN088AAXX  26121 01278 11885 81405 11002 21017 30227 40334 57019 6//// 70222 8802/ 333 4////;",
"01278099999","2010-01-26T18:00:00","4","63.7833333","11.6833333","83.0","VERDAL REPPE, NO","FM-12","99999","V020","120,1,N,0030,1","00240,1,9,N","005000,1,N,1","+0002,1","-0015,1","10283,1","12,9999,9,9",,,"7,1,06,1","2,1,06,1","09,1,+99999,9,99,9","09,99,1,09,1,99,9,99999,9,99,9,99,9",,"120,M,+0002,1","99999,9,10177,1","7,1,030,1,+999,9","71,1","SYN088AAXX  26181 01278 11/50 91203 10002 21015 30177 40283 57030 69902 77172 333 10002 4////;","Q01  00002PRCP12Q02  00002PRCP12"
"01278099999","2010-01-27T06:00:00","4","63.7833333","11.6833333","83.0","VERDAL REPPE, NO","FM-12","99999","V020","140,1,N,0050,1","02100,1,9,N","030000,1,N,1","+0049,1","+0021,1","09999,1","12,0099,9,2","24,0097,9,2","0030,9,1,999999,9,9","8,1,06,1","7,1,06,1",,"08,99,1,08,1,00,1,02250,1,02,1,99,9","27,9","999,N,-0003,1","99999,9,09898,1","7,1,100,2,+999,9","02,1","SYN100AAXX  27061 01278 11880 81405 10049 20021 39898 49999 57100 60102 70287 8802/ 333 21003 43030 70096;","Q01+001002APC3  "
"01278099999","2010-01-27T09:00:00","4","63.7833333","11.6833333","83.0","VERDAL REPPE, NO","FM-12","99999","V020","270,1,N,0050,1","02100,1,9,N","015000,1,N,1","+0035,1","+0014,1","09955,1",,,,"6,1,03,1","2,1,03,1",,"08,99,1,08,1,00,1,02250,1,02,1,99,9",,,"99999,9,09854,1","7,1,044,1,+999,9","60,1","SYN082AAXX  27091 01278 41865 82705 10035 20014 39854 49955 57044 76062 8802/ 333 4////;",
"01278099999","2010-01-27T12:00:00","4","63.7833333","11.6833333","83.0","VERDAL REPPE, NO","FM-12","99999","V020","260,1,N,0050,1","00420,1,9,N","015000,1,N,1","+0020,1","-0002,1","09971,1",,,,"6,1,06,1","2,1,06,1",,"08,99,1,08,1,09,1,00450,1,99,9,99,9",,,"99999,9,09869,1","2,1,015,1,+999,9","15,1","SYN088AAXX  27121 01278 11465 82605 10020 21002 39869 49971 52015 6//// 71562 889// 333 4////;",
"01278099999","2010-01-27T18:00:00","4","63.7833333","11.6833333","83.0","VERDAL REPPE, NO","FM-12","99999","V020","290,1,N,0050,1","01200,1,9,N","055000,1,N,1","+0003,1","-0022,1","09962,1","12,0010,9,1",,,"8,1,06,1","2,1,06,1",,"07,99,1,07,1,09,1,01250,1,99,9,99,9",,"120,M,+0051,1","99999,9,09860,1","7,1,008,1,+999,9","02,1","SYN094AAXX  27181 01278 11685 72905 10003 21022 39860 49962 57008 60012 70282 879// 333 10051 4////;",
"01278099999","2010-01-28T06:00:00","4","63.7833333","11.6833333","83.0","VERDAL REPPE, NO","FM-12","99999","V020","290,1,N,0050,1","03000,1,9,N","030000,1,N,1","-0007,1","-0018,1","09904,1","12,0008,9,1","24,0020,9,1","0028,9,1,999999,9,9","8,1,06,1","2,1,06,1",,"08,99,1,01,1,09,1,01750,1,02,1,99,9","27,9","999,N,-0015,1","99999,9,09802,1","7,1,013,1,+999,9","02,1","SYN100AAXX  28061 01278 11780 82905 11007 21018 39802 49904 57013 69972 70282 8192/ 333 21015 43028 70020;",
"01278099999","2010-01-28T09:00:00","4","63.7833333","11.6833333","83.0","VERDAL REPPE, NO","FM-12","99999","V020","999,9,C,0000,1","00240,1,9,N","003000,1,N,1","-0012,1","-0022,1","09904,1",,,,"8,1,03,1","2,1,03,1","09,1,+99999,9,99,9","09,99,1,09,1,99,9,99999,9,99,9,99,9",,,"99999,9,09802,1","4,1,000,1,+999,9","85,1","SYN076AAXX  28091 01278 41/30 90000 11012 21022 39802 49904 54000 78582 333 4////;",
"01278099999","2010-01-28T12:00:00","4","63.7833333","11.6833333","83.0","VERDAL REPPE, NO","FM-12","99999","V020","290,1,N,0050,1","00060,1,9,N","006000,1,N,1","-0007,1","-0017,1","09891,1",,,,"8,1,06,1","2,1,06,1",,"08,99,1,08,1,09,1,00075,1,99,9,99,9",,,"99999,9,09789,1","7,1,013,1,+999,9","85,1","SYN088AAXX  28121 01278 11156 82905 11007 21017 39789 49891 57013 6//// 78582 889// 333 4////;",
"01278099999","2010-01-28T18:00:00","4","63.7833333","11.6833333","83.0","VERDAL REPPE, NO","FM-12","99999","V020","999,9,C,0000,1","00240,1,9,N","002500,1,N,1","-0010,1","-0019,1","09865,1","12,0020,9,1",,,"8,1,06,1","7,1,06,1","09,1,+99999,9,99,9","09,99,1,09,1,99,9,99999,9,99,9,99,9",,"120,M,-0004,1","99999,9,09763,1","7,1,014,1,+999,9","71,1","SYN088AAXX  28181 01278 11/25 90000 11010 21019 39763 49865 57014 60022 77187 333 11004 4////;",
"01278099999","2010-01-29T06:00:00","4","63.7833333","11.6833333","83.0","VERDAL REPPE, NO","FM-12","99999","V020","110,1,N,0070,1","00240,1,9,N","003000,1,N,1","-0110,1","-0128,1","09870,1","12,0071,9,1","24,0079,9,1","0041,9,1,999999,9,9","7,1,06,1","2,1,06,1","09,1,+99999,9,99,9","09,99,1,09,1,99,9,99999,9,99,9,99,9","28,9","999,N,-0110,1","99999,9,09764,1","2,1,002,1,+999,9","70,1","SYN094AAXX  29061 01278 11/30 91107 11110 21128 39764 49870 52002 60072 77072 333 21110 44041 70080;",
"01278099999","2010-01-29T09:00:00","4","63.7833333","11.6833333","83.0","VERDAL REPPE, NO","FM-12","99999","V020","110,1,N,0100,1","00240,1,9,N","003000,1,N,1","-0119,1","-0153,1","09870,1",,,,"7,1,03,1","2,1,03,1","09,1,+99999,9,99,9","09,99,1,09,1,99,9,99999,9,99,9,99,9",,,"99999,9,09764,1","4,1,000,1,+999,9","70,1","SYN076AAXX  29091 01278 41/30 91110 11119 21153 39764 49870 54000 77072 333 4////;",
"01278099999","2010-01-29T12:00:00","4","63.7833333","11.6833333","83.0","VERDAL REPPE, NO","FM-12","99999","V020","110,1,N,0070,1","03000,1,9,N","030000,1,N,1","-0110,1","-0151,1","09870,1",,,,"7,1,06,1","2,1,06,1",,"08,99,1,01,1,04,1,01750,1,02,1,01,1",,,"99999,9,09764,1","4,1,000,1,+999,9","02,1","SYN088AAXX  29121 01278 11780 81107 11110 21151 39764 49870 54000 6//// 70272 81421 333 4////;",
"01278099999","2010-01-29T18:00:00","4","63.7833333","11.6833333","83.0","VERDAL REPPE, NO","FM-12","99999","V020","110,1,N,0050,1","99999,9,9,N","055000,1,N,1","-0122,1","-0166,1","09879,1","12,0000,2,1",,,"2,1,06,1","2,1,06,1",,"06,99,1,03,1,00,1,99999,9,07,1,08,1",,"120,M,-0105,1","99999,9,09772,1","2,1,003,1,+999,9","02,1","SYN094AAXX  29181 01278 11985 61105 11122 21166 39772 49879 52003 69912 70222 83078 333 11105 4////;",
"01278099999","2010-01-30T06:00:00","4","63.7833333","11.6833333","83.0","VERDAL REPPE, NO","FM-12","99999","V020","120,1,N,0120,1","99999,9,9,N","030000,1,N,1","-0165,1","-0217,1","09894,1","12,0000,9,1","24,0000,2,1","0044,9,1,999999,9,9","1,1,06,1","1,1,06,1",,"06,99,1,00,1,00,1,99999,9,00,1,08,1","28,9","999,N,-0165,1","99999,9,09785,1","2,1,001,1,+999,9","02,1","SYN100AAXX  30061 01278 11980 61212 11165 21217 39785 49894 52001 60002 70211 80008 333 21165 44044 70001;","Q01  00002PRCP12"
"01278099999","2010-01-30T09:00:00","4","63.7833333","11.6833333","83.0","VERDAL REPPE, NO","FM-12","99999","V020","110,1,N,0150,1","22000,1,9,N","030000,1,N,1","-0172,1","-0225,1","09903,1",,,,"1,1,03,1","1,1,03,1",,"03,99,1,00,1,00,1,99999,9,00,1,08,1",,,"99999,9,09794,1","2,1,007,1,+999,9","02,1","SYN082AAXX  30091 01278 41980 31115 11172 21225 39794 49903 52007 70211 80008 333 4////;",
"01278099999","2010-01-30T12:00:00","4","63.7833333","11.6833333","83.0","VERDAL REPPE, NO","FM-12","99999","V020","110,1,N,0120,1","22000,1,9,N","055000,1,N,1","-0160,1","-0217,1","09908,1",,,,"1,1,06,1","1,1,06,1",,"04,99,1,04,1,05,1,02250,1,00,1,01,1",,,"99999,9,09800,1","2,1,006,1,+999,9","02,1","SYN088AAXX  30121 01278 11885 41112 11160 21217 39800 49908 52006 6//// 70211 84501 333 4////;",
"01278099999","2010-01-30T18:00:00","4","63.7833333","11.6833333","83.0","VERDAL REPPE, NO","FM-12","99999","V020","120,1,N,0120,1","22000,1,9,N","055000,1,N,1","-0175,1","-0233,1","09928,1","12,0000,9,1",,,"0,1,06,1","0,1,06,1","00,1,+99999,9,99,9","00,99,1,00,1,00,1,99999,9,00,1,00,1",,"120,M,-0156,1","99999,9,09819,1","2,1,010,1,+999,9","02,1","SYN088AAXX  30181 01278 11985 01212 11175 21233 39819 49928 52010 60002 70200 333 11156 4////;","Q01  00002PRCP12"
"01278099999","2010-01-31T09:00:00","4","63.7833333","11.6833333","83.0","VERDAL REPPE, NO","FM-12","99999","V020","120,1,N,0070,1","22000,1,9,N","055000,1,N,1","-0156,1","-0215,1","09957,1",,,,"0,1,03,1","0,1,03,1",,"01,99,1,00,1,00,1,99999,9,00,1,01,1",,,"99999,9,09848,1","2,1,006,1,+999,9","02,1","SYN082AAXX  31091 01278 41985 11207 11156 21215 39848 49957 52006 70200 80001 333 4////;",
"01278099999","2010-01-31T12:00:00","4","63.7833333","11.6833333","83.0","VERDAL REPPE, NO","FM-12","99999","V020","120,1,N,0070,1","22000,1,9,N","055000,1,N,1","-0146,1","-0208,1","09969,1",,,,"0,1,06,1","0,1,06,1",,"01,99,1,00,1,00,1,99999,9,00,1,01,1",,,"99999,9,09860,1","2,1,014,1,+999,9","02,1","SYN088AAXX  31121 01278 11985 11207 11146 21208 39860 49969 52014 6//// 70200 80001 333 4////;",
"01278099999","2010-01-31T18:00:00","4","63.7833333","11.6833333","83.0","VERDAL REPPE, NO","FM-12","99999","V020","110,1,N,0050,1","22000,1,9,N","055000,1,N,1","-0152,1","-0208,1","09989,1","12,0000,9,1",,,"0,1,06,1","0,1,06,1","00,1,+99999,9,99,9","00,99,1,00,1,00,1,99999,9,00,1,00,1",,"120,M,-0142,1","99999,9,09880,1","2,1,010,1,+999,9","02,1","SYN088AAXX  31181 01278 11985 01105 11152 21208 39880 49989 52010 60002 70200 333 11142 4////;","Q01  00002PRCP12"
"01278099999","2010-02-01T06:00:00","4","63.7833333","11.6833333","83.0","VERDAL REPPE, NO","FM-12","99999","V020","120,1,N,0050,1","02100,1,9,N","020000,1,N,1","-0147,1","-0195,1","10020,1","12,9999,9,9","24,9999,9,9","0029,9,1,999999,9,9","7,1,06,1","1,1,06,1",,"08,99,1,08,1,00,1,02250,1,02,1,99,9","28,9","999,N,-0179,1","99999,9,09911,1","2,1,005,1,+999,9","70,1","SYN100AAXX  01061 01278 11870 81205 11147 21195 39911 40020 52005 69902 77071 8802/ 333 21179 44029 70000;","Q01  00002PRCP24Q02  00002PRCP12Q03  00002PRCP12Q04  00002PRCP24"
"01278099999","2010-02-01T09:00:00","4","63.7833333","11.6833333","83.0","VERDAL REPPE, NO","FM-12","99999","V020","150,1,N,0050,1","22000,1,9,N","020000,1,N,1","-0150,1","-0202,1","10031,1",,,,"7,1,03,1","2,1,03,1",,"04,99,1,03,1,08,1,01250,1,00,1,02,1",,,"99999,9,09922,1","2,1,011,1,+999,9","02,1","SYN082AAXX  01091 01278 41670 41505 11150 21202 39922 40031 52011 70272 83802 333 4////;",
"01278099999","2010-02-01T12:00:00","4","63.7833333","11.6833333","83.0","VERDAL REPPE, NO","FM-12","99999","V020","150,1,N,0050,1","22000,1,9,N","025000,1,N,1","-0162,1","-0214,1","10032,1",,,,"7,1,06,1","1,1,06,1",,"03,99,1,01,1,08,1,01250,1,03,1,02,1",,,"99999,9,09922,1","4,1,000,1,+999,9","02,1","SYN088AAXX  01121 01278 11675 31505 11162 21214 39922 40032 54000 6//// 70271 81832 333 4////;",
"01278099999","2010-02-01T18:00:00","4","63.7833333","11.6833333","83.0","VERDAL REPPE, NO","FM-12","99999","V020","150,1,N,0050,1","22000,1,9,N","055000,1,N,1","-0142,1","-0185,1","10030,1","12,0000,2,1",,,"0,1,06,1","0,1,06,1",,"01,99,1,00,1,00,1,99999,9,00,1,08,1",,"120,M,-0140,1","99999,9,09921,1","4,1,000,1,+999,9","02,1","SYN094AAXX  01181 01278 11985 11505 11142 21185 39921 40030 54000 69902 70200 80008 333 11140 4////;",
"01278099999","2010-02-02T06:00:00","4","63.7833333","11.6833333","83.0","VERDAL REPPE, NO","FM-12","99999","V020","150,1,N,0050,1","22000,1,9,N","055000,1,N,1","-0112,1","-0148,1","10024,1","12,0000,9,1","24,0000,2,1","0029,9,1,999999,9,9","0,1,06,1","0,1,06,1","00,1,+99999,9,99,9","00,99,1,00,1,00,1,99999,9,00,1,00,1","28,9","999,N,-0141,1","99999,9,09916,1","7,1,007,1,+999,9","02,1","SYN094AAXX  02061 01278 11985 01505 11112 21148 39916 40024 57007 60002 70200 333 21141 44029 70000;","Q01  00002PRCP12"
"01278099999","2010-02-02T09:00:00","4","63.7833333","11.6833333","83.0","VERDAL REPPE, NO","FM-12","99999","V020","130,1,N,0050,1","22000,1,9,N","055000,1,N,1","-0090,1","-0135,1","10019,1",,,,"0,1,03,1","0,1,03,1",,"01,99,1,01,1,01,1,01250,1,00,1,08,1",,,"99999,9,09912,1","7,1,004,1,+999,9","02,1","SYN082AAXX  02091 01278 41685 11305 11090 21135 39912 40019 57004 70200 81108 333 4////;",
"01278099999","2010-02-02T12:00:00","4","63.7833333","11.6833333","83.0","VERDAL REPPE, NO","FM-12","99999","V020","140,1,N,0050,1","22000,1,9,N","055000,1,N,1","-0072,1","-0124,1","10007,1",,,,"0,1,06,1","0,1,06,1",,"01,99,1,00,1,00,1,99999,9,00,1,01,1",,,"99999,9,09901,1","7,1,010,1,+999,9","02,1","SYN088AAXX  02121 01278 11985 11405 11072 21124 39901 40007 57010 6//// 70200 80001 333 4////;",
"01278099999","2010-02-02T18:00:00","4","63.7833333","11.6833333","83.0","VERDAL REPPE, NO","FM-12","99999","V020","140,1,N,0050,1","22000,1,9,N","055000,1,N,1","-0082,1","-0124,1","09995,1","12,0000,9,1",,,"0,1,06,1","0,1,06,1",,"04,99,1,00,1,00,1,99999,9,00,1,01,1",,"120,M,-0053,1","99999,9,09888,1","7,1,002,1,+999,9","02,1","SYN094AAXX  02181 01278 11985 41405 11082 21124 39888 49995 57002 60002 70200 80001 333 11053 4////;","Q01  00002PRCP12"
"01278099999","2010-02-03T06:00:00","4","63.7833333","11.6833333","83.0","VERDAL REPPE, NO","FM-12","99999","V020","120,1,N,0050,1","99999,9,9,N","055000,1,N,1","-0110,1","-0151,1","10032,1","12,0000,9,1","24,0000,9,1","0029,9,1,999999,9,9","1,1,06,1","1,1,06,1",,"05,99,1,00,1,00,1,99999,9,00,1,01,1","28,9","999,N,-0110,1","99999,9,09925,1","2,1,011,1,+999,9","02,1","SYN100AAXX  03061 01278 11985 51205 11110 21151 39925 40032 52011 60002 70211 80001 333 21110 44029 70000;","Q01  00002PRCP24Q02  00002PRCP12"
"01278099999","2010-02-03T09:00:00","4","63.7833333","11.6833333","83.0","VERDAL REPPE, NO","FM-12","99999","V020","110,1,N,0050,1","22000,1,9,N","055000,1,N,1","-0110,1","-0152,1","10052,1",,,,"1,1,03,1","1,1,03,1",,"01,99,1,00,1,00,1,99999,9,00,1,01,1",,,"99999,9,09944,1","2,1,018,1,+999,9","02,1","SYN082AAXX  03091 01278 41985 11105 11110 21152 39944 40052 52018 70211 80001 333 4////;",
"01278099999","2010-02-03T12:00:00","4","63.7833333","11.6833333","83.0","VERDAL REPPE, NO","FM-12","99999","V020","150,1,N,0070,1","03000,1,9,N","055000,1,N,1","-0074,1","-0126,1","10065,1",,,,"1,1,06,1","1,1,06,1",,"06,99,1,01,1,05,1,01750,1,07,1,02,1",,,"99999,9,09958,1","2,1,015,1,+999,9","02,1","SYN088AAXX  03121 01278 11785 61507 11074 21126 39958 40065 52015 6//// 70211 81572 333 4////;",
"01278099999","2010-02-03T18:00:00","4","63.7833333","11.6833333","83.0","VERDAL REPPE, NO","FM-12","99999","V020","110,1,N,0070,1","99999,9,9,N","055000,1,N,1","-0068,1","-0120,1","10092,1","12,0000,9,1",,,"2,1,06,1","2,1,06,1",,"07,99,1,07,1,00,1,99999,9,07,1,99,9",,"120,M,-0065,1","99999,9,09986,1","2,1,017,1,+999,9","02,1","SYN094AAXX  03181 01278 11985 71107 11068 21120 39986 40092 52017 60002 70222 8707/ 333 11065 4////;","Q01  00002PRCP12"
"01278099999","2010-02-04T06:00:00","4","63.7833333","11.6833333","83.0","VERDAL REPPE, NO","FM-12","99999","V020","130,1,N,0070,1","99999,9,9,N","025000,1,N,1","-0043,1","-0088,1","10149,1","12,0000,9,1","24,0000,9,1","0029,9,1,999999,9,9","2,1,06,1","2,1,06,1",,"07,99,1,07,1,00,1,99999,9,02,1,99,9","28,9","999,N,-0066,1","99999,9,10042,1","2,1,020,1,+999,9","16,1","SYN100AAXX  04061 01278 11975 71307 11043 21088 30042 40149 52020 60002 71622 8702/ 333 21066 44029 70000;","Q01  00002PRCP24Q02  00002PRCP12"
"01278099999","2010-02-04T09:00:00","4","63.7833333","11.6833333","83.0","VERDAL REPPE, NO","FM-12","99999","V020","130,1,N,0070,1","07500,1,9,N","055000,1,N,1","-0046,1","-0094,1","10155,1",,,,"2,1,03,1","2,1,03,1",,"05,99,1,01,1,01,1,01250,1,07,1,01,1",,,"99999,9,10048,1","2,1,007,1,+999,9","01,1","SYN082AAXX  04091 01278 41685 51307 11046 21094 30048 40155 52007 70122 81171 333 4////;",
"01278099999","2010-02-04T12:00:00","4","63.7833333","11.6833333","83.0","VERDAL REPPE, NO","FM-12","99999","V020","110,1,N,0100,1","03000,1,9,N","055000,1,N,1","-0034,1","-0091,1","10160,1",,,,"2,1,06,1","2,1,06,1",,"06,99,1,02,1,08,1,01250,1,07,1,01,1",,,"99999,9,10054,1","2,1,008,1,+999,9","02,1","SYN088AAXX  04121 01278 11685 61110 11034 21091 30054 40160 52008 6//// 70222 82871 333 4////;",
"01278099999","2010-02-04T18:00:00","4","63.7833333","11.6833333","83.0","VERDAL REPPE, NO","FM-12","99999","V020","150,1,N,0100,1","22000,1,9,N","055000,1,N,1","-0046,1","-0087,1","10168,1","12,0000,9,1",,,"2,1,06,1","2,1,06,1",,"04,99,1,04,1,04,1,01750,1,00,1,01,1",,"120,M,-0030,1","99999,9,10061,1","2,1,004,1,+999,9","02,1","SYN094AAXX  04181 01278 11785 41510 11046 21087 30061 40168 52004 60002 70222 84401 333 11030 4////;","Q01  00002PRCP12"
"01278099999","2010-02-05T06:00:00","4","63.7833333","11.6833333","83.0","VERDAL REPPE, NO","FM-12","99999","V020","150,1,N,0100,1","01500,1,9,N","020000,1,N,1","-0023,1","-0055,1","10134,1","12,9999,9,9","24,9999,9,9","0029,9,1,999999,9,9","7,1,06,1","1,1,06,1",,"08,99,1,08,1,00,1,01750,1,02,1,99,9","28,9","999,N,-0047,1","99999,9,10028,1","7,1,002,1,+999,9","70,1","SYN100AAXX  05061 01278 11770 81510 11023 21055 30028 40134 57002 69902 77071 8802/ 333 21047 44029 70000;","Q01  00002PRCP24Q02  00002PRCP12Q03  00002PRCP12Q04  00002PRCP24"
"01278099999","2010-02-05T09:00:00","4","63.7833333","11.6833333","83.0","VERDAL REPPE, NO","FM-12","99999","V020","110,1,N,0050,1","00240,1,9,N","003000,1,N,1","-0018,1","-0046,1","10135,1",,,,"7,1,03,1","7,1,03,1","09,1,+99999,9,99,9","09,99,1,09,1,99,9,99999,9,99,9,99,9",,,"99999,9,10030,1","4,1,000,1,+999,9","71,1","SYN076AAXX  05091 01278 41/30 91105 11018 21046 30030 40135 54000 77177 333 4////;",
"01278099999","2010-02-05T12:00:00","4","63.7833333","11.6833333","83.0","VERDAL REPPE, NO","FM-12","99999","V020","999,9,C,0000,1","00060,1,9,N","000800,1,N,1","-0015,1","-0025,1","10149,1",,,,"7,1,06,1","7,1,06,1","09,1,+99999,9,99,9","09,99,1,09,1,99,9,99999,9,99,9,99,9",,,"99999,9,10043,1","2,1,013,1,+999,9","71,1","SYN082AAXX  05121 01278 11/08 90000 11015 21025 30043 40149 52013 6//// 77177 333 4////;",
"01278099999","2010-02-05T18:00:00","4","63.7833333","11.6833333","83.0","VERDAL REPPE, NO","FM-12","99999","V020","110,1,N,0030,1","01500,1,9,N","025000,1,N,1","-0027,1","-0041,1","10159,1","12,0030,9,1",,,"7,1,06,1","2,1,06,1",,"08,99,1,08,1,00,1,01750,1,07,1,99,9",,"120,M,-0012,1","99999,9,10053,1","2,1,016,1,+999,9","02,1","SYN094AAXX  05181 01278 11775 81103 11027 21041 30053 40159 52016 60032 70272 8807/ 333 11012 4////;",
"01278099999","2010-02-06T06:00:00","4","63.7833333","11.6833333","83.0","VERDAL REPPE, NO","FM-12","99999","V020","130,1,N,0030,1","22000,1,9,N","030000,1,N,1","-0031,1","-0053,1","10222,1","12,0000,9,1","24,0030,9,1","0036,9,1,999999,9,9","1,1,06,1","1,1,06,1",,"03,99,1,03,1,00,1,01750,1,07,1,99,9","24,9","999,N,-0031,1","99999,9,10115,1","2,1,022,1,+999,9","02,1","SYN100AAXX  06061 01278 11780 31303 11031 21053 30115 40222 52022 60002 70211 8307/ 333 21031 48036 70030;","Q01  00002PRCP12"
"01278099999","2010-02-06T09:00:00","4","63.7833333","11.6833333","83.0","VERDAL REPPE, NO","FM-12","99999","V020","130,1,N,0010,1","01200,1,9,N","055000,1,N,1","-0036,1","-0054,1","10252,1",,,,"1,1,03,1","1,1,03,1",,"07,99,1,07,1,05,1,01250,1,99,9,99,9",,,"99999,9,10145,1","2,1,030,1,+999,9","03,1","SYN082AAXX  06091 01278 41685 71301 11036 21054 30145 40252 52030 70311 875// 333 4////;",
"01278099999","2010-02-06T12:00:00","4","63.7833333","11.6833333","83.0","VERDAL REPPE, NO","FM-12","99999","V020","999,9,C,0000,1","22000,1,9,N","055000,1,N,1","-0027,1","-0050,1","10274,1",,,,"1,1,06,1","1,1,06,1",,"02,99,1,02,1,05,1,00450,1,00,1,00,1",,,"99999,9,10167,1","2,1,023,1,+999,9","01,1","SYN088AAXX  06121 01278 11485 20000 11027 21050 30167 40274 52023 6//// 70111 82500 333 4////;",
"01278099999","2010-02-06T18:00:00","4","63.7833333","11.6833333","83.0","VERDAL REPPE, NO","FM-12","99999","V020","999,9,C,0000,1","00240,1,9,N","005000,1,N,1","-0016,1","-0030,1","10279,1","12,9999,9,9",,,"8,1,06,1","1,1,06,1","09,1,+99999,9,99,9","09,99,1,09,1,99,9,99999,9,99,9,99,9",,"120,M,-0010,1","99999,9,10172,1","4,1,000,1,+999,9","85,1","SYN088AAXX  06181 01278 11/50 90000 11016 21030 30172 40279 54000 69902 78581 333 11010 4////;","Q01  00002PRCP12Q02  00002PRCP12"
"01278099999","2010-02-07T06:00:00","4","63.7833333","11.6833333","83.0","VERDAL REPPE, NO","FM-12","99999","V020","290,1,N,0050,1","03000,1,9,N","025000,1,N,1","+0007,1","-0002,1","10242,1","12,0030,9,2","24,0025,9,2","0038,9,1,999999,9,9","8,1,06,1","2,1,06,1",,"08,99,1,01,1,09,1,00150,1,02,1,99,9","28,9","999,N,-0019,1","99999,9,10136,1","7,1,008,1,+999,9","02,1","SYN100AAXX  07061 01278 11275 82905 10007 21002 30136 40242 57008 60032 70282 8192/ 333 21019 44038 70026;",
"01278099999","2010-02-07T09:00:00","4","63.7833333","11.6833333","83.0","VERDAL REPPE, NO","FM-12","99999","V020","300,1,N,0010,1","00420,1,9,N","055000,1,N,1","+0004,1","-0006,1","10237,1",,,,"8,1,03,1","2,1,03,1",,"07,99,1,07,1,09,1,00450,1,99,9,99,9",,,"99999,9,10131,1","7,1,005,1,+999,9","15,1","SYN082AAXX  07091 01278 41485 73001 10004 21006 30131 40237 57005 71582 879// 333 4////;",
"01278099999","2010-02-07T12:00:00","4","63.7833333","11.6833333","83.0","VERDAL REPPE, NO","FM-12","99999","V020","290,1,N,0050,1","00420,1,9,N","055000,1,N,1","+0010,1","-0004,1","10228,1",,,,"8,1,06,1","2,1,06,1",,"07,99,1,07,1,09,1,00450,1,99,9,99,9",,,"99999,9,10123,1","7,1,008,1,+999,9","15,1","SYN088AAXX  07121 01278 11485 72905 10010 21004 30123 40228 57008 6//// 71582 879// 333 4////;",
"01278099999","2010-02-07T18:00:00","4","63.7833333","11.6833333","83.0","VERDAL REPPE, NO","FM-12","99999","V020","280,1,N,0070,1","00750,1,9,N","020000,1,N,1","+0007,1","-0004,1","10203,1","12,0003,9,1",,,"8,1,06,1","2,1,06,1",,"08,99,1,08,1,09,1,00800,1,99,9,99,9",,"120,M,+0014,1","99999,9,10098,1","7,1,014,1,+999,9","15,1","SYN094AAXX  07181 01278 11570 82807 10007 21004 30098 40203 57014 69932 71582 889// 333 10014 4////;",
"01278099999","2010-02-08T06:00:00","4","63.7833333","11.6833333","83.0","VERDAL REPPE, NO","FM-12","99999","V020","290,1,N,0030,1","22000,1,9,N","030000,1,N,1","-0004,1","-0014,1","10141,1","12,0005,9,1","24,0008,9,1","0040,9,1,999999,9,9","8,1,06,1","2,1,06,1",,"04,99,1,03,1,09,1,00450,1,06,1,99,9","28,9","999,N,-0004,1","99999,9,10037,1","7,1,017,1,+999,9","02,1","SYN100AAXX  08061 01278 11480 42903 11004 21014 30037 40141 57017 69952 70282 8396/ 333 21004 44040 70008;",
"01278099999","2010-02-08T09:00:00","4","63.7833333","11.6833333","83.0","VERDAL REPPE, NO","FM-12","99999","V020","300,1,N,0050,1","00240,1,9,N","004000,1,N,1","-0005,1","-0019,1","10121,1",,,,"8,1,03,1","2,1,03,1","09,1,+99999,9,99,9","09,99,1,09,1,99,9,99999,9,99,9,99,9",,,"99999,9,10017,1","7,1,019,1,+999,9","85,1","SYN076AAXX  08091 01278 41/40 93005 11005 21019 30017 40121 57019 78582 333 4////;",
"01278099999","2010-02-08T12:00:00","4","63.7833333","11.6833333","83.0","VERDAL REPPE, NO","FM-12","99999","V020","300,1,N,0050,1","00210,1,9,N","004000,1,N,1","+0007,1","-0007,1","10073,1",,,,"8,1,06,1","2,1,06,1",,"08,99,1,08,1,09,1,00250,1,99,9,99,9",,,"99999,9,09969,1","7,1,048,1,+999,9","85,1","SYN088AAXX  08121 01278 11340 83005 10007 21007 39969 40073 57048 6//// 78582 889// 333 4////;",
"01278099999","2010-02-08T18:00:00","4","63.7833333","11.6833333","83.0","VERDAL REPPE, NO","FM-12","99999","V020","310,1,N,0030,1","00420,1,9,N","015000,1,N,1","-0004,1","-0022,1","10090,1","12,0030,9,1",,,"8,1,06,1","2,1,06,1",,"08,99,1,08,1,09,1,00450,1,99,9,99,9",,"120,M,+0011,1","99999,9,09986,1","2,1,007,1,+999,9","15,1","SYN094AAXX  08181 01278 11465 83103 11004 21022 39986 40090 52007 60032 71582 889// 333 10011 4////;",
"01278099999","2010-02-09T06:00:00","4","63.7833333","11.6833333","83.0","VERDAL REPPE, NO","FM-12","99999","V020","090,1,N,0010,1","22000,1,9,N","055000,1,N,1","-0063,1","-0096,1","10149,1","12,0000,9,1","24,0030,9,1","0039,9,1,999999,9,9","1,1,06,1","1,1,06,1",,"01,99,1,01,1,04,1,01250,1,00,1,00,1","24,9","999,N,-0063,1","99999,9,10042,1","2,1,030,1,+999,9","02,1","SYN100AAXX  09061 01278 11685 10901 11063 21096 30042 40149 52030 60002 70211 81400 333 21063 48039 70030;","Q01  00002PRCP12"
"01278099999","2010-02-09T09:00:00","4","63.7833333","11.6833333","83.0","VERDAL REPPE, NO","FM-12","99999","V020","130,1,N,0050,1","22000,1,9,N","075000,1,N,1","-0076,1","-0107,1","10179,1",,,,"0,1,03,1","0,1,03,1",,"01,99,1,01,1,01,1,01250,1,00,1,00,1",,,"99999,9,10071,1","2,1,029,1,+999,9","02,1","SYN082AAXX  09091 01278 41689 11305 11076 21107 30071 40179 52029 70200 81100 333 4////;",
"01278099999","2010-02-09T12:00:00","4","63.7833333","11.6833333","83.0","VERDAL REPPE, NO","FM-12","99999","V020","130,1,N,0050,1","22000,1,9,N","075000,1,N,1","-0063,1","-0104,1","10190,1",,,,"0,1,06,1","0,1,06,1",,"01,99,1,01,1,04,1,01250,1,00,1,00,1",,,"99999,9,10083,1","2,1,012,1,+999,9","02,1","SYN088AAXX  09121 01278 11689 11305 11063 21104 30083 40190 52012 6//// 70200 81400 333 4////;",
"01278099999","2010-02-09T18:00:00","4","63.7833333","11.6833333","83.0","VERDAL REPPE, NO","FM-12","99999","V020","100,1,N,0030,1","22000,1,9,N","075000,1,N,1","-0112,1","-0133,1","10201,1","12,0000,9,1",,,"0,1,06,1","0,1,06,1",,"01,99,1,00,1,00,1,99999,9,00,1,02,1",,"120,M,-0060,1","99999,9,10092,1","2,1,010,1,+999,9","02,1","SYN094AAXX  09181 01278 11989 11003 11112 21133 30092 40201 52010 60002 70200 80002 333 11060 4////;","Q01  00002PRCP12"
"01278099999","2010-02-10T06:00:00","4","63.7833333","11.6833333","83.0","VERDAL REPPE, NO","FM-12","99999","V020","110,1,N,0030,1","99999,9,9,N","055000,1,N,1","-0158,1","-0182,1","10210,1","12,0000,9,1","24,0000,9,1","0039,9,1,999999,9,9","1,1,06,1","1,1,06,1",,"06,99,1,00,1,00,1,99999,9,00,1,06,1","24,9","999,N,-0170,1","99999,9,10099,1","7,1,010,1,+999,9","03,1","SYN100AAXX  10061 01278 11985 61103 11158 21182 30099 40210 57010 60002 70311 80006 333 21170 48039 70000;","Q01  00002PRCP24Q02  00002PRCP12"
"01278099999","2010-02-10T09:00:00","4","63.7833333","11.6833333","83.0","VERDAL REPPE, NO","FM-12","99999","V020","110,1,N,0010,1","99999,9,9,N","055000,1,N,1","-0134,1","-0160,1","10201,1",,,,"2,1,03,1","2,1,03,1",,"08,99,1,08,1,00,1,99999,9,02,1,99,9",,,"99999,9,10091,1","7,1,008,1,+999,9","15,1","SYN082AAXX  10091 01278 41985 81101 11134 21160 30091 40201 57008 71522 8802/ 333 4////;",
"01278099999","2010-02-10T12:00:00","4","63.7833333","11.6833333","83.0","VERDAL REPPE, NO","FM-12","99999","V020","110,1,N,0050,1","00240,1,9,N","002500,1,N,1","-0108,1","-0123,1","10182,1",,,,"7,1,06,1","2,1,06,1","09,1,+99999,9,99,9","09,99,1,09,1,99,9,99999,9,99,9,99,9",,,"99999,9,10073,1","7,1,019,1,+999,9","71,1","SYN082AAXX  10121 01278 11/25 91105 11108 21123 30073 40182 57019 6//// 77172 333 4////;",
"01278099999","2010-02-10T18:00:00","4","63.7833333","11.6833333","83.0","VERDAL REPPE, NO","FM-12","99999","V020","110,1,N,0030,1","00120,1,9,N","002000,1,N,1","-0071,1","-0082,1","10132,1","12,0030,9,1",,,"7,1,06,1","2,1,06,1","09,1,+99999,9,99,9","09,99,1,09,1,99,9,99999,9,99,9,99,9",,"120,M,-0068,1","99999,9,10024,1","7,1,028,1,+999,9","71,1","SYN088AAXX  10181 01278 11/20 91103 11071 21082 30024 40132 57028 60032 77172 333 11068 4////;",
"01278099999","2010-02-11T06:00:00","4","63.7833333","11.6833333","83.0","VERDAL REPPE, NO","FM-12","99999","V020","280,1,N,0030,1","00240,1,9,N","002500,1,N,1","+0004,1","-0004,1","10117,1","12,0079,9,1","24,0104,9,1","0053,9,1,999999,9,9","7,1,06,1","2,1,06,1","09,1,+99999,9,99,9","09,99,1,09,1,99,9,99999,9,99,9,99,9","28,9","999,N,-0070,1","99999,9,10013,1","2,1,009,1,+999,9","71,1","SYN094AAXX  11061 01278 11/25 92803 10004 21004 30013 40117 52009 60082 77172 333 21070 44053 70105;",
"01278099999","2010-02-11T09:00:00","4","63.7833333","11.6833333","83.0","VERDAL REPPE, NO","FM-12","99999","V020","300,1,N,0030,1","00120,1,9,N","002000,1,N,1","+0001,1","-0007,1","10132,1",,,,"7,1,03,1","7,1,03,1","09,1,+99999,9,99,9","09,99,1,09,1,99,9,99999,9,99,9,99,9",,,"99999,9,10027,1","2,1,016,1,+999,9","73,1","SYN076AAXX  11091 01278 41/20 93003 10001 21007 30027 40132 52016 77377 333 4////;",
"01278099999","2010-02-11T12:00:00","4","63.7833333","11.6833333","83.0","VERDAL REPPE, NO","FM-12","99999","V020","310,1,N,0030,1","00420,1,9,N","030000,1,N,1","+0007,1","-0003,1","10147,1",,,,"7,1,06,1","2,1,06,1",,"08,99,1,08,1,09,1,00450,1,99,9,99,9",,,"99999,9,10043,1","2,1,015,1,+999,9","16,1","SYN088AAXX  11121 01278 11480 83103 10007 21003 30043 40147 52015 6//// 71672 889// 333 4////;",
"01278099999","2010-02-11T18:00:00","4","63.7833333","11.6833333","83.0","VERDAL REPPE, NO","FM-12","99999","V020","999,9,C,0000,1","22000,1,9,N","055000,1,N,1","-0001,1","-0012,1","10200,1","12,0030,9,1",,,"8,1,06,1","1,1,06,1",,"01,99,1,01,1,08,1,00800,1,00,1,00,1",,"120,M,+0012,1","99999,9,10095,1","2,1,037,1,+999,9","01,1","SYN094AAXX  11181 01278 11585 10000 11001 21012 30095 40200 52037 60032 70181 81800 333 10012 4////;",
"01278099999","2010-02-12T06:00:00","4","63.7833333","11.6833333","83.0","VERDAL REPPE, NO","FM-12","99999","V020","130,1,N,0050,1","99999,9,9,N","055000,1,N,1","-0113,1","-0128,1","10282,1","12,0000,9,1","24,0028,9,1","0053,9,1,999999,9,9","1,1,06,1","1,1,06,1",,"07,99,1,07,1,00,1,99999,9,07,1,99,9","24,9","999,N,-0120,1","99999,9,10172,1","2,1,017,1,+999,9","03,1","SYN100AAXX  12061 01278 11985 71305 11113 21128 30172 40282 52017 60002 70311 8707/ 333 21120 48053 70028;","Q01  00002PRCP12"
"01278099999","2010-02-12T09:00:00","4","63.7833333","11.6833333","83.0","VERDAL REPPE, NO","FM-12","99999","V020","130,1,N,0050,1","00750,1,9,N","030000,1,N,1","-0088,1","-0102,1","10284,1",,,,"2,1,03,1","2,1,03,1",,"08,99,1,08,1,09,1,00800,1,99,9,99,9",,,"99999,9,10175,1","2,1,003,1,+999,9","15,1","SYN082AAXX  12091 01278 41580 81305 11088 21102 30175 40284 52003 71522 889// 333 4////;",
"01278099999","2010-02-12T12:00:00","4","63.7833333","11.6833333","83.0","VERDAL REPPE, NO","FM-12","99999","V020","110,1,N,0050,1","00420,1,9,N","055000,1,N,1","-0054,1","-0073,1","10283,1",,,,"2,1,06,1","2,1,06,1",,"08,99,1,08,1,09,1,00450,1,99,9,99,9",,,"99999,9,10175,1","4,1,000,1,+999,9","15,1","SYN088AAXX  12121 01278 11485 81105 11054 21073 30175 40283 54000 6//// 71522 889// 333 4////;",
"01278099999","2010-02-12T18:00:00","4","63.7833333","11.6833333","83.0","VERDAL REPPE, NO","FM-12","99999","V020","100,1,N,0010,1","01200,1,9,N","020000,1,N,1","-0027,1","-0041,1","10274,1","12,9999,9,9",,,"8,1,06,1","2,1,06,1",,"08,99,1,08,1,09,1,01250,1,99,9,99,9",,"120,M,-0025,1","99999,9,10167,1","6,1,005,1,+999,9","85,1","SYN094AAXX  12181 01278 11670 81001 11027 21041 30167 40274 56005 69902 78582 889// 333 11025 4////;","Q01  00002PRCP12Q02  00002PRCP12"
"01278099999","2010-02-13T06:00:00","4","63.7833333","11.6833333","83.0","VERDAL REPPE, NO","FM-12","99999","V020","999,9,C,0000,1","03000,1,9,N","020000,1,N,1","-0007,1","-0014,1","10227,1","12,0010,9,1","24,0010,9,1","0053,9,1,999999,9,9","8,1,06,1","2,1,06,1",,"08,99,1,02,1,09,1,01250,1,02,1,99,9","24,9","999,N,-0026,1","99999,9,10121,1","7,1,013,1,+999,9","15,1","SYN100AAXX  13061 01278 11670 80000 11007 21014 30121 40227 57013 60012 71582 8292/ 333 21026 48053 70011;",
"01278099999","2010-02-13T09:00:00","4","63.7833333","11.6833333","83.0","VERDAL REPPE, NO","FM-12","99999","V020","999,9,C,0000,1","03000,1,9,N","020000,1,N,1","+0002,1","-0008,1","10215,1",,,,"8,1,03,1","2,1,03,1",,"08,99,1,02,1,09,1,01250,1,02,1,99,9",,,"99999,9,10110,1","7,1,011,1,+999,9","15,1","SYN082AAXX  13091 01278 41670 80000 10002 21008 30110 40215 57011 71582 8292/ 333 4////;",
"01278099999","2010-02-13T12:00:00","4","63.7833333","11.6833333","83.0","VERDAL REPPE, NO","FM-12","99999","V020","280,1,N,0030,1","00120,1,9,N","006000,1,N,1","+0013,1","+0001,1","10204,1",,,,"8,1,06,1","6,1,06,1",,"08,99,1,06,1,07,1,00150,1,02,1,99,9",,,"99999,9,10099,1","7,1,011,1,+999,9","61,1","SYN088AAXX  13121 01278 11256 82803 10013 20001 30099 40204 57011 6//// 76186 8672/ 333 4////;",
"01278099999","2010-02-13T18:00:00","4","63.7833333","11.6833333","83.0","VERDAL REPPE, NO","FM-12","99999","V020","330,1,N,0050,1","00420,1,9,N","020000,1,N,1","+0012,1","+0001,1","10189,1","12,0020,9,1",,,"8,1,06,1","6,1,06,1",,"07,99,1,07,1,09,1,00450,1,99,9,99,9",,"120,M,+0020,1","99999,9,10084,1","4,1,000,1,+999,9","80,1","SYN094AAXX  13181 01278 11470 73305 10012 20001 30084 40189 54000 60022 78086 879// 333 10020 4////;",
"01278099999","2010-02-14T06:00:00","4","63.7833333","11.6833333","83.0","VERDAL REPPE, NO","FM-12","99999","V020","999,9,C,0000,1","01500,1,9,N","030000,1,N,1","+0000,1","-0006,1","10188,1","12,0005,9,1","24,0028,9,1","0049,9,1,999999,9,9","8,1,06,1","2,1,06,1",,"08,99,1,08,1,00,1,01750,1,02,1,99,9","28,9","999,N,-0005,1","99999,9,10083,1","7,1,002,1,+999,9","02,1","SYN100AAXX  14061 01278 11780 80000 10000 21006 30083 40188 57002 69942 70282 8802/ 333 21005 44049 70027;",
"01278099999","2010-02-14T09:00:00","4","63.7833333","11.6833333","83.0","VERDAL REPPE, NO","FM-12","99999","V020","110,1,N,0010,1","01500,1,9,N","055000,1,N,1","-0006,1","-0013,1","10183,1",,,,"2,1,03,1","2,1,03,1",,"07,99,1,07,1,08,1,01250,1,99,9,99,9",,,"99999,9,10077,1","7,1,006,1,+999,9","02,1","SYN082AAXX  14091 01278 41685 71101 11006 21013 30077 40183 57006 70222 878// 333 4////;",
"01278099999","2010-02-14T12:00:00","4","63.7833333","11.6833333","83.0","VERDAL REPPE, NO","FM-12","99999","V020","110,1,N,0010,1","03000,1,9,N","055000,1,N,1","+0001,1","-0009,1","10178,1",,,,"2,1,06,1","2,1,06,1",,"07,99,1,02,1,09,1,00450,1,07,1,99,9",,,"99999,9,10073,1","7,1,004,1,+999,9","02,1","SYN088AAXX  14121 01278 11485 71101 10001 21009 30073 40178 57004 6//// 70222 8297/ 333 4////;",
"01278099999","2010-02-14T18:00:00","4","63.7833333","11.6833333","83.0","VERDAL REPPE, NO","FM-12","99999","V020","140,1,N,0030,1","01500,1,9,N","030000,1,N,1","+0001,1","-0006,1","10148,1","12,0020,9,1",,,"7,1,06,1","2,1,06,1",,"08,99,1,08,1,00,1,01750,1,02,1,99,9",,"120,M,+0006,1","99999,9,10043,1","7,1,012,1,+999,9","02,1","SYN094AAXX  14181 01278 11780 81403 10001 21006 30043 40148 57012 60022 70272 8802/ 333 10006 4////;",
"01278099999","2010-02-15T06:00:00","4","63.7833333","11.6833333","83.0","VERDAL REPPE, NO","FM-12","99999","V020","999,9,C,0000,1","03000,1,9,N","025000,1,N,1","+0002,1","-0005,1","10111,1","12,0030,9,1","24,0053,9,1","0048,9,1,999999,9,9","8,1,06,1","2,1,06,1",,"07,99,1,04,1,06,1,00025,1,07,1,99,9","28,9","999,N,+0000,1","99999,9,10006,1","7,1,015,1,+999,9","41,1","SYN100AAXX  15061 01278 11075 70000 10002 21005 30006 40111 57015 60032 74182 8467/ 333 20000 44048 70054;",
"01278099999","2010-02-15T09:00:00","4","63.7833333","11.6833333","83.0","VERDAL REPPE, NO","FM-12","99999","V020","999,9,C,0000,1","22000,1,9,N","025000,1,N,1","+0001,1","-0006,1","10111,1",,,,"2,1,03,1","2,1,03,1",,"06,99,1,02,1,06,1,00075,1,00,1,01,1",,,"99999,9,10006,1","4,1,000,1,+999,9","41,1","SYN082AAXX  15091 01278 41175 60000 10001 21006 30006 40111 54000 74122 82601 333 4////;",
"01278099999","2010-02-15T12:00:00","4","63.7833333","11.6833333","83.0","VERDAL REPPE, NO","FM-12","99999","V020","999,9,C,0000,1","22000,1,9,N","055000,1,N,1","+0012,1","-0003,1","10103,1",,,,,,,"04,99,1,01,1,08,1,00450,1,03,1,08,1",,,"99999,9,09999,1","7,1,013,1,+999,9",,"SYN088AAXX  15121 01278 11485 40000 10012 21003 39999 40103 57013 6//// 7//22 81838 333 4////;",
"01278099999","2010-02-15T18:00:00","4","63.7833333","11.6833333","83.0","VERDAL REPPE, NO","FM-12","99999","V020","110,1,N,0030,1","22000,1,9,N","055000,1,N,1","-0014,1","+9999,9","10089,1","12,0000,9,1",,,"1,1,06,1","1,1,06,1",,"01,99,1,01,1,05,1,02250,1,00,1,01,1",,"120,M,+0016,1","99999,9,09985,1","7,1,001,1,+999,9","02,1","SYN094AAXX  15181 01278 11885 11103 11014 21256 39985 40089 57001 60002 70211 81501 333 10016 4////;","Q01-002563ATOD  Q02  00002PRCP12"
"01278099999","2010-02-16T06:00:00","4","63.7833333","11.6833333","83.0","VERDAL REPPE, NO","FM-12","99999","V020","110,1,N,0030,1","22000,1,9,N","055000,1,N,1","-0066,1","-0083,1","10088,1","12,0000,9,1","24,0000,9,1","0048,9,1,999999,9,9","0,1,06,1","0,1,06,1",,"01,99,1,01,1,05,1,02250,1,00,1,00,1","28,9","999,N,-0070,1","99999,9,09982,1","7,1,007,1,+999,9","02,1","SYN100AAXX  16061 01278 11885 11103 11066 21083 39982 40088 57007 60002 70200 81500 333 21070 44048 70000;","Q01  00002PRCP24Q02  00002PRCP12"
"01278099999","2010-02-16T09:00:00","4","63.7833333","11.6833333","83.0","VERDAL REPPE, NO","FM-12","99999","V020","110,1,N,0030,1","22000,1,9,N","055000,1,N,1","-0069,1","-0088,1","10089,1",,,,"0,1,03,1","0,1,03,1",,"02,99,1,02,1,05,1,02250,1,00,1,00,1",,,"99999,9,09983,1","4,1,000,1,+999,9","02,1","SYN082AAXX  16091 01278 41885 21103 11069 21088 39983 40089 54000 70200 82500 333 4////;",
"01278099999","2010-02-16T12:00:00","4","63.7833333","11.6833333","83.0","VERDAL REPPE, NO","FM-12","99999","V020","110,1,N,0030,1","22000,1,9,N","055000,1,N,1","-0037,1","-0068,1","10089,1",,,,"0,1,06,1","0,1,06,1",,"01,99,1,01,1,05,1,02250,1,00,1,00,1",,,"99999,9,09984,1","4,1,000,1,+999,9","02,1","SYN088AAXX  16121 01278 11885 11103 11037 21068 39984 40089 54000 6//// 70200 81500 333 4////;",
"01278099999","2010-02-16T18:00:00","4","63.7833333","11.6833333","83.0","VERDAL REPPE, NO","FM-12","99999","V020","140,1,N,0050,1","22000,1,9,N","075000,1,N,1","-0048,1","-0072,1","10085,1","12,0000,9,1",,,"0,1,06,1","0,1,06,1",,"02,99,1,02,1,08,1,01750,1,00,1,02,1",,"120,M,-0035,1","99999,9,09980,1","7,1,001,1,+999,9","02,1","SYN094AAXX  16181 01278 11789 21405 11048 21072 39980 40085 57001 60002 70200 82802 333 11035 4////;","Q01  00002PRCP12"
"01278099999","2010-02-17T06:00:00","4","63.7833333","11.6833333","83.0","VERDAL REPPE, NO","FM-12","99999","V020","110,1,N,0030,1","03000,1,9,N","055000,1,N,1","-0040,1","-0083,1","10075,1","12,0000,9,1","24,0000,9,1","0048,9,1,999999,9,9","1,1,06,1","1,1,06,1",,"07,99,1,01,1,04,1,01750,1,07,1,99,9","28,9","999,N,-0050,1","99999,9,09970,1","7,1,005,1,+999,9","02,1","SYN100AAXX  17061 01278 11785 71103 11040 21083 39970 40075 57005 60002 70211 8147/ 333 21050 44048 70000;","Q01  00002PRCP24Q02  00002PRCP12"
"01278099999","2010-02-17T09:00:00","4","63.7833333","11.6833333","83.0","VERDAL REPPE, NO","FM-12","99999","V020","120,1,N,0050,1","01200,1,9,N","055000,1,N,1","-0038,1","-0086,1","10076,1",,,,"2,1,03,1","2,1,03,1",,"07,99,1,06,1,05,1,01250,1,07,1,02,1",,,"99999,9,09970,1","4,1,000,1,+999,9","02,1","SYN082AAXX  17091 01278 41685 71205 11038 21086 39970 40076 54000 70222 86572 333 4////;",
"01278099999","2010-02-17T12:00:00","4","63.7833333","11.6833333","83.0","VERDAL REPPE, NO","FM-12","99999","V020","100,1,N,0050,1","99999,9,9,N","055000,1,N,1","-0033,1","-0085,1","10070,1",,,,"2,1,06,1","2,1,06,1",,"07,99,1,07,1,00,1,99999,9,07,1,99,9",,,"99999,9,09965,1","7,1,005,1,+999,9","02,1","SYN088AAXX  17121 01278 11985 71005 11033 21085 39965 40070 57005 6//// 70222 8707/ 333 4////;",
"01278099999","2010-02-17T18:00:00","4","63.7833333","11.6833333","83.0","VERDAL REPPE, NO","FM-12","99999","V020","100,1,N,0070,1","03000,1,9,N","075000,1,N,1","-0052,1","-0095,1","10071,1","12,0000,9,1",,,"2,1,06,1","2,1,06,1",,"06,99,1,01,1,04,1,01750,1,07,1,07,1",,"120,M,-0029,1","99999,9,09965,1","2,1,001,1,+999,9","02,1","SYN094AAXX  17181 01278 11789 61007 11052 21095 39965 40071 52001 60002 70222 81477 333 11029 4////;","Q01  00002PRCP12"
"01278099999","2010-02-18T06:00:00","4","63.7833333","11.6833333","83.0","VERDAL REPPE, NO","FM-12","99999","V020","120,1,N,0050,1","22000,1,9,N","055000,1,N,1","-0097,1","-0146,1","10073,1","12,0000,9,1","24,0000,9,1","0048,9,1,999999,9,9","1,1,06,1","1,1,06,1",,"01,99,1,01,1,04,1,01750,1,04,1,00,1","28,9","999,N,-0100,1","99999,9,09965,1","4,1,000,1,+999,9","02,1","SYN100AAXX  18061 01278 11785 11205 11097 21146 39965 40073 54000 60002 70211 81440 333 21100 44048 70000;","Q01  00002PRCP24Q02  00002PRCP12"
"01278099999","2010-02-18T09:00:00","4","63.7833333","11.6833333","83.0","VERDAL REPPE, NO","FM-12","99999","V020","120,1,N,0050,1","22000,1,9,N","055000,1,N,1","-0102,1","-0153,1","10075,1",,,,"0,1,03,1","0,1,03,1",,"01,99,1,00,1,00,1,99999,9,00,1,01,1",,,"99999,9,09967,1","2,1,002,1,+999,9","02,1","SYN082AAXX  18091 01278 41985 11205 11102 21153 39967 40075 52002 70200 80001 333 4////;",
"01278099999","2010-02-18T12:00:00","4","63.7833333","11.6833333","83.0","VERDAL REPPE, NO","FM-12","99999","V020","120,1,N,0070,1","22000,1,9,N","055000,1,N,1","-0082,1","-0143,1","10074,1",,,,"0,1,06,1","0,1,06,1",,"03,99,1,00,1,00,1,99999,9,00,1,01,1",,,"99999,9,09967,1","4,1,000,1,+999,9","02,1","SYN088AAXX  18121 01278 11985 31207 11082 21143 39967 40074 54000 6//// 70200 80001 333 4////;",
"01278099999","2010-02-18T18:00:00","4","63.7833333","11.6833333","83.0","VERDAL REPPE, NO","FM-12","99999","V020","100,1,N,0070,1","22000,1,9,N","055000,1,N,1","-0087,1","-0132,1","10064,1","12,0000,9,1",,,"0,1,06,1","0,1,06,1",,"02,99,1,00,1,00,1,99999,9,00,1,02,1",,"120,M,-0075,1","99999,9,09957,1","7,1,008,1,+999,9","02,1","SYN094AAXX  18181 01278 11985 21007 11087 21132 39957 40064 57008 60002 70200 80002 333 11075 4////;","Q01  00002PRCP12"
"01278099999","2010-02-19T06:00:00","4","63.7833333","11.6833333","83.0","VERDAL REPPE, NO","FM-12","99999","V020","130,1,N,0100,1","99999,9,9,N","055000,1,N,1","-0120,1","-0172,1","10060,1","12,0000,9,1","24,0000,9,1","0047,9,1,999999,9,9","1,1,06,1","1,1,06,1",,"07,99,1,07,1,00,1,99999,9,07,1,99,9","28,9","999,N,-0120,1","99999,9,09952,1","7,1,002,1,+999,9","02,1","SYN100AAXX  19061 01278 11985 71310 11120 21172 39952 40060 57002 60002 70211 8707/ 333 21120 44047 70000;","Q01  00002PRCP24Q02  00002PRCP12"
"01278099999","2010-02-19T09:00:00","4","63.7833333","11.6833333","83.0","VERDAL REPPE, NO","FM-12","99999","V020","110,1,N,0100,1","03000,1,9,N","055000,1,N,1","-0122,1","-0179,1","10060,1",,,,"2,1,03,1","2,1,03,1",,"08,99,1,01,1,01,1,01750,1,07,1,01,1",,,"99999,9,09952,1","4,1,000,1,+999,9","02,1","SYN082AAXX  19091 01278 41785 81110 11122 21179 39952 40060 54000 70222 81171 333 4////;",
"01278099999","2010-02-19T12:00:00","4","63.7833333","11.6833333","83.0","VERDAL REPPE, NO","FM-12","99999","V020","110,1,N,0100,1","99999,9,9,N","055000,1,N,1","-0114,1","-0172,1","10066,1",,,,"2,1,06,1","2,1,06,1",,"08,99,1,08,1,00,1,99999,9,07,1,99,9",,,"99999,9,09957,1","2,1,005,1,+999,9","02,1","SYN088AAXX  19121 01278 11985 81110 11114 21172 39957 40066 52005 6//// 70222 8807/ 333 4////;",
"01278099999","2010-02-19T18:00:00","4","63.7833333","11.6833333","83.0","VERDAL REPPE, NO","FM-12","99999","V020","130,1,N,0100,1","99999,9,9,N","055000,1,N,1","-0125,1","-0182,1","10065,1","12,0000,9,1",,,"2,1,06,1","2,1,06,1",,"07,99,1,07,1,00,1,99999,9,07,1,99,9",,"120,M,-0110,1","99999,9,09957,1","4,1,000,1,+999,9","02,1","SYN094AAXX  19181 01278 11985 71310 11125 21182 39957 40065 54000 60002 70222 8707/ 333 11110 4////;","Q01  00002PRCP12"
"01278099999","2010-02-20T06:00:00","4","63.7833333","11.6833333","83.0","VERDAL REPPE, NO","FM-12","99999","V020","130,1,N,0070,1","99999,9,9,N","055000,1,N,1","-0141,1","-0196,1","10064,1","12,0000,9,1","24,0000,9,1","0047,9,1,999999,9,9","2,1,06,1","2,1,06,1",,"08,99,1,08,1,00,1,99999,9,07,1,99,9","28,9","999,N,-0144,1","99999,9,09954,1","5,1,004,1,+999,9","02,1","SYN100AAXX  20061 01278 11985 81307 11141 21196 39954 40064 55004 60002 70222 8807/ 333 21144 44047 70000;","Q01  00002PRCP24Q02  00002PRCP12"
"01278099999","2010-02-20T09:00:00","4","63.7833333","11.6833333","83.0","VERDAL REPPE, NO","FM-12","99999","V020","120,1,N,0100,1","03000,1,9,N","055000,1,N,1","-0147,1","-0205,1","10070,1",,,,"2,1,03,1","2,1,03,1",,"07,99,1,01,1,01,1,01750,1,07,1,99,9",,,"99999,9,09960,1","2,1,006,1,+999,9","02,1","SYN082AAXX  20091 01278 41785 71210 11147 21205 39960 40070 52006 70222 8117/ 333 4////;",
"01278099999","2010-02-20T12:00:00","4","63.7833333","11.6833333","83.0","VERDAL REPPE, NO","FM-12","99999","V020","100,1,N,0100,1","07500,1,9,N","055000,1,N,1","-0141,1","-0210,1","10068,1",,,,"2,1,06,1","2,1,06,1",,"05,99,1,02,1,08,1,01750,1,07,1,01,1",,,"99999,9,09959,1","4,1,000,1,+999,9","02,1","SYN088AAXX  20121 01278 11785 51010 11141 21210 39959 40068 54000 6//// 70222 82871 333 4////;",
"01278099999","2010-02-20T18:00:00","4","63.7833333","11.6833333","83.0","VERDAL REPPE, NO","FM-12","99999","V020","120,1,N,0190,1","22000,1,9,N","055000,1,N,1","-0146,1","-0204,1","10060,1","12,0000,9,1",,,"2,1,06,1","2,1,06,1",,"04,99,1,02,1,00,1,02250,1,07,1,02,1",,"120,M,-0136,1","99999,9,09950,1","7,1,008,1,+999,9","02,1","SYN094AAXX  20181 01278 11885 41219 11146 21204 39950 40060 57008 60002 70222 82072 333 11136 4////;","Q01  00002PRCP12"
"01278099999","2010-02-21T06:00:00","4","63.7833333","11.6833333","83.0","VERDAL REPPE, NO","FM-12","99999","V020","090,1,N,0070,1","02100,1,9,N","055000,1,N,1","-0156,1","-0225,1","10063,1","12,0000,9,1","24,0000,9,1","0045,9,1,999999,9,9","2,1,06,1","2,1,06,1",,"08,99,1,08,1,00,1,02250,1,02,1,99,9","28,9","999,N,-0156,1","99999,9,09953,1","2,1,007,1,+999,9","03,1","SYN100AAXX  21061 01278 11885 80907 11156 21225 39953 40063 52007 60002 70322 8802/ 333 21156 44045 70000;","Q01  00002PRCP24Q02  00002PRCP12"
"01278099999","2010-02-21T09:00:00","4","63.7833333","11.6833333","83.0","VERDAL REPPE, NO","FM-12","99999","V020","120,1,N,0070,1","99999,9,9,N","075000,1,N,1","+9999,9","+9999,9","10052,1",,,,"2,1,03,1","2,1,03,1",,"08,99,1,08,1,00,1,99999,9,07,1,99,9",,,"99999,9,09954,1","4,1,000,1,+999,9","02,1","SYN082AAXX  21091 01278 41989 81207 1//// 2//// 39954 40052 54000 70222 8807/ 333 4////;",
"01278099999","2010-02-21T12:00:00","4","63.7833333","11.6833333","83.0","VERDAL REPPE, NO","FM-12","99999","V020","120,1,N,0050,1","99999,9,9,N","055000,1,N,1","-0151,1","-0218,1","10056,1",,,,"2,1,06,1","2,1,06,1",,"08,99,1,07,1,00,1,99999,9,07,1,01,1",,,"99999,9,09946,1","7,1,006,1,+999,9","02,1","SYN088AAXX  21121 01278 11985 81205 11151 21218 39946 40056 57006 6//// 70222 87071 333 4////;",
"01278099999","2010-02-21T18:00:00","4","63.7833333","11.6833333","83.0","VERDAL REPPE, NO","FM-12","99999","V020","110,1,N,0050,1","99999,9,9,N","020000,1,N,1","-0147,1","-0208,1","10020,1","12,0000,9,1",,,"7,1,06,1","2,1,06,1",,"08,99,1,08,1,00,1,99999,9,02,1,99,9",,"120,M,-0145,1","99999,9,09911,1","7,1,012,1,+999,9","15,1","SYN094AAXX  21181 01278 11970 81105 11147 21208 39911 40020 57012 69902 71572 8802/ 333 11145 4////;","Q01  00002PRCP12"
"01278099999","2010-02-22T06:00:00","4","63.7833333","11.6833333","83.0","VERDAL REPPE, NO","FM-12","99999","V020","100,1,N,0050,1","22000,1,9,N","055000,1,N,1","-0201,1","-0258,1","09993,1","12,0000,9,1","24,0000,9,1","0045,9,1,999999,9,9","1,1,06,1","1,1,06,1",,"01,99,1,01,1,04,1,01750,1,00,1,00,1","28,9","999,N,-0205,1","99999,9,09882,1","7,1,008,1,+999,9","02,1","SYN100AAXX  22061 01278 11785 11005 11201 21258 39882 49993 57008 60002 70211 81400 333 21205 44045 70000;","Q01  00002PRCP24Q02  00002PRCP12"
"01278099999","2010-02-22T09:00:00","4","63.7833333","11.6833333","83.0","VERDAL REPPE, NO","FM-12","99999","V020","110,1,N,0050,1","22000,1,9,N","055000,1,N,1","-0198,1","-0257,1","09993,1",,,,"0,1,03,1","0,1,03,1",,"01,99,1,01,1,01,1,01250,1,00,1,00,1",,,"99999,9,09882,1","4,1,000,1,+999,9","02,1","SYN082AAXX  22091 01278 41685 11105 11198 21257 39882 49993 54000 70200 81100 333 4////;",
"01278099999","2010-02-22T12:00:00","4","63.7833333","11.6833333","83.0","VERDAL REPPE, NO","FM-12","99999","V020","110,1,N,0050,1","22000,1,9,N","055000,1,N,1","-0181,1","-0248,1","09992,1",,,,"0,1,06,1","0,1,06,1",,"01,99,1,01,1,09,1,01250,1,00,1,00,1",,,"99999,9,09881,1","4,1,000,1,+999,9","02,1","SYN088AAXX  22121 01278 11685 11105 11181 21248 39881 49992 54000 6//// 70200 81900 333 4////;",
"01278099999","2010-02-22T18:00:00","4","63.7833333","11.6833333","83.0","VERDAL REPPE, NO","FM-12","99999","V020","110,1,N,0050,1","22000,1,9,N","055000,1,N,1","-0195,1","-0251,1","09993,1","12,0000,9,1",,,"0,1,06,1","0,1,06,1",,"01,99,1,01,1,08,1,01250,1,00,1,00,1",,"120,M,-0175,1","99999,9,09883,1","2,1,007,1,+999,9","02,1","SYN094AAXX  22181 01278 11685 11105 11195 21251 39883 49993 52007 60002 70200 81800 333 11175 4////;","Q01  00002PRCP12"
"01278099999","2010-02-23T06:00:00","4","63.7833333","11.6833333","83.0","VERDAL REPPE, NO","FM-12","99999","V020","120,1,N,0030,1","22000,1,9,N","055000,1,N,1","-0213,1","-0260,1","09988,1","12,0000,9,1","24,0000,9,1","0045,9,1,999999,9,9","0,1,06,1","0,1,06,1",,"01,99,1,00,1,00,1,99999,9,00,1,02,1","28,9","999,N,-0222,1","99999,9,09876,1","7,1,002,1,+999,9","02,1","SYN100AAXX  23061 01278 11985 11203 11213 21260 39876 49988 57002 60002 70200 80002 333 21222 44045 70000;","Q01  00002PRCP24Q02  00002PRCP12"
"01278099999","2010-02-23T09:00:00","4","63.7833333","11.6833333","83.0","VERDAL REPPE, NO","FM-12","99999","V020","120,1,N,0050,1","22000,1,9,N","055000,1,N,1","-0186,1","-0249,1","09992,1",,,,"0,1,03,1","0,1,03,1",,"01,99,1,01,1,08,1,00800,1,00,1,02,1",,,"99999,9,09881,1","2,1,005,1,+999,9","02,1","SYN082AAXX  23091 01278 41585 11205 11186 21249 39881 49992 52005 70200 81802 333 4////;",
"01278099999","2010-02-23T12:00:00","4","63.7833333","11.6833333","83.0","VERDAL REPPE, NO","FM-12","99999","V020","120,1,N,0050,1","22000,1,9,N","055000,1,N,1","-0166,1","-0238,1","09989,1",,,,"0,1,06,1","0,1,06,1",,"01,99,1,01,1,08,1,00800,1,00,1,00,1",,,"99999,9,09879,1","4,1,000,1,+999,9","02,1","SYN088AAXX  23121 01278 11585 11205 11166 21238 39879 49989 54000 6//// 70200 81800 333 4////;",
"01278099999","2010-02-23T18:00:00","4","63.7833333","11.6833333","83.0","VERDAL REPPE, NO","FM-12","99999","V020","140,1,N,0030,1","22000,1,9,N","055000,1,N,1","-0193,1","-0242,1","10003,1","12,0000,9,1",,,"0,1,06,1","0,1,06,1",,"01,99,1,00,1,00,1,99999,9,00,1,05,1",,"120,M,-0162,1","99999,9,09892,1","2,1,010,1,+999,9","02,1","SYN094AAXX  23181 01278 11985 11403 11193 21242 39892 40003 52010 60002 70200 80005 333 11162 4////;","Q01  00002PRCP12"
"01278099999","2010-02-24T06:00:00","4","63.7833333","11.6833333","83.0","VERDAL REPPE, NO","FM-12","99999","V020","130,1,N,0030,1","02100,1,9,N","055000,1,N,1","-0198,1","-0247,1","09995,1","12,0000,9,1","24,0000,9,1","0045,9,1,999999,9,9","1,1,06,1","1,1,06,1",,"08,99,1,08,1,00,1,02250,1,02,1,99,9","28,9","999,N,-0225,1","99999,9,09884,1","7,1,015,1,+999,9","15,1","SYN100AAXX  24061 01278 11885 81303 11198 21247 39884 49995 57015 60002 71511 8802/ 333 21225 44045 70000;","Q01  00002PRCP24Q02  00002PRCP12"
"01278099999","2010-02-24T09:00:00","4","63.7833333","11.6833333","83.0","VERDAL REPPE, NO","FM-12","99999","V020","150,1,N,0050,1","99999,9,9,N","999999,9,N,1","-0166,1","-0185,1","09983,1",,,,"7,1,03,1","2,1,03,1","09,1,+99999,9,99,9","09,99,1,09,1,99,9,99999,9,99,9,99,9",,,"99999,9,09874,1","7,1,010,1,+999,9","71,1","SYN076AAXX  24091 01278 41/// 91505 11166 21185 39874 49983 57010 77172 333 4////;",
"01278099999","2010-02-24T12:00:00","4","63.7833333","11.6833333","83.0","VERDAL REPPE, NO","FM-12","99999","V020","330,1,N,0010,1","00240,1,9,N","002500,1,N,1","-0117,1","-0138,1","09988,1",,,,"7,1,06,1","2,1,06,1","09,1,+99999,9,99,9","09,99,1,09,1,99,9,99999,9,99,9,99,9",,,"99999,9,09880,1","2,1,008,1,+999,9","70,1","SYN082AAXX  24121 01278 11/25 93301 11117 21138 39880 49988 52008 6//// 77072 333 4////;",
"01278099999","2010-02-24T18:00:00","4","63.7833333","11.6833333","83.0","VERDAL REPPE, NO","FM-12","99999","V020","150,1,N,0030,1","01200,1,9,N","030000,1,N,1","-0080,1","-0092,1","10016,1","12,0030,9,1",,,"8,1,06,1","7,1,06,1",,"05,99,1,05,1,09,1,01250,1,99,9,99,9",,"120,M,-0076,1","99999,9,09910,1","2,1,015,1,+999,9","15,1","SYN094AAXX  24181 01278 11680 51503 11080 21092 39910 40016 52015 60032 71587 859// 333 11076 4////;",
"01278099999","2010-02-25T06:00:00","4","63.7833333","11.6833333","83.0","VERDAL REPPE, NO","FM-12","99999","V020","110,1,N,0010,1","22000,1,9,N","055000,1,N,1","-0079,1","-0091,1","10033,1","12,0000,9,1","24,0025,9,1","0048,9,1,999999,9,9","1,1,06,1","1,1,06,1",,"01,99,1,01,1,04,1,01750,1,00,1,02,1","24,9","999,N,-0090,1","99999,9,09926,1","7,1,005,1,+999,9","02,1","SYN100AAXX  25061 01278 11785 11101 11079 21091 39926 40033 57005 60002 70211 81402 333 21090 48048 70026;","Q01  00002PRCP12"
"01278099999","2010-02-25T09:00:00","4","63.7833333","11.6833333","83.0","VERDAL REPPE, NO","FM-12","99999","V020","140,1,N,0050,1","03000,1,9,N","075000,1,N,1","-0092,1","-0112,1","10037,1",,,,"1,1,03,1","1,1,03,1",,"06,99,1,03,1,05,1,01750,1,07,1,02,1",,,"99999,9,09930,1","2,1,004,1,+999,9","03,1","SYN082AAXX  25091 01278 41789 61405 11092 21112 39930 40037 52004 70311 83572 333 4////;",
"01278099999","2010-02-25T12:00:00","4","63.7833333","11.6833333","83.0","VERDAL REPPE, NO","FM-12","99999","V020","110,1,N,0010,1","22000,1,9,N","075000,1,N,1","-0049,1","-0095,1","10039,1",,,,"1,1,06,1","1,1,06,1",,"04,99,1,00,1,00,1,99999,9,00,1,01,1",,,"99999,9,09934,1","2,1,005,1,+999,9","01,1","SYN088AAXX  25121 01278 11989 41101 11049 21095 39934 40039 52005 6//// 70111 80001 333 4////;",
"01278099999","2010-02-25T18:00:00","4","63.7833333","11.6833333","83.0","VERDAL REPPE, NO","FM-12","99999","V020","120,1,N,0050,1","22000,1,9,N","075000,1,N,1","-0042,1","-0111,1","10027,1","12,0000,9,1",,,"0,1,06,1","0,1,06,1",,"01,99,1,00,1,00,1,99999,9,00,1,08,1",,"120,M,-0012,1","99999,9,09922,1","7,1,010,1,+999,9","02,1","SYN094AAXX  25181 01278 11989 11205 11042 21111 39922 40027 57010 60002 70200 80008 333 11012 4////;","Q01  00002PRCP12"
"01278099999","2010-02-26T06:00:00","4","63.7833333","11.6833333","83.0","VERDAL REPPE, NO","FM-12","99999","V020","130,1,N,0030,1","01200,1,9,N","010000,1,N,1","-0058,1","-0094,1","09990,1","12,9999,9,9","24,9999,9,9","0048,9,1,999999,9,9","7,1,06,1","1,1,06,1",,"08,99,1,08,1,00,1,01250,1,02,1,99,9","24,9","999,N,-0078,1","99999,9,09885,1","7,1,018,1,+999,9","70,1","SYN100AAXX  26061 01278 11660 81303 11058 21094 39885 49990 57018 69902 77071 8802/ 333 21078 48048 70000;","Q01  00002PRCP24Q02  00002PRCP12Q03  00002PRCP12Q04  00002PRCP24"
"01278099999","2010-02-26T09:00:00","4","63.7833333","11.6833333","83.0","VERDAL REPPE, NO","FM-12","99999","V020","110,1,N,0050,1","01500,1,9,N","010000,1,N,1","-0058,1","-0084,1","09988,1",,,,"7,1,03,1","7,1,03,1",,"08,99,1,08,1,00,1,01750,1,02,1,99,9",,,"99999,9,09883,1","7,1,002,1,+999,9","71,1","SYN082AAXX  26091 01278 41760 81105 11058 21084 39883 49988 57002 77177 8802/ 333 4////;",
"01278099999","2010-02-26T12:00:00","4","63.7833333","11.6833333","83.0","VERDAL REPPE, NO","FM-12","99999","V020","110,1,N,0050,1","00240,1,9,N","004000,1,N,1","-0049,1","-0076,1","09982,1",,,,"7,1,06,1","7,1,06,1","09,1,+99999,9,99,9","09,99,1,09,1,99,9,99999,9,99,9,99,9",,,"99999,9,09877,1","7,1,006,1,+999,9","71,1","SYN082AAXX  26121 01278 11/40 91105 11049 21076 39877 49982 57006 6//// 77177 333 4////;",
"01278099999","2010-02-26T18:00:00","4","63.7833333","11.6833333","83.0","VERDAL REPPE, NO","FM-12","99999","V020","130,1,N,0010,1","99999,9,9,N","030000,1,N,1","-0047,1","-0071,1","09977,1","12,0008,9,1",,,"7,1,06,1","2,1,06,1",,"07,99,1,07,1,00,1,99999,9,07,1,99,9",,"120,M,-0030,1","99999,9,09872,1","2,1,001,1,+999,9","15,1","SYN094AAXX  26181 01278 11980 71301 11047 21071 39872 49977 52001 69972 71572 8707/ 333 11030 4////;",
"01278099999","2010-02-27T06:00:00","4","63.7833333","11.6833333","83.0","VERDAL REPPE, NO","FM-12","99999","V020","110,1,N,0030,1","01200,1,9,N","055000,1,N,1","-0058,1","-0079,1","09996,1","12,0000,9,1","24,0008,9,1","0045,9,1,999999,9,9","2,1,06,1","2,1,06,1",,"08,99,1,08,1,05,1,01250,1,99,9,99,9","24,9","999,N,-0065,1","99999,9,09891,1","2,1,005,1,+999,9","02,1","SYN100AAXX  27061 01278 11685 81103 11058 21079 39891 49996 52005 60002 70222 885// 333 21065 48045 70007;","Q01  00002PRCP12"
"01278099999","2010-02-27T09:00:00","4","63.7833333","11.6833333","83.0","VERDAL REPPE, NO","FM-12","99999","V020","130,1,N,0030,1","22000,1,9,N","075000,1,N,1","-0054,1","-0081,1","10005,1",,,,"2,1,03,1","2,1,03,1",,"04,99,1,04,1,05,1,01750,1,00,1,00,1",,,"99999,9,09900,1","2,1,009,1,+999,9","01,1","SYN082AAXX  27091 01278 41789 41303 11054 21081 39900 40005 52009 70122 84500 333 4////;",
"01278099999","2010-02-27T12:00:00","4","63.7833333","11.6833333","83.0","VERDAL REPPE, NO","FM-12","99999","V020","130,1,N,0030,1","22000,1,9,N","075000,1,N,1","-0016,1","-0070,1","10003,1",,,,"1,1,06,1","1,1,06,1",,"01,99,1,01,1,05,1,01750,1,00,1,02,1",,,"99999,9,09899,1","2,1,001,1,+999,9","02,1","SYN088AAXX  27121 01278 11789 11303 11016 21070 39899 40003 52001 6//// 70211 81502 333 4////;",
"01278099999","2010-02-27T18:00:00","4","63.7833333","11.6833333","83.0","VERDAL REPPE, NO","FM-12","99999","V020","120,1,N,0030,1","01500,1,9,N","055000,1,N,1","-0017,1","-0073,1","10002,1","12,0000,9,1",,,"1,1,06,1","1,1,06,1",,"07,99,1,07,1,05,1,01750,1,99,9,99,9",,"120,M,+0004,1","99999,9,09899,1","4,1,000,1,+999,9","02,1","SYN094AAXX  27181 01278 11785 71203 11017 21073 39899 40002 54000 60002 70211 875// 333 10004 4////;","Q01  00002PRCP12"
"01278099999","2010-02-28T06:00:00","4","63.7833333","11.6833333","83.0","VERDAL REPPE, NO","FM-12","99999","V020","120,1,N,0010,1","99999,9,9,N","055000,1,N,1","-0063,1","-0089,1","09978,1","12,0000,9,1","24,0000,9,1","0045,9,1,999999,9,9","1,1,06,1","1,1,06,1",,"06,99,1,06,1,00,1,99999,9,07,1,99,9","24,9","999,N,-0076,1","99999,9,09872,1","7,1,010,1,+999,9","02,1","SYN100AAXX  28061 01278 11985 61201 11063 21089 39872 49978 57010 60002 70211 8607/ 333 21076 48045 70000;","Q01  00002PRCP24Q02  00002PRCP12"
"01278099999","2010-02-28T09:00:00","4","63.7833333","11.6833333","83.0","VERDAL REPPE, NO","FM-12","99999","V020","140,1,N,0030,1","22000,1,9,N","055000,1,N,1","-0072,1","-0097,1","09971,1",,,,"1,1,03,1","1,1,03,1",,"03,99,1,03,1,00,1,99999,9,07,1,01,1",,,"99999,9,09865,1","7,1,007,1,+999,9","01,1","SYN082AAXX  28091 01278 41985 31403 11072 21097 39865 49971 57007 70111 83071 333 4////;",
"01278099999","2010-02-28T12:00:00","4","63.7833333","11.6833333","83.0","VERDAL REPPE, NO","FM-12","99999","V020","280,1,N,0010,1","22000,1,9,N","055000,1,N,1","-0034,1","-0089,1","09967,1",,,,"1,1,06,1","1,1,06,1",,"04,99,1,01,1,04,1,01250,1,03,1,00,1",,,"99999,9,09863,1","7,1,002,1,+999,9","02,1","SYN088AAXX  28121 01278 11685 42801 11034 21089 39863 49967 57002 6//// 70211 81430 333 4////;",
"01278099999","2010-02-28T18:00:00","4","63.7833333","11.6833333","83.0","VERDAL REPPE, NO","FM-12","99999","V020","150,1,N,0010,1","22000,1,9,N","055000,1,N,1","-0060,1","-0093,1","09960,1","12,0000,9,1",,,"0,1,06,1","0,1,06,1",,"04,99,1,01,1,04,1,01750,1,00,1,01,1",,"120,M,-0015,1","99999,9,09855,1","4,1,000,1,+999,9","02,1","SYN094AAXX  28181 01278 11785 41501 11060 21093 39855 49960 54000 60002 70200 81401 333 11015 4////;","Q01  00002PRCP12"
"01278099999","2010-03-01T06:00:00","4","63.7833333","11.6833333","83.0","VERDAL REPPE, NO","FM-12","99999","V020","120,1,N,0050,1","03000,1,9,N","015000,1,N,1","-0082,1","-0104,1","09968,1","12,9999,9,9","24,9999,9,9","0045,9,1,999999,9,9","7,1,06,1","2,1,06,1",,"08,99,1,01,1,06,1,00250,1,02,1,99,9","24,9","999,N,-0122,1","99999,9,09862,1","2,1,006,1,+999,9","70,1","SYN100AAXX  01061 01278 11365 81205 11082 21104 39862 49968 52006 69902 77072 8162/ 333 21122 48045 70000;","Q01  00002PRCP24Q02  00002PRCP12Q03  00002PRCP12Q04  00002PRCP24"
"01278099999","2010-03-01T09:00:00","4","63.7833333","11.6833333","83.0","VERDAL REPPE, NO","FM-12","99999","V020","150,1,N,0010,1","00240,1,9,N","004000,1,N,1","-0072,1","-0089,1","09979,1",,,,"7,1,03,1","7,1,03,1","09,1,+99999,9,99,9","09,99,1,09,1,99,9,99999,9,99,9,99,9",,,"99999,9,09874,1","2,1,012,1,+999,9","70,1","SYN076AAXX  01091 01278 41/40 91501 11072 21089 39874 49979 52012 77077 333 4////;",
"01278099999","2010-03-01T12:00:00","4","63.7833333","11.6833333","83.0","VERDAL REPPE, NO","FM-12","99999","V020","330,1,N,0050,1","00900,1,9,N","055000,1,N,1","-0048,1","-0081,1","09981,1",,,,"7,1,06,1","2,1,06,1",,"07,99,1,07,1,08,1,00450,1,99,9,99,9",,,"99999,9,09877,1","2,1,003,1,+999,9","02,1","SYN088AAXX  01121 01278 11485 73305 11048 21081 39877 49981 52003 6//// 70272 878// 333 4////;",
"01278099999","2010-03-01T18:00:00","4","63.7833333","11.6833333","83.0","VERDAL REPPE, NO","FM-12","99999","V020","320,1,N,0010,1","22000,1,9,N","055000,1,N,1","-0068,1","-0109,1","10014,1","12,0003,9,1",,,"1,1,06,1","1,1,06,1",,"01,99,1,01,1,08,1,01250,1,00,1,02,1",,"120,M,-0042,1","99999,9,09908,1","2,1,022,1,+999,9","02,1","SYN094AAXX  01181 01278 11685 13201 11068 21109 39908 40014 52022 69932 70211 81802 333 11042 4////;",
"01278099999","2010-03-02T06:00:00","4","63.7833333","11.6833333","83.0","VERDAL REPPE, NO","FM-12","99999","V020","120,1,N,0030,1","22000,1,9,N","055000,1,N,1","-0153,1","-0170,1","10063,1","12,0000,9,1","24,0003,9,1","0045,9,1,999999,9,9","0,1,06,1","0,1,06,1",,"01,99,1,01,1,08,1,00450,1,00,1,00,1","24,9","999,N,-0164,1","99999,9,09954,1","2,1,003,1,+999,9","02,1","SYN100AAXX  02061 01278 11485 11203 11153 21170 39954 40063 52003 60002 70200 81800 333 21164 48045 70003;","Q01  00002PRCP12"
"01278099999","2010-03-02T09:00:00","4","63.7833333","11.6833333","83.0","VERDAL REPPE, NO","FM-12","99999","V020","130,1,N,0050,1","00420,1,9,N","010000,1,N,1","-0089,1","-0111,1","10074,1",,,,"8,1,03,1","1,1,03,1",,"07,99,1,06,1,09,1,00450,1,07,1,99,9",,,"99999,9,09966,1","2,1,012,1,+999,9","85,1","SYN082AAXX  02091 01278 41460 71305 11089 21111 39966 40074 52012 78581 8697/ 333 4////;",
"01278099999","2010-03-02T12:00:00","4","63.7833333","11.6833333","83.0","VERDAL REPPE, NO","FM-12","99999","V020","150,1,N,0010,1","00420,1,9,N","010000,1,N,1","-0048,1","-0072,1","10071,1",,,,"8,1,06,1","2,1,06,1",,"07,99,1,06,1,09,1,00450,1,06,1,99,9",,,"99999,9,09965,1","7,1,001,1,+999,9","85,1","SYN088AAXX  02121 01278 11460 71501 11048 21072 39965 40071 57001 6//// 78582 8696/ 333 4////;",
"01278099999","2010-03-02T18:00:00","4","63.7833333","11.6833333","83.0","VERDAL REPPE, NO","FM-12","99999","V020","999,9,C,0000,1","00900,1,9,N","030000,1,N,1","-0040,1","-0065,1","10081,1","12,0000,2,1",,,"8,1,06,1","2,1,06,1",,"07,99,1,07,1,08,1,00450,1,99,9,99,9",,"120,M,-0031,1","99999,9,09975,1","2,1,015,1,+999,9","02,1","SYN094AAXX  02181 01278 11480 70000 11040 21065 39975 40081 52015 69912 70282 878// 333 11031 4////;",
"01278099999","2010-03-03T06:00:00","4","63.7833333","11.6833333","83.0","VERDAL REPPE, NO","FM-12","99999","V020","140,1,N,0030,1","00120,1,9,N","001500,1,N,1","-0127,1","-0144,1","10140,1","12,0030,9,2","24,0028,9,2","0046,9,1,999999,9,9","8,1,06,1","1,1,06,1","09,1,+99999,9,99,9","09,99,1,09,1,99,9,99999,9,99,9,99,9","24,9","999,N,-0167,1","99999,9,10031,1","7,1,001,1,+999,9","85,1","SYN094AAXX  03061 01278 11/15 91403 11127 21144 30031 40140 57001 60032 78581 333 21167 48046 70028;",
"01278099999","2010-03-03T09:00:00","4","63.7833333","11.6833333","83.0","VERDAL REPPE, NO","FM-12","99999","V020","110,1,N,0030,1","00210,1,9,N","030000,1,N,1","-0084,1","-0095,1","10143,1",,,,"8,1,03,1","2,1,03,1",,"07,99,1,07,1,09,1,00250,1,99,9,99,9",,,"99999,9,10035,1","2,1,004,1,+999,9","02,1","SYN082AAXX  03091 01278 41380 71103 11084 21095 30035 40143 52004 70282 879// 333 4////;",
"01278099999","2010-03-03T12:00:00","4","63.7833333","11.6833333","83.0","VERDAL REPPE, NO","FM-12","99999","V020","280,1,N,0010,1","22000,1,9,N","055000,1,N,1","-0024,1","-0073,1","10163,1",,,,"8,1,06,1","1,1,06,1",,"01,99,1,01,1,08,1,00800,1,00,1,02,1",,,"99999,9,10057,1","2,1,022,1,+999,9","02,1","SYN088AAXX  03121 01278 11585 12801 11024 21073 30057 40163 52022 6//// 70281 81802 333 4////;",
"01278099999","2010-03-03T18:00:00","4","63.7833333","11.6833333","83.0","VERDAL REPPE, NO","FM-12","99999","V020","999,9,C,0000,1","03000,1,C,N","055000,1,N,1","-0054,1","-0086,1","10179,1","12,0000,2,1",,,"1,1,06,1","1,1,06,1",,"06,99,1,01,1,08,1,01750,1,07,1,99,9",,"120,M,-0014,1","99999,9,10072,1","2,1,007,1,+999,9","02,1","SYN094AAXX  03181 01278 11785 60000 11054 21086 30072 40179 52007 69902 70211 8187/ 333 11014 4////;",
"01278099999","2010-03-04T06:00:00","4","63.7833333","11.6833333","83.0","VERDAL REPPE, NO","FM-12","99999","V020","120,1,N,0050,1","00120,1,9,N","030000,1,N,1","-0164,1","-0186,1","10227,1","12,0000,9,1","24,0000,2,1","0044,9,1,999999,9,9","1,1,06,1","1,1,06,1",,"08,99,1,08,1,06,1,00150,1,99,9,99,9","24,9","999,N,-0176,1","99999,9,10115,1","2,1,010,1,+999,9","02,1","SYN100AAXX  04061 01278 11280 81205 11164 21186 30115 40227 52010 60002 70211 886// 333 21176 48044 70000;","Q01  00002PRCP12"
"01278099999","2010-03-04T09:00:00","4","63.7833333","11.6833333","83.0","VERDAL REPPE, NO","FM-12","99999","V020","120,1,N,0050,1","00030,1,9,N","004000,1,N,1","-0150,1","-0177,1","10234,1",,,,"2,1,03,1","2,1,03,1",,"07,99,1,07,1,06,1,00025,1,99,9,99,9",,,"99999,9,10123,1","2,1,007,1,+999,9","40,1","SYN082AAXX  04091 01278 41040 71205 11150 21177 30123 40234 52007 74022 876// 333 4////;",
"01278099999","2010-03-04T12:00:00","4","63.7833333","11.6833333","83.0","VERDAL REPPE, NO","FM-12","99999","V020","999,9,C,0000,1","01200,1,9,N","020000,1,N,1","-0059,1","-0091,1","10234,1",,,,"8,1,06,1","2,1,06,1",,"07,99,1,07,1,08,1,00800,1,99,9,99,9",,,"99999,9,10126,1","2,1,003,1,+999,9","02,1","SYN088AAXX  04121 01278 11570 70000 11059 21091 30126 40234 52003 6//// 70282 878// 333 4////;",
"01278099999","2010-03-04T18:00:00","4","63.7833333","11.6833333","83.0","VERDAL REPPE, NO","FM-12","99999","V020","150,1,N,0010,1","00420,1,9,N","025000,1,N,1","-0044,1","-0064,1","10227,1","12,0000,9,1",,,"2,1,06,1","2,1,06,1",,"07,99,1,07,1,06,1,00450,1,99,9,99,9",,"120,M,-0035,1","99999,9,10120,1","7,1,001,1,+999,9","02,1","SYN094AAXX  04181 01278 11475 71501 11044 21064 30120 40227 57001 69902 70222 876// 333 11035 4////;","Q01  00002PRCP12"
"01278099999","2010-03-05T06:00:00","4","63.7833333","11.6833333","83.0","VERDAL REPPE, NO","FM-12","99999","V020","130,1,N,0050,1","22000,1,9,N","075000,1,N,1","-0123,1","-0145,1","10164,1","12,0000,9,1","24,0000,9,1","0042,9,1,999999,9,9","1,1,06,1","1,1,06,1","00,1,+99999,9,99,9","00,99,1,00,1,00,1,99999,9,00,1,00,1","24,9","999,N,-0125,1","99999,9,10054,1","7,1,030,1,+999,9","02,1","SYN094AAXX  05061 01278 11989 01305 11123 21145 30054 40164 57030 60002 70211 333 21125 48042 70000;","Q01  00002PRCP24Q02  00002PRCP12"
"01278099999","2010-03-05T12:00:00","4","63.7833333","11.6833333","83.0","VERDAL REPPE, NO","FM-12","99999","V020","140,1,N,0030,1","22000,1,9,N","075000,1,N,1","-0034,1","-0130,1","10159,1",,,,"0,1,06,1","0,1,06,1","00,1,+99999,9,99,9","00,99,1,00,1,00,1,99999,9,00,1,00,1",,,"99999,9,10053,1","2,1,010,1,+999,9","02,1","SYN082AAXX  05121 01278 11989 01403 11034 21130 30053 40159 52010 6//// 70200 333 4////;",
"01278099999","2010-03-05T18:00:00","4","63.7833333","11.6833333","83.0","VERDAL REPPE, NO","FM-12","99999","V020","110,1,N,0030,1","22000,1,9,N","075000,1,N,1","-0057,1","-0133,1","10185,1","12,0000,9,1",,,"0,1,06,1","0,1,06,1","00,1,+99999,9,99,9","00,99,1,00,1,00,1,99999,9,00,1,00,1",,"120,M,-0014,1","99999,9,10077,1","2,1,025,1,+999,9","02,1","SYN088AAXX  05181 01278 11989 01103 11057 21133 30077 40185 52025 60002 70200 333 11014 4////;","Q01  00002PRCP12"
"01278099999","2010-03-06T06:00:00","4","63.7833333","11.6833333","83.0","VERDAL REPPE, NO","FM-12","99999","V020","110,1,N,0050,1","22000,1,9,N","075000,1,N,1","-0157,1","-0185,1","10246,1","12,0000,9,1","24,0000,9,1","0041,9,1,999999,9,9","0,1,06,1","0,1,06,1",,"01,99,1,00,1,00,1,99999,9,00,1,02,1","24,9","999,N,-0159,1","99999,9,10134,1","2,1,007,1,+999,9","02,1","SYN100AAXX  06061 01278 11989 11105 11157 21185 30134 40246 52007 60002 70200 80002 333 21159 48041 70000;","Q01  00002PRCP24Q02  00002PRCP12"
"01278099999","2010-03-06T09:00:00","4","63.7833333","11.6833333","83.0","VERDAL REPPE, NO","FM-12","99999","V020","150,1,N,0030,1","01500,1,9,N","075000,1,N,1","-0142,1","-0182,1","10257,1",,,,"1,1,03,1","1,1,03,1",,"07,99,1,07,1,05,1,01750,1,99,9,99,9",,,"99999,9,10146,1","2,1,012,1,+999,9","03,1","SYN082AAXX  06091 01278 41789 71503 11142 21182 30146 40257 52012 70311 875// 333 4////;",
"01278099999","2010-03-06T12:00:00","4","63.7833333","11.6833333","83.0","VERDAL REPPE, NO","FM-12","99999","V020","280,1,N,0050,1","00750,1,9,N","025000,1,N,1","-0052,1","-0112,1","10255,1",,,,"8,1,06,1","1,1,06,1",,"08,99,1,07,1,09,1,00800,1,07,1,99,9",,,"99999,9,10147,1","2,1,001,1,+999,9","85,1","SYN088AAXX  06121 01278 11575 82805 11052 21112 30147 40255 52001 6//// 78581 8797/ 333 4////;",
"01278099999","2010-03-06T18:00:00","4","63.7833333","11.6833333","83.0","VERDAL REPPE, NO","FM-12","99999","V020","999,9,C,0000,1","00240,1,9,N","004000,1,N,1","-0012,1","-0031,1","10241,1","12,0005,9,1",,,"8,1,06,1","7,1,06,1","09,1,+99999,9,99,9","09,99,1,09,1,99,9,99999,9,99,9,99,9",,"120,M,-0003,1","99999,9,10135,1","7,1,002,1,+999,9","71,1","SYN088AAXX  06181 01278 11/40 90000 11012 21031 30135 40241 57002 69942 77187 333 11003 4////;",
"01278099999","2010-03-07T06:00:00","4","63.7833333","11.6833333","83.0","VERDAL REPPE, NO","FM-12","99999","V020","999,9,C,0000,1","01200,1,9,N","004500,1,N,1","+0003,1","-0007,1","10229,1","12,0030,9,2","24,0028,9,2","0040,9,1,999999,9,9","7,1,06,1","6,1,06,1",,"08,99,1,08,1,00,1,01250,1,02,1,99,9","28,9","999,N,-0020,1","99999,9,10123,1","7,1,002,1,+999,9","61,1","SYN100AAXX  07061 01278 11645 80000 10003 21007 30123 40229 57002 60032 76176 8802/ 333 21020 44040 70029;",
"01278099999","2010-03-07T09:00:00","4","63.7833333","11.6833333","83.0","VERDAL REPPE, NO","FM-12","99999","V020","999,9,C,0000,1","03000,1,9,N","055000,1,N,1","+0012,1","+0002,1","10233,1",,,,"6,1,03,1","5,1,03,1",,"08,99,1,03,1,07,1,00450,1,02,1,99,9",,,"99999,9,10128,1","2,1,005,1,+999,9","50,1","SYN082AAXX  07091 01278 41485 80000 10012 20002 30128 40233 52005 75065 8372/ 333 4////;",
"01278099999","2010-03-07T12:00:00","4","63.7833333","11.6833333","83.0","VERDAL REPPE, NO","FM-12","99999","V020","280,1,N,0030,1","00420,1,9,N","055000,1,N,1","+0038,1","+0017,1","10231,1",,,,"8,1,06,1","6,1,06,1",,"08,99,1,08,1,09,1,00450,1,99,9,99,9",,,"99999,9,10127,1","4,1,000,1,+999,9","02,1","SYN088AAXX  07121 01278 11485 82803 10038 20017 30127 40231 54000 6//// 70286 889// 333 4////;",
"01278099999","2010-03-07T18:00:00","4","63.7833333","11.6833333","83.0","VERDAL REPPE, NO","FM-12","99999","V020","310,1,N,0050,1","01200,1,9,N","030000,1,N,1","+0042,1","+0007,1","10232,1","12,0020,9,1",,,"8,1,06,1","2,1,06,1",,"08,99,1,07,1,09,1,01250,1,02,1,99,9",,"120,M,+0047,1","99999,9,10128,1","7,1,004,1,+999,9","02,1","SYN094AAXX  07181 01278 11680 83105 10042 20007 30128 40232 57004 60022 70282 8792/ 333 10047 4////;",
"01278099999","2010-03-08T06:00:00","4","63.7833333","11.6833333","83.0","VERDAL REPPE, NO","FM-12","99999","V020","280,1,N,0070,1","00750,1,9,N","020000,1,N,1","+0043,1","+0010,1","10166,1","12,0005,9,1","24,0020,9,1","0040,9,1,999999,9,9","8,1,06,1","2,1,06,1",,"08,99,1,08,1,09,1,00800,1,99,9,99,9","28,9","999,N,+0033,1","99999,9,10062,1","7,1,030,1,+999,9","15,1","SYN100AAXX  08061 01278 11570 82807 10043 20010 30062 40166 57030 69942 71582 889// 333 20033 44040 70020;",
"01278099999","2010-03-08T09:00:00","4","63.7833333","11.6833333","83.0","VERDAL REPPE, NO","FM-12","99999","V020","280,1,N,0100,1","99999,9,9,N","999999,9,N,1","+0025,1","+0009,1","10173,1",,,,"8,1,03,1","2,1,03,1","09,1,+99999,9,99,9","09,99,1,09,1,99,9,99999,9,99,9,99,9",,,"99999,9,10069,1","2,1,007,1,+999,9","86,1","SYN076AAXX  08091 01278 41/// 92810 10025 20009 30069 40173 52007 78682 333 4////;",
"01278099999","2010-03-08T12:00:00","4","63.7833333","11.6833333","83.0","VERDAL REPPE, NO","FM-12","99999","V020","280,1,N,0100,1","00750,1,9,N","025000,1,N,1","+0014,1","-0044,1","10213,1",,,,"8,1,06,1","2,1,06,1",,"07,99,1,07,1,09,1,00800,1,99,9,99,9",,,"99999,9,10109,1","2,1,040,1,+999,9","15,1","SYN088AAXX  08121 01278 11575 72810 10014 21044 30109 40213 52040 6//// 71582 879// 333 4////;",
"01278099999","2010-03-08T18:00:00","4","63.7833333","11.6833333","83.0","VERDAL REPPE, NO","FM-12","99999","V020","290,1,N,0050,1","00240,1,9,N","003500,1,N,1","-0008,1","-0035,1","10253,1","12,0030,9,1",,,"8,1,06,1","2,1,06,1","09,1,+99999,9,99,9","09,99,1,09,1,99,9,99999,9,99,9,99,9",,"120,M,+0045,1","99999,9,10147,1","2,1,016,1,+999,9","85,1","SYN088AAXX  08181 01278 11/35 92905 11008 21035 30147 40253 52016 60032 78582 333 10045 4////;",
"01278099999","2010-03-09T06:00:00","4","63.7833333","11.6833333","83.0","VERDAL REPPE, NO","FM-12","99999","V020","280,1,N,0070,1","03000,1,9,N","025000,1,N,1","+0007,1","-0032,1","10229,1","12,0010,9,1","24,0041,9,1","0040,9,1,999999,9,9","8,1,06,1","2,1,06,1",,"08,99,1,04,1,09,1,01250,1,02,1,99,9","28,9","999,N,-0010,1","99999,9,10124,1","7,1,010,1,+999,9","15,1","SYN100AAXX  09061 01278 11675 82807 10007 21032 30124 40229 57010 69992 71582 8492/ 333 21010 44040 70041;",
"01278099999","2010-03-09T09:00:00","4","63.7833333","11.6833333","83.0","VERDAL REPPE, NO","FM-12","99999","V020","280,1,N,0070,1","00120,1,9,N","002000,1,N,1","+0005,1","-0008,1","10224,1",,,,"8,1,03,1","2,1,03,1","09,1,+99999,9,99,9","09,99,1,09,1,99,9,99999,9,99,9,99,9",,,"99999,9,10119,1","7,1,005,1,+999,9","85,1","SYN076AAXX  09091 01278 41/20 92807 10005 21008 30119 40224 57005 78582 333 4////;",
"01278099999","2010-03-09T12:00:00","4","63.7833333","11.6833333","83.0","VERDAL REPPE, NO","FM-12","99999","V020","290,1,N,0070,1","00750,1,9,N","030000,1,N,1","+0020,1","+0001,1","10200,1",,,,"8,1,06,1","2,1,06,1",,"08,99,1,08,1,09,1,00800,1,99,9,99,9",,,"99999,9,10096,1","7,1,023,1,+999,9","80,1","SYN088AAXX  09121 01278 11580 82907 10020 20001 30096 40200 57023 6//// 78082 889// 333 4////;",
"01278099999","2010-03-09T18:00:00","4","63.7833333","11.6833333","83.0","VERDAL REPPE, NO","FM-12","99999","V020","290,1,N,0050,1","00420,1,9,N","030000,1,N,1","+0027,1","+0011,1","10183,1","12,0030,9,1",,,"8,1,06,1","2,1,06,1",,"08,99,1,08,1,09,1,00450,1,99,9,99,9",,"120,M,+0033,1","99999,9,10079,1","7,1,005,1,+999,9","80,1","SYN094AAXX  09181 01278 11480 82905 10027 20011 30079 40183 57005 60032 78082 889// 333 10033 4////;",
"01278099999","2010-03-10T06:00:00","4","63.7833333","11.6833333","83.0","VERDAL REPPE, NO","FM-12","99999","V020","300,1,N,0100,1","00420,1,9,N","030000,1,N,1","+0038,1","+0009,1","10158,1","12,0041,9,1","24,0066,9,1","0033,9,1,999999,9,9","8,1,06,1","2,1,06,1",,"08,99,1,08,1,09,1,00450,1,99,9,99,9","28,9","999,N,+0022,1","99999,9,10055,1","7,1,002,1,+999,9","15,1","SYN100AAXX  10061 01278 11480 83010 10038 20009 30055 40158 57002 60042 71582 889// 333 20022 44033 70065;",
"01278099999","2010-03-10T09:00:00","4","63.7833333","11.6833333","83.0","VERDAL REPPE, NO","FM-12","99999","V020","290,1,N,0120,1","00420,1,9,N","025000,1,N,1","+0039,1","+0016,1","10160,1",,,,"6,1,03,1","2,1,03,1",,"08,99,1,07,1,07,1,00450,1,02,1,99,9",,,"99999,9,10057,1","2,1,002,1,+999,9","61,1","SYN082AAXX  10091 01278 41475 82912 10039 20016 30057 40160 52002 76162 8772/ 333 4////;",
"01278099999","2010-03-10T12:00:00","4","63.7833333","11.6833333","83.0","VERDAL REPPE, NO","FM-12","99999","V020","290,1,N,0070,1","00420,1,9,N","030000,1,N,1","+0040,1","+0016,1","10160,1",,,,"8,1,06,1","6,1,06,1",,"08,99,1,08,1,09,1,00450,1,99,9,99,9",,,"99999,9,10057,1","4,1,000,1,+999,9","15,1","SYN088AAXX  10121 01278 11480 82907 10040 20016 30057 40160 54000 6//// 71586 889// 333 4////;",
"01278099999","2010-03-10T18:00:00","4","63.7833333","11.6833333","83.0","VERDAL REPPE, NO","FM-12","99999","V020","280,1,N,0070,1","00420,1,9,N","030000,1,N,1","+0036,1","+0018,1","10135,1","12,0020,9,1",,,"8,1,06,1","2,1,06,1",,"08,99,1,08,1,09,1,00450,1,99,9,99,9",,"120,M,+0047,1","99999,9,10032,1","7,1,012,1,+999,9","80,1","SYN094AAXX  10181 01278 11480 82807 10036 20018 30032 40135 57012 60022 78082 889// 333 10047 4////;",
"01278099999","2010-03-11T06:00:00","4","63.7833333","11.6833333","83.0","VERDAL REPPE, NO","FM-12","99999","V020","290,1,N,0050,1","03000,1,9,N","055000,1,N,1","+0047,1","+0026,1","10057,1","12,0041,9,1","24,0051,9,1","0025,9,1,999999,9,9","8,1,06,1","2,1,06,1",,"08,99,1,04,1,09,1,00450,1,02,1,01,1","30,9","999,N,+0030,1","99999,9,09955,1","7,1,018,1,+999,9","02,1","SYN100AAXX  11061 01278 11485 82905 10047 20026 39955 40057 57018 60042 70282 84921 333 20030 42025 70050;",
"01278099999","2010-03-11T09:00:00","4","63.7833333","11.6833333","83.0","VERDAL REPPE, NO","FM-12","99999","V020","290,1,N,0070,1","00060,1,9,N","030000,1,N,1","+0040,1","+0030,1","10049,1",,,,"8,1,03,1","2,1,03,1",,"08,99,1,08,1,09,1,00075,1,99,9,99,9",,,"99999,9,09947,1","7,1,008,1,+999,9","80,1","SYN082AAXX  11091 01278 41180 82907 10040 20030 39947 40049 57008 78082 889// 333 4////;",
"01278099999","2010-03-11T12:00:00","4","63.7833333","11.6833333","83.0","VERDAL REPPE, NO","FM-12","99999","V020","290,1,N,0050,1","00750,1,9,N","055000,1,N,1","+0052,1","+0020,1","10038,1",,,,"8,1,06,1","2,1,06,1",,"07,99,1,05,1,09,1,00800,1,06,1,01,1",,,"99999,9,09937,1","7,1,010,1,+999,9","02,1","SYN088AAXX  11121 01278 11585 72905 10052 20020 39937 40038 57010 6//// 70282 85961 333 4////;",
"01278099999","2010-03-11T18:00:00","4","63.7833333","11.6833333","83.0","VERDAL REPPE, NO","FM-12","99999","V020","300,1,N,0010,1","03000,1,9,N","030000,1,N,1","+0004,1","-0012,1","10062,1","12,0041,9,1",,,"8,1,06,1","2,1,06,1",,"08,99,1,01,1,06,1,00250,1,02,1,99,9",,"120,M,+0052,1","99999,9,09959,1","2,1,021,1,+999,9","15,1","SYN094AAXX  11181 01278 11380 83001 10004 21012 39959 40062 52021 60042 71582 8162/ 333 10052 4////;",
"01278099999","2010-03-12T06:00:00","4","63.7833333","11.6833333","83.0","VERDAL REPPE, NO","FM-12","99999","V020","290,1,N,0010,1","00420,1,9,N","030000,1,N,1","-0018,1","-0035,1","10105,1","12,0003,9,1","24,0048,9,1","0021,9,1,999999,9,9","8,1,06,1","2,1,06,1",,"08,99,1,08,1,09,1,00450,1,99,9,99,9","28,9","999,N,-0034,1","99999,9,10000,1","7,1,008,1,+999,9","15,1","SYN100AAXX  12061 01278 11480 82901 11018 21035 30000 40105 57008 69932 71582 889// 333 21034 44021 70047;",
"01278099999","2010-03-12T09:00:00","4","63.7833333","11.6833333","83.0","VERDAL REPPE, NO","FM-12","99999","V020","290,1,N,0050,1","00750,1,9,N","055000,1,N,1","-0009,1","-0028,1","10098,1",,,,"8,1,03,1","2,1,03,1",,"07,99,1,07,1,09,1,00800,1,99,9,99,9",,,"99999,9,09994,1","7,1,007,1,+999,9","02,1","SYN082AAXX  12091 01278 41585 72905 11009 21028 39994 40098 57007 70282 879// 333 4////;",
"01278099999","2010-03-12T12:00:00","4","63.7833333","11.6833333","83.0","VERDAL REPPE, NO","FM-12","99999","V020","290,1,N,0050,1","00240,1,9,N","002500,1,N,1","-0008,1","-0017,1","10088,1",,,,"8,1,06,1","2,1,06,1","09,1,+99999,9,99,9","09,99,1,09,1,99,9,99999,9,99,9,99,9",,,"99999,9,09984,1","7,1,010,1,+999,9","85,1","SYN082AAXX  12121 01278 11/25 92905 11008 21017 39984 40088 57010 6//// 78582 333 4////;",
"01278099999","2010-03-12T18:00:00","4","63.7833333","11.6833333","83.0","VERDAL REPPE, NO","FM-12","99999","V020","280,1,N,0050,1","00060,1,9,N","000800,1,N,1","-0013,1","-0022,1","10064,1","12,0020,9,1",,,"8,1,06,1","7,1,06,1","09,1,+99999,9,99,9","09,99,1,09,1,99,9,99999,9,99,9,99,9",,"120,M,+0003,1","99999,9,09959,1","7,1,004,1,+999,9","73,1","SYN088AAXX  12181 01278 11/08 92805 11013 21022 39959 40064 57004 60022 77387 333 10003 4////;",
"01278099999","2010-03-13T06:00:00","4","63.7833333","11.6833333","83.0","VERDAL REPPE, NO","FM-12","99999","V020","290,1,N,0050,1","00120,1,9,N","055000,1,N,1","-0027,1","-0039,1","10052,1","12,0020,9,1","24,0043,9,1","0034,9,1,999999,9,9","8,1,06,1","2,1,06,1",,"06,99,1,06,1,09,1,00150,1,99,9,99,9","24,9","999,N,-0028,1","99999,9,09947,1","7,1,008,1,+999,9","02,1","SYN100AAXX  13061 01278 11285 62905 11027 21039 39947 40052 57008 60022 70282 869// 333 21028 48034 70044;",
"01278099999","2010-03-13T09:00:00","4","63.7833333","11.6833333","83.0","VERDAL REPPE, NO","FM-12","99999","V020","300,1,N,0030,1","00120,1,9,N","055000,1,N,1","-0020,1","-0031,1","10054,1",,,,"8,1,03,1","2,1,03,1",,"08,99,1,08,1,09,1,00150,1,99,9,99,9",,,"99999,9,09949,1","2,1,004,1,+999,9","02,1","SYN082AAXX  13091 01278 41285 83003 11020 21031 39949 40054 52004 70282 889// 333 4////;",
"01278099999","2010-03-13T12:00:00","4","63.7833333","11.6833333","83.0","VERDAL REPPE, NO","FM-12","99999","V020","280,1,N,0050,1","03000,1,9,N","030000,1,N,1","-0002,1","-0041,1","10055,1",,,,"8,1,06,1","2,1,06,1",,"05,99,1,03,1,09,1,00800,1,06,1,03,1",,,"99999,9,09952,1","2,1,003,1,+999,9","15,1","SYN088AAXX  13121 01278 11580 52805 11002 21041 39952 40055 52003 6//// 71582 83963 333 4////;",
"01278099999","2010-03-13T18:00:00","4","63.7833333","11.6833333","83.0","VERDAL REPPE, NO","FM-12","99999","V020","280,1,N,0030,1","00420,1,9,N","055000,1,N,1","-0018,1","-0036,1","10045,1","12,0030,9,1",,,"8,1,06,1","2,1,06,1",,"07,99,1,06,1,09,1,00450,1,06,1,01,1",,"120,M,+0007,1","99999,9,09941,1","7,1,006,1,+999,9","16,1","SYN094AAXX  13181 01278 11485 72803 11018 21036 39941 40045 57006 60032 71682 86961 333 10007 4////;",
"01278099999","2010-03-14T06:00:00","4","63.7833333","11.6833333","83.0","VERDAL REPPE, NO","FM-12","99999","V020","999,9,C,0000,1","22000,1,9,N","055000,1,N,1","-0036,1","-0045,1","10050,1","12,0000,9,1","24,0030,9,1","0036,9,1,999999,9,9","8,1,06,1","1,1,06,1",,"01,99,1,01,1,06,1,00450,1,00,1,00,1","24,9","999,N,-0041,1","99999,9,09945,1","2,1,002,1,+999,9","02,1","SYN100AAXX  14061 01278 11485 10000 11036 21045 39945 40050 52002 69902 70281 81600 333 21041 48036 70030;","Q01  00002PRCP12"
"01278099999","2010-03-14T09:00:00","4","63.7833333","11.6833333","83.0","VERDAL REPPE, NO","FM-12","99999","V020","999,9,C,0000,1","03000,1,9,N","055000,1,N,1","-0043,1","-0053,1","10061,1",,,,"1,1,03,1","1,1,03,1",,"07,99,1,04,1,09,1,00450,1,02,1,01,1",,,"99999,9,09955,1","2,1,010,1,+999,9","03,1","SYN082AAXX  14091 01278 41485 70000 11043 21053 39955 40061 52010 70311 84921 333 4////;",
"01278099999","2010-03-14T12:00:00","4","63.7833333","11.6833333","83.0","VERDAL REPPE, NO","FM-12","99999","V020","290,1,N,0050,1","00750,1,9,N","055000,1,N,1","-0005,1","-0043,1","10061,1",,,,"2,1,06,1","2,1,06,1",,"08,99,1,06,1,09,1,00800,1,02,1,99,9",,,"99999,9,09957,1","2,1,003,1,+999,9","02,1","SYN088AAXX  14121 01278 11585 82905 11005 21043 39957 40061 52003 6//// 70222 8692/ 333 4////;",
"01278099999","2010-03-14T18:00:00","4","63.7833333","11.6833333","83.0","VERDAL REPPE, NO","FM-12","99999","V020","290,1,N,0030,1","00240,1,9,N","002500,1,N,1","-0020,1","-0034,1","10058,1","12,9999,9,9",,,"8,1,06,1","2,1,06,1","09,1,+99999,9,99,9","09,99,1,09,1,99,9,99999,9,99,9,99,9",,"120,M,-0004,1","99999,9,09954,1","4,1,000,1,+999,9","85,1","SYN088AAXX  14181 01278 11/25 92903 11020 21034 39954 40058 54000 69912 78582 333 11004 4////;","Q01  00002PRCP12Q02  00002PRCP12"
"01278099999","2010-03-15T06:00:00","4","63.7833333","11.6833333","83.0","VERDAL REPPE, NO","FM-12","99999","V020","310,1,N,0030,1","00420,1,9,N","010000,1,N,1","-0033,1","-0049,1","10059,1","12,0010,9,1","24,0010,9,1","0036,9,1,999999,9,9","8,1,06,1","2,1,06,1",,"08,99,1,08,1,09,1,00450,1,99,9,99,9","24,9","999,N,-0040,1","99999,9,09954,1","2,1,005,1,+999,9","85,1","SYN100AAXX  15061 01278 11460 83103 11033 21049 39954 40059 52005 60012 78582 889// 333 21040 48036 70011;",
"01278099999","2010-03-15T09:00:00","4","63.7833333","11.6833333","83.0","VERDAL REPPE, NO","FM-12","99999","V020","290,1,N,0050,1","00750,1,9,N","055000,1,N,1","-0025,1","-0043,1","10068,1",,,,"8,1,03,1","2,1,03,1",,"07,99,1,07,1,09,1,00800,1,99,9,99,9",,,"99999,9,09963,1","2,1,008,1,+999,9","85,1","SYN082AAXX  15091 01278 41585 72905 11025 21043 39963 40068 52008 78582 879// 333 4////;",
"01278099999","2010-03-15T12:00:00","4","63.7833333","11.6833333","83.0","VERDAL REPPE, NO","FM-12","99999","V020","290,1,N,0030,1","00750,1,9,N","055000,1,N,1","-0002,1","-0041,1","10073,1",,,,"8,1,06,1","2,1,06,1",,"07,99,1,07,1,09,1,00800,1,99,9,99,9",,,"99999,9,09969,1","2,1,008,1,+999,9","02,1","SYN088AAXX  15121 01278 11585 72903 11002 21041 39969 40073 52008 6//// 70282 879// 333 4////;",
"01278099999","2010-03-15T18:00:00","4","63.7833333","11.6833333","83.0","VERDAL REPPE, NO","FM-12","99999","V020","300,1,N,0050,1","00420,1,9,N","020000,1,N,1","-0015,1","-0032,1","10067,1","12,0000,2,1",,,"8,1,06,1","2,1,06,1",,"08,99,1,08,1,09,1,00450,1,99,9,99,9",,"120,M,+0010,1","99999,9,09963,1","7,1,001,1,+999,9","85,1","SYN094AAXX  15181 01278 11470 83005 11015 21032 39963 40067 57001 69922 78582 889// 333 10010 4////;",
"01278099999","2010-03-16T06:00:00","4","63.7833333","11.6833333","83.0","VERDAL REPPE, NO","FM-12","99999","V020","300,1,N,0030,1","00240,1,9,N","002500,1,N,1","-0025,1","-0034,1","10106,1","12,0030,9,1","24,0030,9,1","0042,9,1,999999,9,9","8,1,06,1","2,1,06,1","09,1,+99999,9,99,9","09,99,1,09,1,99,9,99999,9,99,9,99,9","24,9","999,N,-0030,1","99999,9,10000,1","2,1,017,1,+999,9","85,1","SYN094AAXX  16061 01278 11/25 93003 11025 21034 30000 40106 52017 60032 78582 333 21030 48042 70030;",
"01278099999","2010-03-16T09:00:00","4","63.7833333","11.6833333","83.0","VERDAL REPPE, NO","FM-12","99999","V020","280,1,N,0030,1","00420,1,9,N","010000,1,N,1","-0012,1","-0033,1","10117,1",,,,"8,1,03,1","2,1,03,1",,"07,99,1,06,1,09,1,00450,1,06,1,02,1",,,"99999,9,10013,1","2,1,013,1,+999,9","85,1","SYN082AAXX  16091 01278 41460 72803 11012 21033 30013 40117 52013 78582 86962 333 4////;",
"01278099999","2010-03-16T12:00:00","4","63.7833333","11.6833333","83.0","VERDAL REPPE, NO","FM-12","99999","V020","300,1,N,0030,1","03000,1,9,N","055000,1,N,1","+0000,1","-0038,1","10116,1",,,,"8,1,06,1","2,1,06,1",,"08,99,1,04,1,09,1,00800,1,02,1,99,9",,,"99999,9,10012,1","4,1,000,1,+999,9","02,1","SYN088AAXX  16121 01278 11585 83003 10000 21038 30012 40116 54000 6//// 70282 8492/ 333 4////;",
"01278099999","2010-03-16T18:00:00","4","63.7833333","11.6833333","83.0","VERDAL REPPE, NO","FM-12","99999","V020","999,9,C,0000,1","01200,1,9,N","055000,1,N,1","-0019,1","-0033,1","10104,1","12,0020,9,1",,,"8,1,06,1","2,1,06,1",,"07,99,1,07,1,09,1,01250,1,99,9,99,9",,"120,M,+0005,1","99999,9,09999,1","7,1,010,1,+999,9","15,1","SYN094AAXX  16181 01278 11685 70000 11019 21033 39999 40104 57010 60022 71582 879// 333 10005 4////;",
"01278099999","2010-03-17T06:00:00","4","63.7833333","11.6833333","83.0","VERDAL REPPE, NO","FM-12","99999","V020","999,9,C,0000,1","03000,1,9,N","055000,1,N,1","-0014,1","-0025,1","10099,1","12,0010,9,1","24,0033,9,1","0043,9,1,999999,9,9","8,1,06,1","2,1,06,1",,"08,99,1,01,1,09,1,01750,1,02,1,99,9","24,9","999,N,-0025,1","99999,9,09994,1","2,1,003,1,+999,9","15,1","SYN100AAXX  17061 01278 11785 80000 11014 21025 39994 40099 52003 60012 71582 8192/ 333 21025 48043 70034;",
"01278099999","2010-03-17T09:00:00","4","63.7833333","11.6833333","83.0","VERDAL REPPE, NO","FM-12","99999","V020","999,9,C,0000,1","00420,1,9,N","055000,1,N,1","-0001,1","-0025,1","10106,1",,,,"8,1,03,1","2,1,03,1",,"08,99,1,08,1,09,1,00450,1,99,9,99,9",,,"99999,9,10001,1","2,1,008,1,+999,9","15,1","SYN082AAXX  17091 01278 41485 80000 11001 21025 30001 40106 52008 71582 889// 333 4////;",
"01278099999","2010-03-17T12:00:00","4","63.7833333","11.6833333","83.0","VERDAL REPPE, NO","FM-12","99999","V020","999,9,C,0000,1","03000,1,9,N","055000,1,N,1","+0021,1","-0032,1","10105,1",,,,"8,1,06,1","2,1,06,1",,"07,99,1,03,1,09,1,01250,1,02,1,01,1",,,"99999,9,10001,1","4,1,000,1,+999,9","15,1","SYN088AAXX  17121 01278 11685 70000 10021 21032 30001 40105 54000 6//// 71582 83921 333 4////;",
"01278099999","2010-03-17T18:00:00","4","63.7833333","11.6833333","83.0","VERDAL REPPE, NO","FM-12","99999","V020","150,1,N,0010,1","03000,1,9,N","020000,1,N,1","+0003,1","-0022,1","10093,1","12,0000,9,1",,,"8,1,06,1","2,1,06,1",,"08,99,1,04,1,09,1,01750,1,02,1,99,9",,"120,M,+0026,1","99999,9,09989,1","7,1,010,1,+999,9","15,1","SYN094AAXX  17181 01278 11770 81501 10003 21022 39989 40093 57010 69902 71582 8492/ 333 10026 4////;","Q01  00002PRCP12"
"01278099999","2010-03-18T06:00:00","4","63.7833333","11.6833333","83.0","VERDAL REPPE, NO","FM-12","99999","V020","150,1,N,0010,1","01500,1,9,N","020000,1,N,1","-0003,1","-0012,1","10006,1","12,0030,9,1","24,0030,9,1","0042,9,1,999999,9,9","8,1,06,1","7,1,06,1",,"08,99,1,08,1,00,1,01750,1,02,1,99,9","28,9","999,N,-0010,1","99999,9,09903,1","7,1,030,1,+999,9","61,1","SYN100AAXX  18061 01278 11770 81501 11003 21012 39903 40006 57030 60032 76187 8802/ 333 21010 44042 70031;",
"01278099999","2010-03-18T09:00:00","4","63.7833333","11.6833333","83.0","VERDAL REPPE, NO","FM-12","99999","V020","110,1,N,0030,1","01500,1,9,N","030000,1,N,1","+0004,1","-0004,1","09990,1",,,,"6,1,03,1","2,1,03,1",,"08,99,1,08,1,00,1,01750,1,02,1,99,9",,,"99999,9,09888,1","7,1,015,1,+999,9","02,1","SYN082AAXX  18091 01278 41780 81103 10004 21004 39888 49990 57015 70262 8802/ 333 4////;",
"01278099999","2010-03-18T12:00:00","4","63.7833333","11.6833333","83.0","VERDAL REPPE, NO","FM-12","99999","V020","290,1,N,0050,1","00900,1,9,N","025000,1,N,1","+0038,1","+0015,1","09990,1",,,,"6,1,06,1","2,1,06,1",,"08,99,1,05,1,08,1,00450,1,07,1,99,9",,,"99999,9,09889,1","2,1,001,1,+999,9","02,1","SYN088AAXX  18121 01278 11475 82905 10038 20015 39889 49990 52001 6//// 70262 8587/ 333 4////;",
"01278099999","2010-03-18T18:00:00","4","63.7833333","11.6833333","83.0","VERDAL REPPE, NO","FM-12","99999","V020","150,1,N,0010,1","03000,1,9,N","055000,1,N,1","+0022,1","+0010,1","10000,1","12,0030,9,1",,,"6,1,06,1","2,1,06,1",,"08,99,1,04,1,07,1,00025,1,02,1,99,9",,"120,M,+0042,1","99999,9,09898,1","2,1,012,1,+999,9","60,1","SYN094AAXX  18181 01278 11085 81501 10022 20010 39898 40000 52012 60032 76062 8472/ 333 10042 4////;",
"01278099999","2010-03-19T06:00:00","4","63.7833333","11.6833333","83.0","VERDAL REPPE, NO","FM-12","99999","V020","140,1,N,0030,1","01500,1,9,N","030000,1,N,1","+0015,1","+0008,1","09974,1","12,0020,9,1","24,0051,9,1","0036,9,1,999999,9,9","6,1,06,1","2,1,06,1",,"08,99,1,08,1,00,1,01750,1,02,1,99,9","28,9","999,N,+0008,1","99999,9,09872,1","7,1,025,1,+999,9","60,1","SYN100AAXX  19061 01278 11780 81403 10015 20008 39872 49974 57025 60022 76062 8802/ 333 20008 44036 70051;",
"01278099999","2010-03-19T09:00:00","4","63.7833333","11.6833333","83.0","VERDAL REPPE, NO","FM-12","99999","V020","110,1,N,0030,1","03000,1,9,N","075000,1,N,1","+0030,1","+0020,1","09949,1",,,,"6,1,03,1","2,1,03,1",,"08,99,1,01,1,04,1,02250,1,02,1,99,9",,,"99999,9,09848,1","7,1,024,1,+999,9","02,1","SYN082AAXX  19091 01278 41889 81103 10030 20020 39848 49949 57024 70262 8142/ 333 4////;",
"01278099999","2010-03-19T12:00:00","4","63.7833333","11.6833333","83.0","VERDAL REPPE, NO","FM-12","99999","V020","150,1,N,0030,1","99999,9,9,N","075000,1,N,1","+0064,1","+0017,1","09917,1",,,,"2,1,06,1","2,1,06,1",,"08,99,1,08,1,00,1,99999,9,07,1,99,9",,,"99999,9,09817,1","7,1,031,1,+999,9","02,1","SYN088AAXX  19121 01278 11989 81503 10064 20017 39817 49917 57031 6//// 70222 8807/ 333 4////;",
"01278099999","2010-03-19T18:00:00","4","63.7833333","11.6833333","83.0","VERDAL REPPE, NO","FM-12","99999","V020","110,1,N,0030,1","03000,1,9,N","010000,1,N,1","+0033,1","+0024,1","09885,1","12,0041,9,1",,,"6,1,06,1","2,1,06,1",,"08,99,1,01,1,06,1,00025,1,02,1,99,9",,"120,M,+0078,1","99999,9,09784,1","6,1,013,1,+999,9","61,1","SYN094AAXX  19181 01278 11060 81103 10033 20024 39784 49885 56013 60042 76162 8162/ 333 10078 4////;",
"01278099999","2010-03-20T06:00:00","4","63.7833333","11.6833333","83.0","VERDAL REPPE, NO","FM-12","99999","V020","290,1,N,0030,1","00030,1,9,N","000200,1,N,1","+0003,1","-0004,1","09884,1","12,0030,9,1","24,0061,9,1","0029,9,1,999999,9,9","6,1,06,1","4,1,06,1","09,1,+99999,9,99,9","09,99,1,09,1,99,9,99999,9,99,9,99,9","28,9","999,N,+0000,1","99999,9,09782,1","2,1,014,1,+999,9","43,1","SYN094AAXX  20061 01278 11/02 92903 10003 21004 39782 49884 52014 60032 74364 333 20000 44029 70062;",
"01278099999","2010-03-20T09:00:00","4","63.7833333","11.6833333","83.0","VERDAL REPPE, NO","FM-12","99999","V020","290,1,N,0010,1","00030,1,9,N","000200,1,N,1","+0007,1","-0002,1","09902,1",,,,"4,1,03,1","4,1,03,1","09,1,+99999,9,99,9","09,99,1,09,1,99,9,99999,9,99,9,99,9",,,"99999,9,09800,1","2,1,018,1,+999,9","45,1","SYN076AAXX  20091 01278 41/02 92901 10007 21002 39800 49902 52018 74544 333 4////;",
"01278099999","2010-03-20T12:00:00","4","63.7833333","11.6833333","83.0","VERDAL REPPE, NO","FM-12","99999","V020","280,1,N,0030,1","00030,1,9,N","000900,1,N,1","+0025,1","+0015,1","09914,1",,,,"4,1,06,1","2,1,06,1",,"08,99,1,08,1,06,1,00025,1,99,9,99,9",,,"99999,9,09813,1","2,1,014,1,+999,9","42,1","SYN088AAXX  20121 01278 11009 82803 10025 20015 39813 49914 52014 6//// 74342 886// 333 4////;","Q01+000432PRSWM1"
"01278099999","2010-03-20T18:00:00","4","63.7833333","11.6833333","83.0","VERDAL REPPE, NO","FM-12","99999","V020","280,1,N,0010,1","03000,1,9,N","055000,1,N,1","+0007,1","-0015,1","09968,1","12,0010,9,1",,,"6,1,06,1","4,1,06,1",,"07,99,1,01,1,09,1,01750,1,02,1,01,1",,"120,M,+0029,1","99999,9,09865,1","2,1,033,1,+999,9","02,1","SYN094AAXX  20181 01278 11785 72801 10007 21015 39865 49968 52033 60012 70264 81921 333 10029 4////;",
"01278099999","2010-03-21T06:00:00","4","63.7833333","11.6833333","83.0","VERDAL REPPE, NO","FM-12","99999","V020","140,1,N,0030,1","22000,1,9,N","055000,1,N,1","-0079,1","-0094,1","10049,1","12,0000,9,1","24,0013,9,1","0028,9,1,999999,9,9","1,1,06,1","1,1,06,1",,"04,99,1,00,1,00,1,99999,9,00,1,01,1","30,9","999,N,-0079,1","99999,9,09943,1","2,1,013,1,+999,9","02,1","SYN100AAXX  21061 01278 11985 41403 11079 21094 39943 40049 52013 60002 70211 80001 333 21079 42028 70013;","Q01  00002PRCP12"
"01278099999","2010-03-21T09:00:00","4","63.7833333","11.6833333","83.0","VERDAL REPPE, NO","FM-12","99999","V020","110,1,N,0010,1","22000,1,9,N","075000,1,N,1","-0050,1","-0083,1","10060,1",,,,"0,1,03,1","0,1,03,1",,"01,99,1,00,1,00,1,99999,9,00,1,01,1",,,"99999,9,09954,1","2,1,014,1,+999,9","02,1","SYN082AAXX  21091 01278 41989 11101 11050 21083 39954 40060 52014 70200 80001 333 4////;",
"01278099999","2010-03-21T12:00:00","4","63.7833333","11.6833333","83.0","VERDAL REPPE, NO","FM-12","99999","V020","280,1,N,0050,1","01800,1,9,N","075000,1,N,1","-0007,1","-0084,1","10073,1",,,,"1,1,06,1","1,1,06,1",,"07,99,1,07,1,08,1,01750,1,99,9,99,9",,,"99999,9,09968,1","2,1,016,1,+999,9","03,1","SYN088AAXX  21121 01278 11789 72805 11007 21084 39968 40073 52016 6//// 70311 878// 333 4////;",
"01278099999","2010-03-21T18:00:00","4","63.7833333","11.6833333","83.0","VERDAL REPPE, NO","FM-12","99999","V020","999,9,C,0000,1","22000,1,9,N","030000,1,N,1","-0010,1","-0023,1","10107,1","12,0000,9,1",,,"8,1,06,1","1,1,06,1",,"03,99,1,03,1,08,1,00450,1,06,1,00,1",,"120,M,+0016,1","99999,9,10002,1","2,1,020,1,+999,9","02,1","SYN094AAXX  21181 01278 11480 30000 11010 21023 30002 40107 52020 69902 70281 83860 333 10016 4////;","Q01  00002PRCP12"
"01278099999","2010-03-22T06:00:00","4","63.7833333","11.6833333","83.0","VERDAL REPPE, NO","FM-12","99999","V020","150,1,N,0010,1","03000,1,9,N","055000,1,N,1","-0023,1","-0044,1","10139,1","12,9999,9,9","24,9999,9,9","0027,9,1,999999,9,9","8,1,06,1","1,1,06,1",,"08,99,1,04,1,09,1,01750,1,02,1,99,9","30,9","999,N,-0032,1","99999,9,10033,1","2,1,008,1,+999,9","85,1","SYN100AAXX  22061 01278 11785 81501 11023 21044 30033 40139 52008 69902 78581 8492/ 333 21032 42027 70000;","Q01  00002PRCP24Q02  00002PRCP12Q03  00002PRCP12Q04  00002PRCP24"
"01278099999","2010-03-22T09:00:00","4","63.7833333","11.6833333","83.0","VERDAL REPPE, NO","FM-12","99999","V020","300,1,N,0010,1","01500,1,9,N","055000,1,N,1","-0006,1","-0033,1","10146,1",,,,"8,1,03,1","2,1,03,1",,"07,99,1,07,1,09,1,01750,1,99,9,99,9",,,"99999,9,10041,1","2,1,008,1,+999,9","85,1","SYN082AAXX  22091 01278 41785 73001 11006 21033 30041 40146 52008 78582 879// 333 4////;",
"01278099999","2010-03-22T12:00:00","4","63.7833333","11.6833333","83.0","VERDAL REPPE, NO","FM-12","99999","V020","300,1,N,0010,1","01800,1,9,N","055000,1,N,1","+0018,1","-0033,1","10154,1",,,,"8,1,06,1","2,1,06,1",,"07,99,1,07,1,08,1,01750,1,99,9,99,9",,,"99999,9,10050,1","2,1,010,1,+999,9","02,1","SYN088AAXX  22121 01278 11785 73001 10018 21033 30050 40154 52010 6//// 70282 878// 333 4////;",
"01278099999","2010-03-22T18:00:00","4","63.7833333","11.6833333","83.0","VERDAL REPPE, NO","FM-12","99999","V020","999,9,C,0000,1","22000,1,9,N","055000,1,N,1","+0002,1","-0050,1","10143,1","12,0000,2,1",,,"1,1,06,1","1,1,06,1",,"01,99,1,00,1,00,1,99999,9,00,1,02,1",,"120,M,+0045,1","99999,9,10039,1","7,1,006,1,+999,9","01,1","SYN094AAXX  22181 01278 11985 10000 10002 21050 30039 40143 57006 69902 70111 80002 333 10045 4////;",
"01278099999","2010-03-23T06:00:00","4","63.7833333","11.6833333","83.0","VERDAL REPPE, NO","FM-12","99999","V020","120,1,N,0050,1","99999,9,9,N","055000,1,N,1","-0036,1","-0086,1","10088,1","12,0000,9,1","24,0000,2,1","0027,9,1,999999,9,9","1,1,06,1","1,1,06,1",,"05,99,1,00,1,00,1,99999,9,00,1,01,1","30,9","999,N,-0062,1","99999,9,09983,1","7,1,022,1,+999,9","02,1","SYN100AAXX  23061 01278 11985 51205 11036 21086 39983 40088 57022 60002 70211 80001 333 21062 42027 70000;","Q01  00002PRCP12"
"01278099999","2010-03-23T09:00:00","4","63.7833333","11.6833333","83.0","VERDAL REPPE, NO","FM-12","99999","V020","120,1,N,0070,1","02100,1,9,N","055000,1,N,1","-0011,1","-0075,1","10085,1",,,,"2,1,03,1","2,1,03,1",,"06,99,1,05,1,00,1,02250,1,01,1,01,1",,,"99999,9,09981,1","7,1,002,1,+999,9","02,1","SYN082AAXX  23091 01278 41885 61207 11011 21075 39981 40085 57002 70222 85011 333 4////;",
"01278099999","2010-03-23T12:00:00","4","63.7833333","11.6833333","83.0","VERDAL REPPE, NO","FM-12","99999","V020","110,1,N,0070,1","22000,1,9,N","055000,1,N,1","+0010,1","-0072,1","10079,1",,,,"2,1,06,1","2,1,06,1",,"04,99,1,01,1,04,1,01750,1,00,1,01,1",,,"99999,9,09976,1","7,1,006,1,+999,9","02,1","SYN088AAXX  23121 01278 11785 41107 10010 21072 39976 40079 57006 6//// 70222 81401 333 4////;",
"01278099999","2010-03-23T18:00:00","4","63.7833333","11.6833333","83.0","VERDAL REPPE, NO","FM-12","99999","V020","100,1,N,0050,1","02100,1,9,N","055000,1,N,1","+0016,1","-0072,1","10085,1","12,0000,9,1",,,"2,1,06,1","2,1,06,1",,"07,99,1,05,1,05,1,02250,1,06,1,02,1",,"120,M,+0026,1","99999,9,09982,1","2,1,009,1,+999,9","02,1","SYN094AAXX  23181 01278 11885 71005 10016 21072 39982 40085 52009 60002 70222 85562 333 10026 4////;","Q01  00002PRCP12"
"01278099999","2010-03-24T06:00:00","4","63.7833333","11.6833333","83.0","VERDAL REPPE, NO","FM-12","99999","V020","999,9,C,0000,1","01500,1,9,N","075000,1,N,1","-0028,1","-0073,1","10135,1","12,0000,9,1","24,0000,9,1","0027,9,1,999999,9,9","2,1,06,1","2,1,06,1",,"07,99,1,07,1,05,1,01750,1,99,9,99,9","30,9","999,N,-0028,1","99999,9,10029,1","2,1,012,1,+999,9","02,1","SYN100AAXX  24061 01278 11789 70000 11028 21073 30029 40135 52012 60002 70222 875// 333 21028 42027 70000;","Q01  00002PRCP24Q02  00002PRCP12"
"01278099999","2010-03-24T09:00:00","4","63.7833333","11.6833333","83.0","VERDAL REPPE, NO","FM-12","99999","V020","280,1,N,0010,1","03000,1,9,N","055000,1,N,1","-0011,1","-0055,1","10145,1",,,,"2,1,03,1","2,1,03,1",,"07,99,1,04,1,05,1,02250,1,07,1,99,9",,,"99999,9,10040,1","2,1,012,1,+999,9","02,1","SYN082AAXX  24091 01278 41885 72801 11011 21055 30040 40145 52012 70222 8457/ 333 4////;",
"01278099999","2010-03-24T12:00:00","4","63.7833333","11.6833333","83.0","VERDAL REPPE, NO","FM-12","99999","V020","280,1,N,0010,1","01800,1,9,N","055000,1,N,1","+0010,1","-0050,1","10150,1",,,,"2,1,06,1","2,1,06,1",,"07,99,1,05,1,08,1,01750,1,07,1,99,9",,,"99999,9,10046,1","2,1,006,1,+999,9","02,1","SYN088AAXX  24121 01278 11785 72801 10010 21050 30046 40150 52006 6//// 70222 8587/ 333 4////;",
"01278099999","2010-03-24T18:00:00","4","63.7833333","11.6833333","83.0","VERDAL REPPE, NO","FM-12","99999","V020","110,1,N,0050,1","01800,1,9,N","055000,1,N,1","+0031,1","-0041,1","10139,1","12,0000,9,1",,,"2,1,06,1","2,1,06,1",,"07,99,1,07,1,08,1,01750,1,99,9,99,9",,"120,M,+0035,1","99999,9,10036,1","7,1,002,1,+999,9","02,1","SYN094AAXX  24181 01278 11785 71105 10031 21041 30036 40139 57002 60002 70222 878// 333 10035 4////;","Q01  00002PRCP12"
"01278099999","2010-03-25T06:00:00","4","63.7833333","11.6833333","83.0","VERDAL REPPE, NO","FM-12","99999","V020","130,1,N,0070,1","99999,9,9,N","075000,1,N,1","+0012,1","-0033,1","10119,1","12,0000,9,1","24,0000,9,1","0027,9,1,999999,9,9","2,1,06,1","2,1,06,1",,"08,99,1,08,1,00,1,99999,9,02,1,99,9","30,9","999,N,+0007,1","99999,9,10015,1","7,1,008,1,+999,9","02,1","SYN100AAXX  25061 01278 11989 81307 10012 21033 30015 40119 57008 60002 70222 8802/ 333 20007 42027 70000;","Q01  00002PRCP24Q02  00002PRCP12"
"01278099999","2010-03-25T09:00:00","4","63.7833333","11.6833333","83.0","VERDAL REPPE, NO","FM-12","99999","V020","110,1,N,0070,1","99999,9,9,N","075000,1,N,1","+0022,1","-0029,1","10112,1",,,,"2,1,03,1","2,1,03,1",,"08,99,1,08,1,00,1,99999,9,02,1,99,9",,,"99999,9,10009,1","7,1,006,1,+999,9","02,1","SYN082AAXX  25091 01278 41989 81107 10022 21029 30009 40112 57006 70222 8802/ 333 4////;",
"01278099999","2010-03-25T12:00:00","4","63.7833333","11.6833333","83.0","VERDAL REPPE, NO","FM-12","99999","V020","130,1,N,0050,1","03000,1,9,N","030000,1,N,1","+0037,1","-0001,1","10101,1",,,,"6,1,06,1","2,1,06,1",,"08,99,1,04,1,08,1,00800,1,07,1,99,9",,,"99999,9,09998,1","7,1,011,1,+999,9","02,1","SYN088AAXX  25121 01278 11580 81305 10037 21001 39998 40101 57011 6//// 70262 8487/ 333 4////;",
"01278099999","2010-03-25T18:00:00","4","63.7833333","11.6833333","83.0","VERDAL REPPE, NO","FM-12","99999","V020","150,1,N,0010,1","01800,1,9,N","055000,1,N,1","+0037,1","+0002,1","10087,1","12,0005,9,1",,,"8,1,06,1","2,1,06,1",,"07,99,1,05,1,08,1,01750,1,00,1,01,1",,"120,M,+0052,1","99999,9,09985,1","5,1,000,1,+999,9","02,1","SYN094AAXX  25181 01278 11785 71501 10037 20002 39985 40087 55000 69942 70282 85801 333 10052 4////;",
"01278099999","2010-03-26T06:00:00","4","63.7833333","11.6833333","83.0","VERDAL REPPE, NO","FM-12","99999","V020","150,1,N,0010,1","99999,9,9,N","055000,1,N,1","+0027,1","+0001,1","10041,1","12,0000,9,1","24,0005,9,1","0025,9,1,999999,9,9","2,1,06,1","2,1,06,1",,"08,99,1,08,1,00,1,99999,9,02,1,99,9","30,9","999,N,+0012,1","99999,9,09939,1","7,1,020,1,+999,9","02,1","SYN100AAXX  26061 01278 11985 81501 10027 20001 39939 40041 57020 60002 70222 8802/ 333 20012 42025 70004;","Q01  00002PRCP12"
"01278099999","2010-03-26T09:00:00","4","63.7833333","11.6833333","83.0","VERDAL REPPE, NO","FM-12","99999","V020","150,1,N,0010,1","99999,9,9,N","055000,1,N,1","+0035,1","+0004,1","10032,1",,,,"6,1,03,1","2,1,03,1",,"08,99,1,08,1,00,1,99999,9,02,1,99,9",,,"99999,9,09930,1","7,1,009,1,+999,9","02,1","SYN082AAXX  26091 01278 41985 81501 10035 20004 39930 40032 57009 70262 8802/ 333 4////;",
"01278099999","2010-03-26T12:00:00","4","63.7833333","11.6833333","83.0","VERDAL REPPE, NO","FM-12","99999","V020","999,9,C,0000,1","03000,1,9,N","055000,1,N,1","+0065,1","+0020,1","10017,1",,,,"6,1,06,1","2,1,06,1",,"07,99,1,02,1,04,1,02250,1,07,1,02,1",,,"99999,9,09916,1","7,1,014,1,+999,9","02,1","SYN088AAXX  26121 01278 11885 70000 10065 20020 39916 40017 57014 6//// 70262 82472 333 4////;",
"01278099999","2010-03-26T18:00:00","4","63.7833333","11.6833333","83.0","VERDAL REPPE, NO","FM-12","99999","V020","110,1,N,0010,1","99999,9,9,N","055000,1,N,1","+0055,1","+0009,1","10002,1","12,0000,9,1",,,"6,1,06,1","2,1,06,1",,"08,99,1,08,1,00,1,99999,9,02,1,99,9",,"120,M,+0080,1","99999,9,09901,1","4,1,000,1,+999,9","02,1","SYN094AAXX  26181 01278 11985 81101 10055 20009 39901 40002 54000 69902 70262 8802/ 333 10080 4////;","Q01  00002PRCP12"
"01278099999","2010-03-27T06:00:00","4","63.7833333","11.6833333","83.0","VERDAL REPPE, NO","FM-12","99999","V020","100,1,N,0070,1","03000,1,9,N","020000,1,N,1","+0034,1","-0002,1","09996,1","12,9999,9,9","24,9999,9,9","0020,9,1,999999,9,9","6,1,06,1","2,1,06,1",,"08,99,1,01,1,07,1,00450,1,02,1,99,9","25,9","999,N,+0030,1","99999,9,09894,1","7,1,003,1,+999,9","60,1","SYN100AAXX  27061 01278 11470 81007 10034 21002 39894 49996 57003 69912 76062 8172/ 333 20030 41020 70001;","Q01  00002PRCP24Q02  00002PRCP12Q03  00002PRCP12Q04  00002PRCP24"
"01278099999","2010-03-27T09:00:00","4","63.7833333","11.6833333","83.0","VERDAL REPPE, NO","FM-12","99999","V020","110,1,N,0070,1","01500,1,9,N","015000,1,N,1","+0023,1","+0000,1","09996,1",,,,"7,1,03,1","6,1,03,1",,"08,99,1,08,1,00,1,01750,1,02,1,99,9",,,"99999,9,09894,1","4,1,000,1,+999,9","68,1","SYN082AAXX  27091 01278 41765 81107 10023 20000 39894 49996 54000 76876 8802/ 333 4////;",
"01278099999","2010-03-27T12:00:00","4","63.7833333","11.6833333","83.0","VERDAL REPPE, NO","FM-12","99999","V020","110,1,N,0050,1","00240,1,9,N","003000,1,N,1","+0010,1","-0012,1","09985,1",,,,"7,1,06,1","7,1,06,1","09,1,+99999,9,99,9","09,99,1,09,1,99,9,99999,9,99,9,99,9",,,"99999,9,09883,1","7,1,010,1,+999,9","71,1","SYN082AAXX  27121 01278 11/30 91105 10010 21012 39883 49985 57010 6//// 77177 333 4////;",
"01278099999","2010-03-27T18:00:00","4","63.7833333","11.6833333","83.0","VERDAL REPPE, NO","FM-12","99999","V020","120,1,N,0050,1","00240,1,9,N","003000,1,N,1","-0001,1","-0022,1","09975,1","12,0051,9,1",,,"7,1,06,1","7,1,06,1","09,1,+99999,9,99,9","09,99,1,09,1,99,9,99999,9,99,9,99,9",,"120,M,+0035,1","99999,9,09872,1","5,1,001,1,+999,9","71,1","SYN088AAXX  27181 01278 11/30 91205 11001 21022 39872 49975 55001 60052 77177 333 10035 4////;",
"01278099999","2010-03-28T06:00:00","4","63.7833333","11.6833333","83.0","VERDAL REPPE, NO","FM-12","99999","V020","340,1,N,0050,1","01500,1,9,N","055000,1,N,1","-0035,1","-0054,1","09976,1","12,0000,2,1","24,0051,9,1","0022,9,1,999999,9,9","7,1,06,1","2,1,06,1",,"07,99,1,07,1,08,1,01250,1,99,9,99,9","24,9","999,N,-0035,1","99999,9,09872,1","7,1,003,1,+999,9","02,1","SYN100AAXX  28061 01278 11685 73405 11035 21054 39872 49976 57003 69902 70272 878// 333 21035 48022 70050;",
"01278099999","2010-03-28T09:00:00","4","63.7833333","11.6833333","83.0","VERDAL REPPE, NO","FM-12","99999","V020","330,1,N,0050,1","22000,1,9,N","075000,1,N,1","-0034,1","-0056,1","09976,1",,,,"1,1,03,1","1,1,03,1",,"02,99,1,02,1,07,1,00150,1,00,1,00,1",,,"99999,9,09872,1","2,1,002,1,+999,9","01,1","SYN082AAXX  28091 01278 41289 23305 11034 21056 39872 49976 52002 70111 82700 333 4////;",
"01278099999","2010-03-28T12:00:00","4","63.7833333","11.6833333","83.0","VERDAL REPPE, NO","FM-12","99999","V020","270,1,N,0010,1","22000,1,9,N","075000,1,N,1","+0006,1","-0046,1","09972,1",,,,"0,1,06,1","0,1,06,1",,"03,99,1,03,1,08,1,01250,1,00,1,02,1",,,"99999,9,09869,1","4,1,000,1,+999,9","02,1","SYN088AAXX  28121 01278 11689 32701 10006 21046 39869 49972 54000 6//// 70200 83802 333 4////;",
"01278099999","2010-03-28T18:00:00","4","63.7833333","11.6833333","83.0","VERDAL REPPE, NO","FM-12","99999","V020","999,9,C,0000,1","03000,1,9,N","030000,1,N,1","-0010,1","-0063,1","09974,1","12,0000,9,1",,,"1,1,06,1","1,1,06,1",,"06,99,1,04,1,08,1,01250,1,03,1,02,1",,"120,M,+0015,1","99999,9,09871,1","2,1,001,1,+999,9","02,1","SYN094AAXX  28181 01278 11680 60000 11010 21063 39871 49974 52001 60002 70211 84832 333 10015 4////;","Q01  00002PRCP12"
"01278099999","2010-03-29T06:00:00","4","63.7833333","11.6833333","83.0","VERDAL REPPE, NO","FM-12","99999","V020","100,1,N,0010,1","99999,9,9,N","055000,1,N,1","-0037,1","-0063,1","09979,1","12,0000,9,1","24,0000,9,1","0021,9,1,999999,9,9","2,1,06,1","2,1,06,1",,"08,99,1,08,1,00,1,99999,9,07,1,99,9","25,9","999,N,-0057,1","99999,9,09874,1","4,1,000,1,+999,9","02,1","SYN100AAXX  29061 01278 11985 81001 11037 21063 39874 49979 54000 60002 70222 8807/ 333 21057 41021 70000;","Q01  00002PRCP24Q02  00002PRCP12"
"01278099999","2010-03-29T09:00:00","4","63.7833333","11.6833333","83.0","VERDAL REPPE, NO","FM-12","99999","V020","999,9,C,0000,1","02100,1,9,N","055000,1,N,1","-0015,1","-0052,1","09978,1",,,,"2,1,03,1","2,1,03,1",,"08,99,1,08,1,05,1,02250,1,99,9,99,9",,,"99999,9,09874,1","4,1,000,1,+999,9","02,1","SYN082AAXX  29091 01278 41885 80000 11015 21052 39874 49978 54000 70222 885// 333 4////;",
"01278099999","2010-03-29T12:00:00","4","63.7833333","11.6833333","83.0","VERDAL REPPE, NO","FM-12","99999","V020","300,1,N,0030,1","01500,1,9,N","055000,1,N,1","+0023,1","-0051,1","09973,1",,,,"2,1,06,1","2,1,06,1",,"07,99,1,05,1,08,1,01250,1,03,1,02,1",,,"99999,9,09871,1","7,1,001,1,+999,9","02,1","SYN088AAXX  29121 01278 11685 73003 10023 21051 39871 49973 57001 6//// 70222 85832 333 4////;",
"01278099999","2010-03-29T18:00:00","4","63.7833333","11.6833333","83.0","VERDAL REPPE, NO","FM-12","99999","V020","110,1,N,0030,1","99999,9,9,N","055000,1,N,1","+0014,1","-0042,1","09975,1","12,0000,9,1",,,"2,1,06,1","2,1,06,1",,"07,99,1,07,1,00,1,99999,9,07,1,99,9",,"120,M,+0032,1","99999,9,09872,1","2,1,001,1,+999,9","02,1","SYN094AAXX  29181 01278 11985 71103 10014 21042 39872 49975 52001 60002 70222 8707/ 333 10032 4////;","Q01  00002PRCP12"
"01278099999","2010-03-30T06:00:00","4","63.7833333","11.6833333","83.0","VERDAL REPPE, NO","FM-12","99999","V020","270,1,N,0010,1","00420,1,9,N","030000,1,N,1","-0003,1","-0027,1","10015,1","12,0005,9,1","24,0005,9,1","0020,9,1,999999,9,9","8,1,06,1","2,1,06,1",,"08,99,1,07,1,09,1,00450,1,02,1,99,9","28,9","999,N,-0006,1","99999,9,09912,1","2,1,019,1,+999,9","15,1","SYN100AAXX  30061 01278 11480 82701 11003 21027 39912 40015 52019 69952 71582 8792/ 333 21006 44020 70005;",
"01278099999","2010-03-30T09:00:00","4","63.7833333","11.6833333","83.0","VERDAL REPPE, NO","FM-12","99999","V020","280,1,N,0030,1","00750,1,9,N","025000,1,N,1","+0007,1","-0032,1","10031,1",,,,"2,1,03,1","2,1,03,1",,"08,99,1,07,1,09,1,00800,1,07,1,99,9",,,"99999,9,09928,1","2,1,016,1,+999,9","15,1","SYN082AAXX  30091 01278 41575 82803 10007 21032 39928 40031 52016 71522 8797/ 333 4////;",
"01278099999","2010-03-30T12:00:00","4","63.7833333","11.6833333","83.0","VERDAL REPPE, NO","FM-12","99999","V020","999,9,C,0000,1","01500,1,9,N","055000,1,N,1","+0018,1","-0029,1","10035,1",,,,"8,1,06,1","2,1,06,1",,"07,99,1,07,1,09,1,01750,1,99,9,99,9",,,"99999,9,09932,1","2,1,004,1,+999,9","85,1","SYN088AAXX  30121 01278 11785 70000 10018 21029 39932 40035 52004 6//// 78582 879// 333 4////;",
"01278099999","2010-03-30T18:00:00","4","63.7833333","11.6833333","83.0","VERDAL REPPE, NO","FM-12","99999","V020","090,1,N,0010,1","99999,9,9,N","055000,1,N,1","+0022,1","-0047,1","10033,1","12,0000,2,1",,,"8,1,06,1","2,1,06,1",,"07,99,1,07,1,00,1,99999,9,07,1,99,9",,"120,M,+0030,1","99999,9,09930,1","7,1,008,1,+999,9","02,1","SYN094AAXX  30181 01278 11985 70901 10022 21047 39930 40033 57008 69902 70282 8707/ 333 10030 4////;",
"01278099999","2010-03-31T06:00:00","4","63.7833333","11.6833333","83.0","VERDAL REPPE, NO","FM-12","99999","V020","130,1,N,0070,1","03000,1,9,N","055000,1,N,1","+0042,1","-0026,1","10006,1","12,0000,9,1","24,0000,2,1","0019,9,1,999999,9,9","2,1,06,1","2,1,06,1",,"07,99,1,02,1,08,1,01750,1,07,1,01,1","25,9","999,N,+0005,1","99999,9,09904,1","7,1,007,1,+999,9","02,1","SYN100AAXX  31061 01278 11785 71307 10042 21026 39904 40006 57007 60002 70222 82871 333 20005 41019 70000;","Q01  00002PRCP12"
"01278099999","2010-03-31T09:00:00","4","63.7833333","11.6833333","83.0","VERDAL REPPE, NO","FM-12","99999","V020","120,1,N,0070,1","99999,9,9,N","055000,1,N,1","+0046,1","-0018,1","10005,1",,,,"2,1,03,1","2,1,03,1",,"07,99,1,07,1,00,1,99999,9,07,1,99,9",,,"99999,9,09904,1","4,1,000,1,+999,9","02,1","SYN082AAXX  31091 01278 41985 71207 10046 21018 39904 40005 54000 70222 8707/ 333 4////;",
"01278099999","2010-03-31T12:00:00","4","63.7833333","11.6833333","83.0","VERDAL REPPE, NO","FM-12","99999","V020","150,1,N,0050,1","99999,9,9,N","055000,1,N,1","+0055,1","-0012,1","10008,1",,,,"2,1,06,1","2,1,06,1",,"07,99,1,06,1,00,1,99999,9,07,1,01,1",,,"99999,9,09907,1","2,1,004,1,+999,9","02,1","SYN088AAXX  31121 01278 11985 71505 10055 21012 39907 40008 52004 6//// 70222 86071 333 4////;",
"01278099999","2010-03-31T18:00:00","4","63.7833333","11.6833333","83.0","VERDAL REPPE, NO","FM-12","99999","V020","100,1,N,0050,1","99999,9,9,N","055000,1,N,1","+0063,1","-0004,1","10005,1","12,9999,9,9",,,"6,1,06,1","2,1,06,1",,"08,99,1,07,1,00,1,99999,9,07,1,99,9",,"120,M,+0070,1","99999,9,09904,1","5,1,000,1,+999,9","60,1","SYN094AAXX  31181 01278 11985 81005 10063 21004 39904 40005 55000 69902 76062 8707/ 333 10070 4////;","Q01  00002PRCP12Q02  00002PRCP12"
"01278099999","2010-04-01T06:00:00","4","63.7833333","11.6833333","83.0","VERDAL REPPE, NO","FM-12","99999","V020","110,1,N,0070,1","03000,1,9,N","055000,1,N,1","+0047,1","+0003,1","09993,1","12,0000,2,1","24,0000,2,1","0019,9,1,999999,9,9","2,1,06,1","2,1,06,1",,"08,99,1,01,1,04,1,00450,1,07,1,99,9","25,9","999,N,+0045,1","99999,9,09892,1","7,1,013,1,+999,9","02,1","SYN100AAXX  01061 01278 11485 81107 10047 20003 39892 49993 57013 60002 70222 8147/ 333 20045 41019 70000;",
"01278099999","2010-04-01T09:00:00","4","63.7833333","11.6833333","83.0","VERDAL REPPE, NO","FM-12","99999","V020","130,1,N,0100,1","00750,1,9,N","030000,1,N,1","+0053,1","+0007,1","09996,1",,,,"8,1,03,1","2,1,03,1",,"08,99,1,05,1,09,1,00800,1,07,1,99,9",,,"99999,9,09895,1","2,1,003,1,+999,9","80,1","SYN082AAXX  01091 01278 41580 81310 10053 20007 39895 49996 52003 78082 8597/ 333 4////;",
"01278099999","2010-04-01T12:00:00","4","63.7833333","11.6833333","83.0","VERDAL REPPE, NO","FM-12","99999","V020","110,1,N,0120,1","00900,1,9,N","040000,1,N,1","+0054,1","+0012,1","09983,1",,,,"8,1,06,1","2,1,06,1",,"08,99,1,06,1,08,1,00450,1,07,1,99,9",,,"99999,9,09882,1","7,1,013,1,+999,9","02,1","SYN088AAXX  01121 01278 11482 81112 10054 20012 39882 49983 57013 6//// 70282 8687/ 333 4////;",
"01278099999","2010-04-01T18:00:00","4","63.7833333","11.6833333","83.0","VERDAL REPPE, NO","FM-12","99999","V020","150,1,N,0050,1","00750,1,9,N","055000,1,N,1","+0062,1","+0019,1","09979,1","12,0000,2,1",,,"8,1,06,1","2,1,06,1",,"07,99,1,05,1,09,1,00800,1,07,1,01,1",,"120,M,+0069,1","99999,9,09878,1","2,1,003,1,+999,9","02,1","SYN094AAXX  01181 01278 11585 71505 10062 20019 39878 49979 52003 69902 70282 85971 333 10069 4////;",
"01278099999","2010-04-02T06:00:00","4","63.7833333","11.6833333","83.0","VERDAL REPPE, NO","FM-12","99999","V020","130,1,N,0070,1","22000,1,9,N","055000,1,N,1","+0048,1","-0027,1","10016,1","12,0000,9,1","24,0000,2,1","9999,2,9,999999,9,9","1,1,06,1","1,1,06,1",,"01,99,1,01,1,08,1,01750,1,00,1,00,1","25,9","999,N,+0035,1","99999,9,09914,1","4,1,000,1,+999,9","02,1","SYN100AAXX  02061 01278 11785 11307 10048 21027 39914 40016 54000 60002 70211 81800 333 20035 41998 70000;","Q01  00002PRCP12Q02  09982SNDP  "
"01278099999","2010-04-02T09:00:00","4","63.7833333","11.6833333","83.0","VERDAL REPPE, NO","FM-12","99999","V020","150,1,N,0070,1","22000,1,9,N","055000,1,N,1","+0064,1","-0038,1","10036,1",,,,"0,1,03,1","0,1,03,1",,"01,99,1,01,1,08,1,01750,1,04,1,01,1",,,"99999,9,09935,1","2,1,024,1,+999,9","02,1","SYN082AAXX  02091 01278 41785 11507 10064 21038 39935 40036 52024 70200 81841 333 4////;",
"01278099999","2010-04-02T12:00:00","4","63.7833333","11.6833333","83.0","VERDAL REPPE, NO","FM-12","99999","V020","150,1,N,0070,1","22000,1,9,N","075000,1,N,1","+0074,1","-0031,1","10046,1",,,,"0,1,06,1","0,1,06,1",,"03,99,1,01,1,08,1,01750,1,00,1,02,1",,,"99999,9,09945,1","2,1,012,1,+999,9","02,1","SYN088AAXX  02121 01278 11789 31507 10074 21031 39945 40046 52012 6//// 70200 81802 333 4////;",
"01278099999","2010-04-02T18:00:00","4","63.7833333","11.6833333","83.0","VERDAL REPPE, NO","FM-12","99999","V020","120,1,N,0030,1","03000,1,9,N","055000,1,N,1","+0058,1","-0025,1","10080,1","12,0000,9,1",,,"1,1,06,1","1,1,06,1",,"07,99,1,04,1,08,1,01250,1,07,1,02,1",,"120,M,+0076,1","99999,9,09978,1","2,1,010,1,+999,9","02,1","SYN094AAXX  02181 01278 11685 71203 10058 21025 39978 40080 52010 60002 70211 84872 333 10076 4////;","Q01  00002PRCP12"
"01278099999","2010-04-03T06:00:00","4","63.7833333","11.6833333","83.0","VERDAL REPPE, NO","FM-12","99999","V020","999,9,C,0000,1","03000,1,9,N","075000,1,N,1","+0037,1","-0029,1","10121,1","12,0000,9,1","24,0000,9,1","9999,2,9,999999,9,9","2,1,06,1","2,1,06,1",,"07,99,1,04,1,08,1,01750,1,07,1,99,9","25,9","999,N,+0035,1","99999,9,10018,1","2,1,024,1,+999,9","02,1","SYN100AAXX  03061 01278 11789 70000 10037 21029 30018 40121 52024 60002 70222 8487/ 333 20035 41998 70000;","Q01  00002PRCP24Q02  00002PRCP12Q03  09982SNDP  "
"01278099999","2010-04-03T09:00:00","4","63.7833333","11.6833333","83.0","VERDAL REPPE, NO","FM-12","99999","V020","100,1,N,0030,1","01500,1,9,N","075000,1,N,1","+0048,1","-0034,1","10134,1",,,,"2,1,03,1","2,1,03,1",,"07,99,1,07,1,05,1,01750,1,99,9,99,9",,,"99999,9,10032,1","2,1,014,1,+999,9","02,1","SYN082AAXX  03091 01278 41789 71003 10048 21034 30032 40134 52014 70222 875// 333 4////;",
"01278099999","2010-04-03T12:00:00","4","63.7833333","11.6833333","83.0","VERDAL REPPE, NO","FM-12","99999","V020","150,1,N,0030,1","22000,1,9,N","075000,1,N,1","+0080,1","-0038,1","10148,1",,,,"0,1,06,1","0,1,06,1",,"01,99,1,01,1,01,1,01750,1,00,1,01,1",,,"99999,9,10046,1","2,1,016,1,+999,9","02,1","SYN088AAXX  03121 01278 11789 11503 10080 21038 30046 40148 52016 6//// 70200 81101 333 4////;",
"01278099999","2010-04-03T18:00:00","4","63.7833333","11.6833333","83.0","VERDAL REPPE, NO","FM-12","99999","V020","140,1,N,0030,1","22000,1,9,N","075000,1,N,1","+0064,1","-0035,1","10158,1","12,0000,9,1",,,"0,1,06,1","0,1,06,1",,"01,99,1,00,1,00,1,99999,9,00,1,01,1",,"120,M,+0087,1","99999,9,10056,1","4,1,000,1,+999,9","02,1","SYN094AAXX  03181 01278 11989 11403 10064 21035 30056 40158 54000 60002 70200 80001 333 10087 4////;","Q01  00002PRCP12"
"01278099999","2010-04-04T06:00:00","4","63.7833333","11.6833333","83.0","VERDAL REPPE, NO","FM-12","99999","V020","150,1,N,0030,1","22000,1,9,N","055000,1,N,1","+0003,1","-0055,1","10178,1","12,0000,9,1","24,0000,9,1","9999,2,9,999999,9,9","0,1,06,1","0,1,06,1",,"01,99,1,00,1,00,1,99999,9,00,1,01,1","25,9","999,N,-0011,1","99999,9,10074,1","2,1,006,1,+999,9","02,1","SYN100AAXX  04061 01278 11985 11503 10003 21055 30074 40178 52006 60002 70200 80001 333 21011 41998 70000;","Q01  00002PRCP24Q02  00002PRCP12Q03  09982SNDP  "
"01278099999","2010-04-04T09:00:00","4","63.7833333","11.6833333","83.0","VERDAL REPPE, NO","FM-12","99999","V020","120,1,N,0050,1","22000,1,9,N","075000,1,N,1","+0053,1","-0059,1","10180,1",,,,"0,1,03,1","0,1,03,1",,"03,99,1,00,1,00,1,99999,9,00,1,01,1",,,"99999,9,10077,1","2,1,008,1,+999,9","02,1","SYN082AAXX  04091 01278 41989 31205 10053 21059 30077 40180 52008 70200 80001 333 4////;",
"01278099999","2010-04-04T12:00:00","4","63.7833333","11.6833333","83.0","VERDAL REPPE, NO","FM-12","99999","V020","140,1,N,0030,1","22000,1,9,N","055000,1,N,1","+0080,1","-0026,1","10172,1",,,,"0,1,06,1","0,1,06,1",,"04,99,1,00,1,00,1,99999,9,00,1,01,1",,,"99999,9,10071,1","7,1,006,1,+999,9","02,1","SYN088AAXX  04121 01278 11985 41403 10080 21026 30071 40172 57006 6//// 70200 80001 333 4////;",
"01278099999","2010-04-04T18:00:00","4","63.7833333","11.6833333","83.0","VERDAL REPPE, NO","FM-12","99999","V020","130,1,N,0030,1","99999,9,9,N","055000,1,N,1","+0070,1","-0041,1","10169,1","12,0000,9,1",,,"1,1,06,1","1,1,06,1",,"06,99,1,00,1,00,1,99999,9,00,1,08,1",,"120,M,+0094,1","99999,9,10067,1","4,1,000,1,+999,9","02,1","SYN094AAXX  04181 01278 11985 61303 10070 21041 30067 40169 54000 60002 70211 80008 333 10094 4////;","Q01  00002PRCP12"
"01278099999","2010-04-05T06:00:00","4","63.7833333","11.6833333","83.0","VERDAL REPPE, NO","FM-12","99999","V020","110,1,N,0050,1","99999,9,9,N","055000,1,N,1","+0013,1","-0043,1","10182,1","12,0000,9,1","24,0000,9,1","9999,2,9,999999,9,9","2,1,06,1","2,1,06,1",,"07,99,1,00,1,00,1,99999,9,00,1,07,1","25,9","999,N,+0011,1","99999,9,10078,1","4,1,000,1,+999,9","02,1","SYN100AAXX  05061 01278 11985 71105 10013 21043 30078 40182 54000 60002 70222 80007 333 20011 41998 70000;","Q01  00002PRCP24Q02  00002PRCP12Q03  09982SNDP  "
"01278099999","2010-04-05T09:00:00","4","63.7833333","11.6833333","83.0","VERDAL REPPE, NO","FM-12","99999","V020","100,1,N,0050,1","22000,1,9,N","055000,1,N,1","+0054,1","-0044,1","10185,1",,,,"2,1,03,1","2,1,03,1",,"04,99,1,00,1,00,1,99999,9,00,1,01,1",,,"99999,9,10082,1","2,1,006,1,+999,9","02,1","SYN082AAXX  05091 01278 41985 41005 10054 21044 30082 40185 52006 70222 80001 333 4////;",
"01278099999","2010-04-05T12:00:00","4","63.7833333","11.6833333","83.0","VERDAL REPPE, NO","FM-12","99999","V020","140,1,N,0030,1","22000,1,9,N","075000,1,N,1","+0085,1","-0027,1","10184,1",,,,"1,1,06,1","1,1,06,1",,"01,99,1,00,1,00,1,99999,9,00,1,01,1",,,"99999,9,10082,1","2,1,002,1,+999,9","01,1","SYN088AAXX  05121 01278 11989 11403 10085 21027 30082 40184 52002 6//// 70111 80001 333 4////;",
"01278099999","2010-04-05T18:00:00","4","63.7833333","11.6833333","83.0","VERDAL REPPE, NO","FM-12","99999","V020","150,1,N,0050,1","22000,1,9,N","075000,1,N,1","+0067,1","-0053,1","10187,1","12,0000,9,1",,,"0,1,06,1","0,1,06,1",,"01,99,1,00,1,00,1,99999,9,00,1,01,1",,"120,M,+0093,1","99999,9,10084,1","7,1,003,1,+999,9","02,1","SYN094AAXX  05181 01278 11989 11505 10067 21053 30084 40187 57003 60002 70200 80001 333 10093 4////;","Q01  00002PRCP12"
"01278099999","2010-04-06T06:00:00","4","63.7833333","11.6833333","83.0","VERDAL REPPE, NO","FM-12","99999","V020","110,1,N,0050,1","22000,1,9,N","075000,1,N,1","+0027,1","-0056,1","10190,1","12,0000,9,1","24,0000,9,1","9999,2,9,999999,9,9","0,1,06,1","0,1,06,1",,"01,99,1,00,1,00,1,99999,9,00,1,02,1","25,9","999,N,+0011,1","99999,9,10086,1","4,1,000,1,+999,9","02,1","SYN100AAXX  06061 01278 11989 11105 10027 21056 30086 40190 54000 60002 70200 80002 333 20011 41998 70000;","Q01  00002PRCP24Q02  00002PRCP12Q03  09982SNDP  "
"01278099999","2010-04-06T09:00:00","4","63.7833333","11.6833333","83.0","VERDAL REPPE, NO","FM-12","99999","V020","120,1,N,0070,1","22000,1,9,N","075000,1,N,1","+0053,1","-0037,1","10184,1",,,,"0,1,03,1","0,1,03,1",,"02,99,1,01,1,05,1,02250,1,00,1,08,1",,,"99999,9,10081,1","4,1,000,1,+999,9","02,1","SYN082AAXX  06091 01278 41889 21207 10053 21037 30081 40184 54000 70200 81508 333 4////;",
"01278099999","2010-04-06T12:00:00","4","63.7833333","11.6833333","83.0","VERDAL REPPE, NO","FM-12","99999","V020","140,1,N,0100,1","07500,1,9,N","075000,1,N,1","+0085,1","-0033,1","10182,1",,,,"1,1,06,1","1,1,06,1",,"05,99,1,01,1,05,1,02250,1,03,1,08,1",,,"99999,9,10081,1","4,1,000,1,+999,9","02,1","SYN088AAXX  06121 01278 11889 51410 10085 21033 30081 40182 54000 6//// 70211 81538 333 4////;",
"01278099999","2010-04-06T18:00:00","4","63.7833333","11.6833333","83.0","VERDAL REPPE, NO","FM-12","99999","V020","150,1,N,0050,1","99999,9,9,N","055000,1,N,1","+0069,1","-0020,1","10169,1","12,0000,9,1",,,"2,1,06,1","2,1,06,1",,"07,99,1,01,1,00,1,99999,9,04,1,08,1",,"120,M,+0092,1","99999,9,10066,1","7,1,013,1,+999,9","02,1","SYN094AAXX  06181 01278 11985 71505 10069 21020 30066 40169 57013 60002 70222 81048 333 10092 4////;","Q01  00002PRCP12"
"01278099999","2010-04-07T06:00:00","4","63.7833333","11.6833333","83.0","VERDAL REPPE, NO","FM-12","99999","V020","110,1,N,0070,1","99999,9,9,N","075000,1,N,1","+0044,1","-0014,1","10164,1","12,0000,9,1","24,0000,9,1","9999,2,9,999999,9,9","2,1,06,1","2,1,06,1",,"08,99,1,08,1,00,1,99999,9,07,1,99,9","25,9","999,N,+0034,1","99999,9,10061,1","4,1,000,1,+999,9","02,1","SYN100AAXX  07061 01278 11989 81107 10044 21014 30061 40164 54000 60002 70222 8807/ 333 20034 41998 70000;","Q01  00002PRCP24Q02  00002PRCP12Q03  09982SNDP  "
"01278099999","2010-04-07T09:00:00","4","63.7833333","11.6833333","83.0","VERDAL REPPE, NO","FM-12","99999","V020","120,1,N,0070,1","03000,1,9,N","075000,1,N,1","+0063,1","-0013,1","10158,1",,,,"2,1,03,1","2,1,03,1",,"08,99,1,01,1,04,1,01750,1,07,1,99,9",,,"99999,9,10056,1","7,1,005,1,+999,9","02,1","SYN082AAXX  07091 01278 41789 81207 10063 21013 30056 40158 57005 70222 8147/ 333 4////;",
"01278099999","2010-04-07T12:00:00","4","63.7833333","11.6833333","83.0","VERDAL REPPE, NO","FM-12","99999","V020","130,1,N,0050,1","03000,1,9,N","075000,1,N,1","+0089,1","-0001,1","10170,1",,,,"2,1,06,1","2,1,06,1",,"08,99,1,01,1,04,1,02250,1,07,1,99,9",,,"99999,9,10068,1","2,1,013,1,+999,9","02,1","SYN088AAXX  07121 01278 11889 81305 10089 21001 30068 40170 52013 6//// 70222 8147/ 333 4////;",
"01278099999","2010-04-07T18:00:00","4","63.7833333","11.6833333","83.0","VERDAL REPPE, NO","FM-12","99999","V020","999,9,C,0000,1","03000,1,9,N","055000,1,N,1","+0070,1","+0019,1","10189,1","12,0000,9,1",,,"2,1,06,1","2,1,06,1",,"07,99,1,01,1,04,1,01250,1,02,1,99,9",,"120,M,+0099,1","99999,9,10087,1","2,1,010,1,+999,9","02,1","SYN094AAXX  07181 01278 11685 70000 10070 20019 30087 40189 52010 60002 70222 8142/ 333 10099 4////;","Q01  00002PRCP12"
"01278099999","2010-04-08T06:00:00","4","63.7833333","11.6833333","83.0","VERDAL REPPE, NO","FM-12","99999","V020","100,1,N,0010,1","03000,1,9,N","025000,1,N,1","+0024,1","+0012,1","10193,1","12,0005,9,1","24,0005,9,1","9999,2,9,999999,9,9","6,1,06,1","2,1,06,1",,"08,99,1,01,1,07,1,01750,1,02,1,99,9","25,9","999,N,+0018,1","99999,9,10089,1","7,1,008,1,+999,9","60,1","SYN100AAXX  08061 01278 11775 81001 10024 20012 30089 40193 57008 69962 76062 8172/ 333 20018 41998 70006;","Q01  09982SNDP  "
"01278099999","2010-04-08T09:00:00","4","63.7833333","11.6833333","83.0","VERDAL REPPE, NO","FM-12","99999","V020","280,1,N,0010,1","03000,1,9,N","015000,1,N,1","+0046,1","+0030,1","10183,1",,,,"6,1,03,1","2,1,03,1",,"08,99,1,01,1,07,1,00025,1,02,1,99,9",,,"99999,9,10080,1","7,1,008,1,+999,9","60,1","SYN082AAXX  08091 01278 41065 82801 10046 20030 30080 40183 57008 76062 8172/ 333 4////;",
"01278099999","2010-04-08T12:00:00","4","63.7833333","11.6833333","83.0","VERDAL REPPE, NO","FM-12","99999","V020","999,9,C,0000,1","00030,1,9,N","010000,1,N,1","+0054,1","+0042,1","10181,1",,,,"6,1,06,1","6,1,06,1",,"08,99,1,07,1,07,1,00025,1,02,1,99,9",,,"99999,9,10078,1","7,1,002,1,+999,9","61,1","SYN088AAXX  08121 01278 11060 80000 10054 20042 30078 40181 57002 6//// 76166 8772/ 333 4////;",
"01278099999","2010-04-08T18:00:00","4","63.7833333","11.6833333","83.0","VERDAL REPPE, NO","FM-12","99999","V020","280,1,N,0010,1","00030,1,9,N","003000,1,N,1","+0052,1","+0042,1","10177,1","12,0051,9,1",,,"6,1,06,1","2,1,06,1",,"08,99,1,07,1,06,1,00025,1,02,1,99,9",,"120,M,+0056,1","99999,9,10074,1","4,1,000,1,+999,9","40,1","SYN094AAXX  08181 01278 11030 82801 10052 20042 30074 40177 54000 60052 74062 8762/ 333 10056 4////;",
"01278099999","2010-04-09T06:00:00","4","63.7833333","11.6833333","83.0","VERDAL REPPE, NO","FM-12","99999","V020","999,9,C,0000,1","00060,1,9,N","000900,1,N,1","+0020,1","+0013,1","10202,1","12,0003,9,1","24,0048,9,1","9999,2,9,999999,9,9","6,1,06,1","4,1,06,1","09,1,+99999,9,99,9","09,99,1,09,1,99,9,99999,9,99,9,99,9","25,9","999,N,+0020,1","99999,9,10098,1","2,1,011,1,+999,9","43,1","SYN094AAXX  09061 01278 11/09 90000 10020 20013 30098 40202 52011 69932 74364 333 20020 41998 70048;","Q01  09982SNDP  "
"01278099999","2010-04-09T09:00:00","4","63.7833333","11.6833333","83.0","VERDAL REPPE, NO","FM-12","99999","V020","999,9,C,0000,1","00030,1,9,N","003000,1,N,1","+0040,1","+0031,1","10214,1",,,,"5,1,03,1","4,1,03,1",,"08,99,1,08,1,06,1,00025,1,99,9,99,9",,,"99999,9,10110,1","2,1,012,1,+999,9","50,1","SYN082AAXX  09091 01278 41030 80000 10040 20031 30110 40214 52012 75054 886// 333 4////;",
"01278099999","2010-04-09T12:00:00","4","63.7833333","11.6833333","83.0","VERDAL REPPE, NO","FM-12","99999","V020","280,1,N,0050,1","00420,1,9,N","025000,1,N,1","+0056,1","+0035,1","10232,1",,,,"8,1,06,1","5,1,06,1",,"07,99,1,06,1,09,1,00450,1,06,1,99,9",,,"99999,9,10129,1","2,1,019,1,+999,9","80,1","SYN088AAXX  09121 01278 11475 72805 10056 20035 30129 40232 52019 6//// 78085 8696/ 333 4////;",
"01278099999","2010-04-09T18:00:00","4","63.7833333","11.6833333","83.0","VERDAL REPPE, NO","FM-12","99999","V020","280,1,N,0050,1","00750,1,9,N","030000,1,N,1","+0046,1","+0013,1","10274,1","12,0020,9,1",,,"8,1,06,1","2,1,06,1",,"08,99,1,08,1,09,1,00800,1,99,9,99,9",,"120,M,+0062,1","99999,9,10170,1","2,1,025,1,+999,9","15,1","SYN094AAXX  09181 01278 11580 82805 10046 20013 30170 40274 52025 60022 71582 889// 333 10062 4////;",
"01278099999","2010-04-10T06:00:00","4","63.7833333","11.6833333","83.0","VERDAL REPPE, NO","FM-12","99999","V020","999,9,C,0000,1","00210,1,9,N","055000,1,N,1","+0030,1","+0018,1","10355,1","12,0010,9,1","24,0028,9,1","9999,2,9,999999,9,9","8,1,06,1","2,1,06,1",,"08,99,1,08,1,09,1,00250,1,99,9,99,9","25,9","999,N,+0024,1","99999,9,10249,1","2,1,024,1,+999,9","02,1","SYN100AAXX  10061 01278 11385 80000 10030 20018 30249 40355 52024 60012 70282 889// 333 20024 41998 70028;","Q01  09982SNDP  "
"01278099999","2010-04-10T09:00:00","4","63.7833333","11.6833333","83.0","VERDAL REPPE, NO","FM-12","99999","V020","280,1,N,0010,1","03000,1,9,N","055000,1,N,1","+0045,1","+0022,1","10366,1",,,,"2,1,03,1","2,1,03,1",,"07,99,1,04,1,09,1,00250,1,06,1,01,1",,,"99999,9,10260,1","2,1,010,1,+999,9","02,1","SYN082AAXX  10091 01278 41385 72801 10045 20022 30260 40366 52010 70222 84961 333 4////;",
"01278099999","2010-04-10T12:00:00","4","63.7833333","11.6833333","83.0","VERDAL REPPE, NO","FM-12","99999","V020","290,1,N,0030,1","01200,1,9,N","055000,1,N,1","+0059,1","+0005,1","10364,1",,,,"2,1,06,1","2,1,06,1",,"07,99,1,05,1,09,1,01250,1,06,1,01,1",,,"99999,9,10259,1","4,1,000,1,+999,9","02,1","SYN088AAXX  10121 01278 11685 72903 10059 20005 30259 40364 54000 6//// 70222 85961 333 4////;",
"01278099999","2010-04-10T18:00:00","4","63.7833333","11.6833333","83.0","VERDAL REPPE, NO","FM-12","99999","V020","010,1,N,0010,1","22000,1,9,N","055000,1,N,1","+0066,1","-0025,1","10361,1","12,0000,9,1",,,"1,1,06,1","1,1,06,1",,"03,99,1,01,1,04,1,01750,1,00,1,05,1",,"120,M,+0080,1","99999,9,10257,1","2,1,001,1,+999,9","02,1","SYN094AAXX  10181 01278 11785 30101 10066 21025 30257 40361 52001 60002 70211 81405 333 10080 4////;","Q01  00002PRCP12"
"01278099999","2010-04-11T06:00:00","4","63.7833333","11.6833333","83.0","VERDAL REPPE, NO","FM-12","99999","V020","120,1,N,0030,1","99999,9,9,N","055000,1,N,1","-0009,1","-0243,1","10370,1","12,0000,9,1","24,0000,9,1","9999,2,9,999999,9,9","1,1,06,1","1,1,06,1",,"06,99,1,01,1,00,1,99999,9,04,1,01,1","25,9","999,N,-0009,1","99999,9,10262,1","4,1,000,1,+999,9","02,1","SYN100AAXX  11061 01278 11985 61203 11009 21243 30262 40370 54000 60002 70211 81041 333 21009 41998 70000;","Q01  00002PRCP24Q02  00002PRCP12Q03  09982SNDP  "
"01278099999","2010-04-11T09:00:00","4","63.7833333","11.6833333","83.0","VERDAL REPPE, NO","FM-12","99999","V020","120,1,N,0030,1","22000,1,9,N","055000,1,N,1","+0056,1","+9999,9","10368,1",,,,"1,1,03,1","1,1,03,1",,"02,99,1,00,1,00,1,99999,9,00,1,01,1",,,"99999,9,10263,1","2,1,003,1,+999,9","01,1","SYN082AAXX  11091 01278 41985 21203 10056 21011 30263 40368 52003 70111 80001 333 4////;","Q01-000113ATOD  "
"01278099999","2010-04-11T12:00:00","4","63.7833333","11.6833333","83.0","VERDAL REPPE, NO","FM-12","99999","V020","080,1,N,0010,1","22000,1,9,N","075000,1,N,1","+0105,1","-0032,1","10357,1",,,,"0,1,06,1","0,1,06,1",,"02,99,1,00,1,00,1,99999,9,00,1,01,1",,,"99999,9,10254,1","7,1,007,1,+999,9","02,1","SYN088AAXX  11121 01278 11989 20801 10105 21032 30254 40357 57007 6//// 70200 80001 333 4////;",
"01278099999","2010-04-11T18:00:00","4","63.7833333","11.6833333","83.0","VERDAL REPPE, NO","FM-12","99999","V020","999,9,C,0000,1","22000,1,9,N","055000,1,N,1","+0110,1","-0017,1","10339,1","12,0000,9,1",,,"0,1,06,1","0,1,06,1",,"02,99,1,01,1,04,1,02250,1,00,1,01,1",,"120,M,+0135,1","99999,9,10236,1","7,1,010,1,+999,9","02,1","SYN094AAXX  11181 01278 11885 20000 10110 21017 30236 40339 57010 60002 70200 81401 333 10135 4////;","Q01  00002PRCP12"
"01278099999","2010-04-12T06:00:00","4","63.7833333","11.6833333","83.0","VERDAL REPPE, NO","FM-12","99999","V020","110,1,N,0030,1","22000,1,9,N","055000,1,N,1","+0012,1","-0036,1","10285,1","12,0000,9,1","24,0000,9,1","9999,2,9,999999,9,9","0,1,06,1","0,1,06,1",,"01,99,1,01,1,04,1,01750,1,00,1,01,1","25,9","999,N,-0001,1","99999,9,10180,1","7,1,020,1,+999,9","02,1","SYN100AAXX  12061 01278 11785 11103 10012 21036 30180 40285 57020 60002 70200 81401 333 21001 41998 70000;","Q01  00002PRCP24Q02  00002PRCP12Q03  09982SNDP  "
"01278099999","2010-04-12T09:00:00","4","63.7833333","11.6833333","83.0","VERDAL REPPE, NO","FM-12","99999","V020","270,1,N,0030,1","02100,1,9,N","055000,1,N,1","+0067,1","-0019,1","10260,1",,,,"1,1,03,1","1,1,03,1",,"05,99,1,05,1,05,1,02250,1,00,1,00,1",,,"99999,9,10157,1","7,1,020,1,+999,9","03,1","SYN082AAXX  12091 01278 41885 52703 10067 21019 30157 40260 57020 70311 85500 333 4////;",
"01278099999","2010-04-12T12:00:00","4","63.7833333","11.6833333","83.0","VERDAL REPPE, NO","FM-12","99999","V020","280,1,N,0050,1","03000,1,9,N","055000,1,N,1","+0107,1","-0010,1","10244,1",,,,"1,1,06,1","1,1,06,1",,"06,99,1,04,1,08,1,01750,1,07,1,02,1",,,"99999,9,10142,1","7,1,015,1,+999,9","03,1","SYN088AAXX  12121 01278 11785 62805 10107 21010 30142 40244 57015 6//// 70311 84872 333 4////;",
"01278099999","2010-04-12T18:00:00","4","63.7833333","11.6833333","83.0","VERDAL REPPE, NO","FM-12","99999","V020","290,1,N,0050,1","00420,1,9,N","030000,1,N,1","+0055,1","+0042,1","10250,1","12,0030,9,1",,,"8,1,06,1","2,1,06,1",,"07,99,1,07,1,09,1,00450,1,99,9,99,9",,"120,M,+0111,1","99999,9,10146,1","2,1,002,1,+999,9","80,1","SYN094AAXX  12181 01278 11480 72905 10055 20042 30146 40250 52002 60032 78082 879// 333 10111 4////;",
"01278099999","2010-04-13T06:00:00","4","63.7833333","11.6833333","83.0","VERDAL REPPE, NO","FM-12","99999","V020","280,1,N,0030,1","00420,1,9,N","055000,1,N,1","+0038,1","+0010,1","10267,1","12,0000,2,1","24,0028,9,1","9999,2,9,999999,9,9","8,1,06,1","2,1,06,1",,"07,99,1,07,1,09,1,00450,1,99,9,99,9","25,9","999,N,+0037,1","99999,9,10163,1","2,1,006,1,+999,9","02,1","SYN100AAXX  13061 01278 11485 72803 10038 20010 30163 40267 52006 69912 70282 879// 333 20037 41998 70029;","Q01  09982SNDP  "
"01278099999","2010-04-13T09:00:00","4","63.7833333","11.6833333","83.0","VERDAL REPPE, NO","FM-12","99999","V020","280,1,N,0070,1","00420,1,9,N","055000,1,N,1","+0048,1","+0013,1","10276,1",,,,"2,1,03,1","2,1,03,1",,"07,99,1,07,1,09,1,00450,1,99,9,99,9",,,"99999,9,10172,1","2,1,009,1,+999,9","02,1","SYN082AAXX  13091 01278 41485 72807 10048 20013 30172 40276 52009 70222 879// 333 4////;",
"01278099999","2010-04-13T12:00:00","4","63.7833333","11.6833333","83.0","VERDAL REPPE, NO","FM-12","99999","V020","290,1,N,0070,1","00750,1,9,N","075000,1,N,1","+0060,1","+0008,1","10273,1",,,,"2,1,06,1","2,1,06,1",,"07,99,1,07,1,09,1,00800,1,99,9,99,9",,,"99999,9,10170,1","7,1,002,1,+999,9","02,1","SYN088AAXX  13121 01278 11589 72907 10060 20008 30170 40273 57002 6//// 70222 879// 333 4////;",
"01278099999","2010-04-13T18:00:00","4","63.7833333","11.6833333","83.0","VERDAL REPPE, NO","FM-12","99999","V020","290,1,N,0050,1","00750,1,9,N","055000,1,N,1","+0052,1","+0006,1","10275,1","12,0000,9,1",,,"8,1,06,1","2,1,06,1",,"07,99,1,06,1,09,1,00800,1,06,1,99,9",,"120,M,+0069,1","99999,9,10171,1","4,1,000,1,+999,9","02,1","SYN094AAXX  13181 01278 11585 72905 10052 20006 30171 40275 54000 69902 70282 8696/ 333 10069 4////;","Q01  00002PRCP12"
"01278099999","2010-04-14T06:00:00","4","63.7833333","11.6833333","83.0","VERDAL REPPE, NO","FM-12","99999","V020","320,1,N,0050,1","00210,1,9,N","055000,1,N,1","+0040,1","+0014,1","10253,1","12,0000,9,1","24,0000,9,1","9999,2,9,999999,9,9","8,1,06,1","2,1,06,1",,"08,99,1,07,1,09,1,00250,1,02,1,99,9","25,9","999,N,+0036,1","99999,9,10149,1","7,1,016,1,+999,9","02,1","SYN100AAXX  14061 01278 11385 83205 10040 20014 30149 40253 57016 69912 70282 8792/ 333 20036 41998 70001;","Q01  00002PRCP24Q02  00002PRCP12Q03  09982SNDP  "
"01278099999","2010-04-14T09:00:00","4","63.7833333","11.6833333","83.0","VERDAL REPPE, NO","FM-12","99999","V020","280,1,N,0030,1","00420,1,9,N","055000,1,N,1","+0049,1","+0021,1","10248,1",,,,"8,1,03,1","2,1,03,1",,"08,99,1,07,1,09,1,00450,1,07,1,99,9",,,"99999,9,10144,1","7,1,005,1,+999,9","80,1","SYN082AAXX  14091 01278 41485 82803 10049 20021 30144 40248 57005 78082 8797/ 333 4////;",
"01278099999","2010-04-14T12:00:00","4","63.7833333","11.6833333","83.0","VERDAL REPPE, NO","FM-12","99999","V020","270,1,N,0030,1","00420,1,9,N","025000,1,N,1","+0056,1","+0021,1","10243,1",,,,"8,1,06,1","2,1,06,1",,"08,99,1,07,1,09,1,00450,1,07,1,99,9",,,"99999,9,10139,1","7,1,005,1,+999,9","80,1","SYN088AAXX  14121 01278 11475 82703 10056 20021 30139 40243 57005 6//// 78082 8797/ 333 4////;",
"01278099999","2010-04-14T18:00:00","4","63.7833333","11.6833333","83.0","VERDAL REPPE, NO","FM-12","99999","V020","270,1,N,0010,1","00420,1,9,N","055000,1,N,1","+0056,1","+0013,1","10214,1","12,0000,2,1",,,"8,1,06,1","2,1,06,1",,"08,99,1,08,1,09,1,00450,1,99,9,99,9",,"120,M,+0064,1","99999,9,10111,1","7,1,019,1,+999,9","80,1","SYN094AAXX  14181 01278 11485 82701 10056 20013 30111 40214 57019 69912 78082 889// 333 10064 4////;",
"01278099999","2010-04-15T06:00:00","4","63.7833333","11.6833333","83.0","VERDAL REPPE, NO","FM-12","99999","V020","999,9,C,0000,1","03000,1,9,N","020000,1,N,1","+0043,1","+0020,1","10135,1","12,0005,9,1","24,0008,9,1","9999,2,9,999999,9,9","8,1,06,1","6,1,06,1",,"08,99,1,01,1,07,1,00450,1,02,1,99,9","25,9","999,N,+0043,1","99999,9,10032,1","7,1,023,1,+999,9","61,1","SYN100AAXX  15061 01278 11470 80000 10043 20020 30032 40135 57023 69962 76186 8172/ 333 20043 41998 70007;","Q01  09982SNDP  "
"01278099999","2010-04-15T09:00:00","4","63.7833333","11.6833333","83.0","VERDAL REPPE, NO","FM-12","99999","V020","280,1,N,0030,1","03000,1,9,N","020000,1,N,1","+0044,1","+0024,1","10119,1",,,,"6,1,03,1","6,1,03,1",,"08,99,1,04,1,07,1,01250,1,02,1,99,9",,,"99999,9,10017,1","7,1,015,1,+999,9","61,1","SYN082AAXX  15091 01278 41670 82803 10044 20024 30017 40119 57015 76166 8472/ 333 4////;",
"01278099999","2010-04-15T12:00:00","4","63.7833333","11.6833333","83.0","VERDAL REPPE, NO","FM-12","99999","V020","270,1,N,0070,1","00420,1,9,N","025000,1,N,1","+0063,1","+0031,1","10099,1",,,,"8,1,06,1","6,1,06,1",,"08,99,1,08,1,09,1,00450,1,99,9,99,9",,,"99999,9,09997,1","7,1,018,1,+999,9","80,1","SYN088AAXX  15121 01278 11475 82707 10063 20031 39997 40099 57018 6//// 78086 889// 333 4////;",
"01278099999","2010-04-15T18:00:00","4","63.7833333","11.6833333","83.0","VERDAL REPPE, NO","FM-12","99999","V020","290,1,N,0050,1","00420,1,9,N","020000,1,N,1","+0030,1","+0014,1","10099,1","12,0020,9,1",,,"8,1,06,1","2,1,06,1",,"07,99,1,07,1,09,1,00450,1,99,9,99,9",,"120,M,+0069,1","99999,9,09996,1","7,1,001,1,+999,9","15,1","SYN094AAXX  15181 01278 11470 72905 10030 20014 39996 40099 57001 60022 71582 879// 333 10069 4////;",
"01278099999","2010-04-16T06:00:00","4","63.7833333","11.6833333","83.0","VERDAL REPPE, NO","FM-12","99999","V020","300,1,N,0050,1","00420,1,9,N","055000,1,N,1","+0011,1","-0002,1","10107,1","12,0041,9,1","24,0064,9,1","9999,3,9,999999,9,9","8,1,06,1","2,1,06,1",,"07,99,1,07,1,09,1,00450,1,99,9,99,9","30,9","999,N,+0005,1","99999,9,10003,1","2,1,010,1,+999,9","02,1","SYN100AAXX  16061 01278 11485 73005 10011 21002 30003 40107 52010 60042 70282 879// 333 20005 42997 70064;","Q01  09972SNDP  "
"01278099999","2010-04-16T09:00:00","4","63.7833333","11.6833333","83.0","VERDAL REPPE, NO","FM-12","99999","V020","320,1,N,0070,1","00240,1,9,N","002500,1,N,1","+0015,1","-0007,1","10112,1",,,,"8,1,03,1","2,1,03,1","09,1,+99999,9,99,9","09,99,1,09,1,99,9,99999,9,99,9,99,9",,,"99999,9,10008,1","2,1,006,1,+999,9","85,1","SYN076AAXX  16091 01278 41/25 93207 10015 21007 30008 40112 52006 78582 333 4////;",
"01278099999","2010-04-16T12:00:00","4","63.7833333","11.6833333","83.0","VERDAL REPPE, NO","FM-12","99999","V020","280,1,N,0070,1","00120,1,9,N","005000,1,N,1","+0008,1","-0006,1","10119,1",,,,"8,1,06,1","2,1,06,1",,"08,99,1,08,1,09,1,00150,1,99,9,99,9",,,"99999,9,10015,1","2,1,007,1,+999,9","85,1","SYN088AAXX  16121 01278 11250 82807 10008 21006 30015 40119 52007 6//// 78582 889// 333 4////;",
"01278099999","2010-04-16T18:00:00","4","63.7833333","11.6833333","83.0","VERDAL REPPE, NO","FM-12","99999","V020","270,1,N,0030,1","00750,1,9,N","055000,1,N,1","+0019,1","-0010,1","10089,1","12,0008,9,1",,,"8,1,06,1","2,1,06,1",,"08,99,1,07,1,09,1,00800,1,02,1,99,9",,"120,M,+0027,1","99999,9,09985,1","7,1,022,1,+999,9","85,1","SYN094AAXX  16181 01278 11585 82703 10019 21010 39985 40089 57022 69972 78582 8792/ 333 10027 4////;",
"01278099999","2010-04-17T06:00:00","4","63.7833333","11.6833333","83.0","VERDAL REPPE, NO","FM-12","99999","V020","280,1,N,0030,1","00420,1,9,N","020000,1,N,1","+0027,1","+0009,1","09940,1","12,0041,9,1","24,0043,9,1","9999,2,9,999999,9,9","8,1,06,1","2,1,06,1",,"07,99,1,07,1,09,1,00450,1,99,9,99,9","25,9","999,N,+0007,1","99999,9,09838,1","7,1,030,1,+999,9","16,1","SYN100AAXX  17061 01278 11470 72803 10027 20009 39838 49940 57030 60042 71682 879// 333 20007 41998 70042;","Q01  09982SNDP  "
"01278099999","2010-04-17T09:00:00","4","63.7833333","11.6833333","83.0","VERDAL REPPE, NO","FM-12","99999","V020","270,1,N,0030,1","01200,1,9,N","010000,1,N,1","+0042,1","+0017,1","09926,1",,,,"8,1,03,1","2,1,03,1",,"08,99,1,08,1,09,1,01250,1,99,9,99,9",,,"99999,9,09825,1","7,1,013,1,+999,9","80,1","SYN082AAXX  17091 01278 41660 82703 10042 20017 39825 49926 57013 78082 889// 333 4////;",
"01278099999","2010-04-17T12:00:00","4","63.7833333","11.6833333","83.0","VERDAL REPPE, NO","FM-12","99999","V020","280,1,N,0100,1","00420,1,9,N","025000,1,N,1","+0035,1","+0006,1","09941,1",,,,"8,1,06,1","2,1,06,1",,"08,99,1,08,1,09,1,00450,1,99,9,99,9",,,"99999,9,09839,1","3,1,015,1,+999,9","15,1","SYN088AAXX  17121 01278 11475 82810 10035 20006 39839 49941 53015 6//// 71582 889// 333 4////;",
"01278099999","2010-04-17T18:00:00","4","63.7833333","11.6833333","83.0","VERDAL REPPE, NO","FM-12","99999","V020","310,1,N,0070,1","01200,1,9,N","055000,1,N,1","+0025,1","-0049,1","09982,1","12,0020,9,1",,,"2,1,06,1","2,1,06,1",,"06,99,1,06,1,09,1,01250,1,99,9,99,9",,"120,M,+0046,1","99999,9,09880,1","2,1,009,1,+999,9","02,1","SYN094AAXX  17181 01278 11685 63107 10025 21049 39880 49982 52009 60022 70222 869// 333 10046 4////;",
"01278099999","2010-04-18T06:00:00","4","63.7833333","11.6833333","83.0","VERDAL REPPE, NO","FM-12","99999","V020","280,1,N,0050,1","00240,1,9,N","003500,1,N,1","+0012,1","-0022,1","10006,1","12,9999,9,9","24,0015,9,1","9999,3,9,999999,9,9","8,1,06,1","2,1,06,1","09,1,+99999,9,99,9","09,99,1,09,1,99,9,99999,9,99,9,99,9","27,9","999,N,-0006,1","99999,9,09903,1","2,1,003,1,+999,9","85,1","SYN094AAXX  18061 01278 11/35 92805 10012 21022 39903 40006 52003 69902 78582 333 21006 43997 70015;","Q01  00002PRCP12Q02  00002PRCP12Q03  09972SNDP  "
"01278099999","2010-04-18T09:00:00","4","63.7833333","11.6833333","83.0","VERDAL REPPE, NO","FM-12","99999","V020","270,1,N,0070,1","01200,1,9,N","055000,1,N,1","+0024,1","-0031,1","10013,1",,,,"8,1,03,1","2,1,03,1",,"07,99,1,07,1,09,1,01250,1,99,9,99,9",,,"99999,9,09910,1","2,1,008,1,+999,9","15,1","SYN082AAXX  18091 01278 41685 72707 10024 21031 39910 40013 52008 71582 879// 333 4////;",
"01278099999","2010-04-18T12:00:00","4","63.7833333","11.6833333","83.0","VERDAL REPPE, NO","FM-12","99999","V020","270,1,N,0070,1","01200,1,9,N","025000,1,N,1","+0022,1","-0019,1","10023,1",,,,"8,1,06,1","2,1,06,1",,"08,99,1,08,1,09,1,01250,1,99,9,99,9",,,"99999,9,09921,1","2,1,012,1,+999,9","15,1","SYN088AAXX  18121 01278 11675 82707 10022 21019 39921 40023 52012 6//// 71582 889// 333 4////;",
"01278099999","2010-04-18T18:00:00","4","63.7833333","11.6833333","83.0","VERDAL REPPE, NO","FM-12","99999","V020","290,1,N,0050,1","00750,1,9,N","055000,1,N,1","+0020,1","-0009,1","10052,1","12,0020,9,1",,,"8,1,06,1","2,1,06,1",,"07,99,1,07,1,09,1,00800,1,99,9,99,9",,"120,M,+0032,1","99999,9,09949,1","2,1,013,1,+999,9","85,1","SYN094AAXX  18181 01278 11585 72905 10020 21009 39949 40052 52013 60022 78582 879// 333 10032 4////;",
"01278099999","2010-04-19T06:00:00","4","63.7833333","11.6833333","83.0","VERDAL REPPE, NO","FM-12","99999","V020","290,1,N,0050,1","00750,1,9,N","003500,1,N,1","+0000,1","-0025,1","10095,1","12,0000,2,1","24,0023,9,1","9999,3,9,999999,9,9","8,1,06,1","2,1,06,1",,"07,99,1,07,1,09,1,00800,1,99,9,99,9","27,9","999,N,-0006,1","99999,9,09991,1","2,1,007,1,+999,9","85,1","SYN100AAXX  19061 01278 11535 72905 10000 21025 39991 40095 52007 69912 78582 879// 333 21006 43997 70023;","Q01  09972SNDP  "
"01278099999","2010-04-19T09:00:00","4","63.7833333","11.6833333","83.0","VERDAL REPPE, NO","FM-12","99999","V020","290,1,N,0050,1","01200,1,9,N","055000,1,N,1","+0010,1","-0027,1","10104,1",,,,"8,1,03,1","2,1,03,1",,"07,99,1,06,1,09,1,01250,1,06,1,01,1",,,"99999,9,10000,1","2,1,010,1,+999,9","16,1","SYN082AAXX  19091 01278 41685 72905 10010 21027 30000 40104 52010 71682 86961 333 4////;",
"01278099999","2010-04-19T12:00:00","4","63.7833333","11.6833333","83.0","VERDAL REPPE, NO","FM-12","99999","V020","290,1,N,0070,1","00420,1,9,N","030000,1,N,1","+0033,1","-0020,1","10121,1",,,,"8,1,06,1","2,1,06,1",,"07,99,1,07,1,09,1,00450,1,06,1,99,9",,,"99999,9,10017,1","2,1,017,1,+999,9","16,1","SYN088AAXX  19121 01278 11480 72907 10033 21020 30017 40121 52017 6//// 71682 8796/ 333 4////;",
"01278099999","2010-04-19T18:00:00","4","63.7833333","11.6833333","83.0","VERDAL REPPE, NO","FM-12","99999","V020","280,1,N,0050,1","01200,1,9,N","055000,1,N,1","+0025,1","-0036,1","10121,1","12,0003,9,1",,,"8,1,06,1","2,1,06,1",,"07,99,1,06,1,09,1,01250,1,06,1,09,1",,"120,M,+0044,1","99999,9,10017,1","4,1,000,1,+999,9","02,1","SYN094AAXX  19181 01278 11685 72805 10025 21036 30017 40121 54000 69932 70282 86969 333 10044 4////;",
"01278099999","2010-04-20T06:00:00","4","63.7833333","11.6833333","83.0","VERDAL REPPE, NO","FM-12","99999","V020","120,1,N,0050,1","01500,1,9,N","075000,1,N,1","-0015,1","-0049,1","10107,1","12,0000,9,1","24,0003,9,1","9999,2,9,999999,9,9","8,1,06,1","2,1,06,1",,"08,99,1,07,1,05,1,01750,1,07,1,99,9","25,9","999,N,-0020,1","99999,9,10002,1","7,1,002,1,+999,9","02,1","SYN100AAXX  20061 01278 11789 81205 11015 21049 30002 40107 57002 69902 70282 8757/ 333 21020 41998 70003;","Q01  00002PRCP12Q02  09982SNDP  "
"01278099999","2010-04-20T09:00:00","4","63.7833333","11.6833333","83.0","VERDAL REPPE, NO","FM-12","99999","V020","110,1,N,0050,1","01800,1,9,N","075000,1,N,1","+0027,1","-0028,1","10109,1",,,,"2,1,03,1","2,1,03,1",,"07,99,1,06,1,08,1,01750,1,07,1,99,9",,,"99999,9,10006,1","2,1,004,1,+999,9","02,1","SYN082AAXX  20091 01278 41789 71105 10027 21028 30006 40109 52004 70222 8687/ 333 4////;",
"01278099999","2010-04-20T12:00:00","4","63.7833333","11.6833333","83.0","VERDAL REPPE, NO","FM-12","99999","V020","320,1,N,0050,1","03000,1,9,N","075000,1,N,1","+0060,1","-0031,1","10107,1",,,,"2,1,06,1","2,1,06,1",,"08,99,1,04,1,08,1,01750,1,07,1,99,9",,,"99999,9,10005,1","7,1,001,1,+999,9","02,1","SYN088AAXX  20121 01278 11789 83205 10060 21031 30005 40107 57001 6//// 70222 8487/ 333 4////;",
"01278099999","2010-04-20T18:00:00","4","63.7833333","11.6833333","83.0","VERDAL REPPE, NO","FM-12","99999","V020","999,9,C,0000,1","03000,1,9,N","075000,1,N,1","+0064,1","-0024,1","10100,1","12,0000,9,1",,,"2,1,06,1","2,1,06,1",,"08,99,1,01,1,08,1,01750,1,01,1,99,9",,"120,M,+0072,1","99999,9,09998,1","4,1,000,1,+999,9","02,1","SYN094AAXX  20181 01278 11789 80000 10064 21024 39998 40100 54000 60002 70222 8181/ 333 10072 4////;","Q01  00002PRCP12"
"01278099999","2010-04-21T06:00:00","4","63.7833333","11.6833333","83.0","VERDAL REPPE, NO","FM-12","99999","V020","110,1,N,0010,1","99999,9,9,N","055000,1,N,1","-0005,1","-0033,1","10112,1","12,0000,9,1","24,0000,9,1","9999,2,9,999999,9,9","2,1,06,1","2,1,06,1",,"08,99,1,08,1,00,1,99999,9,01,1,99,9","25,9","999,N,-0015,1","99999,9,10008,1","2,1,001,1,+999,9","02,1","SYN100AAXX  21061 01278 11985 81101 11005 21033 30008 40112 52001 60002 70222 8801/ 333 21015 41998 70000;","Q01  00002PRCP24Q02  00002PRCP12Q03  09982SNDP  "
"01278099999","2010-04-21T09:00:00","4","63.7833333","11.6833333","83.0","VERDAL REPPE, NO","FM-12","99999","V020","999,9,C,0000,1","07500,1,9,N","055000,1,N,1","+0030,1","-0031,1","10114,1",,,,"2,1,03,1","2,1,03,1",,"08,99,1,01,1,08,1,01750,1,00,1,07,1",,,"99999,9,10011,1","2,1,004,1,+999,9","02,1","SYN082AAXX  21091 01278 41785 80000 10030 21031 30011 40114 52004 70222 81807 333 4////;",
"01278099999","2010-04-21T12:00:00","4","63.7833333","11.6833333","83.0","VERDAL REPPE, NO","FM-12","99999","V020","290,1,N,0050,1","01800,1,9,N","030000,1,N,1","+0069,1","-0003,1","10116,1",,,,"2,1,06,1","2,1,06,1",,"08,99,1,05,1,08,1,01750,1,02,1,99,9",,,"99999,9,10014,1","2,1,003,1,+999,9","02,1","SYN088AAXX  21121 01278 11780 82905 10069 21003 30014 40116 52003 6//// 70222 8582/ 333 4////;",
"01278099999","2010-04-21T18:00:00","4","63.7833333","11.6833333","83.0","VERDAL REPPE, NO","FM-12","99999","V020","300,1,N,0050,1","03000,1,9,N","055000,1,N,1","+0040,1","-0006,1","10118,1","12,0000,9,1",,,"8,1,06,1","2,1,06,1",,"07,99,1,04,1,09,1,01750,1,02,1,99,9",,"120,M,+0071,1","99999,9,10015,1","4,1,000,1,+999,9","02,1","SYN094AAXX  21181 01278 11785 73005 10040 21006 30015 40118 54000 69902 70282 8492/ 333 10071 4////;","Q01  00002PRCP12"
"01278099999","2010-04-22T06:00:00","4","63.7833333","11.6833333","83.0","VERDAL REPPE, NO","FM-12","99999","V020","110,1,N,0010,1","22000,1,9,N","055000,1,N,1","+0005,1","-0014,1","10115,1","12,0000,9,1","24,0000,9,1","9999,2,9,999999,9,9","1,1,06,1","1,1,06,1",,"02,99,1,02,1,08,1,00450,1,00,1,00,1","25,9","999,N,-0008,1","99999,9,10011,1","7,1,003,1,+999,9","02,1","SYN100AAXX  22061 01278 11485 21101 10005 21014 30011 40115 57003 60002 70211 82800 333 21008 41998 70000;","Q01  00002PRCP24Q02  00002PRCP12Q03  09982SNDP  "
"01278099999","2010-04-22T09:00:00","4","63.7833333","11.6833333","83.0","VERDAL REPPE, NO","FM-12","99999","V020","999,9,C,0000,1","01200,1,9,N","055000,1,N,1","+0038,1","-0021,1","10111,1",,,,"1,1,03,1","1,1,03,1",,"05,99,1,05,1,09,1,01250,1,00,1,00,1",,,"99999,9,10008,1","4,1,000,1,+999,9","03,1","SYN082AAXX  22091 01278 41685 50000 10038 21021 30008 40111 54000 70311 85900 333 4////;",
"01278099999","2010-04-22T12:00:00","4","63.7833333","11.6833333","83.0","VERDAL REPPE, NO","FM-12","99999","V020","320,1,N,0050,1","03000,1,9,N","075000,1,N,1","+0047,1","-0026,1","10104,1",,,,"1,1,06,1","1,1,06,1",,"05,99,1,04,1,09,1,01250,1,06,1,01,1",,,"99999,9,10002,1","7,1,006,1,+999,9","02,1","SYN088AAXX  22121 01278 11689 53205 10047 21026 30002 40104 57006 6//// 70211 84961 333 4////;",
"01278099999","2010-04-22T18:00:00","4","63.7833333","11.6833333","83.0","VERDAL REPPE, NO","FM-12","99999","V020","130,1,N,0050,1","22000,1,9,N","075000,1,N,1","+0058,1","-0038,1","10087,1","12,0000,9,1",,,"1,1,06,1","1,1,06,1",,"01,99,1,01,1,08,1,01250,1,00,1,01,1",,"120,M,+0073,1","99999,9,09985,1","7,1,003,1,+999,9","02,1","SYN094AAXX  22181 01278 11689 11305 10058 21038 39985 40087 57003 60002 70211 81801 333 10073 4////;","Q01  00002PRCP12"
"01278099999","2010-04-23T06:00:00","4","63.7833333","11.6833333","83.0","VERDAL REPPE, NO","FM-12","99999","V020","120,1,N,0050,1","22000,1,9,N","075000,1,N,1","+0003,1","-0055,1","10041,1","12,0000,9,1","24,0000,9,1","9999,2,9,999999,9,9","0,1,06,1","0,1,06,1",,"01,99,1,00,1,00,1,99999,9,00,1,01,1","25,9","999,N,-0028,1","99999,9,09938,1","7,1,010,1,+999,9","02,1","SYN100AAXX  23061 01278 11989 11205 10003 21055 39938 40041 57010 60002 70200 80001 333 21028 41998 70000;","Q01  00002PRCP24Q02  00002PRCP12Q03  09982SNDP  "
"01278099999","2010-04-23T09:00:00","4","63.7833333","11.6833333","83.0","VERDAL REPPE, NO","FM-12","99999","V020","120,1,N,0050,1","22000,1,9,N","075000,1,N,1","+0050,1","-0065,1","10036,1",,,,"0,1,03,1","0,1,03,1",,"02,99,1,00,1,00,1,99999,9,00,1,08,1",,,"99999,9,09934,1","5,1,002,1,+999,9","02,1","SYN082AAXX  23091 01278 41989 21205 10050 21065 39934 40036 55002 70200 80008 333 4////;",
"01278099999","2010-04-23T12:00:00","4","63.7833333","11.6833333","83.0","VERDAL REPPE, NO","FM-12","99999","V020","130,1,N,0050,1","22000,1,9,N","075000,1,N,1","+0081,1","-0064,1","10035,1",,,,"0,1,06,1","0,1,06,1",,"01,99,1,01,1,02,1,01750,1,00,1,02,1",,,"99999,9,09935,1","2,1,001,1,+999,9","02,1","SYN088AAXX  23121 01278 11789 11305 10081 21064 39935 40035 52001 6//// 70200 81202 333 4////;",
"01278099999","2010-04-23T18:00:00","4","63.7833333","11.6833333","83.0","VERDAL REPPE, NO","FM-12","99999","V020","110,1,N,0030,1","22000,1,9,N","075000,1,N,1","+0072,1","-0058,1","10055,1","12,0000,9,1",,,"1,1,06,1","1,1,06,1",,"07,99,1,01,1,09,1,01750,1,00,1,01,1",,"120,M,+0095,1","99999,9,09954,1","2,1,015,1,+999,9","02,1","SYN094AAXX  23181 01278 11789 71103 10072 21058 39954 40055 52015 60002 70211 81901 333 10095 4////;","Q01  00002PRCP12"
"01278099999","2010-04-24T06:00:00","4","63.7833333","11.6833333","83.0","VERDAL REPPE, NO","FM-12","99999","V020","120,1,N,0010,1","00750,1,9,N","055000,1,N,1","+0015,1","-0016,1","10153,1","12,0000,9,1","24,0000,9,1","9999,2,9,999999,9,9","1,1,06,1","1,1,06,1",,"07,99,1,07,1,05,1,00800,1,99,9,99,9","25,9","999,N,-0016,1","99999,9,10048,1","2,1,020,1,+999,9","02,1","SYN100AAXX  24061 01278 11585 71201 10015 21016 30048 40153 52020 60002 70211 875// 333 21016 41998 70000;","Q01  00002PRCP24Q02  00002PRCP12Q03  09982SNDP  "
"01278099999","2010-04-24T09:00:00","4","63.7833333","11.6833333","83.0","VERDAL REPPE, NO","FM-12","99999","V020","310,1,N,0050,1","22000,1,9,N","055000,1,N,1","+0047,1","-0009,1","10171,1",,,,"2,1,03,1","2,1,03,1",,"04,99,1,04,1,05,1,00800,1,00,1,00,1",,,"99999,9,10068,1","2,1,020,1,+999,9","01,1","SYN082AAXX  24091 01278 41585 43105 10047 21009 30068 40171 52020 70122 84500 333 4////;",
"01278099999","2010-04-24T12:00:00","4","63.7833333","11.6833333","83.0","VERDAL REPPE, NO","FM-12","99999","V020","310,1,N,0050,1","22000,1,9,N","075000,1,N,1","+0075,1","-0004,1","10182,1",,,,"0,1,06,1","0,1,06,1",,"02,99,1,02,1,02,1,01750,1,00,1,00,1",,,"99999,9,10080,1","2,1,015,1,+999,9","02,1","SYN088AAXX  24121 01278 11789 23105 10075 21004 30080 40182 52015 6//// 70200 82200 333 4////;",
"01278099999","2010-04-24T18:00:00","4","63.7833333","11.6833333","83.0","VERDAL REPPE, NO","FM-12","99999","V020","290,1,N,0050,1","01500,1,9,N","055000,1,N,1","+0063,1","-0016,1","10207,1","12,0000,9,1",,,"1,1,06,1","1,1,06,1",,"05,99,1,05,1,09,1,01750,1,99,9,99,9",,"120,M,+0094,1","99999,9,10104,1","2,1,010,1,+999,9","02,1","SYN094AAXX  24181 01278 11785 52905 10063 21016 30104 40207 52010 60002 70211 859// 333 10094 4////;","Q01  00002PRCP12"
"01278099999","2010-04-25T06:00:00","4","63.7833333","11.6833333","83.0","VERDAL REPPE, NO","FM-12","99999","V020","999,9,C,0000,1","01800,1,9,N","075000,1,N,1","+0047,1","-0007,1","10243,1","12,0000,9,1","24,0000,9,1","9999,2,9,999999,9,9","1,1,06,1","1,1,06,1",,"07,99,1,05,1,08,1,01750,1,06,1,01,1","25,9","999,N,+0008,1","99999,9,10139,1","2,1,010,1,+999,9","02,1","SYN100AAXX  25061 01278 11789 70000 10047 21007 30139 40243 52010 60002 70211 85861 333 20008 41998 70000;","Q01  00002PRCP24Q02  00002PRCP12Q03  09982SNDP  "
"01278099999","2010-04-25T09:00:00","4","63.7833333","11.6833333","83.0","VERDAL REPPE, NO","FM-12","99999","V020","280,1,N,0050,1","22000,1,9,N","075000,1,N,1","+0068,1","-0026,1","10253,1",,,,"1,1,03,1","1,1,03,1",,"04,99,1,04,1,08,1,01250,1,06,1,01,1",,,"99999,9,10150,1","2,1,011,1,+999,9","02,1","SYN082AAXX  25091 01278 41689 42805 10068 21026 30150 40253 52011 70211 84861 333 4////;",
"01278099999","2010-04-25T12:00:00","4","63.7833333","11.6833333","83.0","VERDAL REPPE, NO","FM-12","99999","V020","220,1,N,0010,1","22000,1,9,N","055000,1,N,1","+0079,1","-0018,1","10253,1",,,,"1,1,06,1","1,1,06,1",,"03,99,1,03,1,08,1,01750,1,00,1,00,1",,,"99999,9,10150,1","2,1,002,1,+999,9","02,1","SYN088AAXX  25121 01278 11785 32201 10079 21018 30150 40253 52002 6//// 70211 83800 333 4////;",
"01278099999","2010-04-25T18:00:00","4","63.7833333","11.6833333","83.0","VERDAL REPPE, NO","FM-12","99999","V020","150,1,N,0050,1","22000,1,9,N","055000,1,N,1","+0092,1","-0047,1","10237,1","12,0000,9,1",,,"0,1,06,1","0,1,06,1",,"01,99,1,00,1,00,1,99999,9,00,1,01,1",,"120,M,+0107,1","99999,9,10135,1","7,1,017,1,+999,9","02,1","SYN094AAXX  25181 01278 11985 11505 10092 21047 30135 40237 57017 60002 70200 80001 333 10107 4////;","Q01  00002PRCP12"
"01278099999","2010-04-26T06:00:00","4","63.7833333","11.6833333","83.0","VERDAL REPPE, NO","FM-12","99999","V020","150,1,N,0010,1","99999,9,9,N","075000,1,N,1","+0059,1","-0017,1","10174,1","12,0000,9,1","24,0000,9,1","9999,2,9,999999,9,9","1,1,06,1","1,1,06,1",,"08,99,1,01,1,00,1,99999,9,04,1,08,1","25,9","999,N,+0029,1","99999,9,10072,1","7,1,016,1,+999,9","02,1","SYN100AAXX  26061 01278 11989 81501 10059 21017 30072 40174 57016 60002 70211 81048 333 20029 41998 70000;","Q01  00002PRCP24Q02  00002PRCP12Q03  09982SNDP  "
"01278099999","2010-04-26T09:00:00","4","63.7833333","11.6833333","83.0","VERDAL REPPE, NO","FM-12","99999","V020","120,1,N,0030,1","99999,9,9,N","055000,1,N,1","+0125,1","-0007,1","10146,1",,,,"2,1,03,1","2,1,03,1",,"07,99,1,00,1,00,1,99999,9,00,1,08,1",,,"99999,9,10046,1","7,1,024,1,+999,9","02,1","SYN082AAXX  26091 01278 41985 71203 10125 21007 30046 40146 57024 70222 80008 333 4////;",
"01278099999","2010-04-26T12:00:00","4","63.7833333","11.6833333","83.0","VERDAL REPPE, NO","FM-12","99999","V020","200,1,N,0050,1","03000,1,9,N","030000,1,N,1","+0132,1","+0003,1","10126,1",,,,"2,1,06,1","2,1,06,1",,"07,99,1,01,1,08,1,01750,1,07,1,02,1",,,"99999,9,10026,1","7,1,020,1,+999,9","02,1","SYN088AAXX  26121 01278 11780 72005 10132 20003 30026 40126 57020 6//// 70222 81872 333 4////;",
"01278099999","2010-04-26T18:00:00","4","63.7833333","11.6833333","83.0","VERDAL REPPE, NO","FM-12","99999","V020","130,1,N,0030,1","02100,1,9,N","055000,1,N,1","+0107,1","+0026,1","10094,1","12,0000,9,1",,,"6,1,06,1","2,1,06,1",,"07,99,1,07,1,00,1,02250,1,07,1,99,9",,"120,M,+0142,1","99999,9,09994,1","7,1,015,1,+999,9","02,1","SYN094AAXX  26181 01278 11885 71303 10107 20026 39994 40094 57015 69902 70262 8707/ 333 10142 4////;","Q01  00002PRCP12"
"01278099999","2010-04-27T06:00:00","4","63.7833333","11.6833333","83.0","VERDAL REPPE, NO","FM-12","99999","V020","280,1,N,0010,1","00420,1,9,N","055000,1,N,1","+0016,1","+0001,1","10181,1","12,0071,9,2","24,0066,9,2","0001,9,1,999999,9,9","8,1,06,1","2,1,06,1",,"07,99,1,05,1,09,1,00450,1,06,1,99,9","27,9","999,N,+0001,1","99999,9,10077,1","2,1,036,1,+999,9","85,1","SYN100AAXX  27061 01278 11485 72801 10016 20001 30077 40181 52036 60072 78582 8596/ 333 20001 43001 70065;",
"01278099999","2010-04-27T09:00:00","4","63.7833333","11.6833333","83.0","VERDAL REPPE, NO","FM-12","99999","V020","280,1,N,0070,1","00750,1,9,N","030000,1,N,1","+0029,1","-0004,1","10200,1",,,,"2,1,03,1","2,1,03,1",,"07,99,1,06,1,09,1,00800,1,06,1,99,9",,,"99999,9,10096,1","2,1,019,1,+999,9","15,1","SYN082AAXX  27091 01278 41580 72807 10029 21004 30096 40200 52019 71522 8696/ 333 4////;",
"01278099999","2010-04-27T12:00:00","4","63.7833333","11.6833333","83.0","VERDAL REPPE, NO","FM-12","99999","V020","270,1,N,0070,1","00750,1,9,N","020000,1,N,1","+0054,1","-0022,1","10205,1",,,,"8,1,06,1","2,1,06,1",,"07,99,1,06,1,09,1,00800,1,06,1,02,1",,,"99999,9,10102,1","2,1,006,1,+999,9","16,1","SYN088AAXX  27121 01278 11570 72707 10054 21022 30102 40205 52006 6//// 71682 86962 333 4////;",
"01278099999","2010-04-27T18:00:00","4","63.7833333","11.6833333","83.0","VERDAL REPPE, NO","FM-12","99999","V020","300,1,N,0070,1","22000,1,9,N","055000,1,N,1","+0049,1","-0046,1","10206,1","12,0000,2,1",,,"8,1,06,1","2,1,06,1",,"04,99,1,03,1,09,1,01250,1,06,1,00,1",,"120,M,+0064,1","99999,9,10102,1","2,1,002,1,+999,9","02,1","SYN094AAXX  27181 01278 11685 43007 10049 21046 30102 40206 52002 69912 70282 83960 333 10064 4////;",
"01278099999","2010-04-28T06:00:00","4","63.7833333","11.6833333","83.0","VERDAL REPPE, NO","FM-12","99999","V020","140,1,N,0010,1","01500,1,9,N","055000,1,N,1","+0017,1","-0034,1","10184,1","12,0000,9,1","24,0000,2,1","9999,2,9,999999,9,9","1,1,06,1","1,1,06,1",,"07,99,1,05,1,05,1,01750,1,00,1,02,1","25,9","999,N,-0001,1","99999,9,10080,1","7,1,012,1,+999,9","02,1","SYN100AAXX  28061 01278 11785 71401 10017 21034 30080 40184 57012 60002 70211 85502 333 21001 41998 70001;","Q01  00002PRCP12Q02  09982SNDP  "
"01278099999","2010-04-28T09:00:00","4","63.7833333","11.6833333","83.0","VERDAL REPPE, NO","FM-12","99999","V020","140,1,N,0050,1","07500,1,9,N","055000,1,N,1","+0047,1","-0053,1","10167,1",,,,"2,1,03,1","2,1,03,1",,"07,99,1,01,1,04,1,01250,1,00,1,08,1",,,"99999,9,10064,1","7,1,014,1,+999,9","01,1","SYN082AAXX  28091 01278 41685 71405 10047 21053 30064 40167 57014 70122 81408 333 4////;",
"01278099999","2010-04-28T12:00:00","4","63.7833333","11.6833333","83.0","VERDAL REPPE, NO","FM-12","99999","V020","150,1,N,0030,1","99999,9,9,N","075000,1,N,1","+0070,1","-0060,1","10137,1",,,,"2,1,06,1","2,1,06,1",,"08,99,1,08,1,00,1,99999,9,01,1,99,9",,,"99999,9,10035,1","7,1,028,1,+999,9","03,1","SYN088AAXX  28121 01278 11989 81503 10070 21060 30035 40137 57028 6//// 70322 8801/ 333 4////;",
"01278099999","2010-04-28T18:00:00","4","63.7833333","11.6833333","83.0","VERDAL REPPE, NO","FM-12","99999","V020","130,1,N,0050,1","03000,1,9,N","030000,1,N,1","+0075,1","-0007,1","10077,1","12,0000,9,1",,,"2,1,06,1","2,1,06,1",,"08,99,1,04,1,05,1,01750,1,02,1,99,9",,"120,M,+0092,1","99999,9,09976,1","7,1,030,1,+999,9","02,1","SYN094AAXX  28181 01278 11780 81305 10075 21007 39976 40077 57030 60002 70222 8452/ 333 10092 4////;","Q01  00002PRCP12"
"01278099999","2010-04-29T06:00:00","4","63.7833333","11.6833333","83.0","VERDAL REPPE, NO","FM-12","99999","V020","150,1,N,0030,1","03000,1,9,N","020000,1,N,1","+0046,1","+0037,1","10010,1","12,0041,9,2","24,0036,9,2","9999,2,9,999999,9,9","6,1,06,1","2,1,06,1",,"08,99,1,01,1,07,1,00150,1,02,1,99,9","25,9","999,N,+0035,1","99999,9,09908,1","7,1,025,1,+999,9","60,1","SYN100AAXX  29061 01278 11270 81503 10046 20037 39908 40010 57025 60042 76062 8172/ 333 20035 41998 70036;","Q01  09982SNDP  "
"01278099999","2010-04-29T09:00:00","4","63.7833333","11.6833333","83.0","VERDAL REPPE, NO","FM-12","99999","V020","999,9,C,0000,1","03000,1,9,N","020000,1,N,1","+0062,1","+0050,1","09998,1",,,,"6,1,03,1","6,1,03,1",,"08,99,1,04,1,07,1,00150,1,02,1,99,9",,,"99999,9,09897,1","7,1,012,1,+999,9","61,1","SYN082AAXX  29091 01278 41270 80000 10062 20050 39897 49998 57012 76166 8472/ 333 4////;",
"01278099999","2010-04-29T12:00:00","4","63.7833333","11.6833333","83.0","VERDAL REPPE, NO","FM-12","99999","V020","130,1,N,0010,1","00120,1,9,N","006000,1,N,1","+0087,1","+0072,1","09987,1",,,,"6,1,06,1","6,1,06,1",,"08,99,1,06,1,06,1,00150,1,02,1,99,9",,,"99999,9,09887,1","7,1,010,1,+999,9","61,1","SYN088AAXX  29121 01278 11256 81301 10087 20072 39887 49987 57010 6//// 76166 8662/ 333 4////;",
"01278099999","2010-04-29T18:00:00","4","63.7833333","11.6833333","83.0","VERDAL REPPE, NO","FM-12","99999","V020","999,9,C,0000,1","00030,1,9,N","004000,1,N,1","+0089,1","+0078,1","09973,1","12,0041,9,1",,,"6,1,06,1","6,1,06,1",,"08,99,1,08,1,06,1,00025,1,99,9,99,9",,"120,M,+0100,1","99999,9,09873,1","7,1,001,1,+999,9","61,1","SYN094AAXX  29181 01278 11040 80000 10089 20078 39873 49973 57001 60042 76166 886// 333 10100 4////;",
"01278099999","2010-04-30T06:00:00","4","63.7833333","11.6833333","83.0","VERDAL REPPE, NO","FM-12","99999","V020","999,9,C,0000,1","03000,1,9,N","015000,1,N,1","+0082,1","+0070,1","09962,1","12,0089,9,1","24,0122,9,1","9999,2,9,999999,9,9","6,1,06,1","2,1,06,1",,"08,99,1,04,1,07,1,00450,1,02,1,99,9","25,9","999,N,+0071,1","99999,9,09862,1","7,1,004,1,+999,9","61,1","SYN100AAXX  30061 01278 11465 80000 10082 20070 39862 49962 57004 60092 76162 8472/ 333 20071 41998 70122;","Q01  09982SNDP  "
"01278099999","2010-04-30T09:00:00","4","63.7833333","11.6833333","83.0","VERDAL REPPE, NO","FM-12","99999","V020","999,9,C,0000,1","03000,1,9,N","015000,1,N,1","+0085,1","+0071,1","09961,1",,,,"6,1,03,1","6,1,03,1",,"08,99,1,04,1,07,1,00450,1,02,1,99,9",,,"99999,9,09861,1","4,1,000,1,+999,9","61,1","SYN082AAXX  30091 01278 41465 80000 10085 20071 39861 49961 54000 76166 8472/ 333 4////;",
"01278099999","2010-04-30T12:00:00","4","63.7833333","11.6833333","83.0","VERDAL REPPE, NO","FM-12","99999","V020","290,1,N,0030,1","00420,1,9,N","055000,1,N,1","+0087,1","+0063,1","09964,1",,,,"8,1,06,1","6,1,06,1",,"08,99,1,08,1,09,1,00450,1,99,9,99,9",,,"99999,9,09864,1","1,1,004,1,+999,9","80,1","SYN088AAXX  30121 01278 11485 82903 10087 20063 39864 49964 51004 6//// 78086 889// 333 4////;",
"01278099999","2010-04-30T18:00:00","4","63.7833333","11.6833333","83.0","VERDAL REPPE, NO","FM-12","99999","V020","290,1,N,0010,1","00420,1,9,N","025000,1,N,1","+0066,1","+0052,1","09949,1","12,0061,9,1",,,"8,1,06,1","2,1,06,1",,"08,99,1,08,1,09,1,00450,1,99,9,99,9",,"120,M,+0092,1","99999,9,09848,1","7,1,007,1,+999,9","15,1","SYN094AAXX  30181 01278 11475 82901 10066 20052 39848 49949 57007 60062 71582 889// 333 10092 4////;",
"01278099999","2010-05-01T06:00:00","4","63.7833333","11.6833333","83.0","VERDAL REPPE, NO","FM-12","99999","V020","290,1,N,0070,1","00210,1,9,N","055000,1,N,1","+0028,1","+0010,1","09962,1","12,0030,9,1","24,0086,9,1","9999,2,9,999999,9,9","8,1,06,1","6,1,06,1",,"08,99,1,08,1,09,1,00250,1,99,9,99,9","25,9","999,N,+0028,1","99999,9,09860,1","2,1,009,1,+999,9","80,1","SYN100AAXX  01061 01278 11385 82907 10028 20010 39860 49962 52009 60032 78086 889// 333 20028 41998 70086;","Q01  09982SNDP  "
"01278099999","2010-05-01T09:00:00","4","63.7833333","11.6833333","83.0","VERDAL REPPE, NO","FM-12","99999","V020","280,1,N,0070,1","00750,1,9,N","055000,1,N,1","+0041,1","+0018,1","09976,1",,,,"8,1,03,1","2,1,03,1",,"07,99,1,07,1,09,1,00800,1,99,9,99,9",,,"99999,9,09874,1","2,1,014,1,+999,9","02,1","SYN082AAXX  01091 01278 41585 72807 10041 20018 39874 49976 52014 70282 879// 333 4////;",
"01278099999","2010-05-01T12:00:00","4","63.7833333","11.6833333","83.0","VERDAL REPPE, NO","FM-12","99999","V020","320,1,N,0070,1","03000,1,9,N","055000,1,N,1","+0024,1","+0005,1","09986,1",,,,"8,1,06,1","2,1,06,1",,"07,99,1,04,1,09,1,00800,1,06,1,01,1",,,"99999,9,09884,1","2,1,010,1,+999,9","80,1","SYN088AAXX  01121 01278 11585 73207 10024 20005 39884 49986 52010 6//// 78082 84961 333 4////;",
"01278099999","2010-05-01T18:00:00","4","63.7833333","11.6833333","83.0","VERDAL REPPE, NO","FM-12","99999","V020","290,1,N,0070,1","00750,1,9,N","030000,1,N,1","+0036,1","-0008,1","10019,1","12,0005,9,1",,,"8,1,06,1","2,1,06,1",,"07,99,1,07,1,09,1,00800,1,99,9,99,9",,"120,M,+0055,1","99999,9,09917,1","2,1,017,1,+999,9","02,1","SYN094AAXX  01181 01278 11580 72907 10036 21008 39917 40019 52017 69952 70282 879// 333 10055 4////;",
"01278099999","2010-05-02T06:00:00","4","63.7833333","11.6833333","83.0","VERDAL REPPE, NO","FM-12","99999","V020","290,1,N,0070,1","00750,1,9,N","055000,1,N,1","+0020,1","-0012,1","10083,1","12,0000,9,1","24,0005,9,1","9999,2,9,999999,9,9","8,1,06,1","2,1,06,1",,"07,99,1,07,1,09,1,00800,1,99,9,99,9","25,9","999,N,+0006,1","99999,9,09980,1","2,1,015,1,+999,9","15,1","SYN100AAXX  02061 01278 11585 72907 10020 21012 39980 40083 52015 69912 71582 879// 333 20006 41998 70006;","Q01  00002PRCP12Q02  09982SNDP  "
"01278099999","2010-05-02T09:00:00","4","63.7833333","11.6833333","83.0","VERDAL REPPE, NO","FM-12","99999","V020","290,1,N,0070,1","01200,1,9,N","055000,1,N,1","+0036,1","-0025,1","10097,1",,,,"2,1,03,1","2,1,03,1",,"07,99,1,07,1,09,1,01250,1,99,9,99,9",,,"99999,9,09994,1","2,1,006,1,+999,9","02,1","SYN082AAXX  02091 01278 41685 72907 10036 21025 39994 40097 52006 70222 879// 333 4////;",
"01278099999","2010-05-02T12:00:00","4","63.7833333","11.6833333","83.0","VERDAL REPPE, NO","FM-12","99999","V020","330,1,N,0070,1","01200,1,9,N","055000,1,N,1","+0036,1","-0023,1","10113,1",,,,"8,1,06,1","2,1,06,1",,"07,99,1,06,1,09,1,01250,1,06,1,01,1",,,"99999,9,10010,1","2,1,017,1,+999,9","02,1","SYN088AAXX  02121 01278 11685 73307 10036 21023 30010 40113 52017 6//// 70282 86961 333 4////;",
"01278099999","2010-05-02T18:00:00","4","63.7833333","11.6833333","83.0","VERDAL REPPE, NO","FM-12","99999","V020","310,1,N,0050,1","01200,1,9,N","055000,1,N,1","+0042,1","-0024,1","10135,1","12,0000,9,1",,,"8,1,06,1","2,1,06,1",,"07,99,1,07,1,09,1,01250,1,99,9,99,9",,"120,M,+0065,1","99999,9,10032,1","2,1,010,1,+999,9","15,1","SYN094AAXX  02181 01278 11685 73105 10042 21024 30032 40135 52010 69902 71582 879// 333 10065 4////;","Q01  00002PRCP12"
"01278099999","2010-05-03T06:00:00","4","63.7833333","11.6833333","83.0","VERDAL REPPE, NO","FM-12","99999","V020","300,1,N,0050,1","00420,1,9,N","020000,1,N,1","+0017,1","-0001,1","10169,1","12,0003,9,1","24,0003,9,1","9999,2,9,999999,9,9","8,1,06,1","2,1,06,1",,"08,99,1,08,1,09,1,00450,1,99,9,99,9","25,9","999,N,+0013,1","99999,9,10065,1","2,1,002,1,+999,9","85,1","SYN100AAXX  03061 01278 11470 83005 10017 21001 30065 40169 52002 69932 78582 889// 333 20013 41998 70003;","Q01  09982SNDP  "
"01278099999","2010-05-03T09:00:00","4","63.7833333","11.6833333","83.0","VERDAL REPPE, NO","FM-12","99999","V020","330,1,N,0010,1","00420,1,9,N","015000,1,N,1","+0010,1","-0003,1","10178,1",,,,"8,1,03,1","2,1,03,1",,"08,99,1,08,1,09,1,00450,1,99,9,99,9",,,"99999,9,10073,1","2,1,008,1,+999,9","85,1","SYN082AAXX  03091 01278 41465 83301 10010 21003 30073 40178 52008 78582 889// 333 4////;",
"01278099999","2010-05-03T12:00:00","4","63.7833333","11.6833333","83.0","VERDAL REPPE, NO","FM-12","99999","V020","280,1,N,0050,1","00060,1,9,N","010000,1,N,1","+0010,1","-0001,1","10176,1",,,,"8,1,06,1","2,1,06,1",,"08,99,1,08,1,09,1,00075,1,99,9,99,9",,,"99999,9,10072,1","7,1,001,1,+999,9","85,1","SYN088AAXX  03121 01278 11160 82805 10010 21001 30072 40176 57001 6//// 78582 889// 333 4////;",
"01278099999","2010-05-03T18:00:00","4","63.7833333","11.6833333","83.0","VERDAL REPPE, NO","FM-12","99999","V020","330,1,N,0010,1","03000,1,9,N","055000,1,N,1","+0030,1","-0021,1","10179,1","12,0051,9,1",,,"8,1,06,1","2,1,06,1",,"06,99,1,04,1,09,1,00800,1,06,1,01,1",,"120,M,+0046,1","99999,9,10075,1","2,1,002,1,+999,9","02,1","SYN094AAXX  03181 01278 11585 63301 10030 21021 30075 40179 52002 60052 70282 84961 333 10046 4////;",
"01278099999","2010-05-04T06:00:00","4","63.7833333","11.6833333","83.0","VERDAL REPPE, NO","FM-12","99999","V020","150,1,N,0010,1","22000,1,9,N","055000,1,N,1","-0015,1","-0024,1","10217,1","12,0000,9,1","24,0048,9,1","9999,2,9,999999,9,9",,,,"02,99,1,02,1,08,1,01250,1,00,1,00,1","25,9","999,N,-0018,1","99999,9,10112,1","2,1,008,1,+999,9",,"SYN100AAXX  04061 01278 11685 21501 11015 21024 30112 40217 52008 69902 7//81 82800 333 21018 41998 70049;","Q01  00002PRCP12Q02  09982SNDP  "
"01278099999","2010-05-04T09:00:00","4","63.7833333","11.6833333","83.0","VERDAL REPPE, NO","FM-12","99999","V020","280,1,N,0030,1","01500,1,9,N","075000,1,N,1","+0026,1","-0027,1","10227,1",,,,"1,1,03,1","1,1,03,1",,"05,99,1,05,1,08,1,01250,1,00,1,01,1",,,"99999,9,10123,1","2,1,011,1,+999,9","02,1","SYN082AAXX  04091 01278 41689 52803 10026 21027 30123 40227 52011 70211 85801 333 4////;",
"01278099999","2010-05-04T12:00:00","4","63.7833333","11.6833333","83.0","VERDAL REPPE, NO","FM-12","99999","V020","300,1,N,0050,1","01200,1,9,N","030000,1,N,1","+0045,1","-0032,1","10222,1",,,,"2,1,06,1","2,1,06,1",,"07,99,1,06,1,09,1,01250,1,06,1,99,9",,,"99999,9,10118,1","7,1,003,1,+999,9","16,1","SYN088AAXX  04121 01278 11680 73005 10045 21032 30118 40222 57003 6//// 71622 8696/ 333 4////;",
"01278099999","2010-05-04T18:00:00","4","63.7833333","11.6833333","83.0","VERDAL REPPE, NO","FM-12","99999","V020","280,1,N,0050,1","01200,1,9,N","030000,1,N,1","+0037,1","+0008,1","10220,1","12,0000,9,1",,,"8,1,06,1","2,1,06,1",,"07,99,1,07,1,09,1,01250,1,99,9,99,9",,"120,M,+0057,1","99999,9,10116,1","7,1,004,1,+999,9","15,1","SYN094AAXX  04181 01278 11680 72805 10037 20008 30116 40220 57004 69902 71582 879// 333 10057 4////;","Q01  00002PRCP12"
"01278099999","2010-05-05T06:00:00","4","63.7833333","11.6833333","83.0","VERDAL REPPE, NO","FM-12","99999","V020","270,1,N,0010,1","00420,1,9,N","030000,1,N,1","+0023,1","+0007,1","10210,1","12,0000,9,1","24,0000,9,1","9999,2,9,999999,9,9","8,1,06,1","2,1,06,1",,"08,99,1,08,1,09,1,00450,1,99,9,99,9","25,9","999,N,+0010,1","99999,9,10106,1","7,1,007,1,+999,9","02,1","SYN100AAXX  05061 01278 11480 82701 10023 20007 30106 40210 57007 69912 70282 889// 333 20010 41998 70001;","Q01  00002PRCP24Q02  00002PRCP12Q03  09982SNDP  "
"01278099999","2010-05-05T09:00:00","4","63.7833333","11.6833333","83.0","VERDAL REPPE, NO","FM-12","99999","V020","270,1,N,0050,1","00750,1,9,N","055000,1,N,1","+0040,1","+0004,1","10207,1",,,,"2,1,03,1","2,1,03,1",,"07,99,1,07,1,09,1,00800,1,99,9,99,9",,,"99999,9,10104,1","7,1,002,1,+999,9","02,1","SYN082AAXX  05091 01278 41585 72705 10040 20004 30104 40207 57002 70222 879// 333 4////;",
"01278099999","2010-05-05T12:00:00","4","63.7833333","11.6833333","83.0","VERDAL REPPE, NO","FM-12","99999","V020","280,1,N,0050,1","00750,1,9,N","030000,1,N,1","+0051,1","-0025,1","10202,1",,,,"2,1,06,1","2,1,06,1",,"07,99,1,06,1,09,1,00800,1,06,1,02,1",,,"99999,9,10099,1","7,1,005,1,+999,9","15,1","SYN088AAXX  05121 01278 11580 72805 10051 21025 30099 40202 57005 6//// 71522 86962 333 4////;",
"01278099999","2010-05-05T18:00:00","4","63.7833333","11.6833333","83.0","VERDAL REPPE, NO","FM-12","99999","V020","280,1,N,0010,1","01200,1,9,N","055000,1,N,1","+0044,1","+0014,1","10192,1","12,9999,9,9",,,"8,1,06,1","2,1,06,1",,"07,99,1,07,1,09,1,01250,1,99,9,99,9",,"120,M,+0073,1","99999,9,10089,1","4,1,000,1,+999,9","80,1","SYN094AAXX  05181 01278 11685 72801 10044 20014 30089 40192 54000 69912 78082 879// 333 10073 4////;","Q01  00002PRCP12Q02  00002PRCP12"
"01278099999","2010-05-06T06:00:00","4","63.7833333","11.6833333","83.0","VERDAL REPPE, NO","FM-12","99999","V020","150,1,N,0030,1","22000,1,9,N","055000,1,N,1","+0016,1","-0015,1","10213,1","12,0000,2,1","24,0000,2,1","9999,2,9,999999,9,9","8,1,06,1","1,1,06,1","00,1,+99999,9,99,9","00,99,1,00,1,00,1,99999,9,00,1,00,1","25,9","999,N,-0014,1","99999,9,10108,1","2,1,010,1,+999,9","02,1","SYN094AAXX  06061 01278 11985 01503 10016 21015 30108 40213 52010 69902 70281 333 21014 41998 70001;","Q01  09982SNDP  "
"01278099999","2010-05-06T09:00:00","4","63.7833333","11.6833333","83.0","VERDAL REPPE, NO","FM-12","99999","V020","120,1,N,0050,1","22000,1,9,N","075000,1,N,1","+0066,1","-0020,1","10220,1",,,,"0,1,03,1","0,1,03,1",,"01,99,1,01,1,01,1,01750,1,00,1,00,1",,,"99999,9,10117,1","2,1,012,1,+999,9","02,1","SYN082AAXX  06091 01278 41789 11205 10066 21020 30117 40220 52012 70200 81100 333 4////;",
"01278099999","2010-05-06T12:00:00","4","63.7833333","11.6833333","83.0","VERDAL REPPE, NO","FM-12","99999","V020","140,1,N,0050,1","22000,1,9,N","075000,1,N,1","+0098,1","-0028,1","10220,1",,,,"0,1,06,1","0,1,06,1",,"01,99,1,01,1,01,1,01750,1,00,1,00,1",,,"99999,9,10118,1","1,1,002,1,+999,9","02,1","SYN088AAXX  06121 01278 11789 11405 10098 21028 30118 40220 51002 6//// 70200 81100 333 4////;",
"01278099999","2010-05-06T18:00:00","4","63.7833333","11.6833333","83.0","VERDAL REPPE, NO","FM-12","99999","V020","150,1,N,0050,1","22000,1,9,N","055000,1,N,1","+0108,1","-0048,1","10230,1","12,0000,9,1",,,"0,1,06,1","0,1,06,1",,"01,99,1,01,1,01,1,01750,1,00,1,00,1",,"120,M,+0117,1","99999,9,10128,1","2,1,008,1,+999,9","02,1","SYN094AAXX  06181 01278 11785 11505 10108 21048 30128 40230 52008 60002 70200 81100 333 10117 4////;","Q01  00002PRCP12"
"01278099999","2010-05-07T06:00:00","4","63.7833333","11.6833333","83.0","VERDAL REPPE, NO","FM-12","99999","V020","120,1,N,0030,1","22000,1,9,N","075000,1,N,1","+0044,1","-0010,1","10257,1","12,0000,9,1","24,0000,9,1","9999,2,9,999999,9,9","0,1,06,1","0,1,06,1",,"01,99,1,01,1,08,1,01750,1,03,1,00,1","25,9","999,N,+0010,1","99999,9,10153,1","7,1,002,1,+999,9","02,1","SYN100AAXX  07061 01278 11789 11203 10044 21010 30153 40257 57002 60002 70200 81830 333 20010 41998 70000;","Q01  00002PRCP24Q02  00002PRCP12Q03  09982SNDP  "
"01278099999","2010-05-07T09:00:00","4","63.7833333","11.6833333","83.0","VERDAL REPPE, NO","FM-12","99999","V020","200,1,N,0050,1","22000,1,9,N","075000,1,N,1","+0110,1","-0007,1","10250,1",,,,"0,1,03,1","0,1,03,1",,"01,99,1,01,1,08,1,01750,1,00,1,00,1",,,"99999,9,10148,1","7,1,005,1,+999,9","02,1","SYN082AAXX  07091 01278 41789 12005 10110 21007 30148 40250 57005 70200 81800 333 4////;",
"01278099999","2010-05-07T12:00:00","4","63.7833333","11.6833333","83.0","VERDAL REPPE, NO","FM-12","99999","V020","150,1,N,0050,1","22000,1,9,N","075000,1,N,1","+0125,1","-0018,1","10239,1",,,,"0,1,06,1","0,1,06,1",,"01,99,1,01,1,02,1,01750,1,00,1,00,1",,,"99999,9,10138,1","7,1,010,1,+999,9","02,1","SYN088AAXX  07121 01278 11789 11505 10125 21018 30138 40239 57010 6//// 70200 81200 333 4////;",
"01278099999","2010-05-07T18:00:00","4","63.7833333","11.6833333","83.0","VERDAL REPPE, NO","FM-12","99999","V020","150,1,N,0030,1","22000,1,9,N","055000,1,N,1","+0110,1","-0034,1","10215,1","12,0000,9,1",,,"1,1,06,1","1,1,06,1",,"03,99,1,03,1,00,1,99999,9,03,1,00,1",,"120,M,+0131,1","99999,9,10114,1","7,1,015,1,+999,9","02,1","SYN094AAXX  07181 01278 11985 31503 10110 21034 30114 40215 57015 60002 70211 83030 333 10131 4////;","Q01  00002PRCP12"
"01278099999","2010-05-08T06:00:00","4","63.7833333","11.6833333","83.0","VERDAL REPPE, NO","FM-12","99999","V020","150,1,N,0030,1","03000,1,9,N","055000,1,N,1","+0032,1","-0027,1","10179,1","12,0000,9,1","24,0000,9,1","9999,2,9,999999,9,9","1,1,06,1","1,1,06,1",,"07,99,1,03,1,05,1,01750,1,02,1,99,9","25,9","999,N,+0005,1","99999,9,10075,1","7,1,009,1,+999,9","03,1","SYN100AAXX  08061 01278 11785 71503 10032 21027 30075 40179 57009 60002 70311 8352/ 333 20005 41998 70000;","Q01  00002PRCP24Q02  00002PRCP12Q03  09982SNDP  "
"01278099999","2010-05-08T09:00:00","4","63.7833333","11.6833333","83.0","VERDAL REPPE, NO","FM-12","99999","V020","290,1,N,0050,1","03000,1,9,N","055000,1,N,1","+0074,1","+0002,1","10170,1",,,,"2,1,03,1","2,1,03,1",,"08,99,1,04,1,08,1,01750,1,07,1,99,9",,,"99999,9,10068,1","7,1,006,1,+999,9","02,1","SYN082AAXX  08091 01278 41785 82905 10074 20002 30068 40170 57006 70222 8487/ 333 4////;",
"01278099999","2010-05-08T12:00:00","4","63.7833333","11.6833333","83.0","VERDAL REPPE, NO","FM-12","99999","V020","280,1,N,0050,1","03000,1,9,N","020000,1,N,1","+0075,1","+0016,1","10152,1",,,,"6,1,06,1","2,1,06,1",,"08,99,1,03,1,08,1,01750,1,07,1,99,9",,,"99999,9,10050,1","7,1,018,1,+999,9","60,1","SYN088AAXX  08121 01278 11770 82805 10075 20016 30050 40152 57018 6//// 76062 8387/ 333 4////;",
"01278099999","2010-05-08T18:00:00","4","63.7833333","11.6833333","83.0","VERDAL REPPE, NO","FM-12","99999","V020","290,1,N,0050,1","00750,1,9,N","055000,1,N,1","+0043,1","-0011,1","10157,1","12,0010,9,1",,,"8,1,06,1","6,1,06,1",,"07,99,1,07,1,09,1,00800,1,99,9,99,9",,"120,M,+0087,1","99999,9,10054,1","2,1,009,1,+999,9","15,1","SYN094AAXX  08181 01278 11585 72905 10043 21011 30054 40157 52009 60012 71586 879// 333 10087 4////;",
"01278099999","2010-05-09T06:00:00","4","63.7833333","11.6833333","83.0","VERDAL REPPE, NO","FM-12","99999","V020","150,1,N,0010,1","22000,1,9,N","055000,1,N,1","-0004,1","-0015,1","10108,1","12,0000,9,1","24,0013,9,1","9999,2,9,999999,9,9","1,1,06,1","1,1,06,1",,"04,99,1,03,1,08,1,01250,1,06,1,02,1","25,9","999,N,-0022,1","99999,9,10004,1","7,1,014,1,+999,9","02,1","SYN100AAXX  09061 01278 11685 41501 11004 21015 30004 40108 57014 60002 70211 83862 333 21022 41998 70013;","Q01  00002PRCP12Q02  09982SNDP  "
"01278099999","2010-05-09T09:00:00","4","63.7833333","11.6833333","83.0","VERDAL REPPE, NO","FM-12","99999","V020","150,1,N,0050,1","22000,1,9,N","055000,1,N,1","+0048,1","-0002,1","10088,1",,,,"0,1,03,1","0,1,03,1",,"04,99,1,04,1,08,1,01250,1,00,1,00,1",,,"99999,9,09986,1","7,1,018,1,+999,9","02,1","SYN082AAXX  09091 01278 41685 41505 10048 21002 39986 40088 57018 70200 84800 333 4////;",
"01278099999","2010-05-09T12:00:00","4","63.7833333","11.6833333","83.0","VERDAL REPPE, NO","FM-12","99999","V020","150,1,N,0070,1","22000,1,9,N","055000,1,N,1","+0075,1","-0062,1","10049,1",,,,"0,1,06,1","0,1,06,1",,"01,99,1,01,1,01,1,01750,1,00,1,00,1",,,"99999,9,09949,1","7,1,036,1,+999,9","02,1","SYN088AAXX  09121 01278 11785 11507 10075 21062 39949 40049 57036 6//// 70200 81100 333 4////;",
"01278099999","2010-05-09T18:00:00","4","63.7833333","11.6833333","83.0","VERDAL REPPE, NO","FM-12","99999","V020","290,1,N,0050,1","22000,1,9,N","055000,1,N,1","+0081,1","-0057,1","10037,1","12,0000,9,1",,,"0,1,06,1","0,1,06,1",,"01,99,1,01,1,01,1,01750,1,00,1,08,1",,"120,M,+0103,1","99999,9,09936,1","6,1,010,1,+999,9","02,1","SYN094AAXX  09181 01278 11785 12905 10081 21057 39936 40037 56010 60002 70200 81108 333 10103 4////;","Q01  00002PRCP12"
"01278099999","2010-05-10T06:00:00","4","63.7833333","11.6833333","83.0","VERDAL REPPE, NO","FM-12","99999","V020","999,9,C,0000,1","00030,1,9,N","000200,1,N,1","+0004,1","-0006,1","10022,1","12,0041,9,2","24,0038,9,2","0004,9,1,999999,9,9","7,1,06,1","4,1,06,1","09,1,+99999,9,99,9","09,99,1,09,1,99,9,99999,9,99,9,99,9","27,9","999,N,+0004,1","99999,9,09919,1","7,1,015,1,+999,9","71,1","SYN094AAXX  10061 01278 11/02 90000 10004 21006 39919 40022 57015 60042 77174 333 20004 43004 70039;",
"01278099999","2010-05-10T09:00:00","4","63.7833333","11.6833333","83.0","VERDAL REPPE, NO","FM-12","99999","V020","330,1,N,0010,1","00060,1,9,N","055000,1,N,1","+0017,1","+0002,1","10033,1",,,,"7,1,03,1","5,1,03,1",,"08,99,1,08,1,06,1,00075,1,99,9,99,9",,,"99999,9,09930,1","2,1,012,1,+999,9","50,1","SYN082AAXX  10091 01278 41185 83301 10017 20002 39930 40033 52012 75075 886// 333 4////;",
"01278099999","2010-05-10T12:00:00","4","63.7833333","11.6833333","83.0","VERDAL REPPE, NO","FM-12","99999","V020","280,1,N,0010,1","00210,1,9,N","020000,1,N,1","+0036,1","+0016,1","10032,1",,,,"8,1,06,1","7,1,06,1",,"08,99,1,08,1,09,1,00250,1,99,9,99,9",,,"99999,9,09930,1","7,1,001,1,+999,9","15,1","SYN088AAXX  10121 01278 11370 82801 10036 20016 39930 40032 57001 6//// 71587 889// 333 4////;",
"01278099999","2010-05-10T18:00:00","4","63.7833333","11.6833333","83.0","VERDAL REPPE, NO","FM-12","99999","V020","280,1,N,0010,1","00060,1,9,N","000600,1,N,1","+0005,1","-0003,1","10030,1","12,0079,9,1",,,"8,1,06,1","7,1,06,1","09,1,+99999,9,99,9","09,99,1,09,1,99,9,99999,9,99,9,99,9",,"120,M,+0039,1","99999,9,09926,1","4,1,000,1,+999,9","71,1","SYN088AAXX  10181 01278 11/06 92801 10005 21003 39926 40030 54000 60082 77187 333 10039 4////;",
"01278099999","2010-05-11T06:00:00","4","63.7833333","11.6833333","83.0","VERDAL REPPE, NO","FM-12","99999","V020","110,1,N,0010,1","22000,1,9,N","055000,1,N,1","+0015,1","-0004,1","10055,1","12,0030,9,1","24,0109,9,1","0006,9,1,999999,9,9","7,1,06,1","1,1,06,1",,"03,99,1,03,1,06,1,00800,1,00,1,00,1","27,9","999,N,+0004,1","99999,9,09952,1","2,1,015,1,+999,9","01,1","SYN100AAXX  11061 01278 11585 31101 10015 21004 39952 40055 52015 60032 70171 83600 333 20004 43006 70110;",
"01278099999","2010-05-11T09:00:00","4","63.7833333","11.6833333","83.0","VERDAL REPPE, NO","FM-12","99999","V020","150,1,N,0050,1","22000,1,9,N","075000,1,N,1","+0058,1","-0018,1","10073,1",,,,"0,1,03,1","0,1,03,1",,"01,99,1,01,1,08,1,01250,1,00,1,00,1",,,"99999,9,09971,1","2,1,019,1,+999,9","02,1","SYN082AAXX  11091 01278 41689 11505 10058 21018 39971 40073 52019 70200 81800 333 4////;",
"01278099999","2010-05-11T12:00:00","4","63.7833333","11.6833333","83.0","VERDAL REPPE, NO","FM-12","99999","V020","150,1,N,0070,1","22000,1,9,N","999999,9,N,1","+0074,1","-0034,1","10080,1",,,,"0,1,06,1","0,1,06,1",,"01,99,1,01,1,09,1,99999,9,04,1,00,1",,,"99999,9,09978,1","2,1,007,1,+999,9","02,1","SYN088AAXX  11121 01278 11/// 11507 10074 21034 39978 40080 52007 6//// 70200 81940 333 4////;",
"01278099999","2010-05-11T18:00:00","4","63.7833333","11.6833333","83.0","VERDAL REPPE, NO","FM-12","99999","V020","150,1,N,0050,1","22000,1,9,N","055000,1,N,1","+0084,1","-0031,1","10101,1","12,0000,9,1",,,"0,1,06,1","0,1,06,1",,"01,99,1,01,1,08,1,01750,1,00,1,02,1",,"120,M,+0100,1","99999,9,10000,1","2,1,008,1,+999,9","02,1","SYN094AAXX  11181 01278 11785 11505 10084 21031 30000 40101 52008 60002 70200 81802 333 10100 4////;","Q01  00002PRCP12"
"01278099999","2010-05-12T06:00:00","4","63.7833333","11.6833333","83.0","VERDAL REPPE, NO","FM-12","99999","V020","150,1,N,0050,1","22000,1,9,N","075000,1,N,1","+0064,1","-0041,1","10140,1","12,0000,9,1","24,0000,9,1","9999,2,9,999999,9,9","0,1,06,1","0,1,06,1","00,1,+99999,9,99,9","00,99,1,00,1,00,1,99999,9,00,1,00,1","25,9","999,N,+0018,1","99999,9,10038,1","2,1,011,1,+999,9","02,1","SYN094AAXX  12061 01278 11989 01505 10064 21041 30038 40140 52011 60002 70200 333 20018 41998 70000;","Q01  00002PRCP24Q02  00002PRCP12Q03  09982SNDP  "
"01278099999","2010-05-12T09:00:00","4","63.7833333","11.6833333","83.0","VERDAL REPPE, NO","FM-12","99999","V020","150,1,N,0050,1","22000,1,9,N","075000,1,N,1","+0100,1","-0043,1","10148,1",,,,"0,1,03,1","0,1,03,1",,"01,99,1,01,1,08,1,01250,1,00,1,00,1",,,"99999,9,10047,1","2,1,009,1,+999,9","02,1","SYN082AAXX  12091 01278 41689 11505 10100 21043 30047 40148 52009 70200 81800 333 4////;",
"01278099999","2010-05-12T12:00:00","4","63.7833333","11.6833333","83.0","VERDAL REPPE, NO","FM-12","99999","V020","200,1,N,0070,1","22000,1,9,N","075000,1,N,1","+0109,1","-0064,1","10153,1",,,,"0,1,06,1","0,1,06,1",,"02,99,1,02,1,02,1,01250,1,00,1,00,1",,,"99999,9,10053,1","2,1,006,1,+999,9","02,1","SYN088AAXX  12121 01278 11689 22007 10109 21064 30053 40153 52006 6//// 70200 82200 333 4////;",
"01278099999","2010-05-12T18:00:00","4","63.7833333","11.6833333","83.0","VERDAL REPPE, NO","FM-12","99999","V020","290,1,N,0050,1","22000,1,9,N","075000,1,N,1","+0120,1","-0068,1","10167,1","12,0000,9,1",,,"0,1,06,1","0,1,06,1",,"01,99,1,01,1,01,1,01750,1,00,1,01,1",,"120,M,+0130,1","99999,9,10067,1","2,1,008,1,+999,9","02,1","SYN094AAXX  12181 01278 11789 12905 10120 21068 30067 40167 52008 60002 70200 81101 333 10130 4////;","Q01  00002PRCP12"
"01278099999","2010-05-13T06:00:00","4","63.7833333","11.6833333","83.0","VERDAL REPPE, NO","FM-12","99999","V020","140,1,N,0070,1","03000,1,9,N","075000,1,N,1","+0062,1","-0003,1","10161,1","12,0000,9,1","24,0000,9,1","9999,2,9,999999,9,9","1,1,06,1","1,1,06,1",,"08,99,1,01,1,08,1,01250,1,07,1,99,9","25,9","999,N,+0002,1","99999,9,10059,1","7,1,019,1,+999,9","03,1","SYN100AAXX  13061 01278 11689 81407 10062 21003 30059 40161 57019 60002 70311 8187/ 333 20002 41998 70000;","Q01  00002PRCP24Q02  00002PRCP12Q03  09982SNDP  "
"01278099999","2010-05-13T09:00:00","4","63.7833333","11.6833333","83.0","VERDAL REPPE, NO","FM-12","99999","V020","120,1,N,0070,1","03000,1,9,N","075000,1,N,1","+0066,1","+0009,1","10144,1",,,,"2,1,03,1","2,1,03,1",,"08,99,1,04,1,08,1,01250,1,07,1,99,9",,,"99999,9,10042,1","7,1,017,1,+999,9","02,1","SYN082AAXX  13091 01278 41689 81207 10066 20009 30042 40144 57017 70222 8487/ 333 4////;",
"01278099999","2010-05-13T12:00:00","4","63.7833333","11.6833333","83.0","VERDAL REPPE, NO","FM-12","99999","V020","100,1,N,0070,1","03000,1,9,N","075000,1,N,1","+0077,1","+0011,1","10133,1",,,,"2,1,06,1","2,1,06,1",,"07,99,1,01,1,08,1,01250,1,07,1,01,1",,,"99999,9,10031,1","7,1,010,1,+999,9","02,1","SYN088AAXX  13121 01278 11689 71007 10077 20011 30031 40133 57010 6//// 70222 81871 333 4////;",
"01278099999","2010-05-13T18:00:00","4","63.7833333","11.6833333","83.0","VERDAL REPPE, NO","FM-12","99999","V020","110,1,N,0010,1","03000,1,9,N","055000,1,N,1","+0078,1","+0044,1","10110,1","12,0005,9,1",,,"8,1,06,1","2,1,06,1",,"07,99,1,01,1,09,1,01250,1,07,1,99,9",,"120,M,+0097,1","99999,9,10009,1","7,1,010,1,+999,9","02,1","SYN094AAXX  13181 01278 11685 71101 10078 20044 30009 40110 57010 69952 70282 8197/ 333 10097 4////;",
"01278099999","2010-05-14T06:00:00","4","63.7833333","11.6833333","83.0","VERDAL REPPE, NO","FM-12","99999","V020","999,9,C,0000,1","99999,9,9,N","055000,1,N,1","+0078,1","+0054,1","10127,1","12,0000,9,1","24,0005,9,1","9999,2,9,999999,9,9","8,1,06,1","2,1,06,1",,"08,99,1,08,1,00,1,00800,1,07,1,99,9","25,9","999,N,+0067,1","99999,9,10026,1","2,1,004,1,+999,9","02,1","SYN100AAXX  14061 01278 11585 80000 10078 20054 30026 40127 52004 69902 70282 8807/ 333 20067 41998 70005;","Q01  00002PRCP12Q02  09982SNDP  "
"01278099999","2010-05-14T09:00:00","4","63.7833333","11.6833333","83.0","VERDAL REPPE, NO","FM-12","99999","V020","280,1,N,0010,1","03000,1,9,N","075000,1,N,1","+0098,1","+0069,1","10125,1",,,,"2,1,03,1","2,1,03,1",,"07,99,1,01,1,06,1,00800,1,07,1,99,9",,,"99999,9,10024,1","4,1,000,1,+999,9","02,1","SYN082AAXX  14091 01278 41589 72801 10098 20069 30024 40125 54000 70222 8167/ 333 4////;",
"01278099999","2010-05-14T12:00:00","4","63.7833333","11.6833333","83.0","VERDAL REPPE, NO","FM-12","99999","V020","300,1,N,0050,1","03000,1,9,N","010000,1,N,1","+0100,1","+0079,1","10124,1",,,,"6,1,06,1","2,1,06,1",,"08,99,1,04,1,08,1,00450,1,07,1,99,9",,,"99999,9,10023,1","7,1,001,1,+999,9","61,1","SYN088AAXX  14121 01278 11460 83005 10100 20079 30023 40124 57001 6//// 76162 8487/ 333 4////;",
"01278099999","2010-05-14T18:00:00","4","63.7833333","11.6833333","83.0","VERDAL REPPE, NO","FM-12","99999","V020","320,1,N,0010,1","00060,1,9,N","010000,1,N,1","+0104,1","+0090,1","10117,1","12,0061,9,1",,,"6,1,06,1","5,1,06,1",,"08,99,1,07,1,07,1,00075,1,02,1,99,9",,"120,M,+0110,1","99999,9,10016,1","7,1,001,1,+999,9","50,1","SYN094AAXX  14181 01278 11160 83201 10104 20090 30016 40117 57001 60062 75065 8772/ 333 10110 4////;",
"01278099999","2010-05-15T06:00:00","4","63.7833333","11.6833333","83.0","VERDAL REPPE, NO","FM-12","99999","V020","120,1,N,0030,1","99999,9,9,N","055000,1,N,1","+0082,1","+0071,1","10125,1","12,0030,9,1","24,0084,9,1","9999,2,9,999999,9,9","6,1,06,1","5,1,06,1",,"07,99,1,07,1,00,1,99999,9,03,1,99,9","25,9","999,N,+0068,1","99999,9,10024,1","2,1,001,1,+999,9","01,1","SYN100AAXX  15061 01278 11985 71203 10082 20071 30024 40125 52001 60032 70165 8703/ 333 20068 41998 70085;","Q01  09982SNDP  "
"01278099999","2010-05-15T09:00:00","4","63.7833333","11.6833333","83.0","VERDAL REPPE, NO","FM-12","99999","V020","140,1,N,0010,1","22000,1,9,N","055000,1,N,1","+0144,1","+0100,1","10118,1",,,,"2,1,03,1","2,1,03,1",,"04,99,1,02,1,08,1,01250,1,03,1,01,1",,,"99999,9,10018,1","7,1,004,1,+999,9","02,1","SYN082AAXX  15091 01278 41685 41401 10144 20100 30018 40118 57004 70222 82831 333 4////;",
"01278099999","2010-05-15T12:00:00","4","63.7833333","11.6833333","83.0","VERDAL REPPE, NO","FM-12","99999","V020","120,1,N,0050,1","03000,1,9,N","010000,1,N,1","+0136,1","+0095,1","10118,1",,,,"6,1,06,1","2,1,06,1",,"08,99,1,04,1,08,1,00800,1,02,1,99,9",,,"99999,9,10019,1","2,1,001,1,+999,9","61,1","SYN088AAXX  15121 01278 11560 81205 10136 20095 30019 40118 52001 6//// 76162 8482/ 333 4////;",
"01278099999","2010-05-15T18:00:00","4","63.7833333","11.6833333","83.0","VERDAL REPPE, NO","FM-12","99999","V020","110,1,N,0050,1","03000,1,9,N","055000,1,N,1","+0154,1","+0114,1","10107,1","12,0008,9,1",,,"6,1,06,1","2,1,06,1",,"07,99,1,01,1,08,1,01250,1,07,1,01,1",,"120,M,+0159,1","99999,9,10008,1","7,1,010,1,+999,9","01,1","SYN094AAXX  15181 01278 11685 71105 10154 20114 30008 40107 57010 69982 70162 81871 333 10159 4////;",
"01278099999","2010-05-16T06:00:00","4","63.7833333","11.6833333","83.0","VERDAL REPPE, NO","FM-12","99999","V020","130,1,N,0070,1","22000,1,9,N","055000,1,N,1","+0157,1","+0089,1","10087,1","12,0000,9,1","24,0008,9,1","9999,2,9,999999,9,9","1,1,06,1","1,1,06,1",,"01,99,1,01,1,01,1,01750,1,04,1,01,1","25,9","999,N,+0112,1","99999,9,09988,1","6,1,008,1,+999,9","02,1","SYN100AAXX  16061 01278 11785 11307 10157 20089 39988 40087 56008 60002 70211 81141 333 20112 41998 70008;","Q01  00002PRCP12Q02  09982SNDP  "
"01278099999","2010-05-16T09:00:00","4","63.7833333","11.6833333","83.0","VERDAL REPPE, NO","FM-12","99999","V020","100,1,N,0070,1","22000,1,9,N","055000,1,N,1","+0176,1","+0085,1","10084,1",,,,"0,1,03,1","0,1,03,1",,"03,99,1,01,1,08,1,02250,1,04,1,01,1",,,"99999,9,09986,1","4,1,000,1,+999,9","02,1","SYN082AAXX  16091 01278 41885 31007 10176 20085 39986 40084 54000 70200 81841 333 4////;",
"01278099999","2010-05-16T12:00:00","4","63.7833333","11.6833333","83.0","VERDAL REPPE, NO","FM-12","99999","V020","110,1,N,0070,1","22000,1,9,N","055000,1,N,1","+0204,1","+0102,1","10076,1",,,,"0,1,06,1","0,1,06,1",,"02,99,1,01,1,01,1,01750,1,07,1,01,1",,,"99999,9,09979,1","7,1,007,1,+999,9","02,1","SYN088AAXX  16121 01278 11785 21107 10204 20102 39979 40076 57007 6//// 70200 81171 333 4////;",
"01278099999","2010-05-16T18:00:00","4","63.7833333","11.6833333","83.0","VERDAL REPPE, NO","FM-12","99999","V020","140,1,N,0070,1","03000,1,9,N","055000,1,N,1","+0174,1","+0112,1","10077,1","12,0000,9,1",,,"8,1,06,1","1,1,06,1",,"07,99,1,01,1,08,1,00800,1,07,1,01,1",,"120,M,+0210,1","99999,9,09979,1","4,1,000,1,+999,9","02,1","SYN094AAXX  16181 01278 11585 71407 10174 20112 39979 40077 54000 69902 70281 81871 333 10210 4////;","Q01  00002PRCP12"
"01278099999","2010-05-17T06:00:00","4","63.7833333","11.6833333","83.0","VERDAL REPPE, NO","FM-12","99999","V020","150,1,N,0030,1","02100,1,9,N","055000,1,N,1","+0132,1","+0095,1","10102,1","12,0000,9,1","24,0000,9,1",,"1,1,06,1","1,1,06,1",,"06,99,1,06,1,08,1,02250,1,99,9,99,9",,"999,N,+0122,1","99999,9,10002,1","2,1,010,1,+999,9","02,1","SYN100AAXX  17061 01278 11885 61503 10132 20095 30002 40102 52010 60002 70211 868// 333 20122 4//// 70000;","Q01  00002PRCP24Q02  00002PRCP12"
"01278099999","2010-05-17T09:00:00","4","63.7833333","11.6833333","83.0","VERDAL REPPE, NO","FM-12","99999","V020","290,1,N,0050,1","01200,1,9,N","030000,1,N,1","+0124,1","+0073,1","10135,1",,,,"2,1,03,1","2,1,03,1",,"07,99,1,06,1,08,1,00800,1,07,1,99,9",,,"99999,9,10035,1","2,1,033,1,+999,9","02,1","SYN082AAXX  17091 01278 41580 72905 10124 20073 30035 40135 52033 70222 8687/ 333 4////;",
"01278099999","2010-05-17T12:00:00","4","63.7833333","11.6833333","83.0","VERDAL REPPE, NO","FM-12","99999","V020","290,1,N,0050,1","01200,1,9,N","055000,1,N,1","+0107,1","+0067,1","10155,1",,,,"2,1,06,1","2,1,06,1",,"08,99,1,08,1,08,1,00800,1,99,9,99,9",,,"99999,9,10054,1","2,1,019,1,+999,9","02,1","SYN088AAXX  17121 01278 11585 82905 10107 20067 30054 40155 52019 6//// 70222 888// 333 4////;",
"01278099999","2010-05-17T18:00:00","4","63.7833333","11.6833333","83.0","VERDAL REPPE, NO","FM-12","99999","V020","280,1,N,0050,1","00750,1,9,N","055000,1,N,1","+0090,1","+0063,1","10194,1","12,9999,9,9",,,"8,1,06,1","2,1,06,1",,"08,99,1,08,1,09,1,00800,1,99,9,99,9",,"120,M,+0146,1","99999,9,10092,1","2,1,020,1,+999,9","80,1","SYN094AAXX  17181 01278 11585 82805 10090 20063 30092 40194 52020 69902 78082 889// 333 10146 4////;","Q01  00002PRCP12Q02  00002PRCP12"
"01278099999","2010-05-18T06:00:00","4","63.7833333","11.6833333","83.0","VERDAL REPPE, NO","FM-12","99999","V020","280,1,N,0030,1","00210,1,9,N","030000,1,N,1","+0083,1","+0056,1","10262,1","12,0000,2,1","24,0000,2,1",,"8,1,06,1","2,1,06,1",,"08,99,1,08,1,09,1,00250,1,99,9,99,9",,"999,N,+0076,1","99999,9,10160,1","2,1,023,1,+999,9","02,1","SYN100AAXX  18061 01278 11380 82803 10083 20056 30160 40262 52023 69902 70282 889// 333 20076 4//// 70000;",
"01278099999","2010-05-18T09:00:00","4","63.7833333","11.6833333","83.0","VERDAL REPPE, NO","FM-12","99999","V020","290,1,N,0030,1","00900,1,9,N","030000,1,N,1","+0101,1","+0055,1","10276,1",,,,"2,1,03,1","2,1,03,1",,"08,99,1,08,1,08,1,00450,1,99,9,99,9",,,"99999,9,10174,1","2,1,014,1,+999,9","02,1","SYN082AAXX  18091 01278 41480 82903 10101 20055 30174 40276 52014 70222 888// 333 4////;",
"01278099999","2010-05-18T12:00:00","4","63.7833333","11.6833333","83.0","VERDAL REPPE, NO","FM-12","99999","V020","310,1,N,0050,1","01500,1,9,N","055000,1,N,1","+0115,1","+0043,1","10276,1",,,,"2,1,06,1","2,1,06,1",,"07,99,1,07,1,08,1,01250,1,99,9,99,9",,,"99999,9,10174,1","4,1,000,1,+999,9","02,1","SYN088AAXX  18121 01278 11685 73105 10115 20043 30174 40276 54000 6//// 70222 878// 333 4////;",
"01278099999","2010-05-18T18:00:00","4","63.7833333","11.6833333","83.0","VERDAL REPPE, NO","FM-12","99999","V020","320,1,N,0050,1","01500,1,9,N","055000,1,N,1","+0114,1","+0046,1","10286,1","12,0000,9,1",,,"2,1,06,1","2,1,06,1",,"07,99,1,07,1,05,1,01750,1,99,9,99,9",,"120,M,+0128,1","99999,9,10184,1","2,1,003,1,+999,9","02,1","SYN094AAXX  18181 01278 11785 73205 10114 20046 30184 40286 52003 60002 70222 875// 333 10128 4////;","Q01  00002PRCP12"
"01278099999","2010-05-19T06:00:00","4","63.7833333","11.6833333","83.0","VERDAL REPPE, NO","FM-12","99999","V020","999,9,C,0000,1","99999,9,9,N","030000,1,N,1","+0089,1","+0056,1","10271,1","12,0000,9,1","24,0000,9,1",,"2,1,06,1","2,1,06,1",,"07,99,1,07,1,00,1,99999,9,03,1,99,9",,"999,N,+0069,1","99999,9,10169,1","7,1,010,1,+999,9","02,1","SYN100AAXX  19061 01278 11980 70000 10089 20056 30169 40271 57010 60002 70222 8703/ 333 20069 4//// 70000;","Q01  00002PRCP24Q02  00002PRCP12"
"01278099999","2010-05-19T09:00:00","4","63.7833333","11.6833333","83.0","VERDAL REPPE, NO","FM-12","99999","V020","280,1,N,0050,1","03000,1,9,N","030000,1,N,1","+0133,1","+0075,1","10264,1",,,,"2,1,03,1","2,1,03,1",,"07,99,1,01,1,08,1,01750,1,03,1,99,9",,,"99999,9,10163,1","7,1,006,1,+999,9","02,1","SYN082AAXX  19091 01278 41780 72805 10133 20075 30163 40264 57006 70222 8183/ 333 4////;",
"01278099999","2010-05-19T12:00:00","4","63.7833333","11.6833333","83.0","VERDAL REPPE, NO","FM-12","99999","V020","270,1,N,0030,1","99999,9,9,N","055000,1,N,1","+0173,1","+0095,1","10249,1",,,,"2,1,06,1","2,1,06,1",,"05,99,1,05,1,00,1,99999,9,03,1,99,9",,,"99999,9,10149,1","7,1,013,1,+999,9","02,1","SYN088AAXX  19121 01278 11985 52703 10173 20095 30149 40249 57013 6//// 70222 8503/ 333 4////;",
"01278099999","2010-05-19T18:00:00","4","63.7833333","11.6833333","83.0","VERDAL REPPE, NO","FM-12","99999","V020","999,9,C,0000,1","22000,1,9,N","055000,1,N,1","+0194,1","+0107,1","10235,1","12,0000,9,1",,,"2,1,06,1","2,1,06,1",,"04,99,1,03,1,00,1,99999,9,03,1,02,1",,"120,M,+0215,1","99999,9,10136,1","6,1,002,1,+999,9","02,1","SYN094AAXX  19181 01278 11985 40000 10194 20107 30136 40235 56002 60002 70222 83032 333 10215 4////;","Q01  00002PRCP12"
"01278099999","2010-05-20T06:00:00","4","63.7833333","11.6833333","83.0","VERDAL REPPE, NO","FM-12","99999","V020","280,1,N,0030,1","03000,1,9,N","030000,1,N,1","+0102,1","+0074,1","10285,1","12,0000,9,1","24,0000,9,1",,"8,1,06,1","2,1,06,1",,"08,99,1,04,1,08,1,00450,1,07,1,99,9",,"999,N,+0102,1","99999,9,10183,1","2,1,017,1,+999,9","02,1","SYN100AAXX  20061 01278 11480 82803 10102 20074 30183 40285 52017 69902 70282 8487/ 333 20102 4//// 70000;","Q01  00002PRCP24Q02  00002PRCP12"
"01278099999","2010-05-20T09:00:00","4","63.7833333","11.6833333","83.0","VERDAL REPPE, NO","FM-12","99999","V020","280,1,N,0050,1","00210,1,9,N","030000,1,N,1","+0104,1","+0066,1","10306,1",,,,"2,1,03,1","2,1,03,1",,"08,99,1,08,1,05,1,00250,1,99,9,99,9",,,"99999,9,10204,1","2,1,021,1,+999,9","02,1","SYN082AAXX  20091 01278 41380 82805 10104 20066 30204 40306 52021 70222 885// 333 4////;",
"01278099999","2010-05-20T12:00:00","4","63.7833333","11.6833333","83.0","VERDAL REPPE, NO","FM-12","99999","V020","280,1,N,0050,1","00900,1,9,N","030000,1,N,1","+0105,1","+0061,1","10313,1",,,,"2,1,06,1","2,1,06,1",,"08,99,1,08,1,08,1,00450,1,99,9,99,9",,,"99999,9,10211,1","2,1,007,1,+999,9","02,1","SYN088AAXX  20121 01278 11480 82805 10105 20061 30211 40313 52007 6//// 70222 888// 333 4////;",
"01278099999","2010-05-20T18:00:00","4","63.7833333","11.6833333","83.0","VERDAL REPPE, NO","FM-12","99999","V020","340,1,N,0050,1","01200,1,9,N","055000,1,N,1","+0105,1","+0063,1","10308,1","12,0000,9,1",,,"2,1,06,1","2,1,06,1",,"08,99,1,08,1,08,1,00800,1,99,9,99,9",,"120,M,+0124,1","99999,9,10206,1","7,1,002,1,+999,9","02,1","SYN094AAXX  20181 01278 11585 83405 10105 20063 30206 40308 57002 60002 70222 888// 333 10124 4////;","Q01  00002PRCP12"
"01278099999","2010-05-21T06:00:00","4","63.7833333","11.6833333","83.0","VERDAL REPPE, NO","FM-12","99999","V020","340,1,N,0010,1","22000,1,9,N","055000,1,N,1","+0087,1","+0040,1","10311,1","12,0000,9,1","24,0000,9,1",,"1,1,06,1","1,1,06,1",,"01,99,1,01,1,01,1,00800,1,00,1,00,1",,"999,N,+0072,1","99999,9,10208,1","4,1,000,1,+999,9","02,1","SYN100AAXX  21061 01278 11585 13401 10087 20040 30208 40311 54000 60002 70211 81100 333 20072 4//// 70000;","Q01  00002PRCP24Q02  00002PRCP12"
"01278099999","2010-05-21T09:00:00","4","63.7833333","11.6833333","83.0","VERDAL REPPE, NO","FM-12","99999","V020","330,1,N,0010,1","22000,1,9,N","055000,1,N,1","+0127,1","+0044,1","10305,1",,,,"0,1,03,1","0,1,03,1","00,1,+99999,9,99,9","00,99,1,00,1,00,1,99999,9,00,1,00,1",,,"99999,9,10203,1","7,1,002,1,+999,9","02,1","SYN076AAXX  21091 01278 41985 03301 10127 20044 30203 40305 57002 70200 333 4////;",
"01278099999","2010-05-21T12:00:00","4","63.7833333","11.6833333","83.0","VERDAL REPPE, NO","FM-12","99999","V020","280,1,N,0030,1","22000,1,9,N","055000,1,N,1","+0162,1","+0052,1","10295,1",,,,"0,1,06,1","0,1,06,1",,"01,99,1,00,1,00,1,99999,9,00,1,02,1",,,"99999,9,10194,1","7,1,009,1,+999,9","02,1","SYN088AAXX  21121 01278 11985 12803 10162 20052 30194 40295 57009 6//// 70200 80002 333 4////;",
"01278099999","2010-05-21T18:00:00","4","63.7833333","11.6833333","83.0","VERDAL REPPE, NO","FM-12","99999","V020","290,1,N,0030,1","22000,1,9,N","055000,1,N,1","+0184,1","+0035,1","10266,1","12,0000,9,1",,,"0,1,06,1","0,1,06,1",,"01,99,1,00,1,00,1,99999,9,00,1,01,1",,"120,M,+0194,1","99999,9,10166,1","7,1,010,1,+999,9","02,1","SYN094AAXX  21181 01278 11985 12903 10184 20035 30166 40266 57010 60002 70200 80001 333 10194 4////;","Q01  00002PRCP12"
"01278099999","2010-05-22T06:00:00","4","63.7833333","11.6833333","83.0","VERDAL REPPE, NO","FM-12","99999","V020","100,1,N,0010,1","99999,9,9,N","055000,1,N,1","+0086,1","+0046,1","10255,1","12,0000,9,1","24,0000,9,1",,"1,1,06,1","1,1,06,1",,"08,99,1,08,1,00,1,99999,9,07,1,99,9",,"999,N,+0069,1","99999,9,10152,1","7,1,010,1,+999,9","03,1","SYN100AAXX  22061 01278 11985 81001 10086 20046 30152 40255 57010 60002 70311 8807/ 333 20069 4//// 70000;","Q01  00002PRCP24Q02  00002PRCP12"
"01278099999","2010-05-22T09:00:00","4","63.7833333","11.6833333","83.0","VERDAL REPPE, NO","FM-12","99999","V020","999,9,C,0000,1","00750,1,9,N","020000,1,N,1","+0106,1","+0075,1","10254,1",,,,"8,1,03,1","2,1,03,1",,"08,99,1,08,1,09,1,00800,1,99,9,99,9",,,"99999,9,10152,1","7,1,002,1,+999,9","15,1","SYN082AAXX  22091 01278 41570 80000 10106 20075 30152 40254 57002 71582 889// 333 4////;",
"01278099999","2010-05-22T12:00:00","4","63.7833333","11.6833333","83.0","VERDAL REPPE, NO","FM-12","99999","V020","280,1,N,0030,1","00420,1,9,N","030000,1,N,1","+0118,1","+0087,1","10241,1",,,,"8,1,06,1","2,1,06,1",,"08,99,1,08,1,09,1,00450,1,99,9,99,9",,,"99999,9,10140,1","7,1,012,1,+999,9","15,1","SYN088AAXX  22121 01278 11480 82803 10118 20087 30140 40241 57012 6//// 71582 889// 333 4////;",
"01278099999","2010-05-22T18:00:00","4","63.7833333","11.6833333","83.0","VERDAL REPPE, NO","FM-12","99999","V020","280,1,N,0050,1","00900,1,9,N","030000,1,N,1","+0114,1","+0079,1","10223,1","12,0003,9,1",,,"8,1,06,1","2,1,06,1",,"08,99,1,08,1,08,1,00450,1,99,9,99,9",,"120,M,+0125,1","99999,9,10122,1","7,1,005,1,+999,9","02,1","SYN094AAXX  22181 01278 11480 82805 10114 20079 30122 40223 57005 69932 70282 888// 333 10125 4////;",
"01278099999","2010-05-23T06:00:00","4","63.7833333","11.6833333","83.0","VERDAL REPPE, NO","FM-12","99999","V020","290,1,N,0050,1","00060,1,9,N","055000,1,N,1","+0083,1","+0069,1","10152,1","12,0071,9,1","24,0074,9,1",,"8,1,06,1","2,1,06,1",,"08,99,1,08,1,09,1,00075,1,99,9,99,9",,"999,N,+0083,1","99999,9,10050,1","7,1,020,1,+999,9","80,1","SYN100AAXX  23061 01278 11185 82905 10083 20069 30050 40152 57020 60072 78082 889// 333 20083 4//// 70073;",
"01278099999","2010-05-23T09:00:00","4","63.7833333","11.6833333","83.0","VERDAL REPPE, NO","FM-12","99999","V020","290,1,N,0050,1","00420,1,9,N","025000,1,N,1","+0089,1","+0069,1","10143,1",,,,"8,1,03,1","2,1,03,1",,"08,99,1,08,1,09,1,00450,1,99,9,99,9",,,"99999,9,10042,1","7,1,008,1,+999,9","15,1","SYN082AAXX  23091 01278 41475 82905 10089 20069 30042 40143 57008 71582 889// 333 4////;",
"01278099999","2010-05-23T12:00:00","4","63.7833333","11.6833333","83.0","VERDAL REPPE, NO","FM-12","99999","V020","310,1,N,0050,1","00420,1,9,N","055000,1,N,1","+0070,1","+0043,1","10152,1",,,,"8,1,06,1","2,1,06,1",,"08,99,1,08,1,09,1,00450,1,99,9,99,9",,,"99999,9,10050,1","2,1,008,1,+999,9","80,1","SYN088AAXX  23121 01278 11485 83105 10070 20043 30050 40152 52008 6//// 78082 889// 333 4////;",
"01278099999","2010-05-23T18:00:00","4","63.7833333","11.6833333","83.0","VERDAL REPPE, NO","FM-12","99999","V020","310,1,N,0050,1","03000,1,9,N","055000,1,N,1","+0076,1","+0019,1","10120,1","12,0041,9,1",,,"8,1,06,1","2,1,06,1",,"08,99,1,02,1,09,1,00800,1,02,1,99,9",,"120,M,+0101,1","99999,9,10018,1","7,1,015,1,+999,9","02,1","SYN094AAXX  23181 01278 11585 83105 10076 20019 30018 40120 57015 60042 70282 8292/ 333 10101 4////;",
"01278099999","2010-05-24T06:00:00","4","63.7833333","11.6833333","83.0","VERDAL REPPE, NO","FM-12","99999","V020","999,9,C,0000,1","01500,1,9,N","055000,1,N,1","+0057,1","+0024,1","10074,1","12,0000,9,1","24,0036,9,1",,"2,1,06,1","2,1,06,1",,"07,99,1,05,1,08,1,01250,1,06,1,01,1",,"999,N,+0044,1","99999,9,09972,1","7,1,015,1,+999,9","02,1","SYN100AAXX  24061 01278 11685 70000 10057 20024 39972 40074 57015 60002 70222 85861 333 20044 4//// 70035;","Q01  00002PRCP12"
"01278099999","2010-05-24T09:00:00","4","63.7833333","11.6833333","83.0","VERDAL REPPE, NO","FM-12","99999","V020","280,1,N,0010,1","01200,1,9,N","030000,1,N,1","+0076,1","+0015,1","10063,1",,,,"2,1,03,1","2,1,03,1",,"07,99,1,06,1,09,1,01250,1,06,1,99,9",,,"99999,9,09962,1","7,1,010,1,+999,9","15,1","SYN082AAXX  24091 01278 41680 72801 10076 20015 39962 40063 57010 71522 8696/ 333 4////;",
"01278099999","2010-05-24T12:00:00","4","63.7833333","11.6833333","83.0","VERDAL REPPE, NO","FM-12","99999","V020","280,1,N,0050,1","01200,1,9,N","055000,1,N,1","+0077,1","+0018,1","10051,1",,,,"2,1,06,1","2,1,06,1",,"07,99,1,07,1,09,1,01250,1,99,9,99,9",,,"99999,9,09950,1","7,1,011,1,+999,9","02,1","SYN088AAXX  24121 01278 11685 72805 10077 20018 39950 40051 57011 6//// 70222 879// 333 4////;",
"01278099999","2010-05-24T18:00:00","4","63.7833333","11.6833333","83.0","VERDAL REPPE, NO","FM-12","99999","V020","280,1,N,0030,1","00420,1,9,N","020000,1,N,1","+0061,1","+0034,1","10042,1","12,0010,9,1",,,"8,1,06,1","2,1,06,1",,"07,99,1,07,1,09,1,00450,1,06,1,99,9",,"120,M,+0105,1","99999,9,09940,1","7,1,001,1,+999,9","80,1","SYN094AAXX  24181 01278 11470 72803 10061 20034 39940 40042 57001 60012 78082 8796/ 333 10105 4////;",
"01278099999","2010-05-25T06:00:00","4","63.7833333","11.6833333","83.0","VERDAL REPPE, NO","FM-12","99999","V020","310,1,N,0030,1","00420,1,9,N","055000,1,N,1","+0057,1","+0027,1","10023,1","12,0020,9,1","24,0025,9,1",,"8,1,06,1","2,1,06,1",,"07,99,1,07,1,09,1,00450,1,99,9,99,9",,"999,N,+0041,1","99999,9,09922,1","7,1,003,1,+999,9","02,1","SYN100AAXX  25061 01278 11485 73103 10057 20027 39922 40023 57003 60022 70282 879// 333 20041 4//// 70025;",
"01278099999","2010-05-25T09:00:00","4","63.7833333","11.6833333","83.0","VERDAL REPPE, NO","FM-12","99999","V020","290,1,N,0050,1","00750,1,9,N","030000,1,N,1","+0075,1","+0036,1","10023,1",,,,"2,1,03,1","2,1,03,1",,"06,99,1,05,1,09,1,00800,1,06,1,02,1",,,"99999,9,09922,1","4,1,000,1,+999,9","15,1","SYN082AAXX  25091 01278 41580 62905 10075 20036 39922 40023 54000 71522 85962 333 4////;",
"01278099999","2010-05-25T12:00:00","4","63.7833333","11.6833333","83.0","VERDAL REPPE, NO","FM-12","99999","V020","310,1,N,0070,1","01200,1,9,N","055000,1,N,1","+0075,1","+0020,1","10023,1",,,,"8,1,06,1","2,1,06,1",,"07,99,1,06,1,09,1,01250,1,06,1,01,1",,,"99999,9,09922,1","4,1,000,1,+999,9","02,1","SYN088AAXX  25121 01278 11685 73107 10075 20020 39922 40023 54000 6//// 70282 86961 333 4////;",
"01278099999","2010-05-25T18:00:00","4","63.7833333","11.6833333","83.0","VERDAL REPPE, NO","FM-12","99999","V020","300,1,N,0050,1","01200,1,9,N","055000,1,N,1","+0085,1","+0012,1","10035,1","12,0005,9,1",,,"2,1,06,1","2,1,06,1",,"07,99,1,07,1,09,1,01250,1,99,9,99,9",,"120,M,+0113,1","99999,9,09934,1","2,1,011,1,+999,9","02,1","SYN094AAXX  25181 01278 11685 73005 10085 20012 39934 40035 52011 69942 70222 879// 333 10113 4////;",
"01278099999","2010-05-26T06:00:00","4","63.7833333","11.6833333","83.0","VERDAL REPPE, NO","FM-12","99999","V020","330,1,N,0030,1","00420,1,9,N","055000,1,N,1","+0058,1","+0028,1","10070,1","12,9999,9,9","24,0005,9,1",,"8,1,06,1","2,1,06,1",,"07,99,1,07,1,09,1,00450,1,99,9,99,9",,"999,N,+0044,1","99999,9,09968,1","2,1,010,1,+999,9","80,1","SYN100AAXX  26061 01278 11485 73303 10058 20028 39968 40070 52010 69902 78082 879// 333 20044 4//// 70004;","Q01  00002PRCP12Q02  00002PRCP12"
"01278099999","2010-05-26T09:00:00","4","63.7833333","11.6833333","83.0","VERDAL REPPE, NO","FM-12","99999","V020","300,1,N,0030,1","00750,1,9,N","055000,1,N,1","+0075,1","+0034,1","10082,1",,,,"8,1,03,1","2,1,03,1",,"08,99,1,07,1,09,1,00800,1,07,1,99,9",,,"99999,9,09981,1","2,1,014,1,+999,9","02,1","SYN082AAXX  26091 01278 41585 83003 10075 20034 39981 40082 52014 70282 8797/ 333 4////;",
"01278099999","2010-05-26T12:00:00","4","63.7833333","11.6833333","83.0","VERDAL REPPE, NO","FM-12","99999","V020","290,1,N,0030,1","01200,1,9,N","055000,1,N,1","+0082,1","+0035,1","10092,1",,,,"8,1,06,1","2,1,06,1",,"08,99,1,08,1,09,1,01250,1,99,9,99,9",,,"99999,9,09991,1","2,1,010,1,+999,9","80,1","SYN088AAXX  26121 01278 11685 82903 10082 20035 39991 40092 52010 6//// 78082 889// 333 4////;",
"01278099999","2010-05-26T18:00:00","4","63.7833333","11.6833333","83.0","VERDAL REPPE, NO","FM-12","99999","V020","270,1,N,0010,1","01200,1,9,N","030000,1,N,1","+0082,1","+0048,1","10099,1","12,0000,2,1",,,"8,1,06,1","2,1,06,1",,"08,99,1,08,1,09,1,01250,1,99,9,99,9",,"120,M,+0091,1","99999,9,09998,1","4,1,000,1,+999,9","80,1","SYN094AAXX  26181 01278 11680 82701 10082 20048 39998 40099 54000 69902 78082 889// 333 10091 4////;",
"01278099999","2010-05-27T06:00:00","4","63.7833333","11.6833333","83.0","VERDAL REPPE, NO","FM-12","99999","V020","999,9,C,0000,1","00600,1,9,N","025000,1,N,1","+0079,1","+0070,1","10090,1","12,0020,9,1","24,0020,9,1",,"8,1,06,1","2,1,06,1",,"08,99,1,08,1,08,1,00150,1,99,9,99,9",,"999,N,+0070,1","99999,9,09989,1","4,1,000,1,+999,9","02,1","SYN100AAXX  27061 01278 11275 80000 10079 20070 39989 40090 54000 60022 70282 888// 333 20070 4//// 70020;",
"01278099999","2010-05-27T09:00:00","4","63.7833333","11.6833333","83.0","VERDAL REPPE, NO","FM-12","99999","V020","110,1,N,0050,1","00900,1,9,N","055000,1,N,1","+0095,1","+0059,1","10089,1",,,,"2,1,03,1","2,1,03,1",,"07,99,1,07,1,08,1,00450,1,99,9,99,9",,,"99999,9,09989,1","4,1,000,1,+999,9","02,1","SYN082AAXX  27091 01278 41485 71105 10095 20059 39989 40089 54000 70222 878// 333 4////;",
"01278099999","2010-05-27T12:00:00","4","63.7833333","11.6833333","83.0","VERDAL REPPE, NO","FM-12","99999","V020","110,1,N,0050,1","00750,1,9,N","075000,1,N,1","+0098,1","+0050,1","10089,1",,,,"8,1,06,1","2,1,06,1",,"07,99,1,07,1,09,1,00800,1,99,9,99,9",,,"99999,9,09989,1","4,1,000,1,+999,9","80,1","SYN088AAXX  27121 01278 11589 71105 10098 20050 39989 40089 54000 6//// 78082 879// 333 4////;",
"01278099999","2010-05-27T18:00:00","4","63.7833333","11.6833333","83.0","VERDAL REPPE, NO","FM-12","99999","V020","100,1,N,0050,1","03000,1,9,N","055000,1,N,1","+0126,1","+0041,1","10081,1","12,0000,2,1",,,"2,1,06,1","2,1,06,1",,"07,99,1,02,1,08,1,02250,1,07,1,02,1",,"120,M,+0129,1","99999,9,09982,1","6,1,007,1,+999,9","02,1","SYN094AAXX  27181 01278 11885 71005 10126 20041 39982 40081 56007 69902 70222 82872 333 10129 4////;",
"01278099999","2010-05-28T06:00:00","4","63.7833333","11.6833333","83.0","VERDAL REPPE, NO","FM-12","99999","V020","999,9,C,0000,1","03000,1,9,N","020000,1,N,1","+0074,1","+0060,1","10089,1","12,0020,9,2","24,0018,9,2",,"6,1,06,1","2,1,06,1",,"08,99,1,03,1,07,1,01250,1,02,1,99,9",,"999,N,+0072,1","99999,9,09988,1","4,1,000,1,+999,9","61,1","SYN100AAXX  28061 01278 11670 80000 10074 20060 39988 40089 54000 60022 76162 8372/ 333 20072 4//// 70018;",
"01278099999","2010-05-28T09:00:00","4","63.7833333","11.6833333","83.0","VERDAL REPPE, NO","FM-12","99999","V020","999,9,C,0000,1","00420,1,9,N","025000,1,N,1","+0084,1","+0065,1","10088,1",,,,"6,1,03,1","6,1,03,1",,"08,99,1,06,1,07,1,00450,1,02,1,99,9",,,"99999,9,09988,1","4,1,000,1,+999,9","61,1","SYN072AAXX  28091 01278 41475 80000 10084 20065 39988 40088 54000 76166 8672/;",
"01278099999","2010-05-28T12:00:00","4","63.7833333","11.6833333","83.0","VERDAL REPPE, NO","FM-12","99999","V020","999,9,C,0000,1","00420,1,9,N","030000,1,N,1","+0103,1","+0077,1","10080,1",,,,"6,1,06,1","6,1,06,1",,"08,99,1,07,1,07,1,00450,1,02,1,99,9",,,"99999,9,09980,1","7,1,006,1,+999,9","61,1","SYN078AAXX  28121 01278 11480 80000 10103 20077 39980 40080 57006 6//// 76166 8772/;",
"01278099999","2010-05-28T18:00:00","4","63.7833333","11.6833333","83.0","VERDAL REPPE, NO","FM-12","99999","V020","999,9,C,0000,1","00900,1,9,N","055000,1,N,1","+0108,1","+0077,1","10071,1","12,0020,9,1",,,"6,1,06,1","2,1,06,1",,"08,99,1,08,1,08,1,00450,1,99,9,99,9",,"999,M,+0111,1","99999,9,09971,1","7,1,001,1,+999,9","02,1","SYN088AAXX  28181 01278 11485 80000 10108 20077 39971 40071 57001 60022 70262 888// 333 10111;",
"01278099999","2010-05-29T06:00:00","4","63.7833333","11.6833333","83.0","VERDAL REPPE, NO","FM-12","99999","V020","999,9,C,0000,1","00030,1,9,N","010000,1,N,1","+0076,1","+0069,1","10077,1","12,0061,9,1","24,0081,9,1",,"6,1,06,1","2,1,06,1",,"08,99,1,06,1,07,1,00025,1,02,1,99,9",,"999,N,+0076,1","99999,9,09976,1","2,1,006,1,+999,9","61,1","SYN094AAXX  29061 01278 11060 80000 10076 20069 39976 40077 52006 60062 76162 8672/ 333 20076 70082;",
"01278099999","2010-05-29T09:00:00","4","63.7833333","11.6833333","83.0","VERDAL REPPE, NO","FM-12","99999","V020","999,9,C,0000,1","00030,1,9,N","005000,1,N,1","+0089,1","+0078,1","10083,1",,,,"6,1,03,1","6,1,03,1",,"08,99,1,07,1,07,1,00025,1,02,1,99,9",,,"99999,9,09982,1","2,1,006,1,+999,9","61,1","SYN072AAXX  29091 01278 41050 80000 10089 20078 39982 40083 52006 76166 8772/;",
"01278099999","2010-05-29T12:00:00","4","63.7833333","11.6833333","83.0","VERDAL REPPE, NO","FM-12","99999","V020","280,1,N,0050,1","00900,1,9,N","008000,1,N,1","+0097,1","+0078,1","10089,1",,,,"6,1,06,1","6,1,06,1",,"08,99,1,07,1,08,1,00450,1,02,1,99,9",,,"99999,9,09988,1","2,1,006,1,+999,9","61,1","SYN078AAXX  29121 01278 11458 82805 10097 20078 39988 40089 52006 6//// 76166 8782/;",
"01278099999","2010-05-29T18:00:00","4","63.7833333","11.6833333","83.0","VERDAL REPPE, NO","FM-12","99999","V020","270,1,N,0050,1","00750,1,9,N","010000,1,N,1","+0080,1","+0060,1","10099,1","12,0089,9,1",,,"6,1,06,1","6,1,06,1",,"08,99,1,07,1,07,1,00800,1,02,1,99,9",,"999,M,+0098,1","99999,9,09998,1","4,1,000,1,+999,9","61,1","SYN088AAXX  29181 01278 11560 82705 10080 20060 39998 40099 54000 60092 76166 8772/ 333 10098;",
"01278099999","2010-05-30T06:00:00","4","63.7833333","11.6833333","83.0","VERDAL REPPE, NO","FM-12","99999","V020","999,9,C,0000,1","00600,1,9,N","055000,1,N,1","+0093,1","+0081,1","10125,1","12,0030,9,1","24,0119,9,1",,"6,1,06,1","2,1,06,1",,"07,99,1,07,1,08,1,00075,1,99,9,99,9",,"999,N,+0079,1","99999,9,10024,1","2,1,012,1,+999,9","02,1","SYN094AAXX  30061 01278 11185 70000 10093 20081 30024 40125 52012 60032 70262 878// 333 20079 70120;",
"01278099999","2010-05-30T09:00:00","4","63.7833333","11.6833333","83.0","VERDAL REPPE, NO","FM-12","99999","V020","290,1,N,0030,1","00420,1,9,N","055000,1,N,1","+0102,1","+0073,1","10132,1",,,,"8,1,03,1","2,1,03,1",,"07,99,1,06,1,09,1,00450,1,06,1,99,9",,,"99999,9,10031,1","2,1,008,1,+999,9","15,1","SYN072AAXX  30091 01278 41485 72903 10102 20073 30031 40132 52008 71582 8696/;",
"01278099999","2010-05-30T12:00:00","4","63.7833333","11.6833333","83.0","VERDAL REPPE, NO","FM-12","99999","V020","280,1,N,0050,1","01200,1,9,N","030000,1,N,1","+0127,1","+0074,1","10136,1",,,,"8,1,06,1","2,1,06,1",,"07,99,1,06,1,09,1,01250,1,06,1,01,1",,,"99999,9,10036,1","2,1,005,1,+999,9","15,1","SYN078AAXX  30121 01278 11680 72805 10127 20074 30036 40136 52005 6//// 71582 86961;",
"01278099999","2010-05-30T18:00:00","4","63.7833333","11.6833333","83.0","VERDAL REPPE, NO","FM-12","99999","V020","320,1,N,0030,1","00210,1,9,N","055000,1,N,1","+0096,1","+0058,1","10151,1","12,0005,9,1",,,"8,1,06,1","2,1,06,1",,"08,99,1,08,1,09,1,00250,1,99,9,99,9",,"999,M,+0128,1","99999,9,10050,1","2,1,010,1,+999,9","15,1","SYN088AAXX  30181 01278 11385 83203 10096 20058 30050 40151 52010 69962 71582 889// 333 10128;",
"01278099999","2010-05-31T06:00:00","4","63.7833333","11.6833333","83.0","VERDAL REPPE, NO","FM-12","99999","V020","999,9,C,0000,1","01500,1,9,N","055000,1,N,1","+0063,1","+0046,1","10185,1","12,0000,9,1","24,0005,9,1",,"2,1,06,1","2,1,06,1",,"05,99,1,05,1,05,1,01750,1,99,9,99,9",,"999,N,+0050,1","99999,9,10083,1","2,1,010,1,+999,9","02,1","SYN094AAXX  31061 01278 11785 50000 10063 20046 30083 40185 52010 60002 70222 855// 333 20050 70006;","Q01  00002PRCP12"
"01278099999","2010-05-31T09:00:00","4","63.7833333","11.6833333","83.0","VERDAL REPPE, NO","FM-12","99999","V020","310,1,N,0030,1","01500,1,9,N","055000,1,N,1","+0095,1","+0019,1","10190,1",,,,"2,1,03,1","2,1,03,1",,"07,99,1,07,1,05,1,01750,1,99,9,99,9",,,"99999,9,10088,1","2,1,008,1,+999,9","03,1","SYN072AAXX  31091 01278 41785 73103 10095 20019 30088 40190 52008 70322 875//;",
"01278099999","2010-05-31T12:00:00","4","63.7833333","11.6833333","83.0","VERDAL REPPE, NO","FM-12","99999","V020","310,1,N,0030,1","01500,1,9,N","055000,1,N,1","+0102,1","+0033,1","10200,1",,,,"2,1,06,1","2,1,06,1",,"08,99,1,08,1,05,1,01750,1,99,9,99,9",,,"99999,9,10098,1","2,1,010,1,+999,9","02,1","SYN078AAXX  31121 01278 11785 83103 10102 20033 30098 40200 52010 6//// 70222 885//;",
"01278099999","2010-05-31T18:00:00","4","63.7833333","11.6833333","83.0","VERDAL REPPE, NO","FM-12","99999","V020","320,1,N,0030,1","01200,1,9,N","055000,1,N,1","+0094,1","+0038,1","10208,1","12,0000,9,1",,,"2,1,06,1","2,1,06,1",,"08,99,1,08,1,05,1,01250,1,99,9,99,9",,"999,M,+0108,1","99999,9,10106,1","2,1,002,1,+999,9","02,1","SYN088AAXX  31181 01278 11685 83203 10094 20038 30106 40208 52002 60002 70222 885// 333 10108;","Q01  00002PRCP12"
"01278099999","2010-06-01T06:00:00","4","63.7833333","11.6833333","83.0","VERDAL REPPE, NO","FM-12","99999","V020","140,1,N,0010,1","00420,1,9,N","055000,1,N,1","+0070,1","+0056,1","10211,1","12,9999,9,9","24,0003,9,1",,"8,1,06,1","2,1,06,1",,"07,99,1,07,1,09,1,00450,1,99,9,99,9",,"999,N,+0062,1","99999,9,10109,1","4,1,000,1,+999,9","80,1","SYN094AAXX  01061 01278 11485 71401 10070 20056 30109 40211 54000 69922 78082 879// 333 20062 70002;","Q01  00002PRCP12Q02  00002PRCP12"
"01278099999","2010-06-01T09:00:00","4","63.7833333","11.6833333","83.0","VERDAL REPPE, NO","FM-12","99999","V020","140,1,N,0030,1","22000,1,9,N","055000,1,N,1","+0106,1","+0022,1","10193,1",,,,"8,1,03,1","2,1,03,1",,"04,99,1,03,1,08,1,01250,1,06,1,01,1",,,"99999,9,10092,1","7,1,017,1,+999,9","02,1","SYN072AAXX  01091 01278 41685 41403 10106 20022 30092 40193 57017 70282 83861;",
"01278099999","2010-06-01T12:00:00","4","63.7833333","11.6833333","83.0","VERDAL REPPE, NO","FM-12","99999","V020","999,9,C,0000,1","22000,1,9,N","075000,1,N,1","+0150,1","+0035,1","10167,1",,,,"1,1,06,1","1,1,06,1",,"02,99,1,01,1,01,1,01750,1,00,1,01,1",,,"99999,9,10067,1","7,1,024,1,+999,9","01,1","SYN078AAXX  01121 01278 11789 20000 10150 20035 30067 40167 57024 6//// 70111 81101;",
"01278099999","2010-06-01T18:00:00","4","63.7833333","11.6833333","83.0","VERDAL REPPE, NO","FM-12","99999","V020","280,1,N,0030,1","22000,1,9,N","055000,1,N,1","+0180,1","+0035,1","10147,1","12,0000,2,1",,,"0,1,06,1","0,1,06,1",,"04,99,1,00,1,00,1,99999,9,00,1,08,1",,"999,M,+0190,1","99999,9,10048,1","6,1,007,1,+999,9","02,1","SYN088AAXX  01181 01278 11985 42803 10180 20035 30048 40147 56007 69902 70200 80008 333 10190;",
"01278099999","2010-06-02T06:00:00","4","63.7833333","11.6833333","83.0","VERDAL REPPE, NO","FM-12","99999","V020","999,9,C,0000,1","22000,1,9,N","055000,1,N,1","+0096,1","+0044,1","10155,1","12,0000,9,1","24,0000,2,1",,"0,1,06,1","0,1,06,1",,"01,99,1,01,1,00,1,99999,9,03,1,01,1",,"999,N,+0062,1","99999,9,10054,1","2,1,005,1,+999,9","02,1","SYN094AAXX  02061 01278 11985 10000 10096 20044 30054 40155 52005 60002 70200 81031 333 20062 79999;","Q01  00002PRCP12"
"01278099999","2010-06-02T09:00:00","4","63.7833333","11.6833333","83.0","VERDAL REPPE, NO","FM-12","99999","V020","280,1,N,0030,1","07500,1,9,N","055000,1,N,1","+0148,1","+0048,1","10148,1",,,,"1,1,03,1","1,1,03,1",,"06,99,1,01,1,08,1,02250,1,07,1,06,1",,,"99999,9,10048,1","7,1,004,1,+999,9","03,1","SYN072AAXX  02091 01278 41885 62803 10148 20048 30048 40148 57004 70311 81876;",
"01278099999","2010-06-02T12:00:00","4","63.7833333","11.6833333","83.0","VERDAL REPPE, NO","FM-12","99999","V020","280,1,N,0010,1","03000,1,9,N","055000,1,N,1","+0166,1","+0046,1","10137,1",,,,"1,1,06,1","1,1,06,1",,"08,99,1,04,1,08,1,02250,1,07,1,99,9",,,"99999,9,10039,1","7,1,009,1,+999,9","02,1","SYN078AAXX  02121 01278 11885 82801 10166 20046 30039 40137 57009 6//// 70211 8487/;",
"01278099999","2010-06-02T18:00:00","4","63.7833333","11.6833333","83.0","VERDAL REPPE, NO","FM-12","99999","V020","999,9,C,0000,1","03000,1,9,N","055000,1,N,1","+0142,1","+0053,1","10117,1","12,9999,9,9",,,"6,1,06,1","2,1,06,1",,"08,99,1,03,1,07,1,01750,1,02,1,99,9",,"999,M,+0167,1","99999,9,10018,1","5,1,000,1,+999,9","60,1","SYN088AAXX  02181 01278 11785 80000 10142 20053 30018 40117 55000 69902 76062 8372/ 333 10167;","Q01  00002PRCP12Q02  00002PRCP12"
"01278099999","2010-06-03T06:00:00","4","63.7833333","11.6833333","83.0","VERDAL REPPE, NO","FM-12","99999","V020","290,1,N,0030,1","00420,1,9,N","030000,1,N,1","+0091,1","+0077,1","10123,1","12,0140,9,2","24,0137,9,2",,"8,1,06,1","6,1,06,1",,"08,99,1,08,1,09,1,00450,1,99,9,99,9",,"999,N,+0088,1","99999,9,10022,1","4,1,000,1,+999,9","02,1","SYN094AAXX  03061 01278 11480 82903 10091 20077 30022 40123 54000 60142 70286 889// 333 20088 70136;",
"01278099999","2010-06-03T09:00:00","4","63.7833333","11.6833333","83.0","VERDAL REPPE, NO","FM-12","99999","V020","290,1,N,0050,1","00420,1,9,N","055000,1,N,1","+0100,1","+0074,1","10136,1",,,,"8,1,03,1","2,1,03,1",,"08,99,1,08,1,09,1,00450,1,99,9,99,9",,,"99999,9,10035,1","2,1,013,1,+999,9","02,1","SYN072AAXX  03091 01278 41485 82905 10100 20074 30035 40136 52013 70282 889//;",
"01278099999","2010-06-03T12:00:00","4","63.7833333","11.6833333","83.0","VERDAL REPPE, NO","FM-12","99999","V020","290,1,N,0050,1","00420,1,9,N","055000,1,N,1","+0110,1","+0079,1","10151,1",,,,"8,1,06,1","2,1,06,1",,"08,99,1,08,1,09,1,00450,1,99,9,99,9",,,"99999,9,10051,1","2,1,017,1,+999,9","80,1","SYN078AAXX  03121 01278 11485 82905 10110 20079 30051 40151 52017 6//// 78082 889//;",
"01278099999","2010-06-03T18:00:00","4","63.7833333","11.6833333","83.0","VERDAL REPPE, NO","FM-12","99999","V020","290,1,N,0050,1","00750,1,9,N","030000,1,N,1","+0092,1","+0042,1","10192,1","12,0008,9,1",,,"8,1,06,1","2,1,06,1",,"08,99,1,08,1,09,1,00800,1,99,9,99,9",,"999,M,+0111,1","99999,9,10090,1","2,1,020,1,+999,9","15,1","SYN088AAXX  03181 01278 11580 82905 10092 20042 30090 40192 52020 69972 71582 889// 333 10111;",
"01278099999","2010-06-04T06:00:00","4","63.7833333","11.6833333","83.0","VERDAL REPPE, NO","FM-12","99999","V020","330,1,N,0050,1","00750,1,9,N","055000,1,N,1","+0076,1","+0040,1","10208,1","12,0030,9,1","24,0033,9,1",,"8,1,06,1","2,1,06,1",,"07,99,1,07,1,09,1,00800,1,99,9,99,9",,"999,N,+0070,1","99999,9,10106,1","2,1,002,1,+999,9","02,1","SYN094AAXX  04061 01278 11585 73305 10076 20040 30106 40208 52002 60032 70282 879// 333 20070 70032;",
"01278099999","2010-06-04T09:00:00","4","63.7833333","11.6833333","83.0","VERDAL REPPE, NO","FM-12","99999","V020","290,1,N,0050,1","00420,1,9,N","055000,1,N,1","+0080,1","+0037,1","10214,1",,,,"8,1,03,1","2,1,03,1",,"07,99,1,07,1,09,1,00450,1,99,9,99,9",,,"99999,9,10112,1","2,1,007,1,+999,9","02,1","SYN072AAXX  04091 01278 41485 72905 10080 20037 30112 40214 52007 70282 879//;",
"01278099999","2010-06-04T12:00:00","4","63.7833333","11.6833333","83.0","VERDAL REPPE, NO","FM-12","99999","V020","290,1,N,0070,1","01200,1,9,N","055000,1,N,1","+0085,1","+0027,1","10226,1",,,,"8,1,06,1","2,1,06,1",,"07,99,1,07,1,09,1,01250,1,99,9,99,9",,,"99999,9,10124,1","7,1,012,1,+999,9","80,1","SYN078AAXX  04121 01278 11685 72907 10085 20027 30124 40226 57012 6//// 78082 879//;",
"01278099999","2010-06-04T18:00:00","4","63.7833333","11.6833333","83.0","VERDAL REPPE, NO","FM-12","99999","V020","320,1,N,0070,1","00750,1,9,N","055000,1,N,1","+0080,1","+0023,1","10222,1","12,0000,2,1",,,"8,1,06,1","2,1,06,1",,"07,99,1,07,1,09,1,00800,1,99,9,99,9",,"999,M,+0102,1","99999,9,10120,1","7,1,003,1,+999,9","02,1","SYN088AAXX  04181 01278 11585 73207 10080 20023 30120 40222 57003 69912 70282 879// 333 10102;",
"01278099999","2010-06-05T06:00:00","4","63.7833333","11.6833333","83.0","VERDAL REPPE, NO","FM-12","99999","V020","310,1,N,0030,1","01200,1,9,N","055000,1,N,1","+0068,1","+0036,1","10208,1","12,0000,9,1","24,0000,2,1",,"2,1,06,1","2,1,06,1",,"08,99,1,08,1,05,1,01250,1,99,9,99,9",,"999,N,+0043,1","99999,9,10105,1","7,1,006,1,+999,9","02,1","SYN094AAXX  05061 01278 11685 83103 10068 20036 30105 40208 57006 60002 70222 885// 333 20043 70001;","Q01  00002PRCP12"
"01278099999","2010-06-05T09:00:00","4","63.7833333","11.6833333","83.0","VERDAL REPPE, NO","FM-12","99999","V020","300,1,N,0030,1","01500,1,9,N","055000,1,N,1","+0079,1","+0013,1","10199,1",,,,"2,1,03,1","2,1,03,1",,"07,99,1,07,1,05,1,01750,1,99,9,99,9",,,"99999,9,10097,1","7,1,008,1,+999,9","01,1","SYN072AAXX  05091 01278 41785 73003 10079 20013 30097 40199 57008 70122 875//;",
"01278099999","2010-06-05T12:00:00","4","63.7833333","11.6833333","83.0","VERDAL REPPE, NO","FM-12","99999","V020","310,1,N,0030,1","22000,1,9,N","055000,1,N,1","+0101,1","+0017,1","10185,1",,,,"1,1,06,1","1,1,06,1",,"01,99,1,01,1,01,1,01750,1,00,1,00,1",,,"99999,9,10083,1","7,1,012,1,+999,9","01,1","SYN078AAXX  05121 01278 11785 13103 10101 20017 30083 40185 57012 6//// 70111 81100;",
"01278099999","2010-06-05T18:00:00","4","63.7833333","11.6833333","83.0","VERDAL REPPE, NO","FM-12","99999","V020","310,1,N,0050,1","22000,1,9,N","055000,1,N,1","+0120,1","+0025,1","10157,1","12,0000,9,1",,,"0,1,06,1","0,1,06,1",,"01,99,1,01,1,01,1,01750,1,00,1,01,1",,"999,M,+0135,1","99999,9,10056,1","7,1,015,1,+999,9","02,1","SYN088AAXX  05181 01278 11785 13105 10120 20025 30056 40157 57015 60002 70200 81101 333 10135;","Q01  00002PRCP12"
"01278099999","2010-06-06T06:00:00","4","63.7833333","11.6833333","83.0","VERDAL REPPE, NO","FM-12","99999","V020","999,9,C,0000,1","00750,1,9,N","055000,1,N,1","+0057,1","+0032,1","10156,1","12,0000,9,1","24,0000,9,1",,"1,1,06,1","1,1,06,1",,"08,99,1,08,1,09,1,00800,1,99,9,99,9",,"999,N,+0025,1","99999,9,10053,1","7,1,001,1,+999,9","15,1","SYN094AAXX  06061 01278 11585 80000 10057 20032 30053 40156 57001 60002 71511 889// 333 20025 70000;","Q01  00002PRCP24Q02  00002PRCP12"
"01278099999","2010-06-06T09:00:00","4","63.7833333","11.6833333","83.0","VERDAL REPPE, NO","FM-12","99999","V020","290,1,N,0010,1","01200,1,9,N","055000,1,N,1","+0082,1","+0022,1","10154,1",,,,"2,1,03,1","2,1,03,1",,"07,99,1,06,1,09,1,01250,1,06,1,99,9",,,"99999,9,10052,1","7,1,001,1,+999,9","15,1","SYN072AAXX  06091 01278 41685 72901 10082 20022 30052 40154 57001 71522 8696/;",
"01278099999","2010-06-06T12:00:00","4","63.7833333","11.6833333","83.0","VERDAL REPPE, NO","FM-12","99999","V020","320,1,N,0030,1","01200,1,9,N","055000,1,N,1","+0104,1","+0018,1","10148,1",,,,"2,1,06,1","2,1,06,1",,"07,99,1,06,1,09,1,01250,1,06,1,01,1",,,"99999,9,10047,1","7,1,003,1,+999,9","15,1","SYN078AAXX  06121 01278 11685 73203 10104 20018 30047 40148 57003 6//// 71522 86961;",
"01278099999","2010-06-06T18:00:00","4","63.7833333","11.6833333","83.0","VERDAL REPPE, NO","FM-12","99999","V020","290,1,N,0050,1","01200,1,9,N","055000,1,N,1","+0098,1","+0004,1","10137,1","12,0000,9,1",,,"2,1,06,1","2,1,06,1",,"07,99,1,07,1,09,1,01250,1,99,9,99,9",,"999,M,+0120,1","99999,9,10036,1","7,1,005,1,+999,9","15,1","SYN088AAXX  06181 01278 11685 72905 10098 20004 30036 40137 57005 60002 71522 879// 333 10120;","Q01  00002PRCP12"
"01278099999","2010-06-07T06:00:00","4","63.7833333","11.6833333","83.0","VERDAL REPPE, NO","FM-12","99999","V020","999,9,C,0000,1","01800,1,9,N","055000,1,N,1","+0067,1","+0028,1","10125,1","12,0000,9,1","24,0000,9,1",,"2,1,06,1","2,1,06,1",,"07,99,1,07,1,08,1,01750,1,99,9,99,9",,"999,N,+0056,1","99999,9,10023,1","7,1,010,1,+999,9","02,1","SYN094AAXX  07061 01278 11785 70000 10067 20028 30023 40125 57010 60002 70222 878// 333 20056 70000;","Q01  00002PRCP24Q02  00002PRCP12"
"01278099999","2010-06-07T09:00:00","4","63.7833333","11.6833333","83.0","VERDAL REPPE, NO","FM-12","99999","V020","330,1,N,0010,1","01800,1,9,N","075000,1,N,1","+0097,1","+0023,1","10114,1",,,,"2,1,03,1","2,1,03,1",,"07,99,1,07,1,08,1,01750,1,99,9,99,9",,,"99999,9,10013,1","7,1,010,1,+999,9","02,1","SYN072AAXX  07091 01278 41789 73301 10097 20023 30013 40114 57010 70222 878//;",
"01278099999","2010-06-07T12:00:00","4","63.7833333","11.6833333","83.0","VERDAL REPPE, NO","FM-12","99999","V020","999,9,C,0000,1","01800,1,9,N","055000,1,N,1","+0110,1","+0016,1","10107,1",,,,"2,1,06,1","2,1,06,1",,"07,99,1,07,1,08,1,01750,1,99,9,99,9",,,"99999,9,10007,1","7,1,005,1,+999,9","02,1","SYN078AAXX  07121 01278 11785 70000 10110 20016 30007 40107 57005 6//// 70222 878//;",
"01278099999","2010-06-07T18:00:00","4","63.7833333","11.6833333","83.0","VERDAL REPPE, NO","FM-12","99999","V020","330,1,N,0050,1","03000,1,9,N","055000,1,N,1","+0122,1","+0015,1","10086,1","12,0000,9,1",,,"2,1,06,1","2,1,06,1",,"07,99,1,04,1,08,1,01750,1,06,1,02,1",,"999,M,+0135,1","99999,9,09986,1","7,1,010,1,+999,9","02,1","SYN088AAXX  07181 01278 11785 73305 10122 20015 39986 40086 57010 60002 70222 84862 333 10135;","Q01  00002PRCP12"
"01278099999","2010-06-08T06:00:00","4","63.7833333","11.6833333","83.0","VERDAL REPPE, NO","FM-12","99999","V020","120,1,N,0070,1","03000,1,9,N","055000,1,N,1","+0105,1","+0051,1","10082,1","12,0000,9,1","24,0000,9,1",,"2,1,06,1","2,1,06,1",,"08,99,1,03,1,08,1,00800,1,01,1,99,9",,"999,N,+0059,1","99999,9,09982,1","7,1,001,1,+999,9","02,1","SYN094AAXX  08061 01278 11585 81207 10105 20051 39982 40082 57001 60002 70222 8381/ 333 20059 70000;","Q01  00002PRCP24Q02  00002PRCP12"
"01278099999","2010-06-08T09:00:00","4","63.7833333","11.6833333","83.0","VERDAL REPPE, NO","FM-12","99999","V020","150,1,N,0070,1","01200,1,9,N","055000,1,N,1","+0124,1","+0056,1","10091,1",,,,"2,1,03,1","2,1,03,1",,"08,99,1,07,1,08,1,00800,1,07,1,99,9",,,"99999,9,09992,1","2,1,010,1,+999,9","02,1","SYN072AAXX  08091 01278 41585 81507 10124 20056 39992 40091 52010 70222 8787/;",
"01278099999","2010-06-08T12:00:00","4","63.7833333","11.6833333","83.0","VERDAL REPPE, NO","FM-12","99999","V020","120,1,N,0050,1","01200,1,9,N","030000,1,N,1","+0112,1","+0057,1","10096,1",,,,"8,1,06,1","2,1,06,1",,"08,99,1,05,1,09,1,01250,1,07,1,99,9",,,"99999,9,09996,1","2,1,004,1,+999,9","80,1","SYN078AAXX  08121 01278 11680 81205 10112 20057 39996 40096 52004 6//// 78082 8597/;",
"01278099999","2010-06-08T18:00:00","4","63.7833333","11.6833333","83.0","VERDAL REPPE, NO","FM-12","99999","V020","100,1,N,0050,1","01500,1,9,N","055000,1,N,1","+0127,1","+0065,1","10100,1","12,0000,2,1",,,"8,1,06,1","2,1,06,1",,"06,99,1,06,1,08,1,01250,1,06,1,01,1",,"999,M,+0129,1","99999,9,10001,1","4,1,000,1,+999,9","02,1","SYN088AAXX  08181 01278 11685 61005 10127 20065 30001 40100 54000 69912 70282 86861 333 10129;",
"01278099999","2010-06-09T06:00:00","4","63.7833333","11.6833333","83.0","VERDAL REPPE, NO","FM-12","99999","V020","999,9,C,0000,1","01500,1,9,N","055000,1,N,1","+0107,1","+0078,1","10131,1","12,0000,9,1","24,0000,2,1",,"1,1,06,1","1,1,06,1",,"07,99,1,07,1,08,1,01250,1,99,9,99,9",,"999,N,+0082,1","99999,9,10031,1","2,1,018,1,+999,9","02,1","SYN094AAXX  09061 01278 11685 70000 10107 20078 30031 40131 52018 60002 70211 878// 333 20082 70001;","Q01  00002PRCP12"
"01278099999","2010-06-09T09:00:00","4","63.7833333","11.6833333","83.0","VERDAL REPPE, NO","FM-12","99999","V020","290,1,N,0050,1","22000,1,9,N","055000,1,N,1","+0142,1","+0073,1","10143,1",,,,"1,1,03,1","1,1,03,1",,"04,99,1,04,1,08,1,01250,1,00,1,00,1",,,"99999,9,10044,1","2,1,014,1,+999,9","01,1","SYN072AAXX  09091 01278 41685 42905 10142 20073 30044 40143 52014 70111 84800;",
"01278099999","2010-06-09T12:00:00","4","63.7833333","11.6833333","83.0","VERDAL REPPE, NO","FM-12","99999","V020","300,1,N,0050,1","22000,1,9,N","075000,1,N,1","+0156,1","+0049,1","10151,1",,,,"1,1,06,1","1,1,06,1",,"04,99,1,04,1,08,1,01250,1,06,1,00,1",,,"99999,9,10052,1","2,1,008,1,+999,9","02,1","SYN078AAXX  09121 01278 11689 43005 10156 20049 30052 40151 52008 6//// 70211 84860;",
"01278099999","2010-06-09T18:00:00","4","63.7833333","11.6833333","83.0","VERDAL REPPE, NO","FM-12","99999","V020","330,1,N,0070,1","22000,1,9,N","055000,1,N,1","+0137,1","+0035,1","10163,1","12,0000,9,1",,,"1,1,06,1","1,1,06,1",,"01,99,1,01,1,01,1,01250,1,00,1,02,1",,"999,M,+0171,1","99999,9,10063,1","2,1,010,1,+999,9","01,1","SYN088AAXX  09181 01278 11685 13307 10137 20035 30063 40163 52010 60002 70111 81102 333 10171;","Q01  00002PRCP12"
"01278099999","2010-06-10T06:00:00","4","63.7833333","11.6833333","83.0","VERDAL REPPE, NO","FM-12","99999","V020","120,1,N,0010,1","22000,1,9,N","055000,1,N,1","+0072,1","+0038,1","10208,1","12,0000,9,1","24,0000,9,1",,"0,1,06,1","0,1,06,1",,"01,99,1,00,1,00,1,99999,9,00,1,01,1",,"999,N,+0022,1","99999,9,10105,1","4,1,000,1,+999,9","02,1","SYN094AAXX  10061 01278 11985 11201 10072 20038 30105 40208 54000 60002 70200 80001 333 20022 70000;","Q01  00002PRCP24Q02  00002PRCP12"
"01278099999","2010-06-10T09:00:00","4","63.7833333","11.6833333","83.0","VERDAL REPPE, NO","FM-12","99999","V020","999,9,C,0000,1","22000,1,9,N","055000,1,N,1","+0112,1","+0040,1","10194,1",,,,"0,1,03,1","0,1,03,1",,"01,99,1,00,1,00,1,99999,9,00,1,01,1",,,"99999,9,10093,1","7,1,010,1,+999,9","02,1","SYN072AAXX  10091 01278 41985 10000 10112 20040 30093 40194 57010 70200 80001;",
"01278099999","2010-06-10T12:00:00","4","63.7833333","11.6833333","83.0","VERDAL REPPE, NO","FM-12","99999","V020","270,1,N,0050,1","22000,1,9,N","075000,1,N,1","+0171,1","+0044,1","10167,1",,,,"0,1,06,1","0,1,06,1",,"01,99,1,00,1,00,1,99999,9,00,1,08,1",,,"99999,9,10068,1","7,1,025,1,+999,9","02,1","SYN078AAXX  10121 01278 11989 12705 10171 20044 30068 40167 57025 6//// 70200 80008;",
"01278099999","2010-06-10T18:00:00","4","63.7833333","11.6833333","83.0","VERDAL REPPE, NO","FM-12","99999","V020","320,1,N,0030,1","22000,1,9,N","055000,1,N,1","+0198,1","+0069,1","10115,1","12,0000,9,1",,,"0,1,06,1","0,1,06,1",,"01,99,1,01,1,08,1,01750,1,00,1,01,1",,"999,M,+0210,1","99999,9,10018,1","7,1,026,1,+999,9","02,1","SYN088AAXX  10181 01278 11785 13203 10198 20069 30018 40115 57026 60002 70200 81801 333 10210;","Q01  00002PRCP12"
"01278099999","2010-06-11T06:00:00","4","63.7833333","11.6833333","83.0","VERDAL REPPE, NO","FM-12","99999","V020","999,9,C,0000,1","03000,1,9,N","055000,1,N,1","+0132,1","+0077,1","10048,1","12,0000,9,1","24,0000,9,1",,"8,1,06,1","2,1,06,1",,"05,99,1,04,1,08,1,01750,1,06,1,02,1",,"999,N,+0110,1","99999,9,09949,1","7,1,025,1,+999,9","02,1","SYN094AAXX  11061 01278 11785 50000 10132 20077 39949 40048 57025 69902 70282 84862 333 20110 79999;","Q01  00002PRCP24Q02  00002PRCP12"
"01278099999","2010-06-11T09:00:00","4","63.7833333","11.6833333","83.0","VERDAL REPPE, NO","FM-12","99999","V020","330,1,N,0050,1","03000,1,9,N","055000,1,N,1","+0178,1","+0092,1","10031,1",,,,"8,1,03,1","2,1,03,1",,"07,99,1,04,1,09,1,01750,1,03,1,01,1",,,"99999,9,09934,1","7,1,015,1,+999,9","80,1","SYN072AAXX  11091 01278 41785 73305 10178 20092 39934 40031 57015 78082 84931;",
"01278099999","2010-06-11T12:00:00","4","63.7833333","11.6833333","83.0","VERDAL REPPE, NO","FM-12","99999","V020","310,1,N,0010,1","03000,1,9,N","055000,1,N,1","+0155,1","+0075,1","10014,1",,,,"9,1,06,1","8,1,06,1",,"08,99,1,04,1,09,1,01250,1,07,1,08,1",,,"99999,9,09917,1","7,1,016,1,+999,9","95,1","SYN078AAXX  11121 01278 11685 83101 10155 20075 39917 40014 57016 6//// 79598 84978;",
"01278099999","2010-06-11T18:00:00","4","63.7833333","11.6833333","83.0","VERDAL REPPE, NO","FM-12","99999","V020","130,1,N,0030,1","01500,1,9,N","055000,1,N,1","+0135,1","+0109,1","09977,1","12,0030,9,1",,,"9,1,06,1","8,1,06,1",,"07,99,1,07,1,09,1,01750,1,99,9,99,9",,"999,M,+0191,1","99999,9,09879,1","7,1,007,1,+999,9","02,1","SYN088AAXX  11181 01278 11785 71303 10135 20109 39879 49977 57007 60032 70298 879// 333 10191;",
"01278099999","2010-06-12T06:00:00","4","63.7833333","11.6833333","83.0","VERDAL REPPE, NO","FM-12","99999","V020","999,9,C,0000,1","03000,1,9,N","030000,1,N,1","+0115,1","+0099,1","09953,1","12,0041,9,1","24,0066,9,1",,"6,1,06,1","2,1,06,1",,"08,99,1,01,1,07,1,01250,1,02,1,99,9",,"999,N,+0110,1","99999,9,09854,1","4,1,000,1,+999,9","60,1","SYN094AAXX  12061 01278 11680 80000 10115 20099 39854 49953 54000 60042 76062 8172/ 333 20110 70066;",
"01278099999","2010-06-12T09:00:00","4","63.7833333","11.6833333","83.0","VERDAL REPPE, NO","FM-12","99999","V020","270,1,N,0050,1","03000,1,9,N","030000,1,N,1","+0142,1","+0110,1","09955,1",,,,"6,1,03,1","2,1,03,1",,"07,99,1,04,1,08,1,00800,1,07,1,99,9",,,"99999,9,09858,1","2,1,004,1,+999,9","02,1","SYN072AAXX  12091 01278 41580 72705 10142 20110 39858 49955 52004 70262 8487/;",
"01278099999","2010-06-12T12:00:00","4","63.7833333","11.6833333","83.0","VERDAL REPPE, NO","FM-12","99999","V020","270,1,N,0050,1","03000,1,9,N","055000,1,N,1","+0170,1","+0113,1","09947,1",,,,"6,1,06,1","2,1,06,1",,"07,99,1,03,1,09,1,01250,1,03,1,02,1",,,"99999,9,09851,1","7,1,007,1,+999,9","02,1","SYN078AAXX  12121 01278 11685 72705 10170 20113 39851 49947 57007 6//// 70262 83932;",
"01278099999","2010-06-12T18:00:00","4","63.7833333","11.6833333","83.0","VERDAL REPPE, NO","FM-12","99999","V020","330,1,N,0050,1","00750,1,9,N","030000,1,N,1","+0140,1","+0090,1","09971,1","12,0000,2,1",,,"9,1,06,1","8,1,06,1",,"07,99,1,06,1,09,1,00800,1,06,1,02,1",,"999,M,+0189,1","99999,9,09873,1","2,1,020,1,+999,9","80,1","SYN088AAXX  12181 01278 11580 73305 10140 20090 39873 49971 52020 69912 78098 86962 333 10189;",
"01278099999","2010-06-13T06:00:00","4","63.7833333","11.6833333","83.0","VERDAL REPPE, NO","FM-12","99999","V020","290,1,N,0070,1","00420,1,9,N","030000,1,N,1","+0084,1","+0053,1","10051,1","12,0000,2,1","24,0000,2,1",,"8,1,06,1","2,1,06,1",,"08,99,1,08,1,09,1,00450,1,99,9,99,9",,"999,N,+0084,1","99999,9,09950,1","2,1,017,1,+999,9","16,1","SYN094AAXX  13061 01278 11480 82907 10084 20053 39950 40051 52017 69902 71682 889// 333 20084 70001;",
"01278099999","2010-06-13T09:00:00","4","63.7833333","11.6833333","83.0","VERDAL REPPE, NO","FM-12","99999","V020","320,1,N,0070,1","00420,1,9,N","055000,1,N,1","+0084,1","+0055,1","10066,1",,,,"8,1,03,1","2,1,03,1",,"08,99,1,08,1,09,1,00450,1,99,9,99,9",,,"99999,9,09965,1","2,1,015,1,+999,9","16,1","SYN072AAXX  13091 01278 41485 83207 10084 20055 39965 40066 52015 71682 889//;",
"01278099999","2010-06-13T12:00:00","4","63.7833333","11.6833333","83.0","VERDAL REPPE, NO","FM-12","99999","V020","290,1,N,0050,1","00420,1,9,N","055000,1,N,1","+0091,1","+0060,1","10071,1",,,,"8,1,06,1","2,1,06,1",,"08,99,1,08,1,09,1,00450,1,99,9,99,9",,,"99999,9,09970,1","2,1,005,1,+999,9","80,1","SYN078AAXX  13121 01278 11485 82905 10091 20060 39970 40071 52005 6//// 78082 889//;",
"01278099999","2010-06-14T06:00:00","4","63.7833333","11.6833333","83.0","VERDAL REPPE, NO","FM-12","99999","V020","290,1,N,0050,1","00420,1,9,N","055000,1,N,1","+0075,1","+0032,1","10142,1","12,0005,9,1",,,"8,1,06,1","2,1,06,1",,"07,99,1,07,1,09,1,00450,1,99,9,99,9",,"999,N,+0055,1","99999,9,10040,1","2,1,010,1,+999,9","02,1","SYN088AAXX  14061 01278 11485 72905 10075 20032 30040 40142 52010 69952 70282 879// 333 20055;",
"01278099999","2010-06-14T09:00:00","4","63.7833333","11.6833333","83.0","VERDAL REPPE, NO","FM-12","99999","V020","290,1,N,0050,1","00420,1,9,N","055000,1,N,1","+0077,1","+0028,1","10152,1",,,,"8,1,03,1","2,1,03,1",,"06,99,1,06,1,09,1,00450,1,99,9,99,9",,,"99999,9,10050,1","2,1,010,1,+999,9","02,1","SYN072AAXX  14091 01278 41485 62905 10077 20028 30050 40152 52010 70282 869//;",
"01278099999","2010-06-14T12:00:00","4","63.7833333","11.6833333","83.0","VERDAL REPPE, NO","FM-12","99999","V020","300,1,N,0050,1","01200,1,9,N","055000,1,N,1","+0100,1","+0035,1","10162,1",,,,"8,1,06,1","2,1,06,1",,"06,99,1,06,1,09,1,01250,1,06,1,99,9",,,"99999,9,10061,1","2,1,011,1,+999,9","15,1","SYN078AAXX  14121 01278 11685 63005 10100 20035 30061 40162 52011 6//// 71582 8696/;",
"01278099999","2010-06-14T18:00:00","4","63.7833333","11.6833333","83.0","VERDAL REPPE, NO","FM-12","99999","V020","320,1,N,0070,1","00750,1,9,N","055000,1,N,1","+0087,1","+0029,1","10185,1","12,0020,9,1",,,"8,1,06,1","2,1,06,1",,"08,99,1,08,1,09,1,00800,1,99,9,99,9",,"999,M,+0116,1","99999,9,10083,1","2,1,015,1,+999,9","02,1","SYN088AAXX  14181 01278 11585 83207 10087 20029 30083 40185 52015 60022 70282 889// 333 10116;",
"01278099999","2010-06-15T06:00:00","4","63.7833333","11.6833333","83.0","VERDAL REPPE, NO","FM-12","99999","V020","330,1,N,0070,1","00420,1,9,N","055000,1,N,1","+0067,1","+0045,1","10239,1","12,0003,9,1","24,0018,9,1",,"8,1,06,1","2,1,06,1",,"07,99,1,07,1,09,1,00450,1,99,9,99,9",,"999,N,+0054,1","99999,9,10136,1","2,1,010,1,+999,9","80,1","SYN094AAXX  15061 01278 11485 73307 10067 20045 30136 40239 52010 69932 78082 879// 333 20054 70018;",
"01278099999","2010-06-15T09:00:00","4","63.7833333","11.6833333","83.0","VERDAL REPPE, NO","FM-12","99999","V020","310,1,N,0030,1","03000,1,9,N","055000,1,N,1","+0084,1","+0048,1","10244,1",,,,"8,1,03,1","2,1,03,1",,"07,99,1,04,1,09,1,00450,1,06,1,01,1",,,"99999,9,10142,1","2,1,006,1,+999,9","80,1","SYN072AAXX  15091 01278 41485 73103 10084 20048 30142 40244 52006 78082 84961;",
"01278099999","2010-06-15T12:00:00","4","63.7833333","11.6833333","83.0","VERDAL REPPE, NO","FM-12","99999","V020","290,1,N,0050,1","01200,1,9,N","055000,1,N,1","+0098,1","+0033,1","10247,1",,,,"8,1,06,1","2,1,06,1",,"07,99,1,07,1,09,1,01250,1,99,9,99,9",,,"99999,9,10145,1","2,1,004,1,+999,9","02,1","SYN078AAXX  15121 01278 11685 72905 10098 20033 30145 40247 52004 6//// 70282 879//;",
"01278099999","2010-06-15T18:00:00","4","63.7833333","11.6833333","83.0","VERDAL REPPE, NO","FM-12","99999","V020","320,1,N,0050,1","01800,1,9,N","055000,1,N,1","+0108,1","+0024,1","10247,1","12,0005,9,1",,,"2,1,06,1","2,1,06,1",,"07,99,1,07,1,08,1,01750,1,99,9,99,9",,"999,M,+0115,1","99999,9,10145,1","7,1,003,1,+999,9","02,1","SYN088AAXX  15181 01278 11785 73205 10108 20024 30145 40247 57003 69942 70222 878// 333 10115;",
"01278099999","2010-06-16T06:00:00","4","63.7833333","11.6833333","83.0","VERDAL REPPE, NO","FM-12","99999","V020","999,9,C,0000,1","01500,1,9,N","055000,1,N,1","+0075,1","+0048,1","10235,1","12,0000,9,1","24,0005,9,1",,"2,1,06,1","2,1,06,1",,"07,99,1,05,1,08,1,01250,1,07,1,02,1",,"999,N,+0049,1","99999,9,10133,1","7,1,009,1,+999,9","02,1","SYN094AAXX  16061 01278 11685 70000 10075 20048 30133 40235 57009 60002 70222 85872 333 20049 70004;","Q01  00002PRCP12"
"01278099999","2010-06-16T09:00:00","4","63.7833333","11.6833333","83.0","VERDAL REPPE, NO","FM-12","99999","V020","260,1,N,0010,1","01500,1,9,N","055000,1,N,1","+0099,1","+0039,1","10228,1",,,,"2,1,03,1","2,1,03,1",,"07,99,1,07,1,08,1,01250,1,06,1,01,1",,,"99999,9,10126,1","7,1,006,1,+999,9","02,1","SYN072AAXX  16091 01278 41685 72601 10099 20039 30126 40228 57006 70222 87861;",
"01278099999","2010-06-16T12:00:00","4","63.7833333","11.6833333","83.0","VERDAL REPPE, NO","FM-12","99999","V020","290,1,N,0050,1","01200,1,9,N","055000,1,N,1","+0111,1","+0041,1","10225,1",,,,"2,1,06,1","2,1,06,1",,"08,99,1,06,1,09,1,01250,1,07,1,99,9",,,"99999,9,10124,1","7,1,002,1,+999,9","16,1","SYN078AAXX  16121 01278 11685 82905 10111 20041 30124 40225 57002 6//// 71622 8697/;",
"01278099999","2010-06-16T18:00:00","4","63.7833333","11.6833333","83.0","VERDAL REPPE, NO","FM-12","99999","V020","300,1,N,0030,1","01200,1,9,N","030000,1,N,1","+0104,1","+0058,1","10209,1","12,9999,9,9",,,"8,1,06,1","2,1,06,1",,"08,99,1,08,1,09,1,01250,1,99,9,99,9",,"999,M,+0119,1","99999,9,10108,1","7,1,005,1,+999,9","80,1","SYN088AAXX  16181 01278 11680 83003 10104 20058 30108 40209 57005 69902 78082 889// 333 10119;","Q01  00002PRCP12Q02  00002PRCP12"
"01278099999","2010-06-17T06:00:00","4","63.7833333","11.6833333","83.0","VERDAL REPPE, NO","FM-12","99999","V020","290,1,N,0030,1","00420,1,9,N","055000,1,N,1","+0108,1","+0079,1","10194,1","12,0020,9,2","24,0018,9,2",,"8,1,06,1","2,1,06,1",,"08,99,1,07,1,09,1,00450,1,02,1,99,9",,"999,N,+0095,1","99999,9,10092,1","7,1,010,1,+999,9","02,1","SYN094AAXX  17061 01278 11485 82903 10108 20079 30092 40194 57010 60022 70282 8792/ 333 20095 70017;",
"01278099999","2010-06-17T09:00:00","4","63.7833333","11.6833333","83.0","VERDAL REPPE, NO","FM-12","99999","V020","280,1,N,0030,1","00420,1,9,N","030000,1,N,1","+0107,1","+0086,1","10183,1",,,,"8,1,03,1","2,1,03,1",,"08,99,1,08,1,09,1,00450,1,99,9,99,9",,,"99999,9,10082,1","7,1,010,1,+999,9","80,1","SYN072AAXX  17091 01278 41480 82803 10107 20086 30082 40183 57010 78082 889//;",
"01278099999","2010-06-17T12:00:00","4","63.7833333","11.6833333","83.0","VERDAL REPPE, NO","FM-12","99999","V020","999,9,C,0000,1","03000,1,9,N","010000,1,N,1","+0117,1","+0094,1","10160,1",,,,"8,1,06,1","6,1,06,1",,"08,99,1,04,1,08,1,00800,1,02,1,99,9",,,"99999,9,10060,1","7,1,022,1,+999,9","61,1","SYN078AAXX  17121 01278 11560 80000 10117 20094 30060 40160 57022 6//// 76186 8482/;",
"01278099999","2010-06-17T18:00:00","4","63.7833333","11.6833333","83.0","VERDAL REPPE, NO","FM-12","99999","V020","290,1,N,0030,1","00120,1,9,N","030000,1,N,1","+0114,1","+0101,1","10115,1","12,0041,9,1",,,"8,1,06,1","6,1,06,1",,"08,99,1,08,1,09,1,00150,1,99,9,99,9",,"999,M,+0121,1","99999,9,10015,1","7,1,030,1,+999,9","81,1","SYN088AAXX  17181 01278 11280 82903 10114 20101 30015 40115 57030 60042 78186 889// 333 10121;",
"01278099999","2010-06-18T06:00:00","4","63.7833333","11.6833333","83.0","VERDAL REPPE, NO","FM-12","99999","V020","280,1,N,0050,1","00750,1,9,N","015000,1,N,1","+0090,1","+0070,1","10036,1","12,0061,9,1","24,0104,9,1",,"8,1,06,1","2,1,06,1",,"08,99,1,08,1,09,1,00800,1,99,9,99,9",,"999,N,+0090,1","99999,9,09936,1","7,1,010,1,+999,9","16,1","SYN094AAXX  18061 01278 11565 82805 10090 20070 39936 40036 57010 60062 71682 889// 333 20090 70104;",
"01278099999","2010-06-18T09:00:00","4","63.7833333","11.6833333","83.0","VERDAL REPPE, NO","FM-12","99999","V020","290,1,N,0070,1","00420,1,9,N","030000,1,N,1","+0097,1","+0081,1","10030,1",,,,"8,1,03,1","5,1,03,1",,"08,99,1,08,1,09,1,00450,1,99,9,99,9",,,"99999,9,09930,1","7,1,006,1,+999,9","80,1","SYN072AAXX  18091 01278 41480 82907 10097 20081 39930 40030 57006 78085 889//;",
"01278099999","2010-06-18T12:00:00","4","63.7833333","11.6833333","83.0","VERDAL REPPE, NO","FM-12","99999","V020","310,1,N,0070,1","00420,1,9,N","030000,1,N,1","+0095,1","+0078,1","10020,1",,,,"8,1,06,1","5,1,06,1",,"08,99,1,08,1,09,1,00450,1,99,9,99,9",,,"99999,9,09920,1","7,1,010,1,+999,9","80,1","SYN078AAXX  18121 01278 11480 83107 10095 20078 39920 40020 57010 6//// 78085 889//;",
"01278099999","2010-06-18T18:00:00","4","63.7833333","11.6833333","83.0","VERDAL REPPE, NO","FM-12","99999","V020","310,1,N,0070,1","00420,1,9,N","025000,1,N,1","+0098,1","+0082,1","10010,1","12,0051,9,1",,,"8,1,06,1","2,1,06,1",,"08,99,1,08,1,09,1,00450,1,99,9,99,9",,"999,M,+0106,1","99999,9,09910,1","6,1,005,1,+999,9","80,1","SYN088AAXX  18181 01278 11475 83107 10098 20082 39910 40010 56005 60052 78082 889// 333 10106;",
"01278099999","2010-06-19T06:00:00","4","63.7833333","11.6833333","83.0","VERDAL REPPE, NO","FM-12","99999","V020","300,1,N,0050,1","00120,1,9,N","025000,1,N,1","+0090,1","+0078,1","10037,1","12,0041,9,1","24,0084,9,1",,"8,1,06,1","2,1,06,1",,"08,99,1,08,1,09,1,00150,1,99,9,99,9",,"999,N,+0085,1","99999,9,09937,1","2,1,010,1,+999,9","80,1","SYN094AAXX  19061 01278 11275 83005 10090 20078 39937 40037 52010 60042 78082 889// 333 20085 70084;",
"01278099999","2010-06-19T09:00:00","4","63.7833333","11.6833333","83.0","VERDAL REPPE, NO","FM-12","99999","V020","310,1,N,0050,1","00210,1,9,N","020000,1,N,1","+0083,1","+0069,1","10042,1",,,,"8,1,03,1","2,1,03,1",,"08,99,1,08,1,09,1,00250,1,99,9,99,9",,,"99999,9,09942,1","2,1,005,1,+999,9","80,1","SYN072AAXX  19091 01278 41370 83105 10083 20069 39942 40042 52005 78082 889//;",
"01278099999","2010-06-19T12:00:00","4","63.7833333","11.6833333","83.0","VERDAL REPPE, NO","FM-12","99999","V020","290,1,N,0050,1","00210,1,9,N","020000,1,N,1","+0077,1","+0063,1","10053,1",,,,"8,1,06,1","2,1,06,1",,"08,99,1,08,1,09,1,00250,1,99,9,99,9",,,"99999,9,09952,1","2,1,010,1,+999,9","80,1","SYN078AAXX  19121 01278 11370 82905 10077 20063 39952 40053 52010 6//// 78082 889//;",
"01278099999","2010-06-19T18:00:00","4","63.7833333","11.6833333","83.0","VERDAL REPPE, NO","FM-12","99999","V020","300,1,N,0050,1","00750,1,9,N","030000,1,N,1","+0061,1","+0046,1","10083,1","12,0099,9,1",,,"8,1,06,1","2,1,06,1",,"08,99,1,08,1,09,1,00800,1,99,9,99,9",,"999,M,+0091,1","99999,9,09981,1","2,1,013,1,+999,9","80,1","SYN088AAXX  19181 01278 11580 83005 10061 20046 39981 40083 52013 60102 78082 889// 333 10091;",
"01278099999","2010-06-20T06:00:00","4","63.7833333","11.6833333","83.0","VERDAL REPPE, NO","FM-12","99999","V020","300,1,N,0050,1","00750,1,9,N","055000,1,N,1","+0062,1","+0035,1","10099,1","12,0005,9,1","24,0104,9,1",,"8,1,06,1","2,1,06,1",,"07,99,1,07,1,09,1,00800,1,99,9,99,9",,"999,N,+0046,1","99999,9,09997,1","2,1,008,1,+999,9","15,1","SYN094AAXX  20061 01278 11585 73005 10062 20035 39997 40099 52008 69962 71582 879// 333 20046 70103;",
"01278099999","2010-06-20T09:00:00","4","63.7833333","11.6833333","83.0","VERDAL REPPE, NO","FM-12","99999","V020","310,1,N,0050,1","01200,1,9,N","055000,1,N,1","+0084,1","+0039,1","10101,1",,,,"8,1,03,1","2,1,03,1",,"07,99,1,07,1,09,1,01250,1,99,9,99,9",,,"99999,9,10000,1","2,1,003,1,+999,9","80,1","SYN072AAXX  20091 01278 41685 73105 10084 20039 30000 40101 52003 78082 879//;",
"01278099999","2010-06-20T12:00:00","4","63.7833333","11.6833333","83.0","VERDAL REPPE, NO","FM-12","99999","V020","340,1,N,0070,1","01200,1,9,N","055000,1,N,1","+0083,1","+0038,1","10105,1",,,,"8,1,06,1","2,1,06,1",,"07,99,1,07,1,09,1,01250,1,99,9,99,9",,,"99999,9,10004,1","2,1,006,1,+999,9","80,1","SYN078AAXX  20121 01278 11685 73407 10083 20038 30004 40105 52006 6//// 78082 879//;",
"01278099999","2010-06-20T18:00:00","4","63.7833333","11.6833333","83.0","VERDAL REPPE, NO","FM-12","99999","V020","320,1,N,0070,1","01200,1,9,N","055000,1,N,1","+0076,1","+0038,1","10140,1","12,0020,9,1",,,"8,1,06,1","2,1,06,1",,"07,99,1,07,1,09,1,01250,1,99,9,99,9",,"999,M,+0105,1","99999,9,10038,1","2,1,014,1,+999,9","15,1","SYN088AAXX  20181 01278 11685 73207 10076 20038 30038 40140 52014 60022 71582 879// 333 10105;",
"01278099999","2010-06-21T06:00:00","4","63.7833333","11.6833333","83.0","VERDAL REPPE, NO","FM-12","99999","V020","280,1,N,0030,1","01200,1,9,N","055000,1,N,1","+0084,1","+0035,1","10167,1","12,0000,9,1","24,0020,9,1",,"8,1,06,1","2,1,06,1",,"07,99,1,07,1,09,1,01250,1,99,9,99,9",,"999,N,+0062,1","99999,9,10065,1","2,1,002,1,+999,9","02,1","SYN094AAXX  21061 01278 11685 72803 10084 20035 30065 40167 52002 69912 70282 879// 333 20062 70021;","Q01  00002PRCP12"
"01278099999","2010-06-21T09:00:00","4","63.7833333","11.6833333","83.0","VERDAL REPPE, NO","FM-12","99999","V020","310,1,N,0050,1","01200,1,9,N","055000,1,N,1","+0092,1","+0046,1","10173,1",,,,"8,1,03,1","2,1,03,1",,"08,99,1,08,1,09,1,01250,1,99,9,99,9",,,"99999,9,10072,1","2,1,007,1,+999,9","02,1","SYN072AAXX  21091 01278 41685 83105 10092 20046 30072 40173 52007 70282 889//;",
"01278099999","2010-06-21T12:00:00","4","63.7833333","11.6833333","83.0","VERDAL REPPE, NO","FM-12","99999","V020","270,1,N,0070,1","00750,1,9,N","030000,1,N,1","+0116,1","+0073,1","10178,1",,,,"8,1,06,1","2,1,06,1",,"07,99,1,06,1,09,1,00800,1,06,1,99,9",,,"99999,9,10078,1","2,1,006,1,+999,9","15,1","SYN078AAXX  21121 01278 11580 72707 10116 20073 30078 40178 52006 6//// 71582 8696/;",
"01278099999","2010-06-21T18:00:00","4","63.7833333","11.6833333","83.0","VERDAL REPPE, NO","FM-12","99999","V020","310,1,N,0050,1","00750,1,9,N","055000,1,N,1","+0107,1","+0065,1","10186,1","12,0000,9,1",,,"8,1,06,1","2,1,06,1",,"07,99,1,07,1,09,1,00800,1,99,9,99,9",,"999,M,+0125,1","99999,9,10085,1","2,1,002,1,+999,9","02,1","SYN088AAXX  21181 01278 11585 73105 10107 20065 30085 40186 52002 69912 70282 879// 333 10125;","Q01  00002PRCP12"
"01278099999","2010-06-22T06:00:00","4","63.7833333","11.6833333","83.0","VERDAL REPPE, NO","FM-12","99999","V020","999,9,C,0000,1","03000,1,9,N","010000,1,N,1","+0081,1","+0034,1","10184,1","12,0030,9,1","24,0033,9,1",,"8,1,06,1","6,1,06,1",,"08,99,1,03,1,07,1,00025,1,02,1,99,9",,"999,N,+0072,1","99999,9,10082,1","4,1,000,1,+999,9","61,1","SYN094AAXX  22061 01278 11060 80000 10081 20034 30082 40184 54000 60032 76186 8372/ 333 20072 70034;",
"01278099999","2010-06-22T09:00:00","4","63.7833333","11.6833333","83.0","VERDAL REPPE, NO","FM-12","99999","V020","999,9,C,0000,1","03000,1,9,N","006000,1,N,1","+0086,1","+0071,1","10188,1",,,,"6,1,03,1","5,1,03,1",,"08,99,1,04,1,06,1,00025,1,02,1,99,9",,,"99999,9,10087,1","2,1,005,1,+999,9","58,1","SYN072AAXX  22091 01278 41056 80000 10086 20071 30087 40188 52005 75865 8462/;",
"01278099999","2010-06-22T12:00:00","4","63.7833333","11.6833333","83.0","VERDAL REPPE, NO","FM-12","99999","V020","320,1,N,0030,1","00060,1,9,N","010000,1,N,1","+0099,1","+0088,1","10189,1",,,,"6,1,06,1","5,1,06,1",,"08,99,1,07,1,07,1,00075,1,02,1,99,9",,,"99999,9,10088,1","2,1,001,1,+999,9","50,1","SYN078AAXX  22121 01278 11160 83203 10099 20088 30088 40189 52001 6//// 75065 8772/;",
"01278099999","2010-06-22T18:00:00","4","63.7833333","11.6833333","83.0","VERDAL REPPE, NO","FM-12","99999","V020","300,1,N,0030,1","00420,1,9,N","055000,1,N,1","+0102,1","+0073,1","10197,1","12,0041,9,1",,,"6,1,06,1","5,1,06,1",,"08,99,1,08,1,09,1,00450,1,99,9,99,9",,"999,M,+0107,1","99999,9,10095,1","2,1,002,1,+999,9","02,1","SYN088AAXX  22181 01278 11485 83003 10102 20073 30095 40197 52002 60042 70265 889// 333 10107;",
"01278099999","2010-06-23T06:00:00","4","63.7833333","11.6833333","83.0","VERDAL REPPE, NO","FM-12","99999","V020","140,1,N,0010,1","00210,1,9,N","055000,1,N,1","+0092,1","+0076,1","10204,1","12,0010,9,1","24,0046,9,1",,"8,1,06,1","2,1,06,1",,"08,99,1,08,1,09,1,00250,1,99,9,99,9",,"999,N,+0082,1","99999,9,10102,1","2,1,002,1,+999,9","02,1","SYN094AAXX  23061 01278 11385 81401 10092 20076 30102 40204 52002 60012 70282 889// 333 20082 70046;",
"01278099999","2010-06-23T09:00:00","4","63.7833333","11.6833333","83.0","VERDAL REPPE, NO","FM-12","99999","V020","999,9,C,0000,1","01200,1,9,N","040000,1,N,1","+0113,1","+0068,1","10214,1",,,,"2,1,03,1","2,1,03,1",,"08,99,1,08,1,08,1,00800,1,99,9,99,9",,,"99999,9,10113,1","2,1,011,1,+999,9","02,1","SYN072AAXX  23091 01278 41582 80000 10113 20068 30113 40214 52011 70222 888//;",
"01278099999","2010-06-23T12:00:00","4","63.7833333","11.6833333","83.0","VERDAL REPPE, NO","FM-12","99999","V020","999,9,C,0000,1","01500,1,9,N","055000,1,N,1","+0124,1","+0049,1","10210,1",,,,"2,1,06,1","2,1,06,1",,"08,99,1,08,1,08,1,01250,1,99,9,99,9",,,"99999,9,10110,1","7,1,003,1,+999,9","02,1","SYN078AAXX  23121 01278 11685 80000 10124 20049 30110 40210 57003 6//// 70222 888//;",
"01278099999","2010-06-23T18:00:00","4","63.7833333","11.6833333","83.0","VERDAL REPPE, NO","FM-12","99999","V020","340,1,N,0050,1","99999,9,9,N","055000,1,N,1","+0144,1","+0052,1","10181,1","12,0000,9,1",,,"1,1,06,1","1,1,06,1",,"05,99,1,01,1,00,1,99999,9,08,1,08,1",,"999,M,+0156,1","99999,9,10082,1","7,1,012,1,+999,9","02,1","SYN088AAXX  23181 01278 11985 53405 10144 20052 30082 40181 57012 60002 70211 81088 333 10156;","Q01  00002PRCP12"
"01278099999","2010-06-24T06:00:00","4","63.7833333","11.6833333","83.0","VERDAL REPPE, NO","FM-12","99999","V020","280,1,N,0030,1","99999,9,9,N","055000,1,N,1","+0110,1","+0084,1","10144,1","12,0000,9,1","24,0000,9,1",,"1,1,06,1","1,1,06,1",,"07,99,1,01,1,00,1,99999,9,03,1,08,1",,"999,N,+0069,1","99999,9,10044,1","7,1,010,1,+999,9","02,1","SYN094AAXX  24061 01278 11985 72803 10110 20084 30044 40144 57010 60002 70211 81038 333 20069 70000;","Q01  00002PRCP24Q02  00002PRCP12"
"01278099999","2010-06-24T09:00:00","4","63.7833333","11.6833333","83.0","VERDAL REPPE, NO","FM-12","99999","V020","280,1,N,0030,1","03000,1,9,N","055000,1,N,1","+0154,1","+0100,1","10128,1",,,,"2,1,03,1","2,1,03,1",,"07,99,1,04,1,08,1,02250,1,07,1,01,1",,,"99999,9,10029,1","7,1,012,1,+999,9","03,1","SYN072AAXX  24091 01278 41885 72803 10154 20100 30029 40128 57012 70322 84871;",
"01278099999","2010-06-24T12:00:00","4","63.7833333","11.6833333","83.0","VERDAL REPPE, NO","FM-12","99999","V020","999,9,C,0000,1","03000,1,9,N","055000,1,N,1","+0202,1","+0122,1","10116,1",,,,"2,1,06,1","2,1,06,1",,"07,99,1,01,1,01,1,02250,1,07,1,02,1",,,"99999,9,10018,1","7,1,010,1,+999,9","02,1","SYN078AAXX  24121 01278 11885 70000 10202 20122 30018 40116 57010 6//// 70222 81172;",
"01278099999","2010-06-24T18:00:00","4","63.7833333","11.6833333","83.0","VERDAL REPPE, NO","FM-12","99999","V020","999,9,C,0000,1","03000,1,9,N","030000,1,N,1","+0152,1","+0137,1","10105,1","12,0061,9,1",,,"9,1,06,1","8,1,06,1",,"08,99,1,04,1,09,1,01750,1,02,1,99,9",,"999,M,+0202,1","99999,9,10006,1","0,1,000,1,+999,9","80,1","SYN088AAXX  24181 01278 11780 80000 10152 20137 30006 40105 50000 60062 78098 8492/ 333 10202;",
"01278099999","2010-06-25T06:00:00","4","63.7833333","11.6833333","83.0","VERDAL REPPE, NO","FM-12","99999","V020","300,1,N,0050,1","00120,1,9,N","030000,1,N,1","+0120,1","+0106,1","10076,1","12,0000,2,1","24,0061,9,1",,"8,1,06,1","2,1,06,1",,"08,99,1,08,1,09,1,00150,1,99,9,99,9",,"999,N,+0111,1","99999,9,09976,1","7,1,004,1,+999,9","80,1","SYN094AAXX  25061 01278 11280 83005 10120 20106 39976 40076 57004 69912 78082 889// 333 20111 70060;",
"01278099999","2010-06-25T09:00:00","4","63.7833333","11.6833333","83.0","VERDAL REPPE, NO","FM-12","99999","V020","280,1,N,0050,1","00210,1,9,N","055000,1,N,1","+0113,1","+0094,1","10076,1",,,,"8,1,03,1","2,1,03,1",,"08,99,1,08,1,09,1,00250,1,99,9,99,9",,,"99999,9,09976,1","4,1,000,1,+999,9","15,1","SYN072AAXX  25091 01278 41385 82805 10113 20094 39976 40076 54000 71582 889//;",
"01278099999","2010-06-25T12:00:00","4","63.7833333","11.6833333","83.0","VERDAL REPPE, NO","FM-12","99999","V020","999,9,C,0000,1","00420,1,9,N","006000,1,N,1","+0105,1","+0089,1","10079,1",,,,"8,1,06,1","2,1,06,1",,"08,99,1,08,1,09,1,00450,1,99,9,99,9",,,"99999,9,09979,1","2,1,003,1,+999,9","81,1","SYN078AAXX  25121 01278 11456 80000 10105 20089 39979 40079 52003 6//// 78182 889//;",
"01278099999","2010-06-25T18:00:00","4","63.7833333","11.6833333","83.0","VERDAL REPPE, NO","FM-12","99999","V020","280,1,N,0030,1","00420,1,9,N","030000,1,N,1","+0115,1","+0091,1","10076,1","12,0030,9,1",,,"8,1,06,1","2,1,06,1",,"08,99,1,08,1,09,1,00450,1,99,9,99,9",,"999,M,+0122,1","99999,9,09976,1","7,1,001,1,+999,9","80,1","SYN088AAXX  25181 01278 11480 82803 10115 20091 39976 40076 57001 60032 78082 889// 333 10122;",
"01278099999","2010-06-26T06:00:00","4","63.7833333","11.6833333","83.0","VERDAL REPPE, NO","FM-12","99999","V020","330,1,N,0050,1","00420,1,9,N","030000,1,N,1","+0090,1","+0078,1","10093,1","12,0079,9,1","24,0109,9,1",,"8,1,06,1","2,1,06,1",,"08,99,1,08,1,09,1,00450,1,99,9,99,9",,"999,N,+0090,1","99999,9,09992,1","2,1,020,1,+999,9","80,1","SYN094AAXX  26061 01278 11480 83305 10090 20078 39992 40093 52020 60082 78082 889// 333 20090 70110;",
"01278099999","2010-06-26T09:00:00","4","63.7833333","11.6833333","83.0","VERDAL REPPE, NO","FM-12","99999","V020","290,1,N,0070,1","00420,1,9,N","055000,1,N,1","+0087,1","+0072,1","10123,1",,,,"8,1,03,1","2,1,03,1",,"08,99,1,08,1,09,1,00450,1,99,9,99,9",,,"99999,9,10022,1","2,1,030,1,+999,9","80,1","SYN072AAXX  26091 01278 41485 82907 10087 20072 30022 40123 52030 78082 889//;",
"01278099999","2010-06-26T12:00:00","4","63.7833333","11.6833333","83.0","VERDAL REPPE, NO","FM-12","99999","V020","290,1,N,0070,1","01200,1,9,N","055000,1,N,1","+0098,1","+0072,1","10141,1",,,,"8,1,06,1","2,1,06,1",,"08,99,1,08,1,09,1,01250,1,99,9,99,9",,,"99999,9,10040,1","2,1,020,1,+999,9","80,1","SYN078AAXX  26121 01278 11685 82907 10098 20072 30040 40141 52020 6//// 78082 889//;",
"01278099999","2010-06-26T18:00:00","4","63.7833333","11.6833333","83.0","VERDAL REPPE, NO","FM-12","99999","V020","300,1,N,0070,1","01200,1,9,N","055000,1,N,1","+0089,1","+0031,1","10182,1","12,0010,9,1",,,"8,1,06,1","2,1,06,1",,"07,99,1,07,1,09,1,01250,1,99,9,99,9",,"999,M,+0116,1","99999,9,10080,1","2,1,025,1,+999,9","02,1","SYN088AAXX  26181 01278 11685 73007 10089 20031 30080 40182 52025 60012 70282 879// 333 10116;",
"01278099999","2010-06-27T06:00:00","4","63.7833333","11.6833333","83.0","VERDAL REPPE, NO","FM-12","99999","V020","270,1,N,0030,1","00750,1,9,N","055000,1,N,1","+0083,1","+0040,1","10203,1","12,0000,9,1","24,0015,9,1",,"2,1,06,1","2,1,06,1",,"07,99,1,07,1,09,1,00800,1,99,9,99,9",,"999,N,+0070,1","99999,9,10101,1","2,1,002,1,+999,9","02,1","SYN094AAXX  27061 01278 11585 72703 10083 20040 30101 40203 52002 60002 70222 879// 333 20070 70014;","Q01  00002PRCP12"
"01278099999","2010-06-27T09:00:00","4","63.7833333","11.6833333","83.0","VERDAL REPPE, NO","FM-12","99999","V020","280,1,N,0030,1","01200,1,9,N","055000,1,N,1","+0104,1","+0035,1","10206,1",,,,"2,1,03,1","2,1,03,1",,"07,99,1,07,1,09,1,01250,1,99,9,99,9",,,"99999,9,10105,1","2,1,004,1,+999,9","02,1","SYN072AAXX  27091 01278 41685 72803 10104 20035 30105 40206 52004 70222 879//;",
"01278099999","2010-06-27T12:00:00","4","63.7833333","11.6833333","83.0","VERDAL REPPE, NO","FM-12","99999","V020","290,1,N,0030,1","22000,1,9,N","055000,1,N,1","+0128,1","+0052,1","10206,1",,,,"1,1,06,1","1,1,06,1",,"03,99,1,03,1,01,1,01250,1,00,1,00,1",,,"99999,9,10105,1","2,1,002,1,+999,9","01,1","SYN078AAXX  27121 01278 11685 32903 10128 20052 30105 40206 52002 6//// 70111 83100;",
"01278099999","2010-06-27T18:00:00","4","63.7833333","11.6833333","83.0","VERDAL REPPE, NO","FM-12","99999","V020","310,1,N,0050,1","22000,1,9,N","055000,1,N,1","+0135,1","+0061,1","10204,1","12,0000,9,1",,,"0,1,06,1","0,1,06,1",,"02,99,1,01,1,08,1,01250,1,03,1,01,1",,"999,M,+0147,1","99999,9,10104,1","4,1,000,1,+999,9","02,1","SYN088AAXX  27181 01278 11685 23105 10135 20061 30104 40204 54000 60002 70200 81831 333 10147;","Q01  00002PRCP12"
"01278099999","2010-06-28T06:00:00","4","63.7833333","11.6833333","83.0","VERDAL REPPE, NO","FM-12","99999","V020","999,9,C,0000,1","07500,1,9,N","055000,1,N,1","+0084,1","+0055,1","10204,1","12,0000,9,1","24,0000,9,1",,"1,1,06,1","1,1,06,1",,"07,99,1,01,1,05,1,02250,1,00,1,08,1",,"999,N,+0039,1","99999,9,10102,1","7,1,013,1,+999,9","02,1","SYN094AAXX  28061 01278 11885 70000 10084 20055 30102 40204 57013 60002 70211 81508 333 20039 70000;","Q01  00002PRCP24Q02  00002PRCP12"
"01278099999","2010-06-28T09:00:00","4","63.7833333","11.6833333","83.0","VERDAL REPPE, NO","FM-12","99999","V020","330,1,N,0030,1","02100,1,9,N","055000,1,N,1","+0135,1","+0084,1","10192,1",,,,"2,1,03,1","2,1,03,1",,"07,99,1,06,1,05,1,02250,1,00,1,01,1",,,"99999,9,10092,1","7,1,010,1,+999,9","02,1","SYN072AAXX  28091 01278 41885 73303 10135 20084 30092 40192 57010 70222 86501;",
"01278099999","2010-06-28T12:00:00","4","63.7833333","11.6833333","83.0","VERDAL REPPE, NO","FM-12","99999","V020","280,1,N,0030,1","22000,1,9,N","055000,1,N,1","+0190,1","+0118,1","10169,1",,,,"1,1,06,1","1,1,06,1",,"03,99,1,01,1,02,1,01250,1,03,1,08,1",,,"99999,9,10071,1","7,1,021,1,+999,9","02,1","SYN078AAXX  28121 01278 11685 32803 10190 20118 30071 40169 57021 6//// 70211 81238;",
"01278099999","2010-06-28T18:00:00","4","63.7833333","11.6833333","83.0","VERDAL REPPE, NO","FM-12","99999","V020","280,1,N,0050,1","00120,1,9,N","010000,1,N,1","+0145,1","+0129,1","10159,1","12,0099,9,1",,,"9,1,06,1","8,1,06,1",,"08,99,1,07,1,09,1,00150,1,02,1,99,9",,"999,M,+0237,1","99999,9,10060,1","3,1,010,1,+999,9","95,1","SYN088AAXX  28181 01278 11260 82805 10145 20129 30060 40159 53010 60102 79598 8792/ 333 10237;",
"01278099999","2010-06-29T06:00:00","4","63.7833333","11.6833333","83.0","VERDAL REPPE, NO","FM-12","99999","V020","120,1,N,0010,1","01800,1,9,N","055000,1,N,1","+0132,1","+0121,1","10153,1","12,0010,9,1","24,0114,9,1",,"9,1,06,1","8,1,06,1",,"07,99,1,07,1,08,1,01750,1,99,9,99,9",,"999,N,+0085,1","99999,9,10053,1","5,1,000,1,+999,9","40,1","SYN094AAXX  29061 01278 11785 71201 10132 20121 30053 40153 55000 60012 74098 878// 333 20085 70114;",
"01278099999","2010-06-29T09:00:00","4","63.7833333","11.6833333","83.0","VERDAL REPPE, NO","FM-12","99999","V020","280,1,N,0010,1","03000,1,9,N","025000,1,N,1","+0167,1","+0134,1","10153,1",,,,"2,1,03,1","2,1,03,1",,"05,99,1,04,1,08,1,00450,1,06,1,02,1",,,"99999,9,10054,1","2,1,001,1,+999,9","02,1","SYN072AAXX  29091 01278 41475 52801 10167 20134 30054 40153 52001 70222 84862;",
"01278099999","2010-06-29T12:00:00","4","63.7833333","11.6833333","83.0","VERDAL REPPE, NO","FM-12","99999","V020","280,1,N,0010,1","22000,1,9,N","040000,1,N,1","+0188,1","+0141,1","10143,1",,,,"2,1,06,1","2,1,06,1",,"04,99,1,03,1,08,1,01250,1,06,1,01,1",,,"99999,9,10045,1","7,1,009,1,+999,9","02,1","SYN078AAXX  29121 01278 11682 42801 10188 20141 30045 40143 57009 6//// 70222 83861;",
"01278099999","2010-06-29T18:00:00","4","63.7833333","11.6833333","83.0","VERDAL REPPE, NO","FM-12","99999","V020","999,9,C,0000,1","03000,1,9,N","055000,1,N,1","+0187,1","+0115,1","10130,1","12,9999,9,9",,,"8,1,06,1","2,1,06,1",,"07,99,1,04,1,09,1,01750,1,07,1,02,1",,"999,M,+0206,1","99999,9,10033,1","7,1,010,1,+999,9","80,1","SYN088AAXX  29181 01278 11785 70000 10187 20115 30033 40130 57010 69902 78082 84972 333 10206;","Q01  00002PRCP12Q02  00002PRCP12"
"01278099999","2010-06-30T06:00:00","4","63.7833333","11.6833333","83.0","VERDAL REPPE, NO","FM-12","99999","V020","290,1,N,0030,1","03000,1,9,N","055000,1,N,1","+0140,1","+0119,1","10105,1","12,0000,2,1","24,0000,2,1",,"2,1,06,1","2,1,06,1",,"08,99,1,01,1,09,1,01750,1,02,1,99,9",,"999,N,+0130,1","99999,9,10006,1","4,1,000,1,+999,9","02,1","SYN094AAXX  30061 01278 11785 82903 10140 20119 30006 40105 54000 60002 70222 8192/ 333 20130 79999;",
"01278099999","2010-06-30T09:00:00","4","63.7833333","11.6833333","83.0","VERDAL REPPE, NO","FM-12","99999","V020","310,1,N,0030,1","00420,1,9,N","015000,1,N,1","+0146,1","+0121,1","10100,1",,,,"8,1,03,1","2,1,03,1",,"08,99,1,07,1,09,1,00450,1,02,1,99,9",,,"99999,9,10001,1","7,1,005,1,+999,9","80,1","SYN072AAXX  30091 01278 41465 83103 10146 20121 30001 40100 57005 78082 8792/;",
"01278099999","2010-06-30T12:00:00","4","63.7833333","11.6833333","83.0","VERDAL REPPE, NO","FM-12","99999","V020","310,1,N,0030,1","00030,1,9,N","010000,1,N,1","+0140,1","+0127,1","10100,1",,,,"8,1,06,1","6,1,06,1",,"08,99,1,07,1,07,1,00025,1,02,1,99,9",,,"99999,9,10001,1","7,1,001,1,+999,9","63,1","SYN078AAXX  30121 01278 11060 83103 10140 20127 30001 40100 57001 6//// 76386 8772/;",
"01278099999","2010-06-30T18:00:00","4","63.7833333","11.6833333","83.0","VERDAL REPPE, NO","FM-12","99999","V020","300,1,N,0070,1","00420,1,9,N","030000,1,N,1","+0116,1","+0102,1","10118,1","12,0180,9,1",,,"8,1,06,1","6,1,06,1",,"08,99,1,06,1,09,1,00450,1,02,1,99,9",,"999,M,+0150,1","99999,9,10017,1","2,1,014,1,+999,9","80,1","SYN088AAXX  30181 01278 11480 83007 10116 20102 30017 40118 52014 60182 78086 8692/ 333 10150;",
"01278099999","2010-07-01T06:00:00","4","63.7833333","11.6833333","83.0","VERDAL REPPE, NO","FM-12","99999","V020","290,1,N,0050,1","00420,1,9,N","055000,1,N,1","+0110,1","+0091,1","10153,1","12,0000,2,1","24,0175,9,1",,"8,1,06,1","2,1,06,1",,"08,99,1,08,1,09,1,00450,1,99,9,99,9",,"999,N,+0110,1","99999,9,10052,1","2,1,006,1,+999,9","02,1","SYN094AAXX  01061 01278 11485 82905 10110 20091 30052 40153 52006 69912 70282 889// 333 20110 70176;",
"01278099999","2010-07-01T09:00:00","4","63.7833333","11.6833333","83.0","VERDAL REPPE, NO","FM-12","99999","V020","280,1,N,0050,1","00420,1,9,N","055000,1,N,1","+0117,1","+0091,1","10155,1",,,,"8,1,03,1","5,1,03,1",,"08,99,1,08,1,09,1,00450,1,99,9,99,9",,,"99999,9,10054,1","2,1,001,1,+999,9","02,1","SYN072AAXX  01091 01278 41485 82805 10117 20091 30054 40155 52001 70285 889//;",
"01278099999","2010-07-01T12:00:00","4","63.7833333","11.6833333","83.0","VERDAL REPPE, NO","FM-12","99999","V020","290,1,N,0050,1","00420,1,9,N","055000,1,N,1","+0127,1","+0097,1","10164,1",,,,"2,1,06,1","2,1,06,1",,"07,99,1,07,1,09,1,00450,1,99,9,99,9",,,"99999,9,10063,1","2,1,010,1,+999,9","02,1","SYN078AAXX  01121 01278 11485 72905 10127 20097 30063 40164 52010 6//// 70222 879//;",
"01278099999","2010-07-01T18:00:00","4","63.7833333","11.6833333","83.0","VERDAL REPPE, NO","FM-12","99999","V020","280,1,N,0010,1","01500,1,9,N","055000,1,N,1","+0153,1","+0099,1","10163,1","12,0000,9,1",,,"2,1,06,1","2,1,06,1",,"07,99,1,07,1,08,1,01250,1,99,9,99,9",,"999,M,+0155,1","99999,9,10063,1","7,1,003,1,+999,9","01,1","SYN088AAXX  01181 01278 11685 72801 10153 20099 30063 40163 57003 69902 70122 878// 333 10155;","Q01  00002PRCP12"
"01278099999","2010-07-02T06:00:00","4","63.7833333","11.6833333","83.0","VERDAL REPPE, NO","FM-12","99999","V020","120,1,N,0010,1","22000,1,9,N","055000,1,N,1","+0111,1","+0085,1","10154,1","12,0000,9,1","24,0000,9,1",,"1,1,06,1","1,1,06,1",,"01,99,1,00,1,00,1,99999,9,00,1,01,1",,"999,N,+0064,1","99999,9,10053,1","7,1,008,1,+999,9","02,1","SYN094AAXX  02061 01278 11985 11201 10111 20085 30053 40154 57008 60002 70211 80001 333 20064 79999;","Q01  00002PRCP24Q02  00002PRCP12"
"01278099999","2010-07-02T09:00:00","4","63.7833333","11.6833333","83.0","VERDAL REPPE, NO","FM-12","99999","V020","270,1,N,0010,1","22000,1,9,N","055000,1,N,1","+0154,1","+0110,1","10150,1",,,,"0,1,03,1","0,1,03,1",,"01,99,1,00,1,00,1,99999,9,00,1,02,1",,,"99999,9,10051,1","7,1,002,1,+999,9","02,1","SYN072AAXX  02091 01278 41985 12701 10154 20110 30051 40150 57002 70200 80002;",
"01278099999","2010-07-02T12:00:00","4","63.7833333","11.6833333","83.0","VERDAL REPPE, NO","FM-12","99999","V020","220,1,N,0010,1","22000,1,9,N","055000,1,N,1","+0235,1","+0137,1","10101,1",,,,"0,1,06,1","0,1,06,1",,"03,99,1,00,1,00,1,99999,9,00,1,05,1",,,"99999,9,10005,1","7,1,018,1,+999,9","02,1","SYN078AAXX  02121 01278 11985 32201 10235 20137 30005 40101 57018 6//// 70200 80005;",
"01278099999","2010-07-02T18:00:00","4","63.7833333","11.6833333","83.0","VERDAL REPPE, NO","FM-12","99999","V020","150,1,N,0070,1","99999,9,9,N","055000,1,N,1","+0264,1","+0088,1","10093,1","12,0000,9,1",,,"1,1,06,1","1,1,06,1",,"07,99,1,06,1,00,1,99999,9,01,1,01,1",,"999,M,+0267,1","99999,9,09998,1","6,1,011,1,+999,9","03,1","SYN088AAXX  02181 01278 11985 71507 10264 20088 39998 40093 56011 60002 70311 86011 333 10267;","Q01  00002PRCP12"
"01278099999","2010-07-03T06:00:00","4","63.7833333","11.6833333","83.0","VERDAL REPPE, NO","FM-12","99999","V020","999,9,C,0000,1","02100,1,9,N","055000,1,N,1","+0170,1","+0135,1","10117,1","12,9999,9,9","24,9999,9,9",,"6,1,06,1","2,1,06,1",,"08,99,1,08,1,00,1,02250,1,07,1,99,9",,"999,N,+0164,1","99999,9,10018,1","2,1,004,1,+999,9","60,1","SYN094AAXX  03061 01278 11885 80000 10170 20135 30018 40117 52004 69902 76062 8807/ 333 20164 79999;","Q01  00002PRCP24Q02  00002PRCP12Q03  00002PRCP12Q04  00002PRCP24"
"01278099999","2010-07-03T09:00:00","4","63.7833333","11.6833333","83.0","VERDAL REPPE, NO","FM-12","99999","V020","999,9,C,0000,1","01500,1,9,N","055000,1,N,1","+0167,1","+0143,1","10123,1",,,,"8,1,03,1","6,1,03,1",,"07,99,1,05,1,09,1,01750,1,07,1,99,9",,,"99999,9,10024,1","2,1,005,1,+999,9","80,1","SYN072AAXX  03091 01278 41785 70000 10167 20143 30024 40123 52005 78086 8597/;",
"01278099999","2010-07-03T12:00:00","4","63.7833333","11.6833333","83.0","VERDAL REPPE, NO","FM-12","99999","V020","320,1,N,0050,1","22000,1,9,N","040000,1,N,1","+0235,1","+0145,1","10125,1",,,,"8,1,06,1","1,1,06,1",,"02,99,1,01,1,09,1,01250,1,06,1,01,1",,,"99999,9,10028,1","2,1,004,1,+999,9","03,1","SYN078AAXX  03121 01278 11682 23205 10235 20145 30028 40125 52004 6//// 70381 81961;",
"01278099999","2010-07-03T18:00:00","4","63.7833333","11.6833333","83.0","VERDAL REPPE, NO","FM-12","99999","V020","300,1,N,0050,1","01500,1,9,N","055000,1,N,1","+0208,1","+0120,1","10124,1","12,0000,2,1",,,"2,1,06,1","2,1,06,1",,"07,99,1,05,1,09,1,01750,1,07,1,99,9",,"999,M,+0251,1","99999,9,10027,1","2,1,006,1,+999,9","02,1","SYN088AAXX  03181 01278 11785 73005 10208 20120 30027 40124 52006 69902 70222 8597/ 333 10251;",
"01278099999","2010-07-04T06:00:00","4","63.7833333","11.6833333","83.0","VERDAL REPPE, NO","FM-12","99999","V020","280,1,N,0050,1","03000,1,9,N","055000,1,N,1","+0152,1","+0106,1","10148,1","12,0000,9,1","24,0000,2,1",,"2,1,06,1","2,1,06,1",,"08,99,1,04,1,08,1,00800,1,07,1,99,9",,"999,N,+0145,1","99999,9,10049,1","2,1,014,1,+999,9","02,1","SYN094AAXX  04061 01278 11585 82805 10152 20106 30049 40148 52014 60002 70222 8487/ 333 20145 79999;","Q01  00002PRCP12"
"01278099999","2010-07-04T09:00:00","4","63.7833333","11.6833333","83.0","VERDAL REPPE, NO","FM-12","99999","V020","010,1,N,0010,1","03000,1,9,N","055000,1,N,1","+0162,1","+0107,1","10154,1",,,,"2,1,03,1","2,1,03,1",,"08,99,1,04,1,08,1,01250,1,07,1,99,9",,,"99999,9,10055,1","2,1,006,1,+999,9","02,1","SYN072AAXX  04091 01278 41685 80101 10162 20107 30055 40154 52006 70222 8487/;",
"01278099999","2010-07-04T12:00:00","4","63.7833333","11.6833333","83.0","VERDAL REPPE, NO","FM-12","99999","V020","310,1,N,0050,1","01800,1,9,N","055000,1,N,1","+0180,1","+0116,1","10151,1",,,,"2,1,06,1","2,1,06,1",,"08,99,1,07,1,08,1,01750,1,07,1,99,9",,,"99999,9,10052,1","7,1,002,1,+999,9","02,1","SYN078AAXX  04121 01278 11785 83105 10180 20116 30052 40151 57002 6//// 70222 8787/;",
"01278099999","2010-07-04T18:00:00","4","63.7833333","11.6833333","83.0","VERDAL REPPE, NO","FM-12","99999","V020","360,1,N,0050,1","03000,1,9,N","055000,1,N,1","+0195,1","+0120,1","10096,1","12,0000,9,1",,,"2,1,06,1","2,1,06,1",,"07,99,1,01,1,08,1,01750,1,02,1,99,9",,"999,M,+0207,1","99999,9,09998,1","7,1,030,1,+999,9","02,1","SYN088AAXX  04181 01278 11785 73605 10195 20120 39998 40096 57030 60002 70222 8182/ 333 10207;","Q01  00002PRCP12"
"01278099999","2010-07-05T06:00:00","4","63.7833333","11.6833333","83.0","VERDAL REPPE, NO","FM-12","99999","V020","150,1,N,0070,1","22000,1,9,N","055000,1,N,1","+0181,1","+0081,1","10025,1","12,0000,9,1","24,0000,9,1",,"2,1,06,1","2,1,06,1",,"04,99,1,04,1,08,1,01750,1,04,1,00,1",,"999,N,+0159,1","99999,9,09928,1","7,1,016,1,+999,9","01,1","SYN094AAXX  05061 01278 11785 41507 10181 20081 39928 40025 57016 60002 70122 84840 333 20159 70000;","Q01  00002PRCP24Q02  00002PRCP12"
"01278099999","2010-07-05T09:00:00","4","63.7833333","11.6833333","83.0","VERDAL REPPE, NO","FM-12","99999","V020","200,1,N,0070,1","22000,1,9,N","055000,1,N,1","+0222,1","+0087,1","10030,1",,,,"1,1,03,1","1,1,03,1",,"03,99,1,03,1,08,1,01750,1,04,1,00,1",,,"99999,9,09935,1","2,1,007,1,+999,9","02,1","SYN072AAXX  05091 01278 41785 32007 10222 20087 39935 40030 52007 70211 83840;",
"01278099999","2010-07-05T12:00:00","4","63.7833333","11.6833333","83.0","VERDAL REPPE, NO","FM-12","99999","V020","310,1,N,0050,1","01500,1,9,N","055000,1,N,1","+0184,1","+0119,1","10051,1",,,,"8,1,06,1","2,1,06,1",,"07,99,1,07,1,09,1,01750,1,99,9,99,9",,,"99999,9,09954,1","2,1,021,1,+999,9","80,1","SYN078AAXX  05121 01278 11785 73105 10184 20119 39954 40051 52021 6//// 78082 879//;",
"01278099999","2010-07-05T18:00:00","4","63.7833333","11.6833333","83.0","VERDAL REPPE, NO","FM-12","99999","V020","350,1,N,0070,1","00120,1,9,N","030000,1,N,1","+0133,1","+0115,1","10087,1","12,0030,9,1",,,"8,1,06,1","2,1,06,1",,"06,99,1,06,1,09,1,00150,1,99,9,99,9",,"999,M,+0235,1","99999,9,09988,1","2,1,033,1,+999,9","80,1","SYN088AAXX  05181 01278 11280 63507 10133 20115 39988 40087 52033 60032 78082 869// 333 10235;",
"01278099999","2010-07-06T06:00:00","4","63.7833333","11.6833333","83.0","VERDAL REPPE, NO","FM-12","99999","V020","120,1,N,0010,1","00750,1,9,N","055000,1,N,1","+0118,1","+0105,1","10132,1","12,0010,9,1","24,0048,9,1",,"8,1,06,1","2,1,06,1",,"07,99,1,05,1,09,1,00800,1,07,1,99,9",,"999,N,+0118,1","99999,9,10031,1","2,1,002,1,+999,9","02,1","SYN094AAXX  06061 01278 11585 71201 10118 20105 30031 40132 52002 60012 70282 8597/ 333 20118 70047;",
"01278099999","2010-07-06T09:00:00","4","63.7833333","11.6833333","83.0","VERDAL REPPE, NO","FM-12","99999","V020","100,1,N,0050,1","00750,1,9,N","055000,1,N,1","+0149,1","+0109,1","10136,1",,,,"2,1,03,1","2,1,03,1",,"07,99,1,06,1,09,1,00800,1,07,1,99,9",,,"99999,9,10037,1","2,1,006,1,+999,9","15,1","SYN072AAXX  06091 01278 41585 71005 10149 20109 30037 40136 52006 71522 8697/;",
"01278099999","2010-07-06T12:00:00","4","63.7833333","11.6833333","83.0","VERDAL REPPE, NO","FM-12","99999","V020","140,1,N,0010,1","01500,1,9,N","055000,1,N,1","+0140,1","+0104,1","10137,1",,,,"8,1,06,1","2,1,06,1",,"07,99,1,06,1,09,1,01750,1,06,1,99,9",,,"99999,9,10037,1","2,1,005,1,+999,9","80,1","SYN078AAXX  06121 01278 11785 71401 10140 20104 30037 40137 52005 6//// 78082 8696/;",
"01278099999","2010-07-06T18:00:00","4","63.7833333","11.6833333","83.0","VERDAL REPPE, NO","FM-12","99999","V020","310,1,N,0050,1","03000,1,9,N","055000,1,N,1","+0163,1","+0064,1","10148,1","12,0008,9,1",,,"8,1,06,1","2,1,06,1",,"05,99,1,04,1,09,1,01250,1,06,1,99,9",,"999,M,+0170,1","99999,9,10049,1","2,1,004,1,+999,9","02,1","SYN088AAXX  06181 01278 11685 53105 10163 20064 30049 40148 52004 69972 70282 8496/ 333 10170;",
"01278099999","2010-07-07T06:00:00","4","63.7833333","11.6833333","83.0","VERDAL REPPE, NO","FM-12","99999","V020","150,1,N,0030,1","22000,1,9,N","055000,1,N,1","+0105,1","+0081,1","10147,1","12,0000,9,1","24,0008,9,1",,"1,1,06,1","1,1,06,1","00,1,+99999,9,99,9","00,99,1,00,1,00,1,99999,9,00,1,00,1",,"999,N,+0071,1","99999,9,10046,1","7,1,010,1,+999,9","02,1","SYN088AAXX  07061 01278 11985 01503 10105 20081 30046 40147 57010 60002 70211 333 20071 70007;","Q01  00002PRCP12"
"01278099999","2010-07-07T09:00:00","4","63.7833333","11.6833333","83.0","VERDAL REPPE, NO","FM-12","99999","V020","120,1,N,0050,1","22000,1,9,N","055000,1,N,1","+0168,1","+0066,1","10134,1",,,,"0,1,03,1","0,1,03,1",,"03,99,1,03,1,02,1,01750,1,00,1,02,1",,,"99999,9,10036,1","7,1,010,1,+999,9","02,1","SYN072AAXX  07091 01278 41785 31205 10168 20066 30036 40134 57010 70200 83202;",
"01278099999","2010-07-07T12:00:00","4","63.7833333","11.6833333","83.0","VERDAL REPPE, NO","FM-12","99999","V020","140,1,N,0070,1","03000,1,9,N","055000,1,N,1","+0212,1","+0063,1","10108,1",,,,"1,1,06,1","1,1,06,1",,"07,99,1,02,1,08,1,01750,1,01,1,02,1",,,"99999,9,10011,1","7,1,023,1,+999,9","03,1","SYN078AAXX  07121 01278 11785 71407 10212 20063 30011 40108 57023 6//// 70311 82812;",
"01278099999","2010-07-07T18:00:00","4","63.7833333","11.6833333","83.0","VERDAL REPPE, NO","FM-12","99999","V020","999,9,C,0000,1","03000,1,9,N","075000,1,N,1","+0214,1","+0076,1","10093,1","12,0000,9,1",,,"2,1,06,1","2,1,06,1",,"07,99,1,02,1,08,1,01750,1,07,1,02,1",,"999,M,+0224,1","99999,9,09996,1","6,1,005,1,+999,9","02,1","SYN088AAXX  07181 01278 11789 70000 10214 20076 39996 40093 56005 60002 70222 82872 333 10224;","Q01  00002PRCP12"
"01278099999","2010-07-08T06:00:00","4","63.7833333","11.6833333","83.0","VERDAL REPPE, NO","FM-12","99999","V020","999,9,C,0000,1","03000,1,9,N","055000,1,N,1","+0148,1","+0104,1","10097,1","12,0000,9,1","24,0000,9,1",,"1,1,06,1","1,1,06,1",,"07,99,1,02,1,08,1,01750,1,07,1,01,1",,"999,N,+0115,1","99999,9,09999,1","7,1,002,1,+999,9","02,1","SYN094AAXX  08061 01278 11785 70000 10148 20104 39999 40097 57002 60002 70211 82871 333 20115 70000;","Q01  00002PRCP24Q02  00002PRCP12"
"01278099999","2010-07-08T09:00:00","4","63.7833333","11.6833333","83.0","VERDAL REPPE, NO","FM-12","99999","V020","999,9,C,0000,1","01800,1,9,N","055000,1,N,1","+0197,1","+0127,1","10095,1",,,,"2,1,03,1","2,1,03,1",,"07,99,1,05,1,08,1,01750,1,06,1,01,1",,,"99999,9,09998,1","4,1,000,1,+999,9","02,1","SYN072AAXX  08091 01278 41785 70000 10197 20127 39998 40095 54000 70222 85861;",
"01278099999","2010-07-08T12:00:00","4","63.7833333","11.6833333","83.0","VERDAL REPPE, NO","FM-12","99999","V020","999,9,C,0000,1","01500,1,9,N","055000,1,N,1","+0210,1","+0111,1","10093,1",,,,"8,1,06,1","2,1,06,1",,"07,99,1,07,1,09,1,01750,1,99,9,99,9",,,"99999,9,09996,1","4,1,000,1,+999,9","80,1","SYN078AAXX  08121 01278 11785 70000 10210 20111 39996 40093 54000 6//// 78082 879//;",
"01278099999","2010-07-08T18:00:00","4","63.7833333","11.6833333","83.0","VERDAL REPPE, NO","FM-12","99999","V020","020,1,N,0010,1","01200,1,9,N","055000,1,N,1","+0206,1","+0086,1","10102,1","12,0000,2,1",,,"9,1,06,1","8,1,06,1",,"07,99,1,07,1,09,1,01250,1,99,9,99,9",,"999,M,+0229,1","99999,9,10005,1","4,1,000,1,+999,9","15,1","SYN088AAXX  08181 01278 11685 70201 10206 20086 30005 40102 54000 69902 71598 879// 333 10229;",
"01278099999","2010-07-09T06:00:00","4","63.7833333","11.6833333","83.0","VERDAL REPPE, NO","FM-12","99999","V020","999,9,C,0000,1","00750,1,9,N","055000,1,N,1","+0135,1","+0117,1","10143,1","12,0020,9,2","24,0018,9,2",,"9,1,06,1","8,1,06,1",,"07,99,1,07,1,09,1,00800,1,99,9,99,9",,"999,N,+0111,1","99999,9,10044,1","2,1,010,1,+999,9","02,1","SYN094AAXX  09061 01278 11585 70000 10135 20117 30044 40143 52010 60022 70298 879// 333 20111 70019;",
"01278099999","2010-07-09T09:00:00","4","63.7833333","11.6833333","83.0","VERDAL REPPE, NO","FM-12","99999","V020","020,1,N,0010,1","22000,1,9,N","055000,1,N,1","+0166,1","+0095,1","10141,1",,,,"1,1,03,1","1,1,03,1",,"03,99,1,02,1,02,1,01250,1,03,1,02,1",,,"99999,9,10042,1","7,1,002,1,+999,9","01,1","SYN072AAXX  09091 01278 41685 30201 10166 20095 30042 40141 57002 70111 82232;",
"01278099999","2010-07-09T12:00:00","4","63.7833333","11.6833333","83.0","VERDAL REPPE, NO","FM-12","99999","V020","270,1,N,0030,1","22000,1,9,N","055000,1,N,1","+0197,1","+0061,1","10144,1",,,,"0,1,06,1","0,1,06,1",,"02,99,1,02,1,09,1,01250,1,00,1,00,1",,,"99999,9,10046,1","2,1,006,1,+999,9","02,1","SYN078AAXX  09121 01278 11685 22703 10197 20061 30046 40144 52006 6//// 70200 82900;",
"01278099999","2010-07-09T18:00:00","4","63.7833333","11.6833333","83.0","VERDAL REPPE, NO","FM-12","99999","V020","320,1,N,0050,1","22000,1,9,N","055000,1,N,1","+0200,1","+0053,1","10144,1","12,0000,9,1",,,"0,1,06,1","0,1,06,1",,"02,99,1,01,1,08,1,01750,1,03,1,02,1",,"999,M,+0207,1","99999,9,10046,1","4,1,000,1,+999,9","02,1","SYN088AAXX  09181 01278 11785 23205 10200 20053 30046 40144 54000 60002 70200 81832 333 10207;","Q01  00002PRCP12"
"01278099999","2010-07-10T06:00:00","4","63.7833333","11.6833333","83.0","VERDAL REPPE, NO","FM-12","99999","V020","999,9,C,0000,1","03000,1,9,N","055000,1,N,1","+0167,1","+0112,1","10082,1","12,0005,9,1","24,0005,9,1",,"8,1,06,1","1,1,06,1",,"06,99,1,02,1,08,1,01750,1,01,1,01,1",,"999,N,+0137,1","99999,9,09984,1","6,1,010,1,+999,9","02,1","SYN094AAXX  10061 01278 11785 60000 10167 20112 39984 40082 56010 69952 70281 82811 333 20137 70005;",
"01278099999","2010-07-10T09:00:00","4","63.7833333","11.6833333","83.0","VERDAL REPPE, NO","FM-12","99999","V020","300,1,N,0050,1","01500,1,9,N","055000,1,N,1","+0170,1","+0115,1","10105,1",,,,"8,1,03,1","2,1,03,1",,"07,99,1,07,1,09,1,01750,1,99,9,99,9",,,"99999,9,10006,1","2,1,023,1,+999,9","80,1","SYN072AAXX  10091 01278 41785 73005 10170 20115 30006 40105 52023 78082 879//;",
"01278099999","2010-07-10T12:00:00","4","63.7833333","11.6833333","83.0","VERDAL REPPE, NO","FM-12","99999","V020","260,1,N,0100,1","01200,1,9,N","055000,1,N,1","+0173,1","+0090,1","10152,1",,,,"8,1,06,1","2,1,06,1",,"07,99,1,06,1,09,1,01250,1,06,1,03,1",,,"99999,9,10054,1","2,1,048,1,+999,9","02,1","SYN078AAXX  10121 01278 11685 72610 10173 20090 30054 40152 52048 6//// 70282 86963;",
"01278099999","2010-07-10T18:00:00","4","63.7833333","11.6833333","83.0","VERDAL REPPE, NO","FM-12","99999","V020","300,1,N,0070,1","01200,1,9,N","055000,1,N,1","+0137,1","+0077,1","10196,1","12,0003,9,1",,,"2,1,06,1","2,1,06,1",,"07,99,1,07,1,09,1,01250,1,99,9,99,9",,"999,M,+0182,1","99999,9,10096,1","2,1,021,1,+999,9","15,1","SYN088AAXX  10181 01278 11685 73007 10137 20077 30096 40196 52021 69932 71522 879// 333 10182;",
"01278099999","2010-07-11T06:00:00","4","63.7833333","11.6833333","83.0","VERDAL REPPE, NO","FM-12","99999","V020","100,1,N,0030,1","99999,9,9,N","075000,1,N,1","+0126,1","+0089,1","10186,1","12,0000,9,1","24,0003,9,1",,"1,1,06,1","1,1,06,1",,"07,99,1,06,1,00,1,99999,9,03,1,01,1",,"999,N,+0069,1","99999,9,10086,1","7,1,013,1,+999,9","01,1","SYN094AAXX  11061 01278 11989 71003 10126 20089 30086 40186 57013 60002 70111 86031 333 20069 70003;","Q01  00002PRCP12"
"01278099999","2010-07-11T09:00:00","4","63.7833333","11.6833333","83.0","VERDAL REPPE, NO","FM-12","99999","V020","120,1,N,0050,1","07500,1,9,N","075000,1,N,1","+0200,1","+0101,1","10151,1",,,,"2,1,03,1","2,1,03,1",,"05,99,1,01,1,08,1,01750,1,04,1,08,1",,,"99999,9,10053,1","7,1,033,1,+999,9","02,1","SYN072AAXX  11091 01278 41789 51205 10200 20101 30053 40151 57033 70222 81848;",
"01278099999","2010-07-11T12:00:00","4","63.7833333","11.6833333","83.0","VERDAL REPPE, NO","FM-12","99999","V020","150,1,N,0100,1","03000,1,9,N","055000,1,N,1","+0238,1","+0131,1","10127,1",,,,"2,1,06,1","2,1,06,1",,"07,99,1,01,1,08,1,01750,1,02,1,02,1",,,"99999,9,10031,1","7,1,022,1,+999,9","02,1","SYN078AAXX  11121 01278 11785 71510 10238 20131 30031 40127 57022 6//// 70222 81822;",
"01278099999","2010-07-11T18:00:00","4","63.7833333","11.6833333","83.0","VERDAL REPPE, NO","FM-12","99999","V020","120,1,N,0070,1","03000,1,9,N","055000,1,N,1","+0219,1","+0138,1","10095,1","12,0000,9,1",,,"8,1,06,1","2,1,06,1",,"07,99,1,04,1,08,1,01750,1,07,1,99,9",,"999,M,+0254,1","99999,9,09998,1","7,1,020,1,+999,9","02,1","SYN088AAXX  11181 01278 11785 71207 10219 20138 39998 40095 57020 69902 70282 8487/ 333 10254;","Q01  00002PRCP12"
"01278099999","2010-07-12T06:00:00","4","63.7833333","11.6833333","83.0","VERDAL REPPE, NO","FM-12","99999","V020","220,1,N,0050,1","22000,1,9,N","055000,1,N,1","+0210,1","+0108,1","10067,1","12,0000,9,1","24,0000,9,1",,"1,1,06,1","1,1,06,1",,"01,99,1,01,1,01,1,01250,1,00,1,02,1",,"999,N,+0169,1","99999,9,09970,1","2,1,002,1,+999,9","02,1","SYN094AAXX  12061 01278 11685 12205 10210 20108 39970 40067 52002 60002 70211 81102 333 20169 79999;","Q01  00002PRCP24Q02  00002PRCP12"
"01278099999","2010-07-12T09:00:00","4","63.7833333","11.6833333","83.0","VERDAL REPPE, NO","FM-12","99999","V020","290,1,N,0010,1","22000,1,9,N","055000,1,N,1","+0210,1","+0129,1","10081,1",,,,"1,1,03,1","1,1,03,1",,"04,99,1,04,1,02,1,01750,1,00,1,01,1",,,"99999,9,09985,1","2,1,018,1,+999,9","02,1","SYN072AAXX  12091 01278 41785 42901 10210 20129 39985 40081 52018 70211 84201;",
"01278099999","2010-07-12T12:00:00","4","63.7833333","11.6833333","83.0","VERDAL REPPE, NO","FM-12","99999","V020","280,1,N,0070,1","01800,1,9,N","055000,1,N,1","+0222,1","+0116,1","10103,1",,,,"2,1,06,1","2,1,06,1",,"07,99,1,06,1,08,1,01750,1,06,1,01,1",,,"99999,9,10007,1","2,1,022,1,+999,9","02,1","SYN078AAXX  12121 01278 11785 72807 10222 20116 30007 40103 52022 6//// 70222 86861;",
"01278099999","2010-07-12T18:00:00","4","63.7833333","11.6833333","83.0","VERDAL REPPE, NO","FM-12","99999","V020","320,1,N,0050,1","01800,1,9,N","055000,1,N,1","+0136,1","+0078,1","99999,9","12,0000,9,1",,,"2,1,06,1","2,1,06,1",,"08,99,1,08,1,08,1,01750,1,99,9,99,9",,"999,M,+0225,1","99999,9,10083,1","1,1,030,1,+999,9","02,1","SYN088AAXX  12181 01278 11785 83205 10136 20078 30083 40183 51030 60002 70222 888// 333 10225;","Q01+101833APOSLPQ02  00002PRCP12"
"01278099999","2010-07-13T06:00:00","4","63.7833333","11.6833333","83.0","VERDAL REPPE, NO","FM-12","99999","V020","120,1,N,0050,1","00750,1,9,N","055000,1,N,1","+0111,1","+0085,1","10120,1","12,0061,9,1","24,0064,9,1",,"8,1,06,1","2,1,06,1",,"08,99,1,07,1,09,1,00800,1,02,1,99,9",,"999,N,+0099,1","99999,9,10020,1","7,1,031,1,+999,9","15,1","SYN094AAXX  13061 01278 11585 81205 10111 20085 30020 40120 57031 60062 71582 8792/ 333 20099 70064;",
"01278099999","2010-07-13T09:00:00","4","63.7833333","11.6833333","83.0","VERDAL REPPE, NO","FM-12","99999","V020","120,1,N,0050,1","00420,1,9,N","010000,1,N,1","+0106,1","+0087,1","10096,1",,,,"8,1,03,1","2,1,03,1",,"08,99,1,07,1,09,1,00450,1,02,1,99,9",,,"99999,9,09996,1","7,1,025,1,+999,9","80,1","SYN072AAXX  13091 01278 41460 81205 10106 20087 39996 40096 57025 78082 8792/;",
"01278099999","2010-07-13T12:00:00","4","63.7833333","11.6833333","83.0","VERDAL REPPE, NO","FM-12","99999","V020","120,1,N,0050,1","03000,1,9,N","055000,1,N,1","+0148,1","+0116,1","10070,1",,,,"8,1,06,1","2,1,06,1",,"08,99,1,03,1,08,1,00450,1,07,1,99,9",,,"99999,9,09972,1","7,1,025,1,+999,9","02,1","SYN078AAXX  13121 01278 11485 81205 10148 20116 39972 40070 57025 6//// 70282 8387/;",
"01278099999","2010-07-13T18:00:00","4","63.7833333","11.6833333","83.0","VERDAL REPPE, NO","FM-12","99999","V020","300,1,N,0030,1","00060,1,9,N","004000,1,N,1","+0126,1","+0113,1","10071,1","12,0061,9,1",,,"8,1,06,1","2,1,06,1",,"08,99,1,08,1,09,1,00075,1,99,9,99,9",,"999,M,+0162,1","99999,9,09971,1","2,1,010,1,+999,9","81,1","SYN088AAXX  13181 01278 11140 83003 10126 20113 39971 40071 52010 60062 78182 889// 333 10162;",
"01278099999","2010-07-14T06:00:00","4","63.7833333","11.6833333","83.0","VERDAL REPPE, NO","FM-12","99999","V020","999,9,C,0000,1","00060,1,9,N","030000,1,N,1","+0110,1","+0102,1","10095,1","12,0211,9,1","24,0269,9,1",,"8,1,06,1","6,1,06,1",,"08,99,1,08,1,09,1,00075,1,99,9,99,9",,"999,N,+0106,1","99999,9,09995,1","2,1,010,1,+999,9","80,1","SYN094AAXX  14061 01278 11180 80000 10110 20102 39995 40095 52010 60212 78086 889// 333 20106 70270;",
"01278099999","2010-07-14T09:00:00","4","63.7833333","11.6833333","83.0","VERDAL REPPE, NO","FM-12","99999","V020","320,1,N,0030,1","00120,1,9,N","055000,1,N,1","+0114,1","+0101,1","10111,1",,,,"8,1,03,1","2,1,03,1",,"08,99,1,08,1,09,1,00150,1,99,9,99,9",,,"99999,9,10011,1","2,1,016,1,+999,9","81,1","SYN072AAXX  14091 01278 41285 83203 10114 20101 30011 40111 52016 78182 889//;",
"01278099999","2010-07-14T12:00:00","4","63.7833333","11.6833333","83.0","VERDAL REPPE, NO","FM-12","99999","V020","320,1,N,0030,1","00420,1,9,N","055000,1,N,1","+0122,1","+0099,1","10129,1",,,,"8,1,06,1","2,1,06,1",,"08,99,1,08,1,09,1,00450,1,99,9,99,9",,,"99999,9,10029,1","2,1,018,1,+999,9","15,1","SYN078AAXX  14121 01278 11485 83203 10122 20099 30029 40129 52018 6//// 71582 889//;",
"01278099999","2010-07-14T18:00:00","4","63.7833333","11.6833333","83.0","VERDAL REPPE, NO","FM-12","99999","V020","310,1,N,0050,1","00420,1,9,N","055000,1,N,1","+0123,1","+0080,1","10153,1","12,0041,9,1",,,"2,1,06,1","2,1,06,1",,"07,99,1,07,1,09,1,00450,1,99,9,99,9",,"999,M,+0135,1","99999,9,10053,1","2,1,010,1,+999,9","15,1","SYN088AAXX  14181 01278 11485 73105 10123 20080 30053 40153 52010 60042 71522 879// 333 10135;",
"01278099999","2010-07-15T06:00:00","4","63.7833333","11.6833333","83.0","VERDAL REPPE, NO","FM-12","99999","V020","130,1,N,0070,1","22000,1,9,N","055000,1,N,1","+0124,1","+0071,1","10134,1","12,0000,9,1","24,0038,9,1",,"1,1,06,1","1,1,06,1",,"01,99,1,01,1,01,1,00450,1,00,1,00,1",,"999,N,+0067,1","99999,9,10034,1","7,1,021,1,+999,9","02,1","SYN094AAXX  15061 01278 11485 11307 10124 20071 30034 40134 57021 60002 70211 81100 333 20067 70039;","Q01  00002PRCP12"
"01278099999","2010-07-15T09:00:00","4","63.7833333","11.6833333","83.0","VERDAL REPPE, NO","FM-12","99999","V020","130,1,N,0070,1","01800,1,9,N","055000,1,N,1","+0156,1","+0093,1","10116,1",,,,"1,1,03,1","1,1,03,1",,"07,99,1,06,1,08,1,01750,1,07,1,02,1",,,"99999,9,10017,1","7,1,017,1,+999,9","03,1","SYN072AAXX  15091 01278 41785 71307 10156 20093 30017 40116 57017 70311 86872;",
"01278099999","2010-07-15T12:00:00","4","63.7833333","11.6833333","83.0","VERDAL REPPE, NO","FM-12","99999","V020","130,1,N,0070,1","03000,1,9,N","055000,1,N,1","+0193,1","+0108,1","10097,1",,,,"2,1,06,1","2,1,06,1",,"07,99,1,01,1,01,1,01250,1,07,1,08,1",,,"99999,9,10000,1","7,1,017,1,+999,9","02,1","SYN078AAXX  15121 01278 11685 71307 10193 20108 30000 40097 57017 6//// 70222 81178;",
"01278099999","2010-07-15T18:00:00","4","63.7833333","11.6833333","83.0","VERDAL REPPE, NO","FM-12","99999","V020","150,1,N,0070,1","03000,1,9,N","055000,1,N,1","+0207,1","+0122,1","10070,1","12,9999,9,9",,,"8,1,06,1","2,1,06,1",,"08,99,1,04,1,09,1,01750,1,07,1,99,9",,"999,M,+0215,1","99999,9,09974,1","7,1,020,1,+999,9","80,1","SYN088AAXX  15181 01278 11785 81507 10207 20122 39974 40070 57020 69902 78082 8497/ 333 10215;","Q01  00002PRCP12Q02  00002PRCP12"
"01278099999","2010-07-16T06:00:00","4","63.7833333","11.6833333","83.0","VERDAL REPPE, NO","FM-12","99999","V020","140,1,N,0050,1","22000,1,9,N","055000,1,N,1","+0195,1","+0110,1","10089,1","12,0000,2,1","24,0000,2,1",,"8,1,06,1","1,1,06,1",,"01,99,1,01,1,01,1,01750,1,00,1,00,1",,"999,N,+0174,1","99999,9,09992,1","2,1,015,1,+999,9","02,1","SYN094AAXX  16061 01278 11785 11405 10195 20110 39992 40089 52015 69912 70281 81100 333 20174 70001;",
"01278099999","2010-07-16T09:00:00","4","63.7833333","11.6833333","83.0","VERDAL REPPE, NO","FM-12","99999","V020","270,1,N,0050,1","22000,1,9,N","075000,1,N,1","+0220,1","+0105,1","10109,1",,,,"0,1,03,1","0,1,03,1",,"01,99,1,01,1,02,1,01250,1,00,1,01,1",,,"99999,9,10012,1","2,1,020,1,+999,9","02,1","SYN072AAXX  16091 01278 41689 12705 10220 20105 30012 40109 52020 70200 81201;",
"01278099999","2010-07-16T12:00:00","4","63.7833333","11.6833333","83.0","VERDAL REPPE, NO","FM-12","99999","V020","310,1,N,0030,1","22000,1,9,N","055000,1,N,1","+0225,1","+0125,1","10115,1",,,,"0,1,06,1","0,1,06,1",,"04,99,1,04,1,02,1,01750,1,00,1,01,1",,,"99999,9,10018,1","2,1,007,1,+999,9","02,1","SYN078AAXX  16121 01278 11785 43103 10225 20125 30018 40115 52007 6//// 70200 84201;",
"01278099999","2010-07-16T18:00:00","4","63.7833333","11.6833333","83.0","VERDAL REPPE, NO","FM-12","99999","V020","150,1,N,0070,1","22000,1,9,N","055000,1,N,1","+0244,1","+0096,1","10107,1","12,0000,9,1",,,"1,1,06,1","1,1,06,1",,"04,99,1,01,1,01,1,01250,1,00,1,08,1",,"999,M,+0259,1","99999,9,10012,1","3,1,001,1,+999,9","02,1","SYN088AAXX  16181 01278 11685 41507 10244 20096 30012 40107 53001 60002 70211 81108 333 10259;","Q01  00002PRCP12"
"01278099999","2010-07-17T06:00:00","4","63.7833333","11.6833333","83.0","VERDAL REPPE, NO","FM-12","99999","V020","150,1,N,0070,1","22000,1,9,N","055000,1,N,1","+0206,1","+0098,1","10117,1","12,0000,9,1","24,0000,9,1",,"0,1,06,1","0,1,06,1",,"03,99,1,01,1,08,1,01750,1,04,1,02,1",,"999,N,+0190,1","99999,9,10020,1","2,1,001,1,+999,9","02,1","SYN094AAXX  17061 01278 11785 31507 10206 20098 30020 40117 52001 60002 70200 81842 333 20190 70000;","Q01  00002PRCP24Q02  00002PRCP12"
"01278099999","2010-07-17T09:00:00","4","63.7833333","11.6833333","83.0","VERDAL REPPE, NO","FM-12","99999","V020","270,1,N,0030,1","22000,1,9,N","055000,1,N,1","+0223,1","+0091,1","10126,1",,,,"0,1,03,1","0,1,03,1",,"03,99,1,01,1,01,1,01750,1,00,1,02,1",,,"99999,9,10029,1","2,1,010,1,+999,9","02,1","SYN072AAXX  17091 01278 41785 32703 10223 20091 30029 40126 52010 70200 81102;",
"01278099999","2010-07-17T12:00:00","4","63.7833333","11.6833333","83.0","VERDAL REPPE, NO","FM-12","99999","V020","350,1,N,0030,1","22000,1,9,N","055000,1,N,1","+0234,1","+0079,1","10132,1",,,,"0,1,06,1","0,1,06,1",,"02,99,1,01,1,01,1,01750,1,00,1,02,1",,,"99999,9,10036,1","2,1,010,1,+999,9","02,1","SYN078AAXX  17121 01278 11785 23503 10234 20079 30036 40132 52010 6//// 70200 81102;",
"01278099999","2010-07-17T18:00:00","4","63.7833333","11.6833333","83.0","VERDAL REPPE, NO","FM-12","99999","V020","150,1,N,0050,1","22000,1,9,N","055000,1,N,1","+0260,1","+0056,1","10111,1","12,0000,9,1",,,"1,1,06,1","1,1,06,1",,"07,99,1,01,1,08,1,01750,1,00,1,01,1",,"999,M,+0265,1","99999,9,10016,1","7,1,017,1,+999,9","03,1","SYN088AAXX  17181 01278 11785 71505 10260 20056 30016 40111 57017 60002 70311 81801 333 10265;","Q01  00002PRCP12"
"01278099999","2010-07-18T06:00:00","4","63.7833333","11.6833333","83.0","VERDAL REPPE, NO","FM-12","99999","V020","280,1,N,0030,1","03000,1,9,N","055000,1,N,1","+0148,1","+0110,1","10097,1","12,0000,9,1","24,0000,9,1",,"1,1,06,1","1,1,06,1",,"08,99,1,04,1,08,1,00800,1,07,1,99,9",,"999,N,+0148,1","99999,9,09998,1","2,1,007,1,+999,9","02,1","SYN094AAXX  18061 01278 11585 82803 10148 20110 39998 40097 52007 60002 70211 8487/ 333 20148 70000;","Q01  00002PRCP24Q02  00002PRCP12"
"01278099999","2010-07-18T09:00:00","4","63.7833333","11.6833333","83.0","VERDAL REPPE, NO","FM-12","99999","V020","290,1,N,0050,1","00750,1,9,N","010000,1,N,1","+0125,1","+0099,1","10129,1",,,,"8,1,03,1","2,1,03,1",,"08,99,1,07,1,09,1,00800,1,02,1,99,9",,,"99999,9,10029,1","2,1,030,1,+999,9","81,1","SYN072AAXX  18091 01278 41560 82905 10125 20099 30029 40129 52030 78182 8792/;",
"01278099999","2010-07-18T12:00:00","4","63.7833333","11.6833333","83.0","VERDAL REPPE, NO","FM-12","99999","V020","290,1,N,0030,1","00750,1,9,N","055000,1,N,1","+0140,1","+0108,1","10144,1",,,,"8,1,06,1","2,1,06,1",,"08,99,1,08,1,09,1,00800,1,99,9,99,9",,,"99999,9,10044,1","2,1,014,1,+999,9","02,1","SYN078AAXX  18121 01278 11585 82903 10140 20108 30044 40144 52014 6//// 70282 889//;",
"01278099999","2010-07-18T18:00:00","4","63.7833333","11.6833333","83.0","VERDAL REPPE, NO","FM-12","99999","V020","110,1,N,0030,1","01500,1,9,N","055000,1,N,1","+0117,1","+0096,1","10171,1","12,0061,9,1",,,"8,1,06,1","2,1,06,1",,"07,99,1,05,1,09,1,01750,1,06,1,02,1",,"999,M,+0152,1","99999,9,10070,1","2,1,030,1,+999,9","80,1","SYN088AAXX  18181 01278 11785 71103 10117 20096 30070 40171 52030 60062 78082 85962 333 10152;",
"01278099999","2010-07-19T06:00:00","4","63.7833333","11.6833333","83.0","VERDAL REPPE, NO","FM-12","99999","V020","110,1,N,0010,1","01800,1,9,N","055000,1,N,1","+0125,1","+0101,1","10128,1","12,0000,2,1","24,0056,9,1",,"8,1,06,1","1,1,06,1",,"07,99,1,05,1,08,1,01750,1,07,1,99,9",,"999,N,+0096,1","99999,9,10028,1","7,1,010,1,+999,9","02,1","SYN094AAXX  19061 01278 11785 71101 10125 20101 30028 40128 57010 69902 70281 8587/ 333 20096 70057;",
"01278099999","2010-07-19T09:00:00","4","63.7833333","11.6833333","83.0","VERDAL REPPE, NO","FM-12","99999","V020","999,9,C,0000,1","01500,1,9,N","055000,1,N,1","+0144,1","+0112,1","10132,1",,,,"8,1,03,1","2,1,03,1",,"07,99,1,06,1,09,1,01750,1,07,1,99,9",,,"99999,9,10033,1","2,1,006,1,+999,9","15,1","SYN072AAXX  19091 01278 41785 70000 10144 20112 30033 40132 52006 71582 8697/;",
"01278099999","2010-07-19T12:00:00","4","63.7833333","11.6833333","83.0","VERDAL REPPE, NO","FM-12","99999","V020","280,1,N,0050,1","01500,1,9,N","020000,1,N,1","+0159,1","+0109,1","10136,1",,,,"8,1,06,1","2,1,06,1",,"08,99,1,08,1,09,1,01750,1,99,9,99,9",,,"99999,9,10037,1","2,1,004,1,+999,9","80,1","SYN078AAXX  19121 01278 11770 82805 10159 20109 30037 40136 52004 6//// 78082 889//;",
"01278099999","2010-07-19T18:00:00","4","63.7833333","11.6833333","83.0","VERDAL REPPE, NO","FM-12","99999","V020","310,1,N,0030,1","00750,1,9,N","020000,1,N,1","+0141,1","+0111,1","10144,1","12,0010,9,1",,,"8,1,06,1","2,1,06,1",,"08,99,1,08,1,09,1,00800,1,99,9,99,9",,"999,M,+0173,1","99999,9,10044,1","2,1,003,1,+999,9","80,1","SYN088AAXX  19181 01278 11570 83103 10141 20111 30044 40144 52003 69992 78082 889// 333 10173;",
"01278099999","2010-07-20T06:00:00","4","63.7833333","11.6833333","83.0","VERDAL REPPE, NO","FM-12","99999","V020","140,1,N,0030,1","01200,1,9,N","055000,1,N,1","+0127,1","+0114,1","10135,1","12,0005,9,1","24,0015,9,1",,"8,1,06,1","2,1,06,1",,"07,99,1,05,1,09,1,01250,1,02,1,99,9",,"999,N,+0119,1","99999,9,10035,1","7,1,005,1,+999,9","80,1","SYN094AAXX  20061 01278 11685 71403 10127 20114 30035 40135 57005 69962 78082 8592/ 333 20119 70015;",
"01278099999","2010-07-20T09:00:00","4","63.7833333","11.6833333","83.0","VERDAL REPPE, NO","FM-12","99999","V020","999,9,C,0000,1","03000,1,9,N","020000,1,N,1","+0167,1","+0110,1","10130,1",,,,"8,1,03,1","2,1,03,1",,"08,99,1,04,1,09,1,01250,1,02,1,99,9",,,"99999,9,10031,1","7,1,004,1,+999,9","15,1","SYN072AAXX  20091 01278 41670 80000 10167 20110 30031 40130 57004 71582 8492/;",
"01278099999","2010-07-20T12:00:00","4","63.7833333","11.6833333","83.0","VERDAL REPPE, NO","FM-12","99999","V020","310,1,N,0050,1","03000,1,9,N","055000,1,N,1","+0148,1","+0110,1","10122,1",,,,"8,1,06,1","2,1,06,1",,"08,99,1,04,1,09,1,01750,1,07,1,99,9",,,"99999,9,10023,1","7,1,008,1,+999,9","80,1","SYN078AAXX  20121 01278 11785 83105 10148 20110 30023 40122 57008 6//// 78082 8497/;",
"01278099999","2010-07-20T18:00:00","4","63.7833333","11.6833333","83.0","VERDAL REPPE, NO","FM-12","99999","V020","999,9,C,0000,1","00120,1,9,N","030000,1,N,1","+0152,1","+0137,1","10114,1","12,0020,9,1",,,"8,1,06,1","2,1,06,1",,"08,99,1,08,1,09,1,00150,1,99,9,99,9",,"999,M,+0168,1","99999,9,10015,1","7,1,004,1,+999,9","80,1","SYN088AAXX  20181 01278 11280 80000 10152 20137 30015 40114 57004 60022 78082 889// 333 10168;",
"01278099999","2010-07-21T06:00:00","4","63.7833333","11.6833333","83.0","VERDAL REPPE, NO","FM-12","99999","V020","999,9,C,0000,1","03000,1,9,N","055000,1,N,1","+0138,1","+0129,1","10077,1","12,0008,9,1","24,0023,9,1",,"8,1,06,1","2,1,06,1",,"05,99,1,03,1,08,1,01250,1,03,1,02,1",,"999,N,+0130,1","99999,9,09978,1","7,1,015,1,+999,9","40,1","SYN094AAXX  21061 01278 11685 50000 10138 20129 39978 40077 57015 69972 74082 83832 333 20130 70022;",
"01278099999","2010-07-21T09:00:00","4","63.7833333","11.6833333","83.0","VERDAL REPPE, NO","FM-12","99999","V020","280,1,N,0030,1","00210,1,9,N","010000,1,N,1","+0158,1","+0136,1","10072,1",,,,"8,1,03,1","2,1,03,1",,"08,99,1,07,1,09,1,00250,1,02,1,99,9",,,"99999,9,09973,1","7,1,005,1,+999,9","80,1","SYN072AAXX  21091 01278 41360 82803 10158 20136 39973 40072 57005 78082 8792/;",
"01278099999","2010-07-21T12:00:00","4","63.7833333","11.6833333","83.0","VERDAL REPPE, NO","FM-12","99999","V020","280,1,N,0010,1","00120,1,9,N","010000,1,N,1","+0166,1","+0150,1","10065,1",,,,"8,1,06,1","6,1,06,1",,"08,99,1,07,1,07,1,00150,1,02,1,99,9",,,"99999,9,09968,1","7,1,005,1,+999,9","60,1","SYN078AAXX  21121 01278 11260 82801 10166 20150 39968 40065 57005 6//// 76086 8772/;",
"01278099999","2010-07-21T18:00:00","4","63.7833333","11.6833333","83.0","VERDAL REPPE, NO","FM-12","99999","V020","270,1,N,0010,1","00120,1,9,N","010000,1,N,1","+0158,1","+0135,1","10052,1","12,0020,9,1",,,"8,1,06,1","6,1,06,1",,"08,99,1,08,1,09,1,00150,1,99,9,99,9",,"999,M,+0180,1","99999,9,09954,1","7,1,009,1,+999,9","80,1","SYN088AAXX  21181 01278 11260 82701 10158 20135 39954 40052 57009 60022 78086 889// 333 10180;",
"01278099999","2010-07-22T06:00:00","4","63.7833333","11.6833333","83.0","VERDAL REPPE, NO","FM-12","99999","V020","999,9,C,0000,1","00030,1,9,N","020000,1,N,1","+0145,1","+0137,1","09989,1","12,0099,9,1","24,0119,9,1",,"8,1,06,1","6,1,06,1",,"08,99,1,07,1,07,1,00025,1,02,1,99,9",,"999,N,+0135,1","99999,9,09891,1","7,1,002,1,+999,9","02,1","SYN094AAXX  22061 01278 11070 80000 10145 20137 39891 49989 57002 60102 70286 8772/ 333 20135 70119;",
"01278099999","2010-07-22T09:00:00","4","63.7833333","11.6833333","83.0","VERDAL REPPE, NO","FM-12","99999","V020","290,1,N,0030,1","00030,1,9,N","020000,1,N,1","+0125,1","+0116,1","09994,1",,,,"9,1,03,1","8,1,03,1",,"08,99,1,08,1,09,1,00025,1,99,9,99,9",,,"99999,9,09895,1","2,1,004,1,+999,9","80,1","SYN072AAXX  22091 01278 41070 82903 10125 20116 39895 49994 52004 78098 889//;",
"01278099999","2010-07-22T12:00:00","4","63.7833333","11.6833333","83.0","VERDAL REPPE, NO","FM-12","99999","V020","280,1,N,0050,1","00030,1,9,N","005000,1,N,1","+0108,1","+0097,1","10027,1",,,,"9,1,06,1","8,1,06,1",,"08,99,1,08,1,09,1,00025,1,99,9,99,9",,,"99999,9,09927,1","2,1,032,1,+999,9","81,1","SYN078AAXX  22121 01278 11050 82805 10108 20097 39927 40027 52032 6//// 78198 889//;",
"01278099999","2010-07-22T18:00:00","4","63.7833333","11.6833333","83.0","VERDAL REPPE, NO","FM-12","99999","V020","310,1,N,0070,1","00420,1,9,N","055000,1,N,1","+0085,1","+0068,1","10103,1","12,0160,9,1",,,"8,1,06,1","2,1,06,1",,"08,99,1,08,1,09,1,00450,1,99,9,99,9",,"999,M,+0146,1","99999,9,10002,1","2,1,051,2,+999,9","80,1","SYN088AAXX  22181 01278 11485 83107 10085 20068 30002 40103 52051 60162 78082 889// 333 10146;","Q01+000512APC3  "
"01278099999","2010-07-23T06:00:00","4","63.7833333","11.6833333","83.0","VERDAL REPPE, NO","FM-12","99999","V020","320,1,N,0010,1","22000,1,9,N","055000,1,N,1","+0083,1","+0064,1","10221,1","12,0041,9,1","24,0198,9,1",,"8,1,06,1","1,1,06,1",,"03,99,1,02,1,08,1,00800,1,06,1,01,1",,"999,N,+0059,1","99999,9,10119,1","2,1,020,1,+999,9","02,1","SYN094AAXX  23061 01278 11585 33201 10083 20064 30119 40221 52020 60042 70281 82861 333 20059 70199;",
"01278099999","2010-07-23T09:00:00","4","63.7833333","11.6833333","83.0","VERDAL REPPE, NO","FM-12","99999","V020","290,1,N,0030,1","01200,1,9,N","055000,1,N,1","+0107,1","+0057,1","10232,1",,,,"1,1,03,1","1,1,03,1",,"07,99,1,07,1,09,1,01250,1,99,9,99,9",,,"99999,9,10131,1","2,1,012,1,+999,9","15,1","SYN072AAXX  23091 01278 41685 72903 10107 20057 30131 40232 52012 71511 879//;",
"01278099999","2010-07-23T12:00:00","4","63.7833333","11.6833333","83.0","VERDAL REPPE, NO","FM-12","99999","V020","290,1,N,0030,1","22000,1,9,N","055000,1,N,1","+0146,1","+0046,1","10227,1",,,,"1,1,06,1","1,1,06,1",,"03,99,1,03,1,08,1,01250,1,00,1,00,1",,,"99999,9,10127,1","7,1,002,1,+999,9","01,1","SYN078AAXX  23121 01278 11685 32903 10146 20046 30127 40227 57002 6//// 70111 83800;",
"01278099999","2010-07-23T18:00:00","4","63.7833333","11.6833333","83.0","VERDAL REPPE, NO","FM-12","99999","V020","300,1,N,0050,1","22000,1,9,N","055000,1,N,1","+0146,1","+0051,1","10205,1","12,0000,9,1",,,"0,1,06,1","0,1,06,1",,"01,99,1,01,1,00,1,02250,1,03,1,02,1",,"999,M,+0170,1","99999,9,10105,1","7,1,005,1,+999,9","02,1","SYN088AAXX  23181 01278 11885 13005 10146 20051 30105 40205 57005 60002 70200 81032 333 10170;","Q01  00002PRCP12"
"01278099999","2010-07-24T06:00:00","4","63.7833333","11.6833333","83.0","VERDAL REPPE, NO","FM-12","99999","V020","150,1,N,0010,1","22000,1,9,N","055000,1,N,1","+0114,1","+0065,1","10188,1","12,0000,9,1","24,0000,9,1",,"0,1,06,1","0,1,06,1",,"01,99,1,00,1,00,1,99999,9,00,1,02,1",,"999,N,+0077,1","99999,9,10087,1","2,1,001,1,+999,9","02,1","SYN094AAXX  24061 01278 11985 11501 10114 20065 30087 40188 52001 60002 70200 80002 333 20077 70000;","Q01  00002PRCP24Q02  00002PRCP12"
"01278099999","2010-07-24T09:00:00","4","63.7833333","11.6833333","83.0","VERDAL REPPE, NO","FM-12","99999","V020","290,1,N,0050,1","22000,1,9,N","055000,1,N,1","+0145,1","+0087,1","10197,1",,,,"0,1,03,1","0,1,03,1",,"01,99,1,01,1,01,1,01250,1,00,1,00,1",,,"99999,9,10097,1","2,1,014,1,+999,9","02,1","SYN072AAXX  24091 01278 41685 12905 10145 20087 30097 40197 52014 70200 81100;",
"01278099999","2010-07-24T12:00:00","4","63.7833333","11.6833333","83.0","VERDAL REPPE, NO","FM-12","99999","V020","280,1,N,0030,1","22000,1,9,N","075000,1,N,1","+0184,1","+0069,1","10191,1",,,,"0,1,06,1","0,1,06,1",,"01,99,1,01,1,02,1,01250,1,00,1,02,1",,,"99999,9,10093,1","7,1,004,1,+999,9","02,1","SYN078AAXX  24121 01278 11689 12803 10184 20069 30093 40191 57004 6//// 70200 81202;",
"01278099999","2010-07-24T18:00:00","4","63.7833333","11.6833333","83.0","VERDAL REPPE, NO","FM-12","99999","V020","280,1,N,0010,1","22000,1,9,N","075000,1,N,1","+0195,1","+0097,1","10179,1","12,0000,9,1",,,"0,1,06,1","0,1,06,1",,"01,99,1,01,1,08,1,01250,1,03,1,01,1",,"999,M,+0210,1","99999,9,10081,1","7,1,003,1,+999,9","02,1","SYN088AAXX  24181 01278 11689 12801 10195 20097 30081 40179 57003 60002 70200 81831 333 10210;","Q01  00002PRCP12"
"01278099999","2010-07-25T06:00:00","4","63.7833333","11.6833333","83.0","VERDAL REPPE, NO","FM-12","99999","V020","140,1,N,0030,1","22000,1,9,N","055000,1,N,1","+0117,1","+0076,1","10178,1","12,0000,9,1","24,0000,9,1",,"0,1,06,1","0,1,06,1",,"01,99,1,00,1,00,1,99999,9,00,1,01,1",,"999,N,+0079,1","99999,9,10077,1","7,1,008,1,+999,9","02,1","SYN094AAXX  25061 01278 11985 11403 10117 20076 30077 40178 57008 60002 70200 80001 333 20079 70000;","Q01  00002PRCP24Q02  00002PRCP12"
"01278099999","2010-07-25T09:00:00","4","63.7833333","11.6833333","83.0","VERDAL REPPE, NO","FM-12","99999","V020","300,1,N,0030,1","22000,1,9,N","075000,1,N,1","+0172,1","+0101,1","10155,1",,,,"0,1,03,1","0,1,03,1",,"02,99,1,01,1,02,1,01250,1,00,1,02,1",,,"99999,9,10057,1","7,1,020,1,+999,9","02,1","SYN072AAXX  25091 01278 41689 23003 10172 20101 30057 40155 57020 70200 81202;",
"01278099999","2010-07-25T12:00:00","4","63.7833333","11.6833333","83.0","VERDAL REPPE, NO","FM-12","99999","V020","150,1,N,0070,1","22000,1,9,N","075000,1,N,1","+0205,1","+0057,1","10151,1",,,,"0,1,06,1","0,1,06,1",,"03,99,1,01,1,02,1,01250,1,03,1,04,1",,,"99999,9,10053,1","7,1,004,1,+999,9","02,1","SYN078AAXX  25121 01278 11689 31507 10205 20057 30053 40151 57004 6//// 70200 81234;",
"01278099999","2010-07-25T18:00:00","4","63.7833333","11.6833333","83.0","VERDAL REPPE, NO","FM-12","99999","V020","130,1,N,0050,1","03000,1,9,N","055000,1,N,1","+0187,1","+0069,1","10138,1","12,0000,9,1",,,"1,1,06,1","1,1,06,1",,"08,99,1,04,1,08,1,01750,1,07,1,02,1",,"999,M,+0215,1","99999,9,10040,1","5,1,004,1,+999,9","03,1","SYN088AAXX  25181 01278 11785 81305 10187 20069 30040 40138 55004 60002 70311 84872 333 10215;","Q01  00002PRCP12"
"01278099999","2010-07-26T06:00:00","4","63.7833333","11.6833333","83.0","VERDAL REPPE, NO","FM-12","99999","V020","999,9,C,0000,1","00420,1,9,N","055000,1,N,1","+0123,1","+0100,1","10112,1","12,0030,9,2","24,0028,9,2",,"8,1,06,1","2,1,06,1",,"08,99,1,08,1,09,1,00450,1,99,9,99,9",,"999,N,+0119,1","99999,9,10012,1","7,1,013,1,+999,9","02,1","SYN094AAXX  26061 01278 11485 80000 10123 20100 30012 40112 57013 60032 70282 889// 333 20119 70029;",
"01278099999","2010-07-26T09:00:00","4","63.7833333","11.6833333","83.0","VERDAL REPPE, NO","FM-12","99999","V020","120,1,N,0030,1","00420,1,9,N","055000,1,N,1","+0137,1","+0107,1","10102,1",,,,"8,1,03,1","2,1,03,1",,"08,99,1,08,1,09,1,00450,1,99,9,99,9",,,"99999,9,10003,1","7,1,010,1,+999,9","80,1","SYN072AAXX  26091 01278 41485 81203 10137 20107 30003 40102 57010 78082 889//;",
"01278099999","2010-07-26T12:00:00","4","63.7833333","11.6833333","83.0","VERDAL REPPE, NO","FM-12","99999","V020","140,1,N,0030,1","03000,1,9,N","075000,1,N,1","+0172,1","+0115,1","10090,1",,,,"8,1,06,1","2,1,06,1",,"07,99,1,04,1,08,1,00800,1,07,1,01,1",,,"99999,9,09992,1","7,1,010,1,+999,9","02,1","SYN078AAXX  26121 01278 11589 71403 10172 20115 39992 40090 57010 6//// 70282 84871;",
"01278099999","2010-07-26T18:00:00","4","63.7833333","11.6833333","83.0","VERDAL REPPE, NO","FM-12","99999","V020","150,1,N,0050,1","03000,1,9,N","055000,1,N,1","+0198,1","+0130,1","10082,1","12,0000,2,1",,,"2,1,06,1","2,1,06,1",,"07,99,1,01,1,08,1,01750,1,07,1,01,1",,"999,M,+0200,1","99999,9,09985,1","5,1,000,1,+999,9","02,1","SYN088AAXX  26181 01278 11785 71505 10198 20130 39985 40082 55000 69902 70222 81871 333 10200;",
"01278099999","2010-07-27T06:00:00","4","63.7833333","11.6833333","83.0","VERDAL REPPE, NO","FM-12","99999","V020","999,9,C,0000,1","03000,1,9,N","030000,1,N,1","+0124,1","+0113,1","10117,1","12,0020,9,1","24,0020,9,1",,"6,1,06,1","2,1,06,1",,"08,99,1,01,1,07,1,00150,1,02,1,99,9",,"999,N,+0121,1","99999,9,10017,1","2,1,025,1,+999,9","60,1","SYN094AAXX  27061 01278 11280 80000 10124 20113 30017 40117 52025 60022 76062 8172/ 333 20121 70020;",
"01278099999","2010-07-27T09:00:00","4","63.7833333","11.6833333","83.0","VERDAL REPPE, NO","FM-12","99999","V020","999,9,C,0000,1","01500,1,9,N","055000,1,N,1","+0147,1","+0113,1","10120,1",,,,"6,1,03,1","2,1,03,1",,"08,99,1,07,1,08,1,01250,1,07,1,99,9",,,"99999,9,10021,1","2,1,004,1,+999,9","02,1","SYN072AAXX  27091 01278 41685 80000 10147 20113 30021 40120 52004 70262 8787/;",
"01278099999","2010-07-27T12:00:00","4","63.7833333","11.6833333","83.0","VERDAL REPPE, NO","FM-12","99999","V020","300,1,N,0030,1","01800,1,9,N","055000,1,N,1","+0167,1","+0120,1","10122,1",,,,"2,1,06,1","2,1,06,1",,"07,99,1,07,1,08,1,01750,1,99,9,99,9",,,"99999,9,10024,1","2,1,003,1,+999,9","02,1","SYN078AAXX  27121 01278 11785 73003 10167 20120 30024 40122 52003 6//// 70222 878//;",
"01278099999","2010-07-27T18:00:00","4","63.7833333","11.6833333","83.0","VERDAL REPPE, NO","FM-12","99999","V020","999,9,C,0000,1","22000,1,9,N","055000,1,N,1","+0187,1","+0103,1","10121,1","12,0000,2,1",,,"1,1,06,1","1,1,06,1",,"01,99,1,01,1,01,1,01250,1,00,1,01,1",,"999,M,+0201,1","99999,9,10023,1","4,1,000,1,+999,9","01,1","SYN088AAXX  27181 01278 11685 10000 10187 20103 30023 40121 54000 69902 70111 81101 333 10201;",
"01278099999","2010-07-28T06:00:00","4","63.7833333","11.6833333","83.0","VERDAL REPPE, NO","FM-12","99999","V020","999,9,C,0000,1","22000,1,9,N","055000,1,N,1","+0136,1","+0104,1","10118,1","12,0000,9,1","24,0000,2,1",,"0,1,06,1","0,1,06,1",,"01,99,1,01,1,08,1,01750,1,00,1,01,1",,"999,N,+0096,1","99999,9,10018,1","7,1,006,1,+999,9","02,1","SYN094AAXX  28061 01278 11785 10000 10136 20104 30018 40118 57006 60002 70200 81801 333 20096 79999;","Q01  00002PRCP12"
"01278099999","2010-07-28T09:00:00","4","63.7833333","11.6833333","83.0","VERDAL REPPE, NO","FM-12","99999","V020","120,1,N,0010,1","22000,1,9,N","055000,1,N,1","+0211,1","+0120,1","10109,1",,,,"0,1,03,1","0,1,03,1",,"01,99,1,01,1,08,1,01750,1,00,1,01,1",,,"99999,9,10013,1","7,1,003,1,+999,9","02,1","SYN072AAXX  28091 01278 41785 11201 10211 20120 30013 40109 57003 70200 81801;",
"01278099999","2010-07-28T12:00:00","4","63.7833333","11.6833333","83.0","VERDAL REPPE, NO","FM-12","99999","V020","120,1,N,0030,1","22000,1,9,N","055000,1,N,1","+0236,1","+0110,1","10104,1",,,,"0,1,06,1","0,1,06,1",,"01,99,1,01,1,02,1,01750,1,00,1,02,1",,,"99999,9,10008,1","0,1,000,1,+999,9","02,1","SYN078AAXX  28121 01278 11785 11203 10236 20110 30008 40104 50000 6//// 70200 81202;",
"01278099999","2010-07-28T18:00:00","4","63.7833333","11.6833333","83.0","VERDAL REPPE, NO","FM-12","99999","V020","999,9,C,0000,1","03000,1,9,N","055000,1,N,1","+0223,1","+0142,1","10097,1","12,0000,9,1",,,"1,1,06,1","1,1,06,1",,"05,99,1,04,1,08,1,01750,1,06,1,01,1",,"999,M,+0259,1","99999,9,10001,1","4,1,000,1,+999,9","02,1","SYN088AAXX  28181 01278 11785 50000 10223 20142 30001 40097 54000 60002 70211 84861 333 10259;","Q01  00002PRCP12"
"01278099999","2010-07-29T06:00:00","4","63.7833333","11.6833333","83.0","VERDAL REPPE, NO","FM-12","99999","V020","999,9,C,0000,1","22000,1,9,N","055000,1,N,1","+0150,1","+0120,1","10107,1","12,0000,9,1","24,0000,9,1",,"1,1,06,1","1,1,06,1",,"02,99,1,01,1,00,1,99999,9,03,1,01,1",,"999,N,+0125,1","99999,9,10008,1","7,1,003,1,+999,9","02,1","SYN094AAXX  29061 01278 11985 20000 10150 20120 30008 40107 57003 60002 70211 81031 333 20125 70000;","Q01  00002PRCP24Q02  00002PRCP12"
"01278099999","2010-07-29T09:00:00","4","63.7833333","11.6833333","83.0","VERDAL REPPE, NO","FM-12","99999","V020","280,1,N,0010,1","22000,1,9,N","075000,1,N,1","+0185,1","+0127,1","10099,1",,,,"0,1,03,1","0,1,03,1",,"04,99,1,01,1,08,1,01250,1,03,1,04,1",,,"99999,9,10001,1","7,1,001,1,+999,9","03,1","SYN072AAXX  29091 01278 41689 42801 10185 20127 30001 40099 57001 70300 81834;",
"01278099999","2010-07-29T12:00:00","4","63.7833333","11.6833333","83.0","VERDAL REPPE, NO","FM-12","99999","V020","340,1,N,0030,1","22000,1,9,N","055000,1,N,1","+0218,1","+0149,1","10086,1",,,,"0,1,06,1","0,1,06,1",,"04,99,1,01,1,08,1,01750,1,03,1,08,1",,,"99999,9,09990,1","7,1,010,1,+999,9","02,1","SYN078AAXX  29121 01278 11785 43403 10218 20149 39990 40086 57010 6//// 70200 81838;",
"01278099999","2010-07-29T18:00:00","4","63.7833333","11.6833333","83.0","VERDAL REPPE, NO","FM-12","99999","V020","340,1,N,0050,1","03000,1,9,N","055000,1,N,1","+0213,1","+0135,1","10057,1","12,9999,9,9",,,"8,1,06,1","2,1,06,1",,"08,99,1,03,1,09,1,01750,1,07,1,02,1",,"999,M,+0245,1","99999,9,09961,1","7,1,010,1,+999,9","80,1","SYN088AAXX  29181 01278 11785 83405 10213 20135 39961 40057 57010 69902 78082 83972 333 10245;","Q01  00002PRCP12Q02  00002PRCP12"
"01278099999","2010-07-30T06:00:00","4","63.7833333","11.6833333","83.0","VERDAL REPPE, NO","FM-12","99999","V020","340,1,N,0010,1","00030,1,9,N","010000,1,N,1","+0147,1","+0134,1","10022,1","12,0020,9,1","24,0020,9,1",,"8,1,06,1","2,1,06,1",,"08,99,1,08,1,06,1,00025,1,99,9,99,9",,"999,N,+0145,1","99999,9,09923,1","7,1,010,1,+999,9","02,1","SYN094AAXX  30061 01278 11060 83401 10147 20134 39923 40022 57010 60022 70282 886// 333 20145 70020;",
"01278099999","2010-07-30T09:00:00","4","63.7833333","11.6833333","83.0","VERDAL REPPE, NO","FM-12","99999","V020","999,9,C,0000,1","00030,1,9,N","010000,1,N,1","+0151,1","+0136,1","10014,1",,,,"2,1,03,1","2,1,03,1",,"08,99,1,08,1,06,1,00025,1,99,9,99,9",,,"99999,9,09916,1","7,1,008,1,+999,9","02,1","SYN072AAXX  30091 01278 41060 80000 10151 20136 39916 40014 57008 70222 886//;",
"01278099999","2010-07-30T12:00:00","4","63.7833333","11.6833333","83.0","VERDAL REPPE, NO","FM-12","99999","V020","999,9,C,0000,1","01500,1,9,N","015000,1,N,1","+0179,1","+0152,1","09986,1",,,,"6,1,06,1","2,1,06,1",,"07,99,1,05,1,08,1,01250,1,07,1,99,9",,,"99999,9,09890,1","7,1,026,1,+999,9","02,1","SYN078AAXX  30121 01278 11665 70000 10179 20152 39890 49986 57026 6//// 70262 8587/;",
"01278099999","2010-07-30T18:00:00","4","63.7833333","11.6833333","83.0","VERDAL REPPE, NO","FM-12","99999","V020","110,1,N,0010,1","03000,1,9,N","055000,1,N,1","+0184,1","+0166,1","09964,1","12,0051,9,1",,,"9,1,06,1","8,1,06,1",,"07,99,1,04,1,09,1,00450,1,07,1,99,9",,"999,M,+0200,1","99999,9,09868,1","7,1,010,1,+999,9","15,1","SYN088AAXX  30181 01278 11485 71101 10184 20166 39868 49964 57010 60052 71598 8497/ 333 10200;",
"01278099999","2010-07-31T06:00:00","4","63.7833333","11.6833333","83.0","VERDAL REPPE, NO","FM-12","99999","V020","290,1,N,0030,1","00420,1,9,N","020000,1,N,1","+0125,1","+0107,1","10021,1","12,0089,9,1","24,0140,9,1",,"8,1,06,1","2,1,06,1",,"08,99,1,08,1,09,1,00450,1,99,9,99,9",,"999,N,+0125,1","99999,9,09922,1","2,1,020,1,+999,9","80,1","SYN094AAXX  31061 01278 11470 82903 10125 20107 39922 40021 52020 60092 78082 889// 333 20125 70140;",
"01278099999","2010-07-31T09:00:00","4","63.7833333","11.6833333","83.0","VERDAL REPPE, NO","FM-12","99999","V020","320,1,N,0030,1","00420,1,9,N","055000,1,N,1","+0139,1","+0114,1","10036,1",,,,"8,1,03,1","2,1,03,1",,"07,99,1,07,1,09,1,00450,1,99,9,99,9",,,"99999,9,09938,1","2,1,015,1,+999,9","02,1","SYN072AAXX  31091 01278 41485 73203 10139 20114 39938 40036 52015 70282 879//;",
"01278099999","2010-07-31T12:00:00","4","63.7833333","11.6833333","83.0","VERDAL REPPE, NO","FM-12","99999","V020","280,1,N,0050,1","01500,1,9,N","055000,1,N,1","+0161,1","+0115,1","10052,1",,,,"8,1,06,1","2,1,06,1",,"07,99,1,06,1,08,1,01250,1,06,1,99,9",,,"99999,9,09954,1","2,1,016,1,+999,9","02,1","SYN078AAXX  31121 01278 11685 72805 10161 20115 39954 40052 52016 6//// 70282 8686/;",
"01278099999","2010-07-31T18:00:00","4","63.7833333","11.6833333","83.0","VERDAL REPPE, NO","FM-12","99999","V020","340,1,N,0050,1","01800,1,9,N","055000,1,N,1","+0160,1","+0114,1","10046,1","12,0000,2,1",,,"2,1,06,1","2,1,06,1",,"08,99,1,08,1,08,1,01750,1,99,9,99,9",,"999,M,+0189,1","99999,9,09948,1","4,1,000,1,+999,9","02,1","SYN088AAXX  31181 01278 11785 83405 10160 20114 39948 40046 54000 69902 70222 888// 333 10189;",
"01278099999","2010-08-01T06:00:00","4","63.7833333","11.6833333","83.0","VERDAL REPPE, NO","FM-12","99999","V020","120,1,N,0010,1","01800,1,9,N","055000,1,N,1","+0130,1","+0121,1","10047,1","12,0010,9,1","24,0010,9,1",,"8,1,06,1","2,1,06,1",,"07,99,1,05,1,08,1,01750,1,07,1,99,9",,"999,N,+0119,1","99999,9,09948,1","7,1,001,1,+999,9","02,1","SYN094AAXX  01061 01278 11785 71201 10130 20121 39948 40047 57001 60012 70282 8587/ 333 20119 70010;",
"01278099999","2010-08-01T09:00:00","4","63.7833333","11.6833333","83.0","VERDAL REPPE, NO","FM-12","99999","V020","999,9,C,0000,1","03000,1,9,N","055000,1,N,1","+0168,1","+0137,1","10047,1",,,,"2,1,03,1","2,1,03,1",,"07,99,1,04,1,09,1,01750,1,03,1,01,1",,,"99999,9,09950,1","2,1,002,1,+999,9","01,1","SYN072AAXX  01091 01278 41785 70000 10168 20137 39950 40047 52002 70122 84931;",
"01278099999","2010-08-01T12:00:00","4","63.7833333","11.6833333","83.0","VERDAL REPPE, NO","FM-12","99999","V020","999,9,C,0000,1","01500,1,9,N","055000,1,N,1","+0181,1","+0144,1","10043,1",,,,"8,1,06,1","2,1,06,1",,"07,99,1,05,1,09,1,01750,1,06,1,01,1",,,"99999,9,09946,1","7,1,002,1,+999,9","80,1","SYN078AAXX  01121 01278 11785 70000 10181 20144 39946 40043 57002 6//// 78082 85961;",
"01278099999","2010-08-01T18:00:00","4","63.7833333","11.6833333","83.0","VERDAL REPPE, NO","FM-12","99999","V020","300,1,N,0030,1","00120,1,9,N","055000,1,N,1","+0147,1","+0134,1","10064,1","12,0061,9,1",,,"9,1,06,1","8,1,06,1",,"08,99,1,08,1,09,1,00150,1,99,9,99,9",,"999,M,+0209,1","99999,9,09966,1","2,1,024,1,+999,9","02,1","SYN088AAXX  01181 01278 11285 83003 10147 20134 39966 40064 52024 60062 70298 889// 333 10209;",
"01278099999","2010-08-02T06:00:00","4","63.7833333","11.6833333","83.0","VERDAL REPPE, NO","FM-12","99999","V020","280,1,N,0050,1","00120,1,9,N","010000,1,N,1","+0120,1","+0107,1","10113,1","12,0008,9,1","24,0069,9,1",,"8,1,06,1","2,1,06,1",,"08,99,1,08,1,09,1,00150,1,99,9,99,9",,"999,N,+0120,1","99999,9,10013,1","2,1,019,1,+999,9","81,1","SYN094AAXX  02061 01278 11260 82805 10120 20107 30013 40113 52019 69982 78182 889// 333 20120 70068;",
"01278099999","2010-08-02T09:00:00","4","63.7833333","11.6833333","83.0","VERDAL REPPE, NO","FM-12","99999","V020","999,9,C,0000,1","00420,1,9,N","055000,1,N,1","+0132,1","+0111,1","10129,1",,,,"8,1,03,1","2,1,03,1",,"08,99,1,08,1,09,1,00450,1,99,9,99,9",,,"99999,9,10029,1","2,1,016,1,+999,9","02,1","SYN072AAXX  02091 01278 41485 80000 10132 20111 30029 40129 52016 70282 889//;",
"01278099999","2010-08-02T12:00:00","4","63.7833333","11.6833333","83.0","VERDAL REPPE, NO","FM-12","99999","V020","280,1,N,0030,1","01200,1,9,N","055000,1,N,1","+0147,1","+0105,1","10127,1",,,,"8,1,06,1","2,1,06,1",,"07,99,1,07,1,09,1,01250,1,99,9,99,9",,,"99999,9,10028,1","4,1,000,1,+999,9","02,1","SYN078AAXX  02121 01278 11685 72803 10147 20105 30028 40127 54000 6//// 70282 879//;",
"01278099999","2010-08-02T18:00:00","4","63.7833333","11.6833333","83.0","VERDAL REPPE, NO","FM-12","99999","V020","999,9,C,0000,1","01500,1,9,N","055000,1,N,1","+0151,1","+0092,1","10119,1","12,0005,9,1",,,"2,1,06,1","2,1,06,1",,"08,99,1,08,1,09,1,01750,1,99,9,99,9",,"999,M,+0165,1","99999,9,10020,1","7,1,007,1,+999,9","15,1","SYN088AAXX  02181 01278 11785 80000 10151 20092 30020 40119 57007 69952 71522 889// 333 10165;",
"01278099999","2010-08-03T06:00:00","4","63.7833333","11.6833333","83.0","VERDAL REPPE, NO","FM-12","99999","V020","120,1,N,0030,1","01200,1,9,N","055000,1,N,1","+0115,1","+0106,1","10120,1","12,0000,9,1","24,0005,9,1",,"8,1,06,1","2,1,06,1",,"08,99,1,08,1,08,1,00800,1,99,9,99,9",,"999,N,+0111,1","99999,9,10019,1","7,1,001,1,+999,9","02,1","SYN094AAXX  03061 01278 11585 81203 10115 20106 30019 40120 57001 69912 70282 888// 333 20111 70006;","Q01  00002PRCP12"
"01278099999","2010-08-03T09:00:00","4","63.7833333","11.6833333","83.0","VERDAL REPPE, NO","FM-12","99999","V020","320,1,N,0050,1","00750,1,9,N","055000,1,N,1","+0151,1","+0099,1","10108,1",,,,"2,1,03,1","2,1,03,1",,"07,99,1,05,1,09,1,00800,1,03,1,02,1",,,"99999,9,10009,1","7,1,010,1,+999,9","02,1","SYN072AAXX  03091 01278 41585 73205 10151 20099 30009 40108 57010 70222 85932;",
"01278099999","2010-08-03T12:00:00","4","63.7833333","11.6833333","83.0","VERDAL REPPE, NO","FM-12","99999","V020","310,1,N,0050,1","00900,1,9,N","055000,1,N,1","+0164,1","+0107,1","10096,1",,,,"2,1,06,1","2,1,06,1",,"07,99,1,07,1,08,1,00450,1,99,9,99,9",,,"99999,9,09998,1","7,1,011,1,+999,9","02,1","SYN078AAXX  03121 01278 11485 73105 10164 20107 39998 40096 57011 6//// 70222 878//;",
"01278099999","2010-08-03T18:00:00","4","63.7833333","11.6833333","83.0","VERDAL REPPE, NO","FM-12","99999","V020","320,1,N,0010,1","01200,1,9,N","055000,1,N,1","+0178,1","+0114,1","10079,1","12,0000,9,1",,,"2,1,06,1","2,1,06,1",,"07,99,1,05,1,09,1,01250,1,07,1,99,9",,"999,M,+0195,1","99999,9,09982,1","7,1,010,1,+999,9","02,1","SYN088AAXX  03181 01278 11685 73201 10178 20114 39982 40079 57010 60002 70222 8597/ 333 10195;","Q01  00002PRCP12"
"01278099999","2010-08-04T06:00:00","4","63.7833333","11.6833333","83.0","VERDAL REPPE, NO","FM-12","99999","V020","100,1,N,0010,1","22000,1,9,N","055000,1,N,1","+0119,1","+0110,1","10061,1","12,0000,9,1","24,0000,9,1",,"2,1,06,1","2,1,06,1",,"04,99,1,01,1,08,1,00450,1,03,1,00,1",,"999,N,+0105,1","99999,9,09961,1","7,1,010,1,+999,9","02,1","SYN094AAXX  04061 01278 11485 41001 10119 20110 39961 40061 57010 60002 70222 81830 333 20105 70000;","Q01  00002PRCP24Q02  00002PRCP12"
"01278099999","2010-08-04T09:00:00","4","63.7833333","11.6833333","83.0","VERDAL REPPE, NO","FM-12","99999","V020","100,1,N,0010,1","00900,1,9,N","055000,1,N,1","+0162,1","+0118,1","10053,1",,,,"2,1,03,1","2,1,03,1",,"07,99,1,05,1,08,1,00450,1,03,1,99,9",,,"99999,9,09956,1","7,1,004,1,+999,9","03,1","SYN072AAXX  04091 01278 41485 71001 10162 20118 39956 40053 57004 70322 8583/;",
"01278099999","2010-08-04T12:00:00","4","63.7833333","11.6833333","83.0","VERDAL REPPE, NO","FM-12","99999","V020","280,1,N,0050,1","03000,1,9,N","075000,1,N,1","+0192,1","+0138,1","10037,1",,,,"2,1,06,1","2,1,06,1",,"05,99,1,04,1,09,1,01250,1,04,1,02,1",,,"99999,9,09940,1","7,1,016,1,+999,9","02,1","SYN078AAXX  04121 01278 11689 52805 10192 20138 39940 40037 57016 6//// 70222 84942;",
"01278099999","2010-08-04T18:00:00","4","63.7833333","11.6833333","83.0","VERDAL REPPE, NO","FM-12","99999","V020","010,1,N,0010,1","01200,1,9,N","055000,1,N,1","+0186,1","+0155,1","10035,1","12,0010,9,1",,,"8,1,06,1","2,1,06,1",,"06,99,1,05,1,09,1,01250,1,06,1,99,9",,"999,M,+0199,1","99999,9,09938,1","5,1,000,1,+999,9","15,1","SYN088AAXX  04181 01278 11685 60101 10186 20155 39938 40035 55000 60012 71582 8596/ 333 10199;",
"01278099999","2010-08-05T06:00:00","4","63.7833333","11.6833333","83.0","VERDAL REPPE, NO","FM-12","99999","V020","999,9,C,0000,1","02100,1,9,N","055000,1,N,1","+0143,1","+0133,1","10079,1","12,0005,9,1","24,0015,9,1",,"8,1,06,1","2,1,06,1",,"07,99,1,07,1,05,1,02250,1,99,9,99,9",,"999,N,+0134,1","99999,9,09981,1","2,1,018,1,+999,9","41,1","SYN094AAXX  05061 01278 11885 70000 10143 20133 39981 40079 52018 69962 74182 875// 333 20134 70016;",
"01278099999","2010-08-05T09:00:00","4","63.7833333","11.6833333","83.0","VERDAL REPPE, NO","FM-12","99999","V020","999,9,C,0000,1","01500,1,9,N","055000,1,N,1","+0165,1","+0127,1","10085,1",,,,"2,1,03,1","2,1,03,1",,"07,99,1,05,1,08,1,01250,1,06,1,08,1",,,"99999,9,09987,1","2,1,006,1,+999,9","02,1","SYN072AAXX  05091 01278 41685 70000 10165 20127 39987 40085 52006 70222 85868;",
"01278099999","2010-08-05T12:00:00","4","63.7833333","11.6833333","83.0","VERDAL REPPE, NO","FM-12","99999","V020","270,1,N,0030,1","03000,1,9,N","055000,1,N,1","+0191,1","+0144,1","99999,9",,,,"2,1,06,1","2,1,06,1",,"07,99,1,04,1,09,1,01250,1,09,1,02,1",,,,"5,1,000,1,+999,9","02,1","SYN066AAXX  05121 01278 11685 72703 10191 20144 55000 6//// 70222 84992;",
"01278099999","2010-08-05T18:00:00","4","63.7833333","11.6833333","83.0","VERDAL REPPE, NO","FM-12","99999","V020","100,1,N,0010,1","22000,1,9,N","055000,1,N,1","+0175,1","+0134,1","99999,9","12,0030,9,1",,,"9,1,06,1","8,1,06,1",,"04,99,1,03,1,09,1,01250,1,06,1,01,1",,"999,M,+0225,1",,"0,1,007,1,+999,9","01,1","SYN076AAXX  05181 01278 11685 41001 10175 20134 50007 60032 70198 83961 333 10225;",
"01278099999","2010-08-06T06:00:00","4","63.7833333","11.6833333","83.0","VERDAL REPPE, NO","FM-12","99999","V020","150,1,N,0070,1","03000,1,9,N","055000,1,N,1","+0180,1","+0118,1","99999,9","12,0000,9,1","24,0025,9,1",,"1,1,06,1","1,1,06,1",,"08,99,1,01,1,01,1,01750,1,07,1,99,9",,"999,N,+0150,1",,"3,1,004,1,+999,9","02,1","SYN082AAXX  06061 01278 11785 81507 10180 20118 53004 60002 70211 8117/ 333 20150 70025;","Q01  00002PRCP12"
"01278099999","2010-08-06T09:00:00","4","63.7833333","11.6833333","83.0","VERDAL REPPE, NO","FM-12","99999","V020","150,1,N,0070,1","03000,1,9,N","055000,1,N,1","+0188,1","+0123,1","99999,9",,,,"8,1,03,1","2,1,03,1",,"08,99,1,01,1,09,1,01750,1,07,1,99,9",,,,"3,1,008,1,+999,9","80,1","SYN060AAXX  06091 01278 41785 81507 10188 20123 53008 78082 8197/;",
"01278099999","2010-08-06T12:00:00","4","63.7833333","11.6833333","83.0","VERDAL REPPE, NO","FM-12","99999","V020","140,1,N,0050,1","03000,1,9,N","055000,1,N,1","+0192,1","+0118,1","99999,9",,,,"8,1,06,1","2,1,06,1",,"08,99,1,01,1,09,1,01750,1,07,1,99,9",,,,"3,1,008,1,+999,9","80,1","SYN066AAXX  06121 01278 11785 81405 10192 20118 53008 6//// 78082 8197/;",
"01278099999","2010-08-06T18:00:00","4","63.7833333","11.6833333","83.0","VERDAL REPPE, NO","FM-12","99999","V020","150,1,N,0100,1","03000,1,9,N","055000,1,N,1","+0167,1","+0112,1","99999,9","12,0003,9,1",,,"8,1,06,1","2,1,06,1",,"07,99,1,01,1,09,1,01750,1,02,1,99,9",,"999,M,+0205,1",,"3,1,011,1,+999,9","80,1","SYN076AAXX  06181 01278 11785 71510 10167 20112 53011 69932 78082 8192/ 333 10205;",
"01278099999","2010-08-07T06:00:00","4","63.7833333","11.6833333","83.0","VERDAL REPPE, NO","FM-12","99999","V020","120,1,N,0010,1","01500,1,9,N","055000,1,N,1","+0136,1","+0087,1","99999,9","12,0003,9,1","24,0005,9,1",,"8,1,06,1","2,1,06,1",,"07,99,1,07,1,05,1,01750,1,99,9,99,9",,"999,N,+0127,1",,"7,1,002,1,+999,9","02,1","SYN082AAXX  07061 01278 11785 71201 10136 20087 57002 69932 70282 875// 333 20127 70006;",
"01278099999","2010-08-07T09:00:00","4","63.7833333","11.6833333","83.0","VERDAL REPPE, NO","FM-12","99999","V020","310,1,N,0010,1","22000,1,9,N","055000,1,N,1","+0185,1","+0142,1","99999,9",,,,"2,1,03,1","2,1,03,1",,"04,99,1,04,1,08,1,01250,1,00,1,02,1",,,,"8,1,006,1,+999,9","01,1","SYN060AAXX  07091 01278 41685 43101 10185 20142 58006 70122 84802;",
"01278099999","2010-08-07T12:00:00","4","63.7833333","11.6833333","83.0","VERDAL REPPE, NO","FM-12","99999","V020","999,9,C,0000,1","03000,1,9,N","055000,1,N,1","+0208,1","+0128,1","99999,9",,,,"2,1,06,1","2,1,06,1",,"05,99,1,04,1,02,1,01250,1,03,1,02,1",,,,"7,1,014,1,+999,9","02,1","SYN066AAXX  07121 01278 11685 50000 10208 20128 57014 6//// 70222 84232;",
"01278099999","2010-08-07T18:00:00","4","63.7833333","11.6833333","83.0","VERDAL REPPE, NO","FM-12","99999","V020","999,9,C,0000,1","22000,1,9,N","055000,1,N,1","+0216,1","+0125,1","99999,9","12,0000,9,1",,,"1,1,06,1","1,1,06,1",,"03,99,1,02,1,08,1,01250,1,04,1,02,1",,"999,M,+0236,1",,"5,1,004,1,+999,9","01,1","SYN076AAXX  07181 01278 11685 30000 10216 20125 55004 60002 70111 82842 333 10236;","Q01  00002PRCP12"
"01278099999","2010-08-08T06:00:00","4","63.7833333","11.6833333","83.0","VERDAL REPPE, NO","FM-12","99999","V020","120,1,N,0030,1","22000,1,9,N","055000,1,N,1","+0118,1","+0094,1","99999,9","12,0000,9,1","24,0000,9,1",,"0,1,06,1","0,1,06,1",,"03,99,1,01,1,00,1,99999,9,08,1,05,1",,"999,N,+0104,1",,"7,1,003,1,+999,9","02,1","SYN082AAXX  08061 01278 11985 31203 10118 20094 57003 60002 70200 81085 333 20104 70000;","Q01  00002PRCP24Q02  00002PRCP12"
"01278099999","2010-08-08T09:00:00","4","63.7833333","11.6833333","83.0","VERDAL REPPE, NO","FM-12","99999","V020","999,9,C,0000,1","22000,1,9,N","055000,1,N,1","+0156,1","+0120,1","99999,9",,,,"0,1,03,1","0,1,03,1",,"04,99,1,01,1,02,1,01250,1,08,1,08,1",,,,"8,1,002,1,+999,9","02,1","SYN060AAXX  08091 01278 41685 40000 10156 20120 58002 70200 81288;",
"01278099999","2010-08-08T12:00:00","4","63.7833333","11.6833333","83.0","VERDAL REPPE, NO","FM-12","99999","V020","280,1,N,0010,1","22000,1,9,N","055000,1,N,1","+0209,1","+0123,1","99999,9",,,,"0,1,06,1","0,1,06,1",,"02,99,1,01,1,02,1,01750,1,03,1,01,1",,,,"6,1,009,1,+999,9","02,1","SYN066AAXX  08121 01278 11785 22801 10209 20123 56009 6//// 70200 81231;",
"01278099999","2010-08-08T18:00:00","4","63.7833333","11.6833333","83.0","VERDAL REPPE, NO","FM-12","99999","V020","999,9,C,0000,1","22000,1,9,N","055000,1,N,1","+0205,1","+0132,1","99999,9","12,0000,9,1",,,"0,1,06,1","0,1,06,1",,"04,99,1,01,1,08,1,01250,1,07,1,02,1",,"999,M,+0227,1",,"5,1,001,1,+999,9","02,1","SYN076AAXX  08181 01278 11685 40000 10205 20132 55001 60002 70200 81872 333 10227;","Q01  00002PRCP12"
"01278099999","2010-08-09T06:00:00","4","63.7833333","11.6833333","83.0","VERDAL REPPE, NO","FM-12","99999","V020","320,1,N,0030,1","00120,1,9,N","015000,1,N,1","+0134,1","+0120,1","99999,9","12,0000,9,1","24,0000,9,1",,"1,1,06,1","1,1,06,1",,"08,99,1,08,1,06,1,00150,1,99,9,99,9",,"999,N,+0134,1",,"5,1,006,1,+999,9","02,1","SYN082AAXX  09061 01278 11265 83203 10134 20120 55006 60002 70211 886// 333 20134 70000;","Q01  00002PRCP24Q02  00002PRCP12"
"01278099999","2010-08-09T09:00:00","4","63.7833333","11.6833333","83.0","VERDAL REPPE, NO","FM-12","99999","V020","999,9,C,0000,1","00030,1,9,N","003000,1,N,1","+0136,1","+0123,1","99999,9",,,,"5,1,03,1","2,1,03,1",,"08,99,1,08,1,06,1,00025,1,99,9,99,9",,,,"7,1,005,1,+999,9","51,1","SYN060AAXX  09091 01278 41030 80000 10136 20123 57005 75152 886//;",
"01278099999","2010-08-09T12:00:00","4","63.7833333","11.6833333","83.0","VERDAL REPPE, NO","FM-12","99999","V020","360,1,N,0010,1","00210,1,9,N","020000,1,N,1","+0155,1","+0135,1","10118,1",,,,"5,1,06,1","2,1,06,1",,"08,99,1,08,1,06,1,00250,1,99,9,99,9",,,"99999,9,10020,1","7,1,008,1,+999,9","01,1","SYN078AAXX  09121 01278 11370 83601 10155 20135 30020 40118 57008 6//// 70152 886//;",
"01278099999","2010-08-09T18:00:00","4","63.7833333","11.6833333","83.0","VERDAL REPPE, NO","FM-12","99999","V020","999,9,C,0000,1","22000,1,9,N","055000,1,N,1","+0187,1","+0136,1","10090,1","12,0000,2,1",,,"1,1,06,1","1,1,06,1",,"03,99,1,02,1,08,1,99999,9,03,1,09,1",,"999,M,+0195,1","99999,9,09992,1","7,1,014,1,+999,9","01,1","SYN088AAXX  09181 01278 11985 30000 10187 20136 39992 40090 57014 69912 70111 82839 333 10195;",
"01278099999","2010-08-10T06:00:00","4","63.7833333","11.6833333","83.0","VERDAL REPPE, NO","FM-12","99999","V020","999,9,C,0000,1","00030,1,9,N","010000,1,N,1","+0137,1","+0128,1","10106,1","12,0000,9,1","24,0000,2,1",,"1,1,06,1","1,1,06,1",,"08,99,1,08,1,06,1,00025,1,99,9,99,9",,"999,N,+0127,1","99999,9,10007,1","2,1,008,1,+999,9","02,1","SYN094AAXX  10061 01278 11060 80000 10137 20128 30007 40106 52008 60002 70211 886// 333 20127 70001;","Q01  00002PRCP12"
"01278099999","2010-08-10T09:00:00","4","63.7833333","11.6833333","83.0","VERDAL REPPE, NO","FM-12","99999","V020","320,1,N,0010,1","00120,1,9,N","015000,1,N,1","+0162,1","+0149,1","10108,1",,,,"2,1,03,1","2,1,03,1",,"08,99,1,08,1,06,1,00150,1,99,9,99,9",,,"99999,9,10010,1","2,1,002,1,+999,9","02,1","SYN072AAXX  10091 01278 41265 83201 10162 20149 30010 40108 52002 70222 886//;",
"01278099999","2010-08-10T12:00:00","4","63.7833333","11.6833333","83.0","VERDAL REPPE, NO","FM-12","99999","V020","999,9,C,0000,1","00210,1,9,N","030000,1,N,1","+0171,1","+0149,1","10102,1",,,,"2,1,06,1","2,1,06,1",,"08,99,1,08,1,06,1,00250,1,99,9,99,9",,,"99999,9,10003,1","8,1,005,1,+999,9","01,1","SYN078AAXX  10121 01278 11380 80000 10171 20149 30003 40102 58005 6//// 70122 886//;",
"01278099999","2010-08-10T18:00:00","4","63.7833333","11.6833333","83.0","VERDAL REPPE, NO","FM-12","99999","V020","999,9,C,0000,1","03000,1,9,N","055000,1,N,1","+0192,1","+0159,1","10090,1","12,0000,9,1",,,"2,1,06,1","2,1,06,1",,"07,99,1,04,1,08,1,01750,1,03,1,09,1",,"999,M,+0192,1","99999,9,09992,1","7,1,006,1,+999,9","02,1","SYN088AAXX  10181 01278 11785 70000 10192 20159 39992 40090 57006 60002 70222 84839 333 10192;","Q01  00002PRCP12"
"01278099999","2010-08-11T06:00:00","4","63.7833333","11.6833333","83.0","VERDAL REPPE, NO","FM-12","99999","V020","150,1,N,0030,1","03000,1,9,N","055000,1,N,1","+0166,1","+0146,1","10087,1","12,0000,9,1","24,0000,9,1",,"1,1,06,1","1,1,06,1",,"07,99,1,01,1,01,1,01750,1,04,1,08,1",,"999,N,+0145,1","99999,9,09988,1","7,1,002,1,+999,9","02,1","SYN094AAXX  11061 01278 11785 71503 10166 20146 39988 40087 57002 60002 70211 81148 333 20145 70000;","Q01  00002PRCP24Q02  00002PRCP12"
"01278099999","2010-08-11T09:00:00","4","63.7833333","11.6833333","83.0","VERDAL REPPE, NO","FM-12","99999","V020","150,1,N,0050,1","03000,1,9,N","055000,1,N,1","+0208,1","+0151,1","10085,1",,,,"2,1,03,1","2,1,03,1",,"07,99,1,01,1,02,1,01250,1,04,1,08,1",,,"99999,9,09988,1","4,1,000,1,+999,9","02,1","SYN072AAXX  11091 01278 41685 71505 10208 20151 39988 40085 54000 70222 81248;",
"01278099999","2010-08-11T12:00:00","4","63.7833333","11.6833333","83.0","VERDAL REPPE, NO","FM-12","99999","V020","150,1,N,0050,1","22000,1,9,N","055000,1,N,1","+0243,1","+0106,1","10083,1",,,,"1,1,06,1","1,1,06,1",,"02,99,1,01,1,02,1,01750,1,00,1,01,1",,,"99999,9,09987,1","4,1,000,1,+999,9","01,1","SYN078AAXX  11121 01278 11785 21505 10243 20106 39987 40083 54000 6//// 70111 81201;",
"01278099999","2010-08-11T18:00:00","4","63.7833333","11.6833333","83.0","VERDAL REPPE, NO","FM-12","99999","V020","999,9,C,0000,1","22000,1,9,N","055000,1,N,1","+0234,1","+0118,1","10098,1","12,0000,9,1",,,"0,1,06,1","0,1,06,1",,"03,99,1,01,1,02,1,01750,1,00,1,02,1",,"999,M,+0261,1","99999,9,10002,1","3,1,012,1,+999,9","02,1","SYN088AAXX  11181 01278 11785 30000 10234 20118 30002 40098 53012 60002 70200 81202 333 10261;","Q01  00002PRCP12"
"01278099999","2010-08-12T06:00:00","4","63.7833333","11.6833333","83.0","VERDAL REPPE, NO","FM-12","99999","V020","140,1,N,0030,1","03000,1,9,N","055000,1,N,1","+0158,1","+0122,1","10141,1","12,0000,9,1","24,0000,9,1",,"1,1,06,1","1,1,06,1",,"08,99,1,03,1,08,1,01750,1,07,1,99,9",,"999,N,+0149,1","99999,9,10042,1","2,1,007,1,+999,9","02,1","SYN094AAXX  12061 01278 11785 81403 10158 20122 30042 40141 52007 60002 70211 8387/ 333 20149 70000;","Q01  00002PRCP24Q02  00002PRCP12"
"01278099999","2010-08-12T09:00:00","4","63.7833333","11.6833333","83.0","VERDAL REPPE, NO","FM-12","99999","V020","150,1,N,0010,1","03000,1,9,N","055000,1,N,1","+0180,1","+0145,1","10153,1",,,,"8,1,03,1","2,1,03,1",,"07,99,1,03,1,08,1,01750,1,07,1,01,1",,,"99999,9,10055,1","2,1,013,1,+999,9","02,1","SYN072AAXX  12091 01278 41785 71501 10180 20145 30055 40153 52013 70282 83871;",
"01278099999","2010-08-12T12:00:00","4","63.7833333","11.6833333","83.0","VERDAL REPPE, NO","FM-12","99999","V020","140,1,N,0010,1","03000,1,9,N","055000,1,N,1","+0216,1","+0145,1","10159,1",,,,"8,1,06,1","2,1,06,1",,"07,99,1,04,1,08,1,01750,1,07,1,02,1",,,"99999,9,10062,1","2,1,006,1,+999,9","02,1","SYN078AAXX  12121 01278 11785 71401 10216 20145 30062 40159 52006 6//// 70282 84872;",
"01278099999","2010-08-12T18:00:00","4","63.7833333","11.6833333","83.0","VERDAL REPPE, NO","FM-12","99999","V020","999,9,C,0000,1","03000,1,9,N","055000,1,N,1","+0200,1","+0156,1","10172,1","12,0000,9,1",,,"2,1,06,1","2,1,06,1",,"05,99,1,03,1,08,1,01750,1,07,1,03,1",,"999,M,+0231,1","99999,9,10075,1","2,1,011,1,+999,9","14,1","SYN088AAXX  12181 01278 11785 50000 10200 20156 30075 40172 52011 69902 71422 83873 333 10231;","Q01  00002PRCP12"
"01278099999","2010-08-13T06:00:00","4","63.7833333","11.6833333","83.0","VERDAL REPPE, NO","FM-12","99999","V020","120,1,N,0030,1","22000,1,9,N","055000,1,N,1","+0147,1","+0136,1","10219,1","12,0000,9,1","24,0000,9,1",,,,,"02,99,1,00,1,00,1,99999,9,00,1,01,1",,"999,N,+0130,1","99999,9,10118,1","2,1,003,1,+999,9",,"SYN094AAXX  13061 01278 11985 21203 10147 20136 30118 40219 52003 60002 7//11 80001 333 20130 79999;","Q01  00002PRCP24Q02  00002PRCP12"
"01278099999","2010-08-13T09:00:00","4","63.7833333","11.6833333","83.0","VERDAL REPPE, NO","FM-12","99999","V020","320,1,N,0010,1","22000,1,9,N","055000,1,N,1","+0184,1","+0158,1","10213,1",,,,"1,1,03,1","1,1,03,1",,"05,99,1,01,1,01,1,01250,1,00,1,01,1",,,"99999,9,10115,1","8,1,003,1,+999,9","02,1","SYN072AAXX  13091 01278 41685 53201 10184 20158 30115 40213 58003 70211 81101;",
"01278099999","2010-08-13T12:00:00","4","63.7833333","11.6833333","83.0","VERDAL REPPE, NO","FM-12","99999","V020","270,1,N,0010,1","07500,1,9,N","055000,1,N,1","+0233,1","+0175,1","10203,1",,,,"2,1,06,1","2,1,06,1",,"05,99,1,02,1,08,1,01750,1,07,1,08,1",,,"99999,9,10106,1","8,1,009,1,+999,9","02,1","SYN078AAXX  13121 01278 11785 52701 10233 20175 30106 40203 58009 6//// 70222 82878;",
"01278099999","2010-08-13T18:00:00","4","63.7833333","11.6833333","83.0","VERDAL REPPE, NO","FM-12","99999","V020","120,1,N,0050,1","03000,1,9,N","030000,1,N,1","+0234,1","+0152,1","10187,1","12,0000,9,1",,,"2,1,06,1","2,1,06,1",,"08,99,1,01,1,01,1,02250,1,07,1,08,1",,"999,M,+0247,1","99999,9,10091,1","7,1,006,1,+999,9","03,1","SYN088AAXX  13181 01278 11880 81205 10234 20152 30091 40187 57006 60002 70322 81178 333 10247;","Q01  00002PRCP12"
"01278099999","2010-08-14T06:00:00","4","63.7833333","11.6833333","83.0","VERDAL REPPE, NO","FM-12","99999","V020","300,1,N,0050,1","03000,1,9,N","055000,1,N,1","+0197,1","+0154,1","10175,1","12,0000,9,1","24,0003,9,1",,"8,1,06,1","2,1,06,1",,"07,99,1,03,1,08,1,00800,1,07,1,99,9",,"999,N,+0197,1","99999,9,10077,1","3,1,010,1,+999,9","02,1","SYN094AAXX  14061 01278 11585 73005 10197 20154 30077 40175 53010 69922 70282 8387/ 333 20197 70002;","Q01  00002PRCP12"
"01278099999","2010-08-14T09:00:00","4","63.7833333","11.6833333","83.0","VERDAL REPPE, NO","FM-12","99999","V020","290,1,N,0050,1","01200,1,9,N","055000,1,N,1","+0183,1","+9999,9","10192,1",,,,"2,1,03,1","2,1,03,1",,"07,99,1,07,1,08,1,00800,1,99,9,99,9",,,"99999,9,10093,1","2,1,016,1,+999,9","02,1","SYN072AAXX  14091 01278 41585 72905 10183 20000 30093 40192 52016 70222 878//;","Q01+000003ATOD  Q02 +00003ATOD  "
"01278099999","2010-08-14T12:00:00","4","63.7833333","11.6833333","83.0","VERDAL REPPE, NO","FM-12","99999","V020","290,1,N,0010,1","00900,1,9,N","055000,1,N,1","+0170,1","+0139,1","10200,1",,,,"2,1,06,1","2,1,06,1",,"08,99,1,08,1,08,1,00450,1,99,9,99,9",,,"99999,9,10101,1","1,1,006,1,+999,9","03,1","SYN078AAXX  14121 01278 11485 82901 10170 20139 30101 40200 51006 6//// 70322 888//;",
"01278099999","2010-08-14T18:00:00","4","63.7833333","11.6833333","83.0","VERDAL REPPE, NO","FM-12","99999","V020","300,1,N,0050,1","00750,1,9,N","055000,1,N,1","+0164,1","+0122,1","10204,1","12,0000,9,1",,,"2,1,06,1","2,1,06,1",,"08,99,1,08,1,05,1,00800,1,99,9,99,9",,"999,M,+0198,1","99999,9,10105,1","4,1,000,1,+999,9","02,1","SYN088AAXX  14181 01278 11585 83005 10164 20122 30105 40204 54000 60002 70222 885// 333 10198;","Q01  00002PRCP12"
"01278099999","2010-08-15T06:00:00","4","63.7833333","11.6833333","83.0","VERDAL REPPE, NO","FM-12","99999","V020","310,1,N,0050,1","03000,1,9,N","003000,1,N,1","+0121,1","+0105,1","10250,1","12,0005,9,1","24,0005,9,1",,"5,1,06,1","2,1,06,1",,"08,99,1,01,1,07,1,01250,1,02,1,99,9",,"999,N,+0120,1","99999,9,10148,1","2,1,006,1,+999,9","52,1","SYN094AAXX  15061 01278 11630 83105 10121 20105 30148 40250 52006 69952 75252 8172/ 333 20120 70005;",
"01278099999","2010-08-15T09:00:00","4","63.7833333","11.6833333","83.0","VERDAL REPPE, NO","FM-12","99999","V020","320,1,N,0050,1","00210,1,9,N","055000,1,N,1","+0135,1","+0107,1","10263,1",,,,"8,1,03,1","5,1,03,1",,"07,99,1,07,1,09,1,00250,1,99,9,99,9",,,"99999,9,10162,1","2,1,013,1,+999,9","02,1","SYN072AAXX  15091 01278 41385 73205 10135 20107 30162 40263 52013 70285 879//;",
"01278099999","2010-08-15T12:00:00","4","63.7833333","11.6833333","83.0","VERDAL REPPE, NO","FM-12","99999","V020","320,1,N,0050,1","01200,1,9,N","075000,1,N,1","+0145,1","+0095,1","10270,1",,,,"2,1,06,1","2,1,06,1",,"07,99,1,07,1,08,1,00800,1,99,9,99,9",,,"99999,9,10170,1","1,1,006,1,+999,9","01,1","SYN078AAXX  15121 01278 11589 73205 10145 20095 30170 40270 51006 6//// 70122 878//;",
"01278099999","2010-08-15T18:00:00","4","63.7833333","11.6833333","83.0","VERDAL REPPE, NO","FM-12","99999","V020","320,1,N,0050,1","22000,1,9,N","075000,1,N,1","+0153,1","+0074,1","10261,1","12,0010,9,1",,,"1,1,06,1","1,1,06,1",,"01,99,1,00,1,00,1,99999,9,00,1,01,1",,"999,M,+0170,1","99999,9,10161,1","7,1,004,1,+999,9","02,1","SYN088AAXX  15181 01278 11989 13205 10153 20074 30161 40261 57004 60012 70211 80001 333 10170;",
"01278099999","2010-08-16T06:00:00","4","63.7833333","11.6833333","83.0","VERDAL REPPE, NO","FM-12","99999","V020","150,1,N,0030,1","22000,1,9,N","075000,1,N,1","+0098,1","+0072,1","10228,1","12,0000,9,1","24,0010,9,1",,"0,1,06,1","0,1,06,1",,"01,99,1,00,1,00,1,99999,9,00,1,01,1",,"999,N,+0058,1","99999,9,10127,1","7,1,015,1,+999,9","02,1","SYN094AAXX  16061 01278 11989 11503 10098 20072 30127 40228 57015 60002 70200 80001 333 20058 70010;","Q01  00002PRCP12"
"01278099999","2010-08-16T09:00:00","4","63.7833333","11.6833333","83.0","VERDAL REPPE, NO","FM-12","99999","V020","120,1,N,0050,1","22000,1,9,N","075000,1,N,1","+0168,1","+0082,1","10209,1",,,,"0,1,03,1","0,1,03,1",,"01,99,1,00,1,00,1,99999,9,00,1,02,1",,,"99999,9,10110,1","7,1,016,1,+999,9","02,1","SYN072AAXX  16091 01278 41989 11205 10168 20082 30110 40209 57016 70200 80002;",
"01278099999","2010-08-16T12:00:00","4","63.7833333","11.6833333","83.0","VERDAL REPPE, NO","FM-12","99999","V020","120,1,N,0050,1","22000,1,9,N","075000,1,N,1","+0216,1","+0101,1","10189,1",,,,"0,1,06,1","0,1,06,1",,"01,99,1,00,1,00,1,99999,9,00,1,02,1",,,"99999,9,10092,1","7,1,018,1,+999,9","02,1","SYN078AAXX  16121 01278 11989 11205 10216 20101 30092 40189 57018 6//// 70200 80002;",
"01278099999","2010-08-16T18:00:00","4","63.7833333","11.6833333","83.0","VERDAL REPPE, NO","FM-12","99999","V020","120,1,N,0050,1","22000,1,9,N","075000,1,N,1","+0222,1","+0083,1","10159,1","12,0000,9,1",,,"0,1,06,1","0,1,06,1",,"01,99,1,00,1,00,1,99999,9,00,1,01,1",,"999,M,+0248,1","99999,9,10062,1","7,1,011,1,+999,9","02,1","SYN088AAXX  16181 01278 11989 11205 10222 20083 30062 40159 57011 60002 70200 80001 333 10248;","Q01  00002PRCP12"
"01278099999","2010-08-17T06:00:00","4","63.7833333","11.6833333","83.0","VERDAL REPPE, NO","FM-12","99999","V020","100,1,N,0030,1","22000,1,9,N","055000,1,N,1","+0143,1","+0105,1","10132,1","12,0000,9,1","24,0000,9,1",,"0,1,06,1","0,1,06,1",,"01,99,1,01,1,00,1,99999,9,08,1,00,1",,"999,N,+0130,1","99999,9,10032,1","7,1,010,1,+999,9","02,1","SYN094AAXX  17061 01278 11985 11003 10143 20105 30032 40132 57010 60002 70200 81080 333 20130 70000;","Q01  00002PRCP24Q02  00002PRCP12"
"01278099999","2010-08-17T09:00:00","4","63.7833333","11.6833333","83.0","VERDAL REPPE, NO","FM-12","99999","V020","090,1,N,0050,1","22000,1,9,N","055000,1,N,1","+0208,1","+0117,1","10114,1",,,,"0,1,03,1","0,1,03,1",,"01,99,1,01,1,04,1,01750,1,00,1,02,1",,,"99999,9,10017,1","7,1,014,1,+999,9","02,1","SYN072AAXX  17091 01278 41785 10905 10208 20117 30017 40114 57014 70200 81402;",
"01278099999","2010-08-17T12:00:00","4","63.7833333","11.6833333","83.0","VERDAL REPPE, NO","FM-12","99999","V020","050,1,N,0050,1","22000,1,9,N","055000,1,N,1","+0230,1","+0123,1","99999,9",,,,"0,1,06,1","0,1,06,1",,"01,99,1,01,1,00,1,02250,1,08,1,01,1",,,,"8,1,022,1,+999,9","02,1","SYN066AAXX  17121 01278 11885 10505 10230 20123 58022 6//// 70200 81081;",
"01278099999","2010-08-17T18:00:00","4","63.7833333","11.6833333","83.0","VERDAL REPPE, NO","FM-12","99999","V020","090,1,N,0050,1","22000,1,9,N","075000,1,N,1","+0233,1","+0129,1","99999,9","12,0000,9,1",,,"0,1,06,1","0,1,06,1",,"01,99,1,01,1,00,1,02250,1,08,1,01,1",,"999,M,+0244,1",,"7,1,013,1,+999,9","02,1","SYN076AAXX  17181 01278 11889 10905 10233 20129 57013 60002 70200 81081 333 10244;","Q01  00002PRCP12"
"01278099999","2010-08-18T06:00:00","4","63.7833333","11.6833333","83.0","VERDAL REPPE, NO","FM-12","99999","V020","140,1,N,0070,1","22000,1,9,N","055000,1,N,1","+0162,1","+0103,1","99999,9","12,0000,9,1","24,0000,9,1",,"0,1,06,1","0,1,06,1",,"01,99,1,01,1,00,1,99999,9,04,1,01,1",,"999,N,+0149,1",,"8,1,007,1,+999,9","02,1","SYN082AAXX  18061 01278 11985 11407 10162 20103 58007 60002 70200 81041 333 20149 70000;","Q01  00002PRCP24Q02  00002PRCP12"
"01278099999","2010-08-18T09:00:00","4","63.7833333","11.6833333","83.0","VERDAL REPPE, NO","FM-12","99999","V020","140,1,N,0100,1","22000,1,9,N","055000,1,N,1","+0180,1","+0071,1","99999,9",,,,"0,1,03,1","0,1,03,1",,"04,99,1,04,1,08,1,01750,1,04,1,00,1",,,,"2,1,009,1,+999,9","03,1","SYN060AAXX  18091 01278 41785 41410 10180 20071 52009 70300 84840;",
"01278099999","2010-08-18T12:00:00","4","63.7833333","11.6833333","83.0","VERDAL REPPE, NO","FM-12","99999","V020","140,1,N,0100,1","01800,1,9,N","055000,1,N,1","+0204,1","+0071,1","10064,1",,,,"1,1,06,1","1,1,06,1",,"05,99,1,05,1,08,1,01750,1,04,1,01,1",,,"99999,9,09967,1","7,1,001,1,+999,9","02,1","SYN078AAXX  18121 01278 11785 51410 10204 20071 39967 40064 57001 6//// 70211 85841;",
"01278099999","2010-08-18T18:00:00","4","63.7833333","11.6833333","83.0","VERDAL REPPE, NO","FM-12","99999","V020","140,1,N,0070,1","22000,1,9,N","055000,1,N,1","+0200,1","+0084,1","10053,1","12,0000,9,1",,,"1,1,06,1","1,1,06,1",,"03,99,1,01,1,01,1,02250,1,04,1,01,1",,"999,M,+0218,1","99999,9,09957,1","7,1,005,1,+999,9","02,1","SYN088AAXX  18181 01278 11885 31407 10200 20084 39957 40053 57005 60002 70211 81141 333 10218;","Q01  00002PRCP12"
"01278099999","2010-08-19T06:00:00","4","63.7833333","11.6833333","83.0","VERDAL REPPE, NO","FM-12","99999","V020","150,1,N,0050,1","22000,1,9,N","055000,1,N,1","+0132,1","+0054,1","10061,1","12,0000,9,1","24,0000,9,1",,"0,1,06,1","0,1,06,1",,"01,99,1,00,1,00,1,99999,9,00,1,01,1",,"999,N,+0120,1","99999,9,09962,1","7,1,002,1,+999,9","02,1","SYN094AAXX  19061 01278 11985 11505 10132 20054 39962 40061 57002 60002 70200 80001 333 20120 70000;","Q01  00002PRCP24Q02  00002PRCP12"
"01278099999","2010-08-19T09:00:00","4","63.7833333","11.6833333","83.0","VERDAL REPPE, NO","FM-12","99999","V020","110,1,N,0050,1","22000,1,9,N","075000,1,N,1","+0162,1","+0019,1","10060,1",,,,"0,1,03,1","0,1,03,1",,"01,99,1,00,1,00,1,99999,9,00,1,01,1",,,"99999,9,09962,1","4,1,000,1,+999,9","02,1","SYN072AAXX  19091 01278 41989 11105 10162 20019 39962 40060 54000 70200 80001;",
"01278099999","2010-08-19T12:00:00","4","63.7833333","11.6833333","83.0","VERDAL REPPE, NO","FM-12","99999","V020","110,1,N,0050,1","22000,1,9,N","075000,1,N,1","+0197,1","+0030,1","10053,1",,,,"0,1,06,1","0,1,06,1",,"02,99,1,00,1,00,1,99999,9,00,1,01,1",,,"99999,9,09957,1","7,1,005,1,+999,9","02,1","SYN078AAXX  19121 01278 11989 21105 10197 20030 39957 40053 57005 6//// 70200 80001;",
"01278099999","2010-08-19T18:00:00","4","63.7833333","11.6833333","83.0","VERDAL REPPE, NO","FM-12","99999","V020","100,1,N,0050,1","22000,1,9,N","075000,1,N,1","+0203,1","+0073,1","10045,1","12,0000,9,1",,,"0,1,06,1","0,1,06,1",,"03,99,1,00,1,00,1,99999,9,00,1,01,1",,"999,M,+0217,1","99999,9,09948,1","7,1,002,1,+999,9","02,1","SYN088AAXX  19181 01278 11989 31005 10203 20073 39948 40045 57002 60002 70200 80001 333 10217;","Q01  00002PRCP12"
"01278099999","2010-08-20T06:00:00","4","63.7833333","11.6833333","83.0","VERDAL REPPE, NO","FM-12","99999","V020","150,1,N,0030,1","03000,1,9,N","055000,1,N,1","+0134,1","+0097,1","10080,1","12,0000,9,1","24,0000,9,1",,"1,1,06,1","1,1,06,1",,"05,99,1,04,1,08,1,01750,1,03,1,02,1",,"999,N,+0119,1","99999,9,09981,1","2,1,007,1,+999,9","03,1","SYN094AAXX  20061 01278 11785 51503 10134 20097 39981 40080 52007 60002 70311 84832 333 20119 70000;","Q01  00002PRCP24Q02  00002PRCP12"
"01278099999","2010-08-20T09:00:00","4","63.7833333","11.6833333","83.0","VERDAL REPPE, NO","FM-12","99999","V020","999,9,C,0000,1","01500,1,9,N","055000,1,N,1","+0168,1","+0113,1","10095,1",,,,"2,1,03,1","2,1,03,1",,"08,99,1,08,1,09,1,01750,1,99,9,99,9",,,"99999,9,09997,1","3,1,017,1,+999,9","15,1","SYN072AAXX  20091 01278 41785 80000 10168 20113 39997 40095 53017 71522 889//;",
"01278099999","2010-08-20T12:00:00","4","63.7833333","11.6833333","83.0","VERDAL REPPE, NO","FM-12","99999","V020","300,1,N,0050,1","03000,1,9,N","005000,1,N,1","+0138,1","+0120,1","10114,1",,,,"6,1,06,1","5,1,06,1",,"08,99,1,02,1,07,1,00075,1,02,1,99,9",,,"99999,9,10015,1","1,1,015,1,+999,9","58,1","SYN078AAXX  20121 01278 11150 83005 10138 20120 30015 40114 51015 6//// 75865 8272/;",
"01278099999","2010-08-20T18:00:00","4","63.7833333","11.6833333","83.0","VERDAL REPPE, NO","FM-12","99999","V020","120,1,N,0030,1","01500,1,9,N","055000,1,N,1","+0124,1","+0108,1","10114,1","12,0041,9,1",,,"8,1,06,1","6,1,06,1",,"07,99,1,07,1,09,1,01750,1,99,9,99,9",,"999,M,+0172,1","99999,9,10015,1","8,1,006,1,+999,9","80,1","SYN088AAXX  20181 01278 11785 71203 10124 20108 30015 40114 58006 60042 78086 879// 333 10172;",
"01278099999","2010-08-21T06:00:00","4","63.7833333","11.6833333","83.0","VERDAL REPPE, NO","FM-12","99999","V020","150,1,N,0050,1","03000,1,9,N","055000,1,N,1","+0107,1","+0096,1","10048,1","12,0000,2,1","24,0036,9,1",,"8,1,06,1","1,1,06,1",,"07,99,1,01,1,09,1,02250,1,07,1,08,1",,"999,N,+0077,1","99999,9,09948,1","6,1,020,1,+999,9","14,1","SYN094AAXX  21061 01278 11885 71505 10107 20096 39948 40048 56020 69912 71481 81978 333 20077 70036;",
"01278099999","2010-08-21T09:00:00","4","63.7833333","11.6833333","83.0","VERDAL REPPE, NO","FM-12","99999","V020","140,1,N,0030,1","03000,1,9,N","055000,1,N,1","+0161,1","+0134,1","10037,1",,,,"2,1,03,1","2,1,03,1",,"06,99,1,01,1,08,1,01250,1,07,1,08,1",,,"99999,9,09940,1","5,1,010,1,+999,9","02,1","SYN072AAXX  21091 01278 41685 61403 10161 20134 39940 40037 55010 70222 81878;",
"01278099999","2010-08-21T12:00:00","4","63.7833333","11.6833333","83.0","VERDAL REPPE, NO","FM-12","99999","V020","280,1,N,0010,1","01500,1,9,N","040000,1,N,1","+0177,1","+0142,1","10041,1",,,,"8,1,06,1","2,1,06,1",,"07,99,1,06,1,08,1,01250,1,06,1,01,1",,,"99999,9,09943,1","3,1,004,1,+999,9","02,1","SYN078AAXX  21121 01278 11682 72801 10177 20142 39943 40041 53004 6//// 70282 86861;",
"01278099999","2010-08-21T18:00:00","4","63.7833333","11.6833333","83.0","VERDAL REPPE, NO","FM-12","99999","V020","999,9,C,0000,1","01200,1,9,N","020000,1,N,1","+0136,1","+0115,1","10058,1","12,0020,9,1",,,"8,1,06,1","2,1,06,1",,"08,99,1,06,1,09,1,01250,1,07,1,99,9",,"999,M,+0201,1","99999,9,09960,1","0,1,007,1,+999,9","80,1","SYN088AAXX  21181 01278 11670 80000 10136 20115 39960 40058 50007 60022 78082 8697/ 333 10201;",
"01278099999","2010-08-22T06:00:00","4","63.7833333","11.6833333","83.0","VERDAL REPPE, NO","FM-12","99999","V020","110,1,N,0030,1","07500,1,9,N","055000,1,N,1","+0113,1","+0099,1","09992,1","12,0000,2,1","24,0015,9,1",,"8,1,06,1","1,1,06,1",,"06,99,1,01,1,08,1,01750,1,00,1,08,1",,"999,N,+0102,1","99999,9,09893,1","6,1,012,1,+999,9","02,1","SYN094AAXX  22061 01278 11785 61103 10113 20099 39893 49992 56012 69912 70281 81808 333 20102 70016;",
"01278099999","2010-08-22T09:00:00","4","63.7833333","11.6833333","83.0","VERDAL REPPE, NO","FM-12","99999","V020","999,9,C,0000,1","03000,1,9,N","055000,1,N,1","+0131,1","+0105,1","10000,1",,,,"8,1,03,1","2,1,03,1",,"07,99,1,03,1,09,1,01750,1,07,1,99,9",,,"99999,9,09902,1","3,1,009,1,+999,9","15,1","SYN072AAXX  22091 01278 41785 70000 10131 20105 39902 40000 53009 71582 8397/;",
"01278099999","2010-08-22T12:00:00","4","63.7833333","11.6833333","83.0","VERDAL REPPE, NO","FM-12","99999","V020","999,9,C,0000,1","03000,1,9,N","030000,1,N,1","+0150,1","+0114,1","10002,1",,,,"8,1,06,1","2,1,06,1",,"08,99,1,04,1,09,1,01750,1,07,1,99,9",,,"99999,9,09905,1","3,1,004,1,+999,9","80,1","SYN078AAXX  22121 01278 11780 80000 10150 20114 39905 40002 53004 6//// 78082 8497/;",
"01278099999","2010-08-22T18:00:00","4","63.7833333","11.6833333","83.0","VERDAL REPPE, NO","FM-12","99999","V020","300,1,N,0010,1","00750,1,9,N","055000,1,N,1","+0132,1","+0111,1","10001,1","12,0010,9,1",,,"8,1,06,1","2,1,06,1",,"08,99,1,08,1,09,1,00800,1,99,9,99,9",,"999,M,+0160,1","99999,9,09902,1","0,1,001,1,+999,9","80,1","SYN088AAXX  22181 01278 11585 83001 10132 20111 39902 40001 50001 60012 78082 889// 333 10160;",
"01278099999","2010-08-23T06:00:00","4","63.7833333","11.6833333","83.0","VERDAL REPPE, NO","FM-12","99999","V020","270,1,N,0030,1","00750,1,9,N","055000,1,N,1","+0108,1","+0091,1","10014,1","12,0061,9,1","24,0069,9,1",,"8,1,06,1","2,1,06,1",,"07,99,1,07,1,09,1,00800,1,99,9,99,9",,"999,N,+0102,1","99999,9,09915,1","0,1,001,1,+999,9","02,1","SYN094AAXX  23061 01278 11585 72703 10108 20091 39915 40014 50001 60062 70282 879// 333 20102 70068;",
"01278099999","2010-08-23T09:00:00","4","63.7833333","11.6833333","83.0","VERDAL REPPE, NO","FM-12","99999","V020","280,1,N,0050,1","01200,1,9,N","055000,1,N,1","+0125,1","+0076,1","10016,1",,,,"2,1,03,1","2,1,03,1",,"07,99,1,06,1,09,1,01250,1,06,1,02,1",,,"99999,9,09917,1","2,1,001,1,+999,9","02,1","SYN072AAXX  23091 01278 41685 72805 10125 20076 39917 40016 52001 70222 86962;",
"01278099999","2010-08-23T12:00:00","4","63.7833333","11.6833333","83.0","VERDAL REPPE, NO","FM-12","99999","V020","290,1,N,0050,1","01500,1,9,N","055000,1,N,1","+0142,1","+0075,1","10019,1",,,,"2,1,06,1","2,1,06,1",,"06,99,1,05,1,09,1,01750,1,03,1,99,9",,,"99999,9,09921,1","2,1,004,1,+999,9","02,1","SYN078AAXX  23121 01278 11785 62905 10142 20075 39921 40019 52004 6//// 70222 8593/;",
"01278099999","2010-08-23T18:00:00","4","63.7833333","11.6833333","83.0","VERDAL REPPE, NO","FM-12","99999","V020","999,9,C,0000,1","22000,1,9,N","055000,1,N,1","+0140,1","+0071,1","10009,1","12,0000,9,1",,,"1,1,06,1","1,1,06,1",,"02,99,1,01,1,04,1,01250,1,00,1,01,1",,"999,M,+0154,1","99999,9,09911,1","8,1,006,1,+999,9","01,1","SYN088AAXX  23181 01278 11685 20000 10140 20071 39911 40009 58006 60002 70111 81401 333 10154;","Q01  00002PRCP12"
"01278099999","2010-08-24T06:00:00","4","63.7833333","11.6833333","83.0","VERDAL REPPE, NO","FM-12","99999","V020","140,1,N,0070,1","03000,1,9,N","075000,1,N,1","+0134,1","+0083,1","09947,1","12,0000,9,1","24,0000,9,1",,"1,1,06,1","1,1,06,1",,"08,99,1,04,1,08,1,00800,1,07,1,99,9",,"999,N,+0075,1","99999,9,09850,1","7,1,012,1,+999,9","03,1","SYN094AAXX  24061 01278 11589 81407 10134 20083 39850 49947 57012 60002 70311 8487/ 333 20075 70000;","Q01  00002PRCP24Q02  00002PRCP12"
"01278099999","2010-08-24T09:00:00","4","63.7833333","11.6833333","83.0","VERDAL REPPE, NO","FM-12","99999","V020","090,1,N,0070,1","00750,1,9,N","075000,1,N,1","+0139,1","+0089,1","09948,1",,,,"2,1,03,1","2,1,03,1",,"08,99,1,08,1,09,1,00800,1,99,9,99,9",,,"99999,9,09851,1","0,1,001,1,+999,9","02,1","SYN072AAXX  24091 01278 41589 80907 10139 20089 39851 49948 50001 70222 889//;",
"01278099999","2010-08-24T12:00:00","4","63.7833333","11.6833333","83.0","VERDAL REPPE, NO","FM-12","99999","V020","120,1,N,0070,1","00750,1,9,N","040000,1,N,1","+0136,1","+0085,1","09941,1",,,,"8,1,06,1","2,1,06,1",,"08,99,1,06,1,09,1,00800,1,07,1,99,9",,,"99999,9,09843,1","8,1,006,1,+999,9","80,1","SYN078AAXX  24121 01278 11582 81207 10136 20085 39843 49941 58006 6//// 78082 8697/;",
"01278099999","2010-08-24T18:00:00","4","63.7833333","11.6833333","83.0","VERDAL REPPE, NO","FM-12","99999","V020","120,1,N,0070,1","03000,1,9,N","055000,1,N,1","+0115,1","+0062,1","09935,1","12,0000,2,1",,,"8,1,06,1","2,1,06,1",,"08,99,1,04,1,09,1,00800,1,02,1,99,9",,"999,M,+0142,1","99999,9,09837,1","7,1,003,1,+999,9","80,1","SYN088AAXX  24181 01278 11585 81207 10115 20062 39837 49935 57003 69902 78082 8492/ 333 10142;",
"01278099999","2010-08-25T06:00:00","4","63.7833333","11.6833333","83.0","VERDAL REPPE, NO","FM-12","99999","V020","140,1,N,0010,1","03000,1,9,N","055000,1,N,1","+0095,1","+0066,1","09950,1","12,0010,9,1","24,0010,9,1",,"8,1,06,1","6,1,06,1",,"08,99,1,01,1,04,1,00800,1,02,1,99,9",,"999,N,+0095,1","99999,9,09851,1","2,1,004,1,+999,9","60,1","SYN094AAXX  25061 01278 11585 81401 10095 20066 39851 49950 52004 60012 76086 8142/ 333 20095 70010;",
"01278099999","2010-08-25T09:00:00","4","63.7833333","11.6833333","83.0","VERDAL REPPE, NO","FM-12","99999","V020","999,9,C,0000,1","00750,1,9,N","055000,1,N,1","+0110,1","+0088,1","09969,1",,,,"6,1,03,1","2,1,03,1",,"08,99,1,07,1,05,1,00800,1,02,1,99,9",,,"99999,9,09871,1","2,1,017,1,+999,9","60,1","SYN072AAXX  25091 01278 41585 80000 10110 20088 39871 49969 52017 76062 8752/;",
"01278099999","2010-08-25T12:00:00","4","63.7833333","11.6833333","83.0","VERDAL REPPE, NO","FM-12","99999","V020","270,1,N,0010,1","01500,1,9,N","055000,1,N,1","+0126,1","+0079,1","09978,1",,,,"6,1,06,1","2,1,06,1",,"08,99,1,06,1,08,1,01250,1,02,1,99,9",,,"99999,9,09880,1","2,1,012,1,+999,9","02,1","SYN078AAXX  25121 01278 11685 82701 10126 20079 39880 49978 52012 6//// 70262 8682/;",
"01278099999","2010-08-25T18:00:00","4","63.7833333","11.6833333","83.0","VERDAL REPPE, NO","FM-12","99999","V020","100,1,N,0010,1","03000,1,9,N","055000,1,N,1","+0117,1","+0072,1","10003,1","12,0000,2,1",,,"2,1,06,1","2,1,06,1",,"08,99,1,04,1,08,1,01750,1,07,1,99,9",,"999,M,+0129,1","99999,9,09905,1","2,1,011,1,+999,9","02,1","SYN088AAXX  25181 01278 11785 81001 10117 20072 39905 40003 52011 69922 70222 8487/ 333 10129;",
"01278099999","2010-08-26T06:00:00","4","63.7833333","11.6833333","83.0","VERDAL REPPE, NO","FM-12","99999","V020","130,1,N,0030,1","01200,1,9,N","055000,1,N,1","+0090,1","+0066,1","10043,1","12,0000,9,1","24,0005,9,1",,"8,1,06,1","2,1,06,1",,"07,99,1,06,1,09,1,01250,1,06,1,99,9",,"999,N,+0082,1","99999,9,09942,1","2,1,004,1,+999,9","02,1","SYN094AAXX  26061 01278 11685 71303 10090 20066 39942 40043 52004 69922 70282 8696/ 333 20082 70004;","Q01  00002PRCP12"
"01278099999","2010-08-26T09:00:00","4","63.7833333","11.6833333","83.0","VERDAL REPPE, NO","FM-12","99999","V020","150,1,N,0010,1","01200,1,9,N","055000,1,N,1","+0112,1","+0069,1","10047,1",,,,"2,1,03,1","2,1,03,1",,"07,99,1,07,1,09,1,01250,1,99,9,99,9",,,"99999,9,09947,1","2,1,006,1,+999,9","02,1","SYN072AAXX  26091 01278 41685 71501 10112 20069 39947 40047 52006 70222 879//;",
"01278099999","2010-08-26T12:00:00","4","63.7833333","11.6833333","83.0","VERDAL REPPE, NO","FM-12","99999","V020","360,1,N,0010,1","22000,1,9,N","055000,1,N,1","+0136,1","+0065,1","10047,1",,,,"2,1,06,1","2,1,06,1",,"04,99,1,04,1,09,1,01750,1,06,1,02,1",,,"99999,9,09948,1","4,1,000,1,+999,9","15,1","SYN078AAXX  26121 01278 11785 43601 10136 20065 39948 40047 54001 6//// 71522 84962;",
"01278099999","2010-08-26T18:00:00","4","63.7833333","11.6833333","83.0","VERDAL REPPE, NO","FM-12","99999","V020","330,1,N,0010,1","01500,1,9,N","055000,1,N,1","+0120,1","+0079,1","10056,1","12,0000,9,1",,,"2,1,06,1","2,1,06,1",,"07,99,1,07,1,09,1,01750,1,99,9,99,9",,"999,M,+0148,1","99999,9,09957,1","2,1,006,1,+999,9","02,1","SYN088AAXX  26181 01278 11785 73301 10120 20079 39957 40056 52006 60002 70222 879// 333 10148;","Q01  00002PRCP12"
"01278099999","2010-08-27T06:00:00","4","63.7833333","11.6833333","83.0","VERDAL REPPE, NO","FM-12","99999","V020","150,1,N,0030,1","00030,1,9,N","000200,1,N,1","+0056,1","+0047,1","10069,1","12,0000,9,1","24,0000,9,1",,"4,1,06,1","2,1,06,1","09,1,+99999,9,99,9","09,99,1,09,1,99,9,99999,9,99,9,99,9",,"999,N,+0056,1","99999,9,09967,1","4,1,000,1,+999,9","42,1","SYN088AAXX  27061 01278 11/02 91503 10056 20047 39967 40069 54001 60002 74242 333 20056 70000;","Q01  00002PRCP24Q02  00002PRCP12"
"01278099999","2010-08-27T09:00:00","4","63.7833333","11.6833333","83.0","VERDAL REPPE, NO","FM-12","99999","V020","110,1,N,0030,1","22000,1,9,N","055000,1,N,1","+0122,1","+0098,1","10069,1",,,,"4,1,03,1","2,1,03,1",,"04,99,1,03,1,08,1,01250,1,07,1,02,1",,,"99999,9,09970,1","2,1,002,1,+999,9","02,1","SYN072AAXX  27091 01278 41685 41103 10122 20098 39970 40069 52002 70242 83872;",
"01278099999","2010-08-27T12:00:00","4","63.7833333","11.6833333","83.0","VERDAL REPPE, NO","FM-12","99999","V020","140,1,N,0030,1","22000,1,9,N","055000,1,N,1","+0152,1","+0080,1","10063,1",,,,"8,1,06,1","4,1,06,1",,"03,99,1,02,1,08,1,01250,1,06,1,03,1",,,"99999,9,09965,1","8,1,005,1,+999,9","02,1","SYN078AAXX  27121 01278 11685 31403 10152 20080 39965 40063 58005 6//// 70284 82863;",
"01278099999","2010-08-27T18:00:00","4","63.7833333","11.6833333","83.0","VERDAL REPPE, NO","FM-12","99999","V020","110,1,N,0050,1","03000,1,9,N","055000,1,N,1","+0132,1","+0061,1","10062,1","12,0000,9,1",,,"2,1,06,1","2,1,06,1",,"06,99,1,01,1,09,1,01750,1,03,1,08,1",,"999,M,+0161,1","99999,9,09962,1","4,1,000,1,+999,9","02,1","SYN088AAXX  27181 01278 11785 61105 10132 20061 39962 40062 54000 69912 70222 81938 333 10161;","Q01  00002PRCP12"
"01278099999","2010-08-28T06:00:00","4","63.7833333","11.6833333","83.0","VERDAL REPPE, NO","FM-12","99999","V020","150,1,N,0030,1","99999,9,9,N","055000,1,N,1","+0096,1","+0067,1","10068,1","12,0000,9,1","24,0000,9,1",,"1,1,06,1","1,1,06,1",,"06,99,1,06,1,00,1,99999,9,03,1,99,9",,"999,N,+0075,1","99999,9,09967,1","7,1,003,1,+999,9","02,1","SYN094AAXX  28061 01278 11985 61503 10096 20067 39967 40068 57003 60002 70211 8603/ 333 20075 70001;","Q01  00002PRCP24Q02  00002PRCP12"
"01278099999","2010-08-28T09:00:00","4","63.7833333","11.6833333","83.0","VERDAL REPPE, NO","FM-12","99999","V020","110,1,N,0050,1","22000,1,9,N","055000,1,N,1","+0128,1","+0066,1","10067,1",,,,"1,1,03,1","1,1,03,1",,"03,99,1,01,1,08,1,01250,1,03,1,01,1",,,"99999,9,09967,1","4,1,000,1,+999,9","01,1","SYN072AAXX  28091 01278 41685 31105 10128 20066 39967 40067 54000 70111 81831;",
"01278099999","2010-08-28T12:00:00","4","63.7833333","11.6833333","83.0","VERDAL REPPE, NO","FM-12","99999","V020","150,1,N,0030,1","22000,1,9,N","075000,1,N,1","+0160,1","+0044,1","10058,1",,,,"1,1,06,1","1,1,06,1",,"04,99,1,04,1,09,1,01250,1,06,1,02,1",,,"99999,9,09960,1","7,1,007,1,+999,9","02,1","SYN078AAXX  28121 01278 11689 41503 10160 20044 39960 40058 57007 6//// 70211 84962;",
"01278099999","2010-08-28T18:00:00","4","63.7833333","11.6833333","83.0","VERDAL REPPE, NO","FM-12","99999","V020","100,1,N,0050,1","03000,1,9,N","055000,1,N,1","+0133,1","+0064,1","10056,1","12,0000,9,1",,,"1,1,06,1","1,1,06,1",,"05,99,1,04,1,09,1,01250,1,06,1,01,1",,"999,M,+0170,1","99999,9,09957,1","2,1,004,1,+999,9","15,1","SYN088AAXX  28181 01278 11685 51005 10133 20064 39957 40056 52004 60002 71511 84961 333 10170;","Q01  00002PRCP12"
"01278099999","2010-08-29T06:00:00","4","63.7833333","11.6833333","83.0","VERDAL REPPE, NO","FM-12","99999","V020","120,1,N,0030,1","01200,1,9,N","075000,1,N,1","+0097,1","+0055,1","10083,1","12,0000,9,1","24,0000,9,1",,"1,1,06,1","1,1,06,1",,"06,99,1,05,1,08,1,00800,1,00,1,02,1",,"999,N,+0074,1","99999,9,09982,1","2,1,009,1,+999,9","02,1","SYN094AAXX  29061 01278 11589 61203 10097 20055 39982 40083 52009 60002 70211 85802 333 20074 70000;","Q01  00002PRCP24Q02  00002PRCP12"
"01278099999","2010-08-29T09:00:00","4","63.7833333","11.6833333","83.0","VERDAL REPPE, NO","FM-12","99999","V020","090,1,N,0030,1","01500,1,9,N","055000,1,N,1","+0130,1","+0059,1","10098,1",,,,"2,1,03,1","2,1,03,1",,"05,99,1,05,1,08,1,01250,1,00,1,01,1",,,"99999,9,09998,1","2,1,015,1,+999,9","02,1","SYN072AAXX  29091 01278 41685 50903 10130 20059 39998 40098 52015 70222 85801;",
"01278099999","2010-08-29T12:00:00","4","63.7833333","11.6833333","83.0","VERDAL REPPE, NO","FM-12","99999","V020","150,1,N,0050,1","01500,1,9,N","055000,1,N,1","+0152,1","+0046,1","10110,1",,,,"2,1,06,1","2,1,06,1",,"06,99,1,05,1,08,1,01250,1,00,1,03,1",,,"99999,9,10012,1","2,1,013,1,+999,9","14,1","SYN078AAXX  29121 01278 11685 61505 10152 20046 30012 40110 52013 6//// 71422 85803;",
"01278099999","2010-08-29T18:00:00","4","63.7833333","11.6833333","83.0","VERDAL REPPE, NO","FM-12","99999","V020","999,9,C,0000,1","03000,1,9,N","055000,1,N,1","+0132,1","+0066,1","10130,1","12,0000,9,1",,,"2,1,06,1","2,1,06,1",,"06,99,1,04,1,09,1,01250,1,06,1,01,1",,"999,M,+0157,1","99999,9,10031,1","2,1,012,1,+999,9","14,1","SYN088AAXX  29181 01278 11685 60000 10132 20066 30031 40130 52012 60002 71422 84961 333 10157;","Q01  00002PRCP12"
"01278099999","2010-08-30T06:00:00","4","63.7833333","11.6833333","83.0","VERDAL REPPE, NO","FM-12","99999","V020","130,1,N,0050,1","01500,1,9,N","055000,1,N,1","+0044,1","+0026,1","10174,1","12,0000,9,1","24,0000,9,1",,"1,1,06,1","1,1,06,1",,"05,99,1,05,1,08,1,01250,1,00,1,01,1",,"999,N,+0040,1","99999,9,10071,1","2,1,006,1,+999,9","02,1","SYN094AAXX  30061 01278 11685 51305 10044 20026 30071 40174 52006 60002 70211 85801 333 20040 70000;","Q01  00002PRCP24Q02  00002PRCP12"
"01278099999","2010-08-30T12:00:00","4","63.7833333","11.6833333","83.0","VERDAL REPPE, NO","FM-12","99999","V020","270,1,N,0030,1","22000,1,9,N","055000,1,N,1","+0141,1","+0069,1","10166,1",,,,"1,1,06,1","1,1,06,1",,"04,99,1,04,1,09,1,01250,1,03,1,02,1",,,"99999,9,10067,1","8,1,007,1,+999,9","15,1","SYN078AAXX  30121 01278 11685 42703 10141 20069 30067 40166 58007 6//// 71511 84932;",
"01278099999","2010-08-30T18:00:00","4","63.7833333","11.6833333","83.0","VERDAL REPPE, NO","FM-12","99999","V020","999,9,C,0000,1","03000,1,9,N","055000,1,N,1","+0117,1","+0072,1","10150,1","12,0000,9,1",,,"8,1,06,1","2,1,06,1",,"07,99,1,04,1,09,1,01750,1,07,1,02,1",,"999,M,+0150,1","99999,9,10050,1","7,1,004,1,+999,9","16,1","SYN088AAXX  30181 01278 11785 70000 10117 20072 30050 40150 57004 69912 71682 84972 333 10150;","Q01  00002PRCP12"
"01278099999","2010-08-31T06:00:00","4","63.7833333","11.6833333","83.0","VERDAL REPPE, NO","FM-12","99999","V020","320,1,N,0030,1","00750,1,9,N","015000,1,N,1","+0092,1","+0075,1","10120,1","12,0051,9,1","24,0056,9,1",,"8,1,06,1","6,1,06,1",,"08,99,1,08,1,00,1,00800,1,02,1,99,9",,"999,N,+0084,1","99999,9,10020,1","5,1,003,1,+999,9","60,1","SYN094AAXX  31061 01278 11565 83203 10092 20075 30020 40120 55003 60052 76086 8802/ 333 20084 70055;",
"01278099999","2010-08-31T09:00:00","4","63.7833333","11.6833333","83.0","VERDAL REPPE, NO","FM-12","99999","V020","290,1,N,0050,1","00750,1,9,N","030000,1,N,1","+0109,1","+0085,1","10130,1",,,,"8,1,03,1","6,1,03,1",,"08,99,1,05,1,09,1,00800,1,02,1,99,9",,,"99999,9,10030,1","2,1,009,1,+999,9","15,1","SYN072AAXX  31091 01278 41580 82905 10109 20085 30030 40130 52009 71586 8592/;",
"01278099999","2010-08-31T12:00:00","4","63.7833333","11.6833333","83.0","VERDAL REPPE, NO","FM-12","99999","V020","270,1,N,0050,1","00750,1,9,N","025000,1,N,1","+0103,1","+0081,1","10128,1",,,,"8,1,06,1","6,1,06,1",,"08,99,1,06,1,09,1,00800,1,02,1,99,9",,,"99999,9,10027,1","7,1,002,1,+999,9","80,1","SYN078AAXX  31121 01278 11575 82705 10103 20081 30027 40128 57002 6//// 78086 8692/;",
"01278099999","2010-08-31T18:00:00","4","63.7833333","11.6833333","83.0","VERDAL REPPE, NO","FM-12","99999","V020","999,9,C,0000,1","00120,1,9,N","055000,1,N,1","+0094,1","+0078,1","10134,1","12,0041,9,1",,,"8,1,06,1","2,1,06,1",,"07,99,1,07,1,09,1,00150,1,99,9,99,9",,"999,M,+0112,1","99999,9,10032,1","1,1,007,1,+999,9","80,1","SYN088AAXX  31181 01278 11285 70000 10094 20078 30032 40134 51007 60042 78082 879// 333 10112;",
"01278099999","2010-09-01T06:00:00","4","63.7833333","11.6833333","83.0","VERDAL REPPE, NO","FM-12","99999","V020","999,9,C,0000,1","00420,1,9,N","055000,1,N,1","+0068,1","+0056,1","10171,1","12,0000,2,1","24,0046,9,1",,"8,1,06,1","2,1,06,1",,"06,99,1,06,1,09,1,00450,1,99,9,99,9",,"999,N,+0059,1","99999,9,10068,1","3,1,007,1,+999,9","02,1","SYN094AAXX  01061 01278 11485 60000 10068 20056 30068 40171 53007 69912 70282 869// 333 20059 70045;",
"01278099999","2010-09-01T09:00:00","4","63.7833333","11.6833333","83.0","VERDAL REPPE, NO","FM-12","99999","V020","330,1,N,0030,1","00750,1,9,N","055000,1,N,1","+0092,1","+0075,1","10179,1",,,,"8,1,03,1","2,1,03,1",,"07,99,1,07,1,09,1,00800,1,99,9,99,9",,,"99999,9,10077,1","2,1,009,1,+999,9","15,1","SYN072AAXX  01091 01278 41585 73303 10092 20075 30077 40179 52009 71582 879//;",
"01278099999","2010-09-01T12:00:00","4","63.7833333","11.6833333","83.0","VERDAL REPPE, NO","FM-12","99999","V020","300,1,N,0050,1","22000,1,9,N","055000,1,N,1","+0108,1","+0056,1","10180,1",,,,"8,1,06,1","1,1,06,1",,"03,99,1,03,1,09,1,01250,1,00,1,00,1",,,"99999,9,10078,1","2,1,001,1,+999,9","01,1","SYN078AAXX  01121 01278 11685 33005 10108 20056 30078 40180 52001 6//// 70181 83900;",
"01278099999","2010-09-01T18:00:00","4","63.7833333","11.6833333","83.0","VERDAL REPPE, NO","FM-12","99999","V020","320,1,N,0050,1","00750,1,9,N","055000,1,N,1","+0100,1","+0052,1","10197,1","12,0000,9,1",,,"8,1,06,1","2,1,06,1",,"06,99,1,06,1,09,1,00800,1,99,9,99,9",,"999,M,+0126,1","99999,9,10096,1","3,1,016,1,+999,9","15,1","SYN088AAXX  01181 01278 11585 63205 10100 20052 30096 40197 53016 69922 71582 869// 333 10126;","Q01  00002PRCP12"
"01278099999","2010-09-02T06:00:00","4","63.7833333","11.6833333","83.0","VERDAL REPPE, NO","FM-12","99999","V020","999,9,C,0000,1","01200,1,9,N","055000,1,N,1","+0065,1","+0055,1","10235,1","12,0005,9,1","24,0005,9,1",,"8,1,06,1","2,1,06,1",,"07,99,1,07,1,08,1,00800,1,99,9,99,9",,"999,N,+0064,1","99999,9,10132,1","3,1,004,1,+999,9","41,1","SYN094AAXX  02061 01278 11585 70000 10065 20055 30132 40235 53004 69942 74182 878// 333 20064 70006;",
"01278099999","2010-09-02T09:00:00","4","63.7833333","11.6833333","83.0","VERDAL REPPE, NO","FM-12","99999","V020","300,1,N,0050,1","00750,1,9,N","055000,1,N,1","+0104,1","+0073,1","10238,1",,,,"2,1,03,1","2,1,03,1",,"07,99,1,07,1,09,1,00800,1,99,9,99,9",,,"99999,9,10137,1","2,1,004,1,+999,9","15,1","SYN072AAXX  02091 01278 41585 73005 10104 20073 30137 40238 52004 71522 879//;",
"01278099999","2010-09-02T12:00:00","4","63.7833333","11.6833333","83.0","VERDAL REPPE, NO","FM-12","99999","V020","280,1,N,0030,1","01500,1,9,N","055000,1,N,1","+0109,1","+0063,1","10237,1",,,,"2,1,06,1","2,1,06,1",,"07,99,1,07,1,08,1,01250,1,99,9,99,9",,,"99999,9,10136,1","7,1,002,1,+999,9","02,1","SYN078AAXX  02121 01278 11685 72803 10109 20063 30136 40237 57002 6//// 70222 878//;",
"01278099999","2010-09-02T18:00:00","4","63.7833333","11.6833333","83.0","VERDAL REPPE, NO","FM-12","99999","V020","150,1,N,0010,1","01500,1,9,N","055000,1,N,1","+0102,1","+0052,1","10232,1","12,0000,9,1",,,"2,1,06,1","2,1,06,1",,"07,99,1,07,1,08,1,01250,1,99,9,99,9",,"999,M,+0118,1","99999,9,10131,1","4,1,000,1,+999,9","02,1","SYN088AAXX  02181 01278 11685 71501 10102 20052 30131 40232 54000 60002 70222 878// 333 10118;","Q01  00002PRCP12"
"01278099999","2010-09-03T06:00:00","4","63.7833333","11.6833333","83.0","VERDAL REPPE, NO","FM-12","99999","V020","150,1,N,0030,1","00420,1,9,N","030000,1,N,1","+0052,1","+0042,1","10229,1","12,0000,9,1","24,0000,9,1",,"2,1,06,1","2,1,06,1",,"07,99,1,07,1,09,1,00450,1,99,9,99,9",,"999,N,+0044,1","99999,9,10126,1","2,1,003,1,+999,9","15,1","SYN094AAXX  03061 01278 11480 71503 10052 20042 30126 40229 52003 60002 71522 879// 333 20044 70000;","Q01  00002PRCP24Q02  00002PRCP12"
"01278099999","2010-09-03T09:00:00","4","63.7833333","11.6833333","83.0","VERDAL REPPE, NO","FM-12","99999","V020","280,1,N,0030,1","01200,1,9,N","055000,1,N,1","+0092,1","+0070,1","10226,1",,,,"2,1,03,1","2,1,03,1",,"07,99,1,05,1,09,1,01250,1,06,1,99,9",,,"99999,9,10123,1","8,1,002,1,+999,9","02,1","SYN072AAXX  03091 01278 41685 72803 10092 20070 30123 40226 58002 70222 8596/;",
"01278099999","2010-09-03T12:00:00","4","63.7833333","11.6833333","83.0","VERDAL REPPE, NO","FM-12","99999","V020","330,1,N,0030,1","01200,1,9,N","055000,1,N,1","+0109,1","+0057,1","10221,1",,,,"2,1,06,1","2,1,06,1",,"07,99,1,07,1,09,1,01250,1,99,9,99,9",,,"99999,9,10120,1","7,1,005,1,+999,9","15,1","SYN078AAXX  03121 01278 11685 73303 10109 20057 30120 40221 57005 6//// 71522 879//;",
"01278099999","2010-09-03T18:00:00","4","63.7833333","11.6833333","83.0","VERDAL REPPE, NO","FM-12","99999","V020","320,1,N,0030,1","22000,1,9,N","075000,1,N,1","+0110,1","+0060,1","10223,1","12,0000,9,1",,,"2,1,06,1","2,1,06,1",,"04,99,1,03,1,08,1,01250,1,06,1,01,1",,"999,M,+0124,1","99999,9,10122,1","2,1,004,1,+999,9","01,1","SYN088AAXX  03181 01278 11689 43203 10110 20060 30122 40223 52004 60002 70122 83861 333 10124;","Q01  00002PRCP12"
"01278099999","2010-09-04T06:00:00","4","63.7833333","11.6833333","83.0","VERDAL REPPE, NO","FM-12","99999","V020","150,1,N,0030,1","01500,1,9,N","075000,1,N,1","+0046,1","+0034,1","10257,1","12,0000,9,1","24,0000,9,1",,"1,1,06,1","1,1,06,1",,"07,99,1,07,1,08,1,01250,1,99,9,99,9",,"999,N,+0026,1","99999,9,10152,1","3,1,009,1,+999,9","02,1","SYN094AAXX  04061 01278 11689 71503 10046 20034 30152 40257 53009 60002 70211 878// 333 20026 70000;","Q01  00002PRCP24Q02  00002PRCP12"
"01278099999","2010-09-04T09:00:00","4","63.7833333","11.6833333","83.0","VERDAL REPPE, NO","FM-12","99999","V020","999,9,C,0000,1","01200,1,9,N","075000,1,N,1","+0080,1","+0061,1","10261,1",,,,"2,1,03,1","2,1,03,1",,"07,99,1,05,1,08,1,00800,1,06,1,99,9",,,"99999,9,10158,1","2,1,005,1,+999,9","01,1","SYN072AAXX  04091 01278 41589 70000 10080 20061 30158 40261 52005 70122 8586/;",
"01278099999","2010-09-04T12:00:00","4","63.7833333","11.6833333","83.0","VERDAL REPPE, NO","FM-12","99999","V020","300,1,N,0050,1","01500,1,9,N","055000,1,N,1","+0116,1","+0063,1","10263,1",,,,"2,1,06,1","2,1,06,1",,"07,99,1,05,1,08,1,01250,1,06,1,01,1",,,"99999,9,10162,1","2,1,003,1,+999,9","02,1","SYN078AAXX  04121 01278 11685 73005 10116 20063 30162 40263 52003 6//// 70222 85861;",
"01278099999","2010-09-04T18:00:00","4","63.7833333","11.6833333","83.0","VERDAL REPPE, NO","FM-12","99999","V020","999,9,C,0000,1","01800,1,9,N","055000,1,N,1","+0125,1","+0074,1","10262,1","12,0000,9,1",,,"2,1,06,1","2,1,06,1",,"07,99,1,05,1,08,1,01750,1,07,1,02,1",,"999,M,+0136,1","99999,9,10161,1","3,1,002,1,+999,9","02,1","SYN088AAXX  04181 01278 11785 70000 10125 20074 30161 40262 53002 60002 70222 85872 333 10136;","Q01  00002PRCP12"
"01278099999","2010-09-05T06:00:00","4","63.7833333","11.6833333","83.0","VERDAL REPPE, NO","FM-12","99999","V020","140,1,N,0010,1","01200,1,9,N","055000,1,N,1","+0056,1","+0046,1","10292,1","12,0000,9,1","24,0000,9,1",,"1,1,06,1","1,1,06,1",,"05,99,1,05,1,05,1,01250,1,99,9,99,9",,"999,N,+0051,1","99999,9,10187,1","2,1,008,1,+999,9","02,1","SYN094AAXX  05061 01278 11685 51401 10056 20046 30187 40292 52008 60002 70211 855// 333 20051 70000;","Q01  00002PRCP24Q02  00002PRCP12"
"01278099999","2010-09-05T09:00:00","4","63.7833333","11.6833333","83.0","VERDAL REPPE, NO","FM-12","99999","V020","999,9,C,0000,1","03000,1,9,N","025000,1,N,1","+0088,1","+0076,1","10298,1",,,,"2,1,03,1","2,1,03,1",,"06,99,1,04,1,06,1,00450,1,06,1,01,1",,,"99999,9,10196,1","2,1,009,1,+999,9","40,1","SYN072AAXX  05091 01278 41475 60000 10088 20076 30196 40298 52009 74022 84661;",
"01278099999","2010-09-05T12:00:00","4","63.7833333","11.6833333","83.0","VERDAL REPPE, NO","FM-12","99999","V020","330,1,N,0050,1","22000,1,9,N","055000,1,N,1","+0135,1","+0086,1","10294,1",,,,"2,1,06,1","2,1,06,1",,"05,99,1,04,1,08,1,01250,1,00,1,08,1",,,"99999,9,10192,1","8,1,003,1,+999,9","02,1","SYN078AAXX  05121 01278 11685 53305 10135 20086 30192 40294 58003 6//// 70222 84808;",
"01278099999","2010-09-05T18:00:00","4","63.7833333","11.6833333","83.0","VERDAL REPPE, NO","FM-12","99999","V020","999,9,C,0000,1","22000,1,9,N","055000,1,N,1","+0142,1","+0090,1","10292,1","12,0000,9,1",,,"1,1,06,1","1,1,06,1",,"04,99,1,01,1,05,1,01750,1,02,1,01,1",,"999,M,+0162,1","99999,9,10192,1","3,1,005,1,+999,9","02,1","SYN088AAXX  05181 01278 11785 40000 10142 20090 30192 40292 53005 60002 70211 81521 333 10162;","Q01  00002PRCP12"
"01278099999","2010-09-06T06:00:00","4","63.7833333","11.6833333","83.0","VERDAL REPPE, NO","FM-12","99999","V020","150,1,N,0030,1","22000,1,9,N","055000,1,N,1","+0054,1","+0044,1","10294,1","12,0000,9,1","24,0000,9,1",,,,"00,1,+99999,9,99,9","00,99,1,00,1,00,1,99999,9,00,1,00,1",,"999,N,+0048,1","99999,9,10190,1","7,1,001,1,+999,9",,"SYN088AAXX  06061 01278 11985 01503 10054 20044 30190 40294 57001 60002 7//00 333 20048 70000;","Q01  00002PRCP24Q02  00002PRCP12"
"01278099999","2010-09-06T09:00:00","4","63.7833333","11.6833333","83.0","VERDAL REPPE, NO","FM-12","99999","V020","999,9,C,0000,1","22000,1,9,N","055000,1,N,1","+0097,1","+0083,1","10288,1",,,,"0,1,03,1","0,1,03,1",,"01,99,1,00,1,00,1,99999,9,00,1,01,1",,,"99999,9,10186,1","7,1,004,1,+999,9","02,1","SYN072AAXX  06091 01278 41985 10000 10097 20083 30186 40288 57004 70200 80001;",
"01278099999","2010-09-06T12:00:00","4","63.7833333","11.6833333","83.0","VERDAL REPPE, NO","FM-12","99999","V020","270,1,N,0030,1","22000,1,9,N","055000,1,N,1","+0163,1","+0113,1","10268,1",,,,"0,1,06,1","0,1,06,1",,"01,99,1,00,1,00,1,99999,9,00,1,01,1",,,"99999,9,10168,1","7,1,017,1,+999,9","02,1","SYN078AAXX  06121 01278 11985 12703 10163 20113 30168 40268 57017 6//// 70200 80001;",
"01278099999","2010-09-06T18:00:00","4","63.7833333","11.6833333","83.0","VERDAL REPPE, NO","FM-12","99999","V020","999,9,C,0000,1","22000,1,9,N","055000,1,N,1","+0179,1","+0124,1","10247,1","12,0000,9,1",,,"0,1,06,1","0,1,06,1",,"01,99,1,00,1,00,1,99999,9,00,1,01,1",,"999,M,+0196,1","99999,9,10147,1","6,1,010,1,+999,9","02,1","SYN088AAXX  06181 01278 11985 10000 10179 20124 30147 40247 56010 60002 70200 80001 333 10196;","Q01  00002PRCP12"
"01278099999","2010-09-07T06:00:00","4","63.7833333","11.6833333","83.0","VERDAL REPPE, NO","FM-12","99999","V020","120,1,N,0010,1","22000,1,9,N","075000,1,N,1","+0104,1","+0073,1","10241,1","12,0000,9,1","24,0000,9,1",,"0,1,06,1","0,1,06,1","00,1,+99999,9,99,9","00,99,1,00,1,00,1,99999,9,00,1,00,1",,"999,N,+0092,1","99999,9,10140,1","7,1,001,1,+999,9","02,1","SYN088AAXX  07061 01278 11989 01201 10104 20073 30140 40241 57001 60002 70200 333 20092 70000;","Q01  00002PRCP24Q02  00002PRCP12"
"01278099999","2010-09-07T09:00:00","4","63.7833333","11.6833333","83.0","VERDAL REPPE, NO","FM-12","99999","V020","999,9,C,0000,1","22000,1,9,N","075000,1,N,1","+0167,1","+0108,1","10232,1",,,,"0,1,03,1","0,1,03,1",,"01,99,1,00,1,00,1,99999,9,00,1,01,1",,,"99999,9,10132,1","8,1,008,1,+999,9","02,1","SYN072AAXX  07091 01278 41989 10000 10167 20108 30132 40232 58008 70200 80001;",
"01278099999","2010-09-07T12:00:00","4","63.7833333","11.6833333","83.0","VERDAL REPPE, NO","FM-12","99999","V020","999,9,C,0000,1","22000,1,9,N","055000,1,N,1","+0194,1","+0122,1","10220,1",,,,"0,1,06,1","0,1,06,1",,"01,99,1,00,1,00,1,99999,9,00,1,01,1",,,"99999,9,10122,1","7,1,013,1,+999,9","02,1","SYN078AAXX  07121 01278 11985 10000 10194 20122 30122 40220 57013 6//// 70200 80001;",
"01278099999","2010-09-07T18:00:00","4","63.7833333","11.6833333","83.0","VERDAL REPPE, NO","FM-12","99999","V020","150,1,N,0030,1","22000,1,9,N","055000,1,N,1","+0193,1","+0114,1","10204,1","12,0000,9,1",,,"0,1,06,1","0,1,06,1",,"01,99,1,00,1,00,1,99999,9,00,1,01,1",,"999,M,+0220,1","99999,9,10106,1","5,1,003,1,+999,9","02,1","SYN088AAXX  07181 01278 11985 11503 10193 20114 30106 40204 55003 60002 70200 80001 333 10220;","Q01  00002PRCP12"
"01278099999","2010-09-08T06:00:00","4","63.7833333","11.6833333","83.0","VERDAL REPPE, NO","FM-12","99999","V020","140,1,N,0050,1","22000,1,9,N","075000,1,N,1","+0098,1","+0072,1","10226,1","12,0000,9,1","24,0000,9,1",,"0,1,06,1","0,1,06,1","00,1,+99999,9,99,9","00,99,1,00,1,00,1,99999,9,00,1,00,1",,"999,N,+0095,1","99999,9,10125,1","2,1,002,1,+999,9","02,1","SYN088AAXX  08061 01278 11989 01405 10098 20072 30125 40226 52002 60002 70200 333 20095 70000;","Q01  00002PRCP24Q02  00002PRCP12"
"01278099999","2010-09-08T09:00:00","4","63.7833333","11.6833333","83.0","VERDAL REPPE, NO","FM-12","99999","V020","140,1,N,0050,1","22000,1,9,N","075000,1,N,1","+0168,1","+0075,1","10221,1",,,,"0,1,03,1","0,1,03,1","00,1,+99999,9,99,9","00,99,1,00,1,00,1,99999,9,00,1,00,1",,,"99999,9,10122,1","7,1,003,1,+999,9","02,1","SYN066AAXX  08091 01278 41989 01405 10168 20075 30122 40221 57003 70200;",
"01278099999","2010-09-08T12:00:00","4","63.7833333","11.6833333","83.0","VERDAL REPPE, NO","FM-12","99999","V020","140,1,N,0050,1","22000,1,9,N","075000,1,N,1","+0210,1","+0058,1","10216,1",,,,"0,1,06,1","0,1,06,1","00,1,+99999,9,99,9","00,99,1,00,1,00,1,99999,9,00,1,00,1",,,"99999,9,10118,1","8,1,003,1,+999,9","02,1","SYN072AAXX  08121 01278 11989 01405 10210 20058 30118 40216 58003 6//// 70200;",
"01278099999","2010-09-08T18:00:00","4","63.7833333","11.6833333","83.0","VERDAL REPPE, NO","FM-12","99999","V020","120,1,N,0030,1","22000,1,9,N","075000,1,N,1","+0187,1","+0069,1","10218,1","12,0000,9,1",,,"0,1,06,1","0,1,06,1",,"01,99,1,00,1,00,1,99999,9,00,1,01,1",,"999,M,+0217,1","99999,9,10120,1","3,1,003,1,+999,9","02,1","SYN088AAXX  08181 01278 11989 11203 10187 20069 30120 40218 53003 60002 70200 80001 333 10217;","Q01  00002PRCP12"
"01278099999","2010-09-09T06:00:00","4","63.7833333","11.6833333","83.0","VERDAL REPPE, NO","FM-12","99999","V020","140,1,N,0050,1","22000,1,9,N","075000,1,N,1","+0100,1","+0065,1","10240,1","12,0000,9,1","24,0000,9,1",,"0,1,06,1","0,1,06,1",,"01,99,1,01,1,00,1,01750,1,04,1,01,1",,"999,N,+0092,1","99999,9,10138,1","3,1,001,1,+999,9","02,1","SYN094AAXX  09061 01278 11789 11405 10100 20065 30138 40240 53001 60002 70200 81041 333 20092 70000;","Q01  00002PRCP24Q02  00002PRCP12"
"01278099999","2010-09-09T09:00:00","4","63.7833333","11.6833333","83.0","VERDAL REPPE, NO","FM-12","99999","V020","150,1,N,0100,1","22000,1,9,N","075000,1,N,1","+0163,1","+0073,1","10231,1",,,,"0,1,03,1","0,1,03,1",,"03,99,1,03,1,08,1,01250,1,00,1,00,1",,,"99999,9,10132,1","5,1,007,1,+999,9","03,1","SYN072AAXX  09091 01278 41689 31510 10163 20073 30132 40231 55007 70300 83800;",
"01278099999","2010-09-09T12:00:00","4","63.7833333","11.6833333","83.0","VERDAL REPPE, NO","FM-12","99999","V020","150,1,N,0070,1","22000,1,9,N","055000,1,N,1","+0187,1","+0065,1","10227,1",,,,"0,1,06,1","0,1,06,1",,"02,99,1,02,1,08,1,01250,1,00,1,01,1",,,"99999,9,10128,1","7,1,004,1,+999,9","02,1","SYN078AAXX  09121 01278 11685 21507 10187 20065 30128 40227 57004 6//// 70200 82801;",
"01278099999","2010-09-09T18:00:00","4","63.7833333","11.6833333","83.0","VERDAL REPPE, NO","FM-12","99999","V020","150,1,N,0070,1","22000,1,9,N","075000,1,N,1","+0156,1","+0061,1","10215,1","12,0000,9,1",,,"0,1,06,1","0,1,06,1",,"01,99,1,01,1,04,1,01250,1,00,1,00,1",,"999,M,+0190,1","99999,9,10116,1","7,1,006,1,+999,9","02,1","SYN088AAXX  09181 01278 11689 11507 10156 20061 30116 40215 57006 60002 70200 81400 333 10190;","Q01  00002PRCP12"
"01278099999","2010-09-10T06:00:00","4","63.7833333","11.6833333","83.0","VERDAL REPPE, NO","FM-12","99999","V020","140,1,N,0010,1","22000,1,9,N","055000,1,N,1","+0114,1","+0067,1","10209,1","12,0000,9,1","24,0000,9,1",,"0,1,06,1","0,1,06,1",,"01,99,1,01,1,04,1,01750,1,00,1,00,1",,"999,N,+0102,1","99999,9,10107,1","7,1,005,1,+999,9","02,1","SYN094AAXX  10061 01278 11785 11401 10114 20067 30107 40209 57005 60002 70200 81400 333 20102 70000;","Q01  00002PRCP24Q02  00002PRCP12"
"01278099999","2010-09-10T09:00:00","4","63.7833333","11.6833333","83.0","VERDAL REPPE, NO","FM-12","99999","V020","150,1,N,0070,1","22000,1,9,N","055000,1,N,1","+0166,1","+0064,1","10205,1",,,,"0,1,03,1","0,1,03,1",,"01,99,1,01,1,08,1,01750,1,04,1,00,1",,,"99999,9,10106,1","7,1,002,1,+999,9","02,1","SYN072AAXX  10091 01278 41785 11507 10166 20064 30106 40205 57002 70200 81840;",
"01278099999","2010-09-10T12:00:00","4","63.7833333","11.6833333","83.0","VERDAL REPPE, NO","FM-12","99999","V020","200,1,N,0070,1","22000,1,9,N","075000,1,N,1","+0176,1","+0028,1","10191,1",,,,"0,1,06,1","0,1,06,1",,"02,99,1,02,1,08,1,01750,1,00,1,02,1",,,"99999,9,10092,1","7,1,013,1,+999,9","02,1","SYN078AAXX  10121 01278 11789 22007 10176 20028 30092 40191 57013 6//// 70200 82802;",
"01278099999","2010-09-10T18:00:00","4","63.7833333","11.6833333","83.0","VERDAL REPPE, NO","FM-12","99999","V020","150,1,N,0070,1","22000,1,9,N","075000,1,N,1","+0153,1","+0038,1","10172,1","12,0000,9,1",,,"0,1,06,1","0,1,06,1",,"01,99,1,01,1,01,1,01750,1,08,1,02,1",,"999,M,+0185,1","99999,9,10072,1","7,1,007,1,+999,9","02,1","SYN088AAXX  10181 01278 11789 11507 10153 20038 30072 40172 57007 60002 70200 81182 333 10185;","Q01  00002PRCP12"
"01278099999","2010-09-11T06:00:00","4","63.7833333","11.6833333","83.0","VERDAL REPPE, NO","FM-12","99999","V020","140,1,N,0070,1","01800,1,9,N","055000,1,N,1","+0132,1","+0072,1","10126,1","12,0000,9,1","24,0000,9,1",,"1,1,06,1","1,1,06,1",,"07,99,1,05,1,08,1,01750,1,07,1,02,1",,"999,N,+0105,1","99999,9,10027,1","6,1,017,1,+999,9","02,1","SYN094AAXX  11061 01278 11785 71407 10132 20072 30027 40126 56017 60002 70211 85872 333 20105 70000;","Q01  00002PRCP24Q02  00002PRCP12"
"01278099999","2010-09-11T09:00:00","4","63.7833333","11.6833333","83.0","VERDAL REPPE, NO","FM-12","99999","V020","150,1,N,0070,1","01500,1,9,N","075000,1,N,1","+0172,1","+0084,1","10119,1",,,,"2,1,03,1","2,1,03,1",,"07,99,1,05,1,08,1,01250,1,03,1,01,1",,,"99999,9,10021,1","7,1,005,1,+999,9","02,1","SYN072AAXX  11091 01278 41689 71507 10172 20084 30021 40119 57005 70222 85831;",
"01278099999","2010-09-11T12:00:00","4","63.7833333","11.6833333","83.0","VERDAL REPPE, NO","FM-12","99999","V020","140,1,N,0070,1","03000,1,9,N","075000,1,N,1","+0178,1","+0084,1","10108,1",,,,"2,1,06,1","2,1,06,1",,"07,99,1,03,1,08,1,01250,1,07,1,01,1",,,"99999,9,10011,1","7,1,011,1,+999,9","02,1","SYN078AAXX  11121 01278 11689 71407 10178 20084 30011 40108 57011 6//// 70222 83871;",
"01278099999","2010-09-11T18:00:00","4","63.7833333","11.6833333","83.0","VERDAL REPPE, NO","FM-12","99999","V020","150,1,N,0050,1","03000,1,9,N","075000,1,N,1","+0165,1","+0090,1","10093,1","12,9999,9,9",,,"8,1,06,1","2,1,06,1",,"07,99,1,01,1,09,1,01250,1,07,1,99,9",,"999,M,+0186,1","99999,9,09995,1","7,1,012,1,+999,9","80,1","SYN088AAXX  11181 01278 11689 71505 10165 20090 39995 40093 57012 69902 78082 8197/ 333 10186;","Q01  00002PRCP12Q02  00002PRCP12"
"01278099999","2010-09-12T06:00:00","4","63.7833333","11.6833333","83.0","VERDAL REPPE, NO","FM-12","99999","V020","999,9,C,0000,1","01500,1,9,N","075000,1,N,1","+0138,1","+0106,1","10060,1","12,0020,9,2","24,0018,9,2",,"8,1,06,1","2,1,06,1",,"07,99,1,07,1,09,1,01750,1,99,9,99,9",,"999,N,+0131,1","99999,9,09962,1","3,1,011,1,+999,9","02,1","SYN094AAXX  12061 01278 11789 70000 10138 20106 39962 40060 53011 60022 70282 879// 333 20131 70019;",
"01278099999","2010-09-12T09:00:00","4","63.7833333","11.6833333","83.0","VERDAL REPPE, NO","FM-12","99999","V020","999,9,C,0000,1","01200,1,9,N","055000,1,N,1","+0146,1","+0119,1","10080,1",,,,"8,1,03,1","2,1,03,1",,"07,99,1,07,1,09,1,01250,1,99,9,99,9",,,"99999,9,09982,1","2,1,019,1,+999,9","80,1","SYN072AAXX  12091 01278 41685 70000 10146 20119 39982 40080 52019 78082 879//;",
"01278099999","2010-09-12T12:00:00","4","63.7833333","11.6833333","83.0","VERDAL REPPE, NO","FM-12","99999","V020","300,1,N,0030,1","01500,1,9,N","055000,1,N,1","+0158,1","+0101,1","10094,1",,,,"8,1,06,1","2,1,06,1",,"07,99,1,07,1,09,1,01750,1,99,9,99,9",,,"99999,9,09996,1","3,1,014,1,+999,9","80,1","SYN078AAXX  12121 01278 11785 73003 10158 20101 39996 40094 53014 6//// 78082 879//;",
"01278099999","2010-09-12T18:00:00","4","63.7833333","11.6833333","83.0","VERDAL REPPE, NO","FM-12","99999","V020","999,9,C,0000,1","03000,1,9,N","055000,1,N,1","+0133,1","+0086,1","10118,1","12,0000,2,1",,,"8,1,06,1","2,1,06,1",,"05,99,1,04,1,09,1,01250,1,06,1,01,1",,"999,M,+0161,1","99999,9,10018,1","2,1,013,1,+999,9","15,1","SYN088AAXX  12181 01278 11685 50000 10133 20086 30018 40118 52013 69902 71582 84961 333 10161;",
"01278099999","2010-09-13T06:00:00","4","63.7833333","11.6833333","83.0","VERDAL REPPE, NO","FM-12","99999","V020","150,1,N,0010,1","01500,1,9,N","030000,1,N,1","+0101,1","+0087,1","10137,1","12,0000,9,1","24,0000,2,1",,"2,1,06,1","2,1,06,1",,"07,99,1,07,1,09,1,01750,1,99,9,99,9",,"999,N,+0095,1","99999,9,10037,1","3,1,002,1,+999,9","15,1","SYN094AAXX  13061 01278 11780 71501 10101 20087 30037 40137 53002 60002 71522 879// 333 20095 79999;","Q01  00002PRCP12"
"01278099999","2010-09-13T09:00:00","4","63.7833333","11.6833333","83.0","VERDAL REPPE, NO","FM-12","99999","V020","999,9,C,0000,1","03000,1,9,N","055000,1,N,1","+0124,1","+0106,1","10136,1",,,,"8,1,03,1","2,1,03,1",,"07,99,1,03,1,09,1,01750,1,07,1,99,9",,,"99999,9,10036,1","4,1,000,1,+999,9","15,1","SYN072AAXX  13091 01278 41785 70000 10124 20106 30036 40136 54001 71582 8397/;",
"01278099999","2010-09-13T12:00:00","4","63.7833333","11.6833333","83.0","VERDAL REPPE, NO","FM-12","99999","V020","280,1,N,0010,1","01800,1,9,N","075000,1,N,1","+0159,1","+0089,1","10120,1",,,,"8,1,06,1","2,1,06,1",,"06,99,1,05,1,08,1,01750,1,06,1,02,1",,,"99999,9,10022,1","8,1,013,1,+999,9","02,1","SYN078AAXX  13121 01278 11789 62801 10159 20089 30022 40120 58013 6//// 70282 85862;",
"01278099999","2010-09-13T18:00:00","4","63.7833333","11.6833333","83.0","VERDAL REPPE, NO","FM-12","99999","V020","140,1,N,0030,1","22000,1,9,N","055000,1,N,1","+0156,1","+0081,1","10069,1","12,0000,9,1",,,"1,1,06,1","1,1,06,1",,"03,99,1,01,1,08,1,01250,1,00,1,08,1",,"999,M,+0181,1","99999,9,09971,1","7,1,027,1,+999,9","01,1","SYN088AAXX  13181 01278 11685 31403 10156 20081 39971 40069 57027 69902 70111 81808 333 10181;","Q01  00002PRCP12"
"01278099999","2010-09-14T06:00:00","4","63.7833333","11.6833333","83.0","VERDAL REPPE, NO","FM-12","99999","V020","120,1,N,0070,1","03000,1,9,N","055000,1,N,1","+0148,1","+0061,1","09943,1","12,0000,9,1","24,0000,9,1",,"1,1,06,1","1,1,06,1",,"08,99,1,04,1,09,1,01250,1,07,1,99,9",,"999,N,+0134,1","99999,9,09846,1","6,1,028,1,+999,9","15,1","SYN094AAXX  14061 01278 11685 81207 10148 20061 39846 49943 56028 60002 71511 8497/ 333 20134 79999;","Q01  00002PRCP24Q02  00002PRCP12"
"01278099999","2010-09-14T09:00:00","4","63.7833333","11.6833333","83.0","VERDAL REPPE, NO","FM-12","99999","V020","999,9,C,0000,1","03000,1,9,N","075000,1,N,1","+0145,1","+0087,1","09925,1",,,,"8,1,03,1","2,1,03,1",,"07,99,1,04,1,09,1,01250,1,07,1,99,9",,,"99999,9,09827,1","6,1,015,1,+999,9","02,1","SYN072AAXX  14091 01278 41689 70000 10145 20087 39827 49925 56015 70282 8497/;",
"01278099999","2010-09-14T12:00:00","4","63.7833333","11.6833333","83.0","VERDAL REPPE, NO","FM-12","99999","V020","100,1,N,0030,1","01200,1,9,N","055000,1,N,1","+0142,1","+0094,1","09925,1",,,,"8,1,06,1","2,1,06,1",,"08,99,1,08,1,09,1,01250,1,99,9,99,9",,,"99999,9,09827,1","4,1,000,1,+999,9","80,1","SYN078AAXX  14121 01278 11685 81003 10142 20094 39827 49925 54000 6//// 78082 889//;",
"01278099999","2010-09-14T18:00:00","4","63.7833333","11.6833333","83.0","VERDAL REPPE, NO","FM-12","99999","V020","150,1,N,0010,1","00420,1,9,N","055000,1,N,1","+0107,1","+0090,1","09890,1","12,0079,9,1",,,"8,1,06,1","2,1,06,1",,"07,99,1,07,1,09,1,00450,1,99,9,99,9",,"999,M,+0152,1","99999,9,09792,1","8,1,020,1,+999,9","80,1","SYN088AAXX  14181 01278 11485 71501 10107 20090 39792 49890 58020 60082 78082 879// 333 10152;",
"01278099999","2010-09-15T06:00:00","4","63.7833333","11.6833333","83.0","VERDAL REPPE, NO","FM-12","99999","V020","270,1,N,0050,1","00750,1,9,N","020000,1,N,1","+0064,1","+0041,1","09852,1","12,0051,9,1","24,0124,9,1",,"8,1,06,1","2,1,06,1",,"07,99,1,07,1,09,1,00800,1,99,9,99,9",,"999,N,+0064,1","99999,9,09752,1","3,1,023,1,+999,9","16,1","SYN094AAXX  15061 01278 11570 72705 10064 20041 39752 49852 53023 60052 71682 879// 333 20064 70125;",
"01278099999","2010-09-15T09:00:00","4","63.7833333","11.6833333","83.0","VERDAL REPPE, NO","FM-12","99999","V020","150,1,N,0010,1","00750,1,9,N","055000,1,N,1","+0066,1","+0046,1","09852,1",,,,"8,1,03,1","2,1,03,1",,"07,99,1,07,1,09,1,00800,1,99,9,99,9",,,"99999,9,09752,1","0,1,001,1,+999,9","02,1","SYN072AAXX  15091 01278 41585 71501 10066 20046 39752 49852 50001 70282 879//;",
"01278099999","2010-09-15T12:00:00","4","63.7833333","11.6833333","83.0","VERDAL REPPE, NO","FM-12","99999","V020","330,1,N,0050,1","01500,1,9,N","055000,1,N,1","+0116,1","+0059,1","09845,1",,,,"8,1,06,1","2,1,06,1",,"07,99,1,07,1,09,1,01750,1,99,9,99,9",,,"99999,9,09747,1","5,1,006,1,+999,9","80,1","SYN078AAXX  15121 01278 11785 73305 10116 20059 39747 49845 55006 6//// 78082 879//;",
"01278099999","2010-09-15T18:00:00","4","63.7833333","11.6833333","83.0","VERDAL REPPE, NO","FM-12","99999","V020","150,1,N,0100,1","01500,1,9,N","015000,1,N,1","+0075,1","+0045,1","09841,1","12,0061,9,1",,,"8,1,06,1","6,1,06,1",,"08,99,1,08,1,00,1,01750,1,02,1,99,9",,"999,M,+0125,1","99999,9,09742,1","8,1,003,1,+999,9","62,1","SYN088AAXX  15181 01278 11765 81510 10075 20045 39742 49841 58003 60062 76286 8802/ 333 10125;",
"01278099999","2010-09-16T06:00:00","4","63.7833333","11.6833333","83.0","VERDAL REPPE, NO","FM-12","99999","V020","150,1,N,0030,1","03000,1,9,N","055000,1,N,1","+0088,1","+0044,1","09830,1","12,0061,9,1","24,0114,9,1",,"6,1,06,1","2,1,06,1",,"08,99,1,03,1,09,1,01750,1,07,1,99,9",,"999,N,+0071,1","99999,9,09732,1","3,1,007,1,+999,9","15,1","SYN094AAXX  16061 01278 11785 81503 10088 20044 39732 49830 53007 60062 71562 8397/ 333 20071 70115;",
"01278099999","2010-09-16T09:00:00","4","63.7833333","11.6833333","83.0","VERDAL REPPE, NO","FM-12","99999","V020","140,1,N,0030,1","03000,1,9,N","075000,1,N,1","+0106,1","+0043,1","09838,1",,,,"2,1,03,1","2,1,03,1",,"07,99,1,01,1,08,1,01750,1,07,1,99,9",,,"99999,9,09741,1","3,1,010,1,+999,9","02,1","SYN072AAXX  16091 01278 41789 71403 10106 20043 39741 49838 53010 70222 8187/;",
"01278099999","2010-09-16T12:00:00","4","63.7833333","11.6833333","83.0","VERDAL REPPE, NO","FM-12","99999","V020","150,1,N,0070,1","01800,1,9,N","075000,1,N,1","+0129,1","+0044,1","09847,1",,,,"2,1,06,1","2,1,06,1",,"07,99,1,07,1,08,1,01750,1,99,9,99,9",,,"99999,9,09750,1","2,1,010,1,+999,9","02,1","SYN078AAXX  16121 01278 11789 71507 10129 20044 39750 49847 52010 6//// 70222 878//;",
"01278099999","2010-09-16T18:00:00","4","63.7833333","11.6833333","83.0","VERDAL REPPE, NO","FM-12","99999","V020","120,1,N,0050,1","03000,1,9,N","055000,1,N,1","+0107,1","+0057,1","09859,1","12,0000,9,1",,,"2,1,06,1","2,1,06,1",,"05,99,1,04,1,09,1,01750,1,04,1,01,1",,"999,M,+0150,1","99999,9,09762,1","2,1,009,1,+999,9","15,1","SYN088AAXX  16181 01278 11785 51205 10107 20057 39762 49859 52009 60002 71522 84941 333 10150;","Q01  00002PRCP12"
"01278099999","2010-09-17T06:00:00","4","63.7833333","11.6833333","83.0","VERDAL REPPE, NO","FM-12","99999","V020","120,1,N,0030,1","00750,1,9,N","075000,1,N,1","+0087,1","+0060,1","09888,1","12,0003,9,1","24,0003,9,1",,"8,1,06,1","2,1,06,1",,"07,99,1,05,1,09,1,00800,1,07,1,99,9",,"999,N,+0087,1","99999,9,09790,1","3,1,006,1,+999,9","80,1","SYN094AAXX  17061 01278 11589 71203 10087 20060 39790 49888 53006 69932 78082 8597/ 333 20087 70003;",
"01278099999","2010-09-17T09:00:00","4","63.7833333","11.6833333","83.0","VERDAL REPPE, NO","FM-12","99999","V020","999,9,C,0000,1","00750,1,9,N","055000,1,N,1","+0096,1","+0072,1","09895,1",,,,"8,1,03,1","2,1,03,1",,"08,99,1,07,1,09,1,00800,1,02,1,99,9",,,"99999,9,09797,1","2,1,008,1,+999,9","80,1","SYN072AAXX  17091 01278 41585 80000 10096 20072 39797 49895 52008 78082 8792/;",
"01278099999","2010-09-17T12:00:00","4","63.7833333","11.6833333","83.0","VERDAL REPPE, NO","FM-12","99999","V020","280,1,N,0010,1","00120,1,9,N","010000,1,N,1","+0109,1","+0092,1","09900,1",,,,"8,1,06,1","2,1,06,1",,"07,99,1,07,1,09,1,00150,1,99,9,99,9",,,"99999,9,09802,1","2,1,005,1,+999,9","15,1","SYN078AAXX  17121 01278 11260 72801 10109 20092 39802 49900 52005 6//// 71582 879//;",
"01278099999","2010-09-17T18:00:00","4","63.7833333","11.6833333","83.0","VERDAL REPPE, NO","FM-12","99999","V020","999,9,C,0000,1","03000,1,9,N","010000,1,N,1","+0097,1","+0085,1","09912,1","12,0071,9,1",,,"6,1,06,1","2,1,06,1",,"08,99,1,04,1,07,1,00025,1,02,1,99,9",,"999,M,+0111,1","99999,9,09813,1","3,1,005,1,+999,9","61,1","SYN088AAXX  17181 01278 11060 80000 10097 20085 39813 49912 53005 60072 76162 8472/ 333 10111;",
"01278099999","2010-09-18T06:00:00","4","63.7833333","11.6833333","83.0","VERDAL REPPE, NO","FM-12","99999","V020","999,9,C,0000,1","01200,1,9,N","020000,1,N,1","+0078,1","+0071,1","09943,1","12,0020,9,1","24,0084,9,1",,"6,1,06,1","4,1,06,1",,"07,99,1,07,1,07,1,01250,1,99,9,99,9",,"999,N,+0075,1","99999,9,09843,1","2,1,008,1,+999,9","40,1","SYN094AAXX  18061 01278 11670 70000 10078 20071 39843 49943 52008 60022 74064 877// 333 20075 70085;",
"01278099999","2010-09-18T09:00:00","4","63.7833333","11.6833333","83.0","VERDAL REPPE, NO","FM-12","99999","V020","999,9,C,0000,1","00120,1,9,N","020000,1,N,1","+0094,1","+0086,1","09957,1",,,,,,,"07,99,1,07,1,07,1,00150,1,99,9,99,9",,,"99999,9,09857,1","3,1,013,1,+999,9",,"SYN072AAXX  18091 01278 41270 70000 10094 20086 39857 49957 53013 7//22 877//;",
"01278099999","2010-09-18T12:00:00","4","63.7833333","11.6833333","83.0","VERDAL REPPE, NO","FM-12","99999","V020","999,9,C,0000,1","00420,1,9,N","055000,1,N,1","+0117,1","+0103,1","09966,1",,,,"2,1,06,1","2,1,06,1",,"07,99,1,07,1,09,1,00450,1,06,1,02,1",,,"99999,9,09867,1","2,1,009,1,+999,9","02,1","SYN078AAXX  18121 01278 11485 70000 10117 20103 39867 49966 52009 6//// 70222 87962;",
"01278099999","2010-09-18T18:00:00","4","63.7833333","11.6833333","83.0","VERDAL REPPE, NO","FM-12","99999","V020","999,9,C,0000,1","00120,1,9,N","055000,1,N,1","+0109,1","+0093,1","09983,1","12,0010,9,1",,,"8,1,06,1","2,1,06,1",,"07,99,1,07,1,09,1,00150,1,99,9,99,9",,"999,M,+0129,1","99999,9,09883,1","3,1,012,1,+999,9","02,1","SYN088AAXX  18181 01278 11285 70000 10109 20093 39883 49983 53012 60012 70282 879// 333 10129;",
"01278099999","2010-09-19T06:00:00","4","63.7833333","11.6833333","83.0","VERDAL REPPE, NO","FM-12","99999","V020","999,9,C,0000,1","01200,1,9,N","055000,1,N,1","+0086,1","+0077,1","10001,1","12,0005,9,1","24,0015,9,1",,"8,1,06,1","2,1,06,1",,"07,99,1,07,1,08,1,00800,1,99,9,99,9",,"999,N,+0085,1","99999,9,09901,1","2,1,003,1,+999,9","02,1","SYN094AAXX  19061 01278 11585 70000 10086 20077 39901 40001 52003 69952 70282 878// 333 20085 70015;",
"01278099999","2010-09-19T09:00:00","4","63.7833333","11.6833333","83.0","VERDAL REPPE, NO","FM-12","99999","V020","280,1,N,0030,1","00420,1,9,N","010000,1,N,1","+0111,1","+0099,1","10008,1",,,,"2,1,03,1","2,1,03,1",,"07,99,1,07,1,09,1,00450,1,99,9,99,9",,,"99999,9,09908,1","2,1,008,1,+999,9","15,1","SYN072AAXX  19091 01278 41460 72803 10111 20099 39908 40008 52008 71522 879//;",
"01278099999","2010-09-19T12:00:00","4","63.7833333","11.6833333","83.0","VERDAL REPPE, NO","FM-12","99999","V020","280,1,N,0010,1","00420,1,9,N","055000,1,N,1","+0106,1","+0092,1","10016,1",,,,"8,1,06,1","2,1,06,1",,"07,99,1,07,1,09,1,00450,1,99,9,99,9",,,"99999,9,09917,1","1,1,008,1,+999,9","02,1","SYN078AAXX  19121 01278 11485 72801 10106 20092 39917 40016 51008 6//// 70282 879//;",
"01278099999","2010-09-19T18:00:00","4","63.7833333","11.6833333","83.0","VERDAL REPPE, NO","FM-12","99999","V020","290,1,N,0030,1","00750,1,9,N","055000,1,N,1","+0102,1","+0078,1","10028,1","12,0020,9,1",,,"8,1,06,1","2,1,06,1",,"07,99,1,07,1,09,1,00800,1,99,9,99,9",,"999,M,+0115,1","99999,9,09928,1","2,1,007,1,+999,9","15,1","SYN088AAXX  19181 01278 11585 72903 10102 20078 39928 40028 52007 60022 71582 879// 333 10115;",
"01278099999","2010-09-20T06:00:00","4","63.7833333","11.6833333","83.0","VERDAL REPPE, NO","FM-12","99999","V020","140,1,N,0030,1","01200,1,9,N","055000,1,N,1","+0084,1","+0065,1","10044,1","12,0000,9,1","24,0020,9,1",,"8,1,06,1","2,1,06,1",,"07,99,1,06,1,08,1,00800,1,04,1,01,1",,"999,N,+0080,1","99999,9,09943,1","4,1,000,1,+999,9","02,1","SYN094AAXX  20061 01278 11585 71403 10084 20065 39943 40044 54001 69912 70282 86841 333 20080 70020;","Q01  00002PRCP12"
"01278099999","2010-09-20T09:00:00","4","63.7833333","11.6833333","83.0","VERDAL REPPE, NO","FM-12","99999","V020","090,1,N,0010,1","22000,1,9,N","055000,1,N,1","+0106,1","+0075,1","10048,1",,,,"1,1,03,1","1,1,03,1",,"03,99,1,02,1,08,1,01250,1,06,1,02,1",,,"99999,9,09948,1","2,1,006,1,+999,9","01,1","SYN072AAXX  20091 01278 41685 30901 10106 20075 39948 40048 52006 70111 82862;",
"01278099999","2010-09-20T12:00:00","4","63.7833333","11.6833333","83.0","VERDAL REPPE, NO","FM-12","99999","V020","999,9,C,0000,1","03000,1,9,N","055000,1,N,1","+0127,1","+0065,1","10043,1",,,,"1,1,06,1","1,1,06,1",,"05,99,1,04,1,08,1,01250,1,07,1,02,1",,,"99999,9,09943,1","7,1,004,1,+999,9","02,1","SYN072AAXX  20121 01278 41685 50000 10127 20065 39943 40043 57004 70211 84872;",
"01278099999","2010-09-20T18:00:00","4","63.7833333","11.6833333","83.0","VERDAL REPPE, NO","FM-12","99999","V020","330,1,N,0010,1","01200,1,9,N","055000,1,N,1","+0088,1","+0059,1","10049,1","12,0020,9,1",,,"8,1,06,1","2,1,06,1",,"07,99,1,07,1,09,1,01250,1,99,9,99,9",,"999,M,+0141,1","99999,9,09948,1","3,1,010,1,+999,9","15,1","SYN088AAXX  20181 01278 11685 73301 10088 20059 39948 40049 53010 60022 71582 879// 333 10141;",
"01278099999","2010-09-21T06:00:00","4","63.7833333","11.6833333","83.0","VERDAL REPPE, NO","FM-12","99999","V020","999,9,C,0000,1","22000,1,9,N","055000,1,N,1","+0068,1","+0058,1","10102,1","12,0020,9,1","24,0038,9,1",,"8,1,06,1","1,1,06,1",,"03,99,1,03,1,09,1,00450,1,00,1,00,1",,"999,N,+0068,1","99999,9,10001,1","2,1,019,1,+999,9","02,1","SYN094AAXX  21061 01278 11485 30000 10068 20058 30001 40102 52019 60022 70281 83900 333 20068 70037;",
"01278099999","2010-09-21T09:00:00","4","63.7833333","11.6833333","83.0","VERDAL REPPE, NO","FM-12","99999","V020","330,1,N,0010,1","00420,1,9,N","055000,1,N,1","+0090,1","+0079,1","10120,1",,,,"8,1,03,1","2,1,03,1",,"07,99,1,07,1,09,1,00450,1,99,9,99,9",,,"99999,9,10018,1","2,1,018,1,+999,9","02,1","SYN072AAXX  21091 01278 41485 73301 10090 20079 30018 40120 52018 70282 879//;",
"01278099999","2010-09-21T12:00:00","4","63.7833333","11.6833333","83.0","VERDAL REPPE, NO","FM-12","99999","V020","290,1,N,0050,1","01200,1,9,N","055000,1,N,1","+0097,1","+0075,1","10136,1",,,,"8,1,06,1","2,1,06,1",,"07,99,1,07,1,09,1,01250,1,99,9,99,9",,,"99999,9,10036,1","3,1,016,1,+999,9","02,1","SYN072AAXX  21121 01278 41685 72905 10097 20075 30036 40136 53016 70282 879//;",
"01278099999","2010-09-21T18:00:00","4","63.7833333","11.6833333","83.0","VERDAL REPPE, NO","FM-12","99999","V020","999,9,C,0000,1","00420,1,9,N","055000,1,N,1","+0087,1","+0065,1","10162,1","12,0010,9,1",,,"8,1,06,1","2,1,06,1",,"07,99,1,07,1,09,1,00450,1,99,9,99,9",,"999,M,+0110,1","99999,9,10061,1","2,1,015,1,+999,9","80,1","SYN088AAXX  21181 01278 11485 70000 10087 20065 30061 40162 52015 60012 78082 879// 333 10110;",
"01278099999","2010-09-22T06:00:00","4","63.7833333","11.6833333","83.0","VERDAL REPPE, NO","FM-12","99999","V020","140,1,N,0050,1","99999,9,9,N","055000,1,N,1","+0060,1","+0046,1","10162,1","12,0010,9,1","24,0018,9,1",,"8,1,06,1","2,1,06,1",,"07,99,1,05,1,00,1,99999,9,03,1,02,1",,"999,N,+0060,1","99999,9,10060,1","7,1,013,1,+999,9","02,1","SYN094AAXX  22061 01278 11985 71405 10060 20046 30060 40162 57013 69992 70282 85032 333 20060 70019;",
"01278099999","2010-09-22T09:00:00","4","63.7833333","11.6833333","83.0","VERDAL REPPE, NO","FM-12","99999","V020","130,1,N,0030,1","99999,9,9,N","030000,1,N,1","+0071,1","+0059,1","10146,1",,,,"6,1,03,1","2,1,03,1",,"08,99,1,08,1,00,1,99999,9,02,1,99,9",,,"99999,9,10043,1","8,1,015,1,+999,9","60,1","SYN072AAXX  22091 01278 41980 81303 10071 20059 30043 40146 58015 76062 8802/;",
"01278099999","2010-09-22T12:00:00","4","63.7833333","11.6833333","83.0","VERDAL REPPE, NO","FM-12","99999","V020","140,1,N,0030,1","02100,1,9,N","020000,1,N,1","+0085,1","+0065,1","10126,1",,,,"6,1,06,1","6,1,06,1",,"08,99,1,08,1,00,1,02250,1,02,1,99,9",,,"99999,9,10025,1","8,1,019,1,+999,9","61,1","SYN072AAXX  22121 01278 41870 81403 10085 20065 30025 40126 58019 76166 8802/;",
"01278099999","2010-09-22T18:00:00","4","63.7833333","11.6833333","83.0","VERDAL REPPE, NO","FM-12","99999","V020","110,1,N,0030,1","02100,1,9,N","030000,1,N,1","+0088,1","+0077,1","10084,1","12,0079,9,1",,,"6,1,06,1","6,1,06,1",,"08,99,1,08,1,00,1,02250,1,02,1,99,9",,"999,M,+0092,1","99999,9,09983,1","8,1,018,1,+999,9","61,1","SYN088AAXX  22181 01278 11880 81103 10088 20077 39983 40084 58018 60082 76166 8802/ 333 10092;",
"01278099999","2010-09-23T06:00:00","4","63.7833333","11.6833333","83.0","VERDAL REPPE, NO","FM-12","99999","V020","999,9,C,0000,1","00030,1,9,N","020000,1,N,1","+0102,1","+0093,1","10030,1","12,0061,9,1","24,0130,9,1",,"8,1,06,1","6,1,06,1",,"08,99,1,08,1,09,1,00025,1,99,9,99,9",,"999,N,+0090,1","99999,9,09931,1","5,1,000,1,+999,9","80,1","SYN094AAXX  23061 01278 11070 80000 10102 20093 39931 40030 55000 60062 78086 889// 333 20090 70130;",
"01278099999","2010-09-23T09:00:00","4","63.7833333","11.6833333","83.0","VERDAL REPPE, NO","FM-12","99999","V020","300,1,N,0030,1","00210,1,9,N","055000,1,N,1","+0098,1","+0087,1","10060,1",,,,"8,1,03,1","2,1,03,1",,"07,99,1,06,1,09,1,00250,1,07,1,99,9",,,"99999,9,09960,1","3,1,029,1,+999,9","02,1","SYN072AAXX  23091 01278 41385 73003 10098 20087 39960 40060 53029 70282 8697/;",
"01278099999","2010-09-23T12:00:00","4","63.7833333","11.6833333","83.0","VERDAL REPPE, NO","FM-12","99999","V020","280,1,N,0050,1","00420,1,9,N","055000,1,N,1","+0101,1","+0085,1","10080,1",,,,"8,1,06,1","2,1,06,1",,"07,99,1,07,1,09,1,00450,1,06,1,99,9",,,"99999,9,09980,1","2,1,018,1,+999,9","16,1","SYN072AAXX  23121 01278 41485 72805 10101 20085 39980 40080 52018 71682 8796/;",
"01278099999","2010-09-23T18:00:00","4","63.7833333","11.6833333","83.0","VERDAL REPPE, NO","FM-12","99999","V020","999,9,C,0000,1","00420,1,9,N","055000,1,N,1","+0085,1","+0061,1","10088,1","12,0020,9,1",,,"8,1,06,1","2,1,06,1",,"07,99,1,06,1,09,1,00450,1,06,1,01,1",,"999,M,+0120,1","99999,9,09987,1","2,1,009,1,+999,9","02,1","SYN088AAXX  23181 01278 11485 70000 10085 20061 39987 40088 52009 60022 70282 86961 333 10120;",
"01278099999","2010-09-24T06:00:00","4","63.7833333","11.6833333","83.0","VERDAL REPPE, NO","FM-12","99999","V020","110,1,N,0030,1","99999,9,9,N","055000,1,N,1","+0036,1","+0027,1","10072,1","24,0020,9,1",,,"4,1,06,1","2,1,06,1",,"07,99,1,07,1,00,1,99999,9,07,1,99,9",,"999,N,+0036,1","99999,9,09970,1","7,1,004,1,+999,9","41,1","SYN088AAXX  24061 01278 31985 71103 10036 20027 39970 40072 57004 74142 8707/ 333 20036 70020;",
"01278099999","2010-09-24T09:00:00","4","63.7833333","11.6833333","83.0","VERDAL REPPE, NO","FM-12","99999","V020","120,1,N,0010,1","99999,9,9,N","055000,1,N,1","+0046,1","+0037,1","10072,1",,,,"2,1,03,1","2,1,03,1",,"07,99,1,07,1,00,1,99999,9,02,1,99,9",,,"99999,9,09970,1","7,1,001,1,+999,9","02,1","SYN072AAXX  24091 01278 41985 71201 10046 20037 39970 40072 57001 70222 8702/;",
"01278099999","2010-09-24T12:00:00","4","63.7833333","11.6833333","83.0","VERDAL REPPE, NO","FM-12","99999","V020","330,1,N,0010,1","03000,1,9,N","055000,1,N,1","+0064,1","+0054,1","10069,1",,,,"2,1,06,1","2,1,06,1",,"07,99,1,01,1,08,1,00800,1,02,1,99,9",,,"99999,9,09967,1","7,1,001,1,+999,9","02,1","SYN072AAXX  24121 01278 41585 73301 10064 20054 39967 40069 57001 70222 8182/;",
"01278099999","2010-09-24T18:00:00","4","63.7833333","11.6833333","83.0","VERDAL REPPE, NO","FM-12","99999","V020","999,9,C,0000,1","03000,1,9,N","055000,1,N,1","+0065,1","+0050,1","10077,1","12,9999,9,9",,,"6,1,06,1","2,1,06,1",,"07,99,1,01,1,07,1,00250,1,02,1,99,9",,"999,M,+0071,1","99999,9,09976,1","3,1,004,1,+999,9","60,1","SYN088AAXX  24181 01278 11385 70000 10065 20050 39976 40077 53004 69902 76062 8172/ 333 10071;","Q01  00002PRCP12Q02  00002PRCP12"
"01278099999","2010-09-25T06:00:00","4","63.7833333","11.6833333","83.0","VERDAL REPPE, NO","FM-12","99999","V020","110,1,N,0030,1","00030,1,9,N","000200,1,N,1","+0028,1","+0021,1","10130,1","12,0000,2,1","24,0000,2,1",,"4,1,06,1","2,1,06,1","09,1,+99999,9,99,9","09,99,1,09,1,99,9,99999,9,99,9,99,9",,"999,N,+0028,1","99999,9,10027,1","2,1,015,1,+999,9","42,1","SYN088AAXX  25061 01278 11/02 91103 10028 20021 30027 40130 52015 69912 74242 333 20028 70001;",
"01278099999","2010-09-25T09:00:00","4","63.7833333","11.6833333","83.0","VERDAL REPPE, NO","FM-12","99999","V020","999,9,C,0000,1","22000,1,9,N","075000,1,N,1","+0046,1","+0039,1","10147,1",,,,"4,1,03,1","1,1,03,1",,"01,99,1,01,1,01,1,01250,1,00,1,01,1",,,"99999,9,10045,1","2,1,018,1,+999,9","01,1","SYN072AAXX  25091 01278 41689 10000 10046 20039 30045 40147 52018 70141 81101;",
"01278099999","2010-09-25T12:00:00","4","63.7833333","11.6833333","83.0","VERDAL REPPE, NO","FM-12","99999","V020","280,1,N,0050,1","22000,1,9,N","075000,1,N,1","+0107,1","+0074,1","10158,1",,,,"4,1,06,1","1,1,06,1",,"02,99,1,02,1,08,1,01250,1,00,1,00,1",,,"99999,9,10057,1","2,1,012,1,+999,9","02,1","SYN072AAXX  25121 01278 41689 22805 10107 20074 30057 40158 52012 70241 82800;",
"01278099999","2010-09-25T18:00:00","4","63.7833333","11.6833333","83.0","VERDAL REPPE, NO","FM-12","99999","V020","340,1,N,0010,1","22000,1,9,N","075000,1,N,1","+0083,1","+0032,1","10185,1",,,,"0,1,06,1","0,1,06,1",,"01,99,1,01,1,04,1,01250,1,00,1,01,1",,"999,M,+0115,1","99999,9,10083,1","3,1,018,1,+999,9","02,1","SYN082AAXX  25181 01278 31689 13401 10083 20032 30083 40185 53018 70200 81401 333 10115;",
"01278099999","2010-09-26T06:00:00","4","63.7833333","11.6833333","83.0","VERDAL REPPE, NO","FM-12","99999","V020","100,1,N,0030,1","22000,1,9,N","055000,1,N,1","-0001,1","-0008,1","10232,1","24,0000,9,1",,,,,,"05,99,1,01,1,04,1,02250,1,00,1,01,1",,"999,N,-0004,1","99999,9,10127,1","2,1,009,1,+999,9",,"SYN088AAXX  26061 01278 31885 51003 11001 21008 30127 40232 52009 7//11 81401 333 21004 70000;","Q01  00002PRCP24"
"01278099999","2010-09-26T09:00:00","4","63.7833333","11.6833333","83.0","VERDAL REPPE, NO","FM-12","99999","V020","100,1,N,0030,1","22000,1,9,N","055000,1,N,1","+0024,1","+0012,1","10242,1",,,,,,,"02,99,1,00,1,00,1,99999,9,00,1,02,1",,,"99999,9,10137,1","2,1,010,1,+999,9",,"SYN072AAXX  26091 01278 41985 21003 10024 20012 30137 40242 52010 7//11 80002;",
"01278099999","2010-09-26T12:00:00","4","63.7833333","11.6833333","83.0","VERDAL REPPE, NO","FM-12","99999","V020","330,1,N,0030,1","22000,1,9,N","055000,1,N,1","+0085,1","+0047,1","10235,1",,,,"0,1,06,1","0,1,06,1",,"01,99,1,01,1,04,1,01750,1,00,1,00,1",,,"99999,9,10132,1","7,1,005,1,+999,9","02,1","SYN072AAXX  26121 01278 41785 13303 10085 20047 30132 40235 57005 70200 81400;",
"01278099999","2010-09-26T18:00:00","4","63.7833333","11.6833333","83.0","VERDAL REPPE, NO","FM-12","99999","V020","120,1,N,0030,1","22000,1,9,N","075000,1,N,1","+0069,1","+0026,1","10235,1",,,,"0,1,06,1","0,1,06,1","00,1,+99999,9,99,9","00,99,1,00,1,00,1,99999,9,00,1,00,1",,"999,M,+0112,1","99999,9,10132,1","3,1,005,1,+999,9","02,1","SYN076AAXX  26181 01278 31989 01203 10069 20026 30132 40235 53005 70200 333 10112;",
"01278099999","2010-09-27T06:00:00","4","63.7833333","11.6833333","83.0","VERDAL REPPE, NO","FM-12","99999","V020","150,1,N,0030,1","22000,1,9,N","075000,1,N,1","+0005,1","-0012,1","10254,1","24,0000,9,1",,,"0,1,06,1","0,1,06,1","00,1,+99999,9,99,9","00,99,1,00,1,00,1,99999,9,00,1,00,1",,"999,N,+0005,1","99999,9,10148,1","2,1,003,1,+999,9","02,1","SYN082AAXX  27061 01278 31989 01503 10005 21012 30148 40254 52003 70200 333 20005 70000;","Q01  00002PRCP24"
"01278099999","2010-09-27T09:00:00","4","63.7833333","11.6833333","83.0","VERDAL REPPE, NO","FM-12","99999","V020","150,1,N,0030,1","22000,1,9,N","075000,1,N,1","+0066,1","+0025,1","10256,1",,,,"0,1,03,1","0,1,03,1","00,1,+99999,9,99,9","00,99,1,00,1,00,1,99999,9,00,1,00,1",,,"99999,9,10152,1","0,1,003,1,+999,9","02,1","SYN066AAXX  27091 01278 41989 01503 10066 20025 30152 40256 50003 70200;",
"01278099999","2010-09-27T12:00:00","4","63.7833333","11.6833333","83.0","VERDAL REPPE, NO","FM-12","99999","V020","120,1,N,0050,1","22000,1,9,N","075000,1,N,1","+0120,1","+0008,1","10250,1",,,,"0,1,06,1","0,1,06,1","00,1,+99999,9,99,9","00,99,1,00,1,00,1,99999,9,00,1,00,1",,,"99999,9,10148,1","7,1,004,1,+999,9","02,1","SYN066AAXX  27121 01278 41989 01205 10120 20008 30148 40250 57004 70200;",
"01278099999","2010-09-27T18:00:00","4","63.7833333","11.6833333","83.0","VERDAL REPPE, NO","FM-12","99999","V020","120,1,N,0030,1","22000,1,9,N","075000,1,N,1","+0084,1","+0011,1","10251,1",,,,"0,1,06,1","0,1,06,1",,"01,99,1,00,1,00,1,99999,9,00,1,02,1",,"999,M,+0130,1","99999,9,10148,1","7,1,004,1,+999,9","02,1","SYN082AAXX  27181 01278 31989 11203 10084 20011 30148 40251 57004 70200 80002 333 10130;",
"01278099999","2010-09-28T06:00:00","4","63.7833333","11.6833333","83.0","VERDAL REPPE, NO","FM-12","99999","V020","150,1,N,0050,1","22000,1,9,N","075000,1,N,1","+0024,1","-0003,1","10244,1","24,0000,9,1",,,"0,1,06,1","0,1,06,1","00,1,+99999,9,99,9","00,99,1,00,1,00,1,99999,9,00,1,00,1",,"999,N,+0015,1","99999,9,10140,1","8,1,003,1,+999,9","02,1","SYN082AAXX  28061 01278 31989 01505 10024 21003 30140 40244 58003 70200 333 20015 70000;","Q01  00002PRCP24"
"01278099999","2010-09-28T09:00:00","4","63.7833333","11.6833333","83.0","VERDAL REPPE, NO","FM-12","99999","V020","150,1,N,0010,1","22000,1,9,N","075000,1,N,1","+0095,1","+0026,1","10244,1",,,,"0,1,03,1","0,1,03,1","00,1,+99999,9,99,9","00,99,1,00,1,00,1,99999,9,00,1,00,1",,,"99999,9,10142,1","2,1,001,1,+999,9","02,1","SYN066AAXX  28091 01278 41989 01501 10095 20026 30142 40244 52001 70200;",
"01278099999","2010-09-28T12:00:00","4","63.7833333","11.6833333","83.0","VERDAL REPPE, NO","FM-12","99999","V020","110,1,N,0030,1","22000,1,9,N","075000,1,N,1","+0135,1","-0009,1","10239,1",,,,"0,1,06,1","0,1,06,1","00,1,+99999,9,99,9","00,99,1,00,1,00,1,99999,9,00,1,00,1",,,"99999,9,10138,1","7,1,004,1,+999,9","02,1","SYN066AAXX  28121 01278 41989 01103 10135 21009 30138 40239 57004 70200;",
"01278099999","2010-09-28T18:00:00","4","63.7833333","11.6833333","83.0","VERDAL REPPE, NO","FM-12","99999","V020","110,1,N,0030,1","22000,1,9,N","075000,1,N,1","+0092,1","+0014,1","10238,1",,,,"0,1,06,1","0,1,06,1",,"01,99,1,00,1,00,1,99999,9,00,1,01,1",,"999,M,+0146,1","99999,9,10136,1","3,1,005,1,+999,9","02,1","SYN082AAXX  28181 01278 31989 11103 10092 20014 30136 40238 53005 70200 80001 333 10146;",
"01278099999","2010-09-29T06:00:00","4","63.7833333","11.6833333","83.0","VERDAL REPPE, NO","FM-12","99999","V020","120,1,N,0050,1","22000,1,9,N","075000,1,N,1","+0005,1","-0014,1","10254,1","24,0000,9,1",,,"0,1,06,1","0,1,06,1",,"01,99,1,00,1,00,1,99999,9,00,1,01,1",,"999,N,+0000,1","99999,9,10148,1","2,1,005,1,+999,9","02,1","SYN088AAXX  29061 01278 31989 11205 10005 21014 30148 40254 52005 70200 80001 333 20000 70000;","Q01  00002PRCP24"
"01278099999","2010-09-29T09:00:00","4","63.7833333","11.6833333","83.0","VERDAL REPPE, NO","FM-12","99999","V020","120,1,N,0030,1","22000,1,9,N","075000,1,N,1","+0045,1","+0014,1","10258,1",,,,"0,1,03,1","0,1,03,1",,"01,99,1,00,1,00,1,99999,9,00,1,01,1",,,"99999,9,10153,1","2,1,005,1,+999,9","02,1","SYN072AAXX  29091 01278 41989 11203 10045 20014 30153 40258 52005 70200 80001;",
"01278099999","2010-09-29T12:00:00","4","63.7833333","11.6833333","83.0","VERDAL REPPE, NO","FM-12","99999","V020","999,9,C,0000,1","22000,1,9,N","075000,1,N,1","+0105,1","+0019,1","10251,1",,,,"0,1,06,1","0,1,06,1",,"04,99,1,00,1,00,1,99999,9,00,1,01,1",,,"99999,9,10150,1","8,1,005,1,+999,9","02,1","SYN072AAXX  29121 01278 41989 40000 10105 20019 30150 40251 58005 70200 80001;",
"01278099999","2010-09-29T18:00:00","4","63.7833333","11.6833333","83.0","VERDAL REPPE, NO","FM-12","99999","V020","120,1,N,0010,1","22000,1,9,N","075000,1,N,1","+0059,1","+0014,1","10241,1",,,,"0,1,06,1","0,1,06,1",,"01,99,1,00,1,00,1,99999,9,00,1,01,1",,"999,M,+0123,1","99999,9,10137,1","7,1,003,1,+999,9","02,1","SYN082AAXX  29181 01278 31989 11201 10059 20014 30137 40241 57003 70200 80001 333 10123;",
"01278099999","2010-09-30T06:00:00","4","63.7833333","11.6833333","83.0","VERDAL REPPE, NO","FM-12","99999","V020","999,9,C,0000,1","22000,1,9,N","075000,1,N,1","+0022,1","-0002,1","10222,1","24,0000,9,1",,,"0,1,06,1","0,1,06,1",,"01,99,1,00,1,00,1,99999,9,00,1,01,1",,"999,N,+0012,1","99999,9,10117,1","5,1,003,1,+999,9","02,1","SYN088AAXX  30061 01278 31989 10000 10022 21002 30117 40222 55003 70200 80001 333 20012 70000;","Q01  00002PRCP24"
"01278099999","2010-09-30T09:00:00","4","63.7833333","11.6833333","83.0","VERDAL REPPE, NO","FM-12","99999","V020","999,9,C,0000,1","22000,1,9,N","075000,1,N,1","+0031,1","+0010,1","10224,1",,,,"0,1,03,1","0,1,03,1",,"01,99,1,00,1,00,1,99999,9,00,1,01,1",,,"99999,9,10120,1","0,1,002,1,+999,9","02,1","SYN072AAXX  30091 01278 41989 10000 10031 20010 30120 40224 50002 70200 80001;",
"01278099999","2010-09-30T12:00:00","4","63.7833333","11.6833333","83.0","VERDAL REPPE, NO","FM-12","99999","V020","280,1,N,0010,1","22000,1,9,N","075000,1,N,1","+0100,1","+0044,1","10215,1",,,,"0,1,06,1","0,1,06,1",,"01,99,1,00,1,00,1,99999,9,00,1,02,1",,,"99999,9,10113,1","7,1,007,1,+999,9","02,1","SYN072AAXX  30121 01278 41989 12801 10100 20044 30113 40215 57007 70200 80002;",
"01278099999","2010-09-30T18:00:00","4","63.7833333","11.6833333","83.0","VERDAL REPPE, NO","FM-12","99999","V020","110,1,N,0010,1","22000,1,9,N","075000,1,N,1","+0075,1","+0043,1","10204,1",,,,"0,1,06,1","0,1,06,1",,"01,99,1,00,1,00,1,99999,9,00,1,02,1",,"999,M,+0122,1","99999,9,10102,1","7,1,002,1,+999,9","02,1","SYN082AAXX  30181 01278 31989 11101 10075 20043 30102 40204 57002 70200 80002 333 10122;",
"01278099999","2010-10-01T06:00:00","4","63.7833333","11.6833333","83.0","VERDAL REPPE, NO","FM-12","99999","V020","140,1,N,0010,1","22000,1,9,N","070000,1,N,1","+0042,1","+0012,1","10198,1","24,0000,9,1",,,"0,1,06,1","0,1,06,1","00,1,+99999,9,99,9","00,99,1,00,1,00,1,99999,9,00,1,00,1",,"999,N,+0036,1","99999,9,10095,1","7,1,001,1,+999,9","02,1","SYN082AAXX  01061 01278 31988 01401 10042 20012 30095 40198 57001 70200 333 20036 70000;","Q01  00002PRCP24"
"01278099999","2010-10-01T09:00:00","4","63.7833333","11.6833333","83.0","VERDAL REPPE, NO","FM-12","99999","V020","130,1,N,0030,1","22000,1,9,N","075000,1,N,1","+0076,1","+0027,1","10198,1",,,,"0,1,03,1","0,1,03,1",,"01,99,1,00,1,00,1,99999,9,00,1,01,1",,,"99999,9,10096,1","4,1,000,1,+999,9","02,1","SYN072AAXX  01091 01278 41989 11303 10076 20027 30096 40198 54000 70200 80001;",
"01278099999","2010-10-01T12:00:00","4","63.7833333","11.6833333","83.0","VERDAL REPPE, NO","FM-12","99999","V020","999,9,C,0000,1","22000,1,9,N","075000,1,N,1","+0150,1","+0063,1","10185,1",,,,"0,1,06,1","0,1,06,1",,"01,99,1,00,1,00,1,99999,9,00,1,01,1",,,"99999,9,10086,1","7,1,010,1,+999,9","02,1","SYN072AAXX  01121 01278 41989 10000 10150 20063 30086 40185 57010 70200 80001;",
"01278099999","2010-10-01T18:00:00","4","63.7833333","11.6833333","83.0","VERDAL REPPE, NO","FM-12","99999","V020","110,1,N,0010,1","22000,1,9,N","075000,1,N,1","+0120,1","+0011,1","10178,1",,,,"0,1,06,1","0,1,06,1",,"01,99,1,01,1,04,1,02250,1,00,1,00,1",,"999,M,+0170,1","99999,9,10077,1","3,1,004,1,+999,9","02,1","SYN082AAXX  01181 01278 31889 11101 10120 20011 30077 40178 53004 70200 81400 333 10170;",
"01278099999","2010-10-02T06:00:00","4","63.7833333","11.6833333","83.0","VERDAL REPPE, NO","FM-12","99999","V020","150,1,N,0070,1","22000,1,9,N","075000,1,N,1","+0082,1","+0002,1","10168,1","24,0000,9,1",,,"0,1,06,1","0,1,06,1",,"01,99,1,01,1,01,1,01250,1,00,1,02,1",,"999,N,+0074,1","99999,9,10067,1","7,1,005,1,+999,9","02,1","SYN088AAXX  02061 01278 31689 11507 10082 20002 30067 40168 57005 70200 81102 333 20074 70000;","Q01  00002PRCP24"
"01278099999","2010-10-02T09:00:00","4","63.7833333","11.6833333","83.0","VERDAL REPPE, NO","FM-12","99999","V020","150,1,N,0070,1","22000,1,9,N","075000,1,N,1","+0108,1","+0008,1","10174,1",,,,"0,1,03,1","0,1,03,1",,"01,99,1,01,1,04,1,01750,1,00,1,01,1",,,"99999,9,10073,1","3,1,006,1,+999,9","02,1","SYN072AAXX  02091 01278 41789 11507 10108 20008 30073 40174 53006 70200 81401;",
"01278099999","2010-10-02T12:00:00","4","63.7833333","11.6833333","83.0","VERDAL REPPE, NO","FM-12","99999","V020","150,1,N,0100,1","22000,1,9,N","075000,1,N,1","+0130,1","+0014,1","10173,1",,,,"0,1,06,1","0,1,06,1",,"01,99,1,01,1,01,1,01250,1,00,1,02,1",,,"99999,9,10072,1","5,1,003,1,+999,9","02,1","SYN072AAXX  02121 01278 41689 11510 10130 20014 30072 40173 55003 70200 81102;",
"01278099999","2010-10-02T18:00:00","4","63.7833333","11.6833333","83.0","VERDAL REPPE, NO","FM-12","99999","V020","110,1,N,0070,1","22000,1,9,N","075000,1,N,1","+0092,1","+0001,1","10178,1",,,,"0,1,06,1","0,1,06,1",,"02,99,1,01,1,04,1,01750,1,07,1,00,1",,"999,M,+0136,1","99999,9,10077,1","3,1,008,1,+999,9","02,1","SYN082AAXX  02181 01278 31789 21107 10092 20001 30077 40178 53008 70200 81470 333 10136;",
"01278099999","2010-10-03T06:00:00","4","63.7833333","11.6833333","83.0","VERDAL REPPE, NO","FM-12","99999","V020","120,1,N,0070,1","03000,1,9,N","055000,1,N,1","+0102,1","+0021,1","10136,1","24,0000,9,1",,,"1,1,06,1","1,1,06,1",,"07,99,1,01,1,08,1,01250,1,07,1,01,1",,"999,N,+0090,1","99999,9,10036,1","8,1,010,1,+999,9","02,1","SYN088AAXX  03061 01278 31685 71207 10102 20021 30036 40136 58010 70211 81871 333 20090 70000;","Q01  00002PRCP24"
"01278099999","2010-10-03T09:00:00","4","63.7833333","11.6833333","83.0","VERDAL REPPE, NO","FM-12","99999","V020","140,1,N,0100,1","03000,1,9,N","055000,1,N,1","+0113,1","+0018,1","10132,1",,,,"2,1,03,1","2,1,03,1",,"07,99,1,04,1,09,1,01250,1,07,1,99,9",,,"99999,9,10032,1","8,1,003,1,+999,9","15,1","SYN072AAXX  03091 01278 41685 71410 10113 20018 30032 40132 58003 71522 8497/;",
"01278099999","2010-10-03T12:00:00","4","63.7833333","11.6833333","83.0","VERDAL REPPE, NO","FM-12","99999","V020","150,1,N,0070,1","03000,1,9,N","055000,1,N,1","+0116,1","+0024,1","10130,1",,,,"2,1,06,1","2,1,06,1",,"08,99,1,04,1,09,1,01750,1,07,1,99,9",,,"99999,9,10030,1","8,1,006,1,+999,9","15,1","SYN072AAXX  03121 01278 41785 81507 10116 20024 30030 40130 58006 71522 8497/;",
"01278099999","2010-10-03T18:00:00","4","63.7833333","11.6833333","83.0","VERDAL REPPE, NO","FM-12","99999","V020","120,1,N,0100,1","03000,1,9,N","030000,1,N,1","+0118,1","+0052,1","10093,1","12,0030,9,1",,,"8,1,06,1","2,1,06,1",,"08,99,1,03,1,09,1,01250,1,07,1,99,9",,"999,M,+0120,1","99999,9,09993,1","5,1,010,1,+999,9","80,1","SYN088AAXX  03181 01278 11680 81210 10118 20052 39993 40093 55010 60032 78082 8397/ 333 10120;",
"01278099999","2010-10-04T06:00:00","4","63.7833333","11.6833333","83.0","VERDAL REPPE, NO","FM-12","99999","V020","150,1,N,0070,1","03000,1,9,N","055000,1,N,1","+0138,1","+0062,1","10056,1","12,0000,2,1","24,0025,9,1",,"8,1,06,1","2,1,06,1",,"07,99,1,03,1,09,1,01750,1,07,1,01,1",,"999,N,+0120,1","99999,9,09957,1","5,1,010,1,+999,9","80,1","SYN094AAXX  04061 01278 11785 71507 10138 20062 39957 40056 55010 69902 78082 83971 333 20120 70025;",
"01278099999","2010-10-04T09:00:00","4","63.7833333","11.6833333","83.0","VERDAL REPPE, NO","FM-12","99999","V020","140,1,N,0070,1","03000,1,9,N","075000,1,N,1","+0127,1","+0056,1","10053,1",,,,"8,1,03,1","2,1,03,1",,"08,99,1,04,1,09,1,01750,1,07,1,99,9",,,"99999,9,09953,1",,"15,1","SYN066AAXX  04091 01278 41789 81407 10127 20056 39953 40053 71582 8497/;",
"01278099999","2010-10-04T12:00:00","4","63.7833333","11.6833333","83.0","VERDAL REPPE, NO","FM-12","99999","V020","150,1,N,0070,1","03000,1,9,N","030000,1,N,1","+0138,1","+0069,1","10058,1",,,,"8,1,06,1","2,1,06,1",,"08,99,1,04,1,09,1,01250,1,02,1,99,9",,,"99999,9,09960,1","3,1,006,1,+999,9","80,1","SYN072AAXX  04121 01278 41680 81507 10138 20069 39960 40058 53006 78082 8492/;",
"01278099999","2010-10-04T18:00:00","4","63.7833333","11.6833333","83.0","VERDAL REPPE, NO","FM-12","99999","V020","150,1,N,0070,1","01500,1,9,N","030000,1,N,1","+0126,1","+0075,1","10057,1","12,0020,9,1",,,"8,1,06,1","2,1,06,1",,"08,99,1,08,1,09,1,01750,1,99,9,99,9",,"999,M,+0141,1","99999,9,09957,1","0,1,002,1,+999,9","80,1","SYN088AAXX  04181 01278 11780 81507 10126 20075 39957 40057 50002 60022 78082 889// 333 10141;",
"01278099999","2010-10-05T06:00:00","4","63.7833333","11.6833333","83.0","VERDAL REPPE, NO","FM-12","99999","V020","100,1,N,0070,1","03000,1,9,N","020000,1,N,1","+0124,1","+0079,1","10051,1","12,0030,9,1","24,0051,9,1",,"8,1,06,1","6,1,06,1",,"08,99,1,02,1,07,1,01750,1,02,1,99,9",,"999,N,+0120,1","99999,9,09952,1","8,1,006,1,+999,9","60,1","SYN094AAXX  05061 01278 11770 81007 10124 20079 39952 40051 58006 60032 76086 8272/ 333 20120 70050;",
"01278099999","2010-10-05T09:00:00","4","63.7833333","11.6833333","83.0","VERDAL REPPE, NO","FM-12","99999","V020","150,1,N,0100,1","01500,1,9,N","025000,1,N,1","+0134,1","+0081,1","10059,1",,,,"8,1,03,1","6,1,03,1",,"07,99,1,05,1,09,1,01750,1,07,1,99,9",,,"99999,9,09961,1","3,1,009,1,+999,9","80,1","SYN072AAXX  05091 01278 41775 71510 10134 20081 39961 40059 53009 78086 8597/;",
"01278099999","2010-10-05T12:00:00","4","63.7833333","11.6833333","83.0","VERDAL REPPE, NO","FM-12","99999","V020","150,1,N,0070,1","03000,1,9,N","025000,1,N,1","+0153,1","+0081,1","10060,1",,,,"8,1,06,1","2,1,06,1",,"07,99,1,03,1,09,1,01750,1,07,1,01,1",,,"99999,9,09962,1","5,1,001,1,+999,9","15,1","SYN072AAXX  05121 01278 41775 71507 10153 20081 39962 40060 55001 71582 83971;",
"01278099999","2010-10-05T18:00:00","4","63.7833333","11.6833333","83.0","VERDAL REPPE, NO","FM-12","99999","V020","150,1,N,0070,1","99999,9,9,N","025000,1,N,1","+0148,1","+0081,1","10072,1","12,0005,9,1",,,"8,1,06,1","2,1,06,1",,"08,99,1,08,1,00,1,99999,9,07,1,99,9",,"999,M,+0156,1","99999,9,09973,1","7,1,001,1,+999,9","02,1","SYN088AAXX  05181 01278 11975 81507 10148 20081 39973 40072 57001 69962 70282 8807/ 333 10156;",
"01278099999","2010-10-06T06:00:00","4","63.7833333","11.6833333","83.0","VERDAL REPPE, NO","FM-12","99999","V020","100,1,N,0010,1","03000,1,9,N","055000,1,N,1","+0127,1","+0056,1","10084,1","24,0005,9,1",,,"2,1,06,1","2,1,06,1",,"07,99,1,03,1,09,1,01250,1,07,1,02,1",,"999,N,+0127,1","99999,9,09985,1","3,1,011,1,+999,9","15,1","SYN088AAXX  06061 01278 31685 71001 10127 20056 39985 40084 53011 71522 83972 333 20127 70006;",
"01278099999","2010-10-06T09:00:00","4","63.7833333","11.6833333","83.0","VERDAL REPPE, NO","FM-12","99999","V020","150,1,N,0070,1","03000,1,9,N","055000,1,N,1","+0129,1","+0056,1","10091,1",,,,"8,1,03,1","2,1,03,1",,"08,99,1,03,1,09,1,01250,1,07,1,99,9",,,"99999,9,09992,1","0,1,011,1,+999,9","80,1","SYN072AAXX  06091 01278 41685 81507 10129 20056 39992 40091 50011 78082 8397/;",
"01278099999","2010-10-06T12:00:00","4","63.7833333","11.6833333","83.0","VERDAL REPPE, NO","FM-12","99999","V020","100,1,N,0050,1","03000,1,9,N","055000,1,N,1","+0125,1","+0072,1","10092,1",,,,"8,1,06,1","2,1,06,1",,"08,99,1,04,1,09,1,01250,1,07,1,99,9",,,"99999,9,09992,1","0,1,000,1,+999,9","80,1","SYN072AAXX  06121 01278 41685 81005 10125 20072 39992 40092 50000 78082 8497/;",
"01278099999","2010-10-06T18:00:00","4","63.7833333","11.6833333","83.0","VERDAL REPPE, NO","FM-12","99999","V020","150,1,N,0070,1","03000,1,9,N","055000,1,N,1","+0130,1","+0070,1","10070,1","12,0020,9,1",,,"8,1,06,1","2,1,06,1",,"08,99,1,01,1,09,1,01250,1,07,1,99,9",,"999,M,+0141,1","99999,9,09971,1","5,1,013,1,+999,9","80,1","SYN088AAXX  06181 01278 11685 81507 10130 20070 39971 40070 55013 60022 78082 8197/ 333 10141;",
"01278099999","2010-10-07T06:00:00","4","63.7833333","11.6833333","83.0","VERDAL REPPE, NO","FM-12","99999","V020","330,1,N,0010,1","22000,1,9,N","055000,1,N,1","+0127,1","+0052,1","10119,1","12,0000,2,1","24,0015,9,1",,"1,1,06,1","1,1,06,1",,"03,99,1,03,1,05,1,01750,1,00,1,01,1",,"999,N,+0127,1","99999,9,10020,1","3,1,067,2,+999,9","02,1","SYN094AAXX  07061 01278 11785 33301 10127 20052 30020 40119 53067 69902 70211 83501 333 20127 70016;","Q01+000672APC3  "
"01278099999","2010-10-07T09:00:00","4","63.7833333","11.6833333","83.0","VERDAL REPPE, NO","FM-12","99999","V020","999,9,C,0000,1","22000,1,9,N","055000,1,N,1","+0131,1","+0058,1","10165,1",,,,"0,1,03,1","0,1,03,1",,"04,99,1,04,1,08,1,01750,1,00,1,00,1",,,"99999,9,10065,1","2,1,045,1,+999,9","02,1","SYN072AAXX  07091 01278 41785 40000 10131 20058 30065 40165 52045 70200 84800;",
"01278099999","2010-10-07T12:00:00","4","63.7833333","11.6833333","83.0","VERDAL REPPE, NO","FM-12","99999","V020","330,1,N,0010,1","01800,1,9,N","055000,1,N,1","+0160,1","+0044,1","10201,1",,,,"1,1,06,1","1,1,06,1",,"07,99,1,07,1,08,1,01750,1,99,9,99,9",,,"99999,9,10102,1","2,1,038,1,+999,9","02,1","SYN072AAXX  07121 01278 41785 73301 10160 20044 30102 40201 52038 70211 878//;",
"01278099999","2010-10-07T18:00:00","4","63.7833333","11.6833333","83.0","VERDAL REPPE, NO","FM-12","99999","V020","100,1,N,0030,1","22000,1,9,N","075000,1,N,1","+0115,1","+0064,1","10245,1",,,,"1,1,06,1","1,1,06,1",,"03,99,1,03,1,08,1,01750,1,06,1,02,1",,"999,M,+0164,1","99999,9,10143,1","2,1,017,1,+999,9","01,1","SYN082AAXX  07181 01278 31789 31003 10115 20064 30143 40245 52017 70111 83862 333 10164;",
"01278099999","2010-10-08T06:00:00","4","63.7833333","11.6833333","83.0","VERDAL REPPE, NO","FM-12","99999","V020","110,1,N,0030,1","22000,1,9,N","055000,1,N,1","+0052,1","+0031,1","10305,1","24,0000,9,1",,,"0,1,06,1","0,1,06,1",,"03,99,1,02,1,00,1,99999,9,07,1,09,1",,"999,N,+0050,1","99999,9,10201,1","3,1,017,1,+999,9","02,1","SYN088AAXX  08061 01278 31985 31103 10052 20031 30201 40305 53017 70200 82079 333 20050 70000;","Q01  00002PRCP24"
"01278099999","2010-10-08T09:00:00","4","63.7833333","11.6833333","83.0","VERDAL REPPE, NO","FM-12","99999","V020","100,1,N,0030,1","22000,1,9,N","055000,1,N,1","+0074,1","+0047,1","10313,1",,,,"1,1,03,1","1,1,03,1",,"05,99,1,01,1,04,1,01750,1,00,1,08,1",,,"99999,9,10210,1","2,1,011,1,+999,9","02,1","SYN072AAXX  08091 01278 41785 51003 10074 20047 30210 40313 52011 70211 81408;",
"01278099999","2010-10-08T12:00:00","4","63.7833333","11.6833333","83.0","VERDAL REPPE, NO","FM-12","99999","V020","300,1,N,0010,1","22000,1,9,N","055000,1,N,1","+0123,1","+0066,1","10317,1",,,,"1,1,06,1","1,1,06,1",,"03,99,1,01,1,05,1,01750,1,00,1,01,1",,,"99999,9,10216,1","2,1,005,1,+999,9","02,1","SYN072AAXX  08121 01278 41785 33001 10123 20066 30216 40317 52005 70211 81501;",
"01278099999","2010-10-08T18:00:00","4","63.7833333","11.6833333","83.0","VERDAL REPPE, NO","FM-12","99999","V020","100,1,N,0030,1","22000,1,9,N","075000,1,N,1","+0088,1","+0063,1","10324,1",,,,"0,1,06,1","0,1,06,1",,"02,99,1,00,1,00,1,99999,9,00,1,01,1",,"999,M,+0138,1","99999,9,10221,1","2,1,006,1,+999,9","02,1","SYN082AAXX  08181 01278 31989 21003 10088 20063 30221 40324 52006 70200 80001 333 10138;",
"01278099999","2010-10-09T06:00:00","4","63.7833333","11.6833333","83.0","VERDAL REPPE, NO","FM-12","99999","V020","120,1,N,0010,1","22000,1,9,N","055000,1,N,1","+0025,1","+0012,1","10306,1","24,0000,9,1",,,"0,1,06,1","0,1,06,1",,"04,99,1,00,1,00,1,99999,9,00,1,01,1",,"999,N,+0022,1","99999,9,10201,1","5,1,010,1,+999,9","40,1","SYN088AAXX  09061 01278 31985 41201 10025 20012 30201 40306 55010 74000 80001 333 20022 70000;","Q01  00002PRCP24"
"01278099999","2010-10-09T09:00:00","4","63.7833333","11.6833333","83.0","VERDAL REPPE, NO","FM-12","99999","V020","999,9,C,0000,1","03000,1,9,N","055000,1,N,1","+0042,1","+0026,1","10307,1",,,,"1,1,03,1","1,1,03,1",,"07,99,1,02,1,05,1,02250,1,07,1,02,1",,,"99999,9,10202,1","8,1,005,1,+999,9","40,1","SYN072AAXX  09091 01278 41885 70000 10042 20026 30202 40307 58005 74011 82572;",
"01278099999","2010-10-09T12:00:00","4","63.7833333","11.6833333","83.0","VERDAL REPPE, NO","FM-12","99999","V020","150,1,N,0010,1","01200,1,9,N","030000,1,N,1","+0064,1","+0044,1","10284,1",,,,"8,1,06,1","2,1,06,1",,"08,99,1,08,1,09,1,01250,1,99,9,99,9",,,"99999,9,10181,1","8,1,022,1,+999,9","02,1","SYN072AAXX  09121 01278 41680 81501 10064 20044 30181 40284 58022 70282 889//;",
"01278099999","2010-10-09T18:00:00","4","63.7833333","11.6833333","83.0","VERDAL REPPE, NO","FM-12","99999","V020","270,1,N,0050,1","01500,1,9,N","030000,1,N,1","+0104,1","+0083,1","10249,1","12,0000,9,1",,,"8,1,06,1","2,1,06,1",,"08,99,1,08,1,09,1,01750,1,99,9,99,9",,"999,M,+0106,1","99999,9,10147,1","7,1,015,1,+999,9","02,1","SYN088AAXX  09181 01278 11780 82705 10104 20083 30147 40249 57015 69902 70282 889// 333 10106;","Q01  00002PRCP12"
"01278099999","2010-10-10T06:00:00","4","63.7833333","11.6833333","83.0","VERDAL REPPE, NO","FM-12","99999","V020","310,1,N,0050,1","00420,1,9,N","055000,1,N,1","+0058,1","-0100,1","10250,1","12,9999,9,9","24,9999,9,9",,"8,1,06,1","2,1,06,1",,"08,99,1,07,1,09,1,00450,1,06,1,02,1",,"999,N,+0055,1","99999,9,10147,1","2,1,010,1,+999,9","80,1","SYN094AAXX  10061 01278 11485 83105 10058 21100 30147 40250 52010 69912 78082 87962 333 20055 70001;","Q01  00002PRCP24Q02  00002PRCP12Q03  00002PRCP12Q04  00002PRCP24"
"01278099999","2010-10-10T09:00:00","4","63.7833333","11.6833333","83.0","VERDAL REPPE, NO","FM-12","99999","V020","310,1,N,0010,1","03000,1,9,N","055000,1,N,1","+0050,1","+0022,1","10265,1",,,,"8,1,03,1","2,1,03,1",,"07,99,1,04,1,09,1,00450,1,06,1,01,1",,,"99999,9,10162,1","3,1,015,1,+999,9","15,1","SYN072AAXX  10091 01278 41485 73101 10050 20022 30162 40265 53015 71582 84961;",
"01278099999","2010-10-10T12:00:00","4","63.7833333","11.6833333","83.0","VERDAL REPPE, NO","FM-12","99999","V020","280,1,N,0070,1","01200,1,9,N","055000,1,N,1","+0066,1","+0009,1","10265,1",,,,"8,1,06,1","2,1,06,1",,"07,99,1,05,1,09,1,01250,1,06,1,01,1",,,"99999,9,10162,1","0,1,000,1,+999,9","15,1","SYN072AAXX  10121 01278 41685 72807 10066 20009 30162 40265 50000 71582 85961;",
"01278099999","2010-10-10T18:00:00","4","63.7833333","11.6833333","83.0","VERDAL REPPE, NO","FM-12","99999","V020","999,9,C,0000,1","01200,1,9,N","055000,1,N,1","+0051,1","+0026,1","10272,1","12,0003,9,1",,,"8,1,06,1","2,1,06,1",,"07,99,1,07,1,09,1,01250,1,99,9,99,9",,"999,M,+0070,1","99999,9,10167,1","0,1,001,1,+999,9","02,1","SYN088AAXX  10181 01278 11685 70000 10051 20026 30167 40272 50001 69932 70282 879// 333 10070;",
"01278099999","2010-10-11T06:00:00","4","63.7833333","11.6833333","83.0","VERDAL REPPE, NO","FM-12","99999","V020","300,1,N,0010,1","00210,1,9,N","055000,1,N,1","+0047,1","+0032,1","10216,1","12,0000,9,1","24,0005,9,1",,"8,1,06,1","2,1,06,1",,"08,99,1,07,1,09,1,00250,1,02,1,99,9",,"999,N,+0039,1","99999,9,10112,1","7,1,010,1,+999,9","02,1","SYN094AAXX  11061 01278 11385 83001 10047 20032 30112 40216 57010 69922 70282 8792/ 333 20039 70005;","Q01  00002PRCP12"
"01278099999","2010-10-11T09:00:00","4","63.7833333","11.6833333","83.0","VERDAL REPPE, NO","FM-12","99999","V020","310,1,N,0030,1","00420,1,9,N","055000,1,N,1","+0051,1","+0028,1","10211,1",,,,"2,1,03,1","2,1,03,1",,"07,99,1,07,1,09,1,00450,1,99,9,99,9",,,"99999,9,10107,1","8,1,006,1,+999,9","15,1","SYN072AAXX  11091 01278 41485 73103 10051 20028 30107 40211 58006 71522 879//;",
"01278099999","2010-10-11T12:00:00","4","63.7833333","11.6833333","83.0","VERDAL REPPE, NO","FM-12","99999","V020","270,1,N,0050,1","00420,1,9,N","055000,1,N,1","+0066,1","+0036,1","10192,1",,,,"2,1,06,1","2,1,06,1",,"07,99,1,07,1,09,1,00450,1,99,9,99,9",,,"99999,9,10090,1","8,1,019,1,+999,9","15,1","SYN072AAXX  11121 01278 41485 72705 10066 20036 30090 40192 58019 71522 879//;",
"01278099999","2010-10-11T18:00:00","4","63.7833333","11.6833333","83.0","VERDAL REPPE, NO","FM-12","99999","V020","300,1,N,0050,1","00420,1,9,N","030000,1,N,1","+0072,1","+0060,1","10161,1","12,0020,9,1",,,"8,1,06,1","2,1,06,1",,"08,99,1,08,1,09,1,00450,1,99,9,99,9",,"999,M,+0075,1","99999,9,10058,1","5,1,005,1,+999,9","02,1","SYN088AAXX  11181 01278 11480 83005 10072 20060 30058 40161 55005 60022 70282 889// 333 10075;",
"01278099999","2010-10-12T06:00:00","4","63.7833333","11.6833333","83.0","VERDAL REPPE, NO","FM-12","99999","V020","320,1,N,0010,1","03000,1,9,N","030000,1,N,1","+0037,1","+0013,1","10206,1","12,0003,9,1","24,0023,9,1",,"8,1,06,1","2,1,06,1",,"08,99,1,02,1,09,1,01750,1,02,1,99,9",,"999,N,+0035,1","99999,9,10102,1","0,1,011,1,+999,9","15,1","SYN094AAXX  12061 01278 11780 83201 10037 20013 30102 40206 50011 69932 71582 8292/ 333 20035 70024;",
"01278099999","2010-10-12T09:00:00","4","63.7833333","11.6833333","83.0","VERDAL REPPE, NO","FM-12","99999","V020","280,1,N,0010,1","00900,1,9,N","030000,1,N,1","+0045,1","+0022,1","10216,1",,,,"2,1,03,1","2,1,03,1",,"07,99,1,07,1,08,1,00450,1,99,9,99,9",,,"99999,9,10112,1","2,1,008,1,+999,9","02,1","SYN072AAXX  12091 01278 41480 72801 10045 20022 30112 40216 52008 70222 878//;",
"01278099999","2010-10-12T12:00:00","4","63.7833333","11.6833333","83.0","VERDAL REPPE, NO","FM-12","99999","V020","290,1,N,0050,1","00420,1,9,N","055000,1,N,1","+0055,1","+0023,1","10210,1",,,,"2,1,06,1","2,1,06,1",,"07,99,1,06,1,09,1,00450,1,06,1,02,1",,,"99999,9,10107,1","7,1,006,1,+999,9","02,1","SYN072AAXX  12121 01278 41485 72905 10055 20023 30107 40210 57006 70222 86962;",
"01278099999","2010-10-12T18:00:00","4","63.7833333","11.6833333","83.0","VERDAL REPPE, NO","FM-12","99999","V020","300,1,N,0030,1","01200,1,9,N","055000,1,N,1","+0047,1","+0021,1","10202,1","12,0000,9,1",,,"2,1,06,1","2,1,06,1",,"08,99,1,08,1,09,1,01250,1,99,9,99,9",,"999,M,+0059,1","99999,9,10098,1","6,1,006,1,+999,9","02,1","SYN088AAXX  12181 01278 11685 83003 10047 20021 30098 40202 56006 69912 70222 889// 333 10059;","Q01  00002PRCP12"
"01278099999","2010-10-13T06:00:00","4","63.7833333","11.6833333","83.0","VERDAL REPPE, NO","FM-12","99999","V020","999,9,C,0000,1","03000,1,9,N","015000,1,N,1","+0042,1","+0030,1","10162,1","12,0020,9,2","24,0018,9,2",,"6,1,06,1","2,1,06,1",,"08,99,1,02,1,07,1,00150,1,02,1,99,9",,"999,N,+0036,1","99999,9,10058,1","7,1,011,1,+999,9","61,1","SYN094AAXX  13061 01278 11265 80000 10042 20030 30058 40162 57011 60022 76162 8272/ 333 20036 70018;",
"01278099999","2010-10-13T09:00:00","4","63.7833333","11.6833333","83.0","VERDAL REPPE, NO","FM-12","99999","V020","280,1,N,0010,1","03000,1,9,N","030000,1,N,1","+0043,1","+0031,1","10151,1",,,,"6,1,03,1","6,1,03,1",,"08,99,1,01,1,07,1,00150,1,02,1,99,9",,,"99999,9,10047,1","7,1,014,1,+999,9","61,1","SYN072AAXX  13091 01278 41280 82801 10043 20031 30047 40151 57014 76166 8172/;",
"01278099999","2010-10-13T12:00:00","4","63.7833333","11.6833333","83.0","VERDAL REPPE, NO","FM-12","99999","V020","999,9,C,0000,1","03000,1,9,N","020000,1,N,1","+0051,1","+0038,1","10128,1",,,,"6,1,06,1","6,1,06,1",,"08,99,1,04,1,07,1,00450,1,02,1,99,9",,,"99999,9,10026,1","8,1,020,1,+999,9","61,1","SYN072AAXX  13121 01278 41470 80000 10051 20038 30026 40128 58020 76166 8472/;",
"01278099999","2010-10-13T18:00:00","4","63.7833333","11.6833333","83.0","VERDAL REPPE, NO","FM-12","99999","V020","300,1,N,0050,1","01200,1,9,N","020000,1,N,1","+0073,1","+0059,1","10058,1","12,0071,9,1",,,"6,1,06,1","2,1,06,1",,"08,99,1,08,1,00,1,01250,1,02,1,99,9",,"999,M,+0075,1","99999,9,09957,1","8,1,033,1,+999,9","60,1","SYN088AAXX  13181 01278 11670 83005 10073 20059 39957 40058 58033 60072 76062 8802/ 333 10075;",
"01278099999","2010-10-14T06:00:00","4","63.7833333","11.6833333","83.0","VERDAL REPPE, NO","FM-12","99999","V020","310,1,N,0070,1","00750,1,9,N","030000,1,N,1","+0040,1","+0020,1","10073,1","12,0030,9,1","24,0102,9,1",,"8,1,06,1","6,1,06,1",,"08,99,1,08,1,09,1,00800,1,99,9,99,9",,"999,N,+0030,1","99999,9,09971,1","3,1,007,1,+999,9","80,1","SYN094AAXX  14061 01278 11580 83107 10040 20020 39971 40073 53007 60032 78086 889// 333 20030 70102;",
"01278099999","2010-10-14T09:00:00","4","63.7833333","11.6833333","83.0","VERDAL REPPE, NO","FM-12","99999","V020","310,1,N,0050,1","00420,1,9,N","055000,1,N,1","+0034,1","+0016,1","10094,1",,,,"8,1,03,1","2,1,03,1",,"07,99,1,07,1,09,1,00450,1,99,9,99,9",,,"99999,9,09992,1","3,1,022,1,+999,9","80,1","SYN072AAXX  14091 01278 41485 73105 10034 20016 39992 40094 53022 78082 879//;",
"01278099999","2010-10-14T12:00:00","4","63.7833333","11.6833333","83.0","VERDAL REPPE, NO","FM-12","99999","V020","280,1,N,0050,1","00210,1,9,N","020000,1,N,1","+0028,1","+0012,1","10104,1",,,,"8,1,06,1","2,1,06,1",,"08,99,1,08,1,09,1,00250,1,99,9,99,9",,,"99999,9,10001,1","1,1,009,1,+999,9","80,1","SYN072AAXX  14121 01278 41370 82805 10028 20012 30001 40104 51009 78082 889//;",
"01278099999","2010-10-14T18:00:00","4","63.7833333","11.6833333","83.0","VERDAL REPPE, NO","FM-12","99999","V020","300,1,N,0070,1","00750,1,9,N","030000,1,N,1","+0027,1","+0009,1","10125,1","12,0030,9,1",,,"8,1,06,1","2,1,06,1",,"06,99,1,06,1,09,1,00800,1,06,1,99,9",,"999,M,+0043,1","99999,9,10022,1","3,1,012,1,+999,9","02,1","SYN088AAXX  14181 01278 11580 63007 10027 20009 30022 40125 53012 60032 70282 8696/ 333 10043;",
"01278099999","2010-10-15T06:00:00","4","63.7833333","11.6833333","83.0","VERDAL REPPE, NO","FM-12","99999","V020","320,1,N,0010,1","00420,1,9,N","030000,1,N,1","+0010,1","+0000,1","10115,1","12,0000,9,1","24,0030,9,1",,"8,1,06,1","2,1,06,1",,"08,99,1,07,1,09,1,00450,1,02,1,99,9",,"999,N,+0007,1","99999,9,10012,1","7,1,004,1,+999,9","02,1","SYN094AAXX  15061 01278 11480 83201 10010 20000 30012 40115 57004 69912 70282 8792/ 333 20007 70031;","Q01  00002PRCP12"
"01278099999","2010-10-15T09:00:00","4","63.7833333","11.6833333","83.0","VERDAL REPPE, NO","FM-12","99999","V020","999,9,C,0000,1","00420,1,9,N","055000,1,N,1","+0020,1","+0008,1","10120,1",,,,"2,1,03,1","2,1,03,1",,"07,99,1,07,1,09,1,00450,1,99,9,99,9",,,"99999,9,10017,1","3,1,005,1,+999,9","15,1","SYN072AAXX  15091 01278 41485 70000 10020 20008 30017 40120 53005 71522 879//;",
"01278099999","2010-10-15T12:00:00","4","63.7833333","11.6833333","83.0","VERDAL REPPE, NO","FM-12","99999","V020","290,1,N,0050,1","00420,1,9,N","030000,1,N,1","+0038,1","+0020,1","10129,1",,,,"2,1,06,1","2,1,06,1",,"07,99,1,07,1,09,1,00450,1,06,1,99,9",,,"99999,9,10026,1","3,1,007,1,+999,9","15,1","SYN072AAXX  15121 01278 41480 72905 10038 20020 30026 40129 53007 71522 8796/;",
"01278099999","2010-10-15T18:00:00","4","63.7833333","11.6833333","83.0","VERDAL REPPE, NO","FM-12","99999","V020","999,9,C,0000,1","22000,1,9,N","055000,1,N,1","+0010,1","-0008,1","10152,1","12,0000,9,1",,,"1,1,06,1","1,1,06,1",,"02,99,1,01,1,04,1,00800,1,06,1,02,1",,"999,M,+0050,1","99999,9,10047,1","3,1,015,1,+999,9","01,1","SYN088AAXX  15181 01278 11585 20000 10010 21008 30047 40152 53015 69902 70111 81462 333 10050;","Q01  00002PRCP12"
"01278099999","2010-10-16T06:00:00","4","63.7833333","11.6833333","83.0","VERDAL REPPE, NO","FM-12","99999","V020","999,9,C,0000,1","00210,1,9,N","055000,1,N,1","+0025,1","+0015,1","10178,1","12,0000,9,1","24,0000,9,1",,"8,1,06,1","1,1,06,1",,"08,99,1,05,1,09,1,00250,1,02,1,99,9",,"999,N,+0001,1","99999,9,10073,1","4,1,000,1,+999,9","02,1","SYN094AAXX  16061 01278 11385 80000 10025 20015 30073 40178 54001 69902 70281 8592/ 333 20001 79999;","Q01  00002PRCP24Q02  00002PRCP12"
"01278099999","2010-10-16T09:00:00","4","63.7833333","11.6833333","83.0","VERDAL REPPE, NO","FM-12","99999","V020","999,9,C,0000,1","01200,1,9,N","020000,1,N,1","+0033,1","+0021,1","10178,1",,,,"6,1,03,1","2,1,03,1",,"08,99,1,08,1,00,1,01250,1,02,1,99,9",,,"99999,9,10075,1","2,1,001,1,+999,9","63,1","SYN072AAXX  16091 01278 41670 80000 10033 20021 30075 40178 52001 76362 8802/;",
"01278099999","2010-10-16T12:00:00","4","63.7833333","11.6833333","83.0","VERDAL REPPE, NO","FM-12","99999","V020","280,1,N,0050,1","00420,1,9,N","055000,1,N,1","+0049,1","+0034,1","10180,1",,,,"8,1,06,1","6,1,06,1",,"08,99,1,08,1,09,1,00450,1,99,9,99,9",,,"99999,9,10077,1","3,1,002,1,+999,9","15,1","SYN072AAXX  16121 01278 41485 82805 10049 20034 30077 40180 53002 71586 889//;",
"01278099999","2010-10-16T18:00:00","4","63.7833333","11.6833333","83.0","VERDAL REPPE, NO","FM-12","99999","V020","300,1,N,0010,1","01200,1,9,N","020000,1,N,1","+0055,1","+0042,1","10184,1","12,0030,9,1",,,"8,1,06,1","2,1,06,1",,"08,99,1,08,1,09,1,01250,1,99,9,99,9",,"999,M,+0055,1","99999,9,10082,1","2,1,001,1,+999,9","80,1","SYN088AAXX  16181 01278 11670 83001 10055 20042 30082 40184 52001 60032 78082 889// 333 10055;",
"01278099999","2010-10-17T06:00:00","4","63.7833333","11.6833333","83.0","VERDAL REPPE, NO","FM-12","99999","V020","260,1,N,0030,1","01200,1,9,N","030000,1,N,1","+0068,1","+0036,1","10148,1","12,0099,9,1","24,0122,9,1",,"8,1,06,1","2,1,06,1",,"08,99,1,08,1,05,1,01250,1,99,9,99,9",,"999,N,+0051,1","99999,9,10046,1","7,1,011,1,+999,9","02,1","SYN094AAXX  17061 01278 11680 82603 10068 20036 30046 40148 57011 60102 70282 885// 333 20051 70123;",
"01278099999","2010-10-17T09:00:00","4","63.7833333","11.6833333","83.0","VERDAL REPPE, NO","FM-12","99999","V020","270,1,N,0050,1","01500,1,9,N","055000,1,N,1","+0074,1","+0021,1","10146,1",,,,"2,1,03,1","2,1,03,1",,"08,99,1,08,1,05,1,01750,1,99,9,99,9",,,"99999,9,10045,1","4,1,000,1,+999,9","02,1","SYN072AAXX  17091 01278 41785 82705 10074 20021 30045 40146 54001 70222 885//;",
"01278099999","2010-10-17T12:00:00","4","63.7833333","11.6833333","83.0","VERDAL REPPE, NO","FM-12","99999","V020","270,1,N,0030,1","03000,1,9,N","055000,1,N,1","+0081,1","+0024,1","10135,1",,,,"2,1,06,1","2,1,06,1",,"08,99,1,04,1,09,1,01250,1,06,1,99,9",,,"99999,9,10033,1","7,1,010,1,+999,9","16,1","SYN072AAXX  17121 01278 41685 82703 10081 20024 30033 40135 57010 71622 8496/;",
"01278099999","2010-10-17T18:00:00","4","63.7833333","11.6833333","83.0","VERDAL REPPE, NO","FM-12","99999","V020","150,1,N,0050,1","03000,1,9,N","030000,1,N,1","+0055,1","+0038,1","10077,1","12,0010,9,1",,,"8,1,06,1","2,1,06,1",,"07,99,1,04,1,08,1,01250,1,07,1,99,9",,"999,M,+0083,1","99999,9,09976,1","8,1,034,1,+999,9","02,1","SYN088AAXX  17181 01278 11680 71505 10055 20038 39976 40077 58034 60012 70282 8487/ 333 10083;",
"01278099999","2010-10-18T06:00:00","4","63.7833333","11.6833333","83.0","VERDAL REPPE, NO","FM-12","99999","V020","090,1,N,0010,1","01500,1,9,N","055000,1,N,1","+0057,1","+0014,1","09972,1","12,0000,9,1","24,0013,9,1",,"8,1,06,1","2,1,06,1",,"06,99,1,06,1,05,1,01750,1,99,9,99,9",,"999,N,+0050,1","99999,9,09872,1","6,1,025,1,+999,9","02,1","SYN094AAXX  18061 01278 11785 60901 10057 20014 39872 49972 56025 69922 70282 865// 333 20050 70012;","Q01  00002PRCP12"
"01278099999","2010-10-18T09:00:00","4","63.7833333","11.6833333","83.0","VERDAL REPPE, NO","FM-12","99999","V020","270,1,N,0050,1","03000,1,9,N","075000,1,N,1","+0085,1","+0014,1","09953,1",,,,"2,1,03,1","2,1,03,1",,"07,99,1,01,1,04,1,01750,1,07,1,01,1",,,"99999,9,09853,1","8,1,017,1,+999,9","02,1","SYN072AAXX  18091 01278 41789 72705 10085 20014 39853 49953 58017 70222 81471;",
"01278099999","2010-10-18T12:00:00","4","63.7833333","11.6833333","83.0","VERDAL REPPE, NO","FM-12","99999","V020","150,1,N,0050,1","03000,1,9,N","075000,1,N,1","+0100,1","+0011,1","09933,1",,,,"2,1,06,1","2,1,06,1",,"07,99,1,04,1,08,1,01750,1,07,1,02,1",,,"99999,9,09835,1","6,1,019,1,+999,9","02,1","SYN072AAXX  18121 01278 41789 71505 10100 20011 39835 49933 56019 70222 84872;",
"01278099999","2010-10-18T18:00:00","4","63.7833333","11.6833333","83.0","VERDAL REPPE, NO","FM-12","99999","V020","140,1,N,0050,1","03000,1,9,N","075000,1,N,1","+0102,1","+0016,1","09909,1",,,,"2,1,06,1","2,1,06,1",,"08,99,1,01,1,04,1,01750,1,07,1,99,9",,"999,M,+0110,1","99999,9,09811,1","5,1,009,1,+999,9","02,1","SYN082AAXX  18181 01278 31789 81405 10102 20016 39811 49909 55009 70222 8147/ 333 10110;",
"01278099999","2010-10-19T06:00:00","4","63.7833333","11.6833333","83.0","VERDAL REPPE, NO","FM-12","99999","V020","999,9,C,0000,1","03000,1,9,N","020000,1,N,1","+0057,1","+0037,1","09914,1","12,0020,9,1","24,0020,9,1",,"8,1,06,1","2,1,06,1",,"08,99,1,02,1,09,1,01750,1,02,1,99,9",,"999,N,+0055,1","99999,9,09813,1","2,1,006,1,+999,9","80,1","SYN094AAXX  19061 01278 11770 80000 10057 20037 39813 49914 52006 60022 78082 8292/ 333 20055 70020;",
"01278099999","2010-10-19T09:00:00","4","63.7833333","11.6833333","83.0","VERDAL REPPE, NO","FM-12","99999","V020","280,1,N,0030,1","00420,1,9,N","010000,1,N,1","+0053,1","+0035,1","09927,1",,,,"8,1,03,1","6,1,03,1",,"08,99,1,08,1,00,1,00450,1,02,1,99,9",,,"99999,9,09827,1","3,1,012,1,+999,9","63,1","SYN072AAXX  19091 01278 41460 82803 10053 20035 39827 49927 53012 76386 8802/;",
"01278099999","2010-10-19T12:00:00","4","63.7833333","11.6833333","83.0","VERDAL REPPE, NO","FM-12","99999","V020","290,1,N,0070,1","00420,1,9,N","055000,1,N,1","+0046,1","+0030,1","09955,1",,,,"8,1,06,1","6,1,06,1",,"08,99,1,05,1,09,1,00450,1,07,1,99,9",,,"99999,9,09855,1","3,1,026,1,+999,9","16,1","SYN072AAXX  19121 01278 41485 82907 10046 20030 39855 49955 53026 71686 8597/;",
"01278099999","2010-10-19T18:00:00","4","63.7833333","11.6833333","83.0","VERDAL REPPE, NO","FM-12","99999","V020","330,1,N,0030,1","03000,1,9,N","055000,1,N,1","+0020,1","-0009,1","10001,1","12,0051,9,1",,,"2,1,06,1","2,1,06,1",,"07,99,1,03,1,09,1,01250,1,06,1,01,1",,"999,M,+0060,1","99999,9,09898,1","1,1,018,1,+999,9","02,1","SYN088AAXX  19181 01278 11685 73303 10020 21009 39898 40001 51018 60052 70222 83961 333 10060;",
"01278099999","2010-10-20T06:00:00","4","63.7833333","11.6833333","83.0","VERDAL REPPE, NO","FM-12","99999","V020","999,9,C,0000,1","00900,1,9,N","055000,1,N,1","-0018,1","-0029,1","10029,1","12,0000,9,1","24,0046,9,1","9999,3,9,999999,9,9","8,1,06,1","2,1,06,1",,"07,99,1,07,1,08,1,00450,1,99,9,99,9","23,9","999,N,-0031,1","99999,9,09925,1","2,1,006,1,+999,9","02,1","SYN100AAXX  20061 01278 11485 70000 11018 21029 39925 40029 52006 69912 70282 878// 333 21031 47997 70046;","Q01  00002PRCP12Q02  09972SNDP  "
"01278099999","2010-10-20T09:00:00","4","63.7833333","11.6833333","83.0","VERDAL REPPE, NO","FM-12","99999","V020","999,9,C,0000,1","00420,1,9,N","055000,1,N,1","-0018,1","-0028,1","10036,1",,,,"8,1,03,1","2,1,03,1",,"07,99,1,07,1,09,1,00450,1,99,9,99,9",,,"99999,9,09932,1","2,1,007,1,+999,9","85,1","SYN072AAXX  20091 01278 41485 70000 11018 21028 39932 40036 52007 78582 879//;",
"01278099999","2010-10-20T12:00:00","4","63.7833333","11.6833333","83.0","VERDAL REPPE, NO","FM-12","99999","V020","999,9,C,0000,1","00420,1,9,N","010000,1,N,1","-0007,1","-0020,1","10041,1",,,,"8,1,06,1","2,1,06,1",,"07,99,1,07,1,09,1,00450,1,99,9,99,9",,,"99999,9,09937,1","2,1,006,1,+999,9","85,1","SYN072AAXX  20121 01278 41460 70000 11007 21020 39937 40041 52006 78582 879//;",
"01278099999","2010-10-20T18:00:00","4","63.7833333","11.6833333","83.0","VERDAL REPPE, NO","FM-12","99999","V020","999,9,C,0000,1","22000,1,9,N","055000,1,N,1","-0017,1","-0031,1","10055,1","12,0020,9,1",,,"8,1,06,1","1,1,06,1",,"01,99,1,01,1,08,1,01250,1,00,1,00,1",,"999,M,+0001,1","99999,9,09951,1","2,1,006,1,+999,9","01,1","SYN088AAXX  20181 01278 11685 10000 11017 21031 39951 40055 52006 60022 70181 81800 333 10001;",
"01278099999","2010-10-21T06:00:00","4","63.7833333","11.6833333","83.0","VERDAL REPPE, NO","FM-12","99999","V020","120,1,N,0030,1","22000,1,9,N","055000,1,N,1","-0053,1","-0069,1","10031,1","24,0020,9,1",,"0003,9,1,999999,9,9","0,1,06,1","0,1,06,1",,"02,99,1,01,1,04,1,01250,1,00,1,02,1","23,9","999,N,-0053,1","99999,9,09926,1","7,1,011,1,+999,9","02,1","SYN094AAXX  21061 01278 31685 21203 11053 21069 39926 40031 57011 70200 81402 333 21053 47003 70020;",
"01278099999","2010-10-21T09:00:00","4","63.7833333","11.6833333","83.0","VERDAL REPPE, NO","FM-12","99999","V020","100,1,N,0010,1","22000,1,9,N","075000,1,N,1","-0046,1","-0060,1","10022,1",,,,"0,1,03,1","0,1,03,1",,"03,99,1,01,1,04,1,01250,1,00,1,02,1",,,"99999,9,09917,1","7,1,009,1,+999,9","02,1","SYN072AAXX  21091 01278 41689 31001 11046 21060 39917 40022 57009 70200 81402;",
"01278099999","2010-10-21T12:00:00","4","63.7833333","11.6833333","83.0","VERDAL REPPE, NO","FM-12","99999","V020","150,1,N,0010,1","22000,1,9,N","055000,1,N,1","+0010,1","-0044,1","09998,1",,,,"0,1,06,1","0,1,06,1",,"02,99,1,00,1,00,1,99999,9,00,1,01,1",,,"99999,9,09896,1","7,1,020,1,+999,9","02,1","SYN072AAXX  21121 01278 41985 21501 10010 21044 39896 49998 57020 70200 80001;",
"01278099999","2010-10-21T18:00:00","4","63.7833333","11.6833333","83.0","VERDAL REPPE, NO","FM-12","99999","V020","140,1,N,0030,1","22000,1,9,N","055000,1,N,1","-0035,1","-0066,1","09973,1",,,,"0,1,06,1","0,1,06,1",,"01,99,1,01,1,04,1,01750,1,00,1,00,1",,"999,M,+0015,1","99999,9,09868,1","6,1,012,1,+999,9","02,1","SYN082AAXX  21181 01278 31785 11403 11035 21066 39868 49973 56012 70200 81400 333 10015;",
"01278099999","2010-10-22T06:00:00","4","63.7833333","11.6833333","83.0","VERDAL REPPE, NO","FM-12","99999","V020","120,1,N,0030,1","03000,1,9,N","055000,1,N,1","-0084,1","-0098,1","09973,1","24,0000,9,1",,"0003,9,1,999999,9,9","1,1,06,1","1,1,06,1",,"07,99,1,03,1,05,1,01750,1,06,1,01,1","22,9","999,N,-0085,1","99999,9,09867,1","2,1,002,1,+999,9","02,1","SYN094AAXX  22061 01278 31785 71203 11084 21098 39867 49973 52002 70211 83561 333 21085 46003 70000;","Q01  00002PRCP24"
"01278099999","2010-10-22T09:00:00","4","63.7833333","11.6833333","83.0","VERDAL REPPE, NO","FM-12","99999","V020","120,1,N,0030,1","01800,1,9,N","055000,1,N,1","-0058,1","-0074,1","09976,1",,,,"2,1,03,1","2,1,03,1",,"07,99,1,07,1,08,1,01750,1,99,9,99,9",,,"99999,9,09871,1","3,1,003,1,+999,9","03,1","SYN072AAXX  22091 01278 41785 71203 11058 21074 39871 49976 53003 70322 878//;",
"01278099999","2010-10-22T12:00:00","4","63.7833333","11.6833333","83.0","VERDAL REPPE, NO","FM-12","99999","V020","999,9,C,0000,1","00060,1,9,N","001000,1,N,1","-0017,1","-0032,1","09974,1",,,,"8,1,06,1","2,1,06,1","09,1,+99999,9,99,9","09,99,1,09,1,99,9,99999,9,99,9,99,9",,,"99999,9,09871,1","0,1,000,1,+999,9","85,1","SYN066AAXX  22121 01278 41/10 90000 11017 21032 39871 49974 50000 78582;",
"01278099999","2010-10-22T18:00:00","4","63.7833333","11.6833333","83.0","VERDAL REPPE, NO","FM-12","99999","V020","310,1,N,0010,1","01500,1,9,N","020000,1,N,1","+0012,1","-0004,1","09969,1","12,0030,9,1",,,"8,1,06,1","2,1,06,1",,"07,99,1,07,1,09,1,01750,1,99,9,99,9",,"999,M,+0012,1","99999,9,09867,1","7,1,002,1,+999,9","02,1","SYN088AAXX  22181 01278 11770 73101 10012 21004 39867 49969 57002 60032 70282 879// 333 10012;",
"01278099999","2010-10-23T06:00:00","4","63.7833333","11.6833333","83.0","VERDAL REPPE, NO","FM-12","99999","V020","330,1,N,0050,1","00420,1,9,N","030000,1,N,1","+0024,1","+0011,1","09963,1","12,0030,9,1","24,0051,9,1","0005,9,1,999999,9,9","8,1,06,1","2,1,06,1",,"08,99,1,08,1,09,1,00450,1,99,9,99,9","27,9","999,N,+0007,1","99999,9,09862,1","3,1,010,1,+999,9","80,1","SYN100AAXX  23061 01278 11480 83305 10024 20011 39862 49963 53010 60032 78082 889// 333 20007 43005 70052;",
"01278099999","2010-10-23T09:00:00","4","63.7833333","11.6833333","83.0","VERDAL REPPE, NO","FM-12","99999","V020","310,1,N,0050,1","00420,1,9,N","055000,1,N,1","+0026,1","+0013,1","09977,1",,,,"8,1,03,1","2,1,03,1",,"08,99,1,08,1,09,1,00450,1,99,9,99,9",,,"99999,9,09876,1","3,1,013,1,+999,9","80,1","SYN072AAXX  23091 01278 41485 83105 10026 20013 39876 49977 53013 78082 889//;",
"01278099999","2010-10-23T12:00:00","4","63.7833333","11.6833333","83.0","VERDAL REPPE, NO","FM-12","99999","V020","310,1,N,0030,1","00420,1,9,N","055000,1,N,1","+0033,1","+0021,1","09988,1",,,,"8,1,06,1","2,1,06,1",,"07,99,1,07,1,09,1,00450,1,99,9,99,9",,,"99999,9,09887,1","2,1,011,1,+999,9","02,1","SYN072AAXX  23121 01278 41485 73103 10033 20021 39887 49988 52011 70282 879//;",
"01278099999","2010-10-23T18:00:00","4","63.7833333","11.6833333","83.0","VERDAL REPPE, NO","FM-12","99999","V020","330,1,N,0030,1","00750,1,9,N","055000,1,N,1","+0030,1","+0015,1","10003,1","12,0020,9,1",,,"8,1,06,1","2,1,06,1",,"07,99,1,05,1,09,1,00800,1,06,1,01,1",,"999,M,+0041,1","99999,9,09901,1","2,1,005,1,+999,9","02,1","SYN088AAXX  23181 01278 11585 73303 10030 20015 39901 40003 52005 60022 70282 85961 333 10041;",
"01278099999","2010-10-24T06:00:00","4","63.7833333","11.6833333","83.0","VERDAL REPPE, NO","FM-12","99999","V020","290,1,N,0030,1","03000,1,9,N","030000,1,N,1","+0024,1","+0011,1","10009,1","12,0020,9,1","24,0038,9,1",,"8,1,06,1","2,1,06,1",,"08,99,1,01,1,09,1,00150,1,02,1,99,9",,"999,N,+0019,1","99999,9,09907,1","2,1,009,1,+999,9","80,1","SYN094AAXX  24061 01278 11280 82903 10024 20011 39907 40009 52009 60022 78082 8192/ 333 20019 70039;",
"01278099999","2010-10-24T09:00:00","4","63.7833333","11.6833333","83.0","VERDAL REPPE, NO","FM-12","99999","V020","999,9,C,0000,1","01200,1,9,N","055000,1,N,1","+0024,1","+0012,1","10019,1",,,,"8,1,03,1","2,1,03,1",,"07,99,1,07,1,09,1,01250,1,99,9,99,9",,,"99999,9,09917,1","1,1,011,1,+999,9","80,1","SYN072AAXX  24091 01278 41685 70000 10024 20012 39917 40019 51011 78082 879//;",
"01278099999","2010-10-24T12:00:00","4","63.7833333","11.6833333","83.0","VERDAL REPPE, NO","FM-12","99999","V020","290,1,N,0030,1","00420,1,9,N","055000,1,N,1","+0043,1","+0030,1","10022,1",,,,"8,1,06,1","2,1,06,1",,"07,99,1,07,1,09,1,00450,1,99,9,99,9",,,"99999,9,09921,1","2,1,004,1,+999,9","02,1","SYN072AAXX  24121 01278 41485 72903 10043 20030 39921 40022 52004 70282 879//;",
"01278099999","2010-10-24T18:00:00","4","63.7833333","11.6833333","83.0","VERDAL REPPE, NO","FM-12","99999","V020","330,1,N,0050,1","01200,1,9,N","055000,1,N,1","+0032,1","+0016,1","10027,1","12,0020,9,1",,,"2,1,06,1","2,1,06,1",,"08,99,1,08,1,09,1,01250,1,99,9,99,9",,"999,M,+0045,1","99999,9,09925,1","2,1,004,1,+999,9","02,1","SYN088AAXX  24181 01278 11685 83305 10032 20016 39925 40027 52004 60022 70222 889// 333 10045;",
"01278099999","2010-10-25T06:00:00","4","63.7833333","11.6833333","83.0","VERDAL REPPE, NO","FM-12","99999","V020","300,1,N,0050,1","03000,1,9,N","015000,1,N,1","+0033,1","+0020,1","10045,1","12,0020,9,1","24,0036,9,1",,"8,1,06,1","2,1,06,1",,"08,99,1,04,1,09,1,00450,1,02,1,99,9",,"999,N,+0027,1","99999,9,09942,1","3,1,013,1,+999,9","80,1","SYN094AAXX  25061 01278 11465 83005 10033 20020 39942 40045 53013 60022 78082 8492/ 333 20027 70035;",
"01278099999","2010-10-25T09:00:00","4","63.7833333","11.6833333","83.0","VERDAL REPPE, NO","FM-12","99999","V020","310,1,N,0050,1","00420,1,9,N","055000,1,N,1","+0027,1","+0014,1","10063,1",,,,"8,1,03,1","2,1,03,1",,"08,99,1,08,1,09,1,00450,1,99,9,99,9",,,"99999,9,09961,1","2,1,019,1,+999,9","80,1","SYN072AAXX  25091 01278 41485 83105 10027 20014 39961 40063 52019 78082 889//;",
"01278099999","2010-10-25T12:00:00","4","63.7833333","11.6833333","83.0","VERDAL REPPE, NO","FM-12","99999","V020","280,1,N,0030,1","00210,1,9,N","040000,1,N,1","+0034,1","+0022,1","10073,1",,,,"8,1,06,1","2,1,06,1",,"07,99,1,07,1,09,1,00250,1,06,1,99,9",,,"99999,9,09971,1","2,1,016,1,+999,9","16,1","SYN072AAXX  25121 01278 41382 72803 10034 20022 39971 40073 52016 71682 8796/;",
"01278099999","2010-10-25T18:00:00","4","63.7833333","11.6833333","83.0","VERDAL REPPE, NO","FM-12","99999","V020","290,1,N,0030,1","00750,1,9,N","020000,1,N,1","+0037,1","+0024,1","10104,1","12,0061,9,1",,,"8,1,06,1","2,1,06,1",,"08,99,1,08,1,09,1,00800,1,99,9,99,9",,"999,M,+0043,1","99999,9,10002,1","3,1,014,1,+999,9","80,1","SYN088AAXX  25181 01278 11570 82903 10037 20024 30002 40104 53014 60062 78082 889// 333 10043;",
"01278099999","2010-10-26T06:00:00","4","63.7833333","11.6833333","83.0","VERDAL REPPE, NO","FM-12","99999","V020","310,1,N,0030,1","01200,1,9,N","015000,1,N,1","+0035,1","+0026,1","10178,1","12,0041,9,1","24,0091,9,1",,"8,1,06,1","6,1,06,1",,"08,99,1,08,1,00,1,01250,1,02,1,99,9",,"999,N,+0030,1","99999,9,10075,1","2,1,014,1,+999,9","63,1","SYN094AAXX  26061 01278 11665 83103 10035 20026 30075 40178 52014 60042 76386 8802/ 333 20030 70091;",
"01278099999","2010-10-26T09:00:00","4","63.7833333","11.6833333","83.0","VERDAL REPPE, NO","FM-12","99999","V020","999,9,C,0000,1","00600,1,9,N","040000,1,N,1","+0027,1","+0017,1","10187,1",,,,"6,1,03,1","2,1,03,1",,"07,99,1,07,1,08,1,00250,1,06,1,01,1",,,"99999,9,10082,1","3,1,009,1,+999,9","02,1","SYN072AAXX  26091 01278 41382 70000 10027 20017 30082 40187 53009 70262 87861;",
"01278099999","2010-10-26T12:00:00","4","63.7833333","11.6833333","83.0","VERDAL REPPE, NO","FM-12","99999","V020","140,1,N,0010,1","03000,1,9,N","030000,1,N,1","+0047,1","+0027,1","10187,1",,,,"6,1,06,1","2,1,06,1",,"05,99,1,03,1,08,1,00800,1,07,1,01,1",,,"99999,9,10083,1","4,1,000,1,+999,9","02,1","SYN072AAXX  26121 01278 41580 51401 10047 20027 30083 40187 54000 70262 83871;",
"01278099999","2010-10-26T18:00:00","4","63.7833333","11.6833333","83.0","VERDAL REPPE, NO","FM-12","99999","V020","110,1,N,0010,1","99999,9,9,N","055000,1,N,1","+0010,1","-0004,1","10168,1","12,0020,9,1",,,"2,1,06,1","2,1,06,1",,"05,99,1,02,1,00,1,99999,9,07,1,08,1",,"999,M,+0050,1","99999,9,10063,1","7,1,008,1,+999,9","02,1","SYN088AAXX  26181 01278 11985 51101 10010 21004 30063 40168 57008 60022 70222 82078 333 10050;",
"01278099999","2010-10-27T06:00:00","4","63.7833333","11.6833333","83.0","VERDAL REPPE, NO","FM-12","99999","V020","130,1,N,0070,1","99999,9,9,N","055000,1,N,1","+0039,1","-0029,1","10041,1","24,0015,9,1",,,"1,1,06,1","1,1,06,1",,"07,99,1,07,1,00,1,99999,9,07,1,99,9",,"999,N,+0004,1","99999,9,09938,1","8,1,047,1,+999,9","02,1","SYN088AAXX  27061 01278 31985 71307 10039 21029 39938 40041 58047 70211 8707/ 333 20004 70015;",
"01278099999","2010-10-27T09:00:00","4","63.7833333","11.6833333","83.0","VERDAL REPPE, NO","FM-12","99999","V020","150,1,N,0070,1","03000,1,9,N","075000,1,N,1","+0061,1","-0002,1","09998,1",,,,"2,1,03,1","2,1,03,1",,"08,99,1,01,1,04,1,01750,1,07,1,99,9",,,"99999,9,09897,1","8,1,044,1,+999,9","02,1","SYN072AAXX  27091 01278 41789 81507 10061 21002 39897 49998 58044 70222 8147/;",
"01278099999","2010-10-27T12:00:00","4","63.7833333","11.6833333","83.0","VERDAL REPPE, NO","FM-12","99999","V020","150,1,N,0070,1","03000,1,9,N","075000,1,N,1","+0074,1","+0019,1","09956,1",,,,"8,1,06,1","2,1,06,1",,"07,99,1,04,1,09,1,01750,1,07,1,99,9",,,"99999,9,09857,1","8,1,038,1,+999,9","80,1","SYN072AAXX  27121 01278 41789 71507 10074 20019 39857 49956 58038 78082 8497/;",
"01278099999","2010-10-27T18:00:00","4","63.7833333","11.6833333","83.0","VERDAL REPPE, NO","FM-12","99999","V020","100,1,N,0030,1","22000,1,9,N","055000,1,N,1","+0076,1","+0012,1","09913,1","12,0000,2,1",,,"8,1,06,1","1,1,06,1",,"01,99,1,01,1,04,1,01750,1,00,1,00,1",,"999,M,+0089,1","99999,9,09813,1","6,1,017,1,+999,9","01,1","SYN088AAXX  27181 01278 11785 11003 10076 20012 39813 49913 56017 69922 70181 81400 333 10089;",
"01278099999","2010-10-28T06:00:00","4","63.7833333","11.6833333","83.0","VERDAL REPPE, NO","FM-12","99999","V020","250,1,N,0030,1","03000,1,9,N","055000,1,N,1","+0090,1","+0021,1","09920,1","24,0003,9,1",,,"1,1,06,1","1,1,06,1",,"07,99,1,04,1,08,1,01750,1,07,1,01,1",,"999,N,+0070,1","99999,9,09821,1","5,1,001,1,+999,9","02,1","SYN088AAXX  28061 01278 31785 72503 10090 20021 39821 49920 55001 70211 84871 333 20070 70002;",
"01278099999","2010-10-28T09:00:00","4","63.7833333","11.6833333","83.0","VERDAL REPPE, NO","FM-12","99999","V020","140,1,N,0030,1","01800,1,9,N","075000,1,N,1","+0071,1","+0012,1","09926,1",,,,"2,1,03,1","2,1,03,1",,"07,99,1,07,1,08,1,01750,1,00,1,02,1",,,"99999,9,09827,1","2,1,007,1,+999,9","02,1","SYN072AAXX  28091 01278 41789 71403 10071 20012 39827 49926 52007 70222 87802;",
"01278099999","2010-10-28T12:00:00","4","63.7833333","11.6833333","83.0","VERDAL REPPE, NO","FM-12","99999","V020","140,1,N,0030,1","01500,1,9,N","075000,1,N,1","+0097,1","+0009,1","09930,1",,,,"2,1,06,1","2,1,06,1",,"07,99,1,07,1,09,1,01750,1,99,9,99,9",,,"99999,9,09832,1","3,1,004,1,+999,9","15,1","SYN072AAXX  28121 01278 41789 71403 10097 20009 39832 49930 53004 71522 879//;",
"01278099999","2010-10-28T18:00:00","4","63.7833333","11.6833333","83.0","VERDAL REPPE, NO","FM-12","99999","V020","270,1,N,0030,1","03000,1,9,N","055000,1,N,1","+0085,1","+0030,1","09938,1","12,0000,9,1",,,"8,1,06,1","2,1,06,1",,"05,99,1,03,1,09,1,01750,1,06,1,02,1",,"999,M,+0103,1","99999,9,09838,1","2,1,007,1,+999,9","02,1","SYN088AAXX  28181 01278 11785 52703 10085 20030 39838 49938 52007 69902 70282 83962 333 10103;","Q01  00002PRCP12"
"01278099999","2010-10-29T06:00:00","4","63.7833333","11.6833333","83.0","VERDAL REPPE, NO","FM-12","99999","V020","320,1,N,0030,1","03000,1,9,N","055000,1,N,1","+0053,1","+0038,1","10013,1","12,0030,9,1","24,0033,9,1",,"8,1,06,1","2,1,06,1",,"08,99,1,04,1,09,1,00450,1,07,1,99,9",,"999,N,+0053,1","99999,9,09912,1","2,1,019,1,+999,9","02,1","SYN094AAXX  29061 01278 11485 83203 10053 20038 39912 40013 52019 60032 70282 8497/ 333 20053 70032;",
"01278099999","2010-10-29T09:00:00","4","63.7833333","11.6833333","83.0","VERDAL REPPE, NO","FM-12","99999","V020","999,9,C,0000,1","03000,1,9,N","030000,1,N,1","+0051,1","+0039,1","10018,1",,,,"2,1,03,1","2,1,03,1",,"08,99,1,03,1,05,1,01750,1,07,1,99,9",,,"99999,9,09917,1","0,1,003,1,+999,9","02,1","SYN072AAXX  29091 01278 41780 80000 10051 20039 39917 40018 50003 70222 8357/;",
"01278099999","2010-10-29T12:00:00","4","63.7833333","11.6833333","83.0","VERDAL REPPE, NO","FM-12","99999","V020","100,1,N,0010,1","03000,1,9,N","055000,1,N,1","+0052,1","+0040,1","10012,1",,,,"2,1,06,1","2,1,06,1",,"08,99,1,01,1,07,1,00450,1,02,1,99,9",,,"99999,9,09911,1","8,1,008,1,+999,9","02,1","SYN072AAXX  29121 01278 41485 81001 10052 20040 39911 40012 58008 70222 8172/;",
"01278099999","2010-10-29T18:00:00","4","63.7833333","11.6833333","83.0","VERDAL REPPE, NO","FM-12","99999","V020","100,1,N,0050,1","99999,9,9,N","055000,1,N,1","+0055,1","+0023,1","09950,1","12,0000,9,1",,,"8,1,06,1","2,1,06,1",,"08,99,1,08,1,00,1,99999,9,07,1,99,9",,"999,M,+0062,1","99999,9,09850,1","6,1,021,1,+999,9","02,1","SYN088AAXX  29181 01278 11985 81005 10055 20023 39850 49950 56021 69902 70282 8807/ 333 10062;","Q01  00002PRCP12"
"01278099999","2010-10-30T06:00:00","4","63.7833333","11.6833333","83.0","VERDAL REPPE, NO","FM-12","99999","V020","100,1,N,0050,1","03000,1,9,N","055000,1,N,1","+0074,1","+0042,1","09900,1","12,0030,9,1","24,0030,9,1",,"8,1,06,1","2,1,06,1",,"08,99,1,01,1,04,1,01750,1,02,1,99,9",,"999,N,+0054,1","99999,9,09801,1","8,1,014,1,+999,9","02,1","SYN094AAXX  30061 01278 11785 81005 10074 20042 39801 49900 58014 60032 70282 8142/ 333 20054 70030;",
"01278099999","2010-10-30T09:00:00","4","63.7833333","11.6833333","83.0","VERDAL REPPE, NO","FM-12","99999","V020","150,1,N,0050,1","03000,1,9,N","055000,1,N,1","+0096,1","+0038,1","09898,1",,,,"6,1,03,1","2,1,03,1",,"08,99,1,02,1,07,1,01250,1,02,1,99,9",,,"99999,9,09800,1","5,1,001,1,+999,9","60,1","SYN072AAXX  30091 01278 41685 81505 10096 20038 39800 49898 55001 76062 8272/;",
"01278099999","2010-10-30T12:00:00","4","63.7833333","11.6833333","83.0","VERDAL REPPE, NO","FM-12","99999","V020","050,1,N,0050,1","03000,1,9,N","025000,1,N,1","+0091,1","+0045,1","09890,1",,,,"6,1,06,1","2,1,06,1",,"08,99,1,02,1,07,1,01250,1,02,1,99,9",,,"99999,9,09792,1","7,1,011,1,+999,9","61,1","SYN072AAXX  30121 01278 41675 80505 10091 20045 39792 49890 57011 76162 8272/;",
"01278099999","2010-10-30T18:00:00","4","63.7833333","11.6833333","83.0","VERDAL REPPE, NO","FM-12","99999","V020","110,1,N,0030,1","99999,9,9,N","055000,1,N,1","+0102,1","+0048,1","09875,1","12,0003,9,1",,,"6,1,06,1","2,1,06,1",,"08,99,1,08,1,00,1,99999,9,02,1,99,9",,"999,M,+0105,1","99999,9,09777,1","0,1,002,1,+999,9","60,1","SYN088AAXX  30181 01278 11985 81103 10102 20048 39777 49875 50002 69932 76062 8802/ 333 10105;",
"01278099999","2010-10-31T06:00:00","4","63.7833333","11.6833333","83.0","VERDAL REPPE, NO","FM-12","99999","V020","110,1,N,0010,1","07500,1,9,N","055000,1,N,1","+0078,1","-0004,1","09915,1","12,0000,2,1","24,0003,9,1",,"1,1,06,1","1,1,06,1",,"07,99,1,01,1,04,1,01750,1,00,1,06,1",,"999,N,+0041,1","99999,9,09816,1","3,1,002,1,+999,9","03,1","SYN094AAXX  31061 01278 11785 71101 10078 21004 39816 49915 53002 69902 70311 81406 333 20041 70003;",
"01278099999","2010-10-31T09:00:00","4","63.7833333","11.6833333","83.0","VERDAL REPPE, NO","FM-12","99999","V020","150,1,N,0050,1","03000,1,9,N","055000,1,N,1","+0097,1","-0022,1","09922,1",,,,"2,1,03,1","2,1,03,1",,"07,99,1,01,1,04,1,01250,1,07,1,02,1",,,"99999,9,09823,1","2,1,008,1,+999,9","02,1","SYN072AAXX  31091 01278 41685 71505 10097 21022 39823 49922 52008 70222 81472;",
"01278099999","2010-10-31T12:00:00","4","63.7833333","11.6833333","83.0","VERDAL REPPE, NO","FM-12","99999","V020","150,1,N,0070,1","22000,1,9,N","055000,1,N,1","+0110,1","-0004,1","09906,1",,,,"1,1,06,1","1,1,06,1",,"01,99,1,01,1,00,1,99999,9,07,1,00,1",,,"99999,9,09807,1","7,1,013,1,+999,9","01,1","SYN072AAXX  31121 01278 41985 11507 10110 21004 39807 49906 57013 70111 81070;",
"01278099999","2010-10-31T18:00:00","4","63.7833333","11.6833333","83.0","VERDAL REPPE, NO","FM-12","99999","V020","110,1,N,0010,1","02100,1,9,N","055000,1,N,1","+0085,1","+0030,1","09948,1","12,9999,9,9",,,"6,1,06,1","2,1,06,1",,"08,99,1,08,1,00,1,02250,1,02,1,99,9",,"999,M,+0115,1","99999,9,09848,1","3,1,029,1,+999,9","60,1","SYN088AAXX  31181 01278 11885 81101 10085 20030 39848 49948 53029 69902 76062 8802/ 333 10115;","Q01  00002PRCP12Q02  00002PRCP12"
"01278099999","2010-11-01T06:00:00","4","63.7833333","11.6833333","83.0","VERDAL REPPE, NO","FM-12","99999","V020","290,1,N,0070,1","00420,1,9,N","030000,1,N,1","+0053,1","+0025,1","10028,1","12,0005,9,1","24,0005,9,1",,"8,1,06,1","2,1,06,1",,"07,99,1,07,1,09,1,00450,1,99,9,99,9",,"999,N,+0053,1","99999,9,09927,1","3,1,022,1,+999,9","80,1","SYN094AAXX  01061 01278 11480 72907 10053 20025 39927 40028 53022 69952 78082 879// 333 20053 70005;",
"01278099999","2010-11-01T09:00:00","4","63.7833333","11.6833333","83.0","VERDAL REPPE, NO","FM-12","99999","V020","280,1,N,0050,1","00750,1,9,N","055000,1,N,1","+0044,1","+0024,1","10059,1",,,,"8,1,03,1","2,1,03,1",,"07,99,1,07,1,09,1,00800,1,99,9,99,9",,,"99999,9,09957,1","1,1,029,1,+999,9","02,1","SYN072AAXX  01091 01278 41585 72805 10044 20024 39957 40059 51029 70282 879//;",
"01278099999","2010-11-01T12:00:00","4","63.7833333","11.6833333","83.0","VERDAL REPPE, NO","FM-12","99999","V020","280,1,N,0050,1","00750,1,9,N","010000,1,N,1","+0044,1","+0014,1","10085,1",,,,"8,1,06,1","2,1,06,1",,"08,99,1,08,1,09,1,00800,1,99,9,99,9",,,"99999,9,09982,1","1,1,026,1,+999,9","80,1","SYN072AAXX  01121 01278 41560 82805 10044 20014 39982 40085 51026 78082 889//;",
"01278099999","2010-11-01T18:00:00","4","63.7833333","11.6833333","83.0","VERDAL REPPE, NO","FM-12","99999","V020","330,1,N,0010,1","01500,1,9,N","055000,1,N,1","+0033,1","+0014,1","10108,1","12,0010,9,1",,,"8,1,06,1","2,1,06,1",,"06,99,1,06,1,09,1,01750,1,99,9,99,9",,"999,M,+0055,1","99999,9,10005,1","2,1,008,1,+999,9","02,1","SYN088AAXX  01181 01278 11785 63301 10033 20014 30005 40108 52008 60012 70282 869// 333 10055;",
"01278099999","2010-11-02T06:00:00","4","63.7833333","11.6833333","83.0","VERDAL REPPE, NO","FM-12","99999","V020","150,1,N,0100,1","99999,9,9,N","055000,1,N,1","+0052,1","-0033,1","09994,1","24,0010,9,1",,,"1,1,06,1","1,1,06,1",,"07,99,1,07,1,00,1,99999,9,07,1,99,9",,"999,N,+0001,1","99999,9,09892,1","8,1,047,1,+999,9","02,1","SYN088AAXX  02061 01278 31985 71510 10052 21033 39892 49994 58047 70211 8707/ 333 20001 70010;",
"01278099999","2010-11-02T09:00:00","4","63.7833333","11.6833333","83.0","VERDAL REPPE, NO","FM-12","99999","V020","150,1,N,0100,1","03000,1,9,N","055000,1,N,1","+0053,1","-0005,1","09947,1",,,,"6,1,03,1","2,1,03,1",,"08,99,1,02,1,08,1,01250,1,07,1,99,9",,,"99999,9,09847,1","8,1,044,1,+999,9","60,1","SYN072AAXX  02091 01278 41685 81510 10053 21005 39847 49947 58044 76062 8287/;",
"01278099999","2010-11-02T12:00:00","4","63.7833333","11.6833333","83.0","VERDAL REPPE, NO","FM-12","99999","V020","150,1,N,0050,1","03000,1,9,N","055000,1,N,1","+0060,1","+0006,1","09919,1",,,,"6,1,06,1","2,1,06,1",,"08,99,1,01,1,07,1,01250,1,02,1,99,9",,,"99999,9,09818,1","8,1,033,1,+999,9","60,1","SYN072AAXX  02121 01278 41685 81505 10060 20006 39818 49919 58033 76062 8172/;",
"01278099999","2010-11-02T18:00:00","4","63.7833333","11.6833333","83.0","VERDAL REPPE, NO","FM-12","99999","V020","010,1,N,0010,1","99999,9,9,N","055000,1,N,1","+0078,1","+0014,1","09870,1","12,0000,2,1",,,"6,1,06,1","2,1,06,1",,"07,99,1,07,1,00,1,99999,9,07,1,99,9",,"999,M,+0086,1","99999,9,09772,1","6,1,020,1,+999,9","02,1","SYN088AAXX  02181 01278 11985 70101 10078 20014 39772 49870 56020 69902 70262 8707/ 333 10086;",
"01278099999","2010-11-03T06:00:00","4","63.7833333","11.6833333","83.0","VERDAL REPPE, NO","FM-12","99999","V020","140,1,N,0030,1","03000,1,9,N","055000,1,N,1","+0037,1","+0004,1","09813,1","24,0000,2,1",,,"2,1,06,1","2,1,06,1",,"07,99,1,01,1,04,1,01750,1,07,1,99,9",,"999,N,+0035,1","99999,9,09713,1","7,1,007,1,+999,9","02,1","SYN088AAXX  03061 01278 31785 71403 10037 20004 39713 49813 57007 70222 8147/ 333 20035 79999;",
"01278099999","2010-11-03T09:00:00","4","63.7833333","11.6833333","83.0","VERDAL REPPE, NO","FM-12","99999","V020","100,1,N,0010,1","03000,1,9,N","075000,1,N,1","+0045,1","+0007,1","09817,1",,,,"2,1,03,1","2,1,03,1",,"07,99,1,04,1,08,1,01750,1,07,1,01,1",,,"99999,9,09717,1","3,1,004,1,+999,9","02,1","SYN072AAXX  03091 01278 41789 71001 10045 20007 39717 49817 53004 70222 84871;",
"01278099999","2010-11-03T12:00:00","4","63.7833333","11.6833333","83.0","VERDAL REPPE, NO","FM-12","99999","V020","110,1,N,0030,1","03000,1,9,N","055000,1,N,1","+0062,1","+0021,1","09814,1",,,,"2,1,06,1","2,1,06,1",,"07,99,1,01,1,04,1,01750,1,07,1,08,1",,,"99999,9,09716,1","7,1,002,1,+999,9","02,1","SYN072AAXX  03121 01278 41785 71103 10062 20021 39716 49814 57002 70222 81478;",
"01278099999","2010-11-03T18:00:00","4","63.7833333","11.6833333","83.0","VERDAL REPPE, NO","FM-12","99999","V020","110,1,N,0010,1","01500,1,9,N","030000,1,N,1","+0045,1","+0022,1","09833,1","12,9999,9,9",,,"6,1,06,1","2,1,06,1",,"08,99,1,08,1,00,1,01750,1,02,1,99,9",,"999,M,+0070,1","99999,9,09733,1","2,1,013,1,+999,9","60,1","SYN088AAXX  03181 01278 11780 81101 10045 20022 39733 49833 52013 69912 76062 8802/ 333 10070;","Q01  00002PRCP12Q02  00002PRCP12"
"01278099999","2010-11-04T06:00:00","4","63.7833333","11.6833333","83.0","VERDAL REPPE, NO","FM-12","99999","V020","270,1,N,0030,1","99999,9,9,N","055000,1,N,1","+0058,1","+0023,1","09868,1","12,0000,2,1","24,0003,9,1",,"6,1,06,1","2,1,06,1",,"07,99,1,07,1,00,1,99999,9,07,1,99,9",,"999,N,+0040,1","99999,9,09768,1","1,1,006,1,+999,9","02,1","SYN094AAXX  04061 01278 11985 72703 10058 20023 39768 49868 51006 69912 70262 8707/ 333 20040 70002;",
"01278099999","2010-11-04T09:00:00","4","63.7833333","11.6833333","83.0","VERDAL REPPE, NO","FM-12","99999","V020","270,1,N,0050,1","00750,1,9,N","055000,1,N,1","+0061,1","+0018,1","09880,1",,,,"2,1,03,1","2,1,03,1",,"07,99,1,06,1,09,1,00800,1,06,1,01,1",,,"99999,9,09781,1","2,1,011,1,+999,9","15,1","SYN072AAXX  04091 01278 41585 72705 10061 20018 39781 49880 52011 71522 86961;",
"01278099999","2010-11-04T12:00:00","4","63.7833333","11.6833333","83.0","VERDAL REPPE, NO","FM-12","99999","V020","280,1,N,0070,1","00750,1,9,N","010000,1,N,1","+0057,1","+0027,1","09900,1",,,,"8,1,06,1","2,1,06,1",,"07,99,1,07,1,09,1,00800,1,99,9,99,9",,,"99999,9,09800,1","3,1,020,1,+999,9","80,1","SYN072AAXX  04121 01278 41560 72807 10057 20027 39800 49900 53020 78082 879//;",
"01278099999","2010-11-04T18:00:00","4","63.7833333","11.6833333","83.0","VERDAL REPPE, NO","FM-12","99999","V020","280,1,N,0070,1","01200,1,9,N","055000,1,N,1","+0053,1","+0023,1","09923,1","12,0005,9,1",,,"8,1,06,1","2,1,06,1",,"08,99,1,08,1,09,1,01250,1,99,9,99,9",,"999,M,+0065,1","99999,9,09822,1","3,1,008,1,+999,9","80,1","SYN088AAXX  04181 01278 11685 82807 10053 20023 39822 49923 53008 69952 78082 889// 333 10065;",
"01278099999","2010-11-05T06:00:00","4","63.7833333","11.6833333","83.0","VERDAL REPPE, NO","FM-12","99999","V020","330,1,N,0010,1","00420,1,9,N","015000,1,N,1","+0045,1","+0032,1","09951,1","12,0170,9,1","24,0173,9,1",,"8,1,06,1","6,1,06,1",,"08,99,1,08,1,00,1,00450,1,02,1,99,9",,"999,N,+0044,1","99999,9,09851,1","2,1,008,1,+999,9","63,1","SYN094AAXX  05061 01278 11465 83301 10045 20032 39851 49951 52008 60172 76386 8802/ 333 20044 70172;",
"01278099999","2010-11-05T09:00:00","4","63.7833333","11.6833333","83.0","VERDAL REPPE, NO","FM-12","99999","V020","330,1,N,0010,1","00420,1,9,N","015000,1,N,1","+0044,1","+0031,1","09964,1",,,,"6,1,03,1","6,1,03,1",,"08,99,1,08,1,00,1,00450,1,02,1,99,9",,,"99999,9,09862,1","2,1,012,1,+999,9","61,1","SYN072AAXX  05091 01278 41465 83301 10044 20031 39862 49964 52012 76166 8802/;",
"01278099999","2010-11-05T12:00:00","4","63.7833333","11.6833333","83.0","VERDAL REPPE, NO","FM-12","99999","V020","330,1,N,0030,1","03000,1,9,N","030000,1,N,1","+0037,1","+0022,1","09986,1",,,,"6,1,06,1","6,1,06,1",,"08,99,1,04,1,07,1,00150,1,02,1,99,9",,,"99999,9,09885,1","3,1,022,1,+999,9","61,1","SYN072AAXX  05121 01278 41280 83303 10037 20022 39885 49986 53022 76166 8472/;",
"01278099999","2010-11-05T18:00:00","4","63.7833333","11.6833333","83.0","VERDAL REPPE, NO","FM-12","99999","V020","999,9,C,0000,1","00420,1,9,N","030000,1,N,1","+0016,1","+0004,1","10024,1","12,0079,9,1",,,"6,1,06,1","2,1,06,1",,"07,99,1,07,1,09,1,00450,1,99,9,99,9",,"999,M,+0047,1","99999,9,09922,1","1,1,010,1,+999,9","02,1","SYN088AAXX  05181 01278 11480 70000 10016 20004 39922 40024 51010 60082 70262 879// 333 10047;",
"01278099999","2010-11-06T06:00:00","4","63.7833333","11.6833333","83.0","VERDAL REPPE, NO","FM-12","99999","V020","300,1,N,0050,1","22000,1,9,N","030000,1,N,1","+0010,1","-0003,1","10015,1","12,0010,9,1","24,0086,9,1","9999,3,9,999999,9,9","8,1,06,1","2,1,06,1",,"04,99,1,03,1,09,1,01250,1,06,1,01,1","27,9","999,N,+0005,1","99999,9,09912,1","8,1,006,1,+999,9","02,1","SYN100AAXX  06061 01278 11680 43005 10010 21003 39912 40015 58006 60012 70282 83961 333 20005 43997 70087;","Q01  09972SNDP  "
"01278099999","2010-11-06T09:00:00","4","63.7833333","11.6833333","83.0","VERDAL REPPE, NO","FM-12","99999","V020","280,1,N,0050,1","00750,1,9,N","025000,1,N,1","+0007,1","-0007,1","10017,1",,,,"8,1,03,1","2,1,03,1",,"07,99,1,07,1,09,1,00800,1,99,9,99,9",,,"99999,9,09913,1","4,1,000,1,+999,9","85,1","SYN072AAXX  06091 01278 41575 72805 10007 21007 39913 40017 54001 78582 879//;",
"01278099999","2010-11-06T12:00:00","4","63.7833333","11.6833333","83.0","VERDAL REPPE, NO","FM-12","99999","V020","290,1,N,0050,1","00120,1,9,N","015000,1,N,1","+0006,1","-0007,1","10018,1",,,,"8,1,06,1","2,1,06,1",,"07,99,1,07,1,09,1,00150,1,99,9,99,9",,,"99999,9,09915,1","4,1,000,1,+999,9","85,1","SYN072AAXX  06121 01278 41265 72905 10006 21007 39915 40018 54001 78582 879//;",
"01278099999","2010-11-06T18:00:00","4","63.7833333","11.6833333","83.0","VERDAL REPPE, NO","FM-12","99999","V020","290,1,N,0050,1","00240,1,9,N","007000,1,N,1","-0002,1","-0009,1","10003,1","12,0020,9,1",,,"8,1,06,1","2,1,06,1","09,1,+99999,9,99,9","09,99,1,09,1,99,9,99999,9,99,9,99,9",,"999,M,+0014,1","99999,9,09900,1","8,1,007,1,+999,9","85,1","SYN082AAXX  06181 01278 11/57 92905 11002 21009 39900 40003 58007 60022 78582 333 10014;",
"01278099999","2010-11-07T06:00:00","4","63.7833333","11.6833333","83.0","VERDAL REPPE, NO","FM-12","99999","V020","290,1,N,0050,1","00060,1,9,N","000700,1,N,1","-0007,1","-0016,1","09985,1","12,0041,9,1","24,0056,9,1","0010,9,1,999999,9,9","8,1,06,1","2,1,06,1","09,1,+99999,9,99,9","09,99,1,09,1,99,9,99999,9,99,9,99,9","23,9","999,N,-0010,1","99999,9,09882,1","1,1,005,1,+999,9","86,1","SYN094AAXX  07061 01278 11/07 92905 11007 21016 39882 49985 51005 60042 78682 333 21010 47010 70057;",
"01278099999","2010-11-07T09:00:00","4","63.7833333","11.6833333","83.0","VERDAL REPPE, NO","FM-12","99999","V020","300,1,N,0030,1","00750,1,9,N","055000,1,N,1","-0012,1","-0019,1","09997,1",,,,"8,1,03,1","2,1,03,1",,"07,99,1,07,1,09,1,00800,1,99,9,99,9",,,"99999,9,09893,1","2,1,011,1,+999,9","02,1","SYN072AAXX  07091 01278 41585 73003 11012 21019 39893 49997 52011 70282 879//;",
"01278099999","2010-11-07T12:00:00","4","63.7833333","11.6833333","83.0","VERDAL REPPE, NO","FM-12","99999","V020","280,1,N,0010,1","00750,1,9,N","055000,1,N,1","-0004,1","-0019,1","99999,9",,,,"8,1,06,1","2,1,06,1",,"07,99,1,07,1,09,1,00800,1,99,9,99,9",,,,"8,1,003,1,+999,9","15,1","SYN072AAXX  07121 01278 41585 72801 11004 21019 39819 49922 58003 71582 879//;","Q01+098193APOSP "
"01278099999","2010-11-07T18:00:00","4","63.7833333","11.6833333","83.0","VERDAL REPPE, NO","FM-12","99999","V020","999,9,C,0000,1","00420,1,9,N","055000,1,N,1","-0014,1","-0024,1","10003,1","12,0030,9,1",,,"8,1,06,1","2,1,06,1",,"07,99,1,07,1,09,1,00450,1,99,9,99,9",,"999,M,+0000,1","99999,9,09900,1","3,1,005,1,+999,9","02,1","SYN088AAXX  07181 01278 11485 70000 11014 21024 39900 40003 53005 60032 70282 879// 333 10000;",
"01278099999","2010-11-08T06:00:00","4","63.7833333","11.6833333","83.0","VERDAL REPPE, NO","FM-12","99999","V020","130,1,N,0030,1","22000,1,9,N","055000,1,N,1","-0064,1","-0075,1","10020,1","24,0030,9,1",,"0010,9,1,999999,9,9","1,1,06,1","1,1,06,1","00,1,+99999,9,99,9","00,99,1,00,1,00,1,99999,9,00,1,00,1","23,9","999,N,-0067,1","99999,9,09915,1","3,1,004,1,+999,9","02,1","SYN088AAXX  08061 01278 31985 01303 11064 21075 39915 40020 53004 70211 333 21067 47010 70030;",
"01278099999","2010-11-08T09:00:00","4","63.7833333","11.6833333","83.0","VERDAL REPPE, NO","FM-12","99999","V020","130,1,N,0030,1","22000,1,9,N","055000,1,N,1","-0069,1","-0080,1","10028,1",,,,"0,1,03,1","0,1,03,1",,"01,99,1,00,1,00,1,99999,9,00,1,01,1",,,"99999,9,09922,1","2,1,007,1,+999,9","02,1","SYN072AAXX  08091 01278 41985 11303 11069 21080 39922 40028 52007 70200 80001;",
"01278099999","2010-11-08T12:00:00","4","63.7833333","11.6833333","83.0","VERDAL REPPE, NO","FM-12","99999","V020","130,1,N,0010,1","22000,1,9,N","055000,1,N,1","-0047,1","-0063,1","10027,1",,,,"0,1,06,1","0,1,06,1",,"02,99,1,01,1,06,1,00800,1,00,1,01,1",,,"99999,9,09922,1","4,1,000,1,+999,9","02,1","SYN072AAXX  08121 01278 41585 21301 11047 21063 39922 40027 54001 70200 81601;",
"01278099999","2010-11-08T18:00:00","4","63.7833333","11.6833333","83.0","VERDAL REPPE, NO","FM-12","99999","V020","150,1,N,0030,1","22000,1,9,N","055000,1,N,1","-0059,1","-0075,1","10030,1",,,,"0,1,06,1","0,1,06,1",,"02,99,1,00,1,00,1,99999,9,00,1,01,1",,"999,M,-0045,1","99999,9,09925,1","2,1,005,1,+999,9","02,1","SYN082AAXX  08181 01278 31985 21503 11059 21075 39925 40030 52005 70200 80001 333 11045;",
"01278099999","2010-11-09T06:00:00","4","63.7833333","11.6833333","83.0","VERDAL REPPE, NO","FM-12","99999","V020","140,1,N,0030,1","22000,1,9,N","055000,1,N,1","-0060,1","-0089,1","10043,1","24,0000,9,1",,"0009,9,1,999999,9,9","0,1,06,1","0,1,06,1",,"01,99,1,00,1,00,1,99999,9,00,1,01,1","23,9","999,N,-0068,1","99999,9,09937,1","2,1,006,1,+999,9","02,1","SYN094AAXX  09061 01278 31985 11403 11060 21089 39937 40043 52006 70200 80001 333 21068 47009 70000;","Q01  00002PRCP24"
"01278099999","2010-11-09T09:00:00","4","63.7833333","11.6833333","83.0","VERDAL REPPE, NO","FM-12","99999","V020","130,1,N,0050,1","22000,1,9,N","075000,1,N,1","-0049,1","-0089,1","10051,1",,,,"0,1,03,1","0,1,03,1",,"03,99,1,01,1,05,1,01750,1,00,1,02,1",,,"99999,9,09946,1","2,1,007,1,+999,9","02,1","SYN072AAXX  09091 01278 41789 31305 11049 21089 39946 40051 52007 70200 81502;",
"01278099999","2010-11-09T12:00:00","4","63.7833333","11.6833333","83.0","VERDAL REPPE, NO","FM-12","99999","V020","120,1,N,0070,1","22000,1,9,N","075000,1,N,1","+0036,1","-0008,1","10039,1",,,,"0,1,06,1","0,1,06,1",,"02,99,1,00,1,00,1,99999,9,00,1,02,1",,,"99999,9,09937,1","8,1,010,1,+999,9","02,1","SYN072AAXX  09121 01278 41989 21207 10036 21008 39937 40039 58010 70200 80002;",
"01278099999","2010-11-09T18:00:00","4","63.7833333","11.6833333","83.0","VERDAL REPPE, NO","FM-12","99999","V020","150,1,N,0070,1","22000,1,9,N","055000,1,N,1","-0032,1","-0072,1","10043,1",,,,"0,1,06,1","0,1,06,1",,"02,99,1,00,1,00,1,99999,9,00,1,02,1",,"999,M,-0027,1","99999,9,09938,1","3,1,001,1,+999,9","02,1","SYN082AAXX  09181 01278 31985 21507 11032 21072 39938 40043 53001 70200 80002 333 11027;",
"01278099999","2010-11-10T06:00:00","4","63.7833333","11.6833333","83.0","VERDAL REPPE, NO","FM-12","99999","V020","999,9,C,0000,1","99999,9,9,N","055000,1,N,1","-0072,1","-0096,1","10002,1","24,0000,9,1",,"0008,9,1,999999,9,9","1,1,06,1","1,1,06,1",,"07,99,1,06,1,00,1,99999,9,02,1,01,1","28,9","999,N,-0072,1","99999,9,09897,1","7,1,009,1,+999,9","02,1","SYN094AAXX  10061 01278 31985 70000 11072 21096 39897 40002 57009 70211 86021 333 21072 44008 70000;","Q01  00002PRCP24"
"01278099999","2010-11-10T09:00:00","4","63.7833333","11.6833333","83.0","VERDAL REPPE, NO","FM-12","99999","V020","150,1,N,0010,1","99999,9,9,N","055000,1,N,1","-0065,1","-0089,1","09988,1",,,,"2,1,03,1","2,1,03,1",,"08,99,1,08,1,00,1,99999,9,02,1,99,9",,,"99999,9,09882,1","8,1,012,1,+999,9","02,1","SYN072AAXX  10091 01278 41985 81501 11065 21089 39882 49988 58012 70222 8802/;",
"01278099999","2010-11-10T12:00:00","4","63.7833333","11.6833333","83.0","VERDAL REPPE, NO","FM-12","99999","V020","150,1,N,0030,1","99999,9,9,N","055000,1,N,1","-0060,1","-0083,1","09965,1",,,,"7,1,06,1","2,1,06,1",,"07,99,1,03,1,00,1,99999,9,07,1,08,1",,,"99999,9,09860,1","8,1,024,1,+999,9","70,1","SYN072AAXX  10121 01278 41985 71503 11060 21083 39860 49965 58024 77072 83078;",
"01278099999","2010-11-10T18:00:00","4","63.7833333","11.6833333","83.0","VERDAL REPPE, NO","FM-12","99999","V020","070,1,N,0010,1","99999,9,9,N","055000,1,N,1","-0052,1","-0071,1","09932,1","12,0000,2,1",,,"7,1,06,1","2,1,06,1",,"06,99,1,04,1,00,1,99999,9,07,1,01,1",,"999,M,-0046,1","99999,9,09827,1","7,1,013,1,+999,9","02,1","SYN088AAXX  10181 01278 11985 60701 11052 21071 39827 49932 57013 69902 70272 84071 333 11046;",
"01278099999","2010-11-11T06:00:00","4","63.7833333","11.6833333","83.0","VERDAL REPPE, NO","FM-12","99999","V020","150,1,N,0010,1","01500,1,9,N","055000,1,N,1","-0052,1","-0067,1","09919,1","12,9999,9,9","24,0000,2,1","0007,9,1,999999,9,9","7,1,06,1","2,1,06,1",,"08,99,1,08,1,00,1,01750,1,02,1,99,9","28,9","999,N,-0059,1","99999,9,09815,1","7,1,005,1,+999,9","70,1","SYN100AAXX  11061 01278 11785 81501 11052 21067 39815 49919 57005 69902 77072 8802/ 333 21059 44007 79999;","Q01  00002PRCP12Q02  00002PRCP12"
"01278099999","2010-11-11T09:00:00","4","63.7833333","11.6833333","83.0","VERDAL REPPE, NO","FM-12","99999","V020","120,1,N,0010,1","00240,1,9,N","005000,1,N,1","-0052,1","-0064,1","09915,1",,,,"7,1,03,1","2,1,03,1","09,1,+99999,9,99,9","09,99,1,09,1,99,9,99999,9,99,9,99,9",,,"99999,9,09811,1","8,1,005,1,+999,9","70,1","SYN066AAXX  11091 01278 41/50 91201 11052 21064 39811 49915 58005 77072;",
"01278099999","2010-11-11T12:00:00","4","63.7833333","11.6833333","83.0","VERDAL REPPE, NO","FM-12","99999","V020","100,1,N,0010,1","03000,1,9,N","055000,1,N,1","-0040,1","-0054,1","09897,1",,,,"7,1,06,1","2,1,06,1",,"07,99,1,04,1,08,1,01750,1,07,1,99,9",,,"99999,9,09793,1","8,1,015,1,+999,9","02,1","SYN072AAXX  11121 01278 41785 71001 11040 21054 39793 49897 58015 70272 8487/;",
"01278099999","2010-11-11T18:00:00","4","63.7833333","11.6833333","83.0","VERDAL REPPE, NO","FM-12","99999","V020","150,1,N,0030,1","03000,1,C,N","055000,1,N,1","-0057,1","-0073,1","09867,1","12,0008,9,1",,,"2,1,06,1","2,1,06,1",,"05,99,1,02,1,04,1,01750,1,07,1,99,9",,"999,M,-0036,1","99999,9,09763,1","8,1,023,1,+999,9","02,1","SYN088AAXX  11181 01278 11785 51503 11057 21073 39763 49867 58023 69972 70222 8247/ 333 11036;",
"01278099999","2010-11-12T06:00:00","4","63.7833333","11.6833333","83.0","VERDAL REPPE, NO","FM-12","99999","V020","120,1,N,0070,1","99999,9,9,N","055000,1,N,1","-0025,1","-0064,1","09787,1","24,0008,9,1",,"0010,9,1,999999,9,9","1,1,06,1","1,1,06,1",,"07,99,1,06,1,00,1,99999,9,07,1,02,1","28,9","999,N,-0078,1","99999,9,09686,1","8,1,010,1,+999,9","03,1","SYN094AAXX  12061 01278 31985 71207 11025 21064 39686 49787 58010 70311 86072 333 21078 44010 70007;",
"01278099999","2010-11-12T09:00:00","4","63.7833333","11.6833333","83.0","VERDAL REPPE, NO","FM-12","99999","V020","120,1,N,0070,1","99999,9,9,N","075000,1,N,1","-0016,1","-0058,1","09790,1",,,,"2,1,03,1","2,1,03,1",,"07,99,1,06,1,00,1,99999,9,07,1,02,1",,,"99999,9,09688,1","3,1,003,1,+999,9","02,1","SYN072AAXX  12091 01278 41989 71207 11016 21058 39688 49790 53003 70222 86072;",
"01278099999","2010-11-12T12:00:00","4","63.7833333","11.6833333","83.0","VERDAL REPPE, NO","FM-12","99999","V020","100,1,N,0070,1","03000,1,9,N","075000,1,N,1","-0022,1","-0064,1","09789,1",,,,"2,1,06,1","2,1,06,1",,"08,99,1,01,1,04,1,01250,1,07,1,99,9",,,"99999,9,09687,1","5,1,000,1,+999,9","02,1","SYN072AAXX  12121 01278 41689 81007 11022 21064 39687 49789 55000 70222 8147/;",
"01278099999","2010-11-12T18:00:00","4","63.7833333","11.6833333","83.0","VERDAL REPPE, NO","FM-12","99999","V020","140,1,N,0070,1","99999,9,9,N","055000,1,N,1","-0007,1","-0046,1","09785,1",,,,"2,1,06,1","2,1,06,1",,"08,99,1,08,1,00,1,99999,9,07,1,99,9",,"999,M,-0001,1","99999,9,09683,1","4,1,000,1,+999,9","02,1","SYN082AAXX  12181 01278 31985 81407 11007 21046 39683 49785 54000 70222 8807/ 333 11001;",
"01278099999","2010-11-13T06:00:00","4","63.7833333","11.6833333","83.0","VERDAL REPPE, NO","FM-12","99999","V020","130,1,N,0070,1","99999,9,9,N","055000,1,N,1","+0006,1","-0042,1","09780,1","24,0000,9,1",,"0009,9,1,999999,9,9","2,1,06,1","2,1,06,1",,"08,99,1,08,1,00,1,99999,9,02,1,99,9","28,9","999,N,-0007,1","99999,9,09680,1","7,1,001,1,+999,9","02,1","SYN094AAXX  13061 01278 31985 81307 10006 21042 39680 49780 57001 70222 8802/ 333 21007 44009 70000;","Q01  00002PRCP24"
"01278099999","2010-11-13T09:00:00","4","63.7833333","11.6833333","83.0","VERDAL REPPE, NO","FM-12","99999","V020","100,1,N,0070,1","03000,1,9,N","075000,1,N,1","+0008,1","-0040,1","09785,1",,,,"2,1,03,1","2,1,03,1",,"07,99,1,01,1,08,1,01750,1,07,1,01,1",,,"99999,9,09685,1","2,1,006,1,+999,9","02,1","SYN072AAXX  13091 01278 41789 71007 10008 21040 39685 49785 52006 70222 81871;",
"01278099999","2010-11-13T12:00:00","4","63.7833333","11.6833333","83.0","VERDAL REPPE, NO","FM-12","99999","V020","110,1,N,0050,1","03000,1,9,N","075000,1,N,1","+0013,1","-0041,1","09795,1",,,,"2,1,06,1","2,1,06,1",,"08,99,1,01,1,08,1,02250,1,07,1,99,9",,,"99999,9,09695,1","3,1,010,1,+999,9","02,1","SYN072AAXX  13121 01278 41889 81105 10013 21041 39695 49795 53010 70222 8187/;",
"01278099999","2010-11-13T18:00:00","4","63.7833333","11.6833333","83.0","VERDAL REPPE, NO","FM-12","99999","V020","100,1,N,0030,1","03000,1,9,N","055000,1,N,1","+0008,1","-0036,1","09813,1",,,,"2,1,06,1","2,1,06,1",,"07,99,1,01,1,04,1,01750,1,07,1,99,9",,"999,M,+0017,1","99999,9,09712,1","2,1,012,1,+999,9","02,1","SYN082AAXX  13181 01278 31785 71003 10008 21036 39712 49813 52012 70222 8147/ 333 10017;",
"01278099999","2010-11-14T06:00:00","4","63.7833333","11.6833333","83.0","VERDAL REPPE, NO","FM-12","99999","V020","999,9,C,0000,1","01500,1,9,N","055000,1,N,1","-0004,1","-0025,1","09880,1","12,0000,9,1","24,0000,9,1","0009,9,1,999999,9,9","7,1,06,1","2,1,06,1",,"08,99,1,08,1,00,1,01750,1,02,1,99,9","28,9","999,N,-0006,1","99999,9,09777,1","2,1,019,1,+999,9","02,1","SYN100AAXX  14061 01278 11785 80000 11004 21025 39777 49880 52019 69902 70272 8802/ 333 21006 44009 79999;","Q01  00002PRCP24Q02  00002PRCP12"
"01278099999","2010-11-14T09:00:00","4","63.7833333","11.6833333","83.0","VERDAL REPPE, NO","FM-12","99999","V020","999,9,C,0000,1","01500,1,9,N","005000,1,N,1","-0003,1","-0025,1","09904,1",,,,"7,1,03,1","2,1,03,1",,"08,99,1,08,1,00,1,01750,1,02,1,99,9",,,"99999,9,09802,1","2,1,023,1,+999,9","70,1","SYN072AAXX  14091 01278 41750 80000 11003 21025 39802 49904 52023 77072 8802/;",
"01278099999","2010-11-14T12:00:00","4","63.7833333","11.6833333","83.0","VERDAL REPPE, NO","FM-12","99999","V020","150,1,N,0010,1","01500,1,9,N","025000,1,N,1","-0004,1","-0018,1","09919,1",,,,"7,1,06,1","2,1,06,1",,"08,99,1,08,1,00,1,01750,1,02,1,99,9",,,"99999,9,09817,1","2,1,015,1,+999,9","02,1","SYN072AAXX  14121 01278 41775 81501 11004 21018 39817 49919 52015 70272 8802/;",
"01278099999","2010-11-14T18:00:00","4","63.7833333","11.6833333","83.0","VERDAL REPPE, NO","FM-12","99999","V020","999,9,C,0000,1","01500,1,9,N","030000,1,N,1","+0004,1","-0009,1","09940,1","12,0005,9,1",,,"7,1,06,1","2,1,06,1",,"08,99,1,08,1,00,1,01750,1,02,1,99,9",,"999,M,+0005,1","99999,9,09837,1","2,1,012,1,+999,9","02,1","SYN088AAXX  14181 01278 11780 80000 10004 21009 39837 49940 52012 69952 70272 8802/ 333 10005;",
"01278099999","2010-11-15T06:00:00","4","63.7833333","11.6833333","83.0","VERDAL REPPE, NO","FM-12","99999","V020","150,1,N,0010,1","01500,1,9,N","020000,1,N,1","+0008,1","-0005,1","09984,1","12,0000,9,1","24,0005,9,1","0010,9,1,999999,9,9","7,1,06,1","2,1,06,1",,"08,99,1,08,1,00,1,01750,1,02,1,99,9","28,9","999,N,-0009,1","99999,9,09882,1","3,1,014,1,+999,9","15,1","SYN100AAXX  15061 01278 11770 81501 10008 21005 39882 49984 53014 69902 71572 8802/ 333 21009 44010 70005;","Q01  00002PRCP12"
"01278099999","2010-11-15T09:00:00","4","63.7833333","11.6833333","83.0","VERDAL REPPE, NO","FM-12","99999","V020","120,1,N,0010,1","01200,1,9,N","055000,1,N,1","+0001,1","-0009,1","10004,1",,,,"2,1,03,1","2,1,03,1",,"08,99,1,08,1,09,1,01250,1,99,9,99,9",,,"99999,9,09901,1","2,1,020,1,+999,9","15,1","SYN072AAXX  15091 01278 41685 81201 10001 21009 39901 40004 52020 71522 889//;",
"01278099999","2010-11-15T12:00:00","4","63.7833333","11.6833333","83.0","VERDAL REPPE, NO","FM-12","99999","V020","999,9,C,0000,1","01500,1,9,N","005000,1,N,1","+0006,1","-0005,1","10024,1",,,,"7,1,06,1","2,1,06,1",,"08,99,1,08,1,00,1,01750,1,02,1,99,9",,,"99999,9,09921,1","2,1,020,1,+999,9","71,1","SYN072AAXX  15121 01278 41750 80000 10006 21005 39921 40024 52020 77172 8802/;",
"01278099999","2010-11-15T18:00:00","4","63.7833333","11.6833333","83.0","VERDAL REPPE, NO","FM-12","99999","V020","999,9,C,0000,1","00210,1,9,N","020000,1,N,1","+0004,1","-0004,1","10069,1","12,0020,9,1",,,"7,1,06,1","2,1,06,1",,"08,99,1,08,1,06,1,00250,1,99,9,99,9",,"999,M,+0011,1","99999,9,09966,1","3,1,027,1,+999,9","02,1","SYN088AAXX  15181 01278 11370 80000 10004 21004 39966 40069 53027 60022 70272 886// 333 10011;",
"01278099999","2010-11-16T06:00:00","4","63.7833333","11.6833333","83.0","VERDAL REPPE, NO","FM-12","99999","V020","100,1,N,0010,1","03000,1,9,N","055000,1,N,1","+0008,1","-0001,1","10176,1","24,0020,9,1",,"0008,9,1,999999,9,9","2,1,06,1","2,1,06,1",,"07,99,1,02,1,08,1,01750,1,07,1,99,9","28,9","999,N,+0002,1","99999,9,10072,1","2,1,020,1,+999,9","02,1","SYN094AAXX  16061 01278 31785 71001 10008 21001 30072 40176 52020 70222 8287/ 333 20002 44008 70021;",
"01278099999","2010-11-16T09:00:00","4","63.7833333","11.6833333","83.0","VERDAL REPPE, NO","FM-12","99999","V020","100,1,N,0010,1","01500,1,9,N","055000,1,N,1","+0007,1","-0003,1","10204,1",,,,"2,1,03,1","2,1,03,1",,"07,99,1,07,1,08,1,01250,1,99,9,99,9",,,"99999,9,10100,1","2,1,026,1,+999,9","02,1","SYN072AAXX  16091 01278 41685 71001 10007 21003 30100 40204 52026 70222 878//;",
"01278099999","2010-11-16T12:00:00","4","63.7833333","11.6833333","83.0","VERDAL REPPE, NO","FM-12","99999","V020","100,1,N,0010,1","01200,1,9,N","055000,1,N,1","+0010,1","+0000,1","10216,1",,,,"2,1,06,1","2,1,06,1",,"07,99,1,07,1,05,1,01250,1,99,9,99,9",,,"99999,9,10112,1","1,1,015,1,+999,9","02,1","SYN072AAXX  16121 01278 41685 71001 10010 20000 30112 40216 51015 70222 875//;",
"01278099999","2010-11-16T18:00:00","4","63.7833333","11.6833333","83.0","VERDAL REPPE, NO","FM-12","99999","V020","140,1,N,0010,1","22000,1,9,N","055000,1,N,1","-0015,1","-0022,1","10238,1",,,,"1,1,06,1","1,1,06,1","00,1,+99999,9,99,9","00,99,1,00,1,00,1,99999,9,00,1,00,1",,"999,M,+0016,1","99999,9,10132,1","3,1,014,1,+999,9","02,1","SYN076AAXX  16181 01278 31985 01401 11015 21022 30132 40238 53014 70211 333 10016;",
"01278099999","2010-11-17T06:00:00","4","63.7833333","11.6833333","83.0","VERDAL REPPE, NO","FM-12","99999","V020","140,1,N,0050,1","07500,1,9,N","055000,1,N,1","-0045,1","-0059,1","10277,1","24,0000,9,1",,"0007,9,1,999999,9,9","1,1,06,1","1,1,06,1",,"05,99,1,01,1,04,1,01750,1,07,1,01,1","28,9","999,N,-0045,1","99999,9,10170,1","1,1,006,1,+999,9","02,1","SYN094AAXX  17061 01278 31785 51405 11045 21059 30170 40277 51006 70211 81471 333 21045 44007 70000;","Q01  00002PRCP24"
"01278099999","2010-11-17T09:00:00","4","63.7833333","11.6833333","83.0","VERDAL REPPE, NO","FM-12","99999","V020","120,1,N,0030,1","22000,1,9,N","055000,1,N,1","-0043,1","-0058,1","10288,1",,,,"1,1,03,1","1,1,03,1",,"01,99,1,01,1,06,1,00250,1,00,1,00,1",,,"99999,9,10181,1","1,1,012,1,+999,9","02,1","SYN072AAXX  17091 01278 41385 11203 11043 21058 30181 40288 51012 70211 81600;",
"01278099999","2010-11-17T12:00:00","4","63.7833333","11.6833333","83.0","VERDAL REPPE, NO","FM-12","99999","V020","110,1,N,0050,1","22000,1,9,N","055000,1,N,1","-0033,1","-0053,1","10287,1",,,,"0,1,06,1","0,1,06,1","00,1,+99999,9,99,9","00,99,1,00,1,00,1,99999,9,00,1,00,1",,,"99999,9,10180,1","0,1,000,1,+999,9","02,1","SYN066AAXX  17121 01278 41985 01105 11033 21053 30180 40287 50000 70200;",
"01278099999","2010-11-17T18:00:00","4","63.7833333","11.6833333","83.0","VERDAL REPPE, NO","FM-12","99999","V020","150,1,N,0030,1","22000,1,9,N","055000,1,N,1","-0047,1","-0070,1","10285,1",,,,"0,1,06,1","0,1,06,1","00,1,+99999,9,99,9","00,99,1,00,1,00,1,99999,9,00,1,00,1",,"999,M,-0031,1","99999,9,10177,1","3,1,004,1,+999,9","02,1","SYN076AAXX  17181 01278 31985 01503 11047 21070 30177 40285 53004 70200 333 11031;",
"01278099999","2010-11-18T06:00:00","4","63.7833333","11.6833333","83.0","VERDAL REPPE, NO","FM-12","99999","V020","140,1,N,0070,1","22000,1,9,N","055000,1,N,1","-0058,1","-0085,1","10268,1","24,0000,9,1",,"0007,9,1,999999,9,9","0,1,06,1","0,1,06,1",,"01,99,1,01,1,04,1,01250,1,00,1,00,1","28,9","999,N,-0065,1","99999,9,10160,1","7,1,011,1,+999,9","02,1","SYN094AAXX  18061 01278 31685 11407 11058 21085 30160 40268 57011 70200 81400 333 21065 44007 70000;","Q01  00002PRCP24"
"01278099999","2010-11-18T09:00:00","4","63.7833333","11.6833333","83.0","VERDAL REPPE, NO","FM-12","99999","V020","150,1,N,0050,1","22000,1,9,N","075000,1,N,1","-0056,1","-0085,1","10265,1",,,,"0,1,03,1","0,1,03,1",,"01,99,1,01,1,04,1,01250,1,00,1,00,1",,,"99999,9,10157,1","5,1,003,1,+999,9","02,1","SYN072AAXX  18091 01278 41689 11505 11056 21085 30157 40265 55003 70200 81400;",
"01278099999","2010-11-18T12:00:00","4","63.7833333","11.6833333","83.0","VERDAL REPPE, NO","FM-12","99999","V020","150,1,N,0050,1","22000,1,9,N","075000,1,N,1","-0045,1","-0083,1","10251,1",,,,"0,1,06,1","0,1,06,1","00,1,+99999,9,99,9","00,99,1,00,1,00,1,99999,9,00,1,00,1",,,"99999,9,10143,1","8,1,012,1,+999,9","02,1","SYN066AAXX  18121 01278 41989 01505 11045 21083 30143 40251 58012 70200;",
"01278099999","2010-11-18T18:00:00","4","63.7833333","11.6833333","83.0","VERDAL REPPE, NO","FM-12","99999","V020","150,1,N,0030,1","22000,1,9,N","055000,1,N,1","-0056,1","-0088,1","10248,1",,,,"0,1,06,1","0,1,06,1","00,1,+99999,9,99,9","00,99,1,00,1,00,1,99999,9,00,1,00,1",,"999,M,-0039,1","99999,9,10141,1","3,1,003,1,+999,9","02,1","SYN076AAXX  18181 01278 31985 01503 11056 21088 30141 40248 53003 70200 333 11039;",
"01278099999","2010-11-19T06:00:00","4","63.7833333","11.6833333","83.0","VERDAL REPPE, NO","FM-12","99999","V020","140,1,N,0050,1","22000,1,9,N","055000,1,N,1","-0076,1","-0100,1","10272,1","24,0000,9,1",,"0007,9,1,999999,9,9","0,1,06,1","0,1,06,1","00,1,+99999,9,99,9","00,99,1,00,1,00,1,99999,9,00,1,00,1","28,9","999,N,-0080,1","99999,9,10163,1","2,1,007,1,+999,9","02,1","SYN088AAXX  19061 01278 31985 01405 11076 21100 30163 40272 52007 70200 333 21080 44007 70000;","Q01  00002PRCP24"
"01278099999","2010-11-19T09:00:00","4","63.7833333","11.6833333","83.0","VERDAL REPPE, NO","FM-12","99999","V020","100,1,N,0030,1","22000,1,9,N","075000,1,N,1","-0072,1","-0103,1","10284,1",,,,"0,1,03,1","0,1,03,1","00,1,+99999,9,99,9","00,99,1,00,1,00,1,99999,9,00,1,00,1",,,"99999,9,10176,1","3,1,012,1,+999,9","02,1","SYN066AAXX  19091 01278 41989 01003 11072 21103 30176 40284 53012 70200;",
"01278099999","2010-11-19T12:00:00","4","63.7833333","11.6833333","83.0","VERDAL REPPE, NO","FM-12","99999","V020","100,1,N,0050,1","22000,1,9,N","075000,1,N,1","-0063,1","-0101,1","10288,1",,,,"0,1,06,1","0,1,06,1","00,1,+99999,9,99,9","00,99,1,00,1,00,1,99999,9,00,1,00,1",,,"99999,9,10180,1","2,1,002,1,+999,9","02,1","SYN066AAXX  19121 01278 41989 01005 11063 21101 30180 40288 52002 70200;",
"01278099999","2010-11-19T18:00:00","4","63.7833333","11.6833333","83.0","VERDAL REPPE, NO","FM-12","99999","V020","140,1,N,0050,1","22000,1,9,N","055000,1,N,1","-0050,1","-0099,1","10290,1",,,,"0,1,06,1","0,1,06,1","00,1,+99999,9,99,9","00,99,1,00,1,00,1,99999,9,00,1,00,1",,"999,M,-0048,1","99999,9,10182,1","3,1,007,1,+999,9","02,1","SYN076AAXX  19181 01278 31985 01405 11050 21099 30182 40290 53007 70200 333 11048;",
"01278099999","2010-11-20T06:00:00","4","63.7833333","11.6833333","83.0","VERDAL REPPE, NO","FM-12","99999","V020","140,1,N,0100,1","22000,1,9,N","055000,1,N,1","-0033,1","-0068,1","10292,1","24,0000,9,1",,"0006,9,1,999999,9,9","0,1,06,1","0,1,06,1",,"02,99,1,01,1,04,1,01750,1,00,1,08,1","28,9","999,N,-0056,1","99999,9,10185,1","5,1,000,1,+999,9","02,1","SYN094AAXX  20061 01278 31785 21410 11033 21068 30185 40292 55000 70200 81408 333 21056 44006 70000;","Q01  00002PRCP24"
"01278099999","2010-11-20T09:00:00","4","63.7833333","11.6833333","83.0","VERDAL REPPE, NO","FM-12","99999","V020","120,1,N,0100,1","22000,1,9,N","055000,1,N,1","-0037,1","-0078,1","10299,1",,,,"0,1,03,1","0,1,03,1",,"02,99,1,01,1,06,1,00250,1,00,1,08,1",,,"99999,9,10192,1","2,1,008,1,+999,9","02,1","SYN072AAXX  20091 01278 41385 21210 11037 21078 30192 40299 52008 70200 81608;",
"01278099999","2010-11-20T12:00:00","4","63.7833333","11.6833333","83.0","VERDAL REPPE, NO","FM-12","99999","V020","100,1,N,0070,1","22000,1,9,N","055000,1,N,1","-0034,1","-0079,1","10299,1",,,,"0,1,06,1","0,1,06,1",,"02,99,1,01,1,08,1,00800,1,03,1,02,1",,,"99999,9,10192,1","5,1,001,1,+999,9","02,1","SYN072AAXX  20121 01278 41585 21007 11034 21079 30192 40299 55001 70200 81832;",
"01278099999","2010-11-20T18:00:00","4","63.7833333","11.6833333","83.0","VERDAL REPPE, NO","FM-12","99999","V020","110,1,N,0100,1","99999,9,9,N","055000,1,N,1","-0036,1","-0079,1","10284,1",,,,"1,1,06,1","1,1,06,1",,"05,99,1,04,1,00,1,99999,9,03,1,02,1",,"999,M,-0030,1","99999,9,10177,1","7,1,006,1,+999,9","02,1","SYN082AAXX  20181 01278 31985 51110 11036 21079 30177 40284 57006 70211 84032 333 11030;",
"01278099999","2010-11-21T06:00:00","4","63.7833333","11.6833333","83.0","VERDAL REPPE, NO","FM-12","99999","V020","110,1,N,0070,1","03000,1,C,N","055000,1,N,1","-0015,1","-0062,1","10269,1","24,0000,9,1",,"0006,9,1,999999,9,9","1,1,06,1","1,1,06,1",,"05,99,1,01,1,04,1,01750,1,03,1,99,9","28,9","999,N,-0040,1","99999,9,10162,1","4,1,000,1,+999,9","02,1","SYN094AAXX  21061 01278 31785 51107 11015 21062 30162 40269 54001 70211 8143/ 333 21040 44006 70000;","Q01  00002PRCP24"
"01278099999","2010-11-21T09:00:00","4","63.7833333","11.6833333","83.0","VERDAL REPPE, NO","FM-12","99999","V020","110,1,N,0050,1","02100,1,9,N","075000,1,N,1","-0017,1","-0057,1","10282,1",,,,"2,1,03,1","2,1,03,1",,"07,99,1,07,1,05,1,02250,1,99,9,99,9",,,"99999,9,10176,1","2,1,015,1,+999,9","03,1","SYN072AAXX  21091 01278 41889 71105 11017 21057 30176 40282 52015 70322 875//;",
"01278099999","2010-11-21T12:00:00","4","63.7833333","11.6833333","83.0","VERDAL REPPE, NO","FM-12","99999","V020","120,1,N,0070,1","99999,9,9,N","075000,1,N,1","-0017,1","-0059,1","10279,1",,,,"2,1,06,1","2,1,06,1",,"06,99,1,06,1,00,1,99999,9,03,1,99,9",,,"99999,9,10172,1","7,1,004,1,+999,9","02,1","SYN072AAXX  21121 01278 41989 61207 11017 21059 30172 40279 57004 70222 8603/;",
"01278099999","2010-11-21T18:00:00","4","63.7833333","11.6833333","83.0","VERDAL REPPE, NO","FM-12","99999","V020","150,1,N,0030,1","22000,1,9,N","055000,1,N,1","-0030,1","-0073,1","10278,1",,,,"1,1,06,1","1,1,06,1","00,1,+99999,9,99,9","00,99,1,00,1,00,1,99999,9,00,1,00,1",,"999,M,-0012,1","99999,9,10171,1","4,1,000,1,+999,9","01,1","SYN076AAXX  21181 01278 31985 01503 11030 21073 30171 40278 54000 70111 333 11012;",
"01278099999","2010-11-22T06:00:00","4","63.7833333","11.6833333","83.0","VERDAL REPPE, NO","FM-12","99999","V020","120,1,N,0030,1","22000,1,9,N","055000,1,N,1","-0078,1","-0101,1","10245,1","24,0000,9,1",,"0006,9,1,999999,9,9","0,1,06,1","0,1,06,1","00,1,+99999,9,99,9","00,99,1,00,1,00,1,99999,9,00,1,00,1","28,9","999,N,-0080,1","99999,9,10137,1","8,1,011,1,+999,9","02,1","SYN088AAXX  22061 01278 31985 01203 11078 21101 30137 40245 58011 70200 333 21080 44006 70000;","Q01  00002PRCP24"
"01278099999","2010-11-22T09:00:00","4","63.7833333","11.6833333","83.0","VERDAL REPPE, NO","FM-12","99999","V020","150,1,N,0030,1","22000,1,9,N","055000,1,N,1","-0093,1","-0113,1","10240,1",,,,"0,1,03,1","0,1,03,1",,"01,99,1,01,1,06,1,00250,1,00,1,00,1",,,"99999,9,10131,1","5,1,006,1,+999,9","02,1","SYN072AAXX  22091 01278 41385 11503 11093 21113 30131 40240 55006 70200 81600;",
"01278099999","2010-11-22T12:00:00","4","63.7833333","11.6833333","83.0","VERDAL REPPE, NO","FM-12","99999","V020","130,1,N,0050,1","22000,1,9,N","030000,1,N,1","-0091,1","-0116,1","10228,1",,,,"0,1,06,1","0,1,06,1",,"01,99,1,01,1,06,1,00450,1,03,1,00,1",,,"99999,9,10118,1","7,1,012,1,+999,9","02,1","SYN072AAXX  22121 01278 41480 11305 11091 21116 30118 40228 57012 70200 81630;",
"01278099999","2010-11-22T18:00:00","4","63.7833333","11.6833333","83.0","VERDAL REPPE, NO","FM-12","99999","V020","110,1,N,0030,1","02100,1,9,N","055000,1,N,1","-0100,1","-0118,1","10207,1",,,,"1,1,06,1","1,1,06,1",,"07,99,1,07,1,05,1,02250,1,99,9,99,9",,"999,M,-0075,1","99999,9,10097,1","8,1,010,1,+999,9","03,1","SYN082AAXX  22181 01278 31885 71103 11100 21118 30097 40207 58010 70311 875// 333 11075;",
"01278099999","2010-11-23T06:00:00","4","63.7833333","11.6833333","83.0","VERDAL REPPE, NO","FM-12","99999","V020","150,1,N,0010,1","00120,1,9,N","002000,1,N,1","-0065,1","-0077,1","10176,1","12,0020,9,1","24,0023,9,1","0014,9,1,999999,9,9","7,1,06,1","2,1,06,1","09,1,+99999,9,99,9","09,99,1,09,1,99,9,99999,9,99,9,99,9","23,9","999,N,-0100,1","99999,9,10068,1","5,1,003,1,+999,9","71,1","SYN094AAXX  23061 01278 11/20 91501 11065 21077 30068 40176 55003 60022 77172 333 21100 47014 70022;",
"01278099999","2010-11-23T09:00:00","4","63.7833333","11.6833333","83.0","VERDAL REPPE, NO","FM-12","99999","V020","150,1,N,0010,1","03000,1,9,N","030000,1,N,1","-0046,1","-0060,1","10170,1",,,,"7,1,03,1","2,1,03,1",,"08,99,1,01,1,07,1,00450,1,07,1,99,9",,,"99999,9,10063,1","7,1,006,1,+999,9","02,1","SYN072AAXX  23091 01278 41480 81501 11046 21060 30063 40170 57006 70272 8177/;",
"01278099999","2010-11-23T12:00:00","4","63.7833333","11.6833333","83.0","VERDAL REPPE, NO","FM-12","99999","V020","120,1,N,0030,1","02100,1,9,N","055000,1,N,1","-0032,1","-0067,1","10165,1",,,,"7,1,06,1","2,1,06,1",,"07,99,1,07,1,05,1,02250,1,99,9,99,9",,,"99999,9,10058,1","7,1,005,1,+999,9","02,1","SYN072AAXX  23121 01278 41885 71203 11032 21067 30058 40165 57005 70272 875//;",
"01278099999","2010-11-23T18:00:00","4","63.7833333","11.6833333","83.0","VERDAL REPPE, NO","FM-12","99999","V020","150,1,N,0050,1","03000,1,9,N","055000,1,N,1","-0047,1","-0090,1","10169,1","12,0000,2,1",,,"2,1,06,1","2,1,06,1",,"08,99,1,02,1,05,1,02250,1,02,1,99,9",,"999,M,-0030,1","99999,9,10062,1","2,1,006,1,+999,9","02,1","SYN088AAXX  23181 01278 11885 81505 11047 21090 30062 40169 52006 69902 70222 8252/ 333 11030;",
"01278099999","2010-11-24T06:00:00","4","63.7833333","11.6833333","83.0","VERDAL REPPE, NO","FM-12","99999","V020","999,9,C,0000,1","22000,1,9,N","055000,1,N,1","-0086,1","-0124,1","10203,1","24,0000,2,1",,"0013,9,1,999999,9,9","1,1,06,1","1,1,06,1","00,1,+99999,9,99,9","00,99,1,00,1,00,1,99999,9,00,1,00,1","23,9","999,N,-0101,1","99999,9,10095,1","2,1,006,1,+999,9","02,1","SYN088AAXX  24061 01278 31985 00000 11086 21124 30095 40203 52006 70211 333 21101 47013 79999;",
"01278099999","2010-11-24T09:00:00","4","63.7833333","11.6833333","83.0","VERDAL REPPE, NO","FM-12","99999","V020","999,9,C,0000,1","22000,1,9,N","055000,1,N,1","-0110,1","-0143,1","10212,1",,,,"0,1,03,1","0,1,03,1",,"01,99,1,01,1,06,1,00800,1,00,1,02,1",,,"99999,9,10102,1","2,1,008,1,+999,9","02,1","SYN072AAXX  24091 01278 41585 10000 11110 21143 30102 40212 52008 70200 81602;",
"01278099999","2010-11-24T12:00:00","4","63.7833333","11.6833333","83.0","VERDAL REPPE, NO","FM-12","99999","V020","150,1,N,0010,1","22000,1,9,N","055000,1,N,1","-0118,1","-0145,1","10205,1",,,,"0,1,06,1","0,1,06,1",,"01,99,1,01,1,04,1,01250,1,00,1,00,1",,,"99999,9,10096,1","8,1,006,1,+999,9","02,1","SYN072AAXX  24121 01278 41685 11501 11118 21145 30096 40205 58006 70200 81400;",
"01278099999","2010-11-24T18:00:00","4","63.7833333","11.6833333","83.0","VERDAL REPPE, NO","FM-12","99999","V020","120,1,N,0010,1","22000,1,9,N","055000,1,N,1","-0126,1","-0149,1","10214,1",,,,"0,1,06,1","0,1,06,1","00,1,+99999,9,99,9","00,99,1,00,1,00,1,99999,9,00,1,00,1",,"999,M,-0082,1","99999,9,10103,1","2,1,007,1,+999,9","02,1","SYN076AAXX  24181 01278 31985 01201 11126 21149 30103 40214 52007 70200 333 11082;",
"01278099999","2010-11-25T06:00:00","4","63.7833333","11.6833333","83.0","VERDAL REPPE, NO","FM-12","99999","V020","140,1,N,0030,1","22000,1,9,N","055000,1,N,1","-0150,1","-0170,1","10192,1","24,0000,9,1",,"0013,9,1,999999,9,9","0,1,06,1","0,1,06,1","00,1,+99999,9,99,9","00,99,1,00,1,00,1,99999,9,00,1,00,1","23,9","999,N,-0155,1","99999,9,10081,1","7,1,009,1,+999,9","02,1","SYN088AAXX  25061 01278 31985 01403 11150 21170 30081 40192 57009 70200 333 21155 47013 70000;","Q01  00002PRCP24"
"01278099999","2010-11-25T09:00:00","4","63.7833333","11.6833333","83.0","VERDAL REPPE, NO","FM-12","99999","V020","140,1,N,0010,1","22000,1,9,N","055000,1,N,1","-0145,1","-0165,1","10186,1",,,,"0,1,03,1","0,1,03,1",,"01,99,1,01,1,04,1,01250,1,00,1,00,1",,,"99999,9,10076,1","7,1,005,1,+999,9","02,1","SYN072AAXX  25091 01278 41685 11401 11145 21165 30076 40186 57005 70200 81400;",
"01278099999","2010-11-25T12:00:00","4","63.7833333","11.6833333","83.0","VERDAL REPPE, NO","FM-12","99999","V020","100,1,N,0050,1","22000,1,9,N","055000,1,N,1","-0085,1","-0123,1","10176,1",,,,"0,1,06,1","0,1,06,1",,"01,99,1,01,1,04,1,00800,1,00,1,02,1",,,"99999,9,10067,1","7,1,009,1,+999,9","02,1","SYN072AAXX  25121 01278 41585 11005 11085 21123 30067 40176 57009 70200 81402;",
"01278099999","2010-11-25T18:00:00","4","63.7833333","11.6833333","83.0","VERDAL REPPE, NO","FM-12","99999","V020","150,1,N,0070,1","22000,1,9,N","055000,1,N,1","-0091,1","-0137,1","10169,1",,,,"0,1,06,1","0,1,06,1","00,1,+99999,9,99,9","00,99,1,00,1,00,1,99999,9,00,1,00,1",,"999,M,-0081,1","99999,9,10061,1","0,1,001,1,+999,9","02,1","SYN076AAXX  25181 01278 31985 01507 11091 21137 30061 40169 50001 70200 333 11081;",
"01278099999","2010-11-26T06:00:00","4","63.7833333","11.6833333","83.0","VERDAL REPPE, NO","FM-12","99999","V020","999,9,C,0000,1","22000,1,9,N","055000,1,N,1","-0130,1","-0160,1","10208,1","24,0000,9,1",,"0013,9,1,999999,9,9","0,1,06,1","0,1,06,1",,"01,99,1,01,1,04,1,01750,1,00,1,02,1","23,9","999,N,-0140,1","99999,9,10097,1","2,1,004,1,+999,9","02,1","SYN094AAXX  26061 01278 31785 10000 11130 21160 30097 40208 52004 70200 81402 333 21140 47013 70000;","Q01  00002PRCP24"
"01278099999","2010-11-26T09:00:00","4","63.7833333","11.6833333","83.0","VERDAL REPPE, NO","FM-12","99999","V020","110,1,N,0010,1","22000,1,9,N","055000,1,N,1","-0150,1","-0179,1","10222,1",,,,"0,1,03,1","0,1,03,1",,"01,99,1,01,1,04,1,01250,1,00,1,01,1",,,"99999,9,10111,1","2,1,013,1,+999,9","02,1","SYN072AAXX  26091 01278 41685 11101 11150 21179 30111 40222 52013 70200 81401;",
"01278099999","2010-11-26T12:00:00","4","63.7833333","11.6833333","83.0","VERDAL REPPE, NO","FM-12","99999","V020","110,1,N,0010,1","22000,1,9,N","055000,1,N,1","-0138,1","-0168,1","10225,1",,,,"0,1,06,1","0,1,06,1",,"01,99,1,01,1,04,1,01250,1,00,1,01,1",,,"99999,9,10113,1","2,1,002,1,+999,9","02,1","SYN072AAXX  26121 01278 41685 11101 11138 21168 30113 40225 52002 70200 81401;",
"01278099999","2010-11-26T18:00:00","4","63.7833333","11.6833333","83.0","VERDAL REPPE, NO","FM-12","99999","V020","150,1,N,0010,1","22000,1,9,N","055000,1,N,1","-0155,1","-0180,1","10234,1",,,,"0,1,06,1","0,1,06,1","00,1,+99999,9,99,9","00,99,1,00,1,00,1,99999,9,00,1,00,1",,"999,M,-0125,1","99999,9,10122,1","3,1,007,1,+999,9","02,1","SYN076AAXX  26181 01278 31985 01501 11155 21180 30122 40234 53007 70200 333 11125;",
"01278099999","2010-11-27T06:00:00","4","63.7833333","11.6833333","83.0","VERDAL REPPE, NO","FM-12","99999","V020","120,1,N,0010,1","99999,9,9,N","055000,1,N,1","-0104,1","-0162,1","10256,1","24,0000,9,1",,"0013,9,1,999999,9,9","1,1,06,1","1,1,06,1",,"07,99,1,07,1,00,1,99999,9,07,1,99,9","23,9","999,N,-0159,1","99999,9,10147,1","2,1,005,1,+999,9","03,1","SYN094AAXX  27061 01278 31985 71201 11104 21162 30147 40256 52005 70311 8707/ 333 21159 47013 70000;","Q01  00002PRCP24"
"01278099999","2010-11-27T09:00:00","4","63.7833333","11.6833333","83.0","VERDAL REPPE, NO","FM-12","99999","V020","110,1,N,0050,1","99999,9,9,N","055000,1,N,1","-0114,1","-0175,1","10269,1",,,,"2,1,03,1","2,1,03,1",,"05,99,1,01,1,00,1,99999,9,07,1,08,1",,,"99999,9,10158,1","3,1,013,1,+999,9","02,1","SYN072AAXX  27091 01278 41985 51105 11114 21175 30158 40269 53013 70222 81078;",
"01278099999","2010-11-27T12:00:00","4","63.7833333","11.6833333","83.0","VERDAL REPPE, NO","FM-12","99999","V020","999,9,C,0000,1","22000,1,9,N","055000,1,N,1","-0125,1","-0170,1","10281,1",,,,"2,1,06,1","2,1,06,1",,"04,99,1,00,1,00,1,99999,9,00,1,08,1",,,"99999,9,10170,1","2,1,011,1,+999,9","02,1","SYN072AAXX  27121 01278 41985 40000 11125 21170 30170 40281 52011 70222 80008;",
"01278099999","2010-11-27T18:00:00","4","63.7833333","11.6833333","83.0","VERDAL REPPE, NO","FM-12","99999","V020","110,1,N,0030,1","22000,1,9,N","055000,1,N,1","-0124,1","-0169,1","10292,1",,,,"0,1,06,1","0,1,06,1","00,1,+99999,9,99,9","00,99,1,00,1,00,1,99999,9,00,1,00,1",,"999,M,-0102,1","99999,9,10181,1","2,1,006,1,+999,9","02,1","SYN076AAXX  27181 01278 31985 01103 11124 21169 30181 40292 52006 70200 333 11102;",
"01278099999","2010-11-28T06:00:00","4","63.7833333","11.6833333","83.0","VERDAL REPPE, NO","FM-12","99999","V020","999,9,C,0000,1","22000,1,9,N","055000,1,N,1","-0147,1","-0170,1","10322,1","24,0000,9,1",,"0013,9,1,999999,9,9","0,1,06,1","0,1,06,1","00,1,+99999,9,99,9","00,99,1,00,1,00,1,99999,9,00,1,00,1","23,9","999,N,-0160,1","99999,9,10210,1","2,1,008,1,+999,9","02,1","SYN088AAXX  28061 01278 31985 00000 11147 21170 30210 40322 52008 70200 333 21160 47013 70000;","Q01  00002PRCP24"
"01278099999","2010-11-28T09:00:00","4","63.7833333","11.6833333","83.0","VERDAL REPPE, NO","FM-12","99999","V020","100,1,N,0010,1","22000,1,9,N","055000,1,N,1","-0149,1","-0170,1","10335,1",,,,"0,1,03,1","0,1,03,1",,"01,99,1,01,1,04,1,01250,1,00,1,00,1",,,"99999,9,10222,1","2,1,014,1,+999,9","02,1","SYN072AAXX  28091 01278 41685 11001 11149 21170 30222 40335 52014 70200 81400;",
"01278099999","2010-11-28T12:00:00","4","63.7833333","11.6833333","83.0","VERDAL REPPE, NO","FM-12","99999","V020","999,9,C,0000,1","22000,1,9,N","055000,1,N,1","-0136,1","-0164,1","10349,1",,,,"0,1,06,1","0,1,06,1",,"01,99,1,01,1,04,1,01250,1,00,1,00,1",,,"99999,9,10237,1","3,1,010,1,+999,9","02,1","SYN072AAXX  28121 01278 41685 10000 11136 21164 30237 40349 53010 70200 81400;",
"01278099999","2010-11-28T18:00:00","4","63.7833333","11.6833333","83.0","VERDAL REPPE, NO","FM-12","99999","V020","999,9,C,0000,1","22000,1,9,N","075000,1,N,1","-0138,1","-0164,1","10358,1",,,,"0,1,06,1","0,1,06,1","00,1,+99999,9,99,9","00,99,1,00,1,00,1,99999,9,00,1,00,1",,"999,M,-0115,1","99999,9,10245,1","2,1,004,1,+999,9","02,1","SYN076AAXX  28181 01278 31989 00000 11138 21164 30245 40358 52004 70200 333 11115;",
"01278099999","2010-11-29T06:00:00","4","63.7833333","11.6833333","83.0","VERDAL REPPE, NO","FM-12","99999","V020","140,1,N,0030,1","22000,1,9,N","055000,1,N,1","-0129,1","-0151,1","10357,1","24,0000,9,1",,"0012,9,1,999999,9,9","0,1,06,1","0,1,06,1","00,1,+99999,9,99,9","00,99,1,00,1,00,1,99999,9,00,1,00,1","23,9","999,N,-0145,1","99999,9,10245,1","5,1,000,1,+999,9","02,1","SYN088AAXX  29061 01278 31985 01403 11129 21151 30245 40357 55000 70200 333 21145 47012 70000;","Q01  00002PRCP24"
"01278099999","2010-11-29T09:00:00","4","63.7833333","11.6833333","83.0","VERDAL REPPE, NO","FM-12","99999","V020","120,1,N,0050,1","22000,1,9,N","055000,1,N,1","-0135,1","-0155,1","10361,1",,,,"0,1,03,1","0,1,03,1",,"01,99,1,01,1,04,1,01750,1,00,1,00,1",,,"99999,9,10249,1","2,1,006,1,+999,9","02,1","SYN072AAXX  29091 01278 41785 11205 11135 21155 30249 40361 52006 70200 81400;",
"01278099999","2010-11-29T12:00:00","4","63.7833333","11.6833333","83.0","VERDAL REPPE, NO","FM-12","99999","V020","120,1,N,0050,1","22000,1,9,N","075000,1,N,1","-0123,1","-0149,1","10361,1",,,,"0,1,06,1","0,1,06,1",,"01,99,1,01,1,01,1,01250,1,00,1,00,1",,,"99999,9,10250,1","0,1,001,1,+999,9","02,1","SYN072AAXX  29121 01278 41689 11205 11123 21149 30250 40361 50001 70200 81100;",
"01278099999","2010-11-29T18:00:00","4","63.7833333","11.6833333","83.0","VERDAL REPPE, NO","FM-12","99999","V020","140,1,N,0010,1","22000,1,9,N","055000,1,N,1","-0140,1","-0160,1","10363,1",,,,"0,1,06,1","0,1,06,1","00,1,+99999,9,99,9","00,99,1,00,1,00,1,99999,9,00,1,00,1",,"999,M,-0117,1","99999,9,10250,1","5,1,002,1,+999,9","02,1","SYN076AAXX  29181 01278 31985 01401 11140 21160 30250 40363 55002 70200 333 11117;",
"01278099999","2010-11-30T06:00:00","4","63.7833333","11.6833333","83.0","VERDAL REPPE, NO","FM-12","99999","V020","140,1,N,0030,1","22000,1,9,N","055000,1,N,1","-0166,1","-0187,1","10352,1","24,0000,9,1",,"0012,9,1,999999,9,9","0,1,06,1","0,1,06,1",,"01,99,1,01,1,00,1,99999,9,03,1,00,1","23,9","999,N,-0166,1","99999,9,10238,1","8,1,008,1,+999,9","02,1","SYN094AAXX  30061 01278 31985 11403 11166 21187 30238 40352 58008 70200 81030 333 21166 47012 70000;","Q01  00002PRCP24"
"01278099999","2010-11-30T09:00:00","4","63.7833333","11.6833333","83.0","VERDAL REPPE, NO","FM-12","99999","V020","120,1,N,0030,1","03000,1,9,N","030000,1,N,1","-0164,1","-0185,1","10354,1",,,,"1,1,03,1","1,1,03,1",,"07,99,1,01,1,06,1,00150,1,03,1,02,1",,,"99999,9,10240,1","5,1,000,1,+999,9","40,1","SYN072AAXX  30091 01278 41280 71203 11164 21185 30240 40354 55000 74011 81632;",
"01278099999","2010-11-30T12:00:00","4","63.7833333","11.6833333","83.0","VERDAL REPPE, NO","FM-12","99999","V020","120,1,N,0030,1","22000,1,9,N","055000,1,N,1","-0155,1","-0178,1","10348,1",,,,,,,"01,99,1,01,1,00,1,99999,9,04,1,02,1",,,"99999,9,10235,1","7,1,005,1,+999,9",,"SYN072AAXX  30121 01278 41985 11203 11155 21178 30235 40348 57005 7//11 81042;",
"01278099999","2010-11-30T18:00:00","4","63.7833333","11.6833333","83.0","VERDAL REPPE, NO","FM-12","99999","V020","100,1,N,0030,1","22000,1,9,N","055000,1,N,1","-0168,1","-0189,1","10335,1",,,,"0,1,06,1","0,1,06,1",,"02,99,1,02,1,00,1,99999,9,03,1,00,1",,"999,M,-0155,1","99999,9,10222,1","8,1,004,1,+999,9","40,1","SYN082AAXX  30181 01278 31985 21003 11168 21189 30222 40335 58004 74000 82030 333 11155;",
"01278099999","2010-12-01T06:00:00","4","63.7833333","11.6833333","83.0","VERDAL REPPE, NO","FM-12","99999","V020","150,1,N,0030,1","00750,1,9,N","030000,1,N,1","-0106,1","-0124,1","10305,1","24,0000,9,1",,"0012,9,1,999999,9,9","1,1,06,1","1,1,06,1",,"08,99,1,08,1,06,1,00800,1,99,9,99,9","23,9","999,N,-0180,1","99999,9,10195,1","6,1,011,1,+999,9","02,1","SYN094AAXX  01061 01278 31580 81503 11106 21124 30195 40305 56011 70211 886// 333 21180 47012 70000;","Q01  00002PRCP24"
"01278099999","2010-12-01T09:00:00","4","63.7833333","11.6833333","83.0","VERDAL REPPE, NO","FM-12","99999","V020","120,1,N,0030,1","00030,1,9,N","002500,1,N,1","-0114,1","-0131,1","10305,1",,,,"2,1,03,1","2,1,03,1",,"08,99,1,08,1,06,1,00025,1,99,9,99,9",,,"99999,9,10195,1","0,1,002,1,+999,9","40,1","SYN072AAXX  01091 01278 41025 81203 11114 21131 30195 40305 50002 74022 886//;",
"01278099999","2010-12-01T12:00:00","4","63.7833333","11.6833333","83.0","VERDAL REPPE, NO","FM-12","99999","V020","140,1,N,0010,1","22000,1,9,N","055000,1,N,1","-0127,1","-0146,1","10301,1",,,,,,,"01,99,1,00,1,00,1,99999,9,00,1,01,1",,,"99999,9,10190,1","6,1,006,1,+999,9",,"SYN072AAXX  01121 01278 41985 11401 11127 21146 30190 40301 56006 7//11 80001;",
"01278099999","2010-12-01T18:00:00","4","63.7833333","11.6833333","83.0","VERDAL REPPE, NO","FM-12","99999","V020","150,1,N,0010,1","22000,1,9,N","055000,1,N,1","-0147,1","-0166,1","10280,1",,,,"0,1,06,1","0,1,06,1","00,1,+99999,9,99,9","00,99,1,00,1,00,1,99999,9,00,1,00,1",,"999,M,-0106,1","99999,9,10168,1","7,1,008,1,+999,9","02,1","SYN076AAXX  01181 01278 31985 01501 11147 21166 30168 40280 57008 70200 333 11106;",
"01278099999","2010-12-02T06:00:00","4","63.7833333","11.6833333","83.0","VERDAL REPPE, NO","FM-12","99999","V020","120,1,N,0010,1","03000,1,9,N","055000,1,N,1","-0100,1","-0124,1","10228,1","24,0000,9,1",,"0012,9,1,999999,9,9","1,1,06,1","1,1,06,1",,"08,99,1,01,1,04,1,01750,1,02,1,99,9","23,9","999,N,-0157,1","99999,9,10118,1","6,1,018,1,+999,9","02,1","SYN094AAXX  02061 01278 31785 81201 11100 21124 30118 40228 56018 70211 8142/ 333 21157 47012 70000;","Q01  00002PRCP24"
"01278099999","2010-12-02T09:00:00","4","63.7833333","11.6833333","83.0","VERDAL REPPE, NO","FM-12","99999","V020","120,1,N,0030,1","03000,1,9,N","055000,1,N,1","-0094,1","-0119,1","10220,1",,,,"2,1,03,1","2,1,03,1",,"06,99,1,04,1,05,1,01750,1,06,1,01,1",,,"99999,9,10111,1","7,1,008,1,+999,9","01,1","SYN072AAXX  02091 01278 41785 61203 11094 21119 30111 40220 57008 70122 84561;",
"01278099999","2010-12-02T12:00:00","4","63.7833333","11.6833333","83.0","VERDAL REPPE, NO","FM-12","99999","V020","120,1,N,0030,1","22000,1,9,N","055000,1,N,1","-0090,1","-0116,1","10201,1",,,,"2,1,06,1","2,1,06,1",,"04,99,1,01,1,04,1,01750,1,06,1,02,1",,,"99999,9,10092,1","8,1,017,1,+999,9","01,1","SYN072AAXX  02121 01278 41785 41203 11090 21116 30092 40201 58017 70122 81462;",
"01278099999","2010-12-02T18:00:00","4","63.7833333","11.6833333","83.0","VERDAL REPPE, NO","FM-12","99999","V020","110,1,N,0030,1","03000,1,9,N","055000,1,N,1","-0122,1","-0145,1","10164,1",,,,"1,1,06,1","1,1,06,1",,"07,99,1,03,1,08,1,01750,1,07,1,99,9",,"999,M,-0083,1","99999,9,10055,1","8,1,019,1,+999,9","02,1","SYN082AAXX  02181 01278 31785 71103 11122 21145 30055 40164 58019 70211 8387/ 333 11083;",
"01278099999","2010-12-03T06:00:00","4","63.7833333","11.6833333","83.0","VERDAL REPPE, NO","FM-12","99999","V020","120,1,N,0050,1","22000,1,9,N","055000,1,N,1","-0145,1","-0176,1","10091,1","24,0000,9,1",,"0012,9,1,999999,9,9","1,1,06,1","1,1,06,1",,"04,99,1,04,1,00,1,99999,9,03,1,00,1","23,9","999,N,-0145,1","99999,9,09982,1","7,1,017,1,+999,9","02,1","SYN094AAXX  03061 01278 31985 41205 11145 21176 39982 40091 57017 70211 84030 333 21145 47012 70000;","Q01  00002PRCP24"
"01278099999","2010-12-03T09:00:00","4","63.7833333","11.6833333","83.0","VERDAL REPPE, NO","FM-12","99999","V020","110,1,N,0050,1","22000,1,9,N","055000,1,N,1","-0153,1","-0182,1","10081,1",,,,"0,1,03,1","0,1,03,1",,"01,99,1,01,1,05,1,02250,1,00,1,02,1",,,"99999,9,09971,1","6,1,011,1,+999,9","02,1","SYN072AAXX  03091 01278 41885 11105 11153 21182 39971 40081 56011 70200 81502;",
"01278099999","2010-12-03T12:00:00","4","63.7833333","11.6833333","83.0","VERDAL REPPE, NO","FM-12","99999","V020","100,1,N,0050,1","22000,1,9,N","055000,1,N,1","-0134,1","-0170,1","10065,1",,,,"0,1,06,1","0,1,06,1",,"02,99,1,01,1,08,1,00800,1,02,1,01,1",,,"99999,9,09956,1","8,1,014,1,+999,9","02,1","SYN072AAXX  03121 01278 41585 21005 11134 21170 39956 40065 58014 70200 81821;",
"01278099999","2010-12-03T18:00:00","4","63.7833333","11.6833333","83.0","VERDAL REPPE, NO","FM-12","99999","V020","140,1,N,0030,1","22000,1,9,N","055000,1,N,1","-0137,1","-0168,1","10054,1",,,,"0,1,06,1","0,1,06,1","00,1,+99999,9,99,9","00,99,1,00,1,00,1,99999,9,00,1,00,1",,"999,M,-0132,1","99999,9,09945,1","7,1,004,1,+999,9","02,1","SYN076AAXX  03181 01278 31985 01403 11137 21168 39945 40054 57004 70200 333 11132;",
"01278099999","2010-12-04T06:00:00","4","63.7833333","11.6833333","83.0","VERDAL REPPE, NO","FM-12","99999","V020","140,1,N,0010,1","22000,1,9,N","055000,1,N,1","-0142,1","-0163,1","10023,1","24,0000,9,1",,"0012,9,1,999999,9,9","0,1,06,1","0,1,06,1","00,1,+99999,9,99,9","00,99,1,00,1,00,1,99999,9,00,1,00,1","23,9","999,N,-0145,1","99999,9,09915,1","7,1,007,1,+999,9","02,1","SYN088AAXX  04061 01278 31985 01401 11142 21163 39915 40023 57007 70200 333 21145 47012 70000;","Q01  00002PRCP24"
"01278099999","2010-12-04T09:00:00","4","63.7833333","11.6833333","83.0","VERDAL REPPE, NO","FM-12","99999","V020","140,1,N,0010,1","22000,1,9,N","055000,1,N,1","-0147,1","-0168,1","10019,1",,,,"0,1,03,1","0,1,03,1",,"01,99,1,01,1,05,1,02250,1,00,1,02,1",,,"99999,9,09910,1","8,1,005,1,+999,9","40,1","SYN072AAXX  04091 01278 41885 11401 11147 21168 39910 40019 58005 74000 81502;",
"01278099999","2010-12-04T12:00:00","4","63.7833333","11.6833333","83.0","VERDAL REPPE, NO","FM-12","99999","V020","150,1,N,0030,1","22000,1,9,N","055000,1,N,1","-0140,1","-0167,1","10002,1",,,,"0,1,06,1","0,1,06,1",,"04,99,1,01,1,00,1,99999,9,07,1,08,1",,,"99999,9,09893,1","7,1,016,1,+999,9","02,1","SYN072AAXX  04121 01278 41985 41503 11140 21167 39893 40002 57016 70200 81078;",
"01278099999","2010-12-04T18:00:00","4","63.7833333","11.6833333","83.0","VERDAL REPPE, NO","FM-12","99999","V020","100,1,N,0030,1","00240,1,9,N","003000,1,N,1","-0105,1","-0131,1","09967,1","12,9999,9,9",,,"7,1,06,1","2,1,06,1","09,1,+99999,9,99,9","09,99,1,09,1,99,9,99999,9,99,9,99,9",,"999,M,-0104,1","99999,9,09861,1","8,1,019,1,+999,9","71,1","SYN082AAXX  04181 01278 11/30 91003 11105 21131 39861 49967 58019 69902 77172 333 11104;","Q01  00002PRCP12Q02  00002PRCP12"
"01278099999","2010-12-05T06:00:00","4","63.7833333","11.6833333","83.0","VERDAL REPPE, NO","FM-12","99999","V020","150,1,N,0030,1","02100,1,9,N","055000,1,N,1","-0044,1","-0073,1","09928,1","12,0005,9,1","24,0005,9,1","0012,9,1,999999,9,9","7,1,06,1","2,1,06,1",,"08,99,1,08,1,00,1,02250,1,02,1,99,9","23,9","999,N,-0105,1","99999,9,09823,1","8,1,007,1,+999,9","02,1","SYN100AAXX  05061 01278 11885 81503 11044 21073 39823 49928 58007 69942 70272 8802/ 333 21105 47012 70004;",
"01278099999","2010-12-05T09:00:00","4","63.7833333","11.6833333","83.0","VERDAL REPPE, NO","FM-12","99999","V020","110,1,N,0030,1","03000,1,9,N","055000,1,N,1","-0045,1","-0072,1","09929,1",,,,"2,1,03,1","2,1,03,1",,"08,99,1,01,1,04,1,01250,1,02,1,99,9",,,"99999,9,09825,1","0,1,002,1,+999,9","15,1","SYN072AAXX  05091 01278 41685 81103 11045 21072 39825 49929 50002 71522 8142/;",
"01278099999","2010-12-05T12:00:00","4","63.7833333","11.6833333","83.0","VERDAL REPPE, NO","FM-12","99999","V020","110,1,N,0030,1","03000,1,9,N","055000,1,N,1","-0027,1","-0058,1","09917,1",,,,"2,1,06,1","2,1,06,1",,"07,99,1,04,1,08,1,01250,1,04,1,08,1",,,"99999,9,09813,1","7,1,011,1,+999,9","01,1","SYN072AAXX  05121 01278 41685 71103 11027 21058 39813 49917 57011 70122 84848;",
"01278099999","2010-12-05T18:00:00","4","63.7833333","11.6833333","83.0","VERDAL REPPE, NO","FM-12","99999","V020","100,1,N,0030,1","02100,1,9,N","055000,1,N,1","-0014,1","-0056,1","09906,1",,,,"2,1,06,1","2,1,06,1",,"08,99,1,08,1,00,1,02250,1,07,1,99,9",,"999,M,-0011,1","99999,9,09803,1","5,1,001,1,+999,9","02,1","SYN082AAXX  05181 01278 31885 81003 11014 21056 39803 49906 55001 70222 8807/ 333 11011;",
"01278099999","2010-12-06T06:00:00","4","63.7833333","11.6833333","83.0","VERDAL REPPE, NO","FM-12","99999","V020","120,1,N,0030,1","22000,1,9,N","055000,1,N,1","-0050,1","-0079,1","09913,1","24,0000,9,1",,"0011,9,1,999999,9,9","1,1,06,1","1,1,06,1",,"01,99,1,01,1,04,1,01750,1,00,1,01,1","23,9","999,N,-0050,1","99999,9,09808,1","7,1,004,1,+999,9","02,1","SYN094AAXX  06061 01278 31785 11203 11050 21079 39808 49913 57004 70211 81401 333 21050 47011 70000;","Q01  00002PRCP24"
"01278099999","2010-12-06T09:00:00","4","63.7833333","11.6833333","83.0","VERDAL REPPE, NO","FM-12","99999","V020","110,1,N,0030,1","22000,1,9,N","075000,1,N,1","-0065,1","-0091,1","09915,1",,,,"1,1,03,1","1,1,03,1",,"01,99,1,01,1,08,1,01750,1,00,1,00,1",,,"99999,9,09811,1","2,1,002,1,+999,9","01,1","SYN072AAXX  06091 01278 41789 11103 11065 21091 39811 49915 52002 70111 81800;",
"01278099999","2010-12-06T12:00:00","4","63.7833333","11.6833333","83.0","VERDAL REPPE, NO","FM-12","99999","V020","110,1,N,0030,1","01500,1,9,N","055000,1,N,1","-0065,1","-0092,1","09917,1",,,,"1,1,06,1","1,1,06,1",,"05,99,1,05,1,09,1,01750,1,00,1,01,1",,,"99999,9,09812,1","3,1,003,1,+999,9","14,1","SYN072AAXX  06121 01278 41785 51103 11065 21092 39812 49917 53003 71411 85901;",
"01278099999","2010-12-06T18:00:00","4","63.7833333","11.6833333","83.0","VERDAL REPPE, NO","FM-12","99999","V020","150,1,N,0010,1","01500,1,9,N","015000,1,N,1","-0064,1","-0092,1","09920,1","12,9999,9,9",,,"7,1,06,1","2,1,06,1",,"08,99,1,08,1,00,1,01750,1,02,1,99,9",,"999,M,-0045,1","99999,9,09816,1","5,1,000,1,+999,9","70,1","SYN088AAXX  06181 01278 11765 81501 11064 21092 39816 49920 55000 69902 77072 8802/ 333 11045;","Q01  00002PRCP12Q02  00002PRCP12"
"01278099999","2010-12-07T06:00:00","4","63.7833333","11.6833333","83.0","VERDAL REPPE, NO","FM-12","99999","V020","330,1,N,0050,1","00750,1,9,N","015000,1,N,1","-0002,1","-0013,1","09933,1","12,0051,9,1","24,0051,9,1","0017,9,1,999999,9,9","8,1,06,1","2,1,06,1",,"08,99,1,08,1,09,1,00800,1,99,9,99,9","23,9","999,N,-0063,1","99999,9,09831,1","3,1,008,1,+999,9","85,1","SYN100AAXX  07061 01278 11565 83305 11002 21013 39831 49933 53008 60052 78582 889// 333 21063 47017 70050;",
"01278099999","2010-12-07T09:00:00","4","63.7833333","11.6833333","83.0","VERDAL REPPE, NO","FM-12","99999","V020","280,1,N,0030,1","00060,1,9,N","000700,1,N,1","-0005,1","-0016,1","09952,1",,,,"8,1,03,1","2,1,03,1","09,1,+99999,9,99,9","09,99,1,09,1,99,9,99999,9,99,9,99,9",,,"99999,9,09850,1","3,1,018,1,+999,9","85,1","SYN066AAXX  07091 01278 41/07 92803 11005 21016 39850 49952 53018 78582;",
"01278099999","2010-12-07T12:00:00","4","63.7833333","11.6833333","83.0","VERDAL REPPE, NO","FM-12","99999","V020","300,1,N,0030,1","00750,1,9,N","055000,1,N,1","-0002,1","-0012,1","09959,1",,,,"8,1,06,1","2,1,06,1",,"08,99,1,08,1,09,1,00800,1,99,9,99,9",,,"99999,9,09857,1","1,1,011,1,+999,9","15,1","SYN072AAXX  07121 01278 41585 83003 11002 21012 39857 49959 51011 71582 889//;",
"01278099999","2010-12-07T18:00:00","4","63.7833333","11.6833333","83.0","VERDAL REPPE, NO","FM-12","99999","V020","290,1,N,0010,1","00240,1,9,N","003000,1,N,1","+0002,1","-0008,1","09992,1","12,0051,9,1",,,"8,1,06,1","2,1,06,1","09,1,+99999,9,99,9","09,99,1,09,1,99,9,99999,9,99,9,99,9",,"999,M,+0005,1","99999,9,09890,1","3,1,016,1,+999,9","85,1","SYN082AAXX  07181 01278 11/30 92901 10002 21008 39890 49992 53016 60052 78582 333 10005;",
"01278099999","2010-12-08T06:00:00","4","63.7833333","11.6833333","83.0","VERDAL REPPE, NO","FM-12","99999","V020","090,1,N,0010,1","22000,1,9,N","055000,1,N,1","-0051,1","-0059,1","10025,1","12,0010,9,1","24,0058,9,1","0024,9,1,999999,9,9","8,1,06,1","1,1,06,1",,"03,99,1,01,1,04,1,00800,1,00,1,02,1","23,9","999,N,-0051,1","99999,9,09920,1","4,1,000,1,+999,9","02,1","SYN100AAXX  08061 01278 11585 30901 11051 21059 39920 40025 54001 60012 70281 81402 333 21051 47024 70059;",
"01278099999","2010-12-08T09:00:00","4","63.7833333","11.6833333","83.0","VERDAL REPPE, NO","FM-12","99999","V020","150,1,N,0030,1","03000,1,9,N","055000,1,N,1","-0050,1","-0058,1","10023,1",,,,"1,1,03,1","1,1,03,1",,"08,99,1,01,1,04,1,00800,1,02,1,99,9",,,"99999,9,09917,1","7,1,002,1,+999,9","03,1","SYN072AAXX  08091 01278 41585 81503 11050 21058 39917 40023 57002 70311 8142/;",
"01278099999","2010-12-08T12:00:00","4","63.7833333","11.6833333","83.0","VERDAL REPPE, NO","FM-12","99999","V020","150,1,N,0010,1","99999,9,9,N","055000,1,N,1","-0048,1","-0056,1","10019,1",,,,"2,1,06,1","2,1,06,1",,"08,99,1,08,1,00,1,99999,9,02,1,99,9",,,"99999,9,09913,1","7,1,003,1,+999,9","15,1","SYN072AAXX  08121 01278 41985 81501 11048 21056 39913 40019 57003 71522 8802/;",
"01278099999","2010-12-08T18:00:00","4","63.7833333","11.6833333","83.0","VERDAL REPPE, NO","FM-12","99999","V020","999,9,C,0000,1","99999,9,9,N","055000,1,N,1","-0054,1","-0062,1","10021,1","12,0000,9,1",,,"7,1,06,1","2,1,06,1",,"08,99,1,08,1,00,1,99999,9,02,1,99,9",,"999,M,-0038,1","99999,9,09916,1","3,1,005,1,+999,9","02,1","SYN088AAXX  08181 01278 11985 80000 11054 21062 39916 40021 53005 69902 70272 8802/ 333 11038;","Q01  00002PRCP12"
"01278099999","2010-12-09T06:00:00","4","63.7833333","11.6833333","83.0","VERDAL REPPE, NO","FM-12","99999","V020","130,1,N,0010,1","01200,1,9,N","015000,1,N,1","-0043,1","-0052,1","10067,1","12,0020,9,2","24,0015,9,2","0022,9,1,999999,9,9","8,1,06,1","7,1,06,1",,"08,99,1,08,1,00,1,01250,1,02,1,99,9","23,9","999,N,-0059,1","99999,9,09962,1","3,1,021,1,+999,9","70,1","SYN100AAXX  09061 01278 11665 81301 11043 21052 39962 40067 53021 60022 77087 8802/ 333 21059 47022 70015;",
"01278099999","2010-12-09T09:00:00","4","63.7833333","11.6833333","83.0","VERDAL REPPE, NO","FM-12","99999","V020","110,1,N,0010,1","00420,1,9,N","030000,1,N,1","-0049,1","-0057,1","10049,1",,,,"7,1,03,1","2,1,03,1",,"07,99,1,07,1,06,1,00450,1,99,9,99,9",,,"99999,9,09943,1","3,1,034,1,+999,9","02,1","SYN072AAXX  09091 01278 41480 71101 11049 21057 39943 40049 53034 70272 876//;",
"01278099999","2010-12-09T12:00:00","4","63.7833333","11.6833333","83.0","VERDAL REPPE, NO","FM-12","99999","V020","100,1,N,0010,1","00030,1,9,N","030000,1,N,1","-0069,1","-0079,1","10129,1",,,,"2,1,06,1","2,1,06,1",,"08,99,1,08,1,06,1,00025,1,99,9,99,9",,,"99999,9,10022,1","3,1,027,1,+999,9","02,1","SYN072AAXX  09121 01278 41080 81001 11069 21079 30022 40129 53027 70222 886//;",
"01278099999","2010-12-09T18:00:00","4","63.7833333","11.6833333","83.0","VERDAL REPPE, NO","FM-12","99999","V020","999,9,C,0000,1","00420,1,9,N","030000,1,N,1","-0064,1","-0072,1","10165,1","12,0000,2,1",,,"2,1,06,1","2,1,06,1",,"08,99,1,08,1,06,1,00450,1,99,9,99,9",,"999,M,-0037,1","99999,9,10057,1","2,1,012,1,+999,9","02,1","SYN088AAXX  09181 01278 11480 80000 11064 21072 30057 40165 52012 69922 70222 886// 333 11037;",
"01278099999","2010-12-10T06:00:00","4","63.7833333","11.6833333","83.0","VERDAL REPPE, NO","FM-12","99999","V020","110,1,N,0010,1","00240,1,9,N","003000,1,N,1","-0061,1","-0071,1","10131,1","12,9999,9,9","24,0003,9,1","0022,9,1,999999,9,9","7,1,06,1","2,1,06,1","09,1,+99999,9,99,9","09,99,1,09,1,99,9,99999,9,99,9,99,9","23,9","999,N,-0080,1","99999,9,10025,1","6,1,019,1,+999,9","70,1","SYN094AAXX  10061 01278 11/30 91101 11061 21071 30025 40131 56019 69902 77072 333 21080 47022 70002;","Q01  00002PRCP12Q02  00002PRCP12"
"01278099999","2010-12-10T09:00:00","4","63.7833333","11.6833333","83.0","VERDAL REPPE, NO","FM-12","99999","V020","100,1,N,0030,1","00240,1,9,N","003000,1,N,1","-0055,1","-0063,1","10110,1",,,,"7,1,03,1","7,1,03,1","09,1,+99999,9,99,9","09,99,1,09,1,99,9,99999,9,99,9,99,9",,,"99999,9,10003,1","8,1,021,1,+999,9","71,1","SYN066AAXX  10091 01278 41/30 91003 11055 21063 30003 40110 58021 77177;",
"01278099999","2010-12-10T12:00:00","4","63.7833333","11.6833333","83.0","VERDAL REPPE, NO","FM-12","99999","V020","120,1,N,0030,1","03000,1,9,N","008000,1,N,1","-0043,1","-0052,1","10071,1",,,,"7,1,06,1","2,1,06,1",,"08,99,1,01,1,08,1,00800,1,07,1,99,9",,,"99999,9,09966,1","8,1,037,1,+999,9","70,1","SYN072AAXX  10121 01278 41558 81203 11043 21052 39966 40071 58037 77072 8187/;",
"01278099999","2010-12-10T18:00:00","4","63.7833333","11.6833333","83.0","VERDAL REPPE, NO","FM-12","99999","V020","150,1,N,0010,1","00240,1,9,N","003000,1,N,1","-0026,1","-0033,1","10004,1","12,0030,9,1",,,"7,1,06,1","2,1,06,1","09,1,+99999,9,99,9","09,99,1,09,1,99,9,99999,9,99,9,99,9",,"999,M,-0024,1","99999,9,09900,1","7,1,040,1,+999,9","70,1","SYN082AAXX  10181 01278 11/30 91501 11026 21033 39900 40004 57040 60032 77072 333 11024;",
"01278099999","2010-12-11T06:00:00","4","63.7833333","11.6833333","83.0","VERDAL REPPE, NO","FM-12","99999","V020","150,1,N,0050,1","02100,1,9,N","015000,1,N,1","-0024,1","-0038,1","09943,1","12,0030,9,1","24,0058,9,1","0027,9,1,999999,9,9","7,1,06,1","2,1,06,1",,"08,99,1,08,1,00,1,02250,1,02,1,99,9","23,9","999,N,-0025,1","99999,9,09840,1","3,1,008,1,+999,9","15,1","SYN100AAXX  11061 01278 11865 81505 11024 21038 39840 49943 53008 60032 71572 8802/ 333 21025 47027 70059;",
"01278099999","2010-12-11T09:00:00","4","63.7833333","11.6833333","83.0","VERDAL REPPE, NO","FM-12","99999","V020","140,1,N,0050,1","03000,1,9,N","055000,1,N,1","-0030,1","-0058,1","09967,1",,,,"7,1,03,1","2,1,03,1",,"08,99,1,02,1,05,1,01750,1,07,1,02,1",,,"99999,9,09863,1","3,1,023,1,+999,9","02,1","SYN072AAXX  11091 01278 41785 81405 11030 21058 39863 49967 53023 70272 82572;",
"01278099999","2010-12-11T12:00:00","4","63.7833333","11.6833333","83.0","VERDAL REPPE, NO","FM-12","99999","V020","110,1,N,0050,1","00900,1,9,N","055000,1,N,1","-0040,1","-0070,1","10004,1",,,,"2,1,06,1","2,1,06,1",,"07,99,1,05,1,08,1,00450,1,07,1,02,1",,,"99999,9,09900,1","3,1,036,1,+999,9","02,1","SYN072AAXX  11121 01278 41485 71105 11040 21070 39900 40004 53036 70222 85872;",
"01278099999","2010-12-11T18:00:00","4","63.7833333","11.6833333","83.0","VERDAL REPPE, NO","FM-12","99999","V020","999,9,C,0000,1","22000,1,9,N","055000,1,N,1","-0064,1","-0087,1","99999,9","12,0000,9,1",,,"1,1,06,1","1,1,06,1",,"02,99,1,99,9,00,1,99999,9,04,1,00,1",,"999,M,-0020,1",,"3,1,045,1,+999,9","01,1","SYN088AAXX  11181 01278 11985 20000 11064 21087 39987 40094 53045 69922 70111 81040 333 11020;","Q01+000012SCOTLCQ02  00002PRCP12"
"01278099999","2010-12-12T06:00:00","4","63.7833333","11.6833333","83.0","VERDAL REPPE, NO","FM-12","99999","V020","150,1,N,0010,1","01500,1,9,N","030000,1,N,1","-0089,1","-0102,1","10176,1","12,9999,9,9","24,0003,9,1","0026,9,1,999999,9,9","7,1,06,1","2,1,06,1",,"08,99,1,08,1,00,1,01750,1,02,1,99,9","23,9","999,N,-0130,1","99999,9,10067,1","2,1,007,1,+999,9","70,1","SYN100AAXX  12061 01278 11780 81501 11089 21102 30067 40176 52007 69912 77072 8802/ 333 21130 47026 70003;","Q01  00002PRCP12Q02  00002PRCP12"
"01278099999","2010-12-12T09:00:00","4","63.7833333","11.6833333","83.0","VERDAL REPPE, NO","FM-12","99999","V020","150,1,N,0010,1","00240,1,9,N","002500,1,N,1","-0068,1","-0079,1","10182,1",,,,"7,1,03,1","2,1,03,1","09,1,+99999,9,99,9","09,99,1,09,1,99,9,99999,9,99,9,99,9",,,"99999,9,10075,1","1,1,007,1,+999,9","70,1","SYN066AAXX  12091 01278 41/25 91501 11068 21079 30075 40182 51007 77072;",
"01278099999","2010-12-12T12:00:00","4","63.7833333","11.6833333","83.0","VERDAL REPPE, NO","FM-12","99999","V020","110,1,N,0030,1","00420,1,9,N","015000,1,N,1","-0045,1","-0055,1","10185,1",,,,"7,1,06,1","2,1,06,1",,"08,99,1,08,1,00,1,00450,1,02,1,99,9",,,"99999,9,10078,1","2,1,004,1,+999,9","70,1","SYN072AAXX  12121 01278 41465 81103 11045 21055 30078 40185 52004 77072 8802/;",
"01278099999","2010-12-12T18:00:00","4","63.7833333","11.6833333","83.0","VERDAL REPPE, NO","FM-12","99999","V020","999,9,C,0000,1","01500,1,9,N","007000,1,N,1","-0032,1","-0041,1","10202,1","12,0041,9,1",,,"8,1,06,1","7,1,06,1",,"07,99,1,07,1,09,1,01750,1,99,9,99,9",,"999,M,-0025,1","99999,9,10096,1","1,1,006,1,+999,9","85,1","SYN088AAXX  12181 01278 11757 70000 11032 21041 30096 40202 51006 60042 78587 879// 333 11025;",
"01278099999","2010-12-13T06:00:00","4","63.7833333","11.6833333","83.0","VERDAL REPPE, NO","FM-12","99999","V020","150,1,N,0030,1","22000,1,9,N","055000,1,N,1","-0057,1","-0067,1","10244,1","12,0000,2,1","24,0036,9,1","0031,9,1,999999,9,9","7,1,06,1","1,1,06,1","00,1,+99999,9,99,9","00,99,1,00,1,00,1,99999,9,00,1,00,1","23,9","999,N,-0064,1","99999,9,10137,1","3,1,011,1,+999,9","02,1","SYN094AAXX  13061 01278 11985 01503 11057 21067 30137 40244 53011 69902 70271 333 21064 47031 70035;",
"01278099999","2010-12-13T09:00:00","4","63.7833333","11.6833333","83.0","VERDAL REPPE, NO","FM-12","99999","V020","150,1,N,0030,1","22000,1,9,N","055000,1,N,1","-0065,1","-0077,1","10263,1",,,,"0,1,03,1","0,1,03,1",,"01,99,1,01,1,05,1,02250,1,00,1,00,1",,,"99999,9,10155,1","2,1,018,1,+999,9","02,1","SYN072AAXX  13091 01278 41885 11503 11065 21077 30155 40263 52018 70200 81500;",
"01278099999","2010-12-13T12:00:00","4","63.7833333","11.6833333","83.0","VERDAL REPPE, NO","FM-12","99999","V020","130,1,N,0050,1","22000,1,9,N","055000,1,N,1","-0075,1","-0088,1","10278,1",,,,"0,1,06,1","0,1,06,1",,"01,99,1,01,1,08,1,01750,1,00,1,00,1",,,"99999,9,10170,1","3,1,014,1,+999,9","02,1","SYN072AAXX  13121 01278 41785 11305 11075 21088 30170 40278 53014 70200 81800;",
"01278099999","2010-12-13T18:00:00","4","63.7833333","11.6833333","83.0","VERDAL REPPE, NO","FM-12","99999","V020","110,1,N,0010,1","22000,1,9,N","055000,1,N,1","-0104,1","-0121,1","10299,1",,,,"0,1,06,1","0,1,06,1","00,1,+99999,9,99,9","00,99,1,00,1,00,1,99999,9,00,1,00,1",,"999,M,-0054,1","99999,9,10188,1","2,1,008,1,+999,9","02,1","SYN076AAXX  13181 01278 31985 01101 11104 21121 30188 40299 52008 70200 333 11054;",
"01278099999","2010-12-14T06:00:00","4","63.7833333","11.6833333","83.0","VERDAL REPPE, NO","FM-12","99999","V020","999,9,C,0000,1","00750,1,9,N","030000,1,N,1","-0083,1","-0095,1","10299,1","12,0010,9,1","24,0015,9,1","0030,9,1,999999,9,9","7,1,06,1","1,1,06,1",,"08,99,1,08,1,00,1,00800,1,02,1,99,9","23,9","999,N,-0120,1","99999,9,10190,1","3,1,003,1,+999,9","70,1","SYN100AAXX  14061 01278 11580 80000 11083 21095 30190 40299 53003 60012 77071 8802/ 333 21120 47030 70014;",
"01278099999","2010-12-14T09:00:00","4","63.7833333","11.6833333","83.0","VERDAL REPPE, NO","FM-12","99999","V020","130,1,N,0010,1","03000,1,9,N","025000,1,N,1","-0068,1","-0080,1","10320,1",,,,"7,1,03,1","2,1,03,1",,"08,99,1,01,1,06,1,00450,1,02,1,99,9",,,"99999,9,10211,1","3,1,019,1,+999,9","15,1","SYN072AAXX  14091 01278 41475 81301 11068 21080 30211 40320 53019 71572 8162/;",
"01278099999","2010-12-14T12:00:00","4","63.7833333","11.6833333","83.0","VERDAL REPPE, NO","FM-12","99999","V020","130,1,N,0010,1","03000,1,9,N","020000,1,N,1","-0057,1","-0069,1","10330,1",,,,"7,1,06,1","2,1,06,1",,"08,99,1,02,1,06,1,00450,1,02,1,99,9",,,"99999,9,10222,1","2,1,012,1,+999,9","15,1","SYN072AAXX  14121 01278 41470 81301 11057 21069 30222 40330 52012 71572 8262/;",
"01278099999","2010-12-14T18:00:00","4","63.7833333","11.6833333","83.0","VERDAL REPPE, NO","FM-12","99999","V020","130,1,N,0010,1","03000,1,9,N","008000,1,N,1","-0037,1","-0047,1","10343,1","12,0000,2,1",,,"7,1,06,1","2,1,06,1",,"08,99,1,03,1,06,1,00450,1,02,1,99,9",,"999,M,-0036,1","99999,9,10235,1","0,1,003,1,+999,9","70,1","SYN088AAXX  14181 01278 11458 81301 11037 21047 30235 40343 50003 69902 77072 8362/ 333 11036;",
"01278099999","2010-12-15T06:00:00","4","63.7833333","11.6833333","83.0","VERDAL REPPE, NO","FM-12","99999","V020","150,1,N,0010,1","01500,1,9,N","030000,1,N,1","-0020,1","-0029,1","10271,1","12,0000,2,1","24,0000,2,1","0028,9,1,999999,9,9","7,1,06,1","2,1,06,1",,"08,99,1,08,1,00,1,01750,1,02,1,99,9","23,9","999,N,-0039,1","99999,9,10165,1","8,1,037,1,+999,9","70,1","SYN100AAXX  15061 01278 11780 81501 11020 21029 30165 40271 58037 69902 77072 8802/ 333 21039 47028 79999;",
"01278099999","2010-12-15T09:00:00","4","63.7833333","11.6833333","83.0","VERDAL REPPE, NO","FM-12","99999","V020","140,1,N,0010,1","00900,1,9,N","055000,1,N,1","+0002,1","-0011,1","10238,1",,,,"7,1,03,1","2,1,03,1",,"07,99,1,05,1,08,1,00450,1,06,1,02,1",,,"99999,9,10132,1","8,1,034,1,+999,9","02,1","SYN072AAXX  15091 01278 41485 71401 10002 21011 30132 40238 58034 70272 85862;",
"01278099999","2010-12-15T12:00:00","4","63.7833333","11.6833333","83.0","VERDAL REPPE, NO","FM-12","99999","V020","300,1,N,0050,1","00420,1,9,N","025000,1,N,1","+0014,1","-0017,1","10169,1",,,,"7,1,06,1","2,1,06,1",,"08,99,1,07,1,09,1,00450,1,07,1,99,9",,,"99999,9,10065,1","8,1,065,1,+999,9","15,1","SYN072AAXX  15121 01278 41475 83005 10014 21017 30065 40169 58065 71572 8797/;",
"01278099999","2010-12-15T18:00:00","4","63.7833333","11.6833333","83.0","VERDAL REPPE, NO","FM-12","99999","V020","270,1,N,0030,1","01500,1,9,N","030000,1,N,1","+0048,1","+0011,1","99999,9","12,0000,2,1",,,"6,1,06,1","2,1,06,1",,"08,99,1,08,1,00,1,01750,1,02,1,99,9",,"999,M,+0050,1",,"8,1,084,2,+999,9","02,1","SYN088AAXX  15181 01278 11780 82703 10048 20011 39912 40013 58084 69912 70262 8802/ 333 10050;","Q01+099123APOSP "
"01278099999","2010-12-16T06:00:00","4","63.7833333","11.6833333","83.0","VERDAL REPPE, NO","FM-12","99999","V020","300,1,N,0050,1","03000,1,9,N","030000,1,N,1","-0026,1","-0041,1","09892,1","12,0061,9,1","24,0066,9,1","0028,9,1,999999,9,9","8,1,06,1","2,1,06,1",,"08,99,1,04,1,09,1,00450,1,02,1,99,9","23,9","999,N,-0029,1","99999,9,09790,1","6,1,025,1,+999,9","02,1","SYN100AAXX  16061 01278 11480 83005 11026 21041 39790 49892 56025 60062 70282 8492/ 333 21029 47028 70065;",
"01278099999","2010-12-16T09:00:00","4","63.7833333","11.6833333","83.0","VERDAL REPPE, NO","FM-12","99999","V020","999,9,C,0000,1","03000,1,9,N","055000,1,N,1","-0040,1","-0056,1","09884,1",,,,"2,1,03,1","2,1,03,1",,"08,99,1,03,1,09,1,00450,1,02,1,99,9",,,"99999,9,09781,1","8,1,010,1,+999,9","15,1","SYN072AAXX  16091 01278 41485 80000 11040 21056 39781 49884 58010 71522 8392/;",
"01278099999","2010-12-16T12:00:00","4","63.7833333","11.6833333","83.0","VERDAL REPPE, NO","FM-12","99999","V020","999,9,C,0000,1","00900,1,9,N","055000,1,N,1","-0039,1","-0055,1","09864,1",,,,"2,1,06,1","2,1,06,1",,"07,99,1,05,1,08,1,00450,1,06,1,01,1",,,"99999,9,09761,1","8,1,020,1,+999,9","02,1","SYN072AAXX  16121 01278 41485 70000 11039 21055 39761 49864 58020 70222 85861;",
"01278099999","2010-12-16T18:00:00","4","63.7833333","11.6833333","83.0","VERDAL REPPE, NO","FM-12","99999","V020","999,9,C,0000,1","01500,1,9,N","025000,1,N,1","-0034,1","-0049,1","09846,1","12,9999,9,9",,,"7,1,06,1","2,1,06,1",,"08,99,1,08,1,00,1,01750,1,02,1,99,9",,"999,M,-0025,1","99999,9,09743,1","7,1,007,1,+999,9","70,1","SYN088AAXX  16181 01278 11775 80000 11034 21049 39743 49846 57007 69902 77072 8802/ 333 11025;","Q01  00002PRCP12Q02  00002PRCP12"
"01278099999","2010-12-17T06:00:00","4","63.7833333","11.6833333","83.0","VERDAL REPPE, NO","FM-12","99999","V020","140,1,N,0030,1","22000,1,9,N","055000,1,N,1","-0049,1","-0069,1","09923,1","12,0020,9,2","24,0015,9,2","0027,9,1,999999,9,9","7,1,06,1","1,1,06,1",,"03,99,1,01,1,04,1,01750,1,07,1,00,1","23,9","999,N,-0079,1","99999,9,09818,1","3,1,024,1,+999,9","02,1","SYN100AAXX  17061 01278 11785 31403 11049 21069 39818 49923 53024 60022 70271 81470 333 21079 47027 70015;",
"01278099999","2010-12-17T09:00:00","4","63.7833333","11.6833333","83.0","VERDAL REPPE, NO","FM-12","99999","V020","130,1,N,0070,1","22000,1,9,N","055000,1,N,1","-0052,1","-0090,1","09971,1",,,,"0,1,03,1","0,1,03,1",,"03,99,1,03,1,08,1,01250,1,00,1,01,1",,,"99999,9,09867,1","3,1,045,1,+999,9","02,1","SYN072AAXX  17091 01278 41685 31307 11052 21090 39867 49971 53045 70200 83801;",
"01278099999","2010-12-17T12:00:00","4","63.7833333","11.6833333","83.0","VERDAL REPPE, NO","FM-12","99999","V020","130,1,N,0050,1","01200,1,9,N","075000,1,N,1","-0040,1","-0077,1","10011,1",,,,"1,1,06,1","1,1,06,1",,"06,99,1,05,1,09,1,01250,1,07,1,02,1",,,"99999,9,09907,1","3,1,043,1,+999,9","15,1","SYN072AAXX  17121 01278 41689 61305 11040 21077 39907 40011 53043 71511 85972;",
"01278099999","2010-12-17T18:00:00","4","63.7833333","11.6833333","83.0","VERDAL REPPE, NO","FM-12","99999","V020","140,1,N,0010,1","01500,1,9,N","020000,1,N,1","-0046,1","-0061,1","10081,1","12,9999,9,9",,,"7,1,06,1","2,1,06,1",,"08,99,1,08,1,00,1,01750,1,02,1,99,9",,"999,M,-0037,1","99999,9,09976,1","2,1,039,1,+999,9","70,1","SYN088AAXX  17181 01278 11770 81401 11046 21061 39976 40081 52039 69902 77072 8802/ 333 11037;","Q01  00002PRCP12Q02  00002PRCP12"
"01278099999","2010-12-18T06:00:00","4","63.7833333","11.6833333","83.0","VERDAL REPPE, NO","FM-12","99999","V020","130,1,N,0070,1","03000,1,9,N","055000,1,N,1","-0061,1","-0110,1","10191,1","12,0000,2,1","24,0000,2,1","0025,9,1,999999,9,9","7,1,06,1","2,1,06,1",,"07,99,1,01,1,01,1,01750,1,02,1,99,9","28,9","999,N,-0061,1","99999,9,10083,1","1,1,020,1,+999,9","02,1","SYN100AAXX  18061 01278 11785 71307 11061 21110 30083 40191 51020 69902 70272 8112/ 333 21061 44025 79999;",
"01278099999","2010-12-18T09:00:00","4","63.7833333","11.6833333","83.0","VERDAL REPPE, NO","FM-12","99999","V020","140,1,N,0150,1","03000,1,9,N","055000,1,N,1","-0070,1","-0122,1","10198,1",,,,"2,1,03,1","2,1,03,1",,"08,99,1,01,1,08,1,01250,1,07,1,99,9",,,"99999,9,10091,1","3,1,005,1,+999,9","02,1","SYN072AAXX  18091 01278 41685 81415 11070 21122 30091 40198 53005 70222 8187/;",
"01278099999","2010-12-18T12:00:00","4","63.7833333","11.6833333","83.0","VERDAL REPPE, NO","FM-12","99999","V020","110,1,N,0050,1","03000,1,9,N","055000,1,N,1","-0078,1","-0132,1","10215,1",,,,"2,1,06,1","2,1,06,1",,"07,99,1,02,1,01,1,01250,1,08,1,07,1",,,"99999,9,10107,1","3,1,015,1,+999,9","02,1","SYN072AAXX  18121 01278 41685 71105 11078 21132 30107 40215 53015 70222 82187;",
"01278099999","2010-12-18T18:00:00","4","63.7833333","11.6833333","83.0","VERDAL REPPE, NO","FM-12","99999","V020","110,1,N,0070,1","03000,1,9,N","055000,1,N,1","-0092,1","-0147,1","10221,1",,,,"2,1,06,1","2,1,06,1",,"05,99,1,03,1,08,1,01750,1,04,1,01,1",,"999,M,-0059,1","99999,9,10112,1","3,1,009,1,+999,9","02,1","SYN082AAXX  18181 01278 31785 51107 11092 21147 30112 40221 53009 70222 83841 333 11059;",
"01278099999","2010-12-19T06:00:00","4","63.7833333","11.6833333","83.0","VERDAL REPPE, NO","FM-12","99999","V020","110,1,N,0070,1","99999,9,9,N","055000,1,N,1","-0104,1","-0160,1","10178,1","24,0000,9,1",,"0023,9,1,999999,9,9","1,1,06,1","1,1,06,1",,"05,99,1,00,1,00,1,99999,9,00,1,08,1","28,9","999,N,-0112,1","99999,9,10068,1","8,1,012,1,+999,9","02,1","SYN094AAXX  19061 01278 31985 51107 11104 21160 30068 40178 58012 70211 80008 333 21112 44023 70000;","Q01  00002PRCP24"
"01278099999","2010-12-19T09:00:00","4","63.7833333","11.6833333","83.0","VERDAL REPPE, NO","FM-12","99999","V020","150,1,N,0030,1","03000,1,9,N","055000,1,N,1","-0109,1","-0160,1","10167,1",,,,"2,1,03,1","2,1,03,1",,"07,99,1,01,1,01,1,01750,1,07,1,08,1",,,"99999,9,10057,1","8,1,010,1,+999,9","02,1","SYN072AAXX  19091 01278 41785 71503 11109 21160 30057 40167 58010 70222 81178;",
"01278099999","2010-12-19T12:00:00","4","63.7833333","11.6833333","83.0","VERDAL REPPE, NO","FM-12","99999","V020","110,1,N,0050,1","03000,1,9,N","055000,1,N,1","-0109,1","-0165,1","10147,1",,,,"2,1,06,1","2,1,06,1",,"06,99,1,01,1,01,1,01250,1,07,1,08,1",,,"99999,9,10038,1","8,1,020,1,+999,9","02,1","SYN072AAXX  19121 01278 41685 61105 11109 21165 30038 40147 58020 70222 81178;",
"01278099999","2010-12-19T18:00:00","4","63.7833333","11.6833333","83.0","VERDAL REPPE, NO","FM-12","99999","V020","150,1,N,0050,1","99999,9,9,N","055000,1,N,1","-0116,1","-0168,1","10122,1",,,,"2,1,06,1","2,1,06,1",,"08,99,1,00,1,00,1,99999,9,00,1,08,1",,"999,M,-0101,1","99999,9,10013,1","8,1,007,1,+999,9","02,1","SYN082AAXX  19181 01278 31985 81505 11116 21168 30013 40122 58007 70222 80008 333 11101;",
"01278099999","2010-12-20T06:00:00","4","63.7833333","11.6833333","83.0","VERDAL REPPE, NO","FM-12","99999","V020","120,1,N,0070,1","03000,1,9,N","055000,1,N,1","-0130,1","-0189,1","10082,1","24,0000,9,1",,"0023,9,1,999999,9,9","2,1,06,1","2,1,06,1",,"07,99,1,01,1,04,1,01750,1,07,1,99,9","28,9","999,N,-0135,1","99999,9,09972,1","6,1,020,1,+999,9","02,1","SYN094AAXX  20061 01278 31785 71207 11130 21189 39972 40082 56020 70222 8147/ 333 21135 44023 70000;","Q01  00002PRCP24"
"01278099999","2010-12-20T09:00:00","4","63.7833333","11.6833333","83.0","VERDAL REPPE, NO","FM-12","99999","V020","110,1,N,0070,1","03000,1,9,N","055000,1,N,1","-0129,1","-0186,1","10080,1",,,,"2,1,03,1","2,1,03,1",,"07,99,1,01,1,04,1,01750,1,07,1,02,1",,,"99999,9,09971,1","5,1,002,1,+999,9","02,1","SYN072AAXX  20091 01278 41785 71107 11129 21186 39971 40080 55002 70222 81472;",
"01278099999","2010-12-20T12:00:00","4","63.7833333","11.6833333","83.0","VERDAL REPPE, NO","FM-12","99999","V020","110,1,N,0070,1","99999,9,9,N","055000,1,N,1","+9999,9","+9999,9","10061,1",,,,"2,1,06,1","2,1,06,1",,"07,99,1,05,1,00,1,99999,9,02,1,02,1",,,"99999,9,09962,1","5,1,008,1,+999,9","16,1","SYN072AAXX  20121 01278 41985 71107 10133 20057 39962 40061 55008 71622 85022;","Q01+001333ATOT  "
"01278099999","2010-12-20T18:00:00","4","63.7833333","11.6833333","83.0","VERDAL REPPE, NO","FM-12","99999","V020","110,1,N,0050,1","22000,1,9,N","055000,1,N,1","-0142,1","-0197,1","10055,1",,,,"1,1,06,1","1,1,06,1",,"02,99,1,00,1,00,1,99999,9,00,1,02,1",,"999,M,-0129,1","99999,9,09946,1","8,1,008,1,+999,9","01,1","SYN082AAXX  20181 01278 31985 21105 11142 21197 39946 40055 58008 70111 80002 333 11129;",
"01278099999","2010-12-21T06:00:00","4","63.7833333","11.6833333","83.0","VERDAL REPPE, NO","FM-12","99999","V020","140,1,N,0070,1","22000,1,9,N","055000,1,N,1","-0148,1","-0206,1","10054,1","24,0000,9,1",,"0023,9,1,999999,9,9","1,1,06,1","1,1,06,1",,"04,99,1,00,1,00,1,99999,9,00,1,02,1","28,9","999,N,-0150,1","99999,9,09945,1","4,1,000,1,+999,9","02,1","SYN094AAXX  21061 01278 31985 41407 11148 21206 39945 40054 54000 70211 80002 333 21150 44023 70000;","Q01  00002PRCP24"
"01278099999","2010-12-21T09:00:00","4","63.7833333","11.6833333","83.0","VERDAL REPPE, NO","FM-12","99999","V020","130,1,N,0050,1","22000,1,9,N","030000,1,N,1","-0164,1","-0211,1","10068,1",,,,"0,1,03,1","0,1,03,1",,"03,99,1,01,1,08,1,00800,1,03,1,02,1",,,"99999,9,09957,1","3,1,013,1,+999,9","02,1","SYN072AAXX  21091 01278 41580 31305 11164 21211 39957 40068 53013 70200 81832;",
"01278099999","2010-12-21T12:00:00","4","63.7833333","11.6833333","83.0","VERDAL REPPE, NO","FM-12","99999","V020","130,1,N,0050,1","22000,1,9,N","030000,1,N,1","-0155,1","-0209,1","10072,1",,,,"0,1,06,1","0,1,06,1",,"02,99,1,01,1,01,1,00800,1,00,1,02,1",,,"99999,9,09962,1","2,1,005,1,+999,9","02,1","SYN072AAXX  21121 01278 41580 21305 11155 21209 39962 40072 52005 70200 81102;",
"01278099999","2010-12-21T18:00:00","4","63.7833333","11.6833333","83.0","VERDAL REPPE, NO","FM-12","99999","V020","130,1,N,0030,1","22000,1,9,N","030000,1,N,1","-0178,1","-0217,1","10092,1",,,,"0,1,06,1","0,1,06,1",,"03,99,1,01,1,00,1,02250,1,03,1,01,1",,"999,M,-0144,1","99999,9,09981,1","2,1,010,1,+999,9","02,1","SYN082AAXX  21181 01278 31880 31303 11178 21217 39981 40092 52010 70200 81031 333 11144;",
"01278099999","2010-12-22T06:00:00","4","63.7833333","11.6833333","83.0","VERDAL REPPE, NO","FM-12","99999","V020","120,1,N,0070,1","22000,1,9,N","055000,1,N,1","-0134,1","-0184,1","10131,1","24,0000,9,1",,"0022,9,1,999999,9,9","0,1,06,1","0,1,06,1","00,1,+99999,9,99,9","00,99,1,00,1,00,1,99999,9,00,1,00,1","28,9","999,N,-0180,1","99999,9,10022,1","2,1,012,1,+999,9","02,1","SYN088AAXX  22061 01278 31985 01207 11134 21184 30022 40131 52012 70200 333 21180 44022 70000;","Q01  00002PRCP24"
"01278099999","2010-12-22T09:00:00","4","63.7833333","11.6833333","83.0","VERDAL REPPE, NO","FM-12","99999","V020","120,1,N,0050,1","22000,1,9,N","055000,1,N,1","-0133,1","-0181,1","10154,1",,,,"0,1,03,1","0,1,03,1","00,1,+99999,9,99,9","00,99,1,00,1,00,1,99999,9,00,1,00,1",,,"99999,9,10043,1","2,1,018,1,+999,9","02,1","SYN066AAXX  22091 01278 41985 01205 11133 21181 30043 40154 52018 70200;",
"01278099999","2010-12-22T12:00:00","4","63.7833333","11.6833333","83.0","VERDAL REPPE, NO","FM-12","99999","V020","130,1,N,0070,1","22000,1,9,N","040000,1,N,1","-0132,1","-0185,1","10172,1",,,,"0,1,06,1","0,1,06,1",,"01,99,1,01,1,01,1,01250,1,00,1,00,1",,,"99999,9,10062,1","2,1,018,1,+999,9","02,1","SYN072AAXX  22121 01278 41682 11307 11132 21185 30062 40172 52018 70200 81100;",
"01278099999","2010-12-22T18:00:00","4","63.7833333","11.6833333","83.0","VERDAL REPPE, NO","FM-12","99999","V020","100,1,N,0070,1","22000,1,9,N","055000,1,N,1","-0132,1","-0185,1","10198,1",,,,"0,1,06,1","0,1,06,1","00,1,+99999,9,99,9","00,99,1,00,1,00,1,99999,9,00,1,00,1",,"999,M,-0130,1","99999,9,10087,1","2,1,012,1,+999,9","02,1","SYN076AAXX  22181 01278 31985 01007 11132 21185 30087 40198 52012 70200 333 11130;",
"01278099999","2010-12-23T06:00:00","4","63.7833333","11.6833333","83.0","VERDAL REPPE, NO","FM-12","99999","V020","120,1,N,0070,1","22000,1,9,N","055000,1,N,1","-0135,1","-0185,1","10227,1","24,0000,9,1",,"0022,9,1,999999,9,9","0,1,06,1","0,1,06,1","00,1,+99999,9,99,9","00,99,1,00,1,00,1,99999,9,00,1,00,1","28,9","999,N,-0146,1","99999,9,10117,1","0,1,004,1,+999,9","02,1","SYN088AAXX  23061 01278 31985 01207 11135 21185 30117 40227 50004 70200 333 21146 44022 70000;","Q01  00002PRCP24"
"01278099999","2010-12-23T09:00:00","4","63.7833333","11.6833333","83.0","VERDAL REPPE, NO","FM-12","99999","V020","110,1,N,0050,1","22000,1,9,N","055000,1,N,1","-0137,1","-0183,1","10237,1",,,,"0,1,03,1","0,1,03,1","00,1,+99999,9,99,9","00,99,1,00,1,00,1,99999,9,00,1,00,1",,,"99999,9,10126,1","3,1,009,1,+999,9","02,1","SYN066AAXX  23091 01278 41985 01105 11137 21183 30126 40237 53009 70200;",
"01278099999","2010-12-23T12:00:00","4","63.7833333","11.6833333","83.0","VERDAL REPPE, NO","FM-12","99999","V020","100,1,N,0050,1","22000,1,9,N","055000,1,N,1","-0122,1","-0174,1","10238,1",,,,"0,1,06,1","0,1,06,1",,"01,99,1,01,1,01,1,01250,1,00,1,00,1",,,"99999,9,10127,1","2,1,002,1,+999,9","02,1","SYN072AAXX  23121 01278 41685 11005 11122 21174 30127 40238 52002 70200 81100;",
"01278099999","2010-12-23T18:00:00","4","63.7833333","11.6833333","83.0","VERDAL REPPE, NO","FM-12","99999","V020","130,1,N,0070,1","22000,1,9,N","055000,1,N,1","-0124,1","-0176,1","10237,1",,,,"0,1,06,1","0,1,06,1","00,1,+99999,9,99,9","00,99,1,00,1,00,1,99999,9,00,1,00,1",,"999,M,-0116,1","99999,9,10127,1","2,1,004,1,+999,9","02,1","SYN076AAXX  23181 01278 31985 01307 11124 21176 30127 40237 52004 70200 333 11116;",
"01278099999","2010-12-24T06:00:00","4","63.7833333","11.6833333","83.0","VERDAL REPPE, NO","FM-12","99999","V020","100,1,N,0050,1","22000,1,9,N","055000,1,N,1","-0140,1","-0188,1","10243,1","24,0000,9,1",,"0022,9,1,999999,9,9","0,1,06,1","0,1,06,1","00,1,+99999,9,99,9","00,99,1,00,1,00,1,99999,9,00,1,00,1","28,9","999,N,-0140,1","99999,9,10132,1","2,1,002,1,+999,9","02,1","SYN088AAXX  24061 01278 31985 01005 11140 21188 30132 40243 52002 70200 333 21140 44022 70000;","Q01  00002PRCP24"
"01278099999","2010-12-24T09:00:00","4","63.7833333","11.6833333","83.0","VERDAL REPPE, NO","FM-12","99999","V020","120,1,N,0050,1","22000,1,9,N","055000,1,N,1","-0149,1","-0193,1","10256,1",,,,"0,1,03,1","0,1,03,1","00,1,+99999,9,99,9","00,99,1,00,1,00,1,99999,9,00,1,00,1",,,"99999,9,10145,1","2,1,012,1,+999,9","02,1","SYN066AAXX  24091 01278 41985 01205 11149 21193 30145 40256 52012 70200;",
"01278099999","2010-12-24T12:00:00","4","63.7833333","11.6833333","83.0","VERDAL REPPE, NO","FM-12","99999","V020","130,1,N,0050,1","22000,1,9,N","055000,1,N,1","-0150,1","-0194,1","10257,1",,,,"0,1,06,1","0,1,06,1",,"01,99,1,01,1,01,1,01250,1,00,1,00,1",,,"99999,9,10146,1","2,1,001,1,+999,9","02,1","SYN072AAXX  24121 01278 41685 11305 11150 21194 30146 40257 52001 70200 81100;",
"01278099999","2010-12-24T18:00:00","4","63.7833333","11.6833333","83.0","VERDAL REPPE, NO","FM-12","99999","V020","140,1,N,0010,1","22000,1,9,N","055000,1,N,1","-0145,1","-0179,1","10262,1",,,,"0,1,06,1","0,1,06,1","00,1,+99999,9,99,9","00,99,1,00,1,00,1,99999,9,00,1,00,1",,"999,M,-0135,1","99999,9,10151,1","2,1,006,1,+999,9","02,1","SYN076AAXX  24181 01278 31985 01401 11145 21179 30151 40262 52006 70200 333 11135;",
"01278099999","2010-12-25T06:00:00","4","63.7833333","11.6833333","83.0","VERDAL REPPE, NO","FM-12","99999","V020","110,1,N,0010,1","99999,9,9,N","055000,1,N,1","-0162,1","-0194,1","10272,1","24,0000,9,1",,"0022,9,1,999999,9,9","1,1,06,1","1,1,06,1",,"08,99,1,08,1,00,1,99999,9,02,1,99,9","28,9","999,N,-0190,1","99999,9,10160,1","5,1,000,1,+999,9","03,1","SYN094AAXX  25061 01278 31985 81101 11162 21194 30160 40272 55000 70311 8802/ 333 21190 44022 70000;","Q01  00002PRCP24"
"01278099999","2010-12-25T09:00:00","4","63.7833333","11.6833333","83.0","VERDAL REPPE, NO","FM-12","99999","V020","110,1,N,0030,1","03000,1,9,N","055000,1,N,1","-0144,1","-0178,1","10276,1",,,,"2,1,03,1","2,1,03,1",,"08,99,1,04,1,08,1,02250,1,07,1,99,9",,,"99999,9,10165,1","3,1,004,1,+999,9","02,1","SYN072AAXX  25091 01278 41885 81103 11144 21178 30165 40276 53000 70222 8487/;","Q01+000002APC3  "
"01278099999","2010-12-25T12:00:00","4","63.7833333","11.6833333","83.0","VERDAL REPPE, NO","FM-12","99999","V020","110,1,N,0010,1","01500,1,9,N","055000,1,N,1","-0136,1","-0172,1","10276,1",,,,"2,1,06,1","2,1,06,1",,"07,99,1,05,1,05,1,01750,1,06,1,99,9",,,"99999,9,10165,1","0,1,000,1,+999,9","02,1","SYN072AAXX  25121 01278 41785 71101 11136 21172 30165 40276 50000 70222 8556/;",
"01278099999","2010-12-25T18:00:00","4","63.7833333","11.6833333","83.0","VERDAL REPPE, NO","FM-12","99999","V020","110,1,N,0030,1","02100,1,9,N","055000,1,N,1","-0120,1","-0149,1","10267,1","12,0000,9,1",,,"7,1,06,1","2,1,06,1",,"08,99,1,08,1,00,1,02250,1,02,1,99,9",,"999,M,-0115,1","99999,9,10157,1","7,1,003,1,+999,9","02,1","SYN088AAXX  25181 01278 11885 81103 11120 21149 30157 40267 57003 69902 70272 8802/ 333 11115;","Q01  00002PRCP12"
"01278099999","2010-12-26T06:00:00","4","63.7833333","11.6833333","83.0","VERDAL REPPE, NO","FM-12","99999","V020","100,1,N,0010,1","22000,1,9,N","055000,1,N,1","-0120,1","-0138,1","10260,1","24,0000,9,1",,"0022,9,1,999999,9,9","1,1,06,1","1,1,06,1","00,1,+99999,9,99,9","00,99,1,00,1,00,1,99999,9,00,1,00,1","28,9","999,N,-0130,1","99999,9,10150,1","7,1,003,1,+999,9","02,1","SYN088AAXX  26061 01278 31985 01001 11120 21138 30150 40260 57003 70211 333 21130 44022 79999;","Q01  00002PRCP24"
"01278099999","2010-12-26T09:00:00","4","63.7833333","11.6833333","83.0","VERDAL REPPE, NO","FM-12","99999","V020","100,1,N,0030,1","03000,1,9,N","055000,1,N,1","-0132,1","-0150,1","10263,1",,,,"1,1,03,1","1,1,03,1",,"07,99,1,01,1,06,1,00075,1,02,1,99,9",,,"99999,9,10152,1","2,1,002,1,+999,9","03,1","SYN072AAXX  26091 01278 41185 71003 11132 21150 30152 40263 52002 70311 8162/;",
"01278099999","2010-12-26T12:00:00","4","63.7833333","11.6833333","83.0","VERDAL REPPE, NO","FM-12","99999","V020","110,1,N,0010,1","00030,1,9,N","015000,1,N,1","-0112,1","-0131,1","10269,1",,,,"2,1,06,1","2,1,06,1",,"08,99,1,08,1,06,1,00025,1,99,9,99,9",,,"99999,9,10158,1","8,1,003,1,+999,9","02,1","SYN072AAXX  26121 01278 41065 81101 11112 21131 30158 40269 58003 70222 886//;",
"01278099999","2010-12-26T18:00:00","4","63.7833333","11.6833333","83.0","VERDAL REPPE, NO","FM-12","99999","V020","150,1,N,0010,1","22000,1,9,N","015000,1,N,1","-0116,1","-0133,1","10253,1",,,,"2,1,06,1","2,1,06,1",,"04,99,1,04,1,06,1,00025,1,00,1,00,1",,"999,M,-0108,1","99999,9,10142,1","8,1,001,1,+999,9","01,1","SYN082AAXX  26181 01278 31065 41501 11116 21133 30142 40253 58001 70122 84600 333 11108;",
"01278099999","2010-12-27T06:00:00","4","63.7833333","11.6833333","83.0","VERDAL REPPE, NO","FM-12","99999","V020","100,1,N,0010,1","99999,9,9,N","055000,1,N,1","-0093,1","-0107,1","10224,1","24,0000,9,1",,"0022,9,1,999999,9,9","1,1,06,1","1,1,06,1",,"08,99,1,08,1,00,1,99999,9,02,1,99,9","28,9","999,N,-0132,1","99999,9,10115,1","7,1,008,1,+999,9","02,1","SYN094AAXX  27061 01278 31985 81001 11093 21107 30115 40224 57008 70211 8802/ 333 21132 44022 70000;","Q01  00002PRCP24"
"01278099999","2010-12-27T09:00:00","4","63.7833333","11.6833333","83.0","VERDAL REPPE, NO","FM-12","99999","V020","150,1,N,0010,1","99999,9,9,N","075000,1,N,1","-0085,1","-0099,1","10228,1",,,,"0,1,03,1","0,1,03,1",,"08,99,1,08,1,00,1,99999,9,07,1,99,9",,,"99999,9,10120,1","2,1,006,1,+999,9","02,1","SYN072AAXX  27091 01278 41989 81501 11085 21099 30120 40228 52006 70200 8807/;",
"01278099999","2010-12-27T12:00:00","4","63.7833333","11.6833333","83.0","VERDAL REPPE, NO","FM-12","99999","V020","130,1,N,0010,1","03000,1,9,N","075000,1,N,1","-0063,1","-0091,1","10237,1",,,,"2,1,06,1","2,1,06,1",,"07,99,1,02,1,08,1,01250,1,03,1,99,9",,,"99999,9,10128,1","3,1,008,1,+999,9","02,1","SYN072AAXX  27121 01278 41689 71301 11063 21091 30128 40237 53008 70222 8283/;",
"01278099999","2010-12-27T18:00:00","4","63.7833333","11.6833333","83.0","VERDAL REPPE, NO","FM-12","99999","V020","100,1,N,0030,1","03000,1,C,N","055000,1,N,1","-0056,1","-0102,1","10249,1",,,,"2,1,06,1","2,1,06,1",,"05,99,1,01,1,04,1,01750,1,07,1,99,9",,"999,M,-0049,1","99999,9,10142,1","2,1,009,1,+999,9","02,1","SYN082AAXX  27181 01278 31785 51003 11056 21102 30142 40249 52009 70222 8147/ 333 11049;",
"01278099999","2010-12-28T06:00:00","4","63.7833333","11.6833333","83.0","VERDAL REPPE, NO","FM-12","99999","V020","120,1,N,0050,1","02100,1,9,N","055000,1,N,1","-0052,1","-0107,1","10265,1","24,0000,9,1",,"0022,9,1,999999,9,9","1,1,06,1","1,1,06,1",,"08,99,1,08,1,00,1,02250,1,02,1,99,9","28,9","999,N,-0069,1","99999,9,10157,1","3,1,005,1,+999,9","02,1","SYN094AAXX  28061 01278 31885 81205 11052 21107 30157 40265 53005 70211 8802/ 333 21069 44022 70000;","Q01  00002PRCP24"
"01278099999","2010-12-28T09:00:00","4","63.7833333","11.6833333","83.0","VERDAL REPPE, NO","FM-12","99999","V020","100,1,N,0050,1","01500,1,9,N","075000,1,N,1","-0058,1","-0109,1","10276,1",,,,"2,1,03,1","2,1,03,1",,"07,99,1,07,1,05,1,01750,1,99,9,99,9",,,"99999,9,10167,1","2,1,010,1,+999,9","02,1","SYN072AAXX  28091 01278 41789 71005 11058 21109 30167 40276 52010 70222 875//;",
"01278099999","2010-12-28T12:00:00","4","63.7833333","11.6833333","83.0","VERDAL REPPE, NO","FM-12","99999","V020","110,1,N,0050,1","03000,1,9,N","055000,1,N,1","-0060,1","-0111,1","10273,1",,,,"2,1,06,1","2,1,06,1",,"07,99,1,04,1,05,1,02250,1,07,1,02,1",,,"99999,9,10165,1","8,1,003,1,+999,9","02,1","SYN072AAXX  28121 01278 41885 71105 11060 21111 30165 40273 58003 70222 84572;",
"01278099999","2010-12-28T18:00:00","4","63.7833333","11.6833333","83.0","VERDAL REPPE, NO","FM-12","99999","V020","120,1,N,0030,1","22000,1,9,N","055000,1,N,1","-0090,1","-0127,1","10278,1",,,,"1,1,06,1","1,1,06,1",,"01,99,1,01,1,04,1,02250,1,00,1,00,1",,"999,M,-0050,1","99999,9,10168,1","2,1,005,1,+999,9","02,1","SYN082AAXX  28181 01278 31885 11203 11090 21127 30168 40278 52005 70211 81400 333 11050;",
"01278099999","2010-12-29T06:00:00","4","63.7833333","11.6833333","83.0","VERDAL REPPE, NO","FM-12","99999","V020","130,1,N,0050,1","99999,9,9,N","055000,1,N,1","-0090,1","-0133,1","10273,1","24,0000,9,1",,"0022,9,1,999999,9,9","1,1,06,1","1,1,06,1",,"06,99,1,00,1,00,1,99999,9,00,1,06,1","28,9","999,N,-0099,1","99999,9,10163,1","6,1,008,1,+999,9","03,1","SYN094AAXX  29061 01278 31985 61305 11090 21133 30163 40273 56008 70311 80006 333 21099 44022 70000;","Q01  00002PRCP24"
"01278099999","2010-12-29T09:00:00","4","63.7833333","11.6833333","83.0","VERDAL REPPE, NO","FM-12","99999","V020","140,1,N,0030,1","22000,1,9,N","055000,1,N,1","-0114,1","-0149,1","10271,1",,,,"1,1,03,1","1,1,03,1",,"01,99,1,01,1,05,1,01750,1,04,1,01,1",,,"99999,9,10161,1","6,1,004,1,+999,9","01,1","SYN072AAXX  29091 01278 41785 11403 11114 21149 30161 40271 56004 70111 81541;",
"01278099999","2010-12-29T12:00:00","4","63.7833333","11.6833333","83.0","VERDAL REPPE, NO","FM-12","99999","V020","150,1,N,0030,1","22000,1,9,N","055000,1,N,1","-0118,1","-0153,1","10256,1",,,,"0,1,06,1","0,1,06,1",,"01,99,1,01,1,01,1,01250,1,00,1,02,1",,,"99999,9,10146,1","8,1,014,1,+999,9","02,1","SYN072AAXX  29121 01278 41685 11503 11118 21153 30146 40256 58014 70200 81102;",
"01278099999","2010-12-29T18:00:00","4","63.7833333","11.6833333","83.0","VERDAL REPPE, NO","FM-12","99999","V020","120,1,N,0030,1","99999,9,9,N","055000,1,N,1","-0125,1","-0158,1","10226,1",,,,"1,1,06,1","1,1,06,1",,"07,99,1,00,1,00,1,99999,9,00,1,06,1",,"999,M,-0085,1","99999,9,10116,1","8,1,014,1,+999,9","03,1","SYN082AAXX  29181 01278 31985 71203 11125 21158 30116 40226 58014 70311 80006 333 11085;",
"01278099999","2010-12-30T06:00:00","4","63.7833333","11.6833333","83.0","VERDAL REPPE, NO","FM-12","99999","V020","999,9,C,0000,1","00420,1,9,N","015000,1,N,1","-0065,1","-0078,1","10137,1","12,0051,9,1","24,0051,9,1","0027,9,1,999999,9,9","7,1,06,1","2,1,06,1",,"08,99,1,08,1,00,1,00450,1,02,1,99,9","23,9","999,N,-0125,1","99999,9,10030,1","7,1,026,1,+999,9","70,1","SYN100AAXX  30061 01278 11465 80000 11065 21078 30030 40137 57026 60052 77072 8802/ 333 21125 47027 70050;",
"01278099999","2010-12-30T09:00:00","4","63.7833333","11.6833333","83.0","VERDAL REPPE, NO","FM-12","99999","V020","999,9,C,0000,1","00060,1,9,N","030000,1,N,1","-0043,1","-0055,1","10125,1",,,,"7,1,03,1","1,1,03,1",,"06,99,1,06,1,06,1,00075,1,99,9,99,9",,,"99999,9,10018,1","8,1,010,1,+999,9","02,1","SYN072AAXX  30091 01278 41180 60000 11043 21055 30018 40125 58010 70271 866//;",
"01278099999","2010-12-30T12:00:00","4","63.7833333","11.6833333","83.0","VERDAL REPPE, NO","FM-12","99999","V020","330,1,N,0050,1","00120,1,9,N","003000,1,N,1","-0004,1","-0013,1","10106,1",,,,"8,1,06,1","2,1,06,1",,"08,99,1,08,1,09,1,00150,1,99,9,99,9",,,"99999,9,10002,1","8,1,017,1,+999,9","85,1","SYN072AAXX  30121 01278 41230 83305 11004 21013 30002 40106 58017 78582 889//;",
"01278099999","2010-12-30T18:00:00","4","63.7833333","11.6833333","83.0","VERDAL REPPE, NO","FM-12","99999","V020","310,1,N,0050,1","00420,1,9,N","030000,1,N,1","-0006,1","-0020,1","10113,1","12,0041,9,1",,,"7,1,06,1","2,1,06,1",,"07,99,1,07,1,09,1,00450,1,99,9,99,9",,"999,M,+0005,1","99999,9,10008,1","1,1,007,1,+999,9","02,1","SYN088AAXX  30181 01278 11480 73105 11006 21020 30008 40113 51007 60042 70272 879// 333 10005;",
"01278099999","2010-12-31T06:00:00","4","63.7833333","11.6833333","83.0","VERDAL REPPE, NO","FM-12","99999","V020","310,1,N,0050,1","00240,1,9,N","002500,1,N,1","-0003,1","-0012,1","10077,1","12,0030,9,1","24,0061,9,1","0035,9,1,999999,9,9","8,1,06,1","2,1,06,1","09,1,+99999,9,99,9","09,99,1,09,1,99,9,99999,9,99,9,99,9","23,9","999,N,-0010,1","99999,9,09972,1","8,1,019,1,+999,9","86,1","SYN094AAXX  31061 01278 11/25 93105 11003 21012 39972 40077 58019 60032 78682 333 21010 47035 70061;",
"01278099999","2010-12-31T09:00:00","4","63.7833333","11.6833333","83.0","VERDAL REPPE, NO","FM-12","99999","V020","290,1,N,0030,1","00420,1,9,N","030000,1,N,1","+0000,1","-0011,1","10050,1",,,,"8,1,03,1","2,1,03,1",,"08,99,1,08,1,09,1,00450,1,99,9,99,9",,,"99999,9,09947,1","6,1,028,1,+999,9","16,1","SYN072AAXX  31091 01278 41480 82903 10000 21011 39947 40050 56028 71682 889//;",
"01278099999","2010-12-31T12:00:00","4","63.7833333","11.6833333","83.0","VERDAL REPPE, NO","FM-12","99999","V020","120,1,N,0030,1","00120,1,9,N","002000,1,N,1","-0005,1","-0019,1","09968,2",,,,"8,1,06,1","2,1,06,1","09,1,+99999,9,99,9","09,99,1,09,1,99,9,99999,9,99,9,99,9",,,"99999,9,09866,2","8,1,076,1,+999,9","85,1","SYN066AAXX  31121 01278 41/20 91203 11005 21019 39866 49968 58076 78582;",
"01278099999","2010-12-31T18:00:00","4","63.7833333","11.6833333","83.0","VERDAL REPPE, NO","FM-12","99999","V020","999,9,C,0000,1","00120,1,9,N","002000,1,N,1","+0003,1","-0007,1","99999,9","12,0051,9,1",,,"8,1,06,1","7,1,06,1","09,1,+99999,9,99,9","09,99,1,09,1,99,9,99999,9,99,9,99,9",,"999,M,+0005,1",,"6,1,042,1,+999,9","73,1","SYN082AAXX  31181 01278 11/20 90000 10003 21007 39747 49849 56042 60052 77387 333 10005;","Q01+097473APOSP "
