"STATION","DATE","SOURCE","LATITUDE","LONGITUDE","ELEVATION","NAME","REPORT_TYPE","CALL_SIGN","QUALITY_CONTROL","WND","CIG","VIS","TMP","DEW","SLP","AW1","AW2","GA1","GA2","GA3","GF1","MA1","OC1","REM","EQD"
"01300599999","2010-11-23T08:50:00","4","61.25","1.85","117.65","STATFJORD OIL PLATFORM HELIPORT, FO","FM-15","ENSF ","V020","020,1,N,0134,1","22000,1,9,N","011265,1,N,1","+0060,1","+0010,1","99999,9",,,"02,1,+00720,1,99,9","04,1,+01380,1,99,9",,"04,99,1,99,9,99,9,99999,9,99,9,99,9","10129,1,99999,9",,"MET079METAR ENSF 230850Z AUTO 02026KT 9999NDV FEW024/// SCT046/// 06/01 Q1013 W///S5;",
"01300599999","2010-11-23T09:20:00","4","61.25","1.85","117.65","STATFJORD OIL PLATFORM HELIPORT, FO","FM-15","ENSF ","V020","020,1,N,0149,1","00660,1,9,N","011265,1,N,1","+0060,1","+0010,1","99999,9","81,1",,"07,1,+00660,1,99,9",,,"07,99,1,99,9,99,9,99999,9,99,9,99,9","10129,1,99999,9",,"MET075METAR ENSF 230920Z AUTO 02029KT 9999NDV -SHRA BKN022/// 06/01 Q1013 W///S5;",
"01300599999","2010-11-23T09:50:00","4","61.25","1.85","117.65","STATFJORD OIL PLATFORM HELIPORT, FO","FM-15","ENSF ","V020","030,1,N,0123,1","00690,1,9,N","011265,1,N,1","+0060,1","+0010,1","99999,9",,,"07,1,+00690,1,99,9",,,"07,99,1,99,9,99,9,99999,9,99,9,99,9","10119,1,99999,9",,"MET069METAR ENSF 230950Z AUTO 03024KT 9999NDV BKN023/// 06/01 Q1012 W///S5;",
"01300599999","2010-11-23T10:20:00","4","61.25","1.85","117.65","STATFJORD OIL PLATFORM HELIPORT, FO","FM-15","ENSF ","V020","040,1,N,0123,1","00810,1,9,N","011265,1,N,1","+0060,1","+0010,1","99999,9",,,"07,1,+00810,1,99,9",,,"07,99,1,99,9,99,9,99999,9,99,9,99,9","10119,1,99999,9",,"MET069METAR ENSF 231020Z AUTO 04024KT 9999NDV BKN027/// 06/01 Q1012 W///S5;",
"01300599999","2010-11-23T10:50:00","4","61.25","1.85","117.65","STATFJORD OIL PLATFORM HELIPORT, FO","FM-15","ENSF ","V020","030,1,N,0134,1","00750,1,9,N","011265,1,N,1","+0050,1","+0000,1","99999,9",,,"07,1,+00750,1,99,9",,,"07,99,1,99,9,99,9,99999,9,99,9,99,9","10119,1,99999,9",,"MET069METAR ENSF 231050Z AUTO 03026KT 9999NDV BKN025/// 05/00 Q1012 W///S5;",
"01300599999","2010-11-23T11:20:00","4","61.25","1.85","117.65","STATFJORD OIL PLATFORM HELIPORT, FO","FM-15","ENSF ","V020","030,1,N,0149,1","22000,1,9,N","011265,1,N,1","+0060,1","+0000,1","99999,9",,,"04,1,+00870,1,99,9","04,1,+01500,1,99,9",,"04,99,1,99,9,99,9,99999,9,99,9,99,9","10119,1,99999,9",,"MET079METAR ENSF 231120Z AUTO 03029KT 9999NDV SCT029/// SCT055/// 06/00 Q1012 W///S5;",
"01300599999","2010-11-23T11:50:00","4","61.25","1.85","117.65","STATFJORD OIL PLATFORM HELIPORT, FO","FM-15","ENSF ","V020","020,1,N,0144,1","22000,1,9,N","011265,1,N,1","+0060,1","+0000,1","99999,9",,,"02,1,+00840,1,99,9",,,"02,99,1,99,9,99,9,99999,9,99,9,99,9","10119,1,99999,9",,"MET069METAR ENSF 231150Z AUTO 02028KT 9999NDV FEW028/// 06/00 Q1012 W///S5;",
"01300599999","2010-11-23T12:20:00","4","61.25","1.85","117.65","STATFJORD OIL PLATFORM HELIPORT, FO","FM-15","ENSF ","V020","010,1,N,0134,1","01500,1,9,N","011265,1,N,1","+0060,1","+0000,1","99999,9",,,"04,1,+00780,1,99,9","07,1,+01500,1,99,9",,"07,99,1,99,9,99,9,99999,9,99,9,99,9","10119,1,99999,9",,"MET079METAR ENSF 231220Z AUTO 01026KT 9999NDV SCT026/// BKN058/// 06/00 Q1012 W///S5;",
"01300599999","2010-11-23T12:50:00","4","61.25","1.85","117.65","STATFJORD OIL PLATFORM HELIPORT, FO","FM-15","ENSF ","V020","020,1,N,0159,1","22000,1,9,N","011265,1,N,1","+0060,1","+0010,1","99999,9",,,"04,1,+00600,1,99,9","04,1,+01440,1,99,9",,"04,99,1,99,9,99,9,99999,9,99,9,99,9","10119,1,99999,9",,"MET079METAR ENSF 231250Z AUTO 02031KT 9999NDV SCT020/// SCT048/// 06/01 Q1012 W///S5;",
"01300599999","2010-11-23T13:20:00","4","61.25","1.85","117.65","STATFJORD OIL PLATFORM HELIPORT, FO","FM-15","ENSF ","V020","030,1,N,0159,1","22000,1,9,N","011265,1,N,1","+0060,1","+0000,1","99999,9",,,"02,1,+00630,1,99,9","04,1,+00810,1,99,9",,"04,99,1,99,9,99,9,99999,9,99,9,99,9","10119,1,99999,9",,"MET079METAR ENSF 231320Z AUTO 03031KT 9999NDV FEW021/// SCT027/// 06/00 Q1012 W///S5;",
"01300599999","2010-11-23T13:50:00","4","61.25","1.85","117.65","STATFJORD OIL PLATFORM HELIPORT, FO","FM-15","ENSF ","V020","020,1,N,0165,1","00840,1,9,N","011265,1,N,1","+0060,1","+0010,1","99999,9",,,"02,1,+00480,1,99,9","07,1,+00840,1,99,9",,"07,99,1,99,9,99,9,99999,9,99,9,99,9","10119,1,99999,9",,"MET079METAR ENSF 231350Z AUTO 02032KT 9999NDV FEW016/// BKN028/// 06/01 Q1012 W///S5;",
"01300599999","2010-11-23T14:20:00","4","61.25","1.85","117.65","STATFJORD OIL PLATFORM HELIPORT, FO","FM-15","ENSF ","V020","020,1,N,0154,1","22000,1,9,N","011265,1,N,1","+0060,1","+0000,1","99999,9",,,"04,1,+00810,1,99,9",,,"04,99,1,99,9,99,9,99999,9,99,9,99,9","10108,1,99999,9",,"MET069METAR ENSF 231420Z AUTO 02030KT 9999NDV SCT027/// 06/00 Q1011 W///S5;",
"01300599999","2010-11-23T14:50:00","4","61.25","1.85","117.65","STATFJORD OIL PLATFORM HELIPORT, FO","FM-15","ENSF ","V020","020,1,N,0139,1","22000,1,9,N","011265,1,N,1","+0060,1","+0010,1","99999,9",,,"02,1,+00510,1,99,9","04,1,+01230,1,99,9",,"04,99,1,99,9,99,9,99999,9,99,9,99,9","10108,1,99999,9",,"MET079METAR ENSF 231450Z AUTO 02027KT 9999NDV FEW017/// SCT041/// 06/01 Q1011 W///S5;",
"01300599999","2010-11-23T15:20:00","4","61.25","1.85","117.65","STATFJORD OIL PLATFORM HELIPORT, FO","FM-15","ENSF ","V020","020,1,N,0149,1","00840,1,9,N","011265,1,N,1","+0050,1","+0000,1","99999,9",,,"07,1,+00840,1,99,9",,,"07,99,1,99,9,99,9,99999,9,99,9,99,9","10108,1,99999,9",,"MET069METAR ENSF 231520Z AUTO 02029KT 9999NDV BKN028/// 05/00 Q1011 W///S5;",
"01300599999","2010-11-23T15:50:00","4","61.25","1.85","117.65","STATFJORD OIL PLATFORM HELIPORT, FO","FM-15","ENSF ","V020","020,1,N,0149,1","22000,1,9,N","011265,1,N,1","+0060,1","+0000,1","99999,9",,,"04,1,+00690,1,99,9",,,"04,99,1,99,9,99,9,99999,9,99,9,99,9","10108,1,99999,9",,"MET069METAR ENSF 231550Z AUTO 02029KT 9999NDV SCT023/// 06/00 Q1011 W///S5;",
"01300599999","2010-11-23T16:20:00","4","61.25","1.85","117.65","STATFJORD OIL PLATFORM HELIPORT, FO","FM-15","ENSF ","V020","040,1,N,0144,1","00480,1,9,N","011265,1,N,1","+0040,1","+0010,1","99999,9","81,1",,"07,1,+00480,1,99,9",,,"07,99,1,99,9,99,9,99999,9,99,9,99,9","10108,1,99999,9",,"MET075METAR ENSF 231620Z AUTO 04028KT 9999NDV -SHRA BKN016/// 04/01 Q1011 W///S5;",
"01300599999","2010-11-23T16:50:00","4","61.25","1.85","117.65","STATFJORD OIL PLATFORM HELIPORT, FO","FM-15","ENSF ","V020","040,1,N,0144,1","00690,1,9,N","011265,1,N,1","+0050,1","+0000,1","99999,9",,,"07,1,+00690,1,99,9",,,"07,99,1,99,9,99,9,99999,9,99,9,99,9","10108,1,99999,9",,"MET069METAR ENSF 231650Z AUTO 04028KT 9999NDV BKN023/// 05/00 Q1011 W///S5;",
"01300599999","2010-11-23T17:20:00","4","61.25","1.85","117.65","STATFJORD OIL PLATFORM HELIPORT, FO","FM-15","ENSF ","V020","999,9,9,9999,9","00390,1,9,N","008000,1,N,1","+0040,1","+0010,1","99999,9","81,1",,"07,1,+00390,1,99,9",,,"07,99,1,99,9,99,9,99999,9,99,9,99,9","10108,1,99999,9",,"MET075METAR ENSF 231720Z AUTO /////KT 8000NDV -SHRA BKN013/// 04/01 Q1011 W///S5;",
"01300599999","2010-11-23T17:50:00","4","61.25","1.85","117.65","STATFJORD OIL PLATFORM HELIPORT, FO","FM-15","ENSF ","V020","020,1,N,0159,1","00420,1,9,N","011265,1,N,1","+0050,1","+0010,1","99999,9","81,1",,"07,1,+00420,1,99,9",,,"07,99,1,99,9,99,9,99999,9,99,9,99,9","10108,1,99999,9","0226,1","MET078METAR ENSF 231750Z AUTO 02031G44KT 9999NDV -SHRA BKN014/// 05/01 Q1011 W///S5;",
"01300599999","2010-11-23T18:20:00","4","61.25","1.85","117.65","STATFJORD OIL PLATFORM HELIPORT, FO","FM-15","ENSF ","V020","030,1,N,0175,1","01110,1,9,N","011265,1,N,1","+0050,1","-0020,1","99999,9",,,"07,1,+01110,1,99,9",,,"07,99,1,99,9,99,9,99999,9,99,9,99,9","10108,1,99999,9",,"MET070METAR ENSF 231820Z AUTO 03034KT 9999NDV BKN037/// 05/M02 Q1011 W///S5;",
"01300599999","2010-11-23T18:50:00","4","61.25","1.85","117.65","STATFJORD OIL PLATFORM HELIPORT, FO","FM-15","ENSF ","V020","020,1,N,0165,1","22000,1,9,N","011265,1,N,1","+0050,1","-0010,1","99999,9",,,"02,1,+01020,1,99,9",,,"02,99,1,99,9,99,9,99999,9,99,9,99,9","10108,1,99999,9",,"MET070METAR ENSF 231850Z AUTO 02032KT 9999NDV FEW034/// 05/M01 Q1011 W///S5;",
"01300599999","2010-11-23T19:20:00","4","61.25","1.85","117.65","STATFJORD OIL PLATFORM HELIPORT, FO","FM-15","ENSF ","V020","020,1,N,0175,1","22000,1,9,N","011265,1,N,1","+0050,1","-0010,1","99999,9",,,"02,1,+00870,1,99,9","04,1,+00960,1,99,9",,"04,99,1,99,9,99,9,99999,9,99,9,99,9","10108,1,99999,9",,"MET080METAR ENSF 231920Z AUTO 02034KT 9999NDV FEW029/// SCT032/// 05/M01 Q1011 W///S5;",
"01300599999","2010-11-23T19:50:00","4","61.25","1.85","117.65","STATFJORD OIL PLATFORM HELIPORT, FO","FM-15","ENSF ","V020","020,1,N,0154,1","01290,1,C,N","011265,1,N,1","+0050,1","-0020,1","99999,9",,,"02,1,+00840,1,99,9","04,1,+01290,1,99,9","07,1,+01500,1,99,9","07,99,1,99,9,99,9,99999,9,99,9,99,9","10108,1,99999,9",,"MET090METAR ENSF 231950Z AUTO 02030KT 9999NDV FEW028/// SCT043/// BKN057/// 05/M02 Q1011 W///S5;",
"01300599999","2010-11-23T20:20:00","4","61.25","1.85","117.65","STATFJORD OIL PLATFORM HELIPORT, FO","FM-15","ENSF ","V020","030,1,N,0159,1","22000,1,9,N","011265,1,N,1","+0050,1","-0040,1","99999,9",,,"04,1,+01050,1,99,9",,,"04,99,1,99,9,99,9,99999,9,99,9,99,9","10108,1,99999,9",,"MET070METAR ENSF 232020Z AUTO 03031KT 9999NDV SCT035/// 05/M04 Q1011 W///S5;",
"01300599999","2010-11-23T20:50:00","4","61.25","1.85","117.65","STATFJORD OIL PLATFORM HELIPORT, FO","FM-15","ENSF ","V020","010,1,N,0175,1","00990,1,9,N","011265,1,N,1","+0050,1","-0020,1","99999,9",,,"07,1,+00990,1,99,9",,,"07,99,1,99,9,99,9,99999,9,99,9,99,9","10108,1,99999,9",,"MET070METAR ENSF 232050Z AUTO 01034KT 9999NDV BKN033/// 05/M02 Q1011 W///S5;",
"01300599999","2010-11-23T21:20:00","4","61.25","1.85","117.65","STATFJORD OIL PLATFORM HELIPORT, FO","FM-15","ENSF ","V020","010,1,N,0149,1","01800,1,9,N","011265,1,N,1","+0040,1","-0030,1","99999,9","81,1",,"04,1,+01050,1,99,9","07,1,+01800,1,99,9",,"07,99,1,99,9,99,9,99999,9,99,9,99,9","10108,1,99999,9",,"MET086METAR ENSF 232120Z AUTO 01029KT 9999NDV -SHRA SCT035/// BKN065/// 04/M03 Q1011 W///S5;",
"01300599999","2010-11-23T21:50:00","4","61.25","1.85","117.65","STATFJORD OIL PLATFORM HELIPORT, FO","FM-15","ENSF ","V020","360,1,N,0154,1","01050,1,9,N","011265,1,N,1","+0030,1","-0010,1","99999,9",,,"07,1,+01050,1,99,9",,,"07,99,1,99,9,99,9,99999,9,99,9,99,9","10108,1,99999,9",,"MET070METAR ENSF 232150Z AUTO 36030KT 9999NDV BKN035/// 03/M01 Q1011 W///S6;",
"01300599999","2010-11-23T22:20:00","4","61.25","1.85","117.65","STATFJORD OIL PLATFORM HELIPORT, FO","FM-15","ENSF ","V020","020,1,N,0159,1","01800,1,9,N","011265,1,N,1","+0050,1","-0030,1","99999,9",,,"02,1,+01140,1,99,9","07,1,+01800,1,99,9",,"07,99,1,99,9,99,9,99999,9,99,9,99,9","10108,1,99999,9",,"MET080METAR ENSF 232220Z AUTO 02031KT 9999NDV FEW038/// BKN060/// 05/M03 Q1011 W///S5;",
"01300599999","2010-11-23T22:50:00","4","61.25","1.85","117.65","STATFJORD OIL PLATFORM HELIPORT, FO","FM-15","ENSF ","V020","020,1,N,0154,1","01080,1,9,N","011265,1,N,1","+0050,1","-0020,1","99999,9",,,"07,1,+01080,1,99,9",,,"07,99,1,99,9,99,9,99999,9,99,9,99,9","10108,1,99999,9",,"MET070METAR ENSF 232250Z AUTO 02030KT 9999NDV BKN036/// 05/M02 Q1011 W///S5;",
"01300599999","2010-11-23T23:20:00","4","61.25","1.85","117.65","STATFJORD OIL PLATFORM HELIPORT, FO","FM-15","ENSF ","V020","010,1,N,0149,1","22000,1,9,N","011265,1,N,1","+0050,1","-0010,1","99999,9",,,"02,1,+01020,1,99,9",,,"02,99,1,99,9,99,9,99999,9,99,9,99,9","10108,1,99999,9",,"MET070METAR ENSF 232320Z AUTO 01029KT 9999NDV FEW034/// 05/M01 Q1011 W///S5;",
"01300599999","2010-11-23T23:50:00","4","61.25","1.85","117.65","STATFJORD OIL PLATFORM HELIPORT, FO","FM-15","ENSF ","V020","020,1,N,0154,1","00510,1,9,N","008000,1,N,1","+0040,1","+0000,1","99999,9","81,1",,"07,1,+00510,1,99,9",,,"07,99,1,99,9,99,9,99999,9,99,9,99,9","10108,1,99999,9",,"MET075METAR ENSF 232350Z AUTO 02030KT 8000NDV -SHRA BKN017/// 04/00 Q1011 W///S6;",
"01300599999","2010-11-24T00:20:00","4","61.25","1.85","117.65","STATFJORD OIL PLATFORM HELIPORT, FO","FM-15","ENSF ","V020","030,1,N,0149,1","00630,1,9,N","011265,1,N,1","+0040,1","+0000,1","99999,9",,,"07,1,+00630,1,99,9",,,"07,99,1,99,9,99,9,99999,9,99,9,99,9","10108,1,99999,9",,"MET069METAR ENSF 240020Z AUTO 03029KT 9999NDV BKN021/// 04/00 Q1011 W///S5;",
"01300599999","2010-11-24T00:50:00","4","61.25","1.85","117.65","STATFJORD OIL PLATFORM HELIPORT, FO","FM-15","ENSF ","V020","040,1,N,0129,1","00660,1,9,N","011265,1,N,1","+0040,1","+0000,1","99999,9","81,1",,"07,1,+00660,1,99,9",,,"07,99,1,99,9,99,9,99999,9,99,9,99,9","10108,1,99999,9",,"MET075METAR ENSF 240050Z AUTO 04025KT 9999NDV -SHRA BKN022/// 04/00 Q1011 W///S/;",
"01300599999","2010-11-24T01:20:00","4","61.25","1.85","117.65","STATFJORD OIL PLATFORM HELIPORT, FO","FM-15","ENSF ","V020","050,1,N,0139,1","04200,1,9,N","011265,1,N,1","+0030,1","+0000,1","99999,9",,,"04,1,+00630,1,99,9","07,1,+04200,1,99,9",,"07,99,1,99,9,99,9,99999,9,99,9,99,9","10108,1,99999,9",,"MET079METAR ENSF 240120Z AUTO 05027KT 9999NDV SCT021/// BKN140/// 03/00 Q1011 W///S5;",
"01300599999","2010-11-24T01:50:00","4","61.25","1.85","117.65","STATFJORD OIL PLATFORM HELIPORT, FO","FM-15","ENSF ","V020","050,1,N,0139,1","00300,1,9,N","011265,1,N,1","+0020,1","+0000,1","99999,9","81,1",,"07,1,+00300,1,99,9",,,"07,99,1,99,9,99,9,99999,9,99,9,99,9","10108,1,99999,9",,"MET075METAR ENSF 240150Z AUTO 05027KT 9999NDV -SHRA BKN010/// 02/00 Q1011 W///S5;",
"01300599999","2010-11-24T02:20:00","4","61.25","1.85","117.65","STATFJORD OIL PLATFORM HELIPORT, FO","FM-15","ENSF ","V020","020,1,N,0118,1","00270,1,9,N","011265,1,N,1","+0030,1","+0000,1","99999,9","81,1",,"07,1,+00270,1,99,9",,,"07,99,1,99,9,99,9,99999,9,99,9,99,9","10108,1,99999,9",,"MET075METAR ENSF 240220Z AUTO 02023KT 9999NDV -SHRA BKN009/// 03/00 Q1011 W///S5;",
"01300599999","2010-11-24T02:50:00","4","61.25","1.85","117.65","STATFJORD OIL PLATFORM HELIPORT, FO","FM-15","ENSF ","V020","010,1,N,0159,1","00330,1,9,N","011265,1,N,1","+0030,1","+0010,1","99999,9","81,1",,"07,1,+00330,1,99,9",,,"07,99,1,99,9,99,9,99999,9,99,9,99,9","10102,1,99999,9","0216,1","MET085METAR ENSF 240250Z AUTO 01031G42KT 9999NDV -SHRA BKN011/// 03/01 Q1010 RESHRA W///S5;",
"01300599999","2010-11-24T03:20:00","4","61.25","1.85","117.65","STATFJORD OIL PLATFORM HELIPORT, FO","FM-15","ENSF ","V020","030,1,N,0139,1","00390,1,9,N","011265,1,N,1","+0030,1","+0000,1","99999,9","81,1",,"07,1,+00390,1,99,9",,,"07,99,1,99,9,99,9,99999,9,99,9,99,9","10108,1,99999,9",,"MET075METAR ENSF 240320Z AUTO 03027KT 9999NDV -SHRA BKN013/// 03/00 Q1011 W///S5;",
"01300599999","2010-11-24T03:50:00","4","61.25","1.85","117.65","STATFJORD OIL PLATFORM HELIPORT, FO","FM-15","ENSF ","V020","030,1,N,0144,1","00570,1,9,N","011265,1,N,1","+0030,1","+0010,1","99999,9","81,1",,"04,1,+00360,1,99,9","07,1,+00570,1,99,9",,"07,99,1,99,9,99,9,99999,9,99,9,99,9","10108,1,99999,9",,"MET085METAR ENSF 240350Z AUTO 03028KT 9999NDV -SHRA SCT012/// BKN019/// 03/01 Q1011 W///S5;",
"01300599999","2010-11-24T04:20:00","4","61.25","1.85","117.65","STATFJORD OIL PLATFORM HELIPORT, FO","FM-15","ENSF ","V020","030,1,N,0134,1","00660,1,9,N","011265,1,N,1","+0030,1","-0010,1","99999,9",,,"02,1,+00450,1,99,9","07,1,+00660,1,99,9",,"07,99,1,99,9,99,9,99999,9,99,9,99,9","10108,1,99999,9",,"MET080METAR ENSF 240420Z AUTO 03026KT 9999NDV FEW015/// BKN022/// 03/M01 Q1011 W///S5;",
"01300599999","2010-11-24T04:50:00","4","61.25","1.85","117.65","STATFJORD OIL PLATFORM HELIPORT, FO","FM-15","ENSF ","V020","030,1,N,0139,1","00930,1,9,N","011265,1,N,1","+0040,1","-0010,1","99999,9","81,1",,"02,1,+00810,1,99,9","07,1,+00930,1,99,9","07,1,+01500,1,99,9","07,99,1,99,9,99,9,99999,9,99,9,99,9","10108,1,99999,9",,"MET096METAR ENSF 240450Z AUTO 03027KT 9999NDV -SHRA FEW027/// BKN031/// BKN050/// 04/M01 Q1011 W///S5;",
"01300599999","2010-11-24T05:20:00","4","61.25","1.85","117.65","STATFJORD OIL PLATFORM HELIPORT, FO","FM-15","ENSF ","V020","040,1,N,0159,1","22000,1,9,N","011265,1,N,1","+0040,1","-0060,1","99999,9",,,"02,1,+01170,1,99,9","04,1,+01500,1,99,9",,"04,99,1,99,9,99,9,99999,9,99,9,99,9","10108,1,99999,9",,"MET080METAR ENSF 240520Z AUTO 04031KT 9999NDV FEW039/// SCT052/// 04/M06 Q1011 W///S5;",
"01300599999","2010-11-24T05:50:00","4","61.25","1.85","117.65","STATFJORD OIL PLATFORM HELIPORT, FO","FM-15","ENSF ","V020","040,1,N,0149,1","22000,1,9,N","011265,1,N,1","+0040,1","-0060,1","99999,9",,,"04,1,+01470,1,99,9",,,"04,99,1,99,9,99,9,99999,9,99,9,99,9","10108,1,99999,9",,"MET070METAR ENSF 240550Z AUTO 04029KT 9999NDV SCT049/// 04/M06 Q1011 W///S5;",
"01300599999","2010-11-24T06:20:00","4","61.25","1.85","117.65","STATFJORD OIL PLATFORM HELIPORT, FO","FM-15","ENSF ","V020","020,1,N,0134,1","01410,1,9,N","011265,1,N,1","+0040,1","-0050,1","99999,9",,,"07,1,+01410,1,99,9",,,"07,99,1,99,9,99,9,99999,9,99,9,99,9","10108,1,99999,9",,"MET070METAR ENSF 240620Z AUTO 02026KT 9999NDV BKN047/// 04/M05 Q1011 W///S5;",
"01300599999","2010-11-24T06:50:00","4","61.25","1.85","117.65","STATFJORD OIL PLATFORM HELIPORT, FO","FM-15","ENSF ","V020","030,1,N,0123,1","01200,1,9,N","011265,1,N,1","+0040,1","-0070,1","99999,9",,,"07,1,+01200,1,99,9",,,"07,99,1,99,9,99,9,99999,9,99,9,99,9","10108,1,99999,9",,"MET070METAR ENSF 240650Z AUTO 03024KT 9999NDV BKN040/// 04/M07 Q1011 W///S6;",
"01300599999","2010-11-24T07:20:00","4","61.25","1.85","117.65","STATFJORD OIL PLATFORM HELIPORT, FO","FM-15","ENSF ","V020","040,1,N,0134,1","01440,1,9,N","011265,1,N,1","+0040,1","-0060,1","99999,9",,,"07,1,+01440,1,99,9",,,"07,99,1,99,9,99,9,99999,9,99,9,99,9","10108,1,99999,9",,"MET070METAR ENSF 240720Z AUTO 04026KT 9999NDV BKN048/// 04/M06 Q1011 W///S5;",
"01300599999","2010-11-24T07:50:00","4","61.25","1.85","117.65","STATFJORD OIL PLATFORM HELIPORT, FO","FM-15","ENSF ","V020","050,1,N,0129,1","01470,1,9,N","011265,1,N,1","+0040,1","-0080,1","99999,9",,,"07,1,+01470,1,99,9",,,"07,99,1,99,9,99,9,99999,9,99,9,99,9","10119,1,99999,9",,"MET070METAR ENSF 240750Z AUTO 05025KT 9999NDV BKN049/// 04/M08 Q1012 W///S6;",
"01300599999","2010-11-24T08:20:00","4","61.25","1.85","117.65","STATFJORD OIL PLATFORM HELIPORT, FO","FM-15","ENSF ","V020","040,1,N,0129,1","01800,1,9,N","011265,1,N,1","+0040,1","-0090,1","99999,9",,,"04,1,+01440,1,99,9","07,1,+01800,1,99,9",,"07,99,1,99,9,99,9,99999,9,99,9,99,9","10119,1,99999,9",,"MET080METAR ENSF 240820Z AUTO 04025KT 9999NDV SCT048/// BKN067/// 04/M09 Q1012 W///S6;",
"01300599999","2010-11-24T08:50:00","4","61.25","1.85","117.65","STATFJORD OIL PLATFORM HELIPORT, FO","FM-15","ENSF ","V020","040,1,N,0129,1","22000,1,9,N","011265,1,N,1","+0040,1","-0080,1","99999,9",,,"04,1,+01500,1,99,9",,,"04,99,1,99,9,99,9,99999,9,99,9,99,9","10119,1,99999,9",,"MET070METAR ENSF 240850Z AUTO 04025KT 9999NDV SCT052/// 04/M08 Q1012 W///S6;",
"01300599999","2010-11-24T09:20:00","4","61.25","1.85","117.65","STATFJORD OIL PLATFORM HELIPORT, FO","FM-15","ENSF ","V020","040,1,N,0118,1","22000,1,9,N","011265,1,N,1","+0040,1","-0070,1","99999,9",,,"04,1,+01500,1,99,9",,,"04,99,1,99,9,99,9,99999,9,99,9,99,9","10119,1,99999,9",,"MET070METAR ENSF 240920Z AUTO 04023KT 9999NDV SCT054/// 04/M07 Q1012 W///S5;",
"01300599999","2010-11-24T09:50:00","4","61.25","1.85","117.65","STATFJORD OIL PLATFORM HELIPORT, FO","FM-15","ENSF ","V020","040,1,N,0144,1","01500,1,9,N","011265,1,N,1","+0040,1","-0070,1","99999,9",,,"07,1,+01500,1,99,9",,,"07,99,1,99,9,99,9,99999,9,99,9,99,9","10119,1,99999,9",,"MET070METAR ENSF 240950Z AUTO 04028KT 9999NDV BKN052/// 04/M07 Q1012 W///S5;",
"01300599999","2010-11-24T10:20:00","4","61.25","1.85","117.65","STATFJORD OIL PLATFORM HELIPORT, FO","FM-15","ENSF ","V020","030,1,N,0144,1","01470,1,9,N","011265,1,N,1","+0040,1","-0070,1","99999,9",,,"07,1,+01470,1,99,9",,,"07,99,1,99,9,99,9,99999,9,99,9,99,9","10108,1,99999,9",,"MET070METAR ENSF 241020Z AUTO 03028KT 9999NDV BKN049/// 04/M07 Q1011 W///S5;",
"01300599999","2010-11-24T10:50:00","4","61.25","1.85","117.65","STATFJORD OIL PLATFORM HELIPORT, FO","FM-15","ENSF ","V020","020,1,N,0175,1","00810,1,9,N","004600,1,N,1","+0040,1","-0030,1","99999,9","10,1","61,1","07,1,+00810,1,99,9",,,"07,99,1,99,9,99,9,99999,9,99,9,99,9","10108,1,99999,9",,"MET077METAR ENSF 241050Z AUTO 02034KT 4600NDV -RA BR BKN027/// 04/M03 Q1011 W///S5;",
"01300599999","2010-11-24T11:20:00","4","61.25","1.85","117.65","STATFJORD OIL PLATFORM HELIPORT, FO","FM-15","ENSF ","V020","010,1,N,0201,1","22000,1,9,N","011265,1,N,1","+0050,1","-0070,1","99999,9",,,"04,1,+01290,1,99,9",,,"04,99,1,99,9,99,9,99999,9,99,9,99,9","10108,1,99999,9",,"MET070METAR ENSF 241120Z AUTO 01039KT 9999NDV SCT043/// 05/M07 Q1011 W///S5;",
"01300599999","2010-11-24T11:50:00","4","61.25","1.85","117.65","STATFJORD OIL PLATFORM HELIPORT, FO","FM-15","ENSF ","V020","030,1,N,0180,1","01290,1,9,N","011265,1,N,1","+0030,1","-0060,1","99999,9",,,"07,1,+01290,1,99,9",,,"07,99,1,99,9,99,9,99999,9,99,9,99,9","10108,1,99999,9",,"MET070METAR ENSF 241150Z AUTO 03035KT 9999NDV BKN043/// 03/M06 Q1011 W///S5;",
"01300599999","2010-11-24T12:20:00","4","61.25","1.85","117.65","STATFJORD OIL PLATFORM HELIPORT, FO","FM-15","ENSF ","V020","030,1,N,0185,1","01140,1,9,N","011265,1,N,1","+0030,1","-0060,1","99999,9",,,"07,1,+01140,1,99,9",,,"07,99,1,99,9,99,9,99999,9,99,9,99,9","10108,1,99999,9",,"MET070METAR ENSF 241220Z AUTO 03036KT 9999NDV BKN038/// 03/M06 Q1011 W///S5;",
"01300599999","2010-11-24T12:50:00","4","61.25","1.85","117.65","STATFJORD OIL PLATFORM HELIPORT, FO","FM-15","ENSF ","V020","020,1,N,0180,1","01230,1,9,N","011265,1,N,1","+0040,1","-0070,1","99999,9",,,"07,1,+01230,1,99,9",,,"07,99,1,99,9,99,9,99999,9,99,9,99,9","10108,1,99999,9",,"MET070METAR ENSF 241250Z AUTO 02035KT 9999NDV BKN041/// 04/M07 Q1011 W///S5;",
"01300599999","2010-11-24T13:20:00","4","61.25","1.85","117.65","STATFJORD OIL PLATFORM HELIPORT, FO","FM-15","ENSF ","V020","030,1,N,0185,1","01170,1,9,N","011265,1,N,1","+0030,1","-0070,1","99999,9",,,"07,1,+01170,1,99,9",,,"07,99,1,99,9,99,9,99999,9,99,9,99,9","10108,1,99999,9",,"MET070METAR ENSF 241320Z AUTO 03036KT 9999NDV BKN039/// 03/M07 Q1011 W///S5;",
"01300599999","2010-11-24T13:50:00","4","61.25","1.85","117.65","STATFJORD OIL PLATFORM HELIPORT, FO","FM-15","ENSF ","V020","030,1,N,0185,1","01230,1,9,N","011265,1,N,1","+0030,1","-0060,1","99999,9",,,"07,1,+01230,1,99,9",,,"07,99,1,99,9,99,9,99999,9,99,9,99,9","10102,1,99999,9",,"MET070METAR ENSF 241350Z AUTO 03036KT 9999NDV BKN041/// 03/M06 Q1010 W///S5;",
"01300599999","2010-11-24T14:20:00","4","61.25","1.85","117.65","STATFJORD OIL PLATFORM HELIPORT, FO","FM-15","ENSF ","V020","030,1,N,0185,1","01110,1,9,N","011265,1,N,1","+0030,1","-0060,1","99999,9",,,"07,1,+01110,1,99,9",,,"07,99,1,99,9,99,9,99999,9,99,9,99,9","10102,1,99999,9",,"MET070METAR ENSF 241420Z AUTO 03036KT 9999NDV BKN037/// 03/M06 Q1010 W///S5;",
"01300599999","2010-11-24T14:50:00","4","61.25","1.85","117.65","STATFJORD OIL PLATFORM HELIPORT, FO","FM-15","ENSF ","V020","040,1,N,0180,1","01050,1,9,N","011265,1,N,1","+0020,1","-0050,1","99999,9",,,"07,1,+01050,1,99,9",,,"07,99,1,99,9,99,9,99999,9,99,9,99,9","10102,1,99999,9",,"MET070METAR ENSF 241450Z AUTO 04035KT 9999NDV BKN035/// 02/M05 Q1010 W///S5;",
"01300599999","2010-11-24T15:20:00","4","61.25","1.85","117.65","STATFJORD OIL PLATFORM HELIPORT, FO","FM-15","ENSF ","V020","040,1,N,0180,1","01020,1,9,N","011265,1,N,1","+0020,1","-0050,1","99999,9",,,"07,1,+01020,1,99,9",,,"07,99,1,99,9,99,9,99999,9,99,9,99,9","10108,1,99999,9",,"MET070METAR ENSF 241520Z AUTO 04035KT 9999NDV BKN034/// 02/M05 Q1011 W///S5;",
"01300599999","2010-11-24T15:50:00","4","61.25","1.85","117.65","STATFJORD OIL PLATFORM HELIPORT, FO","FM-15","ENSF ","V020","040,1,N,0170,1","01050,1,9,N","011265,1,N,1","+0030,1","-0040,1","99999,9",,,"07,1,+01050,1,99,9",,,"07,99,1,99,9,99,9,99999,9,99,9,99,9","10108,1,99999,9",,"MET070METAR ENSF 241550Z AUTO 04033KT 9999NDV BKN035/// 03/M04 Q1011 W///S5;",
"01300599999","2010-11-24T16:20:00","4","61.25","1.85","117.65","STATFJORD OIL PLATFORM HELIPORT, FO","FM-15","ENSF ","V020","040,1,N,0175,1","01050,1,9,N","011265,1,N,1","+0030,1","-0050,1","99999,9",,,"07,1,+01050,1,99,9",,,"07,99,1,99,9,99,9,99999,9,99,9,99,9","10108,1,99999,9",,"MET070METAR ENSF 241620Z AUTO 04034KT 9999NDV BKN035/// 03/M05 Q1011 W///S6;",
"01300599999","2010-11-24T16:50:00","4","61.25","1.85","117.65","STATFJORD OIL PLATFORM HELIPORT, FO","FM-15","ENSF ","V020","040,1,N,0185,1","22000,1,9,N","011265,1,N,1","+0030,1","-0060,1","99999,9",,,"04,1,+01050,1,99,9",,,"04,99,1,99,9,99,9,99999,9,99,9,99,9","10108,1,99999,9",,"MET070METAR ENSF 241650Z AUTO 04036KT 9999NDV SCT035/// 03/M06 Q1011 W///S6;",
"01300599999","2010-11-24T17:20:00","4","61.25","1.85","117.65","STATFJORD OIL PLATFORM HELIPORT, FO","FM-15","ENSF ","V020","030,1,N,0180,1","22000,1,9,N","011265,1,N,1","+0030,1","-0050,1","99999,9",,,"04,1,+00960,1,99,9",,,"04,99,1,99,9,99,9,99999,9,99,9,99,9","10119,1,99999,9",,"MET070METAR ENSF 241720Z AUTO 03035KT 9999NDV SCT032/// 03/M05 Q1012 W///S6;",
"01300599999","2010-11-24T17:50:00","4","61.25","1.85","117.65","STATFJORD OIL PLATFORM HELIPORT, FO","FM-15","ENSF ","V020","040,1,N,0185,1","00960,1,9,N","011265,1,N,1","+0030,1","-0040,1","99999,9",,,"07,1,+00960,1,99,9",,,"07,99,1,99,9,99,9,99999,9,99,9,99,9","10119,1,99999,9",,"MET070METAR ENSF 241750Z AUTO 04036KT 9999NDV BKN032/// 03/M04 Q1012 W///S6;",
"01300599999","2010-11-24T18:20:00","4","61.25","1.85","117.65","STATFJORD OIL PLATFORM HELIPORT, FO","FM-15","ENSF ","V020","030,1,N,0185,1","00960,1,9,N","011265,1,N,1","+0030,1","-0050,1","99999,9",,,"07,1,+00960,1,99,9",,,"07,99,1,99,9,99,9,99999,9,99,9,99,9","10119,1,99999,9",,"MET070METAR ENSF 241820Z AUTO 03036KT 9999NDV BKN032/// 03/M05 Q1012 W///S5;",
"01300599999","2010-11-24T18:50:00","4","61.25","1.85","117.65","STATFJORD OIL PLATFORM HELIPORT, FO","FM-15","ENSF ","V020","040,1,N,0195,1","01080,1,9,N","011265,1,N,1","+0020,1","-0050,1","99999,9",,,"07,1,+01080,1,99,9",,,"07,99,1,99,9,99,9,99999,9,99,9,99,9","10119,1,99999,9",,"MET070METAR ENSF 241850Z AUTO 04038KT 9999NDV BKN036/// 02/M05 Q1012 W///S6;",
"01300599999","2010-11-24T19:20:00","4","61.25","1.85","117.65","STATFJORD OIL PLATFORM HELIPORT, FO","FM-15","ENSF ","V020","040,1,N,0190,1","01290,1,9,N","011265,1,N,1","+0020,1","-0050,1","99999,9",,,"02,1,+01110,1,99,9","07,1,+01290,1,99,9",,"07,99,1,99,9,99,9,99999,9,99,9,99,9","10119,1,99999,9",,"MET080METAR ENSF 241920Z AUTO 04037KT 9999NDV FEW037/// BKN043/// 02/M05 Q1012 W///S6;",
"01300599999","2010-11-24T19:50:00","4","61.25","1.85","117.65","STATFJORD OIL PLATFORM HELIPORT, FO","FM-15","ENSF ","V020","030,1,N,0180,1","01110,1,9,N","011265,1,N,1","+0020,1","-0050,1","99999,9",,,"07,1,+01110,1,99,9",,,"07,99,1,99,9,99,9,99999,9,99,9,99,9","10119,1,99999,9",,"MET070METAR ENSF 241950Z AUTO 03035KT 9999NDV BKN037/// 02/M05 Q1012 W///S6;",
"01300599999","2010-11-24T20:20:00","4","61.25","1.85","117.65","STATFJORD OIL PLATFORM HELIPORT, FO","FM-15","ENSF ","V020","030,1,N,0185,1","01080,1,9,N","011265,1,N,1","+0030,1","-0050,1","99999,9",,,"07,1,+01080,1,99,9",,,"07,99,1,99,9,99,9,99999,9,99,9,99,9","10119,1,99999,9",,"MET070METAR ENSF 242020Z AUTO 03036KT 9999NDV BKN036/// 03/M05 Q1012 W///S6;",
"01300599999","2010-11-24T20:50:00","4","61.25","1.85","117.65","STATFJORD OIL PLATFORM HELIPORT, FO","FM-15","ENSF ","V020","020,1,N,0190,1","01110,1,9,N","011265,1,N,1","+0030,1","-0070,1","99999,9",,,"07,1,+01110,1,99,9",,,"07,99,1,99,9,99,9,99999,9,99,9,99,9","10119,1,99999,9",,"MET070METAR ENSF 242050Z AUTO 02037KT 9999NDV BKN037/// 03/M07 Q1012 W///S6;",
"01300599999","2010-11-24T21:20:00","4","61.25","1.85","117.65","STATFJORD OIL PLATFORM HELIPORT, FO","FM-15","ENSF ","V020","030,1,N,0175,1","22000,1,9,N","011265,1,N,1","+0020,1","-0070,1","99999,9",,,"04,1,+01020,1,99,9",,,"04,99,1,99,9,99,9,99999,9,99,9,99,9","10119,1,99999,9",,"MET070METAR ENSF 242120Z AUTO 03034KT 9999NDV SCT034/// 02/M07 Q1012 W///S6;",
"01300599999","2010-11-24T21:50:00","4","61.25","1.85","117.65","STATFJORD OIL PLATFORM HELIPORT, FO","FM-15","ENSF ","V020","020,1,N,0175,1","22000,1,9,N","011265,1,N,1","+0030,1","-0060,1","99999,9",,,"04,1,+01170,1,99,9",,,"04,99,1,99,9,99,9,99999,9,99,9,99,9","10119,1,99999,9",,"MET070METAR ENSF 242150Z AUTO 02034KT 9999NDV SCT039/// 03/M06 Q1012 W///S6;",
"01300599999","2010-11-24T22:20:00","4","61.25","1.85","117.65","STATFJORD OIL PLATFORM HELIPORT, FO","FM-15","ENSF ","V020","020,1,N,0170,1","01140,1,9,N","011265,1,N,1","+0030,1","-0050,1","99999,9",,,"07,1,+01140,1,99,9",,,"07,99,1,99,9,99,9,99999,9,99,9,99,9","10119,1,99999,9",,"MET070METAR ENSF 242220Z AUTO 02033KT 9999NDV BKN038/// 03/M05 Q1012 W///S6;",
"01300599999","2010-11-24T22:50:00","4","61.25","1.85","117.65","STATFJORD OIL PLATFORM HELIPORT, FO","FM-15","ENSF ","V020","030,1,N,0170,1","01110,1,9,N","011265,1,N,1","+0030,1","-0050,1","99999,9",,,"07,1,+01110,1,99,9",,,"07,99,1,99,9,99,9,99999,9,99,9,99,9","10119,1,99999,9",,"MET070METAR ENSF 242250Z AUTO 03033KT 9999NDV BKN037/// 03/M05 Q1012 W///S6;",
"01300599999","2010-11-24T23:20:00","4","61.25","1.85","117.65","STATFJORD OIL PLATFORM HELIPORT, FO","FM-15","ENSF ","V020","030,1,N,0170,1","01020,1,9,N","011265,1,N,1","+0020,1","-0070,1","99999,9",,,"07,1,+01020,1,99,9",,,"07,99,1,99,9,99,9,99999,9,99,9,99,9","10119,1,99999,9",,"MET070METAR ENSF 242320Z AUTO 03033KT 9999NDV BKN034/// 02/M07 Q1012 W///S6;",
"01300599999","2010-11-24T23:50:00","4","61.25","1.85","117.65","STATFJORD OIL PLATFORM HELIPORT, FO","FM-15","ENSF ","V020","040,1,N,0159,1","01110,1,9,N","011265,1,N,1","+0020,1","-0050,1","99999,9",,,"07,1,+01110,1,99,9",,,"07,99,1,99,9,99,9,99999,9,99,9,99,9","10119,1,99999,9",,"MET070METAR ENSF 242350Z AUTO 04031KT 9999NDV BKN037/// 02/M05 Q1012 W///S6;",
"01300599999","2010-11-25T00:20:00","4","61.25","1.85","117.65","STATFJORD OIL PLATFORM HELIPORT, FO","FM-15","ENSF ","V020","040,1,N,0149,1","01080,1,9,N","011265,1,N,1","+0020,1","-0050,1","99999,9",,,"07,1,+01080,1,99,9",,,"07,99,1,99,9,99,9,99999,9,99,9,99,9","10119,1,99999,9",,"MET070METAR ENSF 250020Z AUTO 04029KT 9999NDV BKN036/// 02/M05 Q1012 W///S6;",
"01300599999","2010-11-25T00:50:00","4","61.25","1.85","117.65","STATFJORD OIL PLATFORM HELIPORT, FO","FM-15","ENSF ","V020","030,1,N,0154,1","22000,1,9,N","011265,1,N,1","+0020,1","-0070,1","99999,9",,,"04,1,+01140,1,99,9",,,"04,99,1,99,9,99,9,99999,9,99,9,99,9","10119,1,99999,9",,"MET070METAR ENSF 250050Z AUTO 03030KT 9999NDV SCT038/// 02/M07 Q1012 W///S6;",
"01300599999","2010-11-25T01:20:00","4","61.25","1.85","117.65","STATFJORD OIL PLATFORM HELIPORT, FO","FM-15","ENSF ","V020","030,1,N,0154,1","01170,1,9,N","011265,1,N,1","+0030,1","-0060,1","99999,9",,,"07,1,+01170,1,99,9",,,"07,99,1,99,9,99,9,99999,9,99,9,99,9","10119,1,99999,9",,"MET070METAR ENSF 250120Z AUTO 03030KT 9999NDV BKN039/// 03/M06 Q1012 W///S5;",
"01300599999","2010-11-25T01:50:00","4","61.25","1.85","117.65","STATFJORD OIL PLATFORM HELIPORT, FO","FM-15","ENSF ","V020","030,1,N,0159,1","01110,1,9,N","011265,1,N,1","+0030,1","-0070,1","99999,9",,,"07,1,+01110,1,99,9",,,"07,99,1,99,9,99,9,99999,9,99,9,99,9","10119,1,99999,9",,"MET070METAR ENSF 250150Z AUTO 03031KT 9999NDV BKN037/// 03/M07 Q1012 W///S5;",
"01300599999","2010-11-25T02:20:00","4","61.25","1.85","117.65","STATFJORD OIL PLATFORM HELIPORT, FO","FM-15","ENSF ","V020","030,1,N,0144,1","01140,1,9,N","011265,1,N,1","+0030,1","-0060,1","99999,9",,,"07,1,+01140,1,99,9",,,"07,99,1,99,9,99,9,99999,9,99,9,99,9","10119,1,99999,9",,"MET070METAR ENSF 250220Z AUTO 03028KT 9999NDV BKN038/// 03/M06 Q1012 W///S5;",
"01300599999","2010-11-25T02:50:00","4","61.25","1.85","117.65","STATFJORD OIL PLATFORM HELIPORT, FO","FM-15","ENSF ","V020","030,1,N,0144,1","01230,1,9,N","011265,1,N,1","+0030,1","-0080,1","99999,9",,,"07,1,+01230,1,99,9",,,"07,99,1,99,9,99,9,99999,9,99,9,99,9","10119,1,99999,9",,"MET070METAR ENSF 250250Z AUTO 03028KT 9999NDV BKN041/// 03/M08 Q1012 W///S5;",
"01300599999","2010-11-25T03:20:00","4","61.25","1.85","117.65","STATFJORD OIL PLATFORM HELIPORT, FO","FM-15","ENSF ","V020","030,1,N,0144,1","22000,1,9,N","011265,1,N,1","+0030,1","-0060,1","99999,9",,,"04,1,+01230,1,99,9","04,1,+01470,1,99,9",,"04,99,1,99,9,99,9,99999,9,99,9,99,9","10119,1,99999,9",,"MET080METAR ENSF 250320Z AUTO 03028KT 9999NDV SCT041/// SCT049/// 03/M06 Q1012 W///S5;",
"01300599999","2010-11-25T03:50:00","4","61.25","1.85","117.65","STATFJORD OIL PLATFORM HELIPORT, FO","FM-15","ENSF ","V020","030,1,N,0144,1","22000,1,9,N","011265,1,N,1","+0030,1","-0070,1","99999,9",,,"04,1,+01230,1,99,9",,,"04,99,1,99,9,99,9,99999,9,99,9,99,9","10119,1,99999,9",,"MET070METAR ENSF 250350Z AUTO 03028KT 9999NDV SCT041/// 03/M07 Q1012 W///S5;",
"01300599999","2010-11-25T04:20:00","4","61.25","1.85","117.65","STATFJORD OIL PLATFORM HELIPORT, FO","FM-15","ENSF ","V020","020,1,N,0134,1","01170,1,9,N","011265,1,N,1","+0030,1","-0060,1","99999,9",,,"07,1,+01170,1,99,9",,,"07,99,1,99,9,99,9,99999,9,99,9,99,9","10119,1,99999,9",,"MET070METAR ENSF 250420Z AUTO 02026KT 9999NDV BKN039/// 03/M06 Q1012 W///S5;",
"01300599999","2010-11-25T04:50:00","4","61.25","1.85","117.65","STATFJORD OIL PLATFORM HELIPORT, FO","FM-15","ENSF ","V020","020,1,N,0134,1","22000,1,9,N","011265,1,N,1","+0030,1","-0070,1","99999,9",,,"04,1,+01230,1,99,9",,,"04,99,1,99,9,99,9,99999,9,99,9,99,9","10119,1,99999,9",,"MET070METAR ENSF 250450Z AUTO 02026KT 9999NDV SCT041/// 03/M07 Q1012 W///S5;",
"01300599999","2010-11-25T05:20:00","4","61.25","1.85","117.65","STATFJORD OIL PLATFORM HELIPORT, FO","FM-15","ENSF ","V020","030,1,N,0129,1","01200,1,9,N","011265,1,N,1","+0030,1","-0060,1","99999,9",,,"07,1,+01200,1,99,9",,,"07,99,1,99,9,99,9,99999,9,99,9,99,9","10119,1,99999,9",,"MET070METAR ENSF 250520Z AUTO 03025KT 9999NDV BKN040/// 03/M06 Q1012 W///S5;",
"01300599999","2010-11-25T05:50:00","4","61.25","1.85","117.65","STATFJORD OIL PLATFORM HELIPORT, FO","FM-15","ENSF ","V020","030,1,N,0123,1","01200,1,9,N","011265,1,N,1","+0030,1","-0070,1","99999,9",,,"07,1,+01200,1,99,9",,,"07,99,1,99,9,99,9,99999,9,99,9,99,9","10119,1,99999,9",,"MET070METAR ENSF 250550Z AUTO 03024KT 9999NDV BKN040/// 03/M07 Q1012 W///S5;",
"01300599999","2010-11-25T06:20:00","4","61.25","1.85","117.65","STATFJORD OIL PLATFORM HELIPORT, FO","FM-15","ENSF ","V020","030,1,N,0118,1","01230,1,9,N","011265,1,N,1","+0020,1","-0070,1","99999,9",,,"07,1,+01230,1,99,9",,,"07,99,1,99,9,99,9,99999,9,99,9,99,9","10119,1,99999,9",,"MET070METAR ENSF 250620Z AUTO 03023KT 9999NDV BKN041/// 02/M07 Q1012 W///S5;",
"01300599999","2010-11-25T06:50:00","4","61.25","1.85","117.65","STATFJORD OIL PLATFORM HELIPORT, FO","FM-15","ENSF ","V020","040,1,N,0123,1","01230,1,9,N","011265,1,N,1","+0020,1","-0080,1","99999,9",,,"07,1,+01230,1,99,9",,,"07,99,1,99,9,99,9,99999,9,99,9,99,9","10119,1,99999,9",,"MET070METAR ENSF 250650Z AUTO 04024KT 9999NDV BKN041/// 02/M08 Q1012 W///S5;",
"01300599999","2010-11-25T07:20:00","4","61.25","1.85","117.65","STATFJORD OIL PLATFORM HELIPORT, FO","FM-15","ENSF ","V020","030,1,N,0113,1","22000,1,9,N","011265,1,N,1","+0020,1","-0080,1","99999,9",,,"02,1,+01380,1,99,9",,,"02,99,1,99,9,99,9,99999,9,99,9,99,9","10119,1,99999,9",,"MET070METAR ENSF 250720Z AUTO 03022KT 9999NDV FEW046/// 02/M08 Q1012 W///S5;",
"01300599999","2010-11-25T07:50:00","4","61.25","1.85","117.65","STATFJORD OIL PLATFORM HELIPORT, FO","FM-15","ENSF ","V020","040,1,N,0113,1","22000,1,9,N","011265,1,N,1","+0020,1","-0090,1","99999,9",,,"02,1,+01290,1,99,9",,,"02,99,1,99,9,99,9,99999,9,99,9,99,9","10119,1,99999,9",,"MET070METAR ENSF 250750Z AUTO 04022KT 9999NDV FEW043/// 02/M09 Q1012 W///S5;",
"01300599999","2010-11-25T08:20:00","4","61.25","1.85","117.65","STATFJORD OIL PLATFORM HELIPORT, FO","FM-15","ENSF ","V020","030,1,N,0108,1","22000,1,9,N","011265,1,N,1","+0030,1","-0080,1","99999,9",,,"02,1,+01380,1,99,9",,,"02,99,1,99,9,99,9,99999,9,99,9,99,9","10119,1,99999,9",,"MET070METAR ENSF 250820Z AUTO 03021KT 9999NDV FEW046/// 03/M08 Q1012 W///S5;",
"01300599999","2010-11-25T08:50:00","4","61.25","1.85","117.65","STATFJORD OIL PLATFORM HELIPORT, FO","FM-15","ENSF ","V020","030,1,N,0103,1","22000,1,9,N","011265,1,N,1","+0030,1","-0090,1","99999,9",,,"02,1,+01440,1,99,9",,,"02,99,1,99,9,99,9,99999,9,99,9,99,9","10119,1,99999,9",,"MET070METAR ENSF 250850Z AUTO 03020KT 9999NDV FEW048/// 03/M09 Q1012 W///S5;",
"01300599999","2010-11-25T09:20:00","4","61.25","1.85","117.65","STATFJORD OIL PLATFORM HELIPORT, FO","FM-15","ENSF ","V020","020,1,N,0103,1","22000,1,9,N","011265,1,N,1","+0030,1","-0080,1","99999,9",,,"02,1,+01440,1,99,9",,,"02,99,1,99,9,99,9,99999,9,99,9,99,9","10119,1,99999,9",,"MET070METAR ENSF 250920Z AUTO 02020KT 9999NDV FEW048/// 03/M08 Q1012 W///S5;",
"01300599999","2010-11-25T09:50:00","4","61.25","1.85","117.65","STATFJORD OIL PLATFORM HELIPORT, FO","FM-15","ENSF ","V020","020,1,N,0098,1","22000,1,9,N","011265,1,N,1","+0030,1","-0080,1","99999,9",,,"02,1,+01410,1,99,9",,,"02,99,1,99,9,99,9,99999,9,99,9,99,9","10119,1,99999,9",,"MET070METAR ENSF 250950Z AUTO 02019KT 9999NDV FEW047/// 03/M08 Q1012 W///S5;",
"01300599999","2010-11-25T10:20:00","4","61.25","1.85","117.65","STATFJORD OIL PLATFORM HELIPORT, FO","FM-15","ENSF ","V020","020,1,N,0103,1","22000,1,9,N","011265,1,N,1","+0030,1","-0090,1","99999,9",,,"02,1,+01440,1,99,9",,,"02,99,1,99,9,99,9,99999,9,99,9,99,9","10119,1,99999,9",,"MET070METAR ENSF 251020Z AUTO 02020KT 9999NDV FEW048/// 03/M09 Q1012 W///S5;",
"01300599999","2010-11-25T10:50:00","4","61.25","1.85","117.65","STATFJORD OIL PLATFORM HELIPORT, FO","FM-15","ENSF ","V020","030,1,N,0082,1","22000,1,9,N","011265,1,N,1","+0030,1","-0090,1","99999,9",,,,,,"00,99,1,99,9,99,9,99999,9,99,9,99,9","10119,1,99999,9",,"MET064METAR ENSF 251050Z AUTO 03016KT 9999NDV NCD 03/M09 Q1012 W///S5;","Q01    003SCCGA1"
"01300599999","2010-11-25T11:20:00","4","61.25","1.85","117.65","STATFJORD OIL PLATFORM HELIPORT, FO","FM-15","ENSF ","V020","030,1,N,0077,1","22000,1,9,N","011265,1,N,1","+0030,1","-0090,1","99999,9",,,,,,"00,99,1,99,9,99,9,99999,9,99,9,99,9","10119,1,99999,9",,"MET064METAR ENSF 251120Z AUTO 03015KT 9999NDV NCD 03/M09 Q1012 W///S5;","Q01    003SCCGA1"
"01300599999","2010-11-25T11:50:00","4","61.25","1.85","117.65","STATFJORD OIL PLATFORM HELIPORT, FO","FM-15","ENSF ","V020","020,1,N,0072,1","22000,1,9,N","011265,1,N,1","+0020,1","-0080,1","99999,9",,,,,,"00,99,1,99,9,99,9,99999,9,99,9,99,9","10108,1,99999,9",,"MET064METAR ENSF 251150Z AUTO 02014KT 9999NDV NCD 02/M08 Q1011 W///S4;","Q01    003SCCGA1"
"01300599999","2010-11-25T12:20:00","4","61.25","1.85","117.65","STATFJORD OIL PLATFORM HELIPORT, FO","FM-15","ENSF ","V020","030,1,N,0062,1","22000,1,9,N","011265,1,N,1","+0030,1","-0090,1","99999,9",,,,,,"00,99,1,99,9,99,9,99999,9,99,9,99,9","10108,1,99999,9",,"MET064METAR ENSF 251220Z AUTO 03012KT 9999NDV NCD 03/M09 Q1011 W///S4;","Q01    003SCCGA1"
"01300599999","2010-11-25T12:50:00","4","61.25","1.85","117.65","STATFJORD OIL PLATFORM HELIPORT, FO","FM-15","ENSF ","V020","020,1,N,0072,1","22000,1,9,N","011265,1,N,1","+0020,1","-0080,1","99999,9",,,"02,1,+01410,1,99,9",,,"02,99,1,99,9,99,9,99999,9,99,9,99,9","10108,1,99999,9",,"MET070METAR ENSF 251250Z AUTO 02014KT 9999NDV FEW047/// 02/M08 Q1011 W///S4;",
"01300599999","2010-11-25T13:20:00","4","61.25","1.85","117.65","STATFJORD OIL PLATFORM HELIPORT, FO","FM-15","ENSF ","V020","010,1,N,0072,1","01350,1,9,N","011265,1,N,1","+0020,1","-0070,1","99999,9",,,"07,1,+01350,1,99,9",,,"07,99,1,99,9,99,9,99999,9,99,9,99,9","10108,1,99999,9",,"MET070METAR ENSF 251320Z AUTO 01014KT 9999NDV BKN045/// 02/M07 Q1011 W///S4;",
"01300599999","2010-11-25T13:50:00","4","61.25","1.85","117.65","STATFJORD OIL PLATFORM HELIPORT, FO","FM-15","ENSF ","V020","010,1,N,0067,1","01320,1,9,N","011265,1,N,1","+0020,1","-0080,1","99999,9",,,"07,1,+01320,1,99,9",,,"07,99,1,99,9,99,9,99999,9,99,9,99,9","10108,1,99999,9",,"MET070METAR ENSF 251350Z AUTO 01013KT 9999NDV BKN044/// 02/M08 Q1011 W///S4;",
"01300599999","2010-11-25T14:20:00","4","61.25","1.85","117.65","STATFJORD OIL PLATFORM HELIPORT, FO","FM-15","ENSF ","V020","020,1,N,0067,1","22000,1,9,N","011265,1,N,1","+0030,1","-0080,1","99999,9",,,"02,1,+01410,1,99,9",,,"02,99,1,99,9,99,9,99999,9,99,9,99,9","10108,1,99999,9",,"MET070METAR ENSF 251420Z AUTO 02013KT 9999NDV FEW047/// 03/M08 Q1011 W///S4;",
"01300599999","2010-11-25T14:50:00","4","61.25","1.85","117.65","STATFJORD OIL PLATFORM HELIPORT, FO","FM-15","ENSF ","V020","010,1,N,0067,1","01380,1,9,N","011265,1,N,1","+0020,1","-0100,1","99999,9",,,"07,1,+01380,1,99,9",,,"07,99,1,99,9,99,9,99999,9,99,9,99,9","10102,1,99999,9",,"MET070METAR ENSF 251450Z AUTO 01013KT 9999NDV BKN046/// 02/M10 Q1010 W///S4;",
"01300599999","2010-11-25T15:20:00","4","61.25","1.85","117.65","STATFJORD OIL PLATFORM HELIPORT, FO","FM-15","ENSF ","V020","020,1,N,0067,1","22000,1,9,N","011265,1,N,1","+0020,1","-0090,1","99999,9",,,"02,1,+01440,1,99,9",,,"02,99,1,99,9,99,9,99999,9,99,9,99,9","10102,1,99999,9",,"MET070METAR ENSF 251520Z AUTO 02013KT 9999NDV FEW048/// 02/M09 Q1010 W///S4;",
"01300599999","2010-11-25T15:50:00","4","61.25","1.85","117.65","STATFJORD OIL PLATFORM HELIPORT, FO","FM-15","ENSF ","V020","020,1,N,0057,1","22000,1,9,N","011265,1,N,1","+0020,1","-0100,1","99999,9",,,"02,1,+01440,1,99,9",,,"02,99,1,99,9,99,9,99999,9,99,9,99,9","10102,1,99999,9",,"MET070METAR ENSF 251550Z AUTO 02011KT 9999NDV FEW048/// 02/M10 Q1010 W///S4;",
"01300599999","2010-11-25T16:20:00","4","61.25","1.85","117.65","STATFJORD OIL PLATFORM HELIPORT, FO","FM-15","ENSF ","V020","030,1,N,0046,1","22000,1,9,N","011265,1,N,1","+0020,1","-0080,1","99999,9",,,"02,1,+01410,1,99,9",,,"02,99,1,99,9,99,9,99999,9,99,9,99,9","10102,1,99999,9",,"MET078METAR ENSF 251620Z AUTO 03009KT 360V060 9999NDV FEW047/// 02/M08 Q1010 W///S4;",
"01300599999","2010-11-25T16:50:00","4","61.25","1.85","117.65","STATFJORD OIL PLATFORM HELIPORT, FO","FM-15","ENSF ","V020","020,1,N,0041,1","22000,1,9,N","011265,1,N,1","+0020,1","-0110,1","99999,9",,,,,,"00,99,1,99,9,99,9,99999,9,99,9,99,9","10102,1,99999,9",,"MET072METAR ENSF 251650Z AUTO 02008KT 340V050 9999NDV NCD 02/M11 Q1010 W///S4;","Q01    003SCCGA1"
"01300599999","2010-11-25T17:20:00","4","61.25","1.85","117.65","STATFJORD OIL PLATFORM HELIPORT, FO","FM-15","ENSF ","V020","010,1,N,0036,1","22000,1,9,N","999999,9,N,1","+0020,1","-0090,1","99999,9",,,,,,"00,99,1,99,9,99,9,99999,9,99,9,99,9","10102,1,99999,9",,"MET061METAR ENSF 251720Z AUTO 01007KT //// NCD 02/M09 Q1010 W///S4;","Q01    003SCCGA1"
"01300599999","2010-11-25T17:50:00","4","61.25","1.85","117.65","STATFJORD OIL PLATFORM HELIPORT, FO","FM-15","ENSF ","V020","040,1,N,0036,1","22000,1,9,N","999999,9,N,1","+0020,1","-0090,1","99999,9",,,,,,"00,99,1,99,9,99,9,99999,9,99,9,99,9","10102,1,99999,9",,"MET061METAR ENSF 251750Z AUTO 04007KT //// NCD 02/M09 Q1010 W///S4;","Q01    003SCCGA1"
"01300599999","2010-11-25T18:20:00","4","61.25","1.85","117.65","STATFJORD OIL PLATFORM HELIPORT, FO","FM-15","ENSF ","V020","040,1,N,0031,1","04200,1,9,N","011265,1,N,1","+0030,1","-0090,1","99999,9",,,"07,1,+04200,1,99,9",,,"07,99,1,99,9,99,9,99999,9,99,9,99,9","10102,1,99999,9",,"MET078METAR ENSF 251820Z AUTO 04006KT 010V090 9999NDV BKN140/// 03/M09 Q1010 W///S3;",
"01300599999","2010-11-25T18:50:00","4","61.25","1.85","117.65","STATFJORD OIL PLATFORM HELIPORT, FO","FM-15","ENSF ","V020","070,1,N,0031,1","22000,1,9,N","011265,1,N,1","+0030,1","-0090,1","99999,9",,,,,,"00,99,1,99,9,99,9,99999,9,99,9,99,9","10091,1,99999,9",,"MET064METAR ENSF 251850Z AUTO 07006KT 9999NDV NCD 03/M09 Q1009 W///S3;","Q01    003SCCGA1"
"01300599999","2010-11-25T19:20:00","4","61.25","1.85","117.65","STATFJORD OIL PLATFORM HELIPORT, FO","FM-15","ENSF ","V020","070,1,N,0026,1","22000,1,9,N","011265,1,N,1","+0030,1","-0080,1","99999,9",,,,,,"00,99,1,99,9,99,9,99999,9,99,9,99,9","10091,1,99999,9",,"MET072METAR ENSF 251920Z AUTO 07005KT 050V110 9999NDV NCD 03/M08 Q1009 W///S3;","Q01    003SCCGA1"
"01300599999","2010-11-25T19:50:00","4","61.25","1.85","117.65","STATFJORD OIL PLATFORM HELIPORT, FO","FM-15","ENSF ","V020","140,1,N,0046,1","04200,1,9,N","011265,1,N,1","+0030,1","-0070,1","99999,9",,,"07,1,+04200,1,99,9",,,"07,99,1,99,9,99,9,99999,9,99,9,99,9","10091,1,99999,9",,"MET078METAR ENSF 251950Z AUTO 14009KT 090V180 9999NDV BKN140/// 03/M07 Q1009 W///S3;",
"01300599999","2010-11-25T20:20:00","4","61.25","1.85","117.65","STATFJORD OIL PLATFORM HELIPORT, FO","FM-15","ENSF ","V020","140,1,N,0046,1","22000,1,9,N","011265,1,N,1","+0030,1","-0070,1","99999,9",,,"02,1,+04200,1,99,9",,,"02,99,1,99,9,99,9,99999,9,99,9,99,9","10091,1,99999,9",,"MET078METAR ENSF 252020Z AUTO 14009KT 070V190 9999NDV FEW140/// 03/M07 Q1009 W///S3;",
"01300599999","2010-11-25T20:50:00","4","61.25","1.85","117.65","STATFJORD OIL PLATFORM HELIPORT, FO","FM-15","ENSF ","V020","140,1,N,0051,1","22000,1,9,N","011265,1,N,1","+0030,1","-0070,1","99999,9",,,"02,1,+01500,1,99,9",,,"02,99,1,99,9,99,9,99999,9,99,9,99,9","10091,1,99999,9",,"MET070METAR ENSF 252050Z AUTO 14010KT 9999NDV FEW052/// 03/M07 Q1009 W///S3;",
"01300599999","2010-11-25T21:20:00","4","61.25","1.85","117.65","STATFJORD OIL PLATFORM HELIPORT, FO","FM-15","ENSF ","V020","140,1,N,0057,1","01500,1,9,N","011265,1,N,1","+0030,1","-0070,1","99999,9",,,"07,1,+01500,1,99,9",,,"07,99,1,99,9,99,9,99999,9,99,9,99,9","10081,1,99999,9",,"MET070METAR ENSF 252120Z AUTO 14011KT 9999NDV BKN053/// 03/M07 Q1008 W///S3;",
"01300599999","2010-11-25T21:50:00","4","61.25","1.85","117.65","STATFJORD OIL PLATFORM HELIPORT, FO","FM-15","ENSF ","V020","160,1,N,0057,1","01500,1,9,N","011265,1,N,1","+0030,1","-0080,1","99999,9",,,"07,1,+01500,1,99,9",,,"07,99,1,99,9,99,9,99999,9,99,9,99,9","10081,1,99999,9",,"MET070METAR ENSF 252150Z AUTO 16011KT 9999NDV BKN055/// 03/M08 Q1008 W///S3;",
"01300599999","2010-11-25T22:20:00","4","61.25","1.85","117.65","STATFJORD OIL PLATFORM HELIPORT, FO","FM-15","ENSF ","V020","170,1,N,0057,1","22000,1,9,N","011265,1,N,1","+0020,1","-0070,1","99999,9",,,"02,1,+01380,1,99,9","04,1,+01500,1,99,9",,"04,99,1,99,9,99,9,99999,9,99,9,99,9","10081,1,99999,9",,"MET088METAR ENSF 252220Z AUTO 17011KT 140V200 9999NDV FEW046/// SCT058/// 02/M07 Q1008 W///S3;",
"01300599999","2010-11-25T22:50:00","4","61.25","1.85","117.65","STATFJORD OIL PLATFORM HELIPORT, FO","FM-15","ENSF ","V020","160,1,N,0057,1","01320,1,9,N","011265,1,N,1","+0020,1","-0080,1","99999,9",,,"07,1,+01320,1,99,9",,,"07,99,1,99,9,99,9,99999,9,99,9,99,9","10081,1,99999,9",,"MET070METAR ENSF 252250Z AUTO 16011KT 9999NDV BKN044/// 02/M08 Q1008 W///S3;",
"01300599999","2010-11-25T23:20:00","4","61.25","1.85","117.65","STATFJORD OIL PLATFORM HELIPORT, FO","FM-15","ENSF ","V020","170,1,N,0057,1","01350,1,9,N","011265,1,N,1","+0020,1","-0080,1","99999,9",,,"08,1,+01350,1,99,9",,,"08,99,1,99,9,99,9,99999,9,99,9,99,9","10081,1,99999,9",,"MET070METAR ENSF 252320Z AUTO 17011KT 9999NDV OVC045/// 02/M08 Q1008 W///S3;",
"01300599999","2010-11-25T23:50:00","4","61.25","1.85","117.65","STATFJORD OIL PLATFORM HELIPORT, FO","FM-15","ENSF ","V020","180,1,N,0062,1","01380,1,9,N","011265,1,N,1","+0020,1","-0070,1","99999,9",,,"07,1,+01380,1,99,9",,,"07,99,1,99,9,99,9,99999,9,99,9,99,9","10081,1,99999,9",,"MET070METAR ENSF 252350Z AUTO 18012KT 9999NDV BKN046/// 02/M07 Q1008 W///S3;",
"01300599999","2010-11-26T00:20:00","4","61.25","1.85","117.65","STATFJORD OIL PLATFORM HELIPORT, FO","FM-15","ENSF ","V020","170,1,N,0062,1","01440,1,9,N","011265,1,N,1","+0020,1","-0070,1","99999,9",,,"07,1,+01440,1,99,9",,,"07,99,1,99,9,99,9,99999,9,99,9,99,9","10071,1,99999,9",,"MET070METAR ENSF 260020Z AUTO 17012KT 9999NDV BKN048/// 02/M07 Q1007 W///S3;",
"01300599999","2010-11-26T00:50:00","4","61.25","1.85","117.65","STATFJORD OIL PLATFORM HELIPORT, FO","FM-15","ENSF ","V020","160,1,N,0067,1","01800,1,9,N","011265,1,N,1","+0030,1","-0070,1","99999,9",,,"07,1,+01800,1,99,9","07,1,+04500,1,99,9",,"07,99,1,99,9,99,9,99999,9,99,9,99,9","10071,1,99999,9",,"MET080METAR ENSF 260050Z AUTO 16013KT 9999NDV BKN060/// BKN150/// 03/M07 Q1007 W///S3;",
"01300599999","2010-11-26T01:20:00","4","61.25","1.85","117.65","STATFJORD OIL PLATFORM HELIPORT, FO","FM-15","ENSF ","V020","170,1,N,0067,1","01440,1,9,N","011265,1,N,1","+0020,1","-0080,1","99999,9",,,"07,1,+01440,1,99,9","07,1,+04500,1,99,9",,"07,99,1,99,9,99,9,99999,9,99,9,99,9","10071,1,99999,9",,"MET080METAR ENSF 260120Z AUTO 17013KT 9999NDV BKN048/// BKN150/// 02/M08 Q1007 W///S3;",
"01300599999","2010-11-26T01:50:00","4","61.25","1.85","117.65","STATFJORD OIL PLATFORM HELIPORT, FO","FM-15","ENSF ","V020","160,1,N,0067,1","04200,1,9,N","011265,1,N,1","+0030,1","-0080,1","99999,9",,,"04,1,+03300,1,99,9","07,1,+04200,1,99,9",,"07,99,1,99,9,99,9,99999,9,99,9,99,9","10071,1,99999,9",,"MET080METAR ENSF 260150Z AUTO 16013KT 9999NDV SCT110/// BKN140/// 03/M08 Q1007 W///S3;",
"01300599999","2010-11-26T02:20:00","4","61.25","1.85","117.65","STATFJORD OIL PLATFORM HELIPORT, FO","FM-15","ENSF ","V020","160,1,N,0077,1","22000,1,9,N","011265,1,N,1","+0030,1","-0060,1","99999,9",,,"04,1,+03000,1,99,9",,,"04,99,1,99,9,99,9,99999,9,99,9,99,9","10071,1,99999,9",,"MET070METAR ENSF 260220Z AUTO 16015KT 9999NDV SCT100/// 03/M06 Q1007 W///S3;",
"01300599999","2010-11-26T02:50:00","4","61.25","1.85","117.65","STATFJORD OIL PLATFORM HELIPORT, FO","FM-15","ENSF ","V020","150,1,N,0067,1","22000,1,9,N","011265,1,N,1","+0030,1","-0070,1","99999,9",,,"02,1,+03000,1,99,9",,,"02,99,1,99,9,99,9,99999,9,99,9,99,9","10071,1,99999,9",,"MET070METAR ENSF 260250Z AUTO 15013KT 9999NDV FEW100/// 03/M07 Q1007 W///S3;",
"01300599999","2010-11-26T03:20:00","4","61.25","1.85","117.65","STATFJORD OIL PLATFORM HELIPORT, FO","FM-15","ENSF ","V020","140,1,N,0051,1","04800,1,9,N","011265,1,N,1","+0030,1","-0070,1","99999,9",,,"07,1,+04800,1,99,9",,,"07,99,1,99,9,99,9,99999,9,99,9,99,9","10081,1,99999,9",,"MET070METAR ENSF 260320Z AUTO 14010KT 9999NDV BKN160/// 03/M07 Q1008 W///S4;",
"01300599999","2010-11-26T03:50:00","4","61.25","1.85","117.65","STATFJORD OIL PLATFORM HELIPORT, FO","FM-15","ENSF ","V020","140,1,N,0093,1","00960,1,9,N","008000,1,N,1","+0030,1","-0030,1","99999,9","61,1",,"07,1,+00960,1,99,9",,,"07,99,1,99,9,99,9,99999,9,99,9,99,9","10081,1,99999,9",,"MET074METAR ENSF 260350Z AUTO 14018KT 8000NDV -RA BKN032/// 03/M03 Q1008 W///S4;",
"01300599999","2010-11-26T04:20:00","4","61.25","1.85","117.65","STATFJORD OIL PLATFORM HELIPORT, FO","FM-15","ENSF ","V020","160,1,N,0067,1","00720,1,9,N","011265,1,N,1","+0030,1","-0030,1","99999,9","61,1",,"07,1,+00720,1,99,9",,,"07,99,1,99,9,99,9,99999,9,99,9,99,9","10081,1,99999,9",,"MET082METAR ENSF 260420Z AUTO 16013KT 130V190 9999NDV -RA BKN024/// 03/M03 Q1008 W///S4;",
"01300599999","2010-11-26T04:50:00","4","61.25","1.85","117.65","STATFJORD OIL PLATFORM HELIPORT, FO","FM-15","ENSF ","V020","140,1,N,0103,1","01050,1,9,N","011265,1,N,1","+0030,1","-0050,1","99999,9",,,"07,1,+01050,1,99,9",,,"07,99,1,99,9,99,9,99999,9,99,9,99,9","10081,1,99999,9",,"MET070METAR ENSF 260450Z AUTO 14020KT 9999NDV BKN035/// 03/M05 Q1008 W///S4;",
"01300599999","2010-11-26T05:20:00","4","61.25","1.85","117.65","STATFJORD OIL PLATFORM HELIPORT, FO","FM-15","ENSF ","V020","130,1,N,0103,1","01140,1,9,N","011265,1,N,1","+0030,1","-0060,1","99999,9",,,"07,1,+01140,1,99,9",,,"07,99,1,99,9,99,9,99999,9,99,9,99,9","10081,1,99999,9",,"MET070METAR ENSF 260520Z AUTO 13020KT 9999NDV BKN038/// 03/M06 Q1008 W///S5;",
"01300599999","2010-11-26T05:50:00","4","61.25","1.85","117.65","STATFJORD OIL PLATFORM HELIPORT, FO","FM-15","ENSF ","V020","130,1,N,0103,1","01230,1,9,N","011265,1,N,1","+0030,1","-0060,1","99999,9",,,"07,1,+01230,1,99,9",,,"07,99,1,99,9,99,9,99999,9,99,9,99,9","10081,1,99999,9",,"MET070METAR ENSF 260550Z AUTO 13020KT 9999NDV BKN041/// 03/M06 Q1008 W///S5;",
"01300599999","2010-11-26T06:20:00","4","61.25","1.85","117.65","STATFJORD OIL PLATFORM HELIPORT, FO","FM-15","ENSF ","V020","130,1,N,0108,1","01110,1,9,N","011265,1,N,1","+0030,1","-0050,1","99999,9",,,"07,1,+01110,1,99,9","07,1,+01800,1,99,9",,"07,99,1,99,9,99,9,99999,9,99,9,99,9","10091,1,99999,9",,"MET080METAR ENSF 260620Z AUTO 13021KT 9999NDV BKN037/// BKN069/// 03/M05 Q1009 W///S5;",
"01300599999","2010-11-26T06:50:00","4","61.25","1.85","117.65","STATFJORD OIL PLATFORM HELIPORT, FO","FM-15","ENSF ","V020","120,1,N,0098,1","01200,1,9,N","011265,1,N,1","+0030,1","-0060,1","99999,9",,,"07,1,+01200,1,99,9",,,"07,99,1,99,9,99,9,99999,9,99,9,99,9","10091,1,99999,9",,"MET070METAR ENSF 260650Z AUTO 12019KT 9999NDV BKN040/// 03/M06 Q1009 W///S5;",
"01300599999","2010-11-26T07:20:00","4","61.25","1.85","117.65","STATFJORD OIL PLATFORM HELIPORT, FO","FM-15","ENSF ","V020","120,1,N,0108,1","01260,1,C,N","011265,1,N,1","+0030,1","-0060,1","99999,9",,,"02,1,+01110,1,99,9","04,1,+01260,1,99,9","07,1,+01800,1,99,9","07,99,1,99,9,99,9,99999,9,99,9,99,9","10102,1,99999,9",,"MET090METAR ENSF 260720Z AUTO 12021KT 9999NDV FEW037/// SCT042/// BKN067/// 03/M06 Q1010 W///S5;",
"01300599999","2010-11-26T07:50:00","4","61.25","1.85","117.65","STATFJORD OIL PLATFORM HELIPORT, FO","FM-15","ENSF ","V020","110,1,N,0103,1","01800,1,9,N","011265,1,N,1","+0030,1","-0070,1","99999,9",,,"02,1,+01230,1,99,9","07,1,+01800,1,99,9",,"07,99,1,99,9,99,9,99999,9,99,9,99,9","10102,1,99999,9",,"MET080METAR ENSF 260750Z AUTO 11020KT 9999NDV FEW041/// BKN066/// 03/M07 Q1010 W///S5;",
"01300599999","2010-11-26T08:20:00","4","61.25","1.85","117.65","STATFJORD OIL PLATFORM HELIPORT, FO","FM-15","ENSF ","V020","110,1,N,0108,1","02100,1,9,N","011265,1,N,1","+0030,1","-0090,1","99999,9",,,"02,1,+01260,1,99,9","07,1,+02100,1,99,9",,"07,99,1,99,9,99,9,99999,9,99,9,99,9","10102,1,99999,9",,"MET080METAR ENSF 260820Z AUTO 11021KT 9999NDV FEW042/// BKN070/// 03/M09 Q1010 W///S5;",
"01300599999","2010-11-26T08:50:00","4","61.25","1.85","117.65","STATFJORD OIL PLATFORM HELIPORT, FO","FM-15","ENSF ","V020","110,1,N,0103,1","02100,1,9,N","011265,1,N,1","+0030,1","-0080,1","99999,9",,,"02,1,+01290,1,99,9","07,1,+02100,1,99,9",,"07,99,1,99,9,99,9,99999,9,99,9,99,9","10108,1,99999,9",,"MET080METAR ENSF 260850Z AUTO 11020KT 9999NDV FEW043/// BKN078/// 03/M08 Q1011 W///S5;",
"01300599999","2010-11-26T09:20:00","4","61.25","1.85","117.65","STATFJORD OIL PLATFORM HELIPORT, FO","FM-15","ENSF ","V020","110,1,N,0093,1","22000,1,9,N","011265,1,N,1","+0030,1","-0070,1","99999,9",,,"02,1,+02100,1,99,9",,,"02,99,1,99,9,99,9,99999,9,99,9,99,9","10108,1,99999,9",,"MET070METAR ENSF 260920Z AUTO 11018KT 9999NDV FEW077/// 03/M07 Q1011 W///S5;",
"01300599999","2010-11-26T09:50:00","4","61.25","1.85","117.65","STATFJORD OIL PLATFORM HELIPORT, FO","FM-15","ENSF ","V020","090,1,N,0087,1","22000,1,9,N","011265,1,N,1","+0030,1","-0090,1","99999,9",,,"04,1,+01800,1,99,9",,,"04,99,1,99,9,99,9,99999,9,99,9,99,9","10119,1,99999,9",,"MET070METAR ENSF 260950Z AUTO 09017KT 9999NDV SCT061/// 03/M09 Q1012 W///S5;",
"01300599999","2010-11-26T10:20:00","4","61.25","1.85","117.65","STATFJORD OIL PLATFORM HELIPORT, FO","FM-15","ENSF ","V020","090,1,N,0082,1","01470,1,9,N","011265,1,N,1","+0030,1","-0090,1","99999,9",,,"07,1,+01470,1,99,9",,,"07,99,1,99,9,99,9,99999,9,99,9,99,9","10119,1,99999,9",,"MET070METAR ENSF 261020Z AUTO 09016KT 9999NDV BKN049/// 03/M09 Q1012 W///S5;",
"01300599999","2010-11-26T10:50:00","4","61.25","1.85","117.65","STATFJORD OIL PLATFORM HELIPORT, FO","FM-15","ENSF ","V020","090,1,N,0077,1","01380,1,9,N","011265,1,N,1","+0020,1","-0080,1","99999,9",,,"04,1,+01080,1,99,9","07,1,+01380,1,99,9",,"07,99,1,99,9,99,9,99999,9,99,9,99,9","10119,1,99999,9",,"MET080METAR ENSF 261050Z AUTO 09015KT 9999NDV SCT036/// BKN046/// 02/M08 Q1012 W///S5;",
"01300599999","2010-11-26T11:20:00","4","61.25","1.85","117.65","STATFJORD OIL PLATFORM HELIPORT, FO","FM-15","ENSF ","V020","050,1,N,0093,1","01200,1,9,N","011265,1,N,1","+0020,1","-0050,1","99999,9","51,1",,"07,1,+01200,1,99,9",,,"07,99,1,99,9,99,9,99999,9,99,9,99,9","10119,1,99999,9","0149,1","MET085METAR ENSF 261120Z AUTO 05018G29KT 020V090 9999NDV -DZ BKN040/// 02/M05 Q1012 W///S5;",
"01300599999","2010-11-26T11:50:00","4","61.25","1.85","117.65","STATFJORD OIL PLATFORM HELIPORT, FO","FM-15","ENSF ","V020","020,1,N,0118,1","00750,1,9,N","007000,1,N,1","+0020,1","-0030,1","99999,9","81,1",,"04,1,+00660,1,99,9","07,1,+00750,1,99,9","07,1,+02400,1,99,9","07,99,1,99,9,99,9,99999,9,99,9,99,9","10119,1,99999,9",,"MET096METAR ENSF 261150Z AUTO 02023KT 7000NDV -SHRA SCT022/// BKN025/// BKN085/// 02/M03 Q1012 W///S5;",
"01300599999","2010-11-26T12:20:00","4","61.25","1.85","117.65","STATFJORD OIL PLATFORM HELIPORT, FO","FM-15","ENSF ","V020","040,1,N,0144,1","02100,1,9,N","011265,1,N,1","+0020,1","-0050,1","99999,9",,,"02,1,+00720,1,99,9","07,1,+02100,1,99,9",,"07,99,1,99,9,99,9,99999,9,99,9,99,9","10119,1,99999,9",,"MET080METAR ENSF 261220Z AUTO 04028KT 9999NDV FEW024/// BKN070/// 02/M05 Q1012 W///S5;",
"01300599999","2010-11-26T12:50:00","4","61.25","1.85","117.65","STATFJORD OIL PLATFORM HELIPORT, FO","FM-15","ENSF ","V020","040,1,N,0139,1","22000,1,9,N","011265,1,N,1","+0020,1","-0090,1","99999,9",,,"02,1,+01350,1,99,9",,,"02,99,1,99,9,99,9,99999,9,99,9,99,9","10119,1,99999,9",,"MET070METAR ENSF 261250Z AUTO 04027KT 9999NDV FEW045/// 02/M09 Q1012 W///S5;",
"01300599999","2010-11-26T13:20:00","4","61.25","1.85","117.65","STATFJORD OIL PLATFORM HELIPORT, FO","FM-15","ENSF ","V020","030,1,N,0139,1","22000,1,9,N","011265,1,N,1","+0020,1","-0080,1","99999,9",,,"04,1,+01350,1,99,9",,,"04,99,1,99,9,99,9,99999,9,99,9,99,9","10119,1,99999,9",,"MET070METAR ENSF 261320Z AUTO 03027KT 9999NDV SCT045/// 02/M08 Q1012 W///S5;",
"01300599999","2010-11-26T13:50:00","4","61.25","1.85","117.65","STATFJORD OIL PLATFORM HELIPORT, FO","FM-15","ENSF ","V020","030,1,N,0139,1","22000,1,9,N","011265,1,N,1","+0010,1","-0080,1","99999,9",,,"04,1,+00990,1,99,9",,,"04,99,1,99,9,99,9,99999,9,99,9,99,9","10119,1,99999,9",,"MET070METAR ENSF 261350Z AUTO 03027KT 9999NDV SCT033/// 01/M08 Q1012 W///S5;",
"01300599999","2010-11-26T14:20:00","4","61.25","1.85","117.65","STATFJORD OIL PLATFORM HELIPORT, FO","FM-15","ENSF ","V020","040,1,N,0154,1","01170,1,9,N","011265,1,N,1","+0010,1","-0080,1","99999,9","81,1",,"07,1,+01170,1,99,9",,,"07,99,1,99,9,99,9,99999,9,99,9,99,9","10119,1,99999,9",,"MET076METAR ENSF 261420Z AUTO 04030KT 9999NDV -SHRA BKN039/// 01/M08 Q1012 W///S5;",
"01300599999","2010-11-26T14:50:00","4","61.25","1.85","117.65","STATFJORD OIL PLATFORM HELIPORT, FO","FM-15","ENSF ","V020","040,1,N,0159,1","01170,1,9,N","011265,1,N,1","+0010,1","-0050,1","99999,9","81,1",,"07,1,+01170,1,99,9",,,"07,99,1,99,9,99,9,99999,9,99,9,99,9","10119,1,99999,9",,"MET076METAR ENSF 261450Z AUTO 04031KT 9999NDV -SHRA BKN039/// 01/M05 Q1012 W///S5;",
"01300599999","2010-11-26T15:20:00","4","61.25","1.85","117.65","STATFJORD OIL PLATFORM HELIPORT, FO","FM-15","ENSF ","V020","030,1,N,0165,1","01020,1,9,N","011265,1,N,1","+0010,1","-0080,1","99999,9","81,1",,"07,1,+01020,1,99,9",,,"07,99,1,99,9,99,9,99999,9,99,9,99,9","10129,1,99999,9",,"MET076METAR ENSF 261520Z AUTO 03032KT 9999NDV -SHRA BKN034/// 01/M08 Q1013 W///S5;",
"01300599999","2010-11-26T15:50:00","4","61.25","1.85","117.65","STATFJORD OIL PLATFORM HELIPORT, FO","FM-15","ENSF ","V020","040,1,N,0170,1","22000,1,9,N","011265,1,N,1","+0010,1","-0080,1","99999,9",,,"04,1,+01200,1,99,9",,,"04,99,1,99,9,99,9,99999,9,99,9,99,9","10129,1,99999,9",,"MET070METAR ENSF 261550Z AUTO 04033KT 9999NDV SCT040/// 01/M08 Q1013 W///S5;",
"01300599999","2010-11-26T16:20:00","4","61.25","1.85","117.65","STATFJORD OIL PLATFORM HELIPORT, FO","FM-15","ENSF ","V020","040,1,N,0175,1","22000,1,9,N","011265,1,N,1","+0000,1","-0090,1","99999,9",,,"04,1,+01050,1,99,9",,,"04,99,1,99,9,99,9,99999,9,99,9,99,9","10129,1,99999,9",,"MET070METAR ENSF 261620Z AUTO 04034KT 9999NDV SCT035/// 00/M09 Q1013 W///S5;",
"01300599999","2010-11-26T16:50:00","4","61.25","1.85","117.65","STATFJORD OIL PLATFORM HELIPORT, FO","FM-15","ENSF ","V020","040,1,N,0165,1","00930,1,9,N","011265,1,N,1","+0010,1","-0060,1","99999,9","74,1",,"07,1,+00930,1,99,9",,,"07,99,1,99,9,99,9,99999,9,99,9,99,9","10129,1,99999,9",,"MET074METAR ENSF 261650Z AUTO 04032KT 9999NDV -PL BKN031/// 01/M06 Q1013 W///S5;",
"01300599999","2010-11-26T17:20:00","4","61.25","1.85","117.65","STATFJORD OIL PLATFORM HELIPORT, FO","FM-15","ENSF ","V020","040,1,N,0170,1","00960,1,9,N","011265,1,N,1","+0010,1","-0090,1","99999,9",,,"07,1,+00960,1,99,9",,,"07,99,1,99,9,99,9,99999,9,99,9,99,9","10129,1,99999,9",,"MET070METAR ENSF 261720Z AUTO 04033KT 9999NDV BKN032/// 01/M09 Q1013 W///S6;",
"01300599999","2010-11-26T17:50:00","4","61.25","1.85","117.65","STATFJORD OIL PLATFORM HELIPORT, FO","FM-15","ENSF ","V020","040,1,N,0170,1","01290,1,9,N","011265,1,N,1","+0010,1","-0070,1","99999,9",,,"07,1,+01290,1,99,9",,,"07,99,1,99,9,99,9,99999,9,99,9,99,9","10129,1,99999,9",,"MET070METAR ENSF 261750Z AUTO 04033KT 9999NDV BKN043/// 01/M07 Q1013 W///S6;",
"01300599999","2010-11-26T18:20:00","4","61.25","1.85","117.65","STATFJORD OIL PLATFORM HELIPORT, FO","FM-15","ENSF ","V020","040,1,N,0170,1","01200,1,9,N","011265,1,N,1","+0000,1","-0080,1","99999,9",,,"07,1,+01200,1,99,9",,,"07,99,1,99,9,99,9,99999,9,99,9,99,9","10129,1,99999,9",,"MET070METAR ENSF 261820Z AUTO 04033KT 9999NDV BKN040/// 00/M08 Q1013 W///S6;",
"01300599999","2010-11-26T18:50:00","4","61.25","1.85","117.65","STATFJORD OIL PLATFORM HELIPORT, FO","FM-15","ENSF ","V020","040,1,N,0159,1","01050,1,9,N","011265,1,N,1","+0010,1","-0060,1","99999,9",,,"07,1,+01050,1,99,9",,,"07,99,1,99,9,99,9,99999,9,99,9,99,9","10129,1,99999,9",,"MET070METAR ENSF 261850Z AUTO 04031KT 9999NDV BKN035/// 01/M06 Q1013 W///S6;",
"01300599999","2010-11-26T19:20:00","4","61.25","1.85","117.65","STATFJORD OIL PLATFORM HELIPORT, FO","FM-15","ENSF ","V020","040,1,N,0149,1","01020,1,9,N","011265,1,N,1","+0010,1","-0070,1","99999,9",,,"07,1,+01020,1,99,9",,,"07,99,1,99,9,99,9,99999,9,99,9,99,9","10129,1,99999,9",,"MET070METAR ENSF 261920Z AUTO 04029KT 9999NDV BKN034/// 01/M07 Q1013 W///S6;",
"01300599999","2010-11-26T19:50:00","4","61.25","1.85","117.65","STATFJORD OIL PLATFORM HELIPORT, FO","FM-15","ENSF ","V020","030,1,N,0144,1","00960,1,9,N","011265,1,N,1","+0010,1","-0080,1","99999,9",,,"07,1,+00960,1,99,9",,,"07,99,1,99,9,99,9,99999,9,99,9,99,9","10129,1,99999,9",,"MET070METAR ENSF 261950Z AUTO 03028KT 9999NDV BKN032/// 01/M08 Q1013 W///S6;",
"01300599999","2010-11-26T20:20:00","4","61.25","1.85","117.65","STATFJORD OIL PLATFORM HELIPORT, FO","FM-15","ENSF ","V020","040,1,N,0144,1","01080,1,9,N","011265,1,N,1","+0010,1","-0070,1","99999,9",,,"07,1,+01080,1,99,9",,,"07,99,1,99,9,99,9,99999,9,99,9,99,9","10129,1,99999,9",,"MET070METAR ENSF 262020Z AUTO 04028KT 9999NDV BKN036/// 01/M07 Q1013 W///S6;",
"01300599999","2010-11-26T20:50:00","4","61.25","1.85","117.65","STATFJORD OIL PLATFORM HELIPORT, FO","FM-15","ENSF ","V020","040,1,N,0154,1","01050,1,9,N","011265,1,N,1","+0010,1","-0080,1","99999,9",,,"07,1,+01050,1,99,9",,,"07,99,1,99,9,99,9,99999,9,99,9,99,9","10129,1,99999,9",,"MET070METAR ENSF 262050Z AUTO 04030KT 9999NDV BKN035/// 01/M08 Q1013 W///S6;",
"01300599999","2010-11-26T21:20:00","4","61.25","1.85","117.65","STATFJORD OIL PLATFORM HELIPORT, FO","FM-15","ENSF ","V020","030,1,N,0144,1","01080,1,9,N","011265,1,N,1","+0010,1","-0080,1","99999,9",,,"07,1,+01080,1,99,9",,,"07,99,1,99,9,99,9,99999,9,99,9,99,9","10129,1,99999,9",,"MET070METAR ENSF 262120Z AUTO 03028KT 9999NDV BKN036/// 01/M08 Q1013 W///S6;",
"01300599999","2010-11-26T21:50:00","4","61.25","1.85","117.65","STATFJORD OIL PLATFORM HELIPORT, FO","FM-15","ENSF ","V020","050,1,N,0139,1","00930,1,9,N","011265,1,N,1","+0000,1","-0070,1","99999,9","54,1",,"07,1,+00930,1,99,9",,,"07,99,1,99,9,99,9,99999,9,99,9,99,9","10129,1,99999,9",,"MET076METAR ENSF 262150Z AUTO 05027KT 9999NDV -FZDZ BKN031/// 00/M07 Q1013 W///S5;",
"01300599999","2010-11-26T22:20:00","4","61.25","1.85","117.65","STATFJORD OIL PLATFORM HELIPORT, FO","FM-15","ENSF ","V020","040,1,N,0139,1","01050,1,9,N","011265,1,N,1","+0000,1","-0070,1","99999,9","71,1",,"07,1,+01050,1,99,9",,,"07,99,1,99,9,99,9,99999,9,99,9,99,9","10129,1,99999,9",,"MET081METAR ENSF 262220Z AUTO 04027KT 9999NDV -SN BKN035/// 00/M07 Q1013 REFZDZ W///S6;",
"01300599999","2010-11-26T22:50:00","4","61.25","1.85","117.65","STATFJORD OIL PLATFORM HELIPORT, FO","FM-15","ENSF ","V020","040,1,N,0134,1","00900,1,9,N","011265,1,N,1","+0000,1","-0060,1","99999,9","85,1",,"07,1,+00900,1,99,9",,,"07,99,1,99,9,99,9,99999,9,99,9,99,9","10129,1,99999,9",,"MET076METAR ENSF 262250Z AUTO 04026KT 9999NDV -SHSN BKN030/// 00/M06 Q1013 W///S5;",
"01300599999","2010-11-26T23:20:00","4","61.25","1.85","117.65","STATFJORD OIL PLATFORM HELIPORT, FO","FM-15","ENSF ","V020","040,1,N,0139,1","00570,1,9,N","011265,1,N,1","+0000,1","-0060,1","99999,9","64,1",,"07,1,+00570,1,99,9",,,"07,99,1,99,9,99,9,99999,9,99,9,99,9","10129,1,99999,9",,"MET076METAR ENSF 262320Z AUTO 04027KT 9999NDV -FZRA BKN019/// 00/M06 Q1013 W///S5;",
"01300599999","2010-11-26T23:50:00","4","61.25","1.85","117.65","STATFJORD OIL PLATFORM HELIPORT, FO","FM-15","ENSF ","V020","040,1,N,0139,1","00750,1,9,N","011265,1,N,1","+0000,1","-0060,1","99999,9","54,1",,"07,1,+00750,1,99,9","07,1,+01800,1,99,9",,"07,99,1,99,9,99,9,99999,9,99,9,99,9","10129,1,99999,9",,"MET086METAR ENSF 262350Z AUTO 04027KT 9999NDV -FZDZ BKN025/// BKN065/// 00/M06 Q1013 W///S5;",
"01300599999","2010-11-27T00:20:00","4","61.25","1.85","117.65","STATFJORD OIL PLATFORM HELIPORT, FO","FM-15","ENSF ","V020","030,1,N,0129,1","00810,1,9,N","004300,1,N,1","+0000,1","-0060,1","99999,9","10,1","81,1","07,1,+00810,1,99,9",,,"07,99,1,99,9,99,9,99999,9,99,9,99,9","10129,1,99999,9",,"MET079METAR ENSF 270020Z AUTO 03025KT 4300NDV -SHRA BR BKN027/// 00/M06 Q1013 W///S5;",
"01300599999","2010-11-27T00:50:00","4","61.25","1.85","117.65","STATFJORD OIL PLATFORM HELIPORT, FO","FM-15","ENSF ","V020","030,1,N,0123,1","00480,1,9,N","004700,1,N,1","-0010,1","-0050,1","99999,9","81,1",,"07,1,+00480,1,99,9","07,1,+01800,1,99,9",,"07,99,1,99,9,99,9,99999,9,99,9,99,9","10129,1,99999,9","0175,1","MET090METAR ENSF 270050Z AUTO 03024G34KT 4700NDV -SHRA BKN016/// BKN061/// M01/M05 Q1013 W///S5;",
"01300599999","2010-11-27T01:20:00","4","61.25","1.85","117.65","STATFJORD OIL PLATFORM HELIPORT, FO","FM-15","ENSF ","V020","040,1,N,0144,1","00480,1,9,N","011265,1,N,1","-0010,1","-0050,1","99999,9","64,1",,"07,1,+00480,1,99,9","07,1,+01500,1,99,9",,"07,99,1,99,9,99,9,99999,9,99,9,99,9","10129,1,99999,9",,"MET087METAR ENSF 270120Z AUTO 04028KT 9999NDV -FZRA BKN016/// BKN056/// M01/M05 Q1013 W///S5;",
"01300599999","2010-11-27T01:50:00","4","61.25","1.85","117.65","STATFJORD OIL PLATFORM HELIPORT, FO","FM-15","ENSF ","V020","030,1,N,0139,1","00570,1,9,N","002800,1,N,1","-0010,1","-0050,1","99999,9","81,1",,"07,1,+00570,1,99,9","07,1,+00960,1,99,9",,"07,99,1,99,9,99,9,99999,9,99,9,99,9","10129,1,99999,9",,"MET087METAR ENSF 270150Z AUTO 03027KT 2800NDV -SHRA BKN019/// BKN032/// M01/M05 Q1013 W///S5;",
"01300599999","2010-11-27T02:20:00","4","61.25","1.85","117.65","STATFJORD OIL PLATFORM HELIPORT, FO","FM-15","ENSF ","V020","030,1,N,0103,1","22000,1,9,N","011265,1,N,1","-0010,1","-0070,1","99999,9",,,"02,1,+00690,1,99,9",,,"02,99,1,99,9,99,9,99999,9,99,9,99,9","10129,1,99999,9",,"MET078METAR ENSF 270220Z AUTO 03020KT 9999NDV FEW023/// M01/M07 Q1013 REFZRA W///S5;",
"01300599999","2010-11-27T02:50:00","4","61.25","1.85","117.65","STATFJORD OIL PLATFORM HELIPORT, FO","FM-15","ENSF ","V020","040,1,N,0129,1","01110,1,9,N","011265,1,N,1","+0000,1","-0090,1","99999,9","85,1",,"07,1,+01110,1,99,9",,,"07,99,1,99,9,99,9,99999,9,99,9,99,9","10119,1,99999,9",,"MET076METAR ENSF 270250Z AUTO 04025KT 9999NDV -SHSN BKN037/// 00/M09 Q1012 W///S5;",
"01300599999","2010-11-27T03:20:00","4","61.25","1.85","117.65","STATFJORD OIL PLATFORM HELIPORT, FO","FM-15","ENSF ","V020","040,1,N,0123,1","01290,1,9,N","011265,1,N,1","-0010,1","-0100,1","99999,9",,,"07,1,+01290,1,99,9",,,"07,99,1,99,9,99,9,99999,9,99,9,99,9","10119,1,99999,9",,"MET071METAR ENSF 270320Z AUTO 04024KT 9999NDV BKN043/// M01/M10 Q1012 W///S5;",
"01300599999","2010-11-27T03:50:00","4","61.25","1.85","117.65","STATFJORD OIL PLATFORM HELIPORT, FO","FM-15","ENSF ","V020","030,1,N,0118,1","22000,1,9,N","011265,1,N,1","-0010,1","-0090,1","99999,9",,,"04,1,+01230,1,99,9",,,"04,99,1,99,9,99,9,99999,9,99,9,99,9","10119,1,99999,9","0170,1","MET074METAR ENSF 270350Z AUTO 03023G33KT 9999NDV SCT041/// M01/M09 Q1012 W///S5;",
"01300599999","2010-11-27T04:20:00","4","61.25","1.85","117.65","STATFJORD OIL PLATFORM HELIPORT, FO","FM-15","ENSF ","V020","040,1,N,0113,1","01320,1,9,N","011265,1,N,1","-0010,1","-0110,1","99999,9",,,"07,1,+01320,1,99,9",,,"07,99,1,99,9,99,9,99999,9,99,9,99,9","10119,1,99999,9",,"MET071METAR ENSF 270420Z AUTO 04022KT 9999NDV BKN044/// M01/M11 Q1012 W///S5;",
"01300599999","2010-11-27T04:50:00","4","61.25","1.85","117.65","STATFJORD OIL PLATFORM HELIPORT, FO","FM-15","ENSF ","V020","060,1,N,0108,1","01050,1,9,N","011265,1,N,1","-0010,1","-0090,1","99999,9","71,1",,"07,1,+01050,1,99,9","07,1,+01500,1,99,9",,"07,99,1,99,9,99,9,99999,9,99,9,99,9","10119,1,99999,9",,"MET085METAR ENSF 270450Z AUTO 06021KT 9999NDV -SN BKN035/// BKN054/// M01/M09 Q1012 W///S5;",
"01300599999","2010-11-27T05:20:00","4","61.25","1.85","117.65","STATFJORD OIL PLATFORM HELIPORT, FO","FM-15","ENSF ","V020","060,1,N,0087,1","01170,1,9,N","011265,1,N,1","-0010,1","-0090,1","99999,9",,,"07,1,+01170,1,99,9",,,"07,99,1,99,9,99,9,99999,9,99,9,99,9","10119,1,99999,9",,"MET079METAR ENSF 270520Z AUTO 06017KT 030V100 9999NDV BKN039/// M01/M09 Q1012 W///S5;",
"01300599999","2010-11-27T05:50:00","4","61.25","1.85","117.65","STATFJORD OIL PLATFORM HELIPORT, FO","FM-15","ENSF ","V020","070,1,N,0103,1","01020,1,9,N","011265,1,N,1","-0020,1","-0100,1","99999,9","85,1",,"07,1,+01020,1,99,9",,,"07,99,1,99,9,99,9,99999,9,99,9,99,9","10119,1,99999,9",,"MET077METAR ENSF 270550Z AUTO 07020KT 9999NDV -SHSN BKN034/// M02/M10 Q1012 W///S5;",
"01300599999","2010-11-27T06:20:00","4","61.25","1.85","117.65","STATFJORD OIL PLATFORM HELIPORT, FO","FM-15","ENSF ","V020","070,1,N,0113,1","01290,1,9,N","011265,1,N,1","-0010,1","-0110,1","99999,9",,,"07,1,+01290,1,99,9",,,"07,99,1,99,9,99,9,99999,9,99,9,99,9","10119,1,99999,9",,"MET071METAR ENSF 270620Z AUTO 07022KT 9999NDV BKN043/// M01/M11 Q1012 W///S5;",
"01300599999","2010-11-27T06:50:00","4","61.25","1.85","117.65","STATFJORD OIL PLATFORM HELIPORT, FO","FM-15","ENSF ","V020","090,1,N,0103,1","01290,1,9,N","011265,1,N,1","-0010,1","-0090,1","99999,9",,,"07,1,+01290,1,99,9",,,"07,99,1,99,9,99,9,99999,9,99,9,99,9","10119,1,99999,9",,"MET071METAR ENSF 270650Z AUTO 09020KT 9999NDV BKN043/// M01/M09 Q1012 W///S5;",
"01300599999","2010-11-27T07:20:00","4","61.25","1.85","117.65","STATFJORD OIL PLATFORM HELIPORT, FO","FM-15","ENSF ","V020","090,1,N,0108,1","01290,1,9,N","011265,1,N,1","-0020,1","-0100,1","99999,9",,,"02,1,+01020,1,99,9","07,1,+01290,1,99,9",,"07,99,1,99,9,99,9,99999,9,99,9,99,9","10119,1,99999,9",,"MET087METAR ENSF 270720Z AUTO 09021KT 9999NDV -SHPL FEW034/// BKN043/// M02/M10 Q1012 W///S5;",
"01300599999","2010-11-27T07:50:00","4","61.25","1.85","117.65","STATFJORD OIL PLATFORM HELIPORT, FO","FM-15","ENSF ","V020","080,1,N,0118,1","01380,1,9,N","011265,1,N,1","-0020,1","-0110,1","99999,9","85,1",,"02,1,+00690,1,99,9","07,1,+01380,1,99,9",,"07,99,1,99,9,99,9,99999,9,99,9,99,9","10119,1,99999,9",,"MET087METAR ENSF 270750Z AUTO 08023KT 9999NDV -SHSN FEW023/// BKN046/// M02/M11 Q1012 W///S4;",
"01300599999","2010-11-27T08:20:00","4","61.25","1.85","117.65","STATFJORD OIL PLATFORM HELIPORT, FO","FM-15","ENSF ","V020","100,1,N,0108,1","01020,1,9,N","011265,1,N,1","-0020,1","-0070,1","99999,9","81,1",,"02,1,+00720,1,99,9","07,1,+01020,1,99,9",,"07,99,1,99,9,99,9,99999,9,99,9,99,9","10129,1,99999,9",,"MET087METAR ENSF 270820Z AUTO 10021KT 9999NDV -SHRA FEW024/// BKN034/// M02/M07 Q1013 W///S4;",
"01300599999","2010-11-27T08:50:00","4","61.25","1.85","117.65","STATFJORD OIL PLATFORM HELIPORT, FO","FM-15","ENSF ","V020","060,1,N,0087,1","01350,1,9,N","011265,1,N,1","-0020,1","-0070,1","99999,9","71,1",,"02,1,+00510,1,99,9","07,1,+01350,1,99,9","07,1,+01800,1,99,9","07,99,1,99,9,99,9,99999,9,99,9,99,9","10129,1,99999,9",,"MET102METAR ENSF 270850Z AUTO 06017KT 9999NDV -SN FEW017/// BKN045/// BKN061/// M02/M07 Q1013 REFZDZ W///S4;",
"01300599999","2010-11-27T09:20:00","4","61.25","1.85","117.65","STATFJORD OIL PLATFORM HELIPORT, FO","FM-15","ENSF ","V020","090,1,N,0103,1","01230,1,9,N","011265,1,N,1","-0010,1","-0090,1","99999,9",,,"07,1,+01230,1,99,9",,,"07,99,1,99,9,99,9,99999,9,99,9,99,9","10129,1,99999,9",,"MET086METAR ENSF 270920Z AUTO 09020KT 050V110 9999NDV BKN041/// M01/M09 Q1013 REFZDZ W///S4;",
"01300599999","2010-11-27T09:50:00","4","61.25","1.85","117.65","STATFJORD OIL PLATFORM HELIPORT, FO","FM-15","ENSF ","V020","090,1,N,0108,1","01290,1,9,N","011265,1,N,1","-0010,1","-0120,1","99999,9",,,"07,1,+01290,1,99,9",,,"07,99,1,99,9,99,9,99999,9,99,9,99,9","10129,1,99999,9",,"MET071METAR ENSF 270950Z AUTO 09021KT 9999NDV BKN043/// M01/M12 Q1013 W///S4;",
"01300599999","2010-11-27T10:20:00","4","61.25","1.85","117.65","STATFJORD OIL PLATFORM HELIPORT, FO","FM-15","ENSF ","V020","080,1,N,0103,1","01290,1,9,N","003000,1,N,1","-0020,1","-0080,1","99999,9","81,1",,"02,1,+00510,1,99,9","07,1,+01290,1,99,9","07,1,+01800,1,99,9","07,99,1,99,9,99,9,99999,9,99,9,99,9","10129,1,99999,9",,"MET097METAR ENSF 271020Z AUTO 08020KT 3000NDV -SHRA FEW017/// BKN043/// BKN066/// M02/M08 Q1013 W///S4;",
"01300599999","2010-11-27T10:50:00","4","61.25","1.85","117.65","STATFJORD OIL PLATFORM HELIPORT, FO","FM-15","ENSF ","V020","090,1,N,0098,1","01140,1,9,N","011265,1,N,1","-0010,1","-0100,1","99999,9",,,"07,1,+01140,1,99,9",,,"07,99,1,99,9,99,9,99999,9,99,9,99,9","10129,1,99999,9",,"MET071METAR ENSF 271050Z AUTO 09019KT 9999NDV BKN038/// M01/M10 Q1013 W///S4;",
"01300599999","2010-11-27T11:20:00","4","61.25","1.85","117.65","STATFJORD OIL PLATFORM HELIPORT, FO","FM-15","ENSF ","V020","080,1,N,0113,1","01440,1,9,N","011265,1,N,1","-0010,1","-0100,1","99999,9","85,1",,"07,1,+01440,1,99,9",,,"07,99,1,99,9,99,9,99999,9,99,9,99,9","10139,1,99999,9",,"MET077METAR ENSF 271120Z AUTO 08022KT 9999NDV -SHSN BKN048/// M01/M10 Q1014 W///S4;",
"01300599999","2010-11-27T11:50:00","4","61.25","1.85","117.65","STATFJORD OIL PLATFORM HELIPORT, FO","FM-15","ENSF ","V020","080,1,N,0103,1","00960,1,9,N","011265,1,N,1","-0010,1","-0100,1","99999,9","64,1",,"07,1,+00960,1,99,9","07,1,+01500,1,99,9",,"07,99,1,99,9,99,9,99999,9,99,9,99,9","10139,1,99999,9",,"MET087METAR ENSF 271150Z AUTO 08020KT 9999NDV -FZRA BKN032/// BKN055/// M01/M10 Q1014 W///S4;",
"01300599999","2010-11-27T12:20:00","4","61.25","1.85","117.65","STATFJORD OIL PLATFORM HELIPORT, FO","FM-15","ENSF ","V020","070,1,N,0103,1","01440,1,9,N","011265,1,N,1","-0010,1","-0090,1","99999,9",,,"07,1,+01440,1,99,9",,,"07,99,1,99,9,99,9,99999,9,99,9,99,9","10139,1,99999,9",,"MET078METAR ENSF 271220Z AUTO 07020KT 9999NDV BKN048/// M01/M09 Q1014 REFZDZ W///S4;",
"01300599999","2010-11-27T12:50:00","4","61.25","1.85","117.65","STATFJORD OIL PLATFORM HELIPORT, FO","FM-15","ENSF ","V020","090,1,N,0103,1","22000,1,9,N","011265,1,N,1","-0010,1","-0100,1","99999,9",,,"02,1,+01800,1,99,9",,,"02,99,1,99,9,99,9,99999,9,99,9,99,9","10139,1,99999,9",,"MET071METAR ENSF 271250Z AUTO 09020KT 9999NDV FEW066/// M01/M10 Q1014 W///S4;",
"01300599999","2010-11-27T13:20:00","4","61.25","1.85","117.65","STATFJORD OIL PLATFORM HELIPORT, FO","FM-15","ENSF ","V020","070,1,N,0087,1","22000,1,9,N","011265,1,N,1","-0010,1","-0090,1","99999,9",,,"02,1,+00840,1,99,9","04,1,+01500,1,99,9",,"04,99,1,99,9,99,9,99999,9,99,9,99,9","10139,1,99999,9",,"MET089METAR ENSF 271320Z AUTO 07017KT 040V100 9999NDV FEW028/// SCT050/// M01/M09 Q1014 W///S4;",
"01300599999","2010-11-27T13:50:00","4","61.25","1.85","117.65","STATFJORD OIL PLATFORM HELIPORT, FO","FM-15","ENSF ","V020","100,1,N,0098,1","01500,1,9,N","011265,1,N,1","-0010,1","-0090,1","99999,9",,,"02,1,+01080,1,99,9","07,1,+01500,1,99,9","07,1,+01800,1,99,9","07,99,1,99,9,99,9,99999,9,99,9,99,9","10139,1,99999,9",,"MET091METAR ENSF 271350Z AUTO 10019KT 9999NDV FEW036/// BKN053/// BKN062/// M01/M09 Q1014 W///S4;",
"01300599999","2010-11-27T14:20:00","4","61.25","1.85","117.65","STATFJORD OIL PLATFORM HELIPORT, FO","FM-15","ENSF ","V020","070,1,N,0087,1","00960,1,9,N","011265,1,N,1","-0010,1","-0070,1","99999,9","81,1",,"07,1,+00960,1,99,9",,,"07,99,1,99,9,99,9,99999,9,99,9,99,9","10139,1,99999,9",,"MET077METAR ENSF 271420Z AUTO 07017KT 9999NDV -SHRA BKN032/// M01/M07 Q1014 W///S4;",
"01300599999","2010-11-27T14:50:00","4","61.25","1.85","117.65","STATFJORD OIL PLATFORM HELIPORT, FO","FM-15","ENSF ","V020","100,1,N,0077,1","01050,1,9,N","011265,1,N,1","-0010,1","-0090,1","99999,9","85,1",,"07,1,+01050,1,99,9",,,"07,99,1,99,9,99,9,99999,9,99,9,99,9","10139,1,99999,9",,"MET077METAR ENSF 271450Z AUTO 10015KT 9999NDV -SHSN BKN035/// M01/M09 Q1014 W///S4;",
"01300599999","2010-11-27T15:20:00","4","61.25","1.85","117.65","STATFJORD OIL PLATFORM HELIPORT, FO","FM-15","ENSF ","V020","120,1,N,0087,1","01260,1,9,N","011265,1,N,1","+0000,1","-0090,1","99999,9","81,1",,"08,1,+01260,1,99,9",,,"08,99,1,99,9,99,9,99999,9,99,9,99,9","10139,1,99999,9",,"MET076METAR ENSF 271520Z AUTO 12017KT 9999NDV -SHRA OVC042/// 00/M09 Q1014 W///S4;",
"01300599999","2010-11-27T15:50:00","4","61.25","1.85","117.65","STATFJORD OIL PLATFORM HELIPORT, FO","FM-15","ENSF ","V020","090,1,N,0093,1","01290,1,9,N","011265,1,N,1","+0000,1","-0110,1","99999,9",,,"07,1,+01290,1,99,9",,,"07,99,1,99,9,99,9,99999,9,99,9,99,9","10139,1,99999,9",,"MET070METAR ENSF 271550Z AUTO 09018KT 9999NDV BKN043/// 00/M11 Q1014 W///S4;",
"01300599999","2010-11-27T16:20:00","4","61.25","1.85","117.65","STATFJORD OIL PLATFORM HELIPORT, FO","FM-15","ENSF ","V020","090,1,N,0087,1","01020,1,9,N","011265,1,N,1","+0000,1","-0080,1","99999,9","81,1",,"07,1,+01020,1,99,9",,,"07,99,1,99,9,99,9,99999,9,99,9,99,9","10139,1,99999,9",,"MET076METAR ENSF 271620Z AUTO 09017KT 9999NDV -SHRA BKN034/// 00/M08 Q1014 W///S5;",
"01300599999","2010-11-27T16:50:00","4","61.25","1.85","117.65","STATFJORD OIL PLATFORM HELIPORT, FO","FM-15","ENSF ","V020","070,1,N,0103,1","00960,1,9,N","011265,1,N,1","-0010,1","-0070,1","99999,9","81,1",,"07,1,+00960,1,99,9",,,"07,99,1,99,9,99,9,99999,9,99,9,99,9","10139,1,99999,9",,"MET077METAR ENSF 271650Z AUTO 07020KT 9999NDV -SHRA BKN032/// M01/M07 Q1014 W///S4;",
"01300599999","2010-11-27T17:20:00","4","61.25","1.85","117.65","STATFJORD OIL PLATFORM HELIPORT, FO","FM-15","ENSF ","V020","080,1,N,0093,1","22000,1,9,N","011265,1,N,1","-0010,1","-0080,1","99999,9","71,1",,,,,,"10150,1,99999,9",,"MET083METAR ENSF 271720Z AUTO 08018KT 9999NDV -SHFZRA -SN BKN026/// M01/M08 Q1015 W///S5;",
"01300599999","2010-11-27T17:50:00","4","61.25","1.85","117.65","STATFJORD OIL PLATFORM HELIPORT, FO","FM-15","ENSF ","V020","090,1,N,0098,1","03000,1,9,N","011265,1,N,1","+0000,1","-0090,1","99999,9",,,"04,1,+01170,1,99,9","07,1,+03000,1,99,9",,"07,99,1,99,9,99,9,99999,9,99,9,99,9","10149,1,99999,9",,"MET087METAR ENSF 271750Z AUTO 09019KT 9999NDV SCT039/// BKN100/// 00/M09 Q1015 REFZRA W///S5;",
"01300599999","2010-11-27T18:20:00","4","61.25","1.85","117.65","STATFJORD OIL PLATFORM HELIPORT, FO","FM-15","ENSF ","V020","080,1,N,0113,1","02700,1,9,N","011265,1,N,1","+0000,1","-0080,1","99999,9",,,"04,1,+01500,1,99,9","07,1,+02700,1,99,9",,"07,99,1,99,9,99,9,99999,9,99,9,99,9","10149,1,99999,9",,"MET080METAR ENSF 271820Z AUTO 08022KT 9999NDV SCT057/// BKN093/// 00/M08 Q1015 W///S5;",
"01300599999","2010-11-27T18:50:00","4","61.25","1.85","117.65","STATFJORD OIL PLATFORM HELIPORT, FO","FM-15","ENSF ","V020","090,1,N,0108,1","01170,1,9,N","011265,1,N,1","+0000,1","-0080,1","99999,9",,,"07,1,+01170,1,99,9","07,1,+01800,1,99,9",,"07,99,1,99,9,99,9,99999,9,99,9,99,9","10149,1,99999,9",,"MET080METAR ENSF 271850Z AUTO 09021KT 9999NDV BKN039/// BKN060/// 00/M08 Q1015 W///S4;",
"01300599999","2010-11-27T19:20:00","4","61.25","1.85","117.65","STATFJORD OIL PLATFORM HELIPORT, FO","FM-15","ENSF ","V020","080,1,N,0087,1","01170,1,9,N","011265,1,N,1","+0000,1","-0090,1","99999,9","81,1",,"07,1,+01170,1,99,9",,,"07,99,1,99,9,99,9,99999,9,99,9,99,9","10159,1,99999,9",,"MET076METAR ENSF 271920Z AUTO 08017KT 9999NDV -SHRA BKN039/// 00/M09 Q1016 W///S5;",
"01300599999","2010-11-27T19:50:00","4","61.25","1.85","117.65","STATFJORD OIL PLATFORM HELIPORT, FO","FM-15","ENSF ","V020","080,1,N,0098,1","01170,1,9,N","011265,1,N,1","+0000,1","-0090,1","99999,9","81,1",,"07,1,+01170,1,99,9",,,"07,99,1,99,9,99,9,99999,9,99,9,99,9","10159,1,99999,9",,"MET076METAR ENSF 271950Z AUTO 08019KT 9999NDV -SHRA BKN039/// 00/M09 Q1016 W///S5;",
"01300599999","2010-11-27T20:20:00","4","61.25","1.85","117.65","STATFJORD OIL PLATFORM HELIPORT, FO","FM-15","ENSF ","V020","090,1,N,0098,1","01290,1,9,N","011265,1,N,1","+0000,1","-0100,1","99999,9",,,"07,1,+01290,1,99,9",,,"07,99,1,99,9,99,9,99999,9,99,9,99,9","10159,1,99999,9",,"MET070METAR ENSF 272020Z AUTO 09019KT 9999NDV BKN043/// 00/M10 Q1016 W///S4;",
"01300599999","2010-11-27T20:50:00","4","61.25","1.85","117.65","STATFJORD OIL PLATFORM HELIPORT, FO","FM-15","ENSF ","V020","090,1,N,0093,1","01410,1,9,N","011265,1,N,1","+0000,1","-0100,1","99999,9","81,1",,"07,1,+01410,1,99,9",,,"07,99,1,99,9,99,9,99999,9,99,9,99,9","10159,1,99999,9",,"MET076METAR ENSF 272050Z AUTO 09018KT 9999NDV -SHRA BKN047/// 00/M10 Q1016 W///S4;",
"01300599999","2010-11-27T21:20:00","4","61.25","1.85","117.65","STATFJORD OIL PLATFORM HELIPORT, FO","FM-15","ENSF ","V020","090,1,N,0093,1","01260,1,9,N","011265,1,N,1","+0000,1","-0100,1","99999,9",,,"07,1,+01260,1,99,9",,,"07,99,1,99,9,99,9,99999,9,99,9,99,9","10159,1,99999,9",,"MET070METAR ENSF 272120Z AUTO 09018KT 9999NDV BKN042/// 00/M10 Q1016 W///S4;",
"01300599999","2010-11-27T21:50:00","4","61.25","1.85","117.65","STATFJORD OIL PLATFORM HELIPORT, FO","FM-15","ENSF ","V020","090,1,N,0082,1","01230,1,9,N","011265,1,N,1","+0000,1","-0080,1","99999,9",,,"07,1,+01230,1,99,9",,,"07,99,1,99,9,99,9,99999,9,99,9,99,9","10159,1,99999,9",,"MET070METAR ENSF 272150Z AUTO 09016KT 9999NDV BKN041/// 00/M08 Q1016 W///S4;",
"01300599999","2010-11-27T22:20:00","4","61.25","1.85","117.65","STATFJORD OIL PLATFORM HELIPORT, FO","FM-15","ENSF ","V020","070,1,N,0087,1","01230,1,9,N","011265,1,N,1","+0000,1","-0100,1","99999,9",,,"07,1,+01230,1,99,9",,,"07,99,1,99,9,99,9,99999,9,99,9,99,9","10159,1,99999,9",,"MET070METAR ENSF 272220Z AUTO 07017KT 9999NDV BKN041/// 00/M10 Q1016 W///S4;",
"01300599999","2010-11-27T22:50:00","4","61.25","1.85","117.65","STATFJORD OIL PLATFORM HELIPORT, FO","FM-15","ENSF ","V020","080,1,N,0098,1","01320,1,9,N","011265,1,N,1","+0000,1","-0110,1","99999,9",,,"07,1,+01320,1,99,9",,,"07,99,1,99,9,99,9,99999,9,99,9,99,9","10169,1,99999,9",,"MET070METAR ENSF 272250Z AUTO 08019KT 9999NDV BKN044/// 00/M11 Q1017 W///S4;",
"01300599999","2010-11-27T23:20:00","4","61.25","1.85","117.65","STATFJORD OIL PLATFORM HELIPORT, FO","FM-15","ENSF ","V020","070,1,N,0087,1","01290,1,9,N","011265,1,N,1","+0000,1","-0110,1","99999,9",,,"07,1,+01290,1,99,9",,,"07,99,1,99,9,99,9,99999,9,99,9,99,9","10169,1,99999,9",,"MET070METAR ENSF 272320Z AUTO 07017KT 9999NDV BKN043/// 00/M11 Q1017 W///S4;",
"01300599999","2010-11-27T23:50:00","4","61.25","1.85","117.65","STATFJORD OIL PLATFORM HELIPORT, FO","FM-15","ENSF ","V020","060,1,N,0082,1","01290,1,9,N","011265,1,N,1","+0000,1","-0100,1","99999,9",,,"07,1,+01290,1,99,9",,,"07,99,1,99,9,99,9,99999,9,99,9,99,9","10169,1,99999,9",,"MET070METAR ENSF 272350Z AUTO 06016KT 9999NDV BKN043/// 00/M10 Q1017 W///S4;",
"01300599999","2010-11-28T00:20:00","4","61.25","1.85","117.65","STATFJORD OIL PLATFORM HELIPORT, FO","FM-15","ENSF ","V020","080,1,N,0077,1","01200,1,9,N","011265,1,N,1","+0000,1","-0090,1","99999,9",,,"07,1,+01200,1,99,9",,,"07,99,1,99,9,99,9,99999,9,99,9,99,9","10169,1,99999,9",,"MET070METAR ENSF 280020Z AUTO 08015KT 9999NDV BKN040/// 00/M09 Q1017 W///S4;",
"01300599999","2010-11-28T00:50:00","4","61.25","1.85","117.65","STATFJORD OIL PLATFORM HELIPORT, FO","FM-15","ENSF ","V020","080,1,N,0072,1","01230,1,9,N","011265,1,N,1","+0000,1","-0090,1","99999,9",,,"07,1,+01230,1,99,9",,,"07,99,1,99,9,99,9,99999,9,99,9,99,9","10169,1,99999,9",,"MET070METAR ENSF 280050Z AUTO 08014KT 9999NDV BKN041/// 00/M09 Q1017 W///S4;",
"01300599999","2010-11-28T01:20:00","4","61.25","1.85","117.65","STATFJORD OIL PLATFORM HELIPORT, FO","FM-15","ENSF ","V020","080,1,N,0087,1","01170,1,9,N","011265,1,N,1","+0000,1","-0090,1","99999,9","71,1",,"07,1,+01170,1,99,9",,,"07,99,1,99,9,99,9,99999,9,99,9,99,9","10169,1,99999,9",,"MET074METAR ENSF 280120Z AUTO 08017KT 9999NDV -SN BKN039/// 00/M09 Q1017 W///S4;",
"01300599999","2010-11-28T01:50:00","4","61.25","1.85","117.65","STATFJORD OIL PLATFORM HELIPORT, FO","FM-15","ENSF ","V020","080,1,N,0093,1","01140,1,9,N","011265,1,N,1","+0000,1","-0100,1","99999,9",,,"07,1,+01140,1,99,9",,,"07,99,1,99,9,99,9,99999,9,99,9,99,9","10169,1,99999,9",,"MET070METAR ENSF 280150Z AUTO 08018KT 9999NDV BKN038/// 00/M10 Q1017 W///S4;",
"01300599999","2010-11-28T02:20:00","4","61.25","1.85","117.65","STATFJORD OIL PLATFORM HELIPORT, FO","FM-15","ENSF ","V020","080,1,N,0087,1","01320,1,9,N","011265,1,N,1","+0000,1","-0090,1","99999,9",,,"07,1,+01320,1,99,9",,,"07,99,1,99,9,99,9,99999,9,99,9,99,9","10169,1,99999,9",,"MET070METAR ENSF 280220Z AUTO 08017KT 9999NDV BKN044/// 00/M09 Q1017 W///S4;",
"01300599999","2010-11-28T02:50:00","4","61.25","1.85","117.65","STATFJORD OIL PLATFORM HELIPORT, FO","FM-15","ENSF ","V020","080,1,N,0082,1","01260,1,9,N","011265,1,N,1","+0000,1","-0090,1","99999,9",,,"07,1,+01260,1,99,9",,,"07,99,1,99,9,99,9,99999,9,99,9,99,9","10169,1,99999,9",,"MET070METAR ENSF 280250Z AUTO 08016KT 9999NDV BKN042/// 00/M09 Q1017 W///S4;",
"01300599999","2010-11-28T03:20:00","4","61.25","1.85","117.65","STATFJORD OIL PLATFORM HELIPORT, FO","FM-15","ENSF ","V020","060,1,N,0072,1","22000,1,9,N","011265,1,N,1","+0000,1","-0100,1","99999,9",,,"04,1,+01290,1,99,9",,,"04,99,1,99,9,99,9,99999,9,99,9,99,9","10180,1,99999,9",,"MET070METAR ENSF 280320Z AUTO 06014KT 9999NDV SCT043/// 00/M10 Q1018 W///S4;",
"01300599999","2010-11-28T03:50:00","4","61.25","1.85","117.65","STATFJORD OIL PLATFORM HELIPORT, FO","FM-15","ENSF ","V020","070,1,N,0077,1","22000,1,9,N","011265,1,N,1","+0000,1","-0100,1","99999,9",,,"02,1,+01290,1,99,9",,,"02,99,1,99,9,99,9,99999,9,99,9,99,9","10180,1,99999,9",,"MET070METAR ENSF 280350Z AUTO 07015KT 9999NDV FEW043/// 00/M10 Q1018 W///S4;",
"01300599999","2010-11-28T04:20:00","4","61.25","1.85","117.65","STATFJORD OIL PLATFORM HELIPORT, FO","FM-15","ENSF ","V020","060,1,N,0077,1","22000,1,9,N","011265,1,N,1","+0000,1","-0110,1","99999,9",,,"04,1,+01260,1,99,9",,,"04,99,1,99,9,99,9,99999,9,99,9,99,9","10180,1,99999,9",,"MET070METAR ENSF 280420Z AUTO 06015KT 9999NDV SCT042/// 00/M11 Q1018 W///S4;",
"01300599999","2010-11-28T04:50:00","4","61.25","1.85","117.65","STATFJORD OIL PLATFORM HELIPORT, FO","FM-15","ENSF ","V020","060,1,N,0087,1","01290,1,9,N","011265,1,N,1","+0000,1","-0110,1","99999,9",,,"07,1,+01290,1,99,9",,,"07,99,1,99,9,99,9,99999,9,99,9,99,9","10180,1,99999,9",,"MET070METAR ENSF 280450Z AUTO 06017KT 9999NDV BKN043/// 00/M11 Q1018 W///S4;",
"01300599999","2010-11-28T05:20:00","4","61.25","1.85","117.65","STATFJORD OIL PLATFORM HELIPORT, FO","FM-15","ENSF ","V020","070,1,N,0093,1","01230,1,9,N","011265,1,N,1","+0000,1","-0090,1","99999,9",,,"07,1,+01230,1,99,9",,,"07,99,1,99,9,99,9,99999,9,99,9,99,9","10180,1,99999,9",,"MET070METAR ENSF 280520Z AUTO 07018KT 9999NDV BKN041/// 00/M09 Q1018 W///S4;",
"01300599999","2010-11-28T05:50:00","4","61.25","1.85","117.65","STATFJORD OIL PLATFORM HELIPORT, FO","FM-15","ENSF ","V020","070,1,N,0087,1","01200,1,9,N","011265,1,N,1","+0000,1","-0110,1","99999,9",,,"07,1,+01200,1,99,9",,,"07,99,1,99,9,99,9,99999,9,99,9,99,9","10180,1,99999,9",,"MET070METAR ENSF 280550Z AUTO 07017KT 9999NDV BKN040/// 00/M11 Q1018 W///S4;",
"01300599999","2010-11-28T06:20:00","4","61.25","1.85","117.65","STATFJORD OIL PLATFORM HELIPORT, FO","FM-15","ENSF ","V020","070,1,N,0093,1","01170,1,9,N","011265,1,N,1","+0000,1","-0090,1","99999,9",,,"07,1,+01170,1,99,9",,,"07,99,1,99,9,99,9,99999,9,99,9,99,9","10180,1,99999,9",,"MET070METAR ENSF 280620Z AUTO 07018KT 9999NDV BKN039/// 00/M09 Q1018 W///S4;",
"01300599999","2010-11-28T06:50:00","4","61.25","1.85","117.65","STATFJORD OIL PLATFORM HELIPORT, FO","FM-15","ENSF ","V020","070,1,N,0098,1","01230,1,9,N","011265,1,N,1","+0000,1","-0110,1","99999,9",,,"07,1,+01230,1,99,9",,,"07,99,1,99,9,99,9,99999,9,99,9,99,9","10180,1,99999,9",,"MET070METAR ENSF 280650Z AUTO 07019KT 9999NDV BKN041/// 00/M11 Q1018 W///S4;",
"01300599999","2010-11-28T07:20:00","4","61.25","1.85","117.65","STATFJORD OIL PLATFORM HELIPORT, FO","FM-15","ENSF ","V020","080,1,N,0087,1","01200,1,9,N","011265,1,N,1","+0000,1","-0100,1","99999,9",,,"07,1,+01200,1,99,9",,,"07,99,1,99,9,99,9,99999,9,99,9,99,9","10190,1,99999,9",,"MET070METAR ENSF 280720Z AUTO 08017KT 9999NDV BKN040/// 00/M10 Q1019 W///S4;",
"01300599999","2010-11-28T07:50:00","4","61.25","1.85","117.65","STATFJORD OIL PLATFORM HELIPORT, FO","FM-15","ENSF ","V020","080,1,N,0087,1","01230,1,9,N","011265,1,N,1","+0000,1","-0100,1","99999,9",,,"07,1,+01230,1,99,9",,,"07,99,1,99,9,99,9,99999,9,99,9,99,9","10190,1,99999,9",,"MET070METAR ENSF 280750Z AUTO 08017KT 9999NDV BKN041/// 00/M10 Q1019 W///S4;",
"01300599999","2010-11-28T08:20:00","4","61.25","1.85","117.65","STATFJORD OIL PLATFORM HELIPORT, FO","FM-15","ENSF ","V020","070,1,N,0093,1","22000,1,9,N","011265,1,N,1","+0000,1","-0100,1","99999,9",,,"02,1,+01260,1,99,9",,,"02,99,1,99,9,99,9,99999,9,99,9,99,9","10200,1,99999,9",,"MET070METAR ENSF 280820Z AUTO 07018KT 9999NDV FEW042/// 00/M10 Q1020 W///S4;",
"01300599999","2010-11-28T08:50:00","4","61.25","1.85","117.65","STATFJORD OIL PLATFORM HELIPORT, FO","FM-15","ENSF ","V020","080,1,N,0093,1","22000,1,9,N","011265,1,N,1","+0000,1","-0100,1","99999,9",,,"02,1,+01230,1,99,9",,,"02,99,1,99,9,99,9,99999,9,99,9,99,9","10200,1,99999,9",,"MET070METAR ENSF 280850Z AUTO 08018KT 9999NDV FEW041/// 00/M10 Q1020 W///S4;",
"01300599999","2010-11-28T09:20:00","4","61.25","1.85","117.65","STATFJORD OIL PLATFORM HELIPORT, FO","FM-15","ENSF ","V020","070,1,N,0082,1","22000,1,9,N","011265,1,N,1","+0000,1","-0110,1","99999,9",,,"02,1,+01230,1,99,9",,,"02,99,1,99,9,99,9,99999,9,99,9,99,9","10200,1,99999,9",,"MET078METAR ENSF 280920Z AUTO 07016KT 050V110 9999NDV FEW041/// 00/M11 Q1020 W///S4;",
"01300599999","2010-11-28T09:50:00","4","61.25","1.85","117.65","STATFJORD OIL PLATFORM HELIPORT, FO","FM-15","ENSF ","V020","070,1,N,0077,1","22000,1,9,N","011265,1,N,1","+0000,1","-0110,1","99999,9",,,"02,1,+01290,1,99,9",,,"02,99,1,99,9,99,9,99999,9,99,9,99,9","10200,1,99999,9",,"MET078METAR ENSF 280950Z AUTO 07015KT 040V100 9999NDV FEW043/// 00/M11 Q1020 W///S4;",
"01300599999","2010-11-28T10:20:00","4","61.25","1.85","117.65","STATFJORD OIL PLATFORM HELIPORT, FO","FM-15","ENSF ","V020","070,1,N,0077,1","22000,1,9,N","011265,1,N,1","+0000,1","-0100,1","99999,9",,,"02,1,+01260,1,99,9",,,"02,99,1,99,9,99,9,99999,9,99,9,99,9","10210,1,99999,9",,"MET070METAR ENSF 281020Z AUTO 07015KT 9999NDV FEW042/// 00/M10 Q1021 W///S4;",
"01300599999","2010-11-28T10:50:00","4","61.25","1.85","117.65","STATFJORD OIL PLATFORM HELIPORT, FO","FM-15","ENSF ","V020","070,1,N,0072,1","01260,1,9,N","011265,1,N,1","+0000,1","-0100,1","99999,9",,,"07,1,+01260,1,99,9",,,"07,99,1,99,9,99,9,99999,9,99,9,99,9","10210,1,99999,9",,"MET070METAR ENSF 281050Z AUTO 07014KT 9999NDV BKN042/// 00/M10 Q1021 W///S4;",
"01300599999","2010-11-28T11:20:00","4","61.25","1.85","117.65","STATFJORD OIL PLATFORM HELIPORT, FO","FM-15","ENSF ","V020","080,1,N,0087,1","01260,1,9,N","011265,1,N,1","+0000,1","-0120,1","99999,9",,,"07,1,+01260,1,99,9",,,"07,99,1,99,9,99,9,99999,9,99,9,99,9","10210,1,99999,9",,"MET070METAR ENSF 281120Z AUTO 08017KT 9999NDV BKN042/// 00/M12 Q1021 W///S4;",
"01300599999","2010-11-28T11:50:00","4","61.25","1.85","117.65","STATFJORD OIL PLATFORM HELIPORT, FO","FM-15","ENSF ","V020","070,1,N,0077,1","22000,1,9,N","011265,1,N,1","+0000,1","-0100,1","99999,9",,,"04,1,+01350,1,99,9",,,"04,99,1,99,9,99,9,99999,9,99,9,99,9","10210,1,99999,9",,"MET070METAR ENSF 281150Z AUTO 07015KT 9999NDV SCT045/// 00/M10 Q1021 W///S4;",
"01300599999","2010-11-28T12:20:00","4","61.25","1.85","117.65","STATFJORD OIL PLATFORM HELIPORT, FO","FM-15","ENSF ","V020","070,1,N,0077,1","01230,1,9,N","011265,1,N,1","+0000,1","-0100,1","99999,9",,,"07,1,+01230,1,99,9",,,"07,99,1,99,9,99,9,99999,9,99,9,99,9","10220,1,99999,9",,"MET070METAR ENSF 281220Z AUTO 07015KT 9999NDV BKN041/// 00/M10 Q1022 W///S4;",
"01300599999","2010-11-28T12:50:00","4","61.25","1.85","117.65","STATFJORD OIL PLATFORM HELIPORT, FO","FM-15","ENSF ","V020","080,1,N,0067,1","22000,1,9,N","011265,1,N,1","+0000,1","-0100,1","99999,9",,,"04,1,+01230,1,99,9","04,1,+01380,1,99,9",,"04,99,1,99,9,99,9,99999,9,99,9,99,9","10220,1,99999,9",,"MET080METAR ENSF 281250Z AUTO 08013KT 9999NDV SCT041/// SCT046/// 00/M10 Q1022 W///S5;",
"01300599999","2010-11-28T13:20:00","4","61.25","1.85","117.65","STATFJORD OIL PLATFORM HELIPORT, FO","FM-15","ENSF ","V020","080,1,N,0067,1","01290,1,9,N","011265,1,N,1","+0000,1","-0090,1","99999,9",,,"07,1,+01290,1,99,9",,,"07,99,1,99,9,99,9,99999,9,99,9,99,9","10220,1,99999,9",,"MET070METAR ENSF 281320Z AUTO 08013KT 9999NDV BKN043/// 00/M09 Q1022 W///S4;",
"01300599999","2010-11-28T13:50:00","4","61.25","1.85","117.65","STATFJORD OIL PLATFORM HELIPORT, FO","FM-15","ENSF ","V020","070,1,N,0077,1","01200,1,9,N","011265,1,N,1","+0000,1","-0090,1","99999,9",,,"07,1,+01200,1,99,9",,,"07,99,1,99,9,99,9,99999,9,99,9,99,9","10210,1,99999,9",,"MET070METAR ENSF 281350Z AUTO 07015KT 9999NDV BKN040/// 00/M09 Q1021 W///S4;",
"01300599999","2010-11-28T14:20:00","4","61.25","1.85","117.65","STATFJORD OIL PLATFORM HELIPORT, FO","FM-15","ENSF ","V020","070,1,N,0077,1","01170,1,9,N","011265,1,N,1","+0000,1","-0090,1","99999,9",,,"07,1,+01170,1,99,9",,,"07,99,1,99,9,99,9,99999,9,99,9,99,9","10210,1,99999,9",,"MET070METAR ENSF 281420Z AUTO 07015KT 9999NDV BKN039/// 00/M09 Q1021 W///S4;",
"01300599999","2010-11-28T14:50:00","4","61.25","1.85","117.65","STATFJORD OIL PLATFORM HELIPORT, FO","FM-15","ENSF ","V020","070,1,N,0082,1","01140,1,9,N","011265,1,N,1","+0000,1","-0090,1","99999,9",,,"07,1,+01140,1,99,9",,,"07,99,1,99,9,99,9,99999,9,99,9,99,9","10210,1,99999,9",,"MET070METAR ENSF 281450Z AUTO 07016KT 9999NDV BKN038/// 00/M09 Q1021 W///S4;",
"01300599999","2010-11-28T15:20:00","4","61.25","1.85","117.65","STATFJORD OIL PLATFORM HELIPORT, FO","FM-15","ENSF ","V020","070,1,N,0082,1","01140,1,9,N","011265,1,N,1","+0000,1","-0090,1","99999,9",,,"07,1,+01140,1,99,9",,,"07,99,1,99,9,99,9,99999,9,99,9,99,9","10220,1,99999,9",,"MET070METAR ENSF 281520Z AUTO 07016KT 9999NDV BKN038/// 00/M09 Q1022 W///S5;",
"01300599999","2010-11-28T15:50:00","4","61.25","1.85","117.65","STATFJORD OIL PLATFORM HELIPORT, FO","FM-15","ENSF ","V020","070,1,N,0082,1","22000,1,9,N","011265,1,N,1","+0000,1","-0090,1","99999,9",,,"04,1,+01170,1,99,9",,,"04,99,1,99,9,99,9,99999,9,99,9,99,9","10220,1,99999,9",,"MET070METAR ENSF 281550Z AUTO 07016KT 9999NDV SCT039/// 00/M09 Q1022 W///S4;",
"01300599999","2010-11-28T16:20:00","4","61.25","1.85","117.65","STATFJORD OIL PLATFORM HELIPORT, FO","FM-15","ENSF ","V020","070,1,N,0098,1","22000,1,9,N","011265,1,N,1","+0000,1","-0100,1","99999,9",,,"04,1,+01170,1,99,9",,,"04,99,1,99,9,99,9,99999,9,99,9,99,9","10220,1,99999,9",,"MET070METAR ENSF 281620Z AUTO 07019KT 9999NDV SCT039/// 00/M10 Q1022 W///S4;",
"01300599999","2010-11-28T16:50:00","4","61.25","1.85","117.65","STATFJORD OIL PLATFORM HELIPORT, FO","FM-15","ENSF ","V020","070,1,N,0093,1","22000,1,9,N","011265,1,N,1","+0000,1","-0090,1","99999,9",,,"02,1,+01260,1,99,9",,,"02,99,1,99,9,99,9,99999,9,99,9,99,9","10220,1,99999,9",,"MET070METAR ENSF 281650Z AUTO 07018KT 9999NDV FEW042/// 00/M09 Q1022 W///S4;",
"01300599999","2010-11-28T17:20:00","4","61.25","1.85","117.65","STATFJORD OIL PLATFORM HELIPORT, FO","FM-15","ENSF ","V020","080,1,N,0087,1","22000,1,9,N","011265,1,N,1","+0000,1","-0100,1","99999,9",,,"04,1,+01170,1,99,9",,,"04,99,1,99,9,99,9,99999,9,99,9,99,9","10220,1,99999,9",,"MET070METAR ENSF 281720Z AUTO 08017KT 9999NDV SCT039/// 00/M10 Q1022 W///S4;",
"01300599999","2010-11-28T17:50:00","4","61.25","1.85","117.65","STATFJORD OIL PLATFORM HELIPORT, FO","FM-15","ENSF ","V020","070,1,N,0098,1","22000,1,9,N","011265,1,N,1","-0010,1","-0100,1","99999,9",,,,,,"00,99,1,99,9,99,9,99999,9,99,9,99,9","10220,1,99999,9",,"MET065METAR ENSF 281750Z AUTO 07019KT 9999NDV NCD M01/M10 Q1022 W///S4;","Q01    003SCCGA1"
"01300599999","2010-11-28T18:20:00","4","61.25","1.85","117.65","STATFJORD OIL PLATFORM HELIPORT, FO","FM-15","ENSF ","V020","070,1,N,0093,1","22000,1,9,N","011265,1,N,1","-0010,1","-0090,1","99999,9",,,,,,"00,99,1,99,9,99,9,99999,9,99,9,99,9","10220,1,99999,9",,"MET065METAR ENSF 281820Z AUTO 07018KT 9999NDV NCD M01/M09 Q1022 W///S4;","Q01    003SCCGA1"
"01300599999","2010-11-28T18:50:00","4","61.25","1.85","117.65","STATFJORD OIL PLATFORM HELIPORT, FO","FM-15","ENSF ","V020","060,1,N,0087,1","22000,1,9,N","011265,1,N,1","-0010,1","-0100,1","99999,9",,,"02,1,+01230,1,99,9",,,"02,99,1,99,9,99,9,99999,9,99,9,99,9","10220,1,99999,9",,"MET071METAR ENSF 281850Z AUTO 06017KT 9999NDV FEW041/// M01/M10 Q1022 W///S4;",
"01300599999","2010-11-28T19:20:00","4","61.25","1.85","117.65","STATFJORD OIL PLATFORM HELIPORT, FO","FM-15","ENSF ","V020","050,1,N,0098,1","22000,1,9,N","011265,1,N,1","+0000,1","-0100,1","99999,9",,,"04,1,+01170,1,99,9",,,"04,99,1,99,9,99,9,99999,9,99,9,99,9","10220,1,99999,9",,"MET070METAR ENSF 281920Z AUTO 05019KT 9999NDV SCT039/// 00/M10 Q1022 W///S4;",
"01300599999","2010-11-28T19:50:00","4","61.25","1.85","117.65","STATFJORD OIL PLATFORM HELIPORT, FO","FM-15","ENSF ","V020","050,1,N,0103,1","01200,1,9,N","011265,1,N,1","+0000,1","-0100,1","99999,9",,,"07,1,+01200,1,99,9",,,"07,99,1,99,9,99,9,99999,9,99,9,99,9","10220,1,99999,9",,"MET070METAR ENSF 281950Z AUTO 05020KT 9999NDV BKN040/// 00/M10 Q1022 W///S4;",
"01300599999","2010-11-28T20:20:00","4","61.25","1.85","117.65","STATFJORD OIL PLATFORM HELIPORT, FO","FM-15","ENSF ","V020","060,1,N,0113,1","01230,1,9,N","011265,1,N,1","+0000,1","-0100,1","99999,9",,,"07,1,+01230,1,99,9",,,"07,99,1,99,9,99,9,99999,9,99,9,99,9","10220,1,99999,9",,"MET070METAR ENSF 282020Z AUTO 06022KT 9999NDV BKN041/// 00/M10 Q1022 W///S4;",
"01300599999","2010-11-28T20:50:00","4","61.25","1.85","117.65","STATFJORD OIL PLATFORM HELIPORT, FO","FM-15","ENSF ","V020","070,1,N,0108,1","01170,1,9,N","011265,1,N,1","+0000,1","-0100,1","99999,9",,,"07,1,+01170,1,99,9",,,"07,99,1,99,9,99,9,99999,9,99,9,99,9","10220,1,99999,9",,"MET070METAR ENSF 282050Z AUTO 07021KT 9999NDV BKN039/// 00/M10 Q1022 W///S4;",
"01300599999","2010-11-28T21:20:00","4","61.25","1.85","117.65","STATFJORD OIL PLATFORM HELIPORT, FO","FM-15","ENSF ","V020","070,1,N,0093,1","01170,1,9,N","011265,1,N,1","+0000,1","-0090,1","99999,9",,,"07,1,+01170,1,99,9",,,"07,99,1,99,9,99,9,99999,9,99,9,99,9","10220,1,99999,9",,"MET070METAR ENSF 282120Z AUTO 07018KT 9999NDV BKN039/// 00/M09 Q1022 W///S4;",
"01300599999","2010-11-28T21:50:00","4","61.25","1.85","117.65","STATFJORD OIL PLATFORM HELIPORT, FO","FM-15","ENSF ","V020","060,1,N,0103,1","01170,1,9,N","011265,1,N,1","+0000,1","-0090,1","99999,9",,,"07,1,+01170,1,99,9",,,"07,99,1,99,9,99,9,99999,9,99,9,99,9","10220,1,99999,9",,"MET070METAR ENSF 282150Z AUTO 06020KT 9999NDV BKN039/// 00/M09 Q1022 W///S4;",
"01300599999","2010-11-28T22:20:00","4","61.25","1.85","117.65","STATFJORD OIL PLATFORM HELIPORT, FO","FM-15","ENSF ","V020","070,1,N,0108,1","01170,1,9,N","011265,1,N,1","+0000,1","-0080,1","99999,9",,,"07,1,+01170,1,99,9",,,"07,99,1,99,9,99,9,99999,9,99,9,99,9","10220,1,99999,9",,"MET070METAR ENSF 282220Z AUTO 07021KT 9999NDV BKN039/// 00/M08 Q1022 W///S4;",
"01300599999","2010-11-28T22:50:00","4","61.25","1.85","117.65","STATFJORD OIL PLATFORM HELIPORT, FO","FM-15","ENSF ","V020","070,1,N,0113,1","01140,1,9,N","011265,1,N,1","+0000,1","-0090,1","99999,9",,,"07,1,+01140,1,99,9",,,"07,99,1,99,9,99,9,99999,9,99,9,99,9","10230,1,99999,9",,"MET070METAR ENSF 282250Z AUTO 07022KT 9999NDV BKN038/// 00/M09 Q1023 W///S4;",
"01300599999","2010-11-28T23:20:00","4","61.25","1.85","117.65","STATFJORD OIL PLATFORM HELIPORT, FO","FM-15","ENSF ","V020","070,1,N,0113,1","01140,1,9,N","011265,1,N,1","+0000,1","-0090,1","99999,9",,,"07,1,+01140,1,99,9",,,"07,99,1,99,9,99,9,99999,9,99,9,99,9","10230,1,99999,9",,"MET070METAR ENSF 282320Z AUTO 07022KT 9999NDV BKN038/// 00/M09 Q1023 W///S4;",
"01300599999","2010-11-28T23:50:00","4","61.25","1.85","117.65","STATFJORD OIL PLATFORM HELIPORT, FO","FM-15","ENSF ","V020","090,1,N,0103,1","01140,1,9,N","011265,1,N,1","+0000,1","-0080,1","99999,9",,,"08,1,+01140,1,99,9",,,"08,99,1,99,9,99,9,99999,9,99,9,99,9","10230,1,99999,9",,"MET070METAR ENSF 282350Z AUTO 09020KT 9999NDV OVC038/// 00/M08 Q1023 W///S4;",
"01300599999","2010-11-29T00:20:00","4","61.25","1.85","117.65","STATFJORD OIL PLATFORM HELIPORT, FO","FM-15","ENSF ","V020","090,1,N,0098,1","01140,1,9,N","011265,1,N,1","+0000,1","-0080,1","99999,9",,,"07,1,+01140,1,99,9",,,"07,99,1,99,9,99,9,99999,9,99,9,99,9","10230,1,99999,9",,"MET070METAR ENSF 290020Z AUTO 09019KT 9999NDV BKN038/// 00/M08 Q1023 W///S4;",
"01300599999","2010-11-29T00:50:00","4","61.25","1.85","117.65","STATFJORD OIL PLATFORM HELIPORT, FO","FM-15","ENSF ","V020","080,1,N,0087,1","01110,1,9,N","011265,1,N,1","+0000,1","-0080,1","99999,9",,,"07,1,+01110,1,99,9",,,"07,99,1,99,9,99,9,99999,9,99,9,99,9","10230,1,99999,9",,"MET070METAR ENSF 290050Z AUTO 08017KT 9999NDV BKN037/// 00/M08 Q1023 W///S4;",
"01300599999","2010-11-29T01:20:00","4","61.25","1.85","117.65","STATFJORD OIL PLATFORM HELIPORT, FO","FM-15","ENSF ","V020","100,1,N,0087,1","01110,1,9,N","011265,1,N,1","+0000,1","-0080,1","99999,9",,,"08,1,+01110,1,99,9",,,"08,99,1,99,9,99,9,99999,9,99,9,99,9","10230,1,99999,9",,"MET070METAR ENSF 290120Z AUTO 10017KT 9999NDV OVC037/// 00/M08 Q1023 W///S4;",
"01300599999","2010-11-29T01:50:00","4","61.25","1.85","117.65","STATFJORD OIL PLATFORM HELIPORT, FO","FM-15","ENSF ","V020","110,1,N,0082,1","01200,1,9,N","011265,1,N,1","+0010,1","-0090,1","99999,9",,,"07,1,+01200,1,99,9",,,"07,99,1,99,9,99,9,99999,9,99,9,99,9","10230,1,99999,9",,"MET070METAR ENSF 290150Z AUTO 11016KT 9999NDV BKN040/// 01/M09 Q1023 W///S4;",
"01300599999","2010-11-29T02:20:00","4","61.25","1.85","117.65","STATFJORD OIL PLATFORM HELIPORT, FO","FM-15","ENSF ","V020","100,1,N,0077,1","01140,1,9,N","011265,1,N,1","+0010,1","-0080,1","99999,9",,,"07,1,+01140,1,99,9",,,"07,99,1,99,9,99,9,99999,9,99,9,99,9","10230,1,99999,9",,"MET070METAR ENSF 290220Z AUTO 10015KT 9999NDV BKN038/// 01/M08 Q1023 W///S4;",
"01300599999","2010-11-29T02:50:00","4","61.25","1.85","117.65","STATFJORD OIL PLATFORM HELIPORT, FO","FM-15","ENSF ","V020","090,1,N,0072,1","01080,1,9,N","011265,1,N,1","+0010,1","-0080,1","99999,9",,,"07,1,+01080,1,99,9",,,"07,99,1,99,9,99,9,99999,9,99,9,99,9","10230,1,99999,9",,"MET078METAR ENSF 290250Z AUTO 09014KT 060V120 9999NDV BKN036/// 01/M08 Q1023 W///S4;",
"01300599999","2010-11-29T03:20:00","4","61.25","1.85","117.65","STATFJORD OIL PLATFORM HELIPORT, FO","FM-15","ENSF ","V020","090,1,N,0082,1","01110,1,9,N","011265,1,N,1","+0010,1","-0080,1","99999,9",,,"07,1,+01110,1,99,9",,,"07,99,1,99,9,99,9,99999,9,99,9,99,9","10240,1,99999,9",,"MET070METAR ENSF 290320Z AUTO 09016KT 9999NDV BKN037/// 01/M08 Q1024 W///S4;",
"01300599999","2010-11-29T03:50:00","4","61.25","1.85","117.65","STATFJORD OIL PLATFORM HELIPORT, FO","FM-15","ENSF ","V020","100,1,N,0077,1","01140,1,9,N","011265,1,N,1","+0010,1","-0080,1","99999,9",,,"07,1,+01140,1,99,9",,,"07,99,1,99,9,99,9,99999,9,99,9,99,9","10240,1,99999,9",,"MET070METAR ENSF 290350Z AUTO 10015KT 9999NDV BKN038/// 01/M08 Q1024 W///S4;",
"01300599999","2010-11-29T04:20:00","4","61.25","1.85","117.65","STATFJORD OIL PLATFORM HELIPORT, FO","FM-15","ENSF ","V020","100,1,N,0067,1","01080,1,9,N","011265,1,N,1","+0010,1","-0070,1","99999,9",,,"07,1,+01080,1,99,9",,,"07,99,1,99,9,99,9,99999,9,99,9,99,9","10240,1,99999,9",,"MET070METAR ENSF 290420Z AUTO 10013KT 9999NDV BKN036/// 01/M07 Q1024 W///S4;",
"01300599999","2010-11-29T04:50:00","4","61.25","1.85","117.65","STATFJORD OIL PLATFORM HELIPORT, FO","FM-15","ENSF ","V020","090,1,N,0046,1","01080,1,9,N","011265,1,N,1","+0010,1","-0080,1","99999,9",,,"07,1,+01080,1,99,9",,,"07,99,1,99,9,99,9,99999,9,99,9,99,9","10251,1,99999,9",,"MET070METAR ENSF 290450Z AUTO 09009KT 9999NDV BKN036/// 01/M08 Q1025 W///S4;",
"01300599999","2010-11-29T05:20:00","4","61.25","1.85","117.65","STATFJORD OIL PLATFORM HELIPORT, FO","FM-15","ENSF ","V020","100,1,N,0051,1","01080,1,9,N","011265,1,N,1","+0010,1","-0070,1","99999,9",,,"08,1,+01080,1,99,9",,,"08,99,1,99,9,99,9,99999,9,99,9,99,9","10251,1,99999,9",,"MET070METAR ENSF 290520Z AUTO 10010KT 9999NDV OVC036/// 01/M07 Q1025 W///S4;",
"01300599999","2010-11-29T05:50:00","4","61.25","1.85","117.65","STATFJORD OIL PLATFORM HELIPORT, FO","FM-15","ENSF ","V020","110,1,N,0051,1","01080,1,9,N","011265,1,N,1","+0010,1","-0080,1","99999,9",,,"07,1,+01080,1,99,9",,,"07,99,1,99,9,99,9,99999,9,99,9,99,9","10251,1,99999,9",,"MET078METAR ENSF 290550Z AUTO 11010KT 070V140 9999NDV BKN036/// 01/M08 Q1025 W///S4;",
"01300599999","2010-11-29T06:20:00","4","61.25","1.85","117.65","STATFJORD OIL PLATFORM HELIPORT, FO","FM-15","ENSF ","V020","090,1,N,0051,1","01080,1,9,N","011265,1,N,1","+0010,1","-0070,1","99999,9",,,"07,1,+01080,1,99,9",,,"07,99,1,99,9,99,9,99999,9,99,9,99,9","10251,1,99999,9",,"MET070METAR ENSF 290620Z AUTO 09010KT 9999NDV BKN036/// 01/M07 Q1025 W///S4;",
"01300599999","2010-11-29T06:50:00","4","61.25","1.85","117.65","STATFJORD OIL PLATFORM HELIPORT, FO","FM-15","ENSF ","V020","100,1,N,0051,1","01110,1,9,N","011265,1,N,1","+0010,1","-0080,1","99999,9",,,"07,1,+01110,1,99,9",,,"07,99,1,99,9,99,9,99999,9,99,9,99,9","10261,1,99999,9",,"MET070METAR ENSF 290650Z AUTO 10010KT 9999NDV BKN037/// 01/M08 Q1026 W///S4;",
"01300599999","2010-11-29T07:20:00","4","61.25","1.85","117.65","STATFJORD OIL PLATFORM HELIPORT, FO","FM-15","ENSF ","V020","100,1,N,0046,1","01110,1,9,N","011265,1,N,1","+0020,1","-0070,1","99999,9",,,"07,1,+01110,1,99,9",,,"07,99,1,99,9,99,9,99999,9,99,9,99,9","10251,1,99999,9",,"MET070METAR ENSF 290720Z AUTO 10009KT 9999NDV BKN037/// 02/M07 Q1025 W///S4;",
"01300599999","2010-11-29T07:50:00","4","61.25","1.85","117.65","STATFJORD OIL PLATFORM HELIPORT, FO","FM-15","ENSF ","V020","080,1,N,0051,1","01110,1,9,N","011265,1,N,1","+0020,1","-0070,1","99999,9",,,"07,1,+01110,1,99,9",,,"07,99,1,99,9,99,9,99999,9,99,9,99,9","10261,1,99999,9",,"MET078METAR ENSF 290750Z AUTO 08010KT 050V120 9999NDV BKN037/// 02/M07 Q1026 W///S4;",
"01300599999","2010-11-29T08:20:00","4","61.25","1.85","117.65","STATFJORD OIL PLATFORM HELIPORT, FO","FM-15","ENSF ","V020","100,1,N,0057,1","01170,1,9,N","011265,1,N,1","+0020,1","-0070,1","99999,9",,,"07,1,+01170,1,99,9",,,"07,99,1,99,9,99,9,99999,9,99,9,99,9","10271,1,99999,9",,"MET070METAR ENSF 290820Z AUTO 10011KT 9999NDV BKN039/// 02/M07 Q1027 W///S4;",
"01300599999","2010-11-29T08:50:00","4","61.25","1.85","117.65","STATFJORD OIL PLATFORM HELIPORT, FO","FM-15","ENSF ","V020","090,1,N,0041,1","01230,1,9,N","011265,1,N,1","+0020,1","-0080,1","99999,9",,,"07,1,+01230,1,99,9",,,"07,99,1,99,9,99,9,99999,9,99,9,99,9","10271,1,99999,9",,"MET070METAR ENSF 290850Z AUTO 09008KT 9999NDV BKN041/// 02/M08 Q1027 W///S4;",
"01300599999","2010-11-29T09:20:00","4","61.25","1.85","117.65","STATFJORD OIL PLATFORM HELIPORT, FO","FM-15","ENSF ","V020","120,1,N,0046,1","01230,1,9,N","011265,1,N,1","+0020,1","-0070,1","99999,9",,,"08,1,+01230,1,99,9",,,"08,99,1,99,9,99,9,99999,9,99,9,99,9","10281,1,99999,9",,"MET078METAR ENSF 290920Z AUTO 12009KT 080V170 9999NDV OVC041/// 02/M07 Q1028 W///S4;",
"01300599999","2010-11-29T09:50:00","4","61.25","1.85","117.65","STATFJORD OIL PLATFORM HELIPORT, FO","FM-15","ENSF ","V020","100,1,N,0036,1","01230,1,9,N","011265,1,N,1","+0030,1","-0070,1","99999,9",,,"08,1,+01230,1,99,9",,,"08,99,1,99,9,99,9,99999,9,99,9,99,9","10281,1,99999,9",,"MET078METAR ENSF 290950Z AUTO 10007KT 060V140 9999NDV OVC041/// 03/M07 Q1028 W///S4;",
"01300599999","2010-11-29T10:20:00","4","61.25","1.85","117.65","STATFJORD OIL PLATFORM HELIPORT, FO","FM-15","ENSF ","V020","100,1,N,0036,1","01230,1,9,N","011265,1,N,1","+0030,1","-0070,1","99999,9",,,"08,1,+01230,1,99,9",,,"08,99,1,99,9,99,9,99999,9,99,9,99,9","10281,1,99999,9",,"MET070METAR ENSF 291020Z AUTO 10007KT 9999NDV OVC041/// 03/M07 Q1028 W///S4;",
"01300599999","2010-11-29T10:50:00","4","61.25","1.85","117.65","STATFJORD OIL PLATFORM HELIPORT, FO","FM-15","ENSF ","V020","110,1,N,0036,1","01170,1,9,N","011265,1,N,1","+0030,1","-0070,1","99999,9",,,"08,1,+01170,1,99,9",,,"08,99,1,99,9,99,9,99999,9,99,9,99,9","10281,1,99999,9",,"MET078METAR ENSF 291050Z AUTO 11007KT 080V170 9999NDV OVC039/// 03/M07 Q1028 W///S4;",
"01300599999","2010-11-29T11:20:00","4","61.25","1.85","117.65","STATFJORD OIL PLATFORM HELIPORT, FO","FM-15","ENSF ","V020","070,1,N,0031,1","01170,1,9,N","011265,1,N,1","+0030,1","-0060,1","99999,9",,,"08,1,+01170,1,99,9",,,"08,99,1,99,9,99,9,99999,9,99,9,99,9","10281,1,99999,9",,"MET070METAR ENSF 291120Z AUTO 07006KT 9999NDV OVC039/// 03/M06 Q1028 W///S4;",
"01300599999","2010-11-29T11:50:00","4","61.25","1.85","117.65","STATFJORD OIL PLATFORM HELIPORT, FO","FM-15","ENSF ","V020","080,1,N,0031,1","01140,1,9,N","011265,1,N,1","+0030,1","-0060,1","99999,9",,,"08,1,+01140,1,99,9",,,"08,99,1,99,9,99,9,99999,9,99,9,99,9","10281,1,99999,9",,"MET070METAR ENSF 291150Z AUTO 08006KT 9999NDV OVC038/// 03/M06 Q1028 W///S4;",
"01300599999","2010-11-29T12:20:00","4","61.25","1.85","117.65","STATFJORD OIL PLATFORM HELIPORT, FO","FM-15","ENSF ","V020","050,1,N,0026,1","01290,1,9,N","011265,1,N,1","+0020,1","-0060,1","99999,9",,,"08,1,+01290,1,99,9",,,"08,99,1,99,9,99,9,99999,9,99,9,99,9","10281,1,99999,9",,"MET078METAR ENSF 291220Z AUTO 05005KT 030V100 9999NDV OVC043/// 02/M06 Q1028 W///S4;",
"01300599999","2010-11-29T12:50:00","4","61.25","1.85","117.65","STATFJORD OIL PLATFORM HELIPORT, FO","FM-15","ENSF ","V020","040,1,N,0026,1","01320,1,9,N","011265,1,N,1","+0020,1","-0060,1","99999,9",,,"08,1,+01320,1,99,9",,,"08,99,1,99,9,99,9,99999,9,99,9,99,9","10281,1,99999,9",,"MET078METAR ENSF 291250Z AUTO 04005KT 350V080 9999NDV OVC044/// 02/M06 Q1028 W///S4;",
"01300599999","2010-11-29T13:20:00","4","61.25","1.85","117.65","STATFJORD OIL PLATFORM HELIPORT, FO","FM-15","ENSF ","V020","030,1,N,0021,1","01380,1,9,N","011265,1,N,1","+0020,1","-0060,1","99999,9",,,"08,1,+01380,1,99,9",,,"08,99,1,99,9,99,9,99999,9,99,9,99,9","10281,1,99999,9",,"MET078METAR ENSF 291320Z AUTO 03004KT 010V070 9999NDV OVC046/// 02/M06 Q1028 W///S4;",
"01300599999","2010-11-29T13:50:00","4","61.25","1.85","117.65","STATFJORD OIL PLATFORM HELIPORT, FO","FM-15","ENSF ","V020","030,1,N,0026,1","01290,1,9,N","011265,1,N,1","+0020,1","-0070,1","99999,9",,,"02,1,+01140,1,99,9","08,1,+01290,1,99,9",,"08,99,1,99,9,99,9,99999,9,99,9,99,9","10281,1,99999,9",,"MET080METAR ENSF 291350Z AUTO 03005KT 9999NDV FEW038/// OVC043/// 02/M07 Q1028 W///S4;",
"01300599999","2010-11-29T14:20:00","4","61.25","1.85","117.65","STATFJORD OIL PLATFORM HELIPORT, FO","FM-15","ENSF ","V020","010,1,N,0041,1","01260,1,9,N","011265,1,N,1","+0020,1","-0060,1","99999,9",,,"08,1,+01260,1,99,9",,,"08,99,1,99,9,99,9,99999,9,99,9,99,9","10281,1,99999,9",,"MET070METAR ENSF 291420Z AUTO 01008KT 9999NDV OVC042/// 02/M06 Q1028 W///S4;",
"01300599999","2010-11-29T14:50:00","4","61.25","1.85","117.65","STATFJORD OIL PLATFORM HELIPORT, FO","FM-15","ENSF ","V020","010,1,N,0041,1","01290,1,9,N","011265,1,N,1","+0020,1","-0050,1","99999,9",,,"08,1,+01290,1,99,9",,,"08,99,1,99,9,99,9,99999,9,99,9,99,9","10281,1,99999,9",,"MET078METAR ENSF 291450Z AUTO 01008KT 340V040 9999NDV OVC043/// 02/M05 Q1028 W///S4;",
"01300599999","2010-11-29T15:20:00","4","61.25","1.85","117.65","STATFJORD OIL PLATFORM HELIPORT, FO","FM-15","ENSF ","V020","010,1,N,0051,1","01350,1,9,N","011265,1,N,1","+0020,1","-0060,1","99999,9",,,"08,1,+01350,1,99,9",,,"08,99,1,99,9,99,9,99999,9,99,9,99,9","10281,1,99999,9",,"MET070METAR ENSF 291520Z AUTO 01010KT 9999NDV OVC045/// 02/M06 Q1028 W///S4;",
"01300599999","2010-11-29T15:50:00","4","61.25","1.85","117.65","STATFJORD OIL PLATFORM HELIPORT, FO","FM-15","ENSF ","V020","020,1,N,0046,1","01050,1,9,N","011265,1,N,1","+0020,1","-0060,1","99999,9",,,"08,1,+01050,1,99,9",,,"08,99,1,99,9,99,9,99999,9,99,9,99,9","10281,1,99999,9",,"MET070METAR ENSF 291550Z AUTO 02009KT 9999NDV OVC035/// 02/M06 Q1028 W///S4;",
"01300599999","2010-11-29T16:20:00","4","61.25","1.85","117.65","STATFJORD OIL PLATFORM HELIPORT, FO","FM-15","ENSF ","V020","020,1,N,0057,1","01320,1,9,N","011265,1,N,1","+0020,1","-0070,1","99999,9",,,"08,1,+01320,1,99,9",,,"08,99,1,99,9,99,9,99999,9,99,9,99,9","10281,1,99999,9",,"MET070METAR ENSF 291620Z AUTO 02011KT 9999NDV OVC044/// 02/M07 Q1028 W///S4;",
"01300599999","2010-11-29T16:50:00","4","61.25","1.85","117.65","STATFJORD OIL PLATFORM HELIPORT, FO","FM-15","ENSF ","V020","010,1,N,0051,1","01500,1,9,N","011265,1,N,1","+0020,1","-0060,1","99999,9",,,"02,1,+01170,1,99,9","07,1,+01500,1,99,9",,"07,99,1,99,9,99,9,99999,9,99,9,99,9","10281,1,99999,9",,"MET080METAR ENSF 291650Z AUTO 01010KT 9999NDV FEW039/// BKN052/// 02/M06 Q1028 W///S4;",
"01300599999","2010-11-29T17:20:00","4","61.25","1.85","117.65","STATFJORD OIL PLATFORM HELIPORT, FO","FM-15","ENSF ","V020","010,1,N,0046,1","01350,1,9,N","011265,1,N,1","+0020,1","-0070,1","99999,9",,,"08,1,+01350,1,99,9",,,"08,99,1,99,9,99,9,99999,9,99,9,99,9","10281,1,99999,9",,"MET070METAR ENSF 291720Z AUTO 01009KT 9999NDV OVC045/// 02/M07 Q1028 W///S4;",
"01300599999","2010-11-29T17:50:00","4","61.25","1.85","117.65","STATFJORD OIL PLATFORM HELIPORT, FO","FM-15","ENSF ","V020","030,1,N,0057,1","01410,1,9,N","011265,1,N,1","+0020,1","-0070,1","99999,9",,,"07,1,+01410,1,99,9",,,"07,99,1,99,9,99,9,99999,9,99,9,99,9","10281,1,99999,9",,"MET070METAR ENSF 291750Z AUTO 03011KT 9999NDV BKN047/// 02/M07 Q1028 W///S4;",
"01300599999","2010-11-29T18:20:00","4","61.25","1.85","117.65","STATFJORD OIL PLATFORM HELIPORT, FO","FM-15","ENSF ","V020","020,1,N,0057,1","22000,1,9,N","011265,1,N,1","+0020,1","-0080,1","99999,9",,,"02,1,+01290,1,99,9",,,"02,99,1,99,9,99,9,99999,9,99,9,99,9","10281,1,99999,9",,"MET070METAR ENSF 291820Z AUTO 02011KT 9999NDV FEW043/// 02/M08 Q1028 W///S4;",
"01300599999","2010-11-29T18:50:00","4","61.25","1.85","117.65","STATFJORD OIL PLATFORM HELIPORT, FO","FM-15","ENSF ","V020","030,1,N,0041,1","22000,1,9,N","011265,1,N,1","+0020,1","-0080,1","99999,9",,,,,,"00,99,1,99,9,99,9,99999,9,99,9,99,9","10281,1,99999,9",,"MET064METAR ENSF 291850Z AUTO 03008KT 9999NDV NCD 02/M08 Q1028 W///S4;","Q01    003SCCGA1"
"01300599999","2010-11-29T19:20:00","4","61.25","1.85","117.65","STATFJORD OIL PLATFORM HELIPORT, FO","FM-15","ENSF ","V020","040,1,N,0031,1","22000,1,9,N","011265,1,N,1","+0020,1","-0070,1","99999,9",,,"02,1,+01200,1,99,9",,,"02,99,1,99,9,99,9,99999,9,99,9,99,9","10281,1,99999,9",,"MET078METAR ENSF 291920Z AUTO 04006KT 360V070 9999NDV FEW040/// 02/M07 Q1028 W///S4;",
"01300599999","2010-11-29T19:50:00","4","61.25","1.85","117.65","STATFJORD OIL PLATFORM HELIPORT, FO","FM-15","ENSF ","V020","080,1,N,0031,1","22000,1,9,N","011265,1,N,1","+0030,1","-0070,1","99999,9",,,"02,1,+01260,1,99,9",,,"02,99,1,99,9,99,9,99999,9,99,9,99,9","10291,1,99999,9",,"MET070METAR ENSF 291950Z AUTO 08006KT 9999NDV FEW042/// 03/M07 Q1029 W///S4;",
"01300599999","2010-11-29T20:20:00","4","61.25","1.85","117.65","STATFJORD OIL PLATFORM HELIPORT, FO","FM-15","ENSF ","V020","080,1,N,0036,1","22000,1,9,N","011265,1,N,1","+0030,1","-0070,1","99999,9",,,,,,"00,99,1,99,9,99,9,99999,9,99,9,99,9","10281,1,99999,9",,"MET072METAR ENSF 292020Z AUTO 08007KT 060V120 9999NDV NCD 03/M07 Q1028 W///S4;","Q01    003SCCGA1"
"01300599999","2010-11-29T20:50:00","4","61.25","1.85","117.65","STATFJORD OIL PLATFORM HELIPORT, FO","FM-15","ENSF ","V020","090,1,N,0041,1","22000,1,9,N","011265,1,N,1","+0030,1","-0070,1","99999,9",,,"02,1,+01290,1,99,9",,,"02,99,1,99,9,99,9,99999,9,99,9,99,9","10291,1,99999,9",,"MET070METAR ENSF 292050Z AUTO 09008KT 9999NDV FEW043/// 03/M07 Q1029 W///S4;",
"01300599999","2010-11-29T21:20:00","4","61.25","1.85","117.65","STATFJORD OIL PLATFORM HELIPORT, FO","FM-15","ENSF ","V020","060,1,N,0031,1","01440,1,9,N","011265,1,N,1","+0030,1","-0080,1","99999,9",,,"07,1,+01440,1,99,9",,,"07,99,1,99,9,99,9,99999,9,99,9,99,9","10291,1,99999,9",,"MET070METAR ENSF 292120Z AUTO 06006KT 9999NDV BKN048/// 03/M08 Q1029 W///S4;",
"01300599999","2010-11-29T21:50:00","4","61.25","1.85","117.65","STATFJORD OIL PLATFORM HELIPORT, FO","FM-15","ENSF ","V020","090,1,N,0031,1","01410,1,9,N","011265,1,N,1","+0030,1","-0080,1","99999,9",,,"02,1,+00180,1,99,9","07,1,+01410,1,99,9",,"07,99,1,99,9,99,9,99999,9,99,9,99,9","10291,1,99999,9",,"MET080METAR ENSF 292150Z AUTO 09006KT 9999NDV FEW006/// BKN047/// 03/M08 Q1029 W///S4;",
"01300599999","2010-11-29T22:20:00","4","61.25","1.85","117.65","STATFJORD OIL PLATFORM HELIPORT, FO","FM-15","ENSF ","V020","080,1,N,0036,1","01320,1,9,N","011265,1,N,1","+0030,1","-0070,1","99999,9",,,"07,1,+01320,1,99,9",,,"07,99,1,99,9,99,9,99999,9,99,9,99,9","10291,1,99999,9",,"MET078METAR ENSF 292220Z AUTO 08007KT 050V190 9999NDV BKN044/// 03/M07 Q1029 W///S4;",
"01300599999","2010-11-29T22:50:00","4","61.25","1.85","117.65","STATFJORD OIL PLATFORM HELIPORT, FO","FM-15","ENSF ","V020","070,1,N,0046,1","01230,1,9,N","011265,1,N,1","+0030,1","-0060,1","99999,9",,,"07,1,+01230,1,99,9",,,"07,99,1,99,9,99,9,99999,9,99,9,99,9","10291,1,99999,9",,"MET078METAR ENSF 292250Z AUTO 07009KT 040V100 9999NDV BKN041/// 03/M06 Q1029 W///S4;",
"01300599999","2010-11-29T23:20:00","4","61.25","1.85","117.65","STATFJORD OIL PLATFORM HELIPORT, FO","FM-15","ENSF ","V020","999,9,V,0036,1","00900,1,9,N","011265,1,N,1","+0030,1","-0040,1","99999,9","61,1",,"07,1,+00900,1,99,9","07,1,+01140,1,99,9","07,1,+01500,1,99,9","07,99,1,99,9,99,9,99999,9,99,9,99,9","10291,1,99999,9",,"MET094METAR ENSF 292320Z AUTO VRB07KT 9999NDV -RA BKN030/// BKN038/// BKN055/// 03/M04 Q1029 W///S4;",
"01300599999","2010-11-29T23:50:00","4","61.25","1.85","117.65","STATFJORD OIL PLATFORM HELIPORT, FO","FM-15","ENSF ","V020","999,9,V,0031,1","01110,1,9,N","011265,1,N,1","+0030,1","-0040,1","99999,9","81,1",,"07,1,+01110,1,99,9",,,"07,99,1,99,9,99,9,99999,9,99,9,99,9","10291,1,99999,9",,"MET076METAR ENSF 292350Z AUTO VRB06KT 9999NDV -SHRA BKN037/// 03/M04 Q1029 W///S4;",
"01300599999","2010-11-30T00:20:00","4","61.25","1.85","117.65","STATFJORD OIL PLATFORM HELIPORT, FO","FM-15","ENSF ","V020","040,1,N,0005,1","01230,1,9,N","011265,1,N,1","+0030,1","-0040,1","99999,9","81,1",,"04,1,+00990,1,99,9","07,1,+01230,1,99,9",,"07,99,1,99,9,99,9,99999,9,99,9,99,9","10291,1,99999,9",,"MET086METAR ENSF 300020Z AUTO 04001KT 9999NDV -SHRA SCT033/// BKN041/// 03/M04 Q1029 W///S4;",
"01300599999","2010-11-30T00:50:00","4","61.25","1.85","117.65","STATFJORD OIL PLATFORM HELIPORT, FO","FM-15","ENSF ","V020","100,1,N,0010,1","01200,1,9,N","011265,1,N,1","+0030,1","-0040,1","99999,9","81,1",,"02,1,+00900,1,99,9","08,1,+01200,1,99,9",,"08,99,1,99,9,99,9,99999,9,99,9,99,9","10291,1,99999,9",,"MET086METAR ENSF 300050Z AUTO 10002KT 9999NDV -SHRA FEW030/// OVC040/// 03/M04 Q1029 W///S4;",
"01300599999","2010-11-30T01:20:00","4","61.25","1.85","117.65","STATFJORD OIL PLATFORM HELIPORT, FO","FM-15","ENSF ","V020","080,1,N,0026,1","00900,1,9,N","011265,1,N,1","+0030,1","-0030,1","99999,9","81,1",,"08,1,+00900,1,99,9",,,"08,99,1,99,9,99,9,99999,9,99,9,99,9","10291,1,99999,9",,"MET084METAR ENSF 300120Z AUTO 08005KT 050V140 9999NDV -SHRA OVC030/// 03/M03 Q1029 W///S4;",
"01300599999","2010-11-30T01:50:00","4","61.25","1.85","117.65","STATFJORD OIL PLATFORM HELIPORT, FO","FM-15","ENSF ","V020","100,1,N,0041,1","00630,1,9,N","002200,1,N,1","+0020,1","-0020,1","99999,9","80,1",,"08,1,+00630,1,99,9",,,"08,99,1,99,9,99,9,99999,9,99,9,99,9","10291,1,99999,9",,"MET078METAR ENSF 300150Z AUTO 10008KT 2200NDV -SHRASN OVC021/// 02/M02 Q1029 W///S4;",
"01300599999","2010-11-30T02:20:00","4","61.25","1.85","117.65","STATFJORD OIL PLATFORM HELIPORT, FO","FM-15","ENSF ","V020","040,1,N,0031,1","00390,1,9,N","000800,1,N,1","+0010,1","-0020,1","99999,9","86,1",,"08,1,+00390,1,99,9",,,"08,99,1,99,9,99,9,99999,9,99,9,99,9","10291,1,99999,9",,"MET083METAR ENSF 300220Z AUTO 04006KT 350V070 0800NDV SHSN OVC013/// 01/M02 Q1029 W///S4;",
"01300599999","2010-11-30T02:50:00","4","61.25","1.85","117.65","STATFJORD OIL PLATFORM HELIPORT, FO","FM-15","ENSF ","V020","080,1,N,0015,1","00630,1,9,N","003500,1,N,1","+0000,1","-0020,1","99999,9","67,1",,"08,1,+00630,1,99,9",,,"08,99,1,99,9,99,9,99999,9,99,9,99,9","10291,1,99999,9",,"MET084METAR ENSF 300250Z AUTO 08003KT 030V180 3500NDV -RASN OVC021/// 00/M02 Q1029 W///S4;",
"01300599999","2010-11-30T03:20:00","4","61.25","1.85","117.65","STATFJORD OIL PLATFORM HELIPORT, FO","FM-15","ENSF ","V020","150,1,N,0005,1","00630,1,9,N","011265,1,N,1","+0010,1","-0010,1","99999,9","67,1",,"08,1,+00630,1,99,9",,,"08,99,1,99,9,99,9,99999,9,99,9,99,9","10291,1,99999,9",,"MET076METAR ENSF 300320Z AUTO 15001KT 9999NDV -RASN OVC021/// 01/M01 Q1029 W///S4;",
"01300599999","2010-11-30T03:50:00","4","61.25","1.85","117.65","STATFJORD OIL PLATFORM HELIPORT, FO","FM-15","ENSF ","V020","150,1,N,0077,1","00630,1,9,N","011265,1,N,1","+0010,1","-0010,1","99999,9","81,1",,"07,1,+00630,1,99,9",,,"07,99,1,99,9,99,9,99999,9,99,9,99,9","10291,1,99999,9",,"MET076METAR ENSF 300350Z AUTO 15015KT 9999NDV -SHRA BKN021/// 01/M01 Q1029 W///S4;",
"01300599999","2010-11-30T04:20:00","4","61.25","1.85","117.65","STATFJORD OIL PLATFORM HELIPORT, FO","FM-15","ENSF ","V020","130,1,N,0046,1","01110,1,9,N","011265,1,N,1","+0020,1","-0030,1","99999,9","81,1",,"08,1,+01110,1,99,9",,,"08,99,1,99,9,99,9,99999,9,99,9,99,9","10281,1,99999,9",,"MET076METAR ENSF 300420Z AUTO 13009KT 9999NDV -SHRA OVC037/// 02/M03 Q1028 W///S4;",
"01300599999","2010-11-30T04:50:00","4","61.25","1.85","117.65","STATFJORD OIL PLATFORM HELIPORT, FO","FM-15","ENSF ","V020","130,1,N,0072,1","00840,1,9,N","011265,1,N,1","+0020,1","-0030,1","99999,9",,,"07,1,+00840,1,99,9",,,"07,99,1,99,9,99,9,99999,9,99,9,99,9","10281,1,99999,9",,"MET070METAR ENSF 300450Z AUTO 13014KT 9999NDV BKN028/// 02/M03 Q1028 W///S4;",
"01300599999","2010-11-30T05:20:00","4","61.25","1.85","117.65","STATFJORD OIL PLATFORM HELIPORT, FO","FM-15","ENSF ","V020","150,1,N,0093,1","01320,1,9,N","011265,1,N,1","+0020,1","-0010,1","99999,9",,,"02,1,+00420,1,99,9","07,1,+01320,1,99,9",,"07,99,1,99,9,99,9,99999,9,99,9,99,9","10281,1,99999,9",,"MET080METAR ENSF 300520Z AUTO 15018KT 9999NDV FEW014/// BKN044/// 02/M01 Q1028 W///S4;",
"01300599999","2010-11-30T05:50:00","4","61.25","1.85","117.65","STATFJORD OIL PLATFORM HELIPORT, FO","FM-15","ENSF ","V020","150,1,N,0087,1","01410,1,9,N","011265,1,N,1","+0020,1","-0020,1","99999,9","51,1",,"02,1,+00540,1,99,9","07,1,+01410,1,99,9",,"07,99,1,99,9,99,9,99999,9,99,9,99,9","10281,1,99999,9",,"MET084METAR ENSF 300550Z AUTO 15017KT 9999NDV -DZ FEW018/// BKN047/// 02/M02 Q1028 W///S4;",
"01300599999","2010-11-30T06:20:00","4","61.25","1.85","117.65","STATFJORD OIL PLATFORM HELIPORT, FO","FM-15","ENSF ","V020","160,1,N,0082,1","01440,1,9,N","006000,1,N,1","+0020,1","-0020,1","99999,9","80,1",,"04,1,+00330,1,99,9","07,1,+01440,1,99,9",,"07,99,1,99,9,99,9,99999,9,99,9,99,9","10291,1,99999,9",,"MET088METAR ENSF 300620Z AUTO 16016KT 6000NDV -SHRASN SCT011/// BKN048/// 02/M02 Q1029 W///S4;",
"01300599999","2010-11-30T06:50:00","4","61.25","1.85","117.65","STATFJORD OIL PLATFORM HELIPORT, FO","FM-15","ENSF ","V020","150,1,N,0098,1","00390,1,9,N","011265,1,N,1","+0020,1","-0020,1","99999,9","80,1",,"07,1,+00390,1,99,9",,,"07,99,1,99,9,99,9,99999,9,99,9,99,9","10291,1,99999,9",,"MET078METAR ENSF 300650Z AUTO 15019KT 9999NDV -SHRASN BKN013/// 02/M02 Q1029 W///S4;",
"01300599999","2010-11-30T07:20:00","4","61.25","1.85","117.65","STATFJORD OIL PLATFORM HELIPORT, FO","FM-15","ENSF ","V020","140,1,N,0098,1","01110,1,9,N","011265,1,N,1","+0020,1","-0020,1","99999,9","61,1",,"08,1,+01110,1,99,9",,,"08,99,1,99,9,99,9,99999,9,99,9,99,9","10291,1,99999,9",,"MET074METAR ENSF 300720Z AUTO 14019KT 9999NDV -RA OVC037/// 02/M02 Q1029 W///S4;",
"01300599999","2010-11-30T07:50:00","4","61.25","1.85","117.65","STATFJORD OIL PLATFORM HELIPORT, FO","FM-15","ENSF ","V020","130,1,N,0072,1","01320,1,9,N","011265,1,N,1","+0020,1","-0030,1","99999,9",,,"08,1,+01320,1,99,9",,,"08,99,1,99,9,99,9,99999,9,99,9,99,9","10291,1,99999,9",,"MET070METAR ENSF 300750Z AUTO 13014KT 9999NDV OVC044/// 02/M03 Q1029 W///S4;",
"01300599999","2010-11-30T08:20:00","4","61.25","1.85","117.65","STATFJORD OIL PLATFORM HELIPORT, FO","FM-15","ENSF ","V020","120,1,N,0072,1","01260,1,9,N","011265,1,N,1","+0030,1","-0050,1","99999,9",,,"07,1,+01260,1,99,9",,,"07,99,1,99,9,99,9,99999,9,99,9,99,9","10291,1,99999,9",,"MET070METAR ENSF 300820Z AUTO 12014KT 9999NDV BKN042/// 03/M05 Q1029 W///S4;",
"01300599999","2010-11-30T08:50:00","4","61.25","1.85","117.65","STATFJORD OIL PLATFORM HELIPORT, FO","FM-15","ENSF ","V020","140,1,N,0077,1","01500,1,9,N","011265,1,N,1","+0030,1","-0020,1","99999,9",,,"04,1,+00600,1,99,9","07,1,+01500,1,99,9",,"07,99,1,99,9,99,9,99999,9,99,9,99,9","10291,1,99999,9",,"MET080METAR ENSF 300850Z AUTO 14015KT 9999NDV SCT020/// BKN053/// 03/M02 Q1029 W///S4;",
"01300599999","2010-11-30T09:20:00","4","61.25","1.85","117.65","STATFJORD OIL PLATFORM HELIPORT, FO","FM-15","ENSF ","V020","140,1,N,0093,1","00630,1,9,N","011265,1,N,1","+0020,1","-0020,1","99999,9","61,1",,"08,1,+00630,1,99,9",,,"08,99,1,99,9,99,9,99999,9,99,9,99,9","10291,1,99999,9",,"MET074METAR ENSF 300920Z AUTO 14018KT 9999NDV -RA OVC021/// 02/M02 Q1029 W///S3;",
"01300599999","2010-11-30T09:50:00","4","61.25","1.85","117.65","STATFJORD OIL PLATFORM HELIPORT, FO","FM-15","ENSF ","V020","150,1,N,0098,1","01050,1,9,N","006000,1,N,1","+0010,1","-0020,1","99999,9","85,1",,"02,1,+00210,1,99,9","07,1,+01050,1,99,9",,"07,99,1,99,9,99,9,99999,9,99,9,99,9","10301,1,99999,9",,"MET086METAR ENSF 300950Z AUTO 15019KT 6000NDV -SHSN FEW007/// BKN035/// 01/M02 Q1030 W///S4;",
"01300599999","2010-11-30T10:20:00","4","61.25","1.85","117.65","STATFJORD OIL PLATFORM HELIPORT, FO","FM-15","ENSF ","V020","150,1,N,0077,1","00300,1,9,N","003200,1,N,1","+0010,1","-0020,1","99999,9","85,1",,"07,1,+00300,1,99,9",,,"07,99,1,99,9,99,9,99999,9,99,9,99,9","10301,1,99999,9",,"MET076METAR ENSF 301020Z AUTO 15015KT 3200NDV -SHSN BKN010/// 01/M02 Q1030 W///S4;",
"01300599999","2010-11-30T10:50:00","4","61.25","1.85","117.65","STATFJORD OIL PLATFORM HELIPORT, FO","FM-15","ENSF ","V020","160,1,N,0093,1","00270,1,9,N","011265,1,N,1","+0010,1","-0020,1","99999,9","62,1",,"08,1,+00270,1,99,9",,,"08,99,1,99,9,99,9,99999,9,99,9,99,9","10301,1,99999,9",,"MET073METAR ENSF 301050Z AUTO 16018KT 9999NDV RA OVC009/// 01/M02 Q1030 W///S4;",
"01300599999","2010-11-30T11:20:00","4","61.25","1.85","117.65","STATFJORD OIL PLATFORM HELIPORT, FO","FM-15","ENSF ","V020","150,1,N,0082,1","00720,1,9,N","011265,1,N,1","+0010,1","-0030,1","99999,9","71,1",,"07,1,+00720,1,99,9",,,"07,99,1,99,9,99,9,99999,9,99,9,99,9","10301,1,99999,9",,"MET074METAR ENSF 301120Z AUTO 15016KT 9999NDV -SN BKN024/// 01/M03 Q1030 W///S4;",
"01300599999","2010-11-30T11:50:00","4","61.25","1.85","117.65","STATFJORD OIL PLATFORM HELIPORT, FO","FM-15","ENSF ","V020","160,1,N,0103,1","00780,1,9,N","011265,1,N,1","+0010,1","-0040,1","99999,9","61,1",,"07,1,+00780,1,99,9",,,"07,99,1,99,9,99,9,99999,9,99,9,99,9","10291,1,99999,9",,"MET074METAR ENSF 301150Z AUTO 16020KT 9999NDV -RA BKN026/// 01/M04 Q1029 W///S4;",
"01300599999","2010-11-30T12:20:00","4","61.25","1.85","117.65","STATFJORD OIL PLATFORM HELIPORT, FO","FM-15","ENSF ","V020","160,1,N,0093,1","00870,1,9,N","011265,1,N,1","+0020,1","-0040,1","99999,9","81,1",,"07,1,+00870,1,99,9",,,"07,99,1,99,9,99,9,99999,9,99,9,99,9","10291,1,99999,9",,"MET076METAR ENSF 301220Z AUTO 16018KT 9999NDV -SHRA BKN029/// 02/M04 Q1029 W///S4;",
"01300599999","2010-11-30T12:50:00","4","61.25","1.85","117.65","STATFJORD OIL PLATFORM HELIPORT, FO","FM-15","ENSF ","V020","160,1,N,0098,1","00870,1,9,N","011265,1,N,1","+0020,1","-0040,1","99999,9","81,1",,"07,1,+00870,1,99,9",,,"07,99,1,99,9,99,9,99999,9,99,9,99,9","10291,1,99999,9",,"MET076METAR ENSF 301250Z AUTO 16019KT 9999NDV -SHRA BKN029/// 02/M04 Q1029 W///S4;",
"01300599999","2010-11-30T13:20:00","4","61.25","1.85","117.65","STATFJORD OIL PLATFORM HELIPORT, FO","FM-15","ENSF ","V020","160,1,N,0087,1","01050,1,9,N","011265,1,N,1","+0020,1","-0050,1","99999,9","81,1",,"02,1,+00870,1,99,9","07,1,+01050,1,99,9",,"07,99,1,99,9,99,9,99999,9,99,9,99,9","10291,1,99999,9",,"MET086METAR ENSF 301320Z AUTO 16017KT 9999NDV -SHRA FEW029/// BKN035/// 02/M05 Q1029 W///S4;",
"01300599999","2010-11-30T13:50:00","4","61.25","1.85","117.65","STATFJORD OIL PLATFORM HELIPORT, FO","FM-15","ENSF ","V020","170,1,N,0087,1","00990,1,9,N","011265,1,N,1","+0010,1","-0050,1","99999,9",,,"07,1,+00990,1,99,9",,,"07,99,1,99,9,99,9,99999,9,99,9,99,9","10291,1,99999,9",,"MET070METAR ENSF 301350Z AUTO 17017KT 9999NDV BKN033/// 01/M05 Q1029 W///S4;",
"01300599999","2010-11-30T14:20:00","4","61.25","1.85","117.65","STATFJORD OIL PLATFORM HELIPORT, FO","FM-15","ENSF ","V020","160,1,N,0082,1","00990,1,9,N","011265,1,N,1","+0010,1","-0050,1","99999,9",,,"07,1,+00990,1,99,9",,,"07,99,1,99,9,99,9,99999,9,99,9,99,9","10291,1,99999,9",,"MET070METAR ENSF 301420Z AUTO 16016KT 9999NDV BKN033/// 01/M05 Q1029 W///S4;",
"01300599999","2010-11-30T14:50:00","4","61.25","1.85","117.65","STATFJORD OIL PLATFORM HELIPORT, FO","FM-15","ENSF ","V020","170,1,N,0087,1","01050,1,9,N","011265,1,N,1","+0010,1","-0060,1","99999,9",,,"08,1,+01050,1,99,9",,,"08,99,1,99,9,99,9,99999,9,99,9,99,9","10291,1,99999,9",,"MET070METAR ENSF 301450Z AUTO 17017KT 9999NDV OVC035/// 01/M06 Q1029 W///S4;",
"01300599999","2010-11-30T15:20:00","4","61.25","1.85","117.65","STATFJORD OIL PLATFORM HELIPORT, FO","FM-15","ENSF ","V020","160,1,N,0072,1","01380,1,9,N","011265,1,N,1","+0010,1","-0060,1","99999,9",,,"07,1,+01380,1,99,9",,,"07,99,1,99,9,99,9,99999,9,99,9,99,9","10291,1,99999,9",,"MET070METAR ENSF 301520Z AUTO 16014KT 9999NDV BKN046/// 01/M06 Q1029 W///S4;",
"01300599999","2010-11-30T15:50:00","4","61.25","1.85","117.65","STATFJORD OIL PLATFORM HELIPORT, FO","FM-15","ENSF ","V020","160,1,N,0067,1","22000,1,9,N","011265,1,N,1","+0010,1","-0060,1","99999,9",,,"02,1,+00990,1,99,9",,,"02,99,1,99,9,99,9,99999,9,99,9,99,9","10291,1,99999,9",,"MET070METAR ENSF 301550Z AUTO 16013KT 9999NDV FEW033/// 01/M06 Q1029 W///S4;",
"01300599999","2010-11-30T16:20:00","4","61.25","1.85","117.65","STATFJORD OIL PLATFORM HELIPORT, FO","FM-15","ENSF ","V020","170,1,N,0072,1","01440,1,9,N","011265,1,N,1","+0010,1","-0070,1","99999,9",,,"07,1,+01440,1,99,9",,,"07,99,1,99,9,99,9,99999,9,99,9,99,9","10291,1,99999,9",,"MET070METAR ENSF 301620Z AUTO 17014KT 9999NDV BKN048/// 01/M07 Q1029 W///S3;",
"01300599999","2010-11-30T16:50:00","4","61.25","1.85","117.65","STATFJORD OIL PLATFORM HELIPORT, FO","FM-15","ENSF ","V020","160,1,N,0062,1","01110,1,9,N","011265,1,N,1","+0010,1","-0060,1","99999,9",,,"07,1,+01110,1,99,9",,,"07,99,1,99,9,99,9,99999,9,99,9,99,9","10291,1,99999,9",,"MET078METAR ENSF 301650Z AUTO 16012KT 130V190 9999NDV BKN037/// 01/M06 Q1029 W///S3;",
"01300599999","2010-11-30T17:20:00","4","61.25","1.85","117.65","STATFJORD OIL PLATFORM HELIPORT, FO","FM-15","ENSF ","V020","150,1,N,0057,1","01500,1,9,N","011265,1,N,1","+0020,1","-0060,1","99999,9",,,"07,1,+01500,1,99,9",,,"07,99,1,99,9,99,9,99999,9,99,9,99,9","10291,1,99999,9",,"MET078METAR ENSF 301720Z AUTO 15011KT 120V180 9999NDV BKN050/// 02/M06 Q1029 W///S3;",
"01300599999","2010-11-30T17:50:00","4","61.25","1.85","117.65","STATFJORD OIL PLATFORM HELIPORT, FO","FM-15","ENSF ","V020","150,1,N,0062,1","01500,1,9,N","011265,1,N,1","+0020,1","-0060,1","99999,9",,,"02,1,+01080,1,99,9","07,1,+01500,1,99,9",,"07,99,1,99,9,99,9,99999,9,99,9,99,9","10291,1,99999,9",,"MET080METAR ENSF 301750Z AUTO 15012KT 9999NDV FEW036/// BKN050/// 02/M06 Q1029 W///S3;",
"01300599999","2010-11-30T18:20:00","4","61.25","1.85","117.65","STATFJORD OIL PLATFORM HELIPORT, FO","FM-15","ENSF ","V020","140,1,N,0067,1","01290,1,9,N","011265,1,N,1","+0020,1","-0060,1","99999,9",,,"08,1,+01290,1,99,9",,,"08,99,1,99,9,99,9,99999,9,99,9,99,9","10291,1,99999,9",,"MET070METAR ENSF 301820Z AUTO 14013KT 9999NDV OVC043/// 02/M06 Q1029 W///S3;",
"01300599999","2010-11-30T18:50:00","4","61.25","1.85","117.65","STATFJORD OIL PLATFORM HELIPORT, FO","FM-15","ENSF ","V020","160,1,N,0067,1","01320,1,9,N","011265,1,N,1","+0010,1","-0060,1","99999,9",,,"07,1,+01320,1,99,9",,,"07,99,1,99,9,99,9,99999,9,99,9,99,9","10291,1,99999,9",,"MET070METAR ENSF 301850Z AUTO 16013KT 9999NDV BKN044/// 01/M06 Q1029 W///S3;",
"01300599999","2010-11-30T19:20:00","4","61.25","1.85","117.65","STATFJORD OIL PLATFORM HELIPORT, FO","FM-15","ENSF ","V020","160,1,N,0062,1","01500,1,9,N","011265,1,N,1","+0010,1","-0060,1","99999,9",,,"08,1,+01500,1,99,9",,,"08,99,1,99,9,99,9,99999,9,99,9,99,9","10291,1,99999,9",,"MET070METAR ENSF 301920Z AUTO 16012KT 9999NDV OVC052/// 01/M06 Q1029 W///S3;",
"01300599999","2010-11-30T19:50:00","4","61.25","1.85","117.65","STATFJORD OIL PLATFORM HELIPORT, FO","FM-15","ENSF ","V020","150,1,N,0067,1","01350,1,9,N","011265,1,N,1","+0010,1","-0060,1","99999,9",,,"08,1,+01350,1,99,9",,,"08,99,1,99,9,99,9,99999,9,99,9,99,9","10291,1,99999,9",,"MET070METAR ENSF 301950Z AUTO 15013KT 9999NDV OVC045/// 01/M06 Q1029 W///S3;",
"01300599999","2010-11-30T20:20:00","4","61.25","1.85","117.65","STATFJORD OIL PLATFORM HELIPORT, FO","FM-15","ENSF ","V020","160,1,N,0067,1","01440,1,9,N","011265,1,N,1","+0010,1","-0060,1","99999,9",,,"07,1,+01440,1,99,9",,,"07,99,1,99,9,99,9,99999,9,99,9,99,9","10291,1,99999,9",,"MET070METAR ENSF 302020Z AUTO 16013KT 9999NDV BKN048/// 01/M06 Q1029 W///S3;",
"01300599999","2010-11-30T20:50:00","4","61.25","1.85","117.65","STATFJORD OIL PLATFORM HELIPORT, FO","FM-15","ENSF ","V020","160,1,N,0067,1","22000,1,9,N","011265,1,N,1","+0010,1","-0070,1","99999,9",,,"04,1,+01500,1,99,9","04,1,+04800,1,99,9",,"04,99,1,99,9,99,9,99999,9,99,9,99,9","10291,1,99999,9",,"MET080METAR ENSF 302050Z AUTO 16013KT 9999NDV SCT051/// SCT160/// 01/M07 Q1029 W///S3;",
"01300599999","2010-11-30T21:20:00","4","61.25","1.85","117.65","STATFJORD OIL PLATFORM HELIPORT, FO","FM-15","ENSF ","V020","160,1,N,0067,1","01080,1,9,N","011265,1,N,1","+0010,1","-0060,1","99999,9",,,"07,1,+01080,1,99,9",,,"07,99,1,99,9,99,9,99999,9,99,9,99,9","10291,1,99999,9",,"MET070METAR ENSF 302120Z AUTO 16013KT 9999NDV BKN036/// 01/M06 Q1029 W///S3;",
"01300599999","2010-11-30T21:50:00","4","61.25","1.85","117.65","STATFJORD OIL PLATFORM HELIPORT, FO","FM-15","ENSF ","V020","140,1,N,0051,1","01290,1,9,N","011265,1,N,1","+0020,1","-0070,1","99999,9",,,"07,1,+01290,1,99,9",,,"07,99,1,99,9,99,9,99999,9,99,9,99,9","10291,1,99999,9",,"MET070METAR ENSF 302150Z AUTO 14010KT 9999NDV BKN043/// 02/M07 Q1029 W///S3;",
"01300599999","2010-11-30T22:20:00","4","61.25","1.85","117.65","STATFJORD OIL PLATFORM HELIPORT, FO","FM-15","ENSF ","V020","150,1,N,0051,1","01080,1,9,N","011265,1,N,1","+0020,1","-0060,1","99999,9",,,"07,1,+01080,1,99,9",,,"07,99,1,99,9,99,9,99999,9,99,9,99,9","10291,1,99999,9",,"MET078METAR ENSF 302220Z AUTO 15010KT 110V170 9999NDV BKN036/// 02/M06 Q1029 W///S3;",
"01300599999","2010-11-30T22:50:00","4","61.25","1.85","117.65","STATFJORD OIL PLATFORM HELIPORT, FO","FM-15","ENSF ","V020","150,1,N,0062,1","01200,1,9,N","011265,1,N,1","+0010,1","-0070,1","99999,9",,,"07,1,+01200,1,99,9",,,"07,99,1,99,9,99,9,99999,9,99,9,99,9","10291,1,99999,9",,"MET070METAR ENSF 302250Z AUTO 15012KT 9999NDV BKN040/// 01/M07 Q1029 W///S3;",
"01300599999","2010-11-30T23:20:00","4","61.25","1.85","117.65","STATFJORD OIL PLATFORM HELIPORT, FO","FM-15","ENSF ","V020","160,1,N,0062,1","01140,1,9,N","011265,1,N,1","+0010,1","-0070,1","99999,9",,,"07,1,+01140,1,99,9",,,"07,99,1,99,9,99,9,99999,9,99,9,99,9","10291,1,99999,9",,"MET070METAR ENSF 302320Z AUTO 16012KT 9999NDV BKN038/// 01/M07 Q1029 W///S3;",
"01300599999","2010-11-30T23:50:00","4","61.25","1.85","117.65","STATFJORD OIL PLATFORM HELIPORT, FO","FM-15","ENSF ","V020","170,1,N,0072,1","01080,1,9,N","011265,1,N,1","+0010,1","-0070,1","99999,9",,,"07,1,+01080,1,99,9",,,"07,99,1,99,9,99,9,99999,9,99,9,99,9","10281,1,99999,9",,"MET070METAR ENSF 302350Z AUTO 17014KT 9999NDV BKN036/// 01/M07 Q1028 W///S3;",
"01300599999","2010-12-01T00:20:00","4","61.25","1.85","117.65","STATFJORD OIL PLATFORM HELIPORT, FO","FM-15","ENSF ","V020","160,1,N,0067,1","01410,1,9,N","011265,1,N,1","+0010,1","-0070,1","99999,9",,,"02,1,+01080,1,99,9","07,1,+01410,1,99,9",,"07,99,1,99,9,99,9,99999,9,99,9,99,9","10281,1,99999,9",,"MET080METAR ENSF 010020Z AUTO 16013KT 9999NDV FEW036/// BKN047/// 01/M07 Q1028 W///S3;",
"01300599999","2010-12-01T00:50:00","4","61.25","1.85","117.65","STATFJORD OIL PLATFORM HELIPORT, FO","FM-15","ENSF ","V020","160,1,N,0067,1","22000,1,9,N","011265,1,N,1","+0010,1","-0070,1","99999,9",,,"02,1,+01440,1,99,9",,,"02,99,1,99,9,99,9,99999,9,99,9,99,9","10281,1,99999,9",,"MET070METAR ENSF 010050Z AUTO 16013KT 9999NDV FEW048/// 01/M07 Q1028 W///S3;",
"01300599999","2010-12-01T01:20:00","4","61.25","1.85","117.65","STATFJORD OIL PLATFORM HELIPORT, FO","FM-15","ENSF ","V020","150,1,N,0051,1","01320,1,9,N","011265,1,N,1","+0010,1","-0080,1","99999,9",,,"07,1,+01320,1,99,9",,,"07,99,1,99,9,99,9,99999,9,99,9,99,9","10281,1,99999,9",,"MET078METAR ENSF 010120Z AUTO 15010KT 110V170 9999NDV BKN044/// 01/M08 Q1028 W///S3;",
"01300599999","2010-12-01T01:50:00","4","61.25","1.85","117.65","STATFJORD OIL PLATFORM HELIPORT, FO","FM-15","ENSF ","V020","150,1,N,0057,1","01320,1,9,N","011265,1,N,1","+0020,1","-0070,1","99999,9",,,"08,1,+01320,1,99,9",,,"08,99,1,99,9,99,9,99999,9,99,9,99,9","10281,1,99999,9",,"MET070METAR ENSF 010150Z AUTO 15011KT 9999NDV OVC044/// 02/M07 Q1028 W///S3;",
"01300599999","2010-12-01T02:20:00","4","61.25","1.85","117.65","STATFJORD OIL PLATFORM HELIPORT, FO","FM-15","ENSF ","V020","170,1,N,0051,1","01380,1,9,N","011265,1,N,1","+0010,1","-0080,1","99999,9",,,"07,1,+01380,1,99,9",,,"07,99,1,99,9,99,9,99999,9,99,9,99,9","10281,1,99999,9",,"MET078METAR ENSF 010220Z AUTO 17010KT 130V190 9999NDV BKN046/// 01/M08 Q1028 W///S3;",
"01300599999","2010-12-01T02:50:00","4","61.25","1.85","117.65","STATFJORD OIL PLATFORM HELIPORT, FO","FM-15","ENSF ","V020","170,1,N,0051,1","22000,1,9,N","011265,1,N,1","+0010,1","-0080,1","99999,9",,,"02,1,+01380,1,99,9",,,"02,99,1,99,9,99,9,99999,9,99,9,99,9","10281,1,99999,9",,"MET078METAR ENSF 010250Z AUTO 17010KT 140V200 9999NDV FEW046/// 01/M08 Q1028 W///S3;",
"01300599999","2010-12-01T03:20:00","4","61.25","1.85","117.65","STATFJORD OIL PLATFORM HELIPORT, FO","FM-15","ENSF ","V020","160,1,N,0046,1","22000,1,9,N","011265,1,N,1","+0010,1","-0080,1","99999,9",,,,,,"00,99,1,99,9,99,9,99999,9,99,9,99,9","10281,1,99999,9",,"MET064METAR ENSF 010320Z AUTO 16009KT 9999NDV NCD 01/M08 Q1028 W///S3;","Q01    003SCCGA1"
"01300599999","2010-12-01T03:50:00","4","61.25","1.85","117.65","STATFJORD OIL PLATFORM HELIPORT, FO","FM-15","ENSF ","V020","160,1,N,0051,1","22000,1,9,N","011265,1,N,1","+0010,1","-0080,1","99999,9",,,"04,1,+01500,1,99,9",,,"04,99,1,99,9,99,9,99999,9,99,9,99,9","10281,1,99999,9",,"MET070METAR ENSF 010350Z AUTO 16010KT 9999NDV SCT055/// 01/M08 Q1028 W///S3;",
"01300599999","2010-12-01T04:20:00","4","61.25","1.85","117.65","STATFJORD OIL PLATFORM HELIPORT, FO","FM-15","ENSF ","V020","170,1,N,0046,1","01500,1,9,N","011265,1,N,1","+0010,1","-0080,1","99999,9",,,"07,1,+01500,1,99,9",,,"07,99,1,99,9,99,9,99999,9,99,9,99,9","10281,1,99999,9",,"MET070METAR ENSF 010420Z AUTO 17009KT 9999NDV BKN056/// 01/M08 Q1028 W///S3;",
"01300599999","2010-12-01T04:50:00","4","61.25","1.85","117.65","STATFJORD OIL PLATFORM HELIPORT, FO","FM-15","ENSF ","V020","170,1,N,0057,1","22000,1,9,N","011265,1,N,1","+0010,1","-0080,1","99999,9",,,"02,1,+01500,1,99,9",,,"02,99,1,99,9,99,9,99999,9,99,9,99,9","10271,1,99999,9",,"MET070METAR ENSF 010450Z AUTO 17011KT 9999NDV FEW056/// 01/M08 Q1027 W///S3;",
"01300599999","2010-12-01T05:20:00","4","61.25","1.85","117.65","STATFJORD OIL PLATFORM HELIPORT, FO","FM-15","ENSF ","V020","160,1,N,0046,1","22000,1,9,N","011265,1,N,1","+0010,1","-0080,1","99999,9",,,,,,"00,99,1,99,9,99,9,99999,9,99,9,99,9","10271,1,99999,9",,"MET064METAR ENSF 010520Z AUTO 16009KT 9999NDV NCD 01/M08 Q1027 W///S3;","Q01    003SCCGA1"
"01300599999","2010-12-01T05:50:00","4","61.25","1.85","117.65","STATFJORD OIL PLATFORM HELIPORT, FO","FM-15","ENSF ","V020","180,1,N,0036,1","01500,1,9,N","011265,1,N,1","+0010,1","-0080,1","99999,9",,,"07,1,+01500,1,99,9",,,"07,99,1,99,9,99,9,99999,9,99,9,99,9","10271,1,99999,9",,"MET078METAR ENSF 010550Z AUTO 18007KT 140V210 9999NDV BKN053/// 01/M08 Q1027 W///S3;",
"01300599999","2010-12-01T06:20:00","4","61.25","1.85","117.65","STATFJORD OIL PLATFORM HELIPORT, FO","FM-15","ENSF ","V020","160,1,N,0046,1","01500,1,9,N","011265,1,N,1","+0020,1","-0080,1","99999,9",,,"07,1,+01500,1,99,9",,,"07,99,1,99,9,99,9,99999,9,99,9,99,9","10271,1,99999,9",,"MET078METAR ENSF 010620Z AUTO 16009KT 120V190 9999NDV BKN050/// 02/M08 Q1027 W///S3;",
"01300599999","2010-12-01T06:50:00","4","61.25","1.85","117.65","STATFJORD OIL PLATFORM HELIPORT, FO","FM-15","ENSF ","V020","180,1,N,0051,1","22000,1,9,N","011265,1,N,1","+0010,1","-0080,1","99999,9",,,"04,1,+01500,1,99,9",,,"04,99,1,99,9,99,9,99999,9,99,9,99,9","10271,1,99999,9",,"MET070METAR ENSF 010650Z AUTO 18010KT 9999NDV SCT051/// 01/M08 Q1027 W///S3;",
"01300599999","2010-12-01T07:20:00","4","61.25","1.85","117.65","STATFJORD OIL PLATFORM HELIPORT, FO","FM-15","ENSF ","V020","180,1,N,0057,1","22000,1,9,N","011265,1,N,1","+0010,1","-0080,1","99999,9",,,"02,1,+01500,1,99,9",,,"02,99,1,99,9,99,9,99999,9,99,9,99,9","10271,1,99999,9",,"MET070METAR ENSF 010720Z AUTO 18011KT 9999NDV FEW051/// 01/M08 Q1027 W///S3;",
"01300599999","2010-12-01T07:50:00","4","61.25","1.85","117.65","STATFJORD OIL PLATFORM HELIPORT, FO","FM-15","ENSF ","V020","170,1,N,0041,1","01440,1,9,N","011265,1,N,1","+0010,1","-0080,1","99999,9",,,"07,1,+01440,1,99,9",,,"07,99,1,99,9,99,9,99999,9,99,9,99,9","10271,1,99999,9",,"MET078METAR ENSF 010750Z AUTO 17008KT 140V200 9999NDV BKN048/// 01/M08 Q1027 W///S3;",
"01300599999","2010-12-01T08:20:00","4","61.25","1.85","117.65","STATFJORD OIL PLATFORM HELIPORT, FO","FM-15","ENSF ","V020","190,1,N,0057,1","22000,1,9,N","011265,1,N,1","+0010,1","-0070,1","99999,9",,,"02,1,+01200,1,99,9",,,"02,99,1,99,9,99,9,99999,9,99,9,99,9","10271,1,99999,9",,"MET070METAR ENSF 010820Z AUTO 19011KT 9999NDV FEW040/// 01/M07 Q1027 W///S3;",
"01300599999","2010-12-01T08:50:00","4","61.25","1.85","117.65","STATFJORD OIL PLATFORM HELIPORT, FO","FM-15","ENSF ","V020","180,1,N,0046,1","22000,1,9,N","011265,1,N,1","+0010,1","-0080,1","99999,9",,,,,,"00,99,1,99,9,99,9,99999,9,99,9,99,9","10271,1,99999,9",,"MET072METAR ENSF 010850Z AUTO 18009KT 150V210 9999NDV NCD 01/M08 Q1027 W///S3;","Q01    003SCCGA1"
"01300599999","2010-12-01T09:20:00","4","61.25","1.85","117.65","STATFJORD OIL PLATFORM HELIPORT, FO","FM-15","ENSF ","V020","200,1,N,0036,1","22000,1,9,N","011265,1,N,1","+0010,1","-0090,1","99999,9",,,,,,"00,99,1,99,9,99,9,99999,9,99,9,99,9","10281,1,99999,9",,"MET072METAR ENSF 010920Z AUTO 20007KT 170V230 9999NDV NCD 01/M09 Q1028 W///S3;","Q01    003SCCGA1"
"01300599999","2010-12-01T09:50:00","4","61.25","1.85","117.65","STATFJORD OIL PLATFORM HELIPORT, FO","FM-15","ENSF ","V020","200,1,N,0046,1","01230,1,9,N","011265,1,N,1","+0010,1","-0080,1","99999,9",,,"07,1,+01230,1,99,9",,,"07,99,1,99,9,99,9,99999,9,99,9,99,9","10281,1,99999,9",,"MET078METAR ENSF 010950Z AUTO 20009KT 160V220 9999NDV BKN041/// 01/M08 Q1028 W///S3;",
"01300599999","2010-12-01T10:20:00","4","61.25","1.85","117.65","STATFJORD OIL PLATFORM HELIPORT, FO","FM-15","ENSF ","V020","200,1,N,0051,1","22000,1,9,N","011265,1,N,1","+0010,1","-0080,1","99999,9",,,"04,1,+01230,1,99,9",,,"04,99,1,99,9,99,9,99999,9,99,9,99,9","10281,1,99999,9",,"MET070METAR ENSF 011020Z AUTO 20010KT 9999NDV SCT041/// 01/M08 Q1028 W///S3;",
"01300599999","2010-12-01T10:50:00","4","61.25","1.85","117.65","STATFJORD OIL PLATFORM HELIPORT, FO","FM-15","ENSF ","V020","210,1,N,0041,1","22000,1,9,N","011265,1,N,1","+0010,1","-0080,1","99999,9",,,"04,1,+01230,1,99,9",,,"04,99,1,99,9,99,9,99999,9,99,9,99,9","10281,1,99999,9",,"MET070METAR ENSF 011050Z AUTO 21008KT 9999NDV SCT041/// 01/M08 Q1028 W///S3;",
"01300599999","2010-12-01T11:20:00","4","61.25","1.85","117.65","STATFJORD OIL PLATFORM HELIPORT, FO","FM-15","ENSF ","V020","170,1,N,0036,1","22000,1,9,N","011265,1,N,1","+0020,1","-0080,1","99999,9",,,"04,1,+01260,1,99,9",,,"04,99,1,99,9,99,9,99999,9,99,9,99,9","10271,1,99999,9",,"MET070METAR ENSF 011120Z AUTO 17007KT 9999NDV SCT042/// 02/M08 Q1027 W///S3;",
"01300599999","2010-12-01T11:50:00","4","61.25","1.85","117.65","STATFJORD OIL PLATFORM HELIPORT, FO","FM-15","ENSF ","V020","190,1,N,0041,1","22000,1,9,N","011265,1,N,1","+0020,1","-0080,1","99999,9",,,"04,1,+01260,1,99,9",,,"04,99,1,99,9,99,9,99999,9,99,9,99,9","10271,1,99999,9",,"MET078METAR ENSF 011150Z AUTO 19008KT 160V220 9999NDV SCT042/// 02/M08 Q1027 W///S3;",
"01300599999","2010-12-01T12:20:00","4","61.25","1.85","117.65","STATFJORD OIL PLATFORM HELIPORT, FO","FM-15","ENSF ","V020","200,1,N,0036,1","22000,1,9,N","011265,1,N,1","+0010,1","-0080,1","99999,9",,,"02,1,+01230,1,99,9",,,"02,99,1,99,9,99,9,99999,9,99,9,99,9","10271,1,99999,9",,"MET078METAR ENSF 011220Z AUTO 20007KT 170V230 9999NDV FEW041/// 01/M08 Q1027 W///S3;",
"01300599999","2010-12-01T12:50:00","4","61.25","1.85","117.65","STATFJORD OIL PLATFORM HELIPORT, FO","FM-15","ENSF ","V020","210,1,N,0041,1","01290,1,9,N","011265,1,N,1","+0010,1","-0080,1","99999,9",,,"07,1,+01290,1,99,9",,,"07,99,1,99,9,99,9,99999,9,99,9,99,9","10271,1,99999,9",,"MET070METAR ENSF 011250Z AUTO 21008KT 9999NDV BKN043/// 01/M08 Q1027 W///S3;",
"01300599999","2010-12-01T13:20:00","4","61.25","1.85","117.65","STATFJORD OIL PLATFORM HELIPORT, FO","FM-15","ENSF ","V020","220,1,N,0046,1","01230,1,9,N","011265,1,N,1","+0010,1","-0080,1","99999,9",,,"07,1,+01230,1,99,9",,,"07,99,1,99,9,99,9,99999,9,99,9,99,9","10271,1,99999,9",,"MET070METAR ENSF 011320Z AUTO 22009KT 9999NDV BKN041/// 01/M08 Q1027 W///S3;",
"01300599999","2010-12-01T13:50:00","4","61.25","1.85","117.65","STATFJORD OIL PLATFORM HELIPORT, FO","FM-15","ENSF ","V020","170,1,N,0041,1","01230,1,9,N","011265,1,N,1","+0020,1","-0080,1","99999,9",,,"07,1,+01230,1,99,9",,,"07,99,1,99,9,99,9,99999,9,99,9,99,9","10271,1,99999,9",,"MET078METAR ENSF 011350Z AUTO 17008KT 140V200 9999NDV BKN041/// 02/M08 Q1027 W///S3;",
"01300599999","2010-12-01T14:20:00","4","61.25","1.85","117.65","STATFJORD OIL PLATFORM HELIPORT, FO","FM-15","ENSF ","V020","200,1,N,0036,1","22000,1,9,N","011265,1,N,1","+0010,1","-0080,1","99999,9",,,"02,1,+01260,1,99,9",,,"02,99,1,99,9,99,9,99999,9,99,9,99,9","10271,1,99999,9",,"MET070METAR ENSF 011420Z AUTO 20007KT 9999NDV FEW042/// 01/M08 Q1027 W///S3;",
"01300599999","2010-12-01T14:50:00","4","61.25","1.85","117.65","STATFJORD OIL PLATFORM HELIPORT, FO","FM-15","ENSF ","V020","210,1,N,0041,1","01260,1,9,N","011265,1,N,1","+0010,1","-0080,1","99999,9",,,"07,1,+01260,1,99,9",,,"07,99,1,99,9,99,9,99999,9,99,9,99,9","10261,1,99999,9",,"MET070METAR ENSF 011450Z AUTO 21008KT 9999NDV BKN042/// 01/M08 Q1026 W///S3;",
"01300599999","2010-12-01T15:20:00","4","61.25","1.85","117.65","STATFJORD OIL PLATFORM HELIPORT, FO","FM-15","ENSF ","V020","200,1,N,0036,1","22000,1,9,N","011265,1,N,1","+0010,1","-0080,1","99999,9",,,"04,1,+01320,1,99,9",,,"04,99,1,99,9,99,9,99999,9,99,9,99,9","10261,1,99999,9",,"MET078METAR ENSF 011520Z AUTO 20007KT 150V230 9999NDV SCT044/// 01/M08 Q1026 W///S3;",
"01300599999","2010-12-01T15:50:00","4","61.25","1.85","117.65","STATFJORD OIL PLATFORM HELIPORT, FO","FM-15","ENSF ","V020","210,1,N,0046,1","22000,1,9,N","011265,1,N,1","+0010,1","-0080,1","99999,9",,,"04,1,+01230,1,99,9",,,"04,99,1,99,9,99,9,99999,9,99,9,99,9","10261,1,99999,9",,"MET070METAR ENSF 011550Z AUTO 21009KT 9999NDV SCT041/// 01/M08 Q1026 W///S3;",
"01300599999","2010-12-01T16:20:00","4","61.25","1.85","117.65","STATFJORD OIL PLATFORM HELIPORT, FO","FM-15","ENSF ","V020","210,1,N,0046,1","01200,1,9,N","011265,1,N,1","+0010,1","-0070,1","99999,9",,,"07,1,+01200,1,99,9",,,"07,99,1,99,9,99,9,99999,9,99,9,99,9","10261,1,99999,9",,"MET070METAR ENSF 011620Z AUTO 21009KT 9999NDV BKN040/// 01/M07 Q1026 W///S3;",
"01300599999","2010-12-01T16:50:00","4","61.25","1.85","117.65","STATFJORD OIL PLATFORM HELIPORT, FO","FM-15","ENSF ","V020","220,1,N,0041,1","22000,1,9,N","011265,1,N,1","+0010,1","-0080,1","99999,9",,,"02,1,+01260,1,99,9",,,"02,99,1,99,9,99,9,99999,9,99,9,99,9","10261,1,99999,9",,"MET070METAR ENSF 011650Z AUTO 22008KT 9999NDV FEW042/// 01/M08 Q1026 W///S3;",
"01300599999","2010-12-01T17:20:00","4","61.25","1.85","117.65","STATFJORD OIL PLATFORM HELIPORT, FO","FM-15","ENSF ","V020","190,1,N,0051,1","22000,1,9,N","011265,1,N,1","+0010,1","-0080,1","99999,9",,,"04,1,+01230,1,99,9",,,"04,99,1,99,9,99,9,99999,9,99,9,99,9","10261,1,99999,9",,"MET070METAR ENSF 011720Z AUTO 19010KT 9999NDV SCT041/// 01/M08 Q1026 W///S3;",
"01300599999","2010-12-01T17:50:00","4","61.25","1.85","117.65","STATFJORD OIL PLATFORM HELIPORT, FO","FM-15","ENSF ","V020","220,1,N,0046,1","22000,1,9,N","011265,1,N,1","+0010,1","-0080,1","99999,9",,,"02,1,+01230,1,99,9",,,"02,99,1,99,9,99,9,99999,9,99,9,99,9","10261,1,99999,9",,"MET070METAR ENSF 011750Z AUTO 22009KT 9999NDV FEW041/// 01/M08 Q1026 W///S3;",
"01300599999","2010-12-01T18:20:00","4","61.25","1.85","117.65","STATFJORD OIL PLATFORM HELIPORT, FO","FM-15","ENSF ","V020","220,1,N,0051,1","01260,1,9,N","011265,1,N,1","+0010,1","-0080,1","99999,9",,,"07,1,+01260,1,99,9",,,"07,99,1,99,9,99,9,99999,9,99,9,99,9","10261,1,99999,9",,"MET070METAR ENSF 011820Z AUTO 22010KT 9999NDV BKN042/// 01/M08 Q1026 W///S3;",
"01300599999","2010-12-01T18:50:00","4","61.25","1.85","117.65","STATFJORD OIL PLATFORM HELIPORT, FO","FM-15","ENSF ","V020","220,1,N,0046,1","01230,1,9,N","011265,1,N,1","+0010,1","-0080,1","99999,9",,,"07,1,+01230,1,99,9",,,"07,99,1,99,9,99,9,99999,9,99,9,99,9","10261,1,99999,9",,"MET070METAR ENSF 011850Z AUTO 22009KT 9999NDV BKN041/// 01/M08 Q1026 W///S3;",
"01300599999","2010-12-01T19:20:00","4","61.25","1.85","117.65","STATFJORD OIL PLATFORM HELIPORT, FO","FM-15","ENSF ","V020","210,1,N,0057,1","01230,1,9,N","011265,1,N,1","+0010,1","-0080,1","99999,9",,,"07,1,+01230,1,99,9",,,"07,99,1,99,9,99,9,99999,9,99,9,99,9","10261,1,99999,9",,"MET070METAR ENSF 011920Z AUTO 21011KT 9999NDV BKN041/// 01/M08 Q1026 W///S3;",
"01300599999","2010-12-01T19:50:00","4","61.25","1.85","117.65","STATFJORD OIL PLATFORM HELIPORT, FO","FM-15","ENSF ","V020","210,1,N,0051,1","01290,1,9,N","011265,1,N,1","+0010,1","-0080,1","99999,9",,,"07,1,+01290,1,99,9",,,"07,99,1,99,9,99,9,99999,9,99,9,99,9","10261,1,99999,9",,"MET070METAR ENSF 011950Z AUTO 21010KT 9999NDV BKN043/// 01/M08 Q1026 W///S3;",
"01300599999","2010-12-01T20:20:00","4","61.25","1.85","117.65","STATFJORD OIL PLATFORM HELIPORT, FO","FM-15","ENSF ","V020","210,1,N,0051,1","22000,1,9,N","011265,1,N,1","+0010,1","-0090,1","99999,9",,,"04,1,+01260,1,99,9",,,"04,99,1,99,9,99,9,99999,9,99,9,99,9","10261,1,99999,9",,"MET070METAR ENSF 012020Z AUTO 21010KT 9999NDV SCT042/// 01/M09 Q1026 W///S3;",
"01300599999","2010-12-01T20:50:00","4","61.25","1.85","117.65","STATFJORD OIL PLATFORM HELIPORT, FO","FM-15","ENSF ","V020","200,1,N,0051,1","22000,1,9,N","011265,1,N,1","+0010,1","-0070,1","99999,9",,,"04,1,+01230,1,99,9",,,"04,99,1,99,9,99,9,99999,9,99,9,99,9","10261,1,99999,9",,"MET070METAR ENSF 012050Z AUTO 20010KT 9999NDV SCT041/// 01/M07 Q1026 W///S3;",
"01300599999","2010-12-01T21:20:00","4","61.25","1.85","117.65","STATFJORD OIL PLATFORM HELIPORT, FO","FM-15","ENSF ","V020","220,1,N,0057,1","01140,1,9,N","011265,1,N,1","+0010,1","-0070,1","99999,9",,,"07,1,+01140,1,99,9",,,"07,99,1,99,9,99,9,99999,9,99,9,99,9","10261,1,99999,9",,"MET070METAR ENSF 012120Z AUTO 22011KT 9999NDV BKN038/// 01/M07 Q1026 W///S3;",
"01300599999","2010-12-01T21:50:00","4","61.25","1.85","117.65","STATFJORD OIL PLATFORM HELIPORT, FO","FM-15","ENSF ","V020","200,1,N,0057,1","01170,1,9,N","011265,1,N,1","+0010,1","-0080,1","99999,9",,,"07,1,+01170,1,99,9",,,"07,99,1,99,9,99,9,99999,9,99,9,99,9","10261,1,99999,9",,"MET070METAR ENSF 012150Z AUTO 20011KT 9999NDV BKN039/// 01/M08 Q1026 W///S3;",
"01300599999","2010-12-01T22:20:00","4","61.25","1.85","117.65","STATFJORD OIL PLATFORM HELIPORT, FO","FM-15","ENSF ","V020","200,1,N,0062,1","01200,1,9,N","011265,1,N,1","+0010,1","-0070,1","99999,9",,,"07,1,+01200,1,99,9",,,"07,99,1,99,9,99,9,99999,9,99,9,99,9","10251,1,99999,9",,"MET070METAR ENSF 012220Z AUTO 20012KT 9999NDV BKN040/// 01/M07 Q1025 W///S3;",
"01300599999","2010-12-01T22:50:00","4","61.25","1.85","117.65","STATFJORD OIL PLATFORM HELIPORT, FO","FM-15","ENSF ","V020","210,1,N,0072,1","01200,1,9,N","011265,1,N,1","+0010,1","-0080,1","99999,9",,,"08,1,+01200,1,99,9",,,"08,99,1,99,9,99,9,99999,9,99,9,99,9","10251,1,99999,9",,"MET070METAR ENSF 012250Z AUTO 21014KT 9999NDV OVC040/// 01/M08 Q1025 W///S3;",
"01300599999","2010-12-01T23:20:00","4","61.25","1.85","117.65","STATFJORD OIL PLATFORM HELIPORT, FO","FM-15","ENSF ","V020","210,1,N,0051,1","01230,1,9,N","011265,1,N,1","+0010,1","-0080,1","99999,9",,,"07,1,+01230,1,99,9",,,"07,99,1,99,9,99,9,99999,9,99,9,99,9","10251,1,99999,9",,"MET070METAR ENSF 012320Z AUTO 21010KT 9999NDV BKN041/// 01/M08 Q1025 W///S3;",
"01300599999","2010-12-01T23:50:00","4","61.25","1.85","117.65","STATFJORD OIL PLATFORM HELIPORT, FO","FM-15","ENSF ","V020","220,1,N,0067,1","01230,1,9,N","011265,1,N,1","+0010,1","-0090,1","99999,9",,,"07,1,+01230,1,99,9",,,"07,99,1,99,9,99,9,99999,9,99,9,99,9","10251,1,99999,9",,"MET070METAR ENSF 012350Z AUTO 22013KT 9999NDV BKN041/// 01/M09 Q1025 W///S3;",
"01300599999","2010-12-02T00:20:00","4","61.25","1.85","117.65","STATFJORD OIL PLATFORM HELIPORT, FO","FM-15","ENSF ","V020","210,1,N,0051,1","01230,1,9,N","011265,1,N,1","+0010,1","-0080,1","99999,9",,,"07,1,+01230,1,99,9",,,"07,99,1,99,9,99,9,99999,9,99,9,99,9","10251,1,99999,9",,"MET070METAR ENSF 020020Z AUTO 21010KT 9999NDV BKN041/// 01/M08 Q1025 W///S3;",
"01300599999","2010-12-02T00:50:00","4","61.25","1.85","117.65","STATFJORD OIL PLATFORM HELIPORT, FO","FM-15","ENSF ","V020","190,1,N,0057,1","01230,1,9,N","011265,1,N,1","+0010,1","-0080,1","99999,9",,,"07,1,+01230,1,99,9",,,"07,99,1,99,9,99,9,99999,9,99,9,99,9","10240,1,99999,9",,"MET070METAR ENSF 020050Z AUTO 19011KT 9999NDV BKN041/// 01/M08 Q1024 W///S3;",
"01300599999","2010-12-02T01:20:00","4","61.25","1.85","117.65","STATFJORD OIL PLATFORM HELIPORT, FO","FM-15","ENSF ","V020","200,1,N,0057,1","01200,1,9,N","011265,1,N,1","+0010,1","-0080,1","99999,9",,,"07,1,+01200,1,99,9",,,"07,99,1,99,9,99,9,99999,9,99,9,99,9","10240,1,99999,9",,"MET078METAR ENSF 020120Z AUTO 20011KT 160V220 9999NDV BKN040/// 01/M08 Q1024 W///S3;",
"01300599999","2010-12-02T01:50:00","4","61.25","1.85","117.65","STATFJORD OIL PLATFORM HELIPORT, FO","FM-15","ENSF ","V020","200,1,N,0062,1","01260,1,9,N","011265,1,N,1","+0010,1","-0080,1","99999,9",,,"07,1,+01260,1,99,9",,,"07,99,1,99,9,99,9,99999,9,99,9,99,9","10240,1,99999,9",,"MET070METAR ENSF 020150Z AUTO 20012KT 9999NDV BKN042/// 01/M08 Q1024 W///S3;",
"01300599999","2010-12-02T02:20:00","4","61.25","1.85","117.65","STATFJORD OIL PLATFORM HELIPORT, FO","FM-15","ENSF ","V020","210,1,N,0087,1","01230,1,9,N","011265,1,N,1","+0010,1","-0080,1","99999,9",,,"07,1,+01230,1,99,9",,,"07,99,1,99,9,99,9,99999,9,99,9,99,9","10240,1,99999,9",,"MET070METAR ENSF 020220Z AUTO 21017KT 9999NDV BKN041/// 01/M08 Q1024 W///S3;",
"01300599999","2010-12-02T02:50:00","4","61.25","1.85","117.65","STATFJORD OIL PLATFORM HELIPORT, FO","FM-15","ENSF ","V020","200,1,N,0051,1","01260,1,9,N","011265,1,N,1","+0010,1","-0070,1","99999,9",,,"07,1,+01260,1,99,9",,,"07,99,1,99,9,99,9,99999,9,99,9,99,9","10230,1,99999,9",,"MET070METAR ENSF 020250Z AUTO 20010KT 9999NDV BKN042/// 01/M07 Q1023 W///S3;",
"01300599999","2010-12-02T03:20:00","4","61.25","1.85","117.65","STATFJORD OIL PLATFORM HELIPORT, FO","FM-15","ENSF ","V020","210,1,N,0062,1","01290,1,9,N","011265,1,N,1","+0010,1","-0080,1","99999,9",,,"08,1,+01290,1,99,9",,,"08,99,1,99,9,99,9,99999,9,99,9,99,9","10230,1,99999,9",,"MET070METAR ENSF 020320Z AUTO 21012KT 9999NDV OVC043/// 01/M08 Q1023 W///S3;",
"01300599999","2010-12-02T03:50:00","4","61.25","1.85","117.65","STATFJORD OIL PLATFORM HELIPORT, FO","FM-15","ENSF ","V020","200,1,N,0072,1","01290,1,9,N","011265,1,N,1","+0010,1","-0080,1","99999,9",,,"08,1,+01290,1,99,9",,,"08,99,1,99,9,99,9,99999,9,99,9,99,9","10230,1,99999,9",,"MET070METAR ENSF 020350Z AUTO 20014KT 9999NDV OVC043/// 01/M08 Q1023 W///S3;",
"01300599999","2010-12-02T04:20:00","4","61.25","1.85","117.65","STATFJORD OIL PLATFORM HELIPORT, FO","FM-15","ENSF ","V020","190,1,N,0087,1","01230,1,9,N","011265,1,N,1","+0020,1","-0070,1","99999,9",,,"07,1,+01230,1,99,9",,,"07,99,1,99,9,99,9,99999,9,99,9,99,9","10220,1,99999,9",,"MET070METAR ENSF 020420Z AUTO 19017KT 9999NDV BKN041/// 02/M07 Q1022 W///S3;",
"01300599999","2010-12-02T04:50:00","4","61.25","1.85","117.65","STATFJORD OIL PLATFORM HELIPORT, FO","FM-15","ENSF ","V020","190,1,N,0072,1","01170,1,9,N","011265,1,N,1","+0020,1","-0060,1","99999,9","61,1",,"07,1,+01170,1,99,9",,,"07,99,1,99,9,99,9,99999,9,99,9,99,9","10220,1,99999,9",,"MET074METAR ENSF 020450Z AUTO 19014KT 9999NDV -RA BKN039/// 02/M06 Q1022 W///S3;",
"01300599999","2010-12-02T05:20:00","4","61.25","1.85","117.65","STATFJORD OIL PLATFORM HELIPORT, FO","FM-15","ENSF ","V020","200,1,N,0077,1","01200,1,9,N","011265,1,N,1","+0020,1","-0070,1","99999,9",,,"07,1,+01200,1,99,9",,,"07,99,1,99,9,99,9,99999,9,99,9,99,9","10220,1,99999,9",,"MET070METAR ENSF 020520Z AUTO 20015KT 9999NDV BKN040/// 02/M07 Q1022 W///S3;",
"01300599999","2010-12-02T05:50:00","4","61.25","1.85","117.65","STATFJORD OIL PLATFORM HELIPORT, FO","FM-15","ENSF ","V020","190,1,N,0062,1","01230,1,9,N","011265,1,N,1","+0020,1","-0070,1","99999,9",,,"08,1,+01230,1,99,9",,,"08,99,1,99,9,99,9,99999,9,99,9,99,9","10220,1,99999,9",,"MET078METAR ENSF 020550Z AUTO 19012KT 150V220 9999NDV OVC041/// 02/M07 Q1022 W///S3;",
"01300599999","2010-12-02T06:20:00","4","61.25","1.85","117.65","STATFJORD OIL PLATFORM HELIPORT, FO","FM-15","ENSF ","V020","200,1,N,0098,1","01470,1,9,N","011265,1,N,1","+0020,1","-0070,1","99999,9",,,"08,1,+01470,1,99,9",,,"08,99,1,99,9,99,9,99999,9,99,9,99,9","10210,1,99999,9",,"MET070METAR ENSF 020620Z AUTO 20019KT 9999NDV OVC049/// 02/M07 Q1021 W///S3;",
"01300599999","2010-12-02T06:50:00","4","61.25","1.85","117.65","STATFJORD OIL PLATFORM HELIPORT, FO","FM-15","ENSF ","V020","190,1,N,0072,1","01440,1,9,N","011265,1,N,1","+0020,1","-0060,1","99999,9",,,"08,1,+01440,1,99,9",,,"08,99,1,99,9,99,9,99999,9,99,9,99,9","10210,1,99999,9",,"MET070METAR ENSF 020650Z AUTO 19014KT 9999NDV OVC048/// 02/M06 Q1021 W///S3;",
"01300599999","2010-12-02T07:20:00","4","61.25","1.85","117.65","STATFJORD OIL PLATFORM HELIPORT, FO","FM-15","ENSF ","V020","200,1,N,0087,1","01110,1,9,N","011265,1,N,1","+0020,1","-0060,1","99999,9",,,"07,1,+01110,1,99,9",,,"07,99,1,99,9,99,9,99999,9,99,9,99,9","10210,1,99999,9",,"MET070METAR ENSF 020720Z AUTO 20017KT 9999NDV BKN037/// 02/M06 Q1021 W///S3;",
"01300599999","2010-12-02T07:50:00","4","61.25","1.85","117.65","STATFJORD OIL PLATFORM HELIPORT, FO","FM-15","ENSF ","V020","190,1,N,0108,1","00900,1,9,N","011265,1,N,1","+0020,1","-0040,1","99999,9",,,"07,1,+00900,1,99,9",,,"07,99,1,99,9,99,9,99999,9,99,9,99,9","10210,1,99999,9",,"MET070METAR ENSF 020750Z AUTO 19021KT 9999NDV BKN030/// 02/M04 Q1021 W///S3;",
"01300599999","2010-12-02T08:20:00","4","61.25","1.85","117.65","STATFJORD OIL PLATFORM HELIPORT, FO","FM-15","ENSF ","V020","190,1,N,0103,1","00930,1,9,N","011265,1,N,1","+0020,1","-0050,1","99999,9",,,"07,1,+00930,1,99,9",,,"07,99,1,99,9,99,9,99999,9,99,9,99,9","10210,1,99999,9",,"MET070METAR ENSF 020820Z AUTO 19020KT 9999NDV BKN031/// 02/M05 Q1021 W///S3;",
"01300599999","2010-12-02T08:50:00","4","61.25","1.85","117.65","STATFJORD OIL PLATFORM HELIPORT, FO","FM-15","ENSF ","V020","200,1,N,0103,1","00990,1,9,N","011265,1,N,1","+0020,1","-0050,1","99999,9",,,"07,1,+00990,1,99,9",,,"07,99,1,99,9,99,9,99999,9,99,9,99,9","10200,1,99999,9",,"MET070METAR ENSF 020850Z AUTO 20020KT 9999NDV BKN033/// 02/M05 Q1020 W///S3;",
"01300599999","2010-12-02T09:20:00","4","61.25","1.85","117.65","STATFJORD OIL PLATFORM HELIPORT, FO","FM-15","ENSF ","V020","200,1,N,0103,1","01020,1,9,N","011265,1,N,1","+0020,1","-0050,1","99999,9",,,"07,1,+01020,1,99,9",,,"07,99,1,99,9,99,9,99999,9,99,9,99,9","10200,1,99999,9",,"MET070METAR ENSF 020920Z AUTO 20020KT 9999NDV BKN034/// 02/M05 Q1020 W///S3;",
"01300599999","2010-12-02T09:50:00","4","61.25","1.85","117.65","STATFJORD OIL PLATFORM HELIPORT, FO","FM-15","ENSF ","V020","190,1,N,0098,1","01020,1,9,N","011265,1,N,1","+0020,1","-0040,1","99999,9",,,"07,1,+01020,1,99,9","07,1,+01500,1,99,9",,"07,99,1,99,9,99,9,99999,9,99,9,99,9","10200,1,99999,9",,"MET080METAR ENSF 020950Z AUTO 19019KT 9999NDV BKN034/// BKN057/// 02/M04 Q1020 W///S3;",
"01300599999","2010-12-02T10:20:00","4","61.25","1.85","117.65","STATFJORD OIL PLATFORM HELIPORT, FO","FM-15","ENSF ","V020","200,1,N,0108,1","01020,1,9,N","011265,1,N,1","+0020,1","-0050,1","99999,9",,,"07,1,+01020,1,99,9",,,"07,99,1,99,9,99,9,99999,9,99,9,99,9","10190,1,99999,9",,"MET070METAR ENSF 021020Z AUTO 20021KT 9999NDV BKN034/// 02/M05 Q1019 W///S3;",
"01300599999","2010-12-02T10:50:00","4","61.25","1.85","117.65","STATFJORD OIL PLATFORM HELIPORT, FO","FM-15","ENSF ","V020","200,1,N,0118,1","01350,1,9,N","011265,1,N,1","+0020,1","-0050,1","99999,9",,,"08,1,+01350,1,99,9",,,"08,99,1,99,9,99,9,99999,9,99,9,99,9","10190,1,99999,9",,"MET070METAR ENSF 021050Z AUTO 20023KT 9999NDV OVC045/// 02/M05 Q1019 W///S3;",
"01300599999","2010-12-02T11:20:00","4","61.25","1.85","117.65","STATFJORD OIL PLATFORM HELIPORT, FO","FM-15","ENSF ","V020","200,1,N,0103,1","00990,1,9,N","011265,1,N,1","+0020,1","-0050,1","99999,9",,,"07,1,+00990,1,99,9",,,"07,99,1,99,9,99,9,99999,9,99,9,99,9","10190,1,99999,9",,"MET070METAR ENSF 021120Z AUTO 20020KT 9999NDV BKN033/// 02/M05 Q1019 W///S3;",
"01300599999","2010-12-02T11:50:00","4","61.25","1.85","117.65","STATFJORD OIL PLATFORM HELIPORT, FO","FM-15","ENSF ","V020","200,1,N,0113,1","01050,1,9,N","011265,1,N,1","+0020,1","-0050,1","99999,9",,,"07,1,+01050,1,99,9",,,"07,99,1,99,9,99,9,99999,9,99,9,99,9","10180,1,99999,9",,"MET070METAR ENSF 021150Z AUTO 20022KT 9999NDV BKN035/// 02/M05 Q1018 W///S3;",
"01300599999","2010-12-02T12:20:00","4","61.25","1.85","117.65","STATFJORD OIL PLATFORM HELIPORT, FO","FM-15","ENSF ","V020","200,1,N,0113,1","01020,1,9,N","011265,1,N,1","+0020,1","-0040,1","99999,9","81,1",,"07,1,+01020,1,99,9",,,"07,99,1,99,9,99,9,99999,9,99,9,99,9","10169,1,99999,9",,"MET076METAR ENSF 021220Z AUTO 20022KT 9999NDV -SHRA BKN034/// 02/M04 Q1017 W///S3;",
"01300599999","2010-12-02T12:50:00","4","61.25","1.85","117.65","STATFJORD OIL PLATFORM HELIPORT, FO","FM-15","ENSF ","V020","200,1,N,0118,1","01500,1,9,N","011265,1,N,1","+0020,1","-0050,1","99999,9",,,"02,1,+00990,1,99,9","07,1,+01500,1,99,9",,"07,99,1,99,9,99,9,99999,9,99,9,99,9","10169,1,99999,9",,"MET080METAR ENSF 021250Z AUTO 20023KT 9999NDV FEW033/// BKN059/// 02/M05 Q1017 W///S3;",
"01300599999","2010-12-02T13:20:00","4","61.25","1.85","117.65","STATFJORD OIL PLATFORM HELIPORT, FO","FM-15","ENSF ","V020","200,1,N,0118,1","01020,1,9,N","011265,1,N,1","+0020,1","-0050,1","99999,9",,,"07,1,+01020,1,99,9",,,"07,99,1,99,9,99,9,99999,9,99,9,99,9","10169,1,99999,9",,"MET070METAR ENSF 021320Z AUTO 20023KT 9999NDV BKN034/// 02/M05 Q1017 W///S3;",
"01300599999","2010-12-02T13:50:00","4","61.25","1.85","117.65","STATFJORD OIL PLATFORM HELIPORT, FO","FM-15","ENSF ","V020","210,1,N,0108,1","01500,1,9,N","011265,1,N,1","+0020,1","-0050,1","99999,9",,,"02,1,+01050,1,99,9","07,1,+01500,1,99,9",,"07,99,1,99,9,99,9,99999,9,99,9,99,9","10159,1,99999,9",,"MET080METAR ENSF 021350Z AUTO 21021KT 9999NDV FEW035/// BKN059/// 02/M05 Q1016 W///S3;",
"01300599999","2010-12-02T14:20:00","4","61.25","1.85","117.65","STATFJORD OIL PLATFORM HELIPORT, FO","FM-15","ENSF ","V020","210,1,N,0103,1","01080,1,9,N","011265,1,N,1","+0020,1","-0050,1","99999,9",,,"07,1,+01080,1,99,9",,,"07,99,1,99,9,99,9,99999,9,99,9,99,9","10159,1,99999,9",,"MET070METAR ENSF 021420Z AUTO 21020KT 9999NDV BKN036/// 02/M05 Q1016 W///S3;",
"01300599999","2010-12-02T14:50:00","4","61.25","1.85","117.65","STATFJORD OIL PLATFORM HELIPORT, FO","FM-15","ENSF ","V020","200,1,N,0108,1","00990,1,9,N","011265,1,N,1","+0020,1","-0050,1","99999,9",,,"07,1,+00990,1,99,9","07,1,+01500,1,99,9",,"07,99,1,99,9,99,9,99999,9,99,9,99,9","10159,1,99999,9",,"MET080METAR ENSF 021450Z AUTO 20021KT 9999NDV BKN033/// BKN056/// 02/M05 Q1016 W///S4;",
"01300599999","2010-12-02T15:20:00","4","61.25","1.85","117.65","STATFJORD OIL PLATFORM HELIPORT, FO","FM-15","ENSF ","V020","200,1,N,0113,1","01800,1,9,N","011265,1,N,1","+0020,1","-0040,1","99999,9",,,"04,1,+00990,1,99,9","07,1,+01800,1,99,9",,"07,99,1,99,9,99,9,99999,9,99,9,99,9","10149,1,99999,9",,"MET080METAR ENSF 021520Z AUTO 20022KT 9999NDV SCT033/// BKN064/// 02/M04 Q1015 W///S4;",
"01300599999","2010-12-02T15:50:00","4","61.25","1.85","117.65","STATFJORD OIL PLATFORM HELIPORT, FO","FM-15","ENSF ","V020","200,1,N,0118,1","01800,1,9,N","011265,1,N,1","+0020,1","-0050,1","99999,9",,,"04,1,+00990,1,99,9","07,1,+01800,1,99,9",,"07,99,1,99,9,99,9,99999,9,99,9,99,9","10149,1,99999,9",,"MET080METAR ENSF 021550Z AUTO 20023KT 9999NDV SCT033/// BKN063/// 02/M05 Q1015 W///S4;",
"01300599999","2010-12-02T16:20:00","4","61.25","1.85","117.65","STATFJORD OIL PLATFORM HELIPORT, FO","FM-15","ENSF ","V020","210,1,N,0113,1","01080,1,9,N","011265,1,N,1","+0020,1","-0040,1","99999,9",,,"07,1,+01080,1,99,9",,,"07,99,1,99,9,99,9,99999,9,99,9,99,9","10139,1,99999,9",,"MET070METAR ENSF 021620Z AUTO 21022KT 9999NDV BKN036/// 02/M04 Q1014 W///S4;",
"01300599999","2010-12-02T16:50:00","4","61.25","1.85","117.65","STATFJORD OIL PLATFORM HELIPORT, FO","FM-15","ENSF ","V020","210,1,N,0108,1","01500,1,9,N","011265,1,N,1","+0020,1","-0050,1","99999,9",,,"07,1,+01500,1,99,9",,,"07,99,1,99,9,99,9,99999,9,99,9,99,9","10139,1,99999,9",,"MET070METAR ENSF 021650Z AUTO 21021KT 9999NDV BKN059/// 02/M05 Q1014 W///S4;",
"01300599999","2010-12-02T17:20:00","4","61.25","1.85","117.65","STATFJORD OIL PLATFORM HELIPORT, FO","FM-15","ENSF ","V020","210,1,N,0108,1","01800,1,9,N","011265,1,N,1","+0030,1","-0050,1","99999,9",,,"02,1,+01050,1,99,9","07,1,+01800,1,99,9",,"07,99,1,99,9,99,9,99999,9,99,9,99,9","10139,1,99999,9",,"MET080METAR ENSF 021720Z AUTO 21021KT 9999NDV FEW035/// BKN061/// 03/M05 Q1014 W///S4;",
"01300599999","2010-12-02T17:50:00","4","61.25","1.85","117.65","STATFJORD OIL PLATFORM HELIPORT, FO","FM-15","ENSF ","V020","200,1,N,0113,1","01500,1,9,N","011265,1,N,1","+0030,1","-0050,1","99999,9",,,"02,1,+01140,1,99,9","07,1,+01500,1,99,9",,"07,99,1,99,9,99,9,99999,9,99,9,99,9","10139,1,99999,9",,"MET080METAR ENSF 021750Z AUTO 20022KT 9999NDV FEW038/// BKN059/// 03/M05 Q1014 W///S4;",
"01300599999","2010-12-02T18:20:00","4","61.25","1.85","117.65","STATFJORD OIL PLATFORM HELIPORT, FO","FM-15","ENSF ","V020","200,1,N,0118,1","01800,1,9,N","011265,1,N,1","+0030,1","-0040,1","99999,9",,,"02,1,+00990,1,99,9","07,1,+01800,1,99,9",,"07,99,1,99,9,99,9,99999,9,99,9,99,9","10129,1,99999,9",,"MET080METAR ENSF 021820Z AUTO 20023KT 9999NDV FEW033/// BKN062/// 03/M04 Q1013 W///S4;",
"01300599999","2010-12-02T18:50:00","4","61.25","1.85","117.65","STATFJORD OIL PLATFORM HELIPORT, FO","FM-15","ENSF ","V020","200,1,N,0113,1","01350,1,9,N","011265,1,N,1","+0030,1","-0050,1","99999,9","81,1",,"08,1,+01350,1,99,9",,,"08,99,1,99,9,99,9,99999,9,99,9,99,9","10129,1,99999,9",,"MET076METAR ENSF 021850Z AUTO 20022KT 9999NDV -SHRA OVC045/// 03/M05 Q1013 W///S4;",
"01300599999","2010-12-02T19:20:00","4","61.25","1.85","117.65","STATFJORD OIL PLATFORM HELIPORT, FO","FM-15","ENSF ","V020","210,1,N,0108,1","01110,1,9,N","011265,1,N,1","+0030,1","-0040,1","99999,9",,,"07,1,+01110,1,99,9",,,"07,99,1,99,9,99,9,99999,9,99,9,99,9","10129,1,99999,9",,"MET070METAR ENSF 021920Z AUTO 21021KT 9999NDV BKN037/// 03/M04 Q1013 W///S4;",
"01300599999","2010-12-02T19:50:00","4","61.25","1.85","117.65","STATFJORD OIL PLATFORM HELIPORT, FO","FM-15","ENSF ","V020","210,1,N,0108,1","01500,1,9,N","011265,1,N,1","+0030,1","-0050,1","99999,9","81,1",,"02,1,+01080,1,99,9","07,1,+01500,1,99,9",,"07,99,1,99,9,99,9,99999,9,99,9,99,9","10119,1,99999,9",,"MET086METAR ENSF 021950Z AUTO 21021KT 9999NDV -SHRA FEW036/// BKN059/// 03/M05 Q1012 W///S4;",
"01300599999","2010-12-02T20:20:00","4","61.25","1.85","117.65","STATFJORD OIL PLATFORM HELIPORT, FO","FM-15","ENSF ","V020","200,1,N,0113,1","01500,1,9,N","011265,1,N,1","+0030,1","-0050,1","99999,9",,,"02,1,+01110,1,99,9","07,1,+01500,1,99,9",,"07,99,1,99,9,99,9,99999,9,99,9,99,9","10119,1,99999,9",,"MET080METAR ENSF 022020Z AUTO 20022KT 9999NDV FEW037/// BKN057/// 03/M05 Q1012 W///S4;",
"01300599999","2010-12-02T20:50:00","4","61.25","1.85","117.65","STATFJORD OIL PLATFORM HELIPORT, FO","FM-15","ENSF ","V020","200,1,N,0103,1","01470,1,9,N","011265,1,N,1","+0030,1","-0060,1","99999,9",,,"07,1,+01470,1,99,9",,,"07,99,1,99,9,99,9,99999,9,99,9,99,9","10108,1,99999,9",,"MET070METAR ENSF 022050Z AUTO 20020KT 9999NDV BKN049/// 03/M06 Q1011 W///S4;",
"01300599999","2010-12-02T21:20:00","4","61.25","1.85","117.65","STATFJORD OIL PLATFORM HELIPORT, FO","FM-15","ENSF ","V020","210,1,N,0093,1","01800,1,9,N","011265,1,N,1","+0030,1","-0070,1","99999,9",,,"02,1,+01290,1,99,9","07,1,+01800,1,99,9",,"07,99,1,99,9,99,9,99999,9,99,9,99,9","10108,1,99999,9","0144,1","MET083METAR ENSF 022120Z AUTO 21018G28KT 9999NDV FEW043/// BKN061/// 03/M07 Q1011 W///S4;",
"01300599999","2010-12-02T21:50:00","4","61.25","1.85","117.65","STATFJORD OIL PLATFORM HELIPORT, FO","FM-15","ENSF ","V020","210,1,N,0087,1","01800,1,9,N","011265,1,N,1","+0030,1","-0070,1","99999,9",,,"04,1,+01320,1,99,9","07,1,+01800,1,99,9",,"07,99,1,99,9,99,9,99999,9,99,9,99,9","10108,1,99999,9",,"MET080METAR ENSF 022150Z AUTO 21017KT 9999NDV SCT044/// BKN065/// 03/M07 Q1011 W///S4;",
"01300599999","2010-12-02T22:20:00","4","61.25","1.85","117.65","STATFJORD OIL PLATFORM HELIPORT, FO","FM-15","ENSF ","V020","210,1,N,0087,1","01800,1,9,N","011265,1,N,1","+0030,1","-0080,1","99999,9",,,"07,1,+01800,1,99,9",,,"07,99,1,99,9,99,9,99999,9,99,9,99,9","10102,1,99999,9",,"MET070METAR ENSF 022220Z AUTO 21017KT 9999NDV BKN066/// 03/M08 Q1010 W///S4;",
"01300599999","2010-12-02T22:50:00","4","61.25","1.85","117.65","STATFJORD OIL PLATFORM HELIPORT, FO","FM-15","ENSF ","V020","200,1,N,0093,1","01500,1,9,N","011265,1,N,1","+0030,1","-0060,1","99999,9",,,"07,1,+01500,1,99,9",,,"07,99,1,99,9,99,9,99999,9,99,9,99,9","10102,1,99999,9",,"MET070METAR ENSF 022250Z AUTO 20018KT 9999NDV BKN051/// 03/M06 Q1010 W///S4;",
"01300599999","2010-12-02T23:20:00","4","61.25","1.85","117.65","STATFJORD OIL PLATFORM HELIPORT, FO","FM-15","ENSF ","V020","190,1,N,0113,1","01800,1,9,N","011265,1,N,1","+0030,1","-0050,1","99999,9",,,"07,1,+01800,1,99,9",,,"07,99,1,99,9,99,9,99999,9,99,9,99,9","10091,1,99999,9",,"MET070METAR ENSF 022320Z AUTO 19022KT 9999NDV BKN067/// 03/M05 Q1009 W///S4;",
"01300599999","2010-12-02T23:50:00","4","61.25","1.85","117.65","STATFJORD OIL PLATFORM HELIPORT, FO","FM-15","ENSF ","V020","200,1,N,0118,1","01500,1,9,N","011265,1,N,1","+0030,1","-0050,1","99999,9",,,"02,1,+01110,1,99,9","07,1,+01500,1,99,9",,"07,99,1,99,9,99,9,99999,9,99,9,99,9","10091,1,99999,9",,"MET080METAR ENSF 022350Z AUTO 20023KT 9999NDV FEW037/// BKN056/// 03/M05 Q1009 W///S4;",
"01300599999","2010-12-03T00:20:00","4","61.25","1.85","117.65","STATFJORD OIL PLATFORM HELIPORT, FO","FM-15","ENSF ","V020","200,1,N,0123,1","01050,1,9,N","011265,1,N,1","+0030,1","-0040,1","99999,9","81,1",,"07,1,+01050,1,99,9",,,"07,99,1,99,9,99,9,99999,9,99,9,99,9","10081,1,99999,9",,"MET076METAR ENSF 030020Z AUTO 20024KT 9999NDV -SHRA BKN035/// 03/M04 Q1008 W///S4;",
"01300599999","2010-12-03T00:50:00","4","61.25","1.85","117.65","STATFJORD OIL PLATFORM HELIPORT, FO","FM-15","ENSF ","V020","210,1,N,0144,1","01020,1,9,N","011265,1,N,1","+0020,1","-0020,1","99999,9","81,1",,"07,1,+01020,1,99,9",,,"07,99,1,99,9,99,9,99999,9,99,9,99,9","10081,1,99999,9",,"MET076METAR ENSF 030050Z AUTO 21028KT 9999NDV -SHRA BKN034/// 02/M02 Q1008 W///S4;",
"01300599999","2010-12-03T01:20:00","4","61.25","1.85","117.65","STATFJORD OIL PLATFORM HELIPORT, FO","FM-15","ENSF ","V020","210,1,N,0123,1","00600,1,9,N","011265,1,N,1","+0020,1","-0010,1","99999,9","81,1",,"02,1,+00480,1,99,9","07,1,+00600,1,99,9",,"07,99,1,99,9,99,9,99999,9,99,9,99,9","10071,1,99999,9",,"MET086METAR ENSF 030120Z AUTO 21024KT 9999NDV -SHRA FEW016/// BKN020/// 02/M01 Q1007 W///S4;",
"01300599999","2010-12-03T01:50:00","4","61.25","1.85","117.65","STATFJORD OIL PLATFORM HELIPORT, FO","FM-15","ENSF ","V020","200,1,N,0113,1","00720,1,9,N","001900,1,N,1","+0020,1","-0010,1","99999,9","80,1",,"02,1,+00390,1,99,9","07,1,+00720,1,99,9",,"07,99,1,99,9,99,9,99999,9,99,9,99,9","10071,1,99999,9",,"MET088METAR ENSF 030150Z AUTO 20022KT 1900NDV -SHRASN FEW013/// BKN024/// 02/M01 Q1007 W///S4;",
"01300599999","2010-12-03T02:20:00","4","61.25","1.85","117.65","STATFJORD OIL PLATFORM HELIPORT, FO","FM-15","ENSF ","V020","999,9,9,9999,9","00210,1,9,N","011265,1,N,1","+0020,1","-0010,1","99999,9","71,1",,"07,1,+00210,1,99,9","07,1,+00900,1,99,9",,"07,99,1,99,9,99,9,99999,9,99,9,99,9","10061,1,99999,9",,"MET084METAR ENSF 030220Z AUTO /////KT 9999NDV -SN BKN007/// BKN030/// 02/M01 Q1006 W///S4;",
"01300599999","2010-12-03T02:50:00","4","61.25","1.85","117.65","STATFJORD OIL PLATFORM HELIPORT, FO","FM-15","ENSF ","V020","220,1,N,0144,1","00480,1,9,N","011265,1,N,1","+0020,1","+0000,1","99999,9","81,1",,"07,1,+00480,1,99,9",,,"07,99,1,99,9,99,9,99999,9,99,9,99,9","10061,1,99999,9",,"MET075METAR ENSF 030250Z AUTO 22028KT 9999NDV -SHRA BKN016/// 02/00 Q1006 W///S4;",
"01300599999","2010-12-03T03:20:00","4","61.25","1.85","117.65","STATFJORD OIL PLATFORM HELIPORT, FO","FM-15","ENSF ","V020","200,1,N,0072,1","00270,1,9,N","011265,1,N,1","+0010,1","-0010,1","99999,9","85,1",,"07,1,+00270,1,99,9",,,"07,99,1,99,9,99,9,99999,9,99,9,99,9","10061,1,99999,9",,"MET076METAR ENSF 030320Z AUTO 20014KT 9999NDV -SHSN BKN009/// 01/M01 Q1006 W///S4;",
"01300599999","2010-12-03T03:50:00","4","61.25","1.85","117.65","STATFJORD OIL PLATFORM HELIPORT, FO","FM-15","ENSF ","V020","200,1,N,0139,1","00780,1,9,N","011265,1,N,1","+0020,1","+0000,1","99999,9","81,1",,"02,1,+00360,1,99,9","07,1,+00780,1,99,9",,"07,99,1,99,9,99,9,99999,9,99,9,99,9","10051,1,99999,9",,"MET085METAR ENSF 030350Z AUTO 20027KT 9999NDV -SHRA FEW012/// BKN026/// 02/00 Q1005 W///S4;",
"01300599999","2010-12-03T04:20:00","4","61.25","1.85","117.65","STATFJORD OIL PLATFORM HELIPORT, FO","FM-15","ENSF ","V020","210,1,N,0103,1","00630,1,9,N","002800,1,N,1","+0010,1","-0010,1","99999,9","80,1",,"02,1,+00240,1,99,9","07,1,+00630,1,99,9","07,1,+01500,1,99,9","07,99,1,99,9,99,9,99999,9,99,9,99,9","10051,1,99999,9",,"MET097METAR ENSF 030420Z AUTO 21020KT 2800NDV SHRASN FEW008/// BKN021/// BKN057/// 01/M01 Q1005 W///S4;",
"01300599999","2010-12-03T04:50:00","4","61.25","1.85","117.65","STATFJORD OIL PLATFORM HELIPORT, FO","FM-15","ENSF ","V020","200,1,N,0159,1","00450,1,9,N","011265,1,N,1","+0020,1","-0010,1","99999,9",,,"07,1,+00450,1,99,9",,,"07,99,1,99,9,99,9,99999,9,99,9,99,9","10041,1,99999,9",,"MET070METAR ENSF 030450Z AUTO 20031KT 9999NDV BKN015/// 02/M01 Q1004 W///S4;",
"01300599999","2010-12-03T05:20:00","4","61.25","1.85","117.65","STATFJORD OIL PLATFORM HELIPORT, FO","FM-15","ENSF ","V020","200,1,N,0159,1","22000,1,9,N","011265,1,N,1","+0030,1","-0010,1","99999,9",,,"02,1,+00510,1,99,9",,,"02,99,1,99,9,99,9,99999,9,99,9,99,9","10041,1,99999,9",,"MET070METAR ENSF 030520Z AUTO 20031KT 9999NDV FEW017/// 03/M01 Q1004 W///S4;",
"01300599999","2010-12-03T05:50:00","4","61.25","1.85","117.65","STATFJORD OIL PLATFORM HELIPORT, FO","FM-15","ENSF ","V020","200,1,N,0180,1","00660,1,9,N","011265,1,N,1","+0030,1","-0010,1","99999,9","81,1",,"07,1,+00660,1,99,9","07,1,+01500,1,99,9",,"07,99,1,99,9,99,9,99999,9,99,9,99,9","10031,1,99999,9",,"MET086METAR ENSF 030550Z AUTO 20035KT 9999NDV -SHRA BKN022/// BKN050/// 03/M01 Q1003 W///S5;",
"01300599999","2010-12-03T06:20:00","4","61.25","1.85","117.65","STATFJORD OIL PLATFORM HELIPORT, FO","FM-15","ENSF ","V020","200,1,N,0165,1","22000,1,9,N","011265,1,N,1","+0020,1","-0010,1","99999,9",,,"02,1,+00390,1,99,9",,,"02,99,1,99,9,99,9,99999,9,99,9,99,9","10031,1,99999,9",,"MET070METAR ENSF 030620Z AUTO 20032KT 9999NDV FEW013/// 02/M01 Q1003 W///S5;",
"01300599999","2010-12-03T06:50:00","4","61.25","1.85","117.65","STATFJORD OIL PLATFORM HELIPORT, FO","FM-15","ENSF ","V020","200,1,N,0159,1","22000,1,9,N","011265,1,N,1","+0030,1","-0010,1","99999,9",,,"02,1,+00570,1,99,9",,,"02,99,1,99,9,99,9,99999,9,99,9,99,9","10020,1,99999,9",,"MET070METAR ENSF 030650Z AUTO 20031KT 9999NDV FEW019/// 03/M01 Q1002 W///S5;",
"01300599999","2010-12-03T07:20:00","4","61.25","1.85","117.65","STATFJORD OIL PLATFORM HELIPORT, FO","FM-15","ENSF ","V020","190,1,N,0149,1","22000,1,9,N","011265,1,N,1","+0020,1","+0000,1","99999,9",,,"02,1,+00270,1,99,9",,,"02,99,1,99,9,99,9,99999,9,99,9,99,9","10020,1,99999,9",,"MET069METAR ENSF 030720Z AUTO 19029KT 9999NDV FEW009/// 02/00 Q1002 W///S5;",
"01300599999","2010-12-03T07:50:00","4","61.25","1.85","117.65","STATFJORD OIL PLATFORM HELIPORT, FO","FM-15","ENSF ","V020","190,1,N,0154,1","00960,1,9,N","011265,1,N,1","+0030,1","-0010,1","99999,9",,,"02,1,+00450,1,99,9","07,1,+00960,1,99,9",,"07,99,1,99,9,99,9,99999,9,99,9,99,9","10020,1,99999,9",,"MET080METAR ENSF 030750Z AUTO 19030KT 9999NDV FEW015/// BKN032/// 03/M01 Q1002 W///S5;",
"01300599999","2010-12-03T08:20:00","4","61.25","1.85","117.65","STATFJORD OIL PLATFORM HELIPORT, FO","FM-15","ENSF ","V020","190,1,N,0175,1","00840,1,9,N","011265,1,N,1","+0030,1","-0020,1","99999,9",,,"07,1,+00840,1,99,9",,,"07,99,1,99,9,99,9,99999,9,99,9,99,9","10020,1,99999,9",,"MET070METAR ENSF 030820Z AUTO 19034KT 9999NDV BKN028/// 03/M02 Q1002 W///S5;",
"01300599999","2010-12-03T08:50:00","4","61.25","1.85","117.65","STATFJORD OIL PLATFORM HELIPORT, FO","FM-15","ENSF ","V020","210,1,N,0170,1","01410,1,9,N","011265,1,N,1","+0020,1","-0010,1","99999,9",,,"04,1,+00600,1,99,9","07,1,+01410,1,99,9",,"07,99,1,99,9,99,9,99999,9,99,9,99,9","10020,1,99999,9",,"MET080METAR ENSF 030850Z AUTO 21033KT 9999NDV SCT020/// BKN047/// 02/M01 Q1002 W///S5;",
"01300599999","2010-12-03T09:20:00","4","61.25","1.85","117.65","STATFJORD OIL PLATFORM HELIPORT, FO","FM-15","ENSF ","V020","200,1,N,0175,1","00540,1,C,N","011265,1,N,1","+0030,1","-0010,1","99999,9","81,1",,"02,1,+00270,1,99,9","04,1,+00540,1,99,9","07,1,+01080,1,99,9","07,99,1,99,9,99,9,99999,9,99,9,99,9","10010,1,99999,9",,"MET096METAR ENSF 030920Z AUTO 20034KT 9999NDV -SHRA FEW009/// SCT018/// BKN036/// 03/M01 Q1001 W///S5;",
"01300599999","2010-12-03T09:50:00","4","61.25","1.85","117.65","STATFJORD OIL PLATFORM HELIPORT, FO","FM-15","ENSF ","V020","200,1,N,0165,1","01500,1,9,N","011265,1,N,1","+0030,1","-0020,1","99999,9",,,"04,1,+00660,1,99,9","07,1,+01500,1,99,9","07,1,+04800,1,99,9","07,99,1,99,9,99,9,99999,9,99,9,99,9","10010,1,99999,9",,"MET090METAR ENSF 030950Z AUTO 20032KT 9999NDV SCT022/// BKN052/// BKN160/// 03/M02 Q1001 W///S5;",
"01300599999","2010-12-03T10:20:00","4","61.25","1.85","117.65","STATFJORD OIL PLATFORM HELIPORT, FO","FM-15","ENSF ","V020","200,1,N,0159,1","22000,1,9,N","011265,1,N,1","+0030,1","-0020,1","99999,9",,,"04,1,+00900,1,99,9","04,1,+03000,1,99,9",,"04,99,1,99,9,99,9,99999,9,99,9,99,9","10010,1,99999,9",,"MET080METAR ENSF 031020Z AUTO 20031KT 9999NDV SCT030/// SCT100/// 03/M02 Q1001 W///S5;",
"01300599999","2010-12-03T10:50:00","4","61.25","1.85","117.65","STATFJORD OIL PLATFORM HELIPORT, FO","FM-15","ENSF ","V020","190,1,N,0139,1","01080,1,9,N","011265,1,N,1","+0030,1","-0010,1","99999,9","61,1",,"02,1,+00750,1,99,9","07,1,+01080,1,99,9","07,1,+03000,1,99,9","07,99,1,99,9,99,9,99999,9,99,9,99,9","10010,1,99999,9",,"MET094METAR ENSF 031050Z AUTO 19027KT 9999NDV -RA FEW025/// BKN036/// BKN100/// 03/M01 Q1001 W///S5;",
"01300599999","2010-12-03T11:20:00","4","61.25","1.85","117.65","STATFJORD OIL PLATFORM HELIPORT, FO","FM-15","ENSF ","V020","210,1,N,0149,1","00990,1,9,N","011265,1,N,1","+0030,1","+0000,1","99999,9",,,"02,1,+00480,1,99,9","07,1,+00990,1,99,9",,"07,99,1,99,9,99,9,99999,9,99,9,99,9","10000,1,99999,9",,"MET079METAR ENSF 031120Z AUTO 21029KT 9999NDV FEW016/// BKN033/// 03/00 Q1000 W///S5;",
"01300599999","2010-12-03T11:50:00","4","61.25","1.85","117.65","STATFJORD OIL PLATFORM HELIPORT, FO","FM-15","ENSF ","V020","210,1,N,0129,1","00960,1,9,N","011265,1,N,1","+0030,1","+0000,1","99999,9","81,1",,"02,1,+00420,1,99,9","07,1,+00960,1,99,9",,"07,99,1,99,9,99,9,99999,9,99,9,99,9","10000,1,99999,9",,"MET085METAR ENSF 031150Z AUTO 21025KT 9999NDV -SHRA FEW014/// BKN032/// 03/00 Q1000 W///S5;",
"01300599999","2010-12-03T12:20:00","4","61.25","1.85","117.65","STATFJORD OIL PLATFORM HELIPORT, FO","FM-15","ENSF ","V020","190,1,N,0154,1","00960,1,9,N","011265,1,N,1","+0040,1","-0020,1","99999,9",,,"07,1,+00960,1,99,9",,,"07,99,1,99,9,99,9,99999,9,99,9,99,9","10000,1,99999,9",,"MET070METAR ENSF 031220Z AUTO 19030KT 9999NDV BKN032/// 04/M02 Q1000 W///S5;",
"01300599999","2010-12-03T12:50:00","4","61.25","1.85","117.65","STATFJORD OIL PLATFORM HELIPORT, FO","FM-15","ENSF ","V020","190,1,N,0154,1","00960,1,9,N","011265,1,N,1","+0040,1","-0020,1","99999,9","51,1",,"07,1,+00960,1,99,9",,,"07,99,1,99,9,99,9,99999,9,99,9,99,9","09990,1,99999,9",,"MET074METAR ENSF 031250Z AUTO 19030KT 9999NDV -DZ BKN032/// 04/M02 Q0999 W///S5;",
"01300599999","2010-12-03T13:20:00","4","61.25","1.85","117.65","STATFJORD OIL PLATFORM HELIPORT, FO","FM-15","ENSF ","V020","190,1,N,0144,1","00930,1,9,N","011265,1,N,1","+0040,1","-0010,1","99999,9",,,"02,1,+00600,1,99,9","07,1,+00930,1,99,9",,"07,99,1,99,9,99,9,99999,9,99,9,99,9","09990,1,99999,9",,"MET080METAR ENSF 031320Z AUTO 19028KT 9999NDV FEW020/// BKN031/// 04/M01 Q0999 W///S5;",
"01300599999","2010-12-03T13:50:00","4","61.25","1.85","117.65","STATFJORD OIL PLATFORM HELIPORT, FO","FM-15","ENSF ","V020","200,1,N,0154,1","00330,1,9,N","011265,1,N,1","+0030,1","+0000,1","99999,9","81,1",,"07,1,+00330,1,99,9",,,"07,99,1,99,9,99,9,99999,9,99,9,99,9","09990,1,99999,9",,"MET075METAR ENSF 031350Z AUTO 20030KT 9999NDV -SHRA BKN011/// 03/00 Q0999 W///S5;",
"01300599999","2010-12-03T14:20:00","4","61.25","1.85","117.65","STATFJORD OIL PLATFORM HELIPORT, FO","FM-15","ENSF ","V020","190,1,N,0139,1","00270,1,9,N","011265,1,N,1","+0030,1","+0000,1","99999,9","81,1",,"07,1,+00270,1,99,9",,,"07,99,1,99,9,99,9,99999,9,99,9,99,9","09990,1,99999,9",,"MET075METAR ENSF 031420Z AUTO 19027KT 9999NDV -SHRA BKN009/// 03/00 Q0999 W///S5;",
"01300599999","2010-12-03T14:50:00","4","61.25","1.85","117.65","STATFJORD OIL PLATFORM HELIPORT, FO","FM-15","ENSF ","V020","190,1,N,0149,1","00750,1,C,N","011265,1,N,1","+0030,1","-0010,1","99999,9",,,"04,1,+00480,1,99,9","04,1,+00750,1,99,9","07,1,+01800,1,99,9","07,99,1,99,9,99,9,99999,9,99,9,99,9","09990,1,99999,9",,"MET090METAR ENSF 031450Z AUTO 19029KT 9999NDV SCT016/// SCT025/// BKN068/// 03/M01 Q0999 W///S5;",
"01300599999","2010-12-03T15:20:00","4","61.25","1.85","117.65","STATFJORD OIL PLATFORM HELIPORT, FO","FM-15","ENSF ","V020","190,1,N,0139,1","00930,1,9,N","011265,1,N,1","+0040,1","-0010,1","99999,9",,,"07,1,+00930,1,99,9",,,"07,99,1,99,9,99,9,99999,9,99,9,99,9","09990,1,99999,9",,"MET070METAR ENSF 031520Z AUTO 19027KT 9999NDV BKN031/// 04/M01 Q0999 W///S5;",
"01300599999","2010-12-03T15:50:00","4","61.25","1.85","117.65","STATFJORD OIL PLATFORM HELIPORT, FO","FM-15","ENSF ","V020","190,1,N,0134,1","01020,1,9,N","011265,1,N,1","+0040,1","-0020,1","99999,9",,,"07,1,+01020,1,99,9",,,"07,99,1,99,9,99,9,99999,9,99,9,99,9","09990,1,99999,9",,"MET070METAR ENSF 031550Z AUTO 19026KT 9999NDV BKN034/// 04/M02 Q0999 W///S5;",
"01300599999","2010-12-03T16:20:00","4","61.25","1.85","117.65","STATFJORD OIL PLATFORM HELIPORT, FO","FM-15","ENSF ","V020","200,1,N,0129,1","00750,1,9,N","011265,1,N,1","+0040,1","+0000,1","99999,9",,,"07,1,+00750,1,99,9",,,"07,99,1,99,9,99,9,99999,9,99,9,99,9","09990,1,99999,9",,"MET069METAR ENSF 031620Z AUTO 20025KT 9999NDV BKN025/// 04/00 Q0999 W///S5;",
"01300599999","2010-12-03T16:50:00","4","61.25","1.85","117.65","STATFJORD OIL PLATFORM HELIPORT, FO","FM-15","ENSF ","V020","190,1,N,0144,1","00660,1,9,N","011265,1,N,1","+0040,1","-0010,1","99999,9",,,"07,1,+00660,1,99,9",,,"07,99,1,99,9,99,9,99999,9,99,9,99,9","09980,1,99999,9",,"MET070METAR ENSF 031650Z AUTO 19028KT 9999NDV BKN022/// 04/M01 Q0998 W///S5;",
"01300599999","2010-12-03T17:20:00","4","61.25","1.85","117.65","STATFJORD OIL PLATFORM HELIPORT, FO","FM-15","ENSF ","V020","200,1,N,0144,1","01500,1,9,N","011265,1,N,1","+0040,1","-0050,1","99999,9",,,"02,1,+00930,1,99,9","07,1,+01500,1,99,9",,"07,99,1,99,9,99,9,99999,9,99,9,99,9","09980,1,99999,9",,"MET080METAR ENSF 031720Z AUTO 20028KT 9999NDV FEW031/// BKN058/// 04/M05 Q0998 W///S5;",
"01300599999","2010-12-03T17:50:00","4","61.25","1.85","117.65","STATFJORD OIL PLATFORM HELIPORT, FO","FM-15","ENSF ","V020","200,1,N,0134,1","01500,1,9,N","011265,1,N,1","+0040,1","-0030,1","99999,9",,,"02,1,+01170,1,99,9","07,1,+01500,1,99,9","07,1,+02100,1,99,9","07,99,1,99,9,99,9,99999,9,99,9,99,9","09980,1,99999,9",,"MET090METAR ENSF 031750Z AUTO 20026KT 9999NDV FEW039/// BKN059/// BKN071/// 04/M03 Q0998 W///S5;",
"01300599999","2010-12-03T18:20:00","4","61.25","1.85","117.65","STATFJORD OIL PLATFORM HELIPORT, FO","FM-15","ENSF ","V020","200,1,N,0134,1","01050,1,9,N","011265,1,N,1","+0050,1","-0030,1","99999,9",,,"07,1,+01050,1,99,9","07,1,+01800,1,99,9",,"07,99,1,99,9,99,9,99999,9,99,9,99,9","09980,1,99999,9",,"MET080METAR ENSF 031820Z AUTO 20026KT 9999NDV BKN035/// BKN063/// 05/M03 Q0998 W///S5;",
"01300599999","2010-12-03T18:50:00","4","61.25","1.85","117.65","STATFJORD OIL PLATFORM HELIPORT, FO","FM-15","ENSF ","V020","190,1,N,0134,1","01170,1,C,N","011265,1,N,1","+0050,1","-0020,1","99999,9",,,"04,1,+01050,1,99,9","04,1,+01170,1,99,9","07,1,+01800,1,99,9","07,99,1,99,9,99,9,99999,9,99,9,99,9","09980,1,99999,9",,"MET090METAR ENSF 031850Z AUTO 19026KT 9999NDV SCT035/// SCT039/// BKN061/// 05/M02 Q0998 W///S5;",
"01300599999","2010-12-03T19:20:00","4","61.25","1.85","117.65","STATFJORD OIL PLATFORM HELIPORT, FO","FM-15","ENSF ","V020","190,1,N,0118,1","01110,1,9,N","011265,1,N,1","+0050,1","-0040,1","99999,9",,,"07,1,+01110,1,99,9","07,1,+01500,1,99,9",,"07,99,1,99,9,99,9,99999,9,99,9,99,9","09980,1,99999,9",,"MET080METAR ENSF 031920Z AUTO 19023KT 9999NDV BKN037/// BKN059/// 05/M04 Q0998 W///S5;",
"01300599999","2010-12-03T19:50:00","4","61.25","1.85","117.65","STATFJORD OIL PLATFORM HELIPORT, FO","FM-15","ENSF ","V020","190,1,N,0123,1","01080,1,9,N","011265,1,N,1","+0050,1","-0020,1","99999,9",,,"07,1,+01080,1,99,9","07,1,+01800,1,99,9",,"07,99,1,99,9,99,9,99999,9,99,9,99,9","09980,1,99999,9",,"MET080METAR ENSF 031950Z AUTO 19024KT 9999NDV BKN036/// BKN068/// 05/M02 Q0998 W///S5;",
"01300599999","2010-12-03T20:20:00","4","61.25","1.85","117.65","STATFJORD OIL PLATFORM HELIPORT, FO","FM-15","ENSF ","V020","200,1,N,0118,1","01110,1,9,N","011265,1,N,1","+0050,1","-0030,1","99999,9",,,"08,1,+01110,1,99,9",,,"08,99,1,99,9,99,9,99999,9,99,9,99,9","09980,1,99999,9",,"MET070METAR ENSF 032020Z AUTO 20023KT 9999NDV OVC037/// 05/M03 Q0998 W///S5;",
"01300599999","2010-12-03T20:50:00","4","61.25","1.85","117.65","STATFJORD OIL PLATFORM HELIPORT, FO","FM-15","ENSF ","V020","190,1,N,0113,1","01170,1,9,N","011265,1,N,1","+0050,1","-0020,1","99999,9",,,"07,1,+01170,1,99,9",,,"07,99,1,99,9,99,9,99999,9,99,9,99,9","09980,1,99999,9",,"MET070METAR ENSF 032050Z AUTO 19022KT 9999NDV BKN039/// 05/M02 Q0998 W///S5;",
"01300599999","2010-12-03T21:20:00","4","61.25","1.85","117.65","STATFJORD OIL PLATFORM HELIPORT, FO","FM-15","ENSF ","V020","180,1,N,0118,1","22000,1,9,N","999999,9,N,1","+0050,1","-0020,1","99999,9",,,,,,"00,99,1,99,9,99,9,99999,9,99,9,99,9","09980,1,99999,9",,"MET061METAR ENSF 032120Z AUTO 18023KT //// NCD 05/M02 Q0998 W///S5;","Q01    003SCCGA1"
"01300599999","2010-12-03T21:50:00","4","61.25","1.85","117.65","STATFJORD OIL PLATFORM HELIPORT, FO","FM-15","ENSF ","V020","180,1,N,0113,1","00960,1,9,N","011265,1,N,1","+0050,1","-0020,1","99999,9",,,"07,1,+00960,1,99,9",,,"07,99,1,99,9,99,9,99999,9,99,9,99,9","09980,1,99999,9",,"MET070METAR ENSF 032150Z AUTO 18022KT 9999NDV BKN032/// 05/M02 Q0998 W///S5;",
"01300599999","2010-12-03T22:20:00","4","61.25","1.85","117.65","STATFJORD OIL PLATFORM HELIPORT, FO","FM-15","ENSF ","V020","180,1,N,0113,1","01080,1,9,N","011265,1,N,1","+0050,1","-0010,1","99999,9",,,"07,1,+01080,1,99,9",,,"07,99,1,99,9,99,9,99999,9,99,9,99,9","09980,1,99999,9",,"MET070METAR ENSF 032220Z AUTO 18022KT 9999NDV BKN036/// 05/M01 Q0998 W///S4;",
"01300599999","2010-12-03T22:50:00","4","61.25","1.85","117.65","STATFJORD OIL PLATFORM HELIPORT, FO","FM-15","ENSF ","V020","180,1,N,0103,1","00840,1,9,N","011265,1,N,1","+0050,1","-0010,1","99999,9",,,"07,1,+00840,1,99,9",,,"07,99,1,99,9,99,9,99999,9,99,9,99,9","09980,1,99999,9",,"MET070METAR ENSF 032250Z AUTO 18020KT 9999NDV BKN028/// 05/M01 Q0998 W///S5;",
"01300599999","2010-12-03T23:20:00","4","61.25","1.85","117.65","STATFJORD OIL PLATFORM HELIPORT, FO","FM-15","ENSF ","V020","190,1,N,0113,1","01440,1,9,N","011265,1,N,1","+0050,1","-0010,1","99999,9",,,"04,1,+00900,1,99,9","07,1,+01440,1,99,9",,"07,99,1,99,9,99,9,99999,9,99,9,99,9","09980,1,99999,9",,"MET080METAR ENSF 032320Z AUTO 19022KT 9999NDV SCT030/// BKN048/// 05/M01 Q0998 W///S4;",
"01300599999","2010-12-03T23:50:00","4","61.25","1.85","117.65","STATFJORD OIL PLATFORM HELIPORT, FO","FM-15","ENSF ","V020","180,1,N,0113,1","01230,1,9,N","011265,1,N,1","+0050,1","+0010,1","99999,9",,,"04,1,+00630,1,99,9","07,1,+01230,1,99,9",,"07,99,1,99,9,99,9,99999,9,99,9,99,9","09980,1,99999,9",,"MET079METAR ENSF 032350Z AUTO 18022KT 9999NDV SCT021/// BKN041/// 05/01 Q0998 W///S4;",
"01300599999","2010-12-04T00:20:00","4","61.25","1.85","117.65","STATFJORD OIL PLATFORM HELIPORT, FO","FM-15","ENSF ","V020","180,1,N,0123,1","00630,1,9,N","011265,1,N,1","+0050,1","+0010,1","99999,9","51,1",,"08,1,+00630,1,99,9",,,"08,99,1,99,9,99,9,99999,9,99,9,99,9","09980,1,99999,9",,"MET073METAR ENSF 040020Z AUTO 18024KT 9999NDV -DZ OVC021/// 05/01 Q0998 W///S4;",
"01300599999","2010-12-04T00:50:00","4","61.25","1.85","117.65","STATFJORD OIL PLATFORM HELIPORT, FO","FM-15","ENSF ","V020","190,1,N,0118,1","00750,1,9,N","011265,1,N,1","+0050,1","+0010,1","99999,9","81,1",,"07,1,+00750,1,99,9","08,1,+01110,1,99,9",,"08,99,1,99,9,99,9,99999,9,99,9,99,9","09980,1,99999,9",,"MET093METAR ENSF 040050Z AUTO 19023KT 160V220 9999NDV -SHRA BKN025/// OVC037/// 05/01 Q0998 W///S4;",
"01300599999","2010-12-04T01:20:00","4","61.25","1.85","117.65","STATFJORD OIL PLATFORM HELIPORT, FO","FM-15","ENSF ","V020","210,1,N,0108,1","00660,1,9,N","011265,1,N,1","+0040,1","+0010,1","99999,9","81,1",,"07,1,+00660,1,99,9",,,"07,99,1,99,9,99,9,99999,9,99,9,99,9","09980,1,99999,9",,"MET075METAR ENSF 040120Z AUTO 21021KT 9999NDV -SHRA BKN022/// 04/01 Q0998 W///S4;",
"01300599999","2010-12-04T01:50:00","4","61.25","1.85","117.65","STATFJORD OIL PLATFORM HELIPORT, FO","FM-15","ENSF ","V020","190,1,N,0098,1","01080,1,9,N","011265,1,N,1","+0040,1","+0010,1","99999,9","81,1",,"07,1,+01080,1,99,9",,,"07,99,1,99,9,99,9,99999,9,99,9,99,9","09980,1,99999,9",,"MET075METAR ENSF 040150Z AUTO 19019KT 9999NDV -SHRA BKN036/// 04/01 Q0998 W///S4;",
"01300599999","2010-12-04T02:20:00","4","61.25","1.85","117.65","STATFJORD OIL PLATFORM HELIPORT, FO","FM-15","ENSF ","V020","190,1,N,0113,1","00690,1,9,N","011265,1,N,1","+0050,1","+0010,1","99999,9",,,"07,1,+00690,1,99,9","07,1,+01440,1,99,9",,"07,99,1,99,9,99,9,99999,9,99,9,99,9","09980,1,99999,9",,"MET079METAR ENSF 040220Z AUTO 19022KT 9999NDV BKN023/// BKN048/// 05/01 Q0998 W///S4;",
"01300599999","2010-12-04T02:50:00","4","61.25","1.85","117.65","STATFJORD OIL PLATFORM HELIPORT, FO","FM-15","ENSF ","V020","210,1,N,0098,1","00570,1,9,N","011265,1,N,1","+0050,1","+0010,1","99999,9",,,"07,1,+00570,1,99,9","07,1,+02700,1,99,9",,"07,99,1,99,9,99,9,99999,9,99,9,99,9","09970,1,99999,9",,"MET079METAR ENSF 040250Z AUTO 21019KT 9999NDV BKN019/// BKN095/// 05/01 Q0997 W///S4;",
"01300599999","2010-12-04T03:20:00","4","61.25","1.85","117.65","STATFJORD OIL PLATFORM HELIPORT, FO","FM-15","ENSF ","V020","200,1,N,0098,1","03000,1,9,N","011265,1,N,1","+0050,1","+0010,1","99999,9",,,"04,1,+00600,1,99,9","07,1,+03000,1,99,9","07,1,+03300,1,99,9","07,99,1,99,9,99,9,99999,9,99,9,99,9","09980,1,99999,9",,"MET089METAR ENSF 040320Z AUTO 20019KT 9999NDV SCT020/// BKN100/// BKN110/// 05/01 Q0998 W///S4;",
"01300599999","2010-12-04T03:50:00","4","61.25","1.85","117.65","STATFJORD OIL PLATFORM HELIPORT, FO","FM-15","ENSF ","V020","210,1,N,0087,1","01320,1,C,N","011265,1,N,1","+0050,1","+0010,1","99999,9",,,"02,1,+00960,1,99,9","04,1,+01320,1,99,9","07,1,+02700,1,99,9","07,99,1,99,9,99,9,99999,9,99,9,99,9","09970,1,99999,9",,"MET089METAR ENSF 040350Z AUTO 21017KT 9999NDV FEW032/// SCT044/// BKN097/// 05/01 Q0997 W///S4;",
"01300599999","2010-12-04T04:20:00","4","61.25","1.85","117.65","STATFJORD OIL PLATFORM HELIPORT, FO","FM-15","ENSF ","V020","200,1,N,0093,1","00720,1,9,N","011265,1,N,1","+0050,1","+0010,1","99999,9",,,"07,1,+00720,1,99,9","07,1,+02700,1,99,9",,"07,99,1,99,9,99,9,99999,9,99,9,99,9","09970,1,99999,9",,"MET079METAR ENSF 040420Z AUTO 20018KT 9999NDV BKN024/// BKN096/// 05/01 Q0997 W///S4;",
"01300599999","2010-12-04T04:50:00","4","61.25","1.85","117.65","STATFJORD OIL PLATFORM HELIPORT, FO","FM-15","ENSF ","V020","210,1,N,0072,1","00660,1,9,N","011265,1,N,1","+0050,1","+0010,1","99999,9","81,1",,"07,1,+00660,1,99,9",,,"07,99,1,99,9,99,9,99999,9,99,9,99,9","09970,1,99999,9",,"MET075METAR ENSF 040450Z AUTO 21014KT 9999NDV -SHRA BKN022/// 05/01 Q0997 W///S4;",
"01300599999","2010-12-04T05:20:00","4","61.25","1.85","117.65","STATFJORD OIL PLATFORM HELIPORT, FO","FM-15","ENSF ","V020","220,1,N,0082,1","00660,1,9,N","011265,1,N,1","+0050,1","+0010,1","99999,9","81,1",,"07,1,+00660,1,99,9",,,"07,99,1,99,9,99,9,99999,9,99,9,99,9","09980,1,99999,9",,"MET075METAR ENSF 040520Z AUTO 22016KT 9999NDV -SHRA BKN022/// 05/01 Q0998 W///S4;",
"01300599999","2010-12-04T05:50:00","4","61.25","1.85","117.65","STATFJORD OIL PLATFORM HELIPORT, FO","FM-15","ENSF ","V020","200,1,N,0082,1","22000,1,9,N","011265,1,N,1","+0050,1","+0010,1","99999,9","81,1",,"02,1,+00600,1,99,9",,,"02,99,1,99,9,99,9,99999,9,99,9,99,9","09970,1,99999,9",,"MET075METAR ENSF 040550Z AUTO 20016KT 9999NDV -SHRA FEW020/// 05/01 Q0997 W///S4;",
"01300599999","2010-12-04T06:20:00","4","61.25","1.85","117.65","STATFJORD OIL PLATFORM HELIPORT, FO","FM-15","ENSF ","V020","200,1,N,0072,1","01500,1,C,N","011265,1,N,1","+0050,1","+0010,1","99999,9",,,"04,1,+00720,1,99,9","04,1,+01500,1,99,9","07,1,+01800,1,99,9","07,99,1,99,9,99,9,99999,9,99,9,99,9","09980,1,99999,9",,"MET089METAR ENSF 040620Z AUTO 20014KT 9999NDV SCT024/// SCT050/// BKN069/// 05/01 Q0998 W///S4;",
"01300599999","2010-12-04T06:50:00","4","61.25","1.85","117.65","STATFJORD OIL PLATFORM HELIPORT, FO","FM-15","ENSF ","V020","200,1,N,0067,1","00690,1,9,N","011265,1,N,1","+0050,1","+0010,1","99999,9",,,"07,1,+00690,1,99,9","07,1,+02100,1,99,9",,"07,99,1,99,9,99,9,99999,9,99,9,99,9","09980,1,99999,9",,"MET079METAR ENSF 040650Z AUTO 20013KT 9999NDV BKN023/// BKN073/// 05/01 Q0998 W///S4;",
"01300599999","2010-12-04T07:20:00","4","61.25","1.85","117.65","STATFJORD OIL PLATFORM HELIPORT, FO","FM-15","ENSF ","V020","210,1,N,0072,1","01800,1,9,N","011265,1,N,1","+0050,1","+0010,1","99999,9",,,"02,1,+00750,1,99,9","07,1,+01800,1,99,9",,"07,99,1,99,9,99,9,99999,9,99,9,99,9","09980,1,99999,9",,"MET079METAR ENSF 040720Z AUTO 21014KT 9999NDV FEW025/// BKN062/// 05/01 Q0998 W///S4;",
"01300599999","2010-12-04T07:50:00","4","61.25","1.85","117.65","STATFJORD OIL PLATFORM HELIPORT, FO","FM-15","ENSF ","V020","200,1,N,0093,1","00600,1,9,N","011265,1,N,1","+0050,1","+0020,1","99999,9",,,"07,1,+00600,1,99,9",,,"07,99,1,99,9,99,9,99999,9,99,9,99,9","09980,1,99999,9",,"MET069METAR ENSF 040750Z AUTO 20018KT 9999NDV BKN020/// 05/02 Q0998 W///S4;",
"01300599999","2010-12-04T08:20:00","4","61.25","1.85","117.65","STATFJORD OIL PLATFORM HELIPORT, FO","FM-15","ENSF ","V020","220,1,N,0082,1","00510,1,9,N","011265,1,N,1","+0050,1","+0020,1","99999,9","81,1",,"07,1,+00510,1,99,9","07,1,+01110,1,99,9",,"07,99,1,99,9,99,9,99999,9,99,9,99,9","09980,1,99999,9",,"MET085METAR ENSF 040820Z AUTO 22016KT 9999NDV -SHRA BKN017/// BKN037/// 05/02 Q0998 W///S4;",
"01300599999","2010-12-04T08:50:00","4","61.25","1.85","117.65","STATFJORD OIL PLATFORM HELIPORT, FO","FM-15","ENSF ","V020","210,1,N,0082,1","01500,1,9,N","011265,1,N,1","+0050,1","+0020,1","99999,9",,,"02,1,+00540,1,99,9","07,1,+01500,1,99,9",,"07,99,1,99,9,99,9,99999,9,99,9,99,9","09980,1,99999,9",,"MET079METAR ENSF 040850Z AUTO 21016KT 9999NDV FEW018/// BKN051/// 05/02 Q0998 W///S4;",
"01300599999","2010-12-04T09:20:00","4","61.25","1.85","117.65","STATFJORD OIL PLATFORM HELIPORT, FO","FM-15","ENSF ","V020","220,1,N,0082,1","00570,1,9,N","011265,1,N,1","+0050,1","+0010,1","99999,9",,,"07,1,+00570,1,99,9",,,"07,99,1,99,9,99,9,99999,9,99,9,99,9","09980,1,99999,9",,"MET069METAR ENSF 040920Z AUTO 22016KT 9999NDV BKN019/// 05/01 Q0998 W///S4;",
"01300599999","2010-12-04T09:50:00","4","61.25","1.85","117.65","STATFJORD OIL PLATFORM HELIPORT, FO","FM-15","ENSF ","V020","250,1,N,0103,1","00450,1,9,N","011265,1,N,1","+0050,1","+0020,1","99999,9",,,"07,1,+00450,1,99,9","07,1,+00960,1,99,9","07,1,+02100,1,99,9","07,99,1,99,9,99,9,99999,9,99,9,99,9","09980,1,99999,9",,"MET089METAR ENSF 040950Z AUTO 25020KT 9999NDV BKN015/// BKN032/// BKN070/// 05/02 Q0998 W///S4;",
"01300599999","2010-12-04T10:20:00","4","61.25","1.85","117.65","STATFJORD OIL PLATFORM HELIPORT, FO","FM-15","ENSF ","V020","250,1,N,0103,1","00720,1,9,N","011265,1,N,1","+0040,1","+0020,1","99999,9","81,1",,"07,1,+00720,1,99,9",,,"07,99,1,99,9,99,9,99999,9,99,9,99,9","09980,1,99999,9",,"MET075METAR ENSF 041020Z AUTO 25020KT 9999NDV -SHRA BKN024/// 04/02 Q0998 W///S4;",
"01300599999","2010-12-04T10:50:00","4","61.25","1.85","117.65","STATFJORD OIL PLATFORM HELIPORT, FO","FM-15","ENSF ","V020","230,1,N,0087,1","00690,1,9,N","011265,1,N,1","+0040,1","+0020,1","99999,9","81,1",,"07,1,+00690,1,99,9",,,"07,99,1,99,9,99,9,99999,9,99,9,99,9","09980,1,99999,9",,"MET075METAR ENSF 041050Z AUTO 23017KT 9999NDV -SHRA BKN023/// 04/02 Q0998 W///S4;",
"01300599999","2010-12-04T11:20:00","4","61.25","1.85","117.65","STATFJORD OIL PLATFORM HELIPORT, FO","FM-15","ENSF ","V020","220,1,N,0093,1","00540,1,9,N","011265,1,N,1","+0030,1","+0020,1","99999,9","81,1",,"08,1,+00540,1,99,9",,,"08,99,1,99,9,99,9,99999,9,99,9,99,9","09980,1,99999,9",,"MET075METAR ENSF 041120Z AUTO 22018KT 9999NDV -SHRA OVC018/// 03/02 Q0998 W///S4;",
"01300599999","2010-12-04T11:50:00","4","61.25","1.85","117.65","STATFJORD OIL PLATFORM HELIPORT, FO","FM-15","ENSF ","V020","340,1,N,0041,1","00330,1,9,N","011265,1,N,1","+0030,1","+0020,1","99999,9","61,1",,"08,1,+00330,1,99,9",,,"08,99,1,99,9,99,9,99999,9,99,9,99,9","09980,1,99999,9",,"MET081METAR ENSF 041150Z AUTO 34008KT 290V020 9999NDV -RA OVC011/// 03/02 Q0998 W///S4;",
"01300599999","2010-12-04T12:20:00","4","61.25","1.85","117.65","STATFJORD OIL PLATFORM HELIPORT, FO","FM-15","ENSF ","V020","060,1,N,0057,1","00720,1,9,N","011265,1,N,1","+0040,1","+0020,1","99999,9",,,"08,1,+00720,1,99,9",,,"08,99,1,99,9,99,9,99999,9,99,9,99,9","09980,1,99999,9",,"MET069METAR ENSF 041220Z AUTO 06011KT 9999NDV OVC024/// 04/02 Q0998 W///S4;",
"01300599999","2010-12-04T12:50:00","4","61.25","1.85","117.65","STATFJORD OIL PLATFORM HELIPORT, FO","FM-15","ENSF ","V020","060,1,N,0057,1","01170,1,9,N","011265,1,N,1","+0040,1","+0020,1","99999,9",,,"07,1,+01170,1,99,9","07,1,+01500,1,99,9",,"07,99,1,99,9,99,9,99999,9,99,9,99,9","09980,1,99999,9",,"MET079METAR ENSF 041250Z AUTO 06011KT 9999NDV BKN039/// BKN053/// 04/02 Q0998 W///S4;",
"01300599999","2010-12-04T13:20:00","4","61.25","1.85","117.65","STATFJORD OIL PLATFORM HELIPORT, FO","FM-15","ENSF ","V020","070,1,N,0046,1","01440,1,9,N","011265,1,N,1","+0040,1","+0020,1","99999,9",,,"08,1,+01440,1,99,9",,,"08,99,1,99,9,99,9,99999,9,99,9,99,9","09980,1,99999,9",,"MET069METAR ENSF 041320Z AUTO 07009KT 9999NDV OVC048/// 04/02 Q0998 W///S4;",
"01300599999","2010-12-04T13:50:00","4","61.25","1.85","117.65","STATFJORD OIL PLATFORM HELIPORT, FO","FM-15","ENSF ","V020","090,1,N,0036,1","01140,1,9,N","011265,1,N,1","+0050,1","+0030,1","99999,9",,,"07,1,+01140,1,99,9","07,1,+01800,1,99,9",,"07,99,1,99,9,99,9,99999,9,99,9,99,9","09980,1,99999,9",,"MET079METAR ENSF 041350Z AUTO 09007KT 9999NDV BKN038/// BKN062/// 05/03 Q0998 W///S4;",
"01300599999","2010-12-04T14:20:00","4","61.25","1.85","117.65","STATFJORD OIL PLATFORM HELIPORT, FO","FM-15","ENSF ","V020","080,1,N,0021,1","02100,1,9,N","011265,1,N,1","+0050,1","+0030,1","99999,9",,,"08,1,+02100,1,99,9",,,"08,99,1,99,9,99,9,99999,9,99,9,99,9","09980,1,99999,9",,"MET077METAR ENSF 041420Z AUTO 08004KT 030V190 9999NDV OVC073/// 05/03 Q0998 W///S4;",
"01300599999","2010-12-04T14:50:00","4","61.25","1.85","117.65","STATFJORD OIL PLATFORM HELIPORT, FO","FM-15","ENSF ","V020","110,1,N,0015,1","01500,1,9,N","011265,1,N,1","+0060,1","+0030,1","99999,9",,,"02,1,+00420,1,99,9","07,1,+01500,1,99,9",,"07,99,1,99,9,99,9,99999,9,99,9,99,9","09980,1,99999,9",,"MET079METAR ENSF 041450Z AUTO 11003KT 9999NDV FEW014/// BKN051/// 06/03 Q0998 W///S4;",
"01300599999","2010-12-04T15:20:00","4","61.25","1.85","117.65","STATFJORD OIL PLATFORM HELIPORT, FO","FM-15","ENSF ","V020","999,9,V,0010,1","00510,1,9,N","011265,1,N,1","+0050,1","+0020,1","99999,9",,,"07,1,+00510,1,99,9","07,1,+01260,1,99,9","07,1,+01800,1,99,9","07,99,1,99,9,99,9,99999,9,99,9,99,9","09980,1,99999,9",,"MET089METAR ENSF 041520Z AUTO VRB02KT 9999NDV BKN017/// BKN042/// BKN064/// 05/02 Q0998 W///S4;",
"01300599999","2010-12-04T15:50:00","4","61.25","1.85","117.65","STATFJORD OIL PLATFORM HELIPORT, FO","FM-15","ENSF ","V020","240,1,N,0051,1","00420,1,9,N","011265,1,N,1","+0040,1","+0010,1","99999,9","52,1",,"07,1,+00420,1,99,9","07,1,+01290,1,99,9",,"07,99,1,99,9,99,9,99999,9,99,9,99,9","09980,1,99999,9",,"MET090METAR ENSF 041550Z AUTO 24010KT 190V270 9999NDV DZ BKN014/// BKN043/// 04/01 Q0998 W///S4;",
"01300599999","2010-12-04T16:20:00","4","61.25","1.85","117.65","STATFJORD OIL PLATFORM HELIPORT, FO","FM-15","ENSF ","V020","240,1,N,0031,1","22000,1,9,N","011265,1,N,1","+0040,1","+0020,1","99999,9",,,"02,1,+00450,1,99,9",,,"02,99,1,99,9,99,9,99999,9,99,9,99,9","09980,1,99999,9",,"MET069METAR ENSF 041620Z AUTO 24006KT 9999NDV FEW015/// 04/02 Q0998 W///S4;",
"01300599999","2010-12-04T16:50:00","4","61.25","1.85","117.65","STATFJORD OIL PLATFORM HELIPORT, FO","FM-15","ENSF ","V020","250,1,N,0026,1","01800,1,9,N","011265,1,N,1","+0040,1","+0020,1","99999,9",,,"08,1,+01800,1,99,9",,,"08,99,1,99,9,99,9,99999,9,99,9,99,9","09970,1,99999,9",,"MET077METAR ENSF 041650Z AUTO 25005KT 230V290 9999NDV OVC068/// 04/02 Q0997 W///S4;",
"01300599999","2010-12-04T17:20:00","4","61.25","1.85","117.65","STATFJORD OIL PLATFORM HELIPORT, FO","FM-15","ENSF ","V020","270,1,N,0026,1","02100,1,9,N","011265,1,N,1","+0050,1","+0020,1","99999,9",,,"04,1,+00840,1,99,9","07,1,+02100,1,99,9",,"07,99,1,99,9,99,9,99999,9,99,9,99,9","09970,1,99999,9",,"MET087METAR ENSF 041720Z AUTO 27005KT 240V300 9999NDV SCT028/// BKN078/// 05/02 Q0997 W///S4;",
"01300599999","2010-12-04T17:50:00","4","61.25","1.85","117.65","STATFJORD OIL PLATFORM HELIPORT, FO","FM-15","ENSF ","V020","320,1,N,0072,1","02100,1,9,N","011265,1,N,1","+0050,1","-0010,1","99999,9",,,"02,1,+00720,1,99,9","07,1,+02100,1,99,9",,"07,99,1,99,9,99,9,99999,9,99,9,99,9","09970,1,99999,9",,"MET080METAR ENSF 041750Z AUTO 32014KT 9999NDV FEW024/// BKN078/// 05/M01 Q0997 W///S4;",
"01300599999","2010-12-04T18:20:00","4","61.25","1.85","117.65","STATFJORD OIL PLATFORM HELIPORT, FO","FM-15","ENSF ","V020","310,1,N,0098,1","00600,1,9,N","011265,1,N,1","+0040,1","+0010,1","99999,9",,,"07,1,+00600,1,99,9","07,1,+02400,1,99,9",,"07,99,1,99,9,99,9,99999,9,99,9,99,9","09970,1,99999,9",,"MET079METAR ENSF 041820Z AUTO 31019KT 9999NDV BKN020/// BKN085/// 04/01 Q0997 W///S4;",
"01300599999","2010-12-04T18:50:00","4","61.25","1.85","117.65","STATFJORD OIL PLATFORM HELIPORT, FO","FM-15","ENSF ","V020","320,1,N,0077,1","00600,1,9,N","011265,1,N,1","+0040,1","+0000,1","99999,9",,,"07,1,+00600,1,99,9",,,"07,99,1,99,9,99,9,99999,9,99,9,99,9","09970,1,99999,9",,"MET069METAR ENSF 041850Z AUTO 32015KT 9999NDV BKN020/// 04/00 Q0997 W///S4;",
"01300599999","2010-12-04T19:20:00","4","61.25","1.85","117.65","STATFJORD OIL PLATFORM HELIPORT, FO","FM-15","ENSF ","V020","320,1,N,0082,1","22000,1,9,N","011265,1,N,1","+0040,1","-0010,1","99999,9",,,"02,1,+01260,1,99,9",,,"02,99,1,99,9,99,9,99999,9,99,9,99,9","09970,1,99999,9",,"MET070METAR ENSF 041920Z AUTO 32016KT 9999NDV FEW042/// 04/M01 Q0997 W///S4;",
"01300599999","2010-12-04T19:50:00","4","61.25","1.85","117.65","STATFJORD OIL PLATFORM HELIPORT, FO","FM-15","ENSF ","V020","330,1,N,0082,1","22000,1,9,N","011265,1,N,1","+0040,1","+0010,1","99999,9",,,"04,1,+00630,1,99,9","04,1,+00810,1,99,9",,"04,99,1,99,9,99,9,99999,9,99,9,99,9","09970,1,99999,9",,"MET079METAR ENSF 041950Z AUTO 33016KT 9999NDV SCT021/// SCT027/// 04/01 Q0997 W///S4;",
"01300599999","2010-12-04T20:20:00","4","61.25","1.85","117.65","STATFJORD OIL PLATFORM HELIPORT, FO","FM-15","ENSF ","V020","340,1,N,0087,1","00510,1,9,N","011265,1,N,1","+0040,1","+0010,1","99999,9",,,"02,1,+00420,1,99,9","07,1,+00510,1,99,9","07,1,+00990,1,99,9","07,99,1,99,9,99,9,99999,9,99,9,99,9","09970,1,99999,9",,"MET089METAR ENSF 042020Z AUTO 34017KT 9999NDV FEW014/// BKN017/// BKN033/// 04/01 Q0997 W///S4;",
"01300599999","2010-12-04T20:50:00","4","61.25","1.85","117.65","STATFJORD OIL PLATFORM HELIPORT, FO","FM-15","ENSF ","V020","340,1,N,0118,1","00360,1,9,N","011265,1,N,1","+0030,1","+0010,1","99999,9","61,1",,"07,1,+00360,1,99,9",,,"07,99,1,99,9,99,9,99999,9,99,9,99,9","09970,1,99999,9",,"MET073METAR ENSF 042050Z AUTO 34023KT 9999NDV -RA BKN012/// 03/01 Q0997 W///S4;",
"01300599999","2010-12-04T21:20:00","4","61.25","1.85","117.65","STATFJORD OIL PLATFORM HELIPORT, FO","FM-15","ENSF ","V020","350,1,N,0118,1","00630,1,9,N","011265,1,N,1","+0030,1","+0000,1","99999,9",,,"07,1,+00630,1,99,9","07,1,+01350,1,99,9",,"07,99,1,99,9,99,9,99999,9,99,9,99,9","09970,1,99999,9",,"MET079METAR ENSF 042120Z AUTO 35023KT 9999NDV BKN021/// BKN045/// 03/00 Q0997 W///S4;",
"01300599999","2010-12-04T21:50:00","4","61.25","1.85","117.65","STATFJORD OIL PLATFORM HELIPORT, FO","FM-15","ENSF ","V020","330,1,N,0134,1","00540,1,9,N","011265,1,N,1","+0010,1","+0000,1","99999,9","81,1",,"07,1,+00540,1,99,9",,,"07,99,1,99,9,99,9,99999,9,99,9,99,9","09970,1,99999,9",,"MET075METAR ENSF 042150Z AUTO 33026KT 9999NDV -SHRA BKN018/// 01/00 Q0997 W///S5;",
"01300599999","2010-12-04T22:20:00","4","61.25","1.85","117.65","STATFJORD OIL PLATFORM HELIPORT, FO","FM-15","ENSF ","V020","350,1,N,0113,1","00660,1,9,N","011265,1,N,1","+0030,1","+0000,1","99999,9","61,1",,"08,1,+00660,1,99,9",,,"08,99,1,99,9,99,9,99999,9,99,9,99,9","09970,1,99999,9",,"MET073METAR ENSF 042220Z AUTO 35022KT 9999NDV -RA OVC022/// 03/00 Q0997 W///S5;",
"01300599999","2010-12-04T22:50:00","4","61.25","1.85","117.65","STATFJORD OIL PLATFORM HELIPORT, FO","FM-15","ENSF ","V020","340,1,N,0118,1","00750,1,9,N","011265,1,N,1","+0030,1","-0010,1","99999,9","81,1",,"08,1,+00750,1,99,9",,,"08,99,1,99,9,99,9,99999,9,99,9,99,9","09970,1,99999,9",,"MET076METAR ENSF 042250Z AUTO 34023KT 9999NDV -SHRA OVC025/// 03/M01 Q0997 W///S5;",
"01300599999","2010-12-04T23:20:00","4","61.25","1.85","117.65","STATFJORD OIL PLATFORM HELIPORT, FO","FM-15","ENSF ","V020","330,1,N,0123,1","00810,1,9,N","011265,1,N,1","+0020,1","-0010,1","99999,9","81,1",,"07,1,+00810,1,99,9",,,"07,99,1,99,9,99,9,99999,9,99,9,99,9","09959,1,99999,9","0185,1","MET079METAR ENSF 042320Z AUTO 33024G36KT 9999NDV -SHRA BKN027/// 02/M01 Q0996 W///S5;",
"01300599999","2010-12-04T23:50:00","4","61.25","1.85","117.65","STATFJORD OIL PLATFORM HELIPORT, FO","FM-15","ENSF ","V020","350,1,N,0108,1","01230,1,9,N","011265,1,N,1","+0020,1","-0010,1","99999,9",,,"02,1,+01050,1,99,9","07,1,+01230,1,99,9","07,1,+02100,1,99,9","07,99,1,99,9,99,9,99999,9,99,9,99,9","09970,1,99999,9",,"MET090METAR ENSF 042350Z AUTO 35021KT 9999NDV FEW035/// BKN041/// BKN079/// 02/M01 Q0997 W///S5;",
"01300599999","2010-12-05T00:20:00","4","61.25","1.85","117.65","STATFJORD OIL PLATFORM HELIPORT, FO","FM-15","ENSF ","V020","320,1,N,0134,1","00810,1,9,N","011265,1,N,1","+0020,1","-0020,1","99999,9","81,1",,"07,1,+00810,1,99,9",,,"07,99,1,99,9,99,9,99999,9,99,9,99,9","09959,1,99999,9",,"MET076METAR ENSF 050020Z AUTO 32026KT 9999NDV -SHRA BKN027/// 02/M02 Q0996 W///S5;",
"01300599999","2010-12-05T00:50:00","4","61.25","1.85","117.65","STATFJORD OIL PLATFORM HELIPORT, FO","FM-15","ENSF ","V020","320,1,N,0113,1","00990,1,9,N","011265,1,N,1","+0030,1","-0040,1","99999,9",,,"08,1,+00990,1,99,9",,,"08,99,1,99,9,99,9,99999,9,99,9,99,9","09959,1,99999,9",,"MET070METAR ENSF 050050Z AUTO 32022KT 9999NDV OVC033/// 03/M04 Q0996 W///S5;",
"01300599999","2010-12-05T01:20:00","4","61.25","1.85","117.65","STATFJORD OIL PLATFORM HELIPORT, FO","FM-15","ENSF ","V020","330,1,N,0118,1","01020,1,9,N","011265,1,N,1","+0020,1","-0020,1","99999,9","81,1",,"07,1,+01020,1,99,9",,,"07,99,1,99,9,99,9,99999,9,99,9,99,9","09959,1,99999,9","0170,1","MET079METAR ENSF 050120Z AUTO 33023G33KT 9999NDV -SHRA BKN034/// 02/M02 Q0996 W///S5;",
"01300599999","2010-12-05T01:50:00","4","61.25","1.85","117.65","STATFJORD OIL PLATFORM HELIPORT, FO","FM-15","ENSF ","V020","330,1,N,0108,1","22000,1,9,N","011265,1,N,1","+0020,1","-0040,1","99999,9",,,"02,1,+00510,1,99,9",,,"02,99,1,99,9,99,9,99999,9,99,9,99,9","09959,1,99999,9",,"MET070METAR ENSF 050150Z AUTO 33021KT 9999NDV FEW017/// 02/M04 Q0996 W///S5;",
"01300599999","2010-12-05T02:20:00","4","61.25","1.85","117.65","STATFJORD OIL PLATFORM HELIPORT, FO","FM-15","ENSF ","V020","330,1,N,0087,1","22000,1,9,N","011265,1,N,1","+0020,1","-0060,1","99999,9",,,"04,1,+01800,1,99,9",,,"04,99,1,99,9,99,9,99999,9,99,9,99,9","09959,1,99999,9",,"MET070METAR ENSF 050220Z AUTO 33017KT 9999NDV SCT060/// 02/M06 Q0996 W///S5;",
"01300599999","2010-12-05T02:50:00","4","61.25","1.85","117.65","STATFJORD OIL PLATFORM HELIPORT, FO","FM-15","ENSF ","V020","330,1,N,0108,1","01800,1,9,N","011265,1,N,1","+0020,1","-0040,1","99999,9","61,1",,"04,1,+00990,1,99,9","07,1,+01800,1,99,9",,"07,99,1,99,9,99,9,99999,9,99,9,99,9","09959,1,99999,9",,"MET084METAR ENSF 050250Z AUTO 33021KT 9999NDV -RA SCT033/// BKN066/// 02/M04 Q0996 W///S5;",
"01300599999","2010-12-05T03:20:00","4","61.25","1.85","117.65","STATFJORD OIL PLATFORM HELIPORT, FO","FM-15","ENSF ","V020","330,1,N,0098,1","01500,1,9,N","011265,1,N,1","+0020,1","-0040,1","99999,9",,,"02,1,+01050,1,99,9","07,1,+01500,1,99,9",,"07,99,1,99,9,99,9,99999,9,99,9,99,9","09959,1,99999,9",,"MET080METAR ENSF 050320Z AUTO 33019KT 9999NDV FEW035/// BKN057/// 02/M04 Q0996 W///S5;",
"01300599999","2010-12-05T03:50:00","4","61.25","1.85","117.65","STATFJORD OIL PLATFORM HELIPORT, FO","FM-15","ENSF ","V020","320,1,N,0123,1","00930,1,9,N","011265,1,N,1","+0020,1","-0040,1","99999,9",,,"07,1,+00930,1,99,9",,,"07,99,1,99,9,99,9,99999,9,99,9,99,9","09949,1,99999,9",,"MET070METAR ENSF 050350Z AUTO 32024KT 9999NDV BKN031/// 02/M04 Q0995 W///S5;",
"01300599999","2010-12-05T04:20:00","4","61.25","1.85","117.65","STATFJORD OIL PLATFORM HELIPORT, FO","FM-15","ENSF ","V020","320,1,N,0093,1","22000,1,9,N","011265,1,N,1","+0010,1","-0070,1","99999,9",,,"02,1,+01230,1,99,9",,,"02,99,1,99,9,99,9,99999,9,99,9,99,9","09959,1,99999,9",,"MET070METAR ENSF 050420Z AUTO 32018KT 9999NDV FEW041/// 01/M07 Q0996 W///S5;",
"01300599999","2010-12-05T04:50:00","4","61.25","1.85","117.65","STATFJORD OIL PLATFORM HELIPORT, FO","FM-15","ENSF ","V020","310,1,N,0077,1","01800,1,9,N","011265,1,N,1","+0020,1","-0050,1","99999,9",,,"07,1,+01800,1,99,9",,,"07,99,1,99,9,99,9,99999,9,99,9,99,9","09959,1,99999,9",,"MET070METAR ENSF 050450Z AUTO 31015KT 9999NDV BKN068/// 02/M05 Q0996 W///S5;",
"01300599999","2010-12-05T05:20:00","4","61.25","1.85","117.65","STATFJORD OIL PLATFORM HELIPORT, FO","FM-15","ENSF ","V020","320,1,N,0093,1","01410,1,9,N","011265,1,N,1","+0020,1","-0090,1","99999,9",,,"07,1,+01410,1,99,9",,,"07,99,1,99,9,99,9,99999,9,99,9,99,9","09949,1,99999,9",,"MET070METAR ENSF 050520Z AUTO 32018KT 9999NDV BKN047/// 02/M09 Q0995 W///S5;",
"01300599999","2010-12-05T05:50:00","4","61.25","1.85","117.65","STATFJORD OIL PLATFORM HELIPORT, FO","FM-15","ENSF ","V020","300,1,N,0077,1","00780,1,9,N","002700,1,N,1","-0010,1","-0020,1","99999,9","71,1",,"02,1,+00180,1,99,9","07,1,+00780,1,99,9","07,1,+01500,1,99,9","07,99,1,99,9,99,9,99999,9,99,9,99,9","09959,1,99999,9",,"MET095METAR ENSF 050550Z AUTO 30015KT 2700NDV -SN FEW006/// BKN026/// BKN055/// M01/M02 Q0996 W///S5;",
"01300599999","2010-12-05T06:20:00","4","61.25","1.85","117.65","STATFJORD OIL PLATFORM HELIPORT, FO","FM-15","ENSF ","V020","310,1,N,0067,1","22000,1,9,N","011265,1,N,1","+0020,1","-0010,1","99999,9",,,"02,1,+01020,1,99,9","04,1,+01800,1,99,9",,"04,99,1,99,9,99,9,99999,9,99,9,99,9","09949,1,99999,9","0123,1","MET083METAR ENSF 050620Z AUTO 31013G24KT 9999NDV FEW034/// SCT067/// 02/M01 Q0995 W///S5;",
"01300599999","2010-12-05T06:50:00","4","61.25","1.85","117.65","STATFJORD OIL PLATFORM HELIPORT, FO","FM-15","ENSF ","V020","330,1,N,0062,1","00510,1,9,N","011265,1,N,1","+0010,1","-0010,1","99999,9","80,1",,"07,1,+00510,1,99,9",,,"07,99,1,99,9,99,9,99999,9,99,9,99,9","09949,1,99999,9",,"MET086METAR ENSF 050650Z AUTO 33012KT 290V360 9999NDV -SHRASN BKN017/// 01/M01 Q0995 W///S5;",
"01300599999","2010-12-05T07:20:00","4","61.25","1.85","117.65","STATFJORD OIL PLATFORM HELIPORT, FO","FM-15","ENSF ","V020","320,1,N,0129,1","00480,1,9,N","011265,1,N,1","+0010,1","+0000,1","99999,9","81,1",,"07,1,+00480,1,99,9",,,"07,99,1,99,9,99,9,99999,9,99,9,99,9","09949,1,99999,9",,"MET075METAR ENSF 050720Z AUTO 32025KT 9999NDV -SHRA BKN016/// 01/00 Q0995 W///S5;",
"01300599999","2010-12-05T07:50:00","4","61.25","1.85","117.65","STATFJORD OIL PLATFORM HELIPORT, FO","FM-15","ENSF ","V020","330,1,N,0118,1","00390,1,9,N","003500,1,N,1","+0000,1","-0010,1","99999,9","81,1",,"07,1,+00390,1,99,9",,,"07,99,1,99,9,99,9,99999,9,99,9,99,9","09949,1,99999,9",,"MET076METAR ENSF 050750Z AUTO 33023KT 3500NDV -SHRA BKN013/// 00/M01 Q0995 W///S5;",
"01300599999","2010-12-05T08:20:00","4","61.25","1.85","117.65","STATFJORD OIL PLATFORM HELIPORT, FO","FM-15","ENSF ","V020","330,1,N,0103,1","00330,1,9,N","011265,1,N,1","+0000,1","+0000,1","99999,9","81,1",,"07,1,+00330,1,99,9","07,1,+00390,1,99,9","07,1,+01380,1,99,9","07,99,1,99,9,99,9,99999,9,99,9,99,9","09949,1,99999,9",,"MET095METAR ENSF 050820Z AUTO 33020KT 9999NDV -SHRA BKN011/// BKN013/// BKN046/// 00/00 Q0995 W///S5;",
"01300599999","2010-12-05T08:50:00","4","61.25","1.85","117.65","STATFJORD OIL PLATFORM HELIPORT, FO","FM-15","ENSF ","V020","340,1,N,0098,1","01500,1,9,N","011265,1,N,1","+0010,1","+0000,1","99999,9","81,1",,"04,1,+00390,1,99,9","07,1,+01500,1,99,9","07,1,+02100,1,99,9","07,99,1,99,9,99,9,99999,9,99,9,99,9","09949,1,99999,9",,"MET095METAR ENSF 050850Z AUTO 34019KT 9999NDV -SHRA SCT013/// BKN050/// BKN074/// 01/00 Q0995 W///S5;",
"01300599999","2010-12-05T09:20:00","4","61.25","1.85","117.65","STATFJORD OIL PLATFORM HELIPORT, FO","FM-15","ENSF ","V020","320,1,N,0134,1","00270,1,9,N","006000,1,N,1","+0000,1","-0010,1","99999,9","85,1",,"07,1,+00270,1,99,9",,,"07,99,1,99,9,99,9,99999,9,99,9,99,9","09949,1,99999,9",,"MET076METAR ENSF 050920Z AUTO 32026KT 6000NDV -SHSN BKN009/// 00/M01 Q0995 W///S5;",
"01300599999","2010-12-05T09:50:00","4","61.25","1.85","117.65","STATFJORD OIL PLATFORM HELIPORT, FO","FM-15","ENSF ","V020","340,1,N,0103,1","22000,1,9,N","011265,1,N,1","+0000,1","+0000,1","99999,9","81,1",,"04,1,+00360,1,99,9","04,1,+00690,1,99,9",,"04,99,1,99,9,99,9,99999,9,99,9,99,9","09949,1,99999,9",,"MET085METAR ENSF 050950Z AUTO 34020KT 9999NDV -SHRA SCT012/// SCT023/// 00/00 Q0995 W///S5;",
"01300599999","2010-12-05T10:20:00","4","61.25","1.85","117.65","STATFJORD OIL PLATFORM HELIPORT, FO","FM-15","ENSF ","V020","350,1,N,0082,1","22000,1,9,N","011265,1,N,1","+0010,1","+0000,1","99999,9",,,"04,1,+01080,1,99,9",,,"04,99,1,99,9,99,9,99999,9,99,9,99,9","09949,1,99999,9",,"MET069METAR ENSF 051020Z AUTO 35016KT 9999NDV SCT036/// 01/00 Q0995 W///S5;",
"01300599999","2010-12-05T10:50:00","4","61.25","1.85","117.65","STATFJORD OIL PLATFORM HELIPORT, FO","FM-15","ENSF ","V020","320,1,N,0082,1","00540,1,9,N","011265,1,N,1","+0010,1","-0010,1","99999,9","80,1",,"07,1,+00540,1,99,9","07,1,+01500,1,99,9",,"07,99,1,99,9,99,9,99999,9,99,9,99,9","09949,1,99999,9",,"MET088METAR ENSF 051050Z AUTO 32016KT 9999NDV -SHRASN BKN018/// BKN051/// 01/M01 Q0995 W///S5;",
"01300599999","2010-12-05T11:20:00","4","61.25","1.85","117.65","STATFJORD OIL PLATFORM HELIPORT, FO","FM-15","ENSF ","V020","310,1,N,0113,1","01320,1,9,N","011265,1,N,1","+0020,1","-0020,1","99999,9",,,"04,1,+00960,1,99,9","07,1,+01320,1,99,9",,"07,99,1,99,9,99,9,99999,9,99,9,99,9","09939,1,99999,9",,"MET080METAR ENSF 051120Z AUTO 31022KT 9999NDV SCT032/// BKN044/// 02/M02 Q0994 W///S5;",
"01300599999","2010-12-05T11:50:00","4","61.25","1.85","117.65","STATFJORD OIL PLATFORM HELIPORT, FO","FM-15","ENSF ","V020","300,1,N,0108,1","01440,1,9,N","011265,1,N,1","+0020,1","-0030,1","99999,9",,,"04,1,+01140,1,99,9","07,1,+01440,1,99,9",,"07,99,1,99,9,99,9,99999,9,99,9,99,9","09949,1,99999,9",,"MET080METAR ENSF 051150Z AUTO 30021KT 9999NDV SCT038/// BKN048/// 02/M03 Q0995 W///S5;",
"01300599999","2010-12-05T12:20:00","4","61.25","1.85","117.65","STATFJORD OIL PLATFORM HELIPORT, FO","FM-15","ENSF ","V020","300,1,N,0103,1","22000,1,9,N","011265,1,N,1","+0020,1","-0030,1","99999,9",,,"02,1,+01290,1,99,9",,,"02,99,1,99,9,99,9,99999,9,99,9,99,9","09949,1,99999,9",,"MET070METAR ENSF 051220Z AUTO 30020KT 9999NDV FEW043/// 02/M03 Q0995 W///S5;",
"01300599999","2010-12-05T12:50:00","4","61.25","1.85","117.65","STATFJORD OIL PLATFORM HELIPORT, FO","FM-15","ENSF ","V020","300,1,N,0103,1","22000,1,9,N","011265,1,N,1","+0020,1","-0040,1","99999,9",,,"02,1,+01230,1,99,9",,,"02,99,1,99,9,99,9,99999,9,99,9,99,9","09939,1,99999,9",,"MET070METAR ENSF 051250Z AUTO 30020KT 9999NDV FEW041/// 02/M04 Q0994 W///S6;",
"01300599999","2010-12-05T13:20:00","4","61.25","1.85","117.65","STATFJORD OIL PLATFORM HELIPORT, FO","FM-15","ENSF ","V020","290,1,N,0093,1","22000,1,9,N","011265,1,N,1","+0020,1","-0030,1","99999,9",,,"04,1,+01020,1,99,9",,,"04,99,1,99,9,99,9,99999,9,99,9,99,9","09939,1,99999,9",,"MET070METAR ENSF 051320Z AUTO 29018KT 9999NDV SCT034/// 02/M03 Q0994 W///S6;",
"01300599999","2010-12-05T13:50:00","4","61.25","1.85","117.65","STATFJORD OIL PLATFORM HELIPORT, FO","FM-15","ENSF ","V020","280,1,N,0077,1","22000,1,9,N","011265,1,N,1","+0020,1","-0040,1","99999,9",,,"02,1,+02100,1,99,9",,,"02,99,1,99,9,99,9,99999,9,99,9,99,9","09939,1,99999,9",,"MET070METAR ENSF 051350Z AUTO 28015KT 9999NDV FEW071/// 02/M04 Q0994 W///S6;",
"01300599999","2010-12-05T14:20:00","4","61.25","1.85","117.65","STATFJORD OIL PLATFORM HELIPORT, FO","FM-15","ENSF ","V020","220,1,N,0046,1","00480,1,9,N","001600,1,N,1","+0010,1","-0030,1","99999,9","71,1",,"08,1,+00480,1,99,9",,,"08,99,1,99,9,99,9,99999,9,99,9,99,9","09939,1,99999,9",,"MET074METAR ENSF 051420Z AUTO 22009KT 1600NDV -SN OVC016/// 01/M03 Q0994 W///S6;",
"01300599999","2010-12-05T14:50:00","4","61.25","1.85","117.65","STATFJORD OIL PLATFORM HELIPORT, FO","FM-15","ENSF ","V020","250,1,N,0144,1","00300,1,9,N","008000,1,N,1","+0010,1","-0010,1","99999,9","81,1",,"07,1,+00300,1,99,9","07,1,+01020,1,99,9","07,1,+01500,1,99,9","07,99,1,99,9,99,9,99999,9,99,9,99,9","09929,1,99999,9",,"MET096METAR ENSF 051450Z AUTO 25028KT 8000NDV -SHRA BKN010/// BKN034/// BKN051/// 01/M01 Q0993 W///S6;",
"01300599999","2010-12-05T15:20:00","4","61.25","1.85","117.65","STATFJORD OIL PLATFORM HELIPORT, FO","FM-15","ENSF ","V020","160,1,N,0072,1","22000,1,9,N","000800,1,N,1","+0010,1","+0000,1","99999,9","85,1",,,,,"00,99,1,99,9,99,9,99999,9,99,9,99,9","09919,1,99999,9",,"MET069METAR ENSF 051520Z AUTO 16014KT 0800NDV -SHSN NCD 01/00 Q0992 W///S5;","Q01    003SCCGA1"
"01300599999","2010-12-05T15:50:00","4","61.25","1.85","117.65","STATFJORD OIL PLATFORM HELIPORT, FO","FM-15","ENSF ","V020","100,1,N,0067,1","00180,1,9,N","003300,1,N,1","+0010,1","+0000,1","99999,9","67,1",,"07,1,+00180,1,99,9",,,"07,99,1,99,9,99,9,99999,9,99,9,99,9","09929,1,99999,9",,"MET075METAR ENSF 051550Z AUTO 10013KT 3300NDV -RASN BKN006/// 01/00 Q0993 W///S6;",
"01300599999","2010-12-05T16:20:00","4","61.25","1.85","117.65","STATFJORD OIL PLATFORM HELIPORT, FO","FM-15","ENSF ","V020","060,1,N,0046,1","22000,1,9,N","011265,1,N,1","+0010,1","+0000,1","99999,9","61,1",,"02,1,+00180,1,99,9",,,"02,99,1,99,9,99,9,99999,9,99,9,99,9","09929,1,99999,9",,"MET073METAR ENSF 051620Z AUTO 06009KT 9999NDV -RA FEW006/// 01/00 Q0993 W///S6;",
"01300599999","2010-12-05T16:50:00","4","61.25","1.85","117.65","STATFJORD OIL PLATFORM HELIPORT, FO","FM-15","ENSF ","V020","080,1,N,0051,1","22000,1,9,N","000450,1,N,1","+0010,1","+0000,1","99999,9","80,1",,,,,"00,99,1,99,9,99,9,99999,9,99,9,99,9","09929,1,99999,9",,"MET078METAR ENSF 051650Z AUTO 08010KT 050V120 0450NDV SHRASN NCD 01/00 Q0993 W///S6;","Q01    003SCCGA1"
"01300599999","2010-12-05T17:20:00","4","61.25","1.85","117.65","STATFJORD OIL PLATFORM HELIPORT, FO","FM-15","ENSF ","V020","360,1,N,0051,1","00180,1,9,N","001100,1,N,1","+0000,1","+0000,1","99999,9","86,1",,"07,1,+00180,1,99,9",,,"07,99,1,99,9,99,9,99999,9,99,9,99,9","09939,1,99999,9",,"MET082METAR ENSF 051720Z AUTO 36010KT 330V070 1100NDV SHSN BKN006/// 00/00 Q0994 W///S6;",
"01300599999","2010-12-05T17:50:00","4","61.25","1.85","117.65","STATFJORD OIL PLATFORM HELIPORT, FO","FM-15","ENSF ","V020","040,1,N,0077,1","00270,1,9,N","011265,1,N,1","+0010,1","+0010,1","99999,9","67,1",,"07,1,+00270,1,99,9",,,"07,99,1,99,9,99,9,99999,9,99,9,99,9","09929,1,99999,9",,"MET075METAR ENSF 051750Z AUTO 04015KT 9999NDV -RASN BKN009/// 01/01 Q0993 W///S6;",
"01300599999","2010-12-05T18:20:00","4","61.25","1.85","117.65","STATFJORD OIL PLATFORM HELIPORT, FO","FM-15","ENSF ","V020","030,1,N,0072,1","01080,1,9,N","011265,1,N,1","+0020,1","+0010,1","99999,9","61,1",,"02,1,+00270,1,99,9","07,1,+01080,1,99,9",,"07,99,1,99,9,99,9,99999,9,99,9,99,9","09939,1,99999,9",,"MET083METAR ENSF 051820Z AUTO 03014KT 9999NDV -RA FEW009/// BKN036/// 02/01 Q0994 W///S6;",
"01300599999","2010-12-05T18:50:00","4","61.25","1.85","117.65","STATFJORD OIL PLATFORM HELIPORT, FO","FM-15","ENSF ","V020","340,1,N,0103,1","00630,1,9,N","011265,1,N,1","+0030,1","-0020,1","99999,9","61,1",,"07,1,+00630,1,99,9",,,"07,99,1,99,9,99,9,99999,9,99,9,99,9","09929,1,99999,9",,"MET074METAR ENSF 051850Z AUTO 34020KT 9999NDV -RA BKN021/// 03/M02 Q0993 W///S6;",
"01300599999","2010-12-05T19:20:00","4","61.25","1.85","117.65","STATFJORD OIL PLATFORM HELIPORT, FO","FM-15","ENSF ","V020","340,1,N,0123,1","01260,1,9,N","011265,1,N,1","+0030,1","-0050,1","99999,9",,,"07,1,+01260,1,99,9",,,"07,99,1,99,9,99,9,99999,9,99,9,99,9","09929,1,99999,9",,"MET070METAR ENSF 051920Z AUTO 34024KT 9999NDV BKN042/// 03/M05 Q0993 W///S6;",
"01300599999","2010-12-05T19:50:00","4","61.25","1.85","117.65","STATFJORD OIL PLATFORM HELIPORT, FO","FM-15","ENSF ","V020","330,1,N,0108,1","01200,1,9,N","011265,1,N,1","+0030,1","-0050,1","99999,9",,,"07,1,+01200,1,99,9","07,1,+01800,1,99,9",,"07,99,1,99,9,99,9,99999,9,99,9,99,9","09929,1,99999,9","0159,1","MET083METAR ENSF 051950Z AUTO 33021G31KT 9999NDV BKN040/// BKN068/// 03/M05 Q0993 W///S6;",
"01300599999","2010-12-05T20:20:00","4","61.25","1.85","117.65","STATFJORD OIL PLATFORM HELIPORT, FO","FM-15","ENSF ","V020","330,1,N,0098,1","01500,1,9,N","011265,1,N,1","+0030,1","-0050,1","99999,9",,,"02,1,+01320,1,99,9","07,1,+01500,1,99,9",,"07,99,1,99,9,99,9,99999,9,99,9,99,9","09929,1,99999,9",,"MET080METAR ENSF 052020Z AUTO 33019KT 9999NDV FEW044/// BKN058/// 03/M05 Q0993 W///S6;",
"01300599999","2010-12-05T20:50:00","4","61.25","1.85","117.65","STATFJORD OIL PLATFORM HELIPORT, FO","FM-15","ENSF ","V020","320,1,N,0129,1","01320,1,9,N","011265,1,N,1","+0030,1","-0030,1","99999,9",,,"07,1,+01320,1,99,9",,,"07,99,1,99,9,99,9,99999,9,99,9,99,9","09929,1,99999,9",,"MET070METAR ENSF 052050Z AUTO 32025KT 9999NDV BKN044/// 03/M03 Q0993 W///S6;",
"01300599999","2010-12-05T21:20:00","4","61.25","1.85","117.65","STATFJORD OIL PLATFORM HELIPORT, FO","FM-15","ENSF ","V020","320,1,N,0118,1","22000,1,9,N","011265,1,N,1","+0020,1","-0040,1","99999,9",,,"02,1,+01140,1,99,9",,,"02,99,1,99,9,99,9,99999,9,99,9,99,9","09939,1,99999,9",,"MET070METAR ENSF 052120Z AUTO 32023KT 9999NDV FEW038/// 02/M04 Q0994 W///S6;",
"01300599999","2010-12-05T21:50:00","4","61.25","1.85","117.65","STATFJORD OIL PLATFORM HELIPORT, FO","FM-15","ENSF ","V020","310,1,N,0113,1","22000,1,9,N","011265,1,N,1","+0020,1","-0060,1","99999,9",,,"02,1,+00990,1,99,9",,,"02,99,1,99,9,99,9,99999,9,99,9,99,9","09939,1,99999,9",,"MET070METAR ENSF 052150Z AUTO 31022KT 9999NDV FEW033/// 02/M06 Q0994 W///S6;",
"01300599999","2010-12-05T22:20:00","4","61.25","1.85","117.65","STATFJORD OIL PLATFORM HELIPORT, FO","FM-15","ENSF ","V020","310,1,N,0108,1","22000,1,9,N","011265,1,N,1","+0030,1","-0080,1","99999,9",,,"02,1,+01170,1,99,9",,,"02,99,1,99,9,99,9,99999,9,99,9,99,9","09929,1,99999,9",,"MET070METAR ENSF 052220Z AUTO 31021KT 9999NDV FEW039/// 03/M08 Q0993 W///S6;",
"01300599999","2010-12-05T22:50:00","4","61.25","1.85","117.65","STATFJORD OIL PLATFORM HELIPORT, FO","FM-15","ENSF ","V020","310,1,N,0098,1","22000,1,9,N","011265,1,N,1","+0030,1","-0070,1","99999,9",,,"02,1,+01500,1,99,9",,,"02,99,1,99,9,99,9,99999,9,99,9,99,9","09929,1,99999,9",,"MET070METAR ENSF 052250Z AUTO 31019KT 9999NDV FEW051/// 03/M07 Q0993 W///S6;",
"01300599999","2010-12-05T23:20:00","4","61.25","1.85","117.65","STATFJORD OIL PLATFORM HELIPORT, FO","FM-15","ENSF ","V020","310,1,N,0108,1","01110,1,9,N","011265,1,N,1","+0020,1","-0060,1","99999,9","80,1",,"07,1,+01110,1,99,9",,,"07,99,1,99,9,99,9,99999,9,99,9,99,9","09929,1,99999,9",,"MET078METAR ENSF 052320Z AUTO 31021KT 9999NDV -SHRASN BKN037/// 02/M06 Q0993 W///S6;",
"01300599999","2010-12-05T23:50:00","4","61.25","1.85","117.65","STATFJORD OIL PLATFORM HELIPORT, FO","FM-15","ENSF ","V020","290,1,N,0093,1","22000,1,9,N","011265,1,N,1","+0020,1","-0070,1","99999,9",,,"02,1,+01290,1,99,9",,,"02,99,1,99,9,99,9,99999,9,99,9,99,9","09929,1,99999,9",,"MET070METAR ENSF 052350Z AUTO 29018KT 9999NDV FEW043/// 02/M07 Q0993 W///S6;",
"01300599999","2010-12-06T00:20:00","4","61.25","1.85","117.65","STATFJORD OIL PLATFORM HELIPORT, FO","FM-15","ENSF ","V020","310,1,N,0108,1","01050,1,9,N","011265,1,N,1","+0020,1","-0060,1","99999,9",,,"07,1,+01050,1,99,9","07,1,+01800,1,99,9",,"07,99,1,99,9,99,9,99999,9,99,9,99,9","09929,1,99999,9",,"MET080METAR ENSF 060020Z AUTO 31021KT 9999NDV BKN035/// BKN064/// 02/M06 Q0993 W///S6;",
"01300599999","2010-12-06T00:50:00","4","61.25","1.85","117.65","STATFJORD OIL PLATFORM HELIPORT, FO","FM-15","ENSF ","V020","300,1,N,0098,1","22000,1,9,N","011265,1,N,1","+0020,1","-0060,1","99999,9",,,"02,1,+01500,1,99,9",,,"02,99,1,99,9,99,9,99999,9,99,9,99,9","09929,1,99999,9",,"MET070METAR ENSF 060050Z AUTO 30019KT 9999NDV FEW058/// 02/M06 Q0993 W///S6;",
"01300599999","2010-12-06T01:20:00","4","61.25","1.85","117.65","STATFJORD OIL PLATFORM HELIPORT, FO","FM-15","ENSF ","V020","300,1,N,0082,1","22000,1,9,N","011265,1,N,1","+0020,1","-0040,1","99999,9",,,,,,"00,99,1,99,9,99,9,99999,9,99,9,99,9","09929,1,99999,9",,"MET064METAR ENSF 060120Z AUTO 30016KT 9999NDV NCD 02/M04 Q0993 W///S6;","Q01    003SCCGA1"
"01300599999","2010-12-06T01:50:00","4","61.25","1.85","117.65","STATFJORD OIL PLATFORM HELIPORT, FO","FM-15","ENSF ","V020","300,1,N,0087,1","22000,1,9,N","011265,1,N,1","+0020,1","-0050,1","99999,9",,,,,,"00,99,1,99,9,99,9,99999,9,99,9,99,9","09929,1,99999,9",,"MET064METAR ENSF 060150Z AUTO 30017KT 9999NDV NCD 02/M05 Q0993 W///S6;","Q01    003SCCGA1"
"01300599999","2010-12-06T02:20:00","4","61.25","1.85","117.65","STATFJORD OIL PLATFORM HELIPORT, FO","FM-15","ENSF ","V020","320,1,N,0113,1","01500,1,9,N","003100,1,N,1","+0000,1","-0010,1","99999,9","71,1",,"04,1,+00390,1,99,9","07,1,+01500,1,99,9",,"07,99,1,99,9,99,9,99999,9,99,9,99,9","09929,1,99999,9",,"MET084METAR ENSF 060220Z AUTO 32022KT 3100NDV -SN SCT013/// BKN050/// 00/M01 Q0993 W///S6;",
"01300599999","2010-12-06T02:50:00","4","61.25","1.85","117.65","STATFJORD OIL PLATFORM HELIPORT, FO","FM-15","ENSF ","V020","350,1,N,0021,1","00420,1,9,N","011265,1,N,1","+0000,1","-0010,1","99999,9","85,1",,"07,1,+00420,1,99,9",,,"07,99,1,99,9,99,9,99999,9,99,9,99,9","09929,1,99999,9",,"MET084METAR ENSF 060250Z AUTO 35004KT 290V030 9999NDV -SHSN BKN014/// 00/M01 Q0993 W///S6;",
"01300599999","2010-12-06T03:20:00","4","61.25","1.85","117.65","STATFJORD OIL PLATFORM HELIPORT, FO","FM-15","ENSF ","V020","310,1,N,0046,1","22000,1,9,N","011265,1,N,1","+0010,1","-0010,1","99999,9",,,"04,1,+01290,1,99,9",,,"04,99,1,99,9,99,9,99999,9,99,9,99,9","09929,1,99999,9",,"MET078METAR ENSF 060320Z AUTO 31009KT 270V330 9999NDV SCT043/// 01/M01 Q0993 W///S6;",
"01300599999","2010-12-06T03:50:00","4","61.25","1.85","117.65","STATFJORD OIL PLATFORM HELIPORT, FO","FM-15","ENSF ","V020","300,1,N,0072,1","22000,1,9,N","011265,1,N,1","+0020,1","-0020,1","99999,9",,,"02,1,+01050,1,99,9","04,1,+01170,1,99,9",,"04,99,1,99,9,99,9,99999,9,99,9,99,9","09929,1,99999,9",,"MET080METAR ENSF 060350Z AUTO 30014KT 9999NDV FEW035/// SCT039/// 02/M02 Q0993 W///S6;",
"01300599999","2010-12-06T04:20:00","4","61.25","1.85","117.65","STATFJORD OIL PLATFORM HELIPORT, FO","FM-15","ENSF ","V020","310,1,N,0072,1","22000,1,9,N","011265,1,N,1","+0020,1","-0040,1","99999,9",,,"02,1,+01020,1,99,9",,,"02,99,1,99,9,99,9,99999,9,99,9,99,9","09929,1,99999,9",,"MET070METAR ENSF 060420Z AUTO 31014KT 9999NDV FEW034/// 02/M04 Q0993 W///S6;",
"01300599999","2010-12-06T04:50:00","4","61.25","1.85","117.65","STATFJORD OIL PLATFORM HELIPORT, FO","FM-15","ENSF ","V020","320,1,N,0067,1","22000,1,9,N","011265,1,N,1","+0020,1","-0050,1","99999,9",,,"04,1,+01140,1,99,9",,,"04,99,1,99,9,99,9,99999,9,99,9,99,9","09929,1,99999,9",,"MET070METAR ENSF 060450Z AUTO 32013KT 9999NDV SCT038/// 02/M05 Q0993 W///S6;",
"01300599999","2010-12-06T05:20:00","4","61.25","1.85","117.65","STATFJORD OIL PLATFORM HELIPORT, FO","FM-15","ENSF ","V020","330,1,N,0051,1","01140,1,9,N","011265,1,N,1","+0020,1","-0020,1","99999,9","81,1",,"07,1,+01140,1,99,9",,,"07,99,1,99,9,99,9,99999,9,99,9,99,9","09929,1,99999,9",,"MET084METAR ENSF 060520Z AUTO 33010KT 290V350 9999NDV -SHRA BKN038/// 02/M02 Q0993 W///S6;",
"01300599999","2010-12-06T05:50:00","4","61.25","1.85","117.65","STATFJORD OIL PLATFORM HELIPORT, FO","FM-15","ENSF ","V020","320,1,N,0087,1","22000,1,9,N","011265,1,N,1","+0020,1","-0030,1","99999,9",,,"04,1,+01050,1,99,9","04,1,+01500,1,99,9",,"04,99,1,99,9,99,9,99999,9,99,9,99,9","09929,1,99999,9",,"MET080METAR ENSF 060550Z AUTO 32017KT 9999NDV SCT035/// SCT053/// 02/M03 Q0993 W///S6;",
"01300599999","2010-12-06T06:20:00","4","61.25","1.85","117.65","STATFJORD OIL PLATFORM HELIPORT, FO","FM-15","ENSF ","V020","310,1,N,0036,1","22000,1,9,N","011265,1,N,1","+0020,1","-0050,1","99999,9",,,"02,1,+01200,1,99,9","04,1,+01470,1,99,9",,"04,99,1,99,9,99,9,99999,9,99,9,99,9","09929,1,99999,9",,"MET088METAR ENSF 060620Z AUTO 31007KT 250V340 9999NDV FEW040/// SCT049/// 02/M05 Q0993 W///S6;",
"01300599999","2010-12-06T06:50:00","4","61.25","1.85","117.65","STATFJORD OIL PLATFORM HELIPORT, FO","FM-15","ENSF ","V020","310,1,N,0072,1","22000,1,9,N","011265,1,N,1","+0020,1","-0070,1","99999,9",,,"04,1,+01260,1,99,9",,,"04,99,1,99,9,99,9,99999,9,99,9,99,9","09919,1,99999,9",,"MET070METAR ENSF 060650Z AUTO 31014KT 9999NDV SCT042/// 02/M07 Q0992 W///S6;",
"01300599999","2010-12-06T07:20:00","4","61.25","1.85","117.65","STATFJORD OIL PLATFORM HELIPORT, FO","FM-15","ENSF ","V020","300,1,N,0072,1","22000,1,9,N","011265,1,N,1","+0020,1","-0060,1","99999,9",,,"04,1,+01230,1,99,9",,,"04,99,1,99,9,99,9,99999,9,99,9,99,9","09929,1,99999,9",,"MET070METAR ENSF 060720Z AUTO 30014KT 9999NDV SCT041/// 02/M06 Q0993 W///S6;",
"01300599999","2010-12-06T07:50:00","4","61.25","1.85","117.65","STATFJORD OIL PLATFORM HELIPORT, FO","FM-15","ENSF ","V020","290,1,N,0062,1","22000,1,9,N","011265,1,N,1","+0020,1","-0070,1","99999,9",,,"02,1,+01260,1,99,9",,,"02,99,1,99,9,99,9,99999,9,99,9,99,9","09929,1,99999,9",,"MET070METAR ENSF 060750Z AUTO 29012KT 9999NDV FEW042/// 02/M07 Q0993 W///S5;",
"01300599999","2010-12-06T08:20:00","4","61.25","1.85","117.65","STATFJORD OIL PLATFORM HELIPORT, FO","FM-15","ENSF ","V020","290,1,N,0062,1","22000,1,9,N","011265,1,N,1","+0020,1","-0070,1","99999,9",,,"02,1,+01230,1,99,9",,,"02,99,1,99,9,99,9,99999,9,99,9,99,9","09929,1,99999,9",,"MET070METAR ENSF 060820Z AUTO 29012KT 9999NDV FEW041/// 02/M07 Q0993 W///S5;",
"01300599999","2010-12-06T08:50:00","4","61.25","1.85","117.65","STATFJORD OIL PLATFORM HELIPORT, FO","FM-15","ENSF ","V020","280,1,N,0057,1","22000,1,9,N","011265,1,N,1","+0020,1","-0070,1","99999,9",,,"02,1,+01260,1,99,9",,,"02,99,1,99,9,99,9,99999,9,99,9,99,9","09929,1,99999,9",,"MET070METAR ENSF 060850Z AUTO 28011KT 9999NDV FEW042/// 02/M07 Q0993 W///S5;",
"01300599999","2010-12-06T09:20:00","4","61.25","1.85","117.65","STATFJORD OIL PLATFORM HELIPORT, FO","FM-15","ENSF ","V020","280,1,N,0057,1","22000,1,9,N","011265,1,N,1","+0030,1","-0070,1","99999,9",,,,,,"00,99,1,99,9,99,9,99999,9,99,9,99,9","09939,1,99999,9",,"MET064METAR ENSF 060920Z AUTO 28011KT 9999NDV NCD 03/M07 Q0994 W///S5;","Q01    003SCCGA1"
"01300599999","2010-12-06T09:50:00","4","61.25","1.85","117.65","STATFJORD OIL PLATFORM HELIPORT, FO","FM-15","ENSF ","V020","280,1,N,0051,1","22000,1,9,N","011265,1,N,1","+0030,1","-0060,1","99999,9",,,"02,1,+01230,1,99,9",,,"02,99,1,99,9,99,9,99999,9,99,9,99,9","09939,1,99999,9",,"MET070METAR ENSF 060950Z AUTO 28010KT 9999NDV FEW041/// 03/M06 Q0994 W///S5;",
"01300599999","2010-12-06T10:20:00","4","61.25","1.85","117.65","STATFJORD OIL PLATFORM HELIPORT, FO","FM-15","ENSF ","V020","280,1,N,0062,1","22000,1,9,N","011265,1,N,1","+0030,1","-0070,1","99999,9",,,"02,1,+01200,1,99,9",,,"02,99,1,99,9,99,9,99999,9,99,9,99,9","09939,1,99999,9",,"MET070METAR ENSF 061020Z AUTO 28012KT 9999NDV FEW040/// 03/M07 Q0994 W///S5;",
"01300599999","2010-12-06T10:50:00","4","61.25","1.85","117.65","STATFJORD OIL PLATFORM HELIPORT, FO","FM-15","ENSF ","V020","280,1,N,0062,1","22000,1,9,N","011265,1,N,1","+0030,1","-0060,1","99999,9",,,"02,1,+01230,1,99,9",,,"02,99,1,99,9,99,9,99999,9,99,9,99,9","09939,1,99999,9",,"MET070METAR ENSF 061050Z AUTO 28012KT 9999NDV FEW041/// 03/M06 Q0994 W///S5;",
"01300599999","2010-12-06T11:20:00","4","61.25","1.85","117.65","STATFJORD OIL PLATFORM HELIPORT, FO","FM-15","ENSF ","V020","280,1,N,0051,1","22000,1,9,N","011265,1,N,1","+0030,1","-0050,1","99999,9",,,"04,1,+01230,1,99,9",,,"04,99,1,99,9,99,9,99999,9,99,9,99,9","09939,1,99999,9",,"MET070METAR ENSF 061120Z AUTO 28010KT 9999NDV SCT041/// 03/M05 Q0994 W///S5;",
"01300599999","2010-12-06T11:50:00","4","61.25","1.85","117.65","STATFJORD OIL PLATFORM HELIPORT, FO","FM-15","ENSF ","V020","290,1,N,0067,1","04500,1,9,N","011265,1,N,1","+0030,1","-0060,1","99999,9",,,"04,1,+01200,1,99,9","07,1,+04500,1,99,9",,"07,99,1,99,9,99,9,99999,9,99,9,99,9","09939,1,99999,9",,"MET080METAR ENSF 061150Z AUTO 29013KT 9999NDV SCT040/// BKN150/// 03/M06 Q0994 W///S5;",
"01300599999","2010-12-06T12:20:00","4","61.25","1.85","117.65","STATFJORD OIL PLATFORM HELIPORT, FO","FM-15","ENSF ","V020","290,1,N,0067,1","04500,1,9,N","011265,1,N,1","+0030,1","-0070,1","99999,9",,,"07,1,+04500,1,99,9",,,"07,99,1,99,9,99,9,99999,9,99,9,99,9","09939,1,99999,9",,"MET070METAR ENSF 061220Z AUTO 29013KT 9999NDV BKN150/// 03/M07 Q0994 W///S5;",
"01300599999","2010-12-06T12:50:00","4","61.25","1.85","117.65","STATFJORD OIL PLATFORM HELIPORT, FO","FM-15","ENSF ","V020","280,1,N,0057,1","22000,1,9,N","011265,1,N,1","+0030,1","-0060,1","99999,9",,,"02,1,+00120,1,99,9",,,"02,99,1,99,9,99,9,99999,9,99,9,99,9","09939,1,99999,9",,"MET070METAR ENSF 061250Z AUTO 28011KT 9999NDV FEW004/// 03/M06 Q0994 W///S5;",
"01300599999","2010-12-06T13:20:00","4","61.25","1.85","117.65","STATFJORD OIL PLATFORM HELIPORT, FO","FM-15","ENSF ","V020","270,1,N,0057,1","03300,1,9,N","011265,1,N,1","+0030,1","-0070,1","99999,9",,,"07,1,+03300,1,99,9","07,1,+03600,1,99,9",,"07,99,1,99,9,99,9,99999,9,99,9,99,9","09939,1,99999,9",,"MET080METAR ENSF 061320Z AUTO 27011KT 9999NDV BKN110/// BKN120/// 03/M07 Q0994 W///S5;",
"01300599999","2010-12-06T13:50:00","4","61.25","1.85","117.65","STATFJORD OIL PLATFORM HELIPORT, FO","FM-15","ENSF ","V020","280,1,N,0062,1","22000,1,9,N","011265,1,N,1","+0030,1","-0060,1","99999,9",,,"02,1,+02700,1,99,9",,,"02,99,1,99,9,99,9,99999,9,99,9,99,9","09939,1,99999,9",,"MET070METAR ENSF 061350Z AUTO 28012KT 9999NDV FEW094/// 03/M06 Q0994 W///S5;",
"01300599999","2010-12-06T14:20:00","4","61.25","1.85","117.65","STATFJORD OIL PLATFORM HELIPORT, FO","FM-15","ENSF ","V020","300,1,N,0087,1","01800,1,9,N","011265,1,N,1","+0030,1","-0010,1","99999,9",,,"02,1,+00540,1,99,9","07,1,+01800,1,99,9",,"07,99,1,99,9,99,9,99999,9,99,9,99,9","09929,1,99999,9",,"MET080METAR ENSF 061420Z AUTO 30017KT 9999NDV FEW018/// BKN060/// 03/M01 Q0993 W///S5;",
"01300599999","2010-12-06T14:50:00","4","61.25","1.85","117.65","STATFJORD OIL PLATFORM HELIPORT, FO","FM-15","ENSF ","V020","300,1,N,0103,1","00540,1,9,N","011265,1,N,1","+0020,1","-0010,1","99999,9","61,1",,"07,1,+00540,1,99,9","07,1,+02100,1,99,9","07,1,+02400,1,99,9","07,99,1,99,9,99,9,99999,9,99,9,99,9","09929,1,99999,9",,"MET094METAR ENSF 061450Z AUTO 30020KT 9999NDV -RA BKN018/// BKN075/// BKN087/// 02/M01 Q0993 W///S6;",
"01300599999","2010-12-06T15:20:00","4","61.25","1.85","117.65","STATFJORD OIL PLATFORM HELIPORT, FO","FM-15","ENSF ","V020","280,1,N,0067,1","01110,1,9,N","011265,1,N,1","+0010,1","-0010,1","99999,9","67,1",,"02,1,+00270,1,99,9","07,1,+01110,1,99,9","07,1,+02100,1,99,9","07,99,1,99,9,99,9,99999,9,99,9,99,9","09939,1,99999,9",,"MET096METAR ENSF 061520Z AUTO 28013KT 9999NDV -RASN FEW009/// BKN037/// BKN079/// 01/M01 Q0994 W///S6;",
"01300599999","2010-12-06T15:50:00","4","61.25","1.85","117.65","STATFJORD OIL PLATFORM HELIPORT, FO","FM-15","ENSF ","V020","260,1,N,0098,1","01110,1,9,N","011265,1,N,1","+0020,1","+0000,1","99999,9","61,1",,"04,1,+00390,1,99,9","07,1,+01110,1,99,9",,"07,99,1,99,9,99,9,99999,9,99,9,99,9","09939,1,99999,9",,"MET083METAR ENSF 061550Z AUTO 26019KT 9999NDV -RA SCT013/// BKN037/// 02/00 Q0994 W///S6;",
"01300599999","2010-12-06T16:20:00","4","61.25","1.85","117.65","STATFJORD OIL PLATFORM HELIPORT, FO","FM-15","ENSF ","V020","240,1,N,0093,1","00750,1,9,N","011265,1,N,1","+0010,1","+0000,1","99999,9",,,"07,1,+00750,1,99,9",,,"07,99,1,99,9,99,9,99999,9,99,9,99,9","09939,1,99999,9",,"MET074METAR ENSF 061620Z AUTO 24018KT 9999NDV BKN025/// 01/00 Q0994 RERA W///S6;",
"01300599999","2010-12-06T16:50:00","4","61.25","1.85","117.65","STATFJORD OIL PLATFORM HELIPORT, FO","FM-15","ENSF ","V020","250,1,N,0072,1","00750,1,9,N","011265,1,N,1","+0020,1","+0000,1","99999,9",,,"07,1,+00750,1,99,9",,,"07,99,1,99,9,99,9,99999,9,99,9,99,9","09939,1,99999,9",,"MET077METAR ENSF 061650Z AUTO 25014KT 230V300 9999NDV BKN025/// 02/00 Q0994 W///S6;",
"01300599999","2010-12-06T17:20:00","4","61.25","1.85","117.65","STATFJORD OIL PLATFORM HELIPORT, FO","FM-15","ENSF ","V020","340,1,N,0072,1","00720,1,9,N","011265,1,N,1","+0030,1","+0000,1","99999,9",,,"07,1,+00720,1,99,9",,,"07,99,1,99,9,99,9,99999,9,99,9,99,9","09939,1,99999,9",,"MET069METAR ENSF 061720Z AUTO 34014KT 9999NDV BKN024/// 03/00 Q0994 W///S6;",
"01300599999","2010-12-06T17:50:00","4","61.25","1.85","117.65","STATFJORD OIL PLATFORM HELIPORT, FO","FM-15","ENSF ","V020","360,1,N,0062,1","22000,1,9,N","011265,1,N,1","+0040,1","-0010,1","99999,9",,,"02,1,+01080,1,99,9",,,"02,99,1,99,9,99,9,99999,9,99,9,99,9","09949,1,99999,9",,"MET070METAR ENSF 061750Z AUTO 36012KT 9999NDV FEW036/// 04/M01 Q0995 W///S6;",
"01300599999","2010-12-06T18:20:00","4","61.25","1.85","117.65","STATFJORD OIL PLATFORM HELIPORT, FO","FM-15","ENSF ","V020","360,1,N,0036,1","22000,1,9,N","011265,1,N,1","+0040,1","-0010,1","99999,9",,,"02,1,+00810,1,99,9",,,"02,99,1,99,9,99,9,99999,9,99,9,99,9","09949,1,99999,9",,"MET078METAR ENSF 061820Z AUTO 36007KT 330V030 9999NDV FEW027/// 04/M01 Q0995 W///S6;",
"01300599999","2010-12-06T18:50:00","4","61.25","1.85","117.65","STATFJORD OIL PLATFORM HELIPORT, FO","FM-15","ENSF ","V020","020,1,N,0021,1","01500,1,9,N","011265,1,N,1","+0050,1","+0000,1","99999,9",,,"04,1,+00930,1,99,9","07,1,+01500,1,99,9",,"07,99,1,99,9,99,9,99999,9,99,9,99,9","09949,1,99999,9",,"MET087METAR ENSF 061850Z AUTO 02004KT 340V070 9999NDV SCT031/// BKN054/// 05/00 Q0995 W///S6;",
"01300599999","2010-12-06T19:20:00","4","61.25","1.85","117.65","STATFJORD OIL PLATFORM HELIPORT, FO","FM-15","ENSF ","V020","320,1,N,0087,1","00960,1,9,N","011265,1,N,1","+0040,1","-0030,1","99999,9",,,"07,1,+00960,1,99,9",,,"07,99,1,99,9,99,9,99999,9,99,9,99,9","09939,1,99999,9",,"MET070METAR ENSF 061920Z AUTO 32017KT 9999NDV BKN032/// 04/M03 Q0994 W///S6;",
"01300599999","2010-12-06T19:50:00","4","61.25","1.85","117.65","STATFJORD OIL PLATFORM HELIPORT, FO","FM-15","ENSF ","V020","320,1,N,0087,1","01170,1,9,N","011265,1,N,1","+0040,1","-0020,1","99999,9",,,"07,1,+01170,1,99,9",,,"07,99,1,99,9,99,9,99999,9,99,9,99,9","09949,1,99999,9",,"MET070METAR ENSF 061950Z AUTO 32017KT 9999NDV BKN039/// 04/M02 Q0995 W///S6;",
"01300599999","2010-12-06T20:20:00","4","61.25","1.85","117.65","STATFJORD OIL PLATFORM HELIPORT, FO","FM-15","ENSF ","V020","310,1,N,0113,1","01050,1,9,N","011265,1,N,1","+0040,1","-0020,1","99999,9",,,"08,1,+01050,1,99,9",,,"08,99,1,99,9,99,9,99999,9,99,9,99,9","09939,1,99999,9",,"MET070METAR ENSF 062020Z AUTO 31022KT 9999NDV OVC035/// 04/M02 Q0994 W///S6;",
"01300599999","2010-12-06T20:50:00","4","61.25","1.85","117.65","STATFJORD OIL PLATFORM HELIPORT, FO","FM-15","ENSF ","V020","300,1,N,0108,1","01500,1,9,N","011265,1,N,1","+0040,1","-0030,1","99999,9",,,"08,1,+01500,1,99,9",,,"08,99,1,99,9,99,9,99999,9,99,9,99,9","09949,1,99999,9",,"MET070METAR ENSF 062050Z AUTO 30021KT 9999NDV OVC053/// 04/M03 Q0995 W///S6;",
"01300599999","2010-12-06T21:20:00","4","61.25","1.85","117.65","STATFJORD OIL PLATFORM HELIPORT, FO","FM-15","ENSF ","V020","290,1,N,0113,1","01500,1,9,N","011265,1,N,1","+0040,1","-0050,1","99999,9",,,"08,1,+01500,1,99,9",,,"08,99,1,99,9,99,9,99999,9,99,9,99,9","09949,1,99999,9",,"MET070METAR ENSF 062120Z AUTO 29022KT 9999NDV OVC054/// 04/M05 Q0995 W///S6;",
"01300599999","2010-12-06T21:50:00","4","61.25","1.85","117.65","STATFJORD OIL PLATFORM HELIPORT, FO","FM-15","ENSF ","V020","290,1,N,0118,1","01500,1,9,N","011265,1,N,1","+0040,1","-0030,1","99999,9",,,"07,1,+01500,1,99,9",,,"07,99,1,99,9,99,9,99999,9,99,9,99,9","09949,1,99999,9",,"MET070METAR ENSF 062150Z AUTO 29023KT 9999NDV BKN055/// 04/M03 Q0995 W///S6;",
"01300599999","2010-12-06T22:20:00","4","61.25","1.85","117.65","STATFJORD OIL PLATFORM HELIPORT, FO","FM-15","ENSF ","V020","290,1,N,0093,1","01380,1,C,N","011265,1,N,1","+0040,1","-0020,1","99999,9",,,"02,1,+00990,1,99,9","04,1,+01380,1,99,9","07,1,+01500,1,99,9","07,99,1,99,9,99,9,99999,9,99,9,99,9","09949,1,99999,9",,"MET090METAR ENSF 062220Z AUTO 29018KT 9999NDV FEW033/// SCT046/// BKN055/// 04/M02 Q0995 W///S6;",
"01300599999","2010-12-06T22:50:00","4","61.25","1.85","117.65","STATFJORD OIL PLATFORM HELIPORT, FO","FM-15","ENSF ","V020","280,1,N,0082,1","22000,1,9,N","011265,1,N,1","+0040,1","-0030,1","99999,9",,,"02,1,+00900,1,99,9",,,"02,99,1,99,9,99,9,99999,9,99,9,99,9","09949,1,99999,9",,"MET070METAR ENSF 062250Z AUTO 28016KT 9999NDV FEW030/// 04/M03 Q0995 W///S6;",
"01300599999","2010-12-06T23:20:00","4","61.25","1.85","117.65","STATFJORD OIL PLATFORM HELIPORT, FO","FM-15","ENSF ","V020","260,1,N,0093,1","22000,1,9,N","011265,1,N,1","+0040,1","-0010,1","99999,9",,,"04,1,+00780,1,99,9",,,"04,99,1,99,9,99,9,99999,9,99,9,99,9","09949,1,99999,9",,"MET070METAR ENSF 062320Z AUTO 26018KT 9999NDV SCT026/// 04/M01 Q0995 W///S6;",
"01300599999","2010-12-06T23:50:00","4","61.25","1.85","117.65","STATFJORD OIL PLATFORM HELIPORT, FO","FM-15","ENSF ","V020","260,1,N,0082,1","00750,1,9,N","011265,1,N,1","+0030,1","-0010,1","99999,9","81,1",,"07,1,+00750,1,99,9",,,"07,99,1,99,9,99,9,99999,9,99,9,99,9","09949,1,99999,9",,"MET076METAR ENSF 062350Z AUTO 26016KT 9999NDV -SHRA BKN025/// 03/M01 Q0995 W///S6;",
"01300599999","2010-12-07T00:20:00","4","61.25","1.85","117.65","STATFJORD OIL PLATFORM HELIPORT, FO","FM-15","ENSF ","V020","270,1,N,0087,1","01410,1,9,N","011265,1,N,1","+0030,1","-0010,1","99999,9",,,"04,1,+00600,1,99,9","07,1,+01410,1,99,9",,"07,99,1,99,9,99,9,99999,9,99,9,99,9","09949,1,99999,9",,"MET080METAR ENSF 070020Z AUTO 27017KT 9999NDV SCT020/// BKN047/// 03/M01 Q0995 W///S6;",
"01300599999","2010-12-07T00:50:00","4","61.25","1.85","117.65","STATFJORD OIL PLATFORM HELIPORT, FO","FM-15","ENSF ","V020","300,1,N,0082,1","00390,1,9,N","011265,1,N,1","+0020,1","+0000,1","99999,9","81,1",,"07,1,+00390,1,99,9",,,"07,99,1,99,9,99,9,99999,9,99,9,99,9","09949,1,99999,9",,"MET075METAR ENSF 070050Z AUTO 30016KT 9999NDV -SHRA BKN013/// 02/00 Q0995 W///S6;",
"01300599999","2010-12-07T01:20:00","4","61.25","1.85","117.65","STATFJORD OIL PLATFORM HELIPORT, FO","FM-15","ENSF ","V020","280,1,N,0118,1","04500,1,9,N","011265,1,N,1","+0030,1","+0010,1","99999,9","81,1",,"04,1,+00450,1,99,9","07,1,+04500,1,99,9",,"07,99,1,99,9,99,9,99999,9,99,9,99,9","09949,1,99999,9",,"MET085METAR ENSF 070120Z AUTO 28023KT 9999NDV -SHRA SCT015/// BKN150/// 03/01 Q0995 W///S6;",
"01300599999","2010-12-07T01:50:00","4","61.25","1.85","117.65","STATFJORD OIL PLATFORM HELIPORT, FO","FM-15","ENSF ","V020","290,1,N,0180,1","00390,1,9,N","011265,1,N,1","+0030,1","+0010,1","99999,9","81,1",,"07,1,+00390,1,99,9","07,1,+01500,1,99,9",,"07,99,1,99,9,99,9,99999,9,99,9,99,9","09939,1,99999,9",,"MET085METAR ENSF 070150Z AUTO 29035KT 9999NDV -SHRA BKN013/// BKN055/// 03/01 Q0994 W///S6;",
"01300599999","2010-12-07T02:20:00","4","61.25","1.85","117.65","STATFJORD OIL PLATFORM HELIPORT, FO","FM-15","ENSF ","V020","290,1,N,0185,1","00330,1,9,N","011265,1,N,1","+0020,1","+0010,1","99999,9","81,1",,"07,1,+00330,1,99,9","07,1,+01140,1,99,9",,"07,99,1,99,9,99,9,99999,9,99,9,99,9","09939,1,99999,9",,"MET092METAR ENSF 070220Z AUTO 29036KT 9999NDV -SHRA BKN011/// BKN038/// 02/01 Q0994 RESHRA W///S6;",
"01300599999","2010-12-07T02:50:00","4","61.25","1.85","117.65","STATFJORD OIL PLATFORM HELIPORT, FO","FM-15","ENSF ","V020","290,1,N,0221,1","00360,1,9,N","011265,1,N,1","+0030,1","+0010,1","99999,9","81,1",,"08,1,+00360,1,99,9",,,"08,99,1,99,9,99,9,99999,9,99,9,99,9","09929,1,99999,9",,"MET082METAR ENSF 070250Z AUTO 29043KT 9999NDV -SHRA OVC012/// 03/01 Q0993 RESHRA W///S6;",
"01300599999","2010-12-07T03:20:00","4","61.25","1.85","117.65","STATFJORD OIL PLATFORM HELIPORT, FO","FM-15","ENSF ","V020","290,1,N,0221,1","00330,1,9,N","008000,1,N,1","+0030,1","+0010,1","99999,9","81,1",,"07,1,+00330,1,99,9",,,"07,99,1,99,9,99,9,99999,9,99,9,99,9","09929,1,99999,9",,"MET075METAR ENSF 070320Z AUTO 29043KT 8000NDV -SHRA BKN011/// 03/01 Q0993 W///S6;",
"01300599999","2010-12-07T03:50:00","4","61.25","1.85","117.65","STATFJORD OIL PLATFORM HELIPORT, FO","FM-15","ENSF ","V020","290,1,N,0180,1","00240,1,9,N","011265,1,N,1","+0040,1","+0030,1","99999,9","81,1",,"07,1,+00240,1,99,9","07,1,+01800,1,99,9",,"07,99,1,99,9,99,9,99999,9,99,9,99,9","09919,1,99999,9",,"MET085METAR ENSF 070350Z AUTO 29035KT 9999NDV -SHRA BKN008/// BKN061/// 04/03 Q0992 W///S6;",
"01300599999","2010-12-07T04:20:00","4","61.25","1.85","117.65","STATFJORD OIL PLATFORM HELIPORT, FO","FM-15","ENSF ","V020","300,1,N,0180,1","00390,1,9,N","011265,1,N,1","+0040,1","+0020,1","99999,9",,,"07,1,+00390,1,99,9","07,1,+00420,1,99,9","07,1,+05400,1,99,9","07,99,1,99,9,99,9,99999,9,99,9,99,9","09919,1,99999,9",,"MET089METAR ENSF 070420Z AUTO 30035KT 9999NDV BKN013/// BKN014/// BKN180/// 04/02 Q0992 W///S6;",
"01300599999","2010-12-07T04:50:00","4","61.25","1.85","117.65","STATFJORD OIL PLATFORM HELIPORT, FO","FM-15","ENSF ","V020","310,1,N,0165,1","00510,1,C,N","011265,1,N,1","+0040,1","+0020,1","99999,9","52,1",,"02,1,+00420,1,99,9","04,1,+00510,1,99,9","07,1,+01440,1,99,9","07,99,1,99,9,99,9,99999,9,99,9,99,9","09909,1,99999,9",,"MET092METAR ENSF 070450Z AUTO 31032KT 9999NDV DZ FEW014/// SCT017/// BKN048/// 04/02 Q0991 W///S6;",
"01300599999","2010-12-07T05:20:00","4","61.25","1.85","117.65","STATFJORD OIL PLATFORM HELIPORT, FO","FM-15","ENSF ","V020","310,1,N,0165,1","00630,1,9,N","011265,1,N,1","+0050,1","+0020,1","99999,9",,,"07,1,+00630,1,99,9",,,"07,99,1,99,9,99,9,99999,9,99,9,99,9","09919,1,99999,9",,"MET069METAR ENSF 070520Z AUTO 31032KT 9999NDV BKN021/// 05/02 Q0992 W///S6;",
"01300599999","2010-12-07T05:50:00","4","61.25","1.85","117.65","STATFJORD OIL PLATFORM HELIPORT, FO","FM-15","ENSF ","V020","320,1,N,0159,1","01440,1,9,N","011265,1,N,1","+0050,1","+0000,1","99999,9",,,"04,1,+00750,1,99,9","07,1,+01440,1,99,9","07,1,+06000,1,99,9","07,99,1,99,9,99,9,99999,9,99,9,99,9","09909,1,99999,9",,"MET089METAR ENSF 070550Z AUTO 32031KT 9999NDV SCT025/// BKN048/// BKN200/// 05/00 Q0991 W///S6;",
"01300599999","2010-12-07T06:20:00","4","61.25","1.85","117.65","STATFJORD OIL PLATFORM HELIPORT, FO","FM-15","ENSF ","V020","330,1,N,0144,1","22000,1,9,N","011265,1,N,1","+0050,1","+0010,1","99999,9",,,"04,1,+00690,1,99,9",,,"04,99,1,99,9,99,9,99999,9,99,9,99,9","09919,1,99999,9",,"MET069METAR ENSF 070620Z AUTO 33028KT 9999NDV SCT023/// 05/01 Q0992 W///S6;",
"01300599999","2010-12-07T06:50:00","4","61.25","1.85","117.65","STATFJORD OIL PLATFORM HELIPORT, FO","FM-15","ENSF ","V020","330,1,N,0175,1","00570,1,9,N","011265,1,N,1","+0050,1","+0020,1","99999,9","51,1",,"07,1,+00570,1,99,9",,,"07,99,1,99,9,99,9,99999,9,99,9,99,9","09909,1,99999,9",,"MET073METAR ENSF 070650Z AUTO 33034KT 9999NDV -DZ BKN019/// 05/02 Q0991 W///S6;",
"01300599999","2010-12-07T07:20:00","4","61.25","1.85","117.65","STATFJORD OIL PLATFORM HELIPORT, FO","FM-15","ENSF ","V020","340,1,N,0201,1","00570,1,9,N","011265,1,N,1","+0050,1","+0020,1","99999,9",,,"07,1,+00570,1,99,9",,,"07,99,1,99,9,99,9,99999,9,99,9,99,9","09919,1,99999,9",,"MET069METAR ENSF 070720Z AUTO 34039KT 9999NDV BKN019/// 05/02 Q0992 W///S6;",
"01300599999","2010-12-07T07:50:00","4","61.25","1.85","117.65","STATFJORD OIL PLATFORM HELIPORT, FO","FM-15","ENSF ","V020","340,1,N,0201,1","00540,1,9,N","011265,1,N,1","+0050,1","+0020,1","99999,9","51,1",,"07,1,+00540,1,99,9",,,"07,99,1,99,9,99,9,99999,9,99,9,99,9","09929,1,99999,9",,"MET073METAR ENSF 070750Z AUTO 34039KT 9999NDV -DZ BKN018/// 05/02 Q0993 W///S6;",
"01300599999","2010-12-07T08:20:00","4","61.25","1.85","117.65","STATFJORD OIL PLATFORM HELIPORT, FO","FM-15","ENSF ","V020","350,1,N,0180,1","00540,1,9,N","011265,1,N,1","+0040,1","+0010,1","99999,9","81,1",,"07,1,+00540,1,99,9",,,"07,99,1,99,9,99,9,99999,9,99,9,99,9","09939,1,99999,9",,"MET075METAR ENSF 070820Z AUTO 35035KT 9999NDV -SHRA BKN018/// 04/01 Q0994 W///S6;",
"01300599999","2010-12-07T08:50:00","4","61.25","1.85","117.65","STATFJORD OIL PLATFORM HELIPORT, FO","FM-15","ENSF ","V020","350,1,N,0180,1","00480,1,9,N","011265,1,N,1","+0040,1","+0020,1","99999,9","81,1",,"07,1,+00480,1,99,9",,,"07,99,1,99,9,99,9,99999,9,99,9,99,9","09939,1,99999,9",,"MET075METAR ENSF 070850Z AUTO 35035KT 9999NDV -SHRA BKN016/// 04/02 Q0994 W///S6;",
"01300599999","2010-12-07T09:20:00","4","61.25","1.85","117.65","STATFJORD OIL PLATFORM HELIPORT, FO","FM-15","ENSF ","V020","350,1,N,0175,1","00510,1,9,N","011265,1,N,1","+0040,1","+0020,1","99999,9",,,"07,1,+00510,1,99,9",,,"07,99,1,99,9,99,9,99999,9,99,9,99,9","09949,1,99999,9",,"MET069METAR ENSF 070920Z AUTO 35034KT 9999NDV BKN017/// 04/02 Q0995 W///S6;",
"01300599999","2010-12-07T09:50:00","4","61.25","1.85","117.65","STATFJORD OIL PLATFORM HELIPORT, FO","FM-15","ENSF ","V020","010,1,N,0139,1","00540,1,9,N","011265,1,N,1","+0050,1","+0020,1","99999,9",,,"07,1,+00540,1,99,9","07,1,+01350,1,99,9",,"07,99,1,99,9,99,9,99999,9,99,9,99,9","09959,1,99999,9",,"MET079METAR ENSF 070950Z AUTO 01027KT 9999NDV BKN018/// BKN045/// 05/02 Q0996 W///S6;",
"01300599999","2010-12-07T10:20:00","4","61.25","1.85","117.65","STATFJORD OIL PLATFORM HELIPORT, FO","FM-15","ENSF ","V020","020,1,N,0103,1","00540,1,9,N","007000,1,N,1","+0050,1","+0020,1","99999,9","81,1",,"07,1,+00540,1,99,9",,,"07,99,1,99,9,99,9,99999,9,99,9,99,9","09970,1,99999,9",,"MET075METAR ENSF 071020Z AUTO 02020KT 7000NDV -SHRA BKN018/// 05/02 Q0997 W///S6;",
"01300599999","2010-12-07T10:50:00","4","61.25","1.85","117.65","STATFJORD OIL PLATFORM HELIPORT, FO","FM-15","ENSF ","V020","010,1,N,0123,1","00510,1,9,N","011265,1,N,1","+0050,1","+0020,1","99999,9","81,1",,"07,1,+00510,1,99,9",,,"07,99,1,99,9,99,9,99999,9,99,9,99,9","09970,1,99999,9",,"MET075METAR ENSF 071050Z AUTO 01024KT 9999NDV -SHRA BKN017/// 05/02 Q0997 W///S6;",
"01300599999","2010-12-07T11:20:00","4","61.25","1.85","117.65","STATFJORD OIL PLATFORM HELIPORT, FO","FM-15","ENSF ","V020","010,1,N,0108,1","00570,1,9,N","011265,1,N,1","+0050,1","+0020,1","99999,9","81,1",,"07,1,+00570,1,99,9",,,"07,99,1,99,9,99,9,99999,9,99,9,99,9","09980,1,99999,9",,"MET075METAR ENSF 071120Z AUTO 01021KT 9999NDV -SHRA BKN019/// 05/02 Q0998 W///S6;",
"01300599999","2010-12-07T11:50:00","4","61.25","1.85","117.65","STATFJORD OIL PLATFORM HELIPORT, FO","FM-15","ENSF ","V020","360,1,N,0113,1","00420,1,9,N","011265,1,N,1","+0040,1","+0010,1","99999,9",,,"07,1,+00420,1,99,9",,,"07,99,1,99,9,99,9,99999,9,99,9,99,9","09980,1,99999,9",,"MET069METAR ENSF 071150Z AUTO 36022KT 9999NDV BKN014/// 04/01 Q0998 W///S6;",
"01300599999","2010-12-07T12:20:00","4","61.25","1.85","117.65","STATFJORD OIL PLATFORM HELIPORT, FO","FM-15","ENSF ","V020","360,1,N,0129,1","22000,1,9,N","011265,1,N,1","+0040,1","+0010,1","99999,9",,,"02,1,+00540,1,99,9",,,"02,99,1,99,9,99,9,99999,9,99,9,99,9","09980,1,99999,9",,"MET069METAR ENSF 071220Z AUTO 36025KT 9999NDV FEW018/// 04/01 Q0998 W///S6;",
"01300599999","2010-12-07T12:50:00","4","61.25","1.85","117.65","STATFJORD OIL PLATFORM HELIPORT, FO","FM-15","ENSF ","V020","360,1,N,0118,1","00600,1,9,N","011265,1,N,1","+0050,1","+0010,1","99999,9",,,"07,1,+00600,1,99,9",,,"07,99,1,99,9,99,9,99999,9,99,9,99,9","09980,1,99999,9",,"MET069METAR ENSF 071250Z AUTO 36023KT 9999NDV BKN020/// 05/01 Q0998 W///S5;",
"01300599999","2010-12-07T13:20:00","4","61.25","1.85","117.65","STATFJORD OIL PLATFORM HELIPORT, FO","FM-15","ENSF ","V020","350,1,N,0123,1","22000,1,9,N","011265,1,N,1","+0040,1","+0010,1","99999,9",,,"04,1,+00510,1,99,9",,,"04,99,1,99,9,99,9,99999,9,99,9,99,9","09980,1,99999,9",,"MET069METAR ENSF 071320Z AUTO 35024KT 9999NDV SCT017/// 04/01 Q0998 W///S5;",
"01300599999","2010-12-07T13:50:00","4","61.25","1.85","117.65","STATFJORD OIL PLATFORM HELIPORT, FO","FM-15","ENSF ","V020","340,1,N,0108,1","00570,1,9,N","011265,1,N,1","+0050,1","+0010,1","99999,9",,,"07,1,+00570,1,99,9",,,"07,99,1,99,9,99,9,99999,9,99,9,99,9","09980,1,99999,9",,"MET069METAR ENSF 071350Z AUTO 34021KT 9999NDV BKN019/// 05/01 Q0998 W///S6;",
"01300599999","2010-12-07T14:20:00","4","61.25","1.85","117.65","STATFJORD OIL PLATFORM HELIPORT, FO","FM-15","ENSF ","V020","350,1,N,0093,1","00480,1,9,N","011265,1,N,1","+0040,1","+0010,1","99999,9","81,1",,"07,1,+00480,1,99,9",,,"07,99,1,99,9,99,9,99999,9,99,9,99,9","09980,1,99999,9",,"MET075METAR ENSF 071420Z AUTO 35018KT 9999NDV -SHRA BKN016/// 04/01 Q0998 W///S6;",
"01300599999","2010-12-07T14:50:00","4","61.25","1.85","117.65","STATFJORD OIL PLATFORM HELIPORT, FO","FM-15","ENSF ","V020","010,1,N,0098,1","00600,1,9,N","011265,1,N,1","+0050,1","+0010,1","99999,9","52,1",,"07,1,+00600,1,99,9",,,"07,99,1,99,9,99,9,99999,9,99,9,99,9","09990,1,99999,9",,"MET072METAR ENSF 071450Z AUTO 01019KT 9999NDV DZ BKN020/// 05/01 Q0999 W///S5;",
"01300599999","2010-12-07T15:20:00","4","61.25","1.85","117.65","STATFJORD OIL PLATFORM HELIPORT, FO","FM-15","ENSF ","V020","010,1,N,0098,1","00780,1,9,N","011265,1,N,1","+0050,1","+0010,1","99999,9",,,"07,1,+00780,1,99,9",,,"07,99,1,99,9,99,9,99999,9,99,9,99,9","09990,1,99999,9",,"MET069METAR ENSF 071520Z AUTO 01019KT 9999NDV BKN026/// 05/01 Q0999 W///S5;",
"01300599999","2010-12-07T15:50:00","4","61.25","1.85","117.65","STATFJORD OIL PLATFORM HELIPORT, FO","FM-15","ENSF ","V020","010,1,N,0082,1","22000,1,9,N","011265,1,N,1","+0050,1","+0000,1","99999,9",,,"04,1,+00750,1,99,9",,,"04,99,1,99,9,99,9,99999,9,99,9,99,9","09990,1,99999,9",,"MET069METAR ENSF 071550Z AUTO 01016KT 9999NDV SCT025/// 05/00 Q0999 W///S5;",
"01300599999","2010-12-07T16:20:00","4","61.25","1.85","117.65","STATFJORD OIL PLATFORM HELIPORT, FO","FM-15","ENSF ","V020","010,1,N,0082,1","00600,1,9,N","011265,1,N,1","+0050,1","+0010,1","99999,9","81,1",,"07,1,+00600,1,99,9",,,"07,99,1,99,9,99,9,99999,9,99,9,99,9","09990,1,99999,9",,"MET075METAR ENSF 071620Z AUTO 01016KT 9999NDV -SHRA BKN020/// 05/01 Q0999 W///S5;",
"01300599999","2010-12-07T16:50:00","4","61.25","1.85","117.65","STATFJORD OIL PLATFORM HELIPORT, FO","FM-15","ENSF ","V020","010,1,N,0093,1","01500,1,9,N","011265,1,N,1","+0050,1","+0010,1","99999,9",,,"04,1,+00660,1,99,9","07,1,+01500,1,99,9",,"07,99,1,99,9,99,9,99999,9,99,9,99,9","09990,1,99999,9",,"MET079METAR ENSF 071650Z AUTO 01018KT 9999NDV SCT022/// BKN058/// 05/01 Q0999 W///S5;",
"01300599999","2010-12-07T17:20:00","4","61.25","1.85","117.65","STATFJORD OIL PLATFORM HELIPORT, FO","FM-15","ENSF ","V020","030,1,N,0077,1","00660,1,9,N","011265,1,N,1","+0050,1","+0010,1","99999,9","81,1",,"07,1,+00660,1,99,9",,,"07,99,1,99,9,99,9,99999,9,99,9,99,9","10000,1,99999,9",,"MET075METAR ENSF 071720Z AUTO 03015KT 9999NDV -SHRA BKN022/// 05/01 Q1000 W///S5;",
"01300599999","2010-12-07T17:50:00","4","61.25","1.85","117.65","STATFJORD OIL PLATFORM HELIPORT, FO","FM-15","ENSF ","V020","010,1,N,0077,1","00720,1,9,N","011265,1,N,1","+0040,1","+0010,1","99999,9","81,1",,"04,1,+00540,1,99,9","07,1,+00720,1,99,9",,"07,99,1,99,9,99,9,99999,9,99,9,99,9","10000,1,99999,9",,"MET085METAR ENSF 071750Z AUTO 01015KT 9999NDV -SHRA SCT018/// BKN024/// 04/01 Q1000 W///S5;",
"01300599999","2010-12-07T18:20:00","4","61.25","1.85","117.65","STATFJORD OIL PLATFORM HELIPORT, FO","FM-15","ENSF ","V020","030,1,N,0103,1","00480,1,9,N","011265,1,N,1","+0050,1","+0010,1","99999,9",,,"07,1,+00480,1,99,9",,,"07,99,1,99,9,99,9,99999,9,99,9,99,9","10000,1,99999,9",,"MET069METAR ENSF 071820Z AUTO 03020KT 9999NDV BKN016/// 05/01 Q1000 W///S5;",
"01300599999","2010-12-07T18:50:00","4","61.25","1.85","117.65","STATFJORD OIL PLATFORM HELIPORT, FO","FM-15","ENSF ","V020","040,1,N,0118,1","00300,1,9,N","011265,1,N,1","+0040,1","+0010,1","99999,9",,,"07,1,+00300,1,99,9",,,"07,99,1,99,9,99,9,99999,9,99,9,99,9","10000,1,99999,9",,"MET069METAR ENSF 071850Z AUTO 04023KT 9999NDV BKN010/// 04/01 Q1000 W///S5;",
"01300599999","2010-12-07T19:20:00","4","61.25","1.85","117.65","STATFJORD OIL PLATFORM HELIPORT, FO","FM-15","ENSF ","V020","030,1,N,0108,1","00330,1,9,N","011265,1,N,1","+0040,1","+0010,1","99999,9",,,"07,1,+00330,1,99,9",,,"07,99,1,99,9,99,9,99999,9,99,9,99,9","10000,1,99999,9",,"MET069METAR ENSF 071920Z AUTO 03021KT 9999NDV BKN011/// 04/01 Q1000 W///S5;",
"01300599999","2010-12-07T19:50:00","4","61.25","1.85","117.65","STATFJORD OIL PLATFORM HELIPORT, FO","FM-15","ENSF ","V020","040,1,N,0087,1","00300,1,9,N","011265,1,N,1","+0040,1","+0010,1","99999,9",,,"07,1,+00300,1,99,9",,,"07,99,1,99,9,99,9,99999,9,99,9,99,9","10000,1,99999,9",,"MET069METAR ENSF 071950Z AUTO 04017KT 9999NDV BKN010/// 04/01 Q1000 W///S5;",
"01300599999","2010-12-07T20:20:00","4","61.25","1.85","117.65","STATFJORD OIL PLATFORM HELIPORT, FO","FM-15","ENSF ","V020","040,1,N,0062,1","00780,1,9,N","011265,1,N,1","+0040,1","+0020,1","99999,9",,,"02,1,+00300,1,99,9","07,1,+00780,1,99,9",,"07,99,1,99,9,99,9,99999,9,99,9,99,9","10000,1,99999,9",,"MET079METAR ENSF 072020Z AUTO 04012KT 9999NDV FEW010/// BKN026/// 04/02 Q1000 W///S5;",
"01300599999","2010-12-07T20:50:00","4","61.25","1.85","117.65","STATFJORD OIL PLATFORM HELIPORT, FO","FM-15","ENSF ","V020","020,1,N,0082,1","01110,1,9,N","011265,1,N,1","+0040,1","+0010,1","99999,9",,,"02,1,+00450,1,99,9","07,1,+01110,1,99,9",,"07,99,1,99,9,99,9,99999,9,99,9,99,9","10000,1,99999,9",,"MET079METAR ENSF 072050Z AUTO 02016KT 9999NDV FEW015/// BKN037/// 04/01 Q1000 W///S5;",
"01300599999","2010-12-07T21:20:00","4","61.25","1.85","117.65","STATFJORD OIL PLATFORM HELIPORT, FO","FM-15","ENSF ","V020","020,1,N,0072,1","01440,1,9,N","011265,1,N,1","+0040,1","+0010,1","99999,9",,,"04,1,+00510,1,99,9","07,1,+01440,1,99,9","07,1,+03900,1,99,9","07,99,1,99,9,99,9,99999,9,99,9,99,9","10000,1,99999,9",,"MET089METAR ENSF 072120Z AUTO 02014KT 9999NDV SCT017/// BKN048/// BKN130/// 04/01 Q1000 W///S5;",
"01300599999","2010-12-07T21:50:00","4","61.25","1.85","117.65","STATFJORD OIL PLATFORM HELIPORT, FO","FM-15","ENSF ","V020","360,1,N,0067,1","04200,1,9,N","011265,1,N,1","+0030,1","+0010,1","99999,9",,,"04,1,+00480,1,99,9","07,1,+04200,1,99,9",,"07,99,1,99,9,99,9,99999,9,99,9,99,9","10000,1,99999,9",,"MET079METAR ENSF 072150Z AUTO 36013KT 9999NDV SCT016/// BKN140/// 03/01 Q1000 W///S5;",
"01300599999","2010-12-07T22:20:00","4","61.25","1.85","117.65","STATFJORD OIL PLATFORM HELIPORT, FO","FM-15","ENSF ","V020","040,1,N,0082,1","00360,1,9,N","011265,1,N,1","+0040,1","+0020,1","99999,9",,,"07,1,+00360,1,99,9","07,1,+00810,1,99,9","07,1,+01350,1,99,9","07,99,1,99,9,99,9,99999,9,99,9,99,9","10010,1,99999,9",,"MET089METAR ENSF 072220Z AUTO 04016KT 9999NDV BKN012/// BKN027/// BKN045/// 04/02 Q1001 W///S5;",
"01300599999","2010-12-07T22:50:00","4","61.25","1.85","117.65","STATFJORD OIL PLATFORM HELIPORT, FO","FM-15","ENSF ","V020","040,1,N,0103,1","01500,1,9,N","011265,1,N,1","+0040,1","+0010,1","99999,9",,,"04,1,+00390,1,99,9","07,1,+01500,1,99,9","07,1,+04500,1,99,9","07,99,1,99,9,99,9,99999,9,99,9,99,9","10010,1,99999,9",,"MET089METAR ENSF 072250Z AUTO 04020KT 9999NDV SCT013/// BKN058/// BKN150/// 04/01 Q1001 W///S5;",
"01300599999","2010-12-07T23:20:00","4","61.25","1.85","117.65","STATFJORD OIL PLATFORM HELIPORT, FO","FM-15","ENSF ","V020","340,1,N,0170,1","00270,1,9,N","011265,1,N,1","+0020,1","+0010,1","99999,9","81,1",,"07,1,+00270,1,99,9","07,1,+01800,1,99,9",,"07,99,1,99,9,99,9,99999,9,99,9,99,9","10000,1,99999,9",,"MET085METAR ENSF 072320Z AUTO 34033KT 9999NDV -SHRA BKN009/// BKN060/// 02/01 Q1000 W///S5;",
"01300599999","2010-12-07T23:50:00","4","61.25","1.85","117.65","STATFJORD OIL PLATFORM HELIPORT, FO","FM-15","ENSF ","V020","340,1,N,0154,1","00210,1,9,N","006000,1,N,1","+0010,1","+0000,1","99999,9","82,1",,"07,1,+00210,1,99,9",,,"07,99,1,99,9,99,9,99999,9,99,9,99,9","10010,1,99999,9",,"MET074METAR ENSF 072350Z AUTO 34030KT 6000NDV SHRA BKN007/// 01/00 Q1001 W///S5;",
"01300599999","2010-12-08T00:20:00","4","61.25","1.85","117.65","STATFJORD OIL PLATFORM HELIPORT, FO","FM-15","ENSF ","V020","360,1,N,0098,1","00270,1,9,N","011265,1,N,1","+0010,1","+0010,1","99999,9","61,1",,"07,1,+00270,1,99,9",,,"07,99,1,99,9,99,9,99999,9,99,9,99,9","10020,1,99999,9",,"MET073METAR ENSF 080020Z AUTO 36019KT 9999NDV -RA BKN009/// 01/01 Q1002 W///S5;",
"01300599999","2010-12-08T00:50:00","4","61.25","1.85","117.65","STATFJORD OIL PLATFORM HELIPORT, FO","FM-15","ENSF ","V020","999,9,9,9999,9","00240,1,9,N","003000,1,N,1","+0010,1","+0010,1","99999,9","80,1",,"07,1,+00240,1,99,9",,,"07,99,1,99,9,99,9,99999,9,99,9,99,9","10020,1,99999,9",,"MET077METAR ENSF 080050Z AUTO /////KT 3000NDV -SHRASN BKN008/// 01/01 Q1002 W///S5;",
"01300599999","2010-12-08T01:20:00","4","61.25","1.85","117.65","STATFJORD OIL PLATFORM HELIPORT, FO","FM-15","ENSF ","V020","010,1,N,0139,1","00180,1,9,N","011265,1,N,1","+0020,1","+0020,1","99999,9","80,1",,"07,1,+00180,1,99,9",,,"07,99,1,99,9,99,9,99999,9,99,9,99,9","10020,1,99999,9",,"MET077METAR ENSF 080120Z AUTO 01027KT 9999NDV -SHRASN BKN006/// 02/02 Q1002 W///S5;",
"01300599999","2010-12-08T01:50:00","4","61.25","1.85","117.65","STATFJORD OIL PLATFORM HELIPORT, FO","FM-15","ENSF ","V020","010,1,N,0103,1","00270,1,9,N","011265,1,N,1","+0020,1","+0020,1","99999,9","81,1",,"07,1,+00270,1,99,9","07,1,+01050,1,99,9",,"07,99,1,99,9,99,9,99999,9,99,9,99,9","10020,1,99999,9",,"MET085METAR ENSF 080150Z AUTO 01020KT 9999NDV -SHRA BKN009/// BKN035/// 02/02 Q1002 W///S5;",
"01300599999","2010-12-08T02:20:00","4","61.25","1.85","117.65","STATFJORD OIL PLATFORM HELIPORT, FO","FM-15","ENSF ","V020","350,1,N,0154,1","00840,1,9,N","011265,1,N,1","+0030,1","-0010,1","99999,9",,,"02,1,+00270,1,99,9","07,1,+00840,1,99,9","07,1,+02700,1,99,9","07,99,1,99,9,99,9,99999,9,99,9,99,9","10020,1,99999,9",,"MET090METAR ENSF 080220Z AUTO 35030KT 9999NDV FEW009/// BKN028/// BKN091/// 03/M01 Q1002 W///S5;",
"01300599999","2010-12-08T02:50:00","4","61.25","1.85","117.65","STATFJORD OIL PLATFORM HELIPORT, FO","FM-15","ENSF ","V020","340,1,N,0175,1","02700,1,9,N","011265,1,N,1","+0030,1","-0010,1","99999,9",,,"04,1,+00720,1,99,9","07,1,+02700,1,99,9","07,1,+03300,1,99,9","07,99,1,99,9,99,9,99999,9,99,9,99,9","10010,1,99999,9",,"MET090METAR ENSF 080250Z AUTO 34034KT 9999NDV SCT024/// BKN093/// BKN110/// 03/M01 Q1001 W///S5;",
"01300599999","2010-12-08T03:20:00","4","61.25","1.85","117.65","STATFJORD OIL PLATFORM HELIPORT, FO","FM-15","ENSF ","V020","350,1,N,0159,1","22000,1,9,N","011265,1,N,1","+0030,1","-0030,1","99999,9",,,"02,1,+00420,1,99,9",,,"02,99,1,99,9,99,9,99999,9,99,9,99,9","10020,1,99999,9",,"MET070METAR ENSF 080320Z AUTO 35031KT 9999NDV FEW014/// 03/M03 Q1002 W///S5;",
"01300599999","2010-12-08T03:50:00","4","61.25","1.85","117.65","STATFJORD OIL PLATFORM HELIPORT, FO","FM-15","ENSF ","V020","350,1,N,0159,1","00900,1,9,N","011265,1,N,1","+0030,1","-0020,1","99999,9",,,"04,1,+00810,1,99,9","07,1,+00900,1,99,9","07,1,+02400,1,99,9","07,99,1,99,9,99,9,99999,9,99,9,99,9","10031,1,99999,9",,"MET090METAR ENSF 080350Z AUTO 35031KT 9999NDV SCT027/// BKN030/// BKN081/// 03/M02 Q1003 W///S5;",
"01300599999","2010-12-08T04:20:00","4","61.25","1.85","117.65","STATFJORD OIL PLATFORM HELIPORT, FO","FM-15","ENSF ","V020","350,1,N,0170,1","01170,1,9,N","011265,1,N,1","+0030,1","-0020,1","99999,9",,,"07,1,+01170,1,99,9",,,"07,99,1,99,9,99,9,99999,9,99,9,99,9","10031,1,99999,9",,"MET070METAR ENSF 080420Z AUTO 35033KT 9999NDV BKN039/// 03/M02 Q1003 W///S5;",
"01300599999","2010-12-08T04:50:00","4","61.25","1.85","117.65","STATFJORD OIL PLATFORM HELIPORT, FO","FM-15","ENSF ","V020","340,1,N,0185,1","00810,1,9,N","011265,1,N,1","+0020,1","-0030,1","99999,9",,,"07,1,+00810,1,99,9",,,"07,99,1,99,9,99,9,99999,9,99,9,99,9","10031,1,99999,9",,"MET070METAR ENSF 080450Z AUTO 34036KT 9999NDV BKN027/// 02/M03 Q1003 W///S5;",
"01300599999","2010-12-08T05:20:00","4","61.25","1.85","117.65","STATFJORD OIL PLATFORM HELIPORT, FO","FM-15","ENSF ","V020","350,1,N,0165,1","22000,1,9,N","011265,1,N,1","+0020,1","-0020,1","99999,9",,,"02,1,+00750,1,99,9","04,1,+00870,1,99,9",,"04,99,1,99,9,99,9,99999,9,99,9,99,9","10041,1,99999,9",,"MET080METAR ENSF 080520Z AUTO 35032KT 9999NDV FEW025/// SCT029/// 02/M02 Q1004 W///S5;",
"01300599999","2010-12-08T05:50:00","4","61.25","1.85","117.65","STATFJORD OIL PLATFORM HELIPORT, FO","FM-15","ENSF ","V020","350,1,N,0175,1","00780,1,9,N","011265,1,N,1","+0030,1","-0060,1","99999,9",,,"07,1,+00780,1,99,9",,,"07,99,1,99,9,99,9,99999,9,99,9,99,9","10041,1,99999,9",,"MET070METAR ENSF 080550Z AUTO 35034KT 9999NDV BKN026/// 03/M06 Q1004 W///S5;",
"01300599999","2010-12-08T06:20:00","4","61.25","1.85","117.65","STATFJORD OIL PLATFORM HELIPORT, FO","FM-15","ENSF ","V020","340,1,N,0159,1","22000,1,9,N","011265,1,N,1","+0030,1","-0070,1","99999,9",,,"02,1,+01230,1,99,9","04,1,+01500,1,99,9",,"04,99,1,99,9,99,9,99999,9,99,9,99,9","10041,1,99999,9",,"MET080METAR ENSF 080620Z AUTO 34031KT 9999NDV FEW041/// SCT050/// 03/M07 Q1004 W///S5;",
"01300599999","2010-12-08T06:50:00","4","61.25","1.85","117.65","STATFJORD OIL PLATFORM HELIPORT, FO","FM-15","ENSF ","V020","340,1,N,0170,1","01440,1,9,N","011265,1,N,1","+0030,1","-0080,1","99999,9",,,"07,1,+01440,1,99,9","07,1,+06300,1,99,9",,"07,99,1,99,9,99,9,99999,9,99,9,99,9","10041,1,99999,9",,"MET080METAR ENSF 080650Z AUTO 34033KT 9999NDV BKN048/// BKN210/// 03/M08 Q1004 W///S5;",
"01300599999","2010-12-08T07:20:00","4","61.25","1.85","117.65","STATFJORD OIL PLATFORM HELIPORT, FO","FM-15","ENSF ","V020","350,1,N,0159,1","06300,1,9,N","011265,1,N,1","+0030,1","-0080,1","99999,9",,,"04,1,+01500,1,99,9","07,1,+06300,1,99,9",,"07,99,1,99,9,99,9,99999,9,99,9,99,9","10051,1,99999,9",,"MET080METAR ENSF 080720Z AUTO 35031KT 9999NDV SCT052/// BKN210/// 03/M08 Q1005 W///S5;",
"01300599999","2010-12-08T07:50:00","4","61.25","1.85","117.65","STATFJORD OIL PLATFORM HELIPORT, FO","FM-15","ENSF ","V020","340,1,N,0154,1","01500,1,9,N","011265,1,N,1","+0030,1","-0090,1","99999,9","61,1",,"07,1,+01500,1,99,9","07,1,+06000,1,99,9",,"07,99,1,99,9,99,9,99999,9,99,9,99,9","10041,1,99999,9",,"MET084METAR ENSF 080750Z AUTO 34030KT 9999NDV -RA BKN053/// BKN200/// 03/M09 Q1004 W///S5;",
"01300599999","2010-12-08T08:20:00","4","61.25","1.85","117.65","STATFJORD OIL PLATFORM HELIPORT, FO","FM-15","ENSF ","V020","340,1,N,0154,1","05700,1,9,N","011265,1,N,1","+0030,1","-0090,1","99999,9",,,"02,1,+01500,1,99,9","04,1,+01500,1,99,9","07,1,+05700,1,99,9","07,99,1,99,9,99,9,99999,9,99,9,99,9","10051,1,99999,9",,"MET090METAR ENSF 080820Z AUTO 34030KT 9999NDV FEW050/// SCT056/// BKN190/// 03/M09 Q1005 W///S5;",
"01300599999","2010-12-08T08:50:00","4","61.25","1.85","117.65","STATFJORD OIL PLATFORM HELIPORT, FO","FM-15","ENSF ","V020","340,1,N,0123,1","05700,1,9,N","011265,1,N,1","+0030,1","-0090,1","99999,9","81,1",,"04,1,+01500,1,99,9","07,1,+05700,1,99,9",,"07,99,1,99,9,99,9,99999,9,99,9,99,9","10061,1,99999,9",,"MET086METAR ENSF 080850Z AUTO 34024KT 9999NDV -SHRA SCT054/// BKN190/// 03/M09 Q1006 W///S6;",
"01300599999","2010-12-08T09:20:00","4","61.25","1.85","117.65","STATFJORD OIL PLATFORM HELIPORT, FO","FM-15","ENSF ","V020","330,1,N,0123,1","22000,1,9,N","011265,1,N,1","+0030,1","-0100,1","99999,9",,,"02,1,+01500,1,99,9",,,"02,99,1,99,9,99,9,99999,9,99,9,99,9","10061,1,99999,9",,"MET070METAR ENSF 080920Z AUTO 33024KT 9999NDV FEW054/// 03/M10 Q1006 W///S6;",
"01300599999","2010-12-08T09:50:00","4","61.25","1.85","117.65","STATFJORD OIL PLATFORM HELIPORT, FO","FM-15","ENSF ","V020","320,1,N,0103,1","22000,1,9,N","011265,1,N,1","+0020,1","-0070,1","99999,9",,,"02,1,+02100,1,99,9","04,1,+05400,1,99,9",,"04,99,1,99,9,99,9,99999,9,99,9,99,9","10061,1,99999,9",,"MET080METAR ENSF 080950Z AUTO 32020KT 9999NDV FEW074/// SCT180/// 02/M07 Q1006 W///S5;",
"01300599999","2010-12-08T10:20:00","4","61.25","1.85","117.65","STATFJORD OIL PLATFORM HELIPORT, FO","FM-15","ENSF ","V020","320,1,N,0098,1","22000,1,9,N","011265,1,N,1","+0020,1","-0060,1","99999,9",,,,,,"00,99,1,99,9,99,9,99999,9,99,9,99,9","10061,1,99999,9",,"MET064METAR ENSF 081020Z AUTO 32019KT 9999NDV NCD 02/M06 Q1006 W///S5;","Q01    003SCCGA1"
"01300599999","2010-12-08T10:50:00","4","61.25","1.85","117.65","STATFJORD OIL PLATFORM HELIPORT, FO","FM-15","ENSF ","V020","300,1,N,0108,1","22000,1,9,N","011265,1,N,1","+0020,1","-0050,1","99999,9",,,"02,1,+01230,1,99,9",,,"02,99,1,99,9,99,9,99999,9,99,9,99,9","10071,1,99999,9",,"MET070METAR ENSF 081050Z AUTO 30021KT 9999NDV FEW041/// 02/M05 Q1007 W///S5;",
"01300599999","2010-12-08T11:20:00","4","61.25","1.85","117.65","STATFJORD OIL PLATFORM HELIPORT, FO","FM-15","ENSF ","V020","280,1,N,0103,1","01500,1,C,N","011265,1,N,1","+0020,1","-0060,1","99999,9",,,"02,1,+01020,1,99,9","04,1,+01500,1,99,9","07,1,+02700,1,99,9","07,99,1,99,9,99,9,99999,9,99,9,99,9","10071,1,99999,9",,"MET090METAR ENSF 081120Z AUTO 28020KT 9999NDV FEW034/// SCT051/// BKN094/// 02/M06 Q1007 W///S5;",
"01300599999","2010-12-08T11:50:00","4","61.25","1.85","117.65","STATFJORD OIL PLATFORM HELIPORT, FO","FM-15","ENSF ","V020","280,1,N,0123,1","02100,1,9,N","011265,1,N,1","+0020,1","-0050,1","99999,9",,,"04,1,+01350,1,99,9","07,1,+02100,1,99,9",,"07,99,1,99,9,99,9,99999,9,99,9,99,9","10061,1,99999,9",,"MET080METAR ENSF 081150Z AUTO 28024KT 9999NDV SCT045/// BKN072/// 02/M05 Q1006 W///S5;",
"01300599999","2010-12-08T12:20:00","4","61.25","1.85","117.65","STATFJORD OIL PLATFORM HELIPORT, FO","FM-15","ENSF ","V020","250,1,N,0093,1","01800,1,9,N","011265,1,N,1","+0020,1","-0050,1","99999,9",,,"02,1,+01350,1,99,9","07,1,+01800,1,99,9",,"07,99,1,99,9,99,9,99999,9,99,9,99,9","10061,1,99999,9",,"MET080METAR ENSF 081220Z AUTO 25018KT 9999NDV FEW045/// BKN061/// 02/M05 Q1006 W///S5;",
"01300599999","2010-12-08T12:50:00","4","61.25","1.85","117.65","STATFJORD OIL PLATFORM HELIPORT, FO","FM-15","ENSF ","V020","260,1,N,0144,1","00420,1,9,N","003300,1,N,1","+0000,1","-0020,1","99999,9","85,1",,"07,1,+00420,1,99,9",,,"07,99,1,99,9,99,9,99999,9,99,9,99,9","10051,1,99999,9",,"MET076METAR ENSF 081250Z AUTO 26028KT 3300NDV -SHSN BKN014/// 00/M02 Q1005 W///S5;",
"01300599999","2010-12-08T13:20:00","4","61.25","1.85","117.65","STATFJORD OIL PLATFORM HELIPORT, FO","FM-15","ENSF ","V020","330,1,N,0206,1","00240,1,9,N","000600,1,N,1","-0010,1","-0010,1","99999,9","80,1",,"07,1,+00240,1,99,9","07,1,+01500,1,99,9",,"07,99,1,99,9,99,9,99999,9,99,9,99,9","10031,1,99999,9",,"MET089METAR ENSF 081320Z AUTO 33040KT 0600NDV -SHRASN BKN008/// BKN054/// M01/M01 Q1003 W///S5;",
"01300599999","2010-12-08T13:50:00","4","61.25","1.85","117.65","STATFJORD OIL PLATFORM HELIPORT, FO","FM-15","ENSF ","V020","340,1,N,0190,1","00300,1,9,N","011265,1,N,1","-0010,1","-0010,1","99999,9","67,1",,"07,1,+00300,1,99,9",,,"07,99,1,99,9,99,9,99999,9,99,9,99,9","10041,1,99999,9",,"MET084METAR ENSF 081350Z AUTO 34037KT 9999NDV -RASN BKN010/// M01/M01 Q1004 RERASN W///S5;",
"01300599999","2010-12-08T14:20:00","4","61.25","1.85","117.65","STATFJORD OIL PLATFORM HELIPORT, FO","FM-15","ENSF ","V020","340,1,N,0175,1","00360,1,9,N","005000,1,N,1","-0010,1","-0010,1","99999,9","80,1",,"07,1,+00360,1,99,9","07,1,+01050,1,99,9",,"07,99,1,99,9,99,9,99999,9,99,9,99,9","10041,1,99999,9",,"MET098METAR ENSF 081420Z AUTO 34034KT 5000NDV -SHRASN BKN012/// BKN035/// M01/M01 Q1004 RESHRASN W///S5;",
"01300599999","2010-12-08T14:50:00","4","61.25","1.85","117.65","STATFJORD OIL PLATFORM HELIPORT, FO","FM-15","ENSF ","V020","330,1,N,0170,1","01200,1,9,N","011265,1,N,1","-0010,1","-0020,1","99999,9","81,1",,"07,1,+01200,1,99,9",,,"07,99,1,99,9,99,9,99999,9,99,9,99,9","10041,1,99999,9",,"MET077METAR ENSF 081450Z AUTO 33033KT 9999NDV -SHRA BKN040/// M01/M02 Q1004 W///S5;",
"01300599999","2010-12-08T15:20:00","4","61.25","1.85","117.65","STATFJORD OIL PLATFORM HELIPORT, FO","FM-15","ENSF ","V020","340,1,N,0165,1","22000,1,9,N","011265,1,N,1","-0020,1","-0030,1","99999,9",,,"04,1,+01500,1,99,9",,,"04,99,1,99,9,99,9,99999,9,99,9,99,9","10051,1,99999,9",,"MET071METAR ENSF 081520Z AUTO 34032KT 9999NDV SCT051/// M02/M03 Q1005 W///S5;",
"01300599999","2010-12-08T15:50:00","4","61.25","1.85","117.65","STATFJORD OIL PLATFORM HELIPORT, FO","FM-15","ENSF ","V020","330,1,N,0134,1","01080,1,9,N","011265,1,N,1","-0010,1","-0020,1","99999,9","81,1",,"07,1,+01080,1,99,9",,,"07,99,1,99,9,99,9,99999,9,99,9,99,9","10051,1,99999,9",,"MET077METAR ENSF 081550Z AUTO 33026KT 9999NDV -SHRA BKN036/// M01/M02 Q1005 W///S5;",
"01300599999","2010-12-08T16:20:00","4","61.25","1.85","117.65","STATFJORD OIL PLATFORM HELIPORT, FO","FM-15","ENSF ","V020","330,1,N,0134,1","01140,1,9,N","005000,1,N,1","-0010,1","-0020,1","99999,9","80,1",,"02,1,+00840,1,99,9","07,1,+01140,1,99,9",,"07,99,1,99,9,99,9,99999,9,99,9,99,9","10061,1,99999,9",,"MET089METAR ENSF 081620Z AUTO 33026KT 5000NDV -SHRASN FEW028/// BKN038/// M01/M02 Q1006 W///S5;",
"01300599999","2010-12-08T16:50:00","4","61.25","1.85","117.65","STATFJORD OIL PLATFORM HELIPORT, FO","FM-15","ENSF ","V020","330,1,N,0144,1","00780,1,9,N","011265,1,N,1","+0000,1","-0020,1","99999,9",,,"07,1,+00780,1,99,9",,,"07,99,1,99,9,99,9,99999,9,99,9,99,9","10051,1,99999,9",,"MET070METAR ENSF 081650Z AUTO 33028KT 9999NDV BKN026/// 00/M02 Q1005 W///S5;",
"01300599999","2010-12-08T17:20:00","4","61.25","1.85","117.65","STATFJORD OIL PLATFORM HELIPORT, FO","FM-15","ENSF ","V020","320,1,N,0154,1","01020,1,9,N","009000,1,N,1","+0000,1","-0010,1","99999,9","81,1",,"07,1,+01020,1,99,9",,,"07,99,1,99,9,99,9,99999,9,99,9,99,9","10051,1,99999,9",,"MET076METAR ENSF 081720Z AUTO 32030KT 9000NDV -SHRA BKN034/// 00/M01 Q1005 W///S5;",
"01300599999","2010-12-08T17:50:00","4","61.25","1.85","117.65","STATFJORD OIL PLATFORM HELIPORT, FO","FM-15","ENSF ","V020","340,1,N,0170,1","00690,1,9,N","011265,1,N,1","+0010,1","-0010,1","99999,9","81,1",,"07,1,+00690,1,99,9",,,"07,99,1,99,9,99,9,99999,9,99,9,99,9","10061,1,99999,9",,"MET076METAR ENSF 081750Z AUTO 34033KT 9999NDV -SHRA BKN023/// 01/M01 Q1006 W///S6;",
"01300599999","2010-12-08T18:20:00","4","61.25","1.85","117.65","STATFJORD OIL PLATFORM HELIPORT, FO","FM-15","ENSF ","V020","340,1,N,0134,1","01170,1,9,N","011265,1,N,1","-0010,1","-0010,1","99999,9","80,1",,"04,1,+00270,1,99,9","07,1,+01170,1,99,9",,"07,99,1,99,9,99,9,99999,9,99,9,99,9","10071,1,99999,9",,"MET089METAR ENSF 081820Z AUTO 34026KT 9999NDV -SHRASN SCT009/// BKN039/// M01/M01 Q1007 W///S6;",
"01300599999","2010-12-08T18:50:00","4","61.25","1.85","117.65","STATFJORD OIL PLATFORM HELIPORT, FO","FM-15","ENSF ","V020","320,1,N,0201,1","00570,1,9,N","007000,1,N,1","+0000,1","+0000,1","99999,9","80,1",,"07,1,+00570,1,99,9","07,1,+01320,1,99,9",,"07,99,1,99,9,99,9,99999,9,99,9,99,9","10051,1,99999,9",,"MET087METAR ENSF 081850Z AUTO 32039KT 7000NDV -SHRASN BKN019/// BKN044/// 00/00 Q1005 W///S5;",
"01300599999","2010-12-08T19:20:00","4","61.25","1.85","117.65","STATFJORD OIL PLATFORM HELIPORT, FO","FM-15","ENSF ","V020","330,1,N,0201,1","00630,1,9,N","005000,1,N,1","+0000,1","-0010,1","99999,9","81,1",,"07,1,+00630,1,99,9",,,"07,99,1,99,9,99,9,99999,9,99,9,99,9","10061,1,99999,9",,"MET076METAR ENSF 081920Z AUTO 33039KT 5000NDV -SHRA BKN021/// 00/M01 Q1006 W///S6;",
"01300599999","2010-12-08T19:50:00","4","61.25","1.85","117.65","STATFJORD OIL PLATFORM HELIPORT, FO","FM-15","ENSF ","V020","310,1,N,0211,1","00810,1,9,N","011265,1,N,1","+0010,1","+0000,1","99999,9","81,1",,"07,1,+00810,1,99,9","07,1,+01050,1,99,9","07,1,+03600,1,99,9","07,99,1,99,9,99,9,99999,9,99,9,99,9","10051,1,99999,9",,"MET095METAR ENSF 081950Z AUTO 31041KT 9999NDV -SHRA BKN027/// BKN035/// BKN120/// 01/00 Q1005 W///S6;",
"01300599999","2010-12-08T20:20:00","4","61.25","1.85","117.65","STATFJORD OIL PLATFORM HELIPORT, FO","FM-15","ENSF ","V020","340,1,N,0206,1","00570,1,9,N","011265,1,N,1","+0020,1","+0000,1","99999,9","81,1",,"07,1,+00570,1,99,9",,,"07,99,1,99,9,99,9,99999,9,99,9,99,9","10061,1,99999,9",,"MET075METAR ENSF 082020Z AUTO 34040KT 9999NDV -SHRA BKN019/// 02/00 Q1006 W///S6;",
"01300599999","2010-12-08T20:50:00","4","61.25","1.85","117.65","STATFJORD OIL PLATFORM HELIPORT, FO","FM-15","ENSF ","V020","350,1,N,0170,1","02100,1,9,N","011265,1,N,1","+0010,1","+0000,1","99999,9","81,1",,"04,1,+00300,1,99,9","07,1,+02100,1,99,9","07,1,+03000,1,99,9","07,99,1,99,9,99,9,99999,9,99,9,99,9","10071,1,99999,9",,"MET095METAR ENSF 082050Z AUTO 35033KT 9999NDV -SHRA SCT010/// BKN079/// BKN100/// 01/00 Q1007 W///S6;",
"01300599999","2010-12-08T21:20:00","4","61.25","1.85","117.65","STATFJORD OIL PLATFORM HELIPORT, FO","FM-15","ENSF ","V020","340,1,N,0190,1","00870,1,9,N","011265,1,N,1","+0010,1","+0000,1","99999,9","81,1",,"02,1,+00270,1,99,9","07,1,+00870,1,99,9","07,1,+03300,1,99,9","07,99,1,99,9,99,9,99999,9,99,9,99,9","10061,1,99999,9",,"MET095METAR ENSF 082120Z AUTO 34037KT 9999NDV -SHRA FEW009/// BKN029/// BKN110/// 01/00 Q1006 W///S6;",
"01300599999","2010-12-08T21:50:00","4","61.25","1.85","117.65","STATFJORD OIL PLATFORM HELIPORT, FO","FM-15","ENSF ","V020","330,1,N,0190,1","00540,1,9,N","009000,1,N,1","+0010,1","+0000,1","99999,9","80,1",,"07,1,+00540,1,99,9",,,"07,99,1,99,9,99,9,99999,9,99,9,99,9","10061,1,99999,9",,"MET077METAR ENSF 082150Z AUTO 33037KT 9000NDV -SHRASN BKN018/// 01/00 Q1006 W///S6;",
"01300599999","2010-12-08T22:20:00","4","61.25","1.85","117.65","STATFJORD OIL PLATFORM HELIPORT, FO","FM-15","ENSF ","V020","330,1,N,0159,1","01140,1,9,N","011265,1,N,1","+0020,1","-0010,1","99999,9","81,1",,"07,1,+01140,1,99,9",,,"07,99,1,99,9,99,9,99999,9,99,9,99,9","10071,1,99999,9",,"MET076METAR ENSF 082220Z AUTO 33031KT 9999NDV -SHRA BKN038/// 02/M01 Q1007 W///S6;",
"01300599999","2010-12-08T22:50:00","4","61.25","1.85","117.65","STATFJORD OIL PLATFORM HELIPORT, FO","FM-15","ENSF ","V020","320,1,N,0180,1","03600,1,9,N","011265,1,N,1","+0020,1","-0010,1","99999,9",,,"04,1,+01050,1,99,9","07,1,+03600,1,99,9",,"07,99,1,99,9,99,9,99999,9,99,9,99,9","10071,1,99999,9",,"MET080METAR ENSF 082250Z AUTO 32035KT 9999NDV SCT035/// BKN120/// 02/M01 Q1007 W///S6;",
"01300599999","2010-12-08T23:20:00","4","61.25","1.85","117.65","STATFJORD OIL PLATFORM HELIPORT, FO","FM-15","ENSF ","V020","320,1,N,0195,1","22000,1,9,N","011265,1,N,1","+0010,1","-0010,1","99999,9",,,"04,1,+00750,1,99,9",,,"04,99,1,99,9,99,9,99999,9,99,9,99,9","10071,1,99999,9",,"MET070METAR ENSF 082320Z AUTO 32038KT 9999NDV SCT025/// 01/M01 Q1007 W///S6;",
"01300599999","2010-12-08T23:50:00","4","61.25","1.85","117.65","STATFJORD OIL PLATFORM HELIPORT, FO","FM-15","ENSF ","V020","320,1,N,0180,1","00990,1,9,N","011265,1,N,1","+0020,1","-0020,1","99999,9",,,"02,1,+00360,1,99,9","07,1,+00990,1,99,9",,"07,99,1,99,9,99,9,99999,9,99,9,99,9","10071,1,99999,9",,"MET080METAR ENSF 082350Z AUTO 32035KT 9999NDV FEW012/// BKN033/// 02/M02 Q1007 W///S6;",
"01300599999","2010-12-09T00:20:00","4","61.25","1.85","117.65","STATFJORD OIL PLATFORM HELIPORT, FO","FM-15","ENSF ","V020","999,9,9,9999,9","00360,1,9,N","003100,1,N,1","-0010,1","-0010,1","99999,9","80,1",,"07,1,+00360,1,99,9",,,"07,99,1,99,9,99,9,99999,9,99,9,99,9","10091,1,99999,9",,"MET078METAR ENSF 090020Z AUTO /////KT 3100NDV SHRASN BKN012/// M01/M01 Q1009 W///S6;",
"01300599999","2010-12-09T00:50:00","4","61.25","1.85","117.65","STATFJORD OIL PLATFORM HELIPORT, FO","FM-15","ENSF ","V020","330,1,N,0170,1","01050,1,9,N","003800,1,N,1","+0000,1","-0010,1","99999,9","80,1",,"04,1,+00870,1,99,9","07,1,+01050,1,99,9",,"07,99,1,99,9,99,9,99999,9,99,9,99,9","10091,1,99999,9",,"MET097METAR ENSF 090050Z AUTO 33033KT 3800NDV -SHRASN SCT029/// BKN035/// 00/M01 Q1009 RESHRASN W///S6;",
"01300599999","2010-12-09T01:20:00","4","61.25","1.85","117.65","STATFJORD OIL PLATFORM HELIPORT, FO","FM-15","ENSF ","V020","350,1,N,0159,1","01110,1,9,N","007000,1,N,1","+0000,1","-0010,1","99999,9","81,1",,"02,1,+00480,1,99,9","07,1,+01110,1,99,9",,"07,99,1,99,9,99,9,99999,9,99,9,99,9","10102,1,99999,9",,"MET086METAR ENSF 090120Z AUTO 35031KT 7000NDV -SHRA FEW016/// BKN037/// 00/M01 Q1010 W///S6;",
"01300599999","2010-12-09T01:50:00","4","61.25","1.85","117.65","STATFJORD OIL PLATFORM HELIPORT, FO","FM-15","ENSF ","V020","330,1,N,0139,1","01290,1,9,N","011265,1,N,1","+0010,1","-0010,1","99999,9","81,1",,"04,1,+00990,1,99,9","07,1,+01290,1,99,9",,"07,99,1,99,9,99,9,99999,9,99,9,99,9","10091,1,99999,9",,"MET086METAR ENSF 090150Z AUTO 33027KT 9999NDV -SHRA SCT033/// BKN043/// 01/M01 Q1009 W///S6;",
"01300599999","2010-12-09T02:20:00","4","61.25","1.85","117.65","STATFJORD OIL PLATFORM HELIPORT, FO","FM-15","ENSF ","V020","320,1,N,0154,1","00660,1,9,N","005000,1,N,1","+0010,1","-0010,1","99999,9","80,1",,"07,1,+00660,1,99,9",,,"07,99,1,99,9,99,9,99999,9,99,9,99,9","10091,1,99999,9",,"MET078METAR ENSF 090220Z AUTO 32030KT 5000NDV -SHRASN BKN022/// 01/M01 Q1009 W///S6;",
"01300599999","2010-12-09T02:50:00","4","61.25","1.85","117.65","STATFJORD OIL PLATFORM HELIPORT, FO","FM-15","ENSF ","V020","310,1,N,0149,1","00720,1,9,N","011265,1,N,1","+0020,1","+0000,1","99999,9","81,1",,"07,1,+00720,1,99,9",,,"07,99,1,99,9,99,9,99999,9,99,9,99,9","10102,1,99999,9",,"MET075METAR ENSF 090250Z AUTO 31029KT 9999NDV -SHRA BKN024/// 02/00 Q1010 W///S6;",
"01300599999","2010-12-09T03:20:00","4","61.25","1.85","117.65","STATFJORD OIL PLATFORM HELIPORT, FO","FM-15","ENSF ","V020","330,1,N,0149,1","01170,1,9,N","011265,1,N,1","+0020,1","-0020,1","99999,9",,,"04,1,+00930,1,99,9","07,1,+01170,1,99,9",,"07,99,1,99,9,99,9,99999,9,99,9,99,9","10102,1,99999,9",,"MET080METAR ENSF 090320Z AUTO 33029KT 9999NDV SCT031/// BKN039/// 02/M02 Q1010 W///S6;",
"01300599999","2010-12-09T03:50:00","4","61.25","1.85","117.65","STATFJORD OIL PLATFORM HELIPORT, FO","FM-15","ENSF ","V020","330,1,N,0139,1","01230,1,9,N","011265,1,N,1","+0020,1","-0020,1","99999,9",,,"07,1,+01230,1,99,9",,,"07,99,1,99,9,99,9,99999,9,99,9,99,9","10102,1,99999,9",,"MET070METAR ENSF 090350Z AUTO 33027KT 9999NDV BKN041/// 02/M02 Q1010 W///S6;",
"01300599999","2010-12-09T04:20:00","4","61.25","1.85","117.65","STATFJORD OIL PLATFORM HELIPORT, FO","FM-15","ENSF ","V020","330,1,N,0129,1","01230,1,9,N","011265,1,N,1","+0020,1","-0010,1","99999,9",,,"07,1,+01230,1,99,9",,,"07,99,1,99,9,99,9,99999,9,99,9,99,9","10102,1,99999,9",,"MET070METAR ENSF 090420Z AUTO 33025KT 9999NDV BKN041/// 02/M01 Q1010 W///S6;",
"01300599999","2010-12-09T04:50:00","4","61.25","1.85","117.65","STATFJORD OIL PLATFORM HELIPORT, FO","FM-15","ENSF ","V020","310,1,N,0129,1","01500,1,9,N","011265,1,N,1","+0020,1","-0020,1","99999,9",,,"02,1,+01230,1,99,9","07,1,+01500,1,99,9",,"07,99,1,99,9,99,9,99999,9,99,9,99,9","10108,1,99999,9",,"MET080METAR ENSF 090450Z AUTO 31025KT 9999NDV FEW041/// BKN054/// 02/M02 Q1011 W///S6;",
"01300599999","2010-12-09T05:20:00","4","61.25","1.85","117.65","STATFJORD OIL PLATFORM HELIPORT, FO","FM-15","ENSF ","V020","310,1,N,0118,1","01500,1,9,N","011265,1,N,1","+0020,1","-0020,1","99999,9",,,"07,1,+01500,1,99,9",,,"07,99,1,99,9,99,9,99999,9,99,9,99,9","10108,1,99999,9",,"MET070METAR ENSF 090520Z AUTO 31023KT 9999NDV BKN050/// 02/M02 Q1011 W///S6;",
"01300599999","2010-12-09T05:50:00","4","61.25","1.85","117.65","STATFJORD OIL PLATFORM HELIPORT, FO","FM-15","ENSF ","V020","340,1,N,0118,1","01410,1,9,N","011265,1,N,1","+0020,1","+0000,1","99999,9",,,"02,1,+00630,1,99,9","07,1,+01410,1,99,9",,"07,99,1,99,9,99,9,99999,9,99,9,99,9","10119,1,99999,9",,"MET087METAR ENSF 090550Z AUTO 34023KT 310V010 9999NDV FEW021/// BKN047/// 02/00 Q1012 W///S6;",
"01300599999","2010-12-09T06:20:00","4","61.25","1.85","117.65","STATFJORD OIL PLATFORM HELIPORT, FO","FM-15","ENSF ","V020","310,1,N,0123,1","22000,1,9,N","011265,1,N,1","+0020,1","-0030,1","99999,9",,,"04,1,+00810,1,99,9",,,"04,99,1,99,9,99,9,99999,9,99,9,99,9","10119,1,99999,9",,"MET070METAR ENSF 090620Z AUTO 31024KT 9999NDV SCT027/// 02/M03 Q1012 W///S6;",
"01300599999","2010-12-09T06:50:00","4","61.25","1.85","117.65","STATFJORD OIL PLATFORM HELIPORT, FO","FM-15","ENSF ","V020","330,1,N,0118,1","00960,1,9,N","011265,1,N,1","+0000,1","-0020,1","99999,9","81,1",,"07,1,+00960,1,99,9",,,"07,99,1,99,9,99,9,99999,9,99,9,99,9","10119,1,99999,9",,"MET076METAR ENSF 090650Z AUTO 33023KT 9999NDV -SHRA BKN032/// 00/M02 Q1012 W///S6;",
"01300599999","2010-12-09T07:20:00","4","61.25","1.85","117.65","STATFJORD OIL PLATFORM HELIPORT, FO","FM-15","ENSF ","V020","300,1,N,0098,1","00570,1,9,N","009000,1,N,1","-0010,1","-0010,1","99999,9","80,1",,"07,1,+00570,1,99,9","07,1,+01020,1,99,9",,"07,99,1,99,9,99,9,99999,9,99,9,99,9","10129,1,99999,9",,"MET089METAR ENSF 090720Z AUTO 30019KT 9000NDV -SHRASN BKN019/// BKN034/// M01/M01 Q1013 W///S6;",
"01300599999","2010-12-09T07:50:00","4","61.25","1.85","117.65","STATFJORD OIL PLATFORM HELIPORT, FO","FM-15","ENSF ","V020","320,1,N,0098,1","01200,1,9,N","008000,1,N,1","+0010,1","-0010,1","99999,9","80,1",,"02,1,+00600,1,99,9","07,1,+01200,1,99,9",,"07,99,1,99,9,99,9,99999,9,99,9,99,9","10129,1,99999,9","0170,1","MET091METAR ENSF 090750Z AUTO 32019G33KT 8000NDV -SHRASN FEW020/// BKN040/// 01/M01 Q1013 W///S6;",
"01300599999","2010-12-09T08:20:00","4","61.25","1.85","117.65","STATFJORD OIL PLATFORM HELIPORT, FO","FM-15","ENSF ","V020","320,1,N,0098,1","22000,1,9,N","011265,1,N,1","+0030,1","-0050,1","99999,9",,,"02,1,+01500,1,99,9",,,"02,99,1,99,9,99,9,99999,9,99,9,99,9","10129,1,99999,9",,"MET070METAR ENSF 090820Z AUTO 32019KT 9999NDV FEW050/// 03/M05 Q1013 W///S6;",
"01300599999","2010-12-09T08:50:00","4","61.25","1.85","117.65","STATFJORD OIL PLATFORM HELIPORT, FO","FM-15","ENSF ","V020","310,1,N,0093,1","22000,1,9,N","011265,1,N,1","+0030,1","-0050,1","99999,9",,,"02,1,+01800,1,99,9",,,"02,99,1,99,9,99,9,99999,9,99,9,99,9","10129,1,99999,9",,"MET070METAR ENSF 090850Z AUTO 31018KT 9999NDV FEW069/// 03/M05 Q1013 W///S6;",
"01300599999","2010-12-09T09:20:00","4","61.25","1.85","117.65","STATFJORD OIL PLATFORM HELIPORT, FO","FM-15","ENSF ","V020","300,1,N,0108,1","01410,1,9,N","011265,1,N,1","+0030,1","-0030,1","99999,9",,,"07,1,+01410,1,99,9",,,"07,99,1,99,9,99,9,99999,9,99,9,99,9","10139,1,99999,9",,"MET070METAR ENSF 090920Z AUTO 30021KT 9999NDV BKN047/// 03/M03 Q1014 W///S6;",
"01300599999","2010-12-09T09:50:00","4","61.25","1.85","117.65","STATFJORD OIL PLATFORM HELIPORT, FO","FM-15","ENSF ","V020","310,1,N,0108,1","01170,1,9,N","011265,1,N,1","+0030,1","-0040,1","99999,9",,,"07,1,+01170,1,99,9",,,"07,99,1,99,9,99,9,99999,9,99,9,99,9","10129,1,99999,9",,"MET070METAR ENSF 090950Z AUTO 31021KT 9999NDV BKN039/// 03/M04 Q1013 W///S6;",
"01300599999","2010-12-09T10:20:00","4","61.25","1.85","117.65","STATFJORD OIL PLATFORM HELIPORT, FO","FM-15","ENSF ","V020","310,1,N,0123,1","00750,1,9,N","011265,1,N,1","+0020,1","-0010,1","99999,9","81,1",,"07,1,+00750,1,99,9",,,"07,99,1,99,9,99,9,99999,9,99,9,99,9","10139,1,99999,9",,"MET076METAR ENSF 091020Z AUTO 31024KT 9999NDV -SHRA BKN025/// 02/M01 Q1014 W///S6;",
"01300599999","2010-12-09T10:50:00","4","61.25","1.85","117.65","STATFJORD OIL PLATFORM HELIPORT, FO","FM-15","ENSF ","V020","300,1,N,0129,1","22000,1,9,N","011265,1,N,1","+0020,1","+0000,1","99999,9",,,"04,1,+00420,1,99,9",,,"04,99,1,99,9,99,9,99999,9,99,9,99,9","10139,1,99999,9",,"MET069METAR ENSF 091050Z AUTO 30025KT 9999NDV SCT014/// 02/00 Q1014 W///S6;",
"01300599999","2010-12-09T11:20:00","4","61.25","1.85","117.65","STATFJORD OIL PLATFORM HELIPORT, FO","FM-15","ENSF ","V020","300,1,N,0103,1","22000,1,9,N","011265,1,N,1","+0030,1","+0000,1","99999,9",,,"02,1,+00840,1,99,9",,,"02,99,1,99,9,99,9,99999,9,99,9,99,9","10139,1,99999,9",,"MET069METAR ENSF 091120Z AUTO 30020KT 9999NDV FEW028/// 03/00 Q1014 W///S6;",
"01300599999","2010-12-09T11:50:00","4","61.25","1.85","117.65","STATFJORD OIL PLATFORM HELIPORT, FO","FM-15","ENSF ","V020","320,1,N,0103,1","22000,1,9,N","011265,1,N,1","+0040,1","-0020,1","99999,9",,,"04,1,+00900,1,99,9",,,"04,99,1,99,9,99,9,99999,9,99,9,99,9","10139,1,99999,9",,"MET070METAR ENSF 091150Z AUTO 32020KT 9999NDV SCT030/// 04/M02 Q1014 W///S6;",
"01300599999","2010-12-09T12:20:00","4","61.25","1.85","117.65","STATFJORD OIL PLATFORM HELIPORT, FO","FM-15","ENSF ","V020","320,1,N,0093,1","22000,1,9,N","011265,1,N,1","+0050,1","-0020,1","99999,9",,,"02,1,+01350,1,99,9",,,"02,99,1,99,9,99,9,99999,9,99,9,99,9","10149,1,99999,9",,"MET070METAR ENSF 091220Z AUTO 32018KT 9999NDV FEW045/// 05/M02 Q1015 W///S6;",
"01300599999","2010-12-09T12:50:00","4","61.25","1.85","117.65","STATFJORD OIL PLATFORM HELIPORT, FO","FM-15","ENSF ","V020","320,1,N,0087,1","22000,1,9,N","011265,1,N,1","+0040,1","-0010,1","99999,9",,,"02,1,+01020,1,99,9",,,"02,99,1,99,9,99,9,99999,9,99,9,99,9","10149,1,99999,9",,"MET070METAR ENSF 091250Z AUTO 32017KT 9999NDV FEW034/// 04/M01 Q1015 W///S6;",
"01300599999","2010-12-09T13:20:00","4","61.25","1.85","117.65","STATFJORD OIL PLATFORM HELIPORT, FO","FM-15","ENSF ","V020","320,1,N,0077,1","22000,1,9,N","011265,1,N,1","+0050,1","-0010,1","99999,9",,,"02,1,+00720,1,99,9",,,"02,99,1,99,9,99,9,99999,9,99,9,99,9","10149,1,99999,9",,"MET070METAR ENSF 091320Z AUTO 32015KT 9999NDV FEW024/// 05/M01 Q1015 W///S6;",
"01300599999","2010-12-09T13:50:00","4","61.25","1.85","117.65","STATFJORD OIL PLATFORM HELIPORT, FO","FM-15","ENSF ","V020","300,1,N,0108,1","22000,1,9,N","011265,1,N,1","+0040,1","+0010,1","99999,9",,,"02,1,+00570,1,99,9",,,"02,99,1,99,9,99,9,99999,9,99,9,99,9","10149,1,99999,9",,"MET069METAR ENSF 091350Z AUTO 30021KT 9999NDV FEW019/// 04/01 Q1015 W///S6;",
"01300599999","2010-12-09T14:20:00","4","61.25","1.85","117.65","STATFJORD OIL PLATFORM HELIPORT, FO","FM-15","ENSF ","V020","290,1,N,0103,1","22000,1,9,N","011265,1,N,1","+0040,1","+0010,1","99999,9",,,"02,1,+01380,1,99,9",,,"02,99,1,99,9,99,9,99999,9,99,9,99,9","10159,1,99999,9",,"MET069METAR ENSF 091420Z AUTO 29020KT 9999NDV FEW046/// 04/01 Q1016 W///S6;",
"01300599999","2010-12-09T14:50:00","4","61.25","1.85","117.65","STATFJORD OIL PLATFORM HELIPORT, FO","FM-15","ENSF ","V020","280,1,N,0093,1","22000,1,9,N","011265,1,N,1","+0040,1","+0010,1","99999,9",,,"04,1,+01170,1,99,9",,,"04,99,1,99,9,99,9,99999,9,99,9,99,9","10159,1,99999,9",,"MET069METAR ENSF 091450Z AUTO 28018KT 9999NDV SCT039/// 04/01 Q1016 W///S6;",
"01300599999","2010-12-09T15:20:00","4","61.25","1.85","117.65","STATFJORD OIL PLATFORM HELIPORT, FO","FM-15","ENSF ","V020","290,1,N,0051,1","00930,1,9,N","011265,1,N,1","+0040,1","+0010,1","99999,9","81,1",,"07,1,+00930,1,99,9",,,"07,99,1,99,9,99,9,99999,9,99,9,99,9","10159,1,99999,9",,"MET083METAR ENSF 091520Z AUTO 29010KT 260V330 9999NDV -SHRA BKN031/// 04/01 Q1016 W///S6;",
"01300599999","2010-12-09T15:50:00","4","61.25","1.85","117.65","STATFJORD OIL PLATFORM HELIPORT, FO","FM-15","ENSF ","V020","310,1,N,0093,1","01080,1,9,N","011265,1,N,1","+0030,1","-0010,1","99999,9","81,1",,"07,1,+01080,1,99,9",,,"07,99,1,99,9,99,9,99999,9,99,9,99,9","10159,1,99999,9",,"MET076METAR ENSF 091550Z AUTO 31018KT 9999NDV -SHRA BKN036/// 03/M01 Q1016 W///S5;",
"01300599999","2010-12-09T16:20:00","4","61.25","1.85","117.65","STATFJORD OIL PLATFORM HELIPORT, FO","FM-15","ENSF ","V020","320,1,N,0041,1","01500,1,9,N","011265,1,N,1","+0050,1","-0020,1","99999,9",,,"02,1,+01440,1,99,9","07,1,+01500,1,99,9",,"07,99,1,99,9,99,9,99999,9,99,9,99,9","10169,1,99999,9",,"MET080METAR ENSF 091620Z AUTO 32008KT 9999NDV FEW048/// BKN052/// 05/M02 Q1017 W///S6;",
"01300599999","2010-12-09T16:50:00","4","61.25","1.85","117.65","STATFJORD OIL PLATFORM HELIPORT, FO","FM-15","ENSF ","V020","320,1,N,0041,1","01170,1,9,N","011265,1,N,1","+0050,1","-0030,1","99999,9",,,"07,1,+01170,1,99,9","07,1,+01500,1,99,9",,"07,99,1,99,9,99,9,99999,9,99,9,99,9","10169,1,99999,9",,"MET080METAR ENSF 091650Z AUTO 32008KT 9999NDV BKN039/// BKN056/// 05/M03 Q1017 W///S6;",
"01300599999","2010-12-09T17:20:00","4","61.25","1.85","117.65","STATFJORD OIL PLATFORM HELIPORT, FO","FM-15","ENSF ","V020","300,1,N,0036,1","01140,1,9,N","011265,1,N,1","+0050,1","-0010,1","99999,9",,,"07,1,+01140,1,99,9",,,"07,99,1,99,9,99,9,99999,9,99,9,99,9","10180,1,99999,9",,"MET078METAR ENSF 091720Z AUTO 30007KT 270V330 9999NDV BKN038/// 05/M01 Q1018 W///S6;",
"01300599999","2010-12-09T17:50:00","4","61.25","1.85","117.65","STATFJORD OIL PLATFORM HELIPORT, FO","FM-15","ENSF ","V020","320,1,N,0046,1","22000,1,9,N","011265,1,N,1","+0050,1","-0020,1","99999,9",,,"04,1,+01080,1,99,9","04,1,+01500,1,99,9",,"04,99,1,99,9,99,9,99999,9,99,9,99,9","10169,1,99999,9",,"MET080METAR ENSF 091750Z AUTO 32009KT 9999NDV SCT036/// SCT053/// 05/M02 Q1017 W///S5;",
"01300599999","2010-12-09T18:20:00","4","61.25","1.85","117.65","STATFJORD OIL PLATFORM HELIPORT, FO","FM-15","ENSF ","V020","300,1,N,0041,1","22000,1,9,N","011265,1,N,1","+0050,1","-0020,1","99999,9",,,"04,1,+00990,1,99,9",,,"04,99,1,99,9,99,9,99999,9,99,9,99,9","10180,1,99999,9",,"MET070METAR ENSF 091820Z AUTO 30008KT 9999NDV SCT033/// 05/M02 Q1018 W///S5;",
"01300599999","2010-12-09T18:50:00","4","61.25","1.85","117.65","STATFJORD OIL PLATFORM HELIPORT, FO","FM-15","ENSF ","V020","300,1,N,0093,1","01110,1,9,N","011265,1,N,1","+0050,1","+0000,1","99999,9",,,"07,1,+01110,1,99,9",,,"07,99,1,99,9,99,9,99999,9,99,9,99,9","10190,1,99999,9",,"MET069METAR ENSF 091850Z AUTO 30018KT 9999NDV BKN037/// 05/00 Q1019 W///S6;",
"01300599999","2010-12-09T19:20:00","4","61.25","1.85","117.65","STATFJORD OIL PLATFORM HELIPORT, FO","FM-15","ENSF ","V020","290,1,N,0067,1","22000,1,9,N","011265,1,N,1","+0050,1","+0000,1","99999,9",,,"02,1,+01140,1,99,9","04,1,+01500,1,99,9",,"04,99,1,99,9,99,9,99999,9,99,9,99,9","10190,1,99999,9",,"MET079METAR ENSF 091920Z AUTO 29013KT 9999NDV FEW038/// SCT059/// 05/00 Q1019 W///S5;",
"01300599999","2010-12-09T19:50:00","4","61.25","1.85","117.65","STATFJORD OIL PLATFORM HELIPORT, FO","FM-15","ENSF ","V020","330,1,N,0067,1","01290,1,9,N","011265,1,N,1","+0040,1","+0000,1","99999,9",,,"02,1,+00720,1,99,9","07,1,+01290,1,99,9","07,1,+05700,1,99,9","07,99,1,99,9,99,9,99999,9,99,9,99,9","10180,1,99999,9",,"MET089METAR ENSF 091950Z AUTO 33013KT 9999NDV FEW024/// BKN043/// BKN190/// 04/00 Q1018 W///S5;",
"01300599999","2010-12-09T20:20:00","4","61.25","1.85","117.65","STATFJORD OIL PLATFORM HELIPORT, FO","FM-15","ENSF ","V020","320,1,N,0041,1","01290,1,C,N","011265,1,N,1","+0040,1","+0010,1","99999,9",,,"02,1,+00990,1,99,9","04,1,+01290,1,99,9","07,1,+04800,1,99,9","07,99,1,99,9,99,9,99999,9,99,9,99,9","10180,1,99999,9",,"MET089METAR ENSF 092020Z AUTO 32008KT 9999NDV FEW033/// SCT043/// BKN160/// 04/01 Q1018 W///S5;",
"01300599999","2010-12-09T20:50:00","4","61.25","1.85","117.65","STATFJORD OIL PLATFORM HELIPORT, FO","FM-15","ENSF ","V020","290,1,N,0021,1","22000,1,9,N","011265,1,N,1","+0040,1","+0010,1","99999,9",,,"02,1,+00930,1,99,9",,,"02,99,1,99,9,99,9,99999,9,99,9,99,9","10180,1,99999,9",,"MET077METAR ENSF 092050Z AUTO 29004KT 250V330 9999NDV FEW031/// 04/01 Q1018 W///S5;",
"01300599999","2010-12-09T21:20:00","4","61.25","1.85","117.65","STATFJORD OIL PLATFORM HELIPORT, FO","FM-15","ENSF ","V020","250,1,N,0021,1","05400,1,9,N","011265,1,N,1","+0040,1","+0000,1","99999,9",,,"07,1,+05400,1,99,9",,,"07,99,1,99,9,99,9,99999,9,99,9,99,9","10180,1,99999,9",,"MET077METAR ENSF 092120Z AUTO 25004KT 220V360 9999NDV BKN180/// 04/00 Q1018 W///S5;",
"01300599999","2010-12-09T21:50:00","4","61.25","1.85","117.65","STATFJORD OIL PLATFORM HELIPORT, FO","FM-15","ENSF ","V020","240,1,N,0077,1","05100,1,9,N","011265,1,N,1","+0040,1","+0000,1","99999,9",,,"04,1,+00690,1,99,9","07,1,+05100,1,99,9",,"07,99,1,99,9,99,9,99999,9,99,9,99,9","10180,1,99999,9",,"MET079METAR ENSF 092150Z AUTO 24015KT 9999NDV SCT023/// BKN170/// 04/00 Q1018 W///S5;",
"01300599999","2010-12-09T22:20:00","4","61.25","1.85","117.65","STATFJORD OIL PLATFORM HELIPORT, FO","FM-15","ENSF ","V020","240,1,N,0082,1","02700,1,9,N","011265,1,N,1","+0050,1","-0010,1","99999,9",,,"02,1,+00960,1,99,9","07,1,+02700,1,99,9","07,1,+04800,1,99,9","07,99,1,99,9,99,9,99999,9,99,9,99,9","10180,1,99999,9",,"MET090METAR ENSF 092220Z AUTO 24016KT 9999NDV FEW032/// BKN091/// BKN160/// 05/M01 Q1018 W///S5;",
"01300599999","2010-12-09T22:50:00","4","61.25","1.85","117.65","STATFJORD OIL PLATFORM HELIPORT, FO","FM-15","ENSF ","V020","230,1,N,0098,1","02700,1,9,N","011265,1,N,1","+0050,1","-0010,1","99999,9",,,"04,1,+00870,1,99,9","07,1,+02700,1,99,9",,"07,99,1,99,9,99,9,99999,9,99,9,99,9","10180,1,99999,9",,"MET080METAR ENSF 092250Z AUTO 23019KT 9999NDV SCT029/// BKN096/// 05/M01 Q1018 W///S5;",
"01300599999","2010-12-09T23:20:00","4","61.25","1.85","117.65","STATFJORD OIL PLATFORM HELIPORT, FO","FM-15","ENSF ","V020","230,1,N,0108,1","02700,1,9,N","011265,1,N,1","+0040,1","-0010,1","99999,9",,,"04,1,+00870,1,99,9","07,1,+02700,1,99,9",,"07,99,1,99,9,99,9,99999,9,99,9,99,9","10169,1,99999,9",,"MET080METAR ENSF 092320Z AUTO 23021KT 9999NDV SCT029/// BKN094/// 04/M01 Q1017 W///S5;",
"01300599999","2010-12-09T23:50:00","4","61.25","1.85","117.65","STATFJORD OIL PLATFORM HELIPORT, FO","FM-15","ENSF ","V020","230,1,N,0108,1","02100,1,9,N","011265,1,N,1","+0050,1","-0010,1","99999,9",,,"04,1,+00900,1,99,9","07,1,+02100,1,99,9","07,1,+02700,1,99,9","07,99,1,99,9,99,9,99999,9,99,9,99,9","10180,1,99999,9",,"MET090METAR ENSF 092350Z AUTO 23021KT 9999NDV SCT030/// BKN078/// BKN090/// 05/M01 Q1018 W///S4;",
"01300599999","2010-12-10T00:20:00","4","61.25","1.85","117.65","STATFJORD OIL PLATFORM HELIPORT, FO","FM-15","ENSF ","V020","220,1,N,0098,1","01380,1,9,N","011265,1,N,1","+0050,1","-0010,1","99999,9",,,"04,1,+00870,1,99,9","07,1,+01380,1,99,9","07,1,+03000,1,99,9","07,99,1,99,9,99,9,99999,9,99,9,99,9","10169,1,99999,9",,"MET090METAR ENSF 100020Z AUTO 22019KT 9999NDV SCT029/// BKN046/// BKN100/// 05/M01 Q1017 W///S4;",
"01300599999","2010-12-10T00:50:00","4","61.25","1.85","117.65","STATFJORD OIL PLATFORM HELIPORT, FO","FM-15","ENSF ","V020","220,1,N,0108,1","01500,1,9,N","011265,1,N,1","+0050,1","-0010,1","99999,9","51,1",,"02,1,+01140,1,99,9","07,1,+01500,1,99,9",,"07,99,1,99,9,99,9,99999,9,99,9,99,9","10169,1,99999,9",,"MET084METAR ENSF 100050Z AUTO 22021KT 9999NDV -DZ FEW038/// BKN056/// 05/M01 Q1017 W///S4;",
"01300599999","2010-12-10T01:20:00","4","61.25","1.85","117.65","STATFJORD OIL PLATFORM HELIPORT, FO","FM-15","ENSF ","V020","210,1,N,0098,1","00840,1,9,N","011265,1,N,1","+0040,1","+0000,1","99999,9","52,1",,"02,1,+00630,1,99,9","08,1,+00840,1,99,9",,"08,99,1,99,9,99,9,99999,9,99,9,99,9","10169,1,99999,9",,"MET082METAR ENSF 100120Z AUTO 21019KT 9999NDV DZ FEW021/// OVC028/// 04/00 Q1017 W///S4;",
"01300599999","2010-12-10T01:50:00","4","61.25","1.85","117.65","STATFJORD OIL PLATFORM HELIPORT, FO","FM-15","ENSF ","V020","210,1,N,0103,1","00510,1,9,N","009000,1,N,1","+0040,1","+0020,1","99999,9",,,"08,1,+00510,1,99,9",,,"08,99,1,99,9,99,9,99999,9,99,9,99,9","10159,1,99999,9",,"MET069METAR ENSF 100150Z AUTO 21020KT 9000NDV OVC017/// 04/02 Q1016 W///S5;",
"01300599999","2010-12-10T02:20:00","4","61.25","1.85","117.65","STATFJORD OIL PLATFORM HELIPORT, FO","FM-15","ENSF ","V020","200,1,N,0129,1","00240,1,9,N","005000,1,N,1","+0050,1","+0030,1","99999,9","81,1",,"07,1,+00240,1,99,9",,,"07,99,1,99,9,99,9,99999,9,99,9,99,9","10149,1,99999,9",,"MET075METAR ENSF 100220Z AUTO 20025KT 5000NDV -SHRA BKN008/// 05/03 Q1015 W///S4;",
"01300599999","2010-12-10T02:50:00","4","61.25","1.85","117.65","STATFJORD OIL PLATFORM HELIPORT, FO","FM-15","ENSF ","V020","200,1,N,0149,1","00240,1,9,N","004600,1,N,1","+0050,1","+0040,1","99999,9","10,1",,"08,1,+00240,1,99,9",,,"08,99,1,99,9,99,9,99999,9,99,9,99,9","10139,1,99999,9",,"MET072METAR ENSF 100250Z AUTO 20029KT 4600NDV BR OVC008/// 05/04 Q1014 W///S4;",
"01300599999","2010-12-10T03:20:00","4","61.25","1.85","117.65","STATFJORD OIL PLATFORM HELIPORT, FO","FM-15","ENSF ","V020","200,1,N,0165,1","00210,1,9,N","006000,1,N,1","+0050,1","+0040,1","99999,9",,,"08,1,+00210,1,99,9",,,"08,99,1,99,9,99,9,99999,9,99,9,99,9","10129,1,99999,9",,"MET069METAR ENSF 100320Z AUTO 20032KT 6000NDV OVC007/// 05/04 Q1013 W///S4;",
"01300599999","2010-12-10T03:50:00","4","61.25","1.85","117.65","STATFJORD OIL PLATFORM HELIPORT, FO","FM-15","ENSF ","V020","200,1,N,0170,1","00180,1,9,N","002600,1,N,1","+0060,1","+0050,1","99999,9","10,1",,"07,1,+00180,1,99,9",,,"07,99,1,99,9,99,9,99999,9,99,9,99,9","10119,1,99999,9",,"MET072METAR ENSF 100350Z AUTO 20033KT 2600NDV BR BKN006/// 06/05 Q1012 W///S4;",
"01300599999","2010-12-10T04:20:00","4","61.25","1.85","117.65","STATFJORD OIL PLATFORM HELIPORT, FO","FM-15","ENSF ","V020","200,1,N,0144,1","00150,1,9,N","002700,1,N,1","+0070,1","+0060,1","99999,9","10,1",,"08,1,+00150,1,99,9",,,"08,99,1,99,9,99,9,99999,9,99,9,99,9","10119,1,99999,9",,"MET072METAR ENSF 100420Z AUTO 20028KT 2700NDV BR OVC005/// 07/06 Q1012 W///S4;",
"01300599999","2010-12-10T04:50:00","4","61.25","1.85","117.65","STATFJORD OIL PLATFORM HELIPORT, FO","FM-15","ENSF ","V020","220,1,N,0123,1","00150,1,9,N","001800,1,N,1","+0070,1","+0070,1","99999,9","10,1","51,1","07,1,+00150,1,99,9",,,"07,99,1,99,9,99,9,99999,9,99,9,99,9","10108,1,99999,9",,"MET076METAR ENSF 100450Z AUTO 22024KT 1800NDV -DZ BR BKN005/// 07/07 Q1011 W///S4;",
"01300599999","2010-12-10T05:20:00","4","61.25","1.85","117.65","STATFJORD OIL PLATFORM HELIPORT, FO","FM-15","ENSF ","V020","240,1,N,0123,1","00150,1,9,N","005000,1,N,1","+0080,1","+0070,1","99999,9",,,"08,1,+00150,1,99,9",,,"08,99,1,99,9,99,9,99999,9,99,9,99,9","10108,1,99999,9",,"MET069METAR ENSF 100520Z AUTO 24024KT 5000NDV OVC005/// 08/07 Q1011 W///S4;",
"01300599999","2010-12-10T05:50:00","4","61.25","1.85","117.65","STATFJORD OIL PLATFORM HELIPORT, FO","FM-15","ENSF ","V020","250,1,N,0118,1","00180,1,9,N","002900,1,N,1","+0080,1","+0070,1","99999,9","10,1",,"02,1,+00150,1,99,9","07,1,+00180,1,99,9",,"07,99,1,99,9,99,9,99999,9,99,9,99,9","10108,1,99999,9",,"MET082METAR ENSF 100550Z AUTO 25023KT 2900NDV BR FEW005/// BKN006/// 08/07 Q1011 W///S4;",
"01300599999","2010-12-10T06:20:00","4","61.25","1.85","117.65","STATFJORD OIL PLATFORM HELIPORT, FO","FM-15","ENSF ","V020","270,1,N,0118,1","00180,1,9,N","011265,1,N,1","+0080,1","+0080,1","99999,9",,,"07,1,+00180,1,99,9",,,"07,99,1,99,9,99,9,99999,9,99,9,99,9","10102,1,99999,9",,"MET069METAR ENSF 100620Z AUTO 27023KT 9999NDV BKN006/// 08/08 Q1010 W///S4;",
"01300599999","2010-12-10T06:50:00","4","61.25","1.85","117.65","STATFJORD OIL PLATFORM HELIPORT, FO","FM-15","ENSF ","V020","270,1,N,0123,1","00180,1,9,N","002200,1,N,1","+0080,1","+0080,1","99999,9","10,1","81,1","08,1,+00180,1,99,9",,,"08,99,1,99,9,99,9,99999,9,99,9,99,9","10102,1,99999,9",,"MET078METAR ENSF 100650Z AUTO 27024KT 2200NDV -SHRA BR OVC006/// 08/08 Q1010 W///S4;",
"01300599999","2010-12-10T07:20:00","4","61.25","1.85","117.65","STATFJORD OIL PLATFORM HELIPORT, FO","FM-15","ENSF ","V020","260,1,N,0134,1","00180,1,9,N","002600,1,N,1","+0080,1","+0080,1","99999,9","10,1",,"07,1,+00180,1,99,9",,,"07,99,1,99,9,99,9,99999,9,99,9,99,9","10102,1,99999,9",,"MET072METAR ENSF 100720Z AUTO 26026KT 2600NDV BR BKN006/// 08/08 Q1010 W///S4;",
"01300599999","2010-12-10T07:50:00","4","61.25","1.85","117.65","STATFJORD OIL PLATFORM HELIPORT, FO","FM-15","ENSF ","V020","260,1,N,0118,1","00180,1,9,N","011265,1,N,1","+0080,1","+0080,1","99999,9",,,"07,1,+00180,1,99,9",,,"07,99,1,99,9,99,9,99999,9,99,9,99,9","10091,1,99999,9",,"MET069METAR ENSF 100750Z AUTO 26023KT 9999NDV BKN006/// 08/08 Q1009 W///S4;",
"01300599999","2010-12-10T08:20:00","4","61.25","1.85","117.65","STATFJORD OIL PLATFORM HELIPORT, FO","FM-15","ENSF ","V020","260,1,N,0118,1","00150,1,9,N","011265,1,N,1","+0080,1","+0080,1","99999,9",,,"07,1,+00150,1,99,9",,,"07,99,1,99,9,99,9,99999,9,99,9,99,9","10091,1,99999,9",,"MET069METAR ENSF 100820Z AUTO 26023KT 9999NDV BKN005/// 08/08 Q1009 W///S4;",
"01300599999","2010-12-10T08:50:00","4","61.25","1.85","117.65","STATFJORD OIL PLATFORM HELIPORT, FO","FM-15","ENSF ","V020","270,1,N,0108,1","00630,1,9,N","011265,1,N,1","+0080,1","+0080,1","99999,9",,,"04,1,+00210,1,99,9","07,1,+00630,1,99,9",,"07,99,1,99,9,99,9,99999,9,99,9,99,9","10091,1,99999,9",,"MET079METAR ENSF 100850Z AUTO 27021KT 9999NDV SCT007/// BKN021/// 08/08 Q1009 W///S4;",
"01300599999","2010-12-10T09:20:00","4","61.25","1.85","117.65","STATFJORD OIL PLATFORM HELIPORT, FO","FM-15","ENSF ","V020","280,1,N,0103,1","00270,1,9,N","011265,1,N,1","+0080,1","+0080,1","99999,9",,,"07,1,+00270,1,99,9","07,1,+00570,1,99,9","07,1,+04200,1,99,9","07,99,1,99,9,99,9,99999,9,99,9,99,9","10091,1,99999,9",,"MET089METAR ENSF 100920Z AUTO 28020KT 9999NDV BKN009/// BKN019/// BKN140/// 08/08 Q1009 W///S4;",
"01300599999","2010-12-10T09:50:00","4","61.25","1.85","117.65","STATFJORD OIL PLATFORM HELIPORT, FO","FM-15","ENSF ","V020","270,1,N,0098,1","00270,1,9,N","011265,1,N,1","+0080,1","+0080,1","99999,9",,,"07,1,+00270,1,99,9",,,"07,99,1,99,9,99,9,99999,9,99,9,99,9","10091,1,99999,9",,"MET069METAR ENSF 100950Z AUTO 27019KT 9999NDV BKN009/// 08/08 Q1009 W///S4;",
"01300599999","2010-12-10T10:20:00","4","61.25","1.85","117.65","STATFJORD OIL PLATFORM HELIPORT, FO","FM-15","ENSF ","V020","270,1,N,0108,1","00300,1,9,N","011265,1,N,1","+0090,1","+0080,1","99999,9",,,"07,1,+00300,1,99,9",,,"07,99,1,99,9,99,9,99999,9,99,9,99,9","10091,1,99999,9",,"MET069METAR ENSF 101020Z AUTO 27021KT 9999NDV BKN010/// 09/08 Q1009 W///S4;",
"01300599999","2010-12-10T10:50:00","4","61.25","1.85","117.65","STATFJORD OIL PLATFORM HELIPORT, FO","FM-15","ENSF ","V020","270,1,N,0108,1","00240,1,9,N","011265,1,N,1","+0090,1","+0080,1","99999,9",,,"08,1,+00240,1,99,9",,,"08,99,1,99,9,99,9,99999,9,99,9,99,9","10081,1,99999,9",,"MET069METAR ENSF 101050Z AUTO 27021KT 9999NDV OVC008/// 09/08 Q1008 W///S4;",
"01300599999","2010-12-10T11:20:00","4","61.25","1.85","117.65","STATFJORD OIL PLATFORM HELIPORT, FO","FM-15","ENSF ","V020","270,1,N,0118,1","00150,1,9,N","008000,1,N,1","+0090,1","+0080,1","99999,9",,,"08,1,+00150,1,99,9",,,"08,99,1,99,9,99,9,99999,9,99,9,99,9","10081,1,99999,9",,"MET069METAR ENSF 101120Z AUTO 27023KT 8000NDV OVC005/// 09/08 Q1008 W///S4;",
"01300599999","2010-12-10T11:50:00","4","61.25","1.85","117.65","STATFJORD OIL PLATFORM HELIPORT, FO","FM-15","ENSF ","V020","270,1,N,0118,1","00150,1,9,N","004900,1,N,1","+0090,1","+0080,1","99999,9","10,1",,"08,1,+00150,1,99,9",,,"08,99,1,99,9,99,9,99999,9,99,9,99,9","10071,1,99999,9",,"MET072METAR ENSF 101150Z AUTO 27023KT 4900NDV BR OVC005/// 09/08 Q1007 W///S4;",
"01300599999","2010-12-10T12:20:00","4","61.25","1.85","117.65","STATFJORD OIL PLATFORM HELIPORT, FO","FM-15","ENSF ","V020","280,1,N,0129,1","00180,1,9,N","009000,1,N,1","+0090,1","+0080,1","99999,9","61,1",,"08,1,+00180,1,99,9",,,"08,99,1,99,9,99,9,99999,9,99,9,99,9","10071,1,99999,9",,"MET073METAR ENSF 101220Z AUTO 28025KT 9000NDV -RA OVC006/// 09/08 Q1007 W///S4;",
"01300599999","2010-12-10T12:50:00","4","61.25","1.85","117.65","STATFJORD OIL PLATFORM HELIPORT, FO","FM-15","ENSF ","V020","290,1,N,0118,1","00210,1,9,N","011265,1,N,1","+0090,1","+0080,1","99999,9","81,1",,"07,1,+00210,1,99,9",,,"07,99,1,99,9,99,9,99999,9,99,9,99,9","10071,1,99999,9",,"MET075METAR ENSF 101250Z AUTO 29023KT 9999NDV -SHRA BKN007/// 09/08 Q1007 W///S4;",
"01300599999","2010-12-10T13:20:00","4","61.25","1.85","117.65","STATFJORD OIL PLATFORM HELIPORT, FO","FM-15","ENSF ","V020","280,1,N,0113,1","00180,1,9,N","009000,1,N,1","+0090,1","+0080,1","99999,9",,,"08,1,+00180,1,99,9",,,"08,99,1,99,9,99,9,99999,9,99,9,99,9","10061,1,99999,9",,"MET069METAR ENSF 101320Z AUTO 28022KT 9000NDV OVC006/// 09/08 Q1006 W///S4;",
"01300599999","2010-12-10T13:50:00","4","61.25","1.85","117.65","STATFJORD OIL PLATFORM HELIPORT, FO","FM-15","ENSF ","V020","270,1,N,0113,1","00150,1,9,N","004300,1,N,1","+0090,1","+0080,1","99999,9","10,1","61,1","07,1,+00150,1,99,9",,,"07,99,1,99,9,99,9,99999,9,99,9,99,9","10061,1,99999,9",,"MET076METAR ENSF 101350Z AUTO 27022KT 4300NDV -RA BR BKN005/// 09/08 Q1006 W///S4;",
"01300599999","2010-12-10T14:20:00","4","61.25","1.85","117.65","STATFJORD OIL PLATFORM HELIPORT, FO","FM-15","ENSF ","V020","280,1,N,0113,1","00120,1,9,N","004000,1,N,1","+0090,1","+0080,1","99999,9","10,1","81,1","07,1,+00120,1,99,9",,,"07,99,1,99,9,99,9,99999,9,99,9,99,9","10061,1,99999,9",,"MET078METAR ENSF 101420Z AUTO 28022KT 4000NDV -SHRA BR BKN004/// 09/08 Q1006 W///S4;",
"01300599999","2010-12-10T14:50:00","4","61.25","1.85","117.65","STATFJORD OIL PLATFORM HELIPORT, FO","FM-15","ENSF ","V020","290,1,N,0123,1","00150,1,9,N","006000,1,N,1","+0090,1","+0080,1","99999,9","81,1",,"08,1,+00150,1,99,9",,,"08,99,1,99,9,99,9,99999,9,99,9,99,9","10051,1,99999,9",,"MET075METAR ENSF 101450Z AUTO 29024KT 6000NDV -SHRA OVC005/// 09/08 Q1005 W///S4;",
"01300599999","2010-12-10T15:20:00","4","61.25","1.85","117.65","STATFJORD OIL PLATFORM HELIPORT, FO","FM-15","ENSF ","V020","280,1,N,0113,1","00180,1,9,N","003000,1,N,1","+0090,1","+0080,1","99999,9","10,1","61,1","08,1,+00180,1,99,9",,,"08,99,1,99,9,99,9,99999,9,99,9,99,9","10051,1,99999,9",,"MET076METAR ENSF 101520Z AUTO 28022KT 3000NDV -RA BR OVC006/// 09/08 Q1005 W///S4;",
"01300599999","2010-12-10T15:50:00","4","61.25","1.85","117.65","STATFJORD OIL PLATFORM HELIPORT, FO","FM-15","ENSF ","V020","270,1,N,0123,1","22000,1,9,N","006000,1,N,1","+0090,1","+0080,1","99999,9","61,1",,"02,1,+00120,1,99,9",,,"02,99,1,99,9,99,9,99999,9,99,9,99,9","10041,1,99999,9",,"MET073METAR ENSF 101550Z AUTO 27024KT 6000NDV -RA FEW004/// 09/08 Q1004 W///S4;",
"01300599999","2010-12-10T16:20:00","4","61.25","1.85","117.65","STATFJORD OIL PLATFORM HELIPORT, FO","FM-15","ENSF ","V020","260,1,N,0134,1","00150,1,9,N","005000,1,N,1","+0090,1","+0080,1","99999,9","51,1",,"08,1,+00150,1,99,9",,,"08,99,1,99,9,99,9,99999,9,99,9,99,9","10031,1,99999,9",,"MET073METAR ENSF 101620Z AUTO 26026KT 5000NDV -DZ OVC005/// 09/08 Q1003 W///S4;",
"01300599999","2010-12-10T16:50:00","4","61.25","1.85","117.65","STATFJORD OIL PLATFORM HELIPORT, FO","FM-15","ENSF ","V020","270,1,N,0149,1","00150,1,9,N","003700,1,N,1","+0090,1","+0080,1","99999,9","10,1","61,1","08,1,+00150,1,99,9",,,"08,99,1,99,9,99,9,99999,9,99,9,99,9","10031,1,99999,9",,"MET076METAR ENSF 101650Z AUTO 27029KT 3700NDV -RA BR OVC005/// 09/08 Q1003 W///S4;",
"01300599999","2010-12-10T17:20:00","4","61.25","1.85","117.65","STATFJORD OIL PLATFORM HELIPORT, FO","FM-15","ENSF ","V020","270,1,N,0165,1","00180,1,9,N","002500,1,N,1","+0090,1","+0080,1","99999,9","10,1","62,1","07,1,+00180,1,99,9","08,1,+00930,1,99,9",,"08,99,1,99,9,99,9,99999,9,99,9,99,9","10020,1,99999,9",,"MET085METAR ENSF 101720Z AUTO 27032KT 2500NDV RA BR BKN006/// OVC031/// 09/08 Q1002 W///S4;",
"01300599999","2010-12-10T17:50:00","4","61.25","1.85","117.65","STATFJORD OIL PLATFORM HELIPORT, FO","FM-15","ENSF ","V020","270,1,N,0165,1","00180,1,9,N","004700,1,N,1","+0090,1","+0080,1","99999,9","10,1","62,1","07,1,+00180,1,99,9","07,1,+00900,1,99,9","07,1,+01230,1,99,9","07,99,1,99,9,99,9,99999,9,99,9,99,9","10020,1,99999,9",,"MET095METAR ENSF 101750Z AUTO 27032KT 4700NDV RA BR BKN006/// BKN030/// BKN041/// 09/08 Q1002 W///S4;",
"01300599999","2010-12-10T18:20:00","4","61.25","1.85","117.65","STATFJORD OIL PLATFORM HELIPORT, FO","FM-15","ENSF ","V020","290,1,N,0165,1","00240,1,9,N","007000,1,N,1","+0090,1","+0090,1","99999,9",,,"07,1,+00240,1,99,9",,,"07,99,1,99,9,99,9,99999,9,99,9,99,9","10010,1,99999,9",,"MET069METAR ENSF 101820Z AUTO 29032KT 7000NDV BKN008/// 09/09 Q1001 W///S4;",
"01300599999","2010-12-10T18:50:00","4","61.25","1.85","117.65","STATFJORD OIL PLATFORM HELIPORT, FO","FM-15","ENSF ","V020","280,1,N,0165,1","00150,1,9,N","004600,1,N,1","+0090,1","+0090,1","99999,9","10,1","81,1","07,1,+00150,1,99,9",,,"07,99,1,99,9,99,9,99999,9,99,9,99,9","10010,1,99999,9",,"MET078METAR ENSF 101850Z AUTO 28032KT 4600NDV -SHRA BR BKN005/// 09/09 Q1001 W///S5;",
"01300599999","2010-12-10T19:20:00","4","61.25","1.85","117.65","STATFJORD OIL PLATFORM HELIPORT, FO","FM-15","ENSF ","V020","290,1,N,0226,1","00180,1,9,N","008000,1,N,1","+0090,1","+0080,1","99999,9",,,"07,1,+00180,1,99,9",,,"07,99,1,99,9,99,9,99999,9,99,9,99,9","10000,1,99999,9",,"MET069METAR ENSF 101920Z AUTO 29044KT 8000NDV BKN006/// 09/08 Q1000 W///S5;",
"01300599999","2010-12-10T19:50:00","4","61.25","1.85","117.65","STATFJORD OIL PLATFORM HELIPORT, FO","FM-15","ENSF ","V020","290,1,N,0221,1","00990,1,9,N","011265,1,N,1","+0090,1","+0080,1","99999,9",,,"04,1,+00420,1,99,9","07,1,+00990,1,99,9",,"07,99,1,99,9,99,9,99999,9,99,9,99,9","10000,1,99999,9","0273,1","MET082METAR ENSF 101950Z AUTO 29043G53KT 9999NDV SCT014/// BKN033/// 09/08 Q1000 W///S5;",
"01300599999","2010-12-10T20:20:00","4","61.25","1.85","117.65","STATFJORD OIL PLATFORM HELIPORT, FO","FM-15","ENSF ","V020","290,1,N,0221,1","00360,1,9,N","004800,1,N,1","+0090,1","+0080,1","99999,9","10,1",,"07,1,+00360,1,99,9",,,"07,99,1,99,9,99,9,99999,9,99,9,99,9","10000,1,99999,9",,"MET072METAR ENSF 102020Z AUTO 29043KT 4800NDV BR BKN012/// 09/08 Q1000 W///S5;",
"01300599999","2010-12-10T20:50:00","4","61.25","1.85","117.65","STATFJORD OIL PLATFORM HELIPORT, FO","FM-15","ENSF ","V020","290,1,N,0226,1","00300,1,9,N","011265,1,N,1","+0090,1","+0070,1","99999,9",,,"07,1,+00300,1,99,9",,,"07,99,1,99,9,99,9,99999,9,99,9,99,9","09990,1,99999,9","0278,1","MET072METAR ENSF 102050Z AUTO 29044G54KT 9999NDV BKN010/// 09/07 Q0999 W///S5;",
"01300599999","2010-12-10T21:20:00","4","61.25","1.85","117.65","STATFJORD OIL PLATFORM HELIPORT, FO","FM-15","ENSF ","V020","290,1,N,0231,1","00480,1,9,N","008000,1,N,1","+0090,1","+0070,1","99999,9",,,"08,1,+00480,1,99,9",,,"08,99,1,99,9,99,9,99999,9,99,9,99,9","09990,1,99999,9",,"MET069METAR ENSF 102120Z AUTO 29045KT 8000NDV OVC016/// 09/07 Q0999 W///S5;",
"01300599999","2010-12-10T21:50:00","4","61.25","1.85","117.65","STATFJORD OIL PLATFORM HELIPORT, FO","FM-15","ENSF ","V020","290,1,N,0237,1","00480,1,9,N","006000,1,N,1","+0090,1","+0070,1","99999,9",,,"07,1,+00480,1,99,9",,,"07,99,1,99,9,99,9,99999,9,99,9,99,9","09990,1,99999,9",,"MET069METAR ENSF 102150Z AUTO 29046KT 6000NDV BKN016/// 09/07 Q0999 W///S5;",
"01300599999","2010-12-10T22:20:00","4","61.25","1.85","117.65","STATFJORD OIL PLATFORM HELIPORT, FO","FM-15","ENSF ","V020","300,1,N,0247,1","00480,1,9,N","009000,1,N,1","+0090,1","+0060,1","99999,9",,,"07,1,+00480,1,99,9",,,"07,99,1,99,9,99,9,99999,9,99,9,99,9","09980,1,99999,9",,"MET069METAR ENSF 102220Z AUTO 30048KT 9000NDV BKN016/// 09/06 Q0998 W///S5;",
"01300599999","2010-12-10T22:50:00","4","61.25","1.85","117.65","STATFJORD OIL PLATFORM HELIPORT, FO","FM-15","ENSF ","V020","300,1,N,0237,1","00570,1,9,N","011265,1,N,1","+0090,1","+0060,1","99999,9",,,"07,1,+00570,1,99,9",,,"07,99,1,99,9,99,9,99999,9,99,9,99,9","09980,1,99999,9","0288,1","MET072METAR ENSF 102250Z AUTO 30046G56KT 9999NDV BKN019/// 09/06 Q0998 W///S6;",
"01300599999","2010-12-10T23:20:00","4","61.25","1.85","117.65","STATFJORD OIL PLATFORM HELIPORT, FO","FM-15","ENSF ","V020","310,1,N,0231,1","00450,1,9,N","007000,1,N,1","+0080,1","+0060,1","99999,9",,,"08,1,+00450,1,99,9",,,"08,99,1,99,9,99,9,99999,9,99,9,99,9","09980,1,99999,9",,"MET069METAR ENSF 102320Z AUTO 31045KT 7000NDV OVC015/// 08/06 Q0998 W///S6;",
"01300599999","2010-12-10T23:50:00","4","61.25","1.85","117.65","STATFJORD OIL PLATFORM HELIPORT, FO","FM-15","ENSF ","V020","310,1,N,0226,1","00360,1,9,N","011265,1,N,1","+0070,1","+0060,1","99999,9",,,"07,1,+00360,1,99,9",,,"07,99,1,99,9,99,9,99999,9,99,9,99,9","09990,1,99999,9",,"MET069METAR ENSF 102350Z AUTO 31044KT 9999NDV BKN012/// 07/06 Q0999 W///S6;",
"01300599999","2010-12-11T00:20:00","4","61.25","1.85","117.65","STATFJORD OIL PLATFORM HELIPORT, FO","FM-15","ENSF ","V020","320,1,N,0195,1","00300,1,9,N","003600,1,N,1","+0070,1","+0060,1","99999,9","10,1","81,1","07,1,+00300,1,99,9",,,"07,99,1,99,9,99,9,99999,9,99,9,99,9","10000,1,99999,9",,"MET078METAR ENSF 110020Z AUTO 32038KT 3600NDV -SHRA BR BKN010/// 07/06 Q1000 W///S6;",
"01300599999","2010-12-11T00:50:00","4","61.25","1.85","117.65","STATFJORD OIL PLATFORM HELIPORT, FO","FM-15","ENSF ","V020","320,1,N,0216,1","00300,1,9,N","011265,1,N,1","+0070,1","+0050,1","99999,9",,,"07,1,+00300,1,99,9",,,"07,99,1,99,9,99,9,99999,9,99,9,99,9","10000,1,99999,9",,"MET069METAR ENSF 110050Z AUTO 32042KT 9999NDV BKN010/// 07/05 Q1000 W///S6;",
"01300599999","2010-12-11T01:20:00","4","61.25","1.85","117.65","STATFJORD OIL PLATFORM HELIPORT, FO","FM-15","ENSF ","V020","320,1,N,0206,1","00510,1,9,N","011265,1,N,1","+0070,1","+0050,1","99999,9",,,"07,1,+00510,1,99,9",,,"07,99,1,99,9,99,9,99999,9,99,9,99,9","10010,1,99999,9",,"MET069METAR ENSF 110120Z AUTO 32040KT 9999NDV BKN017/// 07/05 Q1001 W///S6;",
"01300599999","2010-12-11T01:50:00","4","61.25","1.85","117.65","STATFJORD OIL PLATFORM HELIPORT, FO","FM-15","ENSF ","V020","310,1,N,0211,1","00510,1,9,N","011265,1,N,1","+0070,1","+0050,1","99999,9",,,"07,1,+00510,1,99,9","07,1,+01470,1,99,9",,"07,99,1,99,9,99,9,99999,9,99,9,99,9","10010,1,99999,9",,"MET079METAR ENSF 110150Z AUTO 31041KT 9999NDV BKN017/// BKN049/// 07/05 Q1001 W///S6;",
"01300599999","2010-12-11T02:20:00","4","61.25","1.85","117.65","STATFJORD OIL PLATFORM HELIPORT, FO","FM-15","ENSF ","V020","310,1,N,0216,1","00540,1,9,N","011265,1,N,1","+0070,1","+0050,1","99999,9","81,1",,"07,1,+00540,1,99,9","07,1,+01800,1,99,9",,"07,99,1,99,9,99,9,99999,9,99,9,99,9","10010,1,99999,9",,"MET085METAR ENSF 110220Z AUTO 31042KT 9999NDV -SHRA BKN018/// BKN068/// 07/05 Q1001 W///S6;",
"01300599999","2010-12-11T02:50:00","4","61.25","1.85","117.65","STATFJORD OIL PLATFORM HELIPORT, FO","FM-15","ENSF ","V020","310,1,N,0216,1","00450,1,9,N","005000,1,N,1","+0060,1","+0050,1","99999,9","81,1",,"07,1,+00450,1,99,9",,,"07,99,1,99,9,99,9,99999,9,99,9,99,9","10010,1,99999,9",,"MET075METAR ENSF 110250Z AUTO 31042KT 5000NDV -SHRA BKN015/// 06/05 Q1001 W///S6;",
"01300599999","2010-12-11T03:20:00","4","61.25","1.85","117.65","STATFJORD OIL PLATFORM HELIPORT, FO","FM-15","ENSF ","V020","310,1,N,0211,1","00600,1,9,N","011265,1,N,1","+0070,1","+0030,1","99999,9",,,"07,1,+00600,1,99,9",,,"07,99,1,99,9,99,9,99999,9,99,9,99,9","10010,1,99999,9",,"MET069METAR ENSF 110320Z AUTO 31041KT 9999NDV BKN020/// 07/03 Q1001 W///S6;",
"01300599999","2010-12-11T03:50:00","4","61.25","1.85","117.65","STATFJORD OIL PLATFORM HELIPORT, FO","FM-15","ENSF ","V020","310,1,N,0231,1","00480,1,9,N","011265,1,N,1","+0060,1","+0040,1","99999,9","81,1",,"07,1,+00480,1,99,9",,,"07,99,1,99,9,99,9,99999,9,99,9,99,9","10000,1,99999,9",,"MET075METAR ENSF 110350Z AUTO 31045KT 9999NDV -SHRA BKN016/// 06/04 Q1000 W///S6;",
"01300599999","2010-12-11T04:20:00","4","61.25","1.85","117.65","STATFJORD OIL PLATFORM HELIPORT, FO","FM-15","ENSF ","V020","310,1,N,0216,1","00510,1,9,N","011265,1,N,1","+0060,1","+0040,1","99999,9","81,1",,"07,1,+00510,1,99,9",,,"07,99,1,99,9,99,9,99999,9,99,9,99,9","10020,1,99999,9",,"MET075METAR ENSF 110420Z AUTO 31042KT 9999NDV -SHRA BKN017/// 06/04 Q1002 W///S6;",
"01300599999","2010-12-11T04:50:00","4","61.25","1.85","117.65","STATFJORD OIL PLATFORM HELIPORT, FO","FM-15","ENSF ","V020","320,1,N,0221,1","00360,1,9,N","011265,1,N,1","+0060,1","+0020,1","99999,9",,,"07,1,+00360,1,99,9",,,"07,99,1,99,9,99,9,99999,9,99,9,99,9","10010,1,99999,9",,"MET069METAR ENSF 110450Z AUTO 32043KT 9999NDV BKN012/// 06/02 Q1001 W///S6;",
"01300599999","2010-12-11T05:20:00","4","61.25","1.85","117.65","STATFJORD OIL PLATFORM HELIPORT, FO","FM-15","ENSF ","V020","310,1,N,0226,1","00540,1,9,N","011265,1,N,1","+0060,1","+0030,1","99999,9","81,1",,"07,1,+00540,1,99,9","07,1,+02700,1,99,9",,"07,99,1,99,9,99,9,99999,9,99,9,99,9","10010,1,99999,9",,"MET085METAR ENSF 110520Z AUTO 31044KT 9999NDV -SHRA BKN018/// BKN090/// 06/03 Q1001 W///S6;",
"01300599999","2010-12-11T05:50:00","4","61.25","1.85","117.65","STATFJORD OIL PLATFORM HELIPORT, FO","FM-15","ENSF ","V020","310,1,N,0221,1","00600,1,9,N","011265,1,N,1","+0060,1","+0020,1","99999,9","81,1",,"07,1,+00600,1,99,9",,,"07,99,1,99,9,99,9,99999,9,99,9,99,9","10010,1,99999,9",,"MET075METAR ENSF 110550Z AUTO 31043KT 9999NDV -SHRA BKN020/// 06/02 Q1001 W///S6;",
"01300599999","2010-12-11T06:20:00","4","61.25","1.85","117.65","STATFJORD OIL PLATFORM HELIPORT, FO","FM-15","ENSF ","V020","320,1,N,0216,1","00630,1,9,N","011265,1,N,1","+0050,1","+0010,1","99999,9","81,1",,"07,1,+00630,1,99,9",,,"07,99,1,99,9,99,9,99999,9,99,9,99,9","10020,1,99999,9",,"MET075METAR ENSF 110620Z AUTO 32042KT 9999NDV -SHRA BKN021/// 05/01 Q1002 W///S6;",
"01300599999","2010-12-11T06:50:00","4","61.25","1.85","117.65","STATFJORD OIL PLATFORM HELIPORT, FO","FM-15","ENSF ","V020","320,1,N,0237,1","00660,1,9,N","011265,1,N,1","+0050,1","+0010,1","99999,9","81,1",,"07,1,+00660,1,99,9","07,1,+01350,1,99,9",,"07,99,1,99,9,99,9,99999,9,99,9,99,9","10020,1,99999,9","0288,1","MET088METAR ENSF 110650Z AUTO 32046G56KT 9999NDV -SHRA BKN022/// BKN045/// 05/01 Q1002 W///S6;",
"01300599999","2010-12-11T07:20:00","4","61.25","1.85","117.65","STATFJORD OIL PLATFORM HELIPORT, FO","FM-15","ENSF ","V020","320,1,N,0237,1","00600,1,9,N","011265,1,N,1","+0050,1","+0010,1","99999,9","81,1",,"07,1,+00600,1,99,9","07,1,+01500,1,99,9",,"07,99,1,99,9,99,9,99999,9,99,9,99,9","10020,1,99999,9",,"MET085METAR ENSF 110720Z AUTO 32046KT 9999NDV -SHRA BKN020/// BKN052/// 05/01 Q1002 W///S6;",
"01300599999","2010-12-11T07:50:00","4","61.25","1.85","117.65","STATFJORD OIL PLATFORM HELIPORT, FO","FM-15","ENSF ","V020","320,1,N,0237,1","00900,1,9,N","011265,1,N,1","+0060,1","+0010,1","99999,9",,,"07,1,+00900,1,99,9",,,"07,99,1,99,9,99,9,99999,9,99,9,99,9","10020,1,99999,9",,"MET069METAR ENSF 110750Z AUTO 32046KT 9999NDV BKN030/// 06/01 Q1002 W///S6;",
"01300599999","2010-12-11T08:20:00","4","61.25","1.85","117.65","STATFJORD OIL PLATFORM HELIPORT, FO","FM-15","ENSF ","V020","320,1,N,0231,1","00840,1,9,N","011265,1,N,1","+0060,1","+0010,1","99999,9","81,1",,"07,1,+00840,1,99,9",,,"07,99,1,99,9,99,9,99999,9,99,9,99,9","10020,1,99999,9",,"MET075METAR ENSF 110820Z AUTO 32045KT 9999NDV -SHRA BKN028/// 06/01 Q1002 W///S6;",
"01300599999","2010-12-11T08:50:00","4","61.25","1.85","117.65","STATFJORD OIL PLATFORM HELIPORT, FO","FM-15","ENSF ","V020","320,1,N,0226,1","00870,1,9,N","011265,1,N,1","+0060,1","+0020,1","99999,9",,,"07,1,+00870,1,99,9","07,1,+03000,1,99,9",,"07,99,1,99,9,99,9,99999,9,99,9,99,9","10031,1,99999,9","0278,1","MET082METAR ENSF 110850Z AUTO 32044G54KT 9999NDV BKN029/// BKN100/// 06/02 Q1003 W///S6;",
"01300599999","2010-12-11T09:20:00","4","61.25","1.85","117.65","STATFJORD OIL PLATFORM HELIPORT, FO","FM-15","ENSF ","V020","310,1,N,0257,1","00870,1,9,N","011265,1,N,1","+0060,1","+0020,1","99999,9",,,"07,1,+00870,1,99,9","07,1,+03000,1,99,9",,"07,99,1,99,9,99,9,99999,9,99,9,99,9","10031,1,99999,9",,"MET079METAR ENSF 110920Z AUTO 31050KT 9999NDV BKN029/// BKN100/// 06/02 Q1003 W///S6;",
"01300599999","2010-12-11T09:50:00","4","61.25","1.85","117.65","STATFJORD OIL PLATFORM HELIPORT, FO","FM-15","ENSF ","V020","320,1,N,0216,1","03000,1,9,N","011265,1,N,1","+0060,1","+0020,1","99999,9",,,"04,1,+00660,1,99,9","07,1,+03000,1,99,9",,"07,99,1,99,9,99,9,99999,9,99,9,99,9","10031,1,99999,9",,"MET079METAR ENSF 110950Z AUTO 32042KT 9999NDV SCT022/// BKN100/// 06/02 Q1003 W///S6;",
"01300599999","2010-12-11T10:20:00","4","61.25","1.85","117.65","STATFJORD OIL PLATFORM HELIPORT, FO","FM-15","ENSF ","V020","320,1,N,0252,1","01260,1,9,N","011265,1,N,1","+0060,1","+0010,1","99999,9",,,"02,1,+00660,1,99,9","07,1,+01260,1,99,9","07,1,+03300,1,99,9","07,99,1,99,9,99,9,99999,9,99,9,99,9","10020,1,99999,9",,"MET089METAR ENSF 111020Z AUTO 32049KT 9999NDV FEW022/// BKN042/// BKN110/// 06/01 Q1002 W///S7;",
"01300599999","2010-12-11T10:50:00","4","61.25","1.85","117.65","STATFJORD OIL PLATFORM HELIPORT, FO","FM-15","ENSF ","V020","320,1,N,0221,1","00630,1,9,N","011265,1,N,1","+0060,1","+0020,1","99999,9","81,1",,"07,1,+00630,1,99,9","07,1,+03000,1,99,9",,"07,99,1,99,9,99,9,99999,9,99,9,99,9","10031,1,99999,9",,"MET085METAR ENSF 111050Z AUTO 32043KT 9999NDV -SHRA BKN021/// BKN100/// 06/02 Q1003 W///S6;",
"01300599999","2010-12-11T11:20:00","4","61.25","1.85","117.65","STATFJORD OIL PLATFORM HELIPORT, FO","FM-15","ENSF ","V020","310,1,N,0221,1","00720,1,9,N","011265,1,N,1","+0060,1","+0020,1","99999,9",,,"07,1,+00720,1,99,9","07,1,+01800,1,99,9",,"07,99,1,99,9,99,9,99999,9,99,9,99,9","10031,1,99999,9","0278,1","MET082METAR ENSF 111120Z AUTO 31043G54KT 9999NDV BKN024/// BKN068/// 06/02 Q1003 W///S6;",
"01300599999","2010-12-11T11:50:00","4","61.25","1.85","117.65","STATFJORD OIL PLATFORM HELIPORT, FO","FM-15","ENSF ","V020","310,1,N,0231,1","00720,1,9,N","011265,1,N,1","+0060,1","+0030,1","99999,9","81,1",,"04,1,+00570,1,99,9","07,1,+00720,1,99,9","07,1,+02100,1,99,9","07,99,1,99,9,99,9,99999,9,99,9,99,9","10020,1,99999,9",,"MET095METAR ENSF 111150Z AUTO 31045KT 9999NDV -SHRA SCT019/// BKN024/// BKN072/// 06/03 Q1002 W///S6;",
"01300599999","2010-12-11T12:20:00","4","61.25","1.85","117.65","STATFJORD OIL PLATFORM HELIPORT, FO","FM-15","ENSF ","V020","320,1,N,0211,1","00570,1,9,N","009000,1,N,1","+0050,1","+0020,1","99999,9","81,1",,"07,1,+00570,1,99,9",,,"07,99,1,99,9,99,9,99999,9,99,9,99,9","10031,1,99999,9",,"MET075METAR ENSF 111220Z AUTO 32041KT 9000NDV -SHRA BKN019/// 05/02 Q1003 W///S6;",
"01300599999","2010-12-11T12:50:00","4","61.25","1.85","117.65","STATFJORD OIL PLATFORM HELIPORT, FO","FM-15","ENSF ","V020","320,1,N,0242,1","00600,1,9,N","011265,1,N,1","+0050,1","+0020,1","99999,9","81,1",,"07,1,+00600,1,99,9","07,1,+02400,1,99,9",,"07,99,1,99,9,99,9,99999,9,99,9,99,9","10020,1,99999,9",,"MET092METAR ENSF 111250Z AUTO 32047KT 9999NDV -SHRA BKN020/// BKN083/// 05/02 Q1002 RESHRA W///S6;",
"01300599999","2010-12-11T13:20:00","4","61.25","1.85","117.65","STATFJORD OIL PLATFORM HELIPORT, FO","FM-15","ENSF ","V020","320,1,N,0226,1","00420,1,9,N","011265,1,N,1","+0050,1","+0020,1","99999,9","81,1",,"07,1,+00420,1,99,9","07,1,+01050,1,99,9","07,1,+02100,1,99,9","07,99,1,99,9,99,9,99999,9,99,9,99,9","10020,1,99999,9",,"MET102METAR ENSF 111320Z AUTO 32044KT 9999NDV -SHRA BKN014/// BKN035/// BKN075/// 05/02 Q1002 RESHRA W///S6;",
"01300599999","2010-12-11T13:50:00","4","61.25","1.85","117.65","STATFJORD OIL PLATFORM HELIPORT, FO","FM-15","ENSF ","V020","330,1,N,0226,1","00660,1,9,N","011265,1,N,1","+0050,1","+0020,1","99999,9","81,1",,"02,1,+00540,1,99,9","07,1,+00660,1,99,9",,"07,99,1,99,9,99,9,99999,9,99,9,99,9","10031,1,99999,9",,"MET085METAR ENSF 111350Z AUTO 33044KT 9999NDV -SHRA FEW018/// BKN022/// 05/02 Q1003 W///S6;",
"01300599999","2010-12-11T14:20:00","4","61.25","1.85","117.65","STATFJORD OIL PLATFORM HELIPORT, FO","FM-15","ENSF ","V020","330,1,N,0221,1","00780,1,9,N","011265,1,N,1","+0050,1","+0010,1","99999,9","81,1",,"07,1,+00780,1,99,9","07,1,+02100,1,99,9",,"07,99,1,99,9,99,9,99999,9,99,9,99,9","10031,1,99999,9",,"MET085METAR ENSF 111420Z AUTO 33043KT 9999NDV -SHRA BKN026/// BKN079/// 05/01 Q1003 W///S6;",
"01300599999","2010-12-11T14:50:00","4","61.25","1.85","117.65","STATFJORD OIL PLATFORM HELIPORT, FO","FM-15","ENSF ","V020","330,1,N,0226,1","00660,1,9,N","011265,1,N,1","+0050,1","+0020,1","99999,9","81,1",,"07,1,+00660,1,99,9",,,"07,99,1,99,9,99,9,99999,9,99,9,99,9","10051,1,99999,9",,"MET075METAR ENSF 111450Z AUTO 33044KT 9999NDV -SHRA BKN022/// 05/02 Q1005 W///S6;",
"01300599999","2010-12-11T15:20:00","4","61.25","1.85","117.65","STATFJORD OIL PLATFORM HELIPORT, FO","FM-15","ENSF ","V020","330,1,N,0216,1","00480,1,9,N","011265,1,N,1","+0050,1","+0030,1","99999,9","81,1",,"07,1,+00480,1,99,9",,,"07,99,1,99,9,99,9,99999,9,99,9,99,9","10051,1,99999,9",,"MET075METAR ENSF 111520Z AUTO 33042KT 9999NDV -SHRA BKN016/// 05/03 Q1005 W///S6;",
"01300599999","2010-12-11T15:50:00","4","61.25","1.85","117.65","STATFJORD OIL PLATFORM HELIPORT, FO","FM-15","ENSF ","V020","330,1,N,0211,1","00480,1,9,N","011265,1,N,1","+0060,1","+0030,1","99999,9","81,1",,"07,1,+00480,1,99,9",,,"07,99,1,99,9,99,9,99999,9,99,9,99,9","10061,1,99999,9",,"MET075METAR ENSF 111550Z AUTO 33041KT 9999NDV -SHRA BKN016/// 06/03 Q1006 W///S6;",
"01300599999","2010-12-11T16:20:00","4","61.25","1.85","117.65","STATFJORD OIL PLATFORM HELIPORT, FO","FM-15","ENSF ","V020","330,1,N,0221,1","00570,1,9,N","011265,1,N,1","+0060,1","+0030,1","99999,9",,,"07,1,+00570,1,99,9","07,1,+01350,1,99,9",,"07,99,1,99,9,99,9,99999,9,99,9,99,9","10051,1,99999,9",,"MET079METAR ENSF 111620Z AUTO 33043KT 9999NDV BKN019/// BKN045/// 06/03 Q1005 W///S6;",
"01300599999","2010-12-11T16:50:00","4","61.25","1.85","117.65","STATFJORD OIL PLATFORM HELIPORT, FO","FM-15","ENSF ","V020","010,1,N,0139,1","00540,1,9,N","011265,1,N,1","+0060,1","+0040,1","99999,9","81,1",,"07,1,+00540,1,99,9",,,"07,99,1,99,9,99,9,99999,9,99,9,99,9","10081,1,99999,9",,"MET075METAR ENSF 111650Z AUTO 01027KT 9999NDV -SHRA BKN018/// 06/04 Q1008 W///S6;",
"01300599999","2010-12-11T17:20:00","4","61.25","1.85","117.65","STATFJORD OIL PLATFORM HELIPORT, FO","FM-15","ENSF ","V020","010,1,N,0144,1","00570,1,9,N","011265,1,N,1","+0070,1","+0040,1","99999,9",,,"07,1,+00570,1,99,9",,,"07,99,1,99,9,99,9,99999,9,99,9,99,9","10102,1,99999,9",,"MET069METAR ENSF 111720Z AUTO 01028KT 9999NDV BKN019/// 07/04 Q1010 W///S7;",
"01300599999","2010-12-11T17:50:00","4","61.25","1.85","117.65","STATFJORD OIL PLATFORM HELIPORT, FO","FM-15","ENSF ","V020","010,1,N,0144,1","00690,1,9,N","011265,1,N,1","+0070,1","+0020,1","99999,9",,,"07,1,+00690,1,99,9",,,"07,99,1,99,9,99,9,99999,9,99,9,99,9","10102,1,99999,9",,"MET069METAR ENSF 111750Z AUTO 01028KT 9999NDV BKN023/// 07/02 Q1010 W///S6;",
"01300599999","2010-12-11T18:20:00","4","61.25","1.85","117.65","STATFJORD OIL PLATFORM HELIPORT, FO","FM-15","ENSF ","V020","360,1,N,0159,1","00960,1,9,N","011265,1,N,1","+0070,1","+0000,1","99999,9",,,"07,1,+00960,1,99,9",,,"07,99,1,99,9,99,9,99999,9,99,9,99,9","10108,1,99999,9",,"MET069METAR ENSF 111820Z AUTO 36031KT 9999NDV BKN032/// 07/00 Q1011 W///S6;",
"01300599999","2010-12-11T18:50:00","4","61.25","1.85","117.65","STATFJORD OIL PLATFORM HELIPORT, FO","FM-15","ENSF ","V020","010,1,N,0149,1","00990,1,9,N","011265,1,N,1","+0080,1","+0010,1","99999,9",,,"07,1,+00990,1,99,9",,,"07,99,1,99,9,99,9,99999,9,99,9,99,9","10119,1,99999,9",,"MET069METAR ENSF 111850Z AUTO 01029KT 9999NDV BKN033/// 08/01 Q1012 W///S6;",
"01300599999","2010-12-11T19:20:00","4","61.25","1.85","117.65","STATFJORD OIL PLATFORM HELIPORT, FO","FM-15","ENSF ","V020","010,1,N,0134,1","22000,1,9,N","011265,1,N,1","+0070,1","+0010,1","99999,9",,,"04,1,+00990,1,99,9",,,"04,99,1,99,9,99,9,99999,9,99,9,99,9","10119,1,99999,9",,"MET069METAR ENSF 111920Z AUTO 01026KT 9999NDV SCT033/// 07/01 Q1012 W///S6;",
"01300599999","2010-12-11T19:50:00","4","61.25","1.85","117.65","STATFJORD OIL PLATFORM HELIPORT, FO","FM-15","ENSF ","V020","010,1,N,0134,1","01020,1,9,N","011265,1,N,1","+0070,1","+0000,1","99999,9",,,"07,1,+01020,1,99,9",,,"07,99,1,99,9,99,9,99999,9,99,9,99,9","10129,1,99999,9",,"MET069METAR ENSF 111950Z AUTO 01026KT 9999NDV BKN034/// 07/00 Q1013 W///S6;",
"01300599999","2010-12-11T20:20:00","4","61.25","1.85","117.65","STATFJORD OIL PLATFORM HELIPORT, FO","FM-15","ENSF ","V020","360,1,N,0129,1","01110,1,9,N","011265,1,N,1","+0070,1","-0010,1","99999,9",,,"07,1,+01110,1,99,9",,,"07,99,1,99,9,99,9,99999,9,99,9,99,9","10139,1,99999,9",,"MET070METAR ENSF 112020Z AUTO 36025KT 9999NDV BKN037/// 07/M01 Q1014 W///S6;",
"01300599999","2010-12-11T20:50:00","4","61.25","1.85","117.65","STATFJORD OIL PLATFORM HELIPORT, FO","FM-15","ENSF ","V020","360,1,N,0129,1","01020,1,9,N","011265,1,N,1","+0070,1","-0010,1","99999,9",,,"07,1,+01020,1,99,9",,,"07,99,1,99,9,99,9,99999,9,99,9,99,9","10139,1,99999,9",,"MET070METAR ENSF 112050Z AUTO 36025KT 9999NDV BKN034/// 07/M01 Q1014 W///S6;",
"01300599999","2010-12-11T21:20:00","4","61.25","1.85","117.65","STATFJORD OIL PLATFORM HELIPORT, FO","FM-15","ENSF ","V020","010,1,N,0123,1","01110,1,9,N","011265,1,N,1","+0070,1","+0010,1","99999,9",,,"07,1,+01110,1,99,9",,,"07,99,1,99,9,99,9,99999,9,99,9,99,9","10149,1,99999,9",,"MET069METAR ENSF 112120Z AUTO 01024KT 9999NDV BKN037/// 07/01 Q1015 W///S6;",
"01300599999","2010-12-11T21:50:00","4","61.25","1.85","117.65","STATFJORD OIL PLATFORM HELIPORT, FO","FM-15","ENSF ","V020","020,1,N,0129,1","01350,1,9,N","011265,1,N,1","+0070,1","+0020,1","99999,9",,,"04,1,+00900,1,99,9","07,1,+01350,1,99,9",,"07,99,1,99,9,99,9,99999,9,99,9,99,9","10149,1,99999,9",,"MET079METAR ENSF 112150Z AUTO 02025KT 9999NDV SCT030/// BKN045/// 07/02 Q1015 W///S6;",
"01300599999","2010-12-11T22:20:00","4","61.25","1.85","117.65","STATFJORD OIL PLATFORM HELIPORT, FO","FM-15","ENSF ","V020","010,1,N,0118,1","22000,1,9,N","011265,1,N,1","+0070,1","+0010,1","99999,9",,,,,,"00,99,1,99,9,99,9,99999,9,99,9,99,9","10159,1,99999,9",,"MET063METAR ENSF 112220Z AUTO 01023KT 9999NDV NCD 07/01 Q1016 W///S6;","Q01    003SCCGA1"
"01300599999","2010-12-11T22:50:00","4","61.25","1.85","117.65","STATFJORD OIL PLATFORM HELIPORT, FO","FM-15","ENSF ","V020","030,1,N,0098,1","00990,1,9,N","011265,1,N,1","+0070,1","+0000,1","99999,9",,,"07,1,+00990,1,99,9",,,"07,99,1,99,9,99,9,99999,9,99,9,99,9","10159,1,99999,9",,"MET069METAR ENSF 112250Z AUTO 03019KT 9999NDV BKN033/// 07/00 Q1016 W///S6;",
"01300599999","2010-12-11T23:20:00","4","61.25","1.85","117.65","STATFJORD OIL PLATFORM HELIPORT, FO","FM-15","ENSF ","V020","030,1,N,0093,1","01080,1,9,N","011265,1,N,1","+0070,1","+0000,1","99999,9",,,"07,1,+01080,1,99,9",,,"07,99,1,99,9,99,9,99999,9,99,9,99,9","10169,1,99999,9",,"MET069METAR ENSF 112320Z AUTO 03018KT 9999NDV BKN036/// 07/00 Q1017 W///S6;",
"01300599999","2010-12-11T23:50:00","4","61.25","1.85","117.65","STATFJORD OIL PLATFORM HELIPORT, FO","FM-15","ENSF ","V020","030,1,N,0093,1","01080,1,9,N","011265,1,N,1","+0070,1","+0000,1","99999,9",,,"07,1,+01080,1,99,9",,,"07,99,1,99,9,99,9,99999,9,99,9,99,9","10169,1,99999,9",,"MET069METAR ENSF 112350Z AUTO 03018KT 9999NDV BKN036/// 07/00 Q1017 W///S6;",
"01300599999","2010-12-12T00:20:00","4","61.25","1.85","117.65","STATFJORD OIL PLATFORM HELIPORT, FO","FM-15","ENSF ","V020","040,1,N,0082,1","01140,1,9,N","011265,1,N,1","+0060,1","-0010,1","99999,9",,,"07,1,+01140,1,99,9",,,"07,99,1,99,9,99,9,99999,9,99,9,99,9","10169,1,99999,9",,"MET070METAR ENSF 120020Z AUTO 04016KT 9999NDV BKN038/// 06/M01 Q1017 W///S6;",
"01300599999","2010-12-12T00:50:00","4","61.25","1.85","117.65","STATFJORD OIL PLATFORM HELIPORT, FO","FM-15","ENSF ","V020","030,1,N,0077,1","01230,1,9,N","011265,1,N,1","+0060,1","-0020,1","99999,9",,,"08,1,+01230,1,99,9",,,"08,99,1,99,9,99,9,99999,9,99,9,99,9","10180,1,99999,9",,"MET070METAR ENSF 120050Z AUTO 03015KT 9999NDV OVC041/// 06/M02 Q1018 W///S6;",
"01300599999","2010-12-12T01:20:00","4","61.25","1.85","117.65","STATFJORD OIL PLATFORM HELIPORT, FO","FM-15","ENSF ","V020","020,1,N,0077,1","01290,1,9,N","011265,1,N,1","+0070,1","-0020,1","99999,9",,,"08,1,+01290,1,99,9",,,"08,99,1,99,9,99,9,99999,9,99,9,99,9","10180,1,99999,9",,"MET070METAR ENSF 120120Z AUTO 02015KT 9999NDV OVC043/// 07/M02 Q1018 W///S6;",
"01300599999","2010-12-12T01:50:00","4","61.25","1.85","117.65","STATFJORD OIL PLATFORM HELIPORT, FO","FM-15","ENSF ","V020","020,1,N,0077,1","01320,1,9,N","011265,1,N,1","+0070,1","-0020,1","99999,9",,,"07,1,+01320,1,99,9",,,"07,99,1,99,9,99,9,99999,9,99,9,99,9","10180,1,99999,9",,"MET070METAR ENSF 120150Z AUTO 02015KT 9999NDV BKN044/// 07/M02 Q1018 W///S6;",
"01300599999","2010-12-12T02:20:00","4","61.25","1.85","117.65","STATFJORD OIL PLATFORM HELIPORT, FO","FM-15","ENSF ","V020","030,1,N,0077,1","01380,1,9,N","011265,1,N,1","+0070,1","-0020,1","99999,9",,,"07,1,+01380,1,99,9",,,"07,99,1,99,9,99,9,99999,9,99,9,99,9","10190,1,99999,9",,"MET070METAR ENSF 120220Z AUTO 03015KT 9999NDV BKN046/// 07/M02 Q1019 W///S6;",
"01300599999","2010-12-12T02:50:00","4","61.25","1.85","117.65","STATFJORD OIL PLATFORM HELIPORT, FO","FM-15","ENSF ","V020","030,1,N,0077,1","01350,1,9,N","011265,1,N,1","+0070,1","-0030,1","99999,9",,,"07,1,+01350,1,99,9",,,"07,99,1,99,9,99,9,99999,9,99,9,99,9","10190,1,99999,9",,"MET070METAR ENSF 120250Z AUTO 03015KT 9999NDV BKN045/// 07/M03 Q1019 W///S6;",
"01300599999","2010-12-12T03:20:00","4","61.25","1.85","117.65","STATFJORD OIL PLATFORM HELIPORT, FO","FM-15","ENSF ","V020","040,1,N,0077,1","22000,1,9,N","011265,1,N,1","+0060,1","-0010,1","99999,9",,,"02,1,+01350,1,99,9",,,"02,99,1,99,9,99,9,99999,9,99,9,99,9","10190,1,99999,9",,"MET070METAR ENSF 120320Z AUTO 04015KT 9999NDV FEW045/// 06/M01 Q1019 W///S6;",
"01300599999","2010-12-12T03:50:00","4","61.25","1.85","117.65","STATFJORD OIL PLATFORM HELIPORT, FO","FM-15","ENSF ","V020","040,1,N,0067,1","22000,1,9,N","011265,1,N,1","+0060,1","-0020,1","99999,9",,,,,,"00,99,1,99,9,99,9,99999,9,99,9,99,9","10200,1,99999,9",,"MET064METAR ENSF 120350Z AUTO 04013KT 9999NDV NCD 06/M02 Q1020 W///S6;","Q01    003SCCGA1"
"01300599999","2010-12-12T04:20:00","4","61.25","1.85","117.65","STATFJORD OIL PLATFORM HELIPORT, FO","FM-15","ENSF ","V020","040,1,N,0062,1","22000,1,9,N","011265,1,N,1","+0060,1","-0020,1","99999,9",,,,,,"00,99,1,99,9,99,9,99999,9,99,9,99,9","10200,1,99999,9",,"MET064METAR ENSF 120420Z AUTO 04012KT 9999NDV NCD 06/M02 Q1020 W///S6;","Q01    003SCCGA1"
"01300599999","2010-12-12T04:50:00","4","61.25","1.85","117.65","STATFJORD OIL PLATFORM HELIPORT, FO","FM-15","ENSF ","V020","050,1,N,0051,1","22000,1,9,N","011265,1,N,1","+0060,1","-0020,1","99999,9",,,,,,"00,99,1,99,9,99,9,99999,9,99,9,99,9","10200,1,99999,9",,"MET064METAR ENSF 120450Z AUTO 05010KT 9999NDV NCD 06/M02 Q1020 W///S6;","Q01    003SCCGA1"
"01300599999","2010-12-12T05:20:00","4","61.25","1.85","117.65","STATFJORD OIL PLATFORM HELIPORT, FO","FM-15","ENSF ","V020","060,1,N,0046,1","22000,1,9,N","011265,1,N,1","+0060,1","-0020,1","99999,9",,,,,,"00,99,1,99,9,99,9,99999,9,99,9,99,9","10200,1,99999,9",,"MET064METAR ENSF 120520Z AUTO 06009KT 9999NDV NCD 06/M02 Q1020 W///S6;","Q01    003SCCGA1"
"01300599999","2010-12-12T05:50:00","4","61.25","1.85","117.65","STATFJORD OIL PLATFORM HELIPORT, FO","FM-15","ENSF ","V020","080,1,N,0036,1","22000,1,9,N","011265,1,N,1","+0060,1","-0020,1","99999,9",,,,,,"00,99,1,99,9,99,9,99999,9,99,9,99,9","10200,1,99999,9",,"MET064METAR ENSF 120550Z AUTO 08007KT 9999NDV NCD 06/M02 Q1020 W///S5;","Q01    003SCCGA1"
"01300599999","2010-12-12T06:20:00","4","61.25","1.85","117.65","STATFJORD OIL PLATFORM HELIPORT, FO","FM-15","ENSF ","V020","070,1,N,0031,1","22000,1,9,N","011265,1,N,1","+0060,1","-0020,1","99999,9",,,,,,"00,99,1,99,9,99,9,99999,9,99,9,99,9","10210,1,99999,9",,"MET064METAR ENSF 120620Z AUTO 07006KT 9999NDV NCD 06/M02 Q1021 W///S5;","Q01    003SCCGA1"
"01300599999","2010-12-12T06:50:00","4","61.25","1.85","117.65","STATFJORD OIL PLATFORM HELIPORT, FO","FM-15","ENSF ","V020","070,1,N,0026,1","22000,1,9,N","011265,1,N,1","+0060,1","-0020,1","99999,9",,,"02,1,+01170,1,99,9",,,"02,99,1,99,9,99,9,99999,9,99,9,99,9","10210,1,99999,9",,"MET070METAR ENSF 120650Z AUTO 07005KT 9999NDV FEW039/// 06/M02 Q1021 W///S5;",
"01300599999","2010-12-12T07:20:00","4","61.25","1.85","117.65","STATFJORD OIL PLATFORM HELIPORT, FO","FM-15","ENSF ","V020","090,1,N,0026,1","22000,1,9,N","011265,1,N,1","+0070,1","-0020,1","99999,9",,,"02,1,+01170,1,99,9",,,"02,99,1,99,9,99,9,99999,9,99,9,99,9","10220,1,99999,9",,"MET070METAR ENSF 120720Z AUTO 09005KT 9999NDV FEW039/// 07/M02 Q1022 W///S5;",
"01300599999","2010-12-12T07:50:00","4","61.25","1.85","117.65","STATFJORD OIL PLATFORM HELIPORT, FO","FM-15","ENSF ","V020","100,1,N,0036,1","01440,1,9,N","011265,1,N,1","+0070,1","-0020,1","99999,9",,,"07,1,+01440,1,99,9","07,1,+05100,1,99,9",,"07,99,1,99,9,99,9,99999,9,99,9,99,9","10220,1,99999,9",,"MET088METAR ENSF 120750Z AUTO 10007KT 070V180 9999NDV BKN048/// BKN170/// 07/M02 Q1022 W///S5;",
"01300599999","2010-12-12T08:20:00","4","61.25","1.85","117.65","STATFJORD OIL PLATFORM HELIPORT, FO","FM-15","ENSF ","V020","140,1,N,0021,1","01380,1,9,N","011265,1,N,1","+0070,1","-0020,1","99999,9",,,"07,1,+01380,1,99,9","07,1,+05100,1,99,9",,"07,99,1,99,9,99,9,99999,9,99,9,99,9","10220,1,99999,9","0072,1","MET083METAR ENSF 120820Z AUTO 14004G14KT 9999NDV BKN046/// BKN170/// 07/M02 Q1022 W///S5;",
"01300599999","2010-12-12T08:50:00","4","61.25","1.85","117.65","STATFJORD OIL PLATFORM HELIPORT, FO","FM-15","ENSF ","V020","180,1,N,0036,1","00990,1,9,N","011265,1,N,1","+0070,1","-0020,1","99999,9",,,"07,1,+00990,1,99,9",,,"07,99,1,99,9,99,9,99999,9,99,9,99,9","10230,1,99999,9",,"MET070METAR ENSF 120850Z AUTO 18007KT 9999NDV BKN033/// 07/M02 Q1023 W///S5;",
"01300599999","2010-12-12T09:20:00","4","61.25","1.85","117.65","STATFJORD OIL PLATFORM HELIPORT, FO","FM-15","ENSF ","V020","190,1,N,0031,1","01410,1,9,N","011265,1,N,1","+0060,1","-0010,1","99999,9",,,"02,1,+00960,1,99,9","07,1,+01410,1,99,9",,"07,99,1,99,9,99,9,99999,9,99,9,99,9","10230,1,99999,9",,"MET080METAR ENSF 120920Z AUTO 19006KT 9999NDV FEW032/// BKN047/// 06/M01 Q1023 W///S5;",
"01300599999","2010-12-12T09:50:00","4","61.25","1.85","117.65","STATFJORD OIL PLATFORM HELIPORT, FO","FM-15","ENSF ","V020","220,1,N,0041,1","01110,1,9,N","011265,1,N,1","+0060,1","-0020,1","99999,9",,,"07,1,+01110,1,99,9",,,"07,99,1,99,9,99,9,99999,9,99,9,99,9","10230,1,99999,9",,"MET070METAR ENSF 120950Z AUTO 22008KT 9999NDV BKN037/// 06/M02 Q1023 W///S5;",
"01300599999","2010-12-12T10:20:00","4","61.25","1.85","117.65","STATFJORD OIL PLATFORM HELIPORT, FO","FM-15","ENSF ","V020","240,1,N,0062,1","00990,1,9,N","011265,1,N,1","+0060,1","+0000,1","99999,9",,,"07,1,+00990,1,99,9",,,"07,99,1,99,9,99,9,99999,9,99,9,99,9","10230,1,99999,9",,"MET069METAR ENSF 121020Z AUTO 24012KT 9999NDV BKN033/// 06/00 Q1023 W///S5;",
"01300599999","2010-12-12T10:50:00","4","61.25","1.85","117.65","STATFJORD OIL PLATFORM HELIPORT, FO","FM-15","ENSF ","V020","240,1,N,0072,1","00750,1,9,N","011265,1,N,1","+0050,1","+0010,1","99999,9","61,1",,"08,1,+00750,1,99,9",,,"08,99,1,99,9,99,9,99999,9,99,9,99,9","10220,1,99999,9",,"MET073METAR ENSF 121050Z AUTO 24014KT 9999NDV -RA OVC025/// 05/01 Q1022 W///S5;",
"01300599999","2010-12-12T11:20:00","4","61.25","1.85","117.65","STATFJORD OIL PLATFORM HELIPORT, FO","FM-15","ENSF ","V020","220,1,N,0067,1","00660,1,9,N","011265,1,N,1","+0050,1","+0020,1","99999,9","81,1",,"08,1,+00660,1,99,9",,,"08,99,1,99,9,99,9,99999,9,99,9,99,9","10220,1,99999,9",,"MET075METAR ENSF 121120Z AUTO 22013KT 9999NDV -SHRA OVC022/// 05/02 Q1022 W///S5;",
"01300599999","2010-12-12T11:50:00","4","61.25","1.85","117.65","STATFJORD OIL PLATFORM HELIPORT, FO","FM-15","ENSF ","V020","220,1,N,0077,1","00270,1,9,N","011265,1,N,1","+0040,1","+0020,1","99999,9","81,1",,"08,1,+00270,1,99,9",,,"08,99,1,99,9,99,9,99999,9,99,9,99,9","10220,1,99999,9",,"MET075METAR ENSF 121150Z AUTO 22015KT 9999NDV -SHRA OVC009/// 04/02 Q1022 W///S5;",
"01300599999","2010-12-12T12:20:00","4","61.25","1.85","117.65","STATFJORD OIL PLATFORM HELIPORT, FO","FM-15","ENSF ","V020","220,1,N,0062,1","00240,1,9,N","011265,1,N,1","+0040,1","+0030,1","99999,9","81,1",,"08,1,+00240,1,99,9",,,"08,99,1,99,9,99,9,99999,9,99,9,99,9","10230,1,99999,9",,"MET075METAR ENSF 121220Z AUTO 22012KT 9999NDV -SHRA OVC008/// 04/03 Q1023 W///S5;",
"01300599999","2010-12-12T12:50:00","4","61.25","1.85","117.65","STATFJORD OIL PLATFORM HELIPORT, FO","FM-15","ENSF ","V020","310,1,N,0067,1","00240,1,9,N","011265,1,N,1","+0050,1","+0030,1","99999,9",,,"07,1,+00240,1,99,9",,,"07,99,1,99,9,99,9,99999,9,99,9,99,9","10220,1,99999,9",,"MET069METAR ENSF 121250Z AUTO 31013KT 9999NDV BKN008/// 05/03 Q1022 W///S4;",
"01300599999","2010-12-12T13:20:00","4","61.25","1.85","117.65","STATFJORD OIL PLATFORM HELIPORT, FO","FM-15","ENSF ","V020","320,1,N,0082,1","00480,1,9,N","011265,1,N,1","+0050,1","+0030,1","99999,9",,,"07,1,+00480,1,99,9","07,1,+03300,1,99,9",,"07,99,1,99,9,99,9,99999,9,99,9,99,9","10220,1,99999,9",,"MET079METAR ENSF 121320Z AUTO 32016KT 9999NDV BKN016/// BKN110/// 05/03 Q1022 W///S4;",
"01300599999","2010-12-12T13:50:00","4","61.25","1.85","117.65","STATFJORD OIL PLATFORM HELIPORT, FO","FM-15","ENSF ","V020","310,1,N,0098,1","00420,1,9,N","011265,1,N,1","+0050,1","+0030,1","99999,9",,,"07,1,+00420,1,99,9","07,1,+03000,1,99,9",,"07,99,1,99,9,99,9,99999,9,99,9,99,9","10220,1,99999,9",,"MET079METAR ENSF 121350Z AUTO 31019KT 9999NDV BKN014/// BKN100/// 05/03 Q1022 W///S4;",
"01300599999","2010-12-12T14:20:00","4","61.25","1.85","117.65","STATFJORD OIL PLATFORM HELIPORT, FO","FM-15","ENSF ","V020","320,1,N,0093,1","01110,1,C,N","011265,1,N,1","+0050,1","+0030,1","99999,9","81,1",,"04,1,+00360,1,99,9","04,1,+01110,1,99,9","07,1,+03000,1,99,9","07,99,1,99,9,99,9,99999,9,99,9,99,9","10220,1,99999,9",,"MET095METAR ENSF 121420Z AUTO 32018KT 9999NDV -SHRA SCT012/// SCT037/// BKN100/// 05/03 Q1022 W///S5;",
"01300599999","2010-12-12T14:50:00","4","61.25","1.85","117.65","STATFJORD OIL PLATFORM HELIPORT, FO","FM-15","ENSF ","V020","320,1,N,0087,1","00420,1,9,N","011265,1,N,1","+0050,1","+0030,1","99999,9",,,"07,1,+00420,1,99,9","07,1,+03000,1,99,9",,"07,99,1,99,9,99,9,99999,9,99,9,99,9","10220,1,99999,9",,"MET079METAR ENSF 121450Z AUTO 32017KT 9999NDV BKN014/// BKN100/// 05/03 Q1022 W///S5;",
"01300599999","2010-12-12T15:20:00","4","61.25","1.85","117.65","STATFJORD OIL PLATFORM HELIPORT, FO","FM-15","ENSF ","V020","320,1,N,0093,1","22000,1,9,N","011265,1,N,1","+0050,1","+0030,1","99999,9",,,"04,1,+00450,1,99,9",,,"04,99,1,99,9,99,9,99999,9,99,9,99,9","10220,1,99999,9",,"MET069METAR ENSF 121520Z AUTO 32018KT 9999NDV SCT015/// 05/03 Q1022 W///S4;",
"01300599999","2010-12-12T15:50:00","4","61.25","1.85","117.65","STATFJORD OIL PLATFORM HELIPORT, FO","FM-15","ENSF ","V020","320,1,N,0098,1","00540,1,9,N","011265,1,N,1","+0050,1","+0030,1","99999,9",,,"02,1,+00420,1,99,9","07,1,+00540,1,99,9",,"07,99,1,99,9,99,9,99999,9,99,9,99,9","10220,1,99999,9",,"MET079METAR ENSF 121550Z AUTO 32019KT 9999NDV FEW014/// BKN018/// 05/03 Q1022 W///S4;",
"01300599999","2010-12-12T16:20:00","4","61.25","1.85","117.65","STATFJORD OIL PLATFORM HELIPORT, FO","FM-15","ENSF ","V020","310,1,N,0082,1","00480,1,9,N","011265,1,N,1","+0050,1","+0020,1","99999,9",,,"07,1,+00480,1,99,9","07,1,+02400,1,99,9",,"07,99,1,99,9,99,9,99999,9,99,9,99,9","10220,1,99999,9",,"MET079METAR ENSF 121620Z AUTO 31016KT 9999NDV BKN016/// BKN088/// 05/02 Q1022 W///S5;",
"01300599999","2010-12-12T16:50:00","4","61.25","1.85","117.65","STATFJORD OIL PLATFORM HELIPORT, FO","FM-15","ENSF ","V020","310,1,N,0098,1","00660,1,9,N","011265,1,N,1","+0050,1","+0010,1","99999,9",,,"07,1,+00660,1,99,9","07,1,+02400,1,99,9",,"07,99,1,99,9,99,9,99999,9,99,9,99,9","10220,1,99999,9",,"MET079METAR ENSF 121650Z AUTO 31019KT 9999NDV BKN022/// BKN084/// 05/01 Q1022 W///S4;",
"01300599999","2010-12-12T17:20:00","4","61.25","1.85","117.65","STATFJORD OIL PLATFORM HELIPORT, FO","FM-15","ENSF ","V020","320,1,N,0093,1","00660,1,9,N","011265,1,N,1","+0050,1","+0000,1","99999,9",,,"08,1,+00660,1,99,9",,,"08,99,1,99,9,99,9,99999,9,99,9,99,9","10220,1,99999,9",,"MET069METAR ENSF 121720Z AUTO 32018KT 9999NDV OVC022/// 05/00 Q1022 W///S5;",
"01300599999","2010-12-12T17:50:00","4","61.25","1.85","117.65","STATFJORD OIL PLATFORM HELIPORT, FO","FM-15","ENSF ","V020","320,1,N,0098,1","00720,1,9,N","011265,1,N,1","+0050,1","+0000,1","99999,9",,,"07,1,+00720,1,99,9",,,"07,99,1,99,9,99,9,99999,9,99,9,99,9","10220,1,99999,9",,"MET069METAR ENSF 121750Z AUTO 32019KT 9999NDV BKN024/// 05/00 Q1022 W///S5;",
"01300599999","2010-12-12T18:20:00","4","61.25","1.85","117.65","STATFJORD OIL PLATFORM HELIPORT, FO","FM-15","ENSF ","V020","320,1,N,0093,1","00720,1,9,N","011265,1,N,1","+0050,1","+0000,1","99999,9",,,"08,1,+00720,1,99,9",,,"08,99,1,99,9,99,9,99999,9,99,9,99,9","10220,1,99999,9",,"MET069METAR ENSF 121820Z AUTO 32018KT 9999NDV OVC024/// 05/00 Q1022 W///S5;",
"01300599999","2010-12-12T18:50:00","4","61.25","1.85","117.65","STATFJORD OIL PLATFORM HELIPORT, FO","FM-15","ENSF ","V020","320,1,N,0093,1","00690,1,9,N","011265,1,N,1","+0050,1","+0010,1","99999,9",,,"08,1,+00690,1,99,9",,,"08,99,1,99,9,99,9,99999,9,99,9,99,9","10220,1,99999,9",,"MET069METAR ENSF 121850Z AUTO 32018KT 9999NDV OVC023/// 05/01 Q1022 W///S5;",
"01300599999","2010-12-12T19:20:00","4","61.25","1.85","117.65","STATFJORD OIL PLATFORM HELIPORT, FO","FM-15","ENSF ","V020","320,1,N,0093,1","00660,1,9,N","011265,1,N,1","+0050,1","+0010,1","99999,9",,,"08,1,+00660,1,99,9",,,"08,99,1,99,9,99,9,99999,9,99,9,99,9","10220,1,99999,9",,"MET069METAR ENSF 121920Z AUTO 32018KT 9999NDV OVC022/// 05/01 Q1022 W///S5;",
"01300599999","2010-12-12T19:50:00","4","61.25","1.85","117.65","STATFJORD OIL PLATFORM HELIPORT, FO","FM-15","ENSF ","V020","320,1,N,0087,1","00690,1,9,N","011265,1,N,1","+0050,1","+0010,1","99999,9",,,"07,1,+00690,1,99,9","07,1,+01500,1,99,9",,"07,99,1,99,9,99,9,99999,9,99,9,99,9","10220,1,99999,9",,"MET079METAR ENSF 121950Z AUTO 32017KT 9999NDV BKN023/// BKN050/// 05/01 Q1022 W///S4;",
"01300599999","2010-12-12T20:20:00","4","61.25","1.85","117.65","STATFJORD OIL PLATFORM HELIPORT, FO","FM-15","ENSF ","V020","330,1,N,0087,1","00720,1,9,N","011265,1,N,1","+0050,1","+0010,1","99999,9",,,"07,1,+00720,1,99,9","07,1,+02100,1,99,9",,"07,99,1,99,9,99,9,99999,9,99,9,99,9","10220,1,99999,9",,"MET079METAR ENSF 122020Z AUTO 33017KT 9999NDV BKN024/// BKN070/// 05/01 Q1022 W///S4;",
"01300599999","2010-12-12T20:50:00","4","61.25","1.85","117.65","STATFJORD OIL PLATFORM HELIPORT, FO","FM-15","ENSF ","V020","320,1,N,0087,1","00630,1,9,N","011265,1,N,1","+0050,1","+0010,1","99999,9",,,"07,1,+00630,1,99,9","07,1,+02100,1,99,9",,"07,99,1,99,9,99,9,99999,9,99,9,99,9","10220,1,99999,9",,"MET079METAR ENSF 122050Z AUTO 32017KT 9999NDV BKN021/// BKN070/// 05/01 Q1022 W///S4;",
"01300599999","2010-12-12T21:20:00","4","61.25","1.85","117.65","STATFJORD OIL PLATFORM HELIPORT, FO","FM-15","ENSF ","V020","320,1,N,0087,1","00660,1,9,N","011265,1,N,1","+0060,1","+0020,1","99999,9",,,"07,1,+00660,1,99,9","07,1,+01800,1,99,9",,"07,99,1,99,9,99,9,99999,9,99,9,99,9","10220,1,99999,9",,"MET079METAR ENSF 122120Z AUTO 32017KT 9999NDV BKN022/// BKN066/// 06/02 Q1022 W///S4;",
"01300599999","2010-12-12T21:50:00","4","61.25","1.85","117.65","STATFJORD OIL PLATFORM HELIPORT, FO","FM-15","ENSF ","V020","320,1,N,0093,1","00600,1,9,N","011265,1,N,1","+0060,1","+0020,1","99999,9",,,"07,1,+00600,1,99,9","07,1,+01800,1,99,9",,"07,99,1,99,9,99,9,99999,9,99,9,99,9","10220,1,99999,9",,"MET079METAR ENSF 122150Z AUTO 32018KT 9999NDV BKN020/// BKN062/// 06/02 Q1022 W///S5;",
"01300599999","2010-12-12T22:20:00","4","61.25","1.85","117.65","STATFJORD OIL PLATFORM HELIPORT, FO","FM-15","ENSF ","V020","330,1,N,0093,1","00660,1,9,N","011265,1,N,1","+0060,1","+0020,1","99999,9",,,"08,1,+00660,1,99,9",,,"08,99,1,99,9,99,9,99999,9,99,9,99,9","10220,1,99999,9",,"MET069METAR ENSF 122220Z AUTO 33018KT 9999NDV OVC022/// 06/02 Q1022 W///S5;",
"01300599999","2010-12-12T22:50:00","4","61.25","1.85","117.65","STATFJORD OIL PLATFORM HELIPORT, FO","FM-15","ENSF ","V020","320,1,N,0087,1","00720,1,9,N","011265,1,N,1","+0060,1","+0020,1","99999,9",,,"07,1,+00720,1,99,9",,,"07,99,1,99,9,99,9,99999,9,99,9,99,9","10220,1,99999,9",,"MET069METAR ENSF 122250Z AUTO 32017KT 9999NDV BKN024/// 06/02 Q1022 W///S5;",
"01300599999","2010-12-12T23:20:00","4","61.25","1.85","117.65","STATFJORD OIL PLATFORM HELIPORT, FO","FM-15","ENSF ","V020","320,1,N,0082,1","00660,1,9,N","011265,1,N,1","+0060,1","+0020,1","99999,9",,,"07,1,+00660,1,99,9","07,1,+02100,1,99,9",,"07,99,1,99,9,99,9,99999,9,99,9,99,9","10220,1,99999,9",,"MET079METAR ENSF 122320Z AUTO 32016KT 9999NDV BKN022/// BKN076/// 06/02 Q1022 W///S5;",
"01300599999","2010-12-12T23:50:00","4","61.25","1.85","117.65","STATFJORD OIL PLATFORM HELIPORT, FO","FM-15","ENSF ","V020","320,1,N,0087,1","00690,1,9,N","011265,1,N,1","+0060,1","+0020,1","99999,9",,,"07,1,+00690,1,99,9","07,1,+02100,1,99,9",,"07,99,1,99,9,99,9,99999,9,99,9,99,9","10220,1,99999,9",,"MET079METAR ENSF 122350Z AUTO 32017KT 9999NDV BKN023/// BKN075/// 06/02 Q1022 W///S5;",
"01300599999","2010-12-13T00:20:00","4","61.25","1.85","117.65","STATFJORD OIL PLATFORM HELIPORT, FO","FM-15","ENSF ","V020","320,1,N,0082,1","02100,1,9,N","011265,1,N,1","+0070,1","+0020,1","99999,9",,,"02,1,+00720,1,99,9","07,1,+02100,1,99,9",,"07,99,1,99,9,99,9,99999,9,99,9,99,9","10220,1,99999,9",,"MET079METAR ENSF 130020Z AUTO 32016KT 9999NDV FEW024/// BKN074/// 07/02 Q1022 W///S4;",
"01300599999","2010-12-13T00:50:00","4","61.25","1.85","117.65","STATFJORD OIL PLATFORM HELIPORT, FO","FM-15","ENSF ","V020","320,1,N,0082,1","02100,1,9,N","011265,1,N,1","+0070,1","+0020,1","99999,9",,,"02,1,+00720,1,99,9","07,1,+02100,1,99,9",,"07,99,1,99,9,99,9,99999,9,99,9,99,9","10220,1,99999,9",,"MET079METAR ENSF 130050Z AUTO 32016KT 9999NDV FEW024/// BKN073/// 07/02 Q1022 W///S4;",
"01300599999","2010-12-13T01:20:00","4","61.25","1.85","117.65","STATFJORD OIL PLATFORM HELIPORT, FO","FM-15","ENSF ","V020","330,1,N,0077,1","02100,1,9,N","011265,1,N,1","+0070,1","+0030,1","99999,9",,,"04,1,+00660,1,99,9","07,1,+02100,1,99,9",,"07,99,1,99,9,99,9,99999,9,99,9,99,9","10220,1,99999,9",,"MET079METAR ENSF 130120Z AUTO 33015KT 9999NDV SCT022/// BKN072/// 07/03 Q1022 W///S4;",
"01300599999","2010-12-13T01:50:00","4","61.25","1.85","117.65","STATFJORD OIL PLATFORM HELIPORT, FO","FM-15","ENSF ","V020","340,1,N,0057,1","00660,1,9,N","011265,1,N,1","+0070,1","+0030,1","99999,9",,,"07,1,+00660,1,99,9","07,1,+01500,1,99,9",,"07,99,1,99,9,99,9,99999,9,99,9,99,9","10220,1,99999,9",,"MET079METAR ENSF 130150Z AUTO 34011KT 9999NDV BKN022/// BKN057/// 07/03 Q1022 W///S4;",
"01300599999","2010-12-13T02:20:00","4","61.25","1.85","117.65","STATFJORD OIL PLATFORM HELIPORT, FO","FM-15","ENSF ","V020","330,1,N,0046,1","00690,1,9,N","011265,1,N,1","+0070,1","+0030,1","99999,9",,,"07,1,+00690,1,99,9","07,1,+01500,1,99,9",,"07,99,1,99,9,99,9,99999,9,99,9,99,9","10220,1,99999,9",,"MET079METAR ENSF 130220Z AUTO 33009KT 9999NDV BKN023/// BKN057/// 07/03 Q1022 W///S4;",
"01300599999","2010-12-13T02:50:00","4","61.25","1.85","117.65","STATFJORD OIL PLATFORM HELIPORT, FO","FM-15","ENSF ","V020","320,1,N,0041,1","00600,1,9,N","011265,1,N,1","+0070,1","+0040,1","99999,9","81,1",,"08,1,+00600,1,99,9",,,"08,99,1,99,9,99,9,99999,9,99,9,99,9","10220,1,99999,9",,"MET075METAR ENSF 130250Z AUTO 32008KT 9999NDV -SHRA OVC020/// 07/04 Q1022 W///S4;",
"01300599999","2010-12-13T03:20:00","4","61.25","1.85","117.65","STATFJORD OIL PLATFORM HELIPORT, FO","FM-15","ENSF ","V020","310,1,N,0041,1","00450,1,9,N","011265,1,N,1","+0070,1","+0040,1","99999,9",,,"08,1,+00450,1,99,9",,,"08,99,1,99,9,99,9,99999,9,99,9,99,9","10220,1,99999,9",,"MET069METAR ENSF 130320Z AUTO 31008KT 9999NDV OVC015/// 07/04 Q1022 W///S4;",
"01300599999","2010-12-13T03:50:00","4","61.25","1.85","117.65","STATFJORD OIL PLATFORM HELIPORT, FO","FM-15","ENSF ","V020","320,1,N,0046,1","00780,1,9,N","009000,1,N,1","+0060,1","+0040,1","99999,9","81,1",,"08,1,+00780,1,99,9",,,"08,99,1,99,9,99,9,99999,9,99,9,99,9","10220,1,99999,9",,"MET075METAR ENSF 130350Z AUTO 32009KT 9000NDV -SHRA OVC026/// 06/04 Q1022 W///S4;",
"01300599999","2010-12-13T04:20:00","4","61.25","1.85","117.65","STATFJORD OIL PLATFORM HELIPORT, FO","FM-15","ENSF ","V020","320,1,N,0041,1","00690,1,9,N","011265,1,N,1","+0070,1","+0050,1","99999,9",,,"08,1,+00690,1,99,9",,,"08,99,1,99,9,99,9,99999,9,99,9,99,9","10220,1,99999,9",,"MET069METAR ENSF 130420Z AUTO 32008KT 9999NDV OVC023/// 07/05 Q1022 W///S4;",
"01300599999","2010-12-13T04:50:00","4","61.25","1.85","117.65","STATFJORD OIL PLATFORM HELIPORT, FO","FM-15","ENSF ","V020","310,1,N,0057,1","00390,1,9,N","011265,1,N,1","+0070,1","+0040,1","99999,9","81,1",,"07,1,+00390,1,99,9","07,1,+00930,1,99,9",,"07,99,1,99,9,99,9,99999,9,99,9,99,9","10220,1,99999,9",,"MET085METAR ENSF 130450Z AUTO 31011KT 9999NDV -SHRA BKN013/// BKN031/// 07/04 Q1022 W///S4;",
"01300599999","2010-12-13T05:20:00","4","61.25","1.85","117.65","STATFJORD OIL PLATFORM HELIPORT, FO","FM-15","ENSF ","V020","300,1,N,0031,1","00720,1,9,N","011265,1,N,1","+0060,1","+0050,1","99999,9","81,1",,"02,1,+00450,1,99,9","08,1,+00720,1,99,9",,"08,99,1,99,9,99,9,99999,9,99,9,99,9","10220,1,99999,9",,"MET085METAR ENSF 130520Z AUTO 30006KT 9999NDV -SHRA FEW015/// OVC024/// 06/05 Q1022 W///S4;",
"01300599999","2010-12-13T05:50:00","4","61.25","1.85","117.65","STATFJORD OIL PLATFORM HELIPORT, FO","FM-15","ENSF ","V020","310,1,N,0026,1","01050,1,9,N","011265,1,N,1","+0070,1","+0050,1","99999,9",,,"07,1,+01050,1,99,9",,,"07,99,1,99,9,99,9,99999,9,99,9,99,9","10220,1,99999,9",,"MET069METAR ENSF 130550Z AUTO 31005KT 9999NDV BKN035/// 07/05 Q1022 W///S4;",
"01300599999","2010-12-13T06:20:00","4","61.25","1.85","117.65","STATFJORD OIL PLATFORM HELIPORT, FO","FM-15","ENSF ","V020","999,9,C,0000,1","00960,1,9,N","011265,1,N,1","+0070,1","+0050,1","99999,9",,,"07,1,+00960,1,99,9",,,"07,99,1,99,9,99,9,99999,9,99,9,99,9","10230,1,99999,9",,"MET069METAR ENSF 130620Z AUTO 00000KT 9999NDV BKN032/// 07/05 Q1023 W///S4;",
"01300599999","2010-12-13T06:50:00","4","61.25","1.85","117.65","STATFJORD OIL PLATFORM HELIPORT, FO","FM-15","ENSF ","V020","290,1,N,0021,1","00600,1,9,N","007000,1,N,1","+0070,1","+0050,1","99999,9",,,"08,1,+00600,1,99,9",,,"08,99,1,99,9,99,9,99999,9,99,9,99,9","10220,1,99999,9",,"MET077METAR ENSF 130650Z AUTO 29004KT 260V330 7000NDV OVC020/// 07/05 Q1022 W///S4;",
"01300599999","2010-12-13T07:20:00","4","61.25","1.85","117.65","STATFJORD OIL PLATFORM HELIPORT, FO","FM-15","ENSF ","V020","290,1,N,0015,1","00510,1,9,N","011265,1,N,1","+0070,1","+0050,1","99999,9","81,1",,"08,1,+00510,1,99,9",,,"08,99,1,99,9,99,9,99999,9,99,9,99,9","10230,1,99999,9",,"MET075METAR ENSF 130720Z AUTO 29003KT 9999NDV -SHRA OVC017/// 07/05 Q1023 W///S4;",
"01300599999","2010-12-13T07:50:00","4","61.25","1.85","117.65","STATFJORD OIL PLATFORM HELIPORT, FO","FM-15","ENSF ","V020","999,9,V,0010,1","00360,1,9,N","009000,1,N,1","+0060,1","+0060,1","99999,9","81,1",,"08,1,+00360,1,99,9",,,"08,99,1,99,9,99,9,99999,9,99,9,99,9","10230,1,99999,9",,"MET075METAR ENSF 130750Z AUTO VRB02KT 9000NDV -SHRA OVC012/// 06/06 Q1023 W///S4;",
"01300599999","2010-12-13T08:20:00","4","61.25","1.85","117.65","STATFJORD OIL PLATFORM HELIPORT, FO","FM-15","ENSF ","V020","999,9,C,0000,1","00330,1,9,N","011265,1,N,1","+0070,1","+0060,1","99999,9",,,"02,1,+00150,1,99,9","08,1,+00330,1,99,9",,"08,99,1,99,9,99,9,99999,9,99,9,99,9","10230,1,99999,9",,"MET079METAR ENSF 130820Z AUTO 00000KT 9999NDV FEW005/// OVC011/// 07/06 Q1023 W///S4;",
"01300599999","2010-12-13T08:50:00","4","61.25","1.85","117.65","STATFJORD OIL PLATFORM HELIPORT, FO","FM-15","ENSF ","V020","030,1,N,0005,1","00660,1,9,N","011265,1,N,1","+0070,1","+0060,1","99999,9",,,"07,1,+00660,1,99,9","07,1,+00960,1,99,9",,"07,99,1,99,9,99,9,99999,9,99,9,99,9","10240,1,99999,9",,"MET079METAR ENSF 130850Z AUTO 03001KT 9999NDV BKN022/// BKN032/// 07/06 Q1024 W///S4;",
"01300599999","2010-12-13T09:20:00","4","61.25","1.85","117.65","STATFJORD OIL PLATFORM HELIPORT, FO","FM-15","ENSF ","V020","999,9,C,0000,1","00750,1,9,N","011265,1,N,1","+0070,1","+0060,1","99999,9",,,"07,1,+00750,1,99,9",,,"07,99,1,99,9,99,9,99999,9,99,9,99,9","10240,1,99999,9",,"MET069METAR ENSF 130920Z AUTO 00000KT 9999NDV BKN025/// 07/06 Q1024 W///S3;",
"01300599999","2010-12-13T09:50:00","4","61.25","1.85","117.65","STATFJORD OIL PLATFORM HELIPORT, FO","FM-15","ENSF ","V020","340,1,N,0036,1","00750,1,C,N","011265,1,N,1","+0070,1","+0050,1","99999,9",,,"02,1,+00240,1,99,9","04,1,+00750,1,99,9","07,1,+01110,1,99,9","07,99,1,99,9,99,9,99999,9,99,9,99,9","10240,1,99999,9",,"MET089METAR ENSF 130950Z AUTO 34007KT 9999NDV FEW008/// SCT025/// BKN037/// 07/05 Q1024 W///S3;",
"01300599999","2010-12-13T10:20:00","4","61.25","1.85","117.65","STATFJORD OIL PLATFORM HELIPORT, FO","FM-15","ENSF ","V020","330,1,N,0026,1","00600,1,9,N","011265,1,N,1","+0060,1","+0050,1","99999,9",,,"02,1,+00240,1,99,9","08,1,+00600,1,99,9",,"08,99,1,99,9,99,9,99999,9,99,9,99,9","10240,1,99999,9",,"MET087METAR ENSF 131020Z AUTO 33005KT 290V020 9999NDV FEW008/// OVC020/// 06/05 Q1024 W///S4;",
"01300599999","2010-12-13T10:50:00","4","61.25","1.85","117.65","STATFJORD OIL PLATFORM HELIPORT, FO","FM-15","ENSF ","V020","340,1,N,0031,1","01140,1,9,N","011265,1,N,1","+0060,1","+0050,1","99999,9",,,"02,1,+00270,1,99,9","08,1,+01140,1,99,9",,"08,99,1,99,9,99,9,99999,9,99,9,99,9","10240,1,99999,9",,"MET087METAR ENSF 131050Z AUTO 34006KT 300V010 9999NDV FEW009/// OVC038/// 06/05 Q1024 W///S4;",
"01300599999","2010-12-13T11:20:00","4","61.25","1.85","117.65","STATFJORD OIL PLATFORM HELIPORT, FO","FM-15","ENSF ","V020","350,1,N,0046,1","01170,1,9,N","011265,1,N,1","+0060,1","+0050,1","99999,9",,,"04,1,+00810,1,99,9","07,1,+01170,1,99,9",,"07,99,1,99,9,99,9,99999,9,99,9,99,9","10240,1,99999,9",,"MET079METAR ENSF 131120Z AUTO 35009KT 9999NDV SCT027/// BKN039/// 06/05 Q1024 W///S4;",
"01300599999","2010-12-13T11:50:00","4","61.25","1.85","117.65","STATFJORD OIL PLATFORM HELIPORT, FO","FM-15","ENSF ","V020","360,1,N,0031,1","01350,1,9,N","011265,1,N,1","+0070,1","+0040,1","99999,9",,,"02,1,+00870,1,99,9","07,1,+01350,1,99,9",,"07,99,1,99,9,99,9,99999,9,99,9,99,9","10240,1,99999,9",,"MET079METAR ENSF 131150Z AUTO 36006KT 9999NDV FEW029/// BKN045/// 07/04 Q1024 W///S4;",
"01300599999","2010-12-13T12:20:00","4","61.25","1.85","117.65","STATFJORD OIL PLATFORM HELIPORT, FO","FM-15","ENSF ","V020","010,1,N,0046,1","01020,1,9,N","011265,1,N,1","+0070,1","+0040,1","99999,9",,,"08,1,+01020,1,99,9",,,"08,99,1,99,9,99,9,99999,9,99,9,99,9","10240,1,99999,9",,"MET069METAR ENSF 131220Z AUTO 01009KT 9999NDV OVC034/// 07/04 Q1024 W///S4;",
"01300599999","2010-12-13T12:50:00","4","61.25","1.85","117.65","STATFJORD OIL PLATFORM HELIPORT, FO","FM-15","ENSF ","V020","350,1,N,0046,1","00960,1,9,N","011265,1,N,1","+0070,1","+0030,1","99999,9",,,"08,1,+00960,1,99,9",,,"08,99,1,99,9,99,9,99999,9,99,9,99,9","10251,1,99999,9",,"MET069METAR ENSF 131250Z AUTO 35009KT 9999NDV OVC032/// 07/03 Q1025 W///S4;",
"01300599999","2010-12-13T13:20:00","4","61.25","1.85","117.65","STATFJORD OIL PLATFORM HELIPORT, FO","FM-15","ENSF ","V020","010,1,N,0041,1","00600,1,9,N","011265,1,N,1","+0070,1","+0030,1","99999,9",,,"08,1,+00600,1,99,9",,,"08,99,1,99,9,99,9,99999,9,99,9,99,9","10251,1,99999,9",,"MET069METAR ENSF 131320Z AUTO 01008KT 9999NDV OVC020/// 07/03 Q1025 W///S4;",
"01300599999","2010-12-13T13:50:00","4","61.25","1.85","117.65","STATFJORD OIL PLATFORM HELIPORT, FO","FM-15","ENSF ","V020","360,1,N,0041,1","00600,1,9,N","011265,1,N,1","+0070,1","+0040,1","99999,9",,,"07,1,+00600,1,99,9",,,"07,99,1,99,9,99,9,99999,9,99,9,99,9","10251,1,99999,9",,"MET069METAR ENSF 131350Z AUTO 36008KT 9999NDV BKN020/// 07/04 Q1025 W///S4;",
"01300599999","2010-12-13T14:20:00","4","61.25","1.85","117.65","STATFJORD OIL PLATFORM HELIPORT, FO","FM-15","ENSF ","V020","360,1,N,0021,1","00810,1,9,N","000900,1,N,1","+0070,1","+0030,1","99999,9","10,1",,"07,1,+00810,1,99,9",,,"07,99,1,99,9,99,9,99999,9,99,9,99,9","10251,1,99999,9",,"MET072METAR ENSF 131420Z AUTO 36004KT 0900NDV BR BKN027/// 07/03 Q1025 W///S4;",
"01300599999","2010-12-13T14:50:00","4","61.25","1.85","117.65","STATFJORD OIL PLATFORM HELIPORT, FO","FM-15","ENSF ","V020","360,1,N,0026,1","00930,1,9,N","011265,1,N,1","+0070,1","+0030,1","99999,9",,,"07,1,+00930,1,99,9",,,"07,99,1,99,9,99,9,99999,9,99,9,99,9","10261,1,99999,9",,"MET069METAR ENSF 131450Z AUTO 36005KT 9999NDV BKN031/// 07/03 Q1026 W///S4;",
"01300599999","2010-12-13T15:20:00","4","61.25","1.85","117.65","STATFJORD OIL PLATFORM HELIPORT, FO","FM-15","ENSF ","V020","360,1,N,0062,1","00570,1,9,N","011265,1,N,1","+0070,1","+0040,1","99999,9",,,"07,1,+00570,1,99,9",,,"07,99,1,99,9,99,9,99999,9,99,9,99,9","10261,1,99999,9",,"MET069METAR ENSF 131520Z AUTO 36012KT 9999NDV BKN019/// 07/04 Q1026 W///S4;",
"01300599999","2010-12-13T15:50:00","4","61.25","1.85","117.65","STATFJORD OIL PLATFORM HELIPORT, FO","FM-15","ENSF ","V020","360,1,N,0062,1","00540,1,9,N","011265,1,N,1","+0060,1","+0040,1","99999,9",,,"08,1,+00540,1,99,9",,,"08,99,1,99,9,99,9,99999,9,99,9,99,9","10261,1,99999,9",,"MET069METAR ENSF 131550Z AUTO 36012KT 9999NDV OVC018/// 06/04 Q1026 W///S4;",
"01300599999","2010-12-13T16:20:00","4","61.25","1.85","117.65","STATFJORD OIL PLATFORM HELIPORT, FO","FM-15","ENSF ","V020","360,1,N,0051,1","00900,1,9,N","011265,1,N,1","+0060,1","+0040,1","99999,9",,,"02,1,+00390,1,99,9","07,1,+00900,1,99,9",,"07,99,1,99,9,99,9,99999,9,99,9,99,9","10261,1,99999,9",,"MET079METAR ENSF 131620Z AUTO 36010KT 9999NDV FEW013/// BKN030/// 06/04 Q1026 W///S4;",
"01300599999","2010-12-13T16:50:00","4","61.25","1.85","117.65","STATFJORD OIL PLATFORM HELIPORT, FO","FM-15","ENSF ","V020","360,1,N,0046,1","00960,1,9,N","011265,1,N,1","+0060,1","+0040,1","99999,9",,,"04,1,+00390,1,99,9","07,1,+00960,1,99,9",,"07,99,1,99,9,99,9,99999,9,99,9,99,9","10261,1,99999,9",,"MET079METAR ENSF 131650Z AUTO 36009KT 9999NDV SCT013/// BKN032/// 06/04 Q1026 W///S4;",
"01300599999","2010-12-13T17:20:00","4","61.25","1.85","117.65","STATFJORD OIL PLATFORM HELIPORT, FO","FM-15","ENSF ","V020","010,1,N,0046,1","00480,1,9,N","011265,1,N,1","+0070,1","+0040,1","99999,9","51,1",,"07,1,+00480,1,99,9",,,"07,99,1,99,9,99,9,99999,9,99,9,99,9","10261,1,99999,9",,"MET073METAR ENSF 131720Z AUTO 01009KT 9999NDV -DZ BKN016/// 07/04 Q1026 W///S4;",
"01300599999","2010-12-13T17:50:00","4","61.25","1.85","117.65","STATFJORD OIL PLATFORM HELIPORT, FO","FM-15","ENSF ","V020","360,1,N,0041,1","00360,1,9,N","011265,1,N,1","+0060,1","+0050,1","99999,9","81,1",,"08,1,+00360,1,99,9",,,"08,99,1,99,9,99,9,99999,9,99,9,99,9","10271,1,99999,9",,"MET075METAR ENSF 131750Z AUTO 36008KT 9999NDV -SHRA OVC012/// 06/05 Q1027 W///S4;",
"01300599999","2010-12-13T18:20:00","4","61.25","1.85","117.65","STATFJORD OIL PLATFORM HELIPORT, FO","FM-15","ENSF ","V020","010,1,N,0051,1","00930,1,9,N","005000,1,N,1","+0060,1","+0050,1","99999,9","81,1",,"02,1,+00240,1,99,9","07,1,+00930,1,99,9",,"07,99,1,99,9,99,9,99999,9,99,9,99,9","10271,1,99999,9",,"MET085METAR ENSF 131820Z AUTO 01010KT 5000NDV -SHRA FEW008/// BKN031/// 06/05 Q1027 W///S3;",
"01300599999","2010-12-13T18:50:00","4","61.25","1.85","117.65","STATFJORD OIL PLATFORM HELIPORT, FO","FM-15","ENSF ","V020","010,1,N,0046,1","00630,1,9,N","011265,1,N,1","+0060,1","+0050,1","99999,9",,,"02,1,+00300,1,99,9","08,1,+00630,1,99,9",,"08,99,1,99,9,99,9,99999,9,99,9,99,9","10271,1,99999,9",,"MET079METAR ENSF 131850Z AUTO 01009KT 9999NDV FEW010/// OVC021/// 06/05 Q1027 W///S3;",
"01300599999","2010-12-13T19:20:00","4","61.25","1.85","117.65","STATFJORD OIL PLATFORM HELIPORT, FO","FM-15","ENSF ","V020","010,1,N,0057,1","22000,1,9,N","011265,1,N,1","+0060,1","+0050,1","99999,9",,,"02,1,+00240,1,99,9",,,"02,99,1,99,9,99,9,99999,9,99,9,99,9","10271,1,99999,9",,"MET069METAR ENSF 131920Z AUTO 01011KT 9999NDV FEW008/// 06/05 Q1027 W///S3;",
"01300599999","2010-12-13T19:50:00","4","61.25","1.85","117.65","STATFJORD OIL PLATFORM HELIPORT, FO","FM-15","ENSF ","V020","360,1,N,0067,1","00300,1,9,N","011265,1,N,1","+0060,1","+0040,1","99999,9",,,"07,1,+00300,1,99,9",,,"07,99,1,99,9,99,9,99999,9,99,9,99,9","10271,1,99999,9",,"MET069METAR ENSF 131950Z AUTO 36013KT 9999NDV BKN010/// 06/04 Q1027 W///S3;",
"01300599999","2010-12-13T20:20:00","4","61.25","1.85","117.65","STATFJORD OIL PLATFORM HELIPORT, FO","FM-15","ENSF ","V020","010,1,N,0046,1","00450,1,9,N","009000,1,N,1","+0060,1","+0040,1","99999,9",,,"07,1,+00450,1,99,9",,,"07,99,1,99,9,99,9,99999,9,99,9,99,9","10281,1,99999,9",,"MET069METAR ENSF 132020Z AUTO 01009KT 9000NDV BKN015/// 06/04 Q1028 W///S4;",
"01300599999","2010-12-13T20:50:00","4","61.25","1.85","117.65","STATFJORD OIL PLATFORM HELIPORT, FO","FM-15","ENSF ","V020","360,1,N,0051,1","00450,1,9,N","011265,1,N,1","+0060,1","+0040,1","99999,9",,,"08,1,+00450,1,99,9",,,"08,99,1,99,9,99,9,99999,9,99,9,99,9","10281,1,99999,9",,"MET069METAR ENSF 132050Z AUTO 36010KT 9999NDV OVC015/// 06/04 Q1028 W///S4;",
"01300599999","2010-12-13T21:20:00","4","61.25","1.85","117.65","STATFJORD OIL PLATFORM HELIPORT, FO","FM-15","ENSF ","V020","360,1,N,0057,1","00960,1,9,N","011265,1,N,1","+0060,1","+0040,1","99999,9",,,"04,1,+00390,1,99,9","07,1,+00960,1,99,9",,"07,99,1,99,9,99,9,99999,9,99,9,99,9","10281,1,99999,9",,"MET079METAR ENSF 132120Z AUTO 36011KT 9999NDV SCT013/// BKN032/// 06/04 Q1028 W///S4;",
"01300599999","2010-12-13T21:50:00","4","61.25","1.85","117.65","STATFJORD OIL PLATFORM HELIPORT, FO","FM-15","ENSF ","V020","010,1,N,0067,1","00360,1,9,N","011265,1,N,1","+0060,1","+0040,1","99999,9",,,"07,1,+00360,1,99,9","07,1,+01050,1,99,9",,"07,99,1,99,9,99,9,99999,9,99,9,99,9","10281,1,99999,9",,"MET079METAR ENSF 132150Z AUTO 01013KT 9999NDV BKN012/// BKN035/// 06/04 Q1028 W///S4;",
"01300599999","2010-12-13T22:20:00","4","61.25","1.85","117.65","STATFJORD OIL PLATFORM HELIPORT, FO","FM-15","ENSF ","V020","360,1,N,0057,1","00420,1,9,N","011265,1,N,1","+0060,1","+0030,1","99999,9",,,"07,1,+00420,1,99,9",,,"07,99,1,99,9,99,9,99999,9,99,9,99,9","10281,1,99999,9",,"MET069METAR ENSF 132220Z AUTO 36011KT 9999NDV BKN014/// 06/03 Q1028 W///S4;",
"01300599999","2010-12-13T22:50:00","4","61.25","1.85","117.65","STATFJORD OIL PLATFORM HELIPORT, FO","FM-15","ENSF ","V020","360,1,N,0062,1","22000,1,9,N","011265,1,N,1","+0050,1","+0030,1","99999,9",,,"04,1,+00390,1,99,9",,,"04,99,1,99,9,99,9,99999,9,99,9,99,9","10291,1,99999,9",,"MET069METAR ENSF 132250Z AUTO 36012KT 9999NDV SCT013/// 05/03 Q1029 W///S4;",
"01300599999","2010-12-13T23:20:00","4","61.25","1.85","117.65","STATFJORD OIL PLATFORM HELIPORT, FO","FM-15","ENSF ","V020","360,1,N,0051,1","22000,1,9,N","011265,1,N,1","+0050,1","+0030,1","99999,9",,,"02,1,+00390,1,99,9",,,"02,99,1,99,9,99,9,99999,9,99,9,99,9","10291,1,99999,9",,"MET069METAR ENSF 132320Z AUTO 36010KT 9999NDV FEW013/// 05/03 Q1029 W///S4;",
"01300599999","2010-12-13T23:50:00","4","61.25","1.85","117.65","STATFJORD OIL PLATFORM HELIPORT, FO","FM-15","ENSF ","V020","350,1,N,0046,1","22000,1,9,N","011265,1,N,1","+0050,1","+0020,1","99999,9",,,"02,1,+00480,1,99,9",,,"02,99,1,99,9,99,9,99999,9,99,9,99,9","10291,1,99999,9",,"MET069METAR ENSF 132350Z AUTO 35009KT 9999NDV FEW016/// 05/02 Q1029 W///S4;",
"01300599999","2010-12-14T00:20:00","4","61.25","1.85","117.65","STATFJORD OIL PLATFORM HELIPORT, FO","FM-15","ENSF ","V020","360,1,N,0046,1","22000,1,9,N","011265,1,N,1","+0060,1","+0020,1","99999,9",,,"04,1,+00630,1,99,9",,,"04,99,1,99,9,99,9,99999,9,99,9,99,9","10291,1,99999,9",,"MET069METAR ENSF 140020Z AUTO 36009KT 9999NDV SCT021/// 06/02 Q1029 W///S4;",
"01300599999","2010-12-14T00:50:00","4","61.25","1.85","117.65","STATFJORD OIL PLATFORM HELIPORT, FO","FM-15","ENSF ","V020","350,1,N,0062,1","00540,1,9,N","011265,1,N,1","+0050,1","+0020,1","99999,9",,,"07,1,+00540,1,99,9",,,"07,99,1,99,9,99,9,99999,9,99,9,99,9","10301,1,99999,9",,"MET069METAR ENSF 140050Z AUTO 35012KT 9999NDV BKN018/// 05/02 Q1030 W///S4;",
"01300599999","2010-12-14T01:20:00","4","61.25","1.85","117.65","STATFJORD OIL PLATFORM HELIPORT, FO","FM-15","ENSF ","V020","350,1,N,0057,1","00690,1,9,N","011265,1,N,1","+0050,1","+0020,1","99999,9",,,"07,1,+00690,1,99,9",,,"07,99,1,99,9,99,9,99999,9,99,9,99,9","10301,1,99999,9",,"MET069METAR ENSF 140120Z AUTO 35011KT 9999NDV BKN023/// 05/02 Q1030 W///S4;",
"01300599999","2010-12-14T01:50:00","4","61.25","1.85","117.65","STATFJORD OIL PLATFORM HELIPORT, FO","FM-15","ENSF ","V020","340,1,N,0051,1","00810,1,9,N","011265,1,N,1","+0060,1","+0010,1","99999,9",,,"07,1,+00810,1,99,9",,,"07,99,1,99,9,99,9,99999,9,99,9,99,9","10301,1,99999,9",,"MET069METAR ENSF 140150Z AUTO 34010KT 9999NDV BKN027/// 06/01 Q1030 W///S4;",
"01300599999","2010-12-14T02:20:00","4","61.25","1.85","117.65","STATFJORD OIL PLATFORM HELIPORT, FO","FM-15","ENSF ","V020","330,1,N,0046,1","00750,1,9,N","011265,1,N,1","+0060,1","+0010,1","99999,9",,,"07,1,+00750,1,99,9",,,"07,99,1,99,9,99,9,99999,9,99,9,99,9","10301,1,99999,9",,"MET069METAR ENSF 140220Z AUTO 33009KT 9999NDV BKN025/// 06/01 Q1030 W///S4;",
"01300599999","2010-12-14T02:50:00","4","61.25","1.85","117.65","STATFJORD OIL PLATFORM HELIPORT, FO","FM-15","ENSF ","V020","330,1,N,0057,1","00750,1,9,N","011265,1,N,1","+0050,1","+0020,1","99999,9",,,"02,1,+00660,1,99,9","07,1,+00750,1,99,9",,"07,99,1,99,9,99,9,99999,9,99,9,99,9","10301,1,99999,9",,"MET079METAR ENSF 140250Z AUTO 33011KT 9999NDV FEW022/// BKN025/// 05/02 Q1030 W///S4;",
"01300599999","2010-12-14T03:20:00","4","61.25","1.85","117.65","STATFJORD OIL PLATFORM HELIPORT, FO","FM-15","ENSF ","V020","340,1,N,0072,1","00540,1,9,N","011265,1,N,1","+0050,1","+0010,1","99999,9",,,"07,1,+00540,1,99,9",,,"07,99,1,99,9,99,9,99999,9,99,9,99,9","10301,1,99999,9",,"MET069METAR ENSF 140320Z AUTO 34014KT 9999NDV BKN018/// 05/01 Q1030 W///S4;",
"01300599999","2010-12-14T03:50:00","4","61.25","1.85","117.65","STATFJORD OIL PLATFORM HELIPORT, FO","FM-15","ENSF ","V020","340,1,N,0067,1","00810,1,9,N","011265,1,N,1","+0050,1","+0010,1","99999,9",,,"07,1,+00810,1,99,9",,,"07,99,1,99,9,99,9,99999,9,99,9,99,9","10301,1,99999,9",,"MET069METAR ENSF 140350Z AUTO 34013KT 9999NDV BKN027/// 05/01 Q1030 W///S4;",
"01300599999","2010-12-14T04:20:00","4","61.25","1.85","117.65","STATFJORD OIL PLATFORM HELIPORT, FO","FM-15","ENSF ","V020","360,1,N,0067,1","00750,1,9,N","011265,1,N,1","+0060,1","+0010,1","99999,9",,,"07,1,+00750,1,99,9",,,"07,99,1,99,9,99,9,99999,9,99,9,99,9","10312,1,99999,9",,"MET069METAR ENSF 140420Z AUTO 36013KT 9999NDV BKN025/// 06/01 Q1031 W///S4;",
"01300599999","2010-12-14T04:50:00","4","61.25","1.85","117.65","STATFJORD OIL PLATFORM HELIPORT, FO","FM-15","ENSF ","V020","010,1,N,0057,1","00810,1,9,N","011265,1,N,1","+0060,1","+0010,1","99999,9",,,"07,1,+00810,1,99,9",,,"07,99,1,99,9,99,9,99999,9,99,9,99,9","10312,1,99999,9",,"MET069METAR ENSF 140450Z AUTO 01011KT 9999NDV BKN027/// 06/01 Q1031 W///S4;",
"01300599999","2010-12-14T05:20:00","4","61.25","1.85","117.65","STATFJORD OIL PLATFORM HELIPORT, FO","FM-15","ENSF ","V020","360,1,N,0057,1","00720,1,9,N","011265,1,N,1","+0060,1","+0010,1","99999,9",,,"07,1,+00720,1,99,9",,,"07,99,1,99,9,99,9,99999,9,99,9,99,9","10312,1,99999,9",,"MET069METAR ENSF 140520Z AUTO 36011KT 9999NDV BKN024/// 06/01 Q1031 W///S4;",
"01300599999","2010-12-14T05:50:00","4","61.25","1.85","117.65","STATFJORD OIL PLATFORM HELIPORT, FO","FM-15","ENSF ","V020","360,1,N,0051,1","00600,1,9,N","011265,1,N,1","+0050,1","+0020,1","99999,9",,,"07,1,+00600,1,99,9",,,"07,99,1,99,9,99,9,99999,9,99,9,99,9","10312,1,99999,9",,"MET069METAR ENSF 140550Z AUTO 36010KT 9999NDV BKN020/// 05/02 Q1031 W///S4;",
"01300599999","2010-12-14T06:20:00","4","61.25","1.85","117.65","STATFJORD OIL PLATFORM HELIPORT, FO","FM-15","ENSF ","V020","340,1,N,0041,1","00630,1,9,N","011265,1,N,1","+0050,1","+0030,1","99999,9",,,"07,1,+00630,1,99,9",,,"07,99,1,99,9,99,9,99999,9,99,9,99,9","10318,1,99999,9",,"MET069METAR ENSF 140620Z AUTO 34008KT 9999NDV BKN021/// 05/03 Q1032 W///S4;",
"01300599999","2010-12-14T06:50:00","4","61.25","1.85","117.65","STATFJORD OIL PLATFORM HELIPORT, FO","FM-15","ENSF ","V020","330,1,N,0036,1","00570,1,9,N","011265,1,N,1","+0050,1","+0030,1","99999,9",,,"07,1,+00570,1,99,9",,,"07,99,1,99,9,99,9,99999,9,99,9,99,9","10318,1,99999,9",,"MET069METAR ENSF 140650Z AUTO 33007KT 9999NDV BKN019/// 05/03 Q1032 W///S4;",
"01300599999","2010-12-14T07:20:00","4","61.25","1.85","117.65","STATFJORD OIL PLATFORM HELIPORT, FO","FM-15","ENSF ","V020","320,1,N,0031,1","00480,1,9,N","011265,1,N,1","+0050,1","+0030,1","99999,9",,,"07,1,+00480,1,99,9","07,1,+00750,1,99,9",,"07,99,1,99,9,99,9,99999,9,99,9,99,9","10318,1,99999,9",,"MET087METAR ENSF 140720Z AUTO 32006KT 240V360 9999NDV BKN016/// BKN025/// 05/03 Q1032 W///S4;",
"01300599999","2010-12-14T07:50:00","4","61.25","1.85","117.65","STATFJORD OIL PLATFORM HELIPORT, FO","FM-15","ENSF ","V020","330,1,N,0067,1","00450,1,9,N","011265,1,N,1","+0060,1","+0030,1","99999,9",,,"07,1,+00450,1,99,9",,,"07,99,1,99,9,99,9,99999,9,99,9,99,9","10318,1,99999,9",,"MET069METAR ENSF 140750Z AUTO 33013KT 9999NDV BKN015/// 06/03 Q1032 W///S3;",
"01300599999","2010-12-14T08:20:00","4","61.25","1.85","117.65","STATFJORD OIL PLATFORM HELIPORT, FO","FM-15","ENSF ","V020","330,1,N,0067,1","00420,1,9,N","011265,1,N,1","+0060,1","+0040,1","99999,9",,,"07,1,+00420,1,99,9",,,"07,99,1,99,9,99,9,99999,9,99,9,99,9","10329,1,99999,9",,"MET069METAR ENSF 140820Z AUTO 33013KT 9999NDV BKN014/// 06/04 Q1033 W///S4;",
"01300599999","2010-12-14T08:50:00","4","61.25","1.85","117.65","STATFJORD OIL PLATFORM HELIPORT, FO","FM-15","ENSF ","V020","350,1,N,0067,1","00750,1,9,N","011265,1,N,1","+0050,1","+0040,1","99999,9",,,"04,1,+00300,1,99,9","07,1,+00750,1,99,9",,"07,99,1,99,9,99,9,99999,9,99,9,99,9","10329,1,99999,9",,"MET079METAR ENSF 140850Z AUTO 35013KT 9999NDV SCT010/// BKN025/// 05/04 Q1033 W///S4;",
"01300599999","2010-12-14T09:20:00","4","61.25","1.85","117.65","STATFJORD OIL PLATFORM HELIPORT, FO","FM-15","ENSF ","V020","350,1,N,0098,1","00570,1,9,N","011265,1,N,1","+0060,1","+0030,1","99999,9",,,"07,1,+00570,1,99,9",,,"07,99,1,99,9,99,9,99999,9,99,9,99,9","10329,1,99999,9",,"MET069METAR ENSF 140920Z AUTO 35019KT 9999NDV BKN019/// 06/03 Q1033 W///S4;",
"01300599999","2010-12-14T09:50:00","4","61.25","1.85","117.65","STATFJORD OIL PLATFORM HELIPORT, FO","FM-15","ENSF ","V020","350,1,N,0098,1","22000,1,9,N","011265,1,N,1","+0060,1","+0020,1","99999,9",,,"04,1,+00570,1,99,9",,,"04,99,1,99,9,99,9,99999,9,99,9,99,9","10329,1,99999,9",,"MET069METAR ENSF 140950Z AUTO 35019KT 9999NDV SCT019/// 06/02 Q1033 W///S4;",
"01300599999","2010-12-14T10:20:00","4","61.25","1.85","117.65","STATFJORD OIL PLATFORM HELIPORT, FO","FM-15","ENSF ","V020","360,1,N,0087,1","00570,1,9,N","011265,1,N,1","+0060,1","+0020,1","99999,9",,,"07,1,+00570,1,99,9",,,"07,99,1,99,9,99,9,99999,9,99,9,99,9","10329,1,99999,9",,"MET069METAR ENSF 141020Z AUTO 36017KT 9999NDV BKN019/// 06/02 Q1033 W///S4;",
"01300599999","2010-12-14T10:50:00","4","61.25","1.85","117.65","STATFJORD OIL PLATFORM HELIPORT, FO","FM-15","ENSF ","V020","360,1,N,0087,1","22000,1,9,N","011265,1,N,1","+0060,1","+0020,1","99999,9",,,"04,1,+00630,1,99,9",,,"04,99,1,99,9,99,9,99999,9,99,9,99,9","10329,1,99999,9",,"MET069METAR ENSF 141050Z AUTO 36017KT 9999NDV SCT021/// 06/02 Q1033 W///S4;",
"01300599999","2010-12-14T11:20:00","4","61.25","1.85","117.65","STATFJORD OIL PLATFORM HELIPORT, FO","FM-15","ENSF ","V020","350,1,N,0087,1","00600,1,9,N","011265,1,N,1","+0060,1","+0030,1","99999,9",,,"07,1,+00600,1,99,9",,,"07,99,1,99,9,99,9,99999,9,99,9,99,9","10329,1,99999,9",,"MET069METAR ENSF 141120Z AUTO 35017KT 9999NDV BKN020/// 06/03 Q1033 W///S4;",
"01300599999","2010-12-14T11:50:00","4","61.25","1.85","117.65","STATFJORD OIL PLATFORM HELIPORT, FO","FM-15","ENSF ","V020","350,1,N,0082,1","22000,1,9,N","011265,1,N,1","+0060,1","+0030,1","99999,9",,,"04,1,+00570,1,99,9",,,"04,99,1,99,9,99,9,99999,9,99,9,99,9","10329,1,99999,9",,"MET069METAR ENSF 141150Z AUTO 35016KT 9999NDV SCT019/// 06/03 Q1033 W///S4;",
"01300599999","2010-12-14T12:20:00","4","61.25","1.85","117.65","STATFJORD OIL PLATFORM HELIPORT, FO","FM-15","ENSF ","V020","360,1,N,0077,1","00570,1,9,N","011265,1,N,1","+0060,1","+0030,1","99999,9",,,"07,1,+00570,1,99,9",,,"07,99,1,99,9,99,9,99999,9,99,9,99,9","10339,1,99999,9",,"MET069METAR ENSF 141220Z AUTO 36015KT 9999NDV BKN019/// 06/03 Q1034 W///S4;",
"01300599999","2010-12-14T12:50:00","4","61.25","1.85","117.65","STATFJORD OIL PLATFORM HELIPORT, FO","FM-15","ENSF ","V020","360,1,N,0077,1","22000,1,9,N","011265,1,N,1","+0060,1","+0030,1","99999,9",,,"02,1,+00480,1,99,9",,,"02,99,1,99,9,99,9,99999,9,99,9,99,9","10339,1,99999,9",,"MET069METAR ENSF 141250Z AUTO 36015KT 9999NDV FEW016/// 06/03 Q1034 W///S4;",
"01300599999","2010-12-14T13:20:00","4","61.25","1.85","117.65","STATFJORD OIL PLATFORM HELIPORT, FO","FM-15","ENSF ","V020","010,1,N,0062,1","00480,1,9,N","011265,1,N,1","+0060,1","+0030,1","99999,9",,,"07,1,+00480,1,99,9",,,"07,99,1,99,9,99,9,99999,9,99,9,99,9","10339,1,99999,9",,"MET069METAR ENSF 141320Z AUTO 01012KT 9999NDV BKN016/// 06/03 Q1034 W///S4;",
"01300599999","2010-12-14T13:50:00","4","61.25","1.85","117.65","STATFJORD OIL PLATFORM HELIPORT, FO","FM-15","ENSF ","V020","360,1,N,0051,1","00510,1,9,N","011265,1,N,1","+0060,1","+0040,1","99999,9",,,"07,1,+00510,1,99,9",,,"07,99,1,99,9,99,9,99999,9,99,9,99,9","10339,1,99999,9",,"MET069METAR ENSF 141350Z AUTO 36010KT 9999NDV BKN017/// 06/04 Q1034 W///S4;",
"01300599999","2010-12-14T14:20:00","4","61.25","1.85","117.65","STATFJORD OIL PLATFORM HELIPORT, FO","FM-15","ENSF ","V020","360,1,N,0067,1","00450,1,9,N","011265,1,N,1","+0060,1","+0030,1","99999,9",,,"07,1,+00450,1,99,9",,,"07,99,1,99,9,99,9,99999,9,99,9,99,9","10339,1,99999,9",,"MET069METAR ENSF 141420Z AUTO 36013KT 9999NDV BKN015/// 06/03 Q1034 W///S4;",
"01300599999","2010-12-14T14:50:00","4","61.25","1.85","117.65","STATFJORD OIL PLATFORM HELIPORT, FO","FM-15","ENSF ","V020","010,1,N,0051,1","00450,1,9,N","011265,1,N,1","+0060,1","+0040,1","99999,9",,,"07,1,+00450,1,99,9",,,"07,99,1,99,9,99,9,99999,9,99,9,99,9","10339,1,99999,9",,"MET069METAR ENSF 141450Z AUTO 01010KT 9999NDV BKN015/// 06/04 Q1034 W///S4;",
"01300599999","2010-12-14T15:20:00","4","61.25","1.85","117.65","STATFJORD OIL PLATFORM HELIPORT, FO","FM-15","ENSF ","V020","360,1,N,0057,1","00420,1,9,N","011265,1,N,1","+0060,1","+0040,1","99999,9",,,"07,1,+00420,1,99,9",,,"07,99,1,99,9,99,9,99999,9,99,9,99,9","10349,1,99999,9",,"MET069METAR ENSF 141520Z AUTO 36011KT 9999NDV BKN014/// 06/04 Q1035 W///S4;",
"01300599999","2010-12-14T15:50:00","4","61.25","1.85","117.65","STATFJORD OIL PLATFORM HELIPORT, FO","FM-15","ENSF ","V020","360,1,N,0046,1","00450,1,9,N","011265,1,N,1","+0060,1","+0040,1","99999,9",,,"07,1,+00450,1,99,9",,,"07,99,1,99,9,99,9,99999,9,99,9,99,9","10349,1,99999,9",,"MET069METAR ENSF 141550Z AUTO 36009KT 9999NDV BKN015/// 06/04 Q1035 W///S4;",
"01300599999","2010-12-14T16:20:00","4","61.25","1.85","117.65","STATFJORD OIL PLATFORM HELIPORT, FO","FM-15","ENSF ","V020","350,1,N,0046,1","00510,1,9,N","011265,1,N,1","+0060,1","+0030,1","99999,9",,,"07,1,+00510,1,99,9",,,"07,99,1,99,9,99,9,99999,9,99,9,99,9","10339,1,99999,9",,"MET069METAR ENSF 141620Z AUTO 35009KT 9999NDV BKN017/// 06/03 Q1034 W///S4;",
"01300599999","2010-12-14T16:50:00","4","61.25","1.85","117.65","STATFJORD OIL PLATFORM HELIPORT, FO","FM-15","ENSF ","V020","340,1,N,0046,1","00660,1,9,N","011265,1,N,1","+0060,1","+0030,1","99999,9",,,"07,1,+00660,1,99,9",,,"07,99,1,99,9,99,9,99999,9,99,9,99,9","10339,1,99999,9",,"MET069METAR ENSF 141650Z AUTO 34009KT 9999NDV BKN022/// 06/03 Q1034 W///S4;",
"01300599999","2010-12-14T17:20:00","4","61.25","1.85","117.65","STATFJORD OIL PLATFORM HELIPORT, FO","FM-15","ENSF ","V020","340,1,N,0046,1","03300,1,9,N","011265,1,N,1","+0060,1","+0030,1","99999,9",,,"02,1,+00630,1,99,9","07,1,+03300,1,99,9",,"07,99,1,99,9,99,9,99999,9,99,9,99,9","10339,1,99999,9",,"MET079METAR ENSF 141720Z AUTO 34009KT 9999NDV FEW021/// BKN110/// 06/03 Q1034 W///S4;",
"01300599999","2010-12-14T17:50:00","4","61.25","1.85","117.65","STATFJORD OIL PLATFORM HELIPORT, FO","FM-15","ENSF ","V020","340,1,N,0051,1","22000,1,9,N","011265,1,N,1","+0060,1","+0040,1","99999,9",,,"02,1,+00450,1,99,9",,,"02,99,1,99,9,99,9,99999,9,99,9,99,9","10339,1,99999,9",,"MET069METAR ENSF 141750Z AUTO 34010KT 9999NDV FEW015/// 06/04 Q1034 W///S4;",
"01300599999","2010-12-14T18:20:00","4","61.25","1.85","117.65","STATFJORD OIL PLATFORM HELIPORT, FO","FM-15","ENSF ","V020","340,1,N,0051,1","00570,1,9,N","011265,1,N,1","+0060,1","+0040,1","99999,9",,,"07,1,+00570,1,99,9","07,1,+03600,1,99,9",,"07,99,1,99,9,99,9,99999,9,99,9,99,9","10339,1,99999,9",,"MET079METAR ENSF 141820Z AUTO 34010KT 9999NDV BKN019/// BKN120/// 06/04 Q1034 W///S3;",
"01300599999","2010-12-14T18:50:00","4","61.25","1.85","117.65","STATFJORD OIL PLATFORM HELIPORT, FO","FM-15","ENSF ","V020","340,1,N,0057,1","00510,1,9,N","011265,1,N,1","+0060,1","+0030,1","99999,9",,,"07,1,+00510,1,99,9",,,"07,99,1,99,9,99,9,99999,9,99,9,99,9","10349,1,99999,9",,"MET069METAR ENSF 141850Z AUTO 34011KT 9999NDV BKN017/// 06/03 Q1035 W///S4;",
"01300599999","2010-12-14T19:20:00","4","61.25","1.85","117.65","STATFJORD OIL PLATFORM HELIPORT, FO","FM-15","ENSF ","V020","340,1,N,0051,1","00450,1,9,N","011265,1,N,1","+0060,1","+0040,1","99999,9",,,"07,1,+00450,1,99,9",,,"07,99,1,99,9,99,9,99999,9,99,9,99,9","10349,1,99999,9",,"MET069METAR ENSF 141920Z AUTO 34010KT 9999NDV BKN015/// 06/04 Q1035 W///S3;",
"01300599999","2010-12-14T19:50:00","4","61.25","1.85","117.65","STATFJORD OIL PLATFORM HELIPORT, FO","FM-15","ENSF ","V020","330,1,N,0046,1","00420,1,9,N","011265,1,N,1","+0060,1","+0040,1","99999,9",,,"07,1,+00420,1,99,9",,,"07,99,1,99,9,99,9,99999,9,99,9,99,9","10349,1,99999,9",,"MET069METAR ENSF 141950Z AUTO 33009KT 9999NDV BKN014/// 06/04 Q1035 W///S3;",
"01300599999","2010-12-14T20:20:00","4","61.25","1.85","117.65","STATFJORD OIL PLATFORM HELIPORT, FO","FM-15","ENSF ","V020","330,1,N,0057,1","00330,1,9,N","011265,1,N,1","+0060,1","+0040,1","99999,9",,,"07,1,+00330,1,99,9",,,"07,99,1,99,9,99,9,99999,9,99,9,99,9","10349,1,99999,9",,"MET069METAR ENSF 142020Z AUTO 33011KT 9999NDV BKN011/// 06/04 Q1035 W///S3;",
"01300599999","2010-12-14T20:50:00","4","61.25","1.85","117.65","STATFJORD OIL PLATFORM HELIPORT, FO","FM-15","ENSF ","V020","340,1,N,0046,1","00360,1,9,N","011265,1,N,1","+0060,1","+0050,1","99999,9",,,"07,1,+00360,1,99,9","07,1,+00630,1,99,9",,"07,99,1,99,9,99,9,99999,9,99,9,99,9","10339,1,99999,9",,"MET079METAR ENSF 142050Z AUTO 34009KT 9999NDV BKN012/// BKN021/// 06/05 Q1034 W///S3;",
"01300599999","2010-12-14T21:20:00","4","61.25","1.85","117.65","STATFJORD OIL PLATFORM HELIPORT, FO","FM-15","ENSF ","V020","330,1,N,0051,1","00300,1,9,N","011265,1,N,1","+0060,1","+0050,1","99999,9",,,"07,1,+00300,1,99,9",,,"07,99,1,99,9,99,9,99999,9,99,9,99,9","10339,1,99999,9",,"MET069METAR ENSF 142120Z AUTO 33010KT 9999NDV BKN010/// 06/05 Q1034 W///S3;",
"01300599999","2010-12-14T21:50:00","4","61.25","1.85","117.65","STATFJORD OIL PLATFORM HELIPORT, FO","FM-15","ENSF ","V020","330,1,N,0057,1","00240,1,9,N","004400,1,N,1","+0060,1","+0050,1","99999,9","10,1","52,1","07,1,+00240,1,99,9",,,"07,99,1,99,9,99,9,99999,9,99,9,99,9","10349,1,99999,9",,"MET075METAR ENSF 142150Z AUTO 33011KT 4400NDV DZ BR BKN008/// 06/05 Q1035 W///S3;",
"01300599999","2010-12-14T22:20:00","4","61.25","1.85","117.65","STATFJORD OIL PLATFORM HELIPORT, FO","FM-15","ENSF ","V020","320,1,N,0067,1","00210,1,9,N","011265,1,N,1","+0060,1","+0050,1","99999,9",,,"07,1,+00210,1,99,9",,,"07,99,1,99,9,99,9,99999,9,99,9,99,9","10339,1,99999,9",,"MET069METAR ENSF 142220Z AUTO 32013KT 9999NDV BKN007/// 06/05 Q1034 W///S3;",
"01300599999","2010-12-14T22:50:00","4","61.25","1.85","117.65","STATFJORD OIL PLATFORM HELIPORT, FO","FM-15","ENSF ","V020","310,1,N,0062,1","00300,1,9,N","011265,1,N,1","+0060,1","+0050,1","99999,9",,,"07,1,+00300,1,99,9",,,"07,99,1,99,9,99,9,99999,9,99,9,99,9","10339,1,99999,9",,"MET069METAR ENSF 142250Z AUTO 31012KT 9999NDV BKN010/// 06/05 Q1034 W///S3;",
"01300599999","2010-12-14T23:20:00","4","61.25","1.85","117.65","STATFJORD OIL PLATFORM HELIPORT, FO","FM-15","ENSF ","V020","320,1,N,0062,1","00330,1,9,N","011265,1,N,1","+0060,1","+0040,1","99999,9",,,"07,1,+00330,1,99,9",,,"07,99,1,99,9,99,9,99999,9,99,9,99,9","10339,1,99999,9",,"MET069METAR ENSF 142320Z AUTO 32012KT 9999NDV BKN011/// 06/04 Q1034 W///S4;",
"01300599999","2010-12-14T23:50:00","4","61.25","1.85","117.65","STATFJORD OIL PLATFORM HELIPORT, FO","FM-15","ENSF ","V020","320,1,N,0057,1","00300,1,9,N","011265,1,N,1","+0060,1","+0040,1","99999,9",,,"07,1,+00300,1,99,9",,,"07,99,1,99,9,99,9,99999,9,99,9,99,9","10339,1,99999,9",,"MET069METAR ENSF 142350Z AUTO 32011KT 9999NDV BKN010/// 06/04 Q1034 W///S4;",
"01300599999","2010-12-15T00:20:00","4","61.25","1.85","117.65","STATFJORD OIL PLATFORM HELIPORT, FO","FM-15","ENSF ","V020","320,1,N,0067,1","00270,1,9,N","011265,1,N,1","+0060,1","+0050,1","99999,9",,,"07,1,+00270,1,99,9",,,"07,99,1,99,9,99,9,99999,9,99,9,99,9","10339,1,99999,9",,"MET069METAR ENSF 150020Z AUTO 32013KT 9999NDV BKN009/// 06/05 Q1034 W///S3;",
"01300599999","2010-12-15T00:50:00","4","61.25","1.85","117.65","STATFJORD OIL PLATFORM HELIPORT, FO","FM-15","ENSF ","V020","330,1,N,0077,1","00330,1,9,N","011265,1,N,1","+0060,1","+0050,1","99999,9",,,"08,1,+00330,1,99,9",,,"08,99,1,99,9,99,9,99999,9,99,9,99,9","10339,1,99999,9",,"MET069METAR ENSF 150050Z AUTO 33015KT 9999NDV OVC011/// 06/05 Q1034 W///S4;",
"01300599999","2010-12-15T01:20:00","4","61.25","1.85","117.65","STATFJORD OIL PLATFORM HELIPORT, FO","FM-15","ENSF ","V020","320,1,N,0087,1","00330,1,9,N","011265,1,N,1","+0060,1","+0050,1","99999,9",,,"07,1,+00330,1,99,9",,,"07,99,1,99,9,99,9,99999,9,99,9,99,9","10339,1,99999,9",,"MET069METAR ENSF 150120Z AUTO 32017KT 9999NDV BKN011/// 06/05 Q1034 W///S3;",
"01300599999","2010-12-15T01:50:00","4","61.25","1.85","117.65","STATFJORD OIL PLATFORM HELIPORT, FO","FM-15","ENSF ","V020","320,1,N,0082,1","00180,1,9,N","011265,1,N,1","+0060,1","+0050,1","99999,9","81,1",,"07,1,+00180,1,99,9",,,"07,99,1,99,9,99,9,99999,9,99,9,99,9","10329,1,99999,9",,"MET075METAR ENSF 150150Z AUTO 32016KT 9999NDV -SHRA BKN006/// 06/05 Q1033 W///S3;",
"01300599999","2010-12-15T02:20:00","4","61.25","1.85","117.65","STATFJORD OIL PLATFORM HELIPORT, FO","FM-15","ENSF ","V020","320,1,N,0077,1","00330,1,9,N","011265,1,N,1","+0060,1","+0040,1","99999,9",,,"08,1,+00330,1,99,9",,,"08,99,1,99,9,99,9,99999,9,99,9,99,9","10329,1,99999,9",,"MET069METAR ENSF 150220Z AUTO 32015KT 9999NDV OVC011/// 06/04 Q1033 W///S3;",
"01300599999","2010-12-15T02:50:00","4","61.25","1.85","117.65","STATFJORD OIL PLATFORM HELIPORT, FO","FM-15","ENSF ","V020","310,1,N,0077,1","00360,1,9,N","011265,1,N,1","+0060,1","+0040,1","99999,9",,,"08,1,+00360,1,99,9",,,"08,99,1,99,9,99,9,99999,9,99,9,99,9","10329,1,99999,9",,"MET069METAR ENSF 150250Z AUTO 31015KT 9999NDV OVC012/// 06/04 Q1033 W///S3;",
"01300599999","2010-12-15T03:20:00","4","61.25","1.85","117.65","STATFJORD OIL PLATFORM HELIPORT, FO","FM-15","ENSF ","V020","300,1,N,0087,1","00390,1,9,N","011265,1,N,1","+0060,1","+0040,1","99999,9",,,"08,1,+00390,1,99,9",,,"08,99,1,99,9,99,9,99999,9,99,9,99,9","10329,1,99999,9",,"MET069METAR ENSF 150320Z AUTO 30017KT 9999NDV OVC013/// 06/04 Q1033 W///S3;",
"01300599999","2010-12-15T03:50:00","4","61.25","1.85","117.65","STATFJORD OIL PLATFORM HELIPORT, FO","FM-15","ENSF ","V020","300,1,N,0072,1","00420,1,9,N","011265,1,N,1","+0060,1","+0040,1","99999,9",,,"08,1,+00420,1,99,9",,,"08,99,1,99,9,99,9,99999,9,99,9,99,9","10318,1,99999,9",,"MET069METAR ENSF 150350Z AUTO 30014KT 9999NDV OVC014/// 06/04 Q1032 W///S3;",
"01300599999","2010-12-15T04:20:00","4","61.25","1.85","117.65","STATFJORD OIL PLATFORM HELIPORT, FO","FM-15","ENSF ","V020","290,1,N,0087,1","00450,1,9,N","011265,1,N,1","+0070,1","+0040,1","99999,9",,,"08,1,+00450,1,99,9",,,"08,99,1,99,9,99,9,99999,9,99,9,99,9","10318,1,99999,9",,"MET069METAR ENSF 150420Z AUTO 29017KT 9999NDV OVC015/// 07/04 Q1032 W///S3;",
"01300599999","2010-12-15T04:50:00","4","61.25","1.85","117.65","STATFJORD OIL PLATFORM HELIPORT, FO","FM-15","ENSF ","V020","280,1,N,0082,1","00480,1,9,N","011265,1,N,1","+0060,1","+0030,1","99999,9",,,"08,1,+00480,1,99,9",,,"08,99,1,99,9,99,9,99999,9,99,9,99,9","10318,1,99999,9",,"MET069METAR ENSF 150450Z AUTO 28016KT 9999NDV OVC016/// 06/03 Q1032 W///S3;",
"01300599999","2010-12-15T05:20:00","4","61.25","1.85","117.65","STATFJORD OIL PLATFORM HELIPORT, FO","FM-15","ENSF ","V020","270,1,N,0082,1","00450,1,9,N","011265,1,N,1","+0070,1","+0040,1","99999,9",,,"08,1,+00450,1,99,9",,,"08,99,1,99,9,99,9,99999,9,99,9,99,9","10312,1,99999,9",,"MET069METAR ENSF 150520Z AUTO 27016KT 9999NDV OVC015/// 07/04 Q1031 W///S3;",
"01300599999","2010-12-15T05:50:00","4","61.25","1.85","117.65","STATFJORD OIL PLATFORM HELIPORT, FO","FM-15","ENSF ","V020","270,1,N,0113,1","00420,1,9,N","011265,1,N,1","+0070,1","+0040,1","99999,9",,,"07,1,+00420,1,99,9",,,"07,99,1,99,9,99,9,99999,9,99,9,99,9","10312,1,99999,9",,"MET069METAR ENSF 150550Z AUTO 27022KT 9999NDV BKN014/// 07/04 Q1031 W///S3;",
"01300599999","2010-12-15T06:20:00","4","61.25","1.85","117.65","STATFJORD OIL PLATFORM HELIPORT, FO","FM-15","ENSF ","V020","280,1,N,0123,1","00480,1,9,N","011265,1,N,1","+0070,1","+0030,1","99999,9",,,"08,1,+00480,1,99,9",,,"08,99,1,99,9,99,9,99999,9,99,9,99,9","10301,1,99999,9",,"MET069METAR ENSF 150620Z AUTO 28024KT 9999NDV OVC016/// 07/03 Q1030 W///S3;",
"01300599999","2010-12-15T06:50:00","4","61.25","1.85","117.65","STATFJORD OIL PLATFORM HELIPORT, FO","FM-15","ENSF ","V020","260,1,N,0103,1","00660,1,9,N","011265,1,N,1","+0070,1","+0040,1","99999,9",,,"08,1,+00660,1,99,9",,,"08,99,1,99,9,99,9,99999,9,99,9,99,9","10301,1,99999,9",,"MET069METAR ENSF 150650Z AUTO 26020KT 9999NDV OVC022/// 07/04 Q1030 W///S3;",
"01300599999","2010-12-15T07:20:00","4","61.25","1.85","117.65","STATFJORD OIL PLATFORM HELIPORT, FO","FM-15","ENSF ","V020","250,1,N,0103,1","00690,1,9,N","011265,1,N,1","+0070,1","+0050,1","99999,9",,,"08,1,+00690,1,99,9",,,"08,99,1,99,9,99,9,99999,9,99,9,99,9","10291,1,99999,9",,"MET069METAR ENSF 150720Z AUTO 25020KT 9999NDV OVC023/// 07/05 Q1029 W///S3;",
"01300599999","2010-12-15T07:50:00","4","61.25","1.85","117.65","STATFJORD OIL PLATFORM HELIPORT, FO","FM-15","ENSF ","V020","260,1,N,0113,1","00720,1,9,N","011265,1,N,1","+0080,1","+0050,1","99999,9",,,"08,1,+00720,1,99,9",,,"08,99,1,99,9,99,9,99999,9,99,9,99,9","10281,1,99999,9",,"MET069METAR ENSF 150750Z AUTO 26022KT 9999NDV OVC024/// 08/05 Q1028 W///S3;",
"01300599999","2010-12-15T08:20:00","4","61.25","1.85","117.65","STATFJORD OIL PLATFORM HELIPORT, FO","FM-15","ENSF ","V020","260,1,N,0134,1","00780,1,9,N","011265,1,N,1","+0080,1","+0050,1","99999,9",,,"07,1,+00780,1,99,9",,,"07,99,1,99,9,99,9,99999,9,99,9,99,9","10281,1,99999,9",,"MET069METAR ENSF 150820Z AUTO 26026KT 9999NDV BKN026/// 08/05 Q1028 W///S3;",
"01300599999","2010-12-15T08:50:00","4","61.25","1.85","117.65","STATFJORD OIL PLATFORM HELIPORT, FO","FM-15","ENSF ","V020","260,1,N,0134,1","00540,1,9,N","011265,1,N,1","+0080,1","+0050,1","99999,9",,,"07,1,+00540,1,99,9",,,"07,99,1,99,9,99,9,99999,9,99,9,99,9","10271,1,99999,9",,"MET069METAR ENSF 150850Z AUTO 26026KT 9999NDV BKN018/// 08/05 Q1027 W///S3;",
"01300599999","2010-12-15T09:20:00","4","61.25","1.85","117.65","STATFJORD OIL PLATFORM HELIPORT, FO","FM-15","ENSF ","V020","250,1,N,0134,1","00690,1,9,N","011265,1,N,1","+0080,1","+0050,1","99999,9",,,"07,1,+00690,1,99,9",,,"07,99,1,99,9,99,9,99999,9,99,9,99,9","10271,1,99999,9",,"MET069METAR ENSF 150920Z AUTO 25026KT 9999NDV BKN023/// 08/05 Q1027 W///S3;",
"01300599999","2010-12-15T09:50:00","4","61.25","1.85","117.65","STATFJORD OIL PLATFORM HELIPORT, FO","FM-15","ENSF ","V020","250,1,N,0108,1","00750,1,9,N","011265,1,N,1","+0080,1","+0050,1","99999,9",,,"08,1,+00750,1,99,9",,,"08,99,1,99,9,99,9,99999,9,99,9,99,9","10261,1,99999,9",,"MET069METAR ENSF 150950Z AUTO 25021KT 9999NDV OVC025/// 08/05 Q1026 W///S4;",
"01300599999","2010-12-15T10:20:00","4","61.25","1.85","117.65","STATFJORD OIL PLATFORM HELIPORT, FO","FM-15","ENSF ","V020","240,1,N,0118,1","00300,1,9,N","003300,1,N,1","+0070,1","+0060,1","99999,9","10,1",,"07,1,+00300,1,99,9",,,"07,99,1,99,9,99,9,99999,9,99,9,99,9","10261,1,99999,9",,"MET072METAR ENSF 151020Z AUTO 24023KT 3300NDV BR BKN010/// 07/06 Q1026 W///S4;",
"01300599999","2010-12-15T10:50:00","4","61.25","1.85","117.65","STATFJORD OIL PLATFORM HELIPORT, FO","FM-15","ENSF ","V020","230,1,N,0129,1","00120,1,9,N","004300,1,N,1","+0080,1","+0070,1","99999,9","10,1","51,1","07,1,+00120,1,99,9",,,"07,99,1,99,9,99,9,99999,9,99,9,99,9","10251,1,99999,9",,"MET076METAR ENSF 151050Z AUTO 23025KT 4300NDV -DZ BR BKN004/// 08/07 Q1025 W///S4;",
"01300599999","2010-12-15T11:20:00","4","61.25","1.85","117.65","STATFJORD OIL PLATFORM HELIPORT, FO","FM-15","ENSF ","V020","240,1,N,0139,1","00150,1,9,N","004400,1,N,1","+0080,1","+0080,1","99999,9","10,1",,"07,1,+00150,1,99,9",,,"07,99,1,99,9,99,9,99999,9,99,9,99,9","10240,1,99999,9",,"MET072METAR ENSF 151120Z AUTO 24027KT 4400NDV BR BKN005/// 08/08 Q1024 W///S4;",
"01300599999","2010-12-15T11:50:00","4","61.25","1.85","117.65","STATFJORD OIL PLATFORM HELIPORT, FO","FM-15","ENSF ","V020","250,1,N,0149,1","00150,1,9,N","004200,1,N,1","+0080,1","+0080,1","99999,9","10,1","81,1","07,1,+00150,1,99,9",,,"07,99,1,99,9,99,9,99999,9,99,9,99,9","10220,1,99999,9",,"MET078METAR ENSF 151150Z AUTO 25029KT 4200NDV -SHRA BR BKN005/// 08/08 Q1022 W///S4;",
"01300599999","2010-12-15T12:20:00","4","61.25","1.85","117.65","STATFJORD OIL PLATFORM HELIPORT, FO","FM-15","ENSF ","V020","250,1,N,0165,1","00150,1,9,N","011265,1,N,1","+0080,1","+0080,1","99999,9","81,1",,"07,1,+00150,1,99,9",,,"07,99,1,99,9,99,9,99999,9,99,9,99,9","10210,1,99999,9",,"MET075METAR ENSF 151220Z AUTO 25032KT 9999NDV -SHRA BKN005/// 08/08 Q1021 W///S4;",
"01300599999","2010-12-15T12:50:00","4","61.25","1.85","117.65","STATFJORD OIL PLATFORM HELIPORT, FO","FM-15","ENSF ","V020","260,1,N,0154,1","00150,1,9,N","003600,1,N,1","+0080,1","+0080,1","99999,9","10,1","81,1","07,1,+00150,1,99,9","07,1,+00570,1,99,9",,"07,99,1,99,9,99,9,99999,9,99,9,99,9","10200,1,99999,9",,"MET088METAR ENSF 151250Z AUTO 26030KT 3600NDV -SHRA BR BKN005/// BKN019/// 08/08 Q1020 W///S4;",
"01300599999","2010-12-15T13:20:00","4","61.25","1.85","117.65","STATFJORD OIL PLATFORM HELIPORT, FO","FM-15","ENSF ","V020","260,1,N,0175,1","00180,1,9,N","011265,1,N,1","+0080,1","+0080,1","99999,9",,,"07,1,+00180,1,99,9",,,"07,99,1,99,9,99,9,99999,9,99,9,99,9","10190,1,99999,9",,"MET069METAR ENSF 151320Z AUTO 26034KT 9999NDV BKN006/// 08/08 Q1019 W///S4;",
"01300599999","2010-12-15T13:50:00","4","61.25","1.85","117.65","STATFJORD OIL PLATFORM HELIPORT, FO","FM-15","ENSF ","V020","250,1,N,0165,1","00540,1,9,N","011265,1,N,1","+0080,1","+0070,1","99999,9",,,"07,1,+00540,1,99,9","07,1,+05100,1,99,9",,"07,99,1,99,9,99,9,99999,9,99,9,99,9","10180,1,99999,9",,"MET079METAR ENSF 151350Z AUTO 25032KT 9999NDV BKN018/// BKN170/// 08/07 Q1018 W///S4;",
"01300599999","2010-12-15T14:20:00","4","61.25","1.85","117.65","STATFJORD OIL PLATFORM HELIPORT, FO","FM-15","ENSF ","V020","250,1,N,0180,1","00300,1,9,N","011265,1,N,1","+0080,1","+0070,1","99999,9",,,"07,1,+00300,1,99,9",,,"07,99,1,99,9,99,9,99999,9,99,9,99,9","10169,1,99999,9",,"MET069METAR ENSF 151420Z AUTO 25035KT 9999NDV BKN010/// 08/07 Q1017 W///S4;",
"01300599999","2010-12-15T14:50:00","4","61.25","1.85","117.65","STATFJORD OIL PLATFORM HELIPORT, FO","FM-15","ENSF ","V020","250,1,N,0190,1","00420,1,9,N","005000,1,N,1","+0090,1","+0070,1","99999,9","61,1",,"07,1,+00420,1,99,9",,,"07,99,1,99,9,99,9,99999,9,99,9,99,9","10149,1,99999,9",,"MET073METAR ENSF 151450Z AUTO 25037KT 5000NDV -RA BKN014/// 09/07 Q1015 W///S4;",
"01300599999","2010-12-15T15:20:00","4","61.25","1.85","117.65","STATFJORD OIL PLATFORM HELIPORT, FO","FM-15","ENSF ","V020","250,1,N,0206,1","00420,1,9,N","011265,1,N,1","+0090,1","+0070,1","99999,9","81,1",,"07,1,+00420,1,99,9",,,"07,99,1,99,9,99,9,99999,9,99,9,99,9","10139,1,99999,9",,"MET075METAR ENSF 151520Z AUTO 25040KT 9999NDV -SHRA BKN014/// 09/07 Q1014 W///S4;",
"01300599999","2010-12-15T15:50:00","4","61.25","1.85","117.65","STATFJORD OIL PLATFORM HELIPORT, FO","FM-15","ENSF ","V020","260,1,N,0175,1","00360,1,9,N","004800,1,N,1","+0080,1","+0070,1","99999,9","10,1","81,1","07,1,+00360,1,99,9",,,"07,99,1,99,9,99,9,99999,9,99,9,99,9","10129,1,99999,9",,"MET078METAR ENSF 151550Z AUTO 26034KT 4800NDV -SHRA BR BKN012/// 08/07 Q1013 W///S4;",
"01300599999","2010-12-15T16:20:00","4","61.25","1.85","117.65","STATFJORD OIL PLATFORM HELIPORT, FO","FM-15","ENSF ","V020","260,1,N,0211,1","00540,1,9,N","011265,1,N,1","+0090,1","+0060,1","99999,9",,,"07,1,+00540,1,99,9",,,"07,99,1,99,9,99,9,99999,9,99,9,99,9","10119,1,99999,9",,"MET069METAR ENSF 151620Z AUTO 26041KT 9999NDV BKN018/// 09/06 Q1012 W///S5;",
"01300599999","2010-12-15T16:50:00","4","61.25","1.85","117.65","STATFJORD OIL PLATFORM HELIPORT, FO","FM-15","ENSF ","V020","260,1,N,0206,1","00810,1,9,N","009000,1,N,1","+0080,1","+0050,1","99999,9",,,"02,1,+00480,1,99,9","07,1,+00810,1,99,9",,"07,99,1,99,9,99,9,99999,9,99,9,99,9","10102,1,99999,9",,"MET079METAR ENSF 151650Z AUTO 26040KT 9000NDV FEW016/// BKN027/// 08/05 Q1010 W///S5;",
"01300599999","2010-12-15T17:20:00","4","61.25","1.85","117.65","STATFJORD OIL PLATFORM HELIPORT, FO","FM-15","ENSF ","V020","250,1,N,0195,1","00570,1,9,N","011265,1,N,1","+0080,1","+0060,1","99999,9",,,"02,1,+00390,1,99,9","07,1,+00570,1,99,9",,"07,99,1,99,9,99,9,99999,9,99,9,99,9","10091,1,99999,9",,"MET079METAR ENSF 151720Z AUTO 25038KT 9999NDV FEW013/// BKN019/// 08/06 Q1009 W///S5;",
"01300599999","2010-12-15T17:50:00","4","61.25","1.85","117.65","STATFJORD OIL PLATFORM HELIPORT, FO","FM-15","ENSF ","V020","250,1,N,0195,1","00390,1,9,N","005000,1,N,1","+0070,1","+0060,1","99999,9","81,1",,"07,1,+00390,1,99,9","07,1,+03600,1,99,9",,"07,99,1,99,9,99,9,99999,9,99,9,99,9","10081,1,99999,9",,"MET085METAR ENSF 151750Z AUTO 25038KT 5000NDV -SHRA BKN013/// BKN120/// 07/06 Q1008 W///S5;",
"01300599999","2010-12-15T18:20:00","4","61.25","1.85","117.65","STATFJORD OIL PLATFORM HELIPORT, FO","FM-15","ENSF ","V020","250,1,N,0201,1","00330,1,9,N","009000,1,N,1","+0080,1","+0060,1","99999,9",,,"07,1,+00330,1,99,9","07,1,+03300,1,99,9",,"07,99,1,99,9,99,9,99999,9,99,9,99,9","10071,1,99999,9",,"MET079METAR ENSF 151820Z AUTO 25039KT 9000NDV BKN011/// BKN110/// 08/06 Q1007 W///S5;",
"01300599999","2010-12-15T18:50:00","4","61.25","1.85","117.65","STATFJORD OIL PLATFORM HELIPORT, FO","FM-15","ENSF ","V020","250,1,N,0206,1","00360,1,9,N","011265,1,N,1","+0080,1","+0060,1","99999,9","51,1",,"07,1,+00360,1,99,9",,,"07,99,1,99,9,99,9,99999,9,99,9,99,9","10051,1,99999,9",,"MET073METAR ENSF 151850Z AUTO 25040KT 9999NDV -DZ BKN012/// 08/06 Q1005 W///S5;",
"01300599999","2010-12-15T19:20:00","4","61.25","1.85","117.65","STATFJORD OIL PLATFORM HELIPORT, FO","FM-15","ENSF ","V020","260,1,N,0206,1","00270,1,9,N","003800,1,N,1","+0080,1","+0070,1","99999,9","10,1","61,1","07,1,+00270,1,99,9",,,"07,99,1,99,9,99,9,99999,9,99,9,99,9","10041,1,99999,9",,"MET076METAR ENSF 151920Z AUTO 26040KT 3800NDV -RA BR BKN009/// 08/07 Q1004 W///S5;",
"01300599999","2010-12-15T19:50:00","4","61.25","1.85","117.65","STATFJORD OIL PLATFORM HELIPORT, FO","FM-15","ENSF ","V020","330,1,N,0170,1","00240,1,9,N","006000,1,N,1","+0050,1","+0040,1","99999,9","61,1",,"07,1,+00240,1,99,9",,,"07,99,1,99,9,99,9,99999,9,99,9,99,9","10031,1,99999,9",,"MET073METAR ENSF 151950Z AUTO 33033KT 6000NDV -RA BKN008/// 05/04 Q1003 W///S5;",
"01300599999","2010-12-15T20:20:00","4","61.25","1.85","117.65","STATFJORD OIL PLATFORM HELIPORT, FO","FM-15","ENSF ","V020","330,1,N,0175,1","00270,1,9,N","003000,1,N,1","+0040,1","+0030,1","99999,9","10,1","61,1","07,1,+00270,1,99,9",,,"07,99,1,99,9,99,9,99999,9,99,9,99,9","10031,1,99999,9",,"MET076METAR ENSF 152020Z AUTO 33034KT 3000NDV -RA BR BKN009/// 04/03 Q1003 W///S5;",
"01300599999","2010-12-15T20:50:00","4","61.25","1.85","117.65","STATFJORD OIL PLATFORM HELIPORT, FO","FM-15","ENSF ","V020","330,1,N,0190,1","00330,1,9,N","005000,1,N,1","+0030,1","+0020,1","99999,9","61,1",,"08,1,+00330,1,99,9",,,"08,99,1,99,9,99,9,99999,9,99,9,99,9","10020,1,99999,9",,"MET073METAR ENSF 152050Z AUTO 33037KT 5000NDV -RA OVC011/// 03/02 Q1002 W///S5;",
"01300599999","2010-12-15T21:20:00","4","61.25","1.85","117.65","STATFJORD OIL PLATFORM HELIPORT, FO","FM-15","ENSF ","V020","330,1,N,0195,1","00330,1,9,N","011265,1,N,1","+0020,1","+0010,1","99999,9","61,1",,"08,1,+00330,1,99,9",,,"08,99,1,99,9,99,9,99999,9,99,9,99,9","10020,1,99999,9",,"MET073METAR ENSF 152120Z AUTO 33038KT 9999NDV -RA OVC011/// 02/01 Q1002 W///S5;",
"01300599999","2010-12-15T21:50:00","4","61.25","1.85","117.65","STATFJORD OIL PLATFORM HELIPORT, FO","FM-15","ENSF ","V020","320,1,N,0185,1","00480,1,9,N","011265,1,N,1","+0020,1","+0000,1","99999,9","81,1",,"07,1,+00480,1,99,9",,,"07,99,1,99,9,99,9,99999,9,99,9,99,9","10020,1,99999,9",,"MET075METAR ENSF 152150Z AUTO 32036KT 9999NDV -SHRA BKN016/// 02/00 Q1002 W///S5;",
"01300599999","2010-12-15T22:20:00","4","61.25","1.85","117.65","STATFJORD OIL PLATFORM HELIPORT, FO","FM-15","ENSF ","V020","310,1,N,0216,1","00570,1,9,N","011265,1,N,1","+0020,1","-0010,1","99999,9","81,1",,"07,1,+00570,1,99,9",,,"07,99,1,99,9,99,9,99999,9,99,9,99,9","10010,1,99999,9",,"MET076METAR ENSF 152220Z AUTO 31042KT 9999NDV -SHRA BKN019/// 02/M01 Q1001 W///S5;",
"01300599999","2010-12-15T22:50:00","4","61.25","1.85","117.65","STATFJORD OIL PLATFORM HELIPORT, FO","FM-15","ENSF ","V020","310,1,N,0221,1","00540,1,9,N","011265,1,N,1","+0020,1","-0030,1","99999,9","81,1",,"07,1,+00540,1,99,9","07,1,+01500,1,99,9",,"07,99,1,99,9,99,9,99999,9,99,9,99,9","10010,1,99999,9",,"MET086METAR ENSF 152250Z AUTO 31043KT 9999NDV -SHRA BKN018/// BKN054/// 02/M03 Q1001 W///S6;",
"01300599999","2010-12-15T23:20:00","4","61.25","1.85","117.65","STATFJORD OIL PLATFORM HELIPORT, FO","FM-15","ENSF ","V020","310,1,N,0206,1","01020,1,9,N","011265,1,N,1","+0020,1","-0040,1","99999,9",,,"07,1,+01020,1,99,9",,,"07,99,1,99,9,99,9,99999,9,99,9,99,9","10000,1,99999,9",,"MET070METAR ENSF 152320Z AUTO 31040KT 9999NDV BKN034/// 02/M04 Q1000 W///S6;",
"01300599999","2010-12-15T23:50:00","4","61.25","1.85","117.65","STATFJORD OIL PLATFORM HELIPORT, FO","FM-15","ENSF ","V020","330,1,N,0273,1","00840,1,9,N","001700,1,N,1","-0010,1","-0010,1","99999,9","10,1","80,1","04,1,+00240,1,99,9","07,1,+00840,1,99,9","07,1,+01320,1,99,9","07,99,1,99,9,99,9,99999,9,99,9,99,9","09990,1,99999,9",,"MET102METAR ENSF 152350Z AUTO 33053KT 1700NDV -SHRASN BR SCT008/// BKN028/// BKN044/// M01/M01 Q0999 W///S6;",
"01300599999","2010-12-16T00:20:00","4","61.25","1.85","117.65","STATFJORD OIL PLATFORM HELIPORT, FO","FM-15","ENSF ","V020","330,1,N,0252,1","00510,1,9,N","011265,1,N,1","-0010,1","-0020,1","99999,9","81,1",,"07,1,+00510,1,99,9",,,"07,99,1,99,9,99,9,99999,9,99,9,99,9","09990,1,99999,9",,"MET077METAR ENSF 160020Z AUTO 33049KT 9999NDV -SHRA BKN017/// M01/M02 Q0999 W///S6;",
"01300599999","2010-12-16T00:50:00","4","61.25","1.85","117.65","STATFJORD OIL PLATFORM HELIPORT, FO","FM-15","ENSF ","V020","330,1,N,0257,1","00480,1,9,N","007000,1,N,1","-0020,1","-0030,1","99999,9","74,1",,"07,1,+00480,1,99,9","07,1,+01800,1,99,9",,"07,99,1,99,9,99,9,99999,9,99,9,99,9","09990,1,99999,9",,"MET092METAR ENSF 160050Z AUTO 33050KT 7000NDV -PL BKN016/// BKN069/// M02/M03 Q0999 REFZRA W///S6;",
"01300599999","2010-12-16T01:20:00","4","61.25","1.85","117.65","STATFJORD OIL PLATFORM HELIPORT, FO","FM-15","ENSF ","V020","330,1,N,0231,1","00450,1,9,N","002000,1,N,1","-0020,1","-0020,1","99999,9","85,1",,"07,1,+00450,1,99,9","07,1,+01410,1,99,9",,"07,99,1,99,9,99,9,99999,9,99,9,99,9","09990,1,99999,9",,"MET087METAR ENSF 160120Z AUTO 33045KT 2000NDV -SHSN BKN015/// BKN047/// M02/M02 Q0999 W///S6;",
"01300599999","2010-12-16T01:50:00","4","61.25","1.85","117.65","STATFJORD OIL PLATFORM HELIPORT, FO","FM-15","ENSF ","V020","320,1,N,0247,1","00900,1,9,N","011265,1,N,1","-0020,1","-0030,1","99999,9","81,1",,"02,1,+00540,1,99,9","07,1,+00900,1,99,9",,"07,99,1,99,9,99,9,99999,9,99,9,99,9","09990,1,99999,9","0298,1","MET090METAR ENSF 160150Z AUTO 32048G58KT 9999NDV -SHRA FEW018/// BKN030/// M02/M03 Q0999 W///S6;",
"01300599999","2010-12-16T02:20:00","4","61.25","1.85","117.65","STATFJORD OIL PLATFORM HELIPORT, FO","FM-15","ENSF ","V020","320,1,N,0257,1","00780,1,9,N","011265,1,N,1","-0020,1","-0030,1","99999,9","85,1",,"07,1,+00780,1,99,9",,,"07,99,1,99,9,99,9,99999,9,99,9,99,9","09990,1,99999,9",,"MET077METAR ENSF 160220Z AUTO 32050KT 9999NDV -SHSN BKN026/// M02/M03 Q0999 W///S6;",
"01300599999","2010-12-16T02:50:00","4","61.25","1.85","117.65","STATFJORD OIL PLATFORM HELIPORT, FO","FM-15","ENSF ","V020","330,1,N,0226,1","00990,1,9,N","011265,1,N,1","-0020,1","-0030,1","99999,9","81,1",,"02,1,+00720,1,99,9","07,1,+00990,1,99,9",,"07,99,1,99,9,99,9,99999,9,99,9,99,9","09980,1,99999,9","0293,1","MET090METAR ENSF 160250Z AUTO 33044G57KT 9999NDV -SHRA FEW024/// BKN033/// M02/M03 Q0998 W///S6;",
"01300599999","2010-12-16T03:20:00","4","61.25","1.85","117.65","STATFJORD OIL PLATFORM HELIPORT, FO","FM-15","ENSF ","V020","320,1,N,0242,1","00810,1,9,N","011265,1,N,1","-0020,1","-0040,1","99999,9",,,"07,1,+00810,1,99,9",,,"07,99,1,99,9,99,9,99999,9,99,9,99,9","09980,1,99999,9",,"MET071METAR ENSF 160320Z AUTO 32047KT 9999NDV BKN027/// M02/M04 Q0998 W///S6;",
"01300599999","2010-12-16T03:50:00","4","61.25","1.85","117.65","STATFJORD OIL PLATFORM HELIPORT, FO","FM-15","ENSF ","V020","310,1,N,0247,1","01170,1,9,N","011265,1,N,1","-0020,1","-0040,1","99999,9","85,1",,"02,1,+00570,1,99,9","07,1,+01170,1,99,9","07,1,+01500,1,99,9","07,99,1,99,9,99,9,99999,9,99,9,99,9","09970,1,99999,9",,"MET097METAR ENSF 160350Z AUTO 31048KT 9999NDV -SHSN FEW019/// BKN039/// BKN053/// M02/M04 Q0997 W///S6;",
"01300599999","2010-12-16T04:20:00","4","61.25","1.85","117.65","STATFJORD OIL PLATFORM HELIPORT, FO","FM-15","ENSF ","V020","320,1,N,0242,1","00960,1,9,N","011265,1,N,1","-0010,1","-0050,1","99999,9","85,1",,"07,1,+00960,1,99,9",,,"07,99,1,99,9,99,9,99999,9,99,9,99,9","09959,1,99999,9",,"MET077METAR ENSF 160420Z AUTO 32047KT 9999NDV -SHSN BKN032/// M01/M05 Q0996 W///S6;",
"01300599999","2010-12-16T04:50:00","4","61.25","1.85","117.65","STATFJORD OIL PLATFORM HELIPORT, FO","FM-15","ENSF ","V020","320,1,N,0206,1","22000,1,9,N","011265,1,N,1","-0010,1","-0060,1","99999,9","85,1",,"04,1,+01050,1,99,9","04,1,+03000,1,99,9",,"04,99,1,99,9,99,9,99999,9,99,9,99,9","09970,1,99999,9",,"MET087METAR ENSF 160450Z AUTO 32040KT 9999NDV -SHSN SCT035/// SCT100/// M01/M06 Q0997 W///S6;",
"01300599999","2010-12-16T05:20:00","4","61.25","1.85","117.65","STATFJORD OIL PLATFORM HELIPORT, FO","FM-15","ENSF ","V020","310,1,N,0175,1","00300,1,9,N","001600,1,N,1","-0030,1","-0040,1","99999,9","64,1",,"07,1,+00300,1,99,9","07,1,+00930,1,99,9","07,1,+03600,1,99,9","07,99,1,99,9,99,9,99999,9,99,9,99,9","09970,1,99999,9","0247,1","MET100METAR ENSF 160520Z AUTO 31034G48KT 1600NDV -FZRA BKN010/// BKN031/// BKN120/// M03/M04 Q0997 W///S6;",
"01300599999","2010-12-16T05:50:00","4","61.25","1.85","117.65","STATFJORD OIL PLATFORM HELIPORT, FO","FM-15","ENSF ","V020","320,1,N,0201,1","00570,1,9,N","002800,1,N,1","-0030,1","-0040,1","99999,9","85,1",,"04,1,+00330,1,99,9","07,1,+00570,1,99,9","07,1,+03600,1,99,9","07,99,1,99,9,99,9,99999,9,99,9,99,9","09949,1,99999,9","0252,1","MET100METAR ENSF 160550Z AUTO 32039G49KT 2800NDV -SHSN SCT011/// BKN019/// BKN120/// M03/M04 Q0995 W///S6;",
"01300599999","2010-12-16T06:20:00","4","61.25","1.85","117.65","STATFJORD OIL PLATFORM HELIPORT, FO","FM-15","ENSF ","V020","320,1,N,0195,1","00510,1,9,N","011265,1,N,1","-0030,1","-0030,1","99999,9","85,1",,"07,1,+00510,1,99,9","07,1,+03600,1,99,9",,"07,99,1,99,9,99,9,99999,9,99,9,99,9","09959,1,99999,9",,"MET087METAR ENSF 160620Z AUTO 32038KT 9999NDV -SHSN BKN017/// BKN120/// M03/M03 Q0996 W///S6;",
"01300599999","2010-12-16T06:50:00","4","61.25","1.85","117.65","STATFJORD OIL PLATFORM HELIPORT, FO","FM-15","ENSF ","V020","340,1,N,0221,1","00330,1,9,N","011265,1,N,1","-0030,1","-0040,1","99999,9","85,1",,"07,1,+00330,1,99,9","07,1,+00990,1,99,9",,"07,99,1,99,9,99,9,99999,9,99,9,99,9","09949,1,99999,9",,"MET087METAR ENSF 160650Z AUTO 34043KT 9999NDV -SHSN BKN011/// BKN033/// M03/M04 Q0995 W///S6;",
"01300599999","2010-12-16T07:20:00","4","61.25","1.85","117.65","STATFJORD OIL PLATFORM HELIPORT, FO","FM-15","ENSF ","V020","320,1,N,0216,1","01320,1,9,N","011265,1,N,1","-0020,1","-0040,1","99999,9",,,"07,1,+01320,1,99,9","07,1,+02100,1,99,9","07,1,+02700,1,99,9","07,99,1,99,9,99,9,99999,9,99,9,99,9","09949,1,99999,9",,"MET098METAR ENSF 160720Z AUTO 32042KT 9999NDV BKN044/// BKN074/// BKN099/// M02/M04 Q0995 REFZRA W///S6;",
"01300599999","2010-12-16T07:50:00","4","61.25","1.85","117.65","STATFJORD OIL PLATFORM HELIPORT, FO","FM-15","ENSF ","V020","330,1,N,0201,1","03600,1,9,N","011265,1,N,1","-0010,1","-0050,1","99999,9","71,1",,"04,1,+00900,1,99,9","07,1,+03600,1,99,9",,"07,99,1,99,9,99,9,99999,9,99,9,99,9","09949,1,99999,9",,"MET092METAR ENSF 160750Z AUTO 33039KT 9999NDV -SN SCT030/// BKN120/// M01/M05 Q0995 REFZRA W///S6;",
"01300599999","2010-12-16T08:20:00","4","61.25","1.85","117.65","STATFJORD OIL PLATFORM HELIPORT, FO","FM-15","ENSF ","V020","320,1,N,0201,1","03300,1,9,N","011265,1,N,1","-0010,1","-0060,1","99999,9",,,"04,1,+01050,1,99,9","07,1,+03300,1,99,9",,"07,99,1,99,9,99,9,99999,9,99,9,99,9","09949,1,99999,9","0257,1","MET084METAR ENSF 160820Z AUTO 32039G50KT 9999NDV SCT035/// BKN110/// M01/M06 Q0995 W///S6;",
"01300599999","2010-12-16T08:50:00","4","61.25","1.85","117.65","STATFJORD OIL PLATFORM HELIPORT, FO","FM-15","ENSF ","V020","330,1,N,0201,1","00930,1,9,N","000800,1,N,1","-0030,1","-0040,1","99999,9","85,1",,"04,1,+00300,1,99,9","07,1,+00930,1,99,9",,"07,99,1,99,9,99,9,99999,9,99,9,99,9","09949,1,99999,9",,"MET087METAR ENSF 160850Z AUTO 33039KT 0800NDV -SHSN SCT010/// BKN031/// M03/M04 Q0995 W///S7;",
"01300599999","2010-12-16T09:20:00","4","61.25","1.85","117.65","STATFJORD OIL PLATFORM HELIPORT, FO","FM-15","ENSF ","V020","330,1,N,0190,1","01290,1,9,N","011265,1,N,1","-0030,1","-0040,1","99999,9","64,1",,"02,1,+00330,1,99,9","07,1,+01290,1,99,9","07,1,+02700,1,99,9","07,99,1,99,9,99,9,99999,9,99,9,99,9","09939,1,99999,9",,"MET097METAR ENSF 160920Z AUTO 33037KT 9999NDV -FZRA FEW011/// BKN043/// BKN097/// M03/M04 Q0994 W///S6;",
"01300599999","2010-12-16T09:50:00","4","61.25","1.85","117.65","STATFJORD OIL PLATFORM HELIPORT, FO","FM-15","ENSF ","V020","330,1,N,0185,1","01500,1,9,N","011265,1,N,1","-0030,1","-0040,1","99999,9","64,1",,"04,1,+00480,1,99,9","07,1,+01500,1,99,9",,"07,99,1,99,9,99,9,99999,9,99,9,99,9","09939,1,99999,9",,"MET087METAR ENSF 160950Z AUTO 33036KT 9999NDV -FZRA SCT016/// BKN056/// M03/M04 Q0994 W///S7;",
"01300599999","2010-12-16T10:20:00","4","61.25","1.85","117.65","STATFJORD OIL PLATFORM HELIPORT, FO","FM-15","ENSF ","V020","320,1,N,0221,1","00540,1,9,N","004800,1,N,1","-0030,1","-0040,1","99999,9","10,1","64,1","07,1,+00540,1,99,9",,,"07,99,1,99,9,99,9,99999,9,99,9,99,9","09929,1,99999,9",,"MET080METAR ENSF 161020Z AUTO 32043KT 4800NDV -FZRA BR BKN018/// M03/M04 Q0993 W///S7;",
"01300599999","2010-12-16T10:50:00","4","61.25","1.85","117.65","STATFJORD OIL PLATFORM HELIPORT, FO","FM-15","ENSF ","V020","330,1,N,0216,1","00660,1,9,N","004200,1,N,1","-0030,1","-0040,1","99999,9","85,1",,"07,1,+00660,1,99,9","07,1,+01800,1,99,9","07,1,+03900,1,99,9","07,99,1,99,9,99,9,99999,9,99,9,99,9","09929,1,99999,9",,"MET097METAR ENSF 161050Z AUTO 33042KT 4200NDV -SHSN BKN022/// BKN066/// BKN130/// M03/M04 Q0993 W///S7;",
"01300599999","2010-12-16T11:20:00","4","61.25","1.85","117.65","STATFJORD OIL PLATFORM HELIPORT, FO","FM-15","ENSF ","V020","320,1,N,0165,1","00360,1,9,N","009000,1,N,1","-0030,1","-0040,1","99999,9","85,1",,"07,1,+00360,1,99,9","07,1,+03900,1,99,9",,"07,99,1,99,9,99,9,99999,9,99,9,99,9","09939,1,99999,9",,"MET087METAR ENSF 161120Z AUTO 32032KT 9000NDV -SHSN BKN012/// BKN130/// M03/M04 Q0994 W///S7;",
"01300599999","2010-12-16T11:50:00","4","61.25","1.85","117.65","STATFJORD OIL PLATFORM HELIPORT, FO","FM-15","ENSF ","V020","330,1,N,0134,1","00780,1,9,N","011265,1,N,1","-0020,1","-0030,1","99999,9",,,"04,1,+00630,1,99,9","07,1,+00780,1,99,9","07,1,+03300,1,99,9","07,99,1,99,9,99,9,99999,9,99,9,99,9","09939,1,99999,9",,"MET097METAR ENSF 161150Z AUTO 33026KT 9999NDV -SHPL SCT021/// BKN026/// BKN110/// M02/M03 Q0994 W///S7;",
"01300599999","2010-12-16T12:20:00","4","61.25","1.85","117.65","STATFJORD OIL PLATFORM HELIPORT, FO","FM-15","ENSF ","V020","310,1,N,0175,1","00810,1,9,N","011265,1,N,1","-0020,1","-0030,1","99999,9","64,1",,"07,1,+00810,1,99,9",,,"07,99,1,99,9,99,9,99999,9,99,9,99,9","09919,1,99999,9",,"MET077METAR ENSF 161220Z AUTO 31034KT 9999NDV -FZRA BKN027/// M02/M03 Q0992 W///S7;",
"01300599999","2010-12-16T12:50:00","4","61.25","1.85","117.65","STATFJORD OIL PLATFORM HELIPORT, FO","FM-15","ENSF ","V020","350,1,N,0154,1","00540,1,9,N","011265,1,N,1","-0020,1","-0030,1","99999,9",,,"07,1,+00540,1,99,9","07,1,+03300,1,99,9",,"07,99,1,99,9,99,9,99999,9,99,9,99,9","09929,1,99999,9",,"MET081METAR ENSF 161250Z AUTO 35030KT 9999NDV BKN018/// BKN110/// M02/M03 Q0993 W///S7;",
"01300599999","2010-12-16T13:20:00","4","61.25","1.85","117.65","STATFJORD OIL PLATFORM HELIPORT, FO","FM-15","ENSF ","V020","330,1,N,0139,1","00630,1,9,N","003200,1,N,1","-0040,1","-0050,1","99999,9","85,1",,"04,1,+00390,1,99,9","07,1,+00630,1,99,9","07,1,+01290,1,99,9","07,99,1,99,9,99,9,99999,9,99,9,99,9","09919,1,99999,9","0206,1","MET100METAR ENSF 161320Z AUTO 33027G40KT 3200NDV -SHSN SCT013/// BKN021/// BKN043/// M04/M05 Q0992 W///S7;",
"01300599999","2010-12-16T13:50:00","4","61.25","1.85","117.65","STATFJORD OIL PLATFORM HELIPORT, FO","FM-15","ENSF ","V020","330,1,N,0175,1","00840,1,9,N","008000,1,N,1","-0030,1","-0040,1","99999,9","64,1",,"02,1,+00180,1,99,9","07,1,+00840,1,99,9","07,1,+03600,1,99,9","07,99,1,99,9,99,9,99999,9,99,9,99,9","09909,1,99999,9",,"MET097METAR ENSF 161350Z AUTO 33034KT 8000NDV -FZRA FEW006/// BKN028/// BKN120/// M03/M04 Q0991 W///S7;",
"01300599999","2010-12-16T14:20:00","4","61.25","1.85","117.65","STATFJORD OIL PLATFORM HELIPORT, FO","FM-15","ENSF ","V020","340,1,N,0139,1","03900,1,9,N","008000,1,N,1","-0030,1","-0040,1","99999,9","71,1",,"02,1,+00240,1,99,9","07,1,+03900,1,99,9",,"07,99,1,99,9,99,9,99999,9,99,9,99,9","09919,1,99999,9",,"MET092METAR ENSF 161420Z AUTO 34027KT 8000NDV -SN FEW008/// BKN130/// M03/M04 Q0992 REFZRA W///S7;",
"01300599999","2010-12-16T14:50:00","4","61.25","1.85","117.65","STATFJORD OIL PLATFORM HELIPORT, FO","FM-15","ENSF ","V020","310,1,N,0165,1","00300,1,9,N","000800,1,N,1","-0040,1","-0050,1","99999,9","85,1",,"07,1,+00300,1,99,9","07,1,+00840,1,99,9",,"07,99,1,99,9,99,9,99999,9,99,9,99,9","09898,1,99999,9","0216,1","MET090METAR ENSF 161450Z AUTO 31032G42KT 0800NDV -SHSN BKN010/// BKN028/// M04/M05 Q0990 W///S7;",
"01300599999","2010-12-16T15:20:00","4","61.25","1.85","117.65","STATFJORD OIL PLATFORM HELIPORT, FO","FM-15","ENSF ","V020","340,1,N,0149,1","00780,1,9,N","011265,1,N,1","-0030,1","-0040,1","99999,9","85,1",,"07,1,+00780,1,99,9",,,"07,99,1,99,9,99,9,99999,9,99,9,99,9","09909,1,99999,9",,"MET077METAR ENSF 161520Z AUTO 34029KT 9999NDV -SHSN BKN026/// M03/M04 Q0991 W///S7;",
"01300599999","2010-12-16T15:50:00","4","61.25","1.85","117.65","STATFJORD OIL PLATFORM HELIPORT, FO","FM-15","ENSF ","V020","340,1,N,0175,1","00270,1,9,N","001100,1,N,1","-0030,1","-0040,1","99999,9","86,1",,"07,1,+00270,1,99,9",,,"07,99,1,99,9,99,9,99999,9,99,9,99,9","09898,1,99999,9","0226,1","MET079METAR ENSF 161550Z AUTO 34034G44KT 1100NDV SHSN BKN009/// M03/M04 Q0990 W///S7;",
"01300599999","2010-12-16T16:20:00","4","61.25","1.85","117.65","STATFJORD OIL PLATFORM HELIPORT, FO","FM-15","ENSF ","V020","340,1,N,0175,1","00960,1,9,N","004800,1,N,1","-0040,1","-0040,1","99999,9","85,1",,"02,1,+00330,1,99,9","07,1,+00960,1,99,9","07,1,+01500,1,99,9","07,99,1,99,9,99,9,99999,9,99,9,99,9","09892,1,99999,9",,"MET104METAR ENSF 161620Z AUTO 34034KT 4800NDV -SHSN FEW011/// BKN032/// BKN055/// M04/M04 Q0989 RESHSN W///S7;",
"01300599999","2010-12-16T16:50:00","4","61.25","1.85","117.65","STATFJORD OIL PLATFORM HELIPORT, FO","FM-15","ENSF ","V020","320,1,N,0175,1","01050,1,9,N","011265,1,N,1","-0040,1","-0060,1","99999,9",,,"07,1,+01050,1,99,9",,,"07,99,1,99,9,99,9,99999,9,99,9,99,9","09882,1,99999,9",,"MET071METAR ENSF 161650Z AUTO 32034KT 9999NDV BKN035/// M04/M06 Q0988 W///S7;",
"01300599999","2010-12-16T17:20:00","4","61.25","1.85","117.65","STATFJORD OIL PLATFORM HELIPORT, FO","FM-15","ENSF ","V020","310,1,N,0195,1","00690,1,9,N","011265,1,N,1","-0040,1","-0040,1","99999,9","64,1",,"07,1,+00690,1,99,9","07,1,+01050,1,99,9","07,1,+03900,1,99,9","07,99,1,99,9,99,9,99999,9,99,9,99,9","09882,1,99999,9",,"MET097METAR ENSF 161720Z AUTO 31038KT 9999NDV -FZRA BKN023/// BKN035/// BKN130/// M04/M04 Q0988 W///S7;",
"01300599999","2010-12-16T17:50:00","4","61.25","1.85","117.65","STATFJORD OIL PLATFORM HELIPORT, FO","FM-15","ENSF ","V020","310,1,N,0159,1","22000,1,9,N","011265,1,N,1","-0030,1","-0040,1","99999,9","64,1",,"02,1,+00690,1,99,9","04,1,+01500,1,99,9",,"04,99,1,99,9,99,9,99999,9,99,9,99,9","09892,1,99999,9",,"MET087METAR ENSF 161750Z AUTO 31031KT 9999NDV -FZRA FEW023/// SCT050/// M03/M04 Q0989 W///S7;",
"01300599999","2010-12-16T18:20:00","4","61.25","1.85","117.65","STATFJORD OIL PLATFORM HELIPORT, FO","FM-15","ENSF ","V020","350,1,N,0129,1","00960,1,9,N","011265,1,N,1","-0030,1","-0040,1","99999,9","71,1",,"07,1,+00960,1,99,9","07,1,+02700,1,99,9",,"07,99,1,99,9,99,9,99999,9,99,9,99,9","09892,1,99999,9",,"MET092METAR ENSF 161820Z AUTO 35025KT 9999NDV -SN BKN032/// BKN097/// M03/M04 Q0989 REFZRA W///S7;",
"01300599999","2010-12-16T18:50:00","4","61.25","1.85","117.65","STATFJORD OIL PLATFORM HELIPORT, FO","FM-15","ENSF ","V020","350,1,N,0144,1","01380,1,9,N","011265,1,N,1","-0030,1","-0040,1","99999,9","85,1",,"07,1,+01380,1,99,9",,,"07,99,1,99,9,99,9,99999,9,99,9,99,9","09892,1,99999,9",,"MET077METAR ENSF 161850Z AUTO 35028KT 9999NDV -SHSN BKN046/// M03/M04 Q0989 W///S7;",
"01300599999","2010-12-16T19:20:00","4","61.25","1.85","117.65","STATFJORD OIL PLATFORM HELIPORT, FO","FM-15","ENSF ","V020","010,1,N,0098,1","22000,1,9,N","011265,1,N,1","-0030,1","-0050,1","99999,9","85,1",,"02,1,+01020,1,99,9","04,1,+03000,1,99,9",,"04,99,1,99,9,99,9,99999,9,99,9,99,9","09892,1,99999,9",,"MET087METAR ENSF 161920Z AUTO 01019KT 9999NDV -SHSN FEW034/// SCT100/// M03/M05 Q0989 W///S7;",
"01300599999","2010-12-16T19:50:00","4","61.25","1.85","117.65","STATFJORD OIL PLATFORM HELIPORT, FO","FM-15","ENSF ","V020","360,1,N,0072,1","01350,1,9,N","011265,1,N,1","-0020,1","-0060,1","99999,9",,,"07,1,+01350,1,99,9","07,1,+03000,1,99,9",,"07,99,1,99,9,99,9,99999,9,99,9,99,9","09882,1,99999,9",,"MET089METAR ENSF 161950Z AUTO 36014KT 320V030 9999NDV BKN045/// BKN100/// M02/M06 Q0988 W///S7;",
"01300599999","2010-12-16T20:20:00","4","61.25","1.85","117.65","STATFJORD OIL PLATFORM HELIPORT, FO","FM-15","ENSF ","V020","350,1,N,0082,1","22000,1,9,N","011265,1,N,1","-0020,1","-0060,1","99999,9",,,"02,1,+01410,1,99,9",,,"02,99,1,99,9,99,9,99999,9,99,9,99,9","09882,1,99999,9",,"MET071METAR ENSF 162020Z AUTO 35016KT 9999NDV FEW047/// M02/M06 Q0988 W///S7;",
"01300599999","2010-12-16T20:50:00","4","61.25","1.85","117.65","STATFJORD OIL PLATFORM HELIPORT, FO","FM-15","ENSF ","V020","010,1,N,0072,1","04200,1,9,N","011265,1,N,1","-0020,1","-0060,1","99999,9",,,"04,1,+01350,1,99,9","07,1,+04200,1,99,9",,"07,99,1,99,9,99,9,99999,9,99,9,99,9","09882,1,99999,9",,"MET081METAR ENSF 162050Z AUTO 01014KT 9999NDV SCT045/// BKN140/// M02/M06 Q0988 W///S7;",
"01300599999","2010-12-16T21:20:00","4","61.25","1.85","117.65","STATFJORD OIL PLATFORM HELIPORT, FO","FM-15","ENSF ","V020","020,1,N,0051,1","03900,1,9,N","011265,1,N,1","-0010,1","-0050,1","99999,9",,,"02,1,+01350,1,99,9","07,1,+03900,1,99,9",,"07,99,1,99,9,99,9,99999,9,99,9,99,9","09882,1,99999,9",,"MET081METAR ENSF 162120Z AUTO 02010KT 9999NDV FEW045/// BKN130/// M01/M05 Q0988 W///S7;",
"01300599999","2010-12-16T21:50:00","4","61.25","1.85","117.65","STATFJORD OIL PLATFORM HELIPORT, FO","FM-15","ENSF ","V020","030,1,N,0057,1","03000,1,9,N","011265,1,N,1","-0010,1","-0050,1","99999,9",,,"07,1,+03000,1,99,9",,,"07,99,1,99,9,99,9,99999,9,99,9,99,9","09882,1,99999,9",,"MET071METAR ENSF 162150Z AUTO 03011KT 9999NDV BKN100/// M01/M05 Q0988 W///S7;",
"01300599999","2010-12-16T22:20:00","4","61.25","1.85","117.65","STATFJORD OIL PLATFORM HELIPORT, FO","FM-15","ENSF ","V020","010,1,N,0057,1","01800,1,9,N","011265,1,N,1","-0010,1","-0060,1","99999,9","85,1",,"07,1,+01800,1,99,9",,,"07,99,1,99,9,99,9,99999,9,99,9,99,9","09882,1,99999,9",,"MET077METAR ENSF 162220Z AUTO 01011KT 9999NDV -SHSN BKN061/// M01/M06 Q0988 W///S7;",
"01300599999","2010-12-16T22:50:00","4","61.25","1.85","117.65","STATFJORD OIL PLATFORM HELIPORT, FO","FM-15","ENSF ","V020","300,1,N,0062,1","01140,1,9,N","011265,1,N,1","-0020,1","-0050,1","99999,9","85,1",,"08,1,+01140,1,99,9",,,"08,99,1,99,9,99,9,99999,9,99,9,99,9","09882,1,99999,9",,"MET077METAR ENSF 162250Z AUTO 30012KT 9999NDV -SHSN OVC038/// M02/M05 Q0988 W///S7;",
"01300599999","2010-12-16T23:20:00","4","61.25","1.85","117.65","STATFJORD OIL PLATFORM HELIPORT, FO","FM-15","ENSF ","V020","310,1,N,0046,1","01200,1,9,N","011265,1,N,1","-0030,1","-0040,1","99999,9","85,1",,"08,1,+01200,1,99,9",,,"08,99,1,99,9,99,9,99999,9,99,9,99,9","09882,1,99999,9",,"MET077METAR ENSF 162320Z AUTO 31009KT 9999NDV -SHSN OVC040/// M03/M04 Q0988 W///S7;",
"01300599999","2010-12-16T23:50:00","4","61.25","1.85","117.65","STATFJORD OIL PLATFORM HELIPORT, FO","FM-15","ENSF ","V020","260,1,N,0051,1","01500,1,9,N","011265,1,N,1","-0030,1","-0040,1","99999,9",,,"08,1,+01500,1,99,9",,,"08,99,1,99,9,99,9,99999,9,99,9,99,9","09882,1,99999,9",,"MET071METAR ENSF 162350Z AUTO 26010KT 9999NDV OVC052/// M03/M04 Q0988 W///S7;",
"01300599999","2010-12-17T00:20:00","4","61.25","1.85","117.65","STATFJORD OIL PLATFORM HELIPORT, FO","FM-15","ENSF ","V020","240,1,N,0041,1","01800,1,9,N","011265,1,N,1","-0020,1","-0040,1","99999,9",,,"07,1,+01800,1,99,9",,,"07,99,1,99,9,99,9,99999,9,99,9,99,9","09882,1,99999,9",,"MET071METAR ENSF 170020Z AUTO 24008KT 9999NDV BKN065/// M02/M04 Q0988 W///S7;",
"01300599999","2010-12-17T00:50:00","4","61.25","1.85","117.65","STATFJORD OIL PLATFORM HELIPORT, FO","FM-15","ENSF ","V020","310,1,N,0036,1","22000,1,9,N","011265,1,N,1","-0020,1","-0050,1","99999,9",,,,,,"00,99,1,99,9,99,9,99999,9,99,9,99,9","09882,1,99999,9",,"MET073METAR ENSF 170050Z AUTO 31007KT 270V360 9999NDV NCD M02/M05 Q0988 W///S7;","Q01    003SCCGA1"
"01300599999","2010-12-17T01:20:00","4","61.25","1.85","117.65","STATFJORD OIL PLATFORM HELIPORT, FO","FM-15","ENSF ","V020","010,1,N,0036,1","05100,1,9,N","011265,1,N,1","-0010,1","-0050,1","99999,9",,,"07,1,+05100,1,99,9",,,"07,99,1,99,9,99,9,99999,9,99,9,99,9","09882,1,99999,9",,"MET071METAR ENSF 170120Z AUTO 01007KT 9999NDV BKN170/// M01/M05 Q0988 W///S7;",
"01300599999","2010-12-17T01:50:00","4","61.25","1.85","117.65","STATFJORD OIL PLATFORM HELIPORT, FO","FM-15","ENSF ","V020","030,1,N,0098,1","00540,1,9,N","011265,1,N,1","-0010,1","-0040,1","99999,9",,,"07,1,+00540,1,99,9","07,1,+00780,1,99,9",,"07,99,1,99,9,99,9,99999,9,99,9,99,9","09882,1,99999,9",,"MET081METAR ENSF 170150Z AUTO 03019KT 9999NDV BKN018/// BKN026/// M01/M04 Q0988 W///S7;",
"01300599999","2010-12-17T02:20:00","4","61.25","1.85","117.65","STATFJORD OIL PLATFORM HELIPORT, FO","FM-15","ENSF ","V020","030,1,N,0077,1","03600,1,9,N","011265,1,N,1","-0020,1","-0040,1","99999,9",,,"02,1,+01080,1,99,9","07,1,+03600,1,99,9",,"07,99,1,99,9,99,9,99999,9,99,9,99,9","09882,1,99999,9",,"MET081METAR ENSF 170220Z AUTO 03015KT 9999NDV FEW036/// BKN120/// M02/M04 Q0988 W///S7;",
"01300599999","2010-12-17T02:50:00","4","61.25","1.85","117.65","STATFJORD OIL PLATFORM HELIPORT, FO","FM-15","ENSF ","V020","020,1,N,0098,1","01800,1,9,N","011265,1,N,1","-0010,1","-0050,1","99999,9",,,"08,1,+01800,1,99,9",,,"08,99,1,99,9,99,9,99999,9,99,9,99,9","09882,1,99999,9",,"MET071METAR ENSF 170250Z AUTO 02019KT 9999NDV OVC063/// M01/M05 Q0988 W///S7;",
"01300599999","2010-12-17T03:20:00","4","61.25","1.85","117.65","STATFJORD OIL PLATFORM HELIPORT, FO","FM-15","ENSF ","V020","010,1,N,0041,1","02700,1,9,N","011265,1,N,1","-0020,1","-0040,1","99999,9","54,1",,"04,1,+01500,1,99,9","07,1,+02700,1,99,9",,"07,99,1,99,9,99,9,99999,9,99,9,99,9","09882,1,99999,9",,"MET087METAR ENSF 170320Z AUTO 01008KT 9999NDV -FZDZ SCT054/// BKN096/// M02/M04 Q0988 W///S7;",
"01300599999","2010-12-17T03:50:00","4","61.25","1.85","117.65","STATFJORD OIL PLATFORM HELIPORT, FO","FM-15","ENSF ","V020","350,1,N,0051,1","02700,1,9,N","011265,1,N,1","-0010,1","-0060,1","99999,9",,,"07,1,+02700,1,99,9",,,"07,99,1,99,9,99,9,99999,9,99,9,99,9","09882,1,99999,9",,"MET078METAR ENSF 170350Z AUTO 35010KT 9999NDV BKN092/// M01/M06 Q0988 REFZDZ W///S7;",
"01300599999","2010-12-17T04:20:00","4","61.25","1.85","117.65","STATFJORD OIL PLATFORM HELIPORT, FO","FM-15","ENSF ","V020","360,1,N,0041,1","22000,1,9,N","011265,1,N,1","-0010,1","-0070,1","99999,9",,,"02,1,+02700,1,99,9","04,1,+03300,1,99,9",,"04,99,1,99,9,99,9,99999,9,99,9,99,9","09882,1,99999,9",,"MET081METAR ENSF 170420Z AUTO 36008KT 9999NDV FEW091/// SCT110/// M01/M07 Q0988 W///S7;",
"01300599999","2010-12-17T04:50:00","4","61.25","1.85","117.65","STATFJORD OIL PLATFORM HELIPORT, FO","FM-15","ENSF ","V020","360,1,N,0072,1","02700,1,9,N","011265,1,N,1","-0010,1","-0050,1","99999,9",,,"07,1,+02700,1,99,9",,,"07,99,1,99,9,99,9,99999,9,99,9,99,9","09882,1,99999,9",,"MET071METAR ENSF 170450Z AUTO 36014KT 9999NDV BKN095/// M01/M05 Q0988 W///S7;",
"01300599999","2010-12-17T05:20:00","4","61.25","1.85","117.65","STATFJORD OIL PLATFORM HELIPORT, FO","FM-15","ENSF ","V020","040,1,N,0046,1","01470,1,9,N","011265,1,N,1","-0010,1","-0060,1","99999,9",,,"07,1,+01470,1,99,9",,,"07,99,1,99,9,99,9,99999,9,99,9,99,9","09882,1,99999,9",,"MET071METAR ENSF 170520Z AUTO 04009KT 9999NDV BKN049/// M01/M06 Q0988 W///S7;",
"01300599999","2010-12-17T05:50:00","4","61.25","1.85","117.65","STATFJORD OIL PLATFORM HELIPORT, FO","FM-15","ENSF ","V020","010,1,N,0036,1","02700,1,9,N","011265,1,N,1","-0010,1","-0070,1","99999,9",,,"04,1,+01500,1,99,9","07,1,+02700,1,99,9",,"07,99,1,99,9,99,9,99999,9,99,9,99,9","09882,1,99999,9",,"MET081METAR ENSF 170550Z AUTO 01007KT 9999NDV SCT058/// BKN091/// M01/M07 Q0988 W///S7;",
"01300599999","2010-12-17T06:20:00","4","61.25","1.85","117.65","STATFJORD OIL PLATFORM HELIPORT, FO","FM-15","ENSF ","V020","350,1,N,0057,1","22000,1,9,N","011265,1,N,1","-0010,1","-0060,1","99999,9",,,"04,1,+02400,1,99,9",,,"04,99,1,99,9,99,9,99999,9,99,9,99,9","09882,1,99999,9",,"MET071METAR ENSF 170620Z AUTO 35011KT 9999NDV SCT083/// M01/M06 Q0988 W///S7;",
"01300599999","2010-12-17T06:50:00","4","61.25","1.85","117.65","STATFJORD OIL PLATFORM HELIPORT, FO","FM-15","ENSF ","V020","010,1,N,0015,1","01500,1,9,N","011265,1,N,1","+0000,1","-0070,1","99999,9",,,"07,1,+01500,1,99,9",,,"07,99,1,99,9,99,9,99999,9,99,9,99,9","09882,1,99999,9",,"MET078METAR ENSF 170650Z AUTO 01003KT 320V110 9999NDV BKN055/// 00/M07 Q0988 W///S7;",
"01300599999","2010-12-17T07:20:00","4","61.25","1.85","117.65","STATFJORD OIL PLATFORM HELIPORT, FO","FM-15","ENSF ","V020","030,1,N,0026,1","22000,1,9,N","011265,1,N,1","+0000,1","-0070,1","99999,9",,,"02,1,+02100,1,99,9",,,"02,99,1,99,9,99,9,99999,9,99,9,99,9","09892,1,99999,9",,"MET070METAR ENSF 170720Z AUTO 03005KT 9999NDV FEW070/// 00/M07 Q0989 W///S7;",
"01300599999","2010-12-17T07:50:00","4","61.25","1.85","117.65","STATFJORD OIL PLATFORM HELIPORT, FO","FM-15","ENSF ","V020","350,1,N,0036,1","22000,1,9,N","011265,1,N,1","-0010,1","-0070,1","99999,9",,,"02,1,+01800,1,99,9","04,1,+04500,1,99,9",,"04,99,1,99,9,99,9,99999,9,99,9,99,9","09892,1,99999,9",,"MET081METAR ENSF 170750Z AUTO 35007KT 9999NDV FEW069/// SCT150/// M01/M07 Q0989 W///S7;",
"01300599999","2010-12-17T08:20:00","4","61.25","1.85","117.65","STATFJORD OIL PLATFORM HELIPORT, FO","FM-15","ENSF ","V020","030,1,N,0036,1","04200,1,9,N","011265,1,N,1","+0000,1","-0060,1","99999,9",,,"07,1,+04200,1,99,9",,,"07,99,1,99,9,99,9,99999,9,99,9,99,9","09892,1,99999,9",,"MET078METAR ENSF 170820Z AUTO 03007KT 010V070 9999NDV BKN140/// 00/M06 Q0989 W///S7;",
"01300599999","2010-12-17T08:50:00","4","61.25","1.85","117.65","STATFJORD OIL PLATFORM HELIPORT, FO","FM-15","ENSF ","V020","060,1,N,0046,1","01500,1,9,N","011265,1,N,1","+0000,1","-0070,1","99999,9",,,"02,1,+01050,1,99,9","07,1,+01500,1,99,9","07,1,+03600,1,99,9","07,99,1,99,9,99,9,99999,9,99,9,99,9","09892,1,99999,9",,"MET090METAR ENSF 170850Z AUTO 06009KT 9999NDV FEW035/// BKN053/// BKN120/// 00/M07 Q0989 W///S7;",
"01300599999","2010-12-17T09:20:00","4","61.25","1.85","117.65","STATFJORD OIL PLATFORM HELIPORT, FO","FM-15","ENSF ","V020","080,1,N,0021,1","01800,1,C,N","011265,1,N,1","+0000,1","-0080,1","99999,9",,,"02,1,+00930,1,99,9","04,1,+01800,1,99,9","07,1,+04200,1,99,9","07,99,1,99,9,99,9,99999,9,99,9,99,9","09898,1,99999,9",,"MET098METAR ENSF 170920Z AUTO 08004KT 050V110 9999NDV FEW031/// SCT068/// BKN140/// 00/M08 Q0990 W///S6;",
"01300599999","2010-12-17T09:50:00","4","61.25","1.85","117.65","STATFJORD OIL PLATFORM HELIPORT, FO","FM-15","ENSF ","V020","040,1,N,0036,1","22000,1,9,N","011265,1,N,1","+0010,1","-0060,1","99999,9",,,"04,1,+04200,1,99,9",,,"04,99,1,99,9,99,9,99999,9,99,9,99,9","09898,1,99999,9",,"MET070METAR ENSF 170950Z AUTO 04007KT 9999NDV SCT140/// 01/M06 Q0990 W///S6;",
"01300599999","2010-12-17T10:20:00","4","61.25","1.85","117.65","STATFJORD OIL PLATFORM HELIPORT, FO","FM-15","ENSF ","V020","060,1,N,0036,1","04500,1,9,N","011265,1,N,1","+0010,1","-0050,1","99999,9",,,"07,1,+04500,1,99,9",,,"07,99,1,99,9,99,9,99999,9,99,9,99,9","09898,1,99999,9",,"MET078METAR ENSF 171020Z AUTO 06007KT 030V090 9999NDV BKN150/// 01/M05 Q0990 W///S6;",
"01300599999","2010-12-17T10:50:00","4","61.25","1.85","117.65","STATFJORD OIL PLATFORM HELIPORT, FO","FM-15","ENSF ","V020","110,1,N,0057,1","04500,1,9,N","011265,1,N,1","+0010,1","-0050,1","99999,9",,,"04,1,+00840,1,99,9","07,1,+04500,1,99,9",,"07,99,1,99,9,99,9,99999,9,99,9,99,9","09898,1,99999,9",,"MET088METAR ENSF 171050Z AUTO 11011KT 070V130 9999NDV SCT028/// BKN150/// 01/M05 Q0990 W///S6;",
"01300599999","2010-12-17T11:20:00","4","61.25","1.85","117.65","STATFJORD OIL PLATFORM HELIPORT, FO","FM-15","ENSF ","V020","100,1,N,0072,1","04500,1,9,N","011265,1,N,1","+0010,1","-0050,1","99999,9",,,"04,1,+00810,1,99,9","07,1,+04500,1,99,9",,"07,99,1,99,9,99,9,99999,9,99,9,99,9","09898,1,99999,9",,"MET080METAR ENSF 171120Z AUTO 10014KT 9999NDV SCT027/// BKN150/// 01/M05 Q0990 W///S6;",
"01300599999","2010-12-17T11:50:00","4","61.25","1.85","117.65","STATFJORD OIL PLATFORM HELIPORT, FO","FM-15","ENSF ","V020","120,1,N,0077,1","00780,1,9,N","011265,1,N,1","+0010,1","-0040,1","99999,9",,,"04,1,+00720,1,99,9","07,1,+00780,1,99,9","07,1,+04500,1,99,9","07,99,1,99,9,99,9,99999,9,99,9,99,9","09898,1,99999,9",,"MET090METAR ENSF 171150Z AUTO 12015KT 9999NDV SCT024/// BKN026/// BKN150/// 01/M04 Q0990 W///S6;",
"01300599999","2010-12-17T12:20:00","4","61.25","1.85","117.65","STATFJORD OIL PLATFORM HELIPORT, FO","FM-15","ENSF ","V020","130,1,N,0093,1","00720,1,9,N","011265,1,N,1","+0010,1","-0050,1","99999,9",,,"02,1,+00150,1,99,9","07,1,+00720,1,99,9",,"07,99,1,99,9,99,9,99999,9,99,9,99,9","09909,1,99999,9",,"MET080METAR ENSF 171220Z AUTO 13018KT 9999NDV FEW005/// BKN024/// 01/M05 Q0991 W///S6;",
"01300599999","2010-12-17T12:50:00","4","61.25","1.85","117.65","STATFJORD OIL PLATFORM HELIPORT, FO","FM-15","ENSF ","V020","110,1,N,0113,1","22000,1,9,N","011265,1,N,1","+0000,1","-0040,1","99999,9",,,"02,1,+00150,1,99,9",,,"02,99,1,99,9,99,9,99999,9,99,9,99,9","09909,1,99999,9",,"MET070METAR ENSF 171250Z AUTO 11022KT 9999NDV FEW005/// 00/M04 Q0991 W///S6;",
"01300599999","2010-12-17T13:20:00","4","61.25","1.85","117.65","STATFJORD OIL PLATFORM HELIPORT, FO","FM-15","ENSF ","V020","120,1,N,0098,1","01380,1,9,N","003500,1,N,1","+0000,1","-0040,1","99999,9","71,1",,"04,1,+00150,1,99,9","07,1,+01380,1,99,9",,"07,99,1,99,9,99,9,99999,9,99,9,99,9","09909,1,99999,9",,"MET084METAR ENSF 171320Z AUTO 12019KT 3500NDV -SN SCT005/// BKN046/// 00/M04 Q0991 W///S6;",
"01300599999","2010-12-17T13:50:00","4","61.25","1.85","117.65","STATFJORD OIL PLATFORM HELIPORT, FO","FM-15","ENSF ","V020","150,1,N,0093,1","00540,1,9,N","011265,1,N,1","+0010,1","-0030,1","99999,9","81,1",,"07,1,+00540,1,99,9",,,"07,99,1,99,9,99,9,99999,9,99,9,99,9","09909,1,99999,9",,"MET076METAR ENSF 171350Z AUTO 15018KT 9999NDV -SHRA BKN018/// 01/M03 Q0991 W///S6;",
"01300599999","2010-12-17T14:20:00","4","61.25","1.85","117.65","STATFJORD OIL PLATFORM HELIPORT, FO","FM-15","ENSF ","V020","140,1,N,0154,1","22000,1,9,N","007000,1,N,1","+0000,1","-0030,1","99999,9","71,1",,,,,,"09910,1,99999,9",,"MET092METAR ENSF 171420Z AUTO 14030KT 7000NDV -SHFZRA -SN FEW011/// OVC040/// 00/M03 Q0991 W///S6;",
"01300599999","2010-12-17T14:50:00","4","61.25","1.85","117.65","STATFJORD OIL PLATFORM HELIPORT, FO","FM-15","ENSF ","V020","130,1,N,0154,1","00420,1,9,N","011265,1,N,1","+0010,1","-0030,1","99999,9","80,1",,"07,1,+00420,1,99,9","07,1,+01800,1,99,9",,"07,99,1,99,9,99,9,99999,9,99,9,99,9","09919,1,99999,9",,"MET088METAR ENSF 171450Z AUTO 13030KT 9999NDV -SHRASN BKN014/// BKN067/// 01/M03 Q0992 W///S6;",
"01300599999","2010-12-17T15:20:00","4","61.25","1.85","117.65","STATFJORD OIL PLATFORM HELIPORT, FO","FM-15","ENSF ","V020","140,1,N,0139,1","00510,1,9,N","011265,1,N,1","+0010,1","-0040,1","99999,9","81,1",,"07,1,+00510,1,99,9","07,1,+01800,1,99,9","07,1,+02700,1,99,9","07,99,1,99,9,99,9,99999,9,99,9,99,9","09919,1,99999,9",,"MET096METAR ENSF 171520Z AUTO 14027KT 9999NDV -SHRA BKN017/// BKN061/// BKN099/// 01/M04 Q0992 W///S6;",
"01300599999","2010-12-17T15:50:00","4","61.25","1.85","117.65","STATFJORD OIL PLATFORM HELIPORT, FO","FM-15","ENSF ","V020","130,1,N,0144,1","00780,1,9,N","011265,1,N,1","+0010,1","-0040,1","99999,9","71,1",,"07,1,+00780,1,99,9","07,1,+02700,1,99,9",,"07,99,1,99,9,99,9,99999,9,99,9,99,9","09919,1,99999,9",,"MET084METAR ENSF 171550Z AUTO 13028KT 9999NDV -SN BKN026/// BKN098/// 01/M04 Q0992 W///S5;",
"01300599999","2010-12-17T16:20:00","4","61.25","1.85","117.65","STATFJORD OIL PLATFORM HELIPORT, FO","FM-15","ENSF ","V020","130,1,N,0154,1","00570,1,9,N","011265,1,N,1","+0020,1","-0040,1","99999,9","80,1",,"07,1,+00570,1,99,9",,,"07,99,1,99,9,99,9,99999,9,99,9,99,9","09919,1,99999,9",,"MET078METAR ENSF 171620Z AUTO 13030KT 9999NDV -SHRASN BKN019/// 02/M04 Q0992 W///S6;",
"01300599999","2010-12-17T16:50:00","4","61.25","1.85","117.65","STATFJORD OIL PLATFORM HELIPORT, FO","FM-15","ENSF ","V020","130,1,N,0154,1","01230,1,9,N","011265,1,N,1","+0020,1","-0060,1","99999,9",,,"07,1,+01230,1,99,9",,,"07,99,1,99,9,99,9,99999,9,99,9,99,9","09929,1,99999,9",,"MET070METAR ENSF 171650Z AUTO 13030KT 9999NDV BKN041/// 02/M06 Q0993 W///S5;",
"01300599999","2010-12-17T17:20:00","4","61.25","1.85","117.65","STATFJORD OIL PLATFORM HELIPORT, FO","FM-15","ENSF ","V020","130,1,N,0165,1","01140,1,9,N","011265,1,N,1","+0020,1","-0050,1","99999,9",,,"07,1,+01140,1,99,9",,,"07,99,1,99,9,99,9,99999,9,99,9,99,9","09929,1,99999,9",,"MET070METAR ENSF 171720Z AUTO 13032KT 9999NDV BKN038/// 02/M05 Q0993 W///S5;",
"01300599999","2010-12-17T17:50:00","4","61.25","1.85","117.65","STATFJORD OIL PLATFORM HELIPORT, FO","FM-15","ENSF ","V020","130,1,N,0175,1","01140,1,9,N","011265,1,N,1","+0020,1","-0050,1","99999,9",,,"07,1,+01140,1,99,9","07,1,+03300,1,99,9",,"07,99,1,99,9,99,9,99999,9,99,9,99,9","09929,1,99999,9",,"MET080METAR ENSF 171750Z AUTO 13034KT 9999NDV BKN038/// BKN110/// 02/M05 Q0993 W///S6;",
"01300599999","2010-12-17T18:20:00","4","61.25","1.85","117.65","STATFJORD OIL PLATFORM HELIPORT, FO","FM-15","ENSF ","V020","130,1,N,0180,1","01140,1,9,N","011265,1,N,1","+0030,1","-0050,1","99999,9","81,1",,"07,1,+01140,1,99,9",,,"07,99,1,99,9,99,9,99999,9,99,9,99,9","09939,1,99999,9",,"MET076METAR ENSF 171820Z AUTO 13035KT 9999NDV -SHRA BKN038/// 03/M05 Q0994 W///S6;",
"01300599999","2010-12-17T18:50:00","4","61.25","1.85","117.65","STATFJORD OIL PLATFORM HELIPORT, FO","FM-15","ENSF ","V020","130,1,N,0165,1","01170,1,9,N","011265,1,N,1","+0030,1","-0060,1","99999,9",,,"07,1,+01170,1,99,9","07,1,+03900,1,99,9",,"07,99,1,99,9,99,9,99999,9,99,9,99,9","09949,1,99999,9",,"MET080METAR ENSF 171850Z AUTO 13032KT 9999NDV BKN039/// BKN130/// 03/M06 Q0995 W///S5;",
"01300599999","2010-12-17T19:20:00","4","61.25","1.85","117.65","STATFJORD OIL PLATFORM HELIPORT, FO","FM-15","ENSF ","V020","120,1,N,0185,1","01110,1,9,N","011265,1,N,1","+0030,1","-0050,1","99999,9","81,1",,"07,1,+01110,1,99,9","07,1,+01500,1,99,9","07,1,+04500,1,99,9","07,99,1,99,9,99,9,99999,9,99,9,99,9","09949,1,99999,9",,"MET096METAR ENSF 171920Z AUTO 12036KT 9999NDV -SHRA BKN037/// BKN059/// BKN150/// 03/M05 Q0995 W///S5;",
"01300599999","2010-12-17T19:50:00","4","61.25","1.85","117.65","STATFJORD OIL PLATFORM HELIPORT, FO","FM-15","ENSF ","V020","120,1,N,0175,1","01170,1,9,N","011265,1,N,1","+0030,1","-0050,1","99999,9",,,"07,1,+01170,1,99,9","07,1,+04800,1,99,9",,"07,99,1,99,9,99,9,99999,9,99,9,99,9","09949,1,99999,9",,"MET080METAR ENSF 171950Z AUTO 12034KT 9999NDV BKN039/// BKN160/// 03/M05 Q0995 W///S5;",
"01300599999","2010-12-17T20:20:00","4","61.25","1.85","117.65","STATFJORD OIL PLATFORM HELIPORT, FO","FM-15","ENSF ","V020","120,1,N,0190,1","01260,1,9,N","011265,1,N,1","+0030,1","-0050,1","99999,9","81,1",,"07,1,+01260,1,99,9",,,"07,99,1,99,9,99,9,99999,9,99,9,99,9","09959,1,99999,9",,"MET076METAR ENSF 172020Z AUTO 12037KT 9999NDV -SHRA BKN042/// 03/M05 Q0996 W///S6;",
"01300599999","2010-12-17T20:50:00","4","61.25","1.85","117.65","STATFJORD OIL PLATFORM HELIPORT, FO","FM-15","ENSF ","V020","120,1,N,0190,1","01020,1,9,N","011265,1,N,1","+0020,1","-0050,1","99999,9",,,"07,1,+01020,1,99,9",,,"07,99,1,99,9,99,9,99999,9,99,9,99,9","09970,1,99999,9",,"MET070METAR ENSF 172050Z AUTO 12037KT 9999NDV BKN034/// 02/M05 Q0997 W///S6;",
"01300599999","2010-12-17T21:20:00","4","61.25","1.85","117.65","STATFJORD OIL PLATFORM HELIPORT, FO","FM-15","ENSF ","V020","120,1,N,0175,1","01320,1,9,N","011265,1,N,1","+0020,1","-0040,1","99999,9","81,1",,"07,1,+01320,1,99,9",,,"07,99,1,99,9,99,9,99999,9,99,9,99,9","09970,1,99999,9",,"MET076METAR ENSF 172120Z AUTO 12034KT 9999NDV -SHRA BKN044/// 02/M04 Q0997 W///S5;",
"01300599999","2010-12-17T21:50:00","4","61.25","1.85","117.65","STATFJORD OIL PLATFORM HELIPORT, FO","FM-15","ENSF ","V020","130,1,N,0180,1","01050,1,9,N","011265,1,N,1","+0030,1","-0060,1","99999,9",,,"07,1,+01050,1,99,9",,,"07,99,1,99,9,99,9,99999,9,99,9,99,9","09980,1,99999,9",,"MET070METAR ENSF 172150Z AUTO 13035KT 9999NDV BKN035/// 03/M06 Q0998 W///S5;",
"01300599999","2010-12-17T22:20:00","4","61.25","1.85","117.65","STATFJORD OIL PLATFORM HELIPORT, FO","FM-15","ENSF ","V020","120,1,N,0170,1","01080,1,9,N","011265,1,N,1","+0020,1","-0050,1","99999,9",,,"07,1,+01080,1,99,9",,,"07,99,1,99,9,99,9,99999,9,99,9,99,9","09980,1,99999,9",,"MET070METAR ENSF 172220Z AUTO 12033KT 9999NDV BKN036/// 02/M05 Q0998 W///S5;",
"01300599999","2010-12-17T22:50:00","4","61.25","1.85","117.65","STATFJORD OIL PLATFORM HELIPORT, FO","FM-15","ENSF ","V020","120,1,N,0165,1","01170,1,9,N","011265,1,N,1","+0020,1","-0050,1","99999,9",,,"07,1,+01170,1,99,9",,,"07,99,1,99,9,99,9,99999,9,99,9,99,9","09990,1,99999,9",,"MET070METAR ENSF 172250Z AUTO 12032KT 9999NDV BKN039/// 02/M05 Q0999 W///S5;",
"01300599999","2010-12-17T23:20:00","4","61.25","1.85","117.65","STATFJORD OIL PLATFORM HELIPORT, FO","FM-15","ENSF ","V020","120,1,N,0159,1","01320,1,9,N","011265,1,N,1","+0020,1","-0060,1","99999,9",,,"07,1,+01320,1,99,9",,,"07,99,1,99,9,99,9,99999,9,99,9,99,9","09990,1,99999,9",,"MET070METAR ENSF 172320Z AUTO 12031KT 9999NDV BKN044/// 02/M06 Q0999 W///S5;",
"01300599999","2010-12-17T23:50:00","4","61.25","1.85","117.65","STATFJORD OIL PLATFORM HELIPORT, FO","FM-15","ENSF ","V020","110,1,N,0154,1","01260,1,9,N","011265,1,N,1","+0020,1","-0060,1","99999,9",,,"07,1,+01260,1,99,9",,,"07,99,1,99,9,99,9,99999,9,99,9,99,9","10000,1,99999,9",,"MET070METAR ENSF 172350Z AUTO 11030KT 9999NDV BKN042/// 02/M06 Q1000 W///S5;",
"01300599999","2010-12-18T00:20:00","4","61.25","1.85","117.65","STATFJORD OIL PLATFORM HELIPORT, FO","FM-15","ENSF ","V020","120,1,N,0144,1","01170,1,9,N","011265,1,N,1","+0020,1","-0060,1","99999,9",,,"07,1,+01170,1,99,9",,,"07,99,1,99,9,99,9,99999,9,99,9,99,9","10000,1,99999,9",,"MET070METAR ENSF 180020Z AUTO 12028KT 9999NDV BKN039/// 02/M06 Q1000 W///S5;",
"01300599999","2010-12-18T00:50:00","4","61.25","1.85","117.65","STATFJORD OIL PLATFORM HELIPORT, FO","FM-15","ENSF ","V020","120,1,N,0144,1","01170,1,9,N","011265,1,N,1","+0020,1","-0070,1","99999,9",,,"07,1,+01170,1,99,9",,,"07,99,1,99,9,99,9,99999,9,99,9,99,9","10000,1,99999,9",,"MET070METAR ENSF 180050Z AUTO 12028KT 9999NDV BKN039/// 02/M07 Q1000 W///S5;",
"01300599999","2010-12-18T01:20:00","4","61.25","1.85","117.65","STATFJORD OIL PLATFORM HELIPORT, FO","FM-15","ENSF ","V020","120,1,N,0129,1","05100,1,9,N","011265,1,N,1","+0020,1","-0070,1","99999,9",,,"02,1,+01200,1,99,9","07,1,+05100,1,99,9",,"07,99,1,99,9,99,9,99999,9,99,9,99,9","10000,1,99999,9",,"MET080METAR ENSF 180120Z AUTO 12025KT 9999NDV FEW040/// BKN170/// 02/M07 Q1000 W///S5;",
"01300599999","2010-12-18T01:50:00","4","61.25","1.85","117.65","STATFJORD OIL PLATFORM HELIPORT, FO","FM-15","ENSF ","V020","120,1,N,0113,1","04500,1,9,N","011265,1,N,1","+0020,1","-0070,1","99999,9",,,"02,1,+01260,1,99,9","07,1,+04500,1,99,9",,"07,99,1,99,9,99,9,99999,9,99,9,99,9","10010,1,99999,9",,"MET080METAR ENSF 180150Z AUTO 12022KT 9999NDV FEW042/// BKN150/// 02/M07 Q1001 W///S5;",
"01300599999","2010-12-18T02:20:00","4","61.25","1.85","117.65","STATFJORD OIL PLATFORM HELIPORT, FO","FM-15","ENSF ","V020","110,1,N,0113,1","22000,1,9,N","011265,1,N,1","+0020,1","-0070,1","99999,9",,,"04,1,+01350,1,99,9",,,"04,99,1,99,9,99,9,99999,9,99,9,99,9","10010,1,99999,9",,"MET070METAR ENSF 180220Z AUTO 11022KT 9999NDV SCT045/// 02/M07 Q1001 W///S5;",
"01300599999","2010-12-18T02:50:00","4","61.25","1.85","117.65","STATFJORD OIL PLATFORM HELIPORT, FO","FM-15","ENSF ","V020","110,1,N,0118,1","22000,1,9,N","011265,1,N,1","+0020,1","-0080,1","99999,9",,,"04,1,+01350,1,99,9",,,"04,99,1,99,9,99,9,99999,9,99,9,99,9","10010,1,99999,9",,"MET070METAR ENSF 180250Z AUTO 11023KT 9999NDV SCT045/// 02/M08 Q1001 W///S5;",
"01300599999","2010-12-18T03:20:00","4","61.25","1.85","117.65","STATFJORD OIL PLATFORM HELIPORT, FO","FM-15","ENSF ","V020","100,1,N,0118,1","22000,1,9,N","011265,1,N,1","+0020,1","-0080,1","99999,9",,,"02,1,+01410,1,99,9",,,"02,99,1,99,9,99,9,99999,9,99,9,99,9","10020,1,99999,9",,"MET070METAR ENSF 180320Z AUTO 10023KT 9999NDV FEW047/// 02/M08 Q1002 W///S5;",
"01300599999","2010-12-18T03:50:00","4","61.25","1.85","117.65","STATFJORD OIL PLATFORM HELIPORT, FO","FM-15","ENSF ","V020","100,1,N,0113,1","22000,1,9,N","011265,1,N,1","+0020,1","-0090,1","99999,9",,,"02,1,+01470,1,99,9",,,"02,99,1,99,9,99,9,99999,9,99,9,99,9","10020,1,99999,9",,"MET070METAR ENSF 180350Z AUTO 10022KT 9999NDV FEW049/// 02/M09 Q1002 W///S5;",
"01300599999","2010-12-18T04:20:00","4","61.25","1.85","117.65","STATFJORD OIL PLATFORM HELIPORT, FO","FM-15","ENSF ","V020","100,1,N,0113,1","05400,1,9,N","011265,1,N,1","+0030,1","-0090,1","99999,9",,,"07,1,+05400,1,99,9",,,"07,99,1,99,9,99,9,99999,9,99,9,99,9","10020,1,99999,9",,"MET070METAR ENSF 180420Z AUTO 10022KT 9999NDV BKN180/// 03/M09 Q1002 W///S5;",
"01300599999","2010-12-18T04:50:00","4","61.25","1.85","117.65","STATFJORD OIL PLATFORM HELIPORT, FO","FM-15","ENSF ","V020","110,1,N,0113,1","22000,1,9,N","011265,1,N,1","+0030,1","-0090,1","99999,9",,,"04,1,+05400,1,99,9",,,"04,99,1,99,9,99,9,99999,9,99,9,99,9","10020,1,99999,9",,"MET070METAR ENSF 180450Z AUTO 11022KT 9999NDV SCT180/// 03/M09 Q1002 W///S5;",
"01300599999","2010-12-18T05:20:00","4","61.25","1.85","117.65","STATFJORD OIL PLATFORM HELIPORT, FO","FM-15","ENSF ","V020","100,1,N,0108,1","22000,1,9,N","011265,1,N,1","+0030,1","-0080,1","99999,9",,,,,,"00,99,1,99,9,99,9,99999,9,99,9,99,9","10031,1,99999,9",,"MET064METAR ENSF 180520Z AUTO 10021KT 9999NDV NCD 03/M08 Q1003 W///S5;","Q01    003SCCGA1"
"01300599999","2010-12-18T05:50:00","4","61.25","1.85","117.65","STATFJORD OIL PLATFORM HELIPORT, FO","FM-15","ENSF ","V020","100,1,N,0113,1","22000,1,9,N","011265,1,N,1","+0030,1","-0080,1","99999,9",,,,,,"00,99,1,99,9,99,9,99999,9,99,9,99,9","10031,1,99999,9",,"MET064METAR ENSF 180550Z AUTO 10022KT 9999NDV NCD 03/M08 Q1003 W///S5;","Q01    003SCCGA1"
"01300599999","2010-12-18T06:20:00","4","61.25","1.85","117.65","STATFJORD OIL PLATFORM HELIPORT, FO","FM-15","ENSF ","V020","110,1,N,0123,1","22000,1,9,N","011265,1,N,1","+0030,1","-0070,1","99999,9",,,"02,1,+01290,1,99,9",,,"02,99,1,99,9,99,9,99999,9,99,9,99,9","10031,1,99999,9",,"MET070METAR ENSF 180620Z AUTO 11024KT 9999NDV FEW043/// 03/M07 Q1003 W///S5;",
"01300599999","2010-12-18T06:50:00","4","61.25","1.85","117.65","STATFJORD OIL PLATFORM HELIPORT, FO","FM-15","ENSF ","V020","100,1,N,0118,1","22000,1,9,N","011265,1,N,1","+0030,1","-0070,1","99999,9",,,,,,"00,99,1,99,9,99,9,99999,9,99,9,99,9","10031,1,99999,9",,"MET064METAR ENSF 180650Z AUTO 10023KT 9999NDV NCD 03/M07 Q1003 W///S5;","Q01    003SCCGA1"
"01300599999","2010-12-18T07:20:00","4","61.25","1.85","117.65","STATFJORD OIL PLATFORM HELIPORT, FO","FM-15","ENSF ","V020","120,1,N,0118,1","22000,1,9,N","011265,1,N,1","+0030,1","-0080,1","99999,9",,,"02,1,+01350,1,99,9",,,"02,99,1,99,9,99,9,99999,9,99,9,99,9","10041,1,99999,9",,"MET070METAR ENSF 180720Z AUTO 12023KT 9999NDV FEW045/// 03/M08 Q1004 W///S5;",
"01300599999","2010-12-18T07:50:00","4","61.25","1.85","117.65","STATFJORD OIL PLATFORM HELIPORT, FO","FM-15","ENSF ","V020","120,1,N,0129,1","22000,1,9,N","011265,1,N,1","+0030,1","-0060,1","99999,9",,,"04,1,+01290,1,99,9",,,"04,99,1,99,9,99,9,99999,9,99,9,99,9","10041,1,99999,9",,"MET070METAR ENSF 180750Z AUTO 12025KT 9999NDV SCT043/// 03/M06 Q1004 W///S5;",
"01300599999","2010-12-18T08:20:00","4","61.25","1.85","117.65","STATFJORD OIL PLATFORM HELIPORT, FO","FM-15","ENSF ","V020","120,1,N,0149,1","01080,1,9,N","011265,1,N,1","+0030,1","-0050,1","99999,9","81,1",,"07,1,+01080,1,99,9",,,"07,99,1,99,9,99,9,99999,9,99,9,99,9","10041,1,99999,9",,"MET076METAR ENSF 180820Z AUTO 12029KT 9999NDV -SHRA BKN036/// 03/M05 Q1004 W///S5;",
"01300599999","2010-12-18T08:50:00","4","61.25","1.85","117.65","STATFJORD OIL PLATFORM HELIPORT, FO","FM-15","ENSF ","V020","110,1,N,0159,1","01230,1,9,N","011265,1,N,1","+0030,1","-0060,1","99999,9",,,"07,1,+01230,1,99,9",,,"07,99,1,99,9,99,9,99999,9,99,9,99,9","10041,1,99999,9",,"MET070METAR ENSF 180850Z AUTO 11031KT 9999NDV BKN041/// 03/M06 Q1004 W///S5;",
"01300599999","2010-12-18T09:20:00","4","61.25","1.85","117.65","STATFJORD OIL PLATFORM HELIPORT, FO","FM-15","ENSF ","V020","120,1,N,0149,1","01260,1,9,N","011265,1,N,1","+0030,1","-0050,1","99999,9",,,"07,1,+01260,1,99,9",,,"07,99,1,99,9,99,9,99999,9,99,9,99,9","10051,1,99999,9",,"MET070METAR ENSF 180920Z AUTO 12029KT 9999NDV BKN042/// 03/M05 Q1005 W///S5;",
"01300599999","2010-12-18T09:50:00","4","61.25","1.85","117.65","STATFJORD OIL PLATFORM HELIPORT, FO","FM-15","ENSF ","V020","100,1,N,0165,1","01260,1,9,N","011265,1,N,1","+0030,1","-0060,1","99999,9",,,"07,1,+01260,1,99,9","07,1,+01800,1,99,9",,"07,99,1,99,9,99,9,99999,9,99,9,99,9","10051,1,99999,9",,"MET080METAR ENSF 180950Z AUTO 10032KT 9999NDV BKN042/// BKN068/// 03/M06 Q1005 W///S5;",
"01300599999","2010-12-18T10:20:00","4","61.25","1.85","117.65","STATFJORD OIL PLATFORM HELIPORT, FO","FM-15","ENSF ","V020","100,1,N,0154,1","22000,1,9,N","011265,1,N,1","+0030,1","-0060,1","99999,9",,,"02,1,+01350,1,99,9","04,1,+01800,1,99,9",,"04,99,1,99,9,99,9,99999,9,99,9,99,9","10051,1,99999,9",,"MET080METAR ENSF 181020Z AUTO 10030KT 9999NDV FEW045/// SCT069/// 03/M06 Q1005 W///S5;",
"01300599999","2010-12-18T10:50:00","4","61.25","1.85","117.65","STATFJORD OIL PLATFORM HELIPORT, FO","FM-15","ENSF ","V020","100,1,N,0154,1","22000,1,9,N","011265,1,N,1","+0030,1","-0060,1","99999,9",,,"02,1,+01320,1,99,9",,,"02,99,1,99,9,99,9,99999,9,99,9,99,9","10061,1,99999,9",,"MET070METAR ENSF 181050Z AUTO 10030KT 9999NDV FEW044/// 03/M06 Q1006 W///S5;",
"01300599999","2010-12-18T11:20:00","4","61.25","1.85","117.65","STATFJORD OIL PLATFORM HELIPORT, FO","FM-15","ENSF ","V020","110,1,N,0149,1","22000,1,9,N","011265,1,N,1","+0030,1","-0070,1","99999,9",,,"02,1,+01290,1,99,9",,,"02,99,1,99,9,99,9,99999,9,99,9,99,9","10061,1,99999,9",,"MET070METAR ENSF 181120Z AUTO 11029KT 9999NDV FEW043/// 03/M07 Q1006 W///S5;",
"01300599999","2010-12-18T11:50:00","4","61.25","1.85","117.65","STATFJORD OIL PLATFORM HELIPORT, FO","FM-15","ENSF ","V020","110,1,N,0139,1","22000,1,9,N","011265,1,N,1","+0030,1","-0070,1","99999,9",,,"02,1,+01320,1,99,9",,,"02,99,1,99,9,99,9,99999,9,99,9,99,9","10061,1,99999,9",,"MET070METAR ENSF 181150Z AUTO 11027KT 9999NDV FEW044/// 03/M07 Q1006 W///S5;",
"01300599999","2010-12-18T12:20:00","4","61.25","1.85","117.65","STATFJORD OIL PLATFORM HELIPORT, FO","FM-15","ENSF ","V020","110,1,N,0129,1","22000,1,9,N","011265,1,N,1","+0030,1","-0070,1","99999,9",,,"02,1,+01290,1,99,9",,,"02,99,1,99,9,99,9,99999,9,99,9,99,9","10061,1,99999,9",,"MET070METAR ENSF 181220Z AUTO 11025KT 9999NDV FEW043/// 03/M07 Q1006 W///S5;",
"01300599999","2010-12-18T12:50:00","4","61.25","1.85","117.65","STATFJORD OIL PLATFORM HELIPORT, FO","FM-15","ENSF ","V020","120,1,N,0113,1","22000,1,9,N","011265,1,N,1","+0030,1","-0070,1","99999,9",,,,,,"00,99,1,99,9,99,9,99999,9,99,9,99,9","10061,1,99999,9",,"MET064METAR ENSF 181250Z AUTO 12022KT 9999NDV NCD 03/M07 Q1006 W///S5;","Q01    003SCCGA1"
"01300599999","2010-12-18T13:20:00","4","61.25","1.85","117.65","STATFJORD OIL PLATFORM HELIPORT, FO","FM-15","ENSF ","V020","120,1,N,0113,1","22000,1,9,N","011265,1,N,1","+0030,1","-0060,1","99999,9",,,,,,"00,99,1,99,9,99,9,99999,9,99,9,99,9","10061,1,99999,9",,"MET064METAR ENSF 181320Z AUTO 12022KT 9999NDV NCD 03/M06 Q1006 W///S5;","Q01    003SCCGA1"
"01300599999","2010-12-18T13:50:00","4","61.25","1.85","117.65","STATFJORD OIL PLATFORM HELIPORT, FO","FM-15","ENSF ","V020","120,1,N,0103,1","22000,1,9,N","011265,1,N,1","+0030,1","-0070,1","99999,9",,,"02,1,+01260,1,99,9",,,"02,99,1,99,9,99,9,99999,9,99,9,99,9","10061,1,99999,9",,"MET070METAR ENSF 181350Z AUTO 12020KT 9999NDV FEW042/// 03/M07 Q1006 W///S5;",
"01300599999","2010-12-18T14:20:00","4","61.25","1.85","117.65","STATFJORD OIL PLATFORM HELIPORT, FO","FM-15","ENSF ","V020","120,1,N,0098,1","22000,1,9,N","011265,1,N,1","+0030,1","-0070,1","99999,9",,,"02,1,+01230,1,99,9",,,"02,99,1,99,9,99,9,99999,9,99,9,99,9","10061,1,99999,9",,"MET070METAR ENSF 181420Z AUTO 12019KT 9999NDV FEW041/// 03/M07 Q1006 W///S5;",
"01300599999","2010-12-18T14:50:00","4","61.25","1.85","117.65","STATFJORD OIL PLATFORM HELIPORT, FO","FM-15","ENSF ","V020","130,1,N,0103,1","01350,1,9,N","011265,1,N,1","+0040,1","-0060,1","99999,9",,,"07,1,+01350,1,99,9",,,"07,99,1,99,9,99,9,99999,9,99,9,99,9","10071,1,99999,9",,"MET070METAR ENSF 181450Z AUTO 13020KT 9999NDV BKN045/// 04/M06 Q1007 W///S5;",
"01300599999","2010-12-18T15:20:00","4","61.25","1.85","117.65","STATFJORD OIL PLATFORM HELIPORT, FO","FM-15","ENSF ","V020","120,1,N,0098,1","01320,1,9,N","011265,1,N,1","+0030,1","-0070,1","99999,9",,,"07,1,+01320,1,99,9",,,"07,99,1,99,9,99,9,99999,9,99,9,99,9","10071,1,99999,9",,"MET070METAR ENSF 181520Z AUTO 12019KT 9999NDV BKN044/// 03/M07 Q1007 W///S5;",
"01300599999","2010-12-18T15:50:00","4","61.25","1.85","117.65","STATFJORD OIL PLATFORM HELIPORT, FO","FM-15","ENSF ","V020","120,1,N,0103,1","01410,1,9,N","011265,1,N,1","+0030,1","-0060,1","99999,9",,,"07,1,+01410,1,99,9",,,"07,99,1,99,9,99,9,99999,9,99,9,99,9","10071,1,99999,9",,"MET070METAR ENSF 181550Z AUTO 12020KT 9999NDV BKN047/// 03/M06 Q1007 W///S5;",
"01300599999","2010-12-18T16:20:00","4","61.25","1.85","117.65","STATFJORD OIL PLATFORM HELIPORT, FO","FM-15","ENSF ","V020","110,1,N,0103,1","01350,1,9,N","011265,1,N,1","+0030,1","-0070,1","99999,9",,,"07,1,+01350,1,99,9",,,"07,99,1,99,9,99,9,99999,9,99,9,99,9","10071,1,99999,9",,"MET070METAR ENSF 181620Z AUTO 11020KT 9999NDV BKN045/// 03/M07 Q1007 W///S5;",
"01300599999","2010-12-18T16:50:00","4","61.25","1.85","117.65","STATFJORD OIL PLATFORM HELIPORT, FO","FM-15","ENSF ","V020","110,1,N,0093,1","01350,1,9,N","011265,1,N,1","+0030,1","-0070,1","99999,9",,,"07,1,+01350,1,99,9",,,"07,99,1,99,9,99,9,99999,9,99,9,99,9","10081,1,99999,9",,"MET070METAR ENSF 181650Z AUTO 11018KT 9999NDV BKN045/// 03/M07 Q1008 W///S4;",
"01300599999","2010-12-18T17:20:00","4","61.25","1.85","117.65","STATFJORD OIL PLATFORM HELIPORT, FO","FM-15","ENSF ","V020","110,1,N,0098,1","01410,1,9,N","011265,1,N,1","+0030,1","-0080,1","99999,9",,,"07,1,+01410,1,99,9",,,"07,99,1,99,9,99,9,99999,9,99,9,99,9","10081,1,99999,9",,"MET070METAR ENSF 181720Z AUTO 11019KT 9999NDV BKN047/// 03/M08 Q1008 W///S5;",
"01300599999","2010-12-18T17:50:00","4","61.25","1.85","117.65","STATFJORD OIL PLATFORM HELIPORT, FO","FM-15","ENSF ","V020","110,1,N,0103,1","01440,1,9,N","011265,1,N,1","+0030,1","-0080,1","99999,9",,,"07,1,+01440,1,99,9",,,"07,99,1,99,9,99,9,99999,9,99,9,99,9","10081,1,99999,9",,"MET070METAR ENSF 181750Z AUTO 11020KT 9999NDV BKN048/// 03/M08 Q1008 W///S5;",
"01300599999","2010-12-18T18:20:00","4","61.25","1.85","117.65","STATFJORD OIL PLATFORM HELIPORT, FO","FM-15","ENSF ","V020","110,1,N,0103,1","01500,1,9,N","011265,1,N,1","+0030,1","-0070,1","99999,9",,,"07,1,+01500,1,99,9",,,"07,99,1,99,9,99,9,99999,9,99,9,99,9","10081,1,99999,9",,"MET070METAR ENSF 181820Z AUTO 11020KT 9999NDV BKN050/// 03/M07 Q1008 W///S5;",
"01300599999","2010-12-18T18:50:00","4","61.25","1.85","117.65","STATFJORD OIL PLATFORM HELIPORT, FO","FM-15","ENSF ","V020","120,1,N,0098,1","22000,1,9,N","011265,1,N,1","+0030,1","-0070,1","99999,9",,,"04,1,+01380,1,99,9",,,"04,99,1,99,9,99,9,99999,9,99,9,99,9","10081,1,99999,9",,"MET070METAR ENSF 181850Z AUTO 12019KT 9999NDV SCT046/// 03/M07 Q1008 W///S4;",
"01300599999","2010-12-18T19:20:00","4","61.25","1.85","117.65","STATFJORD OIL PLATFORM HELIPORT, FO","FM-15","ENSF ","V020","110,1,N,0098,1","22000,1,9,N","011265,1,N,1","+0030,1","-0070,1","99999,9",,,"02,1,+01500,1,99,9",,,"02,99,1,99,9,99,9,99999,9,99,9,99,9","10081,1,99999,9",,"MET070METAR ENSF 181920Z AUTO 11019KT 9999NDV FEW051/// 03/M07 Q1008 W///S5;",
"01300599999","2010-12-18T19:50:00","4","61.25","1.85","117.65","STATFJORD OIL PLATFORM HELIPORT, FO","FM-15","ENSF ","V020","110,1,N,0098,1","22000,1,9,N","011265,1,N,1","+0030,1","-0070,1","99999,9",,,"04,1,+01320,1,99,9",,,"04,99,1,99,9,99,9,99999,9,99,9,99,9","10081,1,99999,9",,"MET070METAR ENSF 181950Z AUTO 11019KT 9999NDV SCT044/// 03/M07 Q1008 W///S5;",
"01300599999","2010-12-18T20:20:00","4","61.25","1.85","117.65","STATFJORD OIL PLATFORM HELIPORT, FO","FM-15","ENSF ","V020","120,1,N,0082,1","22000,1,9,N","011265,1,N,1","+0030,1","-0080,1","99999,9",,,"02,1,+01380,1,99,9",,,"02,99,1,99,9,99,9,99999,9,99,9,99,9","10081,1,99999,9",,"MET070METAR ENSF 182020Z AUTO 12016KT 9999NDV FEW046/// 03/M08 Q1008 W///S5;",
"01300599999","2010-12-18T20:50:00","4","61.25","1.85","117.65","STATFJORD OIL PLATFORM HELIPORT, FO","FM-15","ENSF ","V020","120,1,N,0062,1","22000,1,9,N","011265,1,N,1","+0030,1","-0080,1","99999,9",,,"04,1,+01410,1,99,9",,,"04,99,1,99,9,99,9,99999,9,99,9,99,9","10081,1,99999,9",,"MET070METAR ENSF 182050Z AUTO 12012KT 9999NDV SCT047/// 03/M08 Q1008 W///S4;",
"01300599999","2010-12-18T21:20:00","4","61.25","1.85","117.65","STATFJORD OIL PLATFORM HELIPORT, FO","FM-15","ENSF ","V020","130,1,N,0067,1","22000,1,9,N","011265,1,N,1","+0030,1","-0080,1","99999,9",,,"04,1,+01410,1,99,9",,,"04,99,1,99,9,99,9,99999,9,99,9,99,9","10081,1,99999,9",,"MET070METAR ENSF 182120Z AUTO 13013KT 9999NDV SCT047/// 03/M08 Q1008 W///S4;",
"01300599999","2010-12-18T21:50:00","4","61.25","1.85","117.65","STATFJORD OIL PLATFORM HELIPORT, FO","FM-15","ENSF ","V020","110,1,N,0057,1","01410,1,9,N","011265,1,N,1","+0030,1","-0080,1","99999,9",,,"07,1,+01410,1,99,9",,,"07,99,1,99,9,99,9,99999,9,99,9,99,9","10081,1,99999,9",,"MET070METAR ENSF 182150Z AUTO 11011KT 9999NDV BKN047/// 03/M08 Q1008 W///S4;",
"01300599999","2010-12-18T22:20:00","4","61.25","1.85","117.65","STATFJORD OIL PLATFORM HELIPORT, FO","FM-15","ENSF ","V020","110,1,N,0057,1","01440,1,9,N","011265,1,N,1","+0030,1","-0080,1","99999,9",,,"07,1,+01440,1,99,9",,,"07,99,1,99,9,99,9,99999,9,99,9,99,9","10081,1,99999,9",,"MET070METAR ENSF 182220Z AUTO 11011KT 9999NDV BKN048/// 03/M08 Q1008 W///S4;",
"01300599999","2010-12-18T22:50:00","4","61.25","1.85","117.65","STATFJORD OIL PLATFORM HELIPORT, FO","FM-15","ENSF ","V020","090,1,N,0082,1","01260,1,9,N","011265,1,N,1","+0030,1","-0060,1","99999,9",,,"07,1,+01260,1,99,9",,,"07,99,1,99,9,99,9,99999,9,99,9,99,9","10081,1,99999,9",,"MET070METAR ENSF 182250Z AUTO 09016KT 9999NDV BKN042/// 03/M06 Q1008 W///S4;",
"01300599999","2010-12-18T23:20:00","4","61.25","1.85","117.65","STATFJORD OIL PLATFORM HELIPORT, FO","FM-15","ENSF ","V020","090,1,N,0087,1","22000,1,9,N","011265,1,N,1","+0020,1","-0070,1","99999,9",,,"04,1,+01260,1,99,9",,,"04,99,1,99,9,99,9,99999,9,99,9,99,9","10081,1,99999,9",,"MET070METAR ENSF 182320Z AUTO 09017KT 9999NDV SCT042/// 02/M07 Q1008 W///S4;",
"01300599999","2010-12-18T23:50:00","4","61.25","1.85","117.65","STATFJORD OIL PLATFORM HELIPORT, FO","FM-15","ENSF ","V020","100,1,N,0082,1","22000,1,9,N","011265,1,N,1","+0020,1","-0070,1","99999,9",,,"02,1,+01230,1,99,9",,,"02,99,1,99,9,99,9,99999,9,99,9,99,9","10081,1,99999,9",,"MET070METAR ENSF 182350Z AUTO 10016KT 9999NDV FEW041/// 02/M07 Q1008 W///S4;",
"01300599999","2010-12-19T00:20:00","4","61.25","1.85","117.65","STATFJORD OIL PLATFORM HELIPORT, FO","FM-15","ENSF ","V020","100,1,N,0082,1","22000,1,9,N","011265,1,N,1","+0020,1","-0070,1","99999,9",,,"02,1,+01230,1,99,9",,,"02,99,1,99,9,99,9,99999,9,99,9,99,9","10081,1,99999,9",,"MET070METAR ENSF 190020Z AUTO 10016KT 9999NDV FEW041/// 02/M07 Q1008 W///S4;",
"01300599999","2010-12-19T00:50:00","4","61.25","1.85","117.65","STATFJORD OIL PLATFORM HELIPORT, FO","FM-15","ENSF ","V020","100,1,N,0077,1","22000,1,9,N","011265,1,N,1","+0020,1","-0070,1","99999,9",,,"04,1,+01200,1,99,9",,,"04,99,1,99,9,99,9,99999,9,99,9,99,9","10081,1,99999,9",,"MET070METAR ENSF 190050Z AUTO 10015KT 9999NDV SCT040/// 02/M07 Q1008 W///S4;",
"01300599999","2010-12-19T01:20:00","4","61.25","1.85","117.65","STATFJORD OIL PLATFORM HELIPORT, FO","FM-15","ENSF ","V020","110,1,N,0072,1","22000,1,9,N","011265,1,N,1","+0020,1","-0080,1","99999,9",,,"04,1,+01260,1,99,9",,,"04,99,1,99,9,99,9,99999,9,99,9,99,9","10081,1,99999,9",,"MET070METAR ENSF 190120Z AUTO 11014KT 9999NDV SCT042/// 02/M08 Q1008 W///S4;",
"01300599999","2010-12-19T01:50:00","4","61.25","1.85","117.65","STATFJORD OIL PLATFORM HELIPORT, FO","FM-15","ENSF ","V020","100,1,N,0067,1","01230,1,9,N","011265,1,N,1","+0020,1","-0070,1","99999,9",,,"07,1,+01230,1,99,9",,,"07,99,1,99,9,99,9,99999,9,99,9,99,9","10081,1,99999,9",,"MET070METAR ENSF 190150Z AUTO 10013KT 9999NDV BKN041/// 02/M07 Q1008 W///S4;",
"01300599999","2010-12-19T02:20:00","4","61.25","1.85","117.65","STATFJORD OIL PLATFORM HELIPORT, FO","FM-15","ENSF ","V020","080,1,N,0057,1","22000,1,9,N","011265,1,N,1","+0020,1","-0080,1","99999,9",,,"04,1,+01200,1,99,9",,,"04,99,1,99,9,99,9,99999,9,99,9,99,9","10081,1,99999,9",,"MET070METAR ENSF 190220Z AUTO 08011KT 9999NDV SCT040/// 02/M08 Q1008 W///S4;",
"01300599999","2010-12-19T02:50:00","4","61.25","1.85","117.65","STATFJORD OIL PLATFORM HELIPORT, FO","FM-15","ENSF ","V020","080,1,N,0062,1","22000,1,9,N","011265,1,N,1","+0020,1","-0080,1","99999,9",,,"02,1,+01200,1,99,9",,,"02,99,1,99,9,99,9,99999,9,99,9,99,9","10081,1,99999,9",,"MET070METAR ENSF 190250Z AUTO 08012KT 9999NDV FEW040/// 02/M08 Q1008 W///S4;",
"01300599999","2010-12-19T03:20:00","4","61.25","1.85","117.65","STATFJORD OIL PLATFORM HELIPORT, FO","FM-15","ENSF ","V020","070,1,N,0057,1","22000,1,9,N","011265,1,N,1","+0020,1","-0080,1","99999,9",,,"02,1,+01260,1,99,9",,,"02,99,1,99,9,99,9,99999,9,99,9,99,9","10071,1,99999,9",,"MET070METAR ENSF 190320Z AUTO 07011KT 9999NDV FEW042/// 02/M08 Q1007 W///S5;",
"01300599999","2010-12-19T03:50:00","4","61.25","1.85","117.65","STATFJORD OIL PLATFORM HELIPORT, FO","FM-15","ENSF ","V020","080,1,N,0051,1","22000,1,9,N","011265,1,N,1","+0020,1","-0080,1","99999,9",,,,,,"00,99,1,99,9,99,9,99999,9,99,9,99,9","10071,1,99999,9",,"MET064METAR ENSF 190350Z AUTO 08010KT 9999NDV NCD 02/M08 Q1007 W///S5;","Q01    003SCCGA1"
"01300599999","2010-12-19T04:20:00","4","61.25","1.85","117.65","STATFJORD OIL PLATFORM HELIPORT, FO","FM-15","ENSF ","V020","080,1,N,0046,1","22000,1,9,N","011265,1,N,1","+0020,1","-0080,1","99999,9",,,"02,1,+01350,1,99,9",,,"02,99,1,99,9,99,9,99999,9,99,9,99,9","10071,1,99999,9",,"MET070METAR ENSF 190420Z AUTO 08009KT 9999NDV FEW045/// 02/M08 Q1007 W///S5;",
"01300599999","2010-12-19T04:50:00","4","61.25","1.85","117.65","STATFJORD OIL PLATFORM HELIPORT, FO","FM-15","ENSF ","V020","060,1,N,0051,1","22000,1,9,N","011265,1,N,1","+0020,1","-0080,1","99999,9",,,"04,1,+01290,1,99,9",,,"04,99,1,99,9,99,9,99999,9,99,9,99,9","10071,1,99999,9",,"MET070METAR ENSF 190450Z AUTO 06010KT 9999NDV SCT043/// 02/M08 Q1007 W///S/;",
"01300599999","2010-12-19T05:20:00","4","61.25","1.85","117.65","STATFJORD OIL PLATFORM HELIPORT, FO","FM-15","ENSF ","V020","080,1,N,0062,1","22000,1,9,N","011265,1,N,1","+0020,1","-0070,1","99999,9",,,"02,1,+01350,1,99,9",,,"02,99,1,99,9,99,9,99999,9,99,9,99,9","10071,1,99999,9",,"MET070METAR ENSF 190520Z AUTO 08012KT 9999NDV FEW045/// 02/M07 Q1007 W///S5;",
"01300599999","2010-12-19T05:50:00","4","61.25","1.85","117.65","STATFJORD OIL PLATFORM HELIPORT, FO","FM-15","ENSF ","V020","090,1,N,0062,1","22000,1,9,N","011265,1,N,1","+0020,1","-0080,1","99999,9",,,"02,1,+01140,1,99,9",,,"02,99,1,99,9,99,9,99999,9,99,9,99,9","10061,1,99999,9",,"MET070METAR ENSF 190550Z AUTO 09012KT 9999NDV FEW038/// 02/M08 Q1006 W///S4;",
"01300599999","2010-12-19T06:20:00","4","61.25","1.85","117.65","STATFJORD OIL PLATFORM HELIPORT, FO","FM-15","ENSF ","V020","090,1,N,0057,1","22000,1,9,N","011265,1,N,1","+0020,1","-0070,1","99999,9",,,,,,"00,99,1,99,9,99,9,99999,9,99,9,99,9","10061,1,99999,9",,"MET064METAR ENSF 190620Z AUTO 09011KT 9999NDV NCD 02/M07 Q1006 W///S5;","Q01    003SCCGA1"
"01300599999","2010-12-19T06:50:00","4","61.25","1.85","117.65","STATFJORD OIL PLATFORM HELIPORT, FO","FM-15","ENSF ","V020","100,1,N,0067,1","22000,1,9,N","011265,1,N,1","+0020,1","-0080,1","99999,9",,,,,,"00,99,1,99,9,99,9,99999,9,99,9,99,9","10061,1,99999,9",,"MET064METAR ENSF 190650Z AUTO 10013KT 9999NDV NCD 02/M08 Q1006 W///S/;","Q01    003SCCGA1"
"01300599999","2010-12-19T07:20:00","4","61.25","1.85","117.65","STATFJORD OIL PLATFORM HELIPORT, FO","FM-15","ENSF ","V020","100,1,N,0062,1","22000,1,9,N","011265,1,N,1","+0020,1","-0070,1","99999,9",,,,,,"00,99,1,99,9,99,9,99999,9,99,9,99,9","10061,1,99999,9",,"MET064METAR ENSF 190720Z AUTO 10012KT 9999NDV NCD 02/M07 Q1006 W///S4;","Q01    003SCCGA1"
"01300599999","2010-12-19T07:50:00","4","61.25","1.85","117.65","STATFJORD OIL PLATFORM HELIPORT, FO","FM-15","ENSF ","V020","090,1,N,0062,1","22000,1,9,N","011265,1,N,1","+0020,1","-0070,1","99999,9",,,"02,1,+05400,1,99,9",,,"02,99,1,99,9,99,9,99999,9,99,9,99,9","10061,1,99999,9",,"MET070METAR ENSF 190750Z AUTO 09012KT 9999NDV FEW180/// 02/M07 Q1006 W///S4;",
"01300599999","2010-12-19T08:20:00","4","61.25","1.85","117.65","STATFJORD OIL PLATFORM HELIPORT, FO","FM-15","ENSF ","V020","070,1,N,0062,1","04800,1,9,N","011265,1,N,1","+0020,1","-0070,1","99999,9",,,"07,1,+04800,1,99,9",,,"07,99,1,99,9,99,9,99999,9,99,9,99,9","10061,1,99999,9",,"MET070METAR ENSF 190820Z AUTO 07012KT 9999NDV BKN160/// 02/M07 Q1006 W///S4;",
"01300599999","2010-12-19T08:50:00","4","61.25","1.85","117.65","STATFJORD OIL PLATFORM HELIPORT, FO","FM-15","ENSF ","V020","060,1,N,0067,1","01080,1,9,N","011265,1,N,1","+0020,1","-0060,1","99999,9",,,"07,1,+01080,1,99,9",,,"07,99,1,99,9,99,9,99999,9,99,9,99,9","10061,1,99999,9",,"MET078METAR ENSF 190850Z AUTO 06013KT 030V090 9999NDV BKN036/// 02/M06 Q1006 W///S5;",
"01300599999","2010-12-19T09:20:00","4","61.25","1.85","117.65","STATFJORD OIL PLATFORM HELIPORT, FO","FM-15","ENSF ","V020","060,1,N,0057,1","22000,1,9,N","011265,1,N,1","+0020,1","-0060,1","99999,9",,,"04,1,+01080,1,99,9",,,"04,99,1,99,9,99,9,99999,9,99,9,99,9","10061,1,99999,9",,"MET070METAR ENSF 190920Z AUTO 06011KT 9999NDV SCT036/// 02/M06 Q1006 W///S5;",
"01300599999","2010-12-19T09:50:00","4","61.25","1.85","117.65","STATFJORD OIL PLATFORM HELIPORT, FO","FM-15","ENSF ","V020","060,1,N,0057,1","01500,1,9,N","011265,1,N,1","+0020,1","-0070,1","99999,9",,,"02,1,+01050,1,99,9","07,1,+01500,1,99,9",,"07,99,1,99,9,99,9,99999,9,99,9,99,9","10061,1,99999,9",,"MET080METAR ENSF 190950Z AUTO 06011KT 9999NDV FEW035/// BKN052/// 02/M07 Q1006 W///S5;",
"01300599999","2010-12-19T10:20:00","4","61.25","1.85","117.65","STATFJORD OIL PLATFORM HELIPORT, FO","FM-15","ENSF ","V020","060,1,N,0051,1","01410,1,9,N","011265,1,N,1","+0020,1","-0070,1","99999,9",,,"02,1,+01050,1,99,9","07,1,+01410,1,99,9",,"07,99,1,99,9,99,9,99999,9,99,9,99,9","10061,1,99999,9",,"MET080METAR ENSF 191020Z AUTO 06010KT 9999NDV FEW035/// BKN047/// 02/M07 Q1006 W///S/;",
"01300599999","2010-12-19T10:50:00","4","61.25","1.85","117.65","STATFJORD OIL PLATFORM HELIPORT, FO","FM-15","ENSF ","V020","040,1,N,0041,1","01170,1,9,N","011265,1,N,1","+0020,1","-0060,1","99999,9",,,"07,1,+01170,1,99,9",,,"07,99,1,99,9,99,9,99999,9,99,9,99,9","10061,1,99999,9",,"MET070METAR ENSF 191050Z AUTO 04008KT 9999NDV BKN039/// 02/M06 Q1006 W///S/;",
"01300599999","2010-12-19T11:20:00","4","61.25","1.85","117.65","STATFJORD OIL PLATFORM HELIPORT, FO","FM-15","ENSF ","V020","040,1,N,0041,1","01410,1,9,N","011265,1,N,1","+0020,1","-0060,1","99999,9",,,"02,1,+01020,1,99,9","07,1,+01410,1,99,9",,"07,99,1,99,9,99,9,99999,9,99,9,99,9","10061,1,99999,9",,"MET080METAR ENSF 191120Z AUTO 04008KT 9999NDV FEW034/// BKN047/// 02/M06 Q1006 W///S4;",
"01300599999","2010-12-19T11:50:00","4","61.25","1.85","117.65","STATFJORD OIL PLATFORM HELIPORT, FO","FM-15","ENSF ","V020","030,1,N,0046,1","01320,1,9,N","011265,1,N,1","+0020,1","-0050,1","99999,9",,,"07,1,+01320,1,99,9",,,"07,99,1,99,9,99,9,99999,9,99,9,99,9","10051,1,99999,9",,"MET070METAR ENSF 191150Z AUTO 03009KT 9999NDV BKN044/// 02/M05 Q1005 W///S4;",
"01300599999","2010-12-19T12:20:00","4","61.25","1.85","117.65","STATFJORD OIL PLATFORM HELIPORT, FO","FM-15","ENSF ","V020","040,1,N,0041,1","01230,1,9,N","011265,1,N,1","+0020,1","-0050,1","99999,9",,,"04,1,+00870,1,99,9","07,1,+01230,1,99,9",,"07,99,1,99,9,99,9,99999,9,99,9,99,9","10051,1,99999,9",,"MET080METAR ENSF 191220Z AUTO 04008KT 9999NDV SCT029/// BKN041/// 02/M05 Q1005 W///S4;",
"01300599999","2010-12-19T12:50:00","4","61.25","1.85","117.65","STATFJORD OIL PLATFORM HELIPORT, FO","FM-15","ENSF ","V020","030,1,N,0036,1","01200,1,C,N","011265,1,N,1","+0020,1","-0040,1","99999,9",,,"02,1,+00600,1,99,9","04,1,+01200,1,99,9","07,1,+01800,1,99,9","07,99,1,99,9,99,9,99999,9,99,9,99,9","10051,1,99999,9",,"MET090METAR ENSF 191250Z AUTO 03007KT 9999NDV FEW020/// SCT040/// BKN061/// 02/M04 Q1005 W///S4;",
"01300599999","2010-12-19T13:20:00","4","61.25","1.85","117.65","STATFJORD OIL PLATFORM HELIPORT, FO","FM-15","ENSF ","V020","030,1,N,0031,1","01500,1,9,N","011265,1,N,1","+0020,1","-0040,1","99999,9",,,"04,1,+00840,1,99,9","07,1,+01500,1,99,9",,"07,99,1,99,9,99,9,99999,9,99,9,99,9","10041,1,99999,9",,"MET080METAR ENSF 191320Z AUTO 03006KT 9999NDV SCT028/// BKN051/// 02/M04 Q1004 W///S4;",
"01300599999","2010-12-19T13:50:00","4","61.25","1.85","117.65","STATFJORD OIL PLATFORM HELIPORT, FO","FM-15","ENSF ","V020","030,1,N,0036,1","22000,1,9,N","011265,1,N,1","+0020,1","-0040,1","99999,9",,,"02,1,+01440,1,99,9",,,"02,99,1,99,9,99,9,99999,9,99,9,99,9","10041,1,99999,9",,"MET070METAR ENSF 191350Z AUTO 03007KT 9999NDV FEW048/// 02/M04 Q1004 W///S4;",
"01300599999","2010-12-19T14:20:00","4","61.25","1.85","117.65","STATFJORD OIL PLATFORM HELIPORT, FO","FM-15","ENSF ","V020","010,1,N,0021,1","01110,1,9,N","011265,1,N,1","+0020,1","-0040,1","99999,9",,,"07,1,+01110,1,99,9",,,"07,99,1,99,9,99,9,99999,9,99,9,99,9","10041,1,99999,9",,"MET078METAR ENSF 191420Z AUTO 01004KT 340V060 9999NDV BKN037/// 02/M04 Q1004 W///S4;",
"01300599999","2010-12-19T14:50:00","4","61.25","1.85","117.65","STATFJORD OIL PLATFORM HELIPORT, FO","FM-15","ENSF ","V020","010,1,N,0026,1","01500,1,9,N","011265,1,N,1","+0010,1","-0040,1","99999,9",,,"02,1,+01110,1,99,9","07,1,+01500,1,99,9",,"07,99,1,99,9,99,9,99999,9,99,9,99,9","10041,1,99999,9",,"MET080METAR ENSF 191450Z AUTO 01005KT 9999NDV FEW037/// BKN054/// 01/M04 Q1004 W///S4;",
"01300599999","2010-12-19T15:20:00","4","61.25","1.85","117.65","STATFJORD OIL PLATFORM HELIPORT, FO","FM-15","ENSF ","V020","340,1,N,0026,1","01500,1,9,N","011265,1,N,1","+0010,1","-0040,1","99999,9",,,"07,1,+01500,1,99,9","07,1,+04500,1,99,9",,"07,99,1,99,9,99,9,99999,9,99,9,99,9","10031,1,99999,9",,"MET088METAR ENSF 191520Z AUTO 34005KT 260V050 9999NDV BKN053/// BKN150/// 01/M04 Q1003 W///S4;",
"01300599999","2010-12-19T15:50:00","4","61.25","1.85","117.65","STATFJORD OIL PLATFORM HELIPORT, FO","FM-15","ENSF ","V020","360,1,N,0026,1","01500,1,9,N","011265,1,N,1","+0020,1","-0030,1","99999,9",,,"07,1,+01500,1,99,9",,,"07,99,1,99,9,99,9,99999,9,99,9,99,9","10031,1,99999,9",,"MET070METAR ENSF 191550Z AUTO 36005KT 9999NDV BKN053/// 02/M03 Q1003 W///S4;",
"01300599999","2010-12-19T16:20:00","4","61.25","1.85","117.65","STATFJORD OIL PLATFORM HELIPORT, FO","FM-15","ENSF ","V020","040,1,N,0021,1","01500,1,9,N","011265,1,N,1","+0020,1","-0030,1","99999,9",,,"07,1,+01500,1,99,9",,,"07,99,1,99,9,99,9,99999,9,99,9,99,9","10031,1,99999,9",,"MET070METAR ENSF 191620Z AUTO 04004KT 9999NDV BKN052/// 02/M03 Q1003 W///S4;",
"01300599999","2010-12-19T16:50:00","4","61.25","1.85","117.65","STATFJORD OIL PLATFORM HELIPORT, FO","FM-15","ENSF ","V020","060,1,N,0031,1","22000,1,9,N","011265,1,N,1","+0030,1","-0030,1","99999,9",,,"04,1,+01500,1,99,9",,,"04,99,1,99,9,99,9,99999,9,99,9,99,9","10020,1,99999,9",,"MET070METAR ENSF 191650Z AUTO 06006KT 9999NDV SCT052/// 03/M03 Q1002 W///S4;",
"01300599999","2010-12-19T17:20:00","4","61.25","1.85","117.65","STATFJORD OIL PLATFORM HELIPORT, FO","FM-15","ENSF ","V020","050,1,N,0031,1","01470,1,9,N","011265,1,N,1","+0030,1","-0030,1","99999,9",,,"02,1,+00720,1,99,9","07,1,+01470,1,99,9",,"07,99,1,99,9,99,9,99999,9,99,9,99,9","10020,1,99999,9",,"MET080METAR ENSF 191720Z AUTO 05006KT 9999NDV FEW024/// BKN049/// 03/M03 Q1002 W///S4;",
"01300599999","2010-12-19T17:50:00","4","61.25","1.85","117.65","STATFJORD OIL PLATFORM HELIPORT, FO","FM-15","ENSF ","V020","060,1,N,0036,1","22000,1,9,N","011265,1,N,1","+0030,1","-0030,1","99999,9",,,"02,1,+00750,1,99,9","04,1,+01470,1,99,9",,"04,99,1,99,9,99,9,99999,9,99,9,99,9","10020,1,99999,9",,"MET088METAR ENSF 191750Z AUTO 06007KT 040V100 9999NDV FEW025/// SCT049/// 03/M03 Q1002 W///S4;",
"01300599999","2010-12-19T18:20:00","4","61.25","1.85","117.65","STATFJORD OIL PLATFORM HELIPORT, FO","FM-15","ENSF ","V020","070,1,N,0046,1","00780,1,9,N","011265,1,N,1","+0030,1","-0040,1","99999,9",,,"07,1,+00780,1,99,9",,,"07,99,1,99,9,99,9,99999,9,99,9,99,9","10020,1,99999,9",,"MET070METAR ENSF 191820Z AUTO 07009KT 9999NDV BKN026/// 03/M04 Q1002 W///S4;",
"01300599999","2010-12-19T18:50:00","4","61.25","1.85","117.65","STATFJORD OIL PLATFORM HELIPORT, FO","FM-15","ENSF ","V020","070,1,N,0046,1","01050,1,9,N","011265,1,N,1","+0030,1","-0030,1","99999,9",,,"07,1,+01050,1,99,9",,,"07,99,1,99,9,99,9,99999,9,99,9,99,9","10020,1,99999,9",,"MET070METAR ENSF 191850Z AUTO 07009KT 9999NDV BKN035/// 03/M03 Q1002 W///S4;",
"01300599999","2010-12-19T19:20:00","4","61.25","1.85","117.65","STATFJORD OIL PLATFORM HELIPORT, FO","FM-15","ENSF ","V020","050,1,N,0051,1","00840,1,9,N","011265,1,N,1","+0030,1","-0040,1","99999,9",,,"07,1,+00840,1,99,9",,,"07,99,1,99,9,99,9,99999,9,99,9,99,9","10020,1,99999,9",,"MET070METAR ENSF 191920Z AUTO 05010KT 9999NDV BKN028/// 03/M04 Q1002 W///S4;",
"01300599999","2010-12-19T19:50:00","4","61.25","1.85","117.65","STATFJORD OIL PLATFORM HELIPORT, FO","FM-15","ENSF ","V020","100,1,N,0046,1","00900,1,9,N","011265,1,N,1","+0030,1","-0030,1","99999,9",,,"07,1,+00900,1,99,9",,,"07,99,1,99,9,99,9,99999,9,99,9,99,9","10020,1,99999,9",,"MET070METAR ENSF 191950Z AUTO 10009KT 9999NDV BKN030/// 03/M03 Q1002 W///S4;",
"01300599999","2010-12-19T20:20:00","4","61.25","1.85","117.65","STATFJORD OIL PLATFORM HELIPORT, FO","FM-15","ENSF ","V020","090,1,N,0036,1","01170,1,9,N","011265,1,N,1","+0030,1","-0040,1","99999,9",,,"07,1,+01170,1,99,9","07,1,+03300,1,99,9",,"07,99,1,99,9,99,9,99999,9,99,9,99,9","10020,1,99999,9",,"MET088METAR ENSF 192020Z AUTO 09007KT 070V130 9999NDV BKN039/// BKN110/// 03/M04 Q1002 W///S3;",
"01300599999","2010-12-19T20:50:00","4","61.25","1.85","117.65","STATFJORD OIL PLATFORM HELIPORT, FO","FM-15","ENSF ","V020","080,1,N,0036,1","00870,1,9,N","011265,1,N,1","+0030,1","-0040,1","99999,9",,,"07,1,+00870,1,99,9",,,"07,99,1,99,9,99,9,99999,9,99,9,99,9","10020,1,99999,9",,"MET070METAR ENSF 192050Z AUTO 08007KT 9999NDV BKN029/// 03/M04 Q1002 W///S4;",
"01300599999","2010-12-19T21:20:00","4","61.25","1.85","117.65","STATFJORD OIL PLATFORM HELIPORT, FO","FM-15","ENSF ","V020","080,1,N,0036,1","01260,1,9,N","011265,1,N,1","+0030,1","-0040,1","99999,9",,,"02,1,+00810,1,99,9","07,1,+01260,1,99,9",,"07,99,1,99,9,99,9,99999,9,99,9,99,9","10010,1,99999,9",,"MET080METAR ENSF 192120Z AUTO 08007KT 9999NDV FEW027/// BKN042/// 03/M04 Q1001 W///S4;",
"01300599999","2010-12-19T21:50:00","4","61.25","1.85","117.65","STATFJORD OIL PLATFORM HELIPORT, FO","FM-15","ENSF ","V020","040,1,N,0046,1","22000,1,9,N","011265,1,N,1","+0030,1","-0040,1","99999,9",,,"04,1,+01380,1,99,9",,,"04,99,1,99,9,99,9,99999,9,99,9,99,9","10010,1,99999,9",,"MET070METAR ENSF 192150Z AUTO 04009KT 9999NDV SCT046/// 03/M04 Q1001 W///S3;",
"01300599999","2010-12-19T22:20:00","4","61.25","1.85","117.65","STATFJORD OIL PLATFORM HELIPORT, FO","FM-15","ENSF ","V020","050,1,N,0051,1","01170,1,9,N","011265,1,N,1","+0030,1","-0040,1","99999,9",,,"07,1,+01170,1,99,9",,,"07,99,1,99,9,99,9,99999,9,99,9,99,9","10010,1,99999,9",,"MET070METAR ENSF 192220Z AUTO 05010KT 9999NDV BKN039/// 03/M04 Q1001 W///S4;",
"01300599999","2010-12-19T22:50:00","4","61.25","1.85","117.65","STATFJORD OIL PLATFORM HELIPORT, FO","FM-15","ENSF ","V020","050,1,N,0072,1","00810,1,9,N","011265,1,N,1","+0030,1","-0050,1","99999,9",,,"07,1,+00810,1,99,9",,,"07,99,1,99,9,99,9,99999,9,99,9,99,9","10010,1,99999,9",,"MET070METAR ENSF 192250Z AUTO 05014KT 9999NDV BKN027/// 03/M05 Q1001 W///S4;",
"01300599999","2010-12-19T23:20:00","4","61.25","1.85","117.65","STATFJORD OIL PLATFORM HELIPORT, FO","FM-15","ENSF ","V020","040,1,N,0062,1","22000,1,9,N","011265,1,N,1","+0030,1","-0060,1","99999,9",,,"02,1,+01260,1,99,9",,,"02,99,1,99,9,99,9,99999,9,99,9,99,9","10010,1,99999,9",,"MET070METAR ENSF 192320Z AUTO 04012KT 9999NDV FEW042/// 03/M06 Q1001 W///S4;",
"01300599999","2010-12-19T23:50:00","4","61.25","1.85","117.65","STATFJORD OIL PLATFORM HELIPORT, FO","FM-15","ENSF ","V020","050,1,N,0072,1","00990,1,9,N","011265,1,N,1","+0020,1","-0050,1","99999,9",,,"07,1,+00990,1,99,9",,,"07,99,1,99,9,99,9,99999,9,99,9,99,9","10010,1,99999,9",,"MET070METAR ENSF 192350Z AUTO 05014KT 9999NDV BKN033/// 02/M05 Q1001 W///S/;",
"01300599999","2010-12-20T00:20:00","4","61.25","1.85","117.65","STATFJORD OIL PLATFORM HELIPORT, FO","FM-15","ENSF ","V020","050,1,N,0046,1","22000,1,9,N","011265,1,N,1","+0030,1","-0060,1","99999,9",,,"04,1,+01080,1,99,9",,,"04,99,1,99,9,99,9,99999,9,99,9,99,9","10000,1,99999,9",,"MET070METAR ENSF 200020Z AUTO 05009KT 9999NDV SCT036/// 03/M06 Q1000 W///S4;",
"01300599999","2010-12-20T00:50:00","4","61.25","1.85","117.65","STATFJORD OIL PLATFORM HELIPORT, FO","FM-15","ENSF ","V020","060,1,N,0046,1","01260,1,9,N","011265,1,N,1","+0030,1","-0060,1","99999,9",,,"07,1,+01260,1,99,9",,,"07,99,1,99,9,99,9,99999,9,99,9,99,9","10000,1,99999,9",,"MET070METAR ENSF 200050Z AUTO 06009KT 9999NDV BKN042/// 03/M06 Q1000 W///S4;",
"01300599999","2010-12-20T01:20:00","4","61.25","1.85","117.65","STATFJORD OIL PLATFORM HELIPORT, FO","FM-15","ENSF ","V020","060,1,N,0057,1","00990,1,9,N","011265,1,N,1","+0030,1","-0040,1","99999,9",,,"07,1,+00990,1,99,9",,,"07,99,1,99,9,99,9,99999,9,99,9,99,9","10000,1,99999,9",,"MET070METAR ENSF 200120Z AUTO 06011KT 9999NDV BKN033/// 03/M04 Q1000 W///S4;",
"01300599999","2010-12-20T01:50:00","4","61.25","1.85","117.65","STATFJORD OIL PLATFORM HELIPORT, FO","FM-15","ENSF ","V020","060,1,N,0057,1","00960,1,9,N","011265,1,N,1","+0030,1","-0040,1","99999,9",,,"07,1,+00960,1,99,9",,,"07,99,1,99,9,99,9,99999,9,99,9,99,9","10000,1,99999,9",,"MET070METAR ENSF 200150Z AUTO 06011KT 9999NDV BKN032/// 03/M04 Q1000 W///S4;",
"01300599999","2010-12-20T02:20:00","4","61.25","1.85","117.65","STATFJORD OIL PLATFORM HELIPORT, FO","FM-15","ENSF ","V020","090,1,N,0046,1","01200,1,9,N","011265,1,N,1","+0030,1","-0050,1","99999,9",,,"07,1,+01200,1,99,9",,,"07,99,1,99,9,99,9,99999,9,99,9,99,9","10000,1,99999,9",,"MET070METAR ENSF 200220Z AUTO 09009KT 9999NDV BKN040/// 03/M05 Q1000 W///S4;",
"01300599999","2010-12-20T02:50:00","4","61.25","1.85","117.65","STATFJORD OIL PLATFORM HELIPORT, FO","FM-15","ENSF ","V020","090,1,N,0051,1","01350,1,9,N","011265,1,N,1","+0030,1","-0050,1","99999,9",,,"02,1,+00990,1,99,9","07,1,+01350,1,99,9",,"07,99,1,99,9,99,9,99999,9,99,9,99,9","10000,1,99999,9",,"MET080METAR ENSF 200250Z AUTO 09010KT 9999NDV FEW033/// BKN045/// 03/M05 Q1000 W///S4;",
"01300599999","2010-12-20T03:20:00","4","61.25","1.85","117.65","STATFJORD OIL PLATFORM HELIPORT, FO","FM-15","ENSF ","V020","100,1,N,0041,1","00990,1,9,N","011265,1,N,1","+0030,1","-0050,1","99999,9",,,"07,1,+00990,1,99,9",,,"07,99,1,99,9,99,9,99999,9,99,9,99,9","10000,1,99999,9",,"MET070METAR ENSF 200320Z AUTO 10008KT 9999NDV BKN033/// 03/M05 Q1000 W///S/;",
"01300599999","2010-12-20T03:50:00","4","61.25","1.85","117.65","STATFJORD OIL PLATFORM HELIPORT, FO","FM-15","ENSF ","V020","100,1,N,0041,1","01410,1,9,N","011265,1,N,1","+0030,1","-0050,1","99999,9",,,"08,1,+01410,1,99,9",,,"08,99,1,99,9,99,9,99999,9,99,9,99,9","10000,1,99999,9",,"MET070METAR ENSF 200350Z AUTO 10008KT 9999NDV OVC047/// 03/M05 Q1000 W///S3;",
"01300599999","2010-12-20T04:20:00","4","61.25","1.85","117.65","STATFJORD OIL PLATFORM HELIPORT, FO","FM-15","ENSF ","V020","110,1,N,0046,1","01410,1,9,N","011265,1,N,1","+0030,1","-0050,1","99999,9",,,"02,1,+00180,1,99,9","07,1,+01410,1,99,9",,"07,99,1,99,9,99,9,99999,9,99,9,99,9","10000,1,99999,9",,"MET080METAR ENSF 200420Z AUTO 11009KT 9999NDV FEW006/// BKN047/// 03/M05 Q1000 W///S3;",
"01300599999","2010-12-20T04:50:00","4","61.25","1.85","117.65","STATFJORD OIL PLATFORM HELIPORT, FO","FM-15","ENSF ","V020","110,1,N,0046,1","01470,1,9,N","011265,1,N,1","+0030,1","-0050,1","99999,9",,,"07,1,+01470,1,99,9",,,"07,99,1,99,9,99,9,99999,9,99,9,99,9","10000,1,99999,9",,"MET078METAR ENSF 200450Z AUTO 11009KT 090V150 9999NDV BKN049/// 03/M05 Q1000 W///S3;",
"01300599999","2010-12-20T05:20:00","4","61.25","1.85","117.65","STATFJORD OIL PLATFORM HELIPORT, FO","FM-15","ENSF ","V020","110,1,N,0046,1","01350,1,9,N","011265,1,N,1","+0030,1","-0040,1","99999,9",,,"02,1,+01020,1,99,9","07,1,+01350,1,99,9",,"07,99,1,99,9,99,9,99999,9,99,9,99,9","10000,1,99999,9",,"MET088METAR ENSF 200520Z AUTO 11009KT 090V150 9999NDV FEW034/// BKN045/// 03/M04 Q1000 W///S3;",
"01300599999","2010-12-20T05:50:00","4","61.25","1.85","117.65","STATFJORD OIL PLATFORM HELIPORT, FO","FM-15","ENSF ","V020","120,1,N,0046,1","01380,1,9,N","011265,1,N,1","+0030,1","-0040,1","99999,9",,,"08,1,+01380,1,99,9",,,"08,99,1,99,9,99,9,99999,9,99,9,99,9","10000,1,99999,9",,"MET070METAR ENSF 200550Z AUTO 12009KT 9999NDV OVC046/// 03/M04 Q1000 W///S3;",
"01300599999","2010-12-20T06:20:00","4","61.25","1.85","117.65","STATFJORD OIL PLATFORM HELIPORT, FO","FM-15","ENSF ","V020","150,1,N,0041,1","01290,1,9,N","011265,1,N,1","+0030,1","-0040,1","99999,9",,,"08,1,+01290,1,99,9",,,"08,99,1,99,9,99,9,99999,9,99,9,99,9","10000,1,99999,9",,"MET078METAR ENSF 200620Z AUTO 15008KT 120V180 9999NDV OVC043/// 03/M04 Q1000 W///S3;",
"01300599999","2010-12-20T06:50:00","4","61.25","1.85","117.65","STATFJORD OIL PLATFORM HELIPORT, FO","FM-15","ENSF ","V020","160,1,N,0046,1","01320,1,9,N","011265,1,N,1","+0030,1","-0040,1","99999,9",,,"02,1,+00960,1,99,9","08,1,+01320,1,99,9",,"08,99,1,99,9,99,9,99999,9,99,9,99,9","10000,1,99999,9",,"MET080METAR ENSF 200650Z AUTO 16009KT 9999NDV FEW032/// OVC044/// 03/M04 Q1000 W///S3;",
"01300599999","2010-12-20T07:20:00","4","61.25","1.85","117.65","STATFJORD OIL PLATFORM HELIPORT, FO","FM-15","ENSF ","V020","150,1,N,0041,1","00840,1,9,N","011265,1,N,1","+0030,1","-0040,1","99999,9",,,"08,1,+00840,1,99,9",,,"08,99,1,99,9,99,9,99999,9,99,9,99,9","10000,1,99999,9",,"MET078METAR ENSF 200720Z AUTO 15008KT 110V190 9999NDV OVC028/// 03/M04 Q1000 W///S4;",
"01300599999","2010-12-20T07:50:00","4","61.25","1.85","117.65","STATFJORD OIL PLATFORM HELIPORT, FO","FM-15","ENSF ","V020","140,1,N,0026,1","00900,1,9,N","011265,1,N,1","+0030,1","-0040,1","99999,9",,,"07,1,+00900,1,99,9",,,"07,99,1,99,9,99,9,99999,9,99,9,99,9","10000,1,99999,9","0077,1","MET081METAR ENSF 200750Z AUTO 14005G15KT 090V210 9999NDV BKN030/// 03/M04 Q1000 W///S4;",
"01300599999","2010-12-20T08:20:00","4","61.25","1.85","117.65","STATFJORD OIL PLATFORM HELIPORT, FO","FM-15","ENSF ","V020","160,1,N,0021,1","01020,1,9,N","011265,1,N,1","+0030,1","-0040,1","99999,9",,,"07,1,+01020,1,99,9",,,"07,99,1,99,9,99,9,99999,9,99,9,99,9","10000,1,99999,9",,"MET070METAR ENSF 200820Z AUTO 16004KT 9999NDV BKN034/// 03/M04 Q1000 W///S4;",
"01300599999","2010-12-20T08:50:00","4","61.25","1.85","117.65","STATFJORD OIL PLATFORM HELIPORT, FO","FM-15","ENSF ","V020","120,1,N,0015,1","00960,1,9,N","011265,1,N,1","+0030,1","-0040,1","99999,9",,,"07,1,+00960,1,99,9",,,"07,99,1,99,9,99,9,99999,9,99,9,99,9","10000,1,99999,9",,"MET078METAR ENSF 200850Z AUTO 12003KT 050V200 9999NDV BKN032/// 03/M04 Q1000 W///S4;",
"01300599999","2010-12-20T09:20:00","4","61.25","1.85","117.65","STATFJORD OIL PLATFORM HELIPORT, FO","FM-15","ENSF ","V020","080,1,N,0021,1","01140,1,9,N","011265,1,N,1","+0030,1","-0050,1","99999,9",,,"02,1,+00930,1,99,9","07,1,+01140,1,99,9","07,1,+01500,1,99,9","07,99,1,99,9,99,9,99999,9,99,9,99,9","10010,1,99999,9",,"MET098METAR ENSF 200920Z AUTO 08004KT 050V120 9999NDV FEW031/// BKN038/// BKN050/// 03/M05 Q1001 W///S4;",
"01300599999","2010-12-20T09:50:00","4","61.25","1.85","117.65","STATFJORD OIL PLATFORM HELIPORT, FO","FM-15","ENSF ","V020","020,1,N,0015,1","01290,1,9,N","011265,1,N,1","+0030,1","-0050,1","99999,9",,,"07,1,+01290,1,99,9",,,"07,99,1,99,9,99,9,99999,9,99,9,99,9","10010,1,99999,9",,"MET078METAR ENSF 200950Z AUTO 02003KT 330V070 9999NDV BKN043/// 03/M05 Q1001 W///S4;",
"01300599999","2010-12-20T10:20:00","4","61.25","1.85","117.65","STATFJORD OIL PLATFORM HELIPORT, FO","FM-15","ENSF ","V020","040,1,N,0026,1","01410,1,9,N","011265,1,N,1","+0030,1","-0050,1","99999,9",,,"02,1,+00930,1,99,9","08,1,+01410,1,99,9",,"08,99,1,99,9,99,9,99999,9,99,9,99,9","10010,1,99999,9",,"MET088METAR ENSF 201020Z AUTO 04005KT 010V070 9999NDV FEW031/// OVC047/// 03/M05 Q1001 W///S4;",
"01300599999","2010-12-20T10:50:00","4","61.25","1.85","117.65","STATFJORD OIL PLATFORM HELIPORT, FO","FM-15","ENSF ","V020","020,1,N,0031,1","01290,1,9,N","011265,1,N,1","+0030,1","-0050,1","99999,9",,,"08,1,+01290,1,99,9",,,"08,99,1,99,9,99,9,99999,9,99,9,99,9","10010,1,99999,9",,"MET070METAR ENSF 201050Z AUTO 02006KT 9999NDV OVC043/// 03/M05 Q1001 W///S4;",
"01300599999","2010-12-20T11:20:00","4","61.25","1.85","117.65","STATFJORD OIL PLATFORM HELIPORT, FO","FM-15","ENSF ","V020","050,1,N,0031,1","00930,1,9,N","011265,1,N,1","+0020,1","-0030,1","99999,9","81,1",,"08,1,+00930,1,99,9",,,"08,99,1,99,9,99,9,99999,9,99,9,99,9","10010,1,99999,9",,"MET076METAR ENSF 201120Z AUTO 05006KT 9999NDV -SHRA OVC031/// 02/M03 Q1001 W///S4;",
"01300599999","2010-12-20T11:50:00","4","61.25","1.85","117.65","STATFJORD OIL PLATFORM HELIPORT, FO","FM-15","ENSF ","V020","080,1,N,0015,1","05100,1,9,N","011265,1,N,1","+0030,1","-0040,1","99999,9",,,"02,1,+01500,1,99,9","07,1,+05100,1,99,9",,"07,99,1,99,9,99,9,99999,9,99,9,99,9","10010,1,99999,9",,"MET080METAR ENSF 201150Z AUTO 08003KT 9999NDV FEW053/// BKN170/// 03/M04 Q1001 W///S4;",
"01300599999","2010-12-20T12:20:00","4","61.25","1.85","117.65","STATFJORD OIL PLATFORM HELIPORT, FO","FM-15","ENSF ","V020","050,1,N,0015,1","01500,1,9,N","011265,1,N,1","+0040,1","-0040,1","99999,9",,,"07,1,+01500,1,99,9",,,"07,99,1,99,9,99,9,99999,9,99,9,99,9","10010,1,99999,9",,"MET078METAR ENSF 201220Z AUTO 05003KT 030V110 9999NDV BKN055/// 04/M04 Q1001 W///S4;",
"01300599999","2010-12-20T12:50:00","4","61.25","1.85","117.65","STATFJORD OIL PLATFORM HELIPORT, FO","FM-15","ENSF ","V020","020,1,N,0026,1","01290,1,9,N","011265,1,N,1","+0030,1","-0050,1","99999,9","61,1",,"07,1,+01290,1,99,9",,,"07,99,1,99,9,99,9,99999,9,99,9,99,9","10010,1,99999,9",,"MET082METAR ENSF 201250Z AUTO 02005KT 360V060 9999NDV -RA BKN043/// 03/M05 Q1001 W///S4;",
"01300599999","2010-12-20T13:20:00","4","61.25","1.85","117.65","STATFJORD OIL PLATFORM HELIPORT, FO","FM-15","ENSF ","V020","340,1,N,0031,1","00840,1,9,N","011265,1,N,1","+0010,1","-0030,1","99999,9","61,1",,"08,1,+00840,1,99,9",,,"08,99,1,99,9,99,9,99999,9,99,9,99,9","10010,1,99999,9",,"MET082METAR ENSF 201320Z AUTO 34006KT 300V360 9999NDV -RA OVC028/// 01/M03 Q1001 W///S4;",
"01300599999","2010-12-20T13:50:00","4","61.25","1.85","117.65","STATFJORD OIL PLATFORM HELIPORT, FO","FM-15","ENSF ","V020","360,1,N,0026,1","01050,1,9,N","011265,1,N,1","+0010,1","-0030,1","99999,9","81,1",,"02,1,+00600,1,99,9","07,1,+01050,1,99,9",,"07,99,1,99,9,99,9,99999,9,99,9,99,9","10010,1,99999,9",,"MET094METAR ENSF 201350Z AUTO 36005KT 330V030 9999NDV -SHRA FEW020/// BKN035/// 01/M03 Q1001 W///S4;",
"01300599999","2010-12-20T14:20:00","4","61.25","1.85","117.65","STATFJORD OIL PLATFORM HELIPORT, FO","FM-15","ENSF ","V020","330,1,N,0021,1","00930,1,9,N","011265,1,N,1","+0010,1","-0030,1","99999,9","81,1",,"02,1,+00600,1,99,9","07,1,+00930,1,99,9",,"07,99,1,99,9,99,9,99999,9,99,9,99,9","10010,1,99999,9",,"MET094METAR ENSF 201420Z AUTO 33004KT 240V030 9999NDV -SHRA FEW020/// BKN031/// 01/M03 Q1001 W///S4;",
"01300599999","2010-12-20T14:50:00","4","61.25","1.85","117.65","STATFJORD OIL PLATFORM HELIPORT, FO","FM-15","ENSF ","V020","020,1,N,0051,1","00510,1,9,N","005000,1,N,1","+0020,1","-0010,1","99999,9","81,1",,"07,1,+00510,1,99,9",,,"07,99,1,99,9,99,9,99999,9,99,9,99,9","10010,1,99999,9",,"MET076METAR ENSF 201450Z AUTO 02010KT 5000NDV -SHRA BKN017/// 02/M01 Q1001 W///S4;",
"01300599999","2010-12-20T15:20:00","4","61.25","1.85","117.65","STATFJORD OIL PLATFORM HELIPORT, FO","FM-15","ENSF ","V020","030,1,N,0046,1","22000,1,9,N","011265,1,N,1","+0020,1","-0020,1","99999,9",,,"02,1,+00690,1,99,9",,,"02,99,1,99,9,99,9,99999,9,99,9,99,9","10010,1,99999,9",,"MET070METAR ENSF 201520Z AUTO 03009KT 9999NDV FEW023/// 02/M02 Q1001 W///S4;",
"01300599999","2010-12-20T15:50:00","4","61.25","1.85","117.65","STATFJORD OIL PLATFORM HELIPORT, FO","FM-15","ENSF ","V020","020,1,N,0077,1","22000,1,9,N","011265,1,N,1","+0020,1","-0040,1","99999,9",,,,,,,"10000,1,99999,9",,"MET064METAR ENSF 201550Z AUTO 02015KT 9999NDV /// 02/M04 Q1000 W///S4;",
"01300599999","2010-12-20T16:20:00","4","61.25","1.85","117.65","STATFJORD OIL PLATFORM HELIPORT, FO","FM-15","ENSF ","V020","020,1,N,0087,1","22000,1,9,N","011265,1,N,1","+0020,1","-0050,1","99999,9",,,,,,,"10010,1,99999,9",,"MET064METAR ENSF 201620Z AUTO 02017KT 9999NDV /// 02/M05 Q1001 W///S4;",
"01300599999","2010-12-20T16:50:00","4","61.25","1.85","117.65","STATFJORD OIL PLATFORM HELIPORT, FO","FM-15","ENSF ","V020","010,1,N,0082,1","22000,1,9,N","011265,1,N,1","+0020,1","-0040,1","99999,9","81,1",,,,,,"10010,1,99999,9",,"MET070METAR ENSF 201650Z AUTO 01016KT 9999NDV -SHRA /// 02/M04 Q1001 W///S4;",
"01300599999","2010-12-20T17:20:00","4","61.25","1.85","117.65","STATFJORD OIL PLATFORM HELIPORT, FO","FM-15","ENSF ","V020","020,1,N,0072,1","22000,1,9,N","011265,1,N,1","+0020,1","-0040,1","99999,9",,,,,,,"10010,1,99999,9",,"MET064METAR ENSF 201720Z AUTO 02014KT 9999NDV /// 02/M04 Q1001 W///S4;",
"01300599999","2010-12-20T17:50:00","4","61.25","1.85","117.65","STATFJORD OIL PLATFORM HELIPORT, FO","FM-15","ENSF ","V020","020,1,N,0087,1","22000,1,9,N","011265,1,N,1","+0020,1","-0030,1","99999,9","81,1",,,,,,"10010,1,99999,9",,"MET070METAR ENSF 201750Z AUTO 02017KT 9999NDV -SHRA /// 02/M03 Q1001 W///S4;",
"01300599999","2010-12-20T18:20:00","4","61.25","1.85","117.65","STATFJORD OIL PLATFORM HELIPORT, FO","FM-15","ENSF ","V020","020,1,N,0082,1","22000,1,9,N","011265,1,N,1","+0020,1","-0030,1","99999,9","81,1",,,,,,"10010,1,99999,9",,"MET070METAR ENSF 201820Z AUTO 02016KT 9999NDV -SHRA /// 02/M03 Q1001 W///S4;",
"01300599999","2010-12-20T18:50:00","4","61.25","1.85","117.65","STATFJORD OIL PLATFORM HELIPORT, FO","FM-15","ENSF ","V020","030,1,N,0087,1","22000,1,9,N","011265,1,N,1","+0020,1","-0030,1","99999,9",,,,,,,"10010,1,99999,9",,"MET064METAR ENSF 201850Z AUTO 03017KT 9999NDV /// 02/M03 Q1001 W///S5;",
"01300599999","2010-12-20T19:20:00","4","61.25","1.85","117.65","STATFJORD OIL PLATFORM HELIPORT, FO","FM-15","ENSF ","V020","030,1,N,0093,1","22000,1,9,N","011265,1,N,1","+0030,1","-0030,1","99999,9",,,,,,,"10010,1,99999,9",,"MET064METAR ENSF 201920Z AUTO 03018KT 9999NDV /// 03/M03 Q1001 W///S5;",
"01300599999","2010-12-20T19:50:00","4","61.25","1.85","117.65","STATFJORD OIL PLATFORM HELIPORT, FO","FM-15","ENSF ","V020","030,1,N,0093,1","22000,1,9,N","011265,1,N,1","+0020,1","-0050,1","99999,9",,,,,,,"10010,1,99999,9",,"MET064METAR ENSF 201950Z AUTO 03018KT 9999NDV /// 02/M05 Q1001 W///S5;",
"01300599999","2010-12-20T20:20:00","4","61.25","1.85","117.65","STATFJORD OIL PLATFORM HELIPORT, FO","FM-15","ENSF ","V020","030,1,N,0082,1","22000,1,9,N","011265,1,N,1","+0020,1","-0040,1","99999,9",,,,,,,"10010,1,99999,9",,"MET064METAR ENSF 202020Z AUTO 03016KT 9999NDV /// 02/M04 Q1001 W///S5;",
"01300599999","2010-12-20T20:50:00","4","61.25","1.85","117.65","STATFJORD OIL PLATFORM HELIPORT, FO","FM-15","ENSF ","V020","020,1,N,0072,1","22000,1,9,N","011265,1,N,1","+0020,1","-0050,1","99999,9",,,,,,,"10010,1,99999,9",,"MET064METAR ENSF 202050Z AUTO 02014KT 9999NDV /// 02/M05 Q1001 W///S5;",
"01300599999","2010-12-20T21:20:00","4","61.25","1.85","117.65","STATFJORD OIL PLATFORM HELIPORT, FO","FM-15","ENSF ","V020","020,1,N,0087,1","22000,1,9,N","011265,1,N,1","+0020,1","-0060,1","99999,9",,,,,,,"10010,1,99999,9",,"MET064METAR ENSF 202120Z AUTO 02017KT 9999NDV /// 02/M06 Q1001 W///S5;",
"01300599999","2010-12-20T21:50:00","4","61.25","1.85","117.65","STATFJORD OIL PLATFORM HELIPORT, FO","FM-15","ENSF ","V020","020,1,N,0093,1","22000,1,9,N","011265,1,N,1","+0030,1","-0040,1","99999,9",,,,,,,"10010,1,99999,9",,"MET064METAR ENSF 202150Z AUTO 02018KT 9999NDV /// 03/M04 Q1001 W///S5;",
"01300599999","2010-12-20T22:20:00","4","61.25","1.85","117.65","STATFJORD OIL PLATFORM HELIPORT, FO","FM-15","ENSF ","V020","010,1,N,0082,1","22000,1,9,N","011265,1,N,1","+0020,1","-0050,1","99999,9",,,,,,,"10010,1,99999,9",,"MET064METAR ENSF 202220Z AUTO 01016KT 9999NDV /// 02/M05 Q1001 W///S5;",
"01300599999","2010-12-20T22:50:00","4","61.25","1.85","117.65","STATFJORD OIL PLATFORM HELIPORT, FO","FM-15","ENSF ","V020","030,1,N,0087,1","22000,1,9,N","011265,1,N,1","+0020,1","-0030,1","99999,9",,,,,,,"10010,1,99999,9",,"MET064METAR ENSF 202250Z AUTO 03017KT 9999NDV /// 02/M03 Q1001 W///S5;",
"01300599999","2010-12-20T23:20:00","4","61.25","1.85","117.65","STATFJORD OIL PLATFORM HELIPORT, FO","FM-15","ENSF ","V020","030,1,N,0087,1","22000,1,9,N","011265,1,N,1","+0020,1","-0030,1","99999,9",,,,,,,"10010,1,99999,9",,"MET064METAR ENSF 202320Z AUTO 03017KT 9999NDV /// 02/M03 Q1001 W///S5;",
"01300599999","2010-12-20T23:50:00","4","61.25","1.85","117.65","STATFJORD OIL PLATFORM HELIPORT, FO","FM-15","ENSF ","V020","360,1,N,0103,1","22000,1,9,N","011265,1,N,1","+0020,1","-0030,1","99999,9",,,,,,,"10010,1,99999,9",,"MET064METAR ENSF 202350Z AUTO 36020KT 9999NDV /// 02/M03 Q1001 W///S5;",
"01300599999","2010-12-21T00:20:00","4","61.25","1.85","117.65","STATFJORD OIL PLATFORM HELIPORT, FO","FM-15","ENSF ","V020","020,1,N,0087,1","22000,1,9,N","011265,1,N,1","+0020,1","-0040,1","99999,9",,,,,,,"10010,1,99999,9",,"MET064METAR ENSF 210020Z AUTO 02017KT 9999NDV /// 02/M04 Q1001 W///S5;",
"01300599999","2010-12-21T00:50:00","4","61.25","1.85","117.65","STATFJORD OIL PLATFORM HELIPORT, FO","FM-15","ENSF ","V020","020,1,N,0093,1","22000,1,9,N","011265,1,N,1","+0020,1","-0030,1","99999,9",,,,,,,"10010,1,99999,9",,"MET064METAR ENSF 210050Z AUTO 02018KT 9999NDV /// 02/M03 Q1001 W///S5;",
"01300599999","2010-12-21T01:20:00","4","61.25","1.85","117.65","STATFJORD OIL PLATFORM HELIPORT, FO","FM-15","ENSF ","V020","020,1,N,0093,1","22000,1,9,N","011265,1,N,1","+0020,1","-0040,1","99999,9",,,,,,,"10010,1,99999,9",,"MET064METAR ENSF 210120Z AUTO 02018KT 9999NDV /// 02/M04 Q1001 W///S5;",
"01300599999","2010-12-21T01:50:00","4","61.25","1.85","117.65","STATFJORD OIL PLATFORM HELIPORT, FO","FM-15","ENSF ","V020","020,1,N,0082,1","22000,1,9,N","011265,1,N,1","+0020,1","-0040,1","99999,9",,,,,,,"10020,1,99999,9",,"MET064METAR ENSF 210150Z AUTO 02016KT 9999NDV /// 02/M04 Q1002 W///S5;",
"01300599999","2010-12-21T02:20:00","4","61.25","1.85","117.65","STATFJORD OIL PLATFORM HELIPORT, FO","FM-15","ENSF ","V020","010,1,N,0077,1","22000,1,9,N","011265,1,N,1","+0020,1","-0040,1","99999,9",,,,,,,"10020,1,99999,9",,"MET064METAR ENSF 210220Z AUTO 01015KT 9999NDV /// 02/M04 Q1002 W///S5;",
"01300599999","2010-12-21T02:50:00","4","61.25","1.85","117.65","STATFJORD OIL PLATFORM HELIPORT, FO","FM-15","ENSF ","V020","030,1,N,0082,1","22000,1,9,N","011265,1,N,1","+0020,1","-0050,1","99999,9","81,1",,,,,,"10020,1,99999,9",,"MET070METAR ENSF 210250Z AUTO 03016KT 9999NDV -SHRA /// 02/M05 Q1002 W///S5;",
"01300599999","2010-12-21T03:20:00","4","61.25","1.85","117.65","STATFJORD OIL PLATFORM HELIPORT, FO","FM-15","ENSF ","V020","030,1,N,0072,1","22000,1,9,N","011265,1,N,1","+0020,1","-0050,1","99999,9",,,,,,,"10020,1,99999,9",,"MET064METAR ENSF 210320Z AUTO 03014KT 9999NDV /// 02/M05 Q1002 W///S5;",
"01300599999","2010-12-21T03:50:00","4","61.25","1.85","117.65","STATFJORD OIL PLATFORM HELIPORT, FO","FM-15","ENSF ","V020","020,1,N,0072,1","22000,1,9,N","011265,1,N,1","+0020,1","-0050,1","99999,9",,,,,,,"10020,1,99999,9",,"MET064METAR ENSF 210350Z AUTO 02014KT 9999NDV /// 02/M05 Q1002 W///S5;",
"01300599999","2010-12-21T04:20:00","4","61.25","1.85","117.65","STATFJORD OIL PLATFORM HELIPORT, FO","FM-15","ENSF ","V020","030,1,N,0062,1","22000,1,9,N","011265,1,N,1","+0020,1","-0050,1","99999,9",,,,,,,"10020,1,99999,9",,"MET064METAR ENSF 210420Z AUTO 03012KT 9999NDV /// 02/M05 Q1002 W///S5;",
"01300599999","2010-12-21T04:50:00","4","61.25","1.85","117.65","STATFJORD OIL PLATFORM HELIPORT, FO","FM-15","ENSF ","V020","010,1,N,0062,1","22000,1,9,N","011265,1,N,1","+0020,1","-0050,1","99999,9",,,,,,,"10020,1,99999,9",,"MET064METAR ENSF 210450Z AUTO 01012KT 9999NDV /// 02/M05 Q1002 W///S5;",
"01300599999","2010-12-21T05:20:00","4","61.25","1.85","117.65","STATFJORD OIL PLATFORM HELIPORT, FO","FM-15","ENSF ","V020","040,1,N,0067,1","22000,1,9,N","011265,1,N,1","+0020,1","-0030,1","99999,9",,,,,,,"10020,1,99999,9",,"MET064METAR ENSF 210520Z AUTO 04013KT 9999NDV /// 02/M03 Q1002 W///S5;",
"01300599999","2010-12-21T05:50:00","4","61.25","1.85","117.65","STATFJORD OIL PLATFORM HELIPORT, FO","FM-15","ENSF ","V020","030,1,N,0062,1","22000,1,9,N","011265,1,N,1","+0020,1","-0040,1","99999,9",,,,,,,"10020,1,99999,9",,"MET064METAR ENSF 210550Z AUTO 03012KT 9999NDV /// 02/M04 Q1002 W///S5;",
"01300599999","2010-12-21T06:20:00","4","61.25","1.85","117.65","STATFJORD OIL PLATFORM HELIPORT, FO","FM-15","ENSF ","V020","010,1,N,0067,1","22000,1,9,N","011265,1,N,1","+0020,1","-0050,1","99999,9",,,,,,,"10020,1,99999,9",,"MET064METAR ENSF 210620Z AUTO 01013KT 9999NDV /// 02/M05 Q1002 W///S5;",
"01300599999","2010-12-21T06:50:00","4","61.25","1.85","117.65","STATFJORD OIL PLATFORM HELIPORT, FO","FM-15","ENSF ","V020","020,1,N,0062,1","22000,1,9,N","011265,1,N,1","+0020,1","-0050,1","99999,9",,,,,,,"10020,1,99999,9",,"MET064METAR ENSF 210650Z AUTO 02012KT 9999NDV /// 02/M05 Q1002 W///S5;",
"01300599999","2010-12-21T07:20:00","4","61.25","1.85","117.65","STATFJORD OIL PLATFORM HELIPORT, FO","FM-15","ENSF ","V020","030,1,N,0057,1","22000,1,9,N","011265,1,N,1","+0020,1","-0050,1","99999,9",,,,,,,"10031,1,99999,9",,"MET064METAR ENSF 210720Z AUTO 03011KT 9999NDV /// 02/M05 Q1003 W///S5;",
"01300599999","2010-12-21T07:50:00","4","61.25","1.85","117.65","STATFJORD OIL PLATFORM HELIPORT, FO","FM-15","ENSF ","V020","030,1,N,0051,1","22000,1,9,N","011265,1,N,1","+0020,1","-0050,1","99999,9",,,,,,,"10031,1,99999,9",,"MET064METAR ENSF 210750Z AUTO 03010KT 9999NDV /// 02/M05 Q1003 W///S5;",
"01300599999","2010-12-21T08:20:00","4","61.25","1.85","117.65","STATFJORD OIL PLATFORM HELIPORT, FO","FM-15","ENSF ","V020","020,1,N,0051,1","22000,1,9,N","011265,1,N,1","+0020,1","-0050,1","99999,9",,,,,,,"10031,1,99999,9",,"MET064METAR ENSF 210820Z AUTO 02010KT 9999NDV /// 02/M05 Q1003 W///S5;",
"01300599999","2010-12-21T08:50:00","4","61.25","1.85","117.65","STATFJORD OIL PLATFORM HELIPORT, FO","FM-15","ENSF ","V020","020,1,N,0046,1","22000,1,9,N","011265,1,N,1","+0020,1","-0050,1","99999,9",,,,,,,"10031,1,99999,9",,"MET064METAR ENSF 210850Z AUTO 02009KT 9999NDV /// 02/M05 Q1003 W///S5;",
"01300599999","2010-12-21T09:20:00","4","61.25","1.85","117.65","STATFJORD OIL PLATFORM HELIPORT, FO","FM-15","ENSF ","V020","010,1,N,0041,1","22000,1,9,N","011265,1,N,1","+0010,1","-0050,1","99999,9",,,,,,,"10041,1,99999,9",,"MET064METAR ENSF 210920Z AUTO 01008KT 9999NDV /// 01/M05 Q1004 W///S4;",
"01300599999","2010-12-21T09:50:00","4","61.25","1.85","117.65","STATFJORD OIL PLATFORM HELIPORT, FO","FM-15","ENSF ","V020","010,1,N,0041,1","22000,1,9,N","011265,1,N,1","+0020,1","-0060,1","99999,9",,,,,,,"10041,1,99999,9",,"MET064METAR ENSF 210950Z AUTO 01008KT 9999NDV /// 02/M06 Q1004 W///S4;",
"01300599999","2010-12-21T10:20:00","4","61.25","1.85","117.65","STATFJORD OIL PLATFORM HELIPORT, FO","FM-15","ENSF ","V020","360,1,N,0036,1","22000,1,9,N","011265,1,N,1","+0020,1","-0050,1","99999,9",,,,,,,"10041,1,99999,9",,"MET064METAR ENSF 211020Z AUTO 36007KT 9999NDV /// 02/M05 Q1004 W///S4;",
"01300599999","2010-12-21T10:50:00","4","61.25","1.85","117.65","STATFJORD OIL PLATFORM HELIPORT, FO","FM-15","ENSF ","V020","010,1,N,0031,1","22000,1,9,N","011265,1,N,1","+0020,1","-0050,1","99999,9",,,,,,,"10041,1,99999,9",,"MET072METAR ENSF 211050Z AUTO 01006KT 330V030 9999NDV /// 02/M05 Q1004 W///S4;",
"01300599999","2010-12-21T11:20:00","4","61.25","1.85","117.65","STATFJORD OIL PLATFORM HELIPORT, FO","FM-15","ENSF ","V020","350,1,N,0021,1","22000,1,9,N","011265,1,N,1","+0020,1","-0050,1","99999,9",,,,,,,"10041,1,99999,9",,"MET072METAR ENSF 211120Z AUTO 35004KT 330V030 9999NDV /// 02/M05 Q1004 W///S4;",
"01300599999","2010-12-21T11:50:00","4","61.25","1.85","117.65","STATFJORD OIL PLATFORM HELIPORT, FO","FM-15","ENSF ","V020","340,1,N,0041,1","22000,1,9,N","011265,1,N,1","+0020,1","-0050,1","99999,9",,,,,,,"10041,1,99999,9",,"MET064METAR ENSF 211150Z AUTO 34008KT 9999NDV /// 02/M05 Q1004 W///S4;",
"01300599999","2010-12-21T12:20:00","4","61.25","1.85","117.65","STATFJORD OIL PLATFORM HELIPORT, FO","FM-15","ENSF ","V020","340,1,N,0026,1","22000,1,9,N","011265,1,N,1","+0020,1","-0040,1","99999,9",,,,,,,"10051,1,99999,9",,"MET072METAR ENSF 211220Z AUTO 34005KT 220V020 9999NDV /// 02/M04 Q1005 W///S4;",
"01300599999","2010-12-21T12:50:00","4","61.25","1.85","117.65","STATFJORD OIL PLATFORM HELIPORT, FO","FM-15","ENSF ","V020","999,9,V,0026,1","22000,1,9,N","011265,1,N,1","+0020,1","-0040,1","99999,9",,,,,,,"10051,1,99999,9",,"MET064METAR ENSF 211250Z AUTO VRB05KT 9999NDV /// 02/M04 Q1005 W///S4;",
"01300599999","2010-12-21T13:20:00","4","61.25","1.85","117.65","STATFJORD OIL PLATFORM HELIPORT, FO","FM-15","ENSF ","V020","320,1,N,0015,1","22000,1,9,N","011265,1,N,1","+0020,1","-0040,1","99999,9",,,,,,,"10051,1,99999,9",,"MET064METAR ENSF 211320Z AUTO 32003KT 9999NDV /// 02/M04 Q1005 W///S4;",
"01300599999","2010-12-21T13:50:00","4","61.25","1.85","117.65","STATFJORD OIL PLATFORM HELIPORT, FO","FM-15","ENSF ","V020","999,9,V,0021,1","22000,1,9,N","011265,1,N,1","+0020,1","-0040,1","99999,9",,,,,,,"10051,1,99999,9",,"MET064METAR ENSF 211350Z AUTO VRB04KT 9999NDV /// 02/M04 Q1005 W///S4;",
"01300599999","2010-12-21T14:20:00","4","61.25","1.85","117.65","STATFJORD OIL PLATFORM HELIPORT, FO","FM-15","ENSF ","V020","320,1,N,0021,1","22000,1,9,N","011265,1,N,1","+0020,1","-0050,1","99999,9",,,,,,,"10051,1,99999,9",,"MET064METAR ENSF 211420Z AUTO 32004KT 9999NDV /// 02/M05 Q1005 W///S4;",
"01300599999","2010-12-21T14:50:00","4","61.25","1.85","117.65","STATFJORD OIL PLATFORM HELIPORT, FO","FM-15","ENSF ","V020","999,9,V,0026,1","22000,1,9,N","011265,1,N,1","+0020,1","-0050,1","99999,9",,,,,,,"10051,1,99999,9",,"MET064METAR ENSF 211450Z AUTO VRB05KT 9999NDV /// 02/M05 Q1005 W///S4;",
"01300599999","2010-12-21T15:20:00","4","61.25","1.85","117.65","STATFJORD OIL PLATFORM HELIPORT, FO","FM-15","ENSF ","V020","290,1,N,0021,1","22000,1,9,N","011265,1,N,1","+0020,1","-0040,1","99999,9",,,,,,,"10051,1,99999,9",,"MET072METAR ENSF 211520Z AUTO 29004KT 250V340 9999NDV /// 02/M04 Q1005 W///S4;",
"01300599999","2010-12-21T15:50:00","4","61.25","1.85","117.65","STATFJORD OIL PLATFORM HELIPORT, FO","FM-15","ENSF ","V020","290,1,N,0026,1","22000,1,9,N","011265,1,N,1","+0020,1","-0030,1","99999,9",,,,,,,"10051,1,99999,9",,"MET072METAR ENSF 211550Z AUTO 29005KT 160V320 9999NDV /// 02/M03 Q1005 W///S4;",
"01300599999","2010-12-21T16:20:00","4","61.25","1.85","117.65","STATFJORD OIL PLATFORM HELIPORT, FO","FM-15","ENSF ","V020","250,1,N,0026,1","22000,1,9,N","011265,1,N,1","+0020,1","-0030,1","99999,9",,,,,,,"10051,1,99999,9",,"MET072METAR ENSF 211620Z AUTO 25005KT 220V300 9999NDV /// 02/M03 Q1005 W///S4;",
"01300599999","2010-12-21T16:50:00","4","61.25","1.85","117.65","STATFJORD OIL PLATFORM HELIPORT, FO","FM-15","ENSF ","V020","250,1,N,0031,1","22000,1,9,N","011265,1,N,1","+0020,1","-0030,1","99999,9",,,,,,,"10061,1,99999,9",,"MET064METAR ENSF 211650Z AUTO 25006KT 9999NDV /// 02/M03 Q1006 W///S4;",
"01300599999","2010-12-21T17:20:00","4","61.25","1.85","117.65","STATFJORD OIL PLATFORM HELIPORT, FO","FM-15","ENSF ","V020","260,1,N,0041,1","22000,1,9,N","011265,1,N,1","+0020,1","-0020,1","99999,9",,,,,,,"10061,1,99999,9",,"MET072METAR ENSF 211720Z AUTO 26008KT 230V290 9999NDV /// 02/M02 Q1006 W///S4;",
"01300599999","2010-12-21T17:50:00","4","61.25","1.85","117.65","STATFJORD OIL PLATFORM HELIPORT, FO","FM-15","ENSF ","V020","230,1,N,0077,1","22000,1,9,N","011265,1,N,1","+0010,1","-0010,1","99999,9",,,,,,,"10061,1,99999,9",,"MET064METAR ENSF 211750Z AUTO 23015KT 9999NDV /// 01/M01 Q1006 W///S4;",
"01300599999","2010-12-21T18:20:00","4","61.25","1.85","117.65","STATFJORD OIL PLATFORM HELIPORT, FO","FM-15","ENSF ","V020","240,1,N,0057,1","22000,1,9,N","011265,1,N,1","+0020,1","-0010,1","99999,9",,,,,,,"10061,1,99999,9",,"MET064METAR ENSF 211820Z AUTO 24011KT 9999NDV /// 02/M01 Q1006 W///S4;",
"01300599999","2010-12-21T18:50:00","4","61.25","1.85","117.65","STATFJORD OIL PLATFORM HELIPORT, FO","FM-15","ENSF ","V020","250,1,N,0051,1","22000,1,9,N","011265,1,N,1","+0020,1","-0020,1","99999,9",,,,,,,"10061,1,99999,9",,"MET064METAR ENSF 211850Z AUTO 25010KT 9999NDV /// 02/M02 Q1006 W///S4;",
"01300599999","2010-12-21T19:20:00","4","61.25","1.85","117.65","STATFJORD OIL PLATFORM HELIPORT, FO","FM-15","ENSF ","V020","220,1,N,0051,1","22000,1,9,N","011265,1,N,1","+0020,1","-0010,1","99999,9",,,,,,,"10061,1,99999,9",,"MET064METAR ENSF 211920Z AUTO 22010KT 9999NDV /// 02/M01 Q1006 W///S4;",
"01300599999","2010-12-21T19:50:00","4","61.25","1.85","117.65","STATFJORD OIL PLATFORM HELIPORT, FO","FM-15","ENSF ","V020","210,1,N,0067,1","22000,1,9,N","011265,1,N,1","+0020,1","-0010,1","99999,9",,,,,,,"10061,1,99999,9",,"MET064METAR ENSF 211950Z AUTO 21013KT 9999NDV /// 02/M01 Q1006 W///S4;",
"01300599999","2010-12-21T20:20:00","4","61.25","1.85","117.65","STATFJORD OIL PLATFORM HELIPORT, FO","FM-15","ENSF ","V020","210,1,N,0082,1","22000,1,9,N","011265,1,N,1","+0020,1","+0000,1","99999,9",,,,,,,"10061,1,99999,9",,"MET063METAR ENSF 212020Z AUTO 21016KT 9999NDV /// 02/00 Q1006 W///S4;",
"01300599999","2010-12-21T20:50:00","4","61.25","1.85","117.65","STATFJORD OIL PLATFORM HELIPORT, FO","FM-15","ENSF ","V020","230,1,N,0057,1","22000,1,9,N","011265,1,N,1","+0020,1","-0010,1","99999,9",,,,,,,"10061,1,99999,9",,"MET064METAR ENSF 212050Z AUTO 23011KT 9999NDV /// 02/M01 Q1006 W///S5;",
"01300599999","2010-12-21T21:20:00","4","61.25","1.85","117.65","STATFJORD OIL PLATFORM HELIPORT, FO","FM-15","ENSF ","V020","999,9,C,0000,1","22000,1,9,N","005000,1,N,1","+0020,1","-0010,1","99999,9","67,1",,,,,,"10071,1,99999,9",,"MET070METAR ENSF 212120Z AUTO 00000KT 5000NDV -RASN /// 02/M01 Q1007 W///S5;",
"01300599999","2010-12-21T21:50:00","4","61.25","1.85","117.65","STATFJORD OIL PLATFORM HELIPORT, FO","FM-15","ENSF ","V020","300,1,N,0046,1","22000,1,9,N","000800,1,N,1","+0010,1","-0010,1","99999,9","67,1",,,,,,"10071,1,99999,9",,"MET078METAR ENSF 212150Z AUTO 30009KT 260V320 0800NDV -RASN /// 01/M01 Q1007 W///S5;",
"01300599999","2010-12-21T22:20:00","4","61.25","1.85","117.65","STATFJORD OIL PLATFORM HELIPORT, FO","FM-15","ENSF ","V020","300,1,N,0021,1","22000,1,9,N","011265,1,N,1","+0010,1","-0010,1","99999,9",,,,,,,"10071,1,99999,9",,"MET069METAR ENSF 212220Z AUTO 30004KT 9999NDV /// 01/M01 Q1007 RESN W///S5;",
"01300599999","2010-12-21T22:50:00","4","61.25","1.85","117.65","STATFJORD OIL PLATFORM HELIPORT, FO","FM-15","ENSF ","V020","190,1,N,0026,1","22000,1,9,N","011265,1,N,1","+0020,1","+0000,1","99999,9",,,,,,,"10071,1,99999,9",,"MET071METAR ENSF 212250Z AUTO 19005KT 160V250 9999NDV /// 02/00 Q1007 W///S4;",
"01300599999","2010-12-21T23:20:00","4","61.25","1.85","117.65","STATFJORD OIL PLATFORM HELIPORT, FO","FM-15","ENSF ","V020","240,1,N,0026,1","22000,1,9,N","011265,1,N,1","+0020,1","+0000,1","99999,9","61,1",,,,,,"10071,1,99999,9",,"MET075METAR ENSF 212320Z AUTO 24005KT 210V310 9999NDV -RA /// 02/00 Q1007 W///S5;",
"01300599999","2010-12-21T23:50:00","4","61.25","1.85","117.65","STATFJORD OIL PLATFORM HELIPORT, FO","FM-15","ENSF ","V020","260,1,N,0021,1","22000,1,9,N","011265,1,N,1","+0010,1","+0000,1","99999,9","67,1",,,,,,"10071,1,99999,9",,"MET069METAR ENSF 212350Z AUTO 26004KT 9999NDV -RASN /// 01/00 Q1007 W///S5;",
"01300599999","2010-12-22T00:20:00","4","61.25","1.85","117.65","STATFJORD OIL PLATFORM HELIPORT, FO","FM-15","ENSF ","V020","280,1,N,0015,1","22000,1,9,N","011265,1,N,1","+0020,1","+0000,1","99999,9","51,1",,,,,,"10071,1,99999,9",,"MET067METAR ENSF 220020Z AUTO 28003KT 9999NDV -DZ /// 02/00 Q1007 W///S5;",
"01300599999","2010-12-22T00:50:00","4","61.25","1.85","117.65","STATFJORD OIL PLATFORM HELIPORT, FO","FM-15","ENSF ","V020","240,1,N,0021,1","22000,1,9,N","011265,1,N,1","+0020,1","+0000,1","99999,9",,,,,,,"10071,1,99999,9",,"MET071METAR ENSF 220050Z AUTO 24004KT 220V300 9999NDV /// 02/00 Q1007 W///S5;",
"01300599999","2010-12-22T01:20:00","4","61.25","1.85","117.65","STATFJORD OIL PLATFORM HELIPORT, FO","FM-15","ENSF ","V020","290,1,N,0021,1","22000,1,9,N","011265,1,N,1","+0020,1","+0000,1","99999,9",,,,,,,"10071,1,99999,9",,"MET071METAR ENSF 220120Z AUTO 29004KT 250V330 9999NDV /// 02/00 Q1007 W///S5;",
"01300599999","2010-12-22T01:50:00","4","61.25","1.85","117.65","STATFJORD OIL PLATFORM HELIPORT, FO","FM-15","ENSF ","V020","999,9,V,0015,1","22000,1,9,N","011265,1,N,1","+0020,1","+0000,1","99999,9",,,,,,,"10081,1,99999,9",,"MET063METAR ENSF 220150Z AUTO VRB03KT 9999NDV /// 02/00 Q1008 W///S5;",
"01300599999","2010-12-22T02:20:00","4","61.25","1.85","117.65","STATFJORD OIL PLATFORM HELIPORT, FO","FM-15","ENSF ","V020","290,1,N,0015,1","22000,1,9,N","011265,1,N,1","+0020,1","+0000,1","99999,9",,,,,,,"10071,1,99999,9",,"MET063METAR ENSF 220220Z AUTO 29003KT 9999NDV /// 02/00 Q1007 W///S5;",
"01300599999","2010-12-22T02:50:00","4","61.25","1.85","117.65","STATFJORD OIL PLATFORM HELIPORT, FO","FM-15","ENSF ","V020","310,1,N,0026,1","22000,1,9,N","011265,1,N,1","+0030,1","+0000,1","99999,9",,,,,,,"10071,1,99999,9",,"MET071METAR ENSF 220250Z AUTO 31005KT 260V350 9999NDV /// 03/00 Q1007 W///S5;",
"01300599999","2010-12-22T03:20:00","4","61.25","1.85","117.65","STATFJORD OIL PLATFORM HELIPORT, FO","FM-15","ENSF ","V020","330,1,N,0062,1","22000,1,9,N","011265,1,N,1","+0030,1","+0000,1","99999,9",,,,,,,"10081,1,99999,9",,"MET063METAR ENSF 220320Z AUTO 33012KT 9999NDV /// 03/00 Q1008 W///S5;",
"01300599999","2010-12-22T03:50:00","4","61.25","1.85","117.65","STATFJORD OIL PLATFORM HELIPORT, FO","FM-15","ENSF ","V020","340,1,N,0072,1","22000,1,9,N","011265,1,N,1","+0020,1","+0000,1","99999,9","61,1",,,,,,"10071,1,99999,9",,"MET067METAR ENSF 220350Z AUTO 34014KT 9999NDV -RA /// 02/00 Q1007 W///S5;",
"01300599999","2010-12-22T04:20:00","4","61.25","1.85","117.65","STATFJORD OIL PLATFORM HELIPORT, FO","FM-15","ENSF ","V020","320,1,N,0036,1","22000,1,9,N","011265,1,N,1","+0020,1","+0000,1","99999,9","85,1",,,,,,"10081,1,99999,9",,"MET069METAR ENSF 220420Z AUTO 32007KT 9999NDV -SHSN /// 02/00 Q1008 W///S5;",
"01300599999","2010-12-22T04:50:00","4","61.25","1.85","117.65","STATFJORD OIL PLATFORM HELIPORT, FO","FM-15","ENSF ","V020","320,1,N,0077,1","22000,1,9,N","011265,1,N,1","+0030,1","+0000,1","99999,9","81,1",,,,,,"10071,1,99999,9",,"MET076METAR ENSF 220450Z AUTO 32015KT 9999NDV -SHRA /// 03/00 Q1007 RESHRA W///S5;",
"01300599999","2010-12-22T05:20:00","4","61.25","1.85","117.65","STATFJORD OIL PLATFORM HELIPORT, FO","FM-15","ENSF ","V020","360,1,N,0062,1","22000,1,9,N","011265,1,N,1","+0030,1","+0000,1","99999,9",,,,,,,"10081,1,99999,9",,"MET063METAR ENSF 220520Z AUTO 36012KT 9999NDV /// 03/00 Q1008 W///S5;",
"01300599999","2010-12-22T05:50:00","4","61.25","1.85","117.65","STATFJORD OIL PLATFORM HELIPORT, FO","FM-15","ENSF ","V020","030,1,N,0067,1","22000,1,9,N","011265,1,N,1","+0040,1","+0000,1","99999,9",,,,,,,"10081,1,99999,9",,"MET063METAR ENSF 220550Z AUTO 03013KT 9999NDV /// 04/00 Q1008 W///S5;",
"01300599999","2010-12-22T06:20:00","4","61.25","1.85","117.65","STATFJORD OIL PLATFORM HELIPORT, FO","FM-15","ENSF ","V020","040,1,N,0082,1","22000,1,9,N","011265,1,N,1","+0040,1","-0010,1","99999,9",,,,,,,"10081,1,99999,9",,"MET064METAR ENSF 220620Z AUTO 04016KT 9999NDV /// 04/M01 Q1008 W///S5;",
"01300599999","2010-12-22T06:50:00","4","61.25","1.85","117.65","STATFJORD OIL PLATFORM HELIPORT, FO","FM-15","ENSF ","V020","040,1,N,0077,1","22000,1,9,N","011265,1,N,1","+0030,1","-0010,1","99999,9",,,,,,,"10091,1,99999,9",,"MET064METAR ENSF 220650Z AUTO 04015KT 9999NDV /// 03/M01 Q1009 W///S5;",
"01300599999","2010-12-22T07:20:00","4","61.25","1.85","117.65","STATFJORD OIL PLATFORM HELIPORT, FO","FM-15","ENSF ","V020","040,1,N,0067,1","22000,1,9,N","011265,1,N,1","+0040,1","-0010,1","99999,9",,,,,,,"10091,1,99999,9",,"MET064METAR ENSF 220720Z AUTO 04013KT 9999NDV /// 04/M01 Q1009 W///S5;",
"01300599999","2010-12-22T07:50:00","4","61.25","1.85","117.65","STATFJORD OIL PLATFORM HELIPORT, FO","FM-15","ENSF ","V020","060,1,N,0057,1","22000,1,9,N","011265,1,N,1","+0040,1","-0020,1","99999,9",,,,,,,"10091,1,99999,9",,"MET064METAR ENSF 220750Z AUTO 06011KT 9999NDV /// 04/M02 Q1009 W///S5;",
"01300599999","2010-12-22T08:20:00","4","61.25","1.85","117.65","STATFJORD OIL PLATFORM HELIPORT, FO","FM-15","ENSF ","V020","070,1,N,0051,1","22000,1,9,N","011265,1,N,1","+0040,1","-0010,1","99999,9",,,,,,,"10102,1,99999,9",,"MET064METAR ENSF 220820Z AUTO 07010KT 9999NDV /// 04/M01 Q1010 W///S5;",
"01300599999","2010-12-22T08:50:00","4","61.25","1.85","117.65","STATFJORD OIL PLATFORM HELIPORT, FO","FM-15","ENSF ","V020","050,1,N,0031,1","22000,1,9,N","011265,1,N,1","+0040,1","-0020,1","99999,9",,,,,,,"10102,1,99999,9",,"MET064METAR ENSF 220850Z AUTO 05006KT 9999NDV /// 04/M02 Q1010 W///S5;",
"01300599999","2010-12-22T09:20:00","4","61.25","1.85","117.65","STATFJORD OIL PLATFORM HELIPORT, FO","FM-15","ENSF ","V020","010,1,N,0021,1","22000,1,9,N","011265,1,N,1","+0040,1","-0030,1","99999,9",,,,,,,"10102,1,99999,9",,"MET064METAR ENSF 220920Z AUTO 01004KT 9999NDV /// 04/M03 Q1010 W///S5;",
"01300599999","2010-12-22T09:50:00","4","61.25","1.85","117.65","STATFJORD OIL PLATFORM HELIPORT, FO","FM-15","ENSF ","V020","350,1,N,0026,1","22000,1,9,N","011265,1,N,1","+0030,1","-0030,1","99999,9",,,,,,,"10102,1,99999,9",,"MET064METAR ENSF 220950Z AUTO 35005KT 9999NDV /// 03/M03 Q1010 W///S5;",
"01300599999","2010-12-22T10:20:00","4","61.25","1.85","117.65","STATFJORD OIL PLATFORM HELIPORT, FO","FM-15","ENSF ","V020","310,1,N,0046,1","22000,1,9,N","011265,1,N,1","+0030,1","-0010,1","99999,9",,,,,,,"10102,1,99999,9",,"MET064METAR ENSF 221020Z AUTO 31009KT 9999NDV /// 03/M01 Q1010 W///S5;",
"01300599999","2010-12-22T10:50:00","4","61.25","1.85","117.65","STATFJORD OIL PLATFORM HELIPORT, FO","FM-15","ENSF ","V020","300,1,N,0067,1","22000,1,9,N","011265,1,N,1","+0030,1","+0000,1","99999,9",,,,,,,"10102,1,99999,9",,"MET063METAR ENSF 221050Z AUTO 30013KT 9999NDV /// 03/00 Q1010 W///S5;",
"01300599999","2010-12-22T11:20:00","4","61.25","1.85","117.65","STATFJORD OIL PLATFORM HELIPORT, FO","FM-15","ENSF ","V020","300,1,N,0062,1","22000,1,9,N","011265,1,N,1","+0030,1","+0000,1","99999,9",,,,,,,"10102,1,99999,9",,"MET063METAR ENSF 221120Z AUTO 30012KT 9999NDV /// 03/00 Q1010 W///S5;",
"01300599999","2010-12-22T11:50:00","4","61.25","1.85","117.65","STATFJORD OIL PLATFORM HELIPORT, FO","FM-15","ENSF ","V020","300,1,N,0031,1","22000,1,9,N","011265,1,N,1","+0030,1","+0000,1","99999,9",,,,,,,"10108,1,99999,9",,"MET063METAR ENSF 221150Z AUTO 30006KT 9999NDV /// 03/00 Q1011 W///S5;",
"01300599999","2010-12-22T12:20:00","4","61.25","1.85","117.65","STATFJORD OIL PLATFORM HELIPORT, FO","FM-15","ENSF ","V020","290,1,N,0010,1","22000,1,9,N","011265,1,N,1","+0030,1","-0010,1","99999,9",,,,,,,"10108,1,99999,9",,"MET064METAR ENSF 221220Z AUTO 29002KT 9999NDV /// 03/M01 Q1011 W///S5;",
"01300599999","2010-12-22T12:50:00","4","61.25","1.85","117.65","STATFJORD OIL PLATFORM HELIPORT, FO","FM-15","ENSF ","V020","320,1,N,0021,1","22000,1,9,N","011265,1,N,1","+0030,1","-0010,1","99999,9",,,,,,,"10108,1,99999,9",,"MET072METAR ENSF 221250Z AUTO 32004KT 230V030 9999NDV /// 03/M01 Q1011 W///S5;",
"01300599999","2010-12-22T13:20:00","4","61.25","1.85","117.65","STATFJORD OIL PLATFORM HELIPORT, FO","FM-15","ENSF ","V020","330,1,N,0041,1","22000,1,9,N","011265,1,N,1","+0020,1","-0010,1","99999,9","80,1",,,,,,"10108,1,99999,9",,"MET072METAR ENSF 221320Z AUTO 33008KT 9999NDV -SHRASN /// 02/M01 Q1011 W///S5;",
"01300599999","2010-12-22T13:50:00","4","61.25","1.85","117.65","STATFJORD OIL PLATFORM HELIPORT, FO","FM-15","ENSF ","V020","330,1,N,0005,1","22000,1,9,N","011265,1,N,1","+0020,1","-0010,1","99999,9","81,1",,,,,,"10108,1,99999,9","0067,1","MET073METAR ENSF 221350Z AUTO 33001G13KT 9999NDV -SHRA /// 02/M01 Q1011 W///S5;",
"01300599999","2010-12-22T14:20:00","4","61.25","1.85","117.65","STATFJORD OIL PLATFORM HELIPORT, FO","FM-15","ENSF ","V020","220,1,N,0026,1","22000,1,9,N","011265,1,N,1","+0020,1","+0000,1","99999,9","80,1",,,,,,"10108,1,99999,9",,"MET071METAR ENSF 221420Z AUTO 22005KT 9999NDV -SHRASN /// 02/00 Q1011 W///S5;",
"01300599999","2010-12-22T14:50:00","4","61.25","1.85","117.65","STATFJORD OIL PLATFORM HELIPORT, FO","FM-15","ENSF ","V020","310,1,N,0046,1","22000,1,9,N","011265,1,N,1","+0030,1","-0010,1","99999,9",,,,,,,"10108,1,99999,9",,"MET064METAR ENSF 221450Z AUTO 31009KT 9999NDV /// 03/M01 Q1011 W///S5;",
"01300599999","2010-12-22T15:20:00","4","61.25","1.85","117.65","STATFJORD OIL PLATFORM HELIPORT, FO","FM-15","ENSF ","V020","310,1,N,0051,1","22000,1,9,N","011265,1,N,1","+0030,1","-0010,1","99999,9",,,,,,,"10108,1,99999,9",,"MET064METAR ENSF 221520Z AUTO 31010KT 9999NDV /// 03/M01 Q1011 W///S5;",
"01300599999","2010-12-22T15:50:00","4","61.25","1.85","117.65","STATFJORD OIL PLATFORM HELIPORT, FO","FM-15","ENSF ","V020","310,1,N,0067,1","22000,1,9,N","011265,1,N,1","+0030,1","-0010,1","99999,9",,,,,,,"10108,1,99999,9",,"MET064METAR ENSF 221550Z AUTO 31013KT 9999NDV /// 03/M01 Q1011 W///S5;",
"01300599999","2010-12-22T16:20:00","4","61.25","1.85","117.65","STATFJORD OIL PLATFORM HELIPORT, FO","FM-15","ENSF ","V020","290,1,N,0077,1","22000,1,9,N","011265,1,N,1","+0030,1","-0010,1","99999,9",,,,,,,"10108,1,99999,9",,"MET064METAR ENSF 221620Z AUTO 29015KT 9999NDV /// 03/M01 Q1011 W///S5;",
"01300599999","2010-12-22T16:50:00","4","61.25","1.85","117.65","STATFJORD OIL PLATFORM HELIPORT, FO","FM-15","ENSF ","V020","330,1,N,0077,1","22000,1,9,N","011265,1,N,1","+0030,1","+0000,1","99999,9",,,,,,,"10108,1,99999,9",,"MET071METAR ENSF 221650Z AUTO 33015KT 280V030 9999NDV /// 03/00 Q1011 W///S5;",
"01300599999","2010-12-22T17:20:00","4","61.25","1.85","117.65","STATFJORD OIL PLATFORM HELIPORT, FO","FM-15","ENSF ","V020","320,1,N,0072,1","22000,1,9,N","011265,1,N,1","+0030,1","+0000,1","99999,9",,,,,,,"10108,1,99999,9",,"MET063METAR ENSF 221720Z AUTO 32014KT 9999NDV /// 03/00 Q1011 W///S5;",
"01300599999","2010-12-22T17:50:00","4","61.25","1.85","117.65","STATFJORD OIL PLATFORM HELIPORT, FO","FM-15","ENSF ","V020","310,1,N,0057,1","22000,1,9,N","011265,1,N,1","+0030,1","-0010,1","99999,9",,,,,,,"10108,1,99999,9",,"MET064METAR ENSF 221750Z AUTO 31011KT 9999NDV /// 03/M01 Q1011 W///S5;",
"01300599999","2010-12-22T18:20:00","4","61.25","1.85","117.65","STATFJORD OIL PLATFORM HELIPORT, FO","FM-15","ENSF ","V020","330,1,N,0087,1","22000,1,9,N","007000,1,N,1","+0010,1","+0000,1","99999,9","61,1",,,,,,"10108,1,99999,9",,"MET067METAR ENSF 221820Z AUTO 33017KT 7000NDV -RA /// 01/00 Q1011 W///S5;",
"01300599999","2010-12-22T18:50:00","4","61.25","1.85","117.65","STATFJORD OIL PLATFORM HELIPORT, FO","FM-15","ENSF ","V020","999,9,9,9999,9","22000,1,9,N","001500,1,N,1","+0010,1","+0000,1","99999,9","71,1",,,,,,"10108,1,99999,9",,"MET067METAR ENSF 221850Z AUTO /////KT 1500NDV -SN /// 01/00 Q1011 W///S5;",
"01300599999","2010-12-22T19:20:00","4","61.25","1.85","117.65","STATFJORD OIL PLATFORM HELIPORT, FO","FM-15","ENSF ","V020","050,1,N,0036,1","22000,1,9,N","011265,1,N,1","+0020,1","+0010,1","99999,9","81,1",,,,,,"10119,1,99999,9",,"MET069METAR ENSF 221920Z AUTO 05007KT 9999NDV -SHRA /// 02/01 Q1012 W///S5;",
"01300599999","2010-12-22T19:50:00","4","61.25","1.85","117.65","STATFJORD OIL PLATFORM HELIPORT, FO","FM-15","ENSF ","V020","060,1,N,0118,1","22000,1,9,N","011265,1,N,1","+0020,1","+0010,1","99999,9","61,1",,,,,,"10108,1,99999,9",,"MET067METAR ENSF 221950Z AUTO 06023KT 9999NDV -RA /// 02/01 Q1011 W///S5;",
"01300599999","2010-12-22T20:20:00","4","61.25","1.85","117.65","STATFJORD OIL PLATFORM HELIPORT, FO","FM-15","ENSF ","V020","060,1,N,0123,1","22000,1,9,N","011265,1,N,1","+0020,1","+0000,1","99999,9",,,,,,,"10119,1,99999,9",,"MET063METAR ENSF 222020Z AUTO 06024KT 9999NDV /// 02/00 Q1012 W///S4;",
"01300599999","2010-12-22T20:50:00","4","61.25","1.85","117.65","STATFJORD OIL PLATFORM HELIPORT, FO","FM-15","ENSF ","V020","060,1,N,0113,1","22000,1,9,N","011265,1,N,1","+0030,1","+0000,1","99999,9",,,,,,,"10119,1,99999,9",,"MET063METAR ENSF 222050Z AUTO 06022KT 9999NDV /// 03/00 Q1012 W///S4;",
"01300599999","2010-12-22T21:20:00","4","61.25","1.85","117.65","STATFJORD OIL PLATFORM HELIPORT, FO","FM-15","ENSF ","V020","060,1,N,0098,1","22000,1,9,N","011265,1,N,1","+0030,1","-0010,1","99999,9",,,,,,,"10119,1,99999,9",,"MET064METAR ENSF 222120Z AUTO 06019KT 9999NDV /// 03/M01 Q1012 W///S5;",
"01300599999","2010-12-22T21:50:00","4","61.25","1.85","117.65","STATFJORD OIL PLATFORM HELIPORT, FO","FM-15","ENSF ","V020","060,1,N,0098,1","22000,1,9,N","011265,1,N,1","+0030,1","-0010,1","99999,9",,,,,,,"10119,1,99999,9",,"MET064METAR ENSF 222150Z AUTO 06019KT 9999NDV /// 03/M01 Q1012 W///S5;",
"01300599999","2010-12-22T22:20:00","4","61.25","1.85","117.65","STATFJORD OIL PLATFORM HELIPORT, FO","FM-15","ENSF ","V020","060,1,N,0093,1","22000,1,9,N","011265,1,N,1","+0030,1","-0020,1","99999,9",,,,,,,"10129,1,99999,9",,"MET064METAR ENSF 222220Z AUTO 06018KT 9999NDV /// 03/M02 Q1013 W///S5;",
"01300599999","2010-12-22T22:50:00","4","61.25","1.85","117.65","STATFJORD OIL PLATFORM HELIPORT, FO","FM-15","ENSF ","V020","060,1,N,0093,1","22000,1,9,N","011265,1,N,1","+0020,1","-0030,1","99999,9",,,,,,,"10129,1,99999,9",,"MET064METAR ENSF 222250Z AUTO 06018KT 9999NDV /// 02/M03 Q1013 W///S5;",
"01300599999","2010-12-22T23:20:00","4","61.25","1.85","117.65","STATFJORD OIL PLATFORM HELIPORT, FO","FM-15","ENSF ","V020","060,1,N,0087,1","22000,1,9,N","011265,1,N,1","+0020,1","-0030,1","99999,9",,,,,,,"10139,1,99999,9",,"MET064METAR ENSF 222320Z AUTO 06017KT 9999NDV /// 02/M03 Q1014 W///S5;",
"01300599999","2010-12-22T23:50:00","4","61.25","1.85","117.65","STATFJORD OIL PLATFORM HELIPORT, FO","FM-15","ENSF ","V020","050,1,N,0077,1","22000,1,9,N","011265,1,N,1","+0020,1","-0030,1","99999,9",,,,,,,"10139,1,99999,9",,"MET064METAR ENSF 222350Z AUTO 05015KT 9999NDV /// 02/M03 Q1014 W///S5;",
"01300599999","2010-12-23T00:20:00","4","61.25","1.85","117.65","STATFJORD OIL PLATFORM HELIPORT, FO","FM-15","ENSF ","V020","040,1,N,0067,1","22000,1,9,N","011265,1,N,1","+0020,1","-0040,1","99999,9",,,,,,,"10139,1,99999,9",,"MET064METAR ENSF 230020Z AUTO 04013KT 9999NDV /// 02/M04 Q1014 W///S4;",
"01300599999","2010-12-23T00:50:00","4","61.25","1.85","117.65","STATFJORD OIL PLATFORM HELIPORT, FO","FM-15","ENSF ","V020","040,1,N,0062,1","22000,1,9,N","011265,1,N,1","+0020,1","-0040,1","99999,9",,,,,,,"10139,1,99999,9",,"MET064METAR ENSF 230050Z AUTO 04012KT 9999NDV /// 02/M04 Q1014 W///S4;",
"01300599999","2010-12-23T01:20:00","4","61.25","1.85","117.65","STATFJORD OIL PLATFORM HELIPORT, FO","FM-15","ENSF ","V020","050,1,N,0057,1","22000,1,9,N","011265,1,N,1","+0020,1","-0050,1","99999,9",,,,,,,"10139,1,99999,9",,"MET064METAR ENSF 230120Z AUTO 05011KT 9999NDV /// 02/M05 Q1014 W///S4;",
"01300599999","2010-12-23T01:50:00","4","61.25","1.85","117.65","STATFJORD OIL PLATFORM HELIPORT, FO","FM-15","ENSF ","V020","040,1,N,0046,1","22000,1,9,N","011265,1,N,1","+0020,1","-0040,1","99999,9",,,,,,,"10139,1,99999,9",,"MET064METAR ENSF 230150Z AUTO 04009KT 9999NDV /// 02/M04 Q1014 W///S4;",
"01300599999","2010-12-23T02:20:00","4","61.25","1.85","117.65","STATFJORD OIL PLATFORM HELIPORT, FO","FM-15","ENSF ","V020","040,1,N,0051,1","22000,1,9,N","011265,1,N,1","+0020,1","-0050,1","99999,9",,,,,,,"10139,1,99999,9",,"MET064METAR ENSF 230220Z AUTO 04010KT 9999NDV /// 02/M05 Q1014 W///S4;",
"01300599999","2010-12-23T02:50:00","4","61.25","1.85","117.65","STATFJORD OIL PLATFORM HELIPORT, FO","FM-15","ENSF ","V020","050,1,N,0046,1","22000,1,9,N","011265,1,N,1","+0030,1","-0050,1","99999,9",,,,,,,"10139,1,99999,9",,"MET064METAR ENSF 230250Z AUTO 05009KT 9999NDV /// 03/M05 Q1014 W///S4;",
"01300599999","2010-12-23T03:20:00","4","61.25","1.85","117.65","STATFJORD OIL PLATFORM HELIPORT, FO","FM-15","ENSF ","V020","050,1,N,0046,1","22000,1,9,N","011265,1,N,1","+0030,1","-0040,1","99999,9",,,,,,,"10139,1,99999,9",,"MET064METAR ENSF 230320Z AUTO 05009KT 9999NDV /// 03/M04 Q1014 W///S4;",
"01300599999","2010-12-23T03:50:00","4","61.25","1.85","117.65","STATFJORD OIL PLATFORM HELIPORT, FO","FM-15","ENSF ","V020","070,1,N,0036,1","22000,1,9,N","011265,1,N,1","+0030,1","-0050,1","99999,9",,,,,,,"10139,1,99999,9",,"MET072METAR ENSF 230350Z AUTO 07007KT 030V090 9999NDV /// 03/M05 Q1014 W///S4;",
"01300599999","2010-12-23T04:20:00","4","61.25","1.85","117.65","STATFJORD OIL PLATFORM HELIPORT, FO","FM-15","ENSF ","V020","020,1,N,0062,1","22000,1,9,N","011265,1,N,1","+0020,1","-0040,1","99999,9","61,1",,,,,,"10139,1,99999,9",,"MET068METAR ENSF 230420Z AUTO 02012KT 9999NDV -RA /// 02/M04 Q1014 W///S4;",
"01300599999","2010-12-23T04:50:00","4","61.25","1.85","117.65","STATFJORD OIL PLATFORM HELIPORT, FO","FM-15","ENSF ","V020","360,1,N,0051,1","22000,1,9,N","007000,1,N,1","+0000,1","-0020,1","99999,9","81,1",,,,,,"10139,1,99999,9",,"MET070METAR ENSF 230450Z AUTO 36010KT 7000NDV -SHRA /// 00/M02 Q1014 W///S4;",
"01300599999","2010-12-23T05:20:00","4","61.25","1.85","117.65","STATFJORD OIL PLATFORM HELIPORT, FO","FM-15","ENSF ","V020","040,1,N,0057,1","22000,1,9,N","011265,1,N,1","+0010,1","-0020,1","99999,9","61,1",,,,,,"10139,1,99999,9",,"MET068METAR ENSF 230520Z AUTO 04011KT 9999NDV -RA /// 01/M02 Q1014 W///S4;",
"01300599999","2010-12-23T05:50:00","4","61.25","1.85","117.65","STATFJORD OIL PLATFORM HELIPORT, FO","FM-15","ENSF ","V020","050,1,N,0057,1","22000,1,9,N","011265,1,N,1","+0020,1","-0030,1","99999,9","61,1",,,,,,"10139,1,99999,9",,"MET068METAR ENSF 230550Z AUTO 05011KT 9999NDV -RA /// 02/M03 Q1014 W///S4;",
"01300599999","2010-12-23T06:20:00","4","61.25","1.85","117.65","STATFJORD OIL PLATFORM HELIPORT, FO","FM-15","ENSF ","V020","040,1,N,0057,1","22000,1,9,N","011265,1,N,1","+0020,1","-0030,1","99999,9",,,,,,,"10139,1,99999,9",,"MET064METAR ENSF 230620Z AUTO 04011KT 9999NDV /// 02/M03 Q1014 W///S4;",
"01300599999","2010-12-23T06:50:00","4","61.25","1.85","117.65","STATFJORD OIL PLATFORM HELIPORT, FO","FM-15","ENSF ","V020","040,1,N,0062,1","22000,1,9,N","011265,1,N,1","+0020,1","-0030,1","99999,9","81,1",,,,,,"10139,1,99999,9",,"MET070METAR ENSF 230650Z AUTO 04012KT 9999NDV -SHRA /// 02/M03 Q1014 W///S4;",
"01300599999","2010-12-23T07:20:00","4","61.25","1.85","117.65","STATFJORD OIL PLATFORM HELIPORT, FO","FM-15","ENSF ","V020","030,1,N,0062,1","22000,1,9,N","011265,1,N,1","+0020,1","-0040,1","99999,9",,,,,,,"10149,1,99999,9",,"MET064METAR ENSF 230720Z AUTO 03012KT 9999NDV /// 02/M04 Q1015 W///S4;",
"01300599999","2010-12-23T07:50:00","4","61.25","1.85","117.65","STATFJORD OIL PLATFORM HELIPORT, FO","FM-15","ENSF ","V020","010,1,N,0077,1","22000,1,9,N","011265,1,N,1","+0020,1","-0060,1","99999,9",,,,,,,"10149,1,99999,9",,"MET064METAR ENSF 230750Z AUTO 01015KT 9999NDV /// 02/M06 Q1015 W///S4;",
"01300599999","2010-12-23T08:20:00","4","61.25","1.85","117.65","STATFJORD OIL PLATFORM HELIPORT, FO","FM-15","ENSF ","V020","020,1,N,0072,1","22000,1,9,N","011265,1,N,1","+0020,1","-0050,1","99999,9",,,,,,,"10149,1,99999,9",,"MET064METAR ENSF 230820Z AUTO 02014KT 9999NDV /// 02/M05 Q1015 W///S4;",
"01300599999","2010-12-23T08:50:00","4","61.25","1.85","117.65","STATFJORD OIL PLATFORM HELIPORT, FO","FM-15","ENSF ","V020","030,1,N,0072,1","22000,1,9,N","011265,1,N,1","+0020,1","-0040,1","99999,9",,,,,,,"10149,1,99999,9",,"MET064METAR ENSF 230850Z AUTO 03014KT 9999NDV /// 02/M04 Q1015 W///S4;",
"01300599999","2010-12-23T09:20:00","4","61.25","1.85","117.65","STATFJORD OIL PLATFORM HELIPORT, FO","FM-15","ENSF ","V020","030,1,N,0057,1","22000,1,9,N","011265,1,N,1","+0020,1","-0050,1","99999,9",,,,,,,"10149,1,99999,9",,"MET064METAR ENSF 230920Z AUTO 03011KT 9999NDV /// 02/M05 Q1015 W///S4;",
"01300599999","2010-12-23T09:50:00","4","61.25","1.85","117.65","STATFJORD OIL PLATFORM HELIPORT, FO","FM-15","ENSF ","V020","030,1,N,0051,1","22000,1,9,N","011265,1,N,1","+0020,1","-0040,1","99999,9",,,,,,,"10149,1,99999,9",,"MET064METAR ENSF 230950Z AUTO 03010KT 9999NDV /// 02/M04 Q1015 W///S4;",
"01300599999","2010-12-23T10:20:00","4","61.25","1.85","117.65","STATFJORD OIL PLATFORM HELIPORT, FO","FM-15","ENSF ","V020","020,1,N,0062,1","22000,1,9,N","011265,1,N,1","+0020,1","-0050,1","99999,9",,,,,,,"10159,1,99999,9",,"MET064METAR ENSF 231020Z AUTO 02012KT 9999NDV /// 02/M05 Q1016 W///S4;",
"01300599999","2010-12-23T10:50:00","4","61.25","1.85","117.65","STATFJORD OIL PLATFORM HELIPORT, FO","FM-15","ENSF ","V020","020,1,N,0072,1","22000,1,9,N","011265,1,N,1","+0020,1","-0060,1","99999,9",,,,,,,"10159,1,99999,9",,"MET064METAR ENSF 231050Z AUTO 02014KT 9999NDV /// 02/M06 Q1016 W///S4;",
"01300599999","2010-12-23T11:20:00","4","61.25","1.85","117.65","STATFJORD OIL PLATFORM HELIPORT, FO","FM-15","ENSF ","V020","030,1,N,0067,1","22000,1,9,N","011265,1,N,1","+0020,1","-0050,1","99999,9","80,1",,,,,,"10159,1,99999,9",,"MET072METAR ENSF 231120Z AUTO 03013KT 9999NDV -SHRASN /// 02/M05 Q1016 W///S4;",
"01300599999","2010-12-23T11:50:00","4","61.25","1.85","117.65","STATFJORD OIL PLATFORM HELIPORT, FO","FM-15","ENSF ","V020","020,1,N,0072,1","22000,1,9,N","011265,1,N,1","+0010,1","-0050,1","99999,9",,,,,,,"10159,1,99999,9",,"MET064METAR ENSF 231150Z AUTO 02014KT 9999NDV /// 01/M05 Q1016 W///S4;",
"01300599999","2010-12-23T12:20:00","4","61.25","1.85","117.65","STATFJORD OIL PLATFORM HELIPORT, FO","FM-15","ENSF ","V020","020,1,N,0072,1","22000,1,9,N","011265,1,N,1","+0020,1","-0050,1","99999,9",,,,,,,"10159,1,99999,9",,"MET064METAR ENSF 231220Z AUTO 02014KT 9999NDV /// 02/M05 Q1016 W///S4;",
"01300599999","2010-12-23T12:50:00","4","61.25","1.85","117.65","STATFJORD OIL PLATFORM HELIPORT, FO","FM-15","ENSF ","V020","020,1,N,0067,1","22000,1,9,N","011265,1,N,1","+0010,1","-0050,1","99999,9",,,,,,,"10159,1,99999,9",,"MET064METAR ENSF 231250Z AUTO 02013KT 9999NDV /// 01/M05 Q1016 W///S4;",
"01300599999","2010-12-23T13:20:00","4","61.25","1.85","117.65","STATFJORD OIL PLATFORM HELIPORT, FO","FM-15","ENSF ","V020","010,1,N,0067,1","22000,1,9,N","003800,1,N,1","+0000,1","-0030,1","99999,9","10,1","71,1",,,,,"10159,1,99999,9",,"MET071METAR ENSF 231320Z AUTO 01013KT 3800NDV -SN BR /// 00/M03 Q1016 W///S4;",
"01300599999","2010-12-23T13:50:00","4","61.25","1.85","117.65","STATFJORD OIL PLATFORM HELIPORT, FO","FM-15","ENSF ","V020","030,1,N,0067,1","22000,1,9,N","011265,1,N,1","+0010,1","-0030,1","99999,9",,,,,,,"10159,1,99999,9",,"MET064METAR ENSF 231350Z AUTO 03013KT 9999NDV /// 01/M03 Q1016 W///S4;",
"01300599999","2010-12-23T14:20:00","4","61.25","1.85","117.65","STATFJORD OIL PLATFORM HELIPORT, FO","FM-15","ENSF ","V020","040,1,N,0082,1","22000,1,9,N","011265,1,N,1","+0010,1","-0020,1","99999,9","81,1",,,,,,"10159,1,99999,9",,"MET070METAR ENSF 231420Z AUTO 04016KT 9999NDV -SHRA /// 01/M02 Q1016 W///S4;",
"01300599999","2010-12-23T14:50:00","4","61.25","1.85","117.65","STATFJORD OIL PLATFORM HELIPORT, FO","FM-15","ENSF ","V020","030,1,N,0072,1","22000,1,9,N","011265,1,N,1","+0010,1","-0030,1","99999,9",,,,,,,"10159,1,99999,9",,"MET064METAR ENSF 231450Z AUTO 03014KT 9999NDV /// 01/M03 Q1016 W///S4;",
"01300599999","2010-12-23T15:20:00","4","61.25","1.85","117.65","STATFJORD OIL PLATFORM HELIPORT, FO","FM-15","ENSF ","V020","030,1,N,0067,1","22000,1,9,N","011265,1,N,1","+0010,1","-0030,1","99999,9","61,1",,,,,,"10159,1,99999,9",,"MET068METAR ENSF 231520Z AUTO 03013KT 9999NDV -RA /// 01/M03 Q1016 W///S4;",
"01300599999","2010-12-23T15:50:00","4","61.25","1.85","117.65","STATFJORD OIL PLATFORM HELIPORT, FO","FM-15","ENSF ","V020","030,1,N,0046,1","22000,1,9,N","011265,1,N,1","+0010,1","-0030,1","99999,9",,,,,,,"10159,1,99999,9",,"MET064METAR ENSF 231550Z AUTO 03009KT 9999NDV /// 01/M03 Q1016 W///S4;",
"01300599999","2010-12-23T16:20:00","4","61.25","1.85","117.65","STATFJORD OIL PLATFORM HELIPORT, FO","FM-15","ENSF ","V020","030,1,N,0072,1","22000,1,9,N","011265,1,N,1","+0010,1","-0030,1","99999,9",,,,,,,"10159,1,99999,9",,"MET064METAR ENSF 231620Z AUTO 03014KT 9999NDV /// 01/M03 Q1016 W///S4;",
"01300599999","2010-12-23T16:50:00","4","61.25","1.85","117.65","STATFJORD OIL PLATFORM HELIPORT, FO","FM-15","ENSF ","V020","020,1,N,0082,1","22000,1,9,N","011265,1,N,1","+0010,1","-0050,1","99999,9",,,,,,,"10159,1,99999,9",,"MET064METAR ENSF 231650Z AUTO 02016KT 9999NDV /// 01/M05 Q1016 W///S4;",
"01300599999","2010-12-23T17:20:00","4","61.25","1.85","117.65","STATFJORD OIL PLATFORM HELIPORT, FO","FM-15","ENSF ","V020","030,1,N,0082,1","22000,1,9,N","011265,1,N,1","+0020,1","-0060,1","99999,9",,,,,,,"10159,1,99999,9",,"MET064METAR ENSF 231720Z AUTO 03016KT 9999NDV /// 02/M06 Q1016 W///S4;",
"01300599999","2010-12-23T17:50:00","4","61.25","1.85","117.65","STATFJORD OIL PLATFORM HELIPORT, FO","FM-15","ENSF ","V020","030,1,N,0098,1","22000,1,9,N","011265,1,N,1","+0010,1","-0050,1","99999,9",,,,,,,"10159,1,99999,9",,"MET064METAR ENSF 231750Z AUTO 03019KT 9999NDV /// 01/M05 Q1016 W///S4;",
"01300599999","2010-12-23T18:20:00","4","61.25","1.85","117.65","STATFJORD OIL PLATFORM HELIPORT, FO","FM-15","ENSF ","V020","020,1,N,0098,1","22000,1,9,N","011265,1,N,1","+0020,1","-0060,1","99999,9",,,,,,,"10159,1,99999,9",,"MET064METAR ENSF 231820Z AUTO 02019KT 9999NDV /// 02/M06 Q1016 W///S4;",
"01300599999","2010-12-23T18:50:00","4","61.25","1.85","117.65","STATFJORD OIL PLATFORM HELIPORT, FO","FM-15","ENSF ","V020","030,1,N,0087,1","22000,1,9,N","011265,1,N,1","+0020,1","-0060,1","99999,9",,,,,,,"10159,1,99999,9",,"MET064METAR ENSF 231850Z AUTO 03017KT 9999NDV /// 02/M06 Q1016 W///S4;",
"01300599999","2010-12-23T19:20:00","4","61.25","1.85","117.65","STATFJORD OIL PLATFORM HELIPORT, FO","FM-15","ENSF ","V020","040,1,N,0093,1","22000,1,9,N","011265,1,N,1","+0020,1","-0040,1","99999,9","81,1",,,,,,"10169,1,99999,9",,"MET070METAR ENSF 231920Z AUTO 04018KT 9999NDV -SHRA /// 02/M04 Q1017 W///S4;",
"01300599999","2010-12-23T19:50:00","4","61.25","1.85","117.65","STATFJORD OIL PLATFORM HELIPORT, FO","FM-15","ENSF ","V020","030,1,N,0093,1","22000,1,9,N","011265,1,N,1","+0020,1","-0060,1","99999,9",,,,,,,"10169,1,99999,9",,"MET064METAR ENSF 231950Z AUTO 03018KT 9999NDV /// 02/M06 Q1017 W///S4;",
"01300599999","2010-12-23T20:20:00","4","61.25","1.85","117.65","STATFJORD OIL PLATFORM HELIPORT, FO","FM-15","ENSF ","V020","030,1,N,0077,1","22000,1,9,N","011265,1,N,1","+0020,1","-0070,1","99999,9",,,,,,,"10169,1,99999,9",,"MET064METAR ENSF 232020Z AUTO 03015KT 9999NDV /// 02/M07 Q1017 W///S4;",
"01300599999","2010-12-23T20:50:00","4","61.25","1.85","117.65","STATFJORD OIL PLATFORM HELIPORT, FO","FM-15","ENSF ","V020","020,1,N,0087,1","22000,1,9,N","011265,1,N,1","+0020,1","-0040,1","99999,9",,,,,,,"10169,1,99999,9",,"MET064METAR ENSF 232050Z AUTO 02017KT 9999NDV /// 02/M04 Q1017 W///S4;",
"01300599999","2010-12-23T21:20:00","4","61.25","1.85","117.65","STATFJORD OIL PLATFORM HELIPORT, FO","FM-15","ENSF ","V020","020,1,N,0093,1","22000,1,9,N","011265,1,N,1","+0020,1","-0040,1","99999,9",,,,,,,"10169,1,99999,9",,"MET064METAR ENSF 232120Z AUTO 02018KT 9999NDV /// 02/M04 Q1017 W///S4;",
"01300599999","2010-12-23T21:50:00","4","61.25","1.85","117.65","STATFJORD OIL PLATFORM HELIPORT, FO","FM-15","ENSF ","V020","030,1,N,0087,1","22000,1,9,N","011265,1,N,1","+0020,1","-0030,1","99999,9",,,,,,,"10169,1,99999,9",,"MET064METAR ENSF 232150Z AUTO 03017KT 9999NDV /// 02/M03 Q1017 W///S4;",
"01300599999","2010-12-23T22:20:00","4","61.25","1.85","117.65","STATFJORD OIL PLATFORM HELIPORT, FO","FM-15","ENSF ","V020","030,1,N,0082,1","22000,1,9,N","011265,1,N,1","+0010,1","-0030,1","99999,9","81,1",,,,,,"10169,1,99999,9",,"MET070METAR ENSF 232220Z AUTO 03016KT 9999NDV -SHRA /// 01/M03 Q1017 W///S4;",
"01300599999","2010-12-23T22:50:00","4","61.25","1.85","117.65","STATFJORD OIL PLATFORM HELIPORT, FO","FM-15","ENSF ","V020","030,1,N,0093,1","22000,1,9,N","011265,1,N,1","+0020,1","-0040,1","99999,9",,,,,,,"10169,1,99999,9",,"MET064METAR ENSF 232250Z AUTO 03018KT 9999NDV /// 02/M04 Q1017 W///S4;",
"01300599999","2010-12-23T23:20:00","4","61.25","1.85","117.65","STATFJORD OIL PLATFORM HELIPORT, FO","FM-15","ENSF ","V020","040,1,N,0093,1","22000,1,9,N","011265,1,N,1","+0020,1","-0040,1","99999,9",,,,,,,"10169,1,99999,9",,"MET064METAR ENSF 232320Z AUTO 04018KT 9999NDV /// 02/M04 Q1017 W///S4;",
"01300599999","2010-12-23T23:50:00","4","61.25","1.85","117.65","STATFJORD OIL PLATFORM HELIPORT, FO","FM-15","ENSF ","V020","030,1,N,0098,1","22000,1,9,N","011265,1,N,1","+0020,1","-0050,1","99999,9",,,,,,,"10169,1,99999,9",,"MET064METAR ENSF 232350Z AUTO 03019KT 9999NDV /// 02/M05 Q1017 W///S4;",
"01300599999","2010-12-24T00:20:00","4","61.25","1.85","117.65","STATFJORD OIL PLATFORM HELIPORT, FO","FM-15","ENSF ","V020","030,1,N,0093,1","22000,1,9,N","011265,1,N,1","+0020,1","-0050,1","99999,9",,,,,,,"10169,1,99999,9",,"MET064METAR ENSF 240020Z AUTO 03018KT 9999NDV /// 02/M05 Q1017 W///S4;",
"01300599999","2010-12-24T00:50:00","4","61.25","1.85","117.65","STATFJORD OIL PLATFORM HELIPORT, FO","FM-15","ENSF ","V020","030,1,N,0093,1","22000,1,9,N","011265,1,N,1","+0020,1","-0060,1","99999,9",,,,,,,"10169,1,99999,9",,"MET064METAR ENSF 240050Z AUTO 03018KT 9999NDV /// 02/M06 Q1017 W///S4;",
"01300599999","2010-12-24T01:20:00","4","61.25","1.85","117.65","STATFJORD OIL PLATFORM HELIPORT, FO","FM-15","ENSF ","V020","030,1,N,0098,1","22000,1,9,N","011265,1,N,1","+0020,1","-0060,1","99999,9",,,,,,,"10169,1,99999,9",,"MET064METAR ENSF 240120Z AUTO 03019KT 9999NDV /// 02/M06 Q1017 W///S4;",
"01300599999","2010-12-24T01:50:00","4","61.25","1.85","117.65","STATFJORD OIL PLATFORM HELIPORT, FO","FM-15","ENSF ","V020","040,1,N,0093,1","22000,1,9,N","011265,1,N,1","+0020,1","-0060,1","99999,9",,,,,,,"10169,1,99999,9",,"MET064METAR ENSF 240150Z AUTO 04018KT 9999NDV /// 02/M06 Q1017 W///S4;",
"01300599999","2010-12-24T02:20:00","4","61.25","1.85","117.65","STATFJORD OIL PLATFORM HELIPORT, FO","FM-15","ENSF ","V020","030,1,N,0093,1","22000,1,9,N","011265,1,N,1","+0020,1","-0070,1","99999,9",,,,,,,"10169,1,99999,9",,"MET064METAR ENSF 240220Z AUTO 03018KT 9999NDV /// 02/M07 Q1017 W///S4;",
"01300599999","2010-12-24T02:50:00","4","61.25","1.85","117.65","STATFJORD OIL PLATFORM HELIPORT, FO","FM-15","ENSF ","V020","030,1,N,0093,1","22000,1,9,N","011265,1,N,1","+0020,1","-0070,1","99999,9",,,,,,,"10169,1,99999,9",,"MET064METAR ENSF 240250Z AUTO 03018KT 9999NDV /// 02/M07 Q1017 W///S4;",
"01300599999","2010-12-24T03:20:00","4","61.25","1.85","117.65","STATFJORD OIL PLATFORM HELIPORT, FO","FM-15","ENSF ","V020","030,1,N,0093,1","22000,1,9,N","011265,1,N,1","+0020,1","-0060,1","99999,9",,,,,,,"10169,1,99999,9",,"MET064METAR ENSF 240320Z AUTO 03018KT 9999NDV /// 02/M06 Q1017 W///S4;",
"01300599999","2010-12-24T03:50:00","4","61.25","1.85","117.65","STATFJORD OIL PLATFORM HELIPORT, FO","FM-15","ENSF ","V020","030,1,N,0082,1","22000,1,9,N","011265,1,N,1","+0020,1","-0060,1","99999,9",,,,,,,"10169,1,99999,9",,"MET064METAR ENSF 240350Z AUTO 03016KT 9999NDV /// 02/M06 Q1017 W///S4;",
"01300599999","2010-12-24T04:20:00","4","61.25","1.85","117.65","STATFJORD OIL PLATFORM HELIPORT, FO","FM-15","ENSF ","V020","030,1,N,0072,1","22000,1,9,N","011265,1,N,1","+0020,1","-0050,1","99999,9",,,,,,,"10169,1,99999,9",,"MET064METAR ENSF 240420Z AUTO 03014KT 9999NDV /// 02/M05 Q1017 W///S4;",
"01300599999","2010-12-24T04:50:00","4","61.25","1.85","117.65","STATFJORD OIL PLATFORM HELIPORT, FO","FM-15","ENSF ","V020","040,1,N,0072,1","22000,1,9,N","011265,1,N,1","+0010,1","-0040,1","99999,9",,,,,,,"10169,1,99999,9",,"MET064METAR ENSF 240450Z AUTO 04014KT 9999NDV /// 01/M04 Q1017 W///S4;",
"01300599999","2010-12-24T05:20:00","4","61.25","1.85","117.65","STATFJORD OIL PLATFORM HELIPORT, FO","FM-15","ENSF ","V020","030,1,N,0067,1","22000,1,9,N","011265,1,N,1","+0020,1","-0040,1","99999,9",,,,,,,"10169,1,99999,9",,"MET064METAR ENSF 240520Z AUTO 03013KT 9999NDV /// 02/M04 Q1017 W///S4;",
"01300599999","2010-12-24T05:50:00","4","61.25","1.85","117.65","STATFJORD OIL PLATFORM HELIPORT, FO","FM-15","ENSF ","V020","030,1,N,0072,1","22000,1,9,N","011265,1,N,1","+0020,1","-0040,1","99999,9",,,,,,,"10169,1,99999,9",,"MET064METAR ENSF 240550Z AUTO 03014KT 9999NDV /// 02/M04 Q1017 W///S4;",
"01300599999","2010-12-24T06:20:00","4","61.25","1.85","117.65","STATFJORD OIL PLATFORM HELIPORT, FO","FM-15","ENSF ","V020","020,1,N,0082,1","22000,1,9,N","011265,1,N,1","+0020,1","-0050,1","99999,9",,,,,,,"10169,1,99999,9",,"MET064METAR ENSF 240620Z AUTO 02016KT 9999NDV /// 02/M05 Q1017 W///S4;",
"01300599999","2010-12-24T06:50:00","4","61.25","1.85","117.65","STATFJORD OIL PLATFORM HELIPORT, FO","FM-15","ENSF ","V020","030,1,N,0057,1","22000,1,9,N","011265,1,N,1","+0020,1","-0050,1","99999,9",,,,,,,"10180,1,99999,9",,"MET064METAR ENSF 240650Z AUTO 03011KT 9999NDV /// 02/M05 Q1018 W///S4;",
"01300599999","2010-12-24T07:20:00","4","61.25","1.85","117.65","STATFJORD OIL PLATFORM HELIPORT, FO","FM-15","ENSF ","V020","030,1,N,0067,1","22000,1,9,N","011265,1,N,1","+0020,1","-0050,1","99999,9",,,,,,,"10180,1,99999,9",,"MET064METAR ENSF 240720Z AUTO 03013KT 9999NDV /// 02/M05 Q1018 W///S4;",
"01300599999","2010-12-24T07:50:00","4","61.25","1.85","117.65","STATFJORD OIL PLATFORM HELIPORT, FO","FM-15","ENSF ","V020","040,1,N,0062,1","22000,1,9,N","011265,1,N,1","+0020,1","-0050,1","99999,9",,,,,,,"10180,1,99999,9",,"MET064METAR ENSF 240750Z AUTO 04012KT 9999NDV /// 02/M05 Q1018 W///S4;",
"01300599999","2010-12-24T08:20:00","4","61.25","1.85","117.65","STATFJORD OIL PLATFORM HELIPORT, FO","FM-15","ENSF ","V020","040,1,N,0067,1","22000,1,9,N","011265,1,N,1","+0020,1","-0050,1","99999,9",,,,,,,"10180,1,99999,9",,"MET064METAR ENSF 240820Z AUTO 04013KT 9999NDV /// 02/M05 Q1018 W///S4;",
"01300599999","2010-12-24T08:50:00","4","61.25","1.85","117.65","STATFJORD OIL PLATFORM HELIPORT, FO","FM-15","ENSF ","V020","040,1,N,0067,1","22000,1,9,N","011265,1,N,1","+0020,1","-0060,1","99999,9",,,,,,,"10180,1,99999,9",,"MET064METAR ENSF 240850Z AUTO 04013KT 9999NDV /// 02/M06 Q1018 W///S4;",
"01300599999","2010-12-24T09:20:00","4","61.25","1.85","117.65","STATFJORD OIL PLATFORM HELIPORT, FO","FM-15","ENSF ","V020","040,1,N,0057,1","22000,1,9,N","011265,1,N,1","+0020,1","-0050,1","99999,9",,,,,,,"10180,1,99999,9",,"MET064METAR ENSF 240920Z AUTO 04011KT 9999NDV /// 02/M05 Q1018 W///S4;",
"01300599999","2010-12-24T09:50:00","4","61.25","1.85","117.65","STATFJORD OIL PLATFORM HELIPORT, FO","FM-15","ENSF ","V020","030,1,N,0057,1","22000,1,9,N","011265,1,N,1","+0020,1","-0060,1","99999,9",,,,,,,"10190,1,99999,9",,"MET064METAR ENSF 240950Z AUTO 03011KT 9999NDV /// 02/M06 Q1019 W///S4;",
"01300599999","2010-12-24T10:20:00","4","61.25","1.85","117.65","STATFJORD OIL PLATFORM HELIPORT, FO","FM-15","ENSF ","V020","040,1,N,0062,1","22000,1,9,N","011265,1,N,1","+0020,1","-0060,1","99999,9",,,,,,,"10190,1,99999,9",,"MET064METAR ENSF 241020Z AUTO 04012KT 9999NDV /// 02/M06 Q1019 W///S4;",
"01300599999","2010-12-24T10:50:00","4","61.25","1.85","117.65","STATFJORD OIL PLATFORM HELIPORT, FO","FM-15","ENSF ","V020","040,1,N,0051,1","22000,1,9,N","011265,1,N,1","+0020,1","-0060,1","99999,9",,,,,,,"10190,1,99999,9",,"MET072METAR ENSF 241050Z AUTO 04010KT 010V070 9999NDV /// 02/M06 Q1019 W///S4;",
"01300599999","2010-12-24T11:20:00","4","61.25","1.85","117.65","STATFJORD OIL PLATFORM HELIPORT, FO","FM-15","ENSF ","V020","040,1,N,0051,1","22000,1,9,N","011265,1,N,1","+0020,1","-0060,1","99999,9",,,,,,,"10190,1,99999,9",,"MET064METAR ENSF 241120Z AUTO 04010KT 9999NDV /// 02/M06 Q1019 W///S4;",
"01300599999","2010-12-24T11:50:00","4","61.25","1.85","117.65","STATFJORD OIL PLATFORM HELIPORT, FO","FM-15","ENSF ","V020","030,1,N,0046,1","22000,1,9,N","011265,1,N,1","+0020,1","-0050,1","99999,9",,,,,,,"10190,1,99999,9",,"MET064METAR ENSF 241150Z AUTO 03009KT 9999NDV /// 02/M05 Q1019 W///S4;",
"01300599999","2010-12-24T12:20:00","4","61.25","1.85","117.65","STATFJORD OIL PLATFORM HELIPORT, FO","FM-15","ENSF ","V020","020,1,N,0041,1","22000,1,9,N","011265,1,N,1","+0020,1","-0050,1","99999,9",,,,,,,"10190,1,99999,9",,"MET064METAR ENSF 241220Z AUTO 02008KT 9999NDV /// 02/M05 Q1019 W///S4;",
"01300599999","2010-12-24T12:50:00","4","61.25","1.85","117.65","STATFJORD OIL PLATFORM HELIPORT, FO","FM-15","ENSF ","V020","030,1,N,0041,1","22000,1,9,N","011265,1,N,1","+0020,1","-0050,1","99999,9",,,,,,,"10190,1,99999,9",,"MET064METAR ENSF 241250Z AUTO 03008KT 9999NDV /// 02/M05 Q1019 W///S4;",
"01300599999","2010-12-24T13:20:00","4","61.25","1.85","117.65","STATFJORD OIL PLATFORM HELIPORT, FO","FM-15","ENSF ","V020","040,1,N,0041,1","22000,1,9,N","011265,1,N,1","+0020,1","-0050,1","99999,9",,,,,,,"10190,1,99999,9",,"MET064METAR ENSF 241320Z AUTO 04008KT 9999NDV /// 02/M05 Q1019 W///S4;",
"01300599999","2010-12-24T13:50:00","4","61.25","1.85","117.65","STATFJORD OIL PLATFORM HELIPORT, FO","FM-15","ENSF ","V020","020,1,N,0026,1","22000,1,9,N","011265,1,N,1","+0020,1","-0040,1","99999,9",,,,,,,"10180,1,99999,9",,"MET072METAR ENSF 241350Z AUTO 02005KT 340V050 9999NDV /// 02/M04 Q1018 W///S4;",
"01300599999","2010-12-24T14:20:00","4","61.25","1.85","117.65","STATFJORD OIL PLATFORM HELIPORT, FO","FM-15","ENSF ","V020","020,1,N,0041,1","22000,1,9,N","011265,1,N,1","+0010,1","-0050,1","99999,9",,,,,,,"10180,1,99999,9",,"MET064METAR ENSF 241420Z AUTO 02008KT 9999NDV /// 01/M05 Q1018 W///S4;",
"01300599999","2010-12-24T14:50:00","4","61.25","1.85","117.65","STATFJORD OIL PLATFORM HELIPORT, FO","FM-15","ENSF ","V020","010,1,N,0046,1","22000,1,9,N","011265,1,N,1","+0010,1","-0050,1","99999,9",,,,,,,"10180,1,99999,9",,"MET064METAR ENSF 241450Z AUTO 01009KT 9999NDV /// 01/M05 Q1018 W///S4;",
"01300599999","2010-12-24T15:20:00","4","61.25","1.85","117.65","STATFJORD OIL PLATFORM HELIPORT, FO","FM-15","ENSF ","V020","020,1,N,0082,1","22000,1,9,N","011265,1,N,1","+0020,1","-0030,1","99999,9",,,,,,,"10180,1,99999,9",,"MET064METAR ENSF 241520Z AUTO 02016KT 9999NDV /// 02/M03 Q1018 W///S4;",
"01300599999","2010-12-24T15:50:00","4","61.25","1.85","117.65","STATFJORD OIL PLATFORM HELIPORT, FO","FM-15","ENSF ","V020","020,1,N,0067,1","22000,1,9,N","011265,1,N,1","+0010,1","-0030,1","99999,9",,,,,,,"10180,1,99999,9",,"MET064METAR ENSF 241550Z AUTO 02013KT 9999NDV /// 01/M03 Q1018 W///S4;",
"01300599999","2010-12-24T16:20:00","4","61.25","1.85","117.65","STATFJORD OIL PLATFORM HELIPORT, FO","FM-15","ENSF ","V020","020,1,N,0057,1","22000,1,9,N","011265,1,N,1","+0010,1","-0050,1","99999,9",,,,,,,"10180,1,99999,9",,"MET072METAR ENSF 241620Z AUTO 02011KT 350V050 9999NDV /// 01/M05 Q1018 W///S4;",
"01300599999","2010-12-24T16:50:00","4","61.25","1.85","117.65","STATFJORD OIL PLATFORM HELIPORT, FO","FM-15","ENSF ","V020","010,1,N,0067,1","22000,1,9,N","011265,1,N,1","+0010,1","-0040,1","99999,9","80,1",,,,,,"10180,1,99999,9",,"MET072METAR ENSF 241650Z AUTO 01013KT 9999NDV -SHRASN /// 01/M04 Q1018 W///S4;",
"01300599999","2010-12-24T17:20:00","4","61.25","1.85","117.65","STATFJORD OIL PLATFORM HELIPORT, FO","FM-15","ENSF ","V020","020,1,N,0067,1","22000,1,9,N","011265,1,N,1","+0010,1","-0050,1","99999,9",,,,,,,"10180,1,99999,9",,"MET064METAR ENSF 241720Z AUTO 02013KT 9999NDV /// 01/M05 Q1018 W///S4;",
"01300599999","2010-12-24T17:50:00","4","61.25","1.85","117.65","STATFJORD OIL PLATFORM HELIPORT, FO","FM-15","ENSF ","V020","040,1,N,0067,1","22000,1,9,N","011265,1,N,1","+0010,1","-0040,1","99999,9",,,,,,,"10180,1,99999,9",,"MET064METAR ENSF 241750Z AUTO 04013KT 9999NDV /// 01/M04 Q1018 W///S4;",
"01300599999","2010-12-24T18:20:00","4","61.25","1.85","117.65","STATFJORD OIL PLATFORM HELIPORT, FO","FM-15","ENSF ","V020","030,1,N,0062,1","22000,1,9,N","011265,1,N,1","+0020,1","-0060,1","99999,9",,,,,,,"10180,1,99999,9",,"MET064METAR ENSF 241820Z AUTO 03012KT 9999NDV /// 02/M06 Q1018 W///S4;",
"01300599999","2010-12-24T18:50:00","4","61.25","1.85","117.65","STATFJORD OIL PLATFORM HELIPORT, FO","FM-15","ENSF ","V020","030,1,N,0062,1","22000,1,9,N","011265,1,N,1","+0020,1","-0050,1","99999,9",,,,,,,"10180,1,99999,9",,"MET064METAR ENSF 241850Z AUTO 03012KT 9999NDV /// 02/M05 Q1018 W///S5;",
"01300599999","2010-12-24T19:20:00","4","61.25","1.85","117.65","STATFJORD OIL PLATFORM HELIPORT, FO","FM-15","ENSF ","V020","030,1,N,0072,1","22000,1,9,N","011265,1,N,1","+0020,1","-0050,1","99999,9",,,,,,,"10180,1,99999,9",,"MET064METAR ENSF 241920Z AUTO 03014KT 9999NDV /// 02/M05 Q1018 W///S/;",
"01300599999","2010-12-24T19:50:00","4","61.25","1.85","117.65","STATFJORD OIL PLATFORM HELIPORT, FO","FM-15","ENSF ","V020","030,1,N,0072,1","22000,1,9,N","011265,1,N,1","+0020,1","-0060,1","99999,9",,,,,,,"10180,1,99999,9",,"MET064METAR ENSF 241950Z AUTO 03014KT 9999NDV /// 02/M06 Q1018 W///S4;",
"01300599999","2010-12-24T20:20:00","4","61.25","1.85","117.65","STATFJORD OIL PLATFORM HELIPORT, FO","FM-15","ENSF ","V020","030,1,N,0072,1","22000,1,9,N","007000,1,N,1","+0020,1","-0040,1","99999,9",,,,,,,"10180,1,99999,9",,"MET064METAR ENSF 242020Z AUTO 03014KT 7000NDV /// 02/M04 Q1018 W///S5;",
"01300599999","2010-12-24T20:50:00","4","61.25","1.85","117.65","STATFJORD OIL PLATFORM HELIPORT, FO","FM-15","ENSF ","V020","040,1,N,0098,1","22000,1,9,N","011265,1,N,1","+0010,1","-0020,1","99999,9",,,,,,,"10180,1,99999,9",,"MET064METAR ENSF 242050Z AUTO 04019KT 9999NDV /// 01/M02 Q1018 W///S4;",
"01300599999","2010-12-24T21:20:00","4","61.25","1.85","117.65","STATFJORD OIL PLATFORM HELIPORT, FO","FM-15","ENSF ","V020","050,1,N,0108,1","22000,1,9,N","011265,1,N,1","+0010,1","-0020,1","99999,9",,,,,,,"10180,1,99999,9",,"MET064METAR ENSF 242120Z AUTO 05021KT 9999NDV /// 01/M02 Q1018 W///S/;",
"01300599999","2010-12-24T21:50:00","4","61.25","1.85","117.65","STATFJORD OIL PLATFORM HELIPORT, FO","FM-15","ENSF ","V020","040,1,N,0093,1","22000,1,9,N","011265,1,N,1","+0010,1","-0030,1","99999,9","80,1",,,,,,"10180,1,99999,9",,"MET072METAR ENSF 242150Z AUTO 04018KT 9999NDV -SHRASN /// 01/M03 Q1018 W///S/;",
"01300599999","2010-12-24T22:20:00","4","61.25","1.85","117.65","STATFJORD OIL PLATFORM HELIPORT, FO","FM-15","ENSF ","V020","040,1,N,0098,1","22000,1,9,N","011265,1,N,1","+0020,1","-0040,1","99999,9",,,,,,,"10180,1,99999,9",,"MET064METAR ENSF 242220Z AUTO 04019KT 9999NDV /// 02/M04 Q1018 W///S4;",
"01300599999","2010-12-24T22:50:00","4","61.25","1.85","117.65","STATFJORD OIL PLATFORM HELIPORT, FO","FM-15","ENSF ","V020","060,1,N,0098,1","22000,1,9,N","011265,1,N,1","+0020,1","-0020,1","99999,9","81,1",,,,,,"10190,1,99999,9",,"MET070METAR ENSF 242250Z AUTO 06019KT 9999NDV -SHRA /// 02/M02 Q1019 W///S4;",
"01300599999","2010-12-24T23:20:00","4","61.25","1.85","117.65","STATFJORD OIL PLATFORM HELIPORT, FO","FM-15","ENSF ","V020","050,1,N,0098,1","22000,1,9,N","011265,1,N,1","+0020,1","-0030,1","99999,9",,,,,,,"10190,1,99999,9",,"MET064METAR ENSF 242320Z AUTO 05019KT 9999NDV /// 02/M03 Q1019 W///S4;",
"01300599999","2010-12-24T23:50:00","4","61.25","1.85","117.65","STATFJORD OIL PLATFORM HELIPORT, FO","FM-15","ENSF ","V020","040,1,N,0098,1","22000,1,9,N","011265,1,N,1","+0020,1","-0040,1","99999,9",,,,,,,"10190,1,99999,9",,"MET064METAR ENSF 242350Z AUTO 04019KT 9999NDV /// 02/M04 Q1019 W///S4;",
"01300599999","2010-12-25T00:20:00","4","61.25","1.85","117.65","STATFJORD OIL PLATFORM HELIPORT, FO","FM-15","ENSF ","V020","040,1,N,0103,1","22000,1,9,N","011265,1,N,1","+0020,1","-0030,1","99999,9",,,,,,,"10190,1,99999,9",,"MET064METAR ENSF 250020Z AUTO 04020KT 9999NDV /// 02/M03 Q1019 W///S/;",
"01300599999","2010-12-25T00:50:00","4","61.25","1.85","117.65","STATFJORD OIL PLATFORM HELIPORT, FO","FM-15","ENSF ","V020","030,1,N,0103,1","22000,1,9,N","011265,1,N,1","+0020,1","-0040,1","99999,9",,,,,,,"10190,1,99999,9",,"MET064METAR ENSF 250050Z AUTO 03020KT 9999NDV /// 02/M04 Q1019 W///S/;",
"01300599999","2010-12-25T01:20:00","4","61.25","1.85","117.65","STATFJORD OIL PLATFORM HELIPORT, FO","FM-15","ENSF ","V020","040,1,N,0087,1","22000,1,9,N","011265,1,N,1","+0020,1","-0040,1","99999,9",,,,,,,"10190,1,99999,9",,"MET064METAR ENSF 250120Z AUTO 04017KT 9999NDV /// 02/M04 Q1019 W///S4;",
"01300599999","2010-12-25T01:50:00","4","61.25","1.85","117.65","STATFJORD OIL PLATFORM HELIPORT, FO","FM-15","ENSF ","V020","050,1,N,0087,1","22000,1,9,N","011265,1,N,1","+0020,1","-0040,1","99999,9",,,,,,,"10190,1,99999,9",,"MET064METAR ENSF 250150Z AUTO 05017KT 9999NDV /// 02/M04 Q1019 W///S4;",
"01300599999","2010-12-25T02:20:00","4","61.25","1.85","117.65","STATFJORD OIL PLATFORM HELIPORT, FO","FM-15","ENSF ","V020","050,1,N,0093,1","22000,1,9,N","011265,1,N,1","+0020,1","-0040,1","99999,9",,,,,,,"10190,1,99999,9",,"MET064METAR ENSF 250220Z AUTO 05018KT 9999NDV /// 02/M04 Q1019 W///S4;",
"01300599999","2010-12-25T02:50:00","4","61.25","1.85","117.65","STATFJORD OIL PLATFORM HELIPORT, FO","FM-15","ENSF ","V020","040,1,N,0093,1","22000,1,9,N","011265,1,N,1","+0020,1","-0040,1","99999,9",,,,,,,"10190,1,99999,9",,"MET064METAR ENSF 250250Z AUTO 04018KT 9999NDV /// 02/M04 Q1019 W///S4;",
"01300599999","2010-12-25T03:20:00","4","61.25","1.85","117.65","STATFJORD OIL PLATFORM HELIPORT, FO","FM-15","ENSF ","V020","040,1,N,0087,1","22000,1,9,N","011265,1,N,1","+0020,1","-0040,1","99999,9",,,,,,,"10190,1,99999,9",,"MET064METAR ENSF 250320Z AUTO 04017KT 9999NDV /// 02/M04 Q1019 W///S4;",
"01300599999","2010-12-25T03:50:00","4","61.25","1.85","117.65","STATFJORD OIL PLATFORM HELIPORT, FO","FM-15","ENSF ","V020","040,1,N,0098,1","22000,1,9,N","011265,1,N,1","+0020,1","-0030,1","99999,9",,,,,,,"10190,1,99999,9",,"MET064METAR ENSF 250350Z AUTO 04019KT 9999NDV /// 02/M03 Q1019 W///S4;",
"01300599999","2010-12-25T04:20:00","4","61.25","1.85","117.65","STATFJORD OIL PLATFORM HELIPORT, FO","FM-15","ENSF ","V020","040,1,N,0093,1","22000,1,9,N","011265,1,N,1","+0020,1","-0030,1","99999,9","61,1",,,,,,"10190,1,99999,9",,"MET068METAR ENSF 250420Z AUTO 04018KT 9999NDV -RA /// 02/M03 Q1019 W///S4;",
"01300599999","2010-12-25T04:50:00","4","61.25","1.85","117.65","STATFJORD OIL PLATFORM HELIPORT, FO","FM-15","ENSF ","V020","050,1,N,0108,1","22000,1,9,N","002700,1,N,1","+0010,1","-0020,1","99999,9","61,1",,,,,,"10190,1,99999,9",,"MET068METAR ENSF 250450Z AUTO 05021KT 2700NDV -RA /// 01/M02 Q1019 W///S4;",
"01300599999","2010-12-25T05:20:00","4","61.25","1.85","117.65","STATFJORD OIL PLATFORM HELIPORT, FO","FM-15","ENSF ","V020","040,1,N,0093,1","22000,1,9,N","011265,1,N,1","+0010,1","-0010,1","99999,9","67,1",,,,,,"10190,1,99999,9",,"MET070METAR ENSF 250520Z AUTO 04018KT 9999NDV -RASN /// 01/M01 Q1019 W///S/;",
"01300599999","2010-12-25T05:50:00","4","61.25","1.85","117.65","STATFJORD OIL PLATFORM HELIPORT, FO","FM-15","ENSF ","V020","050,1,N,0113,1","22000,1,9,N","006000,1,N,1","+0010,1","-0010,1","99999,9","61,1",,,,,,"10190,1,99999,9",,"MET075METAR ENSF 250550Z AUTO 05022KT 6000NDV -RA /// 01/M01 Q1019 REFZRA W///S/;",
"01300599999","2010-12-25T06:20:00","4","61.25","1.85","117.65","STATFJORD OIL PLATFORM HELIPORT, FO","FM-15","ENSF ","V020","050,1,N,0108,1","22000,1,9,N","006000,1,N,1","+0010,1","-0020,1","99999,9","61,1",,,,,,"10190,1,99999,9",,"MET068METAR ENSF 250620Z AUTO 05021KT 6000NDV -RA /// 01/M02 Q1019 W///S4;",
"01300599999","2010-12-25T06:50:00","4","61.25","1.85","117.65","STATFJORD OIL PLATFORM HELIPORT, FO","FM-15","ENSF ","V020","050,1,N,0103,1","22000,1,9,N","011265,1,N,1","+0020,1","-0020,1","99999,9","81,1",,,,,,"10190,1,99999,9",,"MET070METAR ENSF 250650Z AUTO 05020KT 9999NDV -SHRA /// 02/M02 Q1019 W///S4;",
"01300599999","2010-12-25T07:20:00","4","61.25","1.85","117.65","STATFJORD OIL PLATFORM HELIPORT, FO","FM-15","ENSF ","V020","050,1,N,0098,1","22000,1,9,N","011265,1,N,1","+0020,1","-0020,1","99999,9","81,1",,,,,,"10190,1,99999,9",,"MET070METAR ENSF 250720Z AUTO 05019KT 9999NDV -SHRA /// 02/M02 Q1019 W///S4;",
"01300599999","2010-12-25T07:50:00","4","61.25","1.85","117.65","STATFJORD OIL PLATFORM HELIPORT, FO","FM-15","ENSF ","V020","050,1,N,0103,1","22000,1,9,N","011265,1,N,1","+0020,1","-0020,1","99999,9",,,,,,,"10190,1,99999,9",,"MET064METAR ENSF 250750Z AUTO 05020KT 9999NDV /// 02/M02 Q1019 W///S4;",
"01300599999","2010-12-25T08:20:00","4","61.25","1.85","117.65","STATFJORD OIL PLATFORM HELIPORT, FO","FM-15","ENSF ","V020","050,1,N,0103,1","22000,1,9,N","011265,1,N,1","+0020,1","-0030,1","99999,9",,,,,,,"10200,1,99999,9",,"MET064METAR ENSF 250820Z AUTO 05020KT 9999NDV /// 02/M03 Q1020 W///S4;",
"01300599999","2010-12-25T08:50:00","4","61.25","1.85","117.65","STATFJORD OIL PLATFORM HELIPORT, FO","FM-15","ENSF ","V020","050,1,N,0103,1","22000,1,9,N","011265,1,N,1","+0020,1","-0020,1","99999,9",,,,,,,"10200,1,99999,9",,"MET064METAR ENSF 250850Z AUTO 05020KT 9999NDV /// 02/M02 Q1020 W///S4;",
"01300599999","2010-12-25T09:20:00","4","61.25","1.85","117.65","STATFJORD OIL PLATFORM HELIPORT, FO","FM-15","ENSF ","V020","060,1,N,0098,1","22000,1,9,N","011265,1,N,1","+0020,1","-0020,1","99999,9",,,,,,,"10200,1,99999,9",,"MET064METAR ENSF 250920Z AUTO 06019KT 9999NDV /// 02/M02 Q1020 W///S4;",
"01300599999","2010-12-25T09:50:00","4","61.25","1.85","117.65","STATFJORD OIL PLATFORM HELIPORT, FO","FM-15","ENSF ","V020","060,1,N,0098,1","22000,1,9,N","011265,1,N,1","+0020,1","-0020,1","99999,9",,,,,,,"10200,1,99999,9",,"MET064METAR ENSF 250950Z AUTO 06019KT 9999NDV /// 02/M02 Q1020 W///S/;",
"01300599999","2010-12-25T10:20:00","4","61.25","1.85","117.65","STATFJORD OIL PLATFORM HELIPORT, FO","FM-15","ENSF ","V020","060,1,N,0082,1","22000,1,9,N","011265,1,N,1","+0020,1","-0030,1","99999,9",,,,,,,"10200,1,99999,9",,"MET064METAR ENSF 251020Z AUTO 06016KT 9999NDV /// 02/M03 Q1020 W///S/;",
"01300599999","2010-12-25T10:50:00","4","61.25","1.85","117.65","STATFJORD OIL PLATFORM HELIPORT, FO","FM-15","ENSF ","V020","050,1,N,0072,1","22000,1,9,N","011265,1,N,1","+0020,1","-0040,1","99999,9",,,,,,,"10210,1,99999,9",,"MET064METAR ENSF 251050Z AUTO 05014KT 9999NDV /// 02/M04 Q1021 W///S/;",
"01300599999","2010-12-25T11:20:00","4","61.25","1.85","117.65","STATFJORD OIL PLATFORM HELIPORT, FO","FM-15","ENSF ","V020","050,1,N,0072,1","22000,1,9,N","011265,1,N,1","+0020,1","-0030,1","99999,9",,,,,,,"10210,1,99999,9",,"MET064METAR ENSF 251120Z AUTO 05014KT 9999NDV /// 02/M03 Q1021 W///S4;",
"01300599999","2010-12-25T11:50:00","4","61.25","1.85","117.65","STATFJORD OIL PLATFORM HELIPORT, FO","FM-15","ENSF ","V020","050,1,N,0077,1","22000,1,9,N","011265,1,N,1","+0020,1","-0040,1","99999,9",,,,,,,"10200,1,99999,9",,"MET064METAR ENSF 251150Z AUTO 05015KT 9999NDV /// 02/M04 Q1020 W///S4;",
"01300599999","2010-12-25T12:20:00","4","61.25","1.85","117.65","STATFJORD OIL PLATFORM HELIPORT, FO","FM-15","ENSF ","V020","050,1,N,0082,1","22000,1,9,N","011265,1,N,1","+0020,1","-0030,1","99999,9",,,,,,,"10210,1,99999,9",,"MET064METAR ENSF 251220Z AUTO 05016KT 9999NDV /// 02/M03 Q1021 W///S4;",
"01300599999","2010-12-25T12:50:00","4","61.25","1.85","117.65","STATFJORD OIL PLATFORM HELIPORT, FO","FM-15","ENSF ","V020","040,1,N,0082,1","22000,1,9,N","011265,1,N,1","+0020,1","-0030,1","99999,9",,,,,,,"10210,1,99999,9",,"MET064METAR ENSF 251250Z AUTO 04016KT 9999NDV /// 02/M03 Q1021 W///S4;",
"01300599999","2010-12-25T13:20:00","4","61.25","1.85","117.65","STATFJORD OIL PLATFORM HELIPORT, FO","FM-15","ENSF ","V020","040,1,N,0082,1","22000,1,9,N","011265,1,N,1","+0020,1","-0030,1","99999,9",,,,,,,"10200,1,99999,9",,"MET064METAR ENSF 251320Z AUTO 04016KT 9999NDV /// 02/M03 Q1020 W///S4;",
"01300599999","2010-12-25T13:50:00","4","61.25","1.85","117.65","STATFJORD OIL PLATFORM HELIPORT, FO","FM-15","ENSF ","V020","040,1,N,0077,1","22000,1,9,N","011265,1,N,1","+0020,1","-0030,1","99999,9",,,,,,,"10200,1,99999,9",,"MET064METAR ENSF 251350Z AUTO 04015KT 9999NDV /// 02/M03 Q1020 W///S4;",
"01300599999","2010-12-25T14:20:00","4","61.25","1.85","117.65","STATFJORD OIL PLATFORM HELIPORT, FO","FM-15","ENSF ","V020","030,1,N,0082,1","22000,1,9,N","011265,1,N,1","+0020,1","-0030,1","99999,9",,,,,,,"10200,1,99999,9",,"MET064METAR ENSF 251420Z AUTO 03016KT 9999NDV /// 02/M03 Q1020 W///S4;",
"01300599999","2010-12-25T14:50:00","4","61.25","1.85","117.65","STATFJORD OIL PLATFORM HELIPORT, FO","FM-15","ENSF ","V020","020,1,N,0082,1","22000,1,9,N","011265,1,N,1","+0020,1","-0030,1","99999,9",,,,,,,"10200,1,99999,9",,"MET064METAR ENSF 251450Z AUTO 02016KT 9999NDV /// 02/M03 Q1020 W///S4;",
"01300599999","2010-12-25T15:20:00","4","61.25","1.85","117.65","STATFJORD OIL PLATFORM HELIPORT, FO","FM-15","ENSF ","V020","020,1,N,0087,1","22000,1,9,N","011265,1,N,1","+0020,1","-0030,1","99999,9",,,,,,,"10200,1,99999,9",,"MET064METAR ENSF 251520Z AUTO 02017KT 9999NDV /// 02/M03 Q1020 W///S4;",
"01300599999","2010-12-25T15:50:00","4","61.25","1.85","117.65","STATFJORD OIL PLATFORM HELIPORT, FO","FM-15","ENSF ","V020","020,1,N,0093,1","22000,1,9,N","011265,1,N,1","+0020,1","-0030,1","99999,9",,,,,,,"10200,1,99999,9",,"MET064METAR ENSF 251550Z AUTO 02018KT 9999NDV /// 02/M03 Q1020 W///S4;",
"01300599999","2010-12-25T16:20:00","4","61.25","1.85","117.65","STATFJORD OIL PLATFORM HELIPORT, FO","FM-15","ENSF ","V020","020,1,N,0098,1","22000,1,9,N","011265,1,N,1","+0020,1","-0020,1","99999,9","81,1",,,,,,"10200,1,99999,9",,"MET070METAR ENSF 251620Z AUTO 02019KT 9999NDV -SHRA /// 02/M02 Q1020 W///S4;",
"01300599999","2010-12-25T16:50:00","4","61.25","1.85","117.65","STATFJORD OIL PLATFORM HELIPORT, FO","FM-15","ENSF ","V020","020,1,N,0103,1","22000,1,9,N","011265,1,N,1","+0020,1","-0020,1","99999,9","81,1",,,,,,"10210,1,99999,9",,"MET070METAR ENSF 251650Z AUTO 02020KT 9999NDV -SHRA /// 02/M02 Q1021 W///S4;",
"01300599999","2010-12-25T17:20:00","4","61.25","1.85","117.65","STATFJORD OIL PLATFORM HELIPORT, FO","FM-15","ENSF ","V020","020,1,N,0108,1","22000,1,9,N","000800,1,N,1","+0010,1","-0010,1","99999,9","67,1",,,,,,"10200,1,99999,9",,"MET070METAR ENSF 251720Z AUTO 02021KT 0800NDV -RASN /// 01/M01 Q1020 W///S4;",
"01300599999","2010-12-25T17:50:00","4","61.25","1.85","117.65","STATFJORD OIL PLATFORM HELIPORT, FO","FM-15","ENSF ","V020","999,9,9,9999,9","22000,1,9,N","000600,1,N,1","+0010,1","-0010,1","99999,9","86,1",,,,,,"10200,1,99999,9",,"MET069METAR ENSF 251750Z AUTO /////KT 0600NDV SHSN /// 01/M01 Q1020 W///S4;",
"01300599999","2010-12-25T18:20:00","4","61.25","1.85","117.65","STATFJORD OIL PLATFORM HELIPORT, FO","FM-15","ENSF ","V020","020,1,N,0103,1","22000,1,9,N","001900,1,N,1","+0010,1","+0000,1","99999,9","67,1",,,,,,"10200,1,99999,9",,"MET069METAR ENSF 251820Z AUTO 02020KT 1900NDV -RASN /// 01/00 Q1020 W///S4;",
"01300599999","2010-12-25T18:50:00","4","61.25","1.85","117.65","STATFJORD OIL PLATFORM HELIPORT, FO","FM-15","ENSF ","V020","090,1,N,0057,1","22000,1,9,N","009000,1,N,1","+0010,1","+0000,1","99999,9","67,1",,,,,,"10210,1,99999,9",,"MET077METAR ENSF 251850Z AUTO 09011KT 010V110 9000NDV -RASN /// 01/00 Q1021 W///S4;",
"01300599999","2010-12-25T19:20:00","4","61.25","1.85","117.65","STATFJORD OIL PLATFORM HELIPORT, FO","FM-15","ENSF ","V020","110,1,N,0087,1","22000,1,9,N","011265,1,N,1","+0020,1","+0000,1","99999,9","67,1",,,,,,"10210,1,99999,9",,"MET069METAR ENSF 251920Z AUTO 11017KT 9999NDV -RASN /// 02/00 Q1021 W///S4;",
"01300599999","2010-12-25T19:50:00","4","61.25","1.85","117.65","STATFJORD OIL PLATFORM HELIPORT, FO","FM-15","ENSF ","V020","110,1,N,0098,1","22000,1,9,N","011265,1,N,1","+0020,1","-0010,1","99999,9","61,1",,,,,,"10210,1,99999,9",,"MET068METAR ENSF 251950Z AUTO 11019KT 9999NDV -RA /// 02/M01 Q1021 W///S4;",
"01300599999","2010-12-25T20:20:00","4","61.25","1.85","117.65","STATFJORD OIL PLATFORM HELIPORT, FO","FM-15","ENSF ","V020","110,1,N,0098,1","22000,1,9,N","011265,1,N,1","+0030,1","-0010,1","99999,9","81,1",,,,,,"10200,1,99999,9",,"MET070METAR ENSF 252020Z AUTO 11019KT 9999NDV -SHRA /// 03/M01 Q1020 W///S4;",
"01300599999","2010-12-25T20:50:00","4","61.25","1.85","117.65","STATFJORD OIL PLATFORM HELIPORT, FO","FM-15","ENSF ","V020","120,1,N,0108,1","22000,1,9,N","011265,1,N,1","+0030,1","-0010,1","99999,9",,,,,,,"10210,1,99999,9",,"MET064METAR ENSF 252050Z AUTO 12021KT 9999NDV /// 03/M01 Q1021 W///S4;",
"01300599999","2010-12-25T21:20:00","4","61.25","1.85","117.65","STATFJORD OIL PLATFORM HELIPORT, FO","FM-15","ENSF ","V020","120,1,N,0129,1","22000,1,9,N","011265,1,N,1","+0030,1","-0010,1","99999,9",,,,,,,"10210,1,99999,9",,"MET064METAR ENSF 252120Z AUTO 12025KT 9999NDV /// 03/M01 Q1021 W///S4;",
"01300599999","2010-12-25T21:50:00","4","61.25","1.85","117.65","STATFJORD OIL PLATFORM HELIPORT, FO","FM-15","ENSF ","V020","110,1,N,0134,1","22000,1,9,N","011265,1,N,1","+0030,1","-0010,1","99999,9",,,,,,,"10200,1,99999,9",,"MET064METAR ENSF 252150Z AUTO 11026KT 9999NDV /// 03/M01 Q1020 W///S4;",
"01300599999","2010-12-25T22:20:00","4","61.25","1.85","117.65","STATFJORD OIL PLATFORM HELIPORT, FO","FM-15","ENSF ","V020","110,1,N,0118,1","22000,1,9,N","011265,1,N,1","+0030,1","-0010,1","99999,9",,,,,,,"10210,1,99999,9",,"MET064METAR ENSF 252220Z AUTO 11023KT 9999NDV /// 03/M01 Q1021 W///S4;",
"01300599999","2010-12-25T22:50:00","4","61.25","1.85","117.65","STATFJORD OIL PLATFORM HELIPORT, FO","FM-15","ENSF ","V020","110,1,N,0108,1","22000,1,9,N","011265,1,N,1","+0030,1","-0020,1","99999,9",,,,,,,"10210,1,99999,9",,"MET064METAR ENSF 252250Z AUTO 11021KT 9999NDV /// 03/M02 Q1021 W///S4;",
"01300599999","2010-12-25T23:20:00","4","61.25","1.85","117.65","STATFJORD OIL PLATFORM HELIPORT, FO","FM-15","ENSF ","V020","110,1,N,0108,1","22000,1,9,N","011265,1,N,1","+0030,1","-0010,1","99999,9",,,,,,,"10210,1,99999,9",,"MET064METAR ENSF 252320Z AUTO 11021KT 9999NDV /// 03/M01 Q1021 W///S4;",
"01300599999","2010-12-25T23:50:00","4","61.25","1.85","117.65","STATFJORD OIL PLATFORM HELIPORT, FO","FM-15","ENSF ","V020","100,1,N,0103,1","22000,1,9,N","011265,1,N,1","+0030,1","-0020,1","99999,9",,,,,,,"10210,1,99999,9",,"MET064METAR ENSF 252350Z AUTO 10020KT 9999NDV /// 03/M02 Q1021 W///S4;",
"01300599999","2010-12-26T00:20:00","4","61.25","1.85","117.65","STATFJORD OIL PLATFORM HELIPORT, FO","FM-15","ENSF ","V020","100,1,N,0093,1","22000,1,9,N","011265,1,N,1","+0020,1","-0020,1","99999,9",,,,,,,"10220,1,99999,9",,"MET064METAR ENSF 260020Z AUTO 10018KT 9999NDV /// 02/M02 Q1022 W///S4;",
"01300599999","2010-12-26T00:50:00","4","61.25","1.85","117.65","STATFJORD OIL PLATFORM HELIPORT, FO","FM-15","ENSF ","V020","110,1,N,0098,1","22000,1,9,N","011265,1,N,1","+0020,1","-0020,1","99999,9",,,,,,,"10220,1,99999,9",,"MET064METAR ENSF 260050Z AUTO 11019KT 9999NDV /// 02/M02 Q1022 W///S4;",
"01300599999","2010-12-26T01:20:00","4","61.25","1.85","117.65","STATFJORD OIL PLATFORM HELIPORT, FO","FM-15","ENSF ","V020","110,1,N,0082,1","22000,1,9,N","011265,1,N,1","+0020,1","-0030,1","99999,9",,,,,,,"10220,1,99999,9",,"MET064METAR ENSF 260120Z AUTO 11016KT 9999NDV /// 02/M03 Q1022 W///S4;",
"01300599999","2010-12-26T01:50:00","4","61.25","1.85","117.65","STATFJORD OIL PLATFORM HELIPORT, FO","FM-15","ENSF ","V020","100,1,N,0072,1","22000,1,9,N","011265,1,N,1","+0020,1","-0030,1","99999,9",,,,,,,"10220,1,99999,9",,"MET064METAR ENSF 260150Z AUTO 10014KT 9999NDV /// 02/M03 Q1022 W///S4;",
"01300599999","2010-12-26T02:20:00","4","61.25","1.85","117.65","STATFJORD OIL PLATFORM HELIPORT, FO","FM-15","ENSF ","V020","090,1,N,0082,1","22000,1,9,N","011265,1,N,1","+0020,1","-0030,1","99999,9",,,,,,,"10220,1,99999,9",,"MET064METAR ENSF 260220Z AUTO 09016KT 9999NDV /// 02/M03 Q1022 W///S4;",
"01300599999","2010-12-26T02:50:00","4","61.25","1.85","117.65","STATFJORD OIL PLATFORM HELIPORT, FO","FM-15","ENSF ","V020","100,1,N,0062,1","22000,1,9,N","011265,1,N,1","+0020,1","-0040,1","99999,9",,,,,,,"10230,1,99999,9",,"MET064METAR ENSF 260250Z AUTO 10012KT 9999NDV /// 02/M04 Q1023 W///S4;",
"01300599999","2010-12-26T03:20:00","4","61.25","1.85","117.65","STATFJORD OIL PLATFORM HELIPORT, FO","FM-15","ENSF ","V020","100,1,N,0067,1","22000,1,9,N","011265,1,N,1","+0020,1","-0040,1","99999,9",,,,,,,"10230,1,99999,9",,"MET064METAR ENSF 260320Z AUTO 10013KT 9999NDV /// 02/M04 Q1023 W///S4;",
"01300599999","2010-12-26T03:50:00","4","61.25","1.85","117.65","STATFJORD OIL PLATFORM HELIPORT, FO","FM-15","ENSF ","V020","100,1,N,0051,1","22000,1,9,N","011265,1,N,1","+0020,1","-0040,1","99999,9",,,,,,,"10230,1,99999,9",,"MET064METAR ENSF 260350Z AUTO 10010KT 9999NDV /// 02/M04 Q1023 W///S4;",
"01300599999","2010-12-26T04:20:00","4","61.25","1.85","117.65","STATFJORD OIL PLATFORM HELIPORT, FO","FM-15","ENSF ","V020","090,1,N,0051,1","22000,1,9,N","011265,1,N,1","+0020,1","-0040,1","99999,9",,,,,,,"10230,1,99999,9",,"MET064METAR ENSF 260420Z AUTO 09010KT 9999NDV /// 02/M04 Q1023 W///S4;",
"01300599999","2010-12-26T04:50:00","4","61.25","1.85","117.65","STATFJORD OIL PLATFORM HELIPORT, FO","FM-15","ENSF ","V020","070,1,N,0051,1","22000,1,9,N","011265,1,N,1","+0020,1","-0040,1","99999,9",,,,,,,"10230,1,99999,9",,"MET064METAR ENSF 260450Z AUTO 07010KT 9999NDV /// 02/M04 Q1023 W///S3;",
"01300599999","2010-12-26T05:20:00","4","61.25","1.85","117.65","STATFJORD OIL PLATFORM HELIPORT, FO","FM-15","ENSF ","V020","060,1,N,0057,1","22000,1,9,N","011265,1,N,1","+0030,1","-0040,1","99999,9",,,,,,,"10230,1,99999,9",,"MET064METAR ENSF 260520Z AUTO 06011KT 9999NDV /// 03/M04 Q1023 W///S4;",
"01300599999","2010-12-26T05:50:00","4","61.25","1.85","117.65","STATFJORD OIL PLATFORM HELIPORT, FO","FM-15","ENSF ","V020","060,1,N,0057,1","22000,1,9,N","011265,1,N,1","+0020,1","-0030,1","99999,9",,,,,,,"10230,1,99999,9",,"MET064METAR ENSF 260550Z AUTO 06011KT 9999NDV /// 02/M03 Q1023 W///S3;",
"01300599999","2010-12-26T06:20:00","4","61.25","1.85","117.65","STATFJORD OIL PLATFORM HELIPORT, FO","FM-15","ENSF ","V020","050,1,N,0062,1","22000,1,9,N","011265,1,N,1","+0020,1","-0040,1","99999,9",,,,,,,"10230,1,99999,9",,"MET064METAR ENSF 260620Z AUTO 05012KT 9999NDV /// 02/M04 Q1023 W///S3;",
"01300599999","2010-12-26T06:50:00","4","61.25","1.85","117.65","STATFJORD OIL PLATFORM HELIPORT, FO","FM-15","ENSF ","V020","050,1,N,0062,1","22000,1,9,N","011265,1,N,1","+0020,1","-0040,1","99999,9",,,,,,,"10230,1,99999,9",,"MET064METAR ENSF 260650Z AUTO 05012KT 9999NDV /// 02/M04 Q1023 W///S3;",
"01300599999","2010-12-26T07:20:00","4","61.25","1.85","117.65","STATFJORD OIL PLATFORM HELIPORT, FO","FM-15","ENSF ","V020","060,1,N,0057,1","22000,1,9,N","011265,1,N,1","+0020,1","-0040,1","99999,9",,,,,,,"10230,1,99999,9",,"MET064METAR ENSF 260720Z AUTO 06011KT 9999NDV /// 02/M04 Q1023 W///S3;",
"01300599999","2010-12-26T07:50:00","4","61.25","1.85","117.65","STATFJORD OIL PLATFORM HELIPORT, FO","FM-15","ENSF ","V020","050,1,N,0051,1","22000,1,9,N","011265,1,N,1","+0020,1","-0050,1","99999,9",,,,,,,"10230,1,99999,9",,"MET064METAR ENSF 260750Z AUTO 05010KT 9999NDV /// 02/M05 Q1023 W///S3;",
"01300599999","2010-12-26T08:20:00","4","61.25","1.85","117.65","STATFJORD OIL PLATFORM HELIPORT, FO","FM-15","ENSF ","V020","070,1,N,0051,1","22000,1,9,N","011265,1,N,1","+0020,1","-0060,1","99999,9",,,,,,,"10230,1,99999,9",,"MET064METAR ENSF 260820Z AUTO 07010KT 9999NDV /// 02/M06 Q1023 W///S3;",
"01300599999","2010-12-26T08:50:00","4","61.25","1.85","117.65","STATFJORD OIL PLATFORM HELIPORT, FO","FM-15","ENSF ","V020","060,1,N,0051,1","22000,1,9,N","011265,1,N,1","+0020,1","-0060,1","99999,9",,,,,,,"10230,1,99999,9",,"MET064METAR ENSF 260850Z AUTO 06010KT 9999NDV /// 02/M06 Q1023 W///S3;",
"01300599999","2010-12-26T09:20:00","4","61.25","1.85","117.65","STATFJORD OIL PLATFORM HELIPORT, FO","FM-15","ENSF ","V020","060,1,N,0057,1","22000,1,9,N","011265,1,N,1","+0020,1","-0060,1","99999,9",,,,,,,"10230,1,99999,9",,"MET064METAR ENSF 260920Z AUTO 06011KT 9999NDV /// 02/M06 Q1023 W///S3;",
"01300599999","2010-12-26T09:50:00","4","61.25","1.85","117.65","STATFJORD OIL PLATFORM HELIPORT, FO","FM-15","ENSF ","V020","060,1,N,0051,1","22000,1,9,N","011265,1,N,1","+0020,1","-0050,1","99999,9",,,,,,,"10230,1,99999,9",,"MET064METAR ENSF 260950Z AUTO 06010KT 9999NDV /// 02/M05 Q1023 W///S3;",
"01300599999","2010-12-26T10:20:00","4","61.25","1.85","117.65","STATFJORD OIL PLATFORM HELIPORT, FO","FM-15","ENSF ","V020","070,1,N,0046,1","22000,1,9,N","011265,1,N,1","+0020,1","-0050,1","99999,9",,,,,,,"10230,1,99999,9",,"MET064METAR ENSF 261020Z AUTO 07009KT 9999NDV /// 02/M05 Q1023 W///S3;",
"01300599999","2010-12-26T10:50:00","4","61.25","1.85","117.65","STATFJORD OIL PLATFORM HELIPORT, FO","FM-15","ENSF ","V020","060,1,N,0046,1","22000,1,9,N","011265,1,N,1","+0030,1","-0050,1","99999,9",,,,,,,"10230,1,99999,9",,"MET064METAR ENSF 261050Z AUTO 06009KT 9999NDV /// 03/M05 Q1023 W///S3;",
"01300599999","2010-12-26T11:20:00","4","61.25","1.85","117.65","STATFJORD OIL PLATFORM HELIPORT, FO","FM-15","ENSF ","V020","070,1,N,0046,1","22000,1,9,N","011265,1,N,1","+0030,1","-0040,1","99999,9",,,,,,,"10230,1,99999,9",,"MET064METAR ENSF 261120Z AUTO 07009KT 9999NDV /// 03/M04 Q1023 W///S3;",
"01300599999","2010-12-26T11:50:00","4","61.25","1.85","117.65","STATFJORD OIL PLATFORM HELIPORT, FO","FM-15","ENSF ","V020","060,1,N,0041,1","22000,1,9,N","011265,1,N,1","+0030,1","-0040,1","99999,9",,,,,,,"10230,1,99999,9",,"MET072METAR ENSF 261150Z AUTO 06008KT 040V100 9999NDV /// 03/M04 Q1023 W///S3;",
"01300599999","2010-12-26T12:20:00","4","61.25","1.85","117.65","STATFJORD OIL PLATFORM HELIPORT, FO","FM-15","ENSF ","V020","070,1,N,0041,1","22000,1,9,N","011265,1,N,1","+0030,1","-0040,1","99999,9",,,,,,,"10230,1,99999,9",,"MET064METAR ENSF 261220Z AUTO 07008KT 9999NDV /// 03/M04 Q1023 W///S3;",
"01300599999","2010-12-26T12:50:00","4","61.25","1.85","117.65","STATFJORD OIL PLATFORM HELIPORT, FO","FM-15","ENSF ","V020","060,1,N,0041,1","22000,1,9,N","011265,1,N,1","+0030,1","-0040,1","99999,9",,,,,,,"10220,1,99999,9",,"MET064METAR ENSF 261250Z AUTO 06008KT 9999NDV /// 03/M04 Q1022 W///S3;",
"01300599999","2010-12-26T13:20:00","4","61.25","1.85","117.65","STATFJORD OIL PLATFORM HELIPORT, FO","FM-15","ENSF ","V020","060,1,N,0031,1","22000,1,9,N","011265,1,N,1","+0030,1","-0040,1","99999,9",,,,,,,"10220,1,99999,9",,"MET064METAR ENSF 261320Z AUTO 06006KT 9999NDV /// 03/M04 Q1022 W///S3;",
"01300599999","2010-12-26T13:50:00","4","61.25","1.85","117.65","STATFJORD OIL PLATFORM HELIPORT, FO","FM-15","ENSF ","V020","070,1,N,0036,1","22000,1,9,N","011265,1,N,1","+0030,1","-0040,1","99999,9",,,,,,,"10220,1,99999,9",,"MET072METAR ENSF 261350Z AUTO 07007KT 050V110 9999NDV /// 03/M04 Q1022 W///S3;",
"01300599999","2010-12-26T14:20:00","4","61.25","1.85","117.65","STATFJORD OIL PLATFORM HELIPORT, FO","FM-15","ENSF ","V020","080,1,N,0036,1","22000,1,9,N","011265,1,N,1","+0030,1","-0040,1","99999,9",,,,,,,"10220,1,99999,9",,"MET064METAR ENSF 261420Z AUTO 08007KT 9999NDV /// 03/M04 Q1022 W///S3;",
"01300599999","2010-12-26T14:50:00","4","61.25","1.85","117.65","STATFJORD OIL PLATFORM HELIPORT, FO","FM-15","ENSF ","V020","060,1,N,0036,1","22000,1,9,N","011265,1,N,1","+0030,1","-0030,1","99999,9",,,,,,,"10220,1,99999,9",,"MET064METAR ENSF 261450Z AUTO 06007KT 9999NDV /// 03/M03 Q1022 W///S3;",
"01300599999","2010-12-26T15:20:00","4","61.25","1.85","117.65","STATFJORD OIL PLATFORM HELIPORT, FO","FM-15","ENSF ","V020","070,1,N,0041,1","22000,1,9,N","011265,1,N,1","+0030,1","-0030,1","99999,9",,,,,,,"10210,1,99999,9",,"MET064METAR ENSF 261520Z AUTO 07008KT 9999NDV /// 03/M03 Q1021 W///S3;",
"01300599999","2010-12-26T15:50:00","4","61.25","1.85","117.65","STATFJORD OIL PLATFORM HELIPORT, FO","FM-15","ENSF ","V020","080,1,N,0046,1","22000,1,9,N","011265,1,N,1","+0030,1","-0030,1","99999,9",,,,,,,"10210,1,99999,9",,"MET064METAR ENSF 261550Z AUTO 08009KT 9999NDV /// 03/M03 Q1021 W///S3;",
"01300599999","2010-12-26T16:20:00","4","61.25","1.85","117.65","STATFJORD OIL PLATFORM HELIPORT, FO","FM-15","ENSF ","V020","080,1,N,0041,1","22000,1,9,N","011265,1,N,1","+0030,1","-0030,1","99999,9",,,,,,,"10210,1,99999,9",,"MET064METAR ENSF 261620Z AUTO 08008KT 9999NDV /// 03/M03 Q1021 W///S3;",
"01300599999","2010-12-26T16:50:00","4","61.25","1.85","117.65","STATFJORD OIL PLATFORM HELIPORT, FO","FM-15","ENSF ","V020","080,1,N,0051,1","22000,1,9,N","011265,1,N,1","+0030,1","-0030,1","99999,9",,,,,,,"10210,1,99999,9",,"MET064METAR ENSF 261650Z AUTO 08010KT 9999NDV /// 03/M03 Q1021 W///S3;",
"01300599999","2010-12-26T17:20:00","4","61.25","1.85","117.65","STATFJORD OIL PLATFORM HELIPORT, FO","FM-15","ENSF ","V020","090,1,N,0051,1","22000,1,9,N","011265,1,N,1","+0030,1","-0030,1","99999,9",,,,,,,"10210,1,99999,9",,"MET064METAR ENSF 261720Z AUTO 09010KT 9999NDV /// 03/M03 Q1021 W///S3;",
"01300599999","2010-12-26T17:50:00","4","61.25","1.85","117.65","STATFJORD OIL PLATFORM HELIPORT, FO","FM-15","ENSF ","V020","110,1,N,0046,1","22000,1,9,N","011265,1,N,1","+0030,1","-0030,1","99999,9",,,,,,,"10210,1,99999,9",,"MET072METAR ENSF 261750Z AUTO 11009KT 080V140 9999NDV /// 03/M03 Q1021 W///S3;",
"01300599999","2010-12-26T18:20:00","4","61.25","1.85","117.65","STATFJORD OIL PLATFORM HELIPORT, FO","FM-15","ENSF ","V020","100,1,N,0046,1","22000,1,9,N","011265,1,N,1","+0030,1","-0030,1","99999,9",,,,,,,"10210,1,99999,9",,"MET064METAR ENSF 261820Z AUTO 10009KT 9999NDV /// 03/M03 Q1021 W///S3;",
"01300599999","2010-12-26T18:50:00","4","61.25","1.85","117.65","STATFJORD OIL PLATFORM HELIPORT, FO","FM-15","ENSF ","V020","110,1,N,0046,1","22000,1,9,N","011265,1,N,1","+0030,1","-0030,1","99999,9",,,,,,,"10200,1,99999,9",,"MET064METAR ENSF 261850Z AUTO 11009KT 9999NDV /// 03/M03 Q1020 W///S3;",
"01300599999","2010-12-26T19:20:00","4","61.25","1.85","117.65","STATFJORD OIL PLATFORM HELIPORT, FO","FM-15","ENSF ","V020","100,1,N,0041,1","22000,1,9,N","011265,1,N,1","+0030,1","-0020,1","99999,9",,,,,,,"10200,1,99999,9",,"MET064METAR ENSF 261920Z AUTO 10008KT 9999NDV /// 03/M02 Q1020 W///S3;",
"01300599999","2010-12-26T19:50:00","4","61.25","1.85","117.65","STATFJORD OIL PLATFORM HELIPORT, FO","FM-15","ENSF ","V020","110,1,N,0041,1","22000,1,9,N","011265,1,N,1","+0030,1","-0020,1","99999,9",,,,,,,"10200,1,99999,9",,"MET064METAR ENSF 261950Z AUTO 11008KT 9999NDV /// 03/M02 Q1020 W///S3;",
"01300599999","2010-12-26T20:20:00","4","61.25","1.85","117.65","STATFJORD OIL PLATFORM HELIPORT, FO","FM-15","ENSF ","V020","100,1,N,0046,1","22000,1,9,N","011265,1,N,1","+0030,1","-0030,1","99999,9",,,,,,,"10200,1,99999,9",,"MET064METAR ENSF 262020Z AUTO 10009KT 9999NDV /// 03/M03 Q1020 W///S4;",
"01300599999","2010-12-26T20:50:00","4","61.25","1.85","117.65","STATFJORD OIL PLATFORM HELIPORT, FO","FM-15","ENSF ","V020","110,1,N,0041,1","22000,1,9,N","011265,1,N,1","+0030,1","-0020,1","99999,9",,,,,,,"10190,1,99999,9",,"MET064METAR ENSF 262050Z AUTO 11008KT 9999NDV /// 03/M02 Q1019 W///S4;",
"01300599999","2010-12-26T21:20:00","4","61.25","1.85","117.65","STATFJORD OIL PLATFORM HELIPORT, FO","FM-15","ENSF ","V020","100,1,N,0051,1","22000,1,9,N","011265,1,N,1","+0030,1","-0020,1","99999,9",,,,,,,"10190,1,99999,9",,"MET064METAR ENSF 262120Z AUTO 10010KT 9999NDV /// 03/M02 Q1019 W///S4;",
"01300599999","2010-12-26T21:50:00","4","61.25","1.85","117.65","STATFJORD OIL PLATFORM HELIPORT, FO","FM-15","ENSF ","V020","110,1,N,0046,1","22000,1,9,N","011265,1,N,1","+0030,1","-0030,1","99999,9",,,,,,,"10190,1,99999,9",,"MET064METAR ENSF 262150Z AUTO 11009KT 9999NDV /// 03/M03 Q1019 W///S4;",
"01300599999","2010-12-26T22:20:00","4","61.25","1.85","117.65","STATFJORD OIL PLATFORM HELIPORT, FO","FM-15","ENSF ","V020","110,1,N,0051,1","22000,1,9,N","011265,1,N,1","+0030,1","-0020,1","99999,9",,,,,,,"10190,1,99999,9",,"MET064METAR ENSF 262220Z AUTO 11010KT 9999NDV /// 03/M02 Q1019 W///S4;",
"01300599999","2010-12-26T22:50:00","4","61.25","1.85","117.65","STATFJORD OIL PLATFORM HELIPORT, FO","FM-15","ENSF ","V020","110,1,N,0051,1","22000,1,9,N","011265,1,N,1","+0030,1","-0020,1","99999,9",,,,,,,"10180,1,99999,9",,"MET064METAR ENSF 262250Z AUTO 11010KT 9999NDV /// 03/M02 Q1018 W///S4;",
"01300599999","2010-12-26T23:20:00","4","61.25","1.85","117.65","STATFJORD OIL PLATFORM HELIPORT, FO","FM-15","ENSF ","V020","120,1,N,0051,1","22000,1,9,N","011265,1,N,1","+0030,1","-0020,1","99999,9",,,,,,,"10180,1,99999,9",,"MET064METAR ENSF 262320Z AUTO 12010KT 9999NDV /// 03/M02 Q1018 W///S4;",
"01300599999","2010-12-26T23:50:00","4","61.25","1.85","117.65","STATFJORD OIL PLATFORM HELIPORT, FO","FM-15","ENSF ","V020","130,1,N,0046,1","22000,1,9,N","011265,1,N,1","+0030,1","-0020,1","99999,9",,,,,,,"10180,1,99999,9",,"MET064METAR ENSF 262350Z AUTO 13009KT 9999NDV /// 03/M02 Q1018 W///S4;",
"01300599999","2010-12-27T00:20:00","4","61.25","1.85","117.65","STATFJORD OIL PLATFORM HELIPORT, FO","FM-15","ENSF ","V020","120,1,N,0051,1","22000,1,9,N","011265,1,N,1","+0030,1","-0020,1","99999,9",,,,,,,"10180,1,99999,9",,"MET064METAR ENSF 270020Z AUTO 12010KT 9999NDV /// 03/M02 Q1018 W///S4;",
"01300599999","2010-12-27T00:50:00","4","61.25","1.85","117.65","STATFJORD OIL PLATFORM HELIPORT, FO","FM-15","ENSF ","V020","140,1,N,0051,1","22000,1,9,N","011265,1,N,1","+0030,1","-0020,1","99999,9",,,,,,,"10180,1,99999,9",,"MET064METAR ENSF 270050Z AUTO 14010KT 9999NDV /// 03/M02 Q1018 W///S4;",
"01300599999","2010-12-27T01:20:00","4","61.25","1.85","117.65","STATFJORD OIL PLATFORM HELIPORT, FO","FM-15","ENSF ","V020","140,1,N,0051,1","22000,1,9,N","011265,1,N,1","+0030,1","-0020,1","99999,9",,,,,,,"10169,1,99999,9",,"MET064METAR ENSF 270120Z AUTO 14010KT 9999NDV /// 03/M02 Q1017 W///S4;",
"01300599999","2010-12-27T01:50:00","4","61.25","1.85","117.65","STATFJORD OIL PLATFORM HELIPORT, FO","FM-15","ENSF ","V020","140,1,N,0051,1","22000,1,9,N","011265,1,N,1","+0030,1","-0020,1","99999,9",,,,,,,"10169,1,99999,9",,"MET064METAR ENSF 270150Z AUTO 14010KT 9999NDV /// 03/M02 Q1017 W///S4;",
"01300599999","2010-12-27T02:20:00","4","61.25","1.85","117.65","STATFJORD OIL PLATFORM HELIPORT, FO","FM-15","ENSF ","V020","140,1,N,0051,1","22000,1,9,N","011265,1,N,1","+0030,1","-0020,1","99999,9",,,,,,,"10169,1,99999,9",,"MET064METAR ENSF 270220Z AUTO 14010KT 9999NDV /// 03/M02 Q1017 W///S4;",
"01300599999","2010-12-27T02:50:00","4","61.25","1.85","117.65","STATFJORD OIL PLATFORM HELIPORT, FO","FM-15","ENSF ","V020","130,1,N,0057,1","22000,1,9,N","011265,1,N,1","+0030,1","-0020,1","99999,9",,,,,,,"10169,1,99999,9",,"MET064METAR ENSF 270250Z AUTO 13011KT 9999NDV /// 03/M02 Q1017 W///S4;",
"01300599999","2010-12-27T03:20:00","4","61.25","1.85","117.65","STATFJORD OIL PLATFORM HELIPORT, FO","FM-15","ENSF ","V020","130,1,N,0057,1","22000,1,9,N","011265,1,N,1","+0030,1","-0020,1","99999,9",,,,,,,"10169,1,99999,9",,"MET064METAR ENSF 270320Z AUTO 13011KT 9999NDV /// 03/M02 Q1017 W///S4;",
"01300599999","2010-12-27T03:50:00","4","61.25","1.85","117.65","STATFJORD OIL PLATFORM HELIPORT, FO","FM-15","ENSF ","V020","140,1,N,0057,1","22000,1,9,N","011265,1,N,1","+0030,1","-0020,1","99999,9",,,,,,,"10159,1,99999,9",,"MET064METAR ENSF 270350Z AUTO 14011KT 9999NDV /// 03/M02 Q1016 W///S4;",
"01300599999","2010-12-27T04:20:00","4","61.25","1.85","117.65","STATFJORD OIL PLATFORM HELIPORT, FO","FM-15","ENSF ","V020","140,1,N,0057,1","22000,1,9,N","011265,1,N,1","+0030,1","-0020,1","99999,9",,,,,,,"10159,1,99999,9",,"MET064METAR ENSF 270420Z AUTO 14011KT 9999NDV /// 03/M02 Q1016 W///S4;",
"01300599999","2010-12-27T04:50:00","4","61.25","1.85","117.65","STATFJORD OIL PLATFORM HELIPORT, FO","FM-15","ENSF ","V020","140,1,N,0057,1","22000,1,9,N","011265,1,N,1","+0030,1","-0020,1","99999,9",,,,,,,"10159,1,99999,9",,"MET064METAR ENSF 270450Z AUTO 14011KT 9999NDV /// 03/M02 Q1016 W///S4;",
"01300599999","2010-12-27T05:20:00","4","61.25","1.85","117.65","STATFJORD OIL PLATFORM HELIPORT, FO","FM-15","ENSF ","V020","140,1,N,0051,1","22000,1,9,N","011265,1,N,1","+0030,1","-0020,1","99999,9",,,,,,,"10159,1,99999,9",,"MET072METAR ENSF 270520Z AUTO 14010KT 100V160 9999NDV /// 03/M02 Q1016 W///S4;",
"01300599999","2010-12-27T05:50:00","4","61.25","1.85","117.65","STATFJORD OIL PLATFORM HELIPORT, FO","FM-15","ENSF ","V020","140,1,N,0057,1","22000,1,9,N","011265,1,N,1","+0030,1","-0020,1","99999,9",,,,,,,"10159,1,99999,9",,"MET064METAR ENSF 270550Z AUTO 14011KT 9999NDV /// 03/M02 Q1016 W///S4;",
"01300599999","2010-12-27T06:20:00","4","61.25","1.85","117.65","STATFJORD OIL PLATFORM HELIPORT, FO","FM-15","ENSF ","V020","140,1,N,0051,1","22000,1,9,N","011265,1,N,1","+0030,1","-0020,1","99999,9",,,,,,,"10159,1,99999,9",,"MET072METAR ENSF 270620Z AUTO 14010KT 120V180 9999NDV /// 03/M02 Q1016 W///S4;",
"01300599999","2010-12-27T06:50:00","4","61.25","1.85","117.65","STATFJORD OIL PLATFORM HELIPORT, FO","FM-15","ENSF ","V020","140,1,N,0057,1","22000,1,9,N","011265,1,N,1","+0030,1","-0020,1","99999,9",,,,,,,"10159,1,99999,9",,"MET064METAR ENSF 270650Z AUTO 14011KT 9999NDV /// 03/M02 Q1016 W///S4;",
"01300599999","2010-12-27T07:20:00","4","61.25","1.85","117.65","STATFJORD OIL PLATFORM HELIPORT, FO","FM-15","ENSF ","V020","130,1,N,0057,1","22000,1,9,N","011265,1,N,1","+0030,1","-0020,1","99999,9",,,,,,,"10159,1,99999,9",,"MET064METAR ENSF 270720Z AUTO 13011KT 9999NDV /// 03/M02 Q1016 W///S4;",
"01300599999","2010-12-27T07:50:00","4","61.25","1.85","117.65","STATFJORD OIL PLATFORM HELIPORT, FO","FM-15","ENSF ","V020","120,1,N,0067,1","22000,1,9,N","011265,1,N,1","+0030,1","-0020,1","99999,9",,,,,,,"10159,1,99999,9",,"MET064METAR ENSF 270750Z AUTO 12013KT 9999NDV /// 03/M02 Q1016 W///S4;",
"01300599999","2010-12-27T08:20:00","4","61.25","1.85","117.65","STATFJORD OIL PLATFORM HELIPORT, FO","FM-15","ENSF ","V020","130,1,N,0067,1","22000,1,9,N","011265,1,N,1","+0030,1","-0020,1","99999,9",,,,,,,"10159,1,99999,9",,"MET064METAR ENSF 270820Z AUTO 13013KT 9999NDV /// 03/M02 Q1016 W///S4;",
"01300599999","2010-12-27T08:50:00","4","61.25","1.85","117.65","STATFJORD OIL PLATFORM HELIPORT, FO","FM-15","ENSF ","V020","130,1,N,0067,1","22000,1,9,N","011265,1,N,1","+0030,1","-0020,1","99999,9",,,,,,,"10159,1,99999,9",,"MET064METAR ENSF 270850Z AUTO 13013KT 9999NDV /// 03/M02 Q1016 W///S4;",
"01300599999","2010-12-27T09:20:00","4","61.25","1.85","117.65","STATFJORD OIL PLATFORM HELIPORT, FO","FM-15","ENSF ","V020","140,1,N,0067,1","22000,1,9,N","011265,1,N,1","+0030,1","-0020,1","99999,9",,,,,,,"10159,1,99999,9",,"MET064METAR ENSF 270920Z AUTO 14013KT 9999NDV /// 03/M02 Q1016 W///S4;",
"01300599999","2010-12-27T09:50:00","4","61.25","1.85","117.65","STATFJORD OIL PLATFORM HELIPORT, FO","FM-15","ENSF ","V020","140,1,N,0072,1","22000,1,9,N","011265,1,N,1","+0030,1","-0020,1","99999,9",,,,,,,"10159,1,99999,9",,"MET064METAR ENSF 270950Z AUTO 14014KT 9999NDV /// 03/M02 Q1016 W///S4;",
"01300599999","2010-12-27T10:20:00","4","61.25","1.85","117.65","STATFJORD OIL PLATFORM HELIPORT, FO","FM-15","ENSF ","V020","140,1,N,0072,1","22000,1,9,N","011265,1,N,1","+0040,1","-0020,1","99999,9",,,,,,,"10159,1,99999,9",,"MET064METAR ENSF 271020Z AUTO 14014KT 9999NDV /// 04/M02 Q1016 W///S4;",
"01300599999","2010-12-27T10:50:00","4","61.25","1.85","117.65","STATFJORD OIL PLATFORM HELIPORT, FO","FM-15","ENSF ","V020","140,1,N,0077,1","22000,1,9,N","011265,1,N,1","+0040,1","-0020,1","99999,9",,,,,,,"10159,1,99999,9",,"MET064METAR ENSF 271050Z AUTO 14015KT 9999NDV /// 04/M02 Q1016 W///S4;",
"01300599999","2010-12-27T11:20:00","4","61.25","1.85","117.65","STATFJORD OIL PLATFORM HELIPORT, FO","FM-15","ENSF ","V020","140,1,N,0082,1","22000,1,9,N","011265,1,N,1","+0040,1","-0020,1","99999,9",,,,,,,"10159,1,99999,9",,"MET064METAR ENSF 271120Z AUTO 14016KT 9999NDV /// 04/M02 Q1016 W///S4;",
"01300599999","2010-12-27T11:50:00","4","61.25","1.85","117.65","STATFJORD OIL PLATFORM HELIPORT, FO","FM-15","ENSF ","V020","150,1,N,0082,1","22000,1,9,N","011265,1,N,1","+0040,1","-0020,1","99999,9",,,,,,,"10159,1,99999,9",,"MET064METAR ENSF 271150Z AUTO 15016KT 9999NDV /// 04/M02 Q1016 W///S4;",
"01300599999","2010-12-27T12:20:00","4","61.25","1.85","117.65","STATFJORD OIL PLATFORM HELIPORT, FO","FM-15","ENSF ","V020","140,1,N,0082,1","22000,1,9,N","011265,1,N,1","+0040,1","-0020,1","99999,9",,,,,,,"10159,1,99999,9",,"MET064METAR ENSF 271220Z AUTO 14016KT 9999NDV /// 04/M02 Q1016 W///S4;",
"01300599999","2010-12-27T12:50:00","4","61.25","1.85","117.65","STATFJORD OIL PLATFORM HELIPORT, FO","FM-15","ENSF ","V020","150,1,N,0077,1","22000,1,9,N","011265,1,N,1","+0040,1","-0020,1","99999,9",,,,,,,"10159,1,99999,9",,"MET064METAR ENSF 271250Z AUTO 15015KT 9999NDV /// 04/M02 Q1016 W///S4;",
"01300599999","2010-12-27T13:20:00","4","61.25","1.85","117.65","STATFJORD OIL PLATFORM HELIPORT, FO","FM-15","ENSF ","V020","150,1,N,0087,1","22000,1,9,N","011265,1,N,1","+0040,1","-0020,1","99999,9",,,,,,,"10159,1,99999,9",,"MET064METAR ENSF 271320Z AUTO 15017KT 9999NDV /// 04/M02 Q1016 W///S4;",
"01300599999","2010-12-27T13:50:00","4","61.25","1.85","117.65","STATFJORD OIL PLATFORM HELIPORT, FO","FM-15","ENSF ","V020","160,1,N,0082,1","22000,1,9,N","011265,1,N,1","+0040,1","-0020,1","99999,9",,,,,,,"10159,1,99999,9",,"MET064METAR ENSF 271350Z AUTO 16016KT 9999NDV /// 04/M02 Q1016 W///S5;",
"01300599999","2010-12-27T14:20:00","4","61.25","1.85","117.65","STATFJORD OIL PLATFORM HELIPORT, FO","FM-15","ENSF ","V020","150,1,N,0087,1","22000,1,9,N","011265,1,N,1","+0040,1","-0020,1","99999,9",,,,,,,"10159,1,99999,9",,"MET064METAR ENSF 271420Z AUTO 15017KT 9999NDV /// 04/M02 Q1016 W///S5;",
"01300599999","2010-12-27T14:50:00","4","61.25","1.85","117.65","STATFJORD OIL PLATFORM HELIPORT, FO","FM-15","ENSF ","V020","160,1,N,0087,1","22000,1,9,N","011265,1,N,1","+0040,1","-0030,1","99999,9",,,,,,,"10159,1,99999,9",,"MET064METAR ENSF 271450Z AUTO 16017KT 9999NDV /// 04/M03 Q1016 W///S4;",
"01300599999","2010-12-27T15:20:00","4","61.25","1.85","117.65","STATFJORD OIL PLATFORM HELIPORT, FO","FM-15","ENSF ","V020","150,1,N,0087,1","22000,1,9,N","011265,1,N,1","+0040,1","-0020,1","99999,9",,,,,,,"10159,1,99999,9",,"MET064METAR ENSF 271520Z AUTO 15017KT 9999NDV /// 04/M02 Q1016 W///S4;",
"01300599999","2010-12-27T15:50:00","4","61.25","1.85","117.65","STATFJORD OIL PLATFORM HELIPORT, FO","FM-15","ENSF ","V020","140,1,N,0087,1","22000,1,9,N","011265,1,N,1","+0040,1","-0010,1","99999,9",,,,,,,"10159,1,99999,9",,"MET064METAR ENSF 271550Z AUTO 14017KT 9999NDV /// 04/M01 Q1016 W///S4;",
"01300599999","2010-12-27T16:20:00","4","61.25","1.85","117.65","STATFJORD OIL PLATFORM HELIPORT, FO","FM-15","ENSF ","V020","160,1,N,0093,1","22000,1,9,N","011265,1,N,1","+0040,1","-0020,1","99999,9",,,,,,,"10159,1,99999,9",,"MET064METAR ENSF 271620Z AUTO 16018KT 9999NDV /// 04/M02 Q1016 W///S4;",
"01300599999","2010-12-27T16:50:00","4","61.25","1.85","117.65","STATFJORD OIL PLATFORM HELIPORT, FO","FM-15","ENSF ","V020","160,1,N,0108,1","22000,1,9,N","011265,1,N,1","+0040,1","-0010,1","99999,9",,,,,,,"10159,1,99999,9",,"MET064METAR ENSF 271650Z AUTO 16021KT 9999NDV /// 04/M01 Q1016 W///S4;",
"01300599999","2010-12-27T17:20:00","4","61.25","1.85","117.65","STATFJORD OIL PLATFORM HELIPORT, FO","FM-15","ENSF ","V020","160,1,N,0113,1","22000,1,9,N","011265,1,N,1","+0040,1","-0010,1","99999,9",,,,,,,"10159,1,99999,9",,"MET064METAR ENSF 271720Z AUTO 16022KT 9999NDV /// 04/M01 Q1016 W///S4;",
"01300599999","2010-12-27T17:50:00","4","61.25","1.85","117.65","STATFJORD OIL PLATFORM HELIPORT, FO","FM-15","ENSF ","V020","150,1,N,0129,1","22000,1,9,N","011265,1,N,1","+0040,1","-0010,1","99999,9",,,,,,,"10169,1,99999,9",,"MET064METAR ENSF 271750Z AUTO 15025KT 9999NDV /// 04/M01 Q1017 W///S4;",
"01300599999","2010-12-27T18:20:00","4","61.25","1.85","117.65","STATFJORD OIL PLATFORM HELIPORT, FO","FM-15","ENSF ","V020","140,1,N,0118,1","22000,1,9,N","011265,1,N,1","+0040,1","-0010,1","99999,9",,,,,,,"10169,1,99999,9",,"MET064METAR ENSF 271820Z AUTO 14023KT 9999NDV /// 04/M01 Q1017 W///S4;",
"01300599999","2010-12-27T18:50:00","4","61.25","1.85","117.65","STATFJORD OIL PLATFORM HELIPORT, FO","FM-15","ENSF ","V020","160,1,N,0093,1","22000,1,9,N","011265,1,N,1","+0040,1","-0020,1","99999,9",,,,,,,"10169,1,99999,9",,"MET064METAR ENSF 271850Z AUTO 16018KT 9999NDV /// 04/M02 Q1017 W///S4;",
"01300599999","2010-12-27T19:20:00","4","61.25","1.85","117.65","STATFJORD OIL PLATFORM HELIPORT, FO","FM-15","ENSF ","V020","160,1,N,0098,1","22000,1,9,N","011265,1,N,1","+0040,1","-0030,1","99999,9",,,,,,,"10169,1,99999,9",,"MET064METAR ENSF 271920Z AUTO 16019KT 9999NDV /// 04/M03 Q1017 W///S5;",
"01300599999","2010-12-27T19:50:00","4","61.25","1.85","117.65","STATFJORD OIL PLATFORM HELIPORT, FO","FM-15","ENSF ","V020","150,1,N,0093,1","22000,1,9,N","011265,1,N,1","+0050,1","-0020,1","99999,9",,,,,,,"10169,1,99999,9",,"MET064METAR ENSF 271950Z AUTO 15018KT 9999NDV /// 05/M02 Q1017 W///S4;",
"01300599999","2010-12-27T20:20:00","4","61.25","1.85","117.65","STATFJORD OIL PLATFORM HELIPORT, FO","FM-15","ENSF ","V020","170,1,N,0103,1","22000,1,9,N","011265,1,N,1","+0040,1","-0030,1","99999,9",,,,,,,"10169,1,99999,9",,"MET064METAR ENSF 272020Z AUTO 17020KT 9999NDV /// 04/M03 Q1017 W///S4;",
"01300599999","2010-12-27T20:50:00","4","61.25","1.85","117.65","STATFJORD OIL PLATFORM HELIPORT, FO","FM-15","ENSF ","V020","170,1,N,0108,1","22000,1,9,N","011265,1,N,1","+0040,1","-0030,1","99999,9",,,,,,,"10169,1,99999,9",,"MET064METAR ENSF 272050Z AUTO 17021KT 9999NDV /// 04/M03 Q1017 W///S4;",
"01300599999","2010-12-27T21:20:00","4","61.25","1.85","117.65","STATFJORD OIL PLATFORM HELIPORT, FO","FM-15","ENSF ","V020","170,1,N,0149,1","22000,1,9,N","011265,1,N,1","+0040,1","+0000,1","99999,9","61,1",,,,,,"10169,1,99999,9",,"MET067METAR ENSF 272120Z AUTO 17029KT 9999NDV -RA /// 04/00 Q1017 W///S4;",
"01300599999","2010-12-27T21:50:00","4","61.25","1.85","117.65","STATFJORD OIL PLATFORM HELIPORT, FO","FM-15","ENSF ","V020","160,1,N,0149,1","22000,1,9,N","011265,1,N,1","+0040,1","+0000,1","99999,9",,,,,,,"10180,1,99999,9",,"MET063METAR ENSF 272150Z AUTO 16029KT 9999NDV /// 04/00 Q1018 W///S4;",
"01300599999","2010-12-27T22:20:00","4","61.25","1.85","117.65","STATFJORD OIL PLATFORM HELIPORT, FO","FM-15","ENSF ","V020","160,1,N,0154,1","22000,1,9,N","011265,1,N,1","+0040,1","+0000,1","99999,9",,,,,,,"10180,1,99999,9",,"MET063METAR ENSF 272220Z AUTO 16030KT 9999NDV /// 04/00 Q1018 W///S4;",
"01300599999","2010-12-27T22:50:00","4","61.25","1.85","117.65","STATFJORD OIL PLATFORM HELIPORT, FO","FM-15","ENSF ","V020","160,1,N,0165,1","22000,1,9,N","011265,1,N,1","+0040,1","+0000,1","99999,9",,,,,,,"10180,1,99999,9",,"MET063METAR ENSF 272250Z AUTO 16032KT 9999NDV /// 04/00 Q1018 W///S4;",
"01300599999","2010-12-27T23:20:00","4","61.25","1.85","117.65","STATFJORD OIL PLATFORM HELIPORT, FO","FM-15","ENSF ","V020","160,1,N,0165,1","22000,1,9,N","011265,1,N,1","+0040,1","-0010,1","99999,9",,,,,,,"10180,1,99999,9",,"MET064METAR ENSF 272320Z AUTO 16032KT 9999NDV /// 04/M01 Q1018 W///S4;",
"01300599999","2010-12-27T23:50:00","4","61.25","1.85","117.65","STATFJORD OIL PLATFORM HELIPORT, FO","FM-15","ENSF ","V020","160,1,N,0165,1","22000,1,9,N","011265,1,N,1","+0040,1","-0010,1","99999,9",,,,,,,"10180,1,99999,9",,"MET064METAR ENSF 272350Z AUTO 16032KT 9999NDV /// 04/M01 Q1018 W///S5;",
"01300599999","2010-12-28T00:20:00","4","61.25","1.85","117.65","STATFJORD OIL PLATFORM HELIPORT, FO","FM-15","ENSF ","V020","160,1,N,0159,1","22000,1,9,N","011265,1,N,1","+0040,1","-0010,1","99999,9",,,,,,,"10180,1,99999,9",,"MET064METAR ENSF 280020Z AUTO 16031KT 9999NDV /// 04/M01 Q1018 W///S5;",
"01300599999","2010-12-28T00:50:00","4","61.25","1.85","117.65","STATFJORD OIL PLATFORM HELIPORT, FO","FM-15","ENSF ","V020","170,1,N,0159,1","22000,1,9,N","011265,1,N,1","+0030,1","-0020,1","99999,9",,,,,,,"10180,1,99999,9",,"MET064METAR ENSF 280050Z AUTO 17031KT 9999NDV /// 03/M02 Q1018 W///S5;",
"01300599999","2010-12-28T01:20:00","4","61.25","1.85","117.65","STATFJORD OIL PLATFORM HELIPORT, FO","FM-15","ENSF ","V020","160,1,N,0170,1","22000,1,9,N","011265,1,N,1","+0030,1","-0030,1","99999,9",,,,,,,"10190,1,99999,9",,"MET064METAR ENSF 280120Z AUTO 16033KT 9999NDV /// 03/M03 Q1019 W///S5;",
"01300599999","2010-12-28T01:50:00","4","61.25","1.85","117.65","STATFJORD OIL PLATFORM HELIPORT, FO","FM-15","ENSF ","V020","170,1,N,0134,1","22000,1,9,N","011265,1,N,1","+0030,1","-0040,1","99999,9",,,,,,,"10190,1,99999,9",,"MET064METAR ENSF 280150Z AUTO 17026KT 9999NDV /// 03/M04 Q1019 W///S5;",
"01300599999","2010-12-28T02:20:00","4","61.25","1.85","117.65","STATFJORD OIL PLATFORM HELIPORT, FO","FM-15","ENSF ","V020","160,1,N,0149,1","22000,1,9,N","011265,1,N,1","+0030,1","-0030,1","99999,9",,,,,,,"10190,1,99999,9",,"MET064METAR ENSF 280220Z AUTO 16029KT 9999NDV /// 03/M03 Q1019 W///S5;",
"01300599999","2010-12-28T02:50:00","4","61.25","1.85","117.65","STATFJORD OIL PLATFORM HELIPORT, FO","FM-15","ENSF ","V020","160,1,N,0149,1","22000,1,9,N","011265,1,N,1","+0030,1","-0030,1","99999,9",,,,,,,"10190,1,99999,9",,"MET064METAR ENSF 280250Z AUTO 16029KT 9999NDV /// 03/M03 Q1019 W///S5;",
"01300599999","2010-12-28T03:20:00","4","61.25","1.85","117.65","STATFJORD OIL PLATFORM HELIPORT, FO","FM-15","ENSF ","V020","160,1,N,0149,1","22000,1,9,N","011265,1,N,1","+0030,1","-0040,1","99999,9",,,,,,,"10190,1,99999,9",,"MET064METAR ENSF 280320Z AUTO 16029KT 9999NDV /// 03/M04 Q1019 W///S5;",
"01300599999","2010-12-28T03:50:00","4","61.25","1.85","117.65","STATFJORD OIL PLATFORM HELIPORT, FO","FM-15","ENSF ","V020","150,1,N,0134,1","22000,1,9,N","011265,1,N,1","+0030,1","-0030,1","99999,9",,,,,,,"10190,1,99999,9",,"MET064METAR ENSF 280350Z AUTO 15026KT 9999NDV /// 03/M03 Q1019 W///S5;",
"01300599999","2010-12-28T04:20:00","4","61.25","1.85","117.65","STATFJORD OIL PLATFORM HELIPORT, FO","FM-15","ENSF ","V020","150,1,N,0134,1","22000,1,9,N","011265,1,N,1","+0030,1","-0030,1","99999,9",,,,,,,"10190,1,99999,9",,"MET064METAR ENSF 280420Z AUTO 15026KT 9999NDV /// 03/M03 Q1019 W///S5;",
"01300599999","2010-12-28T04:50:00","4","61.25","1.85","117.65","STATFJORD OIL PLATFORM HELIPORT, FO","FM-15","ENSF ","V020","150,1,N,0134,1","22000,1,9,N","011265,1,N,1","+0030,1","-0030,1","99999,9",,,,,,,"10190,1,99999,9",,"MET064METAR ENSF 280450Z AUTO 15026KT 9999NDV /// 03/M03 Q1019 W///S5;",
"01300599999","2010-12-28T05:20:00","4","61.25","1.85","117.65","STATFJORD OIL PLATFORM HELIPORT, FO","FM-15","ENSF ","V020","150,1,N,0134,1","22000,1,9,N","011265,1,N,1","+0030,1","-0020,1","99999,9",,,,,,,"10190,1,99999,9",,"MET064METAR ENSF 280520Z AUTO 15026KT 9999NDV /// 03/M02 Q1019 W///S5;",
"01300599999","2010-12-28T05:50:00","4","61.25","1.85","117.65","STATFJORD OIL PLATFORM HELIPORT, FO","FM-15","ENSF ","V020","150,1,N,0144,1","22000,1,9,N","011265,1,N,1","+0030,1","-0020,1","99999,9",,,,,,,"10190,1,99999,9",,"MET064METAR ENSF 280550Z AUTO 15028KT 9999NDV /// 03/M02 Q1019 W///S5;",
"01300599999","2010-12-28T06:20:00","4","61.25","1.85","117.65","STATFJORD OIL PLATFORM HELIPORT, FO","FM-15","ENSF ","V020","140,1,N,0154,1","22000,1,9,N","011265,1,N,1","+0030,1","-0020,1","99999,9",,,,,,,"10200,1,99999,9",,"MET064METAR ENSF 280620Z AUTO 14030KT 9999NDV /// 03/M02 Q1020 W///S5;",
"01300599999","2010-12-28T06:50:00","4","61.25","1.85","117.65","STATFJORD OIL PLATFORM HELIPORT, FO","FM-15","ENSF ","V020","150,1,N,0144,1","22000,1,9,N","011265,1,N,1","+0040,1","-0010,1","99999,9",,,,,,,"10200,1,99999,9",,"MET064METAR ENSF 280650Z AUTO 15028KT 9999NDV /// 04/M01 Q1020 W///S5;",
"01300599999","2010-12-28T07:20:00","4","61.25","1.85","117.65","STATFJORD OIL PLATFORM HELIPORT, FO","FM-15","ENSF ","V020","150,1,N,0170,1","22000,1,9,N","011265,1,N,1","+0040,1","-0010,1","99999,9",,,,,,,"10190,1,99999,9",,"MET064METAR ENSF 280720Z AUTO 15033KT 9999NDV /// 04/M01 Q1019 W///S5;",
"01300599999","2010-12-28T07:50:00","4","61.25","1.85","117.65","STATFJORD OIL PLATFORM HELIPORT, FO","FM-15","ENSF ","V020","140,1,N,0175,1","22000,1,9,N","011265,1,N,1","+0040,1","-0010,1","99999,9",,,,,,,"10200,1,99999,9",,"MET064METAR ENSF 280750Z AUTO 14034KT 9999NDV /// 04/M01 Q1020 W///S5;",
"01300599999","2010-12-28T08:20:00","4","61.25","1.85","117.65","STATFJORD OIL PLATFORM HELIPORT, FO","FM-15","ENSF ","V020","140,1,N,0154,1","22000,1,9,N","011265,1,N,1","+0040,1","-0010,1","99999,9",,,,,,,"10200,1,99999,9",,"MET064METAR ENSF 280820Z AUTO 14030KT 9999NDV /// 04/M01 Q1020 W///S5;",
"01300599999","2010-12-28T08:50:00","4","61.25","1.85","117.65","STATFJORD OIL PLATFORM HELIPORT, FO","FM-15","ENSF ","V020","140,1,N,0149,1","22000,1,9,N","011265,1,N,1","+0040,1","-0010,1","99999,9",,,,,,,"10200,1,99999,9",,"MET064METAR ENSF 280850Z AUTO 14029KT 9999NDV /// 04/M01 Q1020 W///S5;",
"01300599999","2010-12-28T09:20:00","4","61.25","1.85","117.65","STATFJORD OIL PLATFORM HELIPORT, FO","FM-15","ENSF ","V020","140,1,N,0154,1","22000,1,9,N","011265,1,N,1","+0040,1","-0010,1","99999,9",,,,,,,"10200,1,99999,9",,"MET064METAR ENSF 280920Z AUTO 14030KT 9999NDV /// 04/M01 Q1020 W///S5;",
"01300599999","2010-12-28T09:50:00","4","61.25","1.85","117.65","STATFJORD OIL PLATFORM HELIPORT, FO","FM-15","ENSF ","V020","150,1,N,0154,1","22000,1,9,N","011265,1,N,1","+0040,1","+0000,1","99999,9",,,,,,,"10190,1,99999,9",,"MET063METAR ENSF 280950Z AUTO 15030KT 9999NDV /// 04/00 Q1019 W///S5;",
"01300599999","2010-12-28T10:20:00","4","61.25","1.85","117.65","STATFJORD OIL PLATFORM HELIPORT, FO","FM-15","ENSF ","V020","150,1,N,0159,1","22000,1,9,N","011265,1,N,1","+0040,1","-0010,1","99999,9","52,1",,,,,,"10190,1,99999,9",,"MET067METAR ENSF 281020Z AUTO 15031KT 9999NDV DZ /// 04/M01 Q1019 W///S5;",
"01300599999","2010-12-28T10:50:00","4","61.25","1.85","117.65","STATFJORD OIL PLATFORM HELIPORT, FO","FM-15","ENSF ","V020","150,1,N,0165,1","22000,1,9,N","011265,1,N,1","+0040,1","-0010,1","99999,9","81,1",,,,,,"10200,1,99999,9",,"MET070METAR ENSF 281050Z AUTO 15032KT 9999NDV -SHRA /// 04/M01 Q1020 W///S5;",
"01300599999","2010-12-28T11:20:00","4","61.25","1.85","117.65","STATFJORD OIL PLATFORM HELIPORT, FO","FM-15","ENSF ","V020","160,1,N,0159,1","22000,1,9,N","011265,1,N,1","+0040,1","-0010,1","99999,9",,,,,,,"10210,1,99999,9",,"MET064METAR ENSF 281120Z AUTO 16031KT 9999NDV /// 04/M01 Q1021 W///S5;",
"01300599999","2010-12-28T11:50:00","4","61.25","1.85","117.65","STATFJORD OIL PLATFORM HELIPORT, FO","FM-15","ENSF ","V020","160,1,N,0170,1","22000,1,9,N","011265,1,N,1","+0030,1","-0010,1","99999,9","81,1",,,,,,"10210,1,99999,9",,"MET070METAR ENSF 281150Z AUTO 16033KT 9999NDV -SHRA /// 03/M01 Q1021 W///S5;",
"01300599999","2010-12-28T12:20:00","4","61.25","1.85","117.65","STATFJORD OIL PLATFORM HELIPORT, FO","FM-15","ENSF ","V020","160,1,N,0165,1","22000,1,9,N","011265,1,N,1","+0030,1","+0000,1","99999,9","81,1",,,,,,"10210,1,99999,9",,"MET069METAR ENSF 281220Z AUTO 16032KT 9999NDV -SHRA /// 03/00 Q1021 W///S5;",
"01300599999","2010-12-28T12:50:00","4","61.25","1.85","117.65","STATFJORD OIL PLATFORM HELIPORT, FO","FM-15","ENSF ","V020","160,1,N,0159,1","22000,1,9,N","011265,1,N,1","+0030,1","-0010,1","99999,9","81,1",,,,,,"10210,1,99999,9",,"MET070METAR ENSF 281250Z AUTO 16031KT 9999NDV -SHRA /// 03/M01 Q1021 W///S5;",
"01300599999","2010-12-28T13:20:00","4","61.25","1.85","117.65","STATFJORD OIL PLATFORM HELIPORT, FO","FM-15","ENSF ","V020","160,1,N,0159,1","22000,1,9,N","007000,1,N,1","+0030,1","+0000,1","99999,9","81,1",,,,,,"10210,1,99999,9",,"MET069METAR ENSF 281320Z AUTO 16031KT 7000NDV -SHRA /// 03/00 Q1021 W///S5;",
"01300599999","2010-12-28T13:50:00","4","61.25","1.85","117.65","STATFJORD OIL PLATFORM HELIPORT, FO","FM-15","ENSF ","V020","150,1,N,0159,1","22000,1,9,N","006000,1,N,1","+0030,1","+0000,1","99999,9","81,1",,,,,,"10210,1,99999,9",,"MET069METAR ENSF 281350Z AUTO 15031KT 6000NDV -SHRA /// 03/00 Q1021 W///S5;",
"01300599999","2010-12-28T14:20:00","4","61.25","1.85","117.65","STATFJORD OIL PLATFORM HELIPORT, FO","FM-15","ENSF ","V020","160,1,N,0159,1","22000,1,9,N","011265,1,N,1","+0030,1","-0010,1","99999,9","81,1",,,,,,"10210,1,99999,9",,"MET070METAR ENSF 281420Z AUTO 16031KT 9999NDV -SHRA /// 03/M01 Q1021 W///S5;",
"01300599999","2010-12-28T14:50:00","4","61.25","1.85","117.65","STATFJORD OIL PLATFORM HELIPORT, FO","FM-15","ENSF ","V020","150,1,N,0165,1","22000,1,9,N","011265,1,N,1","+0030,1","+0000,1","99999,9","81,1",,,,,,"10210,1,99999,9",,"MET069METAR ENSF 281450Z AUTO 15032KT 9999NDV -SHRA /// 03/00 Q1021 W///S5;",
"01300599999","2010-12-28T15:20:00","4","61.25","1.85","117.65","STATFJORD OIL PLATFORM HELIPORT, FO","FM-15","ENSF ","V020","150,1,N,0165,1","22000,1,9,N","011265,1,N,1","+0030,1","+0000,1","99999,9","81,1",,,,,,"10210,1,99999,9",,"MET069METAR ENSF 281520Z AUTO 15032KT 9999NDV -SHRA /// 03/00 Q1021 W///S5;",
"01300599999","2010-12-28T15:50:00","4","61.25","1.85","117.65","STATFJORD OIL PLATFORM HELIPORT, FO","FM-15","ENSF ","V020","150,1,N,0170,1","22000,1,9,N","011265,1,N,1","+0030,1","+0000,1","99999,9","81,1",,,,,,"10210,1,99999,9",,"MET069METAR ENSF 281550Z AUTO 15033KT 9999NDV -SHRA /// 03/00 Q1021 W///S5;",
"01300599999","2010-12-28T16:20:00","4","61.25","1.85","117.65","STATFJORD OIL PLATFORM HELIPORT, FO","FM-15","ENSF ","V020","150,1,N,0165,1","22000,1,9,N","011265,1,N,1","+0030,1","+0000,1","99999,9","81,1",,,,,,"10210,1,99999,9",,"MET069METAR ENSF 281620Z AUTO 15032KT 9999NDV -SHRA /// 03/00 Q1021 W///S5;",
"01300599999","2010-12-28T16:50:00","4","61.25","1.85","117.65","STATFJORD OIL PLATFORM HELIPORT, FO","FM-15","ENSF ","V020","150,1,N,0175,1","22000,1,9,N","011265,1,N,1","+0030,1","+0000,1","99999,9","81,1",,,,,,"10210,1,99999,9",,"MET069METAR ENSF 281650Z AUTO 15034KT 9999NDV -SHRA /// 03/00 Q1021 W///S5;",
"01300599999","2010-12-28T17:20:00","4","61.25","1.85","117.65","STATFJORD OIL PLATFORM HELIPORT, FO","FM-15","ENSF ","V020","150,1,N,0175,1","22000,1,9,N","011265,1,N,1","+0030,1","+0000,1","99999,9",,,,,,,"10210,1,99999,9",,"MET063METAR ENSF 281720Z AUTO 15034KT 9999NDV /// 03/00 Q1021 W///S5;",
"01300599999","2010-12-28T17:50:00","4","61.25","1.85","117.65","STATFJORD OIL PLATFORM HELIPORT, FO","FM-15","ENSF ","V020","150,1,N,0170,1","22000,1,9,N","011265,1,N,1","+0040,1","+0010,1","99999,9",,,,,,,"10210,1,99999,9",,"MET063METAR ENSF 281750Z AUTO 15033KT 9999NDV /// 04/01 Q1021 W///S5;",
"01300599999","2010-12-28T18:20:00","4","61.25","1.85","117.65","STATFJORD OIL PLATFORM HELIPORT, FO","FM-15","ENSF ","V020","150,1,N,0175,1","22000,1,9,N","011265,1,N,1","+0030,1","+0010,1","99999,9","81,1",,,,,,"10210,1,99999,9",,"MET069METAR ENSF 281820Z AUTO 15034KT 9999NDV -SHRA /// 03/01 Q1021 W///S6;",
"01300599999","2010-12-28T18:50:00","4","61.25","1.85","117.65","STATFJORD OIL PLATFORM HELIPORT, FO","FM-15","ENSF ","V020","160,1,N,0175,1","22000,1,9,N","011265,1,N,1","+0030,1","+0010,1","99999,9","81,1",,,,,,"10210,1,99999,9",,"MET069METAR ENSF 281850Z AUTO 16034KT 9999NDV -SHRA /// 03/01 Q1021 W///S6;",
"01300599999","2010-12-28T19:20:00","4","61.25","1.85","117.65","STATFJORD OIL PLATFORM HELIPORT, FO","FM-15","ENSF ","V020","150,1,N,0170,1","22000,1,9,N","008000,1,N,1","+0040,1","+0010,1","99999,9","81,1",,,,,,"10210,1,99999,9",,"MET069METAR ENSF 281920Z AUTO 15033KT 8000NDV -SHRA /// 04/01 Q1021 W///S6;",
"01300599999","2010-12-28T19:50:00","4","61.25","1.85","117.65","STATFJORD OIL PLATFORM HELIPORT, FO","FM-15","ENSF ","V020","150,1,N,0170,1","22000,1,9,N","005000,1,N,1","+0040,1","+0020,1","99999,9","81,1",,,,,,"10210,1,99999,9",,"MET069METAR ENSF 281950Z AUTO 15033KT 5000NDV -SHRA /// 04/02 Q1021 W///S6;",
"01300599999","2010-12-28T20:20:00","4","61.25","1.85","117.65","STATFJORD OIL PLATFORM HELIPORT, FO","FM-15","ENSF ","V020","160,1,N,0180,1","22000,1,9,N","011265,1,N,1","+0040,1","+0010,1","99999,9","81,1",,,,,,"10210,1,99999,9",,"MET069METAR ENSF 282020Z AUTO 16035KT 9999NDV -SHRA /// 04/01 Q1021 W///S6;",
"01300599999","2010-12-28T20:50:00","4","61.25","1.85","117.65","STATFJORD OIL PLATFORM HELIPORT, FO","FM-15","ENSF ","V020","160,1,N,0175,1","22000,1,9,N","011265,1,N,1","+0040,1","+0020,1","99999,9","61,1",,,,,,"10210,1,99999,9",,"MET067METAR ENSF 282050Z AUTO 16034KT 9999NDV -RA /// 04/02 Q1021 W///S6;",
"01300599999","2010-12-28T21:20:00","4","61.25","1.85","117.65","STATFJORD OIL PLATFORM HELIPORT, FO","FM-15","ENSF ","V020","160,1,N,0180,1","22000,1,9,N","011265,1,N,1","+0040,1","+0020,1","99999,9","81,1",,,,,,"10210,1,99999,9",,"MET069METAR ENSF 282120Z AUTO 16035KT 9999NDV -SHRA /// 04/02 Q1021 W///S6;",
"01300599999","2010-12-28T21:50:00","4","61.25","1.85","117.65","STATFJORD OIL PLATFORM HELIPORT, FO","FM-15","ENSF ","V020","160,1,N,0180,1","22000,1,9,N","011265,1,N,1","+0040,1","+0010,1","99999,9","81,1",,,,,,"10210,1,99999,9",,"MET069METAR ENSF 282150Z AUTO 16035KT 9999NDV -SHRA /// 04/01 Q1021 W///S5;",
"01300599999","2010-12-28T22:20:00","4","61.25","1.85","117.65","STATFJORD OIL PLATFORM HELIPORT, FO","FM-15","ENSF ","V020","160,1,N,0190,1","22000,1,9,N","009000,1,N,1","+0040,1","+0010,1","99999,9","81,1",,,,,,"10210,1,99999,9",,"MET069METAR ENSF 282220Z AUTO 16037KT 9000NDV -SHRA /// 04/01 Q1021 W///S6;",
"01300599999","2010-12-28T22:50:00","4","61.25","1.85","117.65","STATFJORD OIL PLATFORM HELIPORT, FO","FM-15","ENSF ","V020","160,1,N,0180,1","22000,1,9,N","007000,1,N,1","+0040,1","+0020,1","99999,9","81,1",,,,,,"10210,1,99999,9",,"MET069METAR ENSF 282250Z AUTO 16035KT 7000NDV -SHRA /// 04/02 Q1021 W///S6;",
"01300599999","2010-12-28T23:20:00","4","61.25","1.85","117.65","STATFJORD OIL PLATFORM HELIPORT, FO","FM-15","ENSF ","V020","160,1,N,0180,1","22000,1,9,N","007000,1,N,1","+0040,1","+0020,1","99999,9","81,1",,,,,,"10210,1,99999,9",,"MET069METAR ENSF 282320Z AUTO 16035KT 7000NDV -SHRA /// 04/02 Q1021 W///S6;",
"01300599999","2010-12-28T23:50:00","4","61.25","1.85","117.65","STATFJORD OIL PLATFORM HELIPORT, FO","FM-15","ENSF ","V020","160,1,N,0180,1","22000,1,9,N","009000,1,N,1","+0040,1","+0020,1","99999,9",,,,,,,"10200,1,99999,9",,"MET063METAR ENSF 282350Z AUTO 16035KT 9000NDV /// 04/02 Q1020 W///S5;",
"01300599999","2010-12-29T00:20:00","4","61.25","1.85","117.65","STATFJORD OIL PLATFORM HELIPORT, FO","FM-15","ENSF ","V020","160,1,N,0185,1","22000,1,9,N","011265,1,N,1","+0040,1","+0010,1","99999,9","81,1",,,,,,"10200,1,99999,9",,"MET069METAR ENSF 290020Z AUTO 16036KT 9999NDV -SHRA /// 04/01 Q1020 W///S5;",
"01300599999","2010-12-29T00:50:00","4","61.25","1.85","117.65","STATFJORD OIL PLATFORM HELIPORT, FO","FM-15","ENSF ","V020","170,1,N,0185,1","22000,1,9,N","011265,1,N,1","+0040,1","+0010,1","99999,9",,,,,,,"10200,1,99999,9",,"MET063METAR ENSF 290050Z AUTO 17036KT 9999NDV /// 04/01 Q1020 W///S6;",
"01300599999","2010-12-29T01:20:00","4","61.25","1.85","117.65","STATFJORD OIL PLATFORM HELIPORT, FO","FM-15","ENSF ","V020","170,1,N,0180,1","22000,1,9,N","011265,1,N,1","+0050,1","+0010,1","99999,9",,,,,,,"10200,1,99999,9",,"MET063METAR ENSF 290120Z AUTO 17035KT 9999NDV /// 05/01 Q1020 W///S5;",
"01300599999","2010-12-29T01:50:00","4","61.25","1.85","117.65","STATFJORD OIL PLATFORM HELIPORT, FO","FM-15","ENSF ","V020","170,1,N,0175,1","22000,1,9,N","011265,1,N,1","+0050,1","+0000,1","99999,9",,,,,,,"10200,1,99999,9",,"MET063METAR ENSF 290150Z AUTO 17034KT 9999NDV /// 05/00 Q1020 W///S6;",
"01300599999","2010-12-29T02:20:00","4","61.25","1.85","117.65","STATFJORD OIL PLATFORM HELIPORT, FO","FM-15","ENSF ","V020","170,1,N,0185,1","22000,1,9,N","011265,1,N,1","+0050,1","+0000,1","99999,9",,,,,,,"10200,1,99999,9",,"MET063METAR ENSF 290220Z AUTO 17036KT 9999NDV /// 05/00 Q1020 W///S6;",
"01300599999","2010-12-29T02:50:00","4","61.25","1.85","117.65","STATFJORD OIL PLATFORM HELIPORT, FO","FM-15","ENSF ","V020","170,1,N,0185,1","22000,1,9,N","011265,1,N,1","+0050,1","+0000,1","99999,9",,,,,,,"10200,1,99999,9",,"MET063METAR ENSF 290250Z AUTO 17036KT 9999NDV /// 05/00 Q1020 W///S6;",
"01300599999","2010-12-29T03:20:00","4","61.25","1.85","117.65","STATFJORD OIL PLATFORM HELIPORT, FO","FM-15","ENSF ","V020","170,1,N,0185,1","22000,1,9,N","011265,1,N,1","+0050,1","+0000,1","99999,9",,,,,,,"10190,1,99999,9",,"MET063METAR ENSF 290320Z AUTO 17036KT 9999NDV /// 05/00 Q1019 W///S6;",
"01300599999","2010-12-29T03:50:00","4","61.25","1.85","117.65","STATFJORD OIL PLATFORM HELIPORT, FO","FM-15","ENSF ","V020","170,1,N,0175,1","22000,1,9,N","011265,1,N,1","+0050,1","+0000,1","99999,9","51,1",,,,,,"10190,1,99999,9",,"MET067METAR ENSF 290350Z AUTO 17034KT 9999NDV -DZ /// 05/00 Q1019 W///S6;",
"01300599999","2010-12-29T04:20:00","4","61.25","1.85","117.65","STATFJORD OIL PLATFORM HELIPORT, FO","FM-15","ENSF ","V020","170,1,N,0175,1","22000,1,9,N","011265,1,N,1","+0040,1","+0010,1","99999,9",,,,,,,"10190,1,99999,9",,"MET063METAR ENSF 290420Z AUTO 17034KT 9999NDV /// 04/01 Q1019 W///S6;",
"01300599999","2010-12-29T04:50:00","4","61.25","1.85","117.65","STATFJORD OIL PLATFORM HELIPORT, FO","FM-15","ENSF ","V020","170,1,N,0185,1","22000,1,9,N","011265,1,N,1","+0040,1","+0010,1","99999,9",,,,,,,"10190,1,99999,9",,"MET063METAR ENSF 290450Z AUTO 17036KT 9999NDV /// 04/01 Q1019 W///S5;",
"01300599999","2010-12-29T05:20:00","4","61.25","1.85","117.65","STATFJORD OIL PLATFORM HELIPORT, FO","FM-15","ENSF ","V020","170,1,N,0185,1","22000,1,9,N","011265,1,N,1","+0050,1","+0010,1","99999,9",,,,,,,"10190,1,99999,9",,"MET063METAR ENSF 290520Z AUTO 17036KT 9999NDV /// 05/01 Q1019 W///S5;",
"01300599999","2010-12-29T05:50:00","4","61.25","1.85","117.65","STATFJORD OIL PLATFORM HELIPORT, FO","FM-15","ENSF ","V020","180,1,N,0185,1","22000,1,9,N","011265,1,N,1","+0050,1","+0020,1","99999,9","51,1",,,,,,"10190,1,99999,9",,"MET067METAR ENSF 290550Z AUTO 18036KT 9999NDV -DZ /// 05/02 Q1019 W///S5;",
"01300599999","2010-12-29T06:20:00","4","61.25","1.85","117.65","STATFJORD OIL PLATFORM HELIPORT, FO","FM-15","ENSF ","V020","170,1,N,0180,1","22000,1,9,N","011265,1,N,1","+0050,1","+0020,1","99999,9",,,,,,,"10190,1,99999,9",,"MET063METAR ENSF 290620Z AUTO 17035KT 9999NDV /// 05/02 Q1019 W///S5;",
"01300599999","2010-12-29T06:50:00","4","61.25","1.85","117.65","STATFJORD OIL PLATFORM HELIPORT, FO","FM-15","ENSF ","V020","170,1,N,0190,1","22000,1,9,N","011265,1,N,1","+0050,1","+0020,1","99999,9",,,,,,,"10190,1,99999,9",,"MET063METAR ENSF 290650Z AUTO 17037KT 9999NDV /// 05/02 Q1019 W///S5;",
"01300599999","2010-12-29T07:20:00","4","61.25","1.85","117.65","STATFJORD OIL PLATFORM HELIPORT, FO","FM-15","ENSF ","V020","180,1,N,0190,1","22000,1,9,N","011265,1,N,1","+0050,1","+0020,1","99999,9",,,,,,,"10190,1,99999,9",,"MET063METAR ENSF 290720Z AUTO 18037KT 9999NDV /// 05/02 Q1019 W///S6;",
"01300599999","2010-12-29T07:50:00","4","61.25","1.85","117.65","STATFJORD OIL PLATFORM HELIPORT, FO","FM-15","ENSF ","V020","180,1,N,0190,1","22000,1,9,N","011265,1,N,1","+0050,1","+0020,1","99999,9","81,1",,,,,,"10190,1,99999,9",,"MET069METAR ENSF 290750Z AUTO 18037KT 9999NDV -SHRA /// 05/02 Q1019 W///S5;",
"01300599999","2010-12-29T08:20:00","4","61.25","1.85","117.65","STATFJORD OIL PLATFORM HELIPORT, FO","FM-15","ENSF ","V020","180,1,N,0185,1","22000,1,9,N","011265,1,N,1","+0050,1","+0020,1","99999,9",,,,,,,"10190,1,99999,9",,"MET063METAR ENSF 290820Z AUTO 18036KT 9999NDV /// 05/02 Q1019 W///S5;",
"01300599999","2010-12-29T08:50:00","4","61.25","1.85","117.65","STATFJORD OIL PLATFORM HELIPORT, FO","FM-15","ENSF ","V020","180,1,N,0201,1","22000,1,9,N","011265,1,N,1","+0050,1","+0020,1","99999,9",,,,,,,"10190,1,99999,9",,"MET063METAR ENSF 290850Z AUTO 18039KT 9999NDV /// 05/02 Q1019 W///S5;",
"01300599999","2010-12-29T09:20:00","4","61.25","1.85","117.65","STATFJORD OIL PLATFORM HELIPORT, FO","FM-15","ENSF ","V020","180,1,N,0195,1","22000,1,9,N","011265,1,N,1","+0050,1","+0020,1","99999,9",,,,,,,"10190,1,99999,9",,"MET063METAR ENSF 290920Z AUTO 18038KT 9999NDV /// 05/02 Q1019 W///S5;",
"01300599999","2010-12-29T09:50:00","4","61.25","1.85","117.65","STATFJORD OIL PLATFORM HELIPORT, FO","FM-15","ENSF ","V020","180,1,N,0206,1","22000,1,9,N","011265,1,N,1","+0050,1","+0020,1","99999,9",,,,,,,"10190,1,99999,9",,"MET063METAR ENSF 290950Z AUTO 18040KT 9999NDV /// 05/02 Q1019 W///S5;",
"01300599999","2010-12-29T10:20:00","4","61.25","1.85","117.65","STATFJORD OIL PLATFORM HELIPORT, FO","FM-15","ENSF ","V020","190,1,N,0201,1","22000,1,9,N","011265,1,N,1","+0050,1","+0020,1","99999,9",,,,,,,"10190,1,99999,9",,"MET063METAR ENSF 291020Z AUTO 19039KT 9999NDV /// 05/02 Q1019 W///S5;",
"01300599999","2010-12-29T10:50:00","4","61.25","1.85","117.65","STATFJORD OIL PLATFORM HELIPORT, FO","FM-15","ENSF ","V020","180,1,N,0195,1","22000,1,9,N","011265,1,N,1","+0050,1","+0030,1","99999,9",,,,,,,"10190,1,99999,9",,"MET063METAR ENSF 291050Z AUTO 18038KT 9999NDV /// 05/03 Q1019 W///S5;",
"01300599999","2010-12-29T11:20:00","4","61.25","1.85","117.65","STATFJORD OIL PLATFORM HELIPORT, FO","FM-15","ENSF ","V020","190,1,N,0195,1","22000,1,9,N","006000,1,N,1","+0050,1","+0030,1","99999,9",,,,,,,"10190,1,99999,9",,"MET063METAR ENSF 291120Z AUTO 19038KT 6000NDV /// 05/03 Q1019 W///S5;",
"01300599999","2010-12-29T11:50:00","4","61.25","1.85","117.65","STATFJORD OIL PLATFORM HELIPORT, FO","FM-15","ENSF ","V020","190,1,N,0206,1","22000,1,9,N","011265,1,N,1","+0050,1","+0030,1","99999,9","81,1",,,,,,"10180,1,99999,9",,"MET069METAR ENSF 291150Z AUTO 19040KT 9999NDV -SHRA /// 05/03 Q1018 W///S5;",
"01300599999","2010-12-29T12:20:00","4","61.25","1.85","117.65","STATFJORD OIL PLATFORM HELIPORT, FO","FM-15","ENSF ","V020","190,1,N,0206,1","22000,1,9,N","011265,1,N,1","+0050,1","+0030,1","99999,9",,,,,,,"10180,1,99999,9",,"MET063METAR ENSF 291220Z AUTO 19040KT 9999NDV /// 05/03 Q1018 W///S5;",
"01300599999","2010-12-29T12:50:00","4","61.25","1.85","117.65","STATFJORD OIL PLATFORM HELIPORT, FO","FM-15","ENSF ","V020","190,1,N,0201,1","22000,1,9,N","011265,1,N,1","+0050,1","+0030,1","99999,9",,,,,,,"10180,1,99999,9",,"MET063METAR ENSF 291250Z AUTO 19039KT 9999NDV /// 05/03 Q1018 W///S5;",
"01300599999","2010-12-29T13:20:00","4","61.25","1.85","117.65","STATFJORD OIL PLATFORM HELIPORT, FO","FM-15","ENSF ","V020","190,1,N,0211,1","22000,1,9,N","011265,1,N,1","+0050,1","+0030,1","99999,9",,,,,,,"10180,1,99999,9",,"MET063METAR ENSF 291320Z AUTO 19041KT 9999NDV /// 05/03 Q1018 W///S5;",
"01300599999","2010-12-29T13:50:00","4","61.25","1.85","117.65","STATFJORD OIL PLATFORM HELIPORT, FO","FM-15","ENSF ","V020","190,1,N,0195,1","22000,1,9,N","011265,1,N,1","+0060,1","+0040,1","99999,9",,,,,,,"10180,1,99999,9",,"MET063METAR ENSF 291350Z AUTO 19038KT 9999NDV /// 06/04 Q1018 W///S5;",
"01300599999","2010-12-29T14:20:00","4","61.25","1.85","117.65","STATFJORD OIL PLATFORM HELIPORT, FO","FM-15","ENSF ","V020","190,1,N,0190,1","22000,1,9,N","007000,1,N,1","+0060,1","+0030,1","99999,9",,,,,,,"10180,1,99999,9",,"MET063METAR ENSF 291420Z AUTO 19037KT 7000NDV /// 06/03 Q1018 W///S6;",
"01300599999","2010-12-29T14:50:00","4","61.25","1.85","117.65","STATFJORD OIL PLATFORM HELIPORT, FO","FM-15","ENSF ","V020","200,1,N,0185,1","22000,1,9,N","003600,1,N,1","+0060,1","+0040,1","99999,9","10,1","81,1",,,,,"10180,1,99999,9",,"MET072METAR ENSF 291450Z AUTO 20036KT 3600NDV -SHRA BR /// 06/04 Q1018 W///S5;",
"01300599999","2010-12-29T15:20:00","4","61.25","1.85","117.65","STATFJORD OIL PLATFORM HELIPORT, FO","FM-15","ENSF ","V020","200,1,N,0190,1","22000,1,9,N","002100,1,N,1","+0050,1","+0040,1","99999,9","10,1",,,,,,"10180,1,99999,9",,"MET066METAR ENSF 291520Z AUTO 20037KT 2100NDV BR /// 05/04 Q1018 W///S5;",
"01300599999","2010-12-29T15:50:00","4","61.25","1.85","117.65","STATFJORD OIL PLATFORM HELIPORT, FO","FM-15","ENSF ","V020","200,1,N,0190,1","22000,1,9,N","002000,1,N,1","+0060,1","+0040,1","99999,9","10,1","81,1",,,,,"10180,1,99999,9",,"MET072METAR ENSF 291550Z AUTO 20037KT 2000NDV -SHRA BR /// 06/04 Q1018 W///S6;",
"01300599999","2010-12-29T16:20:00","4","61.25","1.85","117.65","STATFJORD OIL PLATFORM HELIPORT, FO","FM-15","ENSF ","V020","190,1,N,0185,1","22000,1,9,N","003900,1,N,1","+0060,1","+0050,1","99999,9","10,1",,,,,,"10180,1,99999,9",,"MET066METAR ENSF 291620Z AUTO 19036KT 3900NDV BR /// 06/05 Q1018 W///S5;",
"01300599999","2010-12-29T16:50:00","4","61.25","1.85","117.65","STATFJORD OIL PLATFORM HELIPORT, FO","FM-15","ENSF ","V020","190,1,N,0185,1","22000,1,9,N","005000,1,N,1","+0060,1","+0050,1","99999,9",,,,,,,"10180,1,99999,9",,"MET063METAR ENSF 291650Z AUTO 19036KT 5000NDV /// 06/05 Q1018 W///S5;",
"01300599999","2010-12-29T17:20:00","4","61.25","1.85","117.65","STATFJORD OIL PLATFORM HELIPORT, FO","FM-15","ENSF ","V020","190,1,N,0185,1","22000,1,9,N","011265,1,N,1","+0060,1","+0050,1","99999,9",,,,,,,"10180,1,99999,9",,"MET063METAR ENSF 291720Z AUTO 19036KT 9999NDV /// 06/05 Q1018 W///S5;",
"01300599999","2010-12-29T17:50:00","4","61.25","1.85","117.65","STATFJORD OIL PLATFORM HELIPORT, FO","FM-15","ENSF ","V020","200,1,N,0190,1","22000,1,9,N","011265,1,N,1","+0060,1","+0050,1","99999,9",,,,,,,"10180,1,99999,9",,"MET063METAR ENSF 291750Z AUTO 20037KT 9999NDV /// 06/05 Q1018 W///S5;",
"01300599999","2010-12-29T18:20:00","4","61.25","1.85","117.65","STATFJORD OIL PLATFORM HELIPORT, FO","FM-15","ENSF ","V020","200,1,N,0180,1","22000,1,9,N","011265,1,N,1","+0060,1","+0050,1","99999,9",,,,,,,"10180,1,99999,9",,"MET063METAR ENSF 291820Z AUTO 20035KT 9999NDV /// 06/05 Q1018 W///S5;",
"01300599999","2010-12-29T18:50:00","4","61.25","1.85","117.65","STATFJORD OIL PLATFORM HELIPORT, FO","FM-15","ENSF ","V020","200,1,N,0180,1","22000,1,9,N","008000,1,N,1","+0070,1","+0060,1","99999,9",,,,,,,"10180,1,99999,9",,"MET063METAR ENSF 291850Z AUTO 20035KT 8000NDV /// 07/06 Q1018 W///S5;",
"01300599999","2010-12-29T19:20:00","4","61.25","1.85","117.65","STATFJORD OIL PLATFORM HELIPORT, FO","FM-15","ENSF ","V020","200,1,N,0175,1","22000,1,9,N","011265,1,N,1","+0070,1","+0060,1","99999,9",,,,,,,"10180,1,99999,9",,"MET063METAR ENSF 291920Z AUTO 20034KT 9999NDV /// 07/06 Q1018 W///S5;",
"01300599999","2010-12-29T19:50:00","4","61.25","1.85","117.65","STATFJORD OIL PLATFORM HELIPORT, FO","FM-15","ENSF ","V020","200,1,N,0175,1","22000,1,9,N","011265,1,N,1","+0070,1","+0060,1","99999,9",,,,,,,"10180,1,99999,9",,"MET063METAR ENSF 291950Z AUTO 20034KT 9999NDV /// 07/06 Q1018 W///S5;",
"01300599999","2010-12-29T20:20:00","4","61.25","1.85","117.65","STATFJORD OIL PLATFORM HELIPORT, FO","FM-15","ENSF ","V020","210,1,N,0165,1","22000,1,9,N","011265,1,N,1","+0070,1","+0060,1","99999,9",,,,,,,"10180,1,99999,9",,"MET063METAR ENSF 292020Z AUTO 21032KT 9999NDV /// 07/06 Q1018 W///S5;",
"01300599999","2010-12-29T20:50:00","4","61.25","1.85","117.65","STATFJORD OIL PLATFORM HELIPORT, FO","FM-15","ENSF ","V020","210,1,N,0165,1","22000,1,9,N","011265,1,N,1","+0070,1","+0060,1","99999,9",,,,,,,"10180,1,99999,9",,"MET063METAR ENSF 292050Z AUTO 21032KT 9999NDV /// 07/06 Q1018 W///S5;",
"01300599999","2010-12-29T21:20:00","4","61.25","1.85","117.65","STATFJORD OIL PLATFORM HELIPORT, FO","FM-15","ENSF ","V020","210,1,N,0159,1","22000,1,9,N","011265,1,N,1","+0070,1","+0060,1","99999,9","81,1",,,,,,"10180,1,99999,9",,"MET069METAR ENSF 292120Z AUTO 21031KT 9999NDV -SHRA /// 07/06 Q1018 W///S5;",
"01300599999","2010-12-29T21:50:00","4","61.25","1.85","117.65","STATFJORD OIL PLATFORM HELIPORT, FO","FM-15","ENSF ","V020","210,1,N,0175,1","22000,1,9,N","003300,1,N,1","+0070,1","+0060,1","99999,9","10,1","81,1",,,,,"10180,1,99999,9",,"MET072METAR ENSF 292150Z AUTO 21034KT 3300NDV -SHRA BR /// 07/06 Q1018 W///S5;",
"01300599999","2010-12-29T22:20:00","4","61.25","1.85","117.65","STATFJORD OIL PLATFORM HELIPORT, FO","FM-15","ENSF ","V020","210,1,N,0165,1","22000,1,9,N","002500,1,N,1","+0070,1","+0070,1","99999,9","10,1","81,1",,,,,"10180,1,99999,9",,"MET072METAR ENSF 292220Z AUTO 21032KT 2500NDV -SHRA BR /// 07/07 Q1018 W///S5;",
"01300599999","2010-12-29T22:50:00","4","61.25","1.85","117.65","STATFJORD OIL PLATFORM HELIPORT, FO","FM-15","ENSF ","V020","210,1,N,0170,1","22000,1,9,N","003700,1,N,1","+0070,1","+0070,1","99999,9","10,1",,,,,,"10180,1,99999,9",,"MET066METAR ENSF 292250Z AUTO 21033KT 3700NDV BR /// 07/07 Q1018 W///S5;",
"01300599999","2010-12-29T23:20:00","4","61.25","1.85","117.65","STATFJORD OIL PLATFORM HELIPORT, FO","FM-15","ENSF ","V020","210,1,N,0159,1","22000,1,9,N","002600,1,N,1","+0070,1","+0070,1","99999,9","10,1",,,,,,"10180,1,99999,9",,"MET066METAR ENSF 292320Z AUTO 21031KT 2600NDV BR /// 07/07 Q1018 W///S5;",
"01300599999","2010-12-29T23:50:00","4","61.25","1.85","117.65","STATFJORD OIL PLATFORM HELIPORT, FO","FM-15","ENSF ","V020","220,1,N,0149,1","22000,1,9,N","002000,1,N,1","+0080,1","+0070,1","99999,9","10,1","61,1",,,,,"10180,1,99999,9",,"MET070METAR ENSF 292350Z AUTO 22029KT 2000NDV -RA BR /// 08/07 Q1018 W///S5;",
"01300599999","2010-12-30T00:20:00","4","61.25","1.85","117.65","STATFJORD OIL PLATFORM HELIPORT, FO","FM-15","ENSF ","V020","220,1,N,0149,1","22000,1,9,N","002600,1,N,1","+0080,1","+0070,1","99999,9","10,1","61,1",,,,,"10180,1,99999,9",,"MET070METAR ENSF 300020Z AUTO 22029KT 2600NDV -RA BR /// 08/07 Q1018 W///S5;",
"01300599999","2010-12-30T00:50:00","4","61.25","1.85","117.65","STATFJORD OIL PLATFORM HELIPORT, FO","FM-15","ENSF ","V020","230,1,N,0149,1","22000,1,9,N","004800,1,N,1","+0080,1","+0070,1","99999,9","10,1",,,,,,"10169,1,99999,9",,"MET066METAR ENSF 300050Z AUTO 23029KT 4800NDV BR /// 08/07 Q1017 W///S5;",
"01300599999","2010-12-30T01:20:00","4","61.25","1.85","117.65","STATFJORD OIL PLATFORM HELIPORT, FO","FM-15","ENSF ","V020","230,1,N,0149,1","22000,1,9,N","005000,1,N,1","+0080,1","+0070,1","99999,9",,,,,,,"10169,1,99999,9",,"MET063METAR ENSF 300120Z AUTO 23029KT 5000NDV /// 08/07 Q1017 W///S5;",
"01300599999","2010-12-30T01:50:00","4","61.25","1.85","117.65","STATFJORD OIL PLATFORM HELIPORT, FO","FM-15","ENSF ","V020","250,1,N,0139,1","22000,1,9,N","003100,1,N,1","+0080,1","+0080,1","99999,9","10,1","61,1",,,,,"10169,1,99999,9",,"MET070METAR ENSF 300150Z AUTO 25027KT 3100NDV -RA BR /// 08/08 Q1017 W///S5;",
"01300599999","2010-12-30T02:20:00","4","61.25","1.85","117.65","STATFJORD OIL PLATFORM HELIPORT, FO","FM-15","ENSF ","V020","330,1,N,0093,1","22000,1,9,N","003200,1,N,1","+0060,1","+0060,1","99999,9","10,1","61,1",,,,,"10180,1,99999,9",,"MET070METAR ENSF 300220Z AUTO 33018KT 3200NDV -RA BR /// 06/06 Q1018 W///S5;",
"01300599999","2010-12-30T02:50:00","4","61.25","1.85","117.65","STATFJORD OIL PLATFORM HELIPORT, FO","FM-15","ENSF ","V020","330,1,N,0057,1","22000,1,9,N","011265,1,N,1","+0060,1","+0060,1","99999,9",,,,,,,"10180,1,99999,9",,"MET063METAR ENSF 300250Z AUTO 33011KT 9999NDV /// 06/06 Q1018 W///S4;",
"01300599999","2010-12-30T03:20:00","4","61.25","1.85","117.65","STATFJORD OIL PLATFORM HELIPORT, FO","FM-15","ENSF ","V020","320,1,N,0046,1","22000,1,9,N","011265,1,N,1","+0060,1","+0060,1","99999,9",,,,,,,"10180,1,99999,9",,"MET063METAR ENSF 300320Z AUTO 32009KT 9999NDV /// 06/06 Q1018 W///S4;",
"01300599999","2010-12-30T03:50:00","4","61.25","1.85","117.65","STATFJORD OIL PLATFORM HELIPORT, FO","FM-15","ENSF ","V020","310,1,N,0067,1","22000,1,9,N","011265,1,N,1","+0060,1","+0060,1","99999,9","81,1",,,,,,"10180,1,99999,9",,"MET069METAR ENSF 300350Z AUTO 31013KT 9999NDV -SHRA /// 06/06 Q1018 W///S4;",
"01300599999","2010-12-30T04:20:00","4","61.25","1.85","117.65","STATFJORD OIL PLATFORM HELIPORT, FO","FM-15","ENSF ","V020","310,1,N,0057,1","22000,1,9,N","011265,1,N,1","+0070,1","+0060,1","99999,9",,,,,,,"10180,1,99999,9",,"MET063METAR ENSF 300420Z AUTO 31011KT 9999NDV /// 07/06 Q1018 W///S4;",
"01300599999","2010-12-30T04:50:00","4","61.25","1.85","117.65","STATFJORD OIL PLATFORM HELIPORT, FO","FM-15","ENSF ","V020","300,1,N,0103,1","22000,1,9,N","011265,1,N,1","+0070,1","+0050,1","99999,9",,,,,,,"10180,1,99999,9",,"MET063METAR ENSF 300450Z AUTO 30020KT 9999NDV /// 07/05 Q1018 W///S4;",
"01300599999","2010-12-30T05:20:00","4","61.25","1.85","117.65","STATFJORD OIL PLATFORM HELIPORT, FO","FM-15","ENSF ","V020","310,1,N,0108,1","22000,1,9,N","011265,1,N,1","+0070,1","+0040,1","99999,9",,,,,,,"10180,1,99999,9",,"MET063METAR ENSF 300520Z AUTO 31021KT 9999NDV /// 07/04 Q1018 W///S4;",
"01300599999","2010-12-30T05:50:00","4","61.25","1.85","117.65","STATFJORD OIL PLATFORM HELIPORT, FO","FM-15","ENSF ","V020","310,1,N,0108,1","22000,1,9,N","011265,1,N,1","+0070,1","+0040,1","99999,9",,,,,,,"10180,1,99999,9",,"MET063METAR ENSF 300550Z AUTO 31021KT 9999NDV /// 07/04 Q1018 W///S4;",
"01300599999","2010-12-30T06:20:00","4","61.25","1.85","117.65","STATFJORD OIL PLATFORM HELIPORT, FO","FM-15","ENSF ","V020","330,1,N,0087,1","22000,1,9,N","011265,1,N,1","+0070,1","+0040,1","99999,9",,,,,,,"10180,1,99999,9",,"MET063METAR ENSF 300620Z AUTO 33017KT 9999NDV /// 07/04 Q1018 W///S4;",
"01300599999","2010-12-30T06:50:00","4","61.25","1.85","117.65","STATFJORD OIL PLATFORM HELIPORT, FO","FM-15","ENSF ","V020","320,1,N,0087,1","22000,1,9,N","011265,1,N,1","+0070,1","+0020,1","99999,9",,,,,,,"10180,1,99999,9",,"MET063METAR ENSF 300650Z AUTO 32017KT 9999NDV /// 07/02 Q1018 W///S4;",
"01300599999","2010-12-30T07:20:00","4","61.25","1.85","117.65","STATFJORD OIL PLATFORM HELIPORT, FO","FM-15","ENSF ","V020","310,1,N,0087,1","22000,1,9,N","011265,1,N,1","+0070,1","+0020,1","99999,9",,,,,,,"10180,1,99999,9",,"MET063METAR ENSF 300720Z AUTO 31017KT 9999NDV /// 07/02 Q1018 W///S4;",
"01300599999","2010-12-30T07:50:00","4","61.25","1.85","117.65","STATFJORD OIL PLATFORM HELIPORT, FO","FM-15","ENSF ","V020","310,1,N,0082,1","22000,1,9,N","011265,1,N,1","+0070,1","+0030,1","99999,9",,,,,,,"10180,1,99999,9",,"MET063METAR ENSF 300750Z AUTO 31016KT 9999NDV /// 07/03 Q1018 W///S4;",
"01300599999","2010-12-30T08:20:00","4","61.25","1.85","117.65","STATFJORD OIL PLATFORM HELIPORT, FO","FM-15","ENSF ","V020","300,1,N,0082,1","22000,1,9,N","011265,1,N,1","+0070,1","+0040,1","99999,9",,,,,,,"10190,1,99999,9",,"MET063METAR ENSF 300820Z AUTO 30016KT 9999NDV /// 07/04 Q1019 W///S4;",
"01300599999","2010-12-30T08:50:00","4","61.25","1.85","117.65","STATFJORD OIL PLATFORM HELIPORT, FO","FM-15","ENSF ","V020","320,1,N,0098,1","22000,1,9,N","011265,1,N,1","+0070,1","+0020,1","99999,9",,,,,,,"10190,1,99999,9",,"MET063METAR ENSF 300850Z AUTO 32019KT 9999NDV /// 07/02 Q1019 W///S4;",
"01300599999","2010-12-30T09:20:00","4","61.25","1.85","117.65","STATFJORD OIL PLATFORM HELIPORT, FO","FM-15","ENSF ","V020","320,1,N,0118,1","22000,1,9,N","011265,1,N,1","+0070,1","+0030,1","99999,9",,,,,,,"10180,1,99999,9",,"MET063METAR ENSF 300920Z AUTO 32023KT 9999NDV /// 07/03 Q1018 W///S4;",
"01300599999","2010-12-30T09:50:00","4","61.25","1.85","117.65","STATFJORD OIL PLATFORM HELIPORT, FO","FM-15","ENSF ","V020","320,1,N,0118,1","22000,1,9,N","011265,1,N,1","+0070,1","+0020,1","99999,9",,,,,,,"10190,1,99999,9",,"MET063METAR ENSF 300950Z AUTO 32023KT 9999NDV /// 07/02 Q1019 W///S4;",
"01300599999","2010-12-30T10:20:00","4","61.25","1.85","117.65","STATFJORD OIL PLATFORM HELIPORT, FO","FM-15","ENSF ","V020","320,1,N,0139,1","22000,1,9,N","011265,1,N,1","+0060,1","+0030,1","99999,9",,,,,,,"10180,1,99999,9",,"MET063METAR ENSF 301020Z AUTO 32027KT 9999NDV /// 06/03 Q1018 W///S4;",
"01300599999","2010-12-30T10:50:00","4","61.25","1.85","117.65","STATFJORD OIL PLATFORM HELIPORT, FO","FM-15","ENSF ","V020","330,1,N,0129,1","22000,1,9,N","011265,1,N,1","+0060,1","+0020,1","99999,9","81,1",,,,,,"10190,1,99999,9",,"MET069METAR ENSF 301050Z AUTO 33025KT 9999NDV -SHRA /// 06/02 Q1019 W///S4;",
"01300599999","2010-12-30T11:20:00","4","61.25","1.85","117.65","STATFJORD OIL PLATFORM HELIPORT, FO","FM-15","ENSF ","V020","340,1,N,0118,1","22000,1,9,N","011265,1,N,1","+0060,1","-0010,1","99999,9",,,,,,,"10190,1,99999,9",,"MET064METAR ENSF 301120Z AUTO 34023KT 9999NDV /// 06/M01 Q1019 W///S4;",
"01300599999","2010-12-30T11:50:00","4","61.25","1.85","117.65","STATFJORD OIL PLATFORM HELIPORT, FO","FM-15","ENSF ","V020","330,1,N,0113,1","22000,1,9,N","011265,1,N,1","+0060,1","-0010,1","99999,9",,,,,,,"10190,1,99999,9",,"MET064METAR ENSF 301150Z AUTO 33022KT 9999NDV /// 06/M01 Q1019 W///S4;",
"01300599999","2010-12-30T12:20:00","4","61.25","1.85","117.65","STATFJORD OIL PLATFORM HELIPORT, FO","FM-15","ENSF ","V020","330,1,N,0103,1","22000,1,9,N","011265,1,N,1","+0060,1","-0020,1","99999,9",,,,,,,"10190,1,99999,9",,"MET064METAR ENSF 301220Z AUTO 33020KT 9999NDV /// 06/M02 Q1019 W///S4;",
"01300599999","2010-12-30T12:50:00","4","61.25","1.85","117.65","STATFJORD OIL PLATFORM HELIPORT, FO","FM-15","ENSF ","V020","330,1,N,0113,1","22000,1,9,N","011265,1,N,1","+0060,1","-0020,1","99999,9",,,,,,,"10190,1,99999,9",,"MET064METAR ENSF 301250Z AUTO 33022KT 9999NDV /// 06/M02 Q1019 W///S4;",
"01300599999","2010-12-30T13:20:00","4","61.25","1.85","117.65","STATFJORD OIL PLATFORM HELIPORT, FO","FM-15","ENSF ","V020","330,1,N,0118,1","22000,1,9,N","011265,1,N,1","+0060,1","-0010,1","99999,9",,,,,,,"10190,1,99999,9",,"MET064METAR ENSF 301320Z AUTO 33023KT 9999NDV /// 06/M01 Q1019 W///S4;",
"01300599999","2010-12-30T13:50:00","4","61.25","1.85","117.65","STATFJORD OIL PLATFORM HELIPORT, FO","FM-15","ENSF ","V020","330,1,N,0123,1","22000,1,9,N","011265,1,N,1","+0060,1","-0020,1","99999,9",,,,,,,"10190,1,99999,9",,"MET064METAR ENSF 301350Z AUTO 33024KT 9999NDV /// 06/M02 Q1019 W///S4;",
"01300599999","2010-12-30T14:20:00","4","61.25","1.85","117.65","STATFJORD OIL PLATFORM HELIPORT, FO","FM-15","ENSF ","V020","320,1,N,0108,1","22000,1,9,N","011265,1,N,1","+0060,1","+0000,1","99999,9",,,,,,,"10190,1,99999,9",,"MET063METAR ENSF 301420Z AUTO 32021KT 9999NDV /// 06/00 Q1019 W///S4;",
"01300599999","2010-12-30T14:50:00","4","61.25","1.85","117.65","STATFJORD OIL PLATFORM HELIPORT, FO","FM-15","ENSF ","V020","330,1,N,0103,1","22000,1,9,N","011265,1,N,1","+0060,1","-0010,1","99999,9",,,,,,,"10190,1,99999,9",,"MET064METAR ENSF 301450Z AUTO 33020KT 9999NDV /// 06/M01 Q1019 W///S4;",
"01300599999","2010-12-30T15:20:00","4","61.25","1.85","117.65","STATFJORD OIL PLATFORM HELIPORT, FO","FM-15","ENSF ","V020","320,1,N,0098,1","22000,1,9,N","011265,1,N,1","+0060,1","+0000,1","99999,9",,,,,,,"10190,1,99999,9",,"MET063METAR ENSF 301520Z AUTO 32019KT 9999NDV /// 06/00 Q1019 W///S4;",
"01300599999","2010-12-30T15:50:00","4","61.25","1.85","117.65","STATFJORD OIL PLATFORM HELIPORT, FO","FM-15","ENSF ","V020","320,1,N,0123,1","22000,1,9,N","011265,1,N,1","+0060,1","-0010,1","99999,9",,,,,,,"10190,1,99999,9",,"MET064METAR ENSF 301550Z AUTO 32024KT 9999NDV /// 06/M01 Q1019 W///S4;",
"01300599999","2010-12-30T16:20:00","4","61.25","1.85","117.65","STATFJORD OIL PLATFORM HELIPORT, FO","FM-15","ENSF ","V020","320,1,N,0123,1","22000,1,9,N","011265,1,N,1","+0050,1","-0010,1","99999,9",,,,,,,"10190,1,99999,9",,"MET064METAR ENSF 301620Z AUTO 32024KT 9999NDV /// 05/M01 Q1019 W///S4;",
"01300599999","2010-12-30T16:50:00","4","61.25","1.85","117.65","STATFJORD OIL PLATFORM HELIPORT, FO","FM-15","ENSF ","V020","330,1,N,0118,1","22000,1,9,N","011265,1,N,1","+0050,1","-0010,1","99999,9",,,,,,,"10190,1,99999,9",,"MET064METAR ENSF 301650Z AUTO 33023KT 9999NDV /// 05/M01 Q1019 W///S4;",
"01300599999","2010-12-30T17:20:00","4","61.25","1.85","117.65","STATFJORD OIL PLATFORM HELIPORT, FO","FM-15","ENSF ","V020","330,1,N,0123,1","22000,1,9,N","011265,1,N,1","+0050,1","-0010,1","99999,9",,,,,,,"10190,1,99999,9",,"MET064METAR ENSF 301720Z AUTO 33024KT 9999NDV /// 05/M01 Q1019 W///S4;",
"01300599999","2010-12-30T17:50:00","4","61.25","1.85","117.65","STATFJORD OIL PLATFORM HELIPORT, FO","FM-15","ENSF ","V020","320,1,N,0134,1","22000,1,9,N","011265,1,N,1","+0050,1","-0020,1","99999,9",,,,,,,"10190,1,99999,9",,"MET064METAR ENSF 301750Z AUTO 32026KT 9999NDV /// 05/M02 Q1019 W///S4;",
"01300599999","2010-12-30T18:20:00","4","61.25","1.85","117.65","STATFJORD OIL PLATFORM HELIPORT, FO","FM-15","ENSF ","V020","320,1,N,0118,1","22000,1,9,N","011265,1,N,1","+0050,1","-0010,1","99999,9",,,,,,,"10190,1,99999,9",,"MET064METAR ENSF 301820Z AUTO 32023KT 9999NDV /// 05/M01 Q1019 W///S4;",
"01300599999","2010-12-30T18:50:00","4","61.25","1.85","117.65","STATFJORD OIL PLATFORM HELIPORT, FO","FM-15","ENSF ","V020","330,1,N,0118,1","22000,1,9,N","011265,1,N,1","+0050,1","-0010,1","99999,9",,,,,,,"10190,1,99999,9",,"MET064METAR ENSF 301850Z AUTO 33023KT 9999NDV /// 05/M01 Q1019 W///S4;",
"01300599999","2010-12-30T19:20:00","4","61.25","1.85","117.65","STATFJORD OIL PLATFORM HELIPORT, FO","FM-15","ENSF ","V020","320,1,N,0118,1","22000,1,9,N","011265,1,N,1","+0050,1","-0010,1","99999,9",,,,,,,"10190,1,99999,9",,"MET064METAR ENSF 301920Z AUTO 32023KT 9999NDV /// 05/M01 Q1019 W///S4;",
"01300599999","2010-12-30T19:50:00","4","61.25","1.85","117.65","STATFJORD OIL PLATFORM HELIPORT, FO","FM-15","ENSF ","V020","320,1,N,0113,1","22000,1,9,N","011265,1,N,1","+0050,1","-0020,1","99999,9",,,,,,,"10190,1,99999,9",,"MET064METAR ENSF 301950Z AUTO 32022KT 9999NDV /// 05/M02 Q1019 W///S5;",
"01300599999","2010-12-30T20:20:00","4","61.25","1.85","117.65","STATFJORD OIL PLATFORM HELIPORT, FO","FM-15","ENSF ","V020","320,1,N,0123,1","22000,1,9,N","011265,1,N,1","+0050,1","-0020,1","99999,9",,,,,,,"10190,1,99999,9",,"MET064METAR ENSF 302020Z AUTO 32024KT 9999NDV /// 05/M02 Q1019 W///S4;",
"01300599999","2010-12-30T20:50:00","4","61.25","1.85","117.65","STATFJORD OIL PLATFORM HELIPORT, FO","FM-15","ENSF ","V020","320,1,N,0108,1","22000,1,9,N","011265,1,N,1","+0050,1","-0010,1","99999,9",,,,,,,"10200,1,99999,9",,"MET064METAR ENSF 302050Z AUTO 32021KT 9999NDV /// 05/M01 Q1020 W///S5;",
"01300599999","2010-12-30T21:20:00","4","61.25","1.85","117.65","STATFJORD OIL PLATFORM HELIPORT, FO","FM-15","ENSF ","V020","320,1,N,0098,1","22000,1,9,N","011265,1,N,1","+0050,1","-0010,1","99999,9",,,,,,,"10200,1,99999,9",,"MET064METAR ENSF 302120Z AUTO 32019KT 9999NDV /// 05/M01 Q1020 W///S5;",
"01300599999","2010-12-30T21:50:00","4","61.25","1.85","117.65","STATFJORD OIL PLATFORM HELIPORT, FO","FM-15","ENSF ","V020","320,1,N,0093,1","22000,1,9,N","011265,1,N,1","+0050,1","-0010,1","99999,9",,,,,,,"10190,1,99999,9",,"MET064METAR ENSF 302150Z AUTO 32018KT 9999NDV /// 05/M01 Q1019 W///S5;",
"01300599999","2010-12-30T22:20:00","4","61.25","1.85","117.65","STATFJORD OIL PLATFORM HELIPORT, FO","FM-15","ENSF ","V020","320,1,N,0087,1","22000,1,9,N","011265,1,N,1","+0050,1","-0010,1","99999,9",,,,,,,"10190,1,99999,9",,"MET064METAR ENSF 302220Z AUTO 32017KT 9999NDV /// 05/M01 Q1019 W///S5;",
"01300599999","2010-12-30T22:50:00","4","61.25","1.85","117.65","STATFJORD OIL PLATFORM HELIPORT, FO","FM-15","ENSF ","V020","310,1,N,0082,1","22000,1,9,N","011265,1,N,1","+0050,1","-0010,1","99999,9",,,,,,,"10200,1,99999,9",,"MET064METAR ENSF 302250Z AUTO 31016KT 9999NDV /// 05/M01 Q1020 W///S5;",
"01300599999","2010-12-30T23:20:00","4","61.25","1.85","117.65","STATFJORD OIL PLATFORM HELIPORT, FO","FM-15","ENSF ","V020","310,1,N,0067,1","22000,1,9,N","011265,1,N,1","+0050,1","+0000,1","99999,9",,,,,,,"10190,1,99999,9",,"MET063METAR ENSF 302320Z AUTO 31013KT 9999NDV /// 05/00 Q1019 W///S5;",
"01300599999","2010-12-30T23:50:00","4","61.25","1.85","117.65","STATFJORD OIL PLATFORM HELIPORT, FO","FM-15","ENSF ","V020","300,1,N,0057,1","22000,1,9,N","011265,1,N,1","+0050,1","+0000,1","99999,9",,,,,,,"10190,1,99999,9",,"MET063METAR ENSF 302350Z AUTO 30011KT 9999NDV /// 05/00 Q1019 W///S5;",
"01300599999","2010-12-31T00:20:00","4","61.25","1.85","117.65","STATFJORD OIL PLATFORM HELIPORT, FO","FM-15","ENSF ","V020","280,1,N,0062,1","22000,1,9,N","011265,1,N,1","+0050,1","+0010,1","99999,9",,,,,,,"10190,1,99999,9",,"MET063METAR ENSF 310020Z AUTO 28012KT 9999NDV /// 05/01 Q1019 W///S5;",
"01300599999","2010-12-31T00:50:00","4","61.25","1.85","117.65","STATFJORD OIL PLATFORM HELIPORT, FO","FM-15","ENSF ","V020","270,1,N,0072,1","22000,1,9,N","011265,1,N,1","+0060,1","+0010,1","99999,9",,,,,,,"10190,1,99999,9",,"MET063METAR ENSF 310050Z AUTO 27014KT 9999NDV /// 06/01 Q1019 W///S5;",
"01300599999","2010-12-31T01:20:00","4","61.25","1.85","117.65","STATFJORD OIL PLATFORM HELIPORT, FO","FM-15","ENSF ","V020","260,1,N,0082,1","22000,1,9,N","011265,1,N,1","+0060,1","+0020,1","99999,9",,,,,,,"10180,1,99999,9",,"MET063METAR ENSF 310120Z AUTO 26016KT 9999NDV /// 06/02 Q1018 W///S5;",
"01300599999","2010-12-31T01:50:00","4","61.25","1.85","117.65","STATFJORD OIL PLATFORM HELIPORT, FO","FM-15","ENSF ","V020","250,1,N,0077,1","22000,1,9,N","011265,1,N,1","+0060,1","+0030,1","99999,9",,,,,,,"10180,1,99999,9",,"MET063METAR ENSF 310150Z AUTO 25015KT 9999NDV /// 06/03 Q1018 W///S5;",
"01300599999","2010-12-31T02:20:00","4","61.25","1.85","117.65","STATFJORD OIL PLATFORM HELIPORT, FO","FM-15","ENSF ","V020","250,1,N,0103,1","22000,1,9,N","011265,1,N,1","+0060,1","+0030,1","99999,9","81,1",,,,,,"10169,1,99999,9",,"MET069METAR ENSF 310220Z AUTO 25020KT 9999NDV -SHRA /// 06/03 Q1017 W///S5;",
"01300599999","2010-12-31T02:50:00","4","61.25","1.85","117.65","STATFJORD OIL PLATFORM HELIPORT, FO","FM-15","ENSF ","V020","240,1,N,0108,1","22000,1,9,N","011265,1,N,1","+0070,1","+0040,1","99999,9","81,1",,,,,,"10169,1,99999,9",,"MET069METAR ENSF 310250Z AUTO 24021KT 9999NDV -SHRA /// 07/04 Q1017 W///S5;",
"01300599999","2010-12-31T03:20:00","4","61.25","1.85","117.65","STATFJORD OIL PLATFORM HELIPORT, FO","FM-15","ENSF ","V020","250,1,N,0134,1","22000,1,9,N","011265,1,N,1","+0060,1","+0040,1","99999,9","81,1",,,,,,"10159,1,99999,9",,"MET069METAR ENSF 310320Z AUTO 25026KT 9999NDV -SHRA /// 06/04 Q1016 W///S5;",
"01300599999","2010-12-31T03:50:00","4","61.25","1.85","117.65","STATFJORD OIL PLATFORM HELIPORT, FO","FM-15","ENSF ","V020","260,1,N,0154,1","22000,1,9,N","011265,1,N,1","+0070,1","+0050,1","99999,9",,,,,,,"10149,1,99999,9",,"MET063METAR ENSF 310350Z AUTO 26030KT 9999NDV /// 07/05 Q1015 W///S5;",
"01300599999","2010-12-31T04:20:00","4","61.25","1.85","117.65","STATFJORD OIL PLATFORM HELIPORT, FO","FM-15","ENSF ","V020","260,1,N,0154,1","22000,1,9,N","011265,1,N,1","+0080,1","+0040,1","99999,9",,,,,,,"10139,1,99999,9",,"MET063METAR ENSF 310420Z AUTO 26030KT 9999NDV /// 08/04 Q1014 W///S5;",
"01300599999","2010-12-31T04:50:00","4","61.25","1.85","117.65","STATFJORD OIL PLATFORM HELIPORT, FO","FM-15","ENSF ","V020","270,1,N,0170,1","22000,1,9,N","011265,1,N,1","+0080,1","+0050,1","99999,9",,,,,,,"10139,1,99999,9",,"MET063METAR ENSF 310450Z AUTO 27033KT 9999NDV /// 08/05 Q1014 W///S5;",
"01300599999","2010-12-31T05:20:00","4","61.25","1.85","117.65","STATFJORD OIL PLATFORM HELIPORT, FO","FM-15","ENSF ","V020","260,1,N,0185,1","22000,1,9,N","011265,1,N,1","+0080,1","+0040,1","99999,9","81,1",,,,,,"10129,1,99999,9",,"MET069METAR ENSF 310520Z AUTO 26036KT 9999NDV -SHRA /// 08/04 Q1013 W///S5;",
"01300599999","2010-12-31T05:50:00","4","61.25","1.85","117.65","STATFJORD OIL PLATFORM HELIPORT, FO","FM-15","ENSF ","V020","260,1,N,0175,1","22000,1,9,N","011265,1,N,1","+0080,1","+0040,1","99999,9",,,,,,,"10129,1,99999,9",,"MET063METAR ENSF 310550Z AUTO 26034KT 9999NDV /// 08/04 Q1013 W///S5;",
"01300599999","2010-12-31T06:20:00","4","61.25","1.85","117.65","STATFJORD OIL PLATFORM HELIPORT, FO","FM-15","ENSF ","V020","260,1,N,0170,1","22000,1,9,N","008000,1,N,1","+0070,1","+0050,1","99999,9","81,1",,,,,,"10119,1,99999,9",,"MET069METAR ENSF 310620Z AUTO 26033KT 8000NDV -SHRA /// 07/05 Q1012 W///S5;",
"01300599999","2010-12-31T06:50:00","4","61.25","1.85","117.65","STATFJORD OIL PLATFORM HELIPORT, FO","FM-15","ENSF ","V020","260,1,N,0180,1","22000,1,9,N","011265,1,N,1","+0070,1","+0050,1","99999,9","81,1",,,,,,"10108,1,99999,9",,"MET069METAR ENSF 310650Z AUTO 26035KT 9999NDV -SHRA /// 07/05 Q1011 W///S5;",
"01300599999","2010-12-31T07:20:00","4","61.25","1.85","117.65","STATFJORD OIL PLATFORM HELIPORT, FO","FM-15","ENSF ","V020","260,1,N,0185,1","22000,1,9,N","008000,1,N,1","+0070,1","+0050,1","99999,9",,,,,,,"10108,1,99999,9",,"MET063METAR ENSF 310720Z AUTO 26036KT 8000NDV /// 07/05 Q1011 W///S5;",
"01300599999","2010-12-31T07:50:00","4","61.25","1.85","117.65","STATFJORD OIL PLATFORM HELIPORT, FO","FM-15","ENSF ","V020","260,1,N,0206,1","22000,1,9,N","009000,1,N,1","+0070,1","+0050,1","99999,9",,,,,,,"10102,1,99999,9",,"MET063METAR ENSF 310750Z AUTO 26040KT 9000NDV /// 07/05 Q1010 W///S5;",
"01300599999","2010-12-31T08:20:00","4","61.25","1.85","117.65","STATFJORD OIL PLATFORM HELIPORT, FO","FM-15","ENSF ","V020","260,1,N,0201,1","22000,1,9,N","004600,1,N,1","+0070,1","+0060,1","99999,9","10,1","52,1",,,,,"10102,1,99999,9",,"MET069METAR ENSF 310820Z AUTO 26039KT 4600NDV DZ BR /// 07/06 Q1010 W///S6;",
"01300599999","2010-12-31T08:50:00","4","61.25","1.85","117.65","STATFJORD OIL PLATFORM HELIPORT, FO","FM-15","ENSF ","V020","270,1,N,0206,1","22000,1,9,N","011265,1,N,1","+0070,1","+0050,1","99999,9",,,,,,,"10091,1,99999,9",,"MET063METAR ENSF 310850Z AUTO 27040KT 9999NDV /// 07/05 Q1009 W///S6;",
"01300599999","2010-12-31T09:20:00","4","61.25","1.85","117.65","STATFJORD OIL PLATFORM HELIPORT, FO","FM-15","ENSF ","V020","270,1,N,0216,1","22000,1,9,N","009000,1,N,1","+0070,1","+0050,1","99999,9",,,,,,,"10081,1,99999,9",,"MET063METAR ENSF 310920Z AUTO 27042KT 9000NDV /// 07/05 Q1008 W///S6;",
"01300599999","2010-12-31T09:50:00","4","61.25","1.85","117.65","STATFJORD OIL PLATFORM HELIPORT, FO","FM-15","ENSF ","V020","270,1,N,0221,1","22000,1,9,N","011265,1,N,1","+0080,1","+0050,1","99999,9",,,,,,,"10081,1,99999,9",,"MET063METAR ENSF 310950Z AUTO 27043KT 9999NDV /// 08/05 Q1008 W///S6;",
"01300599999","2010-12-31T10:20:00","4","61.25","1.85","117.65","STATFJORD OIL PLATFORM HELIPORT, FO","FM-15","ENSF ","V020","270,1,N,0226,1","22000,1,9,N","011265,1,N,1","+0080,1","+0060,1","99999,9",,,,,,,"10071,1,99999,9",,"MET063METAR ENSF 311020Z AUTO 27044KT 9999NDV /// 08/06 Q1007 W///S6;",
"01300599999","2010-12-31T10:50:00","4","61.25","1.85","117.65","STATFJORD OIL PLATFORM HELIPORT, FO","FM-15","ENSF ","V020","270,1,N,0211,1","22000,1,9,N","011265,1,N,1","+0080,1","+0060,1","99999,9",,,,,,,"10061,1,99999,9",,"MET063METAR ENSF 311050Z AUTO 27041KT 9999NDV /// 08/06 Q1006 W///S6;",
"01300599999","2010-12-31T11:20:00","4","61.25","1.85","117.65","STATFJORD OIL PLATFORM HELIPORT, FO","FM-15","ENSF ","V020","280,1,N,0226,1","22000,1,9,N","011265,1,N,1","+0070,1","+0050,1","99999,9",,,,,,,"10061,1,99999,9",,"MET063METAR ENSF 311120Z AUTO 28044KT 9999NDV /// 07/05 Q1006 W///S6;",
"01300599999","2010-12-31T11:50:00","4","61.25","1.85","117.65","STATFJORD OIL PLATFORM HELIPORT, FO","FM-15","ENSF ","V020","280,1,N,0226,1","22000,1,9,N","011265,1,N,1","+0080,1","+0050,1","99999,9",,,,,,,"10051,1,99999,9",,"MET063METAR ENSF 311150Z AUTO 28044KT 9999NDV /// 08/05 Q1005 W///S6;",
"01300599999","2010-12-31T12:20:00","4","61.25","1.85","117.65","STATFJORD OIL PLATFORM HELIPORT, FO","FM-15","ENSF ","V020","280,1,N,0221,1","22000,1,9,N","011265,1,N,1","+0080,1","+0050,1","99999,9",,,,,,,"10051,1,99999,9",,"MET063METAR ENSF 311220Z AUTO 28043KT 9999NDV /// 08/05 Q1005 W///S6;",
"01300599999","2010-12-31T12:50:00","4","61.25","1.85","117.65","STATFJORD OIL PLATFORM HELIPORT, FO","FM-15","ENSF ","V020","280,1,N,0226,1","22000,1,9,N","011265,1,N,1","+0080,1","+0050,1","99999,9",,,,,,,"10041,1,99999,9","0278,1","MET066METAR ENSF 311250Z AUTO 28044G54KT 9999NDV /// 08/05 Q1004 W///S6;",
"01300599999","2010-12-31T13:20:00","4","61.25","1.85","117.65","STATFJORD OIL PLATFORM HELIPORT, FO","FM-15","ENSF ","V020","280,1,N,0211,1","22000,1,9,N","011265,1,N,1","+0080,1","+0050,1","99999,9","81,1",,,,,,"10041,1,99999,9",,"MET069METAR ENSF 311320Z AUTO 28041KT 9999NDV -SHRA /// 08/05 Q1004 W///S6;",
"01300599999","2010-12-31T13:50:00","4","61.25","1.85","117.65","STATFJORD OIL PLATFORM HELIPORT, FO","FM-15","ENSF ","V020","280,1,N,0216,1","22000,1,9,N","011265,1,N,1","+0080,1","+0060,1","99999,9","81,1",,,,,,"10031,1,99999,9",,"MET069METAR ENSF 311350Z AUTO 28042KT 9999NDV -SHRA /// 08/06 Q1003 W///S6;",
"01300599999","2010-12-31T14:20:00","4","61.25","1.85","117.65","STATFJORD OIL PLATFORM HELIPORT, FO","FM-15","ENSF ","V020","300,1,N,0273,1","22000,1,9,N","011265,1,N,1","+0080,1","+0030,1","99999,9",,,,,,,"10010,1,99999,9",,"MET063METAR ENSF 311420Z AUTO 30053KT 9999NDV /// 08/03 Q1001 W///S6;",
"01300599999","2010-12-31T14:50:00","4","61.25","1.85","117.65","STATFJORD OIL PLATFORM HELIPORT, FO","FM-15","ENSF ","V020","300,1,N,0262,1","22000,1,9,N","011265,1,N,1","+0070,1","+0020,1","99999,9",,,,,,,"10010,1,99999,9",,"MET063METAR ENSF 311450Z AUTO 30051KT 9999NDV /// 07/02 Q1001 W///S6;",
"01300599999","2010-12-31T15:20:00","4","61.25","1.85","117.65","STATFJORD OIL PLATFORM HELIPORT, FO","FM-15","ENSF ","V020","300,1,N,0268,1","22000,1,9,N","011265,1,N,1","+0050,1","-0010,1","99999,9",,,,,,,"10010,1,99999,9",,"MET064METAR ENSF 311520Z AUTO 30052KT 9999NDV /// 05/M01 Q1001 W///S6;",
"01300599999","2010-12-31T15:50:00","4","61.25","1.85","117.65","STATFJORD OIL PLATFORM HELIPORT, FO","FM-15","ENSF ","V020","300,1,N,0288,1","22000,1,9,N","011265,1,N,1","+0050,1","+0000,1","99999,9",,,,,,,"10010,1,99999,9",,"MET063METAR ENSF 311550Z AUTO 30056KT 9999NDV /// 05/00 Q1001 W///S6;",
"01300599999","2010-12-31T16:20:00","4","61.25","1.85","117.65","STATFJORD OIL PLATFORM HELIPORT, FO","FM-15","ENSF ","V020","300,1,N,0298,1","22000,1,9,N","011265,1,N,1","+0050,1","-0010,1","99999,9",,,,,,,"10000,1,99999,9",,"MET064METAR ENSF 311620Z AUTO 30058KT 9999NDV /// 05/M01 Q1000 W///S6;",
"01300599999","2010-12-31T16:50:00","4","61.25","1.85","117.65","STATFJORD OIL PLATFORM HELIPORT, FO","FM-15","ENSF ","V020","300,1,N,0309,1","22000,1,9,N","009000,1,N,1","+0040,1","+0000,1","99999,9",,,,,,,"09990,1,99999,9",,"MET063METAR ENSF 311650Z AUTO 30060KT 9000NDV /// 04/00 Q0999 W///S7;",
"01300599999","2010-12-31T17:20:00","4","61.25","1.85","117.65","STATFJORD OIL PLATFORM HELIPORT, FO","FM-15","ENSF ","V020","290,1,N,0309,1","22000,1,9,N","008000,1,N,1","+0050,1","+0010,1","99999,9",,,,,,,"09990,1,99999,9",,"MET063METAR ENSF 311720Z AUTO 29060KT 8000NDV /// 05/01 Q0999 W///S7;",
"01300599999","2010-12-31T17:50:00","4","61.25","1.85","117.65","STATFJORD OIL PLATFORM HELIPORT, FO","FM-15","ENSF ","V020","300,1,N,0334,1","22000,1,9,N","006000,1,N,1","+0050,1","+0010,1","99999,9",,,,,,,"09970,1,99999,9",,"MET063METAR ENSF 311750Z AUTO 30065KT 6000NDV /// 05/01 Q0997 W///S7;",
"01300599999","2010-12-31T18:20:00","4","61.25","1.85","117.65","STATFJORD OIL PLATFORM HELIPORT, FO","FM-15","ENSF ","V020","310,1,N,0298,1","22000,1,9,N","011265,1,N,1","+0060,1","+0030,1","99999,9","81,1",,,,,,"09980,1,99999,9",,"MET069METAR ENSF 311820Z AUTO 31058KT 9999NDV -SHRA /// 06/03 Q0998 W///S7;",
"01300599999","2010-12-31T18:50:00","4","61.25","1.85","117.65","STATFJORD OIL PLATFORM HELIPORT, FO","FM-15","ENSF ","V020","330,1,N,0304,1","22000,1,9,N","005000,1,N,1","+0060,1","+0020,1","99999,9","10,1","81,1",,,,,"09970,1,99999,9","0355,1","MET075METAR ENSF 311850Z AUTO 33059G69KT 5000NDV -SHRA BR /// 06/02 Q0997 W///S7;",
"01300599999","2010-12-31T19:20:00","4","61.25","1.85","117.65","STATFJORD OIL PLATFORM HELIPORT, FO","FM-15","ENSF ","V020","330,1,N,0288,1","22000,1,9,N","005000,1,N,1","+0050,1","+0020,1","99999,9","81,1",,,,,,"09990,1,99999,9","0345,1","MET072METAR ENSF 311920Z AUTO 33056G67KT 5000NDV -SHRA /// 05/02 Q0999 W///S7;",
"01300599999","2010-12-31T19:50:00","4","61.25","1.85","117.65","STATFJORD OIL PLATFORM HELIPORT, FO","FM-15","ENSF ","V020","330,1,N,0288,1","22000,1,9,N","011265,1,N,1","+0050,1","+0010,1","99999,9","81,1",,,,,,"10000,1,99999,9",,"MET069METAR ENSF 311950Z AUTO 33056KT 9999NDV -SHRA /// 05/01 Q1000 W///S7;",
"01300599999","2010-12-31T20:20:00","4","61.25","1.85","117.65","STATFJORD OIL PLATFORM HELIPORT, FO","FM-15","ENSF ","V020","340,1,N,0268,1","22000,1,9,N","004100,1,N,1","+0050,1","+0010,1","99999,9","10,1","81,1",,,,,"10020,1,99999,9",,"MET072METAR ENSF 312020Z AUTO 34052KT 4100NDV -SHRA BR /// 05/01 Q1002 W///S7;",
"01300599999","2010-12-31T20:50:00","4","61.25","1.85","117.65","STATFJORD OIL PLATFORM HELIPORT, FO","FM-15","ENSF ","V020","330,1,N,0268,1","22000,1,9,N","005000,1,N,1","+0050,1","+0010,1","99999,9",,,,,,,"10031,1,99999,9",,"MET063METAR ENSF 312050Z AUTO 33052KT 5000NDV /// 05/01 Q1003 W///S7;",
"01300599999","2010-12-31T21:20:00","4","61.25","1.85","117.65","STATFJORD OIL PLATFORM HELIPORT, FO","FM-15","ENSF ","V020","340,1,N,0247,1","22000,1,9,N","006000,1,N,1","+0040,1","+0000,1","99999,9",,,,,,,"10041,1,99999,9",,"MET063METAR ENSF 312120Z AUTO 34048KT 6000NDV /// 04/00 Q1004 W///S7;",
"01300599999","2010-12-31T21:50:00","4","61.25","1.85","117.65","STATFJORD OIL PLATFORM HELIPORT, FO","FM-15","ENSF ","V020","340,1,N,0242,1","22000,1,9,N","007000,1,N,1","+0050,1","-0010,1","99999,9",,,,,,,"10051,1,99999,9",,"MET064METAR ENSF 312150Z AUTO 34047KT 7000NDV /// 05/M01 Q1005 W///S7;",
"01300599999","2010-12-31T22:20:00","4","61.25","1.85","117.65","STATFJORD OIL PLATFORM HELIPORT, FO","FM-15","ENSF ","V020","340,1,N,0247,1","22000,1,9,N","006000,1,N,1","+0050,1","-0010,1","99999,9",,,,,,,"10051,1,99999,9",,"MET064METAR ENSF 312220Z AUTO 34048KT 6000NDV /// 05/M01 Q1005 W///S7;",
"01300599999","2010-12-31T22:50:00","4","61.25","1.85","117.65","STATFJORD OIL PLATFORM HELIPORT, FO","FM-15","ENSF ","V020","330,1,N,0242,1","22000,1,9,N","011265,1,N,1","+0050,1","-0020,1","99999,9",,,,,,,"10061,1,99999,9",,"MET064METAR ENSF 312250Z AUTO 33047KT 9999NDV /// 05/M02 Q1006 W///S7;",
"01300599999","2010-12-31T23:20:00","4","61.25","1.85","117.65","STATFJORD OIL PLATFORM HELIPORT, FO","FM-15","ENSF ","V020","330,1,N,0221,1","22000,1,9,N","011265,1,N,1","+0050,1","-0030,1","99999,9",,,,,,,"10061,1,99999,9",,"MET064METAR ENSF 312320Z AUTO 33043KT 9999NDV /// 05/M03 Q1006 W///S7;",
"01300599999","2010-12-31T23:50:00","4","61.25","1.85","117.65","STATFJORD OIL PLATFORM HELIPORT, FO","FM-15","ENSF ","V020","330,1,N,0221,1","22000,1,9,N","011265,1,N,1","+0050,1","-0020,1","99999,9",,,,,,,"10081,1,99999,9",,"MET064METAR ENSF 312350Z AUTO 33043KT 9999NDV /// 05/M02 Q1008 W///S7;",
