"STATION","DATE","SOURCE","LATITUDE","LONGITUDE","ELEVATION","NAME","REPORT_TYPE","CALL_SIGN","QUALITY_CONTROL","WND","CIG","VIS","TMP","DEW","SLP","GA1","GA2","GA3","GA4","GF1","KA1","MA1","MW1","MW2","OC1","REM","EQD"
"01320099999","2010-01-01T14:20:00","4","61.8333333","6.1166667","60.0","SANDANE ANDA, NO","FM-15","ENSD ","V020","120,1,N,0021,1","99999,9,9,Y","009900,1,N,1","-0030,1","-0090,1","99999,9",,,,,,,"10081,1,99999,9",,,,"MET055METAR ENSD 011420Z 12004KT 060V200 CAVOK M03/M09 Q1008;",
"01320099999","2010-01-01T14:50:00","4","61.8333333","6.1166667","60.0","SANDANE ANDA, NO","FM-15","ENSD ","V020","999,9,V,0015,1","99999,9,9,Y","009900,1,N,1","-0030,1","-0090,1","99999,9",,,,,,,"10091,1,99999,9",,,,"MET047METAR ENSD 011450Z VRB03KT CAVOK M03/M09 Q1009;",
"01320099999","2010-01-01T15:50:00","4","61.8333333","6.1166667","60.0","SANDANE ANDA, NO","FM-15","ENSD ","V020","130,1,N,0021,1","99999,9,9,Y","009900,1,N,1","-0040,1","-0070,1","99999,9",,,,,,,"10102,1,99999,9",,,,"MET055METAR ENSD 011550Z 13004KT 070V170 CAVOK M04/M07 Q1010;",
"01320099999","2010-01-01T16:50:00","4","61.8333333","6.1166667","60.0","SANDANE ANDA, NO","FM-15","ENSD ","V020","110,1,N,0021,1","99999,9,9,Y","009900,1,N,1","-0050,1","-0090,1","99999,9",,,,,,,"10108,1,99999,9",,,,"MET055METAR ENSD 011650Z 11004KT 040V160 CAVOK M05/M09 Q1011;",
"01320099999","2010-01-01T17:50:00","4","61.8333333","6.1166667","60.0","SANDANE ANDA, NO","FM-15","ENSD ","V020","140,1,N,0031,1","99999,9,9,Y","009900,1,N,1","-0050,1","-0100,1","99999,9",,,,,,,"10119,1,99999,9",,,,"MET055METAR ENSD 011750Z 14006KT 070V160 CAVOK M05/M10 Q1012;",
"01320099999","2010-01-01T18:50:00","4","61.8333333","6.1166667","60.0","SANDANE ANDA, NO","FM-15","ENSD ","V020","140,1,N,0026,1","99999,9,9,Y","009900,1,N,1","-0050,1","-0100,1","99999,9",,,,,,,"10129,1,99999,9",,,,"MET055METAR ENSD 011850Z 14005KT 070V170 CAVOK M05/M10 Q1013;",
"01320099999","2010-01-01T19:50:00","4","61.8333333","6.1166667","60.0","SANDANE ANDA, NO","FM-15","ENSD ","V020","150,1,N,0031,1","99999,9,9,Y","009900,1,N,1","-0060,1","-0100,1","99999,9",,,,,,,"10139,1,99999,9",,,,"MET047METAR ENSD 011950Z 15006KT CAVOK M06/M10 Q1014;",
"01320099999","2010-01-02T08:50:00","4","61.8333333","6.1166667","60.0","SANDANE ANDA, NO","FM-15","ENSD ","V020","150,1,N,0031,1","99999,9,9,Y","009900,1,N,1","-0080,1","-0120,1","99999,9",,,,,,,"10230,1,99999,9",,,,"MET047METAR ENSD 020850Z 15006KT CAVOK M08/M12 Q1023;",
"01320099999","2010-01-02T09:50:00","4","61.8333333","6.1166667","60.0","SANDANE ANDA, NO","FM-15","ENSD ","V020","999,9,V,0021,1","99999,9,9,Y","009900,1,N,1","-0080,1","-0110,1","99999,9",,,,,,,"10230,1,99999,9",,,,"MET047METAR ENSD 020950Z VRB04KT CAVOK M08/M11 Q1023;",
"01320099999","2010-01-02T10:50:00","4","61.8333333","6.1166667","60.0","SANDANE ANDA, NO","FM-15","ENSD ","V020","140,1,N,0036,1","99999,9,9,Y","009900,1,N,1","-0080,1","-0120,1","99999,9",,,,,,,"10240,1,99999,9",,,,"MET047METAR ENSD 021050Z 14007KT CAVOK M08/M12 Q1024;",
"01320099999","2010-01-02T11:50:00","4","61.8333333","6.1166667","60.0","SANDANE ANDA, NO","FM-15","ENSD ","V020","140,1,N,0026,1","99999,9,9,Y","009900,1,N,1","-0080,1","-0120,1","99999,9",,,,,,,"10240,1,99999,9",,,,"MET055METAR ENSD 021150Z 14005KT 080V170 CAVOK M08/M12 Q1024;",
"01320099999","2010-01-02T12:50:00","4","61.8333333","6.1166667","60.0","SANDANE ANDA, NO","FM-15","ENSD ","V020","140,1,N,0026,1","99999,9,9,Y","009900,1,N,1","-0080,1","-0110,1","99999,9",,,,,,,"10251,1,99999,9",,,,"MET047METAR ENSD 021250Z 14005KT CAVOK M08/M11 Q1025;",
"01320099999","2010-01-02T13:50:00","4","61.8333333","6.1166667","60.0","SANDANE ANDA, NO","FM-15","ENSD ","V020","150,1,N,0031,1","99999,9,9,Y","009900,1,N,1","-0080,1","-0120,1","99999,9",,,,,,,"10251,1,99999,9",,,,"MET047METAR ENSD 021350Z 15006KT CAVOK M08/M12 Q1025;",
"01320099999","2010-01-03T09:50:00","4","61.8333333","6.1166667","60.0","SANDANE ANDA, NO","FM-15","ENSD ","V020","999,9,V,0015,1","01050,1,C,N","008000,1,N,1","-0050,1","-0080,1","99999,9","04,5,+00450,1,99,9","07,5,+01050,1,99,9",,,"07,99,1,99,9,99,9,99999,9,99,9,99,9",,"10210,1,99999,9","85,5",,,"MET066METAR ENSD 030950Z VRB03KT 8000 -SHSN SCT015 BKN035 M05/M08 Q1021;",
"01320099999","2010-01-03T10:50:00","4","61.8333333","6.1166667","60.0","SANDANE ANDA, NO","FM-15","ENSD ","V020","999,9,V,0005,1","00900,1,C,N","011265,1,N,1","-0040,1","-0070,1","99999,9","02,5,+00150,1,99,9","07,5,+00900,1,99,9",,,"07,99,1,99,9,99,9,99999,9,99,9,99,9",,"10200,1,99999,9","85,5",,,"MET066METAR ENSD 031050Z VRB01KT 9999 -SHSN FEW005 BKN030 M04/M07 Q1020;",
"01320099999","2010-01-03T11:50:00","4","61.8333333","6.1166667","60.0","SANDANE ANDA, NO","FM-15","ENSD ","V020","999,9,V,0015,1","00750,1,C,N","011265,1,N,1","-0040,1","-0070,1","99999,9","02,5,+00150,1,99,9","07,5,+00750,1,99,9",,,"07,99,1,99,9,99,9,99999,9,99,9,99,9",,"10200,1,99999,9","71,1",,,"MET064METAR ENSD 031150Z VRB03KT 9999 -SN FEW005 BKN025 M04/M07 Q1020;",
"01320099999","2010-01-03T14:50:00","4","61.8333333","6.1166667","60.0","SANDANE ANDA, NO","FM-15","ENSD ","V020","140,1,N,0026,1","00750,1,C,N","011265,1,N,1","-0040,1","-0060,1","99999,9","04,5,+00300,1,99,9","07,5,+00750,1,99,9",,,"07,99,1,99,9,99,9,99999,9,99,9,99,9",,"10200,1,99999,9","71,1",,,"MET070METAR ENSD 031450Z 14005KT 9999 4500E -SN SCT010 BKN025 M04/M06 Q1020;",
"01320099999","2010-01-03T15:50:00","4","61.8333333","6.1166667","60.0","SANDANE ANDA, NO","FM-15","ENSD ","V020","170,1,N,0021,1","00240,1,9,N","002000,1,N,1","-0040,1","-0060,1","99999,9","09,1,+00240,1,99,9",,,,"09,99,1,99,9,99,9,00025,1,99,9,99,9",,"10169,1,99999,9","73,1",,,"MET055METAR ENSD 031550Z 17004KT 2000 SN VV008 M04/M06 Q1017;",
"01320099999","2010-01-03T16:50:00","4","61.8333333","6.1166667","60.0","SANDANE ANDA, NO","FM-15","ENSD ","V020","130,1,N,0036,1","00900,1,C,N","005000,1,N,1","-0040,1","-0050,1","99999,9","07,5,+00900,1,99,9",,,,"07,99,1,99,9,99,9,99999,9,99,9,99,9",,"10169,1,99999,9","16,1",,,"MET058METAR ENSD 031650Z 13007KT 5000 VCSH BKN030 M04/M05 Q1017;",
"01320099999","2010-01-03T17:50:00","4","61.8333333","6.1166667","60.0","SANDANE ANDA, NO","FM-15","ENSD ","V020","140,1,N,0026,1","00330,1,9,N","004000,1,N,1","-0030,1","-0050,1","99999,9","09,1,+00330,1,99,9",,,,"09,99,1,99,9,99,9,00025,1,99,9,99,9",,"10159,1,99999,9","86,5",,,"MET057METAR ENSD 031750Z 14005KT 4000 SHSN VV011 M03/M05 Q1016;",
"01320099999","2010-01-03T18:50:00","4","61.8333333","6.1166667","60.0","SANDANE ANDA, NO","FM-15","ENSD ","V020","150,1,N,0021,1","00750,1,C,N","006000,1,N,1","-0030,1","-0050,1","99999,9","07,5,+00750,1,99,9",,,,"07,99,1,99,9,99,9,99999,9,99,9,99,9",,"10159,1,99999,9","85,5",,,"MET059METAR ENSD 031850Z 15004KT 6000 -SHSN BKN025 M03/M05 Q1016;",
"01320099999","2010-01-03T19:50:00","4","61.8333333","6.1166667","60.0","SANDANE ANDA, NO","FM-15","ENSD ","V020","140,1,N,0031,1","00750,1,C,N","002500,1,N,1","-0030,1","-0050,1","99999,9","04,5,+00450,1,99,9","07,5,+00750,1,99,9",,,"07,99,1,99,9,99,9,99999,9,99,9,99,9",,"10149,1,99999,9","86,5",,,"MET065METAR ENSD 031950Z 14006KT 2500 SHSN SCT015 BKN025 M03/M05 Q1015;",
"01320099999","2010-01-04T05:20:00","4","61.8333333","6.1166667","60.0","SANDANE ANDA, NO","FM-15","ENSD ","V020","280,1,N,0031,1","00450,1,9,N","004000,1,N,1","-0010,1","-0030,1","99999,9","09,1,+00450,1,99,9",,,,"09,99,1,99,9,99,9,00025,1,99,9,99,9",,"10081,1,99999,9","73,1",,,"MET063METAR ENSD 040520Z 28006KT 210V350 4000 SN VV015 M01/M03 Q1008;",
"01320099999","2010-01-04T06:50:00","4","61.8333333","6.1166667","60.0","SANDANE ANDA, NO","FM-15","ENSD ","V020","999,9,V,0010,1","00900,1,C,N","008000,1,N,1","-0010,1","-0030,1","99999,9","04,5,+00360,1,99,9","07,5,+00900,1,99,9",,,"07,99,1,99,9,99,9,99999,9,99,9,99,9",,"10081,1,99999,9","71,1",,,"MET064METAR ENSD 040650Z VRB02KT 8000 -SN SCT012 BKN030 M01/M03 Q1008;",
"01320099999","2010-01-04T07:50:00","4","61.8333333","6.1166667","60.0","SANDANE ANDA, NO","FM-15","ENSD ","V020","999,9,V,0010,1","00900,1,C,N","011265,1,N,1","-0010,1","-0040,1","99999,9","04,5,+00600,1,99,9","07,5,+00900,1,99,9",,,"07,99,1,99,9,99,9,99999,9,99,9,99,9",,"10071,1,99999,9",,,,"MET060METAR ENSD 040750Z VRB02KT 9999 SCT020 BKN030 M01/M04 Q1007;",
"01320099999","2010-01-04T08:50:00","4","61.8333333","6.1166667","60.0","SANDANE ANDA, NO","FM-15","ENSD ","V020","999,9,V,0010,1","00900,1,C,N","011265,1,N,1","-0010,1","-0030,1","99999,9","04,5,+00450,1,99,9","07,5,+00900,1,99,9",,,"07,99,1,99,9,99,9,99999,9,99,9,99,9",,"10071,1,99999,9",,,,"MET060METAR ENSD 040850Z VRB02KT 9999 SCT015 BKN030 M01/M03 Q1007;",
"01320099999","2010-01-04T09:50:00","4","61.8333333","6.1166667","60.0","SANDANE ANDA, NO","FM-15","ENSD ","V020","999,9,V,0005,1","00600,1,C,N","011265,1,N,1","-0010,1","-0040,1","99999,9","02,5,+00300,1,99,9","04,5,+00600,1,99,9","07,5,+01200,1,99,9",,"07,99,1,99,9,99,9,99999,9,99,9,99,9",,"10071,1,99999,9",,,,"MET067METAR ENSD 040950Z VRB01KT 9999 FEW010 SCT020 BKN040 M01/M04 Q1007;",
"01320099999","2010-01-04T10:50:00","4","61.8333333","6.1166667","60.0","SANDANE ANDA, NO","FM-15","ENSD ","V020","130,1,N,0021,1","99999,9,C,N","011265,1,N,1","-0020,1","-0040,1","99999,9","02,5,+00240,1,99,9","04,5,+00750,1,99,9",,,"04,99,1,99,9,99,9,99999,9,99,9,99,9",,"10061,1,99999,9",,,,"MET060METAR ENSD 041050Z 13004KT 9999 FEW008 SCT025 M02/M04 Q1006;","P01 007503SCOCIG"
"01320099999","2010-01-04T11:50:00","4","61.8333333","6.1166667","60.0","SANDANE ANDA, NO","FM-15","ENSD ","V020","999,9,V,0005,1","01200,1,C,N","011265,1,N,1","-0010,1","-0040,1","99999,9","02,5,+00300,1,99,9","07,5,+01200,1,99,9",,,"07,99,1,99,9,99,9,99999,9,99,9,99,9",,"10061,1,99999,9",,,,"MET060METAR ENSD 041150Z VRB01KT 9999 FEW010 BKN040 M01/M04 Q1006;",
"01320099999","2010-01-04T12:50:00","4","61.8333333","6.1166667","60.0","SANDANE ANDA, NO","FM-15","ENSD ","V020","999,9,V,0005,1","01200,1,C,N","011265,1,N,1","-0020,1","-0050,1","99999,9","02,5,+00300,1,99,9","07,5,+01200,1,99,9",,,"07,99,1,99,9,99,9,99999,9,99,9,99,9",,"10051,1,99999,9",,,,"MET060METAR ENSD 041250Z VRB01KT 9999 FEW010 BKN040 M02/M05 Q1005;",
"01320099999","2010-01-04T13:50:00","4","61.8333333","6.1166667","60.0","SANDANE ANDA, NO","FM-15","ENSD ","V020","999,9,V,0005,1","00750,1,C,N","011265,1,N,1","-0020,1","-0040,1","99999,9","02,5,+00300,1,99,9","04,5,+00750,1,99,9","07,5,+01200,1,99,9",,"07,99,1,99,9,99,9,99999,9,99,9,99,9",,"10051,1,99999,9","16,1",,,"MET072METAR ENSD 041350Z VRB01KT 9999 VCSH FEW010 SCT025 BKN040 M02/M04 Q1005;",
"01320099999","2010-01-04T14:50:00","4","61.8333333","6.1166667","60.0","SANDANE ANDA, NO","FM-15","ENSD ","V020","999,9,C,0000,1","00750,1,C,N","006000,1,N,1","-0020,1","-0040,1","99999,9","02,5,+00300,1,99,9","07,5,+00750,1,99,9",,,"07,99,1,99,9,99,9,99999,9,99,9,99,9",,"10051,1,99999,9","16,1",,,"MET065METAR ENSD 041450Z 00000KT 6000 VCSH FEW010 BKN025 M02/M04 Q1005;",
"01320099999","2010-01-04T15:50:00","4","61.8333333","6.1166667","60.0","SANDANE ANDA, NO","FM-15","ENSD ","V020","999,9,C,0000,1","00750,1,C,N","005000,1,N,1","-0020,1","-0040,1","99999,9","04,5,+00300,1,99,9","07,5,+00750,1,99,9",,,"07,99,1,99,9,99,9,99999,9,99,9,99,9",,"10051,1,99999,9","85,5",,,"MET066METAR ENSD 041550Z 00000KT 5000 -SHSN SCT010 BKN025 M02/M04 Q1005;",
"01320099999","2010-01-04T16:50:00","4","61.8333333","6.1166667","60.0","SANDANE ANDA, NO","FM-15","ENSD ","V020","999,9,V,0005,1","00360,1,9,N","002000,1,N,1","-0020,1","-0040,1","99999,9","09,1,+00360,1,99,9",,,,"09,99,1,99,9,99,9,00025,1,99,9,99,9",,"10051,1,99999,9","73,1",,,"MET055METAR ENSD 041650Z VRB01KT 2000 SN VV012 M02/M04 Q1005;",
"01320099999","2010-01-04T17:50:00","4","61.8333333","6.1166667","60.0","SANDANE ANDA, NO","FM-15","ENSD ","V020","999,9,V,0005,1","00450,1,9,N","004000,1,N,1","-0020,1","-0040,1","99999,9","09,1,+00450,1,99,9",,,,"09,99,1,99,9,99,9,00025,1,99,9,99,9",,"10051,1,99999,9","71,1",,,"MET056METAR ENSD 041750Z VRB01KT 4000 -SN VV015 M02/M04 Q1005;",
"01320099999","2010-01-04T18:50:00","4","61.8333333","6.1166667","60.0","SANDANE ANDA, NO","FM-15","ENSD ","V020","999,9,V,0005,1","00360,1,C,N","009000,1,N,1","-0020,1","-0040,1","99999,9","02,5,+00180,1,99,9","04,5,+00360,1,99,9","07,5,+01050,1,99,9",,"07,99,1,99,9,99,9,99999,9,99,9,99,9",,"10051,1,99999,9","16,1",,,"MET077METAR ENSD 041850Z VRB01KT 9000 VCSH FEW006 SCT012 BKN035 M02/M04 Q1005 RESN;",
"01320099999","2010-01-04T19:50:00","4","61.8333333","6.1166667","60.0","SANDANE ANDA, NO","FM-15","ENSD ","V020","999,9,V,0005,1","00360,1,C,N","011265,1,N,1","-0020,1","-0040,1","99999,9","02,5,+00150,1,99,9","04,5,+00360,1,99,9","07,5,+01050,1,99,9",,"07,99,1,99,9,99,9,99999,9,99,9,99,9",,"10051,1,99999,9",,,,"MET067METAR ENSD 041950Z VRB01KT 9999 FEW005 SCT012 BKN035 M02/M04 Q1005;",
"01320099999","2010-01-04T20:50:00","4","61.8333333","6.1166667","60.0","SANDANE ANDA, NO","FM-15","ENSD ","V020","120,1,N,0015,1","01050,1,C,N","011265,1,N,1","-0020,1","-0050,1","99999,9","04,5,+00300,1,99,9","07,5,+01050,1,99,9",,,"07,99,1,99,9,99,9,99999,9,99,9,99,9",,"10051,1,99999,9",,,,"MET060METAR ENSD 042050Z 12003KT 9999 SCT010 BKN035 M02/M05 Q1005;",
"01320099999","2010-01-04T21:50:00","4","61.8333333","6.1166667","60.0","SANDANE ANDA, NO","FM-15","ENSD ","V020","999,9,V,0005,1","00750,1,C,N","007000,1,N,1","-0020,1","-0040,1","99999,9","04,5,+00300,1,99,9","07,5,+00750,1,99,9",,,"07,99,1,99,9,99,9,99999,9,99,9,99,9",,"10051,1,99999,9","85,5",,,"MET066METAR ENSD 042150Z VRB01KT 7000 -SHSN SCT010 BKN025 M02/M04 Q1005;",
"01320099999","2010-01-04T22:20:00","4","61.8333333","6.1166667","60.0","SANDANE ANDA, NO","FM-15","ENSD ","V020","999,9,V,0005,1","00300,1,C,N","009000,1,N,1","-0020,1","-0050,1","99999,9","02,5,+00180,1,99,9","04,5,+00300,1,99,9","07,5,+01050,1,99,9",,"07,99,1,99,9,99,9,99999,9,99,9,99,9",,"10051,1,99999,9","16,1",,,"MET072METAR ENSD 042220Z VRB01KT 9000 VCSH FEW006 SCT010 BKN035 M02/M05 Q1005;",
"01320099999","2010-01-04T22:50:00","4","61.8333333","6.1166667","60.0","SANDANE ANDA, NO","FM-15","ENSD ","V020","140,1,N,0010,1","00330,1,C,N","009000,1,N,1","-0020,1","-0050,1","99999,9","02,5,+00180,1,99,9","04,5,+00330,1,99,9","07,5,+01050,1,99,9",,"07,99,1,99,9,99,9,99999,9,99,9,99,9",,"10051,1,99999,9","85,5",,,"MET073METAR ENSD 042250Z 14002KT 9000 -SHSN FEW006 SCT011 BKN035 M02/M05 Q1005;",
"01320099999","2010-01-05T05:20:00","4","61.8333333","6.1166667","60.0","SANDANE ANDA, NO","FM-15","ENSD ","V020","140,1,N,0021,1","22000,1,9,N","011265,1,N,1","-0030,1","-0050,1","99999,9","02,5,+00900,1,99,9",,,,"02,99,1,99,9,99,9,99999,9,99,9,99,9",,"10061,1,99999,9",,,,"MET053METAR ENSD 050520Z 14004KT 9999 FEW030 M03/M05 Q1006;",
"01320099999","2010-01-05T05:50:00","4","61.8333333","6.1166667","60.0","SANDANE ANDA, NO","FM-15","ENSD ","V020","999,9,C,0000,1","22000,1,9,N","011265,1,N,1","-0040,1","-0060,1","99999,9","02,5,+00900,1,99,9",,,,"02,99,1,99,9,99,9,99999,9,99,9,99,9",,"10071,1,99999,9",,,,"MET053METAR ENSD 050550Z 00000KT 9999 FEW030 M04/M06 Q1007;",
"01320099999","2010-01-05T06:50:00","4","61.8333333","6.1166667","60.0","SANDANE ANDA, NO","FM-15","ENSD ","V020","999,9,V,0005,1","22000,1,9,N","011265,1,N,1","-0040,1","-0060,1","99999,9","02,5,+00900,1,99,9",,,,"02,99,1,99,9,99,9,99999,9,99,9,99,9",,"10071,1,99999,9",,,,"MET053METAR ENSD 050650Z VRB01KT 9999 FEW030 M04/M06 Q1007;",
"01320099999","2010-01-05T07:50:00","4","61.8333333","6.1166667","60.0","SANDANE ANDA, NO","FM-15","ENSD ","V020","999,9,V,0015,1","99999,9,C,N","011265,1,N,1","-0030,1","-0060,1","99999,9","02,5,+00900,1,99,9","04,5,+01350,1,99,9",,,"04,99,1,99,9,99,9,99999,9,99,9,99,9",,"10081,1,99999,9",,,,"MET060METAR ENSD 050750Z VRB03KT 9999 FEW030 SCT045 M03/M06 Q1008;","P01 013503SCOCIG"
"01320099999","2010-01-05T08:50:00","4","61.8333333","6.1166667","60.0","SANDANE ANDA, NO","FM-15","ENSD ","V020","999,9,V,0031,1","22000,1,9,N","011265,1,N,1","-0030,1","-0110,1","99999,9","02,5,+01350,1,99,9",,,,"02,99,1,99,9,99,9,99999,9,99,9,99,9",,"10091,1,99999,9",,,,"MET053METAR ENSD 050850Z VRB06KT 9999 FEW045 M03/M11 Q1009;",
"01320099999","2010-01-05T09:50:00","4","61.8333333","6.1166667","60.0","SANDANE ANDA, NO","FM-15","ENSD ","V020","070,1,N,0026,1","22000,1,9,N","011265,1,N,1","-0030,1","-0120,1","99999,9","02,5,+01050,1,99,9",,,,"02,99,1,99,9,99,9,99999,9,99,9,99,9",,"10102,1,99999,9",,,,"MET061METAR ENSD 050950Z 07005KT 360V160 9999 FEW035 M03/M12 Q1010;",
"01320099999","2010-01-05T10:50:00","4","61.8333333","6.1166667","60.0","SANDANE ANDA, NO","FM-15","ENSD ","V020","999,9,V,0005,1","99999,9,9,Y","009900,1,N,1","-0060,1","-0120,1","99999,9",,,,,,,"10102,1,99999,9",,,,"MET047METAR ENSD 051050Z VRB01KT CAVOK M06/M12 Q1010;",
"01320099999","2010-01-05T11:50:00","4","61.8333333","6.1166667","60.0","SANDANE ANDA, NO","FM-15","ENSD ","V020","999,9,V,0015,1","99999,9,9,Y","009900,1,N,1","-0050,1","-0120,1","99999,9",,,,,,,"10108,1,99999,9",,,,"MET047METAR ENSD 051150Z VRB03KT CAVOK M05/M12 Q1011;",
"01320099999","2010-01-05T12:50:00","4","61.8333333","6.1166667","60.0","SANDANE ANDA, NO","FM-15","ENSD ","V020","080,1,N,0015,1","99999,9,9,Y","009900,1,N,1","-0060,1","-0140,1","99999,9",,,,,,,"10108,1,99999,9",,,,"MET047METAR ENSD 051250Z 08003KT CAVOK M06/M14 Q1011;",
"01320099999","2010-01-05T13:50:00","4","61.8333333","6.1166667","60.0","SANDANE ANDA, NO","FM-15","ENSD ","V020","110,1,N,0015,1","99999,9,9,Y","009900,1,N,1","-0060,1","-0130,1","99999,9",,,,,,,"10108,1,99999,9",,,,"MET047METAR ENSD 051350Z 11003KT CAVOK M06/M13 Q1011;",
"01320099999","2010-01-05T14:50:00","4","61.8333333","6.1166667","60.0","SANDANE ANDA, NO","FM-15","ENSD ","V020","120,1,N,0021,1","99999,9,9,Y","009900,1,N,1","-0070,1","-0130,1","99999,9",,,,,,,"10119,1,99999,9",,,,"MET047METAR ENSD 051450Z 12004KT CAVOK M07/M13 Q1012;",
"01320099999","2010-01-05T15:50:00","4","61.8333333","6.1166667","60.0","SANDANE ANDA, NO","FM-15","ENSD ","V020","999,9,C,0000,1","99999,9,9,Y","009900,1,N,1","-0080,1","-0130,1","99999,9",,,,,,,"10119,1,99999,9",,,,"MET047METAR ENSD 051550Z 00000KT CAVOK M08/M13 Q1012;",
"01320099999","2010-01-05T17:50:00","4","61.8333333","6.1166667","60.0","SANDANE ANDA, NO","FM-15","ENSD ","V020","140,1,N,0031,1","99999,9,9,Y","009900,1,N,1","-0080,1","-0140,1","99999,9",,,,,,,"10129,1,99999,9",,,,"MET047METAR ENSD 051750Z 14006KT CAVOK M08/M14 Q1013;",
"01320099999","2010-01-05T18:50:00","4","61.8333333","6.1166667","60.0","SANDANE ANDA, NO","FM-15","ENSD ","V020","140,1,N,0036,1","99999,9,9,Y","009900,1,N,1","-0090,1","-0130,1","99999,9",,,,,,,"10129,1,99999,9",,,,"MET047METAR ENSD 051850Z 14007KT CAVOK M09/M13 Q1013;",
"01320099999","2010-01-05T19:50:00","4","61.8333333","6.1166667","60.0","SANDANE ANDA, NO","FM-15","ENSD ","V020","140,1,N,0036,1","99999,9,9,Y","009900,1,N,1","-0090,1","-0130,1","99999,9",,,,,,,"10129,1,99999,9",,,,"MET047METAR ENSD 051950Z 14007KT CAVOK M09/M13 Q1013;",
"01320099999","2010-01-06T05:20:00","4","61.8333333","6.1166667","60.0","SANDANE ANDA, NO","FM-15","ENSD ","V020","150,1,N,0041,1","22000,1,9,N","011265,1,N,1","-0100,1","-0150,1","99999,9","02,5,+01200,1,99,9",,,,"02,99,1,99,9,99,9,99999,9,99,9,99,9",,"10119,1,99999,9",,,,"MET053METAR ENSD 060520Z 15008KT 9999 FEW040 M10/M15 Q1012;",
"01320099999","2010-01-06T06:50:00","4","61.8333333","6.1166667","60.0","SANDANE ANDA, NO","FM-15","ENSD ","V020","140,1,N,0041,1","22000,1,9,N","011265,1,N,1","-0100,1","-0130,1","99999,9","02,5,+01200,1,99,9",,,,"02,99,1,99,9,99,9,99999,9,99,9,99,9",,"10119,1,99999,9",,,,"MET053METAR ENSD 060650Z 14008KT 9999 FEW040 M10/M13 Q1012;",
"01320099999","2010-01-06T07:50:00","4","61.8333333","6.1166667","60.0","SANDANE ANDA, NO","FM-15","ENSD ","V020","150,1,N,0041,1","22000,1,9,N","011265,1,N,1","-0100,1","-0140,1","99999,9","02,5,+01200,1,99,9",,,,"02,99,1,99,9,99,9,99999,9,99,9,99,9",,"10119,1,99999,9",,,,"MET053METAR ENSD 060750Z 15008KT 9999 FEW040 M10/M14 Q1012;",
"01320099999","2010-01-06T08:50:00","4","61.8333333","6.1166667","60.0","SANDANE ANDA, NO","FM-15","ENSD ","V020","140,1,N,0041,1","22000,1,9,N","011265,1,N,1","-0100,1","-0140,1","99999,9","02,5,+01200,1,99,9",,,,"02,99,1,99,9,99,9,99999,9,99,9,99,9",,"10119,1,99999,9",,,,"MET053METAR ENSD 060850Z 14008KT 9999 FEW040 M10/M14 Q1012;",
"01320099999","2010-01-06T09:50:00","4","61.8333333","6.1166667","60.0","SANDANE ANDA, NO","FM-15","ENSD ","V020","140,1,N,0036,1","22000,1,9,N","011265,1,N,1","-0090,1","-0130,1","99999,9","02,5,+01200,1,99,9",,,,"02,99,1,99,9,99,9,99999,9,99,9,99,9",,"10119,1,99999,9",,,,"MET053METAR ENSD 060950Z 14007KT 9999 FEW040 M09/M13 Q1012;",
"01320099999","2010-01-06T10:50:00","4","61.8333333","6.1166667","60.0","SANDANE ANDA, NO","FM-15","ENSD ","V020","140,1,N,0036,1","22000,1,9,N","011265,1,N,1","-0080,1","-0140,1","99999,9","02,5,+01200,1,99,9",,,,"02,99,1,99,9,99,9,99999,9,99,9,99,9",,"10119,1,99999,9",,,,"MET053METAR ENSD 061050Z 14007KT 9999 FEW040 M08/M14 Q1012;",
"01320099999","2010-01-06T11:50:00","4","61.8333333","6.1166667","60.0","SANDANE ANDA, NO","FM-15","ENSD ","V020","160,1,N,0026,1","22000,1,9,N","011265,1,N,1","-0080,1","-0140,1","99999,9","02,5,+01200,1,99,9",,,,"02,99,1,99,9,99,9,99999,9,99,9,99,9",,"10119,1,99999,9",,,,"MET053METAR ENSD 061150Z 16005KT 9999 FEW040 M08/M14 Q1012;",
"01320099999","2010-01-06T12:50:00","4","61.8333333","6.1166667","60.0","SANDANE ANDA, NO","FM-15","ENSD ","V020","150,1,N,0031,1","99999,9,C,N","011265,1,N,1","-0070,1","-0130,1","99999,9","02,5,+00900,1,99,9","04,5,+01500,1,99,9",,,"04,99,1,99,9,99,9,99999,9,99,9,99,9",,"10119,1,99999,9","16,1",,,"MET065METAR ENSD 061250Z 15006KT 9999 VCSH FEW030 SCT050 M07/M13 Q1012;","P01 015003SCOCIG"
"01320099999","2010-01-06T13:50:00","4","61.8333333","6.1166667","60.0","SANDANE ANDA, NO","FM-15","ENSD ","V020","140,1,N,0031,1","99999,9,C,N","011265,1,N,1","-0070,1","-0120,1","99999,9","02,5,+01200,1,99,9","04,5,+02100,1,99,9",,,"04,99,1,99,9,99,9,99999,9,99,9,99,9",,"10119,1,99999,9","16,1",,,"MET065METAR ENSD 061350Z 14006KT 9999 VCSH FEW040 SCT070 M07/M12 Q1012;","P01 021003SCOCIG"
"01320099999","2010-01-06T15:50:00","4","61.8333333","6.1166667","60.0","SANDANE ANDA, NO","FM-15","ENSD ","V020","150,1,N,0031,1","22000,1,9,N","011265,1,N,1","-0070,1","-0120,1","99999,9","02,5,+01800,1,99,9",,,,"02,99,1,99,9,99,9,99999,9,99,9,99,9",,"10129,1,99999,9",,,,"MET053METAR ENSD 061550Z 15006KT 9999 FEW060 M07/M12 Q1013;",
"01320099999","2010-01-06T16:50:00","4","61.8333333","6.1166667","60.0","SANDANE ANDA, NO","FM-15","ENSD ","V020","140,1,N,0026,1","22000,1,9,N","011265,1,N,1","-0080,1","-0130,1","99999,9","02,5,+01500,1,99,9",,,,"02,99,1,99,9,99,9,99999,9,99,9,99,9",,"10129,1,99999,9",,,,"MET053METAR ENSD 061650Z 14005KT 9999 FEW050 M08/M13 Q1013;",
"01320099999","2010-01-06T17:50:00","4","61.8333333","6.1166667","60.0","SANDANE ANDA, NO","FM-15","ENSD ","V020","150,1,N,0021,1","99999,9,9,Y","009900,1,N,1","-0080,1","-0130,1","99999,9",,,,,,,"10129,1,99999,9",,,,"MET047METAR ENSD 061750Z 15004KT CAVOK M08/M13 Q1013;",
"01320099999","2010-01-06T18:50:00","4","61.8333333","6.1166667","60.0","SANDANE ANDA, NO","FM-15","ENSD ","V020","140,1,N,0021,1","99999,9,9,Y","009900,1,N,1","-0080,1","-0130,1","99999,9",,,,,,,"10129,1,99999,9",,,,"MET047METAR ENSD 061850Z 14004KT CAVOK M08/M13 Q1013;",
"01320099999","2010-01-06T19:50:00","4","61.8333333","6.1166667","60.0","SANDANE ANDA, NO","FM-15","ENSD ","V020","999,9,V,0015,1","99999,9,9,Y","009900,1,N,1","-0090,1","-0120,1","99999,9",,,,,,,"10129,1,99999,9",,,,"MET047METAR ENSD 061950Z VRB03KT CAVOK M09/M12 Q1013;",
"01320099999","2010-01-07T05:20:00","4","61.8333333","6.1166667","60.0","SANDANE ANDA, NO","FM-15","ENSD ","V020","140,1,N,0041,1","99999,9,9,Y","009900,1,N,1","-0100,1","-0130,1","99999,9",,,,,,,"10149,1,99999,9",,,,"MET047METAR ENSD 070520Z 14008KT CAVOK M10/M13 Q1015;",
"01320099999","2010-01-07T05:50:00","4","61.8333333","6.1166667","60.0","SANDANE ANDA, NO","FM-15","ENSD ","V020","150,1,N,0036,1","99999,9,9,Y","009900,1,N,1","-0100,1","-0150,1","99999,9",,,,,,,"10149,1,99999,9",,,,"MET047METAR ENSD 070550Z 15007KT CAVOK M10/M15 Q1015;",
"01320099999","2010-01-07T06:50:00","4","61.8333333","6.1166667","60.0","SANDANE ANDA, NO","FM-15","ENSD ","V020","150,1,N,0031,1","99999,9,9,Y","009900,1,N,1","-0100,1","-0140,1","99999,9",,,,,,,"10159,1,99999,9",,,,"MET047METAR ENSD 070650Z 15006KT CAVOK M10/M14 Q1016;",
"01320099999","2010-01-07T07:50:00","4","61.8333333","6.1166667","60.0","SANDANE ANDA, NO","FM-15","ENSD ","V020","140,1,N,0036,1","99999,9,9,Y","009900,1,N,1","-0100,1","-0130,1","99999,9",,,,,,,"10159,1,99999,9",,,,"MET047METAR ENSD 070750Z 14007KT CAVOK M10/M13 Q1016;",
"01320099999","2010-01-07T08:50:00","4","61.8333333","6.1166667","60.0","SANDANE ANDA, NO","FM-15","ENSD ","V020","150,1,N,0036,1","22000,1,9,N","011265,1,N,1","-0110,1","-0150,1","99999,9","02,5,+00300,1,99,9",,,,"02,99,1,99,9,99,9,99999,9,99,9,99,9",,"10159,1,99999,9",,,,"MET053METAR ENSD 070850Z 15007KT 9999 FEW010 M11/M15 Q1016;",
"01320099999","2010-01-07T09:50:00","4","61.8333333","6.1166667","60.0","SANDANE ANDA, NO","FM-15","ENSD ","V020","140,1,N,0031,1","22000,1,9,N","011265,1,N,1","-0110,1","-0150,1","99999,9","02,5,+00300,1,99,9",,,,"02,99,1,99,9,99,9,99999,9,99,9,99,9",,"10169,1,99999,9",,,,"MET053METAR ENSD 070950Z 14006KT 9999 FEW010 M11/M15 Q1017;",
"01320099999","2010-01-07T10:50:00","4","61.8333333","6.1166667","60.0","SANDANE ANDA, NO","FM-15","ENSD ","V020","150,1,N,0031,1","22000,1,9,N","011265,1,N,1","-0100,1","-0140,1","99999,9","02,5,+00300,1,99,9",,,,"02,99,1,99,9,99,9,99999,9,99,9,99,9",,"10169,1,99999,9",,,,"MET053METAR ENSD 071050Z 15006KT 9999 FEW010 M10/M14 Q1017;",
"01320099999","2010-01-07T11:50:00","4","61.8333333","6.1166667","60.0","SANDANE ANDA, NO","FM-15","ENSD ","V020","150,1,N,0031,1","22000,1,9,N","011265,1,N,1","-0100,1","-0140,1","99999,9","02,5,+00300,1,99,9",,,,"02,99,1,99,9,99,9,99999,9,99,9,99,9",,"10169,1,99999,9",,,,"MET053METAR ENSD 071150Z 15006KT 9999 FEW010 M10/M14 Q1017;",
"01320099999","2010-01-07T13:20:00","4","61.8333333","6.1166667","60.0","SANDANE ANDA, NO","FM-15","ENSD ","V020","130,1,N,0031,1","22000,1,9,N","011265,1,N,1","-0100,1","-0140,1","99999,9","02,5,+00300,1,99,9",,,,"02,99,1,99,9,99,9,99999,9,99,9,99,9",,"10180,1,99999,9",,,,"MET053METAR ENSD 071320Z 13006KT 9999 FEW010 M10/M14 Q1018;",
"01320099999","2010-01-07T13:50:00","4","61.8333333","6.1166667","60.0","SANDANE ANDA, NO","FM-15","ENSD ","V020","150,1,N,0031,1","22000,1,9,N","011265,1,N,1","-0100,1","-0130,1","99999,9","02,5,+00450,1,99,9",,,,"02,99,1,99,9,99,9,99999,9,99,9,99,9",,"10180,1,99999,9",,,,"MET053METAR ENSD 071350Z 15006KT 9999 FEW015 M10/M13 Q1018;",
"01320099999","2010-01-07T14:50:00","4","61.8333333","6.1166667","60.0","SANDANE ANDA, NO","FM-15","ENSD ","V020","140,1,N,0031,1","22000,1,9,N","011265,1,N,1","-0100,1","-0130,1","99999,9","02,5,+00450,1,99,9",,,,"02,99,1,99,9,99,9,99999,9,99,9,99,9",,"10180,1,99999,9",,,,"MET061METAR ENSD 071450Z 14006KT 070V170 9999 FEW015 M10/M13 Q1018;",
"01320099999","2010-01-07T15:50:00","4","61.8333333","6.1166667","60.0","SANDANE ANDA, NO","FM-15","ENSD ","V020","140,1,N,0036,1","22000,1,9,N","011265,1,N,1","-0100,1","-0130,1","99999,9","02,5,+00450,1,99,9",,,,"02,99,1,99,9,99,9,99999,9,99,9,99,9",,"10190,1,99999,9",,,,"MET061METAR ENSD 071550Z 14007KT 070V170 9999 FEW015 M10/M13 Q1019;",
"01320099999","2010-01-07T16:50:00","4","61.8333333","6.1166667","60.0","SANDANE ANDA, NO","FM-15","ENSD ","V020","140,1,N,0036,1","22000,1,9,N","011265,1,N,1","-0110,1","-0150,1","99999,9","02,5,+00450,1,99,9",,,,"02,99,1,99,9,99,9,99999,9,99,9,99,9",,"10190,1,99999,9",,,,"MET053METAR ENSD 071650Z 14007KT 9999 FEW015 M11/M15 Q1019;",
"01320099999","2010-01-07T17:50:00","4","61.8333333","6.1166667","60.0","SANDANE ANDA, NO","FM-15","ENSD ","V020","140,1,N,0036,1","99999,9,9,Y","009900,1,N,1","-0110,1","-0150,1","99999,9",,,,,,,"10200,1,99999,9",,,,"MET047METAR ENSD 071750Z 14007KT CAVOK M11/M15 Q1020;",
"01320099999","2010-01-07T18:50:00","4","61.8333333","6.1166667","60.0","SANDANE ANDA, NO","FM-15","ENSD ","V020","130,1,N,0036,1","99999,9,9,Y","009900,1,N,1","-0110,1","-0160,1","99999,9",,,,,,,"10210,1,99999,9",,,,"MET047METAR ENSD 071850Z 13007KT CAVOK M11/M16 Q1021;",
"01320099999","2010-01-07T19:50:00","4","61.8333333","6.1166667","60.0","SANDANE ANDA, NO","FM-15","ENSD ","V020","150,1,N,0041,1","99999,9,9,Y","009900,1,N,1","-0110,1","-0160,1","99999,9",,,,,,,"10210,1,99999,9",,,,"MET047METAR ENSD 071950Z 15008KT CAVOK M11/M16 Q1021;",
"01320099999","2010-01-08T05:20:00","4","61.8333333","6.1166667","60.0","SANDANE ANDA, NO","FM-15","ENSD ","V020","150,1,N,0036,1","99999,9,9,Y","009900,1,N,1","-0120,1","-0180,1","99999,9",,,,,,,"10271,1,99999,9",,,,"MET047METAR ENSD 080520Z 15007KT CAVOK M12/M18 Q1027;",
"01320099999","2010-01-08T06:50:00","4","61.8333333","6.1166667","60.0","SANDANE ANDA, NO","FM-15","ENSD ","V020","150,1,N,0036,1","99999,9,9,Y","009900,1,N,1","-0120,1","-0180,1","99999,9",,,,,,,"10281,1,99999,9",,,,"MET047METAR ENSD 080650Z 15007KT CAVOK M12/M18 Q1028;",
"01320099999","2010-01-08T07:50:00","4","61.8333333","6.1166667","60.0","SANDANE ANDA, NO","FM-15","ENSD ","V020","140,1,N,0036,1","99999,9,9,Y","009900,1,N,1","-0120,1","-0170,1","99999,9",,,,,,,"10291,1,99999,9",,,,"MET047METAR ENSD 080750Z 14007KT CAVOK M12/M17 Q1029;",
"01320099999","2010-01-08T08:50:00","4","61.8333333","6.1166667","60.0","SANDANE ANDA, NO","FM-15","ENSD ","V020","140,1,N,0031,1","22000,1,9,N","011265,1,N,1","-0120,1","-0160,1","99999,9","02,5,+01200,1,99,9",,,,"02,99,1,99,9,99,9,99999,9,99,9,99,9",,"10291,1,99999,9",,,,"MET053METAR ENSD 080850Z 14006KT 9999 FEW040 M12/M16 Q1029;",
"01320099999","2010-01-08T09:50:00","4","61.8333333","6.1166667","60.0","SANDANE ANDA, NO","FM-15","ENSD ","V020","140,1,N,0046,1","22000,1,9,N","011265,1,N,1","-0120,1","-0160,1","99999,9","02,5,+01200,1,99,9",,,,"02,99,1,99,9,99,9,99999,9,99,9,99,9",,"10301,1,99999,9",,,,"MET053METAR ENSD 080950Z 14009KT 9999 FEW040 M12/M16 Q1030;",
"01320099999","2010-01-08T10:50:00","4","61.8333333","6.1166667","60.0","SANDANE ANDA, NO","FM-15","ENSD ","V020","140,1,N,0041,1","22000,1,9,N","011265,1,N,1","-0110,1","-0150,1","99999,9","02,5,+01200,1,99,9",,,,"02,99,1,99,9,99,9,99999,9,99,9,99,9",,"10301,1,99999,9",,,,"MET053METAR ENSD 081050Z 14008KT 9999 FEW040 M11/M15 Q1030;",
"01320099999","2010-01-08T11:50:00","4","61.8333333","6.1166667","60.0","SANDANE ANDA, NO","FM-15","ENSD ","V020","140,1,N,0036,1","22000,1,9,N","011265,1,N,1","-0110,1","-0150,1","99999,9","02,5,+01200,1,99,9",,,,"02,99,1,99,9,99,9,99999,9,99,9,99,9",,"10301,1,99999,9",,,,"MET053METAR ENSD 081150Z 14007KT 9999 FEW040 M11/M15 Q1030;",
"01320099999","2010-01-08T12:50:00","4","61.8333333","6.1166667","60.0","SANDANE ANDA, NO","FM-15","ENSD ","V020","150,1,N,0036,1","22000,1,9,N","011265,1,N,1","-0110,1","-0140,1","99999,9","02,5,+01200,1,99,9",,,,"02,99,1,99,9,99,9,99999,9,99,9,99,9",,"10312,1,99999,9",,,,"MET053METAR ENSD 081250Z 15007KT 9999 FEW040 M11/M14 Q1031;",
"01320099999","2010-01-08T13:50:00","4","61.8333333","6.1166667","60.0","SANDANE ANDA, NO","FM-15","ENSD ","V020","150,1,N,0041,1","22000,1,9,N","011265,1,N,1","-0110,1","-0150,1","99999,9","02,5,+01200,1,99,9",,,,"02,99,1,99,9,99,9,99999,9,99,9,99,9",,"10312,1,99999,9",,,,"MET053METAR ENSD 081350Z 15008KT 9999 FEW040 M11/M15 Q1031;",
"01320099999","2010-01-08T14:50:00","4","61.8333333","6.1166667","60.0","SANDANE ANDA, NO","FM-15","ENSD ","V020","140,1,N,0041,1","22000,1,9,N","011265,1,N,1","-0110,1","-0150,1","99999,9","02,5,+01200,1,99,9",,,,"02,99,1,99,9,99,9,99999,9,99,9,99,9",,"10318,1,99999,9",,,,"MET053METAR ENSD 081450Z 14008KT 9999 FEW040 M11/M15 Q1032;",
"01320099999","2010-01-08T15:50:00","4","61.8333333","6.1166667","60.0","SANDANE ANDA, NO","FM-15","ENSD ","V020","150,1,N,0031,1","22000,1,9,N","011265,1,N,1","-0110,1","-0150,1","99999,9","02,5,+01200,1,99,9",,,,"02,99,1,99,9,99,9,99999,9,99,9,99,9",,"10318,1,99999,9",,,,"MET053METAR ENSD 081550Z 15006KT 9999 FEW040 M11/M15 Q1032;",
"01320099999","2010-01-08T16:50:00","4","61.8333333","6.1166667","60.0","SANDANE ANDA, NO","FM-15","ENSD ","V020","140,1,N,0041,1","22000,1,9,N","011265,1,N,1","-0110,1","-0150,1","99999,9","02,5,+01200,1,99,9",,,,"02,99,1,99,9,99,9,99999,9,99,9,99,9",,"10329,1,99999,9",,,,"MET053METAR ENSD 081650Z 14008KT 9999 FEW040 M11/M15 Q1033;",
"01320099999","2010-01-08T17:50:00","4","61.8333333","6.1166667","60.0","SANDANE ANDA, NO","FM-15","ENSD ","V020","140,1,N,0041,1","22000,1,9,N","011265,1,N,1","-0110,1","-0150,1","99999,9","02,5,+01200,1,99,9",,,,"02,99,1,99,9,99,9,99999,9,99,9,99,9",,"10339,1,99999,9",,,,"MET053METAR ENSD 081750Z 14008KT 9999 FEW040 M11/M15 Q1034;",
"01320099999","2010-01-08T18:50:00","4","61.8333333","6.1166667","60.0","SANDANE ANDA, NO","FM-15","ENSD ","V020","140,1,N,0041,1","22000,1,9,N","011265,1,N,1","-0110,1","-0150,1","99999,9","02,5,+01200,1,99,9",,,,"02,99,1,99,9,99,9,99999,9,99,9,99,9",,"10339,1,99999,9",,,,"MET053METAR ENSD 081850Z 14008KT 9999 FEW040 M11/M15 Q1034;",
"01320099999","2010-01-08T19:50:00","4","61.8333333","6.1166667","60.0","SANDANE ANDA, NO","FM-15","ENSD ","V020","150,1,N,0036,1","22000,1,9,N","011265,1,N,1","-0110,1","-0140,1","99999,9","02,5,+01200,1,99,9",,,,"02,99,1,99,9,99,9,99999,9,99,9,99,9",,"10349,1,99999,9",,,,"MET053METAR ENSD 081950Z 15007KT 9999 FEW040 M11/M14 Q1035;",
"01320099999","2010-01-09T06:20:00","4","61.8333333","6.1166667","60.0","SANDANE ANDA, NO","FM-15","ENSD ","V020","140,1,N,0036,1","22000,1,9,N","011265,1,N,1","-0100,1","-0150,1","99999,9","02,5,+01200,1,99,9",,,,"02,99,1,99,9,99,9,99999,9,99,9,99,9",,"10379,1,99999,9",,,,"MET053METAR ENSD 090620Z 14007KT 9999 FEW040 M10/M15 Q1038;",
"01320099999","2010-01-09T06:50:00","4","61.8333333","6.1166667","60.0","SANDANE ANDA, NO","FM-15","ENSD ","V020","140,1,N,0036,1","22000,1,9,N","011265,1,N,1","-0100,1","-0150,1","99999,9","02,5,+01200,1,99,9",,,,"02,99,1,99,9,99,9,99999,9,99,9,99,9",,"10389,1,99999,9",,,,"MET053METAR ENSD 090650Z 14007KT 9999 FEW040 M10/M15 Q1039;",
"01320099999","2010-01-09T07:50:00","4","61.8333333","6.1166667","60.0","SANDANE ANDA, NO","FM-15","ENSD ","V020","150,1,N,0036,1","22000,1,9,N","011265,1,N,1","-0100,1","-0140,1","99999,9","02,5,+01200,1,99,9",,,,"02,99,1,99,9,99,9,99999,9,99,9,99,9",,"10389,1,99999,9",,,,"MET053METAR ENSD 090750Z 15007KT 9999 FEW040 M10/M14 Q1039;",
"01320099999","2010-01-09T08:50:00","4","61.8333333","6.1166667","60.0","SANDANE ANDA, NO","FM-15","ENSD ","V020","150,1,N,0026,1","22000,1,9,N","011265,1,N,1","-0100,1","-0150,1","99999,9","02,5,+01200,1,99,9",,,,"02,99,1,99,9,99,9,99999,9,99,9,99,9",,"10389,1,99999,9",,,,"MET053METAR ENSD 090850Z 15005KT 9999 FEW040 M10/M15 Q1039;",
"01320099999","2010-01-09T10:50:00","4","61.8333333","6.1166667","60.0","SANDANE ANDA, NO","FM-15","ENSD ","V020","150,1,N,0036,1","22000,1,9,N","011265,1,N,1","-0090,1","-0140,1","99999,9","02,5,+01200,1,99,9",,,,"02,99,1,99,9,99,9,99999,9,99,9,99,9",,"10400,1,99999,9",,,,"MET053METAR ENSD 091050Z 15007KT 9999 FEW040 M09/M14 Q1040;",
"01320099999","2010-01-09T11:50:00","4","61.8333333","6.1166667","60.0","SANDANE ANDA, NO","FM-15","ENSD ","V020","150,1,N,0036,1","22000,1,9,N","011265,1,N,1","-0090,1","-0130,1","99999,9","02,5,+01200,1,99,9",,,,"02,99,1,99,9,99,9,99999,9,99,9,99,9",,"10400,1,99999,9",,,,"MET053METAR ENSD 091150Z 15007KT 9999 FEW040 M09/M13 Q1040;",
"01320099999","2010-01-09T12:50:00","4","61.8333333","6.1166667","60.0","SANDANE ANDA, NO","FM-15","ENSD ","V020","150,1,N,0031,1","22000,1,9,N","011265,1,N,1","-0090,1","-0130,1","99999,9","02,5,+01200,1,99,9",,,,"02,99,1,99,9,99,9,99999,9,99,9,99,9",,"10400,1,99999,9",,,,"MET053METAR ENSD 091250Z 15006KT 9999 FEW040 M09/M13 Q1040;",
"01320099999","2010-01-09T13:50:00","4","61.8333333","6.1166667","60.0","SANDANE ANDA, NO","FM-15","ENSD ","V020","150,1,N,0036,1","99999,9,9,Y","009900,1,N,1","-0090,1","-0130,1","99999,9",,,,,,,"10400,1,99999,9",,,,"MET047METAR ENSD 091350Z 15007KT CAVOK M09/M13 Q1040;",
"01320099999","2010-01-10T09:50:00","4","61.8333333","6.1166667","60.0","SANDANE ANDA, NO","FM-15","ENSD ","V020","999,9,C,0000,1","22000,1,9,N","011265,1,N,1","-0090,1","-0130,1","99999,9","02,5,+00210,1,99,9",,,,"02,99,1,99,9,99,9,99999,9,99,9,99,9",,"10410,1,99999,9",,,,"MET053METAR ENSD 100950Z 00000KT 9999 FEW007 M09/M13 Q1041;",
"01320099999","2010-01-10T10:50:00","4","61.8333333","6.1166667","60.0","SANDANE ANDA, NO","FM-15","ENSD ","V020","140,1,N,0021,1","22000,1,9,N","011265,1,N,1","-0080,1","-0130,1","99999,9","02,5,+00300,1,99,9",,,,"02,99,1,99,9,99,9,99999,9,99,9,99,9",,"10410,1,99999,9",,,,"MET053METAR ENSD 101050Z 14004KT 9999 FEW010 M08/M13 Q1041;",
"01320099999","2010-01-10T11:50:00","4","61.8333333","6.1166667","60.0","SANDANE ANDA, NO","FM-15","ENSD ","V020","120,1,N,0015,1","22000,1,9,N","011265,1,N,1","-0080,1","-0120,1","99999,9","02,5,+00300,1,99,9",,,,"02,99,1,99,9,99,9,99999,9,99,9,99,9",,"10400,1,99999,9",,,,"MET053METAR ENSD 101150Z 12003KT 9999 FEW010 M08/M12 Q1040;",
"01320099999","2010-01-10T14:50:00","4","61.8333333","6.1166667","60.0","SANDANE ANDA, NO","FM-15","ENSD ","V020","140,1,N,0031,1","22000,1,9,N","011265,1,N,1","-0070,1","-0120,1","99999,9","02,5,+00900,1,99,9",,,,"02,99,1,99,9,99,9,99999,9,99,9,99,9",,"10389,1,99999,9",,,,"MET053METAR ENSD 101450Z 14006KT 9999 FEW030 M07/M12 Q1039;",
"01320099999","2010-01-10T15:50:00","4","61.8333333","6.1166667","60.0","SANDANE ANDA, NO","FM-15","ENSD ","V020","999,9,V,0005,1","22000,1,9,N","011265,1,N,1","-0080,1","-0120,1","99999,9","02,5,+00900,1,99,9",,,,"02,99,1,99,9,99,9,99999,9,99,9,99,9",,"10389,1,99999,9",,,,"MET053METAR ENSD 101550Z VRB01KT 9999 FEW030 M08/M12 Q1039;",
"01320099999","2010-01-10T16:50:00","4","61.8333333","6.1166667","60.0","SANDANE ANDA, NO","FM-15","ENSD ","V020","140,1,N,0021,1","22000,1,9,N","011265,1,N,1","-0080,1","-0110,1","99999,9","02,5,+00900,1,99,9",,,,"02,99,1,99,9,99,9,99999,9,99,9,99,9",,"10389,1,99999,9",,,,"MET053METAR ENSD 101650Z 14004KT 9999 FEW030 M08/M11 Q1039;",
"01320099999","2010-01-10T18:50:00","4","61.8333333","6.1166667","60.0","SANDANE ANDA, NO","FM-15","ENSD ","V020","999,9,C,0000,1","22000,1,9,N","011265,1,N,1","-0080,1","-0130,1","99999,9","02,5,+00900,1,99,9",,,,"02,99,1,99,9,99,9,99999,9,99,9,99,9",,"10389,1,99999,9",,,,"MET053METAR ENSD 101850Z 00000KT 9999 FEW030 M08/M13 Q1039;",
"01320099999","2010-01-10T19:50:00","4","61.8333333","6.1166667","60.0","SANDANE ANDA, NO","FM-15","ENSD ","V020","100,1,N,0015,1","22000,1,9,N","011265,1,N,1","-0080,1","-0130,1","99999,9","02,5,+00900,1,99,9",,,,"02,99,1,99,9,99,9,99999,9,99,9,99,9",,"10379,1,99999,9",,,,"MET053METAR ENSD 101950Z 10003KT 9999 FEW030 M08/M13 Q1038;",
"01320099999","2010-01-11T04:50:00","4","61.8333333","6.1166667","60.0","SANDANE ANDA, NO","FM-15","ENSD ","V020","130,1,N,0021,1","22000,1,9,N","011265,1,N,1","-0080,1","-0120,1","99999,9","02,5,+01200,1,99,9",,,,"02,99,1,99,9,99,9,99999,9,99,9,99,9",,"10349,1,99999,9",,,,"MET053METAR ENSD 110450Z 13004KT 9999 FEW040 M08/M12 Q1035;",
"01320099999","2010-01-11T06:50:00","4","61.8333333","6.1166667","60.0","SANDANE ANDA, NO","FM-15","ENSD ","V020","999,9,V,0010,1","22000,1,9,N","011265,1,N,1","-0090,1","-0130,1","99999,9","02,5,+01200,1,99,9",,,,"02,99,1,99,9,99,9,99999,9,99,9,99,9",,"10349,1,99999,9",,,,"MET053METAR ENSD 110650Z VRB02KT 9999 FEW040 M09/M13 Q1035;",
"01320099999","2010-01-11T07:50:00","4","61.8333333","6.1166667","60.0","SANDANE ANDA, NO","FM-15","ENSD ","V020","999,9,V,0005,1","99999,9,9,Y","009900,1,N,1","-0090,1","-0120,1","99999,9",,,,,,,"10339,1,99999,9",,,,"MET047METAR ENSD 110750Z VRB01KT CAVOK M09/M12 Q1034;",
"01320099999","2010-01-11T08:50:00","4","61.8333333","6.1166667","60.0","SANDANE ANDA, NO","FM-15","ENSD ","V020","110,1,N,0015,1","99999,9,9,Y","009900,1,N,1","-0090,1","-0120,1","99999,9",,,,,,,"10339,1,99999,9",,,,"MET047METAR ENSD 110850Z 11003KT CAVOK M09/M12 Q1034;",
"01320099999","2010-01-11T09:50:00","4","61.8333333","6.1166667","60.0","SANDANE ANDA, NO","FM-15","ENSD ","V020","999,9,C,0000,1","99999,9,9,Y","009900,1,N,1","-0080,1","-0140,1","99999,9",,,,,,,"10339,1,99999,9",,,,"MET047METAR ENSD 110950Z 00000KT CAVOK M08/M14 Q1034;",
"01320099999","2010-01-11T10:50:00","4","61.8333333","6.1166667","60.0","SANDANE ANDA, NO","FM-15","ENSD ","V020","120,1,N,0015,1","22000,1,9,N","011265,1,N,1","-0080,1","-0120,1","99999,9","02,5,+01200,1,99,9",,,,"02,99,1,99,9,99,9,99999,9,99,9,99,9",,"10339,1,99999,9",,,,"MET053METAR ENSD 111050Z 12003KT 9999 FEW040 M08/M12 Q1034;",
"01320099999","2010-01-11T11:50:00","4","61.8333333","6.1166667","60.0","SANDANE ANDA, NO","FM-15","ENSD ","V020","999,9,V,0005,1","99999,9,9,Y","009900,1,N,1","-0070,1","-0120,1","99999,9",,,,,,,"10329,1,99999,9",,,,"MET047METAR ENSD 111150Z VRB01KT CAVOK M07/M12 Q1033;",
"01320099999","2010-01-11T12:50:00","4","61.8333333","6.1166667","60.0","SANDANE ANDA, NO","FM-15","ENSD ","V020","999,9,V,0005,1","99999,9,9,Y","009900,1,N,1","-0060,1","-0120,1","99999,9",,,,,,,"10329,1,99999,9",,,,"MET047METAR ENSD 111250Z VRB01KT CAVOK M06/M12 Q1033;",
"01320099999","2010-01-11T13:50:00","4","61.8333333","6.1166667","60.0","SANDANE ANDA, NO","FM-15","ENSD ","V020","140,1,N,0036,1","99999,9,9,Y","009900,1,N,1","-0070,1","-0110,1","99999,9",,,,,,,"10318,1,99999,9",,,,"MET047METAR ENSD 111350Z 14007KT CAVOK M07/M11 Q1032;",
"01320099999","2010-01-11T14:50:00","4","61.8333333","6.1166667","60.0","SANDANE ANDA, NO","FM-15","ENSD ","V020","999,9,V,0005,1","99999,9,9,Y","009900,1,N,1","-0070,1","-0120,1","99999,9",,,,,,,"10318,1,99999,9",,,,"MET047METAR ENSD 111450Z VRB01KT CAVOK M07/M12 Q1032;",
"01320099999","2010-01-11T15:50:00","4","61.8333333","6.1166667","60.0","SANDANE ANDA, NO","FM-15","ENSD ","V020","140,1,N,0031,1","99999,9,9,Y","009900,1,N,1","-0070,1","-0110,1","99999,9",,,,,,,"10318,1,99999,9",,,,"MET047METAR ENSD 111550Z 14006KT CAVOK M07/M11 Q1032;",
"01320099999","2010-01-11T16:50:00","4","61.8333333","6.1166667","60.0","SANDANE ANDA, NO","FM-15","ENSD ","V020","999,9,C,0000,1","99999,9,9,Y","009900,1,N,1","-0080,1","-0120,1","99999,9",,,,,,,"10312,1,99999,9",,,,"MET047METAR ENSD 111650Z 00000KT CAVOK M08/M12 Q1031;",
"01320099999","2010-01-11T17:50:00","4","61.8333333","6.1166667","60.0","SANDANE ANDA, NO","FM-15","ENSD ","V020","999,9,V,0015,1","99999,9,9,Y","009900,1,N,1","-0080,1","-0110,1","99999,9",,,,,,,"10312,1,99999,9",,,,"MET047METAR ENSD 111750Z VRB03KT CAVOK M08/M11 Q1031;",
"01320099999","2010-01-11T18:50:00","4","61.8333333","6.1166667","60.0","SANDANE ANDA, NO","FM-15","ENSD ","V020","999,9,V,0005,1","99999,9,9,Y","009900,1,N,1","-0080,1","-0120,1","99999,9",,,,,,,"10312,1,99999,9",,,,"MET047METAR ENSD 111850Z VRB01KT CAVOK M08/M12 Q1031;",
"01320099999","2010-01-12T05:20:00","4","61.8333333","6.1166667","60.0","SANDANE ANDA, NO","FM-15","ENSD ","V020","999,9,V,0005,1","99999,9,9,Y","009900,1,N,1","-0080,1","-0100,1","99999,9",,,,,,,"10281,1,99999,9",,,,"MET047METAR ENSD 120520Z VRB01KT CAVOK M08/M10 Q1028;",
"01320099999","2010-01-12T06:50:00","4","61.8333333","6.1166667","60.0","SANDANE ANDA, NO","FM-15","ENSD ","V020","999,9,V,0005,1","99999,9,9,Y","009900,1,N,1","-0080,1","-0100,1","99999,9",,,,,,,"10271,1,99999,9",,,,"MET047METAR ENSD 120650Z VRB01KT CAVOK M08/M10 Q1027;",
"01320099999","2010-01-12T07:50:00","4","61.8333333","6.1166667","60.0","SANDANE ANDA, NO","FM-15","ENSD ","V020","999,9,V,0015,1","22000,1,9,N","011265,1,N,1","-0070,1","-0100,1","99999,9","02,5,+00210,1,99,9",,,,"02,99,1,99,9,99,9,99999,9,99,9,99,9",,"10271,1,99999,9",,,,"MET053METAR ENSD 120750Z VRB03KT 9999 FEW007 M07/M10 Q1027;",
"01320099999","2010-01-12T08:50:00","4","61.8333333","6.1166667","60.0","SANDANE ANDA, NO","FM-15","ENSD ","V020","999,9,V,0010,1","22000,1,9,N","011265,1,N,1","-0080,1","-0100,1","99999,9","04,5,+00240,1,99,9",,,,"04,99,1,99,9,99,9,99999,9,99,9,99,9",,"10271,1,99999,9",,,,"MET053METAR ENSD 120850Z VRB02KT 9999 SCT008 M08/M10 Q1027;",
"01320099999","2010-01-12T09:50:00","4","61.8333333","6.1166667","60.0","SANDANE ANDA, NO","FM-15","ENSD ","V020","999,9,V,0010,1","99999,9,C,N","011265,1,N,1","-0070,1","-0090,1","99999,9","02,5,+00180,1,99,9","04,5,+00300,1,99,9",,,"04,99,1,99,9,99,9,99999,9,99,9,99,9",,"10271,1,99999,9",,,,"MET060METAR ENSD 120950Z VRB02KT 9999 FEW006 SCT010 M07/M09 Q1027;","P01 003003SCOCIG"
"01320099999","2010-01-12T10:50:00","4","61.8333333","6.1166667","60.0","SANDANE ANDA, NO","FM-15","ENSD ","V020","999,9,C,0000,1","22000,1,9,N","011265,1,N,1","-0060,1","-0090,1","99999,9","04,5,+00300,1,99,9",,,,"04,99,1,99,9,99,9,99999,9,99,9,99,9",,"10261,1,99999,9",,,,"MET053METAR ENSD 121050Z 00000KT 9999 SCT010 M06/M09 Q1026;",
"01320099999","2010-01-12T11:50:00","4","61.8333333","6.1166667","60.0","SANDANE ANDA, NO","FM-15","ENSD ","V020","999,9,V,0005,1","99999,9,C,N","011265,1,N,1","-0060,1","-0080,1","99999,9","02,5,+00180,1,99,9","04,5,+00300,1,99,9",,,"04,99,1,99,9,99,9,99999,9,99,9,99,9",,"10261,1,99999,9",,,,"MET060METAR ENSD 121150Z VRB01KT 9999 FEW006 SCT010 M06/M08 Q1026;","P01 003003SCOCIG"
"01320099999","2010-01-12T12:50:00","4","61.8333333","6.1166667","60.0","SANDANE ANDA, NO","FM-15","ENSD ","V020","999,9,V,0005,1","99999,9,C,N","011265,1,N,1","-0050,1","-0080,1","99999,9","02,5,+00180,1,99,9","04,5,+00300,1,99,9",,,"04,99,1,99,9,99,9,99999,9,99,9,99,9",,"10251,1,99999,9",,,,"MET060METAR ENSD 121250Z VRB01KT 9999 FEW006 SCT010 M05/M08 Q1025;","P01 003003SCOCIG"
"01320099999","2010-01-12T14:50:00","4","61.8333333","6.1166667","60.0","SANDANE ANDA, NO","FM-15","ENSD ","V020","999,9,V,0005,1","99999,9,C,N","011265,1,N,1","-0060,1","-0090,1","99999,9","02,5,+00180,1,99,9","04,5,+00300,1,99,9",,,"04,99,1,99,9,99,9,99999,9,99,9,99,9",,"10240,1,99999,9",,,,"MET060METAR ENSD 121450Z VRB01KT 9999 FEW006 SCT010 M06/M09 Q1024;","P01 003003SCOCIG"
"01320099999","2010-01-12T15:50:00","4","61.8333333","6.1166667","60.0","SANDANE ANDA, NO","FM-15","ENSD ","V020","999,9,V,0010,1","22000,1,9,N","011265,1,N,1","-0060,1","-0080,1","99999,9","04,5,+00300,1,99,9",,,,"04,99,1,99,9,99,9,99999,9,99,9,99,9",,"10240,1,99999,9",,,,"MET053METAR ENSD 121550Z VRB02KT 9999 SCT010 M06/M08 Q1024;",
"01320099999","2010-01-12T16:50:00","4","61.8333333","6.1166667","60.0","SANDANE ANDA, NO","FM-15","ENSD ","V020","999,9,C,0000,1","22000,1,9,N","011265,1,N,1","-0070,1","-0100,1","99999,9","04,5,+00300,1,99,9",,,,"04,99,1,99,9,99,9,99999,9,99,9,99,9",,"10230,1,99999,9",,,,"MET053METAR ENSD 121650Z 00000KT 9999 SCT010 M07/M10 Q1023;",
"01320099999","2010-01-12T17:50:00","4","61.8333333","6.1166667","60.0","SANDANE ANDA, NO","FM-15","ENSD ","V020","999,9,V,0005,1","22000,1,9,N","011265,1,N,1","-0070,1","-0100,1","99999,9","04,5,+00300,1,99,9",,,,"04,99,1,99,9,99,9,99999,9,99,9,99,9",,"10230,1,99999,9",,,,"MET053METAR ENSD 121750Z VRB01KT 9999 SCT010 M07/M10 Q1023;",
"01320099999","2010-01-12T18:50:00","4","61.8333333","6.1166667","60.0","SANDANE ANDA, NO","FM-15","ENSD ","V020","999,9,C,0000,1","22000,1,9,N","011265,1,N,1","-0070,1","-0090,1","99999,9","02,5,+00300,1,99,9",,,,"02,99,1,99,9,99,9,99999,9,99,9,99,9",,"10230,1,99999,9",,,,"MET053METAR ENSD 121850Z 00000KT 9999 FEW010 M07/M09 Q1023;",
"01320099999","2010-01-12T19:50:00","4","61.8333333","6.1166667","60.0","SANDANE ANDA, NO","FM-15","ENSD ","V020","999,9,V,0005,1","22000,1,9,N","011265,1,N,1","-0070,1","-0090,1","99999,9","02,5,+00300,1,99,9",,,,"02,99,1,99,9,99,9,99999,9,99,9,99,9",,"10230,1,99999,9",,,,"MET053METAR ENSD 121950Z VRB01KT 9999 FEW010 M07/M09 Q1023;",
"01320099999","2010-01-13T05:20:00","4","61.8333333","6.1166667","60.0","SANDANE ANDA, NO","FM-15","ENSD ","V020","999,9,C,0000,1","22000,1,9,N","011265,1,N,1","-0070,1","-0090,1","99999,9","02,5,+00300,1,99,9",,,,"02,99,1,99,9,99,9,99999,9,99,9,99,9",,"10200,1,99999,9",,,,"MET053METAR ENSD 130520Z 00000KT 9999 FEW010 M07/M09 Q1020;",
"01320099999","2010-01-13T05:50:00","4","61.8333333","6.1166667","60.0","SANDANE ANDA, NO","FM-15","ENSD ","V020","999,9,C,0000,1","22000,1,9,N","011265,1,N,1","-0070,1","-0090,1","99999,9","02,5,+00300,1,99,9",,,,"02,99,1,99,9,99,9,99999,9,99,9,99,9",,"10190,1,99999,9",,,,"MET053METAR ENSD 130550Z 00000KT 9999 FEW010 M07/M09 Q1019;",
"01320099999","2010-01-13T06:50:00","4","61.8333333","6.1166667","60.0","SANDANE ANDA, NO","FM-15","ENSD ","V020","999,9,V,0005,1","22000,1,9,N","011265,1,N,1","-0060,1","-0080,1","99999,9","02,5,+00300,1,99,9",,,,"02,99,1,99,9,99,9,99999,9,99,9,99,9",,"10190,1,99999,9",,,,"MET053METAR ENSD 130650Z VRB01KT 9999 FEW010 M06/M08 Q1019;",
"01320099999","2010-01-13T07:20:00","4","61.8333333","6.1166667","60.0","SANDANE ANDA, NO","FM-15","ENSD ","V020","999,9,V,0005,1","99999,9,C,N","011265,1,N,1","-0060,1","-0080,1","99999,9","02,5,+00150,1,99,9","04,5,+00300,1,99,9",,,"04,99,1,99,9,99,9,99999,9,99,9,99,9",,"10190,1,99999,9",,,,"MET060METAR ENSD 130720Z VRB01KT 9999 FEW005 SCT010 M06/M08 Q1019;","P01 003003SCOCIG"
"01320099999","2010-01-13T07:50:00","4","61.8333333","6.1166667","60.0","SANDANE ANDA, NO","FM-15","ENSD ","V020","999,9,V,0005,1","00180,1,C,N","011265,1,N,1","-0060,1","-0080,1","99999,9","07,5,+00180,1,99,9",,,,"07,99,1,99,9,99,9,99999,9,99,9,99,9",,"10190,1,99999,9",,,,"MET053METAR ENSD 130750Z VRB01KT 9999 BKN006 M06/M08 Q1019;",
"01320099999","2010-01-13T08:50:00","4","61.8333333","6.1166667","60.0","SANDANE ANDA, NO","FM-15","ENSD ","V020","999,9,V,0005,1","99999,9,C,N","011265,1,N,1","-0060,1","-0080,1","99999,9","02,5,+00120,1,99,9","04,5,+00180,1,99,9",,,"04,99,1,99,9,99,9,99999,9,99,9,99,9",,"10200,1,99999,9",,,,"MET060METAR ENSD 130850Z VRB01KT 9999 FEW004 SCT006 M06/M08 Q1020;","P01 001803SCOCIG"
"01320099999","2010-01-13T09:50:00","4","61.8333333","6.1166667","60.0","SANDANE ANDA, NO","FM-15","ENSD ","V020","999,9,V,0005,1","99999,9,C,N","011265,1,N,1","-0060,1","-0080,1","99999,9","02,5,+00120,1,99,9","04,5,+00180,1,99,9",,,"04,99,1,99,9,99,9,99999,9,99,9,99,9",,"10200,1,99999,9",,,,"MET060METAR ENSD 130950Z VRB01KT 9999 FEW004 SCT006 M06/M08 Q1020;","P01 001803SCOCIG"
"01320099999","2010-01-13T10:50:00","4","61.8333333","6.1166667","60.0","SANDANE ANDA, NO","FM-15","ENSD ","V020","999,9,V,0005,1","22000,1,9,N","011265,1,N,1","-0060,1","-0080,1","99999,9","04,5,+00180,1,99,9",,,,"04,99,1,99,9,99,9,99999,9,99,9,99,9",,"10200,1,99999,9",,,,"MET053METAR ENSD 131050Z VRB01KT 9999 SCT006 M06/M08 Q1020;",
"01320099999","2010-01-13T11:50:00","4","61.8333333","6.1166667","60.0","SANDANE ANDA, NO","FM-15","ENSD ","V020","999,9,V,0005,1","22000,1,9,N","011265,1,N,1","-0060,1","-0080,1","99999,9","02,5,+00180,1,99,9",,,,"02,99,1,99,9,99,9,99999,9,99,9,99,9",,"10200,1,99999,9",,,,"MET053METAR ENSD 131150Z VRB01KT 9999 FEW006 M06/M08 Q1020;",
"01320099999","2010-01-13T12:50:00","4","61.8333333","6.1166667","60.0","SANDANE ANDA, NO","FM-15","ENSD ","V020","999,9,V,0005,1","22000,1,9,N","011265,1,N,1","-0050,1","-0070,1","99999,9","02,5,+00180,1,99,9",,,,"02,99,1,99,9,99,9,99999,9,99,9,99,9",,"10190,1,99999,9",,,,"MET053METAR ENSD 131250Z VRB01KT 9999 FEW006 M05/M07 Q1019;",
"01320099999","2010-01-13T13:50:00","4","61.8333333","6.1166667","60.0","SANDANE ANDA, NO","FM-15","ENSD ","V020","999,9,V,0005,1","22000,1,9,N","011265,1,N,1","-0050,1","-0070,1","99999,9","02,5,+00180,1,99,9",,,,"02,99,1,99,9,99,9,99999,9,99,9,99,9",,"10180,1,99999,9",,,,"MET053METAR ENSD 131350Z VRB01KT 9999 FEW006 M05/M07 Q1018;",
"01320099999","2010-01-13T14:50:00","4","61.8333333","6.1166667","60.0","SANDANE ANDA, NO","FM-15","ENSD ","V020","999,9,V,0005,1","22000,1,9,N","011265,1,N,1","-0060,1","-0080,1","99999,9","02,5,+00180,1,99,9",,,,"02,99,1,99,9,99,9,99999,9,99,9,99,9",,"10180,1,99999,9",,,,"MET053METAR ENSD 131450Z VRB01KT 9999 FEW006 M06/M08 Q1018;",
"01320099999","2010-01-13T16:50:00","4","61.8333333","6.1166667","60.0","SANDANE ANDA, NO","FM-15","ENSD ","V020","999,9,V,0005,1","22000,1,9,N","011265,1,N,1","-0060,1","-0080,1","99999,9","04,5,+00180,1,99,9",,,,"04,99,1,99,9,99,9,99999,9,99,9,99,9",,"10180,1,99999,9",,,,"MET053METAR ENSD 131650Z VRB01KT 9999 SCT006 M06/M08 Q1018;",
"01320099999","2010-01-13T17:50:00","4","61.8333333","6.1166667","60.0","SANDANE ANDA, NO","FM-15","ENSD ","V020","999,9,C,0000,1","22000,1,9,N","011265,1,N,1","-0060,1","-0080,1","99999,9","02,5,+00180,1,99,9",,,,"02,99,1,99,9,99,9,99999,9,99,9,99,9",,"10169,1,99999,9",,,,"MET053METAR ENSD 131750Z 00000KT 9999 FEW006 M06/M08 Q1017;",
"01320099999","2010-01-13T18:50:00","4","61.8333333","6.1166667","60.0","SANDANE ANDA, NO","FM-15","ENSD ","V020","999,9,C,0000,1","22000,1,9,N","011265,1,N,1","-0060,1","-0080,1","99999,9","02,5,+00180,1,99,9",,,,"02,99,1,99,9,99,9,99999,9,99,9,99,9",,"10169,1,99999,9",,,,"MET053METAR ENSD 131850Z 00000KT 9999 FEW006 M06/M08 Q1017;",
"01320099999","2010-01-13T19:50:00","4","61.8333333","6.1166667","60.0","SANDANE ANDA, NO","FM-15","ENSD ","V020","999,9,C,0000,1","22000,1,9,N","011265,1,N,1","-0060,1","-0080,1","99999,9","02,5,+00210,1,99,9",,,,"02,99,1,99,9,99,9,99999,9,99,9,99,9",,"10169,1,99999,9",,,,"MET053METAR ENSD 131950Z 00000KT 9999 FEW007 M06/M08 Q1017;",
"01320099999","2010-01-14T05:20:00","4","61.8333333","6.1166667","60.0","SANDANE ANDA, NO","FM-15","ENSD ","V020","999,9,V,0005,1","22000,1,9,N","011265,1,N,1","-0050,1","-0070,1","99999,9","02,5,+00180,1,99,9",,,,"02,99,1,99,9,99,9,99999,9,99,9,99,9",,"10149,1,99999,9",,,,"MET053METAR ENSD 140520Z VRB01KT 9999 FEW006 M05/M07 Q1015;",
"01320099999","2010-01-14T07:20:00","4","61.8333333","6.1166667","60.0","SANDANE ANDA, NO","FM-15","ENSD ","V020","999,9,C,0000,1","99999,9,9,Y","009900,1,N,1","-0040,1","-0070,1","99999,9",,,,,,,"10149,1,99999,9",,,,"MET047METAR ENSD 140720Z 00000KT CAVOK M04/M07 Q1015;",
"01320099999","2010-01-14T07:50:00","4","61.8333333","6.1166667","60.0","SANDANE ANDA, NO","FM-15","ENSD ","V020","999,9,V,0015,1","99999,9,9,Y","009900,1,N,1","-0050,1","-0070,1","99999,9",,,,,,,"10149,1,99999,9",,,,"MET047METAR ENSD 140750Z VRB03KT CAVOK M05/M07 Q1015;",
"01320099999","2010-01-14T08:50:00","4","61.8333333","6.1166667","60.0","SANDANE ANDA, NO","FM-15","ENSD ","V020","999,9,V,0005,1","99999,9,9,Y","009900,1,N,1","-0040,1","-0060,1","99999,9",,,,,,,"10159,1,99999,9",,,,"MET047METAR ENSD 140850Z VRB01KT CAVOK M04/M06 Q1016;",
"01320099999","2010-01-14T09:50:00","4","61.8333333","6.1166667","60.0","SANDANE ANDA, NO","FM-15","ENSD ","V020","999,9,V,0005,1","99999,9,9,Y","009900,1,N,1","-0040,1","-0070,1","99999,9",,,,,,,"10159,1,99999,9",,,,"MET047METAR ENSD 140950Z VRB01KT CAVOK M04/M07 Q1016;",
"01320099999","2010-01-14T10:50:00","4","61.8333333","6.1166667","60.0","SANDANE ANDA, NO","FM-15","ENSD ","V020","999,9,V,0010,1","99999,9,9,Y","009900,1,N,1","-0030,1","-0060,1","99999,9",,,,,,,"10159,1,99999,9",,,,"MET047METAR ENSD 141050Z VRB02KT CAVOK M03/M06 Q1016;",
"01320099999","2010-01-14T11:50:00","4","61.8333333","6.1166667","60.0","SANDANE ANDA, NO","FM-15","ENSD ","V020","999,9,V,0005,1","99999,9,9,Y","009900,1,N,1","-0030,1","-0060,1","99999,9",,,,,,,"10159,1,99999,9",,,,"MET047METAR ENSD 141150Z VRB01KT CAVOK M03/M06 Q1016;",
"01320099999","2010-01-14T12:50:00","4","61.8333333","6.1166667","60.0","SANDANE ANDA, NO","FM-15","ENSD ","V020","999,9,V,0005,1","99999,9,9,Y","009900,1,N,1","-0020,1","-0050,1","99999,9",,,,,,,"10149,1,99999,9",,,,"MET047METAR ENSD 141250Z VRB01KT CAVOK M02/M05 Q1015;",
"01320099999","2010-01-14T13:50:00","4","61.8333333","6.1166667","60.0","SANDANE ANDA, NO","FM-15","ENSD ","V020","999,9,C,0000,1","99999,9,9,Y","009900,1,N,1","-0030,1","-0060,1","99999,9",,,,,,,"10149,1,99999,9",,,,"MET047METAR ENSD 141350Z 00000KT CAVOK M03/M06 Q1015;",
"01320099999","2010-01-14T14:50:00","4","61.8333333","6.1166667","60.0","SANDANE ANDA, NO","FM-15","ENSD ","V020","999,9,V,0005,1","99999,9,9,Y","009900,1,N,1","-0040,1","-0060,1","99999,9",,,,,,,"10159,1,99999,9",,,,"MET047METAR ENSD 141450Z VRB01KT CAVOK M04/M06 Q1016;",
"01320099999","2010-01-14T15:50:00","4","61.8333333","6.1166667","60.0","SANDANE ANDA, NO","FM-15","ENSD ","V020","999,9,C,0000,1","99999,9,9,Y","009900,1,N,1","-0040,1","-0060,1","99999,9",,,,,,,"10159,1,99999,9",,,,"MET047METAR ENSD 141550Z 00000KT CAVOK M04/M06 Q1016;",
"01320099999","2010-01-14T17:50:00","4","61.8333333","6.1166667","60.0","SANDANE ANDA, NO","FM-15","ENSD ","V020","999,9,C,0000,1","99999,9,9,Y","009900,1,N,1","-0050,1","-0070,1","99999,9",,,,,,,"10159,1,99999,9",,,,"MET047METAR ENSD 141750Z 00000KT CAVOK M05/M07 Q1016;",
"01320099999","2010-01-14T18:50:00","4","61.8333333","6.1166667","60.0","SANDANE ANDA, NO","FM-15","ENSD ","V020","999,9,C,0000,1","99999,9,9,Y","009900,1,N,1","-0040,1","-0080,1","99999,9",,,,,,,"10159,1,99999,9",,,,"MET047METAR ENSD 141850Z 00000KT CAVOK M04/M08 Q1016;",
"01320099999","2010-01-14T19:50:00","4","61.8333333","6.1166667","60.0","SANDANE ANDA, NO","FM-15","ENSD ","V020","999,9,C,0000,1","99999,9,9,Y","009900,1,N,1","-0050,1","-0070,1","99999,9",,,,,,,"10159,1,99999,9",,,,"MET047METAR ENSD 141950Z 00000KT CAVOK M05/M07 Q1016;",
"01320099999","2010-01-15T04:50:00","4","61.8333333","6.1166667","60.0","SANDANE ANDA, NO","FM-15","ENSD ","V020","999,9,V,0005,1","22000,1,9,N","011265,1,N,1","-0050,1","-0070,1","99999,9","02,5,+01200,1,99,9",,,,"02,99,1,99,9,99,9,99999,9,99,9,99,9",,"10180,1,99999,9",,,,"MET053METAR ENSD 150450Z VRB01KT 9999 FEW040 M05/M07 Q1018;",
"01320099999","2010-01-15T05:50:00","4","61.8333333","6.1166667","60.0","SANDANE ANDA, NO","FM-15","ENSD ","V020","999,9,V,0005,1","22000,1,9,N","011265,1,N,1","-0040,1","-0070,1","99999,9","02,5,+01200,1,99,9",,,,"02,99,1,99,9,99,9,99999,9,99,9,99,9",,"10180,1,99999,9",,,,"MET053METAR ENSD 150550Z VRB01KT 9999 FEW040 M04/M07 Q1018;",
"01320099999","2010-01-15T06:50:00","4","61.8333333","6.1166667","60.0","SANDANE ANDA, NO","FM-15","ENSD ","V020","999,9,V,0005,1","22000,1,9,N","011265,1,N,1","-0050,1","-0080,1","99999,9","02,5,+01200,1,99,9",,,,"02,99,1,99,9,99,9,99999,9,99,9,99,9",,"10190,1,99999,9",,,,"MET053METAR ENSD 150650Z VRB01KT 9999 FEW040 M05/M08 Q1019;",
"01320099999","2010-01-15T07:50:00","4","61.8333333","6.1166667","60.0","SANDANE ANDA, NO","FM-15","ENSD ","V020","999,9,V,0010,1","99999,9,9,Y","009900,1,N,1","-0050,1","-0070,1","99999,9",,,,,,,"10190,1,99999,9",,,,"MET047METAR ENSD 150750Z VRB02KT CAVOK M05/M07 Q1019;",
"01320099999","2010-01-15T08:50:00","4","61.8333333","6.1166667","60.0","SANDANE ANDA, NO","FM-15","ENSD ","V020","999,9,V,0005,1","22000,1,9,N","011265,1,N,1","-0050,1","-0080,1","99999,9","02,5,+01200,1,99,9",,,,"02,99,1,99,9,99,9,99999,9,99,9,99,9",,"10200,1,99999,9",,,,"MET053METAR ENSD 150850Z VRB01KT 9999 FEW040 M05/M08 Q1020;",
"01320099999","2010-01-15T09:50:00","4","61.8333333","6.1166667","60.0","SANDANE ANDA, NO","FM-15","ENSD ","V020","999,9,V,0010,1","22000,1,9,N","011265,1,N,1","-0040,1","-0080,1","99999,9","02,5,+01200,1,99,9",,,,"02,99,1,99,9,99,9,99999,9,99,9,99,9",,"10200,1,99999,9",,,,"MET053METAR ENSD 150950Z VRB02KT 9999 FEW040 M04/M08 Q1020;",
"01320099999","2010-01-15T10:50:00","4","61.8333333","6.1166667","60.0","SANDANE ANDA, NO","FM-15","ENSD ","V020","999,9,V,0005,1","22000,1,9,N","011265,1,N,1","-0040,1","-0080,1","99999,9","02,5,+01200,1,99,9",,,,"02,99,1,99,9,99,9,99999,9,99,9,99,9",,"10200,1,99999,9",,,,"MET053METAR ENSD 151050Z VRB01KT 9999 FEW040 M04/M08 Q1020;",
"01320099999","2010-01-15T11:50:00","4","61.8333333","6.1166667","60.0","SANDANE ANDA, NO","FM-15","ENSD ","V020","999,9,V,0005,1","22000,1,9,N","011265,1,N,1","-0040,1","-0070,1","99999,9","02,5,+01200,1,99,9",,,,"02,99,1,99,9,99,9,99999,9,99,9,99,9",,"10200,1,99999,9",,,,"MET053METAR ENSD 151150Z VRB01KT 9999 FEW040 M04/M07 Q1020;",
"01320099999","2010-01-15T12:50:00","4","61.8333333","6.1166667","60.0","SANDANE ANDA, NO","FM-15","ENSD ","V020","999,9,V,0005,1","22000,1,9,N","011265,1,N,1","-0030,1","-0060,1","99999,9","02,5,+01200,1,99,9",,,,"02,99,1,99,9,99,9,99999,9,99,9,99,9",,"10200,1,99999,9",,,,"MET053METAR ENSD 151250Z VRB01KT 9999 FEW040 M03/M06 Q1020;",
"01320099999","2010-01-15T13:50:00","4","61.8333333","6.1166667","60.0","SANDANE ANDA, NO","FM-15","ENSD ","V020","999,9,C,0000,1","22000,1,9,N","011265,1,N,1","-0030,1","-0070,1","99999,9","02,5,+01200,1,99,9",,,,"02,99,1,99,9,99,9,99999,9,99,9,99,9",,"10190,1,99999,9",,,,"MET053METAR ENSD 151350Z 00000KT 9999 FEW040 M03/M07 Q1019;",
"01320099999","2010-01-15T14:50:00","4","61.8333333","6.1166667","60.0","SANDANE ANDA, NO","FM-15","ENSD ","V020","999,9,C,0000,1","22000,1,9,N","011265,1,N,1","-0030,1","-0070,1","99999,9","02,5,+01500,1,99,9",,,,"02,99,1,99,9,99,9,99999,9,99,9,99,9",,"10190,1,99999,9",,,,"MET053METAR ENSD 151450Z 00000KT 9999 FEW050 M03/M07 Q1019;",
"01320099999","2010-01-15T15:50:00","4","61.8333333","6.1166667","60.0","SANDANE ANDA, NO","FM-15","ENSD ","V020","999,9,V,0005,1","22000,1,9,N","011265,1,N,1","-0030,1","-0060,1","99999,9","02,5,+01500,1,99,9",,,,"02,99,1,99,9,99,9,99999,9,99,9,99,9",,"10200,1,99999,9",,,,"MET053METAR ENSD 151550Z VRB01KT 9999 FEW050 M03/M06 Q1020;",
"01320099999","2010-01-15T16:50:00","4","61.8333333","6.1166667","60.0","SANDANE ANDA, NO","FM-15","ENSD ","V020","999,9,C,0000,1","22000,1,9,N","011265,1,N,1","-0030,1","-0070,1","99999,9","02,5,+01500,1,99,9",,,,"02,99,1,99,9,99,9,99999,9,99,9,99,9",,"10200,1,99999,9",,,,"MET053METAR ENSD 151650Z 00000KT 9999 FEW050 M03/M07 Q1020;",
"01320099999","2010-01-15T18:50:00","4","61.8333333","6.1166667","60.0","SANDANE ANDA, NO","FM-15","ENSD ","V020","999,9,V,0005,1","99999,9,9,Y","009900,1,N,1","-0030,1","-0080,1","99999,9",,,,,,,"10190,1,99999,9",,,,"MET047METAR ENSD 151850Z VRB01KT CAVOK M03/M08 Q1019;",
"01320099999","2010-01-15T19:50:00","4","61.8333333","6.1166667","60.0","SANDANE ANDA, NO","FM-15","ENSD ","V020","999,9,V,0015,1","99999,9,9,Y","009900,1,N,1","-0010,1","-0060,1","99999,9",,,,,,,"10190,1,99999,9",,,,"MET047METAR ENSD 151950Z VRB03KT CAVOK M01/M06 Q1019;",
"01320099999","2010-01-16T06:20:00","4","61.8333333","6.1166667","60.0","SANDANE ANDA, NO","FM-15","ENSD ","V020","999,9,V,0010,1","99999,9,9,Y","009900,1,N,1","+0020,1","-0060,1","99999,9",,,,,,,"10159,1,99999,9",,,,"MET046METAR ENSD 160620Z VRB02KT CAVOK 02/M06 Q1016;",
"01320099999","2010-01-16T06:50:00","4","61.8333333","6.1166667","60.0","SANDANE ANDA, NO","FM-15","ENSD ","V020","060,1,N,0026,1","99999,9,9,Y","009900,1,N,1","+0020,1","-0050,1","99999,9",,,,,,,"10159,1,99999,9",,,,"MET046METAR ENSD 160650Z 06005KT CAVOK 02/M05 Q1016;",
"01320099999","2010-01-16T08:50:00","4","61.8333333","6.1166667","60.0","SANDANE ANDA, NO","FM-15","ENSD ","V020","999,9,V,0010,1","99999,9,9,Y","009900,1,N,1","+0050,1","-0070,1","99999,9",,,,,,,"10159,1,99999,9",,,,"MET046METAR ENSD 160850Z VRB02KT CAVOK 05/M07 Q1016;",
"01320099999","2010-01-16T09:50:00","4","61.8333333","6.1166667","60.0","SANDANE ANDA, NO","FM-15","ENSD ","V020","999,9,V,0015,1","99999,9,9,Y","009900,1,N,1","+0040,1","-0080,1","99999,9",,,,,,,"10149,1,99999,9",,,,"MET046METAR ENSD 160950Z VRB03KT CAVOK 04/M08 Q1015;",
"01320099999","2010-01-16T10:50:00","4","61.8333333","6.1166667","60.0","SANDANE ANDA, NO","FM-15","ENSD ","V020","110,1,N,0026,1","99999,9,9,Y","009900,1,N,1","+0050,1","-0080,1","99999,9",,,,,,,"10149,1,99999,9",,,,"MET054METAR ENSD 161050Z 11005KT 050V200 CAVOK 05/M08 Q1015;",
"01320099999","2010-01-16T11:50:00","4","61.8333333","6.1166667","60.0","SANDANE ANDA, NO","FM-15","ENSD ","V020","999,9,V,0015,1","99999,9,9,Y","009900,1,N,1","+0040,1","-0080,1","99999,9",,,,,,,"10149,1,99999,9",,,,"MET046METAR ENSD 161150Z VRB03KT CAVOK 04/M08 Q1015;",
"01320099999","2010-01-16T12:50:00","4","61.8333333","6.1166667","60.0","SANDANE ANDA, NO","FM-15","ENSD ","V020","080,1,N,0026,1","99999,9,9,Y","009900,1,N,1","+0050,1","-0100,1","99999,9",,,,,,,"10139,1,99999,9",,,,"MET054METAR ENSD 161250Z 08005KT 020V150 CAVOK 05/M10 Q1014;",
"01320099999","2010-01-16T13:50:00","4","61.8333333","6.1166667","60.0","SANDANE ANDA, NO","FM-15","ENSD ","V020","120,1,N,0041,1","99999,9,9,Y","009900,1,N,1","+0050,1","-0100,1","99999,9",,,,,,,"10139,1,99999,9",,,,"MET054METAR ENSD 161350Z 12008KT 080V160 CAVOK 05/M10 Q1014;",
"01320099999","2010-01-17T09:50:00","4","61.8333333","6.1166667","60.0","SANDANE ANDA, NO","FM-15","ENSD ","V020","050,1,N,0026,1","01350,1,C,N","011265,1,N,1","+0040,1","-0080,1","99999,9","04,5,+01050,1,99,9","07,5,+01350,1,99,9",,,"07,99,1,99,9,99,9,99999,9,99,9,99,9",,"10119,1,99999,9","16,1",,,"MET072METAR ENSD 170950Z 05005KT 010V160 9999 VCSH SCT035 BKN045 04/M08 Q1012;",
"01320099999","2010-01-17T10:50:00","4","61.8333333","6.1166667","60.0","SANDANE ANDA, NO","FM-15","ENSD ","V020","060,1,N,0021,1","01350,1,C,N","011265,1,N,1","+0030,1","-0070,1","99999,9","02,5,+01050,1,99,9","07,5,+01350,1,99,9",,,"07,99,1,99,9,99,9,99999,9,99,9,99,9",,"10119,1,99999,9",,,,"MET067METAR ENSD 171050Z 06004KT 350V150 9999 FEW035 BKN045 03/M07 Q1012;",
"01320099999","2010-01-17T11:50:00","4","61.8333333","6.1166667","60.0","SANDANE ANDA, NO","FM-15","ENSD ","V020","060,1,N,0026,1","01350,1,C,N","011265,1,N,1","+0030,1","-0080,1","99999,9","02,5,+00900,1,99,9","07,5,+01350,1,99,9",,,"07,99,1,99,9,99,9,99999,9,99,9,99,9",,"10129,1,99999,9",,,,"MET072METAR ENSD 171150Z 06005KT 350V150 9999 VCHS FEW030 BKN045 03/M08 Q1013;",
"01320099999","2010-01-17T14:50:00","4","61.8333333","6.1166667","60.0","SANDANE ANDA, NO","FM-15","ENSD ","V020","999,9,V,0015,1","01500,1,C,N","011265,1,N,1","+0030,1","-0050,1","99999,9","02,5,+01050,1,99,9","07,5,+01500,1,99,9",,,"07,99,1,99,9,99,9,99999,9,99,9,99,9",,"10149,1,99999,9",,,,"MET059METAR ENSD 171450Z VRB03KT 9999 FEW035 BKN050 03/M05 Q1015;",
"01320099999","2010-01-17T15:50:00","4","61.8333333","6.1166667","60.0","SANDANE ANDA, NO","FM-15","ENSD ","V020","999,9,V,0015,1","01800,1,C,N","011265,1,N,1","+0020,1","-0060,1","99999,9","04,5,+01200,1,99,9","07,5,+01800,1,99,9",,,"07,99,1,99,9,99,9,99999,9,99,9,99,9",,"10149,1,99999,9",,,,"MET059METAR ENSD 171550Z VRB03KT 9999 SCT040 BKN060 02/M06 Q1015;",
"01320099999","2010-01-17T16:50:00","4","61.8333333","6.1166667","60.0","SANDANE ANDA, NO","FM-15","ENSD ","V020","999,9,V,0015,1","01800,1,C,N","011265,1,N,1","+0020,1","-0070,1","99999,9","04,5,+01200,1,99,9","07,5,+01800,1,99,9",,,"07,99,1,99,9,99,9,99999,9,99,9,99,9",,"10149,1,99999,9",,,,"MET059METAR ENSD 171650Z VRB03KT 9999 SCT040 BKN060 02/M07 Q1015;",
"01320099999","2010-01-17T17:50:00","4","61.8333333","6.1166667","60.0","SANDANE ANDA, NO","FM-15","ENSD ","V020","999,9,V,0005,1","01650,5,C,N","011265,1,N,1","+0020,1","-0090,1","99999,9","04,5,+01200,1,99,9","07,5,+01650,5,99,9",,,"07,99,1,99,9,99,9,99999,9,99,9,99,9",,"10159,1,99999,9",,,,"MET059METAR ENSD 171750Z VRB01KT 9999 SCT040 BKN055 02/M09 Q1016;",
"01320099999","2010-01-17T19:20:00","4","61.8333333","6.1166667","60.0","SANDANE ANDA, NO","FM-15","ENSD ","V020","999,9,V,0010,1","01650,5,C,N","011265,1,N,1","+0020,1","-0090,1","99999,9","04,5,+01200,1,99,9","07,5,+01650,5,99,9",,,"07,99,1,99,9,99,9,99999,9,99,9,99,9",,"10169,1,99999,9",,,,"MET059METAR ENSD 171920Z VRB02KT 9999 SCT040 BKN055 02/M09 Q1017;",
"01320099999","2010-01-17T19:50:00","4","61.8333333","6.1166667","60.0","SANDANE ANDA, NO","FM-15","ENSD ","V020","080,1,N,0015,1","01650,5,C,N","011265,1,N,1","+0020,1","-0100,1","99999,9","04,5,+01200,1,99,9","07,5,+01650,5,99,9",,,"07,99,1,99,9,99,9,99999,9,99,9,99,9",,"10169,1,99999,9",,,,"MET059METAR ENSD 171950Z 08003KT 9999 SCT040 BKN055 02/M10 Q1017;",
"01320099999","2010-01-18T05:20:00","4","61.8333333","6.1166667","60.0","SANDANE ANDA, NO","FM-15","ENSD ","V020","999,9,V,0010,1","22000,1,9,N","011265,1,N,1","+0010,1","-0090,1","99999,9","04,5,+01650,5,99,9",,,,"04,99,1,99,9,99,9,99999,9,99,9,99,9",,"10180,1,99999,9",,,,"MET052METAR ENSD 180520Z VRB02KT 9999 SCT055 01/M09 Q1018;",
"01320099999","2010-01-18T05:50:00","4","61.8333333","6.1166667","60.0","SANDANE ANDA, NO","FM-15","ENSD ","V020","999,9,V,0005,1","22000,1,9,N","011265,1,N,1","+0010,1","-0090,1","99999,9","04,5,+01650,5,99,9",,,,"04,99,1,99,9,99,9,99999,9,99,9,99,9",,"10180,1,99999,9",,,,"MET052METAR ENSD 180550Z VRB01KT 9999 SCT055 01/M09 Q1018;",
"01320099999","2010-01-18T06:50:00","4","61.8333333","6.1166667","60.0","SANDANE ANDA, NO","FM-15","ENSD ","V020","999,9,V,0010,1","01500,1,C,N","011265,1,N,1","+0010,1","-0100,1","99999,9","07,5,+01500,1,99,9",,,,"07,99,1,99,9,99,9,99999,9,99,9,99,9",,"10169,1,99999,9",,,,"MET052METAR ENSD 180650Z VRB02KT 9999 BKN050 01/M10 Q1017;",
"01320099999","2010-01-18T07:50:00","4","61.8333333","6.1166667","60.0","SANDANE ANDA, NO","FM-15","ENSD ","V020","999,9,V,0010,1","22000,1,9,N","011265,1,N,1","+0010,1","-0100,1","99999,9","04,5,+01500,1,99,9",,,,"04,99,1,99,9,99,9,99999,9,99,9,99,9",,"10180,1,99999,9",,,,"MET052METAR ENSD 180750Z VRB02KT 9999 SCT050 01/M10 Q1018;",
"01320099999","2010-01-18T08:50:00","4","61.8333333","6.1166667","60.0","SANDANE ANDA, NO","FM-15","ENSD ","V020","999,9,V,0010,1","22000,1,9,N","011265,1,N,1","+0010,1","-0110,1","99999,9","04,5,+01800,1,99,9",,,,"04,99,1,99,9,99,9,99999,9,99,9,99,9",,"10180,1,99999,9",,,,"MET052METAR ENSD 180850Z VRB02KT 9999 SCT060 01/M11 Q1018;",
"01320099999","2010-01-18T09:50:00","4","61.8333333","6.1166667","60.0","SANDANE ANDA, NO","FM-15","ENSD ","V020","999,9,V,0015,1","22000,1,9,N","011265,1,N,1","+0000,1","-0110,1","99999,9","02,5,+01800,1,99,9",,,,"02,99,1,99,9,99,9,99999,9,99,9,99,9",,"10180,1,99999,9",,,,"MET052METAR ENSD 180950Z VRB03KT 9999 FEW060 00/M11 Q1018;",
"01320099999","2010-01-18T10:50:00","4","61.8333333","6.1166667","60.0","SANDANE ANDA, NO","FM-15","ENSD ","V020","999,9,V,0010,1","99999,9,9,Y","009900,1,N,1","+0010,1","-0110,1","99999,9",,,,,,,"10180,1,99999,9",,,,"MET046METAR ENSD 181050Z VRB02KT CAVOK 01/M11 Q1018;",
"01320099999","2010-01-18T11:50:00","4","61.8333333","6.1166667","60.0","SANDANE ANDA, NO","FM-15","ENSD ","V020","999,9,V,0010,1","99999,9,9,Y","009900,1,N,1","+0010,1","-0100,1","99999,9",,,,,,,"10180,1,99999,9",,,,"MET046METAR ENSD 181150Z VRB02KT CAVOK 01/M10 Q1018;",
"01320099999","2010-01-18T12:50:00","4","61.8333333","6.1166667","60.0","SANDANE ANDA, NO","FM-15","ENSD ","V020","100,1,N,0015,1","22000,1,9,N","011265,1,N,1","+0010,1","-0100,1","99999,9","02,5,+01800,1,99,9",,,,"02,99,1,99,9,99,9,99999,9,99,9,99,9",,"10180,1,99999,9",,,,"MET052METAR ENSD 181250Z 10003KT 9999 FEW060 01/M10 Q1018;",
"01320099999","2010-01-18T13:50:00","4","61.8333333","6.1166667","60.0","SANDANE ANDA, NO","FM-15","ENSD ","V020","120,1,N,0015,1","02400,1,C,N","011265,1,N,1","+0010,1","-0100,1","99999,9","07,5,+02400,1,99,9",,,,"07,99,1,99,9,99,9,99999,9,99,9,99,9",,"10180,1,99999,9",,,,"MET052METAR ENSD 181350Z 12003KT 9999 BKN080 01/M10 Q1018;",
"01320099999","2010-01-18T14:50:00","4","61.8333333","6.1166667","60.0","SANDANE ANDA, NO","FM-15","ENSD ","V020","120,1,N,0021,1","02400,1,C,N","011265,1,N,1","+0010,1","-0090,1","99999,9","02,5,+01200,1,99,9","07,5,+02400,1,99,9",,,"07,99,1,99,9,99,9,99999,9,99,9,99,9",,"10190,1,99999,9","16,1",,,"MET064METAR ENSD 181450Z 12004KT 9999 VCSH FEW040 BKN080 01/M09 Q1019;",
"01320099999","2010-01-18T15:50:00","4","61.8333333","6.1166667","60.0","SANDANE ANDA, NO","FM-15","ENSD ","V020","080,1,N,0041,1","01200,1,C,N","011265,1,N,1","+0010,1","-0070,1","99999,9","02,5,+00900,1,99,9","04,5,+01200,1,99,9","07,5,+01800,1,99,9",,"07,99,1,99,9,99,9,99999,9,99,9,99,9",,"10190,1,99999,9","16,1",,,"MET071METAR ENSD 181550Z 08008KT 9999 VCSH FEW030 SCT040 BKN060 01/M07 Q1019;",
"01320099999","2010-01-18T16:50:00","4","61.8333333","6.1166667","60.0","SANDANE ANDA, NO","FM-15","ENSD ","V020","070,1,N,0051,1","01200,1,C,N","011265,1,N,1","+0000,1","-0060,1","99999,9","02,5,+00900,1,99,9","04,5,+01200,1,99,9","07,5,+01800,1,99,9",,"07,99,1,99,9,99,9,99999,9,99,9,99,9",,"10190,1,99999,9","16,1",,,"MET071METAR ENSD 181650Z 07010KT 9999 VCSH FEW030 SCT040 BKN060 00/M06 Q1019;",
"01320099999","2010-01-18T17:50:00","4","61.8333333","6.1166667","60.0","SANDANE ANDA, NO","FM-15","ENSD ","V020","070,1,N,0046,1","01200,1,C,N","011265,1,N,1","+0010,1","-0060,1","99999,9","02,5,+00900,1,99,9","04,5,+01200,1,99,9","07,5,+01800,1,99,9",,"07,99,1,99,9,99,9,99999,9,99,9,99,9",,"10200,1,99999,9","16,1",,,"MET071METAR ENSD 181750Z 07009KT 9999 VCSH FEW030 SCT040 BKN060 01/M06 Q1020;",
"01320099999","2010-01-18T18:50:00","4","61.8333333","6.1166667","60.0","SANDANE ANDA, NO","FM-15","ENSD ","V020","090,1,N,0031,1","01200,1,C,N","011265,1,N,1","+0010,1","-0060,1","99999,9","02,5,+00900,1,99,9","04,5,+01200,1,99,9","07,5,+01800,1,99,9",,"07,99,1,99,9,99,9,99999,9,99,9,99,9",,"10210,1,99999,9","16,1",,,"MET071METAR ENSD 181850Z 09006KT 9999 VCSH FEW030 SCT040 BKN060 01/M06 Q1021;",
"01320099999","2010-01-18T19:50:00","4","61.8333333","6.1166667","60.0","SANDANE ANDA, NO","FM-15","ENSD ","V020","080,1,N,0046,1","01200,1,C,N","011265,1,N,1","+0010,1","-0050,1","99999,9","02,5,+00900,1,99,9","04,5,+01200,1,99,9","07,5,+01350,1,99,9",,"07,99,1,99,9,99,9,99999,9,99,9,99,9",,"10210,1,99999,9","85,5",,,"MET072METAR ENSD 181950Z 08009KT 9999 -SHSN FEW030 SCT040 BKN045 01/M05 Q1021;",
"01320099999","2010-01-19T04:50:00","4","61.8333333","6.1166667","60.0","SANDANE ANDA, NO","FM-15","ENSD ","V020","060,1,N,0041,1","22000,1,9,N","011265,1,N,1","+0000,1","-0020,1","99999,9","02,5,+01200,1,99,9",,,,"02,99,1,99,9,99,9,99999,9,99,9,99,9",,"10251,1,99999,9",,,,"MET052METAR ENSD 190450Z 06008KT 9999 FEW040 00/M02 Q1025;",
"01320099999","2010-01-19T05:20:00","4","61.8333333","6.1166667","60.0","SANDANE ANDA, NO","FM-15","ENSD ","V020","060,1,N,0026,1","22000,1,9,N","011265,1,N,1","+0000,1","-0030,1","99999,9","02,5,+01200,1,99,9",,,,"02,99,1,99,9,99,9,99999,9,99,9,99,9",,"10251,1,99999,9",,,,"MET053METAR ENSD 190520Z 06005KT 9999 FEW040 M00/M03 Q1025;",
"01320099999","2010-01-19T05:50:00","4","61.8333333","6.1166667","60.0","SANDANE ANDA, NO","FM-15","ENSD ","V020","070,1,N,0031,1","22000,1,9,N","011265,1,N,1","+0000,1","-0030,1","99999,9","02,5,+01200,1,99,9",,,,"02,99,1,99,9,99,9,99999,9,99,9,99,9",,"10251,1,99999,9",,,,"MET053METAR ENSD 190550Z 07006KT 9999 FEW040 M00/M03 Q1025;",
"01320099999","2010-01-19T06:50:00","4","61.8333333","6.1166667","60.0","SANDANE ANDA, NO","FM-15","ENSD ","V020","080,1,N,0021,1","22000,1,9,N","011265,1,N,1","+0000,1","-0030,1","99999,9","02,5,+01200,1,99,9",,,,"02,99,1,99,9,99,9,99999,9,99,9,99,9",,"10261,1,99999,9",,,,"MET052METAR ENSD 190650Z 08004KT 9999 FEW040 00/M03 Q1026;",
"01320099999","2010-01-19T08:50:00","4","61.8333333","6.1166667","60.0","SANDANE ANDA, NO","FM-15","ENSD ","V020","070,1,N,0031,1","01350,1,C,N","011265,1,N,1","+0000,1","-0020,1","99999,9","02,5,+00300,1,99,9","07,5,+01350,1,99,9",,,"07,99,1,99,9,99,9,99999,9,99,9,99,9",,"10271,1,99999,9",,,,"MET059METAR ENSD 190850Z 07006KT 9999 FEW010 BKN045 00/M02 Q1027;",
"01320099999","2010-01-19T09:50:00","4","61.8333333","6.1166667","60.0","SANDANE ANDA, NO","FM-15","ENSD ","V020","070,1,N,0036,1","01350,1,C,N","011265,1,N,1","+0060,1","-0020,1","99999,9","02,5,+00300,1,99,9","07,5,+01350,1,99,9",,,"07,99,1,99,9,99,9,99999,9,99,9,99,9",,"10271,1,99999,9",,,,"MET059METAR ENSD 190950Z 07007KT 9999 FEW010 BKN045 06/M02 Q1027;",
"01320099999","2010-01-19T10:50:00","4","61.8333333","6.1166667","60.0","SANDANE ANDA, NO","FM-15","ENSD ","V020","080,1,N,0021,1","01500,1,C,N","011265,1,N,1","+0010,1","-0020,1","99999,9","02,5,+00300,1,99,9","07,5,+01500,1,99,9",,,"07,99,1,99,9,99,9,99999,9,99,9,99,9",,"10281,1,99999,9",,,,"MET059METAR ENSD 191050Z 08004KT 9999 FEW010 BKN050 01/M02 Q1028;",
"01320099999","2010-01-19T11:50:00","4","61.8333333","6.1166667","60.0","SANDANE ANDA, NO","FM-15","ENSD ","V020","080,1,N,0021,1","01500,1,C,N","011265,1,N,1","+0010,1","-0020,1","99999,9","02,5,+00900,1,99,9","07,5,+01500,1,99,9",,,"07,99,1,99,9,99,9,99999,9,99,9,99,9",,"10281,1,99999,9",,,,"MET059METAR ENSD 191150Z 08004KT 9999 FEW030 BKN050 01/M02 Q1028;",
"01320099999","2010-01-19T12:50:00","4","61.8333333","6.1166667","60.0","SANDANE ANDA, NO","FM-15","ENSD ","V020","999,9,V,0010,1","01500,1,C,N","011265,1,N,1","+0010,1","-0020,1","99999,9","07,5,+01500,1,99,9",,,,"07,99,1,99,9,99,9,99999,9,99,9,99,9",,"10281,1,99999,9",,,,"MET052METAR ENSD 191250Z VRB02KT 9999 BKN050 01/M02 Q1028;",
"01320099999","2010-01-19T13:50:00","4","61.8333333","6.1166667","60.0","SANDANE ANDA, NO","FM-15","ENSD ","V020","070,1,N,0026,1","01500,1,C,N","011265,1,N,1","+0000,1","-0030,1","99999,9","07,5,+01500,1,99,9",,,,"07,99,1,99,9,99,9,99999,9,99,9,99,9",,"10281,1,99999,9",,,,"MET052METAR ENSD 191350Z 07005KT 9999 BKN050 00/M03 Q1028;",
"01320099999","2010-01-19T14:50:00","4","61.8333333","6.1166667","60.0","SANDANE ANDA, NO","FM-15","ENSD ","V020","080,1,N,0031,1","01500,1,C,N","011265,1,N,1","+0010,1","-0020,1","99999,9","07,5,+01500,1,99,9",,,,"07,99,1,99,9,99,9,99999,9,99,9,99,9",,"10281,1,99999,9",,,,"MET052METAR ENSD 191450Z 08006KT 9999 BKN050 01/M02 Q1028;",
"01320099999","2010-01-19T15:50:00","4","61.8333333","6.1166667","60.0","SANDANE ANDA, NO","FM-15","ENSD ","V020","070,1,N,0015,1","22000,1,9,N","011265,1,N,1","+0000,1","-0030,1","99999,9","04,5,+01500,1,99,9",,,,"04,99,1,99,9,99,9,99999,9,99,9,99,9",,"10291,1,99999,9",,,,"MET052METAR ENSD 191550Z 07003KT 9999 SCT050 00/M03 Q1029;",
"01320099999","2010-01-19T16:50:00","4","61.8333333","6.1166667","60.0","SANDANE ANDA, NO","FM-15","ENSD ","V020","999,9,V,0005,1","22000,1,9,N","011265,1,N,1","-0010,1","-0030,1","99999,9","04,5,+01500,1,99,9",,,,"04,99,1,99,9,99,9,99999,9,99,9,99,9",,"10291,1,99999,9",,,,"MET053METAR ENSD 191650Z VRB01KT 9999 SCT050 M01/M03 Q1029;",
"01320099999","2010-01-19T17:50:00","4","61.8333333","6.1166667","60.0","SANDANE ANDA, NO","FM-15","ENSD ","V020","999,9,V,0005,1","22000,1,9,N","011265,1,N,1","-0010,1","-0030,1","99999,9","04,5,+01500,1,99,9",,,,"04,99,1,99,9,99,9,99999,9,99,9,99,9",,"10291,1,99999,9",,,,"MET053METAR ENSD 191750Z VRB01KT 9999 SCT050 M01/M03 Q1029;",
"01320099999","2010-01-19T18:50:00","4","61.8333333","6.1166667","60.0","SANDANE ANDA, NO","FM-15","ENSD ","V020","999,9,C,0000,1","01350,1,C,N","011265,1,N,1","+0000,1","-0030,1","99999,9","07,5,+01350,1,99,9",,,,"07,99,1,99,9,99,9,99999,9,99,9,99,9",,"10291,1,99999,9",,,,"MET053METAR ENSD 191850Z 00000KT 9999 BKN045 M00/M03 Q1029;",
"01320099999","2010-01-19T19:50:00","4","61.8333333","6.1166667","60.0","SANDANE ANDA, NO","FM-15","ENSD ","V020","999,9,C,0000,1","01350,1,C,N","011265,1,N,1","-0010,1","-0030,1","99999,9","07,5,+01350,1,99,9",,,,"07,99,1,99,9,99,9,99999,9,99,9,99,9",,"10291,1,99999,9",,,,"MET053METAR ENSD 191950Z 00000KT 9999 BKN045 M01/M03 Q1029;",
"01320099999","2010-01-20T05:20:00","4","61.8333333","6.1166667","60.0","SANDANE ANDA, NO","FM-15","ENSD ","V020","140,1,N,0026,1","22000,1,9,N","011265,1,N,1","-0020,1","-0040,1","99999,9","04,5,+01500,1,99,9",,,,"04,99,1,99,9,99,9,99999,9,99,9,99,9",,"10281,1,99999,9",,,,"MET053METAR ENSD 200520Z 14005KT 9999 SCT050 M02/M04 Q1028;",
"01320099999","2010-01-20T06:50:00","4","61.8333333","6.1166667","60.0","SANDANE ANDA, NO","FM-15","ENSD ","V020","999,9,V,0005,1","99999,9,C,N","011265,1,N,1","-0040,1","-0050,1","99999,9","02,5,+00240,1,99,9","04,5,+01500,1,99,9",,,"04,99,1,99,9,99,9,99999,9,99,9,99,9",,"10281,1,99999,9",,,,"MET060METAR ENSD 200650Z VRB01KT 9999 FEW008 SCT050 M04/M05 Q1028;","P01 015003SCOCIG"
"01320099999","2010-01-20T07:50:00","4","61.8333333","6.1166667","60.0","SANDANE ANDA, NO","FM-15","ENSD ","V020","999,9,V,0005,1","22000,1,9,N","011265,1,N,1","-0040,1","-0050,1","99999,9","02,5,+00300,1,99,9",,,,"02,99,1,99,9,99,9,99999,9,99,9,99,9",,"10281,1,99999,9",,,,"MET053METAR ENSD 200750Z VRB01KT 9999 FEW010 M04/M05 Q1028;",
"01320099999","2010-01-20T08:50:00","4","61.8333333","6.1166667","60.0","SANDANE ANDA, NO","FM-15","ENSD ","V020","999,9,V,0005,1","22000,1,9,N","011265,1,N,1","-0040,1","-0060,1","99999,9","02,5,+00300,1,99,9",,,,"02,99,1,99,9,99,9,99999,9,99,9,99,9",,"10281,1,99999,9",,,,"MET053METAR ENSD 200850Z VRB01KT 9999 FEW010 M04/M06 Q1028;",
"01320099999","2010-01-20T10:20:00","4","61.8333333","6.1166667","60.0","SANDANE ANDA, NO","FM-15","ENSD ","V020","999,9,V,0005,1","22000,1,9,N","011265,1,N,1","-0040,1","-0060,1","99999,9","02,5,+00300,1,99,9",,,,"02,99,1,99,9,99,9,99999,9,99,9,99,9",,"10281,1,99999,9",,,,"MET053METAR ENSD 201020Z VRB01KT 9999 FEW010 M04/M06 Q1028;",
"01320099999","2010-01-20T10:50:00","4","61.8333333","6.1166667","60.0","SANDANE ANDA, NO","FM-15","ENSD ","V020","999,9,V,0005,1","22000,1,9,N","011265,1,N,1","-0040,1","-0060,1","99999,9","02,5,+00450,1,99,9",,,,"02,99,1,99,9,99,9,99999,9,99,9,99,9",,"10281,1,99999,9",,,,"MET053METAR ENSD 201050Z VRB01KT 9999 FEW015 M04/M06 Q1028;",
"01320099999","2010-01-20T11:50:00","4","61.8333333","6.1166667","60.0","SANDANE ANDA, NO","FM-15","ENSD ","V020","999,9,V,0010,1","99999,9,9,Y","009900,1,N,1","-0020,1","-0040,1","99999,9",,,,,,,"10271,1,99999,9",,,,"MET047METAR ENSD 201150Z VRB02KT CAVOK M02/M04 Q1027;",
"01320099999","2010-01-20T12:50:00","4","61.8333333","6.1166667","60.0","SANDANE ANDA, NO","FM-15","ENSD ","V020","999,9,V,0010,1","99999,9,9,Y","009900,1,N,1","-0020,1","-0050,1","99999,9",,,,,,,"10271,1,99999,9",,,,"MET047METAR ENSD 201250Z VRB02KT CAVOK M02/M05 Q1027;",
"01320099999","2010-01-20T13:50:00","4","61.8333333","6.1166667","60.0","SANDANE ANDA, NO","FM-15","ENSD ","V020","999,9,V,0010,1","99999,9,9,Y","009900,1,N,1","-0030,1","-0050,1","99999,9",,,,,,,"10271,1,99999,9",,,,"MET047METAR ENSD 201350Z VRB02KT CAVOK M03/M05 Q1027;",
"01320099999","2010-01-20T14:50:00","4","61.8333333","6.1166667","60.0","SANDANE ANDA, NO","FM-15","ENSD ","V020","999,9,V,0005,1","99999,9,9,Y","009900,1,N,1","-0030,1","-0060,1","99999,9",,,,,,,"10271,1,99999,9",,,,"MET047METAR ENSD 201450Z VRB01KT CAVOK M03/M06 Q1027;",
"01320099999","2010-01-20T15:50:00","4","61.8333333","6.1166667","60.0","SANDANE ANDA, NO","FM-15","ENSD ","V020","999,9,V,0010,1","99999,9,9,Y","009900,1,N,1","-0040,1","-0060,1","99999,9",,,,,,,"10281,1,99999,9",,,,"MET047METAR ENSD 201550Z VRB02KT CAVOK M04/M06 Q1028;",
"01320099999","2010-01-20T16:50:00","4","61.8333333","6.1166667","60.0","SANDANE ANDA, NO","FM-15","ENSD ","V020","999,9,V,0005,1","99999,9,9,Y","009900,1,N,1","-0030,1","-0060,1","99999,9",,,,,,,"10281,1,99999,9",,,,"MET047METAR ENSD 201650Z VRB01KT CAVOK M03/M06 Q1028;",
"01320099999","2010-01-20T17:50:00","4","61.8333333","6.1166667","60.0","SANDANE ANDA, NO","FM-15","ENSD ","V020","999,9,V,0005,1","99999,9,9,Y","009900,1,N,1","-0040,1","-0060,1","99999,9",,,,,,,"10281,1,99999,9",,,,"MET047METAR ENSD 201750Z VRB01KT CAVOK M04/M06 Q1028;",
"01320099999","2010-01-20T18:50:00","4","61.8333333","6.1166667","60.0","SANDANE ANDA, NO","FM-15","ENSD ","V020","999,9,C,0000,1","22000,1,9,N","011265,1,N,1","-0040,1","-0060,1","99999,9","02,5,+01200,1,99,9",,,,"02,99,1,99,9,99,9,99999,9,99,9,99,9",,"10281,1,99999,9",,,,"MET053METAR ENSD 201850Z 00000KT 9999 FEW040 M04/M06 Q1028;",
"01320099999","2010-01-20T19:50:00","4","61.8333333","6.1166667","60.0","SANDANE ANDA, NO","FM-15","ENSD ","V020","999,9,C,0000,1","22000,1,9,N","011265,1,N,1","-0040,1","-0070,1","99999,9","02,5,+01200,1,99,9",,,,"02,99,1,99,9,99,9,99999,9,99,9,99,9",,"10271,1,99999,9",,,,"MET053METAR ENSD 201950Z 00000KT 9999 FEW040 M04/M07 Q1027;",
"01320099999","2010-01-21T05:20:00","4","61.8333333","6.1166667","60.0","SANDANE ANDA, NO","FM-15","ENSD ","V020","999,9,V,0010,1","22000,1,9,N","011265,1,N,1","-0030,1","-0090,1","99999,9","02,5,+01200,1,99,9",,,,"02,99,1,99,9,99,9,99999,9,99,9,99,9",,"10291,1,99999,9",,,,"MET053METAR ENSD 210520Z VRB02KT 9999 FEW040 M03/M09 Q1029;",
"01320099999","2010-01-21T05:50:00","4","61.8333333","6.1166667","60.0","SANDANE ANDA, NO","FM-15","ENSD ","V020","140,1,N,0015,1","22000,1,9,N","011265,1,N,1","-0020,1","-0070,1","99999,9","02,5,+01200,1,99,9",,,,"02,99,1,99,9,99,9,99999,9,99,9,99,9",,"10291,1,99999,9",,,,"MET053METAR ENSD 210550Z 14003KT 9999 FEW040 M02/M07 Q1029;",
"01320099999","2010-01-21T06:50:00","4","61.8333333","6.1166667","60.0","SANDANE ANDA, NO","FM-15","ENSD ","V020","090,1,N,0021,1","22000,1,9,N","011265,1,N,1","-0010,1","-0110,1","99999,9","02,5,+01200,1,99,9",,,,"02,99,1,99,9,99,9,99999,9,99,9,99,9",,"10291,1,99999,9",,,,"MET053METAR ENSD 210650Z 09004KT 9999 FEW040 M01/M11 Q1029;",
"01320099999","2010-01-21T07:50:00","4","61.8333333","6.1166667","60.0","SANDANE ANDA, NO","FM-15","ENSD ","V020","999,9,V,0005,1","22000,1,9,N","011265,1,N,1","-0030,1","-0110,1","99999,9","02,5,+01200,1,99,9",,,,"02,99,1,99,9,99,9,99999,9,99,9,99,9",,"10301,1,99999,9",,,,"MET053METAR ENSD 210750Z VRB01KT 9999 FEW040 M03/M11 Q1030;",
"01320099999","2010-01-21T08:50:00","4","61.8333333","6.1166667","60.0","SANDANE ANDA, NO","FM-15","ENSD ","V020","120,1,N,0015,1","22000,1,9,N","011265,1,N,1","-0020,1","-0120,1","99999,9","02,5,+01200,1,99,9",,,,"02,99,1,99,9,99,9,99999,9,99,9,99,9",,"10301,1,99999,9",,,,"MET053METAR ENSD 210850Z 12003KT 9999 FEW040 M02/M12 Q1030;",
"01320099999","2010-01-21T09:50:00","4","61.8333333","6.1166667","60.0","SANDANE ANDA, NO","FM-15","ENSD ","V020","999,9,V,0010,1","22000,1,9,N","011265,1,N,1","-0030,1","-0120,1","99999,9","02,5,+01200,1,99,9",,,,"02,99,1,99,9,99,9,99999,9,99,9,99,9",,"10301,1,99999,9",,,,"MET053METAR ENSD 210950Z VRB02KT 9999 FEW040 M03/M12 Q1030;",
"01320099999","2010-01-21T10:50:00","4","61.8333333","6.1166667","60.0","SANDANE ANDA, NO","FM-15","ENSD ","V020","999,9,V,0005,1","99999,9,9,Y","009900,1,N,1","-0020,1","-0110,1","99999,9",,,,,,,"10301,1,99999,9",,,,"MET047METAR ENSD 211050Z VRB01KT CAVOK M02/M11 Q1030;",
"01320099999","2010-01-21T11:50:00","4","61.8333333","6.1166667","60.0","SANDANE ANDA, NO","FM-15","ENSD ","V020","999,9,C,0000,1","99999,9,9,Y","009900,1,N,1","-0020,1","-0080,1","99999,9",,,,,,,"10301,1,99999,9",,,,"MET047METAR ENSD 211150Z 00000KT CAVOK M02/M08 Q1030;",
"01320099999","2010-01-21T12:50:00","4","61.8333333","6.1166667","60.0","SANDANE ANDA, NO","FM-15","ENSD ","V020","999,9,C,0000,1","99999,9,9,Y","009900,1,N,1","-0010,1","-0080,1","99999,9",,,,,,,"10301,1,99999,9",,,,"MET047METAR ENSD 211250Z 00000KT CAVOK M01/M08 Q1030;",
"01320099999","2010-01-21T13:50:00","4","61.8333333","6.1166667","60.0","SANDANE ANDA, NO","FM-15","ENSD ","V020","999,9,V,0005,1","99999,9,9,Y","009900,1,N,1","-0030,1","-0100,1","99999,9",,,,,,,"10301,1,99999,9",,,,"MET047METAR ENSD 211350Z VRB01KT CAVOK M03/M10 Q1030;",
"01320099999","2010-01-21T14:50:00","4","61.8333333","6.1166667","60.0","SANDANE ANDA, NO","FM-15","ENSD ","V020","999,9,C,0000,1","99999,9,9,Y","009900,1,N,1","-0030,1","-0090,1","99999,9",,,,,,,"10301,1,99999,9",,,,"MET047METAR ENSD 211450Z 00000KT CAVOK M03/M09 Q1030;",
"01320099999","2010-01-21T15:50:00","4","61.8333333","6.1166667","60.0","SANDANE ANDA, NO","FM-15","ENSD ","V020","999,9,V,0010,1","99999,9,9,Y","009900,1,N,1","-0030,1","-0110,1","99999,9",,,,,,,"10301,1,99999,9",,,,"MET047METAR ENSD 211550Z VRB02KT CAVOK M03/M11 Q1030;",
"01320099999","2010-01-21T16:50:00","4","61.8333333","6.1166667","60.0","SANDANE ANDA, NO","FM-15","ENSD ","V020","120,1,N,0021,1","99999,9,9,Y","009900,1,N,1","-0030,1","-0100,1","99999,9",,,,,,,"10301,1,99999,9",,,,"MET047METAR ENSD 211650Z 12004KT CAVOK M03/M10 Q1030;",
"01320099999","2010-01-21T17:50:00","4","61.8333333","6.1166667","60.0","SANDANE ANDA, NO","FM-15","ENSD ","V020","120,1,N,0021,1","99999,9,9,Y","009900,1,N,1","-0020,1","-0100,1","99999,9",,,,,,,"10291,1,99999,9",,,,"MET047METAR ENSD 211750Z 12004KT CAVOK M02/M10 Q1029;",
"01320099999","2010-01-21T18:50:00","4","61.8333333","6.1166667","60.0","SANDANE ANDA, NO","FM-15","ENSD ","V020","999,9,V,0010,1","99999,9,9,Y","009900,1,N,1","-0040,1","-0110,1","99999,9",,,,,,,"10301,1,99999,9",,,,"MET047METAR ENSD 211850Z VRB02KT CAVOK M04/M11 Q1030;",
"01320099999","2010-01-21T19:50:00","4","61.8333333","6.1166667","60.0","SANDANE ANDA, NO","FM-15","ENSD ","V020","999,9,V,0015,1","99999,9,9,Y","009900,1,N,1","-0030,1","-0110,1","99999,9",,,,,,,"10301,1,99999,9",,,,"MET047METAR ENSD 211950Z VRB03KT CAVOK M03/M11 Q1030;",
"01320099999","2010-01-22T05:20:00","4","61.8333333","6.1166667","60.0","SANDANE ANDA, NO","FM-15","ENSD ","V020","120,1,N,0015,1","99999,9,9,Y","009900,1,N,1","-0030,1","-0100,1","99999,9",,,,,,,"10271,1,99999,9",,,,"MET047METAR ENSD 220520Z 12003KT CAVOK M03/M10 Q1027;",
"01320099999","2010-01-22T05:50:00","4","61.8333333","6.1166667","60.0","SANDANE ANDA, NO","FM-15","ENSD ","V020","120,1,N,0021,1","99999,9,9,Y","009900,1,N,1","-0010,1","-0110,1","99999,9",,,,,,,"10271,1,99999,9",,,,"MET047METAR ENSD 220550Z 12004KT CAVOK M01/M11 Q1027;",
"01320099999","2010-01-22T06:50:00","4","61.8333333","6.1166667","60.0","SANDANE ANDA, NO","FM-15","ENSD ","V020","120,1,N,0021,1","99999,9,9,Y","009900,1,N,1","+0000,1","-0110,1","99999,9",,,,,,,"10271,1,99999,9",,,,"MET046METAR ENSD 220650Z 12004KT CAVOK 00/M11 Q1027;",
"01320099999","2010-01-22T07:50:00","4","61.8333333","6.1166667","60.0","SANDANE ANDA, NO","FM-15","ENSD ","V020","160,1,N,0021,1","99999,9,9,Y","009900,1,N,1","+0000,1","-0110,1","99999,9",,,,,,,"10271,1,99999,9",,,,"MET047METAR ENSD 220750Z 16004KT CAVOK M00/M11 Q1027;",
"01320099999","2010-01-22T09:50:00","4","61.8333333","6.1166667","60.0","SANDANE ANDA, NO","FM-15","ENSD ","V020","999,9,V,0015,1","99999,9,9,Y","009900,1,N,1","+0000,1","-0110,1","99999,9",,,,,,,"10271,1,99999,9",,,,"MET047METAR ENSD 220950Z VRB03KT CAVOK M00/M11 Q1027;",
"01320099999","2010-01-22T10:50:00","4","61.8333333","6.1166667","60.0","SANDANE ANDA, NO","FM-15","ENSD ","V020","999,9,V,0010,1","99999,9,9,Y","009900,1,N,1","+0010,1","-0130,1","99999,9",,,,,,,"10271,1,99999,9",,,,"MET046METAR ENSD 221050Z VRB02KT CAVOK 01/M13 Q1027;",
"01320099999","2010-01-22T11:50:00","4","61.8333333","6.1166667","60.0","SANDANE ANDA, NO","FM-15","ENSD ","V020","170,1,N,0015,1","99999,9,9,Y","009900,1,N,1","+0010,1","-0130,1","99999,9",,,,,,,"10271,1,99999,9",,,,"MET046METAR ENSD 221150Z 17003KT CAVOK 01/M13 Q1027;",
"01320099999","2010-01-22T12:50:00","4","61.8333333","6.1166667","60.0","SANDANE ANDA, NO","FM-15","ENSD ","V020","999,9,V,0015,1","99999,9,9,Y","009900,1,N,1","+0020,1","-0120,1","99999,9",,,,,,,"10271,1,99999,9",,,,"MET046METAR ENSD 221250Z VRB03KT CAVOK 02/M12 Q1027;",
"01320099999","2010-01-22T13:50:00","4","61.8333333","6.1166667","60.0","SANDANE ANDA, NO","FM-15","ENSD ","V020","999,9,V,0010,1","99999,9,9,Y","009900,1,N,1","+0020,1","-0120,1","99999,9",,,,,,,"10271,1,99999,9",,,,"MET046METAR ENSD 221350Z VRB02KT CAVOK 02/M12 Q1027;",
"01320099999","2010-01-22T14:50:00","4","61.8333333","6.1166667","60.0","SANDANE ANDA, NO","FM-15","ENSD ","V020","999,9,V,0015,1","99999,9,9,Y","009900,1,N,1","+0020,1","-0140,1","99999,9",,,,,,,"10281,1,99999,9",,,,"MET046METAR ENSD 221450Z VRB03KT CAVOK 02/M14 Q1028;",
"01320099999","2010-01-22T15:50:00","4","61.8333333","6.1166667","60.0","SANDANE ANDA, NO","FM-15","ENSD ","V020","999,9,V,0015,1","99999,9,9,Y","009900,1,N,1","+0000,1","-0110,1","99999,9",,,,,,,"10281,1,99999,9",,,,"MET046METAR ENSD 221550Z VRB03KT CAVOK 00/M11 Q1028;",
"01320099999","2010-01-22T17:20:00","4","61.8333333","6.1166667","60.0","SANDANE ANDA, NO","FM-15","ENSD ","V020","130,1,N,0021,1","99999,9,9,Y","009900,1,N,1","+0010,1","-0140,1","99999,9",,,,,,,"10281,1,99999,9",,,,"MET046METAR ENSD 221720Z 13004KT CAVOK 01/M14 Q1028;",
"01320099999","2010-01-22T17:50:00","4","61.8333333","6.1166667","60.0","SANDANE ANDA, NO","FM-15","ENSD ","V020","090,1,N,0031,1","99999,9,9,Y","009900,1,N,1","+0010,1","-0130,1","99999,9",,,,,,,"10291,1,99999,9",,,,"MET046METAR ENSD 221750Z 09006KT CAVOK 01/M13 Q1029;",
"01320099999","2010-01-22T18:50:00","4","61.8333333","6.1166667","60.0","SANDANE ANDA, NO","FM-15","ENSD ","V020","110,1,N,0026,1","99999,9,9,Y","009900,1,N,1","+0010,1","-0120,1","99999,9",,,,,,,"10291,1,99999,9",,,,"MET054METAR ENSD 221850Z 11005KT 050V170 CAVOK 01/M12 Q1029;",
"01320099999","2010-01-22T19:50:00","4","61.8333333","6.1166667","60.0","SANDANE ANDA, NO","FM-15","ENSD ","V020","999,9,V,0021,1","99999,9,9,Y","009900,1,N,1","+0010,1","-0110,1","99999,9",,,,,,,"10291,1,99999,9",,,,"MET046METAR ENSD 221950Z VRB04KT CAVOK 01/M11 Q1029;",
"01320099999","2010-01-23T06:20:00","4","61.8333333","6.1166667","60.0","SANDANE ANDA, NO","FM-15","ENSD ","V020","140,1,N,0021,1","99999,9,9,Y","009900,1,N,1","-0010,1","-0090,1","99999,9",,,,,,,"10312,1,99999,9",,,,"MET047METAR ENSD 230620Z 14004KT CAVOK M01/M09 Q1031;",
"01320099999","2010-01-23T06:50:00","4","61.8333333","6.1166667","60.0","SANDANE ANDA, NO","FM-15","ENSD ","V020","150,1,N,0021,1","99999,9,9,Y","009900,1,N,1","-0010,1","-0110,1","99999,9",,,,,,,"10312,1,99999,9",,,,"MET047METAR ENSD 230650Z 15004KT CAVOK M01/M11 Q1031;",
"01320099999","2010-01-23T07:50:00","4","61.8333333","6.1166667","60.0","SANDANE ANDA, NO","FM-15","ENSD ","V020","999,9,V,0015,1","99999,9,9,Y","009900,1,N,1","-0010,1","-0090,1","99999,9",,,,,,,"10312,1,99999,9",,,,"MET047METAR ENSD 230750Z VRB03KT CAVOK M01/M09 Q1031;",
"01320099999","2010-01-23T08:50:00","4","61.8333333","6.1166667","60.0","SANDANE ANDA, NO","FM-15","ENSD ","V020","150,1,N,0021,1","99999,9,9,Y","009900,1,N,1","-0010,1","-0080,1","99999,9",,,,,,,"10312,1,99999,9",,,,"MET047METAR ENSD 230850Z 15004KT CAVOK M01/M08 Q1031;",
"01320099999","2010-01-23T09:50:00","4","61.8333333","6.1166667","60.0","SANDANE ANDA, NO","FM-15","ENSD ","V020","150,1,N,0021,1","99999,9,9,Y","009900,1,N,1","-0010,1","-0080,1","99999,9",,,,,,,"10318,1,99999,9",,,,"MET047METAR ENSD 230950Z 15004KT CAVOK M01/M08 Q1032;",
"01320099999","2010-01-23T10:50:00","4","61.8333333","6.1166667","60.0","SANDANE ANDA, NO","FM-15","ENSD ","V020","999,9,V,0005,1","99999,9,9,Y","009900,1,N,1","-0010,1","-0100,1","99999,9",,,,,,,"10318,1,99999,9",,,,"MET047METAR ENSD 231050Z VRB01KT CAVOK M01/M10 Q1032;",
"01320099999","2010-01-23T11:50:00","4","61.8333333","6.1166667","60.0","SANDANE ANDA, NO","FM-15","ENSD ","V020","140,1,N,0015,1","99999,9,9,Y","009900,1,N,1","+0000,1","-0100,1","99999,9",,,,,,,"10318,1,99999,9",,,,"MET047METAR ENSD 231150Z 14003KT CAVOK M00/M10 Q1032;",
"01320099999","2010-01-23T12:50:00","4","61.8333333","6.1166667","60.0","SANDANE ANDA, NO","FM-15","ENSD ","V020","999,9,V,0015,1","99999,9,9,Y","009900,1,N,1","+0000,1","-0100,1","99999,9",,,,,,,"10318,1,99999,9",,,,"MET046METAR ENSD 231250Z VRB03KT CAVOK 00/M10 Q1032;",
"01320099999","2010-01-23T13:50:00","4","61.8333333","6.1166667","60.0","SANDANE ANDA, NO","FM-15","ENSD ","V020","999,9,V,0010,1","99999,9,9,Y","009900,1,N,1","+0000,1","-0090,1","99999,9",,,,,,,"10318,1,99999,9",,,,"MET047METAR ENSD 231350Z VRB02KT CAVOK M00/M09 Q1032;",
"01320099999","2010-01-24T09:50:00","4","61.8333333","6.1166667","60.0","SANDANE ANDA, NO","FM-15","ENSD ","V020","999,9,C,0000,1","01650,5,C,N","011265,1,N,1","-0010,1","-0080,1","99999,9","07,5,+01650,5,99,9",,,,"07,99,1,99,9,99,9,99999,9,99,9,99,9",,"10339,1,99999,9",,,,"MET053METAR ENSD 240950Z 00000KT 9999 BKN055 M01/M08 Q1034;",
"01320099999","2010-01-24T10:50:00","4","61.8333333","6.1166667","60.0","SANDANE ANDA, NO","FM-15","ENSD ","V020","999,9,C,0000,1","01650,5,C,N","011265,1,N,1","-0010,1","-0070,1","99999,9","07,5,+01650,5,99,9",,,,"07,99,1,99,9,99,9,99999,9,99,9,99,9",,"10339,1,99999,9",,,,"MET053METAR ENSD 241050Z 00000KT 9999 BKN055 M01/M07 Q1034;",
"01320099999","2010-01-24T12:20:00","4","61.8333333","6.1166667","60.0","SANDANE ANDA, NO","FM-15","ENSD ","V020","999,9,C,0000,1","01650,5,C,N","011265,1,N,1","+0000,1","-0080,1","99999,9","07,5,+01650,5,99,9",,,,"07,99,1,99,9,99,9,99999,9,99,9,99,9",,"10349,1,99999,9",,,,"MET053METAR ENSD 241220Z 00000KT 9999 BKN055 M00/M08 Q1035;",
"01320099999","2010-01-24T14:50:00","4","61.8333333","6.1166667","60.0","SANDANE ANDA, NO","FM-15","ENSD ","V020","999,9,C,0000,1","01500,1,C,N","011265,1,N,1","-0010,1","-0070,1","99999,9","07,5,+01500,1,99,9",,,,"07,99,1,99,9,99,9,99999,9,99,9,99,9",,"10339,1,99999,9",,,,"MET053METAR ENSD 241450Z 00000KT 9999 BKN050 M01/M07 Q1034;",
"01320099999","2010-01-24T15:50:00","4","61.8333333","6.1166667","60.0","SANDANE ANDA, NO","FM-15","ENSD ","V020","999,9,V,0010,1","01350,1,C,N","011265,1,N,1","-0010,1","-0070,1","99999,9","07,5,+01350,1,99,9",,,,"07,99,1,99,9,99,9,99999,9,99,9,99,9",,"10339,1,99999,9",,,,"MET053METAR ENSD 241550Z VRB02KT 9999 BKN045 M01/M07 Q1034;",
"01320099999","2010-01-24T16:50:00","4","61.8333333","6.1166667","60.0","SANDANE ANDA, NO","FM-15","ENSD ","V020","140,1,N,0021,1","01350,1,C,N","011265,1,N,1","+0000,1","-0080,1","99999,9","07,5,+01350,1,99,9",,,,"07,99,1,99,9,99,9,99999,9,99,9,99,9",,"10349,1,99999,9",,,,"MET053METAR ENSD 241650Z 14004KT 9999 BKN045 M00/M08 Q1035;",
"01320099999","2010-01-24T17:50:00","4","61.8333333","6.1166667","60.0","SANDANE ANDA, NO","FM-15","ENSD ","V020","999,9,C,0000,1","01200,1,C,N","011265,1,N,1","-0010,1","-0070,1","99999,9","07,5,+01200,1,99,9",,,,"07,99,1,99,9,99,9,99999,9,99,9,99,9",,"10349,1,99999,9",,,,"MET053METAR ENSD 241750Z 00000KT 9999 BKN040 M01/M07 Q1035;",
"01320099999","2010-01-24T18:50:00","4","61.8333333","6.1166667","60.0","SANDANE ANDA, NO","FM-15","ENSD ","V020","999,9,V,0010,1","01200,1,C,N","011265,1,N,1","+0000,1","-0060,1","99999,9","04,5,+00900,1,99,9","07,5,+01200,1,99,9",,,"07,99,1,99,9,99,9,99999,9,99,9,99,9",,"10349,1,99999,9",,,,"MET060METAR ENSD 241850Z VRB02KT 9999 SCT030 BKN040 M00/M06 Q1035;",
"01320099999","2010-01-24T19:50:00","4","61.8333333","6.1166667","60.0","SANDANE ANDA, NO","FM-15","ENSD ","V020","140,1,N,0021,1","01050,1,C,N","011265,1,N,1","+0000,1","-0070,1","99999,9","07,5,+01050,1,99,9",,,,"07,99,1,99,9,99,9,99999,9,99,9,99,9",,"10349,1,99999,9",,,,"MET053METAR ENSD 241950Z 14004KT 9999 BKN035 M00/M07 Q1035;",
"01320099999","2010-01-25T05:20:00","4","61.8333333","6.1166667","60.0","SANDANE ANDA, NO","FM-15","ENSD ","V020","140,1,N,0015,1","00300,1,9,N","006000,1,N,1","-0010,1","-0030,1","99999,9","09,1,+00300,1,99,9",,,,"09,99,1,99,9,99,9,00025,1,99,9,99,9",,"10369,1,99999,9","71,1",,,"MET056METAR ENSD 250520Z 14003KT 6000 -SN VV010 M01/M03 Q1037;",
"01320099999","2010-01-25T06:50:00","4","61.8333333","6.1166667","60.0","SANDANE ANDA, NO","FM-15","ENSD ","V020","140,1,N,0021,1","00240,1,9,N","006000,1,N,1","-0010,1","-0030,1","99999,9","09,1,+00240,1,99,9",,,,"09,99,1,99,9,99,9,00025,1,99,9,99,9",,"10369,1,99999,9","71,1",,,"MET056METAR ENSD 250650Z 14004KT 6000 -SN VV008 M01/M03 Q1037;",
"01320099999","2010-01-25T07:50:00","4","61.8333333","6.1166667","60.0","SANDANE ANDA, NO","FM-15","ENSD ","V020","150,1,N,0021,1","00900,1,C,N","011265,1,N,1","-0010,1","-0030,1","99999,9","02,5,+00240,1,99,9","07,5,+00900,1,99,9",,,"07,99,1,99,9,99,9,99999,9,99,9,99,9",,"10379,1,99999,9","85,5",,,"MET066METAR ENSD 250750Z 15004KT 9999 -SHSN FEW008 BKN030 M01/M03 Q1038;",
"01320099999","2010-01-25T08:50:00","4","61.8333333","6.1166667","60.0","SANDANE ANDA, NO","FM-15","ENSD ","V020","140,1,N,0015,1","00750,1,C,N","011265,1,N,1","-0010,1","-0030,1","99999,9","02,5,+00240,1,99,9","07,5,+00750,1,99,9",,,"07,99,1,99,9,99,9,99999,9,99,9,99,9",,"10379,1,99999,9",,,,"MET060METAR ENSD 250850Z 14003KT 9999 FEW008 BKN025 M01/M03 Q1038;",
"01320099999","2010-01-25T09:50:00","4","61.8333333","6.1166667","60.0","SANDANE ANDA, NO","FM-15","ENSD ","V020","130,1,N,0021,1","00750,1,C,N","011265,1,N,1","-0010,1","-0030,1","99999,9","02,5,+00240,1,99,9","07,5,+00750,1,99,9",,,"07,99,1,99,9,99,9,99999,9,99,9,99,9",,"10379,1,99999,9",,,,"MET060METAR ENSD 250950Z 13004KT 9999 FEW008 BKN025 M01/M03 Q1038;",
"01320099999","2010-01-25T10:50:00","4","61.8333333","6.1166667","60.0","SANDANE ANDA, NO","FM-15","ENSD ","V020","999,9,V,0010,1","00750,1,C,N","011265,1,N,1","+0000,1","-0030,1","99999,9","02,5,+00240,1,99,9","07,5,+00750,1,99,9",,,"07,99,1,99,9,99,9,99999,9,99,9,99,9",,"10389,1,99999,9",,,,"MET060METAR ENSD 251050Z VRB02KT 9999 FEW008 BKN025 M00/M03 Q1039;",
"01320099999","2010-01-25T11:50:00","4","61.8333333","6.1166667","60.0","SANDANE ANDA, NO","FM-15","ENSD ","V020","999,9,C,0000,1","00750,1,C,N","011265,1,N,1","+0000,1","-0030,1","99999,9","02,5,+00240,1,99,9","07,5,+00750,1,99,9",,,"07,99,1,99,9,99,9,99999,9,99,9,99,9",,"10389,1,99999,9",,,,"MET060METAR ENSD 251150Z 00000KT 9999 FEW008 BKN025 M00/M03 Q1039;",
"01320099999","2010-01-25T12:50:00","4","61.8333333","6.1166667","60.0","SANDANE ANDA, NO","FM-15","ENSD ","V020","999,9,V,0005,1","00900,1,C,N","011265,1,N,1","+0000,1","-0030,1","99999,9","02,5,+00240,1,99,9","07,5,+00900,1,99,9",,,"07,99,1,99,9,99,9,99999,9,99,9,99,9",,"10389,1,99999,9",,,,"MET059METAR ENSD 251250Z VRB01KT 9999 FEW008 BKN030 00/M03 Q1039;",
"01320099999","2010-01-25T13:50:00","4","61.8333333","6.1166667","60.0","SANDANE ANDA, NO","FM-15","ENSD ","V020","120,1,N,0021,1","00900,1,C,N","011265,1,N,1","+0000,1","-0030,1","99999,9","02,5,+00240,1,99,9","04,5,+00900,1,99,9","07,5,+01200,1,99,9",,"07,99,1,99,9,99,9,99999,9,99,9,99,9",,"10379,1,99999,9",,,,"MET067METAR ENSD 251350Z 12004KT 9999 FEW008 SCT030 BKN040 M00/M03 Q1038;",
"01320099999","2010-01-25T14:50:00","4","61.8333333","6.1166667","60.0","SANDANE ANDA, NO","FM-15","ENSD ","V020","999,9,V,0005,1","00900,1,C,N","011265,1,N,1","+0000,1","-0030,1","99999,9","02,5,+00240,1,99,9","07,5,+00900,1,99,9",,,"07,99,1,99,9,99,9,99999,9,99,9,99,9",,"10379,1,99999,9",,,,"MET060METAR ENSD 251450Z VRB01KT 9999 FEW008 BKN030 M00/M03 Q1038;",
"01320099999","2010-01-25T15:50:00","4","61.8333333","6.1166667","60.0","SANDANE ANDA, NO","FM-15","ENSD ","V020","999,9,C,0000,1","00900,1,C,N","011265,1,N,1","+0000,1","-0030,1","99999,9","02,5,+00240,1,99,9","07,5,+00900,1,99,9",,,"07,99,1,99,9,99,9,99999,9,99,9,99,9",,"10379,1,99999,9",,,,"MET060METAR ENSD 251550Z 00000KT 9999 FEW008 BKN030 M00/M03 Q1038;",
"01320099999","2010-01-25T16:50:00","4","61.8333333","6.1166667","60.0","SANDANE ANDA, NO","FM-15","ENSD ","V020","999,9,V,0005,1","00690,1,C,N","011265,1,N,1","+0000,1","-0030,1","99999,9","02,5,+00240,1,99,9","04,5,+00690,1,99,9","07,5,+00900,1,99,9",,"07,99,1,99,9,99,9,99999,9,99,9,99,9",,"10389,1,99999,9",,,,"MET067METAR ENSD 251650Z VRB01KT 9999 FEW008 SCT023 BKN030 M00/M03 Q1039;",
"01320099999","2010-01-25T17:50:00","4","61.8333333","6.1166667","60.0","SANDANE ANDA, NO","FM-15","ENSD ","V020","999,9,V,0010,1","00750,1,C,N","011265,1,N,1","+0000,1","-0030,1","99999,9","02,5,+00240,1,99,9","04,5,+00750,1,99,9","07,5,+00900,1,99,9",,"07,99,1,99,9,99,9,99999,9,99,9,99,9",,"10389,1,99999,9",,,,"MET066METAR ENSD 251750Z VRB02KT 9999 FEW008 SCT025 BKN030 00/M03 Q1039;",
"01320099999","2010-01-25T18:50:00","4","61.8333333","6.1166667","60.0","SANDANE ANDA, NO","FM-15","ENSD ","V020","130,1,N,0015,1","00750,1,C,N","011265,1,N,1","+0000,1","-0030,1","99999,9","02,5,+00240,1,99,9","04,5,+00750,1,99,9","07,5,+00900,1,99,9",,"07,99,1,99,9,99,9,99999,9,99,9,99,9",,"10389,1,99999,9",,,,"MET067METAR ENSD 251850Z 13003KT 9999 FEW008 SCT025 BKN030 M00/M03 Q1039;",
"01320099999","2010-01-25T19:50:00","4","61.8333333","6.1166667","60.0","SANDANE ANDA, NO","FM-15","ENSD ","V020","999,9,C,0000,1","99999,9,C,N","011265,1,N,1","-0010,1","-0030,1","99999,9","02,5,+00240,1,99,9","04,5,+00900,1,99,9",,,"04,99,1,99,9,99,9,99999,9,99,9,99,9",,"10389,1,99999,9",,,,"MET060METAR ENSD 251950Z 00000KT 9999 FEW008 SCT030 M01/M03 Q1039;","P01 009003SCOCIG"
"01320099999","2010-01-26T05:20:00","4","61.8333333","6.1166667","60.0","SANDANE ANDA, NO","FM-15","ENSD ","V020","050,1,N,0031,1","99999,9,9,Y","009900,1,N,1","+0000,1","-0030,1","99999,9",,,,,,,"10379,1,99999,9",,,,"MET054METAR ENSD 260520Z 05006KT 010V140 CAVOK 00/M03 Q1038;",
"01320099999","2010-01-26T05:50:00","4","61.8333333","6.1166667","60.0","SANDANE ANDA, NO","FM-15","ENSD ","V020","070,1,N,0031,1","99999,9,9,Y","009900,1,N,1","+0010,1","-0040,1","99999,9",,,,,,,"10379,1,99999,9",,,,"MET046METAR ENSD 260550Z 07006KT CAVOK 01/M04 Q1038;",
"01320099999","2010-01-26T06:50:00","4","61.8333333","6.1166667","60.0","SANDANE ANDA, NO","FM-15","ENSD ","V020","999,9,V,0015,1","99999,9,9,Y","009900,1,N,1","+0020,1","-0050,1","99999,9",,,,,,,"10379,1,99999,9",,,,"MET046METAR ENSD 260650Z VRB03KT CAVOK 02/M05 Q1038;",
"01320099999","2010-01-26T07:50:00","4","61.8333333","6.1166667","60.0","SANDANE ANDA, NO","FM-15","ENSD ","V020","220,1,N,0026,1","02250,5,C,N","011265,1,N,1","+0030,1","-0060,1","99999,9","02,5,+01200,1,99,9","07,5,+02250,5,99,9",,,"07,99,1,99,9,99,9,99999,9,99,9,99,9",,"10379,1,99999,9",,,"0082,1","MET070METAR ENSD 260750Z 22005G16KT 120V290 9999 FEW040 BKN075 03/M06 Q1038;",
"01320099999","2010-01-26T08:50:00","4","61.8333333","6.1166667","60.0","SANDANE ANDA, NO","FM-15","ENSD ","V020","999,9,V,0015,1","01800,1,C,N","011265,1,N,1","+0020,1","-0060,1","99999,9","02,5,+01200,1,99,9","07,5,+01800,1,99,9",,,"07,99,1,99,9,99,9,99999,9,99,9,99,9",,"10369,1,99999,9",,,,"MET059METAR ENSD 260850Z VRB03KT 9999 FEW040 BKN060 02/M06 Q1037;",
"01320099999","2010-01-26T09:50:00","4","61.8333333","6.1166667","60.0","SANDANE ANDA, NO","FM-15","ENSD ","V020","240,1,N,0031,1","01650,5,C,N","011265,1,N,1","+0030,1","-0070,1","99999,9","04,5,+00900,1,99,9","07,5,+01650,5,99,9",,,"07,99,1,99,9,99,9,99999,9,99,9,99,9",,"10369,1,99999,9","16,1",,,"MET072METAR ENSD 260950Z 24006KT 160V320 9999 VCSH SCT030 BKN055 03/M07 Q1037;",
"01320099999","2010-01-26T10:50:00","4","61.8333333","6.1166667","60.0","SANDANE ANDA, NO","FM-15","ENSD ","V020","999,9,V,0026,1","01650,5,C,N","011265,1,N,1","+0020,1","-0050,1","99999,9","04,5,+00900,1,99,9","07,5,+01650,5,99,9",,,"07,99,1,99,9,99,9,99999,9,99,9,99,9",,"10369,1,99999,9","16,1",,,"MET064METAR ENSD 261050Z VRB05KT 9999 VCSH SCT030 BKN055 02/M05 Q1037;",
"01320099999","2010-01-26T11:50:00","4","61.8333333","6.1166667","60.0","SANDANE ANDA, NO","FM-15","ENSD ","V020","999,9,V,0031,1","01200,1,C,N","011265,1,N,1","+0030,1","-0050,1","99999,9","04,5,+00750,1,99,9","07,5,+01200,1,99,9",,,"07,99,1,99,9,99,9,99999,9,99,9,99,9",,"10369,1,99999,9","16,1",,,"MET064METAR ENSD 261150Z VRB06KT 9999 VCSH SCT025 BKN040 03/M05 Q1037;",
"01320099999","2010-01-26T12:50:00","4","61.8333333","6.1166667","60.0","SANDANE ANDA, NO","FM-15","ENSD ","V020","999,9,V,0005,1","01200,1,C,N","011265,1,N,1","+0020,1","-0050,1","99999,9","04,5,+00750,1,99,9","07,5,+01200,1,99,9",,,"07,99,1,99,9,99,9,99999,9,99,9,99,9",,"10359,1,99999,9","16,1",,,"MET064METAR ENSD 261250Z VRB01KT 9999 VCSH SCT025 BKN040 02/M05 Q1036;",
"01320099999","2010-01-26T13:50:00","4","61.8333333","6.1166667","60.0","SANDANE ANDA, NO","FM-15","ENSD ","V020","030,1,N,0021,1","01200,1,C,N","011265,1,N,1","+0020,1","-0040,1","99999,9","04,5,+00750,1,99,9","07,5,+01200,1,99,9",,,"07,99,1,99,9,99,9,99999,9,99,9,99,9",,"10359,1,99999,9","85,5",,,"MET065METAR ENSD 261350Z 03004KT 9999 -SHSN SCT025 BKN040 02/M04 Q1036;",
"01320099999","2010-01-26T14:50:00","4","61.8333333","6.1166667","60.0","SANDANE ANDA, NO","FM-15","ENSD ","V020","060,1,N,0057,1","00330,1,9,N","003000,1,N,1","+0000,1","-0020,1","99999,9","09,1,+00330,1,99,9",,,,"09,99,1,99,9,99,9,00025,1,99,9,99,9",,"10349,1,99999,9","85,5",,,"MET057METAR ENSD 261450Z 06011KT 3000 -SHSN VV011 00/M02 Q1035;",
"01320099999","2010-01-26T15:50:00","4","61.8333333","6.1166667","60.0","SANDANE ANDA, NO","FM-15","ENSD ","V020","070,1,N,0036,1","00330,1,9,N","002000,1,N,1","+0000,1","-0020,1","99999,9","09,1,+00330,1,99,9",,,,"09,99,1,99,9,99,9,00025,1,99,9,99,9",,"10349,1,99999,9","85,5",,,"MET057METAR ENSD 261550Z 07007KT 2000 -SHSN VV011 00/M02 Q1035;",
"01320099999","2010-01-26T16:50:00","4","61.8333333","6.1166667","60.0","SANDANE ANDA, NO","FM-15","ENSD ","V020","060,1,N,0041,1","00450,1,9,N","005000,1,N,1","+0000,1","-0020,1","99999,9","09,1,+00450,1,99,9",,,,"09,99,1,99,9,99,9,00025,1,99,9,99,9",,"10339,1,99999,9","71,1",,,"MET055METAR ENSD 261650Z 06008KT 5000 -SN VV015 00/M02 Q1034;",
"01320099999","2010-01-26T17:50:00","4","61.8333333","6.1166667","60.0","SANDANE ANDA, NO","FM-15","ENSD ","V020","080,1,N,0031,1","00600,1,9,N","011265,1,N,1","+0000,1","-0020,1","99999,9","09,1,+00600,1,99,9",,,,"09,99,1,99,9,99,9,00025,1,99,9,99,9",,"10329,1,99999,9","71,1",,,"MET055METAR ENSD 261750Z 08006KT 9999 -SN VV020 00/M02 Q1033;",
"01320099999","2010-01-26T18:50:00","4","61.8333333","6.1166667","60.0","SANDANE ANDA, NO","FM-15","ENSD ","V020","070,1,N,0041,1","01200,1,C,N","011265,1,N,1","+0010,1","-0020,1","99999,9","02,5,+00900,1,99,9","07,5,+01200,1,99,9",,,"07,99,1,99,9,99,9,99999,9,99,9,99,9",,"10318,1,99999,9",,,,"MET059METAR ENSD 261850Z 07008KT 9999 FEW030 BKN040 01/M02 Q1032;",
"01320099999","2010-01-26T19:50:00","4","61.8333333","6.1166667","60.0","SANDANE ANDA, NO","FM-15","ENSD ","V020","070,1,N,0015,1","01200,1,C,N","011265,1,N,1","+0030,1","-0030,1","99999,9","02,5,+00900,1,99,9","07,5,+01200,1,99,9",,,"07,99,1,99,9,99,9,99999,9,99,9,99,9",,"10301,1,99999,9",,,,"MET059METAR ENSD 261950Z 07003KT 9999 FEW030 BKN040 03/M03 Q1030;",
"01320099999","2010-01-27T05:20:00","4","61.8333333","6.1166667","60.0","SANDANE ANDA, NO","FM-15","ENSD ","V020","170,1,N,0021,1","00750,1,C,N","011265,1,N,1","+0050,1","+0000,1","99999,9","02,5,+00600,1,99,9","04,5,+00750,1,99,9","07,5,+01200,1,99,9",,"07,99,1,99,9,99,9,99999,9,99,9,99,9",,"10091,1,99999,9","80,1",,,"MET071METAR ENSD 270520Z 17004KT 9999 -SHRA FEW020 SCT025 BKN040 05/00 Q1009;",
"01320099999","2010-01-27T05:50:00","4","61.8333333","6.1166667","60.0","SANDANE ANDA, NO","FM-15","ENSD ","V020","070,1,N,0026,1","00750,1,C,N","011265,1,N,1","+0040,1","+0000,1","99999,9","02,5,+00600,1,99,9","04,5,+00750,1,99,9","07,5,+01200,1,99,9",,"07,99,1,99,9,99,9,99999,9,99,9,99,9",,"10061,1,99999,9","80,1",,,"MET071METAR ENSD 270550Z 07005KT 9999 -SHRA FEW020 SCT025 BKN040 04/00 Q1006;",
"01320099999","2010-01-27T06:50:00","4","61.8333333","6.1166667","60.0","SANDANE ANDA, NO","FM-15","ENSD ","V020","010,1,N,0021,1","00750,1,C,N","011265,1,N,1","+0030,1","+0000,1","99999,9","02,5,+00600,1,99,9","04,5,+00750,1,99,9","07,5,+01200,1,99,9",,"07,99,1,99,9,99,9,99999,9,99,9,99,9",,"10051,1,99999,9","61,1",,,"MET070METAR ENSD 270650Z 01004KT 9999 -RA FEW020 SCT025 BKN040 03/M00 Q1005;",
"01320099999","2010-01-27T07:50:00","4","61.8333333","6.1166667","60.0","SANDANE ANDA, NO","FM-15","ENSD ","V020","190,1,N,0041,1","00600,1,9,N","008000,1,N,1","+0020,1","+0010,1","99999,9","09,1,+00600,1,99,9",,,,"09,99,1,99,9,99,9,00025,1,99,9,99,9",,"10041,1,99999,9","61,1",,,"MET054METAR ENSD 270750Z 19008KT 8000 -RA VV020 02/01 Q1004;",
"01320099999","2010-01-27T08:50:00","4","61.8333333","6.1166667","60.0","SANDANE ANDA, NO","FM-15","ENSD ","V020","290,1,N,0051,1","00750,1,C,N","011265,1,N,1","+0040,1","+0000,1","99999,9","02,5,+00300,1,99,9","04,5,+00750,1,99,9","07,5,+00900,1,99,9",,"07,99,1,99,9,99,9,99999,9,99,9,99,9",,"10041,1,99999,9",,,,"MET066METAR ENSD 270850Z 29010KT 9999 FEW010 SCT025 BKN030 04/M00 Q1004;",
"01320099999","2010-01-27T09:50:00","4","61.8333333","6.1166667","60.0","SANDANE ANDA, NO","FM-15","ENSD ","V020","280,1,N,0051,1","00600,1,C,N","011265,1,N,1","+0040,1","+0000,1","99999,9","02,5,+00300,1,99,9","04,5,+00600,1,99,9","07,5,+00900,1,99,9",,"07,99,1,99,9,99,9,99999,9,99,9,99,9",,"10041,1,99999,9",,,,"MET066METAR ENSD 270950Z 28010KT 9999 FEW010 SCT020 BKN030 04/M00 Q1004;",
"01320099999","2010-01-27T10:50:00","4","61.8333333","6.1166667","60.0","SANDANE ANDA, NO","FM-15","ENSD ","V020","290,1,N,0041,1","00450,1,C,N","011265,1,N,1","+0030,1","-0010,1","99999,9","02,5,+00150,1,99,9","04,5,+00450,1,99,9","07,5,+00900,1,99,9",,"07,99,1,99,9,99,9,99999,9,99,9,99,9",,"10031,1,99999,9",,,,"MET066METAR ENSD 271050Z 29008KT 9999 FEW005 SCT015 BKN030 03/M01 Q1003;",
"01320099999","2010-01-27T11:50:00","4","61.8333333","6.1166667","60.0","SANDANE ANDA, NO","FM-15","ENSD ","V020","260,1,N,0072,1","00450,1,C,N","011265,1,N,1","+0030,1","-0010,1","99999,9","02,5,+00150,1,99,9","04,5,+00450,1,99,9","07,5,+00900,1,99,9",,"07,99,1,99,9,99,9,99999,9,99,9,99,9",,"10031,1,99999,9","80,1",,,"MET072METAR ENSD 271150Z 26014KT 9999 -SHRA FEW005 SCT015 BKN030 03/M01 Q1003;",
"01320099999","2010-01-27T12:50:00","4","61.8333333","6.1166667","60.0","SANDANE ANDA, NO","FM-15","ENSD ","V020","360,1,N,0026,1","00540,1,C,N","011265,1,N,1","+0030,1","-0010,1","99999,9","02,5,+00150,1,99,9","04,5,+00540,1,99,9","07,5,+00900,1,99,9",,"07,99,1,99,9,99,9,99999,9,99,9,99,9",,"10020,1,99999,9","16,1",,,"MET079METAR ENSD 271250Z 36005KT 300V120 9999 VCSH FEW005 SCT018 BKN030 03/M01 Q1002;",
"01320099999","2010-01-27T13:50:00","4","61.8333333","6.1166667","60.0","SANDANE ANDA, NO","FM-15","ENSD ","V020","330,1,N,0021,1","00540,1,C,N","011265,1,N,1","+0020,1","-0020,1","99999,9","02,5,+00150,1,99,9","04,5,+00540,1,99,9","07,5,+00900,1,99,9",,"07,99,1,99,9,99,9,99999,9,99,9,99,9",,"10020,1,99999,9","16,1",,,"MET079METAR ENSD 271350Z 33004KT 240V020 9999 VCSH FEW005 SCT018 BKN030 02/M02 Q1002;",
"01320099999","2010-01-27T14:50:00","4","61.8333333","6.1166667","60.0","SANDANE ANDA, NO","FM-15","ENSD ","V020","280,1,N,0057,1","00450,1,C,N","008000,1,N,1","+0030,1","-0030,1","99999,9","02,5,+00150,1,99,9","04,5,+00450,1,99,9","07,5,+00750,1,99,9",,"07,99,1,99,9,99,9,99999,9,99,9,99,9",,"10020,1,99999,9","85,5",,,"MET080METAR ENSD 271450Z 28011KT 230V330 8000 -SHSN FEW005 SCT015 BKN025 03/M03 Q1002;",
"01320099999","2010-01-27T15:50:00","4","61.8333333","6.1166667","60.0","SANDANE ANDA, NO","FM-15","ENSD ","V020","290,1,N,0051,1","00450,1,C,N","011265,1,N,1","+0020,1","-0020,1","99999,9","02,5,+00150,1,99,9","04,5,+00450,1,99,9","07,5,+00750,1,99,9",,"07,99,1,99,9,99,9,99999,9,99,9,99,9",,"10020,1,99999,9","16,1",,,"MET079METAR ENSD 271550Z 29010KT 240V350 9999 VCSH FEW005 SCT015 BKN025 02/M02 Q1002;",
"01320099999","2010-01-27T16:50:00","4","61.8333333","6.1166667","60.0","SANDANE ANDA, NO","FM-15","ENSD ","V020","280,1,N,0046,1","00300,1,9,N","003000,1,N,1","+0010,1","-0020,1","99999,9","09,1,+00300,1,99,9",,,,"09,99,1,99,9,99,9,00025,1,99,9,99,9",,"10031,1,99999,9","86,5",,,"MET056METAR ENSD 271650Z 28009KT 3000 SHSN VV010 01/M02 Q1003;",
"01320099999","2010-01-27T17:50:00","4","61.8333333","6.1166667","60.0","SANDANE ANDA, NO","FM-15","ENSD ","V020","280,1,N,0041,1","00360,1,C,N","006000,1,N,1","+0010,1","-0010,1","99999,9","02,5,+00240,1,99,9","04,5,+00360,1,99,9","07,5,+00540,1,99,9",,"07,99,1,99,9,99,9,99999,9,99,9,99,9",,"10031,1,99999,9","85,5",,,"MET072METAR ENSD 271750Z 28008KT 6000 -SHSN FEW008 SCT012 BKN018 01/M01 Q1003;",
"01320099999","2010-01-27T18:50:00","4","61.8333333","6.1166667","60.0","SANDANE ANDA, NO","FM-15","ENSD ","V020","280,1,N,0057,1","00360,1,C,N","011265,1,N,1","+0010,1","-0020,1","99999,9","02,5,+00150,1,99,9","04,5,+00360,1,99,9","07,5,+00840,1,99,9",,"07,99,1,99,9,99,9,99999,9,99,9,99,9",,"10020,1,99999,9","16,1",,,"MET077METAR ENSD 271850Z 28011KT 9999 6000E VCSH FEW005 SCT012 BKN028 01/M02 Q1002;",
"01320099999","2010-01-27T19:50:00","4","61.8333333","6.1166667","60.0","SANDANE ANDA, NO","FM-15","ENSD ","V020","280,1,N,0067,1","00360,1,C,N","008000,1,N,1","+0010,1","-0020,1","99999,9","02,5,+00150,1,99,9","04,5,+00360,1,99,9","07,5,+00750,1,99,9",,"07,99,1,99,9,99,9,99999,9,99,9,99,9",,"10020,1,99999,9","85,5",,,"MET072METAR ENSD 271950Z 28013KT 8000 -SHSN FEW005 SCT012 BKN025 01/M02 Q1002;",
"01320099999","2010-01-28T05:20:00","4","61.8333333","6.1166667","60.0","SANDANE ANDA, NO","FM-15","ENSD ","V020","270,1,N,0057,1","00390,1,9,N","004000,1,N,1","+0000,1","-0020,1","99999,9","09,1,+00390,1,99,9",,,,"09,99,1,99,9,99,9,00025,1,99,9,99,9",,"09970,1,99999,9","86,5",,,"MET065METAR ENSD 280520Z 27011KT 240V320 4000 SHSN VV013 M00/M02 Q0997;",
"01320099999","2010-01-28T05:50:00","4","61.8333333","6.1166667","60.0","SANDANE ANDA, NO","FM-15","ENSD ","V020","280,1,N,0036,1","00330,1,9,N","002000,1,N,1","+0000,1","-0020,1","99999,9","09,1,+00330,1,99,9",,,,"09,99,1,99,9,99,9,00025,1,99,9,99,9",,"09959,1,99999,9","86,5",,,"MET065METAR ENSD 280550Z 28007KT 230V330 2000 SHSN VV011 M00/M02 Q0996;",
"01320099999","2010-01-28T07:50:00","4","61.8333333","6.1166667","60.0","SANDANE ANDA, NO","FM-15","ENSD ","V020","270,1,N,0057,1","00240,1,9,N","002000,1,N,1","+0000,1","-0020,1","99999,9","09,1,+00240,1,99,9",,,,"09,99,1,99,9,99,9,00025,1,99,9,99,9",,"09959,1,99999,9","86,5",,,"MET065METAR ENSD 280750Z 27011KT 230V320 2000 SHSN VV008 M00/M02 Q0996;",
"01320099999","2010-01-28T08:50:00","4","61.8333333","6.1166667","60.0","SANDANE ANDA, NO","FM-15","ENSD ","V020","290,1,N,0031,1","00900,5,9,N","999999,9,N,1","+0000,1","-0020,1","99999,9","02,5,+00450,5,99,9","07,5,+00900,5,99,9",,,,,"09960,1,99999,9",,,,"MET075METAR ENSD 280850Z 29006KT 230V340 VCSH FEW015 BKN030 M00/M02 Q0996 RESNSH;",
"01320099999","2010-01-28T09:50:00","4","61.8333333","6.1166667","60.0","SANDANE ANDA, NO","FM-15","ENSD ","V020","280,1,N,0031,1","00360,1,C,N","005000,1,N,1","+0000,1","-0020,1","99999,9","02,5,+00150,1,99,9","04,5,+00360,1,99,9","07,5,+00660,1,99,9",,"07,99,1,99,9,99,9,99999,9,99,9,99,9",,"09959,1,99999,9","85,5",,,"MET081METAR ENSD 280950Z 28006KT 230V340 5000 -SHSN FEW005 SCT012 BKN022 M00/M02 Q0996;",
"01320099999","2010-01-28T10:50:00","4","61.8333333","6.1166667","60.0","SANDANE ANDA, NO","FM-15","ENSD ","V020","290,1,N,0041,1","01050,1,C,N","011265,1,N,1","+0000,1","-0020,1","99999,9","02,5,+00450,1,99,9","07,5,+01050,1,99,9",,,"07,99,1,99,9,99,9,99999,9,99,9,99,9",,"09949,1,99999,9","16,1",,,"MET079METAR ENSD 281050Z 29008KT 240V340 9999 VCSH FEW015 BKN035 00/M02 Q0995 RESHSN;",
"01320099999","2010-01-28T11:50:00","4","61.8333333","6.1166667","60.0","SANDANE ANDA, NO","FM-15","ENSD ","V020","270,1,N,0057,1","00900,1,C,N","011265,1,N,1","+0000,1","-0020,1","99999,9","04,5,+00450,1,99,9","07,5,+00900,1,99,9",,,"07,99,1,99,9,99,9,99999,9,99,9,99,9",,"09939,1,99999,9","16,1",,,"MET073METAR ENSD 281150Z 27011KT 230V310 9999 VCSH SCT015 BKN030 M00/M02 Q0994;",
"01320099999","2010-01-28T12:50:00","4","61.8333333","6.1166667","60.0","SANDANE ANDA, NO","FM-15","ENSD ","V020","270,1,N,0062,1","00840,1,C,N","011265,1,N,1","-0010,1","-0040,1","99999,9","04,5,+00360,1,99,9","07,5,+00840,1,99,9",,,"07,99,1,99,9,99,9,99999,9,99,9,99,9",,"09939,1,99999,9","16,1",,,"MET079METAR ENSD 281250Z 27012KT 250V330 9999 4000W VCSH SCT012 BKN028 M01/M04 Q0994;",
"01320099999","2010-01-28T13:50:00","4","61.8333333","6.1166667","60.0","SANDANE ANDA, NO","FM-15","ENSD ","V020","280,1,N,0036,1","00840,1,C,N","004000,1,N,1","-0010,1","-0040,1","99999,9","04,5,+00360,1,99,9","07,5,+00840,1,99,9",,,"07,99,1,99,9,99,9,99999,9,99,9,99,9",,"09929,1,99999,9","85,5",,,"MET066METAR ENSD 281350Z 28007KT 4000 -SHSN SCT012 BKN028 M01/M04 Q0993;",
"01320099999","2010-01-28T14:50:00","4","61.8333333","6.1166667","60.0","SANDANE ANDA, NO","FM-15","ENSD ","V020","280,1,N,0031,1","00840,1,C,N","011265,1,N,1","-0010,1","-0050,1","99999,9","04,5,+00300,1,99,9","07,5,+00840,1,99,9",,,"07,99,1,99,9,99,9,99999,9,99,9,99,9",,"09929,1,99999,9","71,1",,,"MET072METAR ENSD 281450Z 28006KT 210V340 9999 -SN SCT010 BKN028 M01/M05 Q0993;",
"01320099999","2010-01-28T15:50:00","4","61.8333333","6.1166667","60.0","SANDANE ANDA, NO","FM-15","ENSD ","V020","310,1,N,0031,1","01050,1,C,N","011265,1,N,1","-0010,1","-0040,1","99999,9","04,5,+00450,1,99,9","07,5,+01050,1,99,9",,,"07,99,1,99,9,99,9,99999,9,99,9,99,9",,"09919,1,99999,9","16,1",,,"MET079METAR ENSD 281550Z 31006KT 210V020 9999 7000E VCSH SCT015 BKN035 M01/M04 Q0992;",
"01320099999","2010-01-28T16:50:00","4","61.8333333","6.1166667","60.0","SANDANE ANDA, NO","FM-15","ENSD ","V020","999,9,V,0015,1","00300,1,9,N","005000,1,N,1","-0010,1","-0050,1","99999,9","09,1,+00300,1,99,9",,,,"09,99,1,99,9,99,9,00025,1,99,9,99,9",,"09919,1,99999,9","85,5",,,"MET058METAR ENSD 281650Z VRB03KT 5000 -SHSN VV010 M01/M05 Q0992;",
"01320099999","2010-01-28T18:50:00","4","61.8333333","6.1166667","60.0","SANDANE ANDA, NO","FM-15","ENSD ","V020","140,1,N,0021,1","00540,1,C,N","006000,1,N,1","-0020,1","-0040,1","99999,9","02,5,+00180,1,99,9","04,5,+00540,1,99,9","07,5,+00780,1,99,9",,"07,99,1,99,9,99,9,99999,9,99,9,99,9",,"09909,1,99999,9","85,5",,,"MET081METAR ENSD 281850Z 14004KT 070V180 6000 -SHSN FEW006 SCT018 BKN026 M02/M04 Q0991;",
"01320099999","2010-01-28T19:50:00","4","61.8333333","6.1166667","60.0","SANDANE ANDA, NO","FM-15","ENSD ","V020","150,1,N,0021,1","00750,1,C,N","004000,1,N,1","-0020,1","-0040,1","99999,9","04,5,+00600,1,99,9","07,5,+00750,1,99,9",,,"07,99,1,99,9,99,9,99999,9,99,9,99,9",,"09898,1,99999,9","85,5",,,"MET074METAR ENSD 281950Z 15004KT 110V210 4000 -SHSN SCT020 BKN025 M02/M04 Q0990;",
"01320099999","2010-01-29T05:20:00","4","61.8333333","6.1166667","60.0","SANDANE ANDA, NO","FM-15","ENSD ","V020","140,1,N,0021,1","01200,1,C,N","011265,1,N,1","-0050,1","-0070,1","99999,9","02,5,+00360,1,99,9","07,5,+01200,1,99,9",,,"07,99,1,99,9,99,9,99999,9,99,9,99,9",,"09871,1,99999,9",,,,"MET060METAR ENSD 290520Z 14004KT 9999 FEW012 BKN040 M05/M07 Q0987;",
"01320099999","2010-01-29T06:50:00","4","61.8333333","6.1166667","60.0","SANDANE ANDA, NO","FM-15","ENSD ","V020","140,1,N,0021,1","01200,1,C,N","011265,1,N,1","-0050,1","-0070,1","99999,9","04,5,+00390,1,99,9","07,5,+01200,1,99,9",,,"07,99,1,99,9,99,9,99999,9,99,9,99,9",,"09871,1,99999,9",,,,"MET060METAR ENSD 290650Z 14004KT 9999 SCT013 BKN040 M05/M07 Q0987;",
"01320099999","2010-01-29T08:20:00","4","61.8333333","6.1166667","60.0","SANDANE ANDA, NO","FM-15","ENSD ","V020","150,1,N,0026,1","99999,9,C,N","011265,1,N,1","-0060,1","-0080,1","99999,9","02,5,+00360,1,99,9","04,5,+01200,1,99,9",,,"04,99,1,99,9,99,9,99999,9,99,9,99,9",,"09871,1,99999,9",,,,"MET060METAR ENSD 290820Z 15005KT 9999 FEW012 SCT040 M06/M08 Q0987;","P01 012003SCOCIG"
"01320099999","2010-01-29T09:50:00","4","61.8333333","6.1166667","60.0","SANDANE ANDA, NO","FM-15","ENSD ","V020","999,9,V,0015,1","99999,9,C,N","011265,1,N,1","-0060,1","-0080,1","99999,9","02,5,+00360,1,99,9","04,5,+01200,1,99,9",,,"04,99,1,99,9,99,9,99999,9,99,9,99,9",,"09871,1,99999,9",,,,"MET060METAR ENSD 290950Z VRB03KT 9999 FEW012 SCT040 M06/M08 Q0987;","P01 012003SCOCIG"
"01320099999","2010-01-29T10:50:00","4","61.8333333","6.1166667","60.0","SANDANE ANDA, NO","FM-15","ENSD ","V020","999,9,V,0015,1","99999,9,C,N","011265,1,N,1","-0050,1","-0080,1","99999,9","02,5,+00300,1,99,9","04,5,+00600,1,99,9",,,"04,99,1,99,9,99,9,99999,9,99,9,99,9",,"09871,1,99999,9",,,,"MET060METAR ENSD 291050Z VRB03KT 9999 FEW010 SCT020 M05/M08 Q0987;","P01 006003SCOCIG"
"01320099999","2010-01-29T11:50:00","4","61.8333333","6.1166667","60.0","SANDANE ANDA, NO","FM-15","ENSD ","V020","999,9,V,0005,1","99999,9,C,N","011265,1,N,1","-0050,1","-0080,1","99999,9","02,5,+00300,1,99,9","04,5,+00900,1,99,9",,,"04,99,1,99,9,99,9,99999,9,99,9,99,9",,"09871,1,99999,9",,,,"MET060METAR ENSD 291150Z VRB01KT 9999 FEW010 SCT030 M05/M08 Q0987;","P01 009003SCOCIG"
"01320099999","2010-01-29T13:50:00","4","61.8333333","6.1166667","60.0","SANDANE ANDA, NO","FM-15","ENSD ","V020","150,1,N,0015,1","99999,9,C,N","011265,1,N,1","-0040,1","-0080,1","99999,9","02,5,+00600,1,99,9","04,5,+01350,1,99,9",,,"04,99,1,99,9,99,9,99999,9,99,9,99,9",,"09871,1,99999,9",,,,"MET060METAR ENSD 291350Z 15003KT 9999 FEW020 SCT045 M04/M08 Q0987;","P01 013503SCOCIG"
"01320099999","2010-01-29T14:50:00","4","61.8333333","6.1166667","60.0","SANDANE ANDA, NO","FM-15","ENSD ","V020","160,1,N,0021,1","00900,1,C,N","011265,1,N,1","-0050,1","-0080,1","99999,9","02,5,+00300,1,99,9","04,5,+00900,1,99,9","07,5,+01350,1,99,9",,"07,99,1,99,9,99,9,99999,9,99,9,99,9",,"09871,1,99999,9",,,,"MET067METAR ENSD 291450Z 16004KT 9999 FEW010 SCT030 BKN045 M05/M08 Q0987;",
"01320099999","2010-01-29T15:50:00","4","61.8333333","6.1166667","60.0","SANDANE ANDA, NO","FM-15","ENSD ","V020","999,9,V,0010,1","00900,1,C,N","011265,1,N,1","-0050,1","-0080,1","99999,9","02,5,+00300,1,99,9","04,5,+00900,1,99,9","07,5,+01350,1,99,9",,"07,99,1,99,9,99,9,99999,9,99,9,99,9",,"09871,1,99999,9",,,,"MET067METAR ENSD 291550Z VRB02KT 9999 FEW010 SCT030 BKN045 M05/M08 Q0987;",
"01320099999","2010-01-29T16:50:00","4","61.8333333","6.1166667","60.0","SANDANE ANDA, NO","FM-15","ENSD ","V020","160,1,N,0015,1","00900,1,C,N","011265,1,N,1","-0050,1","-0090,1","99999,9","02,5,+00300,1,99,9","04,5,+00900,1,99,9","07,5,+01350,1,99,9",,"07,99,1,99,9,99,9,99999,9,99,9,99,9",,"09871,1,99999,9",,,,"MET067METAR ENSD 291650Z 16003KT 9999 FEW010 SCT030 BKN045 M05/M09 Q0987;",
"01320099999","2010-01-29T17:50:00","4","61.8333333","6.1166667","60.0","SANDANE ANDA, NO","FM-15","ENSD ","V020","170,1,N,0015,1","00900,1,C,N","011265,1,N,1","-0050,1","-0080,1","99999,9","02,5,+00300,1,99,9","04,5,+00900,1,99,9","07,5,+01350,1,99,9",,"07,99,1,99,9,99,9,99999,9,99,9,99,9",,"09871,1,99999,9",,,,"MET067METAR ENSD 291750Z 17003KT 9999 FEW010 SCT030 BKN045 M05/M08 Q0987;",
"01320099999","2010-01-29T18:50:00","4","61.8333333","6.1166667","60.0","SANDANE ANDA, NO","FM-15","ENSD ","V020","999,9,V,0010,1","00900,1,C,N","011265,1,N,1","-0050,1","-0080,1","99999,9","02,5,+00300,1,99,9","04,5,+00900,1,99,9","07,5,+01200,1,99,9",,"07,99,1,99,9,99,9,99999,9,99,9,99,9",,"09861,1,99999,9",,,,"MET067METAR ENSD 291850Z VRB02KT 9999 FEW010 SCT030 BKN040 M05/M08 Q0986;",
"01320099999","2010-01-29T19:50:00","4","61.8333333","6.1166667","60.0","SANDANE ANDA, NO","FM-15","ENSD ","V020","150,1,N,0026,1","00900,1,C,N","011265,1,N,1","-0050,1","-0080,1","99999,9","02,5,+00300,1,99,9","04,5,+00900,1,99,9","07,5,+01200,1,99,9",,"07,99,1,99,9,99,9,99999,9,99,9,99,9",,"09861,1,99999,9",,,,"MET067METAR ENSD 291950Z 15005KT 9999 FEW010 SCT030 BKN040 M05/M08 Q0986;",
"01320099999","2010-01-30T05:50:00","4","61.8333333","6.1166667","60.0","SANDANE ANDA, NO","FM-15","ENSD ","V020","999,9,V,0010,1","00450,1,9,N","005000,1,N,1","-0030,1","-0040,1","99999,9","09,1,+00450,1,99,9",,,,"09,99,1,99,9,99,9,00025,1,99,9,99,9",,"09851,1,99999,9","85,5",,,"MET058METAR ENSD 300550Z VRB02KT 5000 -SHSN VV015 M03/M04 Q0985;",
"01320099999","2010-01-30T06:20:00","4","61.8333333","6.1166667","60.0","SANDANE ANDA, NO","FM-15","ENSD ","V020","999,9,V,0005,1","00720,1,C,N","011265,1,N,1","-0030,1","-0050,1","99999,9","07,5,+00720,1,99,9","02,5,+02400,1,99,9",,,"07,99,1,99,9,99,9,99999,9,99,9,99,9",,"09851,1,99999,9","85,5",,,"MET066METAR ENSD 300620Z VRB01KT 9999 -SHSN FEW080 BKN024 M03/M05 Q0985;",
"01320099999","2010-01-30T06:50:00","4","61.8333333","6.1166667","60.0","SANDANE ANDA, NO","FM-15","ENSD ","V020","999,9,V,0005,1","00240,1,9,N","000400,1,N,1","-0030,1","-0040,1","99999,9","09,1,+00240,1,99,9",,,,"09,99,1,99,9,99,9,00025,1,99,9,99,9",,"09851,1,99999,9","71,1",,,"MET056METAR ENSD 300650Z VRB01KT 0400 -SN VV008 M03/M04 Q0985;",
"01320099999","2010-01-30T08:50:00","4","61.8333333","6.1166667","60.0","SANDANE ANDA, NO","FM-15","ENSD ","V020","150,1,N,0015,1","00900,1,C,N","011265,1,N,1","-0030,1","-0050,1","99999,9","02,5,+00270,1,99,9","04,5,+00900,1,99,9","07,5,+01050,1,99,9",,"07,99,1,99,9,99,9,99999,9,99,9,99,9",,"09851,1,99999,9",,,,"MET067METAR ENSD 300850Z 15003KT 9999 FEW009 SCT030 BKN035 M03/M05 Q0985;",
"01320099999","2010-01-30T09:50:00","4","61.8333333","6.1166667","60.0","SANDANE ANDA, NO","FM-15","ENSD ","V020","999,9,C,0000,1","00900,1,C,N","006000,1,N,1","-0030,1","-0050,1","99999,9","02,5,+00270,1,99,9","04,5,+00900,1,99,9","07,5,+01050,1,99,9",,"07,99,1,99,9,99,9,99999,9,99,9,99,9",,"09851,1,99999,9","85,5",,,"MET073METAR ENSD 300950Z 00000KT 6000 -SHSN FEW009 SCT030 BKN035 M03/M05 Q0985;",
"01320099999","2010-01-30T11:50:00","4","61.8333333","6.1166667","60.0","SANDANE ANDA, NO","FM-15","ENSD ","V020","999,9,V,0010,1","00900,1,C,N","011265,1,N,1","-0020,1","-0050,1","99999,9","02,5,+00090,1,99,9","04,5,+00900,1,99,9","07,5,+01050,1,99,9",,"07,99,1,99,9,99,9,99999,9,99,9,99,9",,"09851,1,99999,9","85,5",,,"MET073METAR ENSD 301150Z VRB02KT 9999 -SHSN FEW003 SCT030 BKN035 M02/M05 Q0985;",
"01320099999","2010-01-30T12:50:00","4","61.8333333","6.1166667","60.0","SANDANE ANDA, NO","FM-15","ENSD ","V020","999,9,V,0010,1","00900,1,C,N","011265,1,N,1","-0020,1","-0050,1","99999,9","02,5,+00150,1,99,9","04,5,+00900,1,99,9","07,5,+01050,1,99,9",,"07,99,1,99,9,99,9,99999,9,99,9,99,9",,"09841,1,99999,9",,,,"MET067METAR ENSD 301250Z VRB02KT 9999 FEW005 SCT030 BKN035 M02/M05 Q0984;",
"01320099999","2010-01-30T13:50:00","4","61.8333333","6.1166667","60.0","SANDANE ANDA, NO","FM-15","ENSD ","V020","080,1,N,0021,1","00900,1,C,N","006000,1,N,1","-0020,1","-0040,1","99999,9","02,5,+00150,1,99,9","04,5,+00900,1,99,9","07,5,+01050,1,99,9",,"07,99,1,99,9,99,9,99999,9,99,9,99,9",,"09841,1,99999,9","85,5",,,"MET073METAR ENSD 301350Z 08004KT 6000 -SHSN FEW005 SCT030 BKN035 M02/M04 Q0984;",
"01320099999","2010-01-30T14:50:00","4","61.8333333","6.1166667","60.0","SANDANE ANDA, NO","FM-15","ENSD ","V020","999,9,V,0010,1","00900,1,C,N","011265,1,N,1","-0020,1","-0050,1","99999,9","02,5,+00090,1,99,9","04,5,+00900,1,99,9","07,5,+01050,1,99,9",,"07,99,1,99,9,99,9,99999,9,99,9,99,9",,"09841,1,99999,9",,,,"MET067METAR ENSD 301450Z VRB02KT 9999 FEW003 SCT030 BKN035 M02/M05 Q0984;",
"01320099999","2010-01-30T15:50:00","4","61.8333333","6.1166667","60.0","SANDANE ANDA, NO","FM-15","ENSD ","V020","999,9,V,0010,1","00900,1,C,N","011265,1,N,1","-0030,1","-0060,1","99999,9","02,5,+00150,1,99,9","04,5,+00900,1,99,9","07,5,+01050,1,99,9",,"07,99,1,99,9,99,9,99999,9,99,9,99,9",,"09831,1,99999,9",,,,"MET067METAR ENSD 301550Z VRB02KT 9999 FEW005 SCT030 BKN035 M03/M06 Q0983;",
"01320099999","2010-01-31T09:50:00","4","61.8333333","6.1166667","60.0","SANDANE ANDA, NO","FM-15","ENSD ","V020","160,1,N,0026,5","99999,9,9,Y","009900,1,N,1","-0080,1","-0110,1","99999,9",,,,,,,"09909,1,99999,9",,,,"MET045METAR ENSD 310950Z 16005 CAVOK M08/M11 Q0991;",
"01320099999","2010-01-31T10:50:00","4","61.8333333","6.1166667","60.0","SANDANE ANDA, NO","FM-15","ENSD ","V020","140,1,N,0021,1","99999,9,9,Y","009900,1,N,1","-0070,1","-0100,1","99999,9",,,,,,,"09919,1,99999,9",,,,"MET047METAR ENSD 311050Z 14004KT CAVOK M07/M10 Q0992;",
"01320099999","2010-01-31T11:50:00","4","61.8333333","6.1166667","60.0","SANDANE ANDA, NO","FM-15","ENSD ","V020","170,1,N,0015,1","99999,9,9,Y","009900,1,N,1","-0060,1","-0110,1","99999,9",,,,,,,"09919,1,99999,9",,,,"MET047METAR ENSD 311150Z 17003KT CAVOK M06/M11 Q0992;",
"01320099999","2010-01-31T14:50:00","4","61.8333333","6.1166667","60.0","SANDANE ANDA, NO","FM-15","ENSD ","V020","150,1,N,0026,1","99999,9,9,Y","009900,1,N,1","-0070,1","-0100,1","99999,9",,,,,,,"09939,1,99999,9",,,,"MET047METAR ENSD 311450Z 15005KT CAVOK M07/M10 Q0994;",
"01320099999","2010-01-31T15:50:00","4","61.8333333","6.1166667","60.0","SANDANE ANDA, NO","FM-15","ENSD ","V020","150,1,N,0026,1","22000,1,9,N","011265,1,N,1","-0080,1","-0110,1","99999,9","02,5,+00900,1,99,9",,,,"02,99,1,99,9,99,9,99999,9,99,9,99,9",,"09939,1,99999,9",,,,"MET053METAR ENSD 311550Z 15005KT 9999 FEW030 M08/M11 Q0994;",
"01320099999","2010-01-31T17:50:00","4","61.8333333","6.1166667","60.0","SANDANE ANDA, NO","FM-15","ENSD ","V020","140,1,N,0026,1","22000,1,9,N","011265,1,N,1","-0080,1","-0110,1","99999,9","04,5,+01200,1,99,9",,,,"04,99,1,99,9,99,9,99999,9,99,9,99,9",,"09959,1,99999,9",,,,"MET053METAR ENSD 311750Z 14005KT 9999 SCT040 M08/M11 Q0996;",
"01320099999","2010-01-31T18:50:00","4","61.8333333","6.1166667","60.0","SANDANE ANDA, NO","FM-15","ENSD ","V020","150,1,N,0026,1","01500,1,C,N","011265,1,N,1","-0070,1","-0100,1","99999,9","02,5,+01200,1,99,9","07,5,+01500,1,99,9",,,"07,99,1,99,9,99,9,99999,9,99,9,99,9",,"09970,1,99999,9",,,,"MET060METAR ENSD 311850Z 15005KT 9999 FEW040 BKN050 M07/M10 Q0997;",
"01320099999","2010-01-31T19:50:00","4","61.8333333","6.1166667","60.0","SANDANE ANDA, NO","FM-15","ENSD ","V020","150,1,N,0026,1","01500,1,C,N","011265,1,N,1","-0070,1","-0110,1","99999,9","02,5,+01200,1,99,9","07,5,+01500,1,99,9",,,"07,99,1,99,9,99,9,99999,9,99,9,99,9",,"09980,1,99999,9",,,,"MET060METAR ENSD 311950Z 15005KT 9999 FEW040 BKN050 M07/M11 Q0998;",
"01320099999","2010-02-01T05:20:00","4","61.8333333","6.1166667","60.0","SANDANE ANDA, NO","FM-15","ENSD ","V020","140,1,N,0026,1","00900,1,C,N","011265,1,N,1","-0070,1","-0110,1","99999,9","02,5,+00600,1,99,9","04,5,+00900,1,99,9","07,5,+01050,1,99,9",,"07,99,1,99,9,99,9,99999,9,99,9,99,9",,"09990,1,99999,9","85,5",,,"MET073METAR ENSD 010520Z 14005KT 9999 -SHSN FEW020 SCT030 BKN035 M07/M11 Q0999;",
"01320099999","2010-02-01T05:50:00","4","61.8333333","6.1166667","60.0","SANDANE ANDA, NO","FM-15","ENSD ","V020","140,1,N,0026,1","00900,1,C,N","011265,1,N,1","-0070,1","-0110,1","99999,9","02,5,+00600,1,99,9","04,5,+00900,1,99,9","07,5,+01050,1,99,9",,"07,99,1,99,9,99,9,99999,9,99,9,99,9",,"09990,1,99999,9","85,5",,,"MET073METAR ENSD 010550Z 14005KT 9999 -SHSN FEW020 SCT030 BKN035 M07/M11 Q0999;",
"01320099999","2010-02-01T07:50:00","4","61.8333333","6.1166667","60.0","SANDANE ANDA, NO","FM-15","ENSD ","V020","140,1,N,0015,1","01050,1,C,N","011265,1,N,1","-0070,1","-0110,1","99999,9","04,5,+00900,1,99,9","07,5,+01050,1,99,9",,,"07,99,1,99,9,99,9,99999,9,99,9,99,9",,"09990,1,99999,9","16,1",,,"MET065METAR ENSD 010750Z 14003KT 9999 VCSH SCT030 BKN035 M07/M11 Q0999;",
"01320099999","2010-02-01T08:50:00","4","61.8333333","6.1166667","60.0","SANDANE ANDA, NO","FM-15","ENSD ","V020","140,1,N,0021,1","01200,1,C,N","011265,1,N,1","-0070,1","-0110,1","99999,9","04,5,+00900,1,99,9","07,5,+01200,1,99,9",,,"07,99,1,99,9,99,9,99999,9,99,9,99,9",,"09990,1,99999,9","16,1",,,"MET065METAR ENSD 010850Z 14004KT 9999 VCSH SCT030 BKN040 M07/M11 Q0999;",
"01320099999","2010-02-01T09:50:00","4","61.8333333","6.1166667","60.0","SANDANE ANDA, NO","FM-15","ENSD ","V020","160,1,N,0026,1","01050,1,C,N","011265,1,N,1","-0060,1","-0100,1","99999,9","02,5,+00900,1,99,9","04,5,+01050,1,99,9","07,5,+01200,1,99,9",,"07,99,1,99,9,99,9,99999,9,99,9,99,9",,"09990,1,99999,9",,,,"MET067METAR ENSD 010950Z 16005KT 9999 FEW030 SCT035 BKN040 M06/M10 Q0999;",
"01320099999","2010-02-01T10:50:00","4","61.8333333","6.1166667","60.0","SANDANE ANDA, NO","FM-15","ENSD ","V020","170,1,N,0015,1","01050,1,C,N","011265,1,N,1","-0050,1","-0100,1","99999,9","02,5,+00900,1,99,9","04,5,+01050,1,99,9","07,5,+01200,1,99,9",,"07,99,1,99,9,99,9,99999,9,99,9,99,9",,"09990,1,99999,9",,,,"MET067METAR ENSD 011050Z 17003KT 9999 FEW030 SCT035 BKN040 M05/M10 Q0999;",
"01320099999","2010-02-01T11:50:00","4","61.8333333","6.1166667","60.0","SANDANE ANDA, NO","FM-15","ENSD ","V020","999,9,C,0000,1","01050,1,C,N","011265,1,N,1","-0040,1","-0090,1","99999,9","02,5,+00900,1,99,9","04,5,+01050,1,99,9","07,5,+01200,1,99,9",,"07,99,1,99,9,99,9,99999,9,99,9,99,9",,"09990,1,99999,9",,,,"MET067METAR ENSD 011150Z 00000KT 9999 FEW030 SCT035 BKN040 M04/M09 Q0999;",
"01320099999","2010-02-01T12:50:00","4","61.8333333","6.1166667","60.0","SANDANE ANDA, NO","FM-15","ENSD ","V020","999,9,V,0005,1","01350,1,C,N","011265,1,N,1","-0040,1","-0090,1","99999,9","04,5,+01050,1,99,9","07,5,+01350,1,99,9",,,"07,99,1,99,9,99,9,99999,9,99,9,99,9",,"09990,1,99999,9",,,,"MET060METAR ENSD 011250Z VRB01KT 9999 SCT035 BKN045 M04/M09 Q0999;",
"01320099999","2010-02-01T13:50:00","4","61.8333333","6.1166667","60.0","SANDANE ANDA, NO","FM-15","ENSD ","V020","150,1,N,0015,1","01500,1,C,N","011265,1,N,1","-0040,1","-0090,1","99999,9","04,5,+01050,1,99,9","07,5,+01500,1,99,9",,,"07,99,1,99,9,99,9,99999,9,99,9,99,9",,"09990,1,99999,9",,,,"MET068METAR ENSD 011350Z 15003KT 080V190 9999 SCT035 BKN050 M04/M09 Q0999;",
"01320099999","2010-02-01T14:50:00","4","61.8333333","6.1166667","60.0","SANDANE ANDA, NO","FM-15","ENSD ","V020","999,9,V,0010,1","01500,1,C,N","011265,1,N,1","-0040,1","-0080,1","99999,9","04,5,+01050,1,99,9","07,5,+01500,1,99,9",,,"07,99,1,99,9,99,9,99999,9,99,9,99,9",,"09980,1,99999,9",,,,"MET060METAR ENSD 011450Z VRB02KT 9999 SCT035 BKN050 M04/M08 Q0998;",
"01320099999","2010-02-01T16:50:00","4","61.8333333","6.1166667","60.0","SANDANE ANDA, NO","FM-15","ENSD ","V020","999,9,C,0000,1","01350,1,C,N","011265,1,N,1","-0040,1","-0080,1","99999,9","04,5,+01050,1,99,9","07,5,+01350,1,99,9",,,"07,99,1,99,9,99,9,99999,9,99,9,99,9",,"09980,1,99999,9",,,,"MET060METAR ENSD 011650Z 00000KT 9999 SCT035 BKN045 M04/M08 Q0998;",
"01320099999","2010-02-01T17:50:00","4","61.8333333","6.1166667","60.0","SANDANE ANDA, NO","FM-15","ENSD ","V020","140,1,N,0021,1","01500,1,C,N","011265,1,N,1","-0040,1","-0070,1","99999,9","04,5,+01050,1,99,9","07,5,+01500,1,99,9",,,"07,99,1,99,9,99,9,99999,9,99,9,99,9",,"09980,1,99999,9",,,,"MET060METAR ENSD 011750Z 14004KT 9999 SCT035 BKN050 M04/M07 Q0998;",
"01320099999","2010-02-01T18:50:00","4","61.8333333","6.1166667","60.0","SANDANE ANDA, NO","FM-15","ENSD ","V020","999,9,V,0005,1","01650,5,C,N","011265,1,N,1","-0040,1","-0070,1","99999,9","04,5,+01050,1,99,9","07,5,+01650,5,99,9",,,"07,99,1,99,9,99,9,99999,9,99,9,99,9",,"09980,1,99999,9",,,,"MET060METAR ENSD 011850Z VRB01KT 9999 SCT035 BKN055 M04/M07 Q0998;",
"01320099999","2010-02-01T19:50:00","4","61.8333333","6.1166667","60.0","SANDANE ANDA, NO","FM-15","ENSD ","V020","999,9,V,0010,1","01500,1,C,N","011265,1,N,1","-0040,1","-0070,1","99999,9","04,5,+01050,1,99,9","07,5,+01500,1,99,9",,,"07,99,1,99,9,99,9,99999,9,99,9,99,9",,"09980,1,99999,9",,,,"MET060METAR ENSD 011950Z VRB02KT 9999 SCT035 BKN050 M04/M07 Q0998;",
"01320099999","2010-02-02T05:20:00","4","61.8333333","6.1166667","60.0","SANDANE ANDA, NO","FM-15","ENSD ","V020","140,1,N,0026,1","22000,1,9,N","011265,1,N,1","-0060,1","-0090,1","99999,9","04,5,+01500,1,99,9",,,,"04,99,1,99,9,99,9,99999,9,99,9,99,9",,"09970,1,99999,9",,,,"MET053METAR ENSD 020520Z 14005KT 9999 SCT050 M06/M09 Q0997;",
"01320099999","2010-02-02T06:50:00","4","61.8333333","6.1166667","60.0","SANDANE ANDA, NO","FM-15","ENSD ","V020","140,1,N,0026,1","99999,9,9,Y","009900,1,N,1","-0060,1","-0090,1","99999,9",,,,,,,"09970,1,99999,9",,,,"MET047METAR ENSD 020650Z 14005KT CAVOK M06/M09 Q0997;",
"01320099999","2010-02-02T07:50:00","4","61.8333333","6.1166667","60.0","SANDANE ANDA, NO","FM-15","ENSD ","V020","140,1,N,0026,1","99999,9,9,Y","009900,1,N,1","-0060,1","-0090,1","99999,9",,,,,,,"09970,1,99999,9",,,,"MET047METAR ENSD 020750Z 14005KT CAVOK M06/M09 Q0997;",
"01320099999","2010-02-02T08:50:00","4","61.8333333","6.1166667","60.0","SANDANE ANDA, NO","FM-15","ENSD ","V020","140,1,N,0036,1","99999,9,9,Y","009900,1,N,1","-0060,1","-0090,1","99999,9",,,,,,,"09959,1,99999,9",,,,"MET047METAR ENSD 020850Z 14007KT CAVOK M06/M09 Q0996;",
"01320099999","2010-02-02T09:50:00","4","61.8333333","6.1166667","60.0","SANDANE ANDA, NO","FM-15","ENSD ","V020","150,1,N,0031,1","99999,9,9,Y","009900,1,N,1","-0060,1","-0100,1","99999,9",,,,,,,"09959,1,99999,9",,,,"MET047METAR ENSD 020950Z 15006KT CAVOK M06/M10 Q0996;",
"01320099999","2010-02-02T10:50:00","4","61.8333333","6.1166667","60.0","SANDANE ANDA, NO","FM-15","ENSD ","V020","150,1,N,0026,1","99999,9,9,Y","009900,1,N,1","-0050,1","-0100,1","99999,9",,,,,,,"09959,1,99999,9",,,,"MET047METAR ENSD 021050Z 15005KT CAVOK M05/M10 Q0996;",
"01320099999","2010-02-02T11:50:00","4","61.8333333","6.1166667","60.0","SANDANE ANDA, NO","FM-15","ENSD ","V020","150,1,N,0026,1","99999,9,9,Y","009900,1,N,1","-0050,1","-0090,1","99999,9",,,,,,,"09949,1,99999,9",,,,"MET047METAR ENSD 021150Z 15005KT CAVOK M05/M09 Q0995;",
"01320099999","2010-02-02T12:50:00","4","61.8333333","6.1166667","60.0","SANDANE ANDA, NO","FM-15","ENSD ","V020","999,9,V,0015,1","99999,9,9,Y","009900,1,N,1","-0040,1","-0090,1","99999,9",,,,,,,"09949,1,99999,9",,,,"MET047METAR ENSD 021250Z VRB03KT CAVOK M04/M09 Q0995;",
"01320099999","2010-02-02T13:50:00","4","61.8333333","6.1166667","60.0","SANDANE ANDA, NO","FM-15","ENSD ","V020","160,1,N,0026,1","99999,9,9,Y","009900,1,N,1","-0050,1","-0090,1","99999,9",,,,,,,"09949,1,99999,9",,,,"MET047METAR ENSD 021350Z 16005KT CAVOK M05/M09 Q0995;",
"01320099999","2010-02-02T14:50:00","4","61.8333333","6.1166667","60.0","SANDANE ANDA, NO","FM-15","ENSD ","V020","160,1,N,0041,1","99999,9,9,Y","009900,1,N,1","-0050,1","-0090,1","99999,9",,,,,,,"09949,1,99999,9",,,,"MET047METAR ENSD 021450Z 16008KT CAVOK M05/M09 Q0995;",
"01320099999","2010-02-02T15:50:00","4","61.8333333","6.1166667","60.0","SANDANE ANDA, NO","FM-15","ENSD ","V020","160,1,N,0036,1","99999,9,9,Y","009900,1,N,1","-0060,1","-0100,1","99999,9",,,,,,,"09949,1,99999,9",,,,"MET047METAR ENSD 021550Z 16007KT CAVOK M06/M10 Q0995;",
"01320099999","2010-02-02T16:50:00","4","61.8333333","6.1166667","60.0","SANDANE ANDA, NO","FM-15","ENSD ","V020","150,1,N,0036,1","99999,9,9,Y","009900,1,N,1","-0060,1","-0100,1","99999,9",,,,,,,"09949,1,99999,9",,,,"MET047METAR ENSD 021650Z 15007KT CAVOK M06/M10 Q0995;",
"01320099999","2010-02-02T17:50:00","4","61.8333333","6.1166667","60.0","SANDANE ANDA, NO","FM-15","ENSD ","V020","140,1,N,0041,1","99999,9,9,Y","009900,1,N,1","-0070,1","-0100,1","99999,9",,,,,,,"09949,1,99999,9",,,,"MET047METAR ENSD 021750Z 14008KT CAVOK M07/M10 Q0995;",
"01320099999","2010-02-02T18:50:00","4","61.8333333","6.1166667","60.0","SANDANE ANDA, NO","FM-15","ENSD ","V020","150,1,N,0036,1","99999,9,9,Y","009900,1,N,1","-0070,1","-0090,1","99999,9",,,,,,,"09959,1,99999,9",,,,"MET047METAR ENSD 021850Z 15007KT CAVOK M07/M09 Q0996;",
"01320099999","2010-02-02T19:50:00","4","61.8333333","6.1166667","60.0","SANDANE ANDA, NO","FM-15","ENSD ","V020","150,1,N,0036,1","99999,9,9,Y","009900,1,N,1","-0070,1","-0100,1","99999,9",,,,,,,"09959,1,99999,9",,,,"MET047METAR ENSD 021950Z 15007KT CAVOK M07/M10 Q0996;",
"01320099999","2010-02-03T05:20:00","4","61.8333333","6.1166667","60.0","SANDANE ANDA, NO","FM-15","ENSD ","V020","140,1,N,0031,1","22000,1,9,N","011265,1,N,1","-0090,1","-0120,1","99999,9","02,5,+00300,1,99,9",,,,"02,99,1,99,9,99,9,99999,9,99,9,99,9",,"09990,1,99999,9",,,,"MET053METAR ENSD 030520Z 14006KT 9999 FEW010 M09/M12 Q0999;",
"01320099999","2010-02-03T05:50:00","4","61.8333333","6.1166667","60.0","SANDANE ANDA, NO","FM-15","ENSD ","V020","140,1,N,0036,1","22000,1,9,N","011265,1,N,1","-0090,1","-0120,1","99999,9","02,5,+00300,1,99,9",,,,"02,99,1,99,9,99,9,99999,9,99,9,99,9",,"09990,1,99999,9",,,,"MET053METAR ENSD 030550Z 14007KT 9999 FEW010 M09/M12 Q0999;",
"01320099999","2010-02-03T06:50:00","4","61.8333333","6.1166667","60.0","SANDANE ANDA, NO","FM-15","ENSD ","V020","140,1,N,0041,1","22000,1,9,N","011265,1,N,1","-0090,1","-0120,1","99999,9","02,5,+00300,1,99,9",,,,"02,99,1,99,9,99,9,99999,9,99,9,99,9",,"10000,1,99999,9",,,,"MET053METAR ENSD 030650Z 14008KT 9999 FEW010 M09/M12 Q1000;",
"01320099999","2010-02-03T07:50:00","4","61.8333333","6.1166667","60.0","SANDANE ANDA, NO","FM-15","ENSD ","V020","140,1,N,0026,1","22000,1,9,N","011265,1,N,1","-0090,1","-0130,1","99999,9","02,5,+00300,1,99,9",,,,"02,99,1,99,9,99,9,99999,9,99,9,99,9",,"10000,1,99999,9",,,,"MET053METAR ENSD 030750Z 14005KT 9999 FEW010 M09/M13 Q1000;",
"01320099999","2010-02-03T08:50:00","4","61.8333333","6.1166667","60.0","SANDANE ANDA, NO","FM-15","ENSD ","V020","150,1,N,0036,1","22000,1,9,N","011265,1,N,1","-0090,1","-0120,1","99999,9","02,5,+00150,1,99,9",,,,"02,99,1,99,9,99,9,99999,9,99,9,99,9",,"10010,1,99999,9",,,,"MET053METAR ENSD 030850Z 15007KT 9999 FEW005 M09/M12 Q1001;",
"01320099999","2010-02-03T09:50:00","4","61.8333333","6.1166667","60.0","SANDANE ANDA, NO","FM-15","ENSD ","V020","140,1,N,0021,1","22000,1,9,N","011265,1,N,1","-0090,1","-0120,1","99999,9","02,5,+00150,1,99,9",,,,"02,99,1,99,9,99,9,99999,9,99,9,99,9",,"10010,1,99999,9",,,,"MET053METAR ENSD 030950Z 14004KT 9999 FEW005 M09/M12 Q1001;",
"01320099999","2010-02-03T10:50:00","4","61.8333333","6.1166667","60.0","SANDANE ANDA, NO","FM-15","ENSD ","V020","160,1,N,0026,1","22000,1,9,N","011265,1,N,1","-0080,1","-0120,1","99999,9","02,5,+00150,1,99,9",,,,"02,99,1,99,9,99,9,99999,9,99,9,99,9",,"10020,1,99999,9",,,,"MET053METAR ENSD 031050Z 16005KT 9999 FEW005 M08/M12 Q1002;",
"01320099999","2010-02-03T11:50:00","4","61.8333333","6.1166667","60.0","SANDANE ANDA, NO","FM-15","ENSD ","V020","150,1,N,0036,1","22000,1,9,N","011265,1,N,1","-0070,1","-0110,1","99999,9","02,5,+00150,1,99,9",,,,"02,99,1,99,9,99,9,99999,9,99,9,99,9",,"10020,1,99999,9",,,,"MET053METAR ENSD 031150Z 15007KT 9999 FEW005 M07/M11 Q1002;",
"01320099999","2010-02-03T12:50:00","4","61.8333333","6.1166667","60.0","SANDANE ANDA, NO","FM-15","ENSD ","V020","150,1,N,0026,1","22000,1,9,N","011265,1,N,1","-0060,1","-0110,1","99999,9","02,5,+00150,1,99,9",,,,"02,99,1,99,9,99,9,99999,9,99,9,99,9",,"10020,1,99999,9",,,,"MET053METAR ENSD 031250Z 15005KT 9999 FEW005 M06/M11 Q1002;",
"01320099999","2010-02-03T13:50:00","4","61.8333333","6.1166667","60.0","SANDANE ANDA, NO","FM-15","ENSD ","V020","150,1,N,0031,1","99999,9,9,Y","009900,1,N,1","-0060,1","-0110,1","99999,9",,,,,,,"10031,1,99999,9",,,,"MET047METAR ENSD 031350Z 15006KT CAVOK M06/M11 Q1003;",
"01320099999","2010-02-03T14:50:00","4","61.8333333","6.1166667","60.0","SANDANE ANDA, NO","FM-15","ENSD ","V020","150,1,N,0031,1","99999,9,9,Y","009900,1,N,1","-0070,1","-0110,1","99999,9",,,,,,,"10031,1,99999,9",,,,"MET047METAR ENSD 031450Z 15006KT CAVOK M07/M11 Q1003;",
"01320099999","2010-02-03T15:50:00","4","61.8333333","6.1166667","60.0","SANDANE ANDA, NO","FM-15","ENSD ","V020","140,1,N,0031,1","99999,9,9,Y","009900,1,N,1","-0070,1","-0120,1","99999,9",,,,,,,"10031,1,99999,9",,,,"MET047METAR ENSD 031550Z 14006KT CAVOK M07/M12 Q1003;",
"01320099999","2010-02-03T16:50:00","4","61.8333333","6.1166667","60.0","SANDANE ANDA, NO","FM-15","ENSD ","V020","140,1,N,0036,1","99999,9,9,Y","009900,1,N,1","-0070,1","-0110,1","99999,9",,,,,,,"10041,1,99999,9",,,,"MET047METAR ENSD 031650Z 14007KT CAVOK M07/M11 Q1004;",
"01320099999","2010-02-03T17:50:00","4","61.8333333","6.1166667","60.0","SANDANE ANDA, NO","FM-15","ENSD ","V020","999,9,V,0015,1","99999,9,9,Y","009900,1,N,1","-0080,1","-0110,1","99999,9",,,,,,,"10041,1,99999,9",,,,"MET047METAR ENSD 031750Z VRB03KT CAVOK M08/M11 Q1004;",
"01320099999","2010-02-03T18:50:00","4","61.8333333","6.1166667","60.0","SANDANE ANDA, NO","FM-15","ENSD ","V020","150,1,N,0026,1","99999,9,9,Y","009900,1,N,1","-0070,1","-0110,1","99999,9",,,,,,,"10041,1,99999,9",,,,"MET047METAR ENSD 031850Z 15005KT CAVOK M07/M11 Q1004;",
"01320099999","2010-02-03T19:50:00","4","61.8333333","6.1166667","60.0","SANDANE ANDA, NO","FM-15","ENSD ","V020","140,1,N,0036,1","99999,9,9,Y","009900,1,N,1","-0080,1","-0110,1","99999,9",,,,,,,"10051,1,99999,9",,,,"MET047METAR ENSD 031950Z 14007KT CAVOK M08/M11 Q1005;",
"01320099999","2010-02-04T05:20:00","4","61.8333333","6.1166667","60.0","SANDANE ANDA, NO","FM-15","ENSD ","V020","150,1,N,0041,1","99999,9,9,Y","009900,1,N,1","-0080,1","-0110,1","99999,9",,,,,,,"10091,1,99999,9",,,,"MET047METAR ENSD 040520Z 15008KT CAVOK M08/M11 Q1009;",
"01320099999","2010-02-04T06:50:00","4","61.8333333","6.1166667","60.0","SANDANE ANDA, NO","FM-15","ENSD ","V020","999,9,V,0021,1","99999,9,9,Y","009900,1,N,1","-0080,1","-0120,1","99999,9",,,,,,,"10091,1,99999,9",,,,"MET047METAR ENSD 040650Z VRB04KT CAVOK M08/M12 Q1009;",
"01320099999","2010-02-04T07:50:00","4","61.8333333","6.1166667","60.0","SANDANE ANDA, NO","FM-15","ENSD ","V020","140,1,N,0026,1","99999,9,9,Y","009900,1,N,1","-0070,1","-0100,1","99999,9",,,,,,,"10091,1,99999,9",,,,"MET047METAR ENSD 040750Z 14005KT CAVOK M07/M10 Q1009;",
"01320099999","2010-02-04T08:50:00","4","61.8333333","6.1166667","60.0","SANDANE ANDA, NO","FM-15","ENSD ","V020","140,1,N,0031,1","99999,9,9,Y","009900,1,N,1","-0070,1","-0100,1","99999,9",,,,,,,"10102,1,99999,9",,,,"MET047METAR ENSD 040850Z 14006KT CAVOK M07/M10 Q1010;",
"01320099999","2010-02-04T09:50:00","4","61.8333333","6.1166667","60.0","SANDANE ANDA, NO","FM-15","ENSD ","V020","999,9,V,0010,1","99999,9,9,Y","009900,1,N,1","-0070,1","-0110,1","99999,9",,,,,,,"10102,1,99999,9",,,,"MET047METAR ENSD 040950Z VRB02KT CAVOK M07/M11 Q1010;",
"01320099999","2010-02-04T10:50:00","4","61.8333333","6.1166667","60.0","SANDANE ANDA, NO","FM-15","ENSD ","V020","150,1,N,0021,1","99999,9,9,Y","009900,1,N,1","-0050,1","-0110,1","99999,9",,,,,,,"10102,1,99999,9",,,,"MET047METAR ENSD 041050Z 15004KT CAVOK M05/M11 Q1010;",
"01320099999","2010-02-04T11:50:00","4","61.8333333","6.1166667","60.0","SANDANE ANDA, NO","FM-15","ENSD ","V020","150,1,N,0026,1","99999,9,9,Y","009900,1,N,1","-0050,1","-0100,1","99999,9",,,,,,,"10108,1,99999,9",,,,"MET055METAR ENSD 041150Z 15005KT 060V210 CAVOK M05/M10 Q1011;",
"01320099999","2010-02-04T12:50:00","4","61.8333333","6.1166667","60.0","SANDANE ANDA, NO","FM-15","ENSD ","V020","150,1,N,0021,1","99999,9,9,Y","009900,1,N,1","-0040,1","-0100,1","99999,9",,,,,,,"10108,1,99999,9",,,,"MET047METAR ENSD 041250Z 15004KT CAVOK M04/M10 Q1011;",
"01320099999","2010-02-04T13:50:00","4","61.8333333","6.1166667","60.0","SANDANE ANDA, NO","FM-15","ENSD ","V020","150,1,N,0015,1","99999,9,9,Y","009900,1,N,1","-0040,1","-0100,1","99999,9",,,,,,,"10102,1,99999,9",,,,"MET047METAR ENSD 041350Z 15003KT CAVOK M04/M10 Q1010;",
"01320099999","2010-02-04T14:50:00","4","61.8333333","6.1166667","60.0","SANDANE ANDA, NO","FM-15","ENSD ","V020","120,1,N,0031,1","99999,9,9,Y","009900,1,N,1","-0040,1","-0110,1","99999,9",,,,,,,"10102,1,99999,9",,,,"MET047METAR ENSD 041450Z 12006KT CAVOK M04/M11 Q1010;",
"01320099999","2010-02-04T15:50:00","4","61.8333333","6.1166667","60.0","SANDANE ANDA, NO","FM-15","ENSD ","V020","140,1,N,0031,1","99999,9,9,Y","009900,1,N,1","-0050,1","-0100,1","99999,9",,,,,,,"10102,1,99999,9",,,,"MET047METAR ENSD 041550Z 14006KT CAVOK M05/M10 Q1010;",
"01320099999","2010-02-04T17:50:00","4","61.8333333","6.1166667","60.0","SANDANE ANDA, NO","FM-15","ENSD ","V020","999,9,V,0005,1","99999,9,9,Y","009900,1,N,1","-0040,1","-0100,1","99999,9",,,,,,,"10102,1,99999,9",,,,"MET047METAR ENSD 041750Z VRB01KT CAVOK M04/M10 Q1010;",
"01320099999","2010-02-04T18:50:00","4","61.8333333","6.1166667","60.0","SANDANE ANDA, NO","FM-15","ENSD ","V020","150,1,N,0031,1","22000,1,9,N","011265,1,N,1","-0030,1","-0090,1","99999,9","04,5,+01050,1,99,9",,,,"04,99,1,99,9,99,9,99999,9,99,9,99,9",,"10091,1,99999,9",,,,"MET053METAR ENSD 041850Z 15006KT 9999 SCT035 M03/M09 Q1009;",
"01320099999","2010-02-04T19:50:00","4","61.8333333","6.1166667","60.0","SANDANE ANDA, NO","FM-15","ENSD ","V020","150,1,N,0031,1","00330,1,9,N","002000,1,N,1","-0040,1","-0060,1","99999,9","09,1,+00330,1,99,9",,,,"09,99,1,99,9,99,9,00025,1,99,9,99,9",,"10091,1,99999,9",,,,"MET052METAR ENSD 041950Z 15006KT 2000 VV011 M04/M06 Q1009;",
"01320099999","2010-02-05T05:20:00","4","61.8333333","6.1166667","60.0","SANDANE ANDA, NO","FM-15","ENSD ","V020","240,1,N,0015,1","01200,1,C,N","011265,1,N,1","+0030,1","-0060,1","99999,9","02,5,+00900,1,99,9","04,5,+01200,1,99,9","07,5,+01350,1,99,9",,"07,99,1,99,9,99,9,99999,9,99,9,99,9",,"10102,1,99999,9",,,,"MET066METAR ENSD 050520Z 24003KT 9999 FEW030 SCT040 BKN045 03/M06 Q1010;",
"01320099999","2010-02-05T05:50:00","4","61.8333333","6.1166667","60.0","SANDANE ANDA, NO","FM-15","ENSD ","V020","120,1,N,0015,1","01200,1,C,N","011265,1,N,1","+0030,1","-0070,1","99999,9","02,5,+00900,1,99,9","04,5,+01200,1,99,9","07,5,+01350,1,99,9",,"07,99,1,99,9,99,9,99999,9,99,9,99,9",,"10102,1,99999,9",,,,"MET066METAR ENSD 050550Z 12003KT 9999 FEW030 SCT040 BKN045 03/M07 Q1010;",
"01320099999","2010-02-05T06:50:00","4","61.8333333","6.1166667","60.0","SANDANE ANDA, NO","FM-15","ENSD ","V020","999,9,V,0010,1","01200,1,C,N","011265,1,N,1","+0030,1","-0070,1","99999,9","02,5,+00900,1,99,9","04,5,+01200,1,99,9","07,5,+01350,1,99,9",,"07,99,1,99,9,99,9,99999,9,99,9,99,9",,"10108,1,99999,9",,,,"MET066METAR ENSD 050650Z VRB02KT 9999 FEW030 SCT040 BKN045 03/M07 Q1011;",
"01320099999","2010-02-05T07:50:00","4","61.8333333","6.1166667","60.0","SANDANE ANDA, NO","FM-15","ENSD ","V020","020,1,N,0026,1","01200,1,C,N","011265,1,N,1","+0030,1","-0070,1","99999,9","02,5,+00900,1,99,9","04,5,+01200,1,99,9","07,5,+01350,1,99,9",,"07,99,1,99,9,99,9,99999,9,99,9,99,9",,"10108,1,99999,9",,,,"MET066METAR ENSD 050750Z 02005KT 9999 FEW030 SCT040 BKN045 03/M07 Q1011;",
"01320099999","2010-02-05T08:50:00","4","61.8333333","6.1166667","60.0","SANDANE ANDA, NO","FM-15","ENSD ","V020","190,1,N,0026,1","01200,1,C,N","011265,1,N,1","+0040,1","-0080,1","99999,9","02,5,+00900,1,99,9","04,5,+01200,1,99,9","07,5,+01350,1,99,9",,"07,99,1,99,9,99,9,99999,9,99,9,99,9",,"10119,1,99999,9",,,,"MET066METAR ENSD 050850Z 19005KT 9999 FEW030 SCT040 BKN045 04/M08 Q1012;",
"01320099999","2010-02-05T09:50:00","4","61.8333333","6.1166667","60.0","SANDANE ANDA, NO","FM-15","ENSD ","V020","210,1,N,0021,1","01200,1,C,N","011265,1,N,1","+0040,1","-0060,1","99999,9","02,5,+00900,1,99,9","04,5,+01200,1,99,9","07,5,+01350,1,99,9",,"07,99,1,99,9,99,9,99999,9,99,9,99,9",,"10119,1,99999,9",,,,"MET066METAR ENSD 050950Z 21004KT 9999 FEW030 SCT040 BKN045 04/M06 Q1012;",
"01320099999","2010-02-05T10:50:00","4","61.8333333","6.1166667","60.0","SANDANE ANDA, NO","FM-15","ENSD ","V020","180,1,N,0015,1","01500,1,C,N","011265,1,N,1","+0040,1","-0070,1","99999,9","02,5,+01200,1,99,9","07,5,+01500,1,99,9",,,"07,99,1,99,9,99,9,99999,9,99,9,99,9",,"10129,1,99999,9",,,,"MET059METAR ENSD 051050Z 18003KT 9999 FEW040 BKN050 04/M07 Q1013;",
"01320099999","2010-02-05T11:50:00","4","61.8333333","6.1166667","60.0","SANDANE ANDA, NO","FM-15","ENSD ","V020","110,1,N,0015,1","01500,1,C,N","011265,1,N,1","+0040,1","-0070,1","99999,9","02,5,+01200,1,99,9","07,5,+01500,1,99,9",,,"07,99,1,99,9,99,9,99999,9,99,9,99,9",,"10129,1,99999,9",,,,"MET059METAR ENSD 051150Z 11003KT 9999 FEW040 BKN050 04/M07 Q1013;",
"01320099999","2010-02-05T12:50:00","4","61.8333333","6.1166667","60.0","SANDANE ANDA, NO","FM-15","ENSD ","V020","999,9,V,0005,1","01800,1,C,N","011265,1,N,1","+0030,1","-0050,1","99999,9","02,5,+01350,1,99,9","07,5,+01800,1,99,9",,,"07,99,1,99,9,99,9,99999,9,99,9,99,9",,"10139,1,99999,9",,,,"MET059METAR ENSD 051250Z VRB01KT 9999 FEW045 BKN060 03/M05 Q1014;",
"01320099999","2010-02-05T13:50:00","4","61.8333333","6.1166667","60.0","SANDANE ANDA, NO","FM-15","ENSD ","V020","999,9,V,0015,1","01800,1,C,N","011265,1,N,1","+0040,1","-0060,1","99999,9","02,5,+01350,1,99,9","07,5,+01800,1,99,9",,,"07,99,1,99,9,99,9,99999,9,99,9,99,9",,"10139,1,99999,9",,,,"MET059METAR ENSD 051350Z VRB03KT 9999 FEW045 BKN060 04/M06 Q1014;",
"01320099999","2010-02-05T15:50:00","4","61.8333333","6.1166667","60.0","SANDANE ANDA, NO","FM-15","ENSD ","V020","999,9,C,0000,1","02400,1,C,N","011265,1,N,1","+0020,1","-0040,1","99999,9","02,5,+01800,1,99,9","07,5,+02400,1,99,9",,,"07,99,1,99,9,99,9,99999,9,99,9,99,9",,"10149,1,99999,9",,,,"MET059METAR ENSD 051550Z 00000KT 9999 FEW060 BKN080 02/M04 Q1015;",
"01320099999","2010-02-05T16:50:00","4","61.8333333","6.1166667","60.0","SANDANE ANDA, NO","FM-15","ENSD ","V020","999,9,V,0005,1","03000,1,C,N","011265,1,N,1","+0020,1","-0040,1","99999,9","02,5,+01800,1,99,9","07,5,+03000,1,99,9",,,"07,99,1,99,9,99,9,99999,9,99,9,99,9",,"10149,1,99999,9",,,,"MET059METAR ENSD 051650Z VRB01KT 9999 FEW060 BKN100 02/M04 Q1015;",
"01320099999","2010-02-05T18:20:00","4","61.8333333","6.1166667","60.0","SANDANE ANDA, NO","FM-15","ENSD ","V020","999,9,C,0000,1","01950,5,C,N","011265,1,N,1","+0010,1","-0030,1","99999,9","02,5,+01500,1,99,9","07,5,+01950,5,99,9",,,"07,99,1,99,9,99,9,99999,9,99,9,99,9",,"10159,1,99999,9",,,,"MET059METAR ENSD 051820Z 00000KT 9999 FEW050 BKN065 01/M03 Q1016;",
"01320099999","2010-02-05T18:50:00","4","61.8333333","6.1166667","60.0","SANDANE ANDA, NO","FM-15","ENSD ","V020","999,9,C,0000,1","01950,5,C,N","011265,1,N,1","+0010,1","-0030,1","99999,9","02,5,+01500,1,99,9","07,5,+01950,5,99,9",,,"07,99,1,99,9,99,9,99999,9,99,9,99,9",,"10159,1,99999,9",,,,"MET059METAR ENSD 051850Z 00000KT 9999 FEW050 BKN065 01/M03 Q1016;",
"01320099999","2010-02-05T19:50:00","4","61.8333333","6.1166667","60.0","SANDANE ANDA, NO","FM-15","ENSD ","V020","999,9,V,0010,1","99999,9,C,N","011265,1,N,1","+0010,1","-0030,1","99999,9","02,5,+01800,1,99,9","04,5,+02400,1,99,9",,,"04,99,1,99,9,99,9,99999,9,99,9,99,9",,"10169,1,99999,9",,,,"MET059METAR ENSD 051950Z VRB02KT 9999 FEW060 SCT080 01/M03 Q1017;","P01 024003SCOCIG"
"01320099999","2010-02-06T06:20:00","4","61.8333333","6.1166667","60.0","SANDANE ANDA, NO","FM-15","ENSD ","V020","999,9,V,0010,1","99999,9,9,Y","009900,1,N,1","-0010,1","-0040,1","99999,9",,,,,,,"10230,1,99999,9",,,,"MET047METAR ENSD 060620Z VRB02KT CAVOK M01/M04 Q1023;",
"01320099999","2010-02-06T06:50:00","4","61.8333333","6.1166667","60.0","SANDANE ANDA, NO","FM-15","ENSD ","V020","999,9,C,0000,1","99999,9,9,Y","009900,1,N,1","-0020,1","-0040,1","99999,9",,,,,,,"10230,1,99999,9",,,,"MET047METAR ENSD 060650Z 00000KT CAVOK M02/M04 Q1023;",
"01320099999","2010-02-06T08:20:00","4","61.8333333","6.1166667","60.0","SANDANE ANDA, NO","FM-15","ENSD ","V020","999,9,C,0000,1","99999,9,9,Y","009900,1,N,1","-0020,1","-0050,1","99999,9",,,,,,,"10240,1,99999,9",,,,"MET047METAR ENSD 060820Z 00000KT CAVOK M02/M05 Q1024;",
"01320099999","2010-02-06T08:50:00","4","61.8333333","6.1166667","60.0","SANDANE ANDA, NO","FM-15","ENSD ","V020","999,9,V,0005,1","99999,9,9,Y","009900,1,N,1","-0020,1","-0050,1","99999,9",,,,,,,"10240,1,99999,9",,,,"MET047METAR ENSD 060850Z VRB01KT CAVOK M02/M05 Q1024;",
"01320099999","2010-02-06T10:20:00","4","61.8333333","6.1166667","60.0","SANDANE ANDA, NO","FM-15","ENSD ","V020","999,9,V,0005,1","99999,9,9,Y","009900,1,N,1","-0020,1","-0050,1","99999,9",,,,,,,"10251,1,99999,9",,,,"MET047METAR ENSD 061020Z VRB01KT CAVOK M02/M05 Q1025;",
"01320099999","2010-02-06T11:50:00","4","61.8333333","6.1166667","60.0","SANDANE ANDA, NO","FM-15","ENSD ","V020","999,9,V,0010,1","99999,9,9,Y","009900,1,N,1","+0010,1","-0050,1","99999,9",,,,,,,"10251,1,99999,9",,,,"MET046METAR ENSD 061150Z VRB02KT CAVOK 01/M05 Q1025;",
"01320099999","2010-02-06T12:50:00","4","61.8333333","6.1166667","60.0","SANDANE ANDA, NO","FM-15","ENSD ","V020","999,9,V,0010,1","99999,9,9,Y","009900,1,N,1","+0020,1","-0050,1","99999,9",,,,,,,"10251,1,99999,9",,,,"MET046METAR ENSD 061250Z VRB02KT CAVOK 02/M05 Q1025;",
"01320099999","2010-02-06T13:50:00","4","61.8333333","6.1166667","60.0","SANDANE ANDA, NO","FM-15","ENSD ","V020","150,1,N,0031,1","99999,9,9,Y","009900,1,N,1","+0010,1","-0050,1","99999,9",,,,,,,"10261,1,99999,9",,,,"MET046METAR ENSD 061350Z 15006KT CAVOK 01/M05 Q1026;",
"01320099999","2010-02-07T09:50:00","4","61.8333333","6.1166667","60.0","SANDANE ANDA, NO","FM-15","ENSD ","V020","140,1,N,0031,1","01800,1,C,N","011265,1,N,1","-0030,1","-0070,1","99999,9","02,5,+01200,1,99,9","07,5,+01800,1,99,9",,,"07,99,1,99,9,99,9,99999,9,99,9,99,9",,"10291,1,99999,9",,,,"MET060METAR ENSD 070950Z 14006KT 9999 FEW040 BKN060 M03/M07 Q1029;",
"01320099999","2010-02-07T10:50:00","4","61.8333333","6.1166667","60.0","SANDANE ANDA, NO","FM-15","ENSD ","V020","999,9,C,0000,1","01800,1,C,N","011265,1,N,1","-0020,1","-0070,1","99999,9","02,5,+01200,1,99,9","07,5,+01800,1,99,9",,,"07,99,1,99,9,99,9,99999,9,99,9,99,9",,"10291,1,99999,9",,,,"MET060METAR ENSD 071050Z 00000KT 9999 FEW040 BKN060 M02/M07 Q1029;",
"01320099999","2010-02-07T11:50:00","4","61.8333333","6.1166667","60.0","SANDANE ANDA, NO","FM-15","ENSD ","V020","999,9,V,0005,1","01500,1,C,N","011265,1,N,1","-0020,1","-0060,1","99999,9","04,5,+01050,1,99,9","07,5,+01500,1,99,9",,,"07,99,1,99,9,99,9,99999,9,99,9,99,9",,"10291,1,99999,9","85,5",,,"MET066METAR ENSD 071150Z VRB01KT 9999 -SHSN SCT035 BKN050 M02/M06 Q1029;",
"01320099999","2010-02-07T14:50:00","4","61.8333333","6.1166667","60.0","SANDANE ANDA, NO","FM-15","ENSD ","V020","160,1,N,0010,1","01350,1,C,N","011265,1,N,1","-0020,1","-0050,1","99999,9","04,5,+00900,1,99,9","07,5,+01350,1,99,9",,,"07,99,1,99,9,99,9,99999,9,99,9,99,9",,"10281,1,99999,9","16,1",,,"MET065METAR ENSD 071450Z 16002KT 9999 VCSH SCT030 BKN045 M02/M05 Q1028;",
"01320099999","2010-02-07T15:50:00","4","61.8333333","6.1166667","60.0","SANDANE ANDA, NO","FM-15","ENSD ","V020","999,9,C,0000,1","01050,1,C,N","011265,1,N,1","-0020,1","-0060,1","99999,9","02,5,+00300,1,99,9","04,5,+01050,1,99,9","07,5,+01650,5,99,9",,"07,99,1,99,9,99,9,99999,9,99,9,99,9",,"10271,1,99999,9",,,,"MET067METAR ENSD 071550Z 00000KT 9999 FEW010 SCT035 BKN055 M02/M06 Q1027;",
"01320099999","2010-02-07T16:50:00","4","61.8333333","6.1166667","60.0","SANDANE ANDA, NO","FM-15","ENSD ","V020","150,1,N,0015,1","01500,1,C,N","011265,1,N,1","-0010,1","-0050,1","99999,9","04,5,+01050,1,99,9","07,5,+01500,1,99,9",,,"07,99,1,99,9,99,9,99999,9,99,9,99,9",,"10271,1,99999,9","85,5",,,"MET066METAR ENSD 071650Z 15003KT 9999 -SHSN SCT035 BKN050 M01/M05 Q1027;",
"01320099999","2010-02-07T17:50:00","4","61.8333333","6.1166667","60.0","SANDANE ANDA, NO","FM-15","ENSD ","V020","999,9,V,0010,1","00750,1,C,N","008000,1,N,1","-0020,1","-0050,1","99999,9","02,5,+00360,1,99,9","04,5,+00750,1,99,9","07,5,+01200,1,99,9",,"07,99,1,99,9,99,9,99999,9,99,9,99,9",,"10271,1,99999,9","85,5",,,"MET073METAR ENSD 071750Z VRB02KT 8000 -SHSN FEW012 SCT025 BKN040 M02/M05 Q1027;",
"01320099999","2010-02-07T18:50:00","4","61.8333333","6.1166667","60.0","SANDANE ANDA, NO","FM-15","ENSD ","V020","140,1,N,0021,1","00360,1,C,N","009000,1,N,1","-0020,1","-0050,1","99999,9","02,5,+00240,1,99,9","04,5,+00360,1,99,9","07,5,+01050,1,99,9",,"07,99,1,99,9,99,9,99999,9,99,9,99,9",,"10261,1,99999,9","85,5",,,"MET073METAR ENSD 071850Z 14004KT 9000 -SHSN FEW008 SCT012 BKN035 M02/M05 Q1026;",
"01320099999","2010-02-07T19:50:00","4","61.8333333","6.1166667","60.0","SANDANE ANDA, NO","FM-15","ENSD ","V020","140,1,N,0015,1","99999,9,C,N","011265,1,N,1","-0020,1","-0050,1","99999,9","04,5,+00180,1,99,9","04,5,+00900,1,99,9",,,"04,99,1,99,9,99,9,99999,9,99,9,99,9",,"10261,1,99999,9",,,,"MET067METAR ENSD 071950Z 14003KT 9999 SCT006 SCT030 M02/M05 Q1026 RESHSN;","P01 009003SCOCIG"
"01320099999","2010-02-08T05:20:00","4","61.8333333","6.1166667","60.0","SANDANE ANDA, NO","FM-15","ENSD ","V020","999,9,V,0005,1","00360,1,C,N","006000,1,N,1","-0020,1","-0040,1","99999,9","04,5,+00180,1,99,9","07,5,+00360,1,99,9",,,"07,99,1,99,9,99,9,99999,9,99,9,99,9",,"10200,1,99999,9","85,5",,,"MET066METAR ENSD 080520Z VRB01KT 6000 -SHSN SCT006 BKN012 M02/M04 Q1020;",
"01320099999","2010-02-08T05:50:00","4","61.8333333","6.1166667","60.0","SANDANE ANDA, NO","FM-15","ENSD ","V020","140,1,N,0021,1","00360,1,C,N","009000,1,N,1","-0020,1","-0040,1","99999,9","02,5,+00180,1,99,9","07,5,+00360,1,99,9",,,"07,99,1,99,9,99,9,99999,9,99,9,99,9",,"10190,1,99999,9","16,1",,,"MET065METAR ENSD 080550Z 14004KT 9000 VCSH FEW006 BKN012 M02/M04 Q1019;",
"01320099999","2010-02-08T07:20:00","4","61.8333333","6.1166667","60.0","SANDANE ANDA, NO","FM-15","ENSD ","V020","999,9,V,0010,1","00360,1,C,N","011265,1,N,1","-0020,1","-0030,1","99999,9","02,5,+00180,1,99,9","04,5,+00360,1,99,9","07,5,+00900,1,99,9",,"07,99,1,99,9,99,9,99999,9,99,9,99,9",,"10180,1,99999,9","85,5",,,"MET079METAR ENSD 080720Z VRB02KT 9999 4000E -SHSN FEW006 SCT012 BKN030 M02/M03 Q1018;",
"01320099999","2010-02-08T07:50:00","4","61.8333333","6.1166667","60.0","SANDANE ANDA, NO","FM-15","ENSD ","V020","120,1,N,0015,1","00300,1,C,N","011265,1,N,1","-0010,1","-0030,1","99999,9","02,5,+00180,1,99,9","04,5,+00300,1,99,9","07,5,+00900,1,99,9",,"07,99,1,99,9,99,9,99999,9,99,9,99,9",,"10180,1,99999,9","85,5",,,"MET079METAR ENSD 080750Z 12003KT 9999 5000E -SHSN FEW006 SCT010 BKN030 M01/M03 Q1018;",
"01320099999","2010-02-08T08:50:00","4","61.8333333","6.1166667","60.0","SANDANE ANDA, NO","FM-15","ENSD ","V020","150,1,N,0015,1","00300,1,C,N","011265,1,N,1","-0010,1","-0030,1","99999,9","02,5,+00180,1,99,9","04,5,+00300,1,99,9","07,5,+00900,1,99,9",,"07,99,1,99,9,99,9,99999,9,99,9,99,9",,"10180,1,99999,9","16,1",,,"MET078METAR ENSD 080850Z 15003KT 9999 4000W VCSH FEW006 SCT010 BKN030 M01/M03 Q1018;",
"01320099999","2010-02-08T10:50:00","4","61.8333333","6.1166667","60.0","SANDANE ANDA, NO","FM-15","ENSD ","V020","140,1,N,0021,1","00900,1,C,N","011265,1,N,1","-0010,1","-0030,1","99999,9","04,5,+00240,1,99,9","07,5,+00900,1,99,9",,,"07,99,1,99,9,99,9,99999,9,99,9,99,9",,"10169,1,99999,9",,,,"MET067METAR ENSD 081050Z 14004KT 9999 SCT008 BKN030 M01/M03 Q1017 RESHSN;",
"01320099999","2010-02-08T12:20:00","4","61.8333333","6.1166667","60.0","SANDANE ANDA, NO","FM-15","ENSD ","V020","999,9,V,0015,1","99999,9,C,N","011265,1,N,1","+0000,1","-0030,1","99999,9","04,5,+00300,1,99,9","04,5,+00900,1,99,9",,,"04,99,1,99,9,99,9,99999,9,99,9,99,9",,"10169,1,99999,9",,,,"MET060METAR ENSD 081220Z VRB03KT 9999 SCT010 SCT030 M00/M03 Q1017;","P01 009003SCOCIG"
"01320099999","2010-02-08T12:50:00","4","61.8333333","6.1166667","60.0","SANDANE ANDA, NO","FM-15","ENSD ","V020","999,9,V,0005,1","99999,9,C,N","011265,1,N,1","+0000,1","-0030,1","99999,9","04,5,+00300,1,99,9","04,5,+00900,1,99,9",,,"04,99,1,99,9,99,9,99999,9,99,9,99,9",,"10159,1,99999,9",,,,"MET059METAR ENSD 081250Z VRB01KT 9999 SCT010 SCT030 00/M03 Q1016;","P01 009003SCOCIG"
"01320099999","2010-02-08T13:50:00","4","61.8333333","6.1166667","60.0","SANDANE ANDA, NO","FM-15","ENSD ","V020","150,1,N,0021,1","00900,1,C,N","011265,1,N,1","+0010,1","-0030,1","99999,9","04,5,+00300,1,99,9","07,5,+00900,1,99,9",,,"07,99,1,99,9,99,9,99999,9,99,9,99,9",,"10159,1,99999,9",,,,"MET059METAR ENSD 081350Z 15004KT 9999 SCT010 BKN030 01/M03 Q1016;",
"01320099999","2010-02-08T15:50:00","4","61.8333333","6.1166667","60.0","SANDANE ANDA, NO","FM-15","ENSD ","V020","999,9,V,0005,1","00900,1,C,N","011265,1,N,1","+0000,1","-0030,1","99999,9","02,5,+00300,1,99,9","04,5,+00900,1,99,9","07,5,+01200,1,99,9",,"07,99,1,99,9,99,9,99999,9,99,9,99,9",,"10149,1,99999,9","16,1",,,"MET071METAR ENSD 081550Z VRB01KT 9999 VCSH FEW010 SCT030 BKN040 00/M03 Q1015;",
"01320099999","2010-02-08T16:50:00","4","61.8333333","6.1166667","60.0","SANDANE ANDA, NO","FM-15","ENSD ","V020","999,9,V,0005,1","00900,1,C,N","011265,1,N,1","+0000,1","-0020,1","99999,9","02,5,+00300,1,99,9","04,5,+00900,1,99,9","07,5,+01200,1,99,9",,"07,99,1,99,9,99,9,99999,9,99,9,99,9",,"10139,1,99999,9","16,1",,,"MET071METAR ENSD 081650Z VRB01KT 9999 VCSH FEW010 SCT030 BKN040 00/M02 Q1014;",
"01320099999","2010-02-08T17:50:00","4","61.8333333","6.1166667","60.0","SANDANE ANDA, NO","FM-15","ENSD ","V020","999,9,V,0010,1","00900,1,C,N","011265,1,N,1","+0000,1","-0020,1","99999,9","02,5,+00300,1,99,9","04,5,+00900,1,99,9","07,5,+01050,1,99,9",,"07,99,1,99,9,99,9,99999,9,99,9,99,9",,"10139,1,99999,9","16,1",,,"MET071METAR ENSD 081750Z VRB02KT 9999 VCSH FEW010 SCT030 BKN035 00/M02 Q1014;",
"01320099999","2010-02-08T18:50:00","4","61.8333333","6.1166667","60.0","SANDANE ANDA, NO","FM-15","ENSD ","V020","999,9,V,0005,1","00660,1,9,N","011265,1,N,1","+0000,1","-0020,1","99999,9","09,1,+00660,1,99,9",,,,"09,99,1,99,9,99,9,00025,1,99,9,99,9",,"10139,1,99999,9","85,5",,,"MET058METAR ENSD 081850Z VRB01KT 9999 -SHSN VV022 M00/M02 Q1014;",
"01320099999","2010-02-08T19:50:00","4","61.8333333","6.1166667","60.0","SANDANE ANDA, NO","FM-15","ENSD ","V020","120,1,N,0021,1","00510,1,9,N","004000,1,N,1","+0010,2","-0030,1","99999,9","09,1,+00510,1,99,9",,,,"09,99,1,99,9,99,9,00025,1,99,9,99,9",,"10139,1,99999,9","85,5",,,"MET059METAR ENSD 081950Z 12004KT 4000 -SHSN VV017 M001/M03 Q1014;",
"01320099999","2010-02-09T05:20:00","4","61.8333333","6.1166667","60.0","SANDANE ANDA, NO","FM-15","ENSD ","V020","999,9,C,0000,1","22000,1,9,N","011265,1,N,1","-0020,1","-0040,1","99999,9","04,5,+01200,1,99,9",,,,"04,99,1,99,9,99,9,99999,9,99,9,99,9",,"10119,1,99999,9",,,,"MET053METAR ENSD 090520Z 00000KT 9999 SCT040 M02/M04 Q1012;",
"01320099999","2010-02-09T05:50:00","4","61.8333333","6.1166667","60.0","SANDANE ANDA, NO","FM-15","ENSD ","V020","999,9,C,0000,1","22000,1,9,N","011265,1,N,1","-0020,1","-0040,1","99999,9","04,5,+01200,1,99,9",,,,"04,99,1,99,9,99,9,99999,9,99,9,99,9",,"10119,1,99999,9",,,,"MET053METAR ENSD 090550Z 00000KT 9999 SCT040 M02/M04 Q1012;",
"01320099999","2010-02-09T06:50:00","4","61.8333333","6.1166667","60.0","SANDANE ANDA, NO","FM-15","ENSD ","V020","999,9,V,0005,1","22000,1,9,N","011265,1,N,1","-0020,1","-0040,1","99999,9","02,5,+01200,1,99,9",,,,"02,99,1,99,9,99,9,99999,9,99,9,99,9",,"10119,1,99999,9",,,,"MET053METAR ENSD 090650Z VRB01KT 9999 FEW040 M02/M04 Q1012;",
"01320099999","2010-02-09T07:50:00","4","61.8333333","6.1166667","60.0","SANDANE ANDA, NO","FM-15","ENSD ","V020","999,9,V,0010,1","22000,1,9,N","011265,1,N,1","-0020,1","-0040,1","99999,9","04,5,+01200,1,99,9",,,,"04,99,1,99,9,99,9,99999,9,99,9,99,9",,"10129,1,99999,9",,,,"MET053METAR ENSD 090750Z VRB02KT 9999 SCT040 M02/M04 Q1013;",
"01320099999","2010-02-09T08:50:00","4","61.8333333","6.1166667","60.0","SANDANE ANDA, NO","FM-15","ENSD ","V020","999,9,C,0000,1","22000,1,9,N","011265,1,N,1","-0030,1","-0050,1","99999,9","02,5,+01200,1,99,9",,,,"02,99,1,99,9,99,9,99999,9,99,9,99,9",,"10139,1,99999,9",,,,"MET053METAR ENSD 090850Z 00000KT 9999 FEW040 M03/M05 Q1014;",
"01320099999","2010-02-09T09:50:00","4","61.8333333","6.1166667","60.0","SANDANE ANDA, NO","FM-15","ENSD ","V020","999,9,V,0005,1","22000,1,9,N","011265,1,N,1","-0020,1","-0040,1","99999,9","02,5,+01200,1,99,9",,,,"02,99,1,99,9,99,9,99999,9,99,9,99,9",,"10139,1,99999,9",,,,"MET053METAR ENSD 090950Z VRB01KT 9999 FEW040 M02/M04 Q1014;",
"01320099999","2010-02-09T10:50:00","4","61.8333333","6.1166667","60.0","SANDANE ANDA, NO","FM-15","ENSD ","V020","999,9,V,0005,1","99999,9,9,Y","009900,1,N,1","+0000,1","-0040,1","99999,9",,,,,,,"10139,1,99999,9",,,,"MET046METAR ENSD 091050Z VRB01KT CAVOK 00/M04 Q1014;",
"01320099999","2010-02-09T11:50:00","4","61.8333333","6.1166667","60.0","SANDANE ANDA, NO","FM-15","ENSD ","V020","999,9,V,0010,1","99999,9,9,Y","009900,1,N,1","-0010,1","-0050,1","99999,9",,,,,,,"10149,1,99999,9",,,,"MET047METAR ENSD 091150Z VRB02KT CAVOK M01/M05 Q1015;",
"01320099999","2010-02-09T12:50:00","4","61.8333333","6.1166667","60.0","SANDANE ANDA, NO","FM-15","ENSD ","V020","160,1,N,0021,1","99999,9,9,Y","009900,1,N,1","+0000,1","-0050,1","99999,9",,,,,,,"10149,1,99999,9",,,,"MET046METAR ENSD 091250Z 16004KT CAVOK 00/M05 Q1015;",
"01320099999","2010-02-09T13:50:00","4","61.8333333","6.1166667","60.0","SANDANE ANDA, NO","FM-15","ENSD ","V020","999,9,V,0010,1","99999,9,9,Y","009900,1,N,1","+0000,1","-0070,1","99999,9",,,,,,,"10149,1,99999,9",,,,"MET046METAR ENSD 091350Z VRB02KT CAVOK 00/M07 Q1015;",
"01320099999","2010-02-09T14:50:00","4","61.8333333","6.1166667","60.0","SANDANE ANDA, NO","FM-15","ENSD ","V020","999,9,V,0005,1","99999,9,9,Y","009900,1,N,1","-0020,1","-0080,1","99999,9",,,,,,,"10149,1,99999,9",,,,"MET047METAR ENSD 091450Z VRB01KT CAVOK M02/M08 Q1015;",
"01320099999","2010-02-09T15:50:00","4","61.8333333","6.1166667","60.0","SANDANE ANDA, NO","FM-15","ENSD ","V020","999,9,C,0000,1","99999,9,9,Y","009900,1,N,1","-0030,1","-0070,1","99999,9",,,,,,,"10159,1,99999,9",,,,"MET047METAR ENSD 091550Z 00000KT CAVOK M03/M07 Q1016;",
"01320099999","2010-02-09T16:50:00","4","61.8333333","6.1166667","60.0","SANDANE ANDA, NO","FM-15","ENSD ","V020","999,9,V,0005,1","99999,9,9,Y","009900,1,N,1","-0040,1","-0080,1","99999,9",,,,,,,"10169,1,99999,9",,,,"MET047METAR ENSD 091650Z VRB01KT CAVOK M04/M08 Q1017;",
"01320099999","2010-02-09T17:50:00","4","61.8333333","6.1166667","60.0","SANDANE ANDA, NO","FM-15","ENSD ","V020","999,9,V,0005,1","99999,9,9,Y","009900,1,N,1","-0040,1","-0080,1","99999,9",,,,,,,"10169,1,99999,9",,,,"MET047METAR ENSD 091750Z VRB01KT CAVOK M04/M08 Q1017;",
"01320099999","2010-02-09T18:50:00","4","61.8333333","6.1166667","60.0","SANDANE ANDA, NO","FM-15","ENSD ","V020","999,9,V,0005,1","99999,9,9,Y","009900,1,N,1","-0050,1","-0080,1","99999,9",,,,,,,"10180,1,99999,9",,,,"MET047METAR ENSD 091850Z VRB01KT CAVOK M05/M08 Q1018;",
"01320099999","2010-02-09T19:50:00","4","61.8333333","6.1166667","60.0","SANDANE ANDA, NO","FM-15","ENSD ","V020","999,9,V,0015,1","99999,9,9,Y","009900,1,N,1","-0050,1","-0090,1","99999,9",,,,,,,"10180,1,99999,9",,,,"MET047METAR ENSD 091950Z VRB03KT CAVOK M05/M09 Q1018;",
"01320099999","2010-02-10T05:20:00","4","61.8333333","6.1166667","60.0","SANDANE ANDA, NO","FM-15","ENSD ","V020","140,1,N,0036,1","99999,9,9,Y","009900,1,N,1","-0080,1","-0120,1","99999,9",,,,,,,"10220,1,99999,9",,,,"MET047METAR ENSD 100520Z 14007KT CAVOK M08/M12 Q1022;",
"01320099999","2010-02-10T06:50:00","4","61.8333333","6.1166667","60.0","SANDANE ANDA, NO","FM-15","ENSD ","V020","140,1,N,0026,1","99999,9,9,Y","009900,1,N,1","-0080,1","-0120,1","99999,9",,,,,,,"10220,1,99999,9",,,,"MET055METAR ENSD 100650Z 14005KT 040V180 CAVOK M08/M12 Q1022;",
"01320099999","2010-02-10T07:50:00","4","61.8333333","6.1166667","60.0","SANDANE ANDA, NO","FM-15","ENSD ","V020","150,1,N,0031,1","99999,9,9,Y","009900,1,N,1","-0070,1","-0130,1","99999,9",,,,,,,"10220,1,99999,9",,,,"MET047METAR ENSD 100750Z 15006KT CAVOK M07/M13 Q1022;",
"01320099999","2010-02-10T08:50:00","4","61.8333333","6.1166667","60.0","SANDANE ANDA, NO","FM-15","ENSD ","V020","150,1,N,0026,1","99999,9,9,Y","009900,1,N,1","-0070,1","-0120,1","99999,9",,,,,,,"10220,1,99999,9",,,,"MET047METAR ENSD 100850Z 15005KT CAVOK M07/M12 Q1022;",
"01320099999","2010-02-10T09:50:00","4","61.8333333","6.1166667","60.0","SANDANE ANDA, NO","FM-15","ENSD ","V020","150,1,N,0026,1","99999,9,C,N","011265,1,N,1","-0060,1","-0120,1","99999,9","02,5,+01200,1,99,9","04,5,+01500,1,99,9",,,"04,99,1,99,9,99,9,99999,9,99,9,99,9",,"10220,1,99999,9",,,,"MET060METAR ENSD 100950Z 15005KT 9999 FEW040 SCT050 M06/M12 Q1022;","P01 015003SCOCIG"
"01320099999","2010-02-10T10:50:00","4","61.8333333","6.1166667","60.0","SANDANE ANDA, NO","FM-15","ENSD ","V020","140,1,N,0021,1","99999,9,C,N","011265,1,N,1","-0060,1","-0120,1","99999,9","02,5,+01050,1,99,9","04,5,+01500,1,99,9",,,"04,99,1,99,9,99,9,99999,9,99,9,99,9",,"10220,1,99999,9",,,,"MET060METAR ENSD 101050Z 14004KT 9999 FEW035 SCT050 M06/M12 Q1022;","P01 015003SCOCIG"
"01320099999","2010-02-10T11:50:00","4","61.8333333","6.1166667","60.0","SANDANE ANDA, NO","FM-15","ENSD ","V020","999,9,C,0000,1","01500,1,C,N","011265,1,N,1","-0050,1","-0120,1","99999,9","04,5,+00900,1,99,9","07,5,+01500,1,99,9",,,"07,99,1,99,9,99,9,99999,9,99,9,99,9",,"10220,1,99999,9","85,5",,,"MET066METAR ENSD 101150Z 00000KT 9999 -SHSN SCT030 BKN050 M05/M12 Q1022;",
"01320099999","2010-02-10T12:50:00","4","61.8333333","6.1166667","60.0","SANDANE ANDA, NO","FM-15","ENSD ","V020","140,1,N,0021,1","01350,1,C,N","011265,1,N,1","-0050,1","-0100,1","99999,9","04,5,+00900,1,99,9","07,5,+01350,1,99,9",,,"07,99,1,99,9,99,9,99999,9,99,9,99,9",,"10220,1,99999,9","85,5",,,"MET066METAR ENSD 101250Z 14004KT 9999 -SHSN SCT030 BKN045 M05/M10 Q1022;",
"01320099999","2010-02-10T13:50:00","4","61.8333333","6.1166667","60.0","SANDANE ANDA, NO","FM-15","ENSD ","V020","999,9,V,0010,1","00600,1,9,N","005000,1,N,1","-0060,1","-0080,1","99999,9","09,1,+00600,1,99,9",,,,"09,99,1,99,9,99,9,00025,1,99,9,99,9",,"10220,1,99999,9","85,5",,,"MET058METAR ENSD 101350Z VRB02KT 5000 -SHSN VV020 M06/M08 Q1022;",
"01320099999","2010-02-10T14:50:00","4","61.8333333","6.1166667","60.0","SANDANE ANDA, NO","FM-15","ENSD ","V020","140,1,N,0021,1","00900,5,9,N","999999,9,N,1","-0050,1","-0080,1","99999,9","02,5,+00300,5,99,9","04,5,+00900,5,99,9","07,5,+01200,5,99,9",,,,"10210,1,99999,9",,,,"MET071METAR ENSD 101450Z 14004KT 999 VCSH FEW010 SCT030 BKN040 M05/M08 Q1021;",
"01320099999","2010-02-10T15:50:00","4","61.8333333","6.1166667","60.0","SANDANE ANDA, NO","FM-15","ENSD ","V020","140,1,N,0021,1","00900,1,C,N","011265,1,N,1","-0050,1","-0080,1","99999,9","02,5,+00300,1,99,9","04,5,+00900,1,99,9","07,5,+01200,1,99,9",,"07,99,1,99,9,99,9,99999,9,99,9,99,9",,"10210,1,99999,9","16,1",,,"MET078METAR ENSD 101550Z 14004KT 9999 5000E VCSH FEW010 SCT030 BKN040 M05/M08 Q1021;",
"01320099999","2010-02-10T16:50:00","4","61.8333333","6.1166667","60.0","SANDANE ANDA, NO","FM-15","ENSD ","V020","999,9,V,0005,1","00210,1,9,N","001000,1,N,1","-0050,1","-0070,1","99999,9","09,1,+00210,1,99,9",,,,"09,99,1,99,9,99,9,00025,1,99,9,99,9",,"10210,1,99999,9","85,5",,,"MET058METAR ENSD 101650Z VRB01KT 1000 -SHSN VV007 M05/M07 Q1021;",
"01320099999","2010-02-10T17:50:00","4","61.8333333","6.1166667","60.0","SANDANE ANDA, NO","FM-15","ENSD ","V020","999,9,V,0010,1","00300,1,9,N","004000,1,N,1","-0040,1","-0070,1","99999,9","09,1,+00300,1,99,9",,,,"09,99,1,99,9,99,9,00025,1,99,9,99,9",,"10210,1,99999,9","85,5",,,"MET058METAR ENSD 101750Z VRB02KT 4000 -SHSN VV010 M04/M07 Q1021;",
"01320099999","2010-02-10T18:50:00","4","61.8333333","6.1166667","60.0","SANDANE ANDA, NO","FM-15","ENSD ","V020","999,9,V,0010,1","00300,1,9,N","004000,1,N,1","-0040,1","-0070,1","99999,9","09,1,+00300,1,99,9",,,,"09,99,1,99,9,99,9,00025,1,99,9,99,9",,"10200,1,99999,9","71,1",,,"MET056METAR ENSD 101850Z VRB02KT 4000 -SN VV010 M04/M07 Q1020;",
"01320099999","2010-02-10T19:50:00","4","61.8333333","6.1166667","60.0","SANDANE ANDA, NO","FM-15","ENSD ","V020","999,9,V,0005,1","00510,1,9,N","004000,1,N,1","-0040,1","-0060,1","99999,9","09,1,+00510,1,99,9",,,,"09,99,1,99,9,99,9,00025,1,99,9,99,9",,"10200,1,99999,9","71,1",,,"MET056METAR ENSD 101950Z VRB01KT 4000 -SN VV017 M04/M06 Q1020;",
"01320099999","2010-02-10T20:50:00","4","61.8333333","6.1166667","60.0","SANDANE ANDA, NO","FM-15","ENSD ","V020","070,1,N,0015,1","00900,1,C,N","011265,1,N,1","-0040,1","-0060,1","99999,9","04,5,+00510,1,99,9","07,5,+00900,1,99,9",,,"07,99,1,99,9,99,9,99999,9,99,9,99,9",,"10190,1,99999,9","71,1",,,"MET064METAR ENSD 102050Z 07003KT 9999 -SN SCT017 BKN030 M04/M06 Q1019;",
"01320099999","2010-02-11T05:20:00","4","61.8333333","6.1166667","60.0","SANDANE ANDA, NO","FM-15","ENSD ","V020","080,1,N,0026,1","00600,1,C,N","011265,1,N,1","-0020,1","-0040,1","99999,9","02,5,+00210,1,99,9","04,5,+00600,1,99,9","07,5,+01050,1,99,9",,"07,99,1,99,9,99,9,99999,9,99,9,99,9",,"10180,1,99999,9","85,5",,,"MET073METAR ENSD 110520Z 08005KT 9999 -SHSN FEW007 SCT020 BKN035 M02/M04 Q1018;",
"01320099999","2010-02-11T05:50:00","4","61.8333333","6.1166667","60.0","SANDANE ANDA, NO","FM-15","ENSD ","V020","999,9,C,0000,1","00600,1,C,N","006000,1,N,1","-0020,1","-0040,1","99999,9","02,5,+00210,1,99,9","04,5,+00600,1,99,9","07,5,+00900,1,99,9",,"07,99,1,99,9,99,9,99999,9,99,9,99,9",,"10180,1,99999,9","71,1",,,"MET071METAR ENSD 110550Z 00000KT 6000 -SN FEW007 SCT020 BKN030 M02/M04 Q1018;",
"01320099999","2010-02-11T06:50:00","4","61.8333333","6.1166667","60.0","SANDANE ANDA, NO","FM-15","ENSD ","V020","999,9,C,0000,1","00600,1,9,N","006000,1,N,1","-0020,1","-0040,1","99999,9","09,1,+00600,1,99,9",,,,"09,99,1,99,9,99,9,00025,1,99,9,99,9",,"10180,1,99999,9","71,1",,,"MET056METAR ENSD 110650Z 00000KT 6000 -SN VV020 M02/M04 Q1018;",
"01320099999","2010-02-11T07:50:00","4","61.8333333","6.1166667","60.0","SANDANE ANDA, NO","FM-15","ENSD ","V020","999,9,C,0000,1","00300,1,9,N","005000,1,N,1","-0020,1","-0040,1","99999,9","09,1,+00300,1,99,9",,,,"09,99,1,99,9,99,9,00025,1,99,9,99,9",,"10190,1,99999,9","71,1",,,"MET056METAR ENSD 110750Z 00000KT 5000 -SN VV010 M02/M04 Q1019;",
"01320099999","2010-02-11T08:50:00","4","61.8333333","6.1166667","60.0","SANDANE ANDA, NO","FM-15","ENSD ","V020","999,9,V,0010,1","00300,1,9,N","005000,1,N,1","-0020,1","-0040,1","99999,9","09,1,+00300,1,99,9",,,,"09,99,1,99,9,99,9,00025,1,99,9,99,9",,"10190,1,99999,9","71,1",,,"MET056METAR ENSD 110850Z VRB02KT 5000 -SN VV010 M02/M04 Q1019;",
"01320099999","2010-02-11T09:50:00","4","61.8333333","6.1166667","60.0","SANDANE ANDA, NO","FM-15","ENSD ","V020","999,9,C,0000,1","00300,1,C,N","011265,1,N,1","-0010,1","-0030,1","99999,9","02,5,+00210,1,99,9","04,5,+00300,1,99,9","07,5,+00900,1,99,9",,"07,99,1,99,9,99,9,99999,9,99,9,99,9",,"10200,1,99999,9","16,1",,,"MET072METAR ENSD 110950Z 00000KT 9999 VCSH FEW007 SCT010 BKN030 M01/M03 Q1020;",
"01320099999","2010-02-11T10:50:00","4","61.8333333","6.1166667","60.0","SANDANE ANDA, NO","FM-15","ENSD ","V020","999,9,V,0010,1","00300,1,C,N","011265,1,N,1","-0010,1","-0040,1","99999,9","02,5,+00210,1,99,9","04,5,+00300,1,99,9","07,5,+00900,1,99,9",,"07,99,1,99,9,99,9,99999,9,99,9,99,9",,"10200,1,99999,9","16,1",,,"MET072METAR ENSD 111050Z VRB02KT 9999 VCSH FEW007 SCT010 BKN030 M01/M04 Q1020;",
"01320099999","2010-02-11T11:50:00","4","61.8333333","6.1166667","60.0","SANDANE ANDA, NO","FM-15","ENSD ","V020","999,9,V,0005,1","00150,1,C,N","011265,1,N,1","+0000,1","-0030,1","99999,9","02,5,+00090,1,99,9","04,5,+00150,1,99,9","07,5,+01050,1,99,9",,"07,99,1,99,9,99,9,99999,9,99,9,99,9",,"10200,1,99999,9","16,1",,,"MET072METAR ENSD 111150Z VRB01KT 9999 VCSH FEW003 SCT005 BKN035 M00/M03 Q1020;",
"01320099999","2010-02-11T12:50:00","4","61.8333333","6.1166667","60.0","SANDANE ANDA, NO","FM-15","ENSD ","V020","999,9,V,0010,1","00300,1,C,N","011265,1,N,1","+0000,1","-0030,1","99999,9","02,5,+00090,1,99,9","04,5,+00300,1,99,9","07,5,+01050,1,99,9",,"07,99,1,99,9,99,9,99999,9,99,9,99,9",,"10240,2,99999,9",,,,"MET067METAR ENSD 111250Z VRB02KT 9999 FEW003 SCT010 BKN035 M00/M03 Q1024;",
"01320099999","2010-02-11T13:50:00","4","61.8333333","6.1166667","60.0","SANDANE ANDA, NO","FM-15","ENSD ","V020","050,1,N,0010,1","00300,1,C,N","011265,1,N,1","+0000,1","-0030,1","99999,9","02,5,+00090,1,99,9","04,5,+00300,1,99,9","07,5,+01050,1,99,9",,"07,99,1,99,9,99,9,99999,9,99,9,99,9",,"10210,1,99999,9",,,,"MET066METAR ENSD 111350Z 05002KT 9999 FEW003 SCT010 BKN035 00/M03 Q1021;",
"01320099999","2010-02-11T14:50:00","4","61.8333333","6.1166667","60.0","SANDANE ANDA, NO","FM-15","ENSD ","V020","999,9,V,0010,1","00540,1,C,N","011265,1,N,1","+0000,1","-0040,1","99999,9","02,5,+00180,1,99,9","04,5,+00540,1,99,9","07,5,+01200,1,99,9",,"07,99,1,99,9,99,9,99999,9,99,9,99,9",,"10210,1,99999,9",,,,"MET067METAR ENSD 111450Z VRB02KT 9999 FEW006 SCT018 BKN040 M00/M04 Q1021;",
"01320099999","2010-02-11T15:50:00","4","61.8333333","6.1166667","60.0","SANDANE ANDA, NO","FM-15","ENSD ","V020","999,9,C,0000,1","00450,1,C,N","011265,1,N,1","-0010,1","-0040,1","99999,9","02,5,+00180,1,99,9","04,5,+00450,1,99,9","07,5,+01200,1,99,9",,"07,99,1,99,9,99,9,99999,9,99,9,99,9",,"10220,1,99999,9","85,5",,,"MET073METAR ENSD 111550Z 00000KT 9999 -SHSN FEW006 SCT015 BKN040 M01/M04 Q1022;",
"01320099999","2010-02-11T16:50:00","4","61.8333333","6.1166667","60.0","SANDANE ANDA, NO","FM-15","ENSD ","V020","060,1,N,0010,1","00240,1,C,N","011265,1,N,1","-0010,1","-0030,1","99999,9","02,5,+00090,1,99,9","04,5,+00240,1,99,9","07,5,+00900,1,99,9",,"07,99,1,99,9,99,9,99999,9,99,9,99,9",,"10220,1,99999,9","85,5",,,"MET079METAR ENSD 111650Z 06002KT 9999 4000E -SHSN FEW003 SCT008 BKN030 M01/M03 Q1022;",
"01320099999","2010-02-11T17:50:00","4","61.8333333","6.1166667","60.0","SANDANE ANDA, NO","FM-15","ENSD ","V020","999,9,C,0000,1","00330,1,C,N","008000,1,N,1","-0010,1","-0030,1","99999,9","02,5,+00090,1,99,9","04,5,+00330,1,99,9","07,5,+00900,1,99,9",,"07,99,1,99,9,99,9,99999,9,99,9,99,9",,"10230,1,99999,9","85,5",,,"MET073METAR ENSD 111750Z 00000KT 8000 -SHSN FEW003 SCT011 BKN030 M01/M03 Q1023;",
"01320099999","2010-02-11T18:50:00","4","61.8333333","6.1166667","60.0","SANDANE ANDA, NO","FM-15","ENSD ","V020","999,9,V,0005,1","00330,1,C,N","011265,1,N,1","-0010,1","-0030,1","99999,9","04,5,+00120,1,99,9","04,5,+00330,1,99,9","07,5,+00840,1,99,9",,"07,99,1,99,9,99,9,99999,9,99,9,99,9",,"10230,1,99999,9","85,5",,,"MET073METAR ENSD 111850Z VRB01KT 9999 -SHSN SCT004 SCT011 BKN028 M01/M03 Q1023;",
"01320099999","2010-02-11T19:50:00","4","61.8333333","6.1166667","60.0","SANDANE ANDA, NO","FM-15","ENSD ","V020","999,9,C,0000,1","00330,1,C,N","011265,1,N,1","-0010,1","-0030,1","99999,9","04,5,+00150,1,99,9","04,5,+00330,1,99,9","07,5,+00840,1,99,9",,"07,99,1,99,9,99,9,99999,9,99,9,99,9",,"10240,1,99999,9",,,,"MET067METAR ENSD 111950Z 00000KT 9999 SCT005 SCT011 BKN028 M01/M03 Q1024;",
"01320099999","2010-02-11T20:50:00","4","61.8333333","6.1166667","60.0","SANDANE ANDA, NO","FM-15","ENSD ","V020","999,9,V,0005,1","00330,1,C,N","007000,1,N,1","-0010,1","-0030,1","99999,9","04,5,+00180,1,99,9","04,5,+00330,1,99,9","07,5,+00750,1,99,9",,"07,99,1,99,9,99,9,99999,9,99,9,99,9",,"10240,1,99999,9","85,5",,,"MET073METAR ENSD 112050Z VRB01KT 7000 -SHSN SCT006 SCT011 BKN025 M01/M03 Q1024;",
"01320099999","2010-02-12T05:20:00","4","61.8333333","6.1166667","60.0","SANDANE ANDA, NO","FM-15","ENSD ","V020","999,9,C,0000,1","00360,1,C,N","011265,1,N,1","-0010,1","-0030,1","99999,9","02,5,+00180,1,99,9","04,5,+00360,1,99,9","07,5,+00540,1,99,9",,"07,99,1,99,9,99,9,99999,9,99,9,99,9",,"10271,1,99999,9",,,,"MET067METAR ENSD 120520Z 00000KT 9999 FEW006 SCT012 BKN018 M01/M03 Q1027;",
"01320099999","2010-02-12T05:50:00","4","61.8333333","6.1166667","60.0","SANDANE ANDA, NO","FM-15","ENSD ","V020","140,1,N,0021,1","00360,1,C,N","011265,1,N,1","-0010,1","-0030,1","99999,9","02,5,+00180,1,99,9","04,5,+00360,1,99,9","07,5,+00540,1,99,9",,"07,99,1,99,9,99,9,99999,9,99,9,99,9",,"10281,1,99999,9",,,,"MET067METAR ENSD 120550Z 14004KT 9999 FEW006 SCT012 BKN018 M01/M03 Q1028;",
"01320099999","2010-02-12T07:20:00","4","61.8333333","6.1166667","60.0","SANDANE ANDA, NO","FM-15","ENSD ","V020","999,9,V,0005,1","00300,1,C,N","011265,1,N,1","-0010,1","-0030,1","99999,9","02,5,+00180,1,99,9","04,5,+00300,1,99,9","07,5,+01650,5,99,9",,"07,99,1,99,9,99,9,99999,9,99,9,99,9",,"10281,1,99999,9",,,,"MET067METAR ENSD 120720Z VRB01KT 9999 FEW006 SCT010 BKN055 M01/M03 Q1028;",
"01320099999","2010-02-12T07:50:00","4","61.8333333","6.1166667","60.0","SANDANE ANDA, NO","FM-15","ENSD ","V020","120,1,N,0015,1","01800,1,C,N","011265,1,N,1","-0010,1","-0030,1","99999,9","04,5,+00300,1,99,9","07,5,+01800,1,99,9",,,"07,99,1,99,9,99,9,99999,9,99,9,99,9",,"10281,1,99999,9",,,,"MET060METAR ENSD 120750Z 12003KT 9999 SCT010 BKN060 M01/M03 Q1028;",
"01320099999","2010-02-12T08:50:00","4","61.8333333","6.1166667","60.0","SANDANE ANDA, NO","FM-15","ENSD ","V020","999,9,V,0010,1","01800,1,C,N","011265,1,N,1","-0010,1","-0030,1","99999,9","02,5,+00300,1,99,9","07,5,+01800,1,99,9",,,"07,99,1,99,9,99,9,99999,9,99,9,99,9",,"10291,1,99999,9",,,,"MET060METAR ENSD 120850Z VRB02KT 9999 FEW010 BKN060 M01/M03 Q1029;",
"01320099999","2010-02-12T09:50:00","4","61.8333333","6.1166667","60.0","SANDANE ANDA, NO","FM-15","ENSD ","V020","140,1,N,0015,1","01800,1,C,N","011265,1,N,1","+0000,1","-0030,1","99999,9","02,5,+00300,1,99,9","07,5,+01800,1,99,9",,,"07,99,1,99,9,99,9,99999,9,99,9,99,9",,"10291,1,99999,9",,,,"MET060METAR ENSD 120950Z 14003KT 9999 FEW010 BKN060 M00/M03 Q1029;",
"01320099999","2010-02-12T10:50:00","4","61.8333333","6.1166667","60.0","SANDANE ANDA, NO","FM-15","ENSD ","V020","999,9,C,0000,1","99999,9,C,N","011265,1,N,1","+0020,1","-0030,1","99999,9","02,5,+00300,1,99,9","04,5,+01950,5,99,9",,,"04,99,1,99,9,99,9,99999,9,99,9,99,9",,"10291,1,99999,9",,,,"MET059METAR ENSD 121050Z 00000KT 9999 FEW010 SCT065 02/M03 Q1029;","P01 019503SCOCIG"
"01320099999","2010-02-12T11:50:00","4","61.8333333","6.1166667","60.0","SANDANE ANDA, NO","FM-15","ENSD ","V020","999,9,V,0005,1","99999,9,C,N","011265,1,N,1","+0010,1","-0030,1","99999,9","02,5,+00300,1,99,9","04,5,+01950,5,99,9",,,"04,99,1,99,9,99,9,99999,9,99,9,99,9",,"10291,1,99999,9",,,,"MET059METAR ENSD 121150Z VRB01KT 9999 FEW010 SCT065 01/M03 Q1029;","P01 019503SCOCIG"
"01320099999","2010-02-12T12:50:00","4","61.8333333","6.1166667","60.0","SANDANE ANDA, NO","FM-15","ENSD ","V020","999,9,C,0000,1","99999,9,C,N","011265,1,N,1","+0010,1","-0040,1","99999,9","02,5,+00240,1,99,9","04,5,+01200,1,99,9",,,"04,99,1,99,9,99,9,99999,9,99,9,99,9",,"10291,1,99999,9",,,,"MET059METAR ENSD 121250Z 00000KT 9999 FEW008 SCT040 01/M04 Q1029;","P01 012003SCOCIG"
"01320099999","2010-02-12T14:50:00","4","61.8333333","6.1166667","60.0","SANDANE ANDA, NO","FM-15","ENSD ","V020","999,9,C,0000,1","01350,1,C,N","011265,1,N,1","+0010,1","-0030,1","99999,9","02,5,+00210,1,99,9","07,5,+01350,1,99,9",,,"07,99,1,99,9,99,9,99999,9,99,9,99,9",,"10281,1,99999,9",,,,"MET059METAR ENSD 121450Z 00000KT 9999 FEW007 BKN045 01/M03 Q1028;",
"01320099999","2010-02-12T15:50:00","4","61.8333333","6.1166667","60.0","SANDANE ANDA, NO","FM-15","ENSD ","V020","140,1,N,0021,1","00750,1,C,N","011265,1,N,1","+0000,1","-0020,1","99999,9","02,5,+00240,1,99,9","04,5,+00750,1,99,9","07,5,+01350,1,99,9",,"07,99,1,99,9,99,9,99999,9,99,9,99,9",,"10281,1,99999,9","16,1",,,"MET071METAR ENSD 121550Z 14004KT 9999 VCSH FEW008 SCT025 BKN045 00/M02 Q1028;",
"01320099999","2010-02-12T16:50:00","4","61.8333333","6.1166667","60.0","SANDANE ANDA, NO","FM-15","ENSD ","V020","999,9,V,0010,1","00750,1,C,N","011265,1,N,1","+0000,1","-0020,1","99999,9","02,5,+00240,1,99,9","04,5,+00750,1,99,9","07,5,+01350,1,99,9",,"07,99,1,99,9,99,9,99999,9,99,9,99,9",,"10281,1,99999,9","16,1",,,"MET072METAR ENSD 121650Z VRB02KT 9999 VCSH FEW008 SCT025 BKN045 M00/M02 Q1028;",
"01320099999","2010-02-12T17:50:00","4","61.8333333","6.1166667","60.0","SANDANE ANDA, NO","FM-15","ENSD ","V020","999,9,C,0000,1","00750,1,C,N","011265,1,N,1","-0010,1","-0030,1","99999,9","02,5,+00150,1,99,9","04,5,+00750,1,99,9","07,5,+01350,1,99,9",,"07,99,1,99,9,99,9,99999,9,99,9,99,9",,"10291,1,99999,9","16,1",,,"MET072METAR ENSD 121750Z 00000KT 9999 VCSH FEW005 SCT025 BKN045 M01/M03 Q1029;",
"01320099999","2010-02-12T18:50:00","4","61.8333333","6.1166667","60.0","SANDANE ANDA, NO","FM-15","ENSD ","V020","999,9,V,0005,1","01200,1,C,N","011265,1,N,1","-0010,1","-0020,1","99999,9","04,5,+00150,1,99,9","07,5,+01200,1,99,9",,,"07,99,1,99,9,99,9,99999,9,99,9,99,9",,"10291,1,99999,9",,,,"MET060METAR ENSD 121850Z VRB01KT 9999 SCT005 BKN040 M01/M02 Q1029;",
"01320099999","2010-02-12T19:50:00","4","61.8333333","6.1166667","60.0","SANDANE ANDA, NO","FM-15","ENSD ","V020","150,1,N,0021,1","01200,1,C,N","011265,1,N,1","-0010,1","-0030,1","99999,9","04,5,+00150,1,99,9","07,5,+01200,1,99,9",,,"07,99,1,99,9,99,9,99999,9,99,9,99,9",,"10291,1,99999,9",,,,"MET060METAR ENSD 121950Z 15004KT 9999 SCT005 BKN040 M01/M03 Q1029;",
"01320099999","2010-02-13T06:20:00","4","61.8333333","6.1166667","60.0","SANDANE ANDA, NO","FM-15","ENSD ","V020","999,9,V,0005,1","00750,1,C,N","011265,1,N,1","-0020,1","-0050,1","99999,9","02,5,+00210,1,99,9","04,5,+00750,1,99,9","07,5,+01800,1,99,9",,"07,99,1,99,9,99,9,99999,9,99,9,99,9",,"10251,1,99999,9",,,,"MET067METAR ENSD 130620Z VRB01KT 9999 FEW007 SCT025 BKN060 M02/M05 Q1025;",
"01320099999","2010-02-13T07:50:00","4","61.8333333","6.1166667","60.0","SANDANE ANDA, NO","FM-15","ENSD ","V020","999,9,V,0005,1","00900,1,C,N","011265,1,N,1","-0020,1","-0040,1","99999,9","04,5,+00210,1,99,9","07,5,+00900,1,99,9",,,"07,99,1,99,9,99,9,99999,9,99,9,99,9",,"10251,1,99999,9",,,,"MET060METAR ENSD 130750Z VRB01KT 9999 SCT007 BKN030 M02/M04 Q1025;",
"01320099999","2010-02-13T08:50:00","4","61.8333333","6.1166667","60.0","SANDANE ANDA, NO","FM-15","ENSD ","V020","140,1,N,0021,1","99999,9,C,N","011265,1,N,1","-0010,1","-0040,1","99999,9","02,5,+00210,1,99,9","04,5,+00840,1,99,9",,,"04,99,1,99,9,99,9,99999,9,99,9,99,9",,"10251,1,99999,9",,,,"MET060METAR ENSD 130850Z 14004KT 9999 FEW007 SCT028 M01/M04 Q1025;","P01 008403SCOCIG"
"01320099999","2010-02-13T09:50:00","4","61.8333333","6.1166667","60.0","SANDANE ANDA, NO","FM-15","ENSD ","V020","999,9,C,0000,1","99999,9,C,N","011265,1,N,1","+0000,1","-0040,1","99999,9","02,5,+00210,1,99,9","04,5,+01050,1,99,9",,,"04,99,1,99,9,99,9,99999,9,99,9,99,9",,"10251,1,99999,9",,,,"MET060METAR ENSD 130950Z 00000KT 9999 FEW007 SCT035 M00/M04 Q1025;","P01 010503SCOCIG"
"01320099999","2010-02-13T10:50:00","4","61.8333333","6.1166667","60.0","SANDANE ANDA, NO","FM-15","ENSD ","V020","160,1,N,0021,1","99999,9,C,N","011265,1,N,1","-0010,1","-0040,1","99999,9","02,5,+00210,1,99,9","04,5,+01050,1,99,9",,,"04,99,1,99,9,99,9,99999,9,99,9,99,9",,"10251,1,99999,9",,,,"MET060METAR ENSD 131050Z 16004KT 9999 FEW007 SCT035 M01/M04 Q1025;","P01 010503SCOCIG"
"01320099999","2010-02-13T11:50:00","4","61.8333333","6.1166667","60.0","SANDANE ANDA, NO","FM-15","ENSD ","V020","999,9,C,0000,1","01800,1,C,N","011265,1,N,1","+0010,1","-0040,1","99999,9","02,5,+00210,1,99,9","07,5,+01800,1,99,9",,,"07,99,1,99,9,99,9,99999,9,99,9,99,9",,"10240,1,99999,9",,,,"MET059METAR ENSD 131150Z 00000KT 9999 FEW007 BKN060 01/M04 Q1024;",
"01320099999","2010-02-13T12:50:00","4","61.8333333","6.1166667","60.0","SANDANE ANDA, NO","FM-15","ENSD ","V020","999,9,V,0005,1","01800,1,C,N","011265,1,N,1","+0020,1","-0030,1","99999,9","02,5,+00210,1,99,9","07,5,+01800,1,99,9",,,"07,99,1,99,9,99,9,99999,9,99,9,99,9",,"10240,1,99999,9",,,,"MET059METAR ENSD 131250Z VRB01KT 9999 FEW007 BKN060 02/M03 Q1024;",
"01320099999","2010-02-13T13:50:00","4","61.8333333","6.1166667","60.0","SANDANE ANDA, NO","FM-15","ENSD ","V020","999,9,V,0005,1","01050,1,C,N","011265,1,N,1","+0010,1","-0030,1","99999,9","02,5,+00210,1,99,9","04,5,+01050,1,99,9","07,5,+01800,1,99,9",,"07,99,1,99,9,99,9,99999,9,99,9,99,9",,"10240,1,99999,9",,,,"MET066METAR ENSD 131350Z VRB01KT 9999 FEW007 SCT035 BKN060 01/M03 Q1024;",
"01320099999","2010-02-14T09:50:00","4","61.8333333","6.1166667","60.0","SANDANE ANDA, NO","FM-15","ENSD ","V020","999,9,V,0015,1","03000,1,C,N","011265,1,N,1","-0020,1","-0050,1","99999,9","02,5,+00150,1,99,9","07,5,+03000,1,99,9",,,"07,99,1,99,9,99,9,99999,9,99,9,99,9",,"10180,1,99999,9",,,,"MET060METAR ENSD 140950Z VRB03KT 9999 FEW005 BKN100 M02/M05 Q1018;",
"01320099999","2010-02-14T10:50:00","4","61.8333333","6.1166667","60.0","SANDANE ANDA, NO","FM-15","ENSD ","V020","999,9,C,0000,1","03000,1,C,N","011265,1,N,1","-0020,1","-0050,1","99999,9","02,5,+00150,1,99,9","07,5,+03000,1,99,9",,,"07,99,1,99,9,99,9,99999,9,99,9,99,9",,"10180,1,99999,9",,,,"MET060METAR ENSD 141050Z 00000KT 9999 FEW005 BKN100 M02/M05 Q1018;",
"01320099999","2010-02-14T11:50:00","4","61.8333333","6.1166667","60.0","SANDANE ANDA, NO","FM-15","ENSD ","V020","999,9,V,0005,1","02850,5,C,N","011265,1,N,1","+0000,1","-0040,1","99999,9","02,5,+00150,1,99,9","07,5,+02850,5,99,9",,,"07,99,1,99,9,99,9,99999,9,99,9,99,9",,"10180,1,99999,9",,,,"MET060METAR ENSD 141150Z VRB01KT 9999 FEW005 BKN095 M00/M04 Q1018;",
"01320099999","2010-02-14T14:50:00","4","61.8333333","6.1166667","60.0","SANDANE ANDA, NO","FM-15","ENSD ","V020","060,1,N,0015,1","02850,5,C,N","011265,1,N,1","+0000,1","-0030,1","99999,9","02,5,+00900,1,99,9","07,5,+02850,5,99,9",,,"07,99,1,99,9,99,9,99999,9,99,9,99,9",,"10159,1,99999,9",,,,"MET060METAR ENSD 141450Z 06003KT 9999 FEW030 BKN095 M00/M03 Q1016;",
"01320099999","2010-02-14T15:50:00","4","61.8333333","6.1166667","60.0","SANDANE ANDA, NO","FM-15","ENSD ","V020","999,9,V,0015,1","02850,5,C,N","011265,1,N,1","+0000,1","-0030,1","99999,9","02,5,+00900,1,99,9","07,5,+02850,5,99,9",,,"07,99,1,99,9,99,9,99999,9,99,9,99,9",,"10159,1,99999,9",,,,"MET060METAR ENSD 141550Z VRB03KT 9999 FEW030 BKN095 M00/M03 Q1016;",
"01320099999","2010-02-14T16:50:00","4","61.8333333","6.1166667","60.0","SANDANE ANDA, NO","FM-15","ENSD ","V020","999,9,V,0005,1","01500,1,C,N","011265,1,N,1","-0010,1","-0040,1","99999,9","02,5,+01200,1,99,9","04,5,+01650,5,99,9","07,5,+02850,5,99,9",,"07,99,1,99,9,99,9,99999,9,99,9,99,9",,"10149,1,99999,9",,,,"MET067METAR ENSD 141650Z VRB01KT 9999 FEW040 SCT055 BKN095 M01/M04 Q1015;",
"01320099999","2010-02-14T17:50:00","4","61.8333333","6.1166667","60.0","SANDANE ANDA, NO","FM-15","ENSD ","V020","999,9,V,0010,1","01500,1,C,N","011265,1,N,1","-0010,1","-0040,1","99999,9","02,5,+01200,1,99,9","04,5,+01650,5,99,9","07,5,+02850,5,99,9",,"07,99,1,99,9,99,9,99999,9,99,9,99,9",,"10149,1,99999,9",,,,"MET067METAR ENSD 141750Z VRB02KT 9999 FEW040 SCT055 BKN095 M01/M04 Q1015;",
"01320099999","2010-02-14T18:50:00","4","61.8333333","6.1166667","60.0","SANDANE ANDA, NO","FM-15","ENSD ","V020","999,9,V,0005,1","03000,1,C,N","011265,1,N,1","-0020,1","-0040,1","99999,9","04,5,+01800,1,99,9","07,5,+03000,1,99,9",,,"07,99,1,99,9,99,9,99999,9,99,9,99,9",,"10139,1,99999,9",,,,"MET060METAR ENSD 141850Z VRB01KT 9999 SCT060 BKN100 M02/M04 Q1014;",
"01320099999","2010-02-14T19:50:00","4","61.8333333","6.1166667","60.0","SANDANE ANDA, NO","FM-15","ENSD ","V020","999,9,C,0000,1","01950,5,C,N","011265,1,N,1","-0020,1","-0040,1","99999,9","07,5,+01950,5,99,9",,,,"07,99,1,99,9,99,9,99999,9,99,9,99,9",,"10139,1,99999,9",,,,"MET053METAR ENSD 141950Z 00000KT 9999 BKN065 M02/M04 Q1014;",
"01320099999","2010-02-15T05:20:00","4","61.8333333","6.1166667","60.0","SANDANE ANDA, NO","FM-15","ENSD ","V020","060,1,N,0026,1","01500,1,C,N","011265,1,N,1","-0010,1","-0040,1","99999,9","04,5,+01050,1,99,9","07,5,+01500,1,99,9",,,"07,99,1,99,9,99,9,99999,9,99,9,99,9",,"10091,1,99999,9",,,,"MET060METAR ENSD 150520Z 06005KT 9999 SCT035 BKN050 M01/M04 Q1009;",
"01320099999","2010-02-15T06:50:00","4","61.8333333","6.1166667","60.0","SANDANE ANDA, NO","FM-15","ENSD ","V020","999,9,V,0010,1","01500,1,C,N","011265,1,N,1","-0010,1","-0040,1","99999,9","02,5,+00900,1,99,9","07,5,+01500,1,99,9",,,"07,99,1,99,9,99,9,99999,9,99,9,99,9",,"10081,1,99999,9",,,,"MET060METAR ENSD 150650Z VRB02KT 9999 FEW030 BKN050 M01/M04 Q1008;",
"01320099999","2010-02-15T07:50:00","4","61.8333333","6.1166667","60.0","SANDANE ANDA, NO","FM-15","ENSD ","V020","999,9,C,0000,1","22000,1,9,N","011265,1,N,1","-0020,1","-0040,1","99999,9","04,5,+01500,1,99,9",,,,"04,99,1,99,9,99,9,99999,9,99,9,99,9",,"10081,1,99999,9",,,,"MET053METAR ENSD 150750Z 00000KT 9999 SCT050 M02/M04 Q1008;",
"01320099999","2010-02-15T08:50:00","4","61.8333333","6.1166667","60.0","SANDANE ANDA, NO","FM-15","ENSD ","V020","999,9,C,0000,1","22000,1,9,N","011265,1,N,1","-0020,1","-0040,1","99999,9","04,5,+01500,1,99,9",,,,"04,99,1,99,9,99,9,99999,9,99,9,99,9",,"10081,1,99999,9",,,,"MET053METAR ENSD 150850Z 00000KT 9999 SCT050 M02/M04 Q1008;",
"01320099999","2010-02-15T09:50:00","4","61.8333333","6.1166667","60.0","SANDANE ANDA, NO","FM-15","ENSD ","V020","999,9,V,0005,1","22000,1,9,N","011265,1,N,1","-0020,1","-0040,1","99999,9","02,5,+01200,1,99,9",,,,"02,99,1,99,9,99,9,99999,9,99,9,99,9",,"10071,1,99999,9",,,,"MET053METAR ENSD 150950Z VRB01KT 9999 FEW040 M02/M04 Q1007;",
"01320099999","2010-02-15T10:50:00","4","61.8333333","6.1166667","60.0","SANDANE ANDA, NO","FM-15","ENSD ","V020","999,9,V,0010,1","22000,1,9,N","011265,1,N,1","+0000,1","-0060,1","99999,9","02,5,+01200,1,99,9",,,,"02,99,1,99,9,99,9,99999,9,99,9,99,9",,"10071,1,99999,9",,,,"MET052METAR ENSD 151050Z VRB02KT 9999 FEW040 00/M06 Q1007;",
"01320099999","2010-02-15T11:50:00","4","61.8333333","6.1166667","60.0","SANDANE ANDA, NO","FM-15","ENSD ","V020","999,9,V,0005,1","22000,1,9,N","011265,1,N,1","+0010,1","-0050,1","99999,9","02,5,+01050,1,99,9",,,,"02,99,1,99,9,99,9,99999,9,99,9,99,9",,"10071,1,99999,9",,,,"MET052METAR ENSD 151150Z VRB01KT 9999 FEW035 01/M05 Q1007;",
"01320099999","2010-02-15T12:50:00","4","61.8333333","6.1166667","60.0","SANDANE ANDA, NO","FM-15","ENSD ","V020","999,9,C,0000,1","99999,9,9,Y","009900,1,N,1","+0030,1","-0050,1","99999,9",,,,,,,"10071,1,99999,9",,,,"MET046METAR ENSD 151250Z 00000KT CAVOK 03/M05 Q1007;",
"01320099999","2010-02-15T13:50:00","4","61.8333333","6.1166667","60.0","SANDANE ANDA, NO","FM-15","ENSD ","V020","999,9,C,0000,1","99999,9,9,Y","009900,1,N,1","+0030,1","-0050,1","99999,9",,,,,,,"10061,1,99999,9",,,,"MET046METAR ENSD 151350Z 00000KT CAVOK 03/M05 Q1006;",
"01320099999","2010-02-15T14:50:00","4","61.8333333","6.1166667","60.0","SANDANE ANDA, NO","FM-15","ENSD ","V020","999,9,C,0000,1","99999,9,9,Y","009900,1,N,1","+0000,1","-0070,1","99999,9",,,,,,,"10061,1,99999,9",,,,"MET047METAR ENSD 151450Z 00000KT CAVOK M00/M07 Q1006;",
"01320099999","2010-02-15T15:50:00","4","61.8333333","6.1166667","60.0","SANDANE ANDA, NO","FM-15","ENSD ","V020","999,9,V,0005,1","99999,9,9,Y","009900,1,N,1","-0010,1","-0060,1","99999,9",,,,,,,"10061,1,99999,9",,,,"MET047METAR ENSD 151550Z VRB01KT CAVOK M01/M06 Q1006;",
"01320099999","2010-02-15T16:50:00","4","61.8333333","6.1166667","60.0","SANDANE ANDA, NO","FM-15","ENSD ","V020","999,9,C,0000,1","99999,9,9,Y","009900,1,N,1","-0020,1","-0070,1","99999,9",,,,,,,"10061,1,99999,9",,,,"MET047METAR ENSD 151650Z 00000KT CAVOK M02/M07 Q1006;",
"01320099999","2010-02-15T17:50:00","4","61.8333333","6.1166667","60.0","SANDANE ANDA, NO","FM-15","ENSD ","V020","999,9,V,0005,1","99999,9,9,Y","009900,1,N,1","-0010,1","-0070,1","99999,9",,,,,,,"10061,1,99999,9",,,,"MET047METAR ENSD 151750Z VRB01KT CAVOK M01/M07 Q1006;",
"01320099999","2010-02-15T18:50:00","4","61.8333333","6.1166667","60.0","SANDANE ANDA, NO","FM-15","ENSD ","V020","999,9,V,0005,1","99999,9,9,Y","009900,1,N,1","-0020,1","-0070,1","99999,9",,,,,,,"10061,1,99999,9",,,,"MET047METAR ENSD 151850Z VRB01KT CAVOK M02/M07 Q1006;",
"01320099999","2010-02-15T19:50:00","4","61.8333333","6.1166667","60.0","SANDANE ANDA, NO","FM-15","ENSD ","V020","999,9,V,0005,1","99999,9,9,Y","009900,1,N,1","-0020,1","-0060,1","99999,9",,,,,,,"10061,1,99999,9",,,,"MET047METAR ENSD 151950Z VRB01KT CAVOK M02/M06 Q1006;",
"01320099999","2010-02-16T05:20:00","4","61.8333333","6.1166667","60.0","SANDANE ANDA, NO","FM-15","ENSD ","V020","140,1,N,0021,1","99999,9,9,Y","009900,1,N,1","-0030,1","-0070,1","99999,9",,,,,,,"10061,1,99999,9",,,,"MET047METAR ENSD 160520Z 14004KT CAVOK M03/M07 Q1006;",
"01320099999","2010-02-16T05:50:00","4","61.8333333","6.1166667","60.0","SANDANE ANDA, NO","FM-15","ENSD ","V020","999,9,V,0005,1","99999,9,9,Y","009900,1,N,1","-0030,1","-0080,1","99999,9",,,,,,,"10061,1,99999,9",,,,"MET047METAR ENSD 160550Z VRB01KT CAVOK M03/M08 Q1006;",
"01320099999","2010-02-16T06:50:00","4","61.8333333","6.1166667","60.0","SANDANE ANDA, NO","FM-15","ENSD ","V020","999,9,C,0000,1","99999,9,9,Y","009900,1,N,1","-0040,1","-0070,1","99999,9",,,,,,,"10061,1,99999,9",,,,"MET047METAR ENSD 160650Z 00000KT CAVOK M04/M07 Q1006;",
"01320099999","2010-02-16T07:50:00","4","61.8333333","6.1166667","60.0","SANDANE ANDA, NO","FM-15","ENSD ","V020","999,9,V,0010,1","99999,9,9,Y","009900,1,N,1","-0030,1","-0070,1","99999,9",,,,,,,"10061,1,99999,9",,,,"MET047METAR ENSD 160750Z VRB02KT CAVOK M03/M07 Q1006;",
"01320099999","2010-02-16T08:50:00","4","61.8333333","6.1166667","60.0","SANDANE ANDA, NO","FM-15","ENSD ","V020","999,9,C,0000,1","99999,9,9,Y","009900,1,N,1","-0030,1","-0070,1","99999,9",,,,,,,"10061,1,99999,9",,,,"MET047METAR ENSD 160850Z 00000KT CAVOK M03/M07 Q1006;",
"01320099999","2010-02-16T09:50:00","4","61.8333333","6.1166667","60.0","SANDANE ANDA, NO","FM-15","ENSD ","V020","999,9,V,0005,1","99999,9,9,Y","009900,1,N,1","-0030,1","-0080,1","99999,9",,,,,,,"10061,1,99999,9",,,,"MET047METAR ENSD 160950Z VRB01KT CAVOK M03/M08 Q1006;",
"01320099999","2010-02-16T11:20:00","4","61.8333333","6.1166667","60.0","SANDANE ANDA, NO","FM-15","ENSD ","V020","160,1,N,0015,1","99999,9,9,Y","009900,1,N,1","-0010,1","-0080,1","99999,9",,,,,,,"10051,1,99999,9",,,,"MET047METAR ENSD 161120Z 16003KT CAVOK M01/M08 Q1005;",
"01320099999","2010-02-16T11:50:00","4","61.8333333","6.1166667","60.0","SANDANE ANDA, NO","FM-15","ENSD ","V020","999,9,V,0005,1","99999,9,9,Y","009900,1,N,1","+0000,1","-0080,1","99999,9",,,,,,,"10051,1,99999,9",,,,"MET046METAR ENSD 161150Z VRB01KT CAVOK 00/M08 Q1005;",
"01320099999","2010-02-16T12:50:00","4","61.8333333","6.1166667","60.0","SANDANE ANDA, NO","FM-15","ENSD ","V020","999,9,V,0010,1","99999,9,9,Y","009900,1,N,1","+0000,1","-0080,1","99999,9",,,,,,,"10051,1,99999,9",,,,"MET046METAR ENSD 161250Z VRB02KT CAVOK 00/M08 Q1005;",
"01320099999","2010-02-16T13:50:00","4","61.8333333","6.1166667","60.0","SANDANE ANDA, NO","FM-15","ENSD ","V020","999,9,C,0000,1","99999,9,9,Y","009900,1,N,1","+0000,1","-0080,1","99999,9",,,,,,,"10041,1,99999,9",,,,"MET047METAR ENSD 161350Z 00000KT CAVOK M00/M08 Q1004;",
"01320099999","2010-02-16T14:50:00","4","61.8333333","6.1166667","60.0","SANDANE ANDA, NO","FM-15","ENSD ","V020","110,1,N,0015,1","99999,9,9,Y","009900,1,N,1","+0000,1","-0070,1","99999,9",,,,,,,"10041,1,99999,9",,,,"MET047METAR ENSD 161450Z 11003KT CAVOK M00/M07 Q1004;",
"01320099999","2010-02-16T15:50:00","4","61.8333333","6.1166667","60.0","SANDANE ANDA, NO","FM-15","ENSD ","V020","140,1,N,0021,1","99999,9,9,Y","009900,1,N,1","-0010,1","-0070,1","99999,9",,,,,,,"10041,1,99999,9",,,,"MET047METAR ENSD 161550Z 14004KT CAVOK M01/M07 Q1004;",
"01320099999","2010-02-16T17:50:00","4","61.8333333","6.1166667","60.0","SANDANE ANDA, NO","FM-15","ENSD ","V020","999,9,V,0010,1","99999,9,9,Y","009900,1,N,1","-0020,1","-0070,1","99999,9",,,,,,,"10041,1,99999,9",,,,"MET047METAR ENSD 161750Z VRB02KT CAVOK M02/M07 Q1004;",
"01320099999","2010-02-16T18:50:00","4","61.8333333","6.1166667","60.0","SANDANE ANDA, NO","FM-15","ENSD ","V020","140,1,N,0021,1","99999,9,9,Y","009900,1,N,1","-0020,1","-0070,1","99999,9",,,,,,,"10041,1,99999,9",,,,"MET047METAR ENSD 161850Z 14004KT CAVOK M02/M07 Q1004;",
"01320099999","2010-02-16T19:50:00","4","61.8333333","6.1166667","60.0","SANDANE ANDA, NO","FM-15","ENSD ","V020","090,1,N,0015,1","02700,1,C,N","011265,1,N,1","-0020,1","-0080,1","99999,9","07,5,+02700,1,99,9",,,,"07,99,1,99,9,99,9,99999,9,99,9,99,9",,"10041,1,99999,9",,,,"MET053METAR ENSD 161950Z 09003KT 9999 BKN090 M02/M08 Q1004;",
"01320099999","2010-02-17T04:50:00","4","61.8333333","6.1166667","60.0","SANDANE ANDA, NO","FM-15","ENSD ","V020","999,9,C,0000,1","22000,1,9,N","011265,1,N,1","-0050,1","-0090,1","99999,9","02,5,+01200,1,99,9",,,,"02,99,1,99,9,99,9,99999,9,99,9,99,9",,"10041,1,99999,9",,,,"MET053METAR ENSD 170450Z 00000KT 9999 FEW040 M05/M09 Q1004;",
"01320099999","2010-02-17T05:50:00","4","61.8333333","6.1166667","60.0","SANDANE ANDA, NO","FM-15","ENSD ","V020","999,9,C,0000,1","22000,1,9,N","011265,1,N,1","-0060,1","-0090,1","99999,9","02,5,+01200,1,99,9",,,,"02,99,1,99,9,99,9,99999,9,99,9,99,9",,"10041,1,99999,9",,,,"MET053METAR ENSD 170550Z 00000KT 9999 FEW040 M06/M09 Q1004;",
"01320099999","2010-02-17T07:50:00","4","61.8333333","6.1166667","60.0","SANDANE ANDA, NO","FM-15","ENSD ","V020","999,9,V,0010,1","22000,1,9,N","011265,1,N,1","-0060,1","-0100,1","99999,9","02,5,+01500,1,99,9",,,,"02,99,1,99,9,99,9,99999,9,99,9,99,9",,"10041,1,99999,9",,,,"MET053METAR ENSD 170750Z VRB02KT 9999 FEW050 M06/M10 Q1004;",
"01320099999","2010-02-17T08:50:00","4","61.8333333","6.1166667","60.0","SANDANE ANDA, NO","FM-15","ENSD ","V020","999,9,V,0005,1","22000,1,9,N","011265,1,N,1","-0050,1","-0090,1","99999,9","02,5,+01200,1,99,9",,,,"02,99,1,99,9,99,9,99999,9,99,9,99,9",,"10041,1,99999,9",,,,"MET053METAR ENSD 170850Z VRB01KT 9999 FEW040 M05/M09 Q1004;",
"01320099999","2010-02-17T09:50:00","4","61.8333333","6.1166667","60.0","SANDANE ANDA, NO","FM-15","ENSD ","V020","999,9,C,0000,1","99999,9,9,Y","009900,1,N,1","-0040,1","-0110,1","99999,9",,,,,,,"10041,1,99999,9",,,,"MET047METAR ENSD 170950Z 00000KT CAVOK M04/M11 Q1004;",
"01320099999","2010-02-17T10:50:00","4","61.8333333","6.1166667","60.0","SANDANE ANDA, NO","FM-15","ENSD ","V020","999,9,V,0005,1","99999,9,9,Y","009900,1,N,1","-0030,1","-0100,1","99999,9",,,,,,,"10041,1,99999,9",,,,"MET047METAR ENSD 171050Z VRB01KT CAVOK M03/M10 Q1004;",
"01320099999","2010-02-17T11:50:00","4","61.8333333","6.1166667","60.0","SANDANE ANDA, NO","FM-15","ENSD ","V020","999,9,C,0000,1","99999,9,9,Y","009900,1,N,1","-0010,1","-0090,1","99999,9",,,,,,,"10041,1,99999,9",,,,"MET047METAR ENSD 171150Z 00000KT CAVOK M01/M09 Q1004;",
"01320099999","2010-02-17T12:50:00","4","61.8333333","6.1166667","60.0","SANDANE ANDA, NO","FM-15","ENSD ","V020","999,9,V,0005,1","99999,9,9,Y","009900,1,N,1","-0010,1","-0090,1","99999,9",,,,,,,"10041,1,99999,9",,,,"MET047METAR ENSD 171250Z VRB01KT CAVOK M01/M09 Q1004;",
"01320099999","2010-02-17T13:50:00","4","61.8333333","6.1166667","60.0","SANDANE ANDA, NO","FM-15","ENSD ","V020","999,9,V,0010,1","99999,9,9,Y","009900,1,N,1","-0010,1","-0100,1","99999,9",,,,,,,"10031,1,99999,9",,,,"MET047METAR ENSD 171350Z VRB02KT CAVOK M01/M10 Q1003;",
"01320099999","2010-02-17T14:50:00","4","61.8333333","6.1166667","60.0","SANDANE ANDA, NO","FM-15","ENSD ","V020","999,9,V,0005,1","99999,9,9,Y","009900,1,N,1","-0020,1","-0100,1","99999,9",,,,,,,"10031,1,99999,9",,,,"MET047METAR ENSD 171450Z VRB01KT CAVOK M02/M10 Q1003;",
"01320099999","2010-02-17T15:50:00","4","61.8333333","6.1166667","60.0","SANDANE ANDA, NO","FM-15","ENSD ","V020","999,9,C,0000,1","99999,9,9,Y","009900,1,N,1","-0020,1","-0090,1","99999,9",,,,,,,"10031,1,99999,9",,,,"MET047METAR ENSD 171550Z 00000KT CAVOK M02/M09 Q1003;",
"01320099999","2010-02-17T16:50:00","4","61.8333333","6.1166667","60.0","SANDANE ANDA, NO","FM-15","ENSD ","V020","130,1,N,0026,1","99999,9,9,Y","009900,1,N,1","-0020,1","-0080,1","99999,9",,,,,,,"10031,1,99999,9",,,,"MET047METAR ENSD 171650Z 13005KT CAVOK M02/M08 Q1003;",
"01320099999","2010-02-17T17:50:00","4","61.8333333","6.1166667","60.0","SANDANE ANDA, NO","FM-15","ENSD ","V020","150,1,N,0026,1","99999,9,9,Y","009900,1,N,1","-0020,1","-0110,1","99999,9",,,,,,,"10031,1,99999,9",,,,"MET047METAR ENSD 171750Z 15005KT CAVOK M02/M11 Q1003;",
"01320099999","2010-02-17T18:50:00","4","61.8333333","6.1166667","60.0","SANDANE ANDA, NO","FM-15","ENSD ","V020","999,9,V,0010,1","99999,9,9,Y","009900,1,N,1","-0030,1","-0110,1","99999,9",,,,,,,"10031,1,99999,9",,,,"MET047METAR ENSD 171850Z VRB02KT CAVOK M03/M11 Q1003;",
"01320099999","2010-02-17T19:50:00","4","61.8333333","6.1166667","60.0","SANDANE ANDA, NO","FM-15","ENSD ","V020","999,9,V,0010,1","99999,9,9,Y","009900,1,N,1","-0040,1","-0100,1","99999,9",,,,,,,"10031,1,99999,9",,,,"MET047METAR ENSD 171950Z VRB02KT CAVOK M04/M10 Q1003;",
"01320099999","2010-02-18T05:20:00","4","61.8333333","6.1166667","60.0","SANDANE ANDA, NO","FM-15","ENSD ","V020","090,1,N,0031,1","99999,9,9,Y","009900,1,N,1","-0030,1","-0090,1","99999,9",,,,,,,"10020,1,99999,9",,,,"MET047METAR ENSD 180520Z 09006KT CAVOK M03/M09 Q1002;",
"01320099999","2010-02-18T06:50:00","4","61.8333333","6.1166667","60.0","SANDANE ANDA, NO","FM-15","ENSD ","V020","999,9,V,0010,1","99999,9,9,Y","009900,1,N,1","-0040,1","-0110,1","99999,9",,,,,,,"10020,1,99999,9",,,,"MET047METAR ENSD 180650Z VRB02KT CAVOK M04/M11 Q1002;",
"01320099999","2010-02-18T07:50:00","4","61.8333333","6.1166667","60.0","SANDANE ANDA, NO","FM-15","ENSD ","V020","140,1,N,0026,1","99999,9,9,Y","009900,1,N,1","-0030,1","-0100,1","99999,9",,,,,,,"10020,1,99999,9",,,,"MET047METAR ENSD 180750Z 14005KT CAVOK M03/M10 Q1002;",
"01320099999","2010-02-18T08:50:00","4","61.8333333","6.1166667","60.0","SANDANE ANDA, NO","FM-15","ENSD ","V020","140,1,N,0021,1","99999,9,9,Y","009900,1,N,1","-0020,1","-0110,1","99999,9",,,,,,,"10020,1,99999,9",,,,"MET047METAR ENSD 180850Z 14004KT CAVOK M02/M11 Q1002;",
"01320099999","2010-02-18T09:50:00","4","61.8333333","6.1166667","60.0","SANDANE ANDA, NO","FM-15","ENSD ","V020","140,1,N,0026,1","99999,9,9,Y","009900,1,N,1","-0020,1","-0110,1","99999,9",,,,,,,"10020,1,99999,9",,,,"MET047METAR ENSD 180950Z 14005KT CAVOK M02/M11 Q1002;",
"01320099999","2010-02-18T11:20:00","4","61.8333333","6.1166667","60.0","SANDANE ANDA, NO","FM-15","ENSD ","V020","999,9,V,0010,1","99999,9,9,Y","009900,1,N,1","-0010,1","-0100,1","99999,9",,,,,,,"10010,1,99999,9",,,,"MET047METAR ENSD 181120Z VRB02KT CAVOK M01/M10 Q1001;",
"01320099999","2010-02-18T11:50:00","4","61.8333333","6.1166667","60.0","SANDANE ANDA, NO","FM-15","ENSD ","V020","999,9,V,0005,1","99999,9,9,Y","009900,1,N,1","+0000,1","+9999,9","99999,9",,,,,,,"10010,1,99999,9",,,,"MET046METAR ENSD 181150Z VRB01KT CAVOK M00/M1 Q1001;","Q01-000103ATOD  Q02 -00103ATOD  "
"01320099999","2010-02-18T12:50:00","4","61.8333333","6.1166667","60.0","SANDANE ANDA, NO","FM-15","ENSD ","V020","999,9,V,0010,1","99999,9,9,Y","009900,1,N,1","+0000,1","-0090,1","99999,9",,,,,,,"10010,1,99999,9",,,,"MET047METAR ENSD 181250Z VRB02KT CAVOK M00/M09 Q1001;",
"01320099999","2010-02-18T13:50:00","4","61.8333333","6.1166667","60.0","SANDANE ANDA, NO","FM-15","ENSD ","V020","999,9,V,0010,1","99999,9,9,Y","009900,1,N,1","+0000,1","-0130,1","99999,9",,,,,,,"10010,1,99999,9",,,,"MET047METAR ENSD 181350Z VRB02KT CAVOK M00/M13 Q1001;",
"01320099999","2010-02-18T14:50:00","4","61.8333333","6.1166667","60.0","SANDANE ANDA, NO","FM-15","ENSD ","V020","999,9,V,0005,1","99999,9,9,Y","009900,1,N,1","-0010,1","-0120,1","99999,9",,,,,,,"10000,1,99999,9",,,,"MET047METAR ENSD 181450Z VRB01KT CAVOK M01/M12 Q1000;",
"01320099999","2010-02-18T16:20:00","4","61.8333333","6.1166667","60.0","SANDANE ANDA, NO","FM-15","ENSD ","V020","999,9,V,0010,1","99999,9,9,Y","009900,1,N,1","-0020,1","-0120,1","99999,9",,,,,,,"10000,1,99999,9",,,,"MET047METAR ENSD 181620Z VRB02KT CAVOK M02/M12 Q1000;",
"01320099999","2010-02-18T17:50:00","4","61.8333333","6.1166667","60.0","SANDANE ANDA, NO","FM-15","ENSD ","V020","080,1,N,0015,1","99999,9,9,Y","009900,1,N,1","-0020,1","-0130,1","99999,9",,,,,,,"09990,1,99999,9",,,,"MET047METAR ENSD 181750Z 08003KT CAVOK M02/M13 Q0999;",
"01320099999","2010-02-18T18:50:00","4","61.8333333","6.1166667","60.0","SANDANE ANDA, NO","FM-15","ENSD ","V020","999,9,V,0010,1","99999,9,9,Y","009900,1,N,1","-0030,1","-0120,1","99999,9",,,,,,,"09990,1,99999,9",,,,"MET047METAR ENSD 181850Z VRB02KT CAVOK M03/M12 Q0999;",
"01320099999","2010-02-18T19:50:00","4","61.8333333","6.1166667","60.0","SANDANE ANDA, NO","FM-15","ENSD ","V020","160,1,N,0015,1","99999,9,9,Y","009900,1,N,1","-0020,1","-0120,1","99999,9",,,,,,,"09990,1,99999,9",,,,"MET047METAR ENSD 181950Z 16003KT CAVOK M02/M12 Q0999;",
"01320099999","2010-02-19T04:50:00","4","61.8333333","6.1166667","60.0","SANDANE ANDA, NO","FM-15","ENSD ","V020","110,1,N,0015,1","99999,9,9,Y","009900,1,N,1","-0030,1","-0110,1","99999,9",,,,,,,"09970,1,99999,9",,,,"MET047METAR ENSD 190450Z 11003KT CAVOK M03/M11 Q0997;",
"01320099999","2010-02-19T05:50:00","4","61.8333333","6.1166667","60.0","SANDANE ANDA, NO","FM-15","ENSD ","V020","140,1,N,0021,1","99999,9,9,Y","009900,1,N,1","-0030,1","-0100,1","99999,9",,,,,,,"09970,1,99999,9",,,,"MET047METAR ENSD 190550Z 14004KT CAVOK M03/M10 Q0997;",
"01320099999","2010-02-19T06:50:00","4","61.8333333","6.1166667","60.0","SANDANE ANDA, NO","FM-15","ENSD ","V020","150,1,N,0021,1","99999,9,9,Y","009900,1,N,1","-0030,1","-0110,1","99999,9",,,,,,,"09970,1,99999,9",,,,"MET047METAR ENSD 190650Z 15004KT CAVOK M03/M11 Q0997;",
"01320099999","2010-02-19T07:50:00","4","61.8333333","6.1166667","60.0","SANDANE ANDA, NO","FM-15","ENSD ","V020","140,1,N,0021,1","99999,9,9,Y","009900,1,N,1","-0040,1","-0110,1","99999,9",,,,,,,"09970,1,99999,9",,,,"MET055METAR ENSD 190750Z 14004KT 090V210 CAVOK M04/M11 Q0997;",
"01320099999","2010-02-19T08:50:00","4","61.8333333","6.1166667","60.0","SANDANE ANDA, NO","FM-15","ENSD ","V020","140,1,N,0021,1","99999,9,9,Y","009900,1,N,1","-0030,1","-0100,1","99999,9",,,,,,,"09970,1,99999,9",,,,"MET055METAR ENSD 190850Z 14004KT 060V190 CAVOK M03/M10 Q0997;",
"01320099999","2010-02-19T09:50:00","4","61.8333333","6.1166667","60.0","SANDANE ANDA, NO","FM-15","ENSD ","V020","140,1,N,0021,1","99999,9,9,Y","009900,1,N,1","-0030,1","-0120,1","99999,9",,,,,,,"09970,1,99999,9",,,,"MET055METAR ENSD 190950Z 14004KT 090V170 CAVOK M03/M12 Q0997;",
"01320099999","2010-02-19T11:50:00","4","61.8333333","6.1166667","60.0","SANDANE ANDA, NO","FM-15","ENSD ","V020","999,9,V,0015,1","99999,9,9,Y","009900,1,N,1","-0010,1","-0100,1","99999,9",,,,,,,"09970,1,99999,9",,,,"MET047METAR ENSD 191150Z VRB03KT CAVOK M01/M10 Q0997;",
"01320099999","2010-02-19T12:50:00","4","61.8333333","6.1166667","60.0","SANDANE ANDA, NO","FM-15","ENSD ","V020","999,9,V,0005,1","99999,9,9,Y","009900,1,N,1","+0000,1","-0130,1","99999,9",,,,,,,"09970,1,99999,9",,,,"MET047METAR ENSD 191250Z VRB01KT CAVOK M00/M13 Q0997;",
"01320099999","2010-02-19T14:50:00","4","61.8333333","6.1166667","60.0","SANDANE ANDA, NO","FM-15","ENSD ","V020","999,9,V,0005,1","99999,9,9,Y","009900,1,N,1","-0020,1","-0120,1","99999,9",,,,,,,"09959,1,99999,9",,,,"MET047METAR ENSD 191450Z VRB01KT CAVOK M02/M12 Q0996;",
"01320099999","2010-02-19T15:50:00","4","61.8333333","6.1166667","60.0","SANDANE ANDA, NO","FM-15","ENSD ","V020","999,9,V,0010,1","99999,9,9,Y","009900,1,N,1","-0030,1","-0130,1","99999,9",,,,,,,"09959,1,99999,9",,,,"MET047METAR ENSD 191550Z VRB02KT CAVOK M03/M13 Q0996;",
"01320099999","2010-02-19T16:50:00","4","61.8333333","6.1166667","60.0","SANDANE ANDA, NO","FM-15","ENSD ","V020","999,9,C,0000,1","99999,9,9,Y","009900,1,N,1","-0040,1","-0160,1","99999,9",,,,,,,"09959,1,99999,9",,,,"MET047METAR ENSD 191650Z 00000KT CAVOK M04/M16 Q0996;",
"01320099999","2010-02-19T17:50:00","4","61.8333333","6.1166667","60.0","SANDANE ANDA, NO","FM-15","ENSD ","V020","999,9,V,0010,1","99999,9,9,Y","009900,1,N,1","-0040,1","-0130,1","99999,9",,,,,,,"09959,1,99999,9",,,,"MET047METAR ENSD 191750Z VRB02KT CAVOK M04/M13 Q0996;",
"01320099999","2010-02-19T18:50:00","4","61.8333333","6.1166667","60.0","SANDANE ANDA, NO","FM-15","ENSD ","V020","160,1,N,0015,1","99999,9,9,Y","009900,1,N,1","-0050,1","-0150,1","99999,9",,,,,,,"09959,1,99999,9",,,,"MET047METAR ENSD 191850Z 16003KT CAVOK M05/M15 Q0996;",
"01320099999","2010-02-20T05:50:00","4","61.8333333","6.1166667","60.0","SANDANE ANDA, NO","FM-15","ENSD ","V020","160,1,N,0026,1","22000,1,9,N","011265,1,N,1","-0080,1","-0160,1","99999,9","02,5,+01200,1,99,9",,,,"02,99,1,99,9,99,9,99999,9,99,9,99,9",,"09949,1,99999,9",,,,"MET053METAR ENSD 200550Z 16005KT 9999 FEW040 M08/M16 Q0995;",
"01320099999","2010-02-20T06:50:00","4","61.8333333","6.1166667","60.0","SANDANE ANDA, NO","FM-15","ENSD ","V020","140,1,N,0036,1","99999,9,9,Y","009900,1,N,1","-0080,1","-0150,1","99999,9",,,,,,,"09949,1,99999,9",,,,"MET047METAR ENSD 200650Z 14007KT CAVOK M08/M15 Q0995;",
"01320099999","2010-02-20T07:50:00","4","61.8333333","6.1166667","60.0","SANDANE ANDA, NO","FM-15","ENSD ","V020","120,1,N,0026,1","99999,9,9,Y","009900,1,N,1","-0070,1","-0160,1","99999,9",,,,,,,"09949,1,99999,9",,,,"MET047METAR ENSD 200750Z 12005KT CAVOK M07/M16 Q0995;",
"01320099999","2010-02-20T08:50:00","4","61.8333333","6.1166667","60.0","SANDANE ANDA, NO","FM-15","ENSD ","V020","160,1,N,0031,1","99999,9,9,Y","009900,1,N,1","-0070,1","-0150,1","99999,9",,,,,,,"09949,1,99999,9",,,,"MET047METAR ENSD 200850Z 16006KT CAVOK M07/M15 Q0995;",
"01320099999","2010-02-20T09:50:00","4","61.8333333","6.1166667","60.0","SANDANE ANDA, NO","FM-15","ENSD ","V020","150,1,N,0026,1","99999,9,9,Y","009900,1,N,1","-0070,1","-0150,1","99999,9",,,,,,,"09949,1,99999,9",,,,"MET047METAR ENSD 200950Z 15005KT CAVOK M07/M15 Q0995;",
"01320099999","2010-02-20T10:50:00","4","61.8333333","6.1166667","60.0","SANDANE ANDA, NO","FM-15","ENSD ","V020","160,1,N,0021,1","99999,9,9,Y","009900,1,N,1","-0050,1","-0130,1","99999,9",,,,,,,"09949,1,99999,9",,,,"MET047METAR ENSD 201050Z 16004KT CAVOK M05/M13 Q0995;",
"01320099999","2010-02-20T12:50:00","4","61.8333333","6.1166667","60.0","SANDANE ANDA, NO","FM-15","ENSD ","V020","150,1,N,0021,1","99999,9,9,Y","009900,1,N,1","-0030,1","-0140,1","99999,9",,,,,,,"09949,1,99999,9",,,,"MET047METAR ENSD 201250Z 15004KT CAVOK M03/M14 Q0995;",
"01320099999","2010-02-20T13:50:00","4","61.8333333","6.1166667","60.0","SANDANE ANDA, NO","FM-15","ENSD ","V020","999,9,V,0010,1","99999,9,9,Y","009900,1,N,1","-0020,1","-0150,1","99999,9",,,,,,,"09949,1,99999,9",,,,"MET047METAR ENSD 201350Z VRB02KT CAVOK M02/M15 Q0995;",
"01320099999","2010-02-21T09:50:00","4","61.8333333","6.1166667","60.0","SANDANE ANDA, NO","FM-15","ENSD ","V020","999,9,V,0010,1","99999,9,9,Y","009900,1,N,1","-0070,1","-0170,1","99999,9",,,,,,,"09959,1,99999,9",,,,"MET047METAR ENSD 210950Z VRB02KT CAVOK M07/M17 Q0996;",
"01320099999","2010-02-21T10:50:00","4","61.8333333","6.1166667","60.0","SANDANE ANDA, NO","FM-15","ENSD ","V020","080,1,N,0036,1","99999,9,9,Y","009900,1,N,1","-0070,1","-0170,1","99999,9",,,,,,,"09959,1,99999,9",,,,"MET047METAR ENSD 211050Z 08007KT CAVOK M07/M17 Q0996;",
"01320099999","2010-02-21T11:50:00","4","61.8333333","6.1166667","60.0","SANDANE ANDA, NO","FM-15","ENSD ","V020","080,1,N,0041,1","99999,9,9,Y","009900,1,N,1","-0060,1","-0170,1","99999,9",,,,,,,"09959,1,99999,9",,,,"MET047METAR ENSD 211150Z 08008KT CAVOK M06/M17 Q0996;",
"01320099999","2010-02-21T15:50:00","4","61.8333333","6.1166667","60.0","SANDANE ANDA, NO","FM-15","ENSD ","V020","080,1,N,0036,1","99999,9,9,Y","009900,1,N,1","-0060,1","-0160,1","99999,9",,,,,,,"09949,1,99999,9",,,,"MET047METAR ENSD 211550Z 08007KT CAVOK M06/M16 Q0995;",
"01320099999","2010-02-21T16:50:00","4","61.8333333","6.1166667","60.0","SANDANE ANDA, NO","FM-15","ENSD ","V020","070,1,N,0026,1","22000,1,9,N","011265,1,N,1","-0060,1","-0160,1","99999,9","02,5,+01050,1,99,9",,,,"02,99,1,99,9,99,9,99999,9,99,9,99,9",,"09949,1,99999,9",,,,"MET053METAR ENSD 211650Z 07005KT 9999 FEW035 M06/M16 Q0995;",
"01320099999","2010-02-21T17:50:00","4","61.8333333","6.1166667","60.0","SANDANE ANDA, NO","FM-15","ENSD ","V020","090,1,N,0021,1","22000,1,9,N","011265,1,N,1","-0060,1","-0150,1","99999,9","02,5,+01050,1,99,9",,,,"02,99,1,99,9,99,9,99999,9,99,9,99,9",,"09949,1,99999,9",,,,"MET053METAR ENSD 211750Z 09004KT 9999 FEW035 M06/M15 Q0995;",
"01320099999","2010-02-21T18:50:00","4","61.8333333","6.1166667","60.0","SANDANE ANDA, NO","FM-15","ENSD ","V020","130,1,N,0021,1","01650,5,C,N","011265,1,N,1","-0070,1","-0160,1","99999,9","04,5,+01050,1,99,9","07,5,+01650,5,99,9",,,"07,99,1,99,9,99,9,99999,9,99,9,99,9",,"09949,1,99999,9",,,,"MET060METAR ENSD 211850Z 13004KT 9999 SCT035 BKN055 M07/M16 Q0995;",
"01320099999","2010-02-21T19:50:00","4","61.8333333","6.1166667","60.0","SANDANE ANDA, NO","FM-15","ENSD ","V020","130,1,N,0021,1","01650,5,C,N","011265,1,N,1","-0070,1","-0150,1","99999,9","04,5,+01050,1,99,9","07,5,+01650,5,99,9",,,"07,99,1,99,9,99,9,99999,9,99,9,99,9",,"09949,1,99999,9",,,,"MET060METAR ENSD 211950Z 13004KT 9999 SCT035 BKN055 M07/M15 Q0995;",
"01320099999","2010-02-22T04:50:00","4","61.8333333","6.1166667","60.0","SANDANE ANDA, NO","FM-15","ENSD ","V020","150,1,N,0026,1","22000,1,9,N","011265,1,N,1","-0100,1","-0150,1","99999,9","02,5,+01200,1,99,9",,,,"02,99,1,99,9,99,9,99999,9,99,9,99,9",,"09929,1,99999,9",,,,"MET053METAR ENSD 220450Z 15005KT 9999 FEW040 M10/M15 Q0993;",
"01320099999","2010-02-22T05:50:00","4","61.8333333","6.1166667","60.0","SANDANE ANDA, NO","FM-15","ENSD ","V020","150,1,N,0026,1","22000,1,9,N","011265,1,N,1","-0090,1","-0130,1","99999,9","02,5,+01200,1,99,9",,,,"02,99,1,99,9,99,9,99999,9,99,9,99,9",,"09929,1,99999,9",,,,"MET053METAR ENSD 220550Z 15005KT 9999 FEW040 M09/M13 Q0993;",
"01320099999","2010-02-22T06:50:00","4","61.8333333","6.1166667","60.0","SANDANE ANDA, NO","FM-15","ENSD ","V020","150,1,N,0031,1","99999,9,9,Y","009900,1,N,1","-0090,1","-0130,1","99999,9",,,,,,,"09929,1,99999,9",,,,"MET047METAR ENSD 220650Z 15006KT CAVOK M09/M13 Q0993;",
"01320099999","2010-02-22T07:50:00","4","61.8333333","6.1166667","60.0","SANDANE ANDA, NO","FM-15","ENSD ","V020","140,1,N,0026,1","99999,9,9,Y","009900,1,N,1","-0090,1","-0130,1","99999,9",,,,,,,"09929,1,99999,9",,,,"MET047METAR ENSD 220750Z 14005KT CAVOK M09/M13 Q0993;",
"01320099999","2010-02-22T08:50:00","4","61.8333333","6.1166667","60.0","SANDANE ANDA, NO","FM-15","ENSD ","V020","150,1,N,0021,1","99999,9,9,Y","009900,1,N,1","-0080,1","-0130,1","99999,9",,,,,,,"09929,1,99999,9",,,,"MET047METAR ENSD 220850Z 15004KT CAVOK M08/M13 Q0993;",
"01320099999","2010-02-22T09:50:00","4","61.8333333","6.1166667","60.0","SANDANE ANDA, NO","FM-15","ENSD ","V020","999,9,V,0005,1","99999,9,9,Y","009900,1,N,1","-0070,1","-0130,1","99999,9",,,,,,,"09929,1,99999,9",,,,"MET047METAR ENSD 220950Z VRB01KT CAVOK M07/M13 Q0993;",
"01320099999","2010-02-22T10:50:00","4","61.8333333","6.1166667","60.0","SANDANE ANDA, NO","FM-15","ENSD ","V020","999,9,V,0010,1","99999,9,9,Y","009900,1,N,1","-0060,1","-0120,1","99999,9",,,,,,,"09929,1,99999,9",,,,"MET047METAR ENSD 221050Z VRB02KT CAVOK M06/M12 Q0993;",
"01320099999","2010-02-22T11:50:00","4","61.8333333","6.1166667","60.0","SANDANE ANDA, NO","FM-15","ENSD ","V020","999,9,V,0010,1","99999,9,9,Y","009900,1,N,1","-0050,1","-0120,1","99999,9",,,,,,,"09929,1,99999,9",,,,"MET047METAR ENSD 221150Z VRB02KT CAVOK M05/M12 Q0993;",
"01320099999","2010-02-22T12:50:00","4","61.8333333","6.1166667","60.0","SANDANE ANDA, NO","FM-15","ENSD ","V020","999,9,V,0005,1","99999,9,9,Y","009900,1,N,1","-0040,1","-0120,1","99999,9",,,,,,,"09919,1,99999,9",,,,"MET047METAR ENSD 221250Z VRB01KT CAVOK M04/M12 Q0992;",
"01320099999","2010-02-22T13:50:00","4","61.8333333","6.1166667","60.0","SANDANE ANDA, NO","FM-15","ENSD ","V020","999,9,V,0010,1","99999,9,9,Y","009900,1,N,1","-0040,1","-0140,1","99999,9",,,,,,,"09919,1,99999,9",,,,"MET047METAR ENSD 221350Z VRB02KT CAVOK M04/M14 Q0992;",
"01320099999","2010-02-22T14:50:00","4","61.8333333","6.1166667","60.0","SANDANE ANDA, NO","FM-15","ENSD ","V020","060,1,N,0015,1","99999,9,9,Y","009900,1,N,1","-0050,1","-0140,1","99999,9",,,,,,,"09919,1,99999,9",,,,"MET047METAR ENSD 221450Z 06003KT CAVOK M05/M14 Q0992;",
"01320099999","2010-02-22T15:50:00","4","61.8333333","6.1166667","60.0","SANDANE ANDA, NO","FM-15","ENSD ","V020","100,1,N,0015,1","99999,9,9,Y","009900,1,N,1","-0050,1","-0130,1","99999,9",,,,,,,"09919,1,99999,9",,,,"MET047METAR ENSD 221550Z 10003KT CAVOK M05/M13 Q0992;",
"01320099999","2010-02-22T16:50:00","4","61.8333333","6.1166667","60.0","SANDANE ANDA, NO","FM-15","ENSD ","V020","130,1,N,0021,1","99999,9,9,Y","009900,1,N,1","-0060,1","-0120,1","99999,9",,,,,,,"09919,1,99999,9",,,,"MET047METAR ENSD 221650Z 13004KT CAVOK M06/M12 Q0992;",
"01320099999","2010-02-22T17:50:00","4","61.8333333","6.1166667","60.0","SANDANE ANDA, NO","FM-15","ENSD ","V020","130,1,N,0026,1","99999,9,9,Y","009900,1,N,1","-0060,1","-0130,1","99999,9",,,,,,,"09929,1,99999,9",,,,"MET047METAR ENSD 221750Z 13005KT CAVOK M06/M13 Q0993;",
"01320099999","2010-02-22T18:50:00","4","61.8333333","6.1166667","60.0","SANDANE ANDA, NO","FM-15","ENSD ","V020","140,1,N,0021,1","99999,9,9,Y","009900,1,N,1","-0070,1","-0120,1","99999,9",,,,,,,"09929,1,99999,9",,,,"MET047METAR ENSD 221850Z 14004KT CAVOK M07/M12 Q0993;",
"01320099999","2010-02-22T19:50:00","4","61.8333333","6.1166667","60.0","SANDANE ANDA, NO","FM-15","ENSD ","V020","130,1,N,0026,1","99999,9,9,Y","009900,1,N,1","-0080,1","-0130,1","99999,9",,,,,,,"09929,1,99999,9",,,,"MET047METAR ENSD 221950Z 13005KT CAVOK M08/M13 Q0993;",
"01320099999","2010-02-23T05:20:00","4","61.8333333","6.1166667","60.0","SANDANE ANDA, NO","FM-15","ENSD ","V020","150,1,N,0021,1","99999,9,9,Y","009900,1,N,1","-0080,1","-0110,1","99999,9",,,,,,,"09929,1,99999,9",,,,"MET047METAR ENSD 230520Z 15004KT CAVOK M08/M11 Q0993;",
"01320099999","2010-02-23T06:50:00","4","61.8333333","6.1166667","60.0","SANDANE ANDA, NO","FM-15","ENSD ","V020","140,1,N,0026,1","22000,1,9,N","011265,1,N,1","-0080,1","-0110,1","99999,9","02,5,+00450,1,99,9",,,,"02,99,1,99,9,99,9,99999,9,99,9,99,9",,"09929,1,99999,9",,,,"MET053METAR ENSD 230650Z 14005KT 9999 FEW015 M08/M11 Q0993;",
"01320099999","2010-02-23T07:50:00","4","61.8333333","6.1166667","60.0","SANDANE ANDA, NO","FM-15","ENSD ","V020","999,9,V,0005,1","22000,1,9,N","011265,1,N,1","-0080,1","-0120,1","99999,9","02,5,+00450,1,99,9",,,,"02,99,1,99,9,99,9,99999,9,99,9,99,9",,"09939,1,99999,9",,,,"MET053METAR ENSD 230750Z VRB01KT 9999 FEW015 M08/M12 Q0994;",
"01320099999","2010-02-23T08:50:00","4","61.8333333","6.1166667","60.0","SANDANE ANDA, NO","FM-15","ENSD ","V020","140,1,N,0026,1","22000,1,9,N","011265,1,N,1","-0070,1","-0110,1","99999,9","02,5,+00360,1,99,9",,,,"02,99,1,99,9,99,9,99999,9,99,9,99,9",,"09939,1,99999,9",,,,"MET053METAR ENSD 230850Z 14005KT 9999 FEW012 M07/M11 Q0994;",
"01320099999","2010-02-23T09:50:00","4","61.8333333","6.1166667","60.0","SANDANE ANDA, NO","FM-15","ENSD ","V020","150,1,N,0015,1","22000,1,9,N","011265,1,N,1","-0060,1","-0110,1","99999,9","02,5,+00300,1,99,9",,,,"02,99,1,99,9,99,9,99999,9,99,9,99,9",,"09939,1,99999,9",,,,"MET053METAR ENSD 230950Z 15003KT 9999 FEW010 M06/M11 Q0994;",
"01320099999","2010-02-23T10:50:00","4","61.8333333","6.1166667","60.0","SANDANE ANDA, NO","FM-15","ENSD ","V020","999,9,V,0005,1","99999,9,9,Y","009900,1,N,1","-0050,1","-0100,1","99999,9",,,,,,,"09949,1,99999,9",,,,"MET047METAR ENSD 231050Z VRB01KT CAVOK M05/M10 Q0995;",
"01320099999","2010-02-23T12:50:00","4","61.8333333","6.1166667","60.0","SANDANE ANDA, NO","FM-15","ENSD ","V020","999,9,V,0010,1","99999,9,9,Y","009900,1,N,1","-0030,1","-0100,1","99999,9",,,,,,,"09949,1,99999,9",,,,"MET047METAR ENSD 231250Z VRB02KT CAVOK M03/M10 Q0995;",
"01320099999","2010-02-23T13:50:00","4","61.8333333","6.1166667","60.0","SANDANE ANDA, NO","FM-15","ENSD ","V020","999,9,V,0005,1","99999,9,9,Y","009900,1,N,1","-0020,1","-0100,1","99999,9",,,,,,,"09959,1,99999,9",,,,"MET047METAR ENSD 231350Z VRB01KT CAVOK M02/M10 Q0996;",
"01320099999","2010-02-23T14:50:00","4","61.8333333","6.1166667","60.0","SANDANE ANDA, NO","FM-15","ENSD ","V020","150,1,N,0015,1","99999,9,9,Y","009900,1,N,1","-0040,1","-0130,1","99999,9",,,,,,,"09959,1,99999,9",,,,"MET047METAR ENSD 231450Z 15003KT CAVOK M04/M13 Q0996;",
"01320099999","2010-02-23T15:50:00","4","61.8333333","6.1166667","60.0","SANDANE ANDA, NO","FM-15","ENSD ","V020","120,1,N,0015,1","99999,9,9,Y","009900,1,N,1","-0040,1","-0140,1","99999,9",,,,,,,"09970,1,99999,9",,,,"MET047METAR ENSD 231550Z 12003KT CAVOK M04/M14 Q0997;",
"01320099999","2010-02-23T16:50:00","4","61.8333333","6.1166667","60.0","SANDANE ANDA, NO","FM-15","ENSD ","V020","120,1,N,0015,1","99999,9,9,Y","009900,1,N,1","-0050,1","-0150,1","99999,9",,,,,,,"09970,1,99999,9",,,,"MET047METAR ENSD 231650Z 12003KT CAVOK M05/M15 Q0997;",
"01320099999","2010-02-23T17:50:00","4","61.8333333","6.1166667","60.0","SANDANE ANDA, NO","FM-15","ENSD ","V020","140,1,N,0031,1","22000,1,9,N","011265,1,N,1","-0050,1","-0150,1","99999,9","02,5,+01500,1,99,9",,,,"02,99,1,99,9,99,9,99999,9,99,9,99,9",,"09980,1,99999,9",,,,"MET053METAR ENSD 231750Z 14006KT 9999 FEW050 M05/M15 Q0998;",
"01320099999","2010-02-23T18:50:00","4","61.8333333","6.1166667","60.0","SANDANE ANDA, NO","FM-15","ENSD ","V020","150,1,N,0031,1","02100,1,C,N","011265,1,N,1","-0060,1","-0120,1","99999,9","02,5,+01500,1,99,9","07,5,+02100,1,99,9",,,"07,99,1,99,9,99,9,99999,9,99,9,99,9",,"09980,1,99999,9",,,,"MET060METAR ENSD 231850Z 15006KT 9999 FEW050 BKN070 M06/M12 Q0998;",
"01320099999","2010-02-23T19:50:00","4","61.8333333","6.1166667","60.0","SANDANE ANDA, NO","FM-15","ENSD ","V020","130,1,N,0021,1","99999,9,C,N","011265,1,N,1","-0060,1","-0150,1","99999,9","02,5,+01500,1,99,9","04,5,+02100,1,99,9",,,"04,99,1,99,9,99,9,99999,9,99,9,99,9",,"09980,1,99999,9",,,,"MET060METAR ENSD 231950Z 13004KT 9999 FEW050 SCT070 M06/M15 Q0998;","P01 021003SCOCIG"
"01320099999","2010-02-24T05:20:00","4","61.8333333","6.1166667","60.0","SANDANE ANDA, NO","FM-15","ENSD ","V020","999,9,V,0005,1","99999,9,C,N","011265,1,N,1","-0060,1","-0120,1","99999,9","02,5,+00900,1,99,9","04,5,+01500,1,99,9",,,"04,99,1,99,9,99,9,99999,9,99,9,99,9",,"09990,1,99999,9",,,,"MET060METAR ENSD 240520Z VRB01KT 9999 FEW030 SCT050 M06/M12 Q0999;","P01 015003SCOCIG"
"01320099999","2010-02-24T05:50:00","4","61.8333333","6.1166667","60.0","SANDANE ANDA, NO","FM-15","ENSD ","V020","999,9,V,0010,1","99999,9,C,N","011265,1,N,1","-0060,1","-0120,1","99999,9","02,5,+00900,1,99,9","04,5,+01500,1,99,9",,,"04,99,1,99,9,99,9,99999,9,99,9,99,9",,"09990,1,99999,9",,,,"MET060METAR ENSD 240550Z VRB02KT 9999 FEW030 SCT050 M06/M12 Q0999;","P01 015003SCOCIG"
"01320099999","2010-02-24T06:50:00","4","61.8333333","6.1166667","60.0","SANDANE ANDA, NO","FM-15","ENSD ","V020","999,9,C,0000,1","22000,1,9,N","011265,1,N,1","-0060,1","-0100,1","99999,9","04,5,+01500,1,99,9",,,,"04,99,1,99,9,99,9,99999,9,99,9,99,9",,"10000,1,99999,9",,,,"MET053METAR ENSD 240650Z 00000KT 9999 SCT050 M06/M10 Q1000;",
"01320099999","2010-02-24T07:50:00","4","61.8333333","6.1166667","60.0","SANDANE ANDA, NO","FM-15","ENSD ","V020","140,1,N,0015,1","22000,1,9,N","011265,1,N,1","-0050,1","-0090,1","99999,9","04,5,+01500,1,99,9",,,,"04,99,1,99,9,99,9,99999,9,99,9,99,9",,"10000,1,99999,9",,,,"MET053METAR ENSD 240750Z 14003KT 9999 SCT050 M05/M09 Q1000;",
"01320099999","2010-02-24T08:50:00","4","61.8333333","6.1166667","60.0","SANDANE ANDA, NO","FM-15","ENSD ","V020","130,1,N,0015,1","99999,9,C,N","011265,1,N,1","-0040,1","-0090,1","99999,9","02,5,+00360,1,99,9","04,5,+01350,1,99,9",,,"04,99,1,99,9,99,9,99999,9,99,9,99,9",,"10010,1,99999,9",,,,"MET060METAR ENSD 240850Z 13003KT 9999 FEW012 SCT045 M04/M09 Q1001;","P01 013503SCOCIG"
"01320099999","2010-02-24T09:50:00","4","61.8333333","6.1166667","60.0","SANDANE ANDA, NO","FM-15","ENSD ","V020","999,9,C,0000,1","22000,1,9,N","011265,1,N,1","-0030,1","-0070,1","99999,9","02,5,+01350,1,99,9",,,,"02,99,1,99,9,99,9,99999,9,99,9,99,9",,"10010,1,99999,9",,,,"MET053METAR ENSD 240950Z 00000KT 9999 FEW045 M03/M07 Q1001;",
"01320099999","2010-02-24T10:50:00","4","61.8333333","6.1166667","60.0","SANDANE ANDA, NO","FM-15","ENSD ","V020","999,9,V,0010,1","22000,1,9,N","011265,1,N,1","-0020,1","-0080,1","99999,9","02,5,+01350,1,99,9",,,,"02,99,1,99,9,99,9,99999,9,99,9,99,9",,"10020,1,99999,9",,,,"MET053METAR ENSD 241050Z VRB02KT 9999 FEW045 M02/M08 Q1002;",
"01320099999","2010-02-24T11:50:00","4","61.8333333","6.1166667","60.0","SANDANE ANDA, NO","FM-15","ENSD ","V020","999,9,V,0005,1","22000,1,9,N","011265,1,N,1","+0000,1","-0070,1","99999,9","02,5,+01350,1,99,9",,,,"02,99,1,99,9,99,9,99999,9,99,9,99,9",,"10020,1,99999,9",,,,"MET053METAR ENSD 241150Z VRB01KT 9999 FEW045 M00/M07 Q1002;",
"01320099999","2010-02-24T12:50:00","4","61.8333333","6.1166667","60.0","SANDANE ANDA, NO","FM-15","ENSD ","V020","999,9,V,0005,1","22000,1,9,N","011265,1,N,1","+0010,1","-0060,1","99999,9","02,5,+01350,1,99,9",,,,"02,99,1,99,9,99,9,99999,9,99,9,99,9",,"10031,1,99999,9",,,,"MET052METAR ENSD 241250Z VRB01KT 9999 FEW045 01/M06 Q1003;",
"01320099999","2010-02-24T13:50:00","4","61.8333333","6.1166667","60.0","SANDANE ANDA, NO","FM-15","ENSD ","V020","060,1,N,0015,1","01800,1,C,N","011265,1,N,1","+0000,1","-0060,1","99999,9","02,5,+01350,1,99,9","07,5,+01800,1,99,9",,,"07,99,1,99,9,99,9,99999,9,99,9,99,9",,"10031,1,99999,9",,,,"MET059METAR ENSD 241350Z 06003KT 9999 FEW045 BKN060 00/M06 Q1003;",
"01320099999","2010-02-24T14:50:00","4","61.8333333","6.1166667","60.0","SANDANE ANDA, NO","FM-15","ENSD ","V020","060,1,N,0015,1","01500,1,C,N","011265,1,N,1","+0000,1","-0060,1","99999,9","07,5,+01500,1,99,9",,,,"07,99,1,99,9,99,9,99999,9,99,9,99,9",,"10031,1,99999,9",,,,"MET052METAR ENSD 241450Z 06003KT 9999 BKN050 00/M06 Q1003;",
"01320099999","2010-02-24T15:50:00","4","61.8333333","6.1166667","60.0","SANDANE ANDA, NO","FM-15","ENSD ","V020","999,9,C,0000,1","01350,1,C,N","011265,1,N,1","+0000,1","-0060,1","99999,9","07,5,+01350,1,99,9",,,,"07,99,1,99,9,99,9,99999,9,99,9,99,9",,"10031,1,99999,9",,,,"MET052METAR ENSD 241550Z 00000KT 9999 BKN045 00/M06 Q1003;",
"01320099999","2010-02-24T16:50:00","4","61.8333333","6.1166667","60.0","SANDANE ANDA, NO","FM-15","ENSD ","V020","040,1,N,0015,1","01800,1,C,N","011265,1,N,1","+0000,1","-0080,1","99999,9","07,5,+01800,1,99,9",,,,"07,99,1,99,9,99,9,99999,9,99,9,99,9",,"10041,1,99999,9",,,,"MET053METAR ENSD 241650Z 04003KT 9999 BKN060 M00/M08 Q1004;",
"01320099999","2010-02-24T17:50:00","4","61.8333333","6.1166667","60.0","SANDANE ANDA, NO","FM-15","ENSD ","V020","030,1,N,0021,1","01950,5,C,N","011265,1,N,1","+0000,1","-0080,1","99999,9","07,5,+01950,5,99,9",,,,"07,99,1,99,9,99,9,99999,9,99,9,99,9",,"10041,1,99999,9",,,,"MET061METAR ENSD 241750Z 03004KT 340V110 9999 BKN065 M00/M08 Q1004;",
"01320099999","2010-02-24T18:50:00","4","61.8333333","6.1166667","60.0","SANDANE ANDA, NO","FM-15","ENSD ","V020","999,9,V,0015,1","22000,1,9,N","011265,1,N,1","-0010,1","-0090,1","99999,9","04,5,+01800,1,99,9",,,,"04,99,1,99,9,99,9,99999,9,99,9,99,9",,"10041,1,99999,9",,,,"MET053METAR ENSD 241850Z VRB03KT 9999 SCT060 M01/M09 Q1004;",
"01320099999","2010-02-25T05:20:00","4","61.8333333","6.1166667","60.0","SANDANE ANDA, NO","FM-15","ENSD ","V020","140,1,N,0031,1","99999,9,9,Y","009900,1,N,1","-0050,1","-0100,1","99999,9",,,,,,,"10031,1,99999,9",,,,"MET047METAR ENSD 250520Z 14006KT CAVOK M05/M10 Q1003;",
"01320099999","2010-02-25T06:50:00","4","61.8333333","6.1166667","60.0","SANDANE ANDA, NO","FM-15","ENSD ","V020","999,9,V,0015,1","99999,9,9,Y","009900,1,N,1","-0050,1","-0100,1","99999,9",,,,,,,"10020,1,99999,9",,,,"MET047METAR ENSD 250650Z VRB03KT CAVOK M05/M10 Q1002;",
"01320099999","2010-02-25T07:50:00","4","61.8333333","6.1166667","60.0","SANDANE ANDA, NO","FM-15","ENSD ","V020","150,1,N,0026,1","99999,9,9,Y","009900,1,N,1","-0050,1","-0120,1","99999,9",,,,,,,"10020,1,99999,9",,,,"MET047METAR ENSD 250750Z 15005KT CAVOK M05/M12 Q1002;",
"01320099999","2010-02-25T08:50:00","4","61.8333333","6.1166667","60.0","SANDANE ANDA, NO","FM-15","ENSD ","V020","150,1,N,0026,1","99999,9,9,Y","009900,1,N,1","-0040,1","-0100,1","99999,9",,,,,,,"10020,1,99999,9",,,,"MET055METAR ENSD 250850Z 15005KT 040V170 CAVOK M04/M10 Q1002;",
"01320099999","2010-02-25T09:50:00","4","61.8333333","6.1166667","60.0","SANDANE ANDA, NO","FM-15","ENSD ","V020","160,1,N,0021,1","99999,9,9,Y","009900,1,N,1","-0030,1","-0100,1","99999,9",,,,,,,"10010,1,99999,9",,,,"MET047METAR ENSD 250950Z 16004KT CAVOK M03/M10 Q1001;",
"01320099999","2010-02-25T10:50:00","4","61.8333333","6.1166667","60.0","SANDANE ANDA, NO","FM-15","ENSD ","V020","999,9,V,0010,1","99999,9,9,Y","009900,1,N,1","-0020,1","-0110,1","99999,9",,,,,,,"10010,1,99999,9",,,,"MET047METAR ENSD 251050Z VRB02KT CAVOK M02/M11 Q1001;",
"01320099999","2010-02-25T11:50:00","4","61.8333333","6.1166667","60.0","SANDANE ANDA, NO","FM-15","ENSD ","V020","210,1,N,0015,1","99999,9,9,Y","009900,1,N,1","-0010,1","-0110,1","99999,9",,,,,,,"10000,1,99999,9",,,,"MET047METAR ENSD 251150Z 21003KT CAVOK M01/M11 Q1000;",
"01320099999","2010-02-25T12:50:00","4","61.8333333","6.1166667","60.0","SANDANE ANDA, NO","FM-15","ENSD ","V020","999,9,V,0005,1","99999,9,9,Y","009900,1,N,1","-0010,1","-0110,1","99999,9",,,,,,,"10000,1,99999,9",,,,"MET047METAR ENSD 251250Z VRB01KT CAVOK M01/M11 Q1000;",
"01320099999","2010-02-25T13:50:00","4","61.8333333","6.1166667","60.0","SANDANE ANDA, NO","FM-15","ENSD ","V020","999,9,V,0010,1","99999,9,9,Y","009900,1,N,1","-0010,1","-0110,1","99999,9",,,,,,,"09990,1,99999,9",,,,"MET047METAR ENSD 251350Z VRB02KT CAVOK M01/M11 Q0999;",
"01320099999","2010-02-25T15:50:00","4","61.8333333","6.1166667","60.0","SANDANE ANDA, NO","FM-15","ENSD ","V020","999,9,V,0010,1","99999,9,9,Y","009900,1,N,1","-0010,1","-0090,1","99999,9",,,,,,,"09990,1,99999,9",,,,"MET047METAR ENSD 251550Z VRB02KT CAVOK M01/M09 Q0999;",
"01320099999","2010-02-25T17:50:00","4","61.8333333","6.1166667","60.0","SANDANE ANDA, NO","FM-15","ENSD ","V020","150,1,N,0015,1","99999,9,9,Y","009900,1,N,1","-0010,1","-0100,1","99999,9",,,,,,,"09980,1,99999,9",,,,"MET047METAR ENSD 251750Z 15003KT CAVOK M01/M10 Q0998;",
"01320099999","2010-02-25T18:50:00","4","61.8333333","6.1166667","60.0","SANDANE ANDA, NO","FM-15","ENSD ","V020","999,9,V,0005,1","99999,9,9,Y","009900,1,N,1","-0020,1","-0090,1","99999,9",,,,,,,"09980,1,99999,9",,,,"MET047METAR ENSD 251850Z VRB01KT CAVOK M02/M09 Q0998;",
"01320099999","2010-02-25T19:50:00","4","61.8333333","6.1166667","60.0","SANDANE ANDA, NO","FM-15","ENSD ","V020","140,1,N,0021,1","99999,9,9,Y","009900,1,N,1","-0020,1","-0090,1","99999,9",,,,,,,"09970,1,99999,9",,,,"MET047METAR ENSD 251950Z 14004KT CAVOK M02/M09 Q0997;",
"01320099999","2010-02-26T05:20:00","4","61.8333333","6.1166667","60.0","SANDANE ANDA, NO","FM-15","ENSD ","V020","140,1,N,0021,1","99999,9,C,N","011265,1,N,1","-0020,1","-0070,1","99999,9","02,5,+01200,1,99,9","04,5,+01950,5,99,9",,,"04,99,1,99,9,99,9,99999,9,99,9,99,9",,"09949,1,99999,9",,,,"MET060METAR ENSD 260520Z 14004KT 9999 FEW040 SCT065 M02/M07 Q0995;","P01 019503SCOCIG"
"01320099999","2010-02-26T05:50:00","4","61.8333333","6.1166667","60.0","SANDANE ANDA, NO","FM-15","ENSD ","V020","280,1,N,0015,1","99999,9,C,N","011265,1,N,1","-0020,1","-0080,1","99999,9","02,5,+01200,1,99,9","04,5,+01950,5,99,9",,,"04,99,1,99,9,99,9,99999,9,99,9,99,9",,"09949,1,99999,9",,,,"MET060METAR ENSD 260550Z 28003KT 9999 FEW040 SCT065 M02/M08 Q0995;","P01 019503SCOCIG"
"01320099999","2010-02-26T06:50:00","4","61.8333333","6.1166667","60.0","SANDANE ANDA, NO","FM-15","ENSD ","V020","999,9,C,0000,1","22000,1,9,N","011265,1,N,1","-0020,1","-0080,1","99999,9","02,5,+01200,1,99,9",,,,"02,99,1,99,9,99,9,99999,9,99,9,99,9",,"09949,1,99999,9",,,,"MET053METAR ENSD 260650Z 00000KT 9999 FEW040 M02/M08 Q0995;",
"01320099999","2010-02-26T07:50:00","4","61.8333333","6.1166667","60.0","SANDANE ANDA, NO","FM-15","ENSD ","V020","150,1,N,0015,1","01800,1,C,N","011265,1,N,1","-0020,1","-0080,1","99999,9","02,5,+01200,1,99,9","07,5,+01800,1,99,9",,,"07,99,1,99,9,99,9,99999,9,99,9,99,9",,"09949,1,99999,9",,,,"MET060METAR ENSD 260750Z 15003KT 9999 FEW040 BKN060 M02/M08 Q0995;",
"01320099999","2010-02-26T08:50:00","4","61.8333333","6.1166667","60.0","SANDANE ANDA, NO","FM-15","ENSD ","V020","140,1,N,0021,1","01800,1,C,N","011265,1,N,1","-0020,1","-0080,1","99999,9","02,5,+01200,1,99,9","07,5,+01800,1,99,9",,,"07,99,1,99,9,99,9,99999,9,99,9,99,9",,"09949,1,99999,9",,,,"MET060METAR ENSD 260850Z 14004KT 9999 FEW040 BKN060 M02/M08 Q0995;",
"01320099999","2010-02-26T09:50:00","4","61.8333333","6.1166667","60.0","SANDANE ANDA, NO","FM-15","ENSD ","V020","999,9,C,0000,1","01800,1,C,N","011265,1,N,1","+0000,1","-0070,1","99999,9","02,5,+01200,1,99,9","07,5,+01800,1,99,9",,,"07,99,1,99,9,99,9,99999,9,99,9,99,9",,"09949,1,99999,9",,,,"MET059METAR ENSD 260950Z 00000KT 9999 FEW040 BKN060 00/M07 Q0995;",
"01320099999","2010-02-26T10:50:00","4","61.8333333","6.1166667","60.0","SANDANE ANDA, NO","FM-15","ENSD ","V020","999,9,C,0000,1","01800,1,C,N","011265,1,N,1","+0000,1","-0080,1","99999,9","02,5,+01200,1,99,9","07,5,+01800,1,99,9",,,"07,99,1,99,9,99,9,99999,9,99,9,99,9",,"09949,1,99999,9",,,,"MET059METAR ENSD 261050Z 00000KT 9999 FEW040 BKN060 00/M08 Q0995;",
"01320099999","2010-02-26T11:50:00","4","61.8333333","6.1166667","60.0","SANDANE ANDA, NO","FM-15","ENSD ","V020","999,9,V,0010,1","01950,5,C,N","011265,1,N,1","+0010,1","-0080,1","99999,9","02,5,+01200,1,99,9","07,5,+01950,5,99,9",,,"07,99,1,99,9,99,9,99999,9,99,9,99,9",,"09949,1,99999,9",,,,"MET059METAR ENSD 261150Z VRB02KT 9999 FEW040 BKN065 01/M08 Q0995;",
"01320099999","2010-02-26T12:50:00","4","61.8333333","6.1166667","60.0","SANDANE ANDA, NO","FM-15","ENSD ","V020","999,9,V,0010,1","01950,5,C,N","011265,1,N,1","+0010,1","-0080,1","99999,9","07,5,+01950,5,99,9",,,,"07,99,1,99,9,99,9,99999,9,99,9,99,9",,"09959,1,99999,9",,,,"MET052METAR ENSD 261250Z VRB02KT 9999 BKN065 01/M08 Q0996;",
"01320099999","2010-02-26T13:50:00","4","61.8333333","6.1166667","60.0","SANDANE ANDA, NO","FM-15","ENSD ","V020","999,9,V,0010,1","22000,1,9,N","011265,1,N,1","+0010,1","-0090,1","99999,9","04,5,+01950,5,99,9",,,,"04,99,1,99,9,99,9,99999,9,99,9,99,9",,"09959,1,99999,9",,,,"MET052METAR ENSD 261350Z VRB02KT 9999 SCT065 01/M09 Q0996;",
"01320099999","2010-02-26T14:50:00","4","61.8333333","6.1166667","60.0","SANDANE ANDA, NO","FM-15","ENSD ","V020","240,1,N,0015,1","22000,1,9,N","011265,1,N,1","+0020,1","-0090,1","99999,9","02,5,+01950,5,99,9",,,,"02,99,1,99,9,99,9,99999,9,99,9,99,9",,"09959,1,99999,9",,,,"MET052METAR ENSD 261450Z 24003KT 9999 FEW065 02/M09 Q0996;",
"01320099999","2010-02-26T15:50:00","4","61.8333333","6.1166667","60.0","SANDANE ANDA, NO","FM-15","ENSD ","V020","999,9,V,0010,1","22000,1,9,N","011265,1,N,1","+0000,1","-0090,1","99999,9","02,5,+01950,5,99,9",,,,"02,99,1,99,9,99,9,99999,9,99,9,99,9",,"09959,1,99999,9",,,,"MET053METAR ENSD 261550Z VRB02KT 9999 FEW065 M00/M09 Q0996;",
"01320099999","2010-02-26T16:50:00","4","61.8333333","6.1166667","60.0","SANDANE ANDA, NO","FM-15","ENSD ","V020","999,9,V,0005,1","99999,9,9,Y","009900,1,N,1","-0010,1","-0090,1","99999,9",,,,,,,"09959,1,99999,9",,,,"MET045METAR ENSD 261650Z VRB01 CAVOK M01/M09 Q0996;",
"01320099999","2010-02-26T17:50:00","4","61.8333333","6.1166667","60.0","SANDANE ANDA, NO","FM-15","ENSD ","V020","999,9,C,0000,1","99999,9,9,Y","009900,1,N,1","-0010,1","-0090,1","99999,9",,,,,,,"09970,1,99999,9",,,,"MET047METAR ENSD 261750Z 00000KT CAVOK M01/M09 Q0997;",
"01320099999","2010-02-26T18:50:00","4","61.8333333","6.1166667","60.0","SANDANE ANDA, NO","FM-15","ENSD ","V020","999,9,V,0010,1","99999,9,9,Y","009900,1,N,1","-0020,1","-0070,1","99999,9",,,,,,,"09970,1,99999,9",,,,"MET047METAR ENSD 261850Z VRB02KT CAVOK M02/M07 Q0997;",
"01320099999","2010-02-26T19:50:00","4","61.8333333","6.1166667","60.0","SANDANE ANDA, NO","FM-15","ENSD ","V020","150,1,N,0021,1","99999,9,9,Y","009900,1,N,1","-0020,1","-0080,1","99999,9",,,,,,,"09970,1,99999,9",,,,"MET047METAR ENSD 261950Z 15004KT CAVOK M02/M08 Q0997;",
"01320099999","2010-02-27T06:20:00","4","61.8333333","6.1166667","60.0","SANDANE ANDA, NO","FM-15","ENSD ","V020","999,9,V,0005,1","99999,9,9,Y","009900,1,N,1","-0070,1","-0100,1","99999,9",,,,,,,"09990,1,99999,9",,,,"MET047METAR ENSD 270620Z VRB01KT CAVOK M07/M10 Q0999;",
"01320099999","2010-02-27T06:50:00","4","61.8333333","6.1166667","60.0","SANDANE ANDA, NO","FM-15","ENSD ","V020","999,9,V,0010,1","99999,9,9,Y","009900,1,N,1","-0070,1","-0100,1","99999,9",,,,,,,"10000,1,99999,9",,,,"MET047METAR ENSD 270650Z VRB02KT CAVOK M07/M10 Q1000;",
"01320099999","2010-02-27T07:50:00","4","61.8333333","6.1166667","60.0","SANDANE ANDA, NO","FM-15","ENSD ","V020","150,1,N,0015,1","99999,9,9,Y","009900,1,N,1","-0060,1","-0090,1","99999,9",,,,,,,"10000,1,99999,9",,,,"MET047METAR ENSD 270750Z 15003KT CAVOK M06/M09 Q1000;",
"01320099999","2010-02-27T08:50:00","4","61.8333333","6.1166667","60.0","SANDANE ANDA, NO","FM-15","ENSD ","V020","999,9,V,0005,1","99999,9,9,Y","009900,1,N,1","-0060,1","-0100,1","99999,9",,,,,,,"10000,1,99999,9",,,,"MET047METAR ENSD 270850Z VRB01KT CAVOK M06/M10 Q1000;",
"01320099999","2010-02-27T09:50:00","4","61.8333333","6.1166667","60.0","SANDANE ANDA, NO","FM-15","ENSD ","V020","210,1,N,0010,1","99999,9,9,Y","009900,1,N,1","-0040,1","-0090,1","99999,9",,,,,,,"10000,1,99999,9",,,,"MET047METAR ENSD 270950Z 21002KT CAVOK M04/M09 Q1000;",
"01320099999","2010-02-27T10:50:00","4","61.8333333","6.1166667","60.0","SANDANE ANDA, NO","FM-15","ENSD ","V020","999,9,C,0000,1","22000,1,9,N","011265,1,N,1","-0020,1","-0080,1","99999,9","02,5,+01500,1,99,9",,,,"02,99,1,99,9,99,9,99999,9,99,9,99,9",,"10000,1,99999,9",,,,"MET053METAR ENSD 271050Z 00000KT 9999 FEW050 M02/M08 Q1000;",
"01320099999","2010-02-27T11:50:00","4","61.8333333","6.1166667","60.0","SANDANE ANDA, NO","FM-15","ENSD ","V020","999,9,V,0005,1","99999,9,9,Y","009900,1,N,1","-0020,1","-0080,1","99999,9",,,,,,,"09990,1,99999,9",,,,"MET047METAR ENSD 271150Z VRB01KT CAVOK M02/M08 Q0999;",
"01320099999","2010-02-27T12:50:00","4","61.8333333","6.1166667","60.0","SANDANE ANDA, NO","FM-15","ENSD ","V020","070,1,N,0015,1","99999,9,9,Y","009900,1,N,1","-0020,1","-0100,1","99999,9",,,,,,,"09990,1,99999,9",,,,"MET047METAR ENSD 271250Z 07003KT CAVOK M02/M10 Q0999;",
"01320099999","2010-02-27T13:50:00","4","61.8333333","6.1166667","60.0","SANDANE ANDA, NO","FM-15","ENSD ","V020","070,1,N,0021,1","99999,9,9,Y","009900,1,N,1","-0020,1","-0090,1","99999,9",,,,,,,"09990,1,99999,9",,,,"MET047METAR ENSD 271350Z 07004KT CAVOK M02/M09 Q0999;",
"01320099999","2010-02-28T09:50:00","4","61.8333333","6.1166667","60.0","SANDANE ANDA, NO","FM-15","ENSD ","V020","999,9,C,0000,1","99999,9,9,Y","009900,1,N,1","-0050,1","-0110,1","99999,9",,,,,,,"09949,1,99999,9",,,,"MET047METAR ENSD 280950Z 00000KT CAVOK M05/M11 Q0995;",
"01320099999","2010-02-28T10:50:00","4","61.8333333","6.1166667","60.0","SANDANE ANDA, NO","FM-15","ENSD ","V020","160,1,N,0021,1","99999,9,9,Y","009900,1,N,1","-0030,1","-0120,1","99999,9",,,,,,,"09949,1,99999,9",,,,"MET047METAR ENSD 281050Z 16004KT CAVOK M03/M12 Q0995;",
"01320099999","2010-02-28T11:50:00","4","61.8333333","6.1166667","60.0","SANDANE ANDA, NO","FM-15","ENSD ","V020","999,9,V,0010,1","99999,9,9,Y","009900,1,N,1","-0020,1","-0110,1","99999,9",,,,,,,"09949,1,99999,9",,,,"MET047METAR ENSD 281150Z VRB02KT CAVOK M02/M11 Q0995;",
"01320099999","2010-02-28T14:50:00","4","61.8333333","6.1166667","60.0","SANDANE ANDA, NO","FM-15","ENSD ","V020","999,9,V,0005,1","99999,9,9,Y","009900,1,N,1","-0010,1","-0140,1","99999,9",,,,,,,"09939,1,99999,9",,,,"MET047METAR ENSD 281450Z VRB01KT CAVOK M01/M14 Q0994;",
"01320099999","2010-02-28T15:50:00","4","61.8333333","6.1166667","60.0","SANDANE ANDA, NO","FM-15","ENSD ","V020","140,1,N,0005,1","99999,9,9,Y","009900,1,N,1","-0020,1","-0090,1","99999,9",,,,,,,"09939,1,99999,9",,,,"MET047METAR ENSD 281550Z 14001KT CAVOK M02/M09 Q0994;",
"01320099999","2010-02-28T16:50:00","4","61.8333333","6.1166667","60.0","SANDANE ANDA, NO","FM-15","ENSD ","V020","140,1,N,0026,1","99999,9,9,Y","009900,1,N,1","-0020,1","-0090,1","99999,9",,,,,,,"09939,1,99999,9",,,,"MET047METAR ENSD 281650Z 14005KT CAVOK M02/M09 Q0994;",
"01320099999","2010-02-28T17:50:00","4","61.8333333","6.1166667","60.0","SANDANE ANDA, NO","FM-15","ENSD ","V020","999,9,C,0000,1","99999,9,9,Y","009900,1,N,1","-0050,1","-0100,1","99999,9",,,,,,,"09939,1,99999,9",,,,"MET047METAR ENSD 281750Z 00000KT CAVOK M05/M10 Q0994;",
"01320099999","2010-02-28T18:50:00","4","61.8333333","6.1166667","60.0","SANDANE ANDA, NO","FM-15","ENSD ","V020","130,1,N,0026,1","99999,9,9,Y","009900,1,N,1","-0040,1","-0120,1","99999,9",,,,,,,"09949,1,99999,9",,,,"MET047METAR ENSD 281850Z 13005KT CAVOK M04/M12 Q0995;",
"01320099999","2010-02-28T19:50:00","4","61.8333333","6.1166667","60.0","SANDANE ANDA, NO","FM-15","ENSD ","V020","999,9,V,0010,1","99999,9,9,Y","009900,1,N,1","-0050,1","-0100,1","99999,9",,,,,,,"09949,1,99999,9",,,,"MET047METAR ENSD 281950Z VRB02KT CAVOK M05/M10 Q0995;",
"01320099999","2010-08-26T04:20:00","4","61.8333333","6.1166667","60.0","SANDANE ANDA, NO","FM-15","ENSD ","V020","320,1,N,0026,1","01950,5,C,N","011265,1,N,1","+0120,1","+0070,1","99999,9","02,5,+00900,1,99,9","07,5,+01950,5,99,9",,,"07,99,1,99,9,99,9,99999,9,99,9,99,9",,"10041,1,99999,9",,,,"MET066METAR ENSD 260420Z 32005KT 280V010 9999 FEW030 BKN065 12/07 Q1004;",
"01320099999","2010-08-26T04:50:00","4","61.8333333","6.1166667","60.0","SANDANE ANDA, NO","FM-15","ENSD ","V020","999,9,V,0015,1","01950,5,C,N","011265,1,N,1","+0120,1","+0070,1","99999,9","02,5,+00900,1,99,9","07,5,+01950,5,99,9",,,"07,99,1,99,9,99,9,99999,9,99,9,99,9",,"10041,1,99999,9",,,,"MET058METAR ENSD 260450Z VRB03KT 9999 FEW030 BKN065 12/07 Q1004;",
"01320099999","2010-08-26T05:50:00","4","61.8333333","6.1166667","60.0","SANDANE ANDA, NO","FM-15","ENSD ","V020","140,1,N,0021,1","01800,1,C,N","011265,1,N,1","+0120,1","+0070,1","99999,9","02,5,+00900,1,99,9","07,5,+01800,1,99,9",,,"07,99,1,99,9,99,9,99999,9,99,9,99,9",,"10041,1,99999,9",,,,"MET066METAR ENSD 260550Z 14004KT 110V200 9999 FEW030 BKN060 12/07 Q1004;",
"01320099999","2010-08-26T06:50:00","4","61.8333333","6.1166667","60.0","SANDANE ANDA, NO","FM-15","ENSD ","V020","999,9,V,0010,1","01800,1,C,N","011265,1,N,1","+0120,1","+0070,1","99999,9","02,5,+01050,1,99,9","07,5,+01800,1,99,9",,,"07,99,1,99,9,99,9,99999,9,99,9,99,9",,"10051,1,99999,9",,,,"MET058METAR ENSD 260650Z VRB02KT 9999 FEW035 BKN060 12/07 Q1005;",
"01320099999","2010-08-26T07:50:00","4","61.8333333","6.1166667","60.0","SANDANE ANDA, NO","FM-15","ENSD ","V020","999,9,V,0005,1","01800,1,C,N","011265,1,N,1","+0120,1","+0080,1","99999,9","02,5,+01050,1,99,9","07,5,+01800,1,99,9",,,"07,99,1,99,9,99,9,99999,9,99,9,99,9",,"10051,1,99999,9",,,,"MET058METAR ENSD 260750Z VRB01KT 9999 FEW035 BKN060 12/08 Q1005;",
"01320099999","2010-08-26T08:50:00","4","61.8333333","6.1166667","60.0","SANDANE ANDA, NO","FM-15","ENSD ","V020","999,9,C,0000,1","01650,5,C,N","011265,1,N,1","+0130,1","+0080,1","99999,9","02,5,+00360,1,99,9","07,5,+01650,5,99,9",,,"07,99,1,99,9,99,9,99999,9,99,9,99,9",,"10051,1,99999,9",,,,"MET058METAR ENSD 260850Z 00000KT 9999 FEW012 BKN055 13/08 Q1005;",
"01320099999","2010-08-26T09:50:00","4","61.8333333","6.1166667","60.0","SANDANE ANDA, NO","FM-15","ENSD ","V020","999,9,V,0010,1","01650,5,C,N","011265,1,N,1","+0130,1","+0080,1","99999,9","02,5,+00900,1,99,9","07,5,+01650,5,99,9",,,"07,99,1,99,9,99,9,99999,9,99,9,99,9",,"10051,1,99999,9",,,,"MET058METAR ENSD 260950Z VRB02KT 9999 FEW030 BKN055 13/08 Q1005;",
"01320099999","2010-08-26T10:50:00","4","61.8333333","6.1166667","60.0","SANDANE ANDA, NO","FM-15","ENSD ","V020","999,9,V,0005,1","01650,5,C,N","011265,1,N,1","+0130,1","+0070,1","99999,9","07,5,+01650,5,99,9",,,,"07,99,1,99,9,99,9,99999,9,99,9,99,9",,"10061,1,99999,9",,,,"MET051METAR ENSD 261050Z VRB01KT 9999 BKN055 13/07 Q1006;",
"01320099999","2010-08-26T11:50:00","4","61.8333333","6.1166667","60.0","SANDANE ANDA, NO","FM-15","ENSD ","V020","210,1,N,0015,1","01350,5,C,N","011265,1,N,1","+0140,1","+0070,1","99999,9","02,5,+01350,1,99,9","04,5,+01350,1,99,9","07,5,+02400,1,99,9",,"07,99,1,99,9,99,9,99999,9,99,9,99,9",,"10061,1,99999,9",,,,"MET065METAR ENSD 261150Z 21003KT 9999 FEW045 SCT045 BKN080 14/07 Q1006;",
"01320099999","2010-08-26T12:50:00","4","61.8333333","6.1166667","60.0","SANDANE ANDA, NO","FM-15","ENSD ","V020","999,9,V,0015,1","01350,5,C,N","011265,1,N,1","+0140,1","+0060,1","99999,9","02,5,+01350,1,99,9","04,5,+01350,1,99,9","07,5,+02400,1,99,9",,"07,99,1,99,9,99,9,99999,9,99,9,99,9",,"10061,1,99999,9",,,,"MET065METAR ENSD 261250Z VRB03KT 9999 FEW045 SCT045 BKN080 14/06 Q1006;",
"01320099999","2010-08-26T13:50:00","4","61.8333333","6.1166667","60.0","SANDANE ANDA, NO","FM-15","ENSD ","V020","999,9,V,0010,1","22000,1,9,N","011265,1,N,1","+0150,1","+0070,1","99999,9","04,5,+01200,1,99,9",,,,"04,99,1,99,9,99,9,99999,9,99,9,99,9",,"10061,1,99999,9",,,,"MET051METAR ENSD 261350Z VRB02KT 9999 SCT040 15/07 Q1006;",
"01320099999","2010-08-26T14:50:00","4","61.8333333","6.1166667","60.0","SANDANE ANDA, NO","FM-15","ENSD ","V020","999,9,V,0021,1","22000,1,9,N","011265,1,N,1","+0150,1","+0070,1","99999,9","04,5,+01200,1,99,9",,,,"04,99,1,99,9,99,9,99999,9,99,9,99,9",,"10061,1,99999,9",,,,"MET051METAR ENSD 261450Z VRB04KT 9999 SCT040 15/07 Q1006;",
"01320099999","2010-08-26T15:50:00","4","61.8333333","6.1166667","60.0","SANDANE ANDA, NO","FM-15","ENSD ","V020","280,1,N,0031,1","22000,1,9,N","011265,1,N,1","+0130,1","+0070,1","99999,9","04,5,+01350,1,99,9",,,,"04,99,1,99,9,99,9,99999,9,99,9,99,9",,"10061,1,99999,9",,,,"MET059METAR ENSD 261550Z 28006KT 220V350 9999 SCT045 13/07 Q1006;",
"01320099999","2010-08-26T16:50:00","4","61.8333333","6.1166667","60.0","SANDANE ANDA, NO","FM-15","ENSD ","V020","270,1,N,0026,1","22000,1,9,N","011265,1,N,1","+0140,1","+0070,1","99999,9","04,5,+01350,1,99,9",,,,"04,99,1,99,9,99,9,99999,9,99,9,99,9",,"10061,1,99999,9",,,,"MET059METAR ENSD 261650Z 27005KT 230V310 9999 SCT045 14/07 Q1006;",
"01320099999","2010-08-26T17:50:00","4","61.8333333","6.1166667","60.0","SANDANE ANDA, NO","FM-15","ENSD ","V020","999,9,V,0015,1","22000,1,9,N","011265,1,N,1","+0130,1","+0080,1","99999,9","04,5,+01350,1,99,9",,,,"04,99,1,99,9,99,9,99999,9,99,9,99,9",,"10061,1,99999,9",,,,"MET051METAR ENSD 261750Z VRB03KT 9999 SCT045 13/08 Q1006;",
"01320099999","2010-08-26T18:50:00","4","61.8333333","6.1166667","60.0","SANDANE ANDA, NO","FM-15","ENSD ","V020","999,9,V,0015,1","01350,1,C,N","011265,1,N,1","+0130,1","+0070,1","99999,9","02,5,+00750,1,99,9","07,5,+01350,1,99,9",,,"07,99,1,99,9,99,9,99999,9,99,9,99,9",,"10061,1,99999,9",,,,"MET058METAR ENSD 261850Z VRB03KT 9999 FEW025 BKN045 13/07 Q1006;",
"01320099999","2010-08-27T03:50:00","4","61.8333333","6.1166667","60.0","SANDANE ANDA, NO","FM-15","ENSD ","V020","150,1,N,0021,1","00600,1,C,N","011265,1,N,1","+0100,1","+0070,1","99999,9","02,5,+00240,1,99,9","07,5,+00600,1,99,9",,,"07,99,1,99,9,99,9,99999,9,99,9,99,9",,"10061,1,99999,9",,,,"MET066METAR ENSD 270350Z 15004KT 080V200 9999 FEW008 BKN020 10/07 Q1006;",
"01320099999","2010-08-27T04:50:00","4","61.8333333","6.1166667","60.0","SANDANE ANDA, NO","FM-15","ENSD ","V020","999,9,V,0015,1","22000,1,9,N","011265,1,N,1","+0110,1","+0070,1","99999,9","04,5,+00300,1,99,9",,,,"04,99,1,99,9,99,9,99999,9,99,9,99,9",,"10051,1,99999,9",,,,"MET051METAR ENSD 270450Z VRB03KT 9999 SCT010 11/07 Q1005;",
"01320099999","2010-08-27T05:50:00","4","61.8333333","6.1166667","60.0","SANDANE ANDA, NO","FM-15","ENSD ","V020","999,9,V,0015,1","22000,1,9,N","011265,1,N,1","+0110,1","+0080,1","99999,9","04,5,+00300,1,99,9",,,,"04,99,1,99,9,99,9,99999,9,99,9,99,9",,"10061,1,99999,9",,,,"MET051METAR ENSD 270550Z VRB03KT 9999 SCT010 11/08 Q1006;",
"01320099999","2010-08-27T06:50:00","4","61.8333333","6.1166667","60.0","SANDANE ANDA, NO","FM-15","ENSD ","V020","999,9,V,0010,1","22000,1,9,N","011265,1,N,1","+0110,1","+0070,1","99999,9","04,5,+00300,1,99,9",,,,"04,99,1,99,9,99,9,99999,9,99,9,99,9",,"10061,1,99999,9",,,,"MET051METAR ENSD 270650Z VRB02KT 9999 SCT010 11/07 Q1006;",
"01320099999","2010-08-27T07:50:00","4","61.8333333","6.1166667","60.0","SANDANE ANDA, NO","FM-15","ENSD ","V020","999,9,V,0010,1","01800,1,C,N","011265,1,N,1","+0110,1","+0080,1","99999,9","04,5,+00300,1,99,9","07,5,+01800,1,99,9",,,"07,99,1,99,9,99,9,99999,9,99,9,99,9",,"10061,1,99999,9",,,,"MET058METAR ENSD 270750Z VRB02KT 9999 SCT010 BKN060 11/08 Q1006;",
"01320099999","2010-08-27T08:50:00","4","61.8333333","6.1166667","60.0","SANDANE ANDA, NO","FM-15","ENSD ","V020","999,9,V,0015,1","01800,1,C,N","011265,1,N,1","+0120,1","+0080,1","99999,9","04,5,+00300,1,99,9","07,5,+01800,1,99,9",,,"07,99,1,99,9,99,9,99999,9,99,9,99,9",,"10061,1,99999,9",,,,"MET058METAR ENSD 270850Z VRB03KT 9999 SCT010 BKN060 12/08 Q1006;",
"01320099999","2010-08-27T09:50:00","4","61.8333333","6.1166667","60.0","SANDANE ANDA, NO","FM-15","ENSD ","V020","260,1,N,0041,1","01800,1,C,N","011265,1,N,1","+0130,1","+0070,1","99999,9","02,5,+00300,1,99,9","07,5,+01800,1,99,9",,,"07,99,1,99,9,99,9,99999,9,99,9,99,9",,"10061,1,99999,9",,,,"MET058METAR ENSD 270950Z 26008KT 9999 FEW010 BKN060 13/07 Q1006;",
"01320099999","2010-08-27T10:50:00","4","61.8333333","6.1166667","60.0","SANDANE ANDA, NO","FM-15","ENSD ","V020","270,1,N,0041,1","01500,1,C,N","011265,1,N,1","+0130,1","+0060,1","99999,9","02,5,+00600,1,99,9","07,5,+01500,1,99,9",,,"07,99,1,99,9,99,9,99999,9,99,9,99,9",,"10061,1,99999,9","80,1",,,"MET064METAR ENSD 271050Z 27008KT 9999 -SHRA FEW020 BKN050 13/06 Q1006;",
"01320099999","2010-08-27T11:50:00","4","61.8333333","6.1166667","60.0","SANDANE ANDA, NO","FM-15","ENSD ","V020","999,9,V,0015,1","00900,1,C,N","011265,1,N,1","+0120,1","+0080,1","99999,9","02,5,+00600,1,99,9","04,5,+00900,1,99,9","07,5,+01500,1,99,9",,"07,99,1,99,9,99,9,99999,9,99,9,99,9",,"10061,1,99999,9","80,1",,,"MET071METAR ENSD 271150Z VRB03KT 9999 -SHRA FEW020 SCT030 BKN050 12/08 Q1006;",
"01320099999","2010-08-27T12:50:00","4","61.8333333","6.1166667","60.0","SANDANE ANDA, NO","FM-15","ENSD ","V020","290,1,N,0015,1","00900,1,C,N","011265,1,N,1","+0120,1","+0070,1","99999,9","02,5,+00600,1,99,9","04,5,+00900,1,99,9","07,5,+01500,1,99,9",,"07,99,1,99,9,99,9,99999,9,99,9,99,9",,"10061,1,99999,9",,,,"MET065METAR ENSD 271250Z 29003KT 9999 FEW020 SCT030 BKN050 12/07 Q1006;",
"01320099999","2010-08-27T13:50:00","4","61.8333333","6.1166667","60.0","SANDANE ANDA, NO","FM-15","ENSD ","V020","230,1,N,0015,1","00900,1,C,N","011265,1,N,1","+0120,1","+0000,1","99999,9","02,5,+00150,1,99,9","04,5,+00900,1,99,9","07,5,+01500,1,99,9",,"07,99,1,99,9,99,9,99999,9,99,9,99,9",,"10061,1,99999,9",,,,"MET065METAR ENSD 271350Z 23003KT 9999 FEW005 SCT030 BKN050 12/00 Q1006;",
"01320099999","2010-08-27T14:50:00","4","61.8333333","6.1166667","60.0","SANDANE ANDA, NO","FM-15","ENSD ","V020","250,1,N,0015,1","01050,1,C,N","011265,1,N,1","+0120,1","+0070,1","99999,9","02,5,+00600,1,99,9","04,5,+01050,1,99,9","07,5,+01800,1,99,9",,"07,99,1,99,9,99,9,99999,9,99,9,99,9",,"10061,1,99999,9",,,,"MET065METAR ENSD 271450Z 25003KT 9999 FEW020 SCT035 BKN060 12/07 Q1006;",
"01320099999","2010-08-27T15:50:00","4","61.8333333","6.1166667","60.0","SANDANE ANDA, NO","FM-15","ENSD ","V020","999,9,V,0010,1","01800,1,C,N","011265,1,N,1","+0110,1","+0080,1","99999,9","04,5,+00900,1,99,9","07,5,+01800,1,99,9",,,"07,99,1,99,9,99,9,99999,9,99,9,99,9",,"10061,1,99999,9",,,,"MET058METAR ENSD 271550Z VRB02KT 9999 SCT030 BKN060 11/08 Q1006;",
"01320099999","2010-08-27T17:50:00","4","61.8333333","6.1166667","60.0","SANDANE ANDA, NO","FM-15","ENSD ","V020","999,9,V,0010,1","01500,1,C,N","011265,1,N,1","+0110,1","+0080,1","99999,9","04,5,+00900,1,99,9","07,5,+01500,1,99,9",,,"07,99,1,99,9,99,9,99999,9,99,9,99,9",,"10061,1,99999,9","80,1",,,"MET064METAR ENSD 271750Z VRB02KT 9999 -SHRA SCT030 BKN050 11/08 Q1006;",
"01320099999","2010-08-27T18:50:00","4","61.8333333","6.1166667","60.0","SANDANE ANDA, NO","FM-15","ENSD ","V020","999,9,V,0005,1","00900,1,C,N","011265,1,N,1","+0110,1","+0080,1","99999,9","02,5,+00600,1,99,9","04,5,+00900,1,99,9","07,5,+01500,1,99,9",,"07,99,1,99,9,99,9,99999,9,99,9,99,9",,"10061,1,99999,9","80,1",,,"MET071METAR ENSD 271850Z VRB01KT 9999 -SHRA FEW020 SCT030 BKN050 11/08 Q1006;",
"01320099999","2010-08-28T05:20:00","4","61.8333333","6.1166667","60.0","SANDANE ANDA, NO","FM-15","ENSD ","V020","999,9,V,0015,1","01200,1,C,N","011265,1,N,1","+0090,1","+0060,1","99999,9","04,5,+00450,1,99,9","07,5,+01200,1,99,9",,,"07,99,1,99,9,99,9,99999,9,99,9,99,9",,"10061,1,99999,9",,,,"MET058METAR ENSD 280520Z VRB03KT 9999 SCT015 BKN040 09/06 Q1006;",
"01320099999","2010-08-28T05:50:00","4","61.8333333","6.1166667","60.0","SANDANE ANDA, NO","FM-15","ENSD ","V020","160,1,N,0021,1","01200,1,C,N","011265,1,N,1","+0090,1","+0070,1","99999,9","04,5,+00450,1,99,9","07,5,+01200,1,99,9",,,"07,99,1,99,9,99,9,99999,9,99,9,99,9",,"10061,1,99999,9",,,,"MET066METAR ENSD 280550Z 16004KT 110V240 9999 SCT015 BKN040 09/07 Q1006;",
"01320099999","2010-08-28T06:50:00","4","61.8333333","6.1166667","60.0","SANDANE ANDA, NO","FM-15","ENSD ","V020","999,9,V,0010,1","01650,5,C,N","011265,1,N,1","+0100,1","+0070,1","99999,9","02,5,+00450,1,99,9","07,5,+01650,5,99,9",,,"07,99,1,99,9,99,9,99999,9,99,9,99,9",,"10061,1,99999,9",,,,"MET058METAR ENSD 280650Z VRB02KT 9999 FEW015 BKN055 10/07 Q1006;",
"01320099999","2010-08-28T07:50:00","4","61.8333333","6.1166667","60.0","SANDANE ANDA, NO","FM-15","ENSD ","V020","999,9,V,0015,1","01800,1,C,N","011265,1,N,1","+0100,1","+0070,1","99999,9","02,5,+00300,1,99,9","07,5,+01800,1,99,9",,,"07,99,1,99,9,99,9,99999,9,99,9,99,9",,"10061,1,99999,9",,,,"MET058METAR ENSD 280750Z VRB03KT 9999 FEW010 BKN060 10/07 Q1006;",
"01320099999","2010-08-28T08:50:00","4","61.8333333","6.1166667","60.0","SANDANE ANDA, NO","FM-15","ENSD ","V020","999,9,V,0010,1","01800,1,C,N","011265,1,N,1","+0110,1","+0070,1","99999,9","02,5,+00300,1,99,9","07,5,+01800,1,99,9",,,"07,99,1,99,9,99,9,99999,9,99,9,99,9",,"10061,1,99999,9",,,,"MET058METAR ENSD 280850Z VRB02KT 9999 FEW010 BKN060 11/07 Q1006;",
"01320099999","2010-08-28T09:50:00","4","61.8333333","6.1166667","60.0","SANDANE ANDA, NO","FM-15","ENSD ","V020","250,1,N,0015,1","01800,1,C,N","011265,1,N,1","+0110,1","+0070,1","99999,9","02,5,+00300,1,99,9","07,5,+01800,1,99,9",,,"07,99,1,99,9,99,9,99999,9,99,9,99,9",,"10061,1,99999,9",,,,"MET058METAR ENSD 280950Z 25003KT 9999 FEW010 BKN060 11/07 Q1006;",
"01320099999","2010-08-28T10:50:00","4","61.8333333","6.1166667","60.0","SANDANE ANDA, NO","FM-15","ENSD ","V020","240,1,N,0015,1","01800,1,C,N","011265,1,N,1","+0120,1","+0070,1","99999,9","02,5,+00600,1,99,9","07,5,+01800,1,99,9",,,"07,99,1,99,9,99,9,99999,9,99,9,99,9",,"10061,1,99999,9",,,,"MET058METAR ENSD 281050Z 24003KT 9999 FEW020 BKN060 12/07 Q1006;",
"01320099999","2010-08-28T11:50:00","4","61.8333333","6.1166667","60.0","SANDANE ANDA, NO","FM-15","ENSD ","V020","270,1,N,0051,1","99999,9,C,N","011265,1,N,1","+0130,1","+0050,1","99999,9","02,5,+00900,1,99,9","04,5,+01200,1,99,9",,,"04,99,1,99,9,99,9,99999,9,99,9,99,9",,"10061,1,99999,9",,,,"MET058METAR ENSD 281150Z 27010KT 9999 FEW030 SCT040 13/05 Q1006;","P01 012003SCOCIG"
"01320099999","2010-08-28T12:50:00","4","61.8333333","6.1166667","60.0","SANDANE ANDA, NO","FM-15","ENSD ","V020","270,1,N,0036,1","99999,9,C,N","011265,1,N,1","+0130,1","+0050,1","99999,9","02,5,+00900,1,99,9","04,5,+01350,1,99,9",,,"04,99,1,99,9,99,9,99999,9,99,9,99,9",,"10061,1,99999,9",,,,"MET066METAR ENSD 281250Z 27007KT 220V350 9999 FEW030 SCT045 13/05 Q1006;","P01 013503SCOCIG"
"01320099999","2010-08-29T08:50:00","4","61.8333333","6.1166667","60.0","SANDANE ANDA, NO","FM-15","ENSD ","V020","250,1,N,0021,1","01200,1,C,N","011265,1,N,1","+0110,1","+0070,1","99999,9","02,5,+00600,1,99,9","04,5,+01200,1,99,9","07,5,+01800,1,99,9",,"07,99,1,99,9,99,9,99999,9,99,9,99,9",,"10051,1,99999,9",,,,"MET065METAR ENSD 290850Z 25004KT 9999 FEW020 SCT040 BKN060 11/07 Q1005;",
"01320099999","2010-08-29T09:50:00","4","61.8333333","6.1166667","60.0","SANDANE ANDA, NO","FM-15","ENSD ","V020","020,1,N,0015,1","01200,1,C,N","011265,1,N,1","+0130,1","+0070,1","99999,9","02,5,+00600,1,99,9","04,5,+01200,1,99,9","07,5,+01800,1,99,9",,"07,99,1,99,9,99,9,99999,9,99,9,99,9",,"10061,1,99999,9",,,,"MET065METAR ENSD 290950Z 02003KT 9999 FEW020 SCT040 BKN060 13/07 Q1006;",
"01320099999","2010-08-29T10:50:00","4","61.8333333","6.1166667","60.0","SANDANE ANDA, NO","FM-15","ENSD ","V020","030,1,N,0015,1","99999,9,C,N","011265,1,N,1","+0130,1","+0060,1","99999,9","02,5,+00600,1,99,9","04,5,+01200,1,99,9",,,"04,99,1,99,9,99,9,99999,9,99,9,99,9",,"10061,1,99999,9",,,,"MET058METAR ENSD 291050Z 03003KT 9999 FEW020 SCT040 13/06 Q1006;","P01 012003SCOCIG"
"01320099999","2010-08-29T11:50:00","4","61.8333333","6.1166667","60.0","SANDANE ANDA, NO","FM-15","ENSD ","V020","040,1,N,0015,1","99999,9,C,N","011265,1,N,1","+0130,1","+0060,1","99999,9","02,5,+00600,1,99,9","04,5,+01200,1,99,9",,,"04,99,1,99,9,99,9,99999,9,99,9,99,9",,"10071,1,99999,9",,,,"MET058METAR ENSD 291150Z 04003KT 9999 FEW020 SCT040 13/06 Q1007;","P01 012003SCOCIG"
"01320099999","2010-08-29T13:50:00","4","61.8333333","6.1166667","60.0","SANDANE ANDA, NO","FM-15","ENSD ","V020","999,9,V,0010,1","22000,1,9,N","011265,1,N,1","+0150,1","+0050,1","99999,9","04,5,+01200,1,99,9",,,,"04,99,1,99,9,99,9,99999,9,99,9,99,9",,"10081,1,99999,9",,,,"MET051METAR ENSD 291350Z VRB02KT 9999 SCT040 15/05 Q1008;",
"01320099999","2010-08-29T16:50:00","4","61.8333333","6.1166667","60.0","SANDANE ANDA, NO","FM-15","ENSD ","V020","999,9,V,0010,1","22000,1,9,N","011265,1,N,1","+0160,1","+0030,1","99999,9","04,5,+01200,1,99,9",,,,"04,99,1,99,9,99,9,99999,9,99,9,99,9",,"10102,1,99999,9",,,,"MET051METAR ENSD 291650Z VRB02KT 9999 SCT040 16/03 Q1010;",
"01320099999","2010-08-29T17:50:00","4","61.8333333","6.1166667","60.0","SANDANE ANDA, NO","FM-15","ENSD ","V020","999,9,V,0005,1","22000,1,9,N","011265,1,N,1","+0140,1","+0060,1","99999,9","04,5,+01200,1,99,9",,,,"04,99,1,99,9,99,9,99999,9,99,9,99,9",,"10102,1,99999,9",,,,"MET051METAR ENSD 291750Z VRB01KT 9999 SCT040 14/06 Q1010;",
"01320099999","2010-08-29T18:50:00","4","61.8333333","6.1166667","60.0","SANDANE ANDA, NO","FM-15","ENSD ","V020","999,9,V,0005,1","22000,1,9,N","011265,1,N,1","+0130,1","+0060,1","99999,9","02,5,+01200,1,99,9",,,,"02,99,1,99,9,99,9,99999,9,99,9,99,9",,"10108,1,99999,9",,,,"MET051METAR ENSD 291850Z VRB01KT 9999 FEW040 13/06 Q1011;",
"01320099999","2010-08-29T19:50:00","4","61.8333333","6.1166667","60.0","SANDANE ANDA, NO","FM-15","ENSD ","V020","999,9,V,0005,1","22000,1,9,N","011265,1,N,1","+0110,1","+0060,1","99999,9","02,5,+01200,1,99,9",,,,"02,99,1,99,9,99,9,99999,9,99,9,99,9",,"10119,1,99999,9",,,,"MET051METAR ENSD 291950Z VRB01KT 9999 FEW040 11/06 Q1012;",
"01320099999","2010-08-29T20:50:00","4","61.8333333","6.1166667","60.0","SANDANE ANDA, NO","FM-15","ENSD ","V020","999,9,V,0005,1","22000,1,9,N","011265,1,N,1","+0100,1","+0050,1","99999,9","02,5,+01200,1,99,9",,,,"02,99,1,99,9,99,9,99999,9,99,9,99,9",,"10129,1,99999,9",,,,"MET051METAR ENSD 292050Z VRB01KT 9999 FEW040 10/05 Q1013;",
"01320099999","2010-08-29T21:50:00","4","61.8333333","6.1166667","60.0","SANDANE ANDA, NO","FM-15","ENSD ","V020","999,9,V,0010,1","22000,1,9,N","011265,1,N,1","+0090,1","+0050,1","99999,9","02,5,+01200,1,99,9",,,,"02,99,1,99,9,99,9,99999,9,99,9,99,9",,"10139,1,99999,9",,,,"MET051METAR ENSD 292150Z VRB02KT 9999 FEW040 09/05 Q1014;",
"01320099999","2010-08-30T03:50:00","4","61.8333333","6.1166667","60.0","SANDANE ANDA, NO","FM-15","ENSD ","V020","160,1,N,0021,1","22000,1,9,N","011265,1,N,1","+0070,1","+0050,1","99999,9","02,5,+01200,1,99,9",,,,"02,99,1,99,9,99,9,99999,9,99,9,99,9",,"10169,1,99999,9",,,,"MET051METAR ENSD 300350Z 16004KT 9999 FEW040 07/05 Q1017;",
"01320099999","2010-08-30T04:50:00","4","61.8333333","6.1166667","60.0","SANDANE ANDA, NO","FM-15","ENSD ","V020","160,1,N,0021,1","22000,1,9,N","011265,1,N,1","+0070,1","+0040,1","99999,9","02,5,+00300,1,99,9",,,,"02,99,1,99,9,99,9,99999,9,99,9,99,9",,"10180,1,99999,9",,,,"MET051METAR ENSD 300450Z 16004KT 9999 FEW010 07/04 Q1018;",
"01320099999","2010-08-30T05:50:00","4","61.8333333","6.1166667","60.0","SANDANE ANDA, NO","FM-15","ENSD ","V020","160,1,N,0026,1","22000,1,9,N","011265,1,N,1","+0080,1","+0050,1","99999,9","02,5,+00210,1,99,9",,,,"02,99,1,99,9,99,9,99999,9,99,9,99,9",,"10180,1,99999,9",,,,"MET051METAR ENSD 300550Z 16005KT 9999 FEW007 08/05 Q1018;",
"01320099999","2010-08-30T06:50:00","4","61.8333333","6.1166667","60.0","SANDANE ANDA, NO","FM-15","ENSD ","V020","999,9,V,0010,1","22000,1,9,N","011265,1,N,1","+0090,1","+0050,1","99999,9","02,5,+00150,1,99,9",,,,"02,99,1,99,9,99,9,99999,9,99,9,99,9",,"10180,1,99999,9",,,,"MET051METAR ENSD 300650Z VRB02KT 9999 FEW005 09/05 Q1018;",
"01320099999","2010-08-30T07:50:00","4","61.8333333","6.1166667","60.0","SANDANE ANDA, NO","FM-15","ENSD ","V020","999,9,V,0005,1","22000,1,9,N","011265,1,N,1","+0100,1","+0060,1","99999,9","02,5,+01200,1,99,9",,,,"02,99,1,99,9,99,9,99999,9,99,9,99,9",,"10190,1,99999,9",,,,"MET051METAR ENSD 300750Z VRB01KT 9999 FEW040 10/06 Q1019;",
"01320099999","2010-08-30T08:50:00","4","61.8333333","6.1166667","60.0","SANDANE ANDA, NO","FM-15","ENSD ","V020","080,1,N,0015,1","01800,1,C,N","011265,1,N,1","+0100,1","+0060,1","99999,9","02,5,+01200,1,99,9","07,5,+01800,1,99,9",,,"07,99,1,99,9,99,9,99999,9,99,9,99,9",,"10190,1,99999,9",,,,"MET058METAR ENSD 300850Z 08003KT 9999 FEW040 BKN060 10/06 Q1019;",
"01320099999","2010-08-30T09:50:00","4","61.8333333","6.1166667","60.0","SANDANE ANDA, NO","FM-15","ENSD ","V020","080,1,N,0015,1","99999,9,C,N","011265,1,N,1","+0120,1","+0070,1","99999,9","02,5,+01200,1,99,9","04,5,+01500,1,99,9",,,"04,99,1,99,9,99,9,99999,9,99,9,99,9",,"10190,1,99999,9",,,,"MET058METAR ENSD 300950Z 08003KT 9999 FEW040 SCT050 12/07 Q1019;","P01 015003SCOCIG"
"01320099999","2010-08-30T10:50:00","4","61.8333333","6.1166667","60.0","SANDANE ANDA, NO","FM-15","ENSD ","V020","999,9,V,0010,1","99999,9,C,N","011265,1,N,1","+0120,1","+0060,1","99999,9","02,5,+01200,1,99,9","04,5,+01500,1,99,9",,,"04,99,1,99,9,99,9,99999,9,99,9,99,9",,"10180,1,99999,9",,,,"MET058METAR ENSD 301050Z VRB02KT 9999 FEW040 SCT050 12/06 Q1018;","P01 015003SCOCIG"
"01320099999","2010-08-30T11:50:00","4","61.8333333","6.1166667","60.0","SANDANE ANDA, NO","FM-15","ENSD ","V020","999,9,V,0010,1","99999,9,C,N","011265,1,N,1","+0130,1","+0070,1","99999,9","02,5,+01200,1,99,9","04,5,+01500,1,99,9",,,"04,99,1,99,9,99,9,99999,9,99,9,99,9",,"10180,1,99999,9",,,,"MET058METAR ENSD 301150Z VRB02KT 9999 FEW040 SCT050 13/07 Q1018;","P01 015003SCOCIG"
"01320099999","2010-08-30T12:50:00","4","61.8333333","6.1166667","60.0","SANDANE ANDA, NO","FM-15","ENSD ","V020","999,9,V,0015,1","99999,9,C,N","011265,1,N,1","+0130,1","+0070,1","99999,9","02,5,+01050,1,99,9","04,5,+01800,1,99,9",,,"04,99,1,99,9,99,9,99999,9,99,9,99,9",,"10180,1,99999,9",,,,"MET058METAR ENSD 301250Z VRB03KT 9999 FEW035 SCT060 13/07 Q1018;","P01 018003SCOCIG"
"01320099999","2010-08-30T13:50:00","4","61.8333333","6.1166667","60.0","SANDANE ANDA, NO","FM-15","ENSD ","V020","270,1,N,0051,1","01200,1,C,N","011265,1,N,1","+0140,1","+0070,1","99999,9","02,5,+00900,1,99,9","07,5,+01200,1,99,9",,,"07,99,1,99,9,99,9,99999,9,99,9,99,9",,"10180,1,99999,9",,,,"MET058METAR ENSD 301350Z 27010KT 9999 FEW030 BKN040 14/07 Q1018;",
"01320099999","2010-08-30T14:50:00","4","61.8333333","6.1166667","60.0","SANDANE ANDA, NO","FM-15","ENSD ","V020","270,1,N,0046,1","01200,1,C,N","011265,1,N,1","+0120,1","+0070,1","99999,9","02,5,+00900,1,99,9","07,5,+01200,1,99,9",,,"07,99,1,99,9,99,9,99999,9,99,9,99,9",,"10180,1,99999,9",,,,"MET058METAR ENSD 301450Z 27009KT 9999 FEW030 BKN040 12/07 Q1018;",
"01320099999","2010-08-30T15:50:00","4","61.8333333","6.1166667","60.0","SANDANE ANDA, NO","FM-15","ENSD ","V020","999,9,V,0026,1","01200,1,C,N","011265,1,N,1","+0130,1","+0060,1","99999,9","02,5,+00900,1,99,9","07,5,+01200,1,99,9",,,"07,99,1,99,9,99,9,99999,9,99,9,99,9",,"10180,1,99999,9","80,1",,,"MET064METAR ENSD 301550Z VRB05KT 9999 -SHRA FEW030 BKN040 13/06 Q1018;",
"01320099999","2010-08-30T16:50:00","4","61.8333333","6.1166667","60.0","SANDANE ANDA, NO","FM-15","ENSD ","V020","280,1,N,0036,1","01350,1,C,N","011265,1,N,1","+0130,1","+0070,1","99999,9","02,5,+00900,1,99,9","07,5,+01350,1,99,9",,,"07,99,1,99,9,99,9,99999,9,99,9,99,9",,"10180,1,99999,9",,,,"MET066METAR ENSD 301650Z 28007KT 230V350 9999 FEW030 BKN045 13/07 Q1018;",
"01320099999","2010-08-30T17:50:00","4","61.8333333","6.1166667","60.0","SANDANE ANDA, NO","FM-15","ENSD ","V020","270,1,N,0041,1","01350,1,C,N","011265,1,N,1","+0120,1","+0060,1","99999,9","02,5,+00900,1,99,9","07,5,+01350,1,99,9",,,"07,99,1,99,9,99,9,99999,9,99,9,99,9",,"10180,1,99999,9","16,1",,,"MET071METAR ENSD 301750Z 27008KT 220V330 9999 VCSH FEW030 BKN045 12/06 Q1018;",
"01320099999","2010-08-30T18:50:00","4","61.8333333","6.1166667","60.0","SANDANE ANDA, NO","FM-15","ENSD ","V020","999,9,V,0015,1","01050,1,C,N","011265,1,N,1","+0120,1","+0060,1","99999,9","07,5,+01050,1,99,9",,,,"07,99,1,99,9,99,9,99999,9,99,9,99,9",,"10180,1,99999,9",,,,"MET051METAR ENSD 301850Z VRB03KT 9999 BKN035 12/06 Q1018;",
"01320099999","2010-08-31T04:20:00","4","61.8333333","6.1166667","60.0","SANDANE ANDA, NO","FM-15","ENSD ","V020","999,9,V,0005,1","01050,1,C,N","011265,1,N,1","+0090,1","+0070,1","99999,9","02,5,+00150,1,99,9","07,5,+01050,1,99,9",,,"07,99,1,99,9,99,9,99999,9,99,9,99,9",,"10159,1,99999,9","81,1",,,"MET063METAR ENSD 310420Z VRB01KT 9999 SHRA FEW005 BKN035 09/07 Q1016;",
"01320099999","2010-08-31T05:50:00","4","61.8333333","6.1166667","60.0","SANDANE ANDA, NO","FM-15","ENSD ","V020","999,9,V,0010,1","01050,1,C,N","011265,1,N,1","+0090,1","+0070,1","99999,9","02,5,+00150,1,99,9","07,5,+01050,1,99,9",,,"07,99,1,99,9,99,9,99999,9,99,9,99,9",,"10169,1,99999,9","81,1",,,"MET063METAR ENSD 310550Z VRB02KT 9999 SHRA FEW005 BKN035 09/07 Q1017;",
"01320099999","2010-08-31T06:50:00","4","61.8333333","6.1166667","60.0","SANDANE ANDA, NO","FM-15","ENSD ","V020","999,9,V,0010,1","01050,1,C,N","011265,1,N,1","+0090,1","+0070,1","99999,9","02,5,+00150,1,99,9","07,5,+01050,1,99,9",,,"07,99,1,99,9,99,9,99999,9,99,9,99,9",,"10169,1,99999,9",,,,"MET058METAR ENSD 310650Z VRB02KT 9999 FEW005 BKN035 09/07 Q1017;",
"01320099999","2010-08-31T07:50:00","4","61.8333333","6.1166667","60.0","SANDANE ANDA, NO","FM-15","ENSD ","V020","999,9,V,0005,1","01050,1,C,N","011265,1,N,1","+0100,1","+0070,1","99999,9","02,5,+00150,1,99,9","04,5,+01050,1,99,9","07,5,+01800,1,99,9",,"07,99,1,99,9,99,9,99999,9,99,9,99,9",,"10169,1,99999,9",,,,"MET065METAR ENSD 310750Z VRB01KT 9999 FEW005 SCT035 BKN060 10/07 Q1017;",
"01320099999","2010-08-31T08:50:00","4","61.8333333","6.1166667","60.0","SANDANE ANDA, NO","FM-15","ENSD ","V020","999,9,V,0010,1","00900,1,C,N","011265,1,N,1","+0100,1","+0070,1","99999,9","02,5,+00150,1,99,9","04,5,+00900,1,99,9","07,5,+01350,1,99,9",,"07,99,1,99,9,99,9,99999,9,99,9,99,9",,"10169,1,99999,9",,,,"MET065METAR ENSD 310850Z VRB02KT 9999 FEW005 SCT030 BKN045 10/07 Q1017;",
"01320099999","2010-08-31T09:50:00","4","61.8333333","6.1166667","60.0","SANDANE ANDA, NO","FM-15","ENSD ","V020","999,9,V,0010,1","00900,1,C,N","011265,1,N,1","+0110,1","+0070,1","99999,9","02,5,+00150,1,99,9","04,5,+00900,1,99,9","07,5,+01350,1,99,9",,"07,99,1,99,9,99,9,99999,9,99,9,99,9",,"10169,1,99999,9",,,,"MET065METAR ENSD 310950Z VRB02KT 9999 FEW005 SCT030 BKN045 11/07 Q1017;",
"01320099999","2010-08-31T10:50:00","4","61.8333333","6.1166667","60.0","SANDANE ANDA, NO","FM-15","ENSD ","V020","999,9,V,0005,1","00900,1,C,N","011265,1,N,1","+0110,1","+0060,1","99999,9","02,5,+00150,1,99,9","04,5,+00900,1,99,9","07,5,+01350,1,99,9",,"07,99,1,99,9,99,9,99999,9,99,9,99,9",,"10169,1,99999,9",,,,"MET065METAR ENSD 311050Z VRB01KT 9999 FEW005 SCT030 BKN045 11/06 Q1017;",
"01320099999","2010-08-31T11:50:00","4","61.8333333","6.1166667","60.0","SANDANE ANDA, NO","FM-15","ENSD ","V020","060,1,N,0015,1","00900,1,C,N","011265,1,N,1","+0110,1","+0060,1","99999,9","02,5,+00150,1,99,9","04,5,+00900,1,99,9","07,5,+01050,1,99,9",,"07,99,1,99,9,99,9,99999,9,99,9,99,9",,"10169,1,99999,9",,,,"MET065METAR ENSD 311150Z 06003KT 9999 FEW005 SCT030 BKN035 11/06 Q1017;",
"01320099999","2010-08-31T12:50:00","4","61.8333333","6.1166667","60.0","SANDANE ANDA, NO","FM-15","ENSD ","V020","060,1,N,0021,1","01050,1,C,N","011265,1,N,1","+0110,1","+0070,1","99999,9","02,5,+00150,1,99,9","07,5,+01050,1,99,9",,,"07,99,1,99,9,99,9,99999,9,99,9,99,9",,"10159,1,99999,9",,,,"MET058METAR ENSD 311250Z 06004KT 9999 FEW005 BKN035 11/07 Q1016;",
"01320099999","2010-08-31T13:50:00","4","61.8333333","6.1166667","60.0","SANDANE ANDA, NO","FM-15","ENSD ","V020","040,1,N,0015,1","00750,1,C,N","011265,1,N,1","+0110,1","+0070,1","99999,9","02,5,+00150,1,99,9","04,5,+00750,1,99,9","07,5,+01050,1,99,9",,"07,99,1,99,9,99,9,99999,9,99,9,99,9",,"10159,1,99999,9","51,1",,,"MET069METAR ENSD 311350Z 04003KT 9999 -DZ FEW005 SCT025 BKN035 11/07 Q1016;",
"01320099999","2010-08-31T14:50:00","4","61.8333333","6.1166667","60.0","SANDANE ANDA, NO","FM-15","ENSD ","V020","999,9,V,0010,1","00900,1,C,N","011265,1,N,1","+0120,1","+0080,1","99999,9","02,5,+00240,1,99,9","04,5,+00900,1,99,9","07,5,+01200,1,99,9",,"07,99,1,99,9,99,9,99999,9,99,9,99,9",,"10159,1,99999,9",,,,"MET065METAR ENSD 311450Z VRB02KT 9999 FEW008 SCT030 BKN040 12/08 Q1016;",
"01320099999","2010-08-31T15:50:00","4","61.8333333","6.1166667","60.0","SANDANE ANDA, NO","FM-15","ENSD ","V020","999,9,V,0010,1","00750,1,C,N","011265,1,N,1","+0120,1","+0080,1","99999,9","02,5,+00240,1,99,9","04,5,+00750,1,99,9","07,5,+01050,1,99,9",,"07,99,1,99,9,99,9,99999,9,99,9,99,9",,"10159,1,99999,9","16,1",,,"MET070METAR ENSD 311550Z VRB02KT 9999 VCSH FEW008 SCT025 BKN035 12/08 Q1016;",
"01320099999","2010-08-31T16:50:00","4","61.8333333","6.1166667","60.0","SANDANE ANDA, NO","FM-15","ENSD ","V020","310,1,N,0021,1","00750,1,C,N","011265,1,N,1","+0120,1","+0090,1","99999,9","02,5,+00150,1,99,9","04,5,+00750,1,99,9","07,5,+00900,1,99,9",,"07,99,1,99,9,99,9,99999,9,99,9,99,9",,"10159,1,99999,9","16,1",,,"MET078METAR ENSD 311650Z 31004KT 270V360 9999 VCSH FEW005 SCT025 BKN030 12/09 Q1016;",
"01320099999","2010-08-31T17:50:00","4","61.8333333","6.1166667","60.0","SANDANE ANDA, NO","FM-15","ENSD ","V020","340,1,N,0031,1","00750,1,C,N","011265,1,N,1","+0120,1","+0090,1","99999,9","02,5,+00150,1,99,9","04,5,+00750,1,99,9","07,5,+00900,1,99,9",,"07,99,1,99,9,99,9,99999,9,99,9,99,9",,"10159,1,99999,9","80,1",,,"MET079METAR ENSD 311750Z 34006KT 280V040 9999 -SHRA FEW005 SCT025 BKN030 12/09 Q1016;",
"01320099999","2010-08-31T18:50:00","4","61.8333333","6.1166667","60.0","SANDANE ANDA, NO","FM-15","ENSD ","V020","999,9,V,0015,1","00750,1,C,N","011265,1,N,1","+0120,1","+0080,1","99999,9","02,5,+00150,1,99,9","04,5,+00750,1,99,9","07,5,+01050,1,99,9",,"07,99,1,99,9,99,9,99999,9,99,9,99,9",,"10159,1,99999,9",,,,"MET065METAR ENSD 311850Z VRB03KT 9999 FEW005 SCT025 BKN035 12/08 Q1016;",
"01320099999","2010-09-01T04:20:00","4","61.8333333","6.1166667","60.0","SANDANE ANDA, NO","FM-15","ENSD ","V020","300,1,N,0026,1","00540,1,C,N","011265,1,N,1","+0110,1","+0070,1","99999,9","02,5,+00240,1,99,9","04,5,+00540,1,99,9","07,5,+00900,1,99,9",,"07,99,1,99,9,99,9,99999,9,99,9,99,9",,"10169,1,99999,9",,,,"MET065METAR ENSD 010420Z 30005KT 9999 FEW008 SCT018 BKN030 11/07 Q1017;",
"01320099999","2010-09-01T04:50:00","4","61.8333333","6.1166667","60.0","SANDANE ANDA, NO","FM-15","ENSD ","V020","310,1,N,0031,1","00750,1,C,N","011265,1,N,1","+0110,1","+0070,1","99999,9","02,5,+00300,1,99,9","04,5,+00750,1,99,9","07,5,+00900,1,99,9",,"07,99,1,99,9,99,9,99999,9,99,9,99,9",,"10169,1,99999,9",,,,"MET065METAR ENSD 010450Z 31006KT 9999 FEW010 SCT025 BKN030 11/07 Q1017;",
"01320099999","2010-09-01T05:50:00","4","61.8333333","6.1166667","60.0","SANDANE ANDA, NO","FM-15","ENSD ","V020","320,1,N,0036,1","01050,1,C,N","011265,1,N,1","+0110,1","+0060,1","99999,9","02,5,+00360,1,99,9","07,5,+01050,1,99,9",,,"07,99,1,99,9,99,9,99999,9,99,9,99,9",,"10180,1,99999,9",,,,"MET058METAR ENSD 010550Z 32007KT 9999 FEW012 BKN035 11/06 Q1018;",
"01320099999","2010-09-01T06:50:00","4","61.8333333","6.1166667","60.0","SANDANE ANDA, NO","FM-15","ENSD ","V020","290,1,N,0046,1","01050,1,C,N","011265,1,N,1","+0110,1","+0060,1","99999,9","02,5,+00360,1,99,9","04,5,+01050,1,99,9","07,5,+02400,1,99,9",,"07,99,1,99,9,99,9,99999,9,99,9,99,9",,"10180,1,99999,9",,,,"MET065METAR ENSD 010650Z 29009KT 9999 FEW012 SCT035 BKN080 11/06 Q1018;",
"01320099999","2010-09-01T07:50:00","4","61.8333333","6.1166667","60.0","SANDANE ANDA, NO","FM-15","ENSD ","V020","290,1,N,0031,1","03000,1,C,N","011265,1,N,1","+0110,1","+0050,1","99999,9","02,5,+00750,1,99,9","07,5,+03000,1,99,9",,,"07,99,1,99,9,99,9,99999,9,99,9,99,9",,"10180,1,99999,9",,,,"MET058METAR ENSD 010750Z 29006KT 9999 FEW025 BKN100 11/05 Q1018;",
"01320099999","2010-09-01T08:50:00","4","61.8333333","6.1166667","60.0","SANDANE ANDA, NO","FM-15","ENSD ","V020","290,1,N,0031,1","03000,1,C,N","011265,1,N,1","+0120,1","+0050,1","99999,9","02,5,+00750,1,99,9","07,5,+03000,1,99,9",,,"07,99,1,99,9,99,9,99999,9,99,9,99,9",,"10190,1,99999,9",,,,"MET058METAR ENSD 010850Z 29006KT 9999 FEW025 BKN100 12/05 Q1019;",
"01320099999","2010-09-01T09:50:00","4","61.8333333","6.1166667","60.0","SANDANE ANDA, NO","FM-15","ENSD ","V020","280,1,N,0036,1","03000,1,C,N","011265,1,N,1","+0120,1","+0050,1","99999,9","02,5,+00750,1,99,9","07,5,+03000,1,99,9",,,"07,99,1,99,9,99,9,99999,9,99,9,99,9",,"10190,1,99999,9",,,,"MET058METAR ENSD 010950Z 28007KT 9999 FEW025 BKN100 12/05 Q1019;",
"01320099999","2010-09-01T10:50:00","4","61.8333333","6.1166667","60.0","SANDANE ANDA, NO","FM-15","ENSD ","V020","290,1,N,0031,1","03000,1,C,N","011265,1,N,1","+0130,1","+0040,1","99999,9","02,5,+01050,1,99,9","07,5,+03000,1,99,9",,,"07,99,1,99,9,99,9,99999,9,99,9,99,9",,"10190,1,99999,9",,,,"MET058METAR ENSD 011050Z 29006KT 9999 FEW035 BKN100 13/04 Q1019;",
"01320099999","2010-09-01T11:50:00","4","61.8333333","6.1166667","60.0","SANDANE ANDA, NO","FM-15","ENSD ","V020","270,1,N,0026,1","03000,1,C,N","011265,1,N,1","+0130,1","+0030,1","99999,9","02,5,+01050,1,99,9","07,5,+03000,1,99,9",,,"07,99,1,99,9,99,9,99999,9,99,9,99,9",,"10190,1,99999,9",,,,"MET058METAR ENSD 011150Z 27005KT 9999 FEW035 BKN100 13/03 Q1019;",
"01320099999","2010-09-01T12:50:00","4","61.8333333","6.1166667","60.0","SANDANE ANDA, NO","FM-15","ENSD ","V020","290,1,N,0046,1","99999,9,C,N","011265,1,N,1","+0140,1","+0030,1","99999,9","02,5,+01050,1,99,9","04,5,+03000,1,99,9",,,"04,99,1,99,9,99,9,99999,9,99,9,99,9",,"10190,1,99999,9",,,,"MET058METAR ENSD 011250Z 29009KT 9999 FEW035 SCT100 14/03 Q1019;","P01 030003SCOCIG"
"01320099999","2010-09-01T13:50:00","4","61.8333333","6.1166667","60.0","SANDANE ANDA, NO","FM-15","ENSD ","V020","270,1,N,0046,1","99999,9,C,N","011265,1,N,1","+0150,1","+0030,1","99999,9","02,5,+01050,1,99,9","04,5,+03000,1,99,9",,,"04,99,1,99,9,99,9,99999,9,99,9,99,9",,"10190,1,99999,9",,,,"MET058METAR ENSD 011350Z 27009KT 9999 FEW035 SCT100 15/03 Q1019;","P01 030003SCOCIG"
"01320099999","2010-09-01T14:50:00","4","61.8333333","6.1166667","60.0","SANDANE ANDA, NO","FM-15","ENSD ","V020","280,1,N,0031,1","99999,9,C,N","011265,1,N,1","+0150,1","+0040,1","99999,9","02,5,+01350,1,99,9","04,5,+02700,1,99,9",,,"04,99,1,99,9,99,9,99999,9,99,9,99,9",,"10190,1,99999,9",,,,"MET058METAR ENSD 011450Z 28006KT 9999 FEW045 SCT090 15/04 Q1019;","P01 027003SCOCIG"
"01320099999","2010-09-01T15:50:00","4","61.8333333","6.1166667","60.0","SANDANE ANDA, NO","FM-15","ENSD ","V020","270,1,N,0036,1","99999,9,C,N","011265,1,N,1","+0150,1","+0040,1","99999,9","02,5,+01350,1,99,9","04,5,+02700,1,99,9",,,"04,99,1,99,9,99,9,99999,9,99,9,99,9",,"10190,1,99999,9",,,,"MET058METAR ENSD 011550Z 27007KT 9999 FEW045 SCT090 15/04 Q1019;","P01 027003SCOCIG"
"01320099999","2010-09-01T16:50:00","4","61.8333333","6.1166667","60.0","SANDANE ANDA, NO","FM-15","ENSD ","V020","270,1,N,0021,1","99999,9,C,N","011265,1,N,1","+0140,1","+0040,1","99999,9","02,5,+01350,1,99,9","04,5,+02700,1,99,9",,,"04,99,1,99,9,99,9,99999,9,99,9,99,9",,"10190,1,99999,9",,,,"MET058METAR ENSD 011650Z 27004KT 9999 FEW045 SCT090 14/04 Q1019;","P01 027003SCOCIG"
"01320099999","2010-09-01T17:50:00","4","61.8333333","6.1166667","60.0","SANDANE ANDA, NO","FM-15","ENSD ","V020","999,9,V,0015,1","99999,9,C,N","011265,1,N,1","+0130,1","+0030,1","99999,9","02,5,+01350,1,99,9","04,5,+02700,1,99,9",,,"04,99,1,99,9,99,9,99999,9,99,9,99,9",,"10190,1,99999,9",,,,"MET058METAR ENSD 011750Z VRB03KT 9999 FEW045 SCT090 13/03 Q1019;","P01 027003SCOCIG"
"01320099999","2010-09-01T18:50:00","4","61.8333333","6.1166667","60.0","SANDANE ANDA, NO","FM-15","ENSD ","V020","999,9,V,0015,1","22000,1,9,N","011265,1,N,1","+0120,1","+0040,1","99999,9","02,5,+01350,1,99,9",,,,"02,99,1,99,9,99,9,99999,9,99,9,99,9",,"10200,1,99999,9",,,,"MET051METAR ENSD 011850Z VRB03KT 9999 FEW045 12/04 Q1020;",
"01320099999","2010-09-02T04:20:00","4","61.8333333","6.1166667","60.0","SANDANE ANDA, NO","FM-15","ENSD ","V020","140,1,N,0015,1","99999,9,9,Y","009900,1,N,1","+0060,1","+0030,1","99999,9",,,,,,,"10220,1,99999,9",,,,"MET045METAR ENSD 020420Z 14003KT CAVOK 06/03 Q1022;",
"01320099999","2010-09-02T05:50:00","4","61.8333333","6.1166667","60.0","SANDANE ANDA, NO","FM-15","ENSD ","V020","160,1,N,0015,1","99999,9,9,Y","009900,1,N,1","+0070,1","+0030,1","99999,9",,,,,,,"10220,1,99999,9",,,,"MET045METAR ENSD 020550Z 16003KT CAVOK 07/03 Q1022;",
"01320099999","2010-09-02T06:50:00","4","61.8333333","6.1166667","60.0","SANDANE ANDA, NO","FM-15","ENSD ","V020","999,9,V,0005,1","99999,9,9,Y","009900,1,N,1","+0090,1","+0040,1","99999,9",,,,,,,"10230,1,99999,9",,,,"MET045METAR ENSD 020650Z VRB01KT CAVOK 09/04 Q1023;",
"01320099999","2010-09-02T07:50:00","4","61.8333333","6.1166667","60.0","SANDANE ANDA, NO","FM-15","ENSD ","V020","999,9,V,0010,1","99999,9,9,Y","009900,1,N,1","+0090,1","+0040,1","99999,9",,,,,,,"10230,1,99999,9",,,,"MET045METAR ENSD 020750Z VRB02KT CAVOK 09/04 Q1023;",
"01320099999","2010-09-02T09:20:00","4","61.8333333","6.1166667","60.0","SANDANE ANDA, NO","FM-15","ENSD ","V020","999,9,V,0015,1","99999,9,9,Y","009900,1,N,1","+0100,1","+0040,1","99999,9",,,,,,,"10230,1,99999,9",,,,"MET045METAR ENSD 020920Z VRB03KT CAVOK 10/04 Q1023;",
"01320099999","2010-09-02T09:50:00","4","61.8333333","6.1166667","60.0","SANDANE ANDA, NO","FM-15","ENSD ","V020","999,9,V,0015,1","99999,9,9,Y","009900,1,N,1","+0100,1","+0030,1","99999,9",,,,,,,"10230,1,99999,9",,,,"MET045METAR ENSD 020950Z VRB03KT CAVOK 10/03 Q1023;",
"01320099999","2010-09-02T10:50:00","4","61.8333333","6.1166667","60.0","SANDANE ANDA, NO","FM-15","ENSD ","V020","090,1,N,0021,1","99999,9,9,Y","009900,1,N,1","+0110,1","+0030,1","99999,9",,,,,,,"10220,1,99999,9",,,,"MET045METAR ENSD 021050Z 09004KT CAVOK 11/03 Q1022;",
"01320099999","2010-09-02T11:50:00","4","61.8333333","6.1166667","60.0","SANDANE ANDA, NO","FM-15","ENSD ","V020","100,1,N,0015,1","99999,9,9,Y","009900,1,N,1","+0120,1","+0010,1","99999,9",,,,,,,"10220,1,99999,9",,,,"MET045METAR ENSD 021150Z 10003KT CAVOK 12/01 Q1022;",
"01320099999","2010-09-02T13:50:00","4","61.8333333","6.1166667","60.0","SANDANE ANDA, NO","FM-15","ENSD ","V020","999,9,V,0010,1","99999,9,9,Y","009900,1,N,1","+0140,1","+0010,1","99999,9",,,,,,,"10220,1,99999,9",,,,"MET045METAR ENSD 021350Z VRB02KT CAVOK 14/01 Q1022;",
"01320099999","2010-09-02T14:50:00","4","61.8333333","6.1166667","60.0","SANDANE ANDA, NO","FM-15","ENSD ","V020","999,9,V,0010,1","99999,9,9,Y","009900,1,N,1","+0140,1","+0030,1","99999,9",,,,,,,"10210,1,99999,9",,,,"MET045METAR ENSD 021450Z VRB02KT CAVOK 14/03 Q1021;",
"01320099999","2010-09-02T17:50:00","4","61.8333333","6.1166667","60.0","SANDANE ANDA, NO","FM-15","ENSD ","V020","280,1,N,0041,1","99999,9,9,Y","009900,1,N,1","+0140,1","+0050,1","99999,9",,,,,,,"10210,1,99999,9",,,,"MET045METAR ENSD 021750Z 28008KT CAVOK 14/05 Q1021;",
"01320099999","2010-09-02T18:50:00","4","61.8333333","6.1166667","60.0","SANDANE ANDA, NO","FM-15","ENSD ","V020","260,1,N,0041,1","99999,9,9,Y","009900,1,N,1","+0130,1","+0050,1","99999,9",,,,,,,"10220,1,99999,9",,,,"MET045METAR ENSD 021850Z 26008KT CAVOK 13/05 Q1022;",
"01320099999","2010-09-03T03:50:00","4","61.8333333","6.1166667","60.0","SANDANE ANDA, NO","FM-15","ENSD ","V020","999,9,V,0010,1","01950,5,9,N","999999,9,N,1","+0090,1","+0060,1","99999,9","02,5,+00150,5,99,9","04,5,+01950,5,99,9",,,,,"10210,1,99999,9",,,,"MET053METAR ENSD 030350Z VRB02KT FEW005 SCT065 09/06 Q1021;",
"01320099999","2010-09-03T04:50:00","4","61.8333333","6.1166667","60.0","SANDANE ANDA, NO","FM-15","ENSD ","V020","999,9,V,0010,1","22000,1,9,N","999999,9,N,1","+0080,1","+0050,1","99999,9","02,5,+00150,5,99,9",,,,,,"10220,1,99999,9",,,,"MET046METAR ENSD 030450Z VRB02KT FEW005 08/05 Q1022;",
"01320099999","2010-09-03T05:50:00","4","61.8333333","6.1166667","60.0","SANDANE ANDA, NO","FM-15","ENSD ","V020","080,1,N,0031,1","22000,1,9,N","999999,9,N,1","+0100,1","+0060,1","99999,9","02,5,+00150,5,99,9",,,,,,"10220,1,99999,9",,,,"MET046METAR ENSD 030550Z 08006KT FEW005 10/06 Q1022;",
"01320099999","2010-09-03T06:50:00","4","61.8333333","6.1166667","60.0","SANDANE ANDA, NO","FM-15","ENSD ","V020","999,9,V,0005,1","22000,1,9,N","999999,9,N,1","+0100,1","+0050,1","99999,9","02,5,+00300,5,99,9",,,,,,"10220,1,99999,9",,,,"MET046METAR ENSD 030650Z VRB01KT FEW010 10/05 Q1022;",
"01320099999","2010-09-03T07:50:00","4","61.8333333","6.1166667","60.0","SANDANE ANDA, NO","FM-15","ENSD ","V020","999,9,V,0010,1","22000,1,9,N","999999,9,N,1","+0110,1","+0060,1","99999,9","02,5,+01200,5,99,9",,,,,,"10220,1,99999,9",,,,"MET046METAR ENSD 030750Z VRB02KT FEW040 11/06 Q1022;",
"01320099999","2010-09-03T08:50:00","4","61.8333333","6.1166667","60.0","SANDANE ANDA, NO","FM-15","ENSD ","V020","999,9,V,0005,1","22000,1,9,N","999999,9,N,1","+0120,1","+0040,1","99999,9","02,5,+01200,5,99,9",,,,,,"10220,1,99999,9",,,,"MET046METAR ENSD 030850Z VRB01KT FEW040 12/04 Q1022;",
"01320099999","2010-09-03T09:50:00","4","61.8333333","6.1166667","60.0","SANDANE ANDA, NO","FM-15","ENSD ","V020","999,9,V,0010,1","22000,1,9,N","999999,9,N,1","+0140,1","+0030,1","99999,9","02,5,+01200,5,99,9",,,,,,"10220,1,99999,9",,,,"MET046METAR ENSD 030950Z VRB02KT FEW040 14/03 Q1022;",
"01320099999","2010-09-03T10:50:00","4","61.8333333","6.1166667","60.0","SANDANE ANDA, NO","FM-15","ENSD ","V020","999,9,V,0010,1","22000,1,9,N","999999,9,N,1","+0140,1","+0020,1","99999,9","02,5,+01200,5,99,9",,,,,,"10210,1,99999,9",,,,"MET046METAR ENSD 031050Z VRB02KT FEW040 14/02 Q1021;",
"01320099999","2010-09-03T11:50:00","4","61.8333333","6.1166667","60.0","SANDANE ANDA, NO","FM-15","ENSD ","V020","240,1,N,0021,1","22000,1,9,N","999999,9,N,1","+0140,1","+0040,1","99999,9","02,5,+01200,5,99,9",,,,,,"10210,1,99999,9",,,,"MET046METAR ENSD 031150Z 24004KT FEW040 14/04 Q1021;",
"01320099999","2010-09-03T12:50:00","4","61.8333333","6.1166667","60.0","SANDANE ANDA, NO","FM-15","ENSD ","V020","270,1,N,0026,1","22000,1,9,N","999999,9,N,1","+0150,1","+0040,1","99999,9","02,5,+01200,5,99,9",,,,,,"10210,1,99999,9",,,,"MET054METAR ENSD 031250Z 27005KT 200V360 FEW040 15/04 Q1021;",
"01320099999","2010-09-03T13:50:00","4","61.8333333","6.1166667","60.0","SANDANE ANDA, NO","FM-15","ENSD ","V020","260,1,N,0021,1","22000,1,9,N","999999,9,N,1","+0160,1","+0030,1","99999,9","02,5,+01350,5,99,9",,,,,,"10210,1,99999,9",,,,"MET054METAR ENSD 031350Z 26004KT 210V300 FEW045 16/03 Q1021;",
"01320099999","2010-09-03T14:50:00","4","61.8333333","6.1166667","60.0","SANDANE ANDA, NO","FM-15","ENSD ","V020","270,1,N,0021,1","22000,1,9,N","999999,9,N,1","+0170,1","+0020,1","99999,9","02,5,+01350,5,99,9",,,,,,"10210,1,99999,9",,,,"MET054METAR ENSD 031450Z 27004KT 210V300 FEW045 17/02 Q1021;",
"01320099999","2010-09-03T15:50:00","4","61.8333333","6.1166667","60.0","SANDANE ANDA, NO","FM-15","ENSD ","V020","999,9,V,0015,1","22000,1,9,N","999999,9,N,1","+0160,1","+0020,1","99999,9","02,5,+01350,5,99,9",,,,,,"10210,1,99999,9",,,,"MET046METAR ENSD 031550Z VRB03KT FEW045 16/02 Q1021;",
"01320099999","2010-09-03T16:50:00","4","61.8333333","6.1166667","60.0","SANDANE ANDA, NO","FM-15","ENSD ","V020","290,1,N,0026,1","22000,1,9,N","011265,1,N,1","+0160,1","+0040,1","99999,9","02,5,+01350,1,99,9",,,,"02,99,1,99,9,99,9,99999,9,99,9,99,9",,"10210,1,99999,9",,,,"MET051METAR ENSD 031650Z 29005KT 9999 FEW045 16/04 Q1021;",
"01320099999","2010-09-03T17:50:00","4","61.8333333","6.1166667","60.0","SANDANE ANDA, NO","FM-15","ENSD ","V020","310,1,N,0021,1","99999,9,9,Y","009900,1,N,1","+0150,1","+0040,1","99999,9",,,,,,,"10210,1,99999,9",,,,"MET053METAR ENSD 031750Z 31004KT 250V350 CAVOK 15/04 Q1021;",
"01320099999","2010-09-03T18:50:00","4","61.8333333","6.1166667","60.0","SANDANE ANDA, NO","FM-15","ENSD ","V020","330,1,N,0026,1","99999,9,9,Y","009900,1,N,1","+0140,1","+0040,1","99999,9",,,,,,,"10210,1,99999,9",,,,"MET053METAR ENSD 031850Z 33005KT 260V020 CAVOK 14/04 Q1021;",
"01320099999","2010-09-04T05:20:00","4","61.8333333","6.1166667","60.0","SANDANE ANDA, NO","FM-15","ENSD ","V020","110,1,N,0026,1","99999,9,9,Y","009900,1,N,1","+0080,1","+0030,1","99999,9",,,,,,,"10240,1,99999,9",,,,"MET045METAR ENSD 040520Z 11005KT CAVOK 08/03 Q1024;",
"01320099999","2010-09-04T05:50:00","4","61.8333333","6.1166667","60.0","SANDANE ANDA, NO","FM-15","ENSD ","V020","999,9,V,0005,1","99999,9,9,Y","009900,1,N,1","+0080,1","+0030,1","99999,9",,,,,,,"10240,1,99999,9",,,,"MET045METAR ENSD 040550Z VRB01KT CAVOK 08/03 Q1024;",
"01320099999","2010-09-04T06:50:00","4","61.8333333","6.1166667","60.0","SANDANE ANDA, NO","FM-15","ENSD ","V020","999,9,V,0005,1","99999,9,9,Y","009900,1,N,1","+0090,1","+0040,1","99999,9",,,,,,,"10240,1,99999,9",,,,"MET045METAR ENSD 040650Z VRB01KT CAVOK 09/04 Q1024;",
"01320099999","2010-09-04T07:50:00","4","61.8333333","6.1166667","60.0","SANDANE ANDA, NO","FM-15","ENSD ","V020","170,1,N,0010,1","99999,9,9,Y","009900,1,N,1","+0100,1","+0030,1","99999,9",,,,,,,"10240,1,99999,9",,,,"MET045METAR ENSD 040750Z 17002KT CAVOK 10/03 Q1024;",
"01320099999","2010-09-04T08:50:00","4","61.8333333","6.1166667","60.0","SANDANE ANDA, NO","FM-15","ENSD ","V020","999,9,V,0015,1","99999,9,9,Y","009900,1,N,1","+0100,1","+0040,1","99999,9",,,,,,,"10251,1,99999,9",,,,"MET045METAR ENSD 040850Z VRB03KT CAVOK 10/04 Q1025;",
"01320099999","2010-09-04T09:50:00","4","61.8333333","6.1166667","60.0","SANDANE ANDA, NO","FM-15","ENSD ","V020","080,1,N,0021,1","99999,9,9,Y","009900,1,N,1","+0110,1","+0040,1","99999,9",,,,,,,"10251,1,99999,9",,,,"MET045METAR ENSD 040950Z 08004KT CAVOK 11/04 Q1025;",
"01320099999","2010-09-04T10:50:00","4","61.8333333","6.1166667","60.0","SANDANE ANDA, NO","FM-15","ENSD ","V020","999,9,V,0015,1","99999,9,9,Y","009900,1,N,1","+0120,1","+0040,1","99999,9",,,,,,,"10251,1,99999,9",,,,"MET045METAR ENSD 041050Z VRB03KT CAVOK 12/04 Q1025;",
"01320099999","2010-09-04T11:50:00","4","61.8333333","6.1166667","60.0","SANDANE ANDA, NO","FM-15","ENSD ","V020","999,9,V,0010,1","99999,9,9,Y","009900,1,N,1","+0130,1","+0040,1","99999,9",,,,,,,"10251,1,99999,9",,,,"MET045METAR ENSD 041150Z VRB02KT CAVOK 13/04 Q1025;",
"01320099999","2010-09-04T12:50:00","4","61.8333333","6.1166667","60.0","SANDANE ANDA, NO","FM-15","ENSD ","V020","999,9,V,0010,1","99999,9,9,Y","009900,1,N,1","+0150,1","+0040,1","99999,9",,,,,,,"10251,1,99999,9",,,,"MET045METAR ENSD 041250Z VRB02KT CAVOK 15/04 Q1025;",
"01320099999","2010-09-04T13:50:00","4","61.8333333","6.1166667","60.0","SANDANE ANDA, NO","FM-15","ENSD ","V020","999,9,V,0015,1","99999,9,9,Y","009900,1,N,1","+0150,1","+0040,1","99999,9",,,,,,,"10240,1,99999,9",,,,"MET045METAR ENSD 041350Z VRB03KT CAVOK 15/04 Q1024;",
"01320099999","2010-09-05T08:50:00","4","61.8333333","6.1166667","60.0","SANDANE ANDA, NO","FM-15","ENSD ","V020","999,9,V,0010,1","22000,1,9,N","011265,1,N,1","+0120,1","+0060,1","99999,9","02,5,+01200,1,99,9",,,,"02,99,1,99,9,99,9,99999,9,99,9,99,9",,"10281,1,99999,9",,,,"MET051METAR ENSD 050850Z VRB02KT 9999 FEW040 12/06 Q1028;",
"01320099999","2010-09-05T09:50:00","4","61.8333333","6.1166667","60.0","SANDANE ANDA, NO","FM-15","ENSD ","V020","999,9,V,0010,1","22000,1,9,N","011265,1,N,1","+0140,1","+0060,1","99999,9","02,5,+01200,1,99,9",,,,"02,99,1,99,9,99,9,99999,9,99,9,99,9",,"10281,1,99999,9",,,,"MET051METAR ENSD 050950Z VRB02KT 9999 FEW040 14/06 Q1028;",
"01320099999","2010-09-05T10:50:00","4","61.8333333","6.1166667","60.0","SANDANE ANDA, NO","FM-15","ENSD ","V020","060,1,N,0021,1","22000,1,9,N","011265,1,N,1","+0130,1","+0060,1","99999,9","02,5,+01200,1,99,9",,,,"02,99,1,99,9,99,9,99999,9,99,9,99,9",,"10281,1,99999,9",,,,"MET059METAR ENSD 051050Z 06004KT 010V110 9999 FEW040 13/06 Q1028;",
"01320099999","2010-09-05T13:50:00","4","61.8333333","6.1166667","60.0","SANDANE ANDA, NO","FM-15","ENSD ","V020","210,1,N,0021,1","22000,1,9,N","011265,1,N,1","+0160,1","+0070,1","99999,9","02,5,+01500,1,99,9",,,,"02,99,1,99,9,99,9,99999,9,99,9,99,9",,"10271,1,99999,9",,,,"MET059METAR ENSD 051350Z 21004KT 150V260 9999 FEW050 16/07 Q1027;",
"01320099999","2010-09-05T15:20:00","4","61.8333333","6.1166667","60.0","SANDANE ANDA, NO","FM-15","ENSD ","V020","999,9,V,0010,1","99999,9,9,Y","009900,1,N,1","+0160,1","+0070,1","99999,9",,,,,,,"10271,1,99999,9",,,,"MET045METAR ENSD 051520Z VRB02KT CAVOK 16/07 Q1027;",
"01320099999","2010-09-05T15:50:00","4","61.8333333","6.1166667","60.0","SANDANE ANDA, NO","FM-15","ENSD ","V020","060,1,N,0026,1","99999,9,9,Y","009900,1,N,1","+0160,1","+0070,1","99999,9",,,,,,,"10271,1,99999,9",,,,"MET045METAR ENSD 051550Z 06005KT CAVOK 16/07 Q1027;",
"01320099999","2010-09-05T16:50:00","4","61.8333333","6.1166667","60.0","SANDANE ANDA, NO","FM-15","ENSD ","V020","070,1,N,0031,1","99999,9,9,Y","009900,1,N,1","+0160,1","+0080,1","99999,9",,,,,,,"10271,1,99999,9",,,,"MET045METAR ENSD 051650Z 07006KT CAVOK 16/08 Q1027;",
"01320099999","2010-09-05T17:50:00","4","61.8333333","6.1166667","60.0","SANDANE ANDA, NO","FM-15","ENSD ","V020","330,1,N,0026,1","99999,9,9,Y","009900,1,N,1","+0160,1","+0090,1","99999,9",,,,,,,"10271,1,99999,9",,,,"MET053METAR ENSD 051750Z 33005KT 280V050 CAVOK 16/09 Q1027;",
"01320099999","2010-09-05T18:50:00","4","61.8333333","6.1166667","60.0","SANDANE ANDA, NO","FM-15","ENSD ","V020","999,9,V,0010,1","99999,9,9,Y","009900,1,N,1","+0150,1","+0090,1","99999,9",,,,,,,"10271,1,99999,9",,,,"MET045METAR ENSD 051850Z VRB02KT CAVOK 15/09 Q1027;",
"01320099999","2010-09-06T04:20:00","4","61.8333333","6.1166667","60.0","SANDANE ANDA, NO","FM-15","ENSD ","V020","999,9,V,0005,1","22000,1,9,N","011265,1,N,1","+0090,1","+0070,1","99999,9","02,5,+00090,1,99,9",,,,"02,99,1,99,9,99,9,99999,9,99,9,99,9",,"10271,1,99999,9",,,,"MET051METAR ENSD 060420Z VRB01KT 9999 FEW003 09/07 Q1027;",
"01320099999","2010-09-06T05:50:00","4","61.8333333","6.1166667","60.0","SANDANE ANDA, NO","FM-15","ENSD ","V020","999,9,C,0000,1","22000,1,9,N","011265,1,N,1","+0100,1","+0070,1","99999,9","02,5,+00090,1,99,9",,,,"02,99,1,99,9,99,9,99999,9,99,9,99,9",,"10271,1,99999,9",,,,"MET051METAR ENSD 060550Z 00000KT 9999 FEW003 10/07 Q1027;",
"01320099999","2010-09-06T06:50:00","4","61.8333333","6.1166667","60.0","SANDANE ANDA, NO","FM-15","ENSD ","V020","999,9,V,0010,1","22000,1,9,N","011265,1,N,1","+0110,1","+0080,1","99999,9","02,5,+00090,1,99,9",,,,"02,99,1,99,9,99,9,99999,9,99,9,99,9",,"10271,1,99999,9",,,,"MET051METAR ENSD 060650Z VRB02KT 9999 FEW003 11/08 Q1027;",
"01320099999","2010-09-06T07:50:00","4","61.8333333","6.1166667","60.0","SANDANE ANDA, NO","FM-15","ENSD ","V020","999,9,V,0010,1","22000,1,9,N","011265,1,N,1","+0120,1","+0080,1","99999,9","02,5,+00150,1,99,9",,,,"02,99,1,99,9,99,9,99999,9,99,9,99,9",,"10271,1,99999,9",,,,"MET051METAR ENSD 060750Z VRB02KT 9999 FEW005 12/08 Q1027;",
"01320099999","2010-09-06T08:50:00","4","61.8333333","6.1166667","60.0","SANDANE ANDA, NO","FM-15","ENSD ","V020","999,9,V,0005,1","99999,9,9,Y","009900,1,N,1","+0130,1","+0070,1","99999,9",,,,,,,"10271,1,99999,9",,,,"MET045METAR ENSD 060850Z VRB01KT CAVOK 13/07 Q1027;",
"01320099999","2010-09-06T09:50:00","4","61.8333333","6.1166667","60.0","SANDANE ANDA, NO","FM-15","ENSD ","V020","999,9,V,0010,1","99999,9,9,Y","009900,1,N,1","+0130,1","+0080,1","99999,9",,,,,,,"10261,1,99999,9",,,,"MET045METAR ENSD 060950Z VRB02KT CAVOK 13/08 Q1026;",
"01320099999","2010-09-06T10:50:00","4","61.8333333","6.1166667","60.0","SANDANE ANDA, NO","FM-15","ENSD ","V020","070,1,N,0026,1","99999,9,9,Y","009900,1,N,1","+0140,1","+0070,1","99999,9",,,,,,,"10261,1,99999,9",,,,"MET045METAR ENSD 061050Z 07005KT CAVOK 14/07 Q1026;",
"01320099999","2010-09-06T11:50:00","4","61.8333333","6.1166667","60.0","SANDANE ANDA, NO","FM-15","ENSD ","V020","080,1,N,0015,1","99999,9,9,Y","009900,1,N,1","+0150,1","+0070,1","99999,9",,,,,,,"10251,1,99999,9",,,,"MET045METAR ENSD 061150Z 08003KT CAVOK 15/07 Q1025;",
"01320099999","2010-09-06T12:50:00","4","61.8333333","6.1166667","60.0","SANDANE ANDA, NO","FM-15","ENSD ","V020","070,1,N,0026,1","99999,9,9,Y","009900,1,N,1","+0160,1","+0070,1","99999,9",,,,,,,"10240,1,99999,9",,,,"MET045METAR ENSD 061250Z 07005KT CAVOK 16/07 Q1024;",
"01320099999","2010-09-06T13:50:00","4","61.8333333","6.1166667","60.0","SANDANE ANDA, NO","FM-15","ENSD ","V020","060,1,N,0026,1","99999,9,9,Y","009900,1,N,1","+0170,1","+0080,1","99999,9",,,,,,,"10240,1,99999,9",,,,"MET045METAR ENSD 061350Z 06005KT CAVOK 17/08 Q1024;",
"01320099999","2010-09-06T14:50:00","4","61.8333333","6.1166667","60.0","SANDANE ANDA, NO","FM-15","ENSD ","V020","070,1,N,0021,1","99999,9,9,Y","009900,1,N,1","+0180,1","+0070,1","99999,9",,,,,,,"10240,1,99999,9",,,,"MET045METAR ENSD 061450Z 07004KT CAVOK 18/07 Q1024;",
"01320099999","2010-09-06T15:50:00","4","61.8333333","6.1166667","60.0","SANDANE ANDA, NO","FM-15","ENSD ","V020","999,9,V,0010,1","99999,9,9,Y","009900,1,N,1","+0180,1","+0080,1","99999,9",,,,,,,"10230,1,99999,9",,,,"MET045METAR ENSD 061550Z VRB02KT CAVOK 18/08 Q1023;",
"01320099999","2010-09-06T16:50:00","4","61.8333333","6.1166667","60.0","SANDANE ANDA, NO","FM-15","ENSD ","V020","999,9,V,0010,1","99999,9,9,Y","009900,1,N,1","+0190,1","+0090,1","99999,9",,,,,,,"10220,1,99999,9",,,,"MET045METAR ENSD 061650Z VRB02KT CAVOK 19/09 Q1022;",
"01320099999","2010-09-06T17:50:00","4","61.8333333","6.1166667","60.0","SANDANE ANDA, NO","FM-15","ENSD ","V020","050,1,N,0021,1","99999,9,9,Y","009900,1,N,1","+0170,1","+0090,1","99999,9",,,,,,,"10220,1,99999,9",,,,"MET045METAR ENSD 061750Z 05004KT CAVOK 17/09 Q1022;",
"01320099999","2010-09-06T18:50:00","4","61.8333333","6.1166667","60.0","SANDANE ANDA, NO","FM-15","ENSD ","V020","090,1,N,0015,1","99999,9,9,Y","009900,1,N,1","+0170,1","+0090,1","99999,9",,,,,,,"10230,1,99999,9",,,,"MET045METAR ENSD 061850Z 09003KT CAVOK 17/09 Q1023;",
"01320099999","2010-09-07T03:50:00","4","61.8333333","6.1166667","60.0","SANDANE ANDA, NO","FM-15","ENSD ","V020","999,9,V,0005,1","22000,1,9,N","011265,1,N,1","+0100,1","+0070,1","99999,9","02,5,+00150,1,99,9",,,,"02,99,1,99,9,99,9,99999,9,99,9,99,9",,"10220,1,99999,9",,,,"MET051METAR ENSD 070350Z VRB01KT 9999 FEW005 10/07 Q1022;",
"01320099999","2010-09-07T04:50:00","4","61.8333333","6.1166667","60.0","SANDANE ANDA, NO","FM-15","ENSD ","V020","999,9,V,0005,1","22000,1,9,N","011265,1,N,1","+0100,1","+0070,1","99999,9","02,5,+00150,1,99,9",,,,"02,99,1,99,9,99,9,99999,9,99,9,99,9",,"10220,1,99999,9",,,,"MET051METAR ENSD 070450Z VRB01KT 9999 FEW005 10/07 Q1022;",
"01320099999","2010-09-07T05:50:00","4","61.8333333","6.1166667","60.0","SANDANE ANDA, NO","FM-15","ENSD ","V020","999,9,V,0010,1","22000,1,9,N","011265,1,N,1","+0110,1","+0080,1","99999,9","02,5,+00150,1,99,9",,,,"02,99,1,99,9,99,9,99999,9,99,9,99,9",,"10220,1,99999,9",,,,"MET051METAR ENSD 070550Z VRB02KT 9999 FEW005 11/08 Q1022;",
"01320099999","2010-09-07T06:50:00","4","61.8333333","6.1166667","60.0","SANDANE ANDA, NO","FM-15","ENSD ","V020","999,9,V,0010,1","22000,1,9,N","011265,1,N,1","+0120,1","+0090,1","99999,9","02,5,+00150,1,99,9",,,,"02,99,1,99,9,99,9,99999,9,99,9,99,9",,"10220,1,99999,9",,,,"MET051METAR ENSD 070650Z VRB02KT 9999 FEW005 12/09 Q1022;",
"01320099999","2010-09-07T07:50:00","4","61.8333333","6.1166667","60.0","SANDANE ANDA, NO","FM-15","ENSD ","V020","080,1,N,0015,1","99999,9,9,Y","009900,1,N,1","+0140,1","+0080,1","99999,9",,,,,,,"10210,1,99999,9",,,,"MET045METAR ENSD 070750Z 08003KT CAVOK 14/08 Q1021;",
"01320099999","2010-09-07T08:50:00","4","61.8333333","6.1166667","60.0","SANDANE ANDA, NO","FM-15","ENSD ","V020","999,9,V,0005,1","99999,9,9,Y","009900,1,N,1","+0140,1","+0080,1","99999,9",,,,,,,"10210,1,99999,9",,,,"MET045METAR ENSD 070850Z VRB01KT CAVOK 14/08 Q1021;",
"01320099999","2010-09-07T09:50:00","4","61.8333333","6.1166667","60.0","SANDANE ANDA, NO","FM-15","ENSD ","V020","080,1,N,0015,1","99999,9,9,Y","009900,1,N,1","+0150,1","+0080,1","99999,9",,,,,,,"10200,1,99999,9",,,,"MET045METAR ENSD 070950Z 08003KT CAVOK 15/08 Q1020;",
"01320099999","2010-09-07T10:50:00","4","61.8333333","6.1166667","60.0","SANDANE ANDA, NO","FM-15","ENSD ","V020","999,9,V,0010,1","99999,9,9,Y","009900,1,N,1","+0160,1","+0070,1","99999,9",,,,,,,"10200,1,99999,9",,,,"MET045METAR ENSD 071050Z VRB02KT CAVOK 16/07 Q1020;",
"01320099999","2010-09-07T11:50:00","4","61.8333333","6.1166667","60.0","SANDANE ANDA, NO","FM-15","ENSD ","V020","060,1,N,0021,1","99999,9,9,Y","009900,1,N,1","+0170,1","+0070,1","99999,9",,,,,,,"10200,1,99999,9",,,,"MET045METAR ENSD 071150Z 06004KT CAVOK 17/07 Q1020;",
"01320099999","2010-09-07T12:50:00","4","61.8333333","6.1166667","60.0","SANDANE ANDA, NO","FM-15","ENSD ","V020","999,9,V,0010,1","99999,9,9,Y","009900,1,N,1","+0180,1","+0060,1","99999,9",,,,,,,"10190,1,99999,9",,,,"MET045METAR ENSD 071250Z VRB02KT CAVOK 18/06 Q1019;",
"01320099999","2010-09-07T13:50:00","4","61.8333333","6.1166667","60.0","SANDANE ANDA, NO","FM-15","ENSD ","V020","999,9,V,0010,1","99999,9,9,Y","009900,1,N,1","+0190,1","+0050,1","99999,9",,,,,,,"10180,1,99999,9",,,,"MET045METAR ENSD 071350Z VRB02KT CAVOK 19/05 Q1018;",
"01320099999","2010-09-07T14:50:00","4","61.8333333","6.1166667","60.0","SANDANE ANDA, NO","FM-15","ENSD ","V020","080,1,N,0021,1","99999,9,9,Y","009900,1,N,1","+0200,1","+0030,1","99999,9",,,,,,,"10180,1,99999,9",,,,"MET045METAR ENSD 071450Z 08004KT CAVOK 20/03 Q1018;",
"01320099999","2010-09-07T15:50:00","4","61.8333333","6.1166667","60.0","SANDANE ANDA, NO","FM-15","ENSD ","V020","999,9,V,0021,1","99999,9,9,Y","009900,1,N,1","+0210,1","+0060,1","99999,9",,,,,,,"10180,1,99999,9",,,,"MET045METAR ENSD 071550Z VRB04KT CAVOK 21/06 Q1018;",
"01320099999","2010-09-07T16:50:00","4","61.8333333","6.1166667","60.0","SANDANE ANDA, NO","FM-15","ENSD ","V020","999,9,V,0015,1","99999,9,9,Y","009900,1,N,1","+0210,1","+0030,1","99999,9",,,,,,,"10180,1,99999,9",,,,"MET045METAR ENSD 071650Z VRB03KT CAVOK 21/03 Q1018;",
"01320099999","2010-09-07T17:50:00","4","61.8333333","6.1166667","60.0","SANDANE ANDA, NO","FM-15","ENSD ","V020","100,1,N,0026,1","99999,9,9,Y","009900,1,N,1","+0190,1","+0040,1","99999,9",,,,,,,"10190,1,99999,9",,,,"MET045METAR ENSD 071750Z 10005KT CAVOK 19/04 Q1019;",
"01320099999","2010-09-07T18:50:00","4","61.8333333","6.1166667","60.0","SANDANE ANDA, NO","FM-15","ENSD ","V020","240,1,N,0021,1","99999,9,9,Y","009900,1,N,1","+0170,1","+0050,1","99999,9",,,,,,,"10190,1,99999,9",,,,"MET045METAR ENSD 071850Z 24004KT CAVOK 17/05 Q1019;",
"01320099999","2010-09-08T04:20:00","4","61.8333333","6.1166667","60.0","SANDANE ANDA, NO","FM-15","ENSD ","V020","999,9,V,0005,1","99999,9,9,Y","009900,1,N,1","+0110,1","+0050,1","99999,9",,,,,,,"10200,1,99999,9",,,,"MET045METAR ENSD 080420Z VRB01KT CAVOK 11/05 Q1020;",
"01320099999","2010-09-08T05:50:00","4","61.8333333","6.1166667","60.0","SANDANE ANDA, NO","FM-15","ENSD ","V020","999,9,V,0005,1","99999,9,9,Y","009900,1,N,1","+0110,1","+0060,1","99999,9",,,,,,,"10200,1,99999,9",,,,"MET045METAR ENSD 080550Z VRB01KT CAVOK 11/06 Q1020;",
"01320099999","2010-09-08T06:50:00","4","61.8333333","6.1166667","60.0","SANDANE ANDA, NO","FM-15","ENSD ","V020","999,9,V,0015,1","99999,9,9,Y","009900,1,N,1","+0130,1","+0040,1","99999,9",,,,,,,"10200,1,99999,9",,,,"MET045METAR ENSD 080650Z VRB03KT CAVOK 13/04 Q1020;",
"01320099999","2010-09-08T07:50:00","4","61.8333333","6.1166667","60.0","SANDANE ANDA, NO","FM-15","ENSD ","V020","999,9,V,0010,1","99999,9,9,Y","009900,1,N,1","+0130,1","+0060,1","99999,9",,,,,,,"10200,1,99999,9",,,,"MET045METAR ENSD 080750Z VRB02KT CAVOK 13/06 Q1020;",
"01320099999","2010-09-08T08:50:00","4","61.8333333","6.1166667","60.0","SANDANE ANDA, NO","FM-15","ENSD ","V020","999,9,V,0010,1","99999,9,9,Y","009900,1,N,1","+0160,1","+0060,1","99999,9",,,,,,,"10200,1,99999,9",,,,"MET045METAR ENSD 080850Z VRB02KT CAVOK 16/06 Q1020;",
"01320099999","2010-09-08T09:50:00","4","61.8333333","6.1166667","60.0","SANDANE ANDA, NO","FM-15","ENSD ","V020","999,9,V,0015,1","99999,9,9,Y","009900,1,N,1","+0180,1","+0020,1","99999,9",,,,,,,"10200,1,99999,9",,,,"MET045METAR ENSD 080950Z VRB03KT CAVOK 18/02 Q1020;",
"01320099999","2010-09-08T10:50:00","4","61.8333333","6.1166667","60.0","SANDANE ANDA, NO","FM-15","ENSD ","V020","100,1,N,0031,1","99999,9,9,Y","009900,1,N,1","+0180,1","+0020,1","99999,9",,,,,,,"10190,1,99999,9",,,,"MET045METAR ENSD 081050Z 10006KT CAVOK 18/02 Q1019;",
"01320099999","2010-09-08T11:50:00","4","61.8333333","6.1166667","60.0","SANDANE ANDA, NO","FM-15","ENSD ","V020","090,1,N,0036,1","99999,9,9,Y","009900,1,N,1","+0190,1","+0020,1","99999,9",,,,,,,"10190,1,99999,9",,,,"MET045METAR ENSD 081150Z 09007KT CAVOK 19/02 Q1019;",
"01320099999","2010-09-08T12:50:00","4","61.8333333","6.1166667","60.0","SANDANE ANDA, NO","FM-15","ENSD ","V020","080,1,N,0041,1","99999,9,9,Y","009900,1,N,1","+0190,1","+0030,1","99999,9",,,,,,,"10190,1,99999,9",,,,"MET045METAR ENSD 081250Z 08008KT CAVOK 19/03 Q1019;",
"01320099999","2010-09-08T14:50:00","4","61.8333333","6.1166667","60.0","SANDANE ANDA, NO","FM-15","ENSD ","V020","120,1,N,0015,1","99999,9,9,Y","009900,1,N,1","+0200,1","+0020,1","99999,9",,,,,,,"10180,1,99999,9",,,,"MET045METAR ENSD 081450Z 12003KT CAVOK 20/02 Q1018;",
"01320099999","2010-09-08T15:50:00","4","61.8333333","6.1166667","60.0","SANDANE ANDA, NO","FM-15","ENSD ","V020","090,1,N,0031,1","99999,9,9,Y","009900,1,N,1","+0200,1","+0020,1","99999,9",,,,,,,"10180,1,99999,9",,,,"MET045METAR ENSD 081550Z 09006KT CAVOK 20/02 Q1018;",
"01320099999","2010-09-08T16:50:00","4","61.8333333","6.1166667","60.0","SANDANE ANDA, NO","FM-15","ENSD ","V020","070,1,N,0031,1","99999,9,9,Y","009900,1,N,1","+0190,1","+0020,1","99999,9",,,,,,,"10190,1,99999,9",,,,"MET045METAR ENSD 081650Z 07006KT CAVOK 19/02 Q1019;",
"01320099999","2010-09-08T17:50:00","4","61.8333333","6.1166667","60.0","SANDANE ANDA, NO","FM-15","ENSD ","V020","090,1,N,0021,1","99999,9,9,Y","009900,1,N,1","+0190,1","+0020,1","99999,9",,,,,,,"10190,1,99999,9",,,,"MET045METAR ENSD 081750Z 09004KT CAVOK 19/02 Q1019;",
"01320099999","2010-09-08T18:50:00","4","61.8333333","6.1166667","60.0","SANDANE ANDA, NO","FM-15","ENSD ","V020","070,1,N,0021,1","99999,9,9,Y","009900,1,N,1","+0160,1","+0030,1","99999,9",,,,,,,"10190,1,99999,9",,,,"MET045METAR ENSD 081850Z 07004KT CAVOK 16/03 Q1019;",
"01320099999","2010-09-09T03:50:00","4","61.8333333","6.1166667","60.0","SANDANE ANDA, NO","FM-15","ENSD ","V020","230,1,N,0015,1","22000,1,9,N","011265,1,N,1","+0110,1","+0050,1","99999,9","02,5,+01200,1,99,9",,,,"02,99,1,99,9,99,9,99999,9,99,9,99,9",,"10190,1,99999,9",,,,"MET051METAR ENSD 090350Z 23003KT 9999 FEW040 11/05 Q1019;",
"01320099999","2010-09-09T04:50:00","4","61.8333333","6.1166667","60.0","SANDANE ANDA, NO","FM-15","ENSD ","V020","220,1,N,0015,1","22000,1,9,N","011265,1,N,1","+0100,1","+0060,1","99999,9","02,5,+01200,1,99,9",,,,"02,99,1,99,9,99,9,99999,9,99,9,99,9",,"10190,1,99999,9",,,,"MET051METAR ENSD 090450Z 22003KT 9999 FEW040 10/06 Q1019;",
"01320099999","2010-09-09T05:50:00","4","61.8333333","6.1166667","60.0","SANDANE ANDA, NO","FM-15","ENSD ","V020","160,1,N,0015,1","22000,1,9,N","011265,1,N,1","+0110,1","+0050,1","99999,9","02,5,+01200,1,99,9",,,,"02,99,1,99,9,99,9,99999,9,99,9,99,9",,"10190,1,99999,9",,,,"MET051METAR ENSD 090550Z 16003KT 9999 FEW040 11/05 Q1019;",
"01320099999","2010-09-09T06:50:00","4","61.8333333","6.1166667","60.0","SANDANE ANDA, NO","FM-15","ENSD ","V020","999,9,V,0005,1","99999,9,9,Y","009900,1,N,1","+0120,1","+0050,1","99999,9",,,,,,,"10180,1,99999,9",,,,"MET045METAR ENSD 090650Z VRB01KT CAVOK 12/05 Q1018;",
"01320099999","2010-09-09T07:50:00","4","61.8333333","6.1166667","60.0","SANDANE ANDA, NO","FM-15","ENSD ","V020","999,9,V,0010,1","99999,9,9,Y","009900,1,N,1","+0140,1","+0060,1","99999,9",,,,,,,"10190,1,99999,9",,,,"MET045METAR ENSD 090750Z VRB02KT CAVOK 14/06 Q1019;",
"01320099999","2010-09-09T08:50:00","4","61.8333333","6.1166667","60.0","SANDANE ANDA, NO","FM-15","ENSD ","V020","999,9,V,0010,1","99999,9,9,Y","009900,1,N,1","+0150,1","+0050,1","99999,9",,,,,,,"10190,1,99999,9",,,,"MET045METAR ENSD 090850Z VRB02KT CAVOK 15/05 Q1019;",
"01320099999","2010-09-09T09:50:00","4","61.8333333","6.1166667","60.0","SANDANE ANDA, NO","FM-15","ENSD ","V020","999,9,V,0010,1","99999,9,9,Y","009900,1,N,1","+0150,1","+0040,1","99999,9",,,,,,,"10190,1,99999,9",,,,"MET045METAR ENSD 090950Z VRB02KT CAVOK 15/04 Q1019;",
"01320099999","2010-09-09T10:50:00","4","61.8333333","6.1166667","60.0","SANDANE ANDA, NO","FM-15","ENSD ","V020","050,1,N,0015,1","99999,9,9,Y","009900,1,N,1","+0170,1","+0040,1","99999,9",,,,,,,"10190,1,99999,9",,,,"MET045METAR ENSD 091050Z 05003KT CAVOK 17/04 Q1019;",
"01320099999","2010-09-09T11:50:00","4","61.8333333","6.1166667","60.0","SANDANE ANDA, NO","FM-15","ENSD ","V020","999,9,V,0010,1","99999,9,9,Y","009900,1,N,1","+0190,1","+0050,1","99999,9",,,,,,,"10190,1,99999,9",,,,"MET045METAR ENSD 091150Z VRB02KT CAVOK 19/05 Q1019;",
"01320099999","2010-09-09T12:50:00","4","61.8333333","6.1166667","60.0","SANDANE ANDA, NO","FM-15","ENSD ","V020","999,9,V,0026,1","99999,9,9,Y","009900,1,N,1","+0200,1","+0010,1","99999,9",,,,,,,"10190,1,99999,9",,,,"MET045METAR ENSD 091250Z VRB05KT CAVOK 20/01 Q1019;",
"01320099999","2010-09-09T13:50:00","4","61.8333333","6.1166667","60.0","SANDANE ANDA, NO","FM-15","ENSD ","V020","999,9,V,0021,1","99999,9,9,Y","009900,1,N,1","+0200,1","+0010,1","99999,9",,,,,,,"10190,1,99999,9",,,,"MET045METAR ENSD 091350Z VRB04KT CAVOK 20/01 Q1019;",
"01320099999","2010-09-09T14:50:00","4","61.8333333","6.1166667","60.0","SANDANE ANDA, NO","FM-15","ENSD ","V020","090,1,N,0021,1","99999,9,9,Y","009900,1,N,1","+0200,1","+0020,1","99999,9",,,,,,,"10190,1,99999,9",,,,"MET045METAR ENSD 091450Z 09004KT CAVOK 20/02 Q1019;",
"01320099999","2010-09-09T15:50:00","4","61.8333333","6.1166667","60.0","SANDANE ANDA, NO","FM-15","ENSD ","V020","110,1,N,0021,1","99999,9,9,Y","009900,1,N,1","+0190,1","+0010,1","99999,9",,,,,,,"10190,1,99999,9",,,,"MET045METAR ENSD 091550Z 11004KT CAVOK 19/01 Q1019;",
"01320099999","2010-09-09T16:50:00","4","61.8333333","6.1166667","60.0","SANDANE ANDA, NO","FM-15","ENSD ","V020","999,9,V,0015,1","99999,9,9,Y","009900,1,N,1","+0190,1","+0020,1","99999,9",,,,,,,"10190,1,99999,9",,,,"MET045METAR ENSD 091650Z VRB03KT CAVOK 19/02 Q1019;",
"01320099999","2010-09-09T17:50:00","4","61.8333333","6.1166667","60.0","SANDANE ANDA, NO","FM-15","ENSD ","V020","999,9,V,0015,1","99999,9,9,Y","009900,1,N,1","+0170,1","+0020,1","99999,9",,,,,,,"10190,1,99999,9",,,,"MET045METAR ENSD 091750Z VRB03KT CAVOK 17/02 Q1019;",
"01320099999","2010-09-10T03:50:00","4","61.8333333","6.1166667","60.0","SANDANE ANDA, NO","FM-15","ENSD ","V020","999,9,V,0010,1","02100,1,C,N","011265,1,N,1","+0110,1","+0050,1","99999,9","02,5,+01200,1,99,9","07,5,+02100,1,99,9",,,"07,99,1,99,9,99,9,99999,9,99,9,99,9",,"10169,1,99999,9",,,,"MET058METAR ENSD 100350Z VRB02KT 9999 FEW040 BKN070 11/05 Q1017;",
"01320099999","2010-09-10T04:50:00","4","61.8333333","6.1166667","60.0","SANDANE ANDA, NO","FM-15","ENSD ","V020","999,9,V,0005,1","02100,1,C,N","011265,1,N,1","+0120,1","+0050,1","99999,9","02,5,+01200,1,99,9","07,5,+02100,1,99,9",,,"07,99,1,99,9,99,9,99999,9,99,9,99,9",,"10169,1,99999,9",,,,"MET058METAR ENSD 100450Z VRB01KT 9999 FEW040 BKN070 12/05 Q1017;",
"01320099999","2010-09-10T05:50:00","4","61.8333333","6.1166667","60.0","SANDANE ANDA, NO","FM-15","ENSD ","V020","999,9,V,0005,1","02100,1,C,N","011265,1,N,1","+0130,1","+0050,1","99999,9","02,5,+01200,1,99,9","07,5,+02100,1,99,9",,,"07,99,1,99,9,99,9,99999,9,99,9,99,9",,"10169,1,99999,9",,,,"MET058METAR ENSD 100550Z VRB01KT 9999 FEW040 BKN070 13/05 Q1017;",
"01320099999","2010-09-10T06:50:00","4","61.8333333","6.1166667","60.0","SANDANE ANDA, NO","FM-15","ENSD ","V020","999,9,V,0010,1","02100,1,C,N","011265,1,N,1","+0130,1","+0050,1","99999,9","02,5,+01200,1,99,9","07,5,+02100,1,99,9",,,"07,99,1,99,9,99,9,99999,9,99,9,99,9",,"10169,1,99999,9",,,,"MET058METAR ENSD 100650Z VRB02KT 9999 FEW040 BKN070 13/05 Q1017;",
"01320099999","2010-09-10T08:50:00","4","61.8333333","6.1166667","60.0","SANDANE ANDA, NO","FM-15","ENSD ","V020","999,9,V,0010,1","01800,1,C,N","011265,1,N,1","+0150,1","+0050,1","99999,9","02,5,+01200,1,99,9","07,5,+01800,1,99,9",,,"07,99,1,99,9,99,9,99999,9,99,9,99,9",,"10169,1,99999,9",,,,"MET058METAR ENSD 100850Z VRB02KT 9999 FEW040 BKN060 15/05 Q1017;",
"01320099999","2010-09-10T09:50:00","4","61.8333333","6.1166667","60.0","SANDANE ANDA, NO","FM-15","ENSD ","V020","160,1,N,0015,1","01800,1,C,N","011265,1,N,1","+0150,1","+0050,1","99999,9","02,5,+01200,1,99,9","07,5,+01800,1,99,9",,,"07,99,1,99,9,99,9,99999,9,99,9,99,9",,"10159,1,99999,9",,,,"MET058METAR ENSD 100950Z 16003KT 9999 FEW040 BKN060 15/05 Q1016;",
"01320099999","2010-09-10T10:50:00","4","61.8333333","6.1166667","60.0","SANDANE ANDA, NO","FM-15","ENSD ","V020","160,1,N,0010,1","01800,1,C,N","011265,1,N,1","+0150,1","+0050,1","99999,9","02,5,+01200,1,99,9","07,5,+01800,1,99,9",,,"07,99,1,99,9,99,9,99999,9,99,9,99,9",,"10159,1,99999,9",,,,"MET058METAR ENSD 101050Z 16002KT 9999 FEW040 BKN060 15/05 Q1016;",
"01320099999","2010-09-10T11:50:00","4","61.8333333","6.1166667","60.0","SANDANE ANDA, NO","FM-15","ENSD ","V020","999,9,V,0010,1","01800,1,C,N","011265,1,N,1","+0160,1","+0040,1","99999,9","02,5,+01200,1,99,9","07,5,+01800,1,99,9",,,"07,99,1,99,9,99,9,99999,9,99,9,99,9",,"10159,1,99999,9",,,,"MET058METAR ENSD 101150Z VRB02KT 9999 FEW040 BKN060 16/04 Q1016;",
"01320099999","2010-09-10T12:50:00","4","61.8333333","6.1166667","60.0","SANDANE ANDA, NO","FM-15","ENSD ","V020","100,1,N,0026,1","02100,1,C,N","011265,1,N,1","+0170,1","+0020,1","99999,9","07,5,+02100,1,99,9",,,,"07,99,1,99,9,99,9,99999,9,99,9,99,9",,"10149,1,99999,9",,,,"MET051METAR ENSD 101250Z 10005KT 9999 BKN070 17/02 Q1015;",
"01320099999","2010-09-10T13:50:00","4","61.8333333","6.1166667","60.0","SANDANE ANDA, NO","FM-15","ENSD ","V020","100,1,N,0031,1","02100,1,C,N","011265,1,N,1","+0170,1","+0010,1","99999,9","07,5,+02100,1,99,9",,,,"07,99,1,99,9,99,9,99999,9,99,9,99,9",,"10149,1,99999,9",,,,"MET051METAR ENSD 101350Z 10006KT 9999 BKN070 17/01 Q1015;",
"01320099999","2010-09-10T14:50:00","4","61.8333333","6.1166667","60.0","SANDANE ANDA, NO","FM-15","ENSD ","V020","110,1,N,0031,1","02100,1,C,N","011265,1,N,1","+0170,1","+0020,1","99999,9","07,5,+02100,1,99,9",,,,"07,99,1,99,9,99,9,99999,9,99,9,99,9",,"10149,1,99999,9",,,,"MET051METAR ENSD 101450Z 11006KT 9999 BKN070 17/02 Q1015;",
"01320099999","2010-09-10T15:50:00","4","61.8333333","6.1166667","60.0","SANDANE ANDA, NO","FM-15","ENSD ","V020","100,1,N,0026,1","01950,5,C,N","011265,1,N,1","+0170,1","+0010,1","99999,9","07,5,+01950,5,99,9",,,,"07,99,1,99,9,99,9,99999,9,99,9,99,9",,"10139,1,99999,9",,,,"MET051METAR ENSD 101550Z 10005KT 9999 BKN065 17/01 Q1014;",
"01320099999","2010-09-10T16:50:00","4","61.8333333","6.1166667","60.0","SANDANE ANDA, NO","FM-15","ENSD ","V020","999,9,V,0015,1","01950,5,C,N","011265,1,N,1","+0170,1","+0020,1","99999,9","07,5,+01950,5,99,9",,,,"07,99,1,99,9,99,9,99999,9,99,9,99,9",,"10139,1,99999,9",,,,"MET051METAR ENSD 101650Z VRB03KT 9999 BKN065 17/02 Q1014;",
"01320099999","2010-09-10T17:50:00","4","61.8333333","6.1166667","60.0","SANDANE ANDA, NO","FM-15","ENSD ","V020","999,9,V,0021,1","01950,5,C,N","011265,1,N,1","+0170,1","+0020,1","99999,9","07,5,+01950,5,99,9",,,,"07,99,1,99,9,99,9,99999,9,99,9,99,9",,"10139,1,99999,9",,,,"MET051METAR ENSD 101750Z VRB04KT 9999 BKN065 17/02 Q1014;",
"01320099999","2010-09-10T18:50:00","4","61.8333333","6.1166667","60.0","SANDANE ANDA, NO","FM-15","ENSD ","V020","999,9,V,0021,1","02100,1,C,N","011265,1,N,1","+0160,1","+0030,1","99999,9","07,5,+02100,1,99,9",,,,"07,99,1,99,9,99,9,99999,9,99,9,99,9",,"10139,1,99999,9",,,,"MET051METAR ENSD 101850Z VRB04KT 9999 BKN070 16/03 Q1014;",
"01320099999","2010-09-11T05:20:00","4","61.8333333","6.1166667","60.0","SANDANE ANDA, NO","FM-15","ENSD ","V020","110,1,N,0026,1","01800,1,C,N","011265,1,N,1","+0130,1","+0060,1","99999,9","04,5,+01200,1,99,9","07,5,+01800,1,99,9",,,"07,99,1,99,9,99,9,99999,9,99,9,99,9",,"10091,1,99999,9","61,1",,,"MET062METAR ENSD 110520Z 11005KT 9999 -RA SCT040 BKN060 13/06 Q1009;",
"01320099999","2010-09-11T06:50:00","4","61.8333333","6.1166667","60.0","SANDANE ANDA, NO","FM-15","ENSD ","V020","100,1,N,0036,1","01800,1,C,N","011265,1,N,1","+0140,1","+0050,1","99999,9","04,5,+01200,1,99,9","07,5,+01800,1,99,9",,,"07,99,1,99,9,99,9,99999,9,99,9,99,9",,"10091,1,99999,9","16,1",,,"MET063METAR ENSD 110650Z 10007KT 9999 VCSH SCT040 BKN060 14/05 Q1009;",
"01320099999","2010-09-11T07:50:00","4","61.8333333","6.1166667","60.0","SANDANE ANDA, NO","FM-15","ENSD ","V020","999,9,V,0015,1","01800,1,C,N","011265,1,N,1","+0120,1","+0080,1","99999,9","02,5,+00750,1,99,9","07,5,+01800,1,99,9",,,"07,99,1,99,9,99,9,99999,9,99,9,99,9",,"10091,1,99999,9",,,,"MET058METAR ENSD 110750Z VRB03KT 9999 FEW025 BKN060 12/08 Q1009;",
"01320099999","2010-09-11T08:50:00","4","61.8333333","6.1166667","60.0","SANDANE ANDA, NO","FM-15","ENSD ","V020","999,9,V,0015,1","01800,1,C,N","011265,1,N,1","+9999,9","+9999,9","99999,9","02,5,+00750,1,99,9","07,5,+01800,1,99,9",,,"07,99,1,99,9,99,9,99999,9,99,9,99,9",,"10090,1,99999,9",,,,"MET059METAR ENSD 110850Z VRB03KT 9999 FEW025 BKN060 13Z/08 Q1009;",
"01320099999","2010-09-11T09:50:00","4","61.8333333","6.1166667","60.0","SANDANE ANDA, NO","FM-15","ENSD ","V020","170,1,N,0021,1","01800,1,C,N","011265,1,N,1","+0130,1","+0080,1","99999,9","02,5,+00750,1,99,9","07,5,+01800,1,99,9",,,"07,99,1,99,9,99,9,99999,9,99,9,99,9",,"10091,1,99999,9","16,1",,,"MET063METAR ENSD 110950Z 17004KT 9999 VCSH FEW025 BKN060 13/08 Q1009;",
"01320099999","2010-09-11T10:50:00","4","61.8333333","6.1166667","60.0","SANDANE ANDA, NO","FM-15","ENSD ","V020","210,1,N,0015,1","01800,1,C,N","011265,1,N,1","+0130,1","+0080,1","99999,9","02,5,+00750,1,99,9","07,5,+01800,1,99,9",,,"07,99,1,99,9,99,9,99999,9,99,9,99,9",,"10091,1,99999,9",,,,"MET058METAR ENSD 111050Z 21003KT 9999 FEW025 BKN060 13/08 Q1009;",
"01320099999","2010-09-11T11:50:00","4","61.8333333","6.1166667","60.0","SANDANE ANDA, NO","FM-15","ENSD ","V020","999,9,V,0010,1","01500,1,C,N","011265,1,N,1","+0130,1","+0090,1","99999,9","02,5,+00900,1,99,9","07,5,+01500,1,99,9",,,"07,99,1,99,9,99,9,99999,9,99,9,99,9",,"10091,1,99999,9","16,1",,,"MET063METAR ENSD 111150Z VRB02KT 9999 VCSH FEW030 BKN050 13/09 Q1009;",
"01320099999","2010-09-11T12:50:00","4","61.8333333","6.1166667","60.0","SANDANE ANDA, NO","FM-15","ENSD ","V020","999,9,V,0010,1","01500,1,C,N","011265,1,N,1","+0120,1","+0080,1","99999,9","02,5,+00900,1,99,9","07,5,+01500,1,99,9",,,"07,99,1,99,9,99,9,99999,9,99,9,99,9",,"10091,1,99999,9","80,1",,,"MET064METAR ENSD 111250Z VRB02KT 9999 -SHRA FEW030 BKN050 12/08 Q1009;",
"01320099999","2010-09-11T13:50:00","4","61.8333333","6.1166667","60.0","SANDANE ANDA, NO","FM-15","ENSD ","V020","190,1,N,0021,1","01500,1,C,N","011265,1,N,1","+0130,1","+0090,1","99999,9","02,5,+00900,1,99,9","07,5,+01500,1,99,9",,,"07,99,1,99,9,99,9,99999,9,99,9,99,9",,"10081,1,99999,9","80,1",,,"MET064METAR ENSD 111350Z 19004KT 9999 -SHRA FEW030 BKN050 13/09 Q1008;",
"01320099999","2010-09-11T14:50:00","4","61.8333333","6.1166667","60.0","SANDANE ANDA, NO","FM-15","ENSD ","V020","160,1,N,0021,1","01500,1,C,N","011265,1,N,1","+0130,1","+0090,1","99999,9","07,5,+01500,1,99,9",,,,"07,99,1,99,9,99,9,99999,9,99,9,99,9",,"10071,1,99999,9",,,,"MET051METAR ENSD 111450Z 16004KT 9999 BKN050 13/09 Q1007;",
"01320099999","2010-09-12T08:50:00","4","61.8333333","6.1166667","60.0","SANDANE ANDA, NO","FM-15","ENSD ","V020","999,9,V,0010,1","01050,1,C,N","011265,1,N,1","+0130,1","+0100,1","99999,9","02,5,+00150,1,99,9","07,5,+01050,1,99,9",,,"07,99,1,99,9,99,9,99999,9,99,9,99,9",,"10102,1,99999,9",,,,"MET058METAR ENSD 120850Z VRB02KT 9999 FEW005 BKN035 13/10 Q1010;",
"01320099999","2010-09-12T09:50:00","4","61.8333333","6.1166667","60.0","SANDANE ANDA, NO","FM-15","ENSD ","V020","999,9,V,0010,1","01050,1,C,N","011265,1,N,1","+0130,1","+0100,1","99999,9","02,5,+00150,1,99,9","07,5,+01050,1,99,9",,,"07,99,1,99,9,99,9,99999,9,99,9,99,9",,"10102,1,99999,9",,,,"MET058METAR ENSD 120950Z VRB02KT 9999 FEW005 BKN035 13/10 Q1010;",
"01320099999","2010-09-12T10:50:00","4","61.8333333","6.1166667","60.0","SANDANE ANDA, NO","FM-15","ENSD ","V020","999,9,V,0010,1","01050,1,C,N","011265,1,N,1","+0140,1","+0090,1","99999,9","02,5,+00150,1,99,9","04,5,+01050,1,99,9","07,5,+01800,1,99,9",,"07,99,1,99,9,99,9,99999,9,99,9,99,9",,"10102,1,99999,9",,,,"MET065METAR ENSD 121050Z VRB02KT 9999 FEW005 SCT035 BKN060 14/09 Q1010;",
"01320099999","2010-09-12T11:50:00","4","61.8333333","6.1166667","60.0","SANDANE ANDA, NO","FM-15","ENSD ","V020","999,9,V,0010,1","01050,1,C,N","011265,1,N,1","+0140,1","+0090,1","99999,9","02,5,+00150,1,99,9","04,5,+01050,1,99,9","07,5,+01800,1,99,9",,"07,99,1,99,9,99,9,99999,9,99,9,99,9",,"10108,1,99999,9",,,,"MET065METAR ENSD 121150Z VRB02KT 9999 FEW005 SCT035 BKN060 14/09 Q1011;",
"01320099999","2010-09-12T13:50:00","4","61.8333333","6.1166667","60.0","SANDANE ANDA, NO","FM-15","ENSD ","V020","270,1,N,0015,1","01800,1,C,N","011265,1,N,1","+0140,1","+0080,1","99999,9","04,5,+01050,1,99,9","07,5,+01800,1,99,9",,,"07,99,1,99,9,99,9,99999,9,99,9,99,9",,"10108,1,99999,9",,,,"MET058METAR ENSD 121350Z 27003KT 9999 SCT035 BKN060 14/08 Q1011;",
"01320099999","2010-09-12T14:50:00","4","61.8333333","6.1166667","60.0","SANDANE ANDA, NO","FM-15","ENSD ","V020","999,9,V,0010,1","01350,1,C,N","011265,1,N,1","+0140,1","+0080,1","99999,9","04,5,+00750,1,99,9","07,5,+01350,1,99,9",,,"07,99,1,99,9,99,9,99999,9,99,9,99,9",,"10119,1,99999,9",,,,"MET058METAR ENSD 121450Z VRB02KT 9999 SCT025 BKN045 14/08 Q1012;",
"01320099999","2010-09-12T15:50:00","4","61.8333333","6.1166667","60.0","SANDANE ANDA, NO","FM-15","ENSD ","V020","999,9,V,0015,1","00750,1,C,N","011265,1,N,1","+0140,1","+0090,1","99999,9","02,5,+00300,1,99,9","04,5,+00750,1,99,9","07,5,+01500,1,99,9",,"07,99,1,99,9,99,9,99999,9,99,9,99,9",,"10119,1,99999,9",,,,"MET065METAR ENSD 121550Z VRB03KT 9999 FEW010 SCT025 BKN050 14/09 Q1012;",
"01320099999","2010-09-12T16:50:00","4","61.8333333","6.1166667","60.0","SANDANE ANDA, NO","FM-15","ENSD ","V020","999,9,V,0010,1","00750,1,C,N","011265,1,N,1","+0140,1","+0090,1","99999,9","02,5,+00300,1,99,9","04,5,+00750,1,99,9","07,5,+01800,1,99,9",,"07,99,1,99,9,99,9,99999,9,99,9,99,9",,"10119,1,99999,9",,,,"MET065METAR ENSD 121650Z VRB02KT 9999 FEW010 SCT025 BKN060 14/09 Q1012;",
"01320099999","2010-09-12T17:50:00","4","61.8333333","6.1166667","60.0","SANDANE ANDA, NO","FM-15","ENSD ","V020","160,1,N,0015,1","01500,1,C,N","011265,1,N,1","+0130,1","+0090,1","99999,9","04,5,+00900,1,99,9","07,5,+01500,1,99,9",,,"07,99,1,99,9,99,9,99999,9,99,9,99,9",,"10119,1,99999,9",,,,"MET058METAR ENSD 121750Z 16003KT 9999 SCT030 BKN050 13/09 Q1012;",
"01320099999","2010-09-12T18:50:00","4","61.8333333","6.1166667","60.0","SANDANE ANDA, NO","FM-15","ENSD ","V020","999,9,V,0010,1","01500,1,C,N","011265,1,N,1","+0130,1","+0090,1","99999,9","04,5,+00900,1,99,9","07,5,+01500,1,99,9",,,"07,99,1,99,9,99,9,99999,9,99,9,99,9",,"10129,1,99999,9",,,,"MET058METAR ENSD 121850Z VRB02KT 9999 SCT030 BKN050 13/09 Q1013;",
"01320099999","2010-09-13T04:20:00","4","61.8333333","6.1166667","60.0","SANDANE ANDA, NO","FM-15","ENSD ","V020","999,9,V,0010,1","01200,1,C,N","011265,1,N,1","+0110,1","+0080,1","99999,9","07,5,+01200,1,99,9",,,,"07,99,1,99,9,99,9,99999,9,99,9,99,9",,"10139,1,99999,9","80,1",,,"MET057METAR ENSD 130420Z VRB02KT 9999 -SHRA BKN040 11/08 Q1014;",
"01320099999","2010-09-13T05:50:00","4","61.8333333","6.1166667","60.0","SANDANE ANDA, NO","FM-15","ENSD ","V020","999,9,C,0000,1","01200,1,C,N","011265,1,N,1","+0110,1","+0080,1","99999,9","02,5,+00600,1,99,9","07,5,+01200,1,99,9",,,"07,99,1,99,9,99,9,99999,9,99,9,99,9",,"10139,1,99999,9","80,1",,,"MET064METAR ENSD 130550Z 00000KT 9999 -SHRA FEW020 BKN040 11/08 Q1014;",
"01320099999","2010-09-13T06:50:00","4","61.8333333","6.1166667","60.0","SANDANE ANDA, NO","FM-15","ENSD ","V020","999,9,V,0010,1","01200,1,C,N","011265,1,N,1","+0110,1","+0080,1","99999,9","02,5,+00600,1,99,9","07,5,+01200,1,99,9",,,"07,99,1,99,9,99,9,99999,9,99,9,99,9",,"10129,1,99999,9","16,1",,,"MET063METAR ENSD 130650Z VRB02KT 9999 VCSH FEW020 BKN040 11/08 Q1013;",
"01320099999","2010-09-13T07:50:00","4","61.8333333","6.1166667","60.0","SANDANE ANDA, NO","FM-15","ENSD ","V020","999,9,C,0000,1","01200,1,C,N","011265,1,N,1","+0120,1","+0080,1","99999,9","02,5,+00600,1,99,9","07,5,+01200,1,99,9",,,"07,99,1,99,9,99,9,99999,9,99,9,99,9",,"10129,1,99999,9",,,,"MET058METAR ENSD 130750Z 00000KT 9999 FEW020 BKN040 12/08 Q1013;",
"01320099999","2010-09-13T08:50:00","4","61.8333333","6.1166667","60.0","SANDANE ANDA, NO","FM-15","ENSD ","V020","999,9,V,0021,1","01200,1,C,N","011265,1,N,1","+0120,1","+0070,1","99999,9","02,5,+00300,1,99,9","07,5,+01200,1,99,9",,,"07,99,1,99,9,99,9,99999,9,99,9,99,9",,"10129,1,99999,9","16,1",,,"MET063METAR ENSD 130850Z VRB04KT 9999 VCSH FEW010 BKN040 12/07 Q1013;",
"01320099999","2010-09-13T09:50:00","4","61.8333333","6.1166667","60.0","SANDANE ANDA, NO","FM-15","ENSD ","V020","070,1,N,0021,1","01200,1,C,N","011265,1,N,1","+0140,1","+0060,1","99999,9","02,5,+00750,1,99,9","07,5,+01200,1,99,9",,,"07,99,1,99,9,99,9,99999,9,99,9,99,9",,"10119,1,99999,9",,,,"MET058METAR ENSD 130950Z 07004KT 9999 FEW025 BKN040 14/06 Q1012;",
"01320099999","2010-09-13T10:50:00","4","61.8333333","6.1166667","60.0","SANDANE ANDA, NO","FM-15","ENSD ","V020","999,9,V,0010,1","01200,1,C,N","011265,1,N,1","+0140,1","+0060,1","99999,9","07,5,+01200,1,99,9",,,,"07,99,1,99,9,99,9,99999,9,99,9,99,9",,"10119,1,99999,9",,,,"MET051METAR ENSD 131050Z VRB02KT 9999 BKN040 14/06 Q1012;",
"01320099999","2010-09-13T11:50:00","4","61.8333333","6.1166667","60.0","SANDANE ANDA, NO","FM-15","ENSD ","V020","999,9,V,0021,1","01350,1,C,N","011265,1,N,1","+0150,1","+0030,1","99999,9","07,5,+01350,1,99,9",,,,"07,99,1,99,9,99,9,99999,9,99,9,99,9",,"10108,1,99999,9",,,,"MET051METAR ENSD 131150Z VRB04KT 9999 BKN045 15/03 Q1011;",
"01320099999","2010-09-13T12:50:00","4","61.8333333","6.1166667","60.0","SANDANE ANDA, NO","FM-15","ENSD ","V020","190,1,N,0036,1","01350,1,C,N","011265,1,N,1","+0150,1","+0040,1","99999,9","07,5,+01350,1,99,9",,,,"07,99,1,99,9,99,9,99999,9,99,9,99,9",,"10102,1,99999,9","80,1",,,"MET065METAR ENSD 131250Z 19007KT 110V260 9999 -SHRA BKN045 15/04 Q1010;",
"01320099999","2010-09-13T13:50:00","4","61.8333333","6.1166667","60.0","SANDANE ANDA, NO","FM-15","ENSD ","V020","999,9,V,0015,1","01350,1,C,N","011265,1,N,1","+0140,1","+0060,1","99999,9","07,5,+01350,1,99,9",,,,"07,99,1,99,9,99,9,99999,9,99,9,99,9",,"10091,1,99999,9",,,,"MET051METAR ENSD 131350Z VRB03KT 9999 BKN045 14/06 Q1009;",
"01320099999","2010-09-13T14:50:00","4","61.8333333","6.1166667","60.0","SANDANE ANDA, NO","FM-15","ENSD ","V020","120,1,N,0041,1","01350,1,C,N","011265,1,N,1","+0150,1","+0040,1","99999,9","07,5,+01350,1,99,9",,,,"07,99,1,99,9,99,9,99999,9,99,9,99,9",,"10081,1,99999,9",,,,"MET059METAR ENSD 131450Z 12008KT 080V170 9999 BKN045 15/04 Q1008;",
"01320099999","2010-09-13T15:50:00","4","61.8333333","6.1166667","60.0","SANDANE ANDA, NO","FM-15","ENSD ","V020","999,9,V,0021,1","01350,1,C,N","011265,1,N,1","+0140,1","+0050,1","99999,9","07,5,+01350,1,99,9",,,,"07,99,1,99,9,99,9,99999,9,99,9,99,9",,"10071,1,99999,9",,,,"MET051METAR ENSD 131550Z VRB04KT 9999 BKN045 14/05 Q1007;",
"01320099999","2010-09-13T16:50:00","4","61.8333333","6.1166667","60.0","SANDANE ANDA, NO","FM-15","ENSD ","V020","050,1,N,0041,1","01350,1,C,N","011265,1,N,1","+0150,1","+0050,1","99999,9","02,5,+01050,1,99,9","07,5,+01350,1,99,9",,,"07,99,1,99,9,99,9,99999,9,99,9,99,9",,"10061,1,99999,9","16,1",,,"MET071METAR ENSD 131650Z 05008KT 010V170 9999 VCSH FEW035 BKN045 15/05 Q1006;",
"01320099999","2010-09-13T17:50:00","4","61.8333333","6.1166667","60.0","SANDANE ANDA, NO","FM-15","ENSD ","V020","070,1,N,0031,1","01350,1,C,N","011265,1,N,1","+0150,1","+0050,1","99999,9","02,5,+01050,1,99,9","07,5,+01350,1,99,9",,,"07,99,1,99,9,99,9,99999,9,99,9,99,9",,"10051,1,99999,9",,,,"MET066METAR ENSD 131750Z 07006KT 030V110 9999 FEW035 BKN045 15/05 Q1005;",
"01320099999","2010-09-14T04:20:00","4","61.8333333","6.1166667","60.0","SANDANE ANDA, NO","FM-15","ENSD ","V020","999,9,V,0010,1","00900,1,C,N","011265,1,N,1","+0120,1","+0090,1","99999,9","02,5,+00600,1,99,9","07,5,+00900,1,99,9",,,"07,99,1,99,9,99,9,99999,9,99,9,99,9",,"09919,1,99999,9","51,1",,,"MET062METAR ENSD 140420Z VRB02KT 9999 -DZ FEW020 BKN030 12/09 Q0992;",
"01320099999","2010-09-14T04:50:00","4","61.8333333","6.1166667","60.0","SANDANE ANDA, NO","FM-15","ENSD ","V020","999,9,V,0005,1","00900,1,C,N","011265,1,N,1","+0120,1","+0090,1","99999,9","02,5,+00600,1,99,9","07,5,+00900,1,99,9",,,"07,99,1,99,9,99,9,99999,9,99,9,99,9",,"09919,1,99999,9","61,1",,,"MET062METAR ENSD 140450Z VRB01KT 9999 -RA FEW020 BKN030 12/09 Q0992;",
"01320099999","2010-09-14T05:50:00","4","61.8333333","6.1166667","60.0","SANDANE ANDA, NO","FM-15","ENSD ","V020","999,9,V,0021,1","00900,1,C,N","011265,1,N,1","+0120,1","+0090,1","99999,9","02,5,+00150,1,99,9","07,5,+00900,1,99,9",,,"07,99,1,99,9,99,9,99999,9,99,9,99,9",,"09919,1,99999,9","61,1",,,"MET062METAR ENSD 140550Z VRB04KT 9999 -RA FEW005 BKN030 12/09 Q0992;",
"01320099999","2010-09-14T06:50:00","4","61.8333333","6.1166667","60.0","SANDANE ANDA, NO","FM-15","ENSD ","V020","120,1,N,0031,1","01050,1,C,N","011265,1,N,1","+0130,1","+0090,1","99999,9","02,5,+00300,1,99,9","07,5,+01050,1,99,9",,,"07,99,1,99,9,99,9,99999,9,99,9,99,9",,"09929,1,99999,9",,,,"MET066METAR ENSD 140650Z 12006KT 060V200 9999 FEW010 BKN035 13/09 Q0993;",
"01320099999","2010-09-14T07:50:00","4","61.8333333","6.1166667","60.0","SANDANE ANDA, NO","FM-15","ENSD ","V020","090,1,N,0021,1","01050,1,C,N","011265,1,N,1","+0120,1","+0080,1","99999,9","02,5,+00750,1,99,9","07,5,+01050,1,99,9",,,"07,99,1,99,9,99,9,99999,9,99,9,99,9",,"09929,1,99999,9","16,1",,,"MET071METAR ENSD 140750Z 09004KT 360V150 9999 VCSH FEW025 BKN035 12/08 Q0993;",
"01320099999","2010-09-14T08:50:00","4","61.8333333","6.1166667","60.0","SANDANE ANDA, NO","FM-15","ENSD ","V020","180,1,N,0036,1","01050,1,C,N","011265,1,N,1","+0120,1","+0060,1","99999,9","02,5,+00750,1,99,9","07,5,+01050,1,99,9",,,"07,99,1,99,9,99,9,99999,9,99,9,99,9",,"09929,1,99999,9","80,1",,,"MET072METAR ENSD 140850Z 18007KT 130V210 9999 -SHRA FEW025 BKN035 12/06 Q0993;",
"01320099999","2010-09-14T09:50:00","4","61.8333333","6.1166667","60.0","SANDANE ANDA, NO","FM-15","ENSD ","V020","190,1,N,0046,1","01050,1,C,N","011265,1,N,1","+0130,1","+0060,1","99999,9","02,5,+00750,1,99,9","07,5,+01050,1,99,9",,,"07,99,1,99,9,99,9,99999,9,99,9,99,9",,"09919,1,99999,9","16,1",,"0098,1","MET074METAR ENSD 140950Z 19009G19KT 140V250 9999 VCSH FEW025 BKN035 13/06 Q0992;",
"01320099999","2010-09-14T10:50:00","4","61.8333333","6.1166667","60.0","SANDANE ANDA, NO","FM-15","ENSD ","V020","190,1,N,0026,1","01200,1,C,N","011265,1,N,1","+0140,1","+0060,1","99999,9","02,5,+00900,1,99,9","07,5,+01200,1,99,9",,,"07,99,1,99,9,99,9,99999,9,99,9,99,9",,"09919,1,99999,9","16,1",,,"MET071METAR ENSD 141050Z 19005KT 070V220 9999 VCSH FEW030 BKN040 14/06 Q0992;",
"01320099999","2010-09-14T11:50:00","4","61.8333333","6.1166667","60.0","SANDANE ANDA, NO","FM-15","ENSD ","V020","050,1,N,0036,1","01200,1,C,N","011265,1,N,1","+0120,1","+0060,1","99999,9","02,5,+01050,1,99,9","07,5,+01200,1,99,9",,,"07,99,1,99,9,99,9,99999,9,99,9,99,9",,"09919,1,99999,9","80,1",,,"MET064METAR ENSD 141150Z 05007KT 9999 -SHRA FEW035 BKN040 12/06 Q0992;",
"01320099999","2010-09-14T12:50:00","4","61.8333333","6.1166667","60.0","SANDANE ANDA, NO","FM-15","ENSD ","V020","310,1,N,0021,1","01200,1,C,N","011265,1,N,1","+0100,1","+0060,1","99999,9","02,5,+00600,1,99,9","07,5,+01200,1,99,9",,,"07,99,1,99,9,99,9,99999,9,99,9,99,9",,"09909,1,99999,9","80,1",,,"MET064METAR ENSD 141250Z 31004KT 9999 -SHRA FEW020 BKN040 10/06 Q0991;",
"01320099999","2010-09-14T14:50:00","4","61.8333333","6.1166667","60.0","SANDANE ANDA, NO","FM-15","ENSD ","V020","160,1,N,0021,1","01200,1,C,N","011265,1,N,1","+0090,1","+0050,1","99999,9","02,5,+00600,1,99,9","07,5,+01200,1,99,9",,,"07,99,1,99,9,99,9,99999,9,99,9,99,9",,"09909,1,99999,9","80,1",,,"MET064METAR ENSD 141450Z 16004KT 9999 -SHRA FEW020 BKN040 09/05 Q0991;",
"01320099999","2010-09-14T15:50:00","4","61.8333333","6.1166667","60.0","SANDANE ANDA, NO","FM-15","ENSD ","V020","200,1,N,0041,1","01200,1,C,N","011265,1,N,1","+0080,1","+0040,1","99999,9","02,5,+00600,1,99,9","07,5,+01200,1,99,9",,,"07,99,1,99,9,99,9,99999,9,99,9,99,9",,"09898,1,99999,9","80,1",,,"MET064METAR ENSD 141550Z 20008KT 9999 -SHRA FEW020 BKN040 08/04 Q0990;",
"01320099999","2010-09-14T17:50:00","4","61.8333333","6.1166667","60.0","SANDANE ANDA, NO","FM-15","ENSD ","V020","999,9,V,0010,1","01200,1,C,N","011265,1,N,1","+0070,1","+0040,1","99999,9","02,5,+00600,1,99,9","07,5,+01200,1,99,9",,,"07,99,1,99,9,99,9,99999,9,99,9,99,9",,"09892,1,99999,9",,,,"MET058METAR ENSD 141750Z VRB02KT 9999 FEW020 BKN040 07/04 Q0989;",
"01320099999","2010-09-14T18:50:00","4","61.8333333","6.1166667","60.0","SANDANE ANDA, NO","FM-15","ENSD ","V020","999,9,V,0005,1","01200,1,C,N","011265,1,N,1","+0070,1","+0040,1","99999,9","02,5,+00600,1,99,9","07,5,+01200,1,99,9",,,"07,99,1,99,9,99,9,99999,9,99,9,99,9",,"09892,1,99999,9","80,1",,,"MET064METAR ENSD 141850Z VRB01KT 9999 -SHRA FEW020 BKN040 07/04 Q0989;",
"01320099999","2010-09-15T03:50:00","4","61.8333333","6.1166667","60.0","SANDANE ANDA, NO","FM-15","ENSD ","V020","999,9,V,0010,1","01050,1,C,N","011265,1,N,1","+0070,1","+0030,1","99999,9","02,5,+00600,1,99,9","04,5,+01050,1,99,9","07,5,+01200,1,99,9",,"07,99,1,99,9,99,9,99999,9,99,9,99,9",,"09871,1,99999,9","80,1",,,"MET071METAR ENSD 150350Z VRB02KT 9999 -SHRA FEW020 SCT035 BKN040 07/03 Q0987;",
"01320099999","2010-09-15T04:50:00","4","61.8333333","6.1166667","60.0","SANDANE ANDA, NO","FM-15","ENSD ","V020","999,9,V,0010,1","01050,1,C,N","011265,1,N,1","+0060,1","+0030,1","99999,9","02,5,+00600,1,99,9","04,5,+01050,1,99,9","07,5,+01200,1,99,9",,"07,99,1,99,9,99,9,99999,9,99,9,99,9",,"09882,1,99999,9",,,,"MET065METAR ENSD 150450Z VRB02KT 9999 FEW020 SCT035 BKN040 06/03 Q0988;",
"01320099999","2010-09-15T05:50:00","4","61.8333333","6.1166667","60.0","SANDANE ANDA, NO","FM-15","ENSD ","V020","260,1,N,0015,1","01050,1,C,N","011265,1,N,1","+0070,1","+0030,1","99999,9","02,5,+00600,1,99,9","04,5,+01050,1,99,9","07,5,+01200,1,99,9",,"07,99,1,99,9,99,9,99999,9,99,9,99,9",,"09882,1,99999,9",,,,"MET065METAR ENSD 150550Z 26003KT 9999 FEW020 SCT035 BKN040 07/03 Q0988;",
"01320099999","2010-09-15T06:50:00","4","61.8333333","6.1166667","60.0","SANDANE ANDA, NO","FM-15","ENSD ","V020","999,9,V,0005,1","01200,1,C,N","011265,1,N,1","+0070,1","+0030,1","99999,9","02,5,+00600,1,99,9","07,5,+01200,1,99,9",,,"07,99,1,99,9,99,9,99999,9,99,9,99,9",,"09882,1,99999,9",,,,"MET058METAR ENSD 150650Z VRB01KT 9999 FEW020 BKN040 07/03 Q0988;",
"01320099999","2010-09-15T07:50:00","4","61.8333333","6.1166667","60.0","SANDANE ANDA, NO","FM-15","ENSD ","V020","999,9,V,0005,1","01200,1,C,N","011265,1,N,1","+0070,1","+0040,1","99999,9","02,5,+01050,1,99,9","07,5,+01200,1,99,9",,,"07,99,1,99,9,99,9,99999,9,99,9,99,9",,"09882,1,99999,9",,,,"MET058METAR ENSD 150750Z VRB01KT 9999 FEW035 BKN040 07/04 Q0988;",
"01320099999","2010-09-15T08:50:00","4","61.8333333","6.1166667","60.0","SANDANE ANDA, NO","FM-15","ENSD ","V020","220,1,N,0015,1","01200,1,C,N","011265,1,N,1","+0080,1","+0020,1","99999,9","02,5,+01050,1,99,9","07,5,+01200,1,99,9",,,"07,99,1,99,9,99,9,99999,9,99,9,99,9",,"09882,1,99999,9",,,,"MET058METAR ENSD 150850Z 22003KT 9999 FEW035 BKN040 08/02 Q0988;",
"01320099999","2010-09-15T09:50:00","4","61.8333333","6.1166667","60.0","SANDANE ANDA, NO","FM-15","ENSD ","V020","999,9,V,0010,1","01200,1,C,N","011265,1,N,1","+0100,1","+0030,1","99999,9","02,5,+00900,1,99,9","07,5,+01200,1,99,9",,,"07,99,1,99,9,99,9,99999,9,99,9,99,9",,"09882,1,99999,9",,,,"MET058METAR ENSD 150950Z VRB02KT 9999 FEW030 BKN040 10/03 Q0988;",
"01320099999","2010-09-15T10:50:00","4","61.8333333","6.1166667","60.0","SANDANE ANDA, NO","FM-15","ENSD ","V020","999,9,V,0010,1","01200,1,C,N","011265,1,N,1","+0100,1","+0020,1","99999,9","02,5,+00900,1,99,9","07,5,+01200,1,99,9",,,"07,99,1,99,9,99,9,99999,9,99,9,99,9",,"09882,1,99999,9",,,,"MET058METAR ENSD 151050Z VRB02KT 9999 FEW030 BKN040 10/02 Q0988;",
"01320099999","2010-09-15T11:50:00","4","61.8333333","6.1166667","60.0","SANDANE ANDA, NO","FM-15","ENSD ","V020","999,9,V,0015,1","01800,1,C,N","011265,1,N,1","+0110,1","+0030,1","99999,9","04,5,+01350,1,99,9","07,5,+01800,1,99,9",,,"07,99,1,99,9,99,9,99999,9,99,9,99,9",,"09882,1,99999,9",,,,"MET058METAR ENSD 151150Z VRB03KT 9999 SCT045 BKN060 11/03 Q0988;",
"01320099999","2010-09-15T12:50:00","4","61.8333333","6.1166667","60.0","SANDANE ANDA, NO","FM-15","ENSD ","V020","210,1,N,0031,1","02100,1,C,N","011265,1,N,1","+0110,1","+0020,1","99999,9","04,5,+01350,1,99,9","07,5,+02100,1,99,9",,,"07,99,1,99,9,99,9,99999,9,99,9,99,9",,"09882,1,99999,9",,,,"MET066METAR ENSD 151250Z 21006KT 170V250 9999 SCT045 BKN070 11/02 Q0988;",
"01320099999","2010-09-15T13:50:00","4","61.8333333","6.1166667","60.0","SANDANE ANDA, NO","FM-15","ENSD ","V020","999,9,V,0010,1","01200,1,C,N","011265,1,N,1","+0110,1","+0030,1","99999,9","07,5,+01200,1,99,9",,,,"07,99,1,99,9,99,9,99999,9,99,9,99,9",,"09882,1,99999,9",,,,"MET051METAR ENSD 151350Z VRB02KT 9999 BKN040 11/03 Q0988;",
"01320099999","2010-09-15T14:50:00","4","61.8333333","6.1166667","60.0","SANDANE ANDA, NO","FM-15","ENSD ","V020","999,9,V,0015,1","01200,1,C,N","011265,1,N,1","+0100,1","+0030,1","99999,9","02,5,+00450,1,99,9","07,5,+01200,1,99,9",,,"07,99,1,99,9,99,9,99999,9,99,9,99,9",,"09882,1,99999,9",,,,"MET058METAR ENSD 151450Z VRB03KT 9999 FEW015 BKN040 10/03 Q0988;",
"01320099999","2010-09-15T15:50:00","4","61.8333333","6.1166667","60.0","SANDANE ANDA, NO","FM-15","ENSD ","V020","050,1,N,0026,1","01350,1,C,N","011265,1,N,1","+0110,1","+0030,1","99999,9","02,5,+00900,1,99,9","07,5,+01350,1,99,9",,,"07,99,1,99,9,99,9,99999,9,99,9,99,9",,"09882,1,99999,9",,,,"MET066METAR ENSD 151550Z 05005KT 010V110 9999 FEW030 BKN045 11/03 Q0988;",
"01320099999","2010-09-15T17:50:00","4","61.8333333","6.1166667","60.0","SANDANE ANDA, NO","FM-15","ENSD ","V020","999,9,V,0021,1","01200,1,C,N","011265,1,N,1","+0100,1","+0040,1","99999,9","04,5,+01050,1,99,9","07,5,+01200,1,99,9",,,"07,99,1,99,9,99,9,99999,9,99,9,99,9",,"09871,1,99999,9",,,,"MET058METAR ENSD 151750Z VRB04KT 9999 SCT035 BKN040 10/04 Q0987;",
"01320099999","2010-09-15T18:50:00","4","61.8333333","6.1166667","60.0","SANDANE ANDA, NO","FM-15","ENSD ","V020","130,1,N,0031,1","01200,1,C,N","011265,1,N,1","+0110,1","+0030,1","99999,9","02,5,+01050,1,99,9","07,5,+01200,1,99,9",,,"07,99,1,99,9,99,9,99999,9,99,9,99,9",,"09871,1,99999,9",,,,"MET066METAR ENSD 151850Z 13006KT 080V180 9999 FEW035 BKN040 11/03 Q0987;",
"01320099999","2010-09-16T03:50:00","4","61.8333333","6.1166667","60.0","SANDANE ANDA, NO","FM-15","ENSD ","V020","030,1,N,0015,1","01050,1,C,N","011265,1,N,1","+0080,1","+0060,1","99999,9","02,5,+00360,1,99,9","07,5,+01050,1,99,9",,,"07,99,1,99,9,99,9,99999,9,99,9,99,9",,"09831,1,99999,9","63,1",,,"MET061METAR ENSD 160350Z 03003KT 9999 RA FEW012 BKN035 08/06 Q0983;",
"01320099999","2010-09-16T04:50:00","4","61.8333333","6.1166667","60.0","SANDANE ANDA, NO","FM-15","ENSD ","V020","050,1,N,0026,1","00900,1,C,N","011265,1,N,1","+0080,1","+0060,1","99999,9","02,5,+00120,1,99,9","07,5,+00900,1,99,9",,,"07,99,1,99,9,99,9,99999,9,99,9,99,9",,"09831,1,99999,9","63,1",,,"MET061METAR ENSD 160450Z 05005KT 9999 RA FEW004 BKN030 08/06 Q0983;",
"01320099999","2010-09-16T05:50:00","4","61.8333333","6.1166667","60.0","SANDANE ANDA, NO","FM-15","ENSD ","V020","040,1,N,0021,1","00360,1,C,N","011265,1,N,1","+0080,1","+0060,1","99999,9","02,5,+00180,1,99,9","04,5,+00360,1,99,9","07,5,+00900,1,99,9",,"07,99,1,99,9,99,9,99999,9,99,9,99,9",,"09831,1,99999,9","61,1",,,"MET069METAR ENSD 160550Z 04004KT 9999 -RA FEW006 SCT012 BKN030 08/06 Q0983;",
"01320099999","2010-09-16T06:50:00","4","61.8333333","6.1166667","60.0","SANDANE ANDA, NO","FM-15","ENSD ","V020","999,9,V,0010,1","00900,1,C,N","011265,1,N,1","+0080,1","+0060,1","99999,9","04,5,+00240,1,99,9","07,5,+00900,1,99,9","02,1,+22000,1,99,9",,"07,99,1,99,9,99,9,99999,9,99,9,99,9",,"09841,1,99999,9","63,1",,,"MET068METAR ENSD 160650Z VRB02KT 9999 RA FEW996 SCT008 BKN030 08/06 Q0984;",
"01320099999","2010-09-16T07:50:00","4","61.8333333","6.1166667","60.0","SANDANE ANDA, NO","FM-15","ENSD ","V020","290,1,N,0015,1","01200,1,C,N","011265,1,N,1","+0080,1","+0040,1","99999,9","02,5,+00120,1,99,9","07,5,+01200,1,99,9",,,"07,99,1,99,9,99,9,99999,9,99,9,99,9",,"09841,1,99999,9","61,1",,,"MET062METAR ENSD 160750Z 29003KT 9999 -RA FEW004 BKN040 08/04 Q0984;",
"01320099999","2010-09-16T08:50:00","4","61.8333333","6.1166667","60.0","SANDANE ANDA, NO","FM-15","ENSD ","V020","999,9,V,0015,1","01500,1,C,N","011265,1,N,1","+0080,1","+0050,1","99999,9","02,5,+00360,1,99,9","07,5,+01500,1,99,9",,,"07,99,1,99,9,99,9,99999,9,99,9,99,9",,"09841,1,99999,9",,,,"MET063METAR ENSD 160850Z VRB03KT 9999 FEW012 BKN050 08/05 Q0984 RERA;",
"01320099999","2010-09-16T09:50:00","4","61.8333333","6.1166667","60.0","SANDANE ANDA, NO","FM-15","ENSD ","V020","999,9,V,0005,1","01500,1,C,N","011265,1,N,1","+0090,1","+0050,1","99999,9","02,5,+00300,1,99,9","07,5,+01500,1,99,9",,,"07,99,1,99,9,99,9,99999,9,99,9,99,9",,"09841,1,99999,9",,,,"MET058METAR ENSD 160950Z VRB01KT 9999 FEW010 BKN050 09/05 Q0984;",
"01320099999","2010-09-16T10:50:00","4","61.8333333","6.1166667","60.0","SANDANE ANDA, NO","FM-15","ENSD ","V020","999,9,V,0015,1","01350,1,C,N","011265,1,N,1","+0100,1","+0050,1","99999,9","02,5,+00360,1,99,9","07,5,+01350,1,99,9",,,"07,99,1,99,9,99,9,99999,9,99,9,99,9",,"09841,1,99999,9",,,,"MET058METAR ENSD 161050Z VRB03KT 9999 FEW012 BKN045 10/05 Q0984;",
"01320099999","2010-09-16T11:50:00","4","61.8333333","6.1166667","60.0","SANDANE ANDA, NO","FM-15","ENSD ","V020","999,9,V,0015,1","01350,1,C,N","011265,1,N,1","+0100,1","+0040,1","99999,9","02,5,+00360,1,99,9","07,5,+01350,1,99,9",,,"07,99,1,99,9,99,9,99999,9,99,9,99,9",,"09841,1,99999,9",,,,"MET058METAR ENSD 161150Z VRB03KT 9999 FEW012 BKN045 10/04 Q0984;",
"01320099999","2010-09-16T12:50:00","4","61.8333333","6.1166667","60.0","SANDANE ANDA, NO","FM-15","ENSD ","V020","999,9,V,0015,1","01350,1,C,N","011265,1,N,1","+0100,1","+0050,1","99999,9","02,5,+00900,1,99,9","07,5,+01350,1,99,9",,,"07,99,1,99,9,99,9,99999,9,99,9,99,9",,"09831,1,99999,9",,,,"MET058METAR ENSD 161250Z VRB03KT 9999 FEW030 BKN045 10/05 Q0983;",
"01320099999","2010-09-16T13:50:00","4","61.8333333","6.1166667","60.0","SANDANE ANDA, NO","FM-15","ENSD ","V020","060,1,N,0026,1","01350,1,C,N","011265,1,N,1","+0100,1","+0050,1","99999,9","02,5,+00900,1,99,9","07,5,+01350,1,99,9",,,"07,99,1,99,9,99,9,99999,9,99,9,99,9",,"09831,1,99999,9",,,,"MET058METAR ENSD 161350Z 06005KT 9999 FEW030 BKN045 10/05 Q0983;",
"01320099999","2010-09-16T14:50:00","4","61.8333333","6.1166667","60.0","SANDANE ANDA, NO","FM-15","ENSD ","V020","070,1,N,0026,1","01200,1,C,N","011265,1,N,1","+0100,1","+0050,1","99999,9","02,5,+00900,1,99,9","07,5,+01200,1,99,9",,,"07,99,1,99,9,99,9,99999,9,99,9,99,9",,"09831,1,99999,9",,,,"MET058METAR ENSD 161450Z 07005KT 9999 FEW030 BKN040 10/05 Q0983;",
"01320099999","2010-09-16T15:50:00","4","61.8333333","6.1166667","60.0","SANDANE ANDA, NO","FM-15","ENSD ","V020","110,1,N,0015,1","01200,1,C,N","011265,1,N,1","+0100,1","+0050,1","99999,9","02,5,+00900,1,99,9","07,5,+01200,1,99,9",,,"07,99,1,99,9,99,9,99999,9,99,9,99,9",,"09831,1,99999,9",,,,"MET058METAR ENSD 161550Z 11003KT 9999 FEW030 BKN040 10/05 Q0983;",
"01320099999","2010-09-16T16:50:00","4","61.8333333","6.1166667","60.0","SANDANE ANDA, NO","FM-15","ENSD ","V020","999,9,V,0010,1","01200,1,C,N","011265,1,N,1","+0100,1","+0050,1","99999,9","02,5,+00900,1,99,9","07,5,+01200,1,99,9",,,"07,99,1,99,9,99,9,99999,9,99,9,99,9",,"09831,1,99999,9",,,,"MET058METAR ENSD 161650Z VRB02KT 9999 FEW030 BKN040 10/05 Q0983;",
"01320099999","2010-09-16T17:50:00","4","61.8333333","6.1166667","60.0","SANDANE ANDA, NO","FM-15","ENSD ","V020","190,1,N,0015,1","01200,1,C,N","011265,1,N,1","+0090,1","+0060,1","99999,9","02,5,+00750,1,99,9","07,5,+01200,1,99,9",,,"07,99,1,99,9,99,9,99999,9,99,9,99,9",,"09841,1,99999,9",,,,"MET058METAR ENSD 161750Z 19003KT 9999 FEW025 BKN040 09/06 Q0984;",
"01320099999","2010-09-16T18:50:00","4","61.8333333","6.1166667","60.0","SANDANE ANDA, NO","FM-15","ENSD ","V020","150,1,N,0015,1","01050,1,C,N","011265,1,N,1","+0090,1","+0050,1","99999,9","02,5,+00150,1,99,9","07,5,+01050,1,99,9",,,"07,99,1,99,9,99,9,99999,9,99,9,99,9",,"09841,1,99999,9",,,,"MET058METAR ENSD 161850Z 15003KT 9999 FEW005 BKN035 09/05 Q0984;",
"01320099999","2010-09-17T04:20:00","4","61.8333333","6.1166667","60.0","SANDANE ANDA, NO","FM-15","ENSD ","V020","999,9,V,0010,1","00900,1,C,N","011265,1,N,1","+0090,1","+0050,1","99999,9","04,5,+00450,1,99,9","07,5,+00900,1,99,9",,,"07,99,1,99,9,99,9,99999,9,99,9,99,9",,"09892,1,99999,9",,,,"MET058METAR ENSD 170420Z VRB02KT 9999 SCT015 BKN030 09/05 Q0989;",
"01320099999","2010-09-17T05:50:00","4","61.8333333","6.1166667","60.0","SANDANE ANDA, NO","FM-15","ENSD ","V020","170,1,N,0015,1","00900,1,C,N","011265,1,N,1","+0090,1","+0050,1","99999,9","02,5,+00300,1,99,9","07,5,+00900,1,99,9",,,"07,99,1,99,9,99,9,99999,9,99,9,99,9",,"09898,1,99999,9",,,,"MET058METAR ENSD 170550Z 17003KT 9999 FEW010 BKN030 09/05 Q0990;",
"01320099999","2010-09-17T06:50:00","4","61.8333333","6.1166667","60.0","SANDANE ANDA, NO","FM-15","ENSD ","V020","999,9,V,0005,1","00900,1,C,N","011265,1,N,1","+0090,1","+0060,1","99999,9","02,5,+00300,1,99,9","07,5,+00900,1,99,9",,,"07,99,1,99,9,99,9,99999,9,99,9,99,9",,"09898,1,99999,9",,,,"MET058METAR ENSD 170650Z VRB01KT 9999 FEW010 BKN030 09/06 Q0990;",
"01320099999","2010-09-17T07:50:00","4","61.8333333","6.1166667","60.0","SANDANE ANDA, NO","FM-15","ENSD ","V020","999,9,V,0010,1","01500,1,C,N","011265,1,N,1","+0100,1","+0060,1","99999,9","04,5,+00450,1,99,9","07,5,+01500,1,99,9",,,"07,99,1,99,9,99,9,99999,9,99,9,99,9",,"09909,1,99999,9",,,,"MET058METAR ENSD 170750Z VRB02KT 9999 SCT015 BKN050 10/06 Q0991;",
"01320099999","2010-09-17T08:50:00","4","61.8333333","6.1166667","60.0","SANDANE ANDA, NO","FM-15","ENSD ","V020","999,9,V,0010,1","01500,1,C,N","011265,1,N,1","+0100,1","+0050,1","99999,9","02,5,+00450,1,99,9","07,5,+01500,1,99,9",,,"07,99,1,99,9,99,9,99999,9,99,9,99,9",,"09909,1,99999,9",,,,"MET058METAR ENSD 170850Z VRB02KT 9999 FEW015 BKN050 10/05 Q0991;",
"01320099999","2010-09-17T10:50:00","4","61.8333333","6.1166667","60.0","SANDANE ANDA, NO","FM-15","ENSD ","V020","260,1,N,0021,1","01500,1,C,N","011265,1,N,1","+0110,1","+0050,1","99999,9","02,5,+00450,1,99,9","07,5,+01500,1,99,9",,,"07,99,1,99,9,99,9,99999,9,99,9,99,9",,"09919,1,99999,9",,,,"MET058METAR ENSD 171050Z 26004KT 9999 FEW015 BKN050 11/05 Q0992;",
"01320099999","2010-09-17T11:50:00","4","61.8333333","6.1166667","60.0","SANDANE ANDA, NO","FM-15","ENSD ","V020","999,9,V,0010,1","01500,1,C,N","011265,1,N,1","+0110,1","+0060,1","99999,9","02,5,+00450,1,99,9","07,5,+01500,1,99,9",,,"07,99,1,99,9,99,9,99999,9,99,9,99,9",,"09919,1,99999,9",,,,"MET058METAR ENSD 171150Z VRB02KT 9999 FEW015 BKN050 11/06 Q0992;",
"01320099999","2010-09-17T12:50:00","4","61.8333333","6.1166667","60.0","SANDANE ANDA, NO","FM-15","ENSD ","V020","999,9,V,0010,1","01500,1,C,N","011265,1,N,1","+0110,1","+0050,1","99999,9","02,5,+00450,1,99,9","07,5,+01500,1,99,9",,,"07,99,1,99,9,99,9,99999,9,99,9,99,9",,"09919,1,99999,9",,,,"MET058METAR ENSD 171250Z VRB02KT 9999 FEW015 BKN050 11/05 Q0992;",
"01320099999","2010-09-17T13:50:00","4","61.8333333","6.1166667","60.0","SANDANE ANDA, NO","FM-15","ENSD ","V020","270,1,N,0015,1","01500,1,C,N","011265,1,N,1","+0110,1","+0050,1","99999,9","02,5,+00450,1,99,9","07,5,+01500,1,99,9",,,"07,99,1,99,9,99,9,99999,9,99,9,99,9",,"09919,1,99999,9",,,,"MET058METAR ENSD 171350Z 27003KT 9999 FEW015 BKN050 11/05 Q0992;",
"01320099999","2010-09-17T14:50:00","4","61.8333333","6.1166667","60.0","SANDANE ANDA, NO","FM-15","ENSD ","V020","250,1,N,0021,1","01200,1,C,N","011265,1,N,1","+0100,1","+0050,1","99999,9","02,5,+00300,1,99,9","04,5,+01200,1,99,9","07,5,+01350,1,99,9",,"07,99,1,99,9,99,9,99999,9,99,9,99,9",,"09919,1,99999,9","80,1",,,"MET071METAR ENSD 171450Z 25004KT 9999 -SHRA FEW010 SCT040 BKN045 10/05 Q0992;",
"01320099999","2010-09-17T15:50:00","4","61.8333333","6.1166667","60.0","SANDANE ANDA, NO","FM-15","ENSD ","V020","999,9,V,0010,1","01200,1,C,N","011265,1,N,1","+0100,1","+0060,1","99999,9","02,5,+00300,1,99,9","04,5,+01200,1,99,9","07,5,+01350,1,99,9",,"07,99,1,99,9,99,9,99999,9,99,9,99,9",,"09919,1,99999,9",,,,"MET065METAR ENSD 171550Z VRB02KT 9999 FEW010 SCT040 BKN045 10/06 Q0992;",
"01320099999","2010-09-17T16:50:00","4","61.8333333","6.1166667","60.0","SANDANE ANDA, NO","FM-15","ENSD ","V020","270,1,N,0015,1","00600,1,C,N","011265,1,N,1","+0090,1","+0060,1","99999,9","02,5,+00300,1,99,9","04,5,+00600,1,99,9","07,5,+00900,1,99,9",,"07,99,1,99,9,99,9,99999,9,99,9,99,9",,"09919,1,99999,9","80,1",,,"MET071METAR ENSD 171650Z 27003KT 9999 -SHRA FEW010 SCT020 BKN030 09/06 Q0992;",
"01320099999","2010-09-17T17:50:00","4","61.8333333","6.1166667","60.0","SANDANE ANDA, NO","FM-15","ENSD ","V020","290,1,N,0021,1","00600,1,C,N","011265,1,N,1","+0090,1","+0060,1","99999,9","02,5,+00300,1,99,9","04,5,+00600,1,99,9","07,5,+00900,1,99,9",,"07,99,1,99,9,99,9,99999,9,99,9,99,9",,"09919,1,99999,9","80,1",,,"MET071METAR ENSD 171750Z 29004KT 9999 -SHRA FEW010 SCT020 BKN030 09/06 Q0992;",
"01320099999","2010-09-17T18:50:00","4","61.8333333","6.1166667","60.0","SANDANE ANDA, NO","FM-15","ENSD ","V020","999,9,V,0010,1","00600,1,C,N","011265,1,N,1","+0090,1","+0050,1","99999,9","02,5,+00300,1,99,9","04,5,+00600,1,99,9","07,5,+00750,1,99,9",,"07,99,1,99,9,99,9,99999,9,99,9,99,9",,"09919,1,99999,9","80,1",,,"MET071METAR ENSD 171850Z VRB02KT 9999 -SHRA FEW010 SCT020 BKN025 09/05 Q0992;",
"01320099999","2010-09-18T04:50:00","4","61.8333333","6.1166667","60.0","SANDANE ANDA, NO","FM-15","ENSD ","V020","999,9,V,0005,1","00210,1,C,N","011265,1,N,1","+0080,1","+0050,1","99999,9","02,5,+00090,1,99,9","04,5,+00210,1,99,9","07,5,+00600,1,99,9",,"07,99,1,99,9,99,9,99999,9,99,9,99,9",,"09959,1,99999,9",,,,"MET065METAR ENSD 180450Z VRB01KT 9999 FEW003 SCT007 BKN020 08/05 Q0996;",
"01320099999","2010-09-18T05:50:00","4","61.8333333","6.1166667","60.0","SANDANE ANDA, NO","FM-15","ENSD ","V020","999,9,V,0005,1","00600,1,C,N","011265,1,N,1","+0080,1","+0060,1","99999,9","04,5,+00210,1,99,9","07,5,+00600,1,99,9",,,"07,99,1,99,9,99,9,99999,9,99,9,99,9",,"09959,1,99999,9",,,,"MET058METAR ENSD 180550Z VRB01KT 9999 SCT007 BKN020 08/06 Q0996;",
"01320099999","2010-09-18T06:50:00","4","61.8333333","6.1166667","60.0","SANDANE ANDA, NO","FM-15","ENSD ","V020","999,9,V,0005,1","00600,1,C,N","011265,1,N,1","+0080,1","+0060,1","99999,9","02,5,+00210,1,99,9","07,5,+00600,1,99,9",,,"07,99,1,99,9,99,9,99999,9,99,9,99,9",,"09970,1,99999,9",,,,"MET058METAR ENSD 180650Z VRB01KT 9999 FEW007 BKN020 08/06 Q0997;",
"01320099999","2010-09-18T07:50:00","4","61.8333333","6.1166667","60.0","SANDANE ANDA, NO","FM-15","ENSD ","V020","250,1,N,0021,1","00600,1,C,N","011265,1,N,1","+0080,1","+0060,1","99999,9","02,5,+00090,1,99,9","04,5,+00600,1,99,9","07,5,+00750,1,99,9",,"07,99,1,99,9,99,9,99999,9,99,9,99,9",,"09970,1,99999,9",,,,"MET065METAR ENSD 180750Z 25004KT 9999 FEW003 SCT020 BKN025 08/06 Q0997;",
"01320099999","2010-09-18T08:50:00","4","61.8333333","6.1166667","60.0","SANDANE ANDA, NO","FM-15","ENSD ","V020","230,1,N,0021,1","00600,1,C,N","011265,1,N,1","+0090,1","+0050,1","99999,9","02,5,+00090,1,99,9","04,5,+00600,1,99,9","07,5,+00900,1,99,9",,"07,99,1,99,9,99,9,99999,9,99,9,99,9",,"09980,1,99999,9",,,,"MET065METAR ENSD 180850Z 23004KT 9999 FEW003 SCT020 BKN030 09/05 Q0998;",
"01320099999","2010-09-18T09:50:00","4","61.8333333","6.1166667","60.0","SANDANE ANDA, NO","FM-15","ENSD ","V020","180,1,N,0015,1","00600,1,C,N","011265,1,N,1","+0090,1","+0050,1","99999,9","02,5,+00150,1,99,9","04,5,+00600,1,99,9","07,5,+01200,1,99,9",,"07,99,1,99,9,99,9,99999,9,99,9,99,9",,"09980,1,99999,9",,,,"MET065METAR ENSD 180950Z 18003KT 9999 FEW005 SCT020 BKN040 09/05 Q0998;",
"01320099999","2010-09-18T10:50:00","4","61.8333333","6.1166667","60.0","SANDANE ANDA, NO","FM-15","ENSD ","V020","180,1,N,0015,1","00600,1,C,N","011265,1,N,1","+0090,1","+0050,1","99999,9","02,5,+00150,1,99,9","04,5,+00600,1,99,9","07,5,+00900,1,99,9",,"07,99,1,99,9,99,9,99999,9,99,9,99,9",,"09980,1,99999,9",,,,"MET065METAR ENSD 181050Z 18003KT 9999 FEW005 SCT020 BKN030 09/05 Q0998;",
"01320099999","2010-09-18T11:50:00","4","61.8333333","6.1166667","60.0","SANDANE ANDA, NO","FM-15","ENSD ","V020","999,9,V,0010,1","00450,1,C,N","011265,1,N,1","+0090,1","+0050,1","99999,9","02,5,+00150,1,99,9","04,5,+00450,1,99,9","07,5,+00750,1,99,9",,"07,99,1,99,9,99,9,99999,9,99,9,99,9",,"09990,1,99999,9","80,1",,,"MET071METAR ENSD 181150Z VRB02KT 9999 -SHRA FEW005 SCT015 BKN025 09/05 Q0999;",
"01320099999","2010-09-18T12:50:00","4","61.8333333","6.1166667","60.0","SANDANE ANDA, NO","FM-15","ENSD ","V020","999,9,V,0010,1","00450,1,C,N","011265,1,N,1","+0090,1","+0050,1","99999,9","02,5,+00150,1,99,9","04,5,+00450,1,99,9","07,5,+00750,1,99,9",,"07,99,1,99,9,99,9,99999,9,99,9,99,9",,"09990,1,99999,9","80,1",,,"MET071METAR ENSD 181250Z VRB02KT 9999 -SHRA FEW005 SCT015 BKN025 09/05 Q0999;",
"01320099999","2010-09-19T08:50:00","4","61.8333333","6.1166667","60.0","SANDANE ANDA, NO","FM-15","ENSD ","V020","999,9,V,0010,1","00600,1,C,N","011265,1,N,1","+0090,1","+0060,1","99999,9","02,5,+00150,1,99,9","04,5,+00600,1,99,9","07,5,+00900,1,99,9",,"07,99,1,99,9,99,9,99999,9,99,9,99,9",,"10031,1,99999,9",,,,"MET065METAR ENSD 190850Z VRB02KT 9999 FEW005 SCT020 BKN030 09/06 Q1003;",
"01320099999","2010-09-19T09:50:00","4","61.8333333","6.1166667","60.0","SANDANE ANDA, NO","FM-15","ENSD ","V020","999,9,V,0010,1","00600,1,C,N","011265,1,N,1","+0090,1","+0060,1","99999,9","02,5,+00150,1,99,9","04,5,+00600,1,99,9","07,5,+00750,1,99,9",,"07,99,1,99,9,99,9,99999,9,99,9,99,9",,"10041,1,99999,9",,,,"MET065METAR ENSD 190950Z VRB02KT 9999 FEW005 SCT020 BKN025 09/06 Q1004;",
"01320099999","2010-09-19T10:50:00","4","61.8333333","6.1166667","60.0","SANDANE ANDA, NO","FM-15","ENSD ","V020","999,9,V,0010,1","00600,1,C,N","011265,1,N,1","+0090,1","+0060,1","99999,9","02,5,+00150,1,99,9","04,5,+00600,1,99,9","07,5,+00900,1,99,9",,"07,99,1,99,9,99,9,99999,9,99,9,99,9",,"10041,1,99999,9",,,,"MET065METAR ENSD 191050Z VRB02KT 9999 FEW005 SCT020 BKN030 09/06 Q1004;",
"01320099999","2010-09-19T11:50:00","4","61.8333333","6.1166667","60.0","SANDANE ANDA, NO","FM-15","ENSD ","V020","999,9,V,0010,1","00600,1,C,N","011265,1,N,1","+0090,1","+0060,1","99999,9","02,5,+00150,1,99,9","04,5,+00600,1,99,9","07,5,+00900,1,99,9",,"07,99,1,99,9,99,9,99999,9,99,9,99,9",,"10041,1,99999,9",,,,"MET065METAR ENSD 191150Z VRB02KT 9999 FEW005 SCT020 BKN030 09/06 Q1004;",
"01320099999","2010-09-19T14:50:00","4","61.8333333","6.1166667","60.0","SANDANE ANDA, NO","FM-15","ENSD ","V020","999,9,V,0005,1","00600,1,C,N","011265,1,N,1","+0100,1","+0060,1","99999,9","02,5,+00150,1,99,9","04,5,+00600,1,99,9","07,5,+00750,1,99,9",,"07,99,1,99,9,99,9,99999,9,99,9,99,9",,"10041,1,99999,9",,,,"MET065METAR ENSD 191450Z VRB01KT 9999 FEW005 SCT020 BKN025 10/06 Q1004;",
"01320099999","2010-09-19T15:50:00","4","61.8333333","6.1166667","60.0","SANDANE ANDA, NO","FM-15","ENSD ","V020","999,9,V,0005,1","00600,1,C,N","011265,1,N,1","+0100,1","+0060,1","99999,9","02,5,+00150,1,99,9","04,5,+00600,1,99,9","07,5,+00900,1,99,9",,"07,99,1,99,9,99,9,99999,9,99,9,99,9",,"10041,1,99999,9",,,,"MET065METAR ENSD 191550Z VRB01KT 9999 FEW005 SCT020 BKN030 10/06 Q1004;",
"01320099999","2010-09-19T16:50:00","4","61.8333333","6.1166667","60.0","SANDANE ANDA, NO","FM-15","ENSD ","V020","999,9,V,0010,1","00600,1,C,N","011265,1,N,1","+0090,1","+0060,1","99999,9","02,5,+00150,1,99,9","04,5,+00600,1,99,9","07,5,+00900,1,99,9",,"07,99,1,99,9,99,9,99999,9,99,9,99,9",,"10041,1,99999,9",,,,"MET065METAR ENSD 191650Z VRB02KT 9999 FEW005 SCT020 BKN030 09/06 Q1004;",
"01320099999","2010-09-19T17:50:00","4","61.8333333","6.1166667","60.0","SANDANE ANDA, NO","FM-15","ENSD ","V020","999,9,V,0010,1","00450,1,C,N","011265,1,N,1","+0080,1","+0060,1","99999,9","02,5,+00150,1,99,9","04,5,+00450,1,99,9","07,5,+00750,1,99,9",,"07,99,1,99,9,99,9,99999,9,99,9,99,9",,"10051,1,99999,9",,,,"MET065METAR ENSD 191750Z VRB02KT 9999 FEW005 SCT015 BKN025 08/06 Q1005;",
"01320099999","2010-09-19T18:50:00","4","61.8333333","6.1166667","60.0","SANDANE ANDA, NO","FM-15","ENSD ","V020","160,1,N,0015,1","00450,1,C,N","011265,1,N,1","+0080,1","+0060,1","99999,9","02,5,+00090,1,99,9","04,5,+00450,1,99,9","07,5,+00750,1,99,9",,"07,99,1,99,9,99,9,99999,9,99,9,99,9",,"10051,1,99999,9",,,,"MET065METAR ENSD 191850Z 16003KT 9999 FEW003 SCT015 BKN025 08/06 Q1005;",
"01320099999","2010-09-20T03:50:00","4","61.8333333","6.1166667","60.0","SANDANE ANDA, NO","FM-15","ENSD ","V020","999,9,V,0010,1","01050,1,C,N","011265,1,N,1","+0080,1","+0060,1","99999,9","02,5,+00120,1,99,9","07,5,+01050,1,99,9",,,"07,99,1,99,9,99,9,99999,9,99,9,99,9",,"10041,1,99999,9","61,1",,,"MET062METAR ENSD 200350Z VRB02KT 9999 -RA FEW004 BKN035 08/06 Q1004;",
"01320099999","2010-09-20T04:50:00","4","61.8333333","6.1166667","60.0","SANDANE ANDA, NO","FM-15","ENSD ","V020","040,1,N,0015,1","01050,1,C,N","011265,1,N,1","+0080,1","+0050,1","99999,9","02,5,+00090,1,99,9","07,5,+01050,1,99,9",,,"07,99,1,99,9,99,9,99999,9,99,9,99,9",,"10041,1,99999,9",,,,"MET063METAR ENSD 200450Z 04003KT 9999 FEW003 BKN035 08/05 Q1004 RERA;",
"01320099999","2010-09-20T05:50:00","4","61.8333333","6.1166667","60.0","SANDANE ANDA, NO","FM-15","ENSD ","V020","999,9,V,0005,1","01200,1,C,N","011265,1,N,1","+0080,1","+0060,1","99999,9","02,5,+00090,1,99,9","07,5,+01200,1,99,9",,,"07,99,1,99,9,99,9,99999,9,99,9,99,9",,"10041,1,99999,9",,,,"MET058METAR ENSD 200550Z VRB01KT 9999 FEW003 BKN040 08/06 Q1004;",
"01320099999","2010-09-20T06:50:00","4","61.8333333","6.1166667","60.0","SANDANE ANDA, NO","FM-15","ENSD ","V020","999,9,V,0010,1","01200,1,C,N","011265,1,N,1","+0080,1","+0060,1","99999,9","02,5,+00090,1,99,9","07,5,+01200,1,99,9",,,"07,99,1,99,9,99,9,99999,9,99,9,99,9",,"10041,1,99999,9",,,,"MET058METAR ENSD 200650Z VRB02KT 9999 FEW003 BKN040 08/06 Q1004;",
"01320099999","2010-09-20T07:50:00","4","61.8333333","6.1166667","60.0","SANDANE ANDA, NO","FM-15","ENSD ","V020","999,9,V,0005,1","01350,1,C,N","011265,1,N,1","+0090,1","+0060,1","99999,9","02,5,+00090,1,99,9","07,5,+01350,1,99,9",,,"07,99,1,99,9,99,9,99999,9,99,9,99,9",,"10041,1,99999,9",,,,"MET058METAR ENSD 200750Z VRB01KT 9999 FEW003 BKN045 09/06 Q1004;",
"01320099999","2010-09-20T08:50:00","4","61.8333333","6.1166667","60.0","SANDANE ANDA, NO","FM-15","ENSD ","V020","040,1,N,0021,1","99999,9,C,N","011265,1,N,1","+0090,1","+0050,1","99999,9","02,5,+00120,1,99,9","04,5,+01350,1,99,9",,,"04,99,1,99,9,99,9,99999,9,99,9,99,9",,"10041,1,99999,9",,,,"MET058METAR ENSD 200850Z 04004KT 9999 FEW004 SCT045 09/05 Q1004;","P01 013503SCOCIG"
"01320099999","2010-09-20T09:50:00","4","61.8333333","6.1166667","60.0","SANDANE ANDA, NO","FM-15","ENSD ","V020","080,1,N,0026,1","99999,9,C,N","011265,1,N,1","+0090,1","+0050,1","99999,9","02,5,+00180,1,99,9","04,5,+01350,1,99,9",,,"04,99,1,99,9,99,9,99999,9,99,9,99,9",,"10041,1,99999,9",,,,"MET058METAR ENSD 200950Z 08005KT 9999 FEW006 SCT045 09/05 Q1004;","P01 013503SCOCIG"
"01320099999","2010-09-20T10:50:00","4","61.8333333","6.1166667","60.0","SANDANE ANDA, NO","FM-15","ENSD ","V020","070,1,N,0031,1","99999,9,C,N","011265,1,N,1","+0090,1","+0060,1","99999,9","02,5,+00240,1,99,9","04,5,+01350,1,99,9",,,"04,99,1,99,9,99,9,99999,9,99,9,99,9",,"10041,1,99999,9",,,,"MET058METAR ENSD 201050Z 07006KT 9999 FEW008 SCT045 09/06 Q1004;","P01 013503SCOCIG"
"01320099999","2010-09-20T11:50:00","4","61.8333333","6.1166667","60.0","SANDANE ANDA, NO","FM-15","ENSD ","V020","999,9,V,0010,1","01350,1,C,N","011265,1,N,1","+0100,1","+0060,1","99999,9","02,5,+00750,1,99,9","04,5,+01350,1,99,9","07,5,+01950,5,99,9",,"07,99,1,99,9,99,9,99999,9,99,9,99,9",,"10041,1,99999,9",,,,"MET065METAR ENSD 201150Z VRB02KT 9999 FEW025 SCT045 BKN065 10/06 Q1004;",
"01320099999","2010-09-20T12:50:00","4","61.8333333","6.1166667","60.0","SANDANE ANDA, NO","FM-15","ENSD ","V020","090,1,N,0015,1","01950,5,C,N","011265,1,N,1","+0110,1","+0040,1","99999,9","04,5,+01350,1,99,9","07,5,+01950,5,99,9",,,"07,99,1,99,9,99,9,99999,9,99,9,99,9",,"10031,1,99999,9",,,,"MET058METAR ENSD 201250Z 09003KT 9999 SCT045 BKN065 11/04 Q1003;",
"01320099999","2010-09-20T13:50:00","4","61.8333333","6.1166667","60.0","SANDANE ANDA, NO","FM-15","ENSD ","V020","999,9,V,0010,1","22000,1,9,N","011265,1,N,1","+0110,1","+0060,1","99999,9","04,5,+01350,1,99,9",,,,"04,99,1,99,9,99,9,99999,9,99,9,99,9",,"10031,1,99999,9",,,,"MET051METAR ENSD 201350Z VRB02KT 9999 SCT045 11/06 Q1003;",
"01320099999","2010-09-20T14:50:00","4","61.8333333","6.1166667","60.0","SANDANE ANDA, NO","FM-15","ENSD ","V020","260,1,N,0041,1","22000,1,9,N","011265,1,N,1","+0110,1","+0040,1","99999,9","04,5,+01350,1,99,9",,,,"04,99,1,99,9,99,9,99999,9,99,9,99,9",,"10031,1,99999,9",,,,"MET051METAR ENSD 201450Z 26008KT 9999 SCT045 11/04 Q1003;",
"01320099999","2010-09-20T15:50:00","4","61.8333333","6.1166667","60.0","SANDANE ANDA, NO","FM-15","ENSD ","V020","270,1,N,0051,1","22000,1,9,N","011265,1,N,1","+0120,1","+0040,1","99999,9","04,5,+01350,1,99,9",,,,"04,99,1,99,9,99,9,99999,9,99,9,99,9",,"10041,1,99999,9",,,,"MET051METAR ENSD 201550Z 27010KT 9999 SCT045 12/04 Q1004;",
"01320099999","2010-09-20T16:50:00","4","61.8333333","6.1166667","60.0","SANDANE ANDA, NO","FM-15","ENSD ","V020","270,1,N,0041,1","22000,1,9,N","011265,1,N,1","+0110,1","+0040,1","99999,9","04,5,+01350,1,99,9",,,,"04,99,1,99,9,99,9,99999,9,99,9,99,9",,"10041,1,99999,9",,,,"MET051METAR ENSD 201650Z 27008KT 9999 SCT045 11/04 Q1004;",
"01320099999","2010-09-20T17:50:00","4","61.8333333","6.1166667","60.0","SANDANE ANDA, NO","FM-15","ENSD ","V020","260,1,N,0046,1","22000,1,9,N","011265,1,N,1","+0110,1","+0040,1","99999,9","04,5,+01350,1,99,9",,,,"04,99,1,99,9,99,9,99999,9,99,9,99,9",,"10051,1,99999,9",,,,"MET051METAR ENSD 201750Z 26009KT 9999 SCT045 11/04 Q1005;",
"01320099999","2010-09-20T18:50:00","4","61.8333333","6.1166667","60.0","SANDANE ANDA, NO","FM-15","ENSD ","V020","270,1,N,0036,1","01350,1,C,N","011265,1,N,1","+0110,1","+0040,1","99999,9","07,5,+01350,1,99,9",,,,"07,99,1,99,9,99,9,99999,9,99,9,99,9",,"10051,1,99999,9",,,,"MET051METAR ENSD 201850Z 27007KT 9999 BKN045 11/04 Q1005;",
"01320099999","2010-09-21T04:20:00","4","61.8333333","6.1166667","60.0","SANDANE ANDA, NO","FM-15","ENSD ","V020","280,1,N,0021,1","00900,1,C,N","011265,1,N,1","+0080,1","+0040,1","99999,9","07,5,+00900,1,99,9",,,,"07,99,1,99,9,99,9,99999,9,99,9,99,9",,"10108,1,99999,9","80,1",,,"MET057METAR ENSD 210420Z 28004KT 9999 -SHRA BKN030 08/04 Q1011;",
"01320099999","2010-09-21T05:50:00","4","61.8333333","6.1166667","60.0","SANDANE ANDA, NO","FM-15","ENSD ","V020","190,1,N,0021,1","00900,1,C,N","011265,1,N,1","+0080,1","+0040,1","99999,9","02,5,+00300,1,99,9","07,5,+00900,1,99,9",,,"07,99,1,99,9,99,9,99999,9,99,9,99,9",,"10119,1,99999,9",,,,"MET058METAR ENSD 210550Z 19004KT 9999 FEW010 BKN030 08/04 Q1012;",
"01320099999","2010-09-21T06:50:00","4","61.8333333","6.1166667","60.0","SANDANE ANDA, NO","FM-15","ENSD ","V020","180,1,N,0021,1","99999,9,C,N","011265,1,N,1","+0080,1","+0040,1","99999,9","02,5,+00300,1,99,9","04,5,+00900,1,99,9",,,"04,99,1,99,9,99,9,99999,9,99,9,99,9",,"10129,1,99999,9",,,,"MET058METAR ENSD 210650Z 18004KT 9999 FEW010 SCT030 08/04 Q1013;","P01 009003SCOCIG"
"01320099999","2010-09-21T07:50:00","4","61.8333333","6.1166667","60.0","SANDANE ANDA, NO","FM-15","ENSD ","V020","180,1,N,0021,1","99999,9,C,N","011265,1,N,1","+0080,1","+0040,1","99999,9","02,5,+00450,1,99,9","04,5,+00900,1,99,9",,,"04,99,1,99,9,99,9,99999,9,99,9,99,9",,"10139,1,99999,9",,,,"MET058METAR ENSD 210750Z 18004KT 9999 FEW015 SCT030 08/04 Q1014;","P01 009003SCOCIG"
"01320099999","2010-09-21T08:50:00","4","61.8333333","6.1166667","60.0","SANDANE ANDA, NO","FM-15","ENSD ","V020","999,9,V,0010,1","01350,1,C,N","011265,1,N,1","+0100,1","+0050,1","99999,9","02,5,+00150,1,99,9","07,5,+01350,1,99,9",,,"07,99,1,99,9,99,9,99999,9,99,9,99,9",,"10149,1,99999,9",,,,"MET058METAR ENSD 210850Z VRB02KT 9999 FEW005 BKN045 10/05 Q1015;",
"01320099999","2010-09-21T09:50:00","4","61.8333333","6.1166667","60.0","SANDANE ANDA, NO","FM-15","ENSD ","V020","280,1,N,0015,1","01350,1,C,N","011265,1,N,1","+0100,1","+0040,1","99999,9","02,5,+00750,1,99,9","07,5,+01350,1,99,9",,,"07,99,1,99,9,99,9,99999,9,99,9,99,9",,"10149,1,99999,9",,,,"MET058METAR ENSD 210950Z 28003KT 9999 FEW025 BKN045 10/04 Q1015;",
"01320099999","2010-09-21T10:50:00","4","61.8333333","6.1166667","60.0","SANDANE ANDA, NO","FM-15","ENSD ","V020","280,1,N,0015,1","01350,1,C,N","011265,1,N,1","+0100,1","+0040,1","99999,9","02,5,+00750,1,99,9","07,5,+01350,1,99,9",,,"07,99,1,99,9,99,9,99999,9,99,9,99,9",,"10159,1,99999,9",,,,"MET058METAR ENSD 211050Z 28003KT 9999 FEW025 BKN045 10/04 Q1016;",
"01320099999","2010-09-21T11:50:00","4","61.8333333","6.1166667","60.0","SANDANE ANDA, NO","FM-15","ENSD ","V020","240,1,N,0015,1","01350,1,C,N","011265,1,N,1","+0110,1","+0030,1","99999,9","02,5,+00600,1,99,9","07,5,+01350,1,99,9",,,"07,99,1,99,9,99,9,99999,9,99,9,99,9",,"10159,1,99999,9",,,,"MET058METAR ENSD 211150Z 24003KT 9999 FEW020 BKN045 11/03 Q1016;",
"01320099999","2010-09-21T12:50:00","4","61.8333333","6.1166667","60.0","SANDANE ANDA, NO","FM-15","ENSD ","V020","300,1,N,0031,1","01350,1,C,N","011265,1,N,1","+0110,1","+0050,1","99999,9","02,5,+00600,1,99,9","07,5,+01350,1,99,9",,,"07,99,1,99,9,99,9,99999,9,99,9,99,9",,"10169,1,99999,9",,,,"MET058METAR ENSD 211250Z 30006KT 9999 FEW020 BKN045 11/05 Q1017;",
"01320099999","2010-09-21T13:50:00","4","61.8333333","6.1166667","60.0","SANDANE ANDA, NO","FM-15","ENSD ","V020","300,1,N,0021,1","01350,1,C,N","011265,1,N,1","+0110,1","+0040,1","99999,9","02,5,+00600,1,99,9","07,5,+01350,1,99,9",,,"07,99,1,99,9,99,9,99999,9,99,9,99,9",,"10169,1,99999,9",,,,"MET058METAR ENSD 211350Z 30004KT 9999 FEW020 BKN045 11/04 Q1017;",
"01320099999","2010-09-21T14:50:00","4","61.8333333","6.1166667","60.0","SANDANE ANDA, NO","FM-15","ENSD ","V020","310,1,N,0031,1","01350,1,C,N","011265,1,N,1","+0100,1","+0050,1","99999,9","02,5,+00450,1,99,9","07,5,+01350,1,99,9",,,"07,99,1,99,9,99,9,99999,9,99,9,99,9",,"10169,1,99999,9",,,,"MET058METAR ENSD 211450Z 31006KT 9999 FEW015 BKN045 10/05 Q1017;",
"01320099999","2010-09-21T15:50:00","4","61.8333333","6.1166667","60.0","SANDANE ANDA, NO","FM-15","ENSD ","V020","330,1,N,0036,1","01200,1,C,N","011265,1,N,1","+0100,1","+0050,1","99999,9","02,5,+00360,1,99,9","07,5,+01200,1,99,9",,,"07,99,1,99,9,99,9,99999,9,99,9,99,9",,"10180,1,99999,9",,,,"MET058METAR ENSD 211550Z 33007KT 9999 FEW012 BKN040 10/05 Q1018;",
"01320099999","2010-09-21T16:50:00","4","61.8333333","6.1166667","60.0","SANDANE ANDA, NO","FM-15","ENSD ","V020","320,1,N,0021,1","01200,1,C,N","011265,1,N,1","+0100,1","+0050,1","99999,9","02,5,+00600,1,99,9","07,5,+01200,1,99,9",,,"07,99,1,99,9,99,9,99999,9,99,9,99,9",,"10180,1,99999,9",,,,"MET058METAR ENSD 211650Z 32004KT 9999 FEW020 BKN040 10/05 Q1018;",
"01320099999","2010-09-21T17:50:00","4","61.8333333","6.1166667","60.0","SANDANE ANDA, NO","FM-15","ENSD ","V020","999,9,V,0010,1","01200,1,C,N","011265,1,N,1","+0100,1","+0050,1","99999,9","02,5,+00600,1,99,9","07,5,+01200,1,99,9",,,"07,99,1,99,9,99,9,99999,9,99,9,99,9",,"10180,1,99999,9",,,,"MET058METAR ENSD 211750Z VRB02KT 9999 FEW020 BKN040 10/05 Q1018;",
"01320099999","2010-09-21T18:50:00","4","61.8333333","6.1166667","60.0","SANDANE ANDA, NO","FM-15","ENSD ","V020","160,1,N,0026,1","01050,1,C,N","011265,1,N,1","+0100,1","+0050,1","99999,9","02,5,+00600,1,99,9","07,5,+01050,1,99,9",,,"07,99,1,99,9,99,9,99999,9,99,9,99,9",,"10180,1,99999,9",,,,"MET058METAR ENSD 211850Z 16005KT 9999 FEW020 BKN035 10/05 Q1018;",
"01320099999","2010-09-22T03:50:00","4","61.8333333","6.1166667","60.0","SANDANE ANDA, NO","FM-15","ENSD ","V020","130,1,N,0021,1","01050,1,C,N","011265,1,N,1","+0080,1","+0050,1","99999,9","02,5,+00210,1,99,9","07,5,+01050,1,99,9",,,"07,99,1,99,9,99,9,99999,9,99,9,99,9",,"10139,1,99999,9","51,1","61,1",,"MET064METAR ENSD 220350Z 13004KT 9999 -DZRA FEW007 BKN035 08/05 Q1014;",
"01320099999","2010-09-22T04:50:00","4","61.8333333","6.1166667","60.0","SANDANE ANDA, NO","FM-15","ENSD ","V020","150,1,N,0021,1","01050,1,C,N","011265,1,N,1","+0080,1","+0050,1","99999,9","02,5,+00120,1,99,9","07,5,+01050,1,99,9",,,"07,99,1,99,9,99,9,99999,9,99,9,99,9",,"10139,1,99999,9","51,1","61,1",,"MET064METAR ENSD 220450Z 15004KT 9999 -RADZ FEW004 BKN035 08/05 Q1014;",
"01320099999","2010-09-22T05:50:00","4","61.8333333","6.1166667","60.0","SANDANE ANDA, NO","FM-15","ENSD ","V020","999,9,V,0010,1","01050,1,C,N","011265,1,N,1","+0080,1","+0050,1","99999,9","02,5,+00090,1,99,9","07,5,+01050,1,99,9",,,"07,99,1,99,9,99,9,99999,9,99,9,99,9",,"10129,1,99999,9","61,1",,,"MET062METAR ENSD 220550Z VRB02KT 9999 -RA FEW003 BKN035 08/05 Q1013;",
"01320099999","2010-09-22T06:50:00","4","61.8333333","6.1166667","60.0","SANDANE ANDA, NO","FM-15","ENSD ","V020","080,1,N,0015,1","01050,1,C,N","011265,1,N,1","+0080,1","+0050,1","99999,9","02,5,+00150,1,99,9","07,5,+01050,1,99,9",,,"07,99,1,99,9,99,9,99999,9,99,9,99,9",,"10129,1,99999,9","61,1",,,"MET062METAR ENSD 220650Z 08003KT 9999 -RA FEW005 BKN035 08/05 Q1013;",
"01320099999","2010-09-22T07:50:00","4","61.8333333","6.1166667","60.0","SANDANE ANDA, NO","FM-15","ENSD ","V020","999,9,V,0015,1","01050,1,C,N","011265,1,N,1","+0080,1","+0060,1","99999,9","02,5,+00090,1,99,9","07,5,+01050,1,99,9",,,"07,99,1,99,9,99,9,99999,9,99,9,99,9",,"10119,1,99999,9","61,1",,,"MET062METAR ENSD 220750Z VRB03KT 9999 -RA FEW003 BKN035 08/06 Q1012;",
"01320099999","2010-09-22T08:50:00","4","61.8333333","6.1166667","60.0","SANDANE ANDA, NO","FM-15","ENSD ","V020","090,1,N,0031,1","00900,1,C,N","011265,1,N,1","+0090,1","+0060,1","99999,9","02,5,+00090,1,99,9","07,5,+00900,1,99,9",,,"07,99,1,99,9,99,9,99999,9,99,9,99,9",,"10119,1,99999,9","61,1",,,"MET070METAR ENSD 220850Z 09006KT 050V140 9999 -RA FEW003 BKN030 09/06 Q1012;",
"01320099999","2010-09-22T09:50:00","4","61.8333333","6.1166667","60.0","SANDANE ANDA, NO","FM-15","ENSD ","V020","090,1,N,0026,1","00900,1,C,N","011265,1,N,1","+0090,1","+0070,1","99999,9","02,5,+00090,1,99,9","07,5,+00900,1,99,9",,,"07,99,1,99,9,99,9,99999,9,99,9,99,9",,"10119,1,99999,9","61,1",,,"MET070METAR ENSD 220950Z 09005KT 050V150 9999 -RA FEW003 BKN030 09/07 Q1012;",
"01320099999","2010-09-22T10:50:00","4","61.8333333","6.1166667","60.0","SANDANE ANDA, NO","FM-15","ENSD ","V020","050,1,N,0057,1","00900,1,C,N","011265,1,N,1","+0090,1","+0070,1","99999,9","02,5,+00090,1,99,9","07,5,+00900,1,99,9",,,"07,99,1,99,9,99,9,99999,9,99,9,99,9",,"10108,1,99999,9","61,1",,,"MET062METAR ENSD 221050Z 05011KT 9999 -RA FEW003 BKN030 09/07 Q1011;",
"01320099999","2010-09-22T11:50:00","4","61.8333333","6.1166667","60.0","SANDANE ANDA, NO","FM-15","ENSD ","V020","060,1,N,0067,1","00900,1,C,N","011265,1,N,1","+0090,1","+0070,1","99999,9","02,5,+00090,1,99,9","07,5,+00900,1,99,9",,,"07,99,1,99,9,99,9,99999,9,99,9,99,9",,"10108,1,99999,9","61,1",,,"MET062METAR ENSD 221150Z 06013KT 9999 -RA FEW003 BKN030 09/07 Q1011;",
"01320099999","2010-09-22T12:50:00","4","61.8333333","6.1166667","60.0","SANDANE ANDA, NO","FM-15","ENSD ","V020","090,1,N,0031,1","00900,1,C,N","011265,1,N,1","+0100,1","+0070,1","99999,9","02,5,+00090,1,99,9","07,5,+00900,1,99,9",,,"07,99,1,99,9,99,9,99999,9,99,9,99,9",,"10102,1,99999,9","16,1",,,"MET063METAR ENSD 221250Z 09006KT 9999 VCSH FEW003 BKN030 10/07 Q1010;",
"01320099999","2010-09-22T13:50:00","4","61.8333333","6.1166667","60.0","SANDANE ANDA, NO","FM-15","ENSD ","V020","090,1,N,0026,1","00900,1,C,N","011265,1,N,1","+0100,1","+0080,1","99999,9","02,5,+00090,1,99,9","07,5,+00900,1,99,9",,,"07,99,1,99,9,99,9,99999,9,99,9,99,9",,"10102,1,99999,9","61,1",,,"MET062METAR ENSD 221350Z 09005KT 9999 -RA FEW003 BKN030 10/08 Q1010;",
"01320099999","2010-09-22T14:50:00","4","61.8333333","6.1166667","60.0","SANDANE ANDA, NO","FM-15","ENSD ","V020","999,9,V,0010,1","00900,1,C,N","011265,1,N,1","+0110,1","+0090,1","99999,9","02,5,+00090,1,99,9","07,5,+00900,1,99,9",,,"07,99,1,99,9,99,9,99999,9,99,9,99,9",,"10091,1,99999,9","61,1",,,"MET062METAR ENSD 221450Z VRB02KT 9999 -RA FEW003 BKN030 11/09 Q1009;",
"01320099999","2010-09-22T15:50:00","4","61.8333333","6.1166667","60.0","SANDANE ANDA, NO","FM-15","ENSD ","V020","080,1,N,0026,1","00900,1,C,N","011265,1,N,1","+0110,1","+0090,1","99999,9","02,5,+00090,1,99,9","07,5,+00900,1,99,9",,,"07,99,1,99,9,99,9,99999,9,99,9,99,9",,"10091,1,99999,9","61,1",,"0077,1","MET065METAR ENSD 221550Z 08005G15KT 9999 -RA FEW003 BKN030 11/09 Q1009;",
"01320099999","2010-09-22T16:50:00","4","61.8333333","6.1166667","60.0","SANDANE ANDA, NO","FM-15","ENSD ","V020","090,1,N,0031,1","00900,1,C,N","011265,1,N,1","+0110,1","+0080,1","99999,9","02,5,+00090,1,99,9","07,5,+00900,1,99,9",,,"07,99,1,99,9,99,9,99999,9,99,9,99,9",,"10081,1,99999,9","61,1",,,"MET062METAR ENSD 221650Z 09006KT 9999 -RA FEW003 BKN030 11/08 Q1008;",
"01320099999","2010-09-22T17:50:00","4","61.8333333","6.1166667","60.0","SANDANE ANDA, NO","FM-15","ENSD ","V020","090,1,N,0021,1","00900,1,C,N","011265,1,N,1","+0110,1","+0090,1","99999,9","02,5,+00090,1,99,9","07,5,+00900,1,99,9",,,"07,99,1,99,9,99,9,99999,9,99,9,99,9",,"10081,1,99999,9","61,1",,,"MET062METAR ENSD 221750Z 09004KT 9999 -RA FEW003 BKN030 11/09 Q1008;",
"01320099999","2010-09-22T18:50:00","4","61.8333333","6.1166667","60.0","SANDANE ANDA, NO","FM-15","ENSD ","V020","999,9,V,0015,1","01200,1,C,N","011265,1,N,1","+0110,1","+0090,1","99999,9","07,5,+01200,1,99,9",,,,"07,99,1,99,9,99,9,99999,9,99,9,99,9",,"10071,1,99999,9","61,1",,,"MET055METAR ENSD 221850Z VRB03KT 9999 -RA BKN040 11/09 Q1007;",
"01320099999","2010-09-23T04:20:00","4","61.8333333","6.1166667","60.0","SANDANE ANDA, NO","FM-15","ENSD ","V020","090,1,N,0021,1","00900,1,C,N","005000,1,N,1","+0110,1","+0090,1","99999,9","04,5,+00450,1,99,9","07,5,+00900,1,99,9",,,"07,99,1,99,9,99,9,99999,9,99,9,99,9",,"10051,1,99999,9",,,,"MET064METAR ENSD 230420Z 09004KT 5000 -SHDZ SCT015 BKN030 11/09 Q1005;",
"01320099999","2010-09-23T05:50:00","4","61.8333333","6.1166667","60.0","SANDANE ANDA, NO","FM-15","ENSD ","V020","999,9,V,0010,1","00900,1,C,N","011265,1,N,1","+0120,1","+0090,1","99999,9","02,5,+00090,1,99,9","07,5,+00900,1,99,9",,,"07,99,1,99,9,99,9,99999,9,99,9,99,9",,"10051,1,99999,9",,,,"MET058METAR ENSD 230550Z VRB02KT 9999 FEW003 BKN030 12/09 Q1005;",
"01320099999","2010-09-23T06:50:00","4","61.8333333","6.1166667","60.0","SANDANE ANDA, NO","FM-15","ENSD ","V020","999,9,V,0015,1","00900,1,C,N","011265,1,N,1","+0120,1","+0080,1","99999,9","02,5,+00090,1,99,9","07,5,+00900,1,99,9",,,"07,99,1,99,9,99,9,99999,9,99,9,99,9",,"10061,1,99999,9",,,,"MET058METAR ENSD 230650Z VRB03KT 9999 FEW003 BKN030 12/08 Q1006;",
"01320099999","2010-09-23T07:50:00","4","61.8333333","6.1166667","60.0","SANDANE ANDA, NO","FM-15","ENSD ","V020","999,9,V,0015,1","00900,1,C,N","011265,1,N,1","+0120,1","+0080,1","99999,9","02,5,+00090,1,99,9","07,5,+00900,1,99,9",,,"07,99,1,99,9,99,9,99999,9,99,9,99,9",,"10061,1,99999,9",,,,"MET058METAR ENSD 230750Z VRB03KT 9999 FEW003 BKN030 12/08 Q1006;",
"01320099999","2010-09-23T08:50:00","4","61.8333333","6.1166667","60.0","SANDANE ANDA, NO","FM-15","ENSD ","V020","260,1,N,0021,1","01200,1,C,N","011265,1,N,1","+0120,1","+0080,1","99999,9","02,5,+00300,1,99,9","07,5,+01200,1,99,9",,,"07,99,1,99,9,99,9,99999,9,99,9,99,9",,"10061,1,99999,9",,,,"MET058METAR ENSD 230850Z 26004KT 9999 FEW010 BKN040 12/08 Q1006;",
"01320099999","2010-09-23T09:50:00","4","61.8333333","6.1166667","60.0","SANDANE ANDA, NO","FM-15","ENSD ","V020","270,1,N,0041,1","01200,1,C,N","011265,1,N,1","+0120,1","+0080,1","99999,9","02,5,+00300,1,99,9","07,5,+01200,1,99,9",,,"07,99,1,99,9,99,9,99999,9,99,9,99,9",,"10061,1,99999,9",,,,"MET058METAR ENSD 230950Z 27008KT 9999 FEW010 BKN040 12/08 Q1006;",
"01320099999","2010-09-23T10:50:00","4","61.8333333","6.1166667","60.0","SANDANE ANDA, NO","FM-15","ENSD ","V020","310,1,N,0021,1","01200,1,C,N","011265,1,N,1","+0120,1","+0070,1","99999,9","04,5,+00600,1,99,9","07,5,+01200,1,99,9",,,"07,99,1,99,9,99,9,99999,9,99,9,99,9",,"10061,1,99999,9",,,,"MET058METAR ENSD 231050Z 31004KT 9999 SCT020 BKN040 12/07 Q1006;",
"01320099999","2010-09-23T11:50:00","4","61.8333333","6.1166667","60.0","SANDANE ANDA, NO","FM-15","ENSD ","V020","290,1,N,0041,1","00900,1,C,N","011265,1,N,1","+0120,1","+0060,1","99999,9","02,5,+00750,1,99,9","07,5,+00900,1,99,9",,,"07,99,1,99,9,99,9,99999,9,99,9,99,9",,"10061,1,99999,9",,,,"MET058METAR ENSD 231150Z 29008KT 9999 FEW025 BKN030 12/06 Q1006;",
"01320099999","2010-09-23T12:50:00","4","61.8333333","6.1166667","60.0","SANDANE ANDA, NO","FM-15","ENSD ","V020","290,1,N,0041,1","00900,1,C,N","011265,1,N,1","+0120,1","+0060,1","99999,9","02,5,+00750,1,99,9","07,5,+00900,1,99,9",,,"07,99,1,99,9,99,9,99999,9,99,9,99,9",,"10061,1,99999,9",,,,"MET066METAR ENSD 231250Z 29008KT 260V340 9999 FEW025 BKN030 12/06 Q1006;",
"01320099999","2010-09-23T13:50:00","4","61.8333333","6.1166667","60.0","SANDANE ANDA, NO","FM-15","ENSD ","V020","280,1,N,0041,1","01050,1,C,N","011265,1,N,1","+0120,1","+0060,1","99999,9","04,5,+00900,1,99,9","07,5,+01050,1,99,9",,,"07,99,1,99,9,99,9,99999,9,99,9,99,9",,"10061,1,99999,9",,,,"MET066METAR ENSD 231350Z 28008KT 250V330 9999 SCT030 BKN035 12/06 Q1006;",
"01320099999","2010-09-23T14:50:00","4","61.8333333","6.1166667","60.0","SANDANE ANDA, NO","FM-15","ENSD ","V020","999,9,V,0015,1","01050,1,C,N","011265,1,N,1","+0120,1","+0060,1","99999,9","04,5,+00900,1,99,9","07,5,+01050,1,99,9",,,"07,99,1,99,9,99,9,99999,9,99,9,99,9",,"10061,1,99999,9",,,,"MET058METAR ENSD 231450Z VRB03KT 9999 SCT030 BKN035 12/06 Q1006;",
"01320099999","2010-09-23T15:50:00","4","61.8333333","6.1166667","60.0","SANDANE ANDA, NO","FM-15","ENSD ","V020","999,9,V,0015,1","01050,1,C,N","011265,1,N,1","+0120,1","+0050,1","99999,9","04,5,+00900,1,99,9","07,5,+01050,1,99,9",,,"07,99,1,99,9,99,9,99999,9,99,9,99,9",,"10061,1,99999,9",,,,"MET058METAR ENSD 231550Z VRB03KT 9999 SCT030 BKN035 12/05 Q1006;",
"01320099999","2010-09-23T16:50:00","4","61.8333333","6.1166667","60.0","SANDANE ANDA, NO","FM-15","ENSD ","V020","350,1,N,0026,1","01050,1,C,N","011265,1,N,1","+0120,1","+0050,1","99999,9","04,5,+00900,1,99,9","07,5,+01050,1,99,9",,,"07,99,1,99,9,99,9,99999,9,99,9,99,9",,"10051,1,99999,9",,,,"MET058METAR ENSD 231650Z 35005KT 9999 SCT030 BKN035 12/05 Q1005;",
"01320099999","2010-09-23T17:50:00","4","61.8333333","6.1166667","60.0","SANDANE ANDA, NO","FM-15","ENSD ","V020","350,1,N,0031,1","01050,1,C,N","011265,1,N,1","+0120,1","+0040,1","99999,9","04,5,+00900,1,99,9","07,5,+01050,1,99,9",,,"07,99,1,99,9,99,9,99999,9,99,9,99,9",,"10051,1,99999,9",,,,"MET058METAR ENSD 231750Z 35006KT 9999 SCT030 BKN035 12/04 Q1005;",
"01320099999","2010-09-23T18:50:00","4","61.8333333","6.1166667","60.0","SANDANE ANDA, NO","FM-15","ENSD ","V020","280,1,N,0031,1","01050,1,C,N","011265,1,N,1","+0110,1","+0040,1","99999,9","04,5,+00900,1,99,9","07,5,+01050,1,99,9",,,"07,99,1,99,9,99,9,99999,9,99,9,99,9",,"10051,1,99999,9",,,,"MET066METAR ENSD 231850Z 28006KT 230V320 9999 SCT030 BKN035 11/04 Q1005;",
"01320099999","2010-09-24T03:50:00","4","61.8333333","6.1166667","60.0","SANDANE ANDA, NO","FM-15","ENSD ","V020","320,1,N,0036,1","01200,1,C,N","011265,1,N,1","+0090,1","+0010,1","99999,9","07,5,+01200,1,99,9",,,,"07,99,1,99,9,99,9,99999,9,99,9,99,9",,"10051,1,99999,9",,,,"MET059METAR ENSD 240350Z 32007KT 270V360 9999 BKN040 09/01 Q1005;",
"01320099999","2010-09-24T04:50:00","4","61.8333333","6.1166667","60.0","SANDANE ANDA, NO","FM-15","ENSD ","V020","300,1,N,0057,1","01200,1,C,N","011265,1,N,1","+0090,1","+0010,1","99999,9","07,5,+01200,1,99,9",,,,"07,99,1,99,9,99,9,99999,9,99,9,99,9",,"10051,1,99999,9",,,,"MET059METAR ENSD 240450Z 30011KT 250V350 9999 BKN040 09/01 Q1005;",
"01320099999","2010-09-24T05:50:00","4","61.8333333","6.1166667","60.0","SANDANE ANDA, NO","FM-15","ENSD ","V020","320,1,N,0041,1","01200,1,C,N","011265,1,N,1","+0090,1","+0010,1","99999,9","04,5,+01050,1,99,9","07,5,+01200,1,99,9",,,"07,99,1,99,9,99,9,99999,9,99,9,99,9",,"10051,1,99999,9",,,,"MET066METAR ENSD 240550Z 32008KT 250V010 9999 SCT035 BKN040 09/01 Q1005;",
"01320099999","2010-09-24T06:50:00","4","61.8333333","6.1166667","60.0","SANDANE ANDA, NO","FM-15","ENSD ","V020","310,1,N,0036,1","01200,1,C,N","011265,1,N,1","+0090,1","+0000,1","99999,9","02,5,+01050,1,99,9","07,5,+01200,1,99,9",,,"07,99,1,99,9,99,9,99999,9,99,9,99,9",,"10051,1,99999,9",,,,"MET066METAR ENSD 240650Z 31007KT 240V350 9999 FEW035 BKN040 09/00 Q1005;",
"01320099999","2010-09-24T07:50:00","4","61.8333333","6.1166667","60.0","SANDANE ANDA, NO","FM-15","ENSD ","V020","310,1,N,0041,1","01500,1,C,N","011265,1,N,1","+0090,1","-0010,1","99999,9","02,5,+00900,1,99,9","07,5,+01500,1,99,9",,,"07,99,1,99,9,99,9,99999,9,99,9,99,9",,"10051,1,99999,9",,,,"MET067METAR ENSD 240750Z 31008KT 260V350 9999 FEW030 BKN050 09/M01 Q1005;",
"01320099999","2010-09-24T08:50:00","4","61.8333333","6.1166667","60.0","SANDANE ANDA, NO","FM-15","ENSD ","V020","310,1,N,0036,1","01500,1,C,N","011265,1,N,1","+0090,1","-0010,1","99999,9","02,5,+01200,1,99,9","07,5,+01500,1,99,9",,,"07,99,1,99,9,99,9,99999,9,99,9,99,9",,"10051,1,99999,9",,,,"MET067METAR ENSD 240850Z 31007KT 260V350 9999 FEW040 BKN050 09/M01 Q1005;",
"01320099999","2010-09-24T09:50:00","4","61.8333333","6.1166667","60.0","SANDANE ANDA, NO","FM-15","ENSD ","V020","320,1,N,0036,1","01500,1,C,N","011265,1,N,1","+0100,1","-0010,1","99999,9","07,5,+01500,1,99,9",,,,"07,99,1,99,9,99,9,99999,9,99,9,99,9",,"10051,1,99999,9",,,,"MET060METAR ENSD 240950Z 32007KT 290V020 9999 BKN050 10/M01 Q1005;",
"01320099999","2010-09-24T10:50:00","4","61.8333333","6.1166667","60.0","SANDANE ANDA, NO","FM-15","ENSD ","V020","320,1,N,0031,1","22000,1,9,N","011265,1,N,1","+0100,1","-0010,1","99999,9","04,5,+01500,1,99,9",,,,"04,99,1,99,9,99,9,99999,9,99,9,99,9",,"10041,1,99999,9",,,,"MET060METAR ENSD 241050Z 32006KT 260V010 9999 SCT050 10/M01 Q1004;",
"01320099999","2010-09-24T11:50:00","4","61.8333333","6.1166667","60.0","SANDANE ANDA, NO","FM-15","ENSD ","V020","300,1,N,0021,1","22000,1,9,N","011265,1,N,1","+0100,1","-0020,1","99999,9","04,5,+01500,1,99,9",,,,"04,99,1,99,9,99,9,99999,9,99,9,99,9",,"10041,1,99999,9",,,,"MET052METAR ENSD 241150Z 30004KT 9999 SCT050 10/M02 Q1004;",
"01320099999","2010-09-24T12:50:00","4","61.8333333","6.1166667","60.0","SANDANE ANDA, NO","FM-15","ENSD ","V020","030,1,N,0026,1","22000,1,9,N","011265,1,N,1","+0110,1","-0010,1","99999,9","04,5,+01500,1,99,9",,,,"04,99,1,99,9,99,9,99999,9,99,9,99,9",,"10041,1,99999,9",,,,"MET052METAR ENSD 241250Z 03005KT 9999 SCT050 11/M01 Q1004;",
"01320099999","2010-09-24T13:50:00","4","61.8333333","6.1166667","60.0","SANDANE ANDA, NO","FM-15","ENSD ","V020","330,1,N,0021,1","22000,1,9,N","011265,1,N,1","+0110,1","-0010,1","99999,9","04,5,+01500,1,99,9",,,,"04,99,1,99,9,99,9,99999,9,99,9,99,9",,"10041,1,99999,9",,,,"MET052METAR ENSD 241350Z 33004KT 9999 SCT050 11/M01 Q1004;",
"01320099999","2010-09-24T14:50:00","4","61.8333333","6.1166667","60.0","SANDANE ANDA, NO","FM-15","ENSD ","V020","290,1,N,0021,1","22000,1,9,N","011265,1,N,1","+0110,1","+0000,1","99999,9","04,5,+01500,1,99,9",,,,"04,99,1,99,9,99,9,99999,9,99,9,99,9",,"10041,1,99999,9",,,,"MET052METAR ENSD 241450Z 29004KT 9999 SCT050 11/M00 Q1004;",
"01320099999","2010-09-24T15:50:00","4","61.8333333","6.1166667","60.0","SANDANE ANDA, NO","FM-15","ENSD ","V020","280,1,N,0021,1","22000,1,9,N","011265,1,N,1","+0100,1","+0000,1","99999,9","04,5,+01500,1,99,9",,,,"04,99,1,99,9,99,9,99999,9,99,9,99,9",,"10041,1,99999,9",,,,"MET051METAR ENSD 241550Z 28004KT 9999 SCT050 10/00 Q1004;",
"01320099999","2010-09-24T16:50:00","4","61.8333333","6.1166667","60.0","SANDANE ANDA, NO","FM-15","ENSD ","V020","999,9,V,0015,1","22000,1,9,N","011265,1,N,1","+0090,1","+0010,1","99999,9","04,5,+01500,1,99,9",,,,"04,99,1,99,9,99,9,99999,9,99,9,99,9",,"10041,1,99999,9",,,,"MET051METAR ENSD 241650Z VRB03KT 9999 SCT050 09/01 Q1004;",
"01320099999","2010-09-24T17:50:00","4","61.8333333","6.1166667","60.0","SANDANE ANDA, NO","FM-15","ENSD ","V020","270,1,N,0036,1","22000,1,9,N","011265,1,N,1","+0090,1","+0010,1","99999,9","04,5,+01500,1,99,9",,,,"04,99,1,99,9,99,9,99999,9,99,9,99,9",,"10051,1,99999,9",,,,"MET051METAR ENSD 241750Z 27007KT 9999 SCT050 09/01 Q1005;",
"01320099999","2010-09-24T18:50:00","4","61.8333333","6.1166667","60.0","SANDANE ANDA, NO","FM-15","ENSD ","V020","280,1,N,0026,1","01500,1,C,N","011265,1,N,1","+0090,1","+0000,1","99999,9","07,5,+01500,1,99,9",,,,"07,99,1,99,9,99,9,99999,9,99,9,99,9",,"10051,1,99999,9",,,,"MET059METAR ENSD 241850Z 28005KT 190V350 9999 BKN050 09/00 Q1005;",
"01320099999","2010-09-25T05:20:00","4","61.8333333","6.1166667","60.0","SANDANE ANDA, NO","FM-15","ENSD ","V020","240,1,N,0021,1","99999,9,9,Y","009900,1,N,1","+0080,1","-0010,1","99999,9",,,,,,,"10102,1,99999,9",,,,"MET054METAR ENSD 250520Z 24004KT 150V290 CAVOK 08/M01 Q1010;",
"01320099999","2010-09-25T06:50:00","4","61.8333333","6.1166667","60.0","SANDANE ANDA, NO","FM-15","ENSD ","V020","230,1,N,0031,1","99999,9,9,Y","009900,1,N,1","+0070,1","+0000,1","99999,9",,,,,,,"10108,1,99999,9",,,,"MET046METAR ENSD 250650Z 23006KT CAVOK 07/M00 Q1011;",
"01320099999","2010-09-25T07:50:00","4","61.8333333","6.1166667","60.0","SANDANE ANDA, NO","FM-15","ENSD ","V020","210,1,N,0026,1","99999,9,9,Y","009900,1,N,1","+0070,1","+0000,1","99999,9",,,,,,,"10108,1,99999,9",,,,"MET046METAR ENSD 250750Z 21005KT CAVOK 07/M00 Q1011;",
"01320099999","2010-09-25T08:50:00","4","61.8333333","6.1166667","60.0","SANDANE ANDA, NO","FM-15","ENSD ","V020","220,1,N,0021,1","99999,9,9,Y","009900,1,N,1","+0100,1","+0000,1","99999,9",,,,,,,"10119,1,99999,9",,,,"MET046METAR ENSD 250850Z 22004KT CAVOK 10/M00 Q1012;",
"01320099999","2010-09-25T09:50:00","4","61.8333333","6.1166667","60.0","SANDANE ANDA, NO","FM-15","ENSD ","V020","999,9,V,0021,1","22000,1,9,N","011265,1,N,1","+0120,1","-0020,1","99999,9","02,5,+01800,1,99,9",,,,"02,99,1,99,9,99,9,99999,9,99,9,99,9",,"10119,1,99999,9",,,,"MET052METAR ENSD 250950Z VRB04KT 9999 FEW060 12/M02 Q1012;",
"01320099999","2010-09-25T10:50:00","4","61.8333333","6.1166667","60.0","SANDANE ANDA, NO","FM-15","ENSD ","V020","999,9,V,0015,1","22000,1,9,N","011265,1,N,1","+0130,1","-0020,1","99999,9","02,5,+01800,1,99,9",,,,"02,99,1,99,9,99,9,99999,9,99,9,99,9",,"10129,1,99999,9",,,,"MET052METAR ENSD 251050Z VRB03KT 9999 FEW060 13/M02 Q1013;",
"01320099999","2010-09-25T11:50:00","4","61.8333333","6.1166667","60.0","SANDANE ANDA, NO","FM-15","ENSD ","V020","040,1,N,0046,1","22000,1,9,N","011265,1,N,1","+0130,1","-0020,1","99999,9","02,5,+01800,1,99,9",,,,"02,99,1,99,9,99,9,99999,9,99,9,99,9",,"10129,1,99999,9",,,,"MET060METAR ENSD 251150Z 04009KT 340V110 9999 FEW060 13/M02 Q1013;",
"01320099999","2010-09-26T08:50:00","4","61.8333333","6.1166667","60.0","SANDANE ANDA, NO","FM-15","ENSD ","V020","999,9,V,0005,1","99999,9,9,Y","009900,1,N,1","+0070,1","+0010,1","99999,9",,,,,,,"10190,1,99999,9",,,,"MET045METAR ENSD 260850Z VRB01KT CAVOK 07/01 Q1019;",
"01320099999","2010-09-26T09:50:00","4","61.8333333","6.1166667","60.0","SANDANE ANDA, NO","FM-15","ENSD ","V020","999,9,V,0010,1","99999,9,9,Y","009900,1,N,1","+0090,1","+0010,1","99999,9",,,,,,,"10190,1,99999,9",,,,"MET045METAR ENSD 260950Z VRB02KT CAVOK 09/01 Q1019;",
"01320099999","2010-09-26T10:50:00","4","61.8333333","6.1166667","60.0","SANDANE ANDA, NO","FM-15","ENSD ","V020","999,9,V,0010,1","99999,9,9,Y","009900,1,N,1","+0080,1","+0010,1","99999,9",,,,,,,"10190,1,99999,9",,,,"MET045METAR ENSD 261050Z VRB02KT CAVOK 08/01 Q1019;",
"01320099999","2010-09-26T13:50:00","4","61.8333333","6.1166667","60.0","SANDANE ANDA, NO","FM-15","ENSD ","V020","999,9,C,0000,1","99999,9,9,Y","009900,1,N,1","+0110,1","+0020,1","99999,9",,,,,,,"10190,1,99999,9",,,,"MET045METAR ENSD 261350Z 00000KT CAVOK 11/02 Q1019;",
"01320099999","2010-09-26T14:50:00","4","61.8333333","6.1166667","60.0","SANDANE ANDA, NO","FM-15","ENSD ","V020","999,9,V,0005,1","99999,9,9,Y","009900,1,N,1","+0120,1","+0020,1","99999,9",,,,,,,"10190,1,99999,9",,,,"MET045METAR ENSD 261450Z VRB01KT CAVOK 12/02 Q1019;",
"01320099999","2010-09-26T15:50:00","4","61.8333333","6.1166667","60.0","SANDANE ANDA, NO","FM-15","ENSD ","V020","999,9,V,0005,1","99999,9,9,Y","009900,1,N,1","+0100,1","+0010,1","99999,9",,,,,,,"10190,1,99999,9",,,,"MET045METAR ENSD 261550Z VRB01KT CAVOK 10/01 Q1019;",
"01320099999","2010-09-26T16:50:00","4","61.8333333","6.1166667","60.0","SANDANE ANDA, NO","FM-15","ENSD ","V020","999,9,V,0005,1","99999,9,9,Y","009900,1,N,1","+0080,1","+0020,1","99999,9",,,,,,,"10190,1,99999,9",,,,"MET045METAR ENSD 261650Z VRB01KT CAVOK 08/02 Q1019;",
"01320099999","2010-09-26T17:50:00","4","61.8333333","6.1166667","60.0","SANDANE ANDA, NO","FM-15","ENSD ","V020","999,9,V,0010,1","99999,9,9,Y","009900,1,N,1","+0070,1","+0020,1","99999,9",,,,,,,"10190,1,99999,9",,,,"MET045METAR ENSD 261750Z VRB02KT CAVOK 07/02 Q1019;",
"01320099999","2010-09-27T04:20:00","4","61.8333333","6.1166667","60.0","SANDANE ANDA, NO","FM-15","ENSD ","V020","999,9,C,0000,5","99999,9,9,Y","009999,5,N,1","+0030,1","+0010,1","99999,9",,,,,,,"10200,1,99999,9",,,,"MET044METAR ENSD 270420Z 0000KT CAVOK 03/01 Q1020;",
"01320099999","2010-09-27T04:50:00","4","61.8333333","6.1166667","60.0","SANDANE ANDA, NO","FM-15","ENSD ","V020","999,9,V,0005,1","99999,9,9,Y","009900,1,N,1","+0030,1","+0010,1","99999,9",,,,,,,"10210,1,99999,9",,,,"MET045METAR ENSD 270450Z VRB01KT CAVOK 03/01 Q1021;",
"01320099999","2010-09-27T05:50:00","4","61.8333333","6.1166667","60.0","SANDANE ANDA, NO","FM-15","ENSD ","V020","999,9,V,0005,1","22000,1,9,N","011265,1,N,1","+0030,1","+0000,1","99999,9","02,5,+00210,1,99,9",,,,"02,99,1,99,9,99,9,99999,9,99,9,99,9",,"10210,1,99999,9",,,,"MET051METAR ENSD 270550Z VRB01KT 9999 FEW007 03/00 Q1021;",
"01320099999","2010-09-27T06:50:00","4","61.8333333","6.1166667","60.0","SANDANE ANDA, NO","FM-15","ENSD ","V020","999,9,C,0000,1","22000,1,9,N","011265,1,N,1","+0030,1","+0000,1","99999,9","02,5,+00210,1,99,9",,,,"02,99,1,99,9,99,9,99999,9,99,9,99,9",,"10210,1,99999,9",,,,"MET051METAR ENSD 270650Z 00000KT 9999 FEW007 03/00 Q1021;",
"01320099999","2010-09-27T07:50:00","4","61.8333333","6.1166667","60.0","SANDANE ANDA, NO","FM-15","ENSD ","V020","999,9,C,0000,1","22000,1,9,N","011265,1,N,1","+0040,1","+0020,1","99999,9","02,5,+00210,1,99,9",,,,"02,99,1,99,9,99,9,99999,9,99,9,99,9",,"10210,1,99999,9",,,,"MET051METAR ENSD 270750Z 00000KT 9999 FEW007 04/02 Q1021;",
"01320099999","2010-09-27T08:50:00","4","61.8333333","6.1166667","60.0","SANDANE ANDA, NO","FM-15","ENSD ","V020","999,9,V,0010,1","22000,1,9,N","011265,1,N,1","+0070,1","+0030,1","99999,9","02,5,+00030,1,99,9",,,,"02,99,1,99,9,99,9,99999,9,99,9,99,9",,"10210,1,99999,9",,,,"MET051METAR ENSD 270850Z VRB02KT 9999 FEW001 07/03 Q1021;",
"01320099999","2010-09-27T09:50:00","4","61.8333333","6.1166667","60.0","SANDANE ANDA, NO","FM-15","ENSD ","V020","999,9,V,0005,1","99999,9,9,Y","009900,1,N,1","+0070,1","+0020,1","99999,9",,,,,,,"10210,1,99999,9",,,,"MET045METAR ENSD 270950Z VRB01KT CAVOK 07/02 Q1021;",
"01320099999","2010-09-27T10:50:00","4","61.8333333","6.1166667","60.0","SANDANE ANDA, NO","FM-15","ENSD ","V020","999,9,V,0010,1","99999,9,9,Y","009900,1,N,1","+0080,1","+0020,1","99999,9",,,,,,,"10210,1,99999,9",,,,"MET045METAR ENSD 271050Z VRB02KT CAVOK 08/02 Q1021;",
"01320099999","2010-09-27T11:50:00","4","61.8333333","6.1166667","60.0","SANDANE ANDA, NO","FM-15","ENSD ","V020","999,9,V,0010,1","99999,9,9,Y","009900,1,N,1","+0080,1","+0000,1","99999,9",,,,,,,"10210,1,99999,9",,,,"MET045METAR ENSD 271150Z VRB02KT CAVOK 08/00 Q1021;",
"01320099999","2010-09-27T12:50:00","4","61.8333333","6.1166667","60.0","SANDANE ANDA, NO","FM-15","ENSD ","V020","999,9,V,0010,1","99999,9,9,Y","009900,1,N,1","+0090,1","+0000,1","99999,9",,,,,,,"10200,1,99999,9",,,,"MET046METAR ENSD 271250Z VRB02KT CAVOK 09/M00 Q1020;",
"01320099999","2010-09-27T13:50:00","4","61.8333333","6.1166667","60.0","SANDANE ANDA, NO","FM-15","ENSD ","V020","999,9,V,0010,1","99999,9,9,Y","009900,1,N,1","+0100,1","+0000,1","99999,9",,,,,,,"10200,1,99999,9",,,,"MET045METAR ENSD 271350Z VRB02KT CAVOK 10/00 Q1020;",
"01320099999","2010-09-27T14:50:00","4","61.8333333","6.1166667","60.0","SANDANE ANDA, NO","FM-15","ENSD ","V020","999,9,V,0005,1","99999,9,9,Y","009900,1,N,1","+0100,1","+0000,1","99999,9",,,,,,,"10200,1,99999,9",,,,"MET045METAR ENSD 271450Z VRB01KT CAVOK 10/00 Q1020;",
"01320099999","2010-09-27T15:50:00","4","61.8333333","6.1166667","60.0","SANDANE ANDA, NO","FM-15","ENSD ","V020","090,1,N,0015,1","99999,9,9,Y","009900,1,N,1","+0100,1","+0010,1","99999,9",,,,,,,"10200,1,99999,9",,,,"MET045METAR ENSD 271550Z 09003KT CAVOK 10/01 Q1020;",
"01320099999","2010-09-27T17:50:00","4","61.8333333","6.1166667","60.0","SANDANE ANDA, NO","FM-15","ENSD ","V020","999,9,V,0010,1","99999,9,9,Y","009900,1,N,1","+0060,1","+0010,1","99999,9",,,,,,,"10200,1,99999,9",,,,"MET045METAR ENSD 271750Z VRB02KT CAVOK 06/01 Q1020;",
"01320099999","2010-09-27T18:50:00","4","61.8333333","6.1166667","60.0","SANDANE ANDA, NO","FM-15","ENSD ","V020","999,9,V,0010,1","99999,9,9,Y","009900,1,N,1","+0060,1","+0020,1","99999,9",,,,,,,"10200,1,99999,9",,,,"MET045METAR ENSD 271850Z VRB02KT CAVOK 06/02 Q1020;",
"01320099999","2010-09-28T03:50:00","4","61.8333333","6.1166667","60.0","SANDANE ANDA, NO","FM-15","ENSD ","V020","999,9,V,0005,1","22000,1,9,N","011265,1,N,1","+0030,1","+0010,1","99999,9","02,5,+00090,1,99,9",,,,"02,99,1,99,9,99,9,99999,9,99,9,99,9",,"10220,1,99999,9",,,,"MET051METAR ENSD 280350Z VRB01KT 9999 FEW003 03/01 Q1022;",
"01320099999","2010-09-28T04:50:00","4","61.8333333","6.1166667","60.0","SANDANE ANDA, NO","FM-15","ENSD ","V020","999,9,V,0005,1","22000,1,9,N","011265,1,N,1","+0020,1","+0000,1","99999,9","02,5,+00090,1,99,9",,,,"02,99,1,99,9,99,9,99999,9,99,9,99,9",,"10220,1,99999,9",,,,"MET051METAR ENSD 280450Z VRB01KT 9999 FEW003 02/00 Q1022;",
"01320099999","2010-09-28T05:50:00","4","61.8333333","6.1166667","60.0","SANDANE ANDA, NO","FM-15","ENSD ","V020","999,9,V,0010,1","22000,1,9,N","011265,1,N,1","+0020,1","+0000,1","99999,9","02,5,+00090,1,99,9",,,,"02,99,1,99,9,99,9,99999,9,99,9,99,9",,"10220,1,99999,9",,,,"MET051METAR ENSD 280550Z VRB02KT 9999 FEW003 02/00 Q1022;",
"01320099999","2010-09-28T06:50:00","4","61.8333333","6.1166667","60.0","SANDANE ANDA, NO","FM-15","ENSD ","V020","999,9,V,0010,1","22000,1,9,N","011265,1,N,1","+0030,1","+0010,1","99999,9","02,5,+00090,1,99,9",,,,"02,99,1,99,9,99,9,99999,9,99,9,99,9",,"10220,1,99999,9",,,,"MET051METAR ENSD 280650Z VRB02KT 9999 FEW003 03/01 Q1022;",
"01320099999","2010-09-28T07:50:00","4","61.8333333","6.1166667","60.0","SANDANE ANDA, NO","FM-15","ENSD ","V020","999,9,V,0010,1","22000,1,9,N","011265,1,N,1","+0040,1","+0020,1","99999,9","02,5,+00030,1,99,9",,,,"02,99,1,99,9,99,9,99999,9,99,9,99,9",,"10220,1,99999,9",,,,"MET051METAR ENSD 280750Z VRB02KT 9999 FEW001 04/02 Q1022;",
"01320099999","2010-09-28T08:50:00","4","61.8333333","6.1166667","60.0","SANDANE ANDA, NO","FM-15","ENSD ","V020","999,9,V,0010,1","22000,1,9,N","011265,1,N,1","+0060,1","+0010,1","99999,9","02,5,+00030,1,99,9",,,,"02,99,1,99,9,99,9,99999,9,99,9,99,9",,"10220,1,99999,9",,,,"MET051METAR ENSD 280850Z VRB02KT 9999 FEW001 06/01 Q1022;",
"01320099999","2010-09-28T09:50:00","4","61.8333333","6.1166667","60.0","SANDANE ANDA, NO","FM-15","ENSD ","V020","999,9,V,0010,1","99999,9,9,Y","009900,1,N,1","+0060,1","+0010,1","99999,9",,,,,,,"10220,1,99999,9",,,,"MET045METAR ENSD 280950Z VRB02KT CAVOK 06/01 Q1022;",
"01320099999","2010-09-28T10:50:00","4","61.8333333","6.1166667","60.0","SANDANE ANDA, NO","FM-15","ENSD ","V020","999,9,V,0010,1","99999,9,9,Y","009900,1,N,1","+0070,1","+0000,1","99999,9",,,,,,,"10220,1,99999,9",,,,"MET046METAR ENSD 281050Z VRB02KT CAVOK 07/M00 Q1022;",
"01320099999","2010-09-28T11:50:00","4","61.8333333","6.1166667","60.0","SANDANE ANDA, NO","FM-15","ENSD ","V020","999,9,V,0010,1","99999,9,9,Y","009900,1,N,1","+0080,1","+0010,1","99999,9",,,,,,,"10220,1,99999,9",,,,"MET045METAR ENSD 281150Z VRB02KT CAVOK 08/01 Q1022;",
"01320099999","2010-09-28T12:50:00","4","61.8333333","6.1166667","60.0","SANDANE ANDA, NO","FM-15","ENSD ","V020","060,1,N,0031,1","99999,9,9,Y","009900,1,N,1","+0090,1","+0010,1","99999,9",,,,,,,"10220,1,99999,9",,,,"MET045METAR ENSD 281250Z 06006KT CAVOK 09/01 Q1022;",
"01320099999","2010-09-28T13:50:00","4","61.8333333","6.1166667","60.0","SANDANE ANDA, NO","FM-15","ENSD ","V020","040,1,N,0031,1","99999,9,9,Y","009900,1,N,1","+0100,1","+0000,1","99999,9",,,,,,,"10220,1,99999,9",,,,"MET045METAR ENSD 281350Z 04006KT CAVOK 10/00 Q1022;",
"01320099999","2010-09-28T14:50:00","4","61.8333333","6.1166667","60.0","SANDANE ANDA, NO","FM-15","ENSD ","V020","999,9,V,0010,1","99999,9,9,Y","009900,1,N,1","+0100,1","-0010,1","99999,9",,,,,,,"10220,1,99999,9",,,,"MET046METAR ENSD 281450Z VRB02KT CAVOK 10/M01 Q1022;",
"01320099999","2010-09-28T15:50:00","4","61.8333333","6.1166667","60.0","SANDANE ANDA, NO","FM-15","ENSD ","V020","999,9,V,0010,1","99999,9,9,Y","009900,1,N,1","+0090,1","+0010,1","99999,9",,,,,,,"10220,1,99999,9",,,,"MET045METAR ENSD 281550Z VRB02KT CAVOK 09/01 Q1022;",
"01320099999","2010-09-28T16:50:00","4","61.8333333","6.1166667","60.0","SANDANE ANDA, NO","FM-15","ENSD ","V020","999,9,V,0005,1","99999,9,9,Y","009900,1,N,1","+0080,1","+0010,1","99999,9",,,,,,,"10220,1,99999,9",,,,"MET045METAR ENSD 281650Z VRB01KT CAVOK 08/01 Q1022;",
"01320099999","2010-09-28T17:50:00","4","61.8333333","6.1166667","60.0","SANDANE ANDA, NO","FM-15","ENSD ","V020","999,9,C,0000,1","99999,9,9,Y","009900,1,N,1","+0070,1","+0010,1","99999,9",,,,,,,"10220,1,99999,9",,,,"MET045METAR ENSD 281750Z 00000KT CAVOK 07/01 Q1022;",
"01320099999","2010-09-28T18:50:00","4","61.8333333","6.1166667","60.0","SANDANE ANDA, NO","FM-15","ENSD ","V020","060,1,N,0015,1","99999,9,9,Y","009900,1,N,1","+0060,1","+0020,1","99999,9",,,,,,,"10230,1,99999,9",,,,"MET045METAR ENSD 281850Z 06003KT CAVOK 06/02 Q1023;",
"01320099999","2010-09-29T03:50:00","4","61.8333333","6.1166667","60.0","SANDANE ANDA, NO","FM-15","ENSD ","V020","999,9,C,0000,1","99999,9,9,Y","009900,1,N,1","+0030,1","+0000,1","99999,9",,,,,,,"10240,1,99999,9",,,,"MET045METAR ENSD 290350Z 00000KT CAVOK 03/00 Q1024;",
"01320099999","2010-09-29T04:50:00","4","61.8333333","6.1166667","60.0","SANDANE ANDA, NO","FM-15","ENSD ","V020","999,9,V,0005,1","99999,9,9,Y","009900,1,N,1","+0020,1","+0000,1","99999,9",,,,,,,"10240,1,99999,9",,,,"MET046METAR ENSD 290450Z VRB01KT CAVOK 02/M00 Q1024;",
"01320099999","2010-09-29T05:50:00","4","61.8333333","6.1166667","60.0","SANDANE ANDA, NO","FM-15","ENSD ","V020","999,9,V,0005,1","99999,9,9,Y","009900,1,N,1","+0020,1","+0000,1","99999,9",,,,,,,"10240,1,99999,9",,,,"MET046METAR ENSD 290550Z VRB01KT CAVOK 02/M00 Q1024;",
"01320099999","2010-09-29T06:50:00","4","61.8333333","6.1166667","60.0","SANDANE ANDA, NO","FM-15","ENSD ","V020","999,9,V,0005,1","99999,9,9,Y","009900,1,N,1","+0030,1","+0000,1","99999,9",,,,,,,"10240,1,99999,9",,,,"MET045METAR ENSD 290650Z VRB01KT CAVOK 03/00 Q1024;",
"01320099999","2010-09-29T07:50:00","4","61.8333333","6.1166667","60.0","SANDANE ANDA, NO","FM-15","ENSD ","V020","999,9,V,0010,1","99999,9,9,Y","009900,1,N,1","+0030,1","+0010,1","99999,9",,,,,,,"10240,1,99999,9",,,,"MET045METAR ENSD 290750Z VRB02KT CAVOK 03/01 Q1024;",
"01320099999","2010-09-29T08:50:00","4","61.8333333","6.1166667","60.0","SANDANE ANDA, NO","FM-15","ENSD ","V020","999,9,V,0010,1","99999,9,9,Y","009900,1,N,1","+0060,1","+0010,1","99999,9",,,,,,,"10240,1,99999,9",,,,"MET045METAR ENSD 290850Z VRB02KT CAVOK 06/01 Q1024;",
"01320099999","2010-09-29T09:50:00","4","61.8333333","6.1166667","60.0","SANDANE ANDA, NO","FM-15","ENSD ","V020","070,1,N,0026,1","99999,9,9,Y","009900,1,N,1","+0060,1","+0010,1","99999,9",,,,,,,"10240,1,99999,9",,,,"MET045METAR ENSD 290950Z 07005KT CAVOK 06/01 Q1024;",
"01320099999","2010-09-29T10:50:00","4","61.8333333","6.1166667","60.0","SANDANE ANDA, NO","FM-15","ENSD ","V020","060,1,N,0026,1","99999,9,9,Y","009900,1,N,1","+0070,1","+0010,1","99999,9",,,,,,,"10240,1,99999,9",,,,"MET045METAR ENSD 291050Z 06005KT CAVOK 07/01 Q1024;",
"01320099999","2010-09-29T12:50:00","4","61.8333333","6.1166667","60.0","SANDANE ANDA, NO","FM-15","ENSD ","V020","999,9,V,0010,1","99999,9,9,Y","009900,1,N,1","+0080,1","+0000,1","99999,9",,,,,,,"10230,1,99999,9",,,,"MET045METAR ENSD 291250Z VRB02KT CAVOK 08/00 Q1023;",
"01320099999","2010-09-29T13:50:00","4","61.8333333","6.1166667","60.0","SANDANE ANDA, NO","FM-15","ENSD ","V020","999,9,V,0010,1","99999,9,9,Y","009900,1,N,1","+0080,1","+0000,1","99999,9",,,,,,,"10230,1,99999,9",,,,"MET046METAR ENSD 291350Z VRB02KT CAVOK 08/M00 Q1023;",
"01320099999","2010-09-29T14:50:00","4","61.8333333","6.1166667","60.0","SANDANE ANDA, NO","FM-15","ENSD ","V020","999,9,V,0010,1","99999,9,9,Y","009900,1,N,1","+0100,1","+0020,1","99999,9",,,,,,,"10230,1,99999,9",,,,"MET045METAR ENSD 291450Z VRB02KT CAVOK 10/02 Q1023;",
"01320099999","2010-09-29T15:50:00","4","61.8333333","6.1166667","60.0","SANDANE ANDA, NO","FM-15","ENSD ","V020","999,9,V,0005,1","99999,9,9,Y","009900,1,N,1","+0080,1","+0020,1","99999,9",,,,,,,"10220,1,99999,9",,,,"MET045METAR ENSD 291550Z VRB01KT CAVOK 08/02 Q1022;",
"01320099999","2010-09-29T16:50:00","4","61.8333333","6.1166667","60.0","SANDANE ANDA, NO","FM-15","ENSD ","V020","999,9,V,0005,1","99999,9,9,Y","009900,1,N,1","+0070,1","+0010,1","99999,9",,,,,,,"10220,1,99999,9",,,,"MET045METAR ENSD 291650Z VRB01KT CAVOK 07/01 Q1022;",
"01320099999","2010-09-29T17:50:00","4","61.8333333","6.1166667","60.0","SANDANE ANDA, NO","FM-15","ENSD ","V020","999,9,V,0010,1","99999,9,9,Y","009900,1,N,1","+0060,1","+0010,1","99999,9",,,,,,,"10220,1,99999,9",,,,"MET045METAR ENSD 291750Z VRB02KT CAVOK 06/01 Q1022;",
"01320099999","2010-09-29T18:50:00","4","61.8333333","6.1166667","60.0","SANDANE ANDA, NO","FM-15","ENSD ","V020","999,9,V,0010,1","99999,9,9,Y","009900,1,N,1","+0060,1","+0020,1","99999,9",,,,,,,"10220,1,99999,9",,,,"MET045METAR ENSD 291850Z VRB02KT CAVOK 06/02 Q1022;",
"01320099999","2010-09-30T03:50:00","4","61.8333333","6.1166667","60.0","SANDANE ANDA, NO","FM-15","ENSD ","V020","999,9,V,0005,1","22000,1,9,N","011265,1,N,1","+0020,1","-0010,1","99999,9","02,5,+00090,1,99,9",,,,"02,99,1,99,9,99,9,99999,9,99,9,99,9",,"10210,1,99999,9",,,,"MET052METAR ENSD 300350Z VRB01KT 9999 FEW003 02/M01 Q1021;",
"01320099999","2010-09-30T04:50:00","4","61.8333333","6.1166667","60.0","SANDANE ANDA, NO","FM-15","ENSD ","V020","999,9,V,0005,1","22000,1,9,N","011265,1,N,1","+0020,1","-0010,1","99999,9","02,5,+00090,1,99,9",,,,"02,99,1,99,9,99,9,99999,9,99,9,99,9",,"10210,1,99999,9",,,,"MET052METAR ENSD 300450Z VRB01KT 9999 FEW003 02/M01 Q1021;",
"01320099999","2010-09-30T05:50:00","4","61.8333333","6.1166667","60.0","SANDANE ANDA, NO","FM-15","ENSD ","V020","999,9,V,0005,1","99999,9,9,Y","009900,1,N,1","+0020,1","-0010,1","99999,9",,,,,,,"10210,1,99999,9",,,,"MET046METAR ENSD 300550Z VRB01KT CAVOK 02/M01 Q1021;",
"01320099999","2010-09-30T06:50:00","4","61.8333333","6.1166667","60.0","SANDANE ANDA, NO","FM-15","ENSD ","V020","999,9,V,0005,1","99999,9,9,Y","009900,1,N,1","+0020,1","+0000,1","99999,9",,,,,,,"10210,1,99999,9",,,,"MET046METAR ENSD 300650Z VRB01KT CAVOK 02/M00 Q1021;",
"01320099999","2010-09-30T07:50:00","4","61.8333333","6.1166667","60.0","SANDANE ANDA, NO","FM-15","ENSD ","V020","999,9,V,0005,1","99999,9,9,Y","009900,1,N,1","+0040,1","+0020,1","99999,9",,,,,,,"10210,1,99999,9",,,,"MET045METAR ENSD 300750Z VRB01KT CAVOK 04/02 Q1021;",
"01320099999","2010-09-30T08:50:00","4","61.8333333","6.1166667","60.0","SANDANE ANDA, NO","FM-15","ENSD ","V020","999,9,V,0005,1","99999,9,9,Y","009900,1,N,1","+0040,1","+0010,1","99999,9",,,,,,,"10210,1,99999,9",,,,"MET045METAR ENSD 300850Z VRB01KT CAVOK 04/01 Q1021;",
"01320099999","2010-09-30T09:50:00","4","61.8333333","6.1166667","60.0","SANDANE ANDA, NO","FM-15","ENSD ","V020","999,9,V,0010,1","99999,9,9,Y","009900,1,N,1","+0050,1","+0000,1","99999,9",,,,,,,"10210,1,99999,9",,,,"MET045METAR ENSD 300950Z VRB02KT CAVOK 05/00 Q1021;",
"01320099999","2010-09-30T10:50:00","4","61.8333333","6.1166667","60.0","SANDANE ANDA, NO","FM-15","ENSD ","V020","999,9,V,0005,1","99999,9,9,Y","009900,1,N,1","+0070,1","+0010,1","99999,9",,,,,,,"10200,1,99999,9",,,,"MET045METAR ENSD 301050Z VRB01KT CAVOK 07/01 Q1020;",
"01320099999","2010-09-30T11:50:00","4","61.8333333","6.1166667","60.0","SANDANE ANDA, NO","FM-15","ENSD ","V020","999,9,V,0010,1","99999,9,9,Y","009900,1,N,1","+0080,1","+0000,1","99999,9",,,,,,,"10200,1,99999,9",,,,"MET046METAR ENSD 301150Z VRB02KT CAVOK 08/M00 Q1020;",
"01320099999","2010-09-30T12:50:00","4","61.8333333","6.1166667","60.0","SANDANE ANDA, NO","FM-15","ENSD ","V020","999,9,V,0010,1","99999,9,9,Y","009900,1,N,1","+0090,1","+0000,1","99999,9",,,,,,,"10200,1,99999,9",,,,"MET045METAR ENSD 301250Z VRB02KT CAVOK 09/00 Q1020;",
"01320099999","2010-09-30T13:50:00","4","61.8333333","6.1166667","60.0","SANDANE ANDA, NO","FM-15","ENSD ","V020","999,9,V,0010,1","99999,9,9,Y","009900,1,N,1","+0110,1","+0010,1","99999,9",,,,,,,"10190,1,99999,9",,,,"MET045METAR ENSD 301350Z VRB02KT CAVOK 11/01 Q1019;",
"01320099999","2010-09-30T14:50:00","4","61.8333333","6.1166667","60.0","SANDANE ANDA, NO","FM-15","ENSD ","V020","999,9,V,0010,1","99999,9,9,Y","009900,1,N,1","+0100,1","+0020,1","99999,9",,,,,,,"10190,1,99999,9",,,,"MET045METAR ENSD 301450Z VRB02KT CAVOK 10/02 Q1019;",
"01320099999","2010-09-30T15:50:00","4","61.8333333","6.1166667","60.0","SANDANE ANDA, NO","FM-15","ENSD ","V020","999,9,V,0005,1","99999,9,9,Y","009900,1,N,1","+0090,1","+0020,1","99999,9",,,,,,,"10190,1,99999,9",,,,"MET045METAR ENSD 301550Z VRB01KT CAVOK 09/02 Q1019;",
"01320099999","2010-09-30T16:50:00","4","61.8333333","6.1166667","60.0","SANDANE ANDA, NO","FM-15","ENSD ","V020","999,9,V,0005,1","99999,9,9,Y","009900,1,N,1","+0080,1","+0010,1","99999,9",,,,,,,"10190,1,99999,9",,,,"MET045METAR ENSD 301650Z VRB01KT CAVOK 08/01 Q1019;",
"01320099999","2010-09-30T17:50:00","4","61.8333333","6.1166667","60.0","SANDANE ANDA, NO","FM-15","ENSD ","V020","999,9,V,0005,1","99999,9,9,Y","009900,1,N,1","+0070,1","+0010,1","99999,9",,,,,,,"10190,1,99999,9",,,,"MET045METAR ENSD 301750Z VRB01KT CAVOK 07/01 Q1019;",
"01320099999","2010-09-30T18:50:00","4","61.8333333","6.1166667","60.0","SANDANE ANDA, NO","FM-15","ENSD ","V020","999,9,V,0005,1","99999,9,9,Y","009900,1,N,1","+0060,1","+0010,1","99999,9",,,,,,,"10190,1,99999,9",,,,"MET045METAR ENSD 301850Z VRB01KT CAVOK 06/01 Q1019;",
"01320099999","2010-10-01T03:50:00","4","61.8333333","6.1166667","60.0","SANDANE ANDA, NO","FM-15","ENSD ","V020","130,1,N,0015,1","22000,1,9,N","011265,1,N,1","+0020,1","+0000,1","99999,9","02,5,+00090,1,99,9",,,,"02,99,1,99,9,99,9,99999,9,99,9,99,9",,"10169,1,99999,9",,,,"MET052METAR ENSD 010350Z 13003KT 9999 FEW003 02/M00 Q1017;",
"01320099999","2010-10-01T04:50:00","4","61.8333333","6.1166667","60.0","SANDANE ANDA, NO","FM-15","ENSD ","V020","999,9,V,0010,1","22000,1,9,N","011265,1,N,1","+0020,1","+0000,1","99999,9","02,5,+00090,1,99,9",,,,"02,99,1,99,9,99,9,99999,9,99,9,99,9",,"10169,1,99999,9",,,,"MET052METAR ENSD 010450Z VRB02KT 9999 FEW003 02/M00 Q1017;",
"01320099999","2010-10-01T05:50:00","4","61.8333333","6.1166667","60.0","SANDANE ANDA, NO","FM-15","ENSD ","V020","999,9,V,0010,1","22000,1,9,N","011265,1,N,1","+0020,1","+0000,1","99999,9","02,5,+00090,1,99,9",,,,"02,99,1,99,9,99,9,99999,9,99,9,99,9",,"10169,1,99999,9",,,,"MET052METAR ENSD 010550Z VRB02KT 9999 FEW003 02/M00 Q1017;",
"01320099999","2010-10-01T06:50:00","4","61.8333333","6.1166667","60.0","SANDANE ANDA, NO","FM-15","ENSD ","V020","999,9,V,0010,1","22000,1,9,N","011265,1,N,1","+0020,1","+0000,1","99999,9","02,5,+00090,1,99,9",,,,"02,99,1,99,9,99,9,99999,9,99,9,99,9",,"10169,1,99999,9",,,,"MET052METAR ENSD 010650Z VRB02KT 9999 FEW003 02/M00 Q1017;",
"01320099999","2010-10-01T07:50:00","4","61.8333333","6.1166667","60.0","SANDANE ANDA, NO","FM-15","ENSD ","V020","999,9,V,0010,1","22000,1,9,N","011265,1,N,1","+0030,1","+0010,1","99999,9","02,5,+00090,1,99,9",,,,"02,99,1,99,9,99,9,99999,9,99,9,99,9",,"10169,1,99999,9",,,,"MET051METAR ENSD 010750Z VRB02KT 9999 FEW003 03/01 Q1017;",
"01320099999","2010-10-01T08:50:00","4","61.8333333","6.1166667","60.0","SANDANE ANDA, NO","FM-15","ENSD ","V020","999,9,V,0005,1","99999,9,9,Y","009900,1,N,1","+0040,1","+0010,1","99999,9",,,,,,,"10169,1,99999,9",,,,"MET045METAR ENSD 010850Z VRB01KT CAVOK 04/01 Q1017;",
"01320099999","2010-10-01T09:50:00","4","61.8333333","6.1166667","60.0","SANDANE ANDA, NO","FM-15","ENSD ","V020","100,1,N,0015,1","99999,9,9,Y","009900,1,N,1","+0050,1","+0010,1","99999,9",,,,,,,"10159,1,99999,9",,,,"MET045METAR ENSD 010950Z 10003KT CAVOK 05/01 Q1016;",
"01320099999","2010-10-01T10:50:00","4","61.8333333","6.1166667","60.0","SANDANE ANDA, NO","FM-15","ENSD ","V020","140,1,N,0015,1","99999,9,9,Y","009900,1,N,1","+0060,1","+0010,1","99999,9",,,,,,,"10159,1,99999,9",,,,"MET045METAR ENSD 011050Z 14003KT CAVOK 06/01 Q1016;",
"01320099999","2010-10-01T11:50:00","4","61.8333333","6.1166667","60.0","SANDANE ANDA, NO","FM-15","ENSD ","V020","999,9,V,0010,1","99999,9,9,Y","009900,1,N,1","+0080,1","+0010,1","99999,9",,,,,,,"10149,1,99999,9",,,,"MET045METAR ENSD 011150Z VRB02KT CAVOK 08/01 Q1015;",
"01320099999","2010-10-01T12:50:00","4","61.8333333","6.1166667","60.0","SANDANE ANDA, NO","FM-15","ENSD ","V020","999,9,V,0010,1","99999,9,9,Y","009900,1,N,1","+0110,1","+0030,1","99999,9",,,,,,,"10139,1,99999,9",,,,"MET045METAR ENSD 011250Z VRB02KT CAVOK 11/03 Q1014;",
"01320099999","2010-10-01T13:50:00","4","61.8333333","6.1166667","60.0","SANDANE ANDA, NO","FM-15","ENSD ","V020","070,1,N,0041,1","99999,9,9,Y","009900,1,N,1","+0130,1","-0020,1","99999,9",,,,,,,"10129,1,99999,9",,,,"MET054METAR ENSD 011350Z 07008KT 030V110 CAVOK 13/M02 Q1013;",
"01320099999","2010-10-01T14:50:00","4","61.8333333","6.1166667","60.0","SANDANE ANDA, NO","FM-15","ENSD ","V020","999,9,V,0015,1","99999,9,9,Y","009900,1,N,1","+0140,1","-0010,1","99999,9",,,,,,,"10129,1,99999,9",,,,"MET046METAR ENSD 011450Z VRB03KT CAVOK 14/M01 Q1013;",
"01320099999","2010-10-01T15:50:00","4","61.8333333","6.1166667","60.0","SANDANE ANDA, NO","FM-15","ENSD ","V020","070,1,N,0021,1","99999,9,9,Y","009900,1,N,1","+0120,1","+0010,1","99999,9",,,,,,,"10129,1,99999,9",,,,"MET045METAR ENSD 011550Z 07004KT CAVOK 12/01 Q1013;",
"01320099999","2010-10-01T16:50:00","4","61.8333333","6.1166667","60.0","SANDANE ANDA, NO","FM-15","ENSD ","V020","999,9,V,0015,1","99999,9,9,Y","009900,1,N,1","+0110,1","+0000,1","99999,9",,,,,,,"10129,1,99999,9",,,,"MET045METAR ENSD 011650Z VRB03KT CAVOK 11/00 Q1013;",
"01320099999","2010-10-01T17:50:00","4","61.8333333","6.1166667","60.0","SANDANE ANDA, NO","FM-15","ENSD ","V020","100,1,N,0021,1","99999,9,9,Y","009900,1,N,1","+0110,1","-0020,1","99999,9",,,,,,,"10129,1,99999,9",,,,"MET046METAR ENSD 011750Z 10004KT CAVOK 11/M02 Q1013;",
"01320099999","2010-10-01T18:50:00","4","61.8333333","6.1166667","60.0","SANDANE ANDA, NO","FM-15","ENSD ","V020","090,1,N,0041,1","99999,9,9,Y","009900,1,N,1","+0120,1","-0030,1","99999,9",,,,,,,"10129,1,99999,9",,,,"MET054METAR ENSD 011850Z 09008KT 060V130 CAVOK 12/M03 Q1013;",
"01320099999","2010-10-02T04:50:00","4","61.8333333","6.1166667","60.0","SANDANE ANDA, NO","FM-15","ENSD ","V020","110,1,N,0031,1","99999,9,9,Y","009900,1,N,1","+0090,1","-0020,1","99999,9",,,,,,,"10108,1,99999,9",,,"0082,1","MET057METAR ENSD 020450Z 11006G16KT 050V160 CAVOK 09/M02 Q1011;",
"01320099999","2010-10-02T05:50:00","4","61.8333333","6.1166667","60.0","SANDANE ANDA, NO","FM-15","ENSD ","V020","080,1,N,0072,1","22000,1,9,N","011265,1,N,1","+0120,1","-0040,1","99999,9","02,5,+01800,1,99,9",,,,"02,99,1,99,9,99,9,99999,9,99,9,99,9",,"10108,1,99999,9",,,,"MET060METAR ENSD 020550Z 08014KT 050V140 9999 FEW060 12/M04 Q1011;",
"01320099999","2010-10-02T06:50:00","4","61.8333333","6.1166667","60.0","SANDANE ANDA, NO","FM-15","ENSD ","V020","080,1,N,0072,1","22000,1,9,N","011265,1,N,1","+0120,1","-0040,1","99999,9","02,5,+01800,1,99,9",,,,"02,99,1,99,9,99,9,99999,9,99,9,99,9",,"10108,1,99999,9",,,"0123,1","MET063METAR ENSD 020650Z 08014G24KT 040V110 9999 FEW060 12/M04 Q1011;",
"01320099999","2010-10-02T07:50:00","4","61.8333333","6.1166667","60.0","SANDANE ANDA, NO","FM-15","ENSD ","V020","090,1,N,0067,1","22000,1,9,N","011265,1,N,1","+0130,1","-0040,1","99999,9","04,5,+02100,1,99,9",,,,"04,99,1,99,9,99,9,99999,9,99,9,99,9",,"10108,1,99999,9",,,,"MET060METAR ENSD 020750Z 09013KT 060V120 9999 SCT070 13/M04 Q1011;",
"01320099999","2010-10-02T08:50:00","4","61.8333333","6.1166667","60.0","SANDANE ANDA, NO","FM-15","ENSD ","V020","070,1,N,0082,1","22000,1,9,N","011265,1,N,1","+0130,1","-0030,1","99999,9","04,5,+02100,1,99,9",,,,"04,99,1,99,9,99,9,99999,9,99,9,99,9",,"10108,1,99999,9",,,,"MET060METAR ENSD 020850Z 07016KT 050V110 9999 SCT070 13/M03 Q1011;",
"01320099999","2010-10-02T09:50:00","4","61.8333333","6.1166667","60.0","SANDANE ANDA, NO","FM-15","ENSD ","V020","080,1,N,0067,1","22000,1,9,N","011265,1,N,1","+0130,1","-0040,1","99999,9","04,5,+02100,1,99,9",,,,"04,99,1,99,9,99,9,99999,9,99,9,99,9",,"10119,1,99999,9",,,,"MET060METAR ENSD 020950Z 08013KT 050V120 9999 SCT070 13/M04 Q1012;",
"01320099999","2010-10-02T10:50:00","4","61.8333333","6.1166667","60.0","SANDANE ANDA, NO","FM-15","ENSD ","V020","080,1,N,0057,1","22000,1,9,N","011265,1,N,1","+0140,1","-0030,1","99999,9","04,5,+01800,1,99,9",,,,"04,99,1,99,9,99,9,99999,9,99,9,99,9",,"10119,1,99999,9",,,,"MET052METAR ENSD 021050Z 08011KT 9999 SCT060 14/M03 Q1012;",
"01320099999","2010-10-02T11:50:00","4","61.8333333","6.1166667","60.0","SANDANE ANDA, NO","FM-15","ENSD ","V020","070,1,N,0062,1","01800,1,C,N","011265,1,N,1","+0140,1","-0030,1","99999,9","07,5,+01800,1,99,9",,,,"07,99,1,99,9,99,9,99999,9,99,9,99,9",,"10119,1,99999,9",,,,"MET060METAR ENSD 021150Z 07012KT 030V110 9999 BKN060 14/M03 Q1012;",
"01320099999","2010-10-02T12:50:00","4","61.8333333","6.1166667","60.0","SANDANE ANDA, NO","FM-15","ENSD ","V020","070,1,N,0067,1","01800,1,C,N","011265,1,N,1","+0140,1","-0030,1","99999,9","07,5,+01800,1,99,9",,,,"07,99,1,99,9,99,9,99999,9,99,9,99,9",,"10119,1,99999,9",,,"0118,1","MET063METAR ENSD 021250Z 07013G23KT 040V110 9999 BKN060 14/M03 Q1012;",
"01320099999","2010-10-03T08:50:00","4","61.8333333","6.1166667","60.0","SANDANE ANDA, NO","FM-15","ENSD ","V020","999,9,V,0036,1","02100,1,C,N","011265,1,N,1","+0120,1","+0030,1","99999,9","04,5,+01200,1,99,9","07,5,+02100,1,99,9",,,"07,99,1,99,9,99,9,99999,9,99,9,99,9",,"10041,1,99999,9","61,1",,"0093,1","MET065METAR ENSD 030850Z VRB07G18KT 9999 -RA SCT040 BKN070 12/03 Q1004;",
"01320099999","2010-10-03T09:50:00","4","61.8333333","6.1166667","60.0","SANDANE ANDA, NO","FM-15","ENSD ","V020","999,9,V,0015,1","02100,1,C,N","011265,1,N,1","+0100,1","+0050,1","99999,9","04,5,+01200,1,99,9","07,5,+02100,1,99,9",,,"07,99,1,99,9,99,9,99999,9,99,9,99,9",,"10031,1,99999,9",,,,"MET058METAR ENSD 030950Z VRB03KT 9999 SCT040 BKN070 10/05 Q1003;",
"01320099999","2010-10-03T10:50:00","4","61.8333333","6.1166667","60.0","SANDANE ANDA, NO","FM-15","ENSD ","V020","100,1,N,0046,1","02100,1,C,N","011265,1,N,1","+0130,1","+0030,1","99999,9","02,5,+01200,1,99,9","07,5,+02100,1,99,9",,,"07,99,1,99,9,99,9,99999,9,99,9,99,9",,"10020,1,99999,9",,,"0108,1","MET069METAR ENSD 031050Z 10009G21KT 030V170 9999 FEW040 BKN070 13/03 Q1002;",
"01320099999","2010-10-03T11:50:00","4","61.8333333","6.1166667","60.0","SANDANE ANDA, NO","FM-15","ENSD ","V020","999,9,9,9999,9","02100,5,9,N","011265,1,N,1","+0130,1","+0040,1","99999,9","07,5,+02100,5,99,9",,,,,,"10010,1,99999,9",,,,"MET055METAR ENSD 031150Z 1VRB09G23KT 9999 BKN070 13/04 Q1001;",
"01320099999","2010-10-03T13:50:00","4","61.8333333","6.1166667","60.0","SANDANE ANDA, NO","FM-15","ENSD ","V020","999,9,V,0041,1","01800,1,C,N","011265,1,N,1","+0160,1","+0040,1","99999,9","07,5,+01800,1,99,9",,,,"07,99,1,99,9,99,9,99999,9,99,9,99,9",,"10000,1,99999,9","80,1",,"0108,1","MET060METAR ENSD 031350Z VRB08G21KT 9999 -SHRA BKN060 16/04 Q1000;",
"01320099999","2010-10-03T14:50:00","4","61.8333333","6.1166667","60.0","SANDANE ANDA, NO","FM-15","ENSD ","V020","999,9,V,0051,1","01800,1,C,N","011265,1,N,1","+0170,1","+0030,1","99999,9","07,5,+01800,1,99,9",,,,"07,99,1,99,9,99,9,99999,9,99,9,99,9",,"09990,1,99999,9",,,"0139,1","MET054METAR ENSD 031450Z VRB10G27KT 9999 BKN060 17/03 Q0999;",
"01320099999","2010-10-03T15:50:00","4","61.8333333","6.1166667","60.0","SANDANE ANDA, NO","FM-15","ENSD ","V020","999,9,V,0051,1","01800,1,C,N","011265,1,N,1","+0180,1","+0030,1","99999,9","07,5,+01800,1,99,9",,,,"07,99,1,99,9,99,9,99999,9,99,9,99,9",,"09990,1,99999,9",,,"0118,1","MET054METAR ENSD 031550Z VRB10G23KT 9999 BKN060 18/03 Q0999;",
"01320099999","2010-10-03T16:50:00","4","61.8333333","6.1166667","60.0","SANDANE ANDA, NO","FM-15","ENSD ","V020","100,1,N,0051,1","01800,1,C,N","011265,1,N,1","+0170,1","+0040,1","99999,9","07,5,+01800,1,99,9",,,,"07,99,1,99,9,99,9,99999,9,99,9,99,9",,"09980,1,99999,9",,,"0108,1","MET062METAR ENSD 031650Z 10010G21KT 030V160 9999 BKN060 17/04 Q0998;",
"01320099999","2010-10-03T17:50:00","4","61.8333333","6.1166667","60.0","SANDANE ANDA, NO","FM-15","ENSD ","V020","110,1,N,0051,1","01650,5,C,N","011265,1,N,1","+0170,1","+0030,1","99999,9","07,5,+01650,5,99,9",,,,"07,99,1,99,9,99,9,99999,9,99,9,99,9",,"09980,1,99999,9",,,"0118,1","MET062METAR ENSD 031750Z 11010G23KT 030V190 9999 BKN055 17/03 Q0998;",
"01320099999","2010-10-03T18:50:00","4","61.8333333","6.1166667","60.0","SANDANE ANDA, NO","FM-15","ENSD ","V020","999,9,V,0046,1","01650,5,C,N","011265,1,N,1","+0170,1","+0040,1","99999,9","07,5,+01650,5,99,9",,,,"07,99,1,99,9,99,9,99999,9,99,9,99,9",,"09980,1,99999,9","80,1",,"0118,1","MET060METAR ENSD 031850Z VRB09G23KT 9999 -SHRA BKN055 17/04 Q0998;",
"01320099999","2010-10-04T04:20:00","4","61.8333333","6.1166667","60.0","SANDANE ANDA, NO","FM-15","ENSD ","V020","100,1,N,0031,1","01800,1,C,N","011265,1,N,1","+0170,1","+0060,1","99999,9","07,5,+01800,1,99,9",,,,"07,99,1,99,9,99,9,99999,9,99,9,99,9",,"09949,1,99999,9","61,1",,,"MET063METAR ENSD 040420Z 10006KT 040V200 9999 -RA BKN060 17/06 Q0995;",
"01320099999","2010-10-04T05:50:00","4","61.8333333","6.1166667","60.0","SANDANE ANDA, NO","FM-15","ENSD ","V020","110,1,N,0031,1","01800,1,C,N","011265,1,N,1","+0160,1","+0070,1","99999,9","07,5,+01800,1,99,9",,,,"07,99,1,99,9,99,9,99999,9,99,9,99,9",,"09959,1,99999,9",,,,"MET059METAR ENSD 040550Z 11006KT 040V190 9999 BKN060 16/07 Q0996;",
"01320099999","2010-10-04T06:50:00","4","61.8333333","6.1166667","60.0","SANDANE ANDA, NO","FM-15","ENSD ","V020","999,9,V,0026,1","01800,1,C,N","011265,1,N,1","+0140,1","+0080,1","99999,9","07,5,+01800,1,99,9",,,,"07,99,1,99,9,99,9,99999,9,99,9,99,9",,"09970,1,99999,9",,,,"MET051METAR ENSD 040650Z VRB05KT 9999 BKN060 14/08 Q0997;",
"01320099999","2010-10-04T07:50:00","4","61.8333333","6.1166667","60.0","SANDANE ANDA, NO","FM-15","ENSD ","V020","999,9,V,0026,1","01800,1,C,N","011265,1,N,1","+0130,1","+0080,1","99999,9","07,5,+01800,1,99,9",,,,"07,99,1,99,9,99,9,99999,9,99,9,99,9",,"09980,1,99999,9",,,,"MET051METAR ENSD 040750Z VRB05KT 9999 BKN060 13/08 Q0998;",
"01320099999","2010-10-04T08:50:00","4","61.8333333","6.1166667","60.0","SANDANE ANDA, NO","FM-15","ENSD ","V020","999,9,V,0015,1","01800,1,C,N","011265,1,N,1","+0120,1","+0090,1","99999,9","02,5,+00600,1,99,9","07,5,+01800,1,99,9",,,"07,99,1,99,9,99,9,99999,9,99,9,99,9",,"09980,1,99999,9","61,1",,,"MET062METAR ENSD 040850Z VRB03KT 9999 -RA FEW020 BKN060 12/09 Q0998;",
"01320099999","2010-10-04T09:50:00","4","61.8333333","6.1166667","60.0","SANDANE ANDA, NO","FM-15","ENSD ","V020","999,9,V,0021,1","01800,1,C,N","011265,1,N,1","+0130,1","+0090,1","99999,9","02,5,+00600,1,99,9","07,5,+01800,1,99,9",,,"07,99,1,99,9,99,9,99999,9,99,9,99,9",,"09990,1,99999,9","61,1",,,"MET062METAR ENSD 040950Z VRB04KT 9999 -RA FEW020 BKN060 13/09 Q0999;",
"01320099999","2010-10-04T10:50:00","4","61.8333333","6.1166667","60.0","SANDANE ANDA, NO","FM-15","ENSD ","V020","180,1,N,0026,1","01800,1,C,N","011265,1,N,1","+0130,1","+0090,1","99999,9","02,5,+00600,1,99,9","07,5,+01800,1,99,9",,,"07,99,1,99,9,99,9,99999,9,99,9,99,9",,"09990,1,99999,9","61,1",,,"MET062METAR ENSD 041050Z 18005KT 9999 -RA FEW020 BKN060 13/09 Q0999;",
"01320099999","2010-10-04T11:50:00","4","61.8333333","6.1166667","60.0","SANDANE ANDA, NO","FM-15","ENSD ","V020","140,1,N,0026,1","01500,1,C,N","011265,1,N,1","+0130,1","+0090,1","99999,9","02,5,+00600,1,99,9","07,5,+01500,1,99,9",,,"07,99,1,99,9,99,9,99999,9,99,9,99,9",,"09990,1,99999,9","61,1",,,"MET070METAR ENSD 041150Z 14005KT 080V170 9999 -RA FEW020 BKN050 13/09 Q0999;",
"01320099999","2010-10-04T12:50:00","4","61.8333333","6.1166667","60.0","SANDANE ANDA, NO","FM-15","ENSD ","V020","170,1,N,0021,1","01500,1,C,N","011265,1,N,1","+0130,1","+0100,1","99999,9","02,5,+00750,1,99,9","07,5,+01500,1,99,9",,,"07,99,1,99,9,99,9,99999,9,99,9,99,9",,"09990,1,99999,9","61,1",,,"MET070METAR ENSD 041250Z 17004KT 140V210 9999 -RA FEW025 BKN050 13/10 Q0999;",
"01320099999","2010-10-04T13:50:00","4","61.8333333","6.1166667","60.0","SANDANE ANDA, NO","FM-15","ENSD ","V020","999,9,V,0015,1","01500,1,C,N","011265,1,N,1","+0130,1","+0090,1","99999,9","02,5,+00750,1,99,9","07,5,+01500,1,99,9",,,"07,99,1,99,9,99,9,99999,9,99,9,99,9",,"09990,1,99999,9","61,1",,,"MET062METAR ENSD 041350Z VRB03KT 9999 -RA FEW025 BKN050 13/09 Q0999;",
"01320099999","2010-10-04T14:50:00","4","61.8333333","6.1166667","60.0","SANDANE ANDA, NO","FM-15","ENSD ","V020","100,1,N,0046,1","01500,1,C,N","011265,1,N,1","+0130,1","+0090,1","99999,9","02,5,+00750,1,99,9","07,5,+01500,1,99,9",,,"07,99,1,99,9,99,9,99999,9,99,9,99,9",,"09990,1,99999,9","61,1",,,"MET062METAR ENSD 041450Z 10009KT 9999 -RA FEW025 BKN050 13/09 Q0999;",
"01320099999","2010-10-04T15:50:00","4","61.8333333","6.1166667","60.0","SANDANE ANDA, NO","FM-15","ENSD ","V020","090,1,N,0051,1","01500,1,C,N","011265,1,N,1","+0130,1","+0090,1","99999,9","02,5,+00750,1,99,9","07,5,+01500,1,99,9",,,"07,99,1,99,9,99,9,99999,9,99,9,99,9",,"09990,1,99999,9","61,1",,,"MET062METAR ENSD 041550Z 09010KT 9999 -RA FEW025 BKN050 13/09 Q0999;",
"01320099999","2010-10-04T16:50:00","4","61.8333333","6.1166667","60.0","SANDANE ANDA, NO","FM-15","ENSD ","V020","999,9,V,0010,1","01500,1,C,N","011265,1,N,1","+0120,1","+0090,1","99999,9","02,5,+00900,1,99,9","07,5,+01500,1,99,9",,,"07,99,1,99,9,99,9,99999,9,99,9,99,9",,"09990,1,99999,9",,,,"MET058METAR ENSD 041650Z VRB02KT 9999 FEW030 BKN050 12/09 Q0999;",
"01320099999","2010-10-04T17:50:00","4","61.8333333","6.1166667","60.0","SANDANE ANDA, NO","FM-15","ENSD ","V020","999,9,V,0010,1","01650,5,C,N","011265,1,N,1","+0120,1","+0090,1","99999,9","02,5,+00900,1,99,9","07,5,+01650,5,99,9",,,"07,99,1,99,9,99,9,99999,9,99,9,99,9",,"09990,1,99999,9",,,,"MET058METAR ENSD 041750Z VRB02KT 9999 FEW030 BKN055 12/09 Q0999;",
"01320099999","2010-10-04T18:50:00","4","61.8333333","6.1166667","60.0","SANDANE ANDA, NO","FM-15","ENSD ","V020","999,9,V,0010,1","01650,5,C,N","011265,1,N,1","+0120,1","+0090,1","99999,9","02,5,+00900,1,99,9","07,5,+01650,5,99,9",,,"07,99,1,99,9,99,9,99999,9,99,9,99,9",,"09990,1,99999,9","51,1",,,"MET062METAR ENSD 041850Z VRB02KT 9999 -DZ FEW030 BKN055 12/09 Q0999;",
"01320099999","2010-10-05T04:20:00","4","61.8333333","6.1166667","60.0","SANDANE ANDA, NO","FM-15","ENSD ","V020","120,1,N,0036,1","01650,5,C,N","011265,1,N,1","+0150,1","+0080,1","99999,9","02,5,+01050,1,99,9","07,5,+01650,5,99,9",,,"07,99,1,99,9,99,9,99999,9,99,9,99,9",,"09959,1,99999,9","61,1",,,"MET070METAR ENSD 050420Z 12007KT 070V160 9999 -RA FEW035 BKN055 15/08 Q0996;",
"01320099999","2010-10-05T04:50:00","4","61.8333333","6.1166667","60.0","SANDANE ANDA, NO","FM-15","ENSD ","V020","110,1,N,0046,1","01650,5,C,N","011265,1,N,1","+0170,1","+0070,1","99999,9","02,5,+01050,1,99,9","07,5,+01650,5,99,9",,,"07,99,1,99,9,99,9,99999,9,99,9,99,9",,"09949,1,99999,9",,,"0098,1","MET069METAR ENSD 050450Z 11009G19KT 060V160 9999 FEW035 BKN055 17/07 Q0995;",
"01320099999","2010-10-05T05:50:00","4","61.8333333","6.1166667","60.0","SANDANE ANDA, NO","FM-15","ENSD ","V020","090,1,N,0046,1","01650,5,C,N","011265,1,N,1","+0170,1","+0080,1","99999,9","02,5,+01350,1,99,9","07,5,+01650,5,99,9",,,"07,99,1,99,9,99,9,99999,9,99,9,99,9",,"09959,1,99999,9","80,1",,,"MET072METAR ENSD 050550Z 09009KT 060V150 9999 -SHRA FEW045 BKN055 17/08 Q0996;",
"01320099999","2010-10-05T06:50:00","4","61.8333333","6.1166667","60.0","SANDANE ANDA, NO","FM-15","ENSD ","V020","090,1,N,0057,1","01650,5,C,N","011265,1,N,1","+0180,1","+0070,1","99999,9","02,5,+01350,1,99,9","07,5,+01650,5,99,9",,,"07,99,1,99,9,99,9,99999,9,99,9,99,9",,"09959,1,99999,9","80,1",,,"MET064METAR ENSD 050650Z 09011KT 9999 -SHRA FEW045 BKN055 18/07 Q0996;",
"01320099999","2010-10-05T07:50:00","4","61.8333333","6.1166667","60.0","SANDANE ANDA, NO","FM-15","ENSD ","V020","080,1,N,0036,1","01650,5,C,N","011265,1,N,1","+0170,1","+0090,1","99999,9","02,5,+01350,1,99,9","07,5,+01650,5,99,9",,,"07,99,1,99,9,99,9,99999,9,99,9,99,9",,"09970,1,99999,9",,,,"MET066METAR ENSD 050750Z 08007KT 050V120 9999 FEW045 BKN055 17/09 Q0997;",
"01320099999","2010-10-05T08:50:00","4","61.8333333","6.1166667","60.0","SANDANE ANDA, NO","FM-15","ENSD ","V020","120,1,N,0026,1","01650,5,C,N","011265,1,N,1","+0180,1","+0080,1","99999,9","02,5,+01200,1,99,9","07,5,+01650,5,99,9",,,"07,99,1,99,9,99,9,99999,9,99,9,99,9",,"09970,1,99999,9","16,1",,,"MET071METAR ENSD 050850Z 12005KT 060V170 9999 VCSH FEW040 BKN055 18/08 Q0997;",
"01320099999","2010-10-05T09:50:00","4","61.8333333","6.1166667","60.0","SANDANE ANDA, NO","FM-15","ENSD ","V020","999,9,V,0026,1","01650,5,C,N","011265,1,N,1","+0180,1","+0080,1","99999,9","02,5,+01200,1,99,9","07,5,+01650,5,99,9",,,"07,99,1,99,9,99,9,99999,9,99,9,99,9",,"09970,1,99999,9",,,,"MET058METAR ENSD 050950Z VRB05KT 9999 FEW040 BKN055 18/08 Q0997;",
"01320099999","2010-10-05T10:50:00","4","61.8333333","6.1166667","60.0","SANDANE ANDA, NO","FM-15","ENSD ","V020","090,1,N,0021,1","01650,5,C,N","011265,1,N,1","+0170,1","+0090,1","99999,9","02,5,+01200,1,99,9","07,5,+01650,5,99,9",,,"07,99,1,99,9,99,9,99999,9,99,9,99,9",,"09980,1,99999,9","80,1",,,"MET072METAR ENSD 051050Z 09004KT 050V150 9999 -SHRA FEW040 BKN055 17/09 Q0998;",
"01320099999","2010-10-05T11:50:00","4","61.8333333","6.1166667","60.0","SANDANE ANDA, NO","FM-15","ENSD ","V020","999,9,V,0005,1","01650,5,C,N","011265,1,N,1","+0150,1","+0110,1","99999,9","02,5,+01050,1,99,9","07,5,+01650,5,99,9",,,"07,99,1,99,9,99,9,99999,9,99,9,99,9",,"09980,1,99999,9","80,1",,,"MET064METAR ENSD 051150Z VRB01KT 9999 -SHRA FEW035 BKN055 15/11 Q0998;",
"01320099999","2010-10-05T12:50:00","4","61.8333333","6.1166667","60.0","SANDANE ANDA, NO","FM-15","ENSD ","V020","999,9,V,0010,1","01650,5,C,N","011265,1,N,1","+0150,1","+0110,1","99999,9","02,5,+01050,1,99,9","07,5,+01650,5,99,9",,,"07,99,1,99,9,99,9,99999,9,99,9,99,9",,"09970,1,99999,9",,,,"MET058METAR ENSD 051250Z VRB02KT 9999 FEW035 BKN055 15/11 Q0997;",
"01320099999","2010-10-05T13:50:00","4","61.8333333","6.1166667","60.0","SANDANE ANDA, NO","FM-15","ENSD ","V020","110,1,N,0021,1","01650,5,C,N","011265,1,N,1","+0190,1","+0080,1","99999,9","02,5,+01050,1,99,9","07,5,+01650,5,99,9",,,"07,99,1,99,9,99,9,99999,9,99,9,99,9",,"09970,1,99999,9",,,,"MET058METAR ENSD 051350Z 11004KT 9999 FEW035 BKN055 19/08 Q0997;",
"01320099999","2010-10-05T14:50:00","4","61.8333333","6.1166667","60.0","SANDANE ANDA, NO","FM-15","ENSD ","V020","140,1,N,0015,1","01650,5,C,N","011265,1,N,1","+0180,1","+0070,1","99999,9","02,5,+01050,1,99,9","07,5,+01650,5,99,9",,,"07,99,1,99,9,99,9,99999,9,99,9,99,9",,"09970,1,99999,9",,,,"MET058METAR ENSD 051450Z 14003KT 9999 FEW035 BKN055 18/07 Q0997;",
"01320099999","2010-10-05T15:50:00","4","61.8333333","6.1166667","60.0","SANDANE ANDA, NO","FM-15","ENSD ","V020","100,1,N,0036,1","01650,5,C,N","011265,1,N,1","+0190,1","+0050,1","99999,9","02,5,+01050,1,99,9","07,5,+01650,5,99,9",,,"07,99,1,99,9,99,9,99999,9,99,9,99,9",,"09970,1,99999,9","80,1",,,"MET064METAR ENSD 051550Z 10007KT 9999 -SHRA FEW035 BKN055 19/05 Q0997;",
"01320099999","2010-10-05T16:50:00","4","61.8333333","6.1166667","60.0","SANDANE ANDA, NO","FM-15","ENSD ","V020","090,1,N,0031,1","01650,5,C,N","011265,1,N,1","+0190,1","+0050,1","99999,9","02,5,+01050,1,99,9","07,5,+01650,5,99,9",,,"07,99,1,99,9,99,9,99999,9,99,9,99,9",,"09980,1,99999,9",,,,"MET058METAR ENSD 051650Z 09006KT 9999 FEW035 BKN055 19/05 Q0998;",
"01320099999","2010-10-05T17:50:00","4","61.8333333","6.1166667","60.0","SANDANE ANDA, NO","FM-15","ENSD ","V020","080,1,N,0046,1","01650,5,C,N","011265,1,N,1","+0170,1","+0050,1","99999,9","02,5,+01050,1,99,9","07,5,+01650,5,99,9",,,"07,99,1,99,9,99,9,99999,9,99,9,99,9",,"09980,1,99999,9","80,1",,,"MET072METAR ENSD 051750Z 08009KT 060V180 9999 -SHRA FEW035 BKN055 17/05 Q0998;",
"01320099999","2010-10-05T18:50:00","4","61.8333333","6.1166667","60.0","SANDANE ANDA, NO","FM-15","ENSD ","V020","070,1,N,0031,1","01650,5,C,N","011265,1,N,1","+0170,1","+0040,1","99999,9","02,5,+01050,1,99,9","07,5,+01650,5,99,9",,,"07,99,1,99,9,99,9,99999,9,99,9,99,9",,"09980,1,99999,9",,,,"MET066METAR ENSD 051850Z 07006KT 060V120 9999 FEW035 BKN055 17/04 Q0998;",
"01320099999","2010-10-06T03:50:00","4","61.8333333","6.1166667","60.0","SANDANE ANDA, NO","FM-15","ENSD ","V020","160,1,N,0026,1","01500,1,C,N","011265,1,N,1","+0120,1","+0080,1","99999,9","02,5,+00600,1,99,9","07,5,+01500,1,99,9",,,"07,99,1,99,9,99,9,99999,9,99,9,99,9",,"10031,1,99999,9","80,1",,,"MET064METAR ENSD 060350Z 16005KT 9999 -SHRA FEW020 BKN050 12/08 Q1003;",
"01320099999","2010-10-06T04:50:00","4","61.8333333","6.1166667","60.0","SANDANE ANDA, NO","FM-15","ENSD ","V020","140,1,N,0026,1","01500,1,C,N","011265,1,N,1","+0120,1","+0080,1","99999,9","02,5,+00600,1,99,9","07,5,+01500,1,99,9",,,"07,99,1,99,9,99,9,99999,9,99,9,99,9",,"10031,1,99999,9",,,,"MET058METAR ENSD 060450Z 14005KT 9999 FEW020 BKN050 12/08 Q1003;",
"01320099999","2010-10-06T05:50:00","4","61.8333333","6.1166667","60.0","SANDANE ANDA, NO","FM-15","ENSD ","V020","080,1,N,0015,1","99999,9,C,N","011265,1,N,1","+0120,1","+0080,1","99999,9","07,5,+01500,5,99,9",,,,"02,99,1,99,9,99,9,99999,9,99,9,99,9",,"10020,1,99999,9",,,,"MET059METAR ENSD 060550Z 08003KT 9999 FEW0350 BKN050 12/08 Q1002;","P01 015003SCOCIG"
"01320099999","2010-10-06T06:50:00","4","61.8333333","6.1166667","60.0","SANDANE ANDA, NO","FM-15","ENSD ","V020","120,1,N,0021,1","01500,1,C,N","011265,1,N,1","+0130,1","+0060,1","99999,9","02,5,+01050,1,99,9","07,5,+01500,1,99,9",,,"07,99,1,99,9,99,9,99999,9,99,9,99,9",,"10031,1,99999,9",,,,"MET058METAR ENSD 060650Z 12004KT 9999 FEW035 BKN050 13/06 Q1003;",
"01320099999","2010-10-06T07:50:00","4","61.8333333","6.1166667","60.0","SANDANE ANDA, NO","FM-15","ENSD ","V020","080,1,N,0041,1","01500,1,C,N","011265,1,N,1","+0140,1","+0050,1","99999,9","02,5,+01050,1,99,9","07,5,+01500,1,99,9",,,"07,99,1,99,9,99,9,99999,9,99,9,99,9",,"10031,1,99999,9",,,,"MET066METAR ENSD 060750Z 08008KT 060V150 9999 FEW035 BKN050 14/05 Q1003;",
"01320099999","2010-10-06T08:50:00","4","61.8333333","6.1166667","60.0","SANDANE ANDA, NO","FM-15","ENSD ","V020","070,1,N,0015,1","01500,1,C,N","011265,1,N,1","+0150,1","+0040,1","99999,9","02,5,+01050,1,99,9","07,5,+01500,1,99,9",,,"07,99,1,99,9,99,9,99999,9,99,9,99,9",,"10031,1,99999,9",,,,"MET058METAR ENSD 060850Z 07003KT 9999 FEW035 BKN050 15/04 Q1003;",
"01320099999","2010-10-06T09:50:00","4","61.8333333","6.1166667","60.0","SANDANE ANDA, NO","FM-15","ENSD ","V020","070,1,N,0015,1","01500,1,C,N","011265,1,N,1","+0140,1","+0050,1","99999,9","02,5,+01050,1,99,9","07,5,+01500,1,99,9",,,"07,99,1,99,9,99,9,99999,9,99,9,99,9",,"10031,1,99999,9","80,1",,,"MET064METAR ENSD 060950Z 07003KT 9999 -SHRA FEW035 BKN050 14/05 Q1003;",
"01320099999","2010-10-06T10:50:00","4","61.8333333","6.1166667","60.0","SANDANE ANDA, NO","FM-15","ENSD ","V020","110,1,N,0015,1","01500,1,C,N","011265,1,N,1","+0110,1","+0070,1","99999,9","02,5,+01050,1,99,9","07,5,+01500,1,99,9",,,"07,99,1,99,9,99,9,99999,9,99,9,99,9",,"10031,1,99999,9","80,1",,,"MET072METAR ENSD 061050Z 11003KT 020V210 9999 -SHRA FEW035 BKN050 11/07 Q1003;",
"01320099999","2010-10-06T11:50:00","4","61.8333333","6.1166667","60.0","SANDANE ANDA, NO","FM-15","ENSD ","V020","999,9,V,0005,1","01500,1,C,N","011265,1,N,1","+0110,1","+0080,1","99999,9","02,5,+01050,1,99,9","07,5,+01500,1,99,9",,,"07,99,1,99,9,99,9,99999,9,99,9,99,9",,"10020,1,99999,9","61,1",,,"MET062METAR ENSD 061150Z VRB01KT 9999 -RA FEW035 BKN050 11/08 Q1002;",
"01320099999","2010-10-06T12:50:00","4","61.8333333","6.1166667","60.0","SANDANE ANDA, NO","FM-15","ENSD ","V020","999,9,V,0005,1","01500,1,C,N","011265,1,N,1","+0110,1","+0080,1","99999,9","02,5,+01200,1,99,9","07,5,+01500,1,99,9",,,"07,99,1,99,9,99,9,99999,9,99,9,99,9",,"10020,1,99999,9","61,1",,,"MET062METAR ENSD 061250Z VRB01KT 9999 -RA FEW040 BKN050 11/08 Q1002;",
"01320099999","2010-10-06T13:50:00","4","61.8333333","6.1166667","60.0","SANDANE ANDA, NO","FM-15","ENSD ","V020","999,9,V,0005,1","01350,1,C,N","011265,1,N,1","+0110,1","+0080,1","99999,9","02,5,+01200,1,99,9","07,5,+01350,1,99,9",,,"07,99,1,99,9,99,9,99999,9,99,9,99,9",,"10010,1,99999,9","61,1",,,"MET062METAR ENSD 061350Z VRB01KT 9999 -RA FEW040 BKN045 11/08 Q1001;",
"01320099999","2010-10-06T14:50:00","4","61.8333333","6.1166667","60.0","SANDANE ANDA, NO","FM-15","ENSD ","V020","999,9,V,0005,1","01350,1,C,N","011265,1,N,1","+0110,1","+0080,1","99999,9","02,5,+00180,1,99,9","07,5,+01350,1,99,9",,,"07,99,1,99,9,99,9,99999,9,99,9,99,9",,"10000,1,99999,9","61,1",,,"MET062METAR ENSD 061450Z VRB01KT 9999 -RA FEW006 BKN045 11/08 Q1000;",
"01320099999","2010-10-06T15:50:00","4","61.8333333","6.1166667","60.0","SANDANE ANDA, NO","FM-15","ENSD ","V020","130,1,N,0021,1","01350,1,C,N","011265,1,N,1","+0110,1","+0080,1","99999,9","04,5,+00090,1,99,9","07,5,+01350,1,99,9",,,"07,99,1,99,9,99,9,99999,9,99,9,99,9",,"09990,1,99999,9","61,1",,,"MET062METAR ENSD 061550Z 13004KT 9999 -RA SCT003 BKN045 11/08 Q0999;",
"01320099999","2010-10-06T16:50:00","4","61.8333333","6.1166667","60.0","SANDANE ANDA, NO","FM-15","ENSD ","V020","140,1,N,0031,1","01350,1,C,N","011265,1,N,1","+0100,1","+0080,1","99999,9","02,5,+00090,1,99,9","07,5,+01350,1,99,9",,,"07,99,1,99,9,99,9,99999,9,99,9,99,9",,"09980,1,99999,9","61,1",,,"MET062METAR ENSD 061650Z 14006KT 9999 -RA FEW003 BKN045 10/08 Q0998;",
"01320099999","2010-10-06T17:50:00","4","61.8333333","6.1166667","60.0","SANDANE ANDA, NO","FM-15","ENSD ","V020","140,1,N,0026,1","01350,1,C,N","011265,1,N,1","+0110,1","+0070,1","99999,9","02,5,+00240,1,99,9","07,5,+01350,1,99,9",,,"07,99,1,99,9,99,9,99999,9,99,9,99,9",,"09970,1,99999,9","61,1",,,"MET070METAR ENSD 061750Z 14005KT 070V190 9999 -RA FEW008 BKN045 11/07 Q0997;",
"01320099999","2010-10-06T18:50:00","4","61.8333333","6.1166667","60.0","SANDANE ANDA, NO","FM-15","ENSD ","V020","999,9,V,0015,1","01350,1,C,N","011265,1,N,1","+0110,1","+0080,1","99999,9","02,5,+00240,1,99,9","07,5,+01350,1,99,9",,,"07,99,1,99,9,99,9,99999,9,99,9,99,9",,"09959,1,99999,9","61,1",,,"MET062METAR ENSD 061850Z VRB03KT 9999 -RA FEW008 BKN045 11/08 Q0996;",
"01320099999","2010-10-07T03:50:00","4","61.8333333","6.1166667","60.0","SANDANE ANDA, NO","FM-15","ENSD ","V020","999,9,V,0021,1","22000,1,9,N","011265,1,N,1","+0120,1","+0040,1","99999,9","04,5,+01350,1,99,9",,,,"04,99,1,99,9,99,9,99999,9,99,9,99,9",,"10108,1,99999,9",,,,"MET051METAR ENSD 070350Z VRB04KT 9999 SCT045 12/04 Q1011;",
"01320099999","2010-10-07T04:50:00","4","61.8333333","6.1166667","60.0","SANDANE ANDA, NO","FM-15","ENSD ","V020","180,1,N,0051,1","01350,1,C,N","011265,1,N,1","+0130,1","+0040,1","99999,9","02,5,+00300,1,99,9","07,5,+01350,1,99,9",,,"07,99,1,99,9,99,9,99999,9,99,9,99,9",,"10119,1,99999,9",,,,"MET066METAR ENSD 070450Z 18010KT 150V210 9999 FEW010 BKN045 13/04 Q1012;",
"01320099999","2010-10-07T05:50:00","4","61.8333333","6.1166667","60.0","SANDANE ANDA, NO","FM-15","ENSD ","V020","190,1,N,0057,1","01200,1,C,N","011265,1,N,1","+0130,1","+0050,1","99999,9","02,5,+01050,1,99,9","07,5,+01200,1,99,9",,,"07,99,1,99,9,99,9,99999,9,99,9,99,9",,"10129,1,99999,9",,,,"MET071METAR ENSD 070550Z 19011KT 120V230 9999 FEW035 BKN040 13/05 Q1013 RERA;",
"01320099999","2010-10-07T06:50:00","4","61.8333333","6.1166667","60.0","SANDANE ANDA, NO","FM-15","ENSD ","V020","999,9,V,0015,1","01200,1,C,N","011265,1,N,1","+0120,1","+0050,1","99999,9","07,5,+01200,1,99,9",,,,"07,99,1,99,9,99,9,99999,9,99,9,99,9",,"10149,1,99999,9",,,,"MET051METAR ENSD 070650Z VRB03KT 9999 BKN040 12/05 Q1015;",
"01320099999","2010-10-07T07:50:00","4","61.8333333","6.1166667","60.0","SANDANE ANDA, NO","FM-15","ENSD ","V020","999,9,V,0026,1","01200,1,C,N","011265,1,N,1","+0120,1","+0060,1","99999,9","07,5,+01200,1,99,9",,,,"07,99,1,99,9,99,9,99999,9,99,9,99,9",,"10159,1,99999,9",,,,"MET051METAR ENSD 070750Z VRB05KT 9999 BKN040 12/06 Q1016;",
"01320099999","2010-10-07T09:50:00","4","61.8333333","6.1166667","60.0","SANDANE ANDA, NO","FM-15","ENSD ","V020","999,9,V,0010,1","01350,1,C,N","011265,1,N,1","+0130,1","+0060,1","99999,9","07,5,+01350,1,99,9",,,,"07,99,1,99,9,99,9,99999,9,99,9,99,9",,"10190,1,99999,9",,,,"MET051METAR ENSD 070950Z VRB02KT 9999 BKN045 13/06 Q1019;",
"01320099999","2010-10-07T10:50:00","4","61.8333333","6.1166667","60.0","SANDANE ANDA, NO","FM-15","ENSD ","V020","999,9,V,0021,1","01350,1,C,N","011265,1,N,1","+0150,1","+0070,1","99999,9","07,5,+01350,1,99,9",,,,"07,99,1,99,9,99,9,99999,9,99,9,99,9",,"10190,1,99999,9",,,,"MET051METAR ENSD 071050Z VRB04KT 9999 BKN045 15/07 Q1019;",
"01320099999","2010-10-07T11:50:00","4","61.8333333","6.1166667","60.0","SANDANE ANDA, NO","FM-15","ENSD ","V020","999,9,V,0015,1","01350,1,C,N","011265,1,N,1","+0150,1","+0070,1","99999,9","07,5,+01350,1,99,9",,,,"07,99,1,99,9,99,9,99999,9,99,9,99,9",,"10200,1,99999,9",,,,"MET051METAR ENSD 071150Z VRB03KT 9999 BKN045 15/07 Q1020;",
"01320099999","2010-10-07T12:50:00","4","61.8333333","6.1166667","60.0","SANDANE ANDA, NO","FM-15","ENSD ","V020","999,9,V,0015,1","02100,1,C,N","011265,1,N,1","+0160,1","+0050,1","99999,9","04,5,+01350,1,99,9","07,5,+02100,1,99,9",,,"07,99,1,99,9,99,9,99999,9,99,9,99,9",,"10210,1,99999,9",,,,"MET058METAR ENSD 071250Z VRB03KT 9999 SCT045 BKN070 16/05 Q1021;",
"01320099999","2010-10-07T13:50:00","4","61.8333333","6.1166667","60.0","SANDANE ANDA, NO","FM-15","ENSD ","V020","070,1,N,0021,1","02100,1,C,N","011265,1,N,1","+0160,1","+0040,1","99999,9","04,5,+01350,1,99,9","07,5,+02100,1,99,9",,,"07,99,1,99,9,99,9,99999,9,99,9,99,9",,"10220,1,99999,9",,,,"MET058METAR ENSD 071350Z 07004KT 9999 SCT045 BKN070 16/04 Q1022;",
"01320099999","2010-10-07T14:50:00","4","61.8333333","6.1166667","60.0","SANDANE ANDA, NO","FM-15","ENSD ","V020","999,9,V,0010,1","02100,1,C,N","011265,1,N,1","+0160,1","+0040,1","99999,9","04,5,+01350,1,99,9","07,5,+02100,1,99,9",,,"07,99,1,99,9,99,9,99999,9,99,9,99,9",,"10220,1,99999,9",,,,"MET058METAR ENSD 071450Z VRB02KT 9999 SCT045 BKN070 16/04 Q1022;",
"01320099999","2010-10-07T15:50:00","4","61.8333333","6.1166667","60.0","SANDANE ANDA, NO","FM-15","ENSD ","V020","999,9,V,0010,1","02250,5,C,N","011265,1,N,1","+0150,1","+0040,1","99999,9","07,5,+02250,5,99,9",,,,"07,99,1,99,9,99,9,99999,9,99,9,99,9",,"10230,1,99999,9",,,,"MET051METAR ENSD 071550Z VRB02KT 9999 BKN075 15/04 Q1023;",
"01320099999","2010-10-07T16:50:00","4","61.8333333","6.1166667","60.0","SANDANE ANDA, NO","FM-15","ENSD ","V020","999,9,V,0010,1","02250,5,C,N","011265,1,N,1","+0130,1","+0060,1","99999,9","07,5,+02250,5,99,9",,,,"07,99,1,99,9,99,9,99999,9,99,9,99,9",,"10230,1,99999,9",,,,"MET051METAR ENSD 071650Z VRB02KT 9999 BKN075 13/06 Q1023;",
"01320099999","2010-10-07T17:50:00","4","61.8333333","6.1166667","60.0","SANDANE ANDA, NO","FM-15","ENSD ","V020","999,9,V,0010,1","02250,5,C,N","011265,1,N,1","+0130,1","+0050,1","99999,9","02,5,+01500,1,99,9","07,5,+02250,5,99,9",,,"07,99,1,99,9,99,9,99999,9,99,9,99,9",,"10240,1,99999,9",,,,"MET058METAR ENSD 071750Z VRB02KT 9999 FEW050 BKN075 13/05 Q1024;",
"01320099999","2010-10-07T18:50:00","4","61.8333333","6.1166667","60.0","SANDANE ANDA, NO","FM-15","ENSD ","V020","999,9,V,0005,1","02100,1,C,N","011265,1,N,1","+0130,1","+0060,1","99999,9","07,5,+02100,1,99,9",,,,"07,99,1,99,9,99,9,99999,9,99,9,99,9",,"10251,1,99999,9",,,,"MET051METAR ENSD 071850Z VRB01KT 9999 BKN070 13/06 Q1025;",
"01320099999","2010-10-08T04:20:00","4","61.8333333","6.1166667","60.0","SANDANE ANDA, NO","FM-15","ENSD ","V020","999,9,V,0010,1","22000,1,9,N","011265,1,N,1","+0110,1","+0060,1","99999,9","04,5,+01800,1,99,9",,,,"04,99,1,99,9,99,9,99999,9,99,9,99,9",,"10281,1,99999,9",,,,"MET051METAR ENSD 080420Z VRB02KT 9999 SCT060 11/06 Q1028;",
"01320099999","2010-10-08T05:50:00","4","61.8333333","6.1166667","60.0","SANDANE ANDA, NO","FM-15","ENSD ","V020","999,9,V,0010,1","22000,1,9,N","011265,1,N,1","+0100,1","+0040,1","99999,9","04,5,+01800,1,99,9",,,,"04,99,1,99,9,99,9,99999,9,99,9,99,9",,"10291,1,99999,9",,,,"MET051METAR ENSD 080550Z VRB02KT 9999 SCT060 10/04 Q1029;",
"01320099999","2010-10-08T06:50:00","4","61.8333333","6.1166667","60.0","SANDANE ANDA, NO","FM-15","ENSD ","V020","999,9,V,0005,1","22000,1,9,N","011265,1,N,1","+0100,1","+0050,1","99999,9","02,5,+01500,1,99,9",,,,"02,99,1,99,9,99,9,99999,9,99,9,99,9",,"10291,1,99999,9",,,,"MET051METAR ENSD 080650Z VRB01KT 9999 FEW050 10/05 Q1029;",
"01320099999","2010-10-08T07:50:00","4","61.8333333","6.1166667","60.0","SANDANE ANDA, NO","FM-15","ENSD ","V020","999,9,V,0010,1","22000,1,9,N","011265,1,N,1","+0090,1","+0040,1","99999,9","02,5,+01500,1,99,9",,,,"02,99,1,99,9,99,9,99999,9,99,9,99,9",,"10301,1,99999,9",,,,"MET051METAR ENSD 080750Z VRB02KT 9999 FEW050 09/04 Q1030;",
"01320099999","2010-10-08T08:50:00","4","61.8333333","6.1166667","60.0","SANDANE ANDA, NO","FM-15","ENSD ","V020","999,9,V,0015,1","22000,1,9,N","011265,1,N,1","+0110,1","+0050,1","99999,9","02,5,+01500,1,99,9",,,,"02,99,1,99,9,99,9,99999,9,99,9,99,9",,"10301,1,99999,9",,,,"MET051METAR ENSD 080850Z VRB03KT 9999 FEW050 11/05 Q1030;",
"01320099999","2010-10-08T09:50:00","4","61.8333333","6.1166667","60.0","SANDANE ANDA, NO","FM-15","ENSD ","V020","999,9,V,0010,1","22000,1,9,N","011265,1,N,1","+0130,1","+0050,1","99999,9","02,5,+01500,1,99,9",,,,"02,99,1,99,9,99,9,99999,9,99,9,99,9",,"10312,1,99999,9",,,,"MET051METAR ENSD 080950Z VRB02KT 9999 FEW050 13/05 Q1031;",
"01320099999","2010-10-08T10:50:00","4","61.8333333","6.1166667","60.0","SANDANE ANDA, NO","FM-15","ENSD ","V020","999,9,V,0005,1","22000,1,9,N","011265,1,N,1","+0120,1","+0050,1","99999,9","02,5,+01500,1,99,9",,,,"02,99,1,99,9,99,9,99999,9,99,9,99,9",,"10312,1,99999,9",,,,"MET051METAR ENSD 081050Z VRB01KT 9999 FEW050 12/05 Q1031;",
"01320099999","2010-10-08T11:50:00","4","61.8333333","6.1166667","60.0","SANDANE ANDA, NO","FM-15","ENSD ","V020","999,9,V,0005,1","22000,1,9,N","011265,1,N,1","+0130,1","+0060,1","99999,9","02,5,+01500,1,99,9",,,,"02,99,1,99,9,99,9,99999,9,99,9,99,9",,"10312,1,99999,9",,,,"MET051METAR ENSD 081150Z VRB01KT 9999 FEW050 13/06 Q1031;",
"01320099999","2010-10-08T13:50:00","4","61.8333333","6.1166667","60.0","SANDANE ANDA, NO","FM-15","ENSD ","V020","060,1,N,0036,1","99999,9,9,Y","009900,1,N,1","+0130,1","+0040,1","99999,9",,,,,,,"10301,1,99999,9",,,,"MET045METAR ENSD 081350Z 06007KT CAVOK 13/04 Q1030;",
"01320099999","2010-10-08T14:50:00","4","61.8333333","6.1166667","60.0","SANDANE ANDA, NO","FM-15","ENSD ","V020","050,1,N,0036,1","99999,9,9,Y","009900,1,N,1","+0130,1","+0040,1","99999,9",,,,,,,"10301,1,99999,9",,,,"MET045METAR ENSD 081450Z 05007KT CAVOK 13/04 Q1030;",
"01320099999","2010-10-08T15:50:00","4","61.8333333","6.1166667","60.0","SANDANE ANDA, NO","FM-15","ENSD ","V020","090,1,N,0015,1","99999,9,9,Y","009900,1,N,1","+0110,1","+0050,1","99999,9",,,,,,,"10301,1,99999,9",,,,"MET045METAR ENSD 081550Z 09003KT CAVOK 11/05 Q1030;",
"01320099999","2010-10-08T16:50:00","4","61.8333333","6.1166667","60.0","SANDANE ANDA, NO","FM-15","ENSD ","V020","090,1,N,0015,1","99999,9,9,Y","009900,1,N,1","+0100,1","+0050,1","99999,9",,,,,,,"10312,1,99999,9",,,,"MET045METAR ENSD 081650Z 09003KT CAVOK 10/05 Q1031;",
"01320099999","2010-10-08T17:50:00","4","61.8333333","6.1166667","60.0","SANDANE ANDA, NO","FM-15","ENSD ","V020","999,9,V,0005,1","99999,9,9,Y","009900,1,N,1","+0100,1","+0050,1","99999,9",,,,,,,"10312,1,99999,9",,,,"MET045METAR ENSD 081750Z VRB01KT CAVOK 10/05 Q1031;",
"01320099999","2010-10-08T18:50:00","4","61.8333333","6.1166667","60.0","SANDANE ANDA, NO","FM-15","ENSD ","V020","999,9,V,0005,1","99999,9,9,Y","009900,1,N,1","+0090,1","+0050,1","99999,9",,,,,,,"10312,1,99999,9",,,,"MET045METAR ENSD 081850Z VRB01KT CAVOK 09/05 Q1031;",
"01320099999","2010-10-09T04:50:00","4","61.8333333","6.1166667","60.0","SANDANE ANDA, NO","FM-15","ENSD ","V020","999,9,V,0005,1","22000,1,9,N","011265,1,N,1","+0050,1","+0020,1","99999,9","02,5,+01200,1,99,9",,,,"02,99,1,99,9,99,9,99999,9,99,9,99,9",,"10318,1,99999,9",,,,"MET049METAR ENSD 090450Z VRB01 9999 FEW040 05/02 Q1032;",
"01320099999","2010-10-09T05:50:00","4","61.8333333","6.1166667","60.0","SANDANE ANDA, NO","FM-15","ENSD ","V020","999,9,V,0010,1","22000,1,9,N","011265,1,N,1","+0050,1","+0020,1","99999,9","02,5,+00150,1,99,9",,,,"02,99,1,99,9,99,9,99999,9,99,9,99,9",,"10318,1,99999,9",,,,"MET051METAR ENSD 090550Z VRB02KT 9999 FEW005 05/02 Q1032;",
"01320099999","2010-10-09T06:50:00","4","61.8333333","6.1166667","60.0","SANDANE ANDA, NO","FM-15","ENSD ","V020","999,9,V,0010,1","22000,1,9,N","011265,1,N,1","+0050,1","+0020,1","99999,9","02,5,+00150,1,99,9",,,,"02,99,1,99,9,99,9,99999,9,99,9,99,9",,"10318,1,99999,9",,,,"MET051METAR ENSD 090650Z VRB02KT 9999 FEW005 05/02 Q1032;",
"01320099999","2010-10-09T07:50:00","4","61.8333333","6.1166667","60.0","SANDANE ANDA, NO","FM-15","ENSD ","V020","999,9,V,0005,1","22000,1,9,N","011265,1,N,1","+0050,1","+0030,1","99999,9","02,5,+00150,1,99,9",,,,"02,99,1,99,9,99,9,99999,9,99,9,99,9",,"10318,1,99999,9",,,,"MET051METAR ENSD 090750Z VRB01KT 9999 FEW005 05/03 Q1032;",
"01320099999","2010-10-09T08:50:00","4","61.8333333","6.1166667","60.0","SANDANE ANDA, NO","FM-15","ENSD ","V020","999,9,V,0010,1","22000,1,9,N","011265,1,N,1","+0060,1","+0020,1","99999,9","02,5,+00150,1,99,9",,,,"02,99,1,99,9,99,9,99999,9,99,9,99,9",,"10318,1,99999,9",,,,"MET051METAR ENSD 090850Z VRB02KT 9999 FEW005 06/02 Q1032;",
"01320099999","2010-10-09T09:50:00","4","61.8333333","6.1166667","60.0","SANDANE ANDA, NO","FM-15","ENSD ","V020","999,9,V,0010,1","22000,1,9,N","011265,1,N,1","+0070,1","+0030,1","99999,9","02,5,+00150,1,99,9",,,,"02,99,1,99,9,99,9,99999,9,99,9,99,9",,"10318,1,99999,9",,,,"MET051METAR ENSD 090950Z VRB02KT 9999 FEW005 07/03 Q1032;",
"01320099999","2010-10-09T10:50:00","4","61.8333333","6.1166667","60.0","SANDANE ANDA, NO","FM-15","ENSD ","V020","050,1,N,0031,1","99999,9,9,Y","009900,1,N,1","+0070,1","+0030,1","99999,9",,,,,,,"10312,1,99999,9",,,,"MET045METAR ENSD 091050Z 05006KT CAVOK 07/03 Q1031;",
"01320099999","2010-10-09T11:50:00","4","61.8333333","6.1166667","60.0","SANDANE ANDA, NO","FM-15","ENSD ","V020","060,1,N,0031,1","99999,9,9,Y","009900,1,N,1","+0080,1","+0030,1","99999,9",,,,,,,"10301,1,99999,9",,,,"MET045METAR ENSD 091150Z 06006KT CAVOK 08/03 Q1030;",
"01320099999","2010-10-09T12:50:00","4","61.8333333","6.1166667","60.0","SANDANE ANDA, NO","FM-15","ENSD ","V020","040,1,N,0026,1","99999,9,9,Y","009900,1,N,1","+0090,1","+0030,1","99999,9",,,,,,,"10301,1,99999,9",,,,"MET045METAR ENSD 091250Z 04005KT CAVOK 09/03 Q1030;",
"01320099999","2010-10-09T13:50:00","4","61.8333333","6.1166667","60.0","SANDANE ANDA, NO","FM-15","ENSD ","V020","999,9,V,0010,1","99999,9,9,Y","009900,1,N,1","+0100,1","+0040,1","99999,9",,,,,,,"10301,1,99999,9",,,,"MET045METAR ENSD 091350Z VRB02KT CAVOK 10/04 Q1030;",
"01320099999","2010-10-10T08:50:00","4","61.8333333","6.1166667","60.0","SANDANE ANDA, NO","FM-15","ENSD ","V020","999,9,V,0005,1","22000,1,9,N","011265,1,N,1","+0070,1","+0050,1","99999,9","02,5,+00150,1,99,9",,,,"02,99,1,99,9,99,9,99999,9,99,9,99,9",,"10251,1,99999,9",,,,"MET051METAR ENSD 100850Z VRB01KT 9999 FEW005 07/05 Q1025;",
"01320099999","2010-10-10T09:50:00","4","61.8333333","6.1166667","60.0","SANDANE ANDA, NO","FM-15","ENSD ","V020","050,1,N,0031,1","22000,1,9,N","011265,1,N,1","+0080,1","+0050,1","99999,9","02,5,+00150,1,99,9",,,,"02,99,1,99,9,99,9,99999,9,99,9,99,9",,"10251,1,99999,9",,,,"MET051METAR ENSD 100950Z 05006KT 9999 FEW005 08/05 Q1025;",
"01320099999","2010-10-10T10:50:00","4","61.8333333","6.1166667","60.0","SANDANE ANDA, NO","FM-15","ENSD ","V020","999,9,V,0005,1","22000,1,9,N","011265,1,N,1","+0080,1","+0040,1","99999,9","02,5,+00900,1,99,9",,,,"02,99,1,99,9,99,9,99999,9,99,9,99,9",,"10251,1,99999,9",,,,"MET051METAR ENSD 101050Z VRB01KT 9999 FEW030 08/04 Q1025;",
"01320099999","2010-10-10T13:50:00","4","61.8333333","6.1166667","60.0","SANDANE ANDA, NO","FM-15","ENSD ","V020","270,1,N,0031,1","99999,9,9,Y","009900,1,N,1","+0120,1","+0030,1","99999,9",,,,,,,"10251,1,99999,9",,,,"MET045METAR ENSD 101350Z 27006KT CAVOK 12/03 Q1025;",
"01320099999","2010-10-10T14:50:00","4","61.8333333","6.1166667","60.0","SANDANE ANDA, NO","FM-15","ENSD ","V020","270,1,N,0021,1","99999,9,9,Y","009900,1,N,1","+0120,1","+0040,1","99999,9",,,,,,,"10251,1,99999,9",,,,"MET045METAR ENSD 101450Z 27004KT CAVOK 12/04 Q1025;",
"01320099999","2010-10-10T15:50:00","4","61.8333333","6.1166667","60.0","SANDANE ANDA, NO","FM-15","ENSD ","V020","999,9,V,0010,1","99999,9,9,Y","009900,1,N,1","+0100,1","+0030,1","99999,9",,,,,,,"10240,1,99999,9",,,,"MET045METAR ENSD 101550Z VRB02KT CAVOK 10/03 Q1024;",
"01320099999","2010-10-10T16:50:00","4","61.8333333","6.1166667","60.0","SANDANE ANDA, NO","FM-15","ENSD ","V020","999,9,V,0010,1","99999,9,9,Y","009900,1,N,1","+0080,1","+0030,1","99999,9",,,,,,,"10240,1,99999,9",,,,"MET045METAR ENSD 101650Z VRB02KT CAVOK 08/03 Q1024;",
"01320099999","2010-10-10T17:50:00","4","61.8333333","6.1166667","60.0","SANDANE ANDA, NO","FM-15","ENSD ","V020","999,9,V,0010,1","99999,9,9,Y","009900,1,N,1","+0070,1","+0030,1","99999,9",,,,,,,"10251,1,99999,9",,,,"MET045METAR ENSD 101750Z VRB02KT CAVOK 07/03 Q1025;",
"01320099999","2010-10-10T18:50:00","4","61.8333333","6.1166667","60.0","SANDANE ANDA, NO","FM-15","ENSD ","V020","999,9,V,0010,1","99999,9,9,Y","009900,1,N,1","+0070,1","+0020,1","99999,9",,,,,,,"10251,1,99999,9",,,,"MET045METAR ENSD 101850Z VRB02KT CAVOK 07/02 Q1025;",
"01320099999","2010-10-11T03:50:00","4","61.8333333","6.1166667","60.0","SANDANE ANDA, NO","FM-15","ENSD ","V020","999,9,V,0010,1","22000,1,9,N","011265,1,N,1","+0020,1","+0000,1","99999,9","02,5,+00150,1,99,9",,,,"02,99,1,99,9,99,9,99999,9,99,9,99,9",,"10240,1,99999,9",,,,"MET052METAR ENSD 110350Z VRB02KT 9999 FEW005 02/M00 Q1024;",
"01320099999","2010-10-11T05:50:00","4","61.8333333","6.1166667","60.0","SANDANE ANDA, NO","FM-15","ENSD ","V020","999,9,V,0010,1","22000,1,9,N","011265,1,N,1","+0020,1","+0000,1","99999,9","02,5,+00150,1,99,9",,,,"02,99,1,99,9,99,9,99999,9,99,9,99,9",,"10240,1,99999,9",,,,"MET051METAR ENSD 110550Z VRB02KT 9999 FEW005 02/00 Q1024;",
"01320099999","2010-10-11T06:50:00","4","61.8333333","6.1166667","60.0","SANDANE ANDA, NO","FM-15","ENSD ","V020","999,9,V,0010,1","22000,1,9,N","011265,1,N,1","+0030,1","+0010,1","99999,9","04,5,+00150,1,99,9",,,,"04,99,1,99,9,99,9,99999,9,99,9,99,9",,"10240,1,99999,9",,,,"MET051METAR ENSD 110650Z VRB02KT 9999 SCT005 03/01 Q1024;",
"01320099999","2010-10-11T07:50:00","4","61.8333333","6.1166667","60.0","SANDANE ANDA, NO","FM-15","ENSD ","V020","999,9,V,0005,1","00300,1,C,N","011265,1,N,1","+0040,1","+0010,1","99999,9","02,5,+00210,1,99,9","07,5,+00300,1,99,9",,,"07,99,1,99,9,99,9,99999,9,99,9,99,9",,"10251,1,99999,9",,,,"MET058METAR ENSD 110750Z VRB01KT 9999 FEW007 BKN010 04/01 Q1025;",
"01320099999","2010-10-11T08:50:00","4","61.8333333","6.1166667","60.0","SANDANE ANDA, NO","FM-15","ENSD ","V020","140,1,N,0026,1","00300,1,C,N","011265,1,N,1","+0040,1","+0020,1","99999,9","02,5,+00210,1,99,9","07,5,+00300,1,99,9",,,"07,99,1,99,9,99,9,99999,9,99,9,99,9",,"10251,1,99999,9",,,,"MET058METAR ENSD 110850Z 14005KT 9999 FEW007 BKN010 04/02 Q1025;",
"01320099999","2010-10-11T09:50:00","4","61.8333333","6.1166667","60.0","SANDANE ANDA, NO","FM-15","ENSD ","V020","999,9,V,0010,1","00750,1,C,N","011265,1,N,1","+0050,1","+0020,1","99999,9","04,5,+00300,1,99,9","07,5,+00750,1,99,9",,,"07,99,1,99,9,99,9,99999,9,99,9,99,9",,"10251,1,99999,9",,,,"MET058METAR ENSD 110950Z VRB02KT 9999 SCT010 BKN025 05/02 Q1025;",
"01320099999","2010-10-11T10:50:00","4","61.8333333","6.1166667","60.0","SANDANE ANDA, NO","FM-15","ENSD ","V020","180,1,N,0015,1","01800,1,C,N","011265,1,N,1","+0060,1","+0020,1","99999,9","02,5,+00210,1,99,9","07,5,+01800,1,99,9",,,"07,99,1,99,9,99,9,99999,9,99,9,99,9",,"10240,1,99999,9",,,,"MET058METAR ENSD 111050Z 18003KT 9999 FEW007 BKN060 06/02 Q1024;",
"01320099999","2010-10-11T11:50:00","4","61.8333333","6.1166667","60.0","SANDANE ANDA, NO","FM-15","ENSD ","V020","999,9,V,0010,1","02250,5,C,N","011265,1,N,1","+0060,1","+0020,1","99999,9","02,5,+00450,1,99,9","07,5,+02250,5,99,9",,,"07,99,1,99,9,99,9,99999,9,99,9,99,9",,"10240,1,99999,9",,,,"MET058METAR ENSD 111150Z VRB02KT 9999 FEW015 BKN075 06/02 Q1024;",
"01320099999","2010-10-11T12:50:00","4","61.8333333","6.1166667","60.0","SANDANE ANDA, NO","FM-15","ENSD ","V020","999,9,V,0010,1","02250,5,C,N","011265,1,N,1","+0060,1","+0020,1","99999,9","02,5,+00450,1,99,9","07,5,+02250,5,99,9",,,"07,99,1,99,9,99,9,99999,9,99,9,99,9",,"10240,1,99999,9",,,,"MET058METAR ENSD 111250Z VRB02KT 9999 FEW015 BKN075 06/02 Q1024;",
"01320099999","2010-10-11T13:50:00","4","61.8333333","6.1166667","60.0","SANDANE ANDA, NO","FM-15","ENSD ","V020","999,9,V,0010,1","02250,5,C,N","011265,1,N,1","+0070,1","+0020,1","99999,9","04,5,+01350,1,99,9","07,5,+02250,5,99,9",,,"07,99,1,99,9,99,9,99999,9,99,9,99,9",,"10240,1,99999,9",,,,"MET058METAR ENSD 111350Z VRB02KT 9999 SCT045 BKN075 07/02 Q1024;",
"01320099999","2010-10-11T14:50:00","4","61.8333333","6.1166667","60.0","SANDANE ANDA, NO","FM-15","ENSD ","V020","090,1,N,0015,1","02250,5,C,N","011265,1,N,1","+0070,1","+0020,1","99999,9","04,5,+01350,1,99,9","07,5,+02250,5,99,9",,,"07,99,1,99,9,99,9,99999,9,99,9,99,9",,"10240,1,99999,9",,,,"MET058METAR ENSD 111450Z 09003KT 9999 SCT045 BKN075 07/02 Q1024;",
"01320099999","2010-10-11T15:50:00","4","61.8333333","6.1166667","60.0","SANDANE ANDA, NO","FM-15","ENSD ","V020","999,9,V,0005,1","02100,1,C,N","011265,1,N,1","+0070,1","+0020,1","99999,9","07,5,+02100,1,99,9",,,,"07,99,1,99,9,99,9,99999,9,99,9,99,9",,"10230,1,99999,9",,,,"MET051METAR ENSD 111550Z VRB01KT 9999 BKN070 07/02 Q1023;",
"01320099999","2010-10-11T16:50:00","4","61.8333333","6.1166667","60.0","SANDANE ANDA, NO","FM-15","ENSD ","V020","999,9,V,0010,1","22000,1,9,N","011265,1,N,1","+0060,1","+0020,1","99999,9","04,5,+02100,1,99,9",,,,"04,99,1,99,9,99,9,99999,9,99,9,99,9",,"10230,1,99999,9",,,,"MET051METAR ENSD 111650Z VRB02KT 9999 SCT070 06/02 Q1023;",
"01320099999","2010-10-11T17:50:00","4","61.8333333","6.1166667","60.0","SANDANE ANDA, NO","FM-15","ENSD ","V020","999,9,V,0010,1","22000,1,9,N","011265,1,N,1","+0060,1","+0020,1","99999,9","04,5,+01050,1,99,9",,,,"04,99,1,99,9,99,9,99999,9,99,9,99,9",,"10230,1,99999,9",,,,"MET051METAR ENSD 111750Z VRB02KT 9999 SCT035 06/02 Q1023;",
"01320099999","2010-10-11T18:50:00","4","61.8333333","6.1166667","60.0","SANDANE ANDA, NO","FM-15","ENSD ","V020","999,9,V,0015,1","00900,1,C,N","011265,1,N,1","+0060,1","+0020,1","99999,9","07,5,+00900,1,99,9",,,,"07,99,1,99,9,99,9,99999,9,99,9,99,9",,"10230,1,99999,9",,,,"MET051METAR ENSD 111850Z VRB03KT 9999 BKN030 06/02 Q1023;",
"01320099999","2010-10-12T04:20:00","4","61.8333333","6.1166667","60.0","SANDANE ANDA, NO","FM-15","ENSD ","V020","999,9,V,0010,1","00900,1,C,N","011265,1,N,1","+0050,1","+0020,1","99999,9","04,5,+00600,1,99,9","07,5,+00900,1,99,9",,,"07,99,1,99,9,99,9,99999,9,99,9,99,9",,"10220,1,99999,9",,,,"MET058METAR ENSD 120420Z VRB02KT 9999 SCT020 BKN030 05/02 Q1022;",
"01320099999","2010-10-12T05:50:00","4","61.8333333","6.1166667","60.0","SANDANE ANDA, NO","FM-15","ENSD ","V020","999,9,V,0005,1","01350,1,C,N","011265,1,N,1","+0050,1","+0020,1","99999,9","04,5,+00900,1,99,9","07,5,+01350,1,99,9",,,"07,99,1,99,9,99,9,99999,9,99,9,99,9",,"10220,1,99999,9",,,,"MET058METAR ENSD 120550Z VRB01KT 9999 SCT030 BKN045 05/02 Q1022;",
"01320099999","2010-10-12T06:50:00","4","61.8333333","6.1166667","60.0","SANDANE ANDA, NO","FM-15","ENSD ","V020","080,1,N,0015,1","99999,9,C,N","011265,1,N,1","+0050,1","+0020,1","99999,9","02,5,+00150,1,99,9","04,5,+01050,1,99,9",,,"04,99,1,99,9,99,9,99999,9,99,9,99,9",,"10220,1,99999,9",,,,"MET058METAR ENSD 120650Z 08003KT 9999 FEW005 SCT035 05/02 Q1022;","P01 010503SCOCIG"
"01320099999","2010-10-12T07:50:00","4","61.8333333","6.1166667","60.0","SANDANE ANDA, NO","FM-15","ENSD ","V020","070,1,N,0026,1","01350,1,C,N","011265,1,N,1","+0050,1","+0020,1","99999,9","02,5,+00300,1,99,9","07,5,+01350,1,99,9",,,"07,99,1,99,9,99,9,99999,9,99,9,99,9",,"10220,1,99999,9",,,,"MET066METAR ENSD 120750Z 07005KT 020V120 9999 FEW010 BKN045 05/02 Q1022;",
"01320099999","2010-10-12T08:50:00","4","61.8333333","6.1166667","60.0","SANDANE ANDA, NO","FM-15","ENSD ","V020","999,9,V,0010,1","01350,1,C,N","011265,1,N,1","+0050,1","+0020,1","99999,9","02,5,+00300,1,99,9","07,5,+01350,1,99,9",,,"07,99,1,99,9,99,9,99999,9,99,9,99,9",,"10220,1,99999,9",,,,"MET058METAR ENSD 120850Z VRB02KT 9999 FEW010 BKN045 05/02 Q1022;",
"01320099999","2010-10-12T09:50:00","4","61.8333333","6.1166667","60.0","SANDANE ANDA, NO","FM-15","ENSD ","V020","080,1,N,0015,1","22000,1,9,N","011265,1,N,1","+0060,1","+0020,1","99999,9","04,5,+01050,1,99,9",,,,"04,99,1,99,9,99,9,99999,9,99,9,99,9",,"10220,1,99999,9",,,,"MET051METAR ENSD 120950Z 08003KT 9999 SCT035 06/02 Q1022;",
"01320099999","2010-10-12T10:50:00","4","61.8333333","6.1166667","60.0","SANDANE ANDA, NO","FM-15","ENSD ","V020","080,1,N,0015,1","22000,1,9,N","011265,1,N,1","+0060,1","+0020,1","99999,9","04,5,+01050,1,99,9",,,,"04,99,1,99,9,99,9,99999,9,99,9,99,9",,"10210,1,99999,9",,,,"MET051METAR ENSD 121050Z 08003KT 9999 SCT035 06/02 Q1021;",
"01320099999","2010-10-12T11:50:00","4","61.8333333","6.1166667","60.0","SANDANE ANDA, NO","FM-15","ENSD ","V020","050,1,N,0021,1","22000,1,9,N","011265,1,N,1","+0070,1","+0020,1","99999,9","04,5,+01050,1,99,9",,,,"04,99,1,99,9,99,9,99999,9,99,9,99,9",,"10210,1,99999,9",,,,"MET059METAR ENSD 121150Z 05004KT 350V080 9999 SCT035 07/02 Q1021;",
"01320099999","2010-10-12T12:50:00","4","61.8333333","6.1166667","60.0","SANDANE ANDA, NO","FM-15","ENSD ","V020","050,1,N,0021,1","01050,1,C,N","011265,1,N,1","+0070,1","+0020,1","99999,9","02,5,+00900,1,99,9","07,5,+01050,1,99,9",,,"07,99,1,99,9,99,9,99999,9,99,9,99,9",,"10210,1,99999,9",,,,"MET066METAR ENSD 121250Z 05004KT 290V080 9999 FEW030 BKN035 07/02 Q1021;",
"01320099999","2010-10-12T13:50:00","4","61.8333333","6.1166667","60.0","SANDANE ANDA, NO","FM-15","ENSD ","V020","320,1,N,0026,1","01050,1,C,N","011265,1,N,1","+0090,1","+0030,1","99999,9","02,5,+00900,1,99,9","07,5,+01050,1,99,9",,,"07,99,1,99,9,99,9,99999,9,99,9,99,9",,"10210,1,99999,9",,,,"MET066METAR ENSD 121350Z 32005KT 260V360 9999 FEW030 BKN035 09/03 Q1021;",
"01320099999","2010-10-12T14:50:00","4","61.8333333","6.1166667","60.0","SANDANE ANDA, NO","FM-15","ENSD ","V020","320,1,N,0021,1","99999,9,C,N","011265,1,N,1","+0090,1","+0010,1","99999,9","02,5,+00900,1,99,9","04,5,+01200,1,99,9",,,"04,99,1,99,9,99,9,99999,9,99,9,99,9",,"10210,1,99999,9",,,,"MET058METAR ENSD 121450Z 32004KT 9999 FEW030 SCT040 09/01 Q1021;","P01 012003SCOCIG"
"01320099999","2010-10-12T15:50:00","4","61.8333333","6.1166667","60.0","SANDANE ANDA, NO","FM-15","ENSD ","V020","300,1,N,0031,1","22000,1,9,N","011265,1,N,1","+0090,1","+0010,1","99999,9","02,5,+01050,1,99,9",,,,"02,99,1,99,9,99,9,99999,9,99,9,99,9",,"10210,1,99999,9",,,,"MET051METAR ENSD 121550Z 30006KT 9999 FEW035 09/01 Q1021;",
"01320099999","2010-10-12T16:50:00","4","61.8333333","6.1166667","60.0","SANDANE ANDA, NO","FM-15","ENSD ","V020","310,1,N,0036,1","22000,1,9,N","011265,1,N,1","+0080,1","+0010,1","99999,9","02,5,+01050,1,99,9",,,,"02,99,1,99,9,99,9,99999,9,99,9,99,9",,"10210,1,99999,9",,,,"MET051METAR ENSD 121650Z 31007KT 9999 FEW035 08/01 Q1021;",
"01320099999","2010-10-12T17:50:00","4","61.8333333","6.1166667","60.0","SANDANE ANDA, NO","FM-15","ENSD ","V020","070,1,N,0015,1","22000,1,9,N","011265,1,N,1","+0060,1","+0010,1","99999,9","02,5,+01050,1,99,9",,,,"02,99,1,99,9,99,9,99999,9,99,9,99,9",,"10210,1,99999,9",,,,"MET051METAR ENSD 121750Z 07003KT 9999 FEW035 06/01 Q1021;",
"01320099999","2010-10-12T18:50:00","4","61.8333333","6.1166667","60.0","SANDANE ANDA, NO","FM-15","ENSD ","V020","999,9,V,0010,1","22000,1,9,N","011265,1,N,1","+0050,1","+0010,1","99999,9","02,5,+01050,1,99,9",,,,"02,99,1,99,9,99,9,99999,9,99,9,99,9",,"10200,1,99999,9",,,,"MET051METAR ENSD 121850Z VRB02KT 9999 FEW035 05/01 Q1020;",
"01320099999","2010-10-13T04:20:00","4","61.8333333","6.1166667","60.0","SANDANE ANDA, NO","FM-15","ENSD ","V020","999,9,V,0010,1","99999,9,9,Y","009900,1,N,1","+0050,1","+0020,1","99999,9",,,,,,,"10190,1,99999,9",,,,"MET045METAR ENSD 130420Z VRB02KT CAVOK 05/02 Q1019;",
"01320099999","2010-10-13T04:50:00","4","61.8333333","6.1166667","60.0","SANDANE ANDA, NO","FM-15","ENSD ","V020","120,1,N,0021,1","99999,9,9,Y","009900,1,N,1","+0050,1","+0010,1","99999,9",,,,,,,"10190,1,99999,9",,,,"MET045METAR ENSD 130450Z 12004KT CAVOK 05/01 Q1019;",
"01320099999","2010-10-13T05:50:00","4","61.8333333","6.1166667","60.0","SANDANE ANDA, NO","FM-15","ENSD ","V020","999,9,V,0005,1","03000,1,C,N","011265,1,N,1","+0050,1","+0010,1","99999,9","02,5,+00300,1,99,9","07,5,+03000,1,99,9",,,"07,99,1,99,9,99,9,99999,9,99,9,99,9",,"10180,1,99999,9",,,,"MET058METAR ENSD 130550Z VRB01KT 9999 FEW010 BKN100 05/01 Q1018;",
"01320099999","2010-10-13T06:50:00","4","61.8333333","6.1166667","60.0","SANDANE ANDA, NO","FM-15","ENSD ","V020","999,9,V,0005,1","03000,1,C,N","011265,1,N,1","+0050,1","+0020,1","99999,9","02,5,+00300,1,99,9","07,5,+03000,1,99,9",,,"07,99,1,99,9,99,9,99999,9,99,9,99,9",,"10180,1,99999,9",,,,"MET058METAR ENSD 130650Z VRB01KT 9999 FEW010 BKN100 05/02 Q1018;",
"01320099999","2010-10-13T07:50:00","4","61.8333333","6.1166667","60.0","SANDANE ANDA, NO","FM-15","ENSD ","V020","999,9,V,0010,1","01800,1,C,N","011265,1,N,1","+0050,1","+0020,1","99999,9","02,5,+00300,1,99,9","04,5,+01800,1,99,9","07,5,+03000,1,99,9",,"07,99,1,99,9,99,9,99999,9,99,9,99,9",,"10180,1,99999,9",,,,"MET065METAR ENSD 130750Z VRB02KT 9999 FEW010 SCT060 BKN100 05/02 Q1018;",
"01320099999","2010-10-13T08:50:00","4","61.8333333","6.1166667","60.0","SANDANE ANDA, NO","FM-15","ENSD ","V020","999,9,V,0005,1","01800,1,C,N","011265,1,N,1","+0060,1","+0020,1","99999,9","07,5,+01800,1,99,9",,,,"07,99,1,99,9,99,9,99999,9,99,9,99,9",,"10180,1,99999,9",,,,"MET051METAR ENSD 130850Z VRB01KT 9999 BKN060 06/02 Q1018;",
"01320099999","2010-10-13T09:50:00","4","61.8333333","6.1166667","60.0","SANDANE ANDA, NO","FM-15","ENSD ","V020","999,9,V,0010,1","01650,5,C,N","011265,1,N,1","+0060,1","+0020,1","99999,9","02,5,+00300,1,99,9","07,5,+01650,5,99,9",,,"07,99,1,99,9,99,9,99999,9,99,9,99,9",,"10180,1,99999,9",,,,"MET058METAR ENSD 130950Z VRB02KT 9999 FEW010 BKN055 06/02 Q1018;",
"01320099999","2010-10-13T10:50:00","4","61.8333333","6.1166667","60.0","SANDANE ANDA, NO","FM-15","ENSD ","V020","180,1,N,0010,1","01050,1,C,N","011265,1,N,1","+0060,1","+0020,1","99999,9","02,5,+00300,1,99,9","04,5,+01050,1,99,9","07,5,+01500,1,99,9",,"07,99,1,99,9,99,9,99999,9,99,9,99,9",,"10180,1,99999,9",,,,"MET065METAR ENSD 131050Z 18002KT 9999 FEW010 SCT035 BKN050 06/02 Q1018;",
"01320099999","2010-10-13T11:50:00","4","61.8333333","6.1166667","60.0","SANDANE ANDA, NO","FM-15","ENSD ","V020","999,9,V,0010,1","01050,1,C,N","011265,1,N,1","+0060,1","+0020,1","99999,9","02,5,+00150,1,99,9","07,5,+01050,1,99,9",,,"07,99,1,99,9,99,9,99999,9,99,9,99,9",,"10169,1,99999,9",,,,"MET058METAR ENSD 131150Z VRB02KT 9999 FEW005 BKN035 06/02 Q1017;",
"01320099999","2010-10-13T12:50:00","4","61.8333333","6.1166667","60.0","SANDANE ANDA, NO","FM-15","ENSD ","V020","080,1,N,0015,1","01050,1,C,N","011265,1,N,1","+0060,1","+0030,1","99999,9","02,5,+00150,1,99,9","07,5,+01050,1,99,9",,,"07,99,1,99,9,99,9,99999,9,99,9,99,9",,"10169,1,99999,9",,,,"MET058METAR ENSD 131250Z 08003KT 9999 FEW005 BKN035 06/03 Q1017;",
"01320099999","2010-10-13T13:50:00","4","61.8333333","6.1166667","60.0","SANDANE ANDA, NO","FM-15","ENSD ","V020","080,1,N,0015,1","01050,1,C,N","011265,1,N,1","+0060,1","+0030,1","99999,9","02,5,+00150,1,99,9","07,5,+01050,1,99,9",,,"07,99,1,99,9,99,9,99999,9,99,9,99,9",,"10159,1,99999,9",,,,"MET058METAR ENSD 131350Z 08003KT 9999 FEW005 BKN035 06/03 Q1016;",
"01320099999","2010-10-13T14:50:00","4","61.8333333","6.1166667","60.0","SANDANE ANDA, NO","FM-15","ENSD ","V020","090,1,N,0015,1","01050,1,C,N","011265,1,N,1","+0060,1","+0030,1","99999,9","02,5,+00150,1,99,9","07,5,+01050,1,99,9",,,"07,99,1,99,9,99,9,99999,9,99,9,99,9",,"10159,1,99999,9","16,1",,,"MET063METAR ENSD 131450Z 09003KT 9999 VCSH FEW005 BKN035 06/03 Q1016;",
"01320099999","2010-10-13T15:50:00","4","61.8333333","6.1166667","60.0","SANDANE ANDA, NO","FM-15","ENSD ","V020","070,1,N,0026,1","01050,1,C,N","011265,1,N,1","+0060,1","+0030,1","99999,9","02,5,+00150,1,99,9","07,5,+01050,1,99,9",,,"07,99,1,99,9,99,9,99999,9,99,9,99,9",,"10159,1,99999,9","16,1",,,"MET063METAR ENSD 131550Z 07005KT 9999 VCSH FEW005 BKN035 06/03 Q1016;",
"01320099999","2010-10-13T16:50:00","4","61.8333333","6.1166667","60.0","SANDANE ANDA, NO","FM-15","ENSD ","V020","999,9,V,0010,1","01050,1,C,N","011265,1,N,1","+0060,1","+0030,1","99999,9","02,5,+00150,1,99,9","07,5,+01050,1,99,9",,,"07,99,1,99,9,99,9,99999,9,99,9,99,9",,"10149,1,99999,9","80,1",,,"MET064METAR ENSD 131650Z VRB02KT 9999 -SHRA FEW005 BKN035 06/03 Q1015;",
"01320099999","2010-10-13T17:50:00","4","61.8333333","6.1166667","60.0","SANDANE ANDA, NO","FM-15","ENSD ","V020","999,9,C,0000,1","01050,1,C,N","011265,1,N,1","+0050,1","+0030,1","99999,9","07,5,+01050,1,99,9",,,,"07,99,1,99,9,99,9,99999,9,99,9,99,9",,"10149,1,99999,9",,,,"MET051METAR ENSD 131750Z 00000KT 9999 BKN035 05/03 Q1015;",
"01320099999","2010-10-13T18:50:00","4","61.8333333","6.1166667","60.0","SANDANE ANDA, NO","FM-15","ENSD ","V020","090,1,N,0015,1","01050,1,C,N","011265,1,N,1","+0050,1","+0030,1","99999,9","07,5,+01050,1,99,9",,,,"07,99,1,99,9,99,9,99999,9,99,9,99,9",,"10149,1,99999,9",,,,"MET051METAR ENSD 131850Z 09003KT 9999 BKN035 05/03 Q1015;",
"01320099999","2010-10-14T04:20:00","4","61.8333333","6.1166667","60.0","SANDANE ANDA, NO","FM-15","ENSD ","V020","290,1,N,0031,1","00900,1,C,N","011265,1,N,1","+0070,1","+0010,1","99999,9","04,5,+00750,1,99,9","07,5,+00900,1,99,9",,,"07,99,1,99,9,99,9,99999,9,99,9,99,9",,"10129,1,99999,9","81,1",,,"MET071METAR ENSD 140420Z 29006KT 240V340 9999 SHRA SCT025 BKN030 07/01 Q1013;",
"01320099999","2010-10-14T05:50:00","4","61.8333333","6.1166667","60.0","SANDANE ANDA, NO","FM-15","ENSD ","V020","999,9,V,0015,1","00900,1,C,N","011265,1,N,1","+0070,1","+0000,1","99999,9","07,5,+00900,1,99,9",,,,"07,99,1,99,9,99,9,99999,9,99,9,99,9",,"10129,1,99999,9","16,1",,,"MET056METAR ENSD 140550Z VRB03KT 9999 VCSH BKN030 07/00 Q1013;",
"01320099999","2010-10-14T06:50:00","4","61.8333333","6.1166667","60.0","SANDANE ANDA, NO","FM-15","ENSD ","V020","280,1,N,0021,1","00900,1,C,N","011265,1,N,1","+0070,1","-0010,1","99999,9","07,5,+00900,1,99,9",,,,"07,99,1,99,9,99,9,99999,9,99,9,99,9",,"10139,1,99999,9","16,1",,,"MET057METAR ENSD 140650Z 28004KT 9999 VCSH BKN030 07/M01 Q1014;",
"01320099999","2010-10-14T07:50:00","4","61.8333333","6.1166667","60.0","SANDANE ANDA, NO","FM-15","ENSD ","V020","999,9,V,0015,1","01200,1,C,N","011265,1,N,1","+0060,1","-0010,1","99999,9","07,5,+01200,1,99,9",,,,"07,99,1,99,9,99,9,99999,9,99,9,99,9",,"10139,1,99999,9","16,1",,,"MET057METAR ENSD 140750Z VRB03KT 9999 VCSH BKN040 06/M01 Q1014;",
"01320099999","2010-10-14T08:50:00","4","61.8333333","6.1166667","60.0","SANDANE ANDA, NO","FM-15","ENSD ","V020","999,9,V,0021,1","22000,1,9,N","011265,1,N,1","+0070,1","-0020,1","99999,9","04,5,+01350,1,99,9",,,,"04,99,1,99,9,99,9,99999,9,99,9,99,9",,"10139,1,99999,9",,,,"MET052METAR ENSD 140850Z VRB04KT 9999 SCT045 07/M02 Q1014;",
"01320099999","2010-10-14T09:50:00","4","61.8333333","6.1166667","60.0","SANDANE ANDA, NO","FM-15","ENSD ","V020","999,9,V,0015,1","22000,1,9,N","011265,1,N,1","+0080,1","-0020,1","99999,9","04,5,+01350,1,99,9",,,,"04,99,1,99,9,99,9,99999,9,99,9,99,9",,"10149,1,99999,9",,,,"MET052METAR ENSD 140950Z VRB03KT 9999 SCT045 08/M02 Q1015;",
"01320099999","2010-10-14T10:50:00","4","61.8333333","6.1166667","60.0","SANDANE ANDA, NO","FM-15","ENSD ","V020","290,1,N,0036,1","22000,1,9,N","011265,1,N,1","+0080,1","-0020,1","99999,9","04,5,+01350,1,99,9",,,,"04,99,1,99,9,99,9,99999,9,99,9,99,9",,"10149,1,99999,9",,,,"MET060METAR ENSD 141050Z 29007KT 240V350 9999 SCT045 08/M02 Q1015;",
"01320099999","2010-10-14T11:50:00","4","61.8333333","6.1166667","60.0","SANDANE ANDA, NO","FM-15","ENSD ","V020","270,1,N,0021,1","22000,1,9,N","011265,1,N,1","+0070,1","-0010,1","99999,9","04,5,+01050,1,99,9",,,,"04,99,1,99,9,99,9,99999,9,99,9,99,9",,"10149,1,99999,9","16,1",,,"MET057METAR ENSD 141150Z 27004KT 9999 VCSH SCT035 07/M01 Q1015;",
"01320099999","2010-10-14T12:50:00","4","61.8333333","6.1166667","60.0","SANDANE ANDA, NO","FM-15","ENSD ","V020","290,1,N,0031,1","22000,1,9,N","011265,1,N,1","+0070,1","-0010,1","99999,9","04,5,+01200,1,99,9",,,,"04,99,1,99,9,99,9,99999,9,99,9,99,9",,"10149,1,99999,9",,,,"MET052METAR ENSD 141250Z 29006KT 9999 SCT040 07/M01 Q1015;",
"01320099999","2010-10-14T13:50:00","4","61.8333333","6.1166667","60.0","SANDANE ANDA, NO","FM-15","ENSD ","V020","270,1,N,0036,1","22000,1,9,N","011265,1,N,1","+0070,1","-0010,1","99999,9","04,5,+01200,1,99,9",,,,"04,99,1,99,9,99,9,99999,9,99,9,99,9",,"10149,1,99999,9",,,,"MET052METAR ENSD 141350Z 27007KT 9999 SCT040 07/M01 Q1015;",
"01320099999","2010-10-14T14:50:00","4","61.8333333","6.1166667","60.0","SANDANE ANDA, NO","FM-15","ENSD ","V020","250,1,N,0021,1","22000,1,9,N","011265,1,N,1","+0060,1","-0010,1","99999,9","02,5,+01200,1,99,9",,,,"02,99,1,99,9,99,9,99999,9,99,9,99,9",,"10149,1,99999,9",,,,"MET052METAR ENSD 141450Z 25004KT 9999 FEW040 06/M01 Q1015;",
"01320099999","2010-10-14T15:50:00","4","61.8333333","6.1166667","60.0","SANDANE ANDA, NO","FM-15","ENSD ","V020","270,1,N,0015,1","22000,1,9,N","011265,1,N,1","+0060,1","-0010,1","99999,9","04,5,+01200,1,99,9",,,,"04,99,1,99,9,99,9,99999,9,99,9,99,9",,"10149,1,99999,9","16,1",,,"MET057METAR ENSD 141550Z 27003KT 9999 VCSH SCT040 06/M01 Q1015;",
"01320099999","2010-10-14T16:50:00","4","61.8333333","6.1166667","60.0","SANDANE ANDA, NO","FM-15","ENSD ","V020","200,1,N,0015,1","22000,1,9,N","011265,1,N,1","+0050,1","-0020,1","99999,9","02,5,+01200,1,99,9",,,,"02,99,1,99,9,99,9,99999,9,99,9,99,9",,"10149,1,99999,9","16,1",,,"MET057METAR ENSD 141650Z 20003KT 9999 VCSH FEW040 05/M02 Q1015;",
"01320099999","2010-10-14T17:50:00","4","61.8333333","6.1166667","60.0","SANDANE ANDA, NO","FM-15","ENSD ","V020","999,9,V,0010,1","22000,1,9,N","011265,1,N,1","+0050,1","-0010,1","99999,9","02,5,+01200,1,99,9",,,,"02,99,1,99,9,99,9,99999,9,99,9,99,9",,"10149,1,99999,9","16,1",,,"MET057METAR ENSD 141750Z VRB02KT 9999 VCSH FEW040 05/M01 Q1015;",
"01320099999","2010-10-14T18:50:00","4","61.8333333","6.1166667","60.0","SANDANE ANDA, NO","FM-15","ENSD ","V020","220,1,N,0021,1","22000,1,9,N","011265,1,N,1","+0040,1","+0000,1","99999,9","02,5,+01200,1,99,9",,,,"02,99,1,99,9,99,9,99999,9,99,9,99,9",,"10149,1,99999,9",,,,"MET052METAR ENSD 141850Z 22004KT 9999 FEW040 04/M00 Q1015;",
"01320099999","2010-10-15T03:50:00","4","61.8333333","6.1166667","60.0","SANDANE ANDA, NO","FM-15","ENSD ","V020","130,1,N,0015,1","22000,1,9,N","011265,1,N,1","+0010,1","-0020,1","99999,9","02,5,+00750,1,99,9",,,,"02,99,1,99,9,99,9,99999,9,99,9,99,9",,"10129,1,99999,9",,,,"MET052METAR ENSD 150350Z 13003KT 9999 FEW025 01/M02 Q1013;",
"01320099999","2010-10-15T04:50:00","4","61.8333333","6.1166667","60.0","SANDANE ANDA, NO","FM-15","ENSD ","V020","999,9,V,0010,1","22000,1,9,N","011265,1,N,1","+0010,1","-0020,1","99999,9","02,5,+00750,1,99,9",,,,"02,99,1,99,9,99,9,99999,9,99,9,99,9",,"10129,1,99999,9",,,,"MET052METAR ENSD 150450Z VRB02KT 9999 FEW025 01/M02 Q1013;",
"01320099999","2010-10-15T05:50:00","4","61.8333333","6.1166667","60.0","SANDANE ANDA, NO","FM-15","ENSD ","V020","150,1,N,0021,1","99999,9,9,Y","009900,1,N,1","+0010,1","-0020,1","99999,9",,,,,,,"10129,1,99999,9",,,,"MET046METAR ENSD 150550Z 15004KT CAVOK 01/M02 Q1013;",
"01320099999","2010-10-15T06:50:00","4","61.8333333","6.1166667","60.0","SANDANE ANDA, NO","FM-15","ENSD ","V020","170,1,N,0015,1","99999,9,9,Y","009900,1,N,1","+0010,1","-0020,1","99999,9",,,,,,,"10119,1,99999,9",,,,"MET046METAR ENSD 150650Z 17003KT CAVOK 01/M02 Q1012;",
"01320099999","2010-10-15T07:50:00","4","61.8333333","6.1166667","60.0","SANDANE ANDA, NO","FM-15","ENSD ","V020","999,9,C,0000,1","99999,9,9,Y","009900,1,N,1","+0000,1","-0030,1","99999,9",,,,,,,"10129,1,99999,9",,,,"MET046METAR ENSD 150750Z 00000KT CAVOK 00/M03 Q1013;",
"01320099999","2010-10-15T08:50:00","4","61.8333333","6.1166667","60.0","SANDANE ANDA, NO","FM-15","ENSD ","V020","999,9,V,0010,1","99999,9,9,Y","009900,1,N,1","+0020,1","-0030,1","99999,9",,,,,,,"10129,1,99999,9",,,,"MET046METAR ENSD 150850Z VRB02KT CAVOK 02/M03 Q1013;",
"01320099999","2010-10-15T09:50:00","4","61.8333333","6.1166667","60.0","SANDANE ANDA, NO","FM-15","ENSD ","V020","999,9,V,0005,1","99999,9,9,Y","009900,1,N,1","+0040,1","-0030,1","99999,9",,,,,,,"10129,1,99999,9",,,,"MET046METAR ENSD 150950Z VRB01KT CAVOK 04/M03 Q1013;",
"01320099999","2010-10-15T10:50:00","4","61.8333333","6.1166667","60.0","SANDANE ANDA, NO","FM-15","ENSD ","V020","999,9,V,0005,1","99999,9,9,Y","009900,1,N,1","+0040,1","-0030,1","99999,9",,,,,,,"10129,1,99999,9",,,,"MET046METAR ENSD 151050Z VRB01KT CAVOK 04/M03 Q1013;",
"01320099999","2010-10-15T11:50:00","4","61.8333333","6.1166667","60.0","SANDANE ANDA, NO","FM-15","ENSD ","V020","999,9,V,0010,1","99999,9,9,Y","009900,1,N,1","+0050,1","-0050,1","99999,9",,,,,,,"10129,1,99999,9",,,,"MET046METAR ENSD 151150Z VRB02KT CAVOK 05/M05 Q1013;",
"01320099999","2010-10-15T12:50:00","4","61.8333333","6.1166667","60.0","SANDANE ANDA, NO","FM-15","ENSD ","V020","080,1,N,0015,1","99999,9,9,Y","009900,1,N,1","+0050,1","-0040,1","99999,9",,,,,,,"10129,1,99999,9",,,,"MET046METAR ENSD 151250Z 08003KT CAVOK 05/M04 Q1013;",
"01320099999","2010-10-15T13:50:00","4","61.8333333","6.1166667","60.0","SANDANE ANDA, NO","FM-15","ENSD ","V020","999,9,V,0010,1","99999,9,9,Y","009900,1,N,1","+0060,1","-0040,1","99999,9",,,,,,,"10129,1,99999,9",,,,"MET046METAR ENSD 151350Z VRB02KT CAVOK 06/M04 Q1013;",
"01320099999","2010-10-15T14:50:00","4","61.8333333","6.1166667","60.0","SANDANE ANDA, NO","FM-15","ENSD ","V020","050,1,N,0021,1","99999,9,9,Y","009900,1,N,1","+0050,1","-0030,1","99999,9",,,,,,,"10129,1,99999,9",,,,"MET046METAR ENSD 151450Z 05004KT CAVOK 05/M03 Q1013;",
"01320099999","2010-10-15T15:50:00","4","61.8333333","6.1166667","60.0","SANDANE ANDA, NO","FM-15","ENSD ","V020","999,9,V,0010,1","99999,9,9,Y","009900,1,N,1","+0040,1","-0030,1","99999,9",,,,,,,"10139,1,99999,9",,,,"MET046METAR ENSD 151550Z VRB02KT CAVOK 04/M03 Q1014;",
"01320099999","2010-10-15T16:50:00","4","61.8333333","6.1166667","60.0","SANDANE ANDA, NO","FM-15","ENSD ","V020","999,9,V,0010,1","99999,9,9,Y","009900,1,N,1","+0030,1","-0030,1","99999,9",,,,,,,"10149,1,99999,9",,,,"MET046METAR ENSD 151650Z VRB02KT CAVOK 03/M03 Q1015;",
"01320099999","2010-10-15T17:50:00","4","61.8333333","6.1166667","60.0","SANDANE ANDA, NO","FM-15","ENSD ","V020","999,9,V,0005,1","99999,9,9,Y","009900,1,N,1","+0020,1","-0030,1","99999,9",,,,,,,"10159,1,99999,9",,,,"MET046METAR ENSD 151750Z VRB01KT CAVOK 02/M03 Q1016;",
"01320099999","2010-10-15T18:50:00","4","61.8333333","6.1166667","60.0","SANDANE ANDA, NO","FM-15","ENSD ","V020","999,9,V,0010,1","99999,9,9,Y","009900,1,N,1","+0020,1","-0020,1","99999,9",,,,,,,"10159,1,99999,9",,,,"MET046METAR ENSD 151850Z VRB02KT CAVOK 02/M02 Q1016;",
"01320099999","2010-10-16T05:20:00","4","61.8333333","6.1166667","60.0","SANDANE ANDA, NO","FM-15","ENSD ","V020","999,9,V,0010,1","99999,9,9,Y","009900,1,N,1","-0010,1","-0040,1","99999,9",,,,,,,"10210,1,99999,9",,,,"MET047METAR ENSD 160520Z VRB02KT CAVOK M01/M04 Q1021;",
"01320099999","2010-10-16T05:50:00","4","61.8333333","6.1166667","60.0","SANDANE ANDA, NO","FM-15","ENSD ","V020","999,9,V,0005,1","99999,9,9,Y","009900,1,N,1","-0010,1","-0030,1","99999,9",,,,,,,"10210,1,99999,9",,,,"MET047METAR ENSD 160550Z VRB01KT CAVOK M01/M03 Q1021;",
"01320099999","2010-10-16T07:50:00","4","61.8333333","6.1166667","60.0","SANDANE ANDA, NO","FM-15","ENSD ","V020","120,1,N,0021,1","02250,5,C,N","011265,1,N,1","+0010,1","-0030,1","99999,9","07,5,+02250,5,99,9",,,,"07,99,1,99,9,99,9,99999,9,99,9,99,9",,"10220,1,99999,9",,,,"MET060METAR ENSD 160750Z 12004KT 070V160 9999 BKN075 01/M03 Q1022;",
"01320099999","2010-10-16T08:50:00","4","61.8333333","6.1166667","60.0","SANDANE ANDA, NO","FM-15","ENSD ","V020","150,1,N,0021,1","02250,5,C,N","011265,1,N,1","+0010,1","-0040,1","99999,9","07,5,+02250,5,99,9",,,,"07,99,1,99,9,99,9,99999,9,99,9,99,9",,"10220,1,99999,9",,,,"MET060METAR ENSD 160850Z 15004KT 120V210 9999 BKN075 01/M04 Q1022;",
"01320099999","2010-10-16T09:50:00","4","61.8333333","6.1166667","60.0","SANDANE ANDA, NO","FM-15","ENSD ","V020","210,1,N,0015,1","02100,1,C,N","011265,1,N,1","+0020,1","-0030,1","99999,9","07,5,+02100,1,99,9",,,,"07,99,1,99,9,99,9,99999,9,99,9,99,9",,"10220,1,99999,9",,,,"MET060METAR ENSD 160950Z 21003KT 170V250 9999 BKN070 02/M03 Q1022;",
"01320099999","2010-10-16T10:50:00","4","61.8333333","6.1166667","60.0","SANDANE ANDA, NO","FM-15","ENSD ","V020","999,9,V,0005,1","01950,5,C,N","011265,1,N,1","+0030,1","-0030,1","99999,9","07,5,+01950,5,99,9",,,,"07,99,1,99,9,99,9,99999,9,99,9,99,9",,"10220,1,99999,9",,,,"MET052METAR ENSD 161050Z VRB01KT 9999 BKN065 03/M03 Q1022;",
"01320099999","2010-10-16T11:50:00","4","61.8333333","6.1166667","60.0","SANDANE ANDA, NO","FM-15","ENSD ","V020","999,9,V,0010,1","01950,5,C,N","011265,1,N,1","+0040,1","-0030,1","99999,9","07,5,+01950,5,99,9",,,,"07,99,1,99,9,99,9,99999,9,99,9,99,9",,"10230,1,99999,9",,,,"MET052METAR ENSD 161150Z VRB02KT 9999 BKN065 04/M03 Q1023;",
"01320099999","2010-10-16T12:50:00","4","61.8333333","6.1166667","60.0","SANDANE ANDA, NO","FM-15","ENSD ","V020","060,1,N,0036,1","01800,1,C,N","011265,1,N,1","+0040,1","-0020,1","99999,9","07,5,+01800,1,99,9",,,,"07,99,1,99,9,99,9,99999,9,99,9,99,9",,"10230,1,99999,9",,,,"MET052METAR ENSD 161250Z 06007KT 9999 BKN060 04/M02 Q1023;",
"01320099999","2010-10-16T13:50:00","4","61.8333333","6.1166667","60.0","SANDANE ANDA, NO","FM-15","ENSD ","V020","070,1,N,0026,1","01800,1,C,N","011265,1,N,1","+0040,1","-0020,1","99999,9","07,5,+01800,1,99,9",,,,"07,99,1,99,9,99,9,99999,9,99,9,99,9",,"10230,1,99999,9",,,,"MET052METAR ENSD 161350Z 07005KT 9999 BKN060 04/M02 Q1023;",
"01320099999","2010-10-17T08:50:00","4","61.8333333","6.1166667","60.0","SANDANE ANDA, NO","FM-15","ENSD ","V020","080,1,N,0057,1","02250,5,C,N","011265,1,N,1","+0060,1","+0000,1","99999,9","02,5,+01500,1,99,9","07,5,+02250,5,99,9",,,"07,99,1,99,9,99,9,99999,9,99,9,99,9",,"10180,1,99999,9",,,,"MET066METAR ENSD 170850Z 08011KT 050V160 9999 FEW050 BKN075 06/00 Q1018;",
"01320099999","2010-10-17T09:50:00","4","61.8333333","6.1166667","60.0","SANDANE ANDA, NO","FM-15","ENSD ","V020","190,1,N,0067,1","99999,9,C,N","011265,1,N,1","+0090,1","-0040,1","99999,9","02,5,+01500,1,99,9","04,5,+02250,5,99,9",,,"04,99,1,99,9,99,9,99999,9,99,9,99,9",,"10169,1,99999,9",,,,"MET067METAR ENSD 170950Z 19013KT 150V230 9999 FEW050 SCT075 09/M04 Q1017;","P01 022503SCOCIG"
"01320099999","2010-10-17T10:50:00","4","61.8333333","6.1166667","60.0","SANDANE ANDA, NO","FM-15","ENSD ","V020","999,9,V,0021,1","99999,9,C,N","011265,1,N,1","+0100,1","-0030,1","99999,9","02,5,+01350,1,99,9","04,5,+01950,5,99,9",,,"04,99,1,99,9,99,9,99999,9,99,9,99,9",,"10159,1,99999,9",,,,"MET059METAR ENSD 171050Z VRB04KT 9999 FEW045 SCT065 10/M03 Q1016;","P01 019503SCOCIG"
"01320099999","2010-10-17T13:50:00","4","61.8333333","6.1166667","60.0","SANDANE ANDA, NO","FM-15","ENSD ","V020","190,1,N,0067,1","01350,1,C,N","011265,1,N,1","+0110,1","-0010,1","99999,9","07,5,+01350,1,99,9",,,,"07,99,1,99,9,99,9,99999,9,99,9,99,9",,"10129,1,99999,9",,,"0118,1","MET063METAR ENSD 171350Z 19013G23KT 150V230 9999 BKN045 11/M01 Q1013;",
"01320099999","2010-10-17T14:50:00","4","61.8333333","6.1166667","60.0","SANDANE ANDA, NO","FM-15","ENSD ","V020","180,1,N,0072,1","01350,1,C,N","011265,1,N,1","+0100,1","-0010,1","99999,9","02,5,+01050,1,99,9","07,5,+01350,1,99,9",,,"07,99,1,99,9,99,9,99999,9,99,9,99,9",,"10129,1,99999,9",,,"0134,1","MET070METAR ENSD 171450Z 18014G26KT 130V240 9999 FEW035 BKN045 10/M01 Q1013;",
"01320099999","2010-10-17T15:50:00","4","61.8333333","6.1166667","60.0","SANDANE ANDA, NO","FM-15","ENSD ","V020","170,1,N,0067,1","01200,1,C,N","011265,1,N,1","+0100,1","-0010,1","99999,9","04,5,+00900,1,99,9","07,5,+01200,1,99,9",,,"07,99,1,99,9,99,9,99999,9,99,9,99,9",,"10108,1,99999,9","16,1",,"0134,1","MET075METAR ENSD 171550Z 17013G26KT 080V230 9999 VCSH SCT030 BKN040 10/M01 Q1011;",
"01320099999","2010-10-17T16:50:00","4","61.8333333","6.1166667","60.0","SANDANE ANDA, NO","FM-15","ENSD ","V020","190,1,N,0057,1","01200,1,C,N","011265,1,N,1","+0090,1","+0000,1","99999,9","04,5,+00900,1,99,9","07,5,+01200,1,99,9",,,"07,99,1,99,9,99,9,99999,9,99,9,99,9",,"10108,1,99999,9","61,1",,"0108,1","MET073METAR ENSD 171650Z 19011G21KT 150V240 9999 -RA SCT030 BKN040 09/00 Q1011;",
"01320099999","2010-10-17T17:50:00","4","61.8333333","6.1166667","60.0","SANDANE ANDA, NO","FM-15","ENSD ","V020","190,1,N,0036,1","01200,1,C,N","011265,1,N,1","+0090,1","+0010,1","99999,9","04,5,+00900,1,99,9","07,5,+01200,1,99,9",,,"07,99,1,99,9,99,9,99999,9,99,9,99,9",,"10102,1,99999,9","61,1",,,"MET070METAR ENSD 171750Z 19007KT 120V260 9999 -RA SCT030 BKN040 09/01 Q1010;",
"01320099999","2010-10-17T18:50:00","4","61.8333333","6.1166667","60.0","SANDANE ANDA, NO","FM-15","ENSD ","V020","999,9,V,0031,1","01200,1,C,N","011265,1,N,1","+0080,1","+0020,1","99999,9","04,5,+00900,1,99,9","07,5,+01200,1,99,9",,,"07,99,1,99,9,99,9,99999,9,99,9,99,9",,"10091,1,99999,9","61,1",,,"MET062METAR ENSD 171850Z VRB06KT 9999 -RA SCT030 BKN040 08/02 Q1009;",
"01320099999","2010-10-18T04:20:00","4","61.8333333","6.1166667","60.0","SANDANE ANDA, NO","FM-15","ENSD ","V020","100,1,N,0026,1","01140,1,C,N","011265,1,N,1","+0080,1","+0030,1","99999,9","04,5,+00900,1,99,9","07,5,+01140,1,99,9",,,"07,99,1,99,9,99,9,99999,9,99,9,99,9",,"09990,1,99999,9","63,1",,,"MET069METAR ENSD 180420Z 10005KT 060V150 9999 RA SCT030 BKN038 08/03 Q0999;",
"01320099999","2010-10-18T05:50:00","4","61.8333333","6.1166667","60.0","SANDANE ANDA, NO","FM-15","ENSD ","V020","999,9,V,0015,1","01200,1,C,N","011265,1,N,1","+0080,1","+0040,1","99999,9","04,5,+00900,1,99,9","07,5,+01200,1,99,9",,,"07,99,1,99,9,99,9,99999,9,99,9,99,9",,"09980,1,99999,9","63,1",,,"MET061METAR ENSD 180550Z VRB03KT 9999 RA SCT030 BKN040 08/04 Q0998;",
"01320099999","2010-10-18T06:50:00","4","61.8333333","6.1166667","60.0","SANDANE ANDA, NO","FM-15","ENSD ","V020","110,1,N,0021,1","01200,1,C,N","011265,1,N,1","+0070,1","+0030,1","99999,9","04,5,+00900,1,99,9","07,5,+01200,1,99,9",,,"07,99,1,99,9,99,9,99999,9,99,9,99,9",,"09980,1,99999,9","63,1",,,"MET061METAR ENSD 180650Z 11004KT 9999 RA SCT030 BKN040 07/03 Q0998;",
"01320099999","2010-10-18T07:50:00","4","61.8333333","6.1166667","60.0","SANDANE ANDA, NO","FM-15","ENSD ","V020","070,1,N,0026,1","01200,1,C,N","011265,1,N,1","+0070,1","+0040,1","99999,9","02,5,+00300,1,99,9","07,5,+01200,1,99,9",,,"07,99,1,99,9,99,9,99999,9,99,9,99,9",,"09980,1,99999,9","16,1",,,"MET063METAR ENSD 180750Z 07005KT 9999 VCSH FEW010 BKN040 07/04 Q0998;",
"01320099999","2010-10-18T08:50:00","4","61.8333333","6.1166667","60.0","SANDANE ANDA, NO","FM-15","ENSD ","V020","999,9,V,0021,1","01200,1,C,N","011265,1,N,1","+0080,1","+0030,1","99999,9","02,5,+00600,1,99,9","07,5,+01200,1,99,9",,,"07,99,1,99,9,99,9,99999,9,99,9,99,9",,"09959,1,99999,9","16,1",,,"MET063METAR ENSD 180850Z VRB04KT 9999 VCSH FEW020 BKN040 08/03 Q0996;",
"01320099999","2010-10-18T09:50:00","4","61.8333333","6.1166667","60.0","SANDANE ANDA, NO","FM-15","ENSD ","V020","060,1,N,0021,1","01200,1,C,N","011265,1,N,1","+0090,1","+0030,1","99999,9","02,5,+00600,1,99,9","07,5,+01200,1,99,9",,,"07,99,1,99,9,99,9,99999,9,99,9,99,9",,"09949,1,99999,9","16,1",,,"MET063METAR ENSD 180950Z 06004KT 9999 VCSH FEW020 BKN040 09/03 Q0995;",
"01320099999","2010-10-18T10:50:00","4","61.8333333","6.1166667","60.0","SANDANE ANDA, NO","FM-15","ENSD ","V020","999,9,V,0010,1","01200,1,C,N","011265,1,N,1","+0090,1","+0030,1","99999,9","02,5,+00600,1,99,9","07,5,+01200,1,99,9",,,"07,99,1,99,9,99,9,99999,9,99,9,99,9",,"09949,1,99999,9","81,1",,,"MET063METAR ENSD 181050Z VRB02KT 9999 SHRA FEW020 BKN040 09/03 Q0995;",
"01320099999","2010-10-18T11:50:00","4","61.8333333","6.1166667","60.0","SANDANE ANDA, NO","FM-15","ENSD ","V020","999,9,V,0010,1","01200,1,C,N","011265,1,N,1","+0090,1","+0030,1","99999,9","02,5,+00600,1,99,9","07,5,+01200,1,99,9",,,"07,99,1,99,9,99,9,99999,9,99,9,99,9",,"09949,1,99999,9",,,,"MET058METAR ENSD 181150Z VRB02KT 9999 FEW020 BKN040 09/03 Q0995;",
"01320099999","2010-10-18T12:50:00","4","61.8333333","6.1166667","60.0","SANDANE ANDA, NO","FM-15","ENSD ","V020","060,1,N,0021,1","01200,1,C,N","011265,1,N,1","+0090,1","+0030,1","99999,9","02,5,+00750,1,99,9","07,5,+01200,1,99,9",,,"07,99,1,99,9,99,9,99999,9,99,9,99,9",,"09939,1,99999,9","80,1",,,"MET072METAR ENSD 181250Z 06004KT 010V110 9999 -SHRA FEW025 BKN040 09/03 Q0994;",
"01320099999","2010-10-18T13:50:00","4","61.8333333","6.1166667","60.0","SANDANE ANDA, NO","FM-15","ENSD ","V020","999,9,V,0005,1","01200,1,C,N","011265,1,N,1","+0090,1","+0040,1","99999,9","02,5,+00600,1,99,9","07,5,+01200,1,99,9",,,"07,99,1,99,9,99,9,99999,9,99,9,99,9",,"09939,1,99999,9","80,1",,,"MET064METAR ENSD 181350Z VRB01KT 9999 -SHRA FEW020 BKN040 09/04 Q0994;",
"01320099999","2010-10-18T14:50:00","4","61.8333333","6.1166667","60.0","SANDANE ANDA, NO","FM-15","ENSD ","V020","070,1,N,0015,1","01050,1,C,N","011265,1,N,1","+0070,1","+0040,1","99999,9","02,5,+00600,1,99,9","07,5,+01050,1,99,9",,,"07,99,1,99,9,99,9,99999,9,99,9,99,9",,"09939,1,99999,9",,,,"MET058METAR ENSD 181450Z 07003KT 9999 FEW020 BKN035 07/04 Q0994;",
"01320099999","2010-10-18T15:50:00","4","61.8333333","6.1166667","60.0","SANDANE ANDA, NO","FM-15","ENSD ","V020","060,1,N,0015,1","01050,1,C,N","011265,1,N,1","+0080,1","+0030,1","99999,9","02,5,+00600,1,99,9","07,5,+01050,1,99,9",,,"07,99,1,99,9,99,9,99999,9,99,9,99,9",,"09929,1,99999,9",,,,"MET058METAR ENSD 181550Z 06003KT 9999 FEW020 BKN035 08/03 Q0993;",
"01320099999","2010-10-18T16:50:00","4","61.8333333","6.1166667","60.0","SANDANE ANDA, NO","FM-15","ENSD ","V020","130,1,N,0021,1","01050,1,C,N","011265,1,N,1","+0070,1","+0030,1","99999,9","02,5,+00600,1,99,9","07,5,+01050,1,99,9",,,"07,99,1,99,9,99,9,99999,9,99,9,99,9",,"09929,1,99999,9",,,,"MET058METAR ENSD 181650Z 13004KT 9999 FEW020 BKN035 07/03 Q0993;",
"01320099999","2010-10-18T17:50:00","4","61.8333333","6.1166667","60.0","SANDANE ANDA, NO","FM-15","ENSD ","V020","150,1,N,0015,1","01050,1,C,N","011265,1,N,1","+0070,1","+0040,1","99999,9","02,5,+00600,1,99,9","07,5,+01050,1,99,9",,,"07,99,1,99,9,99,9,99999,9,99,9,99,9",,"09929,1,99999,9",,,,"MET058METAR ENSD 181750Z 15003KT 9999 FEW020 BKN035 07/04 Q0993;",
"01320099999","2010-10-18T18:50:00","4","61.8333333","6.1166667","60.0","SANDANE ANDA, NO","FM-15","ENSD ","V020","999,9,V,0010,1","01050,1,C,N","011265,1,N,1","+0070,1","+0030,1","99999,9","02,5,+00600,1,99,9","07,5,+01050,1,99,9",,,"07,99,1,99,9,99,9,99999,9,99,9,99,9",,"09929,1,99999,9","80,1",,,"MET064METAR ENSD 181850Z VRB02KT 9999 -SHRA FEW020 BKN035 07/03 Q0993;",
"01320099999","2010-10-18T19:50:00","4","61.8333333","6.1166667","60.0","SANDANE ANDA, NO","FM-15","ENSD ","V020","999,9,V,0010,1","01050,1,C,N","011265,1,N,1","+0070,1","+0020,1","99999,9","02,5,+00600,1,99,9","07,5,+01050,1,99,9",,,"07,99,1,99,9,99,9,99999,9,99,9,99,9",,"09929,1,99999,9",,,,"MET058METAR ENSD 181950Z VRB02KT 9999 FEW020 BKN035 07/02 Q0993;",
"01320099999","2010-10-19T03:50:00","4","61.8333333","6.1166667","60.0","SANDANE ANDA, NO","FM-15","ENSD ","V020","280,1,N,0015,1","00900,1,C,N","011265,1,N,1","+0050,1","+0020,1","99999,9","02,5,+00600,1,99,9","04,5,+00900,1,99,9","07,5,+01050,1,99,9",,"07,99,1,99,9,99,9,99999,9,99,9,99,9",,"09939,1,99999,9","80,1",,,"MET071METAR ENSD 190350Z 28003KT 9999 -SHRA FEW020 SCT030 BKN035 05/02 Q0994;",
"01320099999","2010-10-19T04:50:00","4","61.8333333","6.1166667","60.0","SANDANE ANDA, NO","FM-15","ENSD ","V020","130,1,N,0021,1","00900,1,C,N","011265,1,N,1","+0050,1","+0010,1","99999,9","02,5,+00450,1,99,9","04,5,+00900,1,99,9","07,5,+01050,1,99,9",,"07,99,1,99,9,99,9,99999,9,99,9,99,9",,"09949,1,99999,9","80,1",,,"MET071METAR ENSD 190450Z 13004KT 9999 -SHRA FEW015 SCT030 BKN035 05/01 Q0995;",
"01320099999","2010-10-19T05:50:00","4","61.8333333","6.1166667","60.0","SANDANE ANDA, NO","FM-15","ENSD ","V020","999,9,V,0010,1","00900,1,C,N","011265,1,N,1","+0050,1","+0020,1","99999,9","02,5,+00600,1,99,9","04,5,+00900,1,99,9","07,5,+01050,1,99,9",,"07,99,1,99,9,99,9,99999,9,99,9,99,9",,"09949,1,99999,9","80,1",,,"MET071METAR ENSD 190550Z VRB02KT 9999 -SHRA FEW020 SCT030 BKN035 05/02 Q0995;",
"01320099999","2010-10-19T06:50:00","4","61.8333333","6.1166667","60.0","SANDANE ANDA, NO","FM-15","ENSD ","V020","150,1,N,0015,1","00600,1,C,N","011265,1,N,1","+0040,1","+0020,1","99999,9","02,5,+00150,1,99,9","04,5,+00600,1,99,9","07,5,+00900,1,99,9",,"07,99,1,99,9,99,9,99999,9,99,9,99,9",,"09959,1,99999,9",,,,"MET065METAR ENSD 190650Z 15003KT 9999 FEW005 SCT020 BKN030 04/02 Q0996;",
"01320099999","2010-10-19T07:50:00","4","61.8333333","6.1166667","60.0","SANDANE ANDA, NO","FM-15","ENSD ","V020","310,1,N,0026,1","00600,1,C,N","011265,1,N,1","+0050,1","+0020,1","99999,9","02,5,+00150,1,99,9","04,5,+00600,1,99,9","07,5,+00900,1,99,9",,"07,99,1,99,9,99,9,99999,9,99,9,99,9",,"09970,1,99999,9",,,,"MET065METAR ENSD 190750Z 31005KT 9999 FEW005 SCT020 BKN030 05/02 Q0997;",
"01320099999","2010-10-19T08:50:00","4","61.8333333","6.1166667","60.0","SANDANE ANDA, NO","FM-15","ENSD ","V020","310,1,N,0046,1","00900,1,C,N","011265,1,N,1","+0060,1","+0000,1","99999,9","02,5,+00600,1,99,9","04,5,+00900,1,99,9","07,5,+01050,1,99,9",,"07,99,1,99,9,99,9,99999,9,99,9,99,9",,"09980,1,99999,9",,,,"MET066METAR ENSD 190850Z 31009KT 9999 FEW020 SCT030 BKN035 06/M00 Q0998;",
"01320099999","2010-10-19T09:50:00","4","61.8333333","6.1166667","60.0","SANDANE ANDA, NO","FM-15","ENSD ","V020","290,1,N,0036,1","00900,1,C,N","011265,1,N,1","+0060,1","-0010,1","99999,9","02,5,+00600,1,99,9","04,5,+00900,1,99,9","07,5,+01050,1,99,9",,"07,99,1,99,9,99,9,99999,9,99,9,99,9",,"09990,1,99999,9",,,,"MET066METAR ENSD 190950Z 29007KT 9999 FEW020 SCT030 BKN035 06/M01 Q0999;",
"01320099999","2010-10-19T10:50:00","4","61.8333333","6.1166667","60.0","SANDANE ANDA, NO","FM-15","ENSD ","V020","270,1,N,0046,1","00900,1,C,N","011265,1,N,1","+0060,1","-0010,1","99999,9","02,5,+00600,1,99,9","04,5,+00900,1,99,9","07,5,+01050,1,99,9",,"07,99,1,99,9,99,9,99999,9,99,9,99,9",,"09990,1,99999,9",,,,"MET066METAR ENSD 191050Z 27009KT 9999 FEW020 SCT030 BKN035 06/M01 Q0999;",
"01320099999","2010-10-19T11:50:00","4","61.8333333","6.1166667","60.0","SANDANE ANDA, NO","FM-15","ENSD ","V020","280,1,N,0036,1","00900,1,C,N","011265,1,N,1","+0060,1","-0020,1","99999,9","02,5,+00600,1,99,9","04,5,+00900,1,99,9","07,5,+01050,1,99,9",,"07,99,1,99,9,99,9,99999,9,99,9,99,9",,"09990,1,99999,9",,,"0087,1","MET069METAR ENSD 191150Z 28007G17KT 9999 FEW020 SCT030 BKN035 06/M02 Q0999;",
"01320099999","2010-10-19T12:50:00","4","61.8333333","6.1166667","60.0","SANDANE ANDA, NO","FM-15","ENSD ","V020","270,1,N,0031,1","01350,1,C,N","011265,1,N,1","+0050,1","-0010,1","99999,9","02,5,+00900,1,99,9","07,5,+01350,1,99,9",,,"07,99,1,99,9,99,9,99999,9,99,9,99,9",,"10000,1,99999,9",,,,"MET067METAR ENSD 191250Z 27006KT 220V230 9999 FEW030 BKN045 05/M01 Q1000;",
"01320099999","2010-10-19T13:50:00","4","61.8333333","6.1166667","60.0","SANDANE ANDA, NO","FM-15","ENSD ","V020","270,1,N,0041,1","01350,1,C,N","011265,1,N,1","+0050,1","-0010,1","99999,9","02,5,+00900,1,99,9","07,5,+01350,1,99,9",,,"07,99,1,99,9,99,9,99999,9,99,9,99,9",,"10000,1,99999,9",,,,"MET067METAR ENSD 191350Z 27008KT 240V340 9999 FEW030 BKN045 05/M01 Q1000;",
"01320099999","2010-10-19T14:50:00","4","61.8333333","6.1166667","60.0","SANDANE ANDA, NO","FM-15","ENSD ","V020","280,1,N,0046,1","01050,1,C,N","011265,1,N,1","+0050,1","-0010,1","99999,9","02,5,+00750,1,99,9","07,5,+01050,1,99,9",,,"07,99,1,99,9,99,9,99999,9,99,9,99,9",,"10000,1,99999,9",,,,"MET059METAR ENSD 191450Z 28009KT 9999 FEW025 BKN035 05/M01 Q1000;",
"01320099999","2010-10-19T15:50:00","4","61.8333333","6.1166667","60.0","SANDANE ANDA, NO","FM-15","ENSD ","V020","290,1,N,0046,1","01050,1,C,N","011265,1,N,1","+0050,1","-0020,1","99999,9","07,5,+01050,1,99,9",,,,"07,99,1,99,9,99,9,99999,9,99,9,99,9",,"10010,1,99999,9",,,,"MET052METAR ENSD 191550Z 29009KT 9999 BKN035 05/M02 Q1001;",
"01320099999","2010-10-19T16:50:00","4","61.8333333","6.1166667","60.0","SANDANE ANDA, NO","FM-15","ENSD ","V020","270,1,N,0062,1","01050,1,C,N","011265,1,N,1","+0040,1","-0020,1","99999,9","04,5,+00750,1,99,9","07,5,+01050,1,99,9",,,"07,99,1,99,9,99,9,99999,9,99,9,99,9",,"10010,1,99999,9",,,,"MET059METAR ENSD 191650Z 27012KT 9999 SCT025 BKN035 04/M02 Q1001;",
"01320099999","2010-10-19T17:50:00","4","61.8333333","6.1166667","60.0","SANDANE ANDA, NO","FM-15","ENSD ","V020","999,9,V,0021,1","01200,1,C,N","011265,1,N,1","+0040,1","-0040,1","99999,9","02,5,+00900,1,99,9","07,5,+01200,1,99,9",,,"07,99,1,99,9,99,9,99999,9,99,9,99,9",,"10020,1,99999,9",,,,"MET059METAR ENSD 191750Z VRB04KT 9999 FEW030 BKN040 04/M04 Q1002;",
"01320099999","2010-10-19T18:50:00","4","61.8333333","6.1166667","60.0","SANDANE ANDA, NO","FM-15","ENSD ","V020","270,1,N,0041,1","01200,1,C,N","011265,1,N,1","+0040,1","-0040,1","99999,9","02,5,+00900,1,99,9","07,5,+01200,1,99,9",,,"07,99,1,99,9,99,9,99999,9,99,9,99,9",,"10020,1,99999,9",,,,"MET059METAR ENSD 191850Z 27008KT 9999 FEW030 BKN040 04/M04 Q1002;",
"01320099999","2010-10-20T04:20:00","4","61.8333333","6.1166667","60.0","SANDANE ANDA, NO","FM-15","ENSD ","V020","999,9,V,0010,1","00900,1,C,N","008000,1,N,1","+0000,1","-0040,1","99999,9","04,5,+00600,1,99,9","07,5,+00900,1,99,9",,,"07,99,1,99,9,99,9,99999,9,99,9,99,9",,"10061,1,99999,9","85,5",,,"MET065METAR ENSD 200420Z VRB02KT 8000 -SHSN SCT020 BKN030 00/M04 Q1006;",
"01320099999","2010-10-20T06:50:00","4","61.8333333","6.1166667","60.0","SANDANE ANDA, NO","FM-15","ENSD ","V020","270,1,N,0015,1","00900,1,C,N","011265,1,N,1","+0000,1","-0040,1","99999,9","04,5,+00600,1,99,9","07,5,+00900,1,99,9",,,"07,99,1,99,9,99,9,99999,9,99,9,99,9",,"10061,1,99999,9","16,1",,,"MET064METAR ENSD 200650Z 27003KT 9999 VCSH SCT020 BKN030 00/M04 Q1006;",
"01320099999","2010-10-20T07:50:00","4","61.8333333","6.1166667","60.0","SANDANE ANDA, NO","FM-15","ENSD ","V020","999,9,V,0015,1","01050,1,C,N","011265,1,N,1","+0000,1","-0030,1","99999,9","02,5,+00360,1,99,9","07,5,+01050,1,99,9",,,"07,99,1,99,9,99,9,99999,9,99,9,99,9",,"10071,1,99999,9","85,5",,,"MET065METAR ENSD 200750Z VRB03KT 9999 -SHSN FEW012 BKN035 00/M03 Q1007;",
"01320099999","2010-10-20T08:50:00","4","61.8333333","6.1166667","60.0","SANDANE ANDA, NO","FM-15","ENSD ","V020","999,9,V,0010,1","01050,1,C,N","011265,1,N,1","+0010,1","-0040,1","99999,9","02,5,+00360,1,99,9","07,5,+01050,1,99,9",,,"07,99,1,99,9,99,9,99999,9,99,9,99,9",,"10071,1,99999,9","16,1",,,"MET064METAR ENSD 200850Z VRB02KT 9999 VCSH FEW012 BKN035 01/M04 Q1007;",
"01320099999","2010-10-20T09:50:00","4","61.8333333","6.1166667","60.0","SANDANE ANDA, NO","FM-15","ENSD ","V020","999,9,V,0015,1","01050,1,C,N","011265,1,N,1","+0010,1","-0030,1","99999,9","02,5,+00360,1,99,9","07,5,+01050,1,99,9",,,"07,99,1,99,9,99,9,99999,9,99,9,99,9",,"10071,1,99999,9","85,5",,,"MET065METAR ENSD 200950Z VRB03KT 9999 -SHSN FEW012 BKN035 01/M03 Q1007;",
"01320099999","2010-10-20T10:50:00","4","61.8333333","6.1166667","60.0","SANDANE ANDA, NO","FM-15","ENSD ","V020","999,9,V,0010,1","00240,1,9,N","002000,1,N,1","-0010,1","-0030,1","99999,9","09,1,+00240,1,99,9",,,,"09,99,1,99,9,99,9,00025,1,99,9,99,9",,"10081,1,99999,9","86,5",,,"MET057METAR ENSD 201050Z VRB02KT 2000 SHSN VV008 M01/M03 Q1008;",
"01320099999","2010-10-20T11:50:00","4","61.8333333","6.1166667","60.0","SANDANE ANDA, NO","FM-15","ENSD ","V020","240,1,N,0015,1","99999,9,C,N","011265,1,N,1","-0010,1","-0030,1","99999,9","02,5,+00300,1,99,9","04,5,+01200,1,99,9",,,"04,99,1,99,9,99,9,99999,9,99,9,99,9",,"10071,1,99999,9",,,,"MET060METAR ENSD 201150Z 24003KT 9999 FEW010 SCT040 M01/M03 Q1007;","P01 012003SCOCIG"
"01320099999","2010-10-20T12:50:00","4","61.8333333","6.1166667","60.0","SANDANE ANDA, NO","FM-15","ENSD ","V020","999,9,V,0010,1","99999,9,C,N","011265,1,N,1","+0000,1","-0040,1","99999,9","02,5,+00150,1,99,9","04,5,+01200,1,99,9",,,"04,99,1,99,9,99,9,99999,9,99,9,99,9",,"10071,1,99999,9",,,,"MET060METAR ENSD 201250Z VRB02KT 9999 FEW005 SCT040 M00/M04 Q1007;","P01 012003SCOCIG"
"01320099999","2010-10-20T13:50:00","4","61.8333333","6.1166667","60.0","SANDANE ANDA, NO","FM-15","ENSD ","V020","170,1,N,0015,1","99999,9,C,N","011265,1,N,1","+0000,1","-0040,1","99999,9","02,5,+00150,1,99,9","04,5,+01500,1,99,9",,,"04,99,1,99,9,99,9,99999,9,99,9,99,9",,"10071,1,99999,9",,,,"MET060METAR ENSD 201350Z 17003KT 9999 FEW005 SCT050 M00/M04 Q1007;","P01 015003SCOCIG"
"01320099999","2010-10-20T14:50:00","4","61.8333333","6.1166667","60.0","SANDANE ANDA, NO","FM-15","ENSD ","V020","170,1,N,0015,1","99999,9,C,N","011265,1,N,1","+0000,1","-0040,1","99999,9","02,5,+00300,1,99,9","04,5,+01200,1,99,9",,,"04,99,1,99,9,99,9,99999,9,99,9,99,9",,"10071,1,99999,9",,,,"MET060METAR ENSD 201450Z 17003KT 9999 FEW010 SCT040 M00/M04 Q1007;","P01 012003SCOCIG"
"01320099999","2010-10-20T15:50:00","4","61.8333333","6.1166667","60.0","SANDANE ANDA, NO","FM-15","ENSD ","V020","160,1,N,0021,1","01200,1,C,N","011265,1,N,1","-0010,1","-0040,1","99999,9","02,5,+00300,1,99,9","07,5,+01200,1,99,9",,,"07,99,1,99,9,99,9,99999,9,99,9,99,9",,"10071,1,99999,9",,,,"MET060METAR ENSD 201550Z 16004KT 9999 FEW010 BKN040 M01/M04 Q1007;",
"01320099999","2010-10-20T16:50:00","4","61.8333333","6.1166667","60.0","SANDANE ANDA, NO","FM-15","ENSD ","V020","170,1,N,0021,1","01200,1,C,N","011265,1,N,1","+0000,1","-0030,1","99999,9","02,5,+00300,1,99,9","07,5,+01200,1,99,9",,,"07,99,1,99,9,99,9,99999,9,99,9,99,9",,"10071,1,99999,9",,,,"MET060METAR ENSD 201650Z 17004KT 9999 FEW010 BKN040 M00/M03 Q1007;",
"01320099999","2010-10-20T17:50:00","4","61.8333333","6.1166667","60.0","SANDANE ANDA, NO","FM-15","ENSD ","V020","160,1,N,0021,1","99999,9,C,N","011265,1,N,1","+0000,1","-0030,1","99999,9","02,5,+00300,1,99,9","04,5,+01200,1,99,9",,,"04,99,1,99,9,99,9,99999,9,99,9,99,9",,"10071,1,99999,9","85,5",,,"MET066METAR ENSD 201750Z 16004KT 9999 -SHSN FEW010 SCT040 M00/M03 Q1007;","P01 012003SCOCIG"
"01320099999","2010-10-20T18:50:00","4","61.8333333","6.1166667","60.0","SANDANE ANDA, NO","FM-15","ENSD ","V020","170,1,N,0015,1","99999,9,C,N","011265,1,N,1","-0010,1","-0040,1","99999,9","02,5,+00300,1,99,9","04,5,+01200,1,99,9",,,"04,99,1,99,9,99,9,99999,9,99,9,99,9",,"10071,1,99999,9",,,,"MET060METAR ENSD 201850Z 17003KT 9999 FEW010 SCT040 M01/M04 Q1007;","P01 012003SCOCIG"
"01320099999","2010-10-21T03:50:00","4","61.8333333","6.1166667","60.0","SANDANE ANDA, NO","FM-15","ENSD ","V020","160,1,N,0015,1","00600,1,C,N","011265,1,N,1","-0010,1","-0050,1","99999,9","02,5,+00450,1,99,9","04,5,+00600,1,99,9","07,5,+00900,1,99,9",,"07,99,1,99,9,99,9,99999,9,99,9,99,9",,"10041,1,99999,9","85,5",,,"MET073METAR ENSD 210350Z 16003KT 9999 -SHSN FEW015 SCT020 BKN030 M01/M05 Q1004;",
"01320099999","2010-10-21T04:50:00","4","61.8333333","6.1166667","60.0","SANDANE ANDA, NO","FM-15","ENSD ","V020","180,1,N,0021,1","00600,1,C,N","011265,1,N,1","-0010,1","-0040,1","99999,9","02,5,+00450,1,99,9","04,5,+00600,1,99,9","07,5,+00900,1,99,9",,"07,99,1,99,9,99,9,99999,9,99,9,99,9",,"10031,1,99999,9","85,5",,,"MET073METAR ENSD 210450Z 18004KT 9999 -SHSN FEW015 SCT020 BKN030 M01/M04 Q1003;",
"01320099999","2010-10-21T05:50:00","4","61.8333333","6.1166667","60.0","SANDANE ANDA, NO","FM-15","ENSD ","V020","170,1,N,0015,1","00600,1,C,N","011265,1,N,1","-0010,1","-0040,1","99999,9","02,5,+00300,1,99,9","04,5,+00600,1,99,9","07,5,+00900,1,99,9",,"07,99,1,99,9,99,9,99999,9,99,9,99,9",,"10031,1,99999,9","85,5",,,"MET073METAR ENSD 210550Z 17003KT 9999 -SHSN FEW010 SCT020 BKN030 M01/M04 Q1003;",
"01320099999","2010-10-21T06:50:00","4","61.8333333","6.1166667","60.0","SANDANE ANDA, NO","FM-15","ENSD ","V020","190,1,N,0015,1","00600,1,C,N","011265,1,N,1","-0010,1","-0030,1","99999,9","02,5,+00300,1,99,9","04,5,+00600,1,99,9","07,5,+00900,1,99,9",,"07,99,1,99,9,99,9,99999,9,99,9,99,9",,"10020,1,99999,9","71,1",,,"MET071METAR ENSD 210650Z 19003KT 9999 -SN FEW010 SCT020 BKN030 M01/M03 Q1002;",
"01320099999","2010-10-21T07:50:00","4","61.8333333","6.1166667","60.0","SANDANE ANDA, NO","FM-15","ENSD ","V020","090,1,N,0021,1","00450,1,9,N","005000,1,N,1","+0000,1","-0030,1","99999,9","09,1,+00450,1,99,9",,,,"09,99,1,99,9,99,9,00025,1,99,9,99,9",,"10010,1,99999,9","71,1",,,"MET056METAR ENSD 210750Z 09004KT 5000 -SN VV015 M00/M03 Q1001;",
"01320099999","2010-10-21T08:50:00","4","61.8333333","6.1166667","60.0","SANDANE ANDA, NO","FM-15","ENSD ","V020","130,1,N,0021,1","00390,1,9,N","005000,1,N,1","+0000,1","-0030,1","99999,9","09,1,+00390,1,99,9",,,,"09,99,1,99,9,99,9,00025,1,99,9,99,9",,"10000,1,99999,9","71,1",,,"MET055METAR ENSD 210850Z 13004KT 5000 -SN VV013 00/M03 Q1000;",
"01320099999","2010-10-21T09:50:00","4","61.8333333","6.1166667","60.0","SANDANE ANDA, NO","FM-15","ENSD ","V020","080,1,N,0015,1","00360,1,9,N","004000,1,N,1","+0000,1","-0030,1","99999,9","09,1,+00360,1,99,9",,,,"09,99,1,99,9,99,9,00025,1,99,9,99,9",,"10000,1,99999,9","71,1",,,"MET056METAR ENSD 210950Z 08003KT 4000 -SN VV012 M00/M03 Q1000;",
"01320099999","2010-10-21T10:50:00","4","61.8333333","6.1166667","60.0","SANDANE ANDA, NO","FM-15","ENSD ","V020","070,1,N,0031,1","00060,1,9,N","002000,1,N,1","+0000,1","-0020,1","99999,9","09,1,+00060,1,99,9",,,,"09,99,1,99,9,99,9,00025,1,99,9,99,9",,"09990,1,99999,9","73,1",,,"MET055METAR ENSD 211050Z 07006KT 2000 SN VV002 M00/M02 Q0999;",
"01320099999","2010-10-21T11:50:00","4","61.8333333","6.1166667","60.0","SANDANE ANDA, NO","FM-15","ENSD ","V020","999,9,V,0005,1","00300,1,C,N","005000,1,N,1","+0000,1","-0020,1","99999,9","02,5,+00060,1,99,9","07,5,+00300,1,99,9",,,"07,99,1,99,9,99,9,99999,9,99,9,99,9",,"09990,1,99999,9","71,1",,,"MET064METAR ENSD 211150Z VRB01KT 5000 -SN FEW002 BKN010 M00/M02 Q0999;",
"01320099999","2010-10-21T12:50:00","4","61.8333333","6.1166667","60.0","SANDANE ANDA, NO","FM-15","ENSD ","V020","999,9,C,0000,1","00240,1,9,N","002000,1,N,1","+0000,1","-0020,1","99999,9","09,1,+00240,1,99,9",,,,"09,99,1,99,9,99,9,00025,1,99,9,99,9",,"09980,1,99999,9","71,1",,,"MET055METAR ENSD 211250Z 00000KT 2000 -SN VV008 00/M02 Q0998;",
"01320099999","2010-10-21T13:50:00","4","61.8333333","6.1166667","60.0","SANDANE ANDA, NO","FM-15","ENSD ","V020","999,9,V,0005,1","00210,1,C,N","002000,1,N,1","+0000,1","-0020,1","99999,9","02,5,+00090,1,99,9","07,5,+00210,1,99,9",,,"07,99,1,99,9,99,9,99999,9,99,9,99,9",,"09980,1,99999,9","71,1",,,"MET069METAR ENSD 211350Z VRB01KT 2000 4000W -SN FEW003 BKN007 00/M02 Q0998;",
"01320099999","2010-10-21T14:50:00","4","61.8333333","6.1166667","60.0","SANDANE ANDA, NO","FM-15","ENSD ","V020","999,9,C,0000,1","00300,1,C,N","011265,1,N,1","+0000,1","-0030,1","99999,9","02,5,+00090,1,99,9","07,5,+00300,1,99,9",,,"07,99,1,99,9,99,9,99999,9,99,9,99,9",,"09980,1,99999,9",,,,"MET059METAR ENSD 211450Z 00000KT 9999 FEW003 BKN010 00/M03 Q0998;",
"01320099999","2010-10-21T15:50:00","4","61.8333333","6.1166667","60.0","SANDANE ANDA, NO","FM-15","ENSD ","V020","999,9,V,0010,1","00300,1,C,N","011265,1,N,1","+0000,1","-0030,1","99999,9","02,5,+00090,1,99,9","07,5,+00300,1,99,9",,,"07,99,1,99,9,99,9,99999,9,99,9,99,9",,"09970,1,99999,9",,,,"MET060METAR ENSD 211550Z VRB02KT 9999 FEW003 BKN010 M00/M03 Q0997;",
"01320099999","2010-10-21T16:50:00","4","61.8333333","6.1166667","60.0","SANDANE ANDA, NO","FM-15","ENSD ","V020","140,1,N,0026,1","99999,9,C,N","011265,1,N,1","+0000,1","-0030,1","99999,9","02,5,+00090,1,99,9","04,5,+00300,1,99,9",,,"04,99,1,99,9,99,9,99999,9,99,9,99,9",,"09970,1,99999,9",,,,"MET060METAR ENSD 211650Z 14005KT 9999 FEW003 SCT010 M00/M03 Q0997;","P01 003003SCOCIG"
"01320099999","2010-10-21T17:50:00","4","61.8333333","6.1166667","60.0","SANDANE ANDA, NO","FM-15","ENSD ","V020","140,1,N,0026,1","99999,9,C,N","011265,1,N,1","+0000,1","-0030,1","99999,9","02,5,+00300,1,99,9","04,5,+01200,1,99,9",,,"04,99,1,99,9,99,9,99999,9,99,9,99,9",,"09959,1,99999,9",,,,"MET059METAR ENSD 211750Z 14005KT 9999 FEW010 SCT040 00/M03 Q0996;","P01 012003SCOCIG"
"01320099999","2010-10-21T18:50:00","4","61.8333333","6.1166667","60.0","SANDANE ANDA, NO","FM-15","ENSD ","V020","140,1,N,0026,1","01200,1,C,N","011265,1,N,1","+0000,1","-0030,1","99999,9","02,5,+00300,1,99,9","07,5,+01200,1,99,9",,,"07,99,1,99,9,99,9,99999,9,99,9,99,9",,"09959,1,99999,9","85,5",,,"MET066METAR ENSD 211850Z 14005KT 9999 -SHSN FEW010 BKN040 M00/M03 Q0996;",
"01320099999","2010-10-21T19:50:00","4","61.8333333","6.1166667","60.0","SANDANE ANDA, NO","FM-15","ENSD ","V020","150,1,N,0021,1","01500,1,C,N","011265,1,N,1","+0000,1","-0030,1","99999,9","02,5,+00300,1,99,9","07,5,+01500,1,99,9",,,"07,99,1,99,9,99,9,99999,9,99,9,99,9",,"09949,1,99999,9",,,,"MET059METAR ENSD 211950Z 15004KT 9999 FEW010 BKN050 00/M03 Q0995;",
"01320099999","2010-10-21T20:50:00","4","61.8333333","6.1166667","60.0","SANDANE ANDA, NO","FM-15","ENSD ","V020","140,1,N,0021,1","01500,1,C,N","011265,1,N,1","+0000,1","-0030,1","99999,9","02,5,+00300,1,99,9","07,5,+01500,1,99,9",,,"07,99,1,99,9,99,9,99999,9,99,9,99,9",,"09949,1,99999,9",,,,"MET059METAR ENSD 212050Z 14004KT 9999 FEW010 BKN050 00/M03 Q0995;",
"01320099999","2010-10-21T21:50:00","4","61.8333333","6.1166667","60.0","SANDANE ANDA, NO","FM-15","ENSD ","V020","140,1,N,0026,1","01500,1,C,N","011265,1,N,1","+0000,1","-0030,1","99999,9","02,5,+00300,1,99,9","07,5,+01500,1,99,9",,,"07,99,1,99,9,99,9,99999,9,99,9,99,9",,"09949,1,99999,9",,,,"MET059METAR ENSD 212150Z 14005KT 9999 FEW010 BKN050 00/M03 Q0995;",
"01320099999","2010-10-22T04:20:00","4","61.8333333","6.1166667","60.0","SANDANE ANDA, NO","FM-15","ENSD ","V020","999,9,V,0010,1","01050,1,C,N","008000,1,N,1","+0000,1","-0030,1","99999,9","04,5,+00240,1,99,9","07,5,+01050,1,99,9",,,"07,99,1,99,9,99,9,99999,9,99,9,99,9",,"09990,1,99999,9","85,5",,,"MET066METAR ENSD 220420Z VRB02KT 8000 -SHSN SCT008 BKN035 M00/M03 Q0999;",
"01320099999","2010-10-22T04:50:00","4","61.8333333","6.1166667","60.0","SANDANE ANDA, NO","FM-15","ENSD ","V020","180,1,N,0015,1","01050,1,C,N","011265,1,N,1","+0000,1","-0030,1","99999,9","04,5,+00240,1,99,9","07,5,+01050,1,99,9",,,"07,99,1,99,9,99,9,99999,9,99,9,99,9",,"09990,1,99999,9","85,5",,,"MET073METAR ENSD 220450Z 18003KT 110V210 9999 -SHSN SCT008 BKN035 00/M03 Q0999;",
"01320099999","2010-10-22T05:50:00","4","61.8333333","6.1166667","60.0","SANDANE ANDA, NO","FM-15","ENSD ","V020","999,9,V,0005,1","22000,1,9,N","008000,1,N,1","+0000,1","-0030,1","99999,9","04,5,+00240,5,99,9",,,,"09,99,1,99,9,99,9,00025,1,99,9,99,9",,"09990,1,99999,9","85,5",,,"MET065METAR ENSD 220550Z VRB01KT 8000 -SHSN SCT008 VV020 M00/M03 Q0999;",
"01320099999","2010-10-22T06:50:00","4","61.8333333","6.1166667","60.0","SANDANE ANDA, NO","FM-15","ENSD ","V020","999,9,V,0010,1","22000,1,9,N","006000,1,N,1","+0000,1","-0020,1","99999,9","04,5,+00240,5,99,9",,,,"09,99,1,99,9,99,9,00025,1,99,9,99,9",,"09990,1,99999,9","85,5",,,"MET065METAR ENSD 220650Z VRB02KT 6000 -SHSN SCT008 VV020 M00/M02 Q0999;",
"01320099999","2010-10-22T07:50:00","4","61.8333333","6.1166667","60.0","SANDANE ANDA, NO","FM-15","ENSD ","V020","120,1,N,0015,1","00210,1,9,N","001500,1,N,1","+0000,1","-0030,1","99999,9","09,1,+00210,1,99,9",,,,"09,99,1,99,9,99,9,00025,1,99,9,99,9",,"09990,1,99999,9","73,1",,,"MET055METAR ENSD 220750Z 12003KT 1500 SN VV007 M00/M03 Q0999;",
"01320099999","2010-10-22T08:50:00","4","61.8333333","6.1166667","60.0","SANDANE ANDA, NO","FM-15","ENSD ","V020","999,9,C,0000,1","00210,1,9,N","001500,1,N,1","+0000,1","-0020,1","99999,9","09,1,+00210,1,99,9",,,,"09,99,1,99,9,99,9,00025,1,99,9,99,9",,"09990,1,99999,9","73,1",,,"MET054METAR ENSD 220850Z 00000KT 1500 SN VV007 00/M02 Q0999;",
"01320099999","2010-10-22T09:50:00","4","61.8333333","6.1166667","60.0","SANDANE ANDA, NO","FM-15","ENSD ","V020","999,9,C,0000,1","00270,1,9,N","002000,1,N,1","+0000,1","-0020,1","99999,9","09,1,+00270,1,99,9",,,,"09,99,1,99,9,99,9,00025,1,99,9,99,9",,"10000,1,99999,9","71,1",,,"MET055METAR ENSD 220950Z 00000KT 2000 -SN VV009 00/M02 Q1000;",
"01320099999","2010-10-22T10:50:00","4","61.8333333","6.1166667","60.0","SANDANE ANDA, NO","FM-15","ENSD ","V020","999,9,C,0000,1","00450,1,C,N","003000,1,N,1","+0010,1","-0020,1","99999,9","04,5,+00150,1,99,9","07,5,+00450,1,99,9","02,1,+99999,9,99,9",,"07,99,1,99,9,99,9,99999,9,99,9,99,9",,"10000,1,99999,9","41,1","71,1",,"MET082METAR ENSD 221050Z 00000KT 3000 8000SW -SN BCFG FEW/// SCT005 BKN015 01/M02 Q1000;",
"01320099999","2010-10-22T11:20:00","4","61.8333333","6.1166667","60.0","SANDANE ANDA, NO","FM-15","ENSD ","V020","999,9,V,0005,1","01200,1,C,N","009000,1,N,1","+0010,1","-0030,1","99999,9","04,5,+00060,1,99,9","07,5,+01200,1,99,9",,,"07,99,1,99,9,99,9,99999,9,99,9,99,9",,"10000,1,99999,9",,,,"MET059METAR ENSD 221120Z VRB01KT 9000 SCT002 BKN040 01/M03 Q1000;",
"01320099999","2010-10-22T11:50:00","4","61.8333333","6.1166667","60.0","SANDANE ANDA, NO","FM-15","ENSD ","V020","999,9,V,0010,1","00240,1,C,N","011265,1,N,1","+0010,1","-0030,1","99999,9","02,5,+00060,1,99,9","04,5,+00240,1,99,9","07,5,+01200,1,99,9",,"07,99,1,99,9,99,9,99999,9,99,9,99,9",,"10000,1,99999,9",,,,"MET073METAR ENSD 221150Z VRB02KT 9999 6000NW FEW002 SCT008 BKN040 01/M03 Q1000;",
"01320099999","2010-10-22T12:50:00","4","61.8333333","6.1166667","60.0","SANDANE ANDA, NO","FM-15","ENSD ","V020","999,9,V,0010,1","01050,1,C,N","011265,1,N,1","+0010,1","-0030,1","99999,9","04,5,+00300,1,99,9","07,5,+01050,1,99,9",,,"07,99,1,99,9,99,9,99999,9,99,9,99,9",,"10000,1,99999,9",,,,"MET059METAR ENSD 221250Z VRB02KT 9999 SCT010 BKN035 01/M03 Q1000;",
"01320099999","2010-10-22T13:50:00","4","61.8333333","6.1166667","60.0","SANDANE ANDA, NO","FM-15","ENSD ","V020","090,1,N,0021,1","01050,1,C,N","011265,1,N,1","+0010,1","-0020,1","99999,9","04,5,+00300,1,99,9","07,5,+01050,1,99,9",,,"07,99,1,99,9,99,9,99999,9,99,9,99,9",,"10000,1,99999,9",,,,"MET059METAR ENSD 221350Z 09004KT 9999 SCT010 BKN035 01/M02 Q1000;",
"01320099999","2010-10-22T14:50:00","4","61.8333333","6.1166667","60.0","SANDANE ANDA, NO","FM-15","ENSD ","V020","999,9,V,0010,1","01050,1,C,N","011265,1,N,1","+0010,1","-0020,1","99999,9","04,5,+00300,1,99,9","07,5,+01050,1,99,9",,,"07,99,1,99,9,99,9,99999,9,99,9,99,9",,"10000,1,99999,9",,,,"MET059METAR ENSD 221450Z VRB02KT 9999 SCT010 BKN035 01/M02 Q1000;",
"01320099999","2010-10-22T15:50:00","4","61.8333333","6.1166667","60.0","SANDANE ANDA, NO","FM-15","ENSD ","V020","999,9,V,0015,1","99999,9,C,N","011265,1,N,1","+0010,1","-0020,1","99999,9","02,5,+00300,1,99,9","04,5,+01050,1,99,9",,,"04,99,1,99,9,99,9,99999,9,99,9,99,9",,"10000,1,99999,9",,,,"MET059METAR ENSD 221550Z VRB03KT 9999 FEW010 SCT035 01/M02 Q1000;","P01 010503SCOCIG"
"01320099999","2010-10-22T16:50:00","4","61.8333333","6.1166667","60.0","SANDANE ANDA, NO","FM-15","ENSD ","V020","999,9,V,0010,1","01050,1,C,N","011265,1,N,1","+0010,1","-0020,1","99999,9","02,5,+00240,1,99,9","07,5,+01050,1,99,9",,,"07,99,1,99,9,99,9,99999,9,99,9,99,9",,"10000,1,99999,9",,,,"MET059METAR ENSD 221650Z VRB02KT 9999 FEW008 BKN035 01/M02 Q1000;",
"01320099999","2010-10-22T17:50:00","4","61.8333333","6.1166667","60.0","SANDANE ANDA, NO","FM-15","ENSD ","V020","999,9,V,0015,1","01050,1,C,N","011265,1,N,1","+0010,1","-0020,1","99999,9","02,5,+00240,1,99,9","07,5,+01050,1,99,9",,,"07,99,1,99,9,99,9,99999,9,99,9,99,9",,"10010,1,99999,9","85,5",,,"MET065METAR ENSD 221750Z VRB03KT 9999 -SHSN FEW008 BKN035 01/M02 Q1001;",
"01320099999","2010-10-22T18:50:00","4","61.8333333","6.1166667","60.0","SANDANE ANDA, NO","FM-15","ENSD ","V020","130,1,N,0021,1","01050,1,C,N","011265,1,N,1","+0010,1","-0020,1","99999,9","02,5,+00240,1,99,9","07,5,+01050,1,99,9",,,"07,99,1,99,9,99,9,99999,9,99,9,99,9",,"10010,1,99999,9",,,,"MET059METAR ENSD 221850Z 13004KT 9999 FEW008 BKN035 01/M02 Q1001;",
"01320099999","2010-10-23T05:20:00","4","61.8333333","6.1166667","60.0","SANDANE ANDA, NO","FM-15","ENSD ","V020","999,9,V,0010,1","00600,1,C,N","011265,1,N,1","+0000,1","-0030,1","99999,9","04,5,+00240,1,99,9","07,5,+00600,1,99,9",,,"07,99,1,99,9,99,9,99999,9,99,9,99,9",,"10020,1,99999,9",,,,"MET060METAR ENSD 230520Z VRB02KT 9999 SCT008 BKN020 M00/M03 Q1002;",
"01320099999","2010-10-23T06:50:00","4","61.8333333","6.1166667","60.0","SANDANE ANDA, NO","FM-15","ENSD ","V020","170,1,N,0021,1","00300,1,C,N","011265,1,N,1","+0000,1","-0030,1","99999,9","07,5,+00300,1,99,9",,,,"07,99,1,99,9,99,9,99999,9,99,9,99,9",,"10020,1,99999,9",,,,"MET053METAR ENSD 230650Z 17004KT 9999 BKN010 M00/M03 Q1002;",
"01320099999","2010-10-23T07:50:00","4","61.8333333","6.1166667","60.0","SANDANE ANDA, NO","FM-15","ENSD ","V020","160,1,N,0021,1","00360,1,C,N","011265,1,N,1","+0000,1","-0030,1","99999,9","02,5,+00150,1,99,9","07,5,+00360,1,99,9",,,"07,99,1,99,9,99,9,99999,9,99,9,99,9",,"10031,1,99999,9",,,,"MET060METAR ENSD 230750Z 16004KT 9999 FEW005 BKN012 M00/M03 Q1003;",
"01320099999","2010-10-23T08:50:00","4","61.8333333","6.1166667","60.0","SANDANE ANDA, NO","FM-15","ENSD ","V020","160,1,N,0021,1","00300,1,C,N","011265,1,N,1","+0000,1","-0030,1","99999,9","02,5,+00150,1,99,9","07,5,+00300,1,99,9",,,"07,99,1,99,9,99,9,99999,9,99,9,99,9",,"10031,1,99999,9",,,,"MET059METAR ENSD 230850Z 16004KT 9999 FEW005 BKN010 00/M03 Q1003;",
"01320099999","2010-10-23T09:50:00","4","61.8333333","6.1166667","60.0","SANDANE ANDA, NO","FM-15","ENSD ","V020","170,1,N,0021,1","00360,1,C,N","011265,1,N,1","+0010,1","-0030,1","99999,9","02,5,+00150,1,99,9","07,5,+00360,1,99,9",,,"07,99,1,99,9,99,9,99999,9,99,9,99,9",,"10031,1,99999,9",,,,"MET059METAR ENSD 230950Z 17004KT 9999 FEW005 BKN012 01/M03 Q1003;",
"01320099999","2010-10-23T10:50:00","4","61.8333333","6.1166667","60.0","SANDANE ANDA, NO","FM-15","ENSD ","V020","190,1,N,0015,1","00360,1,C,N","011265,1,N,1","+0010,1","-0030,1","99999,9","02,5,+00150,1,99,9","04,5,+00360,1,99,9","07,5,+00900,1,99,9",,"07,99,1,99,9,99,9,99999,9,99,9,99,9",,"10031,1,99999,9",,,,"MET066METAR ENSD 231050Z 19003KT 9999 FEW005 SCT012 BKN030 01/M03 Q1003;",
"01320099999","2010-10-23T11:50:00","4","61.8333333","6.1166667","60.0","SANDANE ANDA, NO","FM-15","ENSD ","V020","999,9,V,0010,1","00360,1,C,N","011265,1,N,1","+0040,1","-0040,1","99999,9","02,5,+00150,1,99,9","04,5,+00360,1,99,9","07,5,+00900,1,99,9",,"07,99,1,99,9,99,9,99999,9,99,9,99,9",,"10031,1,99999,9",,,,"MET066METAR ENSD 231150Z VRB02KT 9999 FEW005 SCT012 BKN030 04/M04 Q1003;",
"01320099999","2010-10-23T12:50:00","4","61.8333333","6.1166667","60.0","SANDANE ANDA, NO","FM-15","ENSD ","V020","999,9,V,0005,1","01050,1,C,N","011265,1,N,1","+0020,1","-0030,1","99999,9","04,5,+00300,1,99,9","07,5,+01050,1,99,9",,,"07,99,1,99,9,99,9,99999,9,99,9,99,9",,"10041,1,99999,9",,,,"MET059METAR ENSD 231250Z VRB01KT 9999 SCT010 BKN035 02/M03 Q1004;",
"01320099999","2010-10-24T08:50:00","4","61.8333333","6.1166667","60.0","SANDANE ANDA, NO","FM-15","ENSD ","V020","180,1,N,0021,1","00750,1,C,N","011265,1,N,1","+0020,1","-0020,1","99999,9","02,5,+00300,1,99,9","07,5,+00750,1,99,9",,,"07,99,1,99,9,99,9,99999,9,99,9,99,9",,"10061,1,99999,9",,,,"MET059METAR ENSD 240850Z 18004KT 9999 FEW010 BKN025 02/M02 Q1006;",
"01320099999","2010-10-24T09:50:00","4","61.8333333","6.1166667","60.0","SANDANE ANDA, NO","FM-15","ENSD ","V020","190,1,N,0021,1","00900,1,C,N","011265,1,N,1","+0020,1","-0020,1","99999,9","02,5,+00300,1,99,9","07,5,+00900,1,99,9",,,"07,99,1,99,9,99,9,99999,9,99,9,99,9",,"10071,1,99999,9",,,,"MET059METAR ENSD 240950Z 19004KT 9999 FEW010 BKN030 02/M02 Q1007;",
"01320099999","2010-10-24T10:50:00","4","61.8333333","6.1166667","60.0","SANDANE ANDA, NO","FM-15","ENSD ","V020","999,9,V,0005,1","00600,1,C,N","011265,1,N,1","+0030,1","-0020,1","99999,9","02,5,+00300,1,99,9","04,5,+00600,1,99,9","07,5,+00900,1,99,9",,"07,99,1,99,9,99,9,99999,9,99,9,99,9",,"10071,1,99999,9",,,,"MET066METAR ENSD 241050Z VRB01KT 9999 FEW010 SCT020 BKN030 03/M02 Q1007;",
"01320099999","2010-10-24T13:50:00","4","61.8333333","6.1166667","60.0","SANDANE ANDA, NO","FM-15","ENSD ","V020","999,9,V,0005,1","99999,9,C,N","011265,1,N,1","+0020,1","-0020,1","99999,9","02,5,+00300,1,99,9","04,5,+00600,1,99,9",,,"04,99,1,99,9,99,9,99999,9,99,9,99,9",,"10071,1,99999,9",,,,"MET059METAR ENSD 241350Z VRB01KT 9999 FEW010 SCT020 02/M02 Q1007;","P01 006003SCOCIG"
"01320099999","2010-10-24T14:50:00","4","61.8333333","6.1166667","60.0","SANDANE ANDA, NO","FM-15","ENSD ","V020","999,9,V,0010,1","99999,9,C,N","011265,1,N,1","+0020,1","-0010,1","99999,9","04,5,+00300,1,99,9","04,5,+00750,1,99,9",,,"04,99,1,99,9,99,9,99999,9,99,9,99,9",,"10081,1,99999,9",,,,"MET059METAR ENSD 241450Z VRB02KT 9999 SCT010 SCT025 02/M01 Q1008;","P01 007503SCOCIG"
"01320099999","2010-10-24T15:50:00","4","61.8333333","6.1166667","60.0","SANDANE ANDA, NO","FM-15","ENSD ","V020","999,9,V,0010,1","00390,1,C,N","011265,1,N,1","+0020,1","-0010,1","99999,9","02,5,+00150,1,99,9","07,5,+00390,1,99,9",,,"07,99,1,99,9,99,9,99999,9,99,9,99,9",,"10081,1,99999,9","80,1",,,"MET065METAR ENSD 241550Z VRB02KT 9999 -SHRA FEW005 BKN013 02/M01 Q1008;",
"01320099999","2010-10-24T16:50:00","4","61.8333333","6.1166667","60.0","SANDANE ANDA, NO","FM-15","ENSD ","V020","999,9,V,0005,1","00390,1,C,N","011265,1,N,1","+0020,1","-0010,1","99999,9","02,5,+00150,1,99,9","07,5,+00390,1,99,9",,,"07,99,1,99,9,99,9,99999,9,99,9,99,9",,"10081,1,99999,9",,,,"MET059METAR ENSD 241650Z VRB01KT 9999 FEW005 BKN013 02/M01 Q1008;",
"01320099999","2010-10-24T17:50:00","4","61.8333333","6.1166667","60.0","SANDANE ANDA, NO","FM-15","ENSD ","V020","999,9,V,0015,1","01200,1,C,N","011265,1,N,1","+0020,1","-0010,1","99999,9","04,5,+00390,1,99,9","07,5,+01200,1,99,9",,,"07,99,1,99,9,99,9,99999,9,99,9,99,9",,"10081,1,99999,9",,,,"MET059METAR ENSD 241750Z VRB03KT 9999 SCT013 BKN040 02/M01 Q1008;",
"01320099999","2010-10-24T18:50:00","4","61.8333333","6.1166667","60.0","SANDANE ANDA, NO","FM-15","ENSD ","V020","999,9,V,0010,1","00390,1,C,N","011265,1,N,1","+0010,1","-0010,1","99999,9","07,5,+00390,1,99,9",,,,"07,99,1,99,9,99,9,99999,9,99,9,99,9",,"10091,1,99999,9","83,1",,,"MET060METAR ENSD 241850Z VRB02KT 9999 -SHRASN BKN013 01/M01 Q1009;",
"01320099999","2010-10-25T04:20:00","4","61.8333333","6.1166667","60.0","SANDANE ANDA, NO","FM-15","ENSD ","V020","170,1,N,0021,1","22000,1,9,N","011265,1,N,1","+0010,1","-0010,1","99999,9","04,5,+00390,1,99,9",,,,"04,99,1,99,9,99,9,99999,9,99,9,99,9",,"10102,1,99999,9",,,,"MET052METAR ENSD 250420Z 17004KT 9999 SCT013 01/M01 Q1010;",
"01320099999","2010-10-25T05:50:00","4","61.8333333","6.1166667","60.0","SANDANE ANDA, NO","FM-15","ENSD ","V020","999,9,V,0015,1","22000,1,9,N","011265,1,N,1","+0010,1","-0020,1","99999,9","04,5,+00390,1,99,9",,,,"04,99,1,99,9,99,9,99999,9,99,9,99,9",,"10108,1,99999,9",,,,"MET052METAR ENSD 250550Z VRB03KT 9999 SCT013 01/M02 Q1011;",
"01320099999","2010-10-25T06:50:00","4","61.8333333","6.1166667","60.0","SANDANE ANDA, NO","FM-15","ENSD ","V020","170,1,N,0015,1","99999,9,C,N","011265,1,N,1","+0010,1","-0020,1","99999,9","02,5,+00390,1,99,9","04,5,+00900,1,99,9",,,"04,99,1,99,9,99,9,99999,9,99,9,99,9",,"10108,1,99999,9",,,,"MET059METAR ENSD 250650Z 17003KT 9999 FEW013 SCT030 01/M02 Q1011;","P01 009003SCOCIG"
"01320099999","2010-10-25T07:50:00","4","61.8333333","6.1166667","60.0","SANDANE ANDA, NO","FM-15","ENSD ","V020","170,1,N,0021,1","99999,9,C,N","011265,1,N,1","+0010,1","-0020,1","99999,9","02,5,+00390,1,99,9","04,5,+00900,1,99,9",,,"04,99,1,99,9,99,9,99999,9,99,9,99,9",,"10119,1,99999,9",,,,"MET059METAR ENSD 250750Z 17004KT 9999 FEW013 SCT030 01/M02 Q1012;","P01 009003SCOCIG"
"01320099999","2010-10-25T08:50:00","4","61.8333333","6.1166667","60.0","SANDANE ANDA, NO","FM-15","ENSD ","V020","160,1,N,0015,1","99999,9,C,N","011265,1,N,1","+0010,1","-0020,1","99999,9","02,5,+00390,1,99,9","04,5,+00900,1,99,9",,,"04,99,1,99,9,99,9,99999,9,99,9,99,9",,"10129,1,99999,9",,,,"MET059METAR ENSD 250850Z 16003KT 9999 FEW013 SCT030 01/M02 Q1013;","P01 009003SCOCIG"
"01320099999","2010-10-25T09:50:00","4","61.8333333","6.1166667","60.0","SANDANE ANDA, NO","FM-15","ENSD ","V020","999,9,V,0010,1","99999,9,C,N","011265,1,N,1","+0020,1","-0020,1","99999,9","02,5,+00300,1,99,9","04,5,+01350,1,99,9",,,"04,99,1,99,9,99,9,99999,9,99,9,99,9",,"10129,1,99999,9",,,,"MET059METAR ENSD 250950Z VRB02KT 9999 FEW010 SCT045 02/M02 Q1013;","P01 013503SCOCIG"
"01320099999","2010-10-25T10:50:00","4","61.8333333","6.1166667","60.0","SANDANE ANDA, NO","FM-15","ENSD ","V020","999,9,V,0010,1","01500,1,C,N","011265,1,N,1","+0040,1","-0020,1","99999,9","02,5,+00300,1,99,9","07,5,+01500,1,99,9",,,"07,99,1,99,9,99,9,99999,9,99,9,99,9",,"10129,1,99999,9",,,,"MET059METAR ENSD 251050Z VRB02KT 9999 FEW010 BKN050 04/M02 Q1013;",
"01320099999","2010-10-25T11:50:00","4","61.8333333","6.1166667","60.0","SANDANE ANDA, NO","FM-15","ENSD ","V020","130,1,N,0015,1","01200,1,C,N","011265,1,N,1","+0030,1","-0020,1","99999,9","02,5,+00300,1,99,9","07,5,+01200,1,99,9",,,"07,99,1,99,9,99,9,99999,9,99,9,99,9",,"10139,1,99999,9",,,,"MET059METAR ENSD 251150Z 13003KT 9999 FEW010 BKN040 03/M02 Q1014;",
"01320099999","2010-10-25T12:50:00","4","61.8333333","6.1166667","60.0","SANDANE ANDA, NO","FM-15","ENSD ","V020","130,1,N,0010,1","01200,1,C,N","011265,1,N,1","+0030,1","-0020,1","99999,9","02,5,+00300,1,99,9","07,5,+01200,1,99,9",,,"07,99,1,99,9,99,9,99999,9,99,9,99,9",,"10149,1,99999,9",,,,"MET059METAR ENSD 251250Z 13002KT 9999 FEW010 BKN040 03/M02 Q1015;",
"01320099999","2010-10-25T13:50:00","4","61.8333333","6.1166667","60.0","SANDANE ANDA, NO","FM-15","ENSD ","V020","999,9,V,0005,1","01350,1,C,N","011265,1,N,1","+0030,1","-0020,1","99999,9","02,5,+00300,1,99,9","07,5,+01350,1,99,9",,,"07,99,1,99,9,99,9,99999,9,99,9,99,9",,"10149,1,99999,9",,,,"MET059METAR ENSD 251350Z VRB01KT 9999 FEW010 BKN045 03/M02 Q1015;",
"01320099999","2010-10-25T15:50:00","4","61.8333333","6.1166667","60.0","SANDANE ANDA, NO","FM-15","ENSD ","V020","090,1,N,0015,1","00600,1,C,N","011265,1,N,1","+0030,1","-0010,1","99999,9","02,5,+00300,1,99,9","04,5,+00600,1,99,9","07,5,+01200,1,99,9",,"07,99,1,99,9,99,9,99999,9,99,9,99,9",,"10159,1,99999,9","16,1",,,"MET071METAR ENSD 251550Z 09003KT 9999 VCSH FEW010 SCT020 BKN040 03/M01 Q1016;",
"01320099999","2010-10-25T16:50:00","4","61.8333333","6.1166667","60.0","SANDANE ANDA, NO","FM-15","ENSD ","V020","999,9,V,0010,1","01050,1,C,N","011265,1,N,1","+0020,1","-0010,1","99999,9","02,5,+00450,1,99,9","07,5,+01050,1,99,9",,,"07,99,1,99,9,99,9,99999,9,99,9,99,9",,"10169,1,99999,9","80,1",,,"MET065METAR ENSD 251650Z VRB02KT 9999 -SHRA FEW015 BKN035 02/M01 Q1017;",
"01320099999","2010-10-25T17:50:00","4","61.8333333","6.1166667","60.0","SANDANE ANDA, NO","FM-15","ENSD ","V020","999,9,V,0005,1","01050,1,C,N","011265,1,N,1","+0010,1","-0010,1","99999,9","02,5,+00600,1,99,9","07,5,+01050,1,99,9",,,"07,99,1,99,9,99,9,99999,9,99,9,99,9",,"10180,1,99999,9",,,,"MET059METAR ENSD 251750Z VRB01KT 9999 FEW020 BKN035 01/M01 Q1018;",
"01320099999","2010-10-25T18:50:00","4","61.8333333","6.1166667","60.0","SANDANE ANDA, NO","FM-15","ENSD ","V020","150,1,N,0026,1","01500,1,C,N","011265,1,N,1","+0020,1","-0010,1","99999,9","02,5,+00900,1,99,9","07,5,+01500,1,99,9",,,"07,99,1,99,9,99,9,99999,9,99,9,99,9",,"10180,1,99999,9",,,,"MET059METAR ENSD 251850Z 15005KT 9999 FEW030 BKN050 02/M01 Q1018;",
"01320099999","2010-10-26T04:20:00","4","61.8333333","6.1166667","60.0","SANDANE ANDA, NO","FM-15","ENSD ","V020","130,1,N,0031,1","22000,1,9,N","011265,1,N,1","+0000,1","-0030,1","99999,9","02,5,+00300,1,99,9",,,,"02,99,1,99,9,99,9,99999,9,99,9,99,9",,"10200,1,99999,9",,,,"MET053METAR ENSD 260420Z 13006KT 9999 FEW010 M00/M03 Q1020;",
"01320099999","2010-10-26T04:50:00","4","61.8333333","6.1166667","60.0","SANDANE ANDA, NO","FM-15","ENSD ","V020","140,1,N,0031,1","22000,1,9,N","011265,1,N,1","+0000,1","-0030,1","99999,9","02,5,+00300,1,99,9",,,,"02,99,1,99,9,99,9,99999,9,99,9,99,9",,"10190,1,99999,9",,,,"MET052METAR ENSD 260450Z 14006KT 9999 FEW010 00/M03 Q1019;",
"01320099999","2010-10-26T05:50:00","4","61.8333333","6.1166667","60.0","SANDANE ANDA, NO","FM-15","ENSD ","V020","130,1,N,0031,1","22000,1,9,N","011265,1,N,1","+0000,1","-0030,1","99999,9","02,5,+00300,1,99,9",,,,"02,99,1,99,9,99,9,99999,9,99,9,99,9",,"10190,1,99999,9",,,,"MET052METAR ENSD 260550Z 13006KT 9999 FEW010 00/M03 Q1019;",
"01320099999","2010-10-26T06:50:00","4","61.8333333","6.1166667","60.0","SANDANE ANDA, NO","FM-15","ENSD ","V020","130,1,N,0031,1","22000,1,9,N","011265,1,N,1","+0010,1","-0030,1","99999,9","02,5,+00300,1,99,9",,,,"02,99,1,99,9,99,9,99999,9,99,9,99,9",,"10180,1,99999,9",,,,"MET052METAR ENSD 260650Z 13006KT 9999 FEW010 01/M03 Q1018;",
"01320099999","2010-10-26T07:50:00","4","61.8333333","6.1166667","60.0","SANDANE ANDA, NO","FM-15","ENSD ","V020","130,1,N,0036,1","22000,1,9,N","011265,1,N,1","+0000,1","-0030,1","99999,9","02,5,+00300,1,99,9",,,,"02,99,1,99,9,99,9,99999,9,99,9,99,9",,"10180,1,99999,9",,,,"MET052METAR ENSD 260750Z 13007KT 9999 FEW010 00/M03 Q1018;",
"01320099999","2010-10-26T08:50:00","4","61.8333333","6.1166667","60.0","SANDANE ANDA, NO","FM-15","ENSD ","V020","130,1,N,0036,1","99999,9,C,N","011265,1,N,1","+0010,1","-0030,1","99999,9","02,5,+00300,1,99,9","04,5,+01500,1,99,9",,,"04,99,1,99,9,99,9,99999,9,99,9,99,9",,"10180,1,99999,9",,,,"MET059METAR ENSD 260850Z 13007KT 9999 FEW010 SCT050 01/M03 Q1018;","P01 015003SCOCIG"
"01320099999","2010-10-26T09:50:00","4","61.8333333","6.1166667","60.0","SANDANE ANDA, NO","FM-15","ENSD ","V020","130,1,N,0026,1","99999,9,C,N","011265,1,N,1","+0020,1","-0030,1","99999,9","02,5,+00240,1,99,9","04,5,+01500,1,99,9",,,"04,99,1,99,9,99,9,99999,9,99,9,99,9",,"10180,1,99999,9",,,,"MET067METAR ENSD 260950Z 13005KT 090V160 9999 FEW008 SCT050 02/M03 Q1018;","P01 015003SCOCIG"
"01320099999","2010-10-26T10:50:00","4","61.8333333","6.1166667","60.0","SANDANE ANDA, NO","FM-15","ENSD ","V020","999,9,V,0015,1","01350,1,C,N","011265,1,N,1","+0020,1","-0030,1","99999,9","02,5,+00240,1,99,9","07,5,+01350,1,99,9",,,"07,99,1,99,9,99,9,99999,9,99,9,99,9",,"10180,1,99999,9",,,,"MET059METAR ENSD 261050Z VRB03KT 9999 FEW008 BKN045 02/M03 Q1018;",
"01320099999","2010-10-26T11:50:00","4","61.8333333","6.1166667","60.0","SANDANE ANDA, NO","FM-15","ENSD ","V020","999,9,V,0010,1","01800,1,C,N","011265,1,N,1","+0030,1","-0030,1","99999,9","04,5,+01350,1,99,9","07,5,+01800,1,99,9",,,"07,99,1,99,9,99,9,99999,9,99,9,99,9",,"10169,1,99999,9",,,,"MET059METAR ENSD 261150Z VRB02KT 9999 SCT045 BKN060 03/M03 Q1017;",
"01320099999","2010-10-26T12:50:00","4","61.8333333","6.1166667","60.0","SANDANE ANDA, NO","FM-15","ENSD ","V020","999,9,V,0015,1","01800,1,C,N","011265,1,N,1","+0040,1","-0030,1","99999,9","04,5,+01350,1,99,9","07,5,+01800,1,99,9",,,"07,99,1,99,9,99,9,99999,9,99,9,99,9",,"10169,1,99999,9",,,,"MET059METAR ENSD 261250Z VRB03KT 9999 SCT045 BKN060 04/M03 Q1017;",
"01320099999","2010-10-26T13:50:00","4","61.8333333","6.1166667","60.0","SANDANE ANDA, NO","FM-15","ENSD ","V020","090,1,N,0031,1","01500,1,C,N","011265,1,N,1","+0030,1","-0010,1","99999,9","04,5,+01200,1,99,9","07,5,+01500,1,99,9",,,"07,99,1,99,9,99,9,99999,9,99,9,99,9",,"10159,1,99999,9",,,,"MET067METAR ENSD 261350Z 09006KT 030V160 9999 SCT040 BKN050 03/M01 Q1016;",
"01320099999","2010-10-26T14:50:00","4","61.8333333","6.1166667","60.0","SANDANE ANDA, NO","FM-15","ENSD ","V020","120,1,N,0021,1","01500,1,C,N","011265,1,N,1","+0030,1","-0010,1","99999,9","02,5,+01200,1,99,9","07,5,+01500,1,99,9",,,"07,99,1,99,9,99,9,99999,9,99,9,99,9",,"10149,1,99999,9",,,,"MET059METAR ENSD 261450Z 12004KT 9999 FEW040 BKN050 03/M01 Q1015;",
"01320099999","2010-10-26T15:50:00","4","61.8333333","6.1166667","60.0","SANDANE ANDA, NO","FM-15","ENSD ","V020","999,9,V,0015,1","01500,1,C,N","011265,1,N,1","+0040,1","-0020,1","99999,9","02,5,+01200,1,99,9","07,5,+01500,1,99,9",,,"07,99,1,99,9,99,9,99999,9,99,9,99,9",,"10149,1,99999,9",,,,"MET059METAR ENSD 261550Z VRB03KT 9999 FEW040 BKN050 04/M02 Q1015;",
"01320099999","2010-10-26T16:50:00","4","61.8333333","6.1166667","60.0","SANDANE ANDA, NO","FM-15","ENSD ","V020","090,1,N,0031,1","01500,1,C,N","011265,1,N,1","+0040,1","-0020,1","99999,9","02,5,+01200,1,99,9","07,5,+01500,1,99,9",,,"07,99,1,99,9,99,9,99999,9,99,9,99,9",,"10139,1,99999,9",,,,"MET067METAR ENSD 261650Z 09006KT 050V140 9999 FEW040 BKN050 04/M02 Q1014;",
"01320099999","2010-10-26T17:50:00","4","61.8333333","6.1166667","60.0","SANDANE ANDA, NO","FM-15","ENSD ","V020","100,1,N,0026,1","01500,1,C,N","011265,1,N,1","+0040,1","-0020,1","99999,9","02,5,+01200,1,99,9","07,5,+01500,1,99,9",,,"07,99,1,99,9,99,9,99999,9,99,9,99,9",,"10139,1,99999,9",,,,"MET067METAR ENSD 261750Z 10005KT 060V150 9999 FEW040 BKN050 04/M02 Q1014;",
"01320099999","2010-10-26T18:50:00","4","61.8333333","6.1166667","60.0","SANDANE ANDA, NO","FM-15","ENSD ","V020","090,1,N,0026,1","01500,1,C,N","011265,1,N,1","+0040,1","-0020,1","99999,9","02,5,+01200,1,99,9","07,5,+01500,1,99,9",,,"07,99,1,99,9,99,9,99999,9,99,9,99,9",,"10129,1,99999,9",,,,"MET067METAR ENSD 261850Z 09005KT 030V130 9999 FEW040 BKN050 04/M02 Q1013;",
"01320099999","2010-10-27T03:50:00","4","61.8333333","6.1166667","60.0","SANDANE ANDA, NO","FM-15","ENSD ","V020","999,9,V,0010,1","01050,1,C,N","011265,1,N,1","+0050,1","+0010,1","99999,9","07,5,+01050,1,99,9",,,,"07,99,1,99,9,99,9,99999,9,99,9,99,9",,"10000,1,99999,9","63,1",,,"MET054METAR ENSD 270350Z VRB02KT 9999 RA BKN035 05/01 Q1000;",
"01320099999","2010-10-27T04:50:00","4","61.8333333","6.1166667","60.0","SANDANE ANDA, NO","FM-15","ENSD ","V020","999,9,V,0021,1","01200,1,C,N","011265,1,N,1","+0060,1","+0020,1","99999,9","07,5,+01200,1,99,9",,,,"07,99,1,99,9,99,9,99999,9,99,9,99,9",,"09990,1,99999,9","61,1",,,"MET055METAR ENSD 270450Z VRB04KT 9999 -RA BKN040 06/02 Q0999;",
"01320099999","2010-10-27T06:50:00","4","61.8333333","6.1166667","60.0","SANDANE ANDA, NO","FM-15","ENSD ","V020","999,9,V,0010,1","01350,1,C,N","011265,1,N,1","+0060,1","+0020,1","99999,9","02,5,+01050,1,99,9","07,5,+01350,1,99,9",,,"07,99,1,99,9,99,9,99999,9,99,9,99,9",,"09959,1,99999,9","61,1",,,"MET062METAR ENSD 270650Z VRB02KT 9999 -RA FEW035 BKN045 06/02 Q0996;",
"01320099999","2010-10-27T07:50:00","4","61.8333333","6.1166667","60.0","SANDANE ANDA, NO","FM-15","ENSD ","V020","999,9,V,0010,1","01350,1,C,N","011265,1,N,1","+0050,1","+0020,1","99999,9","02,5,+00750,1,99,9","07,5,+01350,1,99,9",,,"07,99,1,99,9,99,9,99999,9,99,9,99,9",,"09939,1,99999,9","61,1",,,"MET062METAR ENSD 270750Z VRB02KT 9999 -RA FEW025 BKN045 05/02 Q0994;",
"01320099999","2010-10-27T08:50:00","4","61.8333333","6.1166667","60.0","SANDANE ANDA, NO","FM-15","ENSD ","V020","999,9,V,0015,1","01350,1,C,N","011265,1,N,1","+0060,1","+0030,1","99999,9","02,5,+00750,1,99,9","07,5,+01350,1,99,9",,,"07,99,1,99,9,99,9,99999,9,99,9,99,9",,"09929,1,99999,9","61,1",,,"MET062METAR ENSD 270850Z VRB03KT 9999 -RA FEW025 BKN045 06/03 Q0993;",
"01320099999","2010-10-27T09:50:00","4","61.8333333","6.1166667","60.0","SANDANE ANDA, NO","FM-15","ENSD ","V020","999,9,V,0015,1","01350,1,C,N","011265,1,N,1","+0060,1","+0030,1","99999,9","02,5,+00900,1,99,9","07,5,+01350,1,99,9",,,"07,99,1,99,9,99,9,99999,9,99,9,99,9",,"09919,1,99999,9","61,1",,,"MET062METAR ENSD 270950Z VRB03KT 9999 -RA FEW030 BKN045 06/03 Q0992;",
"01320099999","2010-10-27T10:50:00","4","61.8333333","6.1166667","60.0","SANDANE ANDA, NO","FM-15","ENSD ","V020","999,9,V,0015,1","01350,1,C,N","011265,1,N,1","+0090,1","+0050,1","99999,9","02,5,+00900,1,99,9","07,5,+01350,1,99,9",,,"07,99,1,99,9,99,9,99999,9,99,9,99,9",,"09919,1,99999,9","61,1",,,"MET062METAR ENSD 271050Z VRB03KT 9999 -RA FEW030 BKN045 09/05 Q0992;",
"01320099999","2010-10-27T11:50:00","4","61.8333333","6.1166667","60.0","SANDANE ANDA, NO","FM-15","ENSD ","V020","080,1,N,0026,1","01350,1,C,N","011265,1,N,1","+0100,1","+0050,1","99999,9","02,5,+00900,1,99,9","07,5,+01350,1,99,9",,,"07,99,1,99,9,99,9,99999,9,99,9,99,9",,"09909,1,99999,9","61,1",,,"MET070METAR ENSD 271150Z 08005KT 050V150 9999 -RA FEW030 BKN045 10/05 Q0991;",
"01320099999","2010-10-27T12:50:00","4","61.8333333","6.1166667","60.0","SANDANE ANDA, NO","FM-15","ENSD ","V020","200,1,N,0067,1","01200,1,C,N","011265,1,N,1","+0120,1","+0050,1","99999,9","02,5,+00900,1,99,9","07,5,+01200,1,99,9",,,"07,99,1,99,9,99,9,99999,9,99,9,99,9",,"09898,1,99999,9","16,1",,"0129,1","MET074METAR ENSD 271250Z 20013G25KT 160V230 9999 VCSH FEW030 BKN040 12/05 Q0990;",
"01320099999","2010-10-27T13:50:00","4","61.8333333","6.1166667","60.0","SANDANE ANDA, NO","FM-15","ENSD ","V020","190,1,N,0108,1","01200,1,C,N","011265,1,N,1","+0120,1","+0040,1","99999,9","04,5,+00900,1,99,9","07,5,+01200,1,99,9",,,"07,99,1,99,9,99,9,99999,9,99,9,99,9",,"09892,1,99999,9","16,1",,"0165,1","MET074METAR ENSD 271350Z 19021G32KT 150V220 9999 VCSH SCT030 BKN040 12/04 Q0989;",
"01320099999","2010-10-27T14:50:00","4","61.8333333","6.1166667","60.0","SANDANE ANDA, NO","FM-15","ENSD ","V020","180,1,N,0098,1","01200,1,C,N","011265,1,N,1","+0100,1","+0040,1","99999,9","04,5,+00900,1,99,9","07,5,+01200,1,99,9",,,"07,99,1,99,9,99,9,99999,9,99,9,99,9",,"09898,1,99999,9","81,1",,"0165,1","MET066METAR ENSD 271450Z 18019G32KT 9999 SHRA SCT030 BKN040 10/04 Q0990;",
"01320099999","2010-10-27T15:50:00","4","61.8333333","6.1166667","60.0","SANDANE ANDA, NO","FM-15","ENSD ","V020","200,1,N,0057,1","01050,1,C,N","011265,1,N,1","+0090,1","+0030,1","99999,9","02,5,+00900,1,99,9","07,5,+01050,1,99,9",,,"07,99,1,99,9,99,9,99999,9,99,9,99,9",,"09909,1,99999,9","80,1",,,"MET072METAR ENSD 271550Z 20011KT 160V240 9999 -SHRA FEW030 BKN035 09/03 Q0991;",
"01320099999","2010-10-27T16:50:00","4","61.8333333","6.1166667","60.0","SANDANE ANDA, NO","FM-15","ENSD ","V020","220,1,N,0108,1","01050,1,C,N","009000,1,N,1","+0080,1","+0020,1","99999,9","04,5,+00900,1,99,9","07,5,+01050,1,99,9",,,"07,99,1,99,9,99,9,99999,9,99,9,99,9",,"09919,1,99999,9","81,1",,"0159,1","MET066METAR ENSD 271650Z 22021G31KT 9000 SHRA SCT030 BKN035 08/02 Q0992;",
"01320099999","2010-10-27T17:20:00","4","61.8333333","6.1166667","60.0","SANDANE ANDA, NO","FM-15","ENSD ","V020","220,1,N,0077,1","01050,1,C,N","011265,1,N,1","+0080,1","+0020,1","99999,9","04,5,+00900,1,99,9","07,5,+01050,1,99,9",,,"07,99,1,99,9,99,9,99999,9,99,9,99,9",,"09919,1,99999,9","80,1",,,"MET073METAR ENSD 271720Z 220015KT 190V250 9999 -SHRA SCT030 BKN035 08/02 Q0992;",
"01320099999","2010-10-27T17:50:00","4","61.8333333","6.1166667","60.0","SANDANE ANDA, NO","FM-15","ENSD ","V020","090,1,N,0036,1","01050,1,C,N","011265,1,N,1","+0070,1","+0030,1","99999,9","04,5,+00900,1,99,9","07,5,+01050,1,99,9",,,"07,99,1,99,9,99,9,99999,9,99,9,99,9",,"09919,1,99999,9","63,1",,,"MET069METAR ENSD 271750Z 09007KT 050V190 9999 RA SCT030 BKN035 07/03 Q0992;",
"01320099999","2010-10-27T18:50:00","4","61.8333333","6.1166667","60.0","SANDANE ANDA, NO","FM-15","ENSD ","V020","190,1,N,0051,1","00900,1,C,N","009000,1,N,1","+0070,1","+0020,1","99999,9","02,5,+00600,1,99,9","07,5,+00900,1,99,9",,,"07,99,1,99,9,99,9,99999,9,99,9,99,9",,"09929,1,99999,9","63,1",,,"MET069METAR ENSD 271850Z 19010KT 130V250 9000 RA FEW020 BKN030 07/02 Q0993;",
"01320099999","2010-10-28T04:20:00","4","61.8333333","6.1166667","60.0","SANDANE ANDA, NO","FM-15","ENSD ","V020","260,1,N,0036,1","01200,1,C,N","011265,1,N,1","+0090,1","+0020,1","99999,9","02,5,+00900,1,99,9","07,5,+01200,1,99,9",,,"07,99,1,99,9,99,9,99999,9,99,9,99,9",,"09949,1,99999,9",,,,"MET066METAR ENSD 280420Z 26007KT 160V300 9999 FEW030 BKN040 09/02 Q0995;",
"01320099999","2010-10-28T05:50:00","4","61.8333333","6.1166667","60.0","SANDANE ANDA, NO","FM-15","ENSD ","V020","150,1,N,0046,1","00900,1,C,N","011265,1,N,1","+0070,1","+0030,1","99999,9","02,5,+00600,1,99,9","07,5,+00900,1,99,9",,,"07,99,1,99,9,99,9,99999,9,99,9,99,9",,"09959,1,99999,9","81,1",,,"MET071METAR ENSD 280550Z 15009KT 050V190 9999 SHRA FEW020 BKN030 07/03 Q0996;",
"01320099999","2010-10-28T06:50:00","4","61.8333333","6.1166667","60.0","SANDANE ANDA, NO","FM-15","ENSD ","V020","040,1,N,0021,1","01050,1,C,N","011265,1,N,1","+0060,1","+0030,1","99999,9","02,5,+00600,1,99,9","07,5,+01050,1,99,9",,,"07,99,1,99,9,99,9,99999,9,99,9,99,9",,"09959,1,99999,9","61,1",,,"MET070METAR ENSD 280650Z 04004KT 010V090 9999 -RA FEW020 BKN035 06/03 Q0996;",
"01320099999","2010-10-28T07:50:00","4","61.8333333","6.1166667","60.0","SANDANE ANDA, NO","FM-15","ENSD ","V020","040,1,N,0021,1","01050,1,C,N","011265,1,N,1","+0060,1","+0030,1","99999,9","02,5,+00750,1,99,9","07,5,+01050,1,99,9",,,"07,99,1,99,9,99,9,99999,9,99,9,99,9",,"09959,1,99999,9","16,1",,,"MET063METAR ENSD 280750Z 04004KT 9999 VCSH FEW025 BKN035 06/03 Q0996;",
"01320099999","2010-10-28T08:50:00","4","61.8333333","6.1166667","60.0","SANDANE ANDA, NO","FM-15","ENSD ","V020","030,1,N,0021,1","01050,1,C,N","011265,1,N,1","+0060,1","+0030,1","99999,9","02,5,+00750,1,99,9","07,5,+01050,1,99,9",,,"07,99,1,99,9,99,9,99999,9,99,9,99,9",,"09959,1,99999,9","80,1",,,"MET072METAR ENSD 280850Z 03004KT 340V070 9999 -SHRA FEW025 BKN035 06/03 Q0996;",
"01320099999","2010-10-28T09:50:00","4","61.8333333","6.1166667","60.0","SANDANE ANDA, NO","FM-15","ENSD ","V020","050,1,N,0036,1","01050,1,C,N","011265,1,N,1","+0070,1","+0030,1","99999,9","02,5,+00750,1,99,9","07,5,+01050,1,99,9",,,"07,99,1,99,9,99,9,99999,9,99,9,99,9",,"09959,1,99999,9",,,,"MET058METAR ENSD 280950Z 05007KT 9999 FEW025 BKN035 07/03 Q0996;",
"01320099999","2010-10-28T10:50:00","4","61.8333333","6.1166667","60.0","SANDANE ANDA, NO","FM-15","ENSD ","V020","130,1,N,0015,1","01050,1,C,N","011265,1,N,1","+0070,1","+0040,1","99999,9","02,5,+00750,1,99,9","07,5,+01050,1,99,9",,,"07,99,1,99,9,99,9,99999,9,99,9,99,9",,"09959,1,99999,9",,,,"MET058METAR ENSD 281050Z 13003KT 9999 FEW025 BKN035 07/04 Q0996;",
"01320099999","2010-10-28T11:50:00","4","61.8333333","6.1166667","60.0","SANDANE ANDA, NO","FM-15","ENSD ","V020","999,9,V,0010,1","01050,1,C,N","011265,1,N,1","+0080,1","+0030,1","99999,9","02,5,+00750,1,99,9","07,5,+01050,1,99,9",,,"07,99,1,99,9,99,9,99999,9,99,9,99,9",,"09959,1,99999,9",,,,"MET058METAR ENSD 281150Z VRB02KT 9999 FEW025 BKN035 08/03 Q0996;",
"01320099999","2010-10-28T12:50:00","4","61.8333333","6.1166667","60.0","SANDANE ANDA, NO","FM-15","ENSD ","V020","110,1,N,0015,1","01050,1,C,N","011265,1,N,1","+0080,1","+0040,1","99999,9","02,5,+00750,1,99,9","07,5,+01050,1,99,9",,,"07,99,1,99,9,99,9,99999,9,99,9,99,9",,"09959,1,99999,9",,,,"MET058METAR ENSD 281250Z 11003KT 9999 FEW025 BKN035 08/04 Q0996;",
"01320099999","2010-10-28T13:50:00","4","61.8333333","6.1166667","60.0","SANDANE ANDA, NO","FM-15","ENSD ","V020","999,9,9,9999,9","01200,5,9,N","011265,1,N,1","+0080,1","+0030,1","99999,9","02,5,+00900,5,99,9","07,5,+01200,5,99,9",,,,,"09960,1,99999,9",,,,"MET057METAR ENSD 281350Z VB02KT 9999 FEW030 BKN040 08/03 Q0996;",
"01320099999","2010-10-28T14:50:00","4","61.8333333","6.1166667","60.0","SANDANE ANDA, NO","FM-15","ENSD ","V020","280,1,N,0021,1","01200,1,C,N","011265,1,N,1","+0070,1","+0030,1","99999,9","02,5,+00900,1,99,9","07,5,+01200,1,99,9",,,"07,99,1,99,9,99,9,99999,9,99,9,99,9",,"09959,1,99999,9",,,,"MET058METAR ENSD 281450Z 28004KT 9999 FEW030 BKN040 07/03 Q0996;",
"01320099999","2010-10-28T15:50:00","4","61.8333333","6.1166667","60.0","SANDANE ANDA, NO","FM-15","ENSD ","V020","999,9,V,0015,1","01200,1,C,N","011265,1,N,1","+0070,1","+0030,1","99999,9","02,5,+00900,1,99,9","07,5,+01200,1,99,9",,,"07,99,1,99,9,99,9,99999,9,99,9,99,9",,"09970,1,99999,9",,,,"MET058METAR ENSD 281550Z VRB03KT 9999 FEW030 BKN040 07/03 Q0997;",
"01320099999","2010-10-28T16:50:00","4","61.8333333","6.1166667","60.0","SANDANE ANDA, NO","FM-15","ENSD ","V020","240,1,N,0021,1","01200,1,C,N","011265,1,N,1","+0070,1","+0020,1","99999,9","02,5,+00900,1,99,9","07,5,+01200,1,99,9",,,"07,99,1,99,9,99,9,99999,9,99,9,99,9",,"09980,1,99999,9",,,,"MET058METAR ENSD 281650Z 24004KT 9999 FEW030 BKN040 07/02 Q0998;",
"01320099999","2010-10-28T17:50:00","4","61.8333333","6.1166667","60.0","SANDANE ANDA, NO","FM-15","ENSD ","V020","999,9,V,0005,1","01200,1,C,N","011265,1,N,1","+0070,1","+0020,1","99999,9","04,5,+00900,1,99,9","07,5,+01200,1,99,9",,,"07,99,1,99,9,99,9,99999,9,99,9,99,9",,"09990,1,99999,9",,,,"MET058METAR ENSD 281750Z VRB01KT 9999 SCT030 BKN040 07/02 Q0999;",
"01320099999","2010-10-28T18:50:00","4","61.8333333","6.1166667","60.0","SANDANE ANDA, NO","FM-15","ENSD ","V020","999,9,V,0005,1","01200,1,C,N","011265,1,N,1","+0060,1","+0020,1","99999,9","07,5,+01200,1,99,9",,,,"07,99,1,99,9,99,9,99999,9,99,9,99,9",,"10000,1,99999,9","80,1",,,"MET057METAR ENSD 281850Z VRB01KT 9999 -SHRA BKN040 06/02 Q1000;",
"01320099999","2010-10-29T04:20:00","4","61.8333333","6.1166667","60.0","SANDANE ANDA, NO","FM-15","ENSD ","V020","190,1,N,0021,1","00900,1,C,N","011265,1,N,1","+0060,1","+0030,1","99999,9","02,5,+00450,1,99,9","07,5,+00900,1,99,9",,,"07,99,1,99,9,99,9,99999,9,99,9,99,9",,"10000,1,99999,9",,,,"MET058METAR ENSD 290420Z 19004KT 9999 FEW015 BKN030 06/03 Q1000;",
"01320099999","2010-10-29T05:50:00","4","61.8333333","6.1166667","60.0","SANDANE ANDA, NO","FM-15","ENSD ","V020","999,9,V,0015,1","00900,1,C,N","011265,1,N,1","+0060,1","+0030,1","99999,9","02,5,+00450,1,99,9","07,5,+00900,1,99,9",,,"07,99,1,99,9,99,9,99999,9,99,9,99,9",,"09990,1,99999,9",,,,"MET058METAR ENSD 290550Z VRB03KT 9999 FEW015 BKN030 06/03 Q0999;",
"01320099999","2010-10-29T06:50:00","4","61.8333333","6.1166667","60.0","SANDANE ANDA, NO","FM-15","ENSD ","V020","120,1,N,0026,1","00900,1,C,N","011265,1,N,1","+0060,1","+0020,1","99999,9","02,5,+00450,1,99,9","07,5,+00900,1,99,9",,,"07,99,1,99,9,99,9,99999,9,99,9,99,9",,"09980,1,99999,9",,,,"MET066METAR ENSD 290650Z 12005KT 040V170 9999 FEW015 BKN030 06/02 Q0998;",
"01320099999","2010-10-29T07:50:00","4","61.8333333","6.1166667","60.0","SANDANE ANDA, NO","FM-15","ENSD ","V020","100,1,N,0036,1","00900,1,C,N","011265,1,N,1","+0060,1","+0030,1","99999,9","02,5,+00150,1,99,9","07,5,+00900,1,99,9",,,"07,99,1,99,9,99,9,99999,9,99,9,99,9",,"09980,1,99999,9","81,1",,,"MET071METAR ENSD 290750Z 10007KT 030V160 9999 SHRA FEW005 BKN030 06/03 Q0998;",
"01320099999","2010-10-29T08:50:00","4","61.8333333","6.1166667","60.0","SANDANE ANDA, NO","FM-15","ENSD ","V020","110,1,N,0041,1","00900,1,C,N","011265,1,N,1","+0060,1","+0020,1","99999,9","02,5,+00150,1,99,9","07,5,+00900,1,99,9",,,"07,99,1,99,9,99,9,99999,9,99,9,99,9",,"09970,1,99999,9","81,1",,,"MET071METAR ENSD 290850Z 11008KT 080V160 9999 SHRA FEW005 BKN030 06/02 Q0997;",
"01320099999","2010-10-29T09:50:00","4","61.8333333","6.1166667","60.0","SANDANE ANDA, NO","FM-15","ENSD ","V020","090,1,N,0021,1","00900,1,C,N","011265,1,N,1","+0060,1","+0020,1","99999,9","02,5,+00150,1,99,9","07,5,+00900,1,99,9",,,"07,99,1,99,9,99,9,99999,9,99,9,99,9",,"09949,1,99999,9","81,1",,,"MET063METAR ENSD 290950Z 09004KT 9999 SHRA FEW005 BKN030 06/02 Q0995;",
"01320099999","2010-10-29T10:50:00","4","61.8333333","6.1166667","60.0","SANDANE ANDA, NO","FM-15","ENSD ","V020","090,1,N,0057,1","00900,1,C,N","011265,1,N,1","+0060,1","+0020,1","99999,9","02,5,+00150,1,99,9","07,5,+00900,1,99,9",,,"07,99,1,99,9,99,9,99999,9,99,9,99,9",,"09939,1,99999,9","81,1",,,"MET063METAR ENSD 291050Z 09011KT 9999 SHRA FEW005 BKN030 06/02 Q0994;",
"01320099999","2010-10-29T11:50:00","4","61.8333333","6.1166667","60.0","SANDANE ANDA, NO","FM-15","ENSD ","V020","090,1,N,0051,1","01050,1,C,N","011265,1,N,1","+0060,1","+0030,1","99999,9","02,5,+00240,1,99,9","07,5,+01050,1,99,9",,,"07,99,1,99,9,99,9,99999,9,99,9,99,9",,"09929,1,99999,9","81,1",,,"MET063METAR ENSD 291150Z 09010KT 9999 SHRA FEW008 BKN035 06/03 Q0993;",
"01320099999","2010-10-29T12:50:00","4","61.8333333","6.1166667","60.0","SANDANE ANDA, NO","FM-15","ENSD ","V020","110,1,N,0036,1","01200,1,C,N","011265,1,N,1","+0070,1","+0030,1","99999,9","02,5,+00240,1,99,9","07,5,+01200,1,99,9",,,"07,99,1,99,9,99,9,99999,9,99,9,99,9",,"09919,1,99999,9","63,1",,,"MET061METAR ENSD 291250Z 11007KT 9999 RA FEW008 BKN040 07/03 Q0992;",
"01320099999","2010-10-29T13:50:00","4","61.8333333","6.1166667","60.0","SANDANE ANDA, NO","FM-15","ENSD ","V020","150,1,N,0026,1","01050,1,C,N","011265,1,N,1","+0060,1","+0030,1","99999,9","02,5,+00090,1,99,9","07,5,+01050,1,99,9",,,"07,99,1,99,9,99,9,99999,9,99,9,99,9",,"09909,1,99999,9","63,1",,,"MET069METAR ENSD 291350Z 15005KT 110V210 9999 RA FEW003 BKN035 06/03 Q0991;",
"01320099999","2010-10-29T14:50:00","4","61.8333333","6.1166667","60.0","SANDANE ANDA, NO","FM-15","ENSD ","V020","999,9,V,0015,1","01050,1,C,N","011265,1,N,1","+0060,1","+0030,1","99999,9","02,5,+00240,1,99,9","07,5,+01050,1,99,9",,,"07,99,1,99,9,99,9,99999,9,99,9,99,9",,"09909,1,99999,9","63,1",,,"MET061METAR ENSD 291450Z VRB03KT 9999 RA FEW008 BKN035 06/03 Q0991;",
"01320099999","2010-10-29T15:50:00","4","61.8333333","6.1166667","60.0","SANDANE ANDA, NO","FM-15","ENSD ","V020","999,9,V,0010,1","01050,1,C,N","011265,1,N,1","+0070,1","+0040,1","99999,9","02,5,+00060,1,99,9","07,5,+01050,1,99,9",,,"07,99,1,99,9,99,9,99999,9,99,9,99,9",,"09898,1,99999,9","63,1",,,"MET061METAR ENSD 291550Z VRB02KT 9999 RA FEW002 BKN035 07/04 Q0990;",
"01320099999","2010-10-29T16:50:00","4","61.8333333","6.1166667","60.0","SANDANE ANDA, NO","FM-15","ENSD ","V020","999,9,V,0015,1","01050,1,C,N","011265,1,N,1","+0070,1","+0050,1","99999,9","02,5,+00210,1,99,9","07,5,+01050,1,99,9",,,"07,99,1,99,9,99,9,99999,9,99,9,99,9",,"09898,1,99999,9","63,1",,,"MET061METAR ENSD 291650Z VRB03KT 9999 RA FEW007 BKN035 07/05 Q0990;",
"01320099999","2010-10-29T17:50:00","4","61.8333333","6.1166667","60.0","SANDANE ANDA, NO","FM-15","ENSD ","V020","999,9,V,0010,1","01050,1,C,N","011265,1,N,1","+0080,1","+0000,1","99999,9","07,5,+01050,1,99,9",,,,"07,99,1,99,9,99,9,99999,9,99,9,99,9",,"09898,1,99999,9","63,1",,,"MET053METAR ENSD 291750Z VRB02KT 9999 RA BKN035 08/0 Q0990;",
"01320099999","2010-10-29T18:50:00","4","61.8333333","6.1166667","60.0","SANDANE ANDA, NO","FM-15","ENSD ","V020","999,9,V,0010,1","01050,1,C,N","011265,1,N,1","+0090,1","+0060,1","99999,9","07,5,+01050,1,99,9",,,,"07,99,1,99,9,99,9,99999,9,99,9,99,9",,"09898,1,99999,9","61,1",,,"MET055METAR ENSD 291850Z VRB02KT 9999 -RA BKN035 09/06 Q0990;",
"01320099999","2010-10-30T04:50:00","4","61.8333333","6.1166667","60.0","SANDANE ANDA, NO","FM-15","ENSD ","V020","190,1,N,0046,1","01350,1,C,N","011265,1,N,1","+0130,1","+0030,1","99999,9","07,5,+01350,1,99,9",,,,"07,99,1,99,9,99,9,99999,9,99,9,99,9",,"09831,1,99999,9","61,1",,,"MET063METAR ENSD 300450Z 19009KT 150V230 9999 -RA BKN045 13/03 Q0983;",
"01320099999","2010-10-30T05:50:00","4","61.8333333","6.1166667","60.0","SANDANE ANDA, NO","FM-15","ENSD ","V020","999,9,V,0021,1","01350,1,C,N","011265,1,N,1","+0120,1","+0030,1","99999,9","04,5,+01050,1,99,9","07,5,+01350,1,99,9",,,"07,99,1,99,9,99,9,99999,9,99,9,99,9",,"09831,1,99999,9","61,1",,,"MET062METAR ENSD 300550Z VRB04KT 9999 -RA SCT035 BKN045 12/03 Q0983;",
"01320099999","2010-10-30T06:50:00","4","61.8333333","6.1166667","60.0","SANDANE ANDA, NO","FM-15","ENSD ","V020","090,1,N,0021,1","01200,1,C,N","011265,1,N,1","+0100,1","+0040,1","99999,9","07,5,+01200,1,99,9",,,,"07,99,1,99,9,99,9,99999,9,99,9,99,9",,"09841,1,99999,9","61,1",,,"MET063METAR ENSD 300650Z 09004KT 050V140 9999 -RA BKN040 10/04 Q0984;",
"01320099999","2010-10-30T07:50:00","4","61.8333333","6.1166667","60.0","SANDANE ANDA, NO","FM-15","ENSD ","V020","130,1,N,0026,1","01200,1,C,N","011265,1,N,1","+0100,1","+0040,1","99999,9","07,5,+01200,1,99,9",,,,"07,99,1,99,9,99,9,99999,9,99,9,99,9",,"09841,1,99999,9","61,1",,,"MET063METAR ENSD 300750Z 13005KT 070V190 9999 -RA BKN040 10/04 Q0984;",
"01320099999","2010-10-30T08:50:00","4","61.8333333","6.1166667","60.0","SANDANE ANDA, NO","FM-15","ENSD ","V020","999,9,V,0026,1","01200,1,C,N","011265,1,N,1","+0100,1","+0040,1","99999,9","02,5,+01050,1,99,9","07,5,+01200,1,99,9",,,"07,99,1,99,9,99,9,99999,9,99,9,99,9",,"09851,1,99999,9","80,1",,,"MET064METAR ENSD 300850Z VRB05KT 9999 -SHRA FEW035 BKN040 10/04 Q0985;",
"01320099999","2010-10-30T09:50:00","4","61.8333333","6.1166667","60.0","SANDANE ANDA, NO","FM-15","ENSD ","V020","100,1,N,0021,1","01200,1,C,N","011265,1,N,1","+0090,1","+0050,1","99999,9","02,5,+00900,1,99,9","07,5,+01200,1,99,9",,,"07,99,1,99,9,99,9,99999,9,99,9,99,9",,"09861,1,99999,9","80,1",,,"MET064METAR ENSD 300950Z 10004KT 9999 -SHRA FEW030 BKN040 09/05 Q0986;",
"01320099999","2010-10-30T10:50:00","4","61.8333333","6.1166667","60.0","SANDANE ANDA, NO","FM-15","ENSD ","V020","120,1,N,0021,1","01200,1,C,N","011265,1,N,1","+0090,1","+0050,1","99999,9","02,5,+00900,1,99,9","07,5,+01200,1,99,9",,,"07,99,1,99,9,99,9,99999,9,99,9,99,9",,"09861,1,99999,9","80,1",,,"MET064METAR ENSD 301050Z 12004KT 9999 -SHRA FEW030 BKN040 09/05 Q0986;",
"01320099999","2010-10-30T11:50:00","4","61.8333333","6.1166667","60.0","SANDANE ANDA, NO","FM-15","ENSD ","V020","080,1,N,0041,1","01200,1,C,N","011265,1,N,1","+0100,1","+0040,1","99999,9","02,5,+00900,1,99,9","07,5,+01200,1,99,9",,,"07,99,1,99,9,99,9,99999,9,99,9,99,9",,"09861,1,99999,9","80,1",,,"MET064METAR ENSD 301150Z 08008KT 9999 -SHRA FEW030 BKN040 10/04 Q0986;",
"01320099999","2010-10-30T12:50:00","4","61.8333333","6.1166667","60.0","SANDANE ANDA, NO","FM-15","ENSD ","V020","190,1,N,0093,1","01200,5,9,N","999999,9,N,1","+0100,1","+0030,1","99999,9","02,5,+00900,5,99,9","07,5,+01200,5,99,9",,,,,"09860,1,99999,9",,,"0159,1","MET066METAR ENSD 301250Z 19018G31KT 999 -SHRA FEW030 BKN040 10/03 Q0986;",
"01320099999","2010-10-31T09:50:00","4","61.8333333","6.1166667","60.0","SANDANE ANDA, NO","FM-15","ENSD ","V020","180,1,N,0082,1","01200,1,C,N","011265,1,N,1","+0100,1","+0020,1","99999,9","07,5,+01200,1,99,9",,,,"07,99,1,99,9,99,9,99999,9,99,9,99,9",,"09919,1,99999,9","80,1",,"0144,1","MET060METAR ENSD 310950Z 18016G28KT 9999 -SHRA BKN040 10/02 Q0992;",
"01320099999","2010-10-31T10:50:00","4","61.8333333","6.1166667","60.0","SANDANE ANDA, NO","FM-15","ENSD ","V020","190,1,N,0046,1","01200,1,C,N","011265,1,N,1","+0090,1","+0020,1","99999,9","02,5,+01050,1,99,9","07,5,+01200,1,99,9",,,"07,99,1,99,9,99,9,99999,9,99,9,99,9",,"09929,1,99999,9","81,1",,"0113,1","MET074METAR ENSD 311050Z 19009G22KT 150V240 9999 SHRA FEW035 BKN040 09/02 Q0993;",
"01320099999","2010-10-31T11:50:00","4","61.8333333","6.1166667","60.0","SANDANE ANDA, NO","FM-15","ENSD ","V020","190,1,N,0077,1","01050,1,C,N","011265,1,N,1","+0100,1","+0010,1","99999,9","02,5,+00900,1,99,9","07,5,+01050,1,99,9",,,"07,99,1,99,9,99,9,99999,9,99,9,99,9",,"09939,1,99999,9",,,"0170,1","MET074METAR ENSD 311150Z 19015G33KT 150V230 9999 FEW030 BKN035 10/01 Q0994 RERA;",
"01320099999","2010-10-31T14:50:00","4","61.8333333","6.1166667","60.0","SANDANE ANDA, NO","FM-15","ENSD ","V020","190,1,N,0113,1","01200,1,C,N","011265,1,N,1","+0100,1","+0000,1","99999,9","07,5,+01200,1,99,9",,,,"07,99,1,99,9,99,9,99999,9,99,9,99,9",,"09970,1,99999,9",,,"0165,1","MET054METAR ENSD 311450Z 19022G32KT 9999 BKN040 10/00 Q0997;",
"01320099999","2010-10-31T15:50:00","4","61.8333333","6.1166667","60.0","SANDANE ANDA, NO","FM-15","ENSD ","V020","190,1,N,0072,1","01200,1,C,N","011265,1,N,1","+0080,1","+0020,1","99999,9","07,5,+01200,1,99,9",,,,"07,99,1,99,9,99,9,99999,9,99,9,99,9",,"09980,1,99999,9","80,1",,"0123,1","MET060METAR ENSD 311550Z 19014G24KT 9999 -SHRA BKN040 08/02 Q0998;",
"01320099999","2010-10-31T16:50:00","4","61.8333333","6.1166667","60.0","SANDANE ANDA, NO","FM-15","ENSD ","V020","200,1,N,0057,1","01200,1,C,N","011265,1,N,1","+0080,1","+0020,1","99999,9","07,5,+01200,1,99,9",,,,"07,99,1,99,9,99,9,99999,9,99,9,99,9",,"09980,1,99999,9","80,1",,,"MET065METAR ENSD 311650Z 20011KT 170V240 9999 -SHRA BKN040 08/02 Q0998;",
"01320099999","2010-10-31T17:50:00","4","61.8333333","6.1166667","60.0","SANDANE ANDA, NO","FM-15","ENSD ","V020","190,1,N,0031,1","01200,1,C,N","011265,1,N,1","+0090,1","+0020,1","99999,9","07,5,+01200,1,99,9",,,,"07,99,1,99,9,99,9,99999,9,99,9,99,9",,"09990,1,99999,9",,,,"MET059METAR ENSD 311750Z 19006KT 150V240 9999 BKN040 09/02 Q0999;",
"01320099999","2010-10-31T18:50:00","4","61.8333333","6.1166667","60.0","SANDANE ANDA, NO","FM-15","ENSD ","V020","999,9,V,0015,1","01050,1,C,N","011265,1,N,1","+0090,1","+0010,1","99999,9","02,5,+00900,1,99,9","07,5,+01050,1,99,9",,,"07,99,1,99,9,99,9,99999,9,99,9,99,9",,"10000,1,99999,9",,,,"MET058METAR ENSD 311850Z VRB03KT 9999 FEW030 BKN035 09/01 Q1000;",
"01320099999","2010-10-31T19:50:00","4","61.8333333","6.1166667","60.0","SANDANE ANDA, NO","FM-15","ENSD ","V020","999,9,V,0010,1","01050,1,C,N","011265,1,N,1","+0080,1","+0020,1","99999,9","04,5,+00900,1,99,9","07,5,+01050,1,99,9",,,"07,99,1,99,9,99,9,99999,9,99,9,99,9",,"10010,1,99999,9","80,1",,,"MET064METAR ENSD 311950Z VRB02KT 9999 -SHRA SCT030 BKN035 08/02 Q1001;",
"01320099999","2010-11-01T05:20:00","4","61.8333333","6.1166667","60.0","SANDANE ANDA, NO","FM-15","ENSD ","V020","330,1,N,0026,1","01050,1,C,N","011265,1,N,1","+0040,1","+0000,1","99999,9","02,5,+00300,1,99,9","07,5,+01050,1,99,9",,,"07,99,1,99,9,99,9,99999,9,99,9,99,9",,"10081,1,99999,9","80,1",,,"MET072METAR ENSD 010520Z 33005KT 290V020 9999 -SHRA FEW010 BKN035 04/00 Q1008;",
"01320099999","2010-11-01T05:50:00","4","61.8333333","6.1166667","60.0","SANDANE ANDA, NO","FM-15","ENSD ","V020","340,1,N,0031,1","01050,1,C,N","011265,1,N,1","+0050,1","+0000,1","99999,9","02,5,+00300,1,99,9","07,5,+01050,1,99,9",,,"07,99,1,99,9,99,9,99999,9,99,9,99,9",,"10081,1,99999,9","80,1",,,"MET072METAR ENSD 010550Z 34006KT 330V020 9999 -SHRA FEW010 BKN035 05/00 Q1008;",
"01320099999","2010-11-01T06:50:00","4","61.8333333","6.1166667","60.0","SANDANE ANDA, NO","FM-15","ENSD ","V020","270,1,N,0057,1","01050,1,C,N","011265,1,N,1","+0040,1","+0000,1","99999,9","02,5,+00450,1,99,9","07,5,+01050,1,99,9",,,"07,99,1,99,9,99,9,99999,9,99,9,99,9",,"10091,1,99999,9","81,1",,,"MET072METAR ENSD 010650Z 27011KT 230V300 9999 SHRA FEW015 BKN035 04/M00 Q1009;",
"01320099999","2010-11-01T07:50:00","4","61.8333333","6.1166667","60.0","SANDANE ANDA, NO","FM-15","ENSD ","V020","270,1,N,0026,1","01050,1,C,N","011265,1,N,1","+0040,1","+0000,1","99999,9","07,5,+01050,1,99,9",,,,"07,99,1,99,9,99,9,99999,9,99,9,99,9",,"10102,1,99999,9","80,1",,,"MET065METAR ENSD 010750Z 27005KT 220V310 9999 -SHRA BKN035 04/00 Q1010;",
"01320099999","2010-11-01T08:50:00","4","61.8333333","6.1166667","60.0","SANDANE ANDA, NO","FM-15","ENSD ","V020","290,1,N,0026,1","01050,1,C,N","011265,1,N,1","+0040,1","+0000,1","99999,9","02,5,+00300,1,99,9","07,5,+01050,1,99,9",,,"07,99,1,99,9,99,9,99999,9,99,9,99,9",,"10108,1,99999,9","16,1",,,"MET072METAR ENSD 010850Z 29005KT 250V340 9999 VCSH FEW010 BKN035 04/M00 Q1011;",
"01320099999","2010-11-01T09:50:00","4","61.8333333","6.1166667","60.0","SANDANE ANDA, NO","FM-15","ENSD ","V020","140,1,N,0026,1","01200,1,C,N","011265,1,N,1","+0040,1","+0000,1","99999,9","02,5,+00360,1,99,9","07,5,+01200,1,99,9",,,"07,99,1,99,9,99,9,99999,9,99,9,99,9",,"10108,1,99999,9",,,,"MET059METAR ENSD 010950Z 14005KT 9999 FEW012 BKN040 04/M00 Q1011;",
"01320099999","2010-11-01T10:50:00","4","61.8333333","6.1166667","60.0","SANDANE ANDA, NO","FM-15","ENSD ","V020","140,1,N,0026,1","99999,9,C,N","011265,1,N,1","+0040,1","+0000,1","99999,9","02,5,+00300,1,99,9","04,5,+01200,1,99,9",,,"04,99,1,99,9,99,9,99999,9,99,9,99,9",,"10108,1,99999,9",,,,"MET058METAR ENSD 011050Z 14005KT 9999 FEW010 SCT040 04/00 Q1011;","P01 012003SCOCIG"
"01320099999","2010-11-01T11:50:00","4","61.8333333","6.1166667","60.0","SANDANE ANDA, NO","FM-15","ENSD ","V020","140,1,N,0010,1","99999,9,C,N","011265,1,N,1","+0040,1","+0010,1","99999,9","02,5,+00450,1,99,9","04,5,+01350,1,99,9",,,"04,99,1,99,9,99,9,99999,9,99,9,99,9",,"10108,1,99999,9",,,,"MET058METAR ENSD 011150Z 14002KT 9999 FEW015 SCT045 04/01 Q1011;","P01 013503SCOCIG"
"01320099999","2010-11-01T12:50:00","4","61.8333333","6.1166667","60.0","SANDANE ANDA, NO","FM-15","ENSD ","V020","999,9,C,0000,1","22000,1,9,N","011265,1,N,1","+0040,1","+0000,1","99999,9","04,5,+01350,1,99,9",,,,"04,99,1,99,9,99,9,99999,9,99,9,99,9",,"10108,1,99999,9",,,,"MET051METAR ENSD 011250Z 00000KT 9999 SCT045 04/00 Q1011;",
"01320099999","2010-11-01T13:50:00","4","61.8333333","6.1166667","60.0","SANDANE ANDA, NO","FM-15","ENSD ","V020","150,1,N,0015,1","22000,1,9,N","011265,1,N,1","+0040,1","+0000,1","99999,9","04,5,+01350,1,99,9",,,,"04,99,1,99,9,99,9,99999,9,99,9,99,9",,"10108,1,99999,9",,,,"MET052METAR ENSD 011350Z 15003KT 9999 SCT045 04/M00 Q1011;",
"01320099999","2010-11-01T14:50:00","4","61.8333333","6.1166667","60.0","SANDANE ANDA, NO","FM-15","ENSD ","V020","130,1,N,0021,1","22000,1,9,N","011265,1,N,1","+0040,1","-0010,1","99999,9","02,5,+01350,1,99,9",,,,"02,99,1,99,9,99,9,99999,9,99,9,99,9",,"10102,1,99999,9",,,,"MET052METAR ENSD 011450Z 13004KT 9999 FEW045 04/M01 Q1010;",
"01320099999","2010-11-01T15:50:00","4","61.8333333","6.1166667","60.0","SANDANE ANDA, NO","FM-15","ENSD ","V020","170,1,N,0026,1","22000,1,9,N","011265,1,N,1","+0030,1","-0010,1","99999,9","04,5,+01350,1,99,9",,,,"04,99,1,99,9,99,9,99999,9,99,9,99,9",,"10102,1,99999,9",,,,"MET052METAR ENSD 011550Z 17005KT 9999 SCT045 03/M01 Q1010;",
"01320099999","2010-11-01T16:50:00","4","61.8333333","6.1166667","60.0","SANDANE ANDA, NO","FM-15","ENSD ","V020","150,1,N,0026,1","22000,1,9,N","011265,1,N,1","+0020,1","-0010,1","99999,9","02,5,+01350,1,99,9",,,,"02,99,1,99,9,99,9,99999,9,99,9,99,9",,"10102,1,99999,9",,,,"MET052METAR ENSD 011650Z 15005KT 9999 FEW045 02/M01 Q1010;",
"01320099999","2010-11-01T17:50:00","4","61.8333333","6.1166667","60.0","SANDANE ANDA, NO","FM-15","ENSD ","V020","160,1,N,0021,1","22000,1,9,N","011265,1,N,1","+0020,1","-0020,1","99999,9","02,5,+01350,1,99,9",,,,"02,99,1,99,9,99,9,99999,9,99,9,99,9",,"10081,1,99999,9",,,,"MET052METAR ENSD 011750Z 16004KT 9999 FEW045 02/M02 Q1008;",
"01320099999","2010-11-01T18:50:00","4","61.8333333","6.1166667","60.0","SANDANE ANDA, NO","FM-15","ENSD ","V020","150,1,N,0021,1","22000,1,9,N","011265,1,N,1","+0020,1","-0020,1","99999,9","02,5,+01350,1,99,9",,,,"02,99,1,99,9,99,9,99999,9,99,9,99,9",,"10081,1,99999,9",,,,"MET052METAR ENSD 011850Z 15004KT 9999 FEW045 02/M02 Q1008;",
"01320099999","2010-11-01T19:50:00","4","61.8333333","6.1166667","60.0","SANDANE ANDA, NO","FM-15","ENSD ","V020","160,1,N,0026,1","22000,1,9,N","011265,1,N,1","+0020,1","-0020,1","99999,9","02,5,+01350,1,99,9",,,,"02,99,1,99,9,99,9,99999,9,99,9,99,9",,"10071,1,99999,9",,,,"MET052METAR ENSD 011950Z 16005KT 9999 FEW045 02/M02 Q1007;",
"01320099999","2010-11-02T05:20:00","4","61.8333333","6.1166667","60.0","SANDANE ANDA, NO","FM-15","ENSD ","V020","100,1,N,0036,1","22000,1,9,N","011265,1,N,1","+0070,1","-0040,1","99999,9","04,5,+01350,1,99,9",,,,"04,99,1,99,9,99,9,99999,9,99,9,99,9",,"09929,1,99999,9",,,,"MET052METAR ENSD 020520Z 10007KT 9999 SCT045 07/M04 Q0993;",
"01320099999","2010-11-02T06:50:00","4","61.8333333","6.1166667","60.0","SANDANE ANDA, NO","FM-15","ENSD ","V020","999,9,V,0015,1","01050,1,C,N","011265,1,N,1","+0070,1","-0010,1","99999,9","07,5,+01050,1,99,9",,,,"07,99,1,99,9,99,9,99999,9,99,9,99,9",,"09909,1,99999,9","81,1",,,"MET057METAR ENSD 020650Z VRB03KT 9999 SHRA BKN035 07/M01 Q0991;",
"01320099999","2010-11-02T07:50:00","4","61.8333333","6.1166667","60.0","SANDANE ANDA, NO","FM-15","ENSD ","V020","070,1,N,0021,1","01050,1,C,N","011265,1,N,1","+0060,1","+0020,1","99999,9","07,5,+01050,1,99,9",,,,"07,99,1,99,9,99,9,99999,9,99,9,99,9",,"09898,1,99999,9","81,1",,,"MET056METAR ENSD 020750Z 07004KT 9999 SHRA BKN035 06/02 Q0990;",
"01320099999","2010-11-02T09:50:00","4","61.8333333","6.1166667","60.0","SANDANE ANDA, NO","FM-15","ENSD ","V020","080,1,N,0046,1","01050,1,C,N","011265,1,N,1","+0070,1","+0020,1","99999,9","07,5,+01050,1,99,9",,,,"07,99,1,99,9,99,9,99999,9,99,9,99,9",,"09892,1,99999,9","81,1",,,"MET056METAR ENSD 020950Z 08009KT 9999 SHRA BKN035 07/02 Q0989;",
"01320099999","2010-11-02T10:50:00","4","61.8333333","6.1166667","60.0","SANDANE ANDA, NO","FM-15","ENSD ","V020","999,9,V,0005,1","01050,1,C,N","011265,1,N,1","+0060,1","+0030,1","99999,9","07,5,+01050,1,99,9",,,,"07,99,1,99,9,99,9,99999,9,99,9,99,9",,"09892,1,99999,9","80,1",,,"MET057METAR ENSD 021050Z VRB01KT 9999 -SHRA BKN035 06/03 Q0989;",
"01320099999","2010-11-02T11:50:00","4","61.8333333","6.1166667","60.0","SANDANE ANDA, NO","FM-15","ENSD ","V020","120,1,N,0015,1","01050,1,C,N","011265,1,N,1","+0060,1","+0030,1","99999,9","07,5,+01050,1,99,9",,,,"07,99,1,99,9,99,9,99999,9,99,9,99,9",,"09882,1,99999,9","63,1",,,"MET054METAR ENSD 021150Z 12003KT 9999 RA BKN035 06/03 Q0988;",
"01320099999","2010-11-02T12:50:00","4","61.8333333","6.1166667","60.0","SANDANE ANDA, NO","FM-15","ENSD ","V020","100,1,N,0031,1","01050,1,C,N","011265,1,N,1","+0060,1","+0030,1","99999,9","02,5,+00150,1,99,9","07,5,+01050,1,99,9",,,"07,99,1,99,9,99,9,99999,9,99,9,99,9",,"09871,1,99999,9","16,1",,,"MET063METAR ENSD 021250Z 10006KT 9999 VCSH FEW005 BKN035 06/03 Q0987;",
"01320099999","2010-11-02T13:50:00","4","61.8333333","6.1166667","60.0","SANDANE ANDA, NO","FM-15","ENSD ","V020","100,1,N,0031,1","01050,1,C,N","011265,1,N,1","+0070,1","+0030,1","99999,9","02,5,+00750,1,99,9","07,5,+01050,1,99,9",,,"07,99,1,99,9,99,9,99999,9,99,9,99,9",,"09861,1,99999,9","16,1",,,"MET063METAR ENSD 021350Z 10006KT 9999 VCSH FEW025 BKN035 07/03 Q0986;",
"01320099999","2010-11-02T14:50:00","4","61.8333333","6.1166667","60.0","SANDANE ANDA, NO","FM-15","ENSD ","V020","080,1,N,0036,1","01050,1,C,N","011265,1,N,1","+0070,1","+0030,1","99999,9","02,5,+00750,1,99,9","07,5,+01050,1,99,9",,,"07,99,1,99,9,99,9,99999,9,99,9,99,9",,"09861,1,99999,9","81,1",,,"MET071METAR ENSD 021450Z 08007KT 030V150 9999 SHRA FEW025 BKN035 07/03 Q0986;",
"01320099999","2010-11-02T15:50:00","4","61.8333333","6.1166667","60.0","SANDANE ANDA, NO","FM-15","ENSD ","V020","999,9,V,0015,1","01050,1,C,N","011265,1,N,1","+0060,1","+0030,1","99999,9","02,5,+00450,1,99,9","07,5,+01050,1,99,9",,,"07,99,1,99,9,99,9,99999,9,99,9,99,9",,"09861,1,99999,9","16,1",,,"MET063METAR ENSD 021550Z VRB03KT 9999 VCSH FEW015 BKN035 06/03 Q0986;",
"01320099999","2010-11-02T16:50:00","4","61.8333333","6.1166667","60.0","SANDANE ANDA, NO","FM-15","ENSD ","V020","110,1,N,0031,1","01050,1,C,N","011265,1,N,1","+0070,1","+0020,1","99999,9","02,5,+00750,1,99,9","07,5,+01050,1,99,9",,,"07,99,1,99,9,99,9,99999,9,99,9,99,9",,"09861,1,99999,9",,,,"MET066METAR ENSD 021650Z 11006KT 070V180 9999 FEW025 BKN035 07/02 Q0986;",
"01320099999","2010-11-02T17:50:00","4","61.8333333","6.1166667","60.0","SANDANE ANDA, NO","FM-15","ENSD ","V020","090,1,N,0021,1","01050,1,C,N","011265,1,N,1","+0060,1","+0030,1","99999,9","02,5,+00750,1,99,9","07,5,+01050,1,99,9",,,"07,99,1,99,9,99,9,99999,9,99,9,99,9",,"09861,1,99999,9","80,1",,,"MET064METAR ENSD 021750Z 09004KT 9999 -SHRA FEW025 BKN035 06/03 Q0986;",
"01320099999","2010-11-02T18:50:00","4","61.8333333","6.1166667","60.0","SANDANE ANDA, NO","FM-15","ENSD ","V020","090,1,N,0057,1","01050,1,C,N","011265,1,N,1","+0070,1","+0020,1","99999,9","02,5,+00750,1,99,9","07,5,+01050,1,99,9",,,"07,99,1,99,9,99,9,99999,9,99,9,99,9",,"09841,1,99999,9",,,,"MET058METAR ENSD 021850Z 09011KT 9999 FEW025 BKN035 07/02 Q0984;",
"01320099999","2010-11-02T20:20:00","4","61.8333333","6.1166667","60.0","SANDANE ANDA, NO","FM-15","ENSD ","V020","999,9,V,0010,1","01050,1,C,N","011265,1,N,1","+0070,1","+0030,1","99999,9","02,5,+00750,1,99,9","07,5,+01050,1,99,9",,,"07,99,1,99,9,99,9,99999,9,99,9,99,9",,"09841,1,99999,9","80,1",,,"MET064METAR ENSD 022020Z VRB02KT 9999 -SHRA FEW025 BKN035 07/03 Q0984;",
"01320099999","2010-11-02T20:50:00","4","61.8333333","6.1166667","60.0","SANDANE ANDA, NO","FM-15","ENSD ","V020","080,1,N,0031,1","01050,1,C,N","011265,1,N,1","+0070,1","+0020,1","99999,9","02,5,+00750,1,99,9","07,5,+01050,1,99,9",,,"07,99,1,99,9,99,9,99999,9,99,9,99,9",,"09831,1,99999,9","80,1",,,"MET064METAR ENSD 022050Z 08006KT 9999 -SHRA FEW025 BKN035 07/02 Q0983;",
"01320099999","2010-11-02T21:50:00","4","61.8333333","6.1166667","60.0","SANDANE ANDA, NO","FM-15","ENSD ","V020","060,1,N,0031,1","01050,1,C,N","011265,1,N,1","+0070,1","+0020,1","99999,9","02,5,+00750,1,99,9","07,5,+01050,1,99,9",,,"07,99,1,99,9,99,9,99999,9,99,9,99,9",,"09831,1,99999,9","80,1",,,"MET072METAR ENSD 022150Z 06006KT 010V130 9999 -SHRA FEW025 BKN035 07/02 Q0983;",
"01320099999","2010-11-02T22:50:00","4","61.8333333","6.1166667","60.0","SANDANE ANDA, NO","FM-15","ENSD ","V020","140,1,N,0026,1","01050,1,C,N","011265,1,N,1","+0080,1","+0020,1","99999,9","02,5,+00750,1,99,9","07,5,+01050,1,99,9",,,"07,99,1,99,9,99,9,99999,9,99,9,99,9",,"09821,1,99999,9","81,1",,,"MET071METAR ENSD 022250Z 14005KT 080V180 9999 SHRA FEW025 BKN035 08/02 Q0982;",
"01320099999","2010-11-03T05:20:00","4","61.8333333","6.1166667","60.0","SANDANE ANDA, NO","FM-15","ENSD ","V020","999,9,V,0010,1","00900,1,C,N","011265,1,N,1","+0070,1","+0030,1","99999,9","02,5,+00600,1,99,9","07,5,+00900,1,99,9",,,"07,99,1,99,9,99,9,99999,9,99,9,99,9",,"09810,1,99999,9","81,1",,,"MET063METAR ENSD 030520Z VRB02KT 9999 SHRA FEW020 BKN030 07/03 Q0981;",
"01320099999","2010-11-03T05:50:00","4","61.8333333","6.1166667","60.0","SANDANE ANDA, NO","FM-15","ENSD ","V020","999,9,V,0010,1","00900,1,C,N","011265,1,N,1","+0060,1","+0030,1","99999,9","02,5,+00600,1,99,9","07,5,+00900,1,99,9",,,"07,99,1,99,9,99,9,99999,9,99,9,99,9",,"09810,1,99999,9","80,1",,,"MET064METAR ENSD 030550Z VRB02KT 9999 -SHRA FEW020 BKN030 06/03 Q0981;",
"01320099999","2010-11-03T06:50:00","4","61.8333333","6.1166667","60.0","SANDANE ANDA, NO","FM-15","ENSD ","V020","999,9,C,0000,1","01050,1,C,N","011265,1,N,1","+0060,1","+0030,1","99999,9","02,5,+00600,1,99,9","07,5,+01050,1,99,9",,,"07,99,1,99,9,99,9,99999,9,99,9,99,9",,"09810,1,99999,9","80,1",,,"MET064METAR ENSD 030650Z 00000KT 9999 -SHRA FEW020 BKN035 06/03 Q0981;",
"01320099999","2010-11-03T07:50:00","4","61.8333333","6.1166667","60.0","SANDANE ANDA, NO","FM-15","ENSD ","V020","999,9,V,0010,1","01050,1,C,N","011265,1,N,1","+0060,1","+0030,1","99999,9","02,5,+00750,1,99,9","07,5,+01050,1,99,9",,,"07,99,1,99,9,99,9,99999,9,99,9,99,9",,"09821,1,99999,9","80,1",,,"MET064METAR ENSD 030750Z VRB02KT 9999 -SHRA FEW025 BKN035 06/03 Q0982;",
"01320099999","2010-11-03T08:50:00","4","61.8333333","6.1166667","60.0","SANDANE ANDA, NO","FM-15","ENSD ","V020","050,1,N,0015,1","01050,1,C,N","011265,1,N,1","+0060,1","+0030,1","99999,9","02,5,+00750,1,99,9","07,5,+01050,1,99,9",,,"07,99,1,99,9,99,9,99999,9,99,9,99,9",,"09821,1,99999,9","80,1",,,"MET072METAR ENSD 030850Z 05003KT 050V130 9999 -SHRA FEW025 BKN035 06/03 Q0982;",
"01320099999","2010-11-03T09:50:00","4","61.8333333","6.1166667","60.0","SANDANE ANDA, NO","FM-15","ENSD ","V020","999,9,V,0010,1","01050,1,C,N","011265,1,N,1","+0060,1","+0030,1","99999,9","02,5,+00240,1,99,9","07,5,+01050,1,99,9",,,"07,99,1,99,9,99,9,99999,9,99,9,99,9",,"09831,1,99999,9","80,1",,,"MET064METAR ENSD 030950Z VRB02KT 9999 -SHRA FEW008 BKN035 06/03 Q0983;",
"01320099999","2010-11-03T10:50:00","4","61.8333333","6.1166667","60.0","SANDANE ANDA, NO","FM-15","ENSD ","V020","999,9,V,0005,1","01050,1,C,N","011265,1,N,1","+0060,1","+0030,1","99999,9","02,5,+00240,1,99,9","07,5,+01050,1,99,9",,,"07,99,1,99,9,99,9,99999,9,99,9,99,9",,"09831,1,99999,9","80,1",,,"MET064METAR ENSD 031050Z VRB01KT 9999 -SHRA FEW008 BKN035 06/03 Q0983;",
"01320099999","2010-11-03T11:50:00","4","61.8333333","6.1166667","60.0","SANDANE ANDA, NO","FM-15","ENSD ","V020","999,9,V,0010,1","00900,1,C,N","011265,1,N,1","+0060,1","+0020,1","99999,9","02,5,+00240,1,99,9","07,5,+00900,1,99,9",,,"07,99,1,99,9,99,9,99999,9,99,9,99,9",,"09841,1,99999,9","81,1",,,"MET063METAR ENSD 031150Z VRB02KT 9999 SHRA FEW008 BKN030 06/02 Q0984;",
"01320099999","2010-11-03T12:50:00","4","61.8333333","6.1166667","60.0","SANDANE ANDA, NO","FM-15","ENSD ","V020","999,9,V,0010,1","00900,1,C,N","011265,1,N,1","+0060,1","+0020,1","99999,9","02,5,+00240,1,99,9","07,5,+00900,1,99,9",,,"07,99,1,99,9,99,9,99999,9,99,9,99,9",,"09841,1,99999,9","80,1",,,"MET064METAR ENSD 031250Z VRB02KT 9999 -SHRA FEW008 BKN030 06/02 Q0984;",
"01320099999","2010-11-03T13:50:00","4","61.8333333","6.1166667","60.0","SANDANE ANDA, NO","FM-15","ENSD ","V020","999,9,V,0015,1","00900,1,C,N","011265,1,N,1","+0060,1","+0020,1","99999,9","02,5,+00240,1,99,9","07,5,+00900,1,99,9",,,"07,99,1,99,9,99,9,99999,9,99,9,99,9",,"09841,1,99999,9","16,1",,,"MET063METAR ENSD 031350Z VRB03KT 9999 VCSH FEW008 BKN030 06/02 Q0984;",
"01320099999","2010-11-03T14:50:00","4","61.8333333","6.1166667","60.0","SANDANE ANDA, NO","FM-15","ENSD ","V020","150,1,N,0015,1","00900,1,C,N","011265,1,N,1","+0050,1","+0020,1","99999,9","02,5,+00240,1,99,9","07,5,+00900,1,99,9",,,"07,99,1,99,9,99,9,99999,9,99,9,99,9",,"09851,1,99999,9",,,,"MET058METAR ENSD 031450Z 15003KT 9999 FEW008 BKN030 05/02 Q0985;",
"01320099999","2010-11-03T15:50:00","4","61.8333333","6.1166667","60.0","SANDANE ANDA, NO","FM-15","ENSD ","V020","999,9,V,0005,1","00900,1,C,N","011265,1,N,1","+0050,1","+0020,1","99999,9","02,5,+00150,1,99,9","07,5,+00900,1,99,9",,,"07,99,1,99,9,99,9,99999,9,99,9,99,9",,"09851,1,99999,9","80,1",,,"MET064METAR ENSD 031550Z VRB01KT 9999 -SHRA FEW005 BKN030 05/02 Q0985;",
"01320099999","2010-11-03T16:50:00","4","61.8333333","6.1166667","60.0","SANDANE ANDA, NO","FM-15","ENSD ","V020","999,9,V,0010,1","00900,1,C,N","011265,1,N,1","+0050,1","+0020,1","99999,9","02,5,+00150,1,99,9","07,5,+00900,1,99,9",,,"07,99,1,99,9,99,9,99999,9,99,9,99,9",,"09861,1,99999,9","80,1",,,"MET064METAR ENSD 031650Z VRB02KT 9999 -SHRA FEW005 BKN030 05/02 Q0986;",
"01320099999","2010-11-03T17:50:00","4","61.8333333","6.1166667","60.0","SANDANE ANDA, NO","FM-15","ENSD ","V020","999,9,V,0005,1","00900,1,C,N","011265,1,N,1","+0050,1","+0020,1","99999,9","07,5,+00900,1,99,9",,,,"07,99,1,99,9,99,9,99999,9,99,9,99,9",,"09871,1,99999,9","81,1",,,"MET056METAR ENSD 031750Z VRB01KT 9999 SHRA BKN030 05/02 Q0987;",
"01320099999","2010-11-03T18:50:00","4","61.8333333","6.1166667","60.0","SANDANE ANDA, NO","FM-15","ENSD ","V020","999,9,V,0010,1","00900,1,C,N","011265,1,N,1","+0050,1","+0020,1","99999,9","04,5,+00390,1,99,9","07,5,+00900,1,99,9",,,"07,99,1,99,9,99,9,99999,9,99,9,99,9",,"09882,1,99999,9","81,1",,,"MET063METAR ENSD 031850Z VRB02KT 9999 SHRA SCT013 BKN030 05/02 Q0988;",
"01320099999","2010-11-03T19:50:00","4","61.8333333","6.1166667","60.0","SANDANE ANDA, NO","FM-15","ENSD ","V020","180,1,N,0036,1","00900,1,C,N","011265,1,N,1","+0050,1","+0000,1","99999,9","02,5,+00390,1,99,9","07,5,+00900,1,99,9",,,"07,99,1,99,9,99,9,99999,9,99,9,99,9",,"09882,1,99999,9","63,1",,,"MET061METAR ENSD 031950Z 18007KT 9999 RA FEW013 BKN030 05/00 Q0988;",
"01320099999","2010-11-04T05:20:00","4","61.8333333","6.1166667","60.0","SANDANE ANDA, NO","FM-15","ENSD ","V020","350,1,N,0031,1","00900,1,C,N","011265,1,N,1","+0030,1","-0010,1","99999,9","07,5,+00900,1,99,9",,,,"07,99,1,99,9,99,9,99999,9,99,9,99,9",,"09919,1,99999,9","81,1",,,"MET057METAR ENSD 040520Z 35006KT 9999 SHRA BKN030 03/M01 Q0992;",
"01320099999","2010-11-04T06:50:00","4","61.8333333","6.1166667","60.0","SANDANE ANDA, NO","FM-15","ENSD ","V020","320,1,N,0015,1","00900,1,C,N","011265,1,N,1","+0030,1","+0000,1","99999,9","02,5,+00300,1,99,9","07,5,+00900,1,99,9",,,"07,99,1,99,9,99,9,99999,9,99,9,99,9",,"09939,1,99999,9","63,1",,,"MET062METAR ENSD 040650Z 32003KT 9999 RA FEW010 BKN030 03/M00 Q0994;",
"01320099999","2010-11-04T07:50:00","4","61.8333333","6.1166667","60.0","SANDANE ANDA, NO","FM-15","ENSD ","V020","999,9,V,0015,1","01200,1,C,N","011265,1,N,1","+0020,1","+0000,1","99999,9","02,5,+00150,1,99,9","07,5,+01200,1,99,9",,,"07,99,1,99,9,99,9,99999,9,99,9,99,9",,"09949,1,99999,9",,,,"MET059METAR ENSD 040750Z VRB03KT 9999 FEW005 BKN040 02/M00 Q0995;",
"01320099999","2010-11-04T08:50:00","4","61.8333333","6.1166667","60.0","SANDANE ANDA, NO","FM-15","ENSD ","V020","050,1,N,0031,1","01050,1,C,N","011265,1,N,1","+0030,1","+0000,1","99999,9","07,5,+01050,1,99,9",,,,"07,99,1,99,9,99,9,99999,9,99,9,99,9",,"09949,1,99999,9","16,1",,,"MET056METAR ENSD 040850Z 05006KT 9999 VCSH BKN035 03/00 Q0995;",
"01320099999","2010-11-04T09:50:00","4","61.8333333","6.1166667","60.0","SANDANE ANDA, NO","FM-15","ENSD ","V020","060,1,N,9999,9","01050,1,C,N","011265,1,N,1","+0040,1","+0000,1","99999,9","07,5,+01050,1,99,9",,,,"07,99,1,99,9,99,9,99999,9,99,9,99,9",,"09949,1,99999,9",,,,"MET052METAR ENSD 040950Z 060076KT 9999 BKN035 04/00 Q0995;","Q01+003913WOSPD "
"01320099999","2010-11-04T10:50:00","4","61.8333333","6.1166667","60.0","SANDANE ANDA, NO","FM-15","ENSD ","V020","110,1,N,0026,1","01050,1,C,N","011265,1,N,1","+0050,1","-0010,1","99999,9","07,5,+01050,1,99,9",,,,"07,99,1,99,9,99,9,99999,9,99,9,99,9",,"09959,1,99999,9","80,1",,,"MET058METAR ENSD 041050Z 11005KT 9999 -SHRA BKN035 05/M01 Q0996;",
"01320099999","2010-11-04T11:50:00","4","61.8333333","6.1166667","60.0","SANDANE ANDA, NO","FM-15","ENSD ","V020","999,9,V,0010,1","01050,1,C,N","011265,1,N,1","+0040,1","+0000,1","99999,9","07,5,+01050,1,99,9",,,,"07,99,1,99,9,99,9,99999,9,99,9,99,9",,"09970,1,99999,9","16,1",,,"MET056METAR ENSD 041150Z VRB02KT 9999 VCSH BKN035 04/00 Q0997;",
"01320099999","2010-11-04T12:50:00","4","61.8333333","6.1166667","60.0","SANDANE ANDA, NO","FM-15","ENSD ","V020","060,1,N,0021,1","00600,1,C,N","011265,1,N,1","+0040,1","+0000,1","99999,9","02,5,+00360,1,99,9","04,5,+00600,1,99,9","07,5,+01050,1,99,9",,"07,99,1,99,9,99,9,99999,9,99,9,99,9",,"09970,1,99999,9","80,1",,,"MET072METAR ENSD 041250Z 06004KT 9999 -SHRA FEW012 SCT020 BKN035 04/M00 Q0997;",
"01320099999","2010-11-04T13:50:00","4","61.8333333","6.1166667","60.0","SANDANE ANDA, NO","FM-15","ENSD ","V020","999,9,V,0010,1","00900,1,C,N","011265,1,N,1","+0040,1","+0000,1","99999,9","02,5,+00450,1,99,9","07,5,+00900,1,99,9",,,"07,99,1,99,9,99,9,99999,9,99,9,99,9",,"09970,1,99999,9","80,1",,,"MET065METAR ENSD 041350Z VRB02KT 9999 -SHRA FEW015 BKN030 04/M00 Q0997;",
"01320099999","2010-11-04T14:50:00","4","61.8333333","6.1166667","60.0","SANDANE ANDA, NO","FM-15","ENSD ","V020","999,9,V,0010,1","00900,1,C,N","011265,1,N,1","+0040,1","+0010,1","99999,9","02,5,+00300,1,99,9","07,5,+00900,1,99,9",,,"07,99,1,99,9,99,9,99999,9,99,9,99,9",,"09980,1,99999,9",,,,"MET063METAR ENSD 041450Z VRB02KT 9999 FEW010 BKN030 04/01 Q0998 RERA;",
"01320099999","2010-11-04T16:50:00","4","61.8333333","6.1166667","60.0","SANDANE ANDA, NO","FM-15","ENSD ","V020","999,9,V,0005,1","00900,1,C,N","011265,1,N,1","+0030,1","+0010,1","99999,9","02,5,+00540,1,99,9","07,5,+00900,1,99,9",,,"07,99,1,99,9,99,9,99999,9,99,9,99,9",,"09980,1,99999,9","80,1",,,"MET064METAR ENSD 041650Z VRB01KT 9999 -SHRA FEW018 BKN030 03/01 Q0998;",
"01320099999","2010-11-04T17:50:00","4","61.8333333","6.1166667","60.0","SANDANE ANDA, NO","FM-15","ENSD ","V020","999,9,V,0010,1","00900,1,C,N","011265,1,N,1","+0030,1","+0010,1","99999,9","02,5,+00450,1,99,9","07,5,+00900,1,99,9",,,"07,99,1,99,9,99,9,99999,9,99,9,99,9",,"09980,1,99999,9","80,1",,,"MET064METAR ENSD 041750Z VRB02KT 9999 -SHRA FEW015 BKN030 03/01 Q0998;",
"01320099999","2010-11-04T18:50:00","4","61.8333333","6.1166667","60.0","SANDANE ANDA, NO","FM-15","ENSD ","V020","999,9,V,0005,1","00900,1,C,N","011265,1,N,1","+0030,1","+0010,1","99999,9","02,5,+00240,1,99,9","07,5,+00900,1,99,9",,,"07,99,1,99,9,99,9,99999,9,99,9,99,9",,"09980,1,99999,9","61,1",,,"MET062METAR ENSD 041850Z VRB01KT 9999 -RA FEW008 BKN030 03/01 Q0998;",
"01320099999","2010-11-04T19:50:00","4","61.8333333","6.1166667","60.0","SANDANE ANDA, NO","FM-15","ENSD ","V020","999,9,C,0000,1","00900,1,C,N","011265,1,N,1","+0030,1","+0010,1","99999,9","02,5,+00240,1,99,9","07,5,+00900,1,99,9",,,"07,99,1,99,9,99,9,99999,9,99,9,99,9",,"09990,1,99999,9","61,1",,,"MET062METAR ENSD 041950Z 00000KT 9999 -RA FEW008 BKN030 03/01 Q0999;",
"01320099999","2010-11-04T20:50:00","4","61.8333333","6.1166667","60.0","SANDANE ANDA, NO","FM-15","ENSD ","V020","999,9,V,0010,1","00900,1,C,N","011265,1,N,1","+0030,1","+0000,1","99999,9","07,5,+00900,1,99,9",,,,"07,99,1,99,9,99,9,99999,9,99,9,99,9",,"09990,1,99999,9",,,,"MET051METAR ENSD 042050Z VRB02KT 9999 BKN030 03/00 Q0999;",
"01320099999","2010-11-04T21:50:00","4","61.8333333","6.1166667","60.0","SANDANE ANDA, NO","FM-15","ENSD ","V020","060,1,N,0021,1","00900,1,C,N","011265,1,N,1","+0030,1","+0010,1","99999,9","02,5,+00180,1,99,9","07,5,+00900,1,99,9",,,"07,99,1,99,9,99,9,99999,9,99,9,99,9",,"09990,1,99999,9",,,,"MET060METAR ENSD 042150Z 06004KT 9999 FEW006 BKN030 03/01 Q0999 0;",
"01320099999","2010-11-05T04:50:00","4","61.8333333","6.1166667","60.0","SANDANE ANDA, NO","FM-15","ENSD ","V020","070,1,N,0015,1","99999,9,C,N","011265,1,N,1","+0020,1","+0000,1","99999,9","02,5,+00120,1,99,9","04,5,+01500,1,99,9",,,"04,99,1,99,9,99,9,99999,9,99,9,99,9",,"09990,1,99999,9",,,,"MET059METAR ENSD 050450Z 07003KT 9999 FEW004 SCT050 02/M00 Q0999;","P01 015003SCOCIG"
"01320099999","2010-11-05T05:50:00","4","61.8333333","6.1166667","60.0","SANDANE ANDA, NO","FM-15","ENSD ","V020","999,9,V,0010,1","99999,9,C,N","011265,1,N,1","+0020,1","+0000,1","99999,9","02,5,+00120,1,99,9","04,5,+01500,1,99,9",,,"04,99,1,99,9,99,9,99999,9,99,9,99,9",,"09990,1,99999,9",,,,"MET059METAR ENSD 050550Z VRB02KT 9999 FEW004 SCT050 02/M00 Q0999;","P01 015003SCOCIG"
"01320099999","2010-11-05T06:50:00","4","61.8333333","6.1166667","60.0","SANDANE ANDA, NO","FM-15","ENSD ","V020","999,9,V,0010,1","01350,1,C,N","011265,1,N,1","+0020,1","+0000,1","99999,9","02,5,+00240,1,99,9","07,5,+01350,1,99,9",,,"07,99,1,99,9,99,9,99999,9,99,9,99,9",,"10000,1,99999,9",,,,"MET059METAR ENSD 050650Z VRB02KT 9999 FEW008 BKN045 02/M00 Q1000;",
"01320099999","2010-11-05T07:50:00","4","61.8333333","6.1166667","60.0","SANDANE ANDA, NO","FM-15","ENSD ","V020","060,1,N,0015,1","01350,1,C,N","011265,1,N,1","+0020,1","+0000,1","99999,9","02,5,+00150,1,99,9","07,5,+01350,1,99,9",,,"07,99,1,99,9,99,9,99999,9,99,9,99,9",,"10000,1,99999,9",,,,"MET058METAR ENSD 050750Z 06003KT 9999 FEW005 BKN045 02/00 Q1000;",
"01320099999","2010-11-05T08:50:00","4","61.8333333","6.1166667","60.0","SANDANE ANDA, NO","FM-15","ENSD ","V020","999,9,V,0005,1","00900,5,9,N","011265,1,N,1","+0030,1","+0010,1","99999,9","07,5,+00900,5,99,9",,,,,,"10010,1,99999,9","80,1",,,"MET064METAR ENSD 050850Z VRB01KT 9999 -SHRA ACT025 BKN030 03/01 Q1001;",
"01320099999","2010-11-05T09:50:00","4","61.8333333","6.1166667","60.0","SANDANE ANDA, NO","FM-15","ENSD ","V020","070,1,N,0015,1","01050,1,C,N","011265,1,N,1","+0030,1","+0010,1","99999,9","02,5,+00240,1,99,9","07,5,+01050,1,99,9",,,"07,99,1,99,9,99,9,99999,9,99,9,99,9",,"10020,1,99999,9",,,,"MET058METAR ENSD 050950Z 07003KT 9999 FEW008 BKN035 03/01 Q1002;",
"01320099999","2010-11-05T10:50:00","4","61.8333333","6.1166667","60.0","SANDANE ANDA, NO","FM-15","ENSD ","V020","999,9,V,0010,1","01050,1,C,N","011265,1,N,1","+0050,1","+0010,1","99999,9","02,5,+00210,1,99,9","07,5,+01050,1,99,9",,,"07,99,1,99,9,99,9,99999,9,99,9,99,9",,"10020,1,99999,9",,,,"MET058METAR ENSD 051050Z VRB02KT 9999 FEW007 BKN035 05/01 Q1002;",
"01320099999","2010-11-05T11:50:00","4","61.8333333","6.1166667","60.0","SANDANE ANDA, NO","FM-15","ENSD ","V020","280,1,N,0010,1","01050,1,C,N","011265,1,N,1","+0040,1","+0010,1","99999,9","02,5,+00180,1,99,9","07,5,+01050,1,99,9",,,"07,99,1,99,9,99,9,99999,9,99,9,99,9",,"10031,1,99999,9","80,1",,,"MET064METAR ENSD 051150Z 28002KT 9999 -SHRA FEW006 BKN035 04/01 Q1003;",
"01320099999","2010-11-05T12:50:00","4","61.8333333","6.1166667","60.0","SANDANE ANDA, NO","FM-15","ENSD ","V020","999,9,V,0005,1","00900,1,C,N","011265,1,N,1","+0040,1","+0010,1","99999,9","02,5,+00180,1,99,9","07,5,+00900,1,99,9",,,"07,99,1,99,9,99,9,99999,9,99,9,99,9",,"10031,1,99999,9","80,1",,,"MET064METAR ENSD 051250Z VRB01KT 9999 -SHRA FEW006 BKN030 04/01 Q1003;",
"01320099999","2010-11-05T13:50:00","4","61.8333333","6.1166667","60.0","SANDANE ANDA, NO","FM-15","ENSD ","V020","320,1,N,0026,1","00420,1,C,N","009000,1,N,1","+0040,1","+0000,1","99999,9","02,5,+00180,1,99,9","04,5,+00420,1,99,9","07,5,+00600,1,99,9",,"07,99,1,99,9,99,9,99999,9,99,9,99,9",,"10041,1,99999,9","80,1",,,"MET071METAR ENSD 051350Z 32005KT 9000 -SHRA FEW006 SCT014 BKN020 04/00 Q1004;",
"01320099999","2010-11-05T14:50:00","4","61.8333333","6.1166667","60.0","SANDANE ANDA, NO","FM-15","ENSD ","V020","360,1,N,0031,1","00420,1,C,N","011265,1,N,1","+0040,1","+0000,1","99999,9","02,5,+00180,1,99,9","04,5,+00420,1,99,9","07,5,+00900,1,99,9",,"07,99,1,99,9,99,9,99999,9,99,9,99,9",,"10041,1,99999,9",,,,"MET073METAR ENSD 051450Z 36006KT 310V030 9999 FEW006 SCT014 BKN030 04/00 Q1004;",
"01320099999","2010-11-05T15:50:00","4","61.8333333","6.1166667","60.0","SANDANE ANDA, NO","FM-15","ENSD ","V020","270,1,N,0026,1","01050,1,C,N","011265,1,N,1","+0050,1","-0010,1","99999,9","04,5,+00480,1,99,9","07,5,+01050,1,99,9",,,"07,99,1,99,9,99,9,99999,9,99,9,99,9",,"10051,1,99999,9",,,,"MET059METAR ENSD 051550Z 27005KT 9999 SCT016 BKN035 05/M01 Q1005;",
"01320099999","2010-11-05T16:50:00","4","61.8333333","6.1166667","60.0","SANDANE ANDA, NO","FM-15","ENSD ","V020","270,1,N,0051,1","01050,1,C,N","011265,1,N,1","+0050,1","-0010,1","99999,9","02,5,+00480,1,99,9","07,5,+01050,1,99,9",,,"07,99,1,99,9,99,9,99999,9,99,9,99,9",,"10061,1,99999,9",,,,"MET059METAR ENSD 051650Z 27010KT 9999 FEW016 BKN035 05/M01 Q1006;",
"01320099999","2010-11-05T17:50:00","4","61.8333333","6.1166667","60.0","SANDANE ANDA, NO","FM-15","ENSD ","V020","260,1,N,0041,1","01050,1,C,N","011265,1,N,1","+0040,1","-0010,1","99999,9","02,5,+00540,1,99,9","07,5,+01050,1,99,9",,,"07,99,1,99,9,99,9,99999,9,99,9,99,9",,"10061,1,99999,9",,,,"MET059METAR ENSD 051750Z 26008KT 9999 FEW018 BKN035 04/M01 Q1006;",
"01320099999","2010-11-05T18:50:00","4","61.8333333","6.1166667","60.0","SANDANE ANDA, NO","FM-15","ENSD ","V020","290,1,N,0046,1","01050,1,C,N","011265,1,N,1","+0040,1","-0020,1","99999,9","02,5,+00600,1,99,9","07,5,+01050,1,99,9",,,"07,99,1,99,9,99,9,99999,9,99,9,99,9",,"10071,1,99999,9",,,,"MET059METAR ENSD 051850Z 29009KT 9999 FEW020 BKN035 04/M02 Q1007;",
"01320099999","2010-11-05T19:50:00","4","61.8333333","6.1166667","60.0","SANDANE ANDA, NO","FM-15","ENSD ","V020","320,1,N,0026,1","01050,1,C,N","011265,1,N,1","+0040,1","-0020,1","99999,9","02,5,+00600,1,99,9","07,5,+01050,1,99,9",,,"07,99,1,99,9,99,9,99999,9,99,9,99,9",,"10071,1,99999,9",,,,"MET059METAR ENSD 051950Z 32005KT 9999 FEW020 BKN035 04/M02 Q1007;",
"01320099999","2010-11-06T06:20:00","4","61.8333333","6.1166667","60.0","SANDANE ANDA, NO","FM-15","ENSD ","V020","999,9,C,0000,1","00450,1,C,N","011265,1,N,1","+0010,1","-0020,1","99999,9","02,5,+00180,1,99,9","04,5,+00450,1,99,9","07,5,+00900,1,99,9",,"07,99,1,99,9,99,9,99999,9,99,9,99,9",,"10081,1,99999,9","80,1",,,"MET072METAR ENSD 060620Z 00000KT 9999 -SHRA FEW006 SCT015 BKN030 01/M02 Q1008;",
"01320099999","2010-11-06T06:50:00","4","61.8333333","6.1166667","60.0","SANDANE ANDA, NO","FM-15","ENSD ","V020","999,9,V,0010,1","00450,1,C,N","011265,1,N,1","+0010,1","-0010,1","99999,9","02,5,+00180,1,99,9","07,5,+00450,1,99,9",,,"07,99,1,99,9,99,9,99999,9,99,9,99,9",,"10081,1,99999,9","85,5",,,"MET071METAR ENSD 060650Z VRB02KT 9999 8000E -SHSN FEW006 BKN015 01/M01 Q1008;",
"01320099999","2010-11-06T07:20:00","4","61.8333333","6.1166667","60.0","SANDANE ANDA, NO","FM-15","ENSD ","V020","999,9,V,0010,1","00450,1,C,N","011265,1,N,1","+0010,1","-0020,1","99999,9","02,5,+00180,1,99,9","04,5,+00450,1,99,9","07,5,+01200,1,99,9",,"07,99,1,99,9,99,9,99999,9,99,9,99,9",,"10091,1,99999,9",,,,"MET066METAR ENSD 060720Z VRB02KT 9999 FEW006 SCT015 BKN040 01/M02 Q1009;",
"01320099999","2010-11-06T07:50:00","4","61.8333333","6.1166667","60.0","SANDANE ANDA, NO","FM-15","ENSD ","V020","150,1,N,0021,1","00450,1,C,N","011265,1,N,1","+0010,1","-0020,1","99999,9","02,5,+00240,1,99,9","04,5,+00450,1,99,9","07,5,+01200,1,99,9",,"07,99,1,99,9,99,9,99999,9,99,9,99,9",,"10091,1,99999,9","16,1",,,"MET071METAR ENSD 060750Z 15004KT 9999 VCSH FEW008 SCT015 BKN040 01/M02 Q1009;",
"01320099999","2010-11-06T08:50:00","4","61.8333333","6.1166667","60.0","SANDANE ANDA, NO","FM-15","ENSD ","V020","140,1,N,0031,1","00390,1,C,N","011265,1,N,1","+0020,1","-0020,1","99999,9","02,5,+00240,1,99,9","04,5,+00390,1,99,9","07,5,+01050,1,99,9",,"07,99,1,99,9,99,9,99999,9,99,9,99,9",,"10091,1,99999,9",,,,"MET066METAR ENSD 060850Z 14006KT 9999 FEW008 SCT013 BKN035 02/M02 Q1009;",
"01320099999","2010-11-06T09:50:00","4","61.8333333","6.1166667","60.0","SANDANE ANDA, NO","FM-15","ENSD ","V020","200,1,N,0021,1","00300,1,9,N","003000,1,N,1","+0020,1","-0010,1","99999,9","09,1,+00300,1,99,9",,,,"09,99,1,99,9,99,9,00025,1,99,9,99,9",,"10091,1,99999,9","86,5",,,"MET064METAR ENSD 060950Z 20004KT 150V240 3000 SHSN VV010 02/M01 Q1009;",
"01320099999","2010-11-06T10:20:00","4","61.8333333","6.1166667","60.0","SANDANE ANDA, NO","FM-15","ENSD ","V020","999,9,V,0010,1","00300,1,C,N","011265,1,N,1","+0010,1","-0020,1","99999,9","02,5,+00120,1,99,9","04,5,+00300,1,99,9","07,5,+01200,1,99,9",,"07,99,1,99,9,99,9,99999,9,99,9,99,9",,"10091,1,99999,9","16,1",,,"MET082METAR ENSD 061020Z VRB02KT 9999 8000E VCSH FEW004 SCT010 BKN040 01/M02 Q1009 RESH;",
"01320099999","2010-11-06T10:50:00","4","61.8333333","6.1166667","60.0","SANDANE ANDA, NO","FM-15","ENSD ","V020","999,9,V,0005,1","00300,1,C,N","011265,1,N,1","+0020,1","-0010,1","99999,9","02,5,+00120,1,99,9","04,5,+00300,1,99,9","07,5,+01200,1,99,9",,"07,99,1,99,9,99,9,99999,9,99,9,99,9",,"10091,1,99999,9","16,1",,,"MET071METAR ENSD 061050Z VRB01KT 9999 VCSH FEW004 SCT010 BKN040 02/M01 Q1009;",
"01320099999","2010-11-06T11:50:00","4","61.8333333","6.1166667","60.0","SANDANE ANDA, NO","FM-15","ENSD ","V020","999,9,V,0005,1","00420,1,C,N","011265,1,N,1","+0020,1","-0010,1","99999,9","02,5,+00120,1,99,9","07,5,+00420,1,99,9",,,"07,99,1,99,9,99,9,99999,9,99,9,99,9",,"10091,1,99999,9","85,5",,,"MET071METAR ENSD 061150Z VRB01KT 9999 4000W -SHSN FEW004 BKN014 02/M01 Q1009;",
"01320099999","2010-11-06T12:50:00","4","61.8333333","6.1166667","60.0","SANDANE ANDA, NO","FM-15","ENSD ","V020","340,1,N,0021,1","99999,9,C,N","011265,1,N,1","+0010,1","-0020,1","99999,9","02,5,+00120,1,99,9","04,5,+00300,1,99,9","04,5,+01200,1,99,9",,"04,99,1,99,9,99,9,99999,9,99,9,99,9",,"10091,1,99999,9","16,1",,,"MET077METAR ENSD 061250Z 34004KT 9999 6000E VCSH FEW004 SCT010 SCT040 01/M02 Q1009;","P01 003003SCOCIG"
"01320099999","2010-11-06T13:50:00","4","61.8333333","6.1166667","60.0","SANDANE ANDA, NO","FM-15","ENSD ","V020","999,9,V,0021,1","01200,1,C,N","011265,1,N,1","+0010,1","-0020,1","99999,9","04,5,+00300,1,99,9","07,5,+01200,1,99,9",,,"07,99,1,99,9,99,9,99999,9,99,9,99,9",,"10081,1,99999,9","16,1",,,"MET070METAR ENSD 061350Z VRB04KT 9999 4000W VCSH SCT010 BKN040 01/M02 Q1008;",
"01320099999","2010-11-07T09:50:00","4","61.8333333","6.1166667","60.0","SANDANE ANDA, NO","FM-15","ENSD ","V020","999,9,C,0000,1","01200,1,C,N","011265,1,N,1","+0010,1","-0030,1","99999,9","04,5,+00300,1,99,9","07,5,+01200,1,99,9",,,"07,99,1,99,9,99,9,99999,9,99,9,99,9",,"10051,1,99999,9","16,1",,,"MET064METAR ENSD 070950Z 00000KT 9999 VCSH SCT010 BKN040 01/M03 Q1005;",
"01320099999","2010-11-07T10:50:00","4","61.8333333","6.1166667","60.0","SANDANE ANDA, NO","FM-15","ENSD ","V020","180,1,N,0015,1","01200,1,C,N","011265,1,N,1","+0010,1","-0030,1","99999,9","04,5,+00360,1,99,9","07,5,+01200,1,99,9",,,"07,99,1,99,9,99,9,99999,9,99,9,99,9",,"10041,1,99999,9",,,,"MET059METAR ENSD 071050Z 18003KT 9999 SCT012 BKN040 01/M03 Q1004;",
"01320099999","2010-11-07T11:50:00","4","61.8333333","6.1166667","60.0","SANDANE ANDA, NO","FM-15","ENSD ","V020","150,1,N,0015,1","01200,1,C,N","011265,1,N,1","+0010,1","-0030,1","99999,9","04,5,+00360,1,99,9","07,5,+01200,1,99,9",,,"07,99,1,99,9,99,9,99999,9,99,9,99,9",,"10041,1,99999,9","16,1",,,"MET071METAR ENSD 071150Z 15003KT 9999 5000NW VCSH SCT012 BKN040 01/M03 Q1004;",
"01320099999","2010-11-07T14:50:00","4","61.8333333","6.1166667","60.0","SANDANE ANDA, NO","FM-15","ENSD ","V020","999,9,C,0000,1","01500,1,C,N","011265,1,N,1","+0000,1","-0030,1","99999,9","02,5,+00300,1,99,9","07,5,+01500,1,99,9",,,"07,99,1,99,9,99,9,99999,9,99,9,99,9",,"10031,1,99999,9",,,,"MET060METAR ENSD 071450Z 00000KT 9999 FEW010 BKN050 M00/M03 Q1003;",
"01320099999","2010-11-07T15:50:00","4","61.8333333","6.1166667","60.0","SANDANE ANDA, NO","FM-15","ENSD ","V020","150,1,N,0021,1","01500,1,C,N","011265,1,N,1","+0000,1","-0030,1","99999,9","02,5,+00300,1,99,9","07,5,+01500,1,99,9",,,"07,99,1,99,9,99,9,99999,9,99,9,99,9",,"10020,1,99999,9",,,,"MET060METAR ENSD 071550Z 15004KT 9999 FEW010 BKN050 M00/M03 Q1002;",
"01320099999","2010-11-07T16:50:00","4","61.8333333","6.1166667","60.0","SANDANE ANDA, NO","FM-15","ENSD ","V020","140,1,N,0021,1","01500,1,C,N","011265,1,N,1","+0000,1","-0030,1","99999,9","02,5,+00300,1,99,9","07,5,+01500,1,99,9",,,"07,99,1,99,9,99,9,99999,9,99,9,99,9",,"10020,1,99999,9",,,,"MET060METAR ENSD 071650Z 14004KT 9999 FEW010 BKN050 M00/M03 Q1002;",
"01320099999","2010-11-07T17:50:00","4","61.8333333","6.1166667","60.0","SANDANE ANDA, NO","FM-15","ENSD ","V020","150,1,N,0026,1","01050,1,C,N","011265,1,N,1","+0000,1","-0040,1","99999,9","02,5,+00300,1,99,9","04,5,+01050,1,99,9","07,5,+01800,1,99,9",,"07,99,1,99,9,99,9,99999,9,99,9,99,9",,"10010,1,99999,9",,,,"MET067METAR ENSD 071750Z 15005KT 9999 FEW010 SCT035 BKN060 M00/M04 Q1001;",
"01320099999","2010-11-07T18:50:00","4","61.8333333","6.1166667","60.0","SANDANE ANDA, NO","FM-15","ENSD ","V020","140,1,N,0026,1","99999,9,C,N","011265,1,N,1","-0010,1","-0040,1","99999,9","02,5,+00300,1,99,9","04,5,+01800,1,99,9",,,"04,99,1,99,9,99,9,99999,9,99,9,99,9",,"10010,1,99999,9",,,,"MET060METAR ENSD 071850Z 14005KT 9999 FEW010 SCT060 M01/M04 Q1001;","P01 018003SCOCIG"
"01320099999","2010-11-07T19:50:00","4","61.8333333","6.1166667","60.0","SANDANE ANDA, NO","FM-15","ENSD ","V020","150,1,N,0026,1","99999,9,C,N","011265,1,N,1","-0010,1","-0040,1","99999,9","02,5,+00300,1,99,9","04,5,+01800,1,99,9",,,"04,99,1,99,9,99,9,99999,9,99,9,99,9",,"10000,1,99999,9",,,,"MET060METAR ENSD 071950Z 15005KT 9999 FEW010 SCT060 M01/M04 Q1000;","P01 018003SCOCIG"
"01320099999","2010-11-08T05:20:00","4","61.8333333","6.1166667","60.0","SANDANE ANDA, NO","FM-15","ENSD ","V020","140,1,N,0036,1","99999,9,9,Y","009900,1,N,1","-0030,1","-0070,1","99999,9",,,,,,,"09970,1,99999,9",,,,"MET047METAR ENSD 080520Z 14007KT CAVOK M03/M07 Q0997;",
"01320099999","2010-11-08T05:50:00","4","61.8333333","6.1166667","60.0","SANDANE ANDA, NO","FM-15","ENSD ","V020","110,1,N,0026,1","99999,9,9,Y","009900,1,N,1","-0030,1","-0070,1","99999,9",,,,,,,"09970,1,99999,9",,,,"MET055METAR ENSD 080550Z 11005KT 030V140 CAVOK M03/M07 Q0997;",
"01320099999","2010-11-08T06:50:00","4","61.8333333","6.1166667","60.0","SANDANE ANDA, NO","FM-15","ENSD ","V020","999,9,V,0015,1","99999,9,9,Y","009900,1,N,1","-0030,1","-0070,1","99999,9",,,,,,,"09970,1,99999,9",,,,"MET047METAR ENSD 080650Z VRB03KT CAVOK M03/M07 Q0997;",
"01320099999","2010-11-08T07:50:00","4","61.8333333","6.1166667","60.0","SANDANE ANDA, NO","FM-15","ENSD ","V020","140,1,N,0036,1","99999,9,9,Y","009900,1,N,1","-0030,1","-0070,1","99999,9",,,,,,,"09970,1,99999,9",,,,"MET047METAR ENSD 080750Z 14007KT CAVOK M03/M07 Q0997;",
"01320099999","2010-11-08T08:50:00","4","61.8333333","6.1166667","60.0","SANDANE ANDA, NO","FM-15","ENSD ","V020","150,1,N,0026,1","99999,9,9,Y","009900,1,N,1","-0030,1","-0080,1","99999,9",,,,,,,"09980,1,99999,9",,,,"MET047METAR ENSD 080850Z 15005KT CAVOK M03/M08 Q0998;",
"01320099999","2010-11-08T10:50:00","4","61.8333333","6.1166667","60.0","SANDANE ANDA, NO","FM-15","ENSD ","V020","140,1,N,0021,1","99999,9,9,Y","009900,1,N,1","-0020,1","-0070,1","99999,9",,,,,,,"09980,1,99999,9",,,,"MET047METAR ENSD 081050Z 14004KT CAVOK M02/M07 Q0998;",
"01320099999","2010-11-08T11:50:00","4","61.8333333","6.1166667","60.0","SANDANE ANDA, NO","FM-15","ENSD ","V020","140,1,N,0026,1","99999,9,9,Y","009900,1,N,1","-0020,1","-0060,1","99999,9",,,,,,,"09980,1,99999,9",,,,"MET055METAR ENSD 081150Z 14005KT 100V190 CAVOK M02/M06 Q0998;",
"01320099999","2010-11-08T12:50:00","4","61.8333333","6.1166667","60.0","SANDANE ANDA, NO","FM-15","ENSD ","V020","999,9,V,0010,1","99999,9,9,Y","009900,1,N,1","-0010,1","-0070,1","99999,9",,,,,,,"09980,1,99999,9",,,,"MET047METAR ENSD 081250Z VRB02KT CAVOK M01/M07 Q0998;",
"01320099999","2010-11-08T13:50:00","4","61.8333333","6.1166667","60.0","SANDANE ANDA, NO","FM-15","ENSD ","V020","999,9,V,0005,1","99999,9,9,Y","009900,1,N,1","-0010,1","-0070,1","99999,9",,,,,,,"09980,1,99999,9",,,,"MET047METAR ENSD 081350Z VRB01KT CAVOK M01/M07 Q0998;",
"01320099999","2010-11-08T14:50:00","4","61.8333333","6.1166667","60.0","SANDANE ANDA, NO","FM-15","ENSD ","V020","999,9,V,0015,1","99999,9,9,Y","009900,1,N,1","-0020,1","-0070,1","99999,9",,,,,,,"09980,1,99999,9",,,,"MET047METAR ENSD 081450Z VRB03KT CAVOK M02/M07 Q0998;",
"01320099999","2010-11-08T15:50:00","4","61.8333333","6.1166667","60.0","SANDANE ANDA, NO","FM-15","ENSD ","V020","999,9,V,0010,1","99999,9,9,Y","009900,1,N,1","-0020,1","-0060,1","99999,9",,,,,,,"09980,1,99999,9",,,,"MET047METAR ENSD 081550Z VRB02KT CAVOK M02/M06 Q0998;",
"01320099999","2010-11-08T16:50:00","4","61.8333333","6.1166667","60.0","SANDANE ANDA, NO","FM-15","ENSD ","V020","999,9,V,0010,1","99999,9,9,Y","009900,1,N,1","-0030,1","-0080,1","99999,9",,,,,,,"09980,1,99999,9",,,,"MET047METAR ENSD 081650Z VRB02KT CAVOK M03/M08 Q0998;",
"01320099999","2010-11-08T17:50:00","4","61.8333333","6.1166667","60.0","SANDANE ANDA, NO","FM-15","ENSD ","V020","999,9,V,0005,1","99999,9,9,Y","009900,1,N,1","-0040,1","-0070,1","99999,9",,,,,,,"09990,1,99999,9",,,,"MET047METAR ENSD 081750Z VRB01KT CAVOK M04/M07 Q0999;",
"01320099999","2010-11-08T18:50:00","4","61.8333333","6.1166667","60.0","SANDANE ANDA, NO","FM-15","ENSD ","V020","999,9,V,0005,1","99999,9,9,Y","009900,1,N,1","-0040,1","-0080,1","99999,9",,,,,,,"09990,1,99999,9",,,,"MET047METAR ENSD 081850Z VRB01KT CAVOK M04/M08 Q0999;",
"01320099999","2010-11-08T19:50:00","4","61.8333333","6.1166667","60.0","SANDANE ANDA, NO","FM-15","ENSD ","V020","140,1,N,0031,1","99999,9,9,Y","009900,1,N,1","-0020,1","-0080,1","99999,9",,,,,,,"10000,1,99999,9",,,,"MET047METAR ENSD 081950Z 14006KT CAVOK M02/M08 Q1000;",
"01320099999","2010-11-09T04:50:00","4","61.8333333","6.1166667","60.0","SANDANE ANDA, NO","FM-15","ENSD ","V020","999,9,V,0005,1","99999,9,9,Y","009900,1,N,1","-0050,1","-0080,1","99999,9",,,,,,,"10000,1,99999,9",,,,"MET047METAR ENSD 090450Z VRB01KT CAVOK M05/M08 Q1000;",
"01320099999","2010-11-09T05:50:00","4","61.8333333","6.1166667","60.0","SANDANE ANDA, NO","FM-15","ENSD ","V020","999,9,V,0005,1","99999,9,9,Y","009900,1,N,1","-0050,1","-0080,1","99999,9",,,,,,,"10000,1,99999,9",,,,"MET047METAR ENSD 090550Z VRB01KT CAVOK M05/M08 Q1000;",
"01320099999","2010-11-09T06:50:00","4","61.8333333","6.1166667","60.0","SANDANE ANDA, NO","FM-15","ENSD ","V020","999,9,V,0010,1","99999,9,9,Y","009900,1,N,1","-0060,1","-0090,1","99999,9",,,,,,,"10000,1,99999,9",,,,"MET047METAR ENSD 090650Z VRB02KT CAVOK M06/M09 Q1000;",
"01320099999","2010-11-09T07:50:00","4","61.8333333","6.1166667","60.0","SANDANE ANDA, NO","FM-15","ENSD ","V020","999,9,V,0005,1","99999,9,9,Y","009900,1,N,1","-0060,1","-0090,1","99999,9",,,,,,,"10000,1,99999,9",,,,"MET047METAR ENSD 090750Z VRB01KT CAVOK M06/M09 Q1000;",
"01320099999","2010-11-09T08:50:00","4","61.8333333","6.1166667","60.0","SANDANE ANDA, NO","FM-15","ENSD ","V020","999,9,V,0005,1","99999,9,9,Y","009900,1,N,1","-0060,1","-0090,1","99999,9",,,,,,,"10000,1,99999,9",,,,"MET047METAR ENSD 090850Z VRB01KT CAVOK M06/M09 Q1000;",
"01320099999","2010-11-09T09:50:00","4","61.8333333","6.1166667","60.0","SANDANE ANDA, NO","FM-15","ENSD ","V020","999,9,V,0005,1","99999,9,9,Y","009900,1,N,1","-0050,1","-0090,1","99999,9",,,,,,,"10000,1,99999,9",,,,"MET047METAR ENSD 090950Z VRB01KT CAVOK M05/M09 Q1000;",
"01320099999","2010-11-09T10:50:00","4","61.8333333","6.1166667","60.0","SANDANE ANDA, NO","FM-15","ENSD ","V020","999,9,V,0005,1","99999,9,9,Y","009900,1,N,1","-0050,1","-0080,1","99999,9",,,,,,,"10000,1,99999,9",,,,"MET047METAR ENSD 091050Z VRB01KT CAVOK M05/M08 Q1000;",
"01320099999","2010-11-09T11:50:00","4","61.8333333","6.1166667","60.0","SANDANE ANDA, NO","FM-15","ENSD ","V020","999,9,V,0005,1","99999,9,9,Y","009900,1,N,1","-0020,1","-0090,1","99999,9",,,,,,,"10000,1,99999,9",,,,"MET047METAR ENSD 091150Z VRB01KT CAVOK M02/M09 Q1000;",
"01320099999","2010-11-09T12:50:00","4","61.8333333","6.1166667","60.0","SANDANE ANDA, NO","FM-15","ENSD ","V020","999,9,V,0005,1","99999,9,9,Y","009900,1,N,1","-0030,1","-0090,1","99999,9",,,,,,,"09990,1,99999,9",,,,"MET047METAR ENSD 091250Z VRB01KT CAVOK M03/M09 Q0999;",
"01320099999","2010-11-09T13:50:00","4","61.8333333","6.1166667","60.0","SANDANE ANDA, NO","FM-15","ENSD ","V020","999,9,V,0005,1","99999,9,9,Y","009900,1,N,1","-0040,1","-0080,1","99999,9",,,,,,,"09990,1,99999,9",,,,"MET047METAR ENSD 091350Z VRB01KT CAVOK M04/M08 Q0999;",
"01320099999","2010-11-09T14:50:00","4","61.8333333","6.1166667","60.0","SANDANE ANDA, NO","FM-15","ENSD ","V020","999,9,V,0005,1","99999,9,9,Y","009900,1,N,1","-0050,1","-0090,1","99999,9",,,,,,,"09990,1,99999,9",,,,"MET047METAR ENSD 091450Z VRB01KT CAVOK M05/M09 Q0999;",
"01320099999","2010-11-09T15:50:00","4","61.8333333","6.1166667","60.0","SANDANE ANDA, NO","FM-15","ENSD ","V020","999,9,V,0010,1","99999,9,9,Y","009900,1,N,1","-0050,1","-0080,1","99999,9",,,,,,,"09990,1,99999,9",,,,"MET047METAR ENSD 091550Z VRB02KT CAVOK M05/M08 Q0999;",
"01320099999","2010-11-09T16:50:00","4","61.8333333","6.1166667","60.0","SANDANE ANDA, NO","FM-15","ENSD ","V020","999,9,V,0005,1","99999,9,9,Y","009900,1,N,1","-0050,1","-0090,1","99999,9",,,,,,,"09990,1,99999,9",,,,"MET047METAR ENSD 091650Z VRB01KT CAVOK M05/M09 Q0999;",
"01320099999","2010-11-09T17:50:00","4","61.8333333","6.1166667","60.0","SANDANE ANDA, NO","FM-15","ENSD ","V020","999,9,V,0010,1","99999,9,9,Y","009900,1,N,1","-0060,1","-0100,1","99999,9",,,,,,,"09980,1,99999,9",,,,"MET047METAR ENSD 091750Z VRB02KT CAVOK M06/M10 Q0998;",
"01320099999","2010-11-09T18:50:00","4","61.8333333","6.1166667","60.0","SANDANE ANDA, NO","FM-15","ENSD ","V020","999,9,V,0005,1","99999,9,9,Y","009900,1,N,1","-0060,1","-0100,1","99999,9",,,,,,,"09980,1,99999,9",,,,"MET047METAR ENSD 091850Z VRB01KT CAVOK M06/M10 Q0998;",
"01320099999","2010-11-09T19:50:00","4","61.8333333","6.1166667","60.0","SANDANE ANDA, NO","FM-15","ENSD ","V020","999,9,V,0010,1","99999,9,9,Y","009900,1,N,1","-0060,1","-0100,1","99999,9",,,,,,,"09980,1,99999,9",,,,"MET047METAR ENSD 091950Z VRB02KT CAVOK M06/M10 Q0998;",
"01320099999","2010-11-10T05:20:00","4","61.8333333","6.1166667","60.0","SANDANE ANDA, NO","FM-15","ENSD ","V020","999,9,V,0010,1","99999,9,9,Y","009900,1,N,1","-0080,1","-0110,1","99999,9",,,,,,,"09949,1,99999,9",,,,"MET047METAR ENSD 100520Z VRB02KT CAVOK M08/M11 Q0995;",
"01320099999","2010-11-10T06:50:00","4","61.8333333","6.1166667","60.0","SANDANE ANDA, NO","FM-15","ENSD ","V020","999,9,V,0010,1","99999,9,9,Y","009900,1,N,1","-0070,1","-0110,1","99999,9",,,,,,,"09939,1,99999,9",,,,"MET047METAR ENSD 100650Z VRB02KT CAVOK M07/M11 Q0994;",
"01320099999","2010-11-10T07:50:00","4","61.8333333","6.1166667","60.0","SANDANE ANDA, NO","FM-15","ENSD ","V020","999,9,V,0005,1","99999,9,9,Y","009900,1,N,1","-0080,1","-0110,1","99999,9",,,,,,,"09939,1,99999,9",,,,"MET047METAR ENSD 100750Z VRB01KT CAVOK M08/M11 Q0994;",
"01320099999","2010-11-10T08:50:00","4","61.8333333","6.1166667","60.0","SANDANE ANDA, NO","FM-15","ENSD ","V020","999,9,C,0000,1","99999,9,9,Y","009900,1,N,1","-0070,1","-0110,1","99999,9",,,,,,,"09939,1,99999,9",,,,"MET047METAR ENSD 100850Z 00000KT CAVOK M07/M11 Q0994;",
"01320099999","2010-11-10T09:50:00","4","61.8333333","6.1166667","60.0","SANDANE ANDA, NO","FM-15","ENSD ","V020","999,9,V,0005,1","99999,9,9,Y","009900,1,N,1","-0060,1","-0100,1","99999,9",,,,,,,"09939,1,99999,9",,,,"MET047METAR ENSD 100950Z VRB01KT CAVOK M06/M10 Q0994;",
"01320099999","2010-11-10T10:50:00","4","61.8333333","6.1166667","60.0","SANDANE ANDA, NO","FM-15","ENSD ","V020","190,1,N,0021,1","99999,9,9,Y","009900,1,N,1","-0050,1","-0100,1","99999,9",,,,,,,"09929,1,99999,9",,,,"MET047METAR ENSD 101050Z 19004KT CAVOK M05/M10 Q0993;",
"01320099999","2010-11-10T11:50:00","4","61.8333333","6.1166667","60.0","SANDANE ANDA, NO","FM-15","ENSD ","V020","220,1,N,0010,1","99999,9,9,Y","009900,1,N,1","-0050,1","-0100,1","99999,9",,,,,,,"09929,1,99999,9",,,,"MET047METAR ENSD 101150Z 22002KT CAVOK M05/M10 Q0993;",
"01320099999","2010-11-10T12:50:00","4","61.8333333","6.1166667","60.0","SANDANE ANDA, NO","FM-15","ENSD ","V020","999,9,V,0010,1","99999,9,9,Y","009900,1,N,1","-0030,1","-0090,1","99999,9",,,,,,,"09919,1,99999,9",,,,"MET047METAR ENSD 101250Z VRB02KT CAVOK M03/M09 Q0992;",
"01320099999","2010-11-10T14:50:00","4","61.8333333","6.1166667","60.0","SANDANE ANDA, NO","FM-15","ENSD ","V020","999,9,V,0005,1","99999,9,9,Y","009900,1,N,1","-0050,1","-0090,1","99999,9",,,,,,,"09919,1,99999,9",,,,"MET047METAR ENSD 101450Z VRB01KT CAVOK M05/M09 Q0992;",
"01320099999","2010-11-10T15:50:00","4","61.8333333","6.1166667","60.0","SANDANE ANDA, NO","FM-15","ENSD ","V020","999,9,V,0005,1","99999,9,9,Y","009900,1,N,1","-0060,1","-0100,1","99999,9",,,,,,,"09919,1,99999,9",,,,"MET047METAR ENSD 101550Z VRB01KT CAVOK M06/M10 Q0992;",
"01320099999","2010-11-10T16:50:00","4","61.8333333","6.1166667","60.0","SANDANE ANDA, NO","FM-15","ENSD ","V020","999,9,V,0005,1","99999,9,9,Y","009900,1,N,1","-0060,1","-0090,1","99999,9",,,,,,,"09919,1,99999,9",,,,"MET047METAR ENSD 101650Z VRB01KT CAVOK M06/M09 Q0992;",
"01320099999","2010-11-10T17:50:00","4","61.8333333","6.1166667","60.0","SANDANE ANDA, NO","FM-15","ENSD ","V020","999,9,C,0000,1","99999,9,9,Y","009900,1,N,1","-0060,1","-0090,1","99999,9",,,,,,,"09919,1,99999,9",,,,"MET047METAR ENSD 101750Z 00000KT CAVOK M06/M09 Q0992;",
"01320099999","2010-11-10T18:50:00","4","61.8333333","6.1166667","60.0","SANDANE ANDA, NO","FM-15","ENSD ","V020","999,9,V,0010,1","99999,9,9,Y","009900,1,N,1","-0060,1","-0090,1","99999,9",,,,,,,"09929,1,99999,9",,,,"MET047METAR ENSD 101850Z VRB02KT CAVOK M06/M09 Q0993;",
"01320099999","2010-11-10T19:50:00","4","61.8333333","6.1166667","60.0","SANDANE ANDA, NO","FM-15","ENSD ","V020","999,9,V,0005,1","99999,9,9,Y","009900,1,N,1","-0060,1","-0080,1","99999,9",,,,,,,"09929,1,99999,9",,,,"MET047METAR ENSD 101950Z VRB01KT CAVOK M06/M08 Q0993;",
"01320099999","2010-11-11T04:50:00","4","61.8333333","6.1166667","60.0","SANDANE ANDA, NO","FM-15","ENSD ","V020","999,9,V,0010,1","99999,9,9,Y","009900,1,N,1","-0070,1","-0100,1","99999,9",,,,,,,"09929,1,99999,9",,,,"MET047METAR ENSD 110450Z VRB02KT CAVOK M07/M10 Q0993;",
"01320099999","2010-11-11T05:50:00","4","61.8333333","6.1166667","60.0","SANDANE ANDA, NO","FM-15","ENSD ","V020","999,9,V,0010,1","01200,1,C,N","011265,1,N,1","-0060,1","-0100,1","99999,9","07,5,+01200,1,99,9",,,,"07,99,1,99,9,99,9,99999,9,99,9,99,9",,"09919,1,99999,9",,,,"MET053METAR ENSD 110550Z VRB02KT 9999 BKN040 M06/M10 Q0992;",
"01320099999","2010-11-11T06:50:00","4","61.8333333","6.1166667","60.0","SANDANE ANDA, NO","FM-15","ENSD ","V020","080,1,N,0026,1","01350,1,C,N","011265,1,N,1","-0050,1","-0090,1","99999,9","07,5,+01350,1,99,9",,,,"07,99,1,99,9,99,9,99999,9,99,9,99,9",,"09919,1,99999,9",,,,"MET053METAR ENSD 110650Z 08005KT 9999 BKN045 M05/M09 Q0992;",
"01320099999","2010-11-11T07:50:00","4","61.8333333","6.1166667","60.0","SANDANE ANDA, NO","FM-15","ENSD ","V020","070,1,N,0041,1","01350,1,C,N","011265,1,N,1","-0040,1","-0080,1","99999,9","07,5,+01350,1,99,9",,,,"07,99,1,99,9,99,9,99999,9,99,9,99,9",,"09909,1,99999,9",,,,"MET053METAR ENSD 110750Z 07008KT 9999 BKN045 M04/M08 Q0991;",
"01320099999","2010-11-11T08:50:00","4","61.8333333","6.1166667","60.0","SANDANE ANDA, NO","FM-15","ENSD ","V020","070,1,N,0031,1","01200,1,C,N","011265,1,N,1","-0040,1","-0090,1","99999,9","07,5,+01200,1,99,9",,,,"07,99,1,99,9,99,9,99999,9,99,9,99,9",,"09909,1,99999,9",,,,"MET053METAR ENSD 110850Z 07006KT 9999 BKN040 M04/M09 Q0991;",
"01320099999","2010-11-11T09:50:00","4","61.8333333","6.1166667","60.0","SANDANE ANDA, NO","FM-15","ENSD ","V020","060,1,N,0031,1","22000,1,9,N","011265,1,N,1","-0030,1","-0090,1","99999,9","04,5,+01200,1,99,9",,,,"04,99,1,99,9,99,9,99999,9,99,9,99,9",,"09898,1,99999,9",,,,"MET053METAR ENSD 110950Z 06006KT 9999 SCT040 M03/M09 Q0990;",
"01320099999","2010-11-11T10:50:00","4","61.8333333","6.1166667","60.0","SANDANE ANDA, NO","FM-15","ENSD ","V020","070,1,N,0021,1","99999,9,9,Y","009900,1,N,1","-0030,1","-0080,1","99999,9",,,,,,,"09892,1,99999,9",,,,"MET047METAR ENSD 111050Z 07004KT CAVOK M03/M08 Q0989;",
"01320099999","2010-11-11T11:50:00","4","61.8333333","6.1166667","60.0","SANDANE ANDA, NO","FM-15","ENSD ","V020","100,1,N,0026,1","99999,9,9,Y","009900,1,N,1","-0020,1","-0080,1","99999,9",,,,,,,"09871,1,99999,9",,,,"MET047METAR ENSD 111150Z 10005KT CAVOK M02/M08 Q0987;",
"01320099999","2010-11-11T12:50:00","4","61.8333333","6.1166667","60.0","SANDANE ANDA, NO","FM-15","ENSD ","V020","090,1,N,0036,1","99999,9,9,Y","009900,1,N,1","-0020,1","-0100,1","99999,9",,,,,,,"09861,1,99999,9",,,,"MET047METAR ENSD 111250Z 09007KT CAVOK M02/M10 Q0986;",
"01320099999","2010-11-11T14:20:00","4","61.8333333","6.1166667","60.0","SANDANE ANDA, NO","FM-15","ENSD ","V020","120,1,N,0031,1","99999,9,9,Y","009900,1,N,1","-0030,1","-0080,1","99999,9",,,,,,,"09841,1,99999,9",,,,"MET047METAR ENSD 111420Z 12006KT CAVOK M03/M08 Q0984;",
"01320099999","2010-11-11T14:50:00","4","61.8333333","6.1166667","60.0","SANDANE ANDA, NO","FM-15","ENSD ","V020","999,9,V,0010,1","99999,9,9,Y","009900,1,N,1","-0030,1","-0080,1","99999,9",,,,,,,"09841,1,99999,9",,,,"MET047METAR ENSD 111450Z VRB02KT CAVOK M03/M08 Q0984;",
"01320099999","2010-11-11T15:50:00","4","61.8333333","6.1166667","60.0","SANDANE ANDA, NO","FM-15","ENSD ","V020","120,1,N,0031,1","99999,9,9,Y","009900,1,N,1","-0020,1","-0080,1","99999,9",,,,,,,"09821,1,99999,9",,,,"MET055METAR ENSD 111550Z 12006KT 360V120 CAVOK M02/M08 Q0982;",
"01320099999","2010-11-11T16:50:00","4","61.8333333","6.1166667","60.0","SANDANE ANDA, NO","FM-15","ENSD ","V020","110,1,N,0021,1","99999,9,9,Y","009900,1,N,1","-0020,1","-0090,1","99999,9",,,,,,,"09810,1,99999,9",,,,"MET047METAR ENSD 111650Z 11004KT CAVOK M02/M09 Q0981;",
"01320099999","2010-11-11T17:50:00","4","61.8333333","6.1166667","60.0","SANDANE ANDA, NO","FM-15","ENSD ","V020","120,1,N,0026,1","99999,9,9,Y","009900,1,N,1","-0020,1","-0090,1","99999,9",,,,,,,"09800,1,99999,9",,,,"MET047METAR ENSD 111750Z 12005KT CAVOK M02/M09 Q0980;",
"01320099999","2010-11-11T18:50:00","4","61.8333333","6.1166667","60.0","SANDANE ANDA, NO","FM-15","ENSD ","V020","110,1,N,0036,1","99999,9,9,Y","009900,1,N,1","-0010,1","-0090,1","99999,9",,,,,,,"09780,1,99999,9",,,,"MET047METAR ENSD 111850Z 11007KT CAVOK M01/M09 Q0978;",
"01320099999","2010-11-11T19:50:00","4","61.8333333","6.1166667","60.0","SANDANE ANDA, NO","FM-15","ENSD ","V020","140,1,N,0031,1","99999,9,9,Y","009900,1,N,1","-0020,1","-0080,1","99999,9",,,,,,,"09770,1,99999,9",,,,"MET047METAR ENSD 111950Z 14006KT CAVOK M02/M08 Q0977;",
"01320099999","2010-11-12T05:20:00","4","61.8333333","6.1166667","60.0","SANDANE ANDA, NO","FM-15","ENSD ","V020","080,1,N,0062,1","99999,9,9,Y","009900,1,N,1","+0040,1","-0060,1","99999,9",,,,,,,"09688,1,99999,9",,,,"MET046METAR ENSD 120520Z 08012KT CAVOK 04/M06 Q0969;",
"01320099999","2010-11-12T06:50:00","4","61.8333333","6.1166667","60.0","SANDANE ANDA, NO","FM-15","ENSD ","V020","120,1,N,0036,1","99999,9,9,Y","009900,1,N,1","+0050,1","-0050,1","99999,9",,,,,,,"09688,1,99999,9",,,,"MET046METAR ENSD 120650Z 12007KT CAVOK 05/M05 Q0969;",
"01320099999","2010-11-12T07:50:00","4","61.8333333","6.1166667","60.0","SANDANE ANDA, NO","FM-15","ENSD ","V020","130,1,N,0036,1","99999,9,9,Y","009900,1,N,1","+0040,1","-0050,1","99999,9",,,,,,,"09699,1,99999,9",,,,"MET046METAR ENSD 120750Z 13007KT CAVOK 04/M05 Q0970;",
"01320099999","2010-11-12T08:50:00","4","61.8333333","6.1166667","60.0","SANDANE ANDA, NO","FM-15","ENSD ","V020","110,1,N,0026,1","99999,9,9,Y","009900,1,N,1","+0040,1","-0050,1","99999,9",,,,,,,"09699,1,99999,9",,,,"MET046METAR ENSD 120850Z 11005KT CAVOK 04/M05 Q0970;",
"01320099999","2010-11-12T09:50:00","4","61.8333333","6.1166667","60.0","SANDANE ANDA, NO","FM-15","ENSD ","V020","999,9,V,0010,1","02100,1,C,N","011265,1,N,1","+0040,1","-0050,1","99999,9","07,5,+02100,1,99,9",,,,"07,99,1,99,9,99,9,99999,9,99,9,99,9",,"09699,1,99999,9",,,,"MET052METAR ENSD 120950Z VRB02KT 9999 BKN070 04/M05 Q0970;",
"01320099999","2010-11-12T10:50:00","4","61.8333333","6.1166667","60.0","SANDANE ANDA, NO","FM-15","ENSD ","V020","130,1,N,0021,1","02100,1,C,N","011265,1,N,1","+0050,1","-0060,1","99999,9","04,5,+01200,1,99,9","07,5,+02100,1,99,9",,,"07,99,1,99,9,99,9,99999,9,99,9,99,9",,"09709,1,99999,9","16,1",,,"MET064METAR ENSD 121050Z 13004KT 9999 VCSH SCT040 BKN070 05/M06 Q0971;",
"01320099999","2010-11-12T11:50:00","4","61.8333333","6.1166667","60.0","SANDANE ANDA, NO","FM-15","ENSD ","V020","080,1,N,0031,1","01500,1,C,N","011265,1,N,1","+0050,1","-0040,1","99999,9","04,5,+01050,1,99,9","07,5,+01500,1,99,9",,,"07,99,1,99,9,99,9,99999,9,99,9,99,9",,"09709,1,99999,9","16,1",,,"MET064METAR ENSD 121150Z 08006KT 9999 VCSH SCT035 BKN050 05/M04 Q0971;",
"01320099999","2010-11-12T12:50:00","4","61.8333333","6.1166667","60.0","SANDANE ANDA, NO","FM-15","ENSD ","V020","090,1,N,0036,1","01050,1,C,N","011265,1,N,1","+0050,1","-0040,1","99999,9","07,5,+01050,1,99,9",,,,"07,99,1,99,9,99,9,99999,9,99,9,99,9",,"09709,1,99999,9","16,1",,,"MET057METAR ENSD 121250Z 09007KT 9999 VCSH BKN035 05/M04 Q0971;",
"01320099999","2010-11-12T13:50:00","4","61.8333333","6.1166667","60.0","SANDANE ANDA, NO","FM-15","ENSD ","V020","070,1,N,0046,1","01050,1,C,N","011265,1,N,1","+0040,1","-0030,1","99999,9","07,5,+01050,1,99,9",,,,"07,99,1,99,9,99,9,99999,9,99,9,99,9",,"09719,1,99999,9",,,,"MET052METAR ENSD 121350Z 07009KT 9999 BKN035 04/M03 Q0972;",
"01320099999","2010-11-12T14:50:00","4","61.8333333","6.1166667","60.0","SANDANE ANDA, NO","FM-15","ENSD ","V020","999,9,V,0010,1","01200,1,C,N","011265,1,N,1","+0040,1","-0030,1","99999,9","07,5,+01200,1,99,9",,,,"07,99,1,99,9,99,9,99999,9,99,9,99,9",,"09719,1,99999,9",,,,"MET052METAR ENSD 121450Z VRB02KT 9999 BKN040 04/M03 Q0972;",
"01320099999","2010-11-12T15:50:00","4","61.8333333","6.1166667","60.0","SANDANE ANDA, NO","FM-15","ENSD ","V020","999,9,V,0005,1","01350,1,C,N","011265,1,N,1","+0030,1","-0030,1","99999,9","07,5,+01350,1,99,9",,,,"07,99,1,99,9,99,9,99999,9,99,9,99,9",,"09719,1,99999,9",,,,"MET052METAR ENSD 121550Z VRB01KT 9999 BKN045 03/M03 Q0972;",
"01320099999","2010-11-12T16:50:00","4","61.8333333","6.1166667","60.0","SANDANE ANDA, NO","FM-15","ENSD ","V020","999,9,V,0005,1","01350,1,C,N","011265,1,N,1","+0030,1","-0030,1","99999,9","07,5,+01350,1,99,9",,,,"07,99,1,99,9,99,9,99999,9,99,9,99,9",,"09729,1,99999,9",,,,"MET052METAR ENSD 121650Z VRB01KT 9999 BKN045 03/M03 Q0973;",
"01320099999","2010-11-12T17:50:00","4","61.8333333","6.1166667","60.0","SANDANE ANDA, NO","FM-15","ENSD ","V020","999,9,V,0010,1","01350,1,C,N","011265,1,N,1","+0020,1","-0030,1","99999,9","07,5,+01350,1,99,9",,,,"07,99,1,99,9,99,9,99999,9,99,9,99,9",,"09729,1,99999,9",,,,"MET052METAR ENSD 121750Z VRB02KT 9999 BKN045 02/M03 Q0973;",
"01320099999","2010-11-12T18:50:00","4","61.8333333","6.1166667","60.0","SANDANE ANDA, NO","FM-15","ENSD ","V020","999,9,V,0010,1","01500,1,C,N","011265,1,N,1","+0020,1","-0020,1","99999,9","07,5,+01500,1,99,9",,,,"07,99,1,99,9,99,9,99999,9,99,9,99,9",,"09729,1,99999,9",,,,"MET052METAR ENSD 121850Z VRB02KT 9999 BKN050 02/M02 Q0973;",
"01320099999","2010-11-12T19:50:00","4","61.8333333","6.1166667","60.0","SANDANE ANDA, NO","FM-15","ENSD ","V020","999,9,V,0005,1","01500,1,C,N","011265,1,N,1","+0020,1","-0020,1","99999,9","07,5,+01500,1,99,9",,,,"07,99,1,99,9,99,9,99999,9,99,9,99,9",,"09729,1,99999,9",,,,"MET052METAR ENSD 121950Z VRB01KT 9999 BKN050 02/M02 Q0973;",
"01320099999","2010-11-13T06:20:00","4","61.8333333","6.1166667","60.0","SANDANE ANDA, NO","FM-15","ENSD ","V020","110,1,N,0015,1","01650,5,C,N","011265,1,N,1","+0000,1","-0030,1","99999,9","07,5,+01650,5,99,9",,,,"07,99,1,99,9,99,9,99999,9,99,9,99,9",,"09749,1,99999,9",,,,"MET052METAR ENSD 130620Z 11003KT 9999 BKN055 00/M03 Q0975;",
"01320099999","2010-11-13T07:50:00","4","61.8333333","6.1166667","60.0","SANDANE ANDA, NO","FM-15","ENSD ","V020","999,9,C,0000,1","01650,5,C,N","011265,1,N,1","+0000,1","-0030,1","99999,9","07,5,+01650,5,99,9",,,,"07,99,1,99,9,99,9,99999,9,99,9,99,9",,"09749,1,99999,9",,,,"MET052METAR ENSD 130750Z 00000KT 9999 BKN055 00/M03 Q0975;",
"01320099999","2010-11-13T08:50:00","4","61.8333333","6.1166667","60.0","SANDANE ANDA, NO","FM-15","ENSD ","V020","999,9,V,0010,1","01650,5,C,N","011265,1,N,1","+0010,1","-0020,1","99999,9","07,5,+01650,5,99,9",,,,"07,99,1,99,9,99,9,99999,9,99,9,99,9",,"09760,1,99999,9",,,,"MET052METAR ENSD 130850Z VRB02KT 9999 BKN055 01/M02 Q0976;",
"01320099999","2010-11-13T09:50:00","4","61.8333333","6.1166667","60.0","SANDANE ANDA, NO","FM-15","ENSD ","V020","999,9,C,0000,1","01650,5,C,N","011265,1,N,1","+0010,1","-0030,1","99999,9","07,5,+01650,5,99,9",,,,"07,99,1,99,9,99,9,99999,9,99,9,99,9",,"09760,1,99999,9",,,,"MET052METAR ENSD 130950Z 00000KT 9999 BKN055 01/M03 Q0976;",
"01320099999","2010-11-13T10:50:00","4","61.8333333","6.1166667","60.0","SANDANE ANDA, NO","FM-15","ENSD ","V020","060,1,N,0021,1","01350,1,C,N","011265,1,N,1","+0010,1","-0030,1","99999,9","07,5,+01350,1,99,9",,,,"07,99,1,99,9,99,9,99999,9,99,9,99,9",,"09770,1,99999,9",,,,"MET052METAR ENSD 131050Z 06004KT 9999 BKN045 01/M03 Q0977;",
"01320099999","2010-11-13T11:50:00","4","61.8333333","6.1166667","60.0","SANDANE ANDA, NO","FM-15","ENSD ","V020","999,9,C,0000,1","01350,1,C,N","011265,1,N,1","+0010,1","-0030,1","99999,9","07,5,+01350,1,99,9",,,,"07,99,1,99,9,99,9,99999,9,99,9,99,9",,"09770,1,99999,9",,,,"MET052METAR ENSD 131150Z 00000KT 9999 BKN045 01/M03 Q0977;",
"01320099999","2010-11-13T12:50:00","4","61.8333333","6.1166667","60.0","SANDANE ANDA, NO","FM-15","ENSD ","V020","999,9,V,0005,1","01350,1,C,N","011265,1,N,1","+0020,1","-0020,1","99999,9","07,5,+01350,1,99,9",,,,"07,99,1,99,9,99,9,99999,9,99,9,99,9",,"09770,1,99999,9",,,,"MET052METAR ENSD 131250Z VRB01KT 9999 BKN045 02/M02 Q0977;",
"01320099999","2010-11-13T13:50:00","4","61.8333333","6.1166667","60.0","SANDANE ANDA, NO","FM-15","ENSD ","V020","999,9,V,0010,1","01350,1,C,N","011265,1,N,1","+0010,1","-0030,1","99999,9","07,5,+01350,1,99,9",,,,"07,99,1,99,9,99,9,99999,9,99,9,99,9",,"09780,1,99999,9",,,,"MET052METAR ENSD 131350Z VRB02KT 9999 BKN045 01/M03 Q0978;",
"01320099999","2010-11-14T09:50:00","4","61.8333333","6.1166667","60.0","SANDANE ANDA, NO","FM-15","ENSD ","V020","999,9,C,0000,1","01200,1,C,N","011265,1,N,1","+0020,1","-0020,1","99999,9","02,5,+00900,1,99,9","07,5,+01200,1,99,9",,,"07,99,1,99,9,99,9,99999,9,99,9,99,9",,"09909,1,99999,9","16,1",,,"MET064METAR ENSD 140950Z 00000KT 9999 VCSH FEW030 BKN040 02/M02 Q0991;",
"01320099999","2010-11-14T10:50:00","4","61.8333333","6.1166667","60.0","SANDANE ANDA, NO","FM-15","ENSD ","V020","999,9,C,0000,1","01200,1,C,N","011265,1,N,1","+0020,1","-0010,1","99999,9","02,5,+00900,1,99,9","07,5,+01200,1,99,9",,,"07,99,1,99,9,99,9,99999,9,99,9,99,9",,"09919,1,99999,9",,,,"MET059METAR ENSD 141050Z 00000KT 9999 FEW030 BKN040 02/M01 Q0992;",
"01320099999","2010-11-14T11:50:00","4","61.8333333","6.1166667","60.0","SANDANE ANDA, NO","FM-15","ENSD ","V020","060,1,N,0041,1","01050,1,C,N","011265,1,N,1","+0020,1","-0020,1","99999,9","02,5,+00150,1,99,9","07,5,+01050,1,99,9",,,"07,99,1,99,9,99,9,99999,9,99,9,99,9",,"09919,1,99999,9",,,,"MET059METAR ENSD 141150Z 06008KT 9999 FEW005 BKN035 02/M02 Q0992;",
"01320099999","2010-11-14T14:50:00","4","61.8333333","6.1166667","60.0","SANDANE ANDA, NO","FM-15","ENSD ","V020","999,9,V,0010,1","01200,1,9,N","011265,1,N,1","+0010,1","-0010,1","99999,9","07,1,+01200,1,99,9",,,,"07,99,1,99,9,99,9,99999,9,99,9,99,9",,"09929,1,99999,9",,,,"MET053METAR ENSD 141450Z VRB02KT 9999 BKN0405 01/M01 Q0993;",
"01320099999","2010-11-14T15:50:00","4","61.8333333","6.1166667","60.0","SANDANE ANDA, NO","FM-15","ENSD ","V020","999,9,V,0005,1","01200,1,C,N","011265,1,N,1","+0010,1","-0010,1","99999,9","04,5,+00150,1,99,9","07,5,+01200,1,99,9",,,"07,99,1,99,9,99,9,99999,9,99,9,99,9",,"09929,1,99999,9","84,1",,,"MET066METAR ENSD 141550Z VRB01KT 9999 SHRASN SCT005 BKN040 01/M01 Q0993;",
"01320099999","2010-11-14T17:50:00","4","61.8333333","6.1166667","60.0","SANDANE ANDA, NO","FM-15","ENSD ","V020","999,9,V,0010,1","01200,1,C,N","011265,1,N,1","+0010,1","-0020,1","99999,9","04,5,+00150,1,99,9","07,5,+01200,1,99,9",,,"07,99,1,99,9,99,9,99999,9,99,9,99,9",,"09939,1,99999,9","16,1",,,"MET064METAR ENSD 141750Z VRB02KT 9999 VCSH SCT005 BKN040 01/M02 Q0994;",
"01320099999","2010-11-14T18:50:00","4","61.8333333","6.1166667","60.0","SANDANE ANDA, NO","FM-15","ENSD ","V020","999,9,C,0000,1","01050,1,C,N","011265,1,N,1","+0010,1","-0020,1","99999,9","04,5,+00390,1,99,9","07,5,+01050,1,99,9",,,"07,99,1,99,9,99,9,99999,9,99,9,99,9",,"09939,1,99999,9",,,,"MET059METAR ENSD 141850Z 00000KT 9999 SCT013 BKN035 01/M02 Q0994;",
"01320099999","2010-11-14T19:50:00","4","61.8333333","6.1166667","60.0","SANDANE ANDA, NO","FM-15","ENSD ","V020","999,9,V,0005,1","00900,1,C,N","011265,1,N,1","+0010,1","-0010,1","99999,9","04,5,+00300,1,99,9","07,5,+00900,1,99,9",,,"07,99,1,99,9,99,9,99999,9,99,9,99,9",,"09949,1,99999,9",,,,"MET059METAR ENSD 141950Z VRB01KT 9999 SCT010 BKN030 01/M01 Q0995;",
"01320099999","2010-11-15T05:20:00","4","61.8333333","6.1166667","60.0","SANDANE ANDA, NO","FM-15","ENSD ","V020","060,1,N,0015,1","00300,1,C,N","011265,1,N,1","+0010,1","-0020,1","99999,9","07,5,+00300,1,99,9",,,,"07,99,1,99,9,99,9,99999,9,99,9,99,9",,"09990,1,99999,9",,,,"MET052METAR ENSD 150520Z 06003KT 9999 BKN010 01/M02 Q0999;",
"01320099999","2010-11-15T06:50:00","4","61.8333333","6.1166667","60.0","SANDANE ANDA, NO","FM-15","ENSD ","V020","070,1,N,0015,1","00750,1,C,N","011265,1,N,1","+0000,1","-0020,1","99999,9","04,5,+00150,1,99,9","07,5,+00750,1,99,9",,,"07,99,1,99,9,99,9,99999,9,99,9,99,9",,"10000,1,99999,9",,,,"MET059METAR ENSD 150650Z 07003KT 9999 SCT005 BKN025 00/M02 Q1000;",
"01320099999","2010-11-15T07:50:00","4","61.8333333","6.1166667","60.0","SANDANE ANDA, NO","FM-15","ENSD ","V020","050,1,N,0015,1","00750,1,C,N","011265,1,N,1","+0000,1","-0020,1","99999,9","02,5,+00150,1,99,9","07,5,+00750,1,99,9",,,"07,99,1,99,9,99,9,99999,9,99,9,99,9",,"10000,1,99999,9",,,,"MET059METAR ENSD 150750Z 05003KT 9999 FEW005 BKN025 00/M02 Q1000;",
"01320099999","2010-11-15T08:50:00","4","61.8333333","6.1166667","60.0","SANDANE ANDA, NO","FM-15","ENSD ","V020","130,1,N,0015,1","01200,1,C,N","011265,1,N,1","+0010,1","-0020,1","99999,9","02,5,+00300,1,99,9","07,5,+01200,1,99,9",,,"07,99,1,99,9,99,9,99999,9,99,9,99,9",,"10010,1,99999,9",,,,"MET059METAR ENSD 150850Z 13003KT 9999 FEW010 BKN040 01/M02 Q1001;",
"01320099999","2010-11-15T09:50:00","4","61.8333333","6.1166667","60.0","SANDANE ANDA, NO","FM-15","ENSD ","V020","999,9,V,0010,1","01200,1,C,N","011265,1,N,1","+0010,1","-0020,1","99999,9","02,5,+00300,1,99,9","07,5,+01200,1,99,9",,,"07,99,1,99,9,99,9,99999,9,99,9,99,9",,"10020,1,99999,9",,,,"MET059METAR ENSD 150950Z VRB02KT 9999 FEW010 BKN040 01/M02 Q1002;",
"01320099999","2010-11-15T10:50:00","4","61.8333333","6.1166667","60.0","SANDANE ANDA, NO","FM-15","ENSD ","V020","999,9,V,0015,1","01200,1,C,N","011265,1,N,1","+0010,1","-0020,1","99999,9","02,5,+00300,1,99,9","07,5,+01200,1,99,9",,,"07,99,1,99,9,99,9,99999,9,99,9,99,9",,"10031,1,99999,9",,,,"MET059METAR ENSD 151050Z VRB03KT 9999 FEW010 BKN040 01/M02 Q1003;",
"01320099999","2010-11-15T11:50:00","4","61.8333333","6.1166667","60.0","SANDANE ANDA, NO","FM-15","ENSD ","V020","070,1,N,0021,1","01200,1,C,N","011265,1,N,1","+0020,1","-0020,1","99999,9","07,5,+01200,1,99,9",,,,"07,99,1,99,9,99,9,99999,9,99,9,99,9",,"10031,1,99999,9",,,,"MET052METAR ENSD 151150Z 07004KT 9999 BKN040 02/M02 Q1003;",
"01320099999","2010-11-15T12:50:00","4","61.8333333","6.1166667","60.0","SANDANE ANDA, NO","FM-15","ENSD ","V020","050,1,N,0021,1","01050,1,C,N","011265,1,N,1","+0020,1","-0020,1","99999,9","02,5,+00150,1,99,9","07,5,+01050,1,99,9",,,"07,99,1,99,9,99,9,99999,9,99,9,99,9",,"10041,1,99999,9","16,1",,,"MET064METAR ENSD 151250Z 05004KT 9999 VCSH FEW005 BKN035 02/M02 Q1004;",
"01320099999","2010-11-15T13:50:00","4","61.8333333","6.1166667","60.0","SANDANE ANDA, NO","FM-15","ENSD ","V020","050,1,N,0031,1","01050,1,C,N","011265,1,N,1","+0010,1","-0020,1","99999,9","02,5,+00150,1,99,9","07,5,+01050,1,99,9",,,"07,99,1,99,9,99,9,99999,9,99,9,99,9",,"10051,1,99999,9","16,1",,,"MET064METAR ENSD 151350Z 05006KT 9999 VCSH FEW005 BKN035 01/M02 Q1005;",
"01320099999","2010-11-15T14:50:00","4","61.8333333","6.1166667","60.0","SANDANE ANDA, NO","FM-15","ENSD ","V020","040,1,N,0021,1","01200,1,C,N","011265,1,N,1","+0010,1","-0020,1","99999,9","02,5,+00240,1,99,9","07,5,+01200,1,99,9",,,"07,99,1,99,9,99,9,99999,9,99,9,99,9",,"10061,1,99999,9",,,,"MET059METAR ENSD 151450Z 04004KT 9999 FEW008 BKN040 01/M02 Q1006;",
"01320099999","2010-11-15T15:50:00","4","61.8333333","6.1166667","60.0","SANDANE ANDA, NO","FM-15","ENSD ","V020","120,1,N,0010,1","01200,1,C,N","011265,1,N,1","+0010,1","-0010,1","99999,9","02,5,+00360,1,99,9","07,5,+01200,1,99,9",,,"07,99,1,99,9,99,9,99999,9,99,9,99,9",,"10061,1,99999,9",,,,"MET059METAR ENSD 151550Z 12002KT 9999 FEW012 BKN040 01/M01 Q1006;",
"01320099999","2010-11-15T16:50:00","4","61.8333333","6.1166667","60.0","SANDANE ANDA, NO","FM-15","ENSD ","V020","999,9,V,0005,1","22000,1,9,N","011265,1,N,1","+0010,1","-0020,1","99999,9","04,5,+01200,1,99,9",,,,"04,99,1,99,9,99,9,99999,9,99,9,99,9",,"10071,1,99999,9",,,,"MET052METAR ENSD 151650Z VRB01KT 9999 SCT040 01/M02 Q1007;",
"01320099999","2010-11-15T17:50:00","4","61.8333333","6.1166667","60.0","SANDANE ANDA, NO","FM-15","ENSD ","V020","999,9,V,0010,1","00900,1,C,N","011265,1,N,1","+0010,1","-0030,1","99999,9","04,5,+00360,1,99,9","07,5,+00900,1,99,9",,,"07,99,1,99,9,99,9,99999,9,99,9,99,9",,"10091,1,99999,9","80,1",,,"MET065METAR ENSD 151750Z VRB02KT 9999 -SHRA SCT012 BKN030 01/M03 Q1009;",
"01320099999","2010-11-15T18:50:00","4","61.8333333","6.1166667","60.0","SANDANE ANDA, NO","FM-15","ENSD ","V020","999,9,V,0010,1","00360,1,C,N","011265,1,N,1","+0010,1","-0020,1","99999,9","02,5,+00180,1,99,9","04,5,+00360,1,99,9","07,5,+00540,1,99,9",,"07,99,1,99,9,99,9,99999,9,99,9,99,9",,"10102,1,99999,9","80,1",,,"MET072METAR ENSD 151850Z VRB02KT 9999 -SHRA FEW006 SCT012 BKN018 01/M02 Q1010;",
"01320099999","2010-11-15T19:50:00","4","61.8333333","6.1166667","60.0","SANDANE ANDA, NO","FM-15","ENSD ","V020","999,9,V,0005,1","00900,1,C,N","011265,1,N,1","+0010,1","-0020,1","99999,9","04,5,+00150,1,99,9","07,5,+00900,1,99,9",,,"07,99,1,99,9,99,9,99999,9,99,9,99,9",,"10108,1,99999,9",,,,"MET059METAR ENSD 151950Z VRB01KT 9999 SCT005 BKN030 01/M02 Q1011;",
"01320099999","2010-11-16T05:20:00","4","61.8333333","6.1166667","60.0","SANDANE ANDA, NO","FM-15","ENSD ","V020","999,9,V,0010,1","00360,1,C,N","009000,1,N,1","+0010,1","-0020,1","99999,9","02,5,+00180,1,99,9","07,5,+00360,1,99,9",,,"07,99,1,99,9,99,9,99999,9,99,9,99,9",,"10169,1,99999,9","83,1",,,"MET067METAR ENSD 160520Z VRB02KT 9000 -SHRASN FEW006 BKN012 01/M02 Q1017;",
"01320099999","2010-11-16T05:50:00","4","61.8333333","6.1166667","60.0","SANDANE ANDA, NO","FM-15","ENSD ","V020","060,1,N,0026,1","00360,1,C,N","011265,1,N,1","+0010,1","-0020,1","99999,9","02,5,+00180,1,99,9","04,5,+00360,1,99,9","07,5,+00540,1,99,9",,"07,99,1,99,9,99,9,99999,9,99,9,99,9",,"10180,1,99999,9",,,,"MET066METAR ENSD 160550Z 06005KT 9999 FEW006 SCT012 BKN018 01/M02 Q1018;",
"01320099999","2010-11-16T06:50:00","4","61.8333333","6.1166667","60.0","SANDANE ANDA, NO","FM-15","ENSD ","V020","999,9,V,0010,1","00360,1,C,N","011265,1,N,1","+0010,1","-0020,1","99999,9","02,5,+00180,1,99,9","04,5,+00360,1,99,9","07,5,+01050,1,99,9",,"07,99,1,99,9,99,9,99999,9,99,9,99,9",,"10180,1,99999,9",,,,"MET066METAR ENSD 160650Z VRB02KT 9999 FEW006 SCT012 BKN035 01/M02 Q1018;",
"01320099999","2010-11-16T07:50:00","4","61.8333333","6.1166667","60.0","SANDANE ANDA, NO","FM-15","ENSD ","V020","999,9,V,0005,1","01200,1,C,N","011265,1,N,1","+0010,1","-0020,1","99999,9","02,5,+00150,1,99,9","07,5,+01200,1,99,9",,,"07,99,1,99,9,99,9,99999,9,99,9,99,9",,"10190,1,99999,9",,,,"MET059METAR ENSD 160750Z VRB01KT 9999 FEW005 BKN040 01/M02 Q1019;",
"01320099999","2010-11-16T08:50:00","4","61.8333333","6.1166667","60.0","SANDANE ANDA, NO","FM-15","ENSD ","V020","999,9,V,0005,1","22000,1,9,N","011265,1,N,1","+0010,1","-0010,1","99999,9","02,5,+00150,5,99,9",,,,"09,99,1,99,9,99,9,00025,1,99,9,99,9",,"10190,1,99999,9","80,1",,,"MET064METAR ENSD 160850Z VRB01KT 9999 -SHRA FEW005 VV025 01/M01 Q1019;",
"01320099999","2010-11-16T09:50:00","4","61.8333333","6.1166667","60.0","SANDANE ANDA, NO","FM-15","ENSD ","V020","140,1,N,0021,1","00540,1,C,N","011265,1,N,1","+0020,1","-0010,1","99999,9","02,5,+00150,1,99,9","04,5,+00540,1,99,9","07,5,+00900,1,99,9",,"07,99,1,99,9,99,9,99999,9,99,9,99,9",,"10200,1,99999,9","80,1",,,"MET072METAR ENSD 160950Z 14004KT 9999 -SHRA FEW005 SCT018 BKN030 02/M01 Q1020;",
"01320099999","2010-11-16T11:50:00","4","61.8333333","6.1166667","60.0","SANDANE ANDA, NO","FM-15","ENSD ","V020","160,1,N,0031,1","00360,1,C,N","011265,1,N,1","+0020,1","-0010,1","99999,9","02,5,+00150,1,99,9","04,5,+00360,1,99,9","07,5,+00900,1,99,9",,"07,99,1,99,9,99,9,99999,9,99,9,99,9",,"10200,1,99999,9","80,1",,,"MET072METAR ENSD 161150Z 16006KT 9999 -SHRA FEW005 SCT012 BKN030 02/M01 Q1020;",
"01320099999","2010-11-16T12:50:00","4","61.8333333","6.1166667","60.0","SANDANE ANDA, NO","FM-15","ENSD ","V020","160,1,N,0015,1","00360,1,C,N","011265,1,N,1","+0020,1","-0010,1","99999,9","02,5,+00150,1,99,9","04,5,+00360,1,99,9","07,5,+00750,1,99,9",,"07,99,1,99,9,99,9,99999,9,99,9,99,9",,"10200,1,99999,9","80,1",,,"MET072METAR ENSD 161250Z 16003KT 9999 -SHRA FEW005 SCT012 BKN025 02/M01 Q1020;",
"01320099999","2010-11-16T13:50:00","4","61.8333333","6.1166667","60.0","SANDANE ANDA, NO","FM-15","ENSD ","V020","070,1,N,0036,1","00360,1,C,N","011265,1,N,1","+0020,1","+0000,1","99999,9","02,5,+00150,1,99,9","04,5,+00360,1,99,9","07,5,+00750,1,99,9",,"07,99,1,99,9,99,9,99999,9,99,9,99,9",,"10210,1,99999,9","80,1",,,"MET072METAR ENSD 161350Z 07007KT 9999 -SHRA FEW005 SCT012 BKN025 02/M00 Q1021;",
"01320099999","2010-11-16T14:50:00","4","61.8333333","6.1166667","60.0","SANDANE ANDA, NO","FM-15","ENSD ","V020","999,9,V,0010,1","00360,1,C,N","011265,1,N,1","+0020,1","-0010,1","99999,9","02,5,+00150,1,99,9","04,5,+00360,1,99,9","07,5,+00750,1,99,9",,"07,99,1,99,9,99,9,99999,9,99,9,99,9",,"10210,1,99999,9","80,1",,,"MET072METAR ENSD 161450Z VRB02KT 9999 -SHRA FEW005 SCT012 BKN025 02/M01 Q1021;",
"01320099999","2010-11-16T15:50:00","4","61.8333333","6.1166667","60.0","SANDANE ANDA, NO","FM-15","ENSD ","V020","999,9,V,0010,1","00360,1,C,N","011265,1,N,1","+0020,1","-0010,1","99999,9","02,5,+00150,1,99,9","04,5,+00360,1,99,9","07,5,+00750,1,99,9",,"07,99,1,99,9,99,9,99999,9,99,9,99,9",,"10210,1,99999,9","80,1",,,"MET072METAR ENSD 161550Z VRB02KT 9999 -SHRA FEW005 SCT012 BKN025 02/M01 Q1021;",
"01320099999","2010-11-16T17:50:00","4","61.8333333","6.1166667","60.0","SANDANE ANDA, NO","FM-15","ENSD ","V020","070,1,N,0015,1","00360,1,C,N","011265,1,N,1","+0020,1","-0010,1","99999,9","02,5,+00150,1,99,9","04,5,+00360,1,99,9","07,5,+00750,1,99,9",,"07,99,1,99,9,99,9,99999,9,99,9,99,9",,"10220,1,99999,9","80,1",,,"MET072METAR ENSD 161750Z 07003KT 9999 -SHRA FEW005 SCT012 BKN025 02/M01 Q1022;",
"01320099999","2010-11-16T18:50:00","4","61.8333333","6.1166667","60.0","SANDANE ANDA, NO","FM-15","ENSD ","V020","999,9,V,0010,1","00360,1,C,N","011265,1,N,1","+0020,1","-0010,1","99999,9","02,5,+00150,1,99,9","04,5,+00360,1,99,9","07,5,+00750,1,99,9",,"07,99,1,99,9,99,9,99999,9,99,9,99,9",,"10220,1,99999,9","80,1",,,"MET072METAR ENSD 161850Z VRB02KT 9999 -SHRA FEW005 SCT012 BKN025 02/M01 Q1022;",
"01320099999","2010-11-16T19:50:00","4","61.8333333","6.1166667","60.0","SANDANE ANDA, NO","FM-15","ENSD ","V020","999,9,V,0005,1","00600,1,C,N","011265,1,N,1","+0020,1","-0010,1","99999,9","02,5,+00150,1,99,9","04,5,+00600,1,99,9","07,5,+00900,1,99,9",,"07,99,1,99,9,99,9,99999,9,99,9,99,9",,"10220,1,99999,9","80,1",,,"MET072METAR ENSD 161950Z VRB01KT 9999 -SHRA FEW005 SCT020 BKN030 02/M01 Q1022;",
"01320099999","2010-11-17T04:50:00","4","61.8333333","6.1166667","60.0","SANDANE ANDA, NO","FM-15","ENSD ","V020","999,9,V,0005,1","22000,1,9,N","011265,1,N,1","+0010,1","-0020,1","99999,9","02,5,+00450,1,99,9",,,,"02,99,1,99,9,99,9,99999,9,99,9,99,9",,"10240,1,99999,9",,,,"MET052METAR ENSD 170450Z VRB01KT 9999 FEW015 01/M02 Q1024;",
"01320099999","2010-11-17T05:50:00","4","61.8333333","6.1166667","60.0","SANDANE ANDA, NO","FM-15","ENSD ","V020","999,9,C,0000,1","22000,1,9,N","011265,1,N,1","+0010,1","-0020,1","99999,9","02,5,+00450,1,99,9",,,,"02,99,1,99,9,99,9,99999,9,99,9,99,9",,"10240,1,99999,9",,,,"MET052METAR ENSD 170550Z 00000KT 9999 FEW015 01/M02 Q1024;",
"01320099999","2010-11-17T06:50:00","4","61.8333333","6.1166667","60.0","SANDANE ANDA, NO","FM-15","ENSD ","V020","999,9,C,0000,1","22000,1,9,N","011265,1,N,1","+0000,1","-0030,1","99999,9","02,5,+00030,1,99,9",,,,"02,99,1,99,9,99,9,99999,9,99,9,99,9",,"10240,1,99999,9",,,,"MET053METAR ENSD 170650Z 00000KT 9999 FEW001 M00/M03 Q1024;",
"01320099999","2010-11-17T07:50:00","4","61.8333333","6.1166667","60.0","SANDANE ANDA, NO","FM-15","ENSD ","V020","080,1,N,0021,1","22000,1,9,N","011265,1,N,1","+0010,1","-0010,1","99999,9","02,5,+00030,1,99,9",,,,"02,99,1,99,9,99,9,99999,9,99,9,99,9",,"10240,1,99999,9",,,,"MET052METAR ENSD 170750Z 08004KT 9999 FEW001 01/M01 Q1024;",
"01320099999","2010-11-17T08:50:00","4","61.8333333","6.1166667","60.0","SANDANE ANDA, NO","FM-15","ENSD ","V020","999,9,V,0010,1","22000,1,9,N","011265,1,N,1","+0000,1","-0030,1","99999,9","02,5,+00030,1,99,9",,,,"02,99,1,99,9,99,9,99999,9,99,9,99,9",,"10251,1,99999,9",,,,"MET053METAR ENSD 170850Z VRB02KT 9999 FEW001 M00/M03 Q1025;",
"01320099999","2010-11-17T09:50:00","4","61.8333333","6.1166667","60.0","SANDANE ANDA, NO","FM-15","ENSD ","V020","999,9,V,0005,1","99999,9,9,Y","009900,1,N,1","+0000,1","-0030,1","99999,9",,,,,,,"10251,1,99999,9",,,,"MET047METAR ENSD 170950Z VRB01KT CAVOK M00/M03 Q1025;",
"01320099999","2010-11-17T10:50:00","4","61.8333333","6.1166667","60.0","SANDANE ANDA, NO","FM-15","ENSD ","V020","999,9,V,0010,1","99999,9,9,Y","009900,1,N,1","+0010,1","-0030,1","99999,9",,,,,,,"10251,1,99999,9",,,,"MET046METAR ENSD 171050Z VRB02KT CAVOK 01/M03 Q1025;",
"01320099999","2010-11-17T11:50:00","4","61.8333333","6.1166667","60.0","SANDANE ANDA, NO","FM-15","ENSD ","V020","999,9,V,0005,1","99999,9,9,Y","009900,1,N,1","+0010,1","-0030,1","99999,9",,,,,,,"10251,1,99999,9",,,,"MET046METAR ENSD 171150Z VRB01KT CAVOK 01/M03 Q1025;",
"01320099999","2010-11-17T12:50:00","4","61.8333333","6.1166667","60.0","SANDANE ANDA, NO","FM-15","ENSD ","V020","999,9,V,0015,1","99999,9,9,Y","009900,1,N,1","+0020,1","-0030,1","99999,9",,,,,,,"10251,1,99999,9",,,,"MET046METAR ENSD 171250Z VRB03KT CAVOK 02/M03 Q1025;",
"01320099999","2010-11-17T13:50:00","4","61.8333333","6.1166667","60.0","SANDANE ANDA, NO","FM-15","ENSD ","V020","080,1,N,0015,1","99999,9,9,Y","009900,1,N,1","+0000,1","-0030,1","99999,9",,,,,,,"10251,1,99999,9",,,,"MET054METAR ENSD 171350Z 08003KT 060V200 CAVOK 00/M03 Q1025;",
"01320099999","2010-11-17T14:50:00","4","61.8333333","6.1166667","60.0","SANDANE ANDA, NO","FM-15","ENSD ","V020","070,1,N,0026,1","99999,9,9,Y","009900,1,N,1","+0000,1","-0030,1","99999,9",,,,,,,"10251,1,99999,9",,,,"MET046METAR ENSD 171450Z 07005KT CAVOK 00/M03 Q1025;",
"01320099999","2010-11-17T15:50:00","4","61.8333333","6.1166667","60.0","SANDANE ANDA, NO","FM-15","ENSD ","V020","999,9,V,0010,1","99999,9,9,Y","009900,1,N,1","+0000,1","-0040,1","99999,9",,,,,,,"10251,1,99999,9",,,,"MET047METAR ENSD 171550Z VRB02KT CAVOK M00/M04 Q1025;",
"01320099999","2010-11-17T16:50:00","4","61.8333333","6.1166667","60.0","SANDANE ANDA, NO","FM-15","ENSD ","V020","100,1,N,0026,1","99999,9,9,Y","009900,1,N,1","+0000,1","-0050,1","99999,9",,,,,,,"10251,1,99999,9",,,,"MET046METAR ENSD 171650Z 10005KT CAVOK 00/M05 Q1025;",
"01320099999","2010-11-17T17:50:00","4","61.8333333","6.1166667","60.0","SANDANE ANDA, NO","FM-15","ENSD ","V020","999,9,V,0010,1","99999,9,9,Y","009900,1,N,1","-0010,1","-0050,1","99999,9",,,,,,,"10251,1,99999,9",,,,"MET047METAR ENSD 171750Z VRB02KT CAVOK M01/M05 Q1025;",
"01320099999","2010-11-17T18:50:00","4","61.8333333","6.1166667","60.0","SANDANE ANDA, NO","FM-15","ENSD ","V020","999,9,V,0010,1","99999,9,9,Y","009900,1,N,1","+0000,1","-0050,1","99999,9",,,,,,,"10251,1,99999,9",,,,"MET047METAR ENSD 171850Z VRB02KT CAVOK M00/M05 Q1025;",
"01320099999","2010-11-17T19:50:00","4","61.8333333","6.1166667","60.0","SANDANE ANDA, NO","FM-15","ENSD ","V020","110,1,N,0021,1","99999,9,9,Y","009900,1,N,1","+0000,1","-0050,1","99999,9",,,,,,,"10251,1,99999,9",,,,"MET047METAR ENSD 171950Z 11004KT CAVOK M00/M05 Q1025;",
"01320099999","2010-11-18T05:20:00","4","61.8333333","6.1166667","60.0","SANDANE ANDA, NO","FM-15","ENSD ","V020","999,9,V,0005,1","99999,9,9,Y","009900,1,N,1","-0030,1","-0060,1","99999,9",,,,,,,"10220,1,99999,9",,,,"MET047METAR ENSD 180520Z VRB01KT CAVOK M03/M06 Q1022;",
"01320099999","2010-11-18T05:50:00","4","61.8333333","6.1166667","60.0","SANDANE ANDA, NO","FM-15","ENSD ","V020","999,9,V,0005,1","99999,9,9,Y","009900,1,N,1","-0030,1","-0070,1","99999,9",,,,,,,"10220,1,99999,9",,,,"MET047METAR ENSD 180550Z VRB01KT CAVOK M03/M07 Q1022;",
"01320099999","2010-11-18T06:50:00","4","61.8333333","6.1166667","60.0","SANDANE ANDA, NO","FM-15","ENSD ","V020","999,9,C,0000,1","99999,9,9,Y","009900,1,N,1","-0030,1","-0060,1","99999,9",,,,,,,"10220,1,99999,9",,,,"MET047METAR ENSD 180650Z 00000KT CAVOK M03/M06 Q1022;",
"01320099999","2010-11-18T07:50:00","4","61.8333333","6.1166667","60.0","SANDANE ANDA, NO","FM-15","ENSD ","V020","999,9,C,0000,1","99999,9,9,Y","009900,1,N,1","-0030,1","-0070,1","99999,9",,,,,,,"10220,1,99999,9",,,,"MET047METAR ENSD 180750Z 00000KT CAVOK M03/M07 Q1022;",
"01320099999","2010-11-18T08:50:00","4","61.8333333","6.1166667","60.0","SANDANE ANDA, NO","FM-15","ENSD ","V020","999,9,V,0005,1","99999,9,9,Y","009900,1,N,1","-0030,1","-0070,1","99999,9",,,,,,,"10220,1,99999,9",,,,"MET047METAR ENSD 180850Z VRB01KT CAVOK M03/M07 Q1022;",
"01320099999","2010-11-18T09:50:00","4","61.8333333","6.1166667","60.0","SANDANE ANDA, NO","FM-15","ENSD ","V020","270,1,N,0010,1","99999,9,9,Y","009900,1,N,1","-0030,1","-0070,1","99999,9",,,,,,,"10220,1,99999,9",,,,"MET047METAR ENSD 180950Z 27002KT CAVOK M03/M07 Q1022;",
"01320099999","2010-11-18T10:50:00","4","61.8333333","6.1166667","60.0","SANDANE ANDA, NO","FM-15","ENSD ","V020","999,9,C,0000,1","99999,9,9,Y","009900,1,N,1","-0030,1","-0070,1","99999,9",,,,,,,"10210,1,99999,9",,,,"MET047METAR ENSD 181050Z 00000KT CAVOK M03/M07 Q1021;",
"01320099999","2010-11-18T11:50:00","4","61.8333333","6.1166667","60.0","SANDANE ANDA, NO","FM-15","ENSD ","V020","999,9,V,0005,1","99999,9,9,Y","009900,1,N,1","-0020,1","-0060,1","99999,9",,,,,,,"10210,1,99999,9",,,,"MET047METAR ENSD 181150Z VRB01KT CAVOK M02/M06 Q1021;",
"01320099999","2010-11-18T12:50:00","4","61.8333333","6.1166667","60.0","SANDANE ANDA, NO","FM-15","ENSD ","V020","999,9,V,0010,1","99999,9,9,Y","009900,1,N,1","-0010,1","-0060,1","99999,9",,,,,,,"10210,1,99999,9",,,,"MET047METAR ENSD 181250Z VRB02KT CAVOK M01/M06 Q1021;",
"01320099999","2010-11-18T13:50:00","4","61.8333333","6.1166667","60.0","SANDANE ANDA, NO","FM-15","ENSD ","V020","999,9,V,0005,1","99999,9,9,Y","009900,1,N,1","-0020,1","-0060,1","99999,9",,,,,,,"10200,1,99999,9",,,,"MET047METAR ENSD 181350Z VRB01KT CAVOK M02/M06 Q1020;",
"01320099999","2010-11-18T14:50:00","4","61.8333333","6.1166667","60.0","SANDANE ANDA, NO","FM-15","ENSD ","V020","999,9,V,0010,1","99999,9,9,Y","009900,1,N,1","-0020,1","-0060,1","99999,9",,,,,,,"10210,1,99999,9",,,,"MET047METAR ENSD 181450Z VRB02KT CAVOK M02/M06 Q1021;",
"01320099999","2010-11-18T15:50:00","4","61.8333333","6.1166667","60.0","SANDANE ANDA, NO","FM-15","ENSD ","V020","999,9,V,0005,1","99999,9,9,Y","009900,1,N,1","-0030,1","-0060,1","99999,9",,,,,,,"10200,1,99999,9",,,,"MET047METAR ENSD 181550Z VRB01KT CAVOK M03/M06 Q1020;",
"01320099999","2010-11-18T16:50:00","4","61.8333333","6.1166667","60.0","SANDANE ANDA, NO","FM-15","ENSD ","V020","999,9,C,0000,1","99999,9,9,Y","009900,1,N,1","-0030,1","-0060,1","99999,9",,,,,,,"10200,1,99999,9",,,,"MET047METAR ENSD 181650Z 00000KT CAVOK M03/M06 Q1020;",
"01320099999","2010-11-18T17:50:00","4","61.8333333","6.1166667","60.0","SANDANE ANDA, NO","FM-15","ENSD ","V020","999,9,V,0010,1","99999,9,9,Y","009900,1,N,1","-0030,1","-0070,1","99999,9",,,,,,,"10210,1,99999,9",,,,"MET047METAR ENSD 181750Z VRB02KT CAVOK M03/M07 Q1021;",
"01320099999","2010-11-18T18:50:00","4","61.8333333","6.1166667","60.0","SANDANE ANDA, NO","FM-15","ENSD ","V020","999,9,V,0005,1","99999,9,9,Y","009900,1,N,1","-0030,1","-0070,1","99999,9",,,,,,,"10210,1,99999,9",,,,"MET047METAR ENSD 181850Z VRB01KT CAVOK M03/M07 Q1021;",
"01320099999","2010-11-18T19:50:00","4","61.8333333","6.1166667","60.0","SANDANE ANDA, NO","FM-15","ENSD ","V020","999,9,V,0005,1","99999,9,9,Y","009900,1,N,1","-0030,1","-0070,1","99999,9",,,,,,,"10210,1,99999,9",,,,"MET047METAR ENSD 181950Z VRB01KT CAVOK M03/M07 Q1021;",
"01320099999","2010-11-19T05:20:00","4","61.8333333","6.1166667","60.0","SANDANE ANDA, NO","FM-15","ENSD ","V020","250,1,N,0015,1","99999,9,9,Y","009900,1,N,1","-0040,1","-0080,1","99999,9",,,,,,,"10210,1,99999,9",,,,"MET047METAR ENSD 190520Z 25003KT CAVOK M04/M08 Q1021;",
"01320099999","2010-11-19T06:50:00","4","61.8333333","6.1166667","60.0","SANDANE ANDA, NO","FM-15","ENSD ","V020","999,9,V,0010,1","99999,9,9,Y","009900,1,N,1","-0040,1","-0090,1","99999,9",,,,,,,"10220,1,99999,9",,,,"MET047METAR ENSD 190650Z VRB02KT CAVOK M04/M09 Q1022;",
"01320099999","2010-11-19T07:50:00","4","61.8333333","6.1166667","60.0","SANDANE ANDA, NO","FM-15","ENSD ","V020","999,9,V,0005,1","99999,9,9,Y","009900,1,N,1","-0040,1","-0090,1","99999,9",,,,,,,"10230,1,99999,9",,,,"MET047METAR ENSD 190750Z VRB01KT CAVOK M04/M09 Q1023;",
"01320099999","2010-11-19T08:50:00","4","61.8333333","6.1166667","60.0","SANDANE ANDA, NO","FM-15","ENSD ","V020","999,9,V,0005,1","99999,9,9,Y","009900,1,N,1","-0050,1","-0090,1","99999,9",,,,,,,"10230,1,99999,9",,,,"MET047METAR ENSD 190850Z VRB01KT CAVOK M05/M09 Q1023;",
"01320099999","2010-11-19T09:50:00","4","61.8333333","6.1166667","60.0","SANDANE ANDA, NO","FM-15","ENSD ","V020","999,9,V,0005,1","99999,9,9,Y","009900,1,N,1","-0040,1","-0080,1","99999,9",,,,,,,"10230,1,99999,9",,,,"MET047METAR ENSD 190950Z VRB01KT CAVOK M04/M08 Q1023;",
"01320099999","2010-11-19T10:50:00","4","61.8333333","6.1166667","60.0","SANDANE ANDA, NO","FM-15","ENSD ","V020","999,9,V,0010,1","99999,9,9,Y","009900,1,N,1","-0030,1","-0090,1","99999,9",,,,,,,"10230,1,99999,9",,,,"MET047METAR ENSD 191050Z VRB02KT CAVOK M03/M09 Q1023;",
"01320099999","2010-11-19T11:50:00","4","61.8333333","6.1166667","60.0","SANDANE ANDA, NO","FM-15","ENSD ","V020","210,1,N,0015,1","99999,9,9,Y","009900,1,N,1","-0020,1","-0080,1","99999,9",,,,,,,"10230,1,99999,9",,,,"MET047METAR ENSD 191150Z 21003KT CAVOK M02/M08 Q1023;",
"01320099999","2010-11-19T12:50:00","4","61.8333333","6.1166667","60.0","SANDANE ANDA, NO","FM-15","ENSD ","V020","999,9,V,0010,1","99999,9,9,Y","009900,1,N,1","-0010,1","-0070,1","99999,9",,,,,,,"10230,1,99999,9",,,,"MET047METAR ENSD 191250Z VRB02KT CAVOK M01/M07 Q1023;",
"01320099999","2010-11-19T13:50:00","4","61.8333333","6.1166667","60.0","SANDANE ANDA, NO","FM-15","ENSD ","V020","999,9,V,0010,1","99999,9,9,Y","009900,1,N,1","-0020,1","-0070,1","99999,9",,,,,,,"10230,1,99999,9",,,,"MET047METAR ENSD 191350Z VRB02KT CAVOK M02/M07 Q1023;",
"01320099999","2010-11-19T14:50:00","4","61.8333333","6.1166667","60.0","SANDANE ANDA, NO","FM-15","ENSD ","V020","999,9,V,0010,1","99999,9,9,Y","009900,1,N,1","-0030,1","-0080,1","99999,9",,,,,,,"10230,1,99999,9",,,,"MET047METAR ENSD 191450Z VRB02KT CAVOK M03/M08 Q1023;",
"01320099999","2010-11-19T15:50:00","4","61.8333333","6.1166667","60.0","SANDANE ANDA, NO","FM-15","ENSD ","V020","999,9,V,0005,1","99999,9,9,Y","009900,1,N,1","-0030,1","-0080,1","99999,9",,,,,,,"10230,1,99999,9",,,,"MET047METAR ENSD 191550Z VRB01KT CAVOK M03/M08 Q1023;",
"01320099999","2010-11-19T16:50:00","4","61.8333333","6.1166667","60.0","SANDANE ANDA, NO","FM-15","ENSD ","V020","999,9,V,0005,1","99999,9,9,Y","009900,1,N,1","-0030,1","-0080,1","99999,9",,,,,,,"10230,1,99999,9",,,,"MET047METAR ENSD 191650Z VRB01KT CAVOK M03/M08 Q1023;",
"01320099999","2010-11-19T17:50:00","4","61.8333333","6.1166667","60.0","SANDANE ANDA, NO","FM-15","ENSD ","V020","999,9,V,0005,1","99999,9,9,Y","009900,1,N,1","-0030,1","-0080,1","99999,9",,,,,,,"10240,1,99999,9",,,,"MET047METAR ENSD 191750Z VRB01KT CAVOK M03/M08 Q1024;",
"01320099999","2010-11-19T19:50:00","4","61.8333333","6.1166667","60.0","SANDANE ANDA, NO","FM-15","ENSD ","V020","999,9,V,0005,1","99999,9,9,Y","009900,1,N,1","-0040,1","-0090,1","99999,9",,,,,,,"10240,1,99999,9",,,,"MET047METAR ENSD 191950Z VRB01KT CAVOK M04/M09 Q1024;",
"01320099999","2010-11-20T05:50:00","4","61.8333333","6.1166667","60.0","SANDANE ANDA, NO","FM-15","ENSD ","V020","150,1,N,0015,1","22000,1,9,N","011265,1,N,1","-0060,1","-0100,1","99999,9","02,5,+00600,1,99,9",,,,"02,99,1,99,9,99,9,99999,9,99,9,99,9",,"10240,1,99999,9",,,,"MET053METAR ENSD 200550Z 15003KT 9999 FEW020 M06/M10 Q1024;",
"01320099999","2010-11-20T06:50:00","4","61.8333333","6.1166667","60.0","SANDANE ANDA, NO","FM-15","ENSD ","V020","240,1,N,0015,1","22000,1,9,N","011265,1,N,1","-0050,1","-0100,1","99999,9","02,5,+00600,1,99,9",,,,"02,99,1,99,9,99,9,99999,9,99,9,99,9",,"10240,1,99999,9",,,,"MET053METAR ENSD 200650Z 24003KT 9999 FEW020 M05/M10 Q1024;",
"01320099999","2010-11-20T07:50:00","4","61.8333333","6.1166667","60.0","SANDANE ANDA, NO","FM-15","ENSD ","V020","240,1,N,0021,1","99999,9,9,Y","009900,1,N,1","-0060,1","-0100,1","99999,9",,,,,,,"10240,1,99999,9",,,,"MET047METAR ENSD 200750Z 24004KT CAVOK M06/M10 Q1024;",
"01320099999","2010-11-20T08:50:00","4","61.8333333","6.1166667","60.0","SANDANE ANDA, NO","FM-15","ENSD ","V020","170,1,N,0021,1","99999,9,9,Y","009900,1,N,1","-0050,1","-0100,1","99999,9",,,,,,,"10240,1,99999,9",,,,"MET047METAR ENSD 200850Z 17004KT CAVOK M05/M10 Q1024;",
"01320099999","2010-11-20T09:50:00","4","61.8333333","6.1166667","60.0","SANDANE ANDA, NO","FM-15","ENSD ","V020","170,1,N,0015,1","99999,9,9,Y","009900,1,N,1","-0050,1","-0100,1","99999,9",,,,,,,"10240,1,99999,9",,,,"MET047METAR ENSD 200950Z 17003KT CAVOK M05/M10 Q1024;",
"01320099999","2010-11-20T10:50:00","4","61.8333333","6.1166667","60.0","SANDANE ANDA, NO","FM-15","ENSD ","V020","999,9,V,0005,1","99999,9,9,Y","009900,1,N,1","-0050,1","-0090,1","99999,9",,,,,,,"10240,1,99999,9",,,,"MET047METAR ENSD 201050Z VRB01KT CAVOK M05/M09 Q1024;",
"01320099999","2010-11-20T11:50:00","4","61.8333333","6.1166667","60.0","SANDANE ANDA, NO","FM-15","ENSD ","V020","999,9,V,0010,1","99999,9,9,Y","009900,1,N,1","-0050,1","-0100,1","99999,9",,,,,,,"10240,1,99999,9",,,,"MET047METAR ENSD 201150Z VRB02KT CAVOK M05/M10 Q1024;",
"01320099999","2010-11-20T12:50:00","4","61.8333333","6.1166667","60.0","SANDANE ANDA, NO","FM-15","ENSD ","V020","999,9,V,0005,1","99999,9,9,Y","009900,1,N,1","-0050,1","-0100,1","99999,9",,,,,,,"10230,1,99999,9",,,,"MET047METAR ENSD 201250Z VRB01KT CAVOK M05/M10 Q1023;",
"01320099999","2010-11-20T13:50:00","4","61.8333333","6.1166667","60.0","SANDANE ANDA, NO","FM-15","ENSD ","V020","999,9,C,0000,1","99999,9,9,Y","009900,1,N,1","-0040,1","-0090,1","99999,9",,,,,,,"10230,1,99999,9",,,,"MET047METAR ENSD 201350Z 00000KT CAVOK M04/M09 Q1023;",
"01320099999","2010-11-20T14:50:00","4","61.8333333","6.1166667","60.0","SANDANE ANDA, NO","FM-15","ENSD ","V020","999,9,V,0010,1","99999,9,9,Y","009900,1,N,1","-0050,1","-0090,1","99999,9",,,,,,,"10230,1,99999,9",,,,"MET047METAR ENSD 201450Z VRB02KT CAVOK M05/M09 Q1023;",
"01320099999","2010-11-21T09:50:00","4","61.8333333","6.1166667","60.0","SANDANE ANDA, NO","FM-15","ENSD ","V020","999,9,C,0000,1","02400,5,9,N","999999,9,N,1","-0020,1","-0070,1","99999,9","07,5,+02400,5,99,9",,,,,,"10240,1,99999,9",,,,"MET048METAR ENSD 210950Z 00000KT BKN080 M02/M07 Q1024;",
"01320099999","2010-11-21T10:50:00","4","61.8333333","6.1166667","60.0","SANDANE ANDA, NO","FM-15","ENSD ","V020","999,9,C,0000,1","02400,5,9,N","999999,9,N,1","-0020,1","-0070,1","99999,9","07,5,+02400,5,99,9",,,,,,"10240,1,99999,9",,,,"MET048METAR ENSD 211050Z 00000KT BKN080 M02/M07 Q1024;",
"01320099999","2010-11-21T11:50:00","4","61.8333333","6.1166667","60.0","SANDANE ANDA, NO","FM-15","ENSD ","V020","999,9,V,0010,1","02400,5,9,N","999999,9,N,1","-0010,1","-0070,1","99999,9","07,5,+02400,5,99,9",,,,,,"10240,1,99999,9",,,,"MET048METAR ENSD 211150Z VRB02KT BKN080 M01/M07 Q1024;",
"01320099999","2010-11-21T12:50:00","4","61.8333333","6.1166667","60.0","SANDANE ANDA, NO","FM-15","ENSD ","V020","999,9,V,0010,1","02400,5,9,N","999999,9,N,1","-0010,1","-0060,1","99999,9","07,5,+02400,5,99,9",,,,,,"10240,1,99999,9",,,,"MET048METAR ENSD 211250Z VRB02KT BKN080 M01/M06 Q1024;",
"01320099999","2010-11-21T14:50:00","4","61.8333333","6.1166667","60.0","SANDANE ANDA, NO","FM-15","ENSD ","V020","999,9,V,0005,1","02400,5,9,N","999999,9,N,1","-0010,1","-0060,1","99999,9","07,5,+02400,5,99,9",,,,,,"10230,1,99999,9",,,,"MET048METAR ENSD 211450Z VRB01KT BKN080 M01/M06 Q1023;",
"01320099999","2010-11-21T15:50:00","4","61.8333333","6.1166667","60.0","SANDANE ANDA, NO","FM-15","ENSD ","V020","999,9,V,0005,1","02400,5,9,N","999999,9,N,1","-0020,1","-0070,1","99999,9","07,5,+02400,5,99,9",,,,,,"10230,1,99999,9",,,,"MET048METAR ENSD 211550Z VRB01KT BKN080 M02/M07 Q1023;",
"01320099999","2010-11-21T16:50:00","4","61.8333333","6.1166667","60.0","SANDANE ANDA, NO","FM-15","ENSD ","V020","999,9,V,0010,1","02400,5,9,N","999999,9,N,1","-0020,1","-0060,1","99999,9","07,5,+02400,5,99,9",,,,,,"10240,1,99999,9",,,,"MET048METAR ENSD 211650Z VRB02KT BKN080 M02/M06 Q1024;",
"01320099999","2010-11-21T17:50:00","4","61.8333333","6.1166667","60.0","SANDANE ANDA, NO","FM-15","ENSD ","V020","999,9,V,0010,1","02400,5,9,N","999999,9,N,1","-0020,1","-0060,1","99999,9","07,5,+02400,5,99,9",,,,,,"10240,1,99999,9",,,,"MET048METAR ENSD 211750Z VRB02KT BKN080 M02/M06 Q1024;",
"01320099999","2010-11-21T18:50:00","4","61.8333333","6.1166667","60.0","SANDANE ANDA, NO","FM-15","ENSD ","V020","999,9,V,0010,1","02400,5,9,N","999999,9,N,1","-0020,1","-0060,1","99999,9","07,5,+02400,5,99,9",,,,,,"10240,1,99999,9",,,,"MET048METAR ENSD 211850Z VRB02KT BKN080 M02/M06 Q1024;",
"01320099999","2010-11-21T19:50:00","4","61.8333333","6.1166667","60.0","SANDANE ANDA, NO","FM-15","ENSD ","V020","999,9,V,0005,1","02400,5,9,N","999999,9,N,1","-0020,1","-0060,1","99999,9","07,5,+02400,5,99,9",,,,,,"10240,1,99999,9",,,,"MET048METAR ENSD 211950Z VRB01KT BKN080 M02/M06 Q1024;",
"01320099999","2010-11-21T20:50:00","4","61.8333333","6.1166667","60.0","SANDANE ANDA, NO","FM-15","ENSD ","V020","999,9,V,0005,1","02400,5,9,N","999999,9,N,1","-0010,1","-0060,1","99999,9","07,5,+02400,5,99,9",,,,,,"10240,1,99999,9",,,,"MET048METAR ENSD 212050Z VRB01KT BKN080 M01/M06 Q1024;",
"01320099999","2010-11-22T04:50:00","4","61.8333333","6.1166667","60.0","SANDANE ANDA, NO","FM-15","ENSD ","V020","999,9,C,0000,1","03000,1,C,N","011265,1,N,1","-0020,1","-0050,1","99999,9","07,5,+03000,1,99,9",,,,"07,99,1,99,9,99,9,99999,9,99,9,99,9",,"10200,1,99999,9",,,,"MET053METAR ENSD 220450Z 00000KT 9999 BKN100 M02/M05 Q1020;",
"01320099999","2010-11-22T05:50:00","4","61.8333333","6.1166667","60.0","SANDANE ANDA, NO","FM-15","ENSD ","V020","999,9,V,0005,1","03000,1,C,N","011265,1,N,1","-0020,1","-0050,1","99999,9","07,5,+03000,1,99,9",,,,"07,99,1,99,9,99,9,99999,9,99,9,99,9",,"10200,1,99999,9",,,,"MET053METAR ENSD 220550Z VRB01KT 9999 BKN100 M02/M05 Q1020;",
"01320099999","2010-11-22T06:50:00","4","61.8333333","6.1166667","60.0","SANDANE ANDA, NO","FM-15","ENSD ","V020","999,9,V,0005,1","99999,9,9,Y","009900,1,N,1","-0020,1","-0050,1","99999,9",,,,,,,"10190,1,99999,9",,,,"MET047METAR ENSD 220650Z VRB01KT CAVOK M02/M05 Q1019;",
"01320099999","2010-11-22T08:50:00","4","61.8333333","6.1166667","60.0","SANDANE ANDA, NO","FM-15","ENSD ","V020","999,9,C,0000,1","99999,9,9,Y","009900,1,N,1","-0020,1","-0050,1","99999,9",,,,,,,"10190,1,99999,9",,,,"MET047METAR ENSD 220850Z 00000KT CAVOK M02/M05 Q1019;",
"01320099999","2010-11-22T09:50:00","4","61.8333333","6.1166667","60.0","SANDANE ANDA, NO","FM-15","ENSD ","V020","999,9,V,0005,1","99999,9,9,Y","009900,1,N,1","-0030,1","-0050,1","99999,9",,,,,,,"10180,1,99999,9",,,,"MET047METAR ENSD 220950Z VRB01KT CAVOK M03/M05 Q1018;",
"01320099999","2010-11-22T10:50:00","4","61.8333333","6.1166667","60.0","SANDANE ANDA, NO","FM-15","ENSD ","V020","999,9,C,0000,1","99999,9,9,Y","009900,1,N,1","-0020,1","-0050,1","99999,9",,,,,,,"10180,1,99999,9",,,,"MET047METAR ENSD 221050Z 00000KT CAVOK M02/M05 Q1018;",
"01320099999","2010-11-22T11:50:00","4","61.8333333","6.1166667","60.0","SANDANE ANDA, NO","FM-15","ENSD ","V020","999,9,V,0005,1","99999,9,9,Y","009900,1,N,1","-0020,1","-0050,1","99999,9",,,,,,,"10169,1,99999,9",,,,"MET047METAR ENSD 221150Z VRB01KT CAVOK M02/M05 Q1017;",
"01320099999","2010-11-22T12:50:00","4","61.8333333","6.1166667","60.0","SANDANE ANDA, NO","FM-15","ENSD ","V020","999,9,C,0000,1","99999,9,9,Y","009900,1,N,1","-0020,1","-0050,1","99999,9",,,,,,,"10169,1,99999,9",,,,"MET047METAR ENSD 221250Z 00000KT CAVOK M02/M05 Q1017;",
"01320099999","2010-11-22T13:50:00","4","61.8333333","6.1166667","60.0","SANDANE ANDA, NO","FM-15","ENSD ","V020","999,9,V,0005,1","99999,9,9,Y","009900,1,N,1","-0030,1","-0050,1","99999,9",,,,,,,"10159,1,99999,9",,,,"MET047METAR ENSD 221350Z VRB01KT CAVOK M03/M05 Q1016;",
"01320099999","2010-11-22T14:50:00","4","61.8333333","6.1166667","60.0","SANDANE ANDA, NO","FM-15","ENSD ","V020","999,9,C,0000,1","99999,9,9,Y","009900,1,N,1","-0030,1","-0050,1","99999,9",,,,,,,"10159,1,99999,9",,,,"MET047METAR ENSD 221450Z 00000KT CAVOK M03/M05 Q1016;",
"01320099999","2010-11-22T15:50:00","4","61.8333333","6.1166667","60.0","SANDANE ANDA, NO","FM-15","ENSD ","V020","999,9,V,0010,1","99999,9,9,Y","009900,1,N,1","-0030,1","-0060,1","99999,9",,,,,,,"10159,1,99999,9",,,,"MET047METAR ENSD 221550Z VRB02KT CAVOK M03/M06 Q1016;",
"01320099999","2010-11-22T16:50:00","4","61.8333333","6.1166667","60.0","SANDANE ANDA, NO","FM-15","ENSD ","V020","999,9,V,0005,1","99999,9,9,Y","009900,1,N,1","-0030,1","-0060,1","99999,9",,,,,,,"10159,1,99999,9",,,,"MET047METAR ENSD 221650Z VRB01KT CAVOK M03/M06 Q1016;",
"01320099999","2010-11-22T18:50:00","4","61.8333333","6.1166667","60.0","SANDANE ANDA, NO","FM-15","ENSD ","V020","160,1,N,0015,1","99999,9,9,Y","009900,1,N,1","-0030,1","-0060,1","99999,9",,,,,,,"10149,1,99999,9",,,,"MET047METAR ENSD 221850Z 16003KT CAVOK M03/M06 Q1015;",
"01320099999","2010-11-22T19:50:00","4","61.8333333","6.1166667","60.0","SANDANE ANDA, NO","FM-15","ENSD ","V020","999,9,V,0005,1","99999,9,9,Y","009900,1,N,1","-0030,1","-0050,1","99999,9",,,,,,,"10149,1,99999,9",,,,"MET047METAR ENSD 221950Z VRB01KT CAVOK M03/M05 Q1015;",
"01320099999","2010-11-23T05:20:00","4","61.8333333","6.1166667","60.0","SANDANE ANDA, NO","FM-15","ENSD ","V020","999,9,V,0005,1","99999,9,9,Y","009900,1,N,1","-0040,1","-0070,1","99999,9",,,,,,,"10129,1,99999,9",,,,"MET047METAR ENSD 230520Z VRB01KT CAVOK M04/M07 Q1013;",
"01320099999","2010-11-23T06:50:00","4","61.8333333","6.1166667","60.0","SANDANE ANDA, NO","FM-15","ENSD ","V020","999,9,V,0005,1","99999,9,9,Y","009900,1,N,1","-0040,1","-0070,1","99999,9",,,,,,,"10129,1,99999,9",,,,"MET047METAR ENSD 230650Z VRB01KT CAVOK M04/M07 Q1013;",
"01320099999","2010-11-23T07:50:00","4","61.8333333","6.1166667","60.0","SANDANE ANDA, NO","FM-15","ENSD ","V020","999,9,V,0005,1","99999,9,9,Y","009900,1,N,1","-0040,1","-0070,1","99999,9",,,,,,,"10119,1,99999,9",,,,"MET047METAR ENSD 230750Z VRB01KT CAVOK M04/M07 Q1012;",
"01320099999","2010-11-23T08:50:00","4","61.8333333","6.1166667","60.0","SANDANE ANDA, NO","FM-15","ENSD ","V020","999,9,V,0005,1","99999,9,9,Y","009900,1,N,1","-0040,1","-0080,1","99999,9",,,,,,,"10119,1,99999,9",,,,"MET047METAR ENSD 230850Z VRB01KT CAVOK M04/M08 Q1012;",
"01320099999","2010-11-23T09:50:00","4","61.8333333","6.1166667","60.0","SANDANE ANDA, NO","FM-15","ENSD ","V020","320,1,N,0015,1","99999,9,9,Y","009900,1,N,1","-0040,1","-0080,1","99999,9",,,,,,,"10119,1,99999,9",,,,"MET047METAR ENSD 230950Z 32003KT CAVOK M04/M08 Q1012;",
"01320099999","2010-11-23T10:50:00","4","61.8333333","6.1166667","60.0","SANDANE ANDA, NO","FM-15","ENSD ","V020","999,9,V,0010,1","99999,9,9,Y","009900,1,N,1","-0040,1","-0080,1","99999,9",,,,,,,"10108,1,99999,9",,,,"MET047METAR ENSD 231050Z VRB02KT CAVOK M04/M08 Q1011;",
"01320099999","2010-11-23T11:50:00","4","61.8333333","6.1166667","60.0","SANDANE ANDA, NO","FM-15","ENSD ","V020","999,9,V,0005,1","99999,9,9,Y","009900,1,N,1","-0030,1","-0080,1","99999,9",,,,,,,"10108,1,99999,9",,,,"MET047METAR ENSD 231150Z VRB01KT CAVOK M03/M08 Q1011;",
"01320099999","2010-11-23T12:50:00","4","61.8333333","6.1166667","60.0","SANDANE ANDA, NO","FM-15","ENSD ","V020","999,9,V,0015,1","99999,9,9,Y","009900,1,N,1","-0020,1","-0070,1","99999,9",,,,,,,"10108,1,99999,9",,,,"MET047METAR ENSD 231250Z VRB03KT CAVOK M02/M07 Q1011;",
"01320099999","2010-11-23T13:50:00","4","61.8333333","6.1166667","60.0","SANDANE ANDA, NO","FM-15","ENSD ","V020","999,9,V,0010,1","99999,9,9,Y","009900,1,N,1","-0020,1","-0100,1","99999,9",,,,,,,"10108,1,99999,9",,,,"MET047METAR ENSD 231350Z VRB02KT CAVOK M02/M10 Q1011;",
"01320099999","2010-11-23T14:50:00","4","61.8333333","6.1166667","60.0","SANDANE ANDA, NO","FM-15","ENSD ","V020","150,1,N,0031,1","99999,9,9,Y","009900,1,N,1","-0020,1","-0100,1","99999,9",,,,,,,"10108,1,99999,9",,,,"MET047METAR ENSD 231450Z 15006KT CAVOK M02/M10 Q1011;",
"01320099999","2010-11-23T15:50:00","4","61.8333333","6.1166667","60.0","SANDANE ANDA, NO","FM-15","ENSD ","V020","110,1,N,0036,1","99999,9,9,Y","009900,1,N,1","-0010,1","-0130,1","99999,9",,,,,,,"10108,1,99999,9",,,,"MET047METAR ENSD 231550Z 11007KT CAVOK M01/M13 Q1011;",
"01320099999","2010-11-23T16:50:00","4","61.8333333","6.1166667","60.0","SANDANE ANDA, NO","FM-15","ENSD ","V020","140,1,N,0026,1","99999,9,9,Y","009900,1,N,1","-0020,1","-0110,1","99999,9",,,,,,,"10108,1,99999,9",,,,"MET047METAR ENSD 231650Z 14005KT CAVOK M02/M11 Q1011;",
"01320099999","2010-11-23T17:50:00","4","61.8333333","6.1166667","60.0","SANDANE ANDA, NO","FM-15","ENSD ","V020","130,1,N,0031,1","99999,9,9,Y","009900,1,N,1","-0020,1","-0140,1","99999,9",,,,,,,"10108,1,99999,9",,,,"MET047METAR ENSD 231750Z 13006KT CAVOK M02/M14 Q1011;",
"01320099999","2010-11-23T18:50:00","4","61.8333333","6.1166667","60.0","SANDANE ANDA, NO","FM-15","ENSD ","V020","140,1,N,0036,1","99999,9,9,Y","009900,1,N,1","-0020,1","-0130,1","99999,9",,,,,,,"10108,1,99999,9",,,,"MET047METAR ENSD 231850Z 14007KT CAVOK M02/M13 Q1011;",
"01320099999","2010-11-23T19:50:00","4","61.8333333","6.1166667","60.0","SANDANE ANDA, NO","FM-15","ENSD ","V020","130,1,N,0046,1","99999,9,9,Y","009900,1,N,1","-0040,1","-0110,1","99999,9",,,,,,,"10108,1,99999,9",,,,"MET047METAR ENSD 231950Z 13009KT CAVOK M04/M11 Q1011;",
"01320099999","2010-11-24T05:20:00","4","61.8333333","6.1166667","60.0","SANDANE ANDA, NO","FM-15","ENSD ","V020","999,9,V,0015,1","99999,9,9,Y","009900,1,N,1","-0050,1","-0120,1","99999,9",,,,,,,"10119,1,99999,9",,,,"MET047METAR ENSD 240520Z VRB03KT CAVOK M05/M12 Q1012;",
"01320099999","2010-11-24T05:50:00","4","61.8333333","6.1166667","60.0","SANDANE ANDA, NO","FM-15","ENSD ","V020","130,1,N,0031,1","99999,9,9,Y","009900,1,N,1","-0040,1","-0160,1","99999,9",,,,,,,"10119,1,99999,9",,,,"MET047METAR ENSD 240550Z 13006KT CAVOK M04/M16 Q1012;",
"01320099999","2010-11-24T06:50:00","4","61.8333333","6.1166667","60.0","SANDANE ANDA, NO","FM-15","ENSD ","V020","110,1,N,0031,1","99999,9,9,Y","009900,1,N,1","-0050,1","-0140,1","99999,9",,,,,,,"10119,1,99999,9",,,,"MET047METAR ENSD 240650Z 11006KT CAVOK M05/M14 Q1012;",
"01320099999","2010-11-24T07:50:00","4","61.8333333","6.1166667","60.0","SANDANE ANDA, NO","FM-15","ENSD ","V020","140,1,N,0036,1","99999,9,9,Y","009900,1,N,1","-0050,1","-0140,1","99999,9",,,,,,,"10119,1,99999,9",,,,"MET047METAR ENSD 240750Z 14007KT CAVOK M05/M14 Q1012;",
"01320099999","2010-11-24T08:50:00","4","61.8333333","6.1166667","60.0","SANDANE ANDA, NO","FM-15","ENSD ","V020","160,1,N,0021,1","99999,9,9,Y","009900,1,N,1","-0060,1","-0140,1","99999,9",,,,,,,"10119,1,99999,9",,,,"MET047METAR ENSD 240850Z 16004KT CAVOK M06/M14 Q1012;",
"01320099999","2010-11-24T09:50:00","4","61.8333333","6.1166667","60.0","SANDANE ANDA, NO","FM-15","ENSD ","V020","150,1,N,0041,1","99999,9,9,Y","009900,1,N,1","-0060,1","-0150,1","99999,9",,,,,,,"10119,1,99999,9",,,,"MET047METAR ENSD 240950Z 15008KT CAVOK M06/M15 Q1012;",
"01320099999","2010-11-24T10:50:00","4","61.8333333","6.1166667","60.0","SANDANE ANDA, NO","FM-15","ENSD ","V020","150,1,N,0041,1","99999,9,9,Y","009900,1,N,1","-0060,1","-0150,1","99999,9",,,,,,,"10119,1,99999,9",,,,"MET047METAR ENSD 241050Z 15008KT CAVOK M06/M15 Q1012;",
"01320099999","2010-11-24T11:50:00","4","61.8333333","6.1166667","60.0","SANDANE ANDA, NO","FM-15","ENSD ","V020","150,1,N,0041,1","99999,9,9,Y","009900,1,N,1","-0050,1","-0150,1","99999,9",,,,,,,"10119,1,99999,9",,,,"MET047METAR ENSD 241150Z 15008KT CAVOK M05/M15 Q1012;",
"01320099999","2010-11-24T12:50:00","4","61.8333333","6.1166667","60.0","SANDANE ANDA, NO","FM-15","ENSD ","V020","999,9,V,0015,1","99999,9,9,Y","009900,1,N,1","-0050,1","-0160,1","99999,9",,,,,,,"10119,1,99999,9",,,,"MET047METAR ENSD 241250Z VRB03KT CAVOK M05/M16 Q1012;",
"01320099999","2010-11-24T13:50:00","4","61.8333333","6.1166667","60.0","SANDANE ANDA, NO","FM-15","ENSD ","V020","999,9,V,0015,1","99999,9,9,Y","009900,1,N,1","-0050,1","-0140,1","99999,9",,,,,,,"10119,1,99999,9",,,,"MET047METAR ENSD 241350Z VRB03KT CAVOK M05/M14 Q1012;",
"01320099999","2010-11-24T14:50:00","4","61.8333333","6.1166667","60.0","SANDANE ANDA, NO","FM-15","ENSD ","V020","999,9,V,0010,1","99999,9,9,Y","009900,1,N,1","-0050,1","-0180,1","99999,9",,,,,,,"10119,1,99999,9",,,,"MET047METAR ENSD 241450Z VRB02KT CAVOK M05/M18 Q1012;",
"01320099999","2010-11-24T15:50:00","4","61.8333333","6.1166667","60.0","SANDANE ANDA, NO","FM-15","ENSD ","V020","160,1,N,0031,1","99999,9,9,Y","009900,1,N,1","-0050,1","-0190,1","99999,9",,,,,,,"10119,1,99999,9",,,,"MET047METAR ENSD 241550Z 16006KT CAVOK M05/M19 Q1012;",
"01320099999","2010-11-24T16:50:00","4","61.8333333","6.1166667","60.0","SANDANE ANDA, NO","FM-15","ENSD ","V020","140,1,N,0036,1","99999,9,9,Y","009900,1,N,1","-0050,1","-0180,1","99999,9",,,,,,,"10119,1,99999,9",,,,"MET047METAR ENSD 241650Z 14007KT CAVOK M05/M18 Q1012;",
"01320099999","2010-11-24T17:50:00","4","61.8333333","6.1166667","60.0","SANDANE ANDA, NO","FM-15","ENSD ","V020","140,1,N,0041,1","99999,9,9,Y","009900,1,N,1","-0060,1","-0160,1","99999,9",,,,,,,"10129,1,99999,9",,,,"MET047METAR ENSD 241750Z 14008KT CAVOK M06/M16 Q1013;",
"01320099999","2010-11-24T18:50:00","4","61.8333333","6.1166667","60.0","SANDANE ANDA, NO","FM-15","ENSD ","V020","140,1,N,0046,1","99999,9,9,Y","009900,1,N,1","-0060,1","-0150,1","99999,9",,,,,,,"10129,1,99999,9",,,,"MET047METAR ENSD 241850Z 14009KT CAVOK M06/M15 Q1013;",
"01320099999","2010-11-24T19:50:00","4","61.8333333","6.1166667","60.0","SANDANE ANDA, NO","FM-15","ENSD ","V020","140,1,N,0046,1","99999,9,9,Y","009900,1,N,1","-0070,1","-0150,1","99999,9",,,,,,,"10129,1,99999,9",,,,"MET047METAR ENSD 241950Z 14009KT CAVOK M07/M15 Q1013;",
"01320099999","2010-11-25T05:20:00","4","61.8333333","6.1166667","60.0","SANDANE ANDA, NO","FM-15","ENSD ","V020","130,1,N,0051,1","99999,9,9,Y","009900,1,N,1","-0070,1","-0160,1","99999,9",,,,,,,"10139,1,99999,9",,,,"MET047METAR ENSD 250520Z 13010KT CAVOK M07/M16 Q1014;",
"01320099999","2010-11-25T06:50:00","4","61.8333333","6.1166667","60.0","SANDANE ANDA, NO","FM-15","ENSD ","V020","140,1,N,0057,1","99999,9,9,Y","009900,1,N,1","-0080,1","-0160,1","99999,9",,,,,,,"10129,1,99999,9",,,,"MET047METAR ENSD 250650Z 14011KT CAVOK M08/M16 Q1013;",
"01320099999","2010-11-25T07:50:00","4","61.8333333","6.1166667","60.0","SANDANE ANDA, NO","FM-15","ENSD ","V020","140,1,N,0051,1","99999,9,9,Y","009900,1,N,1","-0080,1","-0170,1","99999,9",,,,,,,"10139,1,99999,9",,,,"MET047METAR ENSD 250750Z 14010KT CAVOK M08/M17 Q1014;",
"01320099999","2010-11-25T08:50:00","4","61.8333333","6.1166667","60.0","SANDANE ANDA, NO","FM-15","ENSD ","V020","140,1,N,0041,1","99999,9,9,Y","009900,1,N,1","-0080,1","-0160,1","99999,9",,,,,,,"10139,1,99999,9",,,,"MET047METAR ENSD 250850Z 14008KT CAVOK M08/M16 Q1014;",
"01320099999","2010-11-25T09:50:00","4","61.8333333","6.1166667","60.0","SANDANE ANDA, NO","FM-15","ENSD ","V020","140,1,N,0046,1","99999,9,9,Y","009900,1,N,1","-0080,1","-0170,1","99999,9",,,,,,,"10129,1,99999,9",,,,"MET047METAR ENSD 250950Z 14009KT CAVOK M08/M17 Q1013;",
"01320099999","2010-11-25T10:50:00","4","61.8333333","6.1166667","60.0","SANDANE ANDA, NO","FM-15","ENSD ","V020","150,1,N,0041,1","99999,9,9,Y","009900,1,N,1","-0070,1","-0150,1","99999,9",,,,,,,"10129,1,99999,9",,,,"MET047METAR ENSD 251050Z 15008KT CAVOK M07/M15 Q1013;",
"01320099999","2010-11-25T11:50:00","4","61.8333333","6.1166667","60.0","SANDANE ANDA, NO","FM-15","ENSD ","V020","150,1,N,0036,1","99999,9,9,Y","009900,1,N,1","-0070,1","-0160,1","99999,9",,,,,,,"10129,1,99999,9",,,,"MET047METAR ENSD 251150Z 15007KT CAVOK M07/M16 Q1013;",
"01320099999","2010-11-25T12:50:00","4","61.8333333","6.1166667","60.0","SANDANE ANDA, NO","FM-15","ENSD ","V020","140,1,N,0036,1","99999,9,9,Y","009900,1,N,1","-0060,1","-0160,1","99999,9",,,,,,,"10119,1,99999,9",,,,"MET047METAR ENSD 251250Z 14007KT CAVOK M06/M16 Q1012;",
"01320099999","2010-11-25T13:50:00","4","61.8333333","6.1166667","60.0","SANDANE ANDA, NO","FM-15","ENSD ","V020","140,1,N,0036,1","99999,9,9,Y","009900,1,N,1","-0070,1","-0170,1","99999,9",,,,,,,"10119,1,99999,9",,,,"MET047METAR ENSD 251350Z 14007KT CAVOK M07/M17 Q1012;",
"01320099999","2010-11-25T14:50:00","4","61.8333333","6.1166667","60.0","SANDANE ANDA, NO","FM-15","ENSD ","V020","140,1,N,0051,1","99999,9,9,Y","009900,1,N,1","-0070,1","-0150,1","99999,9",,,,,,,"10119,1,99999,9",,,,"MET047METAR ENSD 251450Z 14010KT CAVOK M07/M15 Q1012;",
"01320099999","2010-11-25T15:50:00","4","61.8333333","6.1166667","60.0","SANDANE ANDA, NO","FM-15","ENSD ","V020","140,1,N,0031,1","99999,9,9,Y","009900,1,N,1","-0080,1","-0160,1","99999,9",,,,,,,"10108,1,99999,9",,,,"MET047METAR ENSD 251550Z 14006KT CAVOK M08/M16 Q1011;",
"01320099999","2010-11-25T16:50:00","4","61.8333333","6.1166667","60.0","SANDANE ANDA, NO","FM-15","ENSD ","V020","150,1,N,0026,1","99999,9,9,Y","009900,1,N,1","-0070,1","-0170,1","99999,9",,,,,,,"10108,1,99999,9",,,,"MET055METAR ENSD 251650Z 15005KT 110V190 CAVOK M07/M17 Q1011;",
"01320099999","2010-11-25T17:50:00","4","61.8333333","6.1166667","60.0","SANDANE ANDA, NO","FM-15","ENSD ","V020","150,1,N,0021,1","99999,9,9,Y","009900,1,N,1","-0080,1","-0170,1","99999,9",,,,,,,"10108,1,99999,9",,,,"MET047METAR ENSD 251750Z 15004KT CAVOK M08/M17 Q1011;",
"01320099999","2010-11-25T18:50:00","4","61.8333333","6.1166667","60.0","SANDANE ANDA, NO","FM-15","ENSD ","V020","999,9,V,0021,1","99999,9,9,Y","009900,1,N,1","-0080,1","-0180,1","99999,9",,,,,,,"10108,1,99999,9",,,,"MET047METAR ENSD 251850Z VRB04KT CAVOK M08/M18 Q1011;",
"01320099999","2010-11-25T19:50:00","4","61.8333333","6.1166667","60.0","SANDANE ANDA, NO","FM-15","ENSD ","V020","140,1,N,0036,1","99999,9,9,Y","009900,1,N,1","-0080,1","-0170,1","99999,9",,,,,,,"10108,1,99999,9",,,,"MET047METAR ENSD 251950Z 14007KT CAVOK M08/M17 Q1011;",
"01320099999","2010-11-26T04:50:00","4","61.8333333","6.1166667","60.0","SANDANE ANDA, NO","FM-15","ENSD ","V020","130,1,N,0051,1","99999,9,9,Y","009900,1,N,1","-0080,1","-0180,1","99999,9",,,,,,,"10119,1,99999,9",,,,"MET047METAR ENSD 260450Z 13010KT CAVOK M08/M18 Q1012;",
"01320099999","2010-11-26T05:50:00","4","61.8333333","6.1166667","60.0","SANDANE ANDA, NO","FM-15","ENSD ","V020","140,1,N,0041,1","99999,9,9,Y","009900,1,N,1","-0090,1","-0190,1","99999,9",,,,,,,"10119,1,99999,9",,,,"MET047METAR ENSD 260550Z 14008KT CAVOK M09/M19 Q1012;",
"01320099999","2010-11-26T06:50:00","4","61.8333333","6.1166667","60.0","SANDANE ANDA, NO","FM-15","ENSD ","V020","140,1,N,0046,1","99999,9,9,Y","009900,1,N,1","-0090,1","-0170,1","99999,9",,,,,,,"10119,1,99999,9",,,,"MET047METAR ENSD 260650Z 14009KT CAVOK M09/M17 Q1012;",
"01320099999","2010-11-26T07:50:00","4","61.8333333","6.1166667","60.0","SANDANE ANDA, NO","FM-15","ENSD ","V020","140,1,N,0051,1","99999,9,9,Y","009900,1,N,1","-0090,1","-0190,1","99999,9",,,,,,,"10129,1,99999,9",,,,"MET047METAR ENSD 260750Z 14010KT CAVOK M09/M19 Q1013;",
"01320099999","2010-11-26T08:50:00","4","61.8333333","6.1166667","60.0","SANDANE ANDA, NO","FM-15","ENSD ","V020","130,1,N,0041,1","99999,9,9,Y","009900,1,N,1","-0090,1","-0210,1","99999,9",,,,,,,"10129,1,99999,9",,,,"MET047METAR ENSD 260850Z 13008KT CAVOK M09/M21 Q1013;",
"01320099999","2010-11-26T09:50:00","4","61.8333333","6.1166667","60.0","SANDANE ANDA, NO","FM-15","ENSD ","V020","140,1,N,0036,1","99999,9,9,Y","009900,1,N,1","-0080,1","-0190,1","99999,9",,,,,,,"10139,1,99999,9",,,,"MET047METAR ENSD 260950Z 14007KT CAVOK M08/M19 Q1014;",
"01320099999","2010-11-26T10:50:00","4","61.8333333","6.1166667","60.0","SANDANE ANDA, NO","FM-15","ENSD ","V020","140,1,N,0031,1","99999,9,9,Y","009900,1,N,1","-0080,1","-0200,1","99999,9",,,,,,,"10139,1,99999,9",,,,"MET047METAR ENSD 261050Z 14006KT CAVOK M08/M20 Q1014;",
"01320099999","2010-11-26T11:50:00","4","61.8333333","6.1166667","60.0","SANDANE ANDA, NO","FM-15","ENSD ","V020","130,1,N,0036,1","99999,9,9,Y","009900,1,N,1","-0080,1","-0170,1","99999,9",,,,,,,"10139,1,99999,9",,,,"MET047METAR ENSD 261150Z 13007KT CAVOK M08/M17 Q1014;",
"01320099999","2010-11-26T12:50:00","4","61.8333333","6.1166667","60.0","SANDANE ANDA, NO","FM-15","ENSD ","V020","140,1,N,0031,1","99999,9,9,Y","009900,1,N,1","-0080,1","-0150,1","99999,9",,,,,,,"10139,1,99999,9",,,,"MET047METAR ENSD 261250Z 14006KT CAVOK M08/M15 Q1014;",
"01320099999","2010-11-26T13:50:00","4","61.8333333","6.1166667","60.0","SANDANE ANDA, NO","FM-15","ENSD ","V020","150,1,N,0046,1","99999,9,9,Y","009900,1,N,1","-0080,1","-0160,1","99999,9",,,,,,,"10139,1,99999,9",,,,"MET047METAR ENSD 261350Z 15009KT CAVOK M08/M16 Q1014;",
"01320099999","2010-11-26T14:50:00","4","61.8333333","6.1166667","60.0","SANDANE ANDA, NO","FM-15","ENSD ","V020","140,1,N,0046,1","99999,9,9,Y","009900,1,N,1","-0090,1","-0160,1","99999,9",,,,,,,"10149,1,99999,9",,,,"MET047METAR ENSD 261450Z 14009KT CAVOK M09/M16 Q1015;",
"01320099999","2010-11-26T15:50:00","4","61.8333333","6.1166667","60.0","SANDANE ANDA, NO","FM-15","ENSD ","V020","150,1,N,0031,1","99999,9,9,Y","009900,1,N,1","-0090,1","-0170,1","99999,9",,,,,,,"10149,1,99999,9",,,,"MET047METAR ENSD 261550Z 15006KT CAVOK M09/M17 Q1015;",
"01320099999","2010-11-26T16:50:00","4","61.8333333","6.1166667","60.0","SANDANE ANDA, NO","FM-15","ENSD ","V020","130,1,N,0051,1","99999,9,9,Y","009900,1,N,1","-0090,1","-0170,1","99999,9",,,,,,,"10149,1,99999,9",,,,"MET047METAR ENSD 261650Z 13010KT CAVOK M09/M17 Q1015;",
"01320099999","2010-11-26T17:50:00","4","61.8333333","6.1166667","60.0","SANDANE ANDA, NO","FM-15","ENSD ","V020","130,1,N,0031,1","99999,9,9,Y","009900,1,N,1","-0100,1","-0180,1","99999,9",,,,,,,"10149,1,99999,9",,,,"MET047METAR ENSD 261750Z 13006KT CAVOK M10/M18 Q1015;",
"01320099999","2010-11-26T18:50:00","4","61.8333333","6.1166667","60.0","SANDANE ANDA, NO","FM-15","ENSD ","V020","140,1,N,0041,1","99999,9,9,Y","009900,1,N,1","-0090,1","-0180,1","99999,9",,,,,,,"10159,1,99999,9",,,,"MET047METAR ENSD 261850Z 14008KT CAVOK M09/M18 Q1016;",
"01320099999","2010-11-26T19:50:00","4","61.8333333","6.1166667","60.0","SANDANE ANDA, NO","FM-15","ENSD ","V020","130,1,N,0051,1","99999,9,9,Y","009900,1,N,1","-0100,1","-0180,1","99999,9",,,,,,,"10159,1,99999,9",,,,"MET047METAR ENSD 261950Z 13010KT CAVOK M10/M18 Q1016;",
"01320099999","2010-11-27T06:20:00","4","61.8333333","6.1166667","60.0","SANDANE ANDA, NO","FM-15","ENSD ","V020","140,1,N,0041,1","99999,9,9,Y","009900,1,N,1","-0100,1","-0170,1","99999,9",,,,,,,"10169,1,99999,9",,,,"MET047METAR ENSD 270620Z 14008KT CAVOK M10/M17 Q1017;",
"01320099999","2010-11-27T07:50:00","4","61.8333333","6.1166667","60.0","SANDANE ANDA, NO","FM-15","ENSD ","V020","140,1,N,0051,1","99999,9,9,Y","009900,1,N,1","-0090,1","-0190,1","99999,9",,,,,,,"10169,1,99999,9",,,,"MET047METAR ENSD 270750Z 14010KT CAVOK M09/M19 Q1017;",
"01320099999","2010-11-27T08:50:00","4","61.8333333","6.1166667","60.0","SANDANE ANDA, NO","FM-15","ENSD ","V020","150,1,N,0041,1","99999,9,9,Y","009900,1,N,1","-0090,1","-0180,1","99999,9",,,,,,,"10169,1,99999,9",,,,"MET047METAR ENSD 270850Z 15008KT CAVOK M09/M18 Q1017;",
"01320099999","2010-11-27T09:50:00","4","61.8333333","6.1166667","60.0","SANDANE ANDA, NO","FM-15","ENSD ","V020","140,1,N,0041,1","99999,9,9,Y","009900,1,N,1","-0090,1","-0180,1","99999,9",,,,,,,"10180,1,99999,9",,,,"MET047METAR ENSD 270950Z 14008KT CAVOK M09/M18 Q1018;",
"01320099999","2010-11-27T10:50:00","4","61.8333333","6.1166667","60.0","SANDANE ANDA, NO","FM-15","ENSD ","V020","130,1,N,0051,1","99999,9,9,Y","009900,1,N,1","-0080,1","-0170,1","99999,9",,,,,,,"10180,1,99999,9",,,,"MET047METAR ENSD 271050Z 13010KT CAVOK M08/M17 Q1018;",
"01320099999","2010-11-27T11:50:00","4","61.8333333","6.1166667","60.0","SANDANE ANDA, NO","FM-15","ENSD ","V020","130,1,N,0051,1","99999,9,9,Y","009900,1,N,1","-0080,1","-0160,1","99999,9",,,,,,,"10180,1,99999,9",,,,"MET047METAR ENSD 271150Z 13010KT CAVOK M08/M16 Q1018;",
"01320099999","2010-11-27T12:50:00","4","61.8333333","6.1166667","60.0","SANDANE ANDA, NO","FM-15","ENSD ","V020","140,1,N,0036,1","99999,9,9,Y","009900,1,N,1","-0070,1","-0180,1","99999,9",,,,,,,"10180,1,99999,9",,,,"MET047METAR ENSD 271250Z 14007KT CAVOK M07/M18 Q1018;",
"01320099999","2010-11-27T13:50:00","4","61.8333333","6.1166667","60.0","SANDANE ANDA, NO","FM-15","ENSD ","V020","130,1,N,0046,1","99999,9,9,Y","009900,1,N,1","-0070,1","-0150,1","99999,9",,,,,,,"10180,1,99999,9",,,,"MET047METAR ENSD 271350Z 13009KT CAVOK M07/M15 Q1018;",
"01320099999","2010-11-28T09:50:00","4","61.8333333","6.1166667","60.0","SANDANE ANDA, NO","FM-15","ENSD ","V020","130,1,N,0051,1","99999,9,9,Y","009900,1,N,1","-0080,1","-0180,1","99999,9",,,,,,,"10230,1,99999,9",,,,"MET047METAR ENSD 280950Z 13010KT CAVOK M08/M18 Q1023;",
"01320099999","2010-11-28T11:50:00","4","61.8333333","6.1166667","60.0","SANDANE ANDA, NO","FM-15","ENSD ","V020","110,1,N,0031,1","99999,9,9,Y","009900,1,N,1","-0070,1","-0180,1","99999,9",,,,,,,"10240,1,99999,9",,,,"MET047METAR ENSD 281150Z 11006KT CAVOK M07/M18 Q1024;",
"01320099999","2010-11-28T14:50:00","4","61.8333333","6.1166667","60.0","SANDANE ANDA, NO","FM-15","ENSD ","V020","120,1,N,0036,1","99999,9,9,Y","009900,1,N,1","-0080,1","-0200,1","99999,9",,,,,,,"10251,1,99999,9",,,,"MET047METAR ENSD 281450Z 12007KT CAVOK M08/M20 Q1025;",
"01320099999","2010-11-28T15:50:00","4","61.8333333","6.1166667","60.0","SANDANE ANDA, NO","FM-15","ENSD ","V020","110,1,N,0036,1","99999,9,9,Y","009900,1,N,1","-0070,1","-0210,1","99999,9",,,,,,,"10251,1,99999,9",,,,"MET047METAR ENSD 281550Z 11007KT CAVOK M07/M21 Q1025;",
"01320099999","2010-11-28T16:50:00","4","61.8333333","6.1166667","60.0","SANDANE ANDA, NO","FM-15","ENSD ","V020","120,1,N,0036,1","99999,9,9,Y","009900,1,N,1","-0080,1","-0210,1","99999,9",,,,,,,"99999,9,99999,9",,,,"MET047METAR ENSD 281650Z 12007KT CAVOK M08/M21 Q1020;","Q01+102003APOA  Q02 102003APOA  "
"01320099999","2010-11-28T17:50:00","4","61.8333333","6.1166667","60.0","SANDANE ANDA, NO","FM-15","ENSD ","V020","130,1,N,0046,1","99999,9,9,Y","009900,1,N,1","-0080,1","-0200,1","99999,9",,,,,,,"10251,1,99999,9",,,,"MET047METAR ENSD 281750Z 13009KT CAVOK M08/M20 Q1025;",
"01320099999","2010-11-28T18:50:00","4","61.8333333","6.1166667","60.0","SANDANE ANDA, NO","FM-15","ENSD ","V020","140,1,N,0046,1","99999,9,9,Y","009900,1,N,1","-0080,1","-0200,1","99999,9",,,,,,,"10251,1,99999,9",,,,"MET047METAR ENSD 281850Z 14009KT CAVOK M08/M20 Q1025;",
"01320099999","2010-11-28T19:50:00","4","61.8333333","6.1166667","60.0","SANDANE ANDA, NO","FM-15","ENSD ","V020","140,1,N,0041,1","99999,9,9,Y","009900,1,N,1","-0080,1","-0190,1","99999,9",,,,,,,"10261,1,99999,9",,,,"MET047METAR ENSD 281950Z 14008KT CAVOK M08/M19 Q1026;",
"01320099999","2010-11-29T05:20:00","4","61.8333333","6.1166667","60.0","SANDANE ANDA, NO","FM-15","ENSD ","V020","140,1,N,0051,1","99999,9,9,Y","009900,1,N,1","-0060,1","-0160,1","99999,9",,,,,,,"10271,1,99999,9",,,,"MET047METAR ENSD 290520Z 14010KT CAVOK M06/M16 Q1027;",
"01320099999","2010-11-29T05:50:00","4","61.8333333","6.1166667","60.0","SANDANE ANDA, NO","FM-15","ENSD ","V020","140,1,N,0051,1","99999,9,9,Y","009900,1,N,1","-0060,1","-0170,1","99999,9",,,,,,,"10271,1,99999,9",,,,"MET047METAR ENSD 290550Z 14010KT CAVOK M06/M17 Q1027;",
"01320099999","2010-11-29T06:50:00","4","61.8333333","6.1166667","60.0","SANDANE ANDA, NO","FM-15","ENSD ","V020","999,9,V,0015,1","99999,9,9,Y","009900,1,N,1","-0060,1","-0160,1","99999,9",,,,,,,"10281,1,99999,9",,,,"MET047METAR ENSD 290650Z VRB03KT CAVOK M06/M16 Q1028;",
"01320099999","2010-11-29T08:50:00","4","61.8333333","6.1166667","60.0","SANDANE ANDA, NO","FM-15","ENSD ","V020","150,1,N,0031,1","99999,9,9,Y","009900,1,N,1","-0060,1","-0160,1","99999,9",,,,,,,"10281,1,99999,9",,,,"MET047METAR ENSD 290850Z 15006KT CAVOK M06/M16 Q1028;",
"01320099999","2010-11-29T09:50:00","4","61.8333333","6.1166667","60.0","SANDANE ANDA, NO","FM-15","ENSD ","V020","140,1,N,0041,1","99999,9,9,Y","009900,1,N,1","-0060,1","-0160,1","99999,9",,,,,,,"10291,1,99999,9",,,,"MET047METAR ENSD 290950Z 14008KT CAVOK M06/M16 Q1029;",
"01320099999","2010-11-29T10:50:00","4","61.8333333","6.1166667","60.0","SANDANE ANDA, NO","FM-15","ENSD ","V020","150,1,N,0041,1","99999,9,9,Y","009900,1,N,1","-0060,1","-0150,1","99999,9",,,,,,,"10291,1,99999,9",,,,"MET047METAR ENSD 291050Z 15008KT CAVOK M06/M15 Q1029;",
"01320099999","2010-11-29T11:50:00","4","61.8333333","6.1166667","60.0","SANDANE ANDA, NO","FM-15","ENSD ","V020","140,1,N,0041,1","99999,9,9,Y","009900,1,N,1","-0060,1","-0140,1","99999,9",,,,,,,"10291,1,99999,9",,,,"MET047METAR ENSD 291150Z 14008KT CAVOK M06/M14 Q1029;",
"01320099999","2010-11-29T12:50:00","4","61.8333333","6.1166667","60.0","SANDANE ANDA, NO","FM-15","ENSD ","V020","150,1,N,0026,1","99999,9,9,Y","009900,1,N,1","-0050,1","-0140,1","99999,9",,,,,,,"10291,1,99999,9",,,,"MET047METAR ENSD 291250Z 15005KT CAVOK M05/M14 Q1029;",
"01320099999","2010-11-29T13:50:00","4","61.8333333","6.1166667","60.0","SANDANE ANDA, NO","FM-15","ENSD ","V020","150,1,N,0031,1","99999,9,9,Y","009900,1,N,1","-0060,1","-0140,1","99999,9",,,,,,,"10291,1,99999,9",,,,"MET047METAR ENSD 291350Z 15006KT CAVOK M06/M14 Q1029;",
"01320099999","2010-11-29T14:50:00","4","61.8333333","6.1166667","60.0","SANDANE ANDA, NO","FM-15","ENSD ","V020","150,1,N,0031,1","99999,9,9,Y","009900,1,N,1","-0060,1","-0140,1","99999,9",,,,,,,"10291,1,99999,9",,,,"MET047METAR ENSD 291450Z 15006KT CAVOK M06/M14 Q1029;",
"01320099999","2010-11-29T15:50:00","4","61.8333333","6.1166667","60.0","SANDANE ANDA, NO","FM-15","ENSD ","V020","140,1,N,0026,1","99999,9,9,Y","009900,1,N,1","-0060,1","-0150,1","99999,9",,,,,,,"10291,1,99999,9",,,,"MET047METAR ENSD 291550Z 14005KT CAVOK M06/M15 Q1029;",
"01320099999","2010-11-29T16:50:00","4","61.8333333","6.1166667","60.0","SANDANE ANDA, NO","FM-15","ENSD ","V020","150,1,N,0031,1","99999,9,9,Y","009900,1,N,1","-0070,1","-0150,1","99999,9",,,,,,,"10291,1,99999,9",,,,"MET047METAR ENSD 291650Z 15006KT CAVOK M07/M15 Q1029;",
"01320099999","2010-11-29T18:50:00","4","61.8333333","6.1166667","60.0","SANDANE ANDA, NO","FM-15","ENSD ","V020","160,1,N,0041,1","99999,9,9,Y","009900,1,N,1","-0070,1","-0140,1","99999,9",,,,,,,"10301,1,99999,9",,,,"MET047METAR ENSD 291850Z 16008KT CAVOK M07/M14 Q1030;",
"01320099999","2010-11-29T19:50:00","4","61.8333333","6.1166667","60.0","SANDANE ANDA, NO","FM-15","ENSD ","V020","150,1,N,0036,1","99999,9,9,Y","009900,1,N,1","-0070,1","-0140,1","99999,9",,,,,,,"10301,1,99999,9",,,,"MET047METAR ENSD 291950Z 15007KT CAVOK M07/M14 Q1030;",
"01320099999","2010-11-30T04:50:00","4","61.8333333","6.1166667","60.0","SANDANE ANDA, NO","FM-15","ENSD ","V020","160,1,N,0031,1","22000,1,9,N","011265,1,N,1","-0080,1","-0180,1","99999,9","02,5,+00600,1,99,9",,,,"02,99,1,99,9,99,9,99999,9,99,9,99,9",,"10318,1,99999,9",,,,"MET053METAR ENSD 300450Z 16006KT 9999 FEW020 M08/M18 Q1032;",
"01320099999","2010-11-30T05:50:00","4","61.8333333","6.1166667","60.0","SANDANE ANDA, NO","FM-15","ENSD ","V020","160,1,N,0031,1","22000,1,9,N","011265,1,N,1","-0080,1","-0190,1","99999,9","02,5,+00600,1,99,9",,,,"02,99,1,99,9,99,9,99999,9,99,9,99,9",,"10318,1,99999,9",,,,"MET053METAR ENSD 300550Z 16006KT 9999 FEW020 M08/M19 Q1032;",
"01320099999","2010-11-30T06:50:00","4","61.8333333","6.1166667","60.0","SANDANE ANDA, NO","FM-15","ENSD ","V020","150,1,N,0026,1","22000,1,9,N","011265,1,N,1","-0090,1","-0190,1","99999,9","02,5,+00600,1,99,9",,,,"02,99,1,99,9,99,9,99999,9,99,9,99,9",,"10318,1,99999,9",,,,"MET053METAR ENSD 300650Z 15005KT 9999 FEW020 M09/M19 Q1032;",
"01320099999","2010-11-30T07:50:00","4","61.8333333","6.1166667","60.0","SANDANE ANDA, NO","FM-15","ENSD ","V020","150,1,N,0026,1","99999,9,9,Y","009900,1,N,1","-0090,1","-0180,1","99999,9",,,,,,,"10318,1,99999,9",,,,"MET047METAR ENSD 300750Z 15005KT CAVOK M09/M18 Q1032;",
"01320099999","2010-11-30T08:50:00","4","61.8333333","6.1166667","60.0","SANDANE ANDA, NO","FM-15","ENSD ","V020","160,1,N,0026,1","99999,9,9,Y","009900,1,N,1","-0090,1","-0180,1","99999,9",,,,,,,"10329,1,99999,9",,,,"MET047METAR ENSD 300850Z 16005KT CAVOK M09/M18 Q1033;",
"01320099999","2010-11-30T09:50:00","4","61.8333333","6.1166667","60.0","SANDANE ANDA, NO","FM-15","ENSD ","V020","170,1,N,0036,1","99999,9,9,Y","009900,1,N,1","-0090,1","-0180,1","99999,9",,,,,,,"10329,1,99999,9",,,,"MET047METAR ENSD 300950Z 17007KT CAVOK M09/M18 Q1033;",
"01320099999","2010-11-30T10:50:00","4","61.8333333","6.1166667","60.0","SANDANE ANDA, NO","FM-15","ENSD ","V020","180,1,N,0021,1","99999,9,9,Y","009900,1,N,1","-0090,1","-0170,1","99999,9",,,,,,,"10329,1,99999,9",,,,"MET047METAR ENSD 301050Z 18004KT CAVOK M09/M17 Q1033;",
"01320099999","2010-11-30T11:50:00","4","61.8333333","6.1166667","60.0","SANDANE ANDA, NO","FM-15","ENSD ","V020","170,1,N,0026,1","99999,9,9,Y","009900,1,N,1","-0080,1","-0160,1","99999,9",,,,,,,"10318,1,99999,9",,,,"MET047METAR ENSD 301150Z 17005KT CAVOK M08/M16 Q1032;",
"01320099999","2010-11-30T12:50:00","4","61.8333333","6.1166667","60.0","SANDANE ANDA, NO","FM-15","ENSD ","V020","140,1,N,0057,1","99999,9,9,Y","009900,1,N,1","-0080,1","-0150,1","99999,9",,,,,,,"10318,1,99999,9",,,,"MET047METAR ENSD 301250Z 14011KT CAVOK M08/M15 Q1032;",
"01320099999","2010-11-30T13:50:00","4","61.8333333","6.1166667","60.0","SANDANE ANDA, NO","FM-15","ENSD ","V020","130,1,N,0046,1","99999,9,9,Y","009900,1,N,1","-0090,1","-0160,1","99999,9",,,,,,,"10312,1,99999,9",,,,"MET047METAR ENSD 301350Z 13009KT CAVOK M09/M16 Q1031;",
"01320099999","2010-11-30T14:50:00","4","61.8333333","6.1166667","60.0","SANDANE ANDA, NO","FM-15","ENSD ","V020","140,1,N,0051,1","99999,9,9,Y","009900,1,N,1","-0090,1","-0160,1","99999,9",,,,,,,"10312,1,99999,9",,,,"MET047METAR ENSD 301450Z 14010KT CAVOK M09/M16 Q1031;",
"01320099999","2010-11-30T15:50:00","4","61.8333333","6.1166667","60.0","SANDANE ANDA, NO","FM-15","ENSD ","V020","140,1,N,0051,1","99999,9,9,Y","009900,1,N,1","-0090,1","-0170,1","99999,9",,,,,,,"10312,1,99999,9",,,,"MET047METAR ENSD 301550Z 14010KT CAVOK M09/M17 Q1031;",
"01320099999","2010-11-30T16:50:00","4","61.8333333","6.1166667","60.0","SANDANE ANDA, NO","FM-15","ENSD ","V020","140,1,N,0057,1","99999,9,9,Y","009900,1,N,1","-0090,1","-0160,1","99999,9",,,,,,,"10312,1,99999,9",,,,"MET047METAR ENSD 301650Z 14011KT CAVOK M09/M16 Q1031;",
"01320099999","2010-11-30T18:50:00","4","61.8333333","6.1166667","60.0","SANDANE ANDA, NO","FM-15","ENSD ","V020","140,1,N,0057,1","99999,9,9,Y","009900,1,N,1","-0090,1","-0180,1","99999,9",,,,,,,"10312,1,99999,9",,,,"MET047METAR ENSD 301850Z 14011KT CAVOK M09/M18 Q1031;",
"01320099999","2010-11-30T19:50:00","4","61.8333333","6.1166667","60.0","SANDANE ANDA, NO","FM-15","ENSD ","V020","140,1,N,0051,1","99999,9,9,Y","009900,1,N,1","-0090,1","-0180,1","99999,9",,,,,,,"10312,1,99999,9",,,,"MET047METAR ENSD 301950Z 14010KT CAVOK M09/M18 Q1031;",
"01320099999","2010-12-01T05:20:00","4","61.8333333","6.1166667","60.0","SANDANE ANDA, NO","FM-15","ENSD ","V020","140,1,N,0046,1","99999,9,9,Y","009900,1,N,1","-0100,1","-0190,1","99999,9",,,,,,,"10301,1,99999,9",,,,"MET047METAR ENSD 010520Z 14009KT CAVOK M10/M19 Q1030;",
"01320099999","2010-12-01T06:50:00","4","61.8333333","6.1166667","60.0","SANDANE ANDA, NO","FM-15","ENSD ","V020","999,9,V,0010,1","99999,9,9,Y","009900,1,N,1","-0100,1","-0180,1","99999,9",,,,,,,"10301,1,99999,9",,,,"MET047METAR ENSD 010650Z VRB02KT CAVOK M10/M18 Q1030;",
"01320099999","2010-12-01T07:50:00","4","61.8333333","6.1166667","60.0","SANDANE ANDA, NO","FM-15","ENSD ","V020","999,9,V,0021,1","99999,9,9,Y","009900,1,N,1","-0100,1","-0170,1","99999,9",,,,,,,"10301,1,99999,9",,,,"MET047METAR ENSD 010750Z VRB04KT CAVOK M10/M17 Q1030;",
"01320099999","2010-12-01T08:50:00","4","61.8333333","6.1166667","60.0","SANDANE ANDA, NO","FM-15","ENSD ","V020","140,1,N,0057,1","22000,1,9,N","011265,1,N,1","-0090,1","-0180,1","99999,9","02,5,+00300,1,99,9",,,,"02,99,1,99,9,99,9,99999,9,99,9,99,9",,"10301,1,99999,9",,,,"MET053METAR ENSD 010850Z 14011KT 9999 FEW010 M09/M18 Q1030;",
"01320099999","2010-12-01T09:50:00","4","61.8333333","6.1166667","60.0","SANDANE ANDA, NO","FM-15","ENSD ","V020","140,1,N,0051,1","22000,1,9,N","011265,1,N,1","-0090,1","-0180,1","99999,9","02,5,+00300,1,99,9",,,,"02,99,1,99,9,99,9,99999,9,99,9,99,9",,"10291,1,99999,9",,,,"MET053METAR ENSD 010950Z 14010KT 9999 FEW010 M09/M18 Q1029;",
"01320099999","2010-12-01T10:50:00","4","61.8333333","6.1166667","60.0","SANDANE ANDA, NO","FM-15","ENSD ","V020","140,1,N,0046,1","22000,1,9,N","011265,1,N,1","-0090,1","-0170,1","99999,9","02,5,+00300,1,99,9",,,,"02,99,1,99,9,99,9,99999,9,99,9,99,9",,"10301,1,99999,9",,,,"MET053METAR ENSD 011050Z 14009KT 9999 FEW010 M09/M17 Q1030;",
"01320099999","2010-12-01T11:50:00","4","61.8333333","6.1166667","60.0","SANDANE ANDA, NO","FM-15","ENSD ","V020","140,1,N,0046,1","22000,1,9,N","011265,1,N,1","-0090,1","-0160,1","99999,9","02,5,+00300,1,99,9",,,,"02,99,1,99,9,99,9,99999,9,99,9,99,9",,"10291,1,99999,9",,,,"MET053METAR ENSD 011150Z 14009KT 9999 FEW010 M09/M16 Q1029;",
"01320099999","2010-12-01T13:50:00","4","61.8333333","6.1166667","60.0","SANDANE ANDA, NO","FM-15","ENSD ","V020","160,1,N,0026,1","22000,1,9,N","011265,1,N,1","-0080,1","-0160,1","99999,9","02,5,+00300,1,99,9",,,,"02,99,1,99,9,99,9,99999,9,99,9,99,9",,"10281,1,99999,9",,,,"MET053METAR ENSD 011350Z 16005KT 9999 FEW010 M08/M16 Q1028;",
"01320099999","2010-12-01T14:50:00","4","61.8333333","6.1166667","60.0","SANDANE ANDA, NO","FM-15","ENSD ","V020","160,1,N,0036,1","22000,1,9,N","011265,1,N,1","-0090,1","-0160,1","99999,9","02,5,+00300,1,99,9",,,,"02,99,1,99,9,99,9,99999,9,99,9,99,9",,"10281,1,99999,9",,,,"MET053METAR ENSD 011450Z 16007KT 9999 FEW010 M09/M16 Q1028;",
"01320099999","2010-12-01T15:50:00","4","61.8333333","6.1166667","60.0","SANDANE ANDA, NO","FM-15","ENSD ","V020","160,1,N,0036,1","22000,1,9,N","011265,1,N,1","-0090,1","-0160,1","99999,9","02,5,+00300,1,99,9",,,,"02,99,1,99,9,99,9,99999,9,99,9,99,9",,"10281,1,99999,9",,,,"MET053METAR ENSD 011550Z 16007KT 9999 FEW010 M09/M16 Q1028;",
"01320099999","2010-12-01T16:50:00","4","61.8333333","6.1166667","60.0","SANDANE ANDA, NO","FM-15","ENSD ","V020","160,1,N,0031,1","22000,1,9,N","011265,1,N,1","-0090,1","-0170,1","99999,9","02,5,+00300,1,99,9",,,,"02,99,1,99,9,99,9,99999,9,99,9,99,9",,"10281,1,99999,9",,,,"MET053METAR ENSD 011650Z 16006KT 9999 FEW010 M09/M17 Q1028;",
"01320099999","2010-12-01T17:50:00","4","61.8333333","6.1166667","60.0","SANDANE ANDA, NO","FM-15","ENSD ","V020","160,1,N,0031,1","22000,1,9,N","011265,1,N,1","-0080,1","-0180,1","99999,9","02,5,+00300,1,99,9",,,,"02,99,1,99,9,99,9,99999,9,99,9,99,9",,"10281,1,99999,9",,,,"MET053METAR ENSD 011750Z 16006KT 9999 FEW010 M08/M18 Q1028;",
"01320099999","2010-12-01T18:50:00","4","61.8333333","6.1166667","60.0","SANDANE ANDA, NO","FM-15","ENSD ","V020","160,1,N,0036,1","22000,1,9,N","011265,1,N,1","-0080,1","-0180,1","99999,9","02,5,+00300,1,99,9",,,,"02,99,1,99,9,99,9,99999,9,99,9,99,9",,"10271,1,99999,9",,,,"MET053METAR ENSD 011850Z 16007KT 9999 FEW010 M08/M18 Q1027;",
"01320099999","2010-12-01T19:50:00","4","61.8333333","6.1166667","60.0","SANDANE ANDA, NO","FM-15","ENSD ","V020","160,1,N,0031,1","22000,1,9,N","011265,1,N,1","-0090,1","-0160,1","99999,9","02,5,+00300,1,99,9",,,,"02,99,1,99,9,99,9,99999,9,99,9,99,9",,"10281,1,99999,9",,,,"MET053METAR ENSD 011950Z 16006KT 9999 FEW010 M09/M16 Q1028;",
"01320099999","2010-12-02T04:50:00","4","61.8333333","6.1166667","60.0","SANDANE ANDA, NO","FM-15","ENSD ","V020","160,1,N,0031,1","22000,1,9,N","011265,1,N,1","-0090,1","-0150,1","99999,9","02,5,+00300,1,99,9",,,,"02,99,1,99,9,99,9,99999,9,99,9,99,9",,"10240,1,99999,9",,,,"MET053METAR ENSD 020450Z 16006KT 9999 FEW010 M09/M15 Q1024;",
"01320099999","2010-12-02T05:50:00","4","61.8333333","6.1166667","60.0","SANDANE ANDA, NO","FM-15","ENSD ","V020","160,1,N,0036,1","22000,1,9,N","011265,1,N,1","-0090,1","-0140,1","99999,9","02,5,+00300,1,99,9",,,,"02,99,1,99,9,99,9,99999,9,99,9,99,9",,"10240,1,99999,9",,,,"MET053METAR ENSD 020550Z 16007KT 9999 FEW010 M09/M14 Q1024;",
"01320099999","2010-12-02T06:50:00","4","61.8333333","6.1166667","60.0","SANDANE ANDA, NO","FM-15","ENSD ","V020","160,1,N,0036,1","22000,1,9,N","011265,1,N,1","-0090,1","-0150,1","99999,9","02,5,+00300,1,99,9",,,,"02,99,1,99,9,99,9,99999,9,99,9,99,9",,"10240,1,99999,9",,,,"MET053METAR ENSD 020650Z 16007KT 9999 FEW010 M09/M15 Q1024;",
"01320099999","2010-12-02T07:50:00","4","61.8333333","6.1166667","60.0","SANDANE ANDA, NO","FM-15","ENSD ","V020","160,1,N,0026,1","22000,1,9,N","011265,1,N,1","-0080,1","-0140,1","99999,9","02,5,+01200,1,99,9",,,,"02,99,1,99,9,99,9,99999,9,99,9,99,9",,"10240,1,99999,9",,,,"MET053METAR ENSD 020750Z 16005KT 9999 FEW040 M08/M14 Q1024;",
"01320099999","2010-12-02T08:50:00","4","61.8333333","6.1166667","60.0","SANDANE ANDA, NO","FM-15","ENSD ","V020","160,1,N,0031,1","22000,1,9,N","011265,1,N,1","-0090,1","-0140,1","99999,9","02,5,+00300,1,99,9",,,,"02,99,1,99,9,99,9,99999,9,99,9,99,9",,"10230,1,99999,9",,,,"MET053METAR ENSD 020850Z 16006KT 9999 FEW010 M09/M14 Q1023;",
"01320099999","2010-12-02T09:50:00","4","61.8333333","6.1166667","60.0","SANDANE ANDA, NO","FM-15","ENSD ","V020","150,1,N,0036,1","22000,1,9,N","011265,1,N,1","-0080,1","-0140,1","99999,9","02,5,+00300,1,99,9",,,,"02,99,1,99,9,99,9,99999,9,99,9,99,9",,"10220,1,99999,9",,,,"MET053METAR ENSD 020950Z 15007KT 9999 FEW010 M08/M14 Q1022;",
"01320099999","2010-12-02T10:50:00","4","61.8333333","6.1166667","60.0","SANDANE ANDA, NO","FM-15","ENSD ","V020","150,1,N,0031,1","22000,1,9,N","011265,1,N,1","-0080,1","-0140,1","99999,9","02,5,+00300,1,99,9",,,,"02,99,1,99,9,99,9,99999,9,99,9,99,9",,"10220,1,99999,9",,,,"MET053METAR ENSD 021050Z 15006KT 9999 FEW010 M08/M14 Q1022;",
"01320099999","2010-12-02T11:50:00","4","61.8333333","6.1166667","60.0","SANDANE ANDA, NO","FM-15","ENSD ","V020","160,1,N,0026,1","22000,1,9,N","011265,1,N,1","-0080,1","-0140,1","99999,9","02,5,+00300,1,99,9",,,,"02,99,1,99,9,99,9,99999,9,99,9,99,9",,"10210,1,99999,9",,,,"MET053METAR ENSD 021150Z 16005KT 9999 FEW010 M08/M14 Q1021;",
"01320099999","2010-12-02T12:50:00","4","61.8333333","6.1166667","60.0","SANDANE ANDA, NO","FM-15","ENSD ","V020","140,1,N,0057,1","22000,1,9,N","011265,1,N,1","-0080,1","-0130,1","99999,9","02,5,+00300,1,99,9",,,,"02,99,1,99,9,99,9,99999,9,99,9,99,9",,"10200,1,99999,9",,,,"MET053METAR ENSD 021250Z 14011KT 9999 FEW010 M08/M13 Q1020;",
"01320099999","2010-12-02T13:50:00","4","61.8333333","6.1166667","60.0","SANDANE ANDA, NO","FM-15","ENSD ","V020","140,1,N,0051,1","22000,1,9,N","011265,1,N,1","-0080,1","-0130,1","99999,9","02,5,+00300,1,99,9",,,,"02,99,1,99,9,99,9,99999,9,99,9,99,9",,"10190,1,99999,9",,,,"MET053METAR ENSD 021350Z 14010KT 9999 FEW010 M08/M13 Q1019;",
"01320099999","2010-12-02T14:50:00","4","61.8333333","6.1166667","60.0","SANDANE ANDA, NO","FM-15","ENSD ","V020","130,1,N,0046,1","22000,1,9,N","011265,1,N,1","-0080,1","-0130,1","99999,9","02,5,+00300,1,99,9",,,,"02,99,1,99,9,99,9,99999,9,99,9,99,9",,"10190,1,99999,9",,,,"MET053METAR ENSD 021450Z 13009KT 9999 FEW010 M08/M13 Q1019;",
"01320099999","2010-12-02T15:50:00","4","61.8333333","6.1166667","60.0","SANDANE ANDA, NO","FM-15","ENSD ","V020","140,1,N,0057,1","22000,1,9,N","011265,1,N,1","-0080,1","-0140,1","99999,9","02,5,+00300,1,99,9",,,,"02,99,1,99,9,99,9,99999,9,99,9,99,9",,"10180,1,99999,9",,,,"MET053METAR ENSD 021550Z 14011KT 9999 FEW010 M08/M14 Q1018;",
"01320099999","2010-12-02T16:50:00","4","61.8333333","6.1166667","60.0","SANDANE ANDA, NO","FM-15","ENSD ","V020","140,1,N,0062,1","22000,1,9,N","011265,1,N,1","-0080,1","-0140,1","99999,9","02,5,+00300,1,99,9",,,,"02,99,1,99,9,99,9,99999,9,99,9,99,9",,"10169,1,99999,9",,,,"MET053METAR ENSD 021650Z 14012KT 9999 FEW010 M08/M14 Q1017;",
"01320099999","2010-12-02T17:50:00","4","61.8333333","6.1166667","60.0","SANDANE ANDA, NO","FM-15","ENSD ","V020","140,1,N,0057,1","22000,1,9,N","011265,1,N,1","-0080,1","-0140,1","99999,9","02,5,+00300,1,99,9",,,,"02,99,1,99,9,99,9,99999,9,99,9,99,9",,"10169,1,99999,9",,,,"MET053METAR ENSD 021750Z 14011KT 9999 FEW010 M08/M14 Q1017;",
"01320099999","2010-12-02T18:50:00","4","61.8333333","6.1166667","60.0","SANDANE ANDA, NO","FM-15","ENSD ","V020","140,1,N,0057,1","22000,1,9,N","011265,1,N,1","-0080,1","-0150,1","99999,9","02,5,+00300,1,99,9",,,,"02,99,1,99,9,99,9,99999,9,99,9,99,9",,"10159,1,99999,9",,,,"MET053METAR ENSD 021850Z 14011KT 9999 FEW010 M08/M15 Q1016;",
"01320099999","2010-12-02T19:50:00","4","61.8333333","6.1166667","60.0","SANDANE ANDA, NO","FM-15","ENSD ","V020","140,1,N,0057,1","22000,1,9,N","011265,1,N,1","-0080,1","-0140,1","99999,9","02,5,+00300,1,99,9",,,,"02,99,1,99,9,99,9,99999,9,99,9,99,9",,"10149,1,99999,9",,,,"MET053METAR ENSD 021950Z 14011KT 9999 FEW010 M08/M14 Q1015;",
"01320099999","2010-12-03T05:20:00","4","61.8333333","6.1166667","60.0","SANDANE ANDA, NO","FM-15","ENSD ","V020","140,1,N,0057,1","22000,1,9,N","011265,1,N,1","-0080,1","-0150,1","99999,9","02,5,+00300,1,99,9",,,,"02,99,1,99,9,99,9,99999,9,99,9,99,9",,"10081,1,99999,9",,,,"MET053METAR ENSD 030520Z 14011KT 9999 FEW010 M08/M15 Q1008;",
"01320099999","2010-12-03T05:50:00","4","61.8333333","6.1166667","60.0","SANDANE ANDA, NO","FM-15","ENSD ","V020","130,1,N,0046,1","22000,1,9,N","011265,1,N,1","-0080,1","-0150,1","99999,9","02,5,+00300,1,99,9",,,,"02,99,1,99,9,99,9,99999,9,99,9,99,9",,"10081,1,99999,9",,,,"MET053METAR ENSD 030550Z 13009KT 9999 FEW010 M08/M15 Q1008;",
"01320099999","2010-12-03T06:50:00","4","61.8333333","6.1166667","60.0","SANDANE ANDA, NO","FM-15","ENSD ","V020","140,1,N,0051,1","22000,1,9,N","011265,1,N,1","-0080,1","-0150,1","99999,9","02,5,+00300,1,99,9",,,,"02,99,1,99,9,99,9,99999,9,99,9,99,9",,"10071,1,99999,9",,,,"MET053METAR ENSD 030650Z 14010KT 9999 FEW010 M08/M15 Q1007;",
"01320099999","2010-12-03T07:50:00","4","61.8333333","6.1166667","60.0","SANDANE ANDA, NO","FM-15","ENSD ","V020","150,1,N,0057,1","22000,1,9,N","011265,1,N,1","-0080,1","-0150,1","99999,9","02,5,+00300,1,99,9",,,,"02,99,1,99,9,99,9,99999,9,99,9,99,9",,"10071,1,99999,9",,,,"MET053METAR ENSD 030750Z 15011KT 9999 FEW010 M08/M15 Q1007;",
"01320099999","2010-12-03T08:50:00","4","61.8333333","6.1166667","60.0","SANDANE ANDA, NO","FM-15","ENSD ","V020","140,1,N,0051,1","22000,1,9,N","011265,1,N,1","-0080,1","-0150,1","99999,9","02,5,+01350,1,99,9",,,,"02,99,1,99,9,99,9,99999,9,99,9,99,9",,"10071,1,99999,9",,,,"MET053METAR ENSD 030850Z 14010KT 9999 FEW045 M08/M15 Q1007;",
"01320099999","2010-12-03T10:50:00","4","61.8333333","6.1166667","60.0","SANDANE ANDA, NO","FM-15","ENSD ","V020","080,1,N,0021,1","22000,1,9,N","011265,1,N,1","-0080,1","-0140,1","99999,9","02,5,+00300,1,99,9",,,,"02,99,1,99,9,99,9,99999,9,99,9,99,9",,"10061,1,99999,9",,,,"MET053METAR ENSD 031050Z 08004KT 9999 FEW010 M08/M14 Q1006;",
"01320099999","2010-12-03T11:50:00","4","61.8333333","6.1166667","60.0","SANDANE ANDA, NO","FM-15","ENSD ","V020","140,1,N,0036,1","22000,1,9,N","011265,1,N,1","-0060,1","-0130,1","99999,9","02,5,+01200,1,99,9",,,,"02,99,1,99,9,99,9,99999,9,99,9,99,9",,"10051,1,99999,9",,,,"MET053METAR ENSD 031150Z 14007KT 9999 FEW040 M06/M13 Q1005;",
"01320099999","2010-12-03T12:50:00","4","61.8333333","6.1166667","60.0","SANDANE ANDA, NO","FM-15","ENSD ","V020","140,1,N,0021,1","22000,1,9,N","011265,1,N,1","-0070,1","-0140,1","99999,9","02,5,+01200,1,99,9",,,,"02,99,1,99,9,99,9,99999,9,99,9,99,9",,"10051,1,99999,9",,,,"MET053METAR ENSD 031250Z 14004KT 9999 FEW040 M07/M14 Q1005;",
"01320099999","2010-12-03T14:50:00","4","61.8333333","6.1166667","60.0","SANDANE ANDA, NO","FM-15","ENSD ","V020","999,9,V,0010,1","99999,9,9,Y","009900,1,N,1","-0070,1","-0130,1","99999,9",,,,,,,"10041,1,99999,9",,,,"MET047METAR ENSD 031450Z VRB02KT CAVOK M07/M13 Q1004;",
"01320099999","2010-12-03T15:50:00","4","61.8333333","6.1166667","60.0","SANDANE ANDA, NO","FM-15","ENSD ","V020","140,1,N,0041,1","99999,9,9,Y","009900,1,N,1","-0060,1","-0130,1","99999,9",,,,,,,"10041,1,99999,9",,,,"MET047METAR ENSD 031550Z 14008KT CAVOK M06/M13 Q1004;",
"01320099999","2010-12-03T16:50:00","4","61.8333333","6.1166667","60.0","SANDANE ANDA, NO","FM-15","ENSD ","V020","130,1,N,0031,1","99999,9,9,Y","009900,1,N,1","-0060,1","-0130,1","99999,9",,,,,,,"10041,1,99999,9",,,,"MET047METAR ENSD 031650Z 13006KT CAVOK M06/M13 Q1004;",
"01320099999","2010-12-03T17:50:00","4","61.8333333","6.1166667","60.0","SANDANE ANDA, NO","FM-15","ENSD ","V020","140,1,N,0041,1","99999,9,9,Y","009900,1,N,1","-0060,1","-0130,1","99999,9",,,,,,,"10031,1,99999,9",,,,"MET047METAR ENSD 031750Z 14008KT CAVOK M06/M13 Q1003;",
"01320099999","2010-12-03T18:50:00","4","61.8333333","6.1166667","60.0","SANDANE ANDA, NO","FM-15","ENSD ","V020","140,1,N,0046,1","99999,9,9,Y","009900,1,N,1","-0060,1","-0120,1","99999,9",,,,,,,"10031,1,99999,9",,,,"MET047METAR ENSD 031850Z 14009KT CAVOK M06/M12 Q1003;",
"01320099999","2010-12-03T19:50:00","4","61.8333333","6.1166667","60.0","SANDANE ANDA, NO","FM-15","ENSD ","V020","130,1,N,0041,1","99999,9,9,Y","009900,1,N,1","-0060,1","-0120,1","99999,9",,,,,,,"10031,1,99999,9",,,,"MET047METAR ENSD 031950Z 13008KT CAVOK M06/M12 Q1003;",
"01320099999","2010-12-04T06:20:00","4","61.8333333","6.1166667","60.0","SANDANE ANDA, NO","FM-15","ENSD ","V020","140,1,N,0031,1","99999,9,9,Y","009900,1,N,1","-0050,1","-0120,1","99999,9",,,,,,,"10010,1,99999,9",,,,"MET047METAR ENSD 040620Z 14006KT CAVOK M05/M12 Q1001;",
"01320099999","2010-12-04T07:50:00","4","61.8333333","6.1166667","60.0","SANDANE ANDA, NO","FM-15","ENSD ","V020","140,1,N,0031,1","22000,1,9,N","011265,1,N,1","-0040,1","-0120,1","99999,9","04,5,+01050,1,99,9",,,,"04,99,1,99,9,99,9,99999,9,99,9,99,9",,"10010,1,99999,9","16,1",,,"MET058METAR ENSD 040750Z 14006KT 9999 VCSH SCT035 M04/M12 Q1001;",
"01320099999","2010-12-04T08:50:00","4","61.8333333","6.1166667","60.0","SANDANE ANDA, NO","FM-15","ENSD ","V020","130,1,N,0041,1","01050,1,C,N","011265,1,N,1","-0040,1","-0120,1","99999,9","07,5,+01050,1,99,9",,,,"07,99,1,99,9,99,9,99999,9,99,9,99,9",,"10010,1,99999,9",,,,"MET053METAR ENSD 040850Z 13008KT 9999 BKN035 M04/M12 Q1001;",
"01320099999","2010-12-04T09:50:00","4","61.8333333","6.1166667","60.0","SANDANE ANDA, NO","FM-15","ENSD ","V020","999,9,V,0010,1","01050,1,C,N","011265,1,N,1","-0040,1","-0100,1","99999,9","07,5,+01050,1,99,9",,,,"07,99,1,99,9,99,9,99999,9,99,9,99,9",,"10000,1,99999,9","16,1",,,"MET058METAR ENSD 040950Z VRB02KT 9999 VCSH BKN035 M04/M10 Q1000;",
"01320099999","2010-12-04T10:50:00","4","61.8333333","6.1166667","60.0","SANDANE ANDA, NO","FM-15","ENSD ","V020","999,9,V,0010,1","01050,1,C,N","011265,1,N,1","-0030,1","-0100,1","99999,9","07,5,+01050,1,99,9",,,,"07,99,1,99,9,99,9,99999,9,99,9,99,9",,"10000,1,99999,9","85,5",,,"MET059METAR ENSD 041050Z VRB02KT 9999 -SHSN BKN035 M03/M10 Q1000;",
"01320099999","2010-12-04T11:50:00","4","61.8333333","6.1166667","60.0","SANDANE ANDA, NO","FM-15","ENSD ","V020","999,9,V,0010,1","01050,1,C,N","008000,1,N,1","-0030,1","-0080,1","99999,9","07,5,+01050,1,99,9",,,,"07,99,1,99,9,99,9,99999,9,99,9,99,9",,"10000,1,99999,9","85,5",,,"MET059METAR ENSD 041150Z VRB02KT 8000 -SHSN BKN035 M03/M08 Q1000;",
"01320099999","2010-12-04T12:50:00","4","61.8333333","6.1166667","60.0","SANDANE ANDA, NO","FM-15","ENSD ","V020","999,9,V,0010,1","01050,1,C,N","011265,1,N,1","-0030,1","-0070,1","99999,9","07,5,+01050,1,99,9",,,,"07,99,1,99,9,99,9,99999,9,99,9,99,9",,"09990,1,99999,9","85,5",,,"MET059METAR ENSD 041250Z VRB02KT 9999 -SHSN BKN035 M03/M07 Q0999;",
"01320099999","2010-12-04T13:50:00","4","61.8333333","6.1166667","60.0","SANDANE ANDA, NO","FM-15","ENSD ","V020","999,9,V,0005,1","01050,1,C,N","008000,1,N,1","-0020,1","-0050,1","99999,9","07,5,+01050,1,99,9",,,,"07,99,1,99,9,99,9,99999,9,99,9,99,9",,"09990,1,99999,9","85,5",,,"MET059METAR ENSD 041350Z VRB01KT 8000 -SHSN BKN035 M02/M05 Q0999;",
"01320099999","2010-12-05T09:50:00","4","61.8333333","6.1166667","60.0","SANDANE ANDA, NO","FM-15","ENSD ","V020","140,1,N,0041,1","02400,1,C,N","011265,1,N,1","-0010,1","-0040,1","99999,9","02,5,+00600,1,99,9","07,5,+02400,1,99,9",,,"07,99,1,99,9,99,9,99999,9,99,9,99,9",,"09939,1,99999,9",,,,"MET060METAR ENSD 050950Z 14008KT 9999 FEW020 BKN080 M01/M04 Q0994;",
"01320099999","2010-12-05T10:50:00","4","61.8333333","6.1166667","60.0","SANDANE ANDA, NO","FM-15","ENSD ","V020","130,1,N,0031,1","02400,1,C,N","011265,1,N,1","-0010,1","-0050,1","99999,9","02,5,+00150,1,99,9","07,5,+02400,1,99,9",,,"07,99,1,99,9,99,9,99999,9,99,9,99,9",,"09939,1,99999,9",,,,"MET060METAR ENSD 051050Z 13006KT 9999 FEW005 BKN080 M01/M05 Q0994;",
"01320099999","2010-12-05T11:50:00","4","61.8333333","6.1166667","60.0","SANDANE ANDA, NO","FM-15","ENSD ","V020","160,1,N,0031,1","02400,1,C,N","011265,1,N,1","-0010,1","-0050,1","99999,9","02,5,+00450,1,99,9","07,5,+02400,1,99,9",,,"07,99,1,99,9,99,9,99999,9,99,9,99,9",,"09939,1,99999,9",,,,"MET060METAR ENSD 051150Z 16006KT 9999 FEW015 BKN080 M01/M05 Q0994;",
"01320099999","2010-12-05T14:50:00","4","61.8333333","6.1166667","60.0","SANDANE ANDA, NO","FM-15","ENSD ","V020","160,1,N,0021,1","01350,1,C,N","011265,1,N,1","-0020,1","-0060,1","99999,9","02,5,+00300,1,99,9","07,5,+01350,1,99,9",,,"07,99,1,99,9,99,9,99999,9,99,9,99,9",,"09939,1,99999,9",,,,"MET060METAR ENSD 051450Z 16004KT 9999 FEW010 BKN045 M02/M06 Q0994;",
"01320099999","2010-12-05T15:50:00","4","61.8333333","6.1166667","60.0","SANDANE ANDA, NO","FM-15","ENSD ","V020","160,1,N,0026,1","01350,1,C,N","011265,1,N,1","-0030,1","-0070,1","99999,9","02,5,+00300,1,99,9","07,5,+01350,1,99,9",,,"07,99,1,99,9,99,9,99999,9,99,9,99,9",,"09939,1,99999,9",,,,"MET060METAR ENSD 051550Z 16005KT 9999 FEW010 BKN045 M03/M07 Q0994;",
"01320099999","2010-12-05T16:50:00","4","61.8333333","6.1166667","60.0","SANDANE ANDA, NO","FM-15","ENSD ","V020","999,9,V,0010,1","01350,1,C,N","011265,1,N,1","-0040,1","-0070,1","99999,9","07,5,+01350,1,99,9",,,,"07,99,1,99,9,99,9,99999,9,99,9,99,9",,"09939,1,99999,9",,,,"MET053METAR ENSD 051650Z VRB02KT 9999 BKN045 M04/M07 Q0994;",
"01320099999","2010-12-05T17:50:00","4","61.8333333","6.1166667","60.0","SANDANE ANDA, NO","FM-15","ENSD ","V020","160,1,N,0021,1","01350,1,C,N","011265,1,N,1","-0040,1","-0070,1","99999,9","07,5,+01350,1,99,9",,,,"07,99,1,99,9,99,9,99999,9,99,9,99,9",,"09939,1,99999,9",,,,"MET053METAR ENSD 051750Z 16004KT 9999 BKN045 M04/M07 Q0994;",
"01320099999","2010-12-05T18:50:00","4","61.8333333","6.1166667","60.0","SANDANE ANDA, NO","FM-15","ENSD ","V020","140,1,N,0031,1","22000,1,9,N","011265,1,N,1","-0040,1","-0080,1","99999,9","04,5,+01350,1,99,9",,,,"04,99,1,99,9,99,9,99999,9,99,9,99,9",,"09939,1,99999,9",,,,"MET053METAR ENSD 051850Z 14006KT 9999 SCT045 M04/M08 Q0994;",
"01320099999","2010-12-05T19:50:00","4","61.8333333","6.1166667","60.0","SANDANE ANDA, NO","FM-15","ENSD ","V020","140,1,N,0041,1","22000,1,9,N","011265,1,N,1","-0040,1","-0080,1","99999,9","04,5,+01350,1,99,9",,,,"04,99,1,99,9,99,9,99999,9,99,9,99,9",,"09939,1,99999,9",,,,"MET053METAR ENSD 051950Z 14008KT 9999 SCT045 M04/M08 Q0994;",
"01320099999","2010-12-06T04:50:00","4","61.8333333","6.1166667","60.0","SANDANE ANDA, NO","FM-15","ENSD ","V020","130,1,N,0036,1","99999,9,9,Y","009900,1,N,1","-0040,1","-0090,1","99999,9",,,,,,,"09929,1,99999,9",,,,"MET047METAR ENSD 060450Z 13007KT CAVOK M04/M09 Q0993;",
"01320099999","2010-12-06T05:50:00","4","61.8333333","6.1166667","60.0","SANDANE ANDA, NO","FM-15","ENSD ","V020","140,1,N,0046,1","99999,9,9,Y","009900,1,N,1","-0040,1","-0090,1","99999,9",,,,,,,"09929,1,99999,9",,,,"MET047METAR ENSD 060550Z 14009KT CAVOK M04/M09 Q0993;",
"01320099999","2010-12-06T06:50:00","4","61.8333333","6.1166667","60.0","SANDANE ANDA, NO","FM-15","ENSD ","V020","140,1,N,0051,1","22000,1,9,N","011265,1,N,1","-0040,1","-0090,1","99999,9","04,5,+01500,1,99,9",,,,"04,99,1,99,9,99,9,99999,9,99,9,99,9",,"09929,1,99999,9",,,,"MET053METAR ENSD 060650Z 14010KT 9999 SCT050 M04/M09 Q0993;",
"01320099999","2010-12-06T07:50:00","4","61.8333333","6.1166667","60.0","SANDANE ANDA, NO","FM-15","ENSD ","V020","140,1,N,0041,1","99999,9,C,N","011265,1,N,1","-0040,1","-0090,1","99999,9","02,5,+00900,1,99,9","04,5,+01500,1,99,9",,,"04,99,1,99,9,99,9,99999,9,99,9,99,9",,"09929,1,99999,9",,,,"MET060METAR ENSD 060750Z 14008KT 9999 FEW030 SCT050 M04/M09 Q0993;","P01 015003SCOCIG"
"01320099999","2010-12-06T08:50:00","4","61.8333333","6.1166667","60.0","SANDANE ANDA, NO","FM-15","ENSD ","V020","140,1,N,0041,1","99999,9,C,N","011265,1,N,1","-0040,1","-0090,1","99999,9","02,5,+00900,1,99,9","04,5,+01500,1,99,9",,,"04,99,1,99,9,99,9,99999,9,99,9,99,9",,"09939,1,99999,9",,,,"MET060METAR ENSD 060850Z 14008KT 9999 FEW030 SCT050 M04/M09 Q0994;","P01 015003SCOCIG"
"01320099999","2010-12-06T09:50:00","4","61.8333333","6.1166667","60.0","SANDANE ANDA, NO","FM-15","ENSD ","V020","160,1,N,0036,1","99999,9,C,N","011265,1,N,1","-0030,1","-0080,1","99999,9","02,5,+00600,1,99,9","04,5,+01500,1,99,9",,,"04,99,1,99,9,99,9,99999,9,99,9,99,9",,"09939,1,99999,9",,,,"MET060METAR ENSD 060950Z 16007KT 9999 FEW020 SCT050 M03/M08 Q0994;","P01 015003SCOCIG"
"01320099999","2010-12-06T10:50:00","4","61.8333333","6.1166667","60.0","SANDANE ANDA, NO","FM-15","ENSD ","V020","160,1,N,0031,1","22000,1,9,N","011265,1,N,1","-0030,1","-0080,1","99999,9","04,5,+01500,1,99,9",,,,"04,99,1,99,9,99,9,99999,9,99,9,99,9",,"09939,1,99999,9",,,,"MET053METAR ENSD 061050Z 16006KT 9999 SCT050 M03/M08 Q0994;",
"01320099999","2010-12-06T11:50:00","4","61.8333333","6.1166667","60.0","SANDANE ANDA, NO","FM-15","ENSD ","V020","150,1,N,0041,1","01200,1,C,N","011265,1,N,1","-0030,1","-0080,1","99999,9","07,5,+01200,1,99,9",,,,"07,99,1,99,9,99,9,99999,9,99,9,99,9",,"09939,1,99999,9",,,,"MET053METAR ENSD 061150Z 15008KT 9999 BKN040 M03/M08 Q0994;",
"01320099999","2010-12-06T12:50:00","4","61.8333333","6.1166667","60.0","SANDANE ANDA, NO","FM-15","ENSD ","V020","150,1,N,0036,1","01200,1,C,N","011265,1,N,1","-0030,1","-0080,1","99999,9","07,5,+01200,1,99,9",,,,"07,99,1,99,9,99,9,99999,9,99,9,99,9",,"09939,1,99999,9",,,,"MET053METAR ENSD 061250Z 15007KT 9999 BKN040 M03/M08 Q0994;",
"01320099999","2010-12-06T13:50:00","4","61.8333333","6.1166667","60.0","SANDANE ANDA, NO","FM-15","ENSD ","V020","140,1,N,0021,1","01350,1,C,N","011265,1,N,1","-0030,1","-0080,1","99999,9","07,5,+01350,1,99,9",,,,"07,99,1,99,9,99,9,99999,9,99,9,99,9",,"09939,1,99999,9",,,,"MET053METAR ENSD 061350Z 14004KT 9999 BKN045 M03/M08 Q0994;",
"01320099999","2010-12-06T14:50:00","4","61.8333333","6.1166667","60.0","SANDANE ANDA, NO","FM-15","ENSD ","V020","160,1,N,0015,1","01350,1,C,N","011265,1,N,1","-0030,1","-0080,1","99999,9","02,5,+00300,1,99,9","07,5,+01350,1,99,9",,,"07,99,1,99,9,99,9,99999,9,99,9,99,9",,"09939,1,99999,9","16,1",,,"MET065METAR ENSD 061450Z 16003KT 9999 VCSH FEW010 BKN045 M03/M08 Q0994;",
"01320099999","2010-12-06T15:50:00","4","61.8333333","6.1166667","60.0","SANDANE ANDA, NO","FM-15","ENSD ","V020","130,1,N,0021,1","01350,1,C,N","011265,1,N,1","-0030,1","-0080,1","99999,9","07,5,+01350,1,99,9",,,,"07,99,1,99,9,99,9,99999,9,99,9,99,9",,"09939,1,99999,9",,,,"MET053METAR ENSD 061550Z 13004KT 9999 BKN045 M03/M08 Q0994;",
"01320099999","2010-12-06T16:50:00","4","61.8333333","6.1166667","60.0","SANDANE ANDA, NO","FM-15","ENSD ","V020","100,1,N,0021,1","00750,1,C,N","011265,1,N,1","-0030,1","-0080,1","99999,9","02,5,+00300,1,99,9","04,5,+00750,1,99,9","07,5,+01200,1,99,9",,"07,99,1,99,9,99,9,99999,9,99,9,99,9",,"09939,1,99999,9","85,5",,,"MET073METAR ENSD 061650Z 10004KT 9999 -SHSN FEW010 SCT025 BKN040 M03/M08 Q0994;",
"01320099999","2010-12-06T17:50:00","4","61.8333333","6.1166667","60.0","SANDANE ANDA, NO","FM-15","ENSD ","V020","150,1,N,0031,1","01200,1,C,N","011265,1,N,1","-0020,1","-0070,1","99999,9","02,5,+00300,1,99,9","07,5,+01200,1,99,9",,,"07,99,1,99,9,99,9,99999,9,99,9,99,9",,"09939,1,99999,9",,,,"MET060METAR ENSD 061750Z 15006KT 9999 FEW010 BKN040 M02/M07 Q0994;",
"01320099999","2010-12-06T18:50:00","4","61.8333333","6.1166667","60.0","SANDANE ANDA, NO","FM-15","ENSD ","V020","160,1,N,0026,1","01200,1,C,N","011265,1,N,1","-0020,1","-0070,1","99999,9","02,5,+00300,1,99,9","07,5,+01200,1,99,9",,,"07,99,1,99,9,99,9,99999,9,99,9,99,9",,"09949,1,99999,9",,,,"MET060METAR ENSD 061850Z 16005KT 9999 FEW010 BKN040 M02/M07 Q0995;",
"01320099999","2010-12-07T05:20:00","4","61.8333333","6.1166667","60.0","SANDANE ANDA, NO","FM-15","ENSD ","V020","160,1,N,0031,1","99999,9,C,N","011265,1,N,1","-0010,1","-0050,1","99999,9","02,5,+00300,1,99,9","04,5,+01200,1,99,9",,,"04,99,1,99,9,99,9,99999,9,99,9,99,9",,"09970,1,99999,9",,,,"MET060METAR ENSD 070520Z 16006KT 9999 FEW010 SCT040 M01/M05 Q0997;","P01 012003SCOCIG"
"01320099999","2010-12-07T05:50:00","4","61.8333333","6.1166667","60.0","SANDANE ANDA, NO","FM-15","ENSD ","V020","150,1,N,0031,1","99999,9,C,N","011265,1,N,1","-0010,1","-0050,1","99999,9","02,5,+00300,1,99,9","04,5,+01200,1,99,9",,,"04,99,1,99,9,99,9,99999,9,99,9,99,9",,"09970,1,99999,9",,,,"MET060METAR ENSD 070550Z 15006KT 9999 FEW010 SCT040 M01/M05 Q0997;","P01 012003SCOCIG"
"01320099999","2010-12-07T06:50:00","4","61.8333333","6.1166667","60.0","SANDANE ANDA, NO","FM-15","ENSD ","V020","140,1,N,0026,1","99999,9,C,N","011265,1,N,1","-0010,1","-0050,1","99999,9","02,5,+00300,1,99,9","04,5,+01200,1,99,9",,,"04,99,1,99,9,99,9,99999,9,99,9,99,9",,"09980,1,99999,9",,,,"MET060METAR ENSD 070650Z 14005KT 9999 FEW010 SCT040 M01/M05 Q0998;","P01 012003SCOCIG"
"01320099999","2010-12-07T07:50:00","4","61.8333333","6.1166667","60.0","SANDANE ANDA, NO","FM-15","ENSD ","V020","130,1,N,0021,1","99999,9,C,N","011265,1,N,1","-0010,1","-0050,1","99999,9","02,5,+00300,1,99,9","04,5,+01200,1,99,9",,,"04,99,1,99,9,99,9,99999,9,99,9,99,9",,"09980,1,99999,9",,,,"MET060METAR ENSD 070750Z 13004KT 9999 FEW010 SCT040 M01/M05 Q0998;","P01 012003SCOCIG"
"01320099999","2010-12-07T09:20:00","4","61.8333333","6.1166667","60.0","SANDANE ANDA, NO","FM-15","ENSD ","V020","999,9,V,0005,1","22000,1,9,N","011265,1,N,1","-0030,1","-0060,1","99999,9","04,5,+01200,1,99,9",,,,"04,99,1,99,9,99,9,99999,9,99,9,99,9",,"09990,1,99999,9",,,,"MET077METAR ENSD 070920Z VRB01KT 9999 SCT040 M03/M06 Q0999 RMK WIND 1138FT 08005KT;",
"01320099999","2010-12-07T09:50:00","4","61.8333333","6.1166667","60.0","SANDANE ANDA, NO","FM-15","ENSD ","V020","999,9,V,0005,1","22000,1,9,N","011265,1,N,1","-0020,1","-0060,1","99999,9","02,5,+01200,1,99,9",,,,"02,99,1,99,9,99,9,99999,9,99,9,99,9",,"10000,1,99999,9",,,,"MET077METAR ENSD 070950Z VRB01KT 9999 FEW040 M02/M06 Q1000 RMK WIND 1138FT 08006KT;",
"01320099999","2010-12-07T10:50:00","4","61.8333333","6.1166667","60.0","SANDANE ANDA, NO","FM-15","ENSD ","V020","999,9,V,0005,1","22000,1,9,N","011265,1,N,1","-0020,1","-0060,1","99999,9","02,5,+01200,1,99,9",,,,"02,99,1,99,9,99,9,99999,9,99,9,99,9",,"10000,1,99999,9",,,,"MET077METAR ENSD 071050Z VRB01KT 9999 FEW040 M02/M06 Q1000 RMK WIND 1138FT 08005KT;",
"01320099999","2010-12-07T11:50:00","4","61.8333333","6.1166667","60.0","SANDANE ANDA, NO","FM-15","ENSD ","V020","999,9,V,0015,1","99999,9,C,N","011265,1,N,1","-0010,1","-0060,1","99999,9","02,5,+01200,1,99,9","04,5,+02700,1,99,9",,,"04,99,1,99,9,99,9,99999,9,99,9,99,9",,"10000,1,99999,9",,,,"MET084METAR ENSD 071150Z VRB03KT 9999 FEW040 SCT090 M01/M06 Q1000 RMK WIND 1138FT 08005KT;","P01 027003SCOCIG"
"01320099999","2010-12-07T12:50:00","4","61.8333333","6.1166667","60.0","SANDANE ANDA, NO","FM-15","ENSD ","V020","999,9,V,0005,1","22000,1,9,N","011265,1,N,1","-0010,1","-0060,1","99999,9","02,5,+01200,1,99,9",,,,"02,99,1,99,9,99,9,99999,9,99,9,99,9",,"10000,1,99999,9",,,,"MET077METAR ENSD 071250Z VRB01KT 9999 FEW040 M01/M06 Q1000 RMK WIND 1138FT VRB02KT;",
"01320099999","2010-12-07T13:50:00","4","61.8333333","6.1166667","60.0","SANDANE ANDA, NO","FM-15","ENSD ","V020","190,1,N,0015,1","22000,1,9,N","011265,1,N,1","-0010,1","-0060,1","99999,9","02,5,+01200,1,99,9",,,,"02,99,1,99,9,99,9,99999,9,99,9,99,9","999,M,+0003,1","10010,1,99999,9",,,,"MET077METAR ENSD 071350Z 19003KT 9999 FEW040 M01/M06 Q1001 RMK WIND 1138FT 10003KT;",
"01320099999","2010-12-07T14:50:00","4","61.8333333","6.1166667","60.0","SANDANE ANDA, NO","FM-15","ENSD ","V020","100,1,N,0026,1","22000,1,9,N","011265,1,N,1","-0010,1","-0060,1","99999,9","02,5,+01200,1,99,9",,,,"02,99,1,99,9,99,9,99999,9,99,9,99,9",,"10010,1,99999,9",,,,"MET077METAR ENSD 071450Z 10005KT 9999 FEW040 M01/M06 Q1001 RMK WIND 1138FT 08006KT;",
"01320099999","2010-12-07T15:50:00","4","61.8333333","6.1166667","60.0","SANDANE ANDA, NO","FM-15","ENSD ","V020","180,1,N,0021,1","22000,1,9,N","011265,1,N,1","-0010,1","-0070,1","99999,9","02,5,+01200,1,99,9",,,,"02,99,1,99,9,99,9,99999,9,99,9,99,9",,"10010,1,99999,9",,,,"MET077METAR ENSD 071550Z 18004KT 9999 FEW040 M01/M07 Q1001 RMK WIND 1138FT 08007KT;",
"01320099999","2010-12-07T16:50:00","4","61.8333333","6.1166667","60.0","SANDANE ANDA, NO","FM-15","ENSD ","V020","999,9,V,0010,1","22000,1,9,N","011265,1,N,1","-0020,1","-0070,1","99999,9","02,5,+01200,1,99,9",,,,"02,99,1,99,9,99,9,99999,9,99,9,99,9",,"10010,1,99999,9",,,,"MET077METAR ENSD 071650Z VRB02KT 9999 FEW040 M02/M07 Q1001 RMK WIND 1138FT 08009KT;",
"01320099999","2010-12-07T17:50:00","4","61.8333333","6.1166667","60.0","SANDANE ANDA, NO","FM-15","ENSD ","V020","100,1,N,0021,1","22000,1,9,N","011265,1,N,1","-0010,1","-0060,1","99999,9","02,5,+01200,1,99,9",,,,"02,99,1,99,9,99,9,99999,9,99,9,99,9",,"10020,1,99999,9",,,,"MET077METAR ENSD 071750Z 10004KT 9999 FEW040 M01/M06 Q1002 RMK WIND 1138FT 08008KT;",
"01320099999","2010-12-07T18:50:00","4","61.8333333","6.1166667","60.0","SANDANE ANDA, NO","FM-15","ENSD ","V020","150,1,N,0021,1","22000,1,9,N","011265,1,N,1","-0020,1","-0070,1","99999,9","02,5,+01200,1,99,9",,,,"02,99,1,99,9,99,9,99999,9,99,9,99,9",,"10020,1,99999,9",,,,"MET077METAR ENSD 071850Z 15004KT 9999 FEW040 M02/M07 Q1002 RMK WIND 1138FT 09007KT;",
"01320099999","2010-12-07T19:50:00","4","61.8333333","6.1166667","60.0","SANDANE ANDA, NO","FM-15","ENSD ","V020","160,1,N,0026,1","22000,1,9,N","011265,1,N,1","-0020,1","-0070,1","99999,9","02,5,+01200,1,99,9",,,,"02,99,1,99,9,99,9,99999,9,99,9,99,9",,"10020,1,99999,9",,,,"MET077METAR ENSD 071950Z 16005KT 9999 FEW040 M02/M07 Q1002 RMK WIND 1138FT 09005KT;",
"01320099999","2010-12-08T04:50:00","4","61.8333333","6.1166667","60.0","SANDANE ANDA, NO","FM-15","ENSD ","V020","170,1,N,0036,1","22000,1,9,N","011265,1,N,1","-0050,1","-0100,1","99999,9","02,5,+00600,1,99,9",,,,"02,99,1,99,9,99,9,99999,9,99,9,99,9",,"10020,1,99999,9",,,,"MET077METAR ENSD 080450Z 17007KT 9999 FEW020 M05/M10 Q1002 RMK WIND 1138FT VRB01KT;",
"01320099999","2010-12-08T06:50:00","4","61.8333333","6.1166667","60.0","SANDANE ANDA, NO","FM-15","ENSD ","V020","150,1,N,0036,1","22000,1,9,N","011265,1,N,1","-0050,1","-0090,1","99999,9","02,5,+00900,1,99,9",,,,"02,99,1,99,9,99,9,99999,9,99,9,99,9",,"10031,1,99999,9",,,,"MET077METAR ENSD 080650Z 15007KT 9999 FEW030 M05/M09 Q1003 RMK WIND 1138FT 00000KT;",
"01320099999","2010-12-08T07:50:00","4","61.8333333","6.1166667","60.0","SANDANE ANDA, NO","FM-15","ENSD ","V020","150,1,N,0026,1","00900,1,C,N","011265,1,N,1","-0040,1","-0090,1","99999,9","02,5,+00600,1,99,9","04,5,+00900,1,99,9","07,5,+01050,1,99,9",,"07,99,1,99,9,99,9,99999,9,99,9,99,9",,"10031,1,99999,9","85,5",,,"MET097METAR ENSD 080750Z 15005KT 9999 -SHSN FEW020 SCT030 BKN035 M04/M09 Q1003 RMK WIND 1138FT 21003KT;",
"01320099999","2010-12-08T09:50:00","4","61.8333333","6.1166667","60.0","SANDANE ANDA, NO","FM-15","ENSD ","V020","999,9,V,0015,1","00120,1,9,N","001000,1,N,1","-0040,1","-0070,1","99999,9","09,1,+00120,1,99,9",,,,"09,99,1,99,9,99,9,00025,1,99,9,99,9",,"10041,1,99999,9","85,5",,,"MET082METAR ENSD 080950Z VRB03KT 1000 -SHSN VV004 M04/M07 Q1004 RMK WIND 1138FT 22005KT;",
"01320099999","2010-12-08T10:50:00","4","61.8333333","6.1166667","60.0","SANDANE ANDA, NO","FM-15","ENSD ","V020","200,1,N,0036,1","00510,1,C,N","002000,1,N,1","-0030,1","-0060,1","99999,9","02,5,+00030,1,99,9","04,5,+00510,1,99,9","07,5,+00900,1,99,9",,"07,99,1,99,9,99,9,99999,9,99,9,99,9",,"10051,1,99999,9","85,5",,,"MET103METAR ENSD 081050Z 20007KT 2000 5000W -SHSN FEW001 SCT017 BKN030 M03/M06 Q1005 RMK WIND 1138FT 25006KT;",
"01320099999","2010-12-08T11:50:00","4","61.8333333","6.1166667","60.0","SANDANE ANDA, NO","FM-15","ENSD ","V020","210,1,N,0031,1","01200,1,C,N","011265,1,N,1","-0020,1","-0070,1","99999,9","02,5,+00090,1,99,9","07,5,+01200,1,99,9",,,"07,99,1,99,9,99,9,99999,9,99,9,99,9",,"10051,1,99999,9",,,,"MET084METAR ENSD 081150Z 21006KT 9999 FEW003 BKN040 M02/M07 Q1005 RMK WIND 1138FT 26005KT;",
"01320099999","2010-12-08T12:50:00","4","61.8333333","6.1166667","60.0","SANDANE ANDA, NO","FM-15","ENSD ","V020","150,1,N,0036,1","22000,1,9,N","011265,1,N,1","-0030,1","-0070,1","99999,9","04,5,+01200,1,99,9",,,,"04,99,1,99,9,99,9,99999,9,99,9,99,9",,"10051,1,99999,9",,,,"MET077METAR ENSD 081250Z 15007KT 9999 SCT040 M03/M07 Q1005 RMK WIND 1138FT VRB02KT;",
"01320099999","2010-12-08T13:50:00","4","61.8333333","6.1166667","60.0","SANDANE ANDA, NO","FM-15","ENSD ","V020","180,1,N,0036,1","00540,1,C,N","008000,1,N,1","-0020,1","-0070,1","99999,9","02,5,+00180,1,99,9","04,5,+00540,1,99,9","07,5,+01050,1,99,9",,"07,99,1,99,9,99,9,99999,9,99,9,99,9",,"10051,1,99999,9","85,5",,,"MET103METAR ENSD 081350Z 18007KT 8000 3000W -SHSN FEW006 SCT018 BKN035 M02/M07 Q1005 RMK WIND 1138FT 29005KT;",
"01320099999","2010-12-08T14:50:00","4","61.8333333","6.1166667","60.0","SANDANE ANDA, NO","FM-15","ENSD ","V020","160,1,N,0010,1","00240,1,9,N","002000,1,N,1","-0030,1","-0060,1","99999,9","09,1,+00240,1,99,9",,,,"09,99,1,99,9,99,9,00025,1,99,9,99,9",,"10051,1,99999,9","86,5",,,"MET081METAR ENSD 081450Z 16002KT 2000 SHSN VV008 M03/M06 Q1005 RMK WIND 1138FT 26004KT;",
"01320099999","2010-12-08T15:50:00","4","61.8333333","6.1166667","60.0","SANDANE ANDA, NO","FM-15","ENSD ","V020","160,1,N,0031,1","00300,1,C,N","006000,1,N,1","-0020,1","-0050,1","99999,9","02,5,+00180,1,99,9","04,5,+00300,1,99,9","07,5,+00450,1,99,9",,"07,99,1,99,9,99,9,99999,9,99,9,99,9",,"10051,1,99999,9","16,1",,,"MET101METAR ENSD 081550Z 16006KT 6000 VCSH FEW006 SCT010 BKN015 M02/M05 Q1005 RESH RMK WIND 1138FT 26004KT;",
"01320099999","2010-12-08T16:50:00","4","61.8333333","6.1166667","60.0","SANDANE ANDA, NO","FM-15","ENSD ","V020","200,1,N,0031,1","00360,1,C,N","008000,1,N,1","-0030,1","-0060,1","99999,9","02,5,+00180,1,99,9","04,5,+00360,1,99,9","07,5,+00750,1,99,9",,"07,99,1,99,9,99,9,99999,9,99,9,99,9",,"10051,1,99999,9","16,1",,,"MET096METAR ENSD 081650Z 20006KT 8000 VCSH FEW006 SCT012 BKN025 M03/M06 Q1005 RMK WIND 1138FT 24005KT;",
"01320099999","2010-12-08T17:50:00","4","61.8333333","6.1166667","60.0","SANDANE ANDA, NO","FM-15","ENSD ","V020","150,1,N,0041,1","00360,1,C,N","011265,1,N,1","-0030,1","-0060,1","99999,9","02,5,+00240,1,99,9","04,5,+00360,1,99,9","07,5,+00750,1,99,9",,"07,99,1,99,9,99,9,99999,9,99,9,99,9",,"10061,1,99999,9","16,1",,,"MET096METAR ENSD 081750Z 15008KT 9999 VCSH FEW008 SCT012 BKN025 M03/M06 Q1006 RMK WIND 1138FT 23003KT;",
"01320099999","2010-12-08T18:50:00","4","61.8333333","6.1166667","60.0","SANDANE ANDA, NO","FM-15","ENSD ","V020","150,1,N,0031,1","00450,1,C,N","011265,1,N,1","-0030,1","-0060,1","99999,9","02,5,+00240,1,99,9","04,5,+00450,1,99,9","07,5,+00750,1,99,9",,"07,99,1,99,9,99,9,99999,9,99,9,99,9",,"10061,1,99999,9",,,,"MET091METAR ENSD 081850Z 15006KT 9999 FEW008 SCT015 BKN025 M03/M06 Q1006 RMK WIND 1138FT 22003KT;",
"01320099999","2010-12-08T19:50:00","4","61.8333333","6.1166667","60.0","SANDANE ANDA, NO","FM-15","ENSD ","V020","140,1,N,0026,1","00900,1,C,N","009000,1,N,1","-0030,1","-0060,1","99999,9","04,5,+00450,1,99,9","07,5,+00900,1,99,9",,,"07,99,1,99,9,99,9,99999,9,99,9,99,9",,"10061,1,99999,9","85,5",,,"MET090METAR ENSD 081950Z 14005KT 9000 -SHSN SCT015 BKN030 M03/M06 Q1006 RMK WIND 1138FT 22004KT;",
"01320099999","2010-12-08T20:50:00","4","61.8333333","6.1166667","60.0","SANDANE ANDA, NO","FM-15","ENSD ","V020","130,1,N,0021,1","00900,1,C,N","011265,1,N,1","-0030,1","-0070,1","99999,9","02,5,+00450,1,99,9","07,5,+00900,1,99,9",,,"07,99,1,99,9,99,9,99999,9,99,9,99,9",,"10061,1,99999,9",,,,"MET084METAR ENSD 082050Z 13004KT 9999 FEW015 BKN030 M03/M07 Q1006 RMK WIND 1138FT 20006KT;",
"01320099999","2010-12-09T05:20:00","4","61.8333333","6.1166667","60.0","SANDANE ANDA, NO","FM-15","ENSD ","V020","160,1,N,0031,1","00180,1,9,N","000500,1,N,1","-0030,1","-0060,1","99999,9","09,1,+00180,1,99,9",,,,"09,99,1,99,9,99,9,00025,1,99,9,99,9",,"10081,1,99999,9","86,5",,,"MET082METAR ENSD 090520Z 16006KT 0500 +SHSN VV006 M03/M06 Q1008 RMK WIND 1138FT 23004KT;",
"01320099999","2010-12-09T05:50:00","4","61.8333333","6.1166667","60.0","SANDANE ANDA, NO","FM-15","ENSD ","V020","180,1,N,0015,1","00360,1,9,N","002000,1,N,1","-0030,1","-0060,1","99999,9","09,1,+00360,1,99,9",,,,"09,99,1,99,9,99,9,00025,1,99,9,99,9",,"10091,1,99999,9","85,5",,,"MET082METAR ENSD 090550Z 18003KT 2000 -SHSN VV012 M03/M06 Q1009 RMK WIND 1138FT VRB02KT;",
"01320099999","2010-12-09T06:50:00","4","61.8333333","6.1166667","60.0","SANDANE ANDA, NO","FM-15","ENSD ","V020","180,1,N,0015,1","00300,1,9,N","002000,1,N,1","-0030,1","-0050,1","99999,9","09,1,+00300,1,99,9",,,,"09,99,1,99,9,99,9,00025,1,99,9,99,9",,"10091,1,99999,9","86,5",,,"MET081METAR ENSD 090650Z 18003KT 2000 SHSN VV010 M03/M05 Q1009 RMK WIND 1138FT VRB02KT;",
"01320099999","2010-12-09T07:50:00","4","61.8333333","6.1166667","60.0","SANDANE ANDA, NO","FM-15","ENSD ","V020","999,9,V,0015,1","00240,1,9,N","002000,1,N,1","-0020,1","-0050,1","99999,9","09,1,+00240,1,99,9",,,,"09,99,1,99,9,99,9,00025,1,99,9,99,9",,"10102,1,99999,9","86,5",,,"MET084METAR ENSD 090750Z VRB03KT 2000 SHSN VV008 M02/M05 Q1010 RMK WIND 1138FT 32010G26KT;",
"01320099999","2010-12-09T08:20:00","4","61.8333333","6.1166667","60.0","SANDANE ANDA, NO","FM-15","ENSD ","V020","140,1,N,0051,1","00240,1,C,N","008000,1,N,1","-0030,1","-0050,1","99999,9","02,5,+00090,1,99,9","04,5,+00240,1,99,9","07,5,+00750,1,99,9",,"07,99,1,99,9,99,9,99999,9,99,9,99,9",,"10108,1,99999,9","16,1",,,"MET101METAR ENSD 090820Z 14010KT 8000 VCSH FEW003 SCT008 BKN025 M03/M05 Q1011 RESH RMK WIND 1138FT 31005KT;",
"01320099999","2010-12-09T08:50:00","4","61.8333333","6.1166667","60.0","SANDANE ANDA, NO","FM-15","ENSD ","V020","140,1,N,0026,1","00240,1,C,N","009000,1,N,1","-0020,1","-0050,1","99999,9","02,5,+00090,1,99,9","04,5,+00240,1,99,9","04,5,+00510,1,99,9","07,5,+00750,1,99,9","07,99,1,99,9,99,9,99999,9,99,9,99,9",,"10108,1,99999,9","16,1",,,"MET103METAR ENSD 090850Z 14005KT 9000 VCSH FEW003 SCT008 SCT017 BKN025 M02/M05 Q1011 RMK WIND 1138FT 21003KT;",
"01320099999","2010-12-09T10:50:00","4","61.8333333","6.1166667","60.0","SANDANE ANDA, NO","FM-15","ENSD ","V020","140,1,N,0041,1","99999,9,C,N","011265,1,N,1","-0030,1","-0050,1","99999,9","02,5,+00180,1,99,9","04,5,+01050,1,99,9",,,"04,99,1,99,9,99,9,99999,9,99,9,99,9",,"10129,1,99999,9",,,,"MET084METAR ENSD 091050Z 14008KT 9999 FEW006 SCT035 M03/M05 Q1013 RMK WIND 1138FT VRB01KT;","P01 010503SCOCIG"
"01320099999","2010-12-09T11:50:00","4","61.8333333","6.1166667","60.0","SANDANE ANDA, NO","FM-15","ENSD ","V020","999,9,V,0015,1","00900,1,C,N","011265,1,N,1","-0020,1","-0060,1","99999,9","02,5,+00180,1,99,9","07,5,+00900,1,99,9",,,"07,99,1,99,9,99,9,99999,9,99,9,99,9",,"10129,1,99999,9",,,,"MET084METAR ENSD 091150Z VRB03KT 9999 FEW006 BKN030 M02/M06 Q1013 RMK WIND 1138FT VRB02KT;",
"01320099999","2010-12-09T12:50:00","4","61.8333333","6.1166667","60.0","SANDANE ANDA, NO","FM-15","ENSD ","V020","180,1,N,0021,1","01200,1,C,N","011265,1,N,1","-0020,1","-0060,1","99999,9","02,5,+00240,1,99,9","07,5,+01200,1,99,9",,,"07,99,1,99,9,99,9,99999,9,99,9,99,9",,"10139,1,99999,9",,,,"MET091METAR ENSD 091250Z 18004KT 9999 FEW008 BKN040 M02/M06 Q1014 RESHSN RMK WIND 1138FT VRB02KT;",
"01320099999","2010-12-09T13:50:00","4","61.8333333","6.1166667","60.0","SANDANE ANDA, NO","FM-15","ENSD ","V020","999,9,V,0010,1","01200,1,C,N","002500,1,N,1","-0020,1","-0050,1","99999,9","02,5,+00240,1,99,9","07,5,+01200,1,99,9",,,"07,99,1,99,9,99,9,99999,9,99,9,99,9",,"10149,1,99999,9","86,5",,,"MET089METAR ENSD 091350Z VRB02KT 2500 SHSN FEW008 BKN040 M02/M05 Q1015 RMK WIND 1138FT 34003KT;",
"01320099999","2010-12-09T14:50:00","4","61.8333333","6.1166667","60.0","SANDANE ANDA, NO","FM-15","ENSD ","V020","140,1,N,0031,1","01200,1,C,N","011265,1,N,1","-0020,1","-0050,1","99999,9","02,5,+00240,1,99,9","07,5,+01200,1,99,9",,,"07,99,1,99,9,99,9,99999,9,99,9,99,9",,"10149,1,99999,9",,,,"MET084METAR ENSD 091450Z 14006KT 9999 FEW008 BKN040 M02/M05 Q1015 RMK WIND 1138FT 28003KT;",
"01320099999","2010-12-09T15:50:00","4","61.8333333","6.1166667","60.0","SANDANE ANDA, NO","FM-15","ENSD ","V020","130,1,N,0026,1","01200,1,C,N","011265,1,N,1","-0020,1","-0050,1","99999,9","02,5,+00240,1,99,9","07,5,+01200,1,99,9",,,"07,99,1,99,9,99,9,99999,9,99,9,99,9",,"10159,1,99999,9",,,,"MET084METAR ENSD 091550Z 13005KT 9999 FEW008 BKN040 M02/M05 Q1016 RMK WIND 1138FT VRB01KT;",
"01320099999","2010-12-09T16:50:00","4","61.8333333","6.1166667","60.0","SANDANE ANDA, NO","FM-15","ENSD ","V020","140,1,N,0026,1","00900,1,C,N","011265,1,N,1","-0020,1","-0050,1","99999,9","02,5,+00240,1,99,9","04,5,+00900,1,99,9","07,5,+01200,1,99,9",,"07,99,1,99,9,99,9,99999,9,99,9,99,9",,"10159,1,99999,9",,,,"MET091METAR ENSD 091650Z 14005KT 9999 FEW008 SCT030 BKN040 M02/M05 Q1016 RMK WIND 1138FT VRB02KT;",
"01320099999","2010-12-09T17:50:00","4","61.8333333","6.1166667","60.0","SANDANE ANDA, NO","FM-15","ENSD ","V020","160,1,N,0026,1","00900,1,C,N","011265,1,N,1","-0010,1","-0050,1","99999,9","02,5,+00240,1,99,9","07,5,+00900,1,99,9",,,"07,99,1,99,9,99,9,99999,9,99,9,99,9",,"10180,1,99999,9",,,,"MET084METAR ENSD 091750Z 16005KT 9999 FEW008 BKN030 M01/M05 Q1018 RMK WIND 1138FT VRB01KT;",
"01320099999","2010-12-09T18:50:00","4","61.8333333","6.1166667","60.0","SANDANE ANDA, NO","FM-15","ENSD ","V020","130,1,N,0026,1","00900,1,C,N","006000,1,N,1","-0010,1","-0050,1","99999,9","02,5,+00240,1,99,9","07,5,+00900,1,99,9",,,"07,99,1,99,9,99,9,99999,9,99,9,99,9",,"10180,1,99999,9","85,5",,,"MET090METAR ENSD 091850Z 13005KT 6000 -SHSN FEW008 BKN030 M01/M05 Q1018 RMK WIND 1138FT VRB02KT;",
"01320099999","2010-12-09T19:50:00","4","61.8333333","6.1166667","60.0","SANDANE ANDA, NO","FM-15","ENSD ","V020","130,1,N,0026,1","00900,1,C,N","011265,1,N,1","-0020,1","-0050,1","99999,9","02,5,+00240,1,99,9","07,5,+00900,1,99,9",,,"07,99,1,99,9,99,9,99999,9,99,9,99,9",,"10190,1,99999,9",,,,"MET084METAR ENSD 091950Z 13005KT 9999 FEW008 BKN030 M02/M05 Q1019 RMK WIND 1138FT VRB02KT;",
"01320099999","2010-12-10T05:20:00","4","61.8333333","6.1166667","60.0","SANDANE ANDA, NO","FM-15","ENSD ","V020","130,1,N,0031,1","00750,1,C,N","006000,1,N,1","-0010,1","-0040,1","99999,9","07,5,+00750,1,99,9",,,,"07,99,1,99,9,99,9,99999,9,99,9,99,9",,"10139,1,99999,9","85,5",,,"MET083METAR ENSD 100520Z 13006KT 6000 -SHSN BKN025 M01/M04 Q1014 RMK WIND 1138FT 08006KT;",
"01320099999","2010-12-10T06:50:00","4","61.8333333","6.1166667","60.0","SANDANE ANDA, NO","FM-15","ENSD ","V020","130,1,N,0026,1","00750,1,C,N","004000,1,N,1","+0000,1","-0030,1","99999,9","04,5,+00150,1,99,9","07,5,+00750,1,99,9",,,"07,99,1,99,9,99,9,99999,9,99,9,99,9",,"10139,1,99999,9","73,1",,,"MET087METAR ENSD 100650Z 13005KT 4000 SN SCT005 BKN025 M00/M03 Q1014 RMK WIND 1138FT 08007KT;",
"01320099999","2010-12-10T07:50:00","4","61.8333333","6.1166667","60.0","SANDANE ANDA, NO","FM-15","ENSD ","V020","140,1,N,0026,1","00750,1,C,N","011265,1,N,1","+0000,1","-0030,1","99999,9","02,5,+00150,1,99,9","07,5,+00750,1,99,9",,,"07,99,1,99,9,99,9,99999,9,99,9,99,9",,"10129,1,99999,9","16,1",,,"MET089METAR ENSD 100750Z 14005KT 9999 VCSH FEW005 BKN025 M00/M03 Q1013 RMK WIND 1138FT 08005KT;",
"01320099999","2010-12-10T08:50:00","4","61.8333333","6.1166667","60.0","SANDANE ANDA, NO","FM-15","ENSD ","V020","050,1,N,0026,1","00900,1,C,N","011265,1,N,1","+0000,1","-0020,1","99999,9","02,5,+00150,1,99,9","07,5,+00900,1,99,9",,,"07,99,1,99,9,99,9,99999,9,99,9,99,9","999,M,+0005,1","10119,1,99999,9",,,,"MET083METAR ENSD 100850Z 05005KT 9999 FEW005 BKN030 00/M02 Q1012 RMK WIND 1138FT 10005KT;",
"01320099999","2010-12-10T09:50:00","4","61.8333333","6.1166667","60.0","SANDANE ANDA, NO","FM-15","ENSD ","V020","080,1,N,0031,1","00900,1,C,N","011265,1,N,1","+0010,1","-0020,1","99999,9","02,5,+00150,1,99,9","07,5,+00900,1,99,9",,,"07,99,1,99,9,99,9,99999,9,99,9,99,9",,"10108,1,99999,9","16,1",,,"MET088METAR ENSD 100950Z 08006KT 9999 VCSH FEW005 BKN030 01/M02 Q1011 RMK WIND 1138FT 08006KT;",
"01320099999","2010-12-10T10:50:00","4","61.8333333","6.1166667","60.0","SANDANE ANDA, NO","FM-15","ENSD ","V020","050,1,N,0036,1","00900,1,C,N","011265,1,N,1","+0010,1","-0020,1","99999,9","02,5,+00150,1,99,9","07,5,+00900,1,99,9",,,"07,99,1,99,9,99,9,99999,9,99,9,99,9","999,M,+0005,1","10102,1,99999,9",,,,"MET083METAR ENSD 101050Z 05007KT 9999 FEW005 BKN030 01/M02 Q1010 RMK WIND 1138FT 10005KT;",
"01320099999","2010-12-10T11:50:00","4","61.8333333","6.1166667","60.0","SANDANE ANDA, NO","FM-15","ENSD ","V020","050,1,N,0036,1","00900,1,C,N","011265,1,N,1","+0010,1","-0020,1","99999,9","02,5,+00150,1,99,9","07,5,+00900,1,99,9",,,"07,99,1,99,9,99,9,99999,9,99,9,99,9",,"10091,1,99999,9",,,,"MET083METAR ENSD 101150Z 05007KT 9999 FEW005 BKN030 01/M02 Q1009 RMK WIND 1138FT 08003KT;",
"01320099999","2010-12-10T12:50:00","4","61.8333333","6.1166667","60.0","SANDANE ANDA, NO","FM-15","ENSD ","V020","040,1,N,0021,1","00900,1,C,N","011265,1,N,1","+0010,1","-0020,1","99999,9","02,5,+00150,1,99,9","07,5,+00900,1,99,9",,,"07,99,1,99,9,99,9,99999,9,99,9,99,9",,"10081,1,99999,9",,,,"MET083METAR ENSD 101250Z 04004KT 9999 FEW005 BKN030 01/M02 Q1008 RMK WIND 1138FT 04004KT;",
"01320099999","2010-12-10T13:50:00","4","61.8333333","6.1166667","60.0","SANDANE ANDA, NO","FM-15","ENSD ","V020","090,1,N,0021,1","00300,1,C,N","011265,1,N,1","+0010,1","-0010,1","99999,9","02,5,+00150,1,99,9","04,5,+00300,1,99,9","07,5,+00900,1,99,9",,"07,99,1,99,9,99,9,99999,9,99,9,99,9",,"10071,1,99999,9",,,,"MET090METAR ENSD 101350Z 09004KT 9999 FEW005 SCT010 BKN030 01/M01 Q1007 RMK WIND 1138FT 05003KT;",
"01320099999","2010-12-10T14:50:00","4","61.8333333","6.1166667","60.0","SANDANE ANDA, NO","FM-15","ENSD ","V020","070,1,N,0015,1","00450,1,C,N","011265,1,N,1","+0010,1","-0010,1","99999,9","02,5,+00150,1,99,9","04,5,+00450,1,99,9","07,5,+00900,1,99,9",,"07,99,1,99,9,99,9,99999,9,99,9,99,9",,"10061,1,99999,9",,,,"MET090METAR ENSD 101450Z 07003KT 9999 FEW005 SCT015 BKN030 01/M01 Q1006 RMK WIND 1138FT 04003KT;",
"01320099999","2010-12-10T15:50:00","4","61.8333333","6.1166667","60.0","SANDANE ANDA, NO","FM-15","ENSD ","V020","080,1,N,0015,1","00450,1,C,N","011265,1,N,1","+0010,1","-0010,1","99999,9","02,5,+00150,1,99,9","04,5,+00450,1,99,9","07,5,+00900,1,99,9",,"07,99,1,99,9,99,9,99999,9,99,9,99,9",,"10061,1,99999,9",,,,"MET090METAR ENSD 101550Z 08003KT 9999 FEW005 SCT015 BKN030 01/M01 Q1006 RMK WIND 1138FT 05004KT;",
"01320099999","2010-12-10T16:50:00","4","61.8333333","6.1166667","60.0","SANDANE ANDA, NO","FM-15","ENSD ","V020","080,1,N,0015,1","00450,1,C,N","011265,1,N,1","+0010,1","-0020,1","99999,9","02,5,+00150,1,99,9","04,5,+00450,1,99,9","07,5,+00900,1,99,9",,"07,99,1,99,9,99,9,99999,9,99,9,99,9",,"10041,1,99999,9",,,,"MET090METAR ENSD 101650Z 08003KT 9999 FEW005 SCT015 BKN030 01/M02 Q1004 RMK WIND 1138FT 07003KT;",
"01320099999","2010-12-10T17:50:00","4","61.8333333","6.1166667","60.0","SANDANE ANDA, NO","FM-15","ENSD ","V020","080,1,N,0021,1","00450,1,C,N","011265,1,N,1","+0010,1","-0010,1","99999,9","02,5,+00180,1,99,9","04,5,+00450,1,99,9","07,5,+00900,1,99,9",,"07,99,1,99,9,99,9,99999,9,99,9,99,9",,"10020,1,99999,9",,,,"MET090METAR ENSD 101750Z 08004KT 9999 FEW006 SCT015 BKN030 01/M01 Q1002 RMK WIND 1138FT VRB01KT;",
"01320099999","2010-12-10T18:50:00","4","61.8333333","6.1166667","60.0","SANDANE ANDA, NO","FM-15","ENSD ","V020","090,1,N,0021,1","00300,1,C,N","011265,1,N,1","+0010,1","-0020,1","99999,9","02,5,+00150,1,99,9","04,5,+00300,1,99,9","07,5,+00900,1,99,9",,"07,99,1,99,9,99,9,99999,9,99,9,99,9",,"10010,1,99999,9",,,,"MET090METAR ENSD 101850Z 09004KT 9999 FEW005 SCT010 BKN030 01/M02 Q1001 RMK WIND 1138FT VRB02KT;",
"01320099999","2010-12-10T19:50:00","4","61.8333333","6.1166667","60.0","SANDANE ANDA, NO","FM-15","ENSD ","V020","090,1,N,0015,1","00300,1,C,N","011265,1,N,1","+0010,1","-0020,1","99999,9","02,5,+00150,1,99,9","04,5,+00300,1,99,9","07,5,+00900,1,99,9",,"07,99,1,99,9,99,9,99999,9,99,9,99,9",,"10000,1,99999,9","80,1",,,"MET096METAR ENSD 101950Z 09003KT 9999 -SHRA FEW005 SCT010 BKN030 01/M02 Q1000 RMK WIND 1138FT 00000KT;",
"01320099999","2010-12-11T05:50:00","4","61.8333333","6.1166667","60.0","SANDANE ANDA, NO","FM-15","ENSD ","V020","270,1,N,0057,1","00600,1,C,N","011265,1,N,1","+0040,1","-0010,1","99999,9","02,5,+00300,1,99,9","04,5,+00600,1,99,9","07,5,+00900,1,99,9",,"07,99,1,99,9,99,9,99999,9,99,9,99,9",,"09980,1,99999,9","80,1",,,"MET099METAR ENSD 110550Z 27011KT 9999 -SHRA FEW010 SCT020 BKN030 04/M01 Q0998 RMK WIND 1138FT 29015G26KT;",
"01320099999","2010-12-11T06:50:00","4","61.8333333","6.1166667","60.0","SANDANE ANDA, NO","FM-15","ENSD ","V020","270,1,N,0057,1","00600,1,C,N","011265,1,N,1","+0040,1","-0010,1","99999,9","02,5,+00300,1,99,9","04,5,+00600,1,99,9","07,5,+00900,1,99,9",,"07,99,1,99,9,99,9,99999,9,99,9,99,9",,"09990,1,99999,9","80,1",,,"MET099METAR ENSD 110650Z 27011KT 9999 -SHRA FEW010 SCT020 BKN030 04/M01 Q0999 RMK WIND 1138FT 29013G24KT;",
"01320099999","2010-12-11T07:50:00","4","61.8333333","6.1166667","60.0","SANDANE ANDA, NO","FM-15","ENSD ","V020","270,1,N,0072,1","00600,1,C,N","011265,1,N,1","+0030,1","-0020,1","99999,9","02,5,+00300,1,99,9","04,5,+00600,1,99,9","07,5,+00900,1,99,9",,"07,99,1,99,9,99,9,99999,9,99,9,99,9",,"10000,1,99999,9","80,1",,,"MET099METAR ENSD 110750Z 27014KT 9999 -SHRA FEW010 SCT020 BKN030 03/M02 Q1000 RMK WIND 1138FT 29013G24KT;",
"01320099999","2010-12-11T08:50:00","4","61.8333333","6.1166667","60.0","SANDANE ANDA, NO","FM-15","ENSD ","V020","300,1,N,0036,1","00900,1,C,N","011265,1,N,1","+0040,1","-0020,1","99999,9","04,5,+00540,1,99,9","07,5,+00900,1,99,9",,,"07,99,1,99,9,99,9,99999,9,99,9,99,9",,"10000,1,99999,9","80,1",,,"MET092METAR ENSD 110850Z 30007KT 9999 -SHRA SCT018 BKN030 04/M02 Q1000 RMK WIND 1138FT 28009G19KT;",
"01320099999","2010-12-11T09:50:00","4","61.8333333","6.1166667","60.0","SANDANE ANDA, NO","FM-15","ENSD ","V020","260,1,N,0062,1","00900,1,C,N","011265,1,N,1","+0040,1","-0020,1","99999,9","04,5,+00450,1,99,9","07,5,+00900,1,99,9",,,"07,99,1,99,9,99,9,99999,9,99,9,99,9",,"10000,1,99999,9","80,1",,,"MET089METAR ENSD 110950Z 26012KT 9999 -SHRA SCT015 BKN030 04/M02 Q1000 RMK WIND 1138FT 27005KT;",
"01320099999","2010-12-11T10:50:00","4","61.8333333","6.1166667","60.0","SANDANE ANDA, NO","FM-15","ENSD ","V020","240,1,N,0021,1","00900,1,C,N","011265,1,N,1","+0030,1","-0020,1","99999,9","04,5,+00450,1,99,9","07,5,+00900,1,99,9",,,"07,99,1,99,9,99,9,99999,9,99,9,99,9",,"10000,1,99999,9","80,1",,,"MET089METAR ENSD 111050Z 24004KT 9999 -SHRA SCT015 BKN030 03/M02 Q1000 RMK WIND 1138FT 28007KT;",
"01320099999","2010-12-11T12:50:00","4","61.8333333","6.1166667","60.0","SANDANE ANDA, NO","FM-15","ENSD ","V020","190,1,N,0015,1","00300,1,C,N","011265,1,N,1","+0020,1","-0010,1","99999,9","02,5,+00150,1,99,9","04,5,+00300,1,99,9","07,5,+00900,1,99,9",,"07,99,1,99,9,99,9,99999,9,99,9,99,9",,"10000,1,99999,9","61,1",,,"MET094METAR ENSD 111250Z 19003KT 9999 -RA FEW005 SCT010 BKN030 02/M01 Q1000 RMK WIND 1138FT 29006KT;",
"01320099999","2010-12-11T13:50:00","4","61.8333333","6.1166667","60.0","SANDANE ANDA, NO","FM-15","ENSD ","V020","999,9,V,0010,1","00300,1,C,N","011265,1,N,1","+0020,1","-0010,1","99999,9","02,5,+00150,1,99,9","04,5,+00300,1,99,9","07,5,+00900,1,99,9",,"07,99,1,99,9,99,9,99999,9,99,9,99,9",,"10010,1,99999,9","80,1",,,"MET096METAR ENSD 111350Z VRB02KT 9999 -SHRA FEW005 SCT010 BKN030 02/M01 Q1001 RMK WIND 1138FT 32010KT;",
"01320099999","2010-12-12T09:50:00","4","61.8333333","6.1166667","60.0","SANDANE ANDA, NO","FM-15","ENSD ","V020","160,1,N,0031,1","22000,1,9,N","011265,1,N,1","-0030,1","-0090,1","99999,9","02,5,+01200,1,99,9",,,,"02,99,1,99,9,99,9,99999,9,99,9,99,9",,"10230,1,99999,9",,,,"MET077METAR ENSD 120950Z 16006KT 9999 FEW040 M03/M09 Q1023 RMK WIND 1138FT VRB01KT;",
"01320099999","2010-12-12T10:50:00","4","61.8333333","6.1166667","60.0","SANDANE ANDA, NO","FM-15","ENSD ","V020","160,1,N,0031,1","22000,1,9,N","011265,1,N,1","-0030,1","-0090,1","99999,9","02,5,+01200,1,99,9",,,,"02,99,1,99,9,99,9,99999,9,99,9,99,9",,"10240,1,99999,9",,,,"MET077METAR ENSD 121050Z 16006KT 9999 FEW040 M03/M09 Q1024 RMK WIND 1138FT 07006KT;",
"01320099999","2010-12-12T11:50:00","4","61.8333333","6.1166667","60.0","SANDANE ANDA, NO","FM-15","ENSD ","V020","150,1,N,0021,1","01500,1,C,N","011265,1,N,1","-0020,1","-0080,1","99999,9","02,5,+01050,1,99,9","07,5,+01500,1,99,9",,,"07,99,1,99,9,99,9,99999,9,99,9,99,9",,"10240,1,99999,9",,,,"MET084METAR ENSD 121150Z 15004KT 9999 FEW035 BKN050 M02/M08 Q1024 RMK WIND 1138FT 19004KT;",
"01320099999","2010-12-12T12:50:00","4","61.8333333","6.1166667","60.0","SANDANE ANDA, NO","FM-15","ENSD ","V020","170,1,N,0021,1","01800,1,C,N","011265,1,N,1","-0020,1","-0080,1","99999,9","02,5,+00900,1,99,9","07,5,+01800,1,99,9",,,"07,99,1,99,9,99,9,99999,9,99,9,99,9",,"10240,1,99999,9",,,,"MET084METAR ENSD 121250Z 17004KT 9999 FEW030 BKN060 M02/M08 Q1024 RMK WIND 1138FT 07006KT;",
"01320099999","2010-12-12T15:50:00","4","61.8333333","6.1166667","60.0","SANDANE ANDA, NO","FM-15","ENSD ","V020","150,1,N,0021,1","00900,1,C,N","004000,1,N,1","-0020,1","-0070,1","99999,9","02,5,+00600,1,99,9","04,5,+00900,1,99,9","07,5,+01200,1,99,9",,"07,99,1,99,9,99,9,99999,9,99,9,99,9",,"10230,1,99999,9",,,,"MET091METAR ENSD 121550Z 15004KT 4000 FEW020 SCT030 BKN040 M02/M07 Q1023 RMK WIND 1138FT 08003KT;",
"01320099999","2010-12-12T16:50:00","4","61.8333333","6.1166667","60.0","SANDANE ANDA, NO","FM-15","ENSD ","V020","999,9,V,0010,1","00900,1,C,N","005000,1,N,1","-0030,1","-0070,1","99999,9","02,5,+00600,1,99,9","04,5,+00900,1,99,9","07,5,+01200,1,99,9",,"07,99,1,99,9,99,9,99999,9,99,9,99,9",,"10230,1,99999,9","85,5",,,"MET097METAR ENSD 121650Z VRB02KT 5000 -SHSN FEW020 SCT030 BKN040 M03/M07 Q1023 RMK WIND 1138FT VRB01KT;",
"01320099999","2010-12-12T17:50:00","4","61.8333333","6.1166667","60.0","SANDANE ANDA, NO","FM-15","ENSD ","V020","999,9,V,0010,1","00900,1,C,N","005000,1,N,1","-0030,1","-0060,1","99999,9","02,5,+00600,1,99,9","04,5,+00900,1,99,9","07,5,+01200,1,99,9",,"07,99,1,99,9,99,9,99999,9,99,9,99,9",,"10230,1,99999,9","85,5",,,"MET097METAR ENSD 121750Z VRB02KT 5000 -SHSN FEW020 SCT030 BKN040 M03/M06 Q1023 RMK WIND 1138FT 03003KT;",
"01320099999","2010-12-12T18:50:00","4","61.8333333","6.1166667","60.0","SANDANE ANDA, NO","FM-15","ENSD ","V020","150,1,N,0015,1","00900,1,C,N","005000,1,N,1","-0030,1","-0060,1","99999,9","02,5,+00600,1,99,9","04,5,+00900,1,99,9","07,5,+01200,1,99,9",,"07,99,1,99,9,99,9,99999,9,99,9,99,9",,"10230,1,99999,9","85,5",,,"MET097METAR ENSD 121850Z 15003KT 5000 -SHSN FEW020 SCT030 BKN040 M03/M06 Q1023 RMK WIND 1138FT VRB02KT;",
"01320099999","2010-12-13T04:50:00","4","61.8333333","6.1166667","60.0","SANDANE ANDA, NO","FM-15","ENSD ","V020","999,9,V,0010,1","00600,1,C,N","006000,1,N,1","-0010,1","-0050,1","99999,9","02,5,+00450,1,99,9","04,5,+00600,1,99,9","07,5,+00840,1,99,9",,"07,99,1,99,9,99,9,99999,9,99,9,99,9",,"10230,1,99999,9","85,5",,,"MET097METAR ENSD 130450Z VRB02KT 6000 -SHSN FEW015 SCT020 BKN028 M01/M05 Q1023 RMK WIND 1138FT VRB02KT;",
"01320099999","2010-12-13T05:50:00","4","61.8333333","6.1166667","60.0","SANDANE ANDA, NO","FM-15","ENSD ","V020","150,1,N,0015,1","00600,1,C,N","006000,1,N,1","-0010,1","-0040,1","99999,9","02,5,+00450,1,99,9","04,5,+00600,1,99,9","07,5,+00840,1,99,9",,"07,99,1,99,9,99,9,99999,9,99,9,99,9",,"10240,1,99999,9","85,5",,,"MET097METAR ENSD 130550Z 15003KT 6000 -SHSN FEW015 SCT020 BKN028 M01/M04 Q1024 RMK WIND 1138FT VRB02KT;",
"01320099999","2010-12-13T06:50:00","4","61.8333333","6.1166667","60.0","SANDANE ANDA, NO","FM-15","ENSD ","V020","160,1,N,0021,1","00840,1,C,N","006000,1,N,1","-0010,1","-0040,1","99999,9","04,5,+00300,1,99,9","07,5,+00840,1,99,9",,,"07,99,1,99,9,99,9,99999,9,99,9,99,9",,"10240,1,99999,9","85,5",,,"MET090METAR ENSD 130650Z 16004KT 6000 -SHSN SCT010 BKN028 M01/M04 Q1024 RMK WIND 1138FT VRB02KT;",
"01320099999","2010-12-13T07:50:00","4","61.8333333","6.1166667","60.0","SANDANE ANDA, NO","FM-15","ENSD ","V020","160,1,N,0021,1","00270,1,C,N","011265,1,N,1","-0010,1","-0040,1","99999,9","02,5,+00150,1,99,9","04,5,+00270,1,99,9","07,5,+00360,1,99,9",,"07,99,1,99,9,99,9,99999,9,99,9,99,9",,"10240,1,99999,9","85,5",,,"MET097METAR ENSD 130750Z 16004KT 9999 -SHSN FEW005 SCT009 BKN012 M01/M04 Q1024 RMK WIND 1138FT 12003KT;",
"01320099999","2010-12-13T08:50:00","4","61.8333333","6.1166667","60.0","SANDANE ANDA, NO","FM-15","ENSD ","V020","170,1,N,0026,1","00270,1,C,N","011265,1,N,1","-0010,1","-0040,1","99999,9","02,5,+00150,1,99,9","04,5,+00270,1,99,9","07,5,+00360,1,99,9",,"07,99,1,99,9,99,9,99999,9,99,9,99,9",,"10251,1,99999,9",,,,"MET091METAR ENSD 130850Z 17005KT 9999 FEW005 SCT009 BKN012 M01/M04 Q1025 RMK WIND 1138FT 08003KT;",
"01320099999","2010-12-13T09:50:00","4","61.8333333","6.1166667","60.0","SANDANE ANDA, NO","FM-15","ENSD ","V020","160,1,N,0021,1","00270,1,C,N","011265,1,N,1","-0010,1","-0040,1","99999,9","02,5,+00150,1,99,9","07,5,+00270,1,99,9",,,"07,99,1,99,9,99,9,99999,9,99,9,99,9",,"10251,1,99999,9",,,,"MET084METAR ENSD 130950Z 16004KT 9999 FEW005 BKN009 M01/M04 Q1025 RMK WIND 1138FT VRB02KT;",
"01320099999","2010-12-13T10:50:00","4","61.8333333","6.1166667","60.0","SANDANE ANDA, NO","FM-15","ENSD ","V020","150,1,N,0026,1","00270,1,C,N","011265,1,N,1","-0010,1","-0040,1","99999,9","02,5,+00150,1,99,9","07,5,+00270,1,99,9",,,"07,99,1,99,9,99,9,99999,9,99,9,99,9",,"10251,1,99999,9",,,,"MET084METAR ENSD 131050Z 15005KT 9999 FEW005 BKN009 M01/M04 Q1025 RMK WIND 1138FT VRB02KT;",
"01320099999","2010-12-13T11:50:00","4","61.8333333","6.1166667","60.0","SANDANE ANDA, NO","FM-15","ENSD ","V020","150,1,N,0021,1","00270,1,C,N","011265,1,N,1","-0010,1","-0050,1","99999,9","02,5,+00150,1,99,9","07,5,+00270,1,99,9",,,"07,99,1,99,9,99,9,99999,9,99,9,99,9",,"10261,1,99999,9",,,,"MET084METAR ENSD 131150Z 15004KT 9999 FEW005 BKN009 M01/M05 Q1026 RMK WIND 1138FT VRB01KT;",
"01320099999","2010-12-13T13:50:00","4","61.8333333","6.1166667","60.0","SANDANE ANDA, NO","FM-15","ENSD ","V020","140,1,N,0036,1","00270,1,C,N","011265,1,N,1","-0020,1","-0050,1","99999,9","02,5,+00150,1,99,9","07,5,+00270,1,99,9",,,"07,99,1,99,9,99,9,99999,9,99,9,99,9",,"10261,1,99999,9",,,,"MET084METAR ENSD 131350Z 14007KT 9999 FEW005 BKN009 M02/M05 Q1026 RMK WIND 1138FT 07004KT;",
"01320099999","2010-12-13T14:50:00","4","61.8333333","6.1166667","60.0","SANDANE ANDA, NO","FM-15","ENSD ","V020","140,1,N,0041,1","00270,1,C,N","011265,1,N,1","-0020,1","-0050,1","99999,9","02,5,+00150,1,99,9","07,5,+00270,1,99,9",,,"07,99,1,99,9,99,9,99999,9,99,9,99,9",,"10271,1,99999,9",,,,"MET084METAR ENSD 131450Z 14008KT 9999 FEW005 BKN009 M02/M05 Q1027 RMK WIND 1138FT 08002KT;",
"01320099999","2010-12-13T15:50:00","4","61.8333333","6.1166667","60.0","SANDANE ANDA, NO","FM-15","ENSD ","V020","140,1,N,0041,1","00270,1,C,N","011265,1,N,1","-0010,1","-0050,1","99999,9","07,5,+00270,1,99,9",,,,"07,99,1,99,9,99,9,99999,9,99,9,99,9",,"10271,1,99999,9",,,,"MET077METAR ENSD 131550Z 14008KT 9999 BKN009 M01/M05 Q1027 RMK WIND 1138FT 07003KT;",
"01320099999","2010-12-13T16:50:00","4","61.8333333","6.1166667","60.0","SANDANE ANDA, NO","FM-15","ENSD ","V020","140,1,N,0036,1","00300,1,C,N","011265,1,N,1","-0010,1","-0050,1","99999,9","07,5,+00300,1,99,9",,,,"07,99,1,99,9,99,9,99999,9,99,9,99,9",,"10281,1,99999,9",,,,"MET077METAR ENSD 131650Z 14007KT 9999 BKN010 M01/M05 Q1028 RMK WIND 1138FT 08003KT;",
"01320099999","2010-12-13T17:50:00","4","61.8333333","6.1166667","60.0","SANDANE ANDA, NO","FM-15","ENSD ","V020","140,1,N,0031,1","00300,1,C,N","011265,1,N,1","-0010,1","-0040,1","99999,9","07,5,+00300,1,99,9",,,,"07,99,1,99,9,99,9,99999,9,99,9,99,9",,"10281,1,99999,9",,,,"MET077METAR ENSD 131750Z 14006KT 9999 BKN010 M01/M04 Q1028 RMK WIND 1138FT 08002KT;",
"01320099999","2010-12-13T18:50:00","4","61.8333333","6.1166667","60.0","SANDANE ANDA, NO","FM-15","ENSD ","V020","999,9,V,0010,1","00300,1,C,N","011265,1,N,1","-0010,1","-0040,1","99999,9","07,5,+00300,1,99,9",,,,"07,99,1,99,9,99,9,99999,9,99,9,99,9",,"10291,1,99999,9",,,,"MET077METAR ENSD 131850Z VRB02KT 9999 BKN010 M01/M04 Q1029 RMK WIND 1138FT VRB01KT;",
"01320099999","2010-12-13T19:50:00","4","61.8333333","6.1166667","60.0","SANDANE ANDA, NO","FM-15","ENSD ","V020","999,9,V,0005,1","00300,1,C,N","011265,1,N,1","-0010,1","-0040,1","99999,9","07,5,+00300,1,99,9",,,,"07,99,1,99,9,99,9,99999,9,99,9,99,9",,"10291,1,99999,9",,,,"MET077METAR ENSD 131950Z VRB01KT 9999 BKN010 M01/M04 Q1029 RMK WIND 1138FT VRB01KT;",
"01320099999","2010-12-14T05:20:00","4","61.8333333","6.1166667","60.0","SANDANE ANDA, NO","FM-15","ENSD ","V020","999,9,V,0010,1","22000,1,9,N","011265,1,N,1","+0000,1","-0040,1","99999,9","04,5,+00900,1,99,9",,,,"04,99,1,99,9,99,9,99999,9,99,9,99,9",,"10318,1,99999,9",,,,"MET077METAR ENSD 140520Z VRB02KT 9999 SCT030 M00/M04 Q1032 RMK WIND 1138FT VRB02KT;",
"01320099999","2010-12-14T06:50:00","4","61.8333333","6.1166667","60.0","SANDANE ANDA, NO","FM-15","ENSD ","V020","999,9,C,0000,1","00900,1,C,N","008000,1,N,1","+0000,1","-0040,1","99999,9","07,5,+00900,1,99,9",,,,"07,99,1,99,9,99,9,99999,9,99,9,99,9",,"10318,1,99999,9","85,5",,,"MET083METAR ENSD 140650Z 00000KT 8000 -SHSN BKN030 M00/M04 Q1032 RMK WIND 1138FT VRB01KT;",
"01320099999","2010-12-14T07:50:00","4","61.8333333","6.1166667","60.0","SANDANE ANDA, NO","FM-15","ENSD ","V020","180,1,N,0015,1","00900,1,C,N","011265,1,N,1","+0000,1","-0030,1","99999,9","07,5,+00900,1,99,9",,,,"07,99,1,99,9,99,9,99999,9,99,9,99,9",,"10329,1,99999,9","16,1",,,"MET082METAR ENSD 140750Z 18003KT 9999 VCSH BKN030 M00/M03 Q1033 RMK WIND 1138FT 00000KT;",
"01320099999","2010-12-14T08:50:00","4","61.8333333","6.1166667","60.0","SANDANE ANDA, NO","FM-15","ENSD ","V020","100,1,N,0015,1","00900,1,C,N","011265,1,N,1","+0000,1","-0030,1","99999,9","02,5,+00150,1,99,9","07,5,+00900,1,99,9",,,"07,99,1,99,9,99,9,99999,9,99,9,99,9",,"10329,1,99999,9","85,5",,,"MET090METAR ENSD 140850Z 10003KT 9999 -SHSN FEW005 BKN030 M00/M03 Q1033 RMK WIND 1138FT VRB01KT;",
"01320099999","2010-12-14T09:50:00","4","61.8333333","6.1166667","60.0","SANDANE ANDA, NO","FM-15","ENSD ","V020","999,9,V,0010,1","00900,1,C,N","011265,1,N,1","+0000,1","-0030,1","99999,9","02,5,+00150,1,99,9","07,5,+00900,1,99,9",,,"07,99,1,99,9,99,9,99999,9,99,9,99,9",,"10329,1,99999,9",,,,"MET084METAR ENSD 140950Z VRB02KT 9999 FEW005 BKN030 M00/M03 Q1033 RMK WIND 1138FT VRB01KT;",
"01320099999","2010-12-14T10:50:00","4","61.8333333","6.1166667","60.0","SANDANE ANDA, NO","FM-15","ENSD ","V020","999,9,V,0010,1","00600,1,C,N","011265,1,N,1","-0010,1","-0030,1","99999,9","02,5,+00150,1,99,9","04,5,+00600,1,99,9","07,5,+01200,1,99,9",,"07,99,1,99,9,99,9,99999,9,99,9,99,9",,"10329,1,99999,9",,,,"MET091METAR ENSD 141050Z VRB02KT 9999 FEW005 SCT020 BKN040 M01/M03 Q1033 RMK WIND 1138FT VRB01KT;",
"01320099999","2010-12-14T11:50:00","4","61.8333333","6.1166667","60.0","SANDANE ANDA, NO","FM-15","ENSD ","V020","999,9,V,0010,1","01200,1,C,N","011265,1,N,1","+0000,1","-0030,1","99999,9","02,5,+00180,1,99,9","07,5,+01200,1,99,9",,,"07,99,1,99,9,99,9,99999,9,99,9,99,9",,"10339,1,99999,9",,,,"MET083METAR ENSD 141150Z VRB02KT 9999 FEW006 BKN040 00/M03 Q1034 RMK WIND 1138FT 00000KT;",
"01320099999","2010-12-14T12:50:00","4","61.8333333","6.1166667","60.0","SANDANE ANDA, NO","FM-15","ENSD ","V020","999,9,V,0005,1","01200,1,C,N","011265,1,N,1","+0000,1","-0030,1","99999,9","02,5,+00180,1,99,9","07,5,+01200,1,99,9",,,"07,99,1,99,9,99,9,99999,9,99,9,99,9",,"10339,1,99999,9",,,,"MET084METAR ENSD 141250Z VRB01KT 9999 FEW006 BKN040 M00/M03 Q1034 RMK WIND 1138FT VRB01KT;",
"01320099999","2010-12-14T13:50:00","4","61.8333333","6.1166667","60.0","SANDANE ANDA, NO","FM-15","ENSD ","V020","999,9,V,0005,1","00600,1,C,N","011265,1,N,1","+0000,1","-0030,1","99999,9","02,5,+00240,1,99,9","04,5,+00600,1,99,9","07,5,+01200,1,99,9",,"07,99,1,99,9,99,9,99999,9,99,9,99,9",,"10339,1,99999,9",,,,"MET090METAR ENSD 141350Z VRB01KT 9999 FEW008 SCT020 BKN040 00/M03 Q1034 RMK WIND 1138FT 06003KT;",
"01320099999","2010-12-14T14:50:00","4","61.8333333","6.1166667","60.0","SANDANE ANDA, NO","FM-15","ENSD ","V020","999,9,C,0000,1","01200,1,C,N","011265,1,N,1","+0000,1","-0030,1","99999,9","04,5,+00300,1,99,9","07,5,+01200,1,99,9",,,"07,99,1,99,9,99,9,99999,9,99,9,99,9",,"10339,1,99999,9",,,,"MET084METAR ENSD 141450Z 00000KT 9999 SCT010 BKN040 M00/M03 Q1034 RMK WIND 1138FT 06003KT;",
"01320099999","2010-12-14T15:50:00","4","61.8333333","6.1166667","60.0","SANDANE ANDA, NO","FM-15","ENSD ","V020","999,9,C,0000,1","00300,1,C,N","011265,1,N,1","+0000,1","-0030,1","99999,9","07,5,+00300,1,99,9",,,,"07,99,1,99,9,99,9,99999,9,99,9,99,9",,"10349,1,99999,9",,,,"MET077METAR ENSD 141550Z 00000KT 9999 BKN010 M00/M03 Q1035 RMK WIND 1138FT 06002KT;",
"01320099999","2010-12-14T16:50:00","4","61.8333333","6.1166667","60.0","SANDANE ANDA, NO","FM-15","ENSD ","V020","999,9,V,0010,1","00300,1,C,N","011265,1,N,1","+0000,1","-0030,1","99999,9","07,5,+00300,1,99,9",,,,"07,99,1,99,9,99,9,99999,9,99,9,99,9",,"10349,1,99999,9",,,,"MET077METAR ENSD 141650Z VRB02KT 9999 BKN010 M00/M03 Q1035 RMK WIND 1138FT 06003KT;",
"01320099999","2010-12-14T17:50:00","4","61.8333333","6.1166667","60.0","SANDANE ANDA, NO","FM-15","ENSD ","V020","999,9,V,0010,1","00300,1,C,N","011265,1,N,1","+0000,1","-0030,1","99999,9","07,5,+00300,1,99,9",,,,"07,99,1,99,9,99,9,99999,9,99,9,99,9",,"10349,1,99999,9",,,,"MET076METAR ENSD 141750Z VRB02KT 9999 BKN010 00/M03 Q1035 RMK WIND 1138FT 00000KT;",
"01320099999","2010-12-14T18:50:00","4","61.8333333","6.1166667","60.0","SANDANE ANDA, NO","FM-15","ENSD ","V020","999,9,V,0010,1","00300,1,C,N","011265,1,N,1","+0000,1","-0030,1","99999,9","07,5,+00300,1,99,9",,,,"07,99,1,99,9,99,9,99999,9,99,9,99,9",,"10349,1,99999,9",,,,"MET076METAR ENSD 141850Z VRB02KT 9999 BKN010 00/M03 Q1035 RMK WIND 1138FT 05003KT;",
"01320099999","2010-12-14T19:50:00","4","61.8333333","6.1166667","60.0","SANDANE ANDA, NO","FM-15","ENSD ","V020","130,1,N,0026,1","00300,1,C,N","011265,1,N,1","+0010,1","-0030,1","99999,9","07,5,+00300,1,99,9",,,,"07,99,1,99,9,99,9,99999,9,99,9,99,9",,"10349,1,99999,9",,,,"MET076METAR ENSD 141950Z 13005KT 9999 BKN010 01/M03 Q1035 RMK WIND 1138FT 09002KT;",
"01320099999","2010-12-15T05:20:00","4","61.8333333","6.1166667","60.0","SANDANE ANDA, NO","FM-15","ENSD ","V020","140,1,N,0041,1","00360,1,C,N","011265,1,N,1","-0010,1","-0050,1","99999,9","07,5,+00360,1,99,9",,,,"07,99,1,99,9,99,9,99999,9,99,9,99,9",,"10318,1,99999,9",,,,"MET077METAR ENSD 150520Z 14008KT 9999 BKN012 M01/M05 Q1032 RMK WIND 1138FT VRB02KT;",
"01320099999","2010-12-15T05:50:00","4","61.8333333","6.1166667","60.0","SANDANE ANDA, NO","FM-15","ENSD ","V020","140,1,N,0046,1","00360,1,C,N","011265,1,N,1","-0020,1","-0050,1","99999,9","07,5,+00360,1,99,9",,,,"07,99,1,99,9,99,9,99999,9,99,9,99,9",,"10312,1,99999,9",,,,"MET077METAR ENSD 150550Z 14009KT 9999 BKN012 M02/M05 Q1031 RMK WIND 1138FT VRB01KT;",
"01320099999","2010-12-15T06:50:00","4","61.8333333","6.1166667","60.0","SANDANE ANDA, NO","FM-15","ENSD ","V020","130,1,N,0036,1","00360,1,C,N","011265,1,N,1","-0020,1","-0050,1","99999,9","02,5,+00240,1,99,9","07,5,+00360,1,99,9",,,"07,99,1,99,9,99,9,99999,9,99,9,99,9",,"10301,1,99999,9",,,,"MET084METAR ENSD 150650Z 13007KT 9999 FEW008 BKN012 M02/M05 Q1030 RMK WIND 1138FT VRB02KT;",
"01320099999","2010-12-15T07:50:00","4","61.8333333","6.1166667","60.0","SANDANE ANDA, NO","FM-15","ENSD ","V020","140,1,N,0031,1","00360,1,C,N","011265,1,N,1","-0020,1","-0060,1","99999,9","02,5,+00240,1,99,9","07,5,+00360,1,99,9",,,"07,99,1,99,9,99,9,99999,9,99,9,99,9",,"10301,1,99999,9",,,,"MET084METAR ENSD 150750Z 14006KT 9999 FEW008 BKN012 M02/M06 Q1030 RMK WIND 1138FT 20003KT;",
"01320099999","2010-12-15T08:50:00","4","61.8333333","6.1166667","60.0","SANDANE ANDA, NO","FM-15","ENSD ","V020","999,9,V,0021,1","00360,1,C,N","011265,1,N,1","-0020,1","-0060,1","99999,9","07,5,+00360,1,99,9",,,,"07,99,1,99,9,99,9,99999,9,99,9,99,9",,"10291,1,99999,9",,,,"MET077METAR ENSD 150850Z VRB04KT 9999 BKN012 M02/M06 Q1029 RMK WIND 1138FT 20003KT;",
"01320099999","2010-12-15T09:50:00","4","61.8333333","6.1166667","60.0","SANDANE ANDA, NO","FM-15","ENSD ","V020","140,1,N,0046,1","22000,1,9,N","011265,1,N,1","-0030,1","-0060,1","99999,9","04,5,+00360,1,99,9",,,,"04,99,1,99,9,99,9,99999,9,99,9,99,9",,"10281,1,99999,9",,,,"MET077METAR ENSD 150950Z 14009KT 9999 SCT012 M03/M06 Q1028 RMK WIND 1138FT VRB01KT;",
"01320099999","2010-12-15T10:50:00","4","61.8333333","6.1166667","60.0","SANDANE ANDA, NO","FM-15","ENSD ","V020","140,1,N,0036,1","00360,1,C,N","011265,1,N,1","-0030,1","-0060,1","99999,9","02,5,+00240,1,99,9","04,5,+00360,1,99,9","07,5,+01200,1,99,9",,"07,99,1,99,9,99,9,99999,9,99,9,99,9",,"10271,1,99999,9",,,,"MET091METAR ENSD 151050Z 14007KT 9999 FEW008 SCT012 BKN040 M03/M06 Q1027 RMK WIND 1138FT 07004KT;",
"01320099999","2010-12-15T11:50:00","4","61.8333333","6.1166667","60.0","SANDANE ANDA, NO","FM-15","ENSD ","V020","140,1,N,0041,1","01050,1,C,N","011265,1,N,1","-0020,1","-0060,1","99999,9","02,5,+00300,1,99,9","07,5,+01050,1,99,9",,,"07,99,1,99,9,99,9,99999,9,99,9,99,9",,"10251,1,99999,9",,,,"MET084METAR ENSD 151150Z 14008KT 9999 FEW010 BKN035 M02/M06 Q1025 RMK WIND 1138FT 07003KT;",
"01320099999","2010-12-15T12:50:00","4","61.8333333","6.1166667","60.0","SANDANE ANDA, NO","FM-15","ENSD ","V020","150,1,N,0031,1","01050,1,C,N","011265,1,N,1","-0020,1","-0060,1","99999,9","04,5,+00300,1,99,9","07,5,+01050,1,99,9",,,"07,99,1,99,9,99,9,99999,9,99,9,99,9",,"10230,1,99999,9",,,,"MET084METAR ENSD 151250Z 15006KT 9999 SCT010 BKN035 M02/M06 Q1023 RMK WIND 1138FT 08006KT;",
"01320099999","2010-12-15T13:50:00","4","61.8333333","6.1166667","60.0","SANDANE ANDA, NO","FM-15","ENSD ","V020","140,1,N,0031,1","01050,1,C,N","011265,1,N,1","-0010,1","-0050,1","99999,9","04,5,+00300,1,99,9","07,5,+01050,1,99,9",,,"07,99,1,99,9,99,9,99999,9,99,9,99,9",,"10200,1,99999,9",,,,"MET084METAR ENSD 151350Z 14006KT 9999 SCT010 BKN035 M01/M05 Q1020 RMK WIND 1138FT 06004KT;",
"01320099999","2010-12-15T14:50:00","4","61.8333333","6.1166667","60.0","SANDANE ANDA, NO","FM-15","ENSD ","V020","999,9,V,0015,1","01050,1,C,N","011265,1,N,1","-0010,1","-0040,1","99999,9","04,5,+00300,1,99,9","07,5,+01050,1,99,9",,,"07,99,1,99,9,99,9,99999,9,99,9,99,9",,"10180,1,99999,9",,,,"MET084METAR ENSD 151450Z VRB03KT 9999 SCT010 BKN035 M01/M04 Q1018 RMK WIND 1138FT VRB03KT;",
"01320099999","2010-12-15T15:50:00","4","61.8333333","6.1166667","60.0","SANDANE ANDA, NO","FM-15","ENSD ","V020","999,9,V,0010,1","01050,1,C,N","011265,1,N,1","+0000,1","-0040,1","99999,9","04,5,+00300,1,99,9","07,5,+01050,1,99,9",,,"07,99,1,99,9,99,9,99999,9,99,9,99,9","999,M,+0004,1","10149,1,99999,9",,,,"MET084METAR ENSD 151550Z VRB02KT 9999 SCT010 BKN035 M00/M04 Q1015 RMK WIND 1138FT 10004KT;",
"01320099999","2010-12-15T16:50:00","4","61.8333333","6.1166667","60.0","SANDANE ANDA, NO","FM-15","ENSD ","V020","050,1,N,0036,1","01050,1,C,N","011265,1,N,1","+0000,1","-0030,1","99999,9","02,5,+00300,1,99,9","07,5,+01050,1,99,9",,,"07,99,1,99,9,99,9,99999,9,99,9,99,9",,"10108,1,99999,9",,,,"MET083METAR ENSD 151650Z 05007KT 9999 FEW010 BKN035 00/M03 Q1011 RMK WIND 1138FT VRB01KT;",
"01320099999","2010-12-15T17:50:00","4","61.8333333","6.1166667","60.0","SANDANE ANDA, NO","FM-15","ENSD ","V020","080,1,N,0036,1","01050,1,C,N","011265,1,N,1","+0010,1","-0020,1","99999,9","02,5,+00300,1,99,9","07,5,+01050,1,99,9",,,"07,99,1,99,9,99,9,99999,9,99,9,99,9","999,M,+9999,9","10081,1,99999,9",,,,"MET083METAR ENSD 151750Z 08007KT 9999 FEW010 BKN035 01/M02 Q1008 RMK WIND 1138FT 11004KT;","Q01 -00042ATMX  "
"01320099999","2010-12-15T18:50:00","4","61.8333333","6.1166667","60.0","SANDANE ANDA, NO","FM-15","ENSD ","V020","060,1,N,0036,1","01050,1,C,N","011265,1,N,1","+0020,1","-0010,1","99999,9","02,5,+00300,1,99,9","07,5,+01050,1,99,9",,,"07,99,1,99,9,99,9,99999,9,99,9,99,9",,"10051,1,99999,9","80,1",,,"MET089METAR ENSD 151850Z 06007KT 9999 -SHRA FEW010 BKN035 02/M01 Q1005 RMK WIND 1138FT 17005KT;",
"01320099999","2010-12-15T19:50:00","4","61.8333333","6.1166667","60.0","SANDANE ANDA, NO","FM-15","ENSD ","V020","200,1,N,0041,1","01050,1,C,N","011265,1,N,1","+0040,1","-0010,1","99999,9","04,5,+00600,1,99,9","07,5,+01050,1,99,9",,,"07,99,1,99,9,99,9,99999,9,99,9,99,9",,"10031,1,99999,9","80,1",,,"MET089METAR ENSD 151950Z 20008KT 9999 -SHRA SCT020 BKN035 04/M01 Q1003 RMK WIND 1138FT 19005KT;",
"01320099999","2010-12-16T05:20:00","4","61.8333333","6.1166667","60.0","SANDANE ANDA, NO","FM-15","ENSD ","V020","280,1,N,0077,1","00300,1,C,N","005000,1,N,1","-0030,1","-0070,1","99999,9","07,5,+00300,1,99,9",,,,"07,99,1,99,9,99,9,99999,9,99,9,99,9",,"09939,1,99999,9","86,5",,,"MET082METAR ENSD 160520Z 28015KT 5000 SHSN BKN010 M03/M07 Q0994 RMK WIND 1138FT 30010KT;",
"01320099999","2010-12-16T06:50:00","4","61.8333333","6.1166667","60.0","SANDANE ANDA, NO","FM-15","ENSD ","V020","999,9,V,0026,1","00900,1,C,N","004000,1,N,1","-0030,1","-0060,1","99999,9","04,5,+00600,1,99,9","07,5,+00900,1,99,9",,,"07,99,1,99,9,99,9,99999,9,99,9,99,9",,"09929,1,99999,9","86,5",,,"MET089METAR ENSD 160650Z VRB05KT 4000 SHSN SCT020 BKN030 M03/M06 Q0993 RMK WIND 1138FT 30007KT;",
"01320099999","2010-12-16T07:50:00","4","61.8333333","6.1166667","60.0","SANDANE ANDA, NO","FM-15","ENSD ","V020","999,9,V,0021,1","00900,1,C,N","011265,1,N,1","-0030,1","-0090,1","99999,9","02,5,+00150,1,99,9","07,5,+00900,1,99,9",,,"07,99,1,99,9,99,9,99999,9,99,9,99,9",,"09919,1,99999,9",,,,"MET084METAR ENSD 160750Z VRB04KT 9999 FEW005 BKN030 M03/M09 Q0992 RMK WIND 1138FT 33004KT;",
"01320099999","2010-12-16T08:50:00","4","61.8333333","6.1166667","60.0","SANDANE ANDA, NO","FM-15","ENSD ","V020","300,1,N,0046,1","00900,1,C,N","005000,1,N,1","-0030,1","-0070,1","99999,9","02,5,+00450,1,99,9","07,5,+00900,1,99,9",,,"07,99,1,99,9,99,9,99999,9,99,9,99,9",,"09919,1,99999,9","16,1",,,"MET097METAR ENSD 160850Z 30009KT 250V340 5000 VCSH FEW015 BKN030 M03/M07 Q0992 RMK WIND 1138FT 28007KT;",
"01320099999","2010-12-16T09:50:00","4","61.8333333","6.1166667","60.0","SANDANE ANDA, NO","FM-15","ENSD ","V020","300,1,N,0026,1","00210,1,9,N","001500,1,N,1","-0030,1","-0060,1","99999,9","09,1,+00210,1,99,9",,,,"09,99,1,99,9,99,9,00025,1,99,9,99,9",,"09909,1,99999,9","75,1",,,"MET088METAR ENSD 160950Z 30005KT 230V330 1500 +SN VV007 M03/M06 Q0991 RMK WIND 1138FT 32004KT;",
"01320099999","2010-12-16T10:50:00","4","61.8333333","6.1166667","60.0","SANDANE ANDA, NO","FM-15","ENSD ","V020","290,1,N,0062,1","00210,1,9,N","001500,1,N,1","-0030,1","-0070,1","99999,9","09,1,+00210,1,99,9",,,,"09,99,1,99,9,99,9,00025,1,99,9,99,9",,"09909,1,99999,9","75,1",,,"MET080METAR ENSD 161050Z 29012KT 1500 +SN VV007 M03/M07 Q0991 RMK WIND 1138FT 29009KT;",
"01320099999","2010-12-16T11:50:00","4","61.8333333","6.1166667","60.0","SANDANE ANDA, NO","FM-15","ENSD ","V020","310,1,N,0031,1","00810,1,C,N","011265,1,N,1","-0030,1","-0090,1","99999,9","02,5,+00300,1,99,9","07,5,+00810,1,99,9",,,"07,99,1,99,9,99,9,99999,9,99,9,99,9",,"09898,1,99999,9",,,,"MET084METAR ENSD 161150Z 31006KT 9999 FEW010 BKN027 M03/M09 Q0990 RMK WIND 1138FT VRB02KT;",
"01320099999","2010-12-16T12:50:00","4","61.8333333","6.1166667","60.0","SANDANE ANDA, NO","FM-15","ENSD ","V020","999,9,V,0021,1","00900,1,C,N","011265,1,N,1","-0030,1","-0090,1","99999,9","02,5,+00600,1,99,9","07,5,+00900,1,99,9",,,"08,99,1,99,9,99,9,99999,9,99,9,99,9",,"09890,1,99999,9",,,,"MET091METAR ENSD 161250Z 2600306KT 9999 VCSH FEW020 BKN030 M03/M09 Q0989 RMK WIND 1138FT VRB04KT;",
"01320099999","2010-12-16T13:50:00","4","61.8333333","6.1166667","60.0","SANDANE ANDA, NO","FM-15","ENSD ","V020","170,1,N,0026,1","00900,1,C,N","011265,1,N,1","-0040,1","-0080,1","99999,9","02,5,+00540,1,99,9","07,5,+00900,1,99,9",,,"07,99,1,99,9,99,9,99999,9,99,9,99,9",,"09892,1,99999,9",,,,"MET084METAR ENSD 161350Z 17005KT 9999 FEW018 BKN030 M04/M08 Q0989 RMK WIND 1138FT VRB04KT;",
"01320099999","2010-12-16T14:50:00","4","61.8333333","6.1166667","60.0","SANDANE ANDA, NO","FM-15","ENSD ","V020","220,1,N,0015,1","00600,1,C,N","011265,1,N,1","-0040,1","-0090,1","99999,9","02,5,+00450,1,99,9","04,5,+00600,1,99,9","07,5,+00900,1,99,9",,"07,99,1,99,9,99,9,99999,9,99,9,99,9",,"09882,1,99999,9",,,,"MET091METAR ENSD 161450Z 22003KT 9999 FEW015 SCT020 BKN030 M04/M09 Q0988 RMK WIND 1138FT VRB03KT;",
"01320099999","2010-12-16T15:50:00","4","61.8333333","6.1166667","60.0","SANDANE ANDA, NO","FM-15","ENSD ","V020","170,1,N,0015,1","00600,1,C,N","006000,1,N,1","-0040,1","-0080,1","99999,9","02,5,+00450,1,99,9","04,5,+00600,1,99,9","07,5,+00900,1,99,9",,"07,99,1,99,9,99,9,99999,9,99,9,99,9",,"09882,1,99999,9","85,5",,,"MET097METAR ENSD 161550Z 17003KT 6000 -SHSN FEW015 SCT020 BKN030 M04/M08 Q0988 RMK WIND 1138FT 00000KT;",
"01320099999","2010-12-16T16:50:00","4","61.8333333","6.1166667","60.0","SANDANE ANDA, NO","FM-15","ENSD ","V020","260,1,N,0015,1","00150,1,9,N","001000,1,N,1","-0050,1","-0080,1","99999,9","09,1,+00150,1,99,9",,,,"09,99,1,99,9,99,9,00025,1,99,9,99,9",,"09871,1,99999,9","86,5",,,"MET081METAR ENSD 161650Z 26003KT 1000 SHSN VV005 M05/M08 Q0987 RMK WIND 1138FT 21008KT;",
"01320099999","2010-12-16T17:50:00","4","61.8333333","6.1166667","60.0","SANDANE ANDA, NO","FM-15","ENSD ","V020","250,1,N,0026,1","00600,1,C,N","011265,1,N,1","-0050,1","-0080,1","99999,9","02,5,+00300,1,99,9","04,5,+00600,1,99,9","07,5,+00750,1,99,9",,"07,99,1,99,9,99,9,99999,9,99,9,99,9",,"09871,1,99999,9",,,,"MET091METAR ENSD 161750Z 25005KT 9999 FEW010 SCT020 BKN025 M05/M08 Q0987 RMK WIND 1138FT 21005KT;",
"01320099999","2010-12-16T18:50:00","4","61.8333333","6.1166667","60.0","SANDANE ANDA, NO","FM-15","ENSD ","V020","250,1,N,0021,1","99999,9,C,N","011265,1,N,1","-0050,1","-0080,1","99999,9","02,5,+00600,1,99,9","04,5,+00750,1,99,9",,,"04,99,1,99,9,99,9,99999,9,99,9,99,9",,"09871,1,99999,9",,,,"MET084METAR ENSD 161850Z 25004KT 9999 FEW020 SCT025 M05/M08 Q0987 RMK WIND 1138FT VRB02KT;","P01 007503SCOCIG"
"01320099999","2010-12-16T19:50:00","4","61.8333333","6.1166667","60.0","SANDANE ANDA, NO","FM-15","ENSD ","V020","999,9,V,0005,1","99999,9,C,N","011265,1,N,1","-0050,1","-0090,1","99999,9","02,5,+00600,1,99,9","04,5,+00750,1,99,9",,,"04,99,1,99,9,99,9,99999,9,99,9,99,9",,"09871,1,99999,9",,,,"MET084METAR ENSD 161950Z VRB01KT 9999 FEW020 SCT025 M05/M09 Q0987 RMK WIND 1138FT VRB02KT;","P01 007503SCOCIG"
"01320099999","2010-12-17T04:50:00","4","61.8333333","6.1166667","60.0","SANDANE ANDA, NO","FM-15","ENSD ","V020","150,1,N,0031,1","01500,1,C,N","011265,1,N,1","-0070,1","-0110,1","99999,9","02,5,+00450,1,99,9","07,5,+01500,1,99,9",,,"07,99,1,99,9,99,9,99999,9,99,9,99,9",,"09892,1,99999,9",,,,"MET084METAR ENSD 170450Z 15006KT 9999 FEW015 BKN050 M07/M11 Q0989 RMK WIND 1138FT VRB01KT;",
"01320099999","2010-12-17T05:50:00","4","61.8333333","6.1166667","60.0","SANDANE ANDA, NO","FM-15","ENSD ","V020","140,1,N,0036,1","01500,1,C,N","011265,1,N,1","-0070,1","-0110,1","99999,9","02,5,+00450,1,99,9","07,5,+01500,1,99,9",,,"07,99,1,99,9,99,9,99999,9,99,9,99,9",,"09898,1,99999,9",,,,"MET084METAR ENSD 170550Z 14007KT 9999 FEW015 BKN050 M07/M11 Q0990 RMK WIND 1138FT 08003KT;",
"01320099999","2010-12-17T06:50:00","4","61.8333333","6.1166667","60.0","SANDANE ANDA, NO","FM-15","ENSD ","V020","130,1,N,0041,1","01500,1,C,N","011265,1,N,1","-0070,1","-0110,1","99999,9","02,5,+00600,1,99,9","07,5,+01500,1,99,9",,,"07,99,1,99,9,99,9,99999,9,99,9,99,9","999,M,+0004,1","09898,1,99999,9",,,,"MET084METAR ENSD 170650Z 13008KT 9999 FEW020 BKN050 M07/M11 Q0990 RMK WIND 1138FT 10004KT;",
"01320099999","2010-12-17T07:50:00","4","61.8333333","6.1166667","60.0","SANDANE ANDA, NO","FM-15","ENSD ","V020","140,1,N,0046,1","22000,1,9,N","011265,1,N,1","-0070,1","-0110,1","99999,9","04,5,+00600,1,99,9",,,,"04,99,1,99,9,99,9,99999,9,99,9,99,9",,"09909,1,99999,9",,,,"MET077METAR ENSD 170750Z 14009KT 9999 SCT020 M07/M11 Q0991 RMK WIND 1138FT 07007KT;",
"01320099999","2010-12-17T08:50:00","4","61.8333333","6.1166667","60.0","SANDANE ANDA, NO","FM-15","ENSD ","V020","140,1,N,0046,1","22000,1,9,N","011265,1,N,1","-0070,1","-0120,1","99999,9","02,5,+00600,1,99,9",,,,"02,99,1,99,9,99,9,99999,9,99,9,99,9",,"09909,1,99999,9",,,,"MET077METAR ENSD 170850Z 14009KT 9999 FEW020 M07/M12 Q0991 RMK WIND 1138FT 07007KT;",
"01320099999","2010-12-17T09:50:00","4","61.8333333","6.1166667","60.0","SANDANE ANDA, NO","FM-15","ENSD ","V020","140,1,N,0051,1","99999,9,C,N","011265,1,N,1","-0070,1","-0120,1","99999,9","02,5,+00450,1,99,9","04,5,+01500,1,99,9",,,"04,99,1,99,9,99,9,99999,9,99,9,99,9",,"09919,1,99999,9",,,,"MET084METAR ENSD 170950Z 14010KT 9999 FEW015 SCT050 M07/M12 Q0992 RMK WIND 1138FT 09008KT;","P01 015003SCOCIG"
"01320099999","2010-12-17T10:50:00","4","61.8333333","6.1166667","60.0","SANDANE ANDA, NO","FM-15","ENSD ","V020","140,1,N,0041,1","22000,1,9,N","011265,1,N,1","-0070,1","-0120,1","99999,9","02,5,+00450,1,99,9",,,,"02,99,1,99,9,99,9,99999,9,99,9,99,9",,"09929,1,99999,9",,,,"MET077METAR ENSD 171050Z 14008KT 9999 FEW015 M07/M12 Q0993 RMK WIND 1138FT 08008KT;",
"01320099999","2010-12-17T11:50:00","4","61.8333333","6.1166667","60.0","SANDANE ANDA, NO","FM-15","ENSD ","V020","130,1,N,0051,1","22000,1,9,N","011265,1,N,1","-0070,1","-0110,1","99999,9","02,5,+00750,1,99,9",,,,"02,99,1,99,9,99,9,99999,9,99,9,99,9",,"09939,1,99999,9",,,,"MET077METAR ENSD 171150Z 13010KT 9999 FEW025 M07/M11 Q0994 RMK WIND 1138FT 08011KT;",
"01320099999","2010-12-17T12:50:00","4","61.8333333","6.1166667","60.0","SANDANE ANDA, NO","FM-15","ENSD ","V020","999,9,V,0015,1","22000,1,9,N","011265,1,N,1","-0080,1","-0110,1","99999,9","02,5,+01050,1,99,9",,,,"02,99,1,99,9,99,9,99999,9,99,9,99,9",,"09949,1,99999,9",,,,"MET077METAR ENSD 171250Z VRB03KT 9999 FEW035 M08/M11 Q0995 RMK WIND 1138FT 14011KT;",
"01320099999","2010-12-17T13:50:00","4","61.8333333","6.1166667","60.0","SANDANE ANDA, NO","FM-15","ENSD ","V020","999,9,V,0005,1","22000,1,9,N","011265,1,N,1","-0080,1","-0120,1","99999,9","02,5,+01050,1,99,9",,,,"02,99,1,99,9,99,9,99999,9,99,9,99,9",,"09959,1,99999,9",,,,"MET077METAR ENSD 171350Z VRB01KT 9999 FEW035 M08/M12 Q0996 RMK WIND 1138FT 15010KT;",
"01320099999","2010-12-17T14:50:00","4","61.8333333","6.1166667","60.0","SANDANE ANDA, NO","FM-15","ENSD ","V020","100,1,N,0031,1","22000,1,9,N","011265,1,N,1","-0050,1","-0130,1","99999,9","02,1,+99999,9,99,9",,,,"02,99,1,99,9,99,9,99999,9,99,9,99,9",,"09970,1,99999,9",,,,"MET077METAR ENSD 171450Z 10006KT 9999 FEW/// M05/M13 Q0997 RMK WIND 1138FT 15013KT;",
"01320099999","2010-12-17T15:50:00","4","61.8333333","6.1166667","60.0","SANDANE ANDA, NO","FM-15","ENSD ","V020","999,9,V,0010,1","99999,9,9,Y","009900,1,N,1","-0050,1","-0120,1","99999,9",,,,,,,"09980,1,99999,9",,,,"MET071METAR ENSD 171550Z VRB02KT CAVOK M05/M12 Q0998 RMK WIND 1138FT 14010KT;",
"01320099999","2010-12-17T16:50:00","4","61.8333333","6.1166667","60.0","SANDANE ANDA, NO","FM-15","ENSD ","V020","120,1,N,0031,1","99999,9,9,Y","009900,1,N,1","-0060,1","-0130,1","99999,9",,,,,,,"09990,1,99999,9",,,,"MET071METAR ENSD 171650Z 12006KT CAVOK M06/M13 Q0999 RMK WIND 1138FT 15013KT;",
"01320099999","2010-12-17T17:50:00","4","61.8333333","6.1166667","60.0","SANDANE ANDA, NO","FM-15","ENSD ","V020","100,1,N,0031,1","99999,9,9,Y","009900,1,N,1","-0050,1","-0140,1","99999,9",,,,,,,"10000,1,99999,9",,,,"MET071METAR ENSD 171750Z 10006KT CAVOK M05/M14 Q1000 RMK WIND 1138FT 08009KT;",
"01320099999","2010-12-17T18:50:00","4","61.8333333","6.1166667","60.0","SANDANE ANDA, NO","FM-15","ENSD ","V020","120,1,N,0026,1","99999,9,9,Y","009900,1,N,1","-0060,1","-0130,1","99999,9",,,,,,,"10010,1,99999,9",,,,"MET071METAR ENSD 171850Z 12005KT CAVOK M06/M13 Q1001 RMK WIND 1138FT 09009KT;",
"01320099999","2010-12-17T19:50:00","4","61.8333333","6.1166667","60.0","SANDANE ANDA, NO","FM-15","ENSD ","V020","150,1,N,0041,1","99999,9,9,Y","009900,1,N,1","-0050,1","-0130,1","99999,9",,,,,,,"10020,1,99999,9",,,,"MET071METAR ENSD 171950Z 15008KT CAVOK M05/M13 Q1002 RMK WIND 1138FT 08009KT;",
"01320099999","2010-12-18T06:20:00","4","61.8333333","6.1166667","60.0","SANDANE ANDA, NO","FM-15","ENSD ","V020","999,9,V,0010,1","99999,9,9,Y","009900,1,N,1","-0050,1","-0110,1","99999,9",,,,,,,"10071,1,99999,9",,,,"MET071METAR ENSD 180620Z VRB02KT CAVOK M05/M11 Q1007 RMK WIND 1138FT 01003KT;",
"01320099999","2010-12-18T06:50:00","4","61.8333333","6.1166667","60.0","SANDANE ANDA, NO","FM-15","ENSD ","V020","140,1,N,0041,1","99999,9,9,Y","009900,1,N,1","-0040,1","-0110,1","99999,9",,,,,,,"10081,1,99999,9",,,,"MET071METAR ENSD 180650Z 14008KT CAVOK M04/M11 Q1008 RMK WIND 1138FT 07005KT;",
"01320099999","2010-12-18T08:20:00","4","61.8333333","6.1166667","60.0","SANDANE ANDA, NO","FM-15","ENSD ","V020","999,9,V,0015,1","99999,9,9,Y","009900,1,N,1","-0050,1","-0110,1","99999,9",,,,,,,"10091,1,99999,9",,,,"MET071METAR ENSD 180820Z VRB03KT CAVOK M05/M11 Q1009 RMK WIND 1138FT 12007KT;",
"01320099999","2010-12-18T08:50:00","4","61.8333333","6.1166667","60.0","SANDANE ANDA, NO","FM-15","ENSD ","V020","999,9,V,0010,1","99999,9,9,Y","009900,1,N,1","-0050,1","-0100,1","99999,9",,,,,,"999,M,-0008,1","10091,1,99999,9",,,,"MET071METAR ENSD 180850Z VRB02KT CAVOK M05/M10 Q1009 RMK WIND 1138FT 11008KT;",
"01320099999","2010-12-18T09:50:00","4","61.8333333","6.1166667","60.0","SANDANE ANDA, NO","FM-15","ENSD ","V020","120,1,N,0041,1","99999,9,9,Y","009900,1,N,1","-0020,1","-0110,1","99999,9",,,,,,"999,M,+0007,1","10091,1,99999,9",,,,"MET071METAR ENSD 180950Z 12008KT CAVOK M02/M11 Q1009 RMK WIND 1138FT 10007KT;",
"01320099999","2010-12-18T10:50:00","4","61.8333333","6.1166667","60.0","SANDANE ANDA, NO","FM-15","ENSD ","V020","999,9,V,0015,1","99999,9,C,N","011265,1,N,1","-0040,1","-0110,1","99999,9","02,5,+00900,1,99,9","04,5,+03000,1,99,9",,,"04,99,1,99,9,99,9,99999,9,99,9,99,9","999,M,+0008,1","10102,1,99999,9",,,,"MET084METAR ENSD 181050Z VRB03KT 9999 FEW030 SCT100 M04/M11 Q1010 RMK WIND 1138FT 10008KT;","P01 030003SCOCIG"
"01320099999","2010-12-18T11:50:00","4","61.8333333","6.1166667","60.0","SANDANE ANDA, NO","FM-15","ENSD ","V020","110,1,N,0041,1","99999,9,C,N","011265,1,N,1","-0040,1","-0110,1","99999,9","02,5,+00900,1,99,9","04,5,+03000,1,99,9",,,"04,99,1,99,9,99,9,99999,9,99,9,99,9","999,M,+0011,1","10102,1,99999,9",,,,"MET084METAR ENSD 181150Z 11008KT 9999 FEW030 SCT100 M04/M11 Q1010 RMK WIND 1138FT 10011KT;","P01 030003SCOCIG"
"01320099999","2010-12-18T12:50:00","4","61.8333333","6.1166667","60.0","SANDANE ANDA, NO","FM-15","ENSD ","V020","120,1,N,0031,1","99999,9,9,Y","009900,1,N,1","-0020,1","-0130,1","99999,9",,,,,,"999,M,-0007,1","10102,1,99999,9",,,,"MET071METAR ENSD 181250Z 12006KT CAVOK M02/M13 Q1010 RMK WIND 1138FT 11007KT;",
"01320099999","2010-12-18T13:50:00","4","61.8333333","6.1166667","60.0","SANDANE ANDA, NO","FM-15","ENSD ","V020","120,1,N,0041,1","99999,9,9,Y","009900,1,N,1","-0010,1","-0130,1","99999,9",,,,,,,"10102,1,99999,9",,,,"MET071METAR ENSD 181350Z 12008KT CAVOK M01/M13 Q1010 RMK WIND 1138FT 12010KT;",
"01320099999","2010-12-19T09:50:00","4","61.8333333","6.1166667","60.0","SANDANE ANDA, NO","FM-15","ENSD ","V020","140,1,N,0046,1","99999,9,9,Y","009900,1,N,1","-0070,1","-0140,1","99999,9",,,,,,,"10081,1,99999,9",,,,"MET071METAR ENSD 190950Z 14009KT CAVOK M07/M14 Q1008 RMK WIND 1138FT 09004KT;",
"01320099999","2010-12-19T10:50:00","4","61.8333333","6.1166667","60.0","SANDANE ANDA, NO","FM-15","ENSD ","V020","999,9,V,0015,1","99999,9,9,Y","009900,1,N,1","-0070,1","-0140,1","99999,9",,,,,,,"10071,1,99999,9",,,,"MET071METAR ENSD 191050Z VRB03KT CAVOK M07/M14 Q1007 RMK WIND 1138FT 02004KT;",
"01320099999","2010-12-19T11:50:00","4","61.8333333","6.1166667","60.0","SANDANE ANDA, NO","FM-15","ENSD ","V020","240,1,N,0015,1","99999,9,9,Y","009900,1,N,1","-0070,1","-0140,1","99999,9",,,,,,,"10061,1,99999,9",,,,"MET079METAR ENSD 191150Z 24003KT 190V310 CAVOK M07/M14 Q1006 RMK WIND 1138FT VRB01KT;",
"01320099999","2010-12-19T14:50:00","4","61.8333333","6.1166667","60.0","SANDANE ANDA, NO","FM-15","ENSD ","V020","120,1,N,0051,1","99999,9,9,Y","009900,1,N,1","-0070,1","-0130,1","99999,9",,,,,,,"10051,1,99999,9",,,,"MET071METAR ENSD 191450Z 12010KT CAVOK M07/M13 Q1005 RMK WIND 1138FT VRB02KT;",
"01320099999","2010-12-19T15:50:00","4","61.8333333","6.1166667","60.0","SANDANE ANDA, NO","FM-15","ENSD ","V020","140,1,N,0051,1","99999,9,9,Y","009900,1,N,1","-0070,1","-0130,1","99999,9",,,,,,,"10041,1,99999,9",,,,"MET071METAR ENSD 191550Z 14010KT CAVOK M07/M13 Q1004 RMK WIND 1138FT 07007KT;",
"01320099999","2010-12-19T16:50:00","4","61.8333333","6.1166667","60.0","SANDANE ANDA, NO","FM-15","ENSD ","V020","999,9,V,0015,1","99999,9,9,Y","009900,1,N,1","-0070,1","-0140,1","99999,9",,,,,,,"10031,1,99999,9",,,,"MET071METAR ENSD 191650Z VRB03KT CAVOK M07/M14 Q1003 RMK WIND 1138FT 06004KT;",
"01320099999","2010-12-19T17:50:00","4","61.8333333","6.1166667","60.0","SANDANE ANDA, NO","FM-15","ENSD ","V020","999,9,V,0015,1","99999,9,9,Y","009900,1,N,1","-0070,1","-0150,1","99999,9",,,,,,,"10031,1,99999,9",,,,"MET071METAR ENSD 191750Z VRB03KT CAVOK M07/M15 Q1003 RMK WIND 1138FT VRB03KT;",
"01320099999","2010-12-19T18:50:00","4","61.8333333","6.1166667","60.0","SANDANE ANDA, NO","FM-15","ENSD ","V020","999,9,V,0021,1","99999,9,9,Y","009900,1,N,1","-0080,1","-0140,1","99999,9",,,,,,,"10031,1,99999,9",,,,"MET071METAR ENSD 191850Z VRB04KT CAVOK M08/M14 Q1003 RMK WIND 1138FT VRB02KT;",
"01320099999","2010-12-19T19:50:00","4","61.8333333","6.1166667","60.0","SANDANE ANDA, NO","FM-15","ENSD ","V020","999,9,V,0021,1","99999,9,9,Y","009900,1,N,1","-0080,1","-0140,1","99999,9",,,,,,,"10031,1,99999,9",,,,"MET071METAR ENSD 191950Z VRB04KT CAVOK M08/M14 Q1003 RMK WIND 1138FT 19003KT;",
"01320099999","2010-12-20T05:20:00","4","61.8333333","6.1166667","60.0","SANDANE ANDA, NO","FM-15","ENSD ","V020","160,1,N,0031,1","99999,9,9,Y","009900,1,N,1","-0080,1","-0130,1","99999,9",,,,,,,"10010,1,99999,9",,,,"MET071METAR ENSD 200520Z 16006KT CAVOK M08/M13 Q1001 RMK WIND 1138FT 08003KT;",
"01320099999","2010-12-20T06:50:00","4","61.8333333","6.1166667","60.0","SANDANE ANDA, NO","FM-15","ENSD ","V020","999,9,V,0010,1","99999,9,9,Y","009900,1,N,1","-0080,1","-0130,1","99999,9",,,,,,,"10010,1,99999,9",,,,"MET071METAR ENSD 200650Z VRB02KT CAVOK M08/M13 Q1001 RMK WIND 1138FT VRB02KT;",
"01320099999","2010-12-20T07:50:00","4","61.8333333","6.1166667","60.0","SANDANE ANDA, NO","FM-15","ENSD ","V020","999,9,V,0010,1","99999,9,9,Y","009900,1,N,1","-0090,1","-0130,1","99999,9",,,,,,,"10010,1,99999,9",,,,"MET071METAR ENSD 200750Z VRB02KT CAVOK M09/M13 Q1001 RMK WIND 1138FT VRB02KT;",
"01320099999","2010-12-20T08:50:00","4","61.8333333","6.1166667","60.0","SANDANE ANDA, NO","FM-15","ENSD ","V020","150,1,N,0041,1","99999,9,C,N","011265,1,N,1","-0080,1","-0130,1","99999,9","02,5,+00300,1,99,9","04,5,+03000,1,99,9",,,"04,99,1,99,9,99,9,99999,9,99,9,99,9",,"10010,1,99999,9",,,,"MET084METAR ENSD 200850Z 15008KT 9999 FEW010 SCT100 M08/M13 Q1001 RMK WIND 1138FT 09004KT;","P01 030003SCOCIG"
"01320099999","2010-12-20T09:50:00","4","61.8333333","6.1166667","60.0","SANDANE ANDA, NO","FM-15","ENSD ","V020","140,1,N,0036,1","01350,1,C,N","011265,1,N,1","-0070,1","-0120,1","99999,9","02,5,+00300,1,99,9","07,5,+01350,1,99,9",,,"07,99,1,99,9,99,9,99999,9,99,9,99,9",,"10020,1,99999,9","16,1",,,"MET089METAR ENSD 200950Z 14007KT 9999 VCSH FEW010 BKN045 M07/M12 Q1002 RMK WIND 1138FT 06004KT;",
"01320099999","2010-12-20T10:50:00","4","61.8333333","6.1166667","60.0","SANDANE ANDA, NO","FM-15","ENSD ","V020","140,1,N,0036,1","01050,1,C,N","011265,1,N,1","-0070,1","-0120,1","99999,9","02,5,+00600,1,99,9","04,5,+01050,1,99,9","07,5,+01350,1,99,9",,"07,99,1,99,9,99,9,99999,9,99,9,99,9",,"10020,1,99999,9","85,5",,,"MET097METAR ENSD 201050Z 14007KT 9999 -SHSN FEW020 SCT035 BKN045 M07/M12 Q1002 RMK WIND 1138FT VRB02KT;",
"01320099999","2010-12-20T11:50:00","4","61.8333333","6.1166667","60.0","SANDANE ANDA, NO","FM-15","ENSD ","V020","140,1,N,0046,1","01350,1,C,N","011265,1,N,1","-0060,1","-0130,1","99999,9","02,5,+01050,1,99,9","07,5,+01350,1,99,9",,,"07,99,1,99,9,99,9,99999,9,99,9,99,9",,"10010,1,99999,9",,,,"MET084METAR ENSD 201150Z 14009KT 9999 FEW035 BKN045 M06/M13 Q1001 RMK WIND 1138FT 08003KT;",
"01320099999","2010-12-20T12:50:00","4","61.8333333","6.1166667","60.0","SANDANE ANDA, NO","FM-15","ENSD ","V020","160,1,N,0031,1","01350,1,C,N","011265,1,N,1","-0060,1","-0120,1","99999,9","02,5,+01050,1,99,9","07,5,+01350,1,99,9",,,"07,99,1,99,9,99,9,99999,9,99,9,99,9",,"10010,1,99999,9",,,,"MET084METAR ENSD 201250Z 16006KT 9999 FEW035 BKN045 M06/M12 Q1001 RMK WIND 1138FT 06003KT;",
"01320099999","2010-12-20T13:50:00","4","61.8333333","6.1166667","60.0","SANDANE ANDA, NO","FM-15","ENSD ","V020","160,1,N,0021,1","01350,1,C,N","011265,1,N,1","-0060,1","-0130,1","99999,9","02,5,+01050,1,99,9","07,5,+01350,1,99,9",,,"07,99,1,99,9,99,9,99999,9,99,9,99,9",,"10010,1,99999,9","16,1",,,"MET089METAR ENSD 201350Z 16004KT 9999 VCSH FEW035 BKN045 M06/M13 Q1001 RMK WIND 1138FT 00000KT;",
"01320099999","2010-12-20T14:50:00","4","61.8333333","6.1166667","60.0","SANDANE ANDA, NO","FM-15","ENSD ","V020","160,1,N,0021,1","00900,1,C,N","011265,1,N,1","-0060,1","-0130,1","99999,9","02,5,+00600,1,99,9","07,5,+00900,1,99,9",,,"07,99,1,99,9,99,9,99999,9,99,9,99,9",,"10010,1,99999,9","16,1",,,"MET089METAR ENSD 201450Z 16004KT 9999 VCSH FEW020 BKN030 M06/M13 Q1001 RMK WIND 1138FT VRB02KT;",
"01320099999","2010-12-20T15:50:00","4","61.8333333","6.1166667","60.0","SANDANE ANDA, NO","FM-15","ENSD ","V020","180,1,N,0015,1","00750,1,C,N","011265,1,N,1","-0060,1","-0120,1","99999,9","02,5,+00600,1,99,9","04,5,+00750,1,99,9","07,5,+00900,1,99,9",,"07,99,1,99,9,99,9,99999,9,99,9,99,9",,"10010,1,99999,9","85,5",,,"MET097METAR ENSD 201550Z 18003KT 9999 -SHSN FEW020 SCT025 BKN030 M06/M12 Q1001 RMK WIND 1138FT VRB01KT;",
"01320099999","2010-12-20T16:50:00","4","61.8333333","6.1166667","60.0","SANDANE ANDA, NO","FM-15","ENSD ","V020","170,1,N,0021,1","00750,1,C,N","011265,1,N,1","-0060,1","-0110,1","99999,9","02,5,+00600,1,99,9","04,5,+00750,1,99,9","07,5,+00900,1,99,9",,"07,99,1,99,9,99,9,99999,9,99,9,99,9",,"10010,1,99999,9","85,5",,,"MET097METAR ENSD 201650Z 17004KT 9999 -SHSN FEW020 SCT025 BKN030 M06/M11 Q1001 RMK WIND 1138FT 21004KT;",
"01320099999","2010-12-20T17:50:00","4","61.8333333","6.1166667","60.0","SANDANE ANDA, NO","FM-15","ENSD ","V020","999,9,V,0010,1","00750,1,C,N","011265,1,N,1","-0060,1","-0110,1","99999,9","02,5,+00600,1,99,9","04,5,+00750,1,99,9","07,5,+00900,1,99,9",,"07,99,1,99,9,99,9,99999,9,99,9,99,9",,"10010,1,99999,9","85,5",,,"MET097METAR ENSD 201750Z VRB02KT 9999 -SHSN FEW020 SCT025 BKN030 M06/M11 Q1001 RMK WIND 1138FT 22004KT;",
"01320099999","2010-12-20T18:50:00","4","61.8333333","6.1166667","60.0","SANDANE ANDA, NO","FM-15","ENSD ","V020","999,9,V,0005,1","00750,1,C,N","008000,1,N,1","-0060,1","-0110,1","99999,9","02,5,+00600,1,99,9","04,5,+00750,1,99,9","07,5,+00900,1,99,9",,"07,99,1,99,9,99,9,99999,9,99,9,99,9",,"10010,1,99999,9","85,5",,,"MET097METAR ENSD 201850Z VRB01KT 8000 -SHSN FEW020 SCT025 BKN030 M06/M11 Q1001 RMK WIND 1138FT 22004KT;",
"01320099999","2010-12-20T19:50:00","4","61.8333333","6.1166667","60.0","SANDANE ANDA, NO","FM-15","ENSD ","V020","999,9,V,0010,1","00750,1,C,N","008000,1,N,1","-0060,1","-0100,1","99999,9","02,5,+00600,1,99,9","04,5,+00750,1,99,9","07,5,+00900,1,99,9",,"07,99,1,99,9,99,9,99999,9,99,9,99,9",,"10010,1,99999,9","85,5",,,"MET097METAR ENSD 201950Z VRB02KT 8000 -SHSN FEW020 SCT025 BKN030 M06/M10 Q1001 RMK WIND 1138FT VRB02KT;",
"01320099999","2010-12-21T04:50:00","4","61.8333333","6.1166667","60.0","SANDANE ANDA, NO","FM-15","ENSD ","V020","160,1,N,0015,1","00900,1,C,N","011265,1,N,1","-0060,1","-0100,1","99999,9","02,5,+00600,1,99,9","04,5,+00900,1,99,9","07,5,+01200,1,99,9",,"07,99,1,99,9,99,9,99999,9,99,9,99,9",,,,,,"MET090METAR ENSD 210450Z 16003KT 9999 FEW020 SCT030 BKN040 M06/M10 Q102 RMK WIND 1138FT VRB02KT;",
"01320099999","2010-12-21T05:50:00","4","61.8333333","6.1166667","60.0","SANDANE ANDA, NO","FM-15","ENSD ","V020","160,1,N,0015,1","00900,1,C,N","011265,1,N,1","-0060,1","-0100,1","99999,9","02,5,+00600,1,99,9","04,5,+00900,1,99,9","07,5,+01200,1,99,9",,"07,99,1,99,9,99,9,99999,9,99,9,99,9",,"10020,1,99999,9",,,,"MET091METAR ENSD 210550Z 16003KT 9999 FEW020 SCT030 BKN040 M06/M10 Q1002 RMK WIND 1138FT 00000KT;",
"01320099999","2010-12-21T06:50:00","4","61.8333333","6.1166667","60.0","SANDANE ANDA, NO","FM-15","ENSD ","V020","170,1,N,0021,1","00900,1,C,N","011265,1,N,1","-0060,1","-0100,1","99999,9","02,5,+00600,1,99,9","04,5,+00900,1,99,9","07,5,+01200,1,99,9",,"07,99,1,99,9,99,9,99999,9,99,9,99,9",,"10020,1,99999,9",,,,"MET091METAR ENSD 210650Z 17004KT 9999 FEW020 SCT030 BKN040 M06/M10 Q1002 RMK WIND 1138FT VRB02KT;",
"01320099999","2010-12-21T07:50:00","4","61.8333333","6.1166667","60.0","SANDANE ANDA, NO","FM-15","ENSD ","V020","999,9,V,0005,1","00900,1,C,N","011265,1,N,1","-0060,1","-0090,1","99999,9","02,5,+00600,1,99,9","04,5,+00900,1,99,9","07,5,+01200,1,99,9",,"07,99,1,99,9,99,9,99999,9,99,9,99,9",,"10031,1,99999,9","85,5",,,"MET097METAR ENSD 210750Z VRB01KT 9999 -SHSN FEW020 SCT030 BKN040 M06/M09 Q1003 RMK WIND 1138FT VRB01KT;",
"01320099999","2010-12-21T08:50:00","4","61.8333333","6.1166667","60.0","SANDANE ANDA, NO","FM-15","ENSD ","V020","999,9,V,0010,1","00600,1,C,N","011265,1,N,1","-0060,1","-0100,1","99999,9","02,5,+00150,1,99,9","04,5,+00600,1,99,9","07,5,+00750,1,99,9",,"07,99,1,99,9,99,9,99999,9,99,9,99,9",,"10031,1,99999,9","85,5",,,"MET097METAR ENSD 210850Z VRB02KT 9999 -SHSN FEW005 SCT020 BKN025 M06/M10 Q1003 RMK WIND 1138FT VRB02KT;",
"01320099999","2010-12-21T09:50:00","4","61.8333333","6.1166667","60.0","SANDANE ANDA, NO","FM-15","ENSD ","V020","999,9,V,0010,1","99999,9,C,N","011265,1,N,1","-0060,1","-0100,1","99999,9","02,5,+00150,1,99,9","04,5,+00600,1,99,9",,,"04,99,1,99,9,99,9,99999,9,99,9,99,9",,"10041,1,99999,9","16,1",,,"MET089METAR ENSD 210950Z VRB02KT 9999 VCSH FEW005 SCT020 M06/M10 Q1004 RMK WIND 1138FT 00000KT;","P01 006003SCOCIG"
"01320099999","2010-12-21T10:50:00","4","61.8333333","6.1166667","60.0","SANDANE ANDA, NO","FM-15","ENSD ","V020","999,9,V,0010,1","99999,9,C,N","011265,1,N,1","-0060,1","-0110,1","99999,9","02,5,+00150,1,99,9","04,5,+00600,1,99,9",,,"04,99,1,99,9,99,9,99999,9,99,9,99,9",,"10041,1,99999,9",,,,"MET084METAR ENSD 211050Z VRB02KT 9999 FEW005 SCT020 M06/M11 Q1004 RMK WIND 1138FT 00000KT;","P01 006003SCOCIG"
"01320099999","2010-12-21T11:50:00","4","61.8333333","6.1166667","60.0","SANDANE ANDA, NO","FM-15","ENSD ","V020","200,1,N,0015,1","99999,9,C,N","011265,1,N,1","-0070,1","-0110,1","99999,9","02,5,+00150,1,99,9","04,5,+00600,1,99,9",,,"04,99,1,99,9,99,9,99999,9,99,9,99,9",,"10041,1,99999,9",,,,"MET084METAR ENSD 211150Z 20003KT 9999 FEW005 SCT020 M07/M11 Q1004 RMK WIND 1138FT 29003KT;","P01 006003SCOCIG"
"01320099999","2010-12-21T12:50:00","4","61.8333333","6.1166667","60.0","SANDANE ANDA, NO","FM-15","ENSD ","V020","999,9,V,0005,1","99999,9,C,N","011265,1,N,1","-0070,1","-0110,1","99999,9","02,5,+00300,1,99,9","04,5,+00600,1,99,9",,,"04,99,1,99,9,99,9,99999,9,99,9,99,9",,"10051,1,99999,9",,,,"MET084METAR ENSD 211250Z VRB01KT 9999 FEW010 SCT020 M07/M11 Q1005 RMK WIND 1138FT VRB02KT;","P01 006003SCOCIG"
"01320099999","2010-12-21T13:50:00","4","61.8333333","6.1166667","60.0","SANDANE ANDA, NO","FM-15","ENSD ","V020","170,1,N,0031,1","99999,9,C,N","011265,1,N,1","-0070,1","-0110,1","99999,9","02,5,+00300,1,99,9","04,5,+00600,1,99,9",,,"04,99,1,99,9,99,9,99999,9,99,9,99,9",,"10051,1,99999,9",,,,"MET084METAR ENSD 211350Z 17006KT 9999 FEW010 SCT020 M07/M11 Q1005 RMK WIND 1138FT VRB01KT;","P01 006003SCOCIG"
"01320099999","2010-12-21T14:50:00","4","61.8333333","6.1166667","60.0","SANDANE ANDA, NO","FM-15","ENSD ","V020","150,1,N,0031,1","99999,9,C,N","011265,1,N,1","-0080,1","-0110,1","99999,9","02,5,+00300,1,99,9","04,5,+00600,1,99,9",,,"04,99,1,99,9,99,9,99999,9,99,9,99,9",,"10061,1,99999,9",,,,"MET084METAR ENSD 211450Z 15006KT 9999 FEW010 SCT020 M08/M11 Q1006 RMK WIND 1138FT 00000KT;","P01 006003SCOCIG"
"01320099999","2010-12-21T15:50:00","4","61.8333333","6.1166667","60.0","SANDANE ANDA, NO","FM-15","ENSD ","V020","140,1,N,0026,1","00900,1,C,N","011265,1,N,1","-0080,1","-0110,1","99999,9","02,5,+00150,1,99,9","07,5,+00900,1,99,9",,,"07,99,1,99,9,99,9,99999,9,99,9,99,9",,"10061,1,99999,9",,,,"MET084METAR ENSD 211550Z 14005KT 9999 FEW005 BKN030 M08/M11 Q1006 RMK WIND 1138FT 00000KT;",
"01320099999","2010-12-21T16:50:00","4","61.8333333","6.1166667","60.0","SANDANE ANDA, NO","FM-15","ENSD ","V020","140,1,N,0031,1","00900,1,C,N","008000,1,N,1","-0070,1","-0110,1","99999,9","07,5,+00900,1,99,9",,,,"07,99,1,99,9,99,9,99999,9,99,9,99,9",,"10061,1,99999,9","85,5",,,"MET083METAR ENSD 211650Z 14006KT 8000 -SHSN BKN030 M07/M11 Q1006 RMK WIND 1138FT VRB01KT;",
"01320099999","2010-12-21T17:50:00","4","61.8333333","6.1166667","60.0","SANDANE ANDA, NO","FM-15","ENSD ","V020","130,1,N,0015,1","00300,1,9,N","006000,1,N,1","-0070,1","-0110,1","99999,9","09,1,+00300,1,99,9",,,,"09,99,1,99,9,99,9,00025,1,99,9,99,9",,"10071,1,99999,9","71,1",,,"MET080METAR ENSD 211750Z 13003KT 6000 -SN VV010 M07/M11 Q1007 RMK WIND 1138FT VRB01KT;",
"01320099999","2010-12-21T18:50:00","4","61.8333333","6.1166667","60.0","SANDANE ANDA, NO","FM-15","ENSD ","V020","120,1,N,0031,1","00750,1,C,N","005000,1,N,1","-0070,1","-0100,1","99999,9","07,5,+00750,1,99,9",,,,"07,99,1,99,9,99,9,99999,9,99,9,99,9",,"10071,1,99999,9","71,1",,,"MET081METAR ENSD 211850Z 12006KT 5000 -SN BKN025 M07/M10 Q1007 RMK WIND 1138FT VRB01KT;",
"01320099999","2010-12-22T05:20:00","4","61.8333333","6.1166667","60.0","SANDANE ANDA, NO","FM-15","ENSD ","V020","999,9,V,0005,1","00360,1,9,N","003500,1,N,1","-0040,1","-0070,1","99999,9","09,1,+00360,1,99,9",,,,"09,99,1,99,9,99,9,00025,1,99,9,99,9",,"10081,1,99999,9","73,1",,,"MET079METAR ENSD 220520Z VRB01KT 3500 SN VV012 M04/M07 Q1008 RMK WIND 1138FT VRB02KT;",
"01320099999","2010-12-22T06:50:00","4","61.8333333","6.1166667","60.0","SANDANE ANDA, NO","FM-15","ENSD ","V020","140,1,N,0031,1","01800,1,C,N","004000,1,N,1","-0040,1","-0070,1","99999,9","04,5,+00300,1,99,9","07,5,+01800,1,99,9",,,"07,99,1,99,9,99,9,99999,9,99,9,99,9",,"10091,1,99999,9","86,5",,,"MET089METAR ENSD 220650Z 14006KT 4000 SHSN SCT010 BKN060 M04/M07 Q1009 RMK WIND 1138FT VRB02KT;",
"01320099999","2010-12-22T07:50:00","4","61.8333333","6.1166667","60.0","SANDANE ANDA, NO","FM-15","ENSD ","V020","150,1,N,0031,1","01800,1,C,N","004000,1,N,1","-0040,1","-0070,1","99999,9","04,5,+00300,1,99,9","07,5,+01800,1,99,9",,,"07,99,1,99,9,99,9,99999,9,99,9,99,9",,"10091,1,99999,9","86,5",,,"MET089METAR ENSD 220750Z 15006KT 4000 SHSN SCT010 BKN060 M04/M07 Q1009 RMK WIND 1138FT 24003KT;",
"01320099999","2010-12-22T08:50:00","4","61.8333333","6.1166667","60.0","SANDANE ANDA, NO","FM-15","ENSD ","V020","140,1,N,0031,1","01800,1,C,N","006000,1,N,1","-0030,1","-0070,1","99999,9","04,5,+00300,1,99,9","07,5,+01800,1,99,9",,,"07,99,1,99,9,99,9,99999,9,99,9,99,9",,"10102,1,99999,9","16,1",,,"MET089METAR ENSD 220850Z 14006KT 6000 VCSH SCT010 BKN060 M03/M07 Q1010 RMK WIND 1138FT VRB02KT;",
"01320099999","2010-12-22T09:50:00","4","61.8333333","6.1166667","60.0","SANDANE ANDA, NO","FM-15","ENSD ","V020","170,1,N,0021,1","00900,1,C,N","011265,1,N,1","-0030,1","-0060,1","99999,9","02,5,+00300,1,99,9","07,5,+00900,1,99,9",,,"07,99,1,99,9,99,9,99999,9,99,9,99,9",,"10102,1,99999,9","85,5",,,"MET090METAR ENSD 220950Z 17004KT 9999 -SHSN FEW010 BKN030 M03/M06 Q1010 RMK WIND 1138FT 27003KT;",
"01320099999","2010-12-22T10:50:00","4","61.8333333","6.1166667","60.0","SANDANE ANDA, NO","FM-15","ENSD ","V020","140,1,N,0031,1","00900,1,C,N","011265,1,N,1","-0030,1","-0060,1","99999,9","02,5,+00300,1,99,9","07,5,+00900,1,99,9",,,"07,99,1,99,9,99,9,99999,9,99,9,99,9",,"10108,1,99999,9","85,5",,,"MET090METAR ENSD 221050Z 14006KT 9999 -SHSN FEW010 BKN030 M03/M06 Q1011 RMK WIND 1138FT 25004KT;",
"01320099999","2010-12-22T11:50:00","4","61.8333333","6.1166667","60.0","SANDANE ANDA, NO","FM-15","ENSD ","V020","130,1,N,0031,1","00900,1,C,N","005000,1,N,1","-0030,1","-0060,1","99999,9","02,5,+00300,1,99,9","07,5,+00900,1,99,9",,,"07,99,1,99,9,99,9,99999,9,99,9,99,9",,"10108,1,99999,9","85,5",,,"MET090METAR ENSD 221150Z 13006KT 5000 -SHSN FEW010 BKN030 M03/M06 Q1011 RMK WIND 1138FT 21005KT;",
"01320099999","2010-12-22T12:50:00","4","61.8333333","6.1166667","60.0","SANDANE ANDA, NO","FM-15","ENSD ","V020","999,9,V,0010,1","00900,1,C,N","005000,1,N,1","-0030,1","-0060,1","99999,9","02,5,+00300,1,99,9","07,5,+00900,1,99,9",,,"07,99,1,99,9,99,9,99999,9,99,9,99,9",,"10108,1,99999,9","16,1",,,"MET089METAR ENSD 221250Z VRB02KT 5000 VCSH FEW010 BKN030 M03/M06 Q1011 RMK WIND 1138FT 20003KT;",
"01320099999","2010-12-22T13:50:00","4","61.8333333","6.1166667","60.0","SANDANE ANDA, NO","FM-15","ENSD ","V020","180,1,N,0021,1","00900,1,C,N","005000,1,N,1","-0030,1","-0060,1","99999,9","02,5,+00300,1,99,9","07,5,+00900,1,99,9",,,"07,99,1,99,9,99,9,99999,9,99,9,99,9",,"10108,1,99999,9","85,5",,,"MET090METAR ENSD 221350Z 18004KT 5000 -SHSN FEW010 BKN030 M03/M06 Q1011 RMK WIND 1138FT 22003KT;",
"01320099999","2010-12-22T14:50:00","4","61.8333333","6.1166667","60.0","SANDANE ANDA, NO","FM-15","ENSD ","V020","230,1,N,0015,1","00600,1,9,N","005000,1,N,1","-0030,1","-0060,1","99999,9","09,1,+00600,1,99,9",,,,"09,99,1,99,9,99,9,00025,1,99,9,99,9",,"10119,1,99999,9","85,5",,,"MET082METAR ENSD 221450Z 23003KT 5000 -SHSN VV020 M03/M06 Q1012 RMK WIND 1138FT VRB02KT;",
"01320099999","2010-12-22T15:50:00","4","61.8333333","6.1166667","60.0","SANDANE ANDA, NO","FM-15","ENSD ","V020","999,9,V,0010,1","00540,1,9,N","005000,1,N,1","-0030,1","-0050,1","99999,9","09,1,+00540,1,99,9",,,,"09,99,1,99,9,99,9,00025,1,99,9,99,9",,"10119,1,99999,9","85,5",,,"MET082METAR ENSD 221550Z VRB02KT 5000 -SHSN VV018 M03/M05 Q1012 RMK WIND 1138FT VRB01KT;",
"01320099999","2010-12-22T16:50:00","4","61.8333333","6.1166667","60.0","SANDANE ANDA, NO","FM-15","ENSD ","V020","999,9,V,0010,1","00600,1,9,N","005000,1,N,1","-0030,1","-0060,1","99999,9","09,1,+00600,1,99,9",,,,"09,99,1,99,9,99,9,00025,1,99,9,99,9",,"10119,1,99999,9","85,5",,,"MET082METAR ENSD 221650Z VRB02KT 5000 -SHSN VV020 M03/M06 Q1012 RMK WIND 1138FT VRB02KT;",
"01320099999","2010-12-22T17:50:00","4","61.8333333","6.1166667","60.0","SANDANE ANDA, NO","FM-15","ENSD ","V020","999,9,V,0010,1","00750,1,9,N","007000,1,N,1","-0030,1","-0060,1","99999,9","09,1,+00750,1,99,9",,,,"09,99,1,99,9,99,9,00025,1,99,9,99,9",,"10119,1,99999,9","85,5",,,"MET082METAR ENSD 221750Z VRB02KT 7000 -SHSN VV025 M03/M06 Q1012 RMK WIND 1138FT 00000KT;",
"01320099999","2010-12-22T18:50:00","4","61.8333333","6.1166667","60.0","SANDANE ANDA, NO","FM-15","ENSD ","V020","999,9,V,0005,1","00900,1,C,N","011265,1,N,1","-0030,1","-0060,1","99999,9","02,5,+00450,1,99,9","04,5,+00900,1,99,9","07,5,+01200,1,99,9",,"07,99,1,99,9,99,9,99999,9,99,9,99,9",,"10129,1,99999,9","16,1",,,"MET096METAR ENSD 221850Z VRB01KT 9999 VCSH FEW015 SCT030 BKN040 M03/M06 Q1013 RMK WIND 1138FT VRB01KT;",
"01320099999","2010-12-22T19:50:00","4","61.8333333","6.1166667","60.0","SANDANE ANDA, NO","FM-15","ENSD ","V020","999,9,V,0010,1","00750,1,C,N","011265,1,N,1","-0030,1","-0060,1","99999,9","02,5,+00450,1,99,9","04,5,+00750,1,99,9","07,5,+01200,1,99,9",,"07,99,1,99,9,99,9,99999,9,99,9,99,9",,"10129,1,99999,9","16,1",,,"MET096METAR ENSD 221950Z VRB02KT 9999 VCSH FEW015 SCT025 BKN040 M03/M06 Q1013 RMK WIND 1138FT 00000KT;",
"01320099999","2010-12-22T20:50:00","4","61.8333333","6.1166667","60.0","SANDANE ANDA, NO","FM-15","ENSD ","V020","150,1,N,0015,1","00750,1,C,N","011265,1,N,1","-0040,1","-0070,1","99999,9","02,5,+00450,1,99,9","04,5,+00750,1,99,9","07,5,+01200,1,99,9",,"07,99,1,99,9,99,9,99999,9,99,9,99,9",,"10129,1,99999,9",,,,"MET091METAR ENSD 222050Z 15003KT 9999 FEW015 SCT025 BKN040 M04/M07 Q1013 RMK WIND 1138FT VRB01KT;",
"01320099999","2010-12-23T04:50:00","4","61.8333333","6.1166667","60.0","SANDANE ANDA, NO","FM-15","ENSD ","V020","060,1,N,0051,1","00750,1,C,N","011265,1,N,1","-0030,1","-0070,1","99999,9","02,5,+00600,1,99,9","04,5,+00750,1,99,9","07,5,+01050,1,99,9",,"07,99,1,99,9,99,9,99999,9,99,9,99,9",,"10139,1,99999,9","85,5",,,"MET097METAR ENSD 230450Z 06010KT 9999 -SHSN FEW020 SCT025 BKN035 M03/M07 Q1014 RMK WIND 1138FT 09009KT;",
"01320099999","2010-12-23T05:50:00","4","61.8333333","6.1166667","60.0","SANDANE ANDA, NO","FM-15","ENSD ","V020","060,1,N,0067,1","00750,1,C,N","011265,1,N,1","-0030,1","-0090,1","99999,9","02,5,+00600,1,99,9","04,5,+00750,1,99,9","07,5,+01050,1,99,9",,"07,99,1,99,9,99,9,99999,9,99,9,99,9",,"10139,1,99999,9","85,5",,,"MET097METAR ENSD 230550Z 06013KT 9999 -SHSN FEW020 SCT025 BKN035 M03/M09 Q1014 RMK WIND 1138FT 09012KT;",
"01320099999","2010-12-23T06:50:00","4","61.8333333","6.1166667","60.0","SANDANE ANDA, NO","FM-15","ENSD ","V020","060,1,N,0051,1","00750,1,C,N","011265,1,N,1","-0030,1","-0090,1","99999,9","02,5,+00600,1,99,9","04,5,+00750,1,99,9","07,5,+01050,1,99,9",,"07,99,1,99,9,99,9,99999,9,99,9,99,9",,"10149,1,99999,9","16,1",,,"MET096METAR ENSD 230650Z 06010KT 9999 VCSH FEW020 SCT025 BKN035 M03/M09 Q1015 RMK WIND 1138FT 09010KT;",
"01320099999","2010-12-23T07:50:00","4","61.8333333","6.1166667","60.0","SANDANE ANDA, NO","FM-15","ENSD ","V020","060,1,N,0072,1","00900,1,C,N","011265,1,N,1","-0030,1","-0090,1","99999,9","02,5,+00600,1,99,9","04,5,+00900,1,99,9","07,5,+01050,1,99,9",,"07,99,1,99,9,99,9,99999,9,99,9,99,9",,"10149,1,99999,9",,,,"MET091METAR ENSD 230750Z 06014KT 9999 FEW020 SCT030 BKN035 M03/M09 Q1015 RMK WIND 1138FT 08013KT;",
"01320099999","2010-12-23T08:50:00","4","61.8333333","6.1166667","60.0","SANDANE ANDA, NO","FM-15","ENSD ","V020","060,1,N,0067,1","00900,1,C,N","011265,1,N,1","-0040,1","-0090,1","99999,9","02,5,+00600,1,99,9","04,5,+00900,1,99,9","07,5,+01050,1,99,9",,"07,99,1,99,9,99,9,99999,9,99,9,99,9",,"10149,1,99999,9",,,,"MET091METAR ENSD 230850Z 06013KT 9999 FEW020 SCT030 BKN035 M04/M09 Q1015 RMK WIND 1138FT 09012KT;",
"01320099999","2010-12-23T09:50:00","4","61.8333333","6.1166667","60.0","SANDANE ANDA, NO","FM-15","ENSD ","V020","070,1,N,0082,1","00750,1,C,N","011265,1,N,1","-0030,1","-0100,1","99999,9","02,5,+00600,1,99,9","04,5,+00750,1,99,9","07,5,+00900,1,99,9",,"07,99,1,99,9,99,9,99999,9,99,9,99,9",,"10159,1,99999,9","85,5",,,"MET097METAR ENSD 230950Z 07016KT 9999 -SHSN FEW020 SCT025 BKN030 M03/M10 Q1016 RMK WIND 1138FT 06013KT;",
"01320099999","2010-12-23T10:50:00","4","61.8333333","6.1166667","60.0","SANDANE ANDA, NO","FM-15","ENSD ","V020","070,1,N,0062,1","00900,1,C,N","011265,1,N,1","-0040,1","-0090,1","99999,9","02,5,+00600,1,99,9","04,5,+00900,1,99,9","07,5,+01200,1,99,9",,"07,99,1,99,9,99,9,99999,9,99,9,99,9",,"10159,1,99999,9",,,,"MET091METAR ENSD 231050Z 07012KT 9999 FEW020 SCT030 BKN040 M04/M09 Q1016 RMK WIND 1138FT 07010KT;",
"01320099999","2010-12-23T11:50:00","4","61.8333333","6.1166667","60.0","SANDANE ANDA, NO","FM-15","ENSD ","V020","070,1,N,0072,1","00900,1,C,N","011265,1,N,1","-0040,1","-0100,1","99999,9","02,5,+00600,1,99,9","04,5,+00900,1,99,9","07,5,+01200,1,99,9",,"07,99,1,99,9,99,9,99999,9,99,9,99,9",,"10159,1,99999,9","16,1",,,"MET096METAR ENSD 231150Z 07014KT 9999 VCSH FEW020 SCT030 BKN040 M04/M10 Q1016 RMK WIND 1138FT 06017KT;",
"01320099999","2010-12-23T12:50:00","4","61.8333333","6.1166667","60.0","SANDANE ANDA, NO","FM-15","ENSD ","V020","080,1,N,0051,1","99999,9,C,N","011265,1,N,1","-0040,1","-0100,1","99999,9","02,5,+00900,1,99,9","04,5,+01200,1,99,9",,,"04,99,1,99,9,99,9,99999,9,99,9,99,9",,"10159,1,99999,9",,,,"MET092METAR ENSD 231250Z 08010KT 030V150 9999 FEW030 SCT040 M04/M10 Q1016 RMK WIND 1138FT 07014KT;","P01 012003SCOCIG"
"01320099999","2010-12-23T13:50:00","4","61.8333333","6.1166667","60.0","SANDANE ANDA, NO","FM-15","ENSD ","V020","100,1,N,0041,1","99999,9,C,N","011265,1,N,1","-0040,1","-0100,1","99999,9","02,5,+00900,1,99,9","04,5,+01200,1,99,9",,,"04,99,1,99,9,99,9,99999,9,99,9,99,9",,"10159,1,99999,9",,,,"MET092METAR ENSD 231350Z 10008KT 060V150 9999 FEW030 SCT040 M04/M10 Q1016 RMK WIND 1138FT 07008KT;","P01 012003SCOCIG"
"01320099999","2010-12-23T14:50:00","4","61.8333333","6.1166667","60.0","SANDANE ANDA, NO","FM-15","ENSD ","V020","140,1,N,0031,1","99999,9,C,N","011265,1,N,1","-0050,1","-0080,1","99999,9","02,5,+00900,1,99,9","04,5,+01200,1,99,9",,,"04,99,1,99,9,99,9,99999,9,99,9,99,9",,"10159,1,99999,9","16,1",,,"MET089METAR ENSD 231450Z 14006KT 9999 VCSH FEW030 SCT040 M05/M08 Q1016 RMK WIND 1138FT 06012KT;","P01 012003SCOCIG"
"01320099999","2010-12-23T15:50:00","4","61.8333333","6.1166667","60.0","SANDANE ANDA, NO","FM-15","ENSD ","V020","140,1,N,0026,1","01200,1,C,N","011265,1,N,1","-0050,1","-0090,1","99999,9","02,5,+00900,1,99,9","07,5,+01200,1,99,9",,,"07,99,1,99,9,99,9,99999,9,99,9,99,9",,"10159,1,99999,9","85,5",,,"MET090METAR ENSD 231550Z 14005KT 9999 -SHSN FEW030 BKN040 M05/M09 Q1016 RMK WIND 1138FT 07009KT;",
"01320099999","2010-12-23T16:50:00","4","61.8333333","6.1166667","60.0","SANDANE ANDA, NO","FM-15","ENSD ","V020","120,1,N,0031,1","01350,1,C,N","011265,1,N,1","-0040,1","-0100,1","99999,9","02,5,+00900,1,99,9","07,5,+01350,1,99,9",,,"07,99,1,99,9,99,9,99999,9,99,9,99,9",,"10169,1,99999,9",,,,"MET084METAR ENSD 231650Z 12006KT 9999 FEW030 BKN045 M04/M10 Q1017 RMK WIND 1138FT 07009KT;",
"01320099999","2010-12-23T19:50:00","4","61.8333333","6.1166667","60.0","SANDANE ANDA, NO","FM-15","ENSD ","V020","150,1,N,0026,1","99999,9,C,N","011265,1,N,1","-0050,1","-0090,1","99999,9","02,5,+01050,1,99,9","04,5,+01500,1,99,9",,,"04,99,1,99,9,99,9,99999,9,99,9,99,9",,"10169,1,99999,9",,,,"MET084METAR ENSD 231950Z 15005KT 9999 FEW035 SCT050 M05/M09 Q1017 RMK WIND 1138FT 08009KT;","P01 015003SCOCIG"
"01320099999","2010-12-24T07:50:00","4","61.8333333","6.1166667","60.0","SANDANE ANDA, NO","FM-15","ENSD ","V020","140,1,N,0031,1","01350,1,C,N","011265,1,N,1","-0060,1","-0110,1","99999,9","07,5,+01350,1,99,9",,,,"07,99,1,99,9,99,9,99999,9,99,9,99,9",,"10200,1,99999,9","85,5",,,"MET083METAR ENSD 240750Z 14006KT 9999 -SHSN BKN045 M06/M11 Q1020 RMK WIND 1138FT 07006KT;",
"01320099999","2010-12-24T08:50:00","4","61.8333333","6.1166667","60.0","SANDANE ANDA, NO","FM-15","ENSD ","V020","140,1,N,0031,1","01350,1,C,N","011265,1,N,1","-0060,1","-0110,1","99999,9","07,5,+01350,1,99,9",,,,"07,99,1,99,9,99,9,99999,9,99,9,99,9",,"10200,1,99999,9",,,,"MET077METAR ENSD 240850Z 14006KT 9999 BKN045 M06/M11 Q1020 RMK WIND 1138FT 09005KT;",
"01320099999","2010-12-24T09:50:00","4","61.8333333","6.1166667","60.0","SANDANE ANDA, NO","FM-15","ENSD ","V020","140,1,N,0031,1","01350,1,C,N","011265,1,N,1","-0060,1","-0100,1","99999,9","07,5,+01350,1,99,9",,,,"07,99,1,99,9,99,9,99999,9,99,9,99,9",,"10200,1,99999,9","85,5",,,"MET083METAR ENSD 240950Z 14006KT 9999 -SHSN BKN045 M06/M10 Q1020 RMK WIND 1138FT 06004KT;",
"01320099999","2010-12-25T17:20:00","4","61.8333333","6.1166667","60.0","SANDANE ANDA, NO","FM-15","ENSD ","V020","140,1,N,0046,1","99999,9,C,N","011265,1,N,1","-0080,1","-0140,1","99999,9","02,5,+00900,1,99,9","04,5,+03000,1,99,9",,,"04,99,1,99,9,99,9,99999,9,99,9,99,9",,"10240,1,99999,9",,,,"MET084METAR ENSD 251720Z 14009KT 9999 FEW030 SCT100 M08/M14 Q1024 RMK WIND 1138FT 09006KT;","P01 030003SCOCIG"
"01320099999","2010-12-26T13:50:00","4","61.8333333","6.1166667","60.0","SANDANE ANDA, NO","FM-15","ENSD ","V020","130,1,N,0046,1","22000,1,9,N","011265,1,N,1","-0090,1","-0140,1","99999,9","02,5,+00300,1,99,9",,,,"02,99,1,99,9,99,9,99999,9,99,9,99,9",,"10230,1,99999,9",,,,"MET077METAR ENSD 261350Z 13009KT 9999 FEW010 M09/M14 Q1023 RMK WIND 1138FT 07002KT;",
"01320099999","2010-12-26T14:20:00","4","61.8333333","6.1166667","60.0","SANDANE ANDA, NO","FM-15","ENSD ","V020","999,9,V,0005,1","22000,1,9,N","011265,1,N,1","-0100,1","-0140,1","99999,9","02,5,+00300,1,99,9",,,,"02,99,1,99,9,99,9,99999,9,99,9,99,9",,"10230,1,99999,9",,,,"MET077METAR ENSD 261420Z VRB01KT 9999 FEW010 M10/M14 Q1023 RMK WIND 1138FT 06005KT;",
"01320099999","2010-12-26T14:50:00","4","61.8333333","6.1166667","60.0","SANDANE ANDA, NO","FM-15","ENSD ","V020","999,9,V,0015,1","22000,1,9,N","011265,1,N,1","-0090,1","-0140,1","99999,9","02,5,+00240,1,99,9",,,,"02,99,1,99,9,99,9,99999,9,99,9,99,9",,"10230,1,99999,9",,,,"MET077METAR ENSD 261450Z VRB03KT 9999 FEW008 M09/M14 Q1023 RMK WIND 1138FT 07005KT;",
"01320099999","2010-12-26T15:50:00","4","61.8333333","6.1166667","60.0","SANDANE ANDA, NO","FM-15","ENSD ","V020","140,1,N,0051,1","22000,1,9,N","011265,1,N,1","-0090,1","-0150,1","99999,9","02,5,+00360,1,99,9",,,,"02,99,1,99,9,99,9,99999,9,99,9,99,9",,"10230,1,99999,9",,,,"MET077METAR ENSD 261550Z 14010KT 9999 FEW012 M09/M15 Q1023 RMK WIND 1138FT 08004KT;",
"01320099999","2010-12-26T16:50:00","4","61.8333333","6.1166667","60.0","SANDANE ANDA, NO","FM-15","ENSD ","V020","999,9,V,0021,1","22000,1,9,N","011265,1,N,1","-0090,1","-0150,1","99999,9","02,5,+00360,1,99,9",,,,"02,99,1,99,9,99,9,99999,9,99,9,99,9","999,M,+0003,1","10220,1,99999,9",,,,"MET077METAR ENSD 261650Z VRB04KT 9999 FEW012 M09/M15 Q1022 RMK WIND 1138FT 10003KT;",
"01320099999","2010-12-27T08:20:00","4","61.8333333","6.1166667","60.0","SANDANE ANDA, NO","FM-15","ENSD ","V020","140,1,N,0036,1","22000,1,9,N","011265,1,N,1","-0090,1","-0130,1","99999,9","02,5,+00300,1,99,9",,,,"02,99,1,99,9,99,9,99999,9,99,9,99,9",,"10180,1,99999,9",,,,"MET085METAR ENSD 270820Z 14007KT 110V180 9999 FEW010 M09/M13 Q1018 RMK WIND 1138FT 08002KT;",
"01320099999","2010-12-27T08:50:00","4","61.8333333","6.1166667","60.0","SANDANE ANDA, NO","FM-15","ENSD ","V020","140,1,N,0041,1","22000,1,9,N","011265,1,N,1","-0090,1","-0130,1","99999,9","02,5,+00030,1,99,9",,,,"02,99,1,99,9,99,9,99999,9,99,9,99,9",,"10190,1,99999,9",,,,"MET085METAR ENSD 270850Z 14008KT 110V170 9999 FEW001 M09/M13 Q1019 RMK WIND 1138FT 08001KT;",
"01320099999","2010-12-27T09:50:00","4","61.8333333","6.1166667","60.0","SANDANE ANDA, NO","FM-15","ENSD ","V020","999,9,V,0010,1","22000,1,9,N","011265,1,N,1","-0100,1","-0140,1","99999,9","02,5,+00300,1,99,9",,,,"02,99,1,99,9,99,9,99999,9,99,9,99,9","999,M,+0002,1","10190,1,99999,9",,,,"MET077METAR ENSD 270950Z VRB02KT 9999 FEW010 M10/M14 Q1019 RMK WIND 1138FT 10002KT;",
"01320099999","2010-12-27T12:20:00","4","61.8333333","6.1166667","60.0","SANDANE ANDA, NO","FM-15","ENSD ","V020","999,9,V,0010,1","22000,1,9,N","011265,1,N,1","-0090,1","-0130,1","99999,9","02,5,+00300,1,99,9",,,,"02,99,1,99,9,99,9,99999,9,99,9,99,9",,"10190,1,99999,9",,,,"MET077METAR ENSD 271220Z VRB02KT 9999 FEW010 M09/M13 Q1019 RMK WIND 1138FT VRB02KT;",
"01320099999","2010-12-27T12:50:00","4","61.8333333","6.1166667","60.0","SANDANE ANDA, NO","FM-15","ENSD ","V020","999,9,V,0015,1","22000,1,9,N","011265,1,N,1","-0080,1","-0130,1","99999,9","02,5,+00300,1,99,9",,,,"02,99,1,99,9,99,9,99999,9,99,9,99,9",,"10190,1,99999,9",,,,"MET077METAR ENSD 271250Z VRB03KT 9999 FEW010 M08/M13 Q1019 RMK WIND 1138FT VRB02KT;",
"01320099999","2010-12-27T13:50:00","4","61.8333333","6.1166667","60.0","SANDANE ANDA, NO","FM-15","ENSD ","V020","999,9,V,0010,1","22000,1,9,N","011265,1,N,1","-0080,1","-0140,1","99999,9","02,5,+00300,1,99,9",,,,"02,99,1,99,9,99,9,99999,9,99,9,99,9",,"10190,1,99999,9",,,,"MET077METAR ENSD 271350Z VRB02KT 9999 FEW010 M08/M14 Q1019 RMK WIND 1138FT VRB01KT;",
"01320099999","2010-12-27T14:50:00","4","61.8333333","6.1166667","60.0","SANDANE ANDA, NO","FM-15","ENSD ","V020","140,1,N,0031,1","22000,1,9,N","011265,1,N,1","-0080,1","-0140,1","99999,9","02,5,+00300,1,99,9",,,,"02,99,1,99,9,99,9,99999,9,99,9,99,9",,"10200,1,99999,9",,,,"MET077METAR ENSD 271450Z 14006KT 9999 FEW010 M08/M14 Q1020 RMK WIND 1138FT 08002KT;",
"01320099999","2010-12-27T15:50:00","4","61.8333333","6.1166667","60.0","SANDANE ANDA, NO","FM-15","ENSD ","V020","140,1,N,0051,1","22000,1,9,N","011265,1,N,1","-0080,1","-0130,1","99999,9","02,5,+00300,1,99,9",,,,"02,99,1,99,9,99,9,99999,9,99,9,99,9",,"10200,1,99999,9",,,,"MET077METAR ENSD 271550Z 14010KT 9999 FEW010 M08/M13 Q1020 RMK WIND 1138FT 09002KT;",
"01320099999","2010-12-27T16:50:00","4","61.8333333","6.1166667","60.0","SANDANE ANDA, NO","FM-15","ENSD ","V020","999,9,V,0015,1","22000,1,9,N","011265,1,N,1","-0080,1","-0130,1","99999,9","02,5,+00300,1,99,9",,,,"02,99,1,99,9,99,9,99999,9,99,9,99,9",,"10200,1,99999,9",,,,"MET077METAR ENSD 271650Z VRB03KT 9999 FEW010 M08/M13 Q1020 RMK WIND 1138FT 05002KT;",
"01320099999","2010-12-28T08:20:00","4","61.8333333","6.1166667","60.0","SANDANE ANDA, NO","FM-15","ENSD ","V020","140,1,N,0041,1","01950,5,C,N","011265,1,N,1","-0050,1","-0100,1","99999,9","02,5,+00300,1,99,9","07,5,+01950,5,99,9",,,"07,99,1,99,9,99,9,99999,9,99,9,99,9",,"10240,1,99999,9",,,,"MET084METAR ENSD 280820Z 14008KT 9999 FEW010 BKN065 M05/M10 Q1024 RMK WIND 1138FT VRB01KT;",
"01320099999","2010-12-28T08:50:00","4","61.8333333","6.1166667","60.0","SANDANE ANDA, NO","FM-15","ENSD ","V020","999,9,V,0010,1","01950,5,C,N","011265,1,N,1","-0050,1","-0100,1","99999,9","02,5,+00300,1,99,9","07,5,+01950,5,99,9",,,"07,99,1,99,9,99,9,99999,9,99,9,99,9",,"10240,1,99999,9",,,,"MET084METAR ENSD 280850Z VRB02KT 9999 FEW010 BKN065 M05/M10 Q1024 RMK WIND 1138FT 07002KT;",
"01320099999","2010-12-28T09:50:00","4","61.8333333","6.1166667","60.0","SANDANE ANDA, NO","FM-15","ENSD ","V020","140,1,N,0041,1","99999,9,C,N","011265,1,N,1","-0050,1","-0100,1","99999,9","02,5,+00300,1,99,9","04,5,+01950,5,99,9",,,"04,99,1,99,9,99,9,99999,9,99,9,99,9",,"10251,1,99999,9",,,,"MET084METAR ENSD 280950Z 14008KT 9999 FEW010 SCT065 M05/M10 Q1025 RMK WIND 1138FT 07002KT;","P01 019503SCOCIG"
"01320099999","2010-12-28T10:50:00","4","61.8333333","6.1166667","60.0","SANDANE ANDA, NO","FM-15","ENSD ","V020","140,1,N,0036,1","22000,1,9,N","011265,1,N,1","-0050,1","-0100,1","99999,9","02,5,+00300,1,99,9",,,,"02,99,1,99,9,99,9,99999,9,99,9,99,9",,"10251,1,99999,9",,,,"MET077METAR ENSD 281050Z 14007KT 9999 FEW010 M05/M10 Q1025 RMK WIND 1138FT 07002KT;",
"01320099999","2010-12-28T13:50:00","4","61.8333333","6.1166667","60.0","SANDANE ANDA, NO","FM-15","ENSD ","V020","160,1,N,0026,1","22000,1,9,N","011265,1,N,1","-0060,1","-0110,1","99999,9","02,5,+00300,1,99,9",,,,"02,99,1,99,9,99,9,99999,9,99,9,99,9",,"10261,1,99999,9",,,,"MET077METAR ENSD 281350Z 16005KT 9999 FEW010 M06/M11 Q1026 RMK WIND 1138FT 28002KT;",
"01320099999","2010-12-28T14:50:00","4","61.8333333","6.1166667","60.0","SANDANE ANDA, NO","FM-15","ENSD ","V020","140,1,N,0041,1","22000,1,9,N","011265,1,N,1","-0060,1","-0110,1","99999,9","02,5,+00300,1,99,9",,,,"02,99,1,99,9,99,9,99999,9,99,9,99,9",,"10261,1,99999,9",,,,"MET077METAR ENSD 281450Z 14008KT 9999 FEW010 M06/M11 Q1026 RMK WIND 1138FT 25002KT;",
"01320099999","2010-12-28T15:50:00","4","61.8333333","6.1166667","60.0","SANDANE ANDA, NO","FM-15","ENSD ","V020","140,1,N,0041,1","22000,1,9,N","011265,1,N,1","-0060,1","-0110,1","99999,9","02,5,+00300,1,99,9",,,,"02,99,1,99,9,99,9,99999,9,99,9,99,9",,"10261,1,99999,9",,,,"MET077METAR ENSD 281550Z 14008KT 9999 FEW010 M06/M11 Q1026 RMK WIND 1138FT 00000KT;",
"01320099999","2010-12-28T16:50:00","4","61.8333333","6.1166667","60.0","SANDANE ANDA, NO","FM-15","ENSD ","V020","150,1,N,0031,1","22000,1,9,N","011265,1,N,1","-0070,1","-0120,1","99999,9","02,5,+00300,1,99,9",,,,"02,99,1,99,9,99,9,99999,9,99,9,99,9",,"10261,1,99999,9",,,,"MET077METAR ENSD 281650Z 15006KT 9999 FEW010 M07/M12 Q1026 RMK WIND 1138FT VRB01KT;",
"01320099999","2010-12-29T07:50:00","4","61.8333333","6.1166667","60.0","SANDANE ANDA, NO","FM-15","ENSD ","V020","110,1,N,0021,1","01050,1,C,N","011265,1,N,1","-0050,1","-0120,1","99999,9","02,5,+00750,1,99,9","04,5,+01050,1,99,9","07,5,+01200,1,99,9",,"07,99,1,99,9,99,9,99999,9,99,9,99,9",,"10251,1,99999,9",,,,"MET091METAR ENSD 290750Z 11004KT 9999 FEW025 SCT035 BKN040 M05/M12 Q1025 RMK WIND 1138FT 07005KT;",
"01320099999","2010-12-29T08:50:00","4","61.8333333","6.1166667","60.0","SANDANE ANDA, NO","FM-15","ENSD ","V020","130,1,N,0015,1","01050,1,C,N","011265,1,N,1","-0050,1","-0110,1","99999,9","02,5,+00750,1,99,9","04,5,+01050,1,99,9","07,5,+01200,1,99,9",,"07,99,1,99,9,99,9,99999,9,99,9,99,9",,"10251,1,99999,9",,,,"MET091METAR ENSD 290850Z 13003KT 9999 FEW025 SCT035 BKN040 M05/M11 Q1025 RMK WIND 1138FT 07004KT;",
"01320099999","2010-12-29T09:50:00","4","61.8333333","6.1166667","60.0","SANDANE ANDA, NO","FM-15","ENSD ","V020","150,1,N,0015,1","01050,1,C,N","011265,1,N,1","-0050,1","-0110,1","99999,9","02,5,+00750,1,99,9","04,5,+01050,1,99,9","07,5,+01200,1,99,9",,"07,99,1,99,9,99,9,99999,9,99,9,99,9",,"10251,1,99999,9",,,,"MET091METAR ENSD 290950Z 15003KT 9999 FEW025 SCT035 BKN040 M05/M11 Q1025 RMK WIND 1138FT 08004KT;",
"01320099999","2010-12-29T10:50:00","4","61.8333333","6.1166667","60.0","SANDANE ANDA, NO","FM-15","ENSD ","V020","130,1,N,0015,1","01050,1,C,N","011265,1,N,1","-0040,1","-0110,1","99999,9","02,5,+00750,1,99,9","04,5,+01050,1,99,9","07,5,+01200,1,99,9",,"07,99,1,99,9,99,9,99999,9,99,9,99,9",,"10240,1,99999,9",,,,"MET091METAR ENSD 291050Z 13003KT 9999 FEW025 SCT035 BKN040 M04/M11 Q1024 RMK WIND 1138FT 07003KT;",
"01320099999","2010-12-29T12:50:00","4","61.8333333","6.1166667","60.0","SANDANE ANDA, NO","FM-15","ENSD ","V020","060,1,N,0015,1","01050,1,C,N","011265,1,N,1","-0040,1","-0100,1","99999,9","02,5,+00750,1,99,9","04,5,+01050,1,99,9","07,5,+01200,1,99,9",,"07,99,1,99,9,99,9,99999,9,99,9,99,9",,"10230,1,99999,9",,,,"MET091METAR ENSD 291250Z 06003KT 9999 FEW025 SCT035 BKN040 M04/M10 Q1023 RMK WIND 1138FT 09004KT;",
"01320099999","2010-12-29T13:50:00","4","61.8333333","6.1166667","60.0","SANDANE ANDA, NO","FM-15","ENSD ","V020","080,1,N,0031,1","01050,1,C,N","011265,1,N,1","-0040,1","-0090,1","99999,9","02,5,+00750,1,99,9","04,5,+01050,1,99,9","07,5,+01200,1,99,9",,"07,99,1,99,9,99,9,99999,9,99,9,99,9",,"10220,1,99999,9",,,,"MET091METAR ENSD 291350Z 08006KT 9999 FEW025 SCT035 BKN040 M04/M09 Q1022 RMK WIND 1138FT 07007KT;",
"01320099999","2010-12-29T14:50:00","4","61.8333333","6.1166667","60.0","SANDANE ANDA, NO","FM-15","ENSD ","V020","999,9,V,0010,1","01050,1,C,N","011265,1,N,1","-0030,1","-0090,1","99999,9","02,5,+00750,1,99,9","04,5,+01050,1,99,9","07,5,+01200,1,99,9",,"07,99,1,99,9,99,9,99999,9,99,9,99,9",,"10230,1,99999,9",,,,"MET091METAR ENSD 291450Z VRB02KT 9999 FEW025 SCT035 BKN040 M03/M09 Q1023 RMK WIND 1138FT VRB02KT;",
"01320099999","2010-12-29T16:50:00","4","61.8333333","6.1166667","60.0","SANDANE ANDA, NO","FM-15","ENSD ","V020","999,9,V,0005,1","01050,1,C,N","011265,1,N,1","-0010,1","-0070,1","99999,9","02,5,+00750,1,99,9","04,5,+01050,1,99,9","07,5,+01200,1,99,9",,"07,99,1,99,9,99,9,99999,9,99,9,99,9",,"10230,1,99999,9",,,,"MET091METAR ENSD 291650Z VRB01KT 9999 FEW025 SCT035 BKN040 M01/M07 Q1023 RMK WIND 1138FT VRB04KT;",
"01320099999","2010-12-30T08:20:00","4","61.8333333","6.1166667","60.0","SANDANE ANDA, NO","FM-15","ENSD ","V020","999,9,V,0010,1","00240,1,C,N","011265,1,N,1","+0010,1","-0020,1","99999,9","04,5,+00120,1,99,9","07,5,+00240,1,99,9",,,"07,99,1,99,9,99,9,99999,9,99,9,99,9",,"10180,1,99999,9","80,1",,,"MET091METAR ENSD 300820Z VRB02KT 9999 -SHSNRA SCT004 BKN008 01/M02 Q1018 RMK WIND 1138FT 30003KT;",
"01320099999","2010-12-30T08:50:00","4","61.8333333","6.1166667","60.0","SANDANE ANDA, NO","FM-15","ENSD ","V020","999,9,V,0010,1","00240,1,C,N","011265,1,N,1","+0010,1","-0020,1","99999,9","02,5,+00120,1,99,9","04,5,+00240,1,99,9","07,5,+00750,1,99,9",,"07,99,1,99,9,99,9,99999,9,99,9,99,9",,"10180,1,99999,9",,,,"MET090METAR ENSD 300850Z VRB02KT 9999 FEW004 SCT008 BKN025 01/M02 Q1018 RMK WIND 1138FT 29003KT;",
"01320099999","2010-12-30T09:50:00","4","61.8333333","6.1166667","60.0","SANDANE ANDA, NO","FM-15","ENSD ","V020","130,1,N,0031,1","00840,1,C,N","011265,1,N,1","+0010,1","-0020,1","99999,9","04,5,+00120,1,99,9","07,5,+00840,1,99,9",,,"07,99,1,99,9,99,9,99999,9,99,9,99,9",,"10180,1,99999,9",,,,"MET083METAR ENSD 300950Z 13006KT 9999 SCT004 BKN028 01/M02 Q1018 RMK WIND 1138FT VRB02KT;",
"01320099999","2010-12-30T10:50:00","4","61.8333333","6.1166667","60.0","SANDANE ANDA, NO","FM-15","ENSD ","V020","999,9,V,0010,1","00840,1,C,N","011265,1,N,1","+0010,1","-0020,1","99999,9","04,5,+00180,1,99,9","07,5,+00840,1,99,9",,,"07,99,1,99,9,99,9,99999,9,99,9,99,9",,"10180,1,99999,9",,,,"MET083METAR ENSD 301050Z VRB02KT 9999 SCT006 BKN028 01/M02 Q1018 RMK WIND 1138FT 28004KT;",
"01320099999","2010-12-30T13:50:00","4","61.8333333","6.1166667","60.0","SANDANE ANDA, NO","FM-15","ENSD ","V020","999,9,V,0010,1","00240,1,C,N","011265,1,N,1","+0010,1","-0020,1","99999,9","02,5,+00090,1,99,9","04,5,+00240,1,99,9","07,5,+00750,1,99,9",,"07,99,1,99,9,99,9,99999,9,99,9,99,9",,"10169,1,99999,9","83,1",,,"MET098METAR ENSD 301350Z VRB02KT 9999 -SHRASN FEW003 SCT008 BKN025 01/M02 Q1017 RMK WIND 1138FT VRB02KT;",
"01320099999","2010-12-30T14:50:00","4","61.8333333","6.1166667","60.0","SANDANE ANDA, NO","FM-15","ENSD ","V020","200,1,N,0026,1","00270,1,C,N","011265,1,N,1","+0010,1","-0020,1","99999,9","02,5,+00120,1,99,9","04,5,+00270,1,99,9","07,5,+00900,1,99,9",,"07,99,1,99,9,99,9,99999,9,99,9,99,9",,"10169,1,99999,9","16,1",,,"MET110METAR ENSD 301450Z 20005KT 160V240 9999 VCSH FEW004 SCT009 BKN030 01/M02 Q1017 RERASN RMK WIND 1138FT 22003KT;",
"01320099999","2010-12-30T15:50:00","4","61.8333333","6.1166667","60.0","SANDANE ANDA, NO","FM-15","ENSD ","V020","999,9,V,0015,1","01050,1,C,N","011265,1,N,1","+0010,1","-0020,1","99999,9","04,5,+00750,1,99,9","07,5,+01050,1,99,9",,,"07,99,1,99,9,99,9,99999,9,99,9,99,9",,"10169,1,99999,9",,,,"MET083METAR ENSD 301550Z VRB03KT 9999 SCT025 BKN035 01/M02 Q1017 RMK WIND 1138FT 28004KT;",
"01320099999","2010-12-30T16:50:00","4","61.8333333","6.1166667","60.0","SANDANE ANDA, NO","FM-15","ENSD ","V020","999,9,V,0010,1","01050,1,C,N","011265,1,N,1","+0010,1","-0030,1","99999,9","04,5,+00900,1,99,9","07,5,+01050,1,99,9",,,"07,99,1,99,9,99,9,99999,9,99,9,99,9",,"10159,1,99999,9",,,,"MET083METAR ENSD 301650Z VRB02KT 9999 SCT030 BKN035 01/M03 Q1016 RMK WIND 1138FT 28007KT;",
"01320099999","2010-12-30T17:50:00","4","61.8333333","6.1166667","60.0","SANDANE ANDA, NO","FM-15","ENSD ","V020","290,1,N,0041,1","01050,1,C,N","011265,1,N,1","+0030,1","-0040,1","99999,9","04,5,+00900,1,99,9","07,5,+01050,1,99,9",,,"07,99,1,99,9,99,9,99999,9,99,9,99,9",,"10169,1,99999,9",,,,"MET091METAR ENSD 301750Z 29008KT 250V330 9999 SCT030 BKN035 03/M04 Q1017 RMK WIND 1138FT 30006KT;",
"01320099999","2010-12-30T18:50:00","4","61.8333333","6.1166667","60.0","SANDANE ANDA, NO","FM-15","ENSD ","V020","290,1,N,0051,1","01050,1,C,N","011265,1,N,1","+0020,1","-0040,1","99999,9","04,5,+00900,1,99,9","07,5,+01050,1,99,9",,,"07,99,1,99,9,99,9,99999,9,99,9,99,9",,"10169,1,99999,9",,,,"MET094METAR ENSD 301850Z 29010KT 260V330 9999 SCT030 BKN035 02/M04 Q1017 RMK WIND 1138FT 33005G15KT;",
"01320099999","2010-12-30T19:50:00","4","61.8333333","6.1166667","60.0","SANDANE ANDA, NO","FM-15","ENSD ","V020","320,1,N,0041,1","00600,1,9,N","008000,1,N,1","+0010,1","-0030,1","99999,9","09,1,+00600,1,99,9",,,,"09,99,1,99,9,99,9,00025,1,99,9,99,9",,"10169,1,99999,9",,,,"MET083METAR ENSD 301950Z 32008KT 280V360 8000 VV020 01/M03 Q1017 RMK WIND 1138FT 29011KT;",
"01320099999","2010-12-31T08:50:00","4","61.8333333","6.1166667","60.0","SANDANE ANDA, NO","FM-15","ENSD ","V020","070,1,N,0031,1","00300,1,9,N","002000,1,N,1","+0000,1","-0020,1","99999,9","09,1,+00300,1,99,9",,,,"09,99,1,99,9,99,9,00025,1,99,9,99,9",,"10091,1,99999,9","71,1",,,"MET079METAR ENSD 310850Z 07006KT 2000 -SN VV010 00/M02 Q1009 RMK WIND 1138FT 12004KT;",
"01320099999","2010-12-31T09:50:00","4","61.8333333","6.1166667","60.0","SANDANE ANDA, NO","FM-15","ENSD ","V020","070,1,N,0010,1","00300,1,9,N","002000,1,N,1","+0000,1","-0020,1","99999,9","09,1,+00300,1,99,9",,,,"09,99,1,99,9,99,9,00025,1,99,9,99,9",,"10081,1,99999,9","71,1",,,"MET079METAR ENSD 310950Z 07002KT 2000 -SN VV010 00/M02 Q1008 RMK WIND 1138FT VRB02KT;",
"01320099999","2010-12-31T10:50:00","4","61.8333333","6.1166667","60.0","SANDANE ANDA, NO","FM-15","ENSD ","V020","999,9,C,0000,1","00240,1,9,N","001500,1,N,1","+0000,1","-0020,1","99999,9","09,1,+00240,1,99,9",,,,"09,99,1,99,9,99,9,00025,1,99,9,99,9",,"10061,1,99999,9","71,1",,,"MET080METAR ENSD 311050Z 00000KT 1500 -SN VV008 M00/M02 Q1006 RMK WIND 1138FT VRB02KT;",
"01320099999","2010-12-31T11:50:00","4","61.8333333","6.1166667","60.0","SANDANE ANDA, NO","FM-15","ENSD ","V020","999,9,C,0000,1","22000,1,9,N","004000,1,N,1","+0000,1","-0020,1","99999,9","02,5,+00030,5,99,9",,,,"09,99,1,99,9,99,9,00025,1,99,9,99,9",,"10041,1,99999,9","71,1",,,"MET087METAR ENSD 311150Z 00000KT 4000 -SN FEW001 VV020 M00/M02 Q1004 RMK WIND 1138FT VRB02KT;",
