"STATION","DATE","SOURCE","LATITUDE","LONGITUDE","ELEVATION","NAME","REPORT_TYPE","CALL_SIGN","QUALITY_CONTROL","WND","CIG","VIS","TMP","DEW","SLP","AA1","AA2","AJ1","AY1","AY2","GA1","GF1","IA1","KA1","MA1","MD1","MW1","REM","EQD"
"01417099999","2010-01-01T06:00:00","4","59.4833333","5.75","65.0","NEDRE VATS, NO","FM-12","99999","V020","999,9,C,0000,1","99999,9,9,N","025000,1,N,1","-0075,1","-0098,1","10046,1","12,0000,9,1","24,0000,9,1","0052,9,1,999999,9,9","2,1,06,1","1,1,06,1",,"08,99,1,08,1,00,1,00800,1,07,1,99,9","24,9","999,N,-0136,1","99999,9,09963,1",,"03,1","SYN094AAXX  01061 01417 11575 80000 11075 21098 39963 40046 60002 70321 8807/ 333 21136 48052 70000;","Q01  00002PRCP24Q02  00002PRCP12"
"01417099999","2010-01-01T12:00:00","4","59.4833333","5.75","65.0","NEDRE VATS, NO","FM-12","99999","V020","100,1,N,0100,1","00750,1,9,N","020000,1,N,1","-0025,1","-0057,1","10062,1",,,,"8,1,06,1","2,1,06,1",,"08,99,1,08,1,03,1,00800,1,99,9,99,9",,,"99999,9,09981,1",,"02,1","SYN082AAXX  01121 01417 11570 81010 11025 21057 39981 40062 6//// 70282 883// 333 4////;",
"01417099999","2010-01-01T18:00:00","4","59.4833333","5.75","65.0","NEDRE VATS, NO","FM-12","99999","V020","070,1,N,0070,1","22000,1,9,N","025000,1,N,1","-0048,1","-0193,1","10095,1","12,0000,9,1",,,"1,1,06,1","0,1,06,1",,"01,99,1,00,1,00,1,99999,9,00,1,01,1",,"120,M,-0019,1","99999,9,10012,1",,"01,1","SYN088AAXX  01181 01417 11975 10707 11048 21193 30012 40095 69922 70110 80001 333 11019 4////;","Q01  00002PRCP12"
"01417099999","2010-01-02T12:00:00","4","59.4833333","5.75","65.0","NEDRE VATS, NO","FM-12","99999","V020","070,1,N,0010,1","22000,1,9,N","030000,1,N,1","-0099,1","-0161,1","10242,1",,,,"1,1,06,1","0,1,06,1","00,1,+99999,9,99,9","00,99,1,00,1,00,1,99999,9,00,1,00,1",,,"99999,9,10157,1",,"02,1","SYN076AAXX  02121 01417 11980 00701 11099 21161 30157 40242 6//// 70210 333 4////;",
"01417099999","2010-01-02T18:00:00","4","59.4833333","5.75","65.0","NEDRE VATS, NO","FM-12","99999","V020","280,1,N,0010,1","22000,1,9,N","030000,1,N,1","-0127,1","-0166,1","10264,1","12,0000,9,1",,,"1,1,06,1","0,1,06,1","00,1,+99999,9,99,9","00,99,1,00,1,00,1,99999,9,00,1,00,1",,"120,M,-0088,1","99999,9,10178,1",,"02,1","SYN082AAXX  02181 01417 11980 02801 11127 21166 30178 40264 60002 70210 333 11088 4////;","Q01  00002PRCP12"
"01417099999","2010-01-03T12:00:00","4","59.4833333","5.75","65.0","NEDRE VATS, NO","FM-12","99999","V020","040,1,N,0010,1","00750,1,9,N","020000,1,N,1","-0072,1","-0117,1","10205,1",,,,"2,1,06,1","1,1,06,1",,"08,99,1,08,1,02,1,00800,1,99,9,99,9",,,"99999,9,10121,1",,"03,1","SYN082AAXX  03121 01417 11570 80401 11072 21117 30121 40205 6//// 70321 882// 333 4////;",
"01417099999","2010-01-03T18:00:00","4","59.4833333","5.75","65.0","NEDRE VATS, NO","FM-12","99999","V020","220,1,N,0010,1","00750,1,9,N","020000,1,N,1","-0082,1","-0122,1","10182,1","12,0000,9,1",,,"2,1,06,1","1,1,06,1",,"08,99,1,08,1,02,1,00800,1,99,9,99,9",,"120,M,-0066,1","99999,9,10098,1",,"02,1","SYN088AAXX  03181 01417 11570 82201 11082 21122 30098 40182 60002 70221 882// 333 11066 4////;","Q01  00002PRCP12"
"01417099999","2010-01-04T06:00:00","4","59.4833333","5.75","65.0","NEDRE VATS, NO","FM-12","99999","V020","999,9,C,0000,1","00750,1,9,N","020000,1,N,1","-0054,1","-0077,1","10112,1","12,0000,9,1","24,0000,9,1","0048,9,1,999999,9,9","2,1,06,1","1,1,06,1",,"08,99,1,08,1,03,1,00800,1,99,9,99,9","28,9","999,N,-0095,1","99999,9,10029,1",,"02,1","SYN094AAXX  04061 01417 11570 80000 11054 21077 30029 40112 60002 70221 883// 333 21095 44048 70000;","Q01  00002PRCP24Q02  00002PRCP12"
"01417099999","2010-01-04T12:00:00","4","59.4833333","5.75","65.0","NEDRE VATS, NO","FM-12","99999","V020","100,1,N,0030,1","00420,1,9,N","010000,1,N,1","-0032,1","-0054,1","10078,1",,,,"7,1,06,1","2,1,06,1",,"08,99,1,08,1,03,1,00450,1,99,9,99,9",,,"99999,9,09996,1",,"71,1","SYN082AAXX  04121 01417 11460 81003 11032 21054 39996 40078 6//// 77172 883// 333 4////;",
"01417099999","2010-01-04T18:00:00","4","59.4833333","5.75","65.0","NEDRE VATS, NO","FM-12","99999","V020","050,1,N,0010,1","22000,1,9,N","025000,1,N,1","-0050,1","-0072,1","10056,1","12,0005,9,1",,,"7,1,06,1","2,1,06,1",,"01,99,1,01,1,02,1,00800,1,00,1,00,1",,"120,M,-0024,1","99999,9,09974,1",,"01,1","SYN088AAXX  04181 01417 11575 10501 11050 21072 39974 40056 69942 70172 81200 333 11024 4////;",
"01417099999","2010-01-05T06:00:00","4","59.4833333","5.75","65.0","NEDRE VATS, NO","FM-12","99999","V020","050,1,N,0010,1","22000,1,9,N","030000,1,N,1","-0105,1","-0130,1","10064,1","12,0000,9,1","24,0005,9,1","0048,9,1,999999,9,9","1,1,06,1","0,1,06,1","00,1,+99999,9,99,9","00,99,1,00,1,00,1,99999,9,00,1,00,1","28,9","999,N,-0122,1","99999,9,09980,1",,"01,1","SYN088AAXX  05061 01417 11980 00501 11105 21130 39980 40064 60002 70110 333 21122 44048 70004;","Q01  00002PRCP12"
"01417099999","2010-01-05T18:00:00","4","59.4833333","5.75","65.0","NEDRE VATS, NO","FM-12","99999","V020","140,1,N,0050,1","00750,1,9,N","025000,1,N,1","-0080,1","-0130,1","10093,1","12,0000,9,1",,,"2,1,06,1","1,1,06,1",,"07,99,1,07,1,02,1,00800,1,00,1,00,1",,"120,M,-0059,1","99999,9,10009,1",,"03,1","SYN088AAXX  05181 01417 11575 71405 11080 21130 30009 40093 60002 70321 87200 333 11059 4////;","Q01  00002PRCP12"
"01417099999","2010-01-06T06:00:00","4","59.4833333","5.75","65.0","NEDRE VATS, NO","FM-12","99999","V020","030,1,N,0010,1","22000,1,9,N","030000,1,N,1","-0122,1","-0210,1","10124,1","12,0000,9,1","24,0000,9,1","0047,9,1,999999,9,9","1,1,06,1","0,1,06,1","00,1,+99999,9,99,9","00,99,1,00,1,00,1,99999,9,00,1,00,1","28,9","999,N,-0136,1","99999,9,10039,1",,"01,1","SYN088AAXX  06061 01417 11980 00301 11122 21210 30039 40124 60002 70110 333 21136 44047 70000;","Q01  00002PRCP24Q02  00002PRCP12"
"01417099999","2010-01-06T12:00:00","4","59.4833333","5.75","65.0","NEDRE VATS, NO","FM-12","99999","V020","210,1,N,0030,1","22000,1,9,N","030000,1,N,1","-0121,1","-0209,1","10131,1",,,,"1,1,06,1","0,1,06,1","00,1,+99999,9,99,9","00,99,1,00,1,00,1,99999,9,00,1,00,1",,,"99999,9,10046,1",,"02,1","SYN076AAXX  06121 01417 11980 02103 11121 21209 30046 40131 6//// 70210 333 4////;",
"01417099999","2010-01-06T18:00:00","4","59.4833333","5.75","65.0","NEDRE VATS, NO","FM-12","99999","V020","999,9,C,0000,1","22000,1,9,N","030000,1,N,1","-0137,1","-0207,1","10136,1","12,0000,9,1",,,"1,1,06,1","0,1,06,1","00,1,+99999,9,99,9","00,99,1,00,1,00,1,99999,9,00,1,00,1",,"120,M,-0099,1","99999,9,10050,1",,"02,1","SYN082AAXX  06181 01417 11980 00000 11137 21207 30050 40136 60002 70210 333 11099 4////;","Q01  00002PRCP12"
"01417099999","2010-01-07T06:00:00","4","59.4833333","5.75","65.0","NEDRE VATS, NO","FM-12","99999","V020","040,1,N,0010,1","22000,1,9,N","030000,1,N,1","-0136,1","-0196,1","10154,1","12,0000,9,1","24,0000,9,1","0046,9,1,999999,9,9","1,1,06,1","0,1,06,1",,"01,99,1,01,1,02,1,00800,1,00,1,00,1","28,9","999,N,-0159,1","99999,9,10068,1",,"03,1","SYN094AAXX  07061 01417 11580 10401 11136 21196 30068 40154 60002 70310 81200 333 21159 44046 70000;","Q01  00002PRCP24Q02  00002PRCP12"
"01417099999","2010-01-07T12:00:00","4","59.4833333","5.75","65.0","NEDRE VATS, NO","FM-12","99999","V020","050,1,N,0010,1","22000,1,9,N","030000,1,N,1","-0109,1","-0169,1","10179,1",,,,"1,1,06,1","0,1,06,1",,"01,99,1,01,1,08,1,00800,1,00,1,00,1",,,"99999,9,10094,1",,"02,1","SYN082AAXX  07121 01417 11580 10501 11109 21169 30094 40179 6//// 70210 81800 333 4////;",
"01417099999","2010-01-07T18:00:00","4","59.4833333","5.75","65.0","NEDRE VATS, NO","FM-12","99999","V020","030,1,N,0010,1","22000,1,9,N","028000,1,N,1","-0125,1","-0182,1","10200,1","12,0000,9,1",,,"1,1,06,1","0,1,06,1","00,1,+99999,9,99,9","00,99,1,00,1,00,1,99999,9,00,1,00,1",,"120,M,-0093,1","99999,9,10114,1",,"01,1","SYN082AAXX  07181 01417 11978 00301 11125 21182 30114 40200 60002 70110 333 11093 4////;","Q01  00002PRCP12"
"01417099999","2010-01-08T06:00:00","4","59.4833333","5.75","65.0","NEDRE VATS, NO","FM-12","99999","V020","310,1,N,0030,1","22000,1,9,N","026000,1,N,1","-0156,1","-0213,1","10276,1","12,0000,9,1","24,0000,9,1","0045,9,1,999999,9,9","1,1,06,1","0,1,06,1","00,1,+99999,9,99,9","00,99,1,00,1,00,1,99999,9,00,1,00,1","28,9","999,N,-0166,1","99999,9,10189,1",,"01,1","SYN088AAXX  08061 01417 11976 03103 11156 21213 30189 40276 60002 70110 333 21166 44045 70000;","Q01  00002PRCP24Q02  00002PRCP12"
"01417099999","2010-01-08T12:00:00","4","59.4833333","5.75","65.0","NEDRE VATS, NO","FM-12","99999","V020","020,1,N,0010,1","22000,1,9,N","030000,1,N,1","+9999,9","+9999,9","10301,1",,,,"1,1,06,1","0,1,06,1","00,1,+99999,9,99,9","00,99,1,00,1,00,1,99999,9,00,1,00,1",,,"99999,9,10222,1",,"02,1","SYN076AAXX  08121 01417 11980 00201 1//// 2//// 30222 40301 6//// 70210 333 4////;",
"01417099999","2010-01-08T18:00:00","4","59.4833333","5.75","65.0","NEDRE VATS, NO","FM-12","99999","V020","280,1,N,0010,1","22000,1,9,N","028000,1,N,1","-0130,1","-0178,1","10338,1","12,0000,9,1",,,"1,1,06,1","0,1,06,1","00,1,+99999,9,99,9","00,99,1,00,1,00,1,99999,9,00,1,00,1",,"120,M,-0107,1","99999,9,10251,1",,"02,1","SYN082AAXX  08181 01417 11978 02801 11130 21178 30251 40338 60002 70210 333 11107 4////;","Q01  00002PRCP12"
"01417099999","2010-01-09T06:00:00","4","59.4833333","5.75","65.0","NEDRE VATS, NO","FM-12","99999","V020","020,1,N,0010,1","22000,1,9,N","030000,1,N,1","-0144,1","-0204,1","10385,1","12,0000,9,1","24,0000,9,1","0045,9,1,999999,9,9","1,1,06,1","0,1,06,1","00,1,+99999,9,99,9","00,99,1,00,1,00,1,99999,9,00,1,00,1","28,9","999,N,-0169,1","99999,9,10297,1",,"02,1","SYN088AAXX  09061 01417 11980 00201 11144 21204 30297 40385 60002 70210 333 21169 44045 70000;","Q01  00002PRCP24Q02  00002PRCP12"
"01417099999","2010-01-09T12:00:00","4","59.4833333","5.75","65.0","NEDRE VATS, NO","FM-12","99999","V020","040,1,N,0010,1","22000,1,9,N","030000,1,N,1","-0123,1","-0163,1","10399,1",,,,"1,1,06,1","0,1,06,1","00,1,+99999,9,99,9","00,99,1,00,1,00,1,99999,9,00,1,00,1",,,"99999,9,10312,1",,"02,1","SYN076AAXX  09121 01417 11980 00401 11123 21163 30312 40399 6//// 70210 333 4////;",
"01417099999","2010-01-09T18:00:00","4","59.4833333","5.75","65.0","NEDRE VATS, NO","FM-12","99999","V020","030,1,N,0010,1","22000,1,9,N","030000,1,N,1","-0108,1","-0188,1","10399,1","12,0000,9,1",,,"1,1,06,1","0,1,06,1","00,1,+99999,9,99,9","00,99,1,00,1,00,1,99999,9,00,1,00,1",,"120,M,-0088,1","99999,9,10312,1",,"02,1","SYN082AAXX  09181 01417 11980 00301 11108 21188 30312 40399 60002 70210 333 11088 4////;","Q01  00002PRCP12"
"01417099999","2010-01-10T06:00:00","4","59.4833333","5.75","65.0","NEDRE VATS, NO","FM-12","99999","V020","040,1,N,0010,1","22000,1,9,N","028000,1,N,1","-0102,1","-0166,1","10384,1","12,0000,9,1","24,0000,9,1","0044,9,1,999999,9,9","1,1,06,1","0,1,06,1","00,1,+99999,9,99,9","00,99,1,00,1,00,1,99999,9,00,1,00,1","28,9","999,N,-0126,1","99999,9,10297,1",,"02,1","SYN088AAXX  10061 01417 11978 00401 11102 21166 30297 40384 60002 70210 333 21126 44044 70000;","Q01  00002PRCP24Q02  00002PRCP12"
"01417099999","2010-01-10T12:00:00","4","59.4833333","5.75","65.0","NEDRE VATS, NO","FM-12","99999","V020","050,1,N,0010,1","22000,1,9,N","030000,1,N,1","-0079,1","-0152,1","10374,1",,,,"1,1,06,1","0,1,06,1","00,1,+99999,9,99,9","00,99,1,00,1,00,1,99999,9,00,1,00,1",,,"99999,9,10288,1",,"02,1","SYN076AAXX  10121 01417 11980 00501 11079 21152 30288 40374 6//// 70210 333 4////;",
"01417099999","2010-01-10T18:00:00","4","59.4833333","5.75","65.0","NEDRE VATS, NO","FM-12","99999","V020","030,1,N,0010,1","22000,1,9,N","029000,1,N,1","-0094,1","-0158,1","10358,1","12,0000,9,1",,,"1,1,06,1","0,1,06,1","00,1,+99999,9,99,9","00,99,1,00,1,00,1,99999,9,00,1,00,1",,"120,M,-0059,1","99999,9,10272,1",,"02,1","SYN082AAXX  10181 01417 11979 00301 11094 21158 30272 40358 60002 70210 333 11059 4////;","Q01  00002PRCP12"
"01417099999","2010-01-11T06:00:00","4","59.4833333","5.75","65.0","NEDRE VATS, NO","FM-12","99999","V020","050,1,N,0010,1","22000,1,9,N","029000,1,N,1","-0084,1","-0159,1","10328,1","12,0000,9,1","24,0000,9,1","0044,9,1,999999,9,9","1,1,06,1","0,1,06,1","00,1,+99999,9,99,9","00,99,1,00,1,00,1,99999,9,00,1,00,1","28,9","999,N,-0105,1","99999,9,10243,1",,"02,1","SYN088AAXX  11061 01417 11979 00501 11084 21159 30243 40328 60002 70210 333 21105 44044 70000;","Q01  00002PRCP24Q02  00002PRCP12"
"01417099999","2010-01-11T12:00:00","4","59.4833333","5.75","65.0","NEDRE VATS, NO","FM-12","99999","V020","040,1,N,0010,1","22000,1,9,N","030000,1,N,1","-0085,1","-0164,1","10317,1",,,,"1,1,06,1","0,1,06,1","00,1,+99999,9,99,9","00,99,1,00,1,00,1,99999,9,00,1,00,1",,,"99999,9,10231,1",,"02,1","SYN076AAXX  11121 01417 11980 00401 11085 21164 30231 40317 6//// 70210 333 4////;",
"01417099999","2010-01-11T18:00:00","4","59.4833333","5.75","65.0","NEDRE VATS, NO","FM-12","99999","V020","130,1,N,0010,1","22000,1,9,N","030000,1,N,1","-0082,1","-0155,1","10298,1","12,0000,9,1",,,"1,1,06,1","0,1,06,1","00,1,+99999,9,99,9","00,99,1,00,1,00,1,99999,9,00,1,00,1",,"120,M,-0038,1","99999,9,10213,1",,"02,1","SYN082AAXX  11181 01417 11980 01301 11082 21155 30213 40298 60002 70210 333 11038 4////;","Q01  00002PRCP12"
"01417099999","2010-01-12T06:00:00","4","59.4833333","5.75","65.0","NEDRE VATS, NO","FM-12","99999","V020","320,1,N,0010,1","22000,1,9,N","028000,1,N,1","-0065,1","-0109,1","10263,1","12,0000,9,1","24,0000,9,1","0044,9,1,999999,9,9","1,1,06,1","0,1,06,1","00,1,+99999,9,99,9","00,99,1,00,1,00,1,99999,9,00,1,00,1","28,9","999,N,-0095,1","99999,9,10179,1",,"02,1","SYN088AAXX  12061 01417 11978 03201 11065 21109 30179 40263 60002 70210 333 21095 44044 70000;","Q01  00002PRCP24Q02  00002PRCP12"
"01417099999","2010-01-12T18:00:00","4","59.4833333","5.75","65.0","NEDRE VATS, NO","FM-12","99999","V020","010,1,N,0030,1","22000,1,9,N","030000,1,N,1","-0022,1","-0072,1","10207,1","12,0000,9,1",,,"1,1,06,1","0,1,06,1","00,1,+99999,9,99,9","00,99,1,00,1,00,1,99999,9,00,1,00,1",,"120,M,-0011,1","99999,9,10125,1",,"02,1","SYN082AAXX  12181 01417 11980 00103 11022 21072 30125 40207 60002 70210 333 11011 4////;","Q01  00002PRCP12"
"01417099999","2010-01-13T06:00:00","4","59.4833333","5.75","65.0","NEDRE VATS, NO","FM-12","99999","V020","160,1,N,0070,1","22000,1,9,N","028000,1,N,1","+0049,1","-0089,1","10177,1","12,0000,9,1","24,0000,9,1","0043,9,1,999999,9,9","1,1,06,1","0,1,06,1","00,1,+99999,9,99,9","00,99,1,00,1,00,1,99999,9,00,1,00,1","28,9","999,N,-0050,1","99999,9,10097,1",,"02,1","SYN088AAXX  13061 01417 11978 01607 10049 21089 30097 40177 60002 70210 333 21050 44043 70000;","Q01  00002PRCP24Q02  00002PRCP12"
"01417099999","2010-01-13T12:00:00","4","59.4833333","5.75","65.0","NEDRE VATS, NO","FM-12","99999","V020","130,1,N,0070,1","22000,1,9,N","030000,1,N,1","+0042,1","-0102,1","10162,1",,,,"1,1,06,1","0,1,06,1","00,1,+99999,9,99,9","00,99,1,00,1,00,1,99999,9,00,1,00,1",,,"99999,9,10081,1",,"02,1","SYN076AAXX  13121 01417 11980 01307 10042 21102 30081 40162 6//// 70210 333 4////;",
"01417099999","2010-01-13T18:00:00","4","59.4833333","5.75","65.0","NEDRE VATS, NO","FM-12","99999","V020","140,1,N,0100,1","22000,1,9,N","030000,1,N,1","+0043,1","-0113,1","10148,1","12,0000,9,1",,,"1,1,06,1","0,1,06,1","00,1,+99999,9,99,9","00,99,1,00,1,00,1,99999,9,00,1,00,1",,"120,M,+0064,1","99999,9,10068,1",,"02,1","SYN082AAXX  13181 01417 11980 01410 10043 21113 30068 40148 60002 70210 333 10064 4////;","Q01  00002PRCP12"
"01417099999","2010-01-14T06:00:00","4","59.4833333","5.75","65.0","NEDRE VATS, NO","FM-12","99999","V020","120,1,N,0100,1","22000,1,9,N","030000,1,N,1","+0037,1","-0118,1","10131,1","12,0000,9,1","24,0000,9,1","0042,9,1,999999,9,9","1,1,06,1","0,1,06,1","00,1,+99999,9,99,9","00,99,1,00,1,00,1,99999,9,00,1,00,1","28,9","999,N,+0030,1","99999,9,10051,1",,"02,1","SYN088AAXX  14061 01417 11980 01210 10037 21118 30051 40131 60002 70210 333 20030 44042 70000;","Q01  00002PRCP24Q02  00002PRCP12"
"01417099999","2010-01-14T12:00:00","4","59.4833333","5.75","65.0","NEDRE VATS, NO","FM-12","99999","V020","070,1,N,0100,1","22000,1,9,N","028000,1,N,1","+0033,1","-0163,1","10141,1",,,,"1,1,06,1","0,1,06,1","00,1,+99999,9,99,9","00,99,1,00,1,00,1,99999,9,00,1,00,1",,,"99999,9,10060,1",,"02,1","SYN076AAXX  14121 01417 11978 00710 10033 21163 30060 40141 6//// 70210 333 4////;",
"01417099999","2010-01-14T18:00:00","4","59.4833333","5.75","65.0","NEDRE VATS, NO","FM-12","99999","V020","230,1,N,0070,1","22000,1,9,N","029000,1,N,1","-0002,1","-0106,1","10163,1","12,0000,9,1",,,"1,1,06,1","0,1,06,1","00,1,+99999,9,99,9","00,99,1,00,1,00,1,99999,9,00,1,00,1",,"120,M,+0047,1","99999,9,10082,1",,"02,1","SYN082AAXX  14181 01417 11979 02307 11002 21106 30082 40163 60002 70210 333 10047 4////;","Q01  00002PRCP12"
"01417099999","2010-01-15T06:00:00","4","59.4833333","5.75","65.0","NEDRE VATS, NO","FM-12","99999","V020","130,1,N,0050,1","22000,1,9,N","028000,1,N,1","-0032,1","-0114,1","10215,1","12,0000,9,1","24,0000,9,1","0041,9,1,999999,9,9","1,1,06,1","0,1,06,1",,"01,99,1,00,1,00,1,99999,9,00,1,08,1","28,9","999,N,-0070,1","99999,9,10132,1",,"03,1","SYN094AAXX  15061 01417 11978 11305 11032 21114 30132 40215 60002 70310 80008 333 21070 44041 70000;","Q01  00002PRCP24Q02  00002PRCP12"
"01417099999","2010-01-15T12:00:00","4","59.4833333","5.75","65.0","NEDRE VATS, NO","FM-12","99999","V020","140,1,N,0050,1","00750,1,9,N","025000,1,N,1","+0005,1","-0135,1","10230,1",,,,"2,1,06,1","1,1,06,1",,"07,99,1,07,1,05,1,00800,1,00,1,00,1",,,"99999,9,10148,1",,"03,1","SYN082AAXX  15121 01417 11575 71405 10005 21135 30148 40230 6//// 70321 87500 333 4////;",
"01417099999","2010-01-15T18:00:00","4","59.4833333","5.75","65.0","NEDRE VATS, NO","FM-12","99999","V020","350,1,N,0050,1","22000,1,9,N","025000,1,N,1","-0002,1","-0098,1","10220,1","12,0000,9,1",,,"1,1,06,1","0,1,06,1",,"01,99,1,01,1,02,1,00800,1,00,1,00,1",,"120,M,+0015,1","99999,9,10137,1",,"01,1","SYN088AAXX  15181 01417 11575 13505 11002 21098 30137 40220 60002 70110 81200 333 10015 4////;","Q01  00002PRCP12"
"01417099999","2010-01-16T06:00:00","4","59.4833333","5.75","65.0","NEDRE VATS, NO","FM-12","99999","V020","140,1,N,0070,1","22000,1,9,N","028000,1,N,1","+0021,1","-0080,1","10190,1","12,0000,9,1","24,0000,9,1","0040,9,1,999999,9,9","1,1,06,1","0,1,06,1",,"01,99,1,00,1,00,1,99999,9,00,1,01,1","28,9","999,N,+0000,1","99999,9,10109,1",,"03,1","SYN094AAXX  16061 01417 11978 11407 10021 21080 30109 40190 60002 70310 80001 333 20000 44040 70000;","Q01  00002PRCP24Q02  00002PRCP12"
"01417099999","2010-01-16T12:00:00","4","59.4833333","5.75","65.0","NEDRE VATS, NO","FM-12","99999","V020","110,1,N,0100,1","22000,1,9,N","028000,1,N,1","+0025,1","-0121,1","10183,1",,,,"1,1,06,1","0,1,06,1",,"03,99,1,00,1,00,1,99999,9,00,1,08,1",,,"99999,9,10102,1",,"02,1","SYN082AAXX  16121 01417 11978 31110 10025 21121 30102 40183 6//// 70210 80008 333 4////;",
"01417099999","2010-01-16T18:00:00","4","59.4833333","5.75","65.0","NEDRE VATS, NO","FM-12","99999","V020","120,1,N,0070,1","22000,1,9,N","029000,1,N,1","+0018,1","-0123,1","10140,1","12,0000,9,1",,,"1,1,06,1","0,1,06,1",,"03,99,1,00,1,00,1,99999,9,00,1,08,1",,"120,M,+0031,1","99999,9,10059,1",,"02,1","SYN088AAXX  16181 01417 11979 31207 10018 21123 30059 40140 60002 70210 80008 333 10031 4////;","Q01  00002PRCP12"
"01417099999","2010-01-17T06:00:00","4","59.4833333","5.75","65.0","NEDRE VATS, NO","FM-12","99999","V020","140,1,N,0120,1","00750,1,9,N","020000,1,N,1","+0011,1","-0133,1","10110,1","12,0000,9,1","24,0003,9,1","0038,9,1,999999,9,9","8,1,06,1","2,1,06,1",,"08,99,1,08,1,03,1,00800,1,99,9,99,9","28,9","999,N,+0010,1","99999,9,10029,1",,"03,1","SYN094AAXX  17061 01417 11570 81412 10011 21133 30029 40110 69922 70382 883// 333 20010 44038 70002;","Q01  00002PRCP12"
"01417099999","2010-01-17T12:00:00","4","59.4833333","5.75","65.0","NEDRE VATS, NO","FM-12","99999","V020","070,1,N,0100,1","00750,1,9,N","020000,1,N,1","+0010,1","-0138,1","10141,1",,,,"2,1,06,1","1,1,06,1",,"08,99,1,08,1,00,1,00800,1,02,1,99,9",,,"99999,9,10060,1",,"02,1","SYN082AAXX  17121 01417 11570 80710 10010 21138 30060 40141 6//// 70221 8802/ 333 4////;",
"01417099999","2010-01-17T18:00:00","4","59.4833333","5.75","65.0","NEDRE VATS, NO","FM-12","99999","V020","130,1,N,0070,1","00750,1,9,N","022000,1,N,1","+0013,1","-0128,1","10179,1","12,0000,9,1",,,"2,1,06,1","1,1,06,1",,"08,99,1,08,1,00,1,00800,1,02,1,99,9",,"120,M,+0023,1","99999,9,10098,1",,"02,1","SYN088AAXX  17181 01417 11572 81307 10013 21128 30098 40179 60002 70221 8802/ 333 10023 4////;","Q01  00002PRCP12"
"01417099999","2010-01-18T06:00:00","4","59.4833333","5.75","65.0","NEDRE VATS, NO","FM-12","99999","V020","040,1,N,0070,1","01200,1,9,N","020000,1,N,1","+0000,1","-0119,1","10100,1","12,0000,9,1","24,0000,9,1","0037,9,1,999999,9,9","2,1,06,1","1,1,06,1",,"08,99,1,08,1,08,1,00800,1,99,9,99,9","28,9","999,N,+0000,1","99999,9,10019,1",,"02,1","SYN094AAXX  18061 01417 11570 80407 10000 21119 30019 40100 60002 70221 888// 333 20000 44037 70000;","Q01  00002PRCP24Q02  00002PRCP12"
"01417099999","2010-01-18T12:00:00","4","59.4833333","5.75","65.0","NEDRE VATS, NO","FM-12","99999","V020","110,1,N,0070,1","01200,1,9,N","020000,1,N,1","+0002,1","-0137,1","10195,1",,,,"2,1,06,1","1,1,06,1",,"08,99,1,99,9,08,1,00800,1,00,1,00,1",,,"99999,9,10114,1",,"02,1","SYN082AAXX  18121 01417 11570 81107 10002 21137 30114 40195 6//// 70221 87800 333 4////;","Q01+000072SCOTLC"
"01417099999","2010-01-18T18:00:00","4","59.4833333","5.75","65.0","NEDRE VATS, NO","FM-12","99999","V020","100,1,N,0100,1","01200,1,9,N","022000,1,N,1","+0001,1","-0131,1","10219,1","12,0000,9,1",,,"2,1,06,1","1,1,06,1",,"08,99,1,08,1,08,1,00800,1,99,9,99,9",,"120,M,+0018,1","99999,9,10137,1",,"02,1","SYN088AAXX  18181 01417 11572 81010 10001 21131 30137 40219 60002 70221 888// 333 10018 4////;","Q01  00002PRCP12"
"01417099999","2010-01-19T06:00:00","4","59.4833333","5.75","65.0","NEDRE VATS, NO","FM-12","99999","V020","080,1,N,0010,1","01200,1,9,N","020000,1,N,1","-0007,1","-0067,1","10275,1","12,0000,9,1","24,0000,9,1","0037,9,1,999999,9,9","2,1,06,1","1,1,06,1",,"08,99,1,08,1,08,1,00800,1,99,9,99,9","28,9","999,N,-0009,1","99999,9,10192,1",,"02,1","SYN094AAXX  19061 01417 11570 80801 11007 21067 30192 40275 60002 70221 888// 333 21009 44037 70000;","Q01  00002PRCP24Q02  00002PRCP12"
"01417099999","2010-01-19T12:00:00","4","59.4833333","5.75","65.0","NEDRE VATS, NO","FM-12","99999","V020","250,1,N,0030,1","00750,1,9,N","020000,1,N,1","+0003,1","-0036,1","10285,1",,,,"8,1,06,1","2,1,06,1",,"07,99,1,07,1,02,1,00800,1,00,1,00,1",,,"99999,9,10202,1",,"01,1","SYN082AAXX  19121 01417 11570 72503 10003 21036 30202 40285 6//// 70182 87200 333 4////;",
"01417099999","2010-01-19T18:00:00","4","59.4833333","5.75","65.0","NEDRE VATS, NO","FM-12","99999","V020","260,1,N,0010,1","22000,1,9,N","028000,1,N,1","-0019,1","-0043,1","10291,1","12,0000,9,1",,,"1,1,06,1","0,1,06,1",,"03,99,1,03,1,02,1,00800,1,00,1,00,1",,"120,M,+0014,1","99999,9,10208,1",,"01,1","SYN088AAXX  19181 01417 11578 32601 11019 21043 30208 40291 69902 70110 83200 333 10014 4////;","Q01  00002PRCP12"
"01417099999","2010-01-20T06:00:00","4","59.4833333","5.75","65.0","NEDRE VATS, NO","FM-12","99999","V020","100,1,N,0050,1","22000,1,9,N","025000,1,N,1","-0064,1","-0087,1","10282,1","12,0000,9,1","24,0000,9,1","0036,9,1,999999,9,9","1,1,06,1","0,1,06,1","00,1,+99999,9,99,9","00,99,1,00,1,00,1,99999,9,00,1,00,1","28,9","999,N,-0084,1","99999,9,10198,1",,"01,1","SYN088AAXX  20061 01417 11975 01005 11064 21087 30198 40282 60002 70110 333 21084 44036 70000;","Q01  00002PRCP24Q02  00002PRCP12"
"01417099999","2010-01-20T12:00:00","4","59.4833333","5.75","65.0","NEDRE VATS, NO","FM-12","99999","V020","140,1,N,0050,1","00750,1,9,N","025000,1,N,1","+0004,1","-0155,1","10266,1",,,,"2,1,06,1","1,1,06,1",,"06,99,1,06,1,02,1,00800,1,00,1,00,1",,,"99999,9,10184,1",,"03,1","SYN082AAXX  20121 01417 11575 61405 10004 21155 30184 40266 6//// 70321 86200 333 4////;",
"01417099999","2010-01-20T18:00:00","4","59.4833333","5.75","65.0","NEDRE VATS, NO","FM-12","99999","V020","080,1,N,0070,1","00750,1,9,N","020000,1,N,1","-0001,1","-0133,1","10269,1","12,0000,9,1",,,"2,1,06,1","1,1,06,1",,"07,99,1,07,1,02,1,00800,1,00,1,00,1",,"120,M,+0011,1","99999,9,10186,1",,"03,1","SYN088AAXX  20181 01417 11570 70807 11001 21133 30186 40269 60002 70321 87200 333 10011 4////;","Q01  00002PRCP12"
"01417099999","2010-01-21T06:00:00","4","59.4833333","5.75","65.0","NEDRE VATS, NO","FM-12","99999","V020","140,1,N,0050,1","00750,1,9,N","025000,1,N,1","-0011,1","-0142,1","10291,1","12,0000,9,1","24,0000,9,1","0035,9,1,999999,9,9","2,1,06,1","1,1,06,1",,"06,99,1,06,1,02,1,00800,1,00,1,00,1","28,9","999,N,-0014,1","99999,9,10208,1",,"01,1","SYN094AAXX  21061 01417 11575 61405 11011 21142 30208 40291 60002 70121 86200 333 21014 44035 70000;","Q01  00002PRCP24Q02  00002PRCP12"
"01417099999","2010-01-21T12:00:00","4","59.4833333","5.75","65.0","NEDRE VATS, NO","FM-12","99999","V020","100,1,N,0070,1","01200,1,9,N","025000,1,N,1","+0008,1","-0143,1","10290,1",,,,"2,1,06,1","1,1,06,1",,"08,99,1,08,1,08,1,00800,1,99,9,99,9",,,"99999,9,10208,1",,"03,1","SYN082AAXX  21121 01417 11575 81007 10008 21143 30208 40290 6//// 70321 888// 333 4////;",
"01417099999","2010-01-21T18:00:00","4","59.4833333","5.75","65.0","NEDRE VATS, NO","FM-12","99999","V020","090,1,N,0050,1","01200,1,9,N","025000,1,N,1","+0016,1","-0132,1","10284,1","12,0000,9,1",,,"2,1,06,1","1,1,06,1",,"08,99,1,08,1,08,1,00800,1,99,9,99,9",,"120,M,+0019,1","99999,9,10202,1",,"02,1","SYN088AAXX  21181 01417 11575 80905 10016 21132 30202 40284 60002 70221 888// 333 10019 4////;","Q01  00002PRCP12"
"01417099999","2010-01-22T06:00:00","4","59.4833333","5.75","65.0","NEDRE VATS, NO","FM-12","99999","V020","130,1,N,0100,1","22000,1,9,N","020000,1,N,1","-0001,1","-0151,1","10277,1","12,0000,9,1","24,0000,9,1","0034,9,1,999999,9,9","1,1,06,1","0,1,06,1","00,1,+99999,9,99,9","00,99,1,00,1,00,1,99999,9,00,1,00,1","28,9","999,N,-0001,1","99999,9,10194,1",,"01,1","SYN088AAXX  22061 01417 11970 01310 11001 21151 30194 40277 60002 70110 333 21001 44034 70000;","Q01  00002PRCP24Q02  00002PRCP12"
"01417099999","2010-01-22T12:00:00","4","59.4833333","5.75","65.0","NEDRE VATS, NO","FM-12","99999","V020","140,1,N,0100,1","99999,9,9,N","020000,1,N,1","-0005,1","-0147,1","10282,1",,,,"2,1,06,1","1,1,06,1",,"07,99,1,03,1,00,1,00800,1,07,1,06,1",,,"99999,9,10199,1",,"03,1","SYN082AAXX  22121 01417 11570 71410 11005 21147 30199 40282 6//// 70321 83076 333 4////;",
"01417099999","2010-01-22T18:00:00","4","59.4833333","5.75","65.0","NEDRE VATS, NO","FM-12","99999","V020","150,1,N,0100,1","99999,9,9,N","020000,1,N,1","-0001,1","-0143,1","10295,1","12,0000,9,1",,,"2,1,06,1","1,1,06,1",,"08,99,1,01,1,00,1,00800,1,07,1,07,1",,"120,M,+0013,1","99999,9,10212,1",,"03,1","SYN088AAXX  22181 01417 11570 81510 11001 21143 30212 40295 60002 70321 81077 333 10013 4////;","Q01  00002PRCP12"
"01417099999","2010-01-23T06:00:00","4","59.4833333","5.75","65.0","NEDRE VATS, NO","FM-12","99999","V020","100,1,N,0050,1","01200,1,9,N","020000,1,N,1","+0003,1","-0140,1","10305,1","12,0000,9,1","24,0000,9,1","0033,9,1,999999,9,9","2,1,06,1","1,1,06,1",,"08,99,1,08,1,08,1,00800,1,99,9,99,9","28,9","999,N,-0004,1","99999,9,10222,1",,"02,1","SYN094AAXX  23061 01417 11570 81005 10003 21140 30222 40305 60002 70221 888// 333 21004 44033 70000;","Q01  00002PRCP24Q02  00002PRCP12"
"01417099999","2010-01-23T12:00:00","4","59.4833333","5.75","65.0","NEDRE VATS, NO","FM-12","99999","V020","080,1,N,0050,1","01200,1,9,N","022000,1,N,1","+0007,1","-0137,1","10314,1",,,,"2,1,06,1","1,1,06,1",,"08,99,1,08,1,08,1,00800,1,99,9,99,9",,,"99999,9,10231,1",,"02,1","SYN082AAXX  23121 01417 11572 80805 10007 21137 30231 40314 6//// 70221 888// 333 4////;",
"01417099999","2010-01-23T18:00:00","4","59.4833333","5.75","65.0","NEDRE VATS, NO","FM-12","99999","V020","050,1,N,0030,1","01200,1,9,N","020000,1,N,1","+0002,1","-0130,1","10305,1","12,0000,9,1",,,"2,1,06,1","1,1,06,1",,"08,99,1,08,1,08,1,00800,1,99,9,99,9",,"120,M,+0013,1","99999,9,10222,1",,"02,1","SYN088AAXX  23181 01417 11570 80503 10002 21130 30222 40305 60002 70221 888// 333 10013 4////;","Q01  00002PRCP12"
"01417099999","2010-01-24T06:00:00","4","59.4833333","5.75","65.0","NEDRE VATS, NO","FM-12","99999","V020","050,1,N,0030,1","00750,1,9,N","020000,1,N,1","+0002,1","-0130,1","10335,1","12,0000,9,1","24,0000,9,1","0033,9,1,999999,9,9","2,1,06,1","1,1,06,1",,"08,99,1,99,9,02,1,00800,1,00,1,00,1","28,9","999,N,-0016,1","99999,9,10252,1",,"01,1","SYN094AAXX  24061 01417 11570 80503 10002 21130 30252 40335 60002 70121 86200 333 21016 44033 70000;","Q01+000062SCOTLCQ02  00002PRCP24Q03  00002PRCP12"
"01417099999","2010-01-24T12:00:00","4","59.4833333","5.75","65.0","NEDRE VATS, NO","FM-12","99999","V020","020,1,N,0010,1","01200,1,9,N","025000,1,N,1","-0009,1","-0092,1","10340,1",,,,"2,1,06,1","1,1,06,1",,"07,99,1,07,1,08,1,00800,1,00,1,00,1",,,"99999,9,10257,1",,"03,1","SYN082AAXX  24121 01417 11575 70201 11009 21092 30257 40340 6//// 70321 87800 333 4////;",
"01417099999","2010-01-24T18:00:00","4","59.4833333","5.75","65.0","NEDRE VATS, NO","FM-12","99999","V020","170,1,N,0010,1","22000,1,9,N","025000,1,N,1","-0038,1","-0090,1","10347,1","12,0000,9,1",,,"1,1,06,1","0,1,06,1","00,1,+99999,9,99,9","00,99,1,00,1,00,1,99999,9,00,1,00,1",,"120,M,+0012,1","99999,9,10263,1",,"01,1","SYN082AAXX  24181 01417 11975 01701 11038 21090 30263 40347 60002 70110 333 10012 4////;","Q01  00002PRCP12"
"01417099999","2010-01-25T06:00:00","4","59.4833333","5.75","65.0","NEDRE VATS, NO","FM-12","99999","V020","050,1,N,0010,1","01200,1,9,N","025000,1,N,1","-0041,1","-0067,1","10381,1","12,0000,9,1","24,0000,9,1","0032,9,1,999999,9,9","2,1,06,1","1,1,06,1",,"08,99,1,08,1,08,1,00800,1,99,9,99,9","28,9","999,N,-0070,1","99999,9,10297,1",,"03,1","SYN094AAXX  25061 01417 11575 80501 11041 21067 30297 40381 60002 70321 888// 333 21070 44032 70000;","Q01  00002PRCP24Q02  00002PRCP12"
"01417099999","2010-01-25T12:00:00","4","59.4833333","5.75","65.0","NEDRE VATS, NO","FM-12","99999","V020","060,1,N,0010,1","01200,1,9,N","020000,1,N,1","-0021,1","-0066,1","10400,1",,,,"2,1,06,1","1,1,06,1",,"08,99,1,08,1,08,1,00800,1,99,9,99,9",,,"99999,9,10316,1",,"02,1","SYN082AAXX  25121 01417 11570 80601 11021 21066 30316 40400 6//// 70221 888// 333 4////;",
"01417099999","2010-01-25T18:00:00","4","59.4833333","5.75","65.0","NEDRE VATS, NO","FM-12","99999","V020","030,1,N,0010,1","22000,1,9,N","025000,1,N,1","-0045,1","-0070,1","10410,1","12,0000,9,1",,,,,,"01,99,1,01,1,02,1,00150,1,00,1,00,1",,"120,M,-0016,1","99999,9,10325,1",,,"SYN082AAXX  25181 01417 12275 10301 11045 21070 30325 40410 60002 81200 333 11016 4////;","Q01  00002PRCP12"
"01417099999","2010-01-26T06:00:00","4","59.4833333","5.75","65.0","NEDRE VATS, NO","FM-12","99999","V020","080,1,N,0010,1","22000,1,9,N","025000,1,N,1","-0058,1","-0087,1","10424,1","12,0000,9,1","24,0000,9,1","0031,9,1,999999,9,9","1,1,06,1","0,1,06,1","00,1,+99999,9,99,9","00,99,1,00,1,00,1,99999,9,00,1,00,1","28,9","999,N,-0076,1","99999,9,10339,1",,"01,1","SYN088AAXX  26061 01417 11975 00801 11058 21087 30339 40424 60002 70110 333 21076 44031 70000;","Q01  00002PRCP24Q02  00002PRCP12"
"01417099999","2010-01-26T12:00:00","4","59.4833333","5.75","65.0","NEDRE VATS, NO","FM-12","99999","V020","010,1,N,0030,1","00750,1,9,N","020000,1,N,1","-0020,1","-0084,1","10404,1",,,,"2,1,06,1","1,1,06,1",,"08,99,1,08,1,03,1,00800,1,99,9,99,9",,,"99999,9,10320,1",,"03,1","SYN082AAXX  26121 01417 11570 80103 11020 21084 30320 40404 6//// 70321 883// 333 4////;",
"01417099999","2010-01-26T18:00:00","4","59.4833333","5.75","65.0","NEDRE VATS, NO","FM-12","99999","V020","140,1,N,0010,1","00750,1,9,N","015000,1,N,1","-0003,1","-0056,1","10381,1","12,9999,9,9",,,"8,1,06,1","2,1,06,1",,"08,99,1,08,1,03,1,00800,1,99,9,99,9",,"120,M,+0006,1","99999,9,10298,1",,"85,1","SYN088AAXX  26181 01417 11565 81401 11003 21056 30298 40381 69902 78582 883// 333 10006 4////;","Q01  00002PRCP12Q02  00002PRCP12"
"01417099999","2010-01-27T06:00:00","4","59.4833333","5.75","65.0","NEDRE VATS, NO","FM-12","99999","V020","100,1,N,0050,1","00420,1,9,N","015000,1,N,1","+0007,1","-0015,1","10152,1","12,0051,9,1","24,0053,9,1","0033,9,1,999999,9,9","8,1,06,1","2,1,06,1",,"08,99,1,08,1,03,1,00450,1,99,9,99,9","28,9","999,N,-0006,1","99999,9,10071,1",,"83,1","SYN094AAXX  27061 01417 11465 81005 10007 21015 30071 40152 60052 78382 883// 333 21006 44033 70054;",
"01417099999","2010-01-27T12:00:00","4","59.4833333","5.75","65.0","NEDRE VATS, NO","FM-12","99999","V020","290,1,N,0050,1","00750,1,9,N","020000,1,N,1","+0039,1","-0033,1","99999,9",,,,"8,1,06,1","2,1,06,1",,"08,99,1,08,1,03,1,00800,1,99,9,99,9",,,,,"02,1","SYN082AAXX  27121 01417 11570 82905 10039 21033 39947 40027 6//// 70282 883// 333 4////;","Q01+099473APOSP "
"01417099999","2010-01-27T18:00:00","4","59.4833333","5.75","65.0","NEDRE VATS, NO","FM-12","99999","V020","320,1,N,0050,1","22000,1,9,N","025000,1,N,1","+0022,1","-0039,1","10019,1","12,0150,9,1",,,"2,1,06,1","1,1,06,1",,"03,99,1,03,1,02,1,00800,1,00,1,00,1",,"120,M,+0058,1","99999,9,09939,1",,"01,1","SYN088AAXX  27181 01417 11575 33205 10022 21039 39939 40019 60152 70121 83200 333 10058 4////;",
"01417099999","2010-01-28T06:00:00","4","59.4833333","5.75","65.0","NEDRE VATS, NO","FM-12","99999","V020","020,1,N,0030,1","00750,1,9,N","020000,1,N,1","+0005,1","-0072,1","09986,1","12,0000,9,1","24,0150,9,1","0030,9,1,999999,9,9","2,1,06,1","1,1,06,1",,"05,99,1,05,1,02,1,00800,1,00,1,00,1","28,9","999,N,+0000,1","99999,9,09906,1",,"03,1","SYN094AAXX  28061 01417 11570 50203 10005 21072 39906 49986 60002 70321 85200 333 20000 44030 70151;","Q01  00002PRCP12"
"01417099999","2010-01-28T12:00:00","4","59.4833333","5.75","65.0","NEDRE VATS, NO","FM-12","99999","V020","050,1,N,0050,1","22000,1,9,N","020000,1,N,1","+0013,1","-0074,1","09949,1",,,,"8,1,06,1","2,1,06,1",,"03,99,1,03,1,02,1,00800,1,00,1,00,1",,,"99999,9,09870,1",,"01,1","SYN082AAXX  28121 01417 11570 30505 10013 21074 39870 49949 6//// 70182 83200 333 4////;",
"01417099999","2010-01-28T18:00:00","4","59.4833333","5.75","65.0","NEDRE VATS, NO","FM-12","99999","V020","999,9,C,0000,1","00750,1,9,N","015000,1,N,1","-0001,1","-0066,1","09934,1","12,0000,9,1",,,"2,1,06,1","1,1,06,1",,"06,99,1,06,1,03,1,00800,1,00,1,00,1",,"120,M,+0024,1","99999,9,09854,1",,"03,1","SYN088AAXX  28181 01417 11565 60000 11001 21066 39854 49934 69922 70321 86300 333 10024 4////;","Q01  00002PRCP12"
"01417099999","2010-01-29T06:00:00","4","59.4833333","5.75","65.0","NEDRE VATS, NO","FM-12","99999","V020","999,9,C,0000,1","22000,1,9,N","025000,1,N,1","-0069,1","-0088,1","09962,1","12,0000,9,1","24,0003,9,1","0030,9,1,999999,9,9","8,1,06,1","2,1,06,1","00,1,+99999,9,99,9","00,99,1,00,1,00,1,99999,9,00,1,00,1","28,9","999,N,-0075,1","99999,9,09880,1",,"01,1","SYN088AAXX  29061 01417 11975 00000 11069 21088 39880 49962 69912 70182 333 21075 44030 70003;","Q01  00002PRCP12"
"01417099999","2010-01-29T12:00:00","4","59.4833333","5.75","65.0","NEDRE VATS, NO","FM-12","99999","V020","100,1,N,0070,1","22000,1,9,N","030000,1,N,1","-0017,1","-0134,1","99999,9",,,,"1,1,06,1","0,1,06,1","00,1,+99999,9,99,9","00,99,1,00,1,00,1,99999,9,00,1,00,1",,,,,"02,1","SYN076AAXX  29121 01417 11980 01007 11017 21134 39788 49867 6//// 70210 333 4////;","Q01+097883APOSP "
"01417099999","2010-01-29T18:00:00","4","59.4833333","5.75","65.0","NEDRE VATS, NO","FM-12","99999","V020","340,1,N,0010,1","22000,1,9,N","030000,1,N,1","-0062,1","-0113,1","09887,1","12,0000,9,1",,,"1,1,06,1","0,1,06,1",,"01,99,1,00,1,00,1,99999,9,00,1,01,1",,"120,M,-0011,1","99999,9,09806,1",,"02,1","SYN088AAXX  29181 01417 11980 13401 11062 21113 39806 49887 60002 70210 80001 333 11011 4////;","Q01  00002PRCP12"
"01417099999","2010-01-30T06:00:00","4","59.4833333","5.75","65.0","NEDRE VATS, NO","FM-12","99999","V020","090,1,N,0030,1","00420,1,9,N","015000,1,N,1","-0033,1","-0059,1","09880,1","12,0020,9,1","24,0020,9,1","0033,9,1,999999,9,9","7,1,06,1","2,1,06,1",,"08,99,1,08,1,03,1,00450,1,99,9,99,9","28,9","999,N,-0094,1","99999,9,09799,1",,"71,1","SYN094AAXX  30061 01417 11465 80903 11033 21059 39799 49880 60022 77172 883// 333 21094 44033 70021;",
"01417099999","2010-01-30T12:00:00","4","59.4833333","5.75","65.0","NEDRE VATS, NO","FM-12","99999","V020","140,1,N,0010,1","00750,1,9,N","020000,1,N,1","-0032,1","-0058,1","09889,1",,,,"7,1,06,1","2,1,06,1",,"08,99,1,08,1,03,1,00800,1,99,9,99,9",,,"99999,9,09808,1",,"02,1","SYN082AAXX  30121 01417 11570 81401 11032 21058 39808 49889 6//// 70272 883// 333 4////;",
"01417099999","2010-01-30T18:00:00","4","59.4833333","5.75","65.0","NEDRE VATS, NO","FM-12","99999","V020","310,1,N,0050,1","00750,1,9,N","015000,1,N,1","-0025,1","-0060,1","09886,1","12,0020,9,1",,,"2,1,06,1","1,1,06,1",,"08,99,1,08,1,03,1,00800,1,99,9,99,9",,"120,M,-0022,1","99999,9,09806,1",,"02,1","SYN088AAXX  30181 01417 11565 83105 11025 21060 39806 49886 60022 70221 883// 333 11022 4////;",
"01417099999","2010-01-31T06:00:00","4","59.4833333","5.75","65.0","NEDRE VATS, NO","FM-12","99999","V020","130,1,N,0070,1","00420,1,9,N","015000,1,N,1","-0014,1","-0051,1","09875,1","12,0109,9,1","24,0130,9,1","0047,9,1,999999,9,9","7,1,06,1","2,1,06,1",,"08,99,1,08,1,03,1,00450,1,99,9,99,9","28,9","999,N,-0030,1","99999,9,09795,1",,"02,1","SYN094AAXX  31061 01417 11465 81307 11014 21051 39795 49875 60112 70272 883// 333 21030 44047 70130;",
"01417099999","2010-01-31T12:00:00","4","59.4833333","5.75","65.0","NEDRE VATS, NO","FM-12","99999","V020","100,1,N,0120,1","00420,1,9,N","010000,1,N,1","-0047,1","-0100,1","09923,1",,,,"7,1,06,1","2,1,06,1",,"08,99,1,08,1,03,1,00450,1,99,9,99,9",,,"99999,9,09842,1",,"73,1","SYN082AAXX  31121 01417 11460 81012 11047 21100 39842 49923 6//// 77372 883// 333 4////;",
"01417099999","2010-01-31T18:00:00","4","59.4833333","5.75","65.0","NEDRE VATS, NO","FM-12","99999","V020","120,1,N,0010,1","00750,1,9,N","020000,1,N,1","-0049,1","-0100,1","09958,1","12,0003,9,1",,,"7,1,06,1","2,1,06,1",,"08,99,1,08,1,03,1,00800,1,99,9,99,9",,"120,M,-0008,1","99999,9,09876,1",,"02,1","SYN088AAXX  31181 01417 11570 81201 11049 21100 39876 49958 69932 70272 883// 333 11008 4////;",
"01417099999","2010-02-01T06:00:00","4","59.4833333","5.75","65.0","NEDRE VATS, NO","FM-12","99999","V020","080,1,N,0010,1","22000,1,9,N","025000,1,N,1","-0104,1","-0125,1","10030,1","12,0000,9,1","24,0003,9,1","0042,9,1,999999,9,9","1,1,06,1","0,1,06,1",,"01,99,1,01,1,02,1,00800,1,00,1,00,1","28,9","999,N,-0119,1","99999,9,09947,1",,"01,1","SYN094AAXX  01061 01417 11575 10801 11104 21125 39947 40030 60002 70110 81200 333 21119 44042 70003;","Q01  00002PRCP12"
"01417099999","2010-02-01T12:00:00","4","59.4833333","5.75","65.0","NEDRE VATS, NO","FM-12","99999","V020","100,1,N,0050,1","00420,1,9,N","015000,1,N,1","-0048,1","-0081,1","10017,1",,,,"7,1,06,1","2,1,06,1",,"08,99,1,08,1,03,1,00450,1,99,9,99,9",,,"99999,9,09935,1",,"73,1","SYN082AAXX  01121 01417 11465 81005 11048 21081 39935 40017 6//// 77372 883// 333 4////;",
"01417099999","2010-02-01T18:00:00","4","59.4833333","5.75","65.0","NEDRE VATS, NO","FM-12","99999","V020","040,1,N,0010,1","00420,1,9,N","010000,1,N,1","-0024,1","-0047,1","09999,1","12,0099,9,1",,,"7,1,06,1","2,1,06,1",,"08,99,1,08,1,03,1,00450,1,99,9,99,9",,"120,M,-0023,1","99999,9,09918,1",,"02,1","SYN088AAXX  01181 01417 11460 80401 11024 21047 39918 49999 60102 70272 883// 333 11023 4////;",
"01417099999","2010-02-02T06:00:00","4","59.4833333","5.75","65.0","NEDRE VATS, NO","FM-12","99999","V020","340,1,N,0010,1","00750,1,9,N","020000,1,N,1","-0007,1","-0055,1","09950,1","12,0020,9,1","24,0114,9,1","0060,9,1,999999,9,9","7,1,06,1","2,1,06,1",,"08,99,1,08,1,03,1,00800,1,99,9,99,9","28,9","999,N,-0028,1","99999,9,09870,1",,"02,1","SYN094AAXX  02061 01417 11570 83401 11007 21055 39870 49950 60022 70272 883// 333 21028 44060 70114;",
"01417099999","2010-02-02T12:00:00","4","59.4833333","5.75","65.0","NEDRE VATS, NO","FM-12","99999","V020","030,1,N,0010,1","22000,1,9,N","025000,1,N,1","-0034,1","-0079,1","09933,1",,,,"2,1,06,1","1,1,06,1",,"03,99,1,01,1,08,1,00800,1,00,1,04,1",,,"99999,9,09853,1",,"01,1","SYN082AAXX  02121 01417 11575 30301 11034 21079 39853 49933 6//// 70121 81804 333 4////;",
"01417099999","2010-02-02T18:00:00","4","59.4833333","5.75","65.0","NEDRE VATS, NO","FM-12","99999","V020","050,1,N,0010,1","22000,1,9,N","025000,1,N,1","-0074,1","-0101,1","09938,1","12,0000,9,1",,,"1,1,06,1","0,1,06,1","00,1,+99999,9,99,9","00,99,1,00,1,00,1,99999,9,00,1,00,1",,"120,M,+0001,1","99999,9,09856,1",,"01,1","SYN082AAXX  02181 01417 11975 00501 11074 21101 39856 49938 60002 70110 333 10001 4////;","Q01  00002PRCP12"
"01417099999","2010-02-03T06:00:00","4","59.4833333","5.75","65.0","NEDRE VATS, NO","FM-12","99999","V020","040,1,N,0010,1","22000,1,9,N","025000,1,N,1","-0110,1","-0135,1","09962,1","12,0000,9,1","24,0000,9,1","0059,9,1,999999,9,9","1,1,06,1","0,1,06,1",,"03,99,1,00,1,00,1,99999,9,00,1,01,1","28,9","999,N,-0144,1","99999,9,09879,1",,"03,1","SYN094AAXX  03061 01417 11975 30401 11110 21135 39879 49962 60002 70310 80001 333 21144 44059 70000;","Q01  00002PRCP24Q02  00002PRCP12"
"01417099999","2010-02-03T12:00:00","4","59.4833333","5.75","65.0","NEDRE VATS, NO","FM-12","99999","V020","050,1,N,0010,1","22000,1,9,N","025000,1,N,1","-0049,1","-0090,1","10012,1",,,,"1,1,06,1","0,1,06,1",,"01,99,1,00,1,00,1,99999,9,00,1,01,1",,,"99999,9,09930,1",,"01,1","SYN082AAXX  03121 01417 11975 10501 11049 21090 39930 40012 6//// 70110 80001 333 4////;",
"01417099999","2010-02-03T18:00:00","4","59.4833333","5.75","65.0","NEDRE VATS, NO","FM-12","99999","V020","060,1,N,0010,1","22000,1,9,N","025000,1,N,1","-0081,1","-0109,1","10040,1","12,0000,9,1",,,"1,1,06,1","0,1,06,1","00,1,+99999,9,99,9","00,99,1,00,1,00,1,99999,9,00,1,00,1",,"120,M,-0043,1","99999,9,09957,1",,"01,1","SYN082AAXX  03181 01417 11975 00601 11081 21109 39957 40040 60002 70110 333 11043 4////;","Q01  00002PRCP12"
"01417099999","2010-02-04T06:00:00","4","59.4833333","5.75","65.0","NEDRE VATS, NO","FM-12","99999","V020","110,1,N,0050,1","22000,1,9,N","025000,1,N,1","-0048,1","-0151,1","10095,1","12,0000,9,1","24,0000,9,1","0057,9,1,999999,9,9","1,1,06,1","0,1,06,1",,"01,99,1,00,1,00,1,99999,9,00,1,01,1","24,9","999,N,-0119,1","99999,9,10012,1",,"03,1","SYN094AAXX  04061 01417 11975 11105 11048 21151 30012 40095 60002 70310 80001 333 21119 48057 70000;","Q01  00002PRCP24Q02  00002PRCP12"
"01417099999","2010-02-04T12:00:00","4","59.4833333","5.75","65.0","NEDRE VATS, NO","FM-12","99999","V020","100,1,N,0070,1","01200,1,9,N","020000,1,N,1","-0014,1","-0131,1","10103,1",,,,"2,1,06,1","1,1,06,1",,"08,99,1,08,1,08,1,00800,1,99,9,99,9",,,"99999,9,10022,1",,"03,1","SYN082AAXX  04121 01417 11570 81007 11014 21131 30022 40103 6//// 70321 888// 333 4////;",
"01417099999","2010-02-04T18:00:00","4","59.4833333","5.75","65.0","NEDRE VATS, NO","FM-12","99999","V020","140,1,N,0070,1","00750,1,9,N","020000,1,N,1","-0002,1","-0075,1","10114,1","12,0008,9,1",,,"7,1,06,1","2,1,06,1",,"07,99,1,07,1,03,1,00800,1,00,1,00,1",,"120,M,+0001,1","99999,9,10033,1",,"01,1","SYN088AAXX  04181 01417 11570 71407 11002 21075 30033 40114 69972 70172 87300 333 10001 4////;",
"01417099999","2010-02-05T06:00:00","4","59.4833333","5.75","65.0","NEDRE VATS, NO","FM-12","99999","V020","040,1,N,0070,1","07500,1,9,N","020000,1,N,1","+0021,1","-0113,1","10119,1","12,0000,9,1","24,0008,9,1","0056,9,1,999999,9,9","2,1,06,1","1,1,06,1",,"07,99,1,01,1,08,1,00800,1,00,1,06,1","28,9","999,N,+0020,1","99999,9,10039,1",,"03,1","SYN094AAXX  05061 01417 11570 70407 10021 21113 30039 40119 60002 70321 81806 333 20020 44056 70007;","Q01  00002PRCP12"
"01417099999","2010-02-05T12:00:00","4","59.4833333","5.75","65.0","NEDRE VATS, NO","FM-12","99999","V020","060,1,N,0050,1","99999,9,9,N","020000,1,N,1","+0036,1","-0115,1","10133,1",,,,"2,1,06,1","1,1,06,1",,"08,99,1,00,1,00,1,99999,9,00,1,07,1",,,"99999,9,10053,1",,"03,1","SYN082AAXX  05121 01417 11970 80605 10036 21115 30053 40133 6//// 70321 80007 333 4////;",
"01417099999","2010-02-05T18:00:00","4","59.4833333","5.75","65.0","NEDRE VATS, NO","FM-12","99999","V020","100,1,N,0120,1","00750,1,9,N","020000,1,N,1","+0037,1","-0106,1","10138,1","12,0000,9,1",,,"2,1,06,1","1,1,06,1",,"06,99,1,06,1,02,1,00800,1,00,1,00,1",,"120,M,+0041,1","99999,9,10058,1",,"01,1","SYN088AAXX  05181 01417 11570 61012 10037 21106 30058 40138 60002 70121 86200 333 10041 4////;","Q01  00002PRCP12"
"01417099999","2010-02-06T06:00:00","4","59.4833333","5.75","65.0","NEDRE VATS, NO","FM-12","99999","V020","290,1,N,0030,1","01200,1,9,N","020000,1,N,1","+0014,1","-0034,1","10210,1","12,0000,9,1","24,0000,9,1","0055,9,1,999999,9,9","2,1,06,1","1,1,06,1",,"08,99,1,08,1,08,1,00800,1,99,9,99,9","28,9","999,N,+0010,1","99999,9,10128,1",,"03,1","SYN094AAXX  06061 01417 11570 82903 10014 21034 30128 40210 60002 70321 888// 333 20010 44055 70000;","Q01  00002PRCP24Q02  00002PRCP12"
"01417099999","2010-02-06T12:00:00","4","59.4833333","5.75","65.0","NEDRE VATS, NO","FM-12","99999","V020","070,1,N,0030,1","01200,1,9,N","020000,1,N,1","+0029,1","-0004,1","10250,1",,,,"2,1,06,1","1,1,06,1",,"08,99,1,08,1,08,1,00800,1,99,9,99,9",,,"99999,9,10169,1",,"02,1","SYN082AAXX  06121 01417 11570 80703 10029 21004 30169 40250 6//// 70221 888// 333 4////;",
"01417099999","2010-02-06T18:00:00","4","59.4833333","5.75","65.0","NEDRE VATS, NO","FM-12","99999","V020","090,1,N,0010,1","01200,1,9,N","020000,1,N,1","+0021,1","-0006,1","10264,1","12,0000,9,1",,,"2,1,06,1","1,1,06,1",,"08,99,1,08,1,08,1,00800,1,99,9,99,9",,"120,M,+0036,1","99999,9,10182,1",,"02,1","SYN088AAXX  06181 01417 11570 80901 10021 21006 30182 40264 60002 70221 888// 333 10036 4////;","Q01  00002PRCP12"
"01417099999","2010-02-07T06:00:00","4","59.4833333","5.75","65.0","NEDRE VATS, NO","FM-12","99999","V020","010,1,N,0030,1","01200,1,9,N","020000,1,N,1","-0002,1","-0022,1","10282,1","12,0000,9,1","24,0000,9,1","0053,9,1,999999,9,9","2,1,06,1","1,1,06,1",,"08,99,1,08,1,08,1,00800,1,99,9,99,9","28,9","999,N,-0005,1","99999,9,10199,1",,"02,1","SYN094AAXX  07061 01417 11570 80103 11002 21022 30199 40282 60002 70221 888// 333 21005 44053 70000;","Q01  00002PRCP24Q02  00002PRCP12"
"01417099999","2010-02-07T12:00:00","4","59.4833333","5.75","65.0","NEDRE VATS, NO","FM-12","99999","V020","020,1,N,0010,1","00750,1,9,N","020000,1,N,1","+0025,1","-0018,1","10274,1",,,,"2,1,06,1","1,1,06,1",,"07,99,1,07,1,02,1,00800,1,00,1,00,1",,,"99999,9,10192,1",,"01,1","SYN082AAXX  07121 01417 11570 70201 10025 21018 30192 40274 6//// 70121 87200 333 4////;",
"01417099999","2010-02-07T18:00:00","4","59.4833333","5.75","65.0","NEDRE VATS, NO","FM-12","99999","V020","030,1,N,0010,1","00750,1,9,N","020000,1,N,1","+0002,1","-0025,1","10260,1","12,0000,9,1",,,"2,1,06,1","1,1,06,1",,"08,99,1,08,1,02,1,00800,1,99,9,99,9",,"120,M,+0033,1","99999,9,10177,1",,"03,1","SYN088AAXX  07181 01417 11570 80301 10002 21025 30177 40260 60002 70321 882// 333 10033 4////;","Q01  00002PRCP12"
"01417099999","2010-02-08T06:00:00","4","59.4833333","5.75","65.0","NEDRE VATS, NO","FM-12","99999","V020","010,1,N,0010,1","22000,1,9,N","020000,1,N,1","-0065,1","-0084,1","10197,1","12,0000,9,1","24,0000,9,1","0051,9,1,999999,9,9","1,1,06,1","0,1,06,1","00,1,+99999,9,99,9","00,99,1,00,1,00,1,99999,9,00,1,00,1","28,9","999,N,-0070,1","99999,9,10113,1",,"01,1","SYN088AAXX  08061 01417 11970 00101 11065 21084 30113 40197 60002 70110 333 21070 44051 70000;","Q01  00002PRCP24Q02  00002PRCP12"
"01417099999","2010-02-08T12:00:00","4","59.4833333","5.75","65.0","NEDRE VATS, NO","FM-12","99999","V020","080,1,N,0010,1","22000,1,9,N","020000,1,N,1","-0035,1","-0060,1","10168,1",,,,"1,1,06,1","0,1,06,1","00,1,+99999,9,99,9","00,99,1,00,1,00,1,99999,9,00,1,00,1",,,"99999,9,10086,1",,"02,1","SYN076AAXX  08121 01417 11970 00801 11035 21060 30086 40168 6//// 70210 333 4////;",
"01417099999","2010-02-08T18:00:00","4","59.4833333","5.75","65.0","NEDRE VATS, NO","FM-12","99999","V020","020,1,N,0010,1","22000,1,9,N","020000,1,N,1","-0018,1","-0078,1","10138,1","12,0000,9,1",,,"1,1,06,1","0,1,06,1","00,1,+99999,9,99,9","00,99,1,00,1,00,1,99999,9,00,1,00,1",,"120,M,+0280,1","99999,9,10056,1",,"02,1","SYN082AAXX  08181 01417 11970 00201 11018 21078 30056 40138 60002 70210 333 10280 4////;","Q01  00002PRCP12"
"01417099999","2010-02-09T06:00:00","4","59.4833333","5.75","65.0","NEDRE VATS, NO","FM-12","99999","V020","220,1,N,0010,1","22000,1,9,N","020000,1,N,1","-0073,1","-0094,1","10112,1","12,0000,9,1","24,0000,9,1","0049,9,1,999999,9,9","1,1,06,1","0,1,06,1",,"01,99,1,00,1,00,1,99999,9,00,1,01,1","28,9","999,N,-0089,1","99999,9,10029,1",,"03,1","SYN094AAXX  09061 01417 11970 12201 11073 21094 30029 40112 60002 70310 80001 333 21089 44049 70000;","Q01  00002PRCP24Q02  00002PRCP12"
"01417099999","2010-02-09T12:00:00","4","59.4833333","5.75","65.0","NEDRE VATS, NO","FM-12","99999","V020","210,1,N,0010,1","22000,1,9,N","022000,1,N,1","+0004,1","-0177,1","10121,1",,,,"1,1,06,1","0,1,06,1","00,1,+99999,9,99,9","00,99,1,00,1,00,1,99999,9,00,1,00,1",,,"99999,9,10040,1",,"01,1","SYN076AAXX  09121 01417 11972 02101 10004 21177 30040 40121 6//// 70110 333 4////;",
"01417099999","2010-02-09T18:00:00","4","59.4833333","5.75","65.0","NEDRE VATS, NO","FM-12","99999","V020","040,1,N,0050,1","22000,1,9,N","023000,1,N,1","-0023,1","-0171,1","10150,1","12,0000,9,1",,,"1,1,06,1","0,1,06,1","00,1,+99999,9,99,9","00,99,1,00,1,00,1,99999,9,00,1,00,1",,"120,M,+0021,1","99999,9,10068,1",,"02,1","SYN082AAXX  09181 01417 11973 00405 11023 21171 30068 40150 60002 70210 333 10021 4////;","Q01  00002PRCP12"
"01417099999","2010-02-10T06:00:00","4","59.4833333","5.75","65.0","NEDRE VATS, NO","FM-12","99999","V020","050,1,N,0010,1","22000,1,9,N","025000,1,N,1","-0093,1","-0148,1","10223,1","12,0000,9,1","24,0000,9,1","0047,9,1,999999,9,9","1,1,06,1","0,1,06,1","00,1,+99999,9,99,9","00,99,1,00,1,00,1,99999,9,00,1,00,1","28,9","999,N,-0104,1","99999,9,10138,1",,"02,1","SYN088AAXX  10061 01417 11975 00501 11093 21148 30138 40223 60002 70210 333 21104 44047 70000;","Q01  00002PRCP24Q02  00002PRCP12"
"01417099999","2010-02-10T12:00:00","4","59.4833333","5.75","65.0","NEDRE VATS, NO","FM-12","99999","V020","060,1,N,0030,1","22000,1,9,N","020000,1,N,1","-0028,1","-0150,1","10231,1",,,,"1,1,06,1","0,1,06,1",,"02,99,1,00,1,00,1,99999,9,00,1,01,1",,,"99999,9,10148,1",,"03,1","SYN082AAXX  10121 01417 11970 20603 11028 21150 30148 40231 6//// 70310 80001 333 4////;",
"01417099999","2010-02-10T18:00:00","4","59.4833333","5.75","65.0","NEDRE VATS, NO","FM-12","99999","V020","040,1,N,0010,1","01200,1,9,N","020000,1,N,1","-0052,1","-0128,1","10237,1","12,0000,9,1",,,"2,1,06,1","1,1,06,1",,"08,99,1,08,1,08,1,00800,1,99,9,99,9",,"120,M,-0018,1","99999,9,10153,1",,"03,1","SYN088AAXX  10181 01417 11570 80401 11052 21128 30153 40237 60002 70321 888// 333 11018 4////;","Q01  00002PRCP12"
"01417099999","2010-02-11T06:00:00","4","59.4833333","5.75","65.0","NEDRE VATS, NO","FM-12","99999","V020","140,1,N,0010,1","00420,1,9,N","015000,1,N,1","-0019,1","-0045,1","10194,1","12,0010,9,1","24,0015,9,1","0047,9,1,999999,9,9","8,1,06,1","2,1,06,1",,"08,99,1,08,1,03,1,00450,1,99,9,99,9","28,9","999,N,-0060,1","99999,9,10111,1",,"02,1","SYN094AAXX  11061 01417 11465 81401 11019 21045 30111 40194 60012 70282 883// 333 21060 44047 70014;",
"01417099999","2010-02-11T12:00:00","4","59.4833333","5.75","65.0","NEDRE VATS, NO","FM-12","99999","V020","260,1,N,0010,1","01200,1,9,N","020000,1,N,1","+0012,1","-0038,1","10188,1",,,,"8,1,06,1","2,1,06,1",,"08,99,1,08,1,08,1,00800,1,99,9,99,9",,,"99999,9,10107,1",,"02,1","SYN082AAXX  11121 01417 11570 82601 10012 21038 30107 40188 6//// 70282 888// 333 4////;",
"01417099999","2010-02-11T18:00:00","4","59.4833333","5.75","65.0","NEDRE VATS, NO","FM-12","99999","V020","230,1,N,0010,1","22000,1,9,N","020000,1,N,1","-0020,1","-0042,1","10209,1","12,0000,9,1",,,"1,1,06,1","0,1,06,1",,"01,99,1,01,1,08,1,00800,1,00,1,00,1",,"120,M,+0017,1","99999,9,10127,1",,"01,1","SYN088AAXX  11181 01417 11570 12301 11020 21042 30127 40209 69912 70110 81800 333 10017 4////;","Q01  00002PRCP12"
"01417099999","2010-02-12T06:00:00","4","59.4833333","5.75","65.0","NEDRE VATS, NO","FM-12","99999","V020","010,1,N,0010,1","22000,1,9,N","020000,1,N,1","-0066,1","-0083,1","10267,1","12,0000,9,1","24,0000,9,1","0046,9,1,999999,9,9","1,1,06,1","0,1,06,1","00,1,+99999,9,99,9","00,99,1,00,1,00,1,99999,9,00,1,00,1","28,9","999,N,-0069,1","99999,9,10182,1",,"01,1","SYN088AAXX  12061 01417 11970 00101 11066 21083 30182 40267 60002 70110 333 21069 44046 70001;","Q01  00002PRCP24Q02  00002PRCP12"
"01417099999","2010-02-12T12:00:00","4","59.4833333","5.75","65.0","NEDRE VATS, NO","FM-12","99999","V020","100,1,N,0030,1","22000,1,9,N","025000,1,N,1","+0006,1","-0076,1","10276,1",,,,"1,1,06,1","0,1,06,1",,"01,99,1,00,1,00,1,99999,9,00,1,04,1",,,"99999,9,10193,1",,"03,1","SYN082AAXX  12121 01417 11975 11003 10006 21076 30193 40276 6//// 70310 80004 333 4////;",
"01417099999","2010-02-12T18:00:00","4","59.4833333","5.75","65.0","NEDRE VATS, NO","FM-12","99999","V020","999,9,C,0000,1","22000,1,9,N","025000,1,N,1","-0031,1","-0076,1","10275,1","12,0000,9,1",,,"1,1,06,1","0,1,06,1",,"01,99,1,01,1,08,1,00800,1,00,1,00,1",,"120,M,+0026,1","99999,9,10192,1",,"02,1","SYN088AAXX  12181 01417 11575 10000 11031 21076 30192 40275 60002 70210 81800 333 10026 4////;","Q01  00002PRCP12"
"01417099999","2010-02-13T06:00:00","4","59.4833333","5.75","65.0","NEDRE VATS, NO","FM-12","99999","V020","999,9,C,0000,1","22000,1,9,N","025000,1,N,1","-0075,1","-0098,1","10240,1","12,0000,9,1","24,0000,9,1","0045,9,1,999999,9,9","1,1,06,1","0,1,06,1","00,1,+99999,9,99,9","00,99,1,00,1,00,1,99999,9,00,1,00,1","28,9","999,N,-0101,1","99999,9,10155,1",,"01,1","SYN088AAXX  13061 01417 11975 00000 11075 21098 30155 40240 60002 70110 333 21101 44045 70000;","Q01  00002PRCP24Q02  00002PRCP12"
"01417099999","2010-02-13T12:00:00","4","59.4833333","5.75","65.0","NEDRE VATS, NO","FM-12","99999","V020","160,1,N,0050,1","22000,1,9,N","025000,1,N,1","-0014,1","-0086,1","10224,1",,,,"1,1,06,1","0,1,06,1","00,1,+99999,9,99,9","00,99,1,00,1,00,1,99999,9,00,1,00,1",,,"99999,9,10142,1",,"02,1","SYN076AAXX  13121 01417 11975 01605 11014 21086 30142 40224 6//// 70210 333 4////;",
"01417099999","2010-02-13T18:00:00","4","59.4833333","5.75","65.0","NEDRE VATS, NO","FM-12","99999","V020","220,1,N,0030,1","22000,1,9,N","030000,1,N,1","-0019,1","-0097,1","10213,1","12,0000,9,1",,,"1,1,06,1","0,1,06,1","00,1,+99999,9,99,9","00,99,1,00,1,00,1,99999,9,00,1,00,1",,"120,M,+0012,1","99999,9,10130,1",,"02,1","SYN082AAXX  13181 01417 11980 02203 11019 21097 30130 40213 60002 70210 333 10012 4////;","Q01  00002PRCP12"
"01417099999","2010-02-14T12:00:00","4","59.4833333","5.75","65.0","NEDRE VATS, NO","FM-12","99999","V020","060,1,N,0030,1","01200,1,9,N","020000,1,N,1","-0005,1","-0067,1","10186,1",,,,"2,1,06,1","1,1,06,1",,"08,99,1,08,1,08,1,00800,1,99,9,99,9",,,"99999,9,10105,1",,"02,1","SYN082AAXX  14121 01417 11570 80603 11005 21067 30105 40186 6//// 70221 888// 333 4////;",
"01417099999","2010-02-14T18:00:00","4","59.4833333","5.75","65.0","NEDRE VATS, NO","FM-12","99999","V020","999,9,C,0000,1","01200,1,9,N","020000,1,N,1","-0002,1","-0061,1","10162,1","12,0000,9,1",,,"2,1,06,1","1,1,06,1",,"08,99,1,08,1,08,1,00800,1,99,9,99,9",,"120,M,+0012,1","99999,9,10080,1",,"02,1","SYN088AAXX  14181 01417 11570 80000 11002 21061 30080 40162 60002 70221 888// 333 10012 4////;","Q01  00002PRCP12"
"01417099999","2010-02-15T06:00:00","4","59.4833333","5.75","65.0","NEDRE VATS, NO","FM-12","99999","V020","050,1,N,0070,1","01200,1,9,N","020000,1,N,1","+0007,1","-0110,1","10101,1","12,0000,9,1","24,0000,9,1","0042,9,1,999999,9,9","2,1,06,1","1,1,06,1",,"08,99,1,08,1,08,1,00800,1,99,9,99,9","28,9","999,N,-0014,1","99999,9,10020,1",,"02,1","SYN094AAXX  15061 01417 11570 80507 10007 21110 30020 40101 60002 70221 888// 333 21014 44042 70000;","Q01  00002PRCP24Q02  00002PRCP12"
"01417099999","2010-02-15T12:00:00","4","59.4833333","5.75","65.0","NEDRE VATS, NO","FM-12","99999","V020","160,1,N,0070,1","00750,1,9,N","020000,1,N,1","+0020,1","-0114,1","10067,1",,,,"8,1,06,1","2,1,06,1",,"08,99,1,08,1,03,1,00800,1,99,9,99,9",,,"99999,9,09987,1",,"02,1","SYN082AAXX  15121 01417 11570 81607 10020 21114 39987 40067 6//// 70282 883// 333 4////;",
"01417099999","2010-02-15T18:00:00","4","59.4833333","5.75","65.0","NEDRE VATS, NO","FM-12","99999","V020","170,1,N,0100,1","00750,1,9,N","020000,1,N,1","+0009,1","-0114,1","10061,1","12,0000,9,1",,,"2,1,06,1","1,1,06,1",,"08,99,1,08,1,03,1,00800,1,99,9,99,9",,"120,M,+0023,1","99999,9,09981,1",,"02,1","SYN088AAXX  15181 01417 11570 81710 10009 21114 39981 40061 69902 70221 883// 333 10023 4////;","Q01  00002PRCP12"
"01417099999","2010-02-16T06:00:00","4","59.4833333","5.75","65.0","NEDRE VATS, NO","FM-12","99999","V020","150,1,N,0010,1","01200,1,9,N","020000,1,N,1","-0011,1","-0079,1","10042,1","12,0000,9,1","24,0000,9,1","0040,9,1,999999,9,9","8,1,06,1","2,1,06,1",,"08,99,1,08,1,08,1,00800,1,99,9,99,9","28,9","999,N,-0011,1","99999,9,09961,1",,"02,1","SYN094AAXX  16061 01417 11570 81501 11011 21079 39961 40042 69912 70282 888// 333 21011 44040 70001;","Q01  00002PRCP24Q02  00002PRCP12"
"01417099999","2010-02-16T12:00:00","4","59.4833333","5.75","65.0","NEDRE VATS, NO","FM-12","99999","V020","110,1,N,0050,1","01200,1,9,N","020000,1,N,1","+0011,1","-0129,1","10037,1",,,,"2,1,06,1","1,1,06,1",,"06,99,1,06,1,08,1,00800,1,00,1,00,1",,,"99999,9,09957,1",,"01,1","SYN082AAXX  16121 01417 11570 61105 10011 21129 39957 40037 6//// 70121 86800 333 4////;",
"01417099999","2010-02-16T18:00:00","4","59.4833333","5.75","65.0","NEDRE VATS, NO","FM-12","99999","V020","100,1,N,0070,1","00750,1,9,N","020000,1,N,1","+0000,1","-0125,1","10038,1","12,0000,9,1",,,"2,1,06,1","1,1,06,1",,"08,99,1,08,1,03,1,00800,1,99,9,99,9",,"120,M,+0021,1","99999,9,09957,1",,"03,1","SYN088AAXX  16181 01417 11570 81007 10000 21125 39957 40038 60002 70321 883// 333 10021 4////;","Q01  00002PRCP12"
"01417099999","2010-02-17T06:00:00","4","59.4833333","5.75","65.0","NEDRE VATS, NO","FM-12","99999","V020","100,1,N,0070,1","00750,1,9,N","022000,1,N,1","-0009,1","-0127,1","10027,1","12,0000,9,1","24,0000,9,1","0039,9,1,999999,9,9","2,1,06,1","1,1,06,1",,"08,99,1,08,1,03,1,00800,1,99,9,99,9","28,9","999,N,-0025,1","99999,9,09946,1",,"02,1","SYN094AAXX  17061 01417 11572 81007 11009 21127 39946 40027 60002 70221 883// 333 21025 44039 70000;","Q01  00002PRCP24Q02  00002PRCP12"
"01417099999","2010-02-17T12:00:00","4","59.4833333","5.75","65.0","NEDRE VATS, NO","FM-12","99999","V020","050,1,N,0070,1","00750,1,9,N","020000,1,N,1","+0009,1","-0114,1","10022,1",,,,"8,1,06,1","2,1,06,1",,"08,99,1,08,1,03,1,00800,1,99,9,99,9",,,"99999,9,09942,1",,"02,1","SYN082AAXX  17121 01417 11570 80507 10009 21114 39942 40022 6//// 70282 883// 333 4////;",
"01417099999","2010-02-17T18:00:00","4","59.4833333","5.75","65.0","NEDRE VATS, NO","FM-12","99999","V020","060,1,N,0070,1","00750,1,9,N","020000,1,N,1","+0004,1","-0129,1","10017,1","12,0000,9,1",,,"2,1,06,1","1,1,06,1",,"05,99,1,05,1,02,1,00800,1,00,1,00,1",,"120,M,+0016,1","99999,9,09937,1",,"01,1","SYN088AAXX  17181 01417 11570 50607 10004 21129 39937 40017 69902 70121 85200 333 10016 4////;","Q01  00002PRCP12"
"01417099999","2010-02-18T06:00:00","4","59.4833333","5.75","65.0","NEDRE VATS, NO","FM-12","99999","V020","100,1,N,0070,1","22000,1,9,N","022000,1,N,1","-0020,1","-0143,1","10014,1","12,0000,9,1","24,0000,9,1","0037,9,1,999999,9,9","2,1,06,1","1,1,06,1",,"04,99,1,01,1,08,1,00800,1,00,1,08,1","28,9","999,N,-0021,1","99999,9,09933,1",,"01,1","SYN094AAXX  18061 01417 11572 41007 11020 21143 39933 40014 60002 70121 81808 333 21021 44037 70000;","Q01  00002PRCP24Q02  00002PRCP12"
"01417099999","2010-02-18T12:00:00","4","59.4833333","5.75","65.0","NEDRE VATS, NO","FM-12","99999","V020","080,1,N,0050,1","99999,9,9,N","999999,9,N,1","-0014,1","-0109,1","09994,1",,,,"8,1,06,1","2,1,06,1",,"08,99,1,08,1,03,1,99999,9,99,9,99,9",,,"99999,9,09913,1",,"03,1","SYN082AAXX  18121 01417 11/// 80805 11014 21109 39913 49994 6//// 70382 883// 333 4////;",
"01417099999","2010-02-18T18:00:00","4","59.4833333","5.75","65.0","NEDRE VATS, NO","FM-12","99999","V020","090,1,N,0030,1","00750,1,9,N","015000,1,N,1","-0011,1","-0114,1","09985,1","12,0000,9,1",,,"8,1,06,1","2,1,06,1",,"08,99,1,08,1,03,1,00800,1,99,9,99,9",,"120,M,+0004,1","99999,9,09905,1",,"02,1","SYN088AAXX  18181 01417 11565 80903 11011 21114 39905 49985 69902 70282 883// 333 10004 4////;","Q01  00002PRCP12"
"01417099999","2010-02-19T06:00:00","4","59.4833333","5.75","65.0","NEDRE VATS, NO","FM-12","99999","V020","120,1,N,0070,1","22000,1,9,N","025000,1,N,1","-0035,1","-0157,1","09963,1","12,0000,9,1","24,0000,9,1","0036,9,1,999999,9,9","1,1,06,1","0,1,06,1",,"01,99,1,01,1,08,1,99999,9,00,1,00,1","28,9","999,N,-0050,1","99999,9,09882,1",,"01,1","SYN094AAXX  19061 01417 11975 11207 11035 21157 39882 49963 60002 70110 81800 333 21050 44036 70000;","Q01  00002PRCP24Q02  00002PRCP12"
"01417099999","2010-02-19T12:00:00","4","59.4833333","5.75","65.0","NEDRE VATS, NO","FM-12","99999","V020","100,1,N,0070,1","22000,1,9,N","025000,1,N,1","-0019,1","-0142,1","09957,1",,,,"1,1,06,1","0,1,06,1",,"01,99,1,00,1,00,1,99999,9,00,1,01,1",,,"99999,9,09877,1",,"02,1","SYN082AAXX  19121 01417 11975 11007 11019 21142 39877 49957 6//// 70210 80001 333 4////;",
"01417099999","2010-02-19T18:00:00","4","59.4833333","5.75","65.0","NEDRE VATS, NO","FM-12","99999","V020","110,1,N,0100,1","22000,1,9,N","025000,1,N,1","-0042,1","-0157,1","09956,1","12,0000,9,1",,,"1,1,06,1","0,1,06,1",,"01,99,1,01,1,08,1,00800,1,00,1,00,1",,"120,M,+0290,1","99999,9,09875,1",,"02,1","SYN088AAXX  19181 01417 11575 11110 11042 21157 39875 49956 60002 70210 81800 333 10290 4////;","Q01  00002PRCP12"
"01417099999","2010-02-20T06:00:00","4","59.4833333","5.75","65.0","NEDRE VATS, NO","FM-12","99999","V020","200,1,N,0010,1","99999,9,9,N","025000,1,N,1","-0065,1","-0136,1","09916,1","12,0000,9,1","24,0000,9,1","0035,9,1,999999,9,9","2,1,06,1","1,1,06,1",,"06,99,1,00,1,00,1,99999,9,00,1,06,1","28,9","999,N,-0082,1","99999,9,09834,1",,"03,1","SYN094AAXX  20061 01417 11975 62001 11065 21136 39834 49916 60002 70321 80006 333 21082 44035 70000;","Q01  00002PRCP24Q02  00002PRCP12"
"01417099999","2010-02-20T12:00:00","4","59.4833333","5.75","65.0","NEDRE VATS, NO","FM-12","99999","V020","040,1,N,0050,1","99999,9,9,N","025000,1,N,1","-0029,1","-0139,1","09939,1",,,,"2,1,06,1","1,1,06,1",,"07,99,1,07,1,00,1,00800,1,06,1,00,1",,,"99999,9,09858,1",,"03,1","SYN082AAXX  20121 01417 11575 70405 11029 21139 39858 49939 6//// 70321 87060 333 4////;",
"01417099999","2010-02-20T18:00:00","4","59.4833333","5.75","65.0","NEDRE VATS, NO","FM-12","99999","V020","100,1,N,0070,1","00750,1,9,N","020000,1,N,1","-0047,1","-0150,1","09948,1","12,0000,9,1",,,"2,1,06,1","1,1,06,1",,"08,99,1,08,1,03,1,00800,1,99,9,99,9",,"120,M,-0019,1","99999,9,09867,1",,"03,1","SYN088AAXX  20181 01417 11570 81007 11047 21150 39867 49948 60002 70321 883// 333 11019 4////;","Q01  00002PRCP12"
"01417099999","2010-02-21T06:00:00","4","59.4833333","5.75","65.0","NEDRE VATS, NO","FM-12","99999","V020","100,1,N,0070,1","00750,1,9,N","025000,1,N,1","-0071,1","-0144,1","09966,1","12,0000,9,1","24,0000,9,1","0035,9,1,999999,9,9","8,1,06,1","2,1,06,1",,"08,99,1,08,1,03,1,00800,1,99,9,99,9","28,9","999,N,-0071,1","99999,9,09884,1",,"02,1","SYN094AAXX  21061 01417 11575 81007 11071 21144 39884 49966 69902 70282 883// 333 21071 44035 70000;","Q01  00002PRCP24Q02  00002PRCP12"
"01417099999","2010-02-21T12:00:00","4","59.4833333","5.75","65.0","NEDRE VATS, NO","FM-12","99999","V020","110,1,N,0070,1","00420,1,9,N","010000,1,N,1","-0065,1","-0098,1","09964,1",,,,"7,1,06,1","2,1,06,1",,"08,99,1,08,1,03,1,00450,1,99,9,99,9",,,"99999,9,09882,1",,"71,1","SYN082AAXX  21121 01417 11460 81107 11065 21098 39882 49964 6//// 77172 883// 333 4////;",
"01417099999","2010-02-21T18:00:00","4","59.4833333","5.75","65.0","NEDRE VATS, NO","FM-12","99999","V020","060,1,N,0050,1","00750,1,9,N","020000,1,N,1","-0046,1","-0081,1","09955,1","12,0020,9,1",,,"7,1,06,1","2,1,06,1",,"08,99,1,08,1,03,1,00800,1,99,9,99,9",,"120,M,-0046,1","99999,9,09874,1",,"02,1","SYN088AAXX  21181 01417 11570 80605 11046 21081 39874 49955 60022 70272 883// 333 11046 4////;",
"01417099999","2010-02-22T06:00:00","4","59.4833333","5.75","65.0","NEDRE VATS, NO","FM-12","99999","V020","160,1,N,0010,1","00750,1,9,N","020000,1,N,1","-0018,1","-0072,1","09929,1","12,0003,9,1","24,0023,9,1","0037,9,1,999999,9,9","8,1,06,1","2,1,06,1",,"08,99,1,08,1,03,1,00800,1,99,9,99,9","28,9","999,N,-0045,1","99999,9,09849,1",,"02,1","SYN094AAXX  22061 01417 11570 81601 11018 21072 39849 49929 69932 70282 883// 333 21045 44037 70022;",
"01417099999","2010-02-22T12:00:00","4","59.4833333","5.75","65.0","NEDRE VATS, NO","FM-12","99999","V020","140,1,N,0010,1","00750,1,9,N","020000,1,N,1","-0008,1","-0059,1","09930,1",,,,"2,1,06,1","1,1,06,1",,"08,99,1,08,1,03,1,00800,1,99,9,99,9",,,"99999,9,09850,1",,"02,1","SYN082AAXX  22121 01417 11570 81401 11008 21059 39850 49930 6//// 70221 883// 333 4////;",
"01417099999","2010-02-22T18:00:00","4","59.4833333","5.75","65.0","NEDRE VATS, NO","FM-12","99999","V020","080,1,N,0010,1","01200,1,9,N","020000,1,N,1","-0025,1","-0077,1","09928,1","12,0000,9,1",,,"8,1,06,1","2,1,06,1",,"06,99,1,06,1,08,1,00800,1,00,1,00,1",,"120,M,-0004,1","99999,9,09847,1",,"01,1","SYN088AAXX  22181 01417 11570 60801 11025 21077 39847 49928 69912 70182 86800 333 11004 4////;","Q01  00002PRCP12"
"01417099999","2010-02-23T06:00:00","4","59.4833333","5.75","65.0","NEDRE VATS, NO","FM-12","99999","V020","080,1,N,0010,1","01200,1,9,N","020000,1,N,1","-0042,1","-0061,1","09925,1","12,0020,9,2","24,0018,9,2","0039,9,1,999999,9,9","8,1,06,1","2,1,06,1",,"06,99,1,06,1,08,1,00800,1,00,1,00,1","28,9","999,N,-0045,1","99999,9,09844,1",,"02,1","SYN094AAXX  23061 01417 11570 60801 11042 21061 39844 49925 60022 70282 86800 333 21045 44039 70017;",
"01417099999","2010-02-23T12:00:00","4","59.4833333","5.75","65.0","NEDRE VATS, NO","FM-12","99999","V020","150,1,N,0030,1","22000,1,9,N","030000,1,N,1","+0001,1","-0085,1","09960,1",,,,"1,1,06,1","0,1,06,1",,"01,99,1,01,1,02,1,00800,1,00,1,00,1",,,"99999,9,09880,1",,"01,1","SYN082AAXX  23121 01417 11580 11503 10001 21085 39880 49960 6//// 70110 81200 333 4////;",
"01417099999","2010-02-23T18:00:00","4","59.4833333","5.75","65.0","NEDRE VATS, NO","FM-12","99999","V020","040,1,N,0010,1","22000,1,9,N","030000,1,N,1","-0050,1","-0116,1","09993,1","12,0000,9,1",,,"1,1,06,1","0,1,06,1","00,1,+99999,9,99,9","00,99,1,00,1,00,1,99999,9,00,1,00,1",,"120,M,+0024,1","99999,9,09912,1",,"01,1","SYN082AAXX  23181 01417 11980 00401 11050 21116 39912 49993 60002 70110 333 10024 4////;","Q01  00002PRCP12"
"01417099999","2010-02-24T06:00:00","4","59.4833333","5.75","65.0","NEDRE VATS, NO","FM-12","99999","V020","050,1,N,0010,1","01200,1,9,N","025000,1,N,1","-0021,1","-0116,1","10027,1","12,0000,9,1","24,0000,9,1","0038,9,1,999999,9,9","2,1,06,1","1,1,06,1",,"08,99,1,08,1,08,1,00800,1,99,9,99,9","28,9","999,N,-0082,1","99999,9,09946,1",,"03,1","SYN094AAXX  24061 01417 11575 80501 11021 21116 39946 40027 60002 70321 888// 333 21082 44038 70000;","Q01  00002PRCP24Q02  00002PRCP12"
"01417099999","2010-02-24T12:00:00","4","59.4833333","5.75","65.0","NEDRE VATS, NO","FM-12","99999","V020","080,1,N,0050,1","01200,1,9,N","025000,1,N,1","+0007,1","-0133,1","10046,1",,,,"2,1,06,1","1,1,06,1",,"08,99,1,08,1,08,1,00800,1,99,9,99,9",,,"99999,9,09965,1",,"02,1","SYN082AAXX  24121 01417 11575 80805 10007 21133 39965 40046 6//// 70221 888// 333 4////;",
"01417099999","2010-02-24T18:00:00","4","59.4833333","5.75","65.0","NEDRE VATS, NO","FM-12","99999","V020","070,1,N,0070,1","00750,1,9,N","020000,1,N,1","-0002,1","-0112,1","10043,1","12,0000,9,1",,,"2,1,06,1","1,1,06,1",,"06,99,1,06,1,03,1,00800,1,00,1,00,1",,"120,M,+0016,1","99999,9,09962,1",,"01,1","SYN088AAXX  24181 01417 11570 60707 11002 21112 39962 40043 60002 70121 86300 333 10016 4////;","Q01  00002PRCP12"
"01417099999","2010-02-25T06:00:00","4","59.4833333","5.75","65.0","NEDRE VATS, NO","FM-12","99999","V020","140,1,N,0030,1","00750,1,9,N","020000,1,N,1","+0001,1","-0157,1","09999,1","12,0000,9,1","24,0000,9,1","0037,9,1,999999,9,9","2,1,06,1","1,1,06,1",,"08,99,1,08,1,03,1,00800,1,99,9,99,9","28,9","999,N,-0039,1","99999,9,09919,1",,"03,1","SYN094AAXX  25061 01417 11570 81403 10001 21157 39919 49999 60002 70321 883// 333 21039 44037 70000;","Q01  00002PRCP24Q02  00002PRCP12"
"01417099999","2010-02-25T12:00:00","4","59.4833333","5.75","65.0","NEDRE VATS, NO","FM-12","99999","V020","110,1,N,0030,1","00750,1,9,N","020000,1,N,1","+0008,1","-0067,1","09961,1",,,,"8,1,06,1","2,1,06,1",,"08,99,1,08,1,03,1,00800,1,99,9,99,9",,,"99999,9,09881,1",,"02,1","SYN082AAXX  25121 01417 11570 81103 10008 21067 39881 49961 6//// 70282 883// 333 4////;",
"01417099999","2010-02-25T18:00:00","4","59.4833333","5.75","65.0","NEDRE VATS, NO","FM-12","99999","V020","999,9,C,0000,1","00210,1,9,N","010000,1,N,1","-0009,1","-0028,1","09960,1","12,0030,9,1",,,"7,1,06,1","2,1,06,1",,"08,99,1,08,1,06,1,00250,1,99,9,99,9",,"120,M,+0016,1","99999,9,09879,1",,"02,1","SYN088AAXX  25181 01417 11360 80000 11009 21028 39879 49960 60032 70272 886// 333 10016 4////;",
"01417099999","2010-02-26T06:00:00","4","59.4833333","5.75","65.0","NEDRE VATS, NO","FM-12","99999","V020","999,9,C,0000,1","00750,1,9,N","015000,1,N,1","-0020,1","-0042,1","09927,1","12,0020,9,1","24,0046,9,1","0043,9,1,999999,9,9","7,1,06,1","2,1,06,1",,"08,99,1,08,1,03,1,00800,1,99,9,99,9","24,9","999,N,-0020,1","99999,9,09847,1",,"02,1","SYN094AAXX  26061 01417 11565 80000 11020 21042 39847 49927 60022 70272 883// 333 21020 48043 70045;",
"01417099999","2010-02-26T12:00:00","4","59.4833333","5.75","65.0","NEDRE VATS, NO","FM-12","99999","V020","160,1,N,0030,1","01200,1,9,N","015000,1,N,1","+0014,1","-0025,1","09929,1",,,,"2,1,06,1","1,1,06,1",,"08,99,1,08,1,08,1,00800,1,99,9,99,9",,,"99999,9,09849,1",,"02,1","SYN082AAXX  26121 01417 11565 81603 10014 21025 39849 49929 6//// 70221 888// 333 4////;",
"01417099999","2010-02-26T18:00:00","4","59.4833333","5.75","65.0","NEDRE VATS, NO","FM-12","99999","V020","170,1,N,0010,1","00750,1,9,N","020000,1,N,1","+0001,1","-0029,1","09925,1","12,0000,9,1",,,"2,1,06,1","1,1,06,1",,"08,99,1,08,1,03,1,00800,1,99,9,99,9",,"120,M,+0026,1","99999,9,09845,1",,"02,1","SYN088AAXX  26181 01417 11570 81701 10001 21029 39845 49925 60002 70221 883// 333 10026 4////;","Q01  00002PRCP12"
"01417099999","2010-02-27T06:00:00","4","59.4833333","5.75","65.0","NEDRE VATS, NO","FM-12","99999","V020","210,1,N,0070,1","22000,1,9,N","025000,1,N,1","-0004,1","-0088,1","09926,1","12,0000,9,1","24,0000,9,1","0042,9,1,999999,9,9","2,1,06,1","1,1,06,1",,"07,99,1,04,1,02,1,00800,1,00,1,01,1","28,9","999,N,-0010,1","99999,9,09846,1",,"01,1","SYN094AAXX  27061 01417 11575 72107 11004 21088 39846 49926 60002 70121 84201 333 21010 44042 70000;","Q01  00002PRCP24Q02  00002PRCP12"
"01417099999","2010-02-27T12:00:00","4","59.4833333","5.75","65.0","NEDRE VATS, NO","FM-12","99999","V020","280,1,N,0050,1","22000,1,9,N","025000,1,N,1","+0042,1","-0102,1","09921,1",,,,"2,1,06,1","1,1,06,1",,"04,99,1,04,1,02,1,00800,1,00,1,00,1",,,"99999,9,09842,1",,"01,1","SYN082AAXX  27121 01417 11575 42805 10042 21102 39842 49921 6//// 70121 84200 333 4////;",
"01417099999","2010-02-27T18:00:00","4","59.4833333","5.75","65.0","NEDRE VATS, NO","FM-12","99999","V020","100,1,N,0050,1","00750,1,9,N","020000,1,N,1","+0026,1","-0073,1","09934,1","12,0000,9,1",,,"2,1,06,1","1,1,06,1",,"08,99,1,08,1,03,1,00800,1,99,9,99,9",,"120,M,+0050,1","99999,9,09855,1",,"03,1","SYN088AAXX  27181 01417 11570 81005 10026 21073 39855 49934 60002 70321 883// 333 10050 4////;","Q01  00002PRCP12"
"01417099999","2010-02-28T06:00:00","4","59.4833333","5.75","65.0","NEDRE VATS, NO","FM-12","99999","V020","050,1,N,0050,1","01200,1,9,N","020000,1,N,1","-0014,1","-0048,1","09933,1","12,0000,9,1","24,0000,9,1","0040,9,1,999999,9,9","2,1,06,1","1,1,06,1",,"08,99,1,08,1,08,1,00800,1,99,9,99,9","28,9","999,N,-0016,1","99999,9,09852,1",,"02,1","SYN094AAXX  28061 01417 11570 80505 11014 21048 39852 49933 60002 70221 888// 333 21016 44040 70000;","Q01  00002PRCP24Q02  00002PRCP12"
"01417099999","2010-02-28T12:00:00","4","59.4833333","5.75","65.0","NEDRE VATS, NO","FM-12","99999","V020","060,1,N,0030,1","00750,1,9,N","025000,1,N,1","+0007,1","-0101,1","09940,1",,,,"2,1,06,1","1,1,06,1",,"07,99,1,07,1,02,1,00800,1,00,1,00,1",,,"99999,9,09861,1",,"01,1","SYN082AAXX  28121 01417 11575 70603 10007 21101 39861 49940 6//// 70121 87200 333 4////;",
"01417099999","2010-02-28T18:00:00","4","59.4833333","5.75","65.0","NEDRE VATS, NO","FM-12","99999","V020","999,9,C,0000,1","22000,1,9,N","025000,1,N,1","-0026,1","-0063,1","09924,1","12,0000,9,1",,,"1,1,06,1","0,1,06,1",,"01,99,1,00,1,00,1,99999,9,00,1,01,1",,"120,M,+0046,1","99999,9,09844,1",,"01,1","SYN088AAXX  28181 01417 11975 10000 11026 21063 39844 49924 60002 70110 80001 333 10046 4////;","Q01  00002PRCP12"
"01417099999","2010-03-01T06:00:00","4","59.4833333","5.75","65.0","NEDRE VATS, NO","FM-12","99999","V020","999,9,C,0000,1","22000,1,9,N","025000,1,N,1","-0055,1","-0099,1","09952,1","12,0000,9,1","24,0000,9,1","0038,9,1,999999,9,9","1,1,06,1","0,1,06,1","00,1,+99999,9,99,9","00,99,1,00,1,00,1,99999,9,00,1,00,1","28,9","999,N,-0059,1","99999,9,09870,1",,"01,1","SYN088AAXX  01061 01417 11975 00000 11055 21099 39870 49952 60002 70110 333 21059 44038 70000;","Q01  00002PRCP24Q02  00002PRCP12"
"01417099999","2010-03-01T12:00:00","4","59.4833333","5.75","65.0","NEDRE VATS, NO","FM-12","99999","V020","260,1,N,0010,1","22000,1,9,N","030000,1,N,1","+0016,1","-0125,1","09984,1",,,,"1,1,06,1","0,1,06,1","00,1,+99999,9,99,9","00,99,1,00,1,00,1,99999,9,00,1,00,1",,,"99999,9,09905,1",,"02,1","SYN076AAXX  01121 01417 11980 02601 10016 21125 39905 49984 6//// 70210 333 4////;",
"01417099999","2010-03-01T18:00:00","4","59.4833333","5.75","65.0","NEDRE VATS, NO","FM-12","99999","V020","999,9,C,0000,1","22000,1,9,N","025000,1,N,1","-0012,1","-0095,1","10022,1","12,0000,9,1",,,"1,1,06,1","0,1,06,1",,"02,99,1,02,1,08,1,00800,1,00,1,00,1",,"120,M,+0043,1","99999,9,09942,1",,"03,1","SYN088AAXX  01181 01417 11575 20000 11012 21095 39942 40022 60002 70310 82800 333 10043 4////;","Q01  00002PRCP12"
"01417099999","2010-03-02T06:00:00","4","59.4833333","5.75","65.0","NEDRE VATS, NO","FM-12","99999","V020","040,1,N,0010,1","22000,1,9,N","030000,1,N,1","-0085,1","-0102,1","10100,1","12,0000,9,1","24,0000,9,1","0037,9,1,999999,9,9","1,1,06,1","0,1,06,1",,"01,99,1,00,1,00,1,99999,9,00,1,01,1","28,9","999,N,-0089,1","99999,9,10017,1",,"01,1","SYN094AAXX  02061 01417 11980 10401 11085 21102 30017 40100 60002 70110 80001 333 21089 44037 70000;","Q01  00002PRCP24Q02  00002PRCP12"
"01417099999","2010-03-02T12:00:00","4","59.4833333","5.75","65.0","NEDRE VATS, NO","FM-12","99999","V020","220,1,N,0050,1","00750,1,9,N","025000,1,N,1","+0005,1","-0079,1","10131,1",,,,"2,1,06,1","1,1,06,1",,"08,99,1,08,1,03,1,00800,1,99,9,99,9",,,"99999,9,10050,1",,"03,1","SYN082AAXX  02121 01417 11575 82205 10005 21079 30050 40131 6//// 70321 883// 333 4////;",
"01417099999","2010-03-02T18:00:00","4","59.4833333","5.75","65.0","NEDRE VATS, NO","FM-12","99999","V020","050,1,N,0030,1","00750,1,9,N","020000,1,N,1","+0001,1","-0029,1","10142,1","12,0008,9,1",,,"8,1,06,1","2,1,06,1",,"08,99,1,08,1,03,1,00800,1,99,9,99,9",,"120,M,+0016,1","99999,9,10061,1",,"02,1","SYN088AAXX  02181 01417 11570 80503 10001 21029 30061 40142 69972 70282 883// 333 10016 4////;",
"01417099999","2010-03-03T06:00:00","4","59.4833333","5.75","65.0","NEDRE VATS, NO","FM-12","99999","V020","310,1,N,0010,1","00750,1,9,N","020000,1,N,1","-0005,1","-0041,1","10167,1","12,0030,9,1","24,0036,9,1","0038,9,1,999999,9,9","8,1,06,1","2,1,06,1",,"06,99,1,06,1,03,1,00800,1,00,1,00,1","28,9","999,N,-0010,1","99999,9,10085,1",,"01,1","SYN094AAXX  03061 01417 11570 63101 11005 21041 30085 40167 60032 70182 86300 333 21010 44038 70036;",
"01417099999","2010-03-03T12:00:00","4","59.4833333","5.75","65.0","NEDRE VATS, NO","FM-12","99999","V020","999,9,C,0000,1","00420,1,9,N","010000,1,N,1","+0002,1","-0019,1","10174,1",,,,"7,1,06,1","2,1,06,1",,"08,99,1,08,1,03,1,00450,1,99,9,99,9",,,"99999,9,10093,1",,"73,1","SYN082AAXX  03121 01417 11460 80000 10002 21019 30093 40174 6//// 77372 883// 333 4////;",
"01417099999","2010-03-03T18:00:00","4","59.4833333","5.75","65.0","NEDRE VATS, NO","FM-12","99999","V020","999,9,C,0000,1","22000,1,9,N","020000,1,N,1","-0019,1","-0045,1","10198,1","12,0079,9,1",,,"7,1,06,1","2,1,06,1",,"03,99,1,03,1,02,1,00800,1,00,1,00,1",,"120,M,+0016,1","99999,9,10115,1",,"01,1","SYN088AAXX  03181 01417 11570 30000 11019 21045 30115 40198 60082 70172 83200 333 10016 4////;",
"01417099999","2010-03-04T06:00:00","4","59.4833333","5.75","65.0","NEDRE VATS, NO","FM-12","99999","V020","999,9,C,0000,1","22000,1,9,N","025000,1,N,1","-0084,1","-0106,1","10229,1","12,0000,9,1","24,0076,9,1","0046,9,1,999999,9,9","1,1,06,1","0,1,06,1","00,1,+99999,9,99,9","00,99,1,00,1,00,1,99999,9,00,1,00,1","28,9","999,N,-0111,1","99999,9,10144,1",,"01,1","SYN088AAXX  04061 01417 11975 00000 11084 21106 30144 40229 60002 70110 333 21111 44046 70076;","Q01  00002PRCP12"
"01417099999","2010-03-04T12:00:00","4","59.4833333","5.75","65.0","NEDRE VATS, NO","FM-12","99999","V020","260,1,N,0030,1","22000,1,9,N","030000,1,N,1","+0028,1","-0107,1","10239,1",,,,"1,1,06,1","0,1,06,1","00,1,+99999,9,99,9","00,99,1,00,1,00,1,99999,9,00,1,00,1",,,"99999,9,10158,1",,"02,1","SYN076AAXX  04121 01417 11980 02603 10028 21107 30158 40239 6//// 70210 333 4////;",
"01417099999","2010-03-04T18:00:00","4","59.4833333","5.75","65.0","NEDRE VATS, NO","FM-12","99999","V020","050,1,N,0010,1","22000,1,9,N","025000,1,N,1","-0059,1","-0091,1","10246,1","12,0000,9,1",,,"1,1,06,1","0,1,06,1",,"01,99,1,00,1,00,1,99999,9,00,1,01,1",,"120,M,+0032,1","99999,9,10162,1",,"03,1","SYN088AAXX  04181 01417 11975 10501 11059 21091 30162 40246 60002 70310 80001 333 10032 4////;","Q01  00002PRCP12"
"01417099999","2010-03-05T06:00:00","4","59.4833333","5.75","65.0","NEDRE VATS, NO","FM-12","99999","V020","080,1,N,0050,1","00420,1,9,N","010000,1,N,1","-0029,1","-0061,1","10170,1","12,0010,9,1","24,0010,9,1","0046,9,1,999999,9,9","7,1,06,1","2,1,06,1",,"08,99,1,08,1,03,1,00450,1,99,9,99,9","28,9","999,N,-0095,1","99999,9,10088,1",,"71,1","SYN094AAXX  05061 01417 11460 80805 11029 21061 30088 40170 69992 77172 883// 333 21095 44046 70009;",
"01417099999","2010-03-05T18:00:00","4","59.4833333","5.75","65.0","NEDRE VATS, NO","FM-12","99999","V020","310,1,N,0030,1","01200,1,9,N","025000,1,N,1","+0008,1","-0044,1","10186,1","12,0030,9,1",,,"2,1,06,1","1,1,06,1",,"07,99,1,07,1,08,1,00800,1,00,1,00,1",,"120,M,+0036,1","99999,9,10105,1",,"03,1","SYN088AAXX  05181 01417 11575 73103 10008 21044 30105 40186 60032 70321 87800 333 10036 4////;",
"01417099999","2010-03-06T06:00:00","4","59.4833333","5.75","65.0","NEDRE VATS, NO","FM-12","99999","V020","080,1,N,0010,1","00750,1,9,N","020000,1,N,1","-0032,1","-0093,1","10290,1","12,0000,9,1","24,0025,9,1","0053,9,1,999999,9,9","2,1,06,1","1,1,06,1",,"08,99,1,08,1,03,1,00800,1,99,9,99,9","28,9","999,N,-0046,1","99999,9,10206,1",,"03,1","SYN094AAXX  06061 01417 11570 80801 11032 21093 30206 40290 60002 70321 883// 333 21046 44053 70026;","Q01  00002PRCP12"
"01417099999","2010-03-06T12:00:00","4","59.4833333","5.75","65.0","NEDRE VATS, NO","FM-12","99999","V020","290,1,N,0050,1","00750,1,9,N","020000,1,N,1","+0002,1","-0095,1","10314,1",,,,"2,1,06,1","1,1,06,1",,"08,99,1,08,1,03,1,00800,1,99,9,99,9",,,"99999,9,10231,1",,"03,1","SYN082AAXX  06121 01417 11570 82905 10002 21095 30231 40314 6//// 70321 883// 333 4////;",
"01417099999","2010-03-06T18:00:00","4","59.4833333","5.75","65.0","NEDRE VATS, NO","FM-12","99999","V020","060,1,N,0030,1","01200,1,9,N","020000,1,N,1","-0008,1","-0083,1","10319,1","12,0000,9,1",,,"2,1,06,1","1,1,06,1",,"08,99,1,08,1,08,1,00800,1,99,9,99,9",,"120,M,+0006,1","99999,9,10236,1",,"02,1","SYN088AAXX  06181 01417 11570 80603 11008 21083 30236 40319 60002 70221 888// 333 10006 4////;","Q01  00002PRCP12"
"01417099999","2010-03-07T06:00:00","4","59.4833333","5.75","65.0","NEDRE VATS, NO","FM-12","99999","V020","040,1,N,0050,1","00420,1,9,N","015000,1,N,1","-0001,1","-0034,1","10316,1","12,0008,9,1","24,0008,9,1","0052,9,1,999999,9,9","8,1,06,1","2,1,06,1",,"08,99,1,08,1,06,1,00450,1,99,9,99,9","28,9","999,N,-0021,1","99999,9,10233,1",,"02,1","SYN094AAXX  07061 01417 11465 80405 11001 21034 30233 40316 69972 70282 886// 333 21021 44052 70007;",
"01417099999","2010-03-07T12:00:00","4","59.4833333","5.75","65.0","NEDRE VATS, NO","FM-12","99999","V020","080,1,N,0010,1","00750,1,9,N","020000,1,N,1","+0021,1","-0028,1","10316,1",,,,"8,1,06,1","2,1,06,1",,"08,99,1,08,1,03,1,00800,1,99,9,99,9",,,"99999,9,10234,1",,"02,1","SYN082AAXX  07121 01417 11570 80801 10021 21028 30234 40316 6//// 70282 883// 333 4////;",
"01417099999","2010-03-07T18:00:00","4","59.4833333","5.75","65.0","NEDRE VATS, NO","FM-12","99999","V020","070,1,N,0010,1","00420,1,9,N","010000,1,N,1","+0019,1","-0019,1","10320,1","12,0003,9,1",,,"2,1,06,1","1,1,06,1",,"08,99,1,08,1,06,1,00450,1,99,9,99,9",,"120,M,+0033,1","99999,9,10238,1",,"02,1","SYN088AAXX  07181 01417 11460 80701 10019 21019 30238 40320 69932 70221 886// 333 10033 4////;",
"01417099999","2010-03-08T06:00:00","4","59.4833333","5.75","65.0","NEDRE VATS, NO","FM-12","99999","V020","350,1,N,0030,1","01200,1,9,N","020000,1,N,1","+0002,1","-0020,1","10304,1","12,0000,9,1","24,0003,9,1","0050,9,1,999999,9,9","2,1,06,1","1,1,06,1",,"08,99,1,08,1,08,1,00800,1,99,9,99,9","28,9","999,N,-0001,1","99999,9,10221,1",,"02,1","SYN094AAXX  08061 01417 11570 83503 10002 21020 30221 40304 60002 70221 888// 333 21001 44050 70003;","Q01  00002PRCP12"
"01417099999","2010-03-08T12:00:00","4","59.4833333","5.75","65.0","NEDRE VATS, NO","FM-12","99999","V020","280,1,N,0050,1","00750,1,9,N","020000,1,N,1","+0050,1","-0012,1","10293,1",,,,"2,1,06,1","1,1,06,1",,"07,99,1,07,1,02,1,00800,1,00,1,00,1",,,"99999,9,10212,1",,"01,1","SYN082AAXX  08121 01417 11570 72805 10050 21012 30212 40293 6//// 70121 87200 333 4////;",
"01417099999","2010-03-08T18:00:00","4","59.4833333","5.75","65.0","NEDRE VATS, NO","FM-12","99999","V020","340,1,N,0010,1","22000,1,9,N","020000,1,N,1","+0040,1","-0006,1","10281,1","12,0000,9,1",,,"1,1,06,1","0,1,06,1",,"01,99,1,01,1,08,1,00800,1,00,1,00,1",,"120,M,+0071,1","99999,9,10199,1",,"01,1","SYN088AAXX  08181 01417 11570 13401 10040 21006 30199 40281 60002 70110 81800 333 10071 4////;","Q01  00002PRCP12"
"01417099999","2010-03-09T06:00:00","4","59.4833333","5.75","65.0","NEDRE VATS, NO","FM-12","99999","V020","220,1,N,0030,1","99999,9,9,N","000300,1,N,1","-0012,1","-0031,1","10292,1","12,0000,9,1","24,0000,9,1","0047,9,1,999999,9,9","4,1,06,1","2,1,06,1",,"08,99,1,08,1,06,1,99999,9,99,9,99,9","28,9","999,N,-0012,1","99999,9,10209,1",,"42,1","SYN094AAXX  09061 01417 11/03 82203 11012 21031 30209 40292 69912 74342 886// 333 21012 44047 70001;","Q01+000432PRSWM1Q02  00002PRCP24Q03  00002PRCP12"
"01417099999","2010-03-09T12:00:00","4","59.4833333","5.75","65.0","NEDRE VATS, NO","FM-12","99999","V020","210,1,N,0050,1","99999,9,9,N","020000,1,N,1","+0040,1","-0013,1","10300,1",,,,"4,1,06,1","2,1,06,1",,"06,99,1,00,1,00,1,99999,9,00,1,08,1",,,"99999,9,10219,1",,"01,1","SYN082AAXX  09121 01417 11970 62105 10040 21013 30219 40300 6//// 70142 80008 333 4////;",
"01417099999","2010-03-09T18:00:00","4","59.4833333","5.75","65.0","NEDRE VATS, NO","FM-12","99999","V020","230,1,N,0010,1","01200,1,9,N","020000,1,N,1","+0029,1","-0020,1","10303,1","12,0000,9,1",,,"2,1,06,1","1,1,06,1",,"08,99,1,08,1,08,1,00800,1,99,9,99,9",,"120,M,+0053,1","99999,9,10221,1",,"03,1","SYN088AAXX  09181 01417 11570 82301 10029 21020 30221 40303 60002 70321 888// 333 10053 4////;","Q01  00002PRCP12"
"01417099999","2010-03-10T06:00:00","4","59.4833333","5.75","65.0","NEDRE VATS, NO","FM-12","99999","V020","100,1,N,0010,1","99999,9,9,N","000400,1,N,1","+0008,1","-0017,1","10289,1","12,0000,9,1","24,0000,9,1","0045,9,1,999999,9,9","4,1,06,1","2,1,06,1",,"08,99,1,08,1,06,1,99999,9,99,9,99,9","28,9","999,N,+0006,1","99999,9,10206,1",,"44,1","SYN094AAXX  10061 01417 11/04 81001 10008 21017 30206 40289 69912 74542 886// 333 20006 44045 70001;","Q01+000452PRSWM1Q02  00002PRCP24Q03  00002PRCP12"
"01417099999","2010-03-10T12:00:00","4","59.4833333","5.75","65.0","NEDRE VATS, NO","FM-12","99999","V020","050,1,N,0010,1","99999,9,9,N","999999,9,N,1","+0015,1","-0011,1","10260,1",,,,"4,1,06,1","2,1,06,1",,"08,99,1,08,1,06,1,99999,9,99,9,99,9",,,"99999,9,10178,1",,"44,1","SYN082AAXX  10121 01417 11/// 80501 10015 21011 30178 40260 6//// 74542 886// 333 4////;","Q01+000452PRSWM1"
"01417099999","2010-03-10T18:00:00","4","59.4833333","5.75","65.0","NEDRE VATS, NO","FM-12","99999","V020","999,9,C,0000,1","99999,9,9,N","000400,1,N,1","+0016,1","-0006,1","10254,1","12,0010,9,1",,,"4,1,06,1","2,1,06,1",,"08,99,1,08,1,06,1,99999,9,99,9,99,9",,"120,M,+0022,1","99999,9,10172,1",,"44,1","SYN088AAXX  10181 01417 11/04 80000 10016 21006 30172 40254 60012 74542 886// 333 10022 4////;","Q01+000452PRSWM1"
"01417099999","2010-03-11T06:00:00","4","59.4833333","5.75","65.0","NEDRE VATS, NO","FM-12","99999","V020","040,1,N,0030,1","99999,9,9,N","000400,1,N,1","+0014,1","-0012,1","10196,1","12,0020,9,1","24,0030,9,1","0041,9,1,999999,9,9","5,1,06,1","4,1,06,1",,"08,99,1,08,1,06,1,99999,9,99,9,99,9","28,9","999,N,+0009,1","99999,9,10114,1",,"50,1","SYN094AAXX  11061 01417 11/04 80403 10014 21012 30114 40196 60022 75054 886// 333 20009 44041 70031;",
"01417099999","2010-03-11T12:00:00","4","59.4833333","5.75","65.0","NEDRE VATS, NO","FM-12","99999","V020","080,1,N,0030,1","99999,9,9,N","000700,1,N,1","+0029,1","+0003,1","10138,1",,,,"6,1,06,1","4,1,06,1",,"08,99,1,08,1,06,1,99999,9,99,9,99,9",,,"99999,9,10058,1",,"61,1","SYN082AAXX  11121 01417 11/07 80803 10029 20003 30058 40138 6//// 76164 886// 333 4////;",
"01417099999","2010-03-11T18:00:00","4","59.4833333","5.75","65.0","NEDRE VATS, NO","FM-12","99999","V020","070,1,N,0010,1","99999,9,9,N","999999,9,N,1","+0021,1","-0005,1","10120,1","12,0109,9,1",,,"6,1,06,1","4,1,06,1",,"08,99,1,08,1,06,1,99999,9,99,9,99,9",,"120,M,+0032,1","99999,9,10040,1",,"60,1","SYN088AAXX  11181 01417 11/// 80701 10021 21005 30040 40120 60112 76064 886// 333 10032 4////;",
"01417099999","2010-03-12T06:00:00","4","59.4833333","5.75","65.0","NEDRE VATS, NO","FM-12","99999","V020","310,1,N,0050,1","01200,1,9,N","020000,1,N,1","+0039,1","-0007,1","10121,1","12,0010,9,1","24,0119,9,1","0037,9,1,999999,9,9","6,1,06,1","4,1,06,1",,"08,99,1,08,1,08,1,00800,1,99,9,99,9","28,9","999,N,+0011,1","99999,9,10041,1",,"02,1","SYN094AAXX  12061 01417 11570 83105 10039 21007 30041 40121 60012 70264 888// 333 20011 44037 70119;",
"01417099999","2010-03-12T12:00:00","4","59.4833333","5.75","65.0","NEDRE VATS, NO","FM-12","99999","V020","280,1,N,0070,1","22000,1,9,N","025000,1,N,1","+0058,1","-0064,1","10140,1",,,,"1,1,06,1","0,1,06,1",,"01,99,1,01,1,02,1,00800,1,00,1,00,1",,,"99999,9,10060,1",,"01,1","SYN082AAXX  12121 01417 11575 12807 10058 21064 30060 40140 6//// 70110 81200 333 4////;",
"01417099999","2010-03-12T18:00:00","4","59.4833333","5.75","65.0","NEDRE VATS, NO","FM-12","99999","V020","290,1,N,0030,1","22000,1,9,N","026000,1,N,1","+0028,1","-0060,1","10154,1","12,0000,9,1",,,"1,1,06,1","0,1,06,1",,"01,99,1,01,1,08,1,00800,1,00,1,00,1",,"120,M,+0064,1","99999,9,10073,1",,"02,1","SYN088AAXX  12181 01417 11576 12903 10028 21060 30073 40154 60002 70210 81800 333 10064 4////;","Q01  00002PRCP12"
"01417099999","2010-03-13T06:00:00","4","59.4833333","5.75","65.0","NEDRE VATS, NO","FM-12","99999","V020","220,1,N,0050,1","00210,1,9,N","020000,1,N,1","+0035,1","-0009,1","10127,1","12,0030,9,1","24,0030,9,1","0034,9,1,999999,9,9","8,1,06,1","2,1,06,1",,"08,99,1,99,9,06,1,00250,1,02,1,99,9","28,9","999,N,+0010,1","99999,9,10047,1",,"03,1","SYN094AAXX  13061 01417 11370 82205 10035 21009 30047 40127 60032 70382 8862/ 333 20010 44034 70030;","Q01+000082SCOTLC"
"01417099999","2010-03-13T12:00:00","4","59.4833333","5.75","65.0","NEDRE VATS, NO","FM-12","99999","V020","260,1,N,0050,1","00750,1,9,N","020000,1,N,1","+0041,1","-0023,1","10125,1",,,,"8,1,06,1","2,1,06,1",,"08,99,1,99,9,06,1,00800,1,02,1,99,9",,,"99999,9,10045,1",,"02,1","SYN082AAXX  13121 01417 11570 82605 10041 21023 30045 40125 6//// 70282 8862/ 333 4////;","Q01+000082SCOTLC"
"01417099999","2010-03-13T18:00:00","4","59.4833333","5.75","65.0","NEDRE VATS, NO","FM-12","99999","V020","220,1,N,0030,1","01200,1,9,N","025000,1,N,1","+0022,1","-0049,1","10124,1","12,0030,9,1",,,"2,1,06,1","1,1,06,1",,"08,99,1,08,1,08,1,00800,1,99,9,99,9",,"120,M,+0046,1","99999,9,10044,1",,"02,1","SYN088AAXX  13181 01417 11575 82203 10022 21049 30044 40124 60032 70221 888// 333 10046 4////;",
"01417099999","2010-03-14T06:00:00","4","59.4833333","5.75","65.0","NEDRE VATS, NO","FM-12","99999","V020","999,9,C,0000,1","00210,1,9,N","004000,1,N,1","-0003,1","-0030,1","10111,1","12,0020,9,1","24,0053,9,1","0032,9,1,999999,9,9","7,1,06,1","2,1,06,1",,"08,99,1,99,9,07,1,00250,1,02,1,99,9","28,9","999,N,-0005,1","99999,9,10030,1",,"71,1","SYN094AAXX  14061 01417 11340 80000 11003 21030 30030 40111 60022 77172 8872/ 333 21005 44032 70054;","Q01+000082SCOTLC"
"01417099999","2010-03-14T12:00:00","4","59.4833333","5.75","65.0","NEDRE VATS, NO","FM-12","99999","V020","280,1,N,0050,1","00750,1,9,N","020000,1,N,1","+0018,1","-0043,1","10117,1",,,,"7,1,06,1","2,1,06,1",,"06,99,1,06,1,02,1,00800,1,00,1,00,1",,,"99999,9,10036,1",,"01,1","SYN082AAXX  14121 01417 11570 62805 10018 21043 30036 40117 6//// 70172 86200 333 4////;",
"01417099999","2010-03-14T18:00:00","4","59.4833333","5.75","65.0","NEDRE VATS, NO","FM-12","99999","V020","260,1,N,0030,1","99999,9,9,N","015000,1,N,1","+0006,1","-0042,1","10142,1","12,0020,9,1",,,"8,1,06,1","2,1,06,1",,"08,99,1,99,9,03,1,00800,1,00,1,00,1",,"120,M,+0031,1","99999,9,10061,1",,"01,1","SYN088AAXX  14181 01417 11565 82603 10006 21042 30061 40142 60022 70182 84300 333 10031 4////;","Q01+000042SCOTLC"
"01417099999","2010-03-15T06:00:00","4","59.4833333","5.75","65.0","NEDRE VATS, NO","FM-12","99999","V020","350,1,N,0030,1","22000,1,9,N","025000,1,N,1","-0019,1","-0051,1","10136,1","12,0010,9,1","24,0030,9,1","0033,9,1,999999,9,9","8,1,06,1","2,1,06,1",,"04,99,1,04,1,08,1,00800,1,00,1,00,1","28,9","999,N,-0030,1","99999,9,10054,1",,"02,1","SYN094AAXX  15061 01417 11575 43503 11019 21051 30054 40136 60012 70282 84800 333 21030 44033 70030;",
"01417099999","2010-03-15T12:00:00","4","59.4833333","5.75","65.0","NEDRE VATS, NO","FM-12","99999","V020","340,1,N,0050,1","22000,1,9,N","025000,1,N,1","+0025,1","-0124,1","10145,1",,,,"2,1,06,1","1,1,06,1",,"06,99,1,04,1,02,1,00800,1,00,1,01,1",,,"99999,9,10064,1",,"03,1","SYN082AAXX  15121 01417 11575 63405 10025 21124 30064 40145 6//// 70321 84201 333 4////;",
"01417099999","2010-03-15T18:00:00","4","59.4833333","5.75","65.0","NEDRE VATS, NO","FM-12","99999","V020","040,1,N,0030,1","00750,1,9,N","020000,1,N,1","+0009,1","-0091,1","10152,1","12,0000,9,1",,,"8,1,06,1","2,1,06,1",,"06,99,1,06,1,03,1,00800,1,00,1,00,1",,"120,M,+0039,1","99999,9,10071,1",,"02,1","SYN088AAXX  15181 01417 11570 60403 10009 21091 30071 40152 69912 70282 86300 333 10039 4////;","Q01  00002PRCP12"
"01417099999","2010-03-16T06:00:00","4","59.4833333","5.75","65.0","NEDRE VATS, NO","FM-12","99999","V020","280,1,N,0010,1","22000,1,9,N","025000,1,N,1","-0025,1","-0047,1","10180,1","12,0005,9,1","24,0008,9,1","0032,9,1,999999,9,9","8,1,06,1","2,1,06,1",,"01,99,1,01,1,08,1,00800,1,00,1,00,1","28,9","999,N,-0029,1","99999,9,10098,1",,"01,1","SYN094AAXX  16061 01417 11575 12801 11025 21047 30098 40180 69962 70182 81800 333 21029 44032 70007;",
"01417099999","2010-03-16T12:00:00","4","59.4833333","5.75","65.0","NEDRE VATS, NO","FM-12","99999","V020","170,1,N,0010,1","00210,1,9,N","007000,1,N,1","+0025,1","-0013,1","10178,1",,,,"8,1,06,1","2,1,06,1",,"08,99,1,08,1,06,1,00250,1,99,9,99,9",,,"99999,9,10097,1",,"80,1","SYN082AAXX  16121 01417 11357 81701 10025 21013 30097 40178 6//// 78082 886// 333 4////;",
"01417099999","2010-03-16T18:00:00","4","59.4833333","5.75","65.0","NEDRE VATS, NO","FM-12","99999","V020","040,1,N,0030,1","00210,1,9,N","006000,1,N,1","+0009,1","-0010,1","10170,1","12,0020,9,1",,,"8,1,06,1","2,1,06,1",,"08,99,1,08,1,06,1,00250,1,99,9,99,9",,"120,M,+0039,1","99999,9,10089,1",,"80,1","SYN088AAXX  16181 01417 11356 80403 10009 21010 30089 40170 60022 78082 886// 333 10039 4////;",
"01417099999","2010-03-17T06:00:00","4","59.4833333","5.75","65.0","NEDRE VATS, NO","FM-12","99999","V020","999,9,C,0000,1","00210,1,9,N","000800,1,N,1","+0028,1","+0007,1","10136,1","12,0119,9,1","24,0145,9,1","0030,9,1,999999,9,9","6,1,06,1","2,1,06,1",,"08,99,1,08,1,06,1,00250,1,99,9,99,9","28,9","999,N,+0005,1","99999,9,10056,1",,"61,1","SYN094AAXX  17061 01417 11308 80000 10028 20007 30056 40136 60122 76162 886// 333 20005 44030 70146;",
"01417099999","2010-03-17T12:00:00","4","59.4833333","5.75","65.0","NEDRE VATS, NO","FM-12","99999","V020","140,1,N,0010,1","00750,1,9,N","020000,1,N,1","+0049,1","-0024,1","10115,1",,,,"6,1,06,1","2,1,06,1",,"08,99,1,08,1,03,1,00800,1,99,9,99,9",,,"99999,9,10035,1",,"02,1","SYN082AAXX  17121 01417 11570 81401 10049 21024 30035 40115 6//// 70262 883// 333 4////;",
"01417099999","2010-03-17T18:00:00","4","59.4833333","5.75","65.0","NEDRE VATS, NO","FM-12","99999","V020","150,1,N,0030,1","00420,1,9,N","006000,1,N,1","+0044,1","+0013,1","10114,1","12,0020,9,1",,,"6,1,06,1","2,1,06,1",,"08,99,1,08,1,06,1,00450,1,99,9,99,9",,"120,M,+0056,1","99999,9,10034,1",,"60,1","SYN088AAXX  17181 01417 11456 81503 10044 20013 30034 40114 60022 76062 886// 333 10056 4////;",
"01417099999","2010-03-18T06:00:00","4","59.4833333","5.75","65.0","NEDRE VATS, NO","FM-12","99999","V020","040,1,N,0050,1","00420,1,9,N","007000,1,N,1","+0047,1","+0019,1","10093,1","12,0010,9,1","24,0033,9,1","0027,9,1,999999,9,9","8,1,06,1","2,1,06,1",,"08,99,1,08,1,06,1,00450,1,99,9,99,9","28,9","999,N,+0035,1","99999,9,10013,1",,"10,1","SYN094AAXX  18061 01417 11457 80405 10047 20019 30013 40093 60012 71082 886// 333 20035 44027 70032;",
"01417099999","2010-03-18T12:00:00","4","59.4833333","5.75","65.0","NEDRE VATS, NO","FM-12","99999","V020","140,1,N,0050,1","00420,1,9,N","008000,1,N,1","+0065,1","+0026,1","10071,1",,,,"8,1,06,1","2,1,06,1",,"08,99,1,08,1,06,1,00450,1,99,9,99,9",,,"99999,9,09992,1",,"10,1","SYN082AAXX  18121 01417 11458 81405 10065 20026 39992 40071 6//// 71082 886// 333 4////;",
"01417099999","2010-03-18T18:00:00","4","59.4833333","5.75","65.0","NEDRE VATS, NO","FM-12","99999","V020","040,1,N,0050,1","00420,1,9,N","008000,1,N,1","+0055,1","+0022,1","10064,1","12,0000,9,1",,,"2,1,06,1","1,1,06,1",,"08,99,1,08,1,06,1,00450,1,99,9,99,9",,"120,M,+0067,1","99999,9,09985,1",,"10,1","SYN088AAXX  18181 01417 11458 80405 10055 20022 39985 40064 69912 71021 886// 333 10067 4////;","Q01  00002PRCP12"
"01417099999","2010-03-19T06:00:00","4","59.4833333","5.75","65.0","NEDRE VATS, NO","FM-12","99999","V020","150,1,N,0070,1","00420,1,9,N","008000,1,N,1","+0067,1","+0035,1","09972,1","12,0079,9,1","24,0081,9,1","0023,9,1,999999,9,9","6,1,06,1","2,1,06,1",,"08,99,1,08,1,06,1,00450,1,99,9,99,9","28,9","999,N,+0055,1","99999,9,09894,1",,"61,1","SYN094AAXX  19061 01417 11458 81507 10067 20035 39894 49972 60082 76162 886// 333 20055 44023 70082;",
"01417099999","2010-03-19T12:00:00","4","59.4833333","5.75","65.0","NEDRE VATS, NO","FM-12","99999","V020","200,1,N,0070,1","00750,1,9,N","008000,1,N,1","+0055,1","+0016,1","09972,1",,,,"6,1,06,1","2,1,06,1",,"08,99,1,08,1,06,1,00800,1,99,9,99,9",,,"99999,9,09893,1",,"63,1","SYN082AAXX  19121 01417 11558 82007 10055 20016 39893 49972 6//// 76362 886// 333 4////;",
"01417099999","2010-03-19T18:00:00","4","59.4833333","5.75","65.0","NEDRE VATS, NO","FM-12","99999","V020","210,1,N,0100,1","00750,1,9,N","010000,1,N,1","+0069,1","+0006,1","09966,1","12,0180,9,1",,,"6,1,06,1","2,1,06,1",,"08,99,1,08,1,03,1,00800,1,99,9,99,9",,"120,M,+0073,1","99999,9,09888,1",,"02,1","SYN088AAXX  19181 01417 11560 82110 10069 20006 39888 49966 60182 70262 883// 333 10073 4////;",
"01417099999","2010-03-20T06:00:00","4","59.4833333","5.75","65.0","NEDRE VATS, NO","FM-12","99999","V020","170,1,N,0030,1","00420,1,9,N","012000,1,N,1","+0051,1","+0012,1","09981,1","12,0030,9,1","24,0213,9,1","0005,9,1,999999,9,9","8,1,06,1","2,1,06,1",,"08,99,1,08,1,06,1,00450,1,99,9,99,9","28,9","999,N,+0050,1","99999,9,09902,1",,"02,1","SYN094AAXX  20061 01417 11462 81703 10051 20012 39902 49981 60032 70282 886// 333 20050 44005 70214;",
"01417099999","2010-03-20T12:00:00","4","59.4833333","5.75","65.0","NEDRE VATS, NO","FM-12","99999","V020","999,9,C,0000,1","00750,1,9,N","010000,1,N,1","+0061,1","+0027,1","09988,1",,,,"8,1,06,1","2,1,06,1",,"08,99,1,08,1,06,1,00800,1,99,9,99,9",,,"99999,9,09909,1",,"80,1","SYN082AAXX  20121 01417 11560 80000 10061 20027 39909 49988 6//// 78082 886// 333 4////;",
"01417099999","2010-03-20T18:00:00","4","59.4833333","5.75","65.0","NEDRE VATS, NO","FM-12","99999","V020","210,1,N,0030,1","00750,1,9,N","010000,1,N,1","+0059,1","+0016,1","09989,1","12,0010,9,1",,,"8,1,06,1","2,1,06,1",,"08,99,1,08,1,06,1,00800,1,99,9,99,9",,"120,M,+0069,1","99999,9,09910,1",,"80,1","SYN088AAXX  20181 01417 11560 82103 10059 20016 39910 49989 60012 78082 886// 333 10069 4////;",
"01417099999","2010-03-21T06:00:00","4","59.4833333","5.75","65.0","NEDRE VATS, NO","FM-12","99999","V020","240,1,N,0030,1","00420,1,9,N","015000,1,N,1","+0049,1","+0021,1","10012,1","12,0099,9,1","24,0112,9,1","9999,2,9,999999,9,9","8,1,06,1","2,1,06,1",,"08,99,1,08,1,06,1,00450,1,99,9,99,9","25,9","999,N,+0031,1","99999,9,09933,1",,"02,1","SYN094AAXX  21061 01417 11465 82403 10049 20021 39933 40012 60102 70282 886// 333 20031 41998 70113;","Q01  09982SNDP  "
"01417099999","2010-03-21T12:00:00","4","59.4833333","5.75","65.0","NEDRE VATS, NO","FM-12","99999","V020","220,1,N,0050,1","00420,1,9,N","015000,1,N,1","+0068,1","+0011,1","10040,1",,,,"5,1,06,1","2,1,06,1",,"08,99,1,08,1,06,1,00450,1,99,9,99,9",,,"99999,9,09961,1",,"51,1","SYN082AAXX  21121 01417 11465 82205 10068 20011 39961 40040 6//// 75152 886// 333 4////;",
"01417099999","2010-03-21T18:00:00","4","59.4833333","5.75","65.0","NEDRE VATS, NO","FM-12","99999","V020","210,1,N,0010,1","00750,1,9,N","015000,1,N,1","+0052,1","+0017,1","10092,1","12,0003,9,1",,,"5,1,06,1","2,1,06,1",,"08,99,1,08,1,03,1,00800,1,99,9,99,9",,"120,M,+0069,1","99999,9,10013,1",,"02,1","SYN088AAXX  21181 01417 11565 82101 10052 20017 30013 40092 69932 70252 883// 333 10069 4////;",
"01417099999","2010-03-22T06:00:00","4","59.4833333","5.75","65.0","NEDRE VATS, NO","FM-12","99999","V020","140,1,N,0050,1","01200,1,9,N","020000,1,N,1","+0033,1","-0035,1","10139,1","12,0000,9,1","24,0005,9,1","9999,2,9,999999,9,9","8,1,06,1","2,1,06,1",,"08,99,1,99,9,08,1,00800,1,01,1,99,9","25,9","999,N,+0031,1","99999,9,10059,1",,"02,1","SYN094AAXX  22061 01417 11570 81405 10033 21035 30059 40139 69912 70282 8881/ 333 20031 41998 70004;","Q01+000082SCOTLCQ02  00002PRCP12Q03  09982SNDP  "
"01417099999","2010-03-22T12:00:00","4","59.4833333","5.75","65.0","NEDRE VATS, NO","FM-12","99999","V020","100,1,N,0050,1","01200,1,9,N","020000,1,N,1","+0048,1","-0027,1","10139,1",,,,"2,1,06,1","1,1,06,1",,"08,99,1,08,1,08,1,00800,1,99,9,99,9",,,"99999,9,10059,1",,"02,1","SYN082AAXX  22121 01417 11570 81005 10048 21027 30059 40139 6//// 70221 888// 333 4////;",
"01417099999","2010-03-22T18:00:00","4","59.4833333","5.75","65.0","NEDRE VATS, NO","FM-12","99999","V020","070,1,N,0070,1","00420,1,9,N","010000,1,N,1","+0049,1","+0010,1","10093,1","12,0041,9,1",,,"8,1,06,1","2,1,06,1",,"08,99,1,99,9,07,1,00450,1,02,1,99,9",,"120,M,+0064,1","99999,9,10014,1",,"80,1","SYN088AAXX  22181 01417 11460 80707 10049 20010 30014 40093 60042 78082 8872/ 333 10064 4////;","Q01+000082SCOTLC"
"01417099999","2010-03-23T06:00:00","4","59.4833333","5.75","65.0","NEDRE VATS, NO","FM-12","99999","V020","210,1,N,0050,1","00420,1,9,N","015000,1,N,1","+0046,1","+0016,1","10043,1","12,0150,9,1","24,0188,9,1","9999,2,9,999999,9,9","6,1,06,1","2,1,06,1",,"08,99,1,99,9,07,1,00450,1,02,1,99,9","25,9","999,N,+0040,1","99999,9,09964,1",,"61,1","SYN094AAXX  23061 01417 11465 82105 10046 20016 39964 40043 60152 76162 8872/ 333 20040 41998 70189;","Q01+000082SCOTLCQ02  09982SNDP  "
"01417099999","2010-03-23T12:00:00","4","59.4833333","5.75","65.0","NEDRE VATS, NO","FM-12","99999","V020","020,1,N,0070,1","00420,1,9,N","015000,1,N,1","+0079,1","+0015,1","10111,1",,,,"6,1,06,1","2,1,06,1",,"08,99,1,08,1,06,1,00450,1,99,9,99,9",,,"99999,9,10032,1",,"02,1","SYN082AAXX  23121 01417 11465 80207 10079 20015 30032 40111 6//// 70262 886// 333 4////;",
"01417099999","2010-03-23T18:00:00","4","59.4833333","5.75","65.0","NEDRE VATS, NO","FM-12","99999","V020","220,1,N,0030,1","00420,1,9,N","015000,1,N,1","+0062,1","+0015,1","10122,1","12,0020,9,1",,,"2,1,06,1","1,1,06,1",,"08,99,1,08,1,06,1,00450,1,99,9,99,9",,"120,M,+0086,1","99999,9,10043,1",,"02,1","SYN088AAXX  23181 01417 11465 82203 10062 20015 30043 40122 60022 70221 886// 333 10086 4////;",
"01417099999","2010-03-24T06:00:00","4","59.4833333","5.75","65.0","NEDRE VATS, NO","FM-12","99999","V020","080,1,N,0070,1","00750,1,9,N","025000,1,N,1","+0051,1","-0047,1","10120,1","12,0000,9,1","24,0020,9,1","9999,2,9,999999,9,9","8,1,06,1","2,1,06,1",,"08,99,1,08,1,03,1,00800,1,99,9,99,9","25,9","999,N,+0020,1","99999,9,10040,1",,"02,1","SYN094AAXX  24061 01417 11575 80807 10051 21047 30040 40120 69912 70282 883// 333 20020 41998 70020;","Q01  00002PRCP12Q02  09982SNDP  "
"01417099999","2010-03-24T12:00:00","4","59.4833333","5.75","65.0","NEDRE VATS, NO","FM-12","99999","V020","100,1,N,0070,1","00420,1,9,N","008000,1,N,1","+0053,1","+0018,1","10099,1",,,,"6,1,06,1","2,1,06,1",,"08,99,1,99,9,07,1,00450,1,02,1,99,9",,,"99999,9,10020,1",,"61,1","SYN082AAXX  24121 01417 11458 81007 10053 20018 30020 40099 6//// 76162 8872/ 333 4////;","Q01+000082SCOTLC"
"01417099999","2010-03-24T18:00:00","4","59.4833333","5.75","65.0","NEDRE VATS, NO","FM-12","99999","V020","070,1,N,0070,1","00750,1,9,N","010000,1,N,1","+0069,1","+0018,1","10094,1","12,0089,9,1",,,"6,1,06,1","2,1,06,1",,"08,99,1,08,1,03,1,00800,1,99,9,99,9",,"120,M,+0072,1","99999,9,10015,1",,"02,1","SYN088AAXX  24181 01417 11560 80707 10069 20018 30015 40094 60092 70262 883// 333 10072 4////;",
"01417099999","2010-03-25T06:00:00","4","59.4833333","5.75","65.0","NEDRE VATS, NO","FM-12","99999","V020","050,1,N,0070,1","00750,1,9,N","020000,1,N,1","+0096,1","-0020,1","10077,1","12,0010,9,1","24,0104,9,1","9999,2,9,999999,9,9","8,1,06,1","2,1,06,1",,"08,99,1,08,1,03,1,00800,1,99,9,99,9","25,9","999,N,+0065,1","99999,9,09999,1",,"02,1","SYN094AAXX  25061 01417 11570 80507 10096 21020 39999 40077 60012 70282 883// 333 20065 41998 70103;","Q01  09982SNDP  "
"01417099999","2010-03-25T12:00:00","4","59.4833333","5.75","65.0","NEDRE VATS, NO","FM-12","99999","V020","040,1,N,0070,1","00750,1,9,N","020000,1,N,1","+0104,1","-0026,1","10064,1",,,,"8,1,06,1","2,1,06,1",,"08,99,1,08,1,03,1,00800,1,99,9,99,9",,,"99999,9,09986,1",,"02,1","SYN082AAXX  25121 01417 11570 80407 10104 21026 39986 40064 6//// 70282 883// 333 4////;",
"01417099999","2010-03-25T18:00:00","4","59.4833333","5.75","65.0","NEDRE VATS, NO","FM-12","99999","V020","100,1,N,0100,1","01200,1,9,N","025000,1,N,1","+0108,1","-0022,1","10047,1","12,0000,9,1",,,"8,1,06,1","2,1,06,1",,"08,99,1,08,1,08,1,00800,1,99,9,99,9",,"120,M,+0111,1","99999,9,09970,1",,"02,1","SYN088AAXX  25181 01417 11575 81010 10108 21022 39970 40047 69902 70282 888// 333 10111 4////;","Q01  00002PRCP12"
"01417099999","2010-03-26T06:00:00","4","59.4833333","5.75","65.0","NEDRE VATS, NO","FM-12","99999","V020","030,1,N,0100,1","00750,1,9,N","020000,1,N,1","+0110,1","-0027,1","09987,1","12,9999,9,9","24,9999,9,9","9999,2,9,999999,9,9","8,1,06,1","2,1,06,1",,"08,99,1,08,1,03,1,00800,1,99,9,99,9","25,9","999,N,+0100,1","99999,9,09910,1",,"80,1","SYN094AAXX  26061 01417 11570 80310 10110 21027 39910 49987 69902 78082 883// 333 20100 41998 70000;","Q01  00002PRCP24Q02  00002PRCP12Q03  00002PRCP12Q04  00002PRCP24Q05  09982SNDP  "
"01417099999","2010-03-26T12:00:00","4","59.4833333","5.75","65.0","NEDRE VATS, NO","FM-12","99999","V020","130,1,N,0070,1","00750,1,9,N","025000,1,N,1","+0107,1","+0005,1","09995,1",,,,"8,1,06,1","2,1,06,1",,"08,99,1,08,1,02,1,00800,1,99,9,99,9",,,"99999,9,09918,1",,"02,1","SYN082AAXX  26121 01417 11575 81307 10107 20005 39918 49995 6//// 70282 882// 333 4////;",
"01417099999","2010-03-26T18:00:00","4","59.4833333","5.75","65.0","NEDRE VATS, NO","FM-12","99999","V020","140,1,N,0050,1","00750,1,9,N","025000,1,N,1","+0091,1","-0002,1","10000,1","12,0010,9,1",,,"2,1,06,1","1,1,06,1",,"05,99,1,05,1,02,1,00800,1,00,1,00,1",,"120,M,+0120,1","99999,9,09922,1",,"01,1","SYN088AAXX  26181 01417 11575 51405 10091 21002 39922 40000 60012 70121 85200 333 10120 4////;",
"01417099999","2010-03-27T06:00:00","4","59.4833333","5.75","65.0","NEDRE VATS, NO","FM-12","99999","V020","100,1,N,0070,1","01200,1,9,N","025000,1,N,1","+0065,1","-0040,1","09966,1","12,0000,9,1","24,0015,9,1","9999,2,9,999999,9,9","8,1,06,1","2,1,06,1",,"08,99,1,08,1,08,1,00800,1,99,9,99,9","25,9","999,N,+0035,1","99999,9,09888,1",,"03,1","SYN094AAXX  27061 01417 11575 81007 10065 21040 39888 49966 69912 70382 888// 333 20035 41998 70015;","Q01  00002PRCP12Q02  09982SNDP  "
"01417099999","2010-03-27T18:00:00","4","59.4833333","5.75","65.0","NEDRE VATS, NO","FM-12","99999","V020","140,1,N,0010,1","00420,1,9,N","015000,1,N,1","+0050,1","+0029,1","09960,1","12,0010,9,1",,,"8,1,06,1","2,1,06,1",,"08,99,1,08,1,06,1,00450,1,99,9,99,9",,"120,M,+0106,1","99999,9,09882,1",,"80,1","SYN088AAXX  27181 01417 11465 81401 10050 20029 39882 49960 60012 78082 886// 333 10106 4////;",
"01417099999","2010-03-28T06:00:00","4","59.4833333","5.75","65.0","NEDRE VATS, NO","FM-12","99999","V020","100,1,N,0050,1","00750,1,9,N","020000,1,N,1","+0055,1","-0005,1","09935,1","12,0010,9,1","24,0020,9,1","9999,2,9,999999,9,9","8,1,06,1","2,1,06,1",,"08,99,1,08,1,03,1,00800,1,99,9,99,9","25,9","999,N,+0036,1","99999,9,09857,1",,"02,1","SYN094AAXX  28061 01417 11570 81005 10055 21005 39857 49935 60012 70282 883// 333 20036 41998 70021;","Q01  09982SNDP  "
"01417099999","2010-03-28T12:00:00","4","59.4833333","5.75","65.0","NEDRE VATS, NO","FM-12","99999","V020","130,1,N,0050,1","00750,1,9,N","025000,1,N,1","+0058,1","+0004,1","09927,1",,,,"8,1,06,1","2,1,06,1",,"08,99,1,08,1,03,1,00800,1,99,9,99,9",,,"99999,9,09849,1",,"02,1","SYN082AAXX  28121 01417 11575 81305 10058 20004 39849 49927 6//// 70282 883// 333 4////;",
"01417099999","2010-03-28T18:00:00","4","59.4833333","5.75","65.0","NEDRE VATS, NO","FM-12","99999","V020","090,1,N,0030,1","00750,1,9,N","020000,1,N,1","+0042,1","+0016,1","09934,1","12,0079,9,1",,,"6,1,06,1","2,1,06,1",,"08,99,1,99,9,07,1,00800,1,02,1,99,9",,"120,M,+0063,1","99999,9,09856,1",,"60,1","SYN088AAXX  28181 01417 11570 80903 10042 20016 39856 49934 60082 76062 8872/ 333 10063 4////;","Q01+000082SCOTLC"
"01417099999","2010-03-29T06:00:00","4","59.4833333","5.75","65.0","NEDRE VATS, NO","FM-12","99999","V020","170,1,N,0050,1","00210,1,9,N","008000,1,N,1","+0029,1","+0001,1","09936,1","12,0061,9,1","24,0147,9,1","9999,2,9,999999,9,9","6,1,06,1","2,1,06,1",,"08,99,1,99,9,07,1,00250,1,02,1,99,9","25,9","999,N,+0019,1","99999,9,09858,1",,"61,1","SYN094AAXX  29061 01417 11358 81705 10029 20001 39858 49936 60062 76162 8872/ 333 20019 41998 70147;","Q01+000082SCOTLCQ02  09982SNDP  "
"01417099999","2010-03-29T12:00:00","4","59.4833333","5.75","65.0","NEDRE VATS, NO","FM-12","99999","V020","210,1,N,0050,1","00750,1,9,N","015000,1,N,1","+0038,1","-0059,1","09976,1",,,,"6,1,06,1","2,1,06,1",,"07,99,1,07,1,03,1,00800,1,00,1,00,1",,,"99999,9,09897,1",,"01,1","SYN082AAXX  29121 01417 11565 72105 10038 21059 39897 49976 6//// 70162 87300 333 4////;",
"01417099999","2010-03-29T18:00:00","4","59.4833333","5.75","65.0","NEDRE VATS, NO","FM-12","99999","V020","090,1,N,0010,1","22000,1,9,N","025000,1,N,1","+0009,1","-0023,1","10023,1","12,0020,9,1",,,"2,1,06,1","1,1,06,1",,"04,99,1,04,1,02,1,00800,1,00,1,00,1",,"120,M,+0052,1","99999,9,09943,1",,"01,1","SYN088AAXX  29181 01417 11575 40901 10009 21023 39943 40023 60022 70121 84200 333 10052 4////;",
"01417099999","2010-03-30T06:00:00","4","59.4833333","5.75","65.0","NEDRE VATS, NO","FM-12","99999","V020","040,1,N,0010,1","99999,9,9,N","025000,1,N,1","-0010,1","-0029,1","10014,1","12,0000,9,1","24,0023,9,1","9999,2,9,999999,9,9","8,1,06,1","2,1,06,1",,"08,99,1,08,1,00,1,00800,1,01,1,99,9","25,9","999,N,-0016,1","99999,9,09933,1",,"03,1","SYN094AAXX  30061 01417 11575 80401 11010 21029 39933 40014 69922 70382 8801/ 333 21016 41998 70023;","Q01  00002PRCP12Q02  09982SNDP  "
"01417099999","2010-03-30T12:00:00","4","59.4833333","5.75","65.0","NEDRE VATS, NO","FM-12","99999","V020","280,1,N,0030,1","00210,1,9,N","001500,1,N,1","+0009,1","-0023,1","09988,1",,,,"7,1,06,1","2,1,06,1",,"08,99,1,99,9,07,1,00250,1,02,1,99,9",,,"99999,9,09908,1",,"73,1","SYN082AAXX  30121 01417 11315 82803 10009 21023 39908 49988 6//// 77372 8872/ 333 4////;","Q01+000082SCOTLC"
"01417099999","2010-03-31T06:00:00","4","59.4833333","5.75","65.0","NEDRE VATS, NO","FM-12","99999","V020","140,1,N,0050,1","00750,1,9,N","015000,1,N,1","+0073,1","-0038,1","09909,1","12,0079,9,1",,"9999,2,9,999999,9,9","8,1,06,1","7,1,06,1",,"08,99,1,08,1,03,1,00800,1,99,9,99,9","25,9","999,N,-0010,1","99999,9,09832,1",,"80,1","SYN094AAXX  31061 01417 11565 81405 10073 21038 39832 49909 60082 78087 883// 333 21010 41998 7////;","Q01  09982SNDP  "
"01417099999","2010-03-31T12:00:00","4","59.4833333","5.75","65.0","NEDRE VATS, NO","FM-12","99999","V020","120,1,N,0050,1","00750,1,9,N","020000,1,N,1","+0055,1","+0009,1","09946,1",,,,"8,1,06,1","2,1,06,1",,"08,99,1,08,1,03,1,00800,1,99,9,99,9",,,"99999,9,09868,1",,"02,1","SYN082AAXX  31121 01417 11570 81205 10055 20009 39868 49946 6//// 70282 883// 333 4////;",
"01417099999","2010-03-31T18:00:00","4","59.4833333","5.75","65.0","NEDRE VATS, NO","FM-12","99999","V020","130,1,N,0050,1","22000,1,9,N","025000,1,N,1","+0074,1","-0059,1","09951,1","12,0061,9,1",,,"8,1,06,1","2,1,06,1",,"04,99,1,03,1,03,1,00800,1,00,1,01,1",,"120,M,+0081,1","99999,9,09874,1",,"01,1","SYN088AAXX  31181 01417 11575 41305 10074 21059 39874 49951 60062 70182 83301 333 10081 4////;",
"01417099999","2010-04-01T06:00:00","4","59.4833333","5.75","65.0","NEDRE VATS, NO","FM-12","99999","V020","100,1,N,0050,1","00750,1,9,N","025000,1,N,1","+0069,1","-0054,1","09932,1","12,0000,9,1","24,0058,9,1","9999,2,9,999999,9,9","2,1,06,1","1,1,06,1",,"08,99,1,08,1,03,1,00800,1,99,9,99,9","25,9","999,N,+0045,1","99999,9,09855,1",,"02,1","SYN094AAXX  01061 01417 11575 81005 10069 21054 39855 49932 60002 70221 883// 333 20045 41998 70058;","Q01  00002PRCP12Q02  09982SNDP  "
"01417099999","2010-04-01T18:00:00","4","59.4833333","5.75","65.0","NEDRE VATS, NO","FM-12","99999","V020","020,1,N,0030,1","00750,1,9,N","025000,1,N,1","+0047,1","-0003,1","09962,1","12,0030,9,1",,,"8,1,06,1","2,1,06,1",,"07,99,1,07,1,03,1,00800,1,00,1,00,1",,"120,M,+0087,1","99999,9,09884,1",,"01,1","SYN088AAXX  01181 01417 11575 70203 10047 21003 39884 49962 60032 70182 87300 333 10087 4////;",
"01417099999","2010-04-02T06:00:00","4","59.4833333","5.75","65.0","NEDRE VATS, NO","FM-12","99999","V020","060,1,N,0050,1","00420,1,9,N","007000,1,N,1","+0030,1","-0001,1","10015,1","12,0099,9,1","24,0127,9,1","9999,2,9,999999,9,9","6,1,06,1","2,1,06,1",,"08,99,1,08,1,06,1,00450,1,99,9,99,9","25,9","999,N,+0020,1","99999,9,09935,1",,"60,1","SYN094AAXX  02061 01417 11457 80605 10030 21001 39935 40015 60102 76062 886// 333 20020 41998 70126;","Q01  09982SNDP  "
"01417099999","2010-04-02T12:00:00","4","59.4833333","5.75","65.0","NEDRE VATS, NO","FM-12","99999","V020","140,1,N,0050,1","00420,1,9,N","008000,1,N,1","+0041,1","-0005,1","10063,1",,,,"6,1,06,1","2,1,06,1",,"08,99,1,08,1,06,1,00450,1,99,9,99,9",,,"99999,9,09983,1",,"60,1","SYN082AAXX  02121 01417 11458 81405 10041 21005 39983 40063 6//// 76062 886// 333 4////;",
"01417099999","2010-04-02T18:00:00","4","59.4833333","5.75","65.0","NEDRE VATS, NO","FM-12","99999","V020","260,1,N,0050,1","00420,1,9,N","009000,1,N,1","+0034,1","-0011,1","10084,1","12,0130,9,1",,,"8,1,06,1","6,1,06,1",,"08,99,1,08,1,06,1,00450,1,99,9,99,9",,"120,M,+0066,1","99999,9,10004,1",,"80,1","SYN088AAXX  02181 01417 11459 82605 10034 21011 30004 40084 60132 78086 886// 333 10066 4////;",
"01417099999","2010-04-03T06:00:00","4","59.4833333","5.75","65.0","NEDRE VATS, NO","FM-12","99999","V020","080,1,N,0070,1","22000,1,9,N","025000,1,N,1","+0043,1","-0037,1","10102,1","12,0020,9,1","24,0150,9,1","9999,2,9,999999,9,9","8,1,06,1","2,1,06,1",,"04,99,1,04,1,02,1,00800,1,00,1,00,1","25,9","999,N,+0015,1","99999,9,10022,1",,"01,1","SYN094AAXX  03061 01417 11575 40807 10043 21037 30022 40102 60022 70182 84200 333 20015 41998 70149;","Q01  09982SNDP  "
"01417099999","2010-04-03T12:00:00","4","59.4833333","5.75","65.0","NEDRE VATS, NO","FM-12","99999","V020","170,1,N,0070,1","22000,1,9,N","025000,1,N,1","+0103,1","-0093,1","10107,1",,,,"2,1,06,1","1,1,06,1",,"03,99,1,02,1,02,1,00800,1,00,1,01,1",,,"99999,9,10029,1",,"01,1","SYN082AAXX  03121 01417 11575 31707 10103 21093 30029 40107 6//// 70121 82201 333 4////;",
"01417099999","2010-04-03T18:00:00","4","59.4833333","5.75","65.0","NEDRE VATS, NO","FM-12","99999","V020","110,1,N,0070,1","22000,1,9,N","025000,1,N,1","+0083,1","-0100,1","10108,1","12,0000,9,1",,,"2,1,06,1","1,1,06,1",,"03,99,1,01,1,02,1,00800,1,00,1,08,1",,"120,M,+0106,1","99999,9,10029,1",,"02,1","SYN088AAXX  03181 01417 11575 31107 10083 21100 30029 40108 60002 70221 81208 333 10106 4////;","Q01  00002PRCP12"
"01417099999","2010-04-04T06:00:00","4","59.4833333","5.75","65.0","NEDRE VATS, NO","FM-12","99999","V020","040,1,N,0100,1","01200,1,9,N","025000,1,N,1","+0068,1","-0108,1","10096,1","12,0000,9,1","24,0000,9,1","9999,2,9,999999,9,9","2,1,06,1","1,1,06,1",,"07,99,1,07,1,08,1,00800,1,00,1,00,1","25,9","999,N,+0065,1","99999,9,10017,1",,"02,1","SYN094AAXX  04061 01417 11575 70410 10068 21108 30017 40096 60002 70221 87800 333 20065 41998 70000;","Q01  00002PRCP24Q02  00002PRCP12Q03  09982SNDP  "
"01417099999","2010-04-04T12:00:00","4","59.4833333","5.75","65.0","NEDRE VATS, NO","FM-12","99999","V020","190,1,N,0030,1","01200,1,9,N","025000,1,N,1","+0075,1","-0117,1","10103,1",,,,"2,1,06,1","1,1,06,1",,"08,99,1,08,1,08,1,00800,1,99,9,99,9",,,"99999,9,10024,1",,"03,1","SYN082AAXX  04121 01417 11575 81903 10075 21117 30024 40103 6//// 70321 888// 333 4////;",
"01417099999","2010-04-04T18:00:00","4","59.4833333","5.75","65.0","NEDRE VATS, NO","FM-12","99999","V020","280,1,N,0030,1","01200,1,9,N","025000,1,N,1","+0078,1","-0114,1","10123,1","12,0000,9,1",,,"2,1,06,1","1,1,06,1",,"08,99,1,08,1,08,1,00800,1,99,9,99,9",,"120,M,+0086,1","99999,9,10044,1",,"02,1","SYN088AAXX  04181 01417 11575 82803 10078 21114 30044 40123 60002 70221 888// 333 10086 4////;","Q01  00002PRCP12"
"01417099999","2010-04-05T06:00:00","4","59.4833333","5.75","65.0","NEDRE VATS, NO","FM-12","99999","V020","210,1,N,0010,1","01200,1,9,N","020000,1,N,1","+0022,1","+0001,1","10149,1","12,0003,9,1","24,0003,9,1","9999,2,9,999999,9,9","8,1,06,1","2,1,06,1",,"07,99,1,07,1,08,1,00800,1,00,1,00,1","25,9","999,N,+0016,1","99999,9,10068,1",,"01,1","SYN094AAXX  05061 01417 11570 72101 10022 20001 30068 40149 69932 70182 87800 333 20016 41998 70003;","Q01  09982SNDP  "
"01417099999","2010-04-05T12:00:00","4","59.4833333","5.75","65.0","NEDRE VATS, NO","FM-12","99999","V020","220,1,N,0050,1","01200,1,9,N","025000,1,N,1","+0073,1","-0041,1","10169,1",,,,"2,1,06,1","1,1,06,1",,"08,99,1,08,1,08,1,00800,1,99,9,99,9",,,"99999,9,10090,1",,"03,1","SYN082AAXX  05121 01417 11575 82205 10073 21041 30090 40169 6//// 70321 888// 333 4////;",
"01417099999","2010-04-05T18:00:00","4","59.4833333","5.75","65.0","NEDRE VATS, NO","FM-12","99999","V020","160,1,N,0070,1","01200,1,9,N","025000,1,N,1","+0071,1","-0055,1","10180,1","12,0000,9,1",,,"2,1,06,1","1,1,06,1",,"06,99,1,06,1,08,1,00800,1,00,1,00,1",,"120,M,+0088,1","99999,9,10100,1",,"01,1","SYN088AAXX  05181 01417 11575 61607 10071 21055 30100 40180 60002 70121 86800 333 10088 4////;","Q01  00002PRCP12"
"01417099999","2010-04-06T06:00:00","4","59.4833333","5.75","65.0","NEDRE VATS, NO","FM-12","99999","V020","070,1,N,0050,1","00750,1,9,N","020000,1,N,1","+0068,1","-0011,1","10170,1","12,0005,9,1","24,0005,9,1","9999,2,9,999999,9,9","8,1,06,1","2,1,06,1",,"08,99,1,08,1,03,1,00800,1,99,9,99,9","25,9","999,N,+0050,1","99999,9,10091,1",,"03,1","SYN094AAXX  06061 01417 11570 80705 10068 21011 30091 40170 69962 70382 883// 333 20050 41998 70006;","Q01  09982SNDP  "
"01417099999","2010-04-06T12:00:00","4","59.4833333","5.75","65.0","NEDRE VATS, NO","FM-12","99999","V020","150,1,N,0070,1","00750,1,9,N","025000,1,N,1","+0102,1","-0031,1","10171,1",,,,"2,1,06,1","1,1,06,1",,"08,99,1,08,1,03,1,00800,1,99,9,99,9",,,"99999,9,10092,1",,"02,1","SYN082AAXX  06121 01417 11575 81507 10102 21031 30092 40171 6//// 70221 883// 333 4////;",
"01417099999","2010-04-06T18:00:00","4","59.4833333","5.75","65.0","NEDRE VATS, NO","FM-12","99999","V020","130,1,N,0100,1","01200,1,9,N","025000,1,N,1","+0101,1","-0042,1","10169,1","12,0000,9,1",,,"2,1,06,1","1,1,06,1",,"08,99,1,08,1,08,1,00800,1,99,9,99,9",,"120,M,+0107,1","99999,9,10091,1",,"02,1","SYN088AAXX  06181 01417 11575 81310 10101 21042 30091 40169 60002 70221 888// 333 10107 4////;","Q01  00002PRCP12"
"01417099999","2010-04-07T06:00:00","4","59.4833333","5.75","65.0","NEDRE VATS, NO","FM-12","99999","V020","040,1,N,0100,1","01200,1,9,N","025000,1,N,1","+0100,1","-0033,1","10171,1","12,0000,9,1","24,0000,9,1",,"2,1,06,1","1,1,06,1",,"08,99,1,08,1,08,1,00800,1,99,9,99,9",,"999,N,+0094,1","99999,9,10092,1",,"02,1","SYN094AAXX  07061 01417 11575 80410 10100 21033 30092 40171 60002 70221 888// 333 20094 4//// 70000;","Q01  00002PRCP24Q02  00002PRCP12"
"01417099999","2010-04-07T12:00:00","4","59.4833333","5.75","65.0","NEDRE VATS, NO","FM-12","99999","V020","100,1,N,0050,1","99999,9,9,N","025000,1,N,1","+0136,1","-0040,1","10176,1",,,,"2,1,06,1","1,1,06,1",,"08,99,1,08,1,00,1,00800,1,01,1,99,9",,,"99999,9,10098,1",,"02,1","SYN082AAXX  07121 01417 11575 81005 10136 21040 30098 40176 6//// 70221 8801/ 333 4////;",
"01417099999","2010-04-07T18:00:00","4","59.4833333","5.75","65.0","NEDRE VATS, NO","FM-12","99999","V020","320,1,N,0030,1","00420,1,9,N","015000,1,N,1","+0083,1","+0017,1","10191,1","12,0000,9,1",,,"2,1,06,1","1,1,06,1",,"08,99,1,08,1,06,1,00450,1,99,9,99,9",,"120,M,+0139,1","99999,9,10112,1",,"02,1","SYN088AAXX  07181 01417 11465 83203 10083 20017 30112 40191 60002 70221 886// 333 10139 4////;","Q01  00002PRCP12"
"01417099999","2010-04-08T06:00:00","4","59.4833333","5.75","65.0","NEDRE VATS, NO","FM-12","99999","V020","210,1,N,0010,1","00750,1,9,N","008000,1,N,1","+0057,1","+0029,1","10196,1","12,9999,9,9","24,9999,9,9",,"8,1,06,1","2,1,06,1",,"08,99,1,08,1,03,1,00800,1,99,9,99,9",,"999,N,+0056,1","99999,9,10116,1",,"80,1","SYN094AAXX  08061 01417 11558 82101 10057 20029 30116 40196 69912 78082 883// 333 20056 4//// 70001;","Q01  00002PRCP24Q02  00002PRCP12Q03  00002PRCP12Q04  00002PRCP24"
"01417099999","2010-04-08T12:00:00","4","59.4833333","5.75","65.0","NEDRE VATS, NO","FM-12","99999","V020","250,1,N,0070,1","00750,1,9,N","025000,1,N,1","+0108,1","-0069,1","10213,1",,,,"8,1,06,1","2,1,06,1",,"08,99,1,08,1,02,1,00800,1,99,9,99,9",,,"99999,9,10134,1",,"02,1","SYN082AAXX  08121 01417 11575 82507 10108 21069 30134 40213 6//// 70282 882// 333 4////;",
"01417099999","2010-04-08T18:00:00","4","59.4833333","5.75","65.0","NEDRE VATS, NO","FM-12","99999","V020","040,1,N,0010,1","00420,1,9,N","020000,1,N,1","+0058,1","+0019,1","10218,1","12,0010,9,1",,,"8,1,06,1","2,1,06,1",,"08,99,1,08,1,06,1,00450,1,99,9,99,9",,"120,M,+0114,1","99999,9,10138,1",,"80,1","SYN088AAXX  08181 01417 11470 80401 10058 20019 30138 40218 60012 78082 886// 333 10114 4////;",
"01417099999","2010-04-09T06:00:00","4","59.4833333","5.75","65.0","NEDRE VATS, NO","FM-12","99999","V020","280,1,N,0010,1","00750,1,9,N","020000,1,N,1","+0042,1","+0019,1","10251,1","12,0109,9,1","24,0119,9,1",,"8,1,06,1","2,1,06,1",,"08,99,1,08,1,03,1,00800,1,99,9,99,9",,"999,N,+0040,1","99999,9,10170,1",,"02,1","SYN094AAXX  09061 01417 11570 82801 10042 20019 30170 40251 60112 70282 883// 333 20040 4//// 70120;",
"01417099999","2010-04-09T12:00:00","4","59.4833333","5.75","65.0","NEDRE VATS, NO","FM-12","99999","V020","999,9,9,9999,9","99999,9,9,N","999999,9,N,1","+0095,1","-0001,1","99999,9",,,,,,,,,,,,,"SYN058AAXX  09121 01417 13/// ///// 10095 21001 6//// 333 4////;",
"01417099999","2010-04-09T18:00:00","4","59.4833333","5.75","65.0","NEDRE VATS, NO","FM-12","99999","V020","999,9,9,9999,9","99999,9,9,N","999999,9,N,1","+0070,1","-0050,1","99999,9","12,0000,9,1",,,,,,,,,,,,"SYN058AAXX  09181 01417 13/// ///// 10070 21050 60002 333 4////;","Q01  00002PRCP12"
"01417099999","2010-04-10T06:00:00","4","59.4833333","5.75","65.0","NEDRE VATS, NO","FM-12","99999","V020","999,9,9,9999,9","99999,9,9,N","999999,9,N,1","+0075,1","+0051,1","99999,9","12,0000,9,1","24,0000,9,1",,,,,,,,,,,"SYN064AAXX  10061 01417 13/// ///// 10075 20051 60002 333 4//// 70000;","Q01  00002PRCP24Q02  00002PRCP12"
"01417099999","2010-04-10T12:00:00","4","59.4833333","5.75","65.0","NEDRE VATS, NO","FM-12","99999","V020","999,9,9,9999,9","99999,9,9,N","020000,1,N,1","+0110,1","-0072,1","99999,9",,,,"9,1,06,1","2,1,06,1",,,,,,,"17,1","SYN064AAXX  10121 01417 11/70 ///// 10110 21072 6//// 71792 333 4////;",
"01417099999","2010-04-10T18:00:00","4","59.4833333","5.75","65.0","NEDRE VATS, NO","FM-12","99999","V020","999,9,9,9999,9","99999,9,9,N","025000,1,N,1","+0080,1","-0044,1","99999,9","12,0000,9,1",,,"3,1,06,1","2,1,06,1",,,,"120,M,+0102,1",,,"02,1","SYN070AAXX  10181 01417 11/75 ///// 10080 21044 60002 70232 333 10102 4////;","Q01  00002PRCP12"
"01417099999","2010-04-11T06:00:00","4","59.4833333","5.75","65.0","NEDRE VATS, NO","FM-12","99999","V020","999,9,9,9999,9","99999,9,9,N","025000,1,N,1","+0055,1","-0043,1","99999,9","12,0000,9,1","24,0000,9,1",,"3,1,06,1","2,1,06,1",,,,"999,N,+0038,1",,,"02,1","SYN076AAXX  11061 01417 11/75 ///// 10055 21043 60002 70232 333 20038 4//// 70000;","Q01  00002PRCP24Q02  00002PRCP12"
"01417099999","2010-04-11T12:00:00","4","59.4833333","5.75","65.0","NEDRE VATS, NO","FM-12","99999","V020","999,9,9,9999,9","99999,9,9,N","020000,1,N,1","+0142,1","-0077,1","99999,9",,,,"3,1,06,1","3,1,06,1",,,,,,,"03,1","SYN064AAXX  11121 01417 11/70 ///// 10142 21077 6//// 70333 333 4////;",
"01417099999","2010-04-11T18:00:00","4","59.4833333","5.75","65.0","NEDRE VATS, NO","FM-12","99999","V020","999,9,9,9999,9","99999,9,9,N","999999,9,N,1","+0090,1","-0052,1","99999,9","12,0000,9,1",,,,,,,,,,,,"SYN058AAXX  11181 01417 13/// ///// 10090 21052 60002 333 4////;","Q01  00002PRCP12"
"01417099999","2010-04-12T06:00:00","4","59.4833333","5.75","65.0","NEDRE VATS, NO","FM-12","99999","V020","999,9,9,9999,9","99999,9,9,N","025000,1,N,1","+0002,1","-0019,1","99999,9","12,0000,9,1","24,0000,9,1",,"3,1,06,1","3,1,06,1",,,,"999,N,+0001,1",,,"00,1","SYN076AAXX  12061 01417 11/75 ///// 10002 21019 60002 70033 333 20001 4//// 70000;","Q01  00002PRCP24Q02  00002PRCP12"
"01417099999","2010-04-12T12:00:00","4","59.4833333","5.75","65.0","NEDRE VATS, NO","FM-12","99999","V020","230,1,N,0050,1","22000,1,9,N","030000,1,N,1","+0132,1","-0074,1","10298,1",,,,"1,1,06,1","0,1,06,1",,"01,99,1,00,1,00,1,99999,9,00,1,01,1",,,"99999,9,10219,1",,"02,1","SYN082AAXX  12121 01417 11980 12305 10132 21074 30219 40298 6//// 70210 80001 333 4////;",
"01417099999","2010-04-12T18:00:00","4","59.4833333","5.75","65.0","NEDRE VATS, NO","FM-12","99999","V020","220,1,N,0030,1","22000,1,9,N","025000,1,N,1","+0101,1","-0095,1","10275,1","12,0000,9,1",,,"1,1,06,1","0,1,06,1",,"03,99,1,01,1,02,1,00800,1,00,1,01,1",,"120,M,+0141,1","99999,9,10195,1",,"03,1","SYN088AAXX  12181 01417 11575 32203 10101 21095 30195 40275 60002 70310 81201 333 10141 4////;","Q01  00002PRCP12"
"01417099999","2010-04-13T06:00:00","4","59.4833333","5.75","65.0","NEDRE VATS, NO","FM-12","99999","V020","240,1,N,0030,1","22000,1,9,N","025000,1,N,1","+0031,1","+0003,1","10248,1","12,0000,9,1","24,0000,9,1",,"2,1,06,1","1,1,06,1",,"04,99,1,00,1,00,1,99999,9,00,1,06,1",,"999,N,+0025,1","99999,9,10167,1",,"03,1","SYN094AAXX  13061 01417 11975 42403 10031 20003 30167 40248 60002 70321 80006 333 20025 4//// 70000;","Q01  00002PRCP24Q02  00002PRCP12"
"01417099999","2010-04-13T12:00:00","4","59.4833333","5.75","65.0","NEDRE VATS, NO","FM-12","99999","V020","080,1,N,0050,1","22000,1,9,N","025000,1,N,1","+0143,1","-0059,1","10246,1",,,,"1,1,06,1","0,1,06,1",,"01,99,1,01,1,02,1,00800,1,00,1,00,1",,,"99999,9,10168,1",,"01,1","SYN082AAXX  13121 01417 11575 10805 10143 21059 30168 40246 6//// 70110 81200 333 4////;",
"01417099999","2010-04-13T18:00:00","4","59.4833333","5.75","65.0","NEDRE VATS, NO","FM-12","99999","V020","999,9,C,0000,1","22000,1,9,N","025000,1,N,1","+0131,1","-0075,1","10239,1","12,0000,9,1",,,"1,1,06,1","0,1,06,1","00,1,+99999,9,99,9","00,99,1,00,1,00,1,99999,9,00,1,00,1",,"120,M,+0163,1","99999,9,10161,1",,"01,1","SYN082AAXX  13181 01417 11975 00000 10131 21075 30161 40239 60002 70110 333 10163 4////;","Q01  00002PRCP12"
"01417099999","2010-04-14T06:00:00","4","59.4833333","5.75","65.0","NEDRE VATS, NO","FM-12","99999","V020","140,1,N,0010,1","22000,1,9,N","030000,1,N,1","+0019,1","-0048,1","10267,1","12,0000,9,1","24,0000,9,1",,"1,1,06,1","0,1,06,1",,"01,99,1,00,1,00,1,99999,9,00,1,01,1",,"999,N,+0019,1","99999,9,10185,1",,"03,1","SYN094AAXX  14061 01417 11980 11401 10019 21048 30185 40267 60002 70310 80001 333 20019 4//// 70000;","Q01  00002PRCP24Q02  00002PRCP12"
"01417099999","2010-04-14T12:00:00","4","59.4833333","5.75","65.0","NEDRE VATS, NO","FM-12","99999","V020","270,1,N,0050,1","22000,1,9,N","030000,1,N,1","+0141,1","-0061,1","10242,1",,,,"1,1,06,1","0,1,06,1",,"01,99,1,00,1,00,1,99999,9,00,1,01,1",,,"99999,9,10164,1",,"02,1","SYN082AAXX  14121 01417 11980 12705 10141 21061 30164 40242 6//// 70210 80001 333 4////;",
"01417099999","2010-04-14T18:00:00","4","59.4833333","5.75","65.0","NEDRE VATS, NO","FM-12","99999","V020","100,1,N,0050,1","22000,1,9,N","030000,1,N,1","+0113,1","-0052,1","10238,1","12,0000,9,1",,,"1,1,06,1","0,1,06,1",,"01,99,1,00,1,00,1,99999,9,00,1,01,1",,"120,M,+0140,1","99999,9,10160,1",,"02,1","SYN088AAXX  14181 01417 11980 11005 10113 21052 30160 40238 60002 70210 80001 333 10140 4////;","Q01  00002PRCP12"
"01417099999","2010-04-15T06:00:00","4","59.4833333","5.75","65.0","NEDRE VATS, NO","FM-12","99999","V020","170,1,N,0030,1","00420,1,9,N","010000,1,N,1","+0039,1","+0013,1","10207,1","12,9999,9,9","24,9999,9,9",,"8,1,06,1","2,1,06,1",,"08,99,1,08,1,03,1,00450,1,99,9,99,9",,"999,N,+0020,1","99999,9,10126,1",,"80,1","SYN094AAXX  15061 01417 11460 81703 10039 20013 30126 40207 69912 78082 883// 333 20020 4//// 70001;","Q01  00002PRCP24Q02  00002PRCP12Q03  00002PRCP12Q04  00002PRCP24"
"01417099999","2010-04-15T12:00:00","4","59.4833333","5.75","65.0","NEDRE VATS, NO","FM-12","99999","V020","250,1,N,0050,1","00750,1,9,N","025000,1,N,1","+0082,1","+0020,1","10194,1",,,,"8,1,06,1","2,1,06,1",,"07,99,1,07,1,03,1,00800,1,00,1,00,1",,,"99999,9,10114,1",,"01,1","SYN082AAXX  15121 01417 11575 72505 10082 20020 30114 40194 6//// 70182 87300 333 4////;",
"01417099999","2010-04-15T18:00:00","4","59.4833333","5.75","65.0","NEDRE VATS, NO","FM-12","99999","V020","260,1,N,0070,1","00750,1,9,N","020000,1,N,1","+0073,1","-0004,1","10172,1","12,0020,9,1",,,"8,1,06,1","2,1,06,1",,"08,99,1,08,1,03,1,00800,1,99,9,99,9",,"120,M,+0097,1","99999,9,10092,1",,"03,1","SYN088AAXX  15181 01417 11570 82607 10073 21004 30092 40172 60022 70382 883// 333 10097 4////;",
"01417099999","2010-04-16T06:00:00","4","59.4833333","5.75","65.0","NEDRE VATS, NO","FM-12","99999","V020","310,1,N,0050,1","00750,1,9,N","020000,1,N,1","+0035,1","-0024,1","10204,1","12,0020,9,1","24,0038,9,1",,"8,1,06,1","2,1,06,1",,"07,99,1,07,1,03,1,00800,1,00,1,00,1",,"999,N,+0032,1","99999,9,10123,1",,"01,1","SYN094AAXX  16061 01417 11570 73105 10035 21024 30123 40204 60022 70182 87300 333 20032 4//// 70037;",
"01417099999","2010-04-16T12:00:00","4","59.4833333","5.75","65.0","NEDRE VATS, NO","FM-12","99999","V020","200,1,N,0070,1","00750,1,9,N","020000,1,N,1","+0072,1","-0076,1","10214,1",,,,"2,1,06,1","1,1,06,1",,"06,99,1,06,1,02,1,00800,1,00,1,00,1",,,"99999,9,10134,1",,"01,1","SYN082AAXX  16121 01417 11570 62007 10072 21076 30134 40214 6//// 70121 86200 333 4////;",
"01417099999","2010-04-16T18:00:00","4","59.4833333","5.75","65.0","NEDRE VATS, NO","FM-12","99999","V020","040,1,N,0050,1","00420,1,9,N","008000,1,N,1","+0043,1","+0017,1","10174,1","12,0010,9,1",,,"8,1,06,1","2,1,06,1",,"08,99,1,99,9,07,1,00450,1,02,1,99,9",,"120,M,+0086,1","99999,9,10094,1",,"80,1","SYN088AAXX  16181 01417 11458 80405 10043 20017 30094 40174 60012 78082 8872/ 333 10086 4////;","Q01+000082SCOTLC"
"01417099999","2010-04-17T06:00:00","4","59.4833333","5.75","65.0","NEDRE VATS, NO","FM-12","99999","V020","220,1,N,0050,1","00750,1,9,N","007000,1,N,1","+0068,1","+0036,1","10082,1","12,0381,9,1","24,0391,9,1",,"6,1,06,1","2,1,06,1",,"08,99,1,99,9,07,1,00800,1,02,1,99,9",,"999,N,+0031,1","99999,9,10003,1",,"63,1","SYN094AAXX  17061 01417 11557 82205 10068 20036 30003 40082 60382 76362 8872/ 333 20031 4//// 70391;","Q01+000082SCOTLC"
"01417099999","2010-04-17T12:00:00","4","59.4833333","5.75","65.0","NEDRE VATS, NO","FM-12","99999","V020","280,1,N,0070,1","00420,1,9,N","008000,1,N,1","+0071,1","+0032,1","10062,1",,,,"6,1,06,1","2,1,06,1",,"08,99,1,08,1,06,1,00450,1,99,9,99,9",,,"99999,9,09983,1",,"62,1","SYN082AAXX  17121 01417 11458 82807 10071 20032 39983 40062 6//// 76262 886// 333 4////;",
"01417099999","2010-04-18T06:00:00","4","59.4833333","5.75","65.0","NEDRE VATS, NO","FM-12","99999","V020","280,1,N,0030,1","00420,1,9,N","020000,1,N,1","+0022,1","-0007,1","10067,1","12,0020,9,1",,,"8,1,06,1","2,1,06,1",,"07,99,1,07,1,03,1,00450,1,00,1,00,1",,"999,N,+0015,1","99999,9,09987,1",,"03,1","SYN094AAXX  18061 01417 11470 72803 10022 21007 39987 40067 60022 70382 87300 333 20015 4//// 7////;",
"01417099999","2010-04-18T12:00:00","4","59.4833333","5.75","65.0","NEDRE VATS, NO","FM-12","99999","V020","290,1,N,0050,1","22000,1,9,N","025000,1,N,1","+0048,1","-0050,1","10108,1",,,,"8,1,06,1","2,1,06,1",,"04,99,1,04,1,02,1,00800,1,00,1,00,1",,,"99999,9,10028,1",,"01,1","SYN082AAXX  18121 01417 11575 42905 10048 21050 30028 40108 6//// 70182 84200 333 4////;",
"01417099999","2010-04-18T18:00:00","4","59.4833333","5.75","65.0","NEDRE VATS, NO","FM-12","99999","V020","280,1,N,0030,1","00750,1,9,N","020000,1,N,1","+0032,1","-0064,1","10128,1","12,0020,9,1",,,"8,1,06,1","2,1,06,1",,"05,99,1,05,1,03,1,00800,1,00,1,00,1",,"120,M,+0063,1","99999,9,10047,1",,"03,1","SYN088AAXX  18181 01417 11570 52803 10032 21064 30047 40128 60022 70382 85300 333 10063 4////;",
"01417099999","2010-04-19T06:00:00","4","59.4833333","5.75","65.0","NEDRE VATS, NO","FM-12","99999","V020","999,9,C,0000,1","22000,1,9,N","025000,1,N,1","-0014,1","-0039,1","10157,1","12,0000,9,1","24,0020,9,1",,"2,1,06,1","1,1,06,1",,"04,99,1,03,1,02,1,00800,1,00,1,04,1",,"999,N,-0021,1","99999,9,10075,1",,"01,1","SYN094AAXX  19061 01417 11575 40000 11014 21039 30075 40157 60002 70121 83204 333 21021 4//// 70021;","Q01  00002PRCP12"
"01417099999","2010-04-19T12:00:00","4","59.4833333","5.75","65.0","NEDRE VATS, NO","FM-12","99999","V020","280,1,N,0050,1","00750,1,9,N","025000,1,N,1","+0055,1","-0094,1","10159,1",,,,"8,1,06,1","2,1,06,1",,"07,99,1,07,1,03,1,00800,1,00,1,00,1",,,"99999,9,10079,1",,"03,1","SYN082AAXX  19121 01417 11575 72805 10055 21094 30079 40159 6//// 70382 87300 333 4////;",
"01417099999","2010-04-19T18:00:00","4","59.4833333","5.75","65.0","NEDRE VATS, NO","FM-12","99999","V020","270,1,N,0070,1","22000,1,9,N","025000,1,N,1","+0049,1","-0096,1","10143,1","12,0000,9,1",,,"2,1,06,1","1,1,06,1",,"04,99,1,04,1,02,1,00800,1,00,1,00,1",,"120,M,+0082,1","99999,9,10063,1",,"01,1","SYN088AAXX  19181 01417 11575 42707 10049 21096 30063 40143 69902 70121 84200 333 10082 4////;","Q01  00002PRCP12"
"01417099999","2010-04-20T06:00:00","4","59.4833333","5.75","65.0","NEDRE VATS, NO","FM-12","99999","V020","100,1,N,0070,1","99999,9,9,N","025000,1,N,1","+0022,1","-0090,1","10090,1","12,0000,9,1","24,0000,9,1",,"2,1,06,1","1,1,06,1",,"08,99,1,08,1,00,1,00800,1,01,1,99,9",,"999,N,-0009,1","99999,9,10010,1",,"03,1","SYN094AAXX  20061 01417 11575 81007 10022 21090 30010 40090 60002 70321 8801/ 333 21009 4//// 70000;","Q01  00002PRCP24Q02  00002PRCP12"
"01417099999","2010-04-20T12:00:00","4","59.4833333","5.75","65.0","NEDRE VATS, NO","FM-12","99999","V020","090,1,N,0070,1","22000,1,9,N","025000,1,N,1","+0072,1","-0114,1","10071,1",,,,"2,1,06,1","1,1,06,1",,"04,99,1,01,1,02,1,00800,1,00,1,01,1",,,"99999,9,09993,1",,"01,1","SYN082AAXX  20121 01417 11575 40907 10072 21114 39993 40071 6//// 70121 81201 333 4////;",
"01417099999","2010-04-20T18:00:00","4","59.4833333","5.75","65.0","NEDRE VATS, NO","FM-12","99999","V020","080,1,N,0010,1","22000,1,9,N","025000,1,N,1","+0069,1","-0103,1","10072,1","12,0000,9,1",,,"2,1,06,1","1,1,06,1",,"04,99,1,02,1,02,1,00800,1,00,1,01,1",,"120,M,+0091,1","99999,9,09994,1",,"02,1","SYN088AAXX  20181 01417 11575 40801 10069 21103 39994 40072 60002 70221 82201 333 10091 4////;","Q01  00002PRCP12"
"01417099999","2010-04-21T06:00:00","4","59.4833333","5.75","65.0","NEDRE VATS, NO","FM-12","99999","V020","100,1,N,0030,1","22000,1,9,N","075000,1,N,1","+0004,1","-0017,1","10090,1","12,0000,9,1","24,0000,9,1",,"1,1,06,1","0,1,06,1",,"01,99,1,01,1,02,1,00800,1,00,1,00,1",,"999,N,+0004,1","99999,9,10009,1",,"01,1","SYN094AAXX  21061 01417 11589 11003 10004 21017 30009 40090 60002 70110 81200 333 20004 4//// 70000;","Q01  00002PRCP24Q02  00002PRCP12"
"01417099999","2010-04-21T12:00:00","4","59.4833333","5.75","65.0","NEDRE VATS, NO","FM-12","99999","V020","260,1,N,0050,1","22000,1,9,N","030000,1,N,1","+0068,1","-0087,1","10102,1",,,,"2,1,06,1","1,1,06,1",,"04,99,1,04,1,02,1,00800,1,00,1,00,1",,,"99999,9,10023,1",,"03,1","SYN082AAXX  21121 01417 11580 42605 10068 21087 30023 40102 6//// 70321 84200 333 4////;",
"01417099999","2010-04-21T18:00:00","4","59.4833333","5.75","65.0","NEDRE VATS, NO","FM-12","99999","V020","280,1,N,0050,1","22000,1,9,N","030000,1,N,1","+0076,1","-0244,1","10118,1","12,0000,9,1",,,"1,1,06,1","0,1,06,1","00,1,+99999,9,99,9","00,99,1,00,1,00,1,99999,9,00,1,00,1",,"120,M,+0101,1","99999,9,10039,1",,"01,1","SYN082AAXX  21181 01417 11980 02805 10076 21244 30039 40118 60002 70110 333 10101 4////;","Q01  00002PRCP12"
"01417099999","2010-04-22T06:00:00","4","59.4833333","5.75","65.0","NEDRE VATS, NO","FM-12","99999","V020","300,1,N,0010,1","22000,1,9,N","030000,1,N,1","+0003,1","-0024,1","10131,1","12,0000,9,1","24,0000,9,1",,"1,1,06,1","0,1,06,1",,"01,99,1,01,1,02,1,00800,1,00,1,00,1",,"999,N,-0010,1","99999,9,10050,1",,"03,1","SYN094AAXX  22061 01417 11580 13001 10003 21024 30050 40131 60002 70310 81200 333 21010 4//// 70000;","Q01  00002PRCP24Q02  00002PRCP12"
"01417099999","2010-04-22T12:00:00","4","59.4833333","5.75","65.0","NEDRE VATS, NO","FM-12","99999","V020","170,1,N,0070,1","00750,1,9,N","025000,1,N,1","+0062,1","-0057,1","10121,1",,,,"2,1,06,1","1,1,06,1",,"07,99,1,07,1,02,1,00800,1,00,1,00,1",,,"99999,9,10041,1",,"03,1","SYN082AAXX  22121 01417 11575 71707 10062 21057 30041 40121 6//// 70321 87200 333 4////;",
"01417099999","2010-04-22T18:00:00","4","59.4833333","5.75","65.0","NEDRE VATS, NO","FM-12","99999","V020","040,1,N,0010,1","00750,1,9,N","020000,1,N,1","+0020,1","-0007,1","10092,1","12,0020,9,1",,,"8,1,06,1","2,1,06,1",,"07,99,1,07,1,03,1,00800,1,00,1,00,1",,"120,M,+0086,1","99999,9,10012,1",,"02,1","SYN088AAXX  22181 01417 11570 70401 10020 21007 30012 40092 60022 70282 87300 333 10086 4////;",
"01417099999","2010-04-23T06:00:00","4","59.4833333","5.75","65.0","NEDRE VATS, NO","FM-12","99999","V020","100,1,N,0050,1","00210,1,9,N","010000,1,N,1","+0014,1","-0012,1","10090,1","12,0041,9,1","24,0061,9,1",,"8,1,06,1","2,1,06,1",,"08,99,1,08,1,06,1,00250,1,99,9,99,9",,"999,N,+0011,1","99999,9,10010,1",,"02,1","SYN094AAXX  23061 01417 11360 81005 10014 21012 30010 40090 60042 70282 886// 333 20011 4//// 70062;",
"01417099999","2010-04-23T12:00:00","4","59.4833333","5.75","65.0","NEDRE VATS, NO","FM-12","99999","V020","250,1,N,0070,1","00750,1,9,N","020000,1,N,1","+0028,1","-0042,1","10104,1",,,,"8,1,06,1","2,1,06,1",,"07,99,1,07,1,03,1,00800,1,00,1,00,1",,,"99999,9,10024,1",,"01,1","SYN082AAXX  23121 01417 11570 72507 10028 21042 30024 40104 6//// 70182 87300 333 4////;",
"01417099999","2010-04-23T18:00:00","4","59.4833333","5.75","65.0","NEDRE VATS, NO","FM-12","99999","V020","260,1,N,0050,1","22000,1,9,N","020000,1,N,1","+0041,1","-0079,1","10124,1","12,0010,9,1",,,"8,1,06,1","2,1,06,1",,"04,99,1,04,1,02,1,00800,1,00,1,00,1",,"120,M,+0057,1","99999,9,10044,1",,"01,1","SYN088AAXX  23181 01417 11570 42605 10041 21079 30044 40124 60012 70182 84200 333 10057 4////;",
"01417099999","2010-04-24T06:00:00","4","59.4833333","5.75","65.0","NEDRE VATS, NO","FM-12","99999","V020","170,1,N,0050,1","00750,1,9,N","025000,1,N,1","+0033,1","-0046,1","10190,1","12,0000,9,1","24,0010,9,1",,"2,1,06,1","1,1,06,1",,"06,99,1,06,1,02,1,00800,1,00,1,00,1",,"999,N,+0025,1","99999,9,10110,1",,"03,1","SYN094AAXX  24061 01417 11575 61705 10033 21046 30110 40190 60002 70321 86200 333 20025 4//// 70011;","Q01  00002PRCP12"
"01417099999","2010-04-24T12:00:00","4","59.4833333","5.75","65.0","NEDRE VATS, NO","FM-12","99999","V020","100,1,N,0050,1","00750,1,9,N","025000,1,N,1","+0074,1","-0094,1","10223,1",,,,"2,1,06,1","1,1,06,1",,"07,99,1,07,1,02,1,00800,1,00,1,00,1",,,"99999,9,10143,1",,"03,1","SYN082AAXX  24121 01417 11575 71005 10074 21094 30143 40223 6//// 70321 87200 333 4////;",
"01417099999","2010-04-24T18:00:00","4","59.4833333","5.75","65.0","NEDRE VATS, NO","FM-12","99999","V020","190,1,N,0050,1","07500,1,9,N","025000,1,N,1","+0072,1","-0079,1","10224,1","12,0000,9,1",,,"2,1,06,1","1,1,06,1",,"07,99,1,01,1,02,1,00800,1,00,1,06,1",,"120,M,+0111,1","99999,9,10144,1",,"02,1","SYN088AAXX  24181 01417 11575 71905 10072 21079 30144 40224 60002 70221 81206 333 10111 4////;","Q01  00002PRCP12"
"01417099999","2010-04-25T06:00:00","4","59.4833333","5.75","65.0","NEDRE VATS, NO","FM-12","99999","V020","040,1,N,0050,1","00750,1,9,N","020000,1,N,1","+0049,1","+0007,1","10341,1","12,0010,9,1","24,0010,9,1",,"8,1,06,1","2,1,06,1",,"08,99,1,08,1,00,1,00800,1,02,1,99,9",,"999,N,+0040,1","99999,9,10259,1",,"03,1","SYN094AAXX  25061 01417 11570 80405 10049 20007 30259 40341 60012 70382 8802/ 333 20040 4//// 70011;",
"01417099999","2010-04-25T12:00:00","4","59.4833333","5.75","65.0","NEDRE VATS, NO","FM-12","99999","V020","100,1,N,0070,1","00750,1,9,N","025000,1,N,1","+0115,1","-0030,1","10238,1",,,,"2,1,06,1","1,1,06,1",,"08,99,1,08,1,02,1,00800,1,99,9,99,9",,,"99999,9,10159,1",,"02,1","SYN082AAXX  25121 01417 11575 81007 10115 21030 30159 40238 6//// 70221 882// 333 4////;",
"01417099999","2010-04-25T18:00:00","4","59.4833333","5.75","65.0","NEDRE VATS, NO","FM-12","99999","V020","050,1,N,0050,1","22000,1,9,N","020000,1,N,1","+0131,1","+0067,1","10222,1","12,0000,9,1",,,"2,1,06,1","1,1,06,1",,"04,99,1,00,1,00,1,99999,9,00,1,01,1",,"120,M,+0142,1","99999,9,10144,1",,"01,1","SYN088AAXX  25181 01417 11970 40505 10131 20067 30144 40222 60002 70121 80001 333 10142 4////;","Q01  00002PRCP12"
"01417099999","2010-04-26T06:00:00","4","59.4833333","5.75","65.0","NEDRE VATS, NO","FM-12","99999","V020","050,1,N,0070,1","00750,1,9,N","020000,1,N,1","+0109,1","-0035,1","10166,1","12,9999,9,9","24,9999,9,9",,"8,1,06,1","2,1,06,1",,"08,99,1,08,1,00,1,00800,1,02,1,99,9",,"999,N,+0108,1","99999,9,10088,1",,"80,1","SYN094AAXX  26061 01417 11570 80507 10109 21035 30088 40166 69902 78082 8802/ 333 20108 4//// 70000;","Q01  00002PRCP24Q02  00002PRCP12Q03  00002PRCP12Q04  00002PRCP24"
"01417099999","2010-04-26T12:00:00","4","59.4833333","5.75","65.0","NEDRE VATS, NO","FM-12","99999","V020","070,1,N,0070,1","00750,1,9,N","020000,1,N,1","+0089,1","+0035,1","10162,1",,,,"8,1,06,1","2,1,06,1",,"08,99,1,08,1,00,1,00800,1,02,1,99,9",,,"99999,9,10083,1",,"80,1","SYN082AAXX  26121 01417 11570 80707 10089 20035 30083 40162 6//// 78082 8802/ 333 4////;",
"01417099999","2010-04-26T18:00:00","4","59.4833333","5.75","65.0","NEDRE VATS, NO","FM-12","99999","V020","170,1,N,0050,1","00420,1,9,N","008000,1,N,1","+0078,1","+0051,1","10174,1","12,0030,9,1",,,"8,1,06,1","2,1,06,1",,"08,99,1,08,1,06,1,00450,1,99,9,99,9",,"120,M,+0114,1","99999,9,10095,1",,"80,1","SYN088AAXX  26181 01417 11458 81705 10078 20051 30095 40174 60032 78082 886// 333 10114 4////;",
"01417099999","2010-04-27T06:00:00","4","59.4833333","5.75","65.0","NEDRE VATS, NO","FM-12","99999","V020","140,1,N,0030,1","00210,1,9,N","004900,1,N,1","+0079,1","+0055,1","10183,1","12,0089,9,1","24,0112,9,1",,"8,1,06,1","2,1,06,1",,"08,99,1,08,1,06,1,00250,1,99,9,99,9",,"999,N,+0075,1","99999,9,10104,1",,"80,1","SYN094AAXX  27061 01417 11349 81403 10079 20055 30104 40183 60092 78082 886// 333 20075 4//// 70111;",
"01417099999","2010-04-27T12:00:00","4","59.4833333","5.75","65.0","NEDRE VATS, NO","FM-12","99999","V020","210,1,N,0050,1","00210,1,9,N","005000,1,N,1","+0076,1","+0052,1","10207,1",,,,"8,1,06,1","2,1,06,1",,"08,99,1,08,1,06,1,00250,1,99,9,99,9",,,"99999,9,10127,1",,"10,1","SYN082AAXX  27121 01417 11350 82105 10076 20052 30127 40207 6//// 71082 886// 333 4////;",
"01417099999","2010-04-27T18:00:00","4","59.4833333","5.75","65.0","NEDRE VATS, NO","FM-12","99999","V020","260,1,N,0050,1","22000,1,9,N","020000,1,N,1","+0087,1","-0038,1","10214,1","12,0010,9,1",,,"8,1,06,1","2,1,06,1",,"04,99,1,00,1,00,1,99999,9,00,1,08,1",,"120,M,+0114,1","99999,9,10135,1",,"01,1","SYN088AAXX  27181 01417 11970 42605 10087 21038 30135 40214 60012 70182 80008 333 10114 4////;",
"01417099999","2010-04-28T06:00:00","4","59.4833333","5.75","65.0","NEDRE VATS, NO","FM-12","99999","V020","060,1,N,0050,1","00420,1,9,N","010000,1,N,1","+0061,1","+0022,1","10176,1","12,0051,9,1","24,0058,9,1",,"8,1,06,1","2,1,06,1",,"08,99,1,08,1,06,1,00450,1,99,9,99,9",,"999,N,+0030,1","99999,9,10096,1",,"80,1","SYN094AAXX  28061 01417 11460 80605 10061 20022 30096 40176 60052 78082 886// 333 20030 4//// 70059;",
"01417099999","2010-04-28T12:00:00","4","59.4833333","5.75","65.0","NEDRE VATS, NO","FM-12","99999","V020","170,1,N,0050,1","00420,1,9,N","010000,1,N,1","+0089,1","+0053,1","10137,1",,,,"8,1,06,1","6,1,06,1",,"08,99,1,08,1,06,1,00450,1,99,9,99,9",,,"99999,9,10058,1",,"60,1","SYN082AAXX  28121 01417 11460 81705 10089 20053 30058 40137 6//// 76086 886// 333 4////;",
"01417099999","2010-04-28T18:00:00","4","59.4833333","5.75","65.0","NEDRE VATS, NO","FM-12","99999","V020","220,1,N,0070,1","00420,1,9,N","010000,1,N,1","+0095,1","+0064,1","10109,1","12,0211,9,1",,,"6,1,06,1","2,1,06,1",,"08,99,1,08,1,06,1,00450,1,99,9,99,9",,"120,M,+0096,1","99999,9,10030,1",,"02,1","SYN088AAXX  28181 01417 11460 82207 10095 20064 30030 40109 60212 70262 886// 333 10096 4////;",
"01417099999","2010-04-29T06:00:00","4","59.4833333","5.75","65.0","NEDRE VATS, NO","FM-12","99999","V020","140,1,N,0050,1","00420,1,9,N","010000,1,N,1","+0104,1","+0041,1","10042,1","12,0000,9,1","24,0208,9,1",,"8,1,06,1","2,1,06,1",,"08,99,1,08,1,06,1,00450,1,99,9,99,9",,"999,N,+0091,1","99999,9,09965,1",,"02,1","SYN094AAXX  29061 01417 11460 81405 10104 20041 39965 40042 69922 70282 886// 333 20091 4//// 70208;","Q01  00002PRCP12"
"01417099999","2010-04-29T12:00:00","4","59.4833333","5.75","65.0","NEDRE VATS, NO","FM-12","99999","V020","170,1,N,0050,1","00210,1,9,N","006000,1,N,1","+0089,1","+0065,1","10044,1",,,,"8,1,06,1","2,1,06,1",,"08,99,1,08,1,06,1,00250,1,99,9,99,9",,,"99999,9,09966,1",,"10,1","SYN082AAXX  29121 01417 11356 81705 10089 20065 39966 40044 6//// 71082 886// 333 4////;",
"01417099999","2010-04-29T18:00:00","4","59.4833333","5.75","65.0","NEDRE VATS, NO","FM-12","99999","V020","210,1,N,0030,1","00210,1,9,N","005000,1,N,1","+0088,1","+0064,1","10047,1","12,0061,9,1",,,"8,1,06,1","2,1,06,1",,"08,99,1,08,1,06,1,00250,1,99,9,99,9",,"120,M,+0113,1","99999,9,09969,1",,"10,1","SYN088AAXX  29181 01417 11350 82103 10088 20064 39969 40047 60062 71082 886// 333 10113 4////;",
"01417099999","2010-04-30T06:00:00","4","59.4833333","5.75","65.0","NEDRE VATS, NO","FM-12","99999","V020","100,1,N,0010,1","00210,1,9,N","004000,1,N,1","+0079,1","+0055,1","10001,1","12,0008,9,1","24,0066,9,1",,"8,1,06,1","2,1,06,1",,"08,99,1,08,1,06,1,00250,1,99,9,99,9",,"999,N,+0074,1","99999,9,09923,1",,"10,1","SYN094AAXX  30061 01417 11340 81001 10079 20055 39923 40001 69982 71082 886// 333 20074 4//// 70066;",
"01417099999","2010-04-30T12:00:00","4","59.4833333","5.75","65.0","NEDRE VATS, NO","FM-12","99999","V020","170,1,N,0030,1","00210,1,9,N","008000,1,N,1","+0099,1","+0047,1","09985,1",,,,"8,1,06,1","2,1,06,1",,"08,99,1,08,1,06,1,00250,1,99,9,99,9",,,"99999,9,09908,1",,"80,1","SYN082AAXX  30121 01417 11358 81703 10099 20047 39908 49985 6//// 78082 886// 333 4////;",
"01417099999","2010-05-01T06:00:00","4","59.4833333","5.75","65.0","NEDRE VATS, NO","FM-12","99999","V020","300,1,N,0070,1","00750,1,9,N","020000,1,N,1","+0045,1","-0023,1","10003,1","12,0020,9,1",,,"6,1,06,1","2,1,06,1",,"05,99,1,05,1,03,1,00800,1,00,1,00,1",,"999,N,+0040,1","99999,9,09924,1",,"01,1","SYN094AAXX  01061 01417 11570 53007 10045 21023 39924 40003 60022 70162 85300 333 20040 4//// 7////;",
"01417099999","2010-05-01T12:00:00","4","59.4833333","5.75","65.0","NEDRE VATS, NO","FM-12","99999","V020","290,1,N,0070,1","22000,1,9,N","025000,1,N,1","+0084,1","-0073,1","10034,1",,,,"2,1,06,1","1,1,06,1",,"04,99,1,04,1,02,1,00800,1,00,1,00,1",,,"99999,9,09956,1",,"01,1","SYN082AAXX  01121 01417 11575 42907 10084 21073 39956 40034 6//// 70121 84200 333 4////;",
"01417099999","2010-05-01T18:00:00","4","59.4833333","5.75","65.0","NEDRE VATS, NO","FM-12","99999","V020","280,1,N,0050,1","22000,1,9,N","025000,1,N,1","+0071,1","-0046,1","10074,1","12,0000,9,1",,,"2,1,06,1","1,1,06,1",,"04,99,1,04,1,02,1,00800,1,00,1,00,1",,"120,M,+0097,1","99999,9,09995,1",,"02,1","SYN088AAXX  01181 01417 11575 42805 10071 21046 39995 40074 60002 70221 84200 333 10097 4////;","Q01  00002PRCP12"
"01417099999","2010-05-02T06:00:00","4","59.4833333","5.75","65.0","NEDRE VATS, NO","FM-12","99999","V020","999,9,C,0000,1","22000,1,9,N","030000,1,N,1","+0009,1","-0018,1","10135,1","12,0000,9,1","24,0000,9,1",,"1,1,06,1","0,1,06,1",,"01,99,1,01,1,02,1,00800,1,00,1,00,1",,"999,N,+0000,1","99999,9,10054,1",,"01,1","SYN094AAXX  02061 01417 11580 10000 10009 21018 30054 40135 60002 70110 81200 333 20000 4//// 70000;","Q01  00002PRCP24Q02  00002PRCP12"
"01417099999","2010-05-02T12:00:00","4","59.4833333","5.75","65.0","NEDRE VATS, NO","FM-12","99999","V020","260,1,N,0050,1","00750,1,9,N","025000,1,N,1","+0084,1","-0104,1","10141,1",,,,"2,1,06,1","1,1,06,1",,"06,99,1,06,1,03,1,00800,1,00,1,00,1",,,"99999,9,10062,1",,"03,1","SYN082AAXX  02121 01417 11575 62605 10084 21104 30062 40141 6//// 70321 86300 333 4////;",
"01417099999","2010-05-02T18:00:00","4","59.4833333","5.75","65.0","NEDRE VATS, NO","FM-12","99999","V020","310,1,N,0050,1","22000,1,9,N","025000,1,N,1","+0075,1","-0077,1","10147,1","12,0000,9,1",,,"1,1,06,1","0,1,06,1",,"01,99,1,01,1,02,1,00800,1,00,1,00,1",,"120,M,+0096,1","99999,9,10068,1",,"01,1","SYN088AAXX  02181 01417 11575 13105 10075 21077 30068 40147 60002 70110 81200 333 10096 4////;","Q01  00002PRCP12"
"01417099999","2010-05-03T06:00:00","4","59.4833333","5.75","65.0","NEDRE VATS, NO","FM-12","99999","V020","260,1,N,0010,1","22000,1,9,N","030000,1,N,1","+0024,1","-0014,1","10195,1","12,0000,9,1","24,0000,9,1",,"1,1,06,1","0,1,06,1","00,1,+99999,9,99,9","00,99,1,00,1,00,1,99999,9,00,1,00,1",,"999,N,+0005,1","99999,9,10114,1",,"01,1","SYN088AAXX  03061 01417 11980 02601 10024 21014 30114 40195 60002 70110 333 20005 4//// 70000;","Q01  00002PRCP24Q02  00002PRCP12"
"01417099999","2010-05-03T12:00:00","4","59.4833333","5.75","65.0","NEDRE VATS, NO","FM-12","99999","V020","280,1,N,0050,1","22000,1,9,N","025000,1,N,1","+0082,1","-0096,1","10188,1",,,,"2,1,06,1","1,1,06,1",,"04,99,1,04,1,02,1,00800,1,00,1,00,1",,,"99999,9,10109,1",,"03,1","SYN082AAXX  03121 01417 11575 42805 10082 21096 30109 40188 6//// 70321 84200 333 4////;",
"01417099999","2010-05-03T18:00:00","4","59.4833333","5.75","65.0","NEDRE VATS, NO","FM-12","99999","V020","310,1,N,0050,1","22000,1,9,N","030000,1,N,1","+0072,1","-0051,1","10186,1","12,0000,9,1",,,"1,1,06,1","0,1,06,1",,"03,99,1,03,1,02,1,00800,1,00,1,00,1",,"120,M,+0112,1","99999,9,10107,1",,"01,1","SYN088AAXX  03181 01417 11580 33105 10072 21051 30107 40186 60002 70110 83200 333 10112 4////;","Q01  00002PRCP12"
"01417099999","2010-05-04T06:00:00","4","59.4833333","5.75","65.0","NEDRE VATS, NO","FM-12","99999","V020","280,1,N,0070,1","22000,1,9,N","030000,1,N,1","+0026,1","-0060,1","10195,1","12,0000,9,1","24,0000,9,1",,"1,1,06,1","0,1,06,1",,"01,99,1,01,1,02,1,00800,1,00,1,00,1",,"999,N,+0017,1","99999,9,10114,1",,"01,1","SYN094AAXX  04061 01417 11580 12807 10026 21060 30114 40195 60002 70110 81200 333 20017 4//// 70000;","Q01  00002PRCP24Q02  00002PRCP12"
"01417099999","2010-05-04T12:00:00","4","59.4833333","5.75","65.0","NEDRE VATS, NO","FM-12","99999","V020","140,1,N,0050,1","22000,1,9,N","030000,1,N,1","+0091,1","-0098,1","10191,1",,,,"1,1,06,1","0,1,06,1",,"01,99,1,01,1,02,1,00800,1,00,1,00,1",,,"99999,9,10112,1",,"02,1","SYN082AAXX  04121 01417 11580 11405 10091 21098 30112 40191 6//// 70210 81200 333 4////;",
"01417099999","2010-05-04T18:00:00","4","59.4833333","5.75","65.0","NEDRE VATS, NO","FM-12","99999","V020","350,1,N,0030,1","22000,1,9,N","030000,1,N,1","+0088,1","-0141,1","10197,1","12,0000,9,1",,,"1,1,06,1","0,1,06,1","00,1,+99999,9,99,9","00,99,1,00,1,00,1,99999,9,00,1,00,1",,"120,M,+0109,1","99999,9,10117,1",,"02,1","SYN082AAXX  04181 01417 11980 03503 10088 21141 30117 40197 60002 70210 333 10109 4////;","Q01  00002PRCP12"
"01417099999","2010-05-05T06:00:00","4","59.4833333","5.75","65.0","NEDRE VATS, NO","FM-12","99999","V020","320,1,N,0010,1","22000,1,9,N","030000,1,N,1","+0008,1","-0063,1","10216,1","12,0000,9,1","24,0000,9,1",,"1,1,06,1","0,1,06,1","00,1,+99999,9,99,9","00,99,1,00,1,00,1,99999,9,00,1,00,1",,"999,N,-0015,1","99999,9,10135,1",,"02,1","SYN088AAXX  05061 01417 11980 03201 10008 21063 30135 40216 60002 70210 333 21015 4//// 70000;","Q01  00002PRCP24Q02  00002PRCP12"
"01417099999","2010-05-05T12:00:00","4","59.4833333","5.75","65.0","NEDRE VATS, NO","FM-12","99999","V020","160,1,N,0070,1","22000,1,9,N","030000,1,N,1","+0105,1","-0127,1","10204,1",,,,"1,1,06,1","0,1,06,1",,"01,99,1,01,1,02,1,00800,1,00,1,00,1",,,"99999,9,10125,1",,"02,1","SYN082AAXX  05121 01417 11580 11607 10105 21127 30125 40204 6//// 70210 81200 333 4////;",
"01417099999","2010-05-05T18:00:00","4","59.4833333","5.75","65.0","NEDRE VATS, NO","FM-12","99999","V020","100,1,N,0050,1","22000,1,9,N","030000,1,N,1","+0092,1","-0102,1","10195,1","12,0000,9,1",,,"1,1,06,1","0,1,06,1",,"01,99,1,00,1,00,1,99999,9,00,1,01,1",,"120,M,+0120,1","99999,9,10116,1",,"02,1","SYN088AAXX  05181 01417 11980 11005 10092 21102 30116 40195 60002 70210 80001 333 10120 4////;","Q01  00002PRCP12"
"01417099999","2010-05-06T06:00:00","4","59.4833333","5.75","65.0","NEDRE VATS, NO","FM-12","99999","V020","100,1,N,0030,1","01200,1,9,N","020000,1,N,1","+0050,1","-0010,1","10174,1","12,0000,9,1","24,0000,9,1",,"2,1,06,1","1,1,06,1",,"08,99,1,08,1,08,1,00800,1,99,9,99,9",,"999,N,+0026,1","99999,9,10094,1",,"03,1","SYN094AAXX  06061 01417 11570 81003 10050 21010 30094 40174 60002 70321 888// 333 20026 4//// 70000;","Q01  00002PRCP24Q02  00002PRCP12"
"01417099999","2010-05-06T12:00:00","4","59.4833333","5.75","65.0","NEDRE VATS, NO","FM-12","99999","V020","999,9,9,9999,9","99999,9,9,N","999999,9,N,1","+0106,1","-0085,1","99999,9",,,,,,,,,,,,,"SYN058AAXX  06121 01417 13/// ///// 10106 21085 6//// 333 4////;",
"01417099999","2010-05-06T18:00:00","4","59.4833333","5.75","65.0","NEDRE VATS, NO","FM-12","99999","V020","999,9,9,9999,9","99999,9,9,N","999999,9,N,1","+0106,1","-0066,1","99999,9","12,0000,9,1",,,,,,,,"120,M,+0115,1",,,,"SYN064AAXX  06181 01417 13/// ///// 10106 21066 60002 333 10115 4////;","Q01  00002PRCP12"
"01417099999","2010-05-07T06:00:00","4","59.4833333","5.75","65.0","NEDRE VATS, NO","FM-12","99999","V020","010,1,N,0010,1","22000,1,9,N","030000,1,N,1","+0042,1","-0020,1","10224,1","12,0000,9,1","24,0000,9,1",,"1,1,06,1","0,1,06,1","00,1,+99999,9,99,9","00,99,1,00,1,00,1,99999,9,00,1,00,1",,"999,N,+0029,1","99999,9,10143,1",,"01,1","SYN088AAXX  07061 01417 11980 00101 10042 21020 30143 40224 60002 70110 333 20029 4//// 70000;","Q01  00002PRCP24Q02  00002PRCP12"
"01417099999","2010-05-07T12:00:00","4","59.4833333","5.75","65.0","NEDRE VATS, NO","FM-12","99999","V020","110,1,N,0050,1","00750,1,9,N","025000,1,N,1","+0123,1","-0076,1","10207,1",,,,"2,1,06,1","1,1,06,1",,"06,99,1,06,1,02,1,00800,1,00,1,00,1",,,"99999,9,10128,1",,"03,1","SYN082AAXX  07121 01417 11575 61105 10123 21076 30128 40207 6//// 70321 86200 333 4////;",
"01417099999","2010-05-07T18:00:00","4","59.4833333","5.75","65.0","NEDRE VATS, NO","FM-12","99999","V020","310,1,N,0030,1","22000,1,9,N","030000,1,N,1","+0130,1","-0081,1","10177,1","12,0000,9,1",,,"1,1,06,1","0,1,06,1","00,1,+99999,9,99,9","00,99,1,00,1,00,1,99999,9,00,1,00,1",,"120,M,+0153,1","99999,9,10099,1",,"01,1","SYN082AAXX  07181 01417 11980 03103 10130 21081 30099 40177 60002 70110 333 10153 4////;","Q01  00002PRCP12"
"01417099999","2010-05-08T06:00:00","4","59.4833333","5.75","65.0","NEDRE VATS, NO","FM-12","99999","V020","040,1,N,0030,1","22000,1,9,N","030000,1,N,1","+0057,1","-0019,1","10178,1","12,0000,9,1","24,0000,9,1",,"1,1,06,1","0,1,06,1",,"01,99,1,00,1,00,1,99999,9,00,1,01,1",,"999,N,+0020,1","99999,9,10098,1",,"03,1","SYN094AAXX  08061 01417 11980 10403 10057 21019 30098 40178 60002 70310 80001 333 20020 4//// 70000;","Q01  00002PRCP24Q02  00002PRCP12"
"01417099999","2010-05-08T12:00:00","4","59.4833333","5.75","65.0","NEDRE VATS, NO","FM-12","99999","V020","080,1,N,0070,1","22000,1,9,N","030000,1,N,1","+0152,1","-0063,1","10149,1",,,,"1,1,06,1","0,1,06,1",,"01,99,1,01,1,02,1,00800,1,00,1,00,1",,,"99999,9,10071,1",,"03,1","SYN082AAXX  08121 01417 11580 10807 10152 21063 30071 40149 6//// 70310 81200 333 4////;",
"01417099999","2010-05-08T18:00:00","4","59.4833333","5.75","65.0","NEDRE VATS, NO","FM-12","99999","V020","280,1,N,0050,1","22000,1,9,N","030000,1,N,1","+0122,1","-0017,1","10128,1","12,0000,9,1",,,"1,1,06,1","0,1,06,1",,"01,99,1,00,1,00,1,99999,9,00,1,01,1",,"120,M,+0156,1","99999,9,10050,1",,"02,1","SYN088AAXX  08181 01417 11980 12805 10122 21017 30050 40128 60002 70210 80001 333 10156 4////;","Q01  00002PRCP12"
"01417099999","2010-05-09T06:00:00","4","59.4833333","5.75","65.0","NEDRE VATS, NO","FM-12","99999","V020","280,1,N,0050,1","00750,1,9,N","025000,1,N,1","+0049,1","-0011,1","10092,1","12,0000,9,1","24,0000,9,1",,"2,1,06,1","1,1,06,1",,"07,99,1,07,1,02,1,00800,1,00,1,00,1",,"999,N,+0029,1","99999,9,10012,1",,"03,1","SYN094AAXX  09061 01417 11575 72805 10049 21011 30012 40092 60002 70321 87200 333 20029 4//// 70000;","Q01  00002PRCP24Q02  00002PRCP12"
"01417099999","2010-05-09T12:00:00","4","59.4833333","5.75","65.0","NEDRE VATS, NO","FM-12","99999","V020","270,1,N,0050,1","22000,1,9,N","025000,1,N,1","+0098,1","-0061,1","10076,1",,,,"2,1,06,1","1,1,06,1",,"03,99,1,03,1,02,1,00800,1,00,1,00,1",,,"99999,9,09998,1",,"01,1","SYN082AAXX  09121 01417 11575 32705 10098 21061 39998 40076 6//// 70121 83200 333 4////;",
"01417099999","2010-05-09T18:00:00","4","59.4833333","5.75","65.0","NEDRE VATS, NO","FM-12","99999","V020","290,1,N,0050,1","22000,1,9,N","025000,1,N,1","+0068,1","-0052,1","10065,1","12,0000,9,1",,,"2,1,06,1","1,1,06,1",,"04,99,1,04,1,03,1,00800,1,00,1,00,1",,"120,M,+0112,1","99999,9,09986,1",,"03,1","SYN088AAXX  09181 01417 11575 42905 10068 21052 39986 40065 60002 70321 84300 333 10112 4////;","Q01  00002PRCP12"
"01417099999","2010-05-10T06:00:00","4","59.4833333","5.75","65.0","NEDRE VATS, NO","FM-12","99999","V020","220,1,N,0030,1","00750,1,9,N","020000,1,N,1","+0006,1","-0016,1","10053,1","12,0000,9,1","24,0000,9,1",,"8,1,06,1","2,1,06,1",,"06,99,1,06,1,03,1,00800,1,00,1,00,1",,"999,N,+0000,1","99999,9,09973,1",,"03,1","SYN094AAXX  10061 01417 11570 62203 10006 21016 39973 40053 69902 70382 86300 333 20000 4//// 70000;","Q01  00002PRCP24Q02  00002PRCP12"
"01417099999","2010-05-10T12:00:00","4","59.4833333","5.75","65.0","NEDRE VATS, NO","FM-12","99999","V020","280,1,N,0050,1","00750,1,9,N","020000,1,N,1","+0068,1","-0043,1","10060,1",,,,"8,1,06,1","2,1,06,1",,"07,99,1,07,1,03,1,00800,1,00,1,00,1",,,"99999,9,09981,1",,"03,1","SYN082AAXX  10121 01417 11570 72805 10068 21043 39981 40060 6//// 70382 87300 333 4////;",
"01417099999","2010-05-10T18:00:00","4","59.4833333","5.75","65.0","NEDRE VATS, NO","FM-12","99999","V020","300,1,N,0030,1","22000,1,9,N","021000,1,N,1","+0058,1","-0040,1","10071,1","12,0005,9,1",,,"8,1,06,1","2,1,06,1",,"04,99,1,04,1,03,1,00800,1,00,1,00,1",,"120,M,+0087,1","99999,9,09992,1",,"01,1","SYN088AAXX  10181 01417 11571 43003 10058 21040 39992 40071 69942 70182 84300 333 10087 4////;",
"01417099999","2010-05-11T06:00:00","4","59.4833333","5.75","65.0","NEDRE VATS, NO","FM-12","99999","V020","210,1,N,0010,1","22000,1,9,N","015000,1,N,1","+0009,1","-0010,1","10104,1","12,0010,9,1","24,0015,9,1",,"8,1,06,1","2,1,06,1",,"04,99,1,04,1,02,1,00800,1,00,1,00,1",,"999,N,+0000,1","99999,9,10023,1",,"02,1","SYN094AAXX  11061 01417 11565 42101 10009 21010 30023 40104 60012 70282 84200 333 20000 4//// 70016;",
"01417099999","2010-05-11T12:00:00","4","59.4833333","5.75","65.0","NEDRE VATS, NO","FM-12","99999","V020","220,1,N,0030,1","00750,1,9,N","020000,1,N,1","+0065,1","-0048,1","10113,1",,,,"2,1,06,1","1,1,06,1",,"07,99,1,07,1,03,1,00800,1,00,1,00,1",,,"99999,9,10034,1",,"03,1","SYN082AAXX  11121 01417 11570 72203 10065 21048 30034 40113 6//// 70321 87300 333 4////;",
"01417099999","2010-05-11T18:00:00","4","59.4833333","5.75","65.0","NEDRE VATS, NO","FM-12","99999","V020","140,1,N,0050,1","00750,1,9,N","020000,1,N,1","+0063,1","-0039,1","10128,1","12,0000,9,1",,,"8,1,06,1","2,1,06,1",,"05,99,1,05,1,03,1,00800,1,00,1,00,1",,"120,M,+0086,1","99999,9,10048,1",,"01,1","SYN088AAXX  11181 01417 11570 51405 10063 21039 30048 40128 69912 70182 85300 333 10086 4////;","Q01  00002PRCP12"
"01417099999","2010-05-12T06:00:00","4","59.4833333","5.75","65.0","NEDRE VATS, NO","FM-12","99999","V020","999,9,C,0000,1","22000,1,9,N","025000,1,N,1","+0008,1","-0013,1","10171,1","12,0000,9,1","24,0000,9,1",,"1,1,06,1","0,1,06,1",,"01,99,1,01,1,02,1,00800,1,00,1,00,1",,"999,N,-0015,1","99999,9,10090,1",,"01,1","SYN094AAXX  12061 01417 11575 10000 10008 21013 30090 40171 60002 70110 81200 333 21015 4//// 70001;","Q01  00002PRCP24Q02  00002PRCP12"
"01417099999","2010-05-12T12:00:00","4","59.4833333","5.75","65.0","NEDRE VATS, NO","FM-12","99999","V020","040,1,N,0050,1","22000,1,9,N","025000,1,N,1","+0105,1","-0102,1","10163,1",,,,"1,1,06,1","0,1,06,1",,"01,99,1,01,1,02,1,00800,1,00,1,00,1",,,"99999,9,10084,1",,"02,1","SYN082AAXX  12121 01417 11575 10405 10105 21102 30084 40163 6//// 70210 81200 333 4////;",
"01417099999","2010-05-12T18:00:00","4","59.4833333","5.75","65.0","NEDRE VATS, NO","FM-12","99999","V020","310,1,N,0050,1","22000,1,9,N","025000,1,N,1","+0118,1","-0117,1","10139,1","12,0000,9,1",,,,,,"01,99,1,00,1,00,1,99999,9,00,1,01,1",,"120,M,+0137,1","99999,9,10061,1",,,"SYN082AAXX  12181 01417 12975 13105 10118 21117 30061 40139 60002 80001 333 10137 4////;","Q01  00002PRCP12"
"01417099999","2010-05-13T06:00:00","4","59.4833333","5.75","65.0","NEDRE VATS, NO","FM-12","99999","V020","070,1,N,0010,1","22000,1,9,N","030000,1,N,1","+0039,1","-0010,1","10113,1","12,0000,9,1","24,0000,9,1",,"1,1,06,1","0,1,06,1","00,1,+99999,9,99,9","00,99,1,00,1,00,1,99999,9,00,1,00,1",,"999,N,+0019,1","99999,9,10033,1",,"01,1","SYN088AAXX  13061 01417 11980 00701 10039 21010 30033 40113 60002 70110 333 20019 4//// 70000;","Q01  00002PRCP24Q02  00002PRCP12"
"01417099999","2010-05-13T12:00:00","4","59.4833333","5.75","65.0","NEDRE VATS, NO","FM-12","99999","V020","280,1,N,0050,1","00750,1,9,N","025000,1,N,1","+0122,1","-0024,1","10098,1",,,,"2,1,06,1","1,1,06,1",,"08,99,1,08,1,02,1,00800,1,99,9,99,9",,,"99999,9,10020,1",,"03,1","SYN082AAXX  13121 01417 11575 82805 10122 21024 30020 40098 6//// 70321 882// 333 4////;",
"01417099999","2010-05-13T18:00:00","4","59.4833333","5.75","65.0","NEDRE VATS, NO","FM-12","99999","V020","220,1,N,0050,1","00750,1,9,N","025000,1,N,1","+0100,1","+0006,1","10103,1","12,0000,9,1",,,"2,1,06,1","1,1,06,1",,"06,99,1,06,1,02,1,00800,1,00,1,00,1",,"120,M,+0128,1","99999,9,10025,1",,"01,1","SYN088AAXX  13181 01417 11575 62205 10100 20006 30025 40103 60002 70121 86200 333 10128 4////;","Q01  00002PRCP12"
"01417099999","2010-05-14T06:00:00","4","59.4833333","5.75","65.0","NEDRE VATS, NO","FM-12","99999","V020","210,1,N,0050,1","01200,1,9,N","025000,1,N,1","+0057,1","+0025,1","10117,1","12,0000,9,1","24,0000,9,1",,"2,1,06,1","1,1,06,1",,"08,99,1,08,1,08,1,00800,1,99,9,99,9",,"999,N,+0034,1","99999,9,10037,1",,"03,1","SYN094AAXX  14061 01417 11575 82105 10057 20025 30037 40117 60002 70321 888// 333 20034 4//// 70000;","Q01  00002PRCP24Q02  00002PRCP12"
"01417099999","2010-05-14T12:00:00","4","59.4833333","5.75","65.0","NEDRE VATS, NO","FM-12","99999","V020","280,1,N,0050,1","22000,1,9,N","025000,1,N,1","+0130,1","+0001,1","10106,1",,,,"2,1,06,1","1,1,06,1",,"04,99,1,04,1,02,1,00800,1,00,1,00,1",,,"99999,9,10029,1",,"01,1","SYN082AAXX  14121 01417 11575 42805 10130 20001 30029 40106 6//// 70121 84200 333 4////;",
"01417099999","2010-05-14T18:00:00","4","59.4833333","5.75","65.0","NEDRE VATS, NO","FM-12","99999","V020","220,1,N,0050,1","22000,1,9,N","030000,1,N,1","+0111,1","-0013,1","10116,1","12,0000,9,1",,,"1,1,06,1","0,1,06,1",,"01,99,1,00,1,00,1,99999,9,00,1,01,1",,"120,M,+0151,1","99999,9,10038,1",,"01,1","SYN088AAXX  14181 01417 11980 12205 10111 21013 30038 40116 60002 70110 80001 333 10151 4////;","Q01  00002PRCP12"
"01417099999","2010-05-15T06:00:00","4","59.4833333","5.75","65.0","NEDRE VATS, NO","FM-12","99999","V020","210,1,N,0010,1","22000,1,9,N","030000,1,N,1","+0046,1","+0026,1","10111,1","12,0000,9,1","24,0000,9,1",,"1,1,06,1","0,1,06,1",,"01,99,1,00,1,00,1,99999,9,00,1,04,1",,"999,N,+0018,1","99999,9,10031,1",,"02,1","SYN094AAXX  15061 01417 11980 12101 10046 20026 30031 40111 60002 70210 80004 333 20018 4//// 70000;","Q01  00002PRCP24Q02  00002PRCP12"
"01417099999","2010-05-15T12:00:00","4","59.4833333","5.75","65.0","NEDRE VATS, NO","FM-12","99999","V020","280,1,N,0050,1","22000,1,9,N","025000,1,N,1","+0161,1","-0024,1","10082,1",,,,"1,1,06,1","0,1,06,1",,"03,99,1,00,1,00,1,99999,9,00,1,05,1",,,"99999,9,10006,1",,"03,1","SYN082AAXX  15121 01417 11975 32805 10161 21024 30006 40082 6//// 70310 80005 333 4////;",
"01417099999","2010-05-15T18:00:00","4","59.4833333","5.75","65.0","NEDRE VATS, NO","FM-12","99999","V020","310,1,N,0010,1","01200,1,9,N","020000,1,N,1","+0101,1","-0042,1","10073,1","12,0000,9,1",,,"2,1,06,1","1,1,06,1",,"08,99,1,08,1,08,1,00800,1,99,9,99,9",,"120,M,+0171,1","99999,9,09995,1",,"03,1","SYN088AAXX  15181 01417 11570 83101 10101 21042 39995 40073 60002 70321 888// 333 10171 4////;","Q01  00002PRCP12"
"01417099999","2010-05-16T06:00:00","4","59.4833333","5.75","65.0","NEDRE VATS, NO","FM-12","99999","V020","280,1,N,0050,1","00420,1,9,N","015000,1,N,1","+0085,1","+0056,1","10039,1","12,0130,9,1","24,0130,9,1",,"6,1,06,1","2,1,06,1",,"08,99,1,08,1,06,1,00450,1,99,9,99,9",,"999,N,+0075,1","99999,9,09961,1",,"02,1","SYN094AAXX  16061 01417 11465 82805 10085 20056 39961 40039 60132 70262 886// 333 20075 4//// 70130;",
"01417099999","2010-05-16T12:00:00","4","59.4833333","5.75","65.0","NEDRE VATS, NO","FM-12","99999","V020","260,1,N,0030,1","00420,1,9,N","013000,1,N,1","+0091,1","+0058,1","10043,1",,,,"6,1,06,1","2,1,06,1",,"08,99,1,08,1,06,1,00450,1,99,9,99,9",,,"99999,9,09965,1",,"61,1","SYN082AAXX  16121 01417 11463 82603 10091 20058 39965 40043 6//// 76162 886// 333 4////;",
"01417099999","2010-05-16T18:00:00","4","59.4833333","5.75","65.0","NEDRE VATS, NO","FM-12","99999","V020","280,1,N,0030,1","00420,1,9,N","013000,1,N,1","+0079,1","+0047,1","10075,1","12,0160,9,1",,,"6,1,06,1","2,1,06,1",,"08,99,1,08,1,06,1,00450,1,99,9,99,9",,"120,M,+0168,1","99999,9,09996,1",,"61,1","SYN088AAXX  16181 01417 11463 82803 10079 20047 39996 40075 60162 76162 886// 333 10168 4////;",
"01417099999","2010-05-17T06:00:00","4","59.4833333","5.75","65.0","NEDRE VATS, NO","FM-12","99999","V020","100,1,N,0050,1","00750,1,9,N","020000,1,N,1","+0077,1","+0030,1","10140,1","12,0071,9,1","24,0226,9,1",,"6,1,06,1","2,1,06,1",,"07,99,1,07,1,03,1,00800,1,00,1,00,1",,"999,N,+0071,1","99999,9,10061,1",,"01,1","SYN094AAXX  17061 01417 11570 71005 10077 20030 30061 40140 60072 70162 87300 333 20071 4//// 70227;",
"01417099999","2010-05-17T18:00:00","4","59.4833333","5.75","65.0","NEDRE VATS, NO","FM-12","99999","V020","280,1,N,0030,1","00750,1,9,N","025000,1,N,1","+0102,1","+0018,1","10192,1","12,0000,9,1",,,"8,1,06,1","2,1,06,1",,"08,99,1,08,1,03,1,00800,1,99,9,99,9",,"120,M,+0116,1","99999,9,10113,1",,"03,1","SYN088AAXX  17181 01417 11575 82803 10102 20018 30113 40192 69922 70382 883// 333 10116 4////;","Q01  00002PRCP12"
"01417099999","2010-05-18T06:00:00","4","59.4833333","5.75","65.0","NEDRE VATS, NO","FM-12","99999","V020","260,1,N,0050,1","22000,1,9,N","030000,1,N,1","+0089,1","-0001,1","10237,1","12,0000,9,1","24,0003,9,1",,"8,1,06,1","2,1,06,1",,"02,99,1,00,1,00,1,99999,9,00,1,01,1",,"999,N,+0075,1","99999,9,10158,1",,"01,1","SYN094AAXX  18061 01417 11980 22605 10089 21001 30158 40237 69912 70182 80001 333 20075 4//// 70003;","Q01  00002PRCP12"
"01417099999","2010-05-18T12:00:00","4","59.4833333","5.75","65.0","NEDRE VATS, NO","FM-12","99999","V020","310,1,N,0050,1","22000,1,9,N","030000,1,N,1","+0145,1","-0015,1","10236,1",,,,"1,1,06,1","0,1,06,1",,"01,99,1,01,1,02,1,00800,1,00,1,00,1",,,"99999,9,10158,1",,"01,1","SYN082AAXX  18121 01417 11580 13105 10145 21015 30158 40236 6//// 70110 81200 333 4////;",
"01417099999","2010-05-18T18:00:00","4","59.4833333","5.75","65.0","NEDRE VATS, NO","FM-12","99999","V020","280,1,N,0050,1","22000,1,9,N","030000,1,N,1","+0149,1","+0000,1","10240,1","12,0000,9,1",,,"1,1,06,1","0,1,06,1","00,1,+99999,9,99,9","00,99,1,00,1,00,1,99999,9,00,1,00,1",,"120,M,+0168,1","99999,9,10162,1",,"01,1","SYN082AAXX  18181 01417 11980 02805 10149 20000 30162 40240 60002 70110 333 10168 4////;","Q01  00002PRCP12"
"01417099999","2010-05-19T06:00:00","4","59.4833333","5.75","65.0","NEDRE VATS, NO","FM-12","99999","V020","260,1,N,0030,1","22000,1,9,N","030000,1,N,1","+0077,1","+0048,1","10256,1","12,0000,9,1","24,0000,9,1",,"1,1,06,1","0,1,06,1",,"01,99,1,01,1,02,1,00800,1,00,1,00,1",,"999,N,+0054,1","99999,9,10176,1",,"03,1","SYN094AAXX  19061 01417 11580 12603 10077 20048 30176 40256 69912 70310 81200 333 20054 4//// 70001;","Q01  00002PRCP24Q02  00002PRCP12"
"01417099999","2010-05-19T12:00:00","4","59.4833333","5.75","65.0","NEDRE VATS, NO","FM-12","99999","V020","210,1,N,0050,1","22000,1,9,N","030000,1,N,1","+0175,1","+0023,1","10256,1",,,,"1,1,06,1","0,1,06,1",,"01,99,1,00,1,00,1,99999,9,00,1,01,1",,,"99999,9,10179,1",,"02,1","SYN082AAXX  19121 01417 11980 12105 10175 20023 30179 40256 6//// 70210 80001 333 4////;",
"01417099999","2010-05-19T18:00:00","4","59.4833333","5.75","65.0","NEDRE VATS, NO","FM-12","99999","V020","220,1,N,0050,1","22000,1,9,N","025000,1,N,1","+0158,1","+0023,1","10271,1","12,0000,9,1",,,"2,1,06,1","1,1,06,1",,"04,99,1,00,1,00,1,99999,9,00,1,04,1",,"120,M,+0188,1","99999,9,10193,1",,"03,1","SYN088AAXX  19181 01417 11975 42205 10158 20023 30193 40271 60002 70321 80004 333 10188 4////;","Q01  00002PRCP12"
"01417099999","2010-05-20T06:00:00","4","59.4833333","5.75","65.0","NEDRE VATS, NO","FM-12","99999","V020","170,1,N,0050,1","22000,1,9,N","030000,1,N,1","+0106,1","+0054,1","10272,1","12,0000,9,1","24,0000,9,1",,"1,1,06,1","0,1,06,1",,"01,99,1,00,1,00,1,99999,9,00,1,01,1",,"999,N,+0073,1","99999,9,10193,1",,"01,1","SYN094AAXX  20061 01417 11980 11705 10106 20054 30193 40272 60002 70110 80001 333 20073 4//// 70000;","Q01  00002PRCP24Q02  00002PRCP12"
"01417099999","2010-05-20T12:00:00","4","59.4833333","5.75","65.0","NEDRE VATS, NO","FM-12","99999","V020","280,1,N,0070,1","22000,1,9,N","025000,1,N,1","+0186,1","-0023,1","10268,1",,,,"2,1,06,1","2,1,06,1",,"04,99,1,00,1,00,1,99999,9,00,1,08,1",,,"99999,9,10191,1",,"03,1","SYN082AAXX  20121 01417 11975 42807 10186 21023 30191 40268 6//// 70322 80008 333 4////;",
"01417099999","2010-05-20T18:00:00","4","59.4833333","5.75","65.0","NEDRE VATS, NO","FM-12","99999","V020","210,1,N,0050,1","22000,1,9,N","030000,1,N,1","+0105,1","+0011,1","10277,1","12,0000,9,1",,,"1,1,06,1","0,1,06,1","00,1,+99999,9,99,9","00,99,1,00,1,00,1,99999,9,00,1,00,1",,"120,M,+0202,1","99999,9,10198,1",,"01,1","SYN082AAXX  20181 01417 11980 02105 10105 20011 30198 40277 60002 70110 333 10202 4////;","Q01  00002PRCP12"
"01417099999","2010-05-21T06:00:00","4","59.4833333","5.75","65.0","NEDRE VATS, NO","FM-12","99999","V020","250,1,N,0050,1","99999,9,9,N","007000,1,N,1","+0079,1","+0055,1","10285,1","12,0000,9,1","24,0000,9,1",,"2,1,06,1","1,1,06,1",,"08,99,1,08,1,06,1,99999,9,99,9,99,9",,"999,N,+0060,1","99999,9,10205,1",,"10,1","SYN094AAXX  21061 01417 11/57 82505 10079 20055 30205 40285 60002 71021 886// 333 20060 4//// 70000;","Q01  00002PRCP24Q02  00002PRCP12"
"01417099999","2010-05-21T12:00:00","4","59.4833333","5.75","65.0","NEDRE VATS, NO","FM-12","99999","V020","310,1,N,0050,1","22000,1,9,N","030000,1,N,1","+0200,1","+0000,1","10274,1",,,,"1,1,06,1","0,1,06,1",,"01,99,1,00,1,00,1,99999,9,00,1,01,1",,,"99999,9,10197,1",,"01,1","SYN082AAXX  21121 01417 11980 13105 10200 21000 30197 40274 6//// 70110 80001 333 4////;",
"01417099999","2010-05-21T18:00:00","4","59.4833333","5.75","65.0","NEDRE VATS, NO","FM-12","99999","V020","280,1,N,0050,1","22000,1,9,N","030000,1,N,1","+0185,1","-0024,1","10277,1","12,0000,9,1",,,"2,1,06,1","1,1,06,1",,"04,99,1,00,1,00,1,99999,9,00,1,04,1",,"120,M,+0213,1","99999,9,10200,1",,"03,1","SYN088AAXX  21181 01417 11980 42805 10185 21024 30200 40277 60002 70321 80004 333 10213 4////;","Q01  00002PRCP12"
"01417099999","2010-05-22T06:00:00","4","59.4833333","5.75","65.0","NEDRE VATS, NO","FM-12","99999","V020","190,1,N,0050,1","22000,1,9,N","030000,1,N,1","+0119,1","+0055,1","10282,1","12,0000,9,1","24,0000,9,1",,"1,1,06,1","0,1,06,1",,"03,99,1,00,1,00,1,99999,9,00,1,01,1",,"999,N,+0099,1","99999,9,10202,1",,"01,1","SYN094AAXX  22061 01417 11980 31905 10119 20055 30202 40282 60002 70110 80001 333 20099 4//// 70000;","Q01  00002PRCP24Q02  00002PRCP12"
"01417099999","2010-05-22T12:00:00","4","59.4833333","5.75","65.0","NEDRE VATS, NO","FM-12","99999","V020","210,1,N,0050,1","00750,1,9,N","025000,1,N,1","+0183,1","+0071,1","10260,1",,,,"2,1,06,1","1,1,06,1",,"08,99,1,08,1,03,1,00800,1,99,9,99,9",,,"99999,9,10183,1",,"03,1","SYN082AAXX  22121 01417 11575 82105 10183 20071 30183 40260 6//// 70321 883// 333 4////;",
"01417099999","2010-05-22T18:00:00","4","59.4833333","5.75","65.0","NEDRE VATS, NO","FM-12","99999","V020","200,1,N,0010,1","00420,1,9,N","008000,1,N,1","+0131,1","+0101,1","10225,1","12,0010,9,1",,,"8,1,06,1","2,1,06,1",,"08,99,1,08,1,06,1,00450,1,99,9,99,9",,"120,M,+0199,1","99999,9,10147,1",,"80,1","SYN088AAXX  22181 01417 11458 82001 10131 20101 30147 40225 60012 78082 886// 333 10199 4////;",
"01417099999","2010-05-23T06:00:00","4","59.4833333","5.75","65.0","NEDRE VATS, NO","FM-12","99999","V020","240,1,N,0010,1","00750,1,9,N","015000,1,N,1","+0108,1","+0045,1","10195,1","12,0003,9,1","24,0013,9,1",,"8,1,06,1","2,1,06,1",,"05,99,1,05,1,02,1,00800,1,00,1,00,1",,"999,N,+0105,1","99999,9,10117,1",,"01,1","SYN094AAXX  23061 01417 11565 52401 10108 20045 30117 40195 69932 70182 85200 333 20105 4//// 70013;",
"01417099999","2010-05-23T12:00:00","4","59.4833333","5.75","65.0","NEDRE VATS, NO","FM-12","99999","V020","280,1,N,0050,1","00750,1,9,N","020000,1,N,1","+0134,1","-0067,1","10183,1",,,,"2,1,06,1","1,1,06,1",,"06,99,1,06,1,02,1,00800,1,00,1,00,1",,,"99999,9,10105,1",,"03,1","SYN082AAXX  23121 01417 11570 62805 10134 21067 30105 40183 6//// 70321 86200 333 4////;",
"01417099999","2010-05-23T18:00:00","4","59.4833333","5.75","65.0","NEDRE VATS, NO","FM-12","99999","V020","260,1,N,0050,1","07500,1,9,N","020000,1,N,1","+0122,1","+0027,1","10154,1","12,0000,9,1",,,"2,1,06,1","1,1,06,1",,"07,99,1,04,1,02,1,00800,1,00,1,05,1",,"120,M,+0163,1","99999,9,10076,1",,"03,1","SYN088AAXX  23181 01417 11570 72605 10122 20027 30076 40154 60002 70321 84205 333 10163 4////;","Q01  00002PRCP12"
"01417099999","2010-05-24T06:00:00","4","59.4833333","5.75","65.0","NEDRE VATS, NO","FM-12","99999","V020","280,1,N,0050,1","00420,1,9,N","015000,1,N,1","+0097,1","+0061,1","10068,1","12,0010,9,1","24,0015,9,1",,"8,1,06,1","2,1,06,1",,"08,99,1,08,1,06,1,00450,1,99,9,99,9",,"999,N,+0095,1","99999,9,09990,1",,"80,1","SYN094AAXX  24061 01417 11465 82805 10097 20061 39990 40068 60012 78082 886// 333 20095 4//// 70014;",
"01417099999","2010-05-24T12:00:00","4","59.4833333","5.75","65.0","NEDRE VATS, NO","FM-12","99999","V020","270,1,N,0050,1","00750,1,9,N","020000,1,N,1","+0095,1","-0012,1","10064,1",,,,"8,1,06,1","2,1,06,1",,"07,99,1,07,1,09,1,00800,1,00,1,00,1",,,"99999,9,09986,1",,"01,1","SYN082AAXX  24121 01417 11570 72705 10095 21012 39986 40064 6//// 70182 87900 333 4////;",
"01417099999","2010-05-24T18:00:00","4","59.4833333","5.75","65.0","NEDRE VATS, NO","FM-12","99999","V020","280,1,N,0050,1","22000,1,9,N","020000,1,N,1","+0082,1","-0021,1","10051,1","12,0030,9,1",,,"8,1,06,1","2,1,06,1",,"04,99,1,04,1,09,1,00800,1,00,1,00,1",,"120,M,+0108,1","99999,9,09973,1",,"01,1","SYN088AAXX  24181 01417 11570 42805 10082 21021 39973 40051 60032 70182 84900 333 10108 4////;",
"01417099999","2010-05-25T06:00:00","4","59.4833333","5.75","65.0","NEDRE VATS, NO","FM-12","99999","V020","310,1,N,0050,1","07500,1,9,N","020000,1,N,1","+0070,1","-0016,1","10056,1","12,0003,9,1","24,0033,9,1",,"8,1,06,1","2,1,06,1",,"07,99,1,03,1,09,1,00800,1,00,1,03,1",,"999,N,+0060,1","99999,9,09978,1",,"01,1","SYN094AAXX  25061 01417 11570 73105 10070 21016 39978 40056 69932 70182 83903 333 20060 4//// 70034;",
"01417099999","2010-05-25T12:00:00","4","59.4833333","5.75","65.0","NEDRE VATS, NO","FM-12","99999","V020","280,1,N,0050,1","22000,1,9,N","025000,1,N,1","+0096,1","-0033,1","10070,1",,,,"8,1,06,1","2,1,06,1",,"04,99,1,04,1,02,1,00800,1,00,1,00,1",,,"99999,9,09992,1",,"01,1","SYN082AAXX  25121 01417 11575 42805 10096 21033 39992 40070 6//// 70182 84200 333 4////;",
"01417099999","2010-05-25T18:00:00","4","59.4833333","5.75","65.0","NEDRE VATS, NO","FM-12","99999","V020","270,1,N,0050,1","00750,1,9,N","025000,1,N,1","+0082,1","-0010,1","10080,1","12,0010,9,1",,,"2,1,06,1","1,1,06,1",,"05,99,1,05,1,02,1,00800,1,00,1,00,1",,"120,M,+0119,1","99999,9,10002,1",,"03,1","SYN088AAXX  25181 01417 11575 52705 10082 21010 30002 40080 60012 70321 85200 333 10119 4////;",
"01417099999","2010-05-26T06:00:00","4","59.4833333","5.75","65.0","NEDRE VATS, NO","FM-12","99999","V020","220,1,N,0030,1","22000,1,9,N","020000,1,N,1","+0047,1","+0021,1","10088,1","12,0000,9,1","24,0013,9,1",,"2,1,06,1","1,1,06,1",,"04,99,1,04,1,02,1,00800,1,00,1,00,1",,"999,N,+0016,1","99999,9,10008,1",,"01,1","SYN094AAXX  26061 01417 11570 42203 10047 20021 30008 40088 69922 70121 84200 333 20016 4//// 70013;","Q01  00002PRCP12"
"01417099999","2010-05-26T12:00:00","4","59.4833333","5.75","65.0","NEDRE VATS, NO","FM-12","99999","V020","270,1,N,0030,1","99999,9,9,N","020000,1,N,1","+0081,1","+0004,1","10078,1",,,,"8,1,06,1","2,1,06,1",,"08,99,1,08,1,00,1,00800,1,07,1,99,9",,,"99999,9,09999,1",,"03,1","SYN082AAXX  26121 01417 11570 82703 10081 20004 39999 40078 6//// 70382 8807/ 333 4////;",
"01417099999","2010-05-26T18:00:00","4","59.4833333","5.75","65.0","NEDRE VATS, NO","FM-12","99999","V020","140,1,N,0050,1","22000,1,9,N","025000,1,N,1","+0067,1","+0012,1","10080,1","12,0003,9,1",,,"8,1,06,1","2,1,06,1",,"06,99,1,04,1,09,1,00800,1,00,1,01,1",,"120,M,+0114,1","99999,9,10001,1",,"01,1","SYN088AAXX  26181 01417 11575 61405 10067 20012 30001 40080 69932 70182 84901 333 10114 4////;",
"01417099999","2010-05-27T06:00:00","4","59.4833333","5.75","65.0","NEDRE VATS, NO","FM-12","99999","V020","150,1,N,0010,1","22000,1,9,N","025000,1,N,1","+0038,1","+0018,1","10077,1","12,0000,9,1","24,0005,9,1",,"2,1,06,1","1,1,06,1",,"03,99,1,01,1,02,1,00800,1,00,1,02,1",,"999,N,+0005,1","99999,9,09997,1",,"01,1","SYN094AAXX  27061 01417 11575 31501 10038 20018 39997 40077 69922 70121 81202 333 20005 4//// 70005;","Q01  00002PRCP12"
"01417099999","2010-05-27T12:00:00","4","59.4833333","5.75","65.0","NEDRE VATS, NO","FM-12","99999","V020","250,1,N,0050,1","22000,1,9,N","025000,1,N,1","+0129,1","-0047,1","10077,1",,,,"2,1,06,1","1,1,06,1",,"04,99,1,04,1,02,1,00800,1,00,1,00,1",,,"99999,9,09999,1",,"03,1","SYN082AAXX  27121 01417 11575 42505 10129 21047 39999 40077 6//// 70321 84200 333 4////;",
"01417099999","2010-05-27T18:00:00","4","59.4833333","5.75","65.0","NEDRE VATS, NO","FM-12","99999","V020","220,1,N,0050,1","22000,1,9,N","025000,1,N,1","+0109,1","-0064,1","10078,1","12,0000,9,1",,,"2,1,06,1","1,1,06,1",,"06,99,1,01,1,03,1,00800,1,00,1,06,1",,"120,M,+0141,1","99999,9,10000,1",,"03,1","SYN088AAXX  27181 01417 11575 62205 10109 21064 30000 40078 60002 70321 81306 333 10141 4////;","Q01  00002PRCP12"
"01417099999","2010-05-28T06:00:00","4","59.4833333","5.75","65.0","NEDRE VATS, NO","FM-12","99999","V020","040,1,N,0010,1","07500,1,9,N","025000,1,N,1","+0081,1","-0001,1","10078,1","12,0000,9,1","24,0000,9,1",,"2,1,06,1","1,1,06,1",,"06,99,1,01,1,02,1,00800,1,00,1,07,1",,"999,N,+0061,1","99999,9,09999,1",,"02,1","SYN094AAXX  28061 01417 11575 60401 10081 21001 39999 40078 60002 70221 81207 333 20061 4//// 70000;","Q01  00002PRCP24Q02  00002PRCP12"
"01417099999","2010-05-28T12:00:00","4","59.4833333","5.75","65.0","NEDRE VATS, NO","FM-12","99999","V020","170,1,N,0050,1","01200,1,9,N","025000,1,N,1","+0138,1","-0064,1","10070,1",,,,"2,1,06,1","1,1,06,1",,"08,99,1,08,1,08,1,00800,1,99,9,99,9",,,"99999,9,09993,1",,"03,1","SYN072AAXX  28121 01417 11575 81705 10138 21064 39993 40070 6//// 70321 888//;",
"01417099999","2010-05-28T18:00:00","4","59.4833333","5.75","65.0","NEDRE VATS, NO","FM-12","99999","V020","300,1,N,0030,1","00750,1,9,N","020000,1,N,1","+0108,1","+0041,1","10081,1","12,0008,9,1",,,"8,1,06,1","2,1,06,1",,"08,99,1,08,1,09,1,00800,1,99,9,99,9",,"999,M,+0142,1","99999,9,10003,1",,"80,1","SYN082AAXX  28181 01417 11570 83003 10108 20041 30003 40081 69972 78082 889// 333 10142;",
"01417099999","2010-05-29T06:00:00","4","59.4833333","5.75","65.0","NEDRE VATS, NO","FM-12","99999","V020","270,1,N,0030,1","22000,1,9,N","030000,1,N,1","+0089,1","+0053,1","10121,1","12,0000,2,1","24,0008,9,1",,"8,1,06,1","2,1,06,1",,"03,99,1,03,1,02,1,00800,1,00,1,00,1",,"999,N,+0041,1","99999,9,10042,1",,"01,1","SYN088AAXX  29061 01417 11580 32703 10089 20053 30042 40121 69912 70182 83200 333 20041 70008;",
"01417099999","2010-05-29T12:00:00","4","59.4833333","5.75","65.0","NEDRE VATS, NO","FM-12","99999","V020","080,1,N,0050,1","00750,1,9,N","025000,1,N,1","+0102,1","+0018,1","10135,1",,,,"8,1,06,1","2,1,06,1",,"07,99,1,07,1,09,1,00800,1,00,1,00,1",,,"99999,9,10056,1",,"03,1","SYN072AAXX  29121 01417 11575 70805 10102 20018 30056 40135 6//// 70382 87900;",
"01417099999","2010-05-30T06:00:00","4","59.4833333","5.75","65.0","NEDRE VATS, NO","FM-12","99999","V020","999,9,C,0000,1","22000,1,9,N","030000,1,N,1","+0072,1","+0040,1","10098,1","12,0000,9,1",,,"2,1,06,1","1,1,06,1",,"03,99,1,01,1,00,1,00800,1,07,1,06,1",,"999,N,+0034,1","99999,9,10019,1",,"03,1","SYN082AAXX  30061 01417 11580 30000 10072 20040 30019 40098 69912 70321 81076 333 20034;","Q01  00002PRCP12"
"01417099999","2010-05-30T18:00:00","4","59.4833333","5.75","65.0","NEDRE VATS, NO","FM-12","99999","V020","080,1,N,0030,1","00750,1,9,N","030000,1,N,1","+0159,1","-0021,1","10113,1","12,0000,9,1",,,"2,1,06,1","1,1,06,1",,"05,99,1,05,1,02,1,00800,1,00,1,00,1",,"999,M,+0171,1","99999,9,10036,1",,"03,1","SYN082AAXX  30181 01417 11580 50803 10159 21021 30036 40113 60002 70321 85200 333 10171;","Q01  00002PRCP12"
"01417099999","2010-05-31T06:00:00","4","59.4833333","5.75","65.0","NEDRE VATS, NO","FM-12","99999","V020","999,9,C,0000,1","22000,1,9,N","030000,1,N,1","+0100,1","+0035,1","10167,1","12,0000,9,1","24,0000,9,1",,"1,1,06,1","0,1,06,1","00,1,+99999,9,99,9","00,99,1,00,1,00,1,99999,9,00,1,00,1",,"999,N,+0060,1","99999,9,10088,1",,"01,1","SYN082AAXX  31061 01417 11980 00000 10100 20035 30088 40167 60002 70110 333 20060 70000;","Q01  00002PRCP24Q02  00002PRCP12"
"01417099999","2010-05-31T12:00:00","4","59.4833333","5.75","65.0","NEDRE VATS, NO","FM-12","99999","V020","280,1,N,0050,1","22000,1,9,N","030000,1,N,1","+0200,1","-0011,1","10175,1",,,,"1,1,06,1","0,1,06,1",,"01,99,1,01,1,02,1,00800,1,00,1,00,1",,,"99999,9,10099,1",,"03,1","SYN072AAXX  31121 01417 11580 12805 10200 21011 30099 40175 6//// 70310 81200;",
"01417099999","2010-05-31T18:00:00","4","59.4833333","5.75","65.0","NEDRE VATS, NO","FM-12","99999","V020","170,1,N,0050,1","22000,1,9,N","030000,1,N,1","+0181,1","-0011,1","10171,1","12,0000,9,1",,,"1,1,06,1","0,1,06,1",,"01,99,1,00,1,00,1,99999,9,00,1,01,1",,"999,M,+0213,1","99999,9,10094,1",,"02,1","SYN082AAXX  31181 01417 11980 11705 10181 21011 30094 40171 60002 70210 80001 333 10213;","Q01  00002PRCP12"
"01417099999","2010-06-01T06:00:00","4","59.4833333","5.75","65.0","NEDRE VATS, NO","FM-12","99999","V020","220,1,N,0030,1","22000,1,9,N","030000,1,N,1","+0095,1","+0062,1","10163,1","12,0000,9,1","24,0000,9,1",,"1,1,06,1","0,1,06,1",,"01,99,1,00,1,00,1,99999,9,00,1,01,1",,"999,N,+0061,1","99999,9,10085,1",,"02,1","SYN088AAXX  01061 01417 11980 12203 10095 20062 30085 40163 60002 70210 80001 333 20061 70000;","Q01  00002PRCP24Q02  00002PRCP12"
"01417099999","2010-06-01T12:00:00","4","59.4833333","5.75","65.0","NEDRE VATS, NO","FM-12","99999","V020","140,1,N,0050,1","22000,1,9,N","030000,1,N,1","+0183,1","-0064,1","10160,1",,,,"1,1,06,1","0,1,06,1",,"01,99,1,01,1,02,1,00800,1,00,1,00,1",,,"99999,9,10084,1",,"02,1","SYN072AAXX  01121 01417 11580 11405 10183 21064 30084 40160 6//// 70210 81200;",
"01417099999","2010-06-01T18:00:00","4","59.4833333","5.75","65.0","NEDRE VATS, NO","FM-12","99999","V020","250,1,N,0030,1","22000,1,9,N","030000,1,N,1","+0165,1","+0002,1","10166,1","12,0000,9,1",,,"1,1,06,1","0,1,06,1",,"01,99,1,00,1,00,1,99999,9,00,1,01,1",,"999,M,+0191,1","99999,9,10089,1",,"02,1","SYN082AAXX  01181 01417 11980 12503 10165 20002 30089 40166 60002 70210 80001 333 10191;","Q01  00002PRCP12"
"01417099999","2010-06-02T06:00:00","4","59.4833333","5.75","65.0","NEDRE VATS, NO","FM-12","99999","V020","100,1,N,0010,1","01200,1,9,N","025000,1,N,1","+0099,1","+0057,1","10182,1","12,0000,9,1","24,0000,9,1",,"2,1,06,1","1,1,06,1",,"08,99,1,08,1,08,1,00800,1,99,9,99,9",,"999,N,+0065,1","99999,9,10104,1",,"03,1","SYN088AAXX  02061 01417 11575 81001 10099 20057 30104 40182 60002 70321 888// 333 20065 70000;","Q01  00002PRCP24Q02  00002PRCP12"
"01417099999","2010-06-02T12:00:00","4","59.4833333","5.75","65.0","NEDRE VATS, NO","FM-12","99999","V020","110,1,N,0050,1","01200,1,9,N","025000,1,N,1","+0145,1","-0033,1","10191,1",,,,"2,1,06,1","1,1,06,1",,"08,99,1,08,1,08,1,00800,1,99,9,99,9",,,"99999,9,10114,1",,"02,1","SYN072AAXX  02121 01417 11575 81105 10145 21033 30114 40191 6//// 70221 888//;",
"01417099999","2010-06-02T18:00:00","4","59.4833333","5.75","65.0","NEDRE VATS, NO","FM-12","99999","V020","250,1,N,0070,1","00420,1,9,N","015000,1,N,1","+0122,1","+0073,1","10195,1","12,0000,9,1",,,"2,1,06,1","1,1,06,1",,"08,99,1,08,1,06,1,00450,1,99,9,99,9",,"999,M,+0153,1","99999,9,10117,1",,"02,1","SYN082AAXX  02181 01417 11465 82507 10122 20073 30117 40195 60002 70221 886// 333 10153;","Q01  00002PRCP12"
"01417099999","2010-06-03T06:00:00","4","59.4833333","5.75","65.0","NEDRE VATS, NO","FM-12","99999","V020","310,1,N,0050,1","00420,1,9,N","015000,1,N,1","+0117,1","+0064,1","10209,1","12,0005,9,1","24,0005,9,1",,"8,1,06,1","2,1,06,1",,"08,99,1,08,1,06,1,00450,1,99,9,99,9",,"999,N,+0106,1","99999,9,10130,1",,"02,1","SYN088AAXX  03061 01417 11465 83105 10117 20064 30130 40209 69942 70282 886// 333 20106 70004;",
"01417099999","2010-06-03T18:00:00","4","59.4833333","5.75","65.0","NEDRE VATS, NO","FM-12","99999","V020","290,1,N,0050,1","00750,1,9,N","025000,1,N,1","+0138,1","+0027,1","10224,1","12,0000,9,1",,,"8,1,06,1","2,1,06,1",,"07,99,1,07,1,09,1,00800,1,00,1,00,1",,"999,M,+0142,1","99999,9,10145,1",,"01,1","SYN082AAXX  03181 01417 11575 72905 10138 20027 30145 40224 69912 70182 87900 333 10142;","Q01  00002PRCP12"
"01417099999","2010-06-04T06:00:00","4","59.4833333","5.75","65.0","NEDRE VATS, NO","FM-12","99999","V020","220,1,N,0010,1","22000,1,9,N","030000,1,N,1","+0105,1","+0059,1","10217,1","12,0000,9,1","24,0000,9,1",,"1,1,06,1","0,1,06,1","00,1,+99999,9,99,9","00,99,1,00,1,00,1,99999,9,00,1,00,1",,"999,N,+0065,1","99999,9,10138,1",,"01,1","SYN082AAXX  04061 01417 11980 02201 10105 20059 30138 40217 60002 70110 333 20065 70001;","Q01  00002PRCP24Q02  00002PRCP12"
"01417099999","2010-06-04T12:00:00","4","59.4833333","5.75","65.0","NEDRE VATS, NO","FM-12","99999","V020","250,1,N,0050,1","22000,1,9,N","030000,1,N,1","+0191,1","-0019,1","10209,1",,,,"1,1,06,1","0,1,06,1",,"01,99,1,00,1,00,1,99999,9,00,1,01,1",,,"99999,9,10133,1",,"03,1","SYN072AAXX  04121 01417 11980 12505 10191 21019 30133 40209 6//// 70310 80001;",
"01417099999","2010-06-04T18:00:00","4","59.4833333","5.75","65.0","NEDRE VATS, NO","FM-12","99999","V020","170,1,N,0030,1","22000,1,9,N","030000,1,N,1","+0170,1","+0011,1","10188,1","12,0000,9,1",,,"2,1,06,1","1,1,06,1",,"04,99,1,01,1,08,1,00800,1,00,1,08,1",,"999,M,+0206,1","99999,9,10111,1",,"03,1","SYN082AAXX  04181 01417 11580 41703 10170 20011 30111 40188 60002 70321 81808 333 10206;","Q01  00002PRCP12"
"01417099999","2010-06-05T06:00:00","4","59.4833333","5.75","65.0","NEDRE VATS, NO","FM-12","99999","V020","260,1,N,0010,1","22000,1,9,N","025000,1,N,1","+0091,1","+0051,1","10190,1","12,0000,9,1","24,0000,9,1",,"2,1,06,1","1,1,06,1",,"04,99,1,04,1,02,1,00800,1,00,1,00,1",,"999,N,+0062,1","99999,9,10111,1",,"02,1","SYN088AAXX  05061 01417 11575 42601 10091 20051 30111 40190 60002 70221 84200 333 20062 70000;","Q01  00002PRCP24Q02  00002PRCP12"
"01417099999","2010-06-05T12:00:00","4","59.4833333","5.75","65.0","NEDRE VATS, NO","FM-12","99999","V020","250,1,N,0050,1","22000,1,9,N","030000,1,N,1","+0159,1","+0001,1","10182,1",,,,"1,1,06,1","0,1,06,1",,"01,99,1,00,1,00,1,99999,9,00,1,01,1",,,"99999,9,10105,1",,"01,1","SYN072AAXX  05121 01417 11980 12505 10159 20001 30105 40182 6//// 70110 80001;",
"01417099999","2010-06-05T18:00:00","4","59.4833333","5.75","65.0","NEDRE VATS, NO","FM-12","99999","V020","230,1,N,0050,1","22000,1,9,N","030000,1,N,1","+0132,1","+0003,1","10172,1","12,0000,9,1",,,"2,1,06,1","1,1,06,1",,"03,99,1,00,1,00,1,99999,9,00,1,06,1",,"999,M,+0167,1","99999,9,10094,1",,"03,1","SYN082AAXX  05181 01417 11980 32305 10132 20003 30094 40172 60002 70321 80006 333 10167;","Q01  00002PRCP12"
"01417099999","2010-06-06T06:00:00","4","59.4833333","5.75","65.0","NEDRE VATS, NO","FM-12","99999","V020","220,1,N,0010,1","00750,1,9,N","025000,1,N,1","+0099,1","+0034,1","10151,1","12,0000,9,1","24,0000,9,1",,"2,1,06,1","1,1,06,1",,"06,99,1,06,1,02,1,00800,1,00,1,00,1",,"999,N,+0055,1","99999,9,10072,1",,"03,1","SYN088AAXX  06061 01417 11575 62201 10099 20034 30072 40151 60002 70321 86200 333 20055 70000;","Q01  00002PRCP24Q02  00002PRCP12"
"01417099999","2010-06-06T12:00:00","4","59.4833333","5.75","65.0","NEDRE VATS, NO","FM-12","99999","V020","260,1,N,0070,1","22000,1,9,N","030000,1,N,1","+0171,1","-0015,1","10131,1",,,,"1,1,06,1","0,1,06,1",,"01,99,1,00,1,00,1,99999,9,00,1,01,1",,,"99999,9,10055,1",,"01,1","SYN072AAXX  06121 01417 11980 12607 10171 21015 30055 40131 6//// 70110 80001;",
"01417099999","2010-06-06T18:00:00","4","59.4833333","5.75","65.0","NEDRE VATS, NO","FM-12","99999","V020","280,1,N,0070,1","22000,1,9,N","030000,1,N,1","+0169,1","-0012,1","10102,1","12,0000,9,1",,,"1,1,06,1","0,1,06,1",,"01,99,1,00,1,00,1,99999,9,00,1,01,1",,"999,M,+0189,1","99999,9,10026,1",,"02,1","SYN082AAXX  06181 01417 11980 12807 10169 21012 30026 40102 60002 70210 80001 333 10189;","Q01  00002PRCP12"
"01417099999","2010-06-07T06:00:00","4","59.4833333","5.75","65.0","NEDRE VATS, NO","FM-12","99999","V020","140,1,N,0050,1","22000,1,9,N","030000,1,N,1","+0126,1","+0051,1","10062,1","12,0000,9,1","24,0000,9,1",,"2,1,06,1","1,1,06,1",,"02,99,1,00,1,00,1,99999,9,00,1,01,1",,"999,N,+0081,1","99999,9,09985,1",,"03,1","SYN088AAXX  07061 01417 11980 21405 10126 20051 39985 40062 60002 70321 80001 333 20081 70000;","Q01  00002PRCP24Q02  00002PRCP12"
"01417099999","2010-06-07T12:00:00","4","59.4833333","5.75","65.0","NEDRE VATS, NO","FM-12","99999","V020","270,1,N,0050,1","22000,1,9,N","030000,1,N,1","+0191,1","-0037,1","10053,1",,,,"2,1,06,1","1,1,06,1",,"04,99,1,04,1,02,1,00800,1,00,1,00,1",,,"99999,9,09978,1",,"03,1","SYN072AAXX  07121 01417 11580 42705 10191 21037 39978 40053 6//// 70321 84200;",
"01417099999","2010-06-07T18:00:00","4","59.4833333","5.75","65.0","NEDRE VATS, NO","FM-12","99999","V020","280,1,N,0050,1","99999,9,9,N","025000,1,N,1","+0149,1","-0034,1","10061,1","12,0000,9,1",,,"2,1,06,1","1,1,06,1",,"06,99,1,01,1,00,1,00800,1,09,1,08,1",,"999,M,+0202,1","99999,9,09984,1",,"03,1","SYN082AAXX  07181 01417 11575 62805 10149 21034 39984 40061 60002 70321 81098 333 10202;","Q01  00002PRCP12"
"01417099999","2010-06-08T06:00:00","4","59.4833333","5.75","65.0","NEDRE VATS, NO","FM-12","99999","V020","210,1,N,0030,1","22000,1,9,N","030000,1,N,1","+0118,1","+0038,1","10068,1","12,0000,9,1","24,0000,9,1",,"2,1,06,1","1,1,06,1",,"04,99,1,00,1,00,1,99999,9,00,1,08,1",,"999,N,+0095,1","99999,9,09990,1",,"01,1","SYN088AAXX  08061 01417 11980 42103 10118 20038 39990 40068 60002 70121 80008 333 20095 70000;","Q01  00002PRCP24Q02  00002PRCP12"
"01417099999","2010-06-08T12:00:00","4","59.4833333","5.75","65.0","NEDRE VATS, NO","FM-12","99999","V020","220,1,N,0050,1","22000,1,9,N","030000,1,N,1","+0183,1","-0005,1","10059,1",,,,"1,1,06,1","0,1,06,1",,"01,99,1,00,1,00,1,99999,9,00,1,01,1",,,"99999,9,09983,1",,"01,1","SYN072AAXX  08121 01417 11980 12205 10183 21005 39983 40059 6//// 70110 80001;",
"01417099999","2010-06-08T18:00:00","4","59.4833333","5.75","65.0","NEDRE VATS, NO","FM-12","99999","V020","210,1,N,0030,1","22000,1,9,N","030000,1,N,1","+0153,1","-0004,1","10074,1","12,0000,9,1",,,"1,1,06,1","0,1,06,1",,"01,99,1,00,1,00,1,99999,9,00,1,01,1",,"999,M,+0194,1","99999,9,09997,1",,"02,1","SYN082AAXX  08181 01417 11980 12103 10153 21004 39997 40074 60002 70210 80001 333 10194;","Q01  00002PRCP12"
"01417099999","2010-06-09T06:00:00","4","59.4833333","5.75","65.0","NEDRE VATS, NO","FM-12","99999","V020","210,1,N,0010,1","99999,9,9,N","030000,1,N,1","+0114,1","+0073,1","10103,1","12,0000,9,1","24,0000,9,1",,"2,1,06,1","1,1,06,1",,"06,99,1,06,1,00,1,00800,1,03,1,00,1",,"999,N,+0094,1","99999,9,10025,1",,"03,1","SYN088AAXX  09061 01417 11580 62101 10114 20073 30025 40103 60002 70321 86030 333 20094 70000;","Q01  00002PRCP24Q02  00002PRCP12"
"01417099999","2010-06-09T12:00:00","4","59.4833333","5.75","65.0","NEDRE VATS, NO","FM-12","99999","V020","260,1,N,0050,1","00750,1,9,N","030000,1,N,1","+0212,1","+0025,1","10107,1",,,,"2,1,06,1","1,1,06,1",,"06,99,1,06,1,02,1,00800,1,00,1,00,1",,,"99999,9,10032,1",,"02,1","SYN072AAXX  09121 01417 11580 62605 10212 20025 30032 40107 6//// 70221 86200;",
"01417099999","2010-06-09T18:00:00","4","59.4833333","5.75","65.0","NEDRE VATS, NO","FM-12","99999","V020","250,1,N,0050,1","22000,1,9,N","030000,1,N,1","+0208,1","+0012,1","10116,1","12,0000,9,1",,,"1,1,06,1","0,1,06,1",,"01,99,1,01,1,02,1,00800,1,00,1,00,1",,"999,M,+0223,1","99999,9,10041,1",,"01,1","SYN082AAXX  09181 01417 11580 12505 10208 20012 30041 40116 60002 70110 81200 333 10223;","Q01  00002PRCP12"
"01417099999","2010-06-10T06:00:00","4","59.4833333","5.75","65.0","NEDRE VATS, NO","FM-12","99999","V020","010,1,N,0010,1","01200,1,9,N","025000,1,N,1","+0165,1","+0066,1","10152,1","12,0000,9,1","24,0000,9,1",,"2,1,06,1","1,1,06,1",,"08,99,1,08,1,08,1,00800,1,99,9,99,9",,"999,N,+0130,1","99999,9,10075,1",,"03,1","SYN088AAXX  10061 01417 11575 80101 10165 20066 30075 40152 60002 70321 888// 333 20130 70000;","Q01  00002PRCP24Q02  00002PRCP12"
"01417099999","2010-06-10T12:00:00","4","59.4833333","5.75","65.0","NEDRE VATS, NO","FM-12","99999","V020","080,1,N,0050,1","22000,1,9,N","030000,1,N,1","+0214,1","+0022,1","10138,1",,,,"2,1,06,1","1,1,06,1",,"05,99,1,04,1,02,1,00800,1,00,1,01,1",,,"99999,9,10063,1",,"01,1","SYN072AAXX  10121 01417 11580 50805 10214 20022 30063 40138 6//// 70121 84201;",
"01417099999","2010-06-10T18:00:00","4","59.4833333","5.75","65.0","NEDRE VATS, NO","FM-12","99999","V020","240,1,N,0050,1","01200,1,9,N","025000,1,N,1","+0198,1","+0055,1","10113,1","12,0000,9,1",,,"2,1,06,1","1,1,06,1",,"08,99,1,08,1,08,1,00800,1,99,9,99,9",,"999,M,+0227,1","99999,9,10037,1",,"03,1","SYN082AAXX  10181 01417 11575 82405 10198 20055 30037 40113 60002 70321 888// 333 10227;","Q01  00002PRCP12"
"01417099999","2010-06-11T06:00:00","4","59.4833333","5.75","65.0","NEDRE VATS, NO","FM-12","99999","V020","100,1,N,0010,1","00750,1,9,N","020000,1,N,1","+0135,1","+0110,1","10047,1","12,0020,9,1","24,0023,9,1",,"8,1,06,1","2,1,06,1",,"08,99,1,08,1,09,1,00800,1,99,9,99,9",,"999,N,+0131,1","99999,9,09970,1",,"02,1","SYN088AAXX  11061 01417 11570 81001 10135 20110 39970 40047 60022 70282 889// 333 20131 70023;",
"01417099999","2010-06-11T12:00:00","4","59.4833333","5.75","65.0","NEDRE VATS, NO","FM-12","99999","V020","210,1,N,0010,1","00210,1,9,N","010000,1,N,1","+0111,1","+0074,1","10009,1",,,,"8,1,06,1","2,1,06,1",,"08,99,1,08,1,06,1,00250,1,99,9,99,9",,,"99999,9,09932,1",,"02,1","SYN072AAXX  11121 01417 11360 82101 10111 20074 39932 40009 6//// 70282 886//;",
"01417099999","2010-06-11T18:00:00","4","59.4833333","5.75","65.0","NEDRE VATS, NO","FM-12","99999","V020","220,1,N,0050,1","00420,1,9,N","015000,1,N,1","+0101,1","+0053,1","09986,1","12,0109,9,1",,,"8,1,06,1","2,1,06,1",,"08,99,1,08,1,06,1,00450,1,99,9,99,9",,"999,M,+0142,1","99999,9,09909,1",,"02,1","SYN082AAXX  11181 01417 11465 82205 10101 20053 39909 49986 60112 70282 886// 333 10142;",
"01417099999","2010-06-12T06:00:00","4","59.4833333","5.75","65.0","NEDRE VATS, NO","FM-12","99999","V020","310,1,N,0010,1","00420,1,9,N","010000,1,N,1","+0099,1","+0064,1","09932,1","12,0061,9,1","24,0170,9,1",,"6,1,06,1","2,1,06,1",,"08,99,1,08,1,06,1,00450,1,99,9,99,9",,"999,N,+0081,1","99999,9,09855,1",,"61,1","SYN088AAXX  12061 01417 11460 83101 10099 20064 39855 49932 60062 76162 886// 333 20081 70170;",
"01417099999","2010-06-12T12:00:00","4","59.4833333","5.75","65.0","NEDRE VATS, NO","FM-12","99999","V020","040,1,N,0050,1","00420,1,9,N","012000,1,N,1","+0115,1","+0062,1","09978,1",,,,"6,1,06,1","2,1,06,1",,"08,99,1,08,1,06,1,00450,1,99,9,99,9",,,"99999,9,09901,1",,"02,1","SYN072AAXX  12121 01417 11462 80405 10115 20062 39901 49978 6//// 70262 886//;",
"01417099999","2010-06-12T18:00:00","4","59.4833333","5.75","65.0","NEDRE VATS, NO","FM-12","99999","V020","320,1,N,0050,1","00750,1,9,N","025000,1,N,1","+0088,1","+0022,1","99999,9","12,0020,9,1",,,"8,1,06,1","2,1,06,1",,"06,99,1,06,1,09,1,00800,1,00,1,00,1",,"999,M,+0126,1",,,"01,1","SYN082AAXX  12181 01417 11575 63205 10088 20022 39997 40075 60022 70182 86900 333 10126;","Q01+099973APOSP "
"01417099999","2010-06-13T06:00:00","4","59.4833333","5.75","65.0","NEDRE VATS, NO","FM-12","99999","V020","280,1,N,0050,1","00750,1,9,N","025000,1,N,1","+0099,1","+0020,1","10092,1","12,0000,9,1","24,0023,9,1",,"8,1,06,1","2,1,06,1",,"08,99,1,08,1,09,1,00800,1,99,9,99,9",,"999,N,+0078,1","99999,9,10014,1",,"03,1","SYN088AAXX  13061 01417 11575 82805 10099 20020 30014 40092 69912 70382 889// 333 20078 70022;","Q01  00002PRCP12"
"01417099999","2010-06-13T12:00:00","4","59.4833333","5.75","65.0","NEDRE VATS, NO","FM-12","99999","V020","250,1,N,0050,1","00750,1,9,N","025000,1,N,1","+0118,1","+0020,1","10103,1",,,,"8,1,06,1","2,1,06,1",,"08,99,1,08,1,09,1,00800,1,99,9,99,9",,,"99999,9,10026,1",,"02,1","SYN072AAXX  13121 01417 11575 82505 10118 20020 30026 40103 6//// 70282 889//;",
"01417099999","2010-06-13T18:00:00","4","59.4833333","5.75","65.0","NEDRE VATS, NO","FM-12","99999","V020","310,1,N,0050,1","22000,1,9,N","030000,1,N,1","+0115,1","-0013,1","10113,1","12,0010,9,1",,,"1,1,06,1","0,1,06,1",,"01,99,1,01,1,02,1,00800,1,00,1,00,1",,"999,M,+0148,1","99999,9,10035,1",,"01,1","SYN082AAXX  13181 01417 11580 13105 10115 21013 30035 40113 69992 70110 81200 333 10148;",
"01417099999","2010-06-14T06:00:00","4","59.4833333","5.75","65.0","NEDRE VATS, NO","FM-12","99999","V020","250,1,N,0050,1","22000,1,9,N","030000,1,N,1","+0082,1","+0016,1","10148,1","12,0000,9,1","24,0010,9,1",,"1,1,06,1","0,1,06,1",,"01,99,1,01,1,02,1,00800,1,00,1,00,1",,"999,N,+0046,1","99999,9,10069,1",,"01,1","SYN088AAXX  14061 01417 11580 12505 10082 20016 30069 40148 69912 70110 81200 333 20046 70010;","Q01  00002PRCP12"
"01417099999","2010-06-14T12:00:00","4","59.4833333","5.75","65.0","NEDRE VATS, NO","FM-12","99999","V020","280,1,N,0050,1","22000,1,9,N","030000,1,N,1","+0143,1","-0034,1","10151,1",,,,"1,1,06,1","0,1,06,1",,"04,99,1,04,1,02,1,00800,1,00,1,00,1",,,"99999,9,10073,1",,"03,1","SYN072AAXX  14121 01417 11580 42805 10143 21034 30073 40151 6//// 70310 84200;",
"01417099999","2010-06-14T18:00:00","4","59.4833333","5.75","65.0","NEDRE VATS, NO","FM-12","99999","V020","290,1,N,0070,1","22000,1,9,N","030000,1,N,1","+0149,1","-0020,1","10158,1","12,0000,9,1",,,"1,1,06,1","0,1,06,1",,"01,99,1,01,1,02,1,00800,1,00,1,00,1",,"999,M,+0161,1","99999,9,10081,1",,"01,1","SYN082AAXX  14181 01417 11580 12907 10149 21020 30081 40158 60002 70110 81200 333 10161;","Q01  00002PRCP12"
"01417099999","2010-06-15T06:00:00","4","59.4833333","5.75","65.0","NEDRE VATS, NO","FM-12","99999","V020","260,1,N,0050,1","22000,1,9,N","030000,1,N,1","+0091,1","+0045,1","10224,1","12,0000,9,1","24,0000,9,1",,"1,1,06,1","0,1,06,1","00,1,+99999,9,99,9","00,99,1,00,1,00,1,99999,9,00,1,00,1",,"999,N,+0055,1","99999,9,10144,1",,"01,1","SYN082AAXX  15061 01417 11980 02605 10091 20045 30144 40224 60002 70110 333 20055 70000;","Q01  00002PRCP24Q02  00002PRCP12"
"01417099999","2010-06-15T12:00:00","4","59.4833333","5.75","65.0","NEDRE VATS, NO","FM-12","99999","V020","250,1,N,0070,1","22000,1,9,N","030000,1,N,1","+0158,1","-0012,1","10267,1",,,,"1,1,06,1","0,1,06,1",,"01,99,1,00,1,00,1,99999,9,00,1,01,1",,,"99999,9,10189,1",,"03,1","SYN072AAXX  15121 01417 11980 12507 10158 21012 30189 40267 6//// 70310 80001;",
"01417099999","2010-06-15T18:00:00","4","59.4833333","5.75","65.0","NEDRE VATS, NO","FM-12","99999","V020","240,1,N,0070,1","22000,1,9,N","030000,1,N,1","+0135,1","-0024,1","10247,1","12,0000,9,1",,,"1,1,06,1","0,1,06,1",,"01,99,1,00,1,00,1,99999,9,00,1,01,1",,"999,M,+0165,1","99999,9,10169,1",,"02,1","SYN082AAXX  15181 01417 11980 12407 10135 21024 30169 40247 60002 70210 80001 333 10165;","Q01  00002PRCP12"
"01417099999","2010-06-16T06:00:00","4","59.4833333","5.75","65.0","NEDRE VATS, NO","FM-12","99999","V020","999,9,C,0000,1","22000,1,9,N","030000,1,N,1","+0069,1","+0024,1","10259,1","12,0000,9,1","24,0000,9,1",,"1,1,06,1","0,1,06,1",,"01,99,1,00,1,00,1,99999,9,00,1,01,1",,"999,N,+0050,1","99999,9,10178,1",,"02,1","SYN088AAXX  16061 01417 11980 10000 10069 20024 30178 40259 60002 70210 80001 333 20050 70000;","Q01  00002PRCP24Q02  00002PRCP12"
"01417099999","2010-06-16T12:00:00","4","59.4833333","5.75","65.0","NEDRE VATS, NO","FM-12","99999","V020","260,1,N,0050,1","22000,1,9,N","030000,1,N,1","+0168,1","+0005,1","10238,1",,,,"1,1,06,1","0,1,06,1",,"01,99,1,00,1,00,1,99999,9,00,1,01,1",,,"99999,9,10161,1",,"03,1","SYN072AAXX  16121 01417 11980 12605 10168 20005 30161 40238 6//// 70310 80001;",
"01417099999","2010-06-16T18:00:00","4","59.4833333","5.75","65.0","NEDRE VATS, NO","FM-12","99999","V020","220,1,N,0050,1","22000,1,9,N","030000,1,N,1","+0162,1","+0049,1","10227,1","12,0000,9,1",,,"2,1,06,1","1,1,06,1",,"03,99,1,03,1,02,1,00800,1,00,1,00,1",,"999,M,+0186,1","99999,9,10149,1",,"03,1","SYN082AAXX  16181 01417 11580 32205 10162 20049 30149 40227 60002 70321 83200 333 10186;","Q01  00002PRCP12"
"01417099999","2010-06-17T06:00:00","4","59.4833333","5.75","65.0","NEDRE VATS, NO","FM-12","99999","V020","300,1,N,0050,1","00420,1,9,N","015000,1,N,1","+0116,1","+0069,1","10233,1","12,0000,9,1","24,0000,9,1",,"2,1,06,1","1,1,06,1",,"08,99,1,08,1,06,1,00450,1,99,9,99,9",,"999,N,+0085,1","99999,9,10154,1",,"03,1","SYN088AAXX  17061 01417 11465 83005 10116 20069 30154 40233 60002 70321 886// 333 20085 70000;","Q01  00002PRCP24Q02  00002PRCP12"
"01417099999","2010-06-17T12:00:00","4","59.4833333","5.75","65.0","NEDRE VATS, NO","FM-12","99999","V020","310,1,N,0050,1","99999,9,9,N","030000,1,N,1","+0171,1","+0031,1","10220,1",,,,"1,1,06,1","0,1,06,1",,"06,99,1,99,9,02,1,00800,1,00,1,00,1",,,"99999,9,10143,1",,"01,1","SYN072AAXX  17121 01417 11580 63105 10171 20031 30143 40220 6//// 70110 83200;","Q01+000032SCOTLC"
"01417099999","2010-06-17T18:00:00","4","59.4833333","5.75","65.0","NEDRE VATS, NO","FM-12","99999","V020","280,1,N,0030,1","00420,1,9,N","010000,1,N,1","+0139,1","+0097,1","10183,1","12,0000,9,1",,,"2,1,06,1","1,1,06,1",,"08,99,1,08,1,06,1,00450,1,99,9,99,9",,"999,M,+0190,1","99999,9,10105,1",,"03,1","SYN082AAXX  17181 01417 11460 82803 10139 20097 30105 40183 60002 70321 886// 333 10190;","Q01  00002PRCP12"
"01417099999","2010-06-18T06:00:00","4","59.4833333","5.75","65.0","NEDRE VATS, NO","FM-12","99999","V020","250,1,N,0050,1","00750,1,9,N","025000,1,N,1","+0091,1","+0013,1","10131,1","12,0020,9,2","24,0015,9,2",,"8,1,06,1","2,1,06,1",,"08,99,1,08,1,09,1,00800,1,99,9,99,9",,"999,N,+0085,1","99999,9,10053,1",,"03,1","SYN088AAXX  18061 01417 11575 82505 10091 20013 30053 40131 60022 70382 889// 333 20085 70016;",
"01417099999","2010-06-18T12:00:00","4","59.4833333","5.75","65.0","NEDRE VATS, NO","FM-12","99999","V020","040,1,N,0050,1","00750,1,9,N","025000,1,N,1","+0110,1","+0042,1","10096,1",,,,"8,1,06,1","2,1,06,1",,"08,99,1,08,1,09,1,00800,1,99,9,99,9",,,"99999,9,10018,1",,"02,1","SYN072AAXX  18121 01417 11575 80405 10110 20042 30018 40096 6//// 70282 889//;",
"01417099999","2010-06-18T18:00:00","4","59.4833333","5.75","65.0","NEDRE VATS, NO","FM-12","99999","V020","280,1,N,0050,1","00750,1,9,N","025000,1,N,1","+0125,1","+0015,1","10074,1","12,0008,9,1",,,"2,1,06,1","1,1,06,1",,"05,99,1,05,1,02,1,00800,1,00,1,00,1",,"999,M,+0142,1","99999,9,09996,1",,"01,1","SYN082AAXX  18181 01417 11575 52805 10125 20015 39996 40074 69982 70121 85200 333 10142;",
"01417099999","2010-06-19T06:00:00","4","59.4833333","5.75","65.0","NEDRE VATS, NO","FM-12","99999","V020","290,1,N,0070,1","07500,1,9,N","025000,1,N,1","+0100,1","-0008,1","10040,1","12,0000,9,1","24,0008,9,1",,"2,1,06,1","1,1,06,1",,"06,99,1,02,1,02,1,00800,1,00,1,08,1",,"999,N,+0083,1","99999,9,09962,1",,"03,1","SYN088AAXX  19061 01417 11575 62907 10100 21008 39962 40040 60002 70321 82208 333 20083 70008;","Q01  00002PRCP12"
"01417099999","2010-06-19T12:00:00","4","59.4833333","5.75","65.0","NEDRE VATS, NO","FM-12","99999","V020","260,1,N,0070,1","22000,1,9,N","030000,1,N,1","+0167,1","-0018,1","10028,1",,,,"1,1,06,1","0,1,06,1",,"01,99,1,01,1,02,1,00800,1,00,1,00,1",,,"99999,9,09952,1",,"01,1","SYN072AAXX  19121 01417 11580 12607 10167 21018 39952 40028 6//// 70110 81200;",
"01417099999","2010-06-19T18:00:00","4","59.4833333","5.75","65.0","NEDRE VATS, NO","FM-12","99999","V020","250,1,N,0100,1","22000,1,9,N","030000,1,N,1","+0154,1","-0025,1","10037,1","12,0000,9,1",,,"1,1,06,1","0,1,06,1","00,1,+99999,9,99,9","00,99,1,00,1,00,1,99999,9,00,1,00,1",,"999,M,+0173,1","99999,9,09961,1",,"01,1","SYN076AAXX  19181 01417 11980 02510 10154 21025 39961 40037 60002 70110 333 10173;","Q01  00002PRCP12"
"01417099999","2010-06-20T06:00:00","4","59.4833333","5.75","65.0","NEDRE VATS, NO","FM-12","99999","V020","290,1,N,0070,1","99999,9,9,N","025000,1,N,1","+0103,1","-0005,1","10084,1","12,0000,9,1","24,0000,9,1",,"2,1,06,1","1,1,06,1",,"05,99,1,00,1,00,1,99999,9,00,1,09,1",,"999,N,+0075,1","99999,9,10006,1",,"03,1","SYN088AAXX  20061 01417 11975 52907 10103 21005 30006 40084 60002 70321 80009 333 20075 70000;","Q01  00002PRCP24Q02  00002PRCP12"
"01417099999","2010-06-20T18:00:00","4","59.4833333","5.75","65.0","NEDRE VATS, NO","FM-12","99999","V020","260,1,N,0070,1","22000,1,9,N","030000,1,N,1","+0158,1","-0008,1","10127,1","12,0000,9,1",,,"1,1,06,1","0,1,06,1","00,1,+99999,9,99,9","00,99,1,00,1,00,1,99999,9,00,1,00,1",,"999,M,+0172,1","99999,9,10050,1",,"01,1","SYN076AAXX  20181 01417 11980 02607 10158 21008 30050 40127 60002 70110 333 10172;","Q01  00002PRCP12"
"01417099999","2010-06-21T06:00:00","4","59.4833333","5.75","65.0","NEDRE VATS, NO","FM-12","99999","V020","220,1,N,0030,1","22000,1,9,N","030000,1,N,1","+0087,1","+0055,1","10183,1","12,0000,9,1","24,0000,9,1",,"1,1,06,1","0,1,06,1",,"02,99,1,00,1,00,1,99999,9,00,1,01,1",,"999,N,+0056,1","99999,9,10104,1",,"03,1","SYN088AAXX  21061 01417 11980 22203 10087 20055 30104 40183 60002 70310 80001 333 20056 70000;","Q01  00002PRCP24Q02  00002PRCP12"
"01417099999","2010-06-21T12:00:00","4","59.4833333","5.75","65.0","NEDRE VATS, NO","FM-12","99999","V020","260,1,N,0070,1","22000,1,9,N","030000,1,N,1","+0190,1","-0004,1","10186,1",,,,"1,1,06,1","0,1,06,1",,"02,99,1,00,1,00,1,99999,9,00,1,04,1",,,"99999,9,10110,1",,"02,1","SYN072AAXX  21121 01417 11980 22607 10190 21004 30110 40186 6//// 70210 80004;",
"01417099999","2010-06-21T18:00:00","4","59.4833333","5.75","65.0","NEDRE VATS, NO","FM-12","99999","V020","220,1,N,0070,1","22000,1,9,N","030000,1,N,1","+0171,1","-0010,1","10186,1","12,0000,9,1",,,"1,1,06,1","0,1,06,1","00,1,+99999,9,99,9","00,99,1,00,1,00,1,99999,9,00,1,00,1",,"999,M,+0198,1","99999,9,10109,1",,"01,1","SYN076AAXX  21181 01417 11980 02207 10171 21010 30109 40186 60002 70110 333 10198;","Q01  00002PRCP12"
"01417099999","2010-06-22T06:00:00","4","59.4833333","5.75","65.0","NEDRE VATS, NO","FM-12","99999","V020","170,1,N,0030,1","00420,1,9,N","008000,1,N,1","+0101,1","+0074,1","10209,1","12,0000,9,1","24,0000,9,1",,"5,1,06,1","2,1,06,1",,"08,99,1,08,1,06,1,00450,1,99,9,99,9",,"999,N,+0090,1","99999,9,10130,1",,"10,1","SYN088AAXX  22061 01417 11458 81703 10101 20074 30130 40209 69912 71052 886// 333 20090 70001;","Q01  00002PRCP24Q02  00002PRCP12"
"01417099999","2010-06-22T12:00:00","4","59.4833333","5.75","65.0","NEDRE VATS, NO","FM-12","99999","V020","060,1,N,0030,1","01200,1,9,N","020000,1,N,1","+0132,1","+0003,1","10213,1",,,,"2,1,06,1","1,1,06,1",,"08,99,1,08,1,08,1,00800,1,99,9,99,9",,,"99999,9,10135,1",,"02,1","SYN072AAXX  22121 01417 11570 80603 10132 20003 30135 40213 6//// 70221 888//;",
"01417099999","2010-06-22T18:00:00","4","59.4833333","5.75","65.0","NEDRE VATS, NO","FM-12","99999","V020","280,1,N,0050,1","01200,1,9,N","025000,1,N,1","+0129,1","+0003,1","10209,1","12,0000,9,1",,,"2,1,06,1","1,1,06,1",,"07,99,1,07,1,08,1,00800,1,00,1,00,1",,"999,M,+0162,1","99999,9,10131,1",,"01,1","SYN082AAXX  22181 01417 11575 72805 10129 20003 30131 40209 60002 70121 87800 333 10162;","Q01  00002PRCP12"
"01417099999","2010-06-23T06:00:00","4","59.4833333","5.75","65.0","NEDRE VATS, NO","FM-12","99999","V020","280,1,N,0030,1","22000,1,9,N","030000,1,N,1","+0084,1","+0060,1","10208,1","12,0000,9,1","24,0000,9,1",,"1,1,06,1","0,1,06,1","00,1,+99999,9,99,9","00,99,1,00,1,00,1,99999,9,00,1,00,1",,"999,N,+0065,1","99999,9,10128,1",,"01,1","SYN082AAXX  23061 01417 11980 02803 10084 20060 30128 40208 60002 70110 333 20065 70000;","Q01  00002PRCP24Q02  00002PRCP12"
"01417099999","2010-06-23T12:00:00","4","59.4833333","5.75","65.0","NEDRE VATS, NO","FM-12","99999","V020","220,1,N,0070,1","22000,1,9,N","030000,1,N,1","+0196,1","+0006,1","10180,1",,,,"1,1,06,1","0,1,06,1",,"01,99,1,00,1,00,1,99999,9,00,1,01,1",,,"99999,9,10104,1",,"03,1","SYN072AAXX  23121 01417 11980 12207 10196 20006 30104 40180 6//// 70310 80001;",
"01417099999","2010-06-23T18:00:00","4","59.4833333","5.75","65.0","NEDRE VATS, NO","FM-12","99999","V020","260,1,N,0050,1","22000,1,9,N","030000,1,N,1","+0197,1","+0007,1","10170,1","12,0000,9,1",,,"1,1,06,1","0,1,06,1",,"01,99,1,00,1,00,1,99999,9,00,1,01,1",,"999,M,+0214,1","99999,9,10094,1",,"02,1","SYN082AAXX  23181 01417 11980 12605 10197 20007 30094 40170 60002 70210 80001 333 10214;","Q01  00002PRCP12"
"01417099999","2010-06-24T06:00:00","4","59.4833333","5.75","65.0","NEDRE VATS, NO","FM-12","99999","V020","090,1,N,0010,1","07500,1,9,N","025000,1,N,1","+0123,1","+0076,1","10146,1","12,0000,9,1","24,0000,9,1",,"2,1,06,1","1,1,06,1",,"07,99,1,03,1,08,1,00800,1,00,1,06,1",,"999,N,+0104,1","99999,9,10068,1",,"03,1","SYN088AAXX  24061 01417 11575 70901 10123 20076 30068 40146 60002 70321 83806 333 20104 70000;","Q01  00002PRCP24Q02  00002PRCP12"
"01417099999","2010-06-24T12:00:00","4","59.4833333","5.75","65.0","NEDRE VATS, NO","FM-12","99999","V020","120,1,N,0030,1","00420,1,9,N","010000,1,N,1","+0138,1","+0106,1","10135,1",,,,"8,1,06,1","2,1,06,1",,"08,99,1,99,9,07,1,00450,1,02,1,99,9",,,"99999,9,10058,1",,"03,1","SYN072AAXX  24121 01417 11460 81203 10138 20106 30058 40135 6//// 70382 8872/;","Q01+000082SCOTLC"
"01417099999","2010-06-24T18:00:00","4","59.4833333","5.75","65.0","NEDRE VATS, NO","FM-12","99999","V020","220,1,N,0010,1","00210,1,9,N","004000,1,N,1","+0128,1","+0100,1","10131,1","12,0061,9,1",,,"6,1,06,1","2,1,06,1",,"08,99,1,08,1,06,1,00250,1,99,9,99,9",,"999,M,+0161,1","99999,9,10053,1",,"60,1","SYN082AAXX  24181 01417 11340 82201 10128 20100 30053 40131 60062 76062 886// 333 10161;",
"01417099999","2010-06-25T06:00:00","4","59.4833333","5.75","65.0","NEDRE VATS, NO","FM-12","99999","V020","999,9,C,0000,1","00420,1,9,N","005000,1,N,1","+0117,1","+0087,1","10128,1","12,0030,9,1","24,0081,9,1",,"8,1,06,1","2,1,06,1",,"08,99,1,08,1,06,1,00450,1,99,9,99,9",,"999,N,+0111,1","99999,9,10050,1",,"10,1","SYN088AAXX  25061 01417 11450 80000 10117 20087 30050 40128 60032 71082 886// 333 20111 70082;",
"01417099999","2010-06-25T12:00:00","4","59.4833333","5.75","65.0","NEDRE VATS, NO","FM-12","99999","V020","210,1,N,0050,1","00420,1,9,N","006000,1,N,1","+0123,1","+0070,1","10127,1",,,,"8,1,06,1","2,1,06,1",,"08,99,1,08,1,06,1,00450,1,99,9,99,9",,,"99999,9,10049,1",,"10,1","SYN072AAXX  25121 01417 11456 82105 10123 20070 30049 40127 6//// 71082 886//;",
"01417099999","2010-06-25T18:00:00","4","59.4833333","5.75","65.0","NEDRE VATS, NO","FM-12","99999","V020","220,1,N,0030,1","00420,1,9,N","006000,1,N,1","+0122,1","+0079,1","10139,1","12,0020,9,1",,,"8,1,06,1","2,1,06,1",,"08,99,1,08,1,06,1,00450,1,99,9,99,9",,"999,M,+0134,1","99999,9,10061,1",,"80,1","SYN082AAXX  25181 01417 11456 82203 10122 20079 30061 40139 60022 78082 886// 333 10134;",
"01417099999","2010-06-26T06:00:00","4","59.4833333","5.75","65.0","NEDRE VATS, NO","FM-12","99999","V020","290,1,N,0030,1","00420,1,9,N","015000,1,N,1","+0116,1","+0071,1","10169,1","12,0041,9,1","24,0058,9,1",,"8,1,06,1","2,1,06,1",,"08,99,1,99,9,06,1,00450,1,00,1,00,1",,"999,N,+0106,1","99999,9,10090,1",,"02,1","SYN088AAXX  26061 01417 11465 82903 10116 20071 30090 40169 60042 70282 87600 333 20106 70059;","Q01+000072SCOTLC"
"01417099999","2010-06-26T12:00:00","4","59.4833333","5.75","65.0","NEDRE VATS, NO","FM-12","99999","V020","280,1,N,0050,1","00750,1,9,N","025000,1,N,1","+0145,1","+0061,1","10187,1",,,,"8,1,06,1","2,1,06,1",,"07,99,1,07,1,09,1,00800,1,00,1,00,1",,,"99999,9,10109,1",,"01,1","SYN072AAXX  26121 01417 11575 72805 10145 20061 30109 40187 6//// 70182 87900;",
"01417099999","2010-06-27T06:00:00","4","59.4833333","5.75","65.0","NEDRE VATS, NO","FM-12","99999","V020","140,1,N,0030,1","22000,1,9,N","030000,1,N,1","+0115,1","+0066,1","10195,1","12,0000,9,1",,,"1,1,06,1","0,1,06,1",,"01,99,1,00,1,00,1,99999,9,00,1,02,1",,"999,N,+0071,1","99999,9,10116,1",,"03,1","SYN082AAXX  27061 01417 11980 11403 10115 20066 30116 40195 69912 70310 80002 333 20071;","Q01  00002PRCP12"
"01417099999","2010-06-27T12:00:00","4","59.4833333","5.75","65.0","NEDRE VATS, NO","FM-12","99999","V020","240,1,N,0050,1","00750,1,9,N","030000,1,N,1","+0198,1","+0065,1","10202,1",,,,"1,1,06,1","0,1,06,1",,"06,99,1,06,1,02,1,00800,1,00,1,00,1",,,"99999,9,10126,1",,"03,1","SYN072AAXX  27121 01417 11580 62405 10198 20065 30126 40202 6//// 70310 86200;",
"01417099999","2010-06-27T18:00:00","4","59.4833333","5.75","65.0","NEDRE VATS, NO","FM-12","99999","V020","220,1,N,0050,1","22000,1,9,N","030000,1,N,1","+0187,1","+0026,1","10198,1","12,0000,9,1",,,"1,1,06,1","0,1,06,1",,"01,99,1,00,1,00,1,99999,9,00,1,09,1",,"999,M,+0218,1","99999,9,10121,1",,"01,1","SYN082AAXX  27181 01417 11980 12205 10187 20026 30121 40198 60002 70110 80009 333 10218;","Q01  00002PRCP12"
"01417099999","2010-06-28T06:00:00","4","59.4833333","5.75","65.0","NEDRE VATS, NO","FM-12","99999","V020","070,1,N,0010,1","22000,1,9,N","025000,1,N,1","+0149,1","+0065,1","10187,1","12,0000,9,1","24,0000,9,1",,"1,1,06,1","0,1,06,1",,"04,99,1,02,1,00,1,01250,1,01,1,06,1",,"999,N,+0109,1","99999,9,10110,1",,"03,1","SYN088AAXX  28061 01417 11675 40701 10149 20065 30110 40187 60002 70310 82016 333 20109 70000;","Q01  00002PRCP24Q02  00002PRCP12"
"01417099999","2010-06-28T12:00:00","4","59.4833333","5.75","65.0","NEDRE VATS, NO","FM-12","99999","V020","100,1,N,0030,1","00750,1,9,N","025000,1,N,1","+0156,1","+0110,1","10184,1",,,,"9,1,06,1","8,1,06,1",,"08,99,1,08,1,09,1,00800,1,99,9,99,9",,,"99999,9,10107,1",,"03,1","SYN072AAXX  28121 01417 11575 81003 10156 20110 30107 40184 6//// 70398 889//;",
"01417099999","2010-06-28T18:00:00","4","59.4833333","5.75","65.0","NEDRE VATS, NO","FM-12","99999","V020","110,1,N,0030,1","22000,1,9,N","025000,1,N,1","+0180,1","+0099,1","10169,1","12,0010,9,1",,,"1,1,06,1","0,1,06,1",,"01,99,1,01,1,02,1,99999,9,00,1,01,1",,"999,M,+0208,1","99999,9,10092,1",,"01,1","SYN082AAXX  28181 01417 11975 11103 10180 20099 30092 40169 60012 70110 81201 333 10208;",
"01417099999","2010-06-29T06:00:00","4","59.4833333","5.75","65.0","NEDRE VATS, NO","FM-12","99999","V020","190,1,N,0010,1","01200,1,9,N","025000,1,N,1","+0139,1","+0097,1","10169,1","12,0000,9,1","24,0013,9,1",,"8,1,06,1","2,1,06,1",,"08,99,1,08,1,08,1,00800,1,99,9,99,9",,"999,N,+0101,1","99999,9,10092,1",,"03,1","SYN088AAXX  29061 01417 11575 81901 10139 20097 30092 40169 69922 70382 888// 333 20101 70013;","Q01  00002PRCP12"
"01417099999","2010-06-29T12:00:00","4","59.4833333","5.75","65.0","NEDRE VATS, NO","FM-12","99999","V020","220,1,N,0010,1","00750,1,9,N","020000,1,N,1","+0162,1","+0082,1","10164,1",,,,"8,1,06,1","2,1,06,1",,"08,99,1,99,9,07,1,00800,1,02,1,99,9",,,"99999,9,10087,1",,"02,1","SYN072AAXX  29121 01417 11570 82201 10162 20082 30087 40164 6//// 70282 8872/;","Q01+000082SCOTLC"
"01417099999","2010-06-29T18:00:00","4","59.4833333","5.75","65.0","NEDRE VATS, NO","FM-12","99999","V020","140,1,N,0010,1","00420,1,9,N","015000,1,N,1","+0143,1","+0109,1","10143,1","12,0030,9,1",,,"8,1,06,1","2,1,06,1",,"08,99,1,08,1,06,1,00450,1,99,9,99,9",,"999,M,+0178,1","99999,9,10066,1",,"02,1","SYN082AAXX  29181 01417 11465 81401 10143 20109 30066 40143 60032 70282 886// 333 10178;",
"01417099999","2010-06-30T06:00:00","4","59.4833333","5.75","65.0","NEDRE VATS, NO","FM-12","99999","V020","300,1,N,0010,1","00420,1,9,N","015000,1,N,1","+0118,1","+0073,1","10146,1","12,0089,9,1","24,0122,9,1",,"8,1,06,1","2,1,06,1",,"08,99,1,08,1,06,1,00450,1,99,9,99,9",,"999,N,+0115,1","99999,9,10068,1",,"02,1","SYN088AAXX  30061 01417 11465 83001 10118 20073 30068 40146 60092 70282 886// 333 20115 70123;",
"01417099999","2010-06-30T12:00:00","4","59.4833333","5.75","65.0","NEDRE VATS, NO","FM-12","99999","V020","220,1,N,0050,1","00420,1,9,N","015000,1,N,1","+0132,1","+0063,1","10157,1",,,,"8,1,06,1","2,1,06,1",,"08,99,1,08,1,06,1,00450,1,99,9,99,9",,,"99999,9,10080,1",,"02,1","SYN072AAXX  30121 01417 11465 82205 10132 20063 30080 40157 6//// 70282 886//;",
"01417099999","2010-06-30T18:00:00","4","59.4833333","5.75","65.0","NEDRE VATS, NO","FM-12","99999","V020","230,1,N,0050,1","00750,1,9,N","025000,1,N,1","+0135,1","+0061,1","10167,1","12,0005,9,1",,,"8,1,06,1","2,1,06,1",,"08,99,1,08,1,09,1,00800,1,99,9,99,9",,"999,M,+0139,1","99999,9,10090,1",,"02,1","SYN082AAXX  30181 01417 11575 82305 10135 20061 30090 40167 69942 70282 889// 333 10139;",
"01417099999","2010-07-01T06:00:00","4","59.4833333","5.75","65.0","NEDRE VATS, NO","FM-12","99999","V020","999,9,C,0000,1","22000,1,9,N","030000,1,N,1","+0099,1","+0075,1","10170,1","12,0000,9,1","24,0005,9,1",,"8,1,06,1","2,1,06,1",,"01,99,1,01,1,02,1,00800,1,00,1,00,1",,"999,N,+0063,1","99999,9,10091,1",,"01,1","SYN088AAXX  01061 01417 11580 10000 10099 20075 30091 40170 69922 70182 81200 333 20063 70006;","Q01  00002PRCP12"
"01417099999","2010-07-01T12:00:00","4","59.4833333","5.75","65.0","NEDRE VATS, NO","FM-12","99999","V020","040,1,N,0050,1","22000,1,9,N","030000,1,N,1","+0186,1","+0012,1","10152,1",,,,"1,1,06,1","0,1,06,1",,"01,99,1,01,1,02,1,00800,1,00,1,01,1",,,"99999,9,10076,1",,"02,1","SYN072AAXX  01121 01417 11580 10405 10186 20012 30076 40152 6//// 70210 81201;",
"01417099999","2010-07-01T18:00:00","4","59.4833333","5.75","65.0","NEDRE VATS, NO","FM-12","99999","V020","140,1,N,0050,1","22000,1,9,N","030000,1,N,1","+0203,1","-0009,1","10143,1","12,0000,9,1",,,"1,1,06,1","0,1,06,1",,"02,99,1,00,1,00,1,99999,9,00,1,08,1",,"999,M,+0222,1","99999,9,10067,1",,"02,1","SYN082AAXX  01181 01417 11980 21405 10203 21009 30067 40143 60002 70210 80008 333 10222;","Q01  00002PRCP12"
"01417099999","2010-07-02T06:00:00","4","59.4833333","5.75","65.0","NEDRE VATS, NO","FM-12","99999","V020","040,1,N,0100,1","22000,1,9,N","030000,1,N,1","+0193,1","+0047,1","10112,1","12,0000,9,1","24,0000,9,1",,"1,1,06,1","0,1,06,1",,"01,99,1,00,1,00,1,99999,9,00,1,01,1",,"999,N,+0131,1","99999,9,10036,1",,"01,1","SYN088AAXX  02061 01417 11980 10410 10193 20047 30036 40112 60002 70110 80001 333 20131 70000;","Q01  00002PRCP24Q02  00002PRCP12"
"01417099999","2010-07-02T12:00:00","4","59.4833333","5.75","65.0","NEDRE VATS, NO","FM-12","99999","V020","140,1,N,0100,1","01200,1,9,N","030000,1,N,1","+0239,1","+0048,1","10112,1",,,,"2,1,06,1","1,1,06,1",,"08,99,1,08,1,08,1,00800,1,99,9,99,9",,,"99999,9,10038,1",,"03,1","SYN072AAXX  02121 01417 11580 81410 10239 20048 30038 40112 6//// 70321 888//;",
"01417099999","2010-07-02T18:00:00","4","59.4833333","5.75","65.0","NEDRE VATS, NO","FM-12","99999","V020","110,1,N,0050,1","00750,1,9,N","025000,1,N,1","+0182,1","+0122,1","10113,1","12,0000,9,1",,,"8,1,06,1","2,1,06,1",,"08,99,1,08,1,09,1,00800,1,99,9,99,9",,,"99999,9,10037,1",,"02,1","SYN072AAXX  02181 01417 11575 81105 10182 20122 30037 40113 69922 70282 889//;","Q01  00002PRCP12"
"01417099999","2010-07-03T06:00:00","4","59.4833333","5.75","65.0","NEDRE VATS, NO","FM-12","99999","V020","140,1,N,0070,1","99999,9,9,N","020000,1,N,1","+0166,1","+0111,1","10146,1","12,0010,9,1","24,0013,9,1",,"8,1,06,1","2,1,06,1",,"07,99,1,07,1,00,1,00800,1,03,1,00,1",,"999,N,+0155,1","99999,9,10069,1",,"01,1","SYN088AAXX  03061 01417 11570 71407 10166 20111 30069 40146 60012 70182 87030 333 20155 70013;",
"01417099999","2010-07-03T12:00:00","4","59.4833333","5.75","65.0","NEDRE VATS, NO","FM-12","99999","V020","090,1,N,0030,1","00750,1,9,N","020000,1,N,1","+0195,1","+0105,1","10147,1",,,,"8,1,06,1","2,1,06,1",,"07,99,1,05,1,09,1,00800,1,03,1,00,1",,,"99999,9,10071,1",,"02,1","SYN072AAXX  03121 01417 11570 70903 10195 20105 30071 40147 6//// 70282 85930;",
"01417099999","2010-07-04T06:00:00","4","59.4833333","5.75","65.0","NEDRE VATS, NO","FM-12","99999","V020","999,9,9,9999,9","99999,9,9,N","999999,9,N,1","+0145,1","+0078,1","99999,9","12,0000,9,1",,,,,,,,"999,N,+0105,1",,,,"SYN058AAXX  04061 01417 13/// ///// 10145 20078 69912 333 20105;","Q01  00002PRCP12"
"01417099999","2010-07-04T18:00:00","4","59.4833333","5.75","65.0","NEDRE VATS, NO","FM-12","99999","V020","999,9,9,9999,9","99999,9,9,N","999999,9,N,1","+0190,1","+0044,1","99999,9","12,0000,9,1",,,,,,,,,,,,"SYN048AAXX  04181 01417 13/// ///// 10190 20044 60002;","Q01  00002PRCP12"
"01417099999","2010-07-05T06:00:00","4","59.4833333","5.75","65.0","NEDRE VATS, NO","FM-12","99999","V020","210,1,N,0070,1","00750,1,9,N","020000,1,N,1","+0137,1","+0088,1","10097,1","12,0099,9,1","24,0099,9,1",,"8,1,06,1","2,1,06,1",,"08,99,1,08,1,06,1,00800,1,99,9,99,9",,"999,N,+0135,1","99999,9,10020,1",,"03,1","SYN088AAXX  05061 01417 11570 82107 10137 20088 30020 40097 60102 70382 886// 333 20135 70099;",
"01417099999","2010-07-05T12:00:00","4","59.4833333","5.75","65.0","NEDRE VATS, NO","FM-12","99999","V020","220,1,N,0030,1","00420,1,9,N","015000,1,N,1","+0137,1","+0101,1","10139,1",,,,"8,1,06,1","2,1,06,1",,"08,99,1,08,1,06,1,00450,1,99,9,99,9",,,"99999,9,10061,1",,"02,1","SYN072AAXX  05121 01417 11465 82203 10137 20101 30061 40139 6//// 70282 886//;",
"01417099999","2010-07-05T18:00:00","4","59.4833333","5.75","65.0","NEDRE VATS, NO","FM-12","99999","V020","210,1,N,0050,1","00750,1,9,N","020000,1,N,1","+0145,1","+0048,1","10153,1","12,0051,9,1",,,"8,1,06,1","2,1,06,1",,"08,99,1,08,1,09,1,00800,1,99,9,99,9",,,"99999,9,10075,1",,"02,1","SYN072AAXX  05181 01417 11570 82105 10145 20048 30075 40153 60052 70282 889//;",
"01417099999","2010-07-06T06:00:00","4","59.4833333","5.75","65.0","NEDRE VATS, NO","FM-12","99999","V020","210,1,N,0030,1","00420,1,9,N","015000,1,N,1","+0123,1","+0091,1","10158,1","12,0020,9,1","24,0076,9,1",,"8,1,06,1","2,1,06,1",,"08,99,1,08,1,06,1,00450,1,99,9,99,9",,"999,N,+0114,1","99999,9,10080,1",,"02,1","SYN088AAXX  06061 01417 11465 82103 10123 20091 30080 40158 60022 70282 886// 333 20114 70075;",
"01417099999","2010-07-06T12:00:00","4","59.4833333","5.75","65.0","NEDRE VATS, NO","FM-12","99999","V020","220,1,N,0050,1","00750,1,9,N","020000,1,N,1","+0159,1","+0052,1","10170,1",,,,"8,1,06,1","2,1,06,1",,"06,99,1,06,1,09,1,00800,1,00,1,00,1",,,"99999,9,10093,1",,"01,1","SYN072AAXX  06121 01417 11570 62205 10159 20052 30093 40170 6//// 70182 86900;",
"01417099999","2010-07-06T18:00:00","4","59.4833333","5.75","65.0","NEDRE VATS, NO","FM-12","99999","V020","250,1,N,0050,1","00750,1,9,N","025000,1,N,1","+0157,1","+0059,1","10172,1","12,0020,9,1",,,"8,1,06,1","2,1,06,1",,"06,99,1,06,1,09,1,00800,1,00,1,00,1",,,"99999,9,10095,1",,"02,1","SYN072AAXX  06181 01417 11575 62505 10157 20059 30095 40172 60022 70282 86900;",
"01417099999","2010-07-07T06:00:00","4","59.4833333","5.75","65.0","NEDRE VATS, NO","FM-12","99999","V020","100,1,N,0070,1","01200,1,9,N","025000,1,N,1","+0126,1","+0028,1","10150,1","12,0000,9,1","24,0023,9,1",,"8,1,06,1","2,1,06,1",,"08,99,1,08,1,08,1,00800,1,99,9,99,9",,"999,N,+0083,1","99999,9,10072,1",,"03,1","SYN088AAXX  07061 01417 11575 81007 10126 20028 30072 40150 69912 70382 888// 333 20083 70024;","Q01  00002PRCP12"
"01417099999","2010-07-07T12:00:00","4","59.4833333","5.75","65.0","NEDRE VATS, NO","FM-12","99999","V020","999,9,9,9999,9","99999,9,9,N","999999,9,N,1","+0136,1","+0098,1","99999,9",,,,,,,,,,,,,"SYN048AAXX  07121 01417 13/// ///// 10136 20098 6////;",
"01417099999","2010-07-07T18:00:00","4","59.4833333","5.75","65.0","NEDRE VATS, NO","FM-12","99999","V020","999,9,9,9999,9","99999,9,9,N","999999,9,N,1","+0150,1","+0121,1","99999,9","12,0030,9,1",,,,,,,,"999,M,+0165,1",,,,"SYN058AAXX  07181 01417 13/// ///// 10150 20121 60032 333 10165;",
"01417099999","2010-07-08T06:00:00","4","59.4833333","5.75","65.0","NEDRE VATS, NO","FM-12","99999","V020","999,9,9,9999,9","99999,9,9,N","999999,9,N,1","+0152,1","+0122,1","99999,9","12,0020,9,1","24,0046,9,1",,,,,,,"999,N,+0138,1",,,,"SYN064AAXX  08061 01417 13/// ///// 10152 20122 60022 333 20138 70045;",
"01417099999","2010-07-08T12:00:00","4","59.4833333","5.75","65.0","NEDRE VATS, NO","FM-12","99999","V020","999,9,9,9999,9","99999,9,9,N","999999,9,N,1","+0182,1","+0044,1","99999,9",,,,,,,,,,,,,"SYN048AAXX  08121 01417 13/// ///// 10182 20044 6////;",
"01417099999","2010-07-08T18:00:00","4","59.4833333","5.75","65.0","NEDRE VATS, NO","FM-12","99999","V020","999,9,9,9999,9","99999,9,9,N","999999,9,N,1","+0165,1","+0046,1","99999,9","12,0000,9,1",,,,,,,,"999,M,+0196,1",,,,"SYN058AAXX  08181 01417 13/// ///// 10165 20046 60002 333 10196;","Q01  00002PRCP12"
"01417099999","2010-07-09T06:00:00","4","59.4833333","5.75","65.0","NEDRE VATS, NO","FM-12","99999","V020","999,9,9,9999,9","99999,9,9,N","999999,9,N,1","+0142,1","+0066,1","99999,9","12,0000,9,1","24,0000,9,1",,,,,,,"999,N,+0109,1",,,,"SYN064AAXX  09061 01417 13/// ///// 10142 20066 60002 333 20109 70000;","Q01  00002PRCP24Q02  00002PRCP12"
"01417099999","2010-07-09T12:00:00","4","59.4833333","5.75","65.0","NEDRE VATS, NO","FM-12","99999","V020","999,9,9,9999,9","99999,9,9,N","999999,9,N,1","+0200,1","+0057,1","99999,9",,,,,,,,,,,,,"SYN048AAXX  09121 01417 13/// ///// 10200 20057 6////;",
"01417099999","2010-07-09T18:00:00","4","59.4833333","5.75","65.0","NEDRE VATS, NO","FM-12","99999","V020","999,9,9,9999,9","99999,9,9,N","999999,9,N,1","+0172,1","+0064,1","99999,9","12,0000,9,1",,,,,,,,"999,M,+0205,1",,,,"SYN058AAXX  09181 01417 13/// ///// 10172 20064 60002 333 10205;","Q01  00002PRCP12"
"01417099999","2010-07-10T06:00:00","4","59.4833333","5.75","65.0","NEDRE VATS, NO","FM-12","99999","V020","999,9,9,9999,9","99999,9,9,N","999999,9,N,1","+0130,1","+0093,1","99999,9","12,0061,9,1","24,0061,9,1",,,,,,,"999,N,+0126,1",,,,"SYN064AAXX  10061 01417 13/// ///// 10130 20093 60062 333 20126 70060;",
"01417099999","2010-07-10T12:00:00","4","59.4833333","5.75","65.0","NEDRE VATS, NO","FM-12","99999","V020","999,9,9,9999,9","99999,9,9,N","999999,9,N,1","+0192,1","+0060,1","99999,9",,,,,,,,,,,,,"SYN048AAXX  10121 01417 13/// ///// 10192 20060 6////;",
"01417099999","2010-07-10T18:00:00","4","59.4833333","5.75","65.0","NEDRE VATS, NO","FM-12","99999","V020","999,9,9,9999,9","99999,9,9,N","999999,9,N,1","+0179,1","+0034,1","99999,9","12,0000,9,1",,,,,,,,"999,M,+0209,1",,,,"SYN058AAXX  10181 01417 13/// ///// 10179 20034 60002 333 10209;","Q01  00002PRCP12"
"01417099999","2010-07-11T06:00:00","4","59.4833333","5.75","65.0","NEDRE VATS, NO","FM-12","99999","V020","999,9,9,9999,9","99999,9,9,N","999999,9,N,1","+0202,1","+0076,1","99999,9","12,0000,9,1","24,0000,9,1",,,,,,,"999,N,+0150,1",,,,"SYN064AAXX  11061 01417 13/// ///// 10202 20076 60002 333 20150 70000;","Q01  00002PRCP24Q02  00002PRCP12"
"01417099999","2010-07-11T12:00:00","4","59.4833333","5.75","65.0","NEDRE VATS, NO","FM-12","99999","V020","999,9,9,9999,9","99999,9,9,N","999999,9,N,1","+0234,1","+0101,1","99999,9",,,,,,,,,,,,,"SYN048AAXX  11121 01417 13/// ///// 10234 20101 6////;",
"01417099999","2010-07-11T18:00:00","4","59.4833333","5.75","65.0","NEDRE VATS, NO","FM-12","99999","V020","220,1,N,0100,1","00420,1,9,N","015000,1,N,1","+0180,1","+0122,1","10100,1","12,0000,9,1",,,"8,1,06,1","2,1,06,1",,"08,99,1,08,1,06,1,00450,1,99,9,99,9",,"999,M,+0238,1","99999,9,10024,1",,"03,1","SYN082AAXX  11181 01417 11465 82210 10180 20122 30024 40100 69912 70382 886// 333 10238;","Q01  00002PRCP12"
"01417099999","2010-07-12T06:00:00","4","59.4833333","5.75","65.0","NEDRE VATS, NO","FM-12","99999","V020","220,1,N,0050,1","00420,1,9,N","010000,1,N,1","+0121,1","+0089,1","10173,1","12,0030,9,2","24,0028,9,2",,"6,1,06,1","2,1,06,1",,"08,99,1,99,9,07,1,00450,1,02,1,99,9",,"999,N,+0116,1","99999,9,10095,1",,"61,1","SYN088AAXX  12061 01417 11460 82205 10121 20089 30095 40173 60032 76162 8872/ 333 20116 70029;","Q01+000082SCOTLC"
"01417099999","2010-07-12T12:00:00","4","59.4833333","5.75","65.0","NEDRE VATS, NO","FM-12","99999","V020","260,1,N,0050,1","00750,1,9,N","026000,1,N,1","+0162,1","+0069,1","10177,1",,,,"6,1,06,1","2,1,06,1",,"07,99,1,07,1,02,1,00800,1,00,1,00,1",,,"99999,9,10100,1",,"01,1","SYN072AAXX  12121 01417 11576 72605 10162 20069 30100 40177 6//// 70162 87200;",
"01417099999","2010-07-12T18:00:00","4","59.4833333","5.75","65.0","NEDRE VATS, NO","FM-12","99999","V020","220,1,N,0050,1","00750,1,9,N","025000,1,N,1","+0152,1","+0054,1","10134,1","12,0008,9,1",,,"8,1,06,1","2,1,06,1",,"08,99,1,08,1,00,1,00800,1,02,1,99,9",,"999,M,+0183,1","99999,9,10057,1",,"80,1","SYN082AAXX  12181 01417 11575 82205 10152 20054 30057 40134 69972 78082 8802/ 333 10183;",
"01417099999","2010-07-13T06:00:00","4","59.4833333","5.75","65.0","NEDRE VATS, NO","FM-12","99999","V020","280,1,N,0050,1","00420,1,9,N","015000,1,N,1","+0130,1","+0098,1","10062,1","12,0130,9,1","24,0132,9,1",,"8,1,06,1","2,1,06,1",,"08,99,1,08,1,06,1,00450,1,99,9,99,9",,"999,N,+0124,1","99999,9,09985,1",,"02,1","SYN088AAXX  13061 01417 11465 82805 10130 20098 39985 40062 60132 70282 886// 333 20124 70133;",
"01417099999","2010-07-13T12:00:00","4","59.4833333","5.75","65.0","NEDRE VATS, NO","FM-12","99999","V020","290,1,N,0050,1","00750,1,9,N","015000,1,N,1","+0158,1","+0088,1","10072,1",,,,"2,1,06,1","1,1,06,1",,"08,99,1,08,1,06,1,00800,1,99,9,99,9",,,"99999,9,09995,1",,"02,1","SYN072AAXX  13121 01417 11565 82905 10158 20088 39995 40072 6//// 70221 886//;",
"01417099999","2010-07-13T18:00:00","4","59.4833333","5.75","65.0","NEDRE VATS, NO","FM-12","99999","V020","260,1,N,0070,1","22000,1,9,N","030000,1,N,1","+0170,1","+0115,1","10078,1","12,0000,9,1",,,"1,1,06,1","0,1,06,1",,"01,99,1,01,1,02,1,00800,1,00,1,00,1",,"999,M,+0187,1","99999,9,10002,1",,"01,1","SYN082AAXX  13181 01417 11580 12607 10170 20115 30002 40078 69912 70110 81200 333 10187;","Q01  00002PRCP12"
"01417099999","2010-07-14T06:00:00","4","59.4833333","5.75","65.0","NEDRE VATS, NO","FM-12","99999","V020","210,1,N,0030,1","00750,1,9,N","020000,1,N,1","+0122,1","+0073,1","10097,1","12,0000,9,1","24,0003,9,1",,"2,1,06,1","1,1,06,1",,"08,99,1,08,1,06,1,00800,1,99,9,99,9",,"999,N,+0115,1","99999,9,10019,1",,"03,1","SYN088AAXX  14061 01417 11570 82103 10122 20073 30019 40097 69912 70321 886// 333 20115 70002;","Q01  00002PRCP12"
"01417099999","2010-07-14T12:00:00","4","59.4833333","5.75","65.0","NEDRE VATS, NO","FM-12","99999","V020","220,1,N,0070,1","22000,1,9,N","030000,1,N,1","+0196,1","+0049,1","10099,1",,,,"1,1,06,1","0,1,06,1",,"01,99,1,01,1,02,1,00800,1,00,1,01,1",,,"99999,9,10023,1",,"01,1","SYN072AAXX  14121 01417 11580 12207 10196 20049 30023 40099 6//// 70110 81201;",
"01417099999","2010-07-14T18:00:00","4","59.4833333","5.75","65.0","NEDRE VATS, NO","FM-12","99999","V020","110,1,N,0030,1","22000,1,9,N","030000,1,N,1","+0195,1","+0059,1","10082,1","12,0000,9,1",,,"1,1,06,1","0,1,06,1",,"02,99,1,02,1,02,1,00800,1,00,1,05,1",,"999,M,+0223,1","99999,9,10007,1",,"03,1","SYN082AAXX  14181 01417 11580 21103 10195 20059 30007 40082 60002 70310 82205 333 10223;","Q01  00002PRCP12"
"01417099999","2010-07-15T06:00:00","4","59.4833333","5.75","65.0","NEDRE VATS, NO","FM-12","99999","V020","110,1,N,0050,1","00750,1,9,N","025000,1,N,1","+0205,1","+0114,1","09976,1","12,0109,9,2","24,0107,9,2",,"8,1,06,1","2,1,06,1",,"08,99,1,08,1,09,1,00800,1,99,9,99,9",,"999,N,+0140,1","99999,9,09901,1",,"03,1","SYN088AAXX  15061 01417 11575 81105 10205 20114 39901 49976 60112 70382 889// 333 20140 70106;",
"01417099999","2010-07-15T12:00:00","4","59.4833333","5.75","65.0","NEDRE VATS, NO","FM-12","99999","V020","220,1,N,0070,1","22000,1,9,N","025000,1,N,1","+0209,1","+0079,1","10021,1",,,,"2,1,06,1","1,1,06,1",,"04,99,1,04,1,02,1,00800,1,00,1,00,1",,,"99999,9,09946,1",,"01,1","SYN072AAXX  15121 01417 11575 42207 10209 20079 39946 40021 6//// 70121 84200;",
"01417099999","2010-07-15T18:00:00","4","59.4833333","5.75","65.0","NEDRE VATS, NO","FM-12","99999","V020","140,1,N,0100,1","00750,1,9,N","025000,1,N,1","+0165,1","+0106,1","10038,1","12,0099,9,1",,,"8,1,06,1","2,1,06,1",,"08,99,1,08,1,09,1,00800,1,99,9,99,9",,"999,M,+0220,1","99999,9,09962,1",,"03,1","SYN082AAXX  15181 01417 11575 81410 10165 20106 39962 40038 60102 70382 889// 333 10220;",
"01417099999","2010-07-16T06:00:00","4","59.4833333","5.75","65.0","NEDRE VATS, NO","FM-12","99999","V020","140,1,N,0070,1","03000,1,9,N","025000,1,N,1","+0180,1","+0086,1","10082,1","12,0061,9,1","24,0160,9,1",,"8,1,06,1","2,1,06,1",,"06,99,1,02,1,09,1,00800,1,08,1,00,1",,"999,N,+0156,1","99999,9,10006,1",,"01,1","SYN088AAXX  16061 01417 11575 61407 10180 20086 30006 40082 60062 70182 82980 333 20156 70160;",
"01417099999","2010-07-16T12:00:00","4","59.4833333","5.75","65.0","NEDRE VATS, NO","FM-12","99999","V020","130,1,N,0100,1","00750,1,9,N","025000,1,N,1","+0222,1","+0034,1","10062,1",,,,"2,1,06,1","1,1,06,1",,"07,99,1,07,1,02,1,00800,1,00,1,00,1",,,"99999,9,09987,1",,"03,1","SYN072AAXX  16121 01417 11575 71310 10222 20034 39987 40062 6//// 70321 87200;",
"01417099999","2010-07-16T18:00:00","4","59.4833333","5.75","65.0","NEDRE VATS, NO","FM-12","99999","V020","050,1,N,0050,1","00750,1,9,N","025000,1,N,1","+0166,1","+0109,1","10094,1","12,0071,9,1",,,"8,1,06,1","2,1,06,1",,"07,99,1,07,1,02,1,00800,1,00,1,00,1",,"999,M,+0230,1","99999,9,10018,1",,"02,1","SYN082AAXX  16181 01417 11575 70505 10166 20109 30018 40094 60072 70282 87200 333 10230;",
"01417099999","2010-07-17T06:00:00","4","59.4833333","5.75","65.0","NEDRE VATS, NO","FM-12","99999","V020","220,1,N,0050,1","00750,1,9,N","025000,1,N,1","+0170,1","+0082,1","10113,1","12,0061,9,1","24,0130,9,1",,"8,1,06,1","2,1,06,1",,"05,99,1,05,1,02,1,00800,1,00,1,00,1",,"999,N,+0145,1","99999,9,10036,1",,"01,1","SYN088AAXX  17061 01417 11575 52205 10170 20082 30036 40113 60062 70182 85200 333 20145 70129;",
"01417099999","2010-07-17T12:00:00","4","59.4833333","5.75","65.0","NEDRE VATS, NO","FM-12","99999","V020","160,1,N,0050,1","00750,1,9,N","025000,1,N,1","+0187,1","+0062,1","10127,1",,,,"8,1,06,1","2,1,06,1",,"08,99,1,08,1,09,1,00800,1,99,9,99,9",,,"99999,9,10051,1",,"80,1","SYN072AAXX  17121 01417 11575 81605 10187 20062 30051 40127 6//// 78082 889//;",
"01417099999","2010-07-17T18:00:00","4","59.4833333","5.75","65.0","NEDRE VATS, NO","FM-12","99999","V020","220,1,N,0010,1","00420,1,9,N","010000,1,N,1","+0149,1","+0124,1","10129,1","12,0221,9,1",,,"8,1,06,1","2,1,06,1",,"08,99,1,08,1,06,1,00450,1,99,9,99,9",,"999,M,+0198,1","99999,9,10052,1",,"80,1","SYN082AAXX  17181 01417 11460 82201 10149 20124 30052 40129 60222 78082 886// 333 10198;",
"01417099999","2010-07-18T06:00:00","4","59.4833333","5.75","65.0","NEDRE VATS, NO","FM-12","99999","V020","999,9,C,0000,1","00420,1,9,N","020000,1,N,1","+0133,1","+0101,1","10170,1","12,0079,9,1","24,0300,9,1",,"8,1,06,1","2,1,06,1",,"08,99,1,08,1,06,1,00450,1,99,9,99,9",,"999,N,+0111,1","99999,9,10092,1",,"03,1","SYN088AAXX  18061 01417 11470 80000 10133 20101 30092 40170 60082 70382 886// 333 20111 70300;",
"01417099999","2010-07-18T12:00:00","4","59.4833333","5.75","65.0","NEDRE VATS, NO","FM-12","99999","V020","210,1,N,0050,1","00750,1,9,N","025000,1,N,1","+0171,1","+0027,1","10201,1",,,,"2,1,06,1","1,1,06,1",,"07,99,1,07,1,02,1,00800,1,00,1,00,1",,,"99999,9,10124,1",,"01,1","SYN072AAXX  18121 01417 11575 72105 10171 20027 30124 40201 6//// 70121 87200;",
"01417099999","2010-07-18T18:00:00","4","59.4833333","5.75","65.0","NEDRE VATS, NO","FM-12","99999","V020","220,1,N,0050,1","01200,1,9,N","025000,1,N,1","+0161,1","+0011,1","10201,1","12,0000,9,1",,,"2,1,06,1","1,1,06,1",,"08,99,1,08,1,08,1,00800,1,99,9,99,9",,"999,M,+0186,1","99999,9,10124,1",,"03,1","SYN082AAXX  18181 01417 11575 82205 10161 20011 30124 40201 69912 70321 888// 333 10186;","Q01  00002PRCP12"
"01417099999","2010-07-19T06:00:00","4","59.4833333","5.75","65.0","NEDRE VATS, NO","FM-12","99999","V020","070,1,N,0070,1","00420,1,9,N","010000,1,N,1","+0148,1","+0106,1","10168,1","12,0010,9,1","24,0015,9,1",,"8,1,06,1","2,1,06,1",,"08,99,1,08,1,06,1,00450,1,99,9,99,9",,"999,N,+0135,1","99999,9,10091,1",,"02,1","SYN088AAXX  19061 01417 11460 80707 10148 20106 30091 40168 60012 70282 886// 333 20135 70015;",
"01417099999","2010-07-19T12:00:00","4","59.4833333","5.75","65.0","NEDRE VATS, NO","FM-12","99999","V020","130,1,N,0050,1","00420,1,9,N","015000,1,N,1","+0174,1","+0103,1","10174,1",,,,"8,1,06,1","2,1,06,1",,"08,99,1,08,1,06,1,00450,1,99,9,99,9",,,"99999,9,10097,1",,"02,1","SYN072AAXX  19121 01417 11465 81305 10174 20103 30097 40174 6//// 70282 886//;",
"01417099999","2010-07-19T18:00:00","4","59.4833333","5.75","65.0","NEDRE VATS, NO","FM-12","99999","V020","170,1,N,0050,1","01200,1,9,N","025000,1,N,1","+0169,1","+0081,1","10177,1","12,0061,9,1",,,"2,1,06,1","1,1,06,1",,"08,99,1,08,1,08,1,00800,1,99,9,99,9",,"999,M,+0188,1","99999,9,10100,1",,"02,1","SYN082AAXX  19181 01417 11575 81705 10169 20081 30100 40177 60062 70221 888// 333 10188;",
"01417099999","2010-07-20T06:00:00","4","59.4833333","5.75","65.0","NEDRE VATS, NO","FM-12","99999","V020","060,1,N,0010,1","00210,1,9,N","010000,1,N,1","+0150,1","+0116,1","10135,1","12,0079,9,1","24,0142,9,1",,"6,1,06,1","2,1,06,1",,"08,99,1,08,1,06,1,00250,1,99,9,99,9",,"999,N,+0140,1","99999,9,10058,1",,"61,1","SYN088AAXX  20061 01417 11360 80601 10150 20116 30058 40135 60082 76162 886// 333 20140 70142;",
"01417099999","2010-07-20T12:00:00","4","59.4833333","5.75","65.0","NEDRE VATS, NO","FM-12","99999","V020","140,1,N,0050,1","00420,1,9,N","010000,1,N,1","+0160,1","+0118,1","10131,1",,,,"6,1,06,1","2,1,06,1",,"08,99,1,08,1,06,1,00450,1,99,9,99,9",,,"99999,9,10054,1",,"61,1","SYN072AAXX  20121 01417 11460 81405 10160 20118 30054 40131 6//// 76162 886//;",
"01417099999","2010-07-20T18:00:00","4","59.4833333","5.75","65.0","NEDRE VATS, NO","FM-12","99999","V020","130,1,N,0010,1","00210,1,9,N","010000,1,N,1","+0155,1","+0117,1","10118,1","12,0211,9,1",,,"6,1,06,1","2,1,06,1",,"08,99,1,08,1,06,1,00250,1,99,9,99,9",,"999,M,+0169,1","99999,9,10041,1",,"60,1","SYN082AAXX  20181 01417 11360 81301 10155 20117 30041 40118 60212 76062 886// 333 10169;",
"01417099999","2010-07-21T06:00:00","4","59.4833333","5.75","65.0","NEDRE VATS, NO","FM-12","99999","V020","100,1,N,0070,1","00420,1,9,N","020000,1,N,1","+0161,1","+0106,1","10089,1","12,0041,9,1","24,0244,9,1",,"8,1,06,1","2,1,06,1",,"08,99,1,99,9,09,1,00450,1,07,1,99,9",,"999,N,+0150,1","99999,9,10012,1",,"02,1","SYN088AAXX  21061 01417 11470 81007 10161 20106 30012 40089 60042 70282 8897/ 333 20150 70244;","Q01+000082SCOTLC"
"01417099999","2010-07-21T12:00:00","4","59.4833333","5.75","65.0","NEDRE VATS, NO","FM-12","99999","V020","220,1,N,0030,1","01200,1,9,N","025000,1,N,1","+0182,1","+0145,1","10060,1",,,,"8,1,06,1","2,1,06,1",,"08,99,1,08,1,08,1,00800,1,99,9,99,9",,,"99999,9,09984,1",,"02,1","SYN072AAXX  21121 01417 11575 82203 10182 20145 39984 40060 6//// 70282 888//;",
"01417099999","2010-07-21T18:00:00","4","59.4833333","5.75","65.0","NEDRE VATS, NO","FM-12","99999","V020","170,1,N,0010,1","00750,1,9,N","025000,1,N,1","+0192,1","+0153,1","10023,1","12,0020,9,1",,,"8,1,06,1","2,1,06,1",,"07,99,1,07,1,09,1,00800,1,00,1,00,1",,"999,M,+0201,1","99999,9,09948,1",,"01,1","SYN082AAXX  21181 01417 11575 71701 10192 20153 39948 40023 60022 70182 87900 333 10201;",
"01417099999","2010-07-22T06:00:00","4","59.4833333","5.75","65.0","NEDRE VATS, NO","FM-12","99999","V020","190,1,N,0070,1","00420,1,9,N","015000,1,N,1","+0145,1","+0113,1","10042,1","12,0010,9,1","24,0033,9,1",,"8,1,06,1","2,1,06,1",,"08,99,1,08,1,06,1,00450,1,99,9,99,9",,"999,N,+0145,1","99999,9,09965,1",,"03,1","SYN088AAXX  22061 01417 11465 81907 10145 20113 39965 40042 60012 70382 886// 333 20145 70032;",
"01417099999","2010-07-22T12:00:00","4","59.4833333","5.75","65.0","NEDRE VATS, NO","FM-12","99999","V020","280,1,N,0100,1","00750,1,9,N","030000,1,N,1","+0145,1","-0004,1","10110,1",,,,"2,1,06,1","1,1,06,1",,"05,99,1,05,1,02,1,00800,1,00,1,00,1",,,"99999,9,10033,1",,"01,1","SYN072AAXX  22121 01417 11580 52810 10145 21004 30033 40110 6//// 70121 85200;",
"01417099999","2010-07-22T18:00:00","4","59.4833333","5.75","65.0","NEDRE VATS, NO","FM-12","99999","V020","270,1,N,0050,1","22000,1,9,N","030000,1,N,1","+0132,1","+0009,1","10137,1","12,0003,9,1",,,"2,1,06,1","1,1,06,1",,"03,99,1,03,1,02,1,00800,1,00,1,00,1",,"999,M,+0163,1","99999,9,10059,1",,"01,1","SYN082AAXX  22181 01417 11580 32705 10132 20009 30059 40137 69932 70121 83200 333 10163;",
"01417099999","2010-07-23T06:00:00","4","59.4833333","5.75","65.0","NEDRE VATS, NO","FM-12","99999","V020","040,1,N,0050,1","22000,1,9,N","030000,1,N,1","+0096,1","+0072,1","10168,1","12,0000,9,1","24,0005,9,1",,"1,1,06,1","0,1,06,1","00,1,+99999,9,99,9","00,99,1,00,1,00,1,99999,9,00,1,00,1",,"999,N,+0070,1","99999,9,10089,1",,"01,1","SYN082AAXX  23061 01417 11980 00405 10096 20072 30089 40168 69912 70110 333 20070 70004;","Q01  00002PRCP12"
"01417099999","2010-07-23T12:00:00","4","59.4833333","5.75","65.0","NEDRE VATS, NO","FM-12","99999","V020","220,1,N,0070,1","22000,1,9,N","030000,1,N,1","+0203,1","-0021,1","10169,1",,,,"2,1,06,1","1,1,06,1",,"03,99,1,03,1,02,1,00800,1,00,1,00,1",,,"99999,9,10093,1",,"03,1","SYN072AAXX  23121 01417 11580 32207 10203 21021 30093 40169 6//// 70321 83200;",
"01417099999","2010-07-23T18:00:00","4","59.4833333","5.75","65.0","NEDRE VATS, NO","FM-12","99999","V020","280,1,N,0050,1","22000,1,9,N","030000,1,N,1","+0174,1","+0014,1","10177,1","12,0000,9,1",,,"1,1,06,1","0,1,06,1",,"01,99,1,01,1,02,1,00800,1,00,1,00,1",,"999,M,+0218,1","99999,9,10100,1",,"01,1","SYN082AAXX  23181 01417 11580 12805 10174 20014 30100 40177 60002 70110 81200 333 10218;","Q01  00002PRCP12"
"01417099999","2010-07-24T06:00:00","4","59.4833333","5.75","65.0","NEDRE VATS, NO","FM-12","99999","V020","240,1,N,0010,1","22000,1,9,N","030000,1,N,1","+0119,1","+0078,1","10195,1","12,0000,9,1","24,0000,9,1",,"2,1,06,1","1,1,06,1",,"02,99,1,02,1,02,1,00800,1,00,1,00,1",,"999,N,+0102,1","99999,9,10116,1",,"03,1","SYN088AAXX  24061 01417 11580 22401 10119 20078 30116 40195 60002 70321 82200 333 20102 70000;","Q01  00002PRCP24Q02  00002PRCP12"
"01417099999","2010-07-24T12:00:00","4","59.4833333","5.75","65.0","NEDRE VATS, NO","FM-12","99999","V020","270,1,N,0070,1","22000,1,9,N","030000,1,N,1","+0208,1","+0031,1","10184,1",,,,"2,1,06,1","1,1,06,1",,"03,99,1,03,1,02,1,00800,1,00,1,00,1",,,"99999,9,10108,1",,"03,1","SYN072AAXX  24121 01417 11580 32707 10208 20031 30108 40184 6//// 70321 83200;",
"01417099999","2010-07-24T18:00:00","4","59.4833333","5.75","65.0","NEDRE VATS, NO","FM-12","99999","V020","280,1,N,0070,1","22000,1,9,N","030000,1,N,1","+0200,1","+0037,1","10179,1","12,0000,9,1",,,"1,1,06,1","0,1,06,1",,"01,99,1,01,1,02,1,00800,1,00,1,00,1",,"999,M,+0217,1","99999,9,10103,1",,"01,1","SYN082AAXX  24181 01417 11580 12807 10200 20037 30103 40179 60002 70110 81200 333 10217;","Q01  00002PRCP12"
"01417099999","2010-07-25T06:00:00","4","59.4833333","5.75","65.0","NEDRE VATS, NO","FM-12","99999","V020","999,9,C,0000,1","22000,1,9,N","030000,1,N,1","+0108,1","+0084,1","10143,1","12,0000,9,1","24,0000,9,1",,"1,1,06,1","0,1,06,1","00,1,+99999,9,99,9","00,99,1,00,1,00,1,99999,9,00,1,00,1",,"999,N,+0085,1","99999,9,10065,1",,"01,1","SYN082AAXX  25061 01417 11980 00000 10108 20084 30065 40143 60002 70110 333 20085 70000;","Q01  00002PRCP24Q02  00002PRCP12"
"01417099999","2010-07-25T12:00:00","4","59.4833333","5.75","65.0","NEDRE VATS, NO","FM-12","99999","V020","260,1,N,0050,1","22000,1,9,N","030000,1,N,1","+0215,1","+0070,1","10118,1",,,,"1,1,06,1","0,1,06,1",,"01,99,1,01,1,02,1,00800,1,00,1,00,1",,,"99999,9,10043,1",,"03,1","SYN072AAXX  25121 01417 11580 12605 10215 20070 30043 40118 6//// 70310 81200;",
"01417099999","2010-07-25T18:00:00","4","59.4833333","5.75","65.0","NEDRE VATS, NO","FM-12","99999","V020","200,1,N,0030,1","00750,1,9,N","030000,1,N,1","+0200,1","+0067,1","10107,1","12,0000,9,1",,,"2,1,06,1","1,1,06,1",,"06,99,1,06,1,02,1,00800,1,00,1,00,1",,"999,M,+0231,1","99999,9,10031,1",,"03,1","SYN082AAXX  25181 01417 11580 62003 10200 20067 30031 40107 60002 70321 86200 333 10231;","Q01  00002PRCP12"
"01417099999","2010-07-26T06:00:00","4","59.4833333","5.75","65.0","NEDRE VATS, NO","FM-12","99999","V020","999,9,C,0000,1","00750,1,9,N","025000,1,N,1","+0138,1","+0106,1","10092,1","12,0000,9,1","24,0000,9,1",,"2,1,06,1","1,1,06,1",,"08,99,1,08,1,06,1,00800,1,99,9,99,9",,"999,N,+0115,1","99999,9,10015,1",,"03,1","SYN088AAXX  26061 01417 11575 80000 10138 20106 30015 40092 60002 70321 886// 333 20115 70000;","Q01  00002PRCP24Q02  00002PRCP12"
"01417099999","2010-07-26T12:00:00","4","59.4833333","5.75","65.0","NEDRE VATS, NO","FM-12","99999","V020","260,1,N,0050,1","22000,1,9,N","030000,1,N,1","+0202,1","+0066,1","10095,1",,,,"2,1,06,1","1,1,06,1",,"04,99,1,04,1,02,1,00800,1,00,1,00,1",,,"99999,9,10019,1",,"01,1","SYN072AAXX  26121 01417 11580 42605 10202 20066 30019 40095 6//// 70121 84200;",
"01417099999","2010-07-26T18:00:00","4","59.4833333","5.75","65.0","NEDRE VATS, NO","FM-12","99999","V020","240,1,N,0070,1","22000,1,9,N","030000,1,N,1","+0181,1","+0072,1","10123,1","12,0000,9,1",,,"1,1,06,1","0,1,06,1",,"01,99,1,01,1,02,1,00800,1,00,1,00,1",,"999,M,+0217,1","99999,9,10046,1",,"01,1","SYN082AAXX  26181 01417 11580 12407 10181 20072 30046 40123 60002 70110 81200 333 10217;","Q01  00002PRCP12"
"01417099999","2010-07-27T06:00:00","4","59.4833333","5.75","65.0","NEDRE VATS, NO","FM-12","99999","V020","260,1,N,0030,1","01200,1,9,N","025000,1,N,1","+0143,1","+0099,1","10122,1","12,0000,9,1","24,0000,9,1",,"2,1,06,1","1,1,06,1",,"08,99,1,08,1,08,1,00800,1,99,9,99,9",,"999,N,+0130,1","99999,9,10045,1",,"03,1","SYN088AAXX  27061 01417 11575 82603 10143 20099 30045 40122 60002 70321 888// 333 20130 70000;","Q01  00002PRCP24Q02  00002PRCP12"
"01417099999","2010-07-27T12:00:00","4","59.4833333","5.75","65.0","NEDRE VATS, NO","FM-12","99999","V020","210,1,N,0050,1","00750,1,9,N","025000,1,N,1","+0188,1","+0049,1","10124,1",,,,"2,1,06,1","1,1,06,1",,"06,99,1,06,1,02,1,00800,1,00,1,00,1",,,"99999,9,10048,1",,"01,1","SYN072AAXX  27121 01417 11575 62105 10188 20049 30048 40124 6//// 70121 86200;",
"01417099999","2010-07-27T18:00:00","4","59.4833333","5.75","65.0","NEDRE VATS, NO","FM-12","99999","V020","140,1,N,0030,1","00420,1,9,N","025000,1,N,1","+0154,1","+0108,1","10122,1","12,0003,9,1",,,"8,1,06,1","2,1,06,1",,"08,99,1,08,1,09,1,00450,1,99,9,99,9",,"999,M,+0202,1","99999,9,10045,1",,"03,1","SYN082AAXX  27181 01417 11475 81403 10154 20108 30045 40122 69932 70382 889// 333 10202;",
"01417099999","2010-07-28T06:00:00","4","59.4833333","5.75","65.0","NEDRE VATS, NO","FM-12","99999","V020","220,1,N,0050,1","00420,1,9,N","020000,1,N,1","+0141,1","+0107,1","10122,1","12,0030,9,2","24,0028,9,2",,"8,1,06,1","2,1,06,1",,"08,99,1,08,1,06,1,00450,1,99,9,99,9",,"999,N,+0139,1","99999,9,10045,1",,"02,1","SYN088AAXX  28061 01417 11470 82205 10141 20107 30045 40122 60032 70282 886// 333 20139 70029;",
"01417099999","2010-07-28T12:00:00","4","59.4833333","5.75","65.0","NEDRE VATS, NO","FM-12","99999","V020","210,1,N,0050,1","07500,1,9,N","025000,1,N,1","+0180,1","+0049,1","10114,1",,,,"2,1,06,1","1,1,06,1",,"08,99,1,04,1,09,1,00800,1,00,1,05,1",,,"99999,9,10037,1",,"03,1","SYN072AAXX  28121 01417 11575 82105 10180 20049 30037 40114 6//// 70321 84905;",
"01417099999","2010-07-28T18:00:00","4","59.4833333","5.75","65.0","NEDRE VATS, NO","FM-12","99999","V020","280,1,N,0050,1","01200,1,9,N","025000,1,N,1","+0171,1","+0075,1","10104,1","12,0000,9,1",,,"2,1,06,1","1,1,06,1",,"08,99,1,08,1,08,1,00800,1,99,9,99,9",,"999,M,+0211,1","99999,9,10027,1",,"02,1","SYN082AAXX  28181 01417 11575 82805 10171 20075 30027 40104 60002 70221 888// 333 10211;","Q01  00002PRCP12"
"01417099999","2010-07-29T06:00:00","4","59.4833333","5.75","65.0","NEDRE VATS, NO","FM-12","99999","V020","290,1,N,0050,1","00420,1,9,N","015000,1,N,1","+0149,1","+0105,1","10082,1","12,0000,9,1","24,0000,9,1",,"8,1,06,1","2,1,06,1",,"08,99,1,08,1,06,1,00450,1,99,9,99,9",,"999,N,+0139,1","99999,9,10005,1",,"02,1","SYN088AAXX  29061 01417 11465 82905 10149 20105 30005 40082 69912 70282 886// 333 20139 70001;","Q01  00002PRCP24Q02  00002PRCP12"
"01417099999","2010-07-29T12:00:00","4","59.4833333","5.75","65.0","NEDRE VATS, NO","FM-12","99999","V020","040,1,N,0010,1","01200,1,9,N","025000,1,N,1","+0178,1","+0089,1","10065,1",,,,"2,1,06,1","1,1,06,1",,"08,99,1,08,1,08,1,00800,1,99,9,99,9",,,"99999,9,09989,1",,"02,1","SYN072AAXX  29121 01417 11575 80401 10178 20089 39989 40065 6//// 70221 888//;",
"01417099999","2010-07-29T18:00:00","4","59.4833333","5.75","65.0","NEDRE VATS, NO","FM-12","99999","V020","310,1,N,0050,1","00420,1,9,N","015000,1,N,1","+0176,1","+0107,1","10046,1","12,0000,9,1",,,"2,1,06,1","1,1,06,1",,"08,99,1,08,1,06,1,00450,1,99,9,99,9",,"999,M,+0191,1","99999,9,09970,1",,"02,1","SYN082AAXX  29181 01417 11465 83105 10176 20107 39970 40046 60002 70221 886// 333 10191;","Q01  00002PRCP12"
"01417099999","2010-07-30T06:00:00","4","59.4833333","5.75","65.0","NEDRE VATS, NO","FM-12","99999","V020","999,9,C,0000,1","00420,1,9,N","008000,1,N,1","+0151,1","+0121,1","09986,1","12,0003,9,1","24,0003,9,1",,"5,1,06,1","2,1,06,1",,"08,99,1,08,1,06,1,00450,1,99,9,99,9",,"999,N,+0145,1","99999,9,09910,1",,"10,1","SYN088AAXX  30061 01417 11458 80000 10151 20121 39910 49986 69932 71052 886// 333 20145 70003;",
"01417099999","2010-07-30T12:00:00","4","59.4833333","5.75","65.0","NEDRE VATS, NO","FM-12","99999","V020","999,9,C,0000,1","00420,1,9,N","005000,1,N,1","+0153,1","+0122,1","10003,1",,,,"6,1,06,1","2,1,06,1",,"08,99,1,08,1,06,1,00450,1,99,9,99,9",,,"99999,9,09927,1",,"60,1","SYN072AAXX  30121 01417 11450 80000 10153 20122 39927 40003 6//// 76062 886//;",
"01417099999","2010-07-30T18:00:00","4","59.4833333","5.75","65.0","NEDRE VATS, NO","FM-12","99999","V020","290,1,N,0050,1","00420,1,9,N","005000,1,N,1","+0142,1","+0106,1","10035,1","12,0030,9,1",,,"6,1,06,1","2,1,06,1",,"08,99,1,08,1,06,1,00450,1,99,9,99,9",,"999,M,+0162,1","99999,9,09959,1",,"10,1","SYN082AAXX  30181 01417 11450 82905 10142 20106 39959 40035 60032 71062 886// 333 10162;",
"01417099999","2010-07-31T06:00:00","4","59.4833333","5.75","65.0","NEDRE VATS, NO","FM-12","99999","V020","140,1,N,0030,1","00420,1,9,N","008000,1,N,1","+0131,1","+0086,1","10059,1","12,0003,9,1","24,0036,9,1",,"8,1,06,1","2,1,06,1",,"08,99,1,08,1,06,1,00450,1,99,9,99,9",,"999,N,+0120,1","99999,9,09982,1",,"10,1","SYN088AAXX  31061 01417 11458 81403 10131 20086 39982 40059 69932 71082 886// 333 20120 70035;",
"01417099999","2010-07-31T18:00:00","4","59.4833333","5.75","65.0","NEDRE VATS, NO","FM-12","99999","V020","040,1,N,0030,1","00210,1,9,N","005000,1,N,1","+0154,1","+0125,1","10043,1","12,0079,9,1",,,"6,1,06,1","1,1,06,1",,"08,99,1,08,1,06,1,00250,1,99,9,99,9",,"999,M,+0166,1","99999,9,09966,1",,"61,1","SYN082AAXX  31181 01417 11350 80403 10154 20125 39966 40043 60082 76161 886// 333 10166;",
"01417099999","2010-08-01T06:00:00","4","59.4833333","5.75","65.0","NEDRE VATS, NO","FM-12","99999","V020","130,1,N,0010,1","00420,1,9,N","015000,1,N,1","+0131,1","+0097,1","10067,1","12,0071,9,1","24,0150,9,1",,"6,1,06,1","2,1,06,1",,"08,99,1,08,1,06,1,00450,1,99,9,99,9",,"999,N,+0130,1","99999,9,09990,1",,"02,1","SYN088AAXX  01061 01417 11465 81301 10131 20097 39990 40067 60072 70262 886// 333 20130 70150;",
"01417099999","2010-08-01T12:00:00","4","59.4833333","5.75","65.0","NEDRE VATS, NO","FM-12","99999","V020","110,1,N,0030,1","00750,1,9,N","020000,1,N,1","+0162,1","+0087,1","10085,1",,,,"2,1,06,1","1,1,06,1",,"08,99,1,08,1,09,1,00800,1,99,9,99,9",,,"99999,9,10008,1",,"02,1","SYN072AAXX  01121 01417 11570 81103 10162 20087 30008 40085 6//// 70221 889//;",
"01417099999","2010-08-02T06:00:00","4","59.4833333","5.75","65.0","NEDRE VATS, NO","FM-12","99999","V020","190,1,N,0010,1","01200,1,9,N","025000,1,N,1","+0130,1","+0102,1","10134,1","12,0000,9,1",,,"8,1,06,1","2,1,06,1",,"08,99,1,08,1,08,1,00800,1,99,9,99,9",,"999,N,+0115,1","99999,9,10057,1",,"02,1","SYN082AAXX  02061 01417 11575 81901 10130 20102 30057 40134 69922 70282 888// 333 20115;","Q01  00002PRCP12"
"01417099999","2010-08-02T12:00:00","4","59.4833333","5.75","65.0","NEDRE VATS, NO","FM-12","99999","V020","290,1,N,0050,1","22000,1,9,N","030000,1,N,1","+0168,1","+0032,1","10133,1",,,,"2,1,06,1","1,1,06,1",,"04,99,1,04,1,02,1,00800,1,00,1,00,1",,,"99999,9,10056,1",,"01,1","SYN072AAXX  02121 01417 11580 42905 10168 20032 30056 40133 6//// 70121 84200;",
"01417099999","2010-08-02T18:00:00","4","59.4833333","5.75","65.0","NEDRE VATS, NO","FM-12","99999","V020","310,1,N,0050,1","22000,1,9,N","030000,1,N,1","+0158,1","+0026,1","10127,1","12,0000,9,1",,,"1,1,06,1","0,1,06,1",,"01,99,1,01,1,02,1,00800,1,00,1,00,1",,"999,M,+0196,1","99999,9,10051,1",,"01,1","SYN082AAXX  02181 01417 11580 13105 10158 20026 30051 40127 60002 70110 81200 333 10196;","Q01  00002PRCP12"
"01417099999","2010-08-03T06:00:00","4","59.4833333","5.75","65.0","NEDRE VATS, NO","FM-12","99999","V020","220,1,N,0010,1","99999,9,9,N","030000,1,N,1","+0115,1","+0085,1","10116,1","12,0000,9,1","24,0000,9,1",,"2,1,06,1","1,1,06,1",,"07,99,1,07,1,00,1,00800,1,03,1,00,1",,"999,N,+0100,1","99999,9,10038,1",,"03,1","SYN088AAXX  03061 01417 11580 72201 10115 20085 30038 40116 60002 70321 87030 333 20100 70000;","Q01  00002PRCP24Q02  00002PRCP12"
"01417099999","2010-08-03T12:00:00","4","59.4833333","5.75","65.0","NEDRE VATS, NO","FM-12","99999","V020","210,1,N,0070,1","01200,1,9,N","030000,1,N,1","+0154,1","+0067,1","10102,1",,,,"2,1,06,1","1,1,06,1",,"08,99,1,08,1,08,1,00800,1,99,9,99,9",,,"99999,9,10025,1",,"03,1","SYN072AAXX  03121 01417 11580 82107 10154 20067 30025 40102 6//// 70321 888//;",
"01417099999","2010-08-03T18:00:00","4","59.4833333","5.75","65.0","NEDRE VATS, NO","FM-12","99999","V020","230,1,N,0030,1","01200,1,9,N","030000,1,N,1","+0152,1","+0054,1","10091,1","12,0000,9,1",,,"2,1,06,1","1,1,06,1",,"07,99,1,07,1,08,1,00800,1,00,1,00,1",,"999,M,+0171,1","99999,9,10014,1",,"01,1","SYN082AAXX  03181 01417 11580 72303 10152 20054 30014 40091 60002 70121 87800 333 10171;","Q01  00002PRCP12"
"01417099999","2010-08-04T06:00:00","4","59.4833333","5.75","65.0","NEDRE VATS, NO","FM-12","99999","V020","999,9,C,0000,1","00750,1,9,N","025000,1,N,1","+0129,1","+0088,1","10054,1","12,0000,9,1","24,0000,9,1",,"8,1,06,1","2,1,06,1",,"07,99,1,07,1,06,1,00800,1,07,1,00,1",,"999,N,+0110,1","99999,9,09977,1",,"02,1","SYN088AAXX  04061 01417 11575 70000 10129 20088 39977 40054 69902 70282 87670 333 20110 79999;","Q01  00002PRCP24Q02  00002PRCP12"
"01417099999","2010-08-04T18:00:00","4","59.4833333","5.75","65.0","NEDRE VATS, NO","FM-12","99999","V020","170,1,N,0030,1","22000,1,9,N","030000,1,N,1","+0168,1","+0088,1","10040,1","12,0003,9,1",,,"8,1,06,1","2,1,06,1",,"06,99,1,03,1,09,1,00800,1,00,1,04,1",,"999,M,+0198,1","99999,9,09964,1",,"01,1","SYN082AAXX  04181 01417 11580 61703 10168 20088 39964 40040 69932 70182 83904 333 10198;",
"01417099999","2010-08-05T06:00:00","4","59.4833333","5.75","65.0","NEDRE VATS, NO","FM-12","99999","V020","999,9,C,0000,1","99999,9,9,N","025000,1,N,1","+0128,1","+0103,1","10045,1","12,0000,9,1","24,0005,9,1",,"8,1,06,1","2,1,06,1",,"08,99,1,00,1,00,1,99999,9,00,1,08,1",,"999,N,+0116,1","99999,9,09968,1",,"03,1","SYN088AAXX  05061 01417 11975 80000 10128 20103 39968 40045 69912 70382 80008 333 20116 70004;","Q01  00002PRCP12"
"01417099999","2010-08-05T12:00:00","4","59.4833333","5.75","65.0","NEDRE VATS, NO","FM-12","99999","V020","140,1,N,0050,1","00750,1,9,N","030000,1,N,1","+0176,1","+0087,1","10047,1",,,,"8,1,06,1","2,1,06,1",,"07,99,1,07,1,09,1,00800,1,00,1,00,1",,,"99999,9,09971,1",,"01,1","SYN072AAXX  05121 01417 11580 71405 10176 20087 39971 40047 6//// 70182 87900;",
"01417099999","2010-08-05T18:00:00","4","59.4833333","5.75","65.0","NEDRE VATS, NO","FM-12","99999","V020","170,1,N,0030,1","00750,1,9,N","015000,1,N,1","+0152,1","+0122,1","10069,1","12,0079,9,1",,,"8,1,06,1","2,1,06,1",,"08,99,1,08,1,09,1,00800,1,99,9,99,9",,"999,M,+0200,1","99999,9,09992,1",,"80,1","SYN082AAXX  05181 01417 11565 81703 10152 20122 39992 40069 60082 78082 889// 333 10200;",
"01417099999","2010-08-06T06:00:00","4","59.4833333","5.75","65.0","NEDRE VATS, NO","FM-12","99999","V020","140,1,N,0050,1","00420,1,9,N","010000,1,N,1","+0150,1","+0104,1","10089,1","12,0109,9,1","24,0191,9,1",,"8,1,06,1","2,1,06,1",,"08,99,1,08,1,06,1,00450,1,99,9,99,9",,"999,N,+0120,1","99999,9,10012,1",,"02,1","SYN088AAXX  06061 01417 11460 81405 10150 20104 30012 40089 60112 70282 886// 333 20120 70191;",
"01417099999","2010-08-06T12:00:00","4","59.4833333","5.75","65.0","NEDRE VATS, NO","FM-12","99999","V020","250,1,N,0050,1","00750,1,9,N","025000,1,N,1","+0174,1","+0077,1","10144,1",,,,"8,1,06,1","2,1,06,1",,"05,99,1,05,1,02,1,00800,1,00,1,00,1",,,"99999,9,10067,1",,"01,1","SYN072AAXX  06121 01417 11575 52505 10174 20077 30067 40144 6//// 70182 85200;",
"01417099999","2010-08-06T18:00:00","4","59.4833333","5.75","65.0","NEDRE VATS, NO","FM-12","99999","V020","190,1,N,0070,1","00750,1,9,N","025000,1,N,1","+0175,1","+0045,1","10151,1","12,0079,9,1",,,"2,1,06,1","1,1,06,1",,"06,99,1,06,1,02,1,00800,1,00,1,00,1",,"999,M,+0193,1","99999,9,10074,1",,"03,1","SYN082AAXX  06181 01417 11575 61907 10175 20045 30074 40151 60082 70321 86200 333 10193;",
"01417099999","2010-08-07T06:00:00","4","59.4833333","5.75","65.0","NEDRE VATS, NO","FM-12","99999","V020","100,1,N,0070,1","99999,9,9,N","030000,1,N,1","+0151,1","+0030,1","10159,1","12,0000,9,1","24,0076,9,1",,"2,1,06,1","1,1,06,1",,"07,99,1,07,1,00,1,00800,1,03,1,00,1",,"999,N,+0125,1","99999,9,10082,1",,"03,1","SYN088AAXX  07061 01417 11580 71007 10151 20030 30082 40159 60002 70321 87030 333 20125 70077;","Q01  00002PRCP12"
"01417099999","2010-08-07T12:00:00","4","59.4833333","5.75","65.0","NEDRE VATS, NO","FM-12","99999","V020","040,1,N,0070,1","00750,1,9,N","025000,1,N,1","+0185,1","+0032,1","10149,1",,,,"2,1,06,1","1,1,06,1",,"08,99,1,08,1,09,1,00800,1,99,9,99,9",,,"99999,9,10073,1",,"03,1","SYN072AAXX  07121 01417 11575 80407 10185 20032 30073 40149 6//// 70321 889//;",
"01417099999","2010-08-07T18:00:00","4","59.4833333","5.75","65.0","NEDRE VATS, NO","FM-12","99999","V020","080,1,N,0050,1","00750,1,9,N","025000,1,N,1","+0185,1","+0060,1","10153,1","12,0000,9,1",,,"2,1,06,1","1,1,06,1",,"08,99,1,08,1,00,1,00800,1,02,1,99,9",,"999,M,+0218,1","99999,9,10077,1",,"02,1","SYN082AAXX  07181 01417 11575 80805 10185 20060 30077 40153 60002 70221 8802/ 333 10218;","Q01  00002PRCP12"
"01417099999","2010-08-08T06:00:00","4","59.4833333","5.75","65.0","NEDRE VATS, NO","FM-12","99999","V020","250,1,N,0030,1","00750,1,9,N","020000,1,N,1","+0170,1","+0115,1","10158,1","12,0010,9,1","24,0013,9,1",,"8,1,06,1","2,1,06,1",,"08,99,1,08,1,02,1,00800,1,99,9,99,9",,"999,N,+0139,1","99999,9,10081,1",,"02,1","SYN088AAXX  08061 01417 11570 82503 10170 20115 30081 40158 60012 70282 882// 333 20139 70013;",
"01417099999","2010-08-08T12:00:00","4","59.4833333","5.75","65.0","NEDRE VATS, NO","FM-12","99999","V020","260,1,N,0050,1","00750,1,9,N","020000,1,N,1","+0180,1","+0109,1","10153,1",,,,"2,1,06,1","1,1,06,1",,"08,99,1,08,1,06,1,00800,1,99,9,99,9",,,"99999,9,10076,1",,"02,1","SYN072AAXX  08121 01417 11570 82605 10180 20109 30076 40153 6//// 70221 886//;",
"01417099999","2010-08-08T18:00:00","4","59.4833333","5.75","65.0","NEDRE VATS, NO","FM-12","99999","V020","250,1,N,0050,1","01200,1,9,N","025000,1,N,1","+0169,1","+0093,1","10141,1","12,0000,9,1",,,"2,1,06,1","1,1,06,1",,"08,99,1,08,1,08,1,00800,1,99,9,99,9",,"999,M,+0196,1","99999,9,10064,1",,"02,1","SYN082AAXX  08181 01417 11575 82505 10169 20093 30064 40141 60002 70221 888// 333 10196;","Q01  00002PRCP12"
"01417099999","2010-08-09T06:00:00","4","59.4833333","5.75","65.0","NEDRE VATS, NO","FM-12","99999","V020","140,1,N,0070,1","00420,1,9,N","020000,1,N,1","+0145,1","+0109,1","10115,1","12,0000,9,1","24,0000,9,1",,"2,1,06,1","1,1,06,1",,"08,99,1,08,1,06,1,00450,1,99,9,99,9",,"999,N,+0143,1","99999,9,10038,1",,"02,1","SYN088AAXX  09061 01417 11470 81407 10145 20109 30038 40115 60002 70221 886// 333 20143 70000;","Q01  00002PRCP24Q02  00002PRCP12"
"01417099999","2010-08-09T12:00:00","4","59.4833333","5.75","65.0","NEDRE VATS, NO","FM-12","99999","V020","230,1,N,0030,1","00420,1,9,N","015000,1,N,1","+0152,1","+0106,1","10115,1",,,,"2,1,06,1","1,1,06,1",,"08,99,1,08,1,06,1,00450,1,99,9,99,9",,,"99999,9,10038,1",,"02,1","SYN072AAXX  09121 01417 11465 82303 10152 20106 30038 40115 6//// 70221 886//;",
"01417099999","2010-08-09T18:00:00","4","59.4833333","5.75","65.0","NEDRE VATS, NO","FM-12","99999","V020","210,1,N,0030,1","00420,1,9,N","020000,1,N,1","+0149,1","+0103,1","10113,1","12,0000,9,1",,,"5,1,06,1","2,1,06,1",,"08,99,1,08,1,06,1,00450,1,99,9,99,9",,"999,M,+0163,1","99999,9,10036,1",,"02,1","SYN082AAXX  09181 01417 11470 82103 10149 20103 30036 40113 69912 70252 886// 333 10163;","Q01  00002PRCP12"
"01417099999","2010-08-10T06:00:00","4","59.4833333","5.75","65.0","NEDRE VATS, NO","FM-12","99999","V020","250,1,N,0010,1","00750,1,9,N","025000,1,N,1","+0102,1","+0078,1","10104,1","12,0000,9,1","24,0003,9,1",,"2,1,06,1","1,1,06,1",,"05,99,1,05,1,02,1,00800,1,00,1,01,1",,"999,N,+0086,1","99999,9,10026,1",,"01,1","SYN088AAXX  10061 01417 11575 52501 10102 20078 30026 40104 69922 70121 85201 333 20086 70003;","Q01  00002PRCP12"
"01417099999","2010-08-10T12:00:00","4","59.4833333","5.75","65.0","NEDRE VATS, NO","FM-12","99999","V020","080,1,N,0010,1","00750,1,9,N","025000,1,N,1","+0188,1","+0063,1","10088,1",,,,"8,1,06,1","2,1,06,1",,"08,99,1,08,1,09,1,00800,1,99,9,99,9",,,"99999,9,10012,1",,"03,1","SYN072AAXX  10121 01417 11575 80801 10188 20063 30012 40088 6//// 70382 889//;",
"01417099999","2010-08-10T18:00:00","4","59.4833333","5.75","65.0","NEDRE VATS, NO","FM-12","99999","V020","290,1,N,0050,1","00750,1,9,N","025000,1,N,1","+0196,1","+0042,1","10063,1","12,0000,9,1",,,"8,1,06,1","2,1,06,1",,"08,99,1,08,1,09,1,00800,1,99,9,99,9",,"999,M,+0207,1","99999,9,09987,1",,"02,1","SYN082AAXX  10181 01417 11575 82905 10196 20042 39987 40063 69912 70282 889// 333 10207;","Q01  00002PRCP12"
"01417099999","2010-08-11T06:00:00","4","59.4833333","5.75","65.0","NEDRE VATS, NO","FM-12","99999","V020","040,1,N,0010,1","22000,1,9,N","025000,1,N,1","+0131,1","+0103,1","10050,1","12,0051,9,1","24,0051,9,1",,"8,1,06,1","2,1,06,1",,"04,99,1,04,1,08,1,00800,1,00,1,00,1",,"999,N,+0131,1","99999,9,09973,1",,"01,1","SYN088AAXX  11061 01417 11575 40401 10131 20103 39973 40050 60052 70182 84800 333 20131 70052;",
"01417099999","2010-08-11T12:00:00","4","59.4833333","5.75","65.0","NEDRE VATS, NO","FM-12","99999","V020","090,1,N,0050,1","00750,1,9,N","025000,1,N,1","+0171,1","+0093,1","10075,1",,,,"8,1,06,1","2,1,06,1",,"07,99,1,07,1,02,1,00800,1,00,1,00,1",,,"99999,9,09999,1",,"03,1","SYN072AAXX  11121 01417 11575 70905 10171 20093 39999 40075 6//// 70382 87200;",
"01417099999","2010-08-11T18:00:00","4","59.4833333","5.75","65.0","NEDRE VATS, NO","FM-12","99999","V020","210,1,N,0030,1","00750,1,9,N","020000,1,N,1","+0146,1","+0081,1","10098,1","12,0003,9,1",,,"8,1,06,1","2,1,06,1",,"08,99,1,08,1,09,1,00800,1,99,9,99,9",,"999,M,+0193,1","99999,9,10021,1",,"03,1","SYN082AAXX  11181 01417 11570 82103 10146 20081 30021 40098 69932 70382 889// 333 10193;",
"01417099999","2010-08-12T06:00:00","4","59.4833333","5.75","65.0","NEDRE VATS, NO","FM-12","99999","V020","250,1,N,0010,1","22000,1,9,N","030000,1,N,1","+0087,1","+0063,1","10140,1","12,0005,9,1","24,0008,9,1",,"8,1,06,1","2,1,06,1",,"01,99,1,00,1,00,1,99999,9,00,1,01,1",,"999,N,+0085,1","99999,9,10061,1",,"01,1","SYN088AAXX  12061 01417 11980 12501 10087 20063 30061 40140 69942 70182 80001 333 20085 70007;",
"01417099999","2010-08-12T12:00:00","4","59.4833333","5.75","65.0","NEDRE VATS, NO","FM-12","99999","V020","170,1,N,0030,1","22000,1,9,N","030000,1,N,1","+0211,1","+0014,1","10152,1",,,,"2,1,06,1","1,1,06,1",,"04,99,1,04,1,02,1,00800,1,00,1,00,1",,,"99999,9,10076,1",,"03,1","SYN072AAXX  12121 01417 11580 41703 10211 20014 30076 40152 6//// 70321 84200;",
"01417099999","2010-08-12T18:00:00","4","59.4833333","5.75","65.0","NEDRE VATS, NO","FM-12","99999","V020","040,1,N,0010,1","00750,1,9,N","030000,1,N,1","+0196,1","+0033,1","10165,1","12,0000,9,1",,,"2,1,06,1","1,1,06,1",,"05,99,1,05,1,02,1,00800,1,00,1,00,1",,"999,M,+0230,1","99999,9,10089,1",,"03,1","SYN082AAXX  12181 01417 11580 50401 10196 20033 30089 40165 60002 70321 85200 333 10230;","Q01  00002PRCP12"
"01417099999","2010-08-13T06:00:00","4","59.4833333","5.75","65.0","NEDRE VATS, NO","FM-12","99999","V020","999,9,C,0000,1","00750,1,9,N","025000,1,N,1","+0140,1","+0110,1","10152,1","12,0003,9,1","24,0003,9,1",,"8,1,06,1","2,1,06,1",,"08,99,1,08,1,03,1,00800,1,99,9,99,9",,"999,N,+0128,1","99999,9,10074,1",,"80,1","SYN088AAXX  13061 01417 11575 80000 10140 20110 30074 40152 69932 78082 883// 333 20128 70003;",
"01417099999","2010-08-13T12:00:00","4","59.4833333","5.75","65.0","NEDRE VATS, NO","FM-12","99999","V020","220,1,N,0050,1","99999,9,9,N","999999,9,N,1","+0159,1","+0126,1","10130,1",,,,"8,1,06,1","2,1,06,1",,"08,99,1,08,1,03,1,99999,9,99,9,99,9",,,"99999,9,10053,1",,"80,1","SYN072AAXX  13121 01417 11/// 82205 10159 20126 30053 40130 6//// 78082 883//;",
"01417099999","2010-08-13T18:00:00","4","59.4833333","5.75","65.0","NEDRE VATS, NO","FM-12","99999","V020","170,1,N,0070,1","00750,1,9,N","020000,1,N,1","+0185,1","+0116,1","10159,1","12,0089,9,1",,,"8,1,06,1","2,1,06,1",,"08,99,1,08,1,03,1,00800,1,99,9,99,9",,"999,M,+0228,1","99999,9,10083,1",,"02,1","SYN082AAXX  13181 01417 11570 81707 10185 20116 30083 40159 60092 70282 883// 333 10228;",
"01417099999","2010-08-14T06:00:00","4","59.4833333","5.75","65.0","NEDRE VATS, NO","FM-12","99999","V020","999,9,C,0000,1","22000,1,9,N","030000,1,N,1","+0126,1","+0098,1","10211,1","12,0000,9,1","24,0089,9,1",,"1,1,06,1","0,1,06,1",,"01,99,1,01,1,02,1,00800,1,00,1,00,1",,"999,N,+0120,1","99999,9,10133,1",,"01,1","SYN088AAXX  14061 01417 11580 10000 10126 20098 30133 40211 69922 70110 81200 333 20120 70089;","Q01  00002PRCP12"
"01417099999","2010-08-14T12:00:00","4","59.4833333","5.75","65.0","NEDRE VATS, NO","FM-12","99999","V020","220,1,N,0050,1","22000,1,9,N","030000,1,N,1","+0203,1","+0066,1","10216,1",,,,"2,1,06,1","1,1,06,1",,"04,99,1,04,1,02,1,00800,1,00,1,00,1",,,"99999,9,10139,1",,"03,1","SYN072AAXX  14121 01417 11580 42205 10203 20066 30139 40216 6//// 70321 84200;",
"01417099999","2010-08-14T18:00:00","4","59.4833333","5.75","65.0","NEDRE VATS, NO","FM-12","99999","V020","220,1,N,0030,1","22000,1,9,N","030000,1,N,1","+0188,1","+0079,1","10211,1","12,0000,9,1",,,"1,1,06,1","0,1,06,1",,"01,99,1,01,1,02,1,00800,1,00,1,00,1",,"999,M,+0224,1","99999,9,10135,1",,"01,1","SYN082AAXX  14181 01417 11580 12203 10188 20079 30135 40211 60002 70110 81200 333 10224;","Q01  00002PRCP12"
"01417099999","2010-08-15T06:00:00","4","59.4833333","5.75","65.0","NEDRE VATS, NO","FM-12","99999","V020","999,9,C,0000,1","22000,1,9,N","025000,1,N,1","+0141,1","+0099,1","10209,1","12,0000,9,1","24,0000,9,1",,"2,1,06,1","1,1,06,1",,"03,99,1,03,1,02,1,00800,1,00,1,01,1",,"999,N,+0132,1","99999,9,10131,1",,"03,1","SYN088AAXX  15061 01417 11575 30000 10141 20099 30131 40209 60002 70321 83201 333 20132 70000;","Q01  00002PRCP24Q02  00002PRCP12"
"01417099999","2010-08-15T12:00:00","4","59.4833333","5.75","65.0","NEDRE VATS, NO","FM-12","99999","V020","220,1,N,0050,1","22000,1,9,N","030000,1,N,1","+0228,1","+0089,1","10208,1",,,,"1,1,06,1","0,1,06,1",,"01,99,1,00,1,00,1,99999,9,00,1,01,1",,,"99999,9,10133,1",,"01,1","SYN072AAXX  15121 01417 11980 12205 10228 20089 30133 40208 6//// 70110 80001;",
"01417099999","2010-08-15T18:00:00","4","59.4833333","5.75","65.0","NEDRE VATS, NO","FM-12","99999","V020","999,9,C,0000,1","22000,1,9,N","030000,1,N,1","+0229,1","+0090,1","10183,1","12,0000,9,1",,,"1,1,06,1","0,1,06,1",,"01,99,1,00,1,00,1,99999,9,00,1,01,1",,"999,M,+0261,1","99999,9,10107,1",,"02,1","SYN082AAXX  15181 01417 11980 10000 10229 20090 30107 40183 60002 70210 80001 333 10261;","Q01  00002PRCP12"
"01417099999","2010-08-16T06:00:00","4","59.4833333","5.75","65.0","NEDRE VATS, NO","FM-12","99999","V020","040,1,N,0010,1","22000,1,9,N","030000,1,N,1","+0153,1","+0122,1","10173,1","12,0000,9,1","24,0000,9,1",,"1,1,06,1","0,1,06,1",,"02,99,1,02,1,02,1,00800,1,00,1,00,1",,"999,N,+0145,1","99999,9,10096,1",,"03,1","SYN088AAXX  16061 01417 11580 20401 10153 20122 30096 40173 60002 70310 82200 333 20145 70000;","Q01  00002PRCP24Q02  00002PRCP12"
"01417099999","2010-08-16T12:00:00","4","59.4833333","5.75","65.0","NEDRE VATS, NO","FM-12","99999","V020","100,1,N,0010,1","01200,1,9,N","025000,1,N,1","+0113,1","-0018,1","10159,1",,,,"2,1,06,1","1,1,06,1",,"08,99,1,08,1,08,1,00800,1,99,9,99,9",,,"99999,9,10081,1",,"03,1","SYN072AAXX  16121 01417 11575 81001 10113 21018 30081 40159 6//// 70321 888//;",
"01417099999","2010-08-16T18:00:00","4","59.4833333","5.75","65.0","NEDRE VATS, NO","FM-12","99999","V020","070,1,N,0010,1","00750,1,9,N","020000,1,N,1","+0181,1","+0132,1","10137,1","12,0000,9,1",,,"8,1,06,1","2,1,06,1",,"08,99,1,08,1,09,1,00800,1,99,9,99,9",,"999,M,+0232,1","99999,9,10061,1",,"02,1","SYN082AAXX  16181 01417 11570 80701 10181 20132 30061 40137 69912 70282 889// 333 10232;","Q01  00002PRCP12"
"01417099999","2010-08-17T06:00:00","4","59.4833333","5.75","65.0","NEDRE VATS, NO","FM-12","99999","V020","999,9,C,0000,1","00750,1,9,N","025000,1,N,1","+0161,1","+0132,1","10182,1","12,0020,9,2","24,0018,9,2",,"8,1,06,1","2,1,06,1",,"08,99,1,08,1,09,1,00800,1,99,9,99,9",,"999,N,+0155,1","99999,9,10105,1",,"02,1","SYN088AAXX  17061 01417 11575 80000 10161 20132 30105 40182 60022 70282 889// 333 20155 70018;",
"01417099999","2010-08-17T12:00:00","4","59.4833333","5.75","65.0","NEDRE VATS, NO","FM-12","99999","V020","110,1,N,0010,1","01200,1,9,N","025000,1,N,1","+0223,1","+0123,1","99999,9",,,,"2,1,06,1","1,1,06,1",,"08,99,1,08,1,08,1,00800,1,99,9,99,9",,,,,"02,1","SYN072AAXX  17121 01417 11575 81101 10223 20123 39973 40048 6//// 70221 888//;","Q01+099733APOSP "
"01417099999","2010-08-17T18:00:00","4","59.4833333","5.75","65.0","NEDRE VATS, NO","FM-12","99999","V020","999,9,C,0000,1","01200,1,9,N","025000,1,N,1","+0201,1","+0118,1","10021,1","12,0000,9,1",,,"2,1,06,1","1,1,06,1",,"08,99,1,08,1,08,1,00800,1,99,9,99,9",,"999,M,+0234,1","99999,9,09946,1",,"02,1","SYN082AAXX  17181 01417 11575 80000 10201 20118 39946 40021 60002 70221 888// 333 10234;","Q01  00002PRCP12"
"01417099999","2010-08-18T06:00:00","4","59.4833333","5.75","65.0","NEDRE VATS, NO","FM-12","99999","V020","999,9,9,9999,9","99999,9,9,N","999999,9,N,1","+0155,1","+0124,1","99999,9","12,0020,9,2","24,0015,9,2",,,,,,,"999,N,+0150,1",,,,"SYN064AAXX  18061 01417 13/// ///// 10155 20124 60022 333 20150 70015;",
"01417099999","2010-08-18T12:00:00","4","59.4833333","5.75","65.0","NEDRE VATS, NO","FM-12","99999","V020","999,9,9,9999,9","99999,9,9,N","999999,9,N,1","+0210,1","+0037,1","99999,9",,,,,,,,,,,,,"SYN048AAXX  18121 01417 13/// ///// 10210 20037 6////;",
"01417099999","2010-08-18T18:00:00","4","59.4833333","5.75","65.0","NEDRE VATS, NO","FM-12","99999","V020","100,1,N,0050,1","01200,1,9,N","030000,1,N,1","+0197,1","+0084,1","09977,1","12,0000,9,1",,,"2,1,06,1","1,1,06,1",,"07,99,1,07,1,08,1,00800,1,00,1,00,1",,"999,M,+0237,1","99999,9,09902,1",,"01,1","SYN082AAXX  18181 01417 11580 71005 10197 20084 39902 49977 60002 70121 87800 333 10237;","Q01  00002PRCP12"
"01417099999","2010-08-19T06:00:00","4","59.4833333","5.75","65.0","NEDRE VATS, NO","FM-12","99999","V020","999,9,9,9999,9","99999,9,9,N","999999,9,N,1","+0188,1","+0073,1","99999,9","12,0000,9,1","24,0000,9,1",,,,,,,"999,N,+0155,1",,,,"SYN064AAXX  19061 01417 13/// ///// 10188 20073 60002 333 20155 70000;","Q01  00002PRCP24Q02  00002PRCP12"
"01417099999","2010-08-19T12:00:00","4","59.4833333","5.75","65.0","NEDRE VATS, NO","FM-12","99999","V020","999,9,9,9999,9","99999,9,9,N","999999,9,N,1","+0218,1","+0061,1","99999,9",,,,,,,,,,,,,"SYN048AAXX  19121 01417 13/// ///// 10218 20061 6////;",
"01417099999","2010-08-19T18:00:00","4","59.4833333","5.75","65.0","NEDRE VATS, NO","FM-12","99999","V020","140,1,N,0050,1","00420,1,9,N","015000,1,N,1","+0169,1","+0134,1","10060,1","12,0003,9,1",,,"8,1,06,1","2,1,06,1",,"08,99,1,08,1,06,1,00450,1,99,9,99,9",,"999,M,+0231,1","99999,9,09984,1",,"80,1","SYN082AAXX  19181 01417 11465 81405 10169 20134 39984 40060 69932 78082 886// 333 10231;",
"01417099999","2010-08-20T06:00:00","4","59.4833333","5.75","65.0","NEDRE VATS, NO","FM-12","99999","V020","999,9,9,9999,9","99999,9,9,N","999999,9,N,1","+0132,1","+0100,1","99999,9","12,0089,9,1","24,0094,9,1",,,,,,,"999,N,+0110,1",,,,"SYN064AAXX  20061 01417 13/// ///// 10132 20100 60092 333 20110 70093;",
"01417099999","2010-08-20T12:00:00","4","59.4833333","5.75","65.0","NEDRE VATS, NO","FM-12","99999","V020","130,1,N,0050,1","00750,1,9,N","025000,1,N,1","+0175,1","+0051,1","10119,1",,,,"2,1,06,1","1,1,06,1",,"08,99,1,08,1,02,1,00800,1,99,9,99,9",,,"99999,9,10043,1",,"03,1","SYN072AAXX  20121 01417 11575 81305 10175 20051 30043 40119 6//// 70321 882//;",
"01417099999","2010-08-20T18:00:00","4","59.4833333","5.75","65.0","NEDRE VATS, NO","FM-12","99999","V020","100,1,N,0070,1","00420,1,9,N","010000,1,N,1","+0151,1","+0109,1","10093,1","12,0030,9,1",,,"8,1,06,1","2,1,06,1",,"08,99,1,08,1,06,1,00450,1,99,9,99,9",,"999,M,+0181,1","99999,9,10016,1",,"80,1","SYN082AAXX  20181 01417 11460 81007 10151 20109 30016 40093 60032 78082 886// 333 10181;",
"01417099999","2010-08-21T06:00:00","4","59.4833333","5.75","65.0","NEDRE VATS, NO","FM-12","99999","V020","160,1,N,0070,1","00750,1,9,N","025000,1,N,1","+0165,1","+0110,1","10085,1","12,0150,9,1","24,0180,9,1",,"6,1,06,1","2,1,06,1",,"05,99,1,05,1,02,1,00800,1,00,1,00,1",,"999,N,+0150,1","99999,9,10008,1",,"01,1","SYN088AAXX  21061 01417 11575 51607 10165 20110 30008 40085 60152 70162 85200 333 20150 70181;",
"01417099999","2010-08-21T12:00:00","4","59.4833333","5.75","65.0","NEDRE VATS, NO","FM-12","99999","V020","220,1,N,0070,1","00750,1,9,N","030000,1,N,1","+0171,1","+0069,1","10101,1",,,,"8,1,06,1","2,1,06,1",,"06,99,1,06,1,03,1,00800,1,00,1,00,1",,,"99999,9,10025,1",,"03,1","SYN072AAXX  21121 01417 11580 62207 10171 20069 30025 40101 6//// 70382 86300;",
"01417099999","2010-08-21T18:00:00","4","59.4833333","5.75","65.0","NEDRE VATS, NO","FM-12","99999","V020","210,1,N,0030,1","00750,1,9,N","025000,1,N,1","+0150,1","+0102,1","10088,1","12,0020,9,1",,,"8,1,06,1","2,1,06,1",,"08,99,1,08,1,09,1,00800,1,99,9,99,9",,"999,M,+0190,1","99999,9,10011,1",,"03,1","SYN082AAXX  21181 01417 11575 82103 10150 20102 30011 40088 60022 70382 889// 333 10190;",
"01417099999","2010-08-22T06:00:00","4","59.4833333","5.75","65.0","NEDRE VATS, NO","FM-12","99999","V020","220,1,N,0050,1","22000,1,9,N","030000,1,N,1","+0150,1","+0094,1","10057,1","12,0005,9,1","24,0018,9,1",,"8,1,06,1","2,1,06,1",,"02,99,1,02,1,02,1,00800,1,00,1,00,1",,"999,N,+0145,1","99999,9,09980,1",,"01,1","SYN088AAXX  22061 01417 11580 22205 10150 20094 39980 40057 69942 70182 82200 333 20145 70019;",
"01417099999","2010-08-22T12:00:00","4","59.4833333","5.75","65.0","NEDRE VATS, NO","FM-12","99999","V020","170,1,N,0050,1","00750,1,9,N","025000,1,N,1","+0151,1","+0092,1","10053,1",,,,"8,1,06,1","2,1,06,1",,"08,99,1,08,1,09,1,00800,1,99,9,99,9",,,"99999,9,09976,1",,"03,1","SYN072AAXX  22121 01417 11575 81705 10151 20092 39976 40053 6//// 70382 889//;",
"01417099999","2010-08-22T18:00:00","4","59.4833333","5.75","65.0","NEDRE VATS, NO","FM-12","99999","V020","210,1,N,0030,1","00750,1,9,N","025000,1,N,1","+0149,1","+0088,1","10060,1","12,0020,9,1",,,"8,1,06,1","2,1,06,1",,"07,99,1,07,1,09,1,00800,1,00,1,00,1",,"999,M,+0178,1","99999,9,09984,1",,"01,1","SYN082AAXX  22181 01417 11575 72103 10149 20088 39984 40060 60022 70182 87900 333 10178;",
"01417099999","2010-08-23T06:00:00","4","59.4833333","5.75","65.0","NEDRE VATS, NO","FM-12","99999","V020","999,9,9,9999,9","99999,9,9,N","999999,9,N,1","+0118,1","+0090,1","99999,9","12,0030,9,1","24,0048,9,1",,,,,,,"999,N,+0111,1",,,,"SYN064AAXX  23061 01417 13/// ///// 10118 20090 60032 333 20111 70048;",
"01417099999","2010-08-23T12:00:00","4","59.4833333","5.75","65.0","NEDRE VATS, NO","FM-12","99999","V020","999,9,9,9999,9","99999,9,9,N","999999,9,N,1","+0165,1","+0014,1","99999,9",,,,,,,,,,,,,"SYN048AAXX  23121 01417 13/// ///// 10165 20014 6////;",
"01417099999","2010-08-23T18:00:00","4","59.4833333","5.75","65.0","NEDRE VATS, NO","FM-12","99999","V020","280,1,N,0010,1","01200,1,9,N","025000,1,N,1","+0140,1","+0059,1","09939,1","12,0000,9,1",,,"2,1,06,1","1,1,06,1",,"08,99,1,08,1,08,1,00800,1,99,9,99,9",,"999,M,+0172,1","99999,9,09863,1",,"03,1","SYN082AAXX  23181 01417 11575 82801 10140 20059 39863 49939 69912 70321 888// 333 10172;","Q01  00002PRCP12"
"01417099999","2010-08-24T06:00:00","4","59.4833333","5.75","65.0","NEDRE VATS, NO","FM-12","99999","V020","999,9,9,9999,9","99999,9,9,N","999999,9,N,1","+0118,1","+0081,1","99999,9","12,0180,9,2","24,0175,9,2",,,,,,,"999,N,+0115,1",,,,"SYN064AAXX  24061 01417 13/// ///// 10118 20081 60182 333 20115 70176;",
"01417099999","2010-08-24T12:00:00","4","59.4833333","5.75","65.0","NEDRE VATS, NO","FM-12","99999","V020","999,9,9,9999,9","99999,9,9,N","999999,9,N,1","+0130,1","+0098,1","99999,9",,,,,,,,,,,,,"SYN048AAXX  24121 01417 13/// ///// 10130 20098 6////;",
"01417099999","2010-08-24T18:00:00","4","59.4833333","5.75","65.0","NEDRE VATS, NO","FM-12","99999","V020","160,1,N,0030,1","00420,1,9,N","015000,1,N,1","+0130,1","+0100,1","09867,1","12,0211,9,1",,,"6,1,06,1","2,1,06,1",,"08,99,1,99,9,07,1,00450,1,02,1,99,9",,"999,M,+0140,1","99999,9,09792,1",,"60,1","SYN082AAXX  24181 01417 11465 81603 10130 20100 39792 49867 60212 76062 8872/ 333 10140;","Q01+000082SCOTLC"
"01417099999","2010-08-25T06:00:00","4","59.4833333","5.75","65.0","NEDRE VATS, NO","FM-12","99999","V020","260,1,N,0070,1","00420,1,9,N","015000,1,N,1","+0135,1","+0094,1","09939,1","12,0231,9,1","24,0437,9,1",,"6,1,06,1","2,1,06,1",,"08,99,1,08,1,06,1,00450,1,99,9,99,9",,"999,N,+0126,1","99999,9,09863,1",,"60,1","SYN088AAXX  25061 01417 11465 82607 10135 20094 39863 49939 60232 76062 886// 333 20126 70438;",
"01417099999","2010-08-25T12:00:00","4","59.4833333","5.75","65.0","NEDRE VATS, NO","FM-12","99999","V020","999,9,9,9999,9","99999,9,9,N","999999,9,N,1","+0135,1","+0088,1","99999,9",,,,,,,,,,,,,"SYN048AAXX  25121 01417 13/// ///// 10135 20088 6////;",
"01417099999","2010-08-25T18:00:00","4","59.4833333","5.75","65.0","NEDRE VATS, NO","FM-12","99999","V020","250,1,N,0050,1","00420,1,9,N","015000,1,N,1","+0131,1","+0082,1","10040,1","12,0130,9,1",,,"6,1,06,1","2,1,06,1",,"08,99,1,08,1,06,1,00450,1,99,9,99,9",,"999,M,+0143,1","99999,9,09963,1",,"60,1","SYN082AAXX  25181 01417 11465 82505 10131 20082 39963 40040 60132 76062 886// 333 10143;",
"01417099999","2010-08-26T06:00:00","4","59.4833333","5.75","65.0","NEDRE VATS, NO","FM-12","99999","V020","260,1,N,0010,1","00420,1,9,N","015000,1,N,1","+0109,1","+0080,1","10060,1","12,0191,9,1","24,0320,9,1",,"6,1,06,1","2,1,06,1",,"08,99,1,99,9,07,1,00450,1,02,1,99,9",,"999,N,+0109,1","99999,9,09983,1",,"60,1","SYN088AAXX  26061 01417 11465 82601 10109 20080 39983 40060 60192 76062 8872/ 333 20109 70320;","Q01+000082SCOTLC"
"01417099999","2010-08-26T12:00:00","4","59.4833333","5.75","65.0","NEDRE VATS, NO","FM-12","99999","V020","999,9,9,9999,9","99999,9,9,N","999999,9,N,1","+0153,1","+0068,1","99999,9",,,,,,,,,,,,,"SYN048AAXX  26121 01417 13/// ///// 10153 20068 6////;",
"01417099999","2010-08-26T18:00:00","4","59.4833333","5.75","65.0","NEDRE VATS, NO","FM-12","99999","V020","300,1,N,0030,1","00750,1,9,N","030000,1,N,1","+0134,1","+0038,1","10067,1","12,0041,9,1",,,"8,1,06,1","2,1,06,1",,"06,99,1,06,1,02,1,00800,1,00,1,00,1",,"999,M,+0163,1","99999,9,09990,1",,"01,1","SYN082AAXX  26181 01417 11580 63003 10134 20038 39990 40067 60042 70182 86200 333 10163;",
"01417099999","2010-08-27T06:00:00","4","59.4833333","5.75","65.0","NEDRE VATS, NO","FM-12","99999","V020","310,1,N,0010,1","00750,1,9,N","020000,1,N,1","+0093,1","+0071,1","10061,1","12,0003,9,1","24,0038,9,1",,"8,1,06,1","2,1,06,1",,"07,99,1,07,1,02,1,00800,1,00,1,00,1",,"999,N,+0070,1","99999,9,09983,1",,"03,1","SYN088AAXX  27061 01417 11570 73101 10093 20071 39983 40061 69932 70382 87200 333 20070 70039;",
"01417099999","2010-08-27T12:00:00","4","59.4833333","5.75","65.0","NEDRE VATS, NO","FM-12","99999","V020","320,1,N,0010,1","00750,1,9,N","025000,1,N,1","+0144,1","+0060,1","10067,1",,,,"8,1,06,1","2,1,06,1",,"08,99,1,08,1,09,1,00800,1,99,9,99,9",,,"99999,9,09991,1",,"03,1","SYN072AAXX  27121 01417 11575 83201 10144 20060 39991 40067 6//// 70382 889//;",
"01417099999","2010-08-27T18:00:00","4","59.4833333","5.75","65.0","NEDRE VATS, NO","FM-12","99999","V020","300,1,N,0050,1","22000,1,9,N","025000,1,N,1","+0138,1","+0030,1","10072,1","12,0020,9,1",,,"8,1,06,1","2,1,06,1",,"01,99,1,01,1,02,1,00800,1,00,1,00,1",,"999,M,+0157,1","99999,9,09995,1",,"01,1","SYN082AAXX  27181 01417 11575 13005 10138 20030 39995 40072 60022 70182 81200 333 10157;",
"01417099999","2010-08-28T06:00:00","4","59.4833333","5.75","65.0","NEDRE VATS, NO","FM-12","99999","V020","040,1,N,0010,1","22000,1,9,N","030000,1,N,1","+0088,1","+0061,1","10070,1","12,0041,9,1","24,0051,9,1",,"8,1,06,1","2,1,06,1",,"03,99,1,03,1,02,1,00800,1,00,1,00,1",,"999,N,+0080,1","99999,9,09991,1",,"01,1","SYN088AAXX  28061 01417 11580 30401 10088 20061 39991 40070 60042 70182 83200 333 20080 70052;",
"01417099999","2010-08-28T12:00:00","4","59.4833333","5.75","65.0","NEDRE VATS, NO","FM-12","99999","V020","250,1,N,0050,1","00750,1,9,N","025000,1,N,1","+0128,1","+0032,1","10072,1",,,,"8,1,06,1","2,1,06,1",,"06,99,1,06,1,03,1,00800,1,00,1,01,1",,,"99999,9,09995,1",,"03,1","SYN072AAXX  28121 01417 11575 62505 10128 20032 39995 40072 6//// 70382 86301;",
"01417099999","2010-08-28T18:00:00","4","59.4833333","5.75","65.0","NEDRE VATS, NO","FM-12","99999","V020","999,9,9,9999,9","99999,9,9,N","999999,9,N,1","+0110,1","+0031,1","99999,9","12,0030,9,1",,,,,,,,"999,M,+0150,1",,,,"SYN058AAXX  28181 01417 13/// ///// 10110 20031 60032 333 10150;",
"01417099999","2010-08-29T06:00:00","4","59.4833333","5.75","65.0","NEDRE VATS, NO","FM-12","99999","V020","999,9,C,0000,1","22000,1,9,N","008000,1,N,1","+0059,1","+0032,1","10039,1","12,0008,9,1","24,0038,9,1",,"8,1,06,1","2,1,06,1",,"01,99,1,01,1,02,1,00800,1,00,1,01,1",,"999,N,+0049,1","99999,9,09961,1",,"10,1","SYN088AAXX  29061 01417 11558 10000 10059 20032 39961 40039 69972 71082 81201 333 20049 70037;",
"01417099999","2010-08-29T12:00:00","4","59.4833333","5.75","65.0","NEDRE VATS, NO","FM-12","99999","V020","290,1,N,0050,1","22000,1,9,N","030000,1,N,1","+0150,1","-0007,1","10057,1",,,,"2,1,06,1","1,1,06,1",,"03,99,1,03,1,02,1,00800,1,00,1,01,1",,,"99999,9,09980,1",,"03,1","SYN072AAXX  29121 01417 11580 32905 10150 21007 39980 40057 6//// 70321 83201;",
"01417099999","2010-08-29T18:00:00","4","59.4833333","5.75","65.0","NEDRE VATS, NO","FM-12","99999","V020","140,1,N,0030,1","22000,1,9,N","030000,1,N,1","+0131,1","+0002,1","10082,1","12,0003,9,1",,,"8,1,06,1","2,1,06,1","00,1,+99999,9,99,9","00,99,1,00,1,00,1,99999,9,00,1,00,1",,"999,M,+0169,1","99999,9,10005,1",,"01,1","SYN076AAXX  29181 01417 11980 01403 10131 20002 30005 40082 69932 70182 333 10169;",
"01417099999","2010-08-30T06:00:00","4","59.4833333","5.75","65.0","NEDRE VATS, NO","FM-12","99999","V020","999,9,9,9999,9","99999,9,9,N","999999,9,N,1","+0062,1","+0035,1","99999,9","12,0000,9,1","24,0003,9,1",,,,,,,"999,N,+0060,1",,,,"SYN064AAXX  30061 01417 13/// ///// 10062 20035 60002 333 20060 70003;","Q01  00002PRCP12"
"01417099999","2010-08-30T12:00:00","4","59.4833333","5.75","65.0","NEDRE VATS, NO","FM-12","99999","V020","999,9,9,9999,9","99999,9,9,N","999999,9,N,1","+0180,1","-0017,1","99999,9",,,,,,,,,,,,,"SYN048AAXX  30121 01417 13/// ///// 10180 21017 6////;",
"01417099999","2010-08-30T18:00:00","4","59.4833333","5.75","65.0","NEDRE VATS, NO","FM-12","99999","V020","310,1,N,0050,1","00750,1,9,N","025000,1,N,1","+0135,1","+0049,1","10192,1","12,0000,9,1",,,"2,1,06,1","1,1,06,1",,"08,99,1,08,1,09,1,00800,1,99,9,99,9",,"999,M,+0188,1","99999,9,10114,1",,"03,1","SYN082AAXX  30181 01417 11575 83105 10135 20049 30114 40192 60002 70321 889// 333 10188;","Q01  00002PRCP12"
"01417099999","2010-08-31T06:00:00","4","59.4833333","5.75","65.0","NEDRE VATS, NO","FM-12","99999","V020","999,9,C,0000,1","00750,1,9,N","025000,1,N,1","+0102,1","+0073,1","10181,1","12,0005,9,1","24,0005,9,1",,"8,1,06,1","2,1,06,1",,"08,99,1,08,1,00,1,00800,1,02,1,99,9",,"999,N,+0102,1","99999,9,10102,1",,"03,1","SYN088AAXX  31061 01417 11575 80000 10102 20073 30102 40181 69962 70382 8802/ 333 20102 70006;",
"01417099999","2010-08-31T12:00:00","4","59.4833333","5.75","65.0","NEDRE VATS, NO","FM-12","99999","V020","999,9,9,9999,9","99999,9,9,N","999999,9,N,1","+0124,1","+0094,1","99999,9",,,,,,,,,,,,,"SYN048AAXX  31121 01417 13/// ///// 10124 20094 6////;",
"01417099999","2010-08-31T18:00:00","4","59.4833333","5.75","65.0","NEDRE VATS, NO","FM-12","99999","V020","260,1,N,0030,1","00750,1,9,N","020000,1,N,1","+0129,1","+0095,1","10183,1","12,0030,9,1",,,"8,1,06,1","2,1,06,1",,"08,99,1,08,1,09,1,00800,1,99,9,99,9",,"999,M,+0147,1","99999,9,10105,1",,"02,1","SYN082AAXX  31181 01417 11570 82603 10129 20095 30105 40183 60032 70282 889// 333 10147;",
"01417099999","2010-09-01T06:00:00","4","59.4833333","5.75","65.0","NEDRE VATS, NO","FM-12","99999","V020","170,1,N,0010,1","01200,1,9,N","020000,1,N,1","+0109,1","+0081,1","10179,1","12,0008,9,1","24,0041,9,1",,"8,1,06,1","2,1,06,1",,"08,99,1,08,1,08,1,00800,1,99,9,99,9",,"999,N,+0106,1","99999,9,10100,1",,"02,1","SYN088AAXX  01061 01417 11570 81701 10109 20081 30100 40179 69972 70282 888// 333 20106 70040;",
"01417099999","2010-09-01T12:00:00","4","59.4833333","5.75","65.0","NEDRE VATS, NO","FM-12","99999","V020","999,9,9,9999,9","99999,9,9,N","999999,9,N,1","+0162,1","+0040,1","99999,9",,,,,,,,,,,,,"SYN048AAXX  01121 01417 13/// ///// 10162 20040 6////;",
"01417099999","2010-09-01T18:00:00","4","59.4833333","5.75","65.0","NEDRE VATS, NO","FM-12","99999","V020","290,1,N,0050,1","99999,9,9,N","030000,1,N,1","+0134,1","+0023,1","10182,1","12,0000,9,1",,,"2,1,06,1","1,1,06,1",,"07,99,1,07,1,00,1,00800,1,06,1,00,1",,"999,M,+0177,1","99999,9,10104,1",,"01,1","SYN082AAXX  01181 01417 11580 72905 10134 20023 30104 40182 69912 70121 87060 333 10177;","Q01  00002PRCP12"
"01417099999","2010-09-02T06:00:00","4","59.4833333","5.75","65.0","NEDRE VATS, NO","FM-12","99999","V020","999,9,C,0000,1","22000,1,9,N","030000,1,N,1","+0073,1","+0046,1","10204,1","12,0000,9,1","24,0003,9,1",,"1,1,06,1","0,1,06,1",,"01,99,1,01,1,02,1,00800,1,00,1,00,1",,"999,N,+0071,1","99999,9,10124,1",,"01,1","SYN088AAXX  02061 01417 11580 10000 10073 20046 30124 40204 69912 70110 81200 333 20071 70002;","Q01  00002PRCP12"
"01417099999","2010-09-02T12:00:00","4","59.4833333","5.75","65.0","NEDRE VATS, NO","FM-12","99999","V020","999,9,9,9999,9","99999,9,9,N","999999,9,N,1","+0180,1","+0042,1","99999,9",,,,,,,,,,,,,"SYN048AAXX  02121 01417 13/// ///// 10180 20042 6////;",
"01417099999","2010-09-02T18:00:00","4","59.4833333","5.75","65.0","NEDRE VATS, NO","FM-12","99999","V020","220,1,N,0050,1","22000,1,9,N","030000,1,N,1","+0138,1","+0008,1","10206,1","12,0000,9,1",,,"1,1,06,1","0,1,06,1",,"01,99,1,00,1,00,1,99999,9,00,1,01,1",,"999,M,+0191,1","99999,9,10128,1",,"02,1","SYN082AAXX  02181 01417 11980 12205 10138 20008 30128 40206 60002 70210 80001 333 10191;","Q01  00002PRCP12"
"01417099999","2010-09-03T06:00:00","4","59.4833333","5.75","65.0","NEDRE VATS, NO","FM-12","99999","V020","190,1,N,0010,1","22000,1,9,N","030000,1,N,1","+0061,1","+0034,1","10202,1","12,0000,9,1","24,0000,9,1",,"2,1,06,1","1,1,06,1",,"03,99,1,03,1,02,1,00800,1,00,1,00,1",,"999,N,+0050,1","99999,9,10122,1",,"03,1","SYN088AAXX  03061 01417 11580 31901 10061 20034 30122 40202 69912 70321 83200 333 20050 70001;","Q01  00002PRCP24Q02  00002PRCP12"
"01417099999","2010-09-03T12:00:00","4","59.4833333","5.75","65.0","NEDRE VATS, NO","FM-12","99999","V020","999,9,9,9999,9","99999,9,9,N","999999,9,N,1","+0170,1","+0033,1","99999,9",,,,,,,,,,,,,"SYN048AAXX  03121 01417 13/// ///// 10170 20033 6////;",
"01417099999","2010-09-03T18:00:00","4","59.4833333","5.75","65.0","NEDRE VATS, NO","FM-12","99999","V020","300,1,N,0030,1","22000,1,9,N","030000,1,N,1","+0159,1","+0009,1","10183,1","12,0000,9,1",,,"1,1,06,1","0,1,06,1",,"01,99,1,00,1,00,1,99999,9,00,1,01,1",,"999,M,+0194,1","99999,9,10105,1",,"01,1","SYN082AAXX  03181 01417 11980 13003 10159 20009 30105 40183 60002 70110 80001 333 10194;","Q01  00002PRCP12"
"01417099999","2010-09-04T06:00:00","4","59.4833333","5.75","65.0","NEDRE VATS, NO","FM-12","99999","V020","999,9,C,0000,1","22000,1,9,N","030000,1,N,1","+0071,1","+0044,1","10249,1","12,0000,9,1","24,0000,9,1",,"1,1,06,1","0,1,06,1","00,1,+99999,9,99,9","00,99,1,00,1,00,1,99999,9,00,1,00,1",,"999,N,+0069,1","99999,9,10169,1",,"01,1","SYN082AAXX  04061 01417 11980 00000 10071 20044 30169 40249 69912 70110 333 20069 70001;","Q01  00002PRCP24Q02  00002PRCP12"
"01417099999","2010-09-04T12:00:00","4","59.4833333","5.75","65.0","NEDRE VATS, NO","FM-12","99999","V020","170,1,N,0050,1","22000,1,9,N","030000,1,N,1","+0173,1","-0040,1","10251,1",,,,"1,1,06,1","0,1,06,1","00,1,+99999,9,99,9","00,99,1,00,1,00,1,99999,9,00,1,00,1",,,"99999,9,10174,1",,"02,1","SYN066AAXX  04121 01417 11980 01705 10173 21040 30174 40251 6//// 70210;",
"01417099999","2010-09-04T18:00:00","4","59.4833333","5.75","65.0","NEDRE VATS, NO","FM-12","99999","V020","260,1,N,0050,1","22000,1,9,N","030000,1,N,1","+0178,1","-0004,1","10251,1","12,0000,9,1",,,"2,1,06,1","1,1,06,1",,"02,99,1,02,1,02,1,00800,1,00,1,00,1",,"999,M,+0191,1","99999,9,10173,1",,"03,1","SYN082AAXX  04181 01417 11580 22605 10178 21004 30173 40251 60002 70321 82200 333 10191;","Q01  00002PRCP12"
"01417099999","2010-09-05T06:00:00","4","59.4833333","5.75","65.0","NEDRE VATS, NO","FM-12","99999","V020","999,9,C,0000,1","22000,1,9,N","008000,1,N,1","+0064,1","+0037,1","10176,1","12,0000,9,1","24,0000,9,1",,"1,1,06,1","0,1,06,1",,"01,99,1,00,1,00,1,99999,9,00,1,01,1",,"999,N,+0060,1","99999,9,10096,1",,"10,1","SYN088AAXX  05061 01417 11958 10000 10064 20037 30096 40176 69912 71010 80001 333 20060 70001;","Q01  00002PRCP24Q02  00002PRCP12"
"01417099999","2010-09-05T12:00:00","4","59.4833333","5.75","65.0","NEDRE VATS, NO","FM-12","99999","V020","280,1,N,0050,1","22000,1,9,N","030000,1,N,1","+0188,1","+0034,1","99999,9",,,,"1,1,06,1","0,1,06,1",,"01,99,1,00,1,00,1,99999,9,00,1,01,1",,,,,"02,1","SYN072AAXX  05121 01417 11980 12805 10188 20034 30195 40272 6//// 70210 80001;","Q01+101953APOSP "
"01417099999","2010-09-05T18:00:00","4","59.4833333","5.75","65.0","NEDRE VATS, NO","FM-12","99999","V020","140,1,N,0050,1","22000,1,9,N","030000,1,N,1","+0157,1","+0075,1","10264,1","12,0000,9,1",,,"1,1,06,1","0,1,06,1",,"01,99,1,00,1,00,1,99999,9,00,1,01,1",,"999,M,+0211,1","99999,9,10186,1",,"02,1","SYN082AAXX  05181 01417 11980 11405 10157 20075 30186 40264 60002 70210 80001 333 10211;","Q01  00002PRCP12"
"01417099999","2010-09-06T06:00:00","4","59.4833333","5.75","65.0","NEDRE VATS, NO","FM-12","99999","V020","999,9,9,9999,9","99999,9,9,N","999999,9,N,1","+0089,1","+0062,1","99999,9","12,0000,9,1","24,0000,9,1",,,,,,,"999,N,+0085,1",,,,"SYN064AAXX  06061 01417 13/// ///// 10089 20062 60002 333 20085 70000;","Q01  00002PRCP24Q02  00002PRCP12"
"01417099999","2010-09-06T12:00:00","4","59.4833333","5.75","65.0","NEDRE VATS, NO","FM-12","99999","V020","999,9,9,9999,9","99999,9,9,N","999999,9,N,1","+0200,1","+0024,1","99999,9",,,,,,,,,,,,,"SYN048AAXX  06121 01417 13/// ///// 10200 20024 6////;",
"01417099999","2010-09-06T18:00:00","4","59.4833333","5.75","65.0","NEDRE VATS, NO","FM-12","99999","V020","140,1,N,0030,1","01200,1,9,N","030000,1,N,1","+0158,1","+0076,1","10229,1","12,0000,9,1",,,"2,1,06,1","1,1,06,1",,"08,99,1,08,1,08,1,00800,1,99,9,99,9",,"999,M,+0212,1","99999,9,10151,1",,"03,1","SYN082AAXX  06181 01417 11580 81403 10158 20076 30151 40229 60002 70321 888// 333 10212;","Q01  00002PRCP12"
"01417099999","2010-09-07T06:00:00","4","59.4833333","5.75","65.0","NEDRE VATS, NO","FM-12","99999","V020","999,9,9,9999,9","99999,9,9,N","999999,9,N,1","+0162,1","+0019,1","99999,9","12,0000,9,1","24,0000,9,1",,,,,,,"999,N,+0143,1",,,,"SYN064AAXX  07061 01417 13/// ///// 10162 20019 60002 333 20143 70000;","Q01  00002PRCP24Q02  00002PRCP12"
"01417099999","2010-09-07T12:00:00","4","59.4833333","5.75","65.0","NEDRE VATS, NO","FM-12","99999","V020","999,9,9,9999,9","99999,9,9,N","999999,9,N,1","+0180,1","+0007,1","99999,9",,,,,,,,,,,,,"SYN048AAXX  07121 01417 13/// ///// 10180 20007 6////;",
"01417099999","2010-09-07T18:00:00","4","59.4833333","5.75","65.0","NEDRE VATS, NO","FM-12","99999","V020","170,1,N,0050,1","22000,1,9,N","030000,1,N,1","+0168,1","-0018,1","10173,1","12,0000,9,1",,,"1,1,06,1","0,1,06,1",,"01,99,1,01,1,00,1,00800,1,07,1,08,1",,"999,M,+0212,1","99999,9,10096,1",,"01,1","SYN082AAXX  07181 01417 11580 11705 10168 21018 30096 40173 60002 70110 81078 333 10212;","Q01  00002PRCP12"
"01417099999","2010-09-08T06:00:00","4","59.4833333","5.75","65.0","NEDRE VATS, NO","FM-12","99999","V020","100,1,N,0070,1","22000,1,9,N","025000,1,N,1","+0160,1","+0002,1","10175,1","12,0000,9,1","24,0000,9,1",,"2,1,06,1","1,1,06,1",,"04,99,1,02,1,02,1,00800,1,00,1,01,1",,"999,N,+0153,1","99999,9,10098,1",,"03,1","SYN088AAXX  08061 01417 11575 41007 10160 20002 30098 40175 60002 70321 82201 333 20153 70000;","Q01  00002PRCP24Q02  00002PRCP12"
"01417099999","2010-09-08T12:00:00","4","59.4833333","5.75","65.0","NEDRE VATS, NO","FM-12","99999","V020","140,1,N,0100,1","22000,1,9,N","025000,1,N,1","+0185,1","+9999,9","10167,1",,,,"2,1,06,1","1,1,06,1",,"04,99,1,02,1,01,1,00800,1,07,1,01,1",,,"99999,9,10091,1","8,1,008,1,+999,9","02,1","SYN078AAXX  08121 01417 11575 41410 10185 2//// 30091 40167 58008 6//// 70221 82171;",
"01417099999","2010-09-08T18:00:00","4","59.4833333","5.75","65.0","NEDRE VATS, NO","FM-12","99999","V020","110,1,N,0070,1","07500,1,9,N","025000,1,N,1","+0167,1","+0071,1","10160,1","12,0000,9,1",,,,,,"05,99,1,02,1,08,1,00800,1,07,1,01,1",,"999,M,+0191,1","99999,9,10083,1","3,1,003,1,+999,9",,"SYN082AAXX  08181 01417 16575 51107 10167 20071 30083 40160 53003 60002 82871 333 10191;","Q01  00002PRCP12"
"01417099999","2010-09-09T06:00:00","4","59.4833333","5.75","65.0","NEDRE VATS, NO","FM-12","99999","V020","999,9,9,9999,9","99999,9,9,N","999999,9,N,1","+0152,1","+0054,1","99999,9","12,0000,9,1","24,0000,9,1",,,,,,,"999,N,+0150,1",,,,"SYN064AAXX  09061 01417 13/// ///// 10152 20054 60002 333 20150 70000;","Q01  00002PRCP24Q02  00002PRCP12"
"01417099999","2010-09-09T12:00:00","4","59.4833333","5.75","65.0","NEDRE VATS, NO","FM-12","99999","V020","999,9,9,9999,9","99999,9,9,N","999999,9,N,1","+0180,1","+0068,1","99999,9",,,,,,,,,,,,,"SYN048AAXX  09121 01417 13/// ///// 10180 20068 6////;",
"01417099999","2010-09-09T18:00:00","4","59.4833333","5.75","65.0","NEDRE VATS, NO","FM-12","99999","V020","070,1,N,0050,1","03000,1,9,N","025000,1,N,1","+0163,1","+0067,1","10183,1","12,0000,9,1",,,,,,"06,99,1,02,1,08,1,00450,1,02,1,07,1",,"999,M,+0191,1","99999,9,10106,1","3,1,006,1,+999,9",,"SYN082AAXX  09181 01417 16475 60705 10163 20067 30106 40183 53006 60002 82827 333 10191;","Q01  00002PRCP12"
"01417099999","2010-09-10T06:00:00","4","59.4833333","5.75","65.0","NEDRE VATS, NO","FM-12","99999","V020","999,9,9,9999,9","99999,9,9,N","999999,9,N,1","+0144,1","+0072,1","99999,9","12,0000,9,1","24,0000,9,1",,,,,,,,,,,"SYN058AAXX  10061 01417 13/// ///// 10144 20072 60002 333 70000;","Q01  00002PRCP24Q02  00002PRCP12"
"01417099999","2010-09-10T12:00:00","4","59.4833333","5.75","65.0","NEDRE VATS, NO","FM-12","99999","V020","999,9,9,9999,9","99999,9,9,N","999999,9,N,1","+0191,1","+0069,1","99999,9",,,,,,,,,,,,,"SYN048AAXX  10121 01417 13/// ///// 10191 20069 6////;",
"01417099999","2010-09-10T18:00:00","4","59.4833333","5.75","65.0","NEDRE VATS, NO","FM-12","99999","V020","210,1,N,0050,1","01200,1,9,N","020000,1,N,1","+0143,1","+0076,1","10138,1","12,0000,9,1",,,"2,1,06,1","1,1,06,1",,"07,99,1,07,1,08,1,00800,1,00,1,00,1",,"999,M,+0193,1","99999,9,10061,1","7,1,005,1,+999,9","03,1","SYN088AAXX  10181 01417 11570 72105 10143 20076 30061 40138 57005 60002 70321 87800 333 10193;","Q01  00002PRCP12"
"01417099999","2010-09-11T06:00:00","4","59.4833333","5.75","65.0","NEDRE VATS, NO","FM-12","99999","V020","070,1,N,0050,1","03000,1,9,N","020000,1,N,1","+0136,1","+0111,1","10097,1","12,0030,9,2","24,0025,9,2",,,,,"08,99,1,04,1,07,1,00800,1,02,1,99,9",,"999,N,+0134,1","99999,9,10020,1","6,1,011,1,+999,9",,"SYN088AAXX  11061 01417 16570 80705 10136 20111 30020 40097 56011 60032 8472/ 333 20134 70025;",
"01417099999","2010-09-11T12:00:00","4","59.4833333","5.75","65.0","NEDRE VATS, NO","FM-12","99999","V020","080,1,N,0050,1","00420,1,9,N","020000,1,N,1","+0146,1","+9999,9","10076,1",,,,,,,"08,99,1,07,1,06,1,00450,1,09,1,99,9",,,"99999,9,10000,1","8,1,013,1,+999,9",,"SYN072AAXX  11121 01417 16470 80805 10146 2//// 30000 40076 58013 6//// 8769/;",
"01417099999","2010-09-11T18:00:00","4","59.4833333","5.75","65.0","NEDRE VATS, NO","FM-12","99999","V020","120,1,N,0070,1","00120,1,9,N","012000,1,N,1","+0152,1","+0149,1","10054,1","12,0221,9,1",,,,,,"08,99,1,05,1,07,1,00150,1,02,1,99,9",,"999,M,+0159,1","99999,9,09977,1","5,1,001,1,+999,9",,"SYN082AAXX  11181 01417 16262 81207 10152 20149 39977 40054 55001 60222 8572/ 333 10159;",
"01417099999","2010-09-12T06:00:00","4","59.4833333","5.75","65.0","NEDRE VATS, NO","FM-12","99999","V020","999,9,9,9999,9","99999,9,9,N","999999,9,N,1","+0140,1","+0129,1","99999,9","12,0099,9,1","24,0325,9,1",,,,,,,"999,N,+0138,1",,,,"SYN064AAXX  12061 01417 13/// ///// 10140 20129 60102 333 20138 70325;",
"01417099999","2010-09-12T12:00:00","4","59.4833333","5.75","65.0","NEDRE VATS, NO","FM-12","99999","V020","999,9,9,9999,9","99999,9,9,N","999999,9,N,1","+0152,1","+0134,1","99999,9",,,,,,,,,,,,,"SYN048AAXX  12121 01417 13/// ///// 10152 20134 6////;",
"01417099999","2010-09-12T18:00:00","4","59.4833333","5.75","65.0","NEDRE VATS, NO","FM-12","99999","V020","999,9,9,9999,9","99999,9,9,N","999999,9,N,1","+0130,1","+0125,1","99999,9","12,0041,9,1",,,,,,,,,,,,"SYN048AAXX  12181 01417 13/// ///// 10130 20125 60042;",
"01417099999","2010-09-13T06:00:00","4","59.4833333","5.75","65.0","NEDRE VATS, NO","FM-12","99999","V020","999,9,9,9999,9","99999,9,9,N","999999,9,N,1","+0100,1","+0099,1","99999,9","12,0020,9,1","24,0064,9,1",,,,,,,"999,N,+0098,1",,,,"SYN064AAXX  13061 01417 13/// ///// 10100 20099 60022 333 20098 70063;",
"01417099999","2010-09-13T12:00:00","4","59.4833333","5.75","65.0","NEDRE VATS, NO","FM-12","99999","V020","999,9,9,9999,9","99999,9,9,N","999999,9,N,1","+0131,1","+0103,1","99999,9",,,,,,,,,,,,,"SYN048AAXX  13121 01417 13/// ///// 10131 20103 6////;",
"01417099999","2010-09-13T18:00:00","4","59.4833333","5.75","65.0","NEDRE VATS, NO","FM-12","99999","V020","999,9,9,9999,9","99999,9,9,N","999999,9,N,1","+0130,1","+0125,1","99999,9","12,0119,9,1",,,,,,,,"999,M,+0140,1",,,,"SYN058AAXX  13181 01417 13/// ///// 10130 20125 60122 333 10140;",
"01417099999","2010-09-14T06:00:00","4","59.4833333","5.75","65.0","NEDRE VATS, NO","FM-12","99999","V020","190,1,N,0050,1","00210,1,9,N","012000,1,N,1","+0128,1","+0123,1","09992,1","12,0239,9,1","24,0361,9,1",,,,,"08,99,1,07,1,06,1,00250,1,99,9,99,9",,"999,N,+0114,1","99999,9,09916,1","1,1,012,1,+999,9",,"SYN088AAXX  14061 01417 16362 81905 10128 20123 39916 49992 51012 60242 876// 333 20114 70361;",
"01417099999","2010-09-14T12:00:00","4","59.4833333","5.75","65.0","NEDRE VATS, NO","FM-12","99999","V020","210,1,N,0070,1","22000,1,9,N","025000,1,N,1","+0153,1","+0111,1","09955,1",,,,"7,1,06,1","2,1,06,1",,"03,99,1,03,1,03,1,00800,1,00,1,00,1",,,"99999,9,09880,1","7,1,032,1,+999,9","01,1","SYN078AAXX  14121 01417 11575 32107 10153 20111 39880 49955 57032 6//// 70172 83300;",
"01417099999","2010-09-14T18:00:00","4","59.4833333","5.75","65.0","NEDRE VATS, NO","FM-12","99999","V020","220,1,N,0050,1","00750,1,9,N","020000,1,N,1","+0099,1","+0082,1","09929,1","12,0051,9,1",,,"8,1,06,1","2,1,06,1",,"08,99,1,08,1,03,1,00800,1,99,9,99,9",,"999,M,+0158,1","99999,9,09852,1","8,1,007,1,+999,9","03,1","SYN088AAXX  14181 01417 11570 82205 10099 20082 39852 49929 58007 60052 70382 883// 333 10158;",
"01417099999","2010-09-15T06:00:00","4","59.4833333","5.75","65.0","NEDRE VATS, NO","FM-12","99999","V020","150,1,N,0070,1","03000,1,9,N","020000,1,N,1","+0085,1","+0068,1","09891,1","12,0079,9,1","24,0132,9,1",,"8,1,06,1","2,1,06,1",,"08,99,1,04,1,06,1,00450,1,07,1,99,9",,"999,N,+0071,1","99999,9,09815,1","6,1,012,1,+999,9","02,1","SYN094AAXX  15061 01417 11470 81507 10085 20068 39815 49891 56012 60082 70282 8467/ 333 20071 70131;",
"01417099999","2010-09-15T12:00:00","4","59.4833333","5.75","65.0","NEDRE VATS, NO","FM-12","99999","V020","999,9,9,9999,9","99999,9,9,N","999999,9,N,1","+0106,1","+0082,1","99999,9",,,,,,,,,,,,,"SYN048AAXX  15121 01417 13/// ///// 10106 20082 6////;",
"01417099999","2010-09-15T18:00:00","4","59.4833333","5.75","65.0","NEDRE VATS, NO","FM-12","99999","V020","310,1,N,0010,1","22000,1,9,N","024000,1,N,1","+0076,1","+0065,1","09903,1","12,0020,9,1",,,,,,"01,99,1,99,9,08,1,00800,1,00,1,00,1",,"999,M,+0128,1","99999,9,09826,1","3,1,009,1,+999,9",,"SYN082AAXX  15181 01417 16574 13101 10076 20065 39826 49903 53009 60022 80800 333 10128;","Q01+000002SCOTLC"
"01417099999","2010-09-16T06:00:00","4","59.4833333","5.75","65.0","NEDRE VATS, NO","FM-12","99999","V020","999,9,9,9999,9","99999,9,9,N","999999,9,N,1","+0087,1","+0086,1","99999,9","12,0061,9,1","24,0076,9,1",,,,,,,"999,N,+0060,1",,,,"SYN064AAXX  16061 01417 13/// ///// 10087 20086 60062 333 20060 70076;",
"01417099999","2010-09-16T12:00:00","4","59.4833333","5.75","65.0","NEDRE VATS, NO","FM-12","99999","V020","999,9,9,9999,9","99999,9,9,N","999999,9,N,1","+0112,1","+0101,1","99999,9",,,,,,,,,,,,,"SYN048AAXX  16121 01417 13/// ///// 10112 20101 6////;",
"01417099999","2010-09-16T18:00:00","4","59.4833333","5.75","65.0","NEDRE VATS, NO","FM-12","99999","V020","999,9,9,9999,9","99999,9,9,N","999999,9,N,1","+0091,1","+0083,1","99999,9","12,0160,9,1",,,,,,,,"999,M,+0126,1",,,,"SYN058AAXX  16181 01417 13/// ///// 10091 20083 60162 333 10126;",
"01417099999","2010-09-17T06:00:00","4","59.4833333","5.75","65.0","NEDRE VATS, NO","FM-12","99999","V020","999,9,9,9999,9","99999,9,9,N","999999,9,N,1","+0087,1","+0086,1","99999,9","12,0140,9,1","24,0300,9,1",,,,,,,"999,N,+0080,1",,,,"SYN064AAXX  17061 01417 13/// ///// 10087 20086 60142 333 20080 70299;",
"01417099999","2010-09-17T12:00:00","4","59.4833333","5.75","65.0","NEDRE VATS, NO","FM-12","99999","V020","999,9,9,9999,9","99999,9,9,N","999999,9,N,1","+0119,1","+0098,1","99999,9",,,,,,,,,,,,,"SYN048AAXX  17121 01417 13/// ///// 10119 20098 6////;",
"01417099999","2010-09-17T18:00:00","4","59.4833333","5.75","65.0","NEDRE VATS, NO","FM-12","99999","V020","220,1,N,0070,1","00210,1,9,N","015000,1,N,1","+0091,1","+0079,1","09983,1","12,0079,9,1",,,"8,1,06,1","2,1,06,1",,"07,99,1,05,1,07,1,00250,1,02,1,99,9",,"999,M,+0137,1","99999,9,09906,1","3,1,017,1,+999,9","62,1","SYN088AAXX  17181 01417 11365 72207 10091 20079 39906 49983 53017 60082 76282 8572/ 333 10137;",
"01417099999","2010-09-18T06:00:00","4","59.4833333","5.75","65.0","NEDRE VATS, NO","FM-12","99999","V020","140,1,N,0010,1","03000,1,9,N","020000,1,N,1","+0080,1","+0080,1","99999,9","12,0140,9,1","24,0221,9,1",,"6,1,06,1","2,1,06,1",,"08,99,1,04,1,07,1,00450,1,02,1,99,9",,"999,N,+0076,1",,,"62,1","SYN076AAXX  18061 01417 11470 81401 10080 20080 60142 76262 8472/ 333 20076 70222;",
"01417099999","2010-09-18T12:00:00","4","59.4833333","5.75","65.0","NEDRE VATS, NO","FM-12","99999","V020","260,1,N,0070,1","00750,1,9,N","020000,1,N,1","+0112,1","+0082,1","10031,1",,,,"8,1,06,1","2,1,06,1",,"08,99,1,08,1,03,1,00800,1,99,9,99,9",,,"99999,9,09953,1","3,1,014,1,+999,9","80,1","SYN078AAXX  18121 01417 11570 82607 10112 20082 39953 40031 53014 6//// 78082 883//;",
"01417099999","2010-09-18T18:00:00","4","59.4833333","5.75","65.0","NEDRE VATS, NO","FM-12","99999","V020","130,1,N,0010,1","00750,1,9,N","020000,1,N,1","+0103,1","+0097,1","10037,1","12,0130,9,1",,,"8,1,06,1","2,1,06,1",,"08,99,1,07,1,03,1,00800,1,09,1,99,9",,"999,M,+0118,1","99999,9,09960,1","4,1,000,1,+999,9","02,1","SYN088AAXX  18181 01417 11570 81301 10103 20097 39960 40037 54001 60132 70282 8739/ 333 10118;",
"01417099999","2010-09-19T06:00:00","4","59.4833333","5.75","65.0","NEDRE VATS, NO","FM-12","99999","V020","220,1,N,0010,1","00750,1,9,N","020000,1,N,1","+0089,1","+0089,1","10049,1","12,0170,9,1","24,0297,9,1",,"8,1,06,1","2,1,06,1",,"07,99,1,07,1,03,1,00800,1,00,1,00,1",,"999,N,+0089,1","99999,9,09971,1","3,1,009,1,+999,9","80,1","SYN094AAXX  19061 01417 11570 72201 10089 20089 39971 40049 53009 60172 78082 87300 333 20089 70297;",
"01417099999","2010-09-19T12:00:00","4","59.4833333","5.75","65.0","NEDRE VATS, NO","FM-12","99999","V020","210,1,N,0010,1","00750,1,9,N","025000,1,N,1","+0128,1","+0089,1","10058,1",,,,"8,1,06,1","2,1,06,1",,"06,99,1,06,1,02,1,00800,1,00,1,00,1",,,"99999,9,09981,1","2,1,002,1,+999,9","01,1","SYN078AAXX  19121 01417 11575 62101 10128 20089 39981 40058 52002 6//// 70182 86200;",
"01417099999","2010-09-19T18:00:00","4","59.4833333","5.75","65.0","NEDRE VATS, NO","FM-12","99999","V020","160,1,N,0030,1","00420,1,9,N","020000,1,N,1","+0099,1","+0096,1","10065,1","12,0041,9,1",,,"8,1,06,1","2,1,06,1",,"07,99,1,99,9,03,1,00450,1,00,1,00,1",,"999,M,+0138,1","99999,9,09987,1","3,1,002,1,+999,9","03,1","SYN088AAXX  19181 01417 11470 71603 10099 20096 39987 40065 53002 60042 70382 86300 333 10138;","Q01+000062SCOTLC"
"01417099999","2010-09-20T06:00:00","4","59.4833333","5.75","65.0","NEDRE VATS, NO","FM-12","99999","V020","999,9,9,9999,9","99999,9,9,N","999999,9,N,1","+0074,1","+0073,1","99999,9","12,0000,9,1","24,0038,9,1",,,,,,,"999,N,+0068,1",,,,"SYN064AAXX  20061 01417 13/// ///// 10074 20073 69922 333 20068 70039;","Q01  00002PRCP12"
"01417099999","2010-09-20T12:00:00","4","59.4833333","5.75","65.0","NEDRE VATS, NO","FM-12","99999","V020","999,9,9,9999,9","99999,9,9,N","999999,9,N,1","+0100,1","+0084,1","99999,9",,,,,,,,,,,,,"SYN042AAXX  20121 01417 43/// ///// 10100 20084;",
"01417099999","2010-09-20T18:00:00","4","59.4833333","5.75","65.0","NEDRE VATS, NO","FM-12","99999","V020","310,1,N,0010,1","22000,1,9,N","030000,1,N,1","+0099,1","+0066,1","10036,1","12,0020,9,1",,,"7,1,06,1","2,1,06,1",,"01,99,1,01,1,08,1,00800,1,00,1,00,1",,"999,M,+0112,1","99999,9,09958,1","3,1,015,1,+999,9","01,1","SYN088AAXX  20181 01417 11580 13101 10099 20066 39958 40036 53015 60022 70172 81800 333 10112;",
"01417099999","2010-09-21T06:00:00","4","59.4833333","5.75","65.0","NEDRE VATS, NO","FM-12","99999","V020","999,9,9,9999,9","99999,9,9,N","999999,9,N,1","+0082,1","+0062,1","99999,9","12,0000,9,1","24,0018,9,1",,,,,,,"999,N,+0070,1",,,,"SYN064AAXX  21061 01417 13/// ///// 10082 20062 69912 333 20070 70017;","Q01  00002PRCP12"
"01417099999","2010-09-21T12:00:00","4","59.4833333","5.75","65.0","NEDRE VATS, NO","FM-12","99999","V020","999,9,9,9999,9","99999,9,9,N","999999,9,N,1","+0128,1","+0081,1","99999,9",,,,,,,,,,,,,"SYN042AAXX  21121 01417 43/// ///// 10128 20081;",
"01417099999","2010-09-21T18:00:00","4","59.4833333","5.75","65.0","NEDRE VATS, NO","FM-12","99999","V020","290,1,N,0030,1","22000,1,9,N","025000,1,N,1","+0091,1","+0077,1","10199,1","12,0005,9,1",,,"8,1,06,1","2,1,06,1",,"03,99,1,02,1,06,1,00800,1,00,1,01,1",,"999,M,+0131,1","99999,9,10120,1","3,1,007,1,+999,9","01,1","SYN088AAXX  21181 01417 11575 32903 10091 20077 30120 40199 53007 69952 70182 82601 333 10131;",
"01417099999","2010-09-22T06:00:00","4","59.4833333","5.75","65.0","NEDRE VATS, NO","FM-12","99999","V020","999,9,9,9999,9","99999,9,9,N","999999,9,N,1","+0113,1","+0054,1","10178,1","12,0000,9,1","24,0005,9,1",,,,,,,"999,N,+0063,1","99999,9,10100,1","8,1,009,1,+999,9",,"SYN082AAXX  22061 01417 13/// ///// 10113 20054 30100 40178 58009 69912 333 20063 70006;","Q01  00002PRCP12"
"01417099999","2010-09-22T12:00:00","4","59.4833333","5.75","65.0","NEDRE VATS, NO","FM-12","99999","V020","999,9,9,9999,9","99999,9,9,N","999999,9,N,1","+0127,1","+0102,1","10158,1",,,,,,,,,,"99999,9,10081,1","7,1,012,1,+999,9",,"SYN060AAXX  22121 01417 43/// ///// 10127 20102 30081 40158 57012;",
"01417099999","2010-09-22T18:00:00","4","59.4833333","5.75","65.0","NEDRE VATS, NO","FM-12","99999","V020","999,9,9,9999,9","99999,9,9,N","999999,9,N,1","+0139,1","+0123,1","10122,1","12,0010,9,1",,,,,,,,"999,M,+0152,1","99999,9,10045,1","7,1,015,1,+999,9",,"SYN076AAXX  22181 01417 13/// ///// 10139 20123 30045 40122 57015 60012 333 10152;",
"01417099999","2010-09-23T06:00:00","4","59.4833333","5.75","65.0","NEDRE VATS, NO","FM-12","99999","V020","140,1,N,0010,1","00420,1,9,N","015000,1,N,1","+0131,1","+0123,1","10075,1","12,0099,9,1","24,0109,9,1",,,,,"08,99,1,08,1,06,1,00450,1,99,9,99,9",,"999,N,+0106,1","99999,9,09997,1","7,1,011,1,+999,9",,"SYN088AAXX  23061 01417 16465 81401 10131 20123 39997 40075 57011 60102 886// 333 20106 70108;",
"01417099999","2010-09-23T12:00:00","4","59.4833333","5.75","65.0","NEDRE VATS, NO","FM-12","99999","V020","050,1,N,0030,1","00750,1,9,N","020000,1,N,1","+0142,1","+0140,1","10050,1",,,,"8,1,06,1","2,1,06,1",,"08,99,1,08,1,00,1,00800,1,02,1,99,9",,,"99999,9,09973,1","7,1,012,1,+999,9","02,1","SYN072AAXX  23121 01417 41570 80503 10142 20140 39973 40050 57012 70282 8802/;",
"01417099999","2010-09-23T18:00:00","4","59.4833333","5.75","65.0","NEDRE VATS, NO","FM-12","99999","V020","999,9,C,0000,1","00420,1,9,N","005000,1,N,1","+0130,1","+0130,1","10019,1","12,0130,9,1",,,"8,1,06,1","2,1,06,1",,"08,99,1,08,1,06,1,00450,1,99,9,99,9",,"999,M,+0147,1","99999,9,09942,1","7,1,012,1,+999,9","10,1","SYN088AAXX  23181 01417 11450 80000 10130 20130 39942 40019 57012 60132 71082 886// 333 10147;",
"01417099999","2010-09-24T12:00:00","4","59.4833333","5.75","65.0","NEDRE VATS, NO","FM-12","99999","V020","999,9,9,9999,9","99999,9,9,N","999999,9,N,1","+0114,1","+0084,1","09985,1",,,,,,,,,,"99999,9,09908,1","7,1,009,1,+999,9",,"SYN060AAXX  24121 01417 43/// ///// 10114 20084 39908 49985 57009;",
"01417099999","2010-09-24T18:00:00","4","59.4833333","5.75","65.0","NEDRE VATS, NO","FM-12","99999","V020","290,1,N,0050,1","01200,1,9,N","025000,1,N,1","+0121,1","+0076,1","09977,1","12,0000,9,1",,,"8,1,06,1","2,1,06,1",,"07,99,1,07,1,08,1,00800,1,00,1,00,1",,"999,M,+0141,1","99999,9,09901,1","5,1,001,1,+999,9","01,1","SYN088AAXX  24181 01417 11575 72905 10121 20076 39901 49977 55001 69922 70182 87800 333 10141;","Q01  00002PRCP12"
"01417099999","2010-09-25T06:00:00","4","59.4833333","5.75","65.0","NEDRE VATS, NO","FM-12","99999","V020","260,1,N,0010,1","22000,1,9,N","030000,1,N,1","+0083,1","+0034,1","10033,1",,,,"2,1,06,1","1,1,06,1",,"03,99,1,02,1,00,1,02250,1,03,1,01,1",,"999,N,+0076,1","99999,9,09955,1","3,1,017,1,+999,9","01,1","SYN082AAXX  25061 01417 41880 32601 10083 20034 39955 40033 53017 70121 82031 333 20076;",
"01417099999","2010-09-25T12:00:00","4","59.4833333","5.75","65.0","NEDRE VATS, NO","FM-12","99999","V020","290,1,N,0050,1","00420,1,9,N","030000,1,N,1","+0162,1","+0061,1","10067,1",,,,"2,1,06,1","1,1,06,1",,"05,99,1,05,1,02,1,00450,1,00,1,00,1",,,"99999,9,09991,1","2,1,014,1,+999,9","03,1","SYN072AAXX  25121 01417 41480 52905 10162 20061 39991 40067 52014 70321 85200;",
"01417099999","2010-09-25T18:00:00","4","59.4833333","5.75","65.0","NEDRE VATS, NO","FM-12","99999","V020","220,1,N,0030,1","22000,1,9,N","030000,1,N,1","+0112,1","+0059,1","10106,1",,,,"1,1,06,1","0,1,06,1",,"01,99,1,01,1,00,1,99999,9,03,1,00,1",,"999,M,+0173,1","99999,9,10028,1","2,1,028,1,+999,9","01,1","SYN082AAXX  25181 01417 41980 12203 10112 20059 30028 40106 52028 70110 81030 333 10173;",
"01417099999","2010-09-26T06:00:00","4","59.4833333","5.75","65.0","NEDRE VATS, NO","FM-12","99999","V020","280,1,N,0010,1","22000,1,9,N","030000,1,N,1","+0050,1","+0050,1","10166,1","12,0000,9,1",,,,,,"01,99,1,00,1,00,1,99999,9,00,1,01,1",,"999,N,+0049,1","99999,9,10086,1","2,1,009,1,+999,9",,"SYN082AAXX  26061 01417 16980 12801 10050 20050 30086 40166 52009 69912 80001 333 20049;","Q01  00002PRCP12"
"01417099999","2010-09-26T12:00:00","4","59.4833333","5.75","65.0","NEDRE VATS, NO","FM-12","99999","V020","080,1,N,0070,1","22000,1,9,N","030000,1,N,1","+0152,1","+0037,1","10171,1",,,,"1,1,06,1","0,1,06,1",,"01,99,1,00,1,00,1,99999,9,00,1,01,1",,,"99999,9,10093,1","7,1,003,1,+999,9","02,1","SYN072AAXX  26121 01417 41980 10807 10152 20037 30093 40171 57003 70210 80001;",
"01417099999","2010-09-26T18:00:00","4","59.4833333","5.75","65.0","NEDRE VATS, NO","FM-12","99999","V020","290,1,N,0030,1","22000,1,9,N","030000,1,N,1","+0104,1","+0069,1","10172,1",,,,"1,1,06,1","0,1,06,1",,"01,99,1,00,1,00,1,99999,9,00,1,01,1",,"999,M,+0179,1","99999,9,10093,1","2,1,003,1,+999,9","01,1","SYN082AAXX  26181 01417 41980 12903 10104 20069 30093 40172 52003 70110 80001 333 10179;",
"01417099999","2010-09-27T06:00:00","4","59.4833333","5.75","65.0","NEDRE VATS, NO","FM-12","99999","V020","050,1,N,0030,1","22000,1,9,N","030000,1,N,1","+0043,1","+0043,1","10198,1",,,,"1,1,06,1","0,1,06,1",,"01,99,1,00,1,00,1,99999,9,00,1,01,1",,"999,N,+0040,1","99999,9,10117,1","3,1,004,1,+999,9","03,1","SYN082AAXX  27061 01417 41980 10503 10043 20043 30117 40198 53004 70310 80001 333 20040;",
"01417099999","2010-09-27T12:00:00","4","59.4833333","5.75","65.0","NEDRE VATS, NO","FM-12","99999","V020","999,9,9,9999,9","99999,9,9,N","999999,9,N,1","+0150,1","+0071,1","10191,1",,,,,,,,,,"99999,9,10113,1","7,1,005,1,+999,9",,"SYN060AAXX  27121 01417 43/// ///// 10150 20071 30113 40191 57005;",
"01417099999","2010-09-27T18:00:00","4","59.4833333","5.75","65.0","NEDRE VATS, NO","FM-12","99999","V020","260,1,N,0010,1","22000,1,9,N","030000,1,N,1","+0099,1","+0064,1","10192,1",,,,"1,1,06,1","0,1,06,1",,"01,99,1,00,1,00,1,99999,9,00,1,01,1",,"999,M,+0178,1","99999,9,10113,1","3,1,007,1,+999,9","02,1","SYN082AAXX  27181 01417 41980 12601 10099 20064 30113 40192 53007 70210 80001 333 10178;",
"01417099999","2010-09-28T06:00:00","4","59.4833333","5.75","65.0","NEDRE VATS, NO","FM-12","99999","V020","999,9,C,0000,1","22000,1,9,N","030000,1,N,1","+0035,1","+0025,1","10221,1",,,,"1,1,06,1","0,1,06,1",,"01,99,1,00,1,00,1,99999,9,00,1,01,1",,"999,N,+0030,1","99999,9,10141,1","2,1,005,1,+999,9","02,1","SYN082AAXX  28061 01417 41980 10000 10035 20025 30141 40221 52005 70210 80001 333 20030;",
"01417099999","2010-09-28T12:00:00","4","59.4833333","5.75","65.0","NEDRE VATS, NO","FM-12","99999","V020","999,9,9,9999,9","99999,9,9,N","999999,9,N,1","+0138,1","+9999,9","10223,1",,,,,,,,,,"99999,9,10145,1","7,1,002,1,+999,9",,"SYN060AAXX  28121 01417 43/// ///// 10138 2//// 30145 40223 57002;",
"01417099999","2010-09-28T18:00:00","4","59.4833333","5.75","65.0","NEDRE VATS, NO","FM-12","99999","V020","999,9,C,0000,1","22000,1,9,N","030000,1,N,1","+0085,1","+0047,1","10225,1",,,,"1,1,06,1","0,1,06,1",,"01,99,1,01,1,03,1,00800,1,00,1,00,1",,"999,M,+0161,1","99999,9,10146,1","3,1,004,1,+999,9","02,1","SYN082AAXX  28181 01417 41580 10000 10085 20047 30146 40225 53004 70210 81300 333 10161;",
"01417099999","2010-09-29T06:00:00","4","59.4833333","5.75","65.0","NEDRE VATS, NO","FM-12","99999","V020","999,9,C,0000,1","22000,1,9,N","030000,1,N,1","+0017,1","+0017,1","10241,1",,,,"1,1,06,1","0,1,06,1",,"01,99,1,00,1,00,1,99999,9,00,1,01,1",,"999,N,+0015,1","99999,9,10160,1","2,1,004,1,+999,9","02,1","SYN082AAXX  29061 01417 41980 10000 10017 20017 30160 40241 52004 70210 80001 333 20015;",
"01417099999","2010-09-29T12:00:00","4","59.4833333","5.75","65.0","NEDRE VATS, NO","FM-12","99999","V020","999,9,9,9999,9","99999,9,9,N","999999,9,N,1","+0136,1","+0037,1","10237,1",,,,,,,,,,"99999,9,10158,1","7,1,008,1,+999,9",,"SYN060AAXX  29121 01417 43/// ///// 10136 20037 30158 40237 57008;",
"01417099999","2010-09-29T18:00:00","4","59.4833333","5.75","65.0","NEDRE VATS, NO","FM-12","99999","V020","350,1,N,0010,1","22000,1,9,N","030000,1,N,1","+0085,1","+0056,1","10222,1",,,,"1,1,06,1","0,1,06,1",,"01,99,1,99,9,05,1,00800,1,00,1,00,1",,"999,M,+0146,1","99999,9,10142,1","7,1,002,1,+999,9","02,1","SYN082AAXX  29181 01417 41580 13501 10085 20056 30142 40222 57002 70210 80500 333 10146;","Q01+000002SCOTLC"
"01417099999","2010-09-30T06:00:00","4","59.4833333","5.75","65.0","NEDRE VATS, NO","FM-12","99999","V020","140,1,N,0050,1","22000,1,9,N","030000,1,N,1","+0070,1","+0025,1","10207,1",,,,"1,1,06,1","0,1,06,1",,"01,99,1,01,1,02,1,00450,1,00,1,00,1",,"999,N,+0050,1","99999,9,10127,1","5,1,004,1,+999,9","02,1","SYN082AAXX  30061 01417 41480 11405 10070 20025 30127 40207 55004 70210 81200 333 20050;",
"01417099999","2010-09-30T12:00:00","4","59.4833333","5.75","65.0","NEDRE VATS, NO","FM-12","99999","V020","999,9,9,9999,9","99999,9,9,N","999999,9,N,1","+0138,1","+0030,1","10202,1",,,,,,,,,,"99999,9,10125,1","5,1,006,1,+999,9",,"SYN060AAXX  30121 01417 43/// ///// 10138 20030 30125 40202 55006;",
"01417099999","2010-09-30T18:00:00","4","59.4833333","5.75","65.0","NEDRE VATS, NO","FM-12","99999","V020","130,1,N,0030,1","22000,1,9,N","030000,1,N,1","+0112,1","+0037,1","10188,1",,,,"1,1,06,1","0,1,06,1",,"01,99,1,01,1,05,1,00800,1,00,1,00,1",,"999,M,+0142,1","99999,9,10110,1","7,1,003,1,+999,9","02,1","SYN082AAXX  30181 01417 41580 11303 10112 20037 30110 40188 57003 70210 81500 333 10142;",
"01417099999","2010-10-01T06:00:00","4","59.4833333","5.75","65.0","NEDRE VATS, NO","FM-12","99999","V020","220,1,N,0070,1","00750,1,9,N","025000,1,N,1","+0111,1","+0008,1","10161,1",,,,"2,1,06,1","1,1,06,1",,"06,99,1,06,1,05,1,00800,1,00,1,00,1",,"999,N,+0080,1","99999,9,10082,1","6,1,007,1,+999,9","03,1","SYN082AAXX  01061 01417 41575 62207 10111 20008 30082 40161 56007 70321 86500 333 20080;",
"01417099999","2010-10-01T12:00:00","4","59.4833333","5.75","65.0","NEDRE VATS, NO","FM-12","99999","V020","999,9,9,9999,9","99999,9,9,N","999999,9,N,1","+0139,1","+0031,1","10143,1",,,,,,,,,,"99999,9,10066,1","8,1,014,1,+999,9",,"SYN060AAXX  01121 01417 43/// ///// 10139 20031 30066 40143 58014;",
"01417099999","2010-10-01T18:00:00","4","59.4833333","5.75","65.0","NEDRE VATS, NO","FM-12","99999","V020","280,1,N,0100,1","22000,1,9,N","030000,1,N,1","+0112,1","+0017,1","10136,1",,,,"1,1,06,1","0,1,06,1",,"01,99,1,01,1,02,1,00800,1,00,1,00,1",,"999,M,+0146,1","99999,9,10057,1","3,1,003,1,+999,9","01,1","SYN082AAXX  01181 01417 41580 12810 10112 20017 30057 40136 53003 70110 81200 333 10146;",
"01417099999","2010-10-02T06:00:00","4","59.4833333","5.75","65.0","NEDRE VATS, NO","FM-12","99999","V020","040,1,N,0120,1","07500,1,9,N","025000,1,N,1","+0124,1","+0028,1","10101,1",,,,,,,"06,99,1,01,1,08,1,00800,1,00,1,08,1",,"999,N,+0100,1","99999,9,10023,1","8,1,011,1,+999,9",,"SYN076AAXX  02061 01417 46575 60412 10124 20028 30023 40101 58011 81808 333 20100;",
"01417099999","2010-10-02T12:00:00","4","59.4833333","5.75","65.0","NEDRE VATS, NO","FM-12","99999","V020","050,1,N,0120,1","00750,1,9,N","020000,1,N,1","+0129,1","+0041,1","10101,1",,,,"8,1,06,1","2,1,06,1",,"08,99,1,07,1,03,1,00800,1,99,9,99,9",,,"99999,9,10023,1","7,1,005,1,+999,9","03,1","SYN072AAXX  02121 01417 41570 80512 10129 20041 30023 40101 57005 70382 873//;",
"01417099999","2010-10-03T06:00:00","4","59.4833333","5.75","65.0","NEDRE VATS, NO","FM-12","99999","V020","100,1,N,0100,1","03000,1,9,N","020000,1,N,1","+0118,1","+0099,1","10026,1","12,0061,9,1",,,"6,1,06,1","2,1,06,1",,"08,99,1,02,1,06,1,00250,1,07,1,99,9",,"999,N,+0118,1","99999,9,09948,1","8,1,031,1,+999,9","60,1","SYN088AAXX  03061 01417 11370 81010 10118 20099 39948 40026 58031 60062 76062 8267/ 333 20118;",
"01417099999","2010-10-03T12:00:00","4","59.4833333","5.75","65.0","NEDRE VATS, NO","FM-12","99999","V020","300,1,N,0070,1","00420,1,9,N","020000,1,N,1","+0135,1","+0105,1","10015,1",,,,"6,1,06,1","2,1,06,1",,"08,99,1,08,1,00,1,00450,1,02,1,99,9",,,"99999,9,09938,1","8,1,007,1,+999,9","02,1","SYN072AAXX  03121 01417 41470 83007 10135 20105 39938 40015 58007 70262 8802/;",
"01417099999","2010-10-03T18:00:00","4","59.4833333","5.75","65.0","NEDRE VATS, NO","FM-12","99999","V020","140,1,N,0120,1","01200,1,9,N","025000,1,N,1","+0172,1","+0101,1","10004,1","12,0140,9,1",,,"6,1,06,1","2,1,06,1",,"06,99,1,99,9,08,1,00800,1,00,1,00,1",,"999,M,+0176,1","99999,9,09928,1","7,1,004,1,+999,9","01,1","SYN088AAXX  03181 01417 11575 61412 10172 20101 39928 40004 57004 60142 70162 85800 333 10176;","Q01+000052SCOTLC"
"01417099999","2010-10-04T06:00:00","4","59.4833333","5.75","65.0","NEDRE VATS, NO","FM-12","99999","V020","150,1,N,0120,1","00210,1,9,N","015000,1,N,1","+0145,1","+0125,1","09992,1","12,0211,9,1","24,0353,9,1",,"6,1,06,1","2,1,06,1",,"08,99,1,05,1,07,1,00250,1,02,1,99,9",,"999,N,+0144,1","99999,9,09916,1","3,1,009,1,+999,9","62,1","SYN094AAXX  04061 01417 11365 81512 10145 20125 39916 49992 53009 60212 76262 8572/ 333 20144 70352;",
"01417099999","2010-10-04T12:00:00","4","59.4833333","5.75","65.0","NEDRE VATS, NO","FM-12","99999","V020","999,9,9,9999,9","99999,9,9,N","999999,9,N,1","+0138,1","+0125,1","10015,1",,,,,,,,,,"99999,9,09938,1","2,1,005,1,+999,9",,"SYN060AAXX  04121 01417 43/// ///// 10138 20125 39938 40015 52005;",
"01417099999","2010-10-04T18:00:00","4","59.4833333","5.75","65.0","NEDRE VATS, NO","FM-12","99999","V020","040,1,N,0070,1","00420,1,9,N","015000,1,N,1","+0139,1","+0130,1","10007,1","12,0419,9,1",,,"6,1,06,1","2,1,06,1",,"08,99,1,06,1,07,1,00450,1,02,1,99,9",,"999,M,+0143,1","99999,9,09931,1","5,1,007,1,+999,9","62,1","SYN088AAXX  04181 01417 11465 80407 10139 20130 39931 40007 55007 60422 76262 8672/ 333 10143;",
"01417099999","2010-10-05T06:00:00","4","59.4833333","5.75","65.0","NEDRE VATS, NO","FM-12","99999","V020","140,1,N,0100,1","00750,1,9,N","015000,1,N,1","+0152,1","+0123,1","09993,1","12,0170,9,1","24,0587,9,1",,"8,1,06,1","1,1,06,1",,"08,99,1,08,1,03,1,00800,1,99,9,99,9",,"999,N,+0130,1","99999,9,09917,1","5,1,000,1,+999,9","80,1","SYN094AAXX  05061 01417 11565 81410 10152 20123 39917 49993 55000 60172 78081 883// 333 20130 70587;",
"01417099999","2010-10-05T12:00:00","4","59.4833333","5.75","65.0","NEDRE VATS, NO","FM-12","99999","V020","999,9,9,9999,9","99999,9,9,N","999999,9,N,1","+0167,1","+0106,1","10003,1",,,,,,,,,,"99999,9,09927,1","3,1,006,1,+999,9",,"SYN060AAXX  05121 01417 43/// ///// 10167 20106 39927 40003 53006;",
"01417099999","2010-10-05T18:00:00","4","59.4833333","5.75","65.0","NEDRE VATS, NO","FM-12","99999","V020","250,1,N,0100,1","00750,1,9,N","015000,1,N,1","+0143,1","+0087,1","10010,1","12,0030,9,1",,,"8,1,06,1","2,1,06,1",,"08,99,1,05,1,03,1,00800,1,02,1,99,9",,"999,M,+0179,1","99999,9,09933,1","3,1,003,1,+999,9","80,1","SYN088AAXX  05181 01417 11565 82510 10143 20087 39933 40010 53003 60032 78082 8532/ 333 10179;",
"01417099999","2010-10-06T06:00:00","4","59.4833333","5.75","65.0","NEDRE VATS, NO","FM-12","99999","V020","070,1,N,0070,1","03000,1,9,N","015000,1,N,1","+0125,1","+0111,1","10041,1","12,0089,9,1","24,0127,9,1",,"6,1,06,1","2,1,06,1",,"08,99,1,04,1,07,1,00250,1,02,1,99,9",,"999,N,+0120,1","99999,9,09963,1","7,1,009,1,+999,9","62,1","SYN094AAXX  06061 01417 11365 80707 10125 20111 39963 40041 57009 60092 76262 8472/ 333 20120 70128;",
"01417099999","2010-10-06T12:00:00","4","59.4833333","5.75","65.0","NEDRE VATS, NO","FM-12","99999","V020","999,9,9,9999,9","99999,9,9,N","999999,9,N,1","+0128,1","+0128,1","10015,1",,,,,,,,,,"99999,9,09938,1","8,1,017,1,+999,9",,"SYN060AAXX  06121 01417 43/// ///// 10128 20128 39938 40015 58017;",
"01417099999","2010-10-06T18:00:00","4","59.4833333","5.75","65.0","NEDRE VATS, NO","FM-12","99999","V020","999,9,9,9999,9","00210,1,9,N","010000,1,N,1","+0139,1","+0133,1","10002,1","12,0820,9,1",,,"6,1,06,1","2,1,06,1",,"08,99,1,06,1,07,1,00250,1,02,1,99,9",,"999,M,+0141,1","99999,9,09926,1","3,1,014,1,+999,9","63,1","SYN088AAXX  06181 01417 11360 8//// 10139 20133 39926 40002 53014 60822 76362 8672/ 333 10141;",
"01417099999","2010-10-07T06:00:00","4","59.4833333","5.75","65.0","NEDRE VATS, NO","FM-12","99999","V020","130,1,N,0070,1","00420,1,9,N","020000,1,N,1","+0121,1","+0102,1","10177,1","12,0099,9,1","24,0917,9,1",,"6,1,06,1","2,1,06,1",,"08,99,1,08,1,05,1,00450,1,99,9,99,9",,"999,N,+0115,1","99999,9,10098,1","3,1,033,1,+999,9","02,1","SYN094AAXX  07061 01417 11470 81307 10121 20102 30098 40177 53033 60102 70262 885// 333 20115 70918;",
"01417099999","2010-10-07T12:00:00","4","59.4833333","5.75","65.0","NEDRE VATS, NO","FM-12","99999","V020","999,9,9,9999,9","99999,9,9,N","999999,9,N,1","+0154,1","+0100,1","10227,1",,,,,,,,,,"99999,9,10150,1","2,1,017,1,+999,9",,"SYN060AAXX  07121 01417 43/// ///// 10154 20100 30150 40227 52017;",
"01417099999","2010-10-07T18:00:00","4","59.4833333","5.75","65.0","NEDRE VATS, NO","FM-12","99999","V020","010,1,N,0010,1","22000,1,9,N","030000,1,N,1","+0110,1","+0096,1","10259,1","12,0000,9,1",,,"1,1,06,1","0,1,06,1",,"01,99,1,99,9,06,1,00450,1,00,1,00,1",,"999,M,+0162,1","99999,9,10180,1","3,1,017,1,+999,9","02,1","SYN088AAXX  07181 01417 11480 10101 10110 20096 30180 40259 53017 69912 70210 80600 333 10162;","Q01+000002SCOTLCQ02  00002PRCP12"
"01417099999","2010-10-08T06:00:00","4","59.4833333","5.75","65.0","NEDRE VATS, NO","FM-12","99999","V020","080,1,N,0010,1","22000,1,9,N","030000,1,N,1","+0071,1","+0071,1","10294,1","12,0000,9,1","24,0003,9,1",,"1,1,06,1","0,1,06,1",,"01,99,1,01,1,06,1,00450,1,00,1,00,1",,"999,N,+0071,1","99999,9,10213,1","2,1,006,1,+999,9","02,1","SYN094AAXX  08061 01417 11480 10801 10071 20071 30213 40294 52006 69912 70210 81600 333 20071 70002;","Q01  00002PRCP12"
"01417099999","2010-10-08T12:00:00","4","59.4833333","5.75","65.0","NEDRE VATS, NO","FM-12","99999","V020","999,9,9,9999,9","99999,9,9,N","999999,9,N,1","+0154,1","+0100,1","10299,1",,,,,,,,,,"99999,9,10221,1","4,1,000,1,+999,9",,"SYN060AAXX  08121 01417 43/// ///// 10154 20100 30221 40299 54000;",
"01417099999","2010-10-08T18:00:00","4","59.4833333","5.75","65.0","NEDRE VATS, NO","FM-12","99999","V020","170,1,N,0010,1","22000,1,9,N","030000,1,N,1","+0110,1","+0091,1","10306,1",,,,"1,1,06,1","0,1,06,1",,"01,99,1,00,1,00,1,99999,9,00,1,01,1",,"999,M,+0179,1","99999,9,10227,1","2,1,011,1,+999,9","02,1","SYN082AAXX  08181 01417 41980 11701 10110 20091 30227 40306 52011 70210 80001 333 10179;",
"01417099999","2010-10-09T06:00:00","4","59.4833333","5.75","65.0","NEDRE VATS, NO","FM-12","99999","V020","080,1,N,0010,1","22000,1,9,N","030000,1,N,1","+0052,1","+0052,1","10308,1","12,0000,9,1",,,"1,1,06,1","0,1,06,1","00,1,+99999,9,99,9","00,99,1,00,1,00,1,99999,9,00,1,00,1",,"999,N,+0052,1","99999,9,10227,1","7,1,006,1,+999,9","02,1","SYN082AAXX  09061 01417 11980 00801 10052 20052 30227 40308 57006 69922 70210 333 20052;","Q01  00002PRCP12"
"01417099999","2010-10-09T12:00:00","4","59.4833333","5.75","65.0","NEDRE VATS, NO","FM-12","99999","V020","280,1,N,0030,1","22000,1,9,N","030000,1,N,1","+0139,1","+0097,1","10291,1",,,,"1,1,06,1","0,1,06,1",,"01,99,1,00,1,00,1,99999,9,00,1,01,1",,,"99999,9,10212,1","8,1,011,1,+999,9","03,1","SYN072AAXX  09121 01417 41980 12803 10139 20097 30212 40291 58011 70310 80001;",
"01417099999","2010-10-09T18:00:00","4","59.4833333","5.75","65.0","NEDRE VATS, NO","FM-12","99999","V020","190,1,N,0010,1","22000,1,9,N","030000,1,N,1","+0099,1","+0063,1","10270,1",,,,"1,1,06,1","0,1,06,1",,"01,99,1,00,1,00,1,99999,9,00,1,01,1",,"999,M,+0148,1","99999,9,10191,1","5,1,005,1,+999,9","02,1","SYN082AAXX  09181 01417 41980 11901 10099 20063 30191 40270 55005 70210 80001 333 10148;",
"01417099999","2010-10-10T06:00:00","4","59.4833333","5.75","65.0","NEDRE VATS, NO","FM-12","99999","V020","999,9,C,0000,1","22000,1,9,N","006000,1,N,1","+0034,1","+0034,1","10239,1","12,0000,9,1",,,"1,1,06,1","1,1,06,1",,"01,99,1,00,1,00,1,99999,9,00,1,01,1",,"999,N,+0034,1","99999,9,10157,1","8,1,007,1,+999,9","10,1","SYN088AAXX  10061 01417 11956 10000 10034 20034 30157 40239 58007 69922 71011 80001 333 20034;","Q01  00002PRCP12"
"01417099999","2010-10-10T12:00:00","4","59.4833333","5.75","65.0","NEDRE VATS, NO","FM-12","99999","V020","260,1,N,0030,1","22000,1,9,N","030000,1,N,1","+0122,1","+0090,1","10221,1",,,,,,,"03,99,1,00,1,00,1,99999,9,00,1,04,1",,,"99999,9,10142,1","6,1,011,1,+999,9",,"SYN066AAXX  10121 01417 46980 32603 10122 20090 30142 40221 56011 80004;",
"01417099999","2010-10-10T18:00:00","4","59.4833333","5.75","65.0","NEDRE VATS, NO","FM-12","99999","V020","300,1,N,0010,1","22000,1,9,N","030000,1,N,1","+0080,1","+0079,1","10223,1",,,,"1,1,06,1","0,1,06,1",,"03,99,1,00,1,00,1,99999,9,00,1,01,1",,"999,M,+0137,1","99999,9,10143,1","3,1,006,1,+999,9","02,1","SYN082AAXX  10181 01417 41980 33001 10080 20079 30143 40223 53006 70210 80001 333 10137;",
"01417099999","2010-10-11T06:00:00","4","59.4833333","5.75","65.0","NEDRE VATS, NO","FM-12","99999","V020","140,1,N,0010,1","22000,1,9,N","025000,1,N,1","+0069,1","+0069,1","10240,1",,,,"1,1,06,1","0,1,06,1",,"02,99,1,02,1,06,1,00800,1,00,1,00,1",,"999,N,+0069,1","99999,9,10160,1","8,1,004,1,+999,9","01,1","SYN082AAXX  11061 01417 41575 21401 10069 20069 30160 40240 58004 70110 82600 333 20069;",
"01417099999","2010-10-11T12:00:00","4","59.4833333","5.75","65.0","NEDRE VATS, NO","FM-12","99999","V020","999,9,9,9999,9","99999,9,9,N","999999,9,N,1","+0118,1","+0085,1","10230,1",,,,,,,,,,"99999,9,10152,1","7,1,010,1,+999,9",,"SYN060AAXX  11121 01417 43/// ///// 10118 20085 30152 40230 57010;",
"01417099999","2010-10-11T18:00:00","4","59.4833333","5.75","65.0","NEDRE VATS, NO","FM-12","99999","V020","050,1,N,0010,1","22000,1,9,N","030000,1,N,1","+0095,1","+0068,1","10214,1",,,,"1,1,06,1","0,1,06,1",,"01,99,1,99,9,02,1,00800,1,00,1,00,1",,"999,M,+0136,1","99999,9,10135,1","7,1,004,1,+999,9","01,1","SYN082AAXX  11181 01417 41580 10501 10095 20068 30135 40214 57004 70110 80200 333 10136;","Q01+000002SCOTLC"
"01417099999","2010-10-12T06:00:00","4","59.4833333","5.75","65.0","NEDRE VATS, NO","FM-12","99999","V020","220,1,N,0010,1","22000,1,9,N","025000,1,N,1","+0035,1","+0035,1","10195,1",,,,"1,1,06,1","0,1,06,1",,"01,99,1,00,1,00,1,99999,9,00,1,01,1",,"999,N,+0030,1","99999,9,10115,1","7,1,003,1,+999,9","02,1","SYN082AAXX  12061 01417 41975 12201 10035 20035 30115 40195 57003 70210 80001 333 20030;",
"01417099999","2010-10-12T12:00:00","4","59.4833333","5.75","65.0","NEDRE VATS, NO","FM-12","99999","V020","999,9,9,9999,9","99999,9,9,N","999999,9,N,1","+0107,1","+0063,1","10191,1",,,,,,,,,,"99999,9,10112,1","8,1,003,1,+999,9",,"SYN060AAXX  12121 01417 43/// ///// 10107 20063 30112 40191 58003;",
"01417099999","2010-10-12T18:00:00","4","59.4833333","5.75","65.0","NEDRE VATS, NO","FM-12","99999","V020","210,1,N,0010,1","22000,1,9,N","030000,1,N,1","+0065,1","+0048,1","10193,1",,,,"1,1,06,1","0,1,06,1",,"01,99,1,00,1,00,1,99999,9,00,1,01,1",,"999,M,+0126,1","99999,9,10113,1","3,1,003,1,+999,9","02,1","SYN082AAXX  12181 01417 41980 12101 10065 20048 30113 40193 53003 70210 80001 333 10126;",
"01417099999","2010-10-13T06:00:00","4","59.4833333","5.75","65.0","NEDRE VATS, NO","FM-12","99999","V020","100,1,N,0010,1","01200,1,9,N","025000,1,N,1","+0049,1","+0049,1","10197,1",,,,"2,1,06,1","1,1,06,1",,"08,99,1,08,1,08,1,00800,1,99,9,99,9",,"999,N,+0024,1","99999,9,10117,1","7,1,005,1,+999,9","03,1","SYN082AAXX  13061 01417 41575 81001 10049 20049 30117 40197 57005 70321 888// 333 20024;",
"01417099999","2010-10-13T12:00:00","4","59.4833333","5.75","65.0","NEDRE VATS, NO","FM-12","99999","V020","999,9,9,9999,9","99999,9,9,N","999999,9,N,1","+0093,1","+0082,1","10180,1",,,,,,,,,,"99999,9,10102,1","6,1,008,1,+999,9",,"SYN060AAXX  13121 01417 43/// ///// 10093 20082 30102 40180 56008;",
"01417099999","2010-10-13T18:00:00","4","59.4833333","5.75","65.0","NEDRE VATS, NO","FM-12","99999","V020","020,1,N,0010,1","00420,1,9,N","020000,1,N,1","+0079,1","+0079,1","10166,1","12,0000,9,1",,,"5,1,06,1","2,1,06,1",,"08,99,1,08,1,06,1,00450,1,99,9,99,9",,"999,M,+0098,1","99999,9,10087,1","6,1,004,1,+999,9","02,1","SYN088AAXX  13181 01417 11470 80201 10079 20079 30087 40166 56004 69902 70252 886// 333 10098;","Q01  00002PRCP12"
"01417099999","2010-10-14T06:00:00","4","59.4833333","5.75","65.0","NEDRE VATS, NO","FM-12","99999","V020","040,1,N,0050,1","00420,1,9,N","015000,1,N,1","+0086,1","+0086,1","10124,1","12,0008,9,1","24,0008,9,1",,"8,1,06,1","2,1,06,1",,"07,99,1,07,1,06,1,00450,1,00,1,00,1",,"999,N,+0070,1","99999,9,10046,1","7,1,003,1,+999,9","01,1","SYN094AAXX  14061 01417 11465 70405 10086 20086 30046 40124 57003 69982 70182 87600 333 20070 70008;",
"01417099999","2010-10-14T12:00:00","4","59.4833333","5.75","65.0","NEDRE VATS, NO","FM-12","99999","V020","999,9,9,9999,9","99999,9,9,N","999999,9,N,1","+0100,1","+0031,1","10143,1",,,,,,,,,,"99999,9,10065,1","2,1,008,1,+999,9",,"SYN060AAXX  14121 01417 43/// ///// 10100 20031 30065 40143 52008;",
"01417099999","2010-10-14T18:00:00","4","59.4833333","5.75","65.0","NEDRE VATS, NO","FM-12","99999","V020","310,1,N,0030,1","22000,1,9,N","030000,1,N,1","+0064,1","+0025,1","10143,1",,,,"1,1,06,1","0,1,06,1",,"01,99,1,00,1,00,1,99999,9,00,1,09,1",,"999,M,+0111,1","99999,9,10063,1","2,1,003,1,+999,9","01,1","SYN082AAXX  14181 01417 41980 13103 10064 20025 30063 40143 52003 70110 80009 333 10111;",
"01417099999","2010-10-15T06:00:00","4","59.4833333","5.75","65.0","NEDRE VATS, NO","FM-12","99999","V020","210,1,N,0010,1","01200,1,9,N","025000,1,N,1","+0035,1","+0035,1","10111,1","12,0000,9,1",,,"2,1,06,1","1,1,06,1",,"07,99,1,07,1,08,1,00800,1,00,1,00,1",,"999,N,+0030,1","99999,9,10031,1","7,1,013,1,+999,9","03,1","SYN088AAXX  15061 01417 11575 72101 10035 20035 30031 40111 57013 69912 70321 87800 333 20030;","Q01  00002PRCP12"
"01417099999","2010-10-15T12:00:00","4","59.4833333","5.75","65.0","NEDRE VATS, NO","FM-12","99999","V020","999,9,9,9999,9","99999,9,9,N","999999,9,N,1","+0090,1","+0046,1","10106,1",,,,,,,,,,"99999,9,10027,1","7,1,002,1,+999,9",,"SYN060AAXX  15121 01417 43/// ///// 10090 20046 30027 40106 57002;",
"01417099999","2010-10-15T18:00:00","4","59.4833333","5.75","65.0","NEDRE VATS, NO","FM-12","99999","V020","220,1,N,0010,1","22000,1,9,N","030000,1,N,1","+0047,1","+0008,1","10125,1",,,,,,,"01,99,1,00,1,00,1,99999,9,00,1,01,1",,"999,M,+0117,1","99999,9,10046,1","3,1,018,1,+999,9",,"SYN076AAXX  15181 01417 42980 12201 10047 20008 30046 40125 53018 80001 333 10117;",
"01417099999","2010-10-16T06:00:00","4","59.4833333","5.75","65.0","NEDRE VATS, NO","FM-12","99999","V020","999,9,C,0000,1","22000,1,9,N","025000,1,N,1","+0005,1","-0009,1","10216,1",,,,"1,1,06,1","0,1,06,1",,"01,99,1,01,1,07,1,00800,1,00,1,00,1",,"999,N,+0000,1","99999,9,10135,1","3,1,017,1,+999,9","01,1","SYN082AAXX  16061 01417 41575 10000 10005 21009 30135 40216 53017 70110 81700 333 20000;",
"01417099999","2010-10-16T12:00:00","4","59.4833333","5.75","65.0","NEDRE VATS, NO","FM-12","99999","V020","140,1,N,0030,1","00750,1,9,N","020000,1,N,1","+0056,1","+0056,1","10235,1",,,,"8,1,06,1","2,1,06,1",,"08,99,1,08,1,03,1,00800,1,99,9,99,9",,,"99999,9,10155,1","1,1,006,1,+999,9","80,1","SYN072AAXX  16121 01417 41570 81403 10056 20056 30155 40235 51006 78082 883//;",
"01417099999","2010-10-16T18:00:00","4","59.4833333","5.75","65.0","NEDRE VATS, NO","FM-12","99999","V020","999,9,C,0000,1","22000,1,9,N","025000,1,N,1","+0031,1","+0031,1","10237,1","12,0020,9,1",,,"6,1,06,1","2,1,06,1",,"02,99,1,01,1,06,1,00800,1,00,1,01,1",,"999,M,+0071,1","99999,9,10156,1","3,1,003,1,+999,9","01,1","SYN088AAXX  16181 01417 11575 20000 10031 20031 30156 40237 53003 60022 70162 81601 333 10071;",
"01417099999","2010-10-17T06:00:00","4","59.4833333","5.75","65.0","NEDRE VATS, NO","FM-12","99999","V020","130,1,N,0010,1","22000,1,9,N","025000,1,N,1","+0001,1","+0001,1","10231,1",,,,"1,1,06,1","0,1,06,1",,"01,99,1,00,1,00,1,99999,9,00,1,08,1",,"999,N,-0009,1","99999,9,10148,1","7,1,008,1,+999,9","02,1","SYN082AAXX  17061 01417 41975 11301 10001 20001 30148 40231 57008 70210 80008 333 21009;",
"01417099999","2010-10-17T12:00:00","4","59.4833333","5.75","65.0","NEDRE VATS, NO","FM-12","99999","V020","210,1,N,0010,1","01200,1,9,N","025000,1,N,1","+0074,1","+0038,1","10205,1",,,,"2,1,06,1","1,1,06,1",,"08,99,1,08,1,08,1,00800,1,99,9,99,9",,,"99999,9,10126,1","8,1,015,1,+999,9","03,1","SYN072AAXX  17121 01417 41575 82101 10074 20038 30126 40205 58015 70321 888//;",
"01417099999","2010-10-18T06:00:00","4","59.4833333","5.75","65.0","NEDRE VATS, NO","FM-12","99999","V020","210,1,N,0070,1","00750,1,9,N","025000,1,N,1","+0099,1","+0099,1","10165,1","12,0150,9,1",,,"8,1,06,1","2,1,06,1",,"08,99,1,08,1,09,1,00800,1,99,9,99,9",,"999,N,+0080,1","99999,9,10087,1","7,1,019,1,+999,9","02,1","SYN088AAXX  18061 01417 11575 82107 10099 20099 30087 40165 57019 60152 70282 889// 333 20080;",
"01417099999","2010-10-18T12:00:00","4","59.4833333","5.75","65.0","NEDRE VATS, NO","FM-12","99999","V020","999,9,9,9999,9","99999,9,9,N","999999,9,N,1","+0091,1","+0091,1","99999,9",,,,,,,,,,,"7,1,021,1,+999,9",,"SYN060AAXX  18121 01417 43/// ///// 10091 20091 39936 40013 57021;","Q01+099363APOSP "
"01417099999","2010-10-18T18:00:00","4","59.4833333","5.75","65.0","NEDRE VATS, NO","FM-12","99999","V020","170,1,N,0010,1","00750,1,9,N","020000,1,N,1","+0075,1","+0075,1","09973,1","12,0071,9,1",,,"8,1,06,1","2,1,06,1",,"08,99,1,08,1,09,1,00800,1,99,9,99,9",,"999,M,+0108,1","99999,9,09896,1","6,1,015,1,+999,9","02,1","SYN088AAXX  18181 01417 11570 81701 10075 20075 39896 49973 56015 60072 70282 889// 333 10108;",
"01417099999","2010-10-19T06:00:00","4","59.4833333","5.75","65.0","NEDRE VATS, NO","FM-12","99999","V020","130,1,N,0010,1","00420,1,9,N","020000,1,N,1","+0055,1","+0055,1","09951,1","12,0030,9,1","24,0104,9,1",,"8,1,06,1","2,1,06,1",,"08,99,1,06,1,09,1,00450,1,02,1,99,9",,"999,N,+0055,1","99999,9,09872,1","4,1,000,1,+999,9","80,1","SYN094AAXX  19061 01417 11470 81301 10055 20055 39872 49951 54000 60032 78082 8692/ 333 20055 70104;",
"01417099999","2010-10-19T12:00:00","4","59.4833333","5.75","65.0","NEDRE VATS, NO","FM-12","99999","V020","999,9,9,9999,9","99999,9,9,N","999999,9,N,1","+0081,1","+0072,1","09961,1",,,,,,,,,,"99999,9,09883,1","2,1,002,1,+999,9",,"SYN060AAXX  19121 01417 43/// ///// 10081 20072 39883 49961 52002;",
"01417099999","2010-10-19T18:00:00","4","59.4833333","5.75","65.0","NEDRE VATS, NO","FM-12","99999","V020","140,1,N,0050,1","22000,1,9,N","025000,1,N,1","+0061,1","+0027,1","09969,1","12,0010,9,1",,,"8,1,06,1","2,1,06,1",,"02,99,1,99,9,09,1,00800,1,00,1,00,1",,"999,M,+0087,1","99999,9,09891,1","2,1,008,1,+999,9","01,1","SYN088AAXX  19181 01417 11575 21405 10061 20027 39891 49969 52008 69992 70182 81900 333 10087;","Q01+000012SCOTLC"
"01417099999","2010-10-20T06:00:00","4","59.4833333","5.75","65.0","NEDRE VATS, NO","FM-12","99999","V020","340,1,N,0050,1","22000,1,9,N","030000,1,N,1","+0031,1","-0020,1","10033,1","12,0000,9,1","24,0010,9,1",,"7,1,06,1","2,1,06,1",,"02,99,1,00,1,00,1,99999,9,00,1,04,1",,"999,N,+0029,1","99999,9,09953,1","3,1,023,1,+999,9","02,1","SYN094AAXX  20061 01417 11980 23405 10031 21020 39953 40033 53023 69912 70272 80004 333 20029 70010;","Q01  00002PRCP12"
"01417099999","2010-10-20T12:00:00","4","59.4833333","5.75","65.0","NEDRE VATS, NO","FM-12","99999","V020","999,9,9,9999,9","99999,9,9,N","999999,9,N,1","+0063,1","-0063,1","10072,1",,,,,,,,,,"99999,9,09993,1","2,1,009,1,+999,9",,"SYN060AAXX  20121 01417 43/// ///// 10063 21063 39993 40072 52009;",
"01417099999","2010-10-20T18:00:00","4","59.4833333","5.75","65.0","NEDRE VATS, NO","FM-12","99999","V020","350,1,N,0010,1","22000,1,9,N","025000,1,N,1","+0008,1","-0017,1","10080,1",,,,"1,1,06,1","0,1,06,1",,"03,99,1,01,1,05,1,00800,1,00,1,04,1",,"999,M,+0071,1","99999,9,10000,1","2,1,004,1,+999,9","03,1","SYN082AAXX  20181 01417 41575 33501 10008 21017 30000 40080 52004 70310 81504 333 10071;",
"01417099999","2010-10-21T06:00:00","4","59.4833333","5.75","65.0","NEDRE VATS, NO","FM-12","99999","V020","210,1,N,0010,1","00420,1,9,N","006000,1,N,1","-0011,1","-0021,1","10077,1","12,0005,9,1",,"9999,2,9,999999,9,9","8,1,06,1","2,1,06,1",,"08,99,1,08,1,03,1,00450,1,99,9,99,9","21,9","999,N,-0019,1","99999,9,09996,1","6,1,008,1,+999,9","10,1","SYN094AAXX  21061 01417 11456 82101 11011 21021 39996 40077 56008 69942 71082 883// 333 21019 45998;","Q01  09982SNDP  "
"01417099999","2010-10-21T12:00:00","4","59.4833333","5.75","65.0","NEDRE VATS, NO","FM-12","99999","V020","999,9,9,9999,9","99999,9,9,N","999999,9,N,1","+0013,1","+0001,1","10022,1",,,,,,,,,,"99999,9,09942,1","8,1,029,1,+999,9",,"SYN060AAXX  21121 01417 43/// ///// 10013 20001 39942 40022 58029;",
"01417099999","2010-10-21T18:00:00","4","59.4833333","5.75","65.0","NEDRE VATS, NO","FM-12","99999","V020","220,1,N,0010,1","00750,1,9,N","015000,1,N,1","+0007,1","-0004,1","10002,1","12,0089,9,1",,,"7,1,06,1","2,1,06,1",,"08,99,1,08,1,03,1,00800,1,99,9,99,9",,"999,M,+0021,1","99999,9,09922,1","8,1,010,1,+999,9","02,1","SYN088AAXX  21181 01417 11565 82201 10007 21004 39922 40002 58010 60092 70272 883// 333 10021;",
"01417099999","2010-10-22T06:00:00","4","59.4833333","5.75","65.0","NEDRE VATS, NO","FM-12","99999","V020","330,1,N,0010,1","22000,1,9,N","025000,1,N,1","-0001,1","-0011,1","10040,1",,,"0002,9,1,999999,9,9","1,1,06,1","0,1,06,1",,"02,99,1,02,1,08,1,00800,1,00,1,00,1","27,9","999,N,-0001,1","99999,9,09960,1","3,1,030,1,+999,9","01,1","SYN088AAXX  22061 01417 41575 23301 11001 21011 39960 40040 53030 70110 82800 333 21001 43002;",
"01417099999","2010-10-22T12:00:00","4","59.4833333","5.75","65.0","NEDRE VATS, NO","FM-12","99999","V020","040,1,N,0050,1","07500,1,9,N","020000,1,N,1","+0023,1","+0011,1","10049,1",,,,"8,1,06,1","2,1,06,1",,"06,99,1,01,1,03,1,00800,1,00,1,08,1",,,"99999,9,09970,1","8,1,001,1,+999,9","01,1","SYN072AAXX  22121 01417 41570 60405 10023 20011 39970 40049 58001 70182 81308;",
"01417099999","2010-10-22T18:00:00","4","59.4833333","5.75","65.0","NEDRE VATS, NO","FM-12","99999","V020","090,1,N,0030,1","07500,1,9,N","025000,1,N,1","+0022,1","+0010,1","10031,1","12,0170,9,1",,,"7,1,06,1","2,1,06,1",,"06,99,1,02,1,02,1,00800,1,00,1,08,1",,"999,M,+0036,1","99999,9,09952,1","6,1,007,1,+999,9","02,1","SYN088AAXX  22181 01417 11575 60903 10022 20010 39952 40031 56007 60172 70272 82208 333 10036;",
"01417099999","2010-10-23T06:00:00","4","59.4833333","5.75","65.0","NEDRE VATS, NO","FM-12","99999","V020","050,1,N,0010,1","22000,1,9,N","025000,1,N,1","+0029,1","+0017,1","09999,1","12,0051,9,1","24,0229,9,1","0001,9,1,999999,9,9","7,1,06,1","2,1,06,1",,"03,99,1,99,9,07,1,00800,1,00,1,00,1","28,9","999,N,+0016,1","99999,9,09920,1","2,1,003,1,+999,9","01,1","SYN100AAXX  23061 01417 11575 30501 10029 20017 39920 49999 52003 60052 70172 82700 333 20016 44001 70228;","Q01+000022SCOTLC"
"01417099999","2010-10-23T12:00:00","4","59.4833333","5.75","65.0","NEDRE VATS, NO","FM-12","99999","V020","140,1,N,0050,1","22000,1,9,N","030000,1,N,1","+0052,1","+0034,1","10006,1",,,,"1,1,06,1","0,1,06,1",,"01,99,1,00,1,00,1,99999,9,00,1,01,1",,,"99999,9,09927,1","0,1,000,1,+999,9","01,1","SYN072AAXX  23121 01417 41980 11405 10052 20034 39927 40006 50000 70110 80001;",
"01417099999","2010-10-23T18:00:00","4","59.4833333","5.75","65.0","NEDRE VATS, NO","FM-12","99999","V020","220,1,N,0010,1","22000,1,9,N","030000,1,N,1","+0021,1","+9999,9","10006,1",,,,"0,1,06,1","0,1,06,1",,"01,99,1,00,1,00,1,99999,9,00,1,01,1",,"999,M,+0021,1","99999,9,09927,1","2,1,002,1,+999,9","02,1","SYN082AAXX  23181 01417 41980 12201 10021 21286 39927 40006 52002 70200 80001 333 10021;","Q01-002863ATOD  "
"01417099999","2010-10-24T06:00:00","4","59.4833333","5.75","65.0","NEDRE VATS, NO","FM-12","99999","V020","100,1,N,0010,1","22000,1,9,N","030000,1,N,1","-0010,1","-0010,1","10030,1",,,"9999,3,9,999999,9,9","1,1,06,1","0,1,06,1","00,1,+99999,9,99,9","00,99,1,00,1,00,1,99999,9,00,1,00,1","25,9","999,N,-0014,1","99999,9,09950,1","2,1,012,1,+999,9","01,1","SYN082AAXX  24061 01417 41980 01001 11010 21010 39950 40030 52012 70110 333 21014 41997;","Q01  09972SNDP  "
"01417099999","2010-10-24T12:00:00","4","59.4833333","5.75","65.0","NEDRE VATS, NO","FM-12","99999","V020","110,1,N,0030,1","22000,1,9,N","030000,1,N,1","+0052,1","-0012,1","10060,1",,,,"1,1,06,1","0,1,06,1","00,1,+99999,9,99,9","00,99,1,00,1,00,1,99999,9,00,1,00,1",,,"99999,9,09981,1","2,1,013,1,+999,9","02,1","SYN066AAXX  24121 01417 41980 01103 10052 21012 39981 40060 52013 70210;",
"01417099999","2010-10-24T18:00:00","4","59.4833333","5.75","65.0","NEDRE VATS, NO","FM-12","99999","V020","310,1,N,0050,1","22000,1,9,N","030000,1,N,1","+0048,1","+0008,1","10095,1",,,,"1,1,06,1","0,1,06,1",,"03,99,1,03,1,02,1,00800,1,00,1,00,1",,"999,M,+0076,1","99999,9,10016,1","2,1,022,1,+999,9","03,1","SYN082AAXX  24181 01417 41580 33105 10048 20008 30016 40095 52022 70310 83200 333 10076;",
"01417099999","2010-10-25T06:00:00","4","59.4833333","5.75","65.0","NEDRE VATS, NO","FM-12","99999","V020","040,1,N,0010,1","22000,1,9,N","025000,1,N,1","+0009,1","-0020,1","10132,1","12,0041,9,1",,"9999,2,9,999999,9,9","7,1,06,1","2,1,06,1",,"04,99,1,01,1,06,1,00800,1,00,1,08,1","30,9","999,N,+0009,1","99999,9,10051,1","4,1,000,1,+999,9","03,1","SYN094AAXX  25061 01417 11575 40401 10009 21020 30051 40132 54001 60042 70372 81608 333 20009 42998;","Q01  09982SNDP  "
"01417099999","2010-10-25T12:00:00","4","59.4833333","5.75","65.0","NEDRE VATS, NO","FM-12","99999","V020","310,1,N,0010,1","00750,1,9,N","025000,1,N,1","+0118,1","+0087,1","10133,1",,,,"8,1,06,1","2,1,06,1",,"08,99,1,06,1,06,1,00800,1,09,1,99,9",,,"99999,9,10056,1","3,1,006,1,+999,9","03,1","SYN072AAXX  25121 01417 41575 83101 10118 20087 30056 40133 53006 70382 8669/;",
"01417099999","2010-10-25T18:00:00","4","59.4833333","5.75","65.0","NEDRE VATS, NO","FM-12","99999","V020","030,1,N,0010,1","22000,1,9,N","030000,1,N,1","+0008,1","-0021,1","10190,1","12,0000,9,1",,,"1,1,06,1","0,1,06,1",,"01,99,1,01,1,08,1,00800,1,00,1,01,1",,"999,M,+0066,1","99999,9,10108,1","2,1,021,1,+999,9","01,1","SYN088AAXX  25181 01417 11580 10301 10008 21021 30108 40190 52021 69912 70110 81801 333 10066;","Q01  00002PRCP12"
"01417099999","2010-10-26T06:00:00","4","59.4833333","5.75","65.0","NEDRE VATS, NO","FM-12","99999","V020","040,1,N,0010,1","00750,1,9,N","025000,1,N,1","+0018,1","+0008,1","10204,1",,,"9999,2,9,999999,9,9","2,1,06,1","1,1,06,1",,"07,99,1,07,1,02,1,00800,1,00,1,00,1","25,9","999,N,+0008,1","99999,9,10122,1","8,1,005,1,+999,9","03,1","SYN088AAXX  26061 01417 41575 70401 10018 20008 30122 40204 58005 70321 87200 333 20008 41998;","Q01  09982SNDP  "
"01417099999","2010-10-26T18:00:00","4","59.4833333","5.75","65.0","NEDRE VATS, NO","FM-12","99999","V020","210,1,N,0050,1","00750,1,9,N","020000,1,N,1","+0070,1","+0034,1","10153,1","12,9999,9,9",,,"8,1,06,1","2,1,06,1",,"08,99,1,08,1,03,1,00800,1,99,9,99,9",,"999,M,+0078,1","99999,9,10073,1","8,1,012,1,+999,9","80,1","SYN088AAXX  26181 01417 11570 82105 10070 20034 30073 40153 58012 69912 78082 883// 333 10078;","Q01  00002PRCP12Q02  00002PRCP12"
"01417099999","2010-10-27T06:00:00","4","59.4833333","5.75","65.0","NEDRE VATS, NO","FM-12","99999","V020","050,1,N,0070,1","00210,1,9,N","015000,1,N,1","+0088,1","+0088,1","10018,1","12,0030,9,1","24,0036,9,1",,"8,1,06,1","2,1,06,1",,"08,99,1,08,1,03,1,00250,1,99,9,99,9",,"999,N,+0070,1","99999,9,09941,1","8,1,034,1,+999,9","80,1","SYN094AAXX  27061 01417 11365 80507 10088 20088 39941 40018 58034 60032 78082 883// 333 20070 70035;",
"01417099999","2010-10-27T18:00:00","4","59.4833333","5.75","65.0","NEDRE VATS, NO","FM-12","99999","V020","210,1,N,0070,1","00750,1,9,N","020000,1,N,1","+0102,1","+0094,1","10002,1","12,0079,9,1",,,"8,1,06,1","2,1,06,1",,"08,99,1,07,1,03,1,00800,1,99,9,99,9",,"999,M,+0121,1","99999,9,09925,1","2,1,002,1,+999,9","02,1","SYN088AAXX  27181 01417 11570 82107 10102 20094 39925 40002 52002 60082 70282 873// 333 10121;",
"01417099999","2010-10-28T06:00:00","4","59.4833333","5.75","65.0","NEDRE VATS, NO","FM-12","99999","V020","070,1,N,0050,1","00750,1,9,N","020000,1,N,1","+0079,1","+0079,1","09993,1","12,0071,9,1","24,0145,9,1",,"8,1,06,1","2,1,06,1",,"08,99,1,08,1,03,1,00800,1,99,9,99,9",,"999,N,+0079,1","99999,9,09916,1","8,1,026,1,+999,9","02,1","SYN094AAXX  28061 01417 11570 80705 10079 20079 39916 49993 58026 60072 70282 883// 333 20079 70145;",
"01417099999","2010-10-28T18:00:00","4","59.4833333","5.75","65.0","NEDRE VATS, NO","FM-12","99999","V020","170,1,N,0070,1","00750,1,9,N","020000,1,N,1","+0076,1","+0076,1","10037,1","12,0351,9,1",,,"7,1,06,1","2,1,06,1",,"08,99,1,08,1,03,1,00800,1,99,9,99,9",,"999,M,+0099,1","99999,9,09958,1","3,1,017,1,+999,9","80,1","SYN088AAXX  28181 01417 11570 81707 10076 20076 39958 40037 53017 60352 78072 883// 333 10099;",
"01417099999","2010-10-29T06:00:00","4","59.4833333","5.75","65.0","NEDRE VATS, NO","FM-12","99999","V020","050,1,N,0070,1","03000,1,9,N","020000,1,N,1","+0087,1","+0087,1","09998,1","12,0071,9,1","24,0414,9,1",,"8,1,06,1","3,1,06,1",,"08,99,1,04,1,07,1,00450,1,02,1,99,9",,"999,N,+0065,1","99999,9,09921,1","8,1,027,1,+999,9","02,1","SYN094AAXX  29061 01417 11470 80507 10087 20087 39921 49998 58027 60072 70283 8472/ 333 20065 70414;",
"01417099999","2010-10-29T12:00:00","4","59.4833333","5.75","65.0","NEDRE VATS, NO","FM-12","99999","V020","999,9,9,9999,9","00420,1,9,N","008000,1,N,1","+0109,1","+0109,1","09973,1",,,,"6,1,06,1","2,1,06,1",,"08,99,1,06,1,07,1,00450,1,02,1,99,9",,,"99999,9,09897,1","8,1,003,1,+999,9","62,1","SYN072AAXX  29121 01417 41458 8//// 10109 20109 39897 49973 58003 76262 8672/;",
"01417099999","2010-10-29T18:00:00","4","59.4833333","5.75","65.0","NEDRE VATS, NO","FM-12","99999","V020","240,1,N,0070,1","03000,1,9,N","009000,1,N,1","+0111,1","+0111,1","09949,1","12,0269,9,1",,,"6,1,06,1","2,1,06,1",,"08,99,1,04,1,07,1,00450,1,02,1,99,9",,"999,M,+0119,1","99999,9,09872,1","6,1,014,1,+999,9","62,1","SYN088AAXX  29181 01417 11459 82407 10111 20111 39872 49949 56014 60272 76262 8472/ 333 10119;",
"01417099999","2010-10-30T06:00:00","4","59.4833333","5.75","65.0","NEDRE VATS, NO","FM-12","99999","V020","210,1,N,0070,1","00420,1,9,N","014000,1,N,1","+0108,1","+0094,1","09885,1","12,0079,9,1","24,0353,9,1",,"5,1,06,1","2,1,06,1",,"08,99,1,06,1,06,1,00450,1,02,1,99,9",,"999,N,+0100,1","99999,9,09808,1","2,1,003,1,+999,9","02,1","SYN094AAXX  30061 01417 11464 82107 10108 20094 39808 49885 52003 60082 70252 8662/ 333 20100 70353;",
"01417099999","2010-10-30T12:00:00","4","59.4833333","5.75","65.0","NEDRE VATS, NO","FM-12","99999","V020","170,1,N,0070,1","00600,1,9,N","015000,1,N,1","+0098,1","+0098,1","09908,1",,,,"8,1,06,1","2,1,06,1",,"08,99,1,06,1,08,1,00250,1,02,1,99,9",,,"99999,9,09832,1","2,1,010,1,+999,9","81,1","SYN072AAXX  30121 01417 41365 81707 10098 20098 39832 49908 52010 78182 8682/;",
"01417099999","2010-10-30T18:00:00","4","59.4833333","5.75","65.0","NEDRE VATS, NO","FM-12","99999","V020","150,1,N,0050,1","22000,1,9,N","022000,1,N,1","+0093,1","+0090,1","09948,1","12,0020,9,1",,,"8,1,06,1","2,1,06,1",,"03,99,1,99,9,03,1,00800,1,00,1,00,1",,"999,M,+0118,1","99999,9,09871,1","2,1,025,1,+999,9","01,1","SYN088AAXX  30181 01417 11572 31505 10093 20090 39871 49948 52025 60022 70182 82300 333 10118;","Q01+000022SCOTLC"
"01417099999","2010-10-31T06:00:00","4","59.4833333","5.75","65.0","NEDRE VATS, NO","FM-12","99999","V020","210,1,N,0070,1","00420,1,9,N","022000,1,N,1","+0098,1","-0202,2","09973,1","12,0051,9,1","24,0071,9,1",,"8,1,06,1","2,1,06,1",,"08,99,1,08,1,03,1,00450,1,99,9,99,9",,"999,N,+0086,1","99999,9,09896,1","3,1,007,1,+999,9","02,1","SYN094AAXX  31061 01417 11472 82107 10098 21202 39896 49973 53007 60052 70282 883// 333 20086 70071;",
"01417099999","2010-10-31T12:00:00","4","59.4833333","5.75","65.0","NEDRE VATS, NO","FM-12","99999","V020","220,1,N,0050,1","00420,1,9,N","020000,1,N,1","+0101,1","+9999,9","09914,1",,,,"8,1,06,1","2,1,06,1",,"07,99,1,07,1,03,1,00450,1,00,1,00,1",,,"99999,9,09837,1","2,1,019,1,+999,9","01,1","SYN072AAXX  31121 01417 41470 72205 10101 20101 39837 49914 52019 70182 87300;","Q01+001013ATOD  "
"01417099999","2010-10-31T18:00:00","4","59.4833333","5.75","65.0","NEDRE VATS, NO","FM-12","99999","V020","230,1,N,0010,1","22000,1,9,N","025000,1,N,1","+0075,1","+0075,1","99999,9","12,0051,9,1",,,"8,1,06,1","2,1,06,1",,"03,99,1,03,1,03,1,00800,1,00,1,00,1",,"999,M,+0116,1",,"2,1,023,1,+999,9","01,1","SYN088AAXX  31181 01417 11575 32301 10075 20075 39978 40057 52023 60052 70182 83300 333 10116;","Q01+099783APOSP "
"01417099999","2010-11-01T06:00:00","4","59.4833333","5.75","65.0","NEDRE VATS, NO","FM-12","99999","V020","010,1,N,0010,1","22000,1,9,N","025000,1,N,1","+0059,1","+0059,1","10098,1","12,0020,9,1","24,0069,9,1",,"7,1,06,1","2,1,06,1",,"02,99,1,01,1,03,1,00800,1,00,1,01,1",,"999,N,+0059,1","99999,9,10018,1","2,1,010,1,+999,9","01,1","SYN094AAXX  01061 01417 11575 20101 10059 20059 30018 40098 52010 60022 70172 81301 333 20059 70069;",
"01417099999","2010-11-01T12:00:00","4","59.4833333","5.75","65.0","NEDRE VATS, NO","FM-12","99999","V020","999,9,9,9999,9","22000,1,9,N","025000,1,N,1","+9999,9","+9999,9","99999,9",,,,"8,1,06,1","2,1,06,1",,"03,99,1,03,1,03,1,00800,1,00,1,01,1",,,,"8,1,005,1,+999,9","03,1","SYN060AAXX  01121 01417 41575 3//// 1//// 2//// 58005 70382 83301;",
"01417099999","2010-11-01T18:00:00","4","59.4833333","5.75","65.0","NEDRE VATS, NO","FM-12","99999","V020","260,1,N,0030,1","22000,1,9,N","030000,1,N,1","+0019,1","+0019,1","10099,1","12,0003,9,1",,,"1,1,06,1","0,1,06,1",,"01,99,1,00,1,00,1,99999,9,00,1,01,1",,"999,M,+0091,1","99999,9,10018,1","7,1,011,1,+999,9","01,1","SYN088AAXX  01181 01417 11980 12603 10019 20019 30018 40099 57011 69932 70110 80001 333 10091;",
"01417099999","2010-11-02T06:00:00","4","59.4833333","5.75","65.0","NEDRE VATS, NO","FM-12","99999","V020","070,1,N,0070,1","00420,1,9,N","015000,1,N,1","+0072,1","+0072,1","09951,1","12,0099,9,1","24,0099,9,1",,"6,1,06,1","2,1,06,1",,"08,99,1,06,1,07,1,00450,1,02,1,02,1",,"999,N,+0012,1","99999,9,09873,1","6,1,048,1,+999,9","62,1","SYN094AAXX  02061 01417 11465 80707 10072 20072 39873 49951 56048 60102 76262 86722 333 20012 70099;",
"01417099999","2010-11-02T18:00:00","4","59.4833333","5.75","65.0","NEDRE VATS, NO","FM-12","99999","V020","260,1,N,0070,1","00750,1,9,N","025000,1,N,1","+0095,1","+0095,1","09909,1","12,0119,9,1",,,"8,1,06,1","6,1,06,1",,"08,99,1,08,1,03,1,00800,1,99,9,99,9",,"999,M,+0108,1","99999,9,09832,1","0,1,003,1,+999,9","02,1","SYN088AAXX  02181 01417 11575 82607 10095 20095 39832 49909 50003 60122 70286 883// 333 10108;",
"01417099999","2010-11-03T06:00:00","4","59.4833333","5.75","65.0","NEDRE VATS, NO","FM-12","99999","V020","170,1,N,0070,1","00750,1,9,N","020000,1,N,1","+0075,1","+0075,1","09867,1","12,0150,9,1","24,0269,9,1",,,,,"06,99,1,99,9,09,1,00800,1,00,1,00,1",,"999,N,+0075,1","99999,9,09790,1","3,1,007,1,+999,9",,"SYN088AAXX  03061 01417 16570 61707 10075 20075 39790 49867 53007 60152 85900 333 20075 70270;","Q01+000052SCOTLC"
"01417099999","2010-11-03T18:00:00","4","59.4833333","5.75","65.0","NEDRE VATS, NO","FM-12","99999","V020","210,1,N,0050,1","00420,1,9,N","020000,1,N,1","+0056,1","+0050,1","09952,1","12,0130,9,1",,,"7,1,06,1","2,1,06,1",,"06,99,1,06,1,09,1,00450,1,00,1,00,1",,"999,M,+0097,1","99999,9,09873,1","1,1,033,1,+999,9","02,1","SYN088AAXX  03181 01417 11470 62105 10056 20050 39873 49952 51033 60132 70272 86900 333 10097;",
"01417099999","2010-11-04T06:00:00","4","59.4833333","5.75","65.0","NEDRE VATS, NO","FM-12","99999","V020","200,1,N,0010,1","22000,1,9,N","025000,1,N,1","+0035,1","+0035,1","09999,1","12,0051,9,1","24,0180,9,1",,,,,"03,99,1,03,1,01,1,00250,1,00,1,00,1",,"999,N,+0034,1","99999,9,09920,1","0,1,010,1,+999,9",,"SYN088AAXX  04061 01417 12375 32001 10035 20035 39920 49999 50010 60052 83100 333 20034 70180;",
"01417099999","2010-11-04T12:00:00","4","59.4833333","5.75","65.0","NEDRE VATS, NO","FM-12","99999","V020","140,1,N,0050,1","00750,1,9,N","025000,1,N,1","+0045,1","+0045,1","10031,1",,,,,,,"06,99,1,06,1,03,1,00800,1,00,1,00,1",,,"99999,9,09952,1","1,1,005,1,+999,9",,"SYN066AAXX  04121 01417 46575 61405 10045 20045 39952 40031 51005 86300;",
"01417099999","2010-11-04T18:00:00","4","59.4833333","5.75","65.0","NEDRE VATS, NO","FM-12","99999","V020","210,1,N,0030,1","00420,1,9,N","020000,1,N,1","+0038,1","+0038,1","10028,1","12,0061,9,1",,,"8,1,06,1","2,1,06,1",,"06,99,1,06,1,03,1,00450,1,00,1,00,1",,"999,M,+0056,1","99999,9,09948,1","7,1,001,1,+999,9","80,1","SYN088AAXX  04181 01417 11470 62103 10038 20038 39948 40028 57001 60062 78082 86300 333 10056;",
"01417099999","2010-11-05T06:00:00","4","59.4833333","5.75","65.0","NEDRE VATS, NO","FM-12","99999","V020","100,1,N,0010,1","00420,1,9,N","020000,1,N,1","+0040,1","+0040,1","10028,1","12,0041,9,1","24,0097,9,1",,"7,1,06,1","2,1,06,1",,"08,99,1,08,1,03,1,00450,1,99,9,99,9",,"999,N,+0031,1","99999,9,09948,1","3,1,018,1,+999,9","80,1","SYN094AAXX  05061 01417 11470 81001 10040 20040 39948 40028 53018 60042 78072 883// 333 20031 70097;",
"01417099999","2010-11-05T18:00:00","4","59.4833333","5.75","65.0","NEDRE VATS, NO","FM-12","99999","V020","010,1,N,0030,1","99999,9,9,N","020000,1,N,1","+0050,1","+0050,1","10063,1","12,0109,9,1",,,"3,1,06,1","2,1,06,1",,"06,99,1,99,9,03,1,00800,1,00,1,00,1",,"999,M,+0071,1","99999,9,09983,1","3,1,006,1,+999,9","01,1","SYN088AAXX  05181 01417 11570 60103 10050 20050 39983 40063 53006 60112 70132 84300 333 10071;","Q01+000042SCOTLC"
"01417099999","2010-11-06T06:00:00","4","59.4833333","5.75","65.0","NEDRE VATS, NO","FM-12","99999","V020","340,1,N,0030,1","22000,1,9,N","030000,1,N,1","+0022,1","+0016,1","10089,1","12,0005,9,1","24,0117,9,1",,"7,1,06,1","2,1,06,1",,"01,99,1,01,1,02,1,00450,1,00,1,00,1",,"999,N,+0022,1","99999,9,10008,1","2,1,006,1,+999,9","01,1","SYN094AAXX  06061 01417 11480 13403 10022 20016 30008 40089 52006 69952 70172 81200 333 20022 70116;",
"01417099999","2010-11-06T12:00:00","4","59.4833333","5.75","65.0","NEDRE VATS, NO","FM-12","99999","V020","310,1,N,0050,1","22000,1,9,N","030000,1,N,1","+0052,1","-0004,1","10102,1",,,,,,,"01,99,1,99,9,02,1,00450,1,00,1,00,1",,,"99999,9,10022,1","0,1,003,1,+999,9",,"SYN076AAXX  06121 01417 42480 13105 10052 21004 30022 40102 50003 80200 333 91105;","Q01+000002SCOTLC"
"01417099999","2010-11-06T18:00:00","4","59.4833333","5.75","65.0","NEDRE VATS, NO","FM-12","99999","V020","320,1,N,0050,1","03000,1,9,N","030000,1,N,1","+0030,1","+0021,1","10099,1",,,,"2,1,06,1","1,1,06,1",,"06,99,1,04,1,08,1,00800,1,06,1,00,1",,"999,M,+0058,1","99999,9,10018,1","7,1,003,1,+999,9","03,1","SYN082AAXX  06181 01417 41580 63205 10030 20021 30018 40099 57003 70321 84860 333 10058;",
"01417099999","2010-11-07T06:00:00","4","59.4833333","5.75","65.0","NEDRE VATS, NO","FM-12","99999","V020","999,9,9,9999,9","99999,9,9,N","999999,9,N,1","+0002,1","+0002,1","99999,9",,,,,,,,,,,,,"SYN088AAXX  07061 01417 11X08 92605 10002 20002 39995 40075 56007 60022 74342 333 21005 44001;",
"01417099999","2010-11-07T12:00:00","4","59.4833333","5.75","65.0","NEDRE VATS, NO","FM-12","99999","V020","270,1,N,0010,1","03000,1,9,N","028000,1,N,1","+0022,1","+0022,1","10057,1",,,,"4,1,06,1","2,1,06,1",,"05,99,1,01,1,02,1,00800,1,03,1,00,1",,,"99999,9,09977,1","8,1,016,1,+999,9","01,1","SYN072AAXX  07121 01417 41578 52701 10022 20022 39977 40057 58016 70142 81230;",
"01417099999","2010-11-07T18:00:00","4","59.4833333","5.75","65.0","NEDRE VATS, NO","FM-12","99999","V020","260,1,N,0010,1","22000,1,9,N","025000,1,N,1","-0004,1","-0004,1","10025,1","12,0000,9,1",,,"1,1,06,1","0,1,06,1",,"01,99,1,01,1,08,1,00450,1,00,1,00,1",,"999,M,+0036,1","99999,9,09945,1","7,1,015,1,+999,9","01,1","SYN088AAXX  07181 01417 11475 12601 11004 21004 39945 40025 57015 69912 70110 81800 333 10036;","Q01  00002PRCP12"
"01417099999","2010-11-08T06:00:00","4","59.4833333","5.75","65.0","NEDRE VATS, NO","FM-12","99999","V020","080,1,N,0070,1","22000,1,9,N","030000,1,N,1","+0022,1","-0045,1","09951,1",,,"9999,2,9,999999,9,9","1,1,06,1","0,1,06,1",,"01,99,1,99,9,00,1,02250,1,03,1,00,1","25,9","999,N,-0009,1","99999,9,09872,1","8,1,013,1,+999,9","02,1","SYN088AAXX  08061 01417 41880 10807 10022 21045 39872 49951 58013 70210 80030 333 21009 41998;","Q01+000002SCOTLCQ02  09982SNDP  "
"01417099999","2010-11-08T12:00:00","4","59.4833333","5.75","65.0","NEDRE VATS, NO","FM-12","99999","V020","100,1,N,0050,1","99999,9,9,N","030000,1,N,1","+0033,1","-0063,1","09950,1",,,,"2,1,06,1","1,1,06,1",,"05,99,1,00,1,00,1,99999,9,00,1,07,1",,,"99999,9,09872,1","3,1,003,1,+999,9","03,1","SYN072AAXX  08121 01417 41980 51005 10033 21063 39872 49950 53003 70321 80007;",
"01417099999","2010-11-08T18:00:00","4","59.4833333","5.75","65.0","NEDRE VATS, NO","FM-12","99999","V020","120,1,N,0100,1","22000,1,9,N","030000,1,N,1","+0025,1","-0074,1","09958,1",,,,"1,1,06,1","0,1,06,1",,"01,99,1,00,1,00,1,99999,9,00,1,02,1",,"999,M,+0051,1","99999,9,09878,1","3,1,007,1,+999,9","01,1","SYN082AAXX  08181 01417 41980 11210 10025 21074 39878 49958 53007 70110 80002 333 10051;",
"01417099999","2010-11-09T06:00:00","4","59.4833333","5.75","65.0","NEDRE VATS, NO","FM-12","99999","V020","190,1,N,0010,1","22000,1,9,N","030000,1,N,1","-0029,1","-0085,1","09973,1",,,"9999,2,9,999999,9,9","1,1,06,1","0,1,06,1",,"01,99,1,00,1,00,1,99999,9,00,1,01,1","25,9","999,N,-0030,1","99999,9,09892,1","7,1,002,1,+999,9","02,1","SYN088AAXX  09061 01417 41980 11901 11029 21085 39892 49973 57002 70210 80001 333 21030 41998;","Q01  09982SNDP  "
"01417099999","2010-11-09T12:00:00","4","59.4833333","5.75","65.0","NEDRE VATS, NO","FM-12","99999","V020","310,1,N,0010,1","22000,1,9,N","030000,1,N,1","+0018,1","-0116,1","09951,1",,,,"1,1,06,1","0,1,06,1",,"01,99,1,00,1,00,1,99999,9,00,1,01,1",,,"99999,9,09872,1","7,1,015,1,+999,9","02,1","SYN072AAXX  09121 01417 41980 13101 10018 21116 39872 49951 57015 70210 80001;",
"01417099999","2010-11-09T18:00:00","4","59.4833333","5.75","65.0","NEDRE VATS, NO","FM-12","99999","V020","040,1,N,0010,1","22000,1,9,N","030000,1,N,1","-0021,1","-0101,1","09949,1",,,,"1,1,06,1","0,1,06,1",,"01,99,1,00,1,00,1,99999,9,00,1,01,1",,"999,M,+0032,1","99999,9,09868,1","7,1,002,1,+999,9","02,1","SYN082AAXX  09181 01417 41980 10401 11021 21101 39868 49949 57002 70210 80001 333 10032;",
"01417099999","2010-11-10T06:00:00","4","59.4833333","5.75","65.0","NEDRE VATS, NO","FM-12","99999","V020","310,1,N,0010,1","22000,1,9,N","030000,1,N,1","-0016,1","-0058,1","09917,1",,,"9999,2,9,999999,9,9","1,1,06,1","0,1,06,1",,"01,99,1,00,1,00,1,99999,9,00,1,01,1","25,9","999,N,-0024,1","99999,9,09837,1","7,1,007,1,+999,9","02,1","SYN088AAXX  10061 01417 41980 13101 11016 21058 39837 49917 57007 70210 80001 333 21024 41998;","Q01  09982SNDP  "
"01417099999","2010-11-10T18:00:00","4","59.4833333","5.75","65.0","NEDRE VATS, NO","FM-12","99999","V020","290,1,N,0010,1","22000,1,9,N","030000,1,N,1","-0022,1","-0041,1","09934,1",,,,,,,"01,99,1,00,1,00,1,99999,9,00,1,01,1",,"999,M,+0032,1","99999,9,09853,1","2,1,010,1,+999,9",,"SYN076AAXX  10181 01417 46980 12901 11022 21041 39853 49934 52010 80001 333 10032;",
"01417099999","2010-11-11T06:00:00","4","59.4833333","5.75","65.0","NEDRE VATS, NO","FM-12","99999","V020","040,1,N,0010,1","02100,1,9,N","025000,1,N,1","+0015,1","+0011,1","09929,1",,,"9999,2,9,999999,9,9","2,1,06,1","1,1,06,1",,"08,99,1,08,1,00,1,02250,1,08,1,99,9","25,9","999,N,-0025,1","99999,9,09850,1","6,1,010,1,+999,9","03,1","SYN088AAXX  11061 01417 41875 80401 10015 20011 39850 49929 56010 70321 8808/ 333 21025 41998;","Q01  09982SNDP  "
"01417099999","2010-11-11T12:00:00","4","59.4833333","5.75","65.0","NEDRE VATS, NO","FM-12","99999","V020","100,1,N,0050,1","03000,1,9,N","025000,1,N,1","+0058,1","-0013,1","99999,9",,,,"2,1,06,1","1,1,06,1",,"08,99,1,03,1,07,1,00800,1,02,1,99,9",,,,"8,1,060,2,+999,9","02,1","SYN072AAXX  11121 01417 41575 81005 10058 21013 39721 49797 58060 70221 8372/;","Q01+097973APOSLP"
"01417099999","2010-11-11T18:00:00","4","59.4833333","5.75","65.0","NEDRE VATS, NO","FM-12","99999","V020","140,1,N,0070,1","03000,1,9,N","025000,1,N,1","+0069,1","-0010,1","09731,1",,,,"2,1,06,1","1,1,06,1",,"08,99,1,03,1,07,1,00450,1,02,1,99,9",,"999,M,+0074,1","99999,9,09655,1","5,1,070,2,+999,9","02,1","SYN082AAXX  11181 01417 41475 81407 10069 21010 39655 49731 55070 70221 8372/ 333 10074;","Q01+000702APC3  "
"01417099999","2010-11-12T06:00:00","4","59.4833333","5.75","65.0","NEDRE VATS, NO","FM-12","99999","V020","100,1,N,0100,1","00750,1,9,N","020000,1,N,1","+0065,1","-0002,1","09661,1","12,0051,9,1",,,"8,1,06,1","2,1,06,1",,"08,99,1,08,1,02,1,00800,1,99,9,99,9",,"999,N,+0041,1","99999,9,09586,1","3,1,007,1,+999,9","80,1","SYN088AAXX  12061 01417 11570 81010 10065 21002 39586 49661 53007 60052 78082 882// 333 20041;",
"01417099999","2010-11-12T12:00:00","4","59.4833333","5.75","65.0","NEDRE VATS, NO","FM-12","99999","V020","090,1,N,0050,1","00210,1,9,N","025000,1,N,1","+0052,1","+0048,1","09721,1",,,,"8,1,06,1","2,1,06,1",,"08,99,1,07,1,03,1,00250,1,99,9,99,9",,,"99999,9,09645,1","1,1,023,1,+999,9","02,1","SYN072AAXX  12121 01417 41375 80905 10052 20048 39645 49721 51023 70282 873//;",
"01417099999","2010-11-12T18:00:00","4","59.4833333","5.75","65.0","NEDRE VATS, NO","FM-12","99999","V020","080,1,N,0070,1","00750,1,9,N","020000,1,N,1","+0047,1","+0047,1","09733,1","12,0079,9,1",,,"8,1,06,1","2,1,06,1",,"08,99,1,08,1,03,1,00800,1,99,9,99,9",,"999,M,+0073,1","99999,9,09657,1","1,1,016,1,+999,9","02,1","SYN088AAXX  12181 01417 11570 80807 10047 20047 39657 49733 51016 60082 70282 883// 333 10073;",
"01417099999","2010-11-13T06:00:00","4","59.4833333","5.75","65.0","NEDRE VATS, NO","FM-12","99999","V020","140,1,N,0010,1","03000,1,9,N","015000,1,N,1","+0032,1","+0032,1","09742,1","12,0061,9,1","24,0145,9,1",,"6,1,06,1","2,1,06,1",,"08,99,1,04,1,07,1,00800,1,01,1,99,9",,"999,N,+0032,1","99999,9,09665,1","3,1,013,1,+999,9","61,1","SYN094AAXX  13061 01417 11565 81401 10032 20032 39665 49742 53013 60062 76162 8471/ 333 20032 70145;",
"01417099999","2010-11-13T12:00:00","4","59.4833333","5.75","65.0","NEDRE VATS, NO","FM-12","99999","V020","070,1,N,0050,1","00420,1,9,N","015000,1,N,1","+0042,1","+0042,1","09771,1",,,,"5,1,06,1","2,1,06,1",,"07,99,1,06,1,06,1,00450,1,01,1,99,9",,,"99999,9,09693,1","2,1,016,1,+999,9","60,1","SYN072AAXX  13121 01417 41465 70705 10042 20042 39693 49771 52016 76052 8661/;",
"01417099999","2010-11-13T18:00:00","4","59.4833333","5.75","65.0","NEDRE VATS, NO","FM-12","99999","V020","040,1,N,0010,1","00750,1,9,N","020000,1,N,1","+0035,1","+0035,1","09804,1","12,0109,9,1",,,"6,1,06,1","2,1,06,1",,"08,99,1,06,1,07,1,00800,1,02,1,99,9",,"999,M,+0048,1","99999,9,09727,1","3,1,026,1,+999,9","02,1","SYN088AAXX  13181 01417 11570 80401 10035 20035 39727 49804 53026 60112 70262 8672/ 333 10048;",
"01417099999","2010-11-14T06:00:00","4","59.4833333","5.75","65.0","NEDRE VATS, NO","FM-12","99999","V020","050,1,N,0050,1","00750,1,9,N","025000,1,N,1","+0031,1","+0031,1","09892,1","12,0030,9,1","24,0140,9,1",,"7,1,06,1","2,1,06,1",,"05,99,1,05,1,03,1,00800,1,00,1,00,1",,"999,N,+0031,1","99999,9,09813,1","0,1,010,1,+999,9","01,1","SYN094AAXX  14061 01417 11575 50505 10031 20031 39813 49892 50010 60032 70172 85300 333 20031 70139;",
"01417099999","2010-11-14T12:00:00","4","59.4833333","5.75","65.0","NEDRE VATS, NO","FM-12","99999","V020","040,1,N,0030,1","03000,1,9,N","020000,1,N,1","+0051,1","+0051,1","09923,1",,,,"8,1,06,1","2,1,06,1",,"08,99,1,04,1,06,1,00450,1,02,1,99,9",,,"99999,9,09845,1","2,1,006,1,+999,9","03,1","SYN072AAXX  14121 01417 41470 80403 10051 20051 39845 49923 52006 70382 8462/;",
"01417099999","2010-11-14T18:00:00","4","59.4833333","5.75","65.0","NEDRE VATS, NO","FM-12","99999","V020","140,1,N,0010,1","00750,1,9,N","025000,1,N,1","+0036,1","+0036,1","09944,1","12,0010,9,1",,,"7,1,06,1","2,1,06,1",,"08,99,1,08,1,03,1,00800,1,99,9,99,9",,"999,M,+0056,1","99999,9,09866,1","3,1,010,1,+999,9","02,1","SYN088AAXX  14181 01417 11575 81401 10036 20036 39866 49944 53010 60012 70272 883// 333 10056;",
"01417099999","2010-11-15T06:00:00","4","59.4833333","5.75","65.0","NEDRE VATS, NO","FM-12","99999","V020","320,1,N,0010,1","22000,1,9,N","020000,1,N,1","+0015,1","+0015,1","10004,1","12,0010,9,1","24,0018,9,1",,"8,1,06,1","2,1,06,1",,"03,99,1,03,1,03,1,00450,1,00,1,00,1",,"999,N,+0005,1","99999,9,09925,1","3,1,023,1,+999,9","01,1","SYN094AAXX  15061 01417 11470 33201 10015 20015 39925 40004 53023 69992 70182 83300 333 20005 70019;",
"01417099999","2010-11-15T12:00:00","4","59.4833333","5.75","65.0","NEDRE VATS, NO","FM-12","99999","V020","220,1,N,0030,1","22000,1,9,N","025000,1,N,1","+0034,1","+0034,1","10102,1",,,,"8,1,06,1","2,1,06,1",,"03,99,1,01,1,03,1,00800,1,06,1,00,1",,,"99999,9,10022,1","3,1,026,1,+999,9","02,1","SYN072AAXX  15121 01417 41575 32203 10034 20034 30022 40102 53026 70282 81360;",
"01417099999","2010-11-15T18:00:00","4","59.4833333","5.75","65.0","NEDRE VATS, NO","FM-12","99999","V020","210,1,N,0010,1","22000,1,9,N","030000,1,N,1","+0015,1","+0015,1","10138,1","12,0010,9,1",,,"1,1,06,1","0,1,06,1",,"02,99,1,02,1,02,1,00800,1,00,1,00,1",,"999,M,+0057,1","99999,9,10057,1","3,1,032,1,+999,9","01,1","SYN088AAXX  15181 01417 11580 22101 10015 20015 30057 40138 53032 69992 70110 82200 333 10057;",
"01417099999","2010-11-16T06:00:00","4","59.4833333","5.75","65.0","NEDRE VATS, NO","FM-12","99999","V020","040,1,N,0050,1","00750,1,9,N","020000,1,N,1","+0038,1","+0038,1","10199,1","12,0010,9,1","24,0023,9,1",,,,,"08,99,1,08,1,03,1,00800,1,99,9,99,9",,"999,N,+0005,1","99999,9,10118,1","1,1,013,1,+999,9",,"SYN088AAXX  16061 01417 16570 80405 10038 20038 30118 40199 51013 60012 883// 333 20005 70022;",
"01417099999","2010-11-16T12:00:00","4","59.4833333","5.75","65.0","NEDRE VATS, NO","FM-12","99999","V020","220,1,N,0030,1","00900,1,9,N","025000,1,N,1","+0061,1","+0015,1","10230,1",,,,"7,1,06,1","2,1,06,1",,"06,99,1,99,9,08,1,00450,1,00,1,00,1",,,"99999,9,10150,1","1,1,003,1,+999,9","01,1","SYN072AAXX  16121 01417 41475 62203 10061 20015 30150 40230 51003 70172 85800;","Q01+000052SCOTLC"
"01417099999","2010-11-16T18:00:00","4","59.4833333","5.75","65.0","NEDRE VATS, NO","FM-12","99999","V020","050,1,N,0050,1","00900,1,9,N","025000,1,N,1","+0055,1","+0005,1","10237,1","12,0030,9,1",,,"2,1,06,1","1,1,06,1",,"05,99,1,05,1,08,1,00450,1,00,1,00,1",,"999,M,+0077,1","99999,9,10157,1","2,1,007,1,+999,9","01,1","SYN088AAXX  16181 01417 11475 50505 10055 20005 30157 40237 52007 60032 70121 85800 333 10077;",
"01417099999","2010-11-17T06:00:00","4","59.4833333","5.75","65.0","NEDRE VATS, NO","FM-12","99999","V020","140,1,N,0070,1","22000,1,9,N","030000,1,N,1","+0042,1","-0020,1","10237,1",,,,"1,1,06,1","0,1,06,1","00,1,+99999,9,99,9","00,99,1,00,1,00,1,99999,9,00,1,00,1",,"999,N,+0030,1","99999,9,10157,1","5,1,006,1,+999,9","01,1","SYN076AAXX  17061 01417 41980 01407 10042 21020 30157 40237 55006 70110 333 20030;",
"01417099999","2010-11-17T12:00:00","4","59.4833333","5.75","65.0","NEDRE VATS, NO","FM-12","99999","V020","140,1,N,0050,1","22000,1,9,N","030000,1,N,1","+0054,1","-0029,1","10232,1",,,,"1,1,06,1","0,1,06,1",,"01,99,1,00,1,00,1,99999,9,00,1,01,1",,,"99999,9,10152,1","7,1,006,1,+999,9","03,1","SYN072AAXX  17121 01417 41980 11405 10054 21029 30152 40232 57006 70310 80001;",
"01417099999","2010-11-17T18:00:00","4","59.4833333","5.75","65.0","NEDRE VATS, NO","FM-12","99999","V020","100,1,N,0070,1","22000,1,9,N","030000,1,N,1","+0060,1","-0094,1","10221,1",,,,"1,1,06,1","0,1,06,1","00,1,+99999,9,99,9","00,99,1,00,1,00,1,99999,9,00,1,00,1",,"999,M,+0072,1","99999,9,10141,1","7,1,010,1,+999,9","01,1","SYN076AAXX  17181 01417 41980 01007 10060 21094 30141 40221 57010 70110 333 10072;",
"01417099999","2010-11-18T06:00:00","4","59.4833333","5.75","65.0","NEDRE VATS, NO","FM-12","99999","V020","080,1,N,0010,1","22000,1,9,N","030000,1,N,1","+0005,1","-0084,1","10202,1",,,,"1,1,06,1","0,1,06,1",,"01,99,1,00,1,00,1,99999,9,00,1,01,1",,"999,N,+0005,1","99999,9,10121,1","5,1,003,1,+999,9","02,1","SYN082AAXX  18061 01417 41980 10801 10005 21084 30121 40202 55003 70210 80001 333 20005;",
"01417099999","2010-11-18T12:00:00","4","59.4833333","5.75","65.0","NEDRE VATS, NO","FM-12","99999","V020","100,1,N,0030,1","22000,1,9,N","030000,1,N,1","+0038,1","-0095,1","10189,1",,,,"1,1,06,1","0,1,06,1","00,1,+99999,9,99,9","00,99,1,00,1,00,1,99999,9,00,1,00,1",,,"99999,9,10108,1","7,1,003,1,+999,9","01,1","SYN066AAXX  18121 01417 41980 01003 10038 21095 30108 40189 57003 70110;",
"01417099999","2010-11-18T18:00:00","4","59.4833333","5.75","65.0","NEDRE VATS, NO","FM-12","99999","V020","090,1,N,0050,1","22000,1,9,N","030000,1,N,1","+0005,1","-0097,1","10193,1",,,,"1,1,06,1","0,1,06,1","00,1,+99999,9,99,9","00,99,1,00,1,00,1,99999,9,00,1,00,1",,"999,M,+0059,1","99999,9,10112,1","3,1,004,1,+999,9","02,1","SYN076AAXX  18181 01417 41980 00905 10005 21097 30112 40193 53004 70210 333 10059;",
"01417099999","2010-11-19T06:00:00","4","59.4833333","5.75","65.0","NEDRE VATS, NO","FM-12","99999","V020","130,1,N,0070,1","22000,1,9,N","030000,1,N,1","+0020,1","-0086,1","10204,1",,,,"1,1,06,1","0,1,06,1",,"01,99,1,00,1,00,1,99999,9,00,1,05,1",,"999,N,-0010,1","99999,9,10122,1","3,1,006,1,+999,9","01,1","SYN082AAXX  19061 01417 41980 11307 10020 21086 30122 40204 53006 70110 80005 333 21010;",
"01417099999","2010-11-19T12:00:00","4","59.4833333","5.75","65.0","NEDRE VATS, NO","FM-12","99999","V020","210,1,N,0030,1","03000,1,9,N","025000,1,N,1","+0006,1","-0056,1","10217,1",,,,"2,1,06,1","1,1,06,1",,"07,99,1,01,1,05,1,01250,1,01,1,00,1",,,"99999,9,10136,1","3,1,001,1,+999,9","03,1","SYN072AAXX  19121 01417 41675 72103 10006 21056 30136 40217 53001 70321 81510;",
"01417099999","2010-11-19T18:00:00","4","59.4833333","5.75","65.0","NEDRE VATS, NO","FM-12","99999","V020","220,1,N,0010,1","22000,1,9,N","025000,1,N,1","-0016,1","-0044,1","10225,1",,,,"1,1,06,1","0,1,06,1",,"01,99,1,00,1,00,1,99999,9,00,1,08,1",,"999,M,+0043,1","99999,9,10142,1","2,1,010,1,+999,9","01,1","SYN082AAXX  19181 01417 41975 12201 11016 21044 30142 40225 52010 70110 80008 333 10043;",
"01417099999","2010-11-20T06:00:00","4","59.4833333","5.75","65.0","NEDRE VATS, NO","FM-12","99999","V020","999,9,C,0000,1","22000,1,9,N","030000,1,N,1","-0033,1","-0045,1","10219,1",,,,"1,1,06,1","0,1,06,1",,"01,99,1,00,1,00,1,99999,9,00,1,01,1",,"999,N,-0039,1","99999,9,10137,1","7,1,005,1,+999,9","02,1","SYN082AAXX  20061 01417 41980 10000 11033 21045 30137 40219 57005 70210 80001 333 21039;",
"01417099999","2010-11-20T12:00:00","4","59.4833333","5.75","65.0","NEDRE VATS, NO","FM-12","99999","V020","230,1,N,0030,1","99999,9,9,N","030000,1,N,1","-0002,1","-0012,1","10214,1",,,,"2,1,06,1","1,1,06,1",,"07,99,1,99,9,00,1,02250,1,07,1,01,1",,,"99999,9,10132,1",,"03,1","SYN066AAXX  20121 01417 41880 72303 11002 21012 30132 40214 70321 80071;","Q01+000002SCOTLC"
"01417099999","2010-11-20T18:00:00","4","59.4833333","5.75","65.0","NEDRE VATS, NO","FM-12","99999","V020","270,1,N,0010,1","00420,1,9,N","025000,1,N,1","+0005,1","-0036,1","10208,1",,,,"2,1,06,1","1,1,06,1",,"08,99,1,07,1,05,1,00450,1,09,1,99,9",,"999,M,+0016,1","99999,9,10127,1",,"03,1","SYN082AAXX  20181 01417 41475 82701 10005 21036 30127 40208 52000 70321 8759/ 333 10016;","Q01+000022APCTEN"
"01417099999","2010-11-21T06:00:00","4","59.4833333","5.75","65.0","NEDRE VATS, NO","FM-12","99999","V020","999,9,C,0000,1","00900,1,9,N","020000,1,N,1","+0012,1","+0012,1","10206,1","12,9999,9,9",,"9999,3,9,999999,9,9","8,1,06,1","2,1,06,1",,"08,99,1,07,1,08,1,00450,1,99,9,99,9","25,9","999,N,+0005,1","99999,9,10125,1","2,1,002,1,+999,9","85,1","SYN094AAXX  21061 01417 11470 80000 10012 20012 30125 40206 52002 69912 78582 878// 333 20005 41997;","Q01  00002PRCP12Q02  00002PRCP12Q03  09972SNDP  "
"01417099999","2010-11-21T12:00:00","4","59.4833333","5.75","65.0","NEDRE VATS, NO","FM-12","99999","V020","260,1,N,0010,1","00420,1,9,N","020000,1,N,1","+0021,1","+0021,1","10219,1",,,,"8,1,06,1","2,1,06,1",,"08,99,1,07,1,03,1,00450,1,99,9,99,9",,,"99999,9,10137,1","2,1,002,1,+999,9","02,1","SYN072AAXX  21121 01417 41470 82601 10021 20021 30137 40219 52002 70282 873//;",
"01417099999","2010-11-21T18:00:00","4","59.4833333","5.75","65.0","NEDRE VATS, NO","FM-12","99999","V020","350,1,N,0030,1","99999,9,9,N","025000,1,N,1","+0030,1","+0023,1","10219,1","12,0000,2,1",,,"2,1,06,1","1,1,06,1",,"08,99,1,99,9,00,1,02250,1,07,1,99,9",,"999,M,+0034,1","99999,9,10137,1","4,1,000,1,+999,9","02,1","SYN088AAXX  21181 01417 11875 83503 10030 20023 30137 40219 54000 69902 70221 8007/ 333 10034;","Q01+000002SCOTLC"
"01417099999","2010-11-22T06:00:00","4","59.4833333","5.75","65.0","NEDRE VATS, NO","FM-12","99999","V020","260,1,N,0010,1","00750,1,9,N","025000,1,N,1","+0018,1","+0012,1","10187,1",,,,"2,1,06,1","1,1,06,1",,"08,99,1,99,9,05,1,00800,1,99,9,09,1",,"999,N,+0016,1","99999,9,10106,1","7,1,012,1,+999,9","02,1","SYN082AAXX  22061 01417 41575 82601 10018 20012 30106 40187 57012 70221 885/9 333 20016;","Q01+000082SCOTLC"
"01417099999","2010-11-22T12:00:00","4","59.4833333","5.75","65.0","NEDRE VATS, NO","FM-12","99999","V020","270,1,N,0010,1","99999,9,9,N","025000,1,N,1","+0031,1","+0031,1","10157,1",,,,"2,1,06,1","1,1,06,1",,"08,99,1,99,9,00,1,02250,1,03,1,99,9",,,"99999,9,10077,1","8,1,017,1,+999,9","02,1","SYN072AAXX  22121 01417 41875 82701 10031 20031 30077 40157 58017 70221 8003/;","Q01+000002SCOTLC"
"01417099999","2010-11-22T18:00:00","4","59.4833333","5.75","65.0","NEDRE VATS, NO","FM-12","99999","V020","260,1,N,0010,1","22000,1,9,N","030000,1,N,1","-0009,1","-0009,1","10137,1",,,,"1,1,06,1","0,1,06,1","00,1,+99999,9,99,9","00,99,1,00,1,00,1,99999,9,00,1,00,1",,"999,M,+0037,1","99999,9,10056,1","7,1,013,1,+999,9","01,1","SYN076AAXX  22181 01417 41980 02601 11009 21009 30056 40137 57013 70110 333 10037;",
"01417099999","2010-11-23T06:00:00","4","59.4833333","5.75","65.0","NEDRE VATS, NO","FM-12","99999","V020","300,1,N,0010,1","22000,1,9,N","025000,1,N,1","-0035,1","-0035,1","10101,1",,,,"1,1,06,1","0,1,06,1",,"01,99,1,99,9,00,1,02250,1,07,1,00,1",,"999,N,-0036,1","99999,9,10018,1","7,1,008,1,+999,9","01,1","SYN082AAXX  23061 01417 41875 13001 11035 21035 30018 40101 57008 70110 80070 333 21036;","Q01+000002SCOTLC"
"01417099999","2010-11-23T12:00:00","4","59.4833333","5.75","65.0","NEDRE VATS, NO","FM-12","99999","V020","100,1,N,0050,1","22000,1,9,N","030000,1,N,1","-0002,1","-0086,1","10086,1",,,,"1,1,06,1","0,1,06,1",,"01,99,1,00,1,00,1,99999,9,00,1,01,1",,,"99999,9,10006,1","6,1,003,1,+999,9","02,1","SYN072AAXX  23121 01417 41980 11005 11002 21086 30006 40086 56003 70210 80001;",
"01417099999","2010-11-23T18:00:00","4","59.4833333","5.75","65.0","NEDRE VATS, NO","FM-12","99999","V020","040,1,N,0010,1","22000,1,9,N","025000,1,N,1","-0035,1","-0082,1","10089,1",,,,"1,1,06,1","0,1,06,1",,"02,99,1,00,1,00,1,99999,9,00,1,01,1",,"999,M,+0017,1","99999,9,10007,1","2,1,001,1,+999,9","03,1","SYN082AAXX  23181 01417 41975 20401 11035 21082 30007 40089 52001 70310 80001 333 10017;",
"01417099999","2010-11-24T06:00:00","4","59.4833333","5.75","65.0","NEDRE VATS, NO","FM-12","99999","V020","290,1,N,0010,1","22000,1,9,N","030000,1,N,1","-0066,1","-0090,1","10090,1",,,,"1,1,06,1","0,1,06,1",,"01,99,1,00,1,00,1,99999,9,00,1,01,1",,"999,N,-0066,1","99999,9,10007,1","4,1,000,1,+999,9","01,1","SYN082AAXX  24061 01417 41980 12901 11066 21090 30007 40090 54000 70110 80001 333 21066;",
"01417099999","2010-11-24T12:00:00","4","59.4833333","5.75","65.0","NEDRE VATS, NO","FM-12","99999","V020","300,1,N,0010,1","22000,1,9,N","030000,1,N,1","-0035,1","-0115,1","10088,1",,,,"1,1,06,1","0,1,06,1",,"01,99,1,99,9,00,1,02250,1,07,1,01,1",,,"99999,9,10007,1",,"02,1","SYN066AAXX  24121 01417 41880 13001 11035 21115 30007 40088 70210 80071;","Q01+000002SCOTLC"
"01417099999","2010-11-24T18:00:00","4","59.4833333","5.75","65.0","NEDRE VATS, NO","FM-12","99999","V020","999,9,C,0000,1","22000,1,9,N","030000,1,N,1","-0061,1","-0102,1","10099,1",,,,"1,1,06,1","1,1,06,1",,"01,99,1,00,1,00,1,99999,9,00,1,01,1",,"999,M,-0019,1","99999,9,10017,1","2,1,010,1,+999,9","02,1","SYN082AAXX  24181 01417 41980 10000 11061 21102 30017 40099 52010 70211 80001 333 11019;",
"01417099999","2010-11-25T06:00:00","4","59.4833333","5.75","65.0","NEDRE VATS, NO","FM-12","99999","V020","999,9,C,0000,1","22000,1,9,N","030000,1,N,1","-0071,1","-0092,1","10116,1",,,,"1,1,06,1","0,1,06,1","00,1,+99999,9,99,9","00,99,1,00,1,00,1,99999,9,00,1,00,1",,"999,N,-0075,1","99999,9,10032,1","2,1,002,1,+999,9","01,1","SYN076AAXX  25061 01417 41980 00000 11071 21092 30032 40116 52002 70110 333 21075;",
"01417099999","2010-11-25T12:00:00","4","59.4833333","5.75","65.0","NEDRE VATS, NO","FM-12","99999","V020","140,1,N,0010,1","22000,1,9,N","030000,1,N,1","-0048,1","-0127,1","10111,1",,,,"1,1,06,1","0,1,06,1","00,1,+99999,9,99,9","00,99,1,00,1,00,1,99999,9,00,1,00,1",,,"99999,9,10028,1","7,1,003,1,+999,9","02,1","SYN066AAXX  25121 01417 41980 01401 11048 21127 30028 40111 57003 70210;",
"01417099999","2010-11-25T18:00:00","4","59.4833333","5.75","65.0","NEDRE VATS, NO","FM-12","99999","V020","290,1,N,0010,1","22000,1,9,N","030000,1,N,1","-0077,1","-0092,1","10111,1",,,,"0,1,06,1","0,1,06,1","00,1,+99999,9,99,9","00,99,1,00,1,00,1,99999,9,00,1,00,1",,"999,M,-0021,1","99999,9,10027,1","4,1,000,1,+999,9","02,1","SYN076AAXX  25181 01417 41980 02901 11077 21092 30027 40111 54001 70200 333 11021;",
"01417099999","2010-11-26T06:00:00","4","59.4833333","5.75","65.0","NEDRE VATS, NO","FM-12","99999","V020","100,1,N,0050,1","22000,1,9,N","030000,1,N,1","-0081,1","-0136,1","10113,1",,,,"1,1,06,1","0,1,06,1",,"01,99,1,00,1,00,1,99999,9,00,1,01,1",,"999,N,-0110,1","99999,9,10030,1","5,1,000,1,+999,9","03,1","SYN082AAXX  26061 01417 41980 11005 11081 21136 30030 40113 55000 70310 80001 333 21110;",
"01417099999","2010-11-26T12:00:00","4","59.4833333","5.75","65.0","NEDRE VATS, NO","FM-12","99999","V020","340,1,N,0030,1","22000,1,9,N","030000,1,N,1","-0069,1","-0158,1","10131,1",,,,"1,1,06,1","0,1,06,1","00,1,+99999,9,99,9","00,99,1,00,1,00,1,99999,9,00,1,00,1",,,"99999,9,10047,1","3,1,002,1,+999,9","01,1","SYN066AAXX  26121 01417 41980 03403 11069 21158 30047 40131 53002 70110;",
"01417099999","2010-11-26T18:00:00","4","59.4833333","5.75","65.0","NEDRE VATS, NO","FM-12","99999","V020","999,9,C,0000,1","22000,1,9,N","025000,1,N,1","-0098,1","-0124,1","10142,1",,,,"1,1,06,1","0,1,06,1","00,1,+99999,9,99,9","00,99,1,00,1,00,1,99999,9,00,1,00,1",,"999,M,-0048,1","99999,9,10057,1","3,1,010,1,+999,9","02,1","SYN076AAXX  26181 01417 41975 00000 11098 21124 30057 40142 53010 70210 333 11048;",
"01417099999","2010-11-27T06:00:00","4","59.4833333","5.75","65.0","NEDRE VATS, NO","FM-12","99999","V020","100,1,N,0050,1","99999,9,9,N","025000,1,N,1","-0046,1","-0123,1","10132,1",,,,"2,1,06,1","1,1,06,1",,"06,99,1,00,1,00,1,99999,9,00,1,07,1",,"999,N,-0110,1","99999,9,10050,1","7,1,006,1,+999,9","03,1","SYN082AAXX  27061 01417 41975 61005 11046 21123 30050 40132 57006 70321 80007 333 21110;",
"01417099999","2010-11-27T12:00:00","4","59.4833333","5.75","65.0","NEDRE VATS, NO","FM-12","99999","V020","140,1,N,0030,1","99999,9,9,N","030000,1,N,1","+9999,9","+9999,9","10147,1",,,,"2,1,06,1","1,1,06,1",,"05,99,1,00,1,00,1,99999,9,00,1,06,1",,,"99999,9,10065,1","0,1,003,1,+999,9","01,1","SYN072AAXX  27121 01417 41980 51403 1//// 2//// 30065 40147 50003 70121 80006;",
"01417099999","2010-11-27T18:00:00","4","59.4833333","5.75","65.0","NEDRE VATS, NO","FM-12","99999","V020","130,1,N,0010,1","22000,1,9,N","025000,1,N,1","-0071,1","-0130,1","10157,1",,,,"2,1,06,1","1,1,06,1",,"02,99,1,00,1,00,1,99999,9,00,1,01,1",,"999,M,-0033,1","99999,9,10073,1","2,1,010,1,+999,9","01,1","SYN082AAXX  27181 01417 41975 21301 11071 21130 30073 40157 52010 70121 80001 333 11033;",
"01417099999","2010-11-28T06:00:00","4","59.4833333","5.75","65.0","NEDRE VATS, NO","FM-12","99999","V020","040,1,N,0030,1","99999,9,9,N","030000,1,N,1","-0049,1","-0142,1","10188,1",,,,"2,1,06,1","1,1,06,1",,"05,99,1,00,1,00,1,99999,9,00,1,06,1",,"999,N,-0071,1","99999,9,10105,1","2,1,004,1,+999,9","03,1","SYN082AAXX  28061 01417 41980 50403 11049 21142 30105 40188 52004 70321 80006 333 21071;",
"01417099999","2010-11-28T12:00:00","4","59.4833333","5.75","65.0","NEDRE VATS, NO","FM-12","99999","V020","150,1,N,0050,1","22000,1,9,N","030000,1,N,1","-0033,1","-0143,1","10205,1",,,,"1,1,06,1","0,1,06,1",,"01,99,1,00,1,00,1,99999,9,00,1,01,1",,,"99999,9,10122,1","0,1,002,1,+999,9","01,1","SYN072AAXX  28121 01417 41980 11505 11033 21143 30122 40205 50002 70110 80001;",
"01417099999","2010-11-28T18:00:00","4","59.4833333","5.75","65.0","NEDRE VATS, NO","FM-12","99999","V020","130,1,N,0050,1","22000,1,9,N","030000,1,N,1","-0045,1","-0118,1","10215,1",,,,"1,1,06,1","0,1,06,1",,"01,99,1,00,1,00,1,99999,9,00,1,01,1",,"999,M,-0030,1","99999,9,10132,1","3,1,007,1,+999,9","02,1","SYN082AAXX  28181 01417 41980 11305 11045 21118 30132 40215 53007 70210 80001 333 11030;",
"01417099999","2010-11-29T06:00:00","4","59.4833333","5.75","65.0","NEDRE VATS, NO","FM-12","99999","V020","310,1,N,0050,1","00420,1,9,N","025000,1,N,1","-0021,1","-0121,1","10251,1",,,,"2,1,06,1","1,1,06,1",,"05,99,1,05,1,02,1,00450,1,00,1,01,1",,"999,N,-0060,1","99999,9,10168,1","3,1,018,1,+999,9","03,1","SYN082AAXX  29061 01417 41475 53105 11021 21121 30168 40251 53018 70321 85201 333 21060;",
"01417099999","2010-11-29T12:00:00","4","59.4833333","5.75","65.0","NEDRE VATS, NO","FM-12","99999","V020","100,1,N,0070,1","22000,1,9,N","025000,1,N,1","-0039,1","-0143,1","10283,1",,,,"1,1,06,1","0,1,06,1",,"02,99,1,99,9,00,1,02250,1,03,1,00,1",,,"99999,9,10200,1","2,1,005,1,+999,9","01,1","SYN072AAXX  29121 01417 41875 21007 11039 21143 30200 40283 52005 70110 80030;","Q01+000002SCOTLC"
"01417099999","2010-11-29T18:00:00","4","59.4833333","5.75","65.0","NEDRE VATS, NO","FM-12","99999","V020","130,1,N,0050,1","22000,1,9,N","025000,1,N,1","-0051,1","-0149,1","10299,1",,,,,,,"01,99,1,99,9,00,1,02250,1,03,1,00,1",,"999,M,-0013,1","99999,9,10215,1","3,1,014,1,+999,9",,"SYN076AAXX  29181 01417 46875 11305 11051 21149 30215 40299 53014 80030 333 11013;","Q01+000002SCOTLC"
"01417099999","2010-11-30T06:00:00","4","59.4833333","5.75","65.0","NEDRE VATS, NO","FM-12","99999","V020","050,1,N,0010,1","22000,1,9,N","030000,1,N,1","-0080,1","-0132,1","10320,1",,,,"1,1,06,1","0,1,06,1",,"01,99,1,00,1,00,1,99999,9,00,1,01,1",,"999,N,-0094,1","99999,9,10235,1","3,1,003,1,+999,9","02,1","SYN082AAXX  30061 01417 41980 10501 11080 21132 30235 40320 53003 70210 80001 333 21094;",
"01417099999","2010-11-30T12:00:00","4","59.4833333","5.75","65.0","NEDRE VATS, NO","FM-12","99999","V020","250,1,N,0030,1","22000,1,9,N","030000,1,N,1","-0061,1","-0103,1","10317,1",,,,"1,1,06,1","0,1,06,1","00,1,+99999,9,99,9","00,99,1,00,1,00,1,99999,9,00,1,00,1",,,"99999,9,10232,1","8,1,007,1,+999,9","01,1","SYN066AAXX  30121 01417 41980 02503 11061 21103 30232 40317 58007 70110;",
"01417099999","2010-11-30T18:00:00","4","59.4833333","5.75","65.0","NEDRE VATS, NO","FM-12","99999","V020","300,1,N,0010,1","22000,1,9,N","030000,1,N,1","-0099,1","-0099,1","10307,1",,,,"1,1,06,1","0,1,06,1",,"01,99,1,00,1,00,1,99999,9,00,1,01,1",,"999,M,-0053,1","99999,9,10222,1","4,1,000,1,+999,9","03,1","SYN082AAXX  30181 01417 41980 13001 11099 21099 30222 40307 54001 70310 80001 333 11053;",
"01417099999","2010-12-01T06:00:00","4","59.4833333","5.75","65.0","NEDRE VATS, NO","FM-12","99999","V020","999,9,C,0000,1","22000,1,9,N","030000,1,N,1","-0110,1","-0110,1","10294,1",,,,"1,1,06,1","0,1,06,1","00,1,+99999,9,99,9","00,99,1,00,1,00,1,99999,9,00,1,00,1",,"999,N,-0119,1","99999,9,10207,1","7,1,007,1,+999,9","01,1","SYN076AAXX  01061 01417 41980 00000 11110 21110 30207 40294 57007 70110 333 21119;",
"01417099999","2010-12-01T12:00:00","4","59.4833333","5.75","65.0","NEDRE VATS, NO","FM-12","99999","V020","050,1,N,0010,1","22000,1,9,N","030000,1,N,1","-0068,1","-0087,1","10287,1",,,,"1,1,06,1","0,1,06,1","00,1,+99999,9,99,9","00,99,1,00,1,00,1,99999,9,00,1,00,1",,,"99999,9,10202,1","8,1,008,1,+999,9","02,1","SYN066AAXX  01121 01417 41980 00501 11068 21087 30202 40287 58008 70210;",
"01417099999","2010-12-01T18:00:00","4","59.4833333","5.75","65.0","NEDRE VATS, NO","FM-12","99999","V020","050,1,N,0010,1","22000,1,9,N","030000,1,N,1","-0101,1","-0101,1","10278,1",,,,"1,1,06,1","0,1,06,1","00,1,+99999,9,99,9","00,99,1,00,1,00,1,99999,9,00,1,00,1",,"999,M,-0061,1","99999,9,10192,1","7,1,003,1,+999,9","02,1","SYN076AAXX  01181 01417 41980 00501 11101 21101 30192 40278 57003 70210 333 11061;",
"01417099999","2010-12-02T06:00:00","4","59.4833333","5.75","65.0","NEDRE VATS, NO","FM-12","99999","V020","999,9,C,0000,1","22000,1,9,N","030000,1,N,1","-0109,1","-0109,1","10244,1",,,,"1,1,06,1","0,1,06,1","00,1,+99999,9,99,9","00,99,1,00,1,00,1,99999,9,00,1,00,1",,"999,N,-0121,1","99999,9,10158,1","8,1,014,1,+999,9","02,1","SYN076AAXX  02061 01417 41980 00000 11109 21109 30158 40244 58014 70210 333 21121;",
"01417099999","2010-12-02T12:00:00","4","59.4833333","5.75","65.0","NEDRE VATS, NO","FM-12","99999","V020","320,1,N,0010,1","22000,1,9,N","030000,1,N,1","-0065,1","-0085,1","10212,1",,,,"1,1,06,1","0,1,06,1","00,1,+99999,9,99,9","00,99,1,00,1,00,1,99999,9,00,1,00,1",,,"99999,9,10128,1","8,1,018,1,+999,9","02,1","SYN066AAXX  02121 01417 41980 03201 11065 21085 30128 40212 58018 70210;",
"01417099999","2010-12-02T18:00:00","4","59.4833333","5.75","65.0","NEDRE VATS, NO","FM-12","99999","V020","310,1,N,0010,1","22000,1,9,N","030000,1,N,1","-0094,1","-0094,1","10174,1",,,,"1,1,06,1","0,1,06,1","00,1,+99999,9,99,9","00,99,1,00,1,00,1,99999,9,00,1,00,1",,"999,M,-0059,1","99999,9,10090,1","7,1,016,1,+999,9","02,1","SYN076AAXX  02181 01417 41980 03101 11094 21094 30090 40174 57016 70210 333 11059;",
"01417099999","2010-12-03T06:00:00","4","59.4833333","5.75","65.0","NEDRE VATS, NO","FM-12","99999","V020","300,1,N,0010,1","22000,1,9,N","029000,1,N,1","-0119,1","-0120,1","10090,1",,,,"1,1,06,1","0,1,06,1",,"01,99,1,99,9,99,9,99999,9,99,9,99,9",,"999,N,-0129,1","99999,9,10006,1","7,1,019,1,+999,9","02,1","SYN076AAXX  03061 01417 41979 13001 11119 21120 30006 40090 57019 70210 333 21129;",
"01417099999","2010-12-03T12:00:00","4","59.4833333","5.75","65.0","NEDRE VATS, NO","FM-12","99999","V020","050,1,N,0010,1","22000,1,9,N","030000,1,N,1","-0095,1","-0095,1","10070,1",,,,"1,1,06,1","0,1,06,1","00,1,+99999,9,99,9","00,99,1,00,1,00,1,99999,9,00,1,00,1",,,"99999,9,09987,1","8,1,010,1,+999,9","02,1","SYN066AAXX  03121 01417 41980 00501 11095 21095 39987 40070 58010 70210;",
"01417099999","2010-12-03T18:00:00","4","59.4833333","5.75","65.0","NEDRE VATS, NO","FM-12","99999","V020","999,9,C,0000,1","22000,1,9,N","030000,1,N,1","-0098,1","-0098,1","10053,1",,,,"1,1,06,1","1,1,06,1",,"03,99,1,00,1,00,1,99999,9,00,1,01,1",,"999,M,-0073,1","99999,9,09970,1","7,1,002,1,+999,9","03,1","SYN082AAXX  03181 01417 41980 30000 11098 21098 39970 40053 57002 70311 80001 333 11073;",
"01417099999","2010-12-04T06:00:00","4","59.4833333","5.75","65.0","NEDRE VATS, NO","FM-12","99999","V020","999,9,C,0000,1","01200,1,9,N","020000,1,N,1","-0020,1","-0060,1","99999,9","12,9999,9,9",,,"8,1,06,1","2,1,06,1",,"08,99,1,08,1,08,1,00800,1,99,9,99,9",,"999,N,-0095,1",,,"85,1","SYN070AAXX  04061 01417 11570 80000 11020 21060 69912 78582 888// 333 21095;","Q01  00002PRCP12Q02  00002PRCP12"
"01417099999","2010-12-04T12:00:00","4","59.4833333","5.75","65.0","NEDRE VATS, NO","FM-12","99999","V020","080,1,N,0070,1","22000,1,9,N","025000,1,N,1","+0010,1","-0044,1","10016,1",,,,"5,1,06,1","2,1,06,1",,"04,99,1,04,1,05,1,00800,1,00,1,00,1",,,"99999,9,09936,1","8,1,011,1,+999,9","01,1","SYN072AAXX  04121 01417 41575 40807 10010 21044 39936 40016 58011 70152 84500;",
"01417099999","2010-12-04T18:00:00","4","59.4833333","5.75","65.0","NEDRE VATS, NO","FM-12","99999","V020","100,1,N,0070,1","22000,1,9,N","025000,1,N,1","+0005,1","-0051,1","09962,1",,,,"1,1,06,1","0,1,06,1",,"02,99,1,02,1,07,1,00450,1,00,1,00,1",,"999,M,+0016,1","99999,9,09882,1","8,1,013,1,+999,9","01,1","SYN082AAXX  04181 01417 41475 21007 10005 21051 39882 49962 58013 70110 82700 333 10016;",
"01417099999","2010-12-05T06:00:00","4","59.4833333","5.75","65.0","NEDRE VATS, NO","FM-12","99999","V020","999,9,C,0000,1","22000,1,9,N","030000,1,N,1","-0054,1","-0054,1","09953,1",,,"9999,2,9,999999,9,9","1,1,06,1","0,1,06,1","00,1,+99999,9,99,9","00,99,1,00,1,00,1,99999,9,00,1,00,1","25,9","999,N,-0065,1","99999,9,09872,1","7,1,008,1,+999,9","01,1","SYN082AAXX  05061 01417 41980 00000 11054 21054 39872 49953 57008 70110 333 21065 41998;","Q01  09982SNDP  "
"01417099999","2010-12-05T12:00:00","4","59.4833333","5.75","65.0","NEDRE VATS, NO","FM-12","99999","V020","280,1,N,0010,1","00420,1,9,N","025000,1,N,1","-0031,1","-0031,1","09948,1",,,,"2,1,06,1","1,1,06,1",,"07,99,1,99,9,02,1,00450,1,00,1,00,1",,,"99999,9,09867,1","8,1,006,1,+999,9","03,1","SYN072AAXX  05121 01417 41475 72801 11031 21031 39867 49948 58006 70321 85200;","Q01+000052SCOTLC"
"01417099999","2010-12-05T18:00:00","4","59.4833333","5.75","65.0","NEDRE VATS, NO","FM-12","99999","V020","999,9,C,0000,1","22000,1,9,N","030000,1,N,1","-0045,1","-0049,1","09958,1",,,,"1,1,06,1","0,1,06,1",,"01,99,1,01,1,01,1,00450,1,00,1,01,1",,"999,M,-0043,1","99999,9,09877,1","1,1,003,1,+999,9","01,1","SYN082AAXX  05181 01417 41480 10000 11045 21049 39877 49958 51003 70110 81101 333 11043;",
"01417099999","2010-12-06T06:00:00","4","59.4833333","5.75","65.0","NEDRE VATS, NO","FM-12","99999","V020","999,9,C,0000,1","22000,1,9,N","030000,1,N,1","-0071,1","-0075,1","09950,1",,,,"1,1,06,1","0,1,06,1","00,1,+99999,9,99,9","00,99,1,00,1,00,1,99999,9,00,1,00,1",,"999,N,-0085,1","99999,9,09868,1","2,1,003,1,+999,9","01,1","SYN076AAXX  06061 01417 41980 00000 11071 21075 39868 49950 52003 70110 333 21085;",
"01417099999","2010-12-06T12:00:00","4","59.4833333","5.75","65.0","NEDRE VATS, NO","FM-12","99999","V020","999,9,C,0000,1","22000,1,9,N","030000,1,N,1","-0075,1","-0078,1","09959,1",,,,"1,1,06,1","0,1,06,1","00,1,+99999,9,99,9","00,99,1,00,1,00,1,99999,9,00,1,00,1",,,"99999,9,09877,1","2,1,007,1,+999,9","02,1","SYN066AAXX  06121 01417 41980 00000 11075 21078 39877 49959 52007 70210;",
"01417099999","2010-12-06T18:00:00","4","59.4833333","5.75","65.0","NEDRE VATS, NO","FM-12","99999","V020","999,9,C,0000,1","22000,1,9,N","025000,1,N,1","-0079,1","-0082,1","09964,1",,,,"1,1,06,1","0,1,06,1",,"01,99,1,00,1,00,1,99999,9,00,1,01,1",,"999,M,-0049,1","99999,9,09882,1","2,1,007,1,+999,9","03,1","SYN082AAXX  06181 01417 41975 10000 11079 21082 39882 49964 52007 70310 80001 333 11049;",
"01417099999","2010-12-07T06:00:00","4","59.4833333","5.75","65.0","NEDRE VATS, NO","FM-12","99999","V020","999,9,C,0000,1","22000,1,9,N","030000,1,N,1","-0085,1","-0088,1","10010,1",,,,"1,1,06,1","0,1,06,1","00,1,+99999,9,99,9","00,99,1,00,1,00,1,99999,9,00,1,00,1",,"999,N,-0096,1","99999,9,09927,1","2,1,014,1,+999,9","01,1","SYN076AAXX  07061 01417 41980 00000 11085 21088 39927 40010 52014 70110 333 21096;",
"01417099999","2010-12-07T12:00:00","4","59.4833333","5.75","65.0","NEDRE VATS, NO","FM-12","99999","V020","999,9,C,0000,1","00900,1,9,N","025000,1,N,1","-0045,1","-0049,1","10031,1",,,,"2,1,06,1","1,1,06,1",,"07,99,1,99,9,08,1,00450,1,00,1,00,1",,,"99999,9,09950,1","0,1,005,1,+999,9","03,1","SYN072AAXX  07121 01417 41475 70000 11045 21049 39950 40031 50005 70321 86800;","Q01+000062SCOTLC"
"01417099999","2010-12-07T18:00:00","4","59.4833333","5.75","65.0","NEDRE VATS, NO","FM-12","99999","V020","100,1,N,0050,1","03000,1,9,N","010000,1,N,1","-0001,1","-0016,1","10028,1","12,9999,9,9",,,"6,1,06,1","2,1,06,1",,"08,99,1,03,1,07,1,00450,1,02,1,99,9",,"999,M,+0006,1","99999,9,09947,1","5,1,001,1,+999,9","71,1","SYN088AAXX  07181 01417 11460 81005 11001 21016 39947 40028 55001 69912 77162 8372/ 333 10006;","Q01  00002PRCP12Q02  00002PRCP12"
"01417099999","2010-12-08T06:00:00","4","59.4833333","5.75","65.0","NEDRE VATS, NO","FM-12","99999","V020","190,1,N,0010,1","22000,1,9,N","025000,1,N,1","+0001,1","+0001,1","10041,1","12,0119,9,1","24,0122,9,1","0006,9,1,999999,9,9","7,1,06,1","2,1,06,1",,"01,99,1,00,1,00,1,99999,9,00,1,01,1","27,9","999,N,-0013,1","99999,9,09961,1","2,1,005,1,+999,9","01,1","SYN100AAXX  08061 01417 11975 11901 10001 20001 39961 40041 52005 60122 70172 80001 333 21013 43006 70121;",
"01417099999","2010-12-08T12:00:00","4","59.4833333","5.75","65.0","NEDRE VATS, NO","FM-12","99999","V020","999,9,C,0000,1","03000,1,9,N","020000,1,N,1","-0002,1","-0002,1","10053,1",,,,"6,1,06,1","2,1,06,1",,"08,99,1,03,1,07,1,00800,1,02,1,99,9",,,"99999,9,09972,1","2,1,001,1,+999,9","03,1","SYN072AAXX  08121 01417 41570 80000 11002 21002 39972 40053 52001 70362 8372/;",
"01417099999","2010-12-08T18:00:00","4","59.4833333","5.75","65.0","NEDRE VATS, NO","FM-12","99999","V020","999,9,C,0000,1","22000,1,9,N","025000,1,N,1","-0020,1","-0020,1","10057,1","12,0020,9,1",,,"8,1,06,1","3,1,06,1",,"04,99,1,00,1,00,1,99999,9,00,1,08,1",,"999,M,+0011,1","99999,9,09976,1","0,1,003,1,+999,9","01,1","SYN088AAXX  08181 01417 11975 40000 11020 21020 39976 40057 50003 60022 70183 80008 333 10011;",
"01417099999","2010-12-09T06:00:00","4","59.4833333","5.75","65.0","NEDRE VATS, NO","FM-12","99999","V020","999,9,C,0000,1","22000,1,9,N","025000,1,N,1","-0065,1","-0065,1","10110,1",,,"0008,9,1,999999,9,9","1,1,06,1","0,1,06,1",,"01,99,1,00,1,00,1,99999,9,00,1,01,1","23,9","999,N,-0073,1","99999,9,10027,1","3,1,019,1,+999,9","01,1","SYN088AAXX  09061 01417 41975 10000 11065 21065 30027 40110 53019 70110 80001 333 21073 47008;",
"01417099999","2010-12-09T12:00:00","4","59.4833333","5.75","65.0","NEDRE VATS, NO","FM-12","99999","V020","999,9,C,0000,1","22000,1,9,N","030000,1,N,1","-0033,1","-0033,1","10167,1",,,,"1,1,06,1","0,1,06,1",,"01,99,1,00,1,00,1,99999,9,00,1,01,1",,,"99999,9,10085,1","3,1,019,1,+999,9","02,1","SYN072AAXX  09121 01417 41980 10000 11033 21033 30085 40167 53019 70210 80001;",
"01417099999","2010-12-09T18:00:00","4","59.4833333","5.75","65.0","NEDRE VATS, NO","FM-12","99999","V020","999,9,C,0000,1","22000,1,9,N","030000,1,N,1","-0062,1","-0062,1","10191,1",,,,"1,1,06,1","0,1,06,1",,"01,99,1,00,1,00,1,99999,9,00,1,01,1",,"999,M,-0024,1","99999,9,10107,1","2,1,021,1,+999,9","02,1","SYN082AAXX  09181 01417 41980 10000 11062 21062 30107 40191 52021 70210 80001 333 11024;",
"01417099999","2010-12-10T06:00:00","4","59.4833333","5.75","65.0","NEDRE VATS, NO","FM-12","99999","V020","999,9,C,0000,1","03000,1,9,N","015000,1,N,1","-0023,1","-0023,1","10195,1","12,9999,9,9",,"0008,9,1,999999,9,9","7,1,06,1","2,1,06,1",,"08,99,1,03,1,07,1,00800,1,02,1,99,9","23,9","999,N,-0086,1","99999,9,10112,1","8,1,021,1,+999,9","70,1","SYN094AAXX  10061 01417 11565 80000 11023 21023 30112 40195 58021 69912 77072 8372/ 333 21086 47008;","Q01  00002PRCP12Q02  00002PRCP12"
"01417099999","2010-12-10T12:00:00","4","59.4833333","5.75","65.0","NEDRE VATS, NO","FM-12","99999","V020","160,1,N,0030,1","03000,1,9,N","010000,1,N,1","+0014,1","+0014,1","10106,1",,,,"7,1,06,1","2,1,06,1",,"08,99,1,04,1,06,1,00450,1,02,1,09,1",,,"99999,9,10026,1","8,1,032,1,+999,9","02,1","SYN072AAXX  10121 01417 41460 81603 10014 20014 30026 40106 58032 70272 84629;",
"01417099999","2010-12-10T18:00:00","4","59.4833333","5.75","65.0","NEDRE VATS, NO","FM-12","99999","V020","999,9,9,9999,9","03000,1,9,N","015000,1,N,1","+0014,1","+0014,1","10065,1","12,0051,9,1",,,"7,1,06,1","6,1,06,1",,"08,99,1,03,1,05,1,00250,1,02,1,99,9",,"999,M,+0017,1","99999,9,09985,1","8,1,036,1,+999,9","02,1","SYN088AAXX  10181 01417 11365 8//// 10014 20014 39985 40065 58036 60052 70276 8352/ 333 10017;",
"01417099999","2010-12-11T06:00:00","4","59.4833333","5.75","65.0","NEDRE VATS, NO","FM-12","99999","V020","220,1,N,0070,1","99999,9,9,N","020000,1,N,1","+0059,1","+0059,1","10016,1","12,0180,9,1","24,0226,9,1","0004,9,1,999999,9,9","6,1,06,1","2,1,06,1",,"08,99,1,99,9,00,1,00450,1,02,1,99,9","27,9","999,N,+0011,1","99999,9,09937,1","3,1,009,1,+999,9","60,1","SYN100AAXX  11061 01417 11470 82207 10059 20059 39937 40016 53009 60182 76062 8002/ 333 20011 43004 70226;","Q01+000002SCOTLC"
"01417099999","2010-12-11T12:00:00","4","59.4833333","5.75","65.0","NEDRE VATS, NO","FM-12","99999","V020","290,1,N,0050,1","99999,9,9,N","020000,1,N,1","+0041,1","+0041,1","10038,1",,,,,,,"08,99,1,99,9,99,9,00800,1,02,1,99,9",,,"99999,9,09958,1","0,1,003,1,+999,9",,"SYN066AAXX  11121 01417 46570 82905 10041 20041 39958 40038 50003 80/2/;","Q01+000002SCOTLC"
"01417099999","2010-12-11T18:00:00","4","59.4833333","5.75","65.0","NEDRE VATS, NO","FM-12","99999","V020","300,1,N,0050,1","99999,9,9,N","020000,1,N,1","+0035,1","+0035,1","10047,1","12,0071,9,1",,,,,,"08,99,1,99,9,00,1,02250,1,07,1,02,1",,"999,M,+0071,1","99999,9,09967,1","3,1,009,1,+999,9",,"SYN082AAXX  11181 01417 16870 83005 10035 20035 39967 40047 53009 60072 80072 333 10071;","Q01+000002SCOTLC"
"01417099999","2010-12-12T06:00:00","4","59.4833333","5.75","65.0","NEDRE VATS, NO","FM-12","99999","V020","190,1,N,0010,1","22000,1,9,N","025000,1,N,1","-0012,1","-0012,1","10190,1","12,0003,9,1","24,0071,9,1","9999,2,9,999999,9,9","6,1,06,1","2,1,06,1","00,1,+99999,9,99,9","00,99,1,00,1,00,1,99999,9,00,1,00,1","25,9","999,N,-0020,1","99999,9,10107,1","3,1,034,1,+999,9","01,1","SYN094AAXX  12061 01417 11975 01901 11012 21012 30107 40190 53034 69932 70162 333 21020 41998 70070;","Q01  09982SNDP  "
"01417099999","2010-12-12T12:00:00","4","59.4833333","5.75","65.0","NEDRE VATS, NO","FM-12","99999","V020","130,1,N,0050,1","22000,1,9,N","030000,1,N,1","-0015,1","-0015,1","10240,1",,,,"1,1,06,1","0,1,06,1",,"01,99,1,00,1,00,1,99999,9,00,1,04,1",,,"99999,9,10157,1","1,1,023,1,+999,9","03,1","SYN072AAXX  12121 01417 41980 11305 11015 21015 30157 40240 51023 70310 80004;",
"01417099999","2010-12-12T18:00:00","4","59.4833333","5.75","65.0","NEDRE VATS, NO","FM-12","99999","V020","050,1,N,0010,1","00900,1,9,N","025000,1,N,1","-0009,1","-0009,1","10246,1",,,,"2,1,06,1","1,1,06,1",,"08,99,1,06,1,08,1,00450,1,99,9,99,9",,"999,M,+0002,1","99999,9,10163,1","4,1,000,1,+999,9","03,1","SYN082AAXX  12181 01417 41475 80501 11009 21009 30163 40246 54001 70321 868// 333 10002;",
"01417099999","2010-12-13T06:00:00","4","59.4833333","5.75","65.0","NEDRE VATS, NO","FM-12","99999","V020","040,1,N,0010,1","22000,1,9,N","025000,1,N,1","-0047,1","-0047,1","10236,1","12,0020,9,1",,"0002,9,1,999999,9,9","7,1,06,1","2,1,06,1","00,1,+99999,9,99,9","00,99,1,00,1,00,1,99999,9,00,1,00,1","23,9","999,N,-0050,1","99999,9,10152,1","3,1,003,1,+999,9","01,1","SYN088AAXX  13061 01417 11975 00401 11047 21047 30152 40236 53003 60022 70172 333 21050 47002;",
"01417099999","2010-12-13T12:00:00","4","59.4833333","5.75","65.0","NEDRE VATS, NO","FM-12","99999","V020","050,1,N,0010,1","22000,1,9,N","025000,1,N,1","-0033,1","-0033,1","10277,1",,,,"2,1,06,1","1,1,06,1",,"04,99,1,99,9,00,1,02250,1,03,1,00,1",,,"99999,9,10193,1","2,1,015,1,+999,9","03,1","SYN072AAXX  13121 01417 41875 40501 11033 21033 30193 40277 52015 70321 80030;",
"01417099999","2010-12-13T18:00:00","4","59.4833333","5.75","65.0","NEDRE VATS, NO","FM-12","99999","V020","999,9,C,0000,1","00900,1,9,N","025000,1,N,1","-0021,1","-0021,1","10294,1",,,,"2,1,06,1","1,1,06,1",,"06,99,1,06,1,08,1,00450,1,00,1,00,1",,"999,M,-0015,1","99999,9,10211,1","2,1,015,1,+999,9","03,1","SYN082AAXX  13181 01417 41475 60000 11021 21021 30211 40294 52015 70321 86800 333 11015;",
"01417099999","2010-12-14T06:00:00","4","59.4833333","5.75","65.0","NEDRE VATS, NO","FM-12","99999","V020","999,9,C,0000,1","00900,1,9,N","025000,1,N,1","-0011,1","-0011,1","10336,1",,,"0002,9,1,999999,9,9","2,1,06,1","1,1,06,1",,"08,99,1,07,1,08,1,00450,1,99,9,99,9","23,9","999,N,-0025,1","99999,9,10252,1","3,1,006,1,+999,9","03,1","SYN088AAXX  14061 01417 41475 80000 11011 21011 30252 40336 53006 70321 878// 333 21025 47002;",
"01417099999","2010-12-14T12:00:00","4","59.4833333","5.75","65.0","NEDRE VATS, NO","FM-12","99999","V020","120,1,N,0030,1","00210,1,9,N","007000,1,N,1","+0001,1","+0001,1","10335,1",,,,"7,1,06,1","2,1,06,1",,"08,99,1,05,1,07,1,00250,1,02,1,99,9",,,"99999,9,10252,1","7,1,001,1,+999,9","70,1","SYN072AAXX  14121 01417 41357 81203 10001 20001 30252 40335 57001 77072 8572/;",
"01417099999","2010-12-15T06:00:00","4","59.4833333","5.75","65.0","NEDRE VATS, NO","FM-12","99999","V020","999,9,C,0000,1","00420,1,9,N","006000,1,N,1","-0042,1","-0042,1","10328,1",,,"0003,9,1,999999,9,9","2,1,06,1","1,1,06,1",,"08,99,1,08,1,06,1,00450,1,99,9,99,9","23,9","999,N,-0045,1","99999,9,10244,1","6,1,013,1,+999,9","10,1","SYN088AAXX  15061 01417 41456 80000 11042 21042 30244 40328 56013 71021 886// 333 21045 47003;",
"01417099999","2010-12-15T12:00:00","4","59.4833333","5.75","65.0","NEDRE VATS, NO","FM-12","99999","V020","999,9,C,0000,1","03000,1,9,N","020000,1,N,1","-0037,1","-0037,1","10288,1",,,,"2,1,06,1","1,1,06,1",,"07,99,1,03,1,06,1,00450,1,03,1,00,1",,,"99999,9,10205,1","7,1,028,1,+999,9","01,1","SYN072AAXX  15121 01417 41470 70000 11037 21037 30205 40288 57028 70121 83630;",
"01417099999","2010-12-15T18:00:00","4","59.4833333","5.75","65.0","NEDRE VATS, NO","FM-12","99999","V020","100,1,N,0050,1","00420,1,9,N","010000,1,N,1","-0011,1","-0011,1","99999,9","12,9999,9,9",,,"5,1,06,1","2,1,06,1",,"07,99,1,07,1,06,1,00450,1,02,1,99,9",,"999,M,-0007,1",,"8,1,063,2,+999,9","51,1","SYN088AAXX  15181 01417 11460 71005 11011 21011 30105 40187 58063 69922 75152 8762/ 333 11007;","Q01+101053APOSP Q02  00002PRCP12Q03  00002PRCP12"
"01417099999","2010-12-16T06:00:00","4","59.4833333","5.75","65.0","NEDRE VATS, NO","FM-12","99999","V020","300,1,N,0070,1","03000,1,9,N","015000,1,N,1","-0009,1","-0009,1","09944,1","12,0221,9,2","24,0218,9,2","0006,9,1,999999,9,9","7,1,06,1","2,1,06,1",,"08,99,1,04,1,06,1,00250,1,02,1,99,9","27,9","999,N,-0011,1","99999,9,09863,1","5,1,016,1,+999,9","70,1","SYN100AAXX  16061 01417 11365 83007 11009 21009 39863 49944 55016 60222 77072 8462/ 333 21011 43006 70218;",
"01417099999","2010-12-16T12:00:00","4","59.4833333","5.75","65.0","NEDRE VATS, NO","FM-12","99999","V020","290,1,N,0030,1","03000,1,9,N","020000,1,N,1","-0021,1","-0046,1","10018,1",,,,"7,1,06,1","2,1,06,1",,"06,99,1,03,1,07,1,00450,1,06,1,00,1",,,"99999,9,09937,1","8,1,018,1,+999,9","01,1","SYN072AAXX  16121 01417 41470 62903 11021 21046 39937 40018 58018 70172 83760;",
"01417099999","2010-12-16T18:00:00","4","59.4833333","5.75","65.0","NEDRE VATS, NO","FM-12","99999","V020","310,1,N,0010,1","22000,1,9,N","025000,1,N,1","-0048,1","-0074,1","99999,9","12,0020,9,1",,,"7,1,06,1","2,1,06,1",,"01,99,1,01,1,08,1,00800,1,00,1,00,1",,"999,M,+0000,1",,"8,1,012,1,+999,9","01,1","SYN088AAXX  16181 01417 11575 13101 11048 21074 39808 49889 58012 60022 70172 81800 333 10000;","Q01+098083APOSP "
"01417099999","2010-12-17T06:00:00","4","59.4833333","5.75","65.0","NEDRE VATS, NO","FM-12","99999","V020","080,1,N,0010,1","22000,1,9,N","030000,1,N,1","-0084,1","-0109,1","09902,1",,,"0006,9,1,999999,9,9","1,1,06,1","0,1,06,1",,"01,99,1,00,1,00,1,99999,9,00,1,05,1","23,9","999,N,-0100,1","99999,9,09821,1","2,1,007,1,+999,9","02,1","SYN088AAXX  17061 01417 41980 10801 11084 21109 39821 49902 52007 70210 80005 333 21100 47006;",
"01417099999","2010-12-17T12:00:00","4","59.4833333","5.75","65.0","NEDRE VATS, NO","FM-12","99999","V020","140,1,N,0070,1","22000,1,9,N","030000,1,N,1","-0032,1","-0114,1","09933,1",,,,"1,1,06,1","0,1,06,1",,"01,99,1,00,1,00,1,99999,9,00,1,05,1",,,"99999,9,09852,1","3,1,018,1,+999,9","02,1","SYN072AAXX  17121 01417 41980 11407 11032 21114 39852 49933 53018 70210 80005;",
"01417099999","2010-12-17T18:00:00","4","59.4833333","5.75","65.0","NEDRE VATS, NO","FM-12","99999","V020","160,1,N,0070,1","22000,1,9,N","030000,1,N,1","-0019,1","+9999,9","09967,1",,,,"1,1,06,1","0,1,06,1",,"02,99,1,01,1,08,1,00800,1,00,1,02,1",,"999,M,-0013,1","99999,9,09887,1","3,1,024,1,+999,9","03,1","SYN082AAXX  17181 01417 41580 21607 11019 2//// 39887 49967 53024 70310 81802 333 11013;",
"01417099999","2010-12-18T06:00:00","4","59.4833333","5.75","65.0","NEDRE VATS, NO","FM-12","99999","V020","070,1,N,0050,1","01200,1,9,N","025000,1,N,1","+0001,1","-0085,1","10027,1",,,"0006,9,1,999999,9,9",,,,"08,99,1,07,1,08,1,00800,1,09,1,99,9","24,9","999,N,-0025,1","99999,9,09947,1","3,1,012,1,+999,9",,"SYN082AAXX  18061 01417 46575 80705 10001 21085 39947 40027 53012 8789/ 333 21025 48006;",
"01417099999","2010-12-18T12:00:00","4","59.4833333","5.75","65.0","NEDRE VATS, NO","FM-12","99999","V020","140,1,N,0070,1","07500,1,9,N","025000,1,N,1","+0001,1","-0093,1","10056,1",,,,"2,1,06,1","1,1,06,1",,"07,99,1,01,1,07,1,00800,1,00,1,07,1",,,"99999,9,09976,1","1,1,019,1,+999,9","01,1","SYN072AAXX  18121 01417 41575 71407 10001 21093 39976 40056 51019 70121 81707;",
"01417099999","2010-12-18T18:00:00","4","59.4833333","5.75","65.0","NEDRE VATS, NO","FM-12","99999","V020","210,1,N,0070,1","01200,1,9,N","025000,1,N,1","-0012,1","-0100,1","10084,1",,,,"2,1,06,1","1,1,06,1",,"08,99,1,07,1,08,1,00800,1,99,9,99,9",,"999,M,+0014,1","99999,9,10002,1","2,1,011,1,+999,9","03,1","SYN082AAXX  18181 01417 41575 82107 11012 21100 30002 40084 52011 70321 878// 333 10014;",
"01417099999","2010-12-19T06:00:00","4","59.4833333","5.75","65.0","NEDRE VATS, NO","FM-12","99999","V020","999,9,9,9999,9","01200,1,9,N","025000,1,N,1","-0029,1","-0113,1","09980,1",,,,"2,1,06,1","1,1,06,1",,"08,99,1,08,1,08,1,00800,1,99,9,99,9",,"999,N,-0042,1","99999,9,09900,1","7,1,009,1,+999,9","02,1","SYN082AAXX  19061 01417 41575 8//// 11029 21113 39900 49980 57009 70221 888// 333 21042;",
"01417099999","2010-12-19T12:00:00","4","59.4833333","5.75","65.0","NEDRE VATS, NO","FM-12","99999","V020","260,1,N,0010,1","99999,9,9,N","025000,1,N,1","-0044,1","-0044,1","10051,1",,,,"8,1,06,1","2,1,06,1",,"08,99,1,99,9,00,1,01750,1,02,1,99,9",,,"99999,9,09970,1","8,1,014,1,+999,9","02,1","SYN072AAXX  19121 01417 41775 82601 11044 21044 39970 40051 58014 70282 8002/;","Q01+000002SCOTLC"
"01417099999","2010-12-19T18:00:00","4","59.4833333","5.75","65.0","NEDRE VATS, NO","FM-12","99999","V020","100,1,N,0050,1","01200,1,9,N","025000,1,N,1","-0042,1","+9999,9","10024,1","12,0000,9,1",,,"2,1,06,1","1,1,06,1",,"08,99,1,08,1,08,1,00800,1,99,9,99,9",,"999,M,-0018,1","99999,9,09942,1","8,1,011,1,+999,9","02,1","SYN088AAXX  19181 01417 11575 81005 11042 2//// 39942 40024 58011 69922 70221 888// 333 11018;","Q01  00002PRCP12"
"01417099999","2010-12-20T06:00:00","4","59.4833333","5.75","65.0","NEDRE VATS, NO","FM-12","99999","V020","080,1,N,0050,1","22000,1,9,N","025000,1,N,1","-0064,1","-0151,1","10012,1","12,0000,9,1","24,0003,9,1","0006,9,1,999999,9,9","8,1,06,1","2,1,06,1",,"01,99,1,00,1,00,1,99999,9,00,1,01,1","28,9","999,N,-0084,1","99999,9,09930,1","8,1,004,1,+999,9","01,1","SYN100AAXX  20061 01417 11975 10805 11064 21151 39930 40012 58004 69912 70182 80001 333 21084 44006 70003;","Q01  00002PRCP12"
"01417099999","2010-12-20T12:00:00","4","59.4833333","5.75","65.0","NEDRE VATS, NO","FM-12","99999","V020","080,1,N,0030,1","22000,1,9,N","030000,1,N,1","-0081,1","-0113,1","10025,1",,,,"1,1,06,1","0,1,06,1","00,1,+99999,9,99,9","00,99,1,00,1,00,1,99999,9,00,1,00,1",,,"99999,9,09942,1","0,1,007,1,+999,9","01,1","SYN066AAXX  20121 01417 41980 00803 11081 21113 39942 40025 50007 70110;",
"01417099999","2010-12-20T18:00:00","4","59.4833333","5.75","65.0","NEDRE VATS, NO","FM-12","99999","V020","999,9,9,9999,9","22000,1,9,N","030000,1,N,1","-0064,1","-0110,1","10035,1",,,,"1,1,06,1","0,1,06,1",,"01,99,1,00,1,00,1,99999,9,00,1,01,1",,"999,M,-0053,1","99999,9,09952,1","2,1,006,1,+999,9","03,1","SYN082AAXX  20181 01417 41980 1//// 11064 21110 39952 40035 52006 70310 80001 333 11053;",
"01417099999","2010-12-21T06:00:00","4","59.4833333","5.75","65.0","NEDRE VATS, NO","FM-12","99999","V020","080,1,N,0050,1","03000,1,9,N","015000,1,N,1","-0062,1","-0062,1","10038,1","12,0005,9,1",,"0007,9,1,999999,9,9","7,1,06,1","2,1,06,1",,"08,99,1,04,1,07,1,00450,1,02,1,99,9","28,9","999,N,-0119,1","99999,9,09956,1","7,1,003,1,+999,9","70,1","SYN094AAXX  21061 01417 11465 80805 11062 21062 39956 40038 57003 69942 77072 8472/ 333 21119 44007;",
"01417099999","2010-12-21T12:00:00","4","59.4833333","5.75","65.0","NEDRE VATS, NO","FM-12","99999","V020","050,1,N,0050,1","00210,1,9,N","015000,1,N,1","-0041,1","-0041,1","10043,1",,,,"7,1,06,1","2,1,06,1",,"08,99,1,05,1,07,1,00250,1,02,1,99,9",,,"99999,9,09962,1","3,1,006,1,+999,9","70,1","SYN072AAXX  21121 01417 41365 80505 11041 21041 39962 40043 53006 77072 8572/;",
"01417099999","2010-12-21T18:00:00","4","59.4833333","5.75","65.0","NEDRE VATS, NO","FM-12","99999","V020","070,1,N,0010,1","22000,1,9,N","030000,1,N,1","-0074,1","-0074,1","10067,1","12,0010,9,1",,,"7,1,06,1","1,1,06,1","00,1,+99999,9,99,9","00,99,1,00,1,00,1,99999,9,00,1,00,1",,"999,M,-0036,1","99999,9,09985,1","2,1,016,1,+999,9","01,1","SYN082AAXX  21181 01417 11980 00701 11074 21074 39985 40067 52016 60012 70171 333 11036;",
"01417099999","2010-12-22T06:00:00","4","59.4833333","5.75","65.0","NEDRE VATS, NO","FM-12","99999","V020","040,1,N,0050,1","22000,1,9,N","030000,1,N,1","-0111,1","-0111,1","10124,1",,,"0009,9,1,999999,9,9","1,1,06,1","0,1,06,1","00,1,+99999,9,99,9","00,99,1,00,1,00,1,99999,9,00,1,00,1","24,9","999,N,-0119,1","99999,9,10040,1","3,1,007,1,+999,9","02,1","SYN082AAXX  22061 01417 41980 00405 11111 21111 30040 40124 53007 70210 333 21119 48009;",
"01417099999","2010-12-22T12:00:00","4","59.4833333","5.75","65.0","NEDRE VATS, NO","FM-12","99999","V020","080,1,N,0010,1","22000,1,9,N","030000,1,N,1","-0057,1","-0057,1","10138,1",,,,"2,1,06,1","1,1,06,1",,"03,99,1,99,9,00,1,02250,1,07,1,00,1",,,"99999,9,10055,1","2,1,002,1,+999,9","03,1","SYN072AAXX  22121 01417 41880 30801 11057 21057 30055 40138 52002 70321 80070;","Q01+000002SCOTLC"
"01417099999","2010-12-22T18:00:00","4","59.4833333","5.75","65.0","NEDRE VATS, NO","FM-12","99999","V020","090,1,N,0050,1","00750,1,9,N","025000,1,N,1","-0045,1","-0045,1","10149,1",,,,"2,1,06,1","1,1,06,1",,"07,99,1,99,9,03,1,00800,1,00,1,00,1",,"999,M,-0038,1","99999,9,10067,1","2,1,010,1,+999,9","03,1","SYN082AAXX  22181 01417 41575 70905 11045 21045 30067 40149 52010 70321 86300 333 11038;","Q01+000062SCOTLC"
"01417099999","2010-12-23T06:00:00","4","59.4833333","5.75","65.0","NEDRE VATS, NO","FM-12","99999","V020","120,1,N,0050,1","00420,1,9,N","015000,1,N,1","-0012,1","-0012,1","10160,1","12,9999,9,9",,"0009,9,1,999999,9,9","7,1,06,1","2,1,06,1",,"08,99,1,05,1,07,1,00450,1,02,1,99,9","24,9","999,N,-0050,1","99999,9,10078,1","4,1,000,1,+999,9","70,1","SYN094AAXX  23061 01417 11465 81205 11012 21012 30078 40160 54000 69922 77072 8572/ 333 21050 48009;","Q01  00002PRCP12Q02  00002PRCP12"
"01417099999","2010-12-23T12:00:00","4","59.4833333","5.75","65.0","NEDRE VATS, NO","FM-12","99999","V020","100,1,N,0050,1","00210,1,9,N","015000,1,N,1","-0009,1","-0009,1","10170,1",,,,"7,1,06,1","2,1,06,1",,"08,99,1,06,1,06,1,00250,1,02,1,08,1",,,"99999,9,10088,1","0,1,003,1,+999,9","70,1","SYN072AAXX  23121 01417 41365 81005 11009 21009 30088 40170 50003 77072 86628;",
"01417099999","2010-12-23T18:00:00","4","59.4833333","5.75","65.0","NEDRE VATS, NO","FM-12","99999","V020","300,1,N,0050,1","00420,1,9,N","010000,1,N,1","-0012,1","-0012,1","10170,1","12,0061,9,1",,,"7,1,06,1","2,1,06,1",,"08,99,1,07,1,07,1,00450,1,02,1,09,1",,"999,M,-0002,1","99999,9,10088,1","3,1,004,1,+999,9","70,1","SYN088AAXX  23181 01417 11460 83005 11012 21012 30088 40170 53004 60062 77072 87729 333 11002;",
"01417099999","2010-12-24T06:00:00","4","59.4833333","5.75","65.0","NEDRE VATS, NO","FM-12","99999","V020","100,1,N,0070,1","00420,1,9,N","015000,1,N,1","-0035,1","-0035,1","10195,1","12,0071,9,1","24,0130,9,1","0026,9,1,999999,9,9","7,1,06,1","7,1,06,1",,"08,99,1,07,1,06,1,00450,1,02,1,99,9","24,9","999,N,-0036,1","99999,9,10112,1","3,1,003,1,+999,9","70,1","SYN100AAXX  24061 01417 11465 81007 11035 21035 30112 40195 53003 60072 77077 8762/ 333 21036 48026 70129;",
"01417099999","2010-12-24T12:00:00","4","59.4833333","5.75","65.0","NEDRE VATS, NO","FM-12","99999","V020","300,1,N,0010,1","00420,1,9,N","015000,1,N,1","-0048,1","-0048,1","10213,1",,,,"7,1,06,1","2,1,06,1",,"08,99,1,06,1,06,1,00450,1,02,1,99,9",,,"99999,9,10130,1","2,1,005,1,+999,9","70,1","SYN072AAXX  24121 01417 41465 83001 11048 21048 30130 40213 52005 77072 8662/;",
"01417099999","2010-12-25T06:00:00","4","59.4833333","5.75","65.0","NEDRE VATS, NO","FM-12","99999","V020","999,9,C,0000,1","22000,1,9,N","025000,1,N,1","-0082,1","-0082,1","10239,1","12,0010,9,1",,"0028,9,1,999999,9,9","7,1,06,1","2,1,06,1",,"01,99,1,99,9,00,1,02250,1,03,1,00,1","24,9","999,N,-0090,1","99999,9,10155,1","2,1,008,1,+999,9","01,1","SYN094AAXX  25061 01417 11875 10000 11082 21082 30155 40239 52008 60012 70172 80030 333 21090 48028;","Q01+000002SCOTLC"
"01417099999","2010-12-25T12:00:00","4","59.4833333","5.75","65.0","NEDRE VATS, NO","FM-12","99999","V020","110,1,N,0010,1","22000,1,9,N","025000,1,N,1","-0078,1","-0078,1","10236,1",,,,"1,1,06,1","0,1,06,1",,"01,99,1,99,9,00,1,02250,1,03,1,00,1",,,"99999,9,10152,1","0,1,000,1,+999,9","02,1","SYN072AAXX  25121 01417 41875 11101 11078 21078 30152 40236 50000 70210 80030;","Q01+000002SCOTLC"
"01417099999","2010-12-25T18:00:00","4","59.4833333","5.75","65.0","NEDRE VATS, NO","FM-12","99999","V020","999,9,C,0000,1","22000,1,9,N","025000,1,N,1","-0100,1","-0100,1","10240,1",,,,"1,1,06,1","0,1,06,1",,"02,99,1,99,9,00,1,02250,1,03,1,00,1",,"999,M,-0069,1","99999,9,10155,1","2,1,005,1,+999,9","03,1","SYN082AAXX  25181 01417 41875 20000 11100 21100 30155 40240 52005 70310 80030 333 11069;","Q01+000002SCOTLC"
"01417099999","2010-12-26T06:00:00","4","59.4833333","5.75","65.0","NEDRE VATS, NO","FM-12","99999","V020","999,9,C,0000,1","22000,1,9,N","030000,1,N,1","-0112,1","-0112,1","10233,1",,,"0028,9,1,999999,9,9","1,1,06,1","0,1,06,1","00,1,+99999,9,99,9","00,99,1,00,1,00,1,99999,9,00,1,00,1","24,9","999,N,-0145,1","99999,9,10147,1","5,1,003,1,+999,9","01,1","SYN082AAXX  26061 01417 41980 00000 11112 21112 30147 40233 55003 70110 333 21145 48028;",
"01417099999","2010-12-26T12:00:00","4","59.4833333","5.75","65.0","NEDRE VATS, NO","FM-12","99999","V020","999,9,9,9999,9","22000,1,9,N","030000,1,N,1","+9999,9","+9999,9","10223,1",,,,"1,1,06,1","0,1,06,1","00,1,+99999,9,99,9","00,99,1,00,1,00,1,99999,9,00,1,00,1",,,"99999,9,10145,1","7,1,001,1,+999,9","02,1","SYN066AAXX  26121 01417 41980 0//// 10111 20111 30145 40223 57001 70210;","Q01+001113ATOT  "
"01417099999","2010-12-26T18:00:00","4","59.4833333","5.75","65.0","NEDRE VATS, NO","FM-12","99999","V020","999,9,C,0000,1","22000,1,9,N","029000,1,N,1","-0125,1","-0125,1","10217,1",,,,"1,1,06,1","0,1,06,1",,"01,99,1,00,1,00,1,99999,9,00,1,01,1",,"999,M,-0086,1","99999,9,10132,1","7,1,003,1,+999,9","03,1","SYN082AAXX  26181 01417 41979 10000 11125 21125 30132 40217 57003 70310 80001 333 11086;",
"01417099999","2010-12-27T06:00:00","4","59.4833333","5.75","65.0","NEDRE VATS, NO","FM-12","99999","V020","310,1,N,0010,1","22000,1,9,N","030000,1,N,1","-0143,1","-0143,1","10189,1",,,"0028,9,1,999999,9,9","1,1,06,1","0,1,06,1",,"01,99,1,00,1,00,1,99999,9,00,1,01,1","24,9","999,N,-0159,1","99999,9,10102,1","6,1,006,1,+999,9","02,1","SYN088AAXX  27061 01417 41980 13101 11143 21143 30102 40189 56006 70210 80001 333 21159 48028;",
"01417099999","2010-12-27T12:00:00","4","59.4833333","5.75","65.0","NEDRE VATS, NO","FM-12","99999","V020","999,9,C,0000,1","22000,1,9,N","030000,1,N,1","-0108,1","-0108,1","10200,1",,,,"1,1,06,1","0,1,06,1",,"01,99,1,00,1,00,1,99999,9,00,1,01,1",,,"99999,9,10115,1","2,1,003,1,+999,9","02,1","SYN072AAXX  27121 01417 41980 10000 11108 21108 30115 40200 52003 70210 80001;",
"01417099999","2010-12-27T18:00:00","4","59.4833333","5.75","65.0","NEDRE VATS, NO","FM-12","99999","V020","050,1,N,0050,1","22000,1,9,N","030000,1,N,1","-0098,1","-0098,1","10213,1",,,,"1,1,06,1","0,1,06,1",,"01,99,1,00,1,00,1,99999,9,00,1,01,1",,"999,M,-0074,1","99999,9,10128,1","2,1,009,1,+999,9","02,1","SYN082AAXX  27181 01417 41980 10505 11098 21098 30128 40213 52009 70210 80001 333 11074;",
"01417099999","2010-12-28T06:00:00","4","59.4833333","5.75","65.0","NEDRE VATS, NO","FM-12","99999","V020","100,1,N,0070,1","22000,1,9,N","025000,1,N,1","-0042,1","-0095,1","10244,1",,,"0028,9,1,999999,9,9","1,1,06,1","0,1,06,1",,"01,99,1,00,1,00,1,99999,9,00,1,01,1","22,9","999,N,-0105,1","99999,9,10161,1","0,1,005,1,+999,9","02,1","SYN088AAXX  28061 01417 41975 11007 11042 21095 30161 40244 50005 70210 80001 333 21105 46028;",
"01417099999","2010-12-28T12:00:00","4","59.4833333","5.75","65.0","NEDRE VATS, NO","FM-12","99999","V020","110,1,N,0070,1","22000,1,9,N","030000,1,N,1","-0042,1","-0109,1","10259,1",,,,"1,1,06,1","0,1,06,1",,"01,99,1,00,1,00,1,99999,9,00,1,01,1",,,"99999,9,10176,1","0,1,002,1,+999,9","02,1","SYN072AAXX  28121 01417 41980 11107 11042 21109 30176 40259 50002 70210 80001;",
"01417099999","2010-12-28T18:00:00","4","59.4833333","5.75","65.0","NEDRE VATS, NO","FM-12","99999","V020","130,1,N,0050,1","22000,1,9,N","030000,1,N,1","-0049,1","-0102,1","10265,1",,,,"1,1,06,1","0,1,06,1",,"01,99,1,00,1,00,1,99999,9,00,1,01,1",,"999,M,-0035,1","99999,9,10182,1","0,1,003,1,+999,9","02,1","SYN082AAXX  28181 01417 41980 11305 11049 21102 30182 40265 50003 70210 80001 333 11035;",
"01417099999","2010-12-29T06:00:00","4","59.4833333","5.75","65.0","NEDRE VATS, NO","FM-12","99999","V020","100,1,N,0050,1","99999,9,9,N","025000,1,N,1","-0028,1","-0086,1","10262,1",,,"0027,9,1,999999,9,9","2,1,06,1","1,1,06,1",,"06,99,1,99,9,00,1,02250,1,03,1,00,1","28,9","999,N,-0050,1","99999,9,10178,1","0,1,000,1,+999,9","03,1","SYN088AAXX  29061 01417 41875 61005 11028 21086 30178 40262 50000 70321 80030 333 21050 44027;","Q01+000002SCOTLC"
"01417099999","2010-12-29T12:00:00","4","59.4833333","5.75","65.0","NEDRE VATS, NO","FM-12","99999","V020","070,1,N,0030,1","00750,1,9,N","025000,1,N,1","-0019,1","-0077,1","10264,1",,,,,,,"07,99,1,99,9,05,1,00800,1,00,1,00,1",,,"99999,9,10182,1","7,1,001,1,+999,9",,"SYN066AAXX  29121 01417 46575 70703 11019 21077 30182 40264 57001 86500;","Q01+000062SCOTLC"
"01417099999","2010-12-29T18:00:00","4","59.4833333","5.75","65.0","NEDRE VATS, NO","FM-12","99999","V020","160,1,N,0030,1","00420,1,9,N","025000,1,N,1","-0035,1","-0035,1","10267,1",,,,"2,1,06,1","1,1,06,1",,"08,99,1,07,1,05,1,00450,1,09,1,99,9",,"999,M,-0013,1","99999,9,10183,1","1,1,006,1,+999,9","03,1","SYN082AAXX  29181 01417 41475 81603 11035 21035 30183 40267 51006 70321 8759/ 333 11013;",
"01417099999","2010-12-30T06:00:00","4","59.4833333","5.75","65.0","NEDRE VATS, NO","FM-12","99999","V020","130,1,N,0050,1","99999,9,9,N","015000,1,N,1","-0015,1","-0015,1","10222,1","12,9999,9,9",,"0025,9,1,999999,9,9","7,1,06,1","2,1,06,1",,"08,99,1,99,9,00,1,00450,1,02,1,99,9","28,9","999,N,-0040,1","99999,9,10140,1","8,1,019,1,+999,9","51,1","SYN094AAXX  30061 01417 11465 81305 11015 21015 30140 40222 58019 69922 75172 8002/ 333 21040 44025;","Q01+000002SCOTLCQ02  00002PRCP12Q03  00002PRCP12"
"01417099999","2010-12-30T12:00:00","4","59.4833333","5.75","65.0","NEDRE VATS, NO","FM-12","99999","V020","100,1,N,0030,1","00210,1,9,N","006000,1,N,1","-0002,1","-0002,1","10184,1",,,,"6,1,06,1","5,1,06,1",,"08,99,1,07,1,06,1,00250,1,09,1,99,9",,,"99999,9,10102,1","8,1,020,1,+999,9","50,1","SYN072AAXX  30121 01417 41356 81003 11002 21002 30102 40184 58020 75065 8769/;",
"01417099999","2010-12-30T18:00:00","4","59.4833333","5.75","65.0","NEDRE VATS, NO","FM-12","99999","V020","999,9,C,0000,1","00420,1,9,N","008000,1,N,1","+0002,1","+0002,1","10179,1","12,0020,9,1",,,"5,1,06,1","2,1,06,1",,"08,99,1,08,1,06,1,00450,1,99,9,99,9",,"999,M,+0006,1","99999,9,10097,1","4,1,000,1,+999,9","50,1","SYN088AAXX  30181 01417 11458 80000 10002 20002 30097 40179 54000 60022 75052 886// 333 10006;",
"01417099999","2010-12-31T06:00:00","4","59.4833333","5.75","65.0","NEDRE VATS, NO","FM-12","99999","V020","320,1,N,0010,1","99999,9,9,N","025000,1,N,1","-0011,1","-0011,1","10185,1","12,0003,9,1","24,0023,9,1","0023,9,1,999999,9,9","4,1,06,1","2,1,06,1",,"08,99,1,99,9,00,1,02250,1,07,1,00,1","28,9","999,N,-0015,1","99999,9,10102,1","2,1,008,1,+999,9","00,1","SYN100AAXX  31061 01417 11875 83201 11011 21011 30102 40185 52008 69932 70042 80070 333 21015 44023 70024;","Q01+000002SCOTLC"
"01417099999","2010-12-31T12:00:00","4","59.4833333","5.75","65.0","NEDRE VATS, NO","FM-12","99999","V020","060,1,N,0030,1","99999,9,9,N","008000,1,N,1","+0001,1","+0001,1","10141,1",,,,,,,"08,99,1,99,9,00,1,00250,1,02,1,99,9",,,"99999,9,10060,1","7,1,034,1,+999,9",,"SYN066AAXX  31121 01417 46358 80603 10001 20001 30060 40141 57034 8002/;","Q01+000002SCOTLC"
"01417099999","2010-12-31T18:00:00","4","59.4833333","5.75","65.0","NEDRE VATS, NO","FM-12","99999","V020","050,1,N,0070,1","99999,9,9,N","008000,1,N,1","+0049,1","+0049,1","10056,1","12,0089,9,1",,,"6,1,06,1","2,1,06,1",,"08,99,1,99,9,00,1,00250,1,02,1,99,9",,"999,M,+0053,1","99999,9,09977,1","8,1,056,2,+999,9","61,1","SYN088AAXX  31181 01417 11358 80507 10049 20049 39977 40056 58056 60092 76162 8002/ 333 10053;","Q01+000002SCOTLC"
