"STATION","DATE","SOURCE","LATITUDE","LONGITUDE","ELEVATION","NAME","REPORT_TYPE","CALL_SIGN","QUALITY_CONTROL","WND","CIG","VIS","TMP","DEW","SLP","AA1","AA2","AJ1","AY1","AY2","GA1","GF1","IA1","KA1","MA1","MD1","ME1","MW1","REM","EQD"
"01442099999","2010-01-01T03:00:00","4","58.6666666","7.8","211.0","BYGLANDSFJORD, NO","FM-12","99999","V020","330,1,N,0050,1","02100,1,9,N","075000,1,N,1","-0105,1","-0126,1","10049,1",,,,"1,1,03,1","1,1,03,1",,"08,99,1,08,1,00,1,02250,1,01,1,99,9",,,"99999,9,09787,1","8,1,010,1,+999,9",,"03,1","SYN082AAXX  01031 01442 41889 83305 11105 21126 39787 40049 58010 70311 8801/ 333 4////;",
"01442099999","2010-01-01T06:00:00","4","58.6666666","7.8","211.0","BYGLANDSFJORD, NO","FM-12","99999","V020","340,1,N,0030,1","01500,1,9,N","005000,1,N,1","-0097,1","-0109,1","10057,1","12,0005,9,1","24,0005,9,1","0033,9,1,999999,9,9","7,1,06,1","2,1,06,1",,"08,99,1,08,1,00,1,01750,1,02,1,99,9","28,9","999,N,-0119,1","99999,9,09795,1","3,1,008,1,+999,9",,"70,1","SYN100AAXX  01061 01442 11750 83403 11097 21109 39795 40057 53008 69952 77072 8802/ 333 21119 44033 70005;",
"01442099999","2010-01-01T09:00:00","4","58.6666666","7.8","211.0","BYGLANDSFJORD, NO","FM-12","99999","V020","330,1,N,0050,1","01500,1,9,N","075000,1,N,1","-0092,1","-0103,1","10068,1",,,,"7,1,03,1","2,1,03,1",,"07,99,1,05,1,00,1,01750,1,07,1,08,1",,,"99999,9,09806,1","2,1,011,1,+999,9",,"01,1","SYN082AAXX  01091 01442 41789 73305 11092 21103 39806 40068 52011 70172 85078 333 4////;",
"01442099999","2010-01-01T12:00:00","4","58.6666666","7.8","211.0","BYGLANDSFJORD, NO","FM-12","99999","V020","330,1,N,0050,1","99999,9,9,N","075000,1,N,1","-0074,1","-0095,1","10079,1",,,,"7,1,06,1","2,1,06,1",,"07,99,1,01,1,00,1,99999,9,04,1,08,1",,,"99999,9,09817,1","2,1,011,1,+999,9",,"01,1","SYN088AAXX  01121 01442 11989 73305 11074 21095 39817 40079 52011 6//// 70172 81048 333 4////;",
"01442099999","2010-01-01T15:00:00","4","58.6666666","7.8","211.0","BYGLANDSFJORD, NO","FM-12","99999","V020","350,1,N,0030,1","22000,1,9,N","075000,1,N,1","-0076,1","-0118,1","10090,1",,,,"2,1,03,1","1,1,03,1",,"03,99,1,01,1,00,1,99999,9,04,1,01,1",,,"99999,9,09827,1","2,1,011,1,+999,9",,"01,1","SYN082AAXX  01151 01442 41989 33503 11076 21118 39827 40090 52011 70121 81041 333 4////;",
"01442099999","2010-01-01T18:00:00","4","58.6666666","7.8","211.0","BYGLANDSFJORD, NO","FM-12","99999","V020","350,1,N,0030,1","99999,9,9,N","075000,1,N,1","-0087,1","-0122,1","10115,1","12,0000,2,1",,,"2,1,06,1","1,1,06,1",,"06,99,1,00,1,00,1,99999,9,00,1,08,1",,"120,M,-0068,1","99999,9,09852,1","3,1,024,1,+999,9",,"02,1","SYN094AAXX  01181 01442 11989 63503 11087 21122 39852 40115 53024 69902 70221 80008 333 11068 4////;",
"01442099999","2010-01-02T03:00:00","4","58.6666666","7.8","211.0","BYGLANDSFJORD, NO","FM-12","99999","V020","330,1,N,0070,1","22000,1,9,N","075000,1,N,1","-0086,1","-0128,1","10174,1",,,,"1,1,03,1","1,1,03,1",,"03,99,1,02,1,01,1,01250,1,00,1,02,1",,,"99999,9,09908,1","2,1,020,1,+999,9",,"01,1","SYN082AAXX  02031 01442 41689 33307 11086 21128 39908 40174 52020 70111 82102 333 4////;",
"01442099999","2010-01-02T06:00:00","4","58.6666666","7.8","211.0","BYGLANDSFJORD, NO","FM-12","99999","V020","340,1,N,0070,1","22000,1,9,N","075000,1,N,1","-0090,1","-0131,1","10197,1","12,0000,9,1","24,0000,2,1","0033,9,1,999999,9,9","1,1,06,1","1,1,06,1",,"01,99,1,01,1,00,1,99999,9,04,1,01,1","28,9","999,N,-0090,1","99999,9,09931,1","2,1,022,1,+999,9",,"01,1","SYN100AAXX  02061 01442 11989 13407 11090 21131 39931 40197 52022 60002 70111 81041 333 21090 44033 70000;","Q01  00002PRCP12"
"01442099999","2010-01-02T09:00:00","4","58.6666666","7.8","211.0","BYGLANDSFJORD, NO","FM-12","99999","V020","340,1,N,0070,1","22000,1,9,N","075000,1,N,1","-0093,1","-0136,1","10216,1",,,,"0,1,03,1","0,1,03,1","00,1,+99999,9,99,9","00,99,1,00,1,00,1,99999,9,00,1,00,1",,,"99999,9,09950,1","2,1,019,1,+999,9",,"02,1","SYN076AAXX  02091 01442 41989 03407 11093 21136 39950 40216 52019 70200 333 4////;",
"01442099999","2010-01-02T12:00:00","4","58.6666666","7.8","211.0","BYGLANDSFJORD, NO","FM-12","99999","V020","330,1,N,0070,1","22000,1,9,N","075000,1,N,1","-0088,1","-0138,1","10238,1",,,,"0,1,06,1","0,1,06,1",,"01,99,1,01,1,00,1,99999,9,04,1,00,1",,,"99999,9,09971,1","2,1,021,1,+999,9",,"02,1","SYN088AAXX  02121 01442 11989 13307 11088 21138 39971 40238 52021 6//// 70200 81040 333 4////;",
"01442099999","2010-01-02T15:00:00","4","58.6666666","7.8","211.0","BYGLANDSFJORD, NO","FM-12","99999","V020","330,1,N,0070,1","22000,1,9,N","075000,1,N,1","-0092,1","-0142,1","10243,1",,,,"0,1,03,1","0,1,03,1","00,1,+99999,9,99,9","00,99,1,00,1,00,1,99999,9,00,1,00,1",,,"99999,9,09976,1","1,1,005,1,+999,9",,"02,1","SYN076AAXX  02151 01442 41989 03307 11092 21142 39976 40243 51005 70200 333 4////;",
"01442099999","2010-01-02T18:00:00","4","58.6666666","7.8","211.0","BYGLANDSFJORD, NO","FM-12","99999","V020","330,1,N,0050,1","22000,1,9,N","075000,1,N,1","-0106,1","-0141,1","10250,1","12,0000,9,1",,,"0,1,06,1","0,1,06,1","00,1,+99999,9,99,9","00,99,1,00,1,00,1,99999,9,00,1,00,1",,"120,M,-0086,1","99999,9,09982,1","2,1,007,1,+999,9",,"02,1","SYN088AAXX  02181 01442 11989 03305 11106 21141 39982 40250 52007 60002 70200 333 11086 4////;","Q01  00002PRCP12"
"01442099999","2010-01-03T03:00:00","4","58.6666666","7.8","211.0","BYGLANDSFJORD, NO","FM-12","99999","V020","330,1,N,0050,1","22000,1,9,N","075000,1,N,1","-0139,1","-0161,1","10238,1",,,,"0,1,03,1","0,1,03,1",,"01,99,1,00,1,00,1,99999,9,00,1,01,1",,,"99999,9,09970,1","8,1,015,1,+999,9",,"02,1","SYN082AAXX  03031 01442 41989 13305 11139 21161 39970 40238 58015 70200 80001 333 4////;",
"01442099999","2010-01-03T06:00:00","4","58.6666666","7.8","211.0","BYGLANDSFJORD, NO","FM-12","99999","V020","330,1,N,0050,1","99999,9,9,N","075000,1,N,1","-0138,1","-0164,1","10220,1","12,0000,9,1","24,0000,9,1","0032,9,1,999999,9,9","1,1,06,1","0,1,06,1",,"07,99,1,00,1,00,1,99999,9,00,1,07,1","28,9","999,N,-0141,1","99999,9,09952,1","7,1,018,1,+999,9",,"03,1","SYN100AAXX  03061 01442 11989 73305 11138 21164 39952 40220 57018 60002 70310 80007 333 21141 44032 70000;","Q01  00002PRCP24Q02  00002PRCP12"
"01442099999","2010-01-03T09:00:00","4","58.6666666","7.8","211.0","BYGLANDSFJORD, NO","FM-12","99999","V020","340,1,N,0070,1","07500,1,9,N","075000,1,N,1","-0123,1","-0145,1","10210,1",,,,"2,1,03,1","2,1,03,1",,"06,99,1,01,1,00,1,01750,1,03,1,08,1",,,"99999,9,09942,1","6,1,009,1,+999,9",,"01,1","SYN082AAXX  03091 01442 41789 63407 11123 21145 39942 40210 56009 70122 81038 333 4////;",
"01442099999","2010-01-03T12:00:00","4","58.6666666","7.8","211.0","BYGLANDSFJORD, NO","FM-12","99999","V020","340,1,N,0070,1","22000,1,9,N","075000,1,N,1","-0103,1","-0133,1","10192,1",,,,"2,1,06,1","1,1,06,1",,"01,99,1,01,1,00,1,01750,1,03,1,01,1",,,"99999,9,09926,1","8,1,017,1,+999,9",,"01,1","SYN088AAXX  03121 01442 11789 13407 11103 21133 39926 40192 58017 6//// 70121 81031 333 4////;",
"01442099999","2010-01-03T15:00:00","4","58.6666666","7.8","211.0","BYGLANDSFJORD, NO","FM-12","99999","V020","350,1,N,0050,1","22000,1,9,N","075000,1,N,1","-0093,1","-0121,1","10169,1",,,,"1,1,03,1","1,1,03,1",,"02,99,1,02,1,00,1,01750,1,03,1,01,1",,,"99999,9,09903,1","7,1,022,1,+999,9",,"01,1","SYN082AAXX  03151 01442 41789 23505 11093 21121 39903 40169 57022 70111 82031 333 4////;",
"01442099999","2010-01-03T18:00:00","4","58.6666666","7.8","211.0","BYGLANDSFJORD, NO","FM-12","99999","V020","350,1,N,0070,1","22000,1,9,N","075000,1,N,1","-0096,1","-0116,1","10160,1","12,0000,9,1",,,"1,1,06,1","0,1,06,1",,"01,99,1,00,1,00,1,99999,9,00,1,01,1",,"120,M,-0089,1","99999,9,09895,1","6,1,009,1,+999,9",,"01,1","SYN094AAXX  03181 01442 11989 13507 11096 21116 39895 40160 56009 60002 70110 80001 333 11089 4////;","Q01  00002PRCP12"
"01442099999","2010-01-04T03:00:00","4","58.6666666","7.8","211.0","BYGLANDSFJORD, NO","FM-12","99999","V020","330,1,N,0050,1","22000,1,9,N","075000,1,N,1","-0083,1","-0094,1","10116,1",,,,"0,1,03,1","0,1,03,1",,"01,99,1,00,1,00,1,99999,9,00,1,01,1",,,"99999,9,09852,1","7,1,015,1,+999,9",,"02,1","SYN082AAXX  04031 01442 41989 13305 11083 21094 39852 40116 57015 70200 80001 333 4////;",
"01442099999","2010-01-04T06:00:00","4","58.6666666","7.8","211.0","BYGLANDSFJORD, NO","FM-12","99999","V020","100,1,N,0030,1","22000,1,9,N","075000,1,N,1","-0105,1","-0116,1","10097,1","12,0000,9,1","24,0000,9,1","0032,9,1,999999,9,9","0,1,06,1","0,1,06,1",,"03,99,1,00,1,00,1,99999,9,00,1,02,1","28,9","999,N,-0105,1","99999,9,09833,1","7,1,019,1,+999,9",,"03,1","SYN100AAXX  04061 01442 11989 31003 11105 21116 39833 40097 57019 60002 70300 80002 333 21105 44032 70000;","Q01  00002PRCP24Q02  00002PRCP12"
"01442099999","2010-01-04T09:00:00","4","58.6666666","7.8","211.0","BYGLANDSFJORD, NO","FM-12","99999","V020","999,9,C,0000,1","01500,1,9,N","075000,1,N,1","-0097,1","-0105,1","10087,1",,,,"2,1,03,1","2,1,03,1",,"08,99,1,08,1,00,1,01750,1,07,1,99,9",,,"99999,9,09823,1","6,1,010,1,+999,9",,"03,1","SYN082AAXX  04091 01442 41789 80000 11097 21105 39823 40087 56010 70322 8807/ 333 4////;",
"01442099999","2010-01-04T12:00:00","4","58.6666666","7.8","211.0","BYGLANDSFJORD, NO","FM-12","99999","V020","350,1,N,0030,1","01500,1,9,N","075000,1,N,1","-0071,1","-0086,1","10066,1",,,,"2,1,06,1","2,1,06,1",,"08,99,1,08,1,00,1,01750,1,07,1,99,9",,,"99999,9,09803,1","8,1,020,1,+999,9",,"02,1","SYN088AAXX  04121 01442 11789 83503 11071 21086 39803 40066 58020 6//// 70222 8807/ 333 4////;",
"01442099999","2010-01-04T15:00:00","4","58.6666666","7.8","211.0","BYGLANDSFJORD, NO","FM-12","99999","V020","350,1,N,0050,1","99999,9,9,N","075000,1,N,1","-0072,1","-0088,1","10044,1",,,,"2,1,03,1","2,1,03,1",,"07,99,1,01,1,00,1,99999,9,04,1,08,1",,,"99999,9,09782,1","7,1,021,1,+999,9",,"01,1","SYN082AAXX  04151 01442 41989 73505 11072 21088 39782 40044 57021 70122 81048 333 4////;",
"01442099999","2010-01-04T18:00:00","4","58.6666666","7.8","211.0","BYGLANDSFJORD, NO","FM-12","99999","V020","340,1,N,0050,1","22000,1,9,N","075000,1,N,1","-0078,1","-0090,1","10044,1","12,0000,9,1",,,"2,1,06,1","1,1,06,1","00,1,+99999,9,99,9","00,99,1,00,1,00,1,99999,9,00,1,00,1",,"120,M,-0067,1","99999,9,09782,1","4,1,000,1,+999,9",,"01,1","SYN088AAXX  04181 01442 11989 03405 11078 21090 39782 40044 54000 60002 70121 333 11067 4////;","Q01  00002PRCP12"
"01442099999","2010-01-05T03:00:00","4","58.6666666","7.8","211.0","BYGLANDSFJORD, NO","FM-12","99999","V020","350,1,N,0050,1","22000,1,9,N","075000,1,N,1","-0097,1","-0113,1","10064,1",,,,"0,1,03,1","0,1,03,1","00,1,+99999,9,99,9","00,99,1,00,1,00,1,99999,9,00,1,00,1",,,"99999,9,09802,1","1,1,005,1,+999,9",,"02,1","SYN076AAXX  05031 01442 41989 03505 11097 21113 39802 40064 51005 70200 333 4////;",
"01442099999","2010-01-05T06:00:00","4","58.6666666","7.8","211.0","BYGLANDSFJORD, NO","FM-12","99999","V020","340,1,N,0050,1","00750,1,9,N","075000,1,N,1","-0091,1","-0109,1","10072,1","12,0000,9,1","24,0000,9,1","0031,9,1,999999,9,9","1,1,06,1","0,1,06,1",,"08,99,1,08,1,05,1,00800,1,99,9,99,9","28,9","999,N,-0100,1","99999,9,09810,1","3,1,008,1,+999,9",,"03,1","SYN100AAXX  05061 01442 11589 83405 11091 21109 39810 40072 53008 60002 70310 885// 333 21100 44031 70000;","Q01  00002PRCP24Q02  00002PRCP12"
"01442099999","2010-01-05T09:00:00","4","58.6666666","7.8","211.0","BYGLANDSFJORD, NO","FM-12","99999","V020","010,1,N,0070,1","00750,1,9,N","075000,1,N,1","-0092,1","-0112,1","10082,1",,,,"2,1,03,1","2,1,03,1",,"08,99,1,08,1,05,1,00800,1,99,9,99,9",,,"99999,9,09818,1","2,1,009,1,+999,9",,"01,1","SYN082AAXX  05091 01442 41589 80107 11092 21112 39818 40082 52009 70122 885// 333 4////;",
"01442099999","2010-01-05T12:00:00","4","58.6666666","7.8","211.0","BYGLANDSFJORD, NO","FM-12","99999","V020","010,1,N,0070,1","22000,1,9,N","075000,1,N,1","-0086,1","-0115,1","10088,1",,,,"2,1,06,1","1,1,06,1",,"01,99,1,01,1,01,1,00800,1,00,1,00,1",,,"99999,9,09825,1","1,1,006,1,+999,9",,"01,1","SYN088AAXX  05121 01442 11589 10107 11086 21115 39825 40088 51006 6//// 70121 81100 333 4////;",
"01442099999","2010-01-05T15:00:00","4","58.6666666","7.8","211.0","BYGLANDSFJORD, NO","FM-12","99999","V020","020,1,N,0050,1","22000,1,9,N","075000,1,N,1","-0088,1","-0125,1","10095,1",,,,"0,1,03,1","0,1,03,1",,"01,99,1,01,1,01,1,01250,1,00,1,01,1",,,"99999,9,09832,1","2,1,007,1,+999,9",,"01,1","SYN082AAXX  05151 01442 41689 10205 11088 21125 39832 40095 52007 70100 81101 333 4////;",
"01442099999","2010-01-05T18:00:00","4","58.6666666","7.8","211.0","BYGLANDSFJORD, NO","FM-12","99999","V020","350,1,N,0050,1","22000,1,9,N","075000,1,N,1","-0096,1","-0137,1","10105,1","12,0000,9,1",,,"0,1,06,1","0,1,06,1","00,1,+99999,9,99,9","00,99,1,00,1,00,1,99999,9,00,1,00,1",,"120,M,-0082,1","99999,9,09842,1","2,1,011,1,+999,9",,"02,1","SYN088AAXX  05181 01442 11989 03505 11096 21137 39842 40105 52011 60002 70200 333 11082 4////;","Q01  00002PRCP12"
"01442099999","2010-01-06T03:00:00","4","58.6666666","7.8","211.0","BYGLANDSFJORD, NO","FM-12","99999","V020","350,1,N,0070,1","22000,1,9,N","075000,1,N,1","-0116,1","-0179,1","10119,1",,,,"0,1,03,1","0,1,03,1","00,1,+99999,9,99,9","00,99,1,00,1,00,1,99999,9,00,1,00,1",,,"99999,9,09855,1","1,1,005,1,+999,9",,"02,1","SYN076AAXX  06031 01442 41989 03507 11116 21179 39855 40119 51005 70200 333 4////;",
"01442099999","2010-01-06T06:00:00","4","58.6666666","7.8","211.0","BYGLANDSFJORD, NO","FM-12","99999","V020","350,1,N,0070,1","22000,1,9,N","075000,1,N,1","-0122,1","-0181,1","10120,1","12,0000,9,1","24,0000,9,1","0031,9,1,999999,9,9","0,1,06,1","0,1,06,1","00,1,+99999,9,99,9","00,99,1,00,1,00,1,99999,9,00,1,00,1","28,9","999,N,-0122,1","99999,9,09855,1","4,1,000,1,+999,9",,"02,1","SYN094AAXX  06061 01442 11989 03507 11122 21181 39855 40120 54000 60002 70200 333 21122 44031 70000;","Q01  00002PRCP24Q02  00002PRCP12"
"01442099999","2010-01-06T09:00:00","4","58.6666666","7.8","211.0","BYGLANDSFJORD, NO","FM-12","99999","V020","350,1,N,0070,1","22000,1,9,N","075000,1,N,1","-0118,1","-0181,1","10128,1",,,,"0,1,03,1","0,1,03,1",,"01,99,1,01,1,00,1,02250,1,03,1,00,1",,,"99999,9,09862,1","3,1,008,1,+999,9",,"02,1","SYN082AAXX  06091 01442 41889 13507 11118 21181 39862 40128 53008 70200 81030 333 4////;",
"01442099999","2010-01-06T12:00:00","4","58.6666666","7.8","211.0","BYGLANDSFJORD, NO","FM-12","99999","V020","340,1,N,0070,1","22000,1,9,N","075000,1,N,1","-0104,1","-0166,1","10126,1",,,,"0,1,06,1","0,1,06,1",,"01,99,1,01,1,00,1,02250,1,03,1,01,1",,,"99999,9,09862,1","8,1,001,1,+999,9",,"02,1","SYN088AAXX  06121 01442 11889 13407 11104 21166 39862 40126 58001 6//// 70200 81031 333 4////;",
"01442099999","2010-01-06T15:00:00","4","58.6666666","7.8","211.0","BYGLANDSFJORD, NO","FM-12","99999","V020","340,1,N,0070,1","22000,1,9,N","075000,1,N,1","-0107,1","-0185,1","10127,1",,,,"0,1,03,1","0,1,03,1",,"01,99,1,00,1,00,1,99999,9,00,1,02,1",,,"99999,9,09862,1","3,1,001,1,+999,9",,"02,1","SYN082AAXX  06151 01442 41989 13407 11107 21185 39862 40127 53001 70200 80002 333 4////;",
"01442099999","2010-01-06T18:00:00","4","58.6666666","7.8","211.0","BYGLANDSFJORD, NO","FM-12","99999","V020","340,1,N,0070,1","22000,1,9,N","075000,1,N,1","-0111,1","-0178,1","10135,1","12,0000,9,1",,,"0,1,06,1","0,1,06,1",,"01,99,1,00,1,00,1,99999,9,00,1,02,1",,"120,M,-0103,1","99999,9,09870,1","2,1,007,1,+999,9",,"02,1","SYN094AAXX  06181 01442 11989 13407 11111 21178 39870 40135 52007 60002 70200 80002 333 11103 4////;","Q01  00002PRCP12"
"01442099999","2010-01-07T03:00:00","4","58.6666666","7.8","211.0","BYGLANDSFJORD, NO","FM-12","99999","V020","010,1,N,0050,1","22000,1,9,N","075000,1,N,1","-0136,1","-0178,1","10151,1",,,,"0,1,03,1","0,1,03,1",,"01,99,1,00,1,00,1,99999,9,00,1,02,1",,,"99999,9,09885,1","2,1,005,1,+999,9",,"02,1","SYN082AAXX  07031 01442 41989 10105 11136 21178 39885 40151 52005 70200 80002 333 4////;",
"01442099999","2010-01-07T06:00:00","4","58.6666666","7.8","211.0","BYGLANDSFJORD, NO","FM-12","99999","V020","340,1,N,0070,1","22000,1,9,N","075000,1,N,1","-0152,1","-0189,1","10155,1","12,0000,9,1","24,0000,9,1","0030,9,1,999999,9,9","0,1,06,1","0,1,06,1","00,1,+99999,9,99,9","00,99,1,00,1,00,1,99999,9,00,1,00,1","28,9","999,N,-0152,1","99999,9,09888,1","2,1,004,1,+999,9",,"02,1","SYN094AAXX  07061 01442 11989 03407 11152 21189 39888 40155 52004 60002 70200 333 21152 44030 70000;","Q01  00002PRCP24Q02  00002PRCP12"
"01442099999","2010-01-07T09:00:00","4","58.6666666","7.8","211.0","BYGLANDSFJORD, NO","FM-12","99999","V020","340,1,N,0070,1","22000,1,9,N","075000,1,N,1","-0157,1","-0193,1","10173,1",,,,"0,1,03,1","0,1,03,1","00,1,+99999,9,99,9","00,99,1,00,1,00,1,99999,9,00,1,00,1",,,"99999,9,09906,1","3,1,017,1,+999,9",,"02,1","SYN076AAXX  07091 01442 41989 03407 11157 21193 39906 40173 53017 70200 333 4////;",
"01442099999","2010-01-07T18:00:00","4","58.6666666","7.8","211.0","BYGLANDSFJORD, NO","FM-12","99999","V020","340,1,N,0050,1","22000,1,9,N","075000,1,N,1","-0139,1","-0182,1","10104,1","12,0000,9,1",,,"0,1,06,1","0,1,06,1","00,1,+99999,9,99,9","00,99,1,00,1,00,1,99999,9,00,1,00,1",,"120,M,-0125,1","99999,9,09838,1","3,1,020,1,+999,9",,"02,1","SYN088AAXX  07181 01442 11989 03405 11139 21182 39838 40104 53020 60002 70200 333 11125 4////;","Q01  00002PRCP12"
"01442099999","2010-01-08T03:00:00","4","58.6666666","7.8","211.0","BYGLANDSFJORD, NO","FM-12","99999","V020","350,1,N,0070,1","22000,1,9,N","075000,1,N,1","-0154,1","-0181,1","10265,1",,,,"0,1,03,1","0,1,03,1",,"01,99,1,01,1,01,1,00800,1,00,1,00,1",,,"99999,9,09996,1","2,1,015,1,+999,9",,"02,1","SYN082AAXX  08031 01442 41589 13507 11154 21181 39996 40265 52015 70200 81100 333 4////;",
"01442099999","2010-01-08T06:00:00","4","58.6666666","7.8","211.0","BYGLANDSFJORD, NO","FM-12","99999","V020","340,1,N,0050,1","01500,1,9,N","075000,1,N,1","-0157,1","-0182,1","10281,1","12,0000,9,1","24,0000,9,1","0030,9,1,999999,9,9","1,1,06,1","0,1,06,1",,"06,99,1,06,1,00,1,01750,1,03,1,00,1","28,9","999,N,-0157,1","99999,9,10011,1","2,1,015,1,+999,9",,"03,1","SYN100AAXX  08061 01442 11789 63405 11157 21182 30011 40281 52015 60002 70310 86030 333 21157 44030 70000;","Q01  00002PRCP24Q02  00002PRCP12"
"01442099999","2010-01-08T09:00:00","4","58.6666666","7.8","211.0","BYGLANDSFJORD, NO","FM-12","99999","V020","340,1,N,0050,1","01500,1,9,N","075000,1,N,1","-0160,1","-0186,1","10307,1",,,,"2,1,03,1","2,1,03,1",,"05,99,1,05,1,00,1,01750,1,03,1,00,1",,,"99999,9,10036,1","3,1,025,1,+999,9",,"01,1","SYN082AAXX  08091 01442 41789 53405 11160 21186 30036 40307 53025 70122 85030 333 4////;",
"01442099999","2010-01-08T12:00:00","4","58.6666666","7.8","211.0","BYGLANDSFJORD, NO","FM-12","99999","V020","330,1,N,0050,1","22000,1,9,N","075000,1,N,1","-0145,1","-0180,1","10321,1",,,,"1,1,06,1","0,1,06,1","00,1,+99999,9,99,9","00,99,1,00,1,00,1,99999,9,00,1,00,1",,,"99999,9,10050,1","1,1,014,1,+999,9",,"02,1","SYN082AAXX  08121 01442 11989 03305 11145 21180 30050 40321 51014 6//// 70210 333 4////;",
"01442099999","2010-01-08T15:00:00","4","58.6666666","7.8","211.0","BYGLANDSFJORD, NO","FM-12","99999","V020","330,1,N,0050,1","22000,1,9,N","075000,1,N,1","-0151,1","-0185,1","10329,1",,,,"0,1,03,1","0,1,03,1","00,1,+99999,9,99,9","00,99,1,00,1,00,1,99999,9,00,1,00,1",,,"99999,9,10057,1","2,1,008,1,+999,9",,"02,1","SYN076AAXX  08151 01442 41989 03305 11151 21185 30057 40329 52008 70200 333 4////;",
"01442099999","2010-01-08T18:00:00","4","58.6666666","7.8","211.0","BYGLANDSFJORD, NO","FM-12","99999","V020","340,1,N,0050,1","22000,1,9,N","075000,1,N,1","-0156,1","-0190,1","10349,1","12,0000,9,1",,,"0,1,06,1","0,1,06,1","00,1,+99999,9,99,9","00,99,1,00,1,00,1,99999,9,00,1,00,1",,"120,M,-0142,1","99999,9,10077,1","3,1,019,1,+999,9",,"02,1","SYN088AAXX  08181 01442 11989 03405 11156 21190 30077 40349 53019 60002 70200 333 11142 4////;","Q01  00002PRCP12"
"01442099999","2010-01-09T03:00:00","4","58.6666666","7.8","211.0","BYGLANDSFJORD, NO","FM-12","99999","V020","330,1,N,0070,1","22000,1,9,N","075000,1,N,1","-0172,1","-0205,1","10381,1",,,,"0,1,03,1","0,1,03,1","00,1,+99999,9,99,9","00,99,1,00,1,00,1,99999,9,00,1,00,1",,,"99999,9,10107,1","3,1,005,1,+999,9",,"02,1","SYN076AAXX  09031 01442 41989 03307 11172 21205 30107 40381 53005 70200 333 4////;",
"01442099999","2010-01-09T06:00:00","4","58.6666666","7.8","211.0","BYGLANDSFJORD, NO","FM-12","99999","V020","330,1,N,0070,1","22000,1,9,N","075000,1,N,1","-0171,1","-0204,1","10391,1","12,0000,9,1","24,0000,9,1","0030,9,1,999999,9,9","0,1,06,1","0,1,06,1","00,1,+99999,9,99,9","00,99,1,00,1,00,1,99999,9,00,1,00,1","28,9","999,N,-0173,1","99999,9,10117,1","2,1,010,1,+999,9",,"02,1","SYN094AAXX  09061 01442 11989 03307 11171 21204 30117 40391 52010 60002 70200 333 21173 44030 70000;","Q01  00002PRCP24Q02  00002PRCP12"
"01442099999","2010-01-09T09:00:00","4","58.6666666","7.8","211.0","BYGLANDSFJORD, NO","FM-12","99999","V020","340,1,N,0070,1","22000,1,9,N","075000,1,N,1","-0167,1","-0203,1","10403,1",,,,"0,1,03,1","0,1,03,1","00,1,+99999,9,99,9","00,99,1,00,1,00,1,99999,9,00,1,00,1",,,"99999,9,10130,1","2,1,012,1,+999,9",,"02,1","SYN076AAXX  09091 01442 41989 03407 11167 21203 30130 40403 52012 70200 333 4////;",
"01442099999","2010-01-09T12:00:00","4","58.6666666","7.8","211.0","BYGLANDSFJORD, NO","FM-12","99999","V020","340,1,N,0070,1","22000,1,9,N","075000,1,N,1","-0140,1","-0190,1","10401,1",,,,"0,1,06,1","0,1,06,1","00,1,+99999,9,99,9","00,99,1,00,1,00,1,99999,9,00,1,00,1",,,"99999,9,10128,1","6,1,001,1,+999,9",,"02,1","SYN082AAXX  09121 01442 11989 03407 11140 21190 30128 40401 56001 6//// 70200 333 4////;",
"01442099999","2010-01-09T15:00:00","4","58.6666666","7.8","211.0","BYGLANDSFJORD, NO","FM-12","99999","V020","340,1,N,0070,1","22000,1,9,N","075000,1,N,1","-0132,1","-0180,1","10392,1",,,,"0,1,03,1","0,1,03,1","00,1,+99999,9,99,9","00,99,1,00,1,00,1,99999,9,00,1,00,1",,,"99999,9,10120,1","8,1,009,1,+999,9",,"02,1","SYN076AAXX  09151 01442 41989 03407 11132 21180 30120 40392 58009 70200 333 4////;",
"01442099999","2010-01-09T18:00:00","4","58.6666666","7.8","211.0","BYGLANDSFJORD, NO","FM-12","99999","V020","340,1,N,0070,1","22000,1,9,N","075000,1,N,1","-0125,1","-0170,1","10397,1","12,0000,9,1",,,"0,1,06,1","0,1,06,1","00,1,+99999,9,99,9","00,99,1,00,1,00,1,99999,9,00,1,00,1",,"120,M,-0125,1","99999,9,10125,1","1,1,005,1,+999,9",,"02,1","SYN088AAXX  09181 01442 11989 03407 11125 21170 30125 40397 51005 60002 70200 333 11125 4////;","Q01  00002PRCP12"
"01442099999","2010-01-10T03:00:00","4","58.6666666","7.8","211.0","BYGLANDSFJORD, NO","FM-12","99999","V020","330,1,N,0070,1","22000,1,9,N","075000,1,N,1","-0114,1","-0168,1","10386,1",,,,"0,1,03,1","0,1,03,1","00,1,+99999,9,99,9","00,99,1,00,1,00,1,99999,9,00,1,00,1",,,"99999,9,10115,1","6,1,005,1,+999,9",,"02,1","SYN076AAXX  10031 01442 41989 03307 11114 21168 30115 40386 56005 70200 333 4////;",
"01442099999","2010-01-10T06:00:00","4","58.6666666","7.8","211.0","BYGLANDSFJORD, NO","FM-12","99999","V020","330,1,N,0070,1","22000,1,9,N","075000,1,N,1","-0113,1","-0167,1","10379,1","12,0000,9,1","24,0000,9,1","0029,9,1,999999,9,9","0,1,06,1","0,1,06,1","00,1,+99999,9,99,9","00,99,1,00,1,00,1,99999,9,00,1,00,1","28,9","999,N,-0138,1","99999,9,10107,1","8,1,007,1,+999,9",,"02,1","SYN094AAXX  10061 01442 11989 03307 11113 21167 30107 40379 58007 60002 70200 333 21138 44029 70000;","Q01  00002PRCP24Q02  00002PRCP12"
"01442099999","2010-01-10T09:00:00","4","58.6666666","7.8","211.0","BYGLANDSFJORD, NO","FM-12","99999","V020","330,1,N,0070,1","22000,1,9,N","075000,1,N,1","-0117,1","-0169,1","10379,1",,,,"0,1,03,1","0,1,03,1","00,1,+99999,9,99,9","00,99,1,00,1,00,1,99999,9,00,1,00,1",,,"99999,9,10107,1","4,1,000,1,+999,9",,"02,1","SYN076AAXX  10091 01442 41989 03307 11117 21169 30107 40379 54000 70200 333 4////;",
"01442099999","2010-01-10T12:00:00","4","58.6666666","7.8","211.0","BYGLANDSFJORD, NO","FM-12","99999","V020","320,1,N,0070,1","22000,1,9,N","075000,1,N,1","-0094,1","-0154,1","10375,1",,,,"0,1,06,1","0,1,06,1","00,1,+99999,9,99,9","00,99,1,00,1,00,1,99999,9,00,1,00,1",,,"99999,9,10105,1","6,1,003,1,+999,9",,"02,1","SYN082AAXX  10121 01442 11989 03207 11094 21154 30105 40375 56003 6//// 70200 333 4////;",
"01442099999","2010-01-10T15:00:00","4","58.6666666","7.8","211.0","BYGLANDSFJORD, NO","FM-12","99999","V020","340,1,N,0070,1","22000,1,9,N","075000,1,N,1","-0092,1","-0149,1","10365,1",,,,"0,1,03,1","0,1,03,1","00,1,+99999,9,99,9","00,99,1,00,1,00,1,99999,9,00,1,00,1",,,"99999,9,10095,1","6,1,010,1,+999,9",,"02,1","SYN076AAXX  10151 01442 41989 03407 11092 21149 30095 40365 56010 70200 333 4////;",
"01442099999","2010-01-10T18:00:00","4","58.6666666","7.8","211.0","BYGLANDSFJORD, NO","FM-12","99999","V020","340,1,N,0070,1","22000,1,9,N","075000,1,N,1","-0098,1","-0147,1","10361,1","12,0000,9,1",,,"0,1,06,1","0,1,06,1","00,1,+99999,9,99,9","00,99,1,00,1,00,1,99999,9,00,1,00,1",,"120,M,-0091,1","99999,9,10091,1","6,1,004,1,+999,9",,"02,1","SYN088AAXX  10181 01442 11989 03407 11098 21147 30091 40361 56004 60002 70200 333 11091 4////;","Q01  00002PRCP12"
"01442099999","2010-01-11T03:00:00","4","58.6666666","7.8","211.0","BYGLANDSFJORD, NO","FM-12","99999","V020","340,1,N,0070,1","22000,1,9,N","075000,1,N,1","-0105,1","-0149,1","10345,1",,,,"0,1,03,1","0,1,03,1","00,1,+99999,9,99,9","00,99,1,00,1,00,1,99999,9,00,1,00,1",,,"99999,9,10075,1","8,1,010,1,+999,9",,"02,1","SYN076AAXX  11031 01442 41989 03407 11105 21149 30075 40345 58010 70200 333 4////;",
"01442099999","2010-01-11T06:00:00","4","58.6666666","7.8","211.0","BYGLANDSFJORD, NO","FM-12","99999","V020","340,1,N,0050,1","22000,1,9,N","075000,1,N,1","-0105,1","-0149,1","10335,1","12,0000,9,1","24,0000,9,1","0029,9,1,999999,9,9","0,1,06,1","0,1,06,1","00,1,+99999,9,99,9","00,99,1,00,1,00,1,99999,9,00,1,00,1","28,9","999,N,-0105,1","99999,9,10065,1","7,1,010,1,+999,9",,"02,1","SYN094AAXX  11061 01442 11989 03405 11105 21149 30065 40335 57010 60002 70200 333 21105 44029 70000;","Q01  00002PRCP24Q02  00002PRCP12"
"01442099999","2010-01-11T09:00:00","4","58.6666666","7.8","211.0","BYGLANDSFJORD, NO","FM-12","99999","V020","340,1,N,0070,1","22000,1,9,N","075000,1,N,1","-0103,1","-0151,1","10334,1",,,,"0,1,03,1","0,1,03,1","00,1,+99999,9,99,9","00,99,1,00,1,00,1,99999,9,00,1,00,1",,,"99999,9,10063,1","6,1,001,1,+999,9",,"02,1","SYN076AAXX  11091 01442 41989 03407 11103 21151 30063 40334 56001 70200 333 4////;",
"01442099999","2010-01-11T12:00:00","4","58.6666666","7.8","211.0","BYGLANDSFJORD, NO","FM-12","99999","V020","340,1,N,0070,1","22000,1,9,N","075000,1,N,1","-0083,1","-0142,1","10326,1",,,,"0,1,06,1","0,1,06,1","00,1,+99999,9,99,9","00,99,1,00,1,00,1,99999,9,00,1,00,1",,,"99999,9,10057,1","8,1,007,1,+999,9",,"02,1","SYN082AAXX  11121 01442 11989 03407 11083 21142 30057 40326 58007 6//// 70200 333 4////;",
"01442099999","2010-01-11T15:00:00","4","58.6666666","7.8","211.0","BYGLANDSFJORD, NO","FM-12","99999","V020","330,1,N,0070,1","22000,1,9,N","075000,1,N,1","-0076,1","-0137,1","10311,1",,,,"0,1,03,1","0,1,03,1","00,1,+99999,9,99,9","00,99,1,00,1,00,1,99999,9,00,1,00,1",,,"99999,9,10042,1","7,1,014,1,+999,9",,"02,1","SYN076AAXX  11151 01442 41989 03307 11076 21137 30042 40311 57014 70200 333 4////;",
"01442099999","2010-01-11T18:00:00","4","58.6666666","7.8","211.0","BYGLANDSFJORD, NO","FM-12","99999","V020","340,1,N,0070,1","00750,1,9,N","075000,1,N,1","-0070,1","-0115,1","10307,1","12,0000,9,1",,,"1,1,06,1","0,1,06,1",,"08,99,1,08,1,05,1,00800,1,99,9,99,9",,"120,M,-0070,1","99999,9,10038,1","6,1,004,1,+999,9",,"03,1","SYN094AAXX  11181 01442 11589 83407 11070 21115 30038 40307 56004 60002 70310 885// 333 11070 4////;","Q01  00002PRCP12"
"01442099999","2010-01-12T03:00:00","4","58.6666666","7.8","211.0","BYGLANDSFJORD, NO","FM-12","99999","V020","350,1,N,0050,1","00750,1,9,N","075000,1,N,1","-0027,1","-0050,1","10284,1",,,,"2,1,03,1","2,1,03,1",,"08,99,1,08,1,05,1,00800,1,99,9,99,9",,,"99999,9,10017,1","8,1,010,1,+999,9",,"02,1","SYN082AAXX  12031 01442 41589 83505 11027 21050 30017 40284 58010 70222 885// 333 4////;",
"01442099999","2010-01-12T06:00:00","4","58.6666666","7.8","211.0","BYGLANDSFJORD, NO","FM-12","99999","V020","340,1,N,0050,1","00750,1,9,N","075000,1,N,1","-0019,1","-0041,1","10275,1","12,0000,9,1","24,0000,9,1","0028,9,1,999999,9,9","2,1,06,1","2,1,06,1",,"08,99,1,08,1,05,1,00800,1,99,9,99,9","28,9","999,N,-0069,1","99999,9,10010,1","7,1,008,1,+999,9",,"02,1","SYN100AAXX  12061 01442 11589 83405 11019 21041 30010 40275 57008 60002 70222 885// 333 21069 44028 70000;","Q01  00002PRCP24Q02  00002PRCP12"
"01442099999","2010-01-12T09:00:00","4","58.6666666","7.8","211.0","BYGLANDSFJORD, NO","FM-12","99999","V020","350,1,N,0050,1","00750,1,9,N","075000,1,N,1","-0010,1","-0032,1","10271,1",,,,"2,1,03,1","2,1,03,1",,"08,99,1,08,1,05,1,00800,1,99,9,99,9",,,"99999,9,10006,1","6,1,004,1,+999,9",,"02,1","SYN082AAXX  12091 01442 41589 83505 11010 21032 30006 40271 56004 70222 885// 333 4////;",
"01442099999","2010-01-12T12:00:00","4","58.6666666","7.8","211.0","BYGLANDSFJORD, NO","FM-12","99999","V020","310,1,N,0050,1","00750,1,9,N","075000,1,N,1","+0012,1","-0019,1","10261,1",,,,"2,1,06,1","2,1,06,1",,"07,99,1,07,1,05,1,00800,1,00,1,00,1",,,"99999,9,09997,1","6,1,009,1,+999,9",,"01,1","SYN088AAXX  12121 01442 11589 73105 10012 21019 39997 40261 56009 6//// 70122 87500 333 4////;",
"01442099999","2010-01-12T15:00:00","4","58.6666666","7.8","211.0","BYGLANDSFJORD, NO","FM-12","99999","V020","350,1,N,0050,1","00750,1,9,N","075000,1,N,1","+0012,1","-0027,1","10244,1",,,,"2,1,03,1","2,1,03,1",,"07,99,1,07,1,05,1,00800,1,00,1,00,1",,,"99999,9,09980,1","8,1,017,1,+999,9",,"02,1","SYN082AAXX  12151 01442 41589 73505 10012 21027 39980 40244 58017 70222 87500 333 4////;",
"01442099999","2010-01-12T18:00:00","4","58.6666666","7.8","211.0","BYGLANDSFJORD, NO","FM-12","99999","V020","350,1,N,0050,1","00750,1,9,N","075000,1,N,1","+0002,1","-0030,1","10242,1","12,0000,9,1",,,"2,1,06,1","2,1,06,1",,"08,99,1,08,1,05,1,00800,1,99,9,99,9",,"120,M,+0016,1","99999,9,09977,1","6,1,002,1,+999,9",,"02,1","SYN094AAXX  12181 01442 11589 83505 10002 21030 39977 40242 56002 60002 70222 885// 333 10016 4////;","Q01  00002PRCP12"
"01442099999","2010-01-13T03:00:00","4","58.6666666","7.8","211.0","BYGLANDSFJORD, NO","FM-12","99999","V020","020,1,N,0070,1","00750,1,9,N","075000,1,N,1","+0006,1","-0033,1","10211,1",,,,"2,1,03,1","2,1,03,1",,"08,99,1,08,1,05,1,00800,1,99,9,99,9",,,"99999,9,09947,1","8,1,018,1,+999,9",,"02,1","SYN082AAXX  13031 01442 41589 80207 10006 21033 39947 40211 58018 70222 885// 333 4////;",
"01442099999","2010-01-13T06:00:00","4","58.6666666","7.8","211.0","BYGLANDSFJORD, NO","FM-12","99999","V020","350,1,N,0050,1","00750,1,9,N","075000,1,N,1","+0011,1","-0035,1","10208,1","12,0000,9,1","24,0000,9,1","0028,9,1,999999,9,9","2,1,06,1","2,1,06,1",,"08,99,1,08,1,05,1,00800,1,99,9,99,9","28,9","999,N,-0009,1","99999,9,09945,1","6,1,003,1,+999,9",,"02,1","SYN100AAXX  13061 01442 11589 83505 10011 21035 39945 40208 56003 60002 70222 885// 333 21009 44028 70000;","Q01  00002PRCP24Q02  00002PRCP12"
"01442099999","2010-01-13T09:00:00","4","58.6666666","7.8","211.0","BYGLANDSFJORD, NO","FM-12","99999","V020","350,1,N,0100,1","00750,1,9,N","075000,1,N,1","+0009,1","-0060,1","10208,1",,,,"2,1,03,1","2,1,03,1",,"07,99,1,07,1,05,1,00800,1,00,1,00,1",,,"99999,9,09945,1","4,1,000,1,+999,9",,"01,1","SYN082AAXX  13091 01442 41589 73510 10009 21060 39945 40208 54000 70122 87500 333 4////;",
"01442099999","2010-01-13T12:00:00","4","58.6666666","7.8","211.0","BYGLANDSFJORD, NO","FM-12","99999","V020","340,1,N,0070,1","22000,1,9,N","075000,1,N,1","+0011,1","-0049,1","10206,1",,,,"2,1,06,1","1,1,06,1","00,1,+99999,9,99,9","00,99,1,00,1,00,1,99999,9,00,1,00,1",,,"99999,9,09942,1","8,1,002,1,+999,9",,"01,1","SYN082AAXX  13121 01442 11989 03407 10011 21049 39942 40206 58002 6//// 70121 333 4////;",
"01442099999","2010-01-13T15:00:00","4","58.6666666","7.8","211.0","BYGLANDSFJORD, NO","FM-12","99999","V020","350,1,N,0070,1","22000,1,9,N","075000,1,N,1","-0001,1","-0060,1","10194,1",,,,"0,1,03,1","0,1,03,1","00,1,+99999,9,99,9","00,99,1,00,1,00,1,99999,9,00,1,00,1",,,"99999,9,09931,1","7,1,012,1,+999,9",,"02,1","SYN076AAXX  13151 01442 41989 03507 11001 21060 39931 40194 57012 70200 333 4////;",
"01442099999","2010-01-13T18:00:00","4","58.6666666","7.8","211.0","BYGLANDSFJORD, NO","FM-12","99999","V020","050,1,N,0070,1","22000,1,9,N","075000,1,N,1","-0019,1","-0051,1","10191,1","12,0000,9,1",,,"0,1,06,1","0,1,06,1","00,1,+99999,9,99,9","00,99,1,00,1,00,1,99999,9,00,1,00,1",,"120,M,+0015,1","99999,9,09927,1","6,1,003,1,+999,9",,"02,1","SYN088AAXX  13181 01442 11989 00507 11019 21051 39927 40191 56003 60002 70200 333 10015 4////;","Q01  00002PRCP12"
"01442099999","2010-01-14T03:00:00","4","58.6666666","7.8","211.0","BYGLANDSFJORD, NO","FM-12","99999","V020","280,1,N,0030,1","00750,1,9,N","075000,1,N,1","-0035,1","-0057,1","10187,1",,,,"2,1,03,1","2,1,03,1",,"08,99,1,08,1,05,1,00800,1,99,9,99,9",,,"99999,9,09922,1","4,1,000,1,+999,9",,"02,1","SYN082AAXX  14031 01442 41589 82803 11035 21057 39922 40187 54000 70222 885// 333 4////;",
"01442099999","2010-01-14T06:00:00","4","58.6666666","7.8","211.0","BYGLANDSFJORD, NO","FM-12","99999","V020","350,1,N,0030,1","00750,1,9,N","075000,1,N,1","-0036,1","-0054,1","10178,1","12,0000,9,1","24,0000,9,1","0028,9,1,999999,9,9","2,1,06,1","2,1,06,1",,"08,99,1,08,1,05,1,00800,1,99,9,99,9","28,9","999,N,-0036,1","99999,9,09915,1","8,1,008,1,+999,9",,"02,1","SYN100AAXX  14061 01442 11589 83503 11036 21054 39915 40178 58008 60002 70222 885// 333 21036 44028 70000;","Q01  00002PRCP24Q02  00002PRCP12"
"01442099999","2010-01-14T09:00:00","4","58.6666666","7.8","211.0","BYGLANDSFJORD, NO","FM-12","99999","V020","340,1,N,0050,1","00210,1,9,N","075000,1,N,1","-0047,1","-0066,1","10197,1",,,,"2,1,03,1","2,1,03,1",,"08,99,1,08,1,06,1,00250,1,99,9,99,9",,,"99999,9,09932,1","3,1,018,1,+999,9",,"03,1","SYN082AAXX  14091 01442 41389 83405 11047 21066 39932 40197 53018 70322 886// 333 4////;",
"01442099999","2010-01-14T12:00:00","4","58.6666666","7.8","211.0","BYGLANDSFJORD, NO","FM-12","99999","V020","340,1,N,0050,1","00210,1,9,N","030000,1,N,1","-0054,1","-0070,1","10204,1",,,,"7,1,06,1","2,1,06,1",,"08,99,1,08,1,06,1,00250,1,99,9,99,9",,,"99999,9,09938,1","1,1,006,1,+999,9",,"70,1","SYN088AAXX  14121 01442 11380 83405 11054 21070 39938 40204 51006 6//// 77072 886// 333 4////;",
"01442099999","2010-01-14T15:00:00","4","58.6666666","7.8","211.0","BYGLANDSFJORD, NO","FM-12","99999","V020","350,1,N,0050,1","00420,1,9,N","075000,1,N,1","-0050,1","-0072,1","10204,1",,,,"7,1,03,1","2,1,03,1",,"08,99,1,08,1,06,1,00450,1,99,9,99,9",,,"99999,9,09938,1","4,1,000,1,+999,9",,"22,1","SYN082AAXX  14151 01442 41489 83505 11050 21072 39938 40204 54000 72272 886// 333 4////;",
"01442099999","2010-01-14T18:00:00","4","58.6666666","7.8","211.0","BYGLANDSFJORD, NO","FM-12","99999","V020","350,1,N,0050,1","00420,1,9,N","075000,1,N,1","-0054,1","-0081,1","10216,1","12,0000,2,1",,,"7,1,06,1","2,1,06,1",,"08,99,1,08,1,06,1,00450,1,99,9,99,9",,"120,M,-0035,1","99999,9,09951,1","3,1,012,1,+999,9",,"02,1","SYN094AAXX  14181 01442 11489 83505 11054 21081 39951 40216 53012 69902 70272 886// 333 11035 4////;",
"01442099999","2010-01-15T03:00:00","4","58.6666666","7.8","211.0","BYGLANDSFJORD, NO","FM-12","99999","V020","350,1,N,0050,1","00420,1,9,N","075000,1,N,1","-0046,1","-0072,1","10243,1",,,,"2,1,03,1","2,1,03,1",,"08,99,1,08,1,06,1,00450,1,99,9,99,9",,,"99999,9,09977,1","1,1,005,1,+999,9",,"02,1","SYN082AAXX  15031 01442 41489 83505 11046 21072 39977 40243 51005 70222 886// 333 4////;",
"01442099999","2010-01-15T06:00:00","4","58.6666666","7.8","211.0","BYGLANDSFJORD, NO","FM-12","99999","V020","340,1,N,0050,1","00420,1,9,N","075000,1,N,1","-0038,1","-0064,1","10247,1","12,0000,9,1","24,0000,2,1","0028,9,1,999999,9,9","2,1,06,1","2,1,06,1",,"08,99,1,08,1,06,1,00450,1,99,9,99,9","28,9","999,N,-0054,1","99999,9,09982,1","1,1,004,1,+999,9",,"02,1","SYN100AAXX  15061 01442 11489 83405 11038 21064 39982 40247 51004 60002 70222 886// 333 21054 44028 70000;","Q01  00002PRCP12"
"01442099999","2010-01-15T09:00:00","4","58.6666666","7.8","211.0","BYGLANDSFJORD, NO","FM-12","99999","V020","340,1,N,0050,1","00750,1,9,N","075000,1,N,1","-0035,1","-0061,1","10263,1",,,,"2,1,03,1","2,1,03,1",,"08,99,1,08,1,05,1,00800,1,99,9,99,9",,,"99999,9,09997,1","3,1,015,1,+999,9",,"02,1","SYN082AAXX  15091 01442 41589 83405 11035 21061 39997 40263 53015 70222 885// 333 4////;",
"01442099999","2010-01-15T12:00:00","4","58.6666666","7.8","211.0","BYGLANDSFJORD, NO","FM-12","99999","V020","330,1,N,0050,1","00750,1,9,N","075000,1,N,1","-0032,1","-0055,1","10270,1",,,,"7,1,06,1","2,1,06,1",,"08,99,1,08,1,05,1,00800,1,99,9,99,9",,,"99999,9,10003,1","2,1,007,1,+999,9",,"22,1","SYN088AAXX  15121 01442 11589 83305 11032 21055 30003 40270 52007 6//// 72272 885// 333 4////;",
"01442099999","2010-01-15T15:00:00","4","58.6666666","7.8","211.0","BYGLANDSFJORD, NO","FM-12","99999","V020","120,1,N,0100,1","00420,1,9,N","060000,1,N,1","-0032,1","-0051,1","10270,1",,,,"2,1,03,1","2,1,03,1",,"08,99,1,08,1,05,1,00450,1,99,9,99,9",,,"99999,9,10003,1","5,1,000,1,+999,9",,"02,1","SYN082AAXX  15151 01442 41486 81210 11032 21051 30003 40270 55000 70222 885// 333 4////;",
"01442099999","2010-01-15T18:00:00","4","58.6666666","7.8","211.0","BYGLANDSFJORD, NO","FM-12","99999","V020","120,1,N,0100,1","00420,1,9,N","040000,1,N,1","-0034,1","-0049,1","10286,1","12,0000,2,1",,,"7,1,06,1","2,1,06,1",,"08,99,1,08,1,05,1,00450,1,99,9,99,9",,"120,M,-0029,1","99999,9,10020,1","3,1,016,1,+999,9",,"70,1","SYN094AAXX  15181 01442 11482 81210 11034 21049 30020 40286 53016 69902 77072 885// 333 11029 4////;",
"01442099999","2010-01-16T03:00:00","4","58.6666666","7.8","211.0","BYGLANDSFJORD, NO","FM-12","99999","V020","290,1,N,0030,1","00420,1,9,N","030000,1,N,1","-0025,1","-0037,1","10289,1",,,,"7,1,03,1","2,1,03,1",,"08,99,1,08,1,06,1,00450,1,99,9,99,9",,,"99999,9,10022,1","4,1,000,1,+999,9",,"70,1","SYN082AAXX  16031 01442 41480 82903 11025 21037 30022 40289 54000 77072 886// 333 4////;",
"01442099999","2010-01-16T06:00:00","4","58.6666666","7.8","211.0","BYGLANDSFJORD, NO","FM-12","99999","V020","170,1,N,0030,1","00420,1,9,N","070000,1,N,1","-0014,1","-0031,1","10277,1","12,0003,9,1","24,0003,9,1","0028,9,1,999999,9,9","7,1,06,1","2,1,06,1",,"08,99,1,08,1,06,1,00450,1,99,9,99,9","28,9","999,N,-0033,1","99999,9,10012,1","8,1,011,1,+999,9",,"02,1","SYN100AAXX  16061 01442 11488 81703 11014 21031 30012 40277 58011 69932 70272 886// 333 21033 44028 70003;",
"01442099999","2010-01-16T09:00:00","4","58.6666666","7.8","211.0","BYGLANDSFJORD, NO","FM-12","99999","V020","170,1,N,0050,1","00420,1,9,N","040000,1,N,1","-0015,1","-0036,1","10274,1",,,,"7,1,03,1","2,1,03,1",,"08,99,1,08,1,06,1,00450,1,99,9,99,9",,,"99999,9,10008,1","6,1,003,1,+999,9",,"77,1","SYN082AAXX  16091 01442 41482 81705 11015 21036 30008 40274 56003 77772 886// 333 4////;",
"01442099999","2010-01-16T12:00:00","4","58.6666666","7.8","211.0","BYGLANDSFJORD, NO","FM-12","99999","V020","170,1,N,0050,1","00210,1,9,N","020000,1,N,1","-0017,1","-0035,1","10261,1",,,,"7,1,06,1","2,1,06,1",,"08,99,1,08,1,06,1,00250,1,99,9,99,9",,,"99999,9,09996,1","8,1,013,1,+999,9",,"77,1","SYN088AAXX  16121 01442 11370 81705 11017 21035 39996 40261 58013 6//// 77772 886// 333 4////;",
"01442099999","2010-01-16T15:00:00","4","58.6666666","7.8","211.0","BYGLANDSFJORD, NO","FM-12","99999","V020","120,1,N,0030,1","00210,1,9,N","015000,1,N,1","-0020,1","-0041,1","10239,1",,,,"7,1,03,1","7,1,03,1",,"08,99,1,08,1,06,1,00250,1,99,9,99,9",,,"99999,9,09973,1","7,1,022,1,+999,9",,"77,1","SYN082AAXX  16151 01442 41365 81203 11020 21041 39973 40239 57022 77777 886// 333 4////;",
"01442099999","2010-01-16T18:00:00","4","58.6666666","7.8","211.0","BYGLANDSFJORD, NO","FM-12","99999","V020","350,1,N,0030,1","00210,1,9,N","010000,1,N,1","-0025,1","-0041,1","10226,1","12,0020,9,1",,,"7,1,06,1","7,1,06,1",,"08,99,1,08,1,06,1,00250,1,99,9,99,9",,"120,M,-0012,1","99999,9,09962,1","7,1,012,1,+999,9",,"71,1","SYN094AAXX  16181 01442 11360 83503 11025 21041 39962 40226 57012 60022 77177 886// 333 11012 4////;",
"01442099999","2010-01-17T03:00:00","4","58.6666666","7.8","211.0","BYGLANDSFJORD, NO","FM-12","99999","V020","350,1,N,0050,1","00240,1,9,N","005000,1,N,1","-0025,1","-0048,1","10181,1",,,,"7,1,03,1","7,1,03,1","09,1,+99999,9,99,9","09,99,1,09,1,99,9,99999,9,99,9,99,9",,,"99999,9,09917,1","6,1,010,1,+999,9",,"71,1","SYN076AAXX  17031 01442 41/50 93505 11025 21048 39917 40181 56010 77177 333 4////;",
"01442099999","2010-01-17T06:00:00","4","58.6666666","7.8","211.0","BYGLANDSFJORD, NO","FM-12","99999","V020","020,1,N,0070,1","00210,1,9,N","010000,1,N,1","-0031,1","-0052,1","10180,1","12,0020,9,1","24,0036,9,1","0030,9,1,999999,9,9","7,1,06,1","7,1,06,1",,"08,99,1,08,1,06,1,00250,1,99,9,99,9","24,9","999,N,-0031,1","99999,9,09917,1","6,1,001,1,+999,9",,"71,1","SYN100AAXX  17061 01442 11360 80207 11031 21052 39917 40180 56001 60022 77177 886// 333 21031 48030 70035;",
"01442099999","2010-01-17T09:00:00","4","58.6666666","7.8","211.0","BYGLANDSFJORD, NO","FM-12","99999","V020","290,1,N,0050,1","00750,1,9,N","015000,1,N,1","-0033,1","-0055,1","10185,1",,,,"7,1,03,1","7,1,03,1",,"08,99,1,08,1,05,1,00800,1,99,9,99,9",,,"99999,9,09921,1","1,1,004,1,+999,9",,"71,1","SYN082AAXX  17091 01442 41565 82905 11033 21055 39921 40185 51004 77177 885// 333 4////;",
"01442099999","2010-01-17T12:00:00","4","58.6666666","7.8","211.0","BYGLANDSFJORD, NO","FM-12","99999","V020","340,1,N,0050,1","00750,1,9,N","025000,1,N,1","-0025,1","-0050,1","10185,1",,,,"7,1,06,1","7,1,06,1",,"08,99,1,08,1,05,1,00800,1,99,9,99,9",,,"99999,9,09922,1","1,1,001,1,+999,9",,"71,1","SYN088AAXX  17121 01442 11575 83405 11025 21050 39922 40185 51001 6//// 77177 885// 333 4////;",
"01442099999","2010-01-17T15:00:00","4","58.6666666","7.8","211.0","BYGLANDSFJORD, NO","FM-12","99999","V020","330,1,N,0050,1","00750,1,9,N","015000,1,N,1","-0019,1","-0040,1","10189,1",,,,"7,1,03,1","7,1,03,1",,"08,99,1,08,1,05,1,00800,1,99,9,99,9",,,"99999,9,09926,1","1,1,004,1,+999,9",,"71,1","SYN082AAXX  17151 01442 41565 83305 11019 21040 39926 40189 51004 77177 885// 333 4////;",
"01442099999","2010-01-17T18:00:00","4","58.6666666","7.8","211.0","BYGLANDSFJORD, NO","FM-12","99999","V020","310,1,N,0030,1","00750,1,9,N","020000,1,N,1","-0019,1","-0043,1","10201,1","12,0020,9,1",,,"7,1,06,1","7,1,06,1",,"08,99,1,08,1,05,1,00800,1,99,9,99,9",,"120,M,-0016,1","99999,9,09937,1","3,1,011,1,+999,9",,"71,1","SYN094AAXX  17181 01442 11570 83103 11019 21043 39937 40201 53011 60022 77177 885// 333 11016 4////;",
"01442099999","2010-01-18T03:00:00","4","58.6666666","7.8","211.0","BYGLANDSFJORD, NO","FM-12","99999","V020","310,1,N,0030,1","00750,1,9,N","020000,1,N,1","-0032,1","-0054,1","10219,1",,,,"7,1,03,1","7,1,03,1",,"08,99,1,08,1,05,1,00800,1,99,9,99,9",,,"99999,9,09955,1","2,1,005,1,+999,9",,"71,1","SYN082AAXX  18031 01442 41570 83103 11032 21054 39955 40219 52005 77177 885// 333 4////;",
"01442099999","2010-01-18T06:00:00","4","58.6666666","7.8","211.0","BYGLANDSFJORD, NO","FM-12","99999","V020","320,1,N,0030,1","00750,1,9,N","025000,1,N,1","-0034,1","-0054,1","10223,1","12,0008,9,1","24,0023,9,1","0032,9,1,999999,9,9","7,1,06,1","2,1,06,1",,"08,99,1,08,1,05,1,00800,1,99,9,99,9","24,9","999,N,-0034,1","99999,9,09957,1","1,1,003,1,+999,9",,"70,1","SYN100AAXX  18061 01442 11575 83203 11034 21054 39957 40223 51003 69972 77072 885// 333 21034 48032 70022;",
"01442099999","2010-01-18T09:00:00","4","58.6666666","7.8","211.0","BYGLANDSFJORD, NO","FM-12","99999","V020","320,1,N,0030,1","00750,1,9,N","075000,1,N,1","-0033,1","-0053,1","10229,1",,,,"7,1,03,1","2,1,03,1",,"08,99,1,08,1,05,1,00800,1,99,9,99,9",,,"99999,9,09963,1","3,1,006,1,+999,9",,"02,1","SYN082AAXX  18091 01442 41589 83203 11033 21053 39963 40229 53006 70272 885// 333 4////;",
"01442099999","2010-01-18T12:00:00","4","58.6666666","7.8","211.0","BYGLANDSFJORD, NO","FM-12","99999","V020","330,1,N,0030,1","00750,1,9,N","075000,1,N,1","-0027,1","-0050,1","10225,1",,,,"7,1,06,1","2,1,06,1",,"07,99,1,07,1,05,1,00800,1,00,1,00,1",,,"99999,9,09961,1","8,1,003,1,+999,9",,"22,1","SYN088AAXX  18121 01442 11589 73303 11027 21050 39961 40225 58003 6//// 72272 87500 333 4////;",
"01442099999","2010-01-18T15:00:00","4","58.6666666","7.8","211.0","BYGLANDSFJORD, NO","FM-12","99999","V020","340,1,N,0030,1","00750,1,9,N","075000,1,N,1","-0026,1","-0048,1","10226,1",,,,"7,1,03,1","2,1,03,1",,"08,99,1,08,1,05,1,00800,1,99,9,99,9",,,"99999,9,09962,1","1,1,001,1,+999,9",,"22,1","SYN082AAXX  18151 01442 41589 83403 11026 21048 39962 40226 51001 72272 885// 333 4////;",
"01442099999","2010-01-18T18:00:00","4","58.6666666","7.8","211.0","BYGLANDSFJORD, NO","FM-12","99999","V020","999,9,C,0000,1","00750,1,9,N","075000,1,N,1","-0047,1","-0063,1","10238,1","12,0000,2,1",,,"7,1,06,1","2,1,06,1",,"07,99,1,07,1,05,1,00800,1,00,1,00,1",,"120,M,-0025,1","99999,9,09972,1","3,1,011,1,+999,9",,"01,1","SYN094AAXX  18181 01442 11589 70000 11047 21063 39972 40238 53011 69902 70172 87500 333 11025 4////;",
"01442099999","2010-01-19T03:00:00","4","58.6666666","7.8","211.0","BYGLANDSFJORD, NO","FM-12","99999","V020","330,1,N,0030,1","00750,1,9,N","075000,1,N,1","-0037,1","-0059,1","10270,1",,,,"2,1,03,1","2,1,03,1",,"08,99,1,08,1,05,1,00800,1,99,9,99,9",,,"99999,9,10003,1","2,1,010,1,+999,9",,"02,1","SYN082AAXX  19031 01442 41589 83303 11037 21059 30003 40270 52010 70222 885// 333 4////;",
"01442099999","2010-01-19T06:00:00","4","58.6666666","7.8","211.0","BYGLANDSFJORD, NO","FM-12","99999","V020","340,1,N,0030,1","00750,1,9,N","075000,1,N,1","-0033,1","-0058,1","10274,1","12,0000,9,1","24,0000,2,1","0031,9,1,999999,9,9","2,1,06,1","2,1,06,1",,"08,99,1,08,1,05,1,00800,1,99,9,99,9","24,9","999,N,-0049,1","99999,9,10007,1","1,1,004,1,+999,9",,"02,1","SYN100AAXX  19061 01442 11589 83403 11033 21058 30007 40274 51004 60002 70222 885// 333 21049 48031 70000;","Q01  00002PRCP12"
"01442099999","2010-01-19T09:00:00","4","58.6666666","7.8","211.0","BYGLANDSFJORD, NO","FM-12","99999","V020","350,1,N,0050,1","01200,1,9,N","075000,1,N,1","-0035,1","-0058,1","10285,1",,,,"2,1,03,1","2,1,03,1",,"07,99,1,07,1,05,1,01250,1,00,1,00,1",,,"99999,9,10018,1","3,1,011,1,+999,9",,"01,1","SYN082AAXX  19091 01442 41689 73505 11035 21058 30018 40285 53011 70122 87500 333 4////;",
"01442099999","2010-01-19T12:00:00","4","58.6666666","7.8","211.0","BYGLANDSFJORD, NO","FM-12","99999","V020","330,1,N,0050,1","01500,1,9,N","075000,1,N,1","-0025,1","-0060,1","10291,1",,,,"2,1,06,1","1,1,06,1",,"07,99,1,07,1,00,1,01750,1,07,1,00,1",,,"99999,9,10025,1","1,1,006,1,+999,9",,"03,1","SYN088AAXX  19121 01442 11789 73305 11025 21060 30025 40291 51006 6//// 70321 87070 333 4////;",
"01442099999","2010-01-19T15:00:00","4","58.6666666","7.8","211.0","BYGLANDSFJORD, NO","FM-12","99999","V020","340,1,N,0030,1","01500,1,9,N","075000,1,N,1","-0024,1","-0058,1","10295,1",,,,"2,1,03,1","2,1,03,1",,"08,99,1,08,1,00,1,01750,1,07,1,99,9",,,"99999,9,10028,1","1,1,004,1,+999,9",,"03,1","SYN082AAXX  19151 01442 41789 83403 11024 21058 30028 40295 51004 70322 8807/ 333 4////;",
"01442099999","2010-01-19T18:00:00","4","58.6666666","7.8","211.0","BYGLANDSFJORD, NO","FM-12","99999","V020","340,1,N,0030,1","22000,1,9,N","075000,1,N,1","-0043,1","-0066,1","10305,1","12,0000,9,1",,,"2,1,06,1","1,1,06,1",,"01,99,1,01,1,00,1,01750,1,03,1,00,1",,"120,M,-0022,1","99999,9,10037,1","2,1,009,1,+999,9",,"01,1","SYN094AAXX  19181 01442 11789 13403 11043 21066 30037 40305 52009 60002 70121 81030 333 11022 4////;","Q01  00002PRCP12"
"01442099999","2010-01-20T03:00:00","4","58.6666666","7.8","211.0","BYGLANDSFJORD, NO","FM-12","99999","V020","010,1,N,0050,1","00750,1,9,N","075000,1,N,1","-0023,1","-0058,1","10297,1",,,,"2,1,03,1","2,1,03,1",,"08,99,1,08,1,05,1,00800,1,99,9,99,9",,,"99999,9,10031,1","8,1,005,1,+999,9",,"02,1","SYN082AAXX  20031 01442 41589 80105 11023 21058 30031 40297 58005 70222 885// 333 4////;",
"01442099999","2010-01-20T06:00:00","4","58.6666666","7.8","211.0","BYGLANDSFJORD, NO","FM-12","99999","V020","030,1,N,0050,1","00750,1,9,N","030000,1,N,1","-0024,1","-0058,1","10294,1","12,9999,9,9","24,9999,9,9","0031,9,1,999999,9,9","7,1,06,1","2,1,06,1",,"08,99,1,08,1,05,1,00800,1,99,9,99,9","24,9","999,N,-0046,1","99999,9,10027,1","6,1,003,1,+999,9",,"70,1","SYN100AAXX  20061 01442 11580 80305 11024 21058 30027 40294 56003 69902 77072 885// 333 21046 48031 70000;","Q01  00002PRCP24Q02  00002PRCP12Q03  00002PRCP12Q04  00002PRCP24"
"01442099999","2010-01-20T09:00:00","4","58.6666666","7.8","211.0","BYGLANDSFJORD, NO","FM-12","99999","V020","030,1,N,0050,1","00750,1,9,N","005000,1,N,1","-0027,1","-0055,1","10293,1",,,,"7,1,03,1","7,1,03,1",,"08,99,1,08,1,05,1,00800,1,99,9,99,9",,,"99999,9,10027,1","6,1,001,1,+999,9",,"71,1","SYN082AAXX  20091 01442 41550 80305 11027 21055 30027 40293 56001 77177 885// 333 4////;",
"01442099999","2010-01-20T12:00:00","4","58.6666666","7.8","211.0","BYGLANDSFJORD, NO","FM-12","99999","V020","040,1,N,0050,1","00750,1,9,N","006000,1,N,1","-0030,1","-0059,1","10289,1",,,,"7,1,06,1","7,1,06,1",,"08,99,1,08,1,05,1,00800,1,99,9,99,9",,,"99999,9,10022,1","8,1,004,1,+999,9",,"71,1","SYN088AAXX  20121 01442 11556 80405 11030 21059 30022 40289 58004 6//// 77177 885// 333 4////;",
"01442099999","2010-01-20T15:00:00","4","58.6666666","7.8","211.0","BYGLANDSFJORD, NO","FM-12","99999","V020","020,1,N,0030,1","00750,1,9,N","015000,1,N,1","-0032,1","-0066,1","10282,1",,,,"7,1,03,1","7,1,03,1",,"08,99,1,08,1,05,1,00800,1,99,9,99,9",,,"99999,9,10016,1","7,1,007,1,+999,9",,"71,1","SYN082AAXX  20151 01442 41565 80203 11032 21066 30016 40282 57007 77177 885// 333 4////;",
"01442099999","2010-01-20T18:00:00","4","58.6666666","7.8","211.0","BYGLANDSFJORD, NO","FM-12","99999","V020","080,1,N,0030,1","00750,1,9,N","015000,1,N,1","-0035,1","-0057,1","10283,1","12,0008,9,1",,,"7,1,06,1","2,1,06,1",,"08,99,1,08,1,05,1,00800,1,99,9,99,9",,"120,M,-0022,1","99999,9,10017,1","1,1,001,1,+999,9",,"70,1","SYN094AAXX  20181 01442 11565 80803 11035 21057 30017 40283 51001 69982 77072 885// 333 11022 4////;",
"01442099999","2010-01-21T03:00:00","4","58.6666666","7.8","211.0","BYGLANDSFJORD, NO","FM-12","99999","V020","030,1,N,0030,1","00240,1,9,N","003000,1,N,1","-0037,1","-0060,1","10302,1",,,,"7,1,03,1","2,1,03,1","09,1,+99999,9,99,9","09,99,1,09,1,99,9,99999,9,99,9,99,9",,,"99999,9,10035,1","2,1,005,1,+999,9",,"70,1","SYN076AAXX  21031 01442 41/30 90303 11037 21060 30035 40302 52005 77072 333 4////;",
"01442099999","2010-01-21T06:00:00","4","58.6666666","7.8","211.0","BYGLANDSFJORD, NO","FM-12","99999","V020","020,1,N,0030,1","00750,1,9,N","015000,1,N,1","-0037,1","-0063,1","10308,1","12,0008,9,1","24,0015,9,1","0033,9,1,999999,9,9","7,1,06,1","2,1,06,1",,"08,99,1,08,1,05,1,00800,1,99,9,99,9","24,9","999,N,-0038,1","99999,9,10041,1","2,1,006,1,+999,9",,"70,1","SYN100AAXX  21061 01442 11565 80203 11037 21063 30041 40308 52006 69982 77072 885// 333 21038 48033 70016;",
"01442099999","2010-01-21T09:00:00","4","58.6666666","7.8","211.0","BYGLANDSFJORD, NO","FM-12","99999","V020","020,1,N,0050,1","00750,1,9,N","075000,1,N,1","-0034,1","-0063,1","10318,1",,,,"7,1,03,1","2,1,03,1",,"07,99,1,07,1,05,1,00800,1,00,1,00,1",,,"99999,9,10051,1","2,1,010,1,+999,9",,"02,1","SYN082AAXX  21091 01442 41589 70205 11034 21063 30051 40318 52010 70272 87500 333 4////;",
"01442099999","2010-01-21T12:00:00","4","58.6666666","7.8","211.0","BYGLANDSFJORD, NO","FM-12","99999","V020","010,1,N,0050,1","00750,1,9,N","075000,1,N,1","-0029,1","-0063,1","10327,1",,,,"7,1,06,1","2,1,06,1",,"08,99,1,08,1,05,1,00800,1,99,9,99,9",,,"99999,9,10060,1","1,1,009,1,+999,9",,"02,1","SYN088AAXX  21121 01442 11589 80105 11029 21063 30060 40327 51009 6//// 70272 885// 333 4////;",
"01442099999","2010-01-21T15:00:00","4","58.6666666","7.8","211.0","BYGLANDSFJORD, NO","FM-12","99999","V020","340,1,N,0050,1","00750,1,9,N","075000,1,N,1","-0027,1","-0049,1","10326,1",,,,"2,1,03,1","2,1,03,1",,"08,99,1,08,1,05,1,00800,1,99,9,99,9",,,"99999,9,10058,1","6,1,001,1,+999,9",,"02,1","SYN082AAXX  21151 01442 41589 83405 11027 21049 30058 40326 56001 70222 885// 333 4////;",
"01442099999","2010-01-21T18:00:00","4","58.6666666","7.8","211.0","BYGLANDSFJORD, NO","FM-12","99999","V020","350,1,N,0030,1","00750,1,9,N","020000,1,N,1","-0022,1","-0040,1","10332,1","12,0000,2,1",,,"7,1,06,1","2,1,06,1",,"08,99,1,08,1,05,1,00800,1,99,9,99,9",,"120,M,-0021,1","99999,9,10065,1","3,1,006,1,+999,9",,"70,1","SYN094AAXX  21181 01442 11570 83503 11022 21040 30065 40332 53006 69902 77072 885// 333 11021 4////;",
"01442099999","2010-01-22T03:00:00","4","58.6666666","7.8","211.0","BYGLANDSFJORD, NO","FM-12","99999","V020","350,1,N,0030,1","00750,1,9,N","010000,1,N,1","-0033,1","-0062,1","10335,1",,,,"7,1,03,1","2,1,03,1",,"08,99,1,08,1,05,1,00800,1,99,9,99,9",,,"99999,9,10067,1","4,1,000,1,+999,9",,"70,1","SYN082AAXX  22031 01442 41560 83503 11033 21062 30067 40335 54000 77072 885// 333 4////;",
"01442099999","2010-01-22T06:00:00","4","58.6666666","7.8","211.0","BYGLANDSFJORD, NO","FM-12","99999","V020","340,1,N,0030,1","00750,1,9,N","010000,1,N,1","-0041,1","-0071,1","10337,1","12,0003,9,1","24,0003,9,1","0032,9,1,999999,9,9","7,1,06,1","2,1,06,1",,"08,99,1,08,1,05,1,00800,1,99,9,99,9","24,9","999,N,-0041,1","99999,9,10068,1","1,1,001,1,+999,9",,"70,1","SYN100AAXX  22061 01442 11560 83403 11041 21071 30068 40337 51001 69932 77072 885// 333 21041 48032 70003;",
"01442099999","2010-01-22T09:00:00","4","58.6666666","7.8","211.0","BYGLANDSFJORD, NO","FM-12","99999","V020","340,1,N,0030,1","00750,1,9,N","075000,1,N,1","-0050,1","-0074,1","10345,1",,,,"7,1,03,1","2,1,03,1",,"07,99,1,07,1,05,1,00800,1,00,1,00,1",,,"99999,9,10077,1","3,1,008,1,+999,9",,"22,1","SYN082AAXX  22091 01442 41589 73403 11050 21074 30077 40345 53008 72272 87500 333 4////;",
"01442099999","2010-01-22T12:00:00","4","58.6666666","7.8","211.0","BYGLANDSFJORD, NO","FM-12","99999","V020","350,1,N,0050,1","00750,1,9,N","010000,1,N,1","-0044,1","-0067,1","10340,1",,,,"7,1,06,1","2,1,06,1",,"08,99,1,08,1,05,1,00800,1,99,9,99,9",,,"99999,9,10072,1","8,1,005,1,+999,9",,"70,1","SYN088AAXX  22121 01442 11560 83505 11044 21067 30072 40340 58005 6//// 77072 885// 333 4////;",
"01442099999","2010-01-22T15:00:00","4","58.6666666","7.8","211.0","BYGLANDSFJORD, NO","FM-12","99999","V020","050,1,N,0100,1","00750,1,9,N","020000,1,N,1","-0036,1","-0065,1","10332,1",,,,"7,1,03,1","3,1,03,1",,"08,99,1,08,1,05,1,00800,1,99,9,99,9",,,"99999,9,10065,1","6,1,007,1,+999,9",,"70,1","SYN082AAXX  22151 01442 41570 80510 11036 21065 30065 40332 56007 77073 885// 333 4////;",
"01442099999","2010-01-22T18:00:00","4","58.6666666","7.8","211.0","BYGLANDSFJORD, NO","FM-12","99999","V020","060,1,N,0100,1","00750,1,9,N","075000,1,N,1","-0034,1","-0057,1","10335,1","12,0008,9,1",,,"7,1,06,1","3,1,06,1",,"08,99,1,08,1,05,1,00800,1,99,9,99,9",,"120,M,-0034,1","99999,9,10067,1","1,1,003,1,+999,9",,"22,1","SYN094AAXX  22181 01442 11589 80610 11034 21057 30067 40335 51003 69972 72273 885// 333 11034 4////;",
"01442099999","2010-01-23T03:00:00","4","58.6666666","7.8","211.0","BYGLANDSFJORD, NO","FM-12","99999","V020","060,1,N,0070,1","00750,1,9,N","020000,1,N,1","-0031,1","-0049,1","10330,1",,,,"7,1,03,1","2,1,03,1",,"08,99,1,08,1,05,1,00800,1,99,9,99,9",,,"99999,9,10062,1","8,1,005,1,+999,9",,"70,1","SYN082AAXX  23031 01442 41570 80607 11031 21049 30062 40330 58005 77072 885// 333 4////;",
"01442099999","2010-01-23T06:00:00","4","58.6666666","7.8","211.0","BYGLANDSFJORD, NO","FM-12","99999","V020","350,1,N,0070,1","00750,1,9,N","075000,1,N,1","-0034,1","-0050,1","10327,1","12,0000,2,1","24,0010,9,1","0032,9,1,999999,9,9","7,1,06,1","2,1,06,1",,"08,99,1,08,1,05,1,00800,1,99,9,99,9","24,9","999,N,-0034,1","99999,9,10060,1","6,1,003,1,+999,9",,"02,1","SYN100AAXX  23061 01442 11589 83507 11034 21050 30060 40327 56003 69922 70272 885// 333 21034 48032 70009;",
"01442099999","2010-01-23T09:00:00","4","58.6666666","7.8","211.0","BYGLANDSFJORD, NO","FM-12","99999","V020","030,1,N,0050,1","00750,1,9,N","010000,1,N,1","-0034,1","-0056,1","10333,1",,,,"7,1,03,1","2,1,03,1",,"08,99,1,08,1,05,1,00800,1,99,9,99,9",,,"99999,9,10066,1","3,1,006,1,+999,9",,"70,1","SYN082AAXX  23091 01442 41560 80305 11034 21056 30066 40333 53006 77072 885// 333 4////;",
"01442099999","2010-01-23T12:00:00","4","58.6666666","7.8","211.0","BYGLANDSFJORD, NO","FM-12","99999","V020","040,1,N,0070,1","00750,1,9,N","050000,1,N,1","-0030,1","-0055,1","10334,1",,,,"7,1,06,1","2,1,06,1",,"08,99,1,08,1,05,1,00800,1,99,9,99,9",,,"99999,9,10067,1","1,1,001,1,+999,9",,"70,1","SYN088AAXX  23121 01442 11584 80407 11030 21055 30067 40334 51001 6//// 77072 885// 333 4////;",
"01442099999","2010-01-23T15:00:00","4","58.6666666","7.8","211.0","BYGLANDSFJORD, NO","FM-12","99999","V020","070,1,N,0050,1","00420,1,9,N","040000,1,N,1","-0033,1","-0051,1","10339,1",,,,"7,1,03,1","2,1,03,1",,"08,99,1,08,1,05,1,00450,1,99,9,99,9",,,"99999,9,10071,1","1,1,004,1,+999,9",,"70,1","SYN082AAXX  23151 01442 41482 80705 11033 21051 30071 40339 51004 77072 885// 333 4////;",
"01442099999","2010-01-23T18:00:00","4","58.6666666","7.8","211.0","BYGLANDSFJORD, NO","FM-12","99999","V020","010,1,N,0050,1","00750,1,9,N","070000,1,N,1","-0032,1","-0058,1","10345,1","12,0005,9,1",,,"7,1,06,1","2,1,06,1",,"08,99,1,08,1,05,1,00800,1,99,9,99,9",,"120,M,-0028,1","99999,9,10077,1","3,1,006,1,+999,9",,"02,1","SYN094AAXX  23181 01442 11588 80105 11032 21058 30077 40345 53006 69942 70272 885// 333 11028 4////;",
"01442099999","2010-01-24T03:00:00","4","58.6666666","7.8","211.0","BYGLANDSFJORD, NO","FM-12","99999","V020","350,1,N,0050,1","00750,1,9,N","075000,1,N,1","-0042,1","-0074,1","10362,1",,,,"2,1,03,1","2,1,03,1",,"08,99,1,08,1,05,1,00800,1,99,9,99,9",,,"99999,9,10093,1","4,1,000,1,+999,9",,"02,1","SYN082AAXX  24031 01442 41589 83505 11042 21074 30093 40362 54000 70222 885// 333 4////;",
"01442099999","2010-01-24T06:00:00","4","58.6666666","7.8","211.0","BYGLANDSFJORD, NO","FM-12","99999","V020","340,1,N,0030,1","00750,1,9,N","075000,1,N,1","-0046,1","-0079,1","10364,1","12,0000,9,1","24,0005,9,1","0032,9,1,999999,9,9","2,1,06,1","2,1,06,1",,"08,99,1,08,1,05,1,00800,1,99,9,99,9","24,9","999,N,-0046,1","99999,9,10095,1","1,1,001,1,+999,9",,"02,1","SYN100AAXX  24061 01442 11589 83403 11046 21079 30095 40364 51001 60002 70222 885// 333 21046 48032 70004;","Q01  00002PRCP12"
"01442099999","2010-01-24T09:00:00","4","58.6666666","7.8","211.0","BYGLANDSFJORD, NO","FM-12","99999","V020","020,1,N,0050,1","00750,1,9,N","070000,1,N,1","-0056,1","-0089,1","10370,1",,,,"2,1,03,1","2,1,03,1",,"08,99,1,08,1,05,1,00800,1,99,9,99,9",,,"99999,9,10101,1","3,1,006,1,+999,9",,"02,1","SYN082AAXX  24091 01442 41588 80205 11056 21089 30101 40370 53006 70222 885// 333 4////;",
"01442099999","2010-01-24T12:00:00","4","58.6666666","7.8","211.0","BYGLANDSFJORD, NO","FM-12","99999","V020","120,1,N,0050,1","00750,1,9,N","070000,1,N,1","-0058,1","-0096,1","10371,1",,,,"7,1,06,1","2,1,06,1",,"08,99,1,08,1,05,1,00800,1,99,9,99,9",,,"99999,9,10102,1","1,1,001,1,+999,9",,"22,1","SYN088AAXX  24121 01442 11588 81205 11058 21096 30102 40371 51001 6//// 72272 885// 333 4////;",
"01442099999","2010-01-24T15:00:00","4","58.6666666","7.8","211.0","BYGLANDSFJORD, NO","FM-12","99999","V020","030,1,N,0030,1","00750,1,9,N","070000,1,N,1","-0058,1","-0094,1","10366,1",,,,"7,1,03,1","2,1,03,1",,"08,99,1,08,1,05,1,00800,1,99,9,99,9",,,"99999,9,10097,1","6,1,005,1,+999,9",,"78,1","SYN082AAXX  24151 01442 41588 80303 11058 21094 30097 40366 56005 77872 885// 333 4////;",
"01442099999","2010-01-24T18:00:00","4","58.6666666","7.8","211.0","BYGLANDSFJORD, NO","FM-12","99999","V020","350,1,N,0030,1","00750,1,9,N","070000,1,N,1","-0062,1","-0100,1","10372,1","12,0000,2,1",,,"7,1,06,1","2,1,06,1",,"08,99,1,08,1,05,1,00800,1,99,9,99,9",,"120,M,-0043,1","99999,9,10102,1","3,1,006,1,+999,9",,"02,1","SYN094AAXX  24181 01442 11588 83503 11062 21100 30102 40372 53006 69902 70272 885// 333 11043 4////;",
"01442099999","2010-01-25T03:00:00","4","58.6666666","7.8","211.0","BYGLANDSFJORD, NO","FM-12","99999","V020","330,1,N,0050,1","00750,1,9,N","075000,1,N,1","-0077,1","-0111,1","10388,1",,,,"2,1,03,1","2,1,03,1",,"08,99,1,08,1,05,1,00800,1,99,9,99,9",,,"99999,9,10117,1","3,1,005,1,+999,9",,"02,1","SYN082AAXX  25031 01442 41589 83305 11077 21111 30117 40388 53005 70222 885// 333 4////;",
"01442099999","2010-01-25T06:00:00","4","58.6666666","7.8","211.0","BYGLANDSFJORD, NO","FM-12","99999","V020","330,1,N,0030,1","22000,1,9,N","075000,1,N,1","-0097,1","-0125,1","10390,1","12,0000,9,1","24,0000,2,1","0031,9,1,999999,9,9","2,1,06,1","1,1,06,1","00,1,+99999,9,99,9","00,99,1,00,1,00,1,99999,9,00,1,00,1","24,9","999,N,-0097,1","99999,9,10118,1","1,1,001,1,+999,9",,"01,1","SYN094AAXX  25061 01442 11989 03303 11097 21125 30118 40390 51001 60002 70121 333 21097 48031 70000;","Q01  00002PRCP12"
"01442099999","2010-01-25T09:00:00","4","58.6666666","7.8","211.0","BYGLANDSFJORD, NO","FM-12","99999","V020","320,1,N,0050,1","01500,1,9,N","075000,1,N,1","-0110,1","-0136,1","10408,1",,,,"1,1,03,1","1,1,03,1",,"07,99,1,07,1,00,1,01750,1,03,1,00,1",,,"99999,9,10136,1","1,1,017,1,+999,9",,"03,1","SYN082AAXX  25091 01442 41789 73205 11110 21136 30136 40408 51017 70311 87030 333 4////;",
"01442099999","2010-01-25T12:00:00","4","58.6666666","7.8","211.0","BYGLANDSFJORD, NO","FM-12","99999","V020","330,1,N,0050,1","22000,1,9,N","075000,1,N,1","-0092,1","-0132,1","10409,1",,,,"1,1,06,1","1,1,06,1",,"01,99,1,01,1,00,1,02250,1,03,1,01,1",,,"99999,9,10137,1","1,1,002,1,+999,9",,"01,1","SYN088AAXX  25121 01442 11889 13305 11092 21132 30137 40409 51002 6//// 70111 81031 333 4////;",
"01442099999","2010-01-25T15:00:00","4","58.6666666","7.8","211.0","BYGLANDSFJORD, NO","FM-12","99999","V020","310,1,N,0030,1","22000,1,9,N","075000,1,N,1","-0096,1","-0133,1","10405,1",,,,"0,1,03,1","0,1,03,1","00,1,+99999,9,99,9","00,99,1,00,1,00,1,99999,9,00,1,00,1",,,"99999,9,10133,1","6,1,004,1,+999,9",,"02,1","SYN076AAXX  25151 01442 41989 03103 11096 21133 30133 40405 56004 70200 333 4////;",
"01442099999","2010-01-25T18:00:00","4","58.6666666","7.8","211.0","BYGLANDSFJORD, NO","FM-12","99999","V020","350,1,N,0050,1","22000,1,9,N","075000,1,N,1","-0109,1","-0137,1","10415,1","12,0000,9,1",,,"0,1,06,1","0,1,06,1","00,1,+99999,9,99,9","00,99,1,00,1,00,1,99999,9,00,1,00,1",,"120,M,-0089,1","99999,9,10142,1","3,1,009,1,+999,9",,"02,1","SYN088AAXX  25181 01442 11989 03505 11109 21137 30142 40415 53009 60002 70200 333 11089 4////;","Q01  00002PRCP12"
"01442099999","2010-01-26T03:00:00","4","58.6666666","7.8","211.0","BYGLANDSFJORD, NO","FM-12","99999","V020","340,1,N,0050,1","22000,1,9,N","075000,1,N,1","-0109,1","-0130,1","10425,1",,,,"0,1,03,1","0,1,03,1",,"01,99,1,00,1,00,1,99999,9,00,1,01,1",,,"99999,9,10152,1","8,1,005,1,+999,9",,"02,1","SYN082AAXX  26031 01442 41989 13405 11109 21130 30152 40425 58005 70200 80001 333 4////;",
"01442099999","2010-01-26T06:00:00","4","58.6666666","7.8","211.0","BYGLANDSFJORD, NO","FM-12","99999","V020","340,1,N,0050,1","22000,1,9,N","075000,1,N,1","-0105,1","-0127,1","10431,1","12,0000,9,1","24,0000,9,1","0031,9,1,999999,9,9","0,1,06,1","0,1,06,1",,"01,99,1,00,1,00,1,99999,9,00,1,01,1","24,9","999,N,-0112,1","99999,9,10158,1","1,1,006,1,+999,9",,"02,1","SYN100AAXX  26061 01442 11989 13405 11105 21127 30158 40431 51006 60002 70200 80001 333 21112 48031 70000;","Q01  00002PRCP24Q02  00002PRCP12"
"01442099999","2010-01-26T09:00:00","4","58.6666666","7.8","211.0","BYGLANDSFJORD, NO","FM-12","99999","V020","350,1,N,0050,1","99999,9,9,N","075000,1,N,1","-0099,1","-0121,1","10431,1",,,,"1,1,03,1","0,1,03,1",,"08,99,1,00,1,00,1,99999,9,00,1,07,1",,,"99999,9,10158,1","4,1,000,1,+999,9",,"03,1","SYN082AAXX  26091 01442 41989 83505 11099 21121 30158 40431 54000 70310 80007 333 4////;",
"01442099999","2010-01-26T12:00:00","4","58.6666666","7.8","211.0","BYGLANDSFJORD, NO","FM-12","99999","V020","340,1,N,0050,1","02100,1,9,N","075000,1,N,1","-0082,1","-0113,1","10422,1",,,,"2,1,06,1","1,1,06,1",,"08,99,1,08,1,00,1,02250,1,01,1,99,9",,,"99999,9,10151,1","8,1,008,1,+999,9",,"03,1","SYN088AAXX  26121 01442 11889 83405 11082 21113 30151 40422 58008 6//// 70321 8801/ 333 4////;",
"01442099999","2010-01-26T18:00:00","4","58.6666666","7.8","211.0","BYGLANDSFJORD, NO","FM-12","99999","V020","150,1,N,0030,1","01500,1,9,N","075000,1,N,1","-0070,1","-0097,1","10386,1","12,0000,9,1",,,"2,1,06,1","2,1,06,1",,"08,99,1,99,9,00,1,01750,1,07,1,00,1",,"120,M,-0070,1","99999,9,10116,1","7,1,013,1,+999,9",,"01,1","SYN094AAXX  26181 01442 11789 81503 11070 21097 30116 40386 57013 60002 70122 87070 333 11070 4////;","Q01+000072SCOTLCQ02  00002PRCP12"
"01442099999","2010-01-27T03:00:00","4","58.6666666","7.8","211.0","BYGLANDSFJORD, NO","FM-12","99999","V020","140,1,N,0030,1","00750,1,9,N","075000,1,N,1","-0049,1","-0055,1","10256,1",,,,"7,1,03,1","2,1,03,1",,"08,99,1,08,1,05,1,00800,1,99,9,99,9",,,"99999,9,09990,1","7,1,060,2,+999,9",,"02,1","SYN082AAXX  27031 01442 41589 81403 11049 21055 39990 40256 57060 70272 885// 333 4////;","Q01+000602APC3  "
"01442099999","2010-01-27T06:00:00","4","58.6666666","7.8","211.0","BYGLANDSFJORD, NO","FM-12","99999","V020","150,1,N,0030,1","00420,1,9,N","020000,1,N,1","-0026,1","-0031,1","10178,1","12,0010,9,1","24,0010,9,1","0032,9,1,999999,9,9","7,1,06,1","2,1,06,1",,"08,99,1,08,1,05,1,00450,1,99,9,99,9","24,9","999,N,-0070,1","99999,9,09915,1","7,1,075,1,+999,9",,"70,1","SYN100AAXX  27061 01442 11470 81503 11026 21031 39915 40178 57075 60012 77072 885// 333 21070 48032 70011;",
"01442099999","2010-01-27T09:00:00","4","58.6666666","7.8","211.0","BYGLANDSFJORD, NO","FM-12","99999","V020","150,1,N,0030,1","00210,1,9,N","070000,1,N,1","+0018,1","+0008,1","10082,1",,,,"7,1,03,1","2,1,03,1",,"08,99,1,08,1,05,1,00250,1,99,9,99,9",,,"99999,9,09822,1","7,1,092,1,+999,9",,"02,1","SYN082AAXX  27091 01442 41388 81503 10018 20008 39822 40082 57092 70272 885// 333 4////;",
"01442099999","2010-01-27T12:00:00","4","58.6666666","7.8","211.0","BYGLANDSFJORD, NO","FM-12","99999","V020","330,1,N,0070,1","03000,1,9,N","075000,1,N,1","+0058,1","+0002,1","10004,1",,,,"7,1,06,1","2,1,06,1",,"06,99,1,03,1,01,1,00800,1,03,1,02,1",,,"99999,9,09750,1","7,1,073,1,+999,9",,"01,1","SYN088AAXX  27121 01442 11589 63307 10058 20002 39750 40004 57073 6//// 70172 83132 333 4////;",
"01442099999","2010-01-27T15:00:00","4","58.6666666","7.8","211.0","BYGLANDSFJORD, NO","FM-12","99999","V020","320,1,N,0120,1","22000,1,9,N","075000,1,N,1","+0039,1","-0031,1","09972,1",,,,"1,1,03,1","0,1,03,1",,"01,99,1,01,1,01,1,01750,1,00,1,00,1",,,"99999,9,09717,1","6,1,032,1,+999,9",,"01,1","SYN082AAXX  27151 01442 41789 13212 10039 21031 39717 49972 56032 70110 81100 333 4////;",
"01442099999","2010-01-27T18:00:00","4","58.6666666","7.8","211.0","BYGLANDSFJORD, NO","FM-12","99999","V020","320,1,N,0070,1","22000,1,9,N","075000,1,N,1","+0017,1","-0059,1","09966,1","12,0000,2,1",,,"1,1,06,1","0,1,06,1",,"01,99,1,01,1,01,1,01250,1,00,1,00,1",,"120,M,+0060,1","99999,9,09710,1","6,1,008,1,+999,9",,"01,1","SYN094AAXX  27181 01442 11689 13207 10017 21059 39710 49966 56008 69902 70110 81100 333 10060 4////;",
"01442099999","2010-01-28T03:00:00","4","58.6666666","7.8","211.0","BYGLANDSFJORD, NO","FM-12","99999","V020","330,1,N,0050,1","22000,1,9,N","075000,1,N,1","-0003,1","-0069,1","09958,1",,,,"0,1,03,1","0,1,03,1","00,1,+99999,9,99,9","00,99,1,00,1,00,1,99999,9,00,1,00,1",,,"99999,9,09701,1","8,1,005,1,+999,9",,"02,1","SYN076AAXX  28031 01442 41989 03305 11003 21069 39701 49958 58005 70200 333 4////;",
"01442099999","2010-01-28T06:00:00","4","58.6666666","7.8","211.0","BYGLANDSFJORD, NO","FM-12","99999","V020","350,1,N,0030,1","22000,1,9,N","075000,1,N,1","-0015,1","-0079,1","09945,1","12,0000,9,1","24,0000,2,1","0028,9,1,999999,9,9","0,1,06,1","0,1,06,1","00,1,+99999,9,99,9","00,99,1,00,1,00,1,99999,9,00,1,00,1","28,9","999,N,-0021,1","99999,9,09687,1","7,1,013,1,+999,9",,"02,1","SYN094AAXX  28061 01442 11989 03503 11015 21079 39687 49945 57013 60002 70200 333 21021 44028 70000;","Q01  00002PRCP12"
"01442099999","2010-01-28T09:00:00","4","58.6666666","7.8","211.0","BYGLANDSFJORD, NO","FM-12","99999","V020","340,1,N,0030,1","22000,1,9,N","075000,1,N,1","-0045,1","-0088,1","09944,1",,,,"0,1,03,1","0,1,03,1","00,1,+99999,9,99,9","00,99,1,00,1,00,1,99999,9,00,1,00,1",,,"99999,9,09686,1","6,1,002,1,+999,9",,"02,1","SYN076AAXX  28091 01442 41989 03403 11045 21088 39686 49944 56002 70200 333 4////;",
"01442099999","2010-01-28T12:00:00","4","58.6666666","7.8","211.0","BYGLANDSFJORD, NO","FM-12","99999","V020","330,1,N,0070,1","22000,1,9,N","075000,1,N,1","+0008,1","-0089,1","09926,1",,,,"0,1,06,1","0,1,06,1",,"01,99,1,01,1,00,1,99999,9,04,1,01,1",,,"99999,9,09670,1","8,1,016,1,+999,9",,"02,1","SYN088AAXX  28121 01442 11989 13307 10008 21089 39670 49926 58016 6//// 70200 81041 333 4////;",
"01442099999","2010-01-28T15:00:00","4","58.6666666","7.8","211.0","BYGLANDSFJORD, NO","FM-12","99999","V020","310,1,N,0050,1","22000,1,9,N","075000,1,N,1","-0008,1","-0074,1","09908,1",,,,"0,1,03,1","0,1,03,1",,"01,99,1,01,1,00,1,99999,9,04,1,00,1",,,"99999,9,09652,1","7,1,018,1,+999,9",,"01,1","SYN082AAXX  28151 01442 41989 13105 11008 21074 39652 49908 57018 70100 81040 333 4////;",
"01442099999","2010-01-28T18:00:00","4","58.6666666","7.8","211.0","BYGLANDSFJORD, NO","FM-12","99999","V020","310,1,N,0050,1","22000,1,9,N","075000,1,N,1","-0023,1","-0088,1","09900,1","12,0000,9,1",,,"0,1,06,1","0,1,06,1","00,1,+99999,9,99,9","00,99,1,00,1,00,1,99999,9,00,1,00,1",,"120,M,+0009,1","99999,9,09643,1","6,1,008,1,+999,9",,"02,1","SYN088AAXX  28181 01442 11989 03105 11023 21088 39643 49900 56008 60002 70200 333 10009 4////;","Q01  00002PRCP12"
"01442099999","2010-01-29T03:00:00","4","58.6666666","7.8","211.0","BYGLANDSFJORD, NO","FM-12","99999","V020","330,1,N,0030,1","22000,1,9,N","075000,1,N,1","-0113,1","-0127,1","09863,1",,,,"0,1,03,1","0,1,03,1","00,1,+99999,9,99,9","00,99,1,00,1,00,1,99999,9,00,1,00,1",,,"99999,9,09605,1","7,1,015,1,+999,9",,"02,1","SYN076AAXX  29031 01442 41989 03303 11113 21127 39605 49863 57015 70200 333 4////;",
"01442099999","2010-01-29T06:00:00","4","58.6666666","7.8","211.0","BYGLANDSFJORD, NO","FM-12","99999","V020","010,1,N,0050,1","00750,1,9,N","075000,1,N,1","-0100,1","-0119,1","09858,1","12,0000,9,1","24,0000,9,1","0028,9,1,999999,9,9","1,1,06,1","0,1,06,1",,"07,99,1,07,1,05,1,00800,1,00,1,00,1","28,9","999,N,-0113,1","99999,9,09601,1","6,1,004,1,+999,9",,"03,1","SYN100AAXX  29061 01442 11589 70105 11100 21119 39601 49858 56004 60002 70310 87500 333 21113 44028 70000;","Q01  00002PRCP24Q02  00002PRCP12"
"01442099999","2010-01-29T09:00:00","4","58.6666666","7.8","211.0","BYGLANDSFJORD, NO","FM-12","99999","V020","350,1,N,0050,1","00750,1,9,N","015000,1,N,1","-0079,1","-0094,1","09857,1",,,,"7,1,03,1","2,1,03,1",,"08,99,1,08,1,05,1,00800,1,99,9,99,9",,,"99999,9,09601,1","4,1,000,1,+999,9",,"70,1","SYN082AAXX  29091 01442 41565 83505 11079 21094 39601 49857 54000 77072 885// 333 4////;",
"01442099999","2010-01-29T12:00:00","4","58.6666666","7.8","211.0","BYGLANDSFJORD, NO","FM-12","99999","V020","340,1,N,0050,1","00750,1,9,N","008000,1,N,1","-0056,1","-0072,1","09864,1",,,,"7,1,06,1","2,1,06,1",,"08,99,1,08,1,05,1,00800,1,99,9,99,9",,,"99999,9,09607,1","1,1,007,1,+999,9",,"71,1","SYN088AAXX  29121 01442 11558 83405 11056 21072 39607 49864 51007 6//// 77172 885// 333 4////;",
"01442099999","2010-01-29T15:00:00","4","58.6666666","7.8","211.0","BYGLANDSFJORD, NO","FM-12","99999","V020","340,1,N,0030,1","07500,1,9,N","070000,1,N,1","-0055,1","-0096,1","09872,1",,,,"7,1,03,1","2,1,03,1",,"07,99,1,02,1,01,1,00800,1,00,1,08,1",,,"99999,9,09616,1","3,1,008,1,+999,9",,"22,1","SYN082AAXX  29151 01442 41588 73403 11055 21096 39616 49872 53008 72272 82108 333 4////;",
"01442099999","2010-01-29T18:00:00","4","58.6666666","7.8","211.0","BYGLANDSFJORD, NO","FM-12","99999","V020","340,1,N,0050,1","22000,1,9,N","075000,1,N,1","-0064,1","-0101,1","09886,1","12,0005,9,1",,,"7,1,06,1","1,1,06,1",,"03,99,1,01,1,01,1,00800,1,00,1,01,1",,"120,M,-0047,1","99999,9,09628,1","2,1,013,1,+999,9",,"01,1","SYN094AAXX  29181 01442 11589 33405 11064 21101 39628 49886 52013 69952 70171 81101 333 11047 4////;",
"01442099999","2010-01-30T03:00:00","4","58.6666666","7.8","211.0","BYGLANDSFJORD, NO","FM-12","99999","V020","999,9,C,0000,1","22000,1,9,N","075000,1,N,1","-0157,1","-0173,1","09913,1",,,,"0,1,03,1","0,1,03,1",,"02,99,1,00,1,00,1,99999,9,00,1,01,1",,,"99999,9,09652,1","1,1,005,1,+999,9",,"02,1","SYN082AAXX  30031 01442 41989 20000 11157 21173 39652 49913 51005 70200 80001 333 4////;",
"01442099999","2010-01-30T06:00:00","4","58.6666666","7.8","211.0","BYGLANDSFJORD, NO","FM-12","99999","V020","999,9,C,0000,1","00750,1,9,N","050000,1,N,1","-0152,1","-0165,1","09918,1","12,9999,9,9","24,0005,9,1","0028,9,1,999999,9,9","1,1,06,1","0,1,06,1",,"08,99,1,08,1,05,1,00800,1,99,9,99,9","28,9","999,N,-0164,1","99999,9,09657,1","1,1,005,1,+999,9",,"70,1","SYN100AAXX  30061 01442 11584 80000 11152 21165 39657 49918 51005 69902 77010 885// 333 21164 44028 70005;","Q01  00002PRCP12Q02  00002PRCP12"
"01442099999","2010-01-30T09:00:00","4","58.6666666","7.8","211.0","BYGLANDSFJORD, NO","FM-12","99999","V020","340,1,N,0030,1","00750,1,9,N","005000,1,N,1","-0131,1","-0144,1","09920,1",,,,"7,1,03,1","2,1,03,1",,"08,99,1,08,1,05,1,00800,1,99,9,99,9",,,"99999,9,09660,1","1,1,002,1,+999,9",,"70,1","SYN082AAXX  30091 01442 41550 83403 11131 21144 39660 49920 51002 77072 885// 333 4////;",
"01442099999","2010-01-30T12:00:00","4","58.6666666","7.8","211.0","BYGLANDSFJORD, NO","FM-12","99999","V020","340,1,N,0030,1","00030,1,9,N","000500,1,N,1","-0112,1","-0126,1","09915,1",,,,"7,1,06,1","2,1,06,1","09,1,+99999,9,99,9","09,99,1,09,1,99,9,99999,9,99,9,99,9",,,"99999,9,09656,1","6,1,004,1,+999,9",,"73,1","SYN082AAXX  30121 01442 11/05 93403 11112 21126 39656 49915 56004 6//// 77372 333 4////;",
"01442099999","2010-01-30T15:00:00","4","58.6666666","7.8","211.0","BYGLANDSFJORD, NO","FM-12","99999","V020","340,1,N,0030,1","00750,1,9,N","004000,1,N,1","-0104,1","-0117,1","09910,1",,,,"7,1,03,1","7,1,03,1",,"08,99,1,08,1,05,1,00800,1,99,9,99,9",,,"99999,9,09651,1","6,1,005,1,+999,9",,"71,1","SYN082AAXX  30151 01442 41540 83403 11104 21117 39651 49910 56005 77177 885// 333 4////;",
"01442099999","2010-01-30T18:00:00","4","58.6666666","7.8","211.0","BYGLANDSFJORD, NO","FM-12","99999","V020","340,1,N,0010,1","00240,1,9,N","003000,1,N,1","-0101,1","-0112,1","09917,1","12,0030,9,1",,,"7,1,06,1","7,1,06,1","09,1,+99999,9,99,9","09,99,1,09,1,99,9,99999,9,99,9,99,9",,"120,M,-0101,1","99999,9,09657,1","1,1,007,1,+999,9",,"71,1","SYN088AAXX  30181 01442 11/30 93401 11101 21112 39657 49917 51007 60032 77177 333 11101 4////;",
"01442099999","2010-01-31T03:00:00","4","58.6666666","7.8","211.0","BYGLANDSFJORD, NO","FM-12","99999","V020","999,9,C,0000,1","00240,1,9,N","004000,1,N,1","-0087,1","-0095,1","09906,1",,,,"7,1,03,1","7,1,03,1","09,1,+99999,9,99,9","09,99,1,09,1,99,9,99999,9,99,9,99,9",,,"99999,9,09647,1","8,1,010,1,+999,9",,"71,1","SYN076AAXX  31031 01442 41/40 90000 11087 21095 39647 49906 58010 77177 333 4////;",
"01442099999","2010-01-31T06:00:00","4","58.6666666","7.8","211.0","BYGLANDSFJORD, NO","FM-12","99999","V020","330,1,N,0030,1","00240,1,9,N","003000,1,N,1","-0075,1","-0083,1","09913,1","12,0061,9,1","24,0081,9,1","0049,9,1,999999,9,9","7,1,06,1","7,1,06,1","09,1,+99999,9,99,9","09,99,1,09,1,99,9,99999,9,99,9,99,9","23,9","999,N,-0113,1","99999,9,09655,1","3,1,007,1,+999,9",,"71,1","SYN094AAXX  31061 01442 11/30 93303 11075 21083 39655 49913 53007 60062 77177 333 21113 47049 70081;",
"01442099999","2010-01-31T09:00:00","4","58.6666666","7.8","211.0","BYGLANDSFJORD, NO","FM-12","99999","V020","340,1,N,0050,1","00750,1,9,N","010000,1,N,1","-0085,1","-0106,1","09934,1",,,,"7,1,03,1","7,1,03,1",,"08,99,1,08,1,05,1,00800,1,99,9,99,9",,,"99999,9,09675,1","2,1,020,1,+999,9",,"71,1","SYN082AAXX  31091 01442 41560 83405 11085 21106 39675 49934 52020 77177 885// 333 4////;",
"01442099999","2010-01-31T12:00:00","4","58.6666666","7.8","211.0","BYGLANDSFJORD, NO","FM-12","99999","V020","340,1,N,0050,1","00750,1,9,N","010000,1,N,1","-0088,1","-0110,1","09949,1",,,,"7,1,06,1","7,1,06,1",,"08,99,1,08,1,05,1,00800,1,99,9,99,9",,,"99999,9,09690,1","1,1,015,1,+999,9",,"71,1","SYN088AAXX  31121 01442 11560 83405 11088 21110 39690 49949 51015 6//// 77177 885// 333 4////;",
"01442099999","2010-01-31T15:00:00","4","58.6666666","7.8","211.0","BYGLANDSFJORD, NO","FM-12","99999","V020","330,1,N,0030,1","00750,1,9,N","070000,1,N,1","-0093,1","-0122,1","09959,1",,,,"7,1,03,1","2,1,03,1",,"07,99,1,07,1,05,1,00800,1,00,1,00,1",,,"99999,9,09700,1","2,1,010,1,+999,9",,"22,1","SYN082AAXX  31151 01442 41588 73303 11093 21122 39700 49959 52010 72272 87500 333 4////;",
"01442099999","2010-01-31T18:00:00","4","58.6666666","7.8","211.0","BYGLANDSFJORD, NO","FM-12","99999","V020","999,9,C,0000,1","00750,1,9,N","070000,1,N,1","-0117,1","-0139,1","09975,1","12,0010,9,1",,,"7,1,06,1","2,1,06,1",,"07,99,1,07,1,05,1,00800,1,00,1,00,1",,"120,M,-0074,1","99999,9,09713,1","2,1,014,1,+999,9",,"02,1","SYN094AAXX  31181 01442 11588 70000 11117 21139 39713 49975 52014 60012 70272 87500 333 11074 4////;",
"01442099999","2010-02-01T03:00:00","4","58.6666666","7.8","211.0","BYGLANDSFJORD, NO","FM-12","99999","V020","350,1,N,0050,1","22000,1,9,N","075000,1,N,1","-0162,1","-0181,1","10015,1",,,,"0,1,03,1","0,1,03,1","00,1,+99999,9,99,9","00,99,1,00,1,00,1,99999,9,00,1,00,1",,,"99999,9,09752,1","2,1,015,1,+999,9",,"02,1","SYN076AAXX  01031 01442 41989 03505 11162 21181 39752 40015 52015 70200 333 4////;",
"01442099999","2010-02-01T06:00:00","4","58.6666666","7.8","211.0","BYGLANDSFJORD, NO","FM-12","99999","V020","340,1,N,0050,1","22000,1,9,N","075000,1,N,1","-0181,1","-0197,1","10032,1","12,0000,9,1","24,0013,9,1","0047,9,1,999999,9,9","0,1,06,1","0,1,06,1","00,1,+99999,9,99,9","00,99,1,00,1,00,1,99999,9,00,1,00,1","23,9","999,N,-0181,1","99999,9,09767,1","2,1,016,1,+999,9",,"02,1","SYN094AAXX  01061 01442 11989 03405 11181 21197 39767 40032 52016 60002 70200 333 21181 47047 70012;","Q01  00002PRCP12"
"01442099999","2010-02-01T09:00:00","4","58.6666666","7.8","211.0","BYGLANDSFJORD, NO","FM-12","99999","V020","340,1,N,0030,1","22000,1,9,N","075000,1,N,1","-0189,1","-0207,1","10048,1",,,,"0,1,03,1","0,1,03,1",,"02,99,1,00,1,00,1,99999,9,00,1,01,1",,,"99999,9,09782,1","2,1,015,1,+999,9",,"02,1","SYN082AAXX  01091 01442 41989 23403 11189 21207 39782 40048 52015 70200 80001 333 4////;",
"01442099999","2010-02-01T12:00:00","4","58.6666666","7.8","211.0","BYGLANDSFJORD, NO","FM-12","99999","V020","330,1,N,0050,1","22000,1,9,N","075000,1,N,1","-0153,1","-0190,1","10050,1",,,,"0,1,06,1","0,1,06,1",,"01,99,1,00,1,00,1,99999,9,00,1,01,1",,,"99999,9,09786,1","1,1,003,1,+999,9",,"02,1","SYN088AAXX  01121 01442 11989 13305 11153 21190 39786 40050 51003 6//// 70200 80001 333 4////;",
"01442099999","2010-02-01T15:00:00","4","58.6666666","7.8","211.0","BYGLANDSFJORD, NO","FM-12","99999","V020","330,1,N,0030,1","01500,1,9,N","075000,1,N,1","-0151,1","-0178,1","10048,1",,,,"1,1,03,1","0,1,03,1",,"08,99,1,08,1,00,1,01750,1,07,1,99,9",,,"99999,9,09783,1","6,1,002,1,+999,9",,"03,1","SYN082AAXX  01151 01442 41789 83303 11151 21178 39783 40048 56002 70310 8807/ 333 4////;",
"01442099999","2010-02-01T18:00:00","4","58.6666666","7.8","211.0","BYGLANDSFJORD, NO","FM-12","99999","V020","340,1,N,0010,1","01500,1,9,N","010000,1,N,1","-0136,1","-0151,1","10042,1","12,0005,9,1",,,"7,1,06,1","1,1,06,1",,"08,99,1,08,1,00,1,01750,1,07,1,99,9",,"120,M,-0136,1","99999,9,09778,1","6,1,005,1,+999,9",,"70,1","SYN094AAXX  01181 01442 11760 83401 11136 21151 39778 40042 56005 69942 77071 8807/ 333 11136 4////;",
"01442099999","2010-02-02T03:00:00","4","58.6666666","7.8","211.0","BYGLANDSFJORD, NO","FM-12","99999","V020","350,1,N,0030,1","00750,1,9,N","075000,1,N,1","-0110,1","-0124,1","10005,1",,,,"7,1,03,1","2,1,03,1",,"08,99,1,08,1,05,1,00800,1,99,9,99,9",,,"99999,9,09743,1","7,1,015,1,+999,9",,"02,1","SYN082AAXX  02031 01442 41589 83503 11110 21124 39743 40005 57015 70272 885// 333 4////;",
"01442099999","2010-02-02T06:00:00","4","58.6666666","7.8","211.0","BYGLANDSFJORD, NO","FM-12","99999","V020","999,9,C,0000,1","00750,1,9,N","075000,1,N,1","-0104,1","-0118,1","09988,1","12,0010,9,1","24,0015,9,1","0044,9,1,999999,9,9","7,1,06,1","2,1,06,1",,"08,99,1,08,1,05,1,00800,1,99,9,99,9","23,9","999,N,-0143,1","99999,9,09727,1","7,1,017,1,+999,9",,"02,1","SYN100AAXX  02061 01442 11589 80000 11104 21118 39727 49988 57017 60012 70272 885// 333 21143 47044 70014;",
"01442099999","2010-02-02T09:00:00","4","58.6666666","7.8","211.0","BYGLANDSFJORD, NO","FM-12","99999","V020","350,1,N,0050,1","00750,1,9,N","002000,1,N,1","-0095,1","-0108,1","09968,1",,,,"7,1,03,1","2,1,03,1",,"08,99,1,08,1,05,1,00800,1,99,9,99,9",,,"99999,9,09707,1","7,1,019,1,+999,9",,"71,1","SYN082AAXX  02091 01442 41520 83505 11095 21108 39707 49968 57019 77172 885// 333 4////;",
"01442099999","2010-02-02T12:00:00","4","58.6666666","7.8","211.0","BYGLANDSFJORD, NO","FM-12","99999","V020","340,1,N,0070,1","00750,1,9,N","002000,1,N,1","-0077,1","-0092,1","09933,1",,,,"7,1,06,1","3,1,06,1",,"08,99,1,08,1,05,1,00800,1,99,9,99,9",,,"99999,9,09675,1","8,1,033,1,+999,9",,"71,1","SYN088AAXX  02121 01442 11520 83407 11077 21092 39675 49933 58033 6//// 77173 885// 333 4////;",
"01442099999","2010-02-02T15:00:00","4","58.6666666","7.8","211.0","BYGLANDSFJORD, NO","FM-12","99999","V020","340,1,N,0100,1","00060,1,9,N","001000,1,N,1","-0066,1","-0086,1","09917,1",,,,"7,1,03,1","3,1,03,1","09,1,+99999,9,99,9","09,99,1,09,1,99,9,99999,9,99,9,99,9",,,"99999,9,09658,1","7,1,016,1,+999,9",,"73,1","SYN076AAXX  02151 01442 41/10 93410 11066 21086 39658 49917 57016 77373 333 4////;",
"01442099999","2010-02-02T18:00:00","4","58.6666666","7.8","211.0","BYGLANDSFJORD, NO","FM-12","99999","V020","340,1,N,0070,1","00750,1,9,N","005000,1,N,1","-0056,1","-0089,1","09916,1","12,0030,9,1",,,"7,1,06,1","3,1,06,1",,"08,99,1,08,1,05,1,00800,1,99,9,99,9",,"120,M,-0056,1","99999,9,09658,1","4,1,000,1,+999,9",,"71,1","SYN094AAXX  02181 01442 11550 83407 11056 21089 39658 49916 54000 60032 77173 885// 333 11056 4////;",
"01442099999","2010-02-03T03:00:00","4","58.6666666","7.8","211.0","BYGLANDSFJORD, NO","FM-12","99999","V020","350,1,N,0070,1","01500,1,9,N","075000,1,N,1","-0045,1","-0093,1","09924,1",,,,"2,1,03,1","2,1,03,1",,"08,99,1,08,1,00,1,01750,1,07,1,99,9",,,"99999,9,09667,1","1,1,005,1,+999,9",,"02,1","SYN082AAXX  03031 01442 41789 83507 11045 21093 39667 49924 51005 70222 8807/ 333 4////;",
"01442099999","2010-02-03T06:00:00","4","58.6666666","7.8","211.0","BYGLANDSFJORD, NO","FM-12","99999","V020","340,1,N,0070,1","01500,1,9,N","075000,1,N,1","-0043,1","-0091,1","09934,1","12,0000,2,1","24,0030,9,1","0043,9,1,999999,9,9","2,1,06,1","2,1,06,1",,"08,99,1,08,1,00,1,01750,1,07,1,99,9","24,9","999,N,-0056,1","99999,9,09677,1","3,1,010,1,+999,9",,"02,1","SYN100AAXX  03061 01442 11789 83407 11043 21091 39677 49934 53010 69912 70222 8807/ 333 21056 48043 70031;",
"01442099999","2010-02-03T09:00:00","4","58.6666666","7.8","211.0","BYGLANDSFJORD, NO","FM-12","99999","V020","340,1,N,0070,1","01500,1,9,N","075000,1,N,1","-0039,1","-0094,1","09951,1",,,,"2,1,03,1","2,1,03,1",,"07,99,1,07,1,00,1,01750,1,07,1,00,1",,,"99999,9,09692,1","2,1,016,1,+999,9",,"01,1","SYN082AAXX  03091 01442 41789 73407 11039 21094 39692 49951 52016 70122 87070 333 4////;",
"01442099999","2010-02-03T12:00:00","4","58.6666666","7.8","211.0","BYGLANDSFJORD, NO","FM-12","99999","V020","360,1,N,0070,1","01500,1,9,N","075000,1,N,1","-0029,1","-0090,1","09971,1",,,,"2,1,06,1","2,1,06,1",,"08,99,1,08,1,00,1,01750,1,07,1,99,9",,,"99999,9,09712,1","2,1,020,1,+999,9",,"02,1","SYN088AAXX  03121 01442 11789 83607 11029 21090 39712 49971 52020 6//// 70222 8807/ 333 4////;",
"01442099999","2010-02-03T15:00:00","4","58.6666666","7.8","211.0","BYGLANDSFJORD, NO","FM-12","99999","V020","350,1,N,0070,1","01500,1,9,N","075000,1,N,1","-0023,1","-0088,1","09994,1",,,,"2,1,03,1","2,1,03,1",,"08,99,1,08,1,00,1,01750,1,07,1,99,9",,,"99999,9,09736,1","2,1,023,1,+999,9",,"02,1","SYN082AAXX  03151 01442 41789 83507 11023 21088 39736 49994 52023 70222 8807/ 333 4////;",
"01442099999","2010-02-03T18:00:00","4","58.6666666","7.8","211.0","BYGLANDSFJORD, NO","FM-12","99999","V020","340,1,N,0050,1","01500,1,9,N","075000,1,N,1","-0033,1","-0088,1","10022,1","12,0000,9,1",,,"2,1,06,1","2,1,06,1",,"08,99,1,08,1,00,1,01750,1,07,1,99,9",,"120,M,-0023,1","99999,9,09762,1","2,1,027,1,+999,9",,"02,1","SYN094AAXX  03181 01442 11789 83405 11033 21088 39762 40022 52027 60002 70222 8807/ 333 11023 4////;","Q01  00002PRCP12"
"01442099999","2010-02-04T03:00:00","4","58.6666666","7.8","211.0","BYGLANDSFJORD, NO","FM-12","99999","V020","350,1,N,0030,1","22000,1,9,N","075000,1,N,1","-0126,1","-0139,1","10101,1",,,,"0,1,03,1","0,1,03,1","00,1,+99999,9,99,9","00,99,1,00,1,00,1,99999,9,00,1,00,1",,,"99999,9,09837,1","2,1,020,1,+999,9",,"02,1","SYN076AAXX  04031 01442 41989 03503 11126 21139 39837 40101 52020 70200 333 4////;",
"01442099999","2010-02-04T06:00:00","4","58.6666666","7.8","211.0","BYGLANDSFJORD, NO","FM-12","99999","V020","340,1,N,0030,1","22000,1,9,N","075000,1,N,1","-0129,1","-0144,1","10116,1","12,0000,9,1","24,0000,9,1","0041,9,1,999999,9,9","0,1,06,1","0,1,06,1",,"01,99,1,00,1,00,1,99999,9,00,1,01,1","24,9","999,N,-0135,1","99999,9,09851,1","2,1,014,1,+999,9",,"02,1","SYN100AAXX  04061 01442 11989 13403 11129 21144 39851 40116 52014 60002 70200 80001 333 21135 48041 70000;","Q01  00002PRCP24Q02  00002PRCP12"
"01442099999","2010-02-04T09:00:00","4","58.6666666","7.8","211.0","BYGLANDSFJORD, NO","FM-12","99999","V020","340,1,N,0050,1","99999,9,9,N","075000,1,N,1","-0125,1","-0145,1","10136,1",,,,"1,1,03,1","1,1,03,1",,"08,99,1,00,1,00,1,99999,9,00,1,07,1",,,"99999,9,09871,1","2,1,020,1,+999,9",,"03,1","SYN082AAXX  04091 01442 41989 83405 11125 21145 39871 40136 52020 70311 80007 333 4////;",
"01442099999","2010-02-04T12:00:00","4","58.6666666","7.8","211.0","BYGLANDSFJORD, NO","FM-12","99999","V020","330,1,N,0050,1","00750,1,9,N","075000,1,N,1","-0101,1","-0133,1","10149,1",,,,"2,1,06,1","1,1,06,1",,"08,99,1,08,1,05,1,00800,1,99,9,99,9",,,"99999,9,09883,1","1,1,013,1,+999,9",,"03,1","SYN088AAXX  04121 01442 11589 83305 11101 21133 39883 40149 51013 6//// 70321 885// 333 4////;",
"01442099999","2010-02-04T15:00:00","4","58.6666666","7.8","211.0","BYGLANDSFJORD, NO","FM-12","99999","V020","330,1,N,0050,1","00750,1,9,N","075000,1,N,1","-0081,1","-0120,1","10156,1",,,,"2,1,03,1","2,1,03,1",,"08,99,1,08,1,05,1,00800,1,99,9,99,9",,,"99999,9,09892,1","2,1,008,1,+999,9",,"02,1","SYN082AAXX  04151 01442 41589 83305 11081 21120 39892 40156 52008 70222 885// 333 4////;",
"01442099999","2010-02-04T18:00:00","4","58.6666666","7.8","211.0","BYGLANDSFJORD, NO","FM-12","99999","V020","350,1,N,0030,1","00750,1,9,N","075000,1,N,1","-0079,1","-0102,1","10167,1","12,9999,9,9",,,"7,1,06,1","2,1,06,1",,"08,99,1,08,1,05,1,00800,1,99,9,99,9",,"120,M,-0079,1","99999,9,09902,1","2,1,011,1,+999,9",,"22,1","SYN094AAXX  04181 01442 11589 83503 11079 21102 39902 40167 52011 69912 72272 885// 333 11079 4////;","Q01  00002PRCP12Q02  00002PRCP12"
"01442099999","2010-02-05T03:00:00","4","58.6666666","7.8","211.0","BYGLANDSFJORD, NO","FM-12","99999","V020","080,1,N,0070,1","00750,1,9,N","075000,1,N,1","-0027,1","-0042,1","10177,1",,,,"2,1,03,1","2,1,03,1",,"08,99,1,08,1,05,1,00800,1,99,9,99,9",,,"99999,9,09913,1","4,1,000,1,+999,9",,"02,1","SYN082AAXX  05031 01442 41589 80807 11027 21042 39913 40177 54000 70222 885// 333 4////;",
"01442099999","2010-02-05T06:00:00","4","58.6666666","7.8","211.0","BYGLANDSFJORD, NO","FM-12","99999","V020","170,1,N,0050,1","00420,1,9,N","075000,1,N,1","-0023,1","-0034,1","10171,1","12,0000,2,1","24,0000,2,1","0041,9,1,999999,9,9","2,1,06,1","2,1,06,1",,"08,99,1,08,1,05,1,00450,1,99,9,99,9","24,9","999,N,-0095,1","99999,9,09907,1","6,1,006,1,+999,9",,"02,1","SYN100AAXX  05061 01442 11489 81705 11023 21034 39907 40171 56006 60002 70222 885// 333 21095 48041 70001;",
"01442099999","2010-02-05T09:00:00","4","58.6666666","7.8","211.0","BYGLANDSFJORD, NO","FM-12","99999","V020","330,1,N,0050,1","00060,1,9,N","015000,1,N,1","-0025,1","-0036,1","10181,1",,,,"7,1,03,1","2,1,03,1",,"08,99,1,08,1,06,1,00075,1,99,9,99,9",,,"99999,9,09917,1","3,1,010,1,+999,9",,"70,1","SYN082AAXX  05091 01442 41165 83305 11025 21036 39917 40181 53010 77072 886// 333 4////;",
"01442099999","2010-02-05T12:00:00","4","58.6666666","7.8","211.0","BYGLANDSFJORD, NO","FM-12","99999","V020","340,1,N,0050,1","00210,1,9,N","040000,1,N,1","-0023,1","-0044,1","10188,1",,,,"7,1,06,1","2,1,06,1",,"08,99,1,08,1,06,1,00250,1,99,9,99,9",,,"99999,9,09925,1","1,1,007,1,+999,9",,"70,1","SYN088AAXX  05121 01442 11382 83405 11023 21044 39925 40188 51007 6//// 77072 886// 333 4////;",
"01442099999","2010-02-05T15:00:00","4","58.6666666","7.8","211.0","BYGLANDSFJORD, NO","FM-12","99999","V020","340,1,N,0050,1","00420,1,9,N","050000,1,N,1","-0023,1","-0044,1","10185,1",,,,"7,1,03,1","2,1,03,1",,"08,99,1,08,1,05,1,00450,1,99,9,99,9",,,"99999,9,09922,1","6,1,003,1,+999,9",,"02,1","SYN082AAXX  05151 01442 41484 83405 11023 21044 39922 40185 56003 70272 885// 333 4////;",
"01442099999","2010-02-05T18:00:00","4","58.6666666","7.8","211.0","BYGLANDSFJORD, NO","FM-12","99999","V020","350,1,N,0050,1","00420,1,9,N","015000,1,N,1","-0029,1","-0044,1","10193,1","12,0000,2,1",,,"7,1,06,1","2,1,06,1",,"08,99,1,08,1,05,1,00450,1,99,9,99,9",,"120,M,-0022,1","99999,9,09928,1","1,1,007,1,+999,9",,"70,1","SYN094AAXX  05181 01442 11465 83505 11029 21044 39928 40193 51007 69912 77072 885// 333 11022 4////;",
"01442099999","2010-02-06T03:00:00","4","58.6666666","7.8","211.0","BYGLANDSFJORD, NO","FM-12","99999","V020","340,1,N,0030,1","00420,1,9,N","060000,1,N,1","-0010,1","-0035,1","10213,1",,,,"2,1,03,1","2,1,03,1",,"08,99,1,08,1,06,1,00450,1,99,9,99,9",,,"99999,9,09948,1","1,1,005,1,+999,9",,"02,1","SYN082AAXX  06031 01442 41486 83403 11010 21035 39948 40213 51005 70222 886// 333 4////;",
"01442099999","2010-02-06T06:00:00","4","58.6666666","7.8","211.0","BYGLANDSFJORD, NO","FM-12","99999","V020","340,1,N,0050,1","00420,1,9,N","060000,1,N,1","-0009,1","-0028,1","10225,1","12,0000,2,1","24,0000,2,1","0040,9,1,999999,9,9","2,1,06,1","2,1,06,1",,"08,99,1,08,1,06,1,00450,1,99,9,99,9","24,9","999,N,-0028,1","99999,9,09961,1","3,1,012,1,+999,9",,"02,1","SYN100AAXX  06061 01442 11486 83405 11009 21028 39961 40225 53012 69902 70222 886// 333 21028 48040 70001;",
"01442099999","2010-02-06T09:00:00","4","58.6666666","7.8","211.0","BYGLANDSFJORD, NO","FM-12","99999","V020","350,1,N,0050,1","00420,1,9,N","060000,1,N,1","-0008,1","-0029,1","10244,1",,,,"2,1,03,1","2,1,03,1",,"08,99,1,08,1,06,1,00450,1,99,9,99,9",,,"99999,9,09980,1","2,1,019,1,+999,9",,"02,1","SYN082AAXX  06091 01442 41486 83505 11008 21029 39980 40244 52019 70222 886// 333 4////;",
"01442099999","2010-02-06T12:00:00","4","58.6666666","7.8","211.0","BYGLANDSFJORD, NO","FM-12","99999","V020","350,1,N,0070,1","00750,1,9,N","070000,1,N,1","+0005,1","-0029,1","10251,1",,,,"2,1,06,1","2,1,06,1",,"07,99,1,07,1,05,1,00800,1,00,1,01,1",,,"99999,9,09987,1","1,1,007,1,+999,9",,"01,1","SYN088AAXX  06121 01442 11588 73507 10005 21029 39987 40251 51007 6//// 70122 87501 333 4////;",
"01442099999","2010-02-06T15:00:00","4","58.6666666","7.8","211.0","BYGLANDSFJORD, NO","FM-12","99999","V020","350,1,N,0070,1","07500,1,9,N","075000,1,N,1","+0008,1","-0035,1","10256,1",,,,"2,1,03,1","2,1,03,1",,"07,99,1,01,1,01,1,00800,1,00,1,08,1",,,"99999,9,09992,1","2,1,005,1,+999,9",,"01,1","SYN082AAXX  06151 01442 41589 73507 10008 21035 39992 40256 52005 70122 81108 333 4////;",
"01442099999","2010-02-06T18:00:00","4","58.6666666","7.8","211.0","BYGLANDSFJORD, NO","FM-12","99999","V020","340,1,N,0050,1","22000,1,9,N","075000,1,N,1","-0012,1","-0036,1","10271,1","12,0000,9,1",,,"2,1,06,1","2,1,06,1",,"04,99,1,00,1,00,1,99999,9,00,1,08,1",,"120,M,+0010,1","99999,9,10006,1","3,1,014,1,+999,9",,"01,1","SYN094AAXX  06181 01442 11989 43405 11012 21036 30006 40271 53014 60002 70122 80008 333 10010 4////;","Q01  00002PRCP12"
"01442099999","2010-02-07T03:00:00","4","58.6666666","7.8","211.0","BYGLANDSFJORD, NO","FM-12","99999","V020","999,9,C,0000,1","01500,1,9,N","075000,1,N,1","-0055,1","-0060,1","10287,1",,,,"2,1,03,1","2,1,03,1",,"08,99,1,08,1,00,1,01750,1,07,1,99,9",,,"99999,9,10020,1","4,1,000,1,+999,9",,"02,1","SYN082AAXX  07031 01442 41789 80000 11055 21060 30020 40287 54000 70222 8807/ 333 4////;",
"01442099999","2010-02-07T06:00:00","4","58.6666666","7.8","211.0","BYGLANDSFJORD, NO","FM-12","99999","V020","999,9,C,0000,1","01500,1,9,N","075000,1,N,1","-0045,1","-0051,1","10282,1","12,0000,9,1","24,0000,9,1","0039,9,1,999999,9,9","2,1,06,1","2,1,06,1",,"08,99,1,08,1,00,1,01750,1,07,1,99,9","24,9","999,N,-0057,1","99999,9,10016,1","6,1,004,1,+999,9",,"02,1","SYN100AAXX  07061 01442 11789 80000 11045 21051 30016 40282 56004 60002 70222 8807/ 333 21057 48039 70000;","Q01  00002PRCP24Q02  00002PRCP12"
"01442099999","2010-02-07T09:00:00","4","58.6666666","7.8","211.0","BYGLANDSFJORD, NO","FM-12","99999","V020","110,1,N,0010,1","01500,1,9,N","075000,1,N,1","-0042,1","-0049,1","10283,1",,,,"2,1,03,1","2,1,03,1",,"07,99,1,07,1,00,1,01750,1,07,1,00,1",,,"99999,9,10017,1","1,1,001,1,+999,9",,"01,1","SYN082AAXX  07091 01442 41789 71101 11042 21049 30017 40283 51001 70122 87070 333 4////;",
"01442099999","2010-02-07T12:00:00","4","58.6666666","7.8","211.0","BYGLANDSFJORD, NO","FM-12","99999","V020","350,1,N,0030,1","22000,1,9,N","075000,1,N,1","-0009,1","-0040,1","10278,1",,,,"2,1,06,1","1,1,06,1",,"01,99,1,01,1,01,1,01250,1,04,1,02,1",,,"99999,9,10012,1","8,1,004,1,+999,9",,"01,1","SYN088AAXX  07121 01442 11689 13503 11009 21040 30012 40278 58004 6//// 70121 81142 333 4////;",
"01442099999","2010-02-07T15:00:00","4","58.6666666","7.8","211.0","BYGLANDSFJORD, NO","FM-12","99999","V020","330,1,N,0030,1","22000,1,9,N","075000,1,N,1","-0018,1","-0043,1","10259,1",,,,"0,1,03,1","0,1,03,1","00,1,+99999,9,99,9","00,99,1,00,1,00,1,99999,9,00,1,00,1",,,"99999,9,09993,1","7,1,019,1,+999,9",,"02,1","SYN076AAXX  07151 01442 41989 03303 11018 21043 39993 40259 57019 70200 333 4////;",
"01442099999","2010-02-07T18:00:00","4","58.6666666","7.8","211.0","BYGLANDSFJORD, NO","FM-12","99999","V020","330,1,N,0030,1","22000,1,9,N","075000,1,N,1","-0071,1","-0078,1","10253,1","12,0000,9,1",,,"0,1,06,1","0,1,06,1","00,1,+99999,9,99,9","00,99,1,00,1,00,1,99999,9,00,1,00,1",,"120,M,-0004,1","99999,9,09987,1","6,1,007,1,+999,9",,"02,1","SYN088AAXX  07181 01442 11989 03303 11071 21078 39987 40253 56007 60002 70200 333 11004 4////;","Q01  00002PRCP12"
"01442099999","2010-02-08T03:00:00","4","58.6666666","7.8","211.0","BYGLANDSFJORD, NO","FM-12","99999","V020","330,1,N,0030,1","22000,1,9,N","075000,1,N,1","-0102,1","-0111,1","10220,1",,,,"0,1,03,1","0,1,03,1","00,1,+99999,9,99,9","00,99,1,00,1,00,1,99999,9,00,1,00,1",,,"99999,9,09952,1","8,1,020,1,+999,9",,"02,1","SYN076AAXX  08031 01442 41989 03303 11102 21111 39952 40220 58020 70200 333 4////;",
"01442099999","2010-02-08T06:00:00","4","58.6666666","7.8","211.0","BYGLANDSFJORD, NO","FM-12","99999","V020","340,1,N,0030,1","22000,1,9,N","075000,1,N,1","-0112,1","-0124,1","10197,1","12,0000,9,1","24,0000,9,1","0039,9,1,999999,9,9","0,1,06,1","0,1,06,1","00,1,+99999,9,99,9","00,99,1,00,1,00,1,99999,9,00,1,00,1","24,9","999,N,-0112,1","99999,9,09931,1","7,1,022,1,+999,9",,"02,1","SYN094AAXX  08061 01442 11989 03403 11112 21124 39931 40197 57022 60002 70200 333 21112 48039 70000;","Q01  00002PRCP24Q02  00002PRCP12"
"01442099999","2010-02-08T09:00:00","4","58.6666666","7.8","211.0","BYGLANDSFJORD, NO","FM-12","99999","V020","340,1,N,0050,1","22000,1,9,N","075000,1,N,1","-0118,1","-0133,1","10185,1",,,,"0,1,03,1","0,1,03,1","00,1,+99999,9,99,9","00,99,1,00,1,00,1,99999,9,00,1,00,1",,,"99999,9,09918,1","6,1,012,1,+999,9",,"02,1","SYN076AAXX  08091 01442 41989 03405 11118 21133 39918 40185 56012 70200 333 4////;",
"01442099999","2010-02-08T12:00:00","4","58.6666666","7.8","211.0","BYGLANDSFJORD, NO","FM-12","99999","V020","330,1,N,0050,1","22000,1,9,N","075000,1,N,1","-0076,1","-0120,1","10163,1",,,,"0,1,06,1","0,1,06,1","00,1,+99999,9,99,9","00,99,1,00,1,00,1,99999,9,00,1,00,1",,,"99999,9,09898,1","7,1,020,1,+999,9",,"02,1","SYN082AAXX  08121 01442 11989 03305 11076 21120 39898 40163 57020 6//// 70200 333 4////;",
"01442099999","2010-02-08T15:00:00","4","58.6666666","7.8","211.0","BYGLANDSFJORD, NO","FM-12","99999","V020","350,1,N,0030,1","22000,1,9,N","075000,1,N,1","-0074,1","-0114,1","10139,1",,,,"0,1,03,1","0,1,03,1","00,1,+99999,9,99,9","00,99,1,00,1,00,1,99999,9,00,1,00,1",,,"99999,9,09875,1","7,1,024,1,+999,9",,"02,1","SYN076AAXX  08151 01442 41989 03503 11074 21114 39875 40139 57024 70200 333 4////;",
"01442099999","2010-02-08T18:00:00","4","58.6666666","7.8","211.0","BYGLANDSFJORD, NO","FM-12","99999","V020","350,1,N,0030,1","22000,1,9,N","075000,1,N,1","-0102,1","-0125,1","10129,1","12,0000,9,1",,,"0,1,06,1","0,1,06,1","00,1,+99999,9,99,9","00,99,1,00,1,00,1,99999,9,00,1,00,1",,"120,M,-0067,1","99999,9,09865,1","6,1,010,1,+999,9",,"02,1","SYN088AAXX  08181 01442 11989 03503 11102 21125 39865 40129 56010 60002 70200 333 11067 4////;","Q01  00002PRCP12"
"01442099999","2010-02-09T03:00:00","4","58.6666666","7.8","211.0","BYGLANDSFJORD, NO","FM-12","99999","V020","340,1,N,0030,1","22000,1,9,N","075000,1,N,1","-0127,1","-0140,1","10117,1",,,,"0,1,03,1","0,1,03,1","00,1,+99999,9,99,9","00,99,1,00,1,00,1,99999,9,00,1,00,1",,,"99999,9,09852,1","6,1,005,1,+999,9",,"02,1","SYN076AAXX  09031 01442 41989 03403 11127 21140 39852 40117 56005 70200 333 4////;",
"01442099999","2010-02-09T06:00:00","4","58.6666666","7.8","211.0","BYGLANDSFJORD, NO","FM-12","99999","V020","340,1,N,0030,1","22000,1,9,N","075000,1,N,1","-0130,1","-0146,1","10106,1","12,0000,9,1","24,0000,9,1","0038,9,1,999999,9,9","0,1,06,1","0,1,06,1","00,1,+99999,9,99,9","00,99,1,00,1,00,1,99999,9,00,1,00,1","24,9","999,N,-0130,1","99999,9,09842,1","8,1,010,1,+999,9",,"02,1","SYN094AAXX  09061 01442 11989 03403 11130 21146 39842 40106 58010 60002 70200 333 21130 48038 70000;","Q01  00002PRCP24Q02  00002PRCP12"
"01442099999","2010-02-09T09:00:00","4","58.6666666","7.8","211.0","BYGLANDSFJORD, NO","FM-12","99999","V020","330,1,N,0070,1","22000,1,9,N","075000,1,N,1","-0120,1","-0141,1","10109,1",,,,"0,1,03,1","0,1,03,1","00,1,+99999,9,99,9","00,99,1,00,1,00,1,99999,9,00,1,00,1",,,"99999,9,09845,1","3,1,003,1,+999,9",,"02,1","SYN076AAXX  09091 01442 41989 03307 11120 21141 39845 40109 53003 70200 333 4////;",
"01442099999","2010-02-09T12:00:00","4","58.6666666","7.8","211.0","BYGLANDSFJORD, NO","FM-12","99999","V020","330,1,N,0070,1","00750,1,9,N","075000,1,N,1","-0074,1","-0113,1","10112,1",,,,"1,1,06,1","0,1,06,1",,"07,99,1,07,1,05,1,00800,1,00,1,00,1",,,"99999,9,09848,1","1,1,004,1,+999,9",,"03,1","SYN088AAXX  09121 01442 11589 73307 11074 21113 39848 40112 51004 6//// 70310 87500 333 4////;",
"01442099999","2010-02-09T15:00:00","4","58.6666666","7.8","211.0","BYGLANDSFJORD, NO","FM-12","99999","V020","340,1,N,0050,1","00750,1,9,N","075000,1,N,1","-0065,1","-0091,1","10114,1",,,,"2,1,03,1","2,1,03,1",,"06,99,1,05,1,02,1,00800,1,06,1,02,1",,,"99999,9,09851,1","1,1,002,1,+999,9",,"01,1","SYN082AAXX  09151 01442 41589 63405 11065 21091 39851 40114 51002 70122 85262 333 4////;",
"01442099999","2010-02-09T18:00:00","4","58.6666666","7.8","211.0","BYGLANDSFJORD, NO","FM-12","99999","V020","350,1,N,0030,1","22000,1,9,N","075000,1,N,1","-0076,1","-0099,1","10135,1","12,0000,9,1",,,"2,1,06,1","1,1,06,1",,"01,99,1,00,1,00,1,99999,9,00,1,02,1",,"120,M,-0060,1","99999,9,09871,1","3,1,020,1,+999,9",,"01,1","SYN094AAXX  09181 01442 11989 13503 11076 21099 39871 40135 53020 60002 70121 80002 333 11060 4////;","Q01  00002PRCP12"
"01442099999","2010-02-10T03:00:00","4","58.6666666","7.8","211.0","BYGLANDSFJORD, NO","FM-12","99999","V020","350,1,N,0050,1","22000,1,9,N","075000,1,N,1","-0044,1","-0087,1","10189,1",,,,"1,1,03,1","1,1,03,1",,"01,99,1,01,1,01,1,01250,1,00,1,00,1",,,"99999,9,09925,1","2,1,015,1,+999,9",,"01,1","SYN082AAXX  10031 01442 41689 13505 11044 21087 39925 40189 52015 70111 81100 333 4////;",
"01442099999","2010-02-10T06:00:00","4","58.6666666","7.8","211.0","BYGLANDSFJORD, NO","FM-12","99999","V020","030,1,N,0030,1","22000,1,9,N","075000,1,N,1","-0078,1","-0109,1","10204,1","12,0000,9,1","24,0000,9,1","0038,9,1,999999,9,9","1,1,06,1","0,1,06,1","00,1,+99999,9,99,9","00,99,1,00,1,00,1,99999,9,00,1,00,1","24,9","999,N,-0078,1","99999,9,09938,1","2,1,014,1,+999,9",,"02,1","SYN094AAXX  10061 01442 11989 00303 11078 21109 39938 40204 52014 69912 70210 333 21078 48038 70001;","Q01  00002PRCP24Q02  00002PRCP12"
"01442099999","2010-02-10T09:00:00","4","58.6666666","7.8","211.0","BYGLANDSFJORD, NO","FM-12","99999","V020","340,1,N,0030,1","22000,1,9,N","075000,1,N,1","-0112,1","-0141,1","10222,1",,,,"0,1,03,1","0,1,03,1","00,1,+99999,9,99,9","00,99,1,00,1,00,1,99999,9,00,1,00,1",,,"99999,9,09955,1","2,1,016,1,+999,9",,"02,1","SYN076AAXX  10091 01442 41989 03403 11112 21141 39955 40222 52016 70200 333 4////;",
"01442099999","2010-02-10T12:00:00","4","58.6666666","7.8","211.0","BYGLANDSFJORD, NO","FM-12","99999","V020","330,1,N,0050,1","22000,1,9,N","075000,1,N,1","-0046,1","-0112,1","10227,1",,,,"0,1,06,1","0,1,06,1",,"01,99,1,00,1,00,1,99999,9,00,1,01,1",,,"99999,9,09962,1","1,1,007,1,+999,9",,"02,1","SYN088AAXX  10121 01442 11989 13305 11046 21112 39962 40227 51007 6//// 70200 80001 333 4////;",
"01442099999","2010-02-10T15:00:00","4","58.6666666","7.8","211.0","BYGLANDSFJORD, NO","FM-12","99999","V020","320,1,N,0030,1","22000,1,9,N","075000,1,N,1","-0043,1","-0116,1","10219,1",,,,"0,1,03,1","0,1,03,1",,"03,99,1,00,1,00,1,99999,9,00,1,01,1",,,"99999,9,09953,1","8,1,008,1,+999,9",,"02,1","SYN082AAXX  10151 01442 41989 33203 11043 21116 39953 40219 58008 70200 80001 333 4////;",
"01442099999","2010-02-10T18:00:00","4","58.6666666","7.8","211.0","BYGLANDSFJORD, NO","FM-12","99999","V020","999,9,C,0000,1","22000,1,9,N","075000,1,N,1","-0110,1","-0137,1","10228,1","12,0000,9,1",,,"0,1,06,1","0,1,06,1","00,1,+99999,9,99,9","00,99,1,00,1,00,1,99999,9,00,1,00,1",,"120,M,-0038,1","99999,9,09961,1","3,1,007,1,+999,9",,"02,1","SYN088AAXX  10181 01442 11989 00000 11110 21137 39961 40228 53007 60002 70200 333 11038 4////;","Q01  00002PRCP12"
"01442099999","2010-02-11T03:00:00","4","58.6666666","7.8","211.0","BYGLANDSFJORD, NO","FM-12","99999","V020","350,1,N,0030,1","01200,1,9,N","075000,1,N,1","-0129,1","-0149,1","10216,1",,,,"1,1,03,1","0,1,03,1",,"07,99,1,07,1,05,1,01250,1,00,1,00,1",,,"99999,9,09948,1","8,1,010,1,+999,9",,"03,1","SYN082AAXX  11031 01442 41689 73503 11129 21149 39948 40216 58010 70310 87500 333 4////;",
"01442099999","2010-02-11T06:00:00","4","58.6666666","7.8","211.0","BYGLANDSFJORD, NO","FM-12","99999","V020","350,1,N,0030,1","01500,1,9,N","075000,1,N,1","-0103,1","-0135,1","10206,1","12,0000,9,1","24,0000,9,1","0038,9,1,999999,9,9","1,1,06,1","0,1,06,1",,"06,99,1,06,1,00,1,01750,1,07,1,00,1","24,9","999,N,-0145,1","99999,9,09940,1","7,1,009,1,+999,9",,"01,1","SYN100AAXX  11061 01442 11789 63503 11103 21135 39940 40206 57009 60002 70110 86070 333 21145 48038 70000;","Q01  00002PRCP24Q02  00002PRCP12"
"01442099999","2010-02-11T09:00:00","4","58.6666666","7.8","211.0","BYGLANDSFJORD, NO","FM-12","99999","V020","340,1,N,0030,1","22000,1,9,N","075000,1,N,1","-0119,1","-0145,1","10209,1",,,,"1,1,03,1","0,1,03,1",,"03,99,1,00,1,00,1,99999,9,00,1,01,1",,,"99999,9,09942,1","3,1,002,1,+999,9",,"01,1","SYN082AAXX  11091 01442 41989 33403 11119 21145 39942 40209 53002 70110 80001 333 4////;",
"01442099999","2010-02-11T12:00:00","4","58.6666666","7.8","211.0","BYGLANDSFJORD, NO","FM-12","99999","V020","340,1,N,0050,1","22000,1,9,N","075000,1,N,1","-0078,1","-0128,1","10206,1",,,,"1,1,06,1","0,1,06,1",,"01,99,1,00,1,00,1,99999,9,00,1,01,1",,,"99999,9,09941,1","8,1,001,1,+999,9",,"01,1","SYN088AAXX  11121 01442 11989 13405 11078 21128 39941 40206 58001 6//// 70110 80001 333 4////;",
"01442099999","2010-02-11T15:00:00","4","58.6666666","7.8","211.0","BYGLANDSFJORD, NO","FM-12","99999","V020","350,1,N,0030,1","22000,1,9,N","075000,1,N,1","-0062,1","-0115,1","10195,1",,,,"0,1,03,1","0,1,03,1",,"01,99,1,00,1,00,1,99999,9,00,1,01,1",,,"99999,9,09930,1","6,1,011,1,+999,9",,"02,1","SYN082AAXX  11151 01442 41989 13503 11062 21115 39930 40195 56011 70200 80001 333 4////;",
"01442099999","2010-02-11T18:00:00","4","58.6666666","7.8","211.0","BYGLANDSFJORD, NO","FM-12","99999","V020","340,1,N,0010,1","22000,1,9,N","075000,1,N,1","-0099,1","-0125,1","10207,1","12,0000,9,1",,,"0,1,06,1","0,1,06,1",,"01,99,1,00,1,00,1,99999,9,00,1,01,1",,"120,M,-0060,1","99999,9,09941,1","3,1,011,1,+999,9",,"02,1","SYN094AAXX  11181 01442 11989 13401 11099 21125 39941 40207 53011 60002 70200 80001 333 11060 4////;","Q01  00002PRCP12"
"01442099999","2010-02-12T03:00:00","4","58.6666666","7.8","211.0","BYGLANDSFJORD, NO","FM-12","99999","V020","350,1,N,0070,1","22000,1,9,N","075000,1,N,1","-0088,1","-0102,1","10247,1",,,,"0,1,03,1","0,1,03,1","00,1,+99999,9,99,9","00,99,1,00,1,00,1,99999,9,00,1,00,1",,,"99999,9,09980,1","2,1,010,1,+999,9",,"02,1","SYN076AAXX  12031 01442 41989 03507 11088 21102 39980 40247 52010 70200 333 4////;",
"01442099999","2010-02-12T06:00:00","4","58.6666666","7.8","211.0","BYGLANDSFJORD, NO","FM-12","99999","V020","350,1,N,0070,1","22000,1,9,N","075000,1,N,1","-0082,1","-0100,1","10263,1","12,0000,9,1","24,0000,9,1","0037,9,1,999999,9,9","0,1,06,1","0,1,06,1","00,1,+99999,9,99,9","00,99,1,00,1,00,1,99999,9,00,1,00,1","24,9","999,N,-0106,1","99999,9,09996,1","2,1,016,1,+999,9",,"02,1","SYN094AAXX  12061 01442 11989 03507 11082 21100 39996 40263 52016 60002 70200 333 21106 48037 70000;","Q01  00002PRCP24Q02  00002PRCP12"
"01442099999","2010-02-12T09:00:00","4","58.6666666","7.8","211.0","BYGLANDSFJORD, NO","FM-12","99999","V020","350,1,N,0050,1","22000,1,9,N","075000,1,N,1","-0075,1","-0095,1","10280,1",,,,"0,1,03,1","0,1,03,1","00,1,+99999,9,99,9","00,99,1,00,1,00,1,99999,9,00,1,00,1",,,"99999,9,10012,1","2,1,017,1,+999,9",,"02,1","SYN076AAXX  12091 01442 41989 03505 11075 21095 30012 40280 52017 70200 333 4////;",
"01442099999","2010-02-12T12:00:00","4","58.6666666","7.8","211.0","BYGLANDSFJORD, NO","FM-12","99999","V020","340,1,N,0050,1","22000,1,9,N","075000,1,N,1","-0031,1","-0083,1","10282,1",,,,"0,1,06,1","0,1,06,1",,"01,99,1,01,1,01,1,01750,1,00,1,00,1",,,"99999,9,10016,1","1,1,003,1,+999,9",,"02,1","SYN088AAXX  12121 01442 11789 13405 11031 21083 30016 40282 51003 6//// 70200 81100 333 4////;",
"01442099999","2010-02-12T15:00:00","4","58.6666666","7.8","211.0","BYGLANDSFJORD, NO","FM-12","99999","V020","350,1,N,0030,1","22000,1,9,N","075000,1,N,1","-0025,1","-0079,1","10274,1",,,,"0,1,03,1","0,1,03,1",,"01,99,1,00,1,00,1,99999,9,00,1,01,1",,,"99999,9,10007,1","8,1,008,1,+999,9",,"02,1","SYN082AAXX  12151 01442 41989 13503 11025 21079 30007 40274 58008 70200 80001 333 4////;",
"01442099999","2010-02-12T18:00:00","4","58.6666666","7.8","211.0","BYGLANDSFJORD, NO","FM-12","99999","V020","999,9,C,0000,1","22000,1,9,N","075000,1,N,1","-0072,1","-0095,1","10281,1","12,0000,9,1",,,"0,1,06,1","0,1,06,1","00,1,+99999,9,99,9","00,99,1,00,1,00,1,99999,9,00,1,00,1",,"120,M,-0022,1","99999,9,10013,1","3,1,006,1,+999,9",,"02,1","SYN088AAXX  12181 01442 11989 00000 11072 21095 30013 40281 53006 60002 70200 333 11022 4////;","Q01  00002PRCP12"
"01442099999","2010-02-13T03:00:00","4","58.6666666","7.8","211.0","BYGLANDSFJORD, NO","FM-12","99999","V020","350,1,N,0050,1","22000,1,9,N","075000,1,N,1","-0117,1","-0131,1","10262,1",,,,"0,1,03,1","0,1,03,1","00,1,+99999,9,99,9","00,99,1,00,1,00,1,99999,9,00,1,00,1",,,"99999,9,09993,1","8,1,015,1,+999,9",,"02,1","SYN076AAXX  13031 01442 41989 03505 11117 21131 39993 40262 58015 70200 333 4////;",
"01442099999","2010-02-13T06:00:00","4","58.6666666","7.8","211.0","BYGLANDSFJORD, NO","FM-12","99999","V020","350,1,N,0050,1","22000,1,9,N","075000,1,N,1","-0103,1","-0121,1","10250,1","12,0000,9,1","24,0000,9,1","0037,9,1,999999,9,9","0,1,06,1","0,1,06,1","00,1,+99999,9,99,9","00,99,1,00,1,00,1,99999,9,00,1,00,1","24,9","999,N,-0117,1","99999,9,09982,1","7,1,011,1,+999,9",,"02,1","SYN094AAXX  13061 01442 11989 03505 11103 21121 39982 40250 57011 60002 70200 333 21117 48037 70000;","Q01  00002PRCP24Q02  00002PRCP12"
"01442099999","2010-02-13T09:00:00","4","58.6666666","7.8","211.0","BYGLANDSFJORD, NO","FM-12","99999","V020","340,1,N,0070,1","22000,1,9,N","075000,1,N,1","-0102,1","-0123,1","10239,1",,,,"0,1,03,1","0,1,03,1","00,1,+99999,9,99,9","00,99,1,00,1,00,1,99999,9,00,1,00,1",,,"99999,9,09972,1","7,1,011,1,+999,9",,"02,1","SYN076AAXX  13091 01442 41989 03407 11102 21123 39972 40239 57011 70200 333 4////;",
"01442099999","2010-02-13T12:00:00","4","58.6666666","7.8","211.0","BYGLANDSFJORD, NO","FM-12","99999","V020","340,1,N,0050,1","22000,1,9,N","075000,1,N,1","-0053,1","-0109,1","10223,1",,,,"0,1,06,1","0,1,06,1","00,1,+99999,9,99,9","00,99,1,00,1,00,1,99999,9,00,1,00,1",,,"99999,9,09957,1","7,1,014,1,+999,9",,"02,1","SYN082AAXX  13121 01442 11989 03405 11053 21109 39957 40223 57014 6//// 70200 333 4////;",
"01442099999","2010-02-13T15:00:00","4","58.6666666","7.8","211.0","BYGLANDSFJORD, NO","FM-12","99999","V020","330,1,N,0030,1","22000,1,9,N","075000,1,N,1","-0049,1","-0102,1","10209,1",,,,"0,1,03,1","0,1,03,1","00,1,+99999,9,99,9","00,99,1,00,1,00,1,99999,9,00,1,00,1",,,"99999,9,09943,1","7,1,014,1,+999,9",,"02,1","SYN076AAXX  13151 01442 41989 03303 11049 21102 39943 40209 57014 70200 333 4////;",
"01442099999","2010-02-13T18:00:00","4","58.6666666","7.8","211.0","BYGLANDSFJORD, NO","FM-12","99999","V020","350,1,N,0030,1","22000,1,9,N","075000,1,N,1","-0091,1","-0116,1","10208,1","12,0000,9,1",,,"0,1,06,1","0,1,06,1","00,1,+99999,9,99,9","00,99,1,00,1,00,1,99999,9,00,1,00,1",,"120,M,-0044,1","99999,9,09942,1","6,1,002,1,+999,9",,"02,1","SYN088AAXX  13181 01442 11989 03503 11091 21116 39942 40208 56002 60002 70200 333 11044 4////;","Q01  00002PRCP12"
"01442099999","2010-02-14T03:00:00","4","58.6666666","7.8","211.0","BYGLANDSFJORD, NO","FM-12","99999","V020","340,1,N,0050,1","01200,1,9,N","075000,1,N,1","-0081,1","-0098,1","10196,1",,,,"1,1,03,1","0,1,03,1",,"07,99,1,07,1,05,1,01250,1,00,1,00,1",,,"99999,9,09931,1","8,1,010,1,+999,9",,"03,1","SYN082AAXX  14031 01442 41689 73405 11081 21098 39931 40196 58010 70310 87500 333 4////;",
"01442099999","2010-02-14T06:00:00","4","58.6666666","7.8","211.0","BYGLANDSFJORD, NO","FM-12","99999","V020","340,1,N,0050,1","22000,1,9,N","075000,1,N,1","-0068,1","-0091,1","10191,1","12,0000,9,1","24,0000,9,1","0037,9,1,999999,9,9","1,1,06,1","0,1,06,1",,"01,99,1,01,1,01,1,00800,1,00,1,00,1","24,9","999,N,-0102,1","99999,9,09926,1","7,1,005,1,+999,9",,"01,1","SYN100AAXX  14061 01442 11589 13405 11068 21091 39926 40191 57005 60002 70110 81100 333 21102 48037 70000;","Q01  00002PRCP24Q02  00002PRCP12"
"01442099999","2010-02-14T09:00:00","4","58.6666666","7.8","211.0","BYGLANDSFJORD, NO","FM-12","99999","V020","340,1,N,0050,1","01200,1,9,N","075000,1,N,1","-0039,1","-0062,1","10193,1",,,,"1,1,03,1","1,1,03,1",,"07,99,1,07,1,05,1,01250,1,00,1,00,1",,,"99999,9,09928,1","3,1,003,1,+999,9",,"03,1","SYN082AAXX  14091 01442 41689 73405 11039 21062 39928 40193 53003 70311 87500 333 4////;",
"01442099999","2010-02-14T12:00:00","4","58.6666666","7.8","211.0","BYGLANDSFJORD, NO","FM-12","99999","V020","320,1,N,0050,1","00750,1,9,N","075000,1,N,1","-0008,1","-0047,1","10189,1",,,,"2,1,06,1","1,1,06,1",,"08,99,1,08,1,05,1,00800,1,99,9,99,9",,,"99999,9,09926,1","6,1,003,1,+999,9",,"03,1","SYN088AAXX  14121 01442 11589 83205 11008 21047 39926 40189 56003 6//// 70321 885// 333 4////;",
"01442099999","2010-02-14T15:00:00","4","58.6666666","7.8","211.0","BYGLANDSFJORD, NO","FM-12","99999","V020","020,1,N,0030,1","00750,1,9,N","005000,1,N,1","+0012,1","-0017,1","10179,1",,,,"8,1,03,1","2,1,03,1",,"07,99,1,07,1,09,1,00800,1,00,1,00,1",,,"99999,9,09917,1","7,1,009,1,+999,9",,"85,1","SYN082AAXX  14151 01442 41550 70203 10012 21017 39917 40179 57009 78582 87900 333 4////;",
"01442099999","2010-02-14T18:00:00","4","58.6666666","7.8","211.0","BYGLANDSFJORD, NO","FM-12","99999","V020","999,9,C,0000,1","01500,1,9,N","075000,1,N,1","-0007,1","-0021,1","10169,1","12,0000,2,1",,,"8,1,06,1","2,1,06,1",,"08,99,1,08,1,00,1,01750,1,07,1,99,9",,"120,M,+0017,1","99999,9,09907,1","7,1,010,1,+999,9",,"03,1","SYN094AAXX  14181 01442 11789 80000 11007 21021 39907 40169 57010 69912 70382 8807/ 333 10017 4////;",
"01442099999","2010-02-15T03:00:00","4","58.6666666","7.8","211.0","BYGLANDSFJORD, NO","FM-12","99999","V020","340,1,N,0030,1","00750,1,9,N","075000,1,N,1","-0021,1","-0050,1","10131,1",,,,"2,1,03,1","2,1,03,1",,"08,99,1,08,1,05,1,00800,1,99,9,99,9",,,"99999,9,09868,1","8,1,020,1,+999,9",,"02,1","SYN082AAXX  15031 01442 41589 83403 11021 21050 39868 40131 58020 70222 885// 333 4////;",
"01442099999","2010-02-15T06:00:00","4","58.6666666","7.8","211.0","BYGLANDSFJORD, NO","FM-12","99999","V020","340,1,N,0030,1","00750,1,9,N","075000,1,N,1","-0026,1","-0052,1","10115,1","12,0000,9,1","24,0000,2,1","0037,9,1,999999,9,9","2,1,06,1","2,1,06,1",,"08,99,1,08,1,05,1,00800,1,99,9,99,9","24,9","999,N,-0026,1","99999,9,09852,1","7,1,016,1,+999,9",,"02,1","SYN100AAXX  15061 01442 11589 83403 11026 21052 39852 40115 57016 60002 70222 885// 333 21026 48037 70001;","Q01  00002PRCP12"
"01442099999","2010-02-15T09:00:00","4","58.6666666","7.8","211.0","BYGLANDSFJORD, NO","FM-12","99999","V020","330,1,N,0030,1","03000,1,9,N","050000,1,N,1","-0025,1","-0044,1","10107,1",,,,"7,1,03,1","2,1,03,1",,"08,99,1,01,1,01,1,00800,1,07,1,99,9",,,"99999,9,09846,1","6,1,007,1,+999,9",,"70,1","SYN082AAXX  15091 01442 41584 83303 11025 21044 39846 40107 56007 77072 8117/ 333 4////;",
"01442099999","2010-02-15T12:00:00","4","58.6666666","7.8","211.0","BYGLANDSFJORD, NO","FM-12","99999","V020","330,1,N,0030,1","00750,1,9,N","050000,1,N,1","-0020,1","-0041,1","10100,1",,,,"7,1,06,1","2,1,06,1",,"08,99,1,08,1,05,1,00800,1,99,9,99,9",,,"99999,9,09838,1","7,1,007,1,+999,9",,"70,1","SYN088AAXX  15121 01442 11584 83303 11020 21041 39838 40100 57007 6//// 77072 885// 333 4////;",
"01442099999","2010-02-15T15:00:00","4","58.6666666","7.8","211.0","BYGLANDSFJORD, NO","FM-12","99999","V020","120,1,N,0070,1","00750,1,9,N","010000,1,N,1","-0017,1","-0050,1","10086,1",,,,"7,1,03,1","2,1,03,1",,"08,99,1,08,1,05,1,00800,1,99,9,99,9",,,"99999,9,09825,1","7,1,014,1,+999,9",,"70,1","SYN082AAXX  15151 01442 41560 81207 11017 21050 39825 40086 57014 77072 885// 333 4////;",
"01442099999","2010-02-15T18:00:00","4","58.6666666","7.8","211.0","BYGLANDSFJORD, NO","FM-12","99999","V020","150,1,N,0030,1","00750,1,9,N","075000,1,N,1","-0024,1","-0050,1","10084,1","12,0005,9,1",,,"7,1,06,1","2,1,06,1",,"08,99,1,08,1,05,1,00800,1,99,9,99,9",,"120,M,-0015,1","99999,9,09822,1","6,1,002,1,+999,9",,"22,1","SYN094AAXX  15181 01442 11589 81503 11024 21050 39822 40084 56002 69962 72272 885// 333 11015 4////;",
"01442099999","2010-02-16T03:00:00","4","58.6666666","7.8","211.0","BYGLANDSFJORD, NO","FM-12","99999","V020","020,1,N,0050,1","00750,1,9,N","030000,1,N,1","-0034,1","-0057,1","10065,1",,,,"7,1,03,1","2,1,03,1",,"08,99,1,08,1,05,1,00800,1,99,9,99,9",,,"99999,9,09805,1","7,1,010,1,+999,9",,"70,1","SYN082AAXX  16031 01442 41580 80205 11034 21057 39805 40065 57010 77072 885// 333 4////;",
"01442099999","2010-02-16T06:00:00","4","58.6666666","7.8","211.0","BYGLANDSFJORD, NO","FM-12","99999","V020","050,1,N,0050,1","00750,1,9,N","025000,1,N,1","-0036,1","-0058,1","10056,1","12,0005,9,1","24,0013,9,1","0037,9,1,999999,9,9","7,1,06,1","2,1,06,1",,"08,99,1,08,1,05,1,00800,1,99,9,99,9","24,9","999,N,-0036,1","99999,9,09796,1","7,1,009,1,+999,9",,"70,1","SYN100AAXX  16061 01442 11575 80505 11036 21058 39796 40056 57009 69962 77072 885// 333 21036 48037 70012;",
"01442099999","2010-02-16T09:00:00","4","58.6666666","7.8","211.0","BYGLANDSFJORD, NO","FM-12","99999","V020","350,1,N,0030,1","00750,1,9,N","003000,1,N,1","-0037,1","-0055,1","10057,1",,,,"7,1,03,1","7,1,03,1",,"08,99,1,08,1,05,1,00800,1,99,9,99,9",,,"99999,9,09797,1","1,1,001,1,+999,9",,"71,1","SYN082AAXX  16091 01442 41530 83503 11037 21055 39797 40057 51001 77177 885// 333 4////;",
"01442099999","2010-02-16T12:00:00","4","58.6666666","7.8","211.0","BYGLANDSFJORD, NO","FM-12","99999","V020","350,1,N,0050,1","00750,1,9,N","010000,1,N,1","-0030,1","-0064,1","10059,1",,,,"7,1,06,1","7,1,06,1",,"08,99,1,08,1,05,1,00800,1,99,9,99,9",,,"99999,9,09798,1","1,1,002,1,+999,9",,"71,1","SYN088AAXX  16121 01442 11560 83505 11030 21064 39798 40059 51002 6//// 77177 885// 333 4////;",
"01442099999","2010-02-16T15:00:00","4","58.6666666","7.8","211.0","BYGLANDSFJORD, NO","FM-12","99999","V020","330,1,N,0030,1","00750,1,9,N","010000,1,N,1","-0033,1","-0064,1","10054,1",,,,"7,1,03,1","7,1,03,1",,"08,99,1,08,1,05,1,00800,1,99,9,99,9",,,"99999,9,09793,1","7,1,005,1,+999,9",,"71,1","SYN082AAXX  16151 01442 41560 83303 11033 21064 39793 40054 57005 77177 885// 333 4////;",
"01442099999","2010-02-16T18:00:00","4","58.6666666","7.8","211.0","BYGLANDSFJORD, NO","FM-12","99999","V020","350,1,N,0030,1","00750,1,9,N","010000,1,N,1","-0038,1","-0066,1","10055,1","12,0020,9,1",,,"7,1,06,1","7,1,06,1",,"08,99,1,08,1,05,1,00800,1,99,9,99,9",,"120,M,-0027,1","99999,9,09795,1","1,1,001,1,+999,9",,"71,1","SYN094AAXX  16181 01442 11560 83503 11038 21066 39795 40055 51001 60022 77177 885// 333 11027 4////;",
"01442099999","2010-02-17T03:00:00","4","58.6666666","7.8","211.0","BYGLANDSFJORD, NO","FM-12","99999","V020","010,1,N,0030,1","00120,1,9,N","002000,1,N,1","-0036,1","-0052,1","10052,1",,,,"7,1,03,1","7,1,03,1","09,1,+99999,9,99,9","09,99,1,09,1,99,9,99999,9,99,9,99,9",,,"99999,9,09792,1","8,1,006,1,+999,9",,"71,1","SYN076AAXX  17031 01442 41/20 90103 11036 21052 39792 40052 58006 77177 333 4////;",
"01442099999","2010-02-17T06:00:00","4","58.6666666","7.8","211.0","BYGLANDSFJORD, NO","FM-12","99999","V020","020,1,N,0030,1","00120,1,9,N","002000,1,N,1","-0033,1","-0053,1","10049,1","12,0020,9,1","24,0033,9,1","0044,9,1,999999,9,9","7,1,06,1","7,1,06,1","09,1,+99999,9,99,9","09,99,1,09,1,99,9,99999,9,99,9,99,9","24,9","999,N,-0043,1","99999,9,09788,1","7,1,003,1,+999,9",,"71,1","SYN094AAXX  17061 01442 11/20 90203 11033 21053 39788 40049 57003 60022 77177 333 21043 48044 70033;",
"01442099999","2010-02-17T09:00:00","4","58.6666666","7.8","211.0","BYGLANDSFJORD, NO","FM-12","99999","V020","350,1,N,0030,1","00750,1,9,N","003000,1,N,1","-0028,1","-0047,1","10049,1",,,,"7,1,03,1","7,1,03,1",,"08,99,1,08,1,05,1,00800,1,99,9,99,9",,,"99999,9,09788,1","4,1,000,1,+999,9",,"71,1","SYN082AAXX  17091 01442 41530 83503 11028 21047 39788 40049 54000 77177 885// 333 4////;",
"01442099999","2010-02-17T12:00:00","4","58.6666666","7.8","211.0","BYGLANDSFJORD, NO","FM-12","99999","V020","150,1,N,0050,1","00750,1,9,N","010000,1,N,1","-0008,1","-0042,1","10046,1",,,,"7,1,06,1","7,1,06,1",,"08,99,1,08,1,05,1,00800,1,99,9,99,9",,,"99999,9,09787,1","8,1,002,1,+999,9",,"71,1","SYN088AAXX  17121 01442 11560 81505 11008 21042 39787 40046 58002 6//// 77177 885// 333 4////;",
"01442099999","2010-02-17T15:00:00","4","58.6666666","7.8","211.0","BYGLANDSFJORD, NO","FM-12","99999","V020","150,1,N,0070,1","00750,1,9,N","010000,1,N,1","-0018,1","-0050,1","10037,1",,,,"7,1,03,1","7,1,03,1",,"08,99,1,08,1,05,1,00800,1,99,9,99,9",,,"99999,9,09777,1","7,1,009,1,+999,9",,"71,1","SYN082AAXX  17151 01442 41560 81507 11018 21050 39777 40037 57009 77177 885// 333 4////;",
"01442099999","2010-02-17T18:00:00","4","58.6666666","7.8","211.0","BYGLANDSFJORD, NO","FM-12","99999","V020","110,1,N,0070,1","00750,1,9,N","040000,1,N,1","-0035,1","-0067,1","10042,1","12,0020,9,1",,,"7,1,06,1","3,1,06,1",,"08,99,1,08,1,05,1,00800,1,99,9,99,9",,"120,M,-0007,1","99999,9,09782,1","3,1,004,1,+999,9",,"70,1","SYN094AAXX  17181 01442 11582 81107 11035 21067 39782 40042 53004 60022 77073 885// 333 11007 4////;",
"01442099999","2010-02-18T03:00:00","4","58.6666666","7.8","211.0","BYGLANDSFJORD, NO","FM-12","99999","V020","020,1,N,0050,1","00120,1,9,N","002000,1,N,1","-0049,1","-0071,1","10034,1",,,,"7,1,03,1","2,1,03,1","09,1,+99999,9,99,9","09,99,1,09,1,99,9,99999,9,99,9,99,9",,,"99999,9,09773,1","8,1,009,1,+999,9",,"70,1","SYN076AAXX  18031 01442 41/20 90205 11049 21071 39773 40034 58009 77072 333 4////;",
"01442099999","2010-02-18T06:00:00","4","58.6666666","7.8","211.0","BYGLANDSFJORD, NO","FM-12","99999","V020","350,1,N,0030,1","00240,1,9,N","003000,1,N,1","-0049,1","-0073,1","10029,1","12,0008,9,1","24,0025,9,1","0045,9,1,999999,9,9","7,1,06,1","2,1,06,1","09,1,+99999,9,99,9","09,99,1,09,1,99,9,99999,9,99,9,99,9","24,9","999,N,-0049,1","99999,9,09768,1","7,1,006,1,+999,9",,"70,1","SYN094AAXX  18061 01442 11/30 93503 11049 21073 39768 40029 57006 69982 77072 333 21049 48045 70025;",
"01442099999","2010-02-18T09:00:00","4","58.6666666","7.8","211.0","BYGLANDSFJORD, NO","FM-12","99999","V020","030,1,N,0050,1","00750,1,9,N","015000,1,N,1","-0047,1","-0076,1","10027,1",,,,"7,1,03,1","7,1,03,1",,"08,99,1,08,1,05,1,00800,1,99,9,99,9",,,"99999,9,09767,1","7,1,002,1,+999,9",,"71,1","SYN082AAXX  18091 01442 41565 80305 11047 21076 39767 40027 57002 77177 885// 333 4////;",
"01442099999","2010-02-18T12:00:00","4","58.6666666","7.8","211.0","BYGLANDSFJORD, NO","FM-12","99999","V020","010,1,N,0050,1","00060,1,9,N","000800,1,N,1","-0047,1","-0070,1","10019,1",,,,"7,1,06,1","7,1,06,1","09,1,+99999,9,99,9","09,99,1,09,1,99,9,99999,9,99,9,99,9",,,"99999,9,09758,1","8,1,008,1,+999,9",,"73,1","SYN082AAXX  18121 01442 11/08 90105 11047 21070 39758 40019 58008 6//// 77377 333 4////;",
"01442099999","2010-02-18T15:00:00","4","58.6666666","7.8","211.0","BYGLANDSFJORD, NO","FM-12","99999","V020","030,1,N,0050,1","00750,1,9,N","003000,1,N,1","-0052,1","-0068,1","09997,1",,,,"7,1,03,1","7,1,03,1",,"08,99,1,08,1,05,1,00800,1,99,9,99,9",,,"99999,9,09737,1","8,1,020,1,+999,9",,"71,1","SYN082AAXX  18151 01442 41530 80305 11052 21068 39737 49997 58020 77177 885// 333 4////;",
"01442099999","2010-02-18T18:00:00","4","58.6666666","7.8","211.0","BYGLANDSFJORD, NO","FM-12","99999","V020","350,1,N,0050,1","00120,1,9,N","002000,1,N,1","-0059,1","-0070,1","09997,1","12,0051,9,1",,,"7,1,06,1","7,1,06,1","09,1,+99999,9,99,9","09,99,1,09,1,99,9,99999,9,99,9,99,9",,"120,M,-0045,1","99999,9,09737,1","4,1,000,1,+999,9",,"73,1","SYN088AAXX  18181 01442 11/20 93505 11059 21070 39737 49997 54000 60052 77377 333 11045 4////;",
"01442099999","2010-02-19T06:00:00","4","58.6666666","7.8","211.0","BYGLANDSFJORD, NO","FM-12","99999","V020","340,1,N,0050,1","00750,1,9,N","010000,1,N,1","-0071,1","-0101,1","09972,1","12,0041,9,1","24,0084,9,1","0052,9,1,999999,9,9","7,1,06,1","7,1,06,1",,"08,99,1,08,1,05,1,00800,1,99,9,99,9","24,9","999,N,-0071,1","99999,9,09712,1","7,1,006,1,+999,9",,"71,1","SYN100AAXX  19061 01442 11560 83405 11071 21101 39712 49972 57006 60042 77177 885// 333 21071 48052 70085;",
"01442099999","2010-02-19T09:00:00","4","58.6666666","7.8","211.0","BYGLANDSFJORD, NO","FM-12","99999","V020","350,1,N,0070,1","01200,1,9,N","020000,1,N,1","-0071,1","-0104,1","09976,1",,,,"7,1,03,1","7,1,03,1",,"06,99,1,06,1,08,1,00800,1,00,1,00,1",,,"99999,9,09717,1","2,1,003,1,+999,9",,"71,1","SYN082AAXX  19091 01442 41570 63507 11071 21104 39717 49976 52003 77177 86800 333 4////;",
"01442099999","2010-02-19T12:00:00","4","58.6666666","7.8","211.0","BYGLANDSFJORD, NO","FM-12","99999","V020","350,1,N,0070,1","22000,1,9,N","075000,1,N,1","-0057,1","-0110,1","09978,1",,,,"7,1,06,1","1,1,06,1",,"02,99,1,01,1,01,1,00800,1,00,1,02,1",,,"99999,9,09718,1","2,1,002,1,+999,9",,"01,1","SYN088AAXX  19121 01442 11589 23507 11057 21110 39718 49978 52002 6//// 70171 81102 333 4////;",
"01442099999","2010-02-19T15:00:00","4","58.6666666","7.8","211.0","BYGLANDSFJORD, NO","FM-12","99999","V020","020,1,N,0070,1","07500,1,9,N","075000,1,N,1","-0070,1","-0122,1","09963,1",,,,"1,1,03,1","1,1,03,1",,"05,99,1,01,1,01,1,00800,1,07,1,02,1",,,"99999,9,09703,1","8,1,014,1,+999,9",,"03,1","SYN082AAXX  19151 01442 41589 50207 11070 21122 39703 49963 58014 70311 81172 333 4////;",
"01442099999","2010-02-19T18:00:00","4","58.6666666","7.8","211.0","BYGLANDSFJORD, NO","FM-12","99999","V020","350,1,N,0070,1","01500,1,9,N","050000,1,N,1","-0078,1","-0117,1","09965,1","12,0000,2,1",,,"7,1,06,1","1,1,06,1",,"08,99,1,08,1,00,1,01750,1,07,1,99,9",,"120,M,-0057,1","99999,9,09706,1","3,1,002,1,+999,9",,"70,1","SYN094AAXX  19181 01442 11784 83507 11078 21117 39706 49965 53002 69912 77071 8807/ 333 11057 4////;",
"01442099999","2010-02-20T03:00:00","4","58.6666666","7.8","211.0","BYGLANDSFJORD, NO","FM-12","99999","V020","350,1,N,0100,1","00240,1,9,N","010000,1,N,1","-0084,1","-0122,1","09941,1",,,,"7,1,03,1","3,1,03,1","09,1,+99999,9,99,9","09,99,1,09,1,99,9,99999,9,99,9,99,9",,,"99999,9,09682,1","8,1,010,1,+999,9",,"71,1","SYN076AAXX  20031 01442 41/60 93510 11084 21122 39682 49941 58010 77173 333 4////;",
"01442099999","2010-02-20T06:00:00","4","58.6666666","7.8","211.0","BYGLANDSFJORD, NO","FM-12","99999","V020","330,1,N,0100,1","00060,1,9,N","001000,1,N,1","-0092,1","-0114,1","09934,1","12,0020,9,1","24,0025,9,1","0052,9,1,999999,9,9","7,1,06,1","3,1,06,1","09,1,+99999,9,99,9","09,99,1,09,1,99,9,99999,9,99,9,99,9","24,9","999,N,-0092,1","99999,9,09675,1","7,1,007,1,+999,9",,"73,1","SYN094AAXX  20061 01442 11/10 93310 11092 21114 39675 49934 57007 60022 77373 333 21092 48052 70025;",
"01442099999","2010-02-20T09:00:00","4","58.6666666","7.8","211.0","BYGLANDSFJORD, NO","FM-12","99999","V020","330,1,N,0100,1","01500,1,9,N","003000,1,N,1","-0088,1","-0123,1","09934,1",,,,"7,1,03,1","3,1,03,1",,"08,99,1,08,1,00,1,01750,1,07,1,99,9",,,"99999,9,09675,1","4,1,000,1,+999,9",,"71,1","SYN082AAXX  20091 01442 41730 83310 11088 21123 39675 49934 54000 77173 8807/ 333 4////;",
"01442099999","2010-02-20T12:00:00","4","58.6666666","7.8","211.0","BYGLANDSFJORD, NO","FM-12","99999","V020","340,1,N,0070,1","00060,1,9,N","001000,1,N,1","-0091,1","-0119,1","09938,1",,,,"7,1,06,1","3,1,06,1","09,1,+99999,9,99,9","09,99,1,09,1,99,9,99999,9,99,9,99,9",,,"99999,9,09678,1","2,1,005,1,+999,9",,"73,1","SYN082AAXX  20121 01442 11/10 93407 11091 21119 39678 49938 52005 6//// 77373 333 4////;",
"01442099999","2010-02-20T15:00:00","4","58.6666666","7.8","211.0","BYGLANDSFJORD, NO","FM-12","99999","V020","010,1,N,0070,1","03000,1,9,N","070000,1,N,1","-0087,1","-0135,1","09937,1",,,,"7,1,03,1","3,1,03,1",,"08,99,1,02,1,07,1,00800,1,02,1,99,9",,,"99999,9,09677,1","5,1,002,1,+999,9",,"22,1","SYN082AAXX  20151 01442 41588 80107 11087 21135 39677 49937 55002 72273 8272/ 333 4////;",
"01442099999","2010-02-20T18:00:00","4","58.6666666","7.8","211.0","BYGLANDSFJORD, NO","FM-12","99999","V020","010,1,N,0100,1","00120,1,9,N","001500,1,N,1","-0099,1","-0124,1","09951,1","12,0030,9,1",,,"7,1,06,1","3,1,06,1","09,1,+99999,9,99,9","09,99,1,09,1,99,9,99999,9,99,9,99,9",,"120,M,-0083,1","99999,9,09692,1","2,1,014,1,+999,9",,"70,1","SYN088AAXX  20181 01442 11/15 90110 11099 21124 39692 49951 52014 60032 77073 333 11083 4////;",
"01442099999","2010-02-21T03:00:00","4","58.6666666","7.8","211.0","BYGLANDSFJORD, NO","FM-12","99999","V020","340,1,N,0050,1","22000,1,9,N","075000,1,N,1","-0129,1","-0174,1","09982,1",,,,"1,1,03,1","1,1,03,1",,"01,99,1,01,1,01,1,00800,1,00,1,00,1",,,"99999,9,09721,1","2,1,005,1,+999,9",,"01,1","SYN082AAXX  21031 01442 41589 13405 11129 21174 39721 49982 52005 70111 81100 333 4////;",
"01442099999","2010-02-21T06:00:00","4","58.6666666","7.8","211.0","BYGLANDSFJORD, NO","FM-12","99999","V020","340,1,N,0030,1","22000,1,9,N","075000,1,N,1","-0144,1","-0181,1","09988,1","12,0005,9,1","24,0030,9,1","0053,9,1,999999,9,9","1,1,06,1","0,1,06,1",,"02,99,1,01,1,00,1,02250,1,03,1,02,1","24,9","999,N,-0144,1","99999,9,09726,1","2,1,005,1,+999,9",,"02,1","SYN100AAXX  21061 01442 11889 23403 11144 21181 39726 49988 52005 69952 70210 81032 333 21144 48053 70031;",
"01442099999","2010-02-21T09:00:00","4","58.6666666","7.8","211.0","BYGLANDSFJORD, NO","FM-12","99999","V020","350,1,N,0050,1","99999,9,9,N","075000,1,N,1","-0146,1","-0178,1","09993,1",,,,"1,1,03,1","1,1,03,1",,"08,99,1,00,1,00,1,99999,9,00,1,07,1",,,"99999,9,09731,1","0,1,005,1,+999,9",,"03,1","SYN082AAXX  21091 01442 41989 83505 11146 21178 39731 49993 50005 70311 80007 333 4////;",
"01442099999","2010-02-21T12:00:00","4","58.6666666","7.8","211.0","BYGLANDSFJORD, NO","FM-12","99999","V020","310,1,N,0030,1","02100,1,9,N","075000,1,N,1","-0107,1","-0158,1","09995,1",,,,"2,1,06,1","1,1,06,1",,"08,99,1,08,1,00,1,02250,1,07,1,99,9",,,"99999,9,09733,1","0,1,003,1,+999,9",,"22,1","SYN088AAXX  21121 01442 11889 83103 11107 21158 39733 49995 50003 6//// 72221 8807/ 333 4////;",
"01442099999","2010-02-21T15:00:00","4","58.6666666","7.8","211.0","BYGLANDSFJORD, NO","FM-12","99999","V020","320,1,N,0030,1","01500,1,9,N","075000,1,N,1","-0098,1","-0156,1","09986,1",,,,"2,1,03,1","2,1,03,1",,"07,99,1,07,1,00,1,01750,1,07,1,01,1",,,"99999,9,09726,1","7,1,008,1,+999,9",,"01,1","SYN082AAXX  21151 01442 41789 73203 11098 21156 39726 49986 57008 70122 87071 333 4////;",
"01442099999","2010-02-21T18:00:00","4","58.6666666","7.8","211.0","BYGLANDSFJORD, NO","FM-12","99999","V020","140,1,N,0030,1","01500,1,9,N","075000,1,N,1","-0113,1","-0148,1","09990,1","12,0000,2,1",,,"7,1,06,1","2,1,06,1",,"07,99,1,07,1,00,1,01750,1,07,1,01,1",,"120,M,-0098,1","99999,9,09728,1","3,1,003,1,+999,9",,"22,1","SYN094AAXX  21181 01442 11789 71403 11113 21148 39728 49990 53003 69902 72272 87071 333 11098 4////;",
"01442099999","2010-02-22T03:00:00","4","58.6666666","7.8","211.0","BYGLANDSFJORD, NO","FM-12","99999","V020","330,1,N,0030,1","00120,1,9,N","002000,1,N,1","-0123,1","-0141,1","09978,1",,,,"7,1,03,1","7,1,03,1","09,1,+99999,9,99,9","09,99,1,09,1,99,9,99999,9,99,9,99,9",,,"99999,9,09717,1","8,1,007,1,+999,9",,"71,1","SYN076AAXX  22031 01442 41/20 93303 11123 21141 39717 49978 58007 77177 333 4////;",
"01442099999","2010-02-22T06:00:00","4","58.6666666","7.8","211.0","BYGLANDSFJORD, NO","FM-12","99999","V020","350,1,N,0030,1","01500,1,9,N","010000,1,N,1","-0120,1","-0137,1","09969,1","12,0020,9,2","24,0018,9,2","0054,9,1,999999,9,9","7,1,06,1","7,1,06,1",,"08,99,1,08,1,00,1,01750,1,02,1,99,9","24,9","999,N,-0123,1","99999,9,09707,1","7,1,009,1,+999,9",,"71,1","SYN100AAXX  22061 01442 11760 83503 11120 21137 39707 49969 57009 60022 77177 8802/ 333 21123 48054 70019;",
"01442099999","2010-02-22T09:00:00","4","58.6666666","7.8","211.0","BYGLANDSFJORD, NO","FM-12","99999","V020","330,1,N,0050,1","00420,1,9,N","050000,1,N,1","-0112,1","-0126,1","09964,1",,,,"7,1,03,1","2,1,03,1",,"08,99,1,08,1,06,1,00450,1,99,9,99,9",,,"99999,9,09703,1","7,1,003,1,+999,9",,"70,1","SYN082AAXX  22091 01442 41484 83305 11112 21126 39703 49964 57003 77072 886// 333 4////;",
"01442099999","2010-02-22T12:00:00","4","58.6666666","7.8","211.0","BYGLANDSFJORD, NO","FM-12","99999","V020","330,1,N,0030,1","00750,1,9,N","050000,1,N,1","-0094,1","-0111,1","09957,1",,,,"7,1,06,1","2,1,06,1",,"08,99,1,08,1,05,1,00800,1,99,9,99,9",,,"99999,9,09697,1","7,1,006,1,+999,9",,"70,1","SYN088AAXX  22121 01442 11584 83303 11094 21111 39697 49957 57006 6//// 77072 885// 333 4////;",
"01442099999","2010-02-22T15:00:00","4","58.6666666","7.8","211.0","BYGLANDSFJORD, NO","FM-12","99999","V020","350,1,N,0050,1","00420,1,9,N","070000,1,N,1","-0078,1","-0099,1","09943,1",,,,"7,1,03,1","2,1,03,1",,"08,99,1,08,1,05,1,00450,1,99,9,99,9",,,"99999,9,09683,1","7,1,014,1,+999,9",,"22,1","SYN082AAXX  22151 01442 41488 83505 11078 21099 39683 49943 57014 72272 885// 333 4////;",
"01442099999","2010-02-22T18:00:00","4","58.6666666","7.8","211.0","BYGLANDSFJORD, NO","FM-12","99999","V020","340,1,N,0030,1","00750,1,9,N","070000,1,N,1","-0078,1","-0094,1","09938,1","12,0000,2,1",,,"7,1,06,1","2,1,06,1",,"08,99,1,08,1,05,1,00800,1,99,9,99,9",,"120,M,-0074,1","99999,9,09680,1","5,1,004,1,+999,9",,"02,1","SYN094AAXX  22181 01442 11588 83403 11078 21094 39680 49938 55004 69922 70272 885// 333 11074 4////;",
"01442099999","2010-02-23T03:00:00","4","58.6666666","7.8","211.0","BYGLANDSFJORD, NO","FM-12","99999","V020","350,1,N,0030,1","00750,1,9,N","070000,1,N,1","-0073,1","-0086,1","09931,1",,,,"2,1,03,1","2,1,03,1",,"08,99,1,08,1,05,1,00800,1,99,9,99,9",,,"99999,9,09672,1","7,1,003,1,+999,9",,"02,1","SYN082AAXX  23031 01442 41588 83503 11073 21086 39672 49931 57003 70222 885// 333 4////;",
"01442099999","2010-02-23T06:00:00","4","58.6666666","7.8","211.0","BYGLANDSFJORD, NO","FM-12","99999","V020","350,1,N,0030,1","01500,1,9,N","075000,1,N,1","-0087,1","-0100,1","09936,1","12,0000,9,1","24,0003,9,1","0053,9,1,999999,9,9","2,1,06,1","2,1,06,1",,"07,99,1,07,1,00,1,01750,1,07,1,01,1","24,9","999,N,-0087,1","99999,9,09677,1","3,1,005,1,+999,9",,"01,1","SYN100AAXX  23061 01442 11789 73503 11087 21100 39677 49936 53005 60002 70122 87071 333 21087 48053 70002;","Q01  00002PRCP12"
"01442099999","2010-02-23T09:00:00","4","58.6666666","7.8","211.0","BYGLANDSFJORD, NO","FM-12","99999","V020","080,1,N,0030,1","01500,1,9,N","075000,1,N,1","-0063,1","-0083,1","09948,1",,,,"7,1,03,1","2,1,03,1",,"07,99,1,07,1,00,1,01750,1,07,1,01,1",,,"99999,9,09690,1","3,1,013,1,+999,9",,"01,1","SYN082AAXX  23091 01442 41789 70803 11063 21083 39690 49948 53013 70172 87071 333 4////;",
"01442099999","2010-02-23T12:00:00","4","58.6666666","7.8","211.0","BYGLANDSFJORD, NO","FM-12","99999","V020","150,1,N,0030,1","22000,1,9,N","075000,1,N,1","-0027,1","-0069,1","09953,1",,,,"7,1,06,1","1,1,06,1",,"01,99,1,01,1,01,1,01250,1,00,1,01,1",,,"99999,9,09696,1","2,1,006,1,+999,9",,"01,1","SYN088AAXX  23121 01442 11689 11503 11027 21069 39696 49953 52006 6//// 70171 81101 333 4////;",
"01442099999","2010-02-23T15:00:00","4","58.6666666","7.8","211.0","BYGLANDSFJORD, NO","FM-12","99999","V020","350,1,N,0030,1","22000,1,9,N","075000,1,N,1","-0010,1","-0096,1","09965,1",,,,"0,1,03,1","0,1,03,1",,"01,99,1,01,1,01,1,01750,1,00,1,00,1",,,"99999,9,09707,1","2,1,012,1,+999,9",,"01,1","SYN082AAXX  23151 01442 41789 13503 11010 21096 39707 49965 52012 70100 81100 333 4////;",
"01442099999","2010-02-23T18:00:00","4","58.6666666","7.8","211.0","BYGLANDSFJORD, NO","FM-12","99999","V020","350,1,N,0030,1","22000,1,9,N","075000,1,N,1","-0064,1","-0106,1","09988,1","12,0000,9,1",,,"0,1,06,1","0,1,06,1","00,1,+99999,9,99,9","00,99,1,00,1,00,1,99999,9,00,1,00,1",,"120,M,-0006,1","99999,9,09728,1","3,1,022,1,+999,9",,"02,1","SYN088AAXX  23181 01442 11989 03503 11064 21106 39728 49988 53022 69902 70200 333 11006 4////;","Q01  00002PRCP12"
"01442099999","2010-02-24T03:00:00","4","58.6666666","7.8","211.0","BYGLANDSFJORD, NO","FM-12","99999","V020","340,1,N,0030,1","22000,1,9,N","075000,1,N,1","-0152,1","-0166,1","10049,1",,,,"0,1,03,1","0,1,03,1",,"01,99,1,00,1,00,1,99999,9,00,1,01,1",,,"99999,9,09785,1","1,1,012,1,+999,9",,"02,1","SYN082AAXX  24031 01442 41989 13403 11152 21166 39785 40049 51012 70200 80001 333 4////;",
"01442099999","2010-02-24T06:00:00","4","58.6666666","7.8","211.0","BYGLANDSFJORD, NO","FM-12","99999","V020","340,1,N,0050,1","99999,9,9,N","075000,1,N,1","-0140,1","-0156,1","10052,1","12,0000,9,1","24,0000,9,1","0053,9,1,999999,9,9","1,1,06,1","0,1,06,1",,"07,99,1,00,1,00,1,99999,9,00,1,08,1","24,9","999,N,-0166,1","99999,9,09788,1","2,1,004,1,+999,9",,"03,1","SYN100AAXX  24061 01442 11989 73405 11140 21156 39788 40052 52004 60002 70310 80008 333 21166 48053 70000;","Q01  00002PRCP24Q02  00002PRCP12"
"01442099999","2010-02-24T09:00:00","4","58.6666666","7.8","211.0","BYGLANDSFJORD, NO","FM-12","99999","V020","350,1,N,0030,1","99999,9,9,N","075000,1,N,1","-0123,1","-0150,1","10064,1",,,,"2,1,03,1","2,1,03,1",,"07,99,1,00,1,00,1,99999,9,00,1,08,1",,,"99999,9,09801,1","2,1,012,1,+999,9",,"03,1","SYN082AAXX  24091 01442 41989 73503 11123 21150 39801 40064 52012 70322 80008 333 4////;",
"01442099999","2010-02-24T12:00:00","4","58.6666666","7.8","211.0","BYGLANDSFJORD, NO","FM-12","99999","V020","340,1,N,0050,1","02100,1,9,N","075000,1,N,1","-0082,1","-0132,1","10069,1",,,,"2,1,06,1","2,1,06,1",,"08,99,1,08,1,00,1,02250,1,01,1,99,9",,,"99999,9,09807,1","2,1,006,1,+999,9",,"03,1","SYN088AAXX  24121 01442 11889 83405 11082 21132 39807 40069 52006 6//// 70322 8801/ 333 4////;",
"01442099999","2010-02-24T15:00:00","4","58.6666666","7.8","211.0","BYGLANDSFJORD, NO","FM-12","99999","V020","350,1,N,0030,1","07500,1,9,N","075000,1,N,1","-0065,1","-0123,1","10065,1",,,,"2,1,03,1","2,1,03,1",,"07,99,1,02,1,00,1,01750,1,03,1,08,1",,,"99999,9,09803,1","8,1,003,1,+999,9",,"01,1","SYN082AAXX  24151 01442 41789 73503 11065 21123 39803 40065 58003 70122 82038 333 4////;",
"01442099999","2010-02-24T18:00:00","4","58.6666666","7.8","211.0","BYGLANDSFJORD, NO","FM-12","99999","V020","350,1,N,0030,1","99999,9,9,N","075000,1,N,1","-0080,1","-0122,1","10067,1","12,0000,9,1",,,"2,1,06,1","2,1,06,1",,"07,99,1,00,1,00,1,99999,9,00,1,08,1",,"120,M,-0064,1","99999,9,09805,1","5,1,001,1,+999,9",,"02,1","SYN094AAXX  24181 01442 11989 73503 11080 21122 39805 40067 55001 60002 70222 80008 333 11064 4////;","Q01  00002PRCP12"
"01442099999","2010-02-25T03:00:00","4","58.6666666","7.8","211.0","BYGLANDSFJORD, NO","FM-12","99999","V020","350,1,N,0050,1","02100,1,9,N","075000,1,N,1","-0057,1","-0090,1","10035,1",,,,"2,1,03,1","2,1,03,1",,"08,99,1,08,1,00,1,02250,1,02,1,99,9",,,"99999,9,09775,1","8,1,017,1,+999,9",,"02,1","SYN082AAXX  25031 01442 41889 83505 11057 21090 39775 40035 58017 70222 8802/ 333 4////;",
"01442099999","2010-02-25T06:00:00","4","58.6666666","7.8","211.0","BYGLANDSFJORD, NO","FM-12","99999","V020","340,1,N,0030,1","01500,1,9,N","075000,1,N,1","-0054,1","-0083,1","10023,1","12,9999,9,9","24,9999,9,9","0052,9,1,999999,9,9","7,1,06,1","2,1,06,1",,"08,99,1,08,1,00,1,01750,1,02,1,99,9","24,9","999,N,-0110,1","99999,9,09762,1","7,1,012,1,+999,9",,"22,1","SYN100AAXX  25061 01442 11789 83403 11054 21083 39762 40023 57012 69902 72272 8802/ 333 21110 48052 70000;","Q01  00002PRCP24Q02  00002PRCP12Q03  00002PRCP12Q04  00002PRCP24"
"01442099999","2010-02-25T09:00:00","4","58.6666666","7.8","211.0","BYGLANDSFJORD, NO","FM-12","99999","V020","010,1,N,0050,1","01500,1,9,N","010000,1,N,1","-0045,1","-0075,1","10018,1",,,,"7,1,03,1","2,1,03,1",,"08,99,1,08,1,00,1,01750,1,02,1,99,9",,,"99999,9,09757,1","7,1,005,1,+999,9",,"70,1","SYN082AAXX  25091 01442 41760 80105 11045 21075 39757 40018 57005 77072 8802/ 333 4////;",
"01442099999","2010-02-25T12:00:00","4","58.6666666","7.8","211.0","BYGLANDSFJORD, NO","FM-12","99999","V020","010,1,N,0050,1","00750,1,9,N","010000,1,N,1","-0034,1","-0066,1","10006,1",,,,"7,1,06,1","2,1,06,1",,"08,99,1,08,1,05,1,00800,1,99,9,99,9",,,"99999,9,09747,1","8,1,012,1,+999,9",,"70,1","SYN088AAXX  25121 01442 11560 80105 11034 21066 39747 40006 58012 6//// 77072 885// 333 4////;",
"01442099999","2010-02-25T15:00:00","4","58.6666666","7.8","211.0","BYGLANDSFJORD, NO","FM-12","99999","V020","330,1,N,0050,1","00750,1,9,N","003000,1,N,1","-0037,1","-0062,1","09987,1",,,,"7,1,03,1","7,1,03,1",,"08,99,1,08,1,05,1,00800,1,99,9,99,9",,,"99999,9,09727,1","7,1,018,1,+999,9",,"71,1","SYN082AAXX  25151 01442 41530 83305 11037 21062 39727 49987 57018 77177 885// 333 4////;",
"01442099999","2010-02-25T18:00:00","4","58.6666666","7.8","211.0","BYGLANDSFJORD, NO","FM-12","99999","V020","330,1,N,0050,1","00750,1,9,N","075000,1,N,1","-0039,1","-0064,1","99999,9","12,0010,9,1",,,"7,1,06,1","2,1,06,1",,"08,99,1,08,1,05,1,00800,1,99,9,99,9",,"120,M,-0032,1",,"6,1,012,1,+999,9","3,0949,9","22,1","SYN094AAXX  25181 01442 11589 83305 11039 21064 38717 48949 56012 60012 72272 885// 333 11032 4////;","Q01+087173APOSP "
"01442099999","2010-02-26T03:00:00","4","58.6666666","7.8","211.0","BYGLANDSFJORD, NO","FM-12","99999","V020","350,1,N,0070,1","00750,1,9,N","075000,1,N,1","-0029,1","-0060,1","09937,1",,,,"7,1,03,1","2,1,03,1",,"08,99,1,08,1,05,1,00800,1,99,9,99,9",,,"99999,9,09680,1","7,1,012,1,+999,9",,"02,1","SYN082AAXX  26031 01442 41589 83507 11029 21060 39680 49937 57012 70272 885// 333 4////;",
"01442099999","2010-02-26T06:00:00","4","58.6666666","7.8","211.0","BYGLANDSFJORD, NO","FM-12","99999","V020","330,1,N,0070,1","00750,1,9,N","010000,1,N,1","-0031,1","-0045,1","09929,1","12,0010,9,1","24,0025,9,1","0053,9,1,999999,9,9","7,1,06,1","2,1,06,1",,"08,99,1,08,1,05,1,00800,1,99,9,99,9","24,9","999,N,-0038,1","99999,9,09672,1","6,1,007,1,+999,9",,"70,1","SYN100AAXX  26061 01442 11560 83307 11031 21045 39672 49929 56007 60012 77072 885// 333 21038 48053 70026;",
"01442099999","2010-02-26T09:00:00","4","58.6666666","7.8","211.0","BYGLANDSFJORD, NO","FM-12","99999","V020","350,1,N,0070,1","01500,1,9,N","070000,1,N,1","-0016,1","-0047,1","09928,1",,,,"7,1,03,1","2,1,03,1",,"08,99,1,08,1,00,1,01750,1,07,1,99,9",,,"99999,9,09672,1","4,1,000,1,+999,9",,"22,1","SYN082AAXX  26091 01442 41788 83507 11016 21047 39672 49928 54000 72272 8807/ 333 4////;",
"01442099999","2010-02-26T12:00:00","4","58.6666666","7.8","211.0","BYGLANDSFJORD, NO","FM-12","99999","V020","340,1,N,0050,1","01500,1,9,N","015000,1,N,1","-0004,1","-0032,1","09929,1",,,,"7,1,06,1","2,1,06,1",,"08,99,1,08,1,00,1,01750,1,07,1,99,9",,,"99999,9,09672,1","0,1,001,1,+999,9",,"70,1","SYN088AAXX  26121 01442 11765 83405 11004 21032 39672 49929 50001 6//// 77072 8807/ 333 4////;",
"01442099999","2010-02-26T15:00:00","4","58.6666666","7.8","211.0","BYGLANDSFJORD, NO","FM-12","99999","V020","330,1,N,0050,1","03000,1,9,N","075000,1,N,1","+0004,1","-0030,1","09923,1",,,,"7,1,03,1","2,1,03,1",,"08,99,1,01,1,01,1,01250,1,07,1,99,9",,,"99999,9,09667,1","7,1,006,1,+999,9",,"22,1","SYN082AAXX  26151 01442 41689 83305 10004 21030 39667 49923 57006 72272 8117/ 333 4////;",
"01442099999","2010-02-26T18:00:00","4","58.6666666","7.8","211.0","BYGLANDSFJORD, NO","FM-12","99999","V020","340,1,N,0030,1","01200,1,9,N","075000,1,N,1","+0004,1","-0026,1","09926,1","12,0003,9,1",,,"7,1,06,1","2,1,06,1",,"08,99,1,08,1,05,1,01250,1,99,9,99,9",,"120,M,+0005,1","99999,9,09670,1","3,1,002,1,+999,9",,"02,1","SYN094AAXX  26181 01442 11689 83403 10004 21026 39670 49926 53002 69932 70272 885// 333 10005 4////;",
"01442099999","2010-02-27T03:00:00","4","58.6666666","7.8","211.0","BYGLANDSFJORD, NO","FM-12","99999","V020","340,1,N,0050,1","00030,1,9,N","000500,1,N,1","+0002,1","-0005,1","09916,1",,,,"7,1,03,1","2,1,03,1","09,1,+99999,9,99,9","09,99,1,09,1,99,9,99999,9,99,9,99,9",,,"99999,9,09660,1","8,1,009,1,+999,9",,"72,1","SYN076AAXX  27031 01442 41/05 93405 10002 21005 39660 49916 58009 77272 333 4////;",
"01442099999","2010-02-27T06:00:00","4","58.6666666","7.8","211.0","BYGLANDSFJORD, NO","FM-12","99999","V020","330,1,N,0030,1","00030,1,9,N","000500,1,N,1","+0001,1","-0005,1","09920,1","12,0061,9,1","24,0061,9,1","0056,9,1,999999,9,9","7,1,06,1","2,1,06,1","09,1,+99999,9,99,9","09,99,1,09,1,99,9,99999,9,99,9,99,9","28,9","999,N,-0002,1","99999,9,09663,1","2,1,004,1,+999,9",,"73,1","SYN094AAXX  27061 01442 11/05 93303 10001 21005 39663 49920 52004 60062 77372 333 21002 44056 70062;",
"01442099999","2010-02-27T09:00:00","4","58.6666666","7.8","211.0","BYGLANDSFJORD, NO","FM-12","99999","V020","350,1,N,0050,1","00210,1,9,N","010000,1,N,1","+0005,1","-0002,1","09922,1",,,,"7,1,03,1","7,1,03,1",,"08,99,1,08,1,07,1,00250,1,99,9,99,9",,,"99999,9,09666,1","2,1,002,1,+999,9",,"71,1","SYN082AAXX  27091 01442 41360 83505 10005 21002 39666 49922 52002 77177 887// 333 4////;",
"01442099999","2010-02-27T12:00:00","4","58.6666666","7.8","211.0","BYGLANDSFJORD, NO","FM-12","99999","V020","340,1,N,0030,1","00420,1,9,N","070000,1,N,1","+0021,1","-0011,1","09923,1",,,,"7,1,06,1","2,1,06,1",,"08,99,1,08,1,05,1,00450,1,99,9,99,9",,,"99999,9,09667,1","2,1,002,1,+999,9",,"22,1","SYN088AAXX  27121 01442 11488 83403 10021 21011 39667 49923 52002 6//// 72272 885// 333 4////;",
"01442099999","2010-02-27T15:00:00","4","58.6666666","7.8","211.0","BYGLANDSFJORD, NO","FM-12","99999","V020","350,1,N,0050,1","00750,1,9,N","075000,1,N,1","+0011,1","-0025,1","09926,1",,,,"2,1,03,1","2,1,03,1",,"08,99,1,08,1,05,1,00800,1,99,9,99,9",,,"99999,9,09670,1","2,1,002,1,+999,9",,"02,1","SYN082AAXX  27151 01442 41589 83505 10011 21025 39670 49926 52002 70222 885// 333 4////;",
"01442099999","2010-02-27T18:00:00","4","58.6666666","7.8","211.0","BYGLANDSFJORD, NO","FM-12","99999","V020","340,1,N,0050,1","00750,1,9,N","005000,1,N,1","-0008,1","-0018,1","09933,1","12,0020,9,1",,,"7,1,06,1","2,1,06,1",,"08,99,1,08,1,05,1,00800,1,99,9,99,9",,"120,M,+0022,1","99999,9,09677,1","2,1,006,1,+999,9",,"70,1","SYN094AAXX  27181 01442 11550 83405 11008 21018 39677 49933 52006 60022 77072 885// 333 10022 4////;",
"01442099999","2010-02-28T03:00:00","4","58.6666666","7.8","211.0","BYGLANDSFJORD, NO","FM-12","99999","V020","999,9,C,0000,1","00750,1,9,N","075000,1,N,1","-0020,1","-0035,1","09936,1",,,,"7,1,03,1","2,1,03,1",,"08,99,1,08,1,05,1,00800,1,99,9,99,9",,,"99999,9,09678,1","4,1,000,1,+999,9",,"02,1","SYN082AAXX  28031 01442 41589 80000 11020 21035 39678 49936 54000 70272 885// 333 4////;",
"01442099999","2010-02-28T06:00:00","4","58.6666666","7.8","211.0","BYGLANDSFJORD, NO","FM-12","99999","V020","010,1,N,0030,1","01500,1,9,N","075000,1,N,1","-0021,1","-0039,1","09932,1","12,0000,2,1","24,0020,9,1","0054,9,1,999999,9,9","7,1,06,1","2,1,06,1",,"08,99,1,08,1,00,1,01750,1,07,1,99,9","28,9","999,N,-0021,1","99999,9,09675,1","7,1,005,1,+999,9",,"01,1","SYN100AAXX  28061 01442 11789 80103 11021 21039 39675 49932 57005 69912 70172 8807/ 333 21021 44054 70021;",
"01442099999","2010-02-28T09:00:00","4","58.6666666","7.8","211.0","BYGLANDSFJORD, NO","FM-12","99999","V020","340,1,N,0030,1","01500,1,9,N","075000,1,N,1","-0018,1","-0040,1","09935,1",,,,"2,1,03,1","2,1,03,1",,"08,99,1,08,1,00,1,01750,1,02,1,99,9",,,"99999,9,09677,1","0,1,003,1,+999,9",,"02,1","SYN082AAXX  28091 01442 41789 83403 11018 21040 39677 49935 50003 70222 8802/ 333 4////;",
"01442099999","2010-02-28T12:00:00","4","58.6666666","7.8","211.0","BYGLANDSFJORD, NO","FM-12","99999","V020","340,1,N,0050,1","03000,1,9,N","060000,1,N,1","-0012,1","-0036,1","09932,1",,,,"7,1,06,1","2,1,06,1",,"08,99,1,01,1,07,1,00800,1,02,1,99,9",,,"99999,9,09676,1","8,1,002,1,+999,9",,"70,1","SYN088AAXX  28121 01442 11586 83405 11012 21036 39676 49932 58002 6//// 77072 8172/ 333 4////;",
"01442099999","2010-02-28T15:00:00","4","58.6666666","7.8","211.0","BYGLANDSFJORD, NO","FM-12","99999","V020","330,1,N,0050,1","01500,1,9,N","075000,1,N,1","-0004,1","-0043,1","09916,1",,,,"7,1,03,1","2,1,03,1",,"08,99,1,08,1,00,1,01750,1,07,1,99,9",,,"99999,9,09660,1","7,1,016,1,+999,9",,"02,1","SYN082AAXX  28151 01442 41789 83305 11004 21043 39660 49916 57016 70272 8807/ 333 4////;",
"01442099999","2010-02-28T18:00:00","4","58.6666666","7.8","211.0","BYGLANDSFJORD, NO","FM-12","99999","V020","340,1,N,0050,1","01500,1,9,N","075000,1,N,1","-0011,1","-0045,1","09913,1","12,0000,2,1",,,"7,1,06,1","2,1,06,1",,"08,99,1,08,1,00,1,01750,1,07,1,99,9",,"120,M,-0003,1","99999,9,09657,1","7,1,003,1,+999,9",,"02,1","SYN094AAXX  28181 01442 11789 83405 11011 21045 39657 49913 57003 69912 70272 8807/ 333 11003 4////;",
"01442099999","2010-03-01T03:00:00","4","58.6666666","7.8","211.0","BYGLANDSFJORD, NO","FM-12","99999","V020","340,1,N,0030,1","01500,1,9,N","075000,1,N,1","-0007,1","-0055,1","09908,1",,,,"2,1,03,1","2,1,03,1",,"08,99,1,08,1,00,1,01750,1,07,1,99,9",,,"99999,9,09652,1","3,1,002,1,+999,9",,"02,1","SYN082AAXX  01031 01442 41789 83403 11007 21055 39652 49908 53002 70222 8807/ 333 4////;",
"01442099999","2010-03-01T06:00:00","4","58.6666666","7.8","211.0","BYGLANDSFJORD, NO","FM-12","99999","V020","340,1,N,0030,1","01500,1,9,N","075000,1,N,1","-0020,1","-0051,1","09917,1","12,0000,9,1","24,0000,2,1","0054,9,1,999999,9,9","2,1,06,1","2,1,06,1",,"08,99,1,08,1,00,1,01750,1,07,1,99,9","28,9","999,N,-0020,1","99999,9,09661,1","3,1,009,1,+999,9",,"02,1","SYN100AAXX  01061 01442 11789 83403 11020 21051 39661 49917 53009 60002 70222 8807/ 333 21020 44054 70001;","Q01  00002PRCP12"
"01442099999","2010-03-01T09:00:00","4","58.6666666","7.8","211.0","BYGLANDSFJORD, NO","FM-12","99999","V020","350,1,N,0030,1","01200,1,9,N","075000,1,N,1","-0012,1","-0049,1","09937,1",,,,"2,1,03,1","2,1,03,1",,"07,99,1,07,1,05,1,01250,1,00,1,00,1",,,"99999,9,09680,1","2,1,019,1,+999,9",,"01,1","SYN082AAXX  01091 01442 41689 73503 11012 21049 39680 49937 52019 70122 87500 333 4////;",
"01442099999","2010-03-01T12:00:00","4","58.6666666","7.8","211.0","BYGLANDSFJORD, NO","FM-12","99999","V020","340,1,N,0050,1","22000,1,9,N","075000,1,N,1","+0028,1","-0085,1","09952,1",,,,"1,1,06,1","1,1,06,1",,"03,99,1,01,1,01,1,01250,1,00,1,02,1",,,"99999,9,09697,1","2,1,017,1,+999,9",,"01,1","SYN088AAXX  01121 01442 11689 33405 10028 21085 39697 49952 52017 6//// 70111 81102 333 4////;",
"01442099999","2010-03-01T15:00:00","4","58.6666666","7.8","211.0","BYGLANDSFJORD, NO","FM-12","99999","V020","330,1,N,0050,1","22000,1,9,N","075000,1,N,1","+0015,1","-0122,1","09973,1",,,,"0,1,03,1","0,1,03,1",,"01,99,1,00,1,00,1,99999,9,00,1,02,1",,,"99999,9,09716,1","3,1,018,1,+999,9",,"02,1","SYN082AAXX  01151 01442 41989 13305 10015 21122 39716 49973 53018 70200 80002 333 4////;",
"01442099999","2010-03-01T18:00:00","4","58.6666666","7.8","211.0","BYGLANDSFJORD, NO","FM-12","99999","V020","350,1,N,0030,1","22000,1,9,N","075000,1,N,1","-0024,1","-0104,1","09999,1","12,0000,9,1",,,"0,1,06,1","0,1,06,1",,"01,99,1,00,1,00,1,99999,9,00,1,01,1",,"120,M,+0029,1","99999,9,09741,1","3,1,026,1,+999,9",,"02,1","SYN094AAXX  01181 01442 11989 13503 11024 21104 39741 49999 53026 60002 70200 80001 333 10029 4////;","Q01  00002PRCP12"
"01442099999","2010-03-02T03:00:00","4","58.6666666","7.8","211.0","BYGLANDSFJORD, NO","FM-12","99999","V020","999,9,C,0000,1","22000,1,9,N","075000,1,N,1","-0135,1","-0148,1","10063,1",,,,"0,1,03,1","0,1,03,1","00,1,+99999,9,99,9","00,99,1,00,1,00,1,99999,9,00,1,00,1",,,"99999,9,09800,1","3,1,020,1,+999,9",,"02,1","SYN076AAXX  02031 01442 41989 00000 11135 21148 39800 40063 53020 70200 333 4////;",
"01442099999","2010-03-02T06:00:00","4","58.6666666","7.8","211.0","BYGLANDSFJORD, NO","FM-12","99999","V020","350,1,N,0030,1","22000,1,9,N","075000,1,N,1","-0126,1","-0138,1","10087,1","12,0000,9,1","24,0000,9,1","0053,9,1,999999,9,9","0,1,06,1","0,1,06,1","00,1,+99999,9,99,9","00,99,1,00,1,00,1,99999,9,00,1,00,1","28,9","999,N,-0145,1","99999,9,09822,1","3,1,023,1,+999,9",,"02,1","SYN094AAXX  02061 01442 11989 03503 11126 21138 39822 40087 53023 60002 70200 333 21145 44053 70000;","Q01  00002PRCP24Q02  00002PRCP12"
"01442099999","2010-03-02T09:00:00","4","58.6666666","7.8","211.0","BYGLANDSFJORD, NO","FM-12","99999","V020","360,1,N,0050,1","22000,1,9,N","075000,1,N,1","-0098,1","-0116,1","10112,1",,,,"0,1,03,1","0,1,03,1","00,1,+99999,9,99,9","00,99,1,00,1,00,1,99999,9,00,1,00,1",,,"99999,9,09847,1","2,1,024,1,+999,9",,"02,1","SYN076AAXX  02091 01442 41989 03605 11098 21116 39847 40112 52024 70200 333 4////;",
"01442099999","2010-03-02T12:00:00","4","58.6666666","7.8","211.0","BYGLANDSFJORD, NO","FM-12","99999","V020","340,1,N,0050,1","22000,1,9,N","075000,1,N,1","-0038,1","-0105,1","10121,1",,,,"0,1,06,1","0,1,06,1",,"01,99,1,00,1,00,1,99999,9,00,1,01,1",,,"99999,9,09858,1","1,1,011,1,+999,9",,"02,1","SYN088AAXX  02121 01442 11989 13405 11038 21105 39858 40121 51011 6//// 70200 80001 333 4////;",
"01442099999","2010-03-02T15:00:00","4","58.6666666","7.8","211.0","BYGLANDSFJORD, NO","FM-12","99999","V020","280,1,N,0030,1","99999,9,9,N","075000,1,N,1","+0022,1","-0148,1","10115,1",,,,"1,1,03,1","1,1,03,1",,"06,99,1,00,1,00,1,99999,9,00,1,08,1",,,"99999,9,09855,1","7,1,004,1,+999,9",,"01,1","SYN082AAXX  02151 01442 41989 62803 10022 21148 39855 40115 57004 70111 80008 333 4////;",
"01442099999","2010-03-02T18:00:00","4","58.6666666","7.8","211.0","BYGLANDSFJORD, NO","FM-12","99999","V020","300,1,N,0010,1","22000,1,9,N","075000,1,N,1","-0023,1","-0088,1","10116,1","12,0000,9,1",,,"1,1,06,1","1,1,06,1",,"01,99,1,01,1,00,1,99999,9,04,1,01,1",,"120,M,+0023,1","99999,9,09855,1","0,1,000,1,+999,9",,"01,1","SYN094AAXX  02181 01442 11989 13001 11023 21088 39855 40116 50000 60002 70111 81041 333 10023 4////;","Q01  00002PRCP12"
"01442099999","2010-03-03T03:00:00","4","58.6666666","7.8","211.0","BYGLANDSFJORD, NO","FM-12","99999","V020","280,1,N,0030,1","22000,1,9,N","075000,1,N,1","-0042,1","-0071,1","10128,1",,,,"0,1,03,1","0,1,03,1","00,1,+99999,9,99,9","00,99,1,00,1,00,1,99999,9,00,1,00,1",,,"99999,9,09866,1","1,1,007,1,+999,9",,"02,1","SYN076AAXX  03031 01442 41989 02803 11042 21071 39866 40128 51007 70200 333 4////;",
"01442099999","2010-03-03T06:00:00","4","58.6666666","7.8","211.0","BYGLANDSFJORD, NO","FM-12","99999","V020","999,9,C,0000,1","22000,1,9,N","075000,1,N,1","-0082,1","-0095,1","10144,1","12,0000,9,1","24,0000,9,1","0053,9,1,999999,9,9","0,1,06,1","0,1,06,1","00,1,+99999,9,99,9","00,99,1,00,1,00,1,99999,9,00,1,00,1","28,9","999,N,-0082,1","99999,9,09880,1","3,1,014,1,+999,9",,"02,1","SYN094AAXX  03061 01442 11989 00000 11082 21095 39880 40144 53014 60002 70200 333 21082 44053 70000;","Q01  00002PRCP24Q02  00002PRCP12"
"01442099999","2010-03-03T09:00:00","4","58.6666666","7.8","211.0","BYGLANDSFJORD, NO","FM-12","99999","V020","120,1,N,0010,1","22000,1,9,N","075000,1,N,1","-0054,1","-0071,1","10163,1",,,,"0,1,03,1","0,1,03,1","00,1,+99999,9,99,9","00,99,1,00,1,00,1,99999,9,00,1,00,1",,,"99999,9,09898,1","2,1,019,1,+999,9",,"02,1","SYN076AAXX  03091 01442 41989 01201 11054 21071 39898 40163 52019 70200 333 4////;",
"01442099999","2010-03-03T12:00:00","4","58.6666666","7.8","211.0","BYGLANDSFJORD, NO","FM-12","99999","V020","340,1,N,0050,1","22000,1,9,N","075000,1,N,1","+0032,1","-0097,1","10165,1",,,,"0,1,06,1","0,1,06,1","00,1,+99999,9,99,9","00,99,1,00,1,00,1,99999,9,00,1,00,1",,,"99999,9,09905,1","2,1,006,1,+999,9",,"02,1","SYN082AAXX  03121 01442 11989 03405 10032 21097 39905 40165 52006 6//// 70200 333 4////;",
"01442099999","2010-03-03T15:00:00","4","58.6666666","7.8","211.0","BYGLANDSFJORD, NO","FM-12","99999","V020","340,1,N,0050,1","07500,1,9,N","075000,1,N,1","+0017,1","-0086,1","10163,1",,,,"1,1,03,1","0,1,03,1",,"07,99,1,02,1,00,1,02250,1,03,1,08,1",,,"99999,9,09902,1","7,1,002,1,+999,9",,"03,1","SYN082AAXX  03151 01442 41889 73405 10017 21086 39902 40163 57002 70310 82038 333 4////;",
"01442099999","2010-03-03T18:00:00","4","58.6666666","7.8","211.0","BYGLANDSFJORD, NO","FM-12","99999","V020","330,1,N,0030,1","22000,1,9,N","075000,1,N,1","-0026,1","-0080,1","10166,1","12,0000,9,1",,,"1,1,06,1","0,1,06,1",,"02,99,1,00,1,00,1,99999,9,00,1,02,1",,"120,M,+0037,1","99999,9,09902,1","4,1,000,1,+999,9",,"01,1","SYN094AAXX  03181 01442 11989 23303 11026 21080 39902 40166 54000 60002 70110 80002 333 10037 4////;","Q01  00002PRCP12"
"01442099999","2010-03-04T03:00:00","4","58.6666666","7.8","211.0","BYGLANDSFJORD, NO","FM-12","99999","V020","340,1,N,0030,1","22000,1,9,N","075000,1,N,1","-0101,1","-0142,1","10203,1",,,,"0,1,03,1","0,1,03,1","00,1,+99999,9,99,9","00,99,1,00,1,00,1,99999,9,00,1,00,1",,,"99999,9,09937,1","1,1,007,1,+999,9",,"02,1","SYN076AAXX  04031 01442 41989 03403 11101 21142 39937 40203 51007 70200 333 4////;",
"01442099999","2010-03-04T06:00:00","4","58.6666666","7.8","211.0","BYGLANDSFJORD, NO","FM-12","99999","V020","340,1,N,0050,1","22000,1,9,N","075000,1,N,1","-0116,1","-0149,1","10212,1","12,0000,9,1","24,0000,9,1","0052,9,1,999999,9,9","0,1,06,1","0,1,06,1","00,1,+99999,9,99,9","00,99,1,00,1,00,1,99999,9,00,1,00,1","28,9","999,N,-0116,1","99999,9,09945,1","2,1,008,1,+999,9",,"02,1","SYN094AAXX  04061 01442 11989 03405 11116 21149 39945 40212 52008 60002 70200 333 21116 44052 70000;","Q01  00002PRCP24Q02  00002PRCP12"
"01442099999","2010-03-04T09:00:00","4","58.6666666","7.8","211.0","BYGLANDSFJORD, NO","FM-12","99999","V020","340,1,N,0050,1","01500,1,9,N","075000,1,N,1","-0085,1","-0132,1","10218,1",,,,"1,1,03,1","1,1,03,1",,"07,99,1,07,1,00,1,01750,1,07,1,00,1",,,"99999,9,09952,1","2,1,006,1,+999,9",,"01,1","SYN082AAXX  04091 01442 41789 73405 11085 21132 39952 40218 52006 70111 87070 333 4////;",
"01442099999","2010-03-04T12:00:00","4","58.6666666","7.8","211.0","BYGLANDSFJORD, NO","FM-12","99999","V020","350,1,N,0050,1","22000,1,9,N","075000,1,N,1","-0014,1","-0112,1","10222,1",,,,"1,1,06,1","1,1,06,1",,"01,99,1,01,1,01,1,01750,1,00,1,00,1",,,"99999,9,09957,1","0,1,007,1,+999,9",,"01,1","SYN088AAXX  04121 01442 11789 13505 11014 21112 39957 40222 50007 6//// 70111 81100 333 4////;",
"01442099999","2010-03-04T15:00:00","4","58.6666666","7.8","211.0","BYGLANDSFJORD, NO","FM-12","99999","V020","320,1,N,0030,1","22000,1,9,N","075000,1,N,1","+0021,1","-0117,1","10213,1",,,,"0,1,03,1","0,1,03,1","00,1,+99999,9,99,9","00,99,1,00,1,00,1,99999,9,00,1,00,1",,,"99999,9,09951,1","7,1,007,1,+999,9",,"01,1","SYN076AAXX  04151 01442 41989 03203 10021 21117 39951 40213 57007 70100 333 4////;",
"01442099999","2010-03-04T18:00:00","4","58.6666666","7.8","211.0","BYGLANDSFJORD, NO","FM-12","99999","V020","350,1,N,0030,1","22000,1,9,N","075000,1,N,1","-0032,1","-0116,1","10225,1","12,0000,9,1",,,"0,1,06,1","0,1,06,1","00,1,+99999,9,99,9","00,99,1,00,1,00,1,99999,9,00,1,00,1",,"120,M,+0022,1","99999,9,09960,1","2,1,009,1,+999,9",,"02,1","SYN088AAXX  04181 01442 11989 03503 11032 21116 39960 40225 52009 60002 70200 333 10022 4////;","Q01  00002PRCP12"
"01442099999","2010-03-05T03:00:00","4","58.6666666","7.8","211.0","BYGLANDSFJORD, NO","FM-12","99999","V020","350,1,N,0030,1","22000,1,9,N","075000,1,N,1","-0116,1","-0145,1","10231,1",,,,"0,1,03,1","0,1,03,1",,"01,99,1,00,1,00,1,99999,9,00,1,02,1",,,"99999,9,09963,1","8,1,009,1,+999,9",,"02,1","SYN082AAXX  05031 01442 41989 13503 11116 21145 39963 40231 58009 70200 80002 333 4////;",
"01442099999","2010-03-05T06:00:00","4","58.6666666","7.8","211.0","BYGLANDSFJORD, NO","FM-12","99999","V020","340,1,N,0030,1","99999,9,9,N","075000,1,N,1","-0124,1","-0141,1","10210,1","12,0000,9,1","24,0000,9,1","0052,9,1,999999,9,9","1,1,06,1","0,1,06,1",,"08,99,1,08,1,00,1,99999,9,01,1,99,9","28,9","999,N,-0126,1","99999,9,09942,1","8,1,021,1,+999,9",,"03,1","SYN100AAXX  05061 01442 11989 83403 11124 21141 39942 40210 58021 60002 70310 8801/ 333 21126 44052 70000;","Q01  00002PRCP24Q02  00002PRCP12"
"01442099999","2010-03-05T09:00:00","4","58.6666666","7.8","211.0","BYGLANDSFJORD, NO","FM-12","99999","V020","340,1,N,0030,1","01500,1,9,N","003000,1,N,1","-0108,1","-0126,1","10183,1",,,,"7,1,03,1","2,1,03,1",,"08,99,1,08,1,00,1,01750,1,02,1,99,9",,,"99999,9,09917,1","8,1,026,1,+999,9",,"71,1","SYN082AAXX  05091 01442 41730 83403 11108 21126 39917 40183 58026 77172 8802/ 333 4////;",
"01442099999","2010-03-05T12:00:00","4","58.6666666","7.8","211.0","BYGLANDSFJORD, NO","FM-12","99999","V020","330,1,N,0050,1","00030,1,9,N","000300,1,N,1","-0092,1","-0104,1","10163,1",,,,"7,1,06,1","2,1,06,1","09,1,+99999,9,99,9","09,99,1,09,1,99,9,99999,9,99,9,99,9",,,"99999,9,09897,1","6,1,019,1,+999,9",,"73,1","SYN082AAXX  05121 01442 11/03 93305 11092 21104 39897 40163 56019 6//// 77372 333 4////;",
"01442099999","2010-03-05T15:00:00","4","58.6666666","7.8","211.0","BYGLANDSFJORD, NO","FM-12","99999","V020","340,1,N,0070,1","00030,1,9,N","000300,1,N,1","-0068,1","-0080,1","10173,1",,,,"7,1,03,1","7,1,03,1","09,1,+99999,9,99,9","09,99,1,09,1,99,9,99999,9,99,9,99,9",,,"99999,9,09908,1","3,1,010,1,+999,9",,"73,1","SYN076AAXX  05151 01442 41/03 93407 11068 21080 39908 40173 53010 77377 333 4////;",
"01442099999","2010-03-05T18:00:00","4","58.6666666","7.8","211.0","BYGLANDSFJORD, NO","FM-12","99999","V020","340,1,N,0030,1","22000,1,9,N","070000,1,N,1","-0073,1","-0084,1","10204,1","12,0099,9,1",,,"7,1,06,1","1,1,06,1",,"03,99,1,01,1,01,1,00800,1,00,1,01,1",,"120,M,-0057,1","99999,9,09938,1","3,1,031,1,+999,9",,"01,1","SYN094AAXX  05181 01442 11588 33403 11073 21084 39938 40204 53031 60102 70171 81101 333 11057 4////;",
"01442099999","2010-03-06T03:00:00","4","58.6666666","7.8","211.0","BYGLANDSFJORD, NO","FM-12","99999","V020","340,1,N,0050,1","22000,1,9,N","075000,1,N,1","-0148,1","-0162,1","10281,1",,,,"0,1,03,1","0,1,03,1","00,1,+99999,9,99,9","00,99,1,00,1,00,1,99999,9,00,1,00,1",,,"99999,9,10011,1","2,1,016,1,+999,9",,"02,1","SYN076AAXX  06031 01442 41989 03405 11148 21162 30011 40281 52016 70200 333 4////;",
"01442099999","2010-03-06T06:00:00","4","58.6666666","7.8","211.0","BYGLANDSFJORD, NO","FM-12","99999","V020","340,1,N,0050,1","22000,1,9,N","075000,1,N,1","-0161,1","-0176,1","10294,1","12,0000,9,1","24,0094,9,1","0062,9,1,999999,9,9","0,1,06,1","0,1,06,1","00,1,+99999,9,99,9","00,99,1,00,1,00,1,99999,9,00,1,00,1","24,9","999,N,-0161,1","99999,9,10023,1","2,1,013,1,+999,9",,"02,1","SYN094AAXX  06061 01442 11989 03405 11161 21176 30023 40294 52013 60002 70200 333 21161 48062 70095;","Q01  00002PRCP12"
"01442099999","2010-03-06T09:00:00","4","58.6666666","7.8","211.0","BYGLANDSFJORD, NO","FM-12","99999","V020","350,1,N,0050,1","22000,1,9,N","075000,1,N,1","-0135,1","-0154,1","10305,1",,,,"0,1,03,1","0,1,03,1","00,1,+99999,9,99,9","00,99,1,00,1,00,1,99999,9,00,1,00,1",,,"99999,9,10035,1","2,1,011,1,+999,9",,"02,1","SYN076AAXX  06091 01442 41989 03505 11135 21154 30035 40305 52011 70200 333 4////;",
"01442099999","2010-03-06T12:00:00","4","58.6666666","7.8","211.0","BYGLANDSFJORD, NO","FM-12","99999","V020","340,1,N,0050,1","22000,1,9,N","075000,1,N,1","-0078,1","-0117,1","10303,1",,,,"0,1,06,1","0,1,06,1","00,1,+99999,9,99,9","00,99,1,00,1,00,1,99999,9,00,1,00,1",,,"99999,9,10035,1","4,1,000,1,+999,9",,"02,1","SYN082AAXX  06121 01442 11989 03405 11078 21117 30035 40303 54000 6//// 70200 333 4////;",
"01442099999","2010-03-06T15:00:00","4","58.6666666","7.8","211.0","BYGLANDSFJORD, NO","FM-12","99999","V020","280,1,N,0030,1","22000,1,9,N","075000,1,N,1","-0041,1","-0086,1","10300,1",,,,"0,1,03,1","0,1,03,1",,"01,99,1,00,1,00,1,99999,9,00,1,01,1",,,"99999,9,10032,1","7,1,002,1,+999,9",,"02,1","SYN082AAXX  06151 01442 41989 12803 11041 21086 30032 40300 57002 70200 80001 333 4////;",
"01442099999","2010-03-06T18:00:00","4","58.6666666","7.8","211.0","BYGLANDSFJORD, NO","FM-12","99999","V020","020,1,N,0030,1","22000,1,9,N","075000,1,N,1","-0066,1","-0081,1","10307,1","12,0000,9,1",,,"0,1,06,1","0,1,06,1",,"01,99,1,01,1,00,1,99999,9,04,1,01,1",,"120,M,-0033,1","99999,9,10038,1","3,1,006,1,+999,9",,"02,1","SYN094AAXX  06181 01442 11989 10203 11066 21081 30038 40307 53006 60002 70200 81041 333 11033 4////;","Q01  00002PRCP12"
"01442099999","2010-03-07T03:00:00","4","58.6666666","7.8","211.0","BYGLANDSFJORD, NO","FM-12","99999","V020","999,9,C,0000,1","22000,1,9,N","075000,1,N,1","-0117,1","-0129,1","10307,1",,,,"0,1,03,1","0,1,03,1","00,1,+99999,9,99,9","00,99,1,00,1,00,1,99999,9,00,1,00,1",,,"99999,9,10037,1","7,1,003,1,+999,9",,"02,1","SYN076AAXX  07031 01442 41989 00000 11117 21129 30037 40307 57003 70200 333 4////;",
"01442099999","2010-03-07T06:00:00","4","58.6666666","7.8","211.0","BYGLANDSFJORD, NO","FM-12","99999","V020","340,1,N,0030,1","01500,1,9,N","075000,1,N,1","-0118,1","-0130,1","10307,1","12,0000,9,1","24,0000,9,1","0062,9,1,999999,9,9","1,1,06,1","0,1,06,1",,"08,99,1,08,1,00,1,01750,1,07,1,99,9","24,9","999,N,-0122,1","99999,9,10037,1","4,1,000,1,+999,9",,"03,1","SYN100AAXX  07061 01442 11789 83403 11118 21130 30037 40307 54000 60002 70310 8807/ 333 21122 48062 70000;","Q01  00002PRCP24Q02  00002PRCP12"
"01442099999","2010-03-07T09:00:00","4","58.6666666","7.8","211.0","BYGLANDSFJORD, NO","FM-12","99999","V020","340,1,N,0030,1","22000,1,9,N","075000,1,N,1","-0062,1","-0074,1","10311,1",,,,"1,1,03,1","1,1,03,1",,"01,99,1,01,1,00,1,99999,9,04,1,01,1",,,"99999,9,10042,1","0,1,005,1,+999,9",,"01,1","SYN082AAXX  07091 01442 41989 13403 11062 21074 30042 40311 50005 70111 81041 333 4////;",
"01442099999","2010-03-07T12:00:00","4","58.6666666","7.8","211.0","BYGLANDSFJORD, NO","FM-12","99999","V020","330,1,N,0050,1","22000,1,9,N","075000,1,N,1","+0015,1","-0041,1","10301,1",,,,"1,1,06,1","0,1,06,1",,"01,99,1,00,1,00,1,99999,9,00,1,01,1",,,"99999,9,10036,1","8,1,006,1,+999,9",,"02,1","SYN088AAXX  07121 01442 11989 13305 10015 21041 30036 40301 58006 6//// 70210 80001 333 4////;",
"01442099999","2010-03-07T15:00:00","4","58.6666666","7.8","211.0","BYGLANDSFJORD, NO","FM-12","99999","V020","330,1,N,0030,1","22000,1,9,N","075000,1,N,1","+0053,1","-0003,1","10287,1",,,,"0,1,03,1","0,1,03,1",,"01,99,1,01,1,01,1,01750,1,00,1,01,1",,,"99999,9,10026,1","7,1,010,1,+999,9",,"01,1","SYN082AAXX  07151 01442 41789 13303 10053 21003 30026 40287 57010 70100 81101 333 4////;",
"01442099999","2010-03-07T18:00:00","4","58.6666666","7.8","211.0","BYGLANDSFJORD, NO","FM-12","99999","V020","340,1,N,0030,1","01500,1,9,N","075000,1,N,1","+0006,1","-0010,1","10294,1","12,0000,9,1",,,"1,1,06,1","0,1,06,1",,"08,99,1,08,1,00,1,01750,1,07,1,99,9",,"120,M,+0053,1","99999,9,10028,1","2,1,003,1,+999,9",,"03,1","SYN094AAXX  07181 01442 11789 83403 10006 21010 30028 40294 52003 60002 70310 8807/ 333 10053 4////;","Q01  00002PRCP12"
"01442099999","2010-03-08T03:00:00","4","58.6666666","7.8","211.0","BYGLANDSFJORD, NO","FM-12","99999","V020","330,1,N,0050,1","22000,1,9,N","075000,1,N,1","-0049,1","-0057,1","10293,1",,,,"0,1,03,1","0,1,03,1","00,1,+99999,9,99,9","00,99,1,00,1,00,1,99999,9,00,1,00,1",,,"99999,9,10026,1","7,1,007,1,+999,9",,"02,1","SYN076AAXX  08031 01442 41989 03305 11049 21057 30026 40293 57007 70200 333 4////;",
"01442099999","2010-03-08T06:00:00","4","58.6666666","7.8","211.0","BYGLANDSFJORD, NO","FM-12","99999","V020","340,1,N,0030,1","22000,1,9,N","075000,1,N,1","-0056,1","-0064,1","10288,1","12,0000,9,1","24,0000,9,1","0059,9,1,999999,9,9","0,1,06,1","0,1,06,1",,"01,99,1,00,1,00,1,99999,9,00,1,01,1","28,9","999,N,-0056,1","99999,9,10021,1","7,1,005,1,+999,9",,"02,1","SYN100AAXX  08061 01442 11989 13403 11056 21064 30021 40288 57005 60002 70200 80001 333 21056 44059 70000;","Q01  00002PRCP24Q02  00002PRCP12"
"01442099999","2010-03-08T09:00:00","4","58.6666666","7.8","211.0","BYGLANDSFJORD, NO","FM-12","99999","V020","340,1,N,0030,1","22000,1,9,N","075000,1,N,1","-0038,1","-0054,1","10283,1",,,,"0,1,03,1","0,1,03,1",,"01,99,1,00,1,00,1,99999,9,00,1,01,1",,,"99999,9,10017,1","7,1,004,1,+999,9",,"02,1","SYN082AAXX  08091 01442 41989 13403 11038 21054 30017 40283 57004 70200 80001 333 4////;",
"01442099999","2010-03-08T12:00:00","4","58.6666666","7.8","211.0","BYGLANDSFJORD, NO","FM-12","99999","V020","340,1,N,0030,1","22000,1,9,N","075000,1,N,1","+0013,1","-0045,1","10275,1",,,,"0,1,06,1","0,1,06,1",,"01,99,1,00,1,00,1,99999,9,00,1,02,1",,,"99999,9,10010,1","7,1,008,1,+999,9",,"03,1","SYN088AAXX  08121 01442 11989 13403 10013 21045 30010 40275 57008 6//// 70300 80002 333 4////;",
"01442099999","2010-03-08T15:00:00","4","58.6666666","7.8","211.0","BYGLANDSFJORD, NO","FM-12","99999","V020","330,1,N,0030,1","22000,1,9,N","075000,1,N,1","+0068,1","-0037,1","10254,1",,,,"0,1,03,1","0,1,03,1",,"01,99,1,00,1,00,1,99999,9,00,1,02,1",,,"99999,9,09995,1","7,1,016,1,+999,9",,"02,1","SYN082AAXX  08151 01442 41989 13303 10068 21037 39995 40254 57016 70200 80002 333 4////;",
"01442099999","2010-03-08T18:00:00","4","58.6666666","7.8","211.0","BYGLANDSFJORD, NO","FM-12","99999","V020","999,9,C,0000,1","22000,1,9,N","075000,1,N,1","+0016,1","-0038,1","10261,1","12,0000,9,1",,,"0,1,06,1","0,1,06,1",,"01,99,1,00,1,00,1,99999,9,00,1,01,1",,"120,M,+0074,1","99999,9,09997,1","3,1,002,1,+999,9",,"02,1","SYN094AAXX  08181 01442 11989 10000 10016 21038 39997 40261 53002 60002 70200 80001 333 10074 4////;","Q01  00002PRCP12"
"01442099999","2010-03-09T03:00:00","4","58.6666666","7.8","211.0","BYGLANDSFJORD, NO","FM-12","99999","V020","010,1,N,0030,1","22000,1,9,N","075000,1,N,1","-0041,1","-0056,1","10279,1",,,,"0,1,03,1","0,1,03,1","00,1,+99999,9,99,9","00,99,1,00,1,00,1,99999,9,00,1,00,1",,,"99999,9,10012,1","3,1,009,1,+999,9",,"02,1","SYN076AAXX  09031 01442 41989 00103 11041 21056 30012 40279 53009 70200 333 4////;",
"01442099999","2010-03-09T06:00:00","4","58.6666666","7.8","211.0","BYGLANDSFJORD, NO","FM-12","99999","V020","010,1,N,0030,1","22000,1,9,N","075000,1,N,1","-0078,1","-0086,1","10291,1","12,0000,9,1","24,0000,9,1","0056,9,1,999999,9,9","0,1,06,1","0,1,06,1",,"02,99,1,00,1,00,1,99999,9,00,1,01,1","28,9","999,N,-0078,1","99999,9,10022,1","2,1,010,1,+999,9",,"03,1","SYN100AAXX  09061 01442 11989 20103 11078 21086 30022 40291 52010 60002 70300 80001 333 21078 44056 70000;","Q01  00002PRCP24Q02  00002PRCP12"
"01442099999","2010-03-09T09:00:00","4","58.6666666","7.8","211.0","BYGLANDSFJORD, NO","FM-12","99999","V020","350,1,N,0030,1","22000,1,9,N","075000,1,N,1","-0058,1","-0071,1","10299,1",,,,"0,1,03,1","0,1,03,1",,"03,99,1,00,1,00,1,99999,9,00,1,01,1",,,"99999,9,10032,1","2,1,009,1,+999,9",,"02,1","SYN082AAXX  09091 01442 41989 33503 11058 21071 30032 40299 52009 70200 80001 333 4////;",
"01442099999","2010-03-09T12:00:00","4","58.6666666","7.8","211.0","BYGLANDSFJORD, NO","FM-12","99999","V020","330,1,N,0030,1","22000,1,9,N","075000,1,N,1","+0011,1","-0053,1","10293,1",,,,"0,1,06,1","0,1,06,1",,"01,99,1,00,1,00,1,99999,9,00,1,01,1",,,"99999,9,10027,1","8,1,004,1,+999,9",,"02,1","SYN088AAXX  09121 01442 11989 13303 10011 21053 30027 40293 58004 6//// 70200 80001 333 4////;",
"01442099999","2010-03-09T15:00:00","4","58.6666666","7.8","211.0","BYGLANDSFJORD, NO","FM-12","99999","V020","320,1,N,0030,1","99999,9,9,N","075000,1,N,1","+0054,1","-0047,1","10280,1",,,,"1,1,03,1","1,1,03,1",,"08,99,1,00,1,00,1,99999,9,00,1,07,1",,,"99999,9,10018,1","7,1,009,1,+999,9",,"03,1","SYN082AAXX  09151 01442 41989 83203 10054 21047 30018 40280 57009 70311 80007 333 4////;",
"01442099999","2010-03-09T18:00:00","4","58.6666666","7.8","211.0","BYGLANDSFJORD, NO","FM-12","99999","V020","999,9,C,0000,1","22000,1,9,N","075000,1,N,1","-0016,1","-0053,1","10290,1","12,0000,9,1",,,"1,1,06,1","1,1,06,1",,"04,99,1,00,1,00,1,99999,9,00,1,08,1",,"120,M,+0060,1","99999,9,10023,1","3,1,005,1,+999,9",,"01,1","SYN094AAXX  09181 01442 11989 40000 11016 21053 30023 40290 53005 60002 70111 80008 333 10060 4////;","Q01  00002PRCP12"
"01442099999","2010-03-10T03:00:00","4","58.6666666","7.8","211.0","BYGLANDSFJORD, NO","FM-12","99999","V020","030,1,N,0030,1","22000,1,9,N","075000,1,N,1","-0076,1","-0084,1","10281,1",,,,"0,1,03,1","0,1,03,1",,"02,99,1,00,1,00,1,99999,9,00,1,01,1",,,"99999,9,10013,1","8,1,010,1,+999,9",,"02,1","SYN082AAXX  10031 01442 41989 20303 11076 21084 30013 40281 58010 70200 80001 333 4////;",
"01442099999","2010-03-10T06:00:00","4","58.6666666","7.8","211.0","BYGLANDSFJORD, NO","FM-12","99999","V020","350,1,N,0030,1","01500,1,9,N","075000,1,N,1","-0051,1","-0059,1","10271,1","12,0000,9,1","24,0000,9,1","0052,9,1,999999,9,9","1,1,06,1","0,1,06,1",,"08,99,1,08,1,00,1,01750,1,07,1,99,9","28,9","999,N,-0082,1","99999,9,10005,1","8,1,010,1,+999,9",,"03,1","SYN100AAXX  10061 01442 11789 83503 11051 21059 30005 40271 58010 60002 70310 8807/ 333 21082 44052 70000;","Q01  00002PRCP24Q02  00002PRCP12"
"01442099999","2010-03-10T09:00:00","4","58.6666666","7.8","211.0","BYGLANDSFJORD, NO","FM-12","99999","V020","340,1,N,0050,1","01500,1,9,N","075000,1,N,1","-0023,1","-0055,1","10261,1",,,,"2,1,03,1","2,1,03,1",,"07,99,1,07,1,00,1,01750,1,07,1,00,1",,,"99999,9,09996,1","7,1,009,1,+999,9",,"02,1","SYN082AAXX  10091 01442 41789 73405 11023 21055 39996 40261 57009 70222 87070 333 4////;",
"01442099999","2010-03-10T12:00:00","4","58.6666666","7.8","211.0","BYGLANDSFJORD, NO","FM-12","99999","V020","330,1,N,0030,1","22000,1,9,N","075000,1,N,1","+0068,1","-0043,1","10249,1",,,,"2,1,06,1","1,1,06,1",,"01,99,1,01,1,00,1,99999,9,04,1,02,1",,,"99999,9,09990,1","7,1,006,1,+999,9",,"01,1","SYN088AAXX  10121 01442 11989 13303 10068 21043 39990 40249 57006 6//// 70121 81042 333 4////;",
"01442099999","2010-03-10T15:00:00","4","58.6666666","7.8","211.0","BYGLANDSFJORD, NO","FM-12","99999","V020","350,1,N,0070,1","22000,1,9,N","075000,1,N,1","+0066,1","-0028,1","10235,1",,,,"0,1,03,1","0,1,03,1",,"01,99,1,00,1,00,1,99999,9,00,1,02,1",,,"99999,9,09976,1","7,1,015,1,+999,9",,"02,1","SYN082AAXX  10151 01442 41989 13507 10066 21028 39976 40235 57015 70200 80002 333 4////;",
"01442099999","2010-03-10T18:00:00","4","58.6666666","7.8","211.0","BYGLANDSFJORD, NO","FM-12","99999","V020","340,1,N,0050,1","22000,1,9,N","075000,1,N,1","+0036,1","-0015,1","10232,1","12,0000,9,1",,,"0,1,06,1","0,1,06,1",,"01,99,1,00,1,00,1,99999,9,00,1,01,1",,"120,M,+0071,1","99999,9,09971,1","7,1,005,1,+999,9",,"01,1","SYN094AAXX  10181 01442 11989 13405 10036 21015 39971 40232 57005 60002 70100 80001 333 10071 4////;","Q01  00002PRCP12"
"01442099999","2010-03-11T03:00:00","4","58.6666666","7.8","211.0","BYGLANDSFJORD, NO","FM-12","99999","V020","999,9,C,0000,1","22000,1,9,N","075000,1,N,1","-0040,1","-0044,1","10196,1",,,,"0,1,03,1","0,1,03,1","00,1,+99999,9,99,9","00,99,1,00,1,00,1,99999,9,00,1,00,1",,,"99999,9,09932,1","8,1,018,1,+999,9",,"02,1","SYN076AAXX  11031 01442 41989 00000 11040 21044 39932 40196 58018 70200 333 4////;",
"01442099999","2010-03-11T06:00:00","4","58.6666666","7.8","211.0","BYGLANDSFJORD, NO","FM-12","99999","V020","320,1,N,0030,1","22000,1,9,N","075000,1,N,1","-0063,1","-0063,1","10173,1","12,0000,9,1","24,0000,9,1","0051,9,1,999999,9,9","0,1,06,1","0,1,06,1",,"01,99,1,01,1,00,1,99999,9,04,1,01,1","28,9","999,N,-0066,1","99999,9,09908,1","7,1,023,1,+999,9",,"02,1","SYN100AAXX  11061 01442 11989 13203 11063 21063 39908 40173 57023 60002 70200 81041 333 21066 44051 70000;","Q01  00002PRCP24Q02  00002PRCP12"
"01442099999","2010-03-11T09:00:00","4","58.6666666","7.8","211.0","BYGLANDSFJORD, NO","FM-12","99999","V020","340,1,N,0050,1","22000,1,9,N","075000,1,N,1","-0033,1","-0047,1","10155,1",,,,"0,1,03,1","0,1,03,1",,"03,99,1,01,1,00,1,99999,9,04,1,01,1",,,"99999,9,09892,1","7,1,018,1,+999,9",,"02,1","SYN082AAXX  11091 01442 41989 33405 11033 21047 39892 40155 57018 70200 81041 333 4////;",
"01442099999","2010-03-11T12:00:00","4","58.6666666","7.8","211.0","BYGLANDSFJORD, NO","FM-12","99999","V020","340,1,N,0070,1","22000,1,9,N","075000,1,N,1","+0071,1","-0013,1","10132,1",,,,"0,1,06,1","0,1,06,1",,"04,99,1,01,1,01,1,01750,1,00,1,02,1",,,"99999,9,09876,1","6,1,015,1,+999,9",,"03,1","SYN088AAXX  11121 01442 11789 43407 10071 21013 39876 40132 56015 6//// 70300 81102 333 4////;",
"01442099999","2010-03-11T15:00:00","4","58.6666666","7.8","211.0","BYGLANDSFJORD, NO","FM-12","99999","V020","350,1,N,0050,1","01500,1,9,N","075000,1,N,1","+0071,1","-0001,1","10113,1",,,,"2,1,03,1","2,1,03,1",,"07,99,1,07,1,00,1,01750,1,07,1,01,1",,,"99999,9,09857,1","8,1,018,1,+999,9",,"03,1","SYN082AAXX  11151 01442 41789 73505 10071 21001 39857 40113 58018 70322 87071 333 4////;",
"01442099999","2010-03-11T18:00:00","4","58.6666666","7.8","211.0","BYGLANDSFJORD, NO","FM-12","99999","V020","010,1,N,0030,1","01500,1,9,N","075000,1,N,1","+0051,1","+0003,1","10098,1","12,0000,9,1",,,"2,1,06,1","2,1,06,1",,"07,99,1,07,1,00,1,01750,1,07,1,02,1",,"120,M,+0083,1","99999,9,09841,1","6,1,017,1,+999,9",,"02,1","SYN094AAXX  11181 01442 11789 70103 10051 20003 39841 40098 56017 60002 70222 87072 333 10083 4////;","Q01  00002PRCP12"
"01442099999","2010-03-12T03:00:00","4","58.6666666","7.8","211.0","BYGLANDSFJORD, NO","FM-12","99999","V020","350,1,N,0030,1","22000,1,9,N","075000,1,N,1","+0011,1","-0030,1","10079,1",,,,"0,1,03,1","0,1,03,1","00,1,+99999,9,99,9","00,99,1,00,1,00,1,99999,9,00,1,00,1",,,"99999,9,09818,1","6,1,007,1,+999,9",,"02,1","SYN076AAXX  12031 01442 41989 03503 10011 21030 39818 40079 56007 70200 333 4////;",
"01442099999","2010-03-12T06:00:00","4","58.6666666","7.8","211.0","BYGLANDSFJORD, NO","FM-12","99999","V020","350,1,N,0030,1","22000,1,9,N","075000,1,N,1","-0015,1","-0034,1","10092,1","12,0000,9,1","24,0000,9,1","0046,9,1,999999,9,9","0,1,06,1","0,1,06,1",,"01,99,1,00,1,00,1,99999,9,00,1,01,1","28,9","999,N,-0015,1","99999,9,09831,1","2,1,012,1,+999,9",,"02,1","SYN100AAXX  12061 01442 11989 13503 11015 21034 39831 40092 52012 60002 70200 80001 333 21015 44046 70000;","Q01  00002PRCP24Q02  00002PRCP12"
"01442099999","2010-03-12T09:00:00","4","58.6666666","7.8","211.0","BYGLANDSFJORD, NO","FM-12","99999","V020","170,1,N,0030,1","01500,1,9,N","075000,1,N,1","+0010,1","-0027,1","10112,1",,,,"1,1,03,1","1,1,03,1",,"08,99,1,08,1,00,1,01750,1,07,1,99,9",,,"99999,9,09852,1","3,1,021,1,+999,9",,"03,1","SYN082AAXX  12091 01442 41789 81703 10010 21027 39852 40112 53021 70311 8807/ 333 4////;",
"01442099999","2010-03-12T12:00:00","4","58.6666666","7.8","211.0","BYGLANDSFJORD, NO","FM-12","99999","V020","150,1,N,0030,1","01500,1,9,N","075000,1,N,1","+0053,1","-0059,1","10117,1",,,,"2,1,06,1","1,1,06,1",,"07,99,1,07,1,00,1,01750,1,07,1,01,1",,,"99999,9,09860,1","1,1,008,1,+999,9",,"01,1","SYN088AAXX  12121 01442 11789 71503 10053 21059 39860 40117 51008 6//// 70121 87071 333 4////;",
"01442099999","2010-03-12T15:00:00","4","58.6666666","7.8","211.0","BYGLANDSFJORD, NO","FM-12","99999","V020","300,1,N,0030,1","22000,1,9,N","075000,1,N,1","+0067,1","-0046,1","10108,1",,,,"1,1,03,1","1,1,03,1",,"01,99,1,01,1,01,1,01250,1,00,1,01,1",,,"99999,9,09852,1","7,1,007,1,+999,9",,"01,1","SYN082AAXX  12151 01442 41689 13003 10067 21046 39852 40108 57007 70111 81101 333 4////;",
"01442099999","2010-03-12T18:00:00","4","58.6666666","7.8","211.0","BYGLANDSFJORD, NO","FM-12","99999","V020","340,1,N,0030,1","22000,1,9,N","075000,1,N,1","+0026,1","-0041,1","10115,1","12,0000,9,1",,,"1,1,06,1","0,1,06,1",,"01,99,1,01,1,00,1,99999,9,04,1,01,1",,"120,M,+0069,1","99999,9,09856,1","3,1,003,1,+999,9",,"01,1","SYN094AAXX  12181 01442 11989 13403 10026 21041 39856 40115 53003 60002 70110 81041 333 10069 4////;","Q01  00002PRCP12"
"01442099999","2010-03-13T03:00:00","4","58.6666666","7.8","211.0","BYGLANDSFJORD, NO","FM-12","99999","V020","030,1,N,0030,1","22000,1,9,N","075000,1,N,1","-0029,1","-0047,1","10106,1",,,,"0,1,03,1","0,1,03,1","00,1,+99999,9,99,9","00,99,1,00,1,00,1,99999,9,00,1,00,1",,,"99999,9,09845,1","8,1,010,1,+999,9",,"02,1","SYN076AAXX  13031 01442 41989 00303 11029 21047 39845 40106 58010 70200 333 4////;",
"01442099999","2010-03-13T06:00:00","4","58.6666666","7.8","211.0","BYGLANDSFJORD, NO","FM-12","99999","V020","170,1,N,0050,1","22000,1,9,N","075000,1,N,1","-0003,1","-0044,1","10094,1","12,0000,9,1","24,0000,9,1","0043,9,1,999999,9,9","0,1,06,1","0,1,06,1",,"02,99,1,01,1,01,1,01250,1,00,1,02,1","28,9","999,N,-0030,1","99999,9,09833,1","8,1,011,1,+999,9",,"03,1","SYN100AAXX  13061 01442 11689 21705 11003 21044 39833 40094 58011 60002 70300 81102 333 21030 44043 70000;","Q01  00002PRCP24Q02  00002PRCP12"
"01442099999","2010-03-13T09:00:00","4","58.6666666","7.8","211.0","BYGLANDSFJORD, NO","FM-12","99999","V020","310,1,N,0050,1","22000,1,9,N","075000,1,N,1","+0056,1","-0025,1","10085,1",,,,"0,1,03,1","0,1,03,1",,"04,99,1,04,1,02,1,01250,1,00,1,01,1",,,"99999,9,09828,1","3,1,005,1,+999,9",,"03,1","SYN082AAXX  13091 01442 41689 43105 10056 21025 39828 40085 53005 70300 84201 333 4////;",
"01442099999","2010-03-13T12:00:00","4","58.6666666","7.8","211.0","BYGLANDSFJORD, NO","FM-12","99999","V020","330,1,N,0100,1","22000,1,9,N","075000,1,N,1","+0065,1","-0029,1","10078,1",,,,"1,1,06,1","0,1,06,1",,"02,99,1,01,1,01,1,01250,1,00,1,01,1",,,"99999,9,09822,1","5,1,006,1,+999,9",,"01,1","SYN088AAXX  13121 01442 11689 23310 10065 21029 39822 40078 55006 6//// 70110 81101 333 4////;",
"01442099999","2010-03-13T15:00:00","4","58.6666666","7.8","211.0","BYGLANDSFJORD, NO","FM-12","99999","V020","350,1,N,0100,1","22000,1,9,N","075000,1,N,1","+0055,1","-0033,1","10077,1",,,,"0,1,03,1","0,1,03,1",,"01,99,1,01,1,01,1,01250,1,00,1,01,1",,,"99999,9,09821,1","5,1,002,1,+999,9",,"01,1","SYN082AAXX  13151 01442 41689 13510 10055 21033 39821 40077 55002 70100 81101 333 4////;",
"01442099999","2010-03-13T18:00:00","4","58.6666666","7.8","211.0","BYGLANDSFJORD, NO","FM-12","99999","V020","340,1,N,0100,1","22000,1,9,N","075000,1,N,1","+0022,1","-0059,1","10090,1","12,0000,9,1",,,"0,1,06,1","0,1,06,1",,"01,99,1,00,1,00,1,99999,9,00,1,01,1",,"120,M,+0068,1","99999,9,09831,1","3,1,010,1,+999,9",,"01,1","SYN094AAXX  13181 01442 11989 13410 10022 21059 39831 40090 53010 60002 70100 80001 333 10068 4////;","Q01  00002PRCP12"
"01442099999","2010-03-14T03:00:00","4","58.6666666","7.8","211.0","BYGLANDSFJORD, NO","FM-12","99999","V020","100,1,N,0010,1","22000,1,9,N","075000,1,N,1","-0026,1","-0061,1","10092,1",,,,"0,1,03,1","0,1,03,1","00,1,+99999,9,99,9","00,99,1,00,1,00,1,99999,9,00,1,00,1",,,"99999,9,09831,1","8,1,005,1,+999,9",,"02,1","SYN076AAXX  14031 01442 41989 01001 11026 21061 39831 40092 58005 70200 333 4////;",
"01442099999","2010-03-14T06:00:00","4","58.6666666","7.8","211.0","BYGLANDSFJORD, NO","FM-12","99999","V020","110,1,N,0030,1","22000,1,9,N","075000,1,N,1","-0031,1","-0066,1","10086,1","12,0000,9,1","24,0000,9,1","0040,9,1,999999,9,9","0,1,06,1","0,1,06,1",,"01,99,1,01,1,00,1,99999,9,04,1,01,1","28,9","999,N,-0031,1","99999,9,09825,1","7,1,007,1,+999,9",,"02,1","SYN100AAXX  14061 01442 11989 11103 11031 21066 39825 40086 57007 60002 70200 81041 333 21031 44040 70000;","Q01  00002PRCP24Q02  00002PRCP12"
"01442099999","2010-03-14T09:00:00","4","58.6666666","7.8","211.0","BYGLANDSFJORD, NO","FM-12","99999","V020","350,1,N,0050,1","22000,1,9,N","075000,1,N,1","+0011,1","-0074,1","10082,1",,,,"0,1,03,1","0,1,03,1",,"01,99,1,01,1,01,1,01750,1,00,1,00,1",,,"99999,9,09822,1","5,1,003,1,+999,9",,"02,1","SYN082AAXX  14091 01442 41789 13505 10011 21074 39822 40082 55003 70200 81100 333 4////;",
"01442099999","2010-03-14T12:00:00","4","58.6666666","7.8","211.0","BYGLANDSFJORD, NO","FM-12","99999","V020","350,1,N,0100,1","22000,1,9,N","075000,1,N,1","+0019,1","-0082,1","10081,1",,,,"0,1,06,1","0,1,06,1",,"03,99,1,01,1,01,1,01750,1,00,1,01,1",,,"99999,9,09822,1","5,1,000,1,+999,9",,"01,1","SYN088AAXX  14121 01442 11789 33510 10019 21082 39822 40081 55000 6//// 70100 81101 333 4////;",
"01442099999","2010-03-14T15:00:00","4","58.6666666","7.8","211.0","BYGLANDSFJORD, NO","FM-12","99999","V020","340,1,N,0100,1","22000,1,9,N","075000,1,N,1","+0021,1","-0085,1","10091,1",,,,"0,1,03,1","0,1,03,1","00,1,+99999,9,99,9","00,99,1,00,1,00,1,99999,9,00,1,00,1",,,"99999,9,09832,1","2,1,010,1,+999,9",,"02,1","SYN076AAXX  14151 01442 41989 03410 10021 21085 39832 40091 52010 70200 333 4////;",
"01442099999","2010-03-14T18:00:00","4","58.6666666","7.8","211.0","BYGLANDSFJORD, NO","FM-12","99999","V020","010,1,N,0050,1","22000,1,9,N","075000,1,N,1","-0004,1","-0088,1","10112,1","12,0000,9,1",,,"0,1,06,1","0,1,06,1","00,1,+99999,9,99,9","00,99,1,00,1,00,1,99999,9,00,1,00,1",,"120,M,+0024,1","99999,9,09851,1","2,1,018,1,+999,9",,"02,1","SYN088AAXX  14181 01442 11989 00105 11004 21088 39851 40112 52018 60002 70200 333 10024 4////;","Q01  00002PRCP12"
"01442099999","2010-03-15T03:00:00","4","58.6666666","7.8","211.0","BYGLANDSFJORD, NO","FM-12","99999","V020","340,1,N,0030,1","22000,1,9,N","075000,1,N,1","-0039,1","-0079,1","10119,1",,,,"0,1,03,1","0,1,03,1","00,1,+99999,9,99,9","00,99,1,00,1,00,1,99999,9,00,1,00,1",,,"99999,9,09857,1","5,1,004,1,+999,9",,"02,1","SYN076AAXX  15031 01442 41989 03403 11039 21079 39857 40119 55004 70200 333 4////;",
"01442099999","2010-03-15T06:00:00","4","58.6666666","7.8","211.0","BYGLANDSFJORD, NO","FM-12","99999","V020","340,1,N,0030,1","22000,1,9,N","075000,1,N,1","-0043,1","-0080,1","10118,1","12,0000,9,1","24,0000,9,1","0039,9,1,999999,9,9","0,1,06,1","0,1,06,1",,"01,99,1,01,1,00,1,99999,9,04,1,01,1","28,9","999,N,-0043,1","99999,9,09856,1","5,1,000,1,+999,9",,"02,1","SYN100AAXX  15061 01442 11989 13403 11043 21080 39856 40118 55000 60002 70200 81041 333 21043 44039 70000;","Q01  00002PRCP24Q02  00002PRCP12"
"01442099999","2010-03-15T09:00:00","4","58.6666666","7.8","211.0","BYGLANDSFJORD, NO","FM-12","99999","V020","100,1,N,0030,1","22000,1,9,N","075000,1,N,1","-0010,1","-0070,1","10121,1",,,,"0,1,03,1","0,1,03,1",,"01,99,1,01,1,00,1,99999,9,04,1,09,1",,,"99999,9,09860,1","2,1,004,1,+999,9",,"02,1","SYN082AAXX  15091 01442 41989 11003 11010 21070 39860 40121 52004 70200 81049 333 4////;",
"01442099999","2010-03-15T12:00:00","4","58.6666666","7.8","211.0","BYGLANDSFJORD, NO","FM-12","99999","V020","330,1,N,0070,1","22000,1,9,N","075000,1,N,1","+0029,1","-0090,1","10117,1",,,,"0,1,06,1","0,1,06,1",,"01,99,1,01,1,01,1,01750,1,00,1,02,1",,,"99999,9,09857,1","5,1,002,1,+999,9",,"03,1","SYN088AAXX  15121 01442 11789 13307 10029 21090 39857 40117 55002 6//// 70300 81102 333 4////;",
"01442099999","2010-03-15T15:00:00","4","58.6666666","7.8","211.0","BYGLANDSFJORD, NO","FM-12","99999","V020","330,1,N,0070,1","22000,1,9,N","075000,1,N,1","+0022,1","-0096,1","10118,1",,,,"0,1,03,1","0,1,03,1",,"01,99,1,00,1,00,1,99999,9,00,1,01,1",,,"99999,9,09857,1","5,1,000,1,+999,9",,"01,1","SYN082AAXX  15151 01442 41989 13307 10022 21096 39857 40118 55000 70100 80001 333 4////;",
"01442099999","2010-03-15T18:00:00","4","58.6666666","7.8","211.0","BYGLANDSFJORD, NO","FM-12","99999","V020","010,1,N,0050,1","22000,1,9,N","075000,1,N,1","-0006,1","-0090,1","10125,1","12,0000,9,1",,,"0,1,06,1","0,1,06,1",,"01,99,1,00,1,00,1,99999,9,00,1,01,1",,"120,M,+0032,1","99999,9,09863,1","2,1,006,1,+999,9",,"02,1","SYN094AAXX  15181 01442 11989 10105 11006 21090 39863 40125 52006 60002 70200 80001 333 10032 4////;","Q01  00002PRCP12"
"01442099999","2010-03-16T03:00:00","4","58.6666666","7.8","211.0","BYGLANDSFJORD, NO","FM-12","99999","V020","340,1,N,0030,1","22000,1,9,N","075000,1,N,1","-0076,1","-0096,1","10154,1",,,,"0,1,03,1","0,1,03,1","00,1,+99999,9,99,9","00,99,1,00,1,00,1,99999,9,00,1,00,1",,,"99999,9,09890,1","2,1,007,1,+999,9",,"02,1","SYN076AAXX  16031 01442 41989 03403 11076 21096 39890 40154 52007 70200 333 4////;",
"01442099999","2010-03-16T06:00:00","4","58.6666666","7.8","211.0","BYGLANDSFJORD, NO","FM-12","99999","V020","010,1,N,0030,1","22000,1,9,N","075000,1,N,1","-0082,1","-0091,1","10168,1","12,0000,9,1","24,0000,9,1","0038,9,1,999999,9,9","0,1,06,1","0,1,06,1",,"01,99,1,01,1,00,1,01750,1,03,1,01,1","28,9","999,N,-0082,1","99999,9,09902,1","2,1,013,1,+999,9",,"03,1","SYN100AAXX  16061 01442 11789 10103 11082 21091 39902 40168 52013 60002 70300 81031 333 21082 44038 70000;","Q01  00002PRCP24Q02  00002PRCP12"
"01442099999","2010-03-16T09:00:00","4","58.6666666","7.8","211.0","BYGLANDSFJORD, NO","FM-12","99999","V020","350,1,N,0030,1","01500,1,9,N","075000,1,N,1","-0055,1","-0087,1","10178,1",,,,"1,1,03,1","1,1,03,1",,"07,99,1,07,1,00,1,01750,1,07,1,00,1",,,"99999,9,09913,1","2,1,011,1,+999,9",,"03,1","SYN082AAXX  16091 01442 41789 73503 11055 21087 39913 40178 52011 70311 87070 333 4////;",
"01442099999","2010-03-16T12:00:00","4","58.6666666","7.8","211.0","BYGLANDSFJORD, NO","FM-12","99999","V020","310,1,N,0030,1","02100,1,9,N","075000,1,N,1","+0019,1","-0066,1","10180,1",,,,"2,1,06,1","1,1,06,1",,"08,99,1,08,1,00,1,02250,1,02,1,99,9",,,"99999,9,09917,1","2,1,003,1,+999,9",,"03,1","SYN088AAXX  16121 01442 11889 83103 10019 21066 39917 40180 52003 6//// 70321 8802/ 333 4////;",
"01442099999","2010-03-16T15:00:00","4","58.6666666","7.8","211.0","BYGLANDSFJORD, NO","FM-12","99999","V020","170,1,N,0050,1","03000,1,9,N","075000,1,N,1","+0033,1","-0039,1","10173,1",,,,"2,1,03,1","2,1,03,1",,"08,99,1,01,1,01,1,00800,1,02,1,99,9",,,"99999,9,09912,1","7,1,005,1,+999,9",,"02,1","SYN082AAXX  16151 01442 41589 81705 10033 21039 39912 40173 57005 70222 8112/ 333 4////;",
"01442099999","2010-03-16T18:00:00","4","58.6666666","7.8","211.0","BYGLANDSFJORD, NO","FM-12","99999","V020","030,1,N,0010,1","03000,1,9,N","075000,1,N,1","+0030,1","-0029,1","10163,1","12,0000,9,1",,,"2,1,06,1","2,1,06,1",,"07,99,1,01,1,01,1,00800,1,04,1,08,1",,"120,M,+0036,1","99999,9,09902,1","7,1,010,1,+999,9",,"01,1","SYN094AAXX  16181 01442 11589 70301 10030 21029 39902 40163 57010 60002 70122 81148 333 10036 4////;","Q01  00002PRCP12"
"01442099999","2010-03-17T03:00:00","4","58.6666666","7.8","211.0","BYGLANDSFJORD, NO","FM-12","99999","V020","999,9,C,0000,1","22000,1,9,N","075000,1,N,1","+0007,1","-0020,1","10142,1",,,,"0,1,03,1","0,1,03,1","00,1,+99999,9,99,9","00,99,1,00,1,00,1,99999,9,00,1,00,1",,,"99999,9,09881,1","5,1,003,1,+999,9",,"02,1","SYN076AAXX  17031 01442 41989 00000 10007 21020 39881 40142 55003 70200 333 4////;",
"01442099999","2010-03-17T06:00:00","4","58.6666666","7.8","211.0","BYGLANDSFJORD, NO","FM-12","99999","V020","120,1,N,0030,1","22000,1,9,N","075000,1,N,1","+0005,1","-0011,1","10138,1","12,0000,9,1","24,0000,9,1","0038,9,1,999999,9,9","0,1,06,1","0,1,06,1",,"04,99,1,01,1,01,1,00800,1,04,1,01,1","28,9","999,N,-0012,1","99999,9,09877,1","5,1,005,1,+999,9",,"03,1","SYN100AAXX  17061 01442 11589 41203 10005 21011 39877 40138 55005 60002 70300 81141 333 21012 44038 70000;","Q01  00002PRCP24Q02  00002PRCP12"
"01442099999","2010-03-17T09:00:00","4","58.6666666","7.8","211.0","BYGLANDSFJORD, NO","FM-12","99999","V020","170,1,N,0030,1","03000,1,9,N","075000,1,N,1","+0028,1","+0002,1","10135,1",,,,"2,1,03,1","2,1,03,1",,"08,99,1,01,1,01,1,01250,1,02,1,99,9",,,"99999,9,09875,1","5,1,002,1,+999,9",,"03,1","SYN082AAXX  17091 01442 41689 81703 10028 20002 39875 40135 55002 70322 8112/ 333 4////;",
"01442099999","2010-03-17T12:00:00","4","58.6666666","7.8","211.0","BYGLANDSFJORD, NO","FM-12","99999","V020","340,1,N,0030,1","01200,1,9,N","075000,1,N,1","+0062,1","-0003,1","10129,1",,,,"2,1,06,1","2,1,06,1",,"08,99,1,08,1,05,1,01250,1,99,9,99,9",,,"99999,9,09872,1","8,1,001,1,+999,9",,"01,1","SYN088AAXX  17121 01442 11689 83403 10062 21003 39872 40129 58001 6//// 70122 885// 333 4////;",
"01442099999","2010-03-17T15:00:00","4","58.6666666","7.8","211.0","BYGLANDSFJORD, NO","FM-12","99999","V020","170,1,N,0030,1","01200,1,9,N","075000,1,N,1","+0063,1","-0013,1","10118,1",,,,"2,1,03,1","2,1,03,1",,"08,99,1,08,1,05,1,01250,1,99,9,99,9",,,"99999,9,09862,1","7,1,012,1,+999,9",,"03,1","SYN082AAXX  17151 01442 41689 81703 10063 21013 39862 40118 57012 70322 885// 333 4////;",
"01442099999","2010-03-17T18:00:00","4","58.6666666","7.8","211.0","BYGLANDSFJORD, NO","FM-12","99999","V020","150,1,N,0030,1","01500,1,9,N","075000,1,N,1","+0032,1","-0010,1","10116,1","12,0000,9,1",,,"2,1,06,1","2,1,06,1",,"08,99,1,08,1,00,1,01750,1,07,1,99,9",,"120,M,+0072,1","99999,9,09857,1","5,1,005,1,+999,9",,"03,1","SYN094AAXX  17181 01442 11789 81503 10032 21010 39857 40116 55005 60002 70322 8807/ 333 10072 4////;","Q01  00002PRCP12"
"01442099999","2010-03-18T03:00:00","4","58.6666666","7.8","211.0","BYGLANDSFJORD, NO","FM-12","99999","V020","120,1,N,0030,1","00750,1,9,N","075000,1,N,1","+0024,1","+0012,1","10122,1",,,,"2,1,03,1","2,1,03,1",,"08,99,1,08,1,05,1,00800,1,99,9,99,9",,,"99999,9,09862,1","8,1,002,1,+999,9",,"02,1","SYN082AAXX  18031 01442 41589 81203 10024 20012 39862 40122 58002 70222 885// 333 4////;",
"01442099999","2010-03-18T06:00:00","4","58.6666666","7.8","211.0","BYGLANDSFJORD, NO","FM-12","99999","V020","150,1,N,0030,1","00420,1,9,N","075000,1,N,1","+0023,1","+0014,1","10114,1","12,0000,9,1","24,0000,9,1","0036,9,1,999999,9,9","2,1,06,1","2,1,06,1",,"08,99,1,08,1,05,1,00450,1,99,9,99,9","28,9","999,N,+0019,1","99999,9,09853,1","6,1,008,1,+999,9",,"02,1","SYN100AAXX  18061 01442 11489 81503 10023 20014 39853 40114 56008 60002 70222 885// 333 20019 44036 70000;","Q01  00002PRCP24Q02  00002PRCP12"
"01442099999","2010-03-18T09:00:00","4","58.6666666","7.8","211.0","BYGLANDSFJORD, NO","FM-12","99999","V020","150,1,N,0050,1","00420,1,9,N","070000,1,N,1","+0046,1","+0028,1","10102,1",,,,"2,1,03,1","2,1,03,1",,"08,99,1,08,1,05,1,00450,1,99,9,99,9",,,"99999,9,09845,1","6,1,009,1,+999,9",,"01,1","SYN082AAXX  18091 01442 41488 81505 10046 20028 39845 40102 56009 70122 885// 333 4////;",
"01442099999","2010-03-18T12:00:00","4","58.6666666","7.8","211.0","BYGLANDSFJORD, NO","FM-12","99999","V020","120,1,N,0050,1","00750,1,9,N","075000,1,N,1","+0070,1","+0033,1","10095,1",,,,"2,1,06,1","2,1,06,1",,"07,99,1,07,1,05,1,00800,1,00,1,00,1",,,"99999,9,09840,1","7,1,005,1,+999,9",,"03,1","SYN088AAXX  18121 01442 11589 71205 10070 20033 39840 40095 57005 6//// 70322 87500 333 4////;",
"01442099999","2010-03-18T15:00:00","4","58.6666666","7.8","211.0","BYGLANDSFJORD, NO","FM-12","99999","V020","150,1,N,0030,1","03000,1,9,N","075000,1,N,1","+0066,1","+0027,1","10084,1",,,,"2,1,03,1","2,1,03,1",,"07,99,1,01,1,01,1,00800,1,07,1,02,1",,,"99999,9,09828,1","6,1,011,1,+999,9",,"02,1","SYN082AAXX  18151 01442 41589 71503 10066 20027 39828 40084 56011 70222 81172 333 4////;",
"01442099999","2010-03-18T18:00:00","4","58.6666666","7.8","211.0","BYGLANDSFJORD, NO","FM-12","99999","V020","150,1,N,0030,1","00420,1,9,N","050000,1,N,1","+0047,1","+0032,1","10083,1","12,0000,9,1",,,"6,1,06,1","2,1,06,1",,"08,99,1,08,1,05,1,00450,1,99,9,99,9",,"120,M,+0077,1","99999,9,09826,1","7,1,003,1,+999,9",,"02,1","SYN094AAXX  18181 01442 11484 81503 10047 20032 39826 40083 57003 69912 70262 885// 333 10077 4////;","Q01  00002PRCP12"
"01442099999","2010-03-19T03:00:00","4","58.6666666","7.8","211.0","BYGLANDSFJORD, NO","FM-12","99999","V020","999,9,C,0000,1","00015,1,9,N","000100,1,N,1","+0021,1","+0020,1","10036,1",,,,"6,1,03,1","4,1,03,1","09,1,+99999,9,99,9","09,99,1,09,1,99,9,99999,9,99,9,99,9",,,"99999,9,09777,1","8,1,027,1,+999,9",,"60,1","SYN076AAXX  19031 01442 41/01 90000 10021 20020 39777 40036 58027 76064 333 4////;",
"01442099999","2010-03-19T06:00:00","4","58.6666666","7.8","211.0","BYGLANDSFJORD, NO","FM-12","99999","V020","999,9,C,0000,1","00015,1,9,N","000100,1,N,1","+0015,1","+0012,1","10012,1","12,0020,9,2","24,0018,9,2","0031,9,1,999999,9,9","6,1,06,1","4,1,06,1","09,1,+99999,9,99,9","09,99,1,09,1,99,9,99999,9,99,9,99,9","28,9","999,N,+0015,1","99999,9,09753,1","6,1,022,1,+999,9",,"61,1","SYN094AAXX  19061 01442 11/01 90000 10015 20012 39753 40012 56022 60022 76164 333 20015 44031 70018;",
"01442099999","2010-03-19T09:00:00","4","58.6666666","7.8","211.0","BYGLANDSFJORD, NO","FM-12","99999","V020","150,1,N,0030,1","00030,1,9,N","000200,1,N,1","+0022,1","+0018,1","10003,1",,,,"6,1,03,1","4,1,03,1","09,1,+99999,9,99,9","09,99,1,09,1,99,9,99999,9,99,9,99,9",,,"99999,9,09746,1","8,1,006,1,+999,9",,"43,1","SYN076AAXX  19091 01442 41/02 91503 10022 20018 39746 40003 58006 74364 333 4////;",
"01442099999","2010-03-19T12:00:00","4","58.6666666","7.8","211.0","BYGLANDSFJORD, NO","FM-12","99999","V020","150,1,N,0030,1","00030,1,9,N","000200,1,N,1","+0039,1","+0033,1","09995,1",,,,"6,1,06,1","4,1,06,1","09,1,+99999,9,99,9","09,99,1,09,1,99,9,99999,9,99,9,99,9",,,"99999,9,09740,1","6,1,006,1,+999,9",,"45,1","SYN082AAXX  19121 01442 11/02 91503 10039 20033 39740 49995 56006 6//// 74564 333 4////;",
"01442099999","2010-03-19T15:00:00","4","58.6666666","7.8","211.0","BYGLANDSFJORD, NO","FM-12","99999","V020","270,1,N,0030,1","00750,1,9,N","070000,1,N,1","+0061,1","+0024,1","09991,1",,,,"5,1,03,1","4,1,03,1",,"08,99,1,08,1,05,1,00800,1,99,9,99,9",,,"99999,9,09737,1","5,1,003,1,+999,9",,"02,1","SYN082AAXX  19151 01442 41588 82703 10061 20024 39737 49991 55003 70254 885// 333 4////;",
"01442099999","2010-03-19T18:00:00","4","58.6666666","7.8","211.0","BYGLANDSFJORD, NO","FM-12","99999","V020","120,1,N,0050,1","03000,1,9,N","075000,1,N,1","+0053,1","+0018,1","09990,1","12,0010,9,1",,,"5,1,06,1","4,1,06,1",,"05,99,1,03,1,02,1,00800,1,06,1,01,1",,"120,M,+0065,1","99999,9,09736,1","5,1,001,1,+999,9",,"01,1","SYN094AAXX  19181 01442 11589 51205 10053 20018 39736 49990 55001 60012 70154 83261 333 10065 4////;",
"01442099999","2010-03-20T03:00:00","4","58.6666666","7.8","211.0","BYGLANDSFJORD, NO","FM-12","99999","V020","999,9,C,0000,1","22000,1,9,N","075000,1,N,1","+0054,1","-0004,1","09981,1",,,,"0,1,03,1","0,1,03,1","00,1,+99999,9,99,9","00,99,1,00,1,00,1,99999,9,00,1,00,1",,,"99999,9,09727,1","8,1,008,1,+999,9",,"02,1","SYN076AAXX  20031 01442 41989 00000 10054 21004 39727 49981 58008 70200 333 4////;",
"01442099999","2010-03-20T06:00:00","4","58.6666666","7.8","211.0","BYGLANDSFJORD, NO","FM-12","99999","V020","010,1,N,0030,1","22000,1,9,N","075000,1,N,1","+0054,1","-0006,1","09976,1","12,0000,9,1","24,0010,9,1","0027,9,1,999999,9,9","0,1,06,1","0,1,06,1",,"01,99,1,01,1,00,1,99999,9,04,1,01,1","28,9","999,N,+0049,1","99999,9,09722,1","7,1,005,1,+999,9",,"03,1","SYN100AAXX  20061 01442 11989 10103 10054 21006 39722 49976 57005 60002 70300 81041 333 20049 44027 70010;","Q01  00002PRCP12"
"01442099999","2010-03-20T09:00:00","4","58.6666666","7.8","211.0","BYGLANDSFJORD, NO","FM-12","99999","V020","130,1,N,0030,1","22000,1,9,N","075000,1,N,1","+0059,1","-0002,1","09981,1",,,,"0,1,03,1","0,1,03,1",,"03,99,1,01,1,01,1,01750,1,00,1,02,1",,,"99999,9,09727,1","3,1,005,1,+999,9",,"03,1","SYN082AAXX  20091 01442 41789 31303 10059 21002 39727 49981 53005 70300 81102 333 4////;",
"01442099999","2010-03-20T12:00:00","4","58.6666666","7.8","211.0","BYGLANDSFJORD, NO","FM-12","99999","V020","320,1,N,0050,1","01200,1,9,N","075000,1,N,1","+0082,1","-0010,1","09984,1",,,,"1,1,06,1","0,1,06,1",,"08,99,1,08,1,05,1,01250,1,99,9,99,9",,,"99999,9,09732,1","2,1,005,1,+999,9",,"03,1","SYN088AAXX  20121 01442 11689 83205 10082 21010 39732 49984 52005 6//// 70310 885// 333 4////;",
"01442099999","2010-03-20T15:00:00","4","58.6666666","7.8","211.0","BYGLANDSFJORD, NO","FM-12","99999","V020","340,1,N,0050,1","01200,1,9,N","075000,1,N,1","+0072,1","-0005,1","09981,1",,,,"2,1,03,1","2,1,03,1",,"08,99,1,08,1,05,1,01250,1,99,9,99,9",,,"99999,9,09728,1","7,1,005,1,+999,9",,"02,1","SYN082AAXX  20151 01442 41689 83405 10072 21005 39728 49981 57005 70222 885// 333 4////;",
"01442099999","2010-03-20T18:00:00","4","58.6666666","7.8","211.0","BYGLANDSFJORD, NO","FM-12","99999","V020","010,1,N,0030,1","01500,1,9,N","075000,1,N,1","+0047,1","-0003,1","09979,1","12,0000,9,1",,,"2,1,06,1","2,1,06,1",,"08,99,1,08,1,00,1,01750,1,07,1,99,9",,"120,M,+0088,1","99999,9,09725,1","7,1,004,1,+999,9",,"02,1","SYN094AAXX  20181 01442 11789 80103 10047 21003 39725 49979 57004 60002 70222 8807/ 333 10088 4////;","Q01  00002PRCP12"
"01442099999","2010-03-21T03:00:00","4","58.6666666","7.8","211.0","BYGLANDSFJORD, NO","FM-12","99999","V020","120,1,N,0030,1","22000,1,9,N","075000,1,N,1","+0016,1","-0003,1","09972,1",,,,"0,1,03,1","0,1,03,1",,"01,99,1,01,1,01,1,00800,1,00,1,00,1",,,"99999,9,09715,1","8,1,007,1,+999,9",,"02,1","SYN082AAXX  21031 01442 41589 11203 10016 21003 39715 49972 58007 70200 81100 333 4////;",
"01442099999","2010-03-21T06:00:00","4","58.6666666","7.8","211.0","BYGLANDSFJORD, NO","FM-12","99999","V020","150,1,N,0030,1","22000,1,9,N","075000,1,N,1","+0005,1","-0003,1","09971,1","12,0000,9,1","24,0000,9,1","0022,9,1,999999,9,9","0,1,06,1","0,1,06,1",,"01,99,1,01,1,00,1,02250,1,03,1,01,1","28,9","999,N,+0005,1","99999,9,09713,1","7,1,002,1,+999,9",,"02,1","SYN100AAXX  21061 01442 11889 11503 10005 21003 39713 49971 57002 60002 70200 81031 333 20005 44022 70000;","Q01  00002PRCP24Q02  00002PRCP12"
"01442099999","2010-03-21T09:00:00","4","58.6666666","7.8","211.0","BYGLANDSFJORD, NO","FM-12","99999","V020","350,1,N,0050,1","22000,1,9,N","075000,1,N,1","+0062,1","-0012,1","09988,1",,,,"0,1,03,1","0,1,03,1",,"01,99,1,01,1,01,1,01750,1,00,1,00,1",,,"99999,9,09735,1","3,1,021,1,+999,9",,"02,1","SYN082AAXX  21091 01442 41789 13505 10062 21012 39735 49988 53021 70200 81100 333 4////;",
"01442099999","2010-03-21T12:00:00","4","58.6666666","7.8","211.0","BYGLANDSFJORD, NO","FM-12","99999","V020","340,1,N,0050,1","22000,1,9,N","075000,1,N,1","+0093,1","-0020,1","10009,1",,,,"0,1,06,1","0,1,06,1",,"01,99,1,01,1,01,1,01750,1,00,1,01,1",,,"99999,9,09757,1","3,1,023,1,+999,9",,"01,1","SYN088AAXX  21121 01442 11789 13405 10093 21020 39757 40009 53023 6//// 70100 81101 333 4////;",
"01442099999","2010-03-21T15:00:00","4","58.6666666","7.8","211.0","BYGLANDSFJORD, NO","FM-12","99999","V020","310,1,N,0050,1","22000,1,9,N","075000,1,N,1","+0105,1","-0015,1","10043,1",,,,"0,1,03,1","0,1,03,1",,"01,99,1,01,1,01,1,01750,1,00,1,00,1",,,"99999,9,09792,1","3,1,035,1,+999,9",,"02,1","SYN082AAXX  21151 01442 41789 13105 10105 21015 39792 40043 53035 70200 81100 333 4////;",
"01442099999","2010-03-21T18:00:00","4","58.6666666","7.8","211.0","BYGLANDSFJORD, NO","FM-12","99999","V020","350,1,N,0030,1","22000,1,9,N","075000,1,N,1","+0057,1","-0006,1","10087,1","12,0000,9,1",,,"0,1,06,1","0,1,06,1",,"01,99,1,01,1,01,1,00800,1,00,1,00,1",,"120,M,+0108,1","99999,9,09831,1","3,1,037,1,+999,9",,"01,1","SYN094AAXX  21181 01442 11589 13503 10057 21006 39831 40087 53037 60002 70100 81100 333 10108 4////;","Q01  00002PRCP12"
"01442099999","2010-03-22T03:00:00","4","58.6666666","7.8","211.0","BYGLANDSFJORD, NO","FM-12","99999","V020","150,1,N,0030,1","00420,1,9,N","075000,1,N,1","+0008,1","+0001,1","10151,1",,,,"6,1,03,1","1,1,03,1",,"08,99,1,08,1,05,1,00450,1,99,9,99,9",,,"99999,9,09890,1","0,1,005,1,+999,9",,"03,1","SYN082AAXX  22031 01442 41489 81503 10008 20001 39890 40151 50005 70361 885// 333 4////;",
"01442099999","2010-03-22T06:00:00","4","58.6666666","7.8","211.0","BYGLANDSFJORD, NO","FM-12","99999","V020","150,1,N,0030,1","00750,1,9,N","075000,1,N,1","+0006,1","+0000,1","10156,1","12,0003,9,1","24,0003,9,1","0018,9,1,999999,9,9","6,1,06,1","2,1,06,1",,"08,99,1,08,1,05,1,00800,1,99,9,99,9","28,9","999,N,+0006,1","99999,9,09893,1","2,1,004,1,+999,9",,"02,1","SYN100AAXX  22061 01442 11589 81503 10006 20000 39893 40156 52004 69932 70262 885// 333 20006 44018 70003;",
"01442099999","2010-03-22T09:00:00","4","58.6666666","7.8","211.0","BYGLANDSFJORD, NO","FM-12","99999","V020","150,1,N,0030,1","00420,1,9,N","075000,1,N,1","+0023,1","+0004,1","10160,1",,,,"2,1,03,1","2,1,03,1",,"08,99,1,08,1,05,1,00450,1,99,9,99,9",,,"99999,9,09898,1","1,1,006,1,+999,9",,"02,1","SYN082AAXX  22091 01442 41489 81503 10023 20004 39898 40160 51006 70222 885// 333 4////;",
"01442099999","2010-03-22T12:00:00","4","58.6666666","7.8","211.0","BYGLANDSFJORD, NO","FM-12","99999","V020","170,1,N,0030,1","00210,1,9,N","070000,1,N,1","+0037,1","+0006,1","10157,1",,,,"2,1,06,1","2,1,06,1",,"08,99,1,08,1,06,1,00250,1,99,9,99,9",,,"99999,9,09897,1","0,1,001,1,+999,9",,"03,1","SYN088AAXX  22121 01442 11388 81703 10037 20006 39897 40157 50001 6//// 70322 886// 333 4////;",
"01442099999","2010-03-22T15:00:00","4","58.6666666","7.8","211.0","BYGLANDSFJORD, NO","FM-12","99999","V020","999,9,C,0000,1","00120,1,9,N","040000,1,N,1","+0033,1","+0018,1","10142,1",,,,"6,1,03,1","2,1,03,1",,"08,99,1,08,1,06,1,00150,1,99,9,99,9",,,"99999,9,09882,1","7,1,015,1,+999,9",,"21,1","SYN082AAXX  22151 01442 41282 80000 10033 20018 39882 40142 57015 72162 886// 333 4////;",
"01442099999","2010-03-22T18:00:00","4","58.6666666","7.8","211.0","BYGLANDSFJORD, NO","FM-12","99999","V020","999,9,C,0000,1","00015,1,9,N","000100,1,N,1","+0021,1","+0015,1","10127,1","12,0005,9,1",,,"6,1,06,1","4,1,06,1","09,1,+99999,9,99,9","09,99,1,09,1,99,9,99999,9,99,9,99,9",,"120,M,+0038,1","99999,9,09867,1","7,1,016,1,+999,9",,"50,1","SYN088AAXX  22181 01442 11/01 90000 10021 20015 39867 40127 57016 69942 75064 333 10038 4////;",
"01442099999","2010-03-23T03:00:00","4","58.6666666","7.8","211.0","BYGLANDSFJORD, NO","FM-12","99999","V020","999,9,C,0000,1","00030,1,9,N","000200,1,N,1","+0016,1","+0013,1","10059,1",,,,"6,1,03,1","4,1,03,1","09,1,+99999,9,99,9","09,99,1,09,1,99,9,99999,9,99,9,99,9",,,"99999,9,09800,1","8,1,030,1,+999,9",,"61,1","SYN076AAXX  23031 01442 41/02 90000 10016 20013 39800 40059 58030 76164 333 4////;",
"01442099999","2010-03-23T06:00:00","4","58.6666666","7.8","211.0","BYGLANDSFJORD, NO","FM-12","99999","V020","160,1,N,0010,1","00060,1,9,N","020000,1,N,1","+0011,1","+0008,1","10045,1","12,0051,9,1","24,0056,9,1","0015,9,1,999999,9,9","6,1,06,1","4,1,06,1",,"08,99,1,08,1,06,1,00075,1,99,9,99,9","28,9","999,N,+0011,1","99999,9,09786,1","6,1,014,1,+999,9",,"02,1","SYN100AAXX  23061 01442 11170 81601 10011 20008 39786 40045 56014 60052 70264 886// 333 20011 44015 70057;",
"01442099999","2010-03-23T09:00:00","4","58.6666666","7.8","211.0","BYGLANDSFJORD, NO","FM-12","99999","V020","150,1,N,0030,1","00060,1,9,N","060000,1,N,1","+0023,1","+0017,1","10060,1",,,,"2,1,03,1","2,1,03,1",,"07,99,1,07,1,06,1,00075,1,00,1,00,1",,,"99999,9,09802,1","3,1,016,1,+999,9",,"01,1","SYN082AAXX  23091 01442 41186 71503 10023 20017 39802 40060 53016 70122 87600 333 4////;",
"01442099999","2010-03-23T12:00:00","4","58.6666666","7.8","211.0","BYGLANDSFJORD, NO","FM-12","99999","V020","280,1,N,0030,1","22000,1,9,N","075000,1,N,1","+0080,1","-0002,1","10076,1",,,,"2,1,06,1","1,1,06,1",,"01,99,1,01,1,01,1,01750,1,00,1,01,1",,,"99999,9,09822,1","2,1,021,1,+999,9",,"01,1","SYN088AAXX  23121 01442 11789 12803 10080 21002 39822 40076 52021 6//// 70121 81101 333 4////;",
"01442099999","2010-03-23T15:00:00","4","58.6666666","7.8","211.0","BYGLANDSFJORD, NO","FM-12","99999","V020","310,1,N,0070,1","22000,1,9,N","075000,1,N,1","+0088,1","-0010,1","10094,1",,,,"0,1,03,1","0,1,03,1",,"01,99,1,01,1,01,1,01750,1,00,1,00,1",,,"99999,9,09841,1","3,1,018,1,+999,9",,"01,1","SYN082AAXX  23151 01442 41789 13107 10088 21010 39841 40094 53018 70100 81100 333 4////;",
"01442099999","2010-03-23T18:00:00","4","58.6666666","7.8","211.0","BYGLANDSFJORD, NO","FM-12","99999","V020","310,1,N,0030,1","22000,1,9,N","075000,1,N,1","+0055,1","-0010,1","10114,1","12,0000,9,1",,,"0,1,06,1","0,1,06,1",,"01,99,1,01,1,01,1,99999,9,00,1,00,1",,"120,M,+0091,1","99999,9,09857,1","3,1,015,1,+999,9",,"01,1","SYN094AAXX  23181 01442 11989 13103 10055 21010 39857 40114 53015 60002 70100 81100 333 10091 4////;","Q01  00002PRCP12"
"01442099999","2010-03-24T03:00:00","4","58.6666666","7.8","211.0","BYGLANDSFJORD, NO","FM-12","99999","V020","150,1,N,0030,1","02100,1,9,N","075000,1,N,1","+0000,1","-0007,1","10151,1",,,,"1,1,03,1","1,1,03,1",,"08,99,1,08,1,00,1,02250,1,02,1,99,9",,,"99999,9,09888,1","0,1,002,1,+999,9",,"03,1","SYN082AAXX  24031 01442 41889 81503 10000 21007 39888 40151 50002 70311 8802/ 333 4////;",
"01442099999","2010-03-24T06:00:00","4","58.6666666","7.8","211.0","BYGLANDSFJORD, NO","FM-12","99999","V020","999,9,C,0000,1","01500,1,9,N","075000,1,N,1","-0006,1","-0011,1","10151,1","12,0000,9,1","24,0000,9,1","9999,2,9,999999,9,9","2,1,06,1","1,1,06,1",,"08,99,1,08,1,00,1,01750,1,02,1,99,9","30,9","999,N,-0006,1","99999,9,09888,1","5,1,000,1,+999,9",,"03,1","SYN100AAXX  24061 01442 11789 80000 11006 21011 39888 40151 55000 60002 70321 8802/ 333 21006 42998 70000;","Q01  00002PRCP24Q02  00002PRCP12Q03  09982SNDP  "
"01442099999","2010-03-24T09:00:00","4","58.6666666","7.8","211.0","BYGLANDSFJORD, NO","FM-12","99999","V020","340,1,N,0030,1","01500,1,9,N","075000,1,N,1","+0024,1","-0003,1","10152,1",,,,"2,1,03,1","2,1,03,1",,"08,99,1,08,1,00,1,01750,1,02,1,99,9",,,"99999,9,09892,1","3,1,003,1,+999,9",,"02,1","SYN082AAXX  24091 01442 41789 83403 10024 21003 39892 40152 53003 70222 8802/ 333 4////;",
"01442099999","2010-03-24T12:00:00","4","58.6666666","7.8","211.0","BYGLANDSFJORD, NO","FM-12","99999","V020","190,1,N,0030,1","01200,1,9,N","075000,1,N,1","+0067,1","-0003,1","10140,1",,,,"2,1,06,1","2,1,06,1",,"08,99,1,08,1,05,1,01250,1,99,9,99,9",,,"99999,9,09883,1","8,1,008,1,+999,9",,"03,1","SYN088AAXX  24121 01442 11689 81903 10067 21003 39883 40140 58008 6//// 70322 885// 333 4////;",
"01442099999","2010-03-24T15:00:00","4","58.6666666","7.8","211.0","BYGLANDSFJORD, NO","FM-12","99999","V020","150,1,N,0050,1","00750,1,9,N","075000,1,N,1","+0066,1","+0011,1","10128,1",,,,"2,1,03,1","2,1,03,1",,"08,99,1,08,1,05,1,00800,1,99,9,99,9",,,"99999,9,09872,1","7,1,012,1,+999,9",,"02,1","SYN082AAXX  24151 01442 41589 81505 10066 20011 39872 40128 57012 70222 885// 333 4////;",
"01442099999","2010-03-24T18:00:00","4","58.6666666","7.8","211.0","BYGLANDSFJORD, NO","FM-12","99999","V020","150,1,N,0030,1","00750,1,9,N","040000,1,N,1","+0040,1","+0025,1","10134,1","12,0010,9,1",,,"6,1,06,1","2,1,06,1",,"08,99,1,08,1,05,1,00800,1,99,9,99,9",,"120,M,+0070,1","99999,9,09876,1","2,1,004,1,+999,9",,"61,1","SYN094AAXX  24181 01442 11582 81503 10040 20025 39876 40134 52004 60012 76162 885// 333 10070 4////;",
"01442099999","2010-03-25T03:00:00","4","58.6666666","7.8","211.0","BYGLANDSFJORD, NO","FM-12","99999","V020","999,9,C,0000,1","00060,1,9,N","030000,1,N,1","+0017,1","+0014,1","10079,1",,,,"6,1,03,1","2,1,03,1",,"08,99,1,08,1,06,1,00075,1,99,9,99,9",,,"99999,9,09820,1","8,1,012,1,+999,9",,"02,1","SYN082AAXX  25031 01442 41180 80000 10017 20014 39820 40079 58012 70262 886// 333 4////;",
"01442099999","2010-03-25T06:00:00","4","58.6666666","7.8","211.0","BYGLANDSFJORD, NO","FM-12","99999","V020","340,1,N,0030,1","00420,1,9,N","050000,1,N,1","+0020,1","+0014,1","10128,1","12,0020,9,1","24,0030,9,1","9999,2,9,999999,9,9","6,1,06,1","2,1,06,1",,"07,99,1,07,1,05,1,00450,1,00,1,00,1","30,9","999,N,+0018,1","99999,9,09867,1","5,1,002,1,+999,9",,"01,1","SYN100AAXX  25061 01442 11484 73403 10020 20014 39867 40128 55002 60022 70162 87500 333 20018 42998 70030;","Q01  09982SNDP  "
"01442099999","2010-03-25T09:00:00","4","58.6666666","7.8","211.0","BYGLANDSFJORD, NO","FM-12","99999","V020","340,1,N,0050,1","00420,1,9,N","050000,1,N,1","+0031,1","+0016,1","10128,1",,,,"2,1,03,1","2,1,03,1",,"08,99,1,08,1,05,1,00450,1,99,9,99,9",,,"99999,9,09868,1","0,1,001,1,+999,9",,"02,1","SYN082AAXX  25091 01442 41484 83405 10031 20016 39868 40128 50001 70222 885// 333 4////;",
"01442099999","2010-03-25T12:00:00","4","58.6666666","7.8","211.0","BYGLANDSFJORD, NO","FM-12","99999","V020","350,1,N,0050,1","03000,1,9,N","050000,1,N,1","+0059,1","+0020,1","10118,1",,,,"2,1,06,1","2,1,06,1",,"08,99,1,01,1,01,1,00800,1,07,1,99,9",,,"99999,9,09862,1","8,1,007,1,+999,9",,"03,1","SYN088AAXX  25121 01442 11584 83505 10059 20020 39862 40118 58007 6//// 70322 8117/ 333 4////;",
"01442099999","2010-03-25T15:00:00","4","58.6666666","7.8","211.0","BYGLANDSFJORD, NO","FM-12","99999","V020","010,1,N,0030,1","03000,1,9,N","050000,1,N,1","+0062,1","+0017,1","10104,1",,,,"2,1,03,1","2,1,03,1",,"07,99,1,01,1,01,1,00800,1,07,1,00,1",,,"99999,9,09847,1","7,1,014,1,+999,9",,"01,1","SYN082AAXX  25151 01442 41584 70103 10062 20017 39847 40104 57014 70122 81170 333 4////;",
"01442099999","2010-03-25T18:00:00","4","58.6666666","7.8","211.0","BYGLANDSFJORD, NO","FM-12","99999","V020","340,1,N,0050,1","01500,1,9,N","075000,1,N,1","+0047,1","+0014,1","10100,1","12,0000,9,1",,,"2,1,06,1","2,1,06,1",,"08,99,1,08,1,00,1,01750,1,07,1,99,9",,"120,M,+0063,1","99999,9,09842,1","6,1,005,1,+999,9",,"02,1","SYN094AAXX  25181 01442 11789 83405 10047 20014 39842 40100 56005 60002 70222 8807/ 333 10063 4////;","Q01  00002PRCP12"
"01442099999","2010-03-26T03:00:00","4","58.6666666","7.8","211.0","BYGLANDSFJORD, NO","FM-12","99999","V020","340,1,N,0030,1","00750,1,9,N","070000,1,N,1","+0036,1","+0015,1","10058,1",,,,"2,1,03,1","2,1,03,1",,"08,99,1,08,1,05,1,00800,1,99,9,99,9",,,"99999,9,09801,1","7,1,018,1,+999,9",,"02,1","SYN082AAXX  26031 01442 41588 83403 10036 20015 39801 40058 57018 70222 885// 333 4////;",
"01442099999","2010-03-26T06:00:00","4","58.6666666","7.8","211.0","BYGLANDSFJORD, NO","FM-12","99999","V020","340,1,N,0030,1","00420,1,9,N","020000,1,N,1","+0033,1","+0021,1","10045,1","12,0010,9,1","24,0010,9,1","9999,2,9,999999,9,9","6,1,06,1","2,1,06,1",,"08,99,1,08,1,05,1,00450,1,99,9,99,9","30,9","999,N,+0033,1","99999,9,09787,1","5,1,013,1,+999,9",,"60,1","SYN100AAXX  26061 01442 11470 83403 10033 20021 39787 40045 55013 60012 76062 885// 333 20033 42998 70011;","Q01  09982SNDP  "
"01442099999","2010-03-26T09:00:00","4","58.6666666","7.8","211.0","BYGLANDSFJORD, NO","FM-12","99999","V020","350,1,N,0030,1","00420,1,9,N","040000,1,N,1","+0032,1","+0025,1","10039,1",,,,"6,1,03,1","2,1,03,1",,"08,99,1,08,1,05,1,00450,1,99,9,99,9",,,"99999,9,09782,1","8,1,005,1,+999,9",,"21,1","SYN082AAXX  26091 01442 41482 83503 10032 20025 39782 40039 58005 72162 885// 333 4////;",
"01442099999","2010-03-26T12:00:00","4","58.6666666","7.8","211.0","BYGLANDSFJORD, NO","FM-12","99999","V020","350,1,N,0030,1","00210,1,9,N","020000,1,N,1","+0036,1","+0030,1","10038,1",,,,"6,1,06,1","2,1,06,1",,"08,99,1,08,1,06,1,00250,1,99,9,99,9",,,"99999,9,09782,1","5,1,000,1,+999,9",,"60,1","SYN088AAXX  26121 01442 11370 83503 10036 20030 39782 40038 55000 6//// 76062 886// 333 4////;",
"01442099999","2010-03-26T15:00:00","4","58.6666666","7.8","211.0","BYGLANDSFJORD, NO","FM-12","99999","V020","999,9,C,0000,1","00060,1,9,N","015000,1,N,1","+0044,1","+0037,1","10028,1",,,,"6,1,03,1","2,1,03,1",,"08,99,1,08,1,06,1,00075,1,99,9,99,9",,,"99999,9,09772,1","6,1,009,1,+999,9",,"02,1","SYN082AAXX  26151 01442 41165 80000 10044 20037 39772 40028 56009 70262 886// 333 4////;",
"01442099999","2010-03-26T18:00:00","4","58.6666666","7.8","211.0","BYGLANDSFJORD, NO","FM-12","99999","V020","999,9,C,0000,1","00060,1,9,N","001500,1,N,1","+0035,1","+0031,1","10026,1","12,0051,9,1",,,"6,1,06,1","2,1,06,1",,"08,99,1,08,1,06,1,00075,1,99,9,99,9",,"120,M,+0044,1","99999,9,09770,1","8,1,003,1,+999,9",,"10,1","SYN094AAXX  26181 01442 11115 80000 10035 20031 39770 40026 58003 60052 71062 886// 333 10044 4////;",
"01442099999","2010-03-27T03:00:00","4","58.6666666","7.8","211.0","BYGLANDSFJORD, NO","FM-12","99999","V020","999,9,C,0000,1","00015,1,9,N","000100,1,N,1","+0017,1","+0016,1","09997,1",,,,"4,1,03,1","4,1,03,1","09,1,+99999,9,99,9","09,99,1,09,1,99,9,99999,9,99,9,99,9",,,"99999,9,09740,1","8,1,017,1,+999,9",,"45,1","SYN076AAXX  27031 01442 41/01 90000 10017 20016 39740 49997 58017 74544 333 4////;",
"01442099999","2010-03-27T06:00:00","4","58.6666666","7.8","211.0","BYGLANDSFJORD, NO","FM-12","99999","V020","340,1,N,0030,1","00015,1,9,N","000100,1,N,1","+0015,1","+0014,1","09989,1","12,0000,9,1","24,0048,9,1","9999,2,9,999999,9,9","4,1,06,1","4,1,06,1","09,1,+99999,9,99,9","09,99,1,09,1,99,9,99999,9,99,9,99,9","30,9","999,N,+0015,1","99999,9,09732,1","7,1,008,1,+999,9",,"45,1","SYN094AAXX  27061 01442 11/01 93403 10015 20014 39732 49989 57008 60002 74544 333 20015 42998 70048;","Q01  00002PRCP12Q02  09982SNDP  "
"01442099999","2010-03-27T09:00:00","4","58.6666666","7.8","211.0","BYGLANDSFJORD, NO","FM-12","99999","V020","010,1,N,0050,1","00120,1,9,N","070000,1,N,1","+0032,1","+0017,1","09982,1",,,,"4,1,03,1","2,1,03,1",,"07,99,1,07,1,06,1,00150,1,00,1,00,1",,,"99999,9,09727,1","8,1,005,1,+999,9",,"01,1","SYN082AAXX  27091 01442 41288 70105 10032 20017 39727 49982 58005 70142 87600 333 4////;",
"01442099999","2010-03-27T12:00:00","4","58.6666666","7.8","211.0","BYGLANDSFJORD, NO","FM-12","99999","V020","350,1,N,0050,1","00750,1,9,N","070000,1,N,1","+0043,1","+0015,1","09974,1",,,,"4,1,06,1","2,1,06,1",,"08,99,1,08,1,05,1,00800,1,99,9,99,9",,,"99999,9,09720,1","7,1,007,1,+999,9",,"03,1","SYN088AAXX  27121 01442 11588 83505 10043 20015 39720 49974 57007 6//// 70342 885// 333 4////;",
"01442099999","2010-03-27T15:00:00","4","58.6666666","7.8","211.0","BYGLANDSFJORD, NO","FM-12","99999","V020","330,1,N,0030,1","01200,1,9,N","075000,1,N,1","+0061,1","+0026,1","09962,1",,,,"2,1,03,1","2,1,03,1",,"07,99,1,07,1,05,1,01250,1,00,1,00,1",,,"99999,9,09710,1","7,1,010,1,+999,9",,"01,1","SYN082AAXX  27151 01442 41689 73303 10061 20026 39710 49962 57010 70122 87500 333 4////;",
"01442099999","2010-03-27T18:00:00","4","58.6666666","7.8","211.0","BYGLANDSFJORD, NO","FM-12","99999","V020","330,1,N,0030,1","00750,1,9,N","075000,1,N,1","+0043,1","+0025,1","09959,1","12,0000,9,1",,,"2,1,06,1","2,1,06,1",,"08,99,1,08,1,05,1,00800,1,99,9,99,9",,"120,M,+0065,1","99999,9,09705,1","5,1,005,1,+999,9",,"03,1","SYN094AAXX  27181 01442 11589 83303 10043 20025 39705 49959 55005 60002 70322 885// 333 10065 4////;","Q01  00002PRCP12"
"01442099999","2010-03-28T03:00:00","4","58.6666666","7.8","211.0","BYGLANDSFJORD, NO","FM-12","99999","V020","120,1,N,0010,1","01500,1,9,N","075000,1,N,1","+0012,1","+0009,1","09950,1",,,,"2,1,03,1","2,1,03,1",,"07,99,1,07,1,00,1,01750,1,07,1,00,1",,,"99999,9,09693,1","7,1,005,1,+999,9",,"02,1","SYN082AAXX  28031 01442 41789 71201 10012 20009 39693 49950 57005 70222 87070 333 4////;",
"01442099999","2010-03-28T06:00:00","4","58.6666666","7.8","211.0","BYGLANDSFJORD, NO","FM-12","99999","V020","999,9,C,0000,1","00015,1,9,N","000100,1,N,1","-0004,1","-0006,1","09953,1","12,0000,9,1","24,0000,9,1","9999,2,9,999999,9,9","4,1,06,1","2,1,06,1","09,1,+99999,9,99,9","09,99,1,09,1,99,9,99999,9,99,9,99,9","30,9","999,N,-0004,1","99999,9,09696,1","3,1,002,1,+999,9",,"47,1","SYN094AAXX  28061 01442 11/01 90000 11004 21006 39696 49953 53002 60002 74742 333 21004 42998 70000;","Q01  00002PRCP24Q02  00002PRCP12Q03  09982SNDP  "
"01442099999","2010-03-28T09:00:00","4","58.6666666","7.8","211.0","BYGLANDSFJORD, NO","FM-12","99999","V020","340,1,N,0050,1","22000,1,9,N","075000,1,N,1","+0012,1","+0003,1","09949,1",,,,"4,1,03,1","1,1,03,1",,"03,99,1,02,1,06,1,00075,1,03,1,00,1",,,"99999,9,09692,1","7,1,003,1,+999,9",,"28,1","SYN082AAXX  28091 01442 41189 33405 10012 20003 39692 49949 57003 72841 82630 333 4////;",
"01442099999","2010-03-28T12:00:00","4","58.6666666","7.8","211.0","BYGLANDSFJORD, NO","FM-12","99999","V020","150,1,N,0050,1","01200,1,9,N","075000,1,N,1","+0087,1","+0016,1","09933,1",,,,"4,1,06,1","1,1,06,1",,"06,99,1,05,1,02,1,01250,1,06,1,01,1",,,"99999,9,09683,1","5,1,009,1,+999,9",,"03,1","SYN088AAXX  28121 01442 11689 61505 10087 20016 39683 49933 55009 6//// 70341 85261 333 4////;",
"01442099999","2010-03-28T15:00:00","4","58.6666666","7.8","211.0","BYGLANDSFJORD, NO","FM-12","99999","V020","170,1,N,0050,1","03000,1,9,N","075000,1,N,1","+0074,1","+0013,1","09928,1",,,,"2,1,03,1","2,1,03,1",,"07,99,1,02,1,02,1,01250,1,06,1,08,1",,,"99999,9,09677,1","8,1,006,1,+999,9",,"03,1","SYN082AAXX  28151 01442 41689 71705 10074 20013 39677 49928 58006 70322 82268 333 4////;",
"01442099999","2010-03-28T18:00:00","4","58.6666666","7.8","211.0","BYGLANDSFJORD, NO","FM-12","99999","V020","150,1,N,0030,1","01500,1,9,N","075000,1,N,1","+0044,1","+0018,1","09933,1","12,0000,9,1",,,"8,1,06,1","2,1,06,1",,"08,99,1,08,1,08,1,01250,1,99,9,99,9",,"120,M,+0087,1","99999,9,09680,1","0,1,002,1,+999,9",,"03,1","SYN094AAXX  28181 01442 11689 81503 10044 20018 39680 49933 50002 69912 70382 888// 333 10087 4////;","Q01  00002PRCP12"
"01442099999","2010-03-29T03:00:00","4","58.6666666","7.8","211.0","BYGLANDSFJORD, NO","FM-12","99999","V020","350,1,N,0030,1","01500,1,9,N","060000,1,N,1","+0017,1","+0010,1","09932,1",,,,"6,1,03,1","2,1,03,1",,"08,99,1,08,1,00,1,01750,1,07,1,99,9",,,"99999,9,09677,1","3,1,004,1,+999,9",,"60,1","SYN082AAXX  29031 01442 41786 83503 10017 20010 39677 49932 53004 76062 8807/ 333 4////;",
"01442099999","2010-03-29T06:00:00","4","58.6666666","7.8","211.0","BYGLANDSFJORD, NO","FM-12","99999","V020","999,9,C,0000,1","01500,1,9,N","075000,1,N,1","+0013,1","+0009,1","09942,1","12,0005,9,1","24,0005,9,1","9999,2,9,999999,9,9","6,1,06,1","2,1,06,1",,"08,99,1,08,1,00,1,01750,1,07,1,99,9","30,9","999,N,+0013,1","99999,9,09686,1","3,1,009,1,+999,9",,"02,1","SYN100AAXX  29061 01442 11789 80000 10013 20009 39686 49942 53009 69952 70262 8807/ 333 20013 42998 70006;","Q01  09982SNDP  "
"01442099999","2010-03-29T09:00:00","4","58.6666666","7.8","211.0","BYGLANDSFJORD, NO","FM-12","99999","V020","120,1,N,0030,1","00210,1,9,N","070000,1,N,1","+0035,1","+0025,1","09954,1",,,,"6,1,03,1","2,1,03,1",,"08,99,1,08,1,05,1,00250,1,99,9,99,9",,,"99999,9,09700,1","2,1,014,1,+999,9",,"03,1","SYN082AAXX  29091 01442 41388 81203 10035 20025 39700 49954 52014 70362 885// 333 4////;",
"01442099999","2010-03-29T12:00:00","4","58.6666666","7.8","211.0","BYGLANDSFJORD, NO","FM-12","99999","V020","350,1,N,0070,1","22000,1,9,N","075000,1,N,1","+0057,1","-0044,1","09968,1",,,,"6,1,06,1","1,1,06,1",,"02,99,1,02,1,02,1,01750,1,00,1,00,1",,,"99999,9,09715,1","2,1,015,1,+999,9",,"03,1","SYN088AAXX  29121 01442 11789 23507 10057 21044 39715 49968 52015 6//// 70361 82200 333 4////;",
"01442099999","2010-03-29T15:00:00","4","58.6666666","7.8","211.0","BYGLANDSFJORD, NO","FM-12","99999","V020","340,1,N,0070,1","22000,1,9,N","075000,1,N,1","+0059,1","-0034,1","09980,1",,,,"0,1,03,1","0,1,03,1",,"01,99,1,01,1,01,1,01750,1,06,1,00,1",,,"99999,9,09727,1","3,1,012,1,+999,9",,"01,1","SYN082AAXX  29151 01442 41789 13407 10059 21034 39727 49980 53012 70100 81160 333 4////;",
"01442099999","2010-03-29T18:00:00","4","58.6666666","7.8","211.0","BYGLANDSFJORD, NO","FM-12","99999","V020","330,1,N,0050,1","22000,1,9,N","075000,1,N,1","+0033,1","-0041,1","09997,1","12,0000,9,1",,,"0,1,06,1","0,1,06,1",,"01,99,1,01,1,01,1,01750,1,00,1,01,1",,"120,M,+0065,1","99999,9,09741,1","3,1,014,1,+999,9",,"01,1","SYN094AAXX  29181 01442 11789 13305 10033 21041 39741 49997 53014 69922 70100 81101 333 10065 4////;","Q01  00002PRCP12"
"01442099999","2010-03-30T03:00:00","4","58.6666666","7.8","211.0","BYGLANDSFJORD, NO","FM-12","99999","V020","999,9,C,0000,1","22000,1,9,N","075000,1,N,1","-0038,1","-0040,1","10015,1",,,,"0,1,03,1","0,1,03,1","00,1,+99999,9,99,9","00,99,1,00,1,00,1,99999,9,00,1,00,1",,,"99999,9,09756,1","8,1,002,1,+999,9",,"02,1","SYN076AAXX  30031 01442 41989 00000 11038 21040 39756 40015 58002 70200 333 4////;",
"01442099999","2010-03-30T06:00:00","4","58.6666666","7.8","211.0","BYGLANDSFJORD, NO","FM-12","99999","V020","340,1,N,0030,1","02100,1,9,N","075000,1,N,1","-0030,1","-0037,1","10012,1","12,0000,9,1","24,0003,9,1","9999,2,9,999999,9,9","1,1,06,1","0,1,06,1",,"08,99,1,05,1,00,1,02250,1,03,1,07,1","25,9","999,N,-0041,1","99999,9,09752,1","7,1,003,1,+999,9",,"03,1","SYN100AAXX  30061 01442 11889 83403 11030 21037 39752 40012 57003 60002 70310 85037 333 21041 41998 70002;","Q01  00002PRCP12Q02  09982SNDP  "
"01442099999","2010-03-30T09:00:00","4","58.6666666","7.8","211.0","BYGLANDSFJORD, NO","FM-12","99999","V020","330,1,N,0050,1","01500,1,9,N","075000,1,N,1","+0003,1","-0049,1","10008,1",,,,"2,1,03,1","2,1,03,1",,"08,99,1,08,1,00,1,01750,1,02,1,99,9",,,"99999,9,09750,1","7,1,003,1,+999,9",,"03,1","SYN082AAXX  30091 01442 41789 83305 10003 21049 39750 40008 57003 70322 8802/ 333 4////;",
"01442099999","2010-03-30T12:00:00","4","58.6666666","7.8","211.0","BYGLANDSFJORD, NO","FM-12","99999","V020","340,1,N,0050,1","01500,1,9,N","015000,1,N,1","+0026,1","-0037,1","10000,1",,,,"7,1,06,1","2,1,06,1",,"08,99,1,08,1,00,1,01750,1,02,1,99,9",,,"99999,9,09743,1","7,1,006,1,+999,9",,"70,1","SYN088AAXX  30121 01442 11765 83405 10026 21037 39743 40000 57006 6//// 77072 8802/ 333 4////;",
"01442099999","2010-03-30T15:00:00","4","58.6666666","7.8","211.0","BYGLANDSFJORD, NO","FM-12","99999","V020","350,1,N,0050,1","00030,1,9,N","000500,1,N,1","+0007,1","-0003,1","09986,1",,,,"7,1,03,1","7,1,03,1","09,1,+99999,9,99,9","09,99,1,09,1,99,9,99999,9,99,9,99,9",,,"99999,9,09728,1","6,1,014,1,+999,9",,"73,1","SYN076AAXX  30151 01442 41/05 93505 10007 21003 39728 49986 56014 77377 333 4////;",
"01442099999","2010-03-30T18:00:00","4","58.6666666","7.8","211.0","BYGLANDSFJORD, NO","FM-12","99999","V020","340,1,N,0070,1","00210,1,9,N","005000,1,N,1","+0011,1","+0002,1","09979,1","12,0061,9,1",,,"7,1,06,1","7,1,06,1",,"08,99,1,08,1,07,1,00250,1,99,9,99,9",,"120,M,+0030,1","99999,9,09722,1","6,1,007,1,+999,9",,"71,1","SYN094AAXX  30181 01442 11350 83407 10011 20002 39722 49979 56007 60062 77177 887// 333 10030 4////;",
"01442099999","2010-03-31T03:00:00","4","58.6666666","7.8","211.0","BYGLANDSFJORD, NO","FM-12","99999","V020","350,1,N,0050,1","00420,1,9,N","075000,1,N,1","+0030,1","+0011,1","09950,1",,,,"6,1,03,1","2,1,03,1",,"08,99,1,08,1,06,1,00450,1,99,9,99,9",,,"99999,9,09695,1","8,1,014,1,+999,9",,"02,1","SYN082AAXX  31031 01442 41489 83505 10030 20011 39695 49950 58014 70262 886// 333 4////;",
"01442099999","2010-03-31T06:00:00","4","58.6666666","7.8","211.0","BYGLANDSFJORD, NO","FM-12","99999","V020","340,1,N,0070,1","00420,1,9,N","050000,1,N,1","+0034,1","+0015,1","09941,1","12,0061,9,1","24,0112,9,1","9999,2,9,999999,9,9","6,1,06,1","2,1,06,1",,"08,99,1,06,1,07,1,00450,1,02,1,99,9","25,9","999,N,+0012,1","99999,9,09687,1","6,1,007,1,+999,9",,"61,1","SYN100AAXX  31061 01442 11484 83407 10034 20015 39687 49941 56007 60062 76162 8672/ 333 20012 41998 70111;","Q01  09982SNDP  "
"01442099999","2010-03-31T09:00:00","4","58.6666666","7.8","211.0","BYGLANDSFJORD, NO","FM-12","99999","V020","340,1,N,0070,1","00210,1,9,N","003000,1,N,1","+0016,1","+0007,1","09951,1",,,,"7,1,03,1","6,1,03,1",,"08,99,1,08,1,07,1,00250,1,99,9,99,9",,,"99999,9,09695,1","3,1,008,1,+999,9",,"69,1","SYN082AAXX  31091 01442 41330 83407 10016 20007 39695 49951 53008 76976 887// 333 4////;",
"01442099999","2010-03-31T12:00:00","4","58.6666666","7.8","211.0","BYGLANDSFJORD, NO","FM-12","99999","V020","350,1,N,0050,1","00120,1,9,N","020000,1,N,1","+0023,1","+0017,1","09965,1",,,,"7,1,06,1","6,1,06,1",,"08,99,1,08,1,07,1,00150,1,99,9,99,9",,,"99999,9,09708,1","3,1,014,1,+999,9",,"60,1","SYN088AAXX  31121 01442 11270 83505 10023 20017 39708 49965 53014 6//// 76076 887// 333 4////;",
"01442099999","2010-03-31T15:00:00","4","58.6666666","7.8","211.0","BYGLANDSFJORD, NO","FM-12","99999","V020","330,1,N,0050,1","00210,1,9,N","070000,1,N,1","+0028,1","+0019,1","09972,1",,,,"6,1,03,1","2,1,03,1",,"07,99,1,07,1,06,1,00250,1,00,1,00,1",,,"99999,9,09717,1","2,1,008,1,+999,9",,"21,1","SYN082AAXX  31151 01442 41388 73305 10028 20019 39717 49972 52008 72162 87600 333 4////;",
"01442099999","2010-03-31T18:00:00","4","58.6666666","7.8","211.0","BYGLANDSFJORD, NO","FM-12","99999","V020","340,1,N,0030,1","01200,1,9,N","075000,1,N,1","+0031,1","+0025,1","09978,1","12,0130,9,1",,,"6,1,06,1","2,1,06,1",,"07,99,1,07,1,08,1,00800,1,00,1,00,1",,"120,M,+0035,1","99999,9,09722,1","3,1,006,1,+999,9",,"01,1","SYN094AAXX  31181 01442 11589 73403 10031 20025 39722 49978 53006 60132 70162 87800 333 10035 4////;",
"01442099999","2010-04-01T03:00:00","4","58.6666666","7.8","211.0","BYGLANDSFJORD, NO","FM-12","99999","V020","120,1,N,0070,1","00420,1,9,N","010000,1,N,1","+0030,1","+0012,1","09961,1",,,,"6,1,03,1","2,1,03,1",,"08,99,1,08,1,07,1,00450,1,99,9,99,9",,,"99999,9,09706,1","8,1,015,1,+999,9",,"63,1","SYN082AAXX  01031 01442 41460 81207 10030 20012 39706 49961 58015 76362 887// 333 4////;",
"01442099999","2010-04-01T06:00:00","4","58.6666666","7.8","211.0","BYGLANDSFJORD, NO","FM-12","99999","V020","120,1,N,0050,1","00120,1,9,N","030000,1,N,1","+0029,1","+0016,1","09962,1","12,0020,9,1","24,0150,9,1","9999,2,9,999999,9,9","6,1,06,1","2,1,06,1",,"08,99,1,08,1,06,1,00150,1,99,9,99,9","25,9","999,N,+0014,1","99999,9,09707,1","2,1,001,1,+999,9",,"60,1","SYN100AAXX  01061 01442 11280 81205 10029 20016 39707 49962 52001 60022 76062 886// 333 20014 41998 70150;","Q01  09982SNDP  "
"01442099999","2010-04-01T09:00:00","4","58.6666666","7.8","211.0","BYGLANDSFJORD, NO","FM-12","99999","V020","140,1,N,0070,1","00210,1,9,N","070000,1,N,1","+0032,1","+0014,1","09960,1",,,,"6,1,03,1","2,1,03,1",,"08,99,1,08,1,06,1,00250,1,99,9,99,9",,,"99999,9,09705,1","7,1,002,1,+999,9",,"21,1","SYN082AAXX  01091 01442 41388 81407 10032 20014 39705 49960 57002 72162 886// 333 4////;",
"01442099999","2010-04-01T12:00:00","4","58.6666666","7.8","211.0","BYGLANDSFJORD, NO","FM-12","99999","V020","120,1,N,0050,1","00420,1,9,N","050000,1,N,1","+0040,1","+0022,1","09967,1",,,,"6,1,06,1","2,1,06,1",,"08,99,1,08,1,05,1,00450,1,99,9,99,9",,,"99999,9,09712,1","2,1,008,1,+999,9",,"60,1","SYN088AAXX  01121 01442 11484 81205 10040 20022 39712 49967 52008 6//// 76062 885// 333 4////;",
"01442099999","2010-04-01T15:00:00","4","58.6666666","7.8","211.0","BYGLANDSFJORD, NO","FM-12","99999","V020","170,1,N,0030,1","00420,1,9,N","030000,1,N,1","+0031,1","+0024,1","09975,1",,,,"6,1,03,1","6,1,03,1",,"08,99,1,08,1,07,1,00450,1,99,9,99,9",,,"99999,9,09720,1","0,1,007,1,+999,9",,"61,1","SYN082AAXX  01151 01442 41480 81703 10031 20024 39720 49975 50007 76166 887// 333 4////;",
"01442099999","2010-04-01T18:00:00","4","58.6666666","7.8","211.0","BYGLANDSFJORD, NO","FM-12","99999","V020","150,1,N,0050,1","00210,1,9,N","015000,1,N,1","+0019,1","+0012,1","09993,1","12,0051,9,1",,,"6,1,06,1","6,1,06,1",,"08,99,1,08,1,07,1,00250,1,99,9,99,9",,"120,M,+0042,1","99999,9,09736,1","3,1,016,1,+999,9",,"61,1","SYN094AAXX  01181 01442 11365 81505 10019 20012 39736 49993 53016 60052 76166 887// 333 10042 4////;",
"01442099999","2010-04-02T03:00:00","4","58.6666666","7.8","211.0","BYGLANDSFJORD, NO","FM-12","99999","V020","150,1,N,0030,1","00210,1,9,N","070000,1,N,1","+0005,1","+0002,1","10024,1",,,,"7,1,03,1","6,1,03,1",,"08,99,1,08,1,06,1,00250,1,99,9,99,9",,,"99999,9,09766,1","2,1,012,1,+999,9",,"02,1","SYN082AAXX  02031 01442 41388 81503 10005 20002 39766 40024 52012 70276 886// 333 4////;",
"01442099999","2010-04-02T06:00:00","4","58.6666666","7.8","211.0","BYGLANDSFJORD, NO","FM-12","99999","V020","150,1,N,0030,1","00210,1,9,N","020000,1,N,1","+0014,1","+0011,1","10045,1","12,0041,9,1","24,0081,9,1","9999,2,9,999999,9,9","7,1,06,1","6,1,06,1",,"08,99,1,08,1,06,1,00250,1,99,9,99,9","30,9","999,N,+0004,1","99999,9,09786,1","3,1,020,1,+999,9",,"60,1","SYN100AAXX  02061 01442 11370 81503 10014 20011 39786 40045 53020 60042 76076 886// 333 20004 42998 70081;","Q01  09982SNDP  "
"01442099999","2010-04-02T09:00:00","4","58.6666666","7.8","211.0","BYGLANDSFJORD, NO","FM-12","99999","V020","120,1,N,0050,1","00210,1,9,N","050000,1,N,1","+0026,1","+0011,1","10072,1",,,,"6,1,03,1","5,1,03,1",,"08,99,1,08,1,07,1,00250,1,99,9,99,9",,,"99999,9,09813,1","3,1,028,1,+999,9",,"60,1","SYN082AAXX  02091 01442 41384 81205 10026 20011 39813 40072 53028 76065 887// 333 4////;",
"01442099999","2010-04-02T12:00:00","4","58.6666666","7.8","211.0","BYGLANDSFJORD, NO","FM-12","99999","V020","170,1,N,0050,1","00900,1,9,N","075000,1,N,1","+0039,1","+0015,1","10084,1",,,,"6,1,06,1","5,1,06,1",,"07,99,1,07,1,08,1,00450,1,00,1,00,1",,,"99999,9,09827,1","2,1,013,1,+999,9",,"21,1","SYN088AAXX  02121 01442 11489 71705 10039 20015 39827 40084 52013 6//// 72165 87800 333 4////;",
"01442099999","2010-04-02T18:00:00","4","58.6666666","7.8","211.0","BYGLANDSFJORD, NO","FM-12","99999","V020","340,1,N,0030,1","00120,1,9,N","025000,1,N,1","+0016,1","+0007,1","10103,1","12,0030,9,1",,,"8,1,06,1","2,1,06,1",,"08,99,1,08,1,09,1,00150,1,99,9,99,9",,"120,M,+0058,1","99999,9,09842,1","3,1,007,1,+999,9",,"80,1","SYN094AAXX  02181 01442 11275 83403 10016 20007 39842 40103 53007 60032 78082 889// 333 10058 4////;",
"01442099999","2010-04-03T03:00:00","4","58.6666666","7.8","211.0","BYGLANDSFJORD, NO","FM-12","99999","V020","350,1,N,0030,1","00120,1,9,N","005000,1,N,1","+0004,1","+0001,1","10130,1",,,,"8,1,03,1","2,1,03,1",,"08,99,1,08,1,06,1,00150,1,99,9,99,9",,,"99999,9,09868,1","3,1,007,1,+999,9",,"85,1","SYN082AAXX  03031 01442 41250 83503 10004 20001 39868 40130 53007 78582 886// 333 4////;",
"01442099999","2010-04-03T06:00:00","4","58.6666666","7.8","211.0","BYGLANDSFJORD, NO","FM-12","99999","V020","330,1,N,0030,1","00210,1,9,N","070000,1,N,1","+0011,1","+0005,1","10136,1","12,0020,9,1","24,0041,9,1","9999,2,9,999999,9,9","8,1,06,1","2,1,06,1",,"08,99,1,08,1,06,1,00250,1,99,9,99,9","25,9","999,N,+0004,1","99999,9,09875,1","2,1,006,1,+999,9",,"02,1","SYN100AAXX  03061 01442 11388 83303 10011 20005 39875 40136 52006 60022 70282 886// 333 20004 41998 70041;","Q01  09982SNDP  "
"01442099999","2010-04-03T09:00:00","4","58.6666666","7.8","211.0","BYGLANDSFJORD, NO","FM-12","99999","V020","350,1,N,0050,1","22000,1,9,N","070000,1,N,1","+0045,1","+0012,1","10140,1",,,,"2,1,03,1","2,1,03,1",,"04,99,1,04,1,02,1,00800,1,00,1,01,1",,,"99999,9,09882,1","2,1,007,1,+999,9",,"01,1","SYN082AAXX  03091 01442 41588 43505 10045 20012 39882 40140 52007 70122 84201 333 4////;",
"01442099999","2010-04-03T12:00:00","4","58.6666666","7.8","211.0","BYGLANDSFJORD, NO","FM-12","99999","V020","140,1,N,0100,1","07500,1,9,N","070000,1,N,1","+0053,1","+0003,1","10143,1",,,,"2,1,06,1","1,1,06,1",,"07,99,1,01,1,02,1,01250,1,00,1,06,1",,,"99999,9,09885,1","2,1,003,1,+999,9",,"03,1","SYN088AAXX  03121 01442 11688 71410 10053 20003 39885 40143 52003 6//// 70321 81206 333 4////;",
"01442099999","2010-04-03T15:00:00","4","58.6666666","7.8","211.0","BYGLANDSFJORD, NO","FM-12","99999","V020","150,1,N,0100,1","03000,1,9,N","070000,1,N,1","+0075,1","+0005,1","10136,1",,,,"2,1,03,1","2,1,03,1",,"06,99,1,03,1,02,1,00800,1,06,1,08,1",,,"99999,9,09881,1","7,1,004,1,+999,9",,"01,1","SYN082AAXX  03151 01442 41588 61510 10075 20005 39881 40136 57004 70122 83268 333 4////;",
"01442099999","2010-04-03T18:00:00","4","58.6666666","7.8","211.0","BYGLANDSFJORD, NO","FM-12","99999","V020","060,1,N,0070,1","22000,1,9,N","075000,1,N,1","+0056,1","-0022,1","10138,1","12,0000,9,1",,,"2,1,06,1","1,1,06,1",,"02,99,1,00,1,00,1,99999,9,00,1,02,1",,"120,M,+0080,1","99999,9,09881,1","5,1,000,1,+999,9",,"01,1","SYN094AAXX  03181 01442 11989 20607 10056 21022 39881 40138 55000 60002 70121 80002 333 10080 4////;","Q01  00002PRCP12"
"01442099999","2010-04-04T03:00:00","4","58.6666666","7.8","211.0","BYGLANDSFJORD, NO","FM-12","99999","V020","350,1,N,0050,1","03000,1,9,N","075000,1,N,1","+0034,1","-0011,1","10132,1",,,,"1,1,03,1","1,1,03,1",,"05,99,1,01,1,01,1,01250,1,03,1,00,1",,,"99999,9,09872,1","6,1,007,1,+999,9",,"03,1","SYN082AAXX  04031 01442 41689 53505 10034 21011 39872 40132 56007 70311 81130 333 4////;",
"01442099999","2010-04-04T06:00:00","4","58.6666666","7.8","211.0","BYGLANDSFJORD, NO","FM-12","99999","V020","340,1,N,0070,1","00750,1,9,N","070000,1,N,1","+0029,1","-0009,1","10132,1","12,0003,9,1","24,0003,9,1","9999,2,9,999999,9,9","6,1,06,1","2,1,06,1",,"08,99,1,08,1,05,1,00800,1,99,9,99,9","25,9","999,N,+0024,1","99999,9,09872,1","4,1,000,1,+999,9",,"21,1","SYN100AAXX  04061 01442 11588 83407 10029 21009 39872 40132 54000 69932 72162 885// 333 20024 41998 70003;","Q01  09982SNDP  "
"01442099999","2010-04-04T09:00:00","4","58.6666666","7.8","211.0","BYGLANDSFJORD, NO","FM-12","99999","V020","030,1,N,0070,1","01200,1,9,N","070000,1,N,1","+0038,1","-0008,1","10136,1",,,,"7,1,03,1","2,1,03,1",,"07,99,1,07,1,08,1,00800,1,00,1,00,1",,,"99999,9,09877,1","2,1,004,1,+999,9",,"23,1","SYN082AAXX  04091 01442 41588 70307 10038 21008 39877 40136 52004 72372 87800 333 4////;",
"01442099999","2010-04-04T12:00:00","4","58.6666666","7.8","211.0","BYGLANDSFJORD, NO","FM-12","99999","V020","320,1,N,0050,1","07500,1,9,N","070000,1,N,1","+0054,1","-0017,1","10130,1",,,,"7,1,06,1","2,1,06,1",,"07,99,1,03,1,02,1,00800,1,00,1,08,1",,,"99999,9,09872,1","8,1,004,1,+999,9",,"01,1","SYN088AAXX  04121 01442 11588 73205 10054 21017 39872 40130 58004 6//// 70172 83208 333 4////;",
"01442099999","2010-04-04T15:00:00","4","58.6666666","7.8","211.0","BYGLANDSFJORD, NO","FM-12","99999","V020","150,1,N,0070,1","03000,1,9,N","075000,1,N,1","+0065,1","-0042,1","10126,1",,,,"2,1,03,1","2,1,03,1",,"08,99,1,01,1,01,1,01250,1,07,1,99,9",,,"99999,9,09870,1","8,1,003,1,+999,9",,"03,1","SYN082AAXX  04151 01442 41689 81507 10065 21042 39870 40126 58003 70322 8117/ 333 4////;",
"01442099999","2010-04-04T18:00:00","4","58.6666666","7.8","211.0","BYGLANDSFJORD, NO","FM-12","99999","V020","150,1,N,0030,1","01500,1,9,N","075000,1,N,1","+0056,1","-0037,1","10127,1","12,0005,9,1",,,"2,1,06,1","2,1,06,1",,"08,99,1,08,1,00,1,01750,1,02,1,99,9",,"120,M,+0065,1","99999,9,09870,1","5,1,001,1,+999,9",,"03,1","SYN094AAXX  04181 01442 11789 81503 10056 21037 39870 40127 55001 69942 70322 8802/ 333 10065 4////;",
"01442099999","2010-04-05T03:00:00","4","58.6666666","7.8","211.0","BYGLANDSFJORD, NO","FM-12","99999","V020","350,1,N,0030,1","00420,1,9,N","020000,1,N,1","+0024,1","+0008,1","10146,1",,,,"6,1,03,1","2,1,03,1",,"08,99,1,08,1,06,1,00450,1,99,9,99,9",,,"99999,9,09886,1","2,1,008,1,+999,9",,"60,1","SYN082AAXX  05031 01442 41470 83503 10024 20008 39886 40146 52008 76062 886// 333 4////;",
"01442099999","2010-04-05T06:00:00","4","58.6666666","7.8","211.0","BYGLANDSFJORD, NO","FM-12","99999","V020","340,1,N,0030,1","00420,1,9,N","020000,1,N,1","+0018,1","+0011,1","10159,1","12,0030,9,1","24,0030,9,1",,"6,1,06,1","2,1,06,1",,"08,99,1,08,1,07,1,00450,1,99,9,99,9",,"999,N,+0018,1","99999,9,09897,1","3,1,012,1,+999,9",,"61,1","SYN100AAXX  05061 01442 11470 83403 10018 20011 39897 40159 53012 60032 76162 887// 333 20018 4//// 70031;",
"01442099999","2010-04-05T09:00:00","4","58.6666666","7.8","211.0","BYGLANDSFJORD, NO","FM-12","99999","V020","350,1,N,0030,1","00420,1,9,N","060000,1,N,1","+0023,1","+0014,1","10178,1",,,,"6,1,03,1","6,1,03,1",,"08,99,1,08,1,05,1,00450,1,99,9,99,9",,,"99999,9,09917,1","1,1,019,1,+999,9",,"61,1","SYN082AAXX  05091 01442 41486 83503 10023 20014 39917 40178 51019 76166 885// 333 4////;",
"01442099999","2010-04-05T12:00:00","4","58.6666666","7.8","211.0","BYGLANDSFJORD, NO","FM-12","99999","V020","340,1,N,0030,1","00750,1,9,N","075000,1,N,1","+0041,1","+0008,1","10192,1",,,,"6,1,06,1","2,1,06,1",,"08,99,1,08,1,05,1,00800,1,99,9,99,9",,,"99999,9,09932,1","2,1,015,1,+999,9",,"02,1","SYN088AAXX  05121 01442 11589 83403 10041 20008 39932 40192 52015 6//// 70262 885// 333 4////;",
"01442099999","2010-04-05T15:00:00","4","58.6666666","7.8","211.0","BYGLANDSFJORD, NO","FM-12","99999","V020","150,1,N,0030,1","00750,1,9,N","075000,1,N,1","+0040,1","+0002,1","10202,1",,,,"2,1,03,1","2,1,03,1",,"08,99,1,08,1,05,1,00800,1,99,9,99,9",,,"99999,9,09942,1","2,1,010,1,+999,9",,"02,1","SYN082AAXX  05151 01442 41589 81503 10040 20002 39942 40202 52010 70222 885// 333 4////;",
"01442099999","2010-04-05T18:00:00","4","58.6666666","7.8","211.0","BYGLANDSFJORD, NO","FM-12","99999","V020","160,1,N,0030,1","00750,1,9,N","075000,1,N,1","+0033,1","+0004,1","10210,1","12,0010,9,1",,,"2,1,06,1","2,1,06,1",,"08,99,1,08,1,05,1,00800,1,99,9,99,9",,"120,M,+0042,1","99999,9,09948,1","2,1,007,1,+999,9",,"02,1","SYN094AAXX  05181 01442 11589 81603 10033 20004 39948 40210 52007 60012 70222 885// 333 10042 4////;",
"01442099999","2010-04-06T03:00:00","4","58.6666666","7.8","211.0","BYGLANDSFJORD, NO","FM-12","99999","V020","999,9,C,0000,1","00120,1,9,N","015000,1,N,1","+0014,1","+0008,1","10220,1",,,,"6,1,03,1","2,1,03,1",,"08,99,1,08,1,06,1,00150,1,99,9,99,9",,,"99999,9,09957,1","7,1,002,1,+999,9",,"60,1","SYN082AAXX  06031 01442 41265 80000 10014 20008 39957 40220 57002 76062 886// 333 4////;",
"01442099999","2010-04-06T06:00:00","4","58.6666666","7.8","211.0","BYGLANDSFJORD, NO","FM-12","99999","V020","330,1,N,0010,1","00060,1,9,N","020000,1,N,1","+0008,1","+0005,1","10222,1","12,0010,9,1","24,0023,9,1",,"6,1,06,1","2,1,06,1",,"08,99,1,08,1,06,1,00075,1,99,9,99,9",,"999,N,+0008,1","99999,9,09958,1","2,1,002,1,+999,9",,"60,1","SYN100AAXX  06061 01442 11170 83301 10008 20005 39958 40222 52002 60012 76062 886// 333 20008 4//// 70023;",
"01442099999","2010-04-06T09:00:00","4","58.6666666","7.8","211.0","BYGLANDSFJORD, NO","FM-12","99999","V020","350,1,N,0030,1","00060,1,9,N","005000,1,N,1","+0019,1","+0016,1","10224,1",,,,"6,1,03,1","5,1,03,1",,"08,99,1,08,1,06,1,00075,1,99,9,99,9",,,"99999,9,09961,1","0,1,001,1,+999,9",,"50,1","SYN082AAXX  06091 01442 41150 83503 10019 20016 39961 40224 50001 75065 886// 333 4////;",
"01442099999","2010-04-06T12:00:00","4","58.6666666","7.8","211.0","BYGLANDSFJORD, NO","FM-12","99999","V020","340,1,N,0030,1","00060,1,9,N","020000,1,N,1","+0026,1","+0022,1","10223,1",,,,"6,1,06,1","5,1,06,1",,"08,99,1,08,1,06,1,00075,1,99,9,99,9",,,"99999,9,09961,1","5,1,000,1,+999,9",,"21,1","SYN088AAXX  06121 01442 11170 83403 10026 20022 39961 40223 55000 6//// 72165 886// 333 4////;",
"01442099999","2010-04-06T15:00:00","4","58.6666666","7.8","211.0","BYGLANDSFJORD, NO","FM-12","99999","V020","340,1,N,0030,1","00210,1,9,N","060000,1,N,1","+0033,1","+0026,1","10218,1",,,,"6,1,03,1","2,1,03,1",,"08,99,1,08,1,05,1,00250,1,99,9,99,9",,,"99999,9,09957,1","7,1,004,1,+999,9",,"02,1","SYN082AAXX  06151 01442 41386 83403 10033 20026 39957 40218 57004 70262 885// 333 4////;",
"01442099999","2010-04-06T18:00:00","4","58.6666666","7.8","211.0","BYGLANDSFJORD, NO","FM-12","99999","V020","999,9,C,0000,1","00210,1,9,N","050000,1,N,1","+0036,1","+0033,1","10217,1","12,0020,9,1",,,"6,1,06,1","2,1,06,1",,"08,99,1,08,1,06,1,00250,1,99,9,99,9",,"120,M,+0036,1","99999,9,09956,1","6,1,001,1,+999,9",,"02,1","SYN094AAXX  06181 01442 11384 80000 10036 20033 39956 40217 56001 60022 70262 886// 333 10036 4////;",
"01442099999","2010-04-07T03:00:00","4","58.6666666","7.8","211.0","BYGLANDSFJORD, NO","FM-12","99999","V020","999,9,C,0000,1","00015,1,9,N","000100,1,N,1","+0019,1","+0018,1","10220,1",,,,"4,1,03,1","2,1,03,1","09,1,+99999,9,99,9","09,99,1,09,1,99,9,99999,9,99,9,99,9",,,"99999,9,09957,1","7,1,006,1,+999,9",,"45,1","SYN076AAXX  07031 01442 41/01 90000 10019 20018 39957 40220 57006 74542 333 4////;",
"01442099999","2010-04-07T06:00:00","4","58.6666666","7.8","211.0","BYGLANDSFJORD, NO","FM-12","99999","V020","340,1,N,0030,1","00015,1,9,N","000100,1,N,1","+0020,1","+0019,1","10217,1","12,0000,9,1","24,0018,9,1",,"4,1,06,1","2,1,06,1","09,1,+99999,9,99,9","09,99,1,09,1,99,9,99999,9,99,9,99,9",,"999,N,+0016,1","99999,9,09955,1","7,1,002,1,+999,9",,"45,1","SYN094AAXX  07061 01442 11/01 93403 10020 20019 39955 40217 57002 60002 74542 333 20016 4//// 70018;","Q01  00002PRCP12"
"01442099999","2010-04-07T09:00:00","4","58.6666666","7.8","211.0","BYGLANDSFJORD, NO","FM-12","99999","V020","340,1,N,0030,1","00210,1,9,N","040000,1,N,1","+0039,1","+0032,1","10220,1",,,,"4,1,03,1","2,1,03,1",,"08,99,1,08,1,06,1,00250,1,99,9,99,9",,,"99999,9,09958,1","3,1,004,1,+999,9",,"28,1","SYN082AAXX  07091 01442 41382 83403 10039 20032 39958 40220 53004 72842 886// 333 4////;",
"01442099999","2010-04-07T12:00:00","4","58.6666666","7.8","211.0","BYGLANDSFJORD, NO","FM-12","99999","V020","340,1,N,0050,1","07500,1,9,N","040000,1,N,1","+0079,1","+0045,1","10211,1",,,,"4,1,06,1","2,1,06,1",,"08,99,1,01,1,01,1,00800,1,00,1,07,1",,,"99999,9,09953,1","7,1,005,1,+999,9",,"03,1","SYN088AAXX  07121 01442 11582 83405 10079 20045 39953 40211 57005 6//// 70342 81107 333 4////;",
"01442099999","2010-04-07T15:00:00","4","58.6666666","7.8","211.0","BYGLANDSFJORD, NO","FM-12","99999","V020","330,1,N,0030,1","00750,1,9,N","040000,1,N,1","+0085,1","+0045,1","10207,1",,,,"2,1,03,1","2,1,03,1",,"08,99,1,08,1,05,1,00800,1,99,9,99,9",,,"99999,9,09951,1","7,1,003,1,+999,9",,"03,1","SYN082AAXX  07151 01442 41582 83303 10085 20045 39951 40207 57003 70322 885// 333 4////;",
"01442099999","2010-04-07T18:00:00","4","58.6666666","7.8","211.0","BYGLANDSFJORD, NO","FM-12","99999","V020","340,1,N,0030,1","03000,1,9,N","040000,1,N,1","+0067,1","+0039,1","10206,1","12,0000,9,1",,,"2,1,06,1","2,1,06,1",,"08,99,1,01,1,01,1,00800,1,02,1,99,9",,"120,M,+0095,1","99999,9,09947,1","5,1,003,1,+999,9",,"02,1","SYN094AAXX  07181 01442 11582 83403 10067 20039 39947 40206 55003 60002 70222 8112/ 333 10095 4////;","Q01  00002PRCP12"
"01442099999","2010-04-08T03:00:00","4","58.6666666","7.8","211.0","BYGLANDSFJORD, NO","FM-12","99999","V020","999,9,C,0000,1","00420,1,9,N","030000,1,N,1","+0030,1","+0023,1","10204,1",,,,"2,1,03,1","2,1,03,1",,"08,99,1,08,1,05,1,00450,1,99,9,99,9",,,"99999,9,09942,1","6,1,007,1,+999,9",,"02,1","SYN082AAXX  08031 01442 41480 80000 10030 20023 39942 40204 56007 70222 885// 333 4////;",
"01442099999","2010-04-08T06:00:00","4","58.6666666","7.8","211.0","BYGLANDSFJORD, NO","FM-12","99999","V020","999,9,C,0000,1","01500,1,9,N","015000,1,N,1","+0029,1","+0023,1","10199,1","12,0000,9,1","24,0000,9,1",,"2,1,06,1","2,1,06,1",,"07,99,1,07,1,00,1,01750,1,07,1,00,1",,"999,N,+0027,1","99999,9,09937,1","7,1,005,1,+999,9",,"01,1","SYN100AAXX  08061 01442 11765 70000 10029 20023 39937 40199 57005 60002 70122 87070 333 20027 4//// 70000;","Q01  00002PRCP24Q02  00002PRCP12"
"01442099999","2010-04-08T09:00:00","4","58.6666666","7.8","211.0","BYGLANDSFJORD, NO","FM-12","99999","V020","340,1,N,0030,1","01500,1,9,N","010000,1,N,1","+0050,1","+0038,1","10198,1",,,,"6,1,03,1","2,1,03,1",,"08,99,1,08,1,00,1,01750,1,07,1,99,9",,,"99999,9,09938,1","2,1,001,1,+999,9",,"60,1","SYN082AAXX  08091 01442 41760 83403 10050 20038 39938 40198 52001 76062 8807/ 333 4////;",
"01442099999","2010-04-08T12:00:00","4","58.6666666","7.8","211.0","BYGLANDSFJORD, NO","FM-12","99999","V020","120,1,N,0030,1","00210,1,9,N","015000,1,N,1","+0057,1","+0047,1","10197,1",,,,"6,1,06,1","2,1,06,1",,"08,99,1,08,1,06,1,00250,1,99,9,99,9",,,"99999,9,09937,1","7,1,001,1,+999,9",,"21,1","SYN088AAXX  08121 01442 11365 81203 10057 20047 39937 40197 57001 6//// 72162 886// 333 4////;",
"01442099999","2010-04-08T15:00:00","4","58.6666666","7.8","211.0","BYGLANDSFJORD, NO","FM-12","99999","V020","350,1,N,0070,1","07500,1,9,N","075000,1,N,1","+0092,1","+0016,1","10192,1",,,,"2,1,03,1","2,1,03,1",,"07,99,1,01,1,01,1,01250,1,00,1,08,1",,,"99999,9,09937,1","5,1,001,1,+999,9",,"01,1","SYN082AAXX  08151 01442 41689 73507 10092 20016 39937 40192 55001 70122 81108 333 4////;",
"01442099999","2010-04-08T18:00:00","4","58.6666666","7.8","211.0","BYGLANDSFJORD, NO","FM-12","99999","V020","330,1,N,0030,1","22000,1,9,N","075000,1,N,1","+0069,1","+0004,1","10201,1","12,0008,9,1",,,"2,1,06,1","1,1,06,1",,"01,99,1,01,1,01,1,01250,1,00,1,02,1",,"120,M,+0095,1","99999,9,09942,1","3,1,006,1,+999,9",,"01,1","SYN094AAXX  08181 01442 11689 13303 10069 20004 39942 40201 53006 69982 70121 81102 333 10095 4////;",
"01442099999","2010-04-09T03:00:00","4","58.6666666","7.8","211.0","BYGLANDSFJORD, NO","FM-12","99999","V020","100,1,N,0030,1","22000,1,9,N","075000,1,N,1","-0011,1","-0015,1","10221,1",,,,"0,1,03,1","0,1,03,1","00,1,+99999,9,99,9","00,99,1,00,1,00,1,99999,9,00,1,00,1",,,"99999,9,09957,1","2,1,004,1,+999,9",,"02,1","SYN076AAXX  09031 01442 41989 01003 11011 21015 39957 40221 52004 70200 333 4////;",
"01442099999","2010-04-09T06:00:00","4","58.6666666","7.8","211.0","BYGLANDSFJORD, NO","FM-12","99999","V020","999,9,C,0000,1","22000,1,9,N","075000,1,N,1","+0002,1","-0006,1","10234,1","12,0000,9,1","24,0008,9,1",,"0,1,06,1","0,1,06,1","00,1,+99999,9,99,9","00,99,1,00,1,00,1,99999,9,00,1,00,1",,"999,N,-0013,1","99999,9,09970,1","1,1,013,1,+999,9",,"02,1","SYN094AAXX  09061 01442 11989 00000 10002 21006 39970 40234 51013 60002 70200 333 21013 4//// 70008;","Q01  00002PRCP12"
"01442099999","2010-04-09T09:00:00","4","58.6666666","7.8","211.0","BYGLANDSFJORD, NO","FM-12","99999","V020","340,1,N,0070,1","22000,1,9,N","075000,1,N,1","+0083,1","-0002,1","10237,1",,,,"0,1,03,1","0,1,03,1","00,1,+99999,9,99,9","00,99,1,00,1,00,1,99999,9,00,1,00,1",,,"99999,9,09980,1","2,1,010,1,+999,9",,"02,1","SYN076AAXX  09091 01442 41989 03407 10083 21002 39980 40237 52010 70200 333 4////;",
"01442099999","2010-04-09T12:00:00","4","58.6666666","7.8","211.0","BYGLANDSFJORD, NO","FM-12","99999","V020","340,1,N,0100,1","22000,1,9,N","075000,1,N,1","+0101,1","-0007,1","10244,1",,,,"0,1,06,1","0,1,06,1","00,1,+99999,9,99,9","00,99,1,00,1,00,1,99999,9,00,1,00,1",,,"99999,9,09987,1","1,1,008,1,+999,9",,"02,1","SYN082AAXX  09121 01442 11989 03410 10101 21007 39987 40244 51008 6//// 70200 333 4////;",
"01442099999","2010-04-09T15:00:00","4","58.6666666","7.8","211.0","BYGLANDSFJORD, NO","FM-12","99999","V020","330,1,N,0070,1","22000,1,9,N","075000,1,N,1","+0104,1","-0007,1","10250,1",,,,"0,1,03,1","0,1,03,1","00,1,+99999,9,99,9","00,99,1,00,1,00,1,99999,9,00,1,00,1",,,"99999,9,09993,1","2,1,007,1,+999,9",,"02,1","SYN076AAXX  09151 01442 41989 03307 10104 21007 39993 40250 52007 70200 333 4////;",
"01442099999","2010-04-09T18:00:00","4","58.6666666","7.8","211.0","BYGLANDSFJORD, NO","FM-12","99999","V020","330,1,N,0050,1","22000,1,9,N","075000,1,N,1","+0072,1","-0017,1","10263,1","12,0000,9,1",,,"0,1,06,1","0,1,06,1","00,1,+99999,9,99,9","00,99,1,00,1,00,1,99999,9,00,1,00,1",,"120,M,+0111,1","99999,9,10003,1","2,1,010,1,+999,9",,"02,1","SYN088AAXX  09181 01442 11989 03305 10072 21017 30003 40263 52010 60002 70200 333 10111 4////;","Q01  00002PRCP12"
"01442099999","2010-04-10T03:00:00","4","58.6666666","7.8","211.0","BYGLANDSFJORD, NO","FM-12","99999","V020","340,1,N,0050,1","22000,1,9,N","075000,1,N,1","+0014,1","-0034,1","10321,1",,,,"0,1,03,1","0,1,03,1","00,1,+99999,9,99,9","00,99,1,00,1,00,1,99999,9,00,1,00,1",,,"99999,9,10055,1","2,1,020,1,+999,9",,"02,1","SYN076AAXX  10031 01442 41989 03405 10014 21034 30055 40321 52020 70200 333 4////;",
"01442099999","2010-04-10T06:00:00","4","58.6666666","7.8","211.0","BYGLANDSFJORD, NO","FM-12","99999","V020","330,1,N,0050,1","22000,1,9,N","075000,1,N,1","+0002,1","-0033,1","10341,1","12,0000,9,1","24,0000,9,1",,"0,1,06,1","0,1,06,1","00,1,+99999,9,99,9","00,99,1,00,1,00,1,99999,9,00,1,00,1",,"999,N,+0002,1","99999,9,10073,1","3,1,019,1,+999,9",,"02,1","SYN094AAXX  10061 01442 11989 03305 10002 21033 30073 40341 53019 60002 70200 333 20002 4//// 70000;","Q01  00002PRCP24Q02  00002PRCP12"
"01442099999","2010-04-10T09:00:00","4","58.6666666","7.8","211.0","BYGLANDSFJORD, NO","FM-12","99999","V020","340,1,N,0050,1","22000,1,9,N","075000,1,N,1","+0056,1","-0032,1","10342,1",,,,"0,1,03,1","0,1,03,1","00,1,+99999,9,99,9","00,99,1,00,1,00,1,99999,9,00,1,00,1",,,"99999,9,10080,1","1,1,006,1,+999,9",,"02,1","SYN076AAXX  10091 01442 41989 03405 10056 21032 30080 40342 51006 70200 333 4////;",
"01442099999","2010-04-10T12:00:00","4","58.6666666","7.8","211.0","BYGLANDSFJORD, NO","FM-12","99999","V020","350,1,N,0050,1","22000,1,9,N","075000,1,N,1","+0108,1","-0048,1","10335,1",,,,"0,1,06,1","0,1,06,1","00,1,+99999,9,99,9","00,99,1,00,1,00,1,99999,9,00,1,00,1",,,"99999,9,10077,1","7,1,002,1,+999,9",,"02,1","SYN082AAXX  10121 01442 11989 03505 10108 21048 30077 40335 57002 6//// 70200 333 4////;",
"01442099999","2010-04-10T15:00:00","4","58.6666666","7.8","211.0","BYGLANDSFJORD, NO","FM-12","99999","V020","350,1,N,0050,1","22000,1,9,N","075000,1,N,1","+0113,1","-0047,1","10327,1",,,,"0,1,03,1","0,1,03,1","00,1,+99999,9,99,9","00,99,1,00,1,00,1,99999,9,00,1,00,1",,,"99999,9,10070,1","7,1,008,1,+999,9",,"02,1","SYN076AAXX  10151 01442 41989 03505 10113 21047 30070 40327 57008 70200 333 4////;",
"01442099999","2010-04-10T18:00:00","4","58.6666666","7.8","211.0","BYGLANDSFJORD, NO","FM-12","99999","V020","320,1,N,0030,1","22000,1,9,N","075000,1,N,1","+0077,1","-0026,1","10332,1","12,0000,9,1",,,"0,1,06,1","0,1,06,1",,"02,99,1,02,1,00,1,02250,1,03,1,01,1",,"120,M,+0119,1","99999,9,10072,1","2,1,001,1,+999,9",,"03,1","SYN094AAXX  10181 01442 11889 23203 10077 21026 30072 40332 52001 60002 70300 82031 333 10119 4////;","Q01  00002PRCP12"
"01442099999","2010-04-11T03:00:00","4","58.6666666","7.8","211.0","BYGLANDSFJORD, NO","FM-12","99999","V020","340,1,N,0030,1","22000,1,9,N","075000,1,N,1","+0002,1","-0037,1","10370,1",,,,"0,1,03,1","0,1,03,1","00,1,+99999,9,99,9","00,99,1,00,1,00,1,99999,9,00,1,00,1",,,"99999,9,10102,1","3,1,002,1,+999,9",,"02,1","SYN076AAXX  11031 01442 41989 03403 10002 21037 30102 40370 53002 70200 333 4////;",
"01442099999","2010-04-11T06:00:00","4","58.6666666","7.8","211.0","BYGLANDSFJORD, NO","FM-12","99999","V020","340,1,N,0050,1","22000,1,9,N","075000,1,N,1","-0005,1","-0035,1","10380,1","12,0000,9,1","24,0000,9,1",,"0,1,06,1","0,1,06,1",,"01,99,1,00,1,00,1,99999,9,00,1,01,1",,"999,N,-0005,1","99999,9,10112,1","1,1,009,1,+999,9",,"02,1","SYN100AAXX  11061 01442 11989 13405 11005 21035 30112 40380 51009 60002 70200 80001 333 21005 4//// 70000;","Q01  00002PRCP24Q02  00002PRCP12"
"01442099999","2010-04-11T09:00:00","4","58.6666666","7.8","211.0","BYGLANDSFJORD, NO","FM-12","99999","V020","340,1,N,0050,1","22000,1,9,N","075000,1,N,1","+0041,1","-0032,1","10375,1",,,,"0,1,03,1","0,1,03,1",,"01,99,1,00,1,00,1,99999,9,00,1,01,1",,,"99999,9,10110,1","8,1,002,1,+999,9",,"02,1","SYN082AAXX  11091 01442 41989 13405 10041 21032 30110 40375 58002 70200 80001 333 4////;",
"01442099999","2010-04-11T12:00:00","4","58.6666666","7.8","211.0","BYGLANDSFJORD, NO","FM-12","99999","V020","340,1,N,0050,1","22000,1,9,N","075000,1,N,1","+0115,1","-0019,1","10355,1",,,,"0,1,06,1","0,1,06,1",,"01,99,1,00,1,00,1,99999,9,00,1,01,1",,,"99999,9,10097,1","8,1,012,1,+999,9",,"02,1","SYN088AAXX  11121 01442 11989 13405 10115 21019 30097 40355 58012 6//// 70200 80001 333 4////;",
"01442099999","2010-04-11T15:00:00","4","58.6666666","7.8","211.0","BYGLANDSFJORD, NO","FM-12","99999","V020","330,1,N,0030,1","22000,1,9,N","075000,1,N,1","+0125,1","-0021,1","10341,1",,,,"0,1,03,1","0,1,03,1","00,1,+99999,9,99,9","00,99,1,00,1,00,1,99999,9,00,1,00,1",,,"99999,9,10085,1","8,1,013,1,+999,9",,"02,1","SYN076AAXX  11151 01442 41989 03303 10125 21021 30085 40341 58013 70200 333 4////;",
"01442099999","2010-04-11T18:00:00","4","58.6666666","7.8","211.0","BYGLANDSFJORD, NO","FM-12","99999","V020","999,9,C,0000,1","22000,1,9,N","075000,1,N,1","+0089,1","-0012,1","10336,1","12,0000,9,1",,,"0,1,06,1","0,1,06,1",,"01,99,1,00,1,00,1,99999,9,00,1,01,1",,"120,M,+0129,1","99999,9,10077,1","6,1,008,1,+999,9",,"02,1","SYN094AAXX  11181 01442 11989 10000 10089 21012 30077 40336 56008 60002 70200 80001 333 10129 4////;","Q01  00002PRCP12"
"01442099999","2010-04-12T03:00:00","4","58.6666666","7.8","211.0","BYGLANDSFJORD, NO","FM-12","99999","V020","340,1,N,0030,1","22000,1,9,N","075000,1,N,1","-0003,1","-0028,1","10337,1",,,,"0,1,03,1","0,1,03,1","00,1,+99999,9,99,9","00,99,1,00,1,00,1,99999,9,00,1,00,1",,,"99999,9,10070,1","7,1,008,1,+999,9",,"02,1","SYN076AAXX  12031 01442 41989 03403 11003 21028 30070 40337 57008 70200 333 4////;",
"01442099999","2010-04-12T06:00:00","4","58.6666666","7.8","211.0","BYGLANDSFJORD, NO","FM-12","99999","V020","340,1,N,0050,1","22000,1,9,N","075000,1,N,1","-0002,1","-0033,1","10330,1","12,0000,9,1","24,0000,9,1",,"0,1,06,1","0,1,06,1","00,1,+99999,9,99,9","00,99,1,00,1,00,1,99999,9,00,1,00,1",,"999,N,-0003,1","99999,9,10063,1","7,1,006,1,+999,9",,"02,1","SYN094AAXX  12061 01442 11989 03405 11002 21033 30063 40330 57006 60002 70200 333 21003 4//// 70000;","Q01  00002PRCP24Q02  00002PRCP12"
"01442099999","2010-04-12T09:00:00","4","58.6666666","7.8","211.0","BYGLANDSFJORD, NO","FM-12","99999","V020","330,1,N,0050,1","22000,1,9,N","075000,1,N,1","+0045,1","-0037,1","10311,1",,,,"0,1,03,1","0,1,03,1","00,1,+99999,9,99,9","00,99,1,00,1,00,1,99999,9,00,1,00,1",,,"99999,9,10047,1","7,1,016,1,+999,9",,"02,1","SYN076AAXX  12091 01442 41989 03305 10045 21037 30047 40311 57016 70200 333 4////;",
"01442099999","2010-04-12T12:00:00","4","58.6666666","7.8","211.0","BYGLANDSFJORD, NO","FM-12","99999","V020","340,1,N,0050,1","22000,1,9,N","075000,1,N,1","+0114,1","-0035,1","10279,1",,,,"0,1,06,1","0,1,06,1","00,1,+99999,9,99,9","00,99,1,00,1,00,1,99999,9,00,1,00,1",,,"99999,9,10023,1","7,1,024,1,+999,9",,"02,1","SYN082AAXX  12121 01442 11989 03405 10114 21035 30023 40279 57024 6//// 70200 333 4////;",
"01442099999","2010-04-12T15:00:00","4","58.6666666","7.8","211.0","BYGLANDSFJORD, NO","FM-12","99999","V020","340,1,N,0050,1","22000,1,9,N","075000,1,N,1","+0138,1","-0058,1","10258,1",,,,"0,1,03,1","0,1,03,1",,"01,99,1,00,1,00,1,99999,9,00,1,01,1",,,"99999,9,10005,1","7,1,019,1,+999,9",,"02,1","SYN082AAXX  12151 01442 41989 13405 10138 21058 30005 40258 57019 70200 80001 333 4////;",
"01442099999","2010-04-12T18:00:00","4","58.6666666","7.8","211.0","BYGLANDSFJORD, NO","FM-12","99999","V020","350,1,N,0050,1","22000,1,9,N","075000,1,N,1","+0105,1","-0039,1","10245,1","12,0000,9,1",,,"0,1,06,1","0,1,06,1",,"02,99,1,00,1,00,1,99999,9,00,1,02,1",,"120,M,+0149,1","99999,9,09990,1","7,1,015,1,+999,9",,"03,1","SYN094AAXX  12181 01442 11989 23505 10105 21039 39990 40245 57015 60002 70300 80002 333 10149 4////;","Q01  00002PRCP12"
"01442099999","2010-04-13T03:00:00","4","58.6666666","7.8","211.0","BYGLANDSFJORD, NO","FM-12","99999","V020","350,1,N,0050,1","99999,9,9,N","075000,1,N,1","+0041,1","-0013,1","10236,1",,,,"1,1,03,1","0,1,03,1",,"06,99,1,00,1,00,1,99999,9,00,1,06,1",,,"99999,9,09975,1","2,1,001,1,+999,9",,"03,1","SYN082AAXX  13031 01442 41989 63505 10041 21013 39975 40236 52001 70310 80006 333 4////;",
"01442099999","2010-04-13T06:00:00","4","58.6666666","7.8","211.0","BYGLANDSFJORD, NO","FM-12","99999","V020","350,1,N,0050,1","22000,1,9,N","075000,1,N,1","+0039,1","-0012,1","10245,1","12,0000,9,1","24,0000,9,1",,"1,1,06,1","0,1,06,1",,"02,99,1,00,1,00,1,99999,9,00,1,02,1",,"999,N,+0020,1","99999,9,09983,1","3,1,009,1,+999,9",,"01,1","SYN100AAXX  13061 01442 11989 23505 10039 21012 39983 40245 53009 60002 70110 80002 333 20020 4//// 70000;","Q01  00002PRCP24Q02  00002PRCP12"
"01442099999","2010-04-13T09:00:00","4","58.6666666","7.8","211.0","BYGLANDSFJORD, NO","FM-12","99999","V020","020,1,N,0050,1","22000,1,9,N","075000,1,N,1","+0094,1","-0016,1","10247,1",,,,"0,1,03,1","0,1,03,1",,"01,99,1,00,1,00,1,99999,9,00,1,01,1",,,"99999,9,09991,1","1,1,007,1,+999,9",,"02,1","SYN082AAXX  13091 01442 41989 10205 10094 21016 39991 40247 51007 70200 80001 333 4////;",
"01442099999","2010-04-13T12:00:00","4","58.6666666","7.8","211.0","BYGLANDSFJORD, NO","FM-12","99999","V020","330,1,N,0070,1","22000,1,9,N","075000,1,N,1","+0121,1","-0029,1","99999,9",,,,"0,1,06,1","0,1,06,1","00,1,+99999,9,99,9","00,99,1,00,1,00,1,99999,9,00,1,00,1",,,,"7,1,005,1,+999,9",,"02,1","SYN082AAXX  13121 01442 11989 03307 10121 21029 39896 40148 57005 6//// 70200 333 4////;","Q01+098963APOSP "
"01442099999","2010-04-13T15:00:00","4","58.6666666","7.8","211.0","BYGLANDSFJORD, NO","FM-12","99999","V020","340,1,N,0050,1","22000,1,9,N","075000,1,N,1","+0131,1","-0054,1","10235,1",,,,"0,1,03,1","0,1,03,1","00,1,+99999,9,99,9","00,99,1,00,1,00,1,99999,9,00,1,00,1",,,"99999,9,09982,1","8,1,004,1,+999,9",,"02,1","SYN076AAXX  13151 01442 41989 03405 10131 21054 39982 40235 58004 70200 333 4////;",
"01442099999","2010-04-13T18:00:00","4","58.6666666","7.8","211.0","BYGLANDSFJORD, NO","FM-12","99999","V020","030,1,N,0030,1","22000,1,9,N","075000,1,N,1","+0110,1","-0063,1","10235,1","12,0000,9,1",,,"0,1,06,1","0,1,06,1","00,1,+99999,9,99,9","00,99,1,00,1,00,1,99999,9,00,1,00,1",,"120,M,+0135,1","99999,9,09980,1","5,1,002,1,+999,9",,"02,1","SYN088AAXX  13181 01442 11989 00303 10110 21063 39980 40235 55002 60002 70200 333 10135 4////;","Q01  00002PRCP12"
"01442099999","2010-04-14T03:00:00","4","58.6666666","7.8","211.0","BYGLANDSFJORD, NO","FM-12","99999","V020","010,1,N,0030,1","22000,1,9,N","075000,1,N,1","+0007,1","-0032,1","10276,1",,,,"0,1,03,1","0,1,03,1","00,1,+99999,9,99,9","00,99,1,00,1,00,1,99999,9,00,1,00,1",,,"99999,9,10011,1","2,1,004,1,+999,9",,"02,1","SYN076AAXX  14031 01442 41989 00103 10007 21032 30011 40276 52004 70200 333 4////;",
"01442099999","2010-04-14T06:00:00","4","58.6666666","7.8","211.0","BYGLANDSFJORD, NO","FM-12","99999","V020","340,1,N,0030,1","22000,1,9,N","075000,1,N,1","+0005,1","-0032,1","10280,1","12,0000,9,1","24,0000,9,1",,"0,1,06,1","0,1,06,1","00,1,+99999,9,99,9","00,99,1,00,1,00,1,99999,9,00,1,00,1",,"999,N,+0003,1","99999,9,10015,1","2,1,004,1,+999,9",,"02,1","SYN094AAXX  14061 01442 11989 03403 10005 21032 30015 40280 52004 60002 70200 333 20003 4//// 70000;","Q01  00002PRCP24Q02  00002PRCP12"
"01442099999","2010-04-14T09:00:00","4","58.6666666","7.8","211.0","BYGLANDSFJORD, NO","FM-12","99999","V020","340,1,N,0050,1","22000,1,9,N","075000,1,N,1","+0054,1","-0029,1","10267,1",,,,"0,1,03,1","0,1,03,1",,"01,99,1,00,1,00,1,99999,9,00,1,01,1",,,"99999,9,10006,1","8,1,009,1,+999,9",,"02,1","SYN082AAXX  14091 01442 41989 13405 10054 21029 30006 40267 58009 70200 80001 333 4////;",
"01442099999","2010-04-14T12:00:00","4","58.6666666","7.8","211.0","BYGLANDSFJORD, NO","FM-12","99999","V020","350,1,N,0050,1","22000,1,9,N","075000,1,N,1","+0125,1","-0037,1","10242,1",,,,"0,1,06,1","0,1,06,1",,"01,99,1,00,1,00,1,99999,9,00,1,01,1",,,"99999,9,09987,1","7,1,018,1,+999,9",,"02,1","SYN088AAXX  14121 01442 11989 13505 10125 21037 39987 40242 57018 6//// 70200 80001 333 4////;",
"01442099999","2010-04-14T15:00:00","4","58.6666666","7.8","211.0","BYGLANDSFJORD, NO","FM-12","99999","V020","020,1,N,0030,1","22000,1,9,N","075000,1,N,1","+0136,1","-0050,1","10226,1",,,,"0,1,03,1","0,1,03,1",,"02,99,1,00,1,00,1,99999,9,00,1,01,1",,,"99999,9,09973,1","7,1,014,1,+999,9",,"02,1","SYN082AAXX  14151 01442 41989 20203 10136 21050 39973 40226 57014 70200 80001 333 4////;",
"01442099999","2010-04-14T18:00:00","4","58.6666666","7.8","211.0","BYGLANDSFJORD, NO","FM-12","99999","V020","340,1,N,0030,1","22000,1,9,N","075000,1,N,1","+0106,1","-0031,1","10217,1","12,0000,9,1",,,"0,1,06,1","0,1,06,1",,"01,99,1,00,1,00,1,99999,9,00,1,01,1",,"120,M,+0142,1","99999,9,09962,1","6,1,012,1,+999,9",,"02,1","SYN094AAXX  14181 01442 11989 13403 10106 21031 39962 40217 56012 60002 70200 80001 333 10142 4////;","Q01  00002PRCP12"
"01442099999","2010-04-15T03:00:00","4","58.6666666","7.8","211.0","BYGLANDSFJORD, NO","FM-12","99999","V020","340,1,N,0050,1","02100,1,9,N","075000,1,N,1","+0012,1","-0012,1","10195,1",,,,"1,1,03,1","1,1,03,1",,"07,99,1,06,1,00,1,02250,1,03,1,01,1",,,"99999,9,09932,1","7,1,019,1,+999,9",,"03,1","SYN082AAXX  15031 01442 41889 73405 10012 21012 39932 40195 57019 70311 86031 333 4////;",
"01442099999","2010-04-15T06:00:00","4","58.6666666","7.8","211.0","BYGLANDSFJORD, NO","FM-12","99999","V020","010,1,N,0030,1","01500,1,9,N","075000,1,N,1","+0008,1","-0011,1","10182,1","12,0000,9,1","24,0000,9,1",,"2,1,06,1","1,1,06,1",,"08,99,1,08,1,00,1,01750,1,07,1,99,9",,"999,N,-0006,1","99999,9,09920,1","6,1,013,1,+999,9",,"03,1","SYN100AAXX  15061 01442 11789 80103 10008 21011 39920 40182 56013 60002 70321 8807/ 333 21006 4//// 70000;","Q01  00002PRCP24Q02  00002PRCP12"
"01442099999","2010-04-15T09:00:00","4","58.6666666","7.8","211.0","BYGLANDSFJORD, NO","FM-12","99999","V020","100,1,N,0030,1","22000,1,9,N","075000,1,N,1","+0060,1","-0007,1","10162,1",,,,"1,1,03,1","1,1,03,1",,"01,99,1,01,1,00,1,99999,9,04,1,01,1",,,"99999,9,09905,1","7,1,015,1,+999,9",,"01,1","SYN082AAXX  15091 01442 41989 11003 10060 21007 39905 40162 57015 70111 81041 333 4////;",
"01442099999","2010-04-15T12:00:00","4","58.6666666","7.8","211.0","BYGLANDSFJORD, NO","FM-12","99999","V020","350,1,N,0070,1","22000,1,9,N","075000,1,N,1","+0120,1","-0008,1","10157,1",,,,"1,1,06,1","0,1,06,1","00,1,+99999,9,99,9","00,99,1,00,1,00,1,99999,9,00,1,00,1",,,"99999,9,09905,1","5,1,000,1,+999,9",,"02,1","SYN082AAXX  15121 01442 11989 03507 10120 21008 39905 40157 55000 6//// 70210 333 4////;",
"01442099999","2010-04-15T15:00:00","4","58.6666666","7.8","211.0","BYGLANDSFJORD, NO","FM-12","99999","V020","350,1,N,0070,1","22000,1,9,N","075000,1,N,1","+0097,1","-0005,1","10155,1",,,,"0,1,03,1","0,1,03,1",,"03,99,1,01,1,01,1,01750,1,00,1,02,1",,,"99999,9,09901,1","8,1,004,1,+999,9",,"03,1","SYN082AAXX  15151 01442 41789 33507 10097 21005 39901 40155 58004 70300 81102 333 4////;",
"01442099999","2010-04-15T18:00:00","4","58.6666666","7.8","211.0","BYGLANDSFJORD, NO","FM-12","99999","V020","340,1,N,0070,1","03000,1,9,N","075000,1,N,1","+0078,1","-0004,1","10146,1","12,0000,9,1",,,"1,1,06,1","0,1,06,1",,"07,99,1,04,1,02,1,01250,1,06,1,02,1",,"120,M,+0122,1","99999,9,09891,1","7,1,010,1,+999,9",,"03,1","SYN094AAXX  15181 01442 11689 73407 10078 21004 39891 40146 57010 60002 70310 84262 333 10122 4////;","Q01  00002PRCP12"
"01442099999","2010-04-16T03:00:00","4","58.6666666","7.8","211.0","BYGLANDSFJORD, NO","FM-12","99999","V020","330,1,N,0070,1","22000,1,9,N","075000,1,N,1","+0038,1","-0051,1","10150,1",,,,"0,1,03,1","0,1,03,1","00,1,+99999,9,99,9","00,99,1,00,1,00,1,99999,9,00,1,00,1",,,"99999,9,09891,1","3,1,006,1,+999,9",,"02,1","SYN076AAXX  16031 01442 41989 03307 10038 21051 39891 40150 53006 70200 333 4////;",
"01442099999","2010-04-16T06:00:00","4","58.6666666","7.8","211.0","BYGLANDSFJORD, NO","FM-12","99999","V020","350,1,N,0050,1","22000,1,9,N","075000,1,N,1","+0035,1","-0056,1","10170,1","12,0000,9,1","24,0000,9,1",,"0,1,06,1","0,1,06,1","00,1,+99999,9,99,9","00,99,1,00,1,00,1,99999,9,00,1,00,1",,"999,N,+0032,1","99999,9,09910,1","3,1,019,1,+999,9",,"02,1","SYN094AAXX  16061 01442 11989 03505 10035 21056 39910 40170 53019 60002 70200 333 20032 4//// 70000;","Q01  00002PRCP24Q02  00002PRCP12"
"01442099999","2010-04-16T09:00:00","4","58.6666666","7.8","211.0","BYGLANDSFJORD, NO","FM-12","99999","V020","330,1,N,0100,1","22000,1,9,N","075000,1,N,1","+0067,1","-0059,1","10180,1",,,,"0,1,03,1","0,1,03,1","00,1,+99999,9,99,9","00,99,1,00,1,00,1,99999,9,00,1,00,1",,,"99999,9,09922,1","2,1,013,1,+999,9",,"02,1","SYN076AAXX  16091 01442 41989 03310 10067 21059 39922 40180 52013 70200 333 4////;",
"01442099999","2010-04-16T12:00:00","4","58.6666666","7.8","211.0","BYGLANDSFJORD, NO","FM-12","99999","V020","340,1,N,0100,1","22000,1,9,N","075000,1,N,1","+0077,1","-0060,1","10186,1",,,,"0,1,06,1","0,1,06,1",,"01,99,1,01,1,01,1,01750,1,00,1,01,1",,,"99999,9,09930,1","1,1,007,1,+999,9",,"03,1","SYN088AAXX  16121 01442 11789 13410 10077 21060 39930 40186 51007 6//// 70300 81101 333 4////;",
"01442099999","2010-04-16T15:00:00","4","58.6666666","7.8","211.0","BYGLANDSFJORD, NO","FM-12","99999","V020","310,1,N,0070,1","22000,1,9,N","075000,1,N,1","+0092,1","-0043,1","10174,1",,,,"0,1,03,1","0,1,03,1",,"02,99,1,00,1,00,1,99999,9,00,1,02,1",,,"99999,9,09918,1","8,1,011,1,+999,9",,"03,1","SYN082AAXX  16151 01442 41989 23107 10092 21043 39918 40174 58011 70300 80002 333 4////;",
"01442099999","2010-04-16T18:00:00","4","58.6666666","7.8","211.0","BYGLANDSFJORD, NO","FM-12","99999","V020","310,1,N,0050,1","03000,1,9,N","075000,1,N,1","+0069,1","-0036,1","10169,1","12,0000,9,1",,,"1,1,06,1","0,1,06,1",,"06,99,1,01,1,01,1,01250,1,04,1,09,1",,"120,M,+0092,1","99999,9,09912,1","8,1,007,1,+999,9",,"03,1","SYN094AAXX  16181 01442 11689 63105 10069 21036 39912 40169 58007 60002 70310 81149 333 10092 4////;","Q01  00002PRCP12"
"01442099999","2010-04-17T03:00:00","4","58.6666666","7.8","211.0","BYGLANDSFJORD, NO","FM-12","99999","V020","120,1,N,0030,1","01500,1,9,N","075000,1,N,1","+0071,1","+0010,1","10087,1",,,,"2,1,03,1","2,1,03,1",,"07,99,1,07,1,00,1,01750,1,07,1,00,1",,,"99999,9,09832,1","8,1,025,1,+999,9",,"02,1","SYN082AAXX  17031 01442 41789 71203 10071 20010 39832 40087 58025 70222 87070 333 4////;",
"01442099999","2010-04-17T06:00:00","4","58.6666666","7.8","211.0","BYGLANDSFJORD, NO","FM-12","99999","V020","330,1,N,0050,1","01500,1,9,N","075000,1,N,1","+0072,1","+0011,1","10070,1","12,0000,9,1","24,0000,9,1",,"2,1,06,1","2,1,06,1",,"07,99,1,07,1,08,1,01250,1,00,1,01,1",,"999,N,+0044,1","99999,9,09816,1","6,1,018,1,+999,9",,"03,1","SYN100AAXX  17061 01442 11689 73305 10072 20011 39816 40070 56018 60002 70322 87801 333 20044 4//// 70000;","Q01  00002PRCP24Q02  00002PRCP12"
"01442099999","2010-04-17T09:00:00","4","58.6666666","7.8","211.0","BYGLANDSFJORD, NO","FM-12","99999","V020","330,1,N,0070,1","22000,1,9,N","075000,1,N,1","+0095,1","+0009,1","10059,1",,,,"1,1,03,1","1,1,03,1",,"03,99,1,02,1,02,1,01250,1,06,1,01,1",,,"99999,9,09807,1","7,1,009,1,+999,9",,"01,1","SYN082AAXX  17091 01442 41689 33307 10095 20009 39807 40059 57009 70111 82261 333 4////;",
"01442099999","2010-04-17T12:00:00","4","58.6666666","7.8","211.0","BYGLANDSFJORD, NO","FM-12","99999","V020","340,1,N,0100,1","01200,1,9,N","075000,1,N,1","+0108,1","+0014,1","10047,1",,,,"1,1,06,1","1,1,06,1",,"07,99,1,06,1,02,1,01250,1,06,1,00,1",,,"99999,9,09797,1","7,1,010,1,+999,9",,"03,1","SYN088AAXX  17121 01442 11689 73410 10108 20014 39797 40047 57010 6//// 70311 86260 333 4////;",
"01442099999","2010-04-17T15:00:00","4","58.6666666","7.8","211.0","BYGLANDSFJORD, NO","FM-12","99999","V020","330,1,N,0070,1","01200,1,9,N","075000,1,N,1","+0095,1","+0014,1","10048,1",,,,"2,1,03,1","2,1,03,1",,"07,99,1,06,1,02,1,01250,1,06,1,00,1",,,"99999,9,09797,1","4,1,000,1,+999,9",,"03,1","SYN082AAXX  17151 01442 41689 73307 10095 20014 39797 40048 54000 70322 86260 333 4////;",
"01442099999","2010-04-17T18:00:00","4","58.6666666","7.8","211.0","BYGLANDSFJORD, NO","FM-12","99999","V020","310,1,N,0030,1","03000,1,9,N","075000,1,N,1","+0067,1","+0020,1","10050,1","12,9999,9,9",,,"8,1,06,1","2,1,06,1",,"06,99,1,04,1,02,1,00800,1,06,1,01,1",,"120,M,+0112,1","99999,9,09796,1","8,1,001,1,+999,9",,"25,1","SYN094AAXX  17181 01442 11589 63103 10067 20020 39796 40050 58001 69912 72582 84261 333 10112 4////;","Q01  00002PRCP12Q02  00002PRCP12"
"01442099999","2010-04-18T03:00:00","4","58.6666666","7.8","211.0","BYGLANDSFJORD, NO","FM-12","99999","V020","320,1,N,0030,1","22000,1,9,N","075000,1,N,1","+0015,1","-0024,1","10069,1",,,,"0,1,03,1","0,1,03,1",,"02,99,1,00,1,00,1,99999,9,00,1,01,1",,,"99999,9,09810,1","4,1,000,1,+999,9",,"02,1","SYN082AAXX  18031 01442 41989 23203 10015 21024 39810 40069 54000 70200 80001 333 4////;",
"01442099999","2010-04-18T06:00:00","4","58.6666666","7.8","211.0","BYGLANDSFJORD, NO","FM-12","99999","V020","170,1,N,0030,1","22000,1,9,N","075000,1,N,1","+0012,1","-0033,1","10070,1","12,0000,2,1","24,0000,2,1",,"0,1,06,1","0,1,06,1",,"02,99,1,00,1,00,1,99999,9,00,1,01,1",,"999,N,+0009,1","99999,9,09811,1","5,1,001,1,+999,9",,"02,1","SYN100AAXX  18061 01442 11989 21703 10012 21033 39811 40070 55001 60002 70200 80001 333 20009 4//// 70001;",
"01442099999","2010-04-18T09:00:00","4","58.6666666","7.8","211.0","BYGLANDSFJORD, NO","FM-12","99999","V020","320,1,N,0070,1","22000,1,9,N","075000,1,N,1","+0055,1","-0030,1","10070,1",,,,"0,1,03,1","0,1,03,1",,"02,99,1,02,1,02,1,01250,1,00,1,02,1",,,"99999,9,09815,1","2,1,004,1,+999,9",,"03,1","SYN082AAXX  18091 01442 41689 23207 10055 21030 39815 40070 52004 70300 82202 333 4////;",
"01442099999","2010-04-18T12:00:00","4","58.6666666","7.8","211.0","BYGLANDSFJORD, NO","FM-12","99999","V020","340,1,N,0100,1","22000,1,9,N","075000,1,N,1","+0070,1","-0070,1","10086,1",,,,"0,1,06,1","0,1,06,1",,"01,99,1,01,1,01,1,01750,1,00,1,02,1",,,"99999,9,09831,1","3,1,016,1,+999,9",,"01,1","SYN088AAXX  18121 01442 11789 13410 10070 21070 39831 40086 53016 6//// 70100 81102 333 4////;",
"01442099999","2010-04-18T18:00:00","4","58.6666666","7.8","211.0","BYGLANDSFJORD, NO","FM-12","99999","V020","340,1,N,0070,1","22000,1,9,N","075000,1,N,1","+0036,1","-0050,1","10103,1","12,0000,9,1",,,"0,1,06,1","0,1,06,1",,"02,99,1,01,1,02,1,01250,1,00,1,02,1",,"120,M,+0074,1","99999,9,09845,1","0,1,003,1,+999,9",,"01,1","SYN094AAXX  18181 01442 11689 23407 10036 21050 39845 40103 50003 60002 70100 81202 333 10074 4////;","Q01  00002PRCP12"
"01442099999","2010-04-19T03:00:00","4","58.6666666","7.8","211.0","BYGLANDSFJORD, NO","FM-12","99999","V020","320,1,N,0050,1","22000,1,9,N","075000,1,N,1","-0003,1","-0071,1","10132,1",,,,"0,1,03,1","0,1,03,1","00,1,+99999,9,99,9","00,99,1,00,1,00,1,99999,9,00,1,00,1",,,"99999,9,09871,1","2,1,005,1,+999,9",,"02,1","SYN076AAXX  19031 01442 41989 03205 11003 21071 39871 40132 52005 70200 333 4////;",
"01442099999","2010-04-19T06:00:00","4","58.6666666","7.8","211.0","BYGLANDSFJORD, NO","FM-12","99999","V020","340,1,N,0030,1","22000,1,9,N","075000,1,N,1","-0016,1","-0065,1","10142,1","12,0000,9,1","24,0000,9,1",,"0,1,06,1","0,1,06,1","00,1,+99999,9,99,9","00,99,1,00,1,00,1,99999,9,00,1,00,1",,"999,N,-0021,1","99999,9,09880,1","3,1,009,1,+999,9",,"02,1","SYN094AAXX  19061 01442 11989 03403 11016 21065 39880 40142 53009 60002 70200 333 21021 4//// 70000;","Q01  00002PRCP24Q02  00002PRCP12"
"01442099999","2010-04-19T09:00:00","4","58.6666666","7.8","211.0","BYGLANDSFJORD, NO","FM-12","99999","V020","350,1,N,0050,1","22000,1,9,N","075000,1,N,1","+0041,1","-0096,1","10147,1",,,,"0,1,03,1","0,1,03,1",,"01,99,1,00,1,00,1,99999,9,00,1,01,1",,,"99999,9,09887,1","3,1,008,1,+999,9",,"02,1","SYN082AAXX  19091 01442 41989 13505 10041 21096 39887 40147 53008 70200 80001 333 4////;",
"01442099999","2010-04-19T12:00:00","4","58.6666666","7.8","211.0","BYGLANDSFJORD, NO","FM-12","99999","V020","340,1,N,0050,1","22000,1,9,N","075000,1,N,1","+0071,1","-0097,1","10141,1",,,,"0,1,06,1","0,1,06,1",,"01,99,1,01,1,01,1,01750,1,00,1,00,1",,,"99999,9,09885,1","8,1,003,1,+999,9",,"02,1","SYN088AAXX  19121 01442 11789 13405 10071 21097 39885 40141 58003 6//// 70200 81100 333 4////;",
"01442099999","2010-04-19T15:00:00","4","58.6666666","7.8","211.0","BYGLANDSFJORD, NO","FM-12","99999","V020","340,1,N,0050,1","22000,1,9,N","075000,1,N,1","+0069,1","-0098,1","10139,1",,,,"0,1,03,1","0,1,03,1",,"01,99,1,00,1,00,1,99999,9,00,1,01,1",,,"99999,9,09882,1","7,1,002,1,+999,9",,"01,1","SYN082AAXX  19151 01442 41989 13405 10069 21098 39882 40139 57002 70100 80001 333 4////;",
"01442099999","2010-04-19T18:00:00","4","58.6666666","7.8","211.0","BYGLANDSFJORD, NO","FM-12","99999","V020","340,1,N,0050,1","22000,1,9,N","075000,1,N,1","+0038,1","-0085,1","10136,1","12,0000,9,1",,,"0,1,06,1","0,1,06,1","00,1,+99999,9,99,9","00,99,1,00,1,00,1,99999,9,00,1,00,1",,"120,M,+0076,1","99999,9,09877,1","6,1,006,1,+999,9",,"02,1","SYN088AAXX  19181 01442 11989 03405 10038 21085 39877 40136 56006 60002 70200 333 10076 4////;","Q01  00002PRCP12"
"01442099999","2010-04-20T03:00:00","4","58.6666666","7.8","211.0","BYGLANDSFJORD, NO","FM-12","99999","V020","120,1,N,0010,1","99999,9,9,N","075000,1,N,1","-0037,1","-0051,1","10121,1",,,,"1,1,03,1","0,1,03,1",,"07,99,1,00,1,00,1,99999,9,00,1,06,1",,,"99999,9,09858,1","7,1,012,1,+999,9",,"03,1","SYN082AAXX  20031 01442 41989 71201 11037 21051 39858 40121 57012 70310 80006 333 4////;",
"01442099999","2010-04-20T06:00:00","4","58.6666666","7.8","211.0","BYGLANDSFJORD, NO","FM-12","99999","V020","350,1,N,0030,1","99999,9,9,N","075000,1,N,1","-0013,1","-0050,1","10108,1","12,0000,9,1","24,0000,9,1",,"1,1,06,1","0,1,06,1",,"07,99,1,00,1,00,1,99999,9,00,1,08,1",,"999,N,-0039,1","99999,9,09847,1","7,1,012,1,+999,9",,"02,1","SYN100AAXX  20061 01442 11989 73503 11013 21050 39847 40108 57012 60002 70210 80008 333 21039 4//// 70000;","Q01  00002PRCP24Q02  00002PRCP12"
"01442099999","2010-04-20T09:00:00","4","58.6666666","7.8","211.0","BYGLANDSFJORD, NO","FM-12","99999","V020","350,1,N,0050,1","22000,1,9,N","075000,1,N,1","+0021,1","-0055,1","10094,1",,,,"1,1,03,1","1,1,03,1",,"01,99,1,01,1,01,1,01250,1,00,1,01,1",,,"99999,9,09835,1","8,1,012,1,+999,9",,"01,1","SYN082AAXX  20091 01442 41689 13505 10021 21055 39835 40094 58012 70111 81101 333 4////;",
"01442099999","2010-04-20T12:00:00","4","58.6666666","7.8","211.0","BYGLANDSFJORD, NO","FM-12","99999","V020","170,1,N,0050,1","03000,1,9,N","075000,1,N,1","+0057,1","-0056,1","10077,1",,,,"1,1,06,1","1,1,06,1",,"07,99,1,03,1,02,1,01250,1,06,1,08,1",,,"99999,9,09822,1","6,1,013,1,+999,9",,"03,1","SYN088AAXX  20121 01442 11689 71705 10057 21056 39822 40077 56013 6//// 70311 83268 333 4////;",
"01442099999","2010-04-20T15:00:00","4","58.6666666","7.8","211.0","BYGLANDSFJORD, NO","FM-12","99999","V020","170,1,N,0050,1","03000,1,9,N","075000,1,N,1","+0051,1","-0027,1","10073,1",,,,"2,1,03,1","2,1,03,1",,"07,99,1,04,1,02,1,01250,1,06,1,02,1",,,"99999,9,09817,1","7,1,005,1,+999,9",,"03,1","SYN082AAXX  20151 01442 41689 71705 10051 21027 39817 40073 57005 70322 84262 333 4////;",
"01442099999","2010-04-20T18:00:00","4","58.6666666","7.8","211.0","BYGLANDSFJORD, NO","FM-12","99999","V020","280,1,N,0030,1","00750,1,9,N","075000,1,N,1","+0036,1","-0015,1","10074,1","12,9999,9,9",,,"8,1,06,1","2,1,06,1",,"07,99,1,05,1,02,1,00800,1,06,1,02,1",,"120,M,+0062,1","99999,9,09817,1","5,1,000,1,+999,9",,"26,1","SYN094AAXX  20181 01442 11589 72803 10036 21015 39817 40074 55000 69912 72682 85262 333 10062 4////;","Q01  00002PRCP12Q02  00002PRCP12"
"01442099999","2010-04-21T03:00:00","4","58.6666666","7.8","211.0","BYGLANDSFJORD, NO","FM-12","99999","V020","999,9,C,0000,1","01500,1,9,N","075000,1,N,1","-0019,1","-0021,1","10081,1",,,,"2,1,03,1","2,1,03,1",,"07,99,1,07,1,00,1,01750,1,07,1,00,1",,,"99999,9,09821,1","4,1,000,1,+999,9",,"02,1","SYN082AAXX  21031 01442 41789 70000 11019 21021 39821 40081 54000 70222 87070 333 4////;",
"01442099999","2010-04-21T06:00:00","4","58.6666666","7.8","211.0","BYGLANDSFJORD, NO","FM-12","99999","V020","350,1,N,0050,1","22000,1,9,N","075000,1,N,1","-0010,1","-0024,1","10083,1","12,0000,2,1","24,0000,2,1",,"2,1,06,1","1,1,06,1",,"02,99,1,00,1,00,1,99999,9,00,1,01,1",,"999,N,-0025,1","99999,9,09822,1","3,1,002,1,+999,9",,"01,1","SYN100AAXX  21061 01442 11989 23505 11010 21024 39822 40083 53002 60002 70121 80001 333 21025 4//// 70001;",
"01442099999","2010-04-21T09:00:00","4","58.6666666","7.8","211.0","BYGLANDSFJORD, NO","FM-12","99999","V020","350,1,N,0050,1","22000,1,9,N","075000,1,N,1","+0036,1","-0025,1","10084,1",,,,"0,1,03,1","0,1,03,1",,"01,99,1,01,1,02,1,01750,1,00,1,02,1",,,"99999,9,09826,1","2,1,003,1,+999,9",,"03,1","SYN082AAXX  21091 01442 41789 13505 10036 21025 39826 40084 52003 70300 81202 333 4////;",
"01442099999","2010-04-21T12:00:00","4","58.6666666","7.8","211.0","BYGLANDSFJORD, NO","FM-12","99999","V020","340,1,N,0050,1","22000,1,9,N","075000,1,N,1","+0076,1","-0061,1","10085,1",,,,"0,1,06,1","0,1,06,1",,"03,99,1,02,1,02,1,01750,1,00,1,02,1",,,"99999,9,09831,1","2,1,005,1,+999,9",,"03,1","SYN088AAXX  21121 01442 11789 33405 10076 21061 39831 40085 52005 6//// 70300 82202 333 4////;",
"01442099999","2010-04-21T15:00:00","4","58.6666666","7.8","211.0","BYGLANDSFJORD, NO","FM-12","99999","V020","330,1,N,0050,1","22000,1,9,N","075000,1,N,1","+0089,1","-0073,1","10084,1",,,,"0,1,03,1","0,1,03,1",,"03,99,1,02,1,02,1,01250,1,06,1,00,1",,,"99999,9,09831,1","4,1,000,1,+999,9",,"01,1","SYN082AAXX  21151 01442 41689 33305 10089 21073 39831 40084 54000 70100 82260 333 4////;",
"01442099999","2010-04-21T18:00:00","4","58.6666666","7.8","211.0","BYGLANDSFJORD, NO","FM-12","99999","V020","310,1,N,0030,1","22000,1,9,N","075000,1,N,1","+0060,1","-0041,1","10100,1","12,0000,9,1",,,"0,1,06,1","0,1,06,1",,"01,99,1,01,1,02,1,01250,1,06,1,03,1",,"120,M,+0090,1","99999,9,09843,1","2,1,013,1,+999,9",,"01,1","SYN094AAXX  21181 01442 11689 13103 10060 21041 39843 40100 52013 60002 70100 81263 333 10090 4////;","Q01  00002PRCP12"
"01442099999","2010-04-22T03:00:00","4","58.6666666","7.8","211.0","BYGLANDSFJORD, NO","FM-12","99999","V020","999,9,C,0000,1","22000,1,9,N","075000,1,N,1","-0038,1","-0043,1","10127,1",,,,"0,1,03,1","0,1,03,1","00,1,+99999,9,99,9","00,99,1,00,1,00,1,99999,9,00,1,00,1",,,"99999,9,09865,1","7,1,001,1,+999,9",,"02,1","SYN076AAXX  22031 01442 41989 00000 11038 21043 39865 40127 57001 70200 333 4////;",
"01442099999","2010-04-22T06:00:00","4","58.6666666","7.8","211.0","BYGLANDSFJORD, NO","FM-12","99999","V020","100,1,N,0030,1","22000,1,9,N","075000,1,N,1","-0025,1","-0040,1","10125,1","12,0000,9,1","24,0000,9,1",,"0,1,06,1","0,1,06,1",,"01,99,1,01,1,00,1,99999,9,04,1,00,1",,"999,N,-0038,1","99999,9,09862,1","5,1,002,1,+999,9",,"02,1","SYN100AAXX  22061 01442 11989 11003 11025 21040 39862 40125 55002 60002 70200 81040 333 21038 4//// 70000;","Q01  00002PRCP24Q02  00002PRCP12"
"01442099999","2010-04-22T09:00:00","4","58.6666666","7.8","211.0","BYGLANDSFJORD, NO","FM-12","99999","V020","340,1,N,0050,1","22000,1,9,N","075000,1,N,1","+0049,1","-0049,1","10114,1",,,,"0,1,03,1","0,1,03,1","00,1,+99999,9,99,9","00,99,1,00,1,00,1,99999,9,00,1,00,1",,,"99999,9,09857,1","7,1,006,1,+999,9",,"02,1","SYN076AAXX  22091 01442 41989 03405 10049 21049 39857 40114 57006 70200 333 4////;",
"01442099999","2010-04-22T12:00:00","4","58.6666666","7.8","211.0","BYGLANDSFJORD, NO","FM-12","99999","V020","330,1,N,0070,1","22000,1,9,N","075000,1,N,1","+0080,1","-0072,1","10103,1",,,,"0,1,06,1","0,1,06,1",,"01,99,1,01,1,01,1,01750,1,00,1,00,1",,,"99999,9,09848,1","7,1,008,1,+999,9",,"03,1","SYN088AAXX  22121 01442 11789 13307 10080 21072 39848 40103 57008 6//// 70300 81100 333 4////;",
"01442099999","2010-04-22T15:00:00","4","58.6666666","7.8","211.0","BYGLANDSFJORD, NO","FM-12","99999","V020","340,1,N,0070,1","22000,1,9,N","075000,1,N,1","+0089,1","-0064,1","10092,1",,,,"0,1,03,1","0,1,03,1",,"01,99,1,01,1,01,1,01750,1,00,1,01,1",,,"99999,9,09838,1","8,1,010,1,+999,9",,"02,1","SYN082AAXX  22151 01442 41789 13407 10089 21064 39838 40092 58010 70200 81101 333 4////;",
"01442099999","2010-04-22T18:00:00","4","58.6666666","7.8","211.0","BYGLANDSFJORD, NO","FM-12","99999","V020","310,1,N,0050,1","22000,1,9,N","075000,1,N,1","+0066,1","-0039,1","10089,1","12,0000,9,1",,,"0,1,06,1","0,1,06,1",,"03,99,1,02,1,02,1,01250,1,06,1,01,1",,"120,M,+0092,1","99999,9,09833,1","7,1,005,1,+999,9",,"03,1","SYN094AAXX  22181 01442 11689 33105 10066 21039 39833 40089 57005 60002 70300 82261 333 10092 4////;","Q01  00002PRCP12"
"01442099999","2010-04-23T03:00:00","4","58.6666666","7.8","211.0","BYGLANDSFJORD, NO","FM-12","99999","V020","999,9,C,0000,1","22000,1,9,N","075000,1,N,1","-0010,1","-0019,1","10077,1",,,,"0,1,03,1","0,1,03,1",,"01,99,1,01,1,01,1,01250,1,00,1,00,1",,,"99999,9,09817,1","5,1,003,1,+999,9",,"02,1","SYN082AAXX  23031 01442 41689 10000 11010 21019 39817 40077 55003 70200 81100 333 4////;",
"01442099999","2010-04-23T06:00:00","4","58.6666666","7.8","211.0","BYGLANDSFJORD, NO","FM-12","99999","V020","120,1,N,0030,1","22000,1,9,N","075000,1,N,1","-0003,1","-0025,1","10078,1","12,0000,9,1","24,0000,9,1",,"0,1,06,1","0,1,06,1",,"02,99,1,01,1,01,1,01250,1,00,1,02,1",,"999,N,-0014,1","99999,9,09817,1","2,1,001,1,+999,9",,"03,1","SYN100AAXX  23061 01442 11689 21203 11003 21025 39817 40078 52001 60002 70300 81102 333 21014 4//// 70000;","Q01  00002PRCP24Q02  00002PRCP12"
"01442099999","2010-04-23T09:00:00","4","58.6666666","7.8","211.0","BYGLANDSFJORD, NO","FM-12","99999","V020","330,1,N,0100,1","22000,1,9,N","075000,1,N,1","+0054,1","-0052,1","10080,1",,,,"0,1,03,1","0,1,03,1",,"01,99,1,01,1,02,1,01250,1,06,1,00,1",,,"99999,9,09823,1","3,1,004,1,+999,9",,"01,1","SYN082AAXX  23091 01442 41689 13310 10054 21052 39823 40080 53004 70100 81260 333 4////;",
"01442099999","2010-04-23T12:00:00","4","58.6666666","7.8","211.0","BYGLANDSFJORD, NO","FM-12","99999","V020","340,1,N,0100,1","22000,1,9,N","075000,1,N,1","+0055,1","-0060,1","10085,1",,,,"0,1,06,1","0,1,06,1",,"03,99,1,02,1,02,1,01250,1,06,1,00,1",,,"99999,9,09828,1","1,1,006,1,+999,9",,"03,1","SYN088AAXX  23121 01442 11689 33410 10055 21060 39828 40085 51006 6//// 70300 82260 333 4////;",
"01442099999","2010-04-23T15:00:00","4","58.6666666","7.8","211.0","BYGLANDSFJORD, NO","FM-12","99999","V020","350,1,N,0070,1","22000,1,9,N","075000,1,N,1","+0056,1","-0048,1","10093,1",,,,"8,1,03,1","1,1,03,1",,"03,99,1,02,1,02,1,01250,1,06,1,00,1",,,"99999,9,09837,1","0,1,008,1,+999,9",,"03,1","SYN082AAXX  23151 01442 41689 33507 10056 21048 39837 40093 50008 70381 82260 333 4////;",
"01442099999","2010-04-23T18:00:00","4","58.6666666","7.8","211.0","BYGLANDSFJORD, NO","FM-12","99999","V020","350,1,N,0070,1","22000,1,9,N","075000,1,N,1","+0032,1","-0059,1","10108,1","12,0000,9,1",,,"8,1,06,1","1,1,06,1",,"01,99,1,01,1,01,1,01750,1,00,1,00,1",,"120,M,+0066,1","99999,9,09848,1","2,1,012,1,+999,9",,"01,1","SYN094AAXX  23181 01442 11789 13507 10032 21059 39848 40108 52012 69902 70181 81100 333 10066 4////;","Q01  00002PRCP12"
"01442099999","2010-04-24T03:00:00","4","58.6666666","7.8","211.0","BYGLANDSFJORD, NO","FM-12","99999","V020","340,1,N,0070,1","22000,1,9,N","075000,1,N,1","+0013,1","-0062,1","10163,1",,,,"0,1,03,1","0,1,03,1","00,1,+99999,9,99,9","00,99,1,00,1,00,1,99999,9,00,1,00,1",,,"99999,9,09901,1","2,1,018,1,+999,9",,"02,1","SYN076AAXX  24031 01442 41989 03407 10013 21062 39901 40163 52018 70200 333 4////;",
"01442099999","2010-04-24T06:00:00","4","58.6666666","7.8","211.0","BYGLANDSFJORD, NO","FM-12","99999","V020","340,1,N,0050,1","22000,1,9,N","075000,1,N,1","+0020,1","-0065,1","10176,1","12,0000,9,1","24,0000,9,1",,"0,1,06,1","0,1,06,1","00,1,+99999,9,99,9","00,99,1,00,1,00,1,99999,9,00,1,00,1",,"999,N,-0006,1","99999,9,09915,1","3,1,014,1,+999,9",,"02,1","SYN094AAXX  24061 01442 11989 03405 10020 21065 39915 40176 53014 60002 70200 333 21006 4//// 70000;","Q01  00002PRCP24Q02  00002PRCP12"
"01442099999","2010-04-24T09:00:00","4","58.6666666","7.8","211.0","BYGLANDSFJORD, NO","FM-12","99999","V020","330,1,N,0030,1","22000,1,9,N","075000,1,N,1","+0073,1","-0050,1","10190,1",,,,"0,1,03,1","0,1,03,1","00,1,+99999,9,99,9","00,99,1,00,1,00,1,99999,9,00,1,00,1",,,"99999,9,09932,1","2,1,018,1,+999,9",,"02,1","SYN076AAXX  24091 01442 41989 03303 10073 21050 39932 40190 52018 70200 333 4////;",
"01442099999","2010-04-24T12:00:00","4","58.6666666","7.8","211.0","BYGLANDSFJORD, NO","FM-12","99999","V020","350,1,N,0050,1","22000,1,9,N","075000,1,N,1","+0113,1","-0060,1","10191,1",,,,"0,1,06,1","0,1,06,1",,"01,99,1,01,1,01,1,01750,1,00,1,00,1",,,"99999,9,09937,1","2,1,005,1,+999,9",,"03,1","SYN088AAXX  24121 01442 11789 13505 10113 21060 39937 40191 52005 6//// 70300 81100 333 4////;",
"01442099999","2010-04-24T15:00:00","4","58.6666666","7.8","211.0","BYGLANDSFJORD, NO","FM-12","99999","V020","310,1,N,0050,1","22000,1,9,N","075000,1,N,1","+0128,1","-0057,1","10197,1",,,,"0,1,03,1","0,1,03,1",,"01,99,1,01,1,01,1,01750,1,00,1,00,1",,,"99999,9,09945,1","2,1,007,1,+999,9",,"01,1","SYN082AAXX  24151 01442 41789 13105 10128 21057 39945 40197 52007 70100 81100 333 4////;",
"01442099999","2010-04-24T18:00:00","4","58.6666666","7.8","211.0","BYGLANDSFJORD, NO","FM-12","99999","V020","320,1,N,0030,1","22000,1,9,N","075000,1,N,1","+0098,1","-0049,1","10213,1","12,0000,9,1",,,"0,1,06,1","0,1,06,1",,"01,99,1,01,1,00,1,02250,1,03,1,00,1",,"120,M,+0131,1","99999,9,09957,1","3,1,013,1,+999,9",,"02,1","SYN094AAXX  24181 01442 11889 13203 10098 21049 39957 40213 53013 60002 70200 81030 333 10131 4////;","Q01  00002PRCP12"
"01442099999","2010-04-25T03:00:00","4","58.6666666","7.8","211.0","BYGLANDSFJORD, NO","FM-12","99999","V020","130,1,N,0030,1","01500,1,9,N","075000,1,N,1","+0031,1","-0018,1","10255,1",,,,"2,1,03,1","2,1,03,1",,"08,99,1,08,1,00,1,01750,1,07,1,99,9",,,"99999,9,09992,1","2,1,009,1,+999,9",,"02,1","SYN082AAXX  25031 01442 41789 81303 10031 21018 39992 40255 52009 70222 8807/ 333 4////;",
"01442099999","2010-04-25T06:00:00","4","58.6666666","7.8","211.0","BYGLANDSFJORD, NO","FM-12","99999","V020","120,1,N,0030,1","01500,1,9,N","030000,1,N,1","+0032,1","-0004,1","10267,1","12,9999,9,9","24,9999,9,9",,"6,1,06,1","2,1,06,1",,"08,99,1,08,1,00,1,01750,1,02,1,99,9",,"999,N,+0029,1","99999,9,10003,1","3,1,011,1,+999,9",,"60,1","SYN100AAXX  25061 01442 11780 81203 10032 21004 30003 40267 53011 69902 76062 8802/ 333 20029 4//// 70000;","Q01  00002PRCP24Q02  00002PRCP12Q03  00002PRCP12Q04  00002PRCP24"
"01442099999","2010-04-25T09:00:00","4","58.6666666","7.8","211.0","BYGLANDSFJORD, NO","FM-12","99999","V020","150,1,N,0030,1","01500,1,9,N","075000,1,N,1","+0062,1","+0001,1","10271,1",,,,"6,1,03,1","2,1,03,1",,"08,99,1,08,1,00,1,01750,1,02,1,99,9",,,"99999,9,10011,1","2,1,007,1,+999,9",,"01,1","SYN082AAXX  25091 01442 41789 81503 10062 20001 30011 40271 52007 70162 8802/ 333 4////;",
"01442099999","2010-04-25T12:00:00","4","58.6666666","7.8","211.0","BYGLANDSFJORD, NO","FM-12","99999","V020","150,1,N,0050,1","02100,1,9,N","075000,1,N,1","+0114,1","+0002,1","10260,1",,,,"6,1,06,1","2,1,06,1",,"08,99,1,08,1,00,1,02250,1,01,1,99,9",,,"99999,9,10005,1","7,1,006,1,+999,9",,"01,1","SYN088AAXX  25121 01442 11889 81505 10114 20002 30005 40260 57006 6//// 70162 8801/ 333 4////;",
"01442099999","2010-04-25T15:00:00","4","58.6666666","7.8","211.0","BYGLANDSFJORD, NO","FM-12","99999","V020","170,1,N,0050,1","02100,1,9,N","075000,1,N,1","+0126,1","+0004,1","10248,1",,,,"2,1,03,1","2,1,03,1",,"08,99,1,08,1,00,1,02250,1,01,1,99,9",,,"99999,9,09993,1","8,1,011,1,+999,9",,"02,1","SYN082AAXX  25151 01442 41889 81705 10126 20004 39993 40248 58011 70222 8801/ 333 4////;",
"01442099999","2010-04-25T18:00:00","4","58.6666666","7.8","211.0","BYGLANDSFJORD, NO","FM-12","99999","V020","170,1,N,0050,1","02100,1,9,N","070000,1,N,1","+0103,1","+0001,1","10247,1","12,0000,2,1",,,"2,1,06,1","2,1,06,1",,"08,99,1,08,1,00,1,02250,1,02,1,99,9",,"120,M,+0129,1","99999,9,09991,1","7,1,003,1,+999,9",,"03,1","SYN094AAXX  25181 01442 11888 81705 10103 20001 39991 40247 57003 69912 70322 8802/ 333 10129 4////;",
"01442099999","2010-04-26T03:00:00","4","58.6666666","7.8","211.0","BYGLANDSFJORD, NO","FM-12","99999","V020","350,1,N,0050,1","01500,1,9,N","075000,1,N,1","+0039,1","-0005,1","10225,1",,,,"2,1,03,1","2,1,03,1",,"08,99,1,08,1,00,1,01750,1,07,1,99,9",,,"99999,9,09963,1","6,1,015,1,+999,9",,"02,1","SYN082AAXX  26031 01442 41789 83505 10039 21005 39963 40225 56015 70222 8807/ 333 4////;",
"01442099999","2010-04-26T06:00:00","4","58.6666666","7.8","211.0","BYGLANDSFJORD, NO","FM-12","99999","V020","340,1,N,0050,1","01500,1,9,N","075000,1,N,1","+0052,1","+0011,1","10202,1","12,0000,9,1","24,0000,2,1",,"2,1,06,1","2,1,06,1",,"08,99,1,08,1,00,1,01750,1,07,1,99,9",,"999,N,+0033,1","99999,9,09942,1","8,1,021,1,+999,9",,"02,1","SYN100AAXX  26061 01442 11789 83405 10052 20011 39942 40202 58021 60002 70222 8807/ 333 20033 4//// 70001;","Q01  00002PRCP12"
"01442099999","2010-04-26T09:00:00","4","58.6666666","7.8","211.0","BYGLANDSFJORD, NO","FM-12","99999","V020","340,1,N,0050,1","03000,1,9,N","030000,1,N,1","+0042,1","+0026,1","10195,1",,,,"6,1,03,1","2,1,03,1",,"08,99,1,03,1,07,1,00800,1,02,1,99,9",,,"99999,9,09935,1","8,1,008,1,+999,9",,"61,1","SYN082AAXX  26091 01442 41580 83405 10042 20026 39935 40195 58008 76162 8372/ 333 4////;",
"01442099999","2010-04-26T12:00:00","4","58.6666666","7.8","211.0","BYGLANDSFJORD, NO","FM-12","99999","V020","330,1,N,0030,1","00210,1,9,N","060000,1,N,1","+0054,1","+0037,1","10192,1",,,,"6,1,06,1","2,1,06,1",,"08,99,1,08,1,06,1,00250,1,99,9,99,9",,,"99999,9,09932,1","8,1,002,1,+999,9",,"21,1","SYN088AAXX  26121 01442 11386 83303 10054 20037 39932 40192 58002 6//// 72162 886// 333 4////;",
"01442099999","2010-04-26T15:00:00","4","58.6666666","7.8","211.0","BYGLANDSFJORD, NO","FM-12","99999","V020","340,1,N,0050,1","00750,1,9,N","070000,1,N,1","+0074,1","+0033,1","10182,1",,,,"2,1,03,1","2,1,03,1",,"08,99,1,08,1,05,1,00800,1,99,9,99,9",,,"99999,9,09925,1","7,1,008,1,+999,9",,"01,1","SYN082AAXX  26151 01442 41588 83405 10074 20033 39925 40182 57008 70122 885// 333 4////;",
"01442099999","2010-04-26T18:00:00","4","58.6666666","7.8","211.0","BYGLANDSFJORD, NO","FM-12","99999","V020","340,1,N,0050,1","01200,1,9,N","060000,1,N,1","+0077,1","+0036,1","10172,1","12,0020,9,1",,,"2,1,06,1","2,1,06,1",,"07,99,1,07,1,08,1,00800,1,00,1,01,1",,"120,M,+0090,1","99999,9,09916,1","6,1,009,1,+999,9",,"01,1","SYN094AAXX  26181 01442 11586 73405 10077 20036 39916 40172 56009 60022 70122 87801 333 10090 4////;",
"01442099999","2010-04-27T03:00:00","4","58.6666666","7.8","211.0","BYGLANDSFJORD, NO","FM-12","99999","V020","340,1,N,0030,1","22000,1,9,N","075000,1,N,1","+0033,1","+0027,1","10173,1",,,,"1,1,03,1","1,1,03,1",,"02,99,1,01,1,01,1,00800,1,04,1,01,1",,,"99999,9,09912,1","5,1,002,1,+999,9",,"01,1","SYN082AAXX  27031 01442 41589 23403 10033 20027 39912 40173 55002 70111 81141 333 4////;",
"01442099999","2010-04-27T06:00:00","4","58.6666666","7.8","211.0","BYGLANDSFJORD, NO","FM-12","99999","V020","340,1,N,0030,1","22000,1,9,N","075000,1,N,1","+0032,1","+0028,1","10175,1","12,0000,9,1","24,0018,9,1",,"1,1,06,1","0,1,06,1",,"01,99,1,01,1,01,1,01750,1,00,1,00,1",,"999,N,+0024,1","99999,9,09915,1","3,1,002,1,+999,9",,"01,1","SYN100AAXX  27061 01442 11789 13403 10032 20028 39915 40175 53002 60002 70110 81100 333 20024 4//// 70019;","Q01  00002PRCP12"
"01442099999","2010-04-27T09:00:00","4","58.6666666","7.8","211.0","BYGLANDSFJORD, NO","FM-12","99999","V020","340,1,N,0070,1","22000,1,9,N","075000,1,N,1","+0130,1","+0045,1","10171,1",,,,"0,1,03,1","0,1,03,1",,"01,99,1,01,1,01,1,01750,1,00,1,02,1",,,"99999,9,09920,1","2,1,005,1,+999,9",,"03,1","SYN082AAXX  27091 01442 41789 13407 10130 20045 39920 40171 52005 70300 81102 333 4////;",
"01442099999","2010-04-27T12:00:00","4","58.6666666","7.8","211.0","BYGLANDSFJORD, NO","FM-12","99999","V020","330,1,N,0070,1","22000,1,9,N","075000,1,N,1","+0136,1","+0042,1","10179,1",,,,"0,1,06,1","0,1,06,1",,"01,99,1,01,1,01,1,01750,1,00,1,01,1",,,"99999,9,09927,1","2,1,008,1,+999,9",,"01,1","SYN088AAXX  27121 01442 11789 13307 10136 20042 39927 40179 52008 6//// 70100 81101 333 4////;",
"01442099999","2010-04-27T15:00:00","4","58.6666666","7.8","211.0","BYGLANDSFJORD, NO","FM-12","99999","V020","340,1,N,0070,1","22000,1,9,N","075000,1,N,1","+0131,1","+0040,1","10181,1",,,,"0,1,03,1","0,1,03,1",,"02,99,1,01,1,01,1,99999,9,00,1,02,1",,,"99999,9,09928,1","3,1,001,1,+999,9",,"01,1","SYN082AAXX  27151 01442 41989 23407 10131 20040 39928 40181 53001 70100 81102 333 4////;",
"01442099999","2010-04-27T18:00:00","4","58.6666666","7.8","211.0","BYGLANDSFJORD, NO","FM-12","99999","V020","340,1,N,0100,1","07500,1,9,N","075000,1,N,1","+0102,1","+0026,1","10189,1","12,0000,9,1",,,"1,1,06,1","0,1,06,1",,"07,99,1,01,1,01,1,01250,1,00,1,06,1",,"120,M,+0148,1","99999,9,09935,1","2,1,006,1,+999,9",,"03,1","SYN094AAXX  27181 01442 11689 73410 10102 20026 39935 40189 52006 60002 70310 81106 333 10148 4////;","Q01  00002PRCP12"
"01442099999","2010-04-28T03:00:00","4","58.6666666","7.8","211.0","BYGLANDSFJORD, NO","FM-12","99999","V020","150,1,N,0030,1","01500,1,9,N","070000,1,N,1","+0042,1","+0022,1","10214,1",,,,"6,1,03,1","2,1,03,1",,"08,99,1,08,1,00,1,01750,1,07,1,99,9",,,"99999,9,09953,1","7,1,002,1,+999,9",,"60,1","SYN082AAXX  28031 01442 41788 81503 10042 20022 39953 40214 57002 76062 8807/ 333 4////;",
"01442099999","2010-04-28T06:00:00","4","58.6666666","7.8","211.0","BYGLANDSFJORD, NO","FM-12","99999","V020","160,1,N,0030,1","03000,1,9,N","020000,1,N,1","+0044,1","+0037,1","10210,1","12,0020,9,2","24,0018,9,2",,"6,1,06,1","2,1,06,1",,"07,99,1,03,1,07,1,00250,1,02,1,99,9",,"999,N,+0039,1","99999,9,09950,1","8,1,004,1,+999,9",,"61,1","SYN100AAXX  28061 01442 11370 71603 10044 20037 39950 40210 58004 60022 76162 8372/ 333 20039 4//// 70019;",
"01442099999","2010-04-28T09:00:00","4","58.6666666","7.8","211.0","BYGLANDSFJORD, NO","FM-12","99999","V020","170,1,N,0030,1","03000,1,9,N","020000,1,N,1","+0058,1","+0051,1","10200,1",,,,"6,1,03,1","6,1,03,1",,"08,99,1,04,1,07,1,00250,1,02,1,99,9",,,"99999,9,09941,1","7,1,009,1,+999,9",,"61,1","SYN082AAXX  28091 01442 41370 81703 10058 20051 39941 40200 57009 76166 8472/ 333 4////;",
"01442099999","2010-04-28T12:00:00","4","58.6666666","7.8","211.0","BYGLANDSFJORD, NO","FM-12","99999","V020","150,1,N,0030,1","00210,1,9,N","015000,1,N,1","+0069,1","+0063,1","10173,1",,,,"6,1,06,1","6,1,06,1",,"08,99,1,07,1,07,1,00250,1,02,1,99,9",,,"99999,9,09916,1","8,1,025,1,+999,9",,"61,1","SYN088AAXX  28121 01442 11365 81503 10069 20063 39916 40173 58025 6//// 76166 8772/ 333 4////;",
"01442099999","2010-04-28T15:00:00","4","58.6666666","7.8","211.0","BYGLANDSFJORD, NO","FM-12","99999","V020","150,1,N,0050,1","00420,1,9,N","070000,1,N,1","+0086,1","+0078,1","10144,1",,,,"6,1,03,1","2,1,03,1",,"08,99,1,08,1,05,1,00450,1,99,9,99,9",,,"99999,9,09888,1","8,1,027,1,+999,9",,"21,1","SYN082AAXX  28151 01442 41488 81505 10086 20078 39888 40144 58027 72162 885// 333 4////;",
"01442099999","2010-04-28T18:00:00","4","58.6666666","7.8","211.0","BYGLANDSFJORD, NO","FM-12","99999","V020","150,1,N,0030,1","00420,1,9,N","060000,1,N,1","+0093,1","+0076,1","10121,1","12,0071,9,1",,,"6,1,06,1","2,1,06,1",,"08,99,1,08,1,05,1,00450,1,99,9,99,9",,"120,M,+0093,1","99999,9,09867,1","7,1,021,1,+999,9",,"02,1","SYN094AAXX  28181 01442 11486 81503 10093 20076 39867 40121 57021 60072 70262 885// 333 10093 4////;",
"01442099999","2010-04-29T03:00:00","4","58.6666666","7.8","211.0","BYGLANDSFJORD, NO","FM-12","99999","V020","150,1,N,0030,1","00420,1,9,N","030000,1,N,1","+0076,1","+0069,1","10078,1",,,,"2,1,03,1","2,1,03,1",,"08,99,1,08,1,05,1,00450,1,99,9,99,9",,,"99999,9,09823,1","8,1,021,1,+999,9",,"02,1","SYN082AAXX  29031 01442 41480 81503 10076 20069 39823 40078 58021 70222 885// 333 4////;",
"01442099999","2010-04-29T06:00:00","4","58.6666666","7.8","211.0","BYGLANDSFJORD, NO","FM-12","99999","V020","160,1,N,0030,1","00120,1,9,N","020000,1,N,1","+0076,1","+0069,1","10063,1","12,0000,9,1","24,0071,9,1",,"2,1,06,1","2,1,06,1",,"08,99,1,08,1,06,1,00150,1,99,9,99,9",,"999,N,+0074,1","99999,9,09810,1","6,1,014,1,+999,9",,"02,1","SYN100AAXX  29061 01442 11270 81603 10076 20069 39810 40063 56014 60002 70222 886// 333 20074 4//// 70070;","Q01  00002PRCP12"
"01442099999","2010-04-29T09:00:00","4","58.6666666","7.8","211.0","BYGLANDSFJORD, NO","FM-12","99999","V020","170,1,N,0030,1","00210,1,9,N","020000,1,N,1","+0092,1","+0072,1","10057,1",,,,"2,1,03,1","2,1,03,1",,"08,99,1,08,1,06,1,00250,1,99,9,99,9",,,"99999,9,09805,1","7,1,005,1,+999,9",,"02,1","SYN082AAXX  29091 01442 41370 81703 10092 20072 39805 40057 57005 70222 886// 333 4////;",
"01442099999","2010-04-29T18:00:00","4","58.6666666","7.8","211.0","BYGLANDSFJORD, NO","FM-12","99999","V020","280,1,N,0030,1","03000,1,9,N","075000,1,N,1","+0134,1","+0070,1","10030,1","12,0000,9,1",,,"2,1,06,1","2,1,06,1",,"07,99,1,02,1,02,1,01250,1,06,1,08,1",,"120,M,+0167,1","99999,9,09782,1","0,1,001,1,+999,9",,"01,1","SYN094AAXX  29181 01442 11689 72803 10134 20070 39782 40030 50001 60002 70122 82268 333 10167 4////;","Q01  00002PRCP12"
"01442099999","2010-04-30T03:00:00","4","58.6666666","7.8","211.0","BYGLANDSFJORD, NO","FM-12","99999","V020","150,1,N,0010,1","01500,1,9,N","075000,1,N,1","+0054,1","+0045,1","10009,1",,,,"2,1,03,1","2,1,03,1",,"08,99,1,08,1,00,1,01750,1,07,1,99,9",,,"99999,9,09755,1","7,1,017,1,+999,9",,"02,1","SYN082AAXX  30031 01442 41789 81501 10054 20045 39755 40009 57017 70222 8807/ 333 4////;",
"01442099999","2010-04-30T06:00:00","4","58.6666666","7.8","211.0","BYGLANDSFJORD, NO","FM-12","99999","V020","150,1,N,0030,1","01500,1,9,N","075000,1,N,1","+0067,1","+0058,1","09998,1","12,0000,9,1","24,0000,9,1",,"2,1,06,1","2,1,06,1",,"08,99,1,08,1,00,1,01750,1,07,1,99,9",,"999,N,+0053,1","99999,9,09745,1","6,1,010,1,+999,9",,"02,1","SYN100AAXX  30061 01442 11789 81503 10067 20058 39745 49998 56010 60002 70222 8807/ 333 20053 4//// 70000;","Q01  00002PRCP24Q02  00002PRCP12"
"01442099999","2010-04-30T09:00:00","4","58.6666666","7.8","211.0","BYGLANDSFJORD, NO","FM-12","99999","V020","150,1,N,0030,1","02100,1,9,N","075000,1,N,1","+0089,1","+0055,1","09980,1",,,,"2,1,03,1","2,1,03,1",,"08,99,1,08,1,00,1,02250,1,02,1,99,9",,,"99999,9,09730,1","8,1,014,1,+999,9",,"03,1","SYN082AAXX  30091 01442 41889 81503 10089 20055 39730 49980 58014 70322 8802/ 333 4////;",
"01442099999","2010-04-30T12:00:00","4","58.6666666","7.8","211.0","BYGLANDSFJORD, NO","FM-12","99999","V020","340,1,N,0030,1","01200,1,9,N","075000,1,N,1","+0126,1","+0028,1","09967,1",,,,"6,1,06,1","2,1,06,1",,"08,99,1,08,1,05,1,01250,1,99,9,99,9",,,"99999,9,09720,1","8,1,009,1,+999,9",,"03,1","SYN088AAXX  30121 01442 11689 83403 10126 20028 39720 49967 58009 6//// 70362 885// 333 4////;",
"01442099999","2010-04-30T15:00:00","4","58.6666666","7.8","211.0","BYGLANDSFJORD, NO","FM-12","99999","V020","340,1,N,0050,1","01200,1,9,N","075000,1,N,1","+0142,1","+0037,1","09963,1",,,,"2,1,03,1","2,1,03,1",,"07,99,1,07,1,08,1,00800,1,00,1,00,1",,,"99999,9,09717,1","7,1,002,1,+999,9",,"03,1","SYN082AAXX  30151 01442 41589 73405 10142 20037 39717 49963 57002 70322 87800 333 4////;",
"01442099999","2010-04-30T18:00:00","4","58.6666666","7.8","211.0","BYGLANDSFJORD, NO","FM-12","99999","V020","350,1,N,0070,1","00750,1,9,N","070000,1,N,1","+0108,1","+0043,1","09969,1","12,9999,9,9",,,"8,1,06,1","2,1,06,1",,"08,99,1,08,1,09,1,00800,1,99,9,99,9",,"120,M,+0143,1","99999,9,09721,1","3,1,003,1,+999,9",,"80,1","SYN094AAXX  30181 01442 11588 83507 10108 20043 39721 49969 53003 69902 78082 889// 333 10143 4////;","Q01  00002PRCP12Q02  00002PRCP12"
"01442099999","2010-05-01T03:00:00","4","58.6666666","7.8","211.0","BYGLANDSFJORD, NO","FM-12","99999","V020","150,1,N,0050,1","00750,1,9,N","075000,1,N,1","+0066,1","+0038,1","09972,1",,,,"2,1,03,1","2,1,03,1",,"08,99,1,08,1,05,1,00800,1,99,9,99,9",,,"99999,9,09720,1","8,1,013,1,+999,9",,"02,1","SYN082AAXX  01031 01442 41589 81505 10066 20038 39720 49972 58013 70222 885// 333 4////;",
"01442099999","2010-05-01T06:00:00","4","58.6666666","7.8","211.0","BYGLANDSFJORD, NO","FM-12","99999","V020","170,1,N,0050,1","22000,1,9,N","075000,1,N,1","+0071,1","+0016,1","09974,1","12,0000,2,1","24,0000,2,1",,"2,1,06,1","2,1,06,1",,"04,99,1,03,1,02,1,00800,1,06,1,02,1",,"999,N,+0066,1","99999,9,09722,1","3,1,002,1,+999,9",,"01,1","SYN100AAXX  01061 01442 11589 41705 10071 20016 39722 49974 53002 69912 70122 83262 333 20066 4//// 70001;",
"01442099999","2010-05-01T09:00:00","4","58.6666666","7.8","211.0","BYGLANDSFJORD, NO","FM-12","99999","V020","330,1,N,0100,1","22000,1,9,N","075000,1,N,1","+0078,1","-0028,1","09981,1",,,,"0,1,03,1","0,1,03,1",,"01,99,1,01,1,01,1,01750,1,00,1,00,1",,,"99999,9,09730,1","2,1,008,1,+999,9",,"01,1","SYN082AAXX  01091 01442 41789 13310 10078 21028 39730 49981 52008 70100 81100 333 4////;",
"01442099999","2010-05-01T12:00:00","4","58.6666666","7.8","211.0","BYGLANDSFJORD, NO","FM-12","99999","V020","330,1,N,0120,1","22000,1,9,N","075000,1,N,1","+0091,1","-0034,1","09990,1",,,,"0,1,06,1","0,1,06,1",,"01,99,1,01,1,01,1,01750,1,00,1,00,1",,,"99999,9,09740,1","3,1,010,1,+999,9",,"02,1","SYN088AAXX  01121 01442 11789 13312 10091 21034 39740 49990 53010 6//// 70200 81100 333 4////;",
"01442099999","2010-05-01T15:00:00","4","58.6666666","7.8","211.0","BYGLANDSFJORD, NO","FM-12","99999","V020","310,1,N,0100,1","22000,1,9,N","075000,1,N,1","+0100,1","-0040,1","10014,1",,,,"0,1,03,1","0,1,03,1",,"01,99,1,01,1,01,1,01750,1,00,1,00,1",,,"99999,9,09763,1","3,1,024,1,+999,9",,"02,1","SYN082AAXX  01151 01442 41789 13110 10100 21040 39763 40014 53024 70200 81100 333 4////;",
"01442099999","2010-05-01T18:00:00","4","58.6666666","7.8","211.0","BYGLANDSFJORD, NO","FM-12","99999","V020","310,1,N,0100,1","22000,1,9,N","075000,1,N,1","+0082,1","-0056,1","10036,1","12,0000,9,1",,,"0,1,06,1","0,1,06,1",,"01,99,1,01,1,01,1,01750,1,00,1,00,1",,"120,M,+0101,1","99999,9,09783,1","2,1,020,1,+999,9",,"01,1","SYN094AAXX  01181 01442 11789 13110 10082 21056 39783 40036 52020 60002 70100 81100 333 10101 4////;","Q01  00002PRCP12"
"01442099999","2010-05-02T03:00:00","4","58.6666666","7.8","211.0","BYGLANDSFJORD, NO","FM-12","99999","V020","330,1,N,0030,1","22000,1,9,N","075000,1,N,1","+0003,1","-0034,1","10111,1",,,,"0,1,03,1","0,1,03,1","00,1,+99999,9,99,9","00,99,1,00,1,00,1,99999,9,00,1,00,1",,,"99999,9,09850,1","2,1,015,1,+999,9",,"02,1","SYN076AAXX  02031 01442 41989 03303 10003 21034 39850 40111 52015 70200 333 4////;",
"01442099999","2010-05-02T06:00:00","4","58.6666666","7.8","211.0","BYGLANDSFJORD, NO","FM-12","99999","V020","030,1,N,0010,1","22000,1,9,N","075000,1,N,1","+0003,1","-0032,1","10124,1","12,0000,9,1","24,0000,9,1",,"0,1,06,1","0,1,06,1","00,1,+99999,9,99,9","00,99,1,00,1,00,1,99999,9,00,1,00,1",,"999,N,+0003,1","99999,9,09862,1","2,1,013,1,+999,9",,"02,1","SYN094AAXX  02061 01442 11989 00301 10003 21032 39862 40124 52013 60002 70200 333 20003 4//// 70000;","Q01  00002PRCP24Q02  00002PRCP12"
"01442099999","2010-05-02T09:00:00","4","58.6666666","7.8","211.0","BYGLANDSFJORD, NO","FM-12","99999","V020","120,1,N,0030,1","22000,1,9,N","075000,1,N,1","+0074,1","-0043,1","10125,1",,,,"0,1,03,1","0,1,03,1",,"01,99,1,01,1,01,1,01750,1,00,1,00,1",,,"99999,9,09870,1","1,1,007,1,+999,9",,"03,1","SYN082AAXX  02091 01442 41789 11203 10074 21043 39870 40125 51007 70300 81100 333 4////;",
"01442099999","2010-05-02T12:00:00","4","58.6666666","7.8","211.0","BYGLANDSFJORD, NO","FM-12","99999","V020","170,1,N,0050,1","01200,1,9,N","075000,1,N,1","+0099,1","-0064,1","10122,1",,,,"1,1,06,1","1,1,06,1",,"07,99,1,06,1,02,1,01250,1,06,1,03,1",,,"99999,9,09868,1","7,1,001,1,+999,9",,"03,1","SYN088AAXX  02121 01442 11689 71705 10099 21064 39868 40122 57001 6//// 70311 86263 333 4////;",
"01442099999","2010-05-02T15:00:00","4","58.6666666","7.8","211.0","BYGLANDSFJORD, NO","FM-12","99999","V020","170,1,N,0030,1","01200,1,9,N","075000,1,N,1","+0090,1","-0017,1","10127,1",,,,"2,1,03,1","2,1,03,1",,"07,99,1,07,1,09,1,01250,1,00,1,00,1",,,"99999,9,09872,1","2,1,004,1,+999,9",,"03,1","SYN082AAXX  02151 01442 41689 71703 10090 21017 39872 40127 52004 70322 87900 333 4////;",
"01442099999","2010-05-02T18:00:00","4","58.6666666","7.8","211.0","BYGLANDSFJORD, NO","FM-12","99999","V020","150,1,N,0050,1","00750,1,9,N","070000,1,N,1","+0053,1","+0020,1","10138,1","12,0008,9,1",,,"8,1,06,1","2,1,06,1",,"08,99,1,08,1,09,1,00800,1,99,9,99,9",,"120,M,+0109,1","99999,9,09881,1","2,1,008,1,+999,9",,"80,1","SYN094AAXX  02181 01442 11588 81505 10053 20020 39881 40138 52008 69982 78082 889// 333 10109 4////;",
"01442099999","2010-05-03T03:00:00","4","58.6666666","7.8","211.0","BYGLANDSFJORD, NO","FM-12","99999","V020","999,9,C,0000,1","22000,1,9,N","075000,1,N,1","-0002,1","-0009,1","10167,1",,,,"0,1,03,1","0,1,03,1",,"02,99,1,01,1,00,1,01750,1,03,1,01,1",,,"99999,9,09905,1","3,1,005,1,+999,9",,"02,1","SYN082AAXX  03031 01442 41789 20000 11002 21009 39905 40167 53005 70200 81031 333 4////;",
"01442099999","2010-05-03T06:00:00","4","58.6666666","7.8","211.0","BYGLANDSFJORD, NO","FM-12","99999","V020","010,1,N,0030,1","22000,1,9,N","075000,1,N,1","+0019,1","+0001,1","10175,1","12,0000,2,1","24,0010,9,1",,"0,1,06,1","0,1,06,1",,"01,99,1,01,1,01,1,01250,1,00,1,01,1",,"999,N,-0005,1","99999,9,09913,1","2,1,009,1,+999,9",,"03,1","SYN100AAXX  03061 01442 11689 10103 10019 20001 39913 40175 52009 69912 70300 81101 333 21005 4//// 70009;",
"01442099999","2010-05-03T09:00:00","4","58.6666666","7.8","211.0","BYGLANDSFJORD, NO","FM-12","99999","V020","340,1,N,0050,1","22000,1,9,N","075000,1,N,1","+0073,1","-0014,1","10170,1",,,,"0,1,03,1","0,1,03,1",,"01,99,1,01,1,02,1,01250,1,00,1,00,1",,,"99999,9,09913,1","4,1,000,1,+999,9",,"03,1","SYN082AAXX  03091 01442 41689 13405 10073 21014 39913 40170 54000 70300 81200 333 4////;",
"01442099999","2010-05-03T12:00:00","4","58.6666666","7.8","211.0","BYGLANDSFJORD, NO","FM-12","99999","V020","340,1,N,0050,1","01200,1,9,N","075000,1,N,1","+0108,1","-0048,1","10159,1",,,,"1,1,06,1","0,1,06,1",,"07,99,1,05,1,02,1,01250,1,06,1,01,1",,,"99999,9,09906,1","7,1,009,1,+999,9",,"03,1","SYN088AAXX  03121 01442 11689 73405 10108 21048 39906 40159 57009 6//// 70310 85261 333 4////;",
"01442099999","2010-05-03T15:00:00","4","58.6666666","7.8","211.0","BYGLANDSFJORD, NO","FM-12","99999","V020","330,1,N,0050,1","03000,1,9,N","075000,1,N,1","+0108,1","-0048,1","10153,1",,,,"2,1,03,1","2,1,03,1",,"06,99,1,04,1,02,1,01250,1,06,1,01,1",,,"99999,9,09900,1","7,1,006,1,+999,9",,"01,1","SYN082AAXX  03151 01442 41689 63305 10108 21048 39900 40153 57006 70122 84261 333 4////;",
"01442099999","2010-05-03T18:00:00","4","58.6666666","7.8","211.0","BYGLANDSFJORD, NO","FM-12","99999","V020","340,1,N,0070,1","22000,1,9,N","075000,1,N,1","+0090,1","-0045,1","10148,1","12,0000,9,1",,,"2,1,06,1","1,1,06,1",,"01,99,1,01,1,01,1,01750,1,00,1,00,1",,"120,M,+0120,1","99999,9,09893,1","7,1,006,1,+999,9",,"01,1","SYN094AAXX  03181 01442 11789 13407 10090 21045 39893 40148 57006 60002 70121 81100 333 10120 4////;","Q01  00002PRCP12"
"01442099999","2010-05-04T03:00:00","4","58.6666666","7.8","211.0","BYGLANDSFJORD, NO","FM-12","99999","V020","350,1,N,0030,1","22000,1,9,N","075000,1,N,1","+0026,1","-0046,1","10152,1",,,,"0,1,03,1","0,1,03,1","00,1,+99999,9,99,9","00,99,1,00,1,00,1,99999,9,00,1,00,1",,,"99999,9,09892,1","4,1,000,1,+999,9",,"02,1","SYN076AAXX  04031 01442 41989 03503 10026 21046 39892 40152 54000 70200 333 4////;",
"01442099999","2010-05-04T06:00:00","4","58.6666666","7.8","211.0","BYGLANDSFJORD, NO","FM-12","99999","V020","340,1,N,0070,1","22000,1,9,N","075000,1,N,1","+0033,1","-0066,1","10159,1","12,0000,9,1","24,0000,9,1",,"0,1,06,1","0,1,06,1",,"01,99,1,01,1,01,1,01750,1,00,1,00,1",,"999,N,+0022,1","99999,9,09898,1","3,1,007,1,+999,9",,"03,1","SYN100AAXX  04061 01442 11789 13407 10033 21066 39898 40159 53007 60002 70300 81100 333 20022 4//// 70000;","Q01  00002PRCP24Q02  00002PRCP12"
"01442099999","2010-05-04T09:00:00","4","58.6666666","7.8","211.0","BYGLANDSFJORD, NO","FM-12","99999","V020","340,1,N,0070,1","22000,1,9,N","075000,1,N,1","+0053,1","-0051,1","10167,1",,,,"8,1,03,1","1,1,03,1",,"04,99,1,03,1,02,1,00800,1,06,1,03,1",,,"99999,9,09908,1","1,1,010,1,+999,9",,"01,1","SYN082AAXX  04091 01442 41589 43407 10053 21051 39908 40167 51010 70181 83263 333 4////;",
"01442099999","2010-05-04T12:00:00","4","58.6666666","7.8","211.0","BYGLANDSFJORD, NO","FM-12","99999","V020","340,1,N,0070,1","22000,1,9,N","075000,1,N,1","+0083,1","-0086,1","10164,1",,,,"8,1,06,1","1,1,06,1",,"01,99,1,01,1,01,1,01750,1,00,1,00,1",,,"99999,9,09908,1","4,1,000,1,+999,9",,"01,1","SYN088AAXX  04121 01442 11789 13407 10083 21086 39908 40164 54000 6//// 70181 81100 333 4////;",
"01442099999","2010-05-04T15:00:00","4","58.6666666","7.8","211.0","BYGLANDSFJORD, NO","FM-12","99999","V020","350,1,N,0070,1","22000,1,9,N","075000,1,N,1","+0092,1","-0062,1","10165,1",,,,"0,1,03,1","0,1,03,1",,"01,99,1,01,1,01,1,01750,1,00,1,00,1",,,"99999,9,09910,1","0,1,002,1,+999,9",,"01,1","SYN082AAXX  04151 01442 41789 13507 10092 21062 39910 40165 50002 70100 81100 333 4////;",
"01442099999","2010-05-04T18:00:00","4","58.6666666","7.8","211.0","BYGLANDSFJORD, NO","FM-12","99999","V020","330,1,N,0070,1","22000,1,9,N","075000,1,N,1","+0078,1","-0063,1","10169,1","12,0000,9,1",,,"0,1,06,1","0,1,06,1",,"03,99,1,01,1,01,1,01750,1,06,1,00,1",,"120,M,+0092,1","99999,9,09912,1","2,1,003,1,+999,9",,"01,1","SYN094AAXX  04181 01442 11789 33307 10078 21063 39912 40169 52003 69902 70100 81160 333 10092 4////;","Q01  00002PRCP12"
"01442099999","2010-05-05T03:00:00","4","58.6666666","7.8","211.0","BYGLANDSFJORD, NO","FM-12","99999","V020","350,1,N,0030,1","22000,1,9,N","075000,1,N,1","+0004,1","-0044,1","10216,1",,,,"0,1,03,1","0,1,03,1",,"01,99,1,00,1,00,1,99999,9,00,1,01,1",,,"99999,9,09952,1","2,1,006,1,+999,9",,"02,1","SYN082AAXX  05031 01442 41989 13503 10004 21044 39952 40216 52006 70200 80001 333 4////;",
"01442099999","2010-05-05T06:00:00","4","58.6666666","7.8","211.0","BYGLANDSFJORD, NO","FM-12","99999","V020","330,1,N,0050,1","22000,1,9,N","075000,1,N,1","+0011,1","-0049,1","10220,1","12,0000,9,1","24,0000,9,1",,"0,1,06,1","0,1,06,1","00,1,+99999,9,99,9","00,99,1,00,1,00,1,99999,9,00,1,00,1",,"999,N,-0005,1","99999,9,09957,1","2,1,004,1,+999,9",,"02,1","SYN094AAXX  05061 01442 11989 03305 10011 21049 39957 40220 52004 60002 70200 333 21005 4//// 70000;","Q01  00002PRCP24Q02  00002PRCP12"
"01442099999","2010-05-05T09:00:00","4","58.6666666","7.8","211.0","BYGLANDSFJORD, NO","FM-12","99999","V020","110,1,N,0030,1","22000,1,9,N","075000,1,N,1","+0057,1","-0053,1","10214,1",,,,"0,1,03,1","0,1,03,1",,"02,99,1,02,1,02,1,01750,1,00,1,00,1",,,"99999,9,09955,1","7,1,002,1,+999,9",,"03,1","SYN082AAXX  05091 01442 41789 21103 10057 21053 39955 40214 57002 70300 82200 333 4////;",
"01442099999","2010-05-05T12:00:00","4","58.6666666","7.8","211.0","BYGLANDSFJORD, NO","FM-12","99999","V020","330,1,N,0050,1","22000,1,9,N","075000,1,N,1","+0108,1","-0079,1","10199,1",,,,"0,1,06,1","0,1,06,1",,"04,99,1,03,1,02,1,01750,1,06,1,00,1",,,"99999,9,09945,1","7,1,010,1,+999,9",,"03,1","SYN088AAXX  05121 01442 11789 43305 10108 21079 39945 40199 57010 6//// 70300 83260 333 4////;",
"01442099999","2010-05-05T15:00:00","4","58.6666666","7.8","211.0","BYGLANDSFJORD, NO","FM-12","99999","V020","170,1,N,0070,1","01200,1,9,N","075000,1,N,1","+0086,1","-0012,1","10194,1",,,,"2,1,03,1","2,1,03,1",,"07,99,1,07,1,09,1,01250,1,00,1,00,1",,,"99999,9,09937,1","5,1,007,1,+999,9",,"03,1","SYN082AAXX  05151 01442 41689 71707 10086 21012 39937 40194 55007 70322 87900 333 4////;",
"01442099999","2010-05-05T18:00:00","4","58.6666666","7.8","211.0","BYGLANDSFJORD, NO","FM-12","99999","V020","310,1,N,0050,1","01200,1,9,N","075000,1,N,1","+0096,1","-0036,1","10183,1","12,0000,9,1",,,"2,1,06,1","2,1,06,1",,"07,99,1,05,1,02,1,01250,1,06,1,01,1",,"120,M,+0117,1","99999,9,09927,1","7,1,010,1,+999,9",,"01,1","SYN094AAXX  05181 01442 11689 73105 10096 21036 39927 40183 57010 60002 70122 85261 333 10117 4////;","Q01  00002PRCP12"
"01442099999","2010-05-06T03:00:00","4","58.6666666","7.8","211.0","BYGLANDSFJORD, NO","FM-12","99999","V020","999,9,C,0000,1","02100,1,9,N","075000,1,N,1","-0014,1","-0024,1","10186,1",,,,"1,1,03,1","1,1,03,1",,"06,99,1,06,1,00,1,02250,1,03,1,01,1",,,"99999,9,09922,1","7,1,003,1,+999,9",,"02,1","SYN082AAXX  06031 01442 41889 60000 11014 21024 39922 40186 57003 70211 86031 333 4////;",
"01442099999","2010-05-06T06:00:00","4","58.6666666","7.8","211.0","BYGLANDSFJORD, NO","FM-12","99999","V020","340,1,N,0030,1","01500,1,9,N","075000,1,N,1","+0019,1","-0008,1","10186,1","12,0000,9,1","24,0000,9,1",,"1,1,06,1","1,1,06,1",,"07,99,1,06,1,00,1,01750,1,07,1,01,1",,"999,N,-0014,1","99999,9,09923,1","3,1,001,1,+999,9",,"03,1","SYN100AAXX  06061 01442 11789 73403 10019 21008 39923 40186 53001 60002 70311 86071 333 21014 4//// 70000;","Q01  00002PRCP24Q02  00002PRCP12"
"01442099999","2010-05-06T09:00:00","4","58.6666666","7.8","211.0","BYGLANDSFJORD, NO","FM-12","99999","V020","340,1,N,0050,1","01200,1,9,N","075000,1,N,1","+0051,1","-0018,1","10180,1",,,,"2,1,03,1","2,1,03,1",,"07,99,1,06,1,09,1,01250,1,06,1,02,1",,,"99999,9,09921,1","7,1,003,1,+999,9",,"03,1","SYN082AAXX  06091 01442 41689 73405 10051 21018 39921 40180 57003 70322 86962 333 4////;",
"01442099999","2010-05-06T12:00:00","4","58.6666666","7.8","211.0","BYGLANDSFJORD, NO","FM-12","99999","V020","340,1,N,0050,1","01200,1,9,N","075000,1,N,1","+0078,1","-0006,1","10171,1",,,,"2,1,06,1","2,1,06,1",,"07,99,1,07,1,09,1,01250,1,00,1,02,1",,,"99999,9,09915,1","6,1,006,1,+999,9",,"03,1","SYN088AAXX  06121 01442 11689 73405 10078 21006 39915 40171 56006 6//// 70322 87902 333 4////;",
"01442099999","2010-05-06T15:00:00","4","58.6666666","7.8","211.0","BYGLANDSFJORD, NO","FM-12","99999","V020","330,1,N,0030,1","01200,1,9,N","075000,1,N,1","+0099,1","-0017,1","10169,1",,,,"2,1,03,1","2,1,03,1",,"06,99,1,05,1,02,1,01250,1,06,1,01,1",,,"99999,9,09915,1","0,1,000,1,+999,9",,"01,1","SYN082AAXX  06151 01442 41689 63303 10099 21017 39915 40169 50000 70122 85261 333 4////;",
"01442099999","2010-05-06T18:00:00","4","58.6666666","7.8","211.0","BYGLANDSFJORD, NO","FM-12","99999","V020","350,1,N,0050,1","22000,1,9,N","075000,1,N,1","+0096,1","-0040,1","10175,1","12,0000,9,1",,,"2,1,06,1","1,1,06,1",,"03,99,1,02,1,02,1,01250,1,06,1,00,1",,"120,M,+0108,1","99999,9,09921,1","2,1,006,1,+999,9",,"01,1","SYN094AAXX  06181 01442 11689 33505 10096 21040 39921 40175 52006 60002 70121 82260 333 10108 4////;","Q01  00002PRCP12"
"01442099999","2010-05-07T03:00:00","4","58.6666666","7.8","211.0","BYGLANDSFJORD, NO","FM-12","99999","V020","340,1,N,0030,1","22000,1,9,N","075000,1,N,1","+0040,1","-0022,1","10212,1",,,,"0,1,03,1","0,1,03,1","00,1,+99999,9,99,9","00,99,1,00,1,00,1,99999,9,00,1,00,1",,,"99999,9,09952,1","2,1,006,1,+999,9",,"02,1","SYN076AAXX  07031 01442 41989 03403 10040 21022 39952 40212 52006 70200 333 4////;",
"01442099999","2010-05-07T06:00:00","4","58.6666666","7.8","211.0","BYGLANDSFJORD, NO","FM-12","99999","V020","340,1,N,0050,1","22000,1,9,N","075000,1,N,1","+0054,1","-0017,1","10215,1","12,0000,9,1","24,0000,9,1",,"0,1,06,1","0,1,06,1",,"01,99,1,01,1,01,1,01750,1,00,1,01,1",,"999,N,+0035,1","99999,9,09956,1","2,1,004,1,+999,9",,"03,1","SYN100AAXX  07061 01442 11789 13405 10054 21017 39956 40215 52004 60002 70300 81101 333 20035 4//// 70000;","Q01  00002PRCP24Q02  00002PRCP12"
"01442099999","2010-05-07T09:00:00","4","58.6666666","7.8","211.0","BYGLANDSFJORD, NO","FM-12","99999","V020","330,1,N,0100,1","22000,1,9,N","075000,1,N,1","+0103,1","-0056,1","10206,1",,,,"0,1,03,1","0,1,03,1",,"01,99,1,01,1,01,1,01750,1,00,1,01,1",,,"99999,9,09951,1","8,1,005,1,+999,9",,"02,1","SYN082AAXX  07091 01442 41789 13310 10103 21056 39951 40206 58005 70200 81101 333 4////;",
"01442099999","2010-05-07T12:00:00","4","58.6666666","7.8","211.0","BYGLANDSFJORD, NO","FM-12","99999","V020","350,1,N,0100,1","22000,1,9,N","075000,1,N,1","+0128,1","-0062,1","10189,1",,,,"0,1,06,1","0,1,06,1",,"01,99,1,00,1,00,1,99999,9,00,1,01,1",,,"99999,9,09937,1","7,1,014,1,+999,9",,"02,1","SYN088AAXX  07121 01442 11989 13510 10128 21062 39937 40189 57014 6//// 70200 80001 333 4////;",
"01442099999","2010-05-07T15:00:00","4","58.6666666","7.8","211.0","BYGLANDSFJORD, NO","FM-12","99999","V020","350,1,N,0070,1","22000,1,9,N","075000,1,N,1","+0138,1","-0075,1","10174,1",,,,"0,1,03,1","0,1,03,1",,"01,99,1,00,1,00,1,99999,9,00,1,01,1",,,"99999,9,09922,1","8,1,014,1,+999,9",,"02,1","SYN082AAXX  07151 01442 41989 13507 10138 21075 39922 40174 58014 70200 80001 333 4////;",
"01442099999","2010-05-07T18:00:00","4","58.6666666","7.8","211.0","BYGLANDSFJORD, NO","FM-12","99999","V020","080,1,N,0070,1","22000,1,9,N","075000,1,N,1","+0126,1","-0063,1","10174,1","12,0000,9,1",,,"0,1,06,1","0,1,06,1",,"01,99,1,00,1,00,1,99999,9,00,1,01,1",,"120,M,+0144,1","99999,9,09922,1","6,1,001,1,+999,9",,"02,1","SYN094AAXX  07181 01442 11989 10807 10126 21063 39922 40174 56001 60002 70200 80001 333 10144 4////;","Q01  00002PRCP12"
"01442099999","2010-05-08T03:00:00","4","58.6666666","7.8","211.0","BYGLANDSFJORD, NO","FM-12","99999","V020","330,1,N,0030,1","22000,1,9,N","075000,1,N,1","+0026,1","-0017,1","10182,1",,,,"0,1,03,1","0,1,03,1","00,1,+99999,9,99,9","00,99,1,00,1,00,1,99999,9,00,1,00,1",,,"99999,9,09921,1","7,1,002,1,+999,9",,"02,1","SYN076AAXX  08031 01442 41989 03303 10026 21017 39921 40182 57002 70200 333 4////;",
"01442099999","2010-05-08T06:00:00","4","58.6666666","7.8","211.0","BYGLANDSFJORD, NO","FM-12","99999","V020","340,1,N,0050,1","22000,1,9,N","075000,1,N,1","+0044,1","-0018,1","10172,1","12,0000,9,1","24,0000,9,1",,"0,1,06,1","0,1,06,1",,"01,99,1,00,1,00,1,99999,9,00,1,02,1",,"999,N,+0026,1","99999,9,09912,1","7,1,008,1,+999,9",,"02,1","SYN100AAXX  08061 01442 11989 13405 10044 21018 39912 40172 57008 60002 70200 80002 333 20026 4//// 70000;","Q01  00002PRCP24Q02  00002PRCP12"
"01442099999","2010-05-08T09:00:00","4","58.6666666","7.8","211.0","BYGLANDSFJORD, NO","FM-12","99999","V020","340,1,N,0070,1","22000,1,9,N","075000,1,N,1","+0108,1","-0052,1","10164,1",,,,"0,1,03,1","0,1,03,1",,"02,99,1,00,1,00,1,99999,9,00,1,02,1",,,"99999,9,09911,1","7,1,012,1,+999,9",,"02,1","SYN082AAXX  08091 01442 41989 23407 10108 21052 39911 40164 57012 70200 80002 333 4////;",
"01442099999","2010-05-08T12:00:00","4","58.6666666","7.8","211.0","BYGLANDSFJORD, NO","FM-12","99999","V020","340,1,N,0050,1","22000,1,9,N","075000,1,N,1","+0135,1","-0046,1","10132,1",,,,"0,1,06,1","0,1,06,1",,"02,99,1,00,1,00,1,99999,9,00,1,02,1",,,"99999,9,09882,1","7,1,019,1,+999,9",,"02,1","SYN088AAXX  08121 01442 11989 23405 10135 21046 39882 40132 57019 6//// 70200 80002 333 4////;",
"01442099999","2010-05-08T18:00:00","4","58.6666666","7.8","211.0","BYGLANDSFJORD, NO","FM-12","99999","V020","190,1,N,0050,1","22000,1,9,N","075000,1,N,1","+0127,1","-0023,1","10101,1","12,0000,9,1",,,"0,1,06,1","0,1,06,1",,"01,99,1,00,1,00,1,99999,9,00,1,01,1",,"120,M,+0161,1","99999,9,09851,1","7,1,011,1,+999,9",,"01,1","SYN094AAXX  08181 01442 11989 11905 10127 21023 39851 40101 57011 60002 70100 80001 333 10161 4////;","Q01  00002PRCP12"
"01442099999","2010-05-09T03:00:00","4","58.6666666","7.8","211.0","BYGLANDSFJORD, NO","FM-12","99999","V020","350,1,N,0010,1","22000,1,9,N","075000,1,N,1","-0003,1","-0014,1","10092,1",,,,"0,1,03,1","0,1,03,1","00,1,+99999,9,99,9","00,99,1,00,1,00,1,99999,9,00,1,00,1",,,"99999,9,09832,1","7,1,011,1,+999,9",,"02,1","SYN076AAXX  09031 01442 41989 03501 11003 21014 39832 40092 57011 70200 333 4////;",
"01442099999","2010-05-09T06:00:00","4","58.6666666","7.8","211.0","BYGLANDSFJORD, NO","FM-12","99999","V020","030,1,N,0030,1","22000,1,9,N","075000,1,N,1","+0029,1","-0011,1","10079,1","12,0000,9,1","24,0000,9,1",,"0,1,06,1","0,1,06,1","00,1,+99999,9,99,9","00,99,1,00,1,00,1,99999,9,00,1,00,1",,"999,N,-0004,1","99999,9,09821,1","7,1,011,1,+999,9",,"02,1","SYN094AAXX  09061 01442 11989 00303 10029 21011 39821 40079 57011 60002 70200 333 21004 4//// 70000;","Q01  00002PRCP24Q02  00002PRCP12"
"01442099999","2010-05-09T09:00:00","4","58.6666666","7.8","211.0","BYGLANDSFJORD, NO","FM-12","99999","V020","350,1,N,0030,1","22000,1,9,N","075000,1,N,1","+0091,1","-0016,1","10053,1",,,,"0,1,03,1","0,1,03,1","00,1,+99999,9,99,9","00,99,1,00,1,00,1,99999,9,00,1,00,1",,,"99999,9,09801,1","8,1,020,1,+999,9",,"02,1","SYN076AAXX  09091 01442 41989 03503 10091 21016 39801 40053 58020 70200 333 4////;",
"01442099999","2010-05-09T12:00:00","4","58.6666666","7.8","211.0","BYGLANDSFJORD, NO","FM-12","99999","V020","150,1,N,0050,1","22000,1,9,N","075000,1,N,1","+0147,1","-0006,1","10021,1",,,,"0,1,06,1","0,1,06,1",,"03,99,1,03,1,02,1,01750,1,06,1,00,1",,,"99999,9,09775,1","7,1,026,1,+999,9",,"03,1","SYN088AAXX  09121 01442 11789 31505 10147 21006 39775 40021 57026 6//// 70300 83260 333 4////;",
"01442099999","2010-05-09T15:00:00","4","58.6666666","7.8","211.0","BYGLANDSFJORD, NO","FM-12","99999","V020","330,1,N,0070,1","03000,1,9,N","075000,1,N,1","+0131,1","-0020,1","10012,1",,,,"1,1,03,1","1,1,03,1",,"05,99,1,04,1,02,1,01750,1,06,1,00,1",,,"99999,9,09765,1","6,1,010,1,+999,9",,"01,1","SYN082AAXX  09151 01442 41789 53307 10131 21020 39765 40012 56010 70111 84260 333 4////;",
"01442099999","2010-05-09T18:00:00","4","58.6666666","7.8","211.0","BYGLANDSFJORD, NO","FM-12","99999","V020","330,1,N,0070,1","22000,1,9,N","075000,1,N,1","+0096,1","-0036,1","10019,1","12,0000,9,1",,,"1,1,06,1","0,1,06,1","00,1,+99999,9,99,9","00,99,1,00,1,00,1,99999,9,00,1,00,1",,"120,M,+0156,1","99999,9,09767,1","2,1,003,1,+999,9",,"01,1","SYN088AAXX  09181 01442 11989 03307 10096 21036 39767 40019 52003 60002 70110 333 10156 4////;","Q01  00002PRCP12"
"01442099999","2010-05-10T03:00:00","4","58.6666666","7.8","211.0","BYGLANDSFJORD, NO","FM-12","99999","V020","350,1,N,0030,1","22000,1,9,N","075000,1,N,1","+0033,1","-0044,1","10024,1",,,,"0,1,03,1","0,1,03,1","00,1,+99999,9,99,9","00,99,1,00,1,00,1,99999,9,00,1,00,1",,,"99999,9,09767,1","7,1,003,1,+999,9",,"02,1","SYN076AAXX  10031 01442 41989 03503 10033 21044 39767 40024 57003 70200 333 4////;",
"01442099999","2010-05-10T06:00:00","4","58.6666666","7.8","211.0","BYGLANDSFJORD, NO","FM-12","99999","V020","350,1,N,0100,1","22000,1,9,N","075000,1,N,1","+0035,1","-0070,1","10031,1","12,0000,9,1","24,0000,9,1",,"0,1,06,1","0,1,06,1","00,1,+99999,9,99,9","00,99,1,00,1,00,1,99999,9,00,1,00,1",,"999,N,+0026,1","99999,9,09775,1","3,1,006,1,+999,9",,"02,1","SYN094AAXX  10061 01442 11989 03510 10035 21070 39775 40031 53006 60002 70200 333 20026 4//// 70000;","Q01  00002PRCP24Q02  00002PRCP12"
"01442099999","2010-05-10T09:00:00","4","58.6666666","7.8","211.0","BYGLANDSFJORD, NO","FM-12","99999","V020","340,1,N,0070,1","22000,1,9,N","075000,1,N,1","+0061,1","-0061,1","10025,1",,,,"0,1,03,1","0,1,03,1",,"01,99,1,01,1,01,1,01750,1,00,1,00,1",,,"99999,9,09771,1","3,1,003,1,+999,9",,"03,1","SYN082AAXX  10091 01442 41789 13407 10061 21061 39771 40025 53003 70300 81100 333 4////;",
"01442099999","2010-05-10T12:00:00","4","58.6666666","7.8","211.0","BYGLANDSFJORD, NO","FM-12","99999","V020","340,1,N,0070,1","22000,1,9,N","075000,1,N,1","+0090,1","-0068,1","10028,1",,,,"0,1,06,1","0,1,06,1",,"02,99,1,02,1,01,1,01750,1,00,1,00,1",,,"99999,9,09777,1","3,1,001,1,+999,9",,"03,1","SYN088AAXX  10121 01442 11789 23407 10090 21068 39777 40028 53001 6//// 70300 82100 333 4////;",
"01442099999","2010-05-10T15:00:00","4","58.6666666","7.8","211.0","BYGLANDSFJORD, NO","FM-12","99999","V020","340,1,N,0070,1","22000,1,9,N","075000,1,N,1","+0100,1","-0059,1","10040,1",,,,"0,1,03,1","0,1,03,1",,"01,99,1,01,1,02,1,01750,1,00,1,01,1",,,"99999,9,09788,1","2,1,012,1,+999,9",,"01,1","SYN082AAXX  10151 01442 41789 13407 10100 21059 39788 40040 52012 70100 81201 333 4////;",
"01442099999","2010-05-10T18:00:00","4","58.6666666","7.8","211.0","BYGLANDSFJORD, NO","FM-12","99999","V020","330,1,N,0050,1","22000,1,9,N","075000,1,N,1","+0073,1","-0057,1","10052,1","12,0000,9,1",,,"0,1,06,1","0,1,06,1",,"01,99,1,01,1,01,1,01750,1,00,1,01,1",,"120,M,+0100,1","99999,9,09798,1","3,1,010,1,+999,9",,"01,1","SYN094AAXX  10181 01442 11789 13305 10073 21057 39798 40052 53010 60002 70100 81101 333 10100 4////;","Q01  00002PRCP12"
"01442099999","2010-05-11T03:00:00","4","58.6666666","7.8","211.0","BYGLANDSFJORD, NO","FM-12","99999","V020","999,9,C,0000,1","22000,1,9,N","075000,1,N,1","-0017,1","-0032,1","10089,1",,,,"0,1,03,1","0,1,03,1","00,1,+99999,9,99,9","00,99,1,00,1,00,1,99999,9,00,1,00,1",,,"99999,9,09827,1","2,1,007,1,+999,9",,"02,1","SYN076AAXX  11031 01442 41989 00000 11017 21032 39827 40089 52007 70200 333 4////;",
"01442099999","2010-05-11T06:00:00","4","58.6666666","7.8","211.0","BYGLANDSFJORD, NO","FM-12","99999","V020","110,1,N,0030,1","22000,1,9,N","075000,1,N,1","+0006,1","-0031,1","10136,1","12,0000,9,1","24,0000,9,1",,"0,1,06,1","0,1,06,1","00,1,+99999,9,99,9","00,99,1,00,1,00,1,99999,9,00,1,00,1",,"999,N,-0022,1","99999,9,09875,1","2,1,007,1,+999,9",,"02,1","SYN094AAXX  11061 01442 11989 01103 10006 21031 39875 40136 52007 60002 70200 333 21022 4//// 70000;","Q01  00002PRCP24Q02  00002PRCP12"
"01442099999","2010-05-11T09:00:00","4","58.6666666","7.8","211.0","BYGLANDSFJORD, NO","FM-12","99999","V020","010,1,N,0030,1","22000,1,9,N","075000,1,N,1","+0063,1","-0036,1","10094,1",,,,"0,1,03,1","0,1,03,1",,"03,99,1,03,1,01,1,01750,1,00,1,00,1",,,"99999,9,09838,1","2,1,030,1,+999,9",,"03,1","SYN082AAXX  11091 01442 41789 30103 10063 21036 39838 40094 52030 70300 83100 333 4////;",
"01442099999","2010-05-11T12:00:00","4","58.6666666","7.8","211.0","BYGLANDSFJORD, NO","FM-12","99999","V020","080,1,N,0030,1","22000,1,9,N","075000,1,N,1","+0084,1","-0017,1","10095,1",,,,"0,1,06,1","0,1,06,1",,"04,99,1,04,1,02,1,01750,1,00,1,00,1",,,"99999,9,09841,1","3,1,001,1,+999,9",,"03,1","SYN088AAXX  11121 01442 11789 40803 10084 21017 39841 40095 53001 6//// 70300 84200 333 4////;",
"01442099999","2010-05-11T15:00:00","4","58.6666666","7.8","211.0","BYGLANDSFJORD, NO","FM-12","99999","V020","350,1,N,0050,1","01200,1,9,N","075000,1,N,1","+0073,1","-0032,1","10102,1",,,,"8,1,03,1","1,1,03,1",,"07,99,1,07,1,09,1,01250,1,00,1,03,1",,,"99999,9,09847,1","3,1,007,1,+999,9",,"26,1","SYN082AAXX  11151 01442 41689 73505 10073 21032 39847 40102 53007 72681 87903 333 4////;",
"01442099999","2010-05-11T18:00:00","4","58.6666666","7.8","211.0","BYGLANDSFJORD, NO","FM-12","99999","V020","270,1,N,0050,1","22000,1,9,N","075000,1,N,1","+0086,1","-0049,1","10112,1","12,0000,2,1",,,"8,1,06,1","1,1,06,1",,"02,99,1,02,1,02,1,01250,1,06,1,00,1",,"120,M,+0105,1","99999,9,09857,1","1,1,011,1,+999,9",,"01,1","SYN094AAXX  11181 01442 11689 22705 10086 21049 39857 40112 51011 69912 70181 82260 333 10105 4////;",
"01442099999","2010-05-12T03:00:00","4","58.6666666","7.8","211.0","BYGLANDSFJORD, NO","FM-12","99999","V020","999,9,C,0000,1","22000,1,9,N","075000,1,N,1","-0023,1","-0029,1","10157,1",,,,"0,1,03,1","0,1,03,1","00,1,+99999,9,99,9","00,99,1,00,1,00,1,99999,9,00,1,00,1",,,"99999,9,09893,1","3,1,009,1,+999,9",,"02,1","SYN076AAXX  12031 01442 41989 00000 11023 21029 39893 40157 53009 70200 333 4////;",
"01442099999","2010-05-12T06:00:00","4","58.6666666","7.8","211.0","BYGLANDSFJORD, NO","FM-12","99999","V020","340,1,N,0030,1","22000,1,9,N","075000,1,N,1","+0020,1","-0019,1","10163,1","12,0000,9,1","24,0000,2,1",,"0,1,06,1","0,1,06,1","00,1,+99999,9,99,9","00,99,1,00,1,00,1,99999,9,00,1,00,1",,"999,N,-0023,1","99999,9,09902,1","2,1,008,1,+999,9",,"02,1","SYN094AAXX  12061 01442 11989 03403 10020 21019 39902 40163 52008 60002 70200 333 21023 4//// 70001;","Q01  00002PRCP12"
"01442099999","2010-05-12T09:00:00","4","58.6666666","7.8","211.0","BYGLANDSFJORD, NO","FM-12","99999","V020","340,1,N,0050,1","22000,1,9,N","075000,1,N,1","+0076,1","-0030,1","10154,1",,,,"0,1,03,1","0,1,03,1",,"01,99,1,01,1,01,1,01750,1,00,1,02,1",,,"99999,9,09897,1","7,1,004,1,+999,9",,"03,1","SYN082AAXX  12091 01442 41789 13405 10076 21030 39897 40154 57004 70300 81102 333 4////;",
"01442099999","2010-05-12T12:00:00","4","58.6666666","7.8","211.0","BYGLANDSFJORD, NO","FM-12","99999","V020","280,1,N,0050,1","99999,9,9,N","075000,1,N,1","+0122,1","-0067,1","10137,1",,,,"1,1,06,1","0,1,06,1",,"07,99,1,00,1,00,1,99999,9,00,1,06,1",,,"99999,9,09886,1","7,1,012,1,+999,9",,"03,1","SYN088AAXX  12121 01442 11989 72805 10122 21067 39886 40137 57012 6//// 70310 80006 333 4////;",
"01442099999","2010-05-12T15:00:00","4","58.6666666","7.8","211.0","BYGLANDSFJORD, NO","FM-12","99999","V020","150,1,N,0070,1","03000,1,9,N","075000,1,N,1","+0121,1","-0029,1","10129,1",,,,"2,1,03,1","2,1,03,1",,"08,99,1,01,1,01,1,01750,1,01,1,99,9",,,"99999,9,09877,1","7,1,008,1,+999,9",,"03,1","SYN082AAXX  12151 01442 41789 81507 10121 21029 39877 40129 57008 70322 8111/ 333 4////;",
"01442099999","2010-05-12T18:00:00","4","58.6666666","7.8","211.0","BYGLANDSFJORD, NO","FM-12","99999","V020","150,1,N,0050,1","99999,9,9,N","075000,1,N,1","+0101,1","-0025,1","10130,1","12,0000,9,1",,,"2,1,06,1","2,1,06,1",,"07,99,1,00,1,00,1,99999,9,00,1,08,1",,"120,M,+0131,1","99999,9,09877,1","0,1,001,1,+999,9",,"01,1","SYN094AAXX  12181 01442 11989 71505 10101 21025 39877 40130 50001 60002 70122 80008 333 10131 4////;","Q01  00002PRCP12"
"01442099999","2010-05-13T03:00:00","4","58.6666666","7.8","211.0","BYGLANDSFJORD, NO","FM-12","99999","V020","350,1,N,0050,1","03000,1,9,N","075000,1,N,1","+0057,1","+0016,1","10111,1",,,,"6,1,03,1","2,1,03,1",,"08,99,1,01,1,01,1,00800,1,07,1,99,9",,,"99999,9,09855,1","8,1,011,1,+999,9",,"02,1","SYN082AAXX  13031 01442 41589 83505 10057 20016 39855 40111 58011 70262 8117/ 333 4////;",
"01442099999","2010-05-13T06:00:00","4","58.6666666","7.8","211.0","BYGLANDSFJORD, NO","FM-12","99999","V020","340,1,N,0050,1","01500,1,9,N","075000,1,N,1","+0061,1","+0016,1","10107,1","12,0000,9,1","24,0000,9,1",,"6,1,06,1","2,1,06,1",,"08,99,1,08,1,00,1,01750,1,07,1,99,9",,"999,N,+0053,1","99999,9,09851,1","7,1,004,1,+999,9",,"02,1","SYN100AAXX  13061 01442 11789 83405 10061 20016 39851 40107 57004 69912 70262 8807/ 333 20053 4//// 70001;","Q01  00002PRCP24Q02  00002PRCP12"
"01442099999","2010-05-13T09:00:00","4","58.6666666","7.8","211.0","BYGLANDSFJORD, NO","FM-12","99999","V020","340,1,N,0030,1","01200,1,9,N","075000,1,N,1","+0074,1","+0013,1","10103,1",,,,"2,1,03,1","2,1,03,1",,"08,99,1,08,1,05,1,01250,1,99,9,99,9",,,"99999,9,09847,1","7,1,003,1,+999,9",,"03,1","SYN082AAXX  13091 01442 41689 83403 10074 20013 39847 40103 57003 70322 885// 333 4////;",
"01442099999","2010-05-13T12:00:00","4","58.6666666","7.8","211.0","BYGLANDSFJORD, NO","FM-12","99999","V020","330,1,N,0050,1","01200,1,9,N","075000,1,N,1","+0104,1","+0013,1","10095,1",,,,"2,1,06,1","2,1,06,1",,"07,99,1,07,1,05,1,01250,1,00,1,00,1",,,"99999,9,09842,1","7,1,005,1,+999,9",,"01,1","SYN088AAXX  13121 01442 11689 73305 10104 20013 39842 40095 57005 6//// 70122 87500 333 4////;",
"01442099999","2010-05-13T18:00:00","4","58.6666666","7.8","211.0","BYGLANDSFJORD, NO","FM-12","99999","V020","170,1,N,0030,1","01500,1,9,N","075000,1,N,1","+0120,1","+0022,1","10085,1","12,0000,9,1",,,"2,1,06,1","2,1,06,1",,"07,99,1,07,1,00,1,01750,1,07,1,00,1",,"120,M,+0126,1","99999,9,09835,1","7,1,004,1,+999,9",,"01,1","SYN094AAXX  13181 01442 11789 71703 10120 20022 39835 40085 57004 60002 70122 87070 333 10126 4////;","Q01  00002PRCP12"
"01442099999","2010-05-14T03:00:00","4","58.6666666","7.8","211.0","BYGLANDSFJORD, NO","FM-12","99999","V020","340,1,N,0030,1","01500,1,9,N","075000,1,N,1","+0066,1","+0046,1","10101,1",,,,"2,1,03,1","2,1,03,1",,"08,99,1,08,1,00,1,01750,1,07,1,99,9",,,"99999,9,09846,1","8,1,004,1,+999,9",,"02,1","SYN082AAXX  14031 01442 41789 83403 10066 20046 39846 40101 58004 70222 8807/ 333 4////;",
"01442099999","2010-05-14T06:00:00","4","58.6666666","7.8","211.0","BYGLANDSFJORD, NO","FM-12","99999","V020","010,1,N,0030,1","01200,1,9,N","075000,1,N,1","+0077,1","+0043,1","10102,1","12,0000,9,1","24,0000,9,1",,"2,1,06,1","2,1,06,1",,"08,99,1,08,1,05,1,01250,1,99,9,99,9",,"999,N,+0066,1","99999,9,09847,1","2,1,002,1,+999,9",,"02,1","SYN100AAXX  14061 01442 11689 80103 10077 20043 39847 40102 52002 60002 70222 885// 333 20066 4//// 70000;","Q01  00002PRCP24Q02  00002PRCP12"
"01442099999","2010-05-14T09:00:00","4","58.6666666","7.8","211.0","BYGLANDSFJORD, NO","FM-12","99999","V020","010,1,N,0030,1","01500,1,9,N","075000,1,N,1","+0105,1","+0042,1","10097,1",,,,"2,1,03,1","2,1,03,1",,"07,99,1,07,1,08,1,01250,1,00,1,00,1",,,"99999,9,09845,1","7,1,002,1,+999,9",,"03,1","SYN082AAXX  14091 01442 41689 70103 10105 20042 39845 40097 57002 70322 87800 333 4////;",
"01442099999","2010-05-14T12:00:00","4","58.6666666","7.8","211.0","BYGLANDSFJORD, NO","FM-12","99999","V020","350,1,N,0050,1","22000,1,9,N","075000,1,N,1","+0157,1","+0015,1","10085,1",,,,"2,1,06,1","1,1,06,1",,"03,99,1,02,1,02,1,01250,1,03,1,00,1",,,"99999,9,09837,1","7,1,007,1,+999,9",,"01,1","SYN088AAXX  14121 01442 11689 33505 10157 20015 39837 40085 57007 6//// 70121 82230 333 4////;",
"01442099999","2010-05-14T15:00:00","4","58.6666666","7.8","211.0","BYGLANDSFJORD, NO","FM-12","99999","V020","320,1,N,0030,1","22000,1,9,N","075000,1,N,1","+0175,1","+0015,1","10074,1",,,,"0,1,03,1","0,1,03,1",,"03,99,1,01,1,01,1,01750,1,00,1,01,1",,,"99999,9,09828,1","7,1,009,1,+999,9",,"01,1","SYN082AAXX  14151 01442 41789 33203 10175 20015 39828 40074 57009 70100 81101 333 4////;",
"01442099999","2010-05-14T18:00:00","4","58.6666666","7.8","211.0","BYGLANDSFJORD, NO","FM-12","99999","V020","350,1,N,0050,1","99999,9,9,N","075000,1,N,1","+0166,1","+0011,1","10072,1","12,0000,9,1",,,"1,1,06,1","0,1,06,1",,"07,99,1,00,1,00,1,99999,9,00,1,06,1",,"120,M,+0179,1","99999,9,09826,1","7,1,003,1,+999,9",,"03,1","SYN094AAXX  14181 01442 11989 73505 10166 20011 39826 40072 57003 60002 70310 80006 333 10179 4////;","Q01  00002PRCP12"
"01442099999","2010-05-15T03:00:00","4","58.6666666","7.8","211.0","BYGLANDSFJORD, NO","FM-12","99999","V020","340,1,N,0050,1","07500,1,9,N","075000,1,N,1","+0079,1","+0024,1","10094,1",,,,"2,1,03,1","2,1,03,1",,"05,99,1,04,1,00,1,01750,1,03,1,02,1",,,"99999,9,09840,1","7,1,003,1,+999,9",,"02,1","SYN082AAXX  15031 01442 41789 53405 10079 20024 39840 40094 57003 70222 84032 333 4////;",
"01442099999","2010-05-15T06:00:00","4","58.6666666","7.8","211.0","BYGLANDSFJORD, NO","FM-12","99999","V020","340,1,N,0050,1","22000,1,9,N","075000,1,N,1","+0093,1","+0022,1","10085,1","12,0000,9,1","24,0000,9,1",,"2,1,06,1","1,1,06,1",,"01,99,1,00,1,00,1,99999,9,00,1,01,1",,"999,N,+0069,1","99999,9,09832,1","7,1,007,1,+999,9",,"01,1","SYN100AAXX  15061 01442 11989 13405 10093 20022 39832 40085 57007 60002 70121 80001 333 20069 4//// 70000;","Q01  00002PRCP24Q02  00002PRCP12"
"01442099999","2010-05-15T09:00:00","4","58.6666666","7.8","211.0","BYGLANDSFJORD, NO","FM-12","99999","V020","350,1,N,0050,1","07500,1,9,N","075000,1,N,1","+0128,1","+0029,1","10072,1",,,,"1,1,03,1","0,1,03,1",,"07,99,1,01,1,01,1,01750,1,00,1,06,1",,,"99999,9,09822,1","7,1,010,1,+999,9",,"03,1","SYN082AAXX  15091 01442 41789 73505 10128 20029 39822 40072 57010 70310 81106 333 4////;",
"01442099999","2010-05-15T12:00:00","4","58.6666666","7.8","211.0","BYGLANDSFJORD, NO","FM-12","99999","V020","010,1,N,0030,1","01500,1,9,N","075000,1,N,1","+0173,1","+0053,1","10052,1",,,,"2,1,06,1","1,1,06,1",,"08,99,1,08,1,00,1,01750,1,07,1,99,9",,,"99999,9,09807,1","6,1,016,1,+999,9",,"03,1","SYN088AAXX  15121 01442 11789 80103 10173 20053 39807 40052 56016 6//// 70321 8807/ 333 4////;",
"01442099999","2010-05-15T15:00:00","4","58.6666666","7.8","211.0","BYGLANDSFJORD, NO","FM-12","99999","V020","010,1,N,0030,1","01500,1,9,N","075000,1,N,1","+0162,1","+0082,1","10047,1",,,,"2,1,03,1","2,1,03,1",,"08,99,1,08,1,00,1,01750,1,07,1,99,9",,,"99999,9,09801,1","7,1,006,1,+999,9",,"03,1","SYN082AAXX  15151 01442 41789 80103 10162 20082 39801 40047 57006 70322 8807/ 333 4////;",
"01442099999","2010-05-15T18:00:00","4","58.6666666","7.8","211.0","BYGLANDSFJORD, NO","FM-12","99999","V020","350,1,N,0030,1","03000,1,9,N","010000,1,N,1","+0119,1","+0108,1","10048,1","12,0061,9,1",,,"6,1,06,1","2,1,06,1",,"08,99,1,03,1,07,1,00450,1,02,1,99,9",,"120,M,+0172,1","99999,9,09798,1","8,1,002,1,+999,9",,"63,1","SYN094AAXX  15181 01442 11460 83503 10119 20108 39798 40048 58002 60062 76362 8372/ 333 10172 4////;",
"01442099999","2010-05-16T03:00:00","4","58.6666666","7.8","211.0","BYGLANDSFJORD, NO","FM-12","99999","V020","010,1,N,0030,1","00120,1,9,N","070000,1,N,1","+0103,1","+0063,1","10014,1",,,,"6,1,03,1","2,1,03,1",,"08,99,1,08,1,05,1,00150,1,99,9,99,9",,,"99999,9,09763,1","7,1,005,1,+999,9",,"21,1","SYN082AAXX  16031 01442 41288 80103 10103 20063 39763 40014 57005 72162 885// 333 4////;",
"01442099999","2010-05-16T06:00:00","4","58.6666666","7.8","211.0","BYGLANDSFJORD, NO","FM-12","99999","V020","010,1,N,0030,1","00060,1,9,N","005000,1,N,1","+0102,1","+0099,1","10006,1","12,0099,9,1","24,0155,9,1",,"6,1,06,1","2,1,06,1",,"08,99,1,08,1,06,1,00075,1,99,9,99,9",,"999,N,+0102,1","99999,9,09756,1","7,1,008,1,+999,9",,"63,1","SYN100AAXX  16061 01442 11150 80103 10102 20099 39756 40006 57008 60102 76362 886// 333 20102 4//// 70155;",
"01442099999","2010-05-16T09:00:00","4","58.6666666","7.8","211.0","BYGLANDSFJORD, NO","FM-12","99999","V020","030,1,N,0030,1","00060,1,9,N","003000,1,N,1","+0114,1","+0111,1","10012,1",,,,"6,1,03,1","6,1,03,1",,"08,99,1,08,1,06,1,00075,1,99,9,99,9",,,"99999,9,09762,1","3,1,007,1,+999,9",,"63,1","SYN082AAXX  16091 01442 41130 80303 10114 20111 39762 40012 53007 76366 886// 333 4////;",
"01442099999","2010-05-16T12:00:00","4","58.6666666","7.8","211.0","BYGLANDSFJORD, NO","FM-12","99999","V020","150,1,N,0030,1","00900,1,9,N","070000,1,N,1","+0131,1","+0110,1","10021,1",,,,"6,1,06,1","2,1,06,1",,"08,99,1,08,1,08,1,00450,1,99,9,99,9",,,"99999,9,09772,1","2,1,010,1,+999,9",,"21,1","SYN088AAXX  16121 01442 11488 81503 10131 20110 39772 40021 52010 6//// 72162 888// 333 4////;",
"01442099999","2010-05-16T18:00:00","4","58.6666666","7.8","211.0","BYGLANDSFJORD, NO","FM-12","99999","V020","180,1,N,0030,1","00210,1,9,N","003000,1,N,1","+0105,1","+0097,1","10053,1","12,0130,9,1",,,"6,1,06,1","2,1,06,1",,"08,99,1,08,1,05,1,00250,1,99,9,99,9",,"120,M,+0131,1","99999,9,09802,1","3,1,017,1,+999,9",,"50,1","SYN094AAXX  16181 01442 11330 81803 10105 20097 39802 40053 53017 60132 75062 885// 333 10131 4////;",
"01442099999","2010-05-17T03:00:00","4","58.6666666","7.8","211.0","BYGLANDSFJORD, NO","FM-12","99999","V020","330,1,N,0010,1","03000,1,9,N","060000,1,N,1","+0076,1","+0070,1","10097,1",,,,"6,1,03,1","2,1,03,1",,"08,99,1,01,1,07,1,00800,1,02,1,99,9",,,"99999,9,09842,1","3,1,011,1,+999,9",,"60,1","SYN082AAXX  17031 01442 41586 83301 10076 20070 39842 40097 53011 76062 8172/ 333 4////;",
"01442099999","2010-05-17T06:00:00","4","58.6666666","7.8","211.0","BYGLANDSFJORD, NO","FM-12","99999","V020","340,1,N,0030,1","03000,1,9,N","050000,1,N,1","+0076,1","+0070,1","10110,1","12,0030,9,1","24,0163,9,1",,"6,1,06,1","2,1,06,1",,"08,99,1,03,1,07,1,00450,1,02,1,99,9",,"999,N,+0074,1","99999,9,09855,1","3,1,012,1,+999,9",,"60,1","SYN100AAXX  17061 01442 11484 83403 10076 20070 39855 40110 53012 60032 76062 8372/ 333 20074 4//// 70162;",
"01442099999","2010-05-17T09:00:00","4","58.6666666","7.8","211.0","BYGLANDSFJORD, NO","FM-12","99999","V020","340,1,N,0050,1","00420,1,9,N","075000,1,N,1","+0089,1","+0062,1","10125,1",,,,"6,1,03,1","2,1,03,1",,"08,99,1,08,1,05,1,00450,1,99,9,99,9",,,"99999,9,09871,1","2,1,016,1,+999,9",,"02,1","SYN082AAXX  17091 01442 41489 83405 10089 20062 39871 40125 52016 70262 885// 333 4////;",
"01442099999","2010-05-17T12:00:00","4","58.6666666","7.8","211.0","BYGLANDSFJORD, NO","FM-12","99999","V020","340,1,N,0030,1","00750,1,9,N","075000,1,N,1","+0100,1","+0064,1","10139,1",,,,"6,1,06,1","2,1,06,1",,"08,99,1,08,1,05,1,00800,1,99,9,99,9",,,"99999,9,09886,1","1,1,015,1,+999,9",,"02,1","SYN088AAXX  17121 01442 11589 83403 10100 20064 39886 40139 51015 6//// 70262 885// 333 4////;",
"01442099999","2010-05-17T15:00:00","4","58.6666666","7.8","211.0","BYGLANDSFJORD, NO","FM-12","99999","V020","320,1,N,0030,1","00750,1,9,N","075000,1,N,1","+0113,1","+0074,1","10151,1",,,,"2,1,03,1","2,1,03,1",,"08,99,1,08,1,05,1,00800,1,99,9,99,9",,,"99999,9,09898,1","2,1,013,1,+999,9",,"02,1","SYN082AAXX  17151 01442 41589 83203 10113 20074 39898 40151 52013 70222 885// 333 4////;",
"01442099999","2010-05-17T18:00:00","4","58.6666666","7.8","211.0","BYGLANDSFJORD, NO","FM-12","99999","V020","350,1,N,0050,1","01200,1,9,N","075000,1,N,1","+0114,1","+0057,1","10160,1","12,0005,9,1",,,"2,1,06,1","2,1,06,1",,"08,99,1,08,1,05,1,01250,1,99,9,99,9",,"120,M,+0120,1","99999,9,09907,1","3,1,008,1,+999,9",,"01,1","SYN094AAXX  17181 01442 11689 83505 10114 20057 39907 40160 53008 69942 70122 885// 333 10120 4////;",
"01442099999","2010-05-18T03:00:00","4","58.6666666","7.8","211.0","BYGLANDSFJORD, NO","FM-12","99999","V020","350,1,N,0050,1","01500,1,9,N","075000,1,N,1","+0072,1","+0040,1","10195,1",,,,"2,1,03,1","2,1,03,1",,"07,99,1,07,1,00,1,01750,1,07,1,00,1",,,"99999,9,09937,1","2,1,003,1,+999,9",,"02,1","SYN082AAXX  18031 01442 41789 73505 10072 20040 39937 40195 52003 70222 87070 333 4////;",
"01442099999","2010-05-18T06:00:00","4","58.6666666","7.8","211.0","BYGLANDSFJORD, NO","FM-12","99999","V020","330,1,N,0050,1","01500,1,9,N","075000,1,N,1","+0087,1","+0043,1","10206,1","12,0000,9,1","24,0005,9,1",,"2,1,06,1","2,1,06,1",,"07,99,1,07,1,00,1,01750,1,07,1,01,1",,"999,N,+0066,1","99999,9,09950,1","2,1,012,1,+999,9",,"01,1","SYN100AAXX  18061 01442 11789 73305 10087 20043 39950 40206 52012 60002 70122 87071 333 20066 4//// 70004;","Q01  00002PRCP12"
"01442099999","2010-05-18T09:00:00","4","58.6666666","7.8","211.0","BYGLANDSFJORD, NO","FM-12","99999","V020","340,1,N,0050,1","22000,1,9,N","075000,1,N,1","+0144,1","+0047,1","99999,9",,,,"1,1,03,1","1,1,03,1",,"03,99,1,02,1,02,1,01250,1,06,1,01,1",,,,"2,1,005,1,+999,9",,"03,1","SYN082AAXX  18091 01442 41689 33405 10144 20047 39855 40104 52005 70311 82261 333 4////;","Q01+098553APOSP "
"01442099999","2010-05-18T12:00:00","4","58.6666666","7.8","211.0","BYGLANDSFJORD, NO","FM-12","99999","V020","340,1,N,0050,1","22000,1,9,N","075000,1,N,1","+0177,1","+0043,1","10197,1",,,,"1,1,06,1","1,1,06,1",,"03,99,1,01,1,02,1,01750,1,06,1,01,1",,,"99999,9,09948,1","7,1,006,1,+999,9",,"01,1","SYN088AAXX  18121 01442 11789 33405 10177 20043 39948 40197 57006 6//// 70111 81261 333 4////;",
"01442099999","2010-05-18T15:00:00","4","58.6666666","7.8","211.0","BYGLANDSFJORD, NO","FM-12","99999","V020","350,1,N,0030,1","22000,1,9,N","075000,1,N,1","+0204,1","+0032,1","10201,1",,,,"0,1,03,1","0,1,03,1",,"02,99,1,01,1,02,1,01750,1,06,1,01,1",,,"99999,9,09955,1","2,1,006,1,+999,9",,"01,1","SYN082AAXX  18151 01442 41789 23503 10204 20032 39955 40201 52006 70100 81261 333 4////;",
"01442099999","2010-05-18T18:00:00","4","58.6666666","7.8","211.0","BYGLANDSFJORD, NO","FM-12","99999","V020","150,1,N,0030,1","22000,1,9,N","075000,1,N,1","+0185,1","+0060,1","10207,1","12,0000,9,1",,,"0,1,06,1","0,1,06,1",,"01,99,1,01,1,01,1,01750,1,06,1,00,1",,"120,M,+0206,1","99999,9,09958,1","3,1,004,1,+999,9",,"01,1","SYN094AAXX  18181 01442 11789 11503 10185 20060 39958 40207 53004 60002 70100 81160 333 10206 4////;","Q01  00002PRCP12"
"01442099999","2010-05-19T03:00:00","4","58.6666666","7.8","211.0","BYGLANDSFJORD, NO","FM-12","99999","V020","330,1,N,0050,1","01500,1,9,N","075000,1,N,1","+0115,1","+0070,1","10240,1",,,,"1,1,03,1","1,1,03,1",,"08,99,1,08,1,00,1,01750,1,07,1,99,9",,,"99999,9,09986,1","2,1,004,1,+999,9",,"03,1","SYN082AAXX  19031 01442 41789 83305 10115 20070 39986 40240 52004 70311 8807/ 333 4////;",
"01442099999","2010-05-19T06:00:00","4","58.6666666","7.8","211.0","BYGLANDSFJORD, NO","FM-12","99999","V020","340,1,N,0050,1","01500,1,9,N","075000,1,N,1","+0127,1","+0070,1","10242,1","12,0000,9,1","24,0000,9,1",,"2,1,06,1","1,1,06,1",,"07,99,1,07,1,00,1,01750,1,07,1,00,1",,"999,N,+0100,1","99999,9,09988,1","2,1,003,1,+999,9",,"01,1","SYN100AAXX  19061 01442 11789 73405 10127 20070 39988 40242 52003 60002 70121 87070 333 20100 4//// 70000;","Q01  00002PRCP24Q02  00002PRCP12"
"01442099999","2010-05-19T09:00:00","4","58.6666666","7.8","211.0","BYGLANDSFJORD, NO","FM-12","99999","V020","350,1,N,0050,1","03000,1,9,N","075000,1,N,1","+0153,1","+0074,1","10239,1",,,,"2,1,03,1","2,1,03,1",,"07,99,1,01,1,01,1,01750,1,07,1,00,1",,,"99999,9,09987,1","7,1,001,1,+999,9",,"03,1","SYN082AAXX  19091 01442 41789 73505 10153 20074 39987 40239 57001 70322 81170 333 4////;",
"01442099999","2010-05-19T12:00:00","4","58.6666666","7.8","211.0","BYGLANDSFJORD, NO","FM-12","99999","V020","340,1,N,0030,1","03000,1,9,N","075000,1,N,1","+0195,1","+0094,1","10231,1",,,,"2,1,06,1","2,1,06,1",,"07,99,1,01,1,01,1,01750,1,07,1,00,1",,,"99999,9,09983,1","8,1,004,1,+999,9",,"01,1","SYN088AAXX  19121 01442 11789 73403 10195 20094 39983 40231 58004 6//// 70122 81170 333 4////;",
"01442099999","2010-05-19T15:00:00","4","58.6666666","7.8","211.0","BYGLANDSFJORD, NO","FM-12","99999","V020","340,1,N,0050,1","01200,1,9,N","075000,1,N,1","+0231,1","+0095,1","10219,1",,,,"1,1,03,1","1,1,03,1",,"07,99,1,05,1,02,1,01250,1,06,1,01,1",,,"99999,9,09975,1","7,1,009,1,+999,9",,"03,1","SYN082AAXX  19151 01442 41689 73405 10231 20095 39975 40219 57009 70311 85261 333 4////;",
"01442099999","2010-05-19T18:00:00","4","58.6666666","7.8","211.0","BYGLANDSFJORD, NO","FM-12","99999","V020","350,1,N,0030,1","22000,1,9,N","075000,1,N,1","+0205,1","+0122,1","10218,1","12,0000,9,1",,,"1,1,06,1","1,1,06,1",,"04,99,1,01,1,02,1,01250,1,06,1,09,1",,"120,M,+0234,1","99999,9,09972,1","7,1,003,1,+999,9",,"01,1","SYN094AAXX  19181 01442 11689 43503 10205 20122 39972 40218 57003 60002 70111 81269 333 10234 4////;","Q01  00002PRCP12"
"01442099999","2010-05-20T03:00:00","4","58.6666666","7.8","211.0","BYGLANDSFJORD, NO","FM-12","99999","V020","340,1,N,0050,1","22000,1,9,N","075000,1,N,1","+0117,1","+0089,1","10247,1",,,,"0,1,03,1","0,1,03,1",,"01,99,1,00,1,00,1,99999,9,00,1,01,1",,,"99999,9,09992,1","2,1,002,1,+999,9",,"02,1","SYN082AAXX  20031 01442 41989 13405 10117 20089 39992 40247 52002 70200 80001 333 4////;",
"01442099999","2010-05-20T06:00:00","4","58.6666666","7.8","211.0","BYGLANDSFJORD, NO","FM-12","99999","V020","010,1,N,0050,1","22000,1,9,N","075000,1,N,1","+0133,1","+0088,1","10250,1","12,0000,9,1","24,0000,9,1",,"0,1,06,1","0,1,06,1",,"01,99,1,00,1,00,1,99999,9,00,1,01,1",,"999,N,+0116,1","99999,9,09997,1","2,1,004,1,+999,9",,"02,1","SYN100AAXX  20061 01442 11989 10105 10133 20088 39997 40250 52004 60002 70200 80001 333 20116 4//// 70000;","Q01  00002PRCP24Q02  00002PRCP12"
"01442099999","2010-05-20T09:00:00","4","58.6666666","7.8","211.0","BYGLANDSFJORD, NO","FM-12","99999","V020","330,1,N,0030,1","01200,1,9,N","075000,1,N,1","+0166,1","+0091,1","10251,1",,,,"1,1,03,1","1,1,03,1",,"07,99,1,06,1,02,1,01250,1,06,1,01,1",,,"99999,9,10001,1","0,1,003,1,+999,9",,"03,1","SYN082AAXX  20091 01442 41689 73303 10166 20091 30001 40251 50003 70311 86261 333 4////;",
"01442099999","2010-05-20T12:00:00","4","58.6666666","7.8","211.0","BYGLANDSFJORD, NO","FM-12","99999","V020","170,1,N,0030,1","03000,1,9,N","075000,1,N,1","+0187,1","+0159,1","10239,1",,,,"8,1,06,1","1,1,06,1",,"05,99,1,04,1,09,1,00800,1,06,1,03,1",,,"99999,9,09991,1","8,1,010,1,+999,9",,"29,1","SYN088AAXX  20121 01442 11589 51703 10187 20159 39991 40239 58010 6//// 72981 84963 333 4////;",
"01442099999","2010-05-20T15:00:00","4","58.6666666","7.8","211.0","BYGLANDSFJORD, NO","FM-12","99999","V020","190,1,N,0070,1","00750,1,9,N","001000,1,N,1","+0186,1","+0121,1","10246,1",,,,"8,1,03,1","2,1,03,1",,"08,99,1,08,1,09,1,00800,1,99,9,99,9",,,"99999,9,09997,1","3,1,007,1,+999,9",,"95,1","SYN082AAXX  20151 01442 41510 81907 10186 20121 39997 40246 53007 79582 889// 333 4////;",
"01442099999","2010-05-20T18:00:00","4","58.6666666","7.8","211.0","BYGLANDSFJORD, NO","FM-12","99999","V020","350,1,N,0030,1","22000,1,9,N","075000,1,N,1","+0153,1","+0137,1","10246,1","12,0191,9,1",,,"9,1,06,1","8,1,06,1",,"04,99,1,01,1,02,1,00800,1,06,1,03,1",,"120,M,+0225,1","99999,9,09995,1",,,"01,1","SYN088AAXX  20181 01442 11589 43503 10153 20137 39995 40246 60192 70198 81263 333 10225 4////;",
"01442099999","2010-05-21T03:00:00","4","58.6666666","7.8","211.0","BYGLANDSFJORD, NO","FM-12","99999","V020","350,1,N,0050,1","00030,1,9,N","000200,1,N,1","+0114,1","+0114,1","10263,1",,,,"4,1,03,1","4,1,03,1","09,1,+99999,9,99,9","09,99,1,09,1,99,9,99999,9,99,9,99,9",,,"99999,9,10007,1","3,1,002,1,+999,9",,"45,1","SYN076AAXX  21031 01442 41/02 93505 10114 20114 30007 40263 53002 74544 333 4////;",
"01442099999","2010-05-21T06:00:00","4","58.6666666","7.8","211.0","BYGLANDSFJORD, NO","FM-12","99999","V020","030,1,N,0030,1","22000,1,9,N","075000,1,N,1","+0118,1","+0104,1","10266,1","12,0000,9,1","24,0185,9,1",,"4,1,06,1","0,1,06,1","00,1,+99999,9,99,9","00,99,1,00,1,00,1,99999,9,00,1,00,1",,"999,N,+0106,1","99999,9,10011,1","2,1,003,1,+999,9",,"02,1","SYN094AAXX  21061 01442 11989 00303 10118 20104 30011 40266 52003 60002 70240 333 20106 4//// 70185;","Q01  00002PRCP12"
"01442099999","2010-05-21T09:00:00","4","58.6666666","7.8","211.0","BYGLANDSFJORD, NO","FM-12","99999","V020","350,1,N,0050,1","22000,1,9,N","075000,1,N,1","+0157,1","+0109,1","10262,1",,,,"0,1,03,1","0,1,03,1",,"01,99,1,01,1,02,1,01750,1,00,1,00,1",,,"99999,9,10011,1","0,1,000,1,+999,9",,"03,1","SYN082AAXX  21091 01442 41789 13505 10157 20109 30011 40262 50000 70300 81200 333 4////;",
"01442099999","2010-05-21T12:00:00","4","58.6666666","7.8","211.0","BYGLANDSFJORD, NO","FM-12","99999","V020","340,1,N,0050,1","22000,1,9,N","075000,1,N,1","+0232,1","+0092,1","10244,1",,,,"0,1,06,1","0,1,06,1",,"02,99,1,02,1,02,1,01750,1,00,1,00,1",,,"99999,9,09998,1","7,1,012,1,+999,9",,"03,1","SYN088AAXX  21121 01442 11789 23405 10232 20092 39998 40244 57012 6//// 70300 82200 333 4////;",
"01442099999","2010-05-21T15:00:00","4","58.6666666","7.8","211.0","BYGLANDSFJORD, NO","FM-12","99999","V020","170,1,N,0050,1","22000,1,9,N","075000,1,N,1","+0234,1","+0136,1","10235,1",,,,"0,1,03,1","0,1,03,1",,"02,99,1,02,1,02,1,01750,1,06,1,00,1",,,"99999,9,09991,1","7,1,009,1,+999,9",,"01,1","SYN082AAXX  21151 01442 41789 21705 10234 20136 39991 40235 57009 70100 82260 333 4////;",
"01442099999","2010-05-21T18:00:00","4","58.6666666","7.8","211.0","BYGLANDSFJORD, NO","FM-12","99999","V020","170,1,N,0050,1","22000,1,9,N","075000,1,N,1","+0208,1","+0133,1","10237,1","12,0000,9,1",,,"0,1,06,1","0,1,06,1",,"01,99,1,01,1,02,1,01750,1,06,1,01,1",,"120,M,+0253,1","99999,9,09991,1","4,1,000,1,+999,9",,"01,1","SYN094AAXX  21181 01442 11789 11705 10208 20133 39991 40237 54000 60002 70100 81261 333 10253 4////;","Q01  00002PRCP12"
"01442099999","2010-05-22T03:00:00","4","58.6666666","7.8","211.0","BYGLANDSFJORD, NO","FM-12","99999","V020","350,1,N,0050,1","22000,1,9,N","075000,1,N,1","+0102,1","+0046,1","10262,1",,,,"0,1,03,1","0,1,03,1",,"01,99,1,01,1,00,1,99999,9,04,1,01,1",,,"99999,9,10006,1","3,1,002,1,+999,9",,"02,1","SYN082AAXX  22031 01442 41989 13505 10102 20046 30006 40262 53002 70200 81041 333 4////;",
"01442099999","2010-05-22T06:00:00","4","58.6666666","7.8","211.0","BYGLANDSFJORD, NO","FM-12","99999","V020","340,1,N,0050,1","22000,1,9,N","075000,1,N,1","+0120,1","+0045,1","10258,1","12,0000,9,1","24,0000,9,1",,"0,1,06,1","0,1,06,1",,"01,99,1,00,1,00,1,99999,9,00,1,01,1",,"999,N,+0101,1","99999,9,10003,1","8,1,002,1,+999,9",,"02,1","SYN100AAXX  22061 01442 11989 13405 10120 20045 30003 40258 58002 60002 70200 80001 333 20101 4//// 70000;","Q01  00002PRCP24Q02  00002PRCP12"
"01442099999","2010-05-22T09:00:00","4","58.6666666","7.8","211.0","BYGLANDSFJORD, NO","FM-12","99999","V020","340,1,N,0030,1","99999,9,9,N","075000,1,N,1","+0171,1","+0041,1","10245,1",,,,"1,1,03,1","0,1,03,1",,"07,99,1,00,1,00,1,99999,9,00,1,08,1",,,"99999,9,09995,1","8,1,008,1,+999,9",,"02,1","SYN082AAXX  22091 01442 41989 73403 10171 20041 39995 40245 58008 70210 80008 333 4////;",
"01442099999","2010-05-22T18:00:00","4","58.6666666","7.8","211.0","BYGLANDSFJORD, NO","FM-12","99999","V020","340,1,N,0050,1","02100,1,9,N","075000,1,N,1","+0189,1","+0091,1","10208,1","12,0000,9,1",,,"2,1,06,1","2,1,06,1",,"07,99,1,05,1,00,1,02250,1,07,1,08,1",,"120,M,+0246,1","99999,9,09961,1","8,1,007,1,+999,9",,"03,1","SYN094AAXX  22181 01442 11889 73405 10189 20091 39961 40208 58007 60002 70322 85078 333 10246 4////;","Q01  00002PRCP12"
"01442099999","2010-05-23T03:00:00","4","58.6666666","7.8","211.0","BYGLANDSFJORD, NO","FM-12","99999","V020","999,9,C,0000,1","22000,1,9,N","075000,1,N,1","+0127,1","+0095,1","10166,1",,,,"1,1,03,1","1,1,03,1",,"03,99,1,02,1,01,1,00800,1,00,1,01,1",,,"99999,9,09913,1","6,1,016,1,+999,9",,"01,1","SYN082AAXX  23031 01442 41589 30000 10127 20095 39913 40166 56016 70111 82101 333 4////;",
"01442099999","2010-05-23T06:00:00","4","58.6666666","7.8","211.0","BYGLANDSFJORD, NO","FM-12","99999","V020","020,1,N,0050,1","22000,1,9,N","075000,1,N,1","+0147,1","+0060,1","10154,1","12,0000,9,1","24,0000,9,1",,"1,1,06,1","0,1,06,1",,"01,99,1,01,1,01,1,01750,1,00,1,01,1",,"999,N,+0123,1","99999,9,09903,1","7,1,010,1,+999,9",,"01,1","SYN100AAXX  23061 01442 11789 10205 10147 20060 39903 40154 57010 60002 70110 81101 333 20123 4//// 70000;","Q01  00002PRCP24Q02  00002PRCP12"
"01442099999","2010-05-23T09:00:00","4","58.6666666","7.8","211.0","BYGLANDSFJORD, NO","FM-12","99999","V020","350,1,N,0070,1","22000,1,9,N","075000,1,N,1","+0172,1","+0032,1","10144,1",,,,"0,1,03,1","0,1,03,1",,"03,99,1,00,1,00,1,99999,9,00,1,02,1",,,"99999,9,09897,1","8,1,007,1,+999,9",,"03,1","SYN082AAXX  23091 01442 41989 33507 10172 20032 39897 40144 58007 70300 80002 333 4////;",
"01442099999","2010-05-23T12:00:00","4","58.6666666","7.8","211.0","BYGLANDSFJORD, NO","FM-12","99999","V020","330,1,N,0070,1","22000,1,9,N","075000,1,N,1","+0188,1","+0038,1","10132,1",,,,"0,1,06,1","0,1,06,1",,"02,99,1,00,1,00,1,99999,9,00,1,02,1",,,"99999,9,09886,1","7,1,011,1,+999,9",,"02,1","SYN088AAXX  23121 01442 11989 23307 10188 20038 39886 40132 57011 6//// 70200 80002 333 4////;",
"01442099999","2010-05-23T15:00:00","4","58.6666666","7.8","211.0","BYGLANDSFJORD, NO","FM-12","99999","V020","340,1,N,0070,1","22000,1,9,N","075000,1,N,1","+0179,1","+0027,1","10118,1",,,,"0,1,03,1","0,1,03,1",,"03,99,1,00,1,00,1,99999,9,00,1,02,1",,,"99999,9,09872,1","7,1,014,1,+999,9",,"02,1","SYN082AAXX  23151 01442 41989 33407 10179 20027 39872 40118 57014 70200 80002 333 4////;",
"01442099999","2010-05-23T18:00:00","4","58.6666666","7.8","211.0","BYGLANDSFJORD, NO","FM-12","99999","V020","340,1,N,0100,1","99999,9,9,N","075000,1,N,1","+0149,1","+0018,1","10110,1","12,0000,9,1",,,"1,1,06,1","0,1,06,1",,"07,99,1,00,1,00,1,99999,9,00,1,08,1",,"120,M,+0193,1","99999,9,09862,1","8,1,010,1,+999,9",,"03,1","SYN094AAXX  23181 01442 11989 73410 10149 20018 39862 40110 58010 60002 70310 80008 333 10193 4////;","Q01  00002PRCP12"
"01442099999","2010-05-24T03:00:00","4","58.6666666","7.8","211.0","BYGLANDSFJORD, NO","FM-12","99999","V020","999,9,C,0000,1","01500,1,9,N","075000,1,N,1","+0100,1","+0058,1","10069,1",,,,"2,1,03,1","2,1,03,1",,"07,99,1,07,1,00,1,01750,1,07,1,00,1",,,"99999,9,09817,1","7,1,020,1,+999,9",,"02,1","SYN082AAXX  24031 01442 41789 70000 10100 20058 39817 40069 57020 70222 87070 333 4////;",
"01442099999","2010-05-24T06:00:00","4","58.6666666","7.8","211.0","BYGLANDSFJORD, NO","FM-12","99999","V020","150,1,N,0030,1","01500,1,9,N","075000,1,N,1","+0101,1","+0032,1","10052,1","12,0000,9,1","24,0000,9,1",,"2,1,06,1","2,1,06,1",,"08,99,1,08,1,00,1,01750,1,07,1,99,9",,"999,N,+0097,1","99999,9,09801,1","7,1,017,1,+999,9",,"02,1","SYN100AAXX  24061 01442 11789 81503 10101 20032 39801 40052 57017 60002 70222 8807/ 333 20097 4//// 70000;","Q01  00002PRCP24Q02  00002PRCP12"
"01442099999","2010-05-24T09:00:00","4","58.6666666","7.8","211.0","BYGLANDSFJORD, NO","FM-12","99999","V020","270,1,N,0050,1","01200,1,9,N","075000,1,N,1","+0140,1","+0046,1","10027,1",,,,"2,1,03,1","2,1,03,1",,"06,99,1,05,1,02,1,01250,1,06,1,01,1",,,"99999,9,09780,1","8,1,021,1,+999,9",,"03,1","SYN082AAXX  24091 01442 41689 62705 10140 20046 39780 40027 58021 70322 85261 333 4////;",
"01442099999","2010-05-24T12:00:00","4","58.6666666","7.8","211.0","BYGLANDSFJORD, NO","FM-12","99999","V020","290,1,N,0070,1","03000,1,9,N","075000,1,N,1","+0131,1","+0029,1","10020,1",,,,"2,1,06,1","2,1,06,1",,"07,99,1,02,1,02,1,01250,1,06,1,08,1",,,"99999,9,09772,1","5,1,008,1,+999,9",,"01,1","SYN088AAXX  24121 01442 11689 72907 10131 20029 39772 40020 55008 6//// 70122 82268 333 4////;",
"01442099999","2010-05-24T15:00:00","4","58.6666666","7.8","211.0","BYGLANDSFJORD, NO","FM-12","99999","V020","320,1,N,0100,1","22000,1,9,N","075000,1,N,1","+0114,1","+0005,1","99999,9",,,,"1,1,03,1","1,1,03,1",,"01,99,1,01,1,02,1,01750,1,06,1,00,1",,,,"8,1,009,1,+999,9","3,0985,9","01,1","SYN082AAXX  24151 01442 41789 13210 10114 20005 38762 48985 58009 70111 81260 333 4////;","Q01+087623APOSP "
"01442099999","2010-05-24T18:00:00","4","58.6666666","7.8","211.0","BYGLANDSFJORD, NO","FM-12","99999","V020","340,1,N,0100,1","22000,1,9,N","075000,1,N,1","+0098,1","+0002,1","10005,1","12,0000,9,1",,,"1,1,06,1","0,1,06,1",,"01,99,1,01,1,02,1,01750,1,00,1,00,1",,"120,M,+0154,1","99999,9,09755,1","5,1,007,1,+999,9",,"01,1","SYN094AAXX  24181 01442 11789 13410 10098 20002 39755 40005 55007 60002 70110 81200 333 10154 4////;","Q01  00002PRCP12"
"01442099999","2010-05-25T03:00:00","4","58.6666666","7.8","211.0","BYGLANDSFJORD, NO","FM-12","99999","V020","340,1,N,0070,1","03000,1,9,N","075000,1,N,1","+0071,1","-0018,1","10012,1",,,,"1,1,03,1","1,1,03,1",,"06,99,1,04,1,02,1,01250,1,06,1,01,1",,,"99999,9,09758,1","2,1,005,1,+999,9",,"02,1","SYN082AAXX  25031 01442 41689 63407 10071 21018 39758 40012 52005 70211 84261 333 4////;",
"01442099999","2010-05-25T06:00:00","4","58.6666666","7.8","211.0","BYGLANDSFJORD, NO","FM-12","99999","V020","350,1,N,0050,1","22000,1,9,N","075000,1,N,1","+0086,1","-0020,1","10018,1","12,0000,9,1","24,0000,9,1",,"1,1,06,1","1,1,06,1",,"01,99,1,00,1,00,1,99999,9,00,1,02,1",,"999,N,+0065,1","99999,9,09767,1","1,1,007,1,+999,9",,"01,1","SYN100AAXX  25061 01442 11989 13505 10086 21020 39767 40018 51007 60002 70111 80002 333 20065 4//// 70000;","Q01  00002PRCP24Q02  00002PRCP12"
"01442099999","2010-05-25T09:00:00","4","58.6666666","7.8","211.0","BYGLANDSFJORD, NO","FM-12","99999","V020","340,1,N,0070,1","22000,1,9,N","075000,1,N,1","+0108,1","-0022,1","10024,1",,,,"0,1,03,1","0,1,03,1",,"03,99,1,03,1,02,1,01750,1,06,1,00,1",,,"99999,9,09773,1","3,1,007,1,+999,9",,"03,1","SYN082AAXX  25091 01442 41789 33407 10108 21022 39773 40024 53007 70300 83260 333 4////;",
"01442099999","2010-05-25T12:00:00","4","58.6666666","7.8","211.0","BYGLANDSFJORD, NO","FM-12","99999","V020","340,1,N,0070,1","22000,1,9,N","075000,1,N,1","+0121,1","-0025,1","10029,1",,,,"0,1,06,1","0,1,06,1",,"03,99,1,02,1,02,1,01750,1,06,1,01,1",,,"99999,9,09780,1","2,1,006,1,+999,9",,"01,1","SYN088AAXX  25121 01442 11789 33407 10121 21025 39780 40029 52006 6//// 70100 82261 333 4////;",
"01442099999","2010-05-25T15:00:00","4","58.6666666","7.8","211.0","BYGLANDSFJORD, NO","FM-12","99999","V020","330,1,N,0070,1","22000,1,9,N","075000,1,N,1","+0138,1","-0010,1","10033,1",,,,"0,1,03,1","0,1,03,1",,"01,99,1,01,1,02,1,01750,1,06,1,00,1",,,"99999,9,09786,1","3,1,006,1,+999,9",,"01,1","SYN082AAXX  25151 01442 41789 13307 10138 21010 39786 40033 53006 70100 81260 333 4////;",
"01442099999","2010-05-25T18:00:00","4","58.6666666","7.8","211.0","BYGLANDSFJORD, NO","FM-12","99999","V020","330,1,N,0070,1","22000,1,9,N","075000,1,N,1","+0104,1","-0004,1","10046,1","12,0000,9,1",,,"0,1,06,1","0,1,06,1",,"01,99,1,01,1,01,1,01750,1,00,1,00,1",,"120,M,+0142,1","99999,9,09795,1","2,1,009,1,+999,9",,"01,1","SYN094AAXX  25181 01442 11789 13307 10104 21004 39795 40046 52009 60002 70100 81100 333 10142 4////;","Q01  00002PRCP12"
"01442099999","2010-05-26T03:00:00","4","58.6666666","7.8","211.0","BYGLANDSFJORD, NO","FM-12","99999","V020","999,9,C,0000,1","22000,1,9,N","075000,1,N,1","+0037,1","-0001,1","10066,1",,,,"0,1,03,1","0,1,03,1","00,1,+99999,9,99,9","00,99,1,00,1,00,1,99999,9,00,1,00,1",,,"99999,9,09808,1","2,1,002,1,+999,9",,"02,1","SYN076AAXX  26031 01442 41989 00000 10037 21001 39808 40066 52002 70200 333 4////;",
"01442099999","2010-05-26T06:00:00","4","58.6666666","7.8","211.0","BYGLANDSFJORD, NO","FM-12","99999","V020","030,1,N,0050,1","22000,1,9,N","075000,1,N,1","+0074,1","-0018,1","10065,1","12,0000,9,1","24,0000,9,1",,"0,1,06,1","0,1,06,1","00,1,+99999,9,99,9","00,99,1,00,1,00,1,99999,9,00,1,00,1",,"999,N,+0037,1","99999,9,09811,1","2,1,002,1,+999,9",,"02,1","SYN094AAXX  26061 01442 11989 00305 10074 21018 39811 40065 52002 60002 70200 333 20037 4//// 70000;","Q01  00002PRCP24Q02  00002PRCP12"
"01442099999","2010-05-26T09:00:00","4","58.6666666","7.8","211.0","BYGLANDSFJORD, NO","FM-12","99999","V020","120,1,N,0030,1","22000,1,9,N","075000,1,N,1","+0107,1","-0013,1","10057,1",,,,"0,1,03,1","0,1,03,1",,"02,99,1,02,1,02,1,01750,1,00,1,01,1",,,"99999,9,09806,1","7,1,005,1,+999,9",,"03,1","SYN082AAXX  26091 01442 41789 21203 10107 21013 39806 40057 57005 70300 82201 333 4////;",
"01442099999","2010-05-26T12:00:00","4","58.6666666","7.8","211.0","BYGLANDSFJORD, NO","FM-12","99999","V020","330,1,N,0050,1","01200,1,9,N","075000,1,N,1","+0132,1","-0011,1","10048,1",,,,"1,1,06,1","0,1,06,1",,"07,99,1,05,1,02,1,01250,1,06,1,01,1",,,"99999,9,09800,1","7,1,006,1,+999,9",,"03,1","SYN088AAXX  26121 01442 11689 73305 10132 21011 39800 40048 57006 6//// 70310 85261 333 4////;",
"01442099999","2010-05-26T15:00:00","4","58.6666666","7.8","211.0","BYGLANDSFJORD, NO","FM-12","99999","V020","150,1,N,0070,1","00750,1,9,N","075000,1,N,1","+0124,1","+0014,1","10050,1",,,,"1,1,03,1","1,1,03,1",,"07,99,1,07,1,09,1,00800,1,00,1,00,1",,,"99999,9,09801,1","2,1,001,1,+999,9",,"03,1","SYN082AAXX  26151 01442 41589 71507 10124 20014 39801 40050 52001 70311 87900 333 4////;",
"01442099999","2010-05-26T18:00:00","4","58.6666666","7.8","211.0","BYGLANDSFJORD, NO","FM-12","99999","V020","010,1,N,0050,1","03000,1,9,N","075000,1,N,1","+0074,1","+0042,1","10064,1","12,0005,9,1",,,"8,1,06,1","1,1,06,1",,"05,99,1,03,1,02,1,00800,1,06,1,03,1",,"120,M,+0136,1","99999,9,09810,1","0,1,008,1,+999,9",,"25,1","SYN094AAXX  26181 01442 11589 50105 10074 20042 39810 40064 50008 69952 72581 83263 333 10136 4////;",
"01442099999","2010-05-27T03:00:00","4","58.6666666","7.8","211.0","BYGLANDSFJORD, NO","FM-12","99999","V020","999,9,C,0000,1","00120,1,9,N","075000,1,N,1","+0035,1","+0026,1","10071,1",,,,"1,1,03,1","1,1,03,1",,"08,99,1,08,1,06,1,00150,1,99,9,99,9",,,"99999,9,09813,1","4,1,000,1,+999,9",,"03,1","SYN082AAXX  27031 01442 41289 80000 10035 20026 39813 40071 54000 70311 886// 333 4////;",
"01442099999","2010-05-27T06:00:00","4","58.6666666","7.8","211.0","BYGLANDSFJORD, NO","FM-12","99999","V020","340,1,N,0050,1","22000,1,9,N","075000,1,N,1","+0046,1","+0021,1","10073,1","12,0000,2,1","24,0005,9,1",,"1,1,06,1","1,1,06,1",,"01,99,1,01,1,06,1,00450,1,00,1,01,1",,"999,N,+0029,1","99999,9,09817,1","2,1,003,1,+999,9",,"01,1","SYN100AAXX  27061 01442 11489 13405 10046 20021 39817 40073 52003 69912 70111 81601 333 20029 4//// 70006;",
"01442099999","2010-05-27T09:00:00","4","58.6666666","7.8","211.0","BYGLANDSFJORD, NO","FM-12","99999","V020","350,1,N,0050,1","22000,1,9,N","075000,1,N,1","+0090,1","+0032,1","10069,1",,,,"0,1,03,1","0,1,03,1",,"01,99,1,01,1,02,1,01750,1,00,1,00,1",,,"99999,9,09817,1","4,1,000,1,+999,9",,"03,1","SYN082AAXX  27091 01442 41789 13505 10090 20032 39817 40069 54000 70300 81200 333 4////;",
"01442099999","2010-05-27T12:00:00","4","58.6666666","7.8","211.0","BYGLANDSFJORD, NO","FM-12","99999","V020","999,9,9,9999,9","99999,9,9,N","999999,9,N,1","+9999,9","+9999,9","99999,9",,,,,,,,,,,,,,"SYN048AAXX  27121 01442 16/// ///// 1//// 2//// 6////;",
"01442099999","2010-05-27T15:00:00","4","58.6666666","7.8","211.0","BYGLANDSFJORD, NO","FM-12","99999","V020","999,9,9,9999,9","99999,9,9,N","999999,9,N,1","+9999,9","+9999,9","99999,9",,,,,,,,,,,,,,"SYN042AAXX  27151 01442 46/// ///// 1//// 2////;",
"01442099999","2010-05-27T18:00:00","4","58.6666666","7.8","211.0","BYGLANDSFJORD, NO","FM-12","99999","V020","170,1,N,0050,1","03000,1,9,N","075000,1,N,1","+0117,1","+0002,1","10071,1","12,0000,9,1",,,"1,1,06,1","1,1,06,1",,"07,99,1,02,1,02,1,01250,1,06,1,08,1",,"120,M,+0144,1","99999,9,09821,1","2,1,012,1,+999,9",,"01,1","SYN094AAXX  27181 01442 11689 71705 10117 20002 39821 40071 52012 60002 70111 82268 333 10144 4////;","Q01  00002PRCP12"
"01442099999","2010-05-28T03:00:00","4","58.6666666","7.8","211.0","BYGLANDSFJORD, NO","FM-12","99999","V020","999,9,C,0000,1","99999,9,9,N","075000,1,N,1","+0022,1","+0009,1","10092,1",,,,"2,1,03,1","2,1,03,1",,"07,99,1,00,1,00,1,99999,9,00,1,08,1",,,"99999,9,09832,1","4,1,000,1,+999,9",,"02,1","SYN082AAXX  28031 01442 41989 70000 10022 20009 39832 40092 54000 70222 80008 333 4////;",
"01442099999","2010-05-28T06:00:00","4","58.6666666","7.8","211.0","BYGLANDSFJORD, NO","FM-12","99999","V020","350,1,N,0030,1","07500,1,9,N","075000,1,N,1","+0051,1","+0028,1","10085,1","12,0000,9,1","24,0000,9,1",,"2,1,06,1","2,1,06,1",,"07,99,1,03,1,00,1,02250,1,03,1,08,1",,"999,N,+0020,1","99999,9,09828,1","7,1,004,1,+999,9",,"03,1","SYN100AAXX  28061 01442 11889 73503 10051 20028 39828 40085 57004 60002 70322 83038 333 20020 4//// 70000;","Q01  00002PRCP24Q02  00002PRCP12"
"01442099999","2010-05-28T09:00:00","4","58.6666666","7.8","211.0","BYGLANDSFJORD, NO","FM-12","99999","V020","310,1,N,0030,1","01200,1,9,N","075000,1,N,1","+0072,1","+0027,1","10085,1",,,,"8,1,03,1","2,1,03,1",,"08,99,1,08,1,09,1,01250,1,99,9,99,9",,,"99999,9,09831,1","3,1,002,1,+999,9",,"25,1","SYN072AAXX  28091 01442 41689 83103 10072 20027 39831 40085 53002 72582 889//;",
"01442099999","2010-05-28T12:00:00","4","58.6666666","7.8","211.0","BYGLANDSFJORD, NO","FM-12","99999","V020","300,1,N,0030,1","03000,1,9,N","075000,1,N,1","+0103,1","+0042,1","10073,1",,,,"8,1,06,1","2,1,06,1",,"06,99,1,04,1,02,1,01250,1,06,1,03,1",,,"99999,9,09822,1","8,1,009,1,+999,9",,"25,1","SYN078AAXX  28121 01442 11689 63003 10103 20042 39822 40073 58009 6//// 72582 84263;",
"01442099999","2010-05-28T15:00:00","4","58.6666666","7.8","211.0","BYGLANDSFJORD, NO","FM-12","99999","V020","330,1,N,0030,1","01200,1,9,N","075000,1,N,1","+0118,1","+0026,1","10062,1",,,,"2,1,03,1","2,1,03,1",,"07,99,1,06,1,09,1,01250,1,06,1,03,1",,,"99999,9,09812,1","6,1,010,1,+999,9",,"03,1","SYN072AAXX  28151 01442 41689 73303 10118 20026 39812 40062 56010 70322 86963;",
"01442099999","2010-05-28T18:00:00","4","58.6666666","7.8","211.0","BYGLANDSFJORD, NO","FM-12","99999","V020","150,1,N,0030,1","03000,1,9,N","075000,1,N,1","+0086,1","+0061,1","10075,1","12,0005,9,1",,,"8,1,06,1","2,1,06,1",,"05,99,1,03,1,02,1,00800,1,06,1,03,1",,"999,M,+0123,1","99999,9,09822,1","2,1,010,1,+999,9",,"25,1","SYN088AAXX  28181 01442 11589 51503 10086 20061 39822 40075 52010 69942 72582 83263 333 10123;",
"01442099999","2010-05-29T03:00:00","4","58.6666666","7.8","211.0","BYGLANDSFJORD, NO","FM-12","99999","V020","999,9,C,0000,1","00060,1,9,N","075000,1,N,1","+0021,1","+0015,1","10102,1",,,,"1,1,03,1","1,1,03,1",,"08,99,1,08,1,06,1,00075,1,99,9,99,9",,,"99999,9,09842,1","2,1,009,1,+999,9",,"03,1","SYN072AAXX  29031 01442 41189 80000 10021 20015 39842 40102 52009 70311 886//;",
"01442099999","2010-05-29T06:00:00","4","58.6666666","7.8","211.0","BYGLANDSFJORD, NO","FM-12","99999","V020","340,1,N,0030,1","22000,1,9,N","075000,1,N,1","+0056,1","+0041,1","10110,1","12,0000,2,1","24,0005,9,1",,"1,1,06,1","1,1,06,1",,"03,99,1,03,1,06,1,00150,1,00,1,00,1",,"999,N,+0020,1","99999,9,09853,1","1,1,011,1,+999,9",,"01,1","SYN094AAXX  29061 01442 11289 33403 10056 20041 39853 40110 51011 60002 70111 83600 333 20020 70004;",
"01442099999","2010-05-29T09:00:00","4","58.6666666","7.8","211.0","BYGLANDSFJORD, NO","FM-12","99999","V020","340,1,N,0030,1","22000,1,9,N","075000,1,N,1","+0116,1","+0034,1","10108,1",,,,"0,1,03,1","0,1,03,1",,"01,99,1,01,1,01,1,01750,1,00,1,00,1",,,"99999,9,09857,1","2,1,003,1,+999,9",,"03,1","SYN072AAXX  29091 01442 41789 13403 10116 20034 39857 40108 52003 70300 81100;",
"01442099999","2010-05-29T12:00:00","4","58.6666666","7.8","211.0","BYGLANDSFJORD, NO","FM-12","99999","V020","360,1,N,0030,1","22000,1,9,N","075000,1,N,1","+0151,1","+0006,1","10115,1",,,,"0,1,06,1","0,1,06,1",,"02,99,1,02,1,02,1,01750,1,00,1,00,1",,,"99999,9,09867,1","2,1,004,1,+999,9",,"03,1","SYN078AAXX  29121 01442 11789 23603 10151 20006 39867 40115 52004 6//// 70300 82200;",
"01442099999","2010-05-29T18:00:00","4","58.6666666","7.8","211.0","BYGLANDSFJORD, NO","FM-12","99999","V020","190,1,N,0050,1","03000,1,9,N","075000,1,N,1","+0147,1","+0002,1","10106,1","12,0000,9,1",,,"1,1,06,1","1,1,06,1",,"07,99,1,02,1,02,1,01250,1,06,1,06,1",,"999,M,+0164,1","99999,9,09857,1","7,1,002,1,+999,9",,"03,1","SYN088AAXX  29181 01442 11689 71905 10147 20002 39857 40106 57002 60002 70311 82266 333 10164;","Q01  00002PRCP12"
"01442099999","2010-05-30T03:00:00","4","58.6666666","7.8","211.0","BYGLANDSFJORD, NO","FM-12","99999","V020","999,9,C,0000,1","03000,1,9,N","075000,1,N,1","+0054,1","+0036,1","10113,1",,,,"2,1,03,1","2,1,03,1",,"08,99,1,01,1,01,1,01250,1,02,1,99,9",,,"99999,9,09856,1","7,1,007,1,+999,9",,"03,1","SYN072AAXX  30031 01442 41689 80000 10054 20036 39856 40113 57007 70322 8112/;",
"01442099999","2010-05-30T06:00:00","4","58.6666666","7.8","211.0","BYGLANDSFJORD, NO","FM-12","99999","V020","340,1,N,0030,1","00750,1,9,N","030000,1,N,1","+0074,1","+0049,1","10109,1","12,9999,9,9","24,9999,9,9",,"6,1,06,1","2,1,06,1",,"08,99,1,08,1,05,1,00800,1,99,9,99,9",,"999,N,+0050,1","99999,9,09853,1","5,1,002,1,+999,9",,"60,1","SYN094AAXX  30061 01442 11580 83403 10074 20049 39853 40109 55002 69912 76062 885// 333 20050 70001;","Q01  00002PRCP24Q02  00002PRCP12Q03  00002PRCP12Q04  00002PRCP24"
"01442099999","2010-05-30T09:00:00","4","58.6666666","7.8","211.0","BYGLANDSFJORD, NO","FM-12","99999","V020","350,1,N,0030,1","00420,1,9,N","070000,1,N,1","+0084,1","+0064,1","10110,1",,,,"6,1,03,1","2,1,03,1",,"08,99,1,08,1,05,1,00450,1,99,9,99,9",,,"99999,9,09856,1","2,1,002,1,+999,9",,"21,1","SYN072AAXX  30091 01442 41488 83503 10084 20064 39856 40110 52002 72162 885//;",
"01442099999","2010-05-30T12:00:00","4","58.6666666","7.8","211.0","BYGLANDSFJORD, NO","FM-12","99999","V020","030,1,N,0050,1","01200,1,9,N","070000,1,N,1","+0121,1","+0068,1","10102,1",,,,"6,1,06,1","2,1,06,1",,"07,99,1,07,1,08,1,00800,1,00,1,00,1",,,"99999,9,09852,1","7,1,004,1,+999,9",,"21,1","SYN078AAXX  30121 01442 11588 70305 10121 20068 39852 40102 57004 6//// 72162 87800;",
"01442099999","2010-05-30T15:00:00","4","58.6666666","7.8","211.0","BYGLANDSFJORD, NO","FM-12","99999","V020","150,1,N,0070,1","03000,1,9,N","075000,1,N,1","+0133,1","+0026,1","10098,1",,,,"2,1,03,1","2,1,03,1",,"08,99,1,02,1,02,1,00800,1,01,1,99,9",,,"99999,9,09848,1","5,1,003,1,+999,9",,"01,1","SYN072AAXX  30151 01442 41589 81507 10133 20026 39848 40098 55003 70122 8221/;",
"01442099999","2010-05-30T18:00:00","4","58.6666666","7.8","211.0","BYGLANDSFJORD, NO","FM-12","99999","V020","350,1,N,0030,1","03000,1,9,N","075000,1,N,1","+0136,1","+0045,1","10103,1","12,0010,9,1",,,"2,1,06,1","2,1,06,1",,"08,99,1,04,1,02,1,00800,1,01,1,99,9",,"999,M,+0139,1","99999,9,09853,1","3,1,005,1,+999,9",,"03,1","SYN088AAXX  30181 01442 11589 83503 10136 20045 39853 40103 53005 60012 70322 8421/ 333 10139;",
"01442099999","2010-05-31T03:00:00","4","58.6666666","7.8","211.0","BYGLANDSFJORD, NO","FM-12","99999","V020","340,1,N,0070,1","22000,1,9,N","075000,1,N,1","+0087,1","+0055,1","10152,1",,,,"0,1,03,1","0,1,03,1",,"01,99,1,00,1,00,1,99999,9,00,1,02,1",,,"99999,9,09897,1","2,1,017,1,+999,9",,"02,1","SYN072AAXX  31031 01442 41989 13407 10087 20055 39897 40152 52017 70200 80002;",
"01442099999","2010-05-31T06:00:00","4","58.6666666","7.8","211.0","BYGLANDSFJORD, NO","FM-12","99999","V020","330,1,N,0070,1","22000,1,9,N","075000,1,N,1","+0104,1","+0052,1","10162,1","12,0000,9,1","24,0013,9,1",,"0,1,06,1","0,1,06,1","00,1,+99999,9,99,9","00,99,1,00,1,00,1,99999,9,00,1,00,1",,"999,N,+0087,1","99999,9,09908,1","1,1,012,1,+999,9",,"02,1","SYN088AAXX  31061 01442 11989 03307 10104 20052 39908 40162 51012 60002 70200 333 20087 70013;","Q01  00002PRCP12"
"01442099999","2010-05-31T09:00:00","4","58.6666666","7.8","211.0","BYGLANDSFJORD, NO","FM-12","99999","V020","340,1,N,0050,1","22000,1,9,N","075000,1,N,1","+0160,1","+0050,1","10164,1",,,,"0,1,03,1","0,1,03,1",,"01,99,1,01,1,01,1,01750,1,00,1,00,1",,,"99999,9,09915,1","2,1,006,1,+999,9",,"03,1","SYN072AAXX  31091 01442 41789 13405 10160 20050 39915 40164 52006 70300 81100;",
"01442099999","2010-05-31T12:00:00","4","58.6666666","7.8","211.0","BYGLANDSFJORD, NO","FM-12","99999","V020","340,1,N,0030,1","22000,1,9,N","075000,1,N,1","+0200,1","+0000,1","10160,1",,,,"0,1,06,1","0,1,06,1",,"02,99,1,02,1,02,1,01750,1,00,1,00,1",,,"99999,9,09915,1","4,1,000,1,+999,9",,"03,1","SYN078AAXX  31121 01442 11789 23403 10200 21000 39915 40160 54000 6//// 70300 82200;",
"01442099999","2010-05-31T15:00:00","4","58.6666666","7.8","211.0","BYGLANDSFJORD, NO","FM-12","99999","V020","330,1,N,0030,1","01200,1,9,N","075000,1,N,1","+0216,1","+0002,1","10153,1",,,,"1,1,03,1","1,1,03,1",,"07,99,1,05,1,02,1,01250,1,06,1,00,1",,,"99999,9,09908,1","7,1,006,1,+999,9",,"03,1","SYN072AAXX  31151 01442 41689 73303 10216 20002 39908 40153 57006 70311 85260;",
"01442099999","2010-05-31T18:00:00","4","58.6666666","7.8","211.0","BYGLANDSFJORD, NO","FM-12","99999","V020","170,1,N,0050,1","22000,1,9,N","075000,1,N,1","+0191,1","+0059,1","10152,1","12,0000,9,1",,,"1,1,06,1","1,1,06,1",,"01,99,1,01,1,02,1,01250,1,06,1,00,1",,"999,M,+0218,1","99999,9,09906,1","7,1,003,1,+999,9",,"01,1","SYN088AAXX  31181 01442 11689 11705 10191 20059 39906 40152 57003 60002 70111 81260 333 10218;","Q01  00002PRCP12"
"01442099999","2010-06-01T03:00:00","4","58.6666666","7.8","211.0","BYGLANDSFJORD, NO","FM-12","99999","V020","340,1,N,0030,1","22000,1,9,N","075000,1,N,1","+0082,1","+0063,1","10172,1",,,,"0,1,03,1","0,1,03,1",,"01,99,1,00,1,00,1,99999,9,00,1,01,1",,,"99999,9,09916,1","7,1,002,1,+999,9",,"02,1","SYN072AAXX  01031 01442 41989 13403 10082 20063 39916 40172 57002 70200 80001;",
"01442099999","2010-06-01T06:00:00","4","58.6666666","7.8","211.0","BYGLANDSFJORD, NO","FM-12","99999","V020","340,1,N,0050,1","22000,1,9,N","075000,1,N,1","+0106,1","+0058,1","10168,1","12,0000,9,1","24,0000,9,1",,"0,1,06,1","0,1,06,1",,"01,99,1,00,1,00,1,99999,9,00,1,01,1",,"999,N,+0074,1","99999,9,09915,1","0,1,001,1,+999,9",,"02,1","SYN094AAXX  01061 01442 11989 13405 10106 20058 39915 40168 50001 60002 70200 80001 333 20074 70000;","Q01  00002PRCP24Q02  00002PRCP12"
"01442099999","2010-06-01T09:00:00","4","58.6666666","7.8","211.0","BYGLANDSFJORD, NO","FM-12","99999","V020","340,1,N,0030,1","01200,1,9,N","075000,1,N,1","+0139,1","+0060,1","10161,1",,,,"1,1,03,1","1,1,03,1",,"05,99,1,05,1,02,1,01250,1,00,1,01,1",,,"99999,9,09911,1","6,1,004,1,+999,9",,"03,1","SYN072AAXX  01091 01442 41689 53403 10139 20060 39911 40161 56004 70311 85201;",
"01442099999","2010-06-01T12:00:00","4","58.6666666","7.8","211.0","BYGLANDSFJORD, NO","FM-12","99999","V020","150,1,N,0050,1","01200,1,9,N","075000,1,N,1","+0198,1","+0018,1","10149,1",,,,"1,1,06,1","1,1,06,1",,"07,99,1,05,1,02,1,01250,1,06,1,01,1",,,"99999,9,09903,1","6,1,007,1,+999,9",,"03,1","SYN078AAXX  01121 01442 11689 71505 10198 20018 39903 40149 56007 6//// 70311 85261;",
"01442099999","2010-06-01T15:00:00","4","58.6666666","7.8","211.0","BYGLANDSFJORD, NO","FM-12","99999","V020","150,1,N,0050,1","01200,1,9,N","075000,1,N,1","+0199,1","+0014,1","10147,1",,,,"2,1,03,1","2,1,03,1",,"07,99,1,06,1,02,1,01250,1,06,1,01,1",,,"99999,9,09902,1","7,1,002,1,+999,9",,"03,1","SYN072AAXX  01151 01442 41689 71505 10199 20014 39902 40147 57002 70322 86261;",
"01442099999","2010-06-01T18:00:00","4","58.6666666","7.8","211.0","BYGLANDSFJORD, NO","FM-12","99999","V020","150,1,N,0050,1","07500,1,9,N","075000,1,N,1","+0194,1","+0014,1","10149,1","12,0000,9,1",,,"2,1,06,1","2,1,06,1",,"05,99,1,02,1,02,1,01250,1,06,1,01,1",,"999,M,+0216,1","99999,9,09903,1","2,1,002,1,+999,9",,"01,1","SYN088AAXX  01181 01442 11689 51505 10194 20014 39903 40149 52002 60002 70122 82261 333 10216;","Q01  00002PRCP12"
"01442099999","2010-06-02T03:00:00","4","58.6666666","7.8","211.0","BYGLANDSFJORD, NO","FM-12","99999","V020","999,9,C,0000,1","99999,9,9,N","075000,1,N,1","+0057,1","+0042,1","10185,1",,,,"1,1,03,1","0,1,03,1",,"07,99,1,00,1,00,1,99999,9,00,1,08,1",,,"99999,9,09927,1","1,1,006,1,+999,9",,"02,1","SYN072AAXX  02031 01442 41989 70000 10057 20042 39927 40185 51006 70210 80008;",
"01442099999","2010-06-02T06:00:00","4","58.6666666","7.8","211.0","BYGLANDSFJORD, NO","FM-12","99999","V020","350,1,N,0030,1","22000,1,9,N","075000,1,N,1","+0100,1","+0044,1","10181,1","12,0000,9,1","24,0000,9,1",,"1,1,06,1","0,1,06,1",,"01,99,1,00,1,00,1,99999,9,00,1,02,1",,"999,N,+0055,1","99999,9,09927,1","4,1,000,1,+999,9",,"01,1","SYN094AAXX  02061 01442 11989 13503 10100 20044 39927 40181 54000 60002 70110 80002 333 20055 70000;","Q01  00002PRCP24Q02  00002PRCP12"
"01442099999","2010-06-02T09:00:00","4","58.6666666","7.8","211.0","BYGLANDSFJORD, NO","FM-12","99999","V020","150,1,N,0050,1","99999,9,9,N","075000,1,N,1","+0186,1","+0033,1","10170,1",,,,"1,1,03,1","1,1,03,1",,"06,99,1,00,1,00,1,99999,9,00,1,08,1",,,"99999,9,09922,1","8,1,004,1,+999,9",,"03,1","SYN072AAXX  02091 01442 41989 61505 10186 20033 39922 40170 58004 70311 80008;",
"01442099999","2010-06-02T12:00:00","4","58.6666666","7.8","211.0","BYGLANDSFJORD, NO","FM-12","99999","V020","190,1,N,0050,1","22000,1,9,N","075000,1,N,1","+0207,1","+0034,1","10165,1",,,,"1,1,06,1","1,1,06,1",,"05,99,1,01,1,01,1,01750,1,00,1,08,1",,,"99999,9,09920,1","7,1,003,1,+999,9",,"03,1","SYN078AAXX  02121 01442 11789 51905 10207 20034 39920 40165 57003 6//// 70311 81108;",
"01442099999","2010-06-02T15:00:00","4","58.6666666","7.8","211.0","BYGLANDSFJORD, NO","FM-12","99999","V020","330,1,N,0050,1","03000,1,9,N","075000,1,N,1","+0205,1","+0041,1","10163,1",,,,"2,1,03,1","2,1,03,1",,"07,99,1,01,1,01,1,01750,1,04,1,08,1",,,"99999,9,09917,1","7,1,002,1,+999,9",,"03,1","SYN072AAXX  02151 01442 41789 73305 10205 20041 39917 40163 57002 70322 81148;",
"01442099999","2010-06-02T18:00:00","4","58.6666666","7.8","211.0","BYGLANDSFJORD, NO","FM-12","99999","V020","320,1,N,0070,1","07500,1,9,N","075000,1,N,1","+0172,1","+0049,1","10169,1","12,0000,9,1",,,"2,1,06,1","2,1,06,1",,"07,99,1,01,1,01,1,01750,1,00,1,08,1",,"999,M,+0214,1","99999,9,09921,1","3,1,003,1,+999,9",,"02,1","SYN088AAXX  02181 01442 11789 73207 10172 20049 39921 40169 53003 60002 70222 81108 333 10214;","Q01  00002PRCP12"
"01442099999","2010-06-03T03:00:00","4","58.6666666","7.8","211.0","BYGLANDSFJORD, NO","FM-12","99999","V020","010,1,N,0030,1","22000,1,9,N","075000,1,N,1","+0092,1","+0048,1","10188,1",,,,"0,1,03,1","0,1,03,1",,"01,99,1,01,1,01,1,01250,1,00,1,00,1",,,"99999,9,09932,1","2,1,004,1,+999,9",,"02,1","SYN072AAXX  03031 01442 41689 10103 10092 20048 39932 40188 52004 70200 81100;",
"01442099999","2010-06-03T06:00:00","4","58.6666666","7.8","211.0","BYGLANDSFJORD, NO","FM-12","99999","V020","330,1,N,0070,1","03000,1,9,N","075000,1,N,1","+0136,1","+0050,1","10184,1","12,0000,9,1","24,0000,9,1",,"1,1,06,1","0,1,06,1",,"06,99,1,04,1,02,1,01250,1,06,1,08,1",,"999,N,+0081,1","99999,9,09932,1","4,1,000,1,+999,9",,"03,1","SYN094AAXX  03061 01442 11689 63307 10136 20050 39932 40184 54000 60002 70310 84268 333 20081 70000;","Q01  00002PRCP24Q02  00002PRCP12"
"01442099999","2010-06-03T09:00:00","4","58.6666666","7.8","211.0","BYGLANDSFJORD, NO","FM-12","99999","V020","340,1,N,0070,1","07500,1,9,N","075000,1,N,1","+0156,1","+0040,1","10187,1",,,,"2,1,03,1","2,1,03,1",,"07,99,1,01,1,01,1,01750,1,00,1,08,1",,,"99999,9,09937,1","2,1,004,1,+999,9",,"01,1","SYN072AAXX  03091 01442 41789 73407 10156 20040 39937 40187 52004 70122 81108;",
"01442099999","2010-06-03T15:00:00","4","58.6666666","7.8","211.0","BYGLANDSFJORD, NO","FM-12","99999","V020","340,1,N,0070,1","22000,1,9,N","075000,1,N,1","+0178,1","+0040,1","10177,1",,,,"0,1,03,1","0,1,03,1","00,1,+99999,9,99,9","00,99,1,00,1,00,1,99999,9,00,1,00,1",,,"99999,9,09930,1","7,1,006,1,+999,9",,"02,1","SYN066AAXX  03151 01442 41989 03407 10178 20040 39930 40177 57006 70200;",
"01442099999","2010-06-03T18:00:00","4","58.6666666","7.8","211.0","BYGLANDSFJORD, NO","FM-12","99999","V020","340,1,N,0070,1","22000,1,9,N","075000,1,N,1","+0164,1","+0045,1","10180,1","12,0000,9,1",,,"0,1,06,1","0,1,06,1","00,1,+99999,9,99,9","00,99,1,00,1,00,1,99999,9,00,1,00,1",,"999,M,+0187,1","99999,9,09931,1","2,1,001,1,+999,9",,"02,1","SYN082AAXX  03181 01442 11989 03407 10164 20045 39931 40180 52001 60002 70200 333 10187;","Q01  00002PRCP12"
"01442099999","2010-06-04T03:00:00","4","58.6666666","7.8","211.0","BYGLANDSFJORD, NO","FM-12","99999","V020","330,1,N,0050,1","22000,1,9,N","075000,1,N,1","+0093,1","+0022,1","10209,1",,,,"0,1,03,1","0,1,03,1","00,1,+99999,9,99,9","00,99,1,00,1,00,1,99999,9,00,1,00,1",,,"99999,9,09952,1","2,1,010,1,+999,9",,"02,1","SYN066AAXX  04031 01442 41989 03305 10093 20022 39952 40209 52010 70200;",
"01442099999","2010-06-04T06:00:00","4","58.6666666","7.8","211.0","BYGLANDSFJORD, NO","FM-12","99999","V020","340,1,N,0050,1","22000,1,9,N","075000,1,N,1","+0108,1","+0031,1","10212,1","12,0000,9,1","24,0000,9,1",,"0,1,06,1","0,1,06,1","00,1,+99999,9,99,9","00,99,1,00,1,00,1,99999,9,00,1,00,1",,"999,N,+0089,1","99999,9,09957,1","2,1,005,1,+999,9",,"02,1","SYN088AAXX  04061 01442 11989 03405 10108 20031 39957 40212 52005 60002 70200 333 20089 70000;","Q01  00002PRCP24Q02  00002PRCP12"
"01442099999","2010-06-04T09:00:00","4","58.6666666","7.8","211.0","BYGLANDSFJORD, NO","FM-12","99999","V020","340,1,N,0030,1","22000,1,9,N","075000,1,N,1","+0153,1","+0050,1","10203,1",,,,"0,1,03,1","0,1,03,1","00,1,+99999,9,99,9","00,99,1,00,1,00,1,99999,9,00,1,00,1",,,"99999,9,09952,1","8,1,005,1,+999,9",,"02,1","SYN066AAXX  04091 01442 41989 03403 10153 20050 39952 40203 58005 70200;",
"01442099999","2010-06-04T12:00:00","4","58.6666666","7.8","211.0","BYGLANDSFJORD, NO","FM-12","99999","V020","170,1,N,0050,1","22000,1,9,N","075000,1,N,1","+0208,1","+0031,1","10183,1",,,,"0,1,06,1","0,1,06,1","00,1,+99999,9,99,9","00,99,1,00,1,00,1,99999,9,00,1,00,1",,,"99999,9,09937,1","8,1,015,1,+999,9",,"02,1","SYN072AAXX  04121 01442 11989 01705 10208 20031 39937 40183 58015 6//// 70200;",
"01442099999","2010-06-04T15:00:00","4","58.6666666","7.8","211.0","BYGLANDSFJORD, NO","FM-12","99999","V020","170,1,N,0030,1","99999,9,9,N","075000,1,N,1","+0236,1","+0025,1","10164,1",,,,"1,1,03,1","0,1,03,1",,"07,99,1,00,1,00,1,99999,9,00,1,08,1",,,"99999,9,09922,1","7,1,016,1,+999,9",,"03,1","SYN072AAXX  04151 01442 41989 71703 10236 20025 39922 40164 57016 70310 80008;",
"01442099999","2010-06-04T18:00:00","4","58.6666666","7.8","211.0","BYGLANDSFJORD, NO","FM-12","99999","V020","190,1,N,0050,1","99999,9,9,N","075000,1,N,1","+0202,1","+0058,1","10163,1","12,0000,9,1",,,"2,1,06,1","1,1,06,1",,"07,99,1,00,1,00,1,99999,9,00,1,08,1",,"999,M,+0239,1","99999,9,09917,1","8,1,004,1,+999,9",,"02,1","SYN088AAXX  04181 01442 11989 71905 10202 20058 39917 40163 58004 60002 70221 80008 333 10239;","Q01  00002PRCP12"
"01442099999","2010-06-05T03:00:00","4","58.6666666","7.8","211.0","BYGLANDSFJORD, NO","FM-12","99999","V020","340,1,N,0050,1","22000,1,9,N","075000,1,N,1","+0096,1","+0054,1","10174,1",,,,"0,1,03,1","0,1,03,1",,"01,99,1,00,1,00,1,99999,9,00,1,01,1",,,"99999,9,09920,1","7,1,004,1,+999,9",,"02,1","SYN072AAXX  05031 01442 41989 13405 10096 20054 39920 40174 57004 70200 80001;",
"01442099999","2010-06-05T06:00:00","4","58.6666666","7.8","211.0","BYGLANDSFJORD, NO","FM-12","99999","V020","340,1,N,0050,1","22000,1,9,N","075000,1,N,1","+0114,1","+0044,1","10169,1","12,0000,9,1","24,0000,9,1",,"0,1,06,1","0,1,06,1",,"01,99,1,00,1,00,1,99999,9,00,1,01,1",,"999,N,+0094,1","99999,9,09916,1","7,1,004,1,+999,9",,"02,1","SYN094AAXX  05061 01442 11989 13405 10114 20044 39916 40169 57004 60002 70200 80001 333 20094 70000;","Q01  00002PRCP24Q02  00002PRCP12"
"01442099999","2010-06-05T09:00:00","4","58.6666666","7.8","211.0","BYGLANDSFJORD, NO","FM-12","99999","V020","120,1,N,0030,1","22000,1,9,N","075000,1,N,1","+0181,1","+0040,1","10151,1",,,,"0,1,03,1","0,1,03,1",,"01,99,1,00,1,00,1,99999,9,00,1,01,1",,,"99999,9,09903,1","8,1,012,1,+999,9",,"02,1","SYN072AAXX  05091 01442 41989 11203 10181 20040 39903 40151 58012 70200 80001;",
"01442099999","2010-06-05T12:00:00","4","58.6666666","7.8","211.0","BYGLANDSFJORD, NO","FM-12","99999","V020","170,1,N,0050,1","22000,1,9,N","075000,1,N,1","+0235,1","+0000,1","10127,1",,,,"0,1,06,1","0,1,06,1",,"04,99,1,00,1,00,1,99999,9,00,1,08,1",,,"99999,9,09885,1","7,1,018,1,+999,9",,"03,1","SYN078AAXX  05121 01442 11989 41705 10235 21000 39885 40127 57018 6//// 70300 80008;",
"01442099999","2010-06-05T15:00:00","4","58.6666666","7.8","211.0","BYGLANDSFJORD, NO","FM-12","99999","V020","200,1,N,0050,1","22000,1,9,N","075000,1,N,1","+0244,1","-0022,1","10113,1",,,,"0,1,03,1","0,1,03,1",,"03,99,1,00,1,00,1,99999,9,00,1,08,1",,,"99999,9,09872,1","7,1,013,1,+999,9",,"01,1","SYN072AAXX  05151 01442 41989 32005 10244 21022 39872 40113 57013 70100 80008;",
"01442099999","2010-06-05T18:00:00","4","58.6666666","7.8","211.0","BYGLANDSFJORD, NO","FM-12","99999","V020","010,1,N,0070,1","99999,9,9,N","075000,1,N,1","+0181,1","-0002,1","10125,1","12,0000,9,1",,,"1,1,06,1","0,1,06,1",,"07,99,1,00,1,00,1,99999,9,00,1,08,1",,"999,M,+0248,1","99999,9,09878,1","2,1,007,1,+999,9",,"03,1","SYN088AAXX  05181 01442 11989 70107 10181 21002 39878 40125 52007 60002 70310 80008 333 10248;","Q01  00002PRCP12"
"01442099999","2010-06-06T03:00:00","4","58.6666666","7.8","211.0","BYGLANDSFJORD, NO","FM-12","99999","V020","350,1,N,0030,1","22000,1,9,N","075000,1,N,1","+0074,1","+0035,1","10132,1",,,,"0,1,03,1","0,1,03,1","00,1,+99999,9,99,9","00,99,1,00,1,00,1,99999,9,00,1,00,1",,,"99999,9,09877,1","7,1,008,1,+999,9",,"02,1","SYN066AAXX  06031 01442 41989 03503 10074 20035 39877 40132 57008 70200;",
"01442099999","2010-06-06T06:00:00","4","58.6666666","7.8","211.0","BYGLANDSFJORD, NO","FM-12","99999","V020","030,1,N,0030,1","22000,1,9,N","075000,1,N,1","+0109,1","+0037,1","10124,1","12,0000,9,1","24,0000,9,1",,"0,1,06,1","0,1,06,1",,"02,99,1,00,1,00,1,99999,9,00,1,01,1",,"999,N,+0073,1","99999,9,09872,1","8,1,005,1,+999,9",,"03,1","SYN094AAXX  06061 01442 11989 20303 10109 20037 39872 40124 58005 60002 70300 80001 333 20073 70000;","Q01  00002PRCP24Q02  00002PRCP12"
"01442099999","2010-06-06T09:00:00","4","58.6666666","7.8","211.0","BYGLANDSFJORD, NO","FM-12","99999","V020","010,1,N,0030,1","22000,1,9,N","075000,1,N,1","+0167,1","+0047,1","10103,1",,,,"0,1,03,1","0,1,03,1",,"01,99,1,00,1,00,1,99999,9,00,1,01,1",,,"99999,9,09856,1","8,1,016,1,+999,9",,"02,1","SYN072AAXX  06091 01442 41989 10103 10167 20047 39856 40103 58016 70200 80001;",
"01442099999","2010-06-06T12:00:00","4","58.6666666","7.8","211.0","BYGLANDSFJORD, NO","FM-12","99999","V020","350,1,N,0050,1","22000,1,9,N","075000,1,N,1","+0220,1","+0017,1","10083,1",,,,"0,1,06,1","0,1,06,1",,"01,99,1,01,1,01,1,01750,1,00,1,01,1",,,"99999,9,09841,1","8,1,015,1,+999,9",,"03,1","SYN078AAXX  06121 01442 11789 13505 10220 20017 39841 40083 58015 6//// 70300 81101;",
"01442099999","2010-06-06T18:00:00","4","58.6666666","7.8","211.0","BYGLANDSFJORD, NO","FM-12","99999","V020","330,1,N,0030,1","22000,1,9,N","075000,1,N,1","+0202,1","+0001,1","10065,1","12,0000,9,1",,,"0,1,06,1","0,1,06,1",,"01,99,1,00,1,00,1,99999,9,00,1,02,1",,"999,M,+0239,1","99999,9,09822,1","7,1,012,1,+999,9",,"02,1","SYN088AAXX  06181 01442 11989 13303 10202 20001 39822 40065 57012 60002 70200 80002 333 10239;","Q01  00002PRCP12"
"01442099999","2010-06-07T03:00:00","4","58.6666666","7.8","211.0","BYGLANDSFJORD, NO","FM-12","99999","V020","340,1,N,0050,1","99999,9,9,N","075000,1,N,1","+0119,1","+0037,1","10054,1",,,,"2,1,03,1","2,1,03,1",,"07,99,1,00,1,00,1,99999,9,00,1,08,1",,,"99999,9,09805,1","7,1,009,1,+999,9",,"02,1","SYN072AAXX  07031 01442 41989 73405 10119 20037 39805 40054 57009 70222 80008;",
"01442099999","2010-06-07T06:00:00","4","58.6666666","7.8","211.0","BYGLANDSFJORD, NO","FM-12","99999","V020","340,1,N,0050,1","07500,1,9,N","075000,1,N,1","+0127,1","+0047,1","10050,1","12,0000,9,1","24,0000,9,1",,"2,1,06,1","2,1,06,1",,"07,99,1,02,1,00,1,02250,1,03,1,08,1",,"999,N,+0117,1","99999,9,09801,1","5,1,004,1,+999,9",,"03,1","SYN094AAXX  07061 01442 11889 73405 10127 20047 39801 40050 55004 60002 70322 82038 333 20117 70000;","Q01  00002PRCP24Q02  00002PRCP12"
"01442099999","2010-06-07T09:00:00","4","58.6666666","7.8","211.0","BYGLANDSFJORD, NO","FM-12","99999","V020","350,1,N,0030,1","03000,1,9,N","075000,1,N,1","+0169,1","+0046,1","10043,1",,,,"2,1,03,1","2,1,03,1",,"07,99,1,01,1,01,1,01750,1,03,1,08,1",,,"99999,9,09797,1","8,1,003,1,+999,9",,"03,1","SYN072AAXX  07091 01442 41789 73503 10169 20046 39797 40043 58003 70322 81138;",
"01442099999","2010-06-07T12:00:00","4","58.6666666","7.8","211.0","BYGLANDSFJORD, NO","FM-12","99999","V020","030,1,N,0030,1","07500,1,9,N","075000,1,N,1","+0192,1","+0076,1","10038,1",,,,"2,1,06,1","2,1,06,1",,"06,99,1,02,1,02,1,01750,1,00,1,08,1",,,"99999,9,09795,1","7,1,003,1,+999,9",,"03,1","SYN078AAXX  07121 01442 11789 60303 10192 20076 39795 40038 57003 6//// 70322 82208;",
"01442099999","2010-06-07T15:00:00","4","58.6666666","7.8","211.0","BYGLANDSFJORD, NO","FM-12","99999","V020","150,1,N,0030,1","01200,1,9,N","050000,1,N,1","+0196,1","+0083,1","10030,1",,,,"8,1,03,1","2,1,03,1",,"07,99,1,07,1,09,1,01250,1,00,1,00,1",,,"99999,9,09787,1","7,1,007,1,+999,9",,"80,1","SYN072AAXX  07151 01442 41684 71503 10196 20083 39787 40030 57007 78082 87900;",
"01442099999","2010-06-07T18:00:00","4","58.6666666","7.8","211.0","BYGLANDSFJORD, NO","FM-12","99999","V020","150,1,N,0030,1","00750,1,9,N","060000,1,N,1","+0136,1","+0122,1","10049,1","12,0051,9,1",,,"9,1,06,1","8,1,06,1",,"08,99,1,08,1,09,1,00800,1,99,9,99,9",,"999,M,+0210,1","99999,9,09801,1",,,"80,1","SYN082AAXX  07181 01442 11586 81503 10136 20122 39801 40049 60052 78098 889// 333 10210;",
"01442099999","2010-06-08T03:00:00","4","58.6666666","7.8","211.0","BYGLANDSFJORD, NO","FM-12","99999","V020","160,1,N,0030,1","00030,1,9,N","000200,1,N,1","+0118,1","+0115,1","10048,1",,,,"4,1,03,1","4,1,03,1","09,1,+99999,9,99,9","09,99,1,09,1,99,9,99999,9,99,9,99,9",,,"99999,9,09798,1","5,1,001,1,+999,9",,"45,1","SYN066AAXX  08031 01442 41/02 91603 10118 20115 39798 40048 55001 74544;",
"01442099999","2010-06-08T06:00:00","4","58.6666666","7.8","211.0","BYGLANDSFJORD, NO","FM-12","99999","V020","330,1,N,0030,1","00600,1,9,N","060000,1,N,1","+0130,1","+0116,1","10052,1","12,0010,9,1","24,0058,9,1",,"4,1,06,1","2,1,06,1",,"07,99,1,07,1,08,1,00250,1,00,1,00,1",,"999,N,+0117,1","99999,9,09803,1","2,1,005,1,+999,9",,"28,1","SYN094AAXX  08061 01442 11386 73303 10130 20116 39803 40052 52005 60012 72842 87800 333 20117 70058;",
"01442099999","2010-06-08T09:00:00","4","58.6666666","7.8","211.0","BYGLANDSFJORD, NO","FM-12","99999","V020","170,1,N,0050,1","00750,1,9,N","070000,1,N,1","+0147,1","+0097,1","10063,1",,,,"2,1,03,1","2,1,03,1",,"08,99,1,08,1,09,1,00800,1,99,9,99,9",,,"99999,9,09816,1","2,1,012,1,+999,9",,"03,1","SYN072AAXX  08091 01442 41588 81705 10147 20097 39816 40063 52012 70322 889//;",
"01442099999","2010-06-08T12:00:00","4","58.6666666","7.8","211.0","BYGLANDSFJORD, NO","FM-12","99999","V020","140,1,N,0050,1","00750,1,9,N","060000,1,N,1","+0161,1","+0104,1","10064,1",,,,"8,1,06,1","2,1,06,1",,"07,99,1,07,1,09,1,00800,1,00,1,00,1",,,"99999,9,09817,1","3,1,002,1,+999,9",,"80,1","SYN078AAXX  08121 01442 11586 71405 10161 20104 39817 40064 53002 6//// 78082 87900;",
"01442099999","2010-06-08T15:00:00","4","58.6666666","7.8","211.0","BYGLANDSFJORD, NO","FM-12","99999","V020","150,1,N,0030,1","01200,1,9,N","070000,1,N,1","+0162,1","+0058,1","10067,1",,,,"8,1,03,1","2,1,03,1",,"08,99,1,08,1,08,1,00800,1,99,9,99,9",,,"99999,9,09821,1","2,1,004,1,+999,9",,"02,1","SYN072AAXX  08151 01442 41588 81503 10162 20058 39821 40067 52004 70282 888//;",
"01442099999","2010-06-08T18:00:00","4","58.6666666","7.8","211.0","BYGLANDSFJORD, NO","FM-12","99999","V020","220,1,N,0030,1","07500,1,9,N","075000,1,N,1","+0159,1","+0055,1","10068,1","12,0000,2,1",,,"8,1,06,1","2,1,06,1",,"07,99,1,01,1,01,1,00800,1,00,1,08,1",,"999,M,+0166,1","99999,9,09822,1","1,1,001,1,+999,9",,"01,1","SYN088AAXX  08181 01442 11589 72203 10159 20055 39822 40068 51001 69922 70182 81108 333 10166;",
"01442099999","2010-06-09T03:00:00","4","58.6666666","7.8","211.0","BYGLANDSFJORD, NO","FM-12","99999","V020","999,9,C,0000,1","22000,1,9,N","075000,1,N,1","+0083,1","+0072,1","10100,1",,,,"0,1,03,1","0,1,03,1",,"01,99,1,00,1,00,1,99999,9,00,1,01,1",,,"99999,9,09846,1","2,1,002,1,+999,9",,"02,1","SYN072AAXX  09031 01442 41989 10000 10083 20072 39846 40100 52002 70200 80001;",
"01442099999","2010-06-09T06:00:00","4","58.6666666","7.8","211.0","BYGLANDSFJORD, NO","FM-12","99999","V020","010,1,N,0030,1","22000,1,9,N","075000,1,N,1","+0112,1","+0088,1","10104,1","12,0000,9,1","24,0003,9,1",,"0,1,06,1","0,1,06,1",,"03,99,1,00,1,00,1,99999,9,00,1,02,1",,"999,N,+0074,1","99999,9,09852,1","3,1,007,1,+999,9",,"03,1","SYN094AAXX  09061 01442 11989 30103 10112 20088 39852 40104 53007 60002 70300 80002 333 20074 70002;","Q01  00002PRCP12"
"01442099999","2010-06-09T09:00:00","4","58.6666666","7.8","211.0","BYGLANDSFJORD, NO","FM-12","99999","V020","340,1,N,0030,1","01200,1,9,N","075000,1,N,1","+0143,1","+0087,1","10106,1",,,,"1,1,03,1","1,1,03,1",,"07,99,1,07,1,09,1,01250,1,00,1,00,1",,,"99999,9,09857,1","1,1,004,1,+999,9",,"03,1","SYN072AAXX  09091 01442 41689 73403 10143 20087 39857 40106 51004 70311 87900;",
"01442099999","2010-06-09T12:00:00","4","58.6666666","7.8","211.0","BYGLANDSFJORD, NO","FM-12","99999","V020","330,1,N,0030,1","01200,1,9,N","075000,1,N,1","+0163,1","+0088,1","99999,9",,,,"2,1,06,1","1,1,06,1",,"08,99,1,08,1,09,1,01250,1,99,9,99,9",,,,"2,1,004,1,+999,9",,"03,1","SYN072AAXX  09121 01442 11689 83303 10163 20088 39611 52004 6//// 70321 889//;","Q01+096113APOSP "
"01442099999","2010-06-09T15:00:00","4","58.6666666","7.8","211.0","BYGLANDSFJORD, NO","FM-12","99999","V020","040,1,N,0030,1","01500,1,9,N","075000,1,N,1","+0178,1","+0081,1","10110,1",,,,"2,1,03,1","2,1,03,1",,"08,99,1,08,1,08,1,01250,1,99,9,99,9",,,"99999,9,09863,1","3,1,003,1,+999,9",,"03,1","SYN072AAXX  09151 01442 41689 80403 10178 20081 39863 40110 53003 70322 888//;",
"01442099999","2010-06-09T18:00:00","4","58.6666666","7.8","211.0","BYGLANDSFJORD, NO","FM-12","99999","V020","010,1,N,0030,1","01500,1,9,N","075000,1,N,1","+0177,1","+0091,1","10115,1","12,0000,9,1",,,"2,1,06,1","2,1,06,1",,"07,99,1,07,1,08,1,01250,1,00,1,00,1",,"999,M,+0191,1","99999,9,09868,1","2,1,005,1,+999,9",,"01,1","SYN088AAXX  09181 01442 11689 70103 10177 20091 39868 40115 52005 60002 70122 87800 333 10191;","Q01  00002PRCP12"
"01442099999","2010-06-10T03:00:00","4","58.6666666","7.8","211.0","BYGLANDSFJORD, NO","FM-12","99999","V020","350,1,N,0030,1","00750,1,9,N","075000,1,N,1","+0125,1","+0107,1","10150,1",,,,"2,1,03,1","2,1,03,1",,"06,99,1,05,1,02,1,00800,1,06,1,01,1",,,"99999,9,09898,1","3,1,007,1,+999,9",,"02,1","SYN072AAXX  10031 01442 41589 63503 10125 20107 39898 40150 53007 70222 85261;",
"01442099999","2010-06-10T06:00:00","4","58.6666666","7.8","211.0","BYGLANDSFJORD, NO","FM-12","99999","V020","340,1,N,0030,1","00750,1,9,N","075000,1,N,1","+0149,1","+0086,1","10152,1","12,0000,9,1","24,0000,9,1",,"2,1,06,1","2,1,06,1",,"07,99,1,06,1,02,1,00800,1,06,1,01,1",,"999,N,+0116,1","99999,9,09902,1","2,1,004,1,+999,9",,"03,1","SYN094AAXX  10061 01442 11589 73403 10149 20086 39902 40152 52004 60002 70322 86261 333 20116 70000;","Q01  00002PRCP24Q02  00002PRCP12"
"01442099999","2010-06-10T09:00:00","4","58.6666666","7.8","211.0","BYGLANDSFJORD, NO","FM-12","99999","V020","040,1,N,0050,1","00750,1,9,N","075000,1,N,1","+0168,1","+0088,1","10153,1",,,,"2,1,03,1","2,1,03,1",,"07,99,1,06,1,02,1,00800,1,06,1,01,1",,,"99999,9,09905,1","0,1,002,1,+999,9",,"03,1","SYN072AAXX  10091 01442 41589 70405 10168 20088 39905 40153 50002 70322 86261;",
"01442099999","2010-06-10T12:00:00","4","58.6666666","7.8","211.0","BYGLANDSFJORD, NO","FM-12","99999","V020","140,1,N,0070,1","00750,1,9,N","075000,1,N,1","+0183,1","+0083,1","10137,1",,,,"2,1,06,1","2,1,06,1",,"07,99,1,07,1,09,1,00800,1,06,1,00,1",,,"99999,9,09891,1","8,1,014,1,+999,9",,"03,1","SYN078AAXX  10121 01442 11589 71407 10183 20083 39891 40137 58014 6//// 70322 87960;",
"01442099999","2010-06-10T15:00:00","4","58.6666666","7.8","211.0","BYGLANDSFJORD, NO","FM-12","99999","V020","190,1,N,0050,1","00750,1,9,N","075000,1,N,1","+0189,1","+0067,1","10127,1",,,,"2,1,03,1","2,1,03,1",,"08,99,1,08,1,09,1,00800,1,99,9,99,9",,,"99999,9,09882,1","8,1,009,1,+999,9",,"03,1","SYN072AAXX  10151 01442 41589 81905 10189 20067 39882 40127 58009 70322 889//;",
"01442099999","2010-06-10T18:00:00","4","58.6666666","7.8","211.0","BYGLANDSFJORD, NO","FM-12","99999","V020","200,1,N,0030,1","01500,1,9,N","075000,1,N,1","+0179,1","+0073,1","10115,1","12,0000,9,1",,,"2,1,06,1","2,1,06,1",,"08,99,1,08,1,08,1,01250,1,99,9,99,9",,"999,M,+0204,1","99999,9,09868,1","7,1,013,1,+999,9",,"02,1","SYN088AAXX  10181 01442 11689 82003 10179 20073 39868 40115 57013 60002 70222 888// 333 10204;","Q01  00002PRCP12"
"01442099999","2010-06-11T03:00:00","4","58.6666666","7.8","211.0","BYGLANDSFJORD, NO","FM-12","99999","V020","330,1,N,0030,1","00750,1,9,N","070000,1,N,1","+0125,1","+0116,1","10068,1",,,,"6,1,03,1","2,1,03,1",,"08,99,1,08,1,05,1,00800,1,99,9,99,9",,,"99999,9,09818,1","8,1,021,1,+999,9",,"02,1","SYN072AAXX  11031 01442 41588 83303 10125 20116 39818 40068 58021 70262 885//;",
"01442099999","2010-06-11T06:00:00","4","58.6666666","7.8","211.0","BYGLANDSFJORD, NO","FM-12","99999","V020","040,1,N,0030,1","03000,1,9,N","070000,1,N,1","+0130,1","+0117,1","10045,1","12,0020,9,2","24,0015,9,2",,"6,1,06,1","2,1,06,1",,"08,99,1,01,1,01,1,00800,1,07,1,99,9",,"999,N,+0125,1","99999,9,09797,1","7,1,022,1,+999,9",,"21,1","SYN094AAXX  11061 01442 11588 80403 10130 20117 39797 40045 57022 60022 72162 8117/ 333 20125 70015;",
"01442099999","2010-06-11T09:00:00","4","58.6666666","7.8","211.0","BYGLANDSFJORD, NO","FM-12","99999","V020","340,1,N,0030,1","00750,1,9,N","070000,1,N,1","+0132,1","+0100,1","10018,1",,,,"6,1,03,1","2,1,03,1",,"08,99,1,08,1,05,1,00800,1,99,9,99,9",,,"99999,9,09771,1","8,1,026,1,+999,9",,"02,1","SYN072AAXX  11091 01442 41588 83403 10132 20100 39771 40018 58026 70262 885//;",
"01442099999","2010-06-11T12:00:00","4","58.6666666","7.8","211.0","BYGLANDSFJORD, NO","FM-12","99999","V020","340,1,N,0030,1","00420,1,9,N","070000,1,N,1","+0134,1","+0113,1","09991,1",,,,"6,1,06,1","2,1,06,1",,"08,99,1,08,1,05,1,00450,1,99,9,99,9",,,"99999,9,09743,1","8,1,027,1,+999,9",,"21,1","SYN078AAXX  11121 01442 11488 83403 10134 20113 39743 49991 58027 6//// 72162 885//;",
"01442099999","2010-06-11T18:00:00","4","58.6666666","7.8","211.0","BYGLANDSFJORD, NO","FM-12","99999","V020","350,1,N,0070,1","01200,1,9,N","075000,1,N,1","+0119,1","+0078,1","09945,1","12,0041,9,1",,,"6,1,06,1","2,1,06,1",,"07,99,1,07,1,08,1,00800,1,00,1,00,1",,"999,M,+0145,1","99999,9,09697,1","8,1,019,1,+999,9",,"01,1","SYN088AAXX  11181 01442 11589 73507 10119 20078 39697 49945 58019 60042 70162 87800 333 10145;",
"01442099999","2010-06-12T03:00:00","4","58.6666666","7.8","211.0","BYGLANDSFJORD, NO","FM-12","99999","V020","350,1,N,0070,1","01200,1,9,N","075000,1,N,1","+0094,1","+0030,1","09926,1",,,,"2,1,03,1","2,1,03,1",,"07,99,1,06,1,02,1,01250,1,06,1,00,1",,,"99999,9,09677,1","8,1,008,1,+999,9",,"02,1","SYN072AAXX  12031 01442 41689 73507 10094 20030 39677 49926 58008 70222 86260;",
"01442099999","2010-06-12T06:00:00","4","58.6666666","7.8","211.0","BYGLANDSFJORD, NO","FM-12","99999","V020","020,1,N,0050,1","01200,1,9,N","075000,1,N,1","+0103,1","+0045,1","09911,1","12,0000,9,1","24,0041,9,1",,"2,1,06,1","2,1,06,1",,"07,99,1,05,1,02,1,01250,1,06,1,02,1",,"999,N,+0094,1","99999,9,09663,1","8,1,014,1,+999,9",,"03,1","SYN094AAXX  12061 01442 11689 70205 10103 20045 39663 49911 58014 60002 70322 85262 333 20094 70041;","Q01  00002PRCP12"
"01442099999","2010-06-12T09:00:00","4","58.6666666","7.8","211.0","BYGLANDSFJORD, NO","FM-12","99999","V020","330,1,N,0070,1","01200,1,9,N","075000,1,N,1","+0129,1","+0053,1","09905,1",,,,"2,1,03,1","2,1,03,1",,"07,99,1,06,1,02,1,01250,1,06,1,02,1",,,"99999,9,09660,1","7,1,004,1,+999,9",,"03,1","SYN072AAXX  12091 01442 41689 73307 10129 20053 39660 49905 57004 70322 86262;",
"01442099999","2010-06-12T12:00:00","4","58.6666666","7.8","211.0","BYGLANDSFJORD, NO","FM-12","99999","V020","320,1,N,0070,1","03000,1,9,N","075000,1,N,1","+0151,1","+0059,1","09922,1",,,,"2,1,06,1","2,1,06,1",,"08,99,1,02,1,01,1,01250,1,02,1,99,9",,,"99999,9,09678,1","3,1,019,1,+999,9",,"03,1","SYN078AAXX  12121 01442 11689 83207 10151 20059 39678 49922 53019 6//// 70322 8212/;",
"01442099999","2010-06-12T15:00:00","4","58.6666666","7.8","211.0","BYGLANDSFJORD, NO","FM-12","99999","V020","010,1,N,0070,1","01200,1,9,N","075000,1,N,1","+0168,1","+0054,1","09949,1",,,,"2,1,03,1","2,1,03,1",,"08,99,1,08,1,05,1,01250,1,99,9,99,9",,,"99999,9,09706,1","3,1,027,1,+999,9",,"03,1","SYN072AAXX  12151 01442 41689 80107 10168 20054 39706 49949 53027 70322 885//;",
"01442099999","2010-06-12T18:00:00","4","58.6666666","7.8","211.0","BYGLANDSFJORD, NO","FM-12","99999","V020","350,1,N,0070,1","03000,1,9,N","075000,1,N,1","+0164,1","+0065,1","09978,1","12,0000,9,1",,,"2,1,06,1","2,1,06,1",,"08,99,1,01,1,01,1,01250,1,01,1,99,9",,"999,M,+0171,1","99999,9,09733,1","2,1,028,1,+999,9",,"01,1","SYN088AAXX  12181 01442 11689 83507 10164 20065 39733 49978 52028 60002 70122 8111/ 333 10171;","Q01  00002PRCP12"
"01442099999","2010-06-13T03:00:00","4","58.6666666","7.8","211.0","BYGLANDSFJORD, NO","FM-12","99999","V020","340,1,N,0050,1","22000,1,9,N","075000,1,N,1","+0108,1","+0056,1","10039,1",,,,"0,1,03,1","0,1,03,1","00,1,+99999,9,99,9","00,99,1,00,1,00,1,99999,9,00,1,00,1",,,"99999,9,09788,1","2,1,008,1,+999,9",,"02,1","SYN066AAXX  13031 01442 41989 03405 10108 20056 39788 40039 52008 70200;",
"01442099999","2010-06-13T06:00:00","4","58.6666666","7.8","211.0","BYGLANDSFJORD, NO","FM-12","99999","V020","340,1,N,0070,1","22000,1,9,N","075000,1,N,1","+0120,1","+0043,1","10049,1","12,0000,9,1","24,0000,9,1",,"0,1,06,1","0,1,06,1",,"01,99,1,01,1,01,1,01750,1,00,1,00,1",,"999,N,+0104,1","99999,9,09800,1","2,1,011,1,+999,9",,"03,1","SYN094AAXX  13061 01442 11789 13407 10120 20043 39800 40049 52011 60002 70300 81100 333 20104 70000;","Q01  00002PRCP24Q02  00002PRCP12"
"01442099999","2010-06-13T09:00:00","4","58.6666666","7.8","211.0","BYGLANDSFJORD, NO","FM-12","99999","V020","340,1,N,0070,1","22000,1,9,N","075000,1,N,1","+0145,1","+0030,1","10059,1",,,,"0,1,03,1","0,1,03,1",,"01,99,1,01,1,01,1,01750,1,00,1,00,1",,,"99999,9,09812,1","1,1,012,1,+999,9",,"02,1","SYN072AAXX  13091 01442 41789 13407 10145 20030 39812 40059 51012 70200 81100;",
"01442099999","2010-06-13T15:00:00","4","58.6666666","7.8","211.0","BYGLANDSFJORD, NO","FM-12","99999","V020","350,1,N,0070,1","22000,1,9,N","075000,1,N,1","+0168,1","+0021,1","10065,1",,,,"0,1,03,1","0,1,03,1",,"01,99,1,01,1,01,1,01750,1,00,1,01,1",,,"99999,9,09818,1","2,1,004,1,+999,9",,"02,1","SYN072AAXX  13151 01442 41789 13507 10168 20021 39818 40065 52004 70200 81101;",
"01442099999","2010-06-13T18:00:00","4","58.6666666","7.8","211.0","BYGLANDSFJORD, NO","FM-12","99999","V020","330,1,N,0070,1","22000,1,9,N","075000,1,N,1","+0147,1","+0035,1","10071,1","12,0000,9,1",,,"0,1,06,1","0,1,06,1",,"01,99,1,00,1,00,1,99999,9,00,1,01,1",,"999,M,+0176,1","99999,9,09823,1","2,1,005,1,+999,9",,"02,1","SYN088AAXX  13181 01442 11989 13307 10147 20035 39823 40071 52005 60002 70200 80001 333 10176;","Q01  00002PRCP12"
"01442099999","2010-06-14T03:00:00","4","58.6666666","7.8","211.0","BYGLANDSFJORD, NO","FM-12","99999","V020","350,1,N,0050,1","22000,1,9,N","075000,1,N,1","+0100,1","+0033,1","10109,1",,,,"0,1,03,1","0,1,03,1",,"03,99,1,02,1,02,1,01250,1,00,1,01,1",,,"99999,9,09857,1","2,1,011,1,+999,9",,"03,1","SYN072AAXX  14031 01442 41689 33505 10100 20033 39857 40109 52011 70300 82201;",
"01442099999","2010-06-14T06:00:00","4","58.6666666","7.8","211.0","BYGLANDSFJORD, NO","FM-12","99999","V020","340,1,N,0070,1","03000,1,9,N","075000,1,N,1","+0114,1","+0042,1","10117,1","12,0000,9,1","24,0000,9,1",,"1,1,06,1","0,1,06,1",,"07,99,1,03,1,02,1,01250,1,03,1,01,1",,"999,N,+0098,1","99999,9,09866,1","2,1,009,1,+999,9",,"03,1","SYN094AAXX  14061 01442 11689 73407 10114 20042 39866 40117 52009 60002 70310 83231 333 20098 70000;","Q01  00002PRCP24Q02  00002PRCP12"
"01442099999","2010-06-14T09:00:00","4","58.6666666","7.8","211.0","BYGLANDSFJORD, NO","FM-12","99999","V020","140,1,N,0050,1","01200,1,9,N","075000,1,N,1","+0128,1","+0052,1","10130,1",,,,"2,1,03,1","2,1,03,1",,"06,99,1,05,1,02,1,01250,1,06,1,03,1",,,"99999,9,09878,1","2,1,013,1,+999,9",,"03,1","SYN072AAXX  14091 01442 41689 61405 10128 20052 39878 40130 52013 70322 85263;",
"01442099999","2010-06-14T12:00:00","4","58.6666666","7.8","211.0","BYGLANDSFJORD, NO","FM-12","99999","V020","140,1,N,0050,1","01200,1,9,N","075000,1,N,1","+0163,1","+0059,1","10123,1",,,,"2,1,06,1","2,1,06,1",,"06,99,1,05,1,02,1,01250,1,06,1,03,1",,,"99999,9,09876,1","7,1,003,1,+999,9",,"03,1","SYN078AAXX  14121 01442 11689 61405 10163 20059 39876 40123 57003 6//// 70322 85263;",
"01442099999","2010-06-14T15:00:00","4","58.6666666","7.8","211.0","BYGLANDSFJORD, NO","FM-12","99999","V020","170,1,N,0070,1","00750,1,9,N","075000,1,N,1","+0133,1","+0090,1","10133,1",,,,"8,1,03,1","2,1,03,1",,"07,99,1,07,1,09,1,00800,1,00,1,03,1",,,"99999,9,09882,1","0,1,007,1,+999,9",,"25,1","SYN072AAXX  14151 01442 41589 71707 10133 20090 39882 40133 50007 72582 87903;",
"01442099999","2010-06-14T18:00:00","4","58.6666666","7.8","211.0","BYGLANDSFJORD, NO","FM-12","99999","V020","160,1,N,0050,1","03000,1,9,N","075000,1,N,1","+0132,1","+0087,1","10134,1","12,0180,9,1",,,"8,1,06,1","2,1,06,1",,"05,99,1,04,1,03,1,00800,1,06,1,03,1",,"999,M,+0167,1","99999,9,09883,1","2,1,001,1,+999,9",,"01,1","SYN088AAXX  14181 01442 11589 51605 10132 20087 39883 40134 52001 60182 70182 84363 333 10167;",
"01442099999","2010-06-15T03:00:00","4","58.6666666","7.8","211.0","BYGLANDSFJORD, NO","FM-12","99999","V020","340,1,N,0050,1","22000,1,9,N","075000,1,N,1","+0081,1","+0043,1","10198,1",,,,"0,1,03,1","0,1,03,1",,"01,99,1,01,1,01,1,01250,1,00,1,00,1",,,"99999,9,09942,1","1,1,010,1,+999,9",,"02,1","SYN072AAXX  15031 01442 41689 13405 10081 20043 39942 40198 51010 70200 81100;",
"01442099999","2010-06-15T06:00:00","4","58.6666666","7.8","211.0","BYGLANDSFJORD, NO","FM-12","99999","V020","340,1,N,0050,1","22000,1,9,N","075000,1,N,1","+0102,1","+0037,1","10213,1","12,0119,9,1","24,0302,9,1",,"0,1,06,1","0,1,06,1","00,1,+99999,9,99,9","00,99,1,00,1,00,1,99999,9,00,1,00,1",,"999,N,+0072,1","99999,9,09957,1","2,1,016,1,+999,9",,"02,1","SYN088AAXX  15061 01442 11989 03405 10102 20037 39957 40213 52016 60122 70200 333 20072 70301;",
"01442099999","2010-06-15T09:00:00","4","58.6666666","7.8","211.0","BYGLANDSFJORD, NO","FM-12","99999","V020","330,1,N,0030,1","22000,1,9,N","075000,1,N,1","+0145,1","+0004,1","10214,1",,,,"0,1,03,1","0,1,03,1",,"01,99,1,01,1,01,1,01750,1,00,1,00,1",,,"99999,9,09962,1","1,1,005,1,+999,9",,"03,1","SYN072AAXX  15091 01442 41789 13303 10145 20004 39962 40214 51005 70300 81100;",
"01442099999","2010-06-15T12:00:00","4","58.6666666","7.8","211.0","BYGLANDSFJORD, NO","FM-12","99999","V020","330,1,N,0030,1","22000,1,9,N","075000,1,N,1","+0188,1","+0004,1","10205,1",,,,"0,1,06,1","0,1,06,1",,"01,99,1,01,1,01,1,01750,1,00,1,00,1",,,"99999,9,09957,1","7,1,005,1,+999,9",,"01,1","SYN078AAXX  15121 01442 11789 13303 10188 20004 39957 40205 57005 6//// 70100 81100;",
"01442099999","2010-06-15T15:00:00","4","58.6666666","7.8","211.0","BYGLANDSFJORD, NO","FM-12","99999","V020","350,1,N,0030,1","22000,1,9,N","075000,1,N,1","+0204,1","-0008,1","10199,1",,,,"0,1,03,1","0,1,03,1",,"01,99,1,00,1,00,1,99999,9,00,1,01,1",,,"99999,9,09952,1","7,1,005,1,+999,9",,"02,1","SYN072AAXX  15151 01442 41989 13503 10204 21008 39952 40199 57005 70200 80001;",
"01442099999","2010-06-15T18:00:00","4","58.6666666","7.8","211.0","BYGLANDSFJORD, NO","FM-12","99999","V020","310,1,N,0030,1","22000,1,9,N","075000,1,N,1","+0197,1","+0017,1","10195,1","12,0000,9,1",,,"0,1,06,1","0,1,06,1",,"01,99,1,00,1,00,1,99999,9,00,1,01,1",,"999,M,+0205,1","99999,9,09948,1","7,1,004,1,+999,9",,"02,1","SYN088AAXX  15181 01442 11989 13103 10197 20017 39948 40195 57004 60002 70200 80001 333 10205;","Q01  00002PRCP12"
"01442099999","2010-06-16T03:00:00","4","58.6666666","7.8","211.0","BYGLANDSFJORD, NO","FM-12","99999","V020","350,1,N,0030,1","22000,1,9,N","075000,1,N,1","+0094,1","+0061,1","10233,1",,,,"0,1,03,1","0,1,03,1","00,1,+99999,9,99,9","00,99,1,00,1,00,1,99999,9,00,1,00,1",,,"99999,9,09977,1","0,1,001,1,+999,9",,"02,1","SYN066AAXX  16031 01442 41989 03503 10094 20061 39977 40233 50001 70200;",
"01442099999","2010-06-16T06:00:00","4","58.6666666","7.8","211.0","BYGLANDSFJORD, NO","FM-12","99999","V020","340,1,N,0050,1","22000,1,9,N","075000,1,N,1","+0116,1","+0057,1","10225,1","12,0000,9,1","24,0000,9,1",,"0,1,06,1","0,1,06,1",,"01,99,1,00,1,00,1,99999,9,00,1,01,1",,"999,N,+0079,1","99999,9,09971,1","7,1,006,1,+999,9",,"02,1","SYN094AAXX  16061 01442 11989 13405 10116 20057 39971 40225 57006 60002 70200 80001 333 20079 70000;","Q01  00002PRCP24Q02  00002PRCP12"
"01442099999","2010-06-16T09:00:00","4","58.6666666","7.8","211.0","BYGLANDSFJORD, NO","FM-12","99999","V020","340,1,N,0030,1","22000,1,9,N","075000,1,N,1","+0163,1","+0053,1","10211,1",,,,"0,1,03,1","0,1,03,1",,"01,99,1,00,1,00,1,99999,9,00,1,02,1",,,"99999,9,09961,1","8,1,010,1,+999,9",,"02,1","SYN072AAXX  16091 01442 41989 13403 10163 20053 39961 40211 58010 70200 80002;",
"01442099999","2010-06-16T12:00:00","4","58.6666666","7.8","211.0","BYGLANDSFJORD, NO","FM-12","99999","V020","170,1,N,0050,1","99999,9,9,N","075000,1,N,1","+0228,1","+0018,1","10190,1",,,,"1,1,06,1","0,1,06,1",,"07,99,1,00,1,00,1,99999,9,00,1,08,1",,,"99999,9,09946,1","7,1,015,1,+999,9",,"03,1","SYN078AAXX  16121 01442 11989 71705 10228 20018 39946 40190 57015 6//// 70310 80008;",
"01442099999","2010-06-16T15:00:00","4","58.6666666","7.8","211.0","BYGLANDSFJORD, NO","FM-12","99999","V020","320,1,N,0050,1","22000,1,9,N","075000,1,N,1","+0247,1","+0003,1","10173,1",,,,"1,1,03,1","0,1,03,1",,"02,99,1,00,1,00,1,99999,9,00,1,01,1",,,"99999,9,09931,1","6,1,015,1,+999,9",,"01,1","SYN072AAXX  16151 01442 41989 23205 10247 20003 39931 40173 56015 70110 80001;",
"01442099999","2010-06-16T18:00:00","4","58.6666666","7.8","211.0","BYGLANDSFJORD, NO","FM-12","99999","V020","300,1,N,0050,1","22000,1,9,N","075000,1,N,1","+0222,1","+0048,1","10172,1","12,0000,9,1",,,"1,1,06,1","0,1,06,1","00,1,+99999,9,99,9","00,99,1,00,1,00,1,99999,9,00,1,00,1",,"999,M,+0249,1","99999,9,09927,1","5,1,003,1,+999,9",,"01,1","SYN082AAXX  16181 01442 11989 03005 10222 20048 39927 40172 55003 60002 70110 333 10249;","Q01  00002PRCP12"
"01442099999","2010-06-17T03:00:00","4","58.6666666","7.8","211.0","BYGLANDSFJORD, NO","FM-12","99999","V020","340,1,N,0030,1","22000,1,9,N","075000,1,N,1","+0122,1","+0069,1","10196,1",,,,"0,1,03,1","0,1,03,1","00,1,+99999,9,99,9","00,99,1,00,1,00,1,99999,9,00,1,00,1",,,"99999,9,09942,1","5,1,001,1,+999,9",,"02,1","SYN066AAXX  17031 01442 41989 03403 10122 20069 39942 40196 55001 70200;",
"01442099999","2010-06-17T06:00:00","4","58.6666666","7.8","211.0","BYGLANDSFJORD, NO","FM-12","99999","V020","360,1,N,0030,1","22000,1,9,N","075000,1,N,1","+0138,1","+0078,1","10192,1","12,0000,9,1","24,0000,9,1",,"0,1,06,1","0,1,06,1","00,1,+99999,9,99,9","00,99,1,00,1,00,1,99999,9,00,1,00,1",,"999,N,+0118,1","99999,9,09941,1","8,1,002,1,+999,9",,"02,1","SYN088AAXX  17061 01442 11989 03603 10138 20078 39941 40192 58002 60002 70200 333 20118 70000;","Q01  00002PRCP24Q02  00002PRCP12"
"01442099999","2010-06-17T09:00:00","4","58.6666666","7.8","211.0","BYGLANDSFJORD, NO","FM-12","99999","V020","350,1,N,0030,1","22000,1,9,N","075000,1,N,1","+0191,1","+0075,1","10179,1",,,,"0,1,03,1","0,1,03,1","00,1,+99999,9,99,9","00,99,1,00,1,00,1,99999,9,00,1,00,1",,,"99999,9,09932,1","8,1,008,1,+999,9",,"02,1","SYN066AAXX  17091 01442 41989 03503 10191 20075 39932 40179 58008 70200;",
"01442099999","2010-06-17T12:00:00","4","58.6666666","7.8","211.0","BYGLANDSFJORD, NO","FM-12","99999","V020","150,1,N,0050,1","22000,1,9,N","075000,1,N,1","+0258,1","+0069,1","10146,1",,,,"0,1,06,1","0,1,06,1","00,1,+99999,9,99,9","00,99,1,00,1,00,1,99999,9,00,1,00,1",,,"99999,9,09906,1","8,1,027,1,+999,9",,"02,1","SYN072AAXX  17121 01442 11989 01505 10258 20069 39906 40146 58027 6//// 70200;",
"01442099999","2010-06-17T15:00:00","4","58.6666666","7.8","211.0","BYGLANDSFJORD, NO","FM-12","99999","V020","010,1,N,0050,1","22000,1,9,N","075000,1,N,1","+0276,1","+0058,1","10123,1",,,,"0,1,03,1","0,1,03,1",,"01,99,1,01,1,00,1,99999,9,04,1,01,1",,,"99999,9,09885,1","7,1,021,1,+999,9",,"03,1","SYN072AAXX  17151 01442 41989 10105 10276 20058 39885 40123 57021 70300 81041;",
"01442099999","2010-06-17T18:00:00","4","58.6666666","7.8","211.0","BYGLANDSFJORD, NO","FM-12","99999","V020","350,1,N,0070,1","07500,1,9,N","075000,1,N,1","+0215,1","+0081,1","10121,1","12,0000,9,1",,,"1,1,06,1","0,1,06,1",,"07,99,1,02,1,00,1,02250,1,03,1,06,1",,"999,M,+0282,1","99999,9,09877,1","6,1,007,1,+999,9",,"03,1","SYN088AAXX  17181 01442 11889 73507 10215 20081 39877 40121 56007 60002 70310 82036 333 10282;","Q01  00002PRCP12"
"01442099999","2010-06-18T03:00:00","4","58.6666666","7.8","211.0","BYGLANDSFJORD, NO","FM-12","99999","V020","350,1,N,0070,1","22000,1,9,N","075000,1,N,1","+0126,1","+0033,1","10084,1",,,,"1,1,03,1","1,1,03,1",,"01,99,1,01,1,01,1,01750,1,00,1,00,1",,,"99999,9,09833,1","5,1,008,1,+999,9",,"01,1","SYN072AAXX  18031 01442 41789 13507 10126 20033 39833 40084 55008 70111 81100;",
"01442099999","2010-06-18T06:00:00","4","58.6666666","7.8","211.0","BYGLANDSFJORD, NO","FM-12","99999","V020","350,1,N,0100,1","22000,1,9,N","075000,1,N,1","+0116,1","+0004,1","10067,1","12,0000,9,1","24,0000,9,1",,"1,1,06,1","0,1,06,1",,"01,99,1,01,1,01,1,01750,1,00,1,00,1",,"999,N,+0113,1","99999,9,09817,1","5,1,017,1,+999,9",,"01,1","SYN094AAXX  18061 01442 11789 13510 10116 20004 39817 40067 55017 60002 70110 81100 333 20113 70000;","Q01  00002PRCP24Q02  00002PRCP12"
"01442099999","2010-06-18T09:00:00","4","58.6666666","7.8","211.0","BYGLANDSFJORD, NO","FM-12","99999","V020","999,9,9,9999,9","22000,1,9,N","075000,1,N,1","+0144,1","+0010,1","10052,1",,,,"0,1,03,1","0,1,03,1",,"02,99,1,01,1,01,1,01750,1,00,1,01,1",,,"99999,9,09805,1","8,1,012,1,+999,9",,"03,1","SYN072AAXX  18091 01442 41789 2//// 10144 20010 39805 40052 58012 70300 81101;",
"01442099999","2010-06-18T12:00:00","4","58.6666666","7.8","211.0","BYGLANDSFJORD, NO","FM-12","99999","V020","999,9,9,9999,9","03000,1,9,N","075000,1,N,1","+0153,1","+0018,1","10031,1",,,,"1,1,06,1","0,1,06,1",,"05,99,1,04,1,02,1,01250,1,06,1,00,1",,,"99999,9,09785,1","8,1,020,1,+999,9",,"03,1","SYN078AAXX  18121 01442 11689 5//// 10153 20018 39785 40031 58020 6//// 70310 84260;",
"01442099999","2010-06-18T15:00:00","4","58.6666666","7.8","211.0","BYGLANDSFJORD, NO","FM-12","99999","V020","999,9,9,9999,9","22000,1,9,N","075000,1,N,1","+0153,1","+0011,1","10014,1",,,,"1,1,03,1","1,1,03,1",,"03,99,1,02,1,02,1,01250,1,06,1,00,1",,,"99999,9,09767,1","6,1,017,1,+999,9",,"01,1","SYN072AAXX  18151 01442 41689 3//// 10153 20011 39767 40014 56017 70111 82260;",
"01442099999","2010-06-18T18:00:00","4","58.6666666","7.8","211.0","BYGLANDSFJORD, NO","FM-12","99999","V020","320,1,N,0100,1","01200,1,9,N","075000,1,N,1","+0153,1","+0015,1","10008,1","12,0000,9,1",,,"1,1,06,1","1,1,06,1",,"07,99,1,05,1,02,1,01250,1,06,1,01,1",,"999,M,+0164,1","99999,9,09762,1","8,1,005,1,+999,9",,"03,1","SYN088AAXX  18181 01442 11689 73210 10153 20015 39762 40008 58005 60002 70311 85261 333 10164;","Q01  00002PRCP12"
"01442099999","2010-06-19T03:00:00","4","58.6666666","7.8","211.0","BYGLANDSFJORD, NO","FM-12","99999","V020","330,1,N,0070,1","02100,1,9,N","075000,1,N,1","+0126,1","+0019,1","09974,1",,,,"2,1,03,1","2,1,03,1",,"07,99,1,07,1,00,1,02250,1,07,1,01,1",,,"99999,9,09727,1","6,1,011,1,+999,9",,"02,1","SYN072AAXX  19031 01442 41889 73307 10126 20019 39727 49974 56011 70222 87071;",
"01442099999","2010-06-19T06:00:00","4","58.6666666","7.8","211.0","BYGLANDSFJORD, NO","FM-12","99999","V020","350,1,N,0070,1","22000,1,9,N","075000,1,N,1","+0129,1","+0003,1","09979,1","12,0000,9,1","24,0000,9,1",,"2,1,06,1","1,1,06,1",,"01,99,1,01,1,01,1,01750,1,00,1,00,1",,"999,N,+0124,1","99999,9,09732,1","3,1,005,1,+999,9",,"01,1","SYN094AAXX  19061 01442 11789 13507 10129 20003 39732 49979 53005 60002 70121 81100 333 20124 70000;","Q01  00002PRCP24Q02  00002PRCP12"
"01442099999","2010-06-19T09:00:00","4","58.6666666","7.8","211.0","BYGLANDSFJORD, NO","FM-12","99999","V020","340,1,N,0100,1","22000,1,9,N","075000,1,N,1","+0143,1","+0006,1","09988,1",,,,"0,1,03,1","0,1,03,1",,"03,99,1,03,1,02,1,01750,1,06,1,00,1",,,"99999,9,09742,1","3,1,010,1,+999,9",,"03,1","SYN072AAXX  19091 01442 41789 33410 10143 20006 39742 49988 53010 70300 83260;",
"01442099999","2010-06-19T12:00:00","4","58.6666666","7.8","211.0","BYGLANDSFJORD, NO","FM-12","99999","V020","350,1,N,0070,1","22000,1,9,N","075000,1,N,1","+0168,1","+0009,1","09989,1",,,,"1,1,06,1","1,1,06,1",,"03,99,1,02,1,02,1,01750,1,06,1,00,1",,,"99999,9,09745,1","2,1,003,1,+999,9",,"01,1","SYN078AAXX  19121 01442 11789 33507 10168 20009 39745 49989 52003 6//// 70111 82260;",
"01442099999","2010-06-19T15:00:00","4","58.6666666","7.8","211.0","BYGLANDSFJORD, NO","FM-12","99999","V020","350,1,N,0070,1","01200,1,9,N","075000,1,N,1","+0188,1","+0018,1","09985,1",,,,"1,1,03,1","1,1,03,1",,"06,99,1,05,1,02,1,01250,1,06,1,00,1",,,"99999,9,09742,1","7,1,002,1,+999,9",,"03,1","SYN072AAXX  19151 01442 41689 63507 10188 20018 39742 49985 57002 70311 85260;",
"01442099999","2010-06-19T18:00:00","4","58.6666666","7.8","211.0","BYGLANDSFJORD, NO","FM-12","99999","V020","030,1,N,0030,1","22000,1,9,N","075000,1,N,1","+0138,1","+0071,1","10010,1","12,0000,9,1",,,"8,1,06,1","1,1,06,1",,"03,99,1,02,1,02,1,01250,1,06,1,00,1",,"999,M,+0196,1","99999,9,09762,1","1,1,023,1,+999,9",,"01,1","SYN088AAXX  19181 01442 11689 30303 10138 20071 39762 40010 51023 69912 70181 82260 333 10196;","Q01  00002PRCP12"
"01442099999","2010-06-20T03:00:00","4","58.6666666","7.8","211.0","BYGLANDSFJORD, NO","FM-12","99999","V020","190,1,N,0010,1","01200,1,9,N","075000,1,N,1","+0081,1","+0070,1","10062,1",,,,"1,1,03,1","1,1,03,1",,"07,99,1,07,1,08,1,00800,1,00,1,00,1",,,"99999,9,09808,1","2,1,010,1,+999,9",,"03,1","SYN072AAXX  20031 01442 41589 71901 10081 20070 39808 40062 52010 70311 87800;",
"01442099999","2010-06-20T06:00:00","4","58.6666666","7.8","211.0","BYGLANDSFJORD, NO","FM-12","99999","V020","170,1,N,0030,1","00750,1,9,N","075000,1,N,1","+0103,1","+0068,1","99999,9","12,0000,9,1","24,0000,9,1",,"1,1,06,1","1,1,06,1",,"07,99,1,07,1,09,1,00800,1,00,1,00,1",,"999,N,+0078,1",,"3,1,014,1,+999,9",,"03,1","SYN094AAXX  20061 01442 11589 71703 10103 20068 39922 40177 53014 60002 70311 87900 333 20078 70001;","Q01+099223APOSP Q02  00002PRCP24Q03  00002PRCP12"
"01442099999","2010-06-20T09:00:00","4","58.6666666","7.8","211.0","BYGLANDSFJORD, NO","FM-12","99999","V020","170,1,N,0050,1","01200,1,9,N","075000,1,N,1","+0124,1","+0031,1","10092,1",,,,"8,1,03,1","1,1,03,1",,"07,99,1,07,1,08,1,00800,1,00,1,01,1",,,"99999,9,09842,1","1,1,019,1,+999,9",,"25,1","SYN072AAXX  20091 01442 41589 71705 10124 20031 39842 40092 51019 72581 87801;",
"01442099999","2010-06-20T12:00:00","4","58.6666666","7.8","211.0","BYGLANDSFJORD, NO","FM-12","99999","V020","150,1,N,0030,1","01200,1,9,N","075000,1,N,1","+0130,1","+0023,1","10106,1",,,,"8,1,06,1","2,1,06,1",,"07,99,1,07,1,08,1,00800,1,00,1,01,1",,,"99999,9,09856,1","1,1,013,1,+999,9",,"01,1","SYN078AAXX  20121 01442 11589 71503 10130 20023 39856 40106 51013 6//// 70182 87801;",
"01442099999","2010-06-20T15:00:00","4","58.6666666","7.8","211.0","BYGLANDSFJORD, NO","FM-12","99999","V020","150,1,N,0030,1","22000,1,9,N","075000,1,N,1","+0168,1","+0042,1","10097,1",,,,"1,1,03,1","1,1,03,1",,"03,99,1,01,1,02,1,01250,1,06,1,00,1",,,"99999,9,09851,1","7,1,005,1,+999,9",,"01,1","SYN072AAXX  20151 01442 41689 31503 10168 20042 39851 40097 57005 70111 81260;",
"01442099999","2010-06-20T18:00:00","4","58.6666666","7.8","211.0","BYGLANDSFJORD, NO","FM-12","99999","V020","270,1,N,0050,1","22000,1,9,N","075000,1,N,1","+0177,1","+0036,1","10101,1","12,0000,2,1",,,"1,1,06,1","1,1,06,1",,"02,99,1,01,1,02,1,01250,1,06,1,01,1",,"999,M,+0181,1","99999,9,09855,1","3,1,004,1,+999,9",,"01,1","SYN088AAXX  20181 01442 11689 22705 10177 20036 39855 40101 53004 69912 70111 81261 333 10181;",
"01442099999","2010-06-21T03:00:00","4","58.6666666","7.8","211.0","BYGLANDSFJORD, NO","FM-12","99999","V020","999,9,C,0000,1","99999,9,9,N","075000,1,N,1","+0063,1","+0053,1","10167,1",,,,"1,1,03,1","0,1,03,1",,"07,99,1,00,1,00,1,99999,9,00,1,08,1",,,"99999,9,09910,1","2,1,015,1,+999,9",,"02,1","SYN072AAXX  21031 01442 41989 70000 10063 20053 39910 40167 52015 70210 80008;",
"01442099999","2010-06-21T06:00:00","4","58.6666666","7.8","211.0","BYGLANDSFJORD, NO","FM-12","99999","V020","020,1,N,0030,1","22000,1,9,N","075000,1,N,1","+0104,1","+0064,1","10173,1","12,0000,9,1","24,0000,2,1",,"1,1,06,1","0,1,06,1",,"03,99,1,00,1,00,1,99999,9,00,1,01,1",,"999,N,+0063,1","99999,9,09918,1","2,1,009,1,+999,9",,"01,1","SYN094AAXX  21061 01442 11989 30203 10104 20064 39918 40173 52009 60002 70110 80001 333 20063 70001;","Q01  00002PRCP12"
"01442099999","2010-06-21T09:00:00","4","58.6666666","7.8","211.0","BYGLANDSFJORD, NO","FM-12","99999","V020","140,1,N,0050,1","22000,1,9,N","075000,1,N,1","+0182,1","+0054,1","10167,1",,,,"0,1,03,1","0,1,03,1",,"02,99,1,00,1,00,1,99999,9,00,1,01,1",,,"99999,9,09920,1","1,1,001,1,+999,9",,"02,1","SYN072AAXX  21091 01442 41989 21405 10182 20054 39920 40167 51001 70200 80001;",
"01442099999","2010-06-21T12:00:00","4","58.6666666","7.8","211.0","BYGLANDSFJORD, NO","FM-12","99999","V020","150,1,N,0050,1","22000,1,9,N","075000,1,N,1","+0218,1","+0025,1","10158,1",,,,"0,1,06,1","0,1,06,1",,"02,99,1,01,1,01,1,01750,1,00,1,01,1",,,"99999,9,09913,1","7,1,006,1,+999,9",,"03,1","SYN078AAXX  21121 01442 11789 21505 10218 20025 39913 40158 57006 6//// 70300 81101;",
"01442099999","2010-06-21T15:00:00","4","58.6666666","7.8","211.0","BYGLANDSFJORD, NO","FM-12","99999","V020","170,1,N,0070,1","07500,1,9,N","075000,1,N,1","+0210,1","+0018,1","10159,1",,,,"1,1,03,1","1,1,03,1",,"07,99,1,01,1,01,1,01750,1,00,1,08,1",,,"99999,9,09915,1","3,1,001,1,+999,9",,"03,1","SYN072AAXX  21151 01442 41789 71707 10210 20018 39915 40159 53001 70311 81108;",
"01442099999","2010-06-21T18:00:00","4","58.6666666","7.8","211.0","BYGLANDSFJORD, NO","FM-12","99999","V020","150,1,N,0050,1","22000,1,9,N","075000,1,N,1","+0194,1","+0051,1","10160,1","12,0000,9,1",,,"1,1,06,1","1,1,06,1",,"05,99,1,01,1,01,1,01750,1,00,1,08,1",,"999,M,+0223,1","99999,9,09913,1","7,1,001,1,+999,9",,"01,1","SYN088AAXX  21181 01442 11789 51505 10194 20051 39913 40160 57001 60002 70111 81108 333 10223;","Q01  00002PRCP12"
"01442099999","2010-06-22T03:00:00","4","58.6666666","7.8","211.0","BYGLANDSFJORD, NO","FM-12","99999","V020","340,1,N,0050,1","22000,1,9,N","075000,1,N,1","+0080,1","+0061,1","10178,1",,,,"0,1,03,1","0,1,03,1",,"03,99,1,00,1,00,1,99999,9,00,1,02,1",,,"99999,9,09922,1","7,1,004,1,+999,9",,"02,1","SYN072AAXX  22031 01442 41989 33405 10080 20061 39922 40178 57004 70200 80002;",
"01442099999","2010-06-22T06:00:00","4","58.6666666","7.8","211.0","BYGLANDSFJORD, NO","FM-12","99999","V020","350,1,N,0030,1","22000,1,9,N","075000,1,N,1","+0123,1","+0072,1","10171,1","12,0000,9,1","24,0000,9,1",,"0,1,06,1","0,1,06,1",,"03,99,1,00,1,00,1,99999,9,00,1,02,1",,"999,N,+0077,1","99999,9,09918,1","8,1,003,1,+999,9",,"02,1","SYN094AAXX  22061 01442 11989 33503 10123 20072 39918 40171 58003 60002 70200 80002 333 20077 70000;","Q01  00002PRCP24Q02  00002PRCP12"
"01442099999","2010-06-22T09:00:00","4","58.6666666","7.8","211.0","BYGLANDSFJORD, NO","FM-12","99999","V020","030,1,N,0030,1","22000,1,9,N","075000,1,N,1","+0172,1","+0058,1","10163,1",,,,"0,1,03,1","0,1,03,1",,"01,99,1,00,1,00,1,99999,9,00,1,01,1",,,"99999,9,09915,1","8,1,004,1,+999,9",,"02,1","SYN072AAXX  22091 01442 41989 10303 10172 20058 39915 40163 58004 70200 80001;",
"01442099999","2010-06-22T12:00:00","4","58.6666666","7.8","211.0","BYGLANDSFJORD, NO","FM-12","99999","V020","120,1,N,0030,1","22000,1,9,N","075000,1,N,1","+0234,1","+0028,1","10146,1",,,,"0,1,06,1","0,1,06,1",,"01,99,1,01,1,01,1,01750,1,00,1,01,1",,,"99999,9,09903,1","7,1,011,1,+999,9",,"02,1","SYN078AAXX  22121 01442 11789 11203 10234 20028 39903 40146 57011 6//// 70200 81101;",
"01442099999","2010-06-22T15:00:00","4","58.6666666","7.8","211.0","BYGLANDSFJORD, NO","FM-12","99999","V020","170,1,N,0050,1","22000,1,9,N","075000,1,N,1","+0251,1","+0053,1","10136,1",,,,"0,1,03,1","0,1,03,1",,"01,99,1,00,1,00,1,99999,9,00,1,01,1",,,"99999,9,09895,1","7,1,009,1,+999,9",,"02,1","SYN072AAXX  22151 01442 41989 11705 10251 20053 39895 40136 57009 70200 80001;",
"01442099999","2010-06-22T18:00:00","4","58.6666666","7.8","211.0","BYGLANDSFJORD, NO","FM-12","99999","V020","350,1,N,0030,1","22000,1,9,N","075000,1,N,1","+0219,1","+0040,1","10141,1","12,0000,9,1",,,"0,1,06,1","0,1,06,1","00,1,+99999,9,99,9","00,99,1,00,1,00,1,99999,9,00,1,00,1",,"999,M,+0252,1","99999,9,09897,1","2,1,003,1,+999,9",,"01,1","SYN082AAXX  22181 01442 11989 03503 10219 20040 39897 40141 52003 60002 70100 333 10252;","Q01  00002PRCP12"
"01442099999","2010-06-23T03:00:00","4","58.6666666","7.8","211.0","BYGLANDSFJORD, NO","FM-12","99999","V020","330,1,N,0050,1","22000,1,9,N","075000,1,N,1","+0121,1","+0046,1","10173,1",,,,"0,1,03,1","0,1,03,1","00,1,+99999,9,99,9","00,99,1,00,1,00,1,99999,9,00,1,00,1",,,"99999,9,09921,1","3,1,003,1,+999,9",,"02,1","SYN066AAXX  23031 01442 41989 03305 10121 20046 39921 40173 53003 70200;",
"01442099999","2010-06-23T06:00:00","4","58.6666666","7.8","211.0","BYGLANDSFJORD, NO","FM-12","99999","V020","350,1,N,0030,1","22000,1,9,N","075000,1,N,1","+0134,1","+0061,1","10179,1","12,0000,9,1","24,0000,9,1",,"0,1,06,1","0,1,06,1","00,1,+99999,9,99,9","00,99,1,00,1,00,1,99999,9,00,1,00,1",,"999,N,+0105,1","99999,9,09927,1","2,1,007,1,+999,9",,"02,1","SYN088AAXX  23061 01442 11989 03503 10134 20061 39927 40179 52007 60002 70200 333 20105 70000;","Q01  00002PRCP24Q02  00002PRCP12"
"01442099999","2010-06-23T09:00:00","4","58.6666666","7.8","211.0","BYGLANDSFJORD, NO","FM-12","99999","V020","040,1,N,0030,1","22000,1,9,N","075000,1,N,1","+0186,1","+0068,1","10171,1",,,,"0,1,03,1","0,1,03,1","00,1,+99999,9,99,9","00,99,1,00,1,00,1,99999,9,00,1,00,1",,,"99999,9,09923,1","7,1,004,1,+999,9",,"02,1","SYN066AAXX  23091 01442 41989 00403 10186 20068 39923 40171 57004 70200;",
"01442099999","2010-06-23T12:00:00","4","58.6666666","7.8","211.0","BYGLANDSFJORD, NO","FM-12","99999","V020","160,1,N,0050,1","22000,1,9,N","075000,1,N,1","+0233,1","+0074,1","10160,1",,,,"0,1,06,1","0,1,06,1",,"01,99,1,01,1,01,1,01750,1,00,1,01,1",,,"99999,9,09917,1","7,1,007,1,+999,9",,"03,1","SYN078AAXX  23121 01442 11789 11605 10233 20074 39917 40160 57007 6//// 70300 81101;",
"01442099999","2010-06-23T15:00:00","4","58.6666666","7.8","211.0","BYGLANDSFJORD, NO","FM-12","99999","V020","170,1,N,0050,1","22000,1,9,N","075000,1,N,1","+0235,1","+0095,1","10157,1",,,,"0,1,03,1","0,1,03,1",,"01,99,1,01,1,01,1,01750,1,00,1,01,1",,,"99999,9,09915,1","7,1,002,1,+999,9",,"01,1","SYN072AAXX  23151 01442 41789 11705 10235 20095 39915 40157 57002 70100 81101;",
"01442099999","2010-06-23T18:00:00","4","58.6666666","7.8","211.0","BYGLANDSFJORD, NO","FM-12","99999","V020","170,1,N,0050,1","22000,1,9,N","075000,1,N,1","+0211,1","+0106,1","10151,1","12,0000,9,1",,,"0,1,06,1","0,1,06,1","00,1,+99999,9,99,9","00,99,1,00,1,00,1,99999,9,00,1,00,1",,"999,M,+0241,1","99999,9,09907,1","6,1,008,1,+999,9",,"01,1","SYN082AAXX  23181 01442 11989 01705 10211 20106 39907 40151 56008 60002 70100 333 10241;","Q01  00002PRCP12"
"01442099999","2010-06-24T03:00:00","4","58.6666666","7.8","211.0","BYGLANDSFJORD, NO","FM-12","99999","V020","999,9,C,0000,1","22000,1,9,N","075000,1,N,1","+0102,1","+0083,1","10159,1",,,,"0,1,03,1","0,1,03,1",,"02,99,1,00,1,00,1,99999,9,00,1,02,1",,,"99999,9,09905,1","7,1,004,1,+999,9",,"02,1","SYN072AAXX  24031 01442 41989 20000 10102 20083 39905 40159 57004 70200 80002;",
"01442099999","2010-06-24T06:00:00","4","58.6666666","7.8","211.0","BYGLANDSFJORD, NO","FM-12","99999","V020","120,1,N,0030,1","99999,9,9,N","075000,1,N,1","+0137,1","+0099,1","10147,1","12,0000,9,1","24,0000,9,1",,"1,1,06,1","0,1,06,1",,"06,99,1,00,1,00,1,99999,9,00,1,06,1",,"999,N,+0100,1","99999,9,09897,1","7,1,008,1,+999,9",,"03,1","SYN094AAXX  24061 01442 11989 61203 10137 20099 39897 40147 57008 60002 70310 80006 333 20100 70000;","Q01  00002PRCP24Q02  00002PRCP12"
"01442099999","2010-06-24T09:00:00","4","58.6666666","7.8","211.0","BYGLANDSFJORD, NO","FM-12","99999","V020","120,1,N,0050,1","03000,1,9,N","075000,1,N,1","+0194,1","+0078,1","10130,1",,,,"2,1,03,1","2,1,03,1",,"07,99,1,01,1,01,1,01750,1,03,1,02,1",,,"99999,9,09885,1","8,1,012,1,+999,9",,"03,1","SYN072AAXX  24091 01442 41789 71205 10194 20078 39885 40130 58012 70322 81132;",
"01442099999","2010-06-24T15:00:00","4","58.6666666","7.8","211.0","BYGLANDSFJORD, NO","FM-12","99999","V020","170,1,N,0050,1","01200,1,9,N","075000,1,N,1","+0185,1","+0103,1","10126,1",,,,"2,1,03,1","2,1,03,1",,"08,99,1,08,1,09,1,01250,1,99,9,99,9",,,"99999,9,09880,1","8,1,004,1,+999,9",,"03,1","SYN072AAXX  24151 01442 41689 81705 10185 20103 39880 40126 58004 70322 889//;",
"01442099999","2010-06-24T18:00:00","4","58.6666666","7.8","211.0","BYGLANDSFJORD, NO","FM-12","99999","V020","190,1,N,0050,1","01500,1,9,N","075000,1,N,1","+0172,1","+0108,1","10119,1","12,0000,9,1",,,"2,1,06,1","2,1,06,1",,"08,99,1,08,1,08,1,01250,1,99,9,99,9",,"999,M,+0213,1","99999,9,09872,1","6,1,008,1,+999,9",,"02,1","SYN088AAXX  24181 01442 11689 81905 10172 20108 39872 40119 56008 60002 70222 888// 333 10213;","Q01  00002PRCP12"
"01442099999","2010-06-25T03:00:00","4","58.6666666","7.8","211.0","BYGLANDSFJORD, NO","FM-12","99999","V020","999,9,C,0000,1","22000,1,9,N","075000,1,N,1","+0091,1","+0079,1","10123,1",,,,"0,1,03,1","0,1,03,1",,"01,99,1,01,1,01,1,01250,1,00,1,00,1",,,"99999,9,09868,1","3,1,002,1,+999,9",,"02,1","SYN072AAXX  25031 01442 41689 10000 10091 20079 39868 40123 53002 70200 81100;",
"01442099999","2010-06-25T06:00:00","4","58.6666666","7.8","211.0","BYGLANDSFJORD, NO","FM-12","99999","V020","130,1,N,0050,1","22000,1,9,N","075000,1,N,1","+0135,1","+0084,1","10111,1","12,0000,9,1","24,0000,9,1",,"0,1,06,1","0,1,06,1",,"03,99,1,03,1,02,1,01250,1,00,1,00,1",,"999,N,+0090,1","99999,9,09862,1","7,1,007,1,+999,9",,"03,1","SYN094AAXX  25061 01442 11689 31305 10135 20084 39862 40111 57007 60002 70300 83200 333 20090 70000;","Q01  00002PRCP24Q02  00002PRCP12"
"01442099999","2010-06-25T09:00:00","4","58.6666666","7.8","211.0","BYGLANDSFJORD, NO","FM-12","99999","V020","280,1,N,0050,1","01200,1,9,N","075000,1,N,1","+0155,1","+0073,1","10115,1",,,,"1,1,03,1","1,1,03,1",,"07,99,1,06,1,02,1,01250,1,06,1,00,1",,,"99999,9,09867,1","3,1,006,1,+999,9",,"03,1","SYN072AAXX  25091 01442 41689 72805 10155 20073 39867 40115 53006 70311 86260;",
"01442099999","2010-06-25T12:00:00","4","58.6666666","7.8","211.0","BYGLANDSFJORD, NO","FM-12","99999","V020","310,1,N,0050,1","01200,1,9,N","075000,1,N,1","+0164,1","+0071,1","10107,1",,,,"8,1,06,1","1,1,06,1",,"07,99,1,07,1,09,1,01250,1,00,1,00,1",,,"99999,9,09860,1","7,1,007,1,+999,9",,"03,1","SYN078AAXX  25121 01442 11689 73105 10164 20071 39860 40107 57007 6//// 70381 87900;",
"01442099999","2010-06-25T15:00:00","4","58.6666666","7.8","211.0","BYGLANDSFJORD, NO","FM-12","99999","V020","330,1,N,0050,1","01200,1,9,N","075000,1,N,1","+0170,1","+0068,1","10102,1",,,,"2,1,03,1","2,1,03,1",,"06,99,1,05,1,02,1,01250,1,06,1,00,1",,,"99999,9,09856,1","5,1,004,1,+999,9",,"03,1","SYN072AAXX  25151 01442 41689 63305 10170 20068 39856 40102 55004 70322 85260;",
"01442099999","2010-06-25T18:00:00","4","58.6666666","7.8","211.0","BYGLANDSFJORD, NO","FM-12","99999","V020","340,1,N,0050,1","22000,1,9,N","075000,1,N,1","+0161,1","+0060,1","10103,1","12,0000,9,1",,,"2,1,06,1","1,1,06,1",,"01,99,1,01,1,01,1,01250,1,00,1,00,1",,"999,M,+0188,1","99999,9,09856,1","5,1,000,1,+999,9",,"01,1","SYN088AAXX  25181 01442 11689 13405 10161 20060 39856 40103 55000 69902 70121 81100 333 10188;","Q01  00002PRCP12"
"01442099999","2010-06-26T03:00:00","4","58.6666666","7.8","211.0","BYGLANDSFJORD, NO","FM-12","99999","V020","330,1,N,0070,1","22000,1,9,N","075000,1,N,1","+0120,1","+0059,1","10128,1",,,,"0,1,03,1","0,1,03,1",,"01,99,1,01,1,01,1,01250,1,00,1,00,1",,,"99999,9,09877,1","5,1,001,1,+999,9",,"02,1","SYN072AAXX  26031 01442 41689 13307 10120 20059 39877 40128 55001 70200 81100;",
"01442099999","2010-06-26T06:00:00","4","58.6666666","7.8","211.0","BYGLANDSFJORD, NO","FM-12","99999","V020","340,1,N,0050,1","22000,1,9,N","075000,1,N,1","+0145,1","+0061,1","10133,1","12,0000,9,1","24,0000,9,1",,"0,1,06,1","0,1,06,1","00,1,+99999,9,99,9","00,99,1,00,1,00,1,99999,9,00,1,00,1",,"999,N,+0118,1","99999,9,09883,1","3,1,007,1,+999,9",,"02,1","SYN088AAXX  26061 01442 11989 03405 10145 20061 39883 40133 53007 60002 70200 333 20118 79999;","Q01  00002PRCP24Q02  00002PRCP12"
"01442099999","2010-06-26T09:00:00","4","58.6666666","7.8","211.0","BYGLANDSFJORD, NO","FM-12","99999","V020","340,1,N,0050,1","22000,1,9,N","075000,1,N,1","+0182,1","+0048,1","10137,1",,,,"0,1,03,1","0,1,03,1",,"01,99,1,01,1,01,1,01750,1,00,1,00,1",,,"99999,9,09891,1","2,1,007,1,+999,9",,"03,1","SYN072AAXX  26091 01442 41789 13405 10182 20048 39891 40137 52007 70300 81100;",
"01442099999","2010-06-26T12:00:00","4","58.6666666","7.8","211.0","BYGLANDSFJORD, NO","FM-12","99999","V020","330,1,N,0030,1","22000,1,9,N","075000,1,N,1","+0204,1","+0040,1","10138,1",,,,"0,1,06,1","0,1,06,1",,"01,99,1,01,1,01,1,01750,1,00,1,00,1",,,"99999,9,09893,1","2,1,003,1,+999,9",,"02,1","SYN078AAXX  26121 01442 11789 13303 10204 20040 39893 40138 52003 6//// 70200 81100;",
"01442099999","2010-06-26T15:00:00","4","58.6666666","7.8","211.0","BYGLANDSFJORD, NO","FM-12","99999","V020","350,1,N,0030,1","22000,1,9,N","075000,1,N,1","+0235,1","+0054,1","10134,1",,,,"0,1,03,1","0,1,03,1",,"01,99,1,01,1,01,1,01750,1,00,1,01,1",,,"99999,9,09892,1","7,1,002,1,+999,9",,"01,1","SYN072AAXX  26151 01442 41789 13503 10235 20054 39892 40134 57002 70100 81101;",
"01442099999","2010-06-26T18:00:00","4","58.6666666","7.8","211.0","BYGLANDSFJORD, NO","FM-12","99999","V020","340,1,N,0030,1","22000,1,9,N","075000,1,N,1","+0226,1","+0072,1","10138,1","12,0000,9,1",,,"0,1,06,1","0,1,06,1",,"01,99,1,00,1,00,1,99999,9,00,1,01,1",,"999,M,+0238,1","99999,9,09895,1","2,1,003,1,+999,9",,"01,1","SYN088AAXX  26181 01442 11989 13403 10226 20072 39895 40138 52003 60002 70100 80001 333 10238;","Q01  00002PRCP12"
"01442099999","2010-06-27T03:00:00","4","58.6666666","7.8","211.0","BYGLANDSFJORD, NO","FM-12","99999","V020","350,1,N,0050,1","22000,1,9,N","075000,1,N,1","+0123,1","+0076,1","10180,1",,,,"0,1,03,1","0,1,03,1","00,1,+99999,9,99,9","00,99,1,00,1,00,1,99999,9,00,1,00,1",,,"99999,9,09927,1","2,1,008,1,+999,9",,"02,1","SYN066AAXX  27031 01442 41989 03505 10123 20076 39927 40180 52008 70200;",
"01442099999","2010-06-27T06:00:00","4","58.6666666","7.8","211.0","BYGLANDSFJORD, NO","FM-12","99999","V020","340,1,N,0050,1","22000,1,9,N","075000,1,N,1","+0138,1","+0080,1","10183,1","12,0000,9,1","24,0000,9,1",,"0,1,06,1","0,1,06,1","00,1,+99999,9,99,9","00,99,1,00,1,00,1,99999,9,00,1,00,1",,"999,N,+0120,1","99999,9,09932,1","0,1,004,1,+999,9",,"02,1","SYN088AAXX  27061 01442 11989 03405 10138 20080 39932 40183 50004 60002 70200 333 20120 70000;","Q01  00002PRCP24Q02  00002PRCP12"
"01442099999","2010-06-27T09:00:00","4","58.6666666","7.8","211.0","BYGLANDSFJORD, NO","FM-12","99999","V020","340,1,N,0030,1","22000,1,9,N","075000,1,N,1","+0181,1","+0075,1","10180,1",,,,"0,1,03,1","0,1,03,1","00,1,+99999,9,99,9","00,99,1,00,1,00,1,99999,9,00,1,00,1",,,"99999,9,09932,1","0,1,001,1,+999,9",,"02,1","SYN066AAXX  27091 01442 41989 03403 10181 20075 39932 40180 50001 70200;",
"01442099999","2010-06-27T12:00:00","4","58.6666666","7.8","211.0","BYGLANDSFJORD, NO","FM-12","99999","V020","170,1,N,0030,1","22000,1,9,N","075000,1,N,1","+0251,1","+0053,1","10169,1",,,,"0,1,06,1","0,1,06,1","00,1,+99999,9,99,9","00,99,1,00,1,00,1,99999,9,00,1,00,1",,,"99999,9,09927,1","7,1,005,1,+999,9",,"02,1","SYN072AAXX  27121 01442 11989 01703 10251 20053 39927 40169 57005 6//// 70200;",
"01442099999","2010-06-27T15:00:00","4","58.6666666","7.8","211.0","BYGLANDSFJORD, NO","FM-12","99999","V020","170,1,N,0030,1","22000,1,9,N","075000,1,N,1","+0264,1","+0048,1","10162,1",,,,"0,1,03,1","0,1,03,1","00,1,+99999,9,99,9","00,99,1,00,1,00,1,99999,9,00,1,00,1",,,"99999,9,09922,1","7,1,006,1,+999,9",,"02,1","SYN066AAXX  27151 01442 41989 01703 10264 20048 39922 40162 57006 70200;",
"01442099999","2010-06-27T18:00:00","4","58.6666666","7.8","211.0","BYGLANDSFJORD, NO","FM-12","99999","V020","170,1,N,0030,1","22000,1,9,N","075000,1,N,1","+0231,1","+0051,1","10170,1","12,0000,9,1",,,"0,1,06,1","0,1,06,1","00,1,+99999,9,99,9","00,99,1,00,1,00,1,99999,9,00,1,00,1",,"999,M,+0267,1","99999,9,09927,1","2,1,005,1,+999,9",,"02,1","SYN082AAXX  27181 01442 11989 01703 10231 20051 39927 40170 52005 60002 70200 333 10267;","Q01  00002PRCP12"
"01442099999","2010-06-28T03:00:00","4","58.6666666","7.8","211.0","BYGLANDSFJORD, NO","FM-12","99999","V020","999,9,C,0000,1","99999,9,9,N","075000,1,N,1","+0107,1","+0083,1","10195,1",,,,"1,1,03,1","0,1,03,1",,"07,99,1,00,1,00,1,99999,9,00,1,08,1",,,"99999,9,09941,1","2,1,001,1,+999,9",,"02,1","SYN072AAXX  28031 01442 41989 70000 10107 20083 39941 40195 52001 70210 80008;",
"01442099999","2010-06-28T06:00:00","4","58.6666666","7.8","211.0","BYGLANDSFJORD, NO","FM-12","99999","V020","010,1,N,0030,1","99999,9,9,N","075000,1,N,1","+0146,1","+0081,1","10191,1","12,0000,9,1","24,0000,9,1",,"1,1,06,1","0,1,06,1",,"07,99,1,00,1,00,1,99999,9,00,1,08,1",,"999,N,+0106,1","99999,9,09940,1","7,1,001,1,+999,9",,"02,1","SYN094AAXX  28061 01442 11989 70103 10146 20081 39940 40191 57001 60002 70210 80008 333 20106 70000;","Q01  00002PRCP24Q02  00002PRCP12"
"01442099999","2010-06-28T09:00:00","4","58.6666666","7.8","211.0","BYGLANDSFJORD, NO","FM-12","99999","V020","170,1,N,0050,1","22000,1,9,N","075000,1,N,1","+0214,1","+0076,1","10177,1",,,,"1,1,03,1","0,1,03,1",,"01,99,1,00,1,00,1,99999,9,00,1,01,1",,,"99999,9,09932,1","7,1,007,1,+999,9",,"02,1","SYN072AAXX  28091 01442 41989 11705 10214 20076 39932 40177 57007 70210 80001;",
"01442099999","2010-06-28T12:00:00","4","58.6666666","7.8","211.0","BYGLANDSFJORD, NO","FM-12","99999","V020","190,1,N,0050,1","22000,1,9,N","075000,1,N,1","+0247,1","+0106,1","10165,1",,,,"1,1,06,1","0,1,06,1",,"03,99,1,03,1,02,1,01750,1,00,1,01,1",,,"99999,9,09922,1","7,1,010,1,+999,9",,"03,1","SYN078AAXX  28121 01442 11789 31905 10247 20106 39922 40165 57010 6//// 70310 83201;",
"01442099999","2010-06-28T15:00:00","4","58.6666666","7.8","211.0","BYGLANDSFJORD, NO","FM-12","99999","V020","190,1,N,0050,1","22000,1,9,N","075000,1,N,1","+0245,1","+0089,1","10162,1",,,,"0,1,03,1","0,1,03,1",,"03,99,1,02,1,02,1,01750,1,00,1,02,1",,,"99999,9,09920,1","5,1,003,1,+999,9",,"03,1","SYN072AAXX  28151 01442 41789 31905 10245 20089 39920 40162 55003 70300 82202;",
"01442099999","2010-06-28T18:00:00","4","58.6666666","7.8","211.0","BYGLANDSFJORD, NO","FM-12","99999","V020","190,1,N,0050,1","99999,9,9,N","075000,1,N,1","+0224,1","+0099,1","10159,1","12,0000,9,1",,,"1,1,06,1","0,1,06,1",,"07,99,1,00,1,00,1,99999,9,00,1,08,1",,"999,M,+0254,1","99999,9,09916,1","7,1,004,1,+999,9",,"01,1","SYN088AAXX  28181 01442 11989 71905 10224 20099 39916 40159 57004 60002 70110 80008 333 10254;","Q01  00002PRCP12"
"01442099999","2010-06-29T03:00:00","4","58.6666666","7.8","211.0","BYGLANDSFJORD, NO","FM-12","99999","V020","170,1,N,0010,1","22000,1,9,N","075000,1,N,1","+0111,1","+0099,1","10172,1",,,,"0,1,03,1","0,1,03,1",,"02,99,1,00,1,00,1,99999,9,00,1,01,1",,,"99999,9,09918,1","7,1,004,1,+999,9",,"02,1","SYN072AAXX  29031 01442 41989 21701 10111 20099 39918 40172 57004 70200 80001;",
"01442099999","2010-06-29T06:00:00","4","58.6666666","7.8","211.0","BYGLANDSFJORD, NO","FM-12","99999","V020","170,1,N,0030,1","22000,1,9,N","075000,1,N,1","+0140,1","+0108,1","10168,1","12,0000,9,1","24,0000,9,1",,"0,1,06,1","0,1,06,1",,"02,99,1,01,1,00,1,99999,9,03,1,02,1",,"999,N,+0105,1","99999,9,09917,1","7,1,001,1,+999,9",,"03,1","SYN094AAXX  29061 01442 11989 21703 10140 20108 39917 40168 57001 60002 70300 81032 333 20105 70000;","Q01  00002PRCP24Q02  00002PRCP12"
"01442099999","2010-06-29T09:00:00","4","58.6666666","7.8","211.0","BYGLANDSFJORD, NO","FM-12","99999","V020","150,1,N,0050,1","07500,1,9,N","075000,1,N,1","+0207,1","+0080,1","10152,1",,,,"1,1,03,1","1,1,03,1",,"07,99,1,02,1,00,1,02250,1,03,1,06,1",,,"99999,9,09907,1","8,1,010,1,+999,9",,"03,1","SYN072AAXX  29091 01442 41889 71505 10207 20080 39907 40152 58010 70311 82036;",
"01442099999","2010-06-29T12:00:00","4","58.6666666","7.8","211.0","BYGLANDSFJORD, NO","FM-12","99999","V020","190,1,N,0030,1","22000,1,9,N","075000,1,N,1","+0227,1","+0052,1","10139,1",,,,"1,1,06,1","1,1,06,1",,"03,99,1,01,1,00,1,02250,1,03,1,02,1",,,"99999,9,09896,1","8,1,012,1,+999,9",,"01,1","SYN078AAXX  29121 01442 11889 31903 10227 20052 39896 40139 58012 6//// 70111 81032;",
"01442099999","2010-06-29T15:00:00","4","58.6666666","7.8","211.0","BYGLANDSFJORD, NO","FM-12","99999","V020","170,1,N,0050,1","01200,1,9,N","075000,1,N,1","+0224,1","+0085,1","10124,1",,,,"1,1,03,1","1,1,03,1",,"07,99,1,07,1,09,1,01250,1,00,1,00,1",,,"99999,9,09882,1","7,1,014,1,+999,9",,"03,1","SYN072AAXX  29151 01442 41689 71705 10224 20085 39882 40124 57014 70311 87900;",
"01442099999","2010-06-29T18:00:00","4","58.6666666","7.8","211.0","BYGLANDSFJORD, NO","FM-12","99999","V020","190,1,N,0030,1","01200,1,9,N","075000,1,N,1","+0198,1","+0097,1","10122,1","12,0000,9,1",,,"2,1,06,1","1,1,06,1",,"08,99,1,08,1,09,1,01250,1,99,9,99,9",,"999,M,+0244,1","99999,9,09877,1","7,1,004,1,+999,9",,"03,1","SYN088AAXX  29181 01442 11689 81903 10198 20097 39877 40122 57004 60002 70321 889// 333 10244;","Q01  00002PRCP12"
"01442099999","2010-06-30T03:00:00","4","58.6666666","7.8","211.0","BYGLANDSFJORD, NO","FM-12","99999","V020","150,1,N,0030,1","00900,1,9,N","075000,1,N,1","+0129,1","+0121,1","10107,1",,,,"8,1,03,1","2,1,03,1",,"07,99,1,07,1,08,1,00450,1,00,1,00,1",,,"99999,9,09857,1","7,1,008,1,+999,9",,"01,1","SYN072AAXX  30031 01442 41489 71503 10129 20121 39857 40107 57008 70182 87800;",
"01442099999","2010-06-30T06:00:00","4","58.6666666","7.8","211.0","BYGLANDSFJORD, NO","FM-12","99999","V020","030,1,N,0050,1","22000,1,9,N","075000,1,N,1","+0151,1","+0099,1","10107,1","12,0030,9,1","24,0033,9,1",,"8,1,06,1","1,1,06,1",,"01,99,1,01,1,01,1,01250,1,00,1,00,1",,"999,N,+0125,1","99999,9,09858,1","2,1,002,1,+999,9",,"01,1","SYN094AAXX  30061 01442 11689 10305 10151 20099 39858 40107 52002 60032 70181 81100 333 20125 70033;",
"01442099999","2010-06-30T09:00:00","4","58.6666666","7.8","211.0","BYGLANDSFJORD, NO","FM-12","99999","V020","320,1,N,0070,1","03000,1,9,N","075000,1,N,1","+0173,1","+0082,1","10117,1",,,,"1,1,03,1","1,1,03,1",,"05,99,1,04,1,02,1,01250,1,06,1,00,1",,,"99999,9,09871,1","3,1,012,1,+999,9",,"03,1","SYN072AAXX  30091 01442 41689 53207 10173 20082 39871 40117 53012 70311 84260;",
"01442099999","2010-06-30T12:00:00","4","58.6666666","7.8","211.0","BYGLANDSFJORD, NO","FM-12","99999","V020","310,1,N,0070,1","22000,1,9,N","075000,1,N,1","+0185,1","+0067,1","10125,1",,,,"1,1,06,1","1,1,06,1",,"02,99,1,02,1,02,1,01250,1,06,1,00,1",,,"99999,9,09878,1","1,1,008,1,+999,9",,"01,1","SYN078AAXX  30121 01442 11689 23107 10185 20067 39878 40125 51008 6//// 70111 82260;",
"01442099999","2010-06-30T15:00:00","4","58.6666666","7.8","211.0","BYGLANDSFJORD, NO","FM-12","99999","V020","310,1,N,0070,1","22000,1,9,N","075000,1,N,1","+0184,1","+0072,1","10132,1",,,,"0,1,03,1","0,1,03,1",,"01,99,1,01,1,02,1,01750,1,06,1,00,1",,,"99999,9,09886,1","3,1,007,1,+999,9",,"01,1","SYN072AAXX  30151 01442 41789 13107 10184 20072 39886 40132 53007 70100 81260;",
"01442099999","2010-06-30T18:00:00","4","58.6666666","7.8","211.0","BYGLANDSFJORD, NO","FM-12","99999","V020","320,1,N,0070,1","22000,1,9,N","075000,1,N,1","+0164,1","+0074,1","10136,1","12,0000,9,1",,,"0,1,06,1","0,1,06,1",,"01,99,1,01,1,01,1,01750,1,00,1,00,1",,"999,M,+0197,1","99999,9,09887,1","3,1,002,1,+999,9",,"01,1","SYN088AAXX  30181 01442 11789 13207 10164 20074 39887 40136 53002 60002 70100 81100 333 10197;","Q01  00002PRCP12"
"01442099999","2010-07-01T03:00:00","4","58.6666666","7.8","211.0","BYGLANDSFJORD, NO","FM-12","99999","V020","120,1,N,0030,1","22000,1,9,N","075000,1,N,1","+0070,1","+0059,1","10160,1",,,,"0,1,03,1","0,1,03,1","00,1,+99999,9,99,9","00,99,1,00,1,00,1,99999,9,00,1,00,1",,,"99999,9,09903,1","3,1,007,1,+999,9",,"02,1","SYN066AAXX  01031 01442 41989 01203 10070 20059 39903 40160 53007 70200;",
"01442099999","2010-07-01T06:00:00","4","58.6666666","7.8","211.0","BYGLANDSFJORD, NO","FM-12","99999","V020","120,1,N,0030,1","22000,1,9,N","075000,1,N,1","+0111,1","+0072,1","10159,1","12,0000,9,1","24,0000,9,1",,"0,1,06,1","0,1,06,1","00,1,+99999,9,99,9","00,99,1,00,1,00,1,99999,9,00,1,00,1",,"999,N,+0068,1","99999,9,09906,1","2,1,002,1,+999,9",,"02,1","SYN088AAXX  01061 01442 11989 01203 10111 20072 39906 40159 52002 60002 70200 333 20068 70000;","Q01  00002PRCP24Q02  00002PRCP12"
"01442099999","2010-07-01T09:00:00","4","58.6666666","7.8","211.0","BYGLANDSFJORD, NO","FM-12","99999","V020","150,1,N,0030,1","22000,1,9,N","075000,1,N,1","+0182,1","+0058,1","10147,1",,,,"0,1,03,1","0,1,03,1","00,1,+99999,9,99,9","00,99,1,00,1,00,1,99999,9,00,1,00,1",,,"99999,9,09901,1","8,1,005,1,+999,9",,"02,1","SYN066AAXX  01091 01442 41989 01503 10182 20058 39901 40147 58005 70200;",
"01442099999","2010-07-01T12:00:00","4","58.6666666","7.8","211.0","BYGLANDSFJORD, NO","FM-12","99999","V020","120,1,N,0030,1","22000,1,9,N","075000,1,N,1","+0229,1","+0035,1","10134,1",,,,"0,1,06,1","0,1,06,1",,"01,99,1,00,1,00,1,99999,9,00,1,01,1",,,"99999,9,09892,1","7,1,009,1,+999,9",,"02,1","SYN078AAXX  01121 01442 11989 11203 10229 20035 39892 40134 57009 6//// 70200 80001;",
"01442099999","2010-07-01T15:00:00","4","58.6666666","7.8","211.0","BYGLANDSFJORD, NO","FM-12","99999","V020","170,1,N,0050,1","22000,1,9,N","075000,1,N,1","+0247,1","+0050,1","10124,1",,,,"0,1,03,1","0,1,03,1","00,1,+99999,9,99,9","00,99,1,00,1,00,1,99999,9,00,1,00,1",,,"99999,9,09882,1","7,1,009,1,+999,9",,"02,1","SYN066AAXX  01151 01442 41989 01705 10247 20050 39882 40124 57009 70200;",
"01442099999","2010-07-01T18:00:00","4","58.6666666","7.8","211.0","BYGLANDSFJORD, NO","FM-12","99999","V020","170,1,N,0050,1","22000,1,9,N","075000,1,N,1","+0228,1","+0061,1","10127,1","12,0000,9,1",,,"0,1,06,1","0,1,06,1",,"01,99,1,00,1,00,1,99999,9,00,1,01,1",,"999,M,+0255,1","99999,9,09885,1","3,1,002,1,+999,9",,"02,1","SYN088AAXX  01181 01442 11989 11705 10228 20061 39885 40127 53002 60002 70200 80001 333 10255;","Q01  00002PRCP12"
"01442099999","2010-07-02T03:00:00","4","58.6666666","7.8","211.0","BYGLANDSFJORD, NO","FM-12","99999","V020","110,1,N,0030,1","02100,1,9,N","075000,1,N,1","+0131,1","+0090,1","10157,1",,,,"2,1,03,1","2,1,03,1",,"07,99,1,07,1,00,1,02250,1,07,1,00,1",,,"99999,9,09906,1","5,1,001,1,+999,9",,"02,1","SYN072AAXX  02031 01442 41889 71103 10131 20090 39906 40157 55001 70222 87070;",
"01442099999","2010-07-02T06:00:00","4","58.6666666","7.8","211.0","BYGLANDSFJORD, NO","FM-12","99999","V020","350,1,N,0030,1","03000,1,9,N","075000,1,N,1","+0153,1","+0107,1","10152,1","12,0000,9,1","24,0000,9,1",,"2,1,06,1","2,1,06,1",,"07,99,1,01,1,01,1,01250,1,07,1,00,1",,"999,N,+0132,1","99999,9,09902,1","8,1,003,1,+999,9",,"03,1","SYN094AAXX  02061 01442 11689 73503 10153 20107 39902 40152 58003 60002 70322 81170 333 20132 70000;","Q01  00002PRCP24Q02  00002PRCP12"
"01442099999","2010-07-02T09:00:00","4","58.6666666","7.8","211.0","BYGLANDSFJORD, NO","FM-12","99999","V020","150,1,N,0050,1","01200,1,9,N","075000,1,N,1","+0196,1","+0106,1","10150,1",,,,"2,1,03,1","2,1,03,1",,"08,99,1,08,1,09,1,01250,1,99,9,99,9",,,"99999,9,09905,1","3,1,002,1,+999,9",,"03,1","SYN072AAXX  02091 01442 41689 81505 10196 20106 39905 40150 53002 70322 889//;",
"01442099999","2010-07-02T12:00:00","4","58.6666666","7.8","211.0","BYGLANDSFJORD, NO","FM-12","99999","V020","150,1,N,0070,1","03000,1,9,N","075000,1,N,1","+0233,1","+0117,1","10142,1",,,,"2,1,06,1","2,1,06,1",,"07,99,1,04,1,02,1,01250,1,06,1,08,1",,,"99999,9,09900,1","7,1,005,1,+999,9",,"01,1","SYN078AAXX  02121 01442 11689 71507 10233 20117 39900 40142 57005 6//// 70122 84268;",
"01442099999","2010-07-02T15:00:00","4","58.6666666","7.8","211.0","BYGLANDSFJORD, NO","FM-12","99999","V020","170,1,N,0070,1","22000,1,9,N","075000,1,N,1","+0235,1","+0119,1","10137,1",,,,"1,1,03,1","1,1,03,1",,"02,99,1,01,1,01,1,01750,1,03,1,01,1",,,"99999,9,09895,1","8,1,005,1,+999,9",,"01,1","SYN072AAXX  02151 01442 41789 21707 10235 20119 39895 40137 58005 70111 81131;",
"01442099999","2010-07-02T18:00:00","4","58.6666666","7.8","211.0","BYGLANDSFJORD, NO","FM-12","99999","V020","150,1,N,0050,1","01500,1,9,N","075000,1,N,1","+0220,1","+0117,1","10133,1","12,0000,9,1",,,"1,1,06,1","1,1,06,1",,"08,99,1,07,1,00,1,01750,1,07,1,99,9",,"999,M,+0241,1","99999,9,09890,1","6,1,005,1,+999,9",,"03,1","SYN088AAXX  02181 01442 11789 81505 10220 20117 39890 40133 56005 60002 70311 8707/ 333 10241;","Q01  00002PRCP12"
"01442099999","2010-07-03T03:00:00","4","58.6666666","7.8","211.0","BYGLANDSFJORD, NO","FM-12","99999","V020","999,9,C,0000,1","22000,1,9,N","070000,1,N,1","+0157,1","+0132,1","10149,1",,,,"0,1,03,1","0,1,03,1",,"02,99,1,01,1,01,1,00800,1,03,1,01,1",,,"99999,9,09900,1","1,1,005,1,+999,9",,"02,1","SYN072AAXX  03031 01442 41588 20000 10157 20132 39900 40149 51005 70200 81131;",
"01442099999","2010-07-03T06:00:00","4","58.6666666","7.8","211.0","BYGLANDSFJORD, NO","FM-12","99999","V020","150,1,N,0030,1","00750,1,9,N","070000,1,N,1","+0169,1","+0140,1","10155,1","12,0000,9,1","24,0000,9,1",,"1,1,06,1","0,1,06,1",,"08,99,1,08,1,09,1,00800,1,99,9,99,9",,"999,N,+0154,1","99999,9,09907,1","1,1,007,1,+999,9",,"03,1","SYN094AAXX  03061 01442 11588 81503 10169 20140 39907 40155 51007 60002 70310 889// 333 20154 70000;","Q01  00002PRCP24Q02  00002PRCP12"
"01442099999","2010-07-03T09:00:00","4","58.6666666","7.8","211.0","BYGLANDSFJORD, NO","FM-12","99999","V020","170,1,N,0030,1","00750,1,9,N","060000,1,N,1","+0182,1","+0156,1","10157,1",,,,"8,1,03,1","2,1,03,1",,"08,99,1,07,1,09,1,00800,1,00,1,01,1",,,"99999,9,09910,1","0,1,003,1,+999,9",,"25,1","SYN072AAXX  03091 01442 41586 81703 10182 20156 39910 40157 50003 72582 87901;",
"01442099999","2010-07-03T12:00:00","4","58.6666666","7.8","211.0","BYGLANDSFJORD, NO","FM-12","99999","V020","170,1,N,0050,1","01200,1,9,N","075000,1,N,1","+0227,1","+0158,1","10151,1",,,,"8,1,06,1","1,1,06,1",,"07,99,1,06,1,02,1,01250,1,06,1,01,1",,,"99999,9,09907,1","8,1,002,1,+999,9",,"03,1","SYN078AAXX  03121 01442 11689 71705 10227 20158 39907 40151 58002 6//// 70381 86261;",
"01442099999","2010-07-03T15:00:00","4","58.6666666","7.8","211.0","BYGLANDSFJORD, NO","FM-12","99999","V020","190,1,N,0050,1","00420,1,9,N","015000,1,N,1","+0175,1","+0162,1","10163,1",,,,"8,1,03,1","2,1,03,1",,"08,99,1,08,1,09,1,00450,1,99,9,99,9",,,"99999,9,09916,1","3,1,008,1,+999,9",,"81,1","SYN072AAXX  03151 01442 41465 81905 10175 20162 39916 40163 53008 78182 889//;",
"01442099999","2010-07-03T18:00:00","4","58.6666666","7.8","211.0","BYGLANDSFJORD, NO","FM-12","99999","V020","120,1,N,0030,1","00900,1,9,N","050000,1,N,1","+0179,1","+0168,1","10155,1","12,0051,9,1",,,"8,1,06,1","2,1,06,1",,"07,99,1,07,1,08,1,00450,1,00,1,00,1",,"999,M,+0229,1","99999,9,09907,1","6,1,008,1,+999,9",,"01,1","SYN088AAXX  03181 01442 11484 71203 10179 20168 39907 40155 56008 60052 70182 87800 333 10229;",
"01442099999","2010-07-04T03:00:00","4","58.6666666","7.8","211.0","BYGLANDSFJORD, NO","FM-12","99999","V020","999,9,C,0000,1","00015,1,9,N","000000,1,N,1","+0142,1","+0142,1","10166,1",,,,"4,1,03,1","4,1,03,1","09,1,+99999,9,99,9","09,99,1,09,1,99,9,99999,9,99,9,99,9",,,"99999,9,09916,1","7,1,003,1,+999,9",,"45,1","SYN066AAXX  04031 01442 41/00 90000 10142 20142 39916 40166 57003 74544;",
"01442099999","2010-07-04T06:00:00","4","58.6666666","7.8","211.0","BYGLANDSFJORD, NO","FM-12","99999","V020","999,9,C,0000,1","22000,1,9,N","070000,1,N,1","+0143,1","+0140,1","10169,1","12,0000,9,1","24,0051,9,1",,"4,1,06,1","0,1,06,1",,"03,99,1,03,1,06,1,00075,1,00,1,01,1",,"999,N,+0140,1","99999,9,09918,1","2,1,003,1,+999,9",,"28,1","SYN094AAXX  04061 01442 11188 30000 10143 20140 39918 40169 52003 69912 72840 83601 333 20140 70050;","Q01  00002PRCP12"
"01442099999","2010-07-04T09:00:00","4","58.6666666","7.8","211.0","BYGLANDSFJORD, NO","FM-12","99999","V020","170,1,N,0030,1","22000,1,9,N","075000,1,N,1","+0194,1","+0075,1","10157,1",,,,"0,1,03,1","0,1,03,1",,"01,99,1,01,1,01,1,01750,1,00,1,00,1",,,"99999,9,09911,1","6,1,008,1,+999,9",,"02,1","SYN072AAXX  04091 01442 41789 11703 10194 20075 39911 40157 56008 70200 81100;",
"01442099999","2010-07-04T12:00:00","4","58.6666666","7.8","211.0","BYGLANDSFJORD, NO","FM-12","99999","V020","190,1,N,0070,1","22000,1,9,N","075000,1,N,1","+0224,1","+0054,1","10139,1",,,,"0,1,06,1","0,1,06,1",,"01,99,1,00,1,00,1,99999,9,00,1,01,1",,,"99999,9,09896,1","8,1,015,1,+999,9",,"02,1","SYN078AAXX  04121 01442 11989 11907 10224 20054 39896 40139 58015 6//// 70200 80001;",
"01442099999","2010-07-04T15:00:00","4","58.6666666","7.8","211.0","BYGLANDSFJORD, NO","FM-12","99999","V020","190,1,N,0050,1","22000,1,9,N","075000,1,N,1","+0209,1","+0061,1","10139,1",,,,"0,1,03,1","0,1,03,1",,"03,99,1,01,1,01,1,01750,1,00,1,02,1",,,"99999,9,09895,1","8,1,001,1,+999,9",,"03,1","SYN072AAXX  04151 01442 41789 31905 10209 20061 39895 40139 58001 70300 81102;",
"01442099999","2010-07-04T18:00:00","4","58.6666666","7.8","211.0","BYGLANDSFJORD, NO","FM-12","99999","V020","160,1,N,0070,1","01200,1,9,N","075000,1,N,1","+0180,1","+0083,1","10130,1","12,0000,9,1",,,"1,1,06,1","0,1,06,1",,"08,99,1,08,1,09,1,01250,1,99,9,99,9",,"999,M,+0227,1","99999,9,09883,1","7,1,011,1,+999,9",,"03,1","SYN088AAXX  04181 01442 11689 81607 10180 20083 39883 40130 57011 60002 70310 889// 333 10227;","Q01  00002PRCP12"
"01442099999","2010-07-05T03:00:00","4","58.6666666","7.8","211.0","BYGLANDSFJORD, NO","FM-12","99999","V020","150,1,N,0030,1","22000,1,9,N","075000,1,N,1","+0141,1","+0133,1","10103,1",,,,"8,1,03,1","1,1,03,1",,"02,99,1,02,1,02,1,00800,1,00,1,01,1",,,"99999,9,09853,1","7,1,006,1,+999,9",,"01,1","SYN072AAXX  05031 01442 41589 21503 10141 20133 39853 40103 57006 70181 82201;",
"01442099999","2010-07-05T06:00:00","4","58.6666666","7.8","211.0","BYGLANDSFJORD, NO","FM-12","99999","V020","150,1,N,0030,1","00750,1,9,N","075000,1,N,1","+0142,1","+0121,1","10111,1","12,0041,9,2","24,0038,9,2",,"8,1,06,1","1,1,06,1",,"06,99,1,05,1,02,1,00800,1,00,1,01,1",,"999,N,+0138,1","99999,9,09862,1","2,1,008,1,+999,9",,"03,1","SYN094AAXX  05061 01442 11589 61503 10142 20121 39862 40111 52008 60042 70381 85201 333 20138 70037;",
"01442099999","2010-07-05T09:00:00","4","58.6666666","7.8","211.0","BYGLANDSFJORD, NO","FM-12","99999","V020","170,1,N,0050,1","00750,1,9,N","075000,1,N,1","+0162,1","+0103,1","10119,1",,,,"2,1,03,1","2,1,03,1",,"08,99,1,08,1,09,1,00800,1,99,9,99,9",,,"99999,9,09872,1","2,1,010,1,+999,9",,"03,1","SYN072AAXX  05091 01442 41589 81705 10162 20103 39872 40119 52010 70322 889//;",
"01442099999","2010-07-05T12:00:00","4","58.6666666","7.8","211.0","BYGLANDSFJORD, NO","FM-12","99999","V020","170,1,N,0050,1","01200,1,9,N","075000,1,N,1","+0191,1","+0079,1","10122,1",,,,"2,1,06,1","2,1,06,1",,"06,99,1,05,1,02,1,01250,1,06,1,01,1",,,"99999,9,09877,1","0,1,005,1,+999,9",,"03,1","SYN078AAXX  05121 01442 11689 61705 10191 20079 39877 40122 50005 6//// 70322 85261;",
"01442099999","2010-07-05T15:00:00","4","58.6666666","7.8","211.0","BYGLANDSFJORD, NO","FM-12","99999","V020","190,1,N,0050,1","22000,1,9,N","075000,1,N,1","+0201,1","+0081,1","10122,1",,,,"1,1,03,1","1,1,03,1",,"01,99,1,01,1,02,1,01750,1,06,1,00,1",,,"99999,9,09877,1","0,1,001,1,+999,9",,"01,1","SYN072AAXX  05151 01442 41789 11905 10201 20081 39877 40122 50001 70111 81260;",
"01442099999","2010-07-05T18:00:00","4","58.6666666","7.8","211.0","BYGLANDSFJORD, NO","FM-12","99999","V020","280,1,N,0070,1","22000,1,9,N","075000,1,N,1","+0177,1","+0075,1","10124,1","12,0000,9,1",,,"1,1,06,1","1,1,06,1",,"01,99,1,01,1,02,1,01750,1,06,1,00,1",,"999,M,+0203,1","99999,9,09877,1","5,1,000,1,+999,9",,"01,1","SYN088AAXX  05181 01442 11789 12807 10177 20075 39877 40124 55000 60002 70111 81260 333 10203;","Q01  00002PRCP12"
"01442099999","2010-07-06T03:00:00","4","58.6666666","7.8","211.0","BYGLANDSFJORD, NO","FM-12","99999","V020","150,1,N,0030,1","22000,1,9,N","075000,1,N,1","+0077,1","+0066,1","10147,1",,,,"0,1,03,1","0,1,03,1",,"01,99,1,00,1,00,1,99999,9,00,1,01,1",,,"99999,9,09892,1","3,1,005,1,+999,9",,"02,1","SYN072AAXX  06031 01442 41989 11503 10077 20066 39892 40147 53005 70200 80001;",
"01442099999","2010-07-06T06:00:00","4","58.6666666","7.8","211.0","BYGLANDSFJORD, NO","FM-12","99999","V020","270,1,N,0030,1","22000,1,9,N","075000,1,N,1","+0132,1","+0083,1","10141,1","12,0000,9,1","24,0000,9,1",,"0,1,06,1","0,1,06,1",,"04,99,1,03,1,02,1,01750,1,00,1,02,1",,"999,N,+0076,1","99999,9,09891,1","0,1,001,1,+999,9",,"03,1","SYN094AAXX  06061 01442 11789 42703 10132 20083 39891 40141 50001 60002 70300 83202 333 20076 70000;","Q01  00002PRCP24Q02  00002PRCP12"
"01442099999","2010-07-06T09:00:00","4","58.6666666","7.8","211.0","BYGLANDSFJORD, NO","FM-12","99999","V020","310,1,N,0070,1","01200,1,9,N","075000,1,N,1","+0161,1","+0060,1","10142,1",,,,"1,1,03,1","1,1,03,1",,"07,99,1,05,1,02,1,01250,1,06,1,02,1",,,"99999,9,09893,1","2,1,003,1,+999,9",,"03,1","SYN072AAXX  06091 01442 41689 73107 10161 20060 39893 40142 52003 70311 85262;",
"01442099999","2010-07-06T12:00:00","4","58.6666666","7.8","211.0","BYGLANDSFJORD, NO","FM-12","99999","V020","310,1,N,0070,1","01500,1,9,N","075000,1,N,1","+0167,1","+0060,1","10147,1",,,,"2,1,06,1","1,1,06,1",,"07,99,1,07,1,08,1,01250,1,00,1,02,1",,,"99999,9,09898,1","0,1,005,1,+999,9",,"02,1","SYN078AAXX  06121 01442 11689 73107 10167 20060 39898 40147 50005 6//// 70221 87802;",
"01442099999","2010-07-06T15:00:00","4","58.6666666","7.8","211.0","BYGLANDSFJORD, NO","FM-12","99999","V020","340,1,N,0070,1","03000,1,9,N","075000,1,N,1","+0174,1","+0054,1","10146,1",,,,"2,1,03,1","2,1,03,1",,"06,99,1,03,1,02,1,01750,1,06,1,00,1",,,"99999,9,09898,1","4,1,000,1,+999,9",,"01,1","SYN072AAXX  06151 01442 41789 63407 10174 20054 39898 40146 54000 70122 83260;",
"01442099999","2010-07-06T18:00:00","4","58.6666666","7.8","211.0","BYGLANDSFJORD, NO","FM-12","99999","V020","340,1,N,0070,1","22000,1,9,N","075000,1,N,1","+0172,1","+0049,1","10145,1","12,0000,9,1",,,"2,1,06,1","1,1,06,1",,"01,99,1,01,1,01,1,01750,1,00,1,00,1",,"999,M,+0196,1","99999,9,09897,1","7,1,001,1,+999,9",,"01,1","SYN088AAXX  06181 01442 11789 13407 10172 20049 39897 40145 57001 60002 70121 81100 333 10196;","Q01  00002PRCP12"
"01442099999","2010-07-07T03:00:00","4","58.6666666","7.8","211.0","BYGLANDSFJORD, NO","FM-12","99999","V020","120,1,N,0010,1","22000,1,9,N","075000,1,N,1","+0075,1","+0064,1","10164,1",,,,"0,1,03,1","0,1,03,1","00,1,+99999,9,99,9","00,99,1,00,1,00,1,99999,9,00,1,00,1",,,"99999,9,09907,1","8,1,002,1,+999,9",,"02,1","SYN066AAXX  07031 01442 41989 01201 10075 20064 39907 40164 58002 70200;",
"01442099999","2010-07-07T06:00:00","4","58.6666666","7.8","211.0","BYGLANDSFJORD, NO","FM-12","99999","V020","150,1,N,0030,1","01500,1,9,N","075000,1,N,1","+0096,1","+0069,1","10167,1","12,0000,9,1","24,0000,9,1",,"1,1,06,1","0,1,06,1",,"07,99,1,07,1,00,1,01750,1,07,1,02,1",,"999,N,+0074,1","99999,9,09912,1","0,1,005,1,+999,9",,"03,1","SYN094AAXX  07061 01442 11789 71503 10096 20069 39912 40167 50005 60002 70310 87072 333 20074 70000;","Q01  00002PRCP24Q02  00002PRCP12"
"01442099999","2010-07-07T09:00:00","4","58.6666666","7.8","211.0","BYGLANDSFJORD, NO","FM-12","99999","V020","170,1,N,0050,1","03000,1,9,N","075000,1,N,1","+0142,1","+0080,1","10168,1",,,,"2,1,03,1","2,1,03,1",,"08,99,1,01,1,01,1,01250,1,07,1,99,9",,,"99999,9,09917,1","2,1,006,1,+999,9",,"03,1","SYN072AAXX  07091 01442 41689 81705 10142 20080 39917 40168 52006 70322 8117/;",
"01442099999","2010-07-07T12:00:00","4","58.6666666","7.8","211.0","BYGLANDSFJORD, NO","FM-12","99999","V020","170,1,N,0070,1","01200,1,9,N","075000,1,N,1","+0154,1","+0093,1","10165,1",,,,"2,1,06,1","2,1,06,1",,"08,99,1,08,1,05,1,01250,1,99,9,99,9",,,"99999,9,09916,1","5,1,002,1,+999,9",,"03,1","SYN078AAXX  07121 01442 11689 81707 10154 20093 39916 40165 55002 6//// 70322 885//;",
"01442099999","2010-07-07T15:00:00","4","58.6666666","7.8","211.0","BYGLANDSFJORD, NO","FM-12","99999","V020","160,1,N,0070,1","00750,1,9,N","060000,1,N,1","+0154,1","+0125,1","10155,1",,,,"6,1,03,1","2,1,03,1",,"08,99,1,08,1,05,1,00800,1,99,9,99,9",,,"99999,9,09906,1","8,1,010,1,+999,9",,"60,1","SYN072AAXX  07151 01442 41586 81607 10154 20125 39906 40155 58010 76062 885//;",
"01442099999","2010-07-07T18:00:00","4","58.6666666","7.8","211.0","BYGLANDSFJORD, NO","FM-12","99999","V020","150,1,N,0050,1","00120,1,9,N","010000,1,N,1","+0146,1","+0135,1","10153,1","12,0000,2,1",,,"6,1,06,1","2,1,06,1",,"08,99,1,08,1,06,1,00150,1,99,9,99,9",,"999,M,+0160,1","99999,9,09902,1","7,1,003,1,+999,9",,"60,1","SYN088AAXX  07181 01442 11260 81505 10146 20135 39902 40153 57003 69922 76062 886// 333 10160;",
"01442099999","2010-07-08T03:00:00","4","58.6666666","7.8","211.0","BYGLANDSFJORD, NO","FM-12","99999","V020","150,1,N,0030,1","00060,1,9,N","010000,1,N,1","+0143,1","+0141,1","10145,1",,,,"6,1,03,1","2,1,03,1",,"08,99,1,08,1,06,1,00075,1,99,9,99,9",,,"99999,9,09895,1","7,1,009,1,+999,9",,"62,1","SYN072AAXX  08031 01442 41160 81503 10143 20141 39895 40145 57009 76262 886//;",
"01442099999","2010-07-08T06:00:00","4","58.6666666","7.8","211.0","BYGLANDSFJORD, NO","FM-12","99999","V020","150,1,N,0030,1","00420,1,9,N","050000,1,N,1","+0146,1","+0141,1","10139,1","12,0160,9,2","24,0157,9,2",,"6,1,06,1","2,1,06,1",,"08,99,1,05,1,07,1,00450,1,02,1,99,9",,"999,N,+0143,1","99999,9,09890,1","7,1,005,1,+999,9",,"61,1","SYN094AAXX  08061 01442 11484 81503 10146 20141 39890 40139 57005 60162 76162 8572/ 333 20143 70158;",
"01442099999","2010-07-08T09:00:00","4","58.6666666","7.8","211.0","BYGLANDSFJORD, NO","FM-12","99999","V020","160,1,N,0050,1","00120,1,9,N","030000,1,N,1","+0154,1","+0149,1","10141,1",,,,"6,1,03,1","2,1,03,1",,"08,99,1,08,1,06,1,00150,1,99,9,99,9",,,"99999,9,09892,1","0,1,003,1,+999,9",,"60,1","SYN072AAXX  08091 01442 41280 81605 10154 20149 39892 40141 50003 76062 886//;",
"01442099999","2010-07-08T12:00:00","4","58.6666666","7.8","211.0","BYGLANDSFJORD, NO","FM-12","99999","V020","180,1,N,0030,1","03000,1,9,N","075000,1,N,1","+0182,1","+0129,1","10146,1",,,,"6,1,06,1","2,1,06,1",,"08,99,1,01,1,01,1,00800,1,02,1,99,9",,,"99999,9,09900,1","2,1,008,1,+999,9",,"01,1","SYN078AAXX  08121 01442 11589 81803 10182 20129 39900 40146 52008 6//// 70162 8112/;",
"01442099999","2010-07-08T15:00:00","4","58.6666666","7.8","211.0","BYGLANDSFJORD, NO","FM-12","99999","V020","170,1,N,0050,1","03000,1,9,N","075000,1,N,1","+0191,1","+0087,1","10150,1",,,,"2,1,03,1","2,1,03,1",,"07,99,1,01,1,01,1,01250,1,07,1,01,1",,,"99999,9,09903,1","0,1,004,1,+999,9",,"01,1","SYN072AAXX  08151 01442 41689 71705 10191 20087 39903 40150 50004 70122 81171;",
"01442099999","2010-07-08T18:00:00","4","58.6666666","7.8","211.0","BYGLANDSFJORD, NO","FM-12","99999","V020","200,1,N,0030,1","03000,1,9,N","075000,1,N,1","+0181,1","+0081,1","10155,1","12,0008,9,1",,,"2,1,06,1","2,1,06,1",,"08,99,1,01,1,01,1,01250,1,07,1,99,9",,"999,M,+0193,1","99999,9,09907,1","3,1,004,1,+999,9",,"02,1","SYN088AAXX  08181 01442 11689 82003 10181 20081 39907 40155 53004 69972 70222 8117/ 333 10193;",
"01442099999","2010-07-09T03:00:00","4","58.6666666","7.8","211.0","BYGLANDSFJORD, NO","FM-12","99999","V020","999,9,C,0000,1","22000,1,9,N","075000,1,N,1","+0087,1","+0083,1","10175,1",,,,"0,1,03,1","0,1,03,1",,"01,99,1,00,1,00,1,99999,9,00,1,02,1",,,"99999,9,09920,1","2,1,007,1,+999,9",,"02,1","SYN072AAXX  09031 01442 41989 10000 10087 20083 39920 40175 52007 70200 80002;",
"01442099999","2010-07-09T06:00:00","4","58.6666666","7.8","211.0","BYGLANDSFJORD, NO","FM-12","99999","V020","120,1,N,0030,1","22000,1,9,N","075000,1,N,1","+0111,1","+0092,1","10179,1","12,0000,9,1","24,0008,9,1",,"0,1,06,1","0,1,06,1","00,1,+99999,9,99,9","00,99,1,00,1,00,1,99999,9,00,1,00,1",,"999,N,+0081,1","99999,9,09926,1","2,1,006,1,+999,9",,"02,1","SYN088AAXX  09061 01442 11989 01203 10111 20092 39926 40179 52006 60002 70200 333 20081 70007;","Q01  00002PRCP12"
"01442099999","2010-07-09T09:00:00","4","58.6666666","7.8","211.0","BYGLANDSFJORD, NO","FM-12","99999","V020","130,1,N,0030,1","22000,1,9,N","075000,1,N,1","+0179,1","+0071,1","10173,1",,,,"0,1,03,1","0,1,03,1",,"02,99,1,02,1,02,1,01750,1,00,1,00,1",,,"99999,9,09926,1","4,1,000,1,+999,9",,"03,1","SYN072AAXX  09091 01442 41789 21303 10179 20071 39926 40173 54000 70300 82200;",
"01442099999","2010-07-09T12:00:00","4","58.6666666","7.8","211.0","BYGLANDSFJORD, NO","FM-12","99999","V020","190,1,N,0050,1","01200,1,9,N","075000,1,N,1","+0191,1","+0075,1","10174,1",,,,"1,1,06,1","0,1,06,1",,"07,99,1,07,1,09,1,01250,1,00,1,00,1",,,"99999,9,09927,1","3,1,002,1,+999,9",,"03,1","SYN078AAXX  09121 01442 11689 71905 10191 20075 39927 40174 53002 6//// 70310 87900;",
"01442099999","2010-07-09T15:00:00","4","58.6666666","7.8","211.0","BYGLANDSFJORD, NO","FM-12","99999","V020","200,1,N,0030,1","01500,1,9,N","075000,1,N,1","+0196,1","+0098,1","10175,1",,,,"2,1,03,1","2,1,03,1",,"08,99,1,08,1,08,1,01250,1,99,9,99,9",,,"99999,9,09928,1","0,1,001,1,+999,9",,"03,1","SYN072AAXX  09151 01442 41689 82003 10196 20098 39928 40175 50001 70322 888//;",
"01442099999","2010-07-09T18:00:00","4","58.6666666","7.8","211.0","BYGLANDSFJORD, NO","FM-12","99999","V020","160,1,N,0050,1","01500,1,9,N","075000,1,N,1","+0188,1","+0093,1","10165,1","12,0000,9,1",,,"2,1,06,1","2,1,06,1",,"08,99,1,08,1,00,1,01750,1,07,1,99,9",,"999,M,+0202,1","99999,9,09918,1","6,1,010,1,+999,9",,"03,1","SYN088AAXX  09181 01442 11789 81605 10188 20093 39918 40165 56010 60002 70322 8807/ 333 10202;","Q01  00002PRCP12"
"01442099999","2010-07-10T03:00:00","4","58.6666666","7.8","211.0","BYGLANDSFJORD, NO","FM-12","99999","V020","999,9,C,0000,1","03000,1,9,N","075000,1,N,1","+0141,1","+0103,1","10154,1",,,,"2,1,03,1","2,1,03,1",,"08,99,1,01,1,01,1,00800,1,07,1,99,9",,,"99999,9,09903,1","7,1,005,1,+999,9",,"02,1","SYN072AAXX  10031 01442 41589 80000 10141 20103 39903 40154 57005 70222 8117/;",
"01442099999","2010-07-10T06:00:00","4","58.6666666","7.8","211.0","BYGLANDSFJORD, NO","FM-12","99999","V020","150,1,N,0030,1","03000,1,9,N","075000,1,N,1","+0144,1","+0100,1","10158,1","12,0000,9,1","24,0000,9,1",,"2,1,06,1","2,1,06,1",,"08,99,1,01,1,01,1,00800,1,07,1,99,9",,"999,N,+0141,1","99999,9,09907,1","3,1,004,1,+999,9",,"02,1","SYN094AAXX  10061 01442 11589 81503 10144 20100 39907 40158 53004 60002 70222 8117/ 333 20141 70000;","Q01  00002PRCP24Q02  00002PRCP12"
"01442099999","2010-07-10T09:00:00","4","58.6666666","7.8","211.0","BYGLANDSFJORD, NO","FM-12","99999","V020","270,1,N,0030,1","22000,1,9,N","075000,1,N,1","+0201,1","+0118,1","10157,1",,,,"6,1,03,1","2,1,03,1",,"04,99,1,02,1,02,1,01250,1,03,1,02,1",,,"99999,9,09912,1","0,1,004,1,+999,9",,"03,1","SYN072AAXX  10091 01442 41689 42703 10201 20118 39912 40157 50004 70362 82232;",
"01442099999","2010-07-10T12:00:00","4","58.6666666","7.8","211.0","BYGLANDSFJORD, NO","FM-12","99999","V020","190,1,N,0070,1","22000,1,9,N","075000,1,N,1","+0240,1","+0113,1","10157,1",,,,"6,1,06,1","1,1,06,1",,"01,99,1,01,1,01,1,01750,1,00,1,00,1",,,"99999,9,09915,1","2,1,003,1,+999,9",,"01,1","SYN078AAXX  10121 01442 11789 11907 10240 20113 39915 40157 52003 6//// 70161 81100;",
"01442099999","2010-07-10T15:00:00","4","58.6666666","7.8","211.0","BYGLANDSFJORD, NO","FM-12","99999","V020","210,1,N,0070,1","22000,1,9,N","075000,1,N,1","+0252,1","+0082,1","10161,1",,,,"0,1,03,1","0,1,03,1",,"01,99,1,01,1,02,1,01750,1,06,1,00,1",,,"99999,9,09920,1","3,1,005,1,+999,9",,"01,1","SYN072AAXX  10151 01442 41789 12107 10252 20082 39920 40161 53005 70100 81260;",
"01442099999","2010-07-10T18:00:00","4","58.6666666","7.8","211.0","BYGLANDSFJORD, NO","FM-12","99999","V020","280,1,N,0030,1","22000,1,9,N","075000,1,N,1","+0230,1","+0117,1","10169,1","12,0000,9,1",,,"1,1,06,1","0,1,06,1",,"06,99,1,01,1,01,1,01750,1,00,1,06,1",,"999,M,+0255,1","99999,9,09926,1","1,1,006,1,+999,9",,"03,1","SYN088AAXX  10181 01442 11789 62803 10230 20117 39926 40169 51006 69912 70310 81106 333 10255;","Q01  00002PRCP12"
"01442099999","2010-07-11T03:00:00","4","58.6666666","7.8","211.0","BYGLANDSFJORD, NO","FM-12","99999","V020","330,1,N,0030,1","03000,1,9,N","075000,1,N,1","+0135,1","+0132,1","10169,1",,,,"2,1,03,1","2,1,03,1",,"07,99,1,01,1,01,1,01250,1,07,1,00,1",,,"99999,9,09917,1","8,1,009,1,+999,9",,"02,1","SYN072AAXX  11031 01442 41689 73303 10135 20132 39917 40169 58009 70222 81170;",
"01442099999","2010-07-11T06:00:00","4","58.6666666","7.8","211.0","BYGLANDSFJORD, NO","FM-12","99999","V020","999,9,C,0000,1","03000,1,9,N","020000,1,N,1","+0150,1","+0142,1","10163,1","12,0010,9,1","24,0015,9,1",,"6,1,06,1","2,1,06,1",,"08,99,1,03,1,07,1,00800,1,02,1,99,9",,"999,N,+0128,1","99999,9,09913,1","6,1,004,1,+999,9",,"61,1","SYN094AAXX  11061 01442 11570 80000 10150 20142 39913 40163 56004 60012 76162 8372/ 333 20128 70015;",
"01442099999","2010-07-11T09:00:00","4","58.6666666","7.8","211.0","BYGLANDSFJORD, NO","FM-12","99999","V020","330,1,N,0050,1","00120,1,9,N","030000,1,N,1","+0153,1","+0153,1","10138,1",,,,"6,1,03,1","6,1,03,1",,"08,99,1,07,1,07,1,00150,1,02,1,99,9",,,"99999,9,09888,1","8,1,025,1,+999,9",,"61,1","SYN072AAXX  11091 01442 41280 83305 10153 20153 39888 40138 58025 76166 8772/;",
"01442099999","2010-07-11T12:00:00","4","58.6666666","7.8","211.0","BYGLANDSFJORD, NO","FM-12","99999","V020","150,1,N,0030,1","00210,1,9,N","030000,1,N,1","+0167,1","+0164,1","10133,1",,,,"6,1,06,1","2,1,06,1",,"08,99,1,08,1,07,1,00250,1,99,9,99,9",,,"99999,9,09886,1","5,1,003,1,+999,9",,"60,1","SYN078AAXX  11121 01442 11380 81503 10167 20164 39886 40133 55003 6//// 76062 887//;",
"01442099999","2010-07-11T18:00:00","4","58.6666666","7.8","211.0","BYGLANDSFJORD, NO","FM-12","99999","V020","150,1,N,0050,1","00600,1,9,N","070000,1,N,1","+0179,1","+0169,1","10127,1","12,0180,9,1",,,"6,1,06,1","5,1,06,1",,"07,99,1,07,1,08,1,00150,1,00,1,00,1",,"999,M,+0179,1","99999,9,09881,1","5,1,002,1,+999,9",,"21,1","SYN088AAXX  11181 01442 11288 71505 10179 20169 39881 40127 55002 60182 72165 87800 333 10179;",
"01442099999","2010-07-12T03:00:00","4","58.6666666","7.8","211.0","BYGLANDSFJORD, NO","FM-12","99999","V020","150,1,N,0030,1","01200,1,9,N","075000,1,N,1","+0119,1","+0111,1","10166,1",,,,"2,1,03,1","2,1,03,1",,"07,99,1,07,1,08,1,00800,1,00,1,00,1",,,"99999,9,09913,1","1,1,006,1,+999,9",,"02,1","SYN072AAXX  12031 01442 41589 71503 10119 20111 39913 40166 51006 70222 87800;",
"01442099999","2010-07-12T06:00:00","4","58.6666666","7.8","211.0","BYGLANDSFJORD, NO","FM-12","99999","V020","150,1,N,0030,1","00420,1,9,N","075000,1,N,1","+0128,1","+0117,1","10170,1","12,0000,2,1","24,0183,9,1",,"2,1,06,1","2,1,06,1",,"08,99,1,08,1,05,1,00450,1,99,9,99,9",,"999,N,+0118,1","99999,9,09917,1","3,1,004,1,+999,9",,"02,1","SYN094AAXX  12061 01442 11489 81503 10128 20117 39917 40170 53004 60002 70222 885// 333 20118 70183;",
"01442099999","2010-07-12T09:00:00","4","58.6666666","7.8","211.0","BYGLANDSFJORD, NO","FM-12","99999","V020","150,1,N,0030,1","22000,1,9,N","075000,1,N,1","+0179,1","+0103,1","10165,1",,,,"1,1,03,1","1,1,03,1",,"02,99,1,00,1,00,1,99999,9,00,1,01,1",,,"99999,9,09917,1","4,1,000,1,+999,9",,"01,1","SYN072AAXX  12091 01442 41989 21503 10179 20103 39917 40165 54000 70111 80001;",
"01442099999","2010-07-12T12:00:00","4","58.6666666","7.8","211.0","BYGLANDSFJORD, NO","FM-12","99999","V020","350,1,N,0030,1","22000,1,9,N","075000,1,N,1","+0207,1","+0105,1","10150,1",,,,"1,1,06,1","0,1,06,1",,"02,99,1,01,1,01,1,01750,1,00,1,01,1",,,"99999,9,09906,1","5,1,012,1,+999,9",,"03,1","SYN078AAXX  12121 01442 11789 23503 10207 20105 39906 40150 55012 6//// 70310 81101;",
"01442099999","2010-07-12T18:00:00","4","58.6666666","7.8","211.0","BYGLANDSFJORD, NO","FM-12","99999","V020","160,1,N,0030,1","00750,1,9,N","070000,1,N,1","+0182,1","+0141,1","10119,1","12,9999,9,9",,,"8,1,06,1","1,1,06,1",,"08,99,1,08,1,09,1,00800,1,99,9,99,9",,"999,M,+0232,1","99999,9,09872,1","8,1,010,1,+999,9",,"80,1","SYN088AAXX  12181 01442 11588 81603 10182 20141 39872 40119 58010 69902 78081 889// 333 10232;","Q01  00002PRCP12Q02  00002PRCP12"
"01442099999","2010-07-13T03:00:00","4","58.6666666","7.8","211.0","BYGLANDSFJORD, NO","FM-12","99999","V020","330,1,N,0050,1","00420,1,9,N","040000,1,N,1","+0148,1","+0137,1","10044,1",,,,"8,1,03,1","2,1,03,1",,"08,99,1,08,1,09,1,00450,1,99,9,99,9",,,"99999,9,09797,1","7,1,021,1,+999,9",,"80,1","SYN072AAXX  13031 01442 41482 83305 10148 20137 39797 40044 57021 78082 889//;",
"01442099999","2010-07-13T06:00:00","4","58.6666666","7.8","211.0","BYGLANDSFJORD, NO","FM-12","99999","V020","999,9,C,0000,1","00060,1,9,N","005000,1,N,1","+0153,1","+0151,1","10035,1","12,0030,9,2","24,0025,9,2",,"8,1,06,1","2,1,06,1",,"08,99,1,08,1,06,1,00075,1,99,9,99,9",,"999,N,+0139,1","99999,9,09788,1","6,1,008,1,+999,9",,"50,1","SYN094AAXX  13061 01442 11150 80000 10153 20151 39788 40035 56008 60032 75082 886// 333 20139 70026;",
"01442099999","2010-07-13T09:00:00","4","58.6666666","7.8","211.0","BYGLANDSFJORD, NO","FM-12","99999","V020","170,1,N,0030,1","00120,1,9,N","010000,1,N,1","+0172,1","+0162,1","10039,1",,,,"5,1,03,1","2,1,03,1",,"08,99,1,08,1,06,1,00150,1,99,9,99,9",,,"99999,9,09793,1","2,1,005,1,+999,9",,"50,1","SYN072AAXX  13091 01442 41260 81703 10172 20162 39793 40039 52005 75052 886//;",
"01442099999","2010-07-13T12:00:00","4","58.6666666","7.8","211.0","BYGLANDSFJORD, NO","FM-12","99999","V020","180,1,N,0030,1","03000,1,9,N","075000,1,N,1","+0202,1","+0162,1","10042,1",,,,"5,1,06,1","2,1,06,1",,"07,99,1,03,1,02,1,00800,1,06,1,02,1",,,"99999,9,09800,1","2,1,003,1,+999,9",,"03,1","SYN078AAXX  13121 01442 11589 71803 10202 20162 39800 40042 52060 6//// 70352 83262;","Q01+000602APC3  "
"01442099999","2010-07-13T15:00:00","4","58.6666666","7.8","211.0","BYGLANDSFJORD, NO","FM-12","99999","V020","190,1,N,0050,1","00750,1,9,N","075000,1,N,1","+0225,1","+0127,1","10032,1",,,,"2,1,03,1","2,1,03,1",,"07,99,1,05,1,03,1,00800,1,06,1,02,1",,,"99999,9,09792,1","5,1,008,1,+999,9",,"03,1","SYN072AAXX  13151 01442 41589 71905 10225 20127 39792 40032 55008 70322 85362;",
"01442099999","2010-07-13T18:00:00","4","58.6666666","7.8","211.0","BYGLANDSFJORD, NO","FM-12","99999","V020","190,1,N,0050,1","22000,1,9,N","075000,1,N,1","+0210,1","+0116,1","10042,1","12,0005,9,1",,,"2,1,06,1","1,1,06,1",,"01,99,1,01,1,01,1,01750,1,00,1,00,1",,"999,M,+0231,1","99999,9,09800,1","3,1,008,1,+999,9",,"01,1","SYN088AAXX  13181 01442 11789 11905 10210 20116 39800 40042 53008 69942 70121 81100 333 10231;",
"01442099999","2010-07-14T03:00:00","4","58.6666666","7.8","211.0","BYGLANDSFJORD, NO","FM-12","99999","V020","340,1,N,0030,1","07500,1,9,N","075000,1,N,1","+0104,1","+0083,1","10081,1",,,,"1,1,03,1","1,1,03,1",,"05,99,1,03,1,00,1,01750,1,03,1,02,1",,,"99999,9,09830,1","0,1,004,1,+999,9",,"02,1","SYN072AAXX  14031 01442 41789 53403 10104 20083 39830 40081 50004 70211 83032;",
"01442099999","2010-07-14T06:00:00","4","58.6666666","7.8","211.0","BYGLANDSFJORD, NO","FM-12","99999","V020","150,1,N,0030,1","22000,1,9,N","075000,1,N,1","+0115,1","+0084,1","10099,1","12,0000,9,1","24,0005,9,1",,"1,1,06,1","1,1,06,1",,"03,99,1,03,1,00,1,01750,1,03,1,00,1",,"999,N,+0098,1","99999,9,09847,1","1,1,018,1,+999,9",,"01,1","SYN094AAXX  14061 01442 11789 31503 10115 20084 39847 40099 51018 60002 70111 83030 333 20098 70004;","Q01  00002PRCP12"
"01442099999","2010-07-14T09:00:00","4","58.6666666","7.8","211.0","BYGLANDSFJORD, NO","FM-12","99999","V020","120,1,N,0030,1","22000,1,9,N","075000,1,N,1","+0181,1","+0081,1","10094,1",,,,"0,1,03,1","0,1,03,1",,"01,99,1,01,1,00,1,02250,1,03,1,00,1",,,"99999,9,09848,1","2,1,002,1,+999,9",,"00,1","SYN072AAXX  14091 01442 41889 11203 10181 20081 39848 40094 52002 70000 81030;",
"01442099999","2010-07-14T12:00:00","4","58.6666666","7.8","211.0","BYGLANDSFJORD, NO","FM-12","99999","V020","150,1,N,0030,1","01500,1,9,N","075000,1,N,1","+0198,1","+0065,1","10097,1",,,,"1,1,06,1","0,1,06,1",,"07,99,1,07,1,00,1,01750,1,07,1,00,1",,,"99999,9,09852,1","2,1,005,1,+999,9",,"03,1","SYN078AAXX  14121 01442 11789 71503 10198 20065 39852 40097 52005 6//// 70310 87070;",
"01442099999","2010-07-14T18:00:00","4","58.6666666","7.8","211.0","BYGLANDSFJORD, NO","FM-12","99999","V020","310,1,N,0030,1","01500,1,9,N","075000,1,N,1","+0183,1","+0114,1","10092,1","12,0000,9,1",,,"2,1,06,1","2,1,06,1",,"07,99,1,07,1,08,1,01250,1,00,1,00,1",,"999,M,+0200,1","99999,9,09847,1","7,1,010,1,+999,9",,"03,1","SYN088AAXX  14181 01442 11689 73103 10183 20114 39847 40092 57010 60002 70322 87800 333 10200;","Q01  00002PRCP12"
"01442099999","2010-07-15T03:00:00","4","58.6666666","7.8","211.0","BYGLANDSFJORD, NO","FM-12","99999","V020","140,1,N,0070,1","00750,1,9,N","075000,1,N,1","+0180,1","+0141,1","10044,1",,,,"8,1,03,1","2,1,03,1",,"07,99,1,07,1,09,1,00800,1,00,1,00,1",,,"99999,9,09800,1","8,1,024,1,+999,9",,"03,1","SYN072AAXX  15031 01442 41589 71407 10180 20141 39800 40044 58024 70382 87900;",
"01442099999","2010-07-15T06:00:00","4","58.6666666","7.8","211.0","BYGLANDSFJORD, NO","FM-12","99999","V020","150,1,N,0100,1","00420,1,9,N","010000,1,N,1","+0173,1","+0160,1","10016,1","12,0160,9,2","24,0157,9,2",,"8,1,06,1","2,1,06,1",,"08,99,1,08,1,09,1,00450,1,99,9,99,9",,"999,N,+0167,1","99999,9,09772,1","6,1,028,1,+999,9",,"81,1","SYN094AAXX  15061 01442 11460 81510 10173 20160 39772 40016 56028 60162 78182 889// 333 20167 70158;",
"01442099999","2010-07-15T09:00:00","4","58.6666666","7.8","211.0","BYGLANDSFJORD, NO","FM-12","99999","V020","150,1,N,0070,1","00750,1,9,N","075000,1,N,1","+0179,1","+0159,1","10034,1",,,,"8,1,03,1","2,1,03,1",,"07,99,1,07,1,09,1,00800,1,00,1,00,1",,,"99999,9,09790,1","3,1,018,1,+999,9",,"25,1","SYN072AAXX  15091 01442 41589 71507 10179 20159 39790 40034 53018 72582 87900;",
"01442099999","2010-07-15T12:00:00","4","58.6666666","7.8","211.0","BYGLANDSFJORD, NO","FM-12","99999","V020","170,1,N,0070,1","00750,1,9,N","075000,1,N,1","+0190,1","+0138,1","10050,1",,,,"8,1,06,1","2,1,06,1",,"07,99,1,06,1,09,1,00800,1,06,1,03,1",,,"99999,9,09807,1","1,1,017,1,+999,9",,"03,1","SYN078AAXX  15121 01442 11589 71707 10190 20138 39807 40050 51017 6//// 70382 86963;",
"01442099999","2010-07-15T15:00:00","4","58.6666666","7.8","211.0","BYGLANDSFJORD, NO","FM-12","99999","V020","170,1,N,0070,1","00750,1,9,N","075000,1,N,1","+0185,1","+0116,1","10059,1",,,,"8,1,03,1","2,1,03,1",,"07,99,1,07,1,09,1,00800,1,00,1,00,1",,,"99999,9,09815,1","3,1,008,1,+999,9",,"25,1","SYN072AAXX  15151 01442 41589 71707 10185 20116 39815 40059 53008 72582 87900;",
"01442099999","2010-07-15T18:00:00","4","58.6666666","7.8","211.0","BYGLANDSFJORD, NO","FM-12","99999","V020","160,1,N,0070,1","00420,1,9,N","020000,1,N,1","+0148,1","+0138,1","10078,1","12,0061,9,1",,,"8,1,06,1","2,1,06,1",,"08,99,1,08,1,09,1,00450,1,99,9,99,9",,"999,M,+0203,1","99999,9,09830,1","2,1,015,1,+999,9",,"80,1","SYN088AAXX  15181 01442 11470 81607 10148 20138 39830 40078 52015 60062 78082 889// 333 10203;",
"01442099999","2010-07-16T03:00:00","4","58.6666666","7.8","211.0","BYGLANDSFJORD, NO","FM-12","99999","V020","170,1,N,0050,1","00420,1,9,N","020000,1,N,1","+0149,1","+0139,1","10109,1",,,,"8,1,03,1","2,1,03,1",,"08,99,1,08,1,09,1,00450,1,99,9,99,9",,,"99999,9,09861,1","2,1,008,1,+999,9",,"80,1","SYN072AAXX  16031 01442 41470 81705 10149 20139 39861 40109 52008 78082 889//;",
"01442099999","2010-07-16T06:00:00","4","58.6666666","7.8","211.0","BYGLANDSFJORD, NO","FM-12","99999","V020","150,1,N,0050,1","00420,1,9,N","070000,1,N,1","+0152,1","+0139,1","10121,1","12,0099,9,1","24,0160,9,1",,"8,1,06,1","2,1,06,1",,"08,99,1,08,1,09,1,00450,1,99,9,99,9",,"999,N,+0145,1","99999,9,09872,1","1,1,012,1,+999,9",,"25,1","SYN094AAXX  16061 01442 11488 81505 10152 20139 39872 40121 51012 60102 72582 889// 333 20145 70160;",
"01442099999","2010-07-16T09:00:00","4","58.6666666","7.8","211.0","BYGLANDSFJORD, NO","FM-12","99999","V020","170,1,N,0050,1","00750,1,9,N","070000,1,N,1","+0170,1","+0127,1","10130,1",,,,"8,1,03,1","2,1,03,1",,"07,99,1,07,1,09,1,00800,1,00,1,00,1",,,"99999,9,09882,1","1,1,010,1,+999,9",,"03,1","SYN072AAXX  16091 01442 41588 71705 10170 20127 39882 40130 51010 70382 87900;",
"01442099999","2010-07-16T12:00:00","4","58.6666666","7.8","211.0","BYGLANDSFJORD, NO","FM-12","99999","V020","170,1,N,0100,1","01200,1,9,N","075000,1,N,1","+0212,1","+0107,1","10113,1",,,,"8,1,06,1","2,1,06,1",,"07,99,1,05,1,03,1,01250,1,06,1,03,1",,,"99999,9,09870,1","8,1,013,1,+999,9",,"03,1","SYN078AAXX  16121 01442 11689 71710 10212 20107 39870 40113 58013 6//// 70382 85363;",
"01442099999","2010-07-16T15:00:00","4","58.6666666","7.8","211.0","BYGLANDSFJORD, NO","FM-12","99999","V020","150,1,N,0070,1","00750,1,9,N","020000,1,N,1","+0174,1","+0147,1","10110,1",,,,"8,1,03,1","2,1,03,1",,"08,99,1,08,1,09,1,00800,1,99,9,99,9",,,"99999,9,09863,1","5,1,006,1,+999,9",,"80,1","SYN072AAXX  16151 01442 41570 81507 10174 20147 39863 40110 55006 78082 889//;",
"01442099999","2010-07-16T18:00:00","4","58.6666666","7.8","211.0","BYGLANDSFJORD, NO","FM-12","99999","V020","170,1,N,0070,1","00420,1,9,N","070000,1,N,1","+0150,1","+0144,1","99999,9","12,0099,9,1",,,"8,1,06,1","2,1,06,1",,"08,99,1,08,1,09,1,00450,1,99,9,99,9",,"999,M,+0215,1",,"0,1,003,1,+999,9",,"25,1","SYN088AAXX  16181 01442 11488 81707 10150 20144 39967 40219 50003 60102 72582 889// 333 10215;","Q01+099673APOSP "
"01442099999","2010-07-17T03:00:00","4","58.6666666","7.8","211.0","BYGLANDSFJORD, NO","FM-12","99999","V020","999,9,C,0000,1","22000,1,9,N","070000,1,N,1","+0115,1","+0112,1","10149,1",,,,"1,1,03,1","1,1,03,1",,"01,99,1,01,1,01,1,00800,1,00,1,01,1",,,"99999,9,09897,1","0,1,003,1,+999,9",,"02,1","SYN072AAXX  17031 01442 41588 10000 10115 20112 39897 40149 50003 70211 81101;",
"01442099999","2010-07-17T06:00:00","4","58.6666666","7.8","211.0","BYGLANDSFJORD, NO","FM-12","99999","V020","120,1,N,0030,1","00420,1,9,N","075000,1,N,1","+0123,1","+0123,1","10157,1","12,0000,2,1","24,0099,9,1",,"1,1,06,1","1,1,06,1",,"06,99,1,05,1,02,1,00450,1,06,1,00,1",,"999,N,+0112,1","99999,9,09905,1","2,1,008,1,+999,9",,"03,1","SYN094AAXX  17061 01442 11489 61203 10123 20123 39905 40157 52008 69922 70311 85260 333 20112 70099;",
"01442099999","2010-07-17T09:00:00","4","58.6666666","7.8","211.0","BYGLANDSFJORD, NO","FM-12","99999","V020","330,1,N,0050,1","01200,1,9,N","075000,1,N,1","+0163,1","+0115,1","10148,1",,,,"1,1,03,1","1,1,03,1",,"07,99,1,06,1,02,1,01250,1,06,1,00,1",,,"99999,9,09900,1","5,1,005,1,+999,9",,"03,1","SYN072AAXX  17091 01442 41689 73305 10163 20115 39900 40148 55005 70311 86260;",
"01442099999","2010-07-17T12:00:00","4","58.6666666","7.8","211.0","BYGLANDSFJORD, NO","FM-12","99999","V020","110,1,N,0030,1","01200,1,9,N","075000,1,N,1","+0178,1","+0114,1","10146,1",,,,"1,1,06,1","1,1,06,1",,"08,99,1,08,1,09,1,01250,1,99,9,99,9",,,"99999,9,09898,1","5,1,001,1,+999,9",,"03,1","SYN078AAXX  17121 01442 11689 81103 10178 20114 39898 40146 55001 6//// 70311 889//;",
"01442099999","2010-07-17T15:00:00","4","58.6666666","7.8","211.0","BYGLANDSFJORD, NO","FM-12","99999","V020","190,1,N,0030,1","01200,1,9,N","075000,1,N,1","+0186,1","+0126,1","10133,1",,,,"2,1,03,1","2,1,03,1",,"07,99,1,05,1,02,1,01250,1,06,1,03,1",,,"99999,9,09887,1","8,1,012,1,+999,9",,"01,1","SYN072AAXX  17151 01442 41689 71903 10186 20126 39887 40133 58012 70122 85263;",
"01442099999","2010-07-17T18:00:00","4","58.6666666","7.8","211.0","BYGLANDSFJORD, NO","FM-12","99999","V020","170,1,N,0050,1","01200,1,9,N","075000,1,N,1","+0181,1","+0112,1","10126,1","12,0000,9,1",,,"2,1,06,1","2,1,06,1",,"07,99,1,05,1,02,1,01250,1,06,1,03,1",,"999,M,+0194,1","99999,9,09880,1","5,1,007,1,+999,9",,"03,1","SYN088AAXX  17181 01442 11689 71705 10181 20112 39880 40126 55007 60002 70322 85263 333 10194;","Q01  00002PRCP12"
"01442099999","2010-07-18T03:00:00","4","58.6666666","7.8","211.0","BYGLANDSFJORD, NO","FM-12","99999","V020","120,1,N,0030,1","22000,1,9,N","075000,1,N,1","+0103,1","+0098,1","10172,1",,,,"1,1,03,1","1,1,03,1",,"01,99,1,01,1,01,1,01250,1,00,1,00,1",,,"99999,9,09917,1","1,1,017,1,+999,9",,"01,1","SYN072AAXX  18031 01442 41689 11203 10103 20098 39917 40172 51017 70111 81100;",
"01442099999","2010-07-18T06:00:00","4","58.6666666","7.8","211.0","BYGLANDSFJORD, NO","FM-12","99999","V020","110,1,N,0030,1","22000,1,9,N","075000,1,N,1","+0113,1","+0108,1","10183,1","12,0051,9,1","24,0053,9,1",,"1,1,06,1","1,1,06,1",,"04,99,1,03,1,02,1,01250,1,03,1,01,1",,"999,N,+0102,1","99999,9,09930,1","2,1,012,1,+999,9",,"03,1","SYN094AAXX  18061 01442 11689 41103 10113 20108 39930 40183 52012 60052 70311 83231 333 20102 70053;",
"01442099999","2010-07-18T09:00:00","4","58.6666666","7.8","211.0","BYGLANDSFJORD, NO","FM-12","99999","V020","170,1,N,0030,1","00750,1,9,N","075000,1,N,1","+0139,1","+0109,1","10190,1",,,,"8,1,03,1","2,1,03,1",,"07,99,1,07,1,09,1,00800,1,00,1,00,1",,,"99999,9,09938,1","2,1,009,1,+999,9",,"25,1","SYN072AAXX  18091 01442 41589 71703 10139 20109 39938 40190 52009 72582 87900;",
"01442099999","2010-07-18T12:00:00","4","58.6666666","7.8","211.0","BYGLANDSFJORD, NO","FM-12","99999","V020","170,1,N,0050,1","01200,1,9,N","075000,1,N,1","+0168,1","+0097,1","10199,1",,,,"8,1,06,1","2,1,06,1",,"08,99,1,08,1,09,1,01250,1,99,9,99,9",,,"99999,9,09950,1","3,1,011,1,+999,9",,"03,1","SYN078AAXX  18121 01442 11689 81705 10168 20097 39950 40199 53011 6//// 70382 889//;",
"01442099999","2010-07-18T15:00:00","4","58.6666666","7.8","211.0","BYGLANDSFJORD, NO","FM-12","99999","V020","200,1,N,0050,1","22000,1,9,N","075000,1,N,1","+0201,1","+0061,1","10198,1",,,,"1,1,03,1","1,1,03,1",,"01,99,1,01,1,02,1,01750,1,06,1,00,1",,,"99999,9,09952,1","3,1,002,1,+999,9",,"01,1","SYN072AAXX  18151 01442 41789 12005 10201 20061 39952 40198 53002 70111 81260;",
"01442099999","2010-07-18T18:00:00","4","58.6666666","7.8","211.0","BYGLANDSFJORD, NO","FM-12","99999","V020","190,1,N,0030,1","22000,1,9,N","075000,1,N,1","+0175,1","+0064,1","10201,1","12,0000,2,1",,,"1,1,06,1","0,1,06,1",,"01,99,1,01,1,01,1,01750,1,00,1,01,1",,"999,M,+0204,1","99999,9,09952,1","3,1,001,1,+999,9",,"01,1","SYN088AAXX  18181 01442 11789 11903 10175 20064 39952 40201 53001 69912 70110 81101 333 10204;",
"01442099999","2010-07-19T03:00:00","4","58.6666666","7.8","211.0","BYGLANDSFJORD, NO","FM-12","99999","V020","150,1,N,0030,1","00060,1,9,N","005000,1,N,1","+0119,1","+0117,1","10197,1",,,,"5,1,03,1","2,1,03,1",,"08,99,1,08,1,06,1,00075,1,99,9,99,9",,,"99999,9,09943,1","7,1,011,1,+999,9",,"50,1","SYN072AAXX  19031 01442 41150 81503 10119 20117 39943 40197 57011 75052 886//;",
"01442099999","2010-07-19T06:00:00","4","58.6666666","7.8","211.0","BYGLANDSFJORD, NO","FM-12","99999","V020","140,1,N,0030,1","00030,1,9,N","000300,1,N,1","+0126,1","+0126,1","10189,1","12,0003,9,1","24,0005,9,1",,"5,1,06,1","2,1,06,1","09,1,+99999,9,99,9","09,99,1,09,1,99,9,99999,9,99,9,99,9",,"999,N,+0113,1","99999,9,09937,1","7,1,007,1,+999,9",,"45,1","SYN088AAXX  19061 01442 11/03 91403 10126 20126 39937 40189 57007 69932 74552 333 20113 70004;",
"01442099999","2010-07-19T09:00:00","4","58.6666666","7.8","211.0","BYGLANDSFJORD, NO","FM-12","99999","V020","150,1,N,0030,1","00060,1,9,N","005000,1,N,1","+0145,1","+0145,1","10184,1",,,,"5,1,03,1","4,1,03,1",,"08,99,1,08,1,06,1,00075,1,99,9,99,9",,,"99999,9,09933,1","8,1,003,1,+999,9",,"51,1","SYN072AAXX  19091 01442 41150 81503 10145 20145 39933 40184 58003 75154 886//;",
"01442099999","2010-07-19T12:00:00","4","58.6666666","7.8","211.0","BYGLANDSFJORD, NO","FM-12","99999","V020","110,1,N,0050,1","00060,1,9,N","005000,1,N,1","+0173,1","+0165,1","10175,1",,,,"5,1,06,1","4,1,06,1",,"08,99,1,08,1,06,1,00075,1,99,9,99,9",,,"99999,9,09927,1","7,1,007,1,+999,9",,"51,1","SYN078AAXX  19121 01442 11150 81105 10173 20165 39927 40175 57007 6//// 75154 886//;",
"01442099999","2010-07-19T15:00:00","4","58.6666666","7.8","211.0","BYGLANDSFJORD, NO","FM-12","99999","V020","170,1,N,0030,1","01200,1,9,N","070000,1,N,1","+0191,1","+0154,1","10173,1",,,,"6,1,03,1","5,1,03,1",,"08,99,1,08,1,08,1,00800,1,99,9,99,9",,,"99999,9,09927,1","4,1,000,1,+999,9",,"01,1","SYN072AAXX  19151 01442 41588 81703 10191 20154 39927 40173 54000 70165 888//;",
"01442099999","2010-07-19T18:00:00","4","58.6666666","7.8","211.0","BYGLANDSFJORD, NO","FM-12","99999","V020","120,1,N,0030,1","00750,1,9,N","075000,1,N,1","+0189,1","+0140,1","10168,1","12,0020,9,1",,,"6,1,06,1","5,1,06,1",,"07,99,1,07,1,09,1,00800,1,06,1,00,1",,"999,M,+0192,1","99999,9,09922,1","7,1,005,1,+999,9",,"03,1","SYN088AAXX  19181 01442 11589 71203 10189 20140 39922 40168 57005 60022 70365 87960 333 10192;",
"01442099999","2010-07-20T03:00:00","4","58.6666666","7.8","211.0","BYGLANDSFJORD, NO","FM-12","99999","V020","150,1,N,0030,1","00420,1,9,N","060000,1,N,1","+0150,1","+0142,1","10160,1",,,,"6,1,03,1","2,1,03,1",,"08,99,1,08,1,05,1,00450,1,99,9,99,9",,,"99999,9,09911,1","7,1,008,1,+999,9",,"02,1","SYN072AAXX  20031 01442 41486 81503 10150 20142 39911 40160 57008 70262 885//;",
"01442099999","2010-07-20T06:00:00","4","58.6666666","7.8","211.0","BYGLANDSFJORD, NO","FM-12","99999","V020","150,1,N,0030,1","00420,1,9,N","020000,1,N,1","+0150,1","+0145,1","10155,1","12,0008,9,1","24,0030,9,1",,"6,1,06,1","2,1,06,1",,"08,99,1,08,1,05,1,00450,1,99,9,99,9",,"999,N,+0150,1","99999,9,09906,1","7,1,005,1,+999,9",,"60,1","SYN094AAXX  20061 01442 11470 81503 10150 20145 39906 40155 57005 69972 76062 885// 333 20150 70031;",
"01442099999","2010-07-20T09:00:00","4","58.6666666","7.8","211.0","BYGLANDSFJORD, NO","FM-12","99999","V020","160,1,N,0050,1","00420,1,9,N","040000,1,N,1","+0168,1","+0139,1","10155,1",,,,"6,1,03,1","2,1,03,1",,"08,99,1,08,1,05,1,00450,1,99,9,99,9",,,"99999,9,09907,1","2,1,002,1,+999,9",,"60,1","SYN072AAXX  20091 01442 41482 81605 10168 20139 39907 40155 52002 76062 885//;",
"01442099999","2010-07-20T12:00:00","4","58.6666666","7.8","211.0","BYGLANDSFJORD, NO","FM-12","99999","V020","170,1,N,0030,1","00750,1,9,N","060000,1,N,1","+0180,1","+0147,1","10150,1",,,,"6,1,06,1","2,1,06,1",,"08,99,1,08,1,05,1,00800,1,99,9,99,9",,,"99999,9,09902,1","7,1,004,1,+999,9",,"60,1","SYN078AAXX  20121 01442 11586 81703 10180 20147 39902 40150 57004 6//// 76062 885//;",
"01442099999","2010-07-20T15:00:00","4","58.6666666","7.8","211.0","BYGLANDSFJORD, NO","FM-12","99999","V020","150,1,N,0030,1","00420,1,9,N","050000,1,N,1","+0174,1","+0139,1","10142,1",,,,"6,1,03,1","2,1,03,1",,"08,99,1,08,1,05,1,00450,1,99,9,99,9",,,"99999,9,09895,1","7,1,008,1,+999,9",,"60,1","SYN072AAXX  20151 01442 41484 81503 10174 20139 39895 40142 57008 76062 885//;",
"01442099999","2010-07-20T18:00:00","4","58.6666666","7.8","211.0","BYGLANDSFJORD, NO","FM-12","99999","V020","310,1,N,0030,1","00750,1,9,N","075000,1,N,1","+0169,1","+0144,1","10131,1","12,0010,9,1",,,"6,1,06,1","2,1,06,1",,"08,99,1,08,1,05,1,00800,1,99,9,99,9",,"999,M,+0189,1","99999,9,09883,1","7,1,011,1,+999,9",,"02,1","SYN088AAXX  20181 01442 11589 83103 10169 20144 39883 40131 57011 60012 70262 885// 333 10189;",
"01442099999","2010-07-21T03:00:00","4","58.6666666","7.8","211.0","BYGLANDSFJORD, NO","FM-12","99999","V020","999,9,C,0000,1","00120,1,9,N","015000,1,N,1","+0141,1","+0141,1","10120,1",,,,"6,1,03,1","2,1,03,1",,"08,99,1,08,1,06,1,00150,1,99,9,99,9",,,"99999,9,09871,1","7,1,006,1,+999,9",,"60,1","SYN072AAXX  21031 01442 41265 80000 10141 20141 39871 40120 57006 76062 886//;",
"01442099999","2010-07-21T06:00:00","4","58.6666666","7.8","211.0","BYGLANDSFJORD, NO","FM-12","99999","V020","030,1,N,0030,1","00420,1,9,N","060000,1,N,1","+0146,1","+0144,1","10110,1","12,0008,9,1","24,0020,9,1",,"6,1,06,1","2,1,06,1",,"08,99,1,08,1,05,1,00450,1,99,9,99,9",,"999,N,+0141,1","99999,9,09861,1","8,1,010,1,+999,9",,"21,1","SYN094AAXX  21061 01442 11486 80303 10146 20144 39861 40110 58010 69982 72162 885// 333 20141 70020;",
"01442099999","2010-07-21T09:00:00","4","58.6666666","7.8","211.0","BYGLANDSFJORD, NO","FM-12","99999","V020","300,1,N,0030,1","07500,1,9,N","060000,1,N,1","+0177,1","+0142,1","10094,1",,,,"6,1,03,1","2,1,03,1",,"07,99,1,01,1,01,1,00800,1,00,1,08,1",,,"99999,9,09847,1","7,1,013,1,+999,9",,"01,1","SYN072AAXX  21091 01442 41586 73003 10177 20142 39847 40094 57013 70162 81108;",
"01442099999","2010-07-21T12:00:00","4","58.6666666","7.8","211.0","BYGLANDSFJORD, NO","FM-12","99999","V020","140,1,N,0030,1","07500,1,9,N","070000,1,N,1","+0233,1","+0148,1","10069,1",,,,"6,1,06,1","2,1,06,1",,"06,99,1,01,1,01,1,00800,1,00,1,08,1",,,"99999,9,09828,1","8,1,019,1,+999,9",,"01,1","SYN078AAXX  21121 01442 11588 61403 10233 20148 39828 40069 58019 6//// 70162 81108;",
"01442099999","2010-07-21T18:00:00","4","58.6666666","7.8","211.0","BYGLANDSFJORD, NO","FM-12","99999","V020","170,1,N,0030,1","00750,1,9,N","070000,1,N,1","+0199,1","+0186,1","10047,1","12,0099,9,1",,,"9,1,06,1","8,1,06,1",,"07,99,1,07,1,09,1,00800,1,06,1,00,1",,"999,M,+0239,1","99999,9,09803,1","5,1,013,1,+999,9",,"25,1","SYN088AAXX  21181 01442 11588 71703 10199 20186 39803 40047 55013 60102 72598 87960 333 10239;",
"01442099999","2010-07-22T03:00:00","4","58.6666666","7.8","211.0","BYGLANDSFJORD, NO","FM-12","99999","V020","150,1,N,0030,1","01200,1,9,N","050000,1,N,1","+0153,1","+0150,1","10043,1",,,,"2,1,03,1","2,1,03,1",,"07,99,1,07,1,08,1,00800,1,00,1,00,1",,,"99999,9,09797,1","5,1,000,1,+999,9",,"02,1","SYN072AAXX  22031 01442 41584 71503 10153 20150 39797 40043 55000 70222 87800;",
"01442099999","2010-07-22T06:00:00","4","58.6666666","7.8","211.0","BYGLANDSFJORD, NO","FM-12","99999","V020","150,1,N,0050,1","00750,1,9,N","075000,1,N,1","+0140,1","+0129,1","10052,1","12,0020,9,1","24,0117,9,1",,"2,1,06,1","1,1,06,1",,"06,99,1,05,1,02,1,00800,1,06,1,03,1",,"999,N,+0138,1","99999,9,09803,1","3,1,007,1,+999,9",,"03,1","SYN094AAXX  22061 01442 11589 61505 10140 20129 39803 40052 53007 60022 70321 85263 333 20138 70118;",
"01442099999","2010-07-22T09:00:00","4","58.6666666","7.8","211.0","BYGLANDSFJORD, NO","FM-12","99999","V020","170,1,N,0070,1","01200,1,9,N","075000,1,N,1","+0175,1","+0099,1","10061,1",,,,"2,1,03,1","2,1,03,1",,"07,99,1,05,1,02,1,01250,1,06,1,00,1",,,"99999,9,09816,1","3,1,012,1,+999,9",,"03,1","SYN072AAXX  22091 01442 41689 71707 10175 20099 39816 40061 53012 70322 85260;",
"01442099999","2010-07-22T12:00:00","4","58.6666666","7.8","211.0","BYGLANDSFJORD, NO","FM-12","99999","V020","260,1,N,0070,1","01200,1,9,N","075000,1,N,1","+0188,1","+0121,1","10067,1",,,,"2,1,06,1","2,1,06,1",,"07,99,1,07,1,09,1,01250,1,00,1,00,1",,,"99999,9,09822,1","3,1,007,1,+999,9",,"03,1","SYN078AAXX  22121 01442 11689 72607 10188 20121 39822 40067 53007 6//// 70322 87900;",
"01442099999","2010-07-22T15:00:00","4","58.6666666","7.8","211.0","BYGLANDSFJORD, NO","FM-12","99999","V020","310,1,N,0070,1","22000,1,9,N","075000,1,N,1","+0195,1","+0056,1","10082,1",,,,"1,1,03,1","1,1,03,1",,"01,99,1,00,1,00,1,99999,9,00,1,02,1",,,"99999,9,09837,1","1,1,015,1,+999,9",,"01,1","SYN072AAXX  22151 01442 41989 13107 10195 20056 39837 40082 51015 70111 80002;",
"01442099999","2010-07-22T18:00:00","4","58.6666666","7.8","211.0","BYGLANDSFJORD, NO","FM-12","99999","V020","320,1,N,0050,1","22000,1,9,N","075000,1,N,1","+0174,1","+0018,1","10096,1","12,0000,9,1",,,"1,1,06,1","1,1,06,1",,"04,99,1,00,1,00,1,99999,9,00,1,02,1",,"999,M,+0198,1","99999,9,09850,1","3,1,012,1,+999,9",,"03,1","SYN088AAXX  22181 01442 11989 43205 10174 20018 39850 40096 53012 60002 70311 80002 333 10198;","Q01  00002PRCP12"
"01442099999","2010-07-23T03:00:00","4","58.6666666","7.8","211.0","BYGLANDSFJORD, NO","FM-12","99999","V020","330,1,N,0050,1","22000,1,9,N","075000,1,N,1","+0108,1","+0058,1","10157,1",,,,"0,1,03,1","0,1,03,1","00,1,+99999,9,99,9","00,99,1,00,1,00,1,99999,9,00,1,00,1",,,"99999,9,09903,1","2,1,018,1,+999,9",,"02,1","SYN066AAXX  23031 01442 41989 03305 10108 20058 39903 40157 52018 70200;",
"01442099999","2010-07-23T06:00:00","4","58.6666666","7.8","211.0","BYGLANDSFJORD, NO","FM-12","99999","V020","030,1,N,0070,1","22000,1,9,N","075000,1,N,1","+0131,1","+0032,1","10169,1","12,0000,9,1","24,0000,9,1",,"0,1,06,1","0,1,06,1",,"01,99,1,01,1,01,1,01250,1,00,1,00,1",,"999,N,+0106,1","99999,9,09917,1","3,1,014,1,+999,9",,"03,1","SYN094AAXX  23061 01442 11689 10307 10131 20032 39917 40169 53014 60002 70300 81100 333 20106 70000;","Q01  00002PRCP24Q02  00002PRCP12"
"01442099999","2010-07-23T09:00:00","4","58.6666666","7.8","211.0","BYGLANDSFJORD, NO","FM-12","99999","V020","120,1,N,0070,1","01200,1,9,N","075000,1,N,1","+0161,1","+0018,1","10177,1",,,,"1,1,03,1","1,1,03,1",,"07,99,1,07,1,09,1,01250,1,00,1,00,1",,,"99999,9,09927,1","1,1,010,1,+999,9",,"03,1","SYN072AAXX  23091 01442 41689 71207 10161 20018 39927 40177 51010 70311 87900;",
"01442099999","2010-07-23T12:00:00","4","58.6666666","7.8","211.0","BYGLANDSFJORD, NO","FM-12","99999","V020","150,1,N,0050,1","22000,1,9,N","075000,1,N,1","+0173,1","+0043,1","10175,1",,,,"1,1,06,1","1,1,06,1",,"01,99,1,01,1,01,1,01750,1,06,1,00,1",,,"99999,9,09927,1","6,1,001,1,+999,9",,"01,1","SYN078AAXX  23121 01442 11789 11505 10173 20043 39927 40175 56001 6//// 70111 81160;",
"01442099999","2010-07-23T15:00:00","4","58.6666666","7.8","211.0","BYGLANDSFJORD, NO","FM-12","99999","V020","170,1,N,0030,1","22000,1,9,N","075000,1,N,1","+0192,1","+0057,1","10166,1",,,,"0,1,03,1","0,1,03,1",,"01,99,1,01,1,01,1,01750,1,00,1,00,1",,,"99999,9,09920,1","7,1,007,1,+999,9",,"01,1","SYN072AAXX  23151 01442 41789 11703 10192 20057 39920 40166 57007 70100 81100;",
"01442099999","2010-07-23T18:00:00","4","58.6666666","7.8","211.0","BYGLANDSFJORD, NO","FM-12","99999","V020","150,1,N,0050,1","22000,1,9,N","075000,1,N,1","+0177,1","+0056,1","10167,1","12,0000,9,1",,,"0,1,06,1","0,1,06,1",,"03,99,1,02,1,00,1,02250,1,03,1,02,1",,"999,M,+0195,1","99999,9,09920,1","4,1,000,1,+999,9",,"03,1","SYN088AAXX  23181 01442 11889 31505 10177 20056 39920 40167 54000 60002 70300 82032 333 10195;","Q01  00002PRCP12"
"01442099999","2010-07-24T03:00:00","4","58.6666666","7.8","211.0","BYGLANDSFJORD, NO","FM-12","99999","V020","350,1,N,0050,1","01500,1,9,N","075000,1,N,1","+0130,1","+0079,1","10186,1",,,,"1,1,03,1","1,1,03,1",,"08,99,1,08,1,00,1,01750,1,07,1,99,9",,,"99999,9,09933,1","4,1,000,1,+999,9",,"03,1","SYN072AAXX  24031 01442 41789 83505 10130 20079 39933 40186 54000 70311 8807/;",
"01442099999","2010-07-24T06:00:00","4","58.6666666","7.8","211.0","BYGLANDSFJORD, NO","FM-12","99999","V020","340,1,N,0050,1","01200,1,9,N","075000,1,N,1","+0139,1","+0081,1","10185,1","12,0000,9,1","24,0000,9,1",,"2,1,06,1","1,1,06,1",,"08,99,1,08,1,05,1,01250,1,99,9,99,9",,"999,N,+0128,1","99999,9,09933,1","5,1,000,1,+999,9",,"03,1","SYN094AAXX  24061 01442 11689 83405 10139 20081 39933 40185 55000 60002 70321 885// 333 20128 70000;","Q01  00002PRCP24Q02  00002PRCP12"
"01442099999","2010-07-24T09:00:00","4","58.6666666","7.8","211.0","BYGLANDSFJORD, NO","FM-12","99999","V020","350,1,N,0030,1","01200,1,9,N","075000,1,N,1","+0154,1","+0091,1","10185,1",,,,"2,1,03,1","2,1,03,1",,"08,99,1,08,1,05,1,01250,1,99,9,99,9",,,"99999,9,09935,1","2,1,010,1,+999,9",,"02,1","SYN072AAXX  24091 01442 41689 83503 10154 20091 39935 40185 52010 70222 885//;",
"01442099999","2010-07-24T12:00:00","4","58.6666666","7.8","211.0","BYGLANDSFJORD, NO","FM-12","99999","V020","340,1,N,0030,1","01500,1,9,N","075000,1,N,1","+0178,1","+0097,1","10177,1",,,,"2,1,06,1","2,1,06,1",,"07,99,1,07,1,08,1,01250,1,00,1,00,1",,,"99999,9,09930,1","5,1,005,1,+999,9",,"03,1","SYN078AAXX  24121 01442 11689 73403 10178 20097 39930 40177 55005 6//// 70322 87800;",
"01442099999","2010-07-24T15:00:00","4","58.6666666","7.8","211.0","BYGLANDSFJORD, NO","FM-12","99999","V020","170,1,N,0030,1","03000,1,9,N","075000,1,N,1","+0198,1","+0094,1","10163,1",,,,"1,1,03,1","1,1,03,1",,"05,99,1,03,1,02,1,01250,1,06,1,03,1",,,"99999,9,09917,1","6,1,012,1,+999,9",,"03,1","SYN072AAXX  24151 01442 41689 51703 10198 20094 39917 40163 56012 70311 83263;",
"01442099999","2010-07-24T18:00:00","4","58.6666666","7.8","211.0","BYGLANDSFJORD, NO","FM-12","99999","V020","170,1,N,0030,1","22000,1,9,N","075000,1,N,1","+0186,1","+0117,1","10154,1","12,0000,9,1",,,"1,1,06,1","1,1,06,1",,"02,99,1,01,1,04,1,01250,1,06,1,00,1",,"999,M,+0204,1","99999,9,09907,1","7,1,010,1,+999,9",,"01,1","SYN088AAXX  24181 01442 11689 21703 10186 20117 39907 40154 57010 60002 70111 81460 333 10204;","Q01  00002PRCP12"
"01442099999","2010-07-25T03:00:00","4","58.6666666","7.8","211.0","BYGLANDSFJORD, NO","FM-12","99999","V020","300,1,N,0030,1","22000,1,9,N","075000,1,N,1","+0121,1","+0105,1","10145,1",,,,"0,1,03,1","0,1,03,1",,"03,99,1,03,1,00,1,02250,1,03,1,00,1",,,"99999,9,09892,1","7,1,008,1,+999,9",,"02,1","SYN072AAXX  25031 01442 41889 33003 10121 20105 39892 40145 57008 70200 83030;",
"01442099999","2010-07-25T06:00:00","4","58.6666666","7.8","211.0","BYGLANDSFJORD, NO","FM-12","99999","V020","330,1,N,0030,1","22000,1,9,N","075000,1,N,1","+0125,1","+0102,1","10137,1","12,0000,9,1","24,0000,9,1",,"0,1,06,1","0,1,06,1",,"01,99,1,00,1,00,1,99999,9,00,1,02,1",,"999,N,+0112,1","99999,9,09886,1","7,1,007,1,+999,9",,"02,1","SYN094AAXX  25061 01442 11989 13303 10125 20102 39886 40137 57007 60002 70200 80002 333 20112 70000;","Q01  00002PRCP24Q02  00002PRCP12"
"01442099999","2010-07-25T09:00:00","4","58.6666666","7.8","211.0","BYGLANDSFJORD, NO","FM-12","99999","V020","350,1,N,0050,1","02100,1,9,N","075000,1,N,1","+0150,1","+0106,1","10126,1",,,,"1,1,03,1","1,1,03,1",,"07,99,1,06,1,00,1,02250,1,07,1,02,1",,,"99999,9,09877,1","7,1,009,1,+999,9",,"03,1","SYN072AAXX  25091 01442 41889 73505 10150 20106 39877 40126 57009 70311 86072;",
"01442099999","2010-07-25T12:00:00","4","58.6666666","7.8","211.0","BYGLANDSFJORD, NO","FM-12","99999","V020","350,1,N,0050,1","03000,1,9,N","075000,1,N,1","+0185,1","+0111,1","10105,1",,,,"1,1,06,1","1,1,06,1",,"07,99,1,02,1,02,1,01250,1,07,1,02,1",,,"99999,9,09860,1","7,1,017,1,+999,9",,"03,1","SYN078AAXX  25121 01442 11689 73505 10185 20111 39860 40105 57017 6//// 70311 82272;",
"01442099999","2010-07-25T18:00:00","4","58.6666666","7.8","211.0","BYGLANDSFJORD, NO","FM-12","99999","V020","150,1,N,0030,1","03000,1,9,N","075000,1,N,1","+0196,1","+0114,1","10084,1","12,0000,9,1",,,"2,1,06,1","2,1,06,1",,"06,99,1,04,1,02,1,01250,1,06,1,02,1",,"999,M,+0220,1","99999,9,09840,1","7,1,008,1,+999,9",,"03,1","SYN088AAXX  25181 01442 11689 61503 10196 20114 39840 40084 57008 60002 70322 84262 333 10220;","Q01  00002PRCP12"
"01442099999","2010-07-26T03:00:00","4","58.6666666","7.8","211.0","BYGLANDSFJORD, NO","FM-12","99999","V020","999,9,C,0000,1","22000,1,9,N","075000,1,N,1","+0103,1","+0097,1","10088,1",,,,"0,1,03,1","0,1,03,1",,"01,99,1,01,1,00,1,01750,1,03,1,00,1",,,"99999,9,09836,1","7,1,004,1,+999,9",,"02,1","SYN072AAXX  26031 01442 41789 10000 10103 20097 39836 40088 57004 70200 81030;",
"01442099999","2010-07-26T06:00:00","4","58.6666666","7.8","211.0","BYGLANDSFJORD, NO","FM-12","99999","V020","120,1,N,0030,1","22000,1,9,N","075000,1,N,1","+0118,1","+0109,1","10083,1","12,0000,9,1","24,0000,9,1",,"0,1,06,1","0,1,06,1","00,1,+99999,9,99,9","00,99,1,00,1,00,1,99999,9,00,1,00,1",,"999,N,+0099,1","99999,9,09832,1","7,1,003,1,+999,9",,"02,1","SYN088AAXX  26061 01442 11989 01203 10118 20109 39832 40083 57003 60002 70200 333 20099 70000;","Q01  00002PRCP24Q02  00002PRCP12"
"01442099999","2010-07-26T09:00:00","4","58.6666666","7.8","211.0","BYGLANDSFJORD, NO","FM-12","99999","V020","120,1,N,0030,1","22000,1,9,N","075000,1,N,1","+0183,1","+0123,1","10074,1",,,,"0,1,03,1","0,1,03,1","00,1,+99999,9,99,9","00,99,1,00,1,00,1,99999,9,00,1,00,1",,,"99999,9,09828,1","7,1,004,1,+999,9",,"02,1","SYN066AAXX  26091 01442 41989 01203 10183 20123 39828 40074 57004 70200;",
"01442099999","2010-07-26T12:00:00","4","58.6666666","7.8","211.0","BYGLANDSFJORD, NO","FM-12","99999","V020","270,1,N,0030,1","03000,1,9,N","075000,1,N,1","+0217,1","+0117,1","10065,1",,,,"1,1,06,1","1,1,06,1",,"07,99,1,01,1,01,1,01750,1,07,1,00,1",,,"99999,9,09822,1","5,1,005,1,+999,9",,"03,1","SYN078AAXX  26121 01442 11789 72703 10217 20117 39822 40065 55005 6//// 70311 81170;",
"01442099999","2010-07-26T18:00:00","4","58.6666666","7.8","211.0","BYGLANDSFJORD, NO","FM-12","99999","V020","330,1,N,0050,1","22000,1,9,N","075000,1,N,1","+0225,1","+0071,1","10072,1","12,0000,9,1",,,"1,1,06,1","1,1,06,1",,"01,99,1,01,1,01,1,01750,1,00,1,01,1",,"999,M,+0245,1","99999,9,09831,1","3,1,004,1,+999,9",,"01,1","SYN088AAXX  26181 01442 11789 13305 10225 20071 39831 40072 53004 60002 70111 81101 333 10245;","Q01  00002PRCP12"
"01442099999","2010-07-27T03:00:00","4","58.6666666","7.8","211.0","BYGLANDSFJORD, NO","FM-12","99999","V020","999,9,C,0000,1","22000,1,9,N","075000,1,N,1","+0098,1","+0087,1","10112,1",,,,"0,1,03,1","0,1,03,1",,"01,99,1,00,1,00,1,99999,9,00,1,01,1",,,"99999,9,09858,1","1,1,003,1,+999,9",,"02,1","SYN072AAXX  27031 01442 41989 10000 10098 20087 39858 40112 51003 70200 80001;",
"01442099999","2010-07-27T06:00:00","4","58.6666666","7.8","211.0","BYGLANDSFJORD, NO","FM-12","99999","V020","110,1,N,0030,1","22000,1,9,N","075000,1,N,1","+0119,1","+0093,1","10117,1","12,0000,9,1","24,0000,9,1",,"0,1,06,1","0,1,06,1",,"01,99,1,00,1,00,1,99999,9,00,1,01,1",,"999,N,+0093,1","99999,9,09866,1","2,1,007,1,+999,9",,"02,1","SYN094AAXX  27061 01442 11989 11103 10119 20093 39866 40117 52007 60002 70200 80001 333 20093 70000;","Q01  00002PRCP24Q02  00002PRCP12"
"01442099999","2010-07-27T09:00:00","4","58.6666666","7.8","211.0","BYGLANDSFJORD, NO","FM-12","99999","V020","320,1,N,0030,1","22000,1,9,N","075000,1,N,1","+0182,1","+0076,1","10108,1",,,,"0,1,03,1","0,1,03,1",,"01,99,1,00,1,00,1,99999,9,00,1,01,1",,,"99999,9,09862,1","8,1,003,1,+999,9",,"02,1","SYN072AAXX  27091 01442 41989 13203 10182 20076 39862 40108 58003 70200 80001;",
"01442099999","2010-07-27T12:00:00","4","58.6666666","7.8","211.0","BYGLANDSFJORD, NO","FM-12","99999","V020","150,1,N,0050,1","22000,1,9,N","075000,1,N,1","+0230,1","+0059,1","10104,1",,,,"0,1,06,1","0,1,06,1",,"01,99,1,00,1,00,1,99999,9,00,1,01,1",,,"99999,9,09862,1","4,1,000,1,+999,9",,"02,1","SYN078AAXX  27121 01442 11989 11505 10230 20059 39862 40104 54000 6//// 70200 80001;",
"01442099999","2010-07-27T15:00:00","4","58.6666666","7.8","211.0","BYGLANDSFJORD, NO","FM-12","99999","V020","200,1,N,0030,1","02100,1,9,N","075000,1,N,1","+0221,1","+0100,1","10102,1",,,,"1,1,03,1","0,1,03,1",,"07,99,1,07,1,00,1,02250,1,07,1,01,1",,,"99999,9,09860,1","7,1,003,1,+999,9",,"03,1","SYN072AAXX  27151 01442 41889 72003 10221 20100 39860 40102 57003 70310 87071;",
"01442099999","2010-07-27T18:00:00","4","58.6666666","7.8","211.0","BYGLANDSFJORD, NO","FM-12","99999","V020","150,1,N,0050,1","01200,1,9,N","075000,1,N,1","+0182,1","+0108,1","10114,1","12,0000,9,1",,,"2,1,06,1","1,1,06,1",,"08,99,1,08,1,09,1,01250,1,99,9,99,9",,"999,M,+0241,1","99999,9,09867,1","2,1,008,1,+999,9",,"03,1","SYN088AAXX  27181 01442 11689 81505 10182 20108 39867 40114 52008 60002 70321 889// 333 10241;","Q01  00002PRCP12"
"01442099999","2010-07-28T03:00:00","4","58.6666666","7.8","211.0","BYGLANDSFJORD, NO","FM-12","99999","V020","999,9,C,0000,1","00120,1,9,N","010000,1,N,1","+0141,1","+0136,1","10113,1",,,,"5,1,03,1","2,1,03,1",,"08,99,1,08,1,06,1,00150,1,99,9,99,9",,,"99999,9,09863,1","7,1,008,1,+999,9",,"50,1","SYN072AAXX  28031 01442 41260 80000 10141 20136 39863 40113 57008 75052 886//;",
"01442099999","2010-07-28T06:00:00","4","58.6666666","7.8","211.0","BYGLANDSFJORD, NO","FM-12","99999","V020","150,1,N,0030,1","07500,1,9,N","075000,1,N,1","+0145,1","+0135,1","10107,1","12,0000,2,1","24,0003,9,1",,"5,1,06,1","2,1,06,1",,"07,99,1,03,1,02,1,00450,1,00,1,08,1",,"999,N,+0140,1","99999,9,09857,1","7,1,006,1,+999,9",,"01,1","SYN094AAXX  28061 01442 11489 71503 10145 20135 39857 40107 57006 69922 70152 83208 333 20140 70002;",
"01442099999","2010-07-28T09:00:00","4","58.6666666","7.8","211.0","BYGLANDSFJORD, NO","FM-12","99999","V020","270,1,N,0030,1","22000,1,9,N","075000,1,N,1","+0192,1","+0127,1","10096,1",,,,"1,1,03,1","1,1,03,1",,"03,99,1,02,1,02,1,01250,1,06,1,01,1",,,"99999,9,09852,1","8,1,006,1,+999,9",,"01,1","SYN072AAXX  28091 01442 41689 32703 10192 20127 39852 40096 58006 70111 82261;",
"01442099999","2010-07-28T12:00:00","4","58.6666666","7.8","211.0","BYGLANDSFJORD, NO","FM-12","99999","V020","280,1,N,0030,1","01500,1,9,N","075000,1,N,1","+0207,1","+0119,1","10090,1",,,,"1,1,06,1","1,1,06,1",,"08,99,1,08,1,08,1,01250,1,99,9,99,9",,,"99999,9,09847,1","7,1,005,1,+999,9",,"03,1","SYN078AAXX  28121 01442 11689 82803 10207 20119 39847 40090 57005 6//// 70311 888//;",
"01442099999","2010-07-28T15:00:00","4","58.6666666","7.8","211.0","BYGLANDSFJORD, NO","FM-12","99999","V020","190,1,N,0030,1","01500,1,9,N","075000,1,N,1","+0218,1","+0134,1","10081,1",,,,"2,1,03,1","2,1,03,1",,"08,99,1,08,1,08,1,01250,1,99,9,99,9",,,"99999,9,09838,1","7,1,008,1,+999,9",,"03,1","SYN072AAXX  28151 01442 41689 81903 10218 20134 39838 40081 57008 70322 888//;",
"01442099999","2010-07-28T18:00:00","4","58.6666666","7.8","211.0","BYGLANDSFJORD, NO","FM-12","99999","V020","170,1,N,0030,1","03000,1,9,N","075000,1,N,1","+0187,1","+0142,1","10079,1","12,0000,9,1",,,"2,1,06,1","2,1,06,1",,"08,99,1,01,1,01,1,01250,1,02,1,99,9",,"999,M,+0214,1","99999,9,09835,1","7,1,004,1,+999,9",,"03,1","SYN088AAXX  28181 01442 11689 81703 10187 20142 39835 40079 57004 60002 70322 8112/ 333 10214;","Q01  00002PRCP12"
"01442099999","2010-07-29T03:00:00","4","58.6666666","7.8","211.0","BYGLANDSFJORD, NO","FM-12","99999","V020","330,1,N,0050,1","03000,1,9,N","075000,1,N,1","+0148,1","+0135,1","10062,1",,,,"2,1,03,1","2,1,03,1",,"07,99,1,01,1,06,1,00450,1,03,1,08,1",,,"99999,9,09815,1","7,1,011,1,+999,9",,"02,1","SYN072AAXX  29031 01442 41489 73305 10148 20135 39815 40062 57011 70222 81638;",
"01442099999","2010-07-29T06:00:00","4","58.6666666","7.8","211.0","BYGLANDSFJORD, NO","FM-12","99999","V020","340,1,N,0030,1","03000,1,9,N","075000,1,N,1","+0148,1","+0133,1","10058,1","12,0000,9,1","24,0000,9,1",,"2,1,06,1","2,1,06,1",,"06,99,1,01,1,01,1,00800,1,03,1,08,1",,"999,N,+0133,1","99999,9,09811,1","7,1,004,1,+999,9",,"01,1","SYN094AAXX  29061 01442 11589 63403 10148 20133 39811 40058 57004 60002 70122 81138 333 20133 70000;","Q01  00002PRCP24Q02  00002PRCP12"
"01442099999","2010-07-29T09:00:00","4","58.6666666","7.8","211.0","BYGLANDSFJORD, NO","FM-12","99999","V020","330,1,N,0050,1","03000,1,9,N","075000,1,N,1","+0171,1","+0136,1","10045,1",,,,"2,1,03,1","2,1,03,1",,"07,99,1,01,1,01,1,00800,1,07,1,02,1",,,"99999,9,09800,1","7,1,011,1,+999,9",,"03,1","SYN072AAXX  29091 01442 41589 73305 10171 20136 39800 40045 57011 70322 81172;",
"01442099999","2010-07-29T12:00:00","4","58.6666666","7.8","211.0","BYGLANDSFJORD, NO","FM-12","99999","V020","350,1,N,0030,1","00750,1,9,N","075000,1,N,1","+0184,1","+0126,1","10037,1",,,,"6,1,06,1","2,1,06,1",,"08,99,1,08,1,05,1,00800,1,99,9,99,9",,,"99999,9,09792,1","8,1,007,1,+999,9",,"21,1","SYN078AAXX  29121 01442 11589 83503 10184 20126 39792 40037 58007 6//// 72162 885//;",
"01442099999","2010-07-29T15:00:00","4","58.6666666","7.8","211.0","BYGLANDSFJORD, NO","FM-12","99999","V020","350,1,N,0030,1","01200,1,9,N","075000,1,N,1","+0197,1","+0120,1","10018,1",,,,"6,1,03,1","2,1,03,1",,"08,99,1,08,1,05,1,01250,1,99,9,99,9",,,"99999,9,09776,1","8,1,017,1,+999,9",,"02,1","SYN072AAXX  29151 01442 41689 83503 10197 20120 39776 40018 58017 70262 885//;",
"01442099999","2010-07-29T18:00:00","4","58.6666666","7.8","211.0","BYGLANDSFJORD, NO","FM-12","99999","V020","170,1,N,0030,1","03000,1,9,N","075000,1,N,1","+0190,1","+0157,1","10002,1","12,0000,2,1",,,"6,1,06,1","2,1,06,1",,"08,99,1,01,1,01,1,01250,1,07,1,99,9",,"999,M,+0199,1","99999,9,09760,1","8,1,016,1,+999,9",,"03,1","SYN088AAXX  29181 01442 11689 81703 10190 20157 39760 40002 58016 69902 70362 8117/ 333 10199;",
"01442099999","2010-07-30T03:00:00","4","58.6666666","7.8","211.0","BYGLANDSFJORD, NO","FM-12","99999","V020","350,1,N,0030,1","00750,1,9,N","075000,1,N,1","+0155,1","+0152,1","09956,1",,,,"6,1,03,1","2,1,03,1",,"08,99,1,08,1,05,1,00800,1,99,9,99,9",,,"99999,9,09712,1","7,1,006,1,+999,9",,"02,1","SYN072AAXX  30031 01442 41589 83503 10155 20152 39712 49956 57006 70262 885//;",
"01442099999","2010-07-30T06:00:00","4","58.6666666","7.8","211.0","BYGLANDSFJORD, NO","FM-12","99999","V020","120,1,N,0030,1","07500,1,9,N","075000,1,N,1","+0163,1","+0157,1","09952,1","12,0020,9,2","24,0018,9,2",,"6,1,06,1","2,1,06,1",,"06,99,1,03,1,02,1,00800,1,00,1,02,1",,"999,N,+0155,1","99999,9,09708,1","7,1,003,1,+999,9",,"01,1","SYN094AAXX  30061 01442 11589 61203 10163 20157 39708 49952 57003 60022 70162 83202 333 20155 70018;",
"01442099999","2010-07-30T09:00:00","4","58.6666666","7.8","211.0","BYGLANDSFJORD, NO","FM-12","99999","V020","010,1,N,0030,1","07500,1,9,N","075000,1,N,1","+0211,1","+0150,1","09950,1",,,,"1,1,03,1","1,1,03,1",,"05,99,1,02,1,02,1,01250,1,03,1,02,1",,,"99999,9,09711,1","2,1,002,1,+999,9",,"03,1","SYN072AAXX  30091 01442 41689 50103 10211 20150 39711 49950 52002 70311 82232;",
"01442099999","2010-07-30T12:00:00","4","58.6666666","7.8","211.0","BYGLANDSFJORD, NO","FM-12","99999","V020","010,1,N,0030,1","03000,1,9,N","075000,1,N,1","+0243,1","+0126,1","09950,1",,,,"1,1,06,1","1,1,06,1",,"06,99,1,04,1,02,1,01250,1,06,1,02,1",,,"99999,9,09712,1","2,1,002,1,+999,9",,"03,1","SYN078AAXX  30121 01442 11689 60103 10243 20126 39712 49950 52002 6//// 70311 84262;",
"01442099999","2010-07-30T15:00:00","4","58.6666666","7.8","211.0","BYGLANDSFJORD, NO","FM-12","99999","V020","340,1,N,0030,1","01200,1,9,N","075000,1,N,1","+0218,1","+0142,1","09968,1",,,,"2,1,03,1","2,1,03,1",,"08,99,1,08,1,09,1,01250,1,99,9,99,9",,,"99999,9,09728,1","3,1,016,1,+999,9",,"03,1","SYN072AAXX  30151 01442 41689 83403 10218 20142 39728 49968 53016 70322 889//;",
"01442099999","2010-07-30T18:00:00","4","58.6666666","7.8","211.0","BYGLANDSFJORD, NO","FM-12","99999","V020","350,1,N,0050,1","03000,1,9,N","075000,1,N,1","+0190,1","+0125,1","09997,1","12,0000,9,1",,,"8,1,06,1","2,1,06,1",,"06,99,1,03,1,02,1,01250,1,06,1,02,1",,"999,M,+0247,1","99999,9,09755,1","2,1,026,1,+999,9",,"01,1","SYN088AAXX  30181 01442 11689 63505 10190 20125 39755 49997 52026 69912 70182 83262 333 10247;","Q01  00002PRCP12"
"01442099999","2010-07-31T03:00:00","4","58.6666666","7.8","211.0","BYGLANDSFJORD, NO","FM-12","99999","V020","150,1,N,0030,1","07500,1,9,N","075000,1,N,1","+0134,1","+0091,1","10054,1",,,,"1,1,03,1","1,1,03,1",,"05,99,1,01,1,01,1,01250,1,03,1,01,1",,,"99999,9,09806,1","3,1,011,1,+999,9",,"02,1","SYN072AAXX  31031 01442 41689 51503 10134 20091 39806 40054 53011 70211 81131;",
"01442099999","2010-07-31T06:00:00","4","58.6666666","7.8","211.0","BYGLANDSFJORD, NO","FM-12","99999","V020","140,1,N,0030,1","01200,1,9,N","075000,1,N,1","+0130,1","+0104,1","10064,1","12,9999,9,9","24,0003,9,1",,"8,1,06,1","1,1,06,1",,"07,99,1,07,1,09,1,01250,1,06,1,00,1",,"999,N,+0125,1","99999,9,09815,1","2,1,009,1,+999,9",,"25,1","SYN094AAXX  31061 01442 11689 71403 10130 20104 39815 40064 52009 69912 72581 87960 333 20125 70002;","Q01  00002PRCP12Q02  00002PRCP12"
"01442099999","2010-07-31T09:00:00","4","58.6666666","7.8","211.0","BYGLANDSFJORD, NO","FM-12","99999","V020","140,1,N,0050,1","01500,1,9,N","075000,1,N,1","+0148,1","+0108,1","10067,1",,,,"2,1,03,1","2,1,03,1",,"08,99,1,08,1,00,1,01750,1,07,1,99,9",,,"99999,9,09820,1","2,1,005,1,+999,9",,"03,1","SYN072AAXX  31091 01442 41789 81405 10148 20108 39820 40067 52005 70322 8807/;",
"01442099999","2010-07-31T12:00:00","4","58.6666666","7.8","211.0","BYGLANDSFJORD, NO","FM-12","99999","V020","140,1,N,0030,1","00420,1,9,N","005000,1,N,1","+0144,1","+0139,1","10068,1",,,,"5,1,06,1","2,1,06,1",,"08,99,1,08,1,06,1,00450,1,99,9,99,9",,,"99999,9,09820,1","0,1,001,1,+999,9",,"51,1","SYN078AAXX  31121 01442 11450 81403 10144 20139 39820 40068 50001 6//// 75152 886//;",
"01442099999","2010-07-31T18:00:00","4","58.6666666","7.8","211.0","BYGLANDSFJORD, NO","FM-12","99999","V020","170,1,N,0030,1","00420,1,9,N","070000,1,N,1","+0164,1","+0154,1","10056,1","12,0020,9,1",,,"5,1,06,1","2,1,06,1",,"08,99,1,08,1,05,1,00450,1,99,9,99,9",,"999,M,+0164,1","99999,9,09810,1","7,1,003,1,+999,9",,"20,1","SYN088AAXX  31181 01442 11488 81703 10164 20154 39810 40056 57003 60022 72052 885// 333 10164;",
"01442099999","2010-08-01T03:00:00","4","58.6666666","7.8","211.0","BYGLANDSFJORD, NO","FM-12","99999","V020","170,1,N,0050,1","00750,1,9,N","075000,1,N,1","+0132,1","+0124,1","10069,1",,,,"6,1,03,1","5,1,03,1",,"08,99,1,08,1,05,1,00800,1,99,9,99,9",,,"99999,9,09820,1","4,1,000,1,+999,9",,"02,1","SYN072AAXX  01031 01442 41589 81705 10132 20124 39820 40069 54000 70265 885//;",
"01442099999","2010-08-01T06:00:00","4","58.6666666","7.8","211.0","BYGLANDSFJORD, NO","FM-12","99999","V020","160,1,N,0030,1","00900,1,9,N","075000,1,N,1","+0132,1","+0124,1","10077,1","12,0030,9,1","24,0046,9,1",,"6,1,06,1","5,1,06,1",,"07,99,1,07,1,08,1,00450,1,00,1,00,1",,"999,N,+0125,1","99999,9,09827,1","2,1,008,1,+999,9",,"01,1","SYN094AAXX  01061 01442 11489 71603 10132 20124 39827 40077 52008 60032 70165 87800 333 20125 70045;",
"01442099999","2010-08-01T09:00:00","4","58.6666666","7.8","211.0","BYGLANDSFJORD, NO","FM-12","99999","V020","190,1,N,0050,1","00750,1,9,N","075000,1,N,1","+0156,1","+0112,1","10085,1",,,,"2,1,03,1","2,1,03,1",,"06,99,1,05,1,02,1,00800,1,06,1,00,1",,,"99999,9,09837,1","2,1,010,1,+999,9",,"03,1","SYN072AAXX  01091 01442 41589 61905 10156 20112 39837 40085 52010 70322 85260;",
"01442099999","2010-08-01T12:00:00","4","58.6666666","7.8","211.0","BYGLANDSFJORD, NO","FM-12","99999","V020","190,1,N,0030,1","01200,1,9,N","075000,1,N,1","+0171,1","+0107,1","10091,1",,,,"2,1,06,1","2,1,06,1",,"07,99,1,05,1,02,1,01250,1,06,1,00,1",,,"99999,9,09845,1","2,1,007,1,+999,9",,"03,1","SYN078AAXX  01121 01442 11689 71903 10171 20107 39845 40091 52007 6//// 70322 85260;",
"01442099999","2010-08-01T15:00:00","4","58.6666666","7.8","211.0","BYGLANDSFJORD, NO","FM-12","99999","V020","150,1,N,0030,1","00750,1,9,N","075000,1,N,1","+0155,1","+0132,1","10102,1",,,,"8,1,03,1","2,1,03,1",,"08,99,1,08,1,09,1,00800,1,99,9,99,9",,,"99999,9,09853,1","2,1,009,1,+999,9",,"25,1","SYN072AAXX  01151 01442 41589 81503 10155 20132 39853 40102 52009 72582 889//;",
"01442099999","2010-08-01T18:00:00","4","58.6666666","7.8","211.0","BYGLANDSFJORD, NO","FM-12","99999","V020","150,1,N,0030,1","00420,1,9,N","075000,1,N,1","+0151,1","+0135,1","10106,1","12,0010,9,1",,,"8,1,06,1","2,1,06,1",,"07,99,1,07,1,09,1,00450,1,00,1,00,1",,"999,M,+0176,1","99999,9,09857,1","2,1,004,1,+999,9",,"25,1","SYN088AAXX  01181 01442 11489 71503 10151 20135 39857 40106 52004 60012 72582 87900 333 10176;",
"01442099999","2010-08-02T03:00:00","4","58.6666666","7.8","211.0","BYGLANDSFJORD, NO","FM-12","99999","V020","999,9,C,0000,1","00015,1,9,N","000000,1,N,1","+0103,1","+0103,1","10126,1",,,,"4,1,03,1","2,1,03,1","09,1,+99999,9,99,9","09,99,1,09,1,99,9,99999,9,99,9,99,9",,,"99999,9,09872,1","3,1,004,1,+999,9",,"45,1","SYN066AAXX  02031 01442 41/00 90000 10103 20103 39872 40126 53004 74542;",
"01442099999","2010-08-02T06:00:00","4","58.6666666","7.8","211.0","BYGLANDSFJORD, NO","FM-12","99999","V020","170,1,N,0010,1","00060,1,9,N","060000,1,N,1","+0115,1","+0115,1","10127,1","12,0000,2,1","24,0015,9,1",,"4,1,06,1","2,1,06,1",,"08,99,1,08,1,06,1,00075,1,99,9,99,9",,"999,N,+0102,1","99999,9,09875,1","2,1,002,1,+999,9",,"28,1","SYN094AAXX  02061 01442 11186 81701 10115 20115 39875 40127 52002 69912 72842 886// 333 20102 70014;",
"01442099999","2010-08-02T09:00:00","4","58.6666666","7.8","211.0","BYGLANDSFJORD, NO","FM-12","99999","V020","340,1,N,0050,1","22000,1,9,N","075000,1,N,1","+0159,1","+0115,1","10116,1",,,,"1,1,03,1","1,1,03,1",,"01,99,1,01,1,01,1,01750,1,00,1,00,1",,,"99999,9,09867,1","7,1,007,1,+999,9",,"01,1","SYN072AAXX  02091 01442 41789 13405 10159 20115 39867 40116 57007 70111 81100;",
"01442099999","2010-08-02T12:00:00","4","58.6666666","7.8","211.0","BYGLANDSFJORD, NO","FM-12","99999","V020","140,1,N,0030,1","01200,1,9,N","075000,1,N,1","+0199,1","+0106,1","10102,1",,,,"1,1,06,1","1,1,06,1",,"07,99,1,05,1,02,1,01250,1,06,1,02,1",,,"99999,9,09857,1","7,1,010,1,+999,9",,"03,1","SYN078AAXX  02121 01442 11689 71403 10199 20106 39857 40102 57010 6//// 70311 85262;",
"01442099999","2010-08-02T15:00:00","4","58.6666666","7.8","211.0","BYGLANDSFJORD, NO","FM-12","99999","V020","150,1,N,0030,1","01200,1,9,N","075000,1,N,1","+0196,1","+0119,1","10096,1",,,,"2,1,03,1","2,1,03,1",,"07,99,1,06,1,02,1,01250,1,06,1,02,1",,,"99999,9,09852,1","7,1,006,1,+999,9",,"03,1","SYN072AAXX  02151 01442 41689 71503 10196 20119 39852 40096 57006 70322 86262;",
"01442099999","2010-08-02T18:00:00","4","58.6666666","7.8","211.0","BYGLANDSFJORD, NO","FM-12","99999","V020","170,1,N,0030,1","03000,1,9,N","075000,1,N,1","+0175,1","+0142,1","10096,1","12,9999,9,9",,,"8,1,06,1","2,1,06,1",,"07,99,1,03,1,03,1,01250,1,06,1,02,1",,"999,M,+0205,1","99999,9,09850,1","7,1,002,1,+999,9",,"25,1","SYN088AAXX  02181 01442 11689 71703 10175 20142 39850 40096 57002 69922 72582 83362 333 10205;","Q01  00002PRCP12Q02  00002PRCP12"
"01442099999","2010-08-03T03:00:00","4","58.6666666","7.8","211.0","BYGLANDSFJORD, NO","FM-12","99999","V020","999,9,C,0000,1","22000,1,9,N","060000,1,N,1","+0098,1","+0097,1","10096,1",,,,"0,1,03,1","0,1,03,1","00,1,+99999,9,99,9","00,99,1,00,1,00,1,99999,9,00,1,00,1",,,"99999,9,09843,1","6,1,007,1,+999,9",,"02,1","SYN066AAXX  03031 01442 41986 00000 10098 20097 39843 40096 56007 70200;",
"01442099999","2010-08-03T06:00:00","4","58.6666666","7.8","211.0","BYGLANDSFJORD, NO","FM-12","99999","V020","150,1,N,0030,1","22000,1,9,N","075000,1,N,1","+0103,1","+0103,1","10096,1","12,0000,2,1","24,0003,9,1",,"0,1,06,1","0,1,06,1","00,1,+99999,9,99,9","00,99,1,00,1,00,1,99999,9,00,1,00,1",,"999,N,+0093,1","99999,9,09843,1","4,1,000,1,+999,9",,"02,1","SYN088AAXX  03061 01442 11989 01503 10103 20103 39843 40096 54000 69912 70200 333 20093 70003;",
"01442099999","2010-08-03T09:00:00","4","58.6666666","7.8","211.0","BYGLANDSFJORD, NO","FM-12","99999","V020","120,1,N,0030,1","01200,1,9,N","075000,1,N,1","+0152,1","+0114,1","10091,1",,,,"1,1,03,1","1,1,03,1",,"06,99,1,06,1,02,1,01250,1,00,1,00,1",,,"99999,9,09842,1","7,1,004,1,+999,9",,"03,1","SYN072AAXX  03091 01442 41689 61203 10152 20114 39842 40091 57004 70311 86200;",
"01442099999","2010-08-03T12:00:00","4","58.6666666","7.8","211.0","BYGLANDSFJORD, NO","FM-12","99999","V020","220,1,N,0030,1","07500,1,9,N","075000,1,N,1","+0211,1","+0100,1","10071,1",,,,"1,1,06,1","1,1,06,1",,"05,99,1,04,1,02,1,01250,1,00,1,03,1",,,"99999,9,09828,1","8,1,012,1,+999,9",,"01,1","SYN078AAXX  03121 01442 11689 52203 10211 20100 39828 40071 58012 6//// 70111 84203;",
"01442099999","2010-08-03T18:00:00","4","58.6666666","7.8","211.0","BYGLANDSFJORD, NO","FM-12","99999","V020","290,1,N,0050,1","22000,1,9,N","075000,1,N,1","+0189,1","+0077,1","10062,1","12,0000,9,1",,,"1,1,06,1","1,1,06,1",,"03,99,1,02,1,02,1,01250,1,06,1,01,1",,"999,M,+0215,1","99999,9,09817,1","5,1,003,1,+999,9",,"01,1","SYN088AAXX  03181 01442 11689 32905 10189 20077 39817 40062 55003 60002 70111 82261 333 10215;","Q01  00002PRCP12"
"01442099999","2010-08-04T03:00:00","4","58.6666666","7.8","211.0","BYGLANDSFJORD, NO","FM-12","99999","V020","170,1,N,0030,1","22000,1,9,N","075000,1,N,1","+0085,1","+0076,1","10062,1",,,,"0,1,03,1","0,1,03,1",,"01,99,1,01,1,00,1,02250,1,03,1,00,1",,,"99999,9,09808,1","7,1,008,1,+999,9",,"02,1","SYN072AAXX  04031 01442 41889 11703 10085 20076 39808 40062 57008 70200 81030;",
"01442099999","2010-08-04T06:00:00","4","58.6666666","7.8","211.0","BYGLANDSFJORD, NO","FM-12","99999","V020","180,1,N,0030,1","02100,1,9,N","075000,1,N,1","+0096,1","+0088,1","10057,1","12,0000,9,1","24,0000,9,1",,"1,1,06,1","0,1,06,1",,"07,99,1,07,1,00,1,02250,1,07,1,02,1",,"999,N,+0080,1","99999,9,09805,1","7,1,004,1,+999,9",,"03,1","SYN094AAXX  04061 01442 11889 71803 10096 20088 39805 40057 57004 60002 70310 87072 333 20080 70000;","Q01  00002PRCP24Q02  00002PRCP12"
"01442099999","2010-08-04T09:00:00","4","58.6666666","7.8","211.0","BYGLANDSFJORD, NO","FM-12","99999","V020","330,1,N,0030,1","03000,1,9,N","075000,1,N,1","+0147,1","+0095,1","10045,1",,,,"2,1,03,1","2,1,03,1",,"07,99,1,01,1,02,1,01750,1,03,1,08,1",,,"99999,9,09797,1","7,1,007,1,+999,9",,"03,1","SYN072AAXX  04091 01442 41789 73303 10147 20095 39797 40045 57007 70322 81238;",
"01442099999","2010-08-04T12:00:00","4","58.6666666","7.8","211.0","BYGLANDSFJORD, NO","FM-12","99999","V020","190,1,N,0030,1","01200,1,9,N","075000,1,N,1","+0175,1","+0124,1","99999,9",,,,"8,1,06,1","2,1,06,1",,"07,99,1,05,1,02,1,01250,1,03,1,02,1",,,,"7,1,009,1,+999,9",,"25,1","SYN072AAXX  04121 01442 11689 71903 10175 20124 38788 57009 6//// 72582 85232;","Q01+087883APOSP "
"01442099999","2010-08-04T15:00:00","4","58.6666666","7.8","211.0","BYGLANDSFJORD, NO","FM-12","99999","V020","170,1,N,0050,1","01200,1,9,N","075000,1,N,1","+0186,1","+0109,1","10028,1",,,,"2,1,03,1","2,1,03,1",,"08,99,1,08,1,09,1,01250,1,99,9,99,9",,,"99999,9,09785,1","5,1,004,1,+999,9",,"03,1","SYN072AAXX  04151 01442 41689 81705 10186 20109 39785 40028 55004 70322 889//;",
"01442099999","2010-08-04T18:00:00","4","58.6666666","7.8","211.0","BYGLANDSFJORD, NO","FM-12","99999","V020","170,1,N,0030,1","07500,1,9,N","075000,1,N,1","+0176,1","+0119,1","10032,1","12,0030,9,1",,,"2,1,06,1","2,1,06,1",,"08,99,1,02,1,02,1,01250,1,00,1,07,1",,"999,M,+0207,1","99999,9,09787,1","2,1,003,1,+999,9",,"03,1","SYN088AAXX  04181 01442 11689 81703 10176 20119 39787 40032 52003 60032 70322 82207 333 10207;",
"01442099999","2010-08-05T03:00:00","4","58.6666666","7.8","211.0","BYGLANDSFJORD, NO","FM-12","99999","V020","330,1,N,0050,1","01500,1,9,N","070000,1,N,1","+0129,1","+0118,1","10043,1",,,,"6,1,03,1","2,1,03,1",,"08,99,1,08,1,00,1,01750,1,07,1,99,9",,,"99999,9,09795,1","8,1,003,1,+999,9",,"60,1","SYN072AAXX  05031 01442 41788 83305 10129 20118 39795 40043 58003 76062 8807/;",
"01442099999","2010-08-05T06:00:00","4","58.6666666","7.8","211.0","BYGLANDSFJORD, NO","FM-12","99999","V020","330,1,N,0050,1","00420,1,9,N","040000,1,N,1","+0129,1","+0127,1","10052,1","12,0061,9,1","24,0089,9,1",,"9,1,06,1","6,1,06,1",,"08,99,1,08,1,09,1,00450,1,99,9,99,9",,"999,N,+0109,1","99999,9,09802,1","3,1,008,1,+999,9",,"80,1","SYN094AAXX  05061 01442 11482 83305 10129 20127 39802 40052 53008 60062 78096 889// 333 20109 70090;",
"01442099999","2010-08-05T09:00:00","4","58.6666666","7.8","211.0","BYGLANDSFJORD, NO","FM-12","99999","V020","350,1,N,0050,1","00420,1,9,N","050000,1,N,1","+0144,1","+0131,1","10053,1",,,,"8,1,03,1","2,1,03,1",,"07,99,1,07,1,09,1,00450,1,00,1,00,1",,,"99999,9,09806,1","0,1,003,1,+999,9",,"80,1","SYN072AAXX  05091 01442 41484 73505 10144 20131 39806 40053 50003 78082 87900;",
"01442099999","2010-08-05T12:00:00","4","58.6666666","7.8","211.0","BYGLANDSFJORD, NO","FM-12","99999","V020","170,1,N,0070,1","00750,1,9,N","070000,1,N,1","+0180,1","+0147,1","10056,1",,,,"8,1,06,1","2,1,06,1",,"07,99,1,07,1,09,1,00800,1,00,1,00,1",,,"99999,9,09812,1","2,1,006,1,+999,9",,"25,1","SYN078AAXX  05121 01442 11588 71707 10180 20147 39812 40056 52006 6//// 72582 87900;",
"01442099999","2010-08-05T15:00:00","4","58.6666666","7.8","211.0","BYGLANDSFJORD, NO","FM-12","99999","V020","190,1,N,0030,1","03000,1,9,N","075000,1,N,1","+0189,1","+0120,1","10063,1",,,,"2,1,03,1","2,1,03,1",,"07,99,1,02,1,02,1,01250,1,06,1,08,1",,,"99999,9,09818,1","2,1,007,1,+999,9",,"01,1","SYN072AAXX  05151 01442 41689 71903 10189 20120 39818 40063 52007 70122 82268;",
"01442099999","2010-08-05T18:00:00","4","58.6666666","7.8","211.0","BYGLANDSFJORD, NO","FM-12","99999","V020","150,1,N,0050,1","00750,1,9,N","040000,1,N,1","+0162,1","+0126,1","10071,1","12,0030,9,1",,,"8,1,06,1","2,1,06,1",,"08,99,1,08,1,09,1,00800,1,99,9,99,9",,"999,M,+0191,1","99999,9,09825,1","3,1,006,1,+999,9",,"80,1","SYN088AAXX  05181 01442 11582 81505 10162 20126 39825 40071 53006 60032 78082 889// 333 10191;",
"01442099999","2010-08-06T03:00:00","4","58.6666666","7.8","211.0","BYGLANDSFJORD, NO","FM-12","99999","V020","150,1,N,0050,1","00750,1,9,N","075000,1,N,1","+0144,1","+0126,1","10091,1",,,,"8,1,03,1","2,1,03,1",,"07,99,1,07,1,09,1,00800,1,00,1,00,1",,,"99999,9,09842,1","3,1,008,1,+999,9",,"25,1","SYN072AAXX  06031 01442 41589 71505 10144 20126 39842 40091 53008 72582 87900;",
"01442099999","2010-08-06T06:00:00","4","58.6666666","7.8","211.0","BYGLANDSFJORD, NO","FM-12","99999","V020","150,1,N,0030,1","00420,1,9,N","070000,1,N,1","+0140,1","+0122,1","10113,1","12,0020,9,1","24,0048,9,1",,"8,1,06,1","2,1,06,1",,"08,99,1,08,1,09,1,00450,1,99,9,99,9",,"999,N,+0134,1","99999,9,09863,1","2,1,021,1,+999,9",,"03,1","SYN094AAXX  06061 01442 11488 81503 10140 20122 39863 40113 52021 60022 70382 889// 333 20134 70047;",
"01442099999","2010-08-06T09:00:00","4","58.6666666","7.8","211.0","BYGLANDSFJORD, NO","FM-12","99999","V020","160,1,N,0050,1","00750,1,9,N","075000,1,N,1","+0170,1","+0127,1","10125,1",,,,"2,1,03,1","2,1,03,1",,"07,99,1,06,1,02,1,00800,1,06,1,01,1",,,"99999,9,09877,1","2,1,014,1,+999,9",,"03,1","SYN072AAXX  06091 01442 41589 71605 10170 20127 39877 40125 52014 70322 86261;",
"01442099999","2010-08-06T12:00:00","4","58.6666666","7.8","211.0","BYGLANDSFJORD, NO","FM-12","99999","V020","160,1,N,0050,1","01200,1,9,N","075000,1,N,1","+0182,1","+0111,1","10133,1",,,,"8,1,06,1","1,1,06,1",,"06,99,1,05,1,02,1,01250,1,06,1,03,1",,,"99999,9,09887,1","2,1,009,1,+999,9",,"25,1","SYN078AAXX  06121 01442 11689 61605 10182 20111 39887 40133 52009 6//// 72581 85263;",
"01442099999","2010-08-06T15:00:00","4","58.6666666","7.8","211.0","BYGLANDSFJORD, NO","FM-12","99999","V020","190,1,N,0050,1","03000,1,9,N","075000,1,N,1","+0200,1","+0104,1","10144,1",,,,"1,1,03,1","1,1,03,1",,"05,99,1,04,1,02,1,01250,1,06,1,00,1",,,"99999,9,09898,1","2,1,012,1,+999,9",,"03,1","SYN072AAXX  06151 01442 41689 51905 10200 20104 39898 40144 52012 70311 84260;",
"01442099999","2010-08-06T18:00:00","4","58.6666666","7.8","211.0","BYGLANDSFJORD, NO","FM-12","99999","V020","170,1,N,0050,1","22000,1,9,N","075000,1,N,1","+0176,1","+0095,1","10158,1","12,0005,9,1",,,"1,1,06,1","1,1,06,1",,"02,99,1,01,1,02,1,01250,1,06,1,02,1",,"999,M,+0207,1","99999,9,09911,1","3,1,012,1,+999,9",,"01,1","SYN088AAXX  06181 01442 11689 21705 10176 20095 39911 40158 53012 69942 70111 81262 333 10207;",
"01442099999","2010-08-07T03:00:00","4","58.6666666","7.8","211.0","BYGLANDSFJORD, NO","FM-12","99999","V020","999,9,C,0000,1","22000,1,9,N","075000,1,N,1","+0101,1","+0100,1","10187,1",,,,"0,1,03,1","0,1,03,1",,"03,99,1,01,1,01,1,00450,1,03,1,00,1",,,"99999,9,09932,1","0,1,001,1,+999,9",,"02,1","SYN072AAXX  07031 01442 41489 30000 10101 20100 39932 40187 50001 70200 81130;",
"01442099999","2010-08-07T06:00:00","4","58.6666666","7.8","211.0","BYGLANDSFJORD, NO","FM-12","99999","V020","340,1,N,0050,1","03000,1,9,N","075000,1,N,1","+0120,1","+0104,1","10184,1","12,0000,9,1","24,0005,9,1",,"1,1,06,1","0,1,06,1",,"08,99,1,02,1,02,1,00450,1,07,1,99,9",,"999,N,+0093,1","99999,9,09931,1","5,1,002,1,+999,9",,"03,1","SYN094AAXX  07061 01442 11489 83405 10120 20104 39931 40184 55002 60002 70310 8227/ 333 20093 70004;","Q01  00002PRCP12"
"01442099999","2010-08-07T09:00:00","4","58.6666666","7.8","211.0","BYGLANDSFJORD, NO","FM-12","99999","V020","010,1,N,0050,1","00750,1,9,N","075000,1,N,1","+0140,1","+0112,1","99999,9",,,,"2,1,03,1","2,1,03,1",,"08,99,1,08,1,05,1,00800,1,99,9,99,9",,,,"2,1,002,1,+999,9",,"02,1","SYN072AAXX  07091 01442 41589 80105 10140 20112 39832 40081 52002 70222 885//;","Q01+098323APOSP "
"01442099999","2010-08-07T12:00:00","4","58.6666666","7.8","211.0","BYGLANDSFJORD, NO","FM-12","99999","V020","110,1,N,0070,1","03000,1,9,N","075000,1,N,1","+0198,1","+0113,1","10168,1",,,,"2,1,06,1","2,1,06,1",,"05,99,1,04,1,02,1,01250,1,03,1,01,1",,,"99999,9,09922,1","7,1,011,1,+999,9",,"01,1","SYN078AAXX  07121 01442 11689 51107 10198 20113 39922 40168 57011 6//// 70122 84231;",
"01442099999","2010-08-07T15:00:00","4","58.6666666","7.8","211.0","BYGLANDSFJORD, NO","FM-12","99999","V020","170,1,N,0050,1","01200,1,9,N","075000,1,N,1","+0192,1","+0094,1","10165,1",,,,"2,1,03,1","2,1,03,1",,"07,99,1,06,1,02,1,01250,1,06,1,01,1",,,"99999,9,09918,1","7,1,003,1,+999,9",,"03,1","SYN072AAXX  07151 01442 41689 71705 10192 20094 39918 40165 57003 70322 86261;",
"01442099999","2010-08-07T18:00:00","4","58.6666666","7.8","211.0","BYGLANDSFJORD, NO","FM-12","99999","V020","150,1,N,0030,1","03000,1,9,N","075000,1,N,1","+0182,1","+0101,1","10163,1","12,0000,9,1",,,"2,1,06,1","2,1,06,1",,"08,99,1,01,1,01,1,01250,1,07,1,99,9",,"999,M,+0199,1","99999,9,09916,1","7,1,003,1,+999,9",,"03,1","SYN088AAXX  07181 01442 11689 81503 10182 20101 39916 40163 57003 60002 70322 8117/ 333 10199;","Q01  00002PRCP12"
"01442099999","2010-08-08T03:00:00","4","58.6666666","7.8","211.0","BYGLANDSFJORD, NO","FM-12","99999","V020","330,1,N,0030,1","01500,1,9,N","075000,1,N,1","+0146,1","+0114,1","10157,1",,,,"2,1,03,1","2,1,03,1",,"08,99,1,08,1,00,1,01750,1,07,1,99,9",,,"99999,9,09907,1","8,1,004,1,+999,9",,"02,1","SYN072AAXX  08031 01442 41789 83303 10146 20114 39907 40157 58004 70222 8807/;",
"01442099999","2010-08-08T06:00:00","4","58.6666666","7.8","211.0","BYGLANDSFJORD, NO","FM-12","99999","V020","340,1,N,0050,1","01500,1,9,N","075000,1,N,1","+0148,1","+0116,1","10152,1","12,0000,9,1","24,0000,9,1",,"2,1,06,1","2,1,06,1",,"07,99,1,07,1,00,1,01750,1,07,1,00,1",,"999,N,+0131,1","99999,9,09902,1","7,1,004,1,+999,9",,"01,1","SYN094AAXX  08061 01442 11789 73405 10148 20116 39902 40152 57004 60002 70122 87070 333 20131 70000;","Q01  00002PRCP24Q02  00002PRCP12"
"01442099999","2010-08-08T09:00:00","4","58.6666666","7.8","211.0","BYGLANDSFJORD, NO","FM-12","99999","V020","340,1,N,0050,1","22000,1,9,N","075000,1,N,1","+0178,1","+0120,1","10145,1",,,,"1,1,03,1","1,1,03,1",,"03,99,1,01,1,01,1,01750,1,03,1,01,1",,,"99999,9,09897,1","8,1,005,1,+999,9",,"03,1","SYN072AAXX  08091 01442 41789 33405 10178 20120 39897 40145 58005 70311 81131;",
"01442099999","2010-08-08T12:00:00","4","58.6666666","7.8","211.0","BYGLANDSFJORD, NO","FM-12","99999","V020","330,1,N,0030,1","22000,1,9,N","075000,1,N,1","+0226,1","+0101,1","10125,1",,,,"1,1,06,1","0,1,06,1",,"02,99,1,02,1,02,1,01750,1,00,1,01,1",,,"99999,9,09882,1","8,1,015,1,+999,9",,"03,1","SYN078AAXX  08121 01442 11789 23303 10226 20101 39882 40125 58015 6//// 70310 82201;",
"01442099999","2010-08-08T15:00:00","4","58.6666666","7.8","211.0","BYGLANDSFJORD, NO","FM-12","99999","V020","330,1,N,0030,1","01200,1,9,N","075000,1,N,1","+0226,1","+0120,1","10113,1",,,,"1,1,03,1","1,1,03,1",,"07,99,1,05,1,02,1,01250,1,06,1,02,1",,,"99999,9,09871,1","7,1,012,1,+999,9",,"03,1","SYN072AAXX  08151 01442 41689 73303 10226 20120 39871 40113 57012 70311 85262;",
"01442099999","2010-08-08T18:00:00","4","58.6666666","7.8","211.0","BYGLANDSFJORD, NO","FM-12","99999","V020","150,1,N,0010,1","03000,1,9,N","075000,1,N,1","+0214,1","+0155,1","10104,1","12,0000,9,1",,,"2,1,06,1","1,1,06,1",,"07,99,1,01,1,02,1,01250,1,07,1,02,1",,"999,M,+0246,1","99999,9,09861,1","6,1,010,1,+999,9",,"01,1","SYN088AAXX  08181 01442 11689 71501 10214 20155 39861 40104 56010 60002 70121 81272 333 10246;","Q01  00002PRCP12"
"01442099999","2010-08-09T03:00:00","4","58.6666666","7.8","211.0","BYGLANDSFJORD, NO","FM-12","99999","V020","350,1,N,0030,1","22000,1,9,N","075000,1,N,1","+0149,1","+0124,1","10096,1",,,,"0,1,03,1","0,1,03,1",,"01,99,1,01,1,00,1,01750,1,03,1,01,1",,,"99999,9,09847,1","7,1,005,1,+999,9",,"02,1","SYN072AAXX  09031 01442 41789 13503 10149 20124 39847 40096 57005 70200 81031;",
"01442099999","2010-08-09T06:00:00","4","58.6666666","7.8","211.0","BYGLANDSFJORD, NO","FM-12","99999","V020","340,1,N,0050,1","07500,1,9,N","075000,1,N,1","+0153,1","+0126,1","10092,1","12,0000,9,1","24,0000,9,1",,"1,1,06,1","0,1,06,1",,"07,99,1,01,1,00,1,02250,1,03,1,08,1",,"999,N,+0142,1","99999,9,09845,1","7,1,003,1,+999,9",,"03,1","SYN094AAXX  09061 01442 11889 73405 10153 20126 39845 40092 57003 60002 70310 81038 333 20142 70000;","Q01  00002PRCP24Q02  00002PRCP12"
"01442099999","2010-08-09T09:00:00","4","58.6666666","7.8","211.0","BYGLANDSFJORD, NO","FM-12","99999","V020","340,1,N,0050,1","03000,1,9,N","075000,1,N,1","+0184,1","+0131,1","10087,1",,,,"2,1,03,1","2,1,03,1",,"07,99,1,01,1,01,1,01750,1,03,1,08,1",,,"99999,9,09842,1","8,1,003,1,+999,9",,"03,1","SYN072AAXX  09091 01442 41789 73405 10184 20131 39842 40087 58003 70322 81138;",
"01442099999","2010-08-09T12:00:00","4","58.6666666","7.8","211.0","BYGLANDSFJORD, NO","FM-12","99999","V020","190,1,N,0030,1","01200,1,9,N","075000,1,N,1","+0230,1","+0132,1","10075,1",,,,"2,1,06,1","2,1,06,1",,"07,99,1,06,1,02,1,01250,1,03,1,02,1",,,"99999,9,09833,1","7,1,008,1,+999,9",,"03,1","SYN078AAXX  09121 01442 11689 71903 10230 20132 39833 40075 57008 6//// 70322 86232;",
"01442099999","2010-08-09T15:00:00","4","58.6666666","7.8","211.0","BYGLANDSFJORD, NO","FM-12","99999","V020","190,1,N,0050,1","01200,1,9,N","075000,1,N,1","+0238,1","+0131,1","10070,1",,,,"2,1,03,1","2,1,03,1",,"07,99,1,05,1,02,1,01250,1,06,1,02,1",,,"99999,9,09830,1","7,1,004,1,+999,9",,"03,1","SYN072AAXX  09151 01442 41689 71905 10238 20131 39830 40070 57004 70322 85262;",
"01442099999","2010-08-09T18:00:00","4","58.6666666","7.8","211.0","BYGLANDSFJORD, NO","FM-12","99999","V020","170,1,N,0050,1","22000,1,9,N","075000,1,N,1","+0211,1","+0133,1","10078,1","12,0000,9,1",,,"2,1,06,1","2,1,06,1",,"04,99,1,03,1,02,1,01250,1,06,1,01,1",,"999,M,+0239,1","99999,9,09836,1","3,1,006,1,+999,9",,"01,1","SYN088AAXX  09181 01442 11689 41705 10211 20133 39836 40078 53006 60002 70122 83261 333 10239;","Q01  00002PRCP12"
"01442099999","2010-08-10T03:00:00","4","58.6666666","7.8","211.0","BYGLANDSFJORD, NO","FM-12","99999","V020","150,1,N,0030,1","22000,1,9,N","075000,1,N,1","+0102,1","+0090,1","10109,1",,,,"0,1,03,1","0,1,03,1",,"01,99,1,00,1,00,1,99999,9,00,1,01,1",,,"99999,9,09857,1","2,1,002,1,+999,9",,"02,1","SYN072AAXX  10031 01442 41989 11503 10102 20090 39857 40109 52002 70200 80001;",
"01442099999","2010-08-10T06:00:00","4","58.6666666","7.8","211.0","BYGLANDSFJORD, NO","FM-12","99999","V020","150,1,N,0030,1","22000,1,9,N","075000,1,N,1","+0101,1","+0087,1","10112,1","12,0000,9,1","24,0000,9,1",,"0,1,06,1","0,1,06,1",,"02,99,1,01,1,02,1,01250,1,00,1,02,1",,"999,N,+0094,1","99999,9,09860,1","2,1,003,1,+999,9",,"03,1","SYN094AAXX  10061 01442 11689 21503 10101 20087 39860 40112 52003 60002 70300 81202 333 20094 70000;","Q01  00002PRCP24Q02  00002PRCP12"
"01442099999","2010-08-10T09:00:00","4","58.6666666","7.8","211.0","BYGLANDSFJORD, NO","FM-12","99999","V020","170,1,N,0030,1","01200,1,9,N","070000,1,N,1","+0166,1","+0117,1","10108,1",,,,"1,1,03,1","1,1,03,1",,"07,99,1,05,1,02,1,01250,1,03,1,02,1",,,"99999,9,09861,1","0,1,001,1,+999,9",,"03,1","SYN072AAXX  10091 01442 41688 71703 10166 20117 39861 40108 50001 70311 85232;",
"01442099999","2010-08-10T12:00:00","4","58.6666666","7.8","211.0","BYGLANDSFJORD, NO","FM-12","99999","V020","170,1,N,0050,1","03000,1,9,N","070000,1,N,1","+0199,1","+0131,1","10100,1",,,,"1,1,06,1","1,1,06,1",,"05,99,1,04,1,02,1,01250,1,06,1,01,1",,,"99999,9,09856,1","7,1,005,1,+999,9",,"03,1","SYN078AAXX  10121 01442 11688 51705 10199 20131 39856 40100 57005 6//// 70311 84261;",
"01442099999","2010-08-10T15:00:00","4","58.6666666","7.8","211.0","BYGLANDSFJORD, NO","FM-12","99999","V020","190,1,N,0070,1","01200,1,9,N","070000,1,N,1","+0193,1","+0114,1","10100,1",,,,"2,1,03,1","2,1,03,1",,"07,99,1,06,1,02,1,01250,1,06,1,01,1",,,"99999,9,09856,1","4,1,000,1,+999,9",,"03,1","SYN072AAXX  10151 01442 41688 71907 10193 20114 39856 40100 54000 70322 86261;",
"01442099999","2010-08-10T18:00:00","4","58.6666666","7.8","211.0","BYGLANDSFJORD, NO","FM-12","99999","V020","200,1,N,0030,1","03000,1,9,N","070000,1,N,1","+0181,1","+0121,1","10086,1","12,0000,9,1",,,"2,1,06,1","2,1,06,1",,"08,99,1,02,1,02,1,01250,1,02,1,99,9",,"999,M,+0207,1","99999,9,09841,1","8,1,015,1,+999,9",,"03,1","SYN088AAXX  10181 01442 11688 82003 10181 20121 39841 40086 58015 60002 70322 8222/ 333 10207;","Q01  00002PRCP12"
"01442099999","2010-08-11T03:00:00","4","58.6666666","7.8","211.0","BYGLANDSFJORD, NO","FM-12","99999","V020","330,1,N,0030,1","00210,1,9,N","010000,1,N,1","+0133,1","+0131,1","10057,1",,,,"6,1,03,1","6,1,03,1",,"08,99,1,08,1,07,1,00250,1,99,9,99,9",,,"99999,9,09808,1","8,1,012,1,+999,9",,"63,1","SYN072AAXX  11031 01442 41360 83303 10133 20131 39808 40057 58012 76366 887//;",
"01442099999","2010-08-11T06:00:00","4","58.6666666","7.8","211.0","BYGLANDSFJORD, NO","FM-12","99999","V020","150,1,N,0030,1","00600,1,9,N","070000,1,N,1","+0140,1","+0138,1","10055,1","12,0381,9,2","24,0378,9,2",,"6,1,06,1","2,1,06,1",,"07,99,1,07,1,08,1,00250,1,00,1,00,1",,"999,N,+0132,1","99999,9,09807,1","5,1,002,1,+999,9",,"21,1","SYN094AAXX  11061 01442 11388 71503 10140 20138 39807 40055 55002 60382 72162 87800 333 20132 70379;",
"01442099999","2010-08-11T09:00:00","4","58.6666666","7.8","211.0","BYGLANDSFJORD, NO","FM-12","99999","V020","120,1,N,0030,1","00750,1,9,N","075000,1,N,1","+0173,1","+0130,1","10064,1",,,,"2,1,03,1","2,1,03,1",,"05,99,1,05,1,02,1,00800,1,06,1,00,1",,,"99999,9,09818,1","2,1,012,1,+999,9",,"03,1","SYN072AAXX  11091 01442 41589 51203 10173 20130 39818 40064 52012 70322 85260;",
"01442099999","2010-08-11T12:00:00","4","58.6666666","7.8","211.0","BYGLANDSFJORD, NO","FM-12","99999","V020","150,1,N,0070,1","22000,1,9,N","075000,1,N,1","+0187,1","+0089,1","10069,1",,,,"2,1,06,1","1,1,06,1",,"03,99,1,03,1,02,1,01250,1,06,1,02,1",,,"99999,9,09825,1","2,1,006,1,+999,9",,"01,1","SYN078AAXX  11121 01442 11689 31507 10187 20089 39825 40069 52006 6//// 70121 83262;",
"01442099999","2010-08-11T15:00:00","4","58.6666666","7.8","211.0","BYGLANDSFJORD, NO","FM-12","99999","V020","190,1,N,0050,1","01200,1,9,N","075000,1,N,1","+0178,1","+0097,1","10082,1",,,,"1,1,03,1","1,1,03,1",,"07,99,1,05,1,02,1,01250,1,06,1,01,1",,,"99999,9,09837,1","2,1,012,1,+999,9",,"03,1","SYN072AAXX  11151 01442 41689 71905 10178 20097 39837 40082 52012 70311 85261;",
"01442099999","2010-08-11T18:00:00","4","58.6666666","7.8","211.0","BYGLANDSFJORD, NO","FM-12","99999","V020","190,1,N,0050,1","01200,1,9,N","075000,1,N,1","+0163,1","+0110,1","10094,1","12,0000,2,1",,,"1,1,06,1","1,1,06,1",,"06,99,1,06,1,02,1,01250,1,06,1,00,1",,"999,M,+0198,1","99999,9,09847,1","2,1,010,1,+999,9",,"03,1","SYN088AAXX  11181 01442 11689 61905 10163 20110 39847 40094 52010 60002 70311 86260 333 10198;",
"01442099999","2010-08-12T03:00:00","4","58.6666666","7.8","211.0","BYGLANDSFJORD, NO","FM-12","99999","V020","999,9,C,0000,1","00120,1,9,N","070000,1,N,1","+0106,1","+0106,1","10136,1",,,,"1,1,03,1","1,1,03,1",,"08,99,1,08,1,06,1,00150,1,99,9,99,9",,,"99999,9,09882,1","2,1,008,1,+999,9",,"02,1","SYN072AAXX  12031 01442 41288 80000 10106 20106 39882 40136 52008 70211 886//;",
"01442099999","2010-08-12T06:00:00","4","58.6666666","7.8","211.0","BYGLANDSFJORD, NO","FM-12","99999","V020","330,1,N,0050,1","00210,1,9,N","070000,1,N,1","+0117,1","+0103,1","10145,1","12,0000,9,1","24,0000,2,1",,"2,1,06,1","1,1,06,1",,"07,99,1,07,1,06,1,00250,1,00,1,00,1",,"999,N,+0094,1","99999,9,09892,1","2,1,010,1,+999,9",,"01,1","SYN094AAXX  12061 01442 11388 73305 10117 20103 39892 40145 52010 60002 70121 87600 333 20094 70000;","Q01  00002PRCP12"
"01442099999","2010-08-12T09:00:00","4","58.6666666","7.8","211.0","BYGLANDSFJORD, NO","FM-12","99999","V020","330,1,N,0050,1","22000,1,9,N","075000,1,N,1","+0155,1","+0111,1","10151,1",,,,"1,1,03,1","1,1,03,1",,"04,99,1,03,1,02,1,01250,1,03,1,02,1",,,"99999,9,09902,1","2,1,009,1,+999,9",,"03,1","SYN072AAXX  12091 01442 41689 43305 10155 20111 39902 40151 52009 70311 83232;",
"01442099999","2010-08-12T12:00:00","4","58.6666666","7.8","211.0","BYGLANDSFJORD, NO","FM-12","99999","V020","190,1,N,0030,1","01200,1,9,N","075000,1,N,1","+0176,1","+0107,1","10156,1",,,,"1,1,06,1","1,1,06,1",,"05,99,1,05,1,02,1,01250,1,06,1,00,1",,,"99999,9,09908,1","2,1,007,1,+999,9",,"03,1","SYN078AAXX  12121 01442 11689 51903 10176 20107 39908 40156 52007 6//// 70311 85260;",
"01442099999","2010-08-12T15:00:00","4","58.6666666","7.8","211.0","BYGLANDSFJORD, NO","FM-12","99999","V020","170,1,N,0050,1","22000,1,9,N","075000,1,N,1","+0193,1","+0095,1","10154,1",,,,"1,1,03,1","1,1,03,1",,"01,99,1,01,1,02,1,01750,1,06,1,02,1",,,"99999,9,09907,1","7,1,001,1,+999,9",,"01,1","SYN072AAXX  12151 01442 41789 11705 10193 20095 39907 40154 57001 70111 81262;",
"01442099999","2010-08-12T18:00:00","4","58.6666666","7.8","211.0","BYGLANDSFJORD, NO","FM-12","99999","V020","170,1,N,0030,1","22000,1,9,N","075000,1,N,1","+0188,1","+0101,1","10158,1","12,0000,9,1",,,"1,1,06,1","1,1,06,1",,"01,99,1,01,1,01,1,01750,1,06,1,01,1",,"999,M,+0199,1","99999,9,09912,1","2,1,004,1,+999,9",,"01,1","SYN088AAXX  12181 01442 11789 11703 10188 20101 39912 40158 52004 60002 70111 81161 333 10199;","Q01  00002PRCP12"
"01442099999","2010-08-13T03:00:00","4","58.6666666","7.8","211.0","BYGLANDSFJORD, NO","FM-12","99999","V020","350,1,N,0050,1","03000,1,9,N","040000,1,N,1","+0160,1","+0129,1","10141,1",,,,"6,1,03,1","2,1,03,1",,"08,99,1,01,1,07,1,00800,1,02,1,99,9",,,"99999,9,09892,1","8,1,018,1,+999,9",,"61,1","SYN072AAXX  13031 01442 41582 83505 10160 20129 39892 40141 58018 76162 8172/;",
"01442099999","2010-08-13T06:00:00","4","58.6666666","7.8","211.0","BYGLANDSFJORD, NO","FM-12","99999","V020","340,1,N,0070,1","00420,1,9,N","015000,1,N,1","+0149,1","+0136,1","10125,1","12,0051,9,2","24,0046,9,2",,"6,1,06,1","2,1,06,1",,"08,99,1,05,1,07,1,00450,1,02,1,99,9",,"999,N,+0145,1","99999,9,09876,1","8,1,017,1,+999,9",,"63,1","SYN094AAXX  13061 01442 11465 83407 10149 20136 39876 40125 58017 60052 76362 8572/ 333 20145 70045;",
"01442099999","2010-08-13T09:00:00","4","58.6666666","7.8","211.0","BYGLANDSFJORD, NO","FM-12","99999","V020","170,1,N,0030,1","00120,1,9,N","010000,1,N,1","+0150,1","+0148,1","10118,1",,,,"6,1,03,1","6,1,03,1",,"08,99,1,08,1,07,1,00150,1,99,9,99,9",,,"99999,9,09870,1","8,1,006,1,+999,9",,"63,1","SYN072AAXX  13091 01442 41260 81703 10150 20148 39870 40118 58006 76366 887//;",
"01442099999","2010-08-13T12:00:00","4","58.6666666","7.8","211.0","BYGLANDSFJORD, NO","FM-12","99999","V020","150,1,N,0030,1","00420,1,9,N","075000,1,N,1","+0186,1","+0166,1","10138,1",,,,"6,1,06,1","2,1,06,1",,"06,99,1,05,1,02,1,00450,1,06,1,01,1",,,"99999,9,09892,1","2,1,022,1,+999,9",,"01,1","SYN078AAXX  13121 01442 11489 61503 10186 20166 39892 40138 52022 6//// 70162 85261;",
"01442099999","2010-08-13T15:00:00","4","58.6666666","7.8","211.0","BYGLANDSFJORD, NO","FM-12","99999","V020","180,1,N,0070,1","01200,1,9,N","075000,1,N,1","+0199,1","+0155,1","10151,1",,,,"8,1,03,1","2,1,03,1",,"06,99,1,05,1,02,1,01250,1,06,1,00,1",,,"99999,9,09906,1","2,1,016,1,+999,9",,"03,1","SYN072AAXX  13151 01442 41689 61807 10199 20155 39906 40151 52016 70382 85260;",
"01442099999","2010-08-13T18:00:00","4","58.6666666","7.8","211.0","BYGLANDSFJORD, NO","FM-12","99999","V020","170,1,N,0030,1","03000,1,9,N","075000,1,N,1","+0183,1","+0150,1","10170,1","12,0180,9,1",,,"8,1,06,1","2,1,06,1",,"05,99,1,04,1,02,1,01250,1,06,1,02,1",,"999,M,+0206,1","99999,9,09922,1","2,1,014,1,+999,9",,"01,1","SYN088AAXX  13181 01442 11689 51703 10183 20150 39922 40170 52014 60182 70182 84262 333 10206;",
"01442099999","2010-08-14T03:00:00","4","58.6666666","7.8","211.0","BYGLANDSFJORD, NO","FM-12","99999","V020","999,9,C,0000,1","00060,1,9,N","020000,1,N,1","+0125,1","+0123,1","10205,1",,,,"2,1,03,1","2,1,03,1",,"08,99,1,08,1,06,1,00075,1,99,9,99,9",,,"99999,9,09952,1","2,1,003,1,+999,9",,"02,1","SYN072AAXX  14031 01442 41170 80000 10125 20123 39952 40205 52003 70222 886//;",
"01442099999","2010-08-14T06:00:00","4","58.6666666","7.8","211.0","BYGLANDSFJORD, NO","FM-12","99999","V020","140,1,N,0030,1","00120,1,9,N","070000,1,N,1","+0128,1","+0122,1","10211,1","12,0000,9,1","24,0175,9,1",,"2,1,06,1","2,1,06,1",,"08,99,1,08,1,06,1,00150,1,99,9,99,9",,"999,N,+0124,1","99999,9,09957,1","3,1,006,1,+999,9",,"01,1","SYN094AAXX  14061 01442 11288 81403 10128 20122 39957 40211 53006 60002 70122 886// 333 20124 70175;","Q01  00002PRCP12"
"01442099999","2010-08-14T09:00:00","4","58.6666666","7.8","211.0","BYGLANDSFJORD, NO","FM-12","99999","V020","330,1,N,0050,1","22000,1,9,N","075000,1,N,1","+0164,1","+0128,1","10207,1",,,,"2,1,03,1","1,1,03,1",,"01,99,1,01,1,01,1,00800,1,00,1,01,1",,,"99999,9,09957,1","5,1,000,1,+999,9",,"01,1","SYN072AAXX  14091 01442 41589 13305 10164 20128 39957 40207 55000 70121 81101;",
"01442099999","2010-08-14T12:00:00","4","58.6666666","7.8","211.0","BYGLANDSFJORD, NO","FM-12","99999","V020","120,1,N,0030,1","22000,1,9,N","075000,1,N,1","+0217,1","+0114,1","10190,1",,,,"2,1,06,1","1,1,06,1",,"04,99,1,01,1,01,1,01750,1,00,1,01,1",,,"99999,9,09945,1","8,1,013,1,+999,9",,"01,1","SYN078AAXX  14121 01442 11789 41203 10217 20114 39945 40190 58013 6//// 70121 81101;",
"01442099999","2010-08-14T15:00:00","4","58.6666666","7.8","211.0","BYGLANDSFJORD, NO","FM-12","99999","V020","020,1,N,0030,1","22000,1,9,N","075000,1,N,1","+0243,1","+0087,1","10174,1",,,,"0,1,03,1","0,1,03,1",,"01,99,1,00,1,00,1,99999,9,00,1,01,1",,,"99999,9,09932,1","8,1,013,1,+999,9",,"02,1","SYN072AAXX  14151 01442 41989 10203 10243 20087 39932 40174 58013 70200 80001;",
"01442099999","2010-08-14T18:00:00","4","58.6666666","7.8","211.0","BYGLANDSFJORD, NO","FM-12","99999","V020","270,1,N,0030,1","22000,1,9,N","075000,1,N,1","+0214,1","+0143,1","10170,1","12,0000,9,1",,,"0,1,06,1","0,1,06,1",,"01,99,1,00,1,00,1,99999,9,00,1,01,1",,"999,M,+0245,1","99999,9,09926,1","6,1,006,1,+999,9",,"02,1","SYN088AAXX  14181 01442 11989 12703 10214 20143 39926 40170 56006 60002 70200 80001 333 10245;","Q01  00002PRCP12"
"01442099999","2010-08-15T03:00:00","4","58.6666666","7.8","211.0","BYGLANDSFJORD, NO","FM-12","99999","V020","340,1,N,0050,1","22000,1,9,N","075000,1,N,1","+0151,1","+0117,1","10188,1",,,,"0,1,03,1","0,1,03,1","00,1,+99999,9,99,9","00,99,1,00,1,00,1,99999,9,00,1,00,1",,,"99999,9,09937,1","8,1,002,1,+999,9",,"02,1","SYN066AAXX  15031 01442 41989 03405 10151 20117 39937 40188 58002 70200;",
"01442099999","2010-08-15T06:00:00","4","58.6666666","7.8","211.0","BYGLANDSFJORD, NO","FM-12","99999","V020","340,1,N,0050,1","22000,1,9,N","075000,1,N,1","+0149,1","+0120,1","10195,1","12,0000,9,1","24,0000,9,1",,"0,1,06,1","0,1,06,1",,"01,99,1,00,1,00,1,99999,9,00,1,01,1",,"999,N,+0147,1","99999,9,09945,1","3,1,007,1,+999,9",,"02,1","SYN094AAXX  15061 01442 11989 13405 10149 20120 39945 40195 53007 60002 70200 80001 333 20147 70000;","Q01  00002PRCP24Q02  00002PRCP12"
"01442099999","2010-08-15T09:00:00","4","58.6666666","7.8","211.0","BYGLANDSFJORD, NO","FM-12","99999","V020","350,1,N,0050,1","22000,1,9,N","075000,1,N,1","+0193,1","+0135,1","10195,1",,,,"0,1,03,1","0,1,03,1",,"01,99,1,01,1,01,1,01750,1,00,1,01,1",,,"99999,9,09947,1","0,1,003,1,+999,9",,"03,1","SYN072AAXX  15091 01442 41789 13505 10193 20135 39947 40195 50003 70300 81101;",
"01442099999","2010-08-15T12:00:00","4","58.6666666","7.8","211.0","BYGLANDSFJORD, NO","FM-12","99999","V020","340,1,N,0050,1","22000,1,9,N","075000,1,N,1","+0241,1","+0136,1","10188,1",,,,"0,1,06,1","0,1,06,1",,"01,99,1,01,1,01,1,01750,1,00,1,00,1",,,"99999,9,09945,1","7,1,003,1,+999,9",,"03,1","SYN078AAXX  15121 01442 11789 13405 10241 20136 39945 40188 57003 6//// 70300 81100;",
"01442099999","2010-08-15T15:00:00","4","58.6666666","7.8","211.0","BYGLANDSFJORD, NO","FM-12","99999","V020","140,1,N,0050,1","22000,1,9,N","075000,1,N,1","+0250,1","+0116,1","10180,1",,,,"0,1,03,1","0,1,03,1",,"01,99,1,01,1,01,1,01750,1,00,1,00,1",,,"99999,9,09937,1","7,1,008,1,+999,9",,"01,1","SYN072AAXX  15151 01442 41789 11405 10250 20116 39937 40180 57008 70100 81100;",
"01442099999","2010-08-15T18:00:00","4","58.6666666","7.8","211.0","BYGLANDSFJORD, NO","FM-12","99999","V020","120,1,N,0030,1","22000,1,9,N","075000,1,N,1","+0231,1","+0141,1","10183,1","12,0000,9,1",,,"0,1,06,1","0,1,06,1",,"03,99,1,03,1,02,1,01750,1,06,1,00,1",,"999,M,+0255,1","99999,9,09940,1","3,1,002,1,+999,9",,"03,1","SYN088AAXX  15181 01442 11789 31203 10231 20141 39940 40183 53002 60002 70300 83260 333 10255;","Q01  00002PRCP12"
"01442099999","2010-08-16T03:00:00","4","58.6666666","7.8","211.0","BYGLANDSFJORD, NO","FM-12","99999","V020","120,1,N,0030,1","00750,1,9,N","075000,1,N,1","+0183,1","+0142,1","10183,1",,,,"8,1,03,1","2,1,03,1",,"08,99,1,08,1,09,1,00800,1,99,9,99,9",,,"99999,9,09936,1","5,1,005,1,+999,9",,"25,1","SYN072AAXX  16031 01442 41589 81203 10183 20142 39936 40183 55005 72582 889//;",
"01442099999","2010-08-16T06:00:00","4","58.6666666","7.8","211.0","BYGLANDSFJORD, NO","FM-12","99999","V020","120,1,N,0050,1","00750,1,9,N","075000,1,N,1","+0177,1","+0130,1","10182,1","12,0000,2,1","24,0000,2,1",,"8,1,06,1","2,1,06,1",,"08,99,1,08,1,09,1,00800,1,99,9,99,9",,"999,N,+0173,1","99999,9,09933,1","5,1,002,1,+999,9",,"03,1","SYN094AAXX  16061 01442 11589 81205 10177 20130 39933 40182 55002 69912 70382 889// 333 20173 70001;",
"01442099999","2010-08-16T09:00:00","4","58.6666666","7.8","211.0","BYGLANDSFJORD, NO","FM-12","99999","V020","330,1,N,0070,1","03000,1,9,N","075000,1,N,1","+0180,1","+0109,1","10174,1",,,,"2,1,03,1","2,1,03,1",,"07,99,1,03,1,02,1,01250,1,07,1,00,1",,,"99999,9,09927,1","7,1,007,1,+999,9",,"01,1","SYN072AAXX  16091 01442 41689 73307 10180 20109 39927 40174 57007 70122 83270;",
"01442099999","2010-08-16T12:00:00","4","58.6666666","7.8","211.0","BYGLANDSFJORD, NO","FM-12","99999","V020","340,1,N,0070,1","01200,1,9,N","075000,1,N,1","+0176,1","+0119,1","10170,1",,,,"8,1,06,1","2,1,06,1",,"08,99,1,08,1,09,1,01250,1,99,9,99,9",,,"99999,9,09922,1","8,1,004,1,+999,9",,"25,1","SYN078AAXX  16121 01442 11689 83407 10176 20119 39922 40170 58004 6//// 72582 889//;",
"01442099999","2010-08-16T15:00:00","4","58.6666666","7.8","211.0","BYGLANDSFJORD, NO","FM-12","99999","V020","340,1,N,0050,1","01500,1,9,N","075000,1,N,1","+0165,1","+0125,1","10159,1",,,,"6,1,03,1","2,1,03,1",,"08,99,1,08,1,00,1,01750,1,07,1,99,9",,,"99999,9,09911,1","8,1,012,1,+999,9",,"21,1","SYN072AAXX  16151 01442 41789 83405 10165 20125 39911 40159 58012 72162 8807/;",
"01442099999","2010-08-16T18:00:00","4","58.6666666","7.8","211.0","BYGLANDSFJORD, NO","FM-12","99999","V020","350,1,N,0050,1","01500,1,9,N","075000,1,N,1","+0170,1","+0115,1","10150,1","12,0008,9,1",,,"6,1,06,1","2,1,06,1",,"08,99,1,08,1,00,1,01750,1,07,1,99,9",,"999,M,+0182,1","99999,9,09902,1","6,1,008,1,+999,9",,"02,1","SYN088AAXX  16181 01442 11789 83505 10170 20115 39902 40150 56008 69982 70262 8807/ 333 10182;",
"01442099999","2010-08-17T03:00:00","4","58.6666666","7.8","211.0","BYGLANDSFJORD, NO","FM-12","99999","V020","330,1,N,0030,1","00750,1,9,N","060000,1,N,1","+0152,1","+0144,1","10112,1",,,,"6,1,03,1","2,1,03,1",,"08,99,1,08,1,05,1,00800,1,99,9,99,9",,,"99999,9,09863,1","7,1,013,1,+999,9",,"60,1","SYN072AAXX  17031 01442 41586 83303 10152 20144 39863 40112 57013 76062 885//;",
"01442099999","2010-08-17T06:00:00","4","58.6666666","7.8","211.0","BYGLANDSFJORD, NO","FM-12","99999","V020","340,1,N,0050,1","00750,1,9,N","075000,1,N,1","+0160,1","+0135,1","10096,1","12,0020,9,1","24,0030,9,1",,"6,1,06,1","2,1,06,1",,"08,99,1,08,1,05,1,00800,1,99,9,99,9",,"999,N,+0153,1","99999,9,09848,1","7,1,015,1,+999,9",,"02,1","SYN094AAXX  17061 01442 11589 83405 10160 20135 39848 40096 57015 60022 70262 885// 333 20153 70031;",
"01442099999","2010-08-17T09:00:00","4","58.6666666","7.8","211.0","BYGLANDSFJORD, NO","FM-12","99999","V020","340,1,N,0070,1","00750,1,9,N","075000,1,N,1","+0172,1","+0131,1","10082,1",,,,"2,1,03,1","2,1,03,1",,"08,99,1,08,1,05,1,00800,1,99,9,99,9",,,"99999,9,09836,1","6,1,013,1,+999,9",,"02,1","SYN072AAXX  17091 01442 41589 83407 10172 20131 39836 40082 56013 70222 885//;",
"01442099999","2010-08-17T12:00:00","4","58.6666666","7.8","211.0","BYGLANDSFJORD, NO","FM-12","99999","V020","010,1,N,0070,1","00750,1,9,N","075000,1,N,1","+0172,1","+0135,1","10067,1",,,,"6,1,06,1","2,1,06,1",,"08,99,1,08,1,05,1,00800,1,99,9,99,9",,,"99999,9,09822,1","7,1,014,1,+999,9",,"21,1","SYN078AAXX  17121 01442 11589 80107 10172 20135 39822 40067 57014 6//// 72162 885//;",
"01442099999","2010-08-17T18:00:00","4","58.6666666","7.8","211.0","BYGLANDSFJORD, NO","FM-12","99999","V020","030,1,N,0070,1","00750,1,9,N","050000,1,N,1","+0176,1","+0093,1","10025,1","12,0000,2,1",,,"8,1,06,1","2,1,06,1",,"08,99,1,08,1,09,1,00800,1,99,9,99,9",,"999,M,+0184,1","99999,9,09781,1","5,1,013,1,+999,9",,"80,1","SYN088AAXX  17181 01442 11584 80307 10176 20093 39781 40025 55013 69912 78082 889// 333 10184;",
"01442099999","2010-08-18T03:00:00","4","58.6666666","7.8","211.0","BYGLANDSFJORD, NO","FM-12","99999","V020","010,1,N,0050,1","00750,1,9,N","050000,1,N,1","+0148,1","+0145,1","09983,1",,,,"8,1,03,1","2,1,03,1",,"08,99,1,08,1,09,1,00800,1,99,9,99,9",,,"99999,9,09737,1","7,1,016,1,+999,9",,"80,1","SYN072AAXX  18031 01442 41584 80105 10148 20145 39737 49983 57016 78082 889//;",
"01442099999","2010-08-18T06:00:00","4","58.6666666","7.8","211.0","BYGLANDSFJORD, NO","FM-12","99999","V020","020,1,N,0050,1","00420,1,9,N","075000,1,N,1","+0155,1","+0142,1","09976,1","12,0201,9,1","24,0203,9,1",,"8,1,06,1","2,1,06,1",,"08,99,1,08,1,09,1,00450,1,99,9,99,9",,"999,N,+0134,1","99999,9,09732,1","7,1,006,1,+999,9",,"25,1","SYN094AAXX  18061 01442 11489 80205 10155 20142 39732 49976 57006 60202 72582 889// 333 20134 70202;",
"01442099999","2010-08-18T09:00:00","4","58.6666666","7.8","211.0","BYGLANDSFJORD, NO","FM-12","99999","V020","110,1,N,0050,1","00750,1,9,N","075000,1,N,1","+0169,1","+0140,1","09983,1",,,,"8,1,03,1","2,1,03,1",,"07,99,1,07,1,09,1,00800,1,00,1,00,1",,,"99999,9,09740,1","3,1,008,1,+999,9",,"25,1","SYN072AAXX  18091 01442 41589 71105 10169 20140 39740 49983 53008 72582 87900;",
"01442099999","2010-08-18T12:00:00","4","58.6666666","7.8","211.0","BYGLANDSFJORD, NO","FM-12","99999","V020","150,1,N,0030,1","00750,1,9,N","075000,1,N,1","+0174,1","+0141,1","09985,1",,,,"8,1,06,1","2,1,06,1",,"07,99,1,07,1,09,1,00800,1,00,1,00,1",,,"99999,9,09742,1","2,1,002,1,+999,9",,"25,1","SYN078AAXX  18121 01442 11589 71503 10174 20141 39742 49985 52002 6//// 72582 87900;",
"01442099999","2010-08-18T15:00:00","4","58.6666666","7.8","211.0","BYGLANDSFJORD, NO","FM-12","99999","V020","020,1,N,0050,1","00750,1,9,N","060000,1,N,1","+0179,1","+0136,1","09984,1",,,,"8,1,03,1","2,1,03,1",,"07,99,1,07,1,09,1,00800,1,00,1,00,1",,,"99999,9,09741,1","8,1,001,1,+999,9",,"80,1","SYN072AAXX  18151 01442 41586 70205 10179 20136 39741 49984 58001 78082 87900;",
"01442099999","2010-08-18T18:00:00","4","58.6666666","7.8","211.0","BYGLANDSFJORD, NO","FM-12","99999","V020","010,1,N,0050,1","22000,1,9,N","075000,1,N,1","+0180,1","+0131,1","09976,1","12,0041,9,1",,,"8,1,06,1","1,1,06,1",,"03,99,1,02,1,02,1,01250,1,06,1,00,1",,"999,M,+0187,1","99999,9,09733,1","7,1,007,1,+999,9",,"01,1","SYN088AAXX  18181 01442 11689 30105 10180 20131 39733 49976 57007 60042 70181 82260 333 10187;",
"01442099999","2010-08-19T03:00:00","4","58.6666666","7.8","211.0","BYGLANDSFJORD, NO","FM-12","99999","V020","010,1,N,0050,1","00420,1,9,N","010000,1,N,1","+0152,1","+0137,1","09976,1",,,,"6,1,03,1","6,1,03,1",,"08,99,1,08,1,07,1,00450,1,99,9,99,9",,,"99999,9,09731,1","5,1,002,1,+999,9",,"63,1","SYN072AAXX  19031 01442 41460 80105 10152 20137 39731 49976 55002 76366 887//;",
"01442099999","2010-08-19T06:00:00","4","58.6666666","7.8","211.0","BYGLANDSFJORD, NO","FM-12","99999","V020","330,1,N,0070,1","00420,1,9,N","030000,1,N,1","+0155,1","+0135,1","09985,1","12,0130,9,1","24,0168,9,1",,"6,1,06,1","2,1,06,1",,"07,99,1,07,1,09,1,00450,1,00,1,00,1",,"999,N,+0148,1","99999,9,09740,1","3,1,009,1,+999,9",,"80,1","SYN094AAXX  19061 01442 11480 73307 10155 20135 39740 49985 53009 60132 78062 87900 333 20148 70167;",
"01442099999","2010-08-19T09:00:00","4","58.6666666","7.8","211.0","BYGLANDSFJORD, NO","FM-12","99999","V020","150,1,N,0070,1","00750,1,9,N","075000,1,N,1","+0162,1","+0126,1","10006,1",,,,"8,1,03,1","2,1,03,1",,"08,99,1,08,1,09,1,00800,1,99,9,99,9",,,"99999,9,09761,1","3,1,021,1,+999,9",,"03,1","SYN072AAXX  19091 01442 41589 81507 10162 20126 39761 40006 53021 70382 889//;",
"01442099999","2010-08-19T12:00:00","4","58.6666666","7.8","211.0","BYGLANDSFJORD, NO","FM-12","99999","V020","350,1,N,0050,1","00750,1,9,N","075000,1,N,1","+0174,1","+0125,1","10022,1",,,,"8,1,06,1","2,1,06,1",,"08,99,1,08,1,05,1,00800,1,99,9,99,9",,,"99999,9,09777,1","2,1,017,1,+999,9",,"03,1","SYN078AAXX  19121 01442 11589 83505 10174 20125 39777 40022 52017 6//// 70382 885//;",
"01442099999","2010-08-19T15:00:00","4","58.6666666","7.8","211.0","BYGLANDSFJORD, NO","FM-12","99999","V020","010,1,N,0050,1","00750,1,9,N","075000,1,N,1","+0170,1","+0133,1","10040,1",,,,"6,1,03,1","2,1,03,1",,"08,99,1,08,1,05,1,00800,1,99,9,99,9",,,"99999,9,09795,1","3,1,017,1,+999,9",,"02,1","SYN072AAXX  19151 01442 41589 80105 10170 20133 39795 40040 53017 70262 885//;",
"01442099999","2010-08-19T18:00:00","4","58.6666666","7.8","211.0","BYGLANDSFJORD, NO","FM-12","99999","V020","330,1,N,0030,1","00420,1,9,N","015000,1,N,1","+0154,1","+0144,1","10063,1","12,0010,9,1",,,"6,1,06,1","2,1,06,1",,"08,99,1,08,1,05,1,00450,1,99,9,99,9",,"999,M,+0175,1","99999,9,09816,1","3,1,021,1,+999,9",,"60,1","SYN088AAXX  19181 01442 11465 83303 10154 20144 39816 40063 53021 60012 76062 885// 333 10175;",
"01442099999","2010-08-20T03:00:00","4","58.6666666","7.8","211.0","BYGLANDSFJORD, NO","FM-12","99999","V020","150,1,N,0030,1","99999,9,9,N","070000,1,N,1","+0102,1","+0102,1","10131,1",,,,"6,1,03,1","2,1,03,1",,"07,99,1,00,1,00,1,99999,9,00,1,08,1",,,"99999,9,09877,1","1,1,012,1,+999,9",,"01,1","SYN072AAXX  20031 01442 41988 71503 10102 20102 39877 40131 51012 70162 80008;",
"01442099999","2010-08-20T06:00:00","4","58.6666666","7.8","211.0","BYGLANDSFJORD, NO","FM-12","99999","V020","120,1,N,0030,1","00015,1,9,N","000100,1,N,1","+0096,1","+0096,1","10141,1","12,0041,9,1","24,0051,9,1",,"6,1,06,1","2,1,06,1","09,1,+99999,9,99,9","09,99,1,09,1,99,9,99999,9,99,9,99,9",,"999,N,+0094,1","99999,9,09887,1","2,1,009,1,+999,9",,"43,1","SYN088AAXX  20061 01442 11/01 91203 10096 20096 39887 40141 52009 60042 74362 333 20094 70051;",
"01442099999","2010-08-20T09:00:00","4","58.6666666","7.8","211.0","BYGLANDSFJORD, NO","FM-12","99999","V020","170,1,N,0030,1","00750,1,9,N","075000,1,N,1","+0146,1","+0125,1","10140,1",,,,"4,1,03,1","2,1,03,1",,"07,99,1,05,1,02,1,00800,1,03,1,08,1",,,"99999,9,09891,1","2,1,004,1,+999,9",,"03,1","SYN072AAXX  20091 01442 41589 71703 10146 20125 39891 40140 52004 70342 85238;",
"01442099999","2010-08-20T12:00:00","4","58.6666666","7.8","211.0","BYGLANDSFJORD, NO","FM-12","99999","V020","150,1,N,0050,1","01200,1,9,N","075000,1,N,1","+0167,1","+0112,1","10136,1",,,,"4,1,06,1","2,1,06,1",,"08,99,1,08,1,08,1,00800,1,99,9,99,9",,,"99999,9,09888,1","8,1,002,1,+999,9",,"03,1","SYN078AAXX  20121 01442 11589 81505 10167 20112 39888 40136 58002 6//// 70342 888//;",
"01442099999","2010-08-20T15:00:00","4","58.6666666","7.8","211.0","BYGLANDSFJORD, NO","FM-12","99999","V020","170,1,N,0030,1","00120,1,9,N","002000,1,N,1","+0142,1","+0132,1","10131,1",,,,"6,1,03,1","5,1,03,1",,"08,99,1,08,1,07,1,00150,1,99,9,99,9",,,"99999,9,09882,1","8,1,007,1,+999,9",,"61,1","SYN072AAXX  20151 01442 41220 81703 10142 20132 39882 40131 58007 76165 887//;",
"01442099999","2010-08-20T18:00:00","4","58.6666666","7.8","211.0","BYGLANDSFJORD, NO","FM-12","99999","V020","150,1,N,0030,1","00420,1,9,N","060000,1,N,1","+0147,1","+0145,1","10112,1","12,0061,9,1",,,"6,1,06,1","5,1,06,1",,"08,99,1,08,1,05,1,00450,1,99,9,99,9",,"999,M,+0167,1","99999,9,09863,1","7,1,018,1,+999,9",,"21,1","SYN088AAXX  20181 01442 11486 81503 10147 20145 39863 40112 57018 60062 72165 885// 333 10167;",
"01442099999","2010-08-21T03:00:00","4","58.6666666","7.8","211.0","BYGLANDSFJORD, NO","FM-12","99999","V020","170,1,N,0030,1","00420,1,9,N","040000,1,N,1","+0159,1","+0159,1","10087,1",,,,"6,1,03,1","6,1,03,1",,"08,99,1,08,1,07,1,00450,1,99,9,99,9",,,"99999,9,09840,1","7,1,012,1,+999,9",,"61,1","SYN072AAXX  21031 01442 41482 81703 10159 20159 39840 40087 57012 76166 887//;",
"01442099999","2010-08-21T06:00:00","4","58.6666666","7.8","211.0","BYGLANDSFJORD, NO","FM-12","99999","V020","150,1,N,0030,1","22000,1,9,N","075000,1,N,1","+0164,1","+0164,1","10087,1","12,0099,9,1","24,0157,9,1",,"6,1,06,1","1,1,06,1",,"01,99,1,01,1,01,1,00800,1,03,1,01,1",,"999,N,+0147,1","99999,9,09841,1","3,1,001,1,+999,9",,"01,1","SYN094AAXX  21061 01442 11589 11503 10164 20164 39841 40087 53001 60102 70161 81131 333 20147 70158;",
"01442099999","2010-08-21T09:00:00","4","58.6666666","7.8","211.0","BYGLANDSFJORD, NO","FM-12","99999","V020","150,1,N,0050,1","03000,1,9,N","075000,1,N,1","+0181,1","+0121,1","10098,1",,,,"1,1,03,1","1,1,03,1",,"05,99,1,03,1,02,1,00800,1,06,1,02,1",,,"99999,9,09852,1","3,1,012,1,+999,9",,"03,1","SYN072AAXX  21091 01442 41589 51505 10181 20121 39852 40098 53012 70311 83262;",
"01442099999","2010-08-21T12:00:00","4","58.6666666","7.8","211.0","BYGLANDSFJORD, NO","FM-12","99999","V020","170,1,N,0050,1","22000,1,9,N","075000,1,N,1","+0198,1","+0097,1","10104,1",,,,"1,1,06,1","1,1,06,1",,"03,99,1,02,1,02,1,01250,1,00,1,02,1",,,"99999,9,09860,1","1,1,007,1,+999,9",,"01,1","SYN078AAXX  21121 01442 11689 31705 10198 20097 39860 40104 51007 6//// 70111 82202;",
"01442099999","2010-08-21T15:00:00","4","58.6666666","7.8","211.0","BYGLANDSFJORD, NO","FM-12","99999","V020","190,1,N,0070,1","22000,1,9,N","075000,1,N,1","+0188,1","+0088,1","10103,1",,,,"1,1,03,1","1,1,03,1",,"03,99,1,01,1,01,1,01750,1,00,1,02,1",,,"99999,9,09857,1","8,1,002,1,+999,9",,"01,1","SYN072AAXX  21151 01442 41789 31907 10188 20088 39857 40103 58002 70111 81102;",
"01442099999","2010-08-21T18:00:00","4","58.6666666","7.8","211.0","BYGLANDSFJORD, NO","FM-12","99999","V020","170,1,N,0050,1","22000,1,9,N","075000,1,N,1","+0164,1","+0096,1","10101,1","12,0000,9,1",,,"1,1,06,1","1,1,06,1",,"01,99,1,01,1,01,1,01750,1,00,1,01,1",,"999,M,+0204,1","99999,9,09853,1","8,1,004,1,+999,9",,"01,1","SYN088AAXX  21181 01442 11789 11705 10164 20096 39853 40101 58004 60002 70111 81101 333 10204;","Q01  00002PRCP12"
"01442099999","2010-08-22T03:00:00","4","58.6666666","7.8","211.0","BYGLANDSFJORD, NO","FM-12","99999","V020","150,1,N,0030,1","00750,1,9,N","075000,1,N,1","+0133,1","+0120,1","10075,1",,,,"2,1,03,1","2,1,03,1",,"08,99,1,08,1,05,1,00800,1,99,9,99,9",,,"99999,9,09826,1","8,1,013,1,+999,9",,"02,1","SYN072AAXX  22031 01442 41589 81503 10133 20120 39826 40075 58013 70222 885//;",
"01442099999","2010-08-22T06:00:00","4","58.6666666","7.8","211.0","BYGLANDSFJORD, NO","FM-12","99999","V020","120,1,N,0030,1","22000,1,9,N","075000,1,N,1","+0130,1","+0119,1","10064,1","12,0000,9,1","24,0000,9,1",,"2,1,06,1","1,1,06,1",,"01,99,1,01,1,01,1,00800,1,00,1,00,1",,"999,N,+0124,1","99999,9,09815,1","7,1,011,1,+999,9",,"01,1","SYN094AAXX  22061 01442 11589 11203 10130 20119 39815 40064 57011 60002 70121 81100 333 20124 70000;","Q01  00002PRCP24Q02  00002PRCP12"
"01442099999","2010-08-22T09:00:00","4","58.6666666","7.8","211.0","BYGLANDSFJORD, NO","FM-12","99999","V020","270,1,N,0050,1","00750,1,9,N","075000,1,N,1","+0162,1","+0087,1","10064,1",,,,"1,1,03,1","1,1,03,1",,"07,99,1,07,1,09,1,00800,1,00,1,00,1",,,"99999,9,09817,1","3,1,003,1,+999,9",,"03,1","SYN072AAXX  22091 01442 41589 72705 10162 20087 39817 40064 53003 70311 87900;",
"01442099999","2010-08-22T12:00:00","4","58.6666666","7.8","211.0","BYGLANDSFJORD, NO","FM-12","99999","V020","190,1,N,0030,1","00750,1,9,N","050000,1,N,1","+0152,1","+0118,1","10060,1",,,,"8,1,06,1","1,1,06,1",,"07,99,1,07,1,09,1,00800,1,00,1,00,1",,,"99999,9,09812,1","6,1,005,1,+999,9",,"80,1","SYN078AAXX  22121 01442 11584 71903 10152 20118 39812 40060 56005 6//// 78081 87900;",
"01442099999","2010-08-22T15:00:00","4","58.6666666","7.8","211.0","BYGLANDSFJORD, NO","FM-12","99999","V020","020,1,N,0030,1","00750,1,9,N","075000,1,N,1","+0156,1","+0124,1","10051,1",,,,"8,1,03,1","2,1,03,1",,"08,99,1,08,1,09,1,00800,1,99,9,99,9",,,"99999,9,09805,1","7,1,008,1,+999,9",,"25,1","SYN072AAXX  22151 01442 41589 80203 10156 20124 39805 40051 57008 72582 889//;",
"01442099999","2010-08-22T18:00:00","4","58.6666666","7.8","211.0","BYGLANDSFJORD, NO","FM-12","99999","V020","170,1,N,0030,1","22000,1,9,N","075000,1,N,1","+0147,1","+0095,1","10048,1","12,0020,9,1",,,"8,1,06,1","1,1,06,1",,"01,99,1,01,1,01,1,01250,1,00,1,00,1",,"999,M,+0170,1","99999,9,09801,1","7,1,004,1,+999,9",,"01,1","SYN088AAXX  22181 01442 11689 11703 10147 20095 39801 40048 57004 60022 70181 81100 333 10170;",
"01442099999","2010-08-23T03:00:00","4","58.6666666","7.8","211.0","BYGLANDSFJORD, NO","FM-12","99999","V020","999,9,C,0000,1","22000,1,9,N","075000,1,N,1","+0091,1","+0088,1","10052,1",,,,"0,1,03,1","0,1,03,1","00,1,+99999,9,99,9","00,99,1,00,1,00,1,99999,9,00,1,00,1",,,"99999,9,09800,1","6,1,007,1,+999,9",,"02,1","SYN066AAXX  23031 01442 41989 00000 10091 20088 39800 40052 56007 70200;",
"01442099999","2010-08-23T06:00:00","4","58.6666666","7.8","211.0","BYGLANDSFJORD, NO","FM-12","99999","V020","120,1,N,0030,1","22000,1,9,N","075000,1,N,1","+0086,1","+0086,1","10040,1","12,0000,9,1","24,0023,9,1",,"0,1,06,1","0,1,06,1","00,1,+99999,9,99,9","00,99,1,00,1,00,1,99999,9,00,1,00,1",,"999,N,+0084,1","99999,9,09787,1","8,1,012,1,+999,9",,"02,1","SYN088AAXX  23061 01442 11989 01203 10086 20086 39787 40040 58012 69912 70200 333 20084 70024;","Q01  00002PRCP12"
"01442099999","2010-08-23T09:00:00","4","58.6666666","7.8","211.0","BYGLANDSFJORD, NO","FM-12","99999","V020","170,1,N,0030,1","22000,1,9,N","075000,1,N,1","+0151,1","+0097,1","10021,1",,,,"0,1,03,1","0,1,03,1",,"01,99,1,01,1,01,1,01750,1,00,1,00,1",,,"99999,9,09775,1","8,1,013,1,+999,9",,"03,1","SYN072AAXX  23091 01442 41789 11703 10151 20097 39775 40021 58013 70300 81100;",
"01442099999","2010-08-23T12:00:00","4","58.6666666","7.8","211.0","BYGLANDSFJORD, NO","FM-12","99999","V020","170,1,N,0050,1","03000,1,9,N","075000,1,N,1","+0182,1","+0085,1","09996,1",,,,"1,1,06,1","0,1,06,1",,"08,99,1,01,1,01,1,01250,1,01,1,99,9",,,"99999,9,09752,1","6,1,022,1,+999,9",,"03,1","SYN078AAXX  23121 01442 11689 81705 10182 20085 39752 49996 56022 6//// 70310 8111/;",
"01442099999","2010-08-23T15:00:00","4","58.6666666","7.8","211.0","BYGLANDSFJORD, NO","FM-12","99999","V020","150,1,N,0050,1","03000,1,9,N","075000,1,N,1","+0163,1","+0108,1","09969,1",,,,"2,1,03,1","2,1,03,1",,"08,99,1,02,1,01,1,01250,1,02,1,99,9",,,"99999,9,09725,1","7,1,028,1,+999,9",,"03,1","SYN072AAXX  23151 01442 41689 81505 10163 20108 39725 49969 57028 70322 8212/;",
"01442099999","2010-08-23T18:00:00","4","58.6666666","7.8","211.0","BYGLANDSFJORD, NO","FM-12","99999","V020","030,1,N,0070,1","03000,1,9,N","040000,1,N,1","+0135,1","+0094,1","09937,1","12,0005,9,1",,,"6,1,06,1","2,1,06,1",,"08,99,1,01,1,07,1,00800,1,02,1,99,9",,"999,M,+0183,1","99999,9,09692,1","8,1,033,1,+999,9",,"61,1","SYN088AAXX  23181 01442 11582 80307 10135 20094 39692 49937 58033 69962 76162 8172/ 333 10183;",
"01442099999","2010-08-24T03:00:00","4","58.6666666","7.8","211.0","BYGLANDSFJORD, NO","FM-12","99999","V020","080,1,N,0100,1","00750,1,9,N","075000,1,N,1","+0134,1","+0102,1","09802,1",,,,"8,1,03,1","6,1,03,1",,"08,99,1,08,1,09,1,00800,1,99,9,99,9",,,"99999,9,09560,1","8,1,047,1,+999,9",,"25,1","SYN072AAXX  24031 01442 41589 80810 10134 20102 39560 49802 58047 72586 889//;",
"01442099999","2010-08-24T06:00:00","4","58.6666666","7.8","211.0","BYGLANDSFJORD, NO","FM-12","99999","V020","070,1,N,0070,1","03000,1,9,N","040000,1,N,1","+0126,1","+0115,1","09776,1","12,0079,9,1","24,0081,9,1",,"8,1,06,1","6,1,06,1",,"08,99,1,03,1,07,1,00800,1,02,1,99,9",,"999,N,+0116,1","99999,9,09533,1","6,1,026,1,+999,9",,"60,1","SYN094AAXX  24061 01442 11582 80707 10126 20115 39533 49776 56026 60082 76086 8372/ 333 20116 70081;",
"01442099999","2010-08-24T09:00:00","4","58.6666666","7.8","211.0","BYGLANDSFJORD, NO","FM-12","99999","V020","080,1,N,0050,1","00750,1,9,N","050000,1,N,1","+0130,1","+0117,1","09803,1",,,,"6,1,03,1","6,1,03,1",,"08,99,1,05,1,07,1,00800,1,02,1,99,9",,,"99999,9,09561,1","3,1,027,1,+999,9",,"61,1","SYN072AAXX  24091 01442 41584 80805 10130 20117 39561 49803 53027 76166 8572/;",
"01442099999","2010-08-24T12:00:00","4","58.6666666","7.8","211.0","BYGLANDSFJORD, NO","FM-12","99999","V020","270,1,N,0070,1","01200,1,9,N","075000,1,N,1","+0141,1","+0091,1","09837,1",,,,"6,1,06,1","2,1,06,1",,"08,99,1,08,1,08,1,00800,1,99,9,99,9",,,"99999,9,09595,1","3,1,034,1,+999,9",,"01,1","SYN078AAXX  24121 01442 11589 82707 10141 20091 39595 49837 53034 6//// 70162 888//;",
"01442099999","2010-08-24T15:00:00","4","58.6666666","7.8","211.0","BYGLANDSFJORD, NO","FM-12","99999","V020","170,1,N,0050,1","00750,1,9,N","075000,1,N,1","+0138,1","+0097,1","09860,1",,,,"2,1,03,1","2,1,03,1",,"08,99,1,08,1,05,1,00800,1,99,9,99,9",,,"99999,9,09617,1","3,1,022,1,+999,9",,"02,1","SYN072AAXX  24151 01442 41589 81705 10138 20097 39617 49860 53022 70222 885//;",
"01442099999","2010-08-24T18:00:00","4","58.6666666","7.8","211.0","BYGLANDSFJORD, NO","FM-12","99999","V020","150,1,N,0050,1","00750,1,9,N","070000,1,N,1","+0129,1","+0104,1","09866,1","12,0030,9,1",,,"6,1,06,1","2,1,06,1",,"08,99,1,08,1,05,1,00800,1,99,9,99,9",,"999,M,+0155,1","99999,9,09622,1","1,1,005,1,+999,9",,"60,1","SYN088AAXX  24181 01442 11588 81505 10129 20104 39622 49866 51005 60032 76062 885// 333 10155;",
"01442099999","2010-08-25T03:00:00","4","58.6666666","7.8","211.0","BYGLANDSFJORD, NO","FM-12","99999","V020","170,1,N,0030,1","00750,1,9,N","060000,1,N,1","+0115,1","+0115,1","09901,1",,,,"6,1,03,1","2,1,03,1",,"08,99,1,08,1,05,1,00800,1,99,9,99,9",,,"99999,9,09655,1","2,1,018,1,+999,9",,"60,1","SYN072AAXX  25031 01442 41586 81703 10115 20115 39655 49901 52018 76062 885//;",
"01442099999","2010-08-25T06:00:00","4","58.6666666","7.8","211.0","BYGLANDSFJORD, NO","FM-12","99999","V020","330,1,N,0030,1","03000,1,9,N","075000,1,N,1","+0118,1","+0118,1","09922,1","12,0041,9,1","24,0071,9,1",,"6,1,06,1","2,1,06,1",,"08,99,1,01,1,01,1,00800,1,07,1,99,9",,"999,N,+0114,1","99999,9,09676,1","2,1,021,1,+999,9",,"21,1","SYN094AAXX  25061 01442 11589 83303 10118 20118 39676 49922 52021 60042 72162 8117/ 333 20114 70070;",
"01442099999","2010-08-25T09:00:00","4","58.6666666","7.8","211.0","BYGLANDSFJORD, NO","FM-12","99999","V020","330,1,N,0050,1","03000,1,9,N","075000,1,N,1","+0146,1","+0104,1","09944,1",,,,"6,1,03,1","2,1,03,1",,"08,99,1,02,1,01,1,00800,1,07,1,99,9",,,"99999,9,09700,1","3,1,024,1,+999,9",,"21,1","SYN072AAXX  25091 01442 41589 83305 10146 20104 39700 49944 53024 72162 8217/;",
"01442099999","2010-08-25T15:00:00","4","58.6666666","7.8","211.0","BYGLANDSFJORD, NO","FM-12","99999","V020","340,1,N,0070,1","00750,1,9,N","075000,1,N,1","+0162,1","+0087,1","09993,1",,,,"2,1,03,1","2,1,03,1",,"07,99,1,05,1,02,1,00800,1,06,1,02,1",,,"99999,9,09748,1","3,1,023,1,+999,9",,"03,1","SYN072AAXX  25151 01442 41589 73407 10162 20087 39748 49993 53023 70322 85262;",
"01442099999","2010-08-25T18:00:00","4","58.6666666","7.8","211.0","BYGLANDSFJORD, NO","FM-12","99999","V020","330,1,N,0050,1","01500,1,9,N","075000,1,N,1","+0148,1","+0078,1","10013,1","12,0000,2,1",,,"2,1,06,1","2,1,06,1",,"07,99,1,07,1,08,1,01250,1,00,1,02,1",,"999,M,+0171,1","99999,9,09767,1","1,1,018,1,+999,9",,"01,1","SYN088AAXX  25181 01442 11689 73305 10148 20078 39767 40013 51018 69912 70122 87802 333 10171;",
"01442099999","2010-08-26T03:00:00","4","58.6666666","7.8","211.0","BYGLANDSFJORD, NO","FM-12","99999","V020","110,1,N,0010,1","22000,1,9,N","075000,1,N,1","+0088,1","+0079,1","10040,1",,,,"0,1,03,1","0,1,03,1","00,1,+99999,9,99,9","00,99,1,00,1,00,1,99999,9,00,1,00,1",,,"99999,9,09787,1","7,1,001,1,+999,9",,"02,1","SYN066AAXX  26031 01442 41989 01101 10088 20079 39787 40040 57001 70200;",
"01442099999","2010-08-26T06:00:00","4","58.6666666","7.8","211.0","BYGLANDSFJORD, NO","FM-12","99999","V020","170,1,N,0030,1","22000,1,9,N","075000,1,N,1","+0079,1","+0079,1","10038,1","12,0000,9,1","24,0000,2,1",,"0,1,06,1","0,1,06,1",,"01,99,1,01,1,01,1,01250,1,00,1,02,1",,"999,N,+0077,1","99999,9,09785,1","8,1,003,1,+999,9",,"03,1","SYN094AAXX  26061 01442 11689 11703 10079 20079 39785 40038 58003 60002 70300 81102 333 20077 70001;","Q01  00002PRCP12"
"01442099999","2010-08-26T09:00:00","4","58.6666666","7.8","211.0","BYGLANDSFJORD, NO","FM-12","99999","V020","310,1,N,0070,1","22000,1,9,N","075000,1,N,1","+0161,1","+0071,1","10032,1",,,,"0,1,03,1","0,1,03,1",,"01,99,1,01,1,01,1,01750,1,00,1,00,1",,,"99999,9,09787,1","2,1,002,1,+999,9",,"02,1","SYN072AAXX  26091 01442 41789 13107 10161 20071 39787 40032 52002 70200 81100;",
"01442099999","2010-08-26T12:00:00","4","58.6666666","7.8","211.0","BYGLANDSFJORD, NO","FM-12","99999","V020","330,1,N,0050,1","22000,1,9,N","075000,1,N,1","+0180,1","+0062,1","10034,1",,,,"0,1,06,1","0,1,06,1",,"01,99,1,01,1,01,1,01750,1,00,1,00,1",,,"99999,9,09790,1","2,1,003,1,+999,9",,"02,1","SYN078AAXX  26121 01442 11789 13305 10180 20062 39790 40034 52003 6//// 70200 81100;",
"01442099999","2010-08-26T15:00:00","4","58.6666666","7.8","211.0","BYGLANDSFJORD, NO","FM-12","99999","V020","330,1,N,0070,1","22000,1,9,N","075000,1,N,1","+0188,1","+0066,1","10029,1",,,,"0,1,03,1","0,1,03,1",,"01,99,1,01,1,01,1,01750,1,00,1,00,1",,,"99999,9,09786,1","7,1,004,1,+999,9",,"01,1","SYN072AAXX  26151 01442 41789 13307 10188 20066 39786 40029 57004 70100 81100;",
"01442099999","2010-08-26T18:00:00","4","58.6666666","7.8","211.0","BYGLANDSFJORD, NO","FM-12","99999","V020","320,1,N,0050,1","22000,1,9,N","075000,1,N,1","+0162,1","+0069,1","10032,1","12,0000,9,1",,,"0,1,06,1","0,1,06,1","00,1,+99999,9,99,9","00,99,1,00,1,00,1,99999,9,00,1,00,1",,"999,M,+0197,1","99999,9,09787,1","2,1,001,1,+999,9",,"01,1","SYN082AAXX  26181 01442 11989 03205 10162 20069 39787 40032 52001 60002 70100 333 10197;","Q01  00002PRCP12"
"01442099999","2010-08-27T03:00:00","4","58.6666666","7.8","211.0","BYGLANDSFJORD, NO","FM-12","99999","V020","330,1,N,0030,1","01500,1,9,N","075000,1,N,1","+0108,1","+0077,1","10044,1",,,,"1,1,03,1","1,1,03,1",,"07,99,1,07,1,05,1,01750,1,00,1,00,1",,,"99999,9,09793,1","6,1,006,1,+999,9",,"03,1","SYN072AAXX  27031 01442 41789 73303 10108 20077 39793 40044 56006 70311 87500;",
"01442099999","2010-08-27T06:00:00","4","58.6666666","7.8","211.0","BYGLANDSFJORD, NO","FM-12","99999","V020","350,1,N,0030,1","01200,1,9,N","075000,1,N,1","+0108,1","+0084,1","10048,1","12,0000,9,1","24,0000,9,1",,"2,1,06,1","1,1,06,1",,"08,99,1,08,1,05,1,01250,1,99,9,99,9",,"999,N,+0098,1","99999,9,09797,1","2,1,004,1,+999,9",,"03,1","SYN094AAXX  27061 01442 11689 83503 10108 20084 39797 40048 52004 60002 70321 885// 333 20098 70000;","Q01  00002PRCP24Q02  00002PRCP12"
"01442099999","2010-08-27T09:00:00","4","58.6666666","7.8","211.0","BYGLANDSFJORD, NO","FM-12","99999","V020","330,1,N,0050,1","01200,1,9,N","075000,1,N,1","+0136,1","+0091,1","10049,1",,,,"2,1,03,1","2,1,03,1",,"07,99,1,06,1,02,1,01250,1,06,1,00,1",,,"99999,9,09801,1","2,1,003,1,+999,9",,"03,1","SYN072AAXX  27091 01442 41689 73305 10136 20091 39801 40049 52003 70322 86260;",
"01442099999","2010-08-27T12:00:00","4","58.6666666","7.8","211.0","BYGLANDSFJORD, NO","FM-12","99999","V020","080,1,N,0030,1","01200,1,9,N","075000,1,N,1","+0162,1","+0079,1","10043,1",,,,"2,1,06,1","2,1,06,1",,"07,99,1,06,1,09,1,01250,1,06,1,03,1",,,"99999,9,09797,1","8,1,004,1,+999,9",,"03,1","SYN078AAXX  27121 01442 11689 70803 10162 20079 39797 40043 58004 6//// 70322 86963;",
"01442099999","2010-08-27T15:00:00","4","58.6666666","7.8","211.0","BYGLANDSFJORD, NO","FM-12","99999","V020","120,1,N,0030,1","00750,1,9,N","050000,1,N,1","+0127,1","+0114,1","10053,1",,,,"8,1,03,1","2,1,03,1",,"07,99,1,07,1,09,1,00800,1,06,1,00,1",,,"99999,9,09803,1","2,1,007,1,+999,9",,"80,1","SYN072AAXX  27151 01442 41584 71203 10127 20114 39803 40053 52007 78082 87960;",
"01442099999","2010-08-27T18:00:00","4","58.6666666","7.8","211.0","BYGLANDSFJORD, NO","FM-12","99999","V020","170,1,N,0030,1","00750,1,9,N","075000,1,N,1","+0121,1","+0110,1","10055,1","12,0030,9,1",,,"8,1,06,1","2,1,06,1",,"07,99,1,07,1,09,1,00800,1,06,1,00,1",,"999,M,+0169,1","99999,9,09806,1","0,1,002,1,+999,9",,"25,1","SYN088AAXX  27181 01442 11589 71703 10121 20110 39806 40055 50002 60032 72582 87960 333 10169;",
"01442099999","2010-08-28T18:00:00","4","58.6666666","7.8","211.0","BYGLANDSFJORD, NO","FM-12","99999","V020","280,1,N,0070,1","22000,1,9,N","075000,1,N,1","+0120,1","+0038,1","10050,1","12,0000,9,1",,,"8,1,06,1","1,1,06,1",,"01,99,1,01,1,01,1,01250,1,00,1,00,1",,"999,M,+0165,1","99999,9,09801,1","5,1,001,1,+999,9",,"01,1","SYN088AAXX  28181 01442 11689 12807 10120 20038 39801 40050 55001 69922 70181 81100 333 10165;","Q01  00002PRCP12"
"01442099999","2010-08-29T03:00:00","4","58.6666666","7.8","211.0","BYGLANDSFJORD, NO","FM-12","99999","V020","999,9,C,0000,1","22000,1,9,N","075000,1,N,1","+0041,1","+0040,1","10042,1",,,,"0,1,03,1","0,1,03,1","00,1,+99999,9,99,9","00,99,1,00,1,00,1,99999,9,00,1,00,1",,,"99999,9,09786,1","7,1,008,1,+999,9",,"02,1","SYN066AAXX  29031 01442 41989 00000 10041 20040 39786 40042 57008 70200;",
"01442099999","2010-08-29T06:00:00","4","58.6666666","7.8","211.0","BYGLANDSFJORD, NO","FM-12","99999","V020","999,9,C,0000,1","22000,1,9,N","075000,1,N,1","+0043,1","+0043,1","10037,1","12,0000,9,1","24,0003,9,1",,"4,1,06,1","0,1,06,1",,"03,99,1,03,1,06,1,00075,1,00,1,00,1",,"999,N,+0035,1","99999,9,09781,1","7,1,005,1,+999,9",,"28,1","SYN094AAXX  29061 01442 11189 30000 10043 20043 39781 40037 57005 60002 72840 83600 333 20035 70002;","Q01  00002PRCP12"
"01442099999","2010-08-29T09:00:00","4","58.6666666","7.8","211.0","BYGLANDSFJORD, NO","FM-12","99999","V020","340,1,N,0030,1","22000,1,9,N","075000,1,N,1","+0097,1","+0061,1","10031,1",,,,"0,1,03,1","0,1,03,1",,"02,99,1,02,1,02,1,01250,1,00,1,01,1",,,"99999,9,09780,1","5,1,001,1,+999,9",,"03,1","SYN072AAXX  29091 01442 41689 23403 10097 20061 39780 40031 55001 70300 82201;",
"01442099999","2010-08-29T12:00:00","4","58.6666666","7.8","211.0","BYGLANDSFJORD, NO","FM-12","99999","V020","340,1,N,0030,1","01200,1,9,N","075000,1,N,1","+0157,1","+0035,1","10031,1",,,,"1,1,06,1","0,1,06,1",,"06,99,1,06,1,02,1,01250,1,00,1,00,1",,,"99999,9,09785,1","3,1,005,1,+999,9",,"03,1","SYN078AAXX  29121 01442 11689 63403 10157 20035 39785 40031 53005 6//// 70310 86200;",
"01442099999","2010-08-29T15:00:00","4","58.6666666","7.8","211.0","BYGLANDSFJORD, NO","FM-12","99999","V020","030,1,N,0050,1","00750,1,9,N","075000,1,N,1","+0129,1","+0067,1","10054,1",,,,"8,1,03,1","2,1,03,1",,"07,99,1,06,1,09,1,00800,1,06,1,00,1",,,"99999,9,09805,1","3,1,020,1,+999,9",,"25,1","SYN072AAXX  29151 01442 41589 70305 10129 20067 39805 40054 53020 72582 86960;",
"01442099999","2010-08-29T18:00:00","4","58.6666666","7.8","211.0","BYGLANDSFJORD, NO","FM-12","99999","V020","270,1,N,0030,1","22000,1,9,N","075000,1,N,1","+0118,1","+0069,1","10071,1","12,0003,9,1",,,"8,1,06,1","1,1,06,1",,"01,99,1,01,1,02,1,01250,1,06,1,01,1",,"999,M,+0159,1","99999,9,09821,1","2,1,016,1,+999,9",,"01,1","SYN088AAXX  29181 01442 11689 12703 10118 20069 39821 40071 52016 69932 70181 81261 333 10159;",
"01442099999","2010-08-30T03:00:00","4","58.6666666","7.8","211.0","BYGLANDSFJORD, NO","FM-12","99999","V020","350,1,N,0030,1","22000,1,9,N","075000,1,N,1","+0101,1","+0055,1","10144,1",,,,"0,1,03,1","0,1,03,1","00,1,+99999,9,99,9","00,99,1,00,1,00,1,99999,9,00,1,00,1",,,"99999,9,09891,1","2,1,019,1,+999,9",,"02,1","SYN066AAXX  30031 01442 41989 03503 10101 20055 39891 40144 52019 70200;",
"01442099999","2010-08-30T06:00:00","4","58.6666666","7.8","211.0","BYGLANDSFJORD, NO","FM-12","99999","V020","020,1,N,0030,1","22000,1,9,N","075000,1,N,1","+0094,1","+0056,1","10164,1","12,0000,9,1","24,0003,9,1",,"0,1,06,1","0,1,06,1","00,1,+99999,9,99,9","00,99,1,00,1,00,1,99999,9,00,1,00,1",,"999,N,+0091,1","99999,9,09910,1","2,1,019,1,+999,9",,"02,1","SYN088AAXX  30061 01442 11989 00203 10094 20056 39910 40164 52019 60002 70200 333 20091 70003;","Q01  00002PRCP12"
"01442099999","2010-08-30T09:00:00","4","58.6666666","7.8","211.0","BYGLANDSFJORD, NO","FM-12","99999","V020","010,1,N,0050,1","22000,1,9,N","075000,1,N,1","+0135,1","+0059,1","10172,1",,,,"0,1,03,1","0,1,03,1",,"01,99,1,01,1,01,1,01750,1,00,1,00,1",,,"99999,9,09921,1","1,1,011,1,+999,9",,"03,1","SYN072AAXX  30091 01442 41789 10105 10135 20059 39921 40172 51011 70300 81100;",
"01442099999","2010-08-30T12:00:00","4","58.6666666","7.8","211.0","BYGLANDSFJORD, NO","FM-12","99999","V020","010,1,N,0030,1","22000,1,9,N","075000,1,N,1","+0167,1","+0027,1","99999,9",,,,"0,1,06,1","0,1,06,1",,"01,99,1,01,1,02,1,01250,1,00,1,00,1",,,,"2,1,001,1,+999,9",,"03,1","SYN078AAXX  30121 01442 11689 10103 10167 20027 39822 40068 52001 6//// 70300 81200;","Q01+098223APOSP "
"01442099999","2010-08-30T15:00:00","4","58.6666666","7.8","211.0","BYGLANDSFJORD, NO","FM-12","99999","V020","150,1,N,0030,1","22000,1,9,N","075000,1,N,1","+0171,1","+0054,1","10161,1",,,,"0,1,03,1","0,1,03,1",,"03,99,1,02,1,02,1,01250,1,06,1,01,1",,,"99999,9,09912,1","7,1,009,1,+999,9",,"03,1","SYN072AAXX  30151 01442 41689 31503 10171 20054 39912 40161 57009 70300 82261;",
"01442099999","2010-08-30T18:00:00","4","58.6666666","7.8","211.0","BYGLANDSFJORD, NO","FM-12","99999","V020","330,1,N,0070,1","07500,1,9,N","075000,1,N,1","+0156,1","+0055,1","10157,1","12,0000,9,1",,,"1,1,06,1","0,1,06,1",,"08,99,1,03,1,00,1,01750,1,03,1,07,1",,"999,M,+0179,1","99999,9,09907,1","7,1,005,1,+999,9",,"03,1","SYN088AAXX  30181 01442 11789 83307 10156 20055 39907 40157 57005 60002 70310 83037 333 10179;","Q01  00002PRCP12"
"01442099999","2010-08-31T03:00:00","4","58.6666666","7.8","211.0","BYGLANDSFJORD, NO","FM-12","99999","V020","010,1,N,0030,1","22000,1,9,N","075000,1,N,1","+0095,1","+0059,1","10168,1",,,,"1,1,03,1","0,1,03,1",,"01,99,1,00,1,00,1,99999,9,00,1,01,1",,,"99999,9,09913,1","7,1,006,1,+999,9",,"01,1","SYN072AAXX  31031 01442 41989 10103 10095 20059 39913 40168 57006 70110 80001;",
"01442099999","2010-08-31T06:00:00","4","58.6666666","7.8","211.0","BYGLANDSFJORD, NO","FM-12","99999","V020","110,1,N,0030,1","99999,9,9,N","075000,1,N,1","+0089,1","+0067,1","10175,1","12,0000,9,1","24,0000,9,1",,"1,1,06,1","0,1,06,1",,"07,99,1,01,1,00,1,99999,9,04,1,08,1",,"999,N,+0084,1","99999,9,09920,1","2,1,006,1,+999,9",,"03,1","SYN094AAXX  31061 01442 11989 71103 10089 20067 39920 40175 52006 60002 70310 81048 333 20084 70000;","Q01  00002PRCP24Q02  00002PRCP12"
"01442099999","2010-08-31T09:00:00","4","58.6666666","7.8","211.0","BYGLANDSFJORD, NO","FM-12","99999","V020","030,1,N,0030,1","01500,1,9,N","075000,1,N,1","+0132,1","+0063,1","10173,1",,,,"2,1,03,1","2,1,03,1",,"08,99,1,07,1,00,1,01750,1,07,1,08,1",,,"99999,9,09922,1","2,1,002,1,+999,9",,"03,1","SYN072AAXX  31091 01442 41789 80303 10132 20063 39922 40173 52002 70322 87078;",
"01442099999","2010-08-31T15:00:00","4","58.6666666","7.8","211.0","BYGLANDSFJORD, NO","FM-12","99999","V020","340,1,N,0070,1","03000,1,9,N","075000,1,N,1","+0177,1","+0080,1","10156,1",,,,"1,1,03,1","1,1,03,1",,"06,99,1,03,1,02,1,01250,1,06,1,02,1",,,"99999,9,09908,1","7,1,009,1,+999,9",,"03,1","SYN072AAXX  31151 01442 41689 63407 10177 20080 39908 40156 57009 70311 83262;",
"01442099999","2010-08-31T18:00:00","4","58.6666666","7.8","211.0","BYGLANDSFJORD, NO","FM-12","99999","V020","340,1,N,0050,1","22000,1,9,N","075000,1,N,1","+0148,1","+0074,1","10153,1","12,0000,9,1",,,"1,1,06,1","1,1,06,1",,"01,99,1,01,1,00,1,02250,1,04,1,00,1",,"999,M,+0178,1","99999,9,09903,1","8,1,005,1,+999,9",,"01,1","SYN088AAXX  31181 01442 11889 13405 10148 20074 39903 40153 58005 60002 70111 81040 333 10178;","Q01  00002PRCP12"
"01442099999","2010-09-01T03:00:00","4","58.6666666","7.8","211.0","BYGLANDSFJORD, NO","FM-12","99999","V020","999,9,C,0000,1","02100,1,9,N","075000,1,N,1","+0070,1","+0067,1","10164,1",,,,"1,1,03,1","1,1,03,1",,"06,99,1,06,1,00,1,02250,1,03,1,01,1",,,"99999,9,09907,1","7,1,004,1,+999,9",,"03,1","SYN072AAXX  01031 01442 41889 60000 10070 20067 39907 40164 57004 70311 86031;",
"01442099999","2010-09-01T06:00:00","4","58.6666666","7.8","211.0","BYGLANDSFJORD, NO","FM-12","99999","V020","330,1,N,0050,1","99999,9,9,N","075000,1,N,1","+0092,1","+0084,1","10161,1","12,0000,9,1","24,0000,9,1",,"1,1,06,1","1,1,06,1",,"05,99,1,00,1,00,1,99999,9,00,1,02,1",,"999,N,+0070,1","99999,9,09907,1","5,1,000,1,+999,9",,"01,1","SYN094AAXX  01061 01442 11989 53305 10092 20084 39907 40161 55000 60002 70111 80002 333 20070 70000;","Q01  00002PRCP24Q02  00002PRCP12"
"01442099999","2010-09-01T09:00:00","4","58.6666666","7.8","211.0","BYGLANDSFJORD, NO","FM-12","99999","V020","330,1,N,0050,1","07500,1,9,N","075000,1,N,1","+0144,1","+0077,1","10159,1",,,,"1,1,03,1","1,1,03,1",,"05,99,1,03,1,00,1,02250,1,03,1,02,1",,,"99999,9,09908,1","2,1,002,1,+999,9",,"03,1","SYN072AAXX  01091 01442 41889 53305 10144 20077 39908 40159 52002 70311 83032;",
"01442099999","2010-09-01T12:00:00","4","58.6666666","7.8","211.0","BYGLANDSFJORD, NO","FM-12","99999","V020","340,1,N,0030,1","03000,1,9,N","075000,1,N,1","+0181,1","+0057,1","10150,1",,,,"2,1,06,1","1,1,06,1",,"07,99,1,01,1,01,1,01750,1,07,1,02,1",,,"99999,9,09902,1","7,1,006,1,+999,9",,"03,1","SYN078AAXX  01121 01442 11789 73403 10181 20057 39902 40150 57006 6//// 70321 81172;",
"01442099999","2010-09-01T15:00:00","4","58.6666666","7.8","211.0","BYGLANDSFJORD, NO","FM-12","99999","V020","170,1,N,0050,1","03000,1,9,N","075000,1,N,1","+0190,1","+0075,1","10141,1",,,,"1,1,03,1","1,1,03,1",,"07,99,1,04,1,02,1,01250,1,03,1,02,1",,,"99999,9,09895,1","7,1,008,1,+999,9",,"03,1","SYN072AAXX  01151 01442 41689 71705 10190 20075 39895 40141 57008 70311 84232;",
"01442099999","2010-09-01T18:00:00","4","58.6666666","7.8","211.0","BYGLANDSFJORD, NO","FM-12","99999","V020","120,1,N,0030,1","22000,1,9,N","075000,1,N,1","+0138,1","+0125,1","10158,1","12,0020,9,1",,,"8,1,06,1","1,1,06,1",,"03,99,1,01,1,03,1,00800,1,06,1,02,1",,"999,M,+0199,1","99999,9,09907,1","0,1,013,1,+999,9",,"25,1","SYN088AAXX  01181 01442 11589 31203 10138 20125 39907 40158 50013 60022 72581 81362 333 10199;",
"01442099999","2010-09-02T03:00:00","4","58.6666666","7.8","211.0","BYGLANDSFJORD, NO","FM-12","99999","V020","340,1,N,0010,1","22000,1,9,N","075000,1,N,1","+0109,1","+0093,1","10193,1",,,,"0,1,03,1","0,1,03,1",,"03,99,1,03,1,00,1,02250,1,03,1,00,1",,,"99999,9,09938,1","2,1,007,1,+999,9",,"02,1","SYN072AAXX  02031 01442 41889 33401 10109 20093 39938 40193 52007 70200 83030;",
"01442099999","2010-09-02T06:00:00","4","58.6666666","7.8","211.0","BYGLANDSFJORD, NO","FM-12","99999","V020","340,1,N,0030,1","22000,1,9,N","075000,1,N,1","+0101,1","+0063,1","10206,1","12,0000,2,1","24,0015,9,1",,"0,1,06,1","0,1,06,1","00,1,+99999,9,99,9","00,99,1,00,1,00,1,99999,9,00,1,00,1",,"999,N,+0098,1","99999,9,09951,1","3,1,012,1,+999,9",,"02,1","SYN088AAXX  02061 01442 11989 03403 10101 20063 39951 40206 53012 60002 70200 333 20098 70015;",
"01442099999","2010-09-02T09:00:00","4","58.6666666","7.8","211.0","BYGLANDSFJORD, NO","FM-12","99999","V020","350,1,N,0030,1","22000,1,9,N","075000,1,N,1","+0136,1","+0055,1","10212,1",,,,"0,1,03,1","0,1,03,1","00,1,+99999,9,99,9","00,99,1,00,1,00,1,99999,9,00,1,00,1",,,"99999,9,09960,1","1,1,009,1,+999,9",,"02,1","SYN066AAXX  02091 01442 41989 03503 10136 20055 39960 40212 51009 70200;",
"01442099999","2010-09-02T12:00:00","4","58.6666666","7.8","211.0","BYGLANDSFJORD, NO","FM-12","99999","V020","190,1,N,0030,1","03000,1,9,N","075000,1,N,1","+0162,1","+0026,1","10201,1",,,,"1,1,06,1","0,1,06,1",,"06,99,1,03,1,02,1,01750,1,03,1,01,1",,,"99999,9,09952,1","8,1,008,1,+999,9",,"03,1","SYN078AAXX  02121 01442 11789 61903 10162 20026 39952 40201 58008 6//// 70310 83231;",
"01442099999","2010-09-02T15:00:00","4","58.6666666","7.8","211.0","BYGLANDSFJORD, NO","FM-12","99999","V020","170,1,N,0050,1","22000,1,9,N","075000,1,N,1","+0175,1","+0064,1","10189,1",,,,"1,1,03,1","1,1,03,1",,"03,99,1,01,1,02,1,01250,1,03,1,00,1",,,"99999,9,09941,1","7,1,011,1,+999,9",,"01,1","SYN072AAXX  02151 01442 41689 31705 10175 20064 39941 40189 57011 70111 81230;",
"01442099999","2010-09-02T18:00:00","4","58.6666666","7.8","211.0","BYGLANDSFJORD, NO","FM-12","99999","V020","150,1,N,0050,1","03000,1,9,N","075000,1,N,1","+0132,1","+0091,1","10199,1","12,0000,9,1",,,"1,1,06,1","1,1,06,1",,"06,99,1,03,1,02,1,01250,1,03,1,00,1",,"999,M,+0183,1","99999,9,09947,1","2,1,006,1,+999,9",,"01,1","SYN088AAXX  02181 01442 11689 61505 10132 20091 39947 40199 52006 60002 70111 83230 333 10183;","Q01  00002PRCP12"
"01442099999","2010-09-03T03:00:00","4","58.6666666","7.8","211.0","BYGLANDSFJORD, NO","FM-12","99999","V020","350,1,N,0030,1","00210,1,9,N","075000,1,N,1","+0090,1","+0090,1","10200,1",,,,"1,1,03,1","0,1,03,1",,"07,99,1,07,1,06,1,00250,1,00,1,00,1",,,"99999,9,09943,1","8,1,003,1,+999,9",,"03,1","SYN072AAXX  03031 01442 41389 73503 10090 20090 39943 40200 58003 70310 87600;",
"01442099999","2010-09-03T06:00:00","4","58.6666666","7.8","211.0","BYGLANDSFJORD, NO","FM-12","99999","V020","340,1,N,0030,1","00420,1,9,N","075000,1,N,1","+0098,1","+0082,1","10193,1","12,0000,9,1","24,0000,9,1",,"1,1,06,1","0,1,06,1",,"08,99,1,08,1,06,1,00450,1,99,9,99,9",,"999,N,+0076,1","99999,9,09937,1","6,1,006,1,+999,9",,"02,1","SYN094AAXX  03061 01442 11489 83403 10098 20082 39937 40193 56006 60002 70210 886// 333 20076 70000;","Q01  00002PRCP24Q02  00002PRCP12"
"01442099999","2010-09-03T09:00:00","4","58.6666666","7.8","211.0","BYGLANDSFJORD, NO","FM-12","99999","V020","330,1,N,0030,1","00420,1,9,N","075000,1,N,1","+0106,1","+0084,1","10195,1",,,,"2,1,03,1","2,1,03,1",,"08,99,1,08,1,05,1,00450,1,99,9,99,9",,,"99999,9,09941,1","2,1,003,1,+999,9",,"03,1","SYN072AAXX  03091 01442 41489 83303 10106 20084 39941 40195 52003 70322 885//;",
"01442099999","2010-09-03T12:00:00","4","58.6666666","7.8","211.0","BYGLANDSFJORD, NO","FM-12","99999","V020","350,1,N,0030,1","00750,1,9,N","075000,1,N,1","+0135,1","+0088,1","10187,1",,,,"2,1,06,1","2,1,06,1",,"08,99,1,08,1,05,1,00800,1,99,9,99,9",,,"99999,9,09936,1","7,1,005,1,+999,9",,"02,1","SYN078AAXX  03121 01442 11589 83503 10135 20088 39936 40187 57005 6//// 70222 885//;",
"01442099999","2010-09-03T15:00:00","4","58.6666666","7.8","211.0","BYGLANDSFJORD, NO","FM-12","99999","V020","150,1,N,0070,1","00750,1,9,N","020000,1,N,1","+0143,1","+0080,1","10179,1",,,,"8,1,03,1","2,1,03,1",,"08,99,1,08,1,09,1,00800,1,99,9,99,9",,,"99999,9,09928,1","5,1,007,1,+999,9",,"80,1","SYN072AAXX  03151 01442 41570 81507 10143 20080 39928 40179 55007 78082 889//;",
"01442099999","2010-09-03T18:00:00","4","58.6666666","7.8","211.0","BYGLANDSFJORD, NO","FM-12","99999","V020","280,1,N,0030,1","00750,1,9,N","040000,1,N,1","+0103,1","+0079,1","10205,1","12,0061,9,1",,,"8,1,06,1","2,1,06,1",,"08,99,1,08,1,09,1,00800,1,99,9,99,9",,"999,M,+0170,1","99999,9,09950,1","3,1,021,1,+999,9",,"80,1","SYN088AAXX  03181 01442 11582 82803 10103 20079 39950 40205 53021 60062 78082 889// 333 10170;",
"01442099999","2010-09-04T03:00:00","4","58.6666666","7.8","211.0","BYGLANDSFJORD, NO","FM-12","99999","V020","330,1,N,0030,1","00420,1,9,N","075000,1,N,1","+0072,1","+0068,1","10237,1",,,,"1,1,03,1","1,1,03,1",,"07,99,1,07,1,06,1,00450,1,00,1,00,1",,,"99999,9,09978,1","2,1,009,1,+999,9",,"03,1","SYN072AAXX  04031 01442 41489 73303 10072 20068 39978 40237 52009 70311 87600;",
"01442099999","2010-09-04T06:00:00","4","58.6666666","7.8","211.0","BYGLANDSFJORD, NO","FM-12","99999","V020","340,1,N,0050,1","22000,1,9,N","075000,1,N,1","+0067,1","+0060,1","10251,1","12,0005,9,1","24,0061,9,1",,"1,1,06,1","1,1,06,1",,"02,99,1,02,1,06,1,00450,1,00,1,00,1",,"999,N,+0064,1","99999,9,09992,1","3,1,013,1,+999,9",,"01,1","SYN094AAXX  04061 01442 11489 23405 10067 20060 39992 40251 53013 69942 70111 82600 333 20064 70061;",
"01442099999","2010-09-04T09:00:00","4","58.6666666","7.8","211.0","BYGLANDSFJORD, NO","FM-12","99999","V020","340,1,N,0050,1","22000,1,9,N","075000,1,N,1","+0093,1","+0064,1","10255,1",,,,"0,1,03,1","0,1,03,1","00,1,+99999,9,99,9","00,99,1,00,1,00,1,99999,9,00,1,00,1",,,"99999,9,09997,1","2,1,006,1,+999,9",,"02,1","SYN066AAXX  04091 01442 41989 03405 10093 20064 39997 40255 52006 70200;",
"01442099999","2010-09-04T12:00:00","4","58.6666666","7.8","211.0","BYGLANDSFJORD, NO","FM-12","99999","V020","330,1,N,0030,1","22000,1,9,N","075000,1,N,1","+0157,1","+0041,1","10245,1",,,,"0,1,06,1","0,1,06,1",,"01,99,1,01,1,01,1,01750,1,00,1,01,1",,,"99999,9,09993,1","7,1,004,1,+999,9",,"03,1","SYN078AAXX  04121 01442 11789 13303 10157 20041 39993 40245 57004 6//// 70300 81101;",
"01442099999","2010-09-04T15:00:00","4","58.6666666","7.8","211.0","BYGLANDSFJORD, NO","FM-12","99999","V020","170,1,N,0030,1","22000,1,9,N","075000,1,N,1","+0172,1","+0028,1","10234,1",,,,"0,1,03,1","0,1,03,1",,"01,99,1,01,1,01,1,01750,1,00,1,01,1",,,"99999,9,09985,1","7,1,009,1,+999,9",,"01,1","SYN072AAXX  04151 01442 41789 11703 10172 20028 39985 40234 57009 70100 81101;",
"01442099999","2010-09-04T18:00:00","4","58.6666666","7.8","211.0","BYGLANDSFJORD, NO","FM-12","99999","V020","170,1,N,0050,1","22000,1,9,N","075000,1,N,1","+0137,1","+0070,1","10241,1","12,0000,9,1",,,"0,1,06,1","0,1,06,1","00,1,+99999,9,99,9","00,99,1,00,1,00,1,99999,9,00,1,00,1",,"999,M,+0175,1","99999,9,09987,1","3,1,003,1,+999,9",,"02,1","SYN082AAXX  04181 01442 11989 01705 10137 20070 39987 40241 53003 60002 70200 333 10175;","Q01  00002PRCP12"
"01442099999","2010-09-05T03:00:00","4","58.6666666","7.8","211.0","BYGLANDSFJORD, NO","FM-12","99999","V020","340,1,N,0030,1","22000,1,9,N","075000,1,N,1","+0074,1","+0074,1","10268,1",,,,"0,1,03,1","0,1,03,1","00,1,+99999,9,99,9","00,99,1,00,1,00,1,99999,9,00,1,00,1",,,"99999,9,10008,1","3,1,001,1,+999,9",,"02,1","SYN066AAXX  05031 01442 41989 03403 10074 20074 30008 40268 53001 70200;",
"01442099999","2010-09-05T06:00:00","4","58.6666666","7.8","211.0","BYGLANDSFJORD, NO","FM-12","99999","V020","340,1,N,0030,1","22000,1,9,N","075000,1,N,1","+0067,1","+0063,1","10278,1","12,0000,9,1","24,0000,9,1",,"0,1,06,1","0,1,06,1","00,1,+99999,9,99,9","00,99,1,00,1,00,1,99999,9,00,1,00,1",,"999,N,+0061,1","99999,9,10017,1","2,1,008,1,+999,9",,"02,1","SYN088AAXX  05061 01442 11989 03403 10067 20063 30017 40278 52008 60002 70200 333 20061 70000;","Q01  00002PRCP24Q02  00002PRCP12"
"01442099999","2010-09-05T09:00:00","4","58.6666666","7.8","211.0","BYGLANDSFJORD, NO","FM-12","99999","V020","340,1,N,0030,1","22000,1,9,N","075000,1,N,1","+0112,1","+0062,1","10278,1",,,,"0,1,03,1","0,1,03,1",,"01,99,1,00,1,00,1,99999,9,00,1,01,1",,,"99999,9,10022,1","2,1,005,1,+999,9",,"02,1","SYN072AAXX  05091 01442 41989 13403 10112 20062 30022 40278 52005 70200 80001;",
"01442099999","2010-09-05T12:00:00","4","58.6666666","7.8","211.0","BYGLANDSFJORD, NO","FM-12","99999","V020","150,1,N,0030,1","22000,1,9,N","075000,1,N,1","+0178,1","+0060,1","10263,1",,,,"0,1,06,1","0,1,06,1",,"01,99,1,01,1,01,1,01750,1,00,1,01,1",,,"99999,9,10012,1","7,1,009,1,+999,9",,"03,1","SYN078AAXX  05121 01442 11789 11503 10178 20060 30012 40263 57009 6//// 70300 81101;",
"01442099999","2010-09-05T15:00:00","4","58.6666666","7.8","211.0","BYGLANDSFJORD, NO","FM-12","99999","V020","230,1,N,0030,1","22000,1,9,N","075000,1,N,1","+0192,1","+0060,1","10256,1",,,,"0,1,03,1","0,1,03,1",,"01,99,1,00,1,00,1,99999,9,00,1,02,1",,,"99999,9,10007,1","6,1,005,1,+999,9",,"02,1","SYN072AAXX  05151 01442 41989 12303 10192 20060 30007 40256 56005 70200 80002;",
"01442099999","2010-09-05T18:00:00","4","58.6666666","7.8","211.0","BYGLANDSFJORD, NO","FM-12","99999","V020","130,1,N,0030,1","22000,1,9,N","075000,1,N,1","+0152,1","+0084,1","10260,1","12,0000,9,1",,,"0,1,06,1","0,1,06,1","00,1,+99999,9,99,9","00,99,1,00,1,00,1,99999,9,00,1,00,1",,"999,M,+0196,1","99999,9,10007,1","5,1,000,1,+999,9",,"02,1","SYN082AAXX  05181 01442 11989 01303 10152 20084 30007 40260 55000 60002 70200 333 10196;","Q01  00002PRCP12"
"01442099999","2010-09-06T03:00:00","4","58.6666666","7.8","211.0","BYGLANDSFJORD, NO","FM-12","99999","V020","999,9,C,0000,1","22000,1,9,N","075000,1,N,1","+0075,1","+0074,1","10277,1",,,,"0,1,03,1","0,1,03,1","00,1,+99999,9,99,9","00,99,1,00,1,00,1,99999,9,00,1,00,1",,,"99999,9,10017,1","8,1,004,1,+999,9",,"02,1","SYN066AAXX  06031 01442 41989 00000 10075 20074 30017 40277 58004 70200;",
"01442099999","2010-09-06T06:00:00","4","58.6666666","7.8","211.0","BYGLANDSFJORD, NO","FM-12","99999","V020","310,1,N,0030,1","01500,1,9,N","075000,1,N,1","+0088,1","+0084,1","10280,1","12,0000,9,1","24,0000,9,1",,"1,1,06,1","0,1,06,1",,"07,99,1,07,1,00,1,01750,1,05,1,00,1",,"999,N,+0075,1","99999,9,10022,1","2,1,003,1,+999,9",,"03,1","SYN094AAXX  06061 01442 11789 73103 10088 20084 30022 40280 52003 60002 70310 87050 333 20075 70000;","Q01  00002PRCP24Q02  00002PRCP12"
"01442099999","2010-09-06T09:00:00","4","58.6666666","7.8","211.0","BYGLANDSFJORD, NO","FM-12","99999","V020","340,1,N,0050,1","22000,1,9,N","075000,1,N,1","+0122,1","+0085,1","10272,1",,,,"1,1,03,1","1,1,03,1",,"03,99,1,03,1,00,1,02250,1,03,1,01,1",,,"99999,9,10017,1","7,1,004,1,+999,9",,"01,1","SYN072AAXX  06091 01442 41889 33405 10122 20085 30017 40272 57004 70111 83031;",
"01442099999","2010-09-06T12:00:00","4","58.6666666","7.8","211.0","BYGLANDSFJORD, NO","FM-12","99999","V020","150,1,N,0050,1","03000,1,9,N","075000,1,N,1","+0176,1","+0076,1","10256,1",,,,"1,1,06,1","1,1,06,1",,"07,99,1,01,1,01,1,01750,1,07,1,00,1",,,"99999,9,10006,1","7,1,011,1,+999,9",,"03,1","SYN078AAXX  06121 01442 11789 71505 10176 20076 30006 40256 57011 6//// 70311 81170;",
"01442099999","2010-09-06T15:00:00","4","58.6666666","7.8","211.0","BYGLANDSFJORD, NO","FM-12","99999","V020","010,1,N,0070,1","22000,1,9,N","075000,1,N,1","+0164,1","+0079,1","10242,1",,,,"1,1,03,1","1,1,03,1",,"03,99,1,03,1,02,1,01250,1,00,1,01,1",,,"99999,9,09992,1","7,1,014,1,+999,9",,"01,1","SYN072AAXX  06151 01442 41689 30107 10164 20079 39992 40242 57014 70111 83201;",
"01442099999","2010-09-06T18:00:00","4","58.6666666","7.8","211.0","BYGLANDSFJORD, NO","FM-12","99999","V020","170,1,N,0030,1","01500,1,9,N","075000,1,N,1","+0149,1","+0084,1","10250,1","12,0000,9,1",,,"1,1,06,1","1,1,06,1",,"07,99,1,07,1,08,1,01250,1,00,1,00,1",,"999,M,+0180,1","99999,9,09997,1","5,1,004,1,+999,9",,"03,1","SYN088AAXX  06181 01442 11689 71703 10149 20084 39997 40250 55004 60002 70311 87800 333 10180;","Q01  00002PRCP12"
"01442099999","2010-09-07T03:00:00","4","58.6666666","7.8","211.0","BYGLANDSFJORD, NO","FM-12","99999","V020","280,1,N,0030,1","00750,1,9,N","075000,1,N,1","+0132,1","+0098,1","10221,1",,,,"2,1,03,1","2,1,03,1",,"08,99,1,08,1,05,1,00800,1,99,9,99,9",,,"99999,9,09968,1","7,1,014,1,+999,9",,"02,1","SYN072AAXX  07031 01442 41589 82803 10132 20098 39968 40221 57014 70222 885//;",
"01442099999","2010-09-07T06:00:00","4","58.6666666","7.8","211.0","BYGLANDSFJORD, NO","FM-12","99999","V020","150,1,N,0050,1","00750,1,9,N","075000,1,N,1","+0123,1","+0102,1","10215,1","12,0020,9,1","24,0020,9,1",,"8,1,06,1","2,1,06,1",,"08,99,1,08,1,09,1,00800,1,99,9,99,9",,"999,N,+0119,1","99999,9,09962,1","7,1,007,1,+999,9",,"25,1","SYN094AAXX  07061 01442 11589 81505 10123 20102 39962 40215 57007 60022 72582 889// 333 20119 70020;",
"01442099999","2010-09-07T09:00:00","4","58.6666666","7.8","211.0","BYGLANDSFJORD, NO","FM-12","99999","V020","150,1,N,0070,1","00750,1,9,N","075000,1,N,1","+0134,1","+0085,1","10214,1",,,,"8,1,03,1","2,1,03,1",,"07,99,1,06,1,02,1,00800,1,06,1,00,1",,,"99999,9,09962,1","4,1,000,1,+999,9",,"03,1","SYN072AAXX  07091 01442 41589 71507 10134 20085 39962 40214 54000 70382 86260;",
"01442099999","2010-09-07T12:00:00","4","58.6666666","7.8","211.0","BYGLANDSFJORD, NO","FM-12","99999","V020","140,1,N,0100,1","22000,1,9,N","075000,1,N,1","+0154,1","+0064,1","10205,1",,,,"8,1,06,1","1,1,06,1",,"01,99,1,01,1,02,1,01250,1,06,1,00,1",,,"99999,9,09955,1","8,1,007,1,+999,9",,"01,1","SYN078AAXX  07121 01442 11689 11410 10154 20064 39955 40205 58007 6//// 70181 81260;",
"01442099999","2010-09-07T15:00:00","4","58.6666666","7.8","211.0","BYGLANDSFJORD, NO","FM-12","99999","V020","060,1,N,0070,1","22000,1,9,N","075000,1,N,1","+0153,1","+0058,1","10198,1",,,,"0,1,03,1","0,1,03,1",,"01,99,1,01,1,01,1,01750,1,00,1,02,1",,,"99999,9,09947,1","8,1,007,1,+999,9",,"01,1","SYN072AAXX  07151 01442 41789 10607 10153 20058 39947 40198 58007 70100 81102;",
"01442099999","2010-09-07T18:00:00","4","58.6666666","7.8","211.0","BYGLANDSFJORD, NO","FM-12","99999","V020","340,1,N,0100,1","01200,1,9,N","075000,1,N,1","+0141,1","+0072,1","10195,1","12,0000,2,1",,,"1,1,06,1","0,1,06,1",,"08,99,1,08,1,09,1,01250,1,99,9,99,9",,"999,M,+0162,1","99999,9,09943,1","8,1,004,1,+999,9",,"03,1","SYN088AAXX  07181 01442 11689 83410 10141 20072 39943 40195 58004 69912 70310 889// 333 10162;",
"01442099999","2010-09-08T03:00:00","4","58.6666666","7.8","211.0","BYGLANDSFJORD, NO","FM-12","99999","V020","330,1,N,0050,1","01200,1,9,N","075000,1,N,1","+0136,1","+0100,1","10192,1",,,,"2,1,03,1","2,1,03,1",,"07,99,1,07,1,05,1,01250,1,00,1,00,1",,,"99999,9,09941,1","7,1,005,1,+999,9",,"02,1","SYN072AAXX  08031 01442 41689 73305 10136 20100 39941 40192 57005 70222 87500;",
"01442099999","2010-09-08T06:00:00","4","58.6666666","7.8","211.0","BYGLANDSFJORD, NO","FM-12","99999","V020","050,1,N,0070,1","03000,1,9,N","075000,1,N,1","+0128,1","+0083,1","10197,1","12,0000,9,1","24,0000,2,1",,"2,1,06,1","2,1,06,1",,"07,99,1,04,1,02,1,01250,1,06,1,08,1",,"999,N,+0128,1","99999,9,09945,1","3,1,004,1,+999,9",,"03,1","SYN094AAXX  08061 01442 11689 70507 10128 20083 39945 40197 53004 60002 70322 84268 333 20128 70001;","Q01  00002PRCP12"
"01442099999","2010-09-08T09:00:00","4","58.6666666","7.8","211.0","BYGLANDSFJORD, NO","FM-12","99999","V020","080,1,N,0070,1","01200,1,9,N","075000,1,N,1","+0131,1","+0088,1","10203,1",,,,"2,1,03,1","2,1,03,1",,"08,99,1,08,1,09,1,01250,1,99,9,99,9",,,"99999,9,09951,1","1,1,006,1,+999,9",,"03,1","SYN072AAXX  08091 01442 41689 80807 10131 20088 39951 40203 51006 70322 889//;",
"01442099999","2010-09-08T12:00:00","4","58.6666666","7.8","211.0","BYGLANDSFJORD, NO","FM-12","99999","V020","020,1,N,0070,1","01200,1,9,N","075000,1,N,1","+0133,1","+0099,1","10198,1",,,,"6,1,06,1","2,1,06,1",,"08,99,1,08,1,05,1,01250,1,99,9,99,9",,,"99999,9,09946,1","7,1,005,1,+999,9",,"21,1","SYN078AAXX  08121 01442 11689 80207 10133 20099 39946 40198 57005 6//// 72162 885//;",
"01442099999","2010-09-08T15:00:00","4","58.6666666","7.8","211.0","BYGLANDSFJORD, NO","FM-12","99999","V020","350,1,N,0050,1","01200,1,9,N","075000,1,N,1","+0149,1","+0101,1","10185,1",,,,"2,1,03,1","2,1,03,1",,"08,99,1,08,1,05,1,01250,1,99,9,99,9",,,"99999,9,09935,1","7,1,011,1,+999,9",,"02,1","SYN072AAXX  08151 01442 41689 83505 10149 20101 39935 40185 57011 70222 885//;",
"01442099999","2010-09-08T18:00:00","4","58.6666666","7.8","211.0","BYGLANDSFJORD, NO","FM-12","99999","V020","010,1,N,0050,1","01500,1,9,N","075000,1,N,1","+0144,1","+0098,1","10186,1","12,0000,2,1",,,"2,1,06,1","2,1,06,1",,"08,99,1,08,1,08,1,01250,1,99,9,99,9",,"999,M,+0149,1","99999,9,09935,1","5,1,000,1,+999,9",,"02,1","SYN088AAXX  08181 01442 11689 80105 10144 20098 39935 40186 55000 69902 70222 888// 333 10149;",
"01442099999","2010-09-09T03:00:00","4","58.6666666","7.8","211.0","BYGLANDSFJORD, NO","FM-12","99999","V020","060,1,N,0070,1","01200,1,9,N","075000,1,N,1","+0126,1","+0083,1","10193,1",,,,"2,1,03,1","2,1,03,1",,"08,99,1,08,1,05,1,01250,1,99,9,99,9",,,"99999,9,09941,1","7,1,003,1,+999,9",,"02,1","SYN072AAXX  09031 01442 41689 80607 10126 20083 39941 40193 57003 70222 885//;",
"01442099999","2010-09-09T06:00:00","4","58.6666666","7.8","211.0","BYGLANDSFJORD, NO","FM-12","99999","V020","120,1,N,0100,1","00750,1,9,N","075000,1,N,1","+0123,1","+0095,1","99999,9","12,0000,9,1","24,0000,2,1",,"2,1,06,1","2,1,06,1",,"08,99,1,08,1,05,1,00800,1,99,9,99,9",,"999,N,+0123,1",,"5,1,001,1,+999,9",,"02,1","SYN094AAXX  09061 01442 11589 81210 10123 20095 39842 40092 55001 60002 70222 885// 333 20123 79999;","Q01+098423APOSP Q02  00002PRCP12"
"01442099999","2010-09-09T09:00:00","4","58.6666666","7.8","211.0","BYGLANDSFJORD, NO","FM-12","99999","V020","120,1,N,0070,1","00750,1,9,N","075000,1,N,1","+0132,1","+0098,1","10098,1",,,,"2,1,03,1","2,1,03,1",,"08,99,1,08,1,05,1,00800,1,99,9,99,9",,,"99999,9,09848,1","2,1,007,1,+999,9",,"02,1","SYN072AAXX  09091 01442 41589 81207 10132 20098 39848 40098 52007 70222 885//;",
"01442099999","2010-09-09T12:00:00","4","58.6666666","7.8","211.0","BYGLANDSFJORD, NO","FM-12","99999","V020","150,1,N,0070,1","00750,1,9,N","075000,1,N,1","+0158,1","+0099,1","99999,9",,,,"2,1,06,1","2,1,06,1",,"07,99,1,05,1,02,1,00800,1,03,1,01,1",,,,"7,1,002,1,+999,9",,"03,1","SYN078AAXX  09121 01442 11589 71507 10158 20099 39947 40197 57002 6//// 70322 85231;","Q01+099473APOSP "
"01442099999","2010-09-09T15:00:00","4","58.6666666","7.8","211.0","BYGLANDSFJORD, NO","FM-12","99999","V020","160,1,N,0050,1","00750,1,9,N","075000,1,N,1","+0150,1","+0087,1","10194,1",,,,"2,1,03,1","2,1,03,1",,"07,99,1,07,1,02,1,00800,1,00,1,01,1",,,"99999,9,09943,1","7,1,003,1,+999,9",,"03,1","SYN072AAXX  09151 01442 41589 71605 10150 20087 39943 40194 57003 70322 87201;",
"01442099999","2010-09-09T18:00:00","4","58.6666666","7.8","211.0","BYGLANDSFJORD, NO","FM-12","99999","V020","150,1,N,0050,1","01200,1,9,N","075000,1,N,1","+0142,1","+0090,1","10197,1","12,0000,9,1",,,"2,1,06,1","2,1,06,1",,"07,99,1,07,1,08,1,00800,1,00,1,00,1",,"999,M,+0160,1","99999,9,09946,1","3,1,002,1,+999,9",,"01,1","SYN088AAXX  09181 01442 11589 71505 10142 20090 39946 40197 53002 60002 70122 87800 333 10160;","Q01  00002PRCP12"
"01442099999","2010-09-10T03:00:00","4","58.6666666","7.8","211.0","BYGLANDSFJORD, NO","FM-12","99999","V020","010,1,N,0030,1","00750,1,9,N","075000,1,N,1","+0129,1","+0092,1","10182,1",,,,"2,1,03,1","2,1,03,1",,"08,99,1,08,1,05,1,00800,1,99,9,99,9",,,"99999,9,09930,1","8,1,006,1,+999,9",,"02,1","SYN072AAXX  10031 01442 41589 80103 10129 20092 39930 40182 58006 70222 885//;",
"01442099999","2010-09-10T06:00:00","4","58.6666666","7.8","211.0","BYGLANDSFJORD, NO","FM-12","99999","V020","030,1,N,0030,1","00750,1,9,N","075000,1,N,1","+0126,1","+0081,1","10184,1","12,0000,9,1","24,0000,9,1",,"2,1,06,1","2,1,06,1",,"08,99,1,08,1,05,1,00800,1,99,9,99,9",,"999,N,+0126,1","99999,9,09932,1","2,1,002,1,+999,9",,"02,1","SYN094AAXX  10061 01442 11589 80303 10126 20081 39932 40184 52002 60002 70222 885// 333 20126 70000;","Q01  00002PRCP24Q02  00002PRCP12"
"01442099999","2010-09-10T09:00:00","4","58.6666666","7.8","211.0","BYGLANDSFJORD, NO","FM-12","99999","V020","140,1,N,0050,1","00750,1,9,N","075000,1,N,1","+0130,1","+0091,1","10182,1",,,,"2,1,03,1","2,1,03,1",,"08,99,1,08,1,05,1,00800,1,99,9,99,9",,,"99999,9,09930,1","7,1,002,1,+999,9",,"02,1","SYN072AAXX  10091 01442 41589 81405 10130 20091 39930 40182 57002 70222 885//;",
"01442099999","2010-09-10T12:00:00","4","58.6666666","7.8","211.0","BYGLANDSFJORD, NO","FM-12","99999","V020","350,1,N,0030,1","00750,1,9,N","070000,1,N,1","+0124,1","+0092,1","10178,1",,,,"6,1,06,1","2,1,06,1",,"08,99,1,08,1,05,1,00800,1,99,9,99,9",,,"99999,9,09926,1","5,1,004,1,+999,9",,"21,1","SYN078AAXX  10121 01442 11588 83503 10124 20092 39926 40178 55004 6//// 72162 885//;",
"01442099999","2010-09-10T15:00:00","4","58.6666666","7.8","211.0","BYGLANDSFJORD, NO","FM-12","99999","V020","330,1,N,0030,1","00750,1,9,N","075000,1,N,1","+0126,1","+0098,1","10174,1",,,,"2,1,03,1","2,1,03,1",,"08,99,1,08,1,05,1,00800,1,99,9,99,9",,,"99999,9,09922,1","7,1,004,1,+999,9",,"02,1","SYN072AAXX  10151 01442 41589 83303 10126 20098 39922 40174 57004 70222 885//;",
"01442099999","2010-09-10T18:00:00","4","58.6666666","7.8","211.0","BYGLANDSFJORD, NO","FM-12","99999","V020","330,1,N,0030,1","01200,1,9,N","075000,1,N,1","+0124,1","+0098,1","10167,1","12,0000,2,1",,,"2,1,06,1","2,1,06,1",,"08,99,1,08,1,05,1,01250,1,99,9,99,9",,"999,M,+0130,1","99999,9,09915,1","7,1,007,1,+999,9",,"01,1","SYN088AAXX  10181 01442 11689 83303 10124 20098 39915 40167 57007 69912 70122 885// 333 10130;",
"01442099999","2010-09-11T03:00:00","4","58.6666666","7.8","211.0","BYGLANDSFJORD, NO","FM-12","99999","V020","190,1,N,0030,1","00750,1,9,N","075000,1,N,1","+0118,1","+0102,1","10144,1",,,,"2,1,03,1","2,1,03,1",,"08,99,1,08,1,05,1,00800,1,99,9,99,9",,,"99999,9,09892,1","7,1,011,1,+999,9",,"02,1","SYN072AAXX  11031 01442 41589 81903 10118 20102 39892 40144 57011 70222 885//;",
"01442099999","2010-09-11T06:00:00","4","58.6666666","7.8","211.0","BYGLANDSFJORD, NO","FM-12","99999","V020","140,1,N,0030,1","00420,1,9,N","015000,1,N,1","+0116,1","+0113,1","10137,1","12,0008,9,1","24,0010,9,1",,"6,1,06,1","2,1,06,1",,"08,99,1,08,1,05,1,00450,1,99,9,99,9",,"999,N,+0116,1","99999,9,09885,1","7,1,007,1,+999,9",,"60,1","SYN094AAXX  11061 01442 11465 81403 10116 20113 39885 40137 57007 69982 76062 885// 333 20116 70009;",
"01442099999","2010-09-11T09:00:00","4","58.6666666","7.8","211.0","BYGLANDSFJORD, NO","FM-12","99999","V020","140,1,N,0030,1","00060,1,9,N","015000,1,N,1","+0121,1","+0121,1","10127,1",,,,"6,1,03,1","6,1,03,1",,"08,99,1,08,1,06,1,00075,1,99,9,99,9",,,"99999,9,09876,1","7,1,009,1,+999,9",,"61,1","SYN072AAXX  11091 01442 41165 81403 10121 20121 39876 40127 57009 76166 886//;",
"01442099999","2010-09-11T12:00:00","4","58.6666666","7.8","211.0","BYGLANDSFJORD, NO","FM-12","99999","V020","170,1,N,0030,1","00420,1,9,N","020000,1,N,1","+0131,1","+0126,1","10112,1",,,,"6,1,06,1","6,1,06,1",,"08,99,1,08,1,07,1,00450,1,99,9,99,9",,,"99999,9,09862,1","7,1,014,1,+999,9",,"61,1","SYN078AAXX  11121 01442 11470 81703 10131 20126 39862 40112 57014 6//// 76166 887//;",
"01442099999","2010-09-11T15:00:00","4","58.6666666","7.8","211.0","BYGLANDSFJORD, NO","FM-12","99999","V020","040,1,N,0030,1","00120,1,9,N","005000,1,N,1","+0132,1","+0132,1","10096,1",,,,"6,1,03,1","6,1,03,1",,"08,99,1,08,1,07,1,00150,1,99,9,99,9",,,"99999,9,09847,1","6,1,015,1,+999,9",,"63,1","SYN072AAXX  11151 01442 41250 80403 10132 20132 39847 40096 56015 76366 887//;",
"01442099999","2010-09-11T18:00:00","4","58.6666666","7.8","211.0","BYGLANDSFJORD, NO","FM-12","99999","V020","170,1,N,0050,1","00060,1,9,N","005000,1,N,1","+0146,1","+0146,1","10084,1","12,0170,9,1",,,"6,1,06,1","5,1,06,1",,"08,99,1,08,1,06,1,00075,1,99,9,99,9",,"999,M,+0146,1","99999,9,09836,1","6,1,011,1,+999,9",,"51,1","SYN088AAXX  11181 01442 11150 81705 10146 20146 39836 40084 56011 60172 75165 886// 333 10146;",
"01442099999","2010-09-12T03:00:00","4","58.6666666","7.8","211.0","BYGLANDSFJORD, NO","FM-12","99999","V020","160,1,N,0030,1","00420,1,9,N","075000,1,N,1","+0133,1","+0131,1","10108,1",,,,"2,1,03,1","2,1,03,1",,"08,99,1,08,1,05,1,00450,1,99,9,99,9",,,"99999,9,09857,1","2,1,007,1,+999,9",,"02,1","SYN072AAXX  12031 01442 41489 81603 10133 20131 39857 40108 52007 70222 885//;",
"01442099999","2010-09-12T06:00:00","4","58.6666666","7.8","211.0","BYGLANDSFJORD, NO","FM-12","99999","V020","170,1,N,0030,1","00420,1,9,N","075000,1,N,1","+0125,1","+0125,1","10115,1","12,0020,9,1","24,0183,9,1",,"6,1,06,1","2,1,06,1",,"08,99,1,08,1,05,1,00450,1,99,9,99,9",,"999,N,+0125,1","99999,9,09865,1","2,1,007,1,+999,9",,"02,1","SYN094AAXX  12061 01442 11489 81703 10125 20125 39865 40115 52007 60022 70262 885// 333 20125 70184;",
"01442099999","2010-09-12T09:00:00","4","58.6666666","7.8","211.0","BYGLANDSFJORD, NO","FM-12","99999","V020","150,1,N,0030,1","00750,1,9,N","075000,1,N,1","+0141,1","+0123,1","10124,1",,,,"8,1,03,1","2,1,03,1",,"07,99,1,07,1,09,1,00800,1,00,1,01,1",,,"99999,9,09875,1","2,1,010,1,+999,9",,"03,1","SYN072AAXX  12091 01442 41589 71503 10141 20123 39875 40124 52010 70382 87901;",
"01442099999","2010-09-12T12:00:00","4","58.6666666","7.8","211.0","BYGLANDSFJORD, NO","FM-12","99999","V020","170,1,N,0050,1","01200,1,9,N","075000,1,N,1","+0157,1","+0107,1","10131,1",,,,"8,1,06,1","2,1,06,1",,"07,99,1,05,1,02,1,01250,1,06,1,01,1",,,"99999,9,09882,1","2,1,008,1,+999,9",,"03,1","SYN078AAXX  12121 01442 11689 71705 10157 20107 39882 40131 52008 6//// 70382 85261;",
"01442099999","2010-09-12T15:00:00","4","58.6666666","7.8","211.0","BYGLANDSFJORD, NO","FM-12","99999","V020","170,1,N,0050,1","22000,1,9,N","075000,1,N,1","+0170,1","+0097,1","10132,1",,,,"1,1,03,1","1,1,03,1",,"02,99,1,01,1,01,1,01250,1,06,1,01,1",,,"99999,9,09885,1","2,1,002,1,+999,9",,"01,1","SYN072AAXX  12151 01442 41689 21705 10170 20097 39885 40132 52002 70111 81161;",
"01442099999","2010-09-12T18:00:00","4","58.6666666","7.8","211.0","BYGLANDSFJORD, NO","FM-12","99999","V020","280,1,N,0030,1","01500,1,9,N","075000,1,N,1","+0142,1","+0100,1","10148,1","12,0000,9,1",,,"1,1,06,1","1,1,06,1",,"07,99,1,07,1,08,1,01250,1,00,1,00,1",,"999,M,+0176,1","99999,9,09897,1","2,1,013,1,+999,9",,"01,1","SYN088AAXX  12181 01442 11689 72803 10142 20100 39897 40148 52013 69912 70111 87800 333 10176;","Q01  00002PRCP12"
"01442099999","2010-09-13T03:00:00","4","58.6666666","7.8","211.0","BYGLANDSFJORD, NO","FM-12","99999","V020","150,1,N,0030,1","22000,1,9,N","075000,1,N,1","+0065,1","+0065,1","10175,1",,,,"0,1,03,1","0,1,03,1","00,1,+99999,9,99,9","00,99,1,00,1,00,1,99999,9,00,1,00,1",,,"99999,9,09917,1","2,1,004,1,+999,9",,"02,1","SYN066AAXX  13031 01442 41989 01503 10065 20065 39917 40175 52004 70200;",
"01442099999","2010-09-13T06:00:00","4","58.6666666","7.8","211.0","BYGLANDSFJORD, NO","FM-12","99999","V020","150,1,N,0030,1","22000,1,9,N","075000,1,N,1","+0057,1","+0057,1","10175,1","12,0000,9,1","24,0000,9,1",,"4,1,06,1","0,1,06,1",,"01,99,1,00,1,00,1,99999,9,00,1,01,1",,"999,N,+0055,1","99999,9,09917,1","5,1,001,1,+999,9",,"28,1","SYN094AAXX  13061 01442 11989 11503 10057 20057 39917 40175 55001 60002 72840 80001 333 20055 70001;","Q01  00002PRCP24Q02  00002PRCP12"
"01442099999","2010-09-13T12:00:00","4","58.6666666","7.8","211.0","BYGLANDSFJORD, NO","FM-12","99999","V020","170,1,N,0030,1","03000,1,9,N","075000,1,N,1","+0147,1","+0063,1","10160,1",,,,"1,1,06,1","1,1,06,1",,"07,99,1,02,1,02,1,01250,1,03,1,06,1",,,"99999,9,09910,1","7,1,006,1,+999,9",,"03,1","SYN078AAXX  13121 01442 11689 71703 10147 20063 39910 40160 57006 6//// 70311 82236;",
"01442099999","2010-09-13T15:00:00","4","58.6666666","7.8","211.0","BYGLANDSFJORD, NO","FM-12","99999","V020","150,1,N,0050,1","01200,1,9,N","075000,1,N,1","+0134,1","+0083,1","10150,1",,,,"2,1,03,1","2,1,03,1",,"08,99,1,08,1,05,1,01250,1,99,9,99,9",,,"99999,9,09898,1","7,1,011,1,+999,9",,"03,1","SYN072AAXX  13151 01442 41689 81505 10134 20083 39898 40150 57011 70322 885//;",
"01442099999","2010-09-13T18:00:00","4","58.6666666","7.8","211.0","BYGLANDSFJORD, NO","FM-12","99999","V020","150,1,N,0050,1","00750,1,9,N","070000,1,N,1","+0121,1","+0100,1","10125,1","12,9999,9,9",,,"6,1,06,1","2,1,06,1",,"08,99,1,08,1,05,1,00800,1,99,9,99,9",,"999,M,+0156,1","99999,9,09873,1","8,1,025,1,+999,9",,"21,1","SYN088AAXX  13181 01442 11588 81505 10121 20100 39873 40125 58025 69922 72162 885// 333 10156;","Q01  00002PRCP12Q02  00002PRCP12"
"01442099999","2010-09-14T03:00:00","4","58.6666666","7.8","211.0","BYGLANDSFJORD, NO","FM-12","99999","V020","120,1,N,0030,1","00420,1,9,N","010000,1,N,1","+0117,1","+0117,1","09999,1",,,,"6,1,03,1","6,1,03,1",,"08,99,1,08,1,07,1,00450,1,99,9,99,9",,,"99999,9,09751,1","7,1,046,1,+999,9",,"63,1","SYN072AAXX  14031 01442 41460 81203 10117 20117 39751 49999 57046 76366 887//;",
"01442099999","2010-09-14T06:00:00","4","58.6666666","7.8","211.0","BYGLANDSFJORD, NO","FM-12","99999","V020","110,1,N,0030,1","00900,1,9,N","070000,1,N,1","+0125,1","+0125,1","09987,1","12,0130,9,1","24,0132,9,1",,"6,1,06,1","2,1,06,1",,"07,99,1,07,1,08,1,00450,1,00,1,02,1",,"999,N,+0113,1","99999,9,09740,1","6,1,011,1,+999,9",,"01,1","SYN094AAXX  14061 01442 11488 71103 10125 20125 39740 49987 56011 60132 70162 87802 333 20113 70133;",
"01442099999","2010-09-14T09:00:00","4","58.6666666","7.8","211.0","BYGLANDSFJORD, NO","FM-12","99999","V020","320,1,N,0050,1","22000,1,9,N","075000,1,N,1","+0148,1","+0106,1","09995,1",,,,"1,1,03,1","1,1,03,1",,"01,99,1,01,1,02,1,01250,1,06,1,00,1",,,"99999,9,09748,1","2,1,009,1,+999,9",,"01,1","SYN072AAXX  14091 01442 41689 13205 10148 20106 39748 49995 52009 70111 81260;",
"01442099999","2010-09-14T15:00:00","4","58.6666666","7.8","211.0","BYGLANDSFJORD, NO","FM-12","99999","V020","150,1,N,0050,1","00750,1,9,N","050000,1,N,1","+0130,1","+0109,1","09945,1",,,,"8,1,03,1","1,1,03,1",,"08,99,1,08,1,09,1,00800,1,99,9,99,9",,,"99999,9,09698,1","8,1,037,1,+999,9",,"80,1","SYN072AAXX  14151 01442 41584 81505 10130 20109 39698 49945 58037 78081 889//;",
"01442099999","2010-09-14T18:00:00","4","58.6666666","7.8","211.0","BYGLANDSFJORD, NO","FM-12","99999","V020","140,1,N,0050,1","22000,1,9,N","075000,1,N,1","+0107,1","+0079,1","09940,1","12,0030,9,1",,,"8,1,06,1","1,1,06,1",,"03,99,1,02,1,02,1,00800,1,06,1,01,1",,"999,M,+0158,1","99999,9,09692,1","6,1,007,1,+999,9",,"25,1","SYN088AAXX  14181 01442 11589 31405 10107 20079 39692 49940 56007 60032 72581 82261 333 10158;",
"01442099999","2010-09-15T03:00:00","4","58.6666666","7.8","211.0","BYGLANDSFJORD, NO","FM-12","99999","V020","150,1,N,0010,1","22000,1,9,N","075000,1,N,1","+0051,1","+0047,1","09925,1",,,,"0,1,03,1","0,1,03,1","00,1,+99999,9,99,9","00,99,1,00,1,00,1,99999,9,00,1,00,1",,,"99999,9,09672,1","7,1,011,1,+999,9",,"02,1","SYN066AAXX  15031 01442 41989 01501 10051 20047 39672 49925 57011 70200;",
"01442099999","2010-09-15T06:00:00","4","58.6666666","7.8","211.0","BYGLANDSFJORD, NO","FM-12","99999","V020","150,1,N,0030,1","00420,1,9,N","075000,1,N,1","+0050,1","+0050,1","09921,1","12,0000,2,1","24,0025,9,1",,"1,1,06,1","0,1,06,1",,"07,99,1,05,1,06,1,00450,1,03,1,02,1",,"999,N,+0045,1","99999,9,09668,1","6,1,004,1,+999,9",,"03,1","SYN094AAXX  15061 01442 11489 71503 10050 20050 39668 49921 56004 60002 70310 85632 333 20045 70025;",
"01442099999","2010-09-15T09:00:00","4","58.6666666","7.8","211.0","BYGLANDSFJORD, NO","FM-12","99999","V020","160,1,N,0050,1","00750,1,9,N","075000,1,N,1","+0097,1","+0059,1","09912,1",,,,"8,1,03,1","2,1,03,1",,"07,99,1,05,1,02,1,00800,1,06,1,02,1",,,"99999,9,09663,1","8,1,005,1,+999,9",,"03,1","SYN072AAXX  15091 01442 41589 71605 10097 20059 39663 49912 58005 70382 85262;",
"01442099999","2010-09-15T12:00:00","4","58.6666666","7.8","211.0","BYGLANDSFJORD, NO","FM-12","99999","V020","150,1,N,0030,1","03000,1,9,N","040000,1,N,1","+0102,1","+0067,1","09902,1",,,,"8,1,06,1","2,1,06,1",,"08,99,1,01,1,07,1,00800,1,02,1,99,9",,,"99999,9,09655,1","8,1,009,1,+999,9",,"61,1","SYN078AAXX  15121 01442 11582 81503 10102 20067 39655 49902 58009 6//// 76182 8172/;",
"01442099999","2010-09-15T15:00:00","4","58.6666666","7.8","211.0","BYGLANDSFJORD, NO","FM-12","99999","V020","350,1,N,0050,1","00750,1,9,N","075000,1,N,1","+0086,1","+0066,1","09879,1",,,,"6,1,03,1","2,1,03,1",,"08,99,1,08,1,05,1,00800,1,99,9,99,9",,,"99999,9,09631,1","8,1,024,1,+999,9",,"21,1","SYN072AAXX  15151 01442 41589 83505 10086 20066 39631 49879 58024 72162 885//;",
"01442099999","2010-09-15T18:00:00","4","58.6666666","7.8","211.0","BYGLANDSFJORD, NO","FM-12","99999","V020","340,1,N,0070,1","03000,1,9,N","050000,1,N,1","+0087,1","+0065,1","09865,1","12,0041,9,1",,,"6,1,06,1","2,1,06,1",,"08,99,1,02,1,07,1,00800,1,02,1,99,9",,"999,M,+0111,1","99999,9,09617,1","6,1,013,1,+999,9",,"60,1","SYN088AAXX  15181 01442 11584 83407 10087 20065 39617 49865 56013 60042 76062 8272/ 333 10111;",
"01442099999","2010-09-16T03:00:00","4","58.6666666","7.8","211.0","BYGLANDSFJORD, NO","FM-12","99999","V020","120,1,N,0030,1","22000,1,9,N","075000,1,N,1","+0038,1","+0038,1","09898,1",,,,"1,1,03,1","0,1,03,1","00,1,+99999,9,99,9","00,99,1,00,1,00,1,99999,9,00,1,00,1",,,"99999,9,09645,1","2,1,008,1,+999,9",,"01,1","SYN066AAXX  16031 01442 41989 01203 10038 20038 39645 49898 52008 70110;",
"01442099999","2010-09-16T06:00:00","4","58.6666666","7.8","211.0","BYGLANDSFJORD, NO","FM-12","99999","V020","120,1,N,0030,1","22000,1,9,N","075000,1,N,1","+0032,1","+0032,1","09898,1","12,0030,9,1","24,0061,9,1",,"1,1,06,1","0,1,06,1",,"01,99,1,01,1,01,1,00800,1,00,1,02,1",,"999,N,+0032,1","99999,9,09645,1","4,1,000,1,+999,9",,"03,1","SYN094AAXX  16061 01442 11589 11203 10032 20032 39645 49898 54000 60032 70310 81102 333 20032 70060;",
"01442099999","2010-09-16T09:00:00","4","58.6666666","7.8","211.0","BYGLANDSFJORD, NO","FM-12","99999","V020","170,1,N,0050,1","01200,1,9,N","075000,1,N,1","+0092,1","+0078,1","09887,1",,,,"1,1,03,1","1,1,03,1",,"07,99,1,07,1,08,1,00800,1,00,1,00,1",,,"99999,9,09638,1","7,1,006,1,+999,9",,"03,1","SYN072AAXX  16091 01442 41589 71705 10092 20078 39638 49887 57006 70311 87800;",
"01442099999","2010-09-16T12:00:00","4","58.6666666","7.8","211.0","BYGLANDSFJORD, NO","FM-12","99999","V020","190,1,N,0070,1","03000,1,9,N","075000,1,N,1","+0141,1","+0067,1","09880,1",,,,"2,1,06,1","1,1,06,1",,"07,99,1,02,1,02,1,01250,1,03,1,08,1",,,"99999,9,09637,1","7,1,002,1,+999,9",,"01,1","SYN078AAXX  16121 01442 11689 71907 10141 20067 39637 49880 57002 6//// 70121 82238;",
"01442099999","2010-09-16T15:00:00","4","58.6666666","7.8","211.0","BYGLANDSFJORD, NO","FM-12","99999","V020","340,1,N,0070,1","03000,1,9,N","075000,1,N,1","+0130,1","+0064,1","09886,1",,,,"2,1,03,1","2,1,03,1",,"06,99,1,03,1,02,1,01250,1,04,1,02,1",,,"99999,9,09642,1","1,1,005,1,+999,9",,"03,1","SYN072AAXX  16151 01442 41689 63407 10130 20064 39642 49886 51005 70322 83242;",
"01442099999","2010-09-16T18:00:00","4","58.6666666","7.8","211.0","BYGLANDSFJORD, NO","FM-12","99999","V020","020,1,N,0030,1","01500,1,9,N","075000,1,N,1","+0106,1","+0058,1","09893,1","12,0000,9,1",,,"2,1,06,1","2,1,06,1",,"07,99,1,07,1,08,1,01250,1,04,1,02,1",,"999,M,+0144,1","99999,9,09646,1","3,1,004,1,+999,9",,"03,1","SYN088AAXX  16181 01442 11689 70203 10106 20058 39646 49893 53004 60002 70322 87842 333 10144;","Q01  00002PRCP12"
"01442099999","2010-09-17T03:00:00","4","58.6666666","7.8","211.0","BYGLANDSFJORD, NO","FM-12","99999","V020","170,1,N,0030,1","01200,1,9,N","075000,1,N,1","+0070,1","+0058,1","09887,1",,,,"2,1,03,1","2,1,03,1",,"08,99,1,08,1,05,1,01250,1,99,9,99,9",,,"99999,9,09637,1","7,1,007,1,+999,9",,"02,1","SYN072AAXX  17031 01442 41689 81703 10070 20058 39637 49887 57007 70222 885//;",
"01442099999","2010-09-17T06:00:00","4","58.6666666","7.8","211.0","BYGLANDSFJORD, NO","FM-12","99999","V020","150,1,N,0030,1","03000,1,9,N","075000,1,N,1","+0076,1","+0065,1","09885,1","12,0000,9,1","24,0000,9,1",,"2,1,06,1","2,1,06,1",,"07,99,1,01,1,01,1,01250,1,07,1,00,1",,"999,N,+0069,1","99999,9,09636,1","5,1,001,1,+999,9",,"01,1","SYN094AAXX  17061 01442 11689 71503 10076 20065 39636 49885 55001 60002 70122 81170 333 20069 70000;","Q01  00002PRCP24Q02  00002PRCP12"
"01442099999","2010-09-17T09:00:00","4","58.6666666","7.8","211.0","BYGLANDSFJORD, NO","FM-12","99999","V020","340,1,N,0050,1","22000,1,9,N","075000,1,N,1","+0112,1","+0069,1","09894,1",,,,"1,1,03,1","1,1,03,1",,"01,99,1,01,1,01,1,01750,1,00,1,01,1",,,"99999,9,09647,1","3,1,012,1,+999,9",,"01,1","SYN072AAXX  17091 01442 41789 13405 10112 20069 39647 49894 53012 70111 81101;",
"01442099999","2010-09-17T12:00:00","4","58.6666666","7.8","211.0","BYGLANDSFJORD, NO","FM-12","99999","V020","340,1,N,0070,1","03000,1,9,N","075000,1,N,1","+0152,1","+0040,1","09906,1",,,,"1,1,06,1","1,1,06,1",,"05,99,1,04,1,02,1,01250,1,06,1,01,1",,,"99999,9,09662,1","3,1,015,1,+999,9",,"03,1","SYN078AAXX  17121 01442 11689 53407 10152 20040 39662 49906 53015 6//// 70311 84261;",
"01442099999","2010-09-17T15:00:00","4","58.6666666","7.8","211.0","BYGLANDSFJORD, NO","FM-12","99999","V020","340,1,N,0070,1","03000,1,9,N","075000,1,N,1","+0147,1","+0055,1","09929,1",,,,"1,1,03,1","1,1,03,1",,"06,99,1,03,1,02,1,01250,1,06,1,02,1",,,"99999,9,09685,1","2,1,022,1,+999,9",,"03,1","SYN072AAXX  17151 01442 41689 63407 10147 20055 39685 49929 52022 70311 83262;",
"01442099999","2010-09-17T18:00:00","4","58.6666666","7.8","211.0","BYGLANDSFJORD, NO","FM-12","99999","V020","330,1,N,0070,1","03000,1,9,N","075000,1,N,1","+0118,1","+0048,1","09945,1","12,0000,9,1",,,"2,1,06,1","1,1,06,1",,"07,99,1,01,1,01,1,01250,1,04,1,08,1",,"999,M,+0158,1","99999,9,09697,1","2,1,013,1,+999,9",,"01,1","SYN088AAXX  17181 01442 11689 73307 10118 20048 39697 49945 52013 60002 70121 81148 333 10158;","Q01  00002PRCP12"
"01442099999","2010-09-18T03:00:00","4","58.6666666","7.8","211.0","BYGLANDSFJORD, NO","FM-12","99999","V020","150,1,N,0030,1","01200,1,9,N","075000,1,N,1","+0066,1","+0027,1","09970,1",,,,"2,1,03,1","2,1,03,1",,"08,99,1,08,1,05,1,01250,1,99,9,99,9",,,"99999,9,09717,1","4,1,000,1,+999,9",,"02,1","SYN072AAXX  18031 01442 41689 81503 10066 20027 39717 49970 54000 70222 885//;",
"01442099999","2010-09-18T06:00:00","4","58.6666666","7.8","211.0","BYGLANDSFJORD, NO","FM-12","99999","V020","160,1,N,0030,1","01200,1,9,N","075000,1,N,1","+0087,1","+0041,1","09968,1","12,0000,9,1","24,0000,9,1",,"2,1,06,1","2,1,06,1",,"07,99,1,07,1,05,1,01250,1,00,1,00,1",,"999,N,+0067,1","99999,9,09717,1","5,1,000,1,+999,9",,"01,1","SYN094AAXX  18061 01442 11689 71603 10087 20041 39717 49968 55000 60002 70122 87500 333 20067 70000;","Q01  00002PRCP24Q02  00002PRCP12"
"01442099999","2010-09-18T09:00:00","4","58.6666666","7.8","211.0","BYGLANDSFJORD, NO","FM-12","99999","V020","350,1,N,0070,1","01500,1,9,N","075000,1,N,1","+0116,1","+0039,1","09981,1",,,,"2,1,03,1","2,1,03,1",,"07,99,1,07,1,08,1,01250,1,00,1,02,1",,,"99999,9,09732,1","3,1,015,1,+999,9",,"03,1","SYN072AAXX  18091 01442 41689 73507 10116 20039 39732 49981 53015 70322 87802;",
"01442099999","2010-09-18T12:00:00","4","58.6666666","7.8","211.0","BYGLANDSFJORD, NO","FM-12","99999","V020","340,1,N,0100,1","03000,1,9,N","075000,1,N,1","+0132,1","+0033,1","09994,1",,,,"2,1,06,1","2,1,06,1",,"06,99,1,04,1,02,1,01250,1,06,1,02,1",,,"99999,9,09747,1","3,1,014,1,+999,9",,"03,1","SYN078AAXX  18121 01442 11689 63410 10132 20033 39747 49994 53014 6//// 70322 84262;",
"01442099999","2010-09-18T15:00:00","4","58.6666666","7.8","211.0","BYGLANDSFJORD, NO","FM-12","99999","V020","340,1,N,0100,1","01200,1,9,N","075000,1,N,1","+0131,1","+0045,1","10002,1",,,,"2,1,03,1","2,1,03,1",,"07,99,1,05,1,02,1,01250,1,06,1,02,1",,,"99999,9,09755,1","2,1,008,1,+999,9",,"01,1","SYN072AAXX  18151 01442 41689 73410 10131 20045 39755 40002 52008 70122 85262;",
"01442099999","2010-09-18T18:00:00","4","58.6666666","7.8","211.0","BYGLANDSFJORD, NO","FM-12","99999","V020","330,1,N,0070,1","22000,1,9,N","075000,1,N,1","+0108,1","+0041,1","10015,1","12,0000,9,1",,,"2,1,06,1","1,1,06,1",,"03,99,1,01,1,01,1,01250,1,06,1,02,1",,"999,M,+0143,1","99999,9,09766,1","3,1,011,1,+999,9",,"01,1","SYN088AAXX  18181 01442 11689 33307 10108 20041 39766 40015 53011 60002 70121 81162 333 10143;","Q01  00002PRCP12"
"01442099999","2010-09-19T03:00:00","4","58.6666666","7.8","211.0","BYGLANDSFJORD, NO","FM-12","99999","V020","120,1,N,0030,1","22000,1,9,N","075000,1,N,1","+0052,1","+0046,1","10028,1",,,,"0,1,03,1","0,1,03,1","00,1,+99999,9,99,9","00,99,1,00,1,00,1,99999,9,00,1,00,1",,,"99999,9,09772,1","4,1,000,1,+999,9",,"02,1","SYN066AAXX  19031 01442 41989 01203 10052 20046 39772 40028 54000 70200;",
"01442099999","2010-09-19T06:00:00","4","58.6666666","7.8","211.0","BYGLANDSFJORD, NO","FM-12","99999","V020","110,1,N,0030,1","22000,1,9,N","075000,1,N,1","+0055,1","+0054,1","10034,1","12,0000,9,1","24,0000,9,1",,"0,1,06,1","0,1,06,1",,"01,99,1,01,1,01,1,00800,1,00,1,00,1",,"999,N,+0052,1","99999,9,09778,1","3,1,006,1,+999,9",,"03,1","SYN094AAXX  19061 01442 11589 11103 10055 20054 39778 40034 53006 60002 70300 81100 333 20052 70000;","Q01  00002PRCP24Q02  00002PRCP12"
"01442099999","2010-09-19T18:00:00","4","58.6666666","7.8","211.0","BYGLANDSFJORD, NO","FM-12","99999","V020","030,1,N,0030,1","22000,1,9,N","075000,1,N,1","+0105,1","+0046,1","10047,1","12,0000,9,1",,,"1,1,06,1","0,1,06,1","00,1,+99999,9,99,9","00,99,1,00,1,00,1,99999,9,00,1,00,1",,"999,M,+0152,1","99999,9,09797,1","3,1,005,1,+999,9",,"01,1","SYN082AAXX  19181 01442 11989 00303 10105 20046 39797 40047 53005 60002 70110 333 10152;","Q01  00002PRCP12"
"01442099999","2010-09-20T03:00:00","4","58.6666666","7.8","211.0","BYGLANDSFJORD, NO","FM-12","99999","V020","999,9,C,0000,1","22000,1,9,N","000100,1,N,1","+0027,1","+0027,1","10056,1",,,,"4,1,03,1","0,1,03,1","00,1,+99999,9,99,9","00,99,1,00,1,00,1,99999,9,00,1,00,1",,,"99999,9,09797,1","7,1,008,1,+999,9",,"46,1","SYN066AAXX  20031 01442 41901 00000 10027 20027 39797 40056 57008 74640;",
"01442099999","2010-09-20T06:00:00","4","58.6666666","7.8","211.0","BYGLANDSFJORD, NO","FM-12","99999","V020","999,9,C,0000,1","07500,1,9,N","070000,1,N,1","+0028,1","+0028,1","10052,1","12,0000,9,1","24,0000,9,1",,"4,1,06,1","1,1,06,1",,"07,99,1,01,1,00,1,01750,1,03,1,06,1",,"999,N,+0025,1","99999,9,09795,1","8,1,003,1,+999,9",,"28,1","SYN094AAXX  20061 01442 11788 70000 10028 20028 39795 40052 58003 60002 72841 81036 333 20025 70000;","Q01  00002PRCP24Q02  00002PRCP12"
"01442099999","2010-09-20T09:00:00","4","58.6666666","7.8","211.0","BYGLANDSFJORD, NO","FM-12","99999","V020","340,1,N,0030,1","01500,1,9,N","075000,1,N,1","+0070,1","+0048,1","10047,1",,,,"2,1,03,1","2,1,03,1",,"08,99,1,08,1,00,1,01750,1,02,1,99,9",,,"99999,9,09792,1","8,1,002,1,+999,9",,"03,1","SYN072AAXX  20091 01442 41789 83403 10070 20048 39792 40047 58002 70322 8802/;",
"01442099999","2010-09-20T12:00:00","4","58.6666666","7.8","211.0","BYGLANDSFJORD, NO","FM-12","99999","V020","340,1,N,0070,1","03000,1,9,N","030000,1,N,1","+0074,1","+0065,1","10029,1",,,,"6,1,06,1","2,1,06,1",,"08,99,1,02,1,07,1,00250,1,02,1,99,9",,,"99999,9,09776,1","8,1,017,1,+999,9",,"61,1","SYN072AAXX  20121 01442 41380 83407 10074 20065 39776 40029 58017 76162 8272/;",
"01442099999","2010-09-20T15:00:00","4","58.6666666","7.8","211.0","BYGLANDSFJORD, NO","FM-12","99999","V020","340,1,N,0070,1","00420,1,9,N","020000,1,N,1","+0076,1","+0067,1","09996,1",,,,"6,1,03,1","6,1,03,1",,"08,99,1,07,1,07,1,00450,1,02,1,99,9",,,"99999,9,09743,1","8,1,032,1,+999,9",,"63,1","SYN072AAXX  20151 01442 41470 83407 10076 20067 39743 49996 58032 76366 8772/;",
"01442099999","2010-09-20T18:00:00","4","58.6666666","7.8","211.0","BYGLANDSFJORD, NO","FM-12","99999","V020","010,1,N,0070,1","00420,1,9,N","030000,1,N,1","+0073,1","+0061,1","10005,1","12,0231,9,1",,,"6,1,06,1","6,1,06,1",,"08,99,1,07,1,07,1,00450,1,02,1,99,9",,"999,M,+0076,1","99999,9,09752,1","3,1,009,1,+999,9",,"61,1","SYN088AAXX  20181 01442 11480 80107 10073 20061 39752 40005 53009 60232 76166 8772/ 333 10076;",
"01442099999","2010-09-21T03:00:00","4","58.6666666","7.8","211.0","BYGLANDSFJORD, NO","FM-12","99999","V020","999,9,C,0000,1","22000,1,9,N","000100,1,N,1","+0020,1","+0007,1","10092,1",,,,"4,1,03,1","0,1,03,1","00,1,+99999,9,99,9","00,99,1,00,1,00,1,99999,9,00,1,00,1",,,"99999,9,09832,1","1,1,030,1,+999,9",,"44,1","SYN066AAXX  21031 01442 41901 00000 10020 20007 39832 40092 51030 74440;",
"01442099999","2010-09-21T06:00:00","4","58.6666666","7.8","211.0","BYGLANDSFJORD, NO","FM-12","99999","V020","110,1,N,0030,1","22000,1,9,N","000000,1,N,1","+0024,1","+0011,1","10125,1","12,0005,9,1","24,0231,9,1",,"4,1,06,1","0,1,06,1",,"01,99,1,00,1,00,1,99999,9,00,1,01,1",,"999,N,+0020,1","99999,9,09865,1","3,1,032,1,+999,9",,"44,1","SYN094AAXX  21061 01442 11900 11103 10024 20011 39865 40125 53032 69962 74440 80001 333 20020 70232;",
"01442099999","2010-09-21T09:00:00","4","58.6666666","7.8","211.0","BYGLANDSFJORD, NO","FM-12","99999","V020","330,1,N,0030,1","22000,1,9,N","075000,1,N,1","+0084,1","+0076,1","10139,1",,,,"4,1,03,1","0,1,03,1","00,1,+99999,9,99,9","00,99,1,00,1,00,1,99999,9,00,1,00,1",,,"99999,9,09883,1","0,1,019,1,+999,9",,"02,1","SYN066AAXX  21091 01442 41989 03303 10084 20076 39883 40139 50019 70240;",
"01442099999","2010-09-21T12:00:00","4","58.6666666","7.8","211.0","BYGLANDSFJORD, NO","FM-12","99999","V020","340,1,N,0070,1","22000,1,9,N","075000,1,N,1","+0135,1","+0030,1","10151,1",,,,"4,1,06,1","0,1,06,1",,"01,99,1,01,1,01,1,01750,1,00,1,00,1",,,"99999,9,09901,1","3,1,017,1,+999,9",,"02,1","SYN072AAXX  21121 01442 41789 13407 10135 20030 39901 40151 53017 70240 81100;",
"01442099999","2010-09-21T15:00:00","4","58.6666666","7.8","211.0","BYGLANDSFJORD, NO","FM-12","99999","V020","330,1,N,0050,1","22000,1,9,N","075000,1,N,1","+0139,1","+0037,1","10159,1",,,,"0,1,03,1","0,1,03,1","00,1,+99999,9,99,9","00,99,1,00,1,00,1,99999,9,00,1,00,1",,,"99999,9,09908,1","3,1,008,1,+999,9",,"02,1","SYN066AAXX  21151 01442 41989 03305 10139 20037 39908 40159 53008 70200;",
"01442099999","2010-09-21T18:00:00","4","58.6666666","7.8","211.0","BYGLANDSFJORD, NO","FM-12","99999","V020","350,1,N,0050,1","22000,1,9,N","075000,1,N,1","+0103,1","+0031,1","10179,1",,,,"0,1,06,1","0,1,06,1",,"01,99,1,00,1,00,1,99999,9,00,1,01,1",,"999,M,+0144,1","99999,9,09925,1","2,1,016,1,+999,9",,"02,1","SYN082AAXX  21181 01442 31989 13505 10103 20031 39925 40179 52016 70200 80001 333 10144;",
"01442099999","2010-09-22T03:00:00","4","58.6666666","7.8","211.0","BYGLANDSFJORD, NO","FM-12","99999","V020","170,1,N,0030,1","22000,1,9,N","075000,1,N,1","+0051,1","+0044,1","10205,1",,,,"0,1,03,1","0,1,03,1",,"01,99,1,00,1,00,1,99999,9,00,1,01,1",,,"99999,9,09946,1","4,1,000,1,+999,9",,"02,1","SYN072AAXX  22031 01442 41989 11703 10051 20044 39946 40205 54000 70200 80001;",
"01442099999","2010-09-22T06:00:00","4","58.6666666","7.8","211.0","BYGLANDSFJORD, NO","FM-12","99999","V020","170,1,N,0010,1","02100,1,9,N","075000,1,N,1","+0048,1","+0048,1","10199,1","24,0000,9,1",,,"1,1,06,1","0,1,06,1",,"07,99,1,07,1,00,1,02250,1,05,1,01,1",,"999,N,+0044,1","99999,9,09940,1","7,1,006,1,+999,9",,"03,1","SYN088AAXX  22061 01442 31889 71701 10048 20048 39940 40199 57006 70310 87051 333 20044 70000;","Q01  00002PRCP24"
"01442099999","2010-09-22T09:00:00","4","58.6666666","7.8","211.0","BYGLANDSFJORD, NO","FM-12","99999","V020","160,1,N,0030,1","07500,1,9,N","075000,1,N,1","+0086,1","+0055,1","10197,1",,,,"2,1,03,1","2,1,03,1",,"08,99,1,01,1,01,1,01250,1,00,1,07,1",,,"99999,9,09941,1","0,1,001,1,+999,9",,"03,1","SYN072AAXX  22091 01442 41689 81603 10086 20055 39941 40197 50001 70322 81107;",
"01442099999","2010-09-22T12:00:00","4","58.6666666","7.8","211.0","BYGLANDSFJORD, NO","FM-12","99999","V020","150,1,N,0050,1","01500,1,9,N","075000,1,N,1","+0118,1","+0088,1","10183,1",,,,"2,1,06,1","2,1,06,1",,"08,99,1,08,1,00,1,01750,1,02,1,99,9",,,"99999,9,09930,1","8,1,011,1,+999,9",,"03,1","SYN072AAXX  22121 01442 41789 81505 10118 20088 39930 40183 58011 70322 8802/;",
"01442099999","2010-09-22T15:00:00","4","58.6666666","7.8","211.0","BYGLANDSFJORD, NO","FM-12","99999","V020","150,1,N,0030,1","00750,1,9,N","020000,1,N,1","+0120,1","+0104,1","10166,1",,,,"5,1,03,1","2,1,03,1",,"08,99,1,08,1,05,1,00800,1,99,9,99,9",,,"99999,9,09913,1","7,1,016,1,+999,9",,"50,1","SYN072AAXX  22151 01442 41570 81503 10120 20104 39913 40166 57016 75052 885//;",
"01442099999","2010-09-22T18:00:00","4","58.6666666","7.8","211.0","BYGLANDSFJORD, NO","FM-12","99999","V020","150,1,N,0030,1","00420,1,9,N","010000,1,N,1","+0115,1","+0115,1","10147,1","12,0005,9,1",,,"5,1,06,1","2,1,06,1",,"08,99,1,08,1,05,1,00450,1,99,9,99,9",,"999,M,+0122,1","99999,9,09895,1","8,1,019,1,+999,9",,"60,1","SYN088AAXX  22181 01442 11460 81503 10115 20115 39895 40147 58019 69952 76052 885// 333 10122;",
"01442099999","2010-09-23T03:00:00","4","58.6666666","7.8","211.0","BYGLANDSFJORD, NO","FM-12","99999","V020","150,1,N,0030,1","00420,1,9,N","050000,1,N,1","+0122,1","+0119,1","10106,1",,,,"6,1,03,1","2,1,03,1",,"08,99,1,08,1,05,1,00450,1,99,9,99,9",,,"99999,9,09856,1","8,1,013,1,+999,9",,"02,1","SYN072AAXX  23031 01442 41484 81503 10122 20119 39856 40106 58013 70262 885//;",
"01442099999","2010-09-23T06:00:00","4","58.6666666","7.8","211.0","BYGLANDSFJORD, NO","FM-12","99999","V020","160,1,N,0030,1","00420,1,9,N","030000,1,N,1","+0123,1","+0120,1","10093,1","12,0030,9,1","24,0030,9,1",,"6,1,06,1","2,1,06,1",,"08,99,1,08,1,05,1,00450,1,99,9,99,9",,"999,N,+0115,1","99999,9,09842,1","6,1,013,1,+999,9",,"02,1","SYN094AAXX  23061 01442 11480 81603 10123 20120 39842 40093 56013 60032 70262 885// 333 20115 70031;",
"01442099999","2010-09-23T09:00:00","4","58.6666666","7.8","211.0","BYGLANDSFJORD, NO","FM-12","99999","V020","160,1,N,0030,1","00420,1,9,N","030000,1,N,1","+0132,1","+0124,1","10083,1",,,,"2,1,03,1","2,1,03,1",,"08,99,1,08,1,05,1,00450,1,99,9,99,9",,,"99999,9,09833,1","7,1,009,1,+999,9",,"02,1","SYN072AAXX  23091 01442 41480 81603 10132 20124 39833 40083 57009 70222 885//;",
"01442099999","2010-09-23T12:00:00","4","58.6666666","7.8","211.0","BYGLANDSFJORD, NO","FM-12","99999","V020","150,1,N,0030,1","00420,1,9,N","030000,1,N,1","+0142,1","+0128,1","10065,1",,,,"2,1,06,1","2,1,06,1",,"08,99,1,08,1,05,1,00450,1,99,9,99,9",,,"99999,9,09817,1","8,1,017,1,+999,9",,"02,1","SYN072AAXX  23121 01442 41480 81503 10142 20128 39817 40065 58017 70222 885//;",
"01442099999","2010-09-23T18:00:00","4","58.6666666","7.8","211.0","BYGLANDSFJORD, NO","FM-12","99999","V020","150,1,N,0030,1","00210,1,9,N","005000,1,N,1","+0133,1","+0133,1","10033,1","12,0010,9,1",,,"6,1,06,1","2,1,06,1",,"08,99,1,08,1,06,1,00250,1,99,9,99,9",,"999,M,+0149,1","99999,9,09785,1","6,1,014,1,+999,9",,"50,1","SYN088AAXX  23181 01442 11350 81503 10133 20133 39785 40033 56014 60012 75062 886// 333 10149;",
"01442099999","2010-09-24T03:00:00","4","58.6666666","7.8","211.0","BYGLANDSFJORD, NO","FM-12","99999","V020","150,1,N,0010,1","00420,1,9,N","070000,1,N,1","+0124,1","+0124,1","10004,1",,,,"6,1,03,1","2,1,03,1",,"08,99,1,08,1,05,1,00450,1,99,9,99,9",,,"99999,9,09756,1","7,1,017,1,+999,9",,"21,1","SYN072AAXX  24031 01442 41488 81501 10124 20124 39756 40004 57017 72162 885//;",
"01442099999","2010-09-24T06:00:00","4","58.6666666","7.8","211.0","BYGLANDSFJORD, NO","FM-12","99999","V020","120,1,N,0030,1","00060,1,9,N","030000,1,N,1","+0119,1","+0119,1","09990,1","12,0030,9,1","24,0038,9,1",,"6,1,06,1","2,1,06,1",,"08,99,1,08,1,06,1,00075,1,99,9,99,9",,"999,N,+0119,1","99999,9,09742,1","7,1,014,1,+999,9",,"60,1","SYN094AAXX  24061 01442 11180 81203 10119 20119 39742 49990 57014 60032 76062 886// 333 20119 70038;",
"01442099999","2010-09-24T09:00:00","4","58.6666666","7.8","211.0","BYGLANDSFJORD, NO","FM-12","99999","V020","110,1,N,0010,1","00120,1,9,N","030000,1,N,1","+0128,1","+0128,1","09980,1",,,,"6,1,03,1","2,1,03,1",,"08,99,1,08,1,05,1,00150,1,99,9,99,9",,,"99999,9,09732,1","8,1,009,1,+999,9",,"60,1","SYN072AAXX  24091 01442 41280 81101 10128 20128 39732 49980 58009 76062 885//;",
"01442099999","2010-09-24T12:00:00","4","58.6666666","7.8","211.0","BYGLANDSFJORD, NO","FM-12","99999","V020","120,1,N,0030,1","00210,1,9,N","040000,1,N,1","+0135,1","+0126,1","09964,1",,,,"6,1,06,1","2,1,06,1",,"08,99,1,08,1,05,1,00250,1,99,9,99,9",,,"99999,9,09717,1","7,1,015,1,+999,9",,"60,1","SYN072AAXX  24121 01442 41382 81203 10135 20126 39717 49964 57015 76062 885//;",
"01442099999","2010-09-24T15:00:00","4","58.6666666","7.8","211.0","BYGLANDSFJORD, NO","FM-12","99999","V020","999,9,C,0000,1","00120,1,9,N","030000,1,N,1","+0128,1","+0125,1","09950,1",,,,"6,1,03,1","6,1,03,1",,"08,99,1,08,1,05,1,00150,1,99,9,99,9",,,"99999,9,09703,1","7,1,014,1,+999,9",,"61,1","SYN072AAXX  24151 01442 41280 80000 10128 20125 39703 49950 57014 76166 885//;",
"01442099999","2010-09-24T18:00:00","4","58.6666666","7.8","211.0","BYGLANDSFJORD, NO","FM-12","99999","V020","010,1,N,0010,1","00120,1,9,N","030000,1,N,1","+0119,1","+0119,1","09948,1","12,0071,9,1",,,"6,1,06,1","6,1,06,1",,"08,99,1,08,1,07,1,00150,1,99,9,99,9",,"999,M,+0137,1","99999,9,09701,1","5,1,003,1,+999,9",,"61,1","SYN088AAXX  24181 01442 11280 80101 10119 20119 39701 49948 55003 60072 76166 887// 333 10137;",
"01442099999","2010-09-25T03:00:00","4","58.6666666","7.8","211.0","BYGLANDSFJORD, NO","FM-12","99999","V020","350,1,N,0070,1","01200,1,9,N","075000,1,N,1","+0078,1","+0042,1","09999,1",,,,"2,1,03,1","2,1,03,1",,"08,99,1,08,1,05,1,01250,1,99,9,99,9",,,"99999,9,09747,1","3,1,011,1,+999,9",,"02,1","SYN072AAXX  25031 01442 41689 83507 10078 20042 39747 49999 53011 70222 885//;",
"01442099999","2010-09-25T06:00:00","4","58.6666666","7.8","211.0","BYGLANDSFJORD, NO","FM-12","99999","V020","010,1,N,0100,1","01200,1,9,N","075000,1,N,1","+0080,1","+0039,1","10016,1","12,0061,9,1","24,0132,9,1",,"2,1,06,1","2,1,06,1",,"08,99,1,08,1,05,1,01250,1,99,9,99,9",,"999,N,+0070,1","99999,9,09763,1","3,1,017,1,+999,9",,"01,1","SYN094AAXX  25061 01442 11689 80110 10080 20039 39763 40016 53017 60062 70122 885// 333 20070 70133;",
"01442099999","2010-09-25T09:00:00","4","58.6666666","7.8","211.0","BYGLANDSFJORD, NO","FM-12","99999","V020","350,1,N,0100,1","01200,1,9,N","075000,1,N,1","+0092,1","+0040,1","10035,1",,,,"6,1,03,1","2,1,03,1",,"07,99,1,07,1,05,1,01250,1,00,1,00,1",,,"99999,9,09783,1","3,1,024,1,+999,9",,"01,1","SYN072AAXX  25091 01442 41689 73510 10092 20040 39783 40035 53024 70162 87500;",
"01442099999","2010-09-25T12:00:00","4","58.6666666","7.8","211.0","BYGLANDSFJORD, NO","FM-12","99999","V020","020,1,N,0100,1","01200,1,9,N","075000,1,N,1","+0112,1","+0044,1","10058,1",,,,"2,1,06,1","2,1,06,1",,"08,99,1,08,1,05,1,01250,1,99,9,99,9",,,"99999,9,09807,1","2,1,020,1,+999,9",,"03,1","SYN072AAXX  25121 01442 41689 80210 10112 20044 39807 40058 52020 70322 885//;",
"01442099999","2010-09-25T15:00:00","4","58.6666666","7.8","211.0","BYGLANDSFJORD, NO","FM-12","99999","V020","340,1,N,0100,1","01200,1,9,N","075000,1,N,1","+0119,1","+0042,1","10075,1",,,,"2,1,03,1","2,1,03,1",,"07,99,1,07,1,05,1,01250,1,00,1,00,1",,,"99999,9,09825,1","3,1,017,1,+999,9",,"02,1","SYN072AAXX  25151 01442 41689 73410 10119 20042 39825 40075 53017 70222 87500;",
"01442099999","2010-09-25T18:00:00","4","58.6666666","7.8","211.0","BYGLANDSFJORD, NO","FM-12","99999","V020","340,1,N,0100,1","01200,1,9,N","075000,1,N,1","+0109,1","+0044,1","99999,9","12,0000,9,1",,,"2,1,06,1","2,1,06,1",,"08,99,1,08,1,05,1,01250,1,99,9,99,9",,"999,M,+0123,1",,"3,1,030,1,+999,9",,"02,1","SYN082AAXX  25181 01442 11689 83410 10109 20044 38855 53030 69922 70222 885// 333 10123;","Q01+088553APOSP Q02  00002PRCP12"
"01442099999","2010-09-27T03:00:00","4","58.6666666","7.8","211.0","BYGLANDSFJORD, NO","FM-12","99999","V020","350,1,N,0070,1","22000,1,9,N","075000,1,N,1","+0078,1","+0019,1","10194,1",,,,"0,1,03,1","0,1,03,1","00,1,+99999,9,99,9","00,99,1,00,1,00,1,99999,9,00,1,00,1",,,"99999,9,09937,1","4,1,000,1,+999,9",,"02,1","SYN066AAXX  27031 01442 41989 03507 10078 20019 39937 40194 54000 70200;",
"01442099999","2010-09-27T06:00:00","4","58.6666666","7.8","211.0","BYGLANDSFJORD, NO","FM-12","99999","V020","340,1,N,0070,1","22000,1,9,N","075000,1,N,1","+0072,1","+0011,1","10198,1",,,,"0,1,06,1","0,1,06,1",,"01,99,1,01,1,01,1,01250,1,00,1,01,1",,"999,N,+0072,1","99999,9,09941,1","2,1,004,1,+999,9",,"03,1","SYN082AAXX  27061 01442 31689 13407 10072 20011 39941 40198 52004 70300 81101 333 20072;",
"01442099999","2010-09-27T09:00:00","4","58.6666666","7.8","211.0","BYGLANDSFJORD, NO","FM-12","99999","V020","340,1,N,0050,1","22000,1,9,N","075000,1,N,1","+0097,1","+0011,1","10198,1",,,,"0,1,03,1","0,1,03,1",,"01,99,1,01,1,01,1,01750,1,00,1,01,1",,,"99999,9,09942,1","0,1,002,1,+999,9",,"01,1","SYN072AAXX  27091 01442 41789 13405 10097 20011 39942 40198 50002 70100 81101;",
"01442099999","2010-09-27T12:00:00","4","58.6666666","7.8","211.0","BYGLANDSFJORD, NO","FM-12","99999","V020","020,1,N,0070,1","22000,1,9,N","075000,1,N,1","+0127,1","-0005,1","10189,1",,,,"0,1,06,1","0,1,06,1",,"01,99,1,00,1,00,1,99999,9,00,1,01,1",,,"99999,9,09937,1","7,1,006,1,+999,9",,"01,1","SYN072AAXX  27121 01442 41989 10207 10127 21005 39937 40189 57006 70100 80001;",
"01442099999","2010-09-27T15:00:00","4","58.6666666","7.8","211.0","BYGLANDSFJORD, NO","FM-12","99999","V020","350,1,N,0050,1","22000,1,9,N","075000,1,N,1","+0137,1","-0011,1","10184,1",,,,"0,1,03,1","0,1,03,1",,"01,99,1,00,1,00,1,99999,9,00,1,01,1",,,"99999,9,09932,1","7,1,004,1,+999,9",,"02,1","SYN072AAXX  27151 01442 41989 13505 10137 21011 39932 40184 57004 70200 80001;",
"01442099999","2010-09-27T18:00:00","4","58.6666666","7.8","211.0","BYGLANDSFJORD, NO","FM-12","99999","V020","010,1,N,0050,1","22000,1,9,N","075000,1,N,1","+0105,1","-0012,1","10198,1",,,,"0,1,06,1","0,1,06,1","00,1,+99999,9,99,9","00,99,1,00,1,00,1,99999,9,00,1,00,1",,"999,M,+0140,1","99999,9,09943,1","3,1,011,1,+999,9",,"02,1","SYN076AAXX  27181 01442 31989 00105 10105 21012 39943 40198 53011 70200 333 10140;",
"01442099999","2010-09-28T03:00:00","4","58.6666666","7.8","211.0","BYGLANDSFJORD, NO","FM-12","99999","V020","350,1,N,0070,1","22000,1,9,N","075000,1,N,1","+0065,1","-0007,1","10219,1",,,,"0,1,03,1","0,1,03,1","00,1,+99999,9,99,9","00,99,1,00,1,00,1,99999,9,00,1,00,1",,,"99999,9,09961,1","2,1,001,1,+999,9",,"02,1","SYN066AAXX  28031 01442 41989 03507 10065 21007 39961 40219 52001 70200;",
"01442099999","2010-09-28T06:00:00","4","58.6666666","7.8","211.0","BYGLANDSFJORD, NO","FM-12","99999","V020","340,1,N,0050,1","22000,1,9,N","075000,1,N,1","+0058,1","+0000,1","10222,1","24,0000,9,1",,,"0,1,06,1","0,1,06,1","00,1,+99999,9,99,9","00,99,1,00,1,00,1,99999,9,00,1,00,1",,"999,N,+0058,1","99999,9,09962,1","2,1,002,1,+999,9",,"02,1","SYN082AAXX  28061 01442 31989 03405 10058 21000 39962 40222 52002 70200 333 20058 70000;","Q01  00002PRCP24"
"01442099999","2010-09-28T09:00:00","4","58.6666666","7.8","211.0","BYGLANDSFJORD, NO","FM-12","99999","V020","340,1,N,0050,1","22000,1,9,N","075000,1,N,1","+0089,1","-0009,1","10227,1",,,,"0,1,03,1","0,1,03,1","00,1,+99999,9,99,9","00,99,1,00,1,00,1,99999,9,00,1,00,1",,,"99999,9,09971,1","2,1,008,1,+999,9",,"02,1","SYN066AAXX  28091 01442 41989 03405 10089 21009 39971 40227 52008 70200;",
"01442099999","2010-09-28T12:00:00","4","58.6666666","7.8","211.0","BYGLANDSFJORD, NO","FM-12","99999","V020","120,1,N,0050,1","22000,1,9,N","075000,1,N,1","+0122,1","-0017,1","10221,1",,,,"0,1,06,1","0,1,06,1","00,1,+99999,9,99,9","00,99,1,00,1,00,1,99999,9,00,1,00,1",,,"99999,9,09967,1","7,1,003,1,+999,9",,"02,1","SYN066AAXX  28121 01442 41989 01205 10122 21017 39967 40221 57003 70200;",
"01442099999","2010-09-28T15:00:00","4","58.6666666","7.8","211.0","BYGLANDSFJORD, NO","FM-12","99999","V020","020,1,N,0050,1","22000,1,9,N","075000,1,N,1","+0124,1","-0015,1","10217,1",,,,"0,1,03,1","0,1,03,1","00,1,+99999,9,99,9","00,99,1,00,1,00,1,99999,9,00,1,00,1",,,"99999,9,09963,1","7,1,004,1,+999,9",,"02,1","SYN066AAXX  28151 01442 41989 00205 10124 21015 39963 40217 57004 70200;",
"01442099999","2010-09-28T18:00:00","4","58.6666666","7.8","211.0","BYGLANDSFJORD, NO","FM-12","99999","V020","170,1,N,0030,1","22000,1,9,N","075000,1,N,1","+0068,1","+0015,1","10234,1",,,,"0,1,06,1","0,1,06,1","00,1,+99999,9,99,9","00,99,1,00,1,00,1,99999,9,00,1,00,1",,"999,M,+0127,1","99999,9,09976,1","3,1,012,1,+999,9",,"02,1","SYN076AAXX  28181 01442 31989 01703 10068 20015 39976 40234 53012 70200 333 10127;",
"01442099999","2010-09-29T03:00:00","4","58.6666666","7.8","211.0","BYGLANDSFJORD, NO","FM-12","99999","V020","340,1,N,0010,1","22000,1,9,N","075000,1,N,1","+0020,1","+0007,1","10263,1",,,,"0,1,03,1","0,1,03,1","00,1,+99999,9,99,9","00,99,1,00,1,00,1,99999,9,00,1,00,1",,,"99999,9,09998,1","2,1,002,1,+999,9",,"02,1","SYN066AAXX  29031 01442 41989 03401 10020 20007 39998 40263 52002 70200;",
"01442099999","2010-09-29T06:00:00","4","58.6666666","7.8","211.0","BYGLANDSFJORD, NO","FM-12","99999","V020","010,1,N,0030,1","22000,1,9,N","075000,1,N,1","+0013,1","+0004,1","10269,1","24,0000,9,1",,,"0,1,06,1","0,1,06,1","00,1,+99999,9,99,9","00,99,1,00,1,00,1,99999,9,00,1,00,1",,"999,N,+0013,1","99999,9,10005,1","3,1,006,1,+999,9",,"02,1","SYN082AAXX  29061 01442 31989 00103 10013 20004 30005 40269 53006 70200 333 20013 70000;","Q01  00002PRCP24"
"01442099999","2010-09-29T09:00:00","4","58.6666666","7.8","211.0","BYGLANDSFJORD, NO","FM-12","99999","V020","340,1,N,0050,1","22000,1,9,N","075000,1,N,1","+0059,1","+0014,1","10265,1",,,,"0,1,03,1","0,1,03,1","00,1,+99999,9,99,9","00,99,1,00,1,00,1,99999,9,00,1,00,1",,,"99999,9,10005,1","0,1,000,1,+999,9",,"02,1","SYN066AAXX  29091 01442 41989 03405 10059 20014 30005 40265 50000 70200;",
"01442099999","2010-09-29T12:00:00","4","58.6666666","7.8","211.0","BYGLANDSFJORD, NO","FM-12","99999","V020","330,1,N,0030,1","22000,1,9,N","075000,1,N,1","+0117,1","+0019,1","10248,1",,,,"0,1,06,1","0,1,06,1","00,1,+99999,9,99,9","00,99,1,00,1,00,1,99999,9,00,1,00,1",,,"99999,9,09993,1","8,1,011,1,+999,9",,"02,1","SYN066AAXX  29121 01442 41989 03303 10117 20019 39993 40248 58011 70200;",
"01442099999","2010-09-29T15:00:00","4","58.6666666","7.8","211.0","BYGLANDSFJORD, NO","FM-12","99999","V020","130,1,N,0050,1","22000,1,9,N","075000,1,N,1","+0122,1","+0010,1","10238,1",,,,"0,1,03,1","0,1,03,1","00,1,+99999,9,99,9","00,99,1,00,1,00,1,99999,9,00,1,00,1",,,"99999,9,09983,1","7,1,010,1,+999,9",,"02,1","SYN066AAXX  29151 01442 41989 01305 10122 20010 39983 40238 57010 70200;",
"01442099999","2010-09-29T18:00:00","4","58.6666666","7.8","211.0","BYGLANDSFJORD, NO","FM-12","99999","V020","120,1,N,0030,1","22000,1,9,N","075000,1,N,1","+0075,1","+0028,1","10242,1",,,,"0,1,06,1","0,1,06,1","00,1,+99999,9,99,9","00,99,1,00,1,00,1,99999,9,00,1,00,1",,"999,M,+0129,1","99999,9,09983,1","5,1,000,1,+999,9",,"02,1","SYN076AAXX  29181 01442 31989 01203 10075 20028 39983 40242 55000 70200 333 10129;",
"01442099999","2010-09-30T03:00:00","4","58.6666666","7.8","211.0","BYGLANDSFJORD, NO","FM-12","99999","V020","350,1,N,0030,1","22000,1,9,N","075000,1,N,1","+0046,1","+0033,1","10240,1",,,,"0,1,03,1","0,1,03,1",,"01,99,1,01,1,01,1,01250,1,00,1,00,1",,,"99999,9,09978,1","7,1,009,1,+999,9",,"03,1","SYN072AAXX  30031 01442 41689 13503 10046 20033 39978 40240 57009 70300 81100;",
"01442099999","2010-09-30T06:00:00","4","58.6666666","7.8","211.0","BYGLANDSFJORD, NO","FM-12","99999","V020","350,1,N,0050,1","01200,1,9,N","075000,1,N,1","+0054,1","+0037,1","10237,1","24,0000,9,1",,,"1,1,06,1","0,1,06,1",,"08,99,1,08,1,05,1,01250,1,99,9,99,9",,"999,N,+0029,1","99999,9,09977,1","7,1,002,1,+999,9",,"03,1","SYN088AAXX  30061 01442 31689 83505 10054 20037 39977 40237 57002 70310 885// 333 20029 70000;","Q01  00002PRCP24"
"01442099999","2010-09-30T09:00:00","4","58.6666666","7.8","211.0","BYGLANDSFJORD, NO","FM-12","99999","V020","340,1,N,0030,1","01200,1,9,N","075000,1,N,1","+0075,1","+0055,1","10234,1",,,,"2,1,03,1","2,1,03,1",,"07,99,1,07,1,05,1,01250,1,00,1,00,1",,,"99999,9,09976,1","6,1,001,1,+999,9",,"02,1","SYN072AAXX  30091 01442 41689 73403 10075 20055 39976 40234 56001 70222 87500;",
"01442099999","2010-09-30T12:00:00","4","58.6666666","7.8","211.0","BYGLANDSFJORD, NO","FM-12","99999","V020","150,1,N,0030,1","01200,1,9,N","075000,1,N,1","+0103,1","+0053,1","10223,1",,,,"2,1,06,1","2,1,06,1",,"07,99,1,07,1,08,1,00800,1,00,1,00,1",,,"99999,9,09967,1","7,1,008,1,+999,9",,"03,1","SYN072AAXX  30121 01442 41589 71503 10103 20053 39967 40223 57008 70322 87800;",
"01442099999","2010-09-30T18:00:00","4","58.6666666","7.8","211.0","BYGLANDSFJORD, NO","FM-12","99999","V020","170,1,N,0050,1","01200,1,9,N","075000,1,N,1","+0092,1","-0004,1","10212,1",,,,"2,1,06,1","2,1,06,1",,"07,99,1,07,1,08,1,00800,1,00,1,00,1",,"999,M,+0115,1","99999,9,09956,1","5,1,000,1,+999,9",,"03,1","SYN082AAXX  30181 01442 31589 71705 10092 21004 39956 40212 55000 70322 87800 333 10115;",
"01442099999","2010-10-01T03:00:00","4","58.6666666","7.8","211.0","BYGLANDSFJORD, NO","FM-12","99999","V020","100,1,N,0070,1","01500,1,9,N","075000,1,N,1","+0082,1","+0044,1","10195,1",,,,"1,1,03,1","1,1,03,1",,"07,99,1,07,1,00,1,01750,1,07,1,00,1",,,"99999,9,09938,1","8,1,013,1,+999,9",,"03,1","SYN072AAXX  01031 01442 41789 71007 10082 20044 39938 40195 58013 70311 87070;",
"01442099999","2010-10-01T06:00:00","4","58.6666666","7.8","211.0","BYGLANDSFJORD, NO","FM-12","99999","V020","150,1,N,0030,1","01200,1,9,N","075000,1,N,1","+0076,1","+0047,1","10194,1","24,0000,9,1",,,"2,1,06,1","1,1,06,1",,"07,99,1,07,1,08,1,00800,1,00,1,00,1",,"999,N,+0066,1","99999,9,09937,1","7,1,002,1,+999,9",,"03,1","SYN088AAXX  01061 01442 31589 71503 10076 20047 39937 40194 57002 70321 87800 333 20066 70000;","Q01  00002PRCP24"
"01442099999","2010-10-01T09:00:00","4","58.6666666","7.8","211.0","BYGLANDSFJORD, NO","FM-12","99999","V020","150,1,N,0030,1","00750,1,9,N","075000,1,N,1","+0083,1","+0051,1","10198,1",,,,"6,1,03,1","2,1,03,1",,"08,99,1,08,1,05,1,00800,1,99,9,99,9",,,"99999,9,09942,1","2,1,005,1,+999,9",,"21,1","SYN072AAXX  01091 01442 41589 81503 10083 20051 39942 40198 52005 72162 885//;",
"01442099999","2010-10-01T12:00:00","4","58.6666666","7.8","211.0","BYGLANDSFJORD, NO","FM-12","99999","V020","170,1,N,0070,1","00420,1,9,N","030000,1,N,1","+0078,1","+0058,1","10196,1",,,,"6,1,06,1","2,1,06,1",,"08,99,1,08,1,05,1,00450,1,99,9,99,9",,,"99999,9,09938,1","7,1,003,1,+999,9",,"60,1","SYN072AAXX  01121 01442 41480 81707 10078 20058 39938 40196 57003 76062 885//;",
"01442099999","2010-10-01T15:00:00","4","58.6666666","7.8","211.0","BYGLANDSFJORD, NO","FM-12","99999","V020","170,1,N,0050,1","00750,1,9,N","075000,1,N,1","+0080,1","+0051,1","10186,1",,,,"6,1,03,1","2,1,03,1",,"08,99,1,08,1,05,1,00800,1,99,9,99,9",,,"99999,9,09930,1","7,1,009,1,+999,9",,"21,1","SYN072AAXX  01151 01442 41589 81705 10080 20051 39930 40186 57009 72162 885//;",
"01442099999","2010-10-01T18:00:00","4","58.6666666","7.8","211.0","BYGLANDSFJORD, NO","FM-12","99999","V020","170,1,N,0030,1","00750,1,9,N","075000,1,N,1","+0082,1","+0051,1","10185,1","12,0010,9,1",,,"6,1,06,1","2,1,06,1",,"08,99,1,08,1,05,1,00800,1,99,9,99,9",,"999,M,+0086,1","99999,9,09928,1","5,1,001,1,+999,9",,"02,1","SYN088AAXX  01181 01442 11589 81703 10082 20051 39928 40185 55001 60012 70262 885// 333 10086;",
"01442099999","2010-10-02T03:00:00","4","58.6666666","7.8","211.0","BYGLANDSFJORD, NO","FM-12","99999","V020","190,1,N,0030,1","00750,1,9,N","020000,1,N,1","+0083,1","+0059,1","10165,1",,,,"6,1,03,1","2,1,03,1",,"08,99,1,08,1,05,1,00800,1,99,9,99,9",,,"99999,9,09910,1","7,1,011,1,+999,9",,"60,1","SYN072AAXX  02031 01442 41570 81903 10083 20059 39910 40165 57011 76062 885//;",
"01442099999","2010-10-02T06:00:00","4","58.6666666","7.8","211.0","BYGLANDSFJORD, NO","FM-12","99999","V020","160,1,N,0030,1","00420,1,9,N","040000,1,N,1","+0081,1","+0062,1","10159,1","12,0030,9,1","24,0038,9,1",,"6,1,06,1","2,1,06,1",,"08,99,1,08,1,05,1,00450,1,99,9,99,9",,"999,N,+0077,1","99999,9,09903,1","5,1,006,1,+999,9",,"60,1","SYN094AAXX  02061 01442 11482 81603 10081 20062 39903 40159 55006 60032 76062 885// 333 20077 70037;",
"01442099999","2010-10-02T09:00:00","4","58.6666666","7.8","211.0","BYGLANDSFJORD, NO","FM-12","99999","V020","170,1,N,0070,1","00420,1,9,N","040000,1,N,1","+0088,1","+0064,1","10157,1",,,,"6,1,03,1","2,1,03,1",,"08,99,1,08,1,05,1,00450,1,99,9,99,9",,,"99999,9,09902,1","7,1,002,1,+999,9",,"60,1","SYN072AAXX  02091 01442 41482 81707 10088 20064 39902 40157 57002 76062 885//;",
"01442099999","2010-10-02T12:00:00","4","58.6666666","7.8","211.0","BYGLANDSFJORD, NO","FM-12","99999","V020","190,1,N,0050,1","00420,1,9,N","020000,1,N,1","+0088,1","+0073,1","10153,1",,,,"6,1,06,1","2,1,06,1",,"08,99,1,08,1,05,1,00450,1,99,9,99,9",,,"99999,9,09897,1","8,1,004,1,+999,9",,"60,1","SYN072AAXX  02121 01442 41470 81905 10088 20073 39897 40153 58004 76062 885//;",
"01442099999","2010-10-02T15:00:00","4","58.6666666","7.8","211.0","BYGLANDSFJORD, NO","FM-12","99999","V020","160,1,N,0070,1","00420,1,9,N","040000,1,N,1","+0090,1","+0066,1","10150,1",,,,"6,1,03,1","6,1,03,1",,"08,99,1,05,1,07,1,00450,1,02,1,99,9",,,"99999,9,09896,1","7,1,002,1,+999,9",,"61,1","SYN072AAXX  02151 01442 41482 81607 10090 20066 39896 40150 57002 76166 8572/;",
"01442099999","2010-10-02T18:00:00","4","58.6666666","7.8","211.0","BYGLANDSFJORD, NO","FM-12","99999","V020","170,1,N,0070,1","00420,1,9,N","020000,1,N,1","+0090,1","+0070,1","10153,1","12,0079,9,1",,,"6,1,06,1","6,1,06,1",,"08,99,1,08,1,07,1,00450,1,99,9,99,9",,"999,M,+0092,1","99999,9,09898,1","3,1,003,1,+999,9",,"63,1","SYN088AAXX  02181 01442 11470 81707 10090 20070 39898 40153 53003 60082 76366 887// 333 10092;",
"01442099999","2010-10-03T03:00:00","4","58.6666666","7.8","211.0","BYGLANDSFJORD, NO","FM-12","99999","V020","150,1,N,0030,1","00210,1,9,N","010000,1,N,1","+0098,1","+0092,1","10106,1",,,,"6,1,03,1","6,1,03,1",,"08,99,1,08,1,07,1,00250,1,99,9,99,9",,,"99999,9,09852,1","8,1,020,1,+999,9",,"61,1","SYN072AAXX  03031 01442 41360 81503 10098 20092 39852 40106 58020 76166 887//;",
"01442099999","2010-10-03T06:00:00","4","58.6666666","7.8","211.0","BYGLANDSFJORD, NO","FM-12","99999","V020","160,1,N,0070,1","00210,1,9,N","015000,1,N,1","+0103,1","+0091,1","10090,1","12,0089,9,1","24,0163,9,1",,"6,1,06,1","6,1,06,1",,"08,99,1,08,1,07,1,00250,1,99,9,99,9",,"999,N,+0090,1","99999,9,09837,1","8,1,015,1,+999,9",,"61,1","SYN094AAXX  03061 01442 11365 81607 10103 20091 39837 40090 58015 60092 76166 887// 333 20090 70163;",
"01442099999","2010-10-03T09:00:00","4","58.6666666","7.8","211.0","BYGLANDSFJORD, NO","FM-12","99999","V020","190,1,N,0050,1","00420,1,9,N","015000,1,N,1","+0104,1","+0098,1","10089,1",,,,"6,1,03,1","6,1,03,1",,"08,99,1,07,1,07,1,00450,1,02,1,99,9",,,"99999,9,09837,1","6,1,001,1,+999,9",,"63,1","SYN072AAXX  03091 01442 41465 81905 10104 20098 39837 40089 56001 76366 8772/;",
"01442099999","2010-10-03T12:00:00","4","58.6666666","7.8","211.0","BYGLANDSFJORD, NO","FM-12","99999","V020","120,1,N,0030,1","00420,1,9,N","040000,1,N,1","+0108,1","+0103,1","10082,1",,,,"6,1,06,1","6,1,06,1",,"08,99,1,05,1,07,1,00450,1,02,1,99,9",,,"99999,9,09831,1","8,1,006,1,+999,9",,"61,1","SYN072AAXX  03121 01442 41482 81203 10108 20103 39831 40082 58006 76166 8572/;",
"01442099999","2010-10-03T15:00:00","4","58.6666666","7.8","211.0","BYGLANDSFJORD, NO","FM-12","99999","V020","170,1,N,0070,1","00420,1,9,N","020000,1,N,1","+0115,1","+0104,1","10077,1",,,,"6,1,03,1","6,1,03,1",,"08,99,1,07,1,07,1,00450,1,02,1,99,9",,,"99999,9,09827,1","8,1,004,1,+999,9",,"63,1","SYN072AAXX  03151 01442 41470 81707 10115 20104 39827 40077 58004 76366 8772/;",
"01442099999","2010-10-03T18:00:00","4","58.6666666","7.8","211.0","BYGLANDSFJORD, NO","FM-12","99999","V020","170,1,N,0070,1","00420,1,9,N","060000,1,N,1","+0114,1","+0103,1","10081,1","12,0269,9,1",,,"6,1,06,1","2,1,06,1",,"08,99,1,08,1,07,1,00450,1,99,9,99,9",,"999,M,+0115,1","99999,9,09830,1","3,1,003,1,+999,9",,"21,1","SYN088AAXX  03181 01442 11486 81707 10114 20103 39830 40081 53003 60272 72162 887// 333 10115;",
"01442099999","2010-10-04T03:00:00","4","58.6666666","7.8","211.0","BYGLANDSFJORD, NO","FM-12","99999","V020","150,1,N,0030,1","00420,1,9,N","003000,1,N,1","+0109,1","+0109,1","10051,1",,,,"6,1,03,1","6,1,03,1",,"08,99,1,08,1,07,1,00450,1,99,9,99,9",,,"99999,9,09801,1","7,1,009,1,+999,9",,"65,1","SYN072AAXX  04031 01442 41430 81503 10109 20109 39801 40051 57009 76566 887//;",
"01442099999","2010-10-04T06:00:00","4","58.6666666","7.8","211.0","BYGLANDSFJORD, NO","FM-12","99999","V020","160,1,N,0070,1","00120,1,9,N","015000,1,N,1","+0112,1","+0109,1","10051,1","12,0231,9,1","24,0498,9,1",,"6,1,06,1","2,1,06,1",,"08,99,1,08,1,06,1,00150,1,99,9,99,9",,"999,N,+0108,1","99999,9,09801,1","4,1,000,1,+999,9",,"60,1","SYN094AAXX  04061 01442 11265 81607 10112 20109 39801 40051 54000 60232 76062 886// 333 20108 70499;",
"01442099999","2010-10-04T09:00:00","4","58.6666666","7.8","211.0","BYGLANDSFJORD, NO","FM-12","99999","V020","150,1,N,0050,1","00120,1,9,N","003000,1,N,1","+0110,1","+0105,1","10057,1",,,,"6,1,03,1","5,1,03,1",,"08,99,1,08,1,06,1,00150,1,99,9,99,9",,,"99999,9,09807,1","1,1,006,1,+999,9",,"51,1","SYN072AAXX  04091 01442 41230 81505 10110 20105 39807 40057 51006 75165 886//;",
"01442099999","2010-10-04T12:00:00","4","58.6666666","7.8","211.0","BYGLANDSFJORD, NO","FM-12","99999","V020","150,1,N,0050,1","00120,1,9,N","005000,1,N,1","+0108,1","+0105,1","10063,1",,,,"6,1,06,1","5,1,06,1",,"08,99,1,08,1,06,1,00150,1,99,9,99,9",,,"99999,9,09812,1","3,1,005,1,+999,9",,"51,1","SYN072AAXX  04121 01442 41250 81505 10108 20105 39812 40063 53005 75165 886//;",
"01442099999","2010-10-04T15:00:00","4","58.6666666","7.8","211.0","BYGLANDSFJORD, NO","FM-12","99999","V020","170,1,N,0030,1","00060,1,9,N","005000,1,N,1","+0106,1","+0101,1","10060,1",,,,"5,1,03,1","5,1,03,1",,"08,99,1,08,1,06,1,00075,1,99,9,99,9",,,"99999,9,09808,1","8,1,003,1,+999,9",,"51,1","SYN072AAXX  04151 01442 41150 81703 10106 20101 39808 40060 58003 75155 886//;",
"01442099999","2010-10-04T18:00:00","4","58.6666666","7.8","211.0","BYGLANDSFJORD, NO","FM-12","99999","V020","120,1,N,0030,1","00060,1,9,N","010000,1,N,1","+0104,1","+0101,1","10061,1","12,0041,9,1",,,"6,1,06,1","5,1,06,1",,"08,99,1,08,1,06,1,00075,1,99,9,99,9",,"999,M,+0113,1","99999,9,09810,1","0,1,001,1,+999,9",,"60,1","SYN088AAXX  04181 01442 11160 81203 10104 20101 39810 40061 50001 60042 76065 886// 333 10113;",
"01442099999","2010-10-05T03:00:00","4","58.6666666","7.8","211.0","BYGLANDSFJORD, NO","FM-12","99999","V020","170,1,N,0050,1","00210,1,9,N","015000,1,N,1","+0117,1","+0106,1","10061,1",,,,"6,1,03,1","2,1,03,1",,"08,99,1,08,1,06,1,00250,1,99,9,99,9",,,"99999,9,09811,1","2,1,003,1,+999,9",,"60,1","SYN072AAXX  05031 01442 41365 81705 10117 20106 39811 40061 52003 76062 886//;",
"01442099999","2010-10-05T06:00:00","4","58.6666666","7.8","211.0","BYGLANDSFJORD, NO","FM-12","99999","V020","150,1,N,0070,1","00420,1,9,N","015000,1,N,1","+0113,1","+0101,1","10065,1","12,0030,9,1","24,0071,9,1",,"6,1,06,1","2,1,06,1",,"08,99,1,08,1,05,1,00450,1,99,9,99,9",,"999,N,+0104,1","99999,9,09815,1","3,1,004,1,+999,9",,"60,1","SYN094AAXX  05061 01442 11465 81507 10113 20101 39815 40065 53004 60032 76062 885// 333 20104 70070;",
"01442099999","2010-10-05T09:00:00","4","58.6666666","7.8","211.0","BYGLANDSFJORD, NO","FM-12","99999","V020","160,1,N,0050,1","00420,1,9,N","015000,1,N,1","+0110,1","+0101,1","10077,1",,,,"6,1,03,1","2,1,03,1",,"08,99,1,08,1,05,1,00450,1,99,9,99,9",,,"99999,9,09826,1","0,1,011,1,+999,9",,"60,1","SYN072AAXX  05091 01442 41465 81605 10110 20101 39826 40077 50011 76062 885//;",
"01442099999","2010-10-05T12:00:00","4","58.6666666","7.8","211.0","BYGLANDSFJORD, NO","FM-12","99999","V020","160,1,N,0050,1","00210,1,9,N","010000,1,N,1","+0109,1","+0095,1","10079,1",,,,"6,1,06,1","2,1,06,1",,"08,99,1,08,1,07,1,00250,1,99,9,99,9",,,"99999,9,09827,1","0,1,002,1,+999,9",,"60,1","SYN072AAXX  05121 01442 41360 81605 10109 20095 39827 40079 50002 76062 887//;",
"01442099999","2010-10-05T15:00:00","4","58.6666666","7.8","211.0","BYGLANDSFJORD, NO","FM-12","99999","V020","170,1,N,0050,1","00210,1,9,N","006000,1,N,1","+0105,1","+0093,1","10076,1",,,,"6,1,03,1","5,1,03,1",,"08,99,1,08,1,07,1,00250,1,99,9,99,9",,,"99999,9,09825,1","8,1,003,1,+999,9",,"51,1","SYN072AAXX  05151 01442 41356 81705 10105 20093 39825 40076 58003 75165 887//;",
"01442099999","2010-10-05T18:00:00","4","58.6666666","7.8","211.0","BYGLANDSFJORD, NO","FM-12","99999","V020","150,1,N,0030,1","00210,1,9,N","006000,1,N,1","+0104,1","+0095,1","10082,1","12,0030,9,1",,,"6,1,06,1","5,1,06,1",,"08,99,1,08,1,07,1,00250,1,99,9,99,9",,"999,M,+0114,1","99999,9,09831,1","3,1,006,1,+999,9",,"51,1","SYN088AAXX  05181 01442 11356 81503 10104 20095 39831 40082 53006 60032 75165 887// 333 10114;",
"01442099999","2010-10-06T03:00:00","4","58.6666666","7.8","211.0","BYGLANDSFJORD, NO","FM-12","99999","V020","170,1,N,0030,1","00210,1,9,N","030000,1,N,1","+0105,1","+0105,1","10079,1",,,,"6,1,03,1","2,1,03,1",,"08,99,1,08,1,06,1,00250,1,99,9,99,9",,,"99999,9,09827,1","7,1,002,1,+999,9",,"02,1","SYN072AAXX  06031 01442 41380 81703 10105 20105 39827 40079 57002 70262 886//;",
"01442099999","2010-10-06T06:00:00","4","58.6666666","7.8","211.0","BYGLANDSFJORD, NO","FM-12","99999","V020","150,1,N,0030,1","00210,1,9,N","010000,1,N,1","+0119,1","+0116,1","10072,1","12,0061,9,1","24,0089,9,1",,"6,1,06,1","2,1,06,1",,"08,99,1,08,1,06,1,00250,1,99,9,99,9",,"999,N,+0102,1","99999,9,09822,1","6,1,006,1,+999,9",,"60,1","SYN094AAXX  06061 01442 11360 81503 10119 20116 39822 40072 56006 60062 76062 886// 333 20102 70089;",
"01442099999","2010-10-06T09:00:00","4","58.6666666","7.8","211.0","BYGLANDSFJORD, NO","FM-12","99999","V020","150,1,N,0050,1","00120,1,9,N","002000,1,N,1","+0119,1","+0117,1","10072,1",,,,"6,1,03,1","5,1,03,1",,"08,99,1,08,1,07,1,00150,1,99,9,99,9",,,"99999,9,09822,1","5,1,000,1,+999,9",,"63,1","SYN072AAXX  06091 01442 41220 81505 10119 20117 39822 40072 55000 76365 887//;",
"01442099999","2010-10-06T12:00:00","4","58.6666666","7.8","211.0","BYGLANDSFJORD, NO","FM-12","99999","V020","160,1,N,0070,1","00420,1,9,N","020000,1,N,1","+0124,1","+0116,1","10065,1",,,,"6,1,06,1","6,1,06,1",,"08,99,1,08,1,07,1,00450,1,99,9,99,9",,,"99999,9,09816,1","7,1,006,1,+999,9",,"63,1","SYN072AAXX  06121 01442 41470 81607 10124 20116 39816 40065 57006 76366 887//;",
"01442099999","2010-10-06T15:00:00","4","58.6666666","7.8","211.0","BYGLANDSFJORD, NO","FM-12","99999","V020","150,1,N,0070,1","00420,1,9,N","015000,1,N,1","+0125,1","+0120,1","10051,1",,,,"6,1,03,1","6,1,03,1",,"08,99,1,07,1,07,1,00450,1,02,1,99,9",,,"99999,9,09802,1","6,1,014,1,+999,9",,"63,1","SYN072AAXX  06151 01442 41465 81507 10125 20120 39802 40051 56014 76366 8772/;",
"01442099999","2010-10-06T18:00:00","4","58.6666666","7.8","211.0","BYGLANDSFJORD, NO","FM-12","99999","V020","150,1,N,0050,1","00420,1,9,N","010000,1,N,1","+0131,1","+0128,1","10047,1","12,0310,9,1",,,"6,1,06,1","6,1,06,1",,"08,99,1,08,1,07,1,00450,1,99,9,99,9",,"999,M,+0131,1","99999,9,09798,1","7,1,003,1,+999,9",,"63,1","SYN088AAXX  06181 01442 11460 81505 10131 20128 39798 40047 57003 60312 76366 887// 333 10131;",
"01442099999","2010-10-07T03:00:00","4","58.6666666","7.8","211.0","BYGLANDSFJORD, NO","FM-12","99999","V020","120,1,N,0030,1","22000,1,9,N","075000,1,N,1","+0071,1","+0071,1","10169,1",,,,"1,1,03,1","0,1,03,1",,"01,99,1,00,1,00,1,99999,9,00,1,01,1",,,"99999,9,09912,1","3,1,036,1,+999,9",,"01,1","SYN072AAXX  07031 01442 41989 11203 10071 20071 39912 40169 53036 70110 80001;",
"01442099999","2010-10-07T06:00:00","4","58.6666666","7.8","211.0","BYGLANDSFJORD, NO","FM-12","99999","V020","190,1,N,0030,1","00015,1,9,N","000100,1,N,1","+0063,1","+0063,1","10203,1","12,0071,9,1","24,0381,9,1",,"4,1,06,1","1,1,06,1","09,1,+99999,9,99,9","09,99,1,09,1,99,9,99999,9,99,9,99,9",,"999,N,+0063,1","99999,9,09945,1","3,1,033,1,+999,9",,"47,1","SYN088AAXX  07061 01442 11/01 91903 10063 20063 39945 40203 53033 60072 74741 333 20063 70380;",
"01442099999","2010-10-07T09:00:00","4","58.6666666","7.8","211.0","BYGLANDSFJORD, NO","FM-12","99999","V020","180,1,N,0030,1","00060,1,9,N","040000,1,N,1","+0080,1","+0080,1","10232,1",,,,"4,1,03,1","2,1,03,1",,"08,99,1,08,1,06,1,00075,1,99,9,99,9",,,"99999,9,09975,1","2,1,030,1,+999,9",,"28,1","SYN072AAXX  07091 01442 41182 81803 10080 20080 39975 40232 52030 72842 886//;",
"01442099999","2010-10-07T12:00:00","4","58.6666666","7.8","211.0","BYGLANDSFJORD, NO","FM-12","99999","V020","120,1,N,0030,1","22000,1,9,N","070000,1,N,1","+0118,1","+0104,1","10244,1",,,,"4,1,06,1","1,1,06,1",,"03,99,1,03,1,06,1,00450,1,00,1,01,1",,,"99999,9,09990,1","3,1,015,1,+999,9",,"01,1","SYN072AAXX  07121 01442 41488 31203 10118 20104 39990 40244 53015 70141 83601;",
"01442099999","2010-10-07T15:00:00","4","58.6666666","7.8","211.0","BYGLANDSFJORD, NO","FM-12","99999","V020","120,1,N,0030,1","00750,1,9,N","075000,1,N,1","+0130,1","+0109,1","10253,1",,,,"2,1,03,1","1,1,03,1",,"07,99,1,07,1,05,1,00800,1,99,9,99,9",,,"99999,9,10000,1","3,1,010,1,+999,9",,"03,1","SYN072AAXX  07151 01442 41589 71203 10130 20109 30000 40253 53010 70321 875//;",
"01442099999","2010-10-07T18:00:00","4","58.6666666","7.8","211.0","BYGLANDSFJORD, NO","FM-12","99999","V020","120,1,N,0010,1","22000,1,9,N","075000,1,N,1","+0098,1","+0097,1","10273,1",,,,"2,1,06,1","1,1,06,1",,"02,99,1,02,1,01,1,00800,1,00,1,00,1",,"999,M,+0134,1","99999,9,10016,1","3,1,016,1,+999,9",,"01,1","SYN082AAXX  07181 01442 31589 21201 10098 20097 30016 40273 53016 70121 82100 333 10134;",
"01442099999","2010-10-08T03:00:00","4","58.6666666","7.8","211.0","BYGLANDSFJORD, NO","FM-12","99999","V020","330,1,N,0030,1","00210,1,9,N","075000,1,N,1","+0078,1","+0078,1","10298,1",,,,"1,1,03,1","1,1,03,1",,"07,99,1,07,1,06,1,00250,1,00,1,00,1",,,"99999,9,10038,1","2,1,008,1,+999,9",,"03,1","SYN072AAXX  08031 01442 41389 73303 10078 20078 30038 40298 52008 70311 87600;",
"01442099999","2010-10-08T06:00:00","4","58.6666666","7.8","211.0","BYGLANDSFJORD, NO","FM-12","99999","V020","340,1,N,0050,1","00120,1,9,N","075000,1,N,1","+0076,1","+0073,1","10309,1","24,0000,9,1",,,"1,1,06,1","1,1,06,1",,"06,99,1,06,1,06,1,00150,1,00,1,00,1",,"999,N,+0074,1","99999,9,10048,1","3,1,010,1,+999,9",,"01,1","SYN088AAXX  08061 01442 31289 63405 10076 20073 30048 40309 53010 70111 86600 333 20074 70000;","Q01  00002PRCP24"
"01442099999","2010-10-08T09:00:00","4","58.6666666","7.8","211.0","BYGLANDSFJORD, NO","FM-12","99999","V020","310,1,N,0050,1","22000,1,9,N","075000,1,N,1","+0093,1","+0076,1","10316,1",,,,"1,1,03,1","1,1,03,1",,"01,99,1,01,1,01,1,00450,1,00,1,00,1",,,"99999,9,10057,1","2,1,009,1,+999,9",,"03,1","SYN072AAXX  08091 01442 41489 13105 10093 20076 30057 40316 52009 70311 81100;",
"01442099999","2010-10-08T12:00:00","4","58.6666666","7.8","211.0","BYGLANDSFJORD, NO","FM-12","99999","V020","170,1,N,0050,1","22000,1,9,N","075000,1,N,1","+0128,1","+0066,1","10310,1",,,,"1,1,06,1","0,1,06,1",,"02,99,1,02,1,02,1,01250,1,00,1,00,1",,,"99999,9,10055,1","7,1,003,1,+999,9",,"03,1","SYN072AAXX  08121 01442 41689 21705 10128 20066 30055 40310 57003 70310 82200;",
"01442099999","2010-10-08T15:00:00","4","58.6666666","7.8","211.0","BYGLANDSFJORD, NO","FM-12","99999","V020","340,1,N,0010,1","01200,1,9,N","075000,1,N,1","+0125,1","+0074,1","10312,1",,,,"1,1,03,1","1,1,03,1",,"08,99,1,08,1,05,1,01250,1,99,9,99,9",,,"99999,9,10057,1","2,1,002,1,+999,9",,"03,1","SYN072AAXX  08151 01442 41689 83401 10125 20074 30057 40312 52002 70311 885//;",
"01442099999","2010-10-08T18:00:00","4","58.6666666","7.8","211.0","BYGLANDSFJORD, NO","FM-12","99999","V020","020,1,N,0030,1","01200,1,9,N","075000,1,N,1","+0112,1","+0077,1","10321,1",,,,"2,1,06,1","1,1,06,1",,"08,99,1,08,1,05,1,01250,1,99,9,99,9",,"999,M,+0131,1","99999,9,10063,1","3,1,007,1,+999,9",,"02,1","SYN082AAXX  08181 01442 31689 80203 10112 20077 30063 40321 53007 70221 885// 333 10131;",
"01442099999","2010-10-09T03:00:00","4","58.6666666","7.8","211.0","BYGLANDSFJORD, NO","FM-12","99999","V020","350,1,N,0030,1","00420,1,9,N","075000,1,N,1","+0089,1","+0062,1","10325,1",,,,"2,1,03,1","2,1,03,1",,"08,99,1,08,1,06,1,00450,1,99,9,99,9",,,"99999,9,10066,1","8,1,009,1,+999,9",,"02,1","SYN072AAXX  09031 01442 41489 83503 10089 20062 30066 40325 58009 70222 886//;",
"01442099999","2010-10-09T06:00:00","4","58.6666666","7.8","211.0","BYGLANDSFJORD, NO","FM-12","99999","V020","350,1,N,0050,1","00750,1,9,N","075000,1,N,1","+0085,1","+0054,1","10321,1","24,0000,9,1",,,"2,1,06,1","2,1,06,1",,"08,99,1,08,1,05,1,00800,1,99,9,99,9",,"999,N,+0085,1","99999,9,10062,1","6,1,004,1,+999,9",,"02,1","SYN088AAXX  09061 01442 31589 83505 10085 20054 30062 40321 56004 70222 885// 333 20085 70000;","Q01  00002PRCP24"
"01442099999","2010-10-09T09:00:00","4","58.6666666","7.8","211.0","BYGLANDSFJORD, NO","FM-12","99999","V020","130,1,N,0030,1","00750,1,9,N","075000,1,N,1","+0088,1","+0044,1","10321,1",,,,"2,1,03,1","2,1,03,1",,"07,99,1,07,1,05,1,00800,1,00,1,00,1",,,"99999,9,10062,1","0,1,000,1,+999,9",,"01,1","SYN072AAXX  09091 01442 41589 71303 10088 20044 30062 40321 50000 70122 87500;",
"01442099999","2010-10-09T12:00:00","4","58.6666666","7.8","211.0","BYGLANDSFJORD, NO","FM-12","99999","V020","340,1,N,0050,1","22000,1,9,N","075000,1,N,1","+0117,1","+0044,1","10302,1",,,,"2,1,06,1","1,1,06,1",,"01,99,1,01,1,01,1,01750,1,00,1,00,1",,,"99999,9,10046,1","8,1,016,1,+999,9",,"01,1","SYN072AAXX  09121 01442 41789 13405 10117 20044 30046 40302 58016 70121 81100;",
"01442099999","2010-10-09T15:00:00","4","58.6666666","7.8","211.0","BYGLANDSFJORD, NO","FM-12","99999","V020","270,1,N,0030,1","22000,1,9,N","075000,1,N,1","+0121,1","+0066,1","10281,1",,,,"0,1,03,1","0,1,03,1","00,1,+99999,9,99,9","00,99,1,00,1,00,1,99999,9,00,1,00,1",,,"99999,9,10026,1","7,1,020,1,+999,9",,"02,1","SYN066AAXX  09151 01442 41989 02703 10121 20066 30026 40281 57020 70200;",
"01442099999","2010-10-09T18:00:00","4","58.6666666","7.8","211.0","BYGLANDSFJORD, NO","FM-12","99999","V020","999,9,C,0000,1","22000,1,9,N","075000,1,N,1","+0058,1","+0044,1","10283,1",,,,"0,1,06,1","0,1,06,1",,"01,99,1,00,1,00,1,99999,9,00,1,01,1",,"999,M,+0123,1","99999,9,10022,1","7,1,004,1,+999,9",,"02,1","SYN082AAXX  09181 01442 31989 10000 10058 20044 30022 40283 57004 70200 80001 333 10123;",
"01442099999","2010-10-10T03:00:00","4","58.6666666","7.8","211.0","BYGLANDSFJORD, NO","FM-12","99999","V020","999,9,C,0000,1","00060,1,9,N","075000,1,N,1","+0038,1","+0038,1","10249,1",,,,"1,1,03,1","1,1,03,1",,"07,99,1,07,1,06,1,00075,1,00,1,00,1",,,"99999,9,09987,1","7,1,018,1,+999,9",,"03,1","SYN072AAXX  10031 01442 41189 70000 10038 20038 39987 40249 57018 70311 87600;",
"01442099999","2010-10-10T06:00:00","4","58.6666666","7.8","211.0","BYGLANDSFJORD, NO","FM-12","99999","V020","330,1,N,0050,1","00120,1,9,N","075000,1,N,1","+0039,1","+0036,1","10238,1","12,0000,9,1","24,0000,9,1",,"2,1,06,1","1,1,06,1",,"08,99,1,08,1,06,1,00150,1,99,9,99,9",,"999,N,+0019,1","99999,9,09977,1","8,1,010,1,+999,9",,"02,1","SYN094AAXX  10061 01442 11289 83305 10039 20036 39977 40238 58010 69912 70221 886// 333 20019 70001;","Q01  00002PRCP24Q02  00002PRCP12"
"01442099999","2010-10-10T09:00:00","4","58.6666666","7.8","211.0","BYGLANDSFJORD, NO","FM-12","99999","V020","340,1,N,0050,1","22000,1,9,N","075000,1,N,1","+0053,1","+0035,1","10231,1",,,,"2,1,03,1","1,1,03,1",,"02,99,1,00,1,00,1,99999,9,00,1,01,1",,,"99999,9,09971,1","6,1,006,1,+999,9",,"01,1","SYN072AAXX  10091 01442 41989 23405 10053 20035 39971 40231 56006 70121 80001;",
"01442099999","2010-10-10T12:00:00","4","58.6666666","7.8","211.0","BYGLANDSFJORD, NO","FM-12","99999","V020","340,1,N,0050,1","99999,9,9,N","075000,1,N,1","+0093,1","+0047,1","10224,1",,,,"2,1,06,1","1,1,06,1",,"07,99,1,00,1,00,1,99999,9,00,1,08,1",,,"99999,9,09967,1","8,1,003,1,+999,9",,"02,1","SYN072AAXX  10121 01442 41989 73405 10093 20047 39967 40224 58003 70221 80008;",
"01442099999","2010-10-10T15:00:00","4","58.6666666","7.8","211.0","BYGLANDSFJORD, NO","FM-12","99999","V020","350,1,N,0030,1","99999,9,9,N","075000,1,N,1","+0124,1","+0044,1","10221,1",,,,"2,1,03,1","2,1,03,1",,"06,99,1,00,1,00,1,99999,9,00,1,08,1",,,"99999,9,09967,1","5,1,000,1,+999,9",,"01,1","SYN072AAXX  10151 01442 41989 63503 10124 20044 39967 40221 55000 70122 80008;",
"01442099999","2010-10-10T18:00:00","4","58.6666666","7.8","211.0","BYGLANDSFJORD, NO","FM-12","99999","V020","999,9,C,0000,1","22000,1,9,N","075000,1,N,1","+0073,1","+0053,1","10234,1",,,,"2,1,06,1","1,1,06,1",,"01,99,1,00,1,00,1,99999,9,00,1,01,1",,"999,M,+0126,1","99999,9,09976,1","3,1,008,1,+999,9",,"01,1","SYN082AAXX  10181 01442 31989 10000 10073 20053 39976 40234 53008 70121 80001 333 10126;",
"01442099999","2010-10-11T03:00:00","4","58.6666666","7.8","211.0","BYGLANDSFJORD, NO","FM-12","99999","V020","999,9,C,0000,1","22000,1,9,N","075000,1,N,1","+0021,1","+0021,1","10242,1",,,,"0,1,03,1","0,1,03,1","00,1,+99999,9,99,9","00,99,1,00,1,00,1,99999,9,00,1,00,1",,,"99999,9,09978,1","8,1,009,1,+999,9",,"02,1","SYN066AAXX  11031 01442 41989 00000 10021 20021 39978 40242 58009 70200;",
"01442099999","2010-10-11T06:00:00","4","58.6666666","7.8","211.0","BYGLANDSFJORD, NO","FM-12","99999","V020","350,1,N,0030,1","00060,1,9,N","075000,1,N,1","+0037,1","+0037,1","10236,1","12,0000,9,1","24,0000,9,1",,"1,1,06,1","0,1,06,1",,"08,99,1,08,1,06,1,00075,1,99,9,99,9",,"999,N,+0022,1","99999,9,09975,1","8,1,004,1,+999,9",,"03,1","SYN094AAXX  11061 01442 11189 83503 10037 20037 39975 40236 58004 69912 70310 886// 333 20022 70001;","Q01  00002PRCP24Q02  00002PRCP12"
"01442099999","2010-10-11T09:00:00","4","58.6666666","7.8","211.0","BYGLANDSFJORD, NO","FM-12","99999","V020","350,1,N,0030,1","00060,1,9,N","075000,1,N,1","+0040,1","+0036,1","10225,1",,,,"2,1,03,1","2,1,03,1",,"08,99,1,08,1,06,1,00075,1,99,9,99,9",,,"99999,9,09963,1","6,1,011,1,+999,9",,"02,1","SYN072AAXX  11091 01442 41189 83503 10040 20036 39963 40225 56011 70222 886//;",
"01442099999","2010-10-11T12:00:00","4","58.6666666","7.8","211.0","BYGLANDSFJORD, NO","FM-12","99999","V020","340,1,N,0030,1","22000,1,9,N","075000,1,N,1","+0062,1","+0039,1","10202,1",,,,"2,1,06,1","1,1,06,1",,"01,99,1,00,1,00,1,99999,9,00,1,01,1",,,"99999,9,09943,1","8,1,020,1,+999,9",,"01,1","SYN072AAXX  11121 01442 41989 13403 10062 20039 39943 40202 58020 70121 80001;",
"01442099999","2010-10-11T15:00:00","4","58.6666666","7.8","211.0","BYGLANDSFJORD, NO","FM-12","99999","V020","340,1,N,0030,1","22000,1,9,N","075000,1,N,1","+0091,1","+0053,1","10183,1",,,,"0,1,03,1","0,1,03,1","00,1,+99999,9,99,9","00,99,1,00,1,00,1,99999,9,00,1,00,1",,,"99999,9,09927,1","6,1,016,1,+999,9",,"02,1","SYN066AAXX  11151 01442 41989 03403 10091 20053 39927 40183 56016 70200;",
"01442099999","2010-10-11T18:00:00","4","58.6666666","7.8","211.0","BYGLANDSFJORD, NO","FM-12","99999","V020","999,9,C,0000,1","22000,1,9,N","075000,1,N,1","+0054,1","+0048,1","10194,1",,,,"0,1,06,1","0,1,06,1","00,1,+99999,9,99,9","00,99,1,00,1,00,1,99999,9,00,1,00,1",,"999,M,+0092,1","99999,9,09935,1","3,1,007,1,+999,9",,"02,1","SYN076AAXX  11181 01442 31989 00000 10054 20048 39935 40194 53007 70200 333 10092;",
"01442099999","2010-10-12T03:00:00","4","58.6666666","7.8","211.0","BYGLANDSFJORD, NO","FM-12","99999","V020","999,9,C,0000,1","22000,1,9,N","075000,1,N,1","+0025,1","+0025,1","10177,1",,,,"0,1,03,1","0,1,03,1","00,1,+99999,9,99,9","00,99,1,00,1,00,1,99999,9,00,1,00,1",,,"99999,9,09916,1","7,1,008,1,+999,9",,"02,1","SYN066AAXX  12031 01442 41989 00000 10025 20025 39916 40177 57008 70200;",
"01442099999","2010-10-12T06:00:00","4","58.6666666","7.8","211.0","BYGLANDSFJORD, NO","FM-12","99999","V020","350,1,N,0050,1","22000,1,9,N","075000,1,N,1","+0040,1","+0039,1","10178,1","24,0000,9,1",,,"0,1,06,1","0,1,06,1",,"01,99,1,00,1,00,1,99999,9,00,1,01,1",,"999,N,+0024,1","99999,9,09917,1","3,1,002,1,+999,9",,"02,1","SYN088AAXX  12061 01442 31989 13505 10040 20039 39917 40178 53002 70200 80001 333 20024 70000;","Q01  00002PRCP24"
"01442099999","2010-10-12T09:00:00","4","58.6666666","7.8","211.0","BYGLANDSFJORD, NO","FM-12","99999","V020","350,1,N,0050,1","22000,1,9,N","075000,1,N,1","+0061,1","+0038,1","10189,1",,,,"0,1,03,1","0,1,03,1",,"01,99,1,00,1,00,1,99999,9,00,1,01,1",,,"99999,9,09931,1","3,1,013,1,+999,9",,"02,1","SYN072AAXX  12091 01442 41989 13505 10061 20038 39931 40189 53013 70200 80001;",
"01442099999","2010-10-12T12:00:00","4","58.6666666","7.8","211.0","BYGLANDSFJORD, NO","FM-12","99999","V020","340,1,N,0030,1","22000,1,9,N","075000,1,N,1","+0108,1","+0038,1","10187,1",,,,"0,1,06,1","0,1,06,1",,"03,99,1,00,1,00,1,99999,9,00,1,02,1",,,"99999,9,09932,1","0,1,002,1,+999,9",,"03,1","SYN072AAXX  12121 01442 41989 33403 10108 20038 39932 40187 50002 70300 80002;",
"01442099999","2010-10-12T15:00:00","4","58.6666666","7.8","211.0","BYGLANDSFJORD, NO","FM-12","99999","V020","150,1,N,0050,1","22000,1,9,N","075000,1,N,1","+0102,1","+0021,1","10187,1",,,,"0,1,03,1","0,1,03,1",,"01,99,1,01,1,00,1,02250,1,03,1,02,1",,,"99999,9,09932,1","5,1,000,1,+999,9",,"01,1","SYN072AAXX  12151 01442 41889 11505 10102 20021 39932 40187 55000 70100 81032;",
"01442099999","2010-10-12T18:00:00","4","58.6666666","7.8","211.0","BYGLANDSFJORD, NO","FM-12","99999","V020","160,1,N,0030,1","22000,1,9,N","075000,1,N,1","+0051,1","+0030,1","10199,1",,,,"0,1,06,1","0,1,06,1","00,1,+99999,9,99,9","00,99,1,00,1,00,1,99999,9,00,1,00,1",,"999,M,+0122,1","99999,9,09940,1","3,1,007,1,+999,9",,"02,1","SYN076AAXX  12181 01442 31989 01603 10051 20030 39940 40199 53007 70200 333 10122;",
"01442099999","2010-10-13T03:00:00","4","58.6666666","7.8","211.0","BYGLANDSFJORD, NO","FM-12","99999","V020","120,1,N,0030,1","22000,1,9,N","000100,1,N,1","+0003,1","+0003,1","10201,1",,,,"4,1,03,1","0,1,03,1","00,1,+99999,9,99,9","00,99,1,00,1,00,1,99999,9,00,1,00,1",,,"99999,9,09937,1","8,1,009,1,+999,9",,"46,1","SYN066AAXX  13031 01442 41901 01203 10003 20003 39937 40201 58009 74640;",
"01442099999","2010-10-13T06:00:00","4","58.6666666","7.8","211.0","BYGLANDSFJORD, NO","FM-12","99999","V020","150,1,N,0010,1","00015,1,9,N","000100,1,N,1","-0001,1","-0001,1","10188,1","24,0000,9,1",,,"4,1,06,1","0,1,06,1","09,1,+99999,9,99,9","09,99,1,09,1,99,9,99999,9,99,9,99,9",,"999,N,-0003,1","99999,9,09925,1","8,1,013,1,+999,9",,"45,1","SYN082AAXX  13061 01442 31/01 91501 11001 21001 39925 40188 58013 74540 333 21003 70000;","Q01  00002PRCP24"
"01442099999","2010-10-13T09:00:00","4","58.6666666","7.8","211.0","BYGLANDSFJORD, NO","FM-12","99999","V020","130,1,N,0030,1","00060,1,9,N","060000,1,N,1","+0028,1","+0028,1","10173,1",,,,"4,1,03,1","2,1,03,1",,"08,99,1,08,1,06,1,00075,1,99,9,99,9",,,"99999,9,09912,1","8,1,013,1,+999,9",,"28,1","SYN072AAXX  13091 01442 41186 81303 10028 20028 39912 40173 58013 72842 886//;",
"01442099999","2010-10-13T12:00:00","4","58.6666666","7.8","211.0","BYGLANDSFJORD, NO","FM-12","99999","V020","310,1,N,0030,1","02100,1,9,N","075000,1,N,1","+0064,1","+0036,1","10149,1",,,,"4,1,06,1","2,1,06,1",,"07,99,1,07,1,00,1,02250,1,03,1,02,1",,,"99999,9,09892,1","8,1,020,1,+999,9",,"03,1","SYN072AAXX  13121 01442 41889 73103 10064 20036 39892 40149 58020 70342 87032;",
"01442099999","2010-10-13T15:00:00","4","58.6666666","7.8","211.0","BYGLANDSFJORD, NO","FM-12","99999","V020","310,1,N,0030,1","01500,1,9,N","075000,1,N,1","+0086,1","+0044,1","10128,1",,,,"2,1,03,1","2,1,03,1",,"08,99,1,08,1,00,1,01750,1,07,1,99,9",,,"99999,9,09873,1","7,1,018,1,+999,9",,"03,1","SYN072AAXX  13151 01442 41789 83103 10086 20044 39873 40128 57018 70322 8807/;",
"01442099999","2010-10-13T18:00:00","4","58.6666666","7.8","211.0","BYGLANDSFJORD, NO","FM-12","99999","V020","320,1,N,0030,1","01500,1,9,N","075000,1,N,1","+0083,1","+0038,1","10121,1",,,,"2,1,06,1","2,1,06,1",,"08,99,1,07,1,00,1,01750,1,07,1,02,1",,"999,M,+0089,1","99999,9,09867,1","5,1,007,1,+999,9",,"02,1","SYN082AAXX  13181 01442 31789 83203 10083 20038 39867 40121 55007 70222 87072 333 10089;",
"01442099999","2010-10-14T03:00:00","4","58.6666666","7.8","211.0","BYGLANDSFJORD, NO","FM-12","99999","V020","150,1,N,0030,1","22000,1,9,N","075000,1,N,1","+0032,1","+0022,1","10102,1",,,,"0,1,03,1","0,1,03,1","00,1,+99999,9,99,9","00,99,1,00,1,00,1,99999,9,00,1,00,1",,,"99999,9,09843,1","8,1,007,1,+999,9",,"02,1","SYN066AAXX  14031 01442 41989 01503 10032 20022 39843 40102 58007 70200;",
"01442099999","2010-10-14T06:00:00","4","58.6666666","7.8","211.0","BYGLANDSFJORD, NO","FM-12","99999","V020","999,9,C,0000,1","22000,1,9,N","075000,1,N,1","+0043,1","+0034,1","10092,1","24,0000,9,1",,,"0,1,06,1","0,1,06,1",,"03,99,1,01,1,01,1,00800,1,00,1,02,1",,"999,N,+0028,1","99999,9,09835,1","6,1,009,1,+999,9",,"03,1","SYN088AAXX  14061 01442 31589 30000 10043 20034 39835 40092 56009 70300 81102 333 20028 70000;","Q01  00002PRCP24"
"01442099999","2010-10-14T09:00:00","4","58.6666666","7.8","211.0","BYGLANDSFJORD, NO","FM-12","99999","V020","030,1,N,0070,1","99999,9,9,N","075000,1,N,1","+0102,1","+0035,1","10096,1",,,,"1,1,03,1","0,1,03,1",,"07,99,1,01,1,00,1,99999,9,04,1,08,1",,,"99999,9,09843,1","3,1,009,1,+999,9",,"03,1","SYN072AAXX  14091 01442 41989 70307 10102 20035 39843 40096 53009 70310 81048;",
"01442099999","2010-10-14T12:00:00","4","58.6666666","7.8","211.0","BYGLANDSFJORD, NO","FM-12","99999","V020","320,1,N,0050,1","02100,1,9,N","075000,1,N,1","+0108,1","+0026,1","10101,1",,,,"2,1,06,1","1,1,06,1",,"07,99,1,05,1,00,1,02250,1,07,1,08,1",,,"99999,9,09848,1","2,1,005,1,+999,9",,"03,1","SYN072AAXX  14121 01442 41889 73205 10108 20026 39848 40101 52005 70321 85078;",
"01442099999","2010-10-14T15:00:00","4","58.6666666","7.8","211.0","BYGLANDSFJORD, NO","FM-12","99999","V020","310,1,N,0030,1","22000,1,9,N","075000,1,N,1","+0102,1","+0021,1","10103,1",,,,"1,1,03,1","1,1,03,1",,"03,99,1,01,1,01,1,01250,1,03,1,09,1",,,"99999,9,09851,1","0,1,002,1,+999,9",,"01,1","SYN072AAXX  14151 01442 41689 33103 10102 20021 39851 40103 50002 70111 81139;",
"01442099999","2010-10-14T18:00:00","4","58.6666666","7.8","211.0","BYGLANDSFJORD, NO","FM-12","99999","V020","330,1,N,0050,1","22000,1,9,N","075000,1,N,1","+0078,1","+0005,1","10113,1",,,,"1,1,06,1","1,1,06,1","00,1,+99999,9,99,9","00,99,1,00,1,00,1,99999,9,00,1,00,1",,"999,M,+0112,1","99999,9,09857,1","3,1,007,1,+999,9",,"01,1","SYN076AAXX  14181 01442 31989 03305 10078 20005 39857 40113 53007 70111 333 10112;",
"01442099999","2010-10-15T03:00:00","4","58.6666666","7.8","211.0","BYGLANDSFJORD, NO","FM-12","99999","V020","999,9,C,0000,1","01500,1,9,N","075000,1,N,1","+0024,1","+0017,1","10127,1",,,,"1,1,03,1","1,1,03,1",,"08,99,1,08,1,00,1,01750,1,07,1,99,9",,,"99999,9,09867,1","8,1,005,1,+999,9",,"03,1","SYN072AAXX  15031 01442 41789 80000 10024 20017 39867 40127 58005 70311 8807/;",
"01442099999","2010-10-15T06:00:00","4","58.6666666","7.8","211.0","BYGLANDSFJORD, NO","FM-12","99999","V020","120,1,N,0010,1","01500,1,9,N","075000,1,N,1","+0024,1","+0023,1","10118,1","24,0000,9,1",,,"2,1,06,1","1,1,06,1",,"08,99,1,08,1,00,1,01750,1,07,1,99,9",,"999,N,+0015,1","99999,9,09857,1","8,1,009,1,+999,9",,"03,1","SYN088AAXX  15061 01442 31789 81201 10024 20023 39857 40118 58009 70321 8807/ 333 20015 70000;","Q01  00002PRCP24"
"01442099999","2010-10-15T09:00:00","4","58.6666666","7.8","211.0","BYGLANDSFJORD, NO","FM-12","99999","V020","130,1,N,0030,1","01200,1,9,N","075000,1,N,1","+0046,1","+0008,1","10119,1",,,,"6,1,03,1","2,1,03,1",,"08,99,1,08,1,05,1,01250,1,99,9,99,9",,,"99999,9,09861,1","0,1,003,1,+999,9",,"21,1","SYN072AAXX  15091 01442 41689 81303 10046 20008 39861 40119 50003 72162 885//;",
"01442099999","2010-10-15T12:00:00","4","58.6666666","7.8","211.0","BYGLANDSFJORD, NO","FM-12","99999","V020","150,1,N,0010,1","03000,1,9,N","075000,1,N,1","+0047,1","+0014,1","10116,1",,,,"6,1,06,1","2,1,06,1",,"08,99,1,01,1,01,1,00800,1,07,1,99,9",,,"99999,9,09858,1","7,1,003,1,+999,9",,"02,1","SYN072AAXX  15121 01442 41589 81501 10047 20014 39858 40116 57003 70262 8117/;",
"01442099999","2010-10-15T15:00:00","4","58.6666666","7.8","211.0","BYGLANDSFJORD, NO","FM-12","99999","V020","160,1,N,0030,1","03000,1,9,N","075000,1,N,1","+0058,1","-0007,1","10115,1",,,,"2,1,03,1","2,1,03,1",,"07,99,1,01,1,01,1,00800,1,07,1,00,1",,,"99999,9,09858,1","4,1,000,1,+999,9",,"01,1","SYN072AAXX  15151 01442 41589 71603 10058 21007 39858 40115 54000 70122 81170;",
"01442099999","2010-10-15T18:00:00","4","58.6666666","7.8","211.0","BYGLANDSFJORD, NO","FM-12","99999","V020","999,9,C,0000,1","22000,1,9,N","075000,1,N,1","+0013,1","-0006,1","10136,1","12,0000,2,1",,,"2,1,06,1","1,1,06,1","00,1,+99999,9,99,9","00,99,1,00,1,00,1,99999,9,00,1,00,1",,"999,M,+0058,1","99999,9,09875,1","3,1,016,1,+999,9",,"01,1","SYN082AAXX  15181 01442 11989 00000 10013 21006 39875 40136 53016 69912 70121 333 10058;",
"01442099999","2010-10-16T03:00:00","4","58.6666666","7.8","211.0","BYGLANDSFJORD, NO","FM-12","99999","V020","330,1,N,0030,1","22000,1,9,N","075000,1,N,1","+0005,1","-0011,1","10200,1",,,,"0,1,03,1","0,1,03,1","00,1,+99999,9,99,9","00,99,1,00,1,00,1,99999,9,00,1,00,1",,,"99999,9,09937,1","2,1,016,1,+999,9",,"02,1","SYN066AAXX  16031 01442 41989 03303 10005 21011 39937 40200 52016 70200;",
"01442099999","2010-10-16T06:00:00","4","58.6666666","7.8","211.0","BYGLANDSFJORD, NO","FM-12","99999","V020","999,9,C,0000,1","22000,1,9,N","075000,1,N,1","-0018,1","-0023,1","10218,1","24,0000,2,1",,,"0,1,06,1","0,1,06,1","00,1,+99999,9,99,9","00,99,1,00,1,00,1,99999,9,00,1,00,1",,"999,N,-0018,1","99999,9,09953,1","2,1,017,1,+999,9",,"02,1","SYN082AAXX  16061 01442 31989 00000 11018 21023 39953 40218 52017 70200 333 21018 70001;",
"01442099999","2010-10-16T09:00:00","4","58.6666666","7.8","211.0","BYGLANDSFJORD, NO","FM-12","99999","V020","350,1,N,0030,1","22000,1,9,N","075000,1,N,1","+0019,1","-0024,1","10233,1",,,,"0,1,03,1","0,1,03,1","00,1,+99999,9,99,9","00,99,1,00,1,00,1,99999,9,00,1,00,1",,,"99999,9,09970,1","1,1,016,1,+999,9",,"02,1","SYN066AAXX  16091 01442 41989 03503 10019 21024 39970 40233 51016 70200;",
"01442099999","2010-10-16T12:00:00","4","58.6666666","7.8","211.0","BYGLANDSFJORD, NO","FM-12","99999","V020","150,1,N,0030,1","22000,1,9,N","075000,1,N,1","+0065,1","-0026,1","10221,1",,,,"0,1,06,1","0,1,06,1",,"01,99,1,01,1,01,1,01750,1,00,1,01,1",,,"99999,9,09962,1","7,1,007,1,+999,9",,"03,1","SYN072AAXX  16121 01442 41789 11503 10065 21026 39962 40221 57007 70300 81101;",
"01442099999","2010-10-16T15:00:00","4","58.6666666","7.8","211.0","BYGLANDSFJORD, NO","FM-12","99999","V020","350,1,N,0070,1","03000,1,9,N","075000,1,N,1","+0077,1","+0000,1","10216,1",,,,"1,1,03,1","0,1,03,1",,"06,99,1,01,1,01,1,01250,1,03,1,01,1",,,"99999,9,09958,1","5,1,004,1,+999,9",,"03,1","SYN072AAXX  16151 01442 41689 63507 10077 21000 39958 40216 55004 70310 81131;",
"01442099999","2010-10-16T18:00:00","4","58.6666666","7.8","211.0","BYGLANDSFJORD, NO","FM-12","99999","V020","120,1,N,0030,1","07500,1,9,N","075000,1,N,1","+0050,1","+0010,1","10227,1",,,,"1,1,06,1","0,1,06,1",,"05,99,1,01,1,01,1,01250,1,03,1,01,1",,"999,M,+0079,1","99999,9,09967,1","2,1,008,1,+999,9",,"01,1","SYN082AAXX  16181 01442 31689 51203 10050 20010 39967 40227 52008 70110 81131 333 10079;",
"01442099999","2010-10-17T03:00:00","4","58.6666666","7.8","211.0","BYGLANDSFJORD, NO","FM-12","99999","V020","999,9,C,0000,1","22000,1,9,N","075000,1,N,1","+0009,1","-0002,1","10237,1",,,,"0,1,03,1","0,1,03,1","00,1,+99999,9,99,9","00,99,1,00,1,00,1,99999,9,00,1,00,1",,,"99999,9,09972,1","2,1,003,1,+999,9",,"02,1","SYN066AAXX  17031 01442 41989 00000 10009 21002 39972 40237 52003 70200;",
"01442099999","2010-10-17T06:00:00","4","58.6666666","7.8","211.0","BYGLANDSFJORD, NO","FM-12","99999","V020","310,1,N,0030,1","22000,1,9,N","075000,1,N,1","+0000,1","-0009,1","10234,1","24,0000,9,1",,,"0,1,06,1","0,1,06,1","00,1,+99999,9,99,9","00,99,1,00,1,00,1,99999,9,00,1,00,1",,"999,N,+0000,1","99999,9,09970,1","7,1,003,1,+999,9",,"02,1","SYN082AAXX  17061 01442 31989 03103 10000 21009 39970 40234 57003 70200 333 20000 70000;","Q01  00002PRCP24"
"01442099999","2010-10-17T09:00:00","4","58.6666666","7.8","211.0","BYGLANDSFJORD, NO","FM-12","99999","V020","340,1,N,0030,1","22000,1,9,N","075000,1,N,1","+0027,1","-0007,1","10227,1",,,,"0,1,03,1","0,1,03,1",,"01,99,1,00,1,00,1,99999,9,00,1,01,1",,,"99999,9,09965,1","7,1,005,1,+999,9",,"02,1","SYN072AAXX  17091 01442 41989 13403 10027 21007 39965 40227 57005 70200 80001;",
"01442099999","2010-10-17T12:00:00","4","58.6666666","7.8","211.0","BYGLANDSFJORD, NO","FM-12","99999","V020","340,1,N,0030,1","22000,1,9,N","075000,1,N,1","+0064,1","-0001,1","10207,1",,,,"0,1,06,1","0,1,06,1",,"02,99,1,00,1,00,1,99999,9,00,1,01,1",,,"99999,9,09948,1","8,1,016,1,+999,9",,"02,1","SYN072AAXX  17121 01442 41989 23403 10064 21001 39948 40207 58016 70200 80001;",
"01442099999","2010-10-17T15:00:00","4","58.6666666","7.8","211.0","BYGLANDSFJORD, NO","FM-12","99999","V020","150,1,N,0030,1","22000,1,9,N","075000,1,N,1","+0088,1","-0024,1","10182,1",,,,"0,1,03,1","0,1,03,1",,"01,99,1,00,1,00,1,99999,9,00,1,01,1",,,"99999,9,09927,1","7,1,022,1,+999,9",,"02,1","SYN072AAXX  17151 01442 41989 11503 10088 21024 39927 40182 57022 70200 80001;",
"01442099999","2010-10-17T18:00:00","4","58.6666666","7.8","211.0","BYGLANDSFJORD, NO","FM-12","99999","V020","150,1,N,0030,1","22000,1,9,N","075000,1,N,1","+0036,1","-0017,1","10184,1",,,,"0,1,06,1","0,1,06,1",,"01,99,1,01,1,00,1,01750,1,03,1,01,1",,"999,M,+0089,1","99999,9,09923,1","5,1,003,1,+999,9",,"03,1","SYN082AAXX  17181 01442 31789 11503 10036 21017 39923 40184 55003 70300 81031 333 10089;",
"01442099999","2010-10-18T03:00:00","4","58.6666666","7.8","211.0","BYGLANDSFJORD, NO","FM-12","99999","V020","150,1,N,0030,1","00210,1,9,N","005000,1,N,1","+0066,1","+0060,1","10104,1",,,,"5,1,03,1","2,1,03,1",,"08,99,1,08,1,06,1,00250,1,99,9,99,9",,,"99999,9,09848,1","8,1,033,1,+999,9",,"51,1","SYN072AAXX  18031 01442 41350 81503 10066 20060 39848 40104 58033 75152 886//;",
"01442099999","2010-10-18T06:00:00","4","58.6666666","7.8","211.0","BYGLANDSFJORD, NO","FM-12","99999","V020","190,1,N,0030,1","00120,1,9,N","005000,1,N,1","+0078,1","+0077,1","10072,1","12,0020,9,1","24,0020,9,1",,"6,1,06,1","5,1,06,1",,"08,99,1,08,1,06,1,00150,1,99,9,99,9",,"999,N,+0035,1","99999,9,09818,1","6,1,030,1,+999,9",,"63,1","SYN094AAXX  18061 01442 11250 81903 10078 20077 39818 40072 56030 60022 76365 886// 333 20035 70020;",
"01442099999","2010-10-18T09:00:00","4","58.6666666","7.8","211.0","BYGLANDSFJORD, NO","FM-12","99999","V020","150,1,N,0030,1","00420,1,9,N","070000,1,N,1","+0081,1","+0077,1","10057,1",,,,"6,1,03,1","2,1,03,1",,"08,99,1,08,1,05,1,00450,1,99,9,99,9",,,"99999,9,09803,1","7,1,015,1,+999,9",,"21,1","SYN072AAXX  18091 01442 41488 81503 10081 20077 39803 40057 57015 72162 885//;",
"01442099999","2010-10-18T12:00:00","4","58.6666666","7.8","211.0","BYGLANDSFJORD, NO","FM-12","99999","V020","150,1,N,0050,1","00750,1,9,N","040000,1,N,1","+0090,1","+0075,1","10037,1",,,,"6,1,06,1","2,1,06,1",,"07,99,1,07,1,09,1,00800,1,00,1,00,1",,,"99999,9,09785,1","8,1,019,1,+999,9",,"80,1","SYN072AAXX  18121 01442 41582 71505 10090 20075 39785 40037 58019 78062 87900;",
"01442099999","2010-10-18T15:00:00","4","58.6666666","7.8","211.0","BYGLANDSFJORD, NO","FM-12","99999","V020","160,1,N,0030,1","00750,1,9,N","025000,1,N,1","+0080,1","+0069,1","10014,1",,,,"8,1,03,1","2,1,03,1",,"08,99,1,08,1,09,1,00800,1,99,9,99,9",,,"99999,9,09762,1","7,1,023,1,+999,9",,"80,1","SYN072AAXX  18151 01442 41575 81603 10080 20069 39762 40014 57023 78082 889//;",
"01442099999","2010-10-18T18:00:00","4","58.6666666","7.8","211.0","BYGLANDSFJORD, NO","FM-12","99999","V020","140,1,N,0030,1","00750,1,9,N","070000,1,N,1","+0067,1","+0057,1","09993,1","12,0079,9,1",,,"8,1,06,1","2,1,06,1",,"08,99,1,08,1,09,1,00800,1,99,9,99,9",,"999,M,+0099,1","99999,9,09741,1","6,1,021,1,+999,9",,"25,1","SYN088AAXX  18181 01442 11588 81403 10067 20057 39741 49993 56021 60082 72582 889// 333 10099;",
"01442099999","2010-10-19T03:00:00","4","58.6666666","7.8","211.0","BYGLANDSFJORD, NO","FM-12","99999","V020","150,1,N,0030,1","00060,1,9,N","070000,1,N,1","+0032,1","+0032,1","09956,1",,,,"2,1,03,1","2,1,03,1",,"08,99,1,08,1,06,1,00075,1,99,9,99,9",,,"99999,9,09701,1","8,1,013,1,+999,9",,"02,1","SYN072AAXX  19031 01442 41188 81503 10032 20032 39701 49956 58013 70222 886//;",
"01442099999","2010-10-19T06:00:00","4","58.6666666","7.8","211.0","BYGLANDSFJORD, NO","FM-12","99999","V020","999,9,C,0000,1","00015,1,9,N","000100,1,N,1","+0022,1","+0022,1","09949,1","12,0005,9,1","24,0086,9,1",,"4,1,06,1","2,1,06,1","09,1,+99999,9,99,9","09,99,1,09,1,99,9,99999,9,99,9,99,9",,"999,N,+0022,1","99999,9,09693,1","7,1,007,1,+999,9",,"45,1","SYN088AAXX  19061 01442 11/01 90000 10022 20022 39693 49949 57007 69952 74542 333 20022 70086;",
"01442099999","2010-10-19T09:00:00","4","58.6666666","7.8","211.0","BYGLANDSFJORD, NO","FM-12","99999","V020","320,1,N,0030,1","00120,1,9,N","075000,1,N,1","+0040,1","+0040,1","09946,1",,,,"4,1,03,1","2,1,03,1",,"05,99,1,05,1,06,1,00150,1,00,1,01,1",,,"99999,9,09692,1","7,1,002,1,+999,9",,"28,1","SYN072AAXX  19091 01442 41289 53203 10040 20040 39692 49946 57002 72842 85601;",
"01442099999","2010-10-19T15:00:00","4","58.6666666","7.8","211.0","BYGLANDSFJORD, NO","FM-12","99999","V020","330,1,N,0030,1","22000,1,9,N","075000,1,N,1","+0081,1","+0032,1","09924,1",,,,"0,1,03,1","0,1,03,1",,"01,99,1,01,1,01,1,01250,1,00,1,01,1",,,"99999,9,09675,1","7,1,008,1,+999,9",,"01,1","SYN072AAXX  19151 01442 41689 13303 10081 20032 39675 49924 57008 70100 81101;",
"01442099999","2010-10-19T18:00:00","4","58.6666666","7.8","211.0","BYGLANDSFJORD, NO","FM-12","99999","V020","340,1,N,0010,1","22000,1,9,N","075000,1,N,1","+0042,1","+0016,1","09938,1",,,,"0,1,06,1","0,1,06,1","00,1,+99999,9,99,9","00,99,1,00,1,00,1,99999,9,00,1,00,1",,"999,M,+0090,1","99999,9,09685,1","3,1,010,1,+999,9",,"01,1","SYN076AAXX  19181 01442 31989 03401 10042 20016 39685 49938 53010 70100 333 10090;",
"01442099999","2010-10-20T03:00:00","4","58.6666666","7.8","211.0","BYGLANDSFJORD, NO","FM-12","99999","V020","340,1,N,0050,1","01500,1,9,N","075000,1,N,1","+0047,1","-0005,1","09984,1",,,,"2,1,03,1","2,1,03,1",,"08,99,1,08,1,00,1,01750,1,02,1,99,9",,,"99999,9,09730,1","2,1,019,1,+999,9",,"03,1","SYN072AAXX  20031 01442 41789 83405 10047 21005 39730 49984 52019 70322 8802/;",
"01442099999","2010-10-20T06:00:00","4","58.6666666","7.8","211.0","BYGLANDSFJORD, NO","FM-12","99999","V020","340,1,N,0030,1","03000,1,9,N","015000,1,N,1","+0020,1","-0007,1","10016,1","12,9999,9,9","24,0003,9,1",,"7,1,06,1","2,1,06,1",,"08,99,1,02,1,07,1,00800,1,02,1,99,9",,"999,N,+0020,1","99999,9,09758,1","3,1,029,1,+999,9",,"70,1","SYN094AAXX  20061 01442 11565 83403 10020 21007 39758 40016 53029 69922 77072 8272/ 333 20020 70002;","Q01  00002PRCP12Q02  00002PRCP12"
"01442099999","2010-10-20T09:00:00","4","58.6666666","7.8","211.0","BYGLANDSFJORD, NO","FM-12","99999","V020","340,1,N,0050,1","07500,1,9,N","075000,1,N,1","+0027,1","-0016,1","10039,1",,,,"7,1,03,1","1,1,03,1",,"05,99,1,01,1,01,1,00800,1,03,1,01,1",,,"99999,9,09782,1","1,1,023,1,+999,9",,"03,1","SYN072AAXX  20091 01442 41589 53405 10027 21016 39782 40039 51023 70371 81131;",
"01442099999","2010-10-20T12:00:00","4","58.6666666","7.8","211.0","BYGLANDSFJORD, NO","FM-12","99999","V020","330,1,N,0050,1","22000,1,9,N","075000,1,N,1","+0052,1","-0051,1","10048,1",,,,"7,1,06,1","1,1,06,1",,"01,99,1,01,1,01,1,01250,1,00,1,01,1",,,"99999,9,09792,1","2,1,011,1,+999,9",,"01,1","SYN072AAXX  20121 01442 41689 13305 10052 21051 39792 40048 52011 70171 81101;",
"01442099999","2010-10-20T15:00:00","4","58.6666666","7.8","211.0","BYGLANDSFJORD, NO","FM-12","99999","V020","340,1,N,0070,1","22000,1,9,N","075000,1,N,1","+0041,1","-0056,1","10056,1",,,,"0,1,03,1","0,1,03,1","00,1,+99999,9,99,9","00,99,1,00,1,00,1,99999,9,00,1,00,1",,,"99999,9,09800,1","3,1,007,1,+999,9",,"02,1","SYN066AAXX  20151 01442 41989 03407 10041 21056 39800 40056 53007 70200;",
"01442099999","2010-10-20T18:00:00","4","58.6666666","7.8","211.0","BYGLANDSFJORD, NO","FM-12","99999","V020","999,9,C,0000,1","22000,1,9,N","075000,1,N,1","-0001,1","-0042,1","10073,1","12,0000,2,1",,,"0,1,06,1","0,1,06,1","00,1,+99999,9,99,9","00,99,1,00,1,00,1,99999,9,00,1,00,1",,"999,M,+0054,1","99999,9,09812,1","3,1,013,1,+999,9",,"02,1","SYN082AAXX  20181 01442 11989 00000 11001 21042 39812 40073 53013 69902 70200 333 10054;",
"01442099999","2010-10-21T03:00:00","4","58.6666666","7.8","211.0","BYGLANDSFJORD, NO","FM-12","99999","V020","999,9,C,0000,1","22000,1,9,N","075000,1,N,1","-0036,1","-0036,1","10081,1",,,,"0,1,03,1","0,1,03,1","00,1,+99999,9,99,9","00,99,1,00,1,00,1,99999,9,00,1,00,1",,,"99999,9,09820,1","4,1,000,1,+999,9",,"02,1","SYN066AAXX  21031 01442 41989 00000 11036 21036 39820 40081 54000 70200;",
"01442099999","2010-10-21T06:00:00","4","58.6666666","7.8","211.0","BYGLANDSFJORD, NO","FM-12","99999","V020","150,1,N,0010,1","22000,1,9,N","075000,1,N,1","-0044,1","-0044,1","10079,1","24,0000,2,1",,,"0,1,06,1","0,1,06,1",,"02,99,1,02,1,06,1,00075,1,00,1,00,1",,"999,N,-0044,1","99999,9,09817,1","8,1,002,1,+999,9",,"03,1","SYN088AAXX  21061 01442 31189 21501 11044 21044 39817 40079 58002 70300 82600 333 21044 79999;",
"01442099999","2010-10-21T09:00:00","4","58.6666666","7.8","211.0","BYGLANDSFJORD, NO","FM-12","99999","V020","120,1,N,0030,1","22000,1,9,N","075000,1,N,1","-0022,1","-0032,1","10062,1",,,,"0,1,03,1","0,1,03,1",,"01,99,1,00,1,00,1,99999,9,00,1,01,1",,,"99999,9,09802,1","8,1,006,1,+999,9",,"02,1","SYN072AAXX  21091 01442 41989 11203 11022 21032 39802 40062 58006 70200 80001;",
"01442099999","2010-10-21T12:00:00","4","58.6666666","7.8","211.0","BYGLANDSFJORD, NO","FM-12","99999","V020","999,9,9,9999,9","99999,9,9,N","999999,9,N,1","-0004,1","-0017,1","99999,9",,,,,,,,,,,,,,"SYN066AAXX  21121 01442 41X10 91103 11004 21017 39777 40036 58035 77321;",
"01442099999","2010-10-21T15:00:00","4","58.6666666","7.8","211.0","BYGLANDSFJORD, NO","FM-12","99999","V020","310,1,N,0050,1","00030,1,9,N","000200,1,N,1","+0002,1","+0002,1","09998,1",,,,"7,1,03,1","7,1,03,1","09,1,+99999,9,99,9","09,99,1,09,1,99,9,99999,9,99,9,99,9",,,"99999,9,09740,1","6,1,037,1,+999,9",,"75,1","SYN066AAXX  21151 01442 41/02 93105 10002 20002 39740 49998 56037 77577;",
"01442099999","2010-10-21T18:00:00","4","58.6666666","7.8","211.0","BYGLANDSFJORD, NO","FM-12","99999","V020","999,9,C,0000,1","22000,1,9,N","075000,1,N,1","-0015,1","-0017,1","09997,1","12,0109,9,1",,,"7,1,06,1","1,1,06,1",,"01,99,1,01,1,01,1,01250,1,00,1,00,1",,"999,M,+0003,1","99999,9,09738,1","5,1,001,1,+999,9",,"01,1","SYN088AAXX  21181 01442 11689 10000 11015 21017 39738 49997 55001 60112 70171 81100 333 10003;",
"01442099999","2010-10-22T03:00:00","4","58.6666666","7.8","211.0","BYGLANDSFJORD, NO","FM-12","99999","V020","999,9,C,0000,1","22000,1,9,N","075000,1,N,1","-0008,1","-0008,1","09980,1",,,,"1,1,03,1","1,1,03,1",,"03,99,1,00,1,00,1,99999,9,00,1,02,1",,,"99999,9,09722,1","5,1,011,1,+999,9",,"01,1","SYN072AAXX  22031 01442 41989 30000 11008 21008 39722 49980 55011 70111 80002;",
"01442099999","2010-10-22T06:00:00","4","58.6666666","7.8","211.0","BYGLANDSFJORD, NO","FM-12","99999","V020","320,1,N,0030,1","22000,1,9,N","075000,1,N,1","-0013,1","-0019,1","10016,1","12,0030,9,1","24,0142,9,1","0018,9,1,999999,9,9","1,1,06,1","0,1,06,1","00,1,+99999,9,99,9","00,99,1,00,1,00,1,99999,9,00,1,00,1","23,9","999,N,-0034,1","99999,9,09757,1","3,1,035,1,+999,9",,"02,1","SYN094AAXX  22061 01442 11989 03203 11013 21019 39757 40016 53035 60032 70210 333 21034 47018 70141;",
"01442099999","2010-10-22T09:00:00","4","58.6666666","7.8","211.0","BYGLANDSFJORD, NO","FM-12","99999","V020","150,1,N,0030,1","22000,1,9,N","075000,1,N,1","-0003,1","-0021,1","10048,1",,,,"0,1,03,1","0,1,03,1",,"01,99,1,00,1,00,1,99999,9,00,1,01,1",,,"99999,9,09788,1","1,1,032,1,+999,9",,"02,1","SYN072AAXX  22091 01442 41989 11503 11003 21021 39788 40048 51032 70200 80001;",
"01442099999","2010-10-22T12:00:00","4","58.6666666","7.8","211.0","BYGLANDSFJORD, NO","FM-12","99999","V020","170,1,N,0050,1","07500,1,9,N","075000,1,N,1","+0043,1","+0008,1","10049,1",,,,"1,1,06,1","0,1,06,1",,"06,99,1,01,1,01,1,01250,1,00,1,02,1",,,"99999,9,09792,1","2,1,004,1,+999,9",,"03,1","SYN072AAXX  22121 01442 41689 61705 10043 20008 39792 40049 52004 70310 81102;",
"01442099999","2010-10-22T15:00:00","4","58.6666666","7.8","211.0","BYGLANDSFJORD, NO","FM-12","99999","V020","120,1,N,0030,1","07500,1,9,N","075000,1,N,1","+0033,1","+0010,1","10048,1",,,,"2,1,03,1","2,1,03,1",,"07,99,1,01,1,01,1,01250,1,00,1,08,1",,,"99999,9,09791,1","8,1,002,1,+999,9",,"02,1","SYN072AAXX  22151 01442 41689 71203 10033 20010 39791 40048 58002 70222 81108;",
"01442099999","2010-10-22T18:00:00","4","58.6666666","7.8","211.0","BYGLANDSFJORD, NO","FM-12","99999","V020","150,1,N,0030,1","99999,9,9,N","075000,1,N,1","+0009,1","+0006,1","10045,1",,,,"2,1,06,1","2,1,06,1",,"06,99,1,00,1,00,1,99999,9,00,1,08,1",,"999,M,+0048,1","99999,9,09786,1","7,1,005,1,+999,9",,"01,1","SYN082AAXX  22181 01442 31989 61503 10009 20006 39786 40045 57005 70122 80008 333 10048;",
"01442099999","2010-10-23T03:00:00","4","58.6666666","7.8","211.0","BYGLANDSFJORD, NO","FM-12","99999","V020","999,9,C,0000,1","00030,1,9,N","000200,1,N,1","-0002,1","-0004,1","10018,1",,,,"4,1,03,1","2,1,03,1","09,1,+99999,9,99,9","09,99,1,09,1,99,9,99999,9,99,9,99,9",,,"99999,9,09760,1","8,1,007,1,+999,9",,"47,1","SYN066AAXX  23031 01442 41/02 90000 11002 21004 39760 40018 58007 74742;",
"01442099999","2010-10-23T06:00:00","4","58.6666666","7.8","211.0","BYGLANDSFJORD, NO","FM-12","99999","V020","330,1,N,0010,1","00030,1,9,N","075000,1,N,1","+0003,1","+0000,1","10014,1","24,0000,9,1",,"0011,9,1,999999,9,9","4,1,06,1","2,1,06,1",,"08,99,1,08,1,06,1,00025,1,99,9,99,9","28,9","999,N,-0009,1","99999,9,09756,1","7,1,004,1,+999,9",,"28,1","SYN094AAXX  23061 01442 31089 83301 10003 20000 39756 40014 57004 72842 886// 333 21009 44011 70000;","Q01  00002PRCP24"
"01442099999","2010-10-23T09:00:00","4","58.6666666","7.8","211.0","BYGLANDSFJORD, NO","FM-12","99999","V020","330,1,N,0050,1","00060,1,9,N","070000,1,N,1","+0004,1","-0004,1","10014,1",,,,"2,1,03,1","2,1,03,1",,"08,99,1,08,1,06,1,00075,1,99,9,99,9",,,"99999,9,09756,1","5,1,000,1,+999,9",,"01,1","SYN072AAXX  23091 01442 41188 83305 10004 21004 39756 40014 55000 70122 886//;",
"01442099999","2010-10-23T12:00:00","4","58.6666666","7.8","211.0","BYGLANDSFJORD, NO","FM-12","99999","V020","330,1,N,0070,1","03000,1,9,N","070000,1,N,1","+0022,1","+0000,1","10003,1",,,,"2,1,06,1","2,1,06,1",,"07,99,1,01,1,06,1,00450,1,07,1,00,1",,,"99999,9,09746,1","8,1,010,1,+999,9",,"03,1","SYN072AAXX  23121 01442 41488 73307 10022 21000 39746 40003 58010 70322 81670;",
"01442099999","2010-10-23T15:00:00","4","58.6666666","7.8","211.0","BYGLANDSFJORD, NO","FM-12","99999","V020","340,1,N,0050,1","02100,1,9,N","075000,1,N,1","+0035,1","+0002,1","09997,1",,,,"2,1,03,1","2,1,03,1",,"06,99,1,06,1,00,1,02250,1,06,1,01,1",,,"99999,9,09742,1","5,1,004,1,+999,9",,"01,1","SYN072AAXX  23151 01442 41889 63405 10035 20002 39742 49997 55004 70122 86061;",
"01442099999","2010-10-23T18:00:00","4","58.6666666","7.8","211.0","BYGLANDSFJORD, NO","FM-12","99999","V020","330,1,N,0030,1","22000,1,9,N","075000,1,N,1","+0018,1","+0000,1","09998,1",,,,"2,1,06,1","1,1,06,1",,"01,99,1,00,1,00,1,99999,9,00,1,01,1",,"999,M,+0038,1","99999,9,09741,1","5,1,001,1,+999,9",,"01,1","SYN082AAXX  23181 01442 31989 13303 10018 20000 39741 49998 55001 70121 80001 333 10038;",
"01442099999","2010-10-24T03:00:00","4","58.6666666","7.8","211.0","BYGLANDSFJORD, NO","FM-12","99999","V020","010,1,N,0050,1","99999,9,9,N","075000,1,N,1","+0032,1","-0033,1","09993,1",,,,"2,1,03,1","2,1,03,1",,"07,99,1,00,1,00,1,99999,9,00,1,08,1",,,"99999,9,09737,1","3,1,002,1,+999,9",,"02,1","SYN072AAXX  24031 01442 41989 70105 10032 21033 39737 49993 53002 70222 80008;",
"01442099999","2010-10-24T06:00:00","4","58.6666666","7.8","211.0","BYGLANDSFJORD, NO","FM-12","99999","V020","350,1,N,0050,1","99999,9,9,N","075000,1,N,1","+0028,1","-0031,1","10000,1","24,0000,9,1",,"9999,2,9,999999,9,9","2,1,06,1","2,1,06,1",,"06,99,1,00,1,00,1,99999,9,00,1,08,1","30,9","999,N,+0008,1","99999,9,09743,1","2,1,007,1,+999,9",,"01,1","SYN094AAXX  24061 01442 31989 63505 10028 21031 39743 40000 52007 70122 80008 333 20008 42998 70000;","Q01  00002PRCP24Q02  09982SNDP  "
"01442099999","2010-10-24T09:00:00","4","58.6666666","7.8","211.0","BYGLANDSFJORD, NO","FM-12","99999","V020","350,1,N,0070,1","99999,9,9,N","075000,1,N,1","+0035,1","-0033,1","10015,1",,,,"2,1,03,1","2,1,03,1",,"07,99,1,00,1,00,1,99999,9,00,1,08,1",,,"99999,9,09758,1","2,1,015,1,+999,9",,"02,1","SYN072AAXX  24091 01442 41989 73507 10035 21033 39758 40015 52015 70222 80008;",
"01442099999","2010-10-24T12:00:00","4","58.6666666","7.8","211.0","BYGLANDSFJORD, NO","FM-12","99999","V020","330,1,N,0050,1","22000,1,9,N","075000,1,N,1","+0058,1","-0046,1","10022,1",,,,"2,1,06,1","1,1,06,1",,"01,99,1,00,1,00,1,99999,9,00,1,02,1",,,"99999,9,09767,1","2,1,009,1,+999,9",,"01,1","SYN072AAXX  24121 01442 41989 13305 10058 21046 39767 40022 52009 70121 80002;",
"01442099999","2010-10-24T18:00:00","4","58.6666666","7.8","211.0","BYGLANDSFJORD, NO","FM-12","99999","V020","350,1,N,0030,1","22000,1,9,N","075000,1,N,1","+0011,1","-0047,1","10065,1",,,,"0,1,06,1","0,1,06,1","00,1,+99999,9,99,9","00,99,1,00,1,00,1,99999,9,00,1,00,1",,"999,M,+0062,1","99999,9,09806,1","2,1,024,1,+999,9",,"02,1","SYN076AAXX  24181 01442 31989 03503 10011 21047 39806 40065 52024 70200 333 10062;",
"01442099999","2010-10-25T03:00:00","4","58.6666666","7.8","211.0","BYGLANDSFJORD, NO","FM-12","99999","V020","170,1,N,0010,1","22000,1,9,N","075000,1,N,1","-0042,1","-0042,1","10112,1",,,,"0,1,03,1","0,1,03,1","00,1,+99999,9,99,9","00,99,1,00,1,00,1,99999,9,00,1,00,1",,,"99999,9,09850,1","2,1,007,1,+999,9",,"02,1","SYN066AAXX  25031 01442 41989 01701 11042 21042 39850 40112 52007 70200;",
"01442099999","2010-10-25T06:00:00","4","58.6666666","7.8","211.0","BYGLANDSFJORD, NO","FM-12","99999","V020","170,1,N,0010,1","22000,1,9,N","075000,1,N,1","-0039,1","-0039,1","10117,1","24,0000,9,1",,"9999,2,9,999999,9,9","0,1,06,1","0,1,06,1","00,1,+99999,9,99,9","00,99,1,00,1,00,1,99999,9,00,1,00,1","30,9","999,N,-0042,1","99999,9,09855,1","3,1,005,1,+999,9",,"02,1","SYN088AAXX  25061 01442 31989 01701 11039 21039 39855 40117 53005 70200 333 21042 42998 70000;","Q01  00002PRCP24Q02  09982SNDP  "
"01442099999","2010-10-25T09:00:00","4","58.6666666","7.8","211.0","BYGLANDSFJORD, NO","FM-12","99999","V020","140,1,N,0030,1","22000,1,9,N","075000,1,N,1","-0002,1","-0016,1","10118,1",,,,"0,1,03,1","0,1,03,1",,"03,99,1,99,9,00,1,02250,1,05,1,02,1",,,"99999,9,09857,1","0,1,002,1,+999,9",,"03,1","SYN072AAXX  25091 01442 41889 31403 11002 21016 39857 40118 50002 70300 80052;","Q01+000002SCOTLC"
"01442099999","2010-10-25T12:00:00","4","58.6666666","7.8","211.0","BYGLANDSFJORD, NO","FM-12","99999","V020","350,1,N,0050,1","22000,1,9,N","075000,1,N,1","+0052,1","-0049,1","10119,1",,,,"1,1,06,1","0,1,06,1",,"01,99,1,00,1,00,1,99999,9,04,1,01,1",,,"99999,9,09862,1","3,1,005,1,+999,9",,"01,1","SYN072AAXX  25121 01442 41989 13505 10052 21049 39862 40119 53005 70110 80041;",
"01442099999","2010-10-25T15:00:00","4","58.6666666","7.8","211.0","BYGLANDSFJORD, NO","FM-12","99999","V020","330,1,N,0050,1","22000,1,9,N","075000,1,N,1","+0042,1","-0050,1","10137,1",,,,"0,1,03,1","0,1,03,1","00,1,+99999,9,99,9","00,99,1,00,1,00,1,99999,9,00,1,00,1",,,"99999,9,09878,1","3,1,017,1,+999,9",,"02,1","SYN066AAXX  25151 01442 41989 03305 10042 21050 39878 40137 53017 70200;",
"01442099999","2010-10-25T18:00:00","4","58.6666666","7.8","211.0","BYGLANDSFJORD, NO","FM-12","99999","V020","330,1,N,0050,1","22000,1,9,N","075000,1,N,1","+0024,1","-0048,1","10165,1",,,,"0,1,06,1","0,1,06,1","00,1,+99999,9,99,9","00,99,1,00,1,00,1,99999,9,00,1,00,1",,"999,M,+0054,1","99999,9,09903,1","2,1,025,1,+999,9",,"02,1","SYN076AAXX  25181 01442 31989 03305 10024 21048 39903 40165 52025 70200 333 10054;",
"01442099999","2010-10-26T03:00:00","4","58.6666666","7.8","211.0","BYGLANDSFJORD, NO","FM-12","99999","V020","999,9,C,0000,1","22000,1,9,N","075000,1,N,1","-0043,1","-0043,1","10205,1",,,,"0,1,03,1","0,1,03,1",,"01,99,1,00,1,00,1,99999,9,00,1,01,1",,,"99999,9,09941,1","2,1,003,1,+999,9",,"02,1","SYN072AAXX  26031 01442 41989 10000 11043 21043 39941 40205 52003 70200 80001;",
"01442099999","2010-10-26T06:00:00","4","58.6666666","7.8","211.0","BYGLANDSFJORD, NO","FM-12","99999","V020","999,9,C,0000,1","22000,1,9,N","075000,1,N,1","-0042,1","-0042,1","10212,1","24,0000,9,1",,"9999,2,9,999999,9,9","0,1,06,1","0,1,06,1","00,1,+99999,9,99,9","00,99,1,00,1,00,1,99999,9,00,1,00,1","30,9","999,N,-0045,1","99999,9,09947,1","0,1,007,1,+999,9",,"02,1","SYN088AAXX  26061 01442 31989 00000 11042 21042 39947 40212 50007 70200 333 21045 42998 70000;","Q01  00002PRCP24Q02  09982SNDP  "
"01442099999","2010-10-26T09:00:00","4","58.6666666","7.8","211.0","BYGLANDSFJORD, NO","FM-12","99999","V020","340,1,N,0050,1","99999,9,9,N","075000,1,N,1","-0007,1","-0032,1","10216,1",,,,"1,1,03,1","0,1,03,1",,"07,99,1,00,1,00,1,99999,9,00,1,06,1",,,"99999,9,09952,1","0,1,005,1,+999,9",,"03,1","SYN072AAXX  26091 01442 41989 73405 11007 21032 39952 40216 50005 70310 80006;",
"01442099999","2010-10-26T12:00:00","4","58.6666666","7.8","211.0","BYGLANDSFJORD, NO","FM-12","99999","V020","350,1,N,0030,1","99999,9,9,N","075000,1,N,1","+0012,1","-0029,1","10216,1",,,,"2,1,06,1","1,1,06,1",,"08,99,1,99,9,00,1,01750,1,07,1,99,9",,,"99999,9,09952,1","0,1,001,1,+999,9",,"03,1","SYN072AAXX  26121 01442 41789 83503 10012 21029 39952 40216 50001 70321 8007/;","Q01+000002SCOTLC"
"01442099999","2010-10-26T15:00:00","4","58.6666666","7.8","211.0","BYGLANDSFJORD, NO","FM-12","99999","V020","999,9,C,0000,1","99999,9,9,N","075000,1,N,1","+0018,1","-0018,1","10202,1",,,,"2,1,03,1","2,1,03,1",,"08,99,1,99,9,00,1,01750,1,02,1,99,9",,,"99999,9,09940,1","8,1,013,1,+999,9",,"03,1","SYN072AAXX  26151 01442 41789 80000 10018 21018 39940 40202 58013 70322 8002/;","Q01+000002SCOTLC"
"01442099999","2010-10-26T18:00:00","4","58.6666666","7.8","211.0","BYGLANDSFJORD, NO","FM-12","99999","V020","110,1,N,0010,1","03000,1,9,N","070000,1,N,1","+0008,1","+0002,1","10196,1","12,9999,9,9",,,"6,1,06,1","2,1,06,1",,"08,99,1,02,1,07,1,00800,1,02,1,99,9",,"999,M,+0019,1","99999,9,09932,1","8,1,007,1,+999,9",,"21,1","SYN088AAXX  26181 01442 11588 81101 10008 20002 39932 40196 58007 69922 72162 8272/ 333 10019;","Q01  00002PRCP12Q02  00002PRCP12"
"01442099999","2010-10-27T03:00:00","4","58.6666666","7.8","211.0","BYGLANDSFJORD, NO","FM-12","99999","V020","170,1,N,0010,1","00600,1,9,N","002000,1,N,1","+0021,1","+0021,1","10117,1",,,,"6,1,03,1","5,1,03,1",,"08,99,1,06,1,08,1,00150,1,99,9,99,9",,,"99999,9,09857,1","8,1,038,1,+999,9",,"53,1","SYN072AAXX  27031 01442 41220 81701 10021 20021 39857 40117 58038 75365 868//;",
"01442099999","2010-10-27T06:00:00","4","58.6666666","7.8","211.0","BYGLANDSFJORD, NO","FM-12","99999","V020","150,1,N,0050,1","00420,1,9,N","015000,1,N,1","+0061,1","+0061,1","10073,1","12,0109,9,2","24,0107,9,2","9999,2,9,999999,9,9","6,1,06,1","5,1,06,1",,"08,99,1,08,1,07,1,00450,1,99,9,99,9","30,9","999,N,+0009,1","99999,9,09817,1","8,1,039,1,+999,9",,"63,1","SYN100AAXX  27061 01442 11465 81505 10061 20061 39817 40073 58039 60112 76365 887// 333 20009 42998 70107;","Q01  09982SNDP  "
"01442099999","2010-10-27T09:00:00","4","58.6666666","7.8","211.0","BYGLANDSFJORD, NO","FM-12","99999","V020","150,1,N,0030,1","00120,1,9,N","005000,1,N,1","+0064,1","+0064,1","10040,1",,,,"6,1,03,1","5,1,03,1",,"08,99,1,08,1,07,1,00150,1,99,9,99,9",,,"99999,9,09786,1","8,1,032,1,+999,9",,"51,1","SYN072AAXX  27091 01442 41250 81503 10064 20064 39786 40040 58032 75165 887//;",
"01442099999","2010-10-27T12:00:00","4","58.6666666","7.8","211.0","BYGLANDSFJORD, NO","FM-12","99999","V020","170,1,N,0030,1","99999,9,9,N","002000,1,N,1","+0065,1","+0065,1","10028,1",,,,"6,1,06,1","5,1,06,1",,"08,99,1,08,1,06,1,99999,9,99,9,99,9",,,"99999,9,09773,1","6,1,012,1,+999,9",,"53,1","SYN072AAXX  27121 01442 41/20 81703 10065 20065 39773 40028 56012 75365 886//;",
"01442099999","2010-10-27T18:00:00","4","58.6666666","7.8","211.0","BYGLANDSFJORD, NO","FM-12","99999","V020","130,1,N,0030,1","00750,1,9,N","050000,1,N,1","+0083,1","+0069,1","10030,1","12,0089,9,1",,,"5,1,06,1","2,1,06,1",,"07,99,1,07,1,09,1,00800,1,00,1,00,1",,"999,M,+0090,1","99999,9,09777,1","3,1,005,1,+999,9",,"80,1","SYN088AAXX  27181 01442 11584 71303 10083 20069 39777 40030 53005 60092 78052 87900 333 10090;",
"01442099999","2010-10-28T03:00:00","4","58.6666666","7.8","211.0","BYGLANDSFJORD, NO","FM-12","99999","V020","150,1,N,0030,1","01200,1,9,N","075000,1,N,1","+0065,1","+0051,1","10036,1",,,,"2,1,03,1","2,1,03,1",,"07,99,1,07,1,08,1,00800,1,00,1,00,1",,,"99999,9,09782,1","8,1,003,1,+999,9",,"02,1","SYN072AAXX  28031 01442 41589 71503 10065 20051 39782 40036 58003 70222 87800;",
"01442099999","2010-10-28T06:00:00","4","58.6666666","7.8","211.0","BYGLANDSFJORD, NO","FM-12","99999","V020","150,1,N,0030,1","01200,1,9,N","070000,1,N,1","+0055,1","+0049,1","10022,1","12,0000,2,1","24,0091,9,1",,"2,1,06,1","2,1,06,1",,"07,99,1,07,1,08,1,00800,1,00,1,00,1",,"999,N,+0055,1","99999,9,09767,1","8,1,014,1,+999,9",,"03,1","SYN094AAXX  28061 01442 11588 71503 10055 20049 39767 40022 58014 69922 70322 87800 333 20055 70092;",
"01442099999","2010-10-28T09:00:00","4","58.6666666","7.8","211.0","BYGLANDSFJORD, NO","FM-12","99999","V020","190,1,N,0030,1","00750,1,9,N","050000,1,N,1","+0061,1","+9999,9","10006,1",,,,"8,1,03,1","2,1,03,1",,"08,99,1,08,1,09,1,00800,1,99,9,99,9",,,"99999,9,09752,1","6,1,013,1,+999,9",,"80,1","SYN072AAXX  28091 01442 41584 81903 10061 2//// 39752 40006 56013 78082 889//;",
"01442099999","2010-10-28T12:00:00","4","58.6666666","7.8","211.0","BYGLANDSFJORD, NO","FM-12","99999","V020","150,1,N,0030,1","00420,1,9,N","070000,1,N,1","+0074,1","+9999,9","10010,1",,,,"8,1,06,1","2,1,06,1",,"07,99,1,07,1,09,1,00450,1,00,1,00,1",,,"99999,9,09757,1","2,1,005,1,+999,9",,"25,1","SYN072AAXX  28121 01442 41488 71503 10074 2//// 39757 40010 52005 72582 87900;",
"01442099999","2010-10-28T15:00:00","4","58.6666666","7.8","211.0","BYGLANDSFJORD, NO","FM-12","99999","V020","020,1,N,0050,1","22000,1,9,N","075000,1,N,1","+0084,1","+9999,9","10022,1",,,,"1,1,03,1","1,1,03,1",,"01,99,1,01,1,01,1,01250,1,06,1,00,1",,,"99999,9,09770,1","3,1,012,1,+999,9",,"01,1","SYN072AAXX  28151 01442 41689 10205 10084 2//// 39770 40022 53012 70111 81160;",
"01442099999","2010-10-28T18:00:00","4","58.6666666","7.8","211.0","BYGLANDSFJORD, NO","FM-12","99999","V020","160,1,N,0030,1","01200,1,9,N","075000,1,N,1","+0078,1","+9999,9","10037,1","12,0061,9,1",,,"1,1,06,1","1,1,06,1",,"08,99,1,08,1,05,1,01250,1,99,9,99,9",,"999,M,+0092,1","99999,9,09783,1","2,1,014,1,+999,9",,"03,1","SYN088AAXX  28181 01442 11689 81603 10078 2//// 39783 40037 52014 60062 70311 885// 333 10092;",
"01442099999","2010-10-29T03:00:00","4","58.6666666","7.8","211.0","BYGLANDSFJORD, NO","FM-12","99999","V020","110,1,N,0030,1","01200,1,9,N","075000,1,N,1","+0054,1","+9999,9","10056,1",,,,"2,1,03,1","2,1,03,1",,"08,99,1,08,1,05,1,01250,1,99,9,99,9",,,"99999,9,09801,1","8,1,006,1,+999,9",,"02,1","SYN072AAXX  29031 01442 41689 81103 10054 2//// 39801 40056 58006 70222 885//;",
"01442099999","2010-10-29T06:00:00","4","58.6666666","7.8","211.0","BYGLANDSFJORD, NO","FM-12","99999","V020","150,1,N,0030,1","00420,1,9,N","015000,1,N,1","+0061,1","+9999,9","10042,1","12,0020,9,1","24,0081,9,1",,"6,1,06,1","2,1,06,1",,"08,99,1,08,1,07,1,00450,1,99,9,99,9",,"999,N,+0047,1","99999,9,09787,1","8,1,013,1,+999,9",,"61,1","SYN094AAXX  29061 01442 11465 81503 10061 2//// 39787 40042 58013 60022 76162 887// 333 20047 70082;",
"01442099999","2010-10-29T09:00:00","4","58.6666666","7.8","211.0","BYGLANDSFJORD, NO","FM-12","99999","V020","150,1,N,0030,1","99999,9,9,N","002000,1,N,1","+0071,1","+9999,9","10027,1",,,,"6,1,03,1","5,1,03,1",,"08,99,1,08,1,06,1,99999,9,99,9,99,9",,,"99999,9,09773,1","8,1,014,1,+999,9",,"51,1","SYN072AAXX  29091 01442 41/20 81503 10071 2//// 39773 40027 58014 75165 886//;",
"01442099999","2010-10-29T12:00:00","4","58.6666666","7.8","211.0","BYGLANDSFJORD, NO","FM-12","99999","V020","160,1,N,0070,1","00120,1,9,N","003000,1,N,1","+0098,1","+9999,9","10014,1",,,,"6,1,06,1","5,1,06,1",,"08,99,1,08,1,07,1,00150,1,99,9,99,9",,,"99999,9,09763,1","7,1,010,1,+999,9",,"63,1","SYN072AAXX  29121 01442 41230 81607 10098 2//// 39763 40014 57010 76365 887//;",
"01442099999","2010-10-29T15:00:00","4","58.6666666","7.8","211.0","BYGLANDSFJORD, NO","FM-12","99999","V020","150,1,N,0050,1","00120,1,9,N","005000,1,N,1","+0095,1","+9999,9","10004,1",,,,"6,1,03,1","6,1,03,1",,"08,99,1,07,1,07,1,00150,1,02,1,99,9",,,"99999,9,09753,1","7,1,010,1,+999,9",,"61,1","SYN072AAXX  29151 01442 41250 81505 10095 2//// 39753 40004 57010 76166 8772/;",
"01442099999","2010-10-29T18:00:00","4","58.6666666","7.8","211.0","BYGLANDSFJORD, NO","FM-12","99999","V020","150,1,N,0050,1","00210,1,9,N","003000,1,N,1","+0089,1","+9999,9","09998,1","12,0140,9,1",,,"6,1,06,1","6,1,06,1",,"08,99,1,08,1,07,1,00250,1,99,9,99,9",,"999,M,+0099,1","99999,9,09747,1","8,1,007,1,+999,9",,"63,1","SYN088AAXX  29181 01442 11330 81505 10089 2//// 39747 49998 58007 60142 76366 887// 333 10099;",
"01442099999","2010-10-30T03:00:00","4","58.6666666","7.8","211.0","BYGLANDSFJORD, NO","FM-12","99999","V020","160,1,N,0030,1","00060,1,9,N","002000,1,N,1","+0077,1","+9999,9","09941,1",,,,"6,1,03,1","5,1,03,1",,"08,99,1,08,1,06,1,00075,1,99,9,99,9",,,"99999,9,09691,1","6,1,030,1,+999,9",,"51,1","SYN072AAXX  30031 01442 41120 81603 10077 2//// 39691 49941 56030 75165 886//;",
"01442099999","2010-10-30T06:00:00","4","58.6666666","7.8","211.0","BYGLANDSFJORD, NO","FM-12","99999","V020","150,1,N,0050,1","00420,1,9,N","005000,1,N,1","+0086,1","+9999,9","09916,1","12,0061,9,1","24,0203,9,1",,"6,1,06,1","5,1,06,1",,"08,99,1,08,1,07,1,00450,1,99,9,99,9",,"999,N,+0073,1","99999,9,09667,1","6,1,024,1,+999,9",,"63,1","SYN094AAXX  30061 01442 11450 81505 10086 2//// 39667 49916 56024 60062 76365 887// 333 20073 70202;",
"01442099999","2010-10-30T09:00:00","4","58.6666666","7.8","211.0","BYGLANDSFJORD, NO","FM-12","99999","V020","150,1,N,0030,1","00210,1,9,N","010000,1,N,1","+0095,1","+9999,9","09922,1",,,,"6,1,03,1","6,1,03,1",,"08,99,1,07,1,07,1,00250,1,02,1,99,9",,,"99999,9,09673,1","3,1,007,1,+999,9",,"63,1","SYN072AAXX  30091 01442 41360 81503 10095 2//// 39673 49922 53007 76366 8772/;",
"01442099999","2010-10-30T12:00:00","4","58.6666666","7.8","211.0","BYGLANDSFJORD, NO","FM-12","99999","V020","160,1,N,0050,1","00900,1,9,N","060000,1,N,1","+0098,1","+9999,9","09931,1",,,,"6,1,06,1","2,1,06,1",,"08,99,1,08,1,08,1,00450,1,99,9,99,9",,,"99999,9,09682,1","2,1,009,1,+999,9",,"21,1","SYN072AAXX  30121 01442 41486 81605 10098 2//// 39682 49931 52009 72162 888//;",
"01442099999","2010-10-30T15:00:00","4","58.6666666","7.8","211.0","BYGLANDSFJORD, NO","FM-12","99999","V020","120,1,N,0030,1","00420,1,9,N","070000,1,N,1","+0090,1","+9999,9","09944,1",,,,"8,1,03,1","2,1,03,1",,"07,99,1,07,1,09,1,00450,1,00,1,00,1",,,"99999,9,09695,1","2,1,012,1,+999,9",,"25,1","SYN072AAXX  30151 01442 41488 71203 10090 2//// 39695 49944 52012 72582 87900;",
"01442099999","2010-10-30T18:00:00","4","58.6666666","7.8","211.0","BYGLANDSFJORD, NO","FM-12","99999","V020","110,1,N,0030,1","00900,1,9,N","070000,1,N,1","+0084,1","+9999,9","09967,1","12,0109,9,1",,,"8,1,06,1","2,1,06,1",,"06,99,1,06,1,08,1,00450,1,00,1,00,1",,"999,M,+0099,1","99999,9,09717,1","0,1,022,1,+999,9",,"25,1","SYN088AAXX  30181 01442 11488 61103 10084 2//// 39717 49967 50022 60112 72582 86800 333 10099;",
"01442099999","2010-10-31T03:00:00","4","58.6666666","7.8","211.0","BYGLANDSFJORD, NO","FM-12","99999","V020","150,1,N,0030,1","00750,1,9,N","070000,1,N,1","+0067,1","+9999,9","09991,1",,,,"2,1,03,1","2,1,03,1",,"08,99,1,08,1,05,1,00800,1,99,9,99,9",,,"99999,9,09738,1","2,1,004,1,+999,9",,"02,1","SYN072AAXX  31031 01442 41588 81503 10067 2//// 39738 49991 52004 70222 885//;",
"01442099999","2010-10-31T06:00:00","4","58.6666666","7.8","211.0","BYGLANDSFJORD, NO","FM-12","99999","V020","150,1,N,0030,1","00420,1,9,N","070000,1,N,1","+0068,1","+9999,9","10000,1","24,0109,9,1",,,"2,1,06,1","2,1,06,1",,"08,99,1,08,1,05,1,00450,1,99,9,99,9",,"999,N,+0064,1","99999,9,09747,1","2,1,008,1,+999,9",,"02,1","SYN088AAXX  31061 01442 31488 81503 10068 2//// 39747 40000 52008 70222 885// 333 20064 70110;",
"01442099999","2010-10-31T09:00:00","4","58.6666666","7.8","211.0","BYGLANDSFJORD, NO","FM-12","99999","V020","140,1,N,0030,1","01200,1,9,N","070000,1,N,1","+0080,1","+9999,9","10016,1",,,,"2,1,03,1","2,1,03,1",,"07,99,1,07,1,08,1,00800,1,00,1,00,1",,,"99999,9,09763,1","2,1,017,1,+999,9",,"03,1","SYN072AAXX  31091 01442 41588 71403 10080 2//// 39763 40016 52017 70322 87800;",
"01442099999","2010-10-31T12:00:00","4","58.6666666","7.8","211.0","BYGLANDSFJORD, NO","FM-12","99999","V020","150,1,N,0050,1","00750,1,9,N","070000,1,N,1","+0102,1","+9999,9","10022,1",,,,"8,1,06,1","2,1,06,1",,"07,99,1,05,1,02,1,00800,1,06,1,02,1",,,"99999,9,09772,1","2,1,008,1,+999,9",,"03,1","SYN072AAXX  31121 01442 41588 71505 10102 2//// 39772 40022 52008 70382 85262;",
"01442099999","2010-10-31T15:00:00","4","58.6666666","7.8","211.0","BYGLANDSFJORD, NO","FM-12","99999","V020","160,1,N,0030,1","03000,1,9,N","075000,1,N,1","+0099,1","+9999,9","10038,1",,,,"2,1,03,1","2,1,03,1",,"05,99,1,03,1,02,1,01250,1,06,1,02,1",,,"99999,9,09787,1","3,1,015,1,+999,9",,"01,1","SYN072AAXX  31151 01442 41689 51603 10099 2//// 39787 40038 53015 70122 83262;",
"01442099999","2010-10-31T18:00:00","4","58.6666666","7.8","211.0","BYGLANDSFJORD, NO","FM-12","99999","V020","120,1,N,0030,1","22000,1,9,N","075000,1,N,1","+0058,1","+9999,9","10062,1","12,0000,9,1",,,"2,1,06,1","1,1,06,1","00,1,+99999,9,99,9","00,99,1,00,1,00,1,99999,9,00,1,00,1",,"999,M,+0110,1","99999,9,09807,1","3,1,020,1,+999,9",,"01,1","SYN082AAXX  31181 01442 11989 01203 10058 2//// 39807 40062 53020 69912 70121 333 10110;","Q01  00002PRCP12"
"01442099999","2010-11-01T03:00:00","4","58.6666666","7.8","211.0","BYGLANDSFJORD, NO","FM-12","99999","V020","999,9,C,0000,1","22000,1,9,N","075000,1,N,1","+0026,1","+9999,9","10085,1",,,,"0,1,03,1","0,1,03,1",,"01,99,1,01,1,00,1,02250,1,03,1,00,1",,,"99999,9,09826,1","2,1,002,1,+999,9",,"02,1","SYN072AAXX  01031 01442 41889 10000 10026 2//// 39826 40085 52002 70200 81030;",
"01442099999","2010-11-01T06:00:00","4","58.6666666","7.8","211.0","BYGLANDSFJORD, NO","FM-12","99999","V020","160,1,N,0030,1","22000,1,9,N","075000,1,N,1","+0026,1","+9999,9","10091,1",,,,"0,1,06,1","0,1,06,1",,"03,99,1,02,1,06,1,00150,1,03,1,00,1",,"999,N,+0025,1","99999,9,09832,1","2,1,006,1,+999,9",,"03,1","SYN082AAXX  01061 01442 41289 31603 10026 2//// 39832 40091 52006 70300 82630 333 20025;",
"01442099999","2010-11-01T09:00:00","4","58.6666666","7.8","211.0","BYGLANDSFJORD, NO","FM-12","99999","V020","190,1,N,0030,1","22000,1,9,N","070000,1,N,1","+0028,1","+9999,9","10099,1",,,,"1,1,03,1","1,1,03,1",,"02,99,1,02,1,06,1,00150,1,07,1,01,1",,,"99999,9,09840,1","2,1,008,1,+999,9",,"03,1","SYN072AAXX  01091 01442 41288 21903 10028 2//// 39840 40099 52008 70311 82671;",
"01442099999","2010-11-01T12:00:00","4","58.6666666","7.8","211.0","BYGLANDSFJORD, NO","FM-12","99999","V020","180,1,N,0030,1","22000,1,9,N","075000,1,N,1","+0063,1","+9999,9","10093,1",,,,"1,1,06,1","1,1,06,1",,"01,99,1,00,1,00,1,99999,9,00,1,02,1",,,"99999,9,09837,1","8,1,002,1,+999,9",,"01,1","SYN072AAXX  01121 01442 41989 11803 10063 2//// 39837 40093 58002 70111 80002;",
"01442099999","2010-11-01T15:00:00","4","58.6666666","7.8","211.0","BYGLANDSFJORD, NO","FM-12","99999","V020","999,9,C,0000,1","22000,1,9,N","075000,1,N,1","+0049,1","+0031,1","10096,1",,,,"0,1,03,1","0,1,03,1","00,1,+99999,9,99,9","00,99,1,00,1,00,1,99999,9,00,1,00,1",,,"99999,9,09838,1","2,1,001,1,+999,9",,"02,1","SYN066AAXX  01151 01442 41989 00000 10049 20031 39838 40096 52001 70200;",
"01442099999","2010-11-01T18:00:00","4","58.6666666","7.8","211.0","BYGLANDSFJORD, NO","FM-12","99999","V020","010,1,N,0010,1","22000,1,9,N","075000,1,N,1","+0008,1","+0005,1","10107,1",,,,"0,1,06,1","0,1,06,1","00,1,+99999,9,99,9","00,99,1,00,1,00,1,99999,9,00,1,00,1",,"999,M,+0073,1","99999,9,09847,1","2,1,008,1,+999,9",,"02,1","SYN076AAXX  01181 01442 31989 00101 10008 20005 39847 40107 52008 70200 333 10073;",
"01442099999","2010-11-02T03:00:00","4","58.6666666","7.8","211.0","BYGLANDSFJORD, NO","FM-12","99999","V020","170,1,N,0010,1","01500,1,9,N","020000,1,N,1","+0002,1","+0002,1","10063,1",,,,"6,1,03,1","2,1,03,1",,"08,99,1,08,1,00,1,01750,1,02,1,99,9",,,"99999,9,09803,1","8,1,028,1,+999,9",,"61,1","SYN072AAXX  02031 01442 41770 81701 10002 20002 39803 40063 58028 76162 8802/;",
"01442099999","2010-11-02T06:00:00","4","58.6666666","7.8","211.0","BYGLANDSFJORD, NO","FM-12","99999","V020","190,1,N,0030,1","00210,1,9,N","015000,1,N,1","+0014,1","+0014,1","10022,1","12,0061,9,1","24,0061,9,1",,"6,1,06,1","2,1,06,1",,"08,99,1,05,1,07,1,00250,1,02,1,99,9",,"999,N,-0003,1","99999,9,09763,1","8,1,042,1,+999,9",,"63,1","SYN094AAXX  02061 01442 11365 81903 10014 20014 39763 40022 58042 60062 76362 8572/ 333 21003 70061;",
"01442099999","2010-11-02T09:00:00","4","58.6666666","7.8","211.0","BYGLANDSFJORD, NO","FM-12","99999","V020","150,1,N,0030,1","00120,1,9,N","002000,1,N,1","+0052,1","+0052,1","09978,1",,,,"6,1,03,1","5,1,03,1",,"08,99,1,08,1,06,1,00150,1,99,9,99,9",,,"99999,9,09725,1","8,1,037,1,+999,9",,"61,1","SYN072AAXX  02091 01442 41220 81503 10052 20052 39725 49978 58037 76165 886//;",
"01442099999","2010-11-02T12:00:00","4","58.6666666","7.8","211.0","BYGLANDSFJORD, NO","FM-12","99999","V020","150,1,N,0030,1","00210,1,9,N","020000,1,N,1","+0086,1","+0086,1","09951,1",,,,"6,1,06,1","5,1,06,1",,"08,99,1,08,1,07,1,00250,1,99,9,99,9",,,"99999,9,09701,1","8,1,024,1,+999,9",,"61,1","SYN072AAXX  02121 01442 41370 81503 10086 20086 39701 49951 58024 76165 887//;",
"01442099999","2010-11-02T15:00:00","4","58.6666666","7.8","211.0","BYGLANDSFJORD, NO","FM-12","99999","V020","120,1,N,0050,1","00420,1,9,N","025000,1,N,1","+0087,1","+0073,1","09930,1",,,,"8,1,03,1","6,1,03,1",,"08,99,1,08,1,09,1,00450,1,99,9,99,9",,,"99999,9,09681,1","8,1,020,1,+999,9",,"80,1","SYN072AAXX  02151 01442 41475 81205 10087 20073 39681 49930 58020 78086 889//;",
"01442099999","2010-11-02T18:00:00","4","58.6666666","7.8","211.0","BYGLANDSFJORD, NO","FM-12","99999","V020","120,1,N,0030,1","00900,1,9,N","070000,1,N,1","+0068,1","+0054,1","09938,1","12,0140,9,1",,,"8,1,06,1","6,1,06,1",,"07,99,1,07,1,08,1,00450,1,00,1,00,1",,"999,M,+0087,1","99999,9,09687,1","2,1,006,1,+999,9",,"25,1","SYN088AAXX  02181 01442 11488 71203 10068 20054 39687 49938 52006 60142 72586 87800 333 10087;",
"01442099999","2010-11-03T03:00:00","4","58.6666666","7.8","211.0","BYGLANDSFJORD, NO","FM-12","99999","V020","130,1,N,0030,1","00420,1,9,N","015000,1,N,1","+0064,1","+0064,1","09876,1",,,,"8,1,03,1","2,1,03,1",,"08,99,1,08,1,09,1,00450,1,99,9,99,9",,,"99999,9,09626,1","8,1,032,1,+999,9",,"81,1","SYN072AAXX  03031 01442 41465 81303 10064 20064 39626 49876 58032 78182 889//;",
"01442099999","2010-11-03T06:00:00","4","58.6666666","7.8","211.0","BYGLANDSFJORD, NO","FM-12","99999","V020","120,1,N,0030,1","00600,1,9,N","060000,1,N,1","+0052,1","+0052,1","09873,1","12,0051,9,1","24,0183,9,1",,"8,1,06,1","2,1,06,1",,"07,99,1,07,1,08,1,00075,1,00,1,00,1",,"999,N,+0052,1","99999,9,09622,1","5,1,004,1,+999,9",,"25,1","SYN094AAXX  03061 01442 11186 71203 10052 20052 39622 49873 55004 60052 72582 87800 333 20052 70184;",
"01442099999","2010-11-03T09:00:00","4","58.6666666","7.8","211.0","BYGLANDSFJORD, NO","FM-12","99999","V020","130,1,N,0030,1","00750,1,9,N","020000,1,N,1","+0048,1","+0047,1","09892,1",,,,"8,1,03,1","1,1,03,1",,"08,99,1,08,1,09,1,00800,1,99,9,99,9",,,"99999,9,09640,1","3,1,018,1,+999,9",,"80,1","SYN072AAXX  03091 01442 41570 81303 10048 20047 39640 49892 53018 78081 889//;",
"01442099999","2010-11-03T15:00:00","4","58.6666666","7.8","211.0","BYGLANDSFJORD, NO","FM-12","99999","V020","320,1,N,0030,1","00750,1,9,N","030000,1,N,1","+0058,1","+0033,1","09916,1",,,,"8,1,03,1","1,1,03,1",,"07,99,1,06,1,09,1,00800,1,06,1,03,1",,,"99999,9,09665,1","3,1,017,1,+999,9",,"80,1","SYN072AAXX  03151 01442 41580 73203 10058 20033 39665 49916 53017 78081 86963;",
"01442099999","2010-11-03T18:00:00","4","58.6666666","7.8","211.0","BYGLANDSFJORD, NO","FM-12","99999","V020","999,9,9,9999,9","22000,1,9,N","075000,1,N,1","+0051,1","+0012,1","09945,1","12,0051,9,1",,,"8,1,06,1","1,1,06,1",,"01,99,1,00,1,00,1,99999,9,00,1,03,1",,"999,M,+0065,1","99999,9,09692,1","3,1,026,1,+999,9",,"25,1","SYN088AAXX  03181 01442 11989 1//// 10051 20012 39692 49945 53026 60052 72581 80003 333 10065;",
"01442099999","2010-11-04T03:00:00","4","58.6666666","7.8","211.0","BYGLANDSFJORD, NO","FM-12","99999","V020","030,1,N,0050,1","22000,1,9,N","075000,1,N,1","+0046,1","-0012,1","09984,1",,,,"0,1,03,1","0,1,03,1","00,1,+99999,9,99,9","00,99,1,00,1,00,1,99999,9,00,1,00,1",,,"99999,9,09730,1","1,1,009,1,+999,9",,"02,1","SYN066AAXX  04031 01442 41989 00305 10046 21012 39730 49984 51009 70200;",
"01442099999","2010-11-04T06:00:00","4","58.6666666","7.8","211.0","BYGLANDSFJORD, NO","FM-12","99999","V020","310,1,N,0030,1","22000,1,9,N","075000,1,N,1","+0038,1","+0002,1","09995,1","24,0046,9,1",,,"0,1,06,1","0,1,06,1",,"03,99,1,03,1,01,1,01750,1,00,1,00,1",,"999,N,+0032,1","99999,9,09740,1","3,1,011,1,+999,9",,"03,1","SYN088AAXX  04061 01442 31789 33103 10038 20002 39740 49995 53011 70300 83100 333 20032 70046;",
"01442099999","2010-11-04T09:00:00","4","58.6666666","7.8","211.0","BYGLANDSFJORD, NO","FM-12","99999","V020","320,1,N,0070,1","22000,1,9,N","075000,1,N,1","+0050,1","-0006,1","10004,1",,,,"0,1,03,1","0,1,03,1",,"01,99,1,01,1,01,1,01750,1,00,1,00,1",,,"99999,9,09750,1","2,1,010,1,+999,9",,"02,1","SYN072AAXX  04091 01442 41789 13207 10050 21006 39750 40004 52010 70200 81100;",
"01442099999","2010-11-04T12:00:00","4","58.6666666","7.8","211.0","BYGLANDSFJORD, NO","FM-12","99999","V020","330,1,N,0050,1","22000,1,9,N","075000,1,N,1","+0077,1","+0000,1","10013,1",,,,"1,1,06,1","0,1,06,1",,"04,99,1,02,1,02,1,01750,1,06,1,01,1",,,"99999,9,09761,1","0,1,011,1,+999,9",,"01,1","SYN072AAXX  04121 01442 41789 43305 10077 21000 39761 40013 50011 70110 82261;",
"01442099999","2010-11-04T15:00:00","4","58.6666666","7.8","211.0","BYGLANDSFJORD, NO","FM-12","99999","V020","330,1,N,0050,1","22000,1,9,N","075000,1,N,1","+0061,1","-0008,1","10024,1",,,,"0,1,03,1","0,1,03,1",,"02,99,1,01,1,01,1,01750,1,00,1,02,1",,,"99999,9,09770,1","0,1,009,1,+999,9",,"01,1","SYN072AAXX  04151 01442 41789 23305 10061 21008 39770 40024 50009 70100 81102;",
"01442099999","2010-11-04T18:00:00","4","58.6666666","7.8","211.0","BYGLANDSFJORD, NO","FM-12","99999","V020","120,1,N,0050,1","07500,1,9,N","075000,1,N,1","+0022,1","+0000,1","10028,1",,,,"1,1,06,1","0,1,06,1",,"05,99,1,01,1,01,1,01750,1,00,1,02,1",,"999,M,+0023,1","99999,9,09771,1","3,1,001,1,+999,9",,"03,1","SYN082AAXX  04181 01442 31789 51205 10022 21000 39771 40028 53001 70310 81102 333 10023;",
"01442099999","2010-11-05T03:00:00","4","58.6666666","7.8","211.0","BYGLANDSFJORD, NO","FM-12","99999","V020","330,1,N,0030,1","03000,1,9,N","030000,1,N,1","+0023,1","+0020,1","10007,1",,,,"6,1,03,1","2,1,03,1",,"08,99,1,01,1,07,1,00450,1,02,1,99,9",,,"99999,9,09750,1","5,1,004,1,+999,9",,"60,1","SYN072AAXX  05031 01442 41480 83303 10023 20020 39750 40007 55004 76062 8172/;",
"01442099999","2010-11-05T06:00:00","4","58.6666666","7.8","211.0","BYGLANDSFJORD, NO","FM-12","99999","V020","340,1,N,0050,1","22000,1,9,N","075000,1,N,1","+0023,1","+0014,1","10011,1","12,0030,9,2","24,0028,9,2",,"6,1,06,1","2,1,06,1",,"04,99,1,01,1,01,1,00450,1,04,1,02,1",,"999,N,+0013,1","99999,9,09753,1","3,1,004,1,+999,9",,"01,1","SYN094AAXX  05061 01442 11489 43405 10023 20014 39753 40011 53004 60032 70162 81142 333 20013 70028;",
"01442099999","2010-11-05T09:00:00","4","58.6666666","7.8","211.0","BYGLANDSFJORD, NO","FM-12","99999","V020","110,1,N,0030,1","22000,1,9,N","075000,1,N,1","+0019,1","+0015,1","10043,1",,,,"0,1,03,1","0,1,03,1",,"01,99,1,01,1,06,1,00250,1,00,1,02,1",,,"99999,9,09785,1","3,1,031,1,+999,9",,"01,1","SYN072AAXX  05091 01442 41389 11103 10019 20015 39785 40043 53031 70100 81602;",
"01442099999","2010-11-05T12:00:00","4","58.6666666","7.8","211.0","BYGLANDSFJORD, NO","FM-12","99999","V020","330,1,N,0050,1","00750,1,9,N","040000,1,N,1","+0074,1","+0023,1","10055,1",,,,"8,1,06,1","1,1,06,1",,"07,99,1,07,1,09,1,00800,1,00,1,00,1",,,"99999,9,09802,1","1,1,017,1,+999,9",,"80,1","SYN072AAXX  05121 01442 41582 73305 10074 20023 39802 40055 51017 78081 87900;",
"01442099999","2010-11-05T15:00:00","4","58.6666666","7.8","211.0","BYGLANDSFJORD, NO","FM-12","99999","V020","150,1,N,0030,1","03000,1,9,N","075000,1,N,1","+0056,1","+0017,1","10063,1",,,,"8,1,03,1","1,1,03,1",,"07,99,1,03,1,02,1,01250,1,06,1,02,1",,,"99999,9,09807,1","0,1,006,1,+999,9",,"03,1","SYN072AAXX  05151 01442 41689 71503 10056 20017 39807 40063 50006 70381 83262;",
"01442099999","2010-11-05T18:00:00","4","58.6666666","7.8","211.0","BYGLANDSFJORD, NO","FM-12","99999","V020","150,1,N,0030,1","22000,1,9,N","075000,1,N,1","+0021,1","+0012,1","10061,1","12,0000,2,1",,,"8,1,06,1","1,1,06,1","00,1,+99999,9,99,9","00,99,1,00,1,00,1,99999,9,00,1,00,1",,"999,M,+0075,1","99999,9,09802,1","6,1,005,1,+999,9",,"01,1","SYN082AAXX  05181 01442 11989 01503 10021 20012 39802 40061 56005 69912 70181 333 10075;",
"01442099999","2010-11-06T03:00:00","4","58.6666666","7.8","211.0","BYGLANDSFJORD, NO","FM-12","99999","V020","999,9,9,9999,9","99999,9,9,N","999999,9,N,1","-0005,1","-0005,1","99999,9",,,,,,,,,,,,,,"SYN066AAXX  06031 01442 41X00 90000 11005 21005 39792 40051 55001 74540;",
"01442099999","2010-11-06T06:00:00","4","58.6666666","7.8","211.0","BYGLANDSFJORD, NO","FM-12","99999","V020","300,1,N,0030,1","22000,1,9,N","075000,1,N,1","+0005,1","-0002,1","10059,1","24,0000,2,1",,,"4,1,06,1","0,1,06,1","00,1,+99999,9,99,9","00,99,1,00,1,00,1,99999,9,00,1,00,1",,"999,N,-0013,1","99999,9,09800,1","2,1,008,1,+999,9",,"02,1","SYN082AAXX  06061 01442 31989 03003 10005 21002 39800 40059 52008 70240 333 21013 70001;",
"01442099999","2010-11-06T09:00:00","4","58.6666666","7.8","211.0","BYGLANDSFJORD, NO","FM-12","99999","V020","350,1,N,0050,1","22000,1,9,N","075000,1,N,1","+0023,1","-0051,1","10076,1",,,,"0,1,03,1","0,1,03,1","00,1,+99999,9,99,9","00,99,1,00,1,00,1,99999,9,00,1,00,1",,,"99999,9,09817,1","2,1,017,1,+999,9",,"02,1","SYN066AAXX  06091 01442 41989 03505 10023 21051 39817 40076 52017 70200;",
"01442099999","2010-11-06T12:00:00","4","58.6666666","7.8","211.0","BYGLANDSFJORD, NO","FM-12","99999","V020","350,1,N,0050,1","22000,1,9,N","075000,1,N,1","+0046,1","-0063,1","10075,1",,,,"0,1,06,1","0,1,06,1",,"01,99,1,01,1,01,1,01250,1,00,1,00,1",,,"99999,9,09818,1","2,1,002,1,+999,9",,"02,1","SYN072AAXX  06121 01442 41689 13505 10046 21063 39818 40075 52002 70200 81100;",
"01442099999","2010-11-06T15:00:00","4","58.6666666","7.8","211.0","BYGLANDSFJORD, NO","FM-12","99999","V020","330,1,N,0030,1","22000,1,9,N","075000,1,N,1","+0023,1","-0063,1","10076,1",,,,"0,1,03,1","0,1,03,1","00,1,+99999,9,99,9","00,99,1,00,1,00,1,99999,9,00,1,00,1",,,"99999,9,09817,1","7,1,002,1,+999,9",,"02,1","SYN066AAXX  06151 01442 41989 03303 10023 21063 39817 40076 57002 70200;",
"01442099999","2010-11-06T18:00:00","4","58.6666666","7.8","211.0","BYGLANDSFJORD, NO","FM-12","99999","V020","350,1,N,0030,1","22000,1,9,N","075000,1,N,1","+0005,1","-0059,1","10085,1",,,,"0,1,06,1","0,1,06,1","00,1,+99999,9,99,9","00,99,1,00,1,00,1,99999,9,00,1,00,1",,"999,M,+0047,1","99999,9,09825,1","2,1,006,1,+999,9",,"02,1","SYN076AAXX  06181 01442 31989 03503 10005 21059 39825 40085 52006 70200 333 10047;",
"01442099999","2010-11-07T06:00:00","4","58.6666666","7.8","211.0","BYGLANDSFJORD, NO","FM-12","99999","V020","999,9,C,0000,1","22000,1,9,N","075000,1,N,1","-0045,1","-0046,1","10068,1","24,0000,9,1",,,"0,1,06,1","0,1,06,1","00,1,+99999,9,99,9","00,99,1,00,1,00,1,99999,9,00,1,00,1",,"999,N,-0045,1","99999,9,09807,1","7,1,007,1,+999,9",,"02,1","SYN082AAXX  07061 01442 31989 00000 11045 21046 39807 40068 57007 70200 333 21045 70000;","Q01  00002PRCP24"
"01442099999","2010-11-07T09:00:00","4","58.6666666","7.8","211.0","BYGLANDSFJORD, NO","FM-12","99999","V020","120,1,N,0030,1","22000,1,9,N","075000,1,N,1","-0028,1","-0034,1","10066,1",,,,"0,1,03,1","0,1,03,1","00,1,+99999,9,99,9","00,99,1,00,1,00,1,99999,9,00,1,00,1",,,"99999,9,09806,1","6,1,001,1,+999,9",,"02,1","SYN066AAXX  07091 01442 41989 01203 11028 21034 39806 40066 56001 70200;",
"01442099999","2010-11-07T12:00:00","4","58.6666666","7.8","211.0","BYGLANDSFJORD, NO","FM-12","99999","V020","330,1,N,0030,1","22000,1,9,N","075000,1,N,1","+0032,1","-0036,1","10045,1",,,,"0,1,06,1","0,1,06,1","00,1,+99999,9,99,9","00,99,1,00,1,00,1,99999,9,00,1,00,1",,,"99999,9,09787,1","8,1,018,1,+999,9",,"02,1","SYN066AAXX  07121 01442 41989 03303 10032 21036 39787 40045 58018 70200;",
"01442099999","2010-11-07T15:00:00","4","58.6666666","7.8","211.0","BYGLANDSFJORD, NO","FM-12","99999","V020","999,9,C,0000,1","22000,1,9,N","075000,1,N,1","+0012,1","-0057,1","10034,1",,,,"0,1,03,1","0,1,03,1","00,1,+99999,9,99,9","00,99,1,00,1,00,1,99999,9,00,1,00,1",,,"99999,9,09776,1","6,1,012,1,+999,9",,"02,1","SYN066AAXX  07151 01442 41989 00000 10012 21057 39776 40034 56012 70200;",
"01442099999","2010-11-07T18:00:00","4","58.6666666","7.8","211.0","BYGLANDSFJORD, NO","FM-12","99999","V020","330,1,N,0010,1","22000,1,9,N","075000,1,N,1","-0017,1","-0041,1","10027,1",,,,"0,1,06,1","0,1,06,1","00,1,+99999,9,99,9","00,99,1,00,1,00,1,99999,9,00,1,00,1",,"999,M,+0037,1","99999,9,09767,1","7,1,008,1,+999,9",,"02,1","SYN076AAXX  07181 01442 31989 03301 11017 21041 39767 40027 57008 70200 333 10037;",
"01442099999","2010-11-08T03:00:00","4","58.6666666","7.8","211.0","BYGLANDSFJORD, NO","FM-12","99999","V020","340,1,N,0050,1","22000,1,9,N","075000,1,N,1","-0018,1","-0040,1","09987,1",,,,"0,1,03,1","0,1,03,1","00,1,+99999,9,99,9","00,99,1,00,1,00,1,99999,9,00,1,00,1",,,"99999,9,09728,1","7,1,016,1,+999,9",,"02,1","SYN066AAXX  08031 01442 41989 03405 11018 21040 39728 49987 57016 70200;",
"01442099999","2010-11-08T06:00:00","4","58.6666666","7.8","211.0","BYGLANDSFJORD, NO","FM-12","99999","V020","330,1,N,0050,1","01200,1,9,N","075000,1,N,1","-0005,1","-0049,1","09979,1","24,0000,9,1",,,"1,1,06,1","0,1,06,1",,"08,99,1,08,1,05,1,01250,1,99,9,99,9",,"999,N,-0039,1","99999,9,09722,1","7,1,007,1,+999,9",,"03,1","SYN088AAXX  08061 01442 31689 83305 11005 21049 39722 49979 57007 70310 885// 333 21039 70000;","Q01  00002PRCP24"
"01442099999","2010-11-08T09:00:00","4","58.6666666","7.8","211.0","BYGLANDSFJORD, NO","FM-12","99999","V020","080,1,N,0070,1","01200,1,9,N","075000,1,N,1","+0013,1","-0035,1","09977,1",,,,"2,1,03,1","2,1,03,1",,"07,99,1,07,1,08,1,00800,1,00,1,01,1",,,"99999,9,09720,1","5,1,002,1,+999,9",,"03,1","SYN072AAXX  08091 01442 41589 70807 10013 21035 39720 49977 55002 70322 87801;",
"01442099999","2010-11-08T15:00:00","4","58.6666666","7.8","211.0","BYGLANDSFJORD, NO","FM-12","99999","V020","070,1,N,0070,1","03000,1,9,N","075000,1,N,1","+0010,1","-0052,1","09962,1",,,,"2,1,03,1","2,1,03,1",,"07,99,1,01,1,04,1,00800,1,06,1,08,1",,,"99999,9,09705,1","7,1,012,1,+999,9",,"01,1","SYN072AAXX  08151 01442 41589 70707 10010 21052 39705 49962 57012 70122 81468;",
"01442099999","2010-11-08T18:00:00","4","58.6666666","7.8","211.0","BYGLANDSFJORD, NO","FM-12","99999","V020","350,1,N,0050,1","00750,1,9,N","075000,1,N,1","+0008,1","-0040,1","09973,1","12,9999,9,9",,,"7,1,06,1","2,1,06,1",,"08,99,1,08,1,05,1,00800,1,99,9,99,9",,"999,M,+0016,1","99999,9,09716,1","2,1,011,1,+999,9",,"22,1","SYN088AAXX  08181 01442 11589 83505 10008 21040 39716 49973 52011 69902 72272 885// 333 10016;","Q01  00002PRCP12Q02  00002PRCP12"
"01442099999","2010-11-09T03:00:00","4","58.6666666","7.8","211.0","BYGLANDSFJORD, NO","FM-12","99999","V020","340,1,N,0100,1","22000,1,9,N","075000,1,N,1","-0018,1","-0099,1","09967,1",,,,"0,1,03,1","0,1,03,1","00,1,+99999,9,99,9","00,99,1,00,1,00,1,99999,9,00,1,00,1",,,"99999,9,09710,1","7,1,012,1,+999,9",,"02,1","SYN066AAXX  09031 01442 41989 03410 11018 21099 39710 49967 57012 70200;",
"01442099999","2010-11-09T06:00:00","4","58.6666666","7.8","211.0","BYGLANDSFJORD, NO","FM-12","99999","V020","340,1,N,0100,1","22000,1,9,N","075000,1,N,1","-0018,1","-0108,1","09964,1","24,0000,2,1",,,"0,1,06,1","0,1,06,1","00,1,+99999,9,99,9","00,99,1,00,1,00,1,99999,9,00,1,00,1",,"999,N,-0020,1","99999,9,09707,1","8,1,003,1,+999,9",,"02,1","SYN082AAXX  09061 01442 31989 03410 11018 21108 39707 49964 58003 70200 333 21020 79999;",
"01442099999","2010-11-09T09:00:00","4","58.6666666","7.8","211.0","BYGLANDSFJORD, NO","FM-12","99999","V020","330,1,N,0070,1","22000,1,9,N","075000,1,N,1","-0017,1","-0083,1","09961,1",,,,"0,1,03,1","0,1,03,1",,"01,99,1,01,1,00,1,02250,1,04,1,01,1",,,"99999,9,09703,1","8,1,003,1,+999,9",,"03,1","SYN072AAXX  09091 01442 41889 13307 11017 21083 39703 49961 58003 70300 81041;",
"01442099999","2010-11-09T12:00:00","4","58.6666666","7.8","211.0","BYGLANDSFJORD, NO","FM-12","99999","V020","340,1,N,0100,1","07500,1,9,N","075000,1,N,1","-0003,1","-0082,1","09945,1",,,,"1,1,06,1","0,1,06,1",,"07,99,1,03,1,00,1,02250,1,04,1,02,1",,,"99999,9,09688,1","8,1,015,1,+999,9",,"03,1","SYN072AAXX  09121 01442 41889 73410 11003 21082 39688 49945 58015 70310 83042;",
"01442099999","2010-11-09T15:00:00","4","58.6666666","7.8","211.0","BYGLANDSFJORD, NO","FM-12","99999","V020","350,1,N,0100,1","02100,1,9,N","075000,1,N,1","+0002,1","-0089,1","09930,1",,,,"2,1,03,1","2,1,03,1",,"07,99,1,06,1,00,1,02250,1,07,1,02,1",,,"99999,9,09673,1","6,1,015,1,+999,9",,"02,1","SYN072AAXX  09151 01442 41889 73510 10002 21089 39673 49930 56015 70222 86072;",
"01442099999","2010-11-09T18:00:00","4","58.6666666","7.8","211.0","BYGLANDSFJORD, NO","FM-12","99999","V020","350,1,N,0050,1","01500,1,9,N","020000,1,N,1","-0007,1","-0051,1","09928,1","12,9999,9,9",,,"7,1,06,1","2,1,06,1",,"08,99,1,08,1,05,1,01750,1,99,9,99,9",,"999,M,+0003,1","99999,9,09672,1","7,1,002,1,+999,9",,"70,1","SYN088AAXX  09181 01442 11770 83505 11007 21051 39672 49928 57002 69902 77072 885// 333 10003;","Q01  00002PRCP12Q02  00002PRCP12"
"01442099999","2010-11-10T03:00:00","4","58.6666666","7.8","211.0","BYGLANDSFJORD, NO","FM-12","99999","V020","010,1,N,0050,1","01200,1,9,N","010000,1,N,1","-0010,1","-0047,1","09904,1",,,,"7,1,03,1","2,1,03,1",,"08,99,1,08,1,05,1,01250,1,99,9,99,9",,,"99999,9,09647,1","7,1,008,1,+999,9",,"70,1","SYN072AAXX  10031 01442 41660 80105 11010 21047 39647 49904 57008 77072 885//;",
"01442099999","2010-11-10T06:00:00","4","58.6666666","7.8","211.0","BYGLANDSFJORD, NO","FM-12","99999","V020","010,1,N,0030,1","01200,1,9,N","020000,1,N,1","-0011,1","-0047,1","09901,1","12,0003,9,1","24,0003,9,1","9999,3,9,999999,9,9","7,1,06,1","2,1,06,1",,"08,99,1,08,1,05,1,01250,1,99,9,99,9","24,9","999,N,-0015,1","99999,9,09645,1","7,1,003,1,+999,9",,"70,1","SYN100AAXX  10061 01442 11670 80103 11011 21047 39645 49901 57003 69932 77072 885// 333 21015 48997 70003;","Q01  09972SNDP  "
"01442099999","2010-11-10T09:00:00","4","58.6666666","7.8","211.0","BYGLANDSFJORD, NO","FM-12","99999","V020","350,1,N,0030,1","01200,1,9,N","075000,1,N,1","-0010,1","-0049,1","09911,1",,,,"7,1,03,1","2,1,03,1",,"08,99,1,08,1,05,1,01250,1,99,9,99,9",,,"99999,9,09655,1","2,1,010,1,+999,9",,"02,1","SYN072AAXX  10091 01442 41689 83503 11010 21049 39655 49911 52010 70272 885//;",
"01442099999","2010-11-10T12:00:00","4","58.6666666","7.8","211.0","BYGLANDSFJORD, NO","FM-12","99999","V020","350,1,N,0050,1","03000,1,9,N","075000,1,N,1","+0003,1","-0063,1","09911,1",,,,"7,1,06,1","2,1,06,1",,"07,99,1,01,1,01,1,01250,1,07,1,02,1",,,"99999,9,09656,1","0,1,001,1,+999,9",,"01,1","SYN072AAXX  10121 01442 41689 73505 10003 21063 39656 49911 50001 70172 81172;",
"01442099999","2010-11-10T15:00:00","4","58.6666666","7.8","211.0","BYGLANDSFJORD, NO","FM-12","99999","V020","020,1,N,0030,1","02100,1,9,N","075000,1,N,1","+0000,1","-0055,1","09918,1",,,,"2,1,03,1","2,1,03,1",,"07,99,1,07,1,00,1,02250,1,07,1,01,1",,,"99999,9,09662,1","2,1,006,1,+999,9",,"03,1","SYN072AAXX  10151 01442 41889 70203 10000 21055 39662 49918 52006 70322 87071;",
"01442099999","2010-11-10T18:00:00","4","58.6666666","7.8","211.0","BYGLANDSFJORD, NO","FM-12","99999","V020","999,9,C,0000,1","22000,1,9,N","075000,1,N,1","-0030,1","-0053,1","09931,1","12,0000,2,1",,,"2,1,06,1","1,1,06,1","00,1,+99999,9,99,9","00,99,1,00,1,00,1,99999,9,00,1,00,1",,"999,M,+0007,1","99999,9,09673,1","2,1,012,1,+999,9",,"01,1","SYN082AAXX  10181 01442 11989 00000 11030 21053 39673 49931 52012 69902 70121 333 10007;",
"01442099999","2010-11-11T03:00:00","4","58.6666666","7.8","211.0","BYGLANDSFJORD, NO","FM-12","99999","V020","999,9,C,0000,1","22000,1,9,N","075000,1,N,1","-0076,1","-0076,1","09950,1",,,,"0,1,03,1","0,1,03,1","00,1,+99999,9,99,9","00,99,1,00,1,00,1,99999,9,00,1,00,1",,,"99999,9,09691,1","0,1,006,1,+999,9",,"02,1","SYN066AAXX  11031 01442 41989 00000 11076 21076 39691 49950 50006 70200;",
"01442099999","2010-11-11T06:00:00","4","58.6666666","7.8","211.0","BYGLANDSFJORD, NO","FM-12","99999","V020","150,1,N,0030,1","22000,1,9,N","075000,1,N,1","-0077,1","-0077,1","09950,1","24,0000,2,1",,"9999,2,9,999999,9,9","0,1,06,1","0,1,06,1",,"01,99,1,01,1,00,1,99999,9,04,1,00,1","22,9","999,N,-0080,1","99999,9,09691,1","5,1,000,1,+999,9",,"02,1","SYN094AAXX  11061 01442 31989 11503 11077 21077 39691 49950 55000 70200 81040 333 21080 46998 79999;","Q01  09982SNDP  "
"01442099999","2010-11-11T09:00:00","4","58.6666666","7.8","211.0","BYGLANDSFJORD, NO","FM-12","99999","V020","120,1,N,0010,1","00750,1,9,N","075000,1,N,1","-0062,1","-0063,1","09938,1",,,,"1,1,03,1","1,1,03,1",,"07,99,1,07,1,05,1,00800,1,00,1,00,1",,,"99999,9,09680,1","8,1,011,1,+999,9",,"03,1","SYN072AAXX  11091 01442 41589 71201 11062 21063 39680 49938 58011 70311 87500;",
"01442099999","2010-11-11T12:00:00","4","58.6666666","7.8","211.0","BYGLANDSFJORD, NO","FM-12","99999","V020","999,9,C,0000,1","00750,1,9,N","075000,1,N,1","-0018,1","-0020,1","09908,1",,,,"2,1,06,1","1,1,06,1",,"08,99,1,08,1,05,1,00800,1,99,9,99,9",,,"99999,9,09652,1","8,1,028,1,+999,9",,"03,1","SYN072AAXX  11121 01442 41589 80000 11018 21020 39652 49908 58028 70321 885//;",
"01442099999","2010-11-11T15:00:00","4","58.6666666","7.8","211.0","BYGLANDSFJORD, NO","FM-12","99999","V020","999,9,9,9999,9","99999,9,9,N","999999,9,N,1","-0008,1","-0010,1","99999,9",,,,,,,,,,,,,,"SYN066AAXX  11151 01442 41X88 93503 11008 21010 39601 49855 58051 77372;",
"01442099999","2010-11-11T18:00:00","4","58.6666666","7.8","211.0","BYGLANDSFJORD, NO","FM-12","99999","V020","150,1,N,0050,1","00420,1,9,N","020000,1,N,1","+0031,1","+0019,1","09796,1","12,0051,9,1",,,"7,1,06,1","2,1,06,1",,"08,99,1,07,1,07,1,00450,1,02,1,99,9",,"999,M,+0031,1","99999,9,09545,1","6,1,057,2,+999,9",,"61,1","SYN088AAXX  11181 01442 11470 81505 10031 20019 39545 49796 56057 60052 76172 8772/ 333 10031;","Q01+000572APC3  "
"01442099999","2010-11-12T03:00:00","4","58.6666666","7.8","211.0","BYGLANDSFJORD, NO","FM-12","99999","V020","350,1,N,0030,1","00420,1,9,N","020000,1,N,1","+0016,1","+0009,1","09691,1",,,,"7,1,03,1","6,1,03,1",,"08,99,1,08,1,07,1,00450,1,99,9,99,9",,,"99999,9,09442,1","6,1,022,1,+999,9",,"61,1","SYN072AAXX  12031 01442 41470 83503 10016 20009 39442 49691 56022 76176 887//;",
"01442099999","2010-11-12T06:00:00","4","58.6666666","7.8","211.0","BYGLANDSFJORD, NO","FM-12","99999","V020","010,1,N,0050,1","00420,1,9,N","015000,1,N,1","+0021,1","+0009,1","09679,1","12,0160,9,1","24,0211,9,1","0002,9,1,999999,9,9","7,1,06,1","6,1,06,1",,"08,99,1,08,1,07,1,00450,1,99,9,99,9","28,9","999,N,+0006,1","99999,9,09430,1","8,1,012,1,+999,9",,"63,1","SYN100AAXX  12061 01442 11465 80105 10021 20009 39430 49679 58012 60162 76376 887// 333 20006 44002 70212;",
"01442099999","2010-11-12T09:00:00","4","58.6666666","7.8","211.0","BYGLANDSFJORD, NO","FM-12","99999","V020","340,1,N,0050,1","00750,1,9,N","050000,1,N,1","+0020,1","+0011,1","09686,1",,,,"7,1,03,1","6,1,03,1",,"08,99,1,05,1,07,1,00800,1,02,1,99,9",,,"99999,9,09437,1","2,1,007,1,+999,9",,"61,1","SYN072AAXX  12091 01442 41584 83405 10020 20011 39437 49686 52007 76176 8572/;",
"01442099999","2010-11-12T12:00:00","4","58.6666666","7.8","211.0","BYGLANDSFJORD, NO","FM-12","99999","V020","350,1,N,0050,1","00420,1,9,N","005000,1,N,1","+0016,1","+0012,1","09696,1",,,,"7,1,06,1","6,1,06,1",,"08,99,1,08,1,07,1,00450,1,99,9,99,9",,,"99999,9,09447,1","3,1,010,1,+999,9",,"68,1","SYN072AAXX  12121 01442 41450 83505 10016 20012 39447 49696 53010 76876 887//;",
"01442099999","2010-11-12T15:00:00","4","58.6666666","7.8","211.0","BYGLANDSFJORD, NO","FM-12","99999","V020","350,1,N,0050,1","00420,1,9,N","070000,1,N,1","+0024,1","+0006,1","09718,1",,,,"7,1,03,1","6,1,03,1",,"08,99,1,05,1,07,1,00450,1,02,1,99,9",,,"99999,9,09468,1","3,1,022,1,+999,9",,"21,1","SYN072AAXX  12151 01442 41488 83505 10024 20006 39468 49718 53022 72176 8572/;",
"01442099999","2010-11-12T18:00:00","4","58.6666666","7.8","211.0","BYGLANDSFJORD, NO","FM-12","99999","V020","999,9,C,0000,1","03000,1,9,N","075000,1,N,1","+0019,1","+0010,1","09744,1","12,0061,9,1",,,"7,1,06,1","6,1,06,1",,"07,99,1,01,1,07,1,00800,1,07,1,00,1",,"999,M,+0026,1","99999,9,09493,1","2,1,024,1,+999,9",,"01,1","SYN088AAXX  12181 01442 11589 70000 10019 20010 39493 49744 52024 60062 70176 81770 333 10026;",
"01442099999","2010-11-13T03:00:00","4","58.6666666","7.8","211.0","BYGLANDSFJORD, NO","FM-12","99999","V020","350,1,N,0030,1","00750,1,9,N","030000,1,N,1","+0011,1","+0010,1","09748,1",,,,"6,1,03,1","2,1,03,1",,"08,99,1,08,1,05,1,00800,1,99,9,99,9",,,"99999,9,09497,1","7,1,005,1,+999,9",,"60,1","SYN072AAXX  13031 01442 41580 83503 10011 20010 39497 49748 57005 76062 885//;",
"01442099999","2010-11-13T06:00:00","4","58.6666666","7.8","211.0","BYGLANDSFJORD, NO","FM-12","99999","V020","330,1,N,0010,1","00750,1,9,N","070000,1,N,1","+0013,1","+0010,1","09755,1","12,0010,9,1","24,0071,9,1","9999,2,9,999999,9,9","6,1,06,1","2,1,06,1",,"08,99,1,08,1,05,1,00800,1,99,9,99,9","25,9","999,N,+0009,1","99999,9,09503,1","3,1,007,1,+999,9",,"02,1","SYN100AAXX  13061 01442 11588 83301 10013 20010 39503 49755 53007 69992 70262 885// 333 20009 41998 70072;","Q01  09982SNDP  "
"01442099999","2010-11-13T09:00:00","4","58.6666666","7.8","211.0","BYGLANDSFJORD, NO","FM-12","99999","V020","999,9,C,0000,1","00120,1,9,N","005000,1,N,1","+0007,1","+0007,1","09775,1",,,,"7,1,03,1","2,1,03,1",,"08,99,1,08,1,06,1,00150,1,99,9,99,9",,,"99999,9,09522,1","2,1,019,1,+999,9",,"70,1","SYN072AAXX  13091 01442 41250 80000 10007 20007 39522 49775 52019 77072 886//;",
"01442099999","2010-11-13T12:00:00","4","58.6666666","7.8","211.0","BYGLANDSFJORD, NO","FM-12","99999","V020","160,1,N,0030,1","00060,1,9,N","010000,1,N,1","+0017,1","+0014,1","09795,1",,,,"7,1,06,1","2,1,06,1",,"08,99,1,08,1,06,1,00075,1,99,9,99,9",,,"99999,9,09542,1","2,1,020,1,+999,9",,"68,1","SYN072AAXX  13121 01442 41160 81603 10017 20014 39542 49795 52020 76872 886//;",
"01442099999","2010-11-13T15:00:00","4","58.6666666","7.8","211.0","BYGLANDSFJORD, NO","FM-12","99999","V020","150,1,N,0030,1","00060,1,9,N","005000,1,N,1","+0013,1","+0012,1","09807,1",,,,"7,1,03,1","2,1,03,1",,"08,99,1,08,1,06,1,00075,1,99,9,99,9",,,"99999,9,09555,1","2,1,012,1,+999,9",,"68,1","SYN072AAXX  13151 01442 41150 81503 10013 20012 39555 49807 52012 76872 886//;",
"01442099999","2010-11-13T18:00:00","4","58.6666666","7.8","211.0","BYGLANDSFJORD, NO","FM-12","99999","V020","150,1,N,0010,1","00060,1,9,N","005000,1,N,1","+0007,1","+0007,1","09820,1","12,0030,9,1",,,"7,1,06,1","2,1,06,1",,"08,99,1,08,1,06,1,00075,1,99,9,99,9",,"999,M,+0019,1","99999,9,09567,1","2,1,012,1,+999,9",,"68,1","SYN088AAXX  13181 01442 11150 81501 10007 20007 39567 49820 52012 60032 76872 886// 333 10019;",
"01442099999","2010-11-14T06:00:00","4","58.6666666","7.8","211.0","BYGLANDSFJORD, NO","FM-12","99999","V020","999,9,C,0000,1","22000,1,9,N","000200,1,N,1","-0007,1","-0007,1","09906,1","12,0010,9,1","24,0038,9,1","9999,2,9,999999,9,9","2,1,06,1","1,1,06,1","00,1,+99999,9,99,9","00,99,1,00,1,00,1,99999,9,00,1,00,1","25,9","999,N,-0007,1","99999,9,09650,1","1,1,017,1,+999,9",,"46,1","SYN094AAXX  14061 01442 11902 00000 11007 21007 39650 49906 51017 60012 74621 333 21007 41998 70039;","Q01  09982SNDP  "
"01442099999","2010-11-14T09:00:00","4","58.6666666","7.8","211.0","BYGLANDSFJORD, NO","FM-12","99999","V020","170,1,N,0010,1","03000,1,9,N","070000,1,N,1","+0000,1","+0000,1","09931,1",,,,"4,1,03,1","1,1,03,1",,"07,99,1,02,1,06,1,00450,1,07,1,02,1",,,"99999,9,09675,1","1,1,025,1,+999,9",,"03,1","SYN072AAXX  14091 01442 41488 71701 10000 20000 39675 49931 51025 70341 82672;",
"01442099999","2010-11-14T12:00:00","4","58.6666666","7.8","211.0","BYGLANDSFJORD, NO","FM-12","99999","V020","350,1,N,0030,1","03000,1,9,N","070000,1,N,1","+0018,1","+0018,1","09935,1",,,,"6,1,06,1","4,1,06,1",,"08,99,1,03,1,06,1,00450,1,07,1,99,9",,,"99999,9,09680,1","0,1,005,1,+999,9",,"21,1","SYN072AAXX  14121 01442 41488 83503 10018 20018 39680 49935 50005 72164 8367/;",
"01442099999","2010-11-14T15:00:00","4","58.6666666","7.8","211.0","BYGLANDSFJORD, NO","FM-12","99999","V020","999,9,C,0000,1","00060,1,9,N","060000,1,N,1","+0022,1","+0022,1","09942,1",,,,"6,1,03,1","2,1,03,1",,"08,99,1,08,1,06,1,00075,1,99,9,99,9",,,"99999,9,09687,1","1,1,007,1,+999,9",,"21,1","SYN072AAXX  14151 01442 41186 80000 10022 20022 39687 49942 51007 72162 886//;",
"01442099999","2010-11-14T18:00:00","4","58.6666666","7.8","211.0","BYGLANDSFJORD, NO","FM-12","99999","V020","330,1,N,0030,1","00060,1,9,N","050000,1,N,1","+0020,1","+0020,1","09951,1","12,0005,9,1",,,"6,1,06,1","2,1,06,1",,"08,99,1,08,1,06,1,00075,1,99,9,99,9",,"999,M,+0024,1","99999,9,09695,1","2,1,008,1,+999,9",,"02,1","SYN088AAXX  14181 01442 11184 83303 10020 20020 39695 49951 52008 69962 70262 886// 333 10024;",
"01442099999","2010-11-15T03:00:00","4","58.6666666","7.8","211.0","BYGLANDSFJORD, NO","FM-12","99999","V020","999,9,C,0000,1","00210,1,9,N","060000,1,N,1","+0023,1","+0023,1","09967,1",,,,"6,1,03,1","2,1,03,1",,"08,99,1,08,1,06,1,00250,1,99,9,99,9",,,"99999,9,09711,1","2,1,006,1,+999,9",,"02,1","SYN072AAXX  15031 01442 41386 80000 10023 20023 39711 49967 52006 70262 886//;",
"01442099999","2010-11-15T06:00:00","4","58.6666666","7.8","211.0","BYGLANDSFJORD, NO","FM-12","99999","V020","340,1,N,0030,1","00120,1,9,N","060000,1,N,1","+0018,1","+0018,1","09985,1","12,0030,9,1","24,0038,9,1",,"6,1,06,1","2,1,06,1",,"08,99,1,08,1,06,1,00150,1,99,9,99,9",,"999,N,+0018,1","99999,9,09727,1","3,1,017,1,+999,9",,"02,1","SYN094AAXX  15061 01442 11286 83403 10018 20018 39727 49985 53017 60032 70262 886// 333 20018 70037;",
"01442099999","2010-11-15T09:00:00","4","58.6666666","7.8","211.0","BYGLANDSFJORD, NO","FM-12","99999","V020","340,1,N,0010,1","00120,1,9,N","070000,1,N,1","+0016,1","+0016,1","10020,1",,,,"2,1,03,1","2,1,03,1",,"07,99,1,07,1,06,1,00150,1,03,1,00,1",,,"99999,9,09762,1","3,1,034,1,+999,9",,"01,1","SYN072AAXX  15091 01442 41288 73401 10016 20016 39762 40020 53034 70122 87630;",
"01442099999","2010-11-15T12:00:00","4","58.6666666","7.8","211.0","BYGLANDSFJORD, NO","FM-12","99999","V020","330,1,N,0050,1","22000,1,9,N","075000,1,N,1","+0041,1","-0007,1","10056,1",,,,"2,1,06,1","1,1,06,1",,"01,99,1,01,1,01,1,01250,1,03,1,00,1",,,"99999,9,09800,1","2,1,038,1,+999,9",,"01,1","SYN072AAXX  15121 01442 41689 13305 10041 21007 39800 40056 52038 70121 81130;",
"01442099999","2010-11-15T15:00:00","4","58.6666666","7.8","211.0","BYGLANDSFJORD, NO","FM-12","99999","V020","999,9,C,0000,1","22000,1,9,N","075000,1,N,1","+0022,1","-0005,1","10093,1",,,,"0,1,03,1","0,1,03,1","00,1,+99999,9,99,9","00,99,1,00,1,00,1,99999,9,00,1,00,1",,,"99999,9,09833,1","3,1,034,1,+999,9",,"02,1","SYN066AAXX  15151 01442 41989 00000 10022 21005 39833 40093 53034 70200;",
"01442099999","2010-11-15T18:00:00","4","58.6666666","7.8","211.0","BYGLANDSFJORD, NO","FM-12","99999","V020","120,1,N,0010,1","22000,1,9,N","075000,1,N,1","-0015,1","-0017,1","10133,1",,,,"0,1,06,1","0,1,06,1","00,1,+99999,9,99,9","00,99,1,00,1,00,1,99999,9,00,1,00,1",,"999,M,+0045,1","99999,9,09871,1","3,1,037,1,+999,9",,"02,1","SYN076AAXX  15181 01442 31989 01201 11015 21017 39871 40133 53037 70200 333 10045;",
"01442099999","2010-11-16T03:00:00","4","58.6666666","7.8","211.0","BYGLANDSFJORD, NO","FM-12","99999","V020","999,9,C,0000,1","22000,1,9,N","075000,1,N,1","-0037,1","-0037,1","10208,1",,,,"0,1,03,1","0,1,03,1","00,1,+99999,9,99,9","00,99,1,00,1,00,1,99999,9,00,1,00,1",,,"99999,9,09943,1","3,1,020,1,+999,9",,"02,1","SYN066AAXX  16031 01442 41989 00000 11037 21037 39943 40208 53020 70200;",
"01442099999","2010-11-16T06:00:00","4","58.6666666","7.8","211.0","BYGLANDSFJORD, NO","FM-12","99999","V020","350,1,N,0030,1","00060,1,9,N","075000,1,N,1","-0021,1","-0021,1","10222,1","24,0000,9,1",,,"1,1,06,1","0,1,06,1",,"08,99,1,08,1,06,1,00075,1,99,9,99,9",,"999,N,-0044,1","99999,9,09957,1","1,1,013,1,+999,9",,"03,1","SYN088AAXX  16061 01442 31189 83503 11021 21021 39957 40222 51013 70310 886// 333 21044 70000;","Q01  00002PRCP24"
"01442099999","2010-11-16T09:00:00","4","58.6666666","7.8","211.0","BYGLANDSFJORD, NO","FM-12","99999","V020","340,1,N,0030,1","00750,1,9,N","075000,1,N,1","-0008,1","-0010,1","10244,1",,,,"2,1,03,1","2,1,03,1",,"07,99,1,07,1,05,1,00800,1,00,1,00,1",,,"99999,9,09980,1","2,1,022,1,+999,9",,"01,1","SYN072AAXX  16091 01442 41589 73403 11008 21010 39980 40244 52022 70122 87500;",
"01442099999","2010-11-16T12:00:00","4","58.6666666","7.8","211.0","BYGLANDSFJORD, NO","FM-12","99999","V020","340,1,N,0030,1","00750,1,9,N","075000,1,N,1","+0002,1","-0012,1","10251,1",,,,"7,1,06,1","2,1,06,1",,"08,99,1,08,1,05,1,00800,1,99,9,99,9",,,"99999,9,09987,1","1,1,007,1,+999,9",,"22,1","SYN072AAXX  16121 01442 41589 83403 10002 21012 39987 40251 51007 72272 885//;",
"01442099999","2010-11-16T15:00:00","4","58.6666666","7.8","211.0","BYGLANDSFJORD, NO","FM-12","99999","V020","050,1,N,0010,1","01200,1,9,N","075000,1,N,1","+0008,1","-0001,1","10255,1",,,,"2,1,03,1","2,1,03,1",,"07,99,1,07,1,05,1,01250,1,00,1,00,1",,,"99999,9,09991,1","2,1,004,1,+999,9",,"01,1","SYN072AAXX  16151 01442 41689 70501 10008 21001 39991 40255 52004 70122 87500;",
"01442099999","2010-11-16T18:00:00","4","58.6666666","7.8","211.0","BYGLANDSFJORD, NO","FM-12","99999","V020","330,1,N,0010,1","00750,1,9,N","075000,1,N,1","+0005,1","+0004,1","10264,1","12,0010,9,1",,,"7,1,06,1","2,1,06,1",,"08,99,1,08,1,05,1,00800,1,99,9,99,9",,"999,M,+0009,1","99999,9,10000,1","2,1,009,1,+999,9",,"22,1","SYN088AAXX  16181 01442 11589 83301 10005 20004 30000 40264 52009 69992 72272 885// 333 10009;",
"01442099999","2010-11-17T03:00:00","4","58.6666666","7.8","211.0","BYGLANDSFJORD, NO","FM-12","99999","V020","350,1,N,0030,1","00210,1,9,N","075000,1,N,1","+0011,1","+0008,1","10268,1",,,,"2,1,03,1","2,1,03,1",,"07,99,1,07,1,06,1,00250,1,00,1,00,1",,,"99999,9,10003,1","5,1,002,1,+999,9",,"02,1","SYN072AAXX  17031 01442 41389 73503 10011 20008 30003 40268 55002 70222 87600;",
"01442099999","2010-11-17T06:00:00","4","58.6666666","7.8","211.0","BYGLANDSFJORD, NO","FM-12","99999","V020","340,1,N,0030,1","00210,1,9,N","075000,1,N,1","+0014,1","+0010,1","10268,1","24,0010,9,1",,"9999,2,9,999999,9,9","2,1,06,1","2,1,06,1",,"08,99,1,08,1,06,1,00250,1,99,9,99,9","30,9","999,N,+0006,1","99999,9,10003,1","4,1,000,1,+999,9",,"02,1","SYN094AAXX  17061 01442 31389 83403 10014 20010 30003 40268 54000 70222 886// 333 20006 42998 70009;","Q01  09982SNDP  "
"01442099999","2010-11-17T09:00:00","4","58.6666666","7.8","211.0","BYGLANDSFJORD, NO","FM-12","99999","V020","340,1,N,0030,1","00420,1,9,N","075000,1,N,1","+0020,1","+0001,1","10273,1",,,,"2,1,03,1","2,1,03,1",,"07,99,1,07,1,06,1,00450,1,00,1,00,1",,,"99999,9,10008,1","2,1,005,1,+999,9",,"01,1","SYN072AAXX  17091 01442 41489 73403 10020 20001 30008 40273 52005 70122 87600;",
"01442099999","2010-11-17T12:00:00","4","58.6666666","7.8","211.0","BYGLANDSFJORD, NO","FM-12","99999","V020","330,1,N,0050,1","22000,1,9,N","075000,1,N,1","+0023,1","-0028,1","10270,1",,,,"2,1,06,1","1,1,06,1",,"01,99,1,01,1,01,1,01250,1,00,1,00,1",,,"99999,9,10006,1","8,1,003,1,+999,9",,"01,1","SYN072AAXX  17121 01442 41689 13305 10023 21028 30006 40270 58003 70121 81100;",
"01442099999","2010-11-17T15:00:00","4","58.6666666","7.8","211.0","BYGLANDSFJORD, NO","FM-12","99999","V020","030,1,N,0050,1","22000,1,9,N","075000,1,N,1","+0017,1","-0041,1","10257,1",,,,"0,1,03,1","0,1,03,1","00,1,+99999,9,99,9","00,99,1,00,1,00,1,99999,9,00,1,00,1",,,"99999,9,09992,1","6,1,013,1,+999,9",,"02,1","SYN066AAXX  17151 01442 41989 00305 10017 21041 39992 40257 56013 70200;",
"01442099999","2010-11-17T18:00:00","4","58.6666666","7.8","211.0","BYGLANDSFJORD, NO","FM-12","99999","V020","030,1,N,0030,1","22000,1,9,N","075000,1,N,1","-0004,1","-0035,1","10260,1",,,,"0,1,06,1","0,1,06,1","00,1,+99999,9,99,9","00,99,1,00,1,00,1,99999,9,00,1,00,1",,"999,M,+0025,1","99999,9,09995,1","3,1,002,1,+999,9",,"02,1","SYN076AAXX  17181 01442 31989 00303 11004 21035 39995 40260 53002 70200 333 10025;",
"01442099999","2010-11-18T03:00:00","4","58.6666666","7.8","211.0","BYGLANDSFJORD, NO","FM-12","99999","V020","350,1,N,0070,1","00750,1,9,N","075000,1,N,1","-0028,1","-0051,1","10243,1",,,,"2,1,03,1","2,1,03,1",,"08,99,1,08,1,05,1,00800,1,99,9,99,9",,,"99999,9,09977,1","7,1,012,1,+999,9",,"02,1","SYN072AAXX  18031 01442 41589 83507 11028 21051 39977 40243 57012 70222 885//;",
"01442099999","2010-11-18T06:00:00","4","58.6666666","7.8","211.0","BYGLANDSFJORD, NO","FM-12","99999","V020","340,1,N,0050,1","00750,1,9,N","075000,1,N,1","-0037,1","-0068,1","10236,1","24,0000,9,1",,,"2,1,06,1","2,1,06,1",,"07,99,1,07,1,05,1,00800,1,00,1,00,1",,"999,N,-0037,1","99999,9,09971,1","5,1,007,1,+999,9",,"01,1","SYN088AAXX  18061 01442 31589 73405 11037 21068 39971 40236 55007 70122 87500 333 21037 70000;","Q01  00002PRCP24"
"01442099999","2010-11-18T09:00:00","4","58.6666666","7.8","211.0","BYGLANDSFJORD, NO","FM-12","99999","V020","340,1,N,0050,1","01200,1,9,N","075000,1,N,1","-0040,1","-0067,1","10233,1",,,,"2,1,03,1","2,1,03,1",,"07,99,1,07,1,05,1,01250,1,00,1,00,1",,,"99999,9,09967,1","8,1,003,1,+999,9",,"02,1","SYN072AAXX  18091 01442 41689 73405 11040 21067 39967 40233 58003 70222 87500;",
"01442099999","2010-11-18T12:00:00","4","58.6666666","7.8","211.0","BYGLANDSFJORD, NO","FM-12","99999","V020","120,1,N,0050,1","22000,1,9,N","075000,1,N,1","-0035,1","-0078,1","10225,1",,,,"2,1,06,1","1,1,06,1",,"01,99,1,01,1,01,1,01250,1,00,1,01,1",,,"99999,9,09960,1","7,1,008,1,+999,9",,"01,1","SYN072AAXX  18121 01442 41689 11205 11035 21078 39960 40225 57008 70121 81101;",
"01442099999","2010-11-18T15:00:00","4","58.6666666","7.8","211.0","BYGLANDSFJORD, NO","FM-12","99999","V020","120,1,N,0030,1","22000,1,9,N","075000,1,N,1","-0045,1","-0080,1","10225,1",,,,"0,1,03,1","0,1,03,1",,"01,99,1,01,1,01,1,01250,1,00,1,00,1",,,"99999,9,09960,1","5,1,000,1,+999,9",,"01,1","SYN072AAXX  18151 01442 41689 11203 11045 21080 39960 40225 55000 70100 81100;",
"01442099999","2010-11-18T18:00:00","4","58.6666666","7.8","211.0","BYGLANDSFJORD, NO","FM-12","99999","V020","340,1,N,0050,1","01200,1,9,N","075000,1,N,1","-0025,1","-0053,1","10226,1",,,,"1,1,06,1","0,1,06,1",,"08,99,1,08,1,05,1,01250,1,99,9,99,9",,"999,M,-0025,1","99999,9,09962,1","0,1,002,1,+999,9",,"03,1","SYN082AAXX  18181 01442 31689 83405 11025 21053 39962 40226 50002 70310 885// 333 11025;",
"01442099999","2010-11-19T03:00:00","4","58.6666666","7.8","211.0","BYGLANDSFJORD, NO","FM-12","99999","V020","330,1,N,0070,1","01200,1,9,N","075000,1,N,1","-0034,1","-0059,1","10234,1",,,,"2,1,03,1","2,1,03,1",,"08,99,1,08,1,05,1,01250,1,99,9,99,9",,,"99999,9,09968,1","4,1,000,1,+999,9",,"02,1","SYN072AAXX  19031 01442 41689 83307 11034 21059 39968 40234 54000 70222 885//;",
"01442099999","2010-11-19T06:00:00","4","58.6666666","7.8","211.0","BYGLANDSFJORD, NO","FM-12","99999","V020","010,1,N,0050,1","01200,1,9,N","075000,1,N,1","-0039,1","-0069,1","10237,1","24,0000,9,1",,,"2,1,06,1","2,1,06,1",,"08,99,1,08,1,05,1,01250,1,99,9,99,9",,"999,N,-0039,1","99999,9,09972,1","2,1,002,1,+999,9",,"02,1","SYN088AAXX  19061 01442 31689 80105 11039 21069 39972 40237 52002 70222 885// 333 21039 70000;","Q01  00002PRCP24"
"01442099999","2010-11-19T09:00:00","4","58.6666666","7.8","211.0","BYGLANDSFJORD, NO","FM-12","99999","V020","340,1,N,0070,1","01200,1,9,N","075000,1,N,1","-0039,1","-0065,1","10245,1",,,,"2,1,03,1","2,1,03,1",,"08,99,1,08,1,05,1,01250,1,99,9,99,9",,,"99999,9,09980,1","2,1,008,1,+999,9",,"02,1","SYN072AAXX  19091 01442 41689 83407 11039 21065 39980 40245 52008 70222 885//;",
"01442099999","2010-11-19T12:00:00","4","58.6666666","7.8","211.0","BYGLANDSFJORD, NO","FM-12","99999","V020","340,1,N,0070,1","01200,1,9,N","075000,1,N,1","-0029,1","-0060,1","10242,1",,,,"2,1,06,1","2,1,06,1",,"08,99,1,08,1,05,1,01250,1,99,9,99,9",,,"99999,9,09977,1","8,1,003,1,+999,9",,"02,1","SYN072AAXX  19121 01442 41689 83407 11029 21060 39977 40242 58003 70222 885//;",
"01442099999","2010-11-19T15:00:00","4","58.6666666","7.8","211.0","BYGLANDSFJORD, NO","FM-12","99999","V020","340,1,N,0070,1","00750,1,9,N","075000,1,N,1","-0026,1","-0052,1","10237,1",,,,"2,1,03,1","2,1,03,1",,"08,99,1,08,1,05,1,00800,1,99,9,99,9",,,"99999,9,09972,1","7,1,005,1,+999,9",,"02,1","SYN072AAXX  19151 01442 41589 83407 11026 21052 39972 40237 57005 70222 885//;",
"01442099999","2010-11-19T18:00:00","4","58.6666666","7.8","211.0","BYGLANDSFJORD, NO","FM-12","99999","V020","010,1,N,0070,1","00750,1,9,N","075000,1,N,1","-0024,1","-0058,1","10238,1",,,,"2,1,06,1","2,1,06,1",,"08,99,1,08,1,05,1,00800,1,99,9,99,9",,"999,M,-0024,1","99999,9,09972,1","2,1,001,1,+999,9",,"02,1","SYN082AAXX  19181 01442 31589 80107 11024 21058 39972 40238 52001 70222 885// 333 11024;",
"01442099999","2010-11-20T06:00:00","4","58.6666666","7.8","211.0","BYGLANDSFJORD, NO","FM-12","99999","V020","350,1,N,0070,1","02100,1,9,N","075000,1,N,1","-0006,1","-0094,1","10212,1","24,0000,9,1",,,"2,1,06,1","2,1,06,1",,"08,99,1,08,1,00,1,02250,1,02,1,99,9",,"999,N,-0024,1","99999,9,09948,1","7,1,003,1,+999,9",,"03,1","SYN088AAXX  20061 01442 31889 83507 11006 21094 39948 40212 57003 70322 8802/ 333 21024 70000;","Q01  00002PRCP24"
"01442099999","2010-11-20T09:00:00","4","58.6666666","7.8","211.0","BYGLANDSFJORD, NO","FM-12","99999","V020","020,1,N,0070,1","02100,1,9,N","075000,1,N,1","-0004,1","-0085,1","10211,1",,,,"2,1,03,1","2,1,03,1",,"08,99,1,08,1,00,1,02250,1,07,1,99,9",,,"99999,9,09947,1","7,1,001,1,+999,9",,"03,1","SYN072AAXX  20091 01442 41889 80207 11004 21085 39947 40211 57001 70322 8807/;",
"01442099999","2010-11-20T12:00:00","4","58.6666666","7.8","211.0","BYGLANDSFJORD, NO","FM-12","99999","V020","350,1,N,0070,1","02100,1,9,N","030000,1,N,1","-0004,1","-0057,1","10211,1",,,,"7,1,06,1","2,1,06,1",,"08,99,1,08,1,00,1,02250,1,07,1,99,9",,,"99999,9,09947,1","0,1,000,1,+999,9",,"70,1","SYN072AAXX  20121 01442 41880 83507 11004 21057 39947 40211 50000 77072 8807/;",
"01442099999","2010-11-20T15:00:00","4","58.6666666","7.8","211.0","BYGLANDSFJORD, NO","FM-12","99999","V020","010,1,N,0070,1","02100,1,9,N","010000,1,N,1","-0004,1","-0042,1","10203,1",,,,"7,1,03,1","2,1,03,1",,"08,99,1,08,1,00,1,02250,1,07,1,99,9",,,"99999,9,09940,1","5,1,008,1,+999,9",,"70,1","SYN072AAXX  20151 01442 41860 80107 11004 21042 39940 40203 55008 77072 8807/;",
"01442099999","2010-11-20T18:00:00","4","58.6666666","7.8","211.0","BYGLANDSFJORD, NO","FM-12","99999","V020","010,1,N,0070,1","01200,1,9,N","020000,1,N,1","-0004,1","-0042,1","10209,1","12,0000,2,1",,,"7,1,06,1","2,1,06,1",,"08,99,1,08,1,05,1,01250,1,99,9,99,9",,"999,M,-0002,1","99999,9,09946,1","2,1,006,1,+999,9",,"70,1","SYN088AAXX  20181 01442 11670 80107 11004 21042 39946 40209 52006 69912 77072 885// 333 11002;",
"01442099999","2010-11-21T03:00:00","4","58.6666666","7.8","211.0","BYGLANDSFJORD, NO","FM-12","99999","V020","999,9,9,9999,9","99999,9,9,N","999999,9,N,1","-0001,1","-0021,1","99999,9",,,,,,,,,,,,,,"SYN066AAXX  21031 01442 41X20 93505 11001 21021 39948 40212 54000 77072;",
"01442099999","2010-11-21T06:00:00","4","58.6666666","7.8","211.0","BYGLANDSFJORD, NO","FM-12","99999","V020","340,1,N,0070,1","01200,1,9,N","075000,1,N,1","+0008,1","-0031,1","10216,1","12,0005,9,1","24,0005,9,1","9999,3,9,999999,9,9","7,1,06,1","2,1,06,1",,"08,99,1,08,1,05,1,01250,1,99,9,99,9","24,9","999,N,-0006,1","99999,9,09952,1","2,1,004,1,+999,9",,"02,1","SYN100AAXX  21061 01442 11689 83407 10008 21031 39952 40216 52004 69942 70272 885// 333 21006 48997 70005;","Q01  09972SNDP  "
"01442099999","2010-11-21T09:00:00","4","58.6666666","7.8","211.0","BYGLANDSFJORD, NO","FM-12","99999","V020","340,1,N,0070,1","01200,1,9,N","075000,1,N,1","+0014,1","-0025,1","10224,1",,,,"2,1,03,1","2,1,03,1",,"08,99,1,08,1,05,1,01250,1,99,9,99,9",,,"99999,9,09961,1","2,1,008,1,+999,9",,"02,1","SYN072AAXX  21091 01442 41689 83407 10014 21025 39961 40224 52008 70222 885//;",
"01442099999","2010-11-21T12:00:00","4","58.6666666","7.8","211.0","BYGLANDSFJORD, NO","FM-12","99999","V020","330,1,N,0050,1","01200,1,9,N","075000,1,N,1","+0022,1","-0025,1","10227,1",,,,"2,1,06,1","2,1,06,1",,"08,99,1,08,1,05,1,01250,1,99,9,99,9",,,"99999,9,09963,1","2,1,003,1,+999,9",,"02,1","SYN072AAXX  21121 01442 41689 83305 10022 21025 39963 40227 52003 70222 885//;",
"01442099999","2010-11-21T15:00:00","4","58.6666666","7.8","211.0","BYGLANDSFJORD, NO","FM-12","99999","V020","340,1,N,0070,1","01200,1,9,N","075000,1,N,1","+0022,1","-0029,1","10223,1",,,,,,,"08,99,1,08,1,05,1,01250,1,99,9,99,9",,,"99999,9,09961,1","7,1,003,1,+999,9",,,"SYN066AAXX  21151 01442 43689 83407 10022 21029 39961 40223 57003 885//;",
"01442099999","2010-11-21T18:00:00","4","58.6666666","7.8","211.0","BYGLANDSFJORD, NO","FM-12","99999","V020","030,1,N,0070,1","03000,1,9,N","075000,1,N,1","+0023,1","-0028,1","10222,1","12,9999,9,9",,,"7,1,06,1","2,1,06,1",,"08,99,1,01,1,01,1,01250,1,07,1,99,9",,"999,M,+0025,1","99999,9,09960,1","5,1,001,1,+999,9",,"22,1","SYN088AAXX  21181 01442 11689 80307 10023 21028 39960 40222 55001 69902 72272 8117/ 333 10025;","Q01  00002PRCP12Q02  00002PRCP12"
"01442099999","2010-11-22T03:00:00","4","58.6666666","7.8","211.0","BYGLANDSFJORD, NO","FM-12","99999","V020","330,1,N,0070,1","02100,1,9,N","075000,1,N,1","+0016,1","-0038,1","10207,1",,,,"2,1,03,1","2,1,03,1",,"08,99,1,08,1,00,1,02250,1,07,1,99,9",,,"99999,9,09943,1","7,1,011,1,+999,9",,"02,1","SYN072AAXX  22031 01442 41889 83307 10016 21038 39943 40207 57011 70222 8807/;",
"01442099999","2010-11-22T06:00:00","4","58.6666666","7.8","211.0","BYGLANDSFJORD, NO","FM-12","99999","V020","330,1,N,0050,1","02100,1,9,N","075000,1,N,1","+0013,1","-0041,1","10192,1","24,0000,2,1",,"9999,2,9,999999,9,9","2,1,06,1","2,1,06,1",,"08,99,1,08,1,00,1,02250,1,07,1,99,9","25,9","999,N,+0013,1","99999,9,09930,1","7,1,014,1,+999,9",,"02,1","SYN094AAXX  22061 01442 31889 83305 10013 21041 39930 40192 57014 70222 8807/ 333 20013 41998 79999;","Q01  09982SNDP  "
"01442099999","2010-11-22T09:00:00","4","58.6666666","7.8","211.0","BYGLANDSFJORD, NO","FM-12","99999","V020","350,1,N,0030,1","02100,1,9,N","075000,1,N,1","+0007,1","-0047,1","10183,1",,,,"2,1,03,1","2,1,03,1",,"08,99,1,08,1,00,1,02250,1,07,1,99,9",,,"99999,9,09921,1","6,1,009,1,+999,9",,"02,1","SYN072AAXX  22091 01442 41889 83503 10007 21047 39921 40183 56009 70222 8807/;",
"01442099999","2010-11-22T12:00:00","4","58.6666666","7.8","211.0","BYGLANDSFJORD, NO","FM-12","99999","V020","350,1,N,0050,1","02100,1,9,N","075000,1,N,1","+0014,1","-0055,1","10166,1",,,,"2,1,06,1","2,1,06,1",,"07,99,1,07,1,00,1,02250,1,07,1,00,1",,,"99999,9,09903,1","8,1,017,1,+999,9",,"01,1","SYN072AAXX  22121 01442 41889 73505 10014 21055 39903 40166 58017 70122 87070;",
"01442099999","2010-11-22T15:00:00","4","58.6666666","7.8","211.0","BYGLANDSFJORD, NO","FM-12","99999","V020","340,1,N,0070,1","02100,1,9,N","075000,1,N,1","+0015,1","-0050,1","10147,1",,,,"2,1,03,1","2,1,03,1",,"07,99,1,07,1,00,1,02250,1,07,1,01,1",,,"99999,9,09886,1","7,1,017,1,+999,9",,"02,1","SYN072AAXX  22151 01442 41889 73407 10015 21050 39886 40147 57017 70222 87071;",
"01442099999","2010-11-22T18:00:00","4","58.6666666","7.8","211.0","BYGLANDSFJORD, NO","FM-12","99999","V020","020,1,N,0030,1","22000,1,9,N","075000,1,N,1","+0001,1","-0065,1","10132,1",,,,"2,1,06,1","1,1,06,1",,"02,99,1,01,1,00,1,02250,1,04,1,02,1",,"999,M,+0022,1","99999,9,09871,1","7,1,015,1,+999,9",,"01,1","SYN082AAXX  22181 01442 31889 20203 10001 21065 39871 40132 57015 70121 81042 333 10022;",
"01442099999","2010-11-23T03:00:00","4","58.6666666","7.8","211.0","BYGLANDSFJORD, NO","FM-12","99999","V020","350,1,N,0070,1","22000,1,9,N","075000,1,N,1","-0018,1","-0074,1","10103,1",,,,"0,1,03,1","0,1,03,1","00,1,+99999,9,99,9","00,99,1,00,1,00,1,99999,9,00,1,00,1",,,"99999,9,09842,1","8,1,009,1,+999,9",,"02,1","SYN066AAXX  23031 01442 41989 03507 11018 21074 39842 40103 58009 70200;",
"01442099999","2010-11-23T06:00:00","4","58.6666666","7.8","211.0","BYGLANDSFJORD, NO","FM-12","99999","V020","340,1,N,0070,1","22000,1,9,N","075000,1,N,1","-0016,1","-0082,1","10093,1","24,0000,9,1",,"9999,2,9,999999,9,9","0,1,06,1","0,1,06,1",,"01,99,1,00,1,00,1,99999,9,00,1,02,1","25,9","999,N,-0018,1","99999,9,09832,1","7,1,010,1,+999,9",,"02,1","SYN094AAXX  23061 01442 31989 13407 11016 21082 39832 40093 57010 70200 80002 333 21018 41998 70000;","Q01  00002PRCP24Q02  09982SNDP  "
"01442099999","2010-11-23T09:00:00","4","58.6666666","7.8","211.0","BYGLANDSFJORD, NO","FM-12","99999","V020","030,1,N,0070,1","22000,1,9,N","075000,1,N,1","-0016,1","-0080,1","10090,1",,,,"0,1,03,1","0,1,03,1",,"03,99,1,00,1,00,1,99999,9,00,1,02,1",,,"99999,9,09828,1","5,1,003,1,+999,9",,"02,1","SYN072AAXX  23091 01442 41989 30307 11016 21080 39828 40090 55003 70200 80002;",
"01442099999","2010-11-23T12:00:00","4","58.6666666","7.8","211.0","BYGLANDSFJORD, NO","FM-12","99999","V020","020,1,N,0100,1","22000,1,9,N","075000,1,N,1","-0012,1","-0084,1","10086,1",,,,"0,1,06,1","0,1,06,1",,"01,99,1,00,1,00,1,99999,9,00,1,01,1",,,"99999,9,09826,1","7,1,003,1,+999,9",,"02,1","SYN072AAXX  23121 01442 41989 10210 11012 21084 39826 40086 57003 70200 80001;",
"01442099999","2010-11-23T15:00:00","4","58.6666666","7.8","211.0","BYGLANDSFJORD, NO","FM-12","99999","V020","010,1,N,0100,1","22000,1,9,N","075000,1,N,1","-0024,1","-0080,1","10083,1",,,,"0,1,03,1","0,1,03,1",,"01,99,1,01,1,01,1,01250,1,00,1,00,1",,,"99999,9,09822,1","5,1,004,1,+999,9",,"01,1","SYN072AAXX  23151 01442 41689 10110 11024 21080 39822 40083 55004 70100 81100;",
"01442099999","2010-11-23T18:00:00","4","58.6666666","7.8","211.0","BYGLANDSFJORD, NO","FM-12","99999","V020","010,1,N,0100,1","01200,1,9,N","075000,1,N,1","-0023,1","-0083,1","10083,1",,,,"1,1,06,1","0,1,06,1",,"08,99,1,08,1,05,1,01250,1,99,9,99,9",,"999,M,-0008,1","99999,9,09822,1","4,1,000,1,+999,9",,"03,1","SYN082AAXX  23181 01442 31689 80110 11023 21083 39822 40083 54000 70310 885// 333 11008;",
"01442099999","2010-11-24T03:00:00","4","58.6666666","7.8","211.0","BYGLANDSFJORD, NO","FM-12","99999","V020","010,1,N,0070,1","22000,1,9,N","075000,1,N,1","-0050,1","-0105,1","10073,1",,,,"0,1,03,1","0,1,03,1","00,1,+99999,9,99,9","00,99,1,00,1,00,1,99999,9,00,1,00,1",,,"99999,9,09812,1","8,1,009,1,+999,9",,"02,1","SYN066AAXX  24031 01442 41989 00107 11050 21105 39812 40073 58009 70200;",
"01442099999","2010-11-24T06:00:00","4","58.6666666","7.8","211.0","BYGLANDSFJORD, NO","FM-12","99999","V020","020,1,N,0070,1","22000,1,9,N","075000,1,N,1","-0056,1","-0118,1","10076,1","12,0000,9,1","24,0000,9,1","9999,2,9,999999,9,9","0,1,06,1","0,1,06,1","00,1,+99999,9,99,9","00,99,1,00,1,00,1,99999,9,00,1,00,1","25,9","999,N,-0056,1","99999,9,09815,1","2,1,003,1,+999,9",,"02,1","SYN094AAXX  24061 01442 11989 00207 11056 21118 39815 40076 52003 69902 70200 333 21056 41998 79999;","Q01  00002PRCP24Q02  00002PRCP12Q03  09982SNDP  "
"01442099999","2010-11-24T09:00:00","4","58.6666666","7.8","211.0","BYGLANDSFJORD, NO","FM-12","99999","V020","010,1,N,0070,1","01200,1,9,N","075000,1,N,1","-0048,1","-0103,1","10078,1",,,,"1,1,03,1","1,1,03,1",,"07,99,1,07,1,05,1,01250,1,00,1,00,1",,,"99999,9,09817,1","2,1,002,1,+999,9",,"03,1","SYN072AAXX  24091 01442 41689 70107 11048 21103 39817 40078 52002 70311 87500;",
"01442099999","2010-11-24T12:00:00","4","58.6666666","7.8","211.0","BYGLANDSFJORD, NO","FM-12","99999","V020","350,1,N,0070,1","01200,1,9,N","070000,1,N,1","-0037,1","-0096,1","10072,1",,,,"2,1,06,1","1,1,06,1",,"07,99,1,07,1,05,1,01250,1,00,1,00,1",,,"99999,9,09811,1","7,1,006,1,+999,9",,"70,1","SYN072AAXX  24121 01442 41688 73507 11037 21096 39811 40072 57006 77021 87500;",
"01442099999","2010-11-24T15:00:00","4","58.6666666","7.8","211.0","BYGLANDSFJORD, NO","FM-12","99999","V020","350,1,N,0070,1","03000,1,9,N","075000,1,N,1","-0041,1","-0098,1","10074,1",,,,"7,1,03,1","2,1,03,1",,"06,99,1,01,1,01,1,01250,1,03,1,02,1",,,"99999,9,09812,1","3,1,002,1,+999,9",,"01,1","SYN072AAXX  24151 01442 41689 63507 11041 21098 39812 40074 53002 70172 81132;",
"01442099999","2010-11-24T18:00:00","4","58.6666666","7.8","211.0","BYGLANDSFJORD, NO","FM-12","99999","V020","340,1,N,0070,1","01200,1,9,N","075000,1,N,1","-0042,1","-0101,1","10079,1","12,0000,2,1",,,"7,1,06,1","2,1,06,1",,"08,99,1,08,1,05,1,01250,1,99,9,99,9",,"999,M,-0037,1","99999,9,09817,1","3,1,005,1,+999,9",,"03,1","SYN088AAXX  24181 01442 11689 83407 11042 21101 39817 40079 53005 69902 70372 885// 333 11037;",
"01442099999","2010-11-25T03:00:00","4","58.6666666","7.8","211.0","BYGLANDSFJORD, NO","FM-12","99999","V020","350,1,N,0070,1","01200,1,9,N","070000,1,N,1","-0047,1","-0098,1","10096,1",,,,"7,1,03,1","2,1,03,1",,"08,99,1,08,1,05,1,01250,1,99,9,99,9",,,"99999,9,09833,1","2,1,004,1,+999,9",,"70,1","SYN072AAXX  25031 01442 41688 83507 11047 21098 39833 40096 52004 77072 885//;",
"01442099999","2010-11-25T06:00:00","4","58.6666666","7.8","211.0","BYGLANDSFJORD, NO","FM-12","99999","V020","340,1,N,0070,1","22000,1,9,N","075000,1,N,1","-0055,1","-0115,1","10102,1","12,0000,2,1","24,0000,2,1","9999,2,9,999999,9,9","7,1,06,1","1,1,06,1",,"01,99,1,01,1,00,1,99999,9,04,1,01,1","25,9","999,N,-0055,1","99999,9,09840,1","2,1,006,1,+999,9",,"01,1","SYN100AAXX  25061 01442 11989 13407 11055 21115 39840 40102 52006 69902 70171 81041 333 21055 41998 79999;","Q01  09982SNDP  "
"01442099999","2010-11-25T09:00:00","4","58.6666666","7.8","211.0","BYGLANDSFJORD, NO","FM-12","99999","V020","030,1,N,0070,1","22000,1,9,N","075000,1,N,1","-0057,1","-0113,1","10108,1",,,,"0,1,03,1","0,1,03,1",,"03,99,1,01,1,00,1,02250,1,03,1,01,1",,,"99999,9,09846,1","2,1,006,1,+999,9",,"02,1","SYN072AAXX  25091 01442 41889 30307 11057 21113 39846 40108 52006 70200 81031;",
"01442099999","2010-11-25T12:00:00","4","58.6666666","7.8","211.0","BYGLANDSFJORD, NO","FM-12","99999","V020","350,1,N,0070,1","22000,1,9,N","075000,1,N,1","-0047,1","-0126,1","10106,1",,,,"0,1,06,1","0,1,06,1",,"01,99,1,00,1,00,1,99999,9,00,1,01,1",,,"99999,9,09843,1","7,1,002,1,+999,9",,"02,1","SYN072AAXX  25121 01442 41989 13507 11047 21126 39843 40106 57002 70200 80001;",
"01442099999","2010-11-25T15:00:00","4","58.6666666","7.8","211.0","BYGLANDSFJORD, NO","FM-12","99999","V020","020,1,N,0050,1","22000,1,9,N","075000,1,N,1","-0057,1","-0123,1","10102,1",,,,"0,1,03,1","0,1,03,1","00,1,+99999,9,99,9","00,99,1,00,1,00,1,99999,9,00,1,00,1",,,"99999,9,09840,1","7,1,004,1,+999,9",,"02,1","SYN066AAXX  25151 01442 41989 00205 11057 21123 39840 40102 57004 70200;",
"01442099999","2010-11-25T18:00:00","4","58.6666666","7.8","211.0","BYGLANDSFJORD, NO","FM-12","99999","V020","010,1,N,0070,1","22000,1,9,N","075000,1,N,1","-0067,1","-0121,1","10103,1",,,,"0,1,06,1","0,1,06,1","00,1,+99999,9,99,9","00,99,1,00,1,00,1,99999,9,00,1,00,1",,"999,M,-0047,1","99999,9,09841,1","2,1,001,1,+999,9",,"02,1","SYN076AAXX  25181 01442 31989 00107 11067 21121 39841 40103 52001 70200 333 11047;",
"01442099999","2010-11-26T03:00:00","4","58.6666666","7.8","211.0","BYGLANDSFJORD, NO","FM-12","99999","V020","020,1,N,0070,1","22000,1,9,N","075000,1,N,1","-0088,1","-0139,1","10109,1",,,,"0,1,03,1","0,1,03,1","00,1,+99999,9,99,9","00,99,1,00,1,00,1,99999,9,00,1,00,1",,,"99999,9,09846,1","2,1,004,1,+999,9",,"02,1","SYN066AAXX  26031 01442 41989 00207 11088 21139 39846 40109 52004 70200;",
"01442099999","2010-11-26T06:00:00","4","58.6666666","7.8","211.0","BYGLANDSFJORD, NO","FM-12","99999","V020","010,1,N,0070,1","22000,1,9,N","075000,1,N,1","-0093,1","-0139,1","10114,1","24,0000,9,1",,"9999,2,9,999999,9,9","0,1,06,1","0,1,06,1","00,1,+99999,9,99,9","00,99,1,00,1,00,1,99999,9,00,1,00,1","25,9","999,N,-0093,1","99999,9,09850,1","2,1,004,1,+999,9",,"02,1","SYN088AAXX  26061 01442 31989 00107 11093 21139 39850 40114 52004 70200 333 21093 41998 70000;","Q01  00002PRCP24Q02  09982SNDP  "
"01442099999","2010-11-26T09:00:00","4","58.6666666","7.8","211.0","BYGLANDSFJORD, NO","FM-12","99999","V020","350,1,N,0070,1","22000,1,9,N","075000,1,N,1","-0099,1","-0143,1","10122,1",,,,"0,1,03,1","0,1,03,1",,"01,99,1,01,1,00,1,02250,1,03,1,00,1",,,"99999,9,09857,1","2,1,008,1,+999,9",,"02,1","SYN072AAXX  26091 01442 41889 13507 11099 21143 39857 40122 52008 70200 81030;",
"01442099999","2010-11-26T12:00:00","4","58.6666666","7.8","211.0","BYGLANDSFJORD, NO","FM-12","99999","V020","350,1,N,0070,1","22000,1,9,N","075000,1,N,1","-0081,1","-0131,1","10118,1",,,,"0,1,06,1","0,1,06,1",,"01,99,1,00,1,00,1,99999,9,00,1,01,1",,,"99999,9,09855,1","8,1,003,1,+999,9",,"02,1","SYN072AAXX  26121 01442 41989 13507 11081 21131 39855 40118 58003 70200 80001;",
"01442099999","2010-11-26T15:00:00","4","58.6666666","7.8","211.0","BYGLANDSFJORD, NO","FM-12","99999","V020","340,1,N,0070,1","22000,1,9,N","075000,1,N,1","-0084,1","-0136,1","10118,1",,,,"0,1,03,1","0,1,03,1",,"01,99,1,01,1,01,1,01750,1,00,1,01,1",,,"99999,9,09855,1","5,1,000,1,+999,9",,"02,1","SYN072AAXX  26151 01442 41789 13407 11084 21136 39855 40118 55000 70200 81101;",
"01442099999","2010-11-26T18:00:00","4","58.6666666","7.8","211.0","BYGLANDSFJORD, NO","FM-12","99999","V020","340,1,N,0050,1","22000,1,9,N","075000,1,N,1","-0083,1","-0118,1","10123,1",,,,"0,1,06,1","0,1,06,1",,"03,99,1,01,1,01,1,01250,1,00,1,02,1",,"999,M,-0078,1","99999,9,09860,1","2,1,005,1,+999,9",,"03,1","SYN082AAXX  26181 01442 31689 33405 11083 21118 39860 40123 52005 70300 81102 333 11078;",
"01442099999","2010-11-27T03:00:00","4","58.6666666","7.8","211.0","BYGLANDSFJORD, NO","FM-12","99999","V020","350,1,N,0050,1","02100,1,9,N","040000,1,N,1","-0082,1","-0116,1","10136,1",,,,"7,1,03,1","2,1,03,1",,"07,99,1,07,1,00,1,02250,1,07,1,00,1",,,"99999,9,09872,1","4,1,000,1,+999,9",,"70,1","SYN072AAXX  27031 01442 41882 73505 11082 21116 39872 40136 54000 77072 87070;",
"01442099999","2010-11-27T06:00:00","4","58.6666666","7.8","211.0","BYGLANDSFJORD, NO","FM-12","99999","V020","340,1,N,0070,1","22000,1,9,N","075000,1,N,1","-0083,1","-0110,1","10085,1","12,0005,9,1","24,0005,9,1","9999,2,9,999999,9,9","7,1,06,1","1,1,06,1",,"03,99,1,01,1,01,1,01250,1,03,1,01,1","22,9","999,N,-0083,1","99999,9,09822,1","2,1,001,1,+999,9",,"22,1","SYN100AAXX  27061 01442 11689 33407 11083 21110 39822 40085 52001 69962 72271 81131 333 21083 46998 70006;","Q01  09982SNDP  "
"01442099999","2010-11-27T09:00:00","4","58.6666666","7.8","211.0","BYGLANDSFJORD, NO","FM-12","99999","V020","340,1,N,0070,1","22000,1,9,N","075000,1,N,1","-0082,1","-0119,1","10143,1",,,,"0,1,03,1","0,1,03,1",,"03,99,1,01,1,01,1,01250,1,03,1,01,1",,,"99999,9,09878,1","3,1,006,1,+999,9",,"02,1","SYN072AAXX  27091 01442 41689 33407 11082 21119 39878 40143 53006 70200 81131;",
"01442099999","2010-11-27T12:00:00","4","58.6666666","7.8","211.0","BYGLANDSFJORD, NO","FM-12","99999","V020","030,1,N,0070,1","22000,1,9,N","075000,1,N,1","-0068,1","-0113,1","10147,1",,,,"0,1,06,1","0,1,06,1",,"02,99,1,01,1,01,1,01250,1,03,1,01,1",,,"99999,9,09882,1","0,1,004,1,+999,9",,"01,1","SYN072AAXX  27121 01442 41689 20307 11068 21113 39882 40147 50004 70100 81131;",
"01442099999","2010-11-27T15:00:00","4","58.6666666","7.8","211.0","BYGLANDSFJORD, NO","FM-12","99999","V020","020,1,N,0070,1","22000,1,9,N","075000,1,N,1","-0076,1","-0120,1","10152,1",,,,"0,1,03,1","0,1,03,1",,"01,99,1,01,1,01,1,01250,1,00,1,01,1",,,"99999,9,09887,1","3,1,005,1,+999,9",,"02,1","SYN072AAXX  27151 01442 41689 10207 11076 21120 39887 40152 53005 70200 81101;",
"01442099999","2010-11-27T18:00:00","4","58.6666666","7.8","211.0","BYGLANDSFJORD, NO","FM-12","99999","V020","350,1,N,0070,1","22000,1,9,N","075000,1,N,1","-0081,1","-0124,1","10162,1",,,,"0,1,06,1","0,1,06,1","00,1,+99999,9,99,9","00,99,1,00,1,00,1,99999,9,00,1,00,1",,"999,M,-0067,1","99999,9,09897,1","3,1,010,1,+999,9",,"02,1","SYN076AAXX  27181 01442 31989 03507 11081 21124 39897 40162 53010 70200 333 11067;",
"01442099999","2010-11-28T03:00:00","4","58.6666666","7.8","211.0","BYGLANDSFJORD, NO","FM-12","99999","V020","340,1,N,0070,1","22000,1,9,N","075000,1,N,1","-0082,1","-0125,1","10182,1",,,,"0,1,03,1","0,1,03,1",,"01,99,1,00,1,00,1,99999,9,00,1,01,1",,,"99999,9,09917,1","2,1,003,1,+999,9",,"02,1","SYN072AAXX  28031 01442 41989 13407 11082 21125 39917 40182 52003 70200 80001;",
"01442099999","2010-11-28T06:00:00","4","58.6666666","7.8","211.0","BYGLANDSFJORD, NO","FM-12","99999","V020","350,1,N,0070,1","22000,1,9,N","075000,1,N,1","-0083,1","-0126,1","10186,1","24,0000,2,1",,"9999,2,9,999999,9,9","0,1,06,1","0,1,06,1",,"01,99,1,00,1,00,1,99999,9,00,1,01,1","22,9","999,N,-0083,1","99999,9,09921,1","2,1,004,1,+999,9",,"02,1","SYN094AAXX  28061 01442 31989 13507 11083 21126 39921 40186 52004 70200 80001 333 21083 46998 70000;","Q01  09982SNDP  "
"01442099999","2010-11-28T09:00:00","4","58.6666666","7.8","211.0","BYGLANDSFJORD, NO","FM-12","99999","V020","340,1,N,0070,1","02100,1,9,N","075000,1,N,1","-0080,1","-0120,1","10198,1",,,,"1,1,03,1","1,1,03,1",,"07,99,1,07,1,00,1,02250,1,07,1,01,1",,,"99999,9,09932,1","2,1,012,1,+999,9",,"03,1","SYN072AAXX  28091 01442 41889 73407 11080 21120 39932 40198 52012 70311 87071;",
"01442099999","2010-11-28T12:00:00","4","58.6666666","7.8","211.0","BYGLANDSFJORD, NO","FM-12","99999","V020","350,1,N,0100,1","22000,1,9,N","075000,1,N,1","-0071,1","-0115,1","10199,1",,,,"7,1,06,1","1,1,06,1",,"02,99,1,01,1,01,1,01250,1,00,1,02,1",,,"99999,9,09933,1","2,1,001,1,+999,9",,"22,1","SYN072AAXX  28121 01442 41689 23510 11071 21115 39933 40199 52001 72271 81102;",
"01442099999","2010-11-28T15:00:00","4","58.6666666","7.8","211.0","BYGLANDSFJORD, NO","FM-12","99999","V020","340,1,N,0070,1","22000,1,9,N","015000,1,N,1","-0068,1","-0109,1","10202,1",,,,"7,1,03,1","1,1,03,1",,"03,99,1,01,1,01,1,01250,1,00,1,02,1",,,"99999,9,09937,1","2,1,003,1,+999,9",,"70,1","SYN072AAXX  28151 01442 41665 33407 11068 21109 39937 40202 52003 77071 81102;",
"01442099999","2010-11-28T18:00:00","4","58.6666666","7.8","211.0","BYGLANDSFJORD, NO","FM-12","99999","V020","350,1,N,0070,1","00750,1,9,N","015000,1,N,1","-0066,1","-0097,1","10211,1","12,0000,2,1",,,"7,1,06,1","1,1,06,1",,"08,99,1,08,1,05,1,00800,1,99,9,99,9",,"999,M,-0064,1","99999,9,09946,1","2,1,009,1,+999,9",,"70,1","SYN088AAXX  28181 01442 11565 83507 11066 21097 39946 40211 52009 69912 77071 885// 333 11064;",
"01442099999","2010-11-29T03:00:00","4","58.6666666","7.8","211.0","BYGLANDSFJORD, NO","FM-12","99999","V020","999,9,9,9999,9","99999,9,9,N","999999,9,N,1","-0059,1","-0088,1","99999,9",,,,,,,,,,,,,,"SYN066AAXX  29031 01442 41X50 93505 11059 21088 39990 40256 52016 77072;",
"01442099999","2010-11-29T06:00:00","4","58.6666666","7.8","211.0","BYGLANDSFJORD, NO","FM-12","99999","V020","030,1,N,0070,1","00750,1,9,N","030000,1,N,1","-0065,1","-0101,1","10271,1","12,0000,2,1","24,0003,9,1","9999,2,9,999999,9,9","7,1,06,1","2,1,06,1",,"07,99,1,07,1,05,1,00800,1,00,1,00,1","22,9","999,N,-0065,1","99999,9,10003,1","2,1,014,1,+999,9",,"70,1","SYN100AAXX  29061 01442 11580 70307 11065 21101 30003 40271 52014 69922 77072 87500 333 21065 46998 70003;","Q01  09982SNDP  "
"01442099999","2010-11-29T09:00:00","4","58.6666666","7.8","211.0","BYGLANDSFJORD, NO","FM-12","99999","V020","040,1,N,0070,1","22000,1,9,N","075000,1,N,1","-0073,1","-0113,1","10287,1",,,,"7,1,03,1","1,1,03,1",,"02,99,1,01,1,01,1,01250,1,00,1,01,1",,,"99999,9,10020,1","3,1,016,1,+999,9",,"01,1","SYN072AAXX  29091 01442 41689 20407 11073 21113 30020 40287 53016 70171 81101;",
"01442099999","2010-11-29T12:00:00","4","58.6666666","7.8","211.0","BYGLANDSFJORD, NO","FM-12","99999","V020","350,1,N,0070,1","22000,1,9,N","075000,1,N,1","-0058,1","-0130,1","10283,1",,,,"7,1,06,1","1,1,06,1",,"01,99,1,00,1,00,1,99999,9,00,1,01,1",,,"99999,9,10016,1","8,1,004,1,+999,9",,"01,1","SYN072AAXX  29121 01442 41989 13507 11058 21130 30016 40283 58004 70171 80001;",
"01442099999","2010-11-29T15:00:00","4","58.6666666","7.8","211.0","BYGLANDSFJORD, NO","FM-12","99999","V020","350,1,N,0070,1","22000,1,9,N","075000,1,N,1","-0071,1","-0125,1","10283,1",,,,"0,1,03,1","0,1,03,1",,"01,99,1,01,1,01,1,01750,1,00,1,01,1",,,"99999,9,10016,1","5,1,000,1,+999,9",,"01,1","SYN072AAXX  29151 01442 41789 13507 11071 21125 30016 40283 55000 70100 81101;",
"01442099999","2010-11-29T18:00:00","4","58.6666666","7.8","211.0","BYGLANDSFJORD, NO","FM-12","99999","V020","340,1,N,0070,1","22000,1,9,N","075000,1,N,1","-0080,1","-0117,1","10294,1","12,0000,2,1",,,"0,1,06,1","0,1,06,1","00,1,+99999,9,99,9","00,99,1,00,1,00,1,99999,9,00,1,00,1",,"999,M,-0057,1","99999,9,10026,1","3,1,010,1,+999,9",,"02,1","SYN082AAXX  29181 01442 11989 03407 11080 21117 30026 40294 53010 69902 70200 333 11057;",
"01442099999","2010-11-30T03:00:00","4","58.6666666","7.8","211.0","BYGLANDSFJORD, NO","FM-12","99999","V020","350,1,N,0070,1","22000,1,9,N","075000,1,N,1","-0087,1","-0118,1","10307,1",,,,"0,1,03,1","0,1,03,1","00,1,+99999,9,99,9","00,99,1,00,1,00,1,99999,9,00,1,00,1",,,"99999,9,10038,1","4,1,000,1,+999,9",,"02,1","SYN066AAXX  30031 01442 41989 03507 11087 21118 30038 40307 54000 70200;",
"01442099999","2010-11-30T06:00:00","4","58.6666666","7.8","211.0","BYGLANDSFJORD, NO","FM-12","99999","V020","350,1,N,0070,1","22000,1,9,N","075000,1,N,1","-0091,1","-0125,1","10309,1","24,0000,2,1",,"9999,2,9,999999,9,9","0,1,06,1","0,1,06,1","00,1,+99999,9,99,9","00,99,1,00,1,00,1,99999,9,00,1,00,1","22,9","999,N,-0091,1","99999,9,10040,1","1,1,001,1,+999,9",,"02,1","SYN088AAXX  30061 01442 31989 03507 11091 21125 30040 40309 51001 70200 333 21091 46998 79999;","Q01  09982SNDP  "
"01442099999","2010-11-30T09:00:00","4","58.6666666","7.8","211.0","BYGLANDSFJORD, NO","FM-12","99999","V020","020,1,N,0050,1","22000,1,9,N","075000,1,N,1","-0092,1","-0126,1","10313,1",,,,"0,1,03,1","0,1,03,1",,"01,99,1,01,1,01,1,01250,1,00,1,00,1",,,"99999,9,10043,1","2,1,004,1,+999,9",,"02,1","SYN072AAXX  30091 01442 41689 10205 11092 21126 30043 40313 52004 70200 81100;",
"01442099999","2010-11-30T12:00:00","4","58.6666666","7.8","211.0","BYGLANDSFJORD, NO","FM-12","99999","V020","340,1,N,0070,1","22000,1,9,N","075000,1,N,1","-0071,1","-0127,1","10307,1",,,,"0,1,06,1","0,1,06,1",,"01,99,1,01,1,01,1,01250,1,00,1,00,1",,,"99999,9,10038,1","8,1,005,1,+999,9",,"02,1","SYN072AAXX  30121 01442 41689 13407 11071 21127 30038 40307 58005 70200 81100;",
"01442099999","2010-11-30T15:00:00","4","58.6666666","7.8","211.0","BYGLANDSFJORD, NO","FM-12","99999","V020","350,1,N,0070,1","22000,1,9,N","075000,1,N,1","-0077,1","-0119,1","10298,1",,,,"0,1,03,1","0,1,03,1",,"01,99,1,01,1,01,1,01250,1,00,1,01,1",,,"99999,9,10030,1","7,1,009,1,+999,9",,"02,1","SYN072AAXX  30151 01442 41689 13507 11077 21119 30030 40298 57009 70200 81101;",
"01442099999","2010-11-30T18:00:00","4","58.6666666","7.8","211.0","BYGLANDSFJORD, NO","FM-12","99999","V020","030,1,N,0050,1","22000,1,9,N","075000,1,N,1","-0091,1","-0129,1","10304,1",,,,"0,1,06,1","0,1,06,1","00,1,+99999,9,99,9","00,99,1,00,1,00,1,99999,9,00,1,00,1",,"999,M,-0069,1","99999,9,10036,1","3,1,006,1,+999,9",,"02,1","SYN076AAXX  30181 01442 31989 00305 11091 21129 30036 40304 53006 70200 333 11069;",
"01442099999","2010-12-01T03:00:00","4","58.6666666","7.8","211.0","BYGLANDSFJORD, NO","FM-12","99999","V020","340,1,N,0050,1","22000,1,9,N","075000,1,N,1","-0108,1","-0127,1","10301,1",,,,"0,1,03,1","0,1,03,1","00,1,+99999,9,99,9","00,99,1,00,1,00,1,99999,9,00,1,00,1",,,"99999,9,10032,1","7,1,004,1,+999,9",,"02,1","SYN066AAXX  01031 01442 41989 03405 11108 21127 30032 40301 57004 70200;",
"01442099999","2010-12-01T06:00:00","4","58.6666666","7.8","211.0","BYGLANDSFJORD, NO","FM-12","99999","V020","340,1,N,0050,1","22000,1,9,N","075000,1,N,1","-0116,1","-0133,1","10297,1","24,0000,9,1",,"9999,2,9,999999,9,9","0,1,06,1","0,1,06,1","00,1,+99999,9,99,9","00,99,1,00,1,00,1,99999,9,00,1,00,1","22,9","999,N,-0116,1","99999,9,10027,1","7,1,004,1,+999,9",,"02,1","SYN088AAXX  01061 01442 31989 03405 11116 21133 30027 40297 57004 70200 333 21116 46998 70000;","Q01  00002PRCP24Q02  09982SNDP  "
"01442099999","2010-12-01T09:00:00","4","58.6666666","7.8","211.0","BYGLANDSFJORD, NO","FM-12","99999","V020","330,1,N,0070,1","22000,1,9,N","075000,1,N,1","-0120,1","-0134,1","10296,1",,,,"0,1,03,1","0,1,03,1","00,1,+99999,9,99,9","00,99,1,00,1,00,1,99999,9,00,1,00,1",,,"99999,9,10027,1","5,1,001,1,+999,9",,"02,1","SYN066AAXX  01091 01442 41989 03307 11120 21134 30027 40296 55001 70200;",
"01442099999","2010-12-01T15:00:00","4","58.6666666","7.8","211.0","BYGLANDSFJORD, NO","FM-12","99999","V020","340,1,N,0050,1","22000,1,9,N","075000,1,N,1","-0095,1","-0117,1","10280,1",,,,"0,1,03,1","0,1,03,1","00,1,+99999,9,99,9","00,99,1,00,1,00,1,99999,9,00,1,00,1",,,"99999,9,10012,1","6,1,007,1,+999,9",,"02,1","SYN066AAXX  01151 01442 41989 03405 11095 21117 30012 40280 56007 70200;",
"01442099999","2010-12-01T18:00:00","4","58.6666666","7.8","211.0","BYGLANDSFJORD, NO","FM-12","99999","V020","340,1,N,0050,1","22000,1,9,N","075000,1,N,1","-0099,1","-0116,1","10273,1",,,,"0,1,06,1","0,1,06,1","00,1,+99999,9,99,9","00,99,1,00,1,00,1,99999,9,00,1,00,1",,"999,M,-0091,1","99999,9,10005,1","7,1,006,1,+999,9",,"02,1","SYN076AAXX  01181 01442 31989 03405 11099 21116 30005 40273 57006 70200 333 11091;",
"01442099999","2010-12-02T03:00:00","4","58.6666666","7.8","211.0","BYGLANDSFJORD, NO","FM-12","99999","V020","340,1,N,0050,1","01200,1,9,N","075000,1,N,1","-0078,1","-0089,1","10251,1",,,,"1,1,03,1","1,1,03,1",,"08,99,1,08,1,05,1,01250,1,99,9,99,9",,,"99999,9,09983,1","7,1,013,1,+999,9",,"03,1","SYN072AAXX  02031 01442 41689 83405 11078 21089 39983 40251 57013 70311 885//;",
"01442099999","2010-12-02T06:00:00","4","58.6666666","7.8","211.0","BYGLANDSFJORD, NO","FM-12","99999","V020","330,1,N,0050,1","01200,1,9,N","075000,1,N,1","-0067,1","-0079,1","10231,1","24,0000,9,1",,"9999,2,9,999999,9,9","2,1,06,1","1,1,06,1",,"07,99,1,07,1,05,1,01250,1,00,1,00,1","22,9","999,N,-0101,1","99999,9,09965,1","7,1,019,1,+999,9",,"02,1","SYN094AAXX  02061 01442 31689 73305 11067 21079 39965 40231 57019 70221 87500 333 21101 46998 70000;","Q01  00002PRCP24Q02  09982SNDP  "
"01442099999","2010-12-02T09:00:00","4","58.6666666","7.8","211.0","BYGLANDSFJORD, NO","FM-12","99999","V020","340,1,N,0050,1","01200,1,9,N","050000,1,N,1","-0058,1","-0077,1","10222,1",,,,"7,1,03,1","2,1,03,1",,"08,99,1,08,1,05,1,01250,1,99,9,99,9",,,"99999,9,09957,1","7,1,008,1,+999,9",,"70,1","SYN072AAXX  02091 01442 41684 83405 11058 21077 39957 40222 57008 77072 885//;",
"01442099999","2010-12-02T12:00:00","4","58.6666666","7.8","211.0","BYGLANDSFJORD, NO","FM-12","99999","V020","350,1,N,0050,1","01200,1,9,N","075000,1,N,1","-0047,1","-0087,1","10202,1",,,,"7,1,06,1","2,1,06,1",,"07,99,1,07,1,05,1,01250,1,00,1,00,1",,,"99999,9,09937,1","8,1,019,1,+999,9",,"22,1","SYN072AAXX  02121 01442 41689 73505 11047 21087 39937 40202 58019 72272 87500;",
"01442099999","2010-12-02T15:00:00","4","58.6666666","7.8","211.0","BYGLANDSFJORD, NO","FM-12","99999","V020","350,1,N,0050,1","01200,1,9,N","075000,1,N,1","-0055,1","-0084,1","10180,1",,,,"2,1,03,1","2,1,03,1",,"08,99,1,08,1,05,1,01250,1,99,9,99,9",,,"99999,9,09916,1","7,1,022,1,+999,9",,"02,1","SYN072AAXX  02151 01442 41689 83505 11055 21084 39916 40180 57022 70222 885//;",
"01442099999","2010-12-02T18:00:00","4","58.6666666","7.8","211.0","BYGLANDSFJORD, NO","FM-12","99999","V020","330,1,N,0050,1","22000,1,9,N","075000,1,N,1","-0076,1","+9999,9","10160,1","12,0000,2,1",,,"2,1,06,1","1,1,06,1","00,1,+99999,9,99,9","00,99,1,00,1,00,1,99999,9,00,1,00,1",,"999,M,-0045,1","99999,9,09896,1","7,1,020,1,+999,9",,"01,1","SYN082AAXX  02181 01442 11989 03305 11076 2//// 39896 40160 57020 69902 70121 333 11045;",
"01442099999","2010-12-03T03:00:00","4","58.6666666","7.8","211.0","BYGLANDSFJORD, NO","FM-12","99999","V020","330,1,N,0050,1","22000,1,9,N","075000,1,N,1","-0104,1","-0117,1","10105,1",,,,"0,1,03,1","0,1,03,1","00,1,+99999,9,99,9","00,99,1,00,1,00,1,99999,9,00,1,00,1",,,"99999,9,09841,1","7,1,018,1,+999,9",,"02,1","SYN066AAXX  03031 01442 41989 03305 11104 21117 39841 40105 57018 70200;",
"01442099999","2010-12-03T06:00:00","4","58.6666666","7.8","211.0","BYGLANDSFJORD, NO","FM-12","99999","V020","340,1,N,0050,1","22000,1,9,N","075000,1,N,1","-0113,1","-0127,1","10084,1","24,0000,2,1",,"9999,2,9,999999,9,9","0,1,06,1","0,1,06,1","00,1,+99999,9,99,9","00,99,1,00,1,00,1,99999,9,00,1,00,1","22,9","999,N,-0113,1","99999,9,09821,1","7,1,020,1,+999,9",,"02,1","SYN088AAXX  03061 01442 31989 03405 11113 21127 39821 40084 57020 70200 333 21113 46998 79999;","Q01  09982SNDP  "
"01442099999","2010-12-03T09:00:00","4","58.6666666","7.8","211.0","BYGLANDSFJORD, NO","FM-12","99999","V020","340,1,N,0050,1","22000,1,9,N","075000,1,N,1","-0118,1","-0130,1","10078,1",,,,"0,1,03,1","0,1,03,1",,"01,99,1,00,1,00,1,99999,9,00,1,02,1",,,"99999,9,09815,1","6,1,006,1,+999,9",,"03,1","SYN072AAXX  03091 01442 41989 13405 11118 21130 39815 40078 56006 70300 80002;",
"01442099999","2010-12-03T12:00:00","4","58.6666666","7.8","211.0","BYGLANDSFJORD, NO","FM-12","99999","V020","340,1,N,0070,1","22000,1,9,N","075000,1,N,1","-0102,1","-0127,1","10059,1",,,,"0,1,06,1","0,1,06,1",,"01,99,1,00,1,00,1,99999,9,00,1,01,1",,,"99999,9,09797,1","8,1,018,1,+999,9",,"02,1","SYN072AAXX  03121 01442 41989 13407 11102 21127 39797 40059 58018 70200 80001;",
"01442099999","2010-12-03T18:00:00","4","58.6666666","7.8","211.0","BYGLANDSFJORD, NO","FM-12","99999","V020","340,1,N,0050,1","22000,1,9,N","075000,1,N,1","-0114,1","-0123,1","10053,1",,,,"0,1,06,1","0,1,06,1",,"01,99,1,00,1,00,1,99999,9,00,1,01,1",,"999,M,-0096,1","99999,9,09790,1","2,1,002,1,+999,9",,"02,1","SYN082AAXX  03181 01442 31989 13405 11114 21123 39790 40053 52002 70200 80001 333 11096;",
"01442099999","2010-12-04T03:00:00","4","58.6666666","7.8","211.0","BYGLANDSFJORD, NO","FM-12","99999","V020","330,1,N,0050,1","01200,1,9,N","075000,1,N,1","-0109,1","-0122,1","10054,1",,,,"2,1,03,1","2,1,03,1",,"08,99,1,08,1,05,1,01250,1,99,9,99,9",,,"99999,9,09792,1","8,1,002,1,+999,9",,"03,1","SYN072AAXX  04031 01442 41689 83305 11109 21122 39792 40054 58002 70322 885//;",
"01442099999","2010-12-04T06:00:00","4","58.6666666","7.8","211.0","BYGLANDSFJORD, NO","FM-12","99999","V020","330,1,N,0050,1","00750,1,9,N","075000,1,N,1","-0099,1","-0112,1","10052,1","24,0000,9,1",,"9999,2,9,999999,9,9","2,1,06,1","2,1,06,1",,"08,99,1,08,1,05,1,00800,1,99,9,99,9","22,9","999,N,-0131,1","99999,9,09790,1","7,1,002,1,+999,9",,"02,1","SYN094AAXX  04061 01442 31589 83305 11099 21112 39790 40052 57002 70222 885// 333 21131 46998 70000;","Q01  00002PRCP24Q02  09982SNDP  "
"01442099999","2010-12-04T09:00:00","4","58.6666666","7.8","211.0","BYGLANDSFJORD, NO","FM-12","99999","V020","340,1,N,0050,1","00750,1,9,N","010000,1,N,1","-0091,1","-0096,1","10057,1",,,,"7,1,03,1","2,1,03,1",,"08,99,1,08,1,05,1,00800,1,99,9,99,9",,,"99999,9,09795,1","2,1,005,1,+999,9",,"70,1","SYN072AAXX  04091 01442 41560 83405 11091 21096 39795 40057 52005 77072 885//;",
"01442099999","2010-12-04T12:00:00","4","58.6666666","7.8","211.0","BYGLANDSFJORD, NO","FM-12","99999","V020","340,1,N,0050,1","00420,1,9,N","075000,1,N,1","-0077,1","-0090,1","10048,1",,,,"7,1,06,1","2,1,06,1",,"07,99,1,07,1,05,1,00450,1,00,1,00,1",,,"99999,9,09787,1","8,1,008,1,+999,9",,"01,1","SYN072AAXX  04121 01442 41489 73405 11077 21090 39787 40048 58008 70172 87500;",
"01442099999","2010-12-04T18:00:00","4","58.6666666","7.8","211.0","BYGLANDSFJORD, NO","FM-12","99999","V020","999,9,9,9999,9","99999,9,9,N","999999,9,N,1","-0060,1","-0064,1","99999,9",,,,,,,,,,,,,,"SYN082AAXX  04181 01442 11X20 93505 11060 21064 39750 40010 58019 69982 77172 333 11060;",
"01442099999","2010-12-05T06:00:00","4","58.6666666","7.8","211.0","BYGLANDSFJORD, NO","FM-12","99999","V020","999,9,9,9999,9","99999,9,9,N","999999,9,N,1","-0039,1","-0044,1","99999,9",,,,,,,,,,,,,,"SYN094AAXX  05061 01442 11X20 93305 11039 21044 39702 49960 58012 60032 77072 333 21061 48007 70038;",
"01442099999","2010-12-05T09:00:00","4","58.6666666","7.8","211.0","BYGLANDSFJORD, NO","FM-12","99999","V020","320,1,N,0030,1","00420,1,9,N","070000,1,N,1","-0041,1","-0048,1","09955,1",,,,"7,1,03,1","2,1,03,1",,"08,99,1,08,1,05,1,00450,1,99,9,99,9",,,"99999,9,09697,1","8,1,005,1,+999,9",,"22,1","SYN072AAXX  05091 01442 41488 83203 11041 21048 39697 49955 58005 72272 885//;",
"01442099999","2010-12-05T12:00:00","4","58.6666666","7.8","211.0","BYGLANDSFJORD, NO","FM-12","99999","V020","330,1,N,0030,1","03000,1,9,N","070000,1,N,1","-0038,1","-0052,1","09941,1",,,,"7,1,06,1","1,1,06,1",,"07,99,1,01,1,01,1,00800,1,07,1,00,1",,,"99999,9,09683,1","7,1,013,1,+999,9",,"03,1","SYN072AAXX  05121 01442 41588 73303 11038 21052 39683 49941 57013 70371 81170;",
"01442099999","2010-12-05T15:00:00","4","58.6666666","7.8","211.0","BYGLANDSFJORD, NO","FM-12","99999","V020","320,1,N,0050,1","02100,1,9,N","075000,1,N,1","-0042,1","-0052,1","09932,1",,,,"1,1,03,1","1,1,03,1",,"07,99,1,07,1,00,1,02250,1,07,1,01,1",,,"99999,9,09675,1","7,1,009,1,+999,9",,"03,1","SYN072AAXX  05151 01442 41889 73205 11042 21052 39675 49932 57009 70311 87071;",
"01442099999","2010-12-05T18:00:00","4","58.6666666","7.8","211.0","BYGLANDSFJORD, NO","FM-12","99999","V020","340,1,N,0030,1","22000,1,9,N","075000,1,N,1","-0059,1","-0061,1","09934,1","12,0008,9,1",,,"1,1,06,1","1,1,06,1","00,1,+99999,9,99,9","00,99,1,00,1,00,1,99999,9,00,1,00,1",,"999,M,-0035,1","99999,9,09676,1","3,1,001,1,+999,9",,"01,1","SYN082AAXX  05181 01442 11989 03403 11059 21061 39676 49934 53001 69972 70111 333 11035;",
"01442099999","2010-12-06T03:00:00","4","58.6666666","7.8","211.0","BYGLANDSFJORD, NO","FM-12","99999","V020","330,1,N,0030,1","22000,1,9,N","075000,1,N,1","-0085,1","-0086,1","09944,1",,,,"0,1,03,1","0,1,03,1","00,1,+99999,9,99,9","00,99,1,00,1,00,1,99999,9,00,1,00,1",,,"99999,9,09685,1","2,1,003,1,+999,9",,"02,1","SYN066AAXX  06031 01442 41989 03303 11085 21086 39685 49944 52003 70200;",
"01442099999","2010-12-06T06:00:00","4","58.6666666","7.8","211.0","BYGLANDSFJORD, NO","FM-12","99999","V020","030,1,N,0010,1","22000,1,9,N","075000,1,N,1","-0105,1","-0105,1","09951,1","24,0008,9,1",,"0006,9,1,999999,9,9","0,1,06,1","0,1,06,1","00,1,+99999,9,99,9","00,99,1,00,1,00,1,99999,9,00,1,00,1","24,9","999,N,-0105,1","99999,9,09691,1","3,1,006,1,+999,9",,"02,1","SYN088AAXX  06061 01442 31989 00301 11105 21105 39691 49951 53006 70200 333 21105 48006 70007;",
"01442099999","2010-12-06T09:00:00","4","58.6666666","7.8","211.0","BYGLANDSFJORD, NO","FM-12","99999","V020","350,1,N,0050,1","22000,1,9,N","075000,1,N,1","-0094,1","-0094,1","09956,1",,,,"0,1,03,1","0,1,03,1",,"01,99,1,01,1,00,1,02250,1,03,1,00,1",,,"99999,9,09697,1","3,1,006,1,+999,9",,"02,1","SYN072AAXX  06091 01442 41889 13505 11094 21094 39697 49956 53006 70200 81030;",
"01442099999","2010-12-06T12:00:00","4","58.6666666","7.8","211.0","BYGLANDSFJORD, NO","FM-12","99999","V020","330,1,N,0070,1","22000,1,9,N","075000,1,N,1","-0078,1","-0094,1","09958,1",,,,"0,1,06,1","0,1,06,1","00,1,+99999,9,99,9","00,99,1,00,1,00,1,99999,9,00,1,00,1",,,"99999,9,09698,1","2,1,002,1,+999,9",,"02,1","SYN066AAXX  06121 01442 41989 03307 11078 21094 39698 49958 52002 70200;",
"01442099999","2010-12-06T15:00:00","4","58.6666666","7.8","211.0","BYGLANDSFJORD, NO","FM-12","99999","V020","340,1,N,0050,1","22000,1,9,N","075000,1,N,1","-0086,1","-0093,1","09959,1",,,,"0,1,03,1","0,1,03,1","00,1,+99999,9,99,9","00,99,1,00,1,00,1,99999,9,00,1,00,1",,,"99999,9,09700,1","3,1,001,1,+999,9",,"02,1","SYN066AAXX  06151 01442 41989 03405 11086 21093 39700 49959 53001 70200;",
"01442099999","2010-12-06T18:00:00","4","58.6666666","7.8","211.0","BYGLANDSFJORD, NO","FM-12","99999","V020","340,1,N,0050,1","22000,1,9,N","075000,1,N,1","-0097,1","-0102,1","09966,1",,,,"0,1,06,1","0,1,06,1","00,1,+99999,9,99,9","00,99,1,00,1,00,1,99999,9,00,1,00,1",,"999,M,-0077,1","99999,9,09706,1","3,1,006,1,+999,9",,"02,1","SYN076AAXX  06181 01442 31989 03405 11097 21102 39706 49966 53006 70200 333 11077;",
"01442099999","2010-12-07T03:00:00","4","58.6666666","7.8","211.0","BYGLANDSFJORD, NO","FM-12","99999","V020","330,1,N,0030,1","22000,1,9,N","075000,1,N,1","-0111,1","-0114,1","09992,1",,,,"0,1,03,1","0,1,03,1","00,1,+99999,9,99,9","00,99,1,00,1,00,1,99999,9,00,1,00,1",,,"99999,9,09731,1","3,1,010,1,+999,9",,"02,1","SYN066AAXX  07031 01442 41989 03303 11111 21114 39731 49992 53010 70200;",
"01442099999","2010-12-07T06:00:00","4","58.6666666","7.8","211.0","BYGLANDSFJORD, NO","FM-12","99999","V020","330,1,N,0050,1","22000,1,9,N","075000,1,N,1","-0113,1","-0120,1","10006,1","24,0000,9,1",,"0006,9,1,999999,9,9","0,1,06,1","0,1,06,1","00,1,+99999,9,99,9","00,99,1,00,1,00,1,99999,9,00,1,00,1","24,9","999,N,-0113,1","99999,9,09745,1","2,1,014,1,+999,9",,"02,1","SYN088AAXX  07061 01442 31989 03305 11113 21120 39745 40006 52014 70200 333 21113 48006 70000;","Q01  00002PRCP24"
"01442099999","2010-12-07T09:00:00","4","58.6666666","7.8","211.0","BYGLANDSFJORD, NO","FM-12","99999","V020","340,1,N,0070,1","22000,1,9,N","075000,1,N,1","-0108,1","-0113,1","10025,1",,,,"0,1,03,1","0,1,03,1","00,1,+99999,9,99,9","00,99,1,00,1,00,1,99999,9,00,1,00,1",,,"99999,9,09762,1","2,1,018,1,+999,9",,"02,1","SYN066AAXX  07091 01442 41989 03407 11108 21113 39762 40025 52018 70200;",
"01442099999","2010-12-07T12:00:00","4","58.6666666","7.8","211.0","BYGLANDSFJORD, NO","FM-12","99999","V020","330,1,N,0070,1","22000,1,9,N","075000,1,N,1","-0088,1","-0106,1","10035,1",,,,"0,1,06,1","0,1,06,1","00,1,+99999,9,99,9","00,99,1,00,1,00,1,99999,9,00,1,00,1",,,"99999,9,09773,1","2,1,010,1,+999,9",,"02,1","SYN066AAXX  07121 01442 41989 03307 11088 21106 39773 40035 52010 70200;",
"01442099999","2010-12-07T15:00:00","4","58.6666666","7.8","211.0","BYGLANDSFJORD, NO","FM-12","99999","V020","340,1,N,0050,1","22000,1,9,N","075000,1,N,1","-0088,1","-0096,1","10043,1",,,,"0,1,03,1","0,1,03,1","00,1,+99999,9,99,9","00,99,1,00,1,00,1,99999,9,00,1,00,1",,,"99999,9,09781,1","3,1,007,1,+999,9",,"02,1","SYN066AAXX  07151 01442 41989 03405 11088 21096 39781 40043 53007 70200;",
"01442099999","2010-12-07T18:00:00","4","58.6666666","7.8","211.0","BYGLANDSFJORD, NO","FM-12","99999","V020","330,1,N,0050,1","22000,1,9,N","075000,1,N,1","-0097,1","-0098,1","10057,1",,,,"0,1,06,1","0,1,06,1","00,1,+99999,9,99,9","00,99,1,00,1,00,1,99999,9,00,1,00,1",,"999,M,-0085,1","99999,9,09795,1","1,1,014,1,+999,9",,"02,1","SYN076AAXX  07181 01442 31989 03305 11097 21098 39795 40057 51014 70200 333 11085;",
"01442099999","2010-12-08T03:00:00","4","58.6666666","7.8","211.0","BYGLANDSFJORD, NO","FM-12","99999","V020","350,1,N,0030,1","00750,1,9,N","075000,1,N,1","-0085,1","-0086,1","10065,1",,,,"2,1,03,1","2,1,03,1",,"08,99,1,08,1,05,1,00800,1,99,9,99,9",,,"99999,9,09802,1","8,1,003,1,+999,9",,"02,1","SYN072AAXX  08031 01442 41589 83503 11085 21086 39802 40065 58003 70222 885//;",
"01442099999","2010-12-08T06:00:00","4","58.6666666","7.8","211.0","BYGLANDSFJORD, NO","FM-12","99999","V020","999,9,C,0000,1","00420,1,9,N","070000,1,N,1","-0090,1","-0090,1","10067,1","24,0000,9,1",,"0006,9,1,999999,9,9","2,1,06,1","2,1,06,1",,"08,99,1,08,1,06,1,00450,1,99,9,99,9","24,9","999,N,-0098,1","99999,9,09805,1","3,1,002,1,+999,9",,"03,1","SYN094AAXX  08061 01442 31488 80000 11090 21090 39805 40067 53002 70322 886// 333 21098 48006 70000;","Q01  00002PRCP24"
"01442099999","2010-12-08T09:00:00","4","58.6666666","7.8","211.0","BYGLANDSFJORD, NO","FM-12","99999","V020","350,1,N,0030,1","00420,1,9,N","070000,1,N,1","-0068,1","-0069,1","10068,1",,,,"7,1,03,1","2,1,03,1",,"07,99,1,05,1,06,1,00450,1,00,1,01,1",,,"99999,9,09806,1","2,1,001,1,+999,9",,"01,1","SYN072AAXX  08091 01442 41488 73503 11068 21069 39806 40068 52001 70172 85601;",
"01442099999","2010-12-08T12:00:00","4","58.6666666","7.8","211.0","BYGLANDSFJORD, NO","FM-12","99999","V020","340,1,N,0030,1","00060,1,9,N","060000,1,N,1","-0059,1","-0059,1","10062,1",,,,"7,1,06,1","2,1,06,1",,"08,99,1,08,1,06,1,00075,1,99,9,99,9",,,"99999,9,09801,1","8,1,005,1,+999,9",,"02,1","SYN072AAXX  08121 01442 41186 83403 11059 21059 39801 40062 58005 70272 886//;",
"01442099999","2010-12-08T15:00:00","4","58.6666666","7.8","211.0","BYGLANDSFJORD, NO","FM-12","99999","V020","350,1,N,0030,1","00060,1,9,N","060000,1,N,1","-0059,1","-0059,1","10050,1",,,,"2,1,03,1","2,1,03,1",,"08,99,1,08,1,06,1,00075,1,99,9,99,9",,,"99999,9,09788,1","7,1,012,1,+999,9",,"02,1","SYN072AAXX  08151 01442 41186 83503 11059 21059 39788 40050 57012 70222 886//;",
"01442099999","2010-12-08T18:00:00","4","58.6666666","7.8","211.0","BYGLANDSFJORD, NO","FM-12","99999","V020","350,1,N,0030,1","00120,1,9,N","060000,1,N,1","-0066,1","-0066,1","10048,1","12,0000,9,1",,,"2,1,06,1","2,1,06,1",,"08,99,1,08,1,06,1,00150,1,99,9,99,9",,"999,M,-0055,1","99999,9,09787,1","5,1,002,1,+999,9",,"02,1","SYN088AAXX  08181 01442 11286 83503 11066 21066 39787 40048 55002 69902 70222 886// 333 11055;","Q01  00002PRCP12"
"01442099999","2010-12-09T03:00:00","4","58.6666666","7.8","211.0","BYGLANDSFJORD, NO","FM-12","99999","V020","330,1,N,0050,1","22000,1,9,N","075000,1,N,1","-0073,1","-0080,1","10065,1",,,,"0,1,03,1","0,1,03,1","00,1,+99999,9,99,9","00,99,1,00,1,00,1,99999,9,00,1,00,1",,,"99999,9,09802,1","3,1,013,1,+999,9",,"02,1","SYN066AAXX  09031 01442 41989 03305 11073 21080 39802 40065 53013 70200;",
"01442099999","2010-12-09T06:00:00","4","58.6666666","7.8","211.0","BYGLANDSFJORD, NO","FM-12","99999","V020","360,1,N,0030,1","22000,1,9,N","075000,1,N,1","-0080,1","-0086,1","10082,1","12,0005,9,1","24,0005,9,1","0006,9,1,999999,9,9","0,1,06,1","0,1,06,1","00,1,+99999,9,99,9","00,99,1,00,1,00,1,99999,9,00,1,00,1","24,9","999,N,-0080,1","99999,9,09820,1","3,1,017,1,+999,9",,"02,1","SYN094AAXX  09061 01442 11989 03603 11080 21086 39820 40082 53017 69942 70200 333 21080 48006 70004;",
"01442099999","2010-12-09T09:00:00","4","58.6666666","7.8","211.0","BYGLANDSFJORD, NO","FM-12","99999","V020","340,1,N,0050,1","22000,1,9,N","075000,1,N,1","-0079,1","-0090,1","10101,1",,,,"0,1,03,1","0,1,03,1","00,1,+99999,9,99,9","00,99,1,00,1,00,1,99999,9,00,1,00,1",,,"99999,9,09837,1","1,1,018,1,+999,9",,"02,1","SYN066AAXX  09091 01442 41989 03405 11079 21090 39837 40101 51018 70200;",
"01442099999","2010-12-09T12:00:00","4","58.6666666","7.8","211.0","BYGLANDSFJORD, NO","FM-12","99999","V020","340,1,N,0050,1","22000,1,9,N","075000,1,N,1","-0055,1","-0084,1","10111,1",,,,"0,1,06,1","0,1,06,1","00,1,+99999,9,99,9","00,99,1,00,1,00,1,99999,9,00,1,00,1",,,"99999,9,09848,1","2,1,011,1,+999,9",,"02,1","SYN066AAXX  09121 01442 41989 03405 11055 21084 39848 40111 52011 70200;",
"01442099999","2010-12-09T15:00:00","4","58.6666666","7.8","211.0","BYGLANDSFJORD, NO","FM-12","99999","V020","330,1,N,0030,1","22000,1,9,N","075000,1,N,1","-0054,1","-0080,1","10130,1",,,,"0,1,03,1","0,1,03,1","00,1,+99999,9,99,9","00,99,1,00,1,00,1,99999,9,00,1,00,1",,,"99999,9,09867,1","3,1,018,1,+999,9",,"02,1","SYN066AAXX  09151 01442 41989 03303 11054 21080 39867 40130 53018 70200;",
"01442099999","2010-12-09T18:00:00","4","58.6666666","7.8","211.0","BYGLANDSFJORD, NO","FM-12","99999","V020","330,1,N,0030,1","22000,1,9,N","075000,1,N,1","-0056,1","-0076,1","10162,1",,,,"0,1,06,1","0,1,06,1","00,1,+99999,9,99,9","00,99,1,00,1,00,1,99999,9,00,1,00,1",,"999,M,-0049,1","99999,9,09897,1","1,1,031,1,+999,9",,"02,1","SYN076AAXX  09181 01442 31989 03303 11056 21076 39897 40162 51031 70200 333 11049;",
"01442099999","2010-12-10T03:00:00","4","58.6666666","7.8","211.0","BYGLANDSFJORD, NO","FM-12","99999","V020","999,9,C,0000,1","00420,1,9,N","075000,1,N,1","-0101,1","-0101,1","10220,1",,,,"1,1,03,1","1,1,03,1",,"08,99,1,08,1,06,1,00450,1,99,9,99,9",,,"99999,9,09952,1","3,1,006,1,+999,9",,"03,1","SYN072AAXX  10031 01442 41489 80000 11101 21101 39952 40220 53006 70311 886//;",
"01442099999","2010-12-10T06:00:00","4","58.6666666","7.8","211.0","BYGLANDSFJORD, NO","FM-12","99999","V020","999,9,C,0000,1","00420,1,9,N","070000,1,N,1","-0090,1","-0090,1","10205,1","24,0000,9,1",,"0006,9,1,999999,9,9","2,1,06,1","1,1,06,1",,"08,99,1,08,1,06,1,00450,1,99,9,99,9","24,9","999,N,-0121,1","99999,9,09938,1","6,1,014,1,+999,9",,"02,1","SYN094AAXX  10061 01442 31488 80000 11090 21090 39938 40205 56014 70221 886// 333 21121 48006 70000;","Q01  00002PRCP24"
"01442099999","2010-12-10T09:00:00","4","58.6666666","7.8","211.0","BYGLANDSFJORD, NO","FM-12","99999","V020","350,1,N,0030,1","01500,1,9,N","070000,1,N,1","-0067,1","-0072,1","10191,1",,,,"2,1,03,1","2,1,03,1",,"08,99,1,08,1,00,1,01750,1,02,1,99,9",,,"99999,9,09926,1","6,1,013,1,+999,9",,"03,1","SYN072AAXX  10091 01442 41788 83503 11067 21072 39926 40191 56013 70322 8802/;",
"01442099999","2010-12-10T12:00:00","4","58.6666666","7.8","211.0","BYGLANDSFJORD, NO","FM-12","99999","V020","350,1,N,0030,1","01500,1,9,N","030000,1,N,1","-0052,1","-0064,1","10163,1",,,,"7,1,06,1","2,1,06,1",,"08,99,1,08,1,00,1,01750,1,02,1,99,9",,,"99999,9,09898,1","8,1,027,1,+999,9",,"70,1","SYN072AAXX  10121 01442 41780 83503 11052 21064 39898 40163 58027 77072 8802/;",
"01442099999","2010-12-10T15:00:00","4","58.6666666","7.8","211.0","BYGLANDSFJORD, NO","FM-12","99999","V020","340,1,N,0030,1","00420,1,9,N","070000,1,N,1","-0047,1","-0055,1","10124,1",,,,"7,1,03,1","2,1,03,1",,"08,99,1,08,1,06,1,00450,1,99,9,99,9",,,"99999,9,09862,1","8,1,037,1,+999,9",,"02,1","SYN072AAXX  10151 01442 41488 83403 11047 21055 39862 40124 58037 70272 886//;",
"01442099999","2010-12-10T18:00:00","4","58.6666666","7.8","211.0","BYGLANDSFJORD, NO","FM-12","99999","V020","350,1,N,0030,1","00420,1,9,N","070000,1,N,1","-0043,1","-0054,1","10082,1","12,0000,2,1",,,"7,1,06,1","2,1,06,1",,"08,99,1,08,1,06,1,00450,1,99,9,99,9",,"999,M,-0043,1","99999,9,09821,1","8,1,041,1,+999,9",,"02,1","SYN088AAXX  10181 01442 11488 83503 11043 21054 39821 40082 58041 69902 70272 886// 333 11043;",
"01442099999","2010-12-11T03:00:00","4","58.6666666","7.8","211.0","BYGLANDSFJORD, NO","FM-12","99999","V020","150,1,N,0050,1","22000,1,9,N","075000,1,N,1","-0050,1","-0050,1","09959,1",,,,"1,1,03,1","0,1,03,1","00,1,+99999,9,99,9","00,99,1,00,1,00,1,99999,9,00,1,00,1",,,"99999,9,09701,1","8,1,036,1,+999,9",,"02,1","SYN066AAXX  11031 01442 41989 01505 11050 21050 39701 49959 58036 70210;",
"01442099999","2010-12-11T06:00:00","4","58.6666666","7.8","211.0","BYGLANDSFJORD, NO","FM-12","99999","V020","340,1,N,0120,1","22000,1,9,N","075000,1,N,1","+0068,2","+0009,1","09938,1","12,0010,9,1","24,0013,9,1","0004,9,1,999999,9,9","1,1,06,1","0,1,06,1","00,1,+99999,9,99,9","00,99,1,00,1,00,1,99999,9,00,1,00,1","28,9","999,N,-0052,1","99999,9,09687,1","6,1,014,1,+999,9",,"02,1","SYN094AAXX  11061 01442 11989 03412 10068 20009 39687 49938 56014 60012 70210 333 21052 44004 70013;",
"01442099999","2010-12-11T09:00:00","4","58.6666666","7.8","211.0","BYGLANDSFJORD, NO","FM-12","99999","V020","340,1,N,0100,1","22000,1,9,N","075000,1,N,1","+0064,1","-0003,1","09966,1",,,,"0,1,03,1","0,1,03,1",,"01,99,1,01,1,00,1,02250,1,04,1,00,1",,,"99999,9,09713,1","1,1,027,1,+999,9",,"02,1","SYN072AAXX  11091 01442 41889 13410 10064 21003 39713 49966 51027 70200 81040;",
"01442099999","2010-12-11T12:00:00","4","58.6666666","7.8","211.0","BYGLANDSFJORD, NO","FM-12","99999","V020","350,1,N,0100,1","22000,1,9,N","075000,1,N,1","+0056,1","-0018,1","09984,1",,,,"0,1,06,1","0,1,06,1",,"01,99,1,01,1,00,1,02250,1,03,1,00,1",,,"99999,9,09731,1","3,1,017,1,+999,9",,"02,1","SYN072AAXX  11121 01442 41889 13510 10056 21018 39731 49984 53017 70200 81030;",
"01442099999","2010-12-11T15:00:00","4","58.6666666","7.8","211.0","BYGLANDSFJORD, NO","FM-12","99999","V020","340,1,N,0070,1","02100,1,9,N","075000,1,N,1","+0052,1","-0024,1","09993,1",,,,"1,1,03,1","1,1,03,1",,"08,99,1,08,1,00,1,02250,1,07,1,99,9",,,"99999,9,09738,1","0,1,008,1,+999,9",,"03,1","SYN072AAXX  11151 01442 41889 83407 10052 21024 39738 49993 50008 70311 8807/;",
"01442099999","2010-12-11T18:00:00","4","58.6666666","7.8","211.0","BYGLANDSFJORD, NO","FM-12","99999","V020","010,1,N,0070,1","02100,1,9,N","075000,1,N,1","+0046,1","+9999,9","10007,1",,,,"2,1,06,1","1,1,06,1",,"08,99,1,08,1,00,1,02250,1,07,1,99,9",,"999,M,+0046,1","99999,9,09752,1","3,1,013,1,+999,9",,"02,1","SYN082AAXX  11181 01442 31889 80107 10046 21254 39752 40007 53013 70221 8807/ 333 10046;","Q01-002543ATOD  "
"01442099999","2010-12-12T03:00:00","4","58.6666666","7.8","211.0","BYGLANDSFJORD, NO","FM-12","99999","V020","999,9,C,0000,1","01200,1,9,N","075000,1,N,1","+0005,1","-0063,1","10144,1",,,,"2,1,03,1","2,1,03,1",,"08,99,1,08,1,05,1,01250,1,99,9,99,9",,,"99999,9,09882,1","1,1,041,1,+999,9",,"02,1","SYN072AAXX  12031 01442 41689 80000 10005 21063 39882 40144 51041 70222 885//;",
"01442099999","2010-12-12T06:00:00","4","58.6666666","7.8","211.0","BYGLANDSFJORD, NO","FM-12","99999","V020","999,9,C,0000,1","22000,1,9,N","075000,1,N,1","-0028,1","-0042,1","10179,1","24,0000,9,1",,"9999,2,9,999999,9,9","2,1,06,1","1,1,06,1","00,1,+99999,9,99,9","00,99,1,00,1,00,1,99999,9,00,1,00,1","30,9","999,N,-0028,1","99999,9,09916,1","3,1,033,1,+999,9",,"01,1","SYN088AAXX  12061 01442 31989 00000 11028 21042 39916 40179 53033 70121 333 21028 42998 70000;","Q01  00002PRCP24Q02  09982SNDP  "
"01442099999","2010-12-12T09:00:00","4","58.6666666","7.8","211.0","BYGLANDSFJORD, NO","FM-12","99999","V020","350,1,N,0030,1","22000,1,9,N","075000,1,N,1","-0029,1","-0102,1","10215,1",,,,"0,1,03,1","0,1,03,1","00,1,+99999,9,99,9","00,99,1,00,1,00,1,99999,9,00,1,00,1",,,"99999,9,09951,1","2,1,035,1,+999,9",,"02,1","SYN066AAXX  12091 01442 41989 03503 11029 21102 39951 40215 52035 70200;",
"01442099999","2010-12-12T12:00:00","4","58.6666666","7.8","211.0","BYGLANDSFJORD, NO","FM-12","99999","V020","330,1,N,0030,1","22000,1,9,N","075000,1,N,1","-0010,1","-0098,1","10224,1",,,,"0,1,06,1","0,1,06,1","00,1,+99999,9,99,9","00,99,1,00,1,00,1,99999,9,00,1,00,1",,,"99999,9,09960,1","2,1,009,1,+999,9",,"02,1","SYN066AAXX  12121 01442 41989 03303 11010 21098 39960 40224 52009 70200;",
"01442099999","2010-12-12T15:00:00","4","58.6666666","7.8","211.0","BYGLANDSFJORD, NO","FM-12","99999","V020","340,1,N,0030,1","22000,1,9,N","075000,1,N,1","-0036,1","-0083,1","10232,1",,,,"0,1,03,1","0,1,03,1","00,1,+99999,9,99,9","00,99,1,00,1,00,1,99999,9,00,1,00,1",,,"99999,9,09967,1","2,1,007,1,+999,9",,"02,1","SYN066AAXX  12151 01442 41989 03403 11036 21083 39967 40232 52007 70200;",
"01442099999","2010-12-12T18:00:00","4","58.6666666","7.8","211.0","BYGLANDSFJORD, NO","FM-12","99999","V020","350,1,N,0030,1","02100,1,9,N","075000,1,N,1","-0048,1","-0080,1","10238,1",,,,"1,1,06,1","0,1,06,1",,"06,99,1,06,1,00,1,02250,1,03,1,00,1",,"999,M,-0008,1","99999,9,09972,1","1,1,006,1,+999,9",,"03,1","SYN082AAXX  12181 01442 31889 63503 11048 21080 39972 40238 51006 70310 86030 333 11008;",
"01442099999","2010-12-13T03:00:00","4","58.6666666","7.8","211.0","BYGLANDSFJORD, NO","FM-12","99999","V020","340,1,N,0030,1","22000,1,9,N","075000,1,N,1","-0037,1","-0062,1","10221,1",,,,"1,1,03,1","1,1,03,1",,"03,99,1,03,1,00,1,02250,1,03,1,00,1",,,"99999,9,09956,1","7,1,002,1,+999,9",,"02,1","SYN072AAXX  13031 01442 41889 33403 11037 21062 39956 40221 57002 70211 83030;",
"01442099999","2010-12-13T06:00:00","4","58.6666666","7.8","211.0","BYGLANDSFJORD, NO","FM-12","99999","V020","350,1,N,0030,1","22000,1,9,N","075000,1,N,1","-0049,1","-0055,1","10232,1","24,0000,9,1",,"9999,2,9,999999,9,9","1,1,06,1","1,1,06,1","00,1,+99999,9,99,9","00,99,1,00,1,00,1,99999,9,00,1,00,1","30,9","999,N,-0064,1","99999,9,09967,1","3,1,011,1,+999,9",,"01,1","SYN088AAXX  13061 01442 31989 03503 11049 21055 39967 40232 53011 70111 333 21064 42998 70000;","Q01  00002PRCP24Q02  09982SNDP  "
"01442099999","2010-12-13T09:00:00","4","58.6666666","7.8","211.0","BYGLANDSFJORD, NO","FM-12","99999","V020","340,1,N,0030,1","02100,1,9,N","075000,1,N,1","-0034,1","-0044,1","10257,1",,,,"2,1,03,1","1,1,03,1",,"07,99,1,07,1,00,1,02250,1,07,1,00,1",,,"99999,9,09992,1","3,1,025,1,+999,9",,"03,1","SYN072AAXX  13091 01442 41889 73403 11034 21044 39992 40257 53025 70321 87070;",
"01442099999","2010-12-13T12:00:00","4","58.6666666","7.8","211.0","BYGLANDSFJORD, NO","FM-12","99999","V020","340,1,N,0030,1","02100,1,9,N","075000,1,N,1","-0019,1","-0050,1","10268,1",,,,"2,1,06,1","1,1,06,1",,"07,99,1,07,1,00,1,02250,1,07,1,00,1",,,"99999,9,10002,1","1,1,011,1,+999,9",,"02,1","SYN072AAXX  13121 01442 41889 73403 11019 21050 30002 40268 51011 70221 87070;",
"01442099999","2010-12-13T15:00:00","4","58.6666666","7.8","211.0","BYGLANDSFJORD, NO","FM-12","99999","V020","999,9,C,0000,1","22000,1,9,N","075000,1,N,1","-0040,1","-0050,1","10282,1",,,,"1,1,03,1","1,1,03,1","00,1,+99999,9,99,9","00,99,1,00,1,00,1,99999,9,00,1,00,1",,,"99999,9,10016,1","3,1,013,1,+999,9",,"01,1","SYN066AAXX  13151 01442 41989 00000 11040 21050 30016 40282 53013 70111;",
"01442099999","2010-12-13T18:00:00","4","58.6666666","7.8","211.0","BYGLANDSFJORD, NO","FM-12","99999","V020","010,1,N,0030,1","22000,1,9,N","075000,1,N,1","-0064,1","-0065,1","10302,1",,,,"1,1,06,1","0,1,06,1",,"01,99,1,01,1,00,1,02250,1,03,1,00,1",,"999,M,-0017,1","99999,9,10033,1","1,1,018,1,+999,9",,"01,1","SYN082AAXX  13181 01442 31889 10103 11064 21065 30033 40302 51018 70110 81030 333 11017;",
"01442099999","2010-12-14T03:00:00","4","58.6666666","7.8","211.0","BYGLANDSFJORD, NO","FM-12","99999","V020","999,9,C,0000,1","22000,1,9,N","075000,1,N,1","-0106,1","-0106,1","10324,1",,,,"0,1,03,1","0,1,03,1","00,1,+99999,9,99,9","00,99,1,00,1,00,1,99999,9,00,1,00,1",,,"99999,9,10055,1","4,1,000,1,+999,9",,"02,1","SYN066AAXX  14031 01442 41989 00000 11106 21106 30055 40324 54000 70200;",
"01442099999","2010-12-14T06:00:00","4","58.6666666","7.8","211.0","BYGLANDSFJORD, NO","FM-12","99999","V020","999,9,C,0000,1","99999,9,9,N","075000,1,N,1","-0102,1","-0102,1","10327,1","24,0000,9,1",,"9999,2,9,999999,9,9","1,1,06,1","0,1,06,1",,"06,99,1,00,1,00,1,99999,9,00,1,06,1","30,9","999,N,-0113,1","99999,9,10057,1","2,1,003,1,+999,9",,"03,1","SYN094AAXX  14061 01442 31989 60000 11102 21102 30057 40327 52003 70310 80006 333 21113 42998 70000;","Q01  00002PRCP24Q02  09982SNDP  "
"01442099999","2010-12-14T09:00:00","4","58.6666666","7.8","211.0","BYGLANDSFJORD, NO","FM-12","99999","V020","150,1,N,0030,1","02100,1,9,N","075000,1,N,1","-0104,1","-0104,1","10329,1",,,,"2,1,03,1","2,1,03,1",,"07,99,1,07,1,00,1,02250,1,03,1,01,1",,,"99999,9,10060,1","3,1,002,1,+999,9",,"03,1","SYN072AAXX  14091 01442 41889 71503 11104 21104 30060 40329 53002 70322 87031;",
"01442099999","2010-12-14T12:00:00","4","58.6666666","7.8","211.0","BYGLANDSFJORD, NO","FM-12","99999","V020","350,1,N,0050,1","01200,1,9,N","075000,1,N,1","-0057,1","-0061,1","10320,1",,,,"2,1,06,1","2,1,06,1",,"08,99,1,08,1,05,1,01250,1,99,9,99,9",,,"99999,9,10052,1","7,1,008,1,+999,9",,"02,1","SYN072AAXX  14121 01442 41689 83505 11057 21061 30052 40320 57008 70222 885//;",
"01442099999","2010-12-14T15:00:00","4","58.6666666","7.8","211.0","BYGLANDSFJORD, NO","FM-12","99999","V020","350,1,N,0050,1","22000,1,9,N","075000,1,N,1","-0046,1","-0056,1","10315,1",,,,"2,1,03,1","1,1,03,1",,"02,99,1,01,1,00,1,02250,1,03,1,01,1",,,"99999,9,10047,1","5,1,003,1,+999,9",,"01,1","SYN072AAXX  14151 01442 41889 23505 11046 21056 30047 40315 55003 70121 81031;",
"01442099999","2010-12-14T18:00:00","4","58.6666666","7.8","211.0","BYGLANDSFJORD, NO","FM-12","99999","V020","350,1,N,0050,1","22000,1,9,N","075000,1,N,1","-0046,1","-0051,1","10324,1",,,,"2,1,06,1","1,1,06,1","00,1,+99999,9,99,9","00,99,1,00,1,00,1,99999,9,00,1,00,1",,"999,M,-0041,1","99999,9,10056,1","2,1,008,1,+999,9",,"01,1","SYN076AAXX  14181 01442 31989 03505 11046 21051 30056 40324 52008 70121 333 11041;",
"01442099999","2010-12-15T03:00:00","4","58.6666666","7.8","211.0","BYGLANDSFJORD, NO","FM-12","99999","V020","340,1,N,0050,1","22000,1,9,N","075000,1,N,1","-0052,1","-0059,1","10335,1",,,,"0,1,03,1","0,1,03,1","00,1,+99999,9,99,9","00,99,1,00,1,00,1,99999,9,00,1,00,1",,,"99999,9,10067,1","7,1,002,1,+999,9",,"02,1","SYN066AAXX  15031 01442 41989 03405 11052 21059 30067 40335 57002 70200;",
"01442099999","2010-12-15T06:00:00","4","58.6666666","7.8","211.0","BYGLANDSFJORD, NO","FM-12","99999","V020","330,1,N,0050,1","22000,1,9,N","075000,1,N,1","-0059,1","-0067,1","10321,1","24,0000,9,1",,"9999,2,9,999999,9,9","0,1,06,1","0,1,06,1","00,1,+99999,9,99,9","00,99,1,00,1,00,1,99999,9,00,1,00,1","30,9","999,N,-0059,1","99999,9,10052,1","8,1,014,1,+999,9",,"02,1","SYN088AAXX  15061 01442 31989 03305 11059 21067 30052 40321 58014 70200 333 21059 42998 70000;","Q01  00002PRCP24Q02  09982SNDP  "
"01442099999","2010-12-15T09:00:00","4","58.6666666","7.8","211.0","BYGLANDSFJORD, NO","FM-12","99999","V020","330,1,N,0050,1","22000,1,9,N","075000,1,N,1","-0072,1","-0076,1","10310,1",,,,"0,1,03,1","0,1,03,1",,"01,99,1,00,1,00,1,99999,9,00,1,01,1",,,"99999,9,10042,1","8,1,011,1,+999,9",,"02,1","SYN072AAXX  15091 01442 41989 13305 11072 21076 30042 40310 58011 70200 80001;",
"01442099999","2010-12-15T12:00:00","4","58.6666666","7.8","211.0","BYGLANDSFJORD, NO","FM-12","99999","V020","340,1,N,0030,1","22000,1,9,N","075000,1,N,1","-0061,1","-0077,1","10280,1",,,,"0,1,06,1","0,1,06,1",,"01,99,1,00,1,00,1,99999,9,00,1,01,1",,,"99999,9,10012,1","8,1,029,1,+999,9",,"02,1","SYN072AAXX  15121 01442 41989 13403 11061 21077 30012 40280 58029 70200 80001;",
"01442099999","2010-12-15T15:00:00","4","58.6666666","7.8","211.0","BYGLANDSFJORD, NO","FM-12","99999","V020","350,1,N,0030,1","22000,1,9,N","075000,1,N,1","-0071,1","-0077,1","10239,1",,,,"0,1,03,1","0,1,03,1",,"02,99,1,00,1,00,1,99999,9,00,1,05,1",,,"99999,9,09972,1","8,1,040,1,+999,9",,"03,1","SYN072AAXX  15151 01442 41989 23503 11071 21077 39972 40239 58040 70300 80005;",
"01442099999","2010-12-15T18:00:00","4","58.6666666","7.8","211.0","BYGLANDSFJORD, NO","FM-12","99999","V020","330,1,N,0050,1","22000,1,9,N","075000,1,N,1","-0072,1","-0080,1","10190,1",,,,"0,1,06,1","0,1,06,1",,"03,99,1,00,1,00,1,99999,9,00,1,05,1",,"999,M,-0057,1","99999,9,09925,1","8,1,048,1,+999,9",,"03,1","SYN082AAXX  15181 01442 31989 33305 11072 21080 39925 40190 58048 70300 80005 333 11057;",
"01442099999","2010-12-16T03:00:00","4","58.6666666","7.8","211.0","BYGLANDSFJORD, NO","FM-12","99999","V020","150,1,N,0030,1","00420,1,9,N","030000,1,N,1","+0018,1","+0017,1","09936,1",,,,"6,1,03,1","2,1,03,1",,"08,99,1,08,1,05,1,00450,1,99,9,99,9",,,"99999,9,09681,1","8,1,093,2,+999,9",,"66,1","SYN072AAXX  16031 01442 41480 81503 10018 20017 39681 49936 58093 76662 885//;","Q01+000932APC3  "
"01442099999","2010-12-16T06:00:00","4","58.6666666","7.8","211.0","BYGLANDSFJORD, NO","FM-12","99999","V020","280,1,N,0030,1","22000,1,9,N","075000,1,N,1","+0005,1","-0034,1","09891,1","12,0020,9,2","24,0015,9,2","9999,2,9,999999,9,9","6,1,06,1","1,1,06,1","00,1,+99999,9,99,9","00,99,1,00,1,00,1,99999,9,00,1,00,1","30,9","999,N,-0073,1","99999,9,09636,1","6,1,045,1,+999,9",,"01,1","SYN094AAXX  16061 01442 11989 02803 10005 21034 39636 49891 56045 60022 70161 333 21073 42998 70016;","Q01  09982SNDP  "
"01442099999","2010-12-16T09:00:00","4","58.6666666","7.8","211.0","BYGLANDSFJORD, NO","FM-12","99999","V020","330,1,N,0070,1","22000,1,9,N","075000,1,N,1","-0021,1","-0073,1","09894,1",,,,"8,1,03,1","0,1,03,1","00,1,+99999,9,99,9","00,99,1,00,1,00,1,99999,9,00,1,00,1",,,"99999,9,09637,1","3,1,002,1,+999,9",,"01,1","SYN066AAXX  16091 01442 41989 03307 11021 21073 39637 49894 53002 70180;",
"01442099999","2010-12-16T15:00:00","4","58.6666666","7.8","211.0","BYGLANDSFJORD, NO","FM-12","99999","V020","330,1,N,0030,1","22000,1,9,N","075000,1,N,1","-0041,1","-0102,1","09881,1",,,,"0,1,03,1","0,1,03,1","00,1,+99999,9,99,9","00,99,1,00,1,00,1,99999,9,00,1,00,1",,,"99999,9,09625,1","5,1,003,1,+999,9",,"02,1","SYN066AAXX  16151 01442 41989 03303 11041 21102 39625 49881 55003 70200;",
"01442099999","2010-12-16T18:00:00","4","58.6666666","7.8","211.0","BYGLANDSFJORD, NO","FM-12","99999","V020","340,1,N,0050,1","22000,1,9,N","075000,1,N,1","-0049,1","-0109,1","09875,1","12,0000,9,1",,,"0,1,06,1","0,1,06,1","00,1,+99999,9,99,9","00,99,1,00,1,00,1,99999,9,00,1,00,1",,"999,M,+0006,1","99999,9,09618,1","8,1,006,1,+999,9",,"02,1","SYN082AAXX  16181 01442 11989 03405 11049 21109 39618 49875 58006 69902 70200 333 10006;","Q01  00002PRCP12"
"01442099999","2010-12-17T03:00:00","4","58.6666666","7.8","211.0","BYGLANDSFJORD, NO","FM-12","99999","V020","330,1,N,0050,1","22000,1,9,N","075000,1,N,1","-0104,1","-0113,1","09899,1",,,,"0,1,03,1","0,1,03,1","00,1,+99999,9,99,9","00,99,1,00,1,00,1,99999,9,00,1,00,1",,,"99999,9,09641,1","3,1,011,1,+999,9",,"02,1","SYN066AAXX  17031 01442 41989 03305 11104 21113 39641 49899 53011 70200;",
"01442099999","2010-12-17T06:00:00","4","58.6666666","7.8","211.0","BYGLANDSFJORD, NO","FM-12","99999","V020","330,1,N,0030,1","22000,1,9,N","075000,1,N,1","-0115,1","-0124,1","09918,1","24,0000,9,1",,"9999,2,9,999999,9,9","0,1,06,1","0,1,06,1","00,1,+99999,9,99,9","00,99,1,00,1,00,1,99999,9,00,1,00,1","30,9","999,N,-0124,1","99999,9,09658,1","3,1,018,1,+999,9",,"02,1","SYN088AAXX  17061 01442 31989 03303 11115 21124 39658 49918 53018 70200 333 21124 42998 79999;","Q01  00002PRCP24Q02  09982SNDP  "
"01442099999","2010-12-17T09:00:00","4","58.6666666","7.8","211.0","BYGLANDSFJORD, NO","FM-12","99999","V020","340,1,N,0050,1","22000,1,9,N","075000,1,N,1","-0119,1","-0126,1","09940,1",,,,"0,1,03,1","0,1,03,1",,"01,99,1,00,1,00,1,99999,9,00,1,02,1",,,"99999,9,09680,1","3,1,021,1,+999,9",,"02,1","SYN072AAXX  17091 01442 41989 13405 11119 21126 39680 49940 53021 70200 80002;",
"01442099999","2010-12-17T12:00:00","4","58.6666666","7.8","211.0","BYGLANDSFJORD, NO","FM-12","99999","V020","340,1,N,0070,1","03000,1,9,N","005000,1,N,1","-0107,1","-0123,1","09958,1",,,,"7,1,06,1","1,1,06,1",,"08,99,1,01,1,01,1,00800,1,07,1,99,9",,,"99999,9,09697,1","1,1,018,1,+999,9",,"70,1","SYN072AAXX  17121 01442 41550 83407 11107 21123 39697 49958 51018 77071 8117/;",
"01442099999","2010-12-17T15:00:00","4","58.6666666","7.8","211.0","BYGLANDSFJORD, NO","FM-12","99999","V020","330,1,N,0050,1","01200,1,9,N","075000,1,N,1","-0092,1","-0108,1","09975,1",,,,"8,1,03,1","1,1,03,1",,"07,99,1,07,1,08,1,00800,1,00,1,00,1",,,"99999,9,09715,1","3,1,017,1,+999,9",,"26,1","SYN072AAXX  17151 01442 41589 73305 11092 21108 39715 49975 53017 72681 87800;",
"01442099999","2010-12-17T18:00:00","4","58.6666666","7.8","211.0","BYGLANDSFJORD, NO","FM-12","99999","V020","330,1,N,0050,1","01200,1,9,N","075000,1,N,1","-0076,1","-0087,1","10028,1","12,0000,2,1",,,"8,1,06,1","1,1,06,1",,"07,99,1,07,1,08,1,00800,1,00,1,00,1",,"999,M,-0076,1","99999,9,09767,1","2,1,021,1,+999,9",,"03,1","SYN088AAXX  17181 01442 11589 73305 11076 21087 39767 40028 52021 69912 70381 87800 333 11076;",
"01442099999","2010-12-18T03:00:00","4","58.6666666","7.8","211.0","BYGLANDSFJORD, NO","FM-12","99999","V020","999,9,9,9999,9","99999,9,9,N","999999,9,N,1","-0049,1","-0049,1","99999,9",,,,,,,,,,,,,,"SYN066AAXX  18031 01442 41X05 93505 11049 21049 39756 40016 52008 77372;",
"01442099999","2010-12-18T06:00:00","4","58.6666666","7.8","211.0","BYGLANDSFJORD, NO","FM-12","99999","V020","999,9,9,9999,9","99999,9,9,N","999999,9,N,1","-0025,1","-0044,1","99999,9",,,,,,,,,,,,,,"SYN094AAXX  18061 01442 11X20 93507 11025 21044 39768 40028 53013 60052 77172 333 21076 48010 70049;",
"01442099999","2010-12-18T09:00:00","4","58.6666666","7.8","211.0","BYGLANDSFJORD, NO","FM-12","99999","V020","030,1,N,0070,1","00750,1,9,N","005000,1,N,1","-0027,1","-0049,1","10052,1",,,,"7,1,03,1","7,1,03,1",,"08,99,1,08,1,07,1,00800,1,99,9,99,9",,,"99999,9,09792,1","3,1,023,1,+999,9",,"71,1","SYN072AAXX  18091 01442 41550 80307 11027 21049 39792 40052 53023 77177 887//;",
"01442099999","2010-12-18T12:00:00","4","58.6666666","7.8","211.0","BYGLANDSFJORD, NO","FM-12","99999","V020","999,9,9,9999,9","99999,9,9,N","999999,9,N,1","-0033,1","-0034,1","99999,9",,,,,,,,,,,,,,"SYN066AAXX  18121 01442 41X05 93507 11033 21034 39801 40061 53009 77373;",
"01442099999","2010-12-18T15:00:00","4","58.6666666","7.8","211.0","BYGLANDSFJORD, NO","FM-12","99999","V020","340,1,N,0070,1","00420,1,9,N","010000,1,N,1","-0034,1","-0052,1","10070,1",,,,"7,1,03,1","3,1,03,1",,"08,99,1,08,1,07,1,00450,1,99,9,99,9",,,"99999,9,09808,1","2,1,008,1,+999,9",,"71,1","SYN072AAXX  18151 01442 41460 83407 11034 21052 39808 40070 52008 77173 887//;",
"01442099999","2010-12-18T18:00:00","4","58.6666666","7.8","211.0","BYGLANDSFJORD, NO","FM-12","99999","V020","999,9,9,9999,9","99999,9,9,N","999999,9,N,1","-0044,1","-0066,1","99999,9",,,,,,,,,,,,,,"SYN082AAXX  18181 01442 11X30 93507 11044 21066 39822 40084 52014 60082 77173 333 11023;",
"01442099999","2010-12-19T03:00:00","4","58.6666666","7.8","211.0","BYGLANDSFJORD, NO","FM-12","99999","V020","999,9,9,9999,9","99999,9,9,N","999999,9,N,1","-0073,1","-0098,1","99999,9",,,,,,,,,,,,,,"SYN066AAXX  19031 01442 41X50 93507 11073 21098 39822 40085 58005 77177;",
"01442099999","2010-12-19T06:00:00","4","58.6666666","7.8","211.0","BYGLANDSFJORD, NO","FM-12","99999","V020","350,1,N,0050,1","00750,1,9,N","010000,1,N,1","-0076,1","-0101,1","10068,1","12,0008,9,1","24,0089,9,1","0019,9,1,999999,9,9","7,1,06,1","2,1,06,1",,"08,99,1,08,1,05,1,00800,1,99,9,99,9","24,9","999,N,-0076,1","99999,9,09806,1","7,1,017,1,+999,9",,"70,1","SYN100AAXX  19061 01442 11560 83505 11076 21101 39806 40068 57017 69982 77072 885// 333 21076 48019 70090;",
"01442099999","2010-12-19T09:00:00","4","58.6666666","7.8","211.0","BYGLANDSFJORD, NO","FM-12","99999","V020","340,1,N,0070,1","00750,1,9,N","030000,1,N,1","-0078,1","-0099,1","10063,1",,,,"7,1,03,1","2,1,03,1",,"08,99,1,08,1,05,1,00800,1,99,9,99,9",,,"99999,9,09801,1","5,1,005,1,+999,9",,"70,1","SYN072AAXX  19091 01442 41580 83407 11078 21099 39801 40063 55005 77072 885//;",
"01442099999","2010-12-19T12:00:00","4","58.6666666","7.8","211.0","BYGLANDSFJORD, NO","FM-12","99999","V020","350,1,N,0070,1","00750,1,9,N","005000,1,N,1","-0079,1","-0097,1","10044,1",,,,"7,1,06,1","2,1,06,1",,"08,99,1,08,1,05,1,00800,1,99,9,99,9",,,"99999,9,09782,1","8,1,018,1,+999,9",,"70,1","SYN072AAXX  19121 01442 41550 83507 11079 21097 39782 40044 58018 77072 885//;",
"01442099999","2010-12-19T15:00:00","4","58.6666666","7.8","211.0","BYGLANDSFJORD, NO","FM-12","99999","V020","350,1,N,0070,1","03000,1,9,N","070000,1,N,1","-0079,1","-0112,1","10030,1",,,,"7,1,03,1","2,1,03,1",,"08,99,1,01,1,01,1,01250,1,02,1,99,9",,,"99999,9,09768,1","6,1,014,1,+999,9",,"22,1","SYN072AAXX  19151 01442 41688 83507 11079 21112 39768 40030 56014 72272 8112/;",
"01442099999","2010-12-19T18:00:00","4","58.6666666","7.8","211.0","BYGLANDSFJORD, NO","FM-12","99999","V020","340,1,N,0050,1","02100,1,9,N","070000,1,N,1","-0084,1","-0111,1","10023,1","12,0005,9,1",,,"7,1,06,1","2,1,06,1",,"08,99,1,08,1,00,1,02250,1,01,1,99,9",,"999,M,-0074,1","99999,9,09762,1","7,1,007,1,+999,9",,"01,1","SYN088AAXX  19181 01442 11888 83405 11084 21111 39762 40023 57007 69952 70172 8801/ 333 11074;",
"01442099999","2010-12-20T03:00:00","4","58.6666666","7.8","211.0","BYGLANDSFJORD, NO","FM-12","99999","V020","350,1,N,0070,1","02100,1,9,N","075000,1,N,1","-0094,1","-0128,1","10007,1",,,,"2,1,03,1","2,1,03,1",,"07,99,1,07,1,00,1,02250,1,07,1,00,1",,,"99999,9,09746,1","7,1,005,1,+999,9",,"02,1","SYN072AAXX  20031 01442 41889 73507 11094 21128 39746 40007 57005 70222 87070;",
"01442099999","2010-12-20T06:00:00","4","58.6666666","7.8","211.0","BYGLANDSFJORD, NO","FM-12","99999","V020","020,1,N,0050,1","02100,1,9,N","005000,1,N,1","-0088,1","-0120,1","10006,1","12,9999,9,9","24,0008,9,1","0017,9,1,999999,9,9","7,1,06,1","2,1,06,1",,"08,99,1,08,1,00,1,02250,1,07,1,99,9","24,9","999,N,-0093,1","99999,9,09745,1","5,1,001,1,+999,9",,"70,1","SYN100AAXX  20061 01442 11850 80205 11088 21120 39745 40006 55001 69922 77072 8807/ 333 21093 48017 70007;","Q01  00002PRCP12Q02  00002PRCP12"
"01442099999","2010-12-20T09:00:00","4","58.6666666","7.8","211.0","BYGLANDSFJORD, NO","FM-12","99999","V020","030,1,N,0070,1","22000,1,9,N","070000,1,N,1","-0098,1","-0132,1","10016,1",,,,"7,1,03,1","1,1,03,1",,"02,99,1,01,1,00,1,99999,9,04,1,01,1",,,"99999,9,09755,1","2,1,010,1,+999,9",,"01,1","SYN072AAXX  20091 01442 41988 20307 11098 21132 39755 40016 52010 70171 81041;",
"01442099999","2010-12-20T12:00:00","4","58.6666666","7.8","211.0","BYGLANDSFJORD, NO","FM-12","99999","V020","350,1,N,0050,1","22000,1,9,N","070000,1,N,1","-0093,1","-0125,1","10020,1",,,,"7,1,06,1","1,1,06,1",,"03,99,1,01,1,01,1,01250,1,00,1,02,1",,,"99999,9,09758,1","3,1,004,1,+999,9",,"03,1","SYN072AAXX  20121 01442 41688 33505 11093 21125 39758 40020 53004 70371 81102;",
"01442099999","2010-12-20T15:00:00","4","58.6666666","7.8","211.0","BYGLANDSFJORD, NO","FM-12","99999","V020","340,1,N,0050,1","02100,1,9,N","070000,1,N,1","-0099,1","-0121,1","10031,1",,,,"7,1,03,1","1,1,03,1",,"06,99,1,05,1,00,1,02250,1,03,1,02,1",,,"99999,9,09768,1","2,1,010,1,+999,9",,"22,1","SYN072AAXX  20151 01442 41888 63405 11099 21121 39768 40031 52010 72271 85032;",
"01442099999","2010-12-20T18:00:00","4","58.6666666","7.8","211.0","BYGLANDSFJORD, NO","FM-12","99999","V020","010,1,N,0030,1","22000,1,9,N","075000,1,N,1","-0125,1","-0133,1","10033,1","12,0000,2,1",,,"7,1,06,1","1,1,06,1",,"01,99,1,00,1,00,1,99999,9,00,1,02,1",,"999,M,-0086,1","99999,9,09771,1","3,1,002,1,+999,9",,"01,1","SYN088AAXX  20181 01442 11989 10103 11125 21133 39771 40033 53002 69912 70171 80002 333 11086;",
"01442099999","2010-12-21T03:00:00","4","58.6666666","7.8","211.0","BYGLANDSFJORD, NO","FM-12","99999","V020","350,1,N,0030,1","02100,1,9,N","075000,1,N,1","-0153,1","-0153,1","10048,1",,,,"1,1,03,1","1,1,03,1",,"07,99,1,07,1,00,1,02250,1,07,1,00,1",,,"99999,9,09783,1","8,1,002,1,+999,9",,"03,1","SYN072AAXX  21031 01442 41889 73503 11153 21153 39783 40048 58002 70311 87070;",
"01442099999","2010-12-21T06:00:00","4","58.6666666","7.8","211.0","BYGLANDSFJORD, NO","FM-12","99999","V020","340,1,N,0030,1","22000,1,9,N","075000,1,N,1","-0159,1","-0160,1","10048,1","24,0000,2,1",,"0016,9,1,999999,9,9","1,1,06,1","1,1,06,1",,"01,99,1,01,1,00,1,99999,9,04,1,00,1","24,9","999,N,-0159,1","99999,9,09783,1","4,1,000,1,+999,9",,"01,1","SYN094AAXX  21061 01442 31989 13403 11159 21160 39783 40048 54000 70111 81040 333 21159 48016 70001;",
"01442099999","2010-12-21T09:00:00","4","58.6666666","7.8","211.0","BYGLANDSFJORD, NO","FM-12","99999","V020","340,1,N,0030,1","03000,1,9,N","075000,1,N,1","-0157,1","-0157,1","10060,1",,,,"1,1,03,1","1,1,03,1",,"07,99,1,01,1,01,1,01250,1,04,1,08,1",,,"99999,9,09796,1","3,1,012,1,+999,9",,"03,1","SYN072AAXX  21091 01442 41689 73403 11157 21157 39796 40060 53012 70311 81148;",
"01442099999","2010-12-21T12:00:00","4","58.6666666","7.8","211.0","BYGLANDSFJORD, NO","FM-12","99999","V020","350,1,N,0050,1","22000,1,9,N","075000,1,N,1","-0129,1","-0142,1","10064,1",,,,"1,1,06,1","1,1,06,1",,"03,99,1,01,1,00,1,02250,1,03,1,01,1",,,"99999,9,09801,1","1,1,005,1,+999,9",,"01,1","SYN072AAXX  21121 01442 41889 33505 11129 21142 39801 40064 51005 70111 81031;",
"01442099999","2010-12-21T15:00:00","4","58.6666666","7.8","211.0","BYGLANDSFJORD, NO","FM-12","99999","V020","340,1,N,0030,1","02100,1,9,N","070000,1,N,1","-0116,1","-0125,1","10066,1",,,,"2,1,03,1","1,1,03,1",,"08,99,1,08,1,00,1,02250,1,02,1,99,9",,,"99999,9,09802,1","3,1,002,1,+999,9",,"03,1","SYN072AAXX  21151 01442 41888 83403 11116 21125 39802 40066 53002 70321 8802/;",
"01442099999","2010-12-21T18:00:00","4","58.6666666","7.8","211.0","BYGLANDSFJORD, NO","FM-12","99999","V020","999,9,9,9999,9","99999,9,9,N","999999,9,N,1","-0113,1","-0115,1","99999,9",,,,,,,,,,,,,,"SYN082AAXX  21181 01442 11X30 93403 11113 21115 39810 40073 52007 69922 77072 333 11113;",
"01442099999","2010-12-22T03:00:00","4","58.6666666","7.8","211.0","BYGLANDSFJORD, NO","FM-12","99999","V020","340,1,N,0030,1","22000,1,9,N","075000,1,N,1","-0152,1","-0152,1","10120,1",,,,"0,1,03,1","0,1,03,1","00,1,+99999,9,99,9","00,99,1,00,1,00,1,99999,9,00,1,00,1",,,"99999,9,09855,1","2,1,011,1,+999,9",,"02,1","SYN066AAXX  22031 01442 41989 03403 11152 21152 39855 40120 52011 70200;",
"01442099999","2010-12-22T06:00:00","4","58.6666666","7.8","211.0","BYGLANDSFJORD, NO","FM-12","99999","V020","340,1,N,0030,1","22000,1,9,N","075000,1,N,1","-0151,1","-0151,1","10131,1","12,0003,9,1","24,0005,9,1","0015,9,1,999999,9,9","0,1,06,1","0,1,06,1","00,1,+99999,9,99,9","00,99,1,00,1,00,1,99999,9,00,1,00,1","24,9","999,N,-0153,1","99999,9,09865,1","2,1,010,1,+999,9",,"02,1","SYN094AAXX  22061 01442 11989 03403 11151 21151 39865 40131 52010 69932 70200 333 21153 48015 70005;",
"01442099999","2010-12-22T09:00:00","4","58.6666666","7.8","211.0","BYGLANDSFJORD, NO","FM-12","99999","V020","330,1,N,0030,1","22000,1,9,N","075000,1,N,1","-0155,1","-0155,1","10146,1",,,,"0,1,03,1","0,1,03,1","00,1,+99999,9,99,9","00,99,1,00,1,00,1,99999,9,00,1,00,1",,,"99999,9,09880,1","3,1,015,1,+999,9",,"02,1","SYN066AAXX  22091 01442 41989 03303 11155 21155 39880 40146 53015 70200;",
"01442099999","2010-12-22T12:00:00","4","58.6666666","7.8","211.0","BYGLANDSFJORD, NO","FM-12","99999","V020","330,1,N,0030,1","22000,1,9,N","075000,1,N,1","-0134,1","-0147,1","10152,1",,,,"0,1,06,1","0,1,06,1","00,1,+99999,9,99,9","00,99,1,00,1,00,1,99999,9,00,1,00,1",,,"99999,9,09886,1","1,1,006,1,+999,9",,"02,1","SYN066AAXX  22121 01442 41989 03303 11134 21147 39886 40152 51006 70200;",
"01442099999","2010-12-22T15:00:00","4","58.6666666","7.8","211.0","BYGLANDSFJORD, NO","FM-12","99999","V020","340,1,N,0030,1","22000,1,9,N","075000,1,N,1","-0149,1","-0152,1","10152,1",,,,"0,1,03,1","0,1,03,1","00,1,+99999,9,99,9","00,99,1,00,1,00,1,99999,9,00,1,00,1",,,"99999,9,09886,1","4,1,000,1,+999,9",,"02,1","SYN066AAXX  22151 01442 41989 03403 11149 21152 39886 40152 54000 70200;",
"01442099999","2010-12-22T18:00:00","4","58.6666666","7.8","211.0","BYGLANDSFJORD, NO","FM-12","99999","V020","340,1,N,0050,1","22000,1,9,N","075000,1,N,1","-0163,1","-0163,1","10166,1",,,,"0,1,06,1","0,1,06,1","00,1,+99999,9,99,9","00,99,1,00,1,00,1,99999,9,00,1,00,1",,"999,M,-0132,1","99999,9,09898,1","3,1,013,1,+999,9",,"02,1","SYN076AAXX  22181 01442 31989 03405 11163 21163 39898 40166 53013 70200 333 11132;",
"01442099999","2010-12-23T03:00:00","4","58.6666666","7.8","211.0","BYGLANDSFJORD, NO","FM-12","99999","V020","340,1,N,0030,1","00420,1,9,N","075000,1,N,1","-0117,1","-0123,1","10189,1",,,,"2,1,03,1","2,1,03,1",,"08,99,1,08,1,06,1,00450,1,99,9,99,9",,,"99999,9,09922,1","2,1,005,1,+999,9",,"02,1","SYN072AAXX  23031 01442 41489 83403 11117 21123 39922 40189 52005 70222 886//;",
"01442099999","2010-12-23T06:00:00","4","58.6666666","7.8","211.0","BYGLANDSFJORD, NO","FM-12","99999","V020","340,1,N,0050,1","00750,1,9,N","075000,1,N,1","-0116,1","-0121,1","10189,1","24,0000,9,1",,"0015,9,1,999999,9,9","2,1,06,1","2,1,06,1",,"08,99,1,08,1,05,1,00800,1,99,9,99,9","24,9","999,N,-0166,1","99999,9,09922,1","0,1,000,1,+999,9",,"02,1","SYN094AAXX  23061 01442 31589 83405 11116 21121 39922 40189 50000 70222 885// 333 21166 48015 70000;","Q01  00002PRCP24"
"01442099999","2010-12-23T09:00:00","4","58.6666666","7.8","211.0","BYGLANDSFJORD, NO","FM-12","99999","V020","999,9,C,0000,1","22000,1,9,N","075000,1,N,1","-0119,1","-0121,1","10204,1",,,,"2,1,03,1","1,1,03,1",,"01,99,1,01,1,01,1,00800,1,00,1,00,1",,,"99999,9,09937,1","3,1,014,1,+999,9",,"01,1","SYN072AAXX  23091 01442 41589 10000 11119 21121 39937 40204 53014 70121 81100;",
"01442099999","2010-12-23T12:00:00","4","58.6666666","7.8","211.0","BYGLANDSFJORD, NO","FM-12","99999","V020","330,1,N,0030,1","22000,1,9,N","075000,1,N,1","-0116,1","-0131,1","10210,1",,,,"1,1,06,1","0,1,06,1","00,1,+99999,9,99,9","00,99,1,00,1,00,1,99999,9,00,1,00,1",,,"99999,9,09942,1","0,1,006,1,+999,9",,"02,1","SYN066AAXX  23121 01442 41989 03303 11116 21131 39942 40210 50006 70210;",
"01442099999","2010-12-23T15:00:00","4","58.6666666","7.8","211.0","BYGLANDSFJORD, NO","FM-12","99999","V020","010,1,N,0030,1","22000,1,9,N","075000,1,N,1","-0136,1","-0142,1","10209,1",,,,"0,1,03,1","0,1,03,1","00,1,+99999,9,99,9","00,99,1,00,1,00,1,99999,9,00,1,00,1",,,"99999,9,09942,1","7,1,001,1,+999,9",,"02,1","SYN066AAXX  23151 01442 41989 00103 11136 21142 39942 40209 57001 70200;",
"01442099999","2010-12-23T18:00:00","4","58.6666666","7.8","211.0","BYGLANDSFJORD, NO","FM-12","99999","V020","360,1,N,0030,1","22000,1,9,N","075000,1,N,1","-0145,1","-0147,1","10217,1",,,,"0,1,06,1","0,1,06,1","00,1,+99999,9,99,9","00,99,1,00,1,00,1,99999,9,00,1,00,1",,"999,M,-0112,1","99999,9,09948,1","2,1,007,1,+999,9",,"02,1","SYN076AAXX  23181 01442 31989 03603 11145 21147 39948 40217 52007 70200 333 11112;",
"01442099999","2010-12-24T03:00:00","4","58.6666666","7.8","211.0","BYGLANDSFJORD, NO","FM-12","99999","V020","340,1,N,0050,1","22000,1,9,N","075000,1,N,1","-0130,1","-0138,1","10221,1",,,,"0,1,03,1","0,1,03,1",,"01,99,1,00,1,00,1,99999,9,00,1,02,1",,,"99999,9,09953,1","6,1,005,1,+999,9",,"02,1","SYN072AAXX  24031 01442 41989 13405 11130 21138 39953 40221 56005 70200 80002;",
"01442099999","2010-12-24T06:00:00","4","58.6666666","7.8","211.0","BYGLANDSFJORD, NO","FM-12","99999","V020","330,1,N,0030,1","22000,1,9,N","075000,1,N,1","-0126,1","-0135,1","10219,1","24,0000,9,1",,"0013,9,1,999999,9,9","0,1,06,1","0,1,06,1","00,1,+99999,9,99,9","00,99,1,00,1,00,1,99999,9,00,1,00,1","24,9","999,N,-0153,1","99999,9,09952,1","5,1,002,1,+999,9",,"02,1","SYN088AAXX  24061 01442 31989 03303 11126 21135 39952 40219 55002 70200 333 21153 48013 70000;","Q01  00002PRCP24"
"01442099999","2010-12-24T09:00:00","4","58.6666666","7.8","211.0","BYGLANDSFJORD, NO","FM-12","99999","V020","020,1,N,0050,1","22000,1,9,N","075000,1,N,1","-0131,1","-0138,1","10226,1",,,,"0,1,03,1","0,1,03,1","00,1,+99999,9,99,9","00,99,1,00,1,00,1,99999,9,00,1,00,1",,,"99999,9,09957,1","0,1,006,1,+999,9",,"02,1","SYN066AAXX  24091 01442 41989 00205 11131 21138 39957 40226 50006 70200;",
"01442099999","2010-12-24T12:00:00","4","58.6666666","7.8","211.0","BYGLANDSFJORD, NO","FM-12","99999","V020","340,1,N,0050,1","22000,1,9,N","075000,1,N,1","-0121,1","-0141,1","10127,1",,,,"0,1,06,1","0,1,06,1","00,1,+99999,9,99,9","00,99,1,00,1,00,1,99999,9,00,1,00,1",,,"99999,9,09862,1","0,1,004,1,+999,9",,"02,1","SYN066AAXX  24121 01442 41989 03405 11121 21141 39862 40127 50004 70200;",
"01442099999","2010-12-24T15:00:00","4","58.6666666","7.8","211.0","BYGLANDSFJORD, NO","FM-12","99999","V020","340,1,N,0030,1","22000,1,9,N","075000,1,N,1","-0132,1","-0136,1","10120,1",,,,"0,1,03,1","0,1,03,1","00,1,+99999,9,99,9","00,99,1,00,1,00,1,99999,9,00,1,00,1",,,"99999,9,09855,1","5,1,007,1,+999,9",,"02,1","SYN066AAXX  24151 01442 41989 03403 11132 21136 39855 40120 55007 70200;",
"01442099999","2010-12-24T18:00:00","4","58.6666666","7.8","211.0","BYGLANDSFJORD, NO","FM-12","99999","V020","340,1,N,0050,1","22000,1,9,N","075000,1,N,1","-0144,1","-0147,1","99999,9",,,,"0,1,06,1","0,1,06,1","00,1,+99999,9,99,9","00,99,1,00,1,00,1,99999,9,00,1,00,1",,"999,M,-0120,1",,"2,1,004,1,+999,9",,"02,1","SYN076AAXX  24181 01442 31989 03405 11144 21147 39958 40227 52004 70200 333 11120;","Q01+099583APOSP "
"01442099999","2010-12-25T03:00:00","4","58.6666666","7.8","211.0","BYGLANDSFJORD, NO","FM-12","99999","V020","350,1,N,0030,1","22000,1,9,N","075000,1,N,1","-0169,1","-0172,1","10242,1",,,,"0,1,03,1","0,1,03,1","00,1,+99999,9,99,9","00,99,1,00,1,00,1,99999,9,00,1,00,1",,,"99999,9,09972,1","2,1,002,1,+999,9",,"02,1","SYN066AAXX  25031 01442 41989 03503 11169 21172 39972 40242 52002 70200;",
"01442099999","2010-12-25T06:00:00","4","58.6666666","7.8","211.0","BYGLANDSFJORD, NO","FM-12","99999","V020","340,1,N,0050,1","22000,1,9,N","075000,1,N,1","-0178,1","-0180,1","10242,1","24,0000,9,1",,"0013,9,1,999999,9,9","0,1,06,1","0,1,06,1","00,1,+99999,9,99,9","00,99,1,00,1,00,1,99999,9,00,1,00,1","24,9","999,N,-0178,1","99999,9,09972,1","5,1,000,1,+999,9",,"02,1","SYN088AAXX  25061 01442 31989 03405 11178 21180 39972 40242 55000 70200 333 21178 48013 70000;","Q01  00002PRCP24"
"01442099999","2010-12-25T09:00:00","4","58.6666666","7.8","211.0","BYGLANDSFJORD, NO","FM-12","99999","V020","340,1,N,0050,1","22000,1,9,N","075000,1,N,1","-0184,1","-0185,1","10254,1",,,,"0,1,03,1","0,1,03,1","00,1,+99999,9,99,9","00,99,1,00,1,00,1,99999,9,00,1,00,1",,,"99999,9,09983,1","3,1,011,1,+999,9",,"02,1","SYN066AAXX  25091 01442 41989 03405 11184 21185 39983 40254 53011 70200;",
"01442099999","2010-12-25T12:00:00","4","58.6666666","7.8","211.0","BYGLANDSFJORD, NO","FM-12","99999","V020","340,1,N,0070,1","22000,1,9,N","075000,1,N,1","-0161,1","-0176,1","10250,1",,,,"0,1,06,1","0,1,06,1","00,1,+99999,9,99,9","00,99,1,00,1,00,1,99999,9,00,1,00,1",,,"99999,9,09981,1","8,1,003,1,+999,9",,"02,1","SYN066AAXX  25121 01442 41989 03407 11161 21176 39981 40250 58003 70200;",
"01442099999","2010-12-25T15:00:00","4","58.6666666","7.8","211.0","BYGLANDSFJORD, NO","FM-12","99999","V020","330,1,N,0070,1","22000,1,9,N","075000,1,N,1","-0166,1","-0173,1","10245,1",,,,"0,1,03,1","0,1,03,1","00,1,+99999,9,99,9","00,99,1,00,1,00,1,99999,9,00,1,00,1",,,"99999,9,09976,1","5,1,005,1,+999,9",,"02,1","SYN066AAXX  25151 01442 41989 03307 11166 21173 39976 40245 55005 70200;",
"01442099999","2010-12-25T18:00:00","4","58.6666666","7.8","211.0","BYGLANDSFJORD, NO","FM-12","99999","V020","350,1,N,0050,1","22000,1,9,N","075000,1,N,1","-0177,1","-0178,1","10248,1",,,,"0,1,06,1","0,1,06,1","00,1,+99999,9,99,9","00,99,1,00,1,00,1,99999,9,00,1,00,1",,"999,M,-0162,1","99999,9,09977,1","2,1,002,1,+999,9",,"02,1","SYN076AAXX  25181 01442 31989 03505 11177 21178 39977 40248 52002 70200 333 11162;",
"01442099999","2010-12-26T03:00:00","4","58.6666666","7.8","211.0","BYGLANDSFJORD, NO","FM-12","99999","V020","330,1,N,0050,1","22000,1,9,N","075000,1,N,1","-0175,1","-0183,1","10234,1",,,,"0,1,03,1","0,1,03,1","00,1,+99999,9,99,9","00,99,1,00,1,00,1,99999,9,00,1,00,1",,,"99999,9,09965,1","7,1,008,1,+999,9",,"02,1","SYN066AAXX  26031 01442 41989 03305 11175 21183 39965 40234 57008 70200;",
"01442099999","2010-12-26T06:00:00","4","58.6666666","7.8","211.0","BYGLANDSFJORD, NO","FM-12","99999","V020","330,1,N,0050,1","22000,1,9,N","075000,1,N,1","-0176,1","-0184,1","10227,1","24,0000,9,1",,"0013,9,1,999999,9,9","0,1,06,1","0,1,06,1","00,1,+99999,9,99,9","00,99,1,00,1,00,1,99999,9,00,1,00,1","24,9","999,N,-0182,1","99999,9,09957,1","6,1,007,1,+999,9",,"02,1","SYN088AAXX  26061 01442 31989 03305 11176 21184 39957 40227 56007 70200 333 21182 48013 70000;","Q01  00002PRCP24"
"01442099999","2010-12-26T09:00:00","4","58.6666666","7.8","211.0","BYGLANDSFJORD, NO","FM-12","99999","V020","330,1,N,0070,1","22000,1,9,N","075000,1,N,1","-0167,1","-0177,1","10223,1",,,,"0,1,03,1","0,1,03,1","00,1,+99999,9,99,9","00,99,1,00,1,00,1,99999,9,00,1,00,1",,,"99999,9,09953,1","5,1,004,1,+999,9",,"02,1","SYN066AAXX  26091 01442 41989 03307 11167 21177 39953 40223 55004 70200;",
"01442099999","2010-12-26T12:00:00","4","58.6666666","7.8","211.0","BYGLANDSFJORD, NO","FM-12","99999","V020","340,1,N,0070,1","22000,1,9,N","075000,1,N,1","-0148,1","-0169,1","10216,1",,,,"0,1,06,1","0,1,06,1","00,1,+99999,9,99,9","00,99,1,00,1,00,1,99999,9,00,1,00,1",,,"99999,9,09947,1","7,1,006,1,+999,9",,"02,1","SYN066AAXX  26121 01442 41989 03407 11148 21169 39947 40216 57006 70200;",
"01442099999","2010-12-26T15:00:00","4","58.6666666","7.8","211.0","BYGLANDSFJORD, NO","FM-12","99999","V020","010,1,N,0050,1","22000,1,9,N","075000,1,N,1","-0148,1","-0159,1","10207,1",,,,"0,1,03,1","0,1,03,1","00,1,+99999,9,99,9","00,99,1,00,1,00,1,99999,9,00,1,00,1",,,"99999,9,09938,1","5,1,009,1,+999,9",,"02,1","SYN066AAXX  26151 01442 41989 00105 11148 21159 39938 40207 55009 70200;",
"01442099999","2010-12-26T18:00:00","4","58.6666666","7.8","211.0","BYGLANDSFJORD, NO","FM-12","99999","V020","350,1,N,0050,1","22000,1,9,N","075000,1,N,1","-0149,1","-0155,1","10203,1",,,,"0,1,06,1","0,1,06,1","00,1,+99999,9,99,9","00,99,1,00,1,00,1,99999,9,00,1,00,1",,"999,M,-0143,1","99999,9,09935,1","7,1,004,1,+999,9",,"02,1","SYN076AAXX  26181 01442 31989 03505 11149 21155 39935 40203 57004 70200 333 11143;",
"01442099999","2010-12-27T03:00:00","4","58.6666666","7.8","211.0","BYGLANDSFJORD, NO","FM-12","99999","V020","340,1,N,0030,1","22000,1,9,N","075000,1,N,1","-0162,1","-0162,1","10199,1",,,,"0,1,03,1","0,1,03,1","00,1,+99999,9,99,9","00,99,1,00,1,00,1,99999,9,00,1,00,1",,,"99999,9,09931,1","5,1,001,1,+999,9",,"02,1","SYN066AAXX  27031 01442 41989 03403 11162 21162 39931 40199 55001 70200;",
"01442099999","2010-12-27T06:00:00","4","58.6666666","7.8","211.0","BYGLANDSFJORD, NO","FM-12","99999","V020","340,1,N,0030,1","22000,1,9,N","075000,1,N,1","-0161,1","-0161,1","10199,1","24,0000,9,1",,"0012,9,1,999999,9,9","0,1,06,1","0,1,06,1","00,1,+99999,9,99,9","00,99,1,00,1,00,1,99999,9,00,1,00,1","24,9","999,N,-0166,1","99999,9,09931,1","4,1,000,1,+999,9",,"02,1","SYN088AAXX  27061 01442 31989 03403 11161 21161 39931 40199 54000 70200 333 21166 48012 70000;","Q01  00002PRCP24"
"01442099999","2010-12-27T09:00:00","4","58.6666666","7.8","211.0","BYGLANDSFJORD, NO","FM-12","99999","V020","340,1,N,0050,1","22000,1,9,N","075000,1,N,1","-0159,1","-0159,1","10210,1",,,,"0,1,03,1","0,1,03,1","00,1,+99999,9,99,9","00,99,1,00,1,00,1,99999,9,00,1,00,1",,,"99999,9,09942,1","3,1,011,1,+999,9",,"02,1","SYN066AAXX  27091 01442 41989 03405 11159 21159 39942 40210 53011 70200;",
"01442099999","2010-12-27T12:00:00","4","58.6666666","7.8","211.0","BYGLANDSFJORD, NO","FM-12","99999","V020","350,1,N,0050,1","22000,1,9,N","075000,1,N,1","-0133,1","-0147,1","10211,1",,,,"0,1,06,1","0,1,06,1","00,1,+99999,9,99,9","00,99,1,00,1,00,1,99999,9,00,1,00,1",,,"99999,9,09943,1","2,1,002,1,+999,9",,"02,1","SYN066AAXX  27121 01442 41989 03505 11133 21147 39943 40211 52002 70200;",
"01442099999","2010-12-27T15:00:00","4","58.6666666","7.8","211.0","BYGLANDSFJORD, NO","FM-12","99999","V020","340,1,N,0030,1","22000,1,9,N","075000,1,N,1","-0139,1","-0143,1","10218,1",,,,"0,1,03,1","0,1,03,1","00,1,+99999,9,99,9","00,99,1,00,1,00,1,99999,9,00,1,00,1",,,"99999,9,09950,1","2,1,006,1,+999,9",,"02,1","SYN066AAXX  27151 01442 41989 03403 11139 21143 39950 40218 52006 70200;",
"01442099999","2010-12-27T18:00:00","4","58.6666666","7.8","211.0","BYGLANDSFJORD, NO","FM-12","99999","V020","340,1,N,0030,1","00750,1,9,N","075000,1,N,1","-0132,1","-0136,1","10237,1",,,,"1,1,06,1","0,1,06,1",,"08,99,1,08,1,05,1,00800,1,99,9,99,9",,"999,M,-0132,1","99999,9,09968,1","2,1,019,1,+999,9",,"03,1","SYN082AAXX  27181 01442 31589 83403 11132 21136 39968 40237 52019 70310 885// 333 11132;",
"01442099999","2010-12-28T03:00:00","4","58.6666666","7.8","211.0","BYGLANDSFJORD, NO","FM-12","99999","V020","330,1,N,0030,1","00750,1,9,N","010000,1,N,1","-0112,1","-0115,1","10265,1",,,,"7,1,03,1","2,1,03,1",,"08,99,1,08,1,05,1,00800,1,99,9,99,9",,,"99999,9,09997,1","2,1,005,1,+999,9",,"70,1","SYN072AAXX  28031 01442 41560 83303 11112 21115 39997 40265 52005 77072 885//;",
"01442099999","2010-12-28T06:00:00","4","58.6666666","7.8","211.0","BYGLANDSFJORD, NO","FM-12","99999","V020","340,1,N,0050,1","00750,1,9,N","010000,1,N,1","-0105,1","-0107,1","10273,1","12,0000,2,1","24,0003,9,1","0014,9,1,999999,9,9","7,1,06,1","2,1,06,1",,"08,99,1,08,1,05,1,00800,1,99,9,99,9","24,9","999,N,-0132,1","99999,9,10005,1","2,1,008,1,+999,9",,"70,1","SYN100AAXX  28061 01442 11560 83405 11105 21107 30005 40273 52008 69922 77072 885// 333 21132 48014 70002;",
"01442099999","2010-12-28T09:00:00","4","58.6666666","7.8","211.0","BYGLANDSFJORD, NO","FM-12","99999","V020","340,1,N,0050,1","00750,1,9,N","010000,1,N,1","-0099,1","-0100,1","10284,1",,,,"7,1,03,1","7,1,03,1",,"08,99,1,08,1,05,1,00800,1,99,9,99,9",,,"99999,9,10016,1","3,1,011,1,+999,9",,"71,1","SYN072AAXX  28091 01442 41560 83405 11099 21100 30016 40284 53011 77177 885//;",
"01442099999","2010-12-28T12:00:00","4","58.6666666","7.8","211.0","BYGLANDSFJORD, NO","FM-12","99999","V020","330,1,N,0050,1","00750,1,9,N","010000,1,N,1","-0089,1","-0091,1","10287,1",,,,"7,1,06,1","7,1,06,1",,"08,99,1,08,1,05,1,00800,1,99,9,99,9",,,"99999,9,10018,1","0,1,003,1,+999,9",,"71,1","SYN072AAXX  28121 01442 41560 83305 11089 21091 30018 40287 50003 77177 885//;",
"01442099999","2010-12-28T15:00:00","4","58.6666666","7.8","211.0","BYGLANDSFJORD, NO","FM-12","99999","V020","330,1,N,0050,1","00750,1,9,N","025000,1,N,1","-0082,1","-0089,1","10286,1",,,,"7,1,03,1","7,1,03,1",,"08,99,1,08,1,05,1,00800,1,99,9,99,9",,,"99999,9,10017,1","6,1,001,1,+999,9",,"71,1","SYN072AAXX  28151 01442 41575 83305 11082 21089 30017 40286 56001 77177 885//;",
"01442099999","2010-12-28T18:00:00","4","58.6666666","7.8","211.0","BYGLANDSFJORD, NO","FM-12","99999","V020","330,1,N,0050,1","00750,1,9,N","030000,1,N,1","-0083,1","-0088,1","10291,1","12,0003,9,1",,,"7,1,06,1","7,1,06,1",,"08,99,1,08,1,05,1,00800,1,99,9,99,9",,"999,M,-0078,1","99999,9,10022,1","2,1,005,1,+999,9",,"71,1","SYN088AAXX  28181 01442 11580 83305 11083 21088 30022 40291 52005 69932 77177 885// 333 11078;",
"01442099999","2010-12-29T03:00:00","4","58.6666666","7.8","211.0","BYGLANDSFJORD, NO","FM-12","99999","V020","340,1,N,0030,1","00750,1,9,N","030000,1,N,1","-0085,1","-0088,1","10291,1",,,,"7,1,03,1","2,1,03,1",,"08,99,1,08,1,05,1,00800,1,99,9,99,9",,,"99999,9,10022,1","7,1,005,1,+999,9",,"70,1","SYN072AAXX  29031 01442 41580 83403 11085 21088 30022 40291 57005 77072 885//;",
"01442099999","2010-12-29T06:00:00","4","58.6666666","7.8","211.0","BYGLANDSFJORD, NO","FM-12","99999","V020","340,1,N,0030,1","00750,1,9,N","030000,1,N,1","-0087,1","-0092,1","10291,1","12,0000,2,1","24,0005,9,1","0015,9,1,999999,9,9","7,1,06,1","2,1,06,1",,"08,99,1,08,1,05,1,00800,1,99,9,99,9","24,9","999,N,-0087,1","99999,9,10022,1","4,1,000,1,+999,9",,"70,1","SYN100AAXX  29061 01442 11580 83403 11087 21092 30022 40291 54000 69922 77072 885// 333 21087 48015 70005;",
"01442099999","2010-12-29T09:00:00","4","58.6666666","7.8","211.0","BYGLANDSFJORD, NO","FM-12","99999","V020","340,1,N,0030,1","00750,1,9,N","025000,1,N,1","-0090,1","-0095,1","10295,1",,,,"7,1,03,1","2,1,03,1",,"08,99,1,08,1,05,1,00800,1,99,9,99,9",,,"99999,9,10027,1","3,1,004,1,+999,9",,"70,1","SYN072AAXX  29091 01442 41575 83403 11090 21095 30027 40295 53004 77072 885//;",
"01442099999","2010-12-29T12:00:00","4","58.6666666","7.8","211.0","BYGLANDSFJORD, NO","FM-12","99999","V020","340,1,N,0050,1","00750,1,9,N","030000,1,N,1","-0091,1","-0093,1","10292,1",,,,"7,1,06,1","2,1,06,1",,"08,99,1,08,1,05,1,00800,1,99,9,99,9",,,"99999,9,10023,1","8,1,003,1,+999,9",,"70,1","SYN072AAXX  29121 01442 41580 83405 11091 21093 30023 40292 58003 77072 885//;",
"01442099999","2010-12-29T15:00:00","4","58.6666666","7.8","211.0","BYGLANDSFJORD, NO","FM-12","99999","V020","330,1,N,0030,1","00750,1,9,N","070000,1,N,1","-0092,1","-0095,1","10281,1",,,,"7,1,03,1","2,1,03,1",,"08,99,1,08,1,05,1,00800,1,99,9,99,9",,,"99999,9,10012,1","7,1,011,1,+999,9",,"22,1","SYN072AAXX  29151 01442 41588 83303 11092 21095 30012 40281 57011 72272 885//;",
"01442099999","2010-12-29T18:00:00","4","58.6666666","7.8","211.0","BYGLANDSFJORD, NO","FM-12","99999","V020","330,1,N,0050,1","00750,1,9,N","070000,1,N,1","-0095,1","-0100,1","10279,1","12,0000,2,1",,,"7,1,06,1","2,1,06,1",,"08,99,1,08,1,05,1,00800,1,99,9,99,9",,"999,M,-0086,1","99999,9,10011,1","5,1,002,1,+999,9",,"02,1","SYN088AAXX  29181 01442 11588 83305 11095 21100 30011 40279 55002 69922 70272 885// 333 11086;",
"01442099999","2010-12-30T03:00:00","4","58.6666666","7.8","211.0","BYGLANDSFJORD, NO","FM-12","99999","V020","340,1,N,0050,1","22000,1,9,N","075000,1,N,1","-0104,1","-0106,1","10233,1",,,,"0,1,03,1","0,1,03,1",,"01,99,1,01,1,01,1,00800,1,00,1,00,1",,,"99999,9,09966,1","6,1,021,1,+999,9",,"02,1","SYN072AAXX  30031 01442 41589 13405 11104 21106 39966 40233 56021 70200 81100;",
"01442099999","2010-12-30T06:00:00","4","58.6666666","7.8","211.0","BYGLANDSFJORD, NO","FM-12","99999","V020","350,1,N,0030,1","22000,1,9,N","075000,1,N,1","-0120,1","-0120,1","10209,1","24,0003,9,1",,"0015,9,1,999999,9,9","0,1,06,1","0,1,06,1",,"02,99,1,00,1,00,1,99999,9,00,1,01,1","24,9","999,N,-0123,1","99999,9,09942,1","8,1,024,1,+999,9",,"02,1","SYN094AAXX  30061 01442 31989 23503 11120 21120 39942 40209 58024 70200 80001 333 21123 48015 70002;",
"01442099999","2010-12-30T09:00:00","4","58.6666666","7.8","211.0","BYGLANDSFJORD, NO","FM-12","99999","V020","340,1,N,0030,1","02100,1,9,N","075000,1,N,1","-0100,1","-0101,1","10195,1",,,,"1,1,03,1","1,1,03,1",,"08,99,1,08,1,00,1,02250,1,07,1,99,9",,,"99999,9,09928,1","6,1,013,1,+999,9",,"03,1","SYN072AAXX  30091 01442 41889 83403 11100 21101 39928 40195 56013 70311 8807/;",
"01442099999","2010-12-30T12:00:00","4","58.6666666","7.8","211.0","BYGLANDSFJORD, NO","FM-12","99999","V020","340,1,N,0030,1","03000,1,9,N","075000,1,N,1","-0084,1","-0089,1","10172,1",,,,"2,1,06,1","1,1,06,1",,"08,99,1,01,1,01,1,01250,1,07,1,99,9",,,"99999,9,09907,1","8,1,022,1,+999,9",,"02,1","SYN072AAXX  30121 01442 41689 83403 11084 21089 39907 40172 58022 70221 8117/;",
"01442099999","2010-12-30T15:00:00","4","58.6666666","7.8","211.0","BYGLANDSFJORD, NO","FM-12","99999","V020","150,1,N,0030,1","03000,1,9,N","075000,1,N,1","-0065,1","-0070,1","10141,1",,,,"2,1,03,1","2,1,03,1",,"08,99,1,01,1,01,1,01250,1,07,1,99,9",,,"99999,9,09877,1","6,1,029,1,+999,9",,"02,1","SYN072AAXX  30151 01442 41689 81503 11065 21070 39877 40141 56029 70222 8117/;",
"01442099999","2010-12-30T18:00:00","4","58.6666666","7.8","211.0","BYGLANDSFJORD, NO","FM-12","99999","V020","999,9,C,0000,1","03000,1,9,N","075000,1,N,1","-0059,1","-0063,1","10142,1",,,,"2,1,06,1","2,1,06,1",,"08,99,1,01,1,01,1,01250,1,07,1,99,9",,"999,M,-0055,1","99999,9,09878,1","3,1,001,1,+999,9",,"02,1","SYN082AAXX  30181 01442 31689 80000 11059 21063 39878 40142 53001 70222 8117/ 333 11055;",
"01442099999","2010-12-31T03:00:00","4","58.6666666","7.8","211.0","BYGLANDSFJORD, NO","FM-12","99999","V020","320,1,N,0050,1","22000,1,9,N","075000,1,N,1","-0004,1","-0055,1","10161,1",,,,"0,1,03,1","0,1,03,1",,"01,99,1,00,1,00,1,99999,9,00,1,01,1",,,"99999,9,09898,1","3,1,005,1,+999,9",,"02,1","SYN072AAXX  31031 01442 41989 13205 11004 21055 39898 40161 53005 70200 80001;",
"01442099999","2010-12-31T06:00:00","4","58.6666666","7.8","211.0","BYGLANDSFJORD, NO","FM-12","99999","V020","020,1,N,0050,1","02100,1,9,N","075000,1,N,1","-0023,1","-0055,1","10167,1","24,0000,9,1",,"0013,9,1,999999,9,9","1,1,06,1","0,1,06,1",,"08,99,1,08,1,00,1,02250,1,07,1,99,9","24,9","999,N,-0059,1","99999,9,09903,1","5,1,005,1,+999,9",,"03,1","SYN094AAXX  31061 01442 31889 80205 11023 21055 39903 40167 55005 70310 8807/ 333 21059 48013 70000;","Q01  00002PRCP24"
"01442099999","2010-12-31T09:00:00","4","58.6666666","7.8","211.0","BYGLANDSFJORD, NO","FM-12","99999","V020","030,1,N,0070,1","02100,1,9,N","075000,1,N,1","+0012,1","-0042,1","10166,1",,,,"2,1,03,1","2,1,03,1",,"07,99,1,07,1,00,1,02250,1,07,1,01,1",,,"99999,9,09903,1","4,1,000,1,+999,9",,"01,1","SYN072AAXX  31091 01442 41889 70307 10012 21042 39903 40166 54000 70122 87071;",
"01442099999","2010-12-31T12:00:00","4","58.6666666","7.8","211.0","BYGLANDSFJORD, NO","FM-12","99999","V020","150,1,N,0030,1","07500,1,9,N","075000,1,N,1","+0009,1","-0036,1","10123,1",,,,"2,1,06,1","1,1,06,1",,"05,99,1,01,1,01,1,01250,1,03,1,02,1",,,"99999,9,09862,1","8,1,042,1,+999,9",,"03,1","SYN072AAXX  31121 01442 41689 51503 10009 21036 39862 40123 58042 70321 81132;",
"01442099999","2010-12-31T15:00:00","4","58.6666666","7.8","211.0","BYGLANDSFJORD, NO","FM-12","99999","V020","160,1,N,0030,1","03000,1,9,N","075000,1,N,1","+0030,1","+0004,1","10064,1",,,,"2,1,03,1","2,1,03,1",,"07,99,1,01,1,01,1,01250,1,03,1,02,1",,,"99999,9,09806,1","8,1,056,1,+999,9",,"03,1","SYN072AAXX  31151 01442 41689 71603 10030 20004 39806 40064 58056 70322 81132;",
"01442099999","2010-12-31T18:00:00","4","58.6666666","7.8","211.0","BYGLANDSFJORD, NO","FM-12","99999","V020","160,1,N,0050,1","22000,1,9,N","075000,1,N,1","+0066,1","+0005,1","99999,9",,,,"2,1,06,1","1,1,06,1",,"03,99,1,01,1,02,1,01250,1,03,1,02,1",,"999,M,+0066,1",,"8,1,062,1,+999,9",,"01,1","SYN082AAXX  31181 01442 31689 31605 10066 20005 39743 49997 58062 70121 81232 333 10066;","Q01+097433APOSP "
