"STATION","DATE","SOURCE","LATITUDE","LONGITUDE","ELEVATION","NAME","REPORT_TYPE","CALL_SIGN","QUALITY_CONTROL","WND","CIG","VIS","TMP","DEW","SLP","GA1","GA2","GA3","GF1","KA1","MA1","MW1","MW2","MW3","OC1","REM","EQD"
"01470399999","2010-01-03T09:50:00","4","59.565683","9.212222","19.2","NOTODDEN, NO","FM-15","ENNO ","V020","999,9,C,0000,1","22000,1,9,N","011265,1,N,1","-0170,1","-0180,1","99999,9","02,5,+00300,1,99,9",,,"02,99,1,99,9,99,9,99999,9,99,9,99,9",,"10210,1,99999,9",,,,,"MET053METAR ENNO 030950Z 00000KT 9999 FEW010 M17/M18 Q1021;",
"01470399999","2010-01-03T10:50:00","4","59.565683","9.212222","19.2","NOTODDEN, NO","FM-15","ENNO ","V020","300,1,N,0010,1","99999,9,9,Y","009900,1,N,1","-0160,1","-0180,1","99999,9",,,,,,"10200,1,99999,9",,,,,"MET047METAR ENNO 031050Z 30002KT CAVOK M16/M18 Q1020;",
"01470399999","2010-01-03T11:50:00","4","59.565683","9.212222","19.2","NOTODDEN, NO","FM-15","ENNO ","V020","290,1,N,0010,1","99999,9,9,Y","009900,1,N,1","-0150,1","-0170,1","99999,9",,,,,,"10180,1,99999,9",,,,,"MET047METAR ENNO 031150Z 29002KT CAVOK M15/M17 Q1018;",
"01470399999","2010-01-03T12:50:00","4","59.565683","9.212222","19.2","NOTODDEN, NO","FM-15","ENNO ","V020","310,1,N,0005,1","99999,9,9,Y","009900,1,N,1","-0140,1","-0160,1","99999,9",,,,,,"10169,1,99999,9",,,,,"MET047METAR ENNO 031250Z 31001KT CAVOK M14/M16 Q1017;",
"01470399999","2010-01-03T16:50:00","4","59.565683","9.212222","19.2","NOTODDEN, NO","FM-15","ENNO ","V020","999,9,V,0010,1","99999,9,9,Y","009900,1,N,1","-0160,1","-0180,1","99999,9",,,,,,"10159,1,99999,9",,,,,"MET047METAR ENNO 031650Z VRB02KT CAVOK M16/M18 Q1016;",
"01470399999","2010-01-03T17:50:00","4","59.565683","9.212222","19.2","NOTODDEN, NO","FM-15","ENNO ","V020","999,9,C,0000,1","99999,9,9,Y","009900,1,N,1","-0160,1","-0180,1","99999,9",,,,,,"10149,1,99999,9",,,,,"MET047METAR ENNO 031750Z 00000KT CAVOK M16/M18 Q1015;",
"01470399999","2010-01-03T18:50:00","4","59.565683","9.212222","19.2","NOTODDEN, NO","FM-15","ENNO ","V020","999,9,V,0005,1","99999,9,9,Y","009900,1,N,1","-0170,1","-0180,1","99999,9",,,,,,"10149,1,99999,9",,,,,"MET047METAR ENNO 031850Z VRB01KT CAVOK M17/M18 Q1015;",
"01470399999","2010-01-04T05:50:00","4","59.565683","9.212222","19.2","NOTODDEN, NO","FM-15","ENNO ","V020","999,9,C,0000,1","99999,9,9,Y","009900,1,N,1","-0160,1","-0180,1","99999,9",,,,,,"10091,1,99999,9",,,,,"MET047METAR ENNO 040550Z 00000KT CAVOK M16/M18 Q1009;",
"01470399999","2010-01-04T07:50:00","4","59.565683","9.212222","19.2","NOTODDEN, NO","FM-15","ENNO ","V020","999,9,V,0005,1","99999,9,9,Y","009900,1,N,1","-0150,1","-0170,1","99999,9",,,,,,"10071,1,99999,9",,,,,"MET047METAR ENNO 040750Z VRB01KT CAVOK M15/M17 Q1007;",
"01470399999","2010-01-04T08:50:00","4","59.565683","9.212222","19.2","NOTODDEN, NO","FM-15","ENNO ","V020","999,9,V,0010,1","22000,1,9,N","011265,1,N,1","-0150,1","-0170,1","99999,9","02,5,+00090,1,99,9",,,"02,99,1,99,9,99,9,99999,9,99,9,99,9",,"10071,1,99999,9",,,,,"MET053METAR ENNO 040850Z VRB02KT 9999 FEW003 M15/M17 Q1007;",
"01470399999","2010-01-04T09:50:00","4","59.565683","9.212222","19.2","NOTODDEN, NO","FM-15","ENNO ","V020","999,9,V,0010,1","22000,1,9,N","011265,1,N,1","-0150,1","-0160,1","99999,9","02,5,+00240,1,99,9",,,"02,99,1,99,9,99,9,99999,9,99,9,99,9",,"10061,1,99999,9",,,,,"MET053METAR ENNO 040950Z VRB02KT 9999 FEW008 M15/M16 Q1006;",
"01470399999","2010-01-04T10:50:00","4","59.565683","9.212222","19.2","NOTODDEN, NO","FM-15","ENNO ","V020","999,9,V,0010,1","99999,9,9,Y","009900,1,N,1","-0140,1","-0150,1","99999,9",,,,,,"10061,1,99999,9",,,,,"MET047METAR ENNO 041050Z VRB02KT CAVOK M14/M15 Q1006;",
"01470399999","2010-01-04T11:50:00","4","59.565683","9.212222","19.2","NOTODDEN, NO","FM-15","ENNO ","V020","999,9,V,0010,1","99999,9,9,Y","009900,1,N,1","-0130,1","-0150,1","99999,9",,,,,,"10051,1,99999,9",,,,,"MET047METAR ENNO 041150Z VRB02KT CAVOK M13/M15 Q1005;",
"01470399999","2010-01-04T12:50:00","4","59.565683","9.212222","19.2","NOTODDEN, NO","FM-15","ENNO ","V020","999,9,V,0010,1","99999,9,9,Y","009900,1,N,1","-0140,1","-0160,1","99999,9",,,,,,"10051,1,99999,9",,,,,"MET047METAR ENNO 041250Z VRB02KT CAVOK M14/M16 Q1005;",
"01470399999","2010-01-04T13:50:00","4","59.565683","9.212222","19.2","NOTODDEN, NO","FM-15","ENNO ","V020","999,9,V,0010,1","99999,9,9,Y","009900,1,N,1","-0140,1","-0160,1","99999,9",,,,,,"10051,1,99999,9",,,,,"MET047METAR ENNO 041350Z VRB02KT CAVOK M14/M16 Q1005;",
"01470399999","2010-01-04T14:50:00","4","59.565683","9.212222","19.2","NOTODDEN, NO","FM-15","ENNO ","V020","999,9,V,0010,1","99999,9,9,Y","009900,1,N,1","-0160,1","-0170,1","99999,9",,,,,,"10051,1,99999,9",,,,,"MET047METAR ENNO 041450Z VRB02KT CAVOK M16/M17 Q1005;",
"01470399999","2010-01-04T15:50:00","4","59.565683","9.212222","19.2","NOTODDEN, NO","FM-15","ENNO ","V020","999,9,V,0010,1","99999,9,9,Y","009900,1,N,1","-0160,1","-0170,1","99999,9",,,,,,"10051,1,99999,9",,,,,"MET047METAR ENNO 041550Z VRB02KT CAVOK M16/M17 Q1005;",
"01470399999","2010-01-05T05:50:00","4","59.565683","9.212222","19.2","NOTODDEN, NO","FM-15","ENNO ","V020","999,9,V,0010,1","22000,1,9,N","011265,1,N,1","-0190,1","-0210,1","99999,9","02,5,+01950,5,99,9",,,"02,99,1,99,9,99,9,99999,9,99,9,99,9",,"10102,1,99999,9",,,,,"MET053METAR ENNO 050550Z VRB02KT 9999 FEW065 M19/M21 Q1010;",
"01470399999","2010-01-05T06:50:00","4","59.565683","9.212222","19.2","NOTODDEN, NO","FM-15","ENNO ","V020","999,9,V,0010,1","22000,1,9,N","011265,1,N,1","-0180,1","-0200,1","99999,9","02,5,+01950,5,99,9",,,"02,99,1,99,9,99,9,99999,9,99,9,99,9",,"10102,1,99999,9",,,,,"MET053METAR ENNO 050650Z VRB02KT 9999 FEW065 M18/M20 Q1010;",
"01470399999","2010-01-05T07:50:00","4","59.565683","9.212222","19.2","NOTODDEN, NO","FM-15","ENNO ","V020","999,9,V,0010,1","02460,5,C,N","011265,1,N,1","-0180,1","-0200,1","99999,9","02,5,+01950,5,99,9","07,5,+02460,5,99,9",,"07,99,1,99,9,99,9,99999,9,99,9,99,9",,"10102,1,99999,9",,,,,"MET060METAR ENNO 050750Z VRB02KT 9999 FEW065 BKN082 M18/M20 Q1010;",
"01470399999","2010-01-05T09:50:00","4","59.565683","9.212222","19.2","NOTODDEN, NO","FM-15","ENNO ","V020","999,9,V,0010,1","01200,1,C,N","011265,1,N,1","-0150,1","-0170,1","99999,9","02,5,+00900,1,99,9","07,5,+01200,1,99,9",,"07,99,1,99,9,99,9,99999,9,99,9,99,9",,"10108,1,99999,9","16,1",,,,"MET065METAR ENNO 050950Z VRB02KT 9999 VCSH FEW030 BKN040 M15/M17 Q1011;",
"01470399999","2010-01-05T10:50:00","4","59.565683","9.212222","19.2","NOTODDEN, NO","FM-15","ENNO ","V020","999,9,V,0010,1","01200,1,C,N","011265,1,N,1","-0140,1","-0150,1","99999,9","02,5,+00900,1,99,9","07,5,+01200,1,99,9",,"07,99,1,99,9,99,9,99999,9,99,9,99,9",,"10108,1,99999,9","71,1",,,,"MET071METAR ENNO 051050Z VRB02KT 9999 5000NW -SN FEW030 BKN040 M14/M15 Q1011;",
"01470399999","2010-01-05T12:50:00","4","59.565683","9.212222","19.2","NOTODDEN, NO","FM-15","ENNO ","V020","999,9,V,0005,1","01050,1,C,N","009000,1,N,1","-0120,1","-0130,1","99999,9","02,5,+00750,1,99,9","07,5,+01050,1,99,9",,"07,99,1,99,9,99,9,99999,9,99,9,99,9",,"10129,1,99999,9","71,1",,,,"MET071METAR ENNO 051250Z VRB01KT 9000 4000NW -SN FEW025 BKN035 M12/M13 Q1013;",
"01470399999","2010-01-05T13:50:00","4","59.565683","9.212222","19.2","NOTODDEN, NO","FM-15","ENNO ","V020","999,9,V,0005,1","01050,1,C,N","009000,1,N,1","-0120,1","-0130,1","99999,9","02,5,+00750,1,99,9","07,5,+01050,1,99,9",,"07,99,1,99,9,99,9,99999,9,99,9,99,9",,"10129,1,99999,9","71,1",,,,"MET071METAR ENNO 051350Z VRB01KT 9000 4000NW -SN FEW025 BKN035 M12/M13 Q1013;",
"01470399999","2010-01-05T14:50:00","4","59.565683","9.212222","19.2","NOTODDEN, NO","FM-15","ENNO ","V020","999,9,V,0005,1","01050,1,C,N","009000,1,N,1","-0120,1","-0130,1","99999,9","02,5,+00600,1,99,9","07,5,+01050,1,99,9",,"07,99,1,99,9,99,9,99999,9,99,9,99,9",,"10129,1,99999,9","71,1",,,,"MET064METAR ENNO 051450Z VRB01KT 9000 -SN FEW020 BKN035 M12/M13 Q1013;",
"01470399999","2010-01-05T15:50:00","4","59.565683","9.212222","19.2","NOTODDEN, NO","FM-15","ENNO ","V020","999,9,C,0000,1","99999,9,C,N","011265,1,N,1","-0140,1","-0160,1","99999,9","02,5,+00600,1,99,9","04,5,+01050,1,99,9",,"04,99,1,99,9,99,9,99999,9,99,9,99,9",,"10139,1,99999,9",,,,,"MET060METAR ENNO 051550Z 00000KT 9999 FEW020 SCT035 M14/M16 Q1014;","P01 010503SCOCIG"
"01470399999","2010-01-06T05:50:00","4","59.565683","9.212222","19.2","NOTODDEN, NO","FM-15","ENNO ","V020","999,9,C,0000,1","22000,1,9,N","011265,1,N,1","-0250,1","-0280,1","99999,9","02,5,+00090,1,99,9",,,"02,99,1,99,9,99,9,99999,9,99,9,99,9",,"10159,1,99999,9",,,,,"MET053METAR ENNO 060550Z 00000KT 9999 FEW003 M25/M28 Q1016;",
"01470399999","2010-01-06T06:50:00","4","59.565683","9.212222","19.2","NOTODDEN, NO","FM-15","ENNO ","V020","280,1,N,0010,1","99999,9,9,Y","009900,1,N,1","-0250,1","-0270,1","99999,9",,,,,,"10159,1,99999,9",,,,,"MET047METAR ENNO 060650Z 28002KT CAVOK M25/M27 Q1016;",
"01470399999","2010-01-06T07:50:00","4","59.565683","9.212222","19.2","NOTODDEN, NO","FM-15","ENNO ","V020","999,9,C,0000,1","99999,9,9,Y","009900,1,N,1","-0260,1","-0280,1","99999,9",,,,,,"10169,1,99999,9",,,,,"MET047METAR ENNO 060750Z 00000KT CAVOK M26/M28 Q1017;",
"01470399999","2010-01-06T08:50:00","4","59.565683","9.212222","19.2","NOTODDEN, NO","FM-15","ENNO ","V020","999,9,C,0000,1","99999,9,9,Y","009900,1,N,1","-0260,1","-0290,1","99999,9",,,,,,"10169,1,99999,9",,,,,"MET047METAR ENNO 060850Z 00000KT CAVOK M26/M29 Q1017;",
"01470399999","2010-01-06T09:50:00","4","59.565683","9.212222","19.2","NOTODDEN, NO","FM-15","ENNO ","V020","999,9,V,0005,1","99999,9,9,Y","009900,1,N,1","-0260,1","-0280,1","99999,9",,,,,,"10169,1,99999,9",,,,,"MET047METAR ENNO 060950Z VRB01KT CAVOK M26/M28 Q1017;",
"01470399999","2010-01-06T10:50:00","4","59.565683","9.212222","19.2","NOTODDEN, NO","FM-15","ENNO ","V020","999,9,C,0000,1","99999,9,9,Y","009900,1,N,1","-0230,1","-0260,1","99999,9",,,,,,"10169,1,99999,9",,,,,"MET047METAR ENNO 061050Z 00000KT CAVOK M23/M26 Q1017;",
"01470399999","2010-01-06T11:50:00","4","59.565683","9.212222","19.2","NOTODDEN, NO","FM-15","ENNO ","V020","999,9,C,0000,1","99999,9,9,Y","009900,1,N,1","-0210,1","-0230,1","99999,9",,,,,,"10169,1,99999,9",,,,,"MET047METAR ENNO 061150Z 00000KT CAVOK M21/M23 Q1017;",
"01470399999","2010-01-06T12:50:00","4","59.565683","9.212222","19.2","NOTODDEN, NO","FM-15","ENNO ","V020","999,9,C,0000,1","99999,9,9,Y","009900,1,N,1","-0210,1","-0230,1","99999,9",,,,,,"10159,1,99999,9",,,,,"MET047METAR ENNO 061250Z 00000KT CAVOK M21/M23 Q1016;",
"01470399999","2010-01-06T13:50:00","4","59.565683","9.212222","19.2","NOTODDEN, NO","FM-15","ENNO ","V020","999,9,C,0000,1","99999,9,9,Y","009900,1,N,1","-0230,1","-0250,1","99999,9",,,,,,"10169,1,99999,9",,,,,"MET047METAR ENNO 061350Z 00000KT CAVOK M23/M25 Q1017;",
"01470399999","2010-01-06T14:50:00","4","59.565683","9.212222","19.2","NOTODDEN, NO","FM-15","ENNO ","V020","999,9,C,0000,1","99999,9,9,Y","009900,1,N,1","-0230,1","-0250,1","99999,9",,,,,,"10169,1,99999,9",,,,,"MET047METAR ENNO 061450Z 00000KT CAVOK M23/M25 Q1017;",
"01470399999","2010-01-06T15:50:00","4","59.565683","9.212222","19.2","NOTODDEN, NO","FM-15","ENNO ","V020","999,9,C,0000,1","99999,9,9,Y","009900,1,N,1","-0240,1","-0270,1","99999,9",,,,,,"10169,1,99999,9",,,,,"MET047METAR ENNO 061550Z 00000KT CAVOK M24/M27 Q1017;",
"01470399999","2010-01-06T16:50:00","4","59.565683","9.212222","19.2","NOTODDEN, NO","FM-15","ENNO ","V020","999,9,C,0000,1","99999,9,9,Y","009900,1,N,1","-0240,1","-0270,1","99999,9",,,,,,"10169,1,99999,9",,,,,"MET047METAR ENNO 061650Z 00000KT CAVOK M24/M27 Q1017;",
"01470399999","2010-01-07T05:50:00","4","59.565683","9.212222","19.2","NOTODDEN, NO","FM-15","ENNO ","V020","999,9,C,0000,1","99999,9,9,Y","009900,1,N,1","-0280,1","-0300,1","99999,9",,,,,,"10190,1,99999,9",,,,,"MET047METAR ENNO 070550Z 00000KT CAVOK M28/M30 Q1019;",
"01470399999","2010-01-07T08:50:00","4","59.565683","9.212222","19.2","NOTODDEN, NO","FM-15","ENNO ","V020","999,9,C,0000,1","99999,9,9,Y","009900,1,N,1","-0280,1","-0310,1","99999,9",,,,,,"10210,1,99999,9",,,,,"MET047METAR ENNO 070850Z 00000KT CAVOK M28/M31 Q1021;",
"01470399999","2010-01-07T09:50:00","4","59.565683","9.212222","19.2","NOTODDEN, NO","FM-15","ENNO ","V020","999,9,C,0000,1","99999,9,9,Y","009900,1,N,1","-0270,1","-0300,1","99999,9",,,,,,"10210,1,99999,9",,,,,"MET047METAR ENNO 070950Z 00000KT CAVOK M27/M30 Q1021;",
"01470399999","2010-01-07T10:50:00","4","59.565683","9.212222","19.2","NOTODDEN, NO","FM-15","ENNO ","V020","999,9,C,0000,1","99999,9,9,Y","009900,1,N,1","-0220,1","-0240,1","99999,9",,,,,,"10210,1,99999,9",,,,,"MET047METAR ENNO 071050Z 00000KT CAVOK M22/M24 Q1021;",
"01470399999","2010-01-07T11:50:00","4","59.565683","9.212222","19.2","NOTODDEN, NO","FM-15","ENNO ","V020","999,9,C,0000,1","99999,9,9,Y","009900,1,N,1","-0210,1","-0240,1","99999,9",,,,,,"10210,1,99999,9",,,,,"MET047METAR ENNO 071150Z 00000KT CAVOK M21/M24 Q1021;",
"01470399999","2010-01-07T13:20:00","4","59.565683","9.212222","19.2","NOTODDEN, NO","FM-15","ENNO ","V020","999,9,C,0000,1","22000,1,9,N","011265,1,N,1","-0210,1","-0240,1","99999,9","04,5,+01050,1,99,9",,,"04,99,1,99,9,99,9,99999,9,99,9,99,9",,"10210,1,99999,9",,,,,"MET053METAR ENNO 071320Z 00000KT 9999 SCT035 M21/M24 Q1021;",
"01470399999","2010-01-07T13:50:00","4","59.565683","9.212222","19.2","NOTODDEN, NO","FM-15","ENNO ","V020","999,9,C,0000,1","01080,1,C,N","011265,1,N,1","-0210,1","-0240,1","99999,9","04,5,+00810,1,99,9","07,5,+01080,1,99,9",,"07,99,1,99,9,99,9,99999,9,99,9,99,9",,"10210,1,99999,9",,,,,"MET060METAR ENNO 071350Z 00000KT 9999 SCT027 BKN036 M21/M24 Q1021;",
"01470399999","2010-01-07T15:50:00","4","59.565683","9.212222","19.2","NOTODDEN, NO","FM-15","ENNO ","V020","999,9,C,0000,1","99999,9,C,N","011265,1,N,1","-0220,1","-0260,1","99999,9","02,5,+00810,1,99,9","04,5,+01140,1,99,9",,"04,99,1,99,9,99,9,99999,9,99,9,99,9",,"10230,1,99999,9",,,,,"MET060METAR ENNO 071550Z 00000KT 9999 FEW027 SCT038 M22/M26 Q1023;","P01 011403SCOCIG"
"01470399999","2010-01-07T16:50:00","4","59.565683","9.212222","19.2","NOTODDEN, NO","FM-15","ENNO ","V020","280,1,N,0010,1","01020,1,C,N","011265,1,N,1","-0200,1","-0230,1","99999,9","02,5,+00780,1,99,9","07,5,+01020,1,99,9",,"07,99,1,99,9,99,9,99999,9,99,9,99,9",,"10230,1,99999,9",,,,,"MET060METAR ENNO 071650Z 28002KT 9999 FEW026 BKN034 M20/M23 Q1023;",
"01470399999","2010-01-08T05:50:00","4","59.565683","9.212222","19.2","NOTODDEN, NO","FM-15","ENNO ","V020","999,9,C,0000,1","99999,9,9,Y","009900,1,N,1","-0260,1","-0290,1","99999,9",,,,,,"10301,1,99999,9",,,,,"MET047METAR ENNO 080550Z 00000KT CAVOK M26/M29 Q1030;",
"01470399999","2010-01-08T06:50:00","4","59.565683","9.212222","19.2","NOTODDEN, NO","FM-15","ENNO ","V020","999,9,C,0000,1","99999,9,9,Y","009900,1,N,1","-0270,1","-0300,1","99999,9",,,,,,"10312,1,99999,9",,,,,"MET047METAR ENNO 080650Z 00000KT CAVOK M27/M30 Q1031;",
"01470399999","2010-01-08T07:50:00","4","59.565683","9.212222","19.2","NOTODDEN, NO","FM-15","ENNO ","V020","999,9,C,0000,1","99999,9,9,Y","009900,1,N,1","-0270,1","-0300,1","99999,9",,,,,,"10318,1,99999,9",,,,,"MET047METAR ENNO 080750Z 00000KT CAVOK M27/M30 Q1032;",
"01470399999","2010-01-08T08:50:00","4","59.565683","9.212222","19.2","NOTODDEN, NO","FM-15","ENNO ","V020","999,9,C,0000,1","99999,9,9,Y","009900,1,N,1","-0270,1","-0300,1","99999,9",,,,,,"10329,1,99999,9",,,,,"MET047METAR ENNO 080850Z 00000KT CAVOK M27/M30 Q1033;",
"01470399999","2010-01-08T09:50:00","4","59.565683","9.212222","19.2","NOTODDEN, NO","FM-15","ENNO ","V020","999,9,C,0000,1","99999,9,9,Y","009900,1,N,1","-0270,1","-0300,1","99999,9",,,,,,"10329,1,99999,9",,,,,"MET047METAR ENNO 080950Z 00000KT CAVOK M27/M30 Q1033;",
"01470399999","2010-01-08T11:50:00","4","59.565683","9.212222","19.2","NOTODDEN, NO","FM-15","ENNO ","V020","999,9,C,0000,1","99999,9,9,Y","009900,1,N,1","-0220,1","-0250,1","99999,9",,,,,,"10329,1,99999,9",,,,,"MET047METAR ENNO 081150Z 00000KT CAVOK M22/M25 Q1033;",
"01470399999","2010-01-08T12:50:00","4","59.565683","9.212222","19.2","NOTODDEN, NO","FM-15","ENNO ","V020","999,9,C,0000,1","99999,9,9,Y","009900,1,N,1","-0200,1","-0230,1","99999,9",,,,,,"10339,1,99999,9",,,,,"MET047METAR ENNO 081250Z 00000KT CAVOK M20/M23 Q1034;",
"01470399999","2010-01-08T13:50:00","4","59.565683","9.212222","19.2","NOTODDEN, NO","FM-15","ENNO ","V020","999,9,C,0000,1","99999,9,9,Y","009900,1,N,1","-0240,1","-0260,1","99999,9",,,,,,"10339,1,99999,9",,,,,"MET047METAR ENNO 081350Z 00000KT CAVOK M24/M26 Q1034;",
"01470399999","2010-01-08T14:50:00","4","59.565683","9.212222","19.2","NOTODDEN, NO","FM-15","ENNO ","V020","999,9,C,0000,1","99999,9,9,Y","009900,1,N,1","-0240,1","-0260,1","99999,9",,,,,,"10349,1,99999,9",,,,,"MET047METAR ENNO 081450Z 00000KT CAVOK M24/M26 Q1035;",
"01470399999","2010-01-08T16:50:00","4","59.565683","9.212222","19.2","NOTODDEN, NO","FM-15","ENNO ","V020","999,9,C,0000,1","99999,9,9,Y","009900,1,N,1","-0260,1","-0280,1","99999,9",,,,,,"10359,1,99999,9",,,,,"MET047METAR ENNO 081650Z 00000KT CAVOK M26/M28 Q1036;",
"01470399999","2010-01-10T16:50:00","4","59.565683","9.212222","19.2","NOTODDEN, NO","FM-15","ENNO ","V020","999,9,C,0000,1","99999,9,9,Y","009900,1,N,1","-0220,1","-0240,1","99999,9",,,,,,"10389,1,99999,9",,,,,"MET047METAR ENNO 101650Z 00000KT CAVOK M22/M24 Q1039;",
"01470399999","2010-01-10T17:50:00","4","59.565683","9.212222","19.2","NOTODDEN, NO","FM-15","ENNO ","V020","999,9,C,0000,1","99999,9,9,Y","009900,1,N,1","-0220,1","-0240,1","99999,9",,,,,,"10389,1,99999,9",,,,,"MET047METAR ENNO 101750Z 00000KT CAVOK M22/M24 Q1039;",
"01470399999","2010-01-10T19:50:00","4","59.565683","9.212222","19.2","NOTODDEN, NO","FM-15","ENNO ","V020","999,9,C,0000,1","99999,9,9,Y","009900,1,N,1","-0220,1","-0250,1","99999,9",,,,,,"10389,1,99999,9",,,,,"MET047METAR ENNO 101950Z 00000KT CAVOK M22/M25 Q1039;",
"01470399999","2010-01-11T06:50:00","4","59.565683","9.212222","19.2","NOTODDEN, NO","FM-15","ENNO ","V020","999,9,C,0000,1","99999,9,9,Y","009900,1,N,1","-0230,1","-0250,1","99999,9",,,,,,"10359,1,99999,9",,,,,"MET047METAR ENNO 110650Z 00000KT CAVOK M23/M25 Q1036;",
"01470399999","2010-01-11T08:50:00","4","59.565683","9.212222","19.2","NOTODDEN, NO","FM-15","ENNO ","V020","999,9,C,0000,1","99999,9,9,Y","009900,1,N,1","-0230,1","-0250,1","99999,9",,,,,,"10359,1,99999,9",,,,,"MET047METAR ENNO 110850Z 00000KT CAVOK M23/M25 Q1036;",
"01470399999","2010-01-11T09:50:00","4","59.565683","9.212222","19.2","NOTODDEN, NO","FM-15","ENNO ","V020","999,9,C,0000,1","99999,9,9,Y","009900,1,N,1","-0210,1","-0230,1","99999,9",,,,,,"10359,1,99999,9",,,,,"MET047METAR ENNO 110950Z 00000KT CAVOK M21/M23 Q1036;",
"01470399999","2010-01-11T11:20:00","4","59.565683","9.212222","19.2","NOTODDEN, NO","FM-15","ENNO ","V020","280,1,N,0010,1","99999,9,9,Y","009900,1,N,1","-0160,1","-0180,1","99999,9",,,,,,"10359,1,99999,9",,,,,"MET047METAR ENNO 111120Z 28002KT CAVOK M16/M18 Q1036;",
"01470399999","2010-01-11T11:50:00","4","59.565683","9.212222","19.2","NOTODDEN, NO","FM-15","ENNO ","V020","290,1,N,0015,1","99999,9,9,Y","009900,1,N,1","-0170,1","-0190,1","99999,9",,,,,,"10359,1,99999,9",,,,,"MET047METAR ENNO 111150Z 29003KT CAVOK M17/M19 Q1036;",
"01470399999","2010-01-11T12:50:00","4","59.565683","9.212222","19.2","NOTODDEN, NO","FM-15","ENNO ","V020","280,1,N,0015,1","99999,9,9,Y","009900,1,N,1","-0150,1","-0160,1","99999,9",,,,,,"10349,1,99999,9",,,,,"MET047METAR ENNO 111250Z 28003KT CAVOK M15/M16 Q1035;",
"01470399999","2010-01-11T13:50:00","4","59.565683","9.212222","19.2","NOTODDEN, NO","FM-15","ENNO ","V020","999,9,C,0000,1","99999,9,9,Y","009900,1,N,1","-0170,1","-0190,1","99999,9",,,,,,"10339,1,99999,9",,,,,"MET047METAR ENNO 111350Z 00000KT CAVOK M17/M19 Q1034;",
"01470399999","2010-01-11T14:50:00","4","59.565683","9.212222","19.2","NOTODDEN, NO","FM-15","ENNO ","V020","280,1,N,0015,1","22000,1,9,N","011265,1,N,1","-0160,1","-0180,1","99999,9","02,5,+01200,1,99,9",,,"02,99,1,99,9,99,9,99999,9,99,9,99,9",,"10339,1,99999,9",,,,,"MET053METAR ENNO 111450Z 28003KT 9999 FEW040 M16/M18 Q1034;",
"01470399999","2010-01-11T15:50:00","4","59.565683","9.212222","19.2","NOTODDEN, NO","FM-15","ENNO ","V020","260,1,N,0015,1","01050,1,C,N","011265,1,N,1","-0140,1","-0160,1","99999,9","07,5,+01050,1,99,9",,,"07,99,1,99,9,99,9,99999,9,99,9,99,9",,"10339,1,99999,9",,,,,"MET053METAR ENNO 111550Z 26003KT 9999 BKN035 M14/M16 Q1034;",
"01470399999","2010-01-11T16:50:00","4","59.565683","9.212222","19.2","NOTODDEN, NO","FM-15","ENNO ","V020","999,9,V,0005,1","01050,1,C,N","011265,1,N,1","-0130,1","-0140,1","99999,9","02,5,+00840,1,99,9","07,5,+01050,1,99,9",,"07,99,1,99,9,99,9,99999,9,99,9,99,9",,"10329,1,99999,9",,,,,"MET060METAR ENNO 111650Z VRB01KT 9999 FEW028 BKN035 M13/M14 Q1033;",
"01470399999","2010-01-12T05:50:00","4","59.565683","9.212222","19.2","NOTODDEN, NO","FM-15","ENNO ","V020","999,9,C,0000,1","00900,1,C,N","011265,1,N,1","-0090,1","-0100,1","99999,9","08,5,+00900,1,99,9",,,"08,99,1,99,9,99,9,99999,9,99,9,99,9",,"10301,1,99999,9",,,,,"MET053METAR ENNO 120550Z 00000KT 9999 OVC030 M09/M10 Q1030;",
"01470399999","2010-01-12T06:50:00","4","59.565683","9.212222","19.2","NOTODDEN, NO","FM-15","ENNO ","V020","999,9,C,0000,1","00900,1,C,N","011265,1,N,1","+9999,9","+9999,9","99999,9","07,5,+00900,1,99,9",,,"07,99,1,99,9,99,9,99999,9,99,9,99,9",,"10301,1,99999,9",,,,,"MET054METAR ENNO 120650Z 00000KT 9999 BKN030 M089/M10 Q1030;","Q01 -08903ATOT  "
"01470399999","2010-01-12T07:50:00","4","59.565683","9.212222","19.2","NOTODDEN, NO","FM-15","ENNO ","V020","999,9,V,0005,1","00990,1,C,N","011265,1,N,1","-0090,1","-0100,1","99999,9","07,5,+00990,1,99,9",,,"07,99,1,99,9,99,9,99999,9,99,9,99,9",,"10291,1,99999,9",,,,,"MET053METAR ENNO 120750Z VRB01KT 9999 BKN033 M09/M10 Q1029;",
"01470399999","2010-01-12T08:50:00","4","59.565683","9.212222","19.2","NOTODDEN, NO","FM-15","ENNO ","V020","999,9,V,0010,1","00960,1,C,N","011265,1,N,1","-0080,1","-0090,1","99999,9","07,5,+00960,1,99,9",,,"07,99,1,99,9,99,9,99999,9,99,9,99,9",,"10291,1,99999,9",,,,,"MET053METAR ENNO 120850Z VRB02KT 9999 BKN032 M08/M09 Q1029;",
"01470399999","2010-01-12T09:50:00","4","59.565683","9.212222","19.2","NOTODDEN, NO","FM-15","ENNO ","V020","999,9,V,0005,1","00900,1,C,N","011265,1,N,1","-0070,1","-0080,1","99999,9","07,5,+00900,1,99,9",,,"07,99,1,99,9,99,9,99999,9,99,9,99,9",,"10291,1,99999,9",,,,,"MET053METAR ENNO 120950Z VRB01KT 9999 BKN030 M07/M08 Q1029;",
"01470399999","2010-01-12T10:50:00","4","59.565683","9.212222","19.2","NOTODDEN, NO","FM-15","ENNO ","V020","300,1,N,0015,1","00840,1,C,N","011265,1,N,1","-0060,1","-0070,1","99999,9","07,5,+00840,1,99,9",,,"07,99,1,99,9,99,9,99999,9,99,9,99,9",,"10291,1,99999,9",,,,,"MET053METAR ENNO 121050Z 30003KT 9999 BKN028 M06/M07 Q1029;",
"01470399999","2010-01-12T12:50:00","4","59.565683","9.212222","19.2","NOTODDEN, NO","FM-15","ENNO ","V020","999,9,V,0005,1","00900,1,C,N","011265,1,N,1","-0050,1","-0050,1","99999,9","07,5,+00900,1,99,9",,,"07,99,1,99,9,99,9,99999,9,99,9,99,9",,"10281,1,99999,9",,,,,"MET053METAR ENNO 121250Z VRB01KT 9999 BKN030 M05/M05 Q1028;",
"01470399999","2010-01-12T13:50:00","4","59.565683","9.212222","19.2","NOTODDEN, NO","FM-15","ENNO ","V020","999,9,V,0005,1","00900,1,C,N","011265,1,N,1","-0060,1","-0070,1","99999,9","07,5,+00900,1,99,9",,,"07,99,1,99,9,99,9,99999,9,99,9,99,9",,"10271,1,99999,9",,,,,"MET053METAR ENNO 121350Z VRB01KT 9999 BKN030 M06/M07 Q1027;",
"01470399999","2010-01-12T14:50:00","4","59.565683","9.212222","19.2","NOTODDEN, NO","FM-15","ENNO ","V020","999,9,V,0005,1","00900,1,C,N","011265,1,N,1","-0080,1","-0090,1","99999,9","07,5,+00900,1,99,9",,,"07,99,1,99,9,99,9,99999,9,99,9,99,9",,"10271,1,99999,9",,,,,"MET053METAR ENNO 121450Z VRB01KT 9999 BKN030 M08/M09 Q1027;",
"01470399999","2010-01-12T15:50:00","4","59.565683","9.212222","19.2","NOTODDEN, NO","FM-15","ENNO ","V020","999,9,V,0005,1","22000,1,9,N","011265,1,N,1","-0090,1","-0100,1","99999,9","02,5,+00900,1,99,9",,,"02,99,1,99,9,99,9,99999,9,99,9,99,9",,"10261,1,99999,9",,,,,"MET053METAR ENNO 121550Z VRB01KT 9999 FEW030 M09/M10 Q1026;",
"01470399999","2010-01-13T05:50:00","4","59.565683","9.212222","19.2","NOTODDEN, NO","FM-15","ENNO ","V020","999,9,V,0005,1","00630,1,C,N","011265,1,N,1","-0120,1","-0130,1","99999,9","07,5,+00630,1,99,9",,,"07,99,1,99,9,99,9,99999,9,99,9,99,9",,"10240,1,99999,9",,,,,"MET053METAR ENNO 130550Z VRB01KT 9999 BKN021 M12/M13 Q1024;",
"01470399999","2010-01-13T06:50:00","4","59.565683","9.212222","19.2","NOTODDEN, NO","FM-15","ENNO ","V020","999,9,V,0005,1","00630,1,C,N","011265,1,N,1","-0110,1","-0130,1","99999,9","07,5,+00630,1,99,9",,,"07,99,1,99,9,99,9,99999,9,99,9,99,9",,"10240,1,99999,9",,,,,"MET053METAR ENNO 130650Z VRB01KT 9999 BKN021 M11/M13 Q1024;",
"01470399999","2010-01-13T08:50:00","4","59.565683","9.212222","19.2","NOTODDEN, NO","FM-15","ENNO ","V020","999,9,V,0005,1","22000,1,9,N","011265,1,N,1","-0140,1","-0160,1","99999,9","02,5,+01200,1,99,9",,,"02,99,1,99,9,99,9,99999,9,99,9,99,9",,"10251,1,99999,9",,,,,"MET053METAR ENNO 130850Z VRB01KT 9999 FEW040 M14/M16 Q1025;",
"01470399999","2010-01-13T09:50:00","4","59.565683","9.212222","19.2","NOTODDEN, NO","FM-15","ENNO ","V020","280,1,N,0010,1","22000,1,9,N","011265,1,N,1","-0130,1","-0150,1","99999,9","02,5,+01200,1,99,9",,,"02,99,1,99,9,99,9,99999,9,99,9,99,9",,"10251,1,99999,9",,,,,"MET053METAR ENNO 130950Z 28002KT 9999 FEW040 M13/M15 Q1025;",
"01470399999","2010-01-13T10:50:00","4","59.565683","9.212222","19.2","NOTODDEN, NO","FM-15","ENNO ","V020","999,9,V,0005,1","22000,1,9,N","011265,1,N,1","-0130,1","-0150,1","99999,9","02,5,+01200,1,99,9",,,"02,99,1,99,9,99,9,99999,9,99,9,99,9",,"10240,1,99999,9",,,,,"MET053METAR ENNO 131050Z VRB01KT 9999 FEW040 M13/M15 Q1024;",
"01470399999","2010-01-13T11:50:00","4","59.565683","9.212222","19.2","NOTODDEN, NO","FM-15","ENNO ","V020","999,9,C,0000,1","22000,1,9,N","011265,1,N,1","-0120,1","-0130,1","99999,9","02,5,+00750,1,99,9",,,"02,99,1,99,9,99,9,99999,9,99,9,99,9",,"10240,1,99999,9",,,,,"MET053METAR ENNO 131150Z 00000KT 9999 FEW025 M12/M13 Q1024;",
"01470399999","2010-01-13T12:50:00","4","59.565683","9.212222","19.2","NOTODDEN, NO","FM-15","ENNO ","V020","280,1,N,0021,1","22000,1,9,N","011265,1,N,1","-0110,1","-0130,1","99999,9","04,5,+00840,1,99,9",,,"04,99,1,99,9,99,9,99999,9,99,9,99,9",,"10240,1,99999,9",,,,,"MET053METAR ENNO 131250Z 28004KT 9999 SCT028 M11/M13 Q1024;",
"01470399999","2010-01-13T13:50:00","4","59.565683","9.212222","19.2","NOTODDEN, NO","FM-15","ENNO ","V020","280,1,N,0010,1","22000,1,9,N","011265,1,N,1","-0120,1","-0140,1","99999,9","02,5,+00840,1,99,9",,,"02,99,1,99,9,99,9,99999,9,99,9,99,9",,"10230,1,99999,9",,,,,"MET053METAR ENNO 131350Z 28002KT 9999 FEW028 M12/M14 Q1023;",
"01470399999","2010-01-13T14:50:00","4","59.565683","9.212222","19.2","NOTODDEN, NO","FM-15","ENNO ","V020","280,1,N,0010,1","22000,1,9,N","011265,1,N,1","-0130,1","-0140,1","99999,9","02,5,+00840,1,99,9",,,"02,99,1,99,9,99,9,99999,9,99,9,99,9",,"10230,1,99999,9",,,,,"MET053METAR ENNO 131450Z 28002KT 9999 FEW028 M13/M14 Q1023;",
"01470399999","2010-01-13T15:50:00","4","59.565683","9.212222","19.2","NOTODDEN, NO","FM-15","ENNO ","V020","290,1,N,0010,1","22000,1,9,N","011265,1,N,1","-0130,1","-0150,1","99999,9","04,5,+00780,1,99,9",,,"04,99,1,99,9,99,9,99999,9,99,9,99,9",,"10230,1,99999,9",,,,,"MET053METAR ENNO 131550Z 29002KT 9999 SCT026 M13/M15 Q1023;",
"01470399999","2010-01-13T16:50:00","4","59.565683","9.212222","19.2","NOTODDEN, NO","FM-15","ENNO ","V020","999,9,V,0005,1","00600,1,C,N","011265,1,N,1","-0130,1","-0150,1","99999,9","07,5,+00600,1,99,9",,,"07,99,1,99,9,99,9,99999,9,99,9,99,9",,"10230,1,99999,9",,,,,"MET053METAR ENNO 131650Z VRB01KT 9999 BKN020 M13/M15 Q1023;",
"01470399999","2010-01-13T22:50:00","4","59.565683","9.212222","19.2","NOTODDEN, NO","FM-15","ENNO ","V020","270,1,N,0010,1","00630,1,C,N","011265,1,N,1","-0090,1","-0100,1","99999,9","08,5,+00630,1,99,9",,,"08,99,1,99,9,99,9,99999,9,99,9,99,9",,"10220,1,99999,9",,,,,"MET053METAR ENNO 132250Z 27002KT 9999 OVC021 M09/M10 Q1022;",
"01470399999","2010-01-13T23:20:00","4","59.565683","9.212222","19.2","NOTODDEN, NO","FM-15","ENNO ","V020","999,9,C,0000,1","00600,1,C,N","011265,1,N,1","-0080,1","-0090,1","99999,9","08,5,+00600,1,99,9",,,"08,99,1,99,9,99,9,99999,9,99,9,99,9",,"10220,1,99999,9",,,,,"MET053METAR ENNO 132320Z 00000KT 9999 OVC020 M08/M09 Q1022;",
"01470399999","2010-01-13T23:50:00","4","59.565683","9.212222","19.2","NOTODDEN, NO","FM-15","ENNO ","V020","999,9,C,0000,1","00600,1,C,N","011265,1,N,1","-0080,1","-0090,1","99999,9","08,5,+00600,1,99,9",,,"08,99,1,99,9,99,9,99999,9,99,9,99,9",,"10220,1,99999,9",,,,,"MET053METAR ENNO 132350Z 00000KT 9999 OVC020 M08/M09 Q1022;",
"01470399999","2010-01-14T05:50:00","4","59.565683","9.212222","19.2","NOTODDEN, NO","FM-15","ENNO ","V020","999,9,C,0000,1","00720,1,C,N","011265,1,N,1","-0070,1","-0080,1","99999,9","08,5,+00720,1,99,9",,,"08,99,1,99,9,99,9,99999,9,99,9,99,9",,"10210,1,99999,9",,,,,"MET053METAR ENNO 140550Z 00000KT 9999 OVC024 M07/M08 Q1021;",
"01470399999","2010-01-14T06:50:00","4","59.565683","9.212222","19.2","NOTODDEN, NO","FM-15","ENNO ","V020","999,9,C,0000,1","00750,1,C,N","011265,1,N,1","-0070,1","-0080,1","99999,9","08,5,+00750,1,99,9",,,"08,99,1,99,9,99,9,99999,9,99,9,99,9",,"10210,1,99999,9",,,,,"MET053METAR ENNO 140650Z 00000KT 9999 OVC025 M07/M08 Q1021;",
"01470399999","2010-01-14T07:50:00","4","59.565683","9.212222","19.2","NOTODDEN, NO","FM-15","ENNO ","V020","999,9,V,0005,1","00780,1,C,N","011265,1,N,1","-0080,1","-0090,1","99999,9","08,5,+00780,1,99,9",,,"08,99,1,99,9,99,9,99999,9,99,9,99,9",,"10210,1,99999,9",,,,,"MET053METAR ENNO 140750Z VRB01KT 9999 OVC026 M08/M09 Q1021;",
"01470399999","2010-01-14T08:50:00","4","59.565683","9.212222","19.2","NOTODDEN, NO","FM-15","ENNO ","V020","300,1,N,0005,1","00750,1,C,N","011265,1,N,1","-0090,1","-0100,1","99999,9","07,5,+00750,1,99,9",,,"07,99,1,99,9,99,9,99999,9,99,9,99,9",,"10220,1,99999,9",,,,,"MET053METAR ENNO 140850Z 30001KT 9999 BKN025 M09/M10 Q1022;",
"01470399999","2010-01-14T10:50:00","4","59.565683","9.212222","19.2","NOTODDEN, NO","FM-15","ENNO ","V020","280,1,N,0010,1","00750,1,C,N","011265,1,N,1","-0070,1","-0080,1","99999,9","07,5,+00750,1,99,9",,,"07,99,1,99,9,99,9,99999,9,99,9,99,9",,"10220,1,99999,9",,,,,"MET053METAR ENNO 141050Z 28002KT 9999 BKN025 M07/M08 Q1022;",
"01470399999","2010-01-14T11:50:00","4","59.565683","9.212222","19.2","NOTODDEN, NO","FM-15","ENNO ","V020","999,9,V,0005,1","00600,1,C,N","011265,1,N,1","-0060,1","-0070,1","99999,9","07,5,+00600,1,99,9",,,"07,99,1,99,9,99,9,99999,9,99,9,99,9",,"10220,1,99999,9",,,,,"MET053METAR ENNO 141150Z VRB01KT 9999 BKN020 M06/M07 Q1022;",
"01470399999","2010-01-14T13:50:00","4","59.565683","9.212222","19.2","NOTODDEN, NO","FM-15","ENNO ","V020","999,9,V,0005,1","00600,1,C,N","011265,1,N,1","-0050,1","-0060,1","99999,9","08,5,+00600,1,99,9",,,"08,99,1,99,9,99,9,99999,9,99,9,99,9",,"10220,1,99999,9",,,,,"MET053METAR ENNO 141350Z VRB01KT 9999 OVC020 M05/M06 Q1022;",
"01470399999","2010-01-14T15:50:00","4","59.565683","9.212222","19.2","NOTODDEN, NO","FM-15","ENNO ","V020","110,1,N,0021,1","00600,1,C,N","011265,1,N,1","-0050,1","-0060,1","99999,9","08,5,+00600,1,99,9",,,"08,99,1,99,9,99,9,99999,9,99,9,99,9",,"10230,1,99999,9",,,,,"MET053METAR ENNO 141550Z 11004KT 9999 OVC020 M05/M06 Q1023;",
"01470399999","2010-01-15T05:50:00","4","59.565683","9.212222","19.2","NOTODDEN, NO","FM-15","ENNO ","V020","999,9,V,0005,1","00540,1,C,N","011265,1,N,1","-0070,1","-0080,1","99999,9","08,5,+00540,1,99,9",,,"08,99,1,99,9,99,9,99999,9,99,9,99,9",,"10281,1,99999,9",,,,,"MET053METAR ENNO 150550Z VRB01KT 9999 OVC018 M07/M08 Q1028;",
"01470399999","2010-01-15T06:50:00","4","59.565683","9.212222","19.2","NOTODDEN, NO","FM-15","ENNO ","V020","999,9,V,0005,1","00540,1,C,N","011265,1,N,1","-0070,1","-0080,1","99999,9","08,5,+00540,1,99,9",,,"08,99,1,99,9,99,9,99999,9,99,9,99,9",,"10291,1,99999,9",,,,,"MET053METAR ENNO 150650Z VRB01KT 9999 OVC018 M07/M08 Q1029;",
"01470399999","2010-01-15T07:50:00","4","59.565683","9.212222","19.2","NOTODDEN, NO","FM-15","ENNO ","V020","999,9,V,0005,1","00540,1,C,N","011265,1,N,1","-0070,1","-0080,1","99999,9","08,5,+00540,1,99,9",,,"08,99,1,99,9,99,9,99999,9,99,9,99,9",,"10291,1,99999,9",,,,,"MET053METAR ENNO 150750Z VRB01KT 9999 OVC018 M07/M08 Q1029;",
"01470399999","2010-01-15T08:50:00","4","59.565683","9.212222","19.2","NOTODDEN, NO","FM-15","ENNO ","V020","999,9,V,0005,1","00900,1,C,N","011265,1,N,1","-0070,1","-0080,1","99999,9","08,5,+00900,1,99,9",,,"08,99,1,99,9,99,9,99999,9,99,9,99,9",,"10291,1,99999,9",,,,,"MET053METAR ENNO 150850Z VRB01KT 9999 OVC030 M07/M08 Q1029;",
"01470399999","2010-01-15T09:50:00","4","59.565683","9.212222","19.2","NOTODDEN, NO","FM-15","ENNO ","V020","999,9,V,0005,1","00900,1,C,N","011265,1,N,1","-0070,1","-0090,1","99999,9","08,5,+00900,1,99,9",,,"08,99,1,99,9,99,9,99999,9,99,9,99,9",,"10301,1,99999,9",,,,,"MET053METAR ENNO 150950Z VRB01KT 9999 OVC030 M07/M09 Q1030;",
"01470399999","2010-01-15T10:50:00","4","59.565683","9.212222","19.2","NOTODDEN, NO","FM-15","ENNO ","V020","280,1,N,0021,1","00840,1,C,N","011265,1,N,1","-0070,1","-0100,1","99999,9","07,5,+00840,1,99,9","08,5,+01020,1,99,9",,"08,99,1,99,9,99,9,99999,9,99,9,99,9",,"10301,1,99999,9",,,,,"MET060METAR ENNO 151050Z 28004KT 9999 BKN028 OVC034 M07/M10 Q1030;",
"01470399999","2010-01-15T11:50:00","4","59.565683","9.212222","19.2","NOTODDEN, NO","FM-15","ENNO ","V020","300,1,N,0015,1","00840,1,C,N","011265,1,N,1","-0060,1","-0090,1","99999,9","07,5,+00840,1,99,9","08,5,+01050,1,99,9",,"08,99,1,99,9,99,9,99999,9,99,9,99,9",,"10301,1,99999,9",,,,,"MET060METAR ENNO 151150Z 30003KT 9999 BKN028 OVC035 M06/M09 Q1030;",
"01470399999","2010-01-15T12:50:00","4","59.565683","9.212222","19.2","NOTODDEN, NO","FM-15","ENNO ","V020","290,1,N,0021,1","01050,1,C,N","011265,1,N,1","-0060,1","-0100,1","99999,9","08,5,+01050,1,99,9",,,"08,99,1,99,9,99,9,99999,9,99,9,99,9",,"10301,1,99999,9",,,,,"MET053METAR ENNO 151250Z 29004KT 9999 OVC035 M06/M10 Q1030;",
"01470399999","2010-01-15T13:50:00","4","59.565683","9.212222","19.2","NOTODDEN, NO","FM-15","ENNO ","V020","260,1,N,0015,1","01020,1,C,N","011265,1,N,1","-0060,1","-0090,1","99999,9","08,5,+01020,1,99,9",,,"08,99,1,99,9,99,9,99999,9,99,9,99,9",,"10301,1,99999,9",,,,,"MET053METAR ENNO 151350Z 26003KT 9999 OVC034 M06/M09 Q1030;",
"01470399999","2010-01-15T14:50:00","4","59.565683","9.212222","19.2","NOTODDEN, NO","FM-15","ENNO ","V020","290,1,N,0015,1","00990,1,C,N","011265,1,N,1","-0060,1","-0090,1","99999,9","08,5,+00990,1,99,9",,,"08,99,1,99,9,99,9,99999,9,99,9,99,9",,"10301,1,99999,9",,,,,"MET053METAR ENNO 151450Z 29003KT 9999 OVC033 M06/M09 Q1030;",
"01470399999","2010-01-15T15:50:00","4","59.565683","9.212222","19.2","NOTODDEN, NO","FM-15","ENNO ","V020","250,1,N,0010,1","00840,1,C,N","011265,1,N,1","-0060,1","-0090,1","99999,9","08,5,+00840,1,99,9",,,"08,99,1,99,9,99,9,99999,9,99,9,99,9",,"10312,1,99999,9",,,,,"MET053METAR ENNO 151550Z 25002KT 9999 OVC028 M06/M09 Q1031;",
"01470399999","2010-01-15T16:50:00","4","59.565683","9.212222","19.2","NOTODDEN, NO","FM-15","ENNO ","V020","999,9,V,0010,1","00750,1,C,N","011265,1,N,1","-0060,1","-0090,1","99999,9","08,5,+00750,1,99,9",,,"08,99,1,99,9,99,9,99999,9,99,9,99,9",,"10312,1,99999,9",,,,,"MET053METAR ENNO 151650Z VRB02KT 9999 OVC025 M06/M09 Q1031;",
"01470399999","2010-01-17T16:50:00","4","59.565683","9.212222","19.2","NOTODDEN, NO","FM-15","ENNO ","V020","999,9,V,0010,1","00720,1,C,N","009000,1,N,1","-0030,1","-0040,1","99999,9","08,5,+00720,1,99,9",,,"08,99,1,99,9,99,9,99999,9,99,9,99,9",,"10220,1,99999,9","71,1",,,,"MET057METAR ENNO 171650Z VRB02KT 9000 -SN OVC024 M03/M04 Q1022;",
"01470399999","2010-01-17T17:50:00","4","59.565683","9.212222","19.2","NOTODDEN, NO","FM-15","ENNO ","V020","999,9,V,0010,1","00720,1,C,N","009000,1,N,1","-0030,1","-0040,1","99999,9","08,5,+00720,1,99,9",,,"08,99,1,99,9,99,9,99999,9,99,9,99,9",,"10230,1,99999,9","71,1",,,,"MET057METAR ENNO 171750Z VRB02KT 9000 -SN OVC024 M03/M04 Q1023;",
"01470399999","2010-01-17T18:50:00","4","59.565683","9.212222","19.2","NOTODDEN, NO","FM-15","ENNO ","V020","999,9,V,0010,1","00720,1,C,N","009000,1,N,1","-0030,1","-0040,1","99999,9","08,5,+00720,1,99,9",,,"08,99,1,99,9,99,9,99999,9,99,9,99,9",,"10230,1,99999,9","71,1",,,,"MET057METAR ENNO 171850Z VRB02KT 9000 -SN OVC024 M03/M04 Q1023;",
"01470399999","2010-01-18T06:50:00","4","59.565683","9.212222","19.2","NOTODDEN, NO","FM-15","ENNO ","V020","999,9,V,0010,1","01050,1,C,N","009000,1,N,1","-0040,1","-0050,1","99999,9","07,5,+01050,1,99,9",,,"07,99,1,99,9,99,9,99999,9,99,9,99,9",,"10240,1,99999,9","71,1",,,,"MET057METAR ENNO 180650Z VRB02KT 9000 -SN BKN035 M04/M05 Q1024;",
"01470399999","2010-01-18T07:50:00","4","59.565683","9.212222","19.2","NOTODDEN, NO","FM-15","ENNO ","V020","999,9,V,0010,1","01050,1,C,N","009000,1,N,1","-0040,1","-0050,1","99999,9","07,5,+01050,1,99,9",,,"07,99,1,99,9,99,9,99999,9,99,9,99,9",,"10240,1,99999,9","71,1",,,,"MET057METAR ENNO 180750Z VRB02KT 9000 -SN BKN035 M04/M05 Q1024;",
"01470399999","2010-01-18T08:50:00","4","59.565683","9.212222","19.2","NOTODDEN, NO","FM-15","ENNO ","V020","999,9,V,0010,1","01050,1,C,N","009000,1,N,1","-0040,1","-0050,1","99999,9","07,5,+01050,1,99,9",,,"07,99,1,99,9,99,9,99999,9,99,9,99,9",,"10240,1,99999,9","71,1",,,,"MET057METAR ENNO 180850Z VRB02KT 9000 -SN BKN035 M04/M05 Q1024;",
"01470399999","2010-01-18T10:50:00","4","59.565683","9.212222","19.2","NOTODDEN, NO","FM-15","ENNO ","V020","999,9,V,0010,1","01050,1,C,N","009000,1,N,1","-0040,1","-0040,1","99999,9","07,5,+01050,1,99,9",,,"07,99,1,99,9,99,9,99999,9,99,9,99,9",,"10240,1,99999,9","71,1",,,,"MET057METAR ENNO 181050Z VRB02KT 9000 -SN BKN035 M04/M04 Q1024;",
"01470399999","2010-01-18T11:50:00","4","59.565683","9.212222","19.2","NOTODDEN, NO","FM-15","ENNO ","V020","999,9,V,0010,1","00750,1,C,N","006000,1,N,1","-0040,1","-0040,1","99999,9","07,5,+00750,1,99,9",,,"07,99,1,99,9,99,9,99999,9,99,9,99,9",,"10240,1,99999,9","71,1",,,,"MET057METAR ENNO 181150Z VRB02KT 6000 -SN BKN025 M04/M04 Q1024;",
"01470399999","2010-01-18T12:50:00","4","59.565683","9.212222","19.2","NOTODDEN, NO","FM-15","ENNO ","V020","999,9,V,0010,1","00750,1,C,N","009000,1,N,1","-0030,1","-0040,1","99999,9","07,5,+00750,1,99,9",,,"07,99,1,99,9,99,9,99999,9,99,9,99,9",,"10240,1,99999,9","71,1",,,,"MET057METAR ENNO 181250Z VRB02KT 9000 -SN BKN025 M03/M04 Q1024;",
"01470399999","2010-01-18T13:50:00","4","59.565683","9.212222","19.2","NOTODDEN, NO","FM-15","ENNO ","V020","999,9,C,0000,1","00750,1,C,N","009000,1,N,1","-0030,1","-0040,1","99999,9","07,5,+00750,1,99,9","08,5,+01050,1,99,9",,"08,99,1,99,9,99,9,99999,9,99,9,99,9",,"10240,1,99999,9","71,1",,,,"MET064METAR ENNO 181350Z 00000KT 9000 -SN BKN025 OVC035 M03/M04 Q1024;",
"01470399999","2010-01-18T14:50:00","4","59.565683","9.212222","19.2","NOTODDEN, NO","FM-15","ENNO ","V020","999,9,C,0000,1","00750,1,C,N","009000,1,N,1","-0030,1","-0040,1","99999,9","07,5,+00750,1,99,9","08,5,+01050,1,99,9",,"08,99,1,99,9,99,9,99999,9,99,9,99,9",,"10240,1,99999,9","71,1",,,,"MET064METAR ENNO 181450Z 00000KT 9000 -SN BKN025 OVC035 M03/M04 Q1024;",
"01470399999","2010-01-18T15:50:00","4","59.565683","9.212222","19.2","NOTODDEN, NO","FM-15","ENNO ","V020","999,9,C,0000,1","00720,1,C,N","011265,1,N,1","-0030,1","-0040,1","99999,9","08,5,+00720,1,99,9",,,"08,99,1,99,9,99,9,99999,9,99,9,99,9",,"10240,1,99999,9","71,1",,,,"MET057METAR ENNO 181550Z 00000KT 9999 -SN OVC024 M03/M04 Q1024;",
"01470399999","2010-01-19T03:50:00","4","59.565683","9.212222","19.2","NOTODDEN, NO","FM-15","ENNO ","V020","999,9,C,0000,1","01200,1,C,N","011265,1,N,1","-0050,1","-0060,1","99999,9","04,5,+00900,1,99,9","07,5,+01200,1,99,9",,"07,99,1,99,9,99,9,99999,9,99,9,99,9",,"10281,1,99999,9",,,,,"MET060METAR ENNO 190350Z 00000KT 9999 SCT030 BKN040 M05/M06 Q1028;",
"01470399999","2010-01-19T05:50:00","4","59.565683","9.212222","19.2","NOTODDEN, NO","FM-15","ENNO ","V020","999,9,C,0000,1","01200,1,C,N","011265,1,N,1","-0070,1","-0080,1","99999,9","02,5,+00900,1,99,9","04,5,+01200,1,99,9","07,5,+01500,1,99,9","07,99,1,99,9,99,9,99999,9,99,9,99,9",,"10281,1,99999,9",,,,,"MET067METAR ENNO 190550Z 00000KT 9999 FEW030 SCT040 BKN050 M07/M08 Q1028;",
"01470399999","2010-01-19T06:50:00","4","59.565683","9.212222","19.2","NOTODDEN, NO","FM-15","ENNO ","V020","300,1,N,0010,1","01200,1,C,N","011265,1,N,1","-0060,1","-0070,1","99999,9","02,5,+00900,1,99,9","07,5,+01200,1,99,9",,"07,99,1,99,9,99,9,99999,9,99,9,99,9",,"10291,1,99999,9",,,,,"MET060METAR ENNO 190650Z 30002KT 9999 FEW030 BKN040 M06/M07 Q1029;",
"01470399999","2010-01-19T07:50:00","4","59.565683","9.212222","19.2","NOTODDEN, NO","FM-15","ENNO ","V020","999,9,V,0005,1","22000,1,9,N","011265,1,N,1","-0070,1","-0080,1","99999,9","04,5,+01200,1,99,9",,,"04,99,1,99,9,99,9,99999,9,99,9,99,9",,"10291,1,99999,9",,,,,"MET053METAR ENNO 190750Z VRB01KT 9999 SCT040 M07/M08 Q1029;",
"01470399999","2010-01-19T08:50:00","4","59.565683","9.212222","19.2","NOTODDEN, NO","FM-15","ENNO ","V020","999,9,C,0000,1","22000,1,9,N","011265,1,N,1","-0100,1","-0110,1","99999,9","02,5,+01200,1,99,9",,,"02,99,1,99,9,99,9,99999,9,99,9,99,9",,"10301,1,99999,9",,,,,"MET053METAR ENNO 190850Z 00000KT 9999 FEW040 M10/M11 Q1030;",
"01470399999","2010-01-19T10:50:00","4","59.565683","9.212222","19.2","NOTODDEN, NO","FM-15","ENNO ","V020","999,9,C,0000,1","22000,1,9,N","011265,1,N,1","-0080,1","-0090,1","99999,9","02,5,+01200,1,99,9",,,"02,99,1,99,9,99,9,99999,9,99,9,99,9",,"10312,1,99999,9",,,,,"MET054METAR ENNO 191050Z 000000KT 9999 FEW040 M08/M09 Q1031;",
"01470399999","2010-01-19T11:50:00","4","59.565683","9.212222","19.2","NOTODDEN, NO","FM-15","ENNO ","V020","999,9,C,0000,1","22000,1,9,N","011265,1,N,1","-0080,1","-0090,1","99999,9","02,5,+01200,1,99,9",,,"02,99,1,99,9,99,9,99999,9,99,9,99,9",,"10312,1,99999,9",,,,,"MET054METAR ENNO 191150Z 000000KT 9999 FEW040 M08/M09 Q1031;",
"01470399999","2010-01-19T13:50:00","4","59.565683","9.212222","19.2","NOTODDEN, NO","FM-15","ENNO ","V020","999,9,C,0000,1","22000,1,9,N","011265,1,N,1","-0080,1","-0090,1","99999,9","02,5,+01200,1,99,9",,,"02,99,1,99,9,99,9,99999,9,99,9,99,9",,"10312,1,99999,9",,,,,"MET054METAR ENNO 191350Z 000000KT 9999 FEW040 M08/M09 Q1031;",
"01470399999","2010-01-19T14:50:00","4","59.565683","9.212222","19.2","NOTODDEN, NO","FM-15","ENNO ","V020","999,9,C,0000,1","99999,9,9,Y","009900,1,N,1","-0100,1","-0110,1","99999,9",,,,,,"10318,1,99999,9",,,,,"MET048METAR ENNO 191450Z 000000KT CAVOK M10/M11 Q1032;",
"01470399999","2010-01-19T15:50:00","4","59.565683","9.212222","19.2","NOTODDEN, NO","FM-15","ENNO ","V020","999,9,C,0000,1","01200,1,C,N","011265,1,N,1","-0110,1","-0120,1","99999,9","02,5,+00000,5,99,9","07,5,+01200,1,99,9",,"07,99,1,99,9,99,9,99999,9,99,9,99,9",,"10318,1,99999,9",,,,,"MET061METAR ENNO 191550Z 000000KT 9999 FEW000 BKN040 M11/M12 Q1032;",
"01470399999","2010-01-20T05:50:00","4","59.565683","9.212222","19.2","NOTODDEN, NO","FM-15","ENNO ","V020","999,9,V,0015,1","00690,1,C,N","011265,1,N,1","-0060,1","-0070,1","99999,9","08,5,+00690,1,99,9",,,"08,99,1,99,9,99,9,99999,9,99,9,99,9",,"10318,1,99999,9","71,1",,,,"MET057METAR ENNO 200550Z VRB03KT 9999 -SN OVC023 M06/M07 Q1032;",
"01470399999","2010-01-20T06:50:00","4","59.565683","9.212222","19.2","NOTODDEN, NO","FM-15","ENNO ","V020","999,9,V,0015,1","00690,1,C,N","011265,1,N,1","-0050,1","-0060,1","99999,9","08,5,+00690,1,99,9",,,"08,99,1,99,9,99,9,99999,9,99,9,99,9",,"10318,1,99999,9","71,1",,,,"MET057METAR ENNO 200650Z VRB03KT 9999 -SN OVC023 M05/M06 Q1032;",
"01470399999","2010-01-20T07:50:00","4","59.565683","9.212222","19.2","NOTODDEN, NO","FM-15","ENNO ","V020","290,1,N,0036,1","00690,1,C,N","008000,1,N,1","-0030,1","-0060,1","99999,9","08,5,+00690,1,99,9",,,"08,99,1,99,9,99,9,99999,9,99,9,99,9",,"10318,1,99999,9","71,1",,,,"MET057METAR ENNO 200750Z 29007KT 8000 -SN OVC023 M03/M06 Q1032;",
"01470399999","2010-01-20T09:50:00","4","59.565683","9.212222","19.2","NOTODDEN, NO","FM-15","ENNO ","V020","310,1,N,0021,1","00780,1,C,N","011265,1,N,1","-0030,1","-0060,1","99999,9","08,5,+00780,1,99,9",,,"08,99,1,99,9,99,9,99999,9,99,9,99,9",,"10329,1,99999,9","71,1",,,,"MET057METAR ENNO 200950Z 31004KT 9999 -SN OVC026 M03/M06 Q1033;",
"01470399999","2010-01-20T10:50:00","4","59.565683","9.212222","19.2","NOTODDEN, NO","FM-15","ENNO ","V020","280,1,N,0021,1","00720,1,C,N","009000,1,N,1","-0030,1","-0060,1","99999,9","08,5,+00720,1,99,9",,,"08,99,1,99,9,99,9,99999,9,99,9,99,9",,"10329,1,99999,9","71,1",,,,"MET057METAR ENNO 201050Z 28004KT 9000 -SN OVC024 M03/M06 Q1033;",
"01470399999","2010-01-20T11:50:00","4","59.565683","9.212222","19.2","NOTODDEN, NO","FM-15","ENNO ","V020","270,1,N,0031,1","00720,1,C,N","009000,1,N,1","-0030,1","-0060,1","99999,9","08,5,+00720,1,99,9",,,"08,99,1,99,9,99,9,99999,9,99,9,99,9",,"10329,1,99999,9","71,1",,,,"MET057METAR ENNO 201150Z 27006KT 9000 -SN OVC024 M03/M06 Q1033;",
"01470399999","2010-01-20T12:50:00","4","59.565683","9.212222","19.2","NOTODDEN, NO","FM-15","ENNO ","V020","270,1,N,0031,1","00720,1,C,N","009000,1,N,1","-0030,1","-0060,1","99999,9","08,5,+00720,1,99,9",,,"08,99,1,99,9,99,9,99999,9,99,9,99,9",,"10318,1,99999,9","71,1",,,,"MET057METAR ENNO 201250Z 27006KT 9000 -SN OVC024 M03/M06 Q1032;",
"01470399999","2010-01-20T13:50:00","4","59.565683","9.212222","19.2","NOTODDEN, NO","FM-15","ENNO ","V020","280,1,N,0031,1","01200,1,C,N","009000,1,N,1","-0030,1","-0060,1","99999,9","04,5,+00600,1,99,9","07,5,+01200,1,99,9",,"07,99,1,99,9,99,9,99999,9,99,9,99,9",,"10312,1,99999,9","71,1",,,,"MET064METAR ENNO 201350Z 28006KT 9000 -SN SCT020 BKN040 M03/M06 Q1031;",
"01470399999","2010-01-20T14:50:00","4","59.565683","9.212222","19.2","NOTODDEN, NO","FM-15","ENNO ","V020","260,1,N,0026,1","00900,1,C,N","009000,1,N,1","-0030,1","-0060,1","99999,9","04,5,+00600,1,99,9","07,5,+00900,1,99,9",,"07,99,1,99,9,99,9,99999,9,99,9,99,9",,"10312,1,99999,9","71,1",,,,"MET072METAR ENNO 201450Z 26005KT 230V290 9000 -SN SCT020 BKN030 M03/M06 Q1031;",
"01470399999","2010-01-20T15:50:00","4","59.565683","9.212222","19.2","NOTODDEN, NO","FM-15","ENNO ","V020","999,9,C,0000,1","00930,1,C,N","009000,1,N,1","-0030,1","-0060,1","99999,9","04,5,+00570,1,99,9","07,5,+00930,1,99,9",,"07,99,1,99,9,99,9,99999,9,99,9,99,9",,"10312,1,99999,9","71,1",,,,"MET064METAR ENNO 201550Z 00000KT 9000 -SN SCT019 BKN031 M03/M06 Q1031;",
"01470399999","2010-01-21T03:50:00","4","59.565683","9.212222","19.2","NOTODDEN, NO","FM-15","ENNO ","V020","340,1,N,0015,1","00870,1,C,N","009000,1,N,1","-0040,1","-0060,1","99999,9","04,5,+00660,1,99,9","07,5,+00870,1,99,9",,"07,99,1,99,9,99,9,99999,9,99,9,99,9",,"10329,1,99999,9","71,1",,,,"MET064METAR ENNO 210350Z 34003KT 9000 -SN SCT022 BKN029 M04/M06 Q1033;",
"01470399999","2010-01-21T04:50:00","4","59.565683","9.212222","19.2","NOTODDEN, NO","FM-15","ENNO ","V020","290,1,N,0021,1","00780,1,C,N","007000,1,N,1","-0040,1","-0060,1","99999,9","04,5,+00660,1,99,9","07,5,+00780,1,99,9",,"07,99,1,99,9,99,9,99999,9,99,9,99,9",,"10329,1,99999,9","71,1",,,,"MET064METAR ENNO 210450Z 29004KT 7000 -SN SCT022 BKN026 M04/M06 Q1033;",
"01470399999","2010-01-21T05:50:00","4","59.565683","9.212222","19.2","NOTODDEN, NO","FM-15","ENNO ","V020","290,1,N,0021,1","00780,1,C,N","009000,1,N,1","-0040,1","-0050,1","99999,9","04,5,+00660,1,99,9","07,5,+00780,1,99,9",,"07,99,1,99,9,99,9,99999,9,99,9,99,9",,"10329,1,99999,9","71,1",,,,"MET064METAR ENNO 210550Z 29004KT 9000 -SN SCT022 BKN026 M04/M05 Q1033;",
"01470399999","2010-01-21T06:50:00","4","59.565683","9.212222","19.2","NOTODDEN, NO","FM-15","ENNO ","V020","280,1,N,0021,1","00750,1,C,N","009000,1,N,1","-0040,1","-0050,1","99999,9","08,5,+00750,1,99,9",,,"08,99,1,99,9,99,9,99999,9,99,9,99,9",,"10329,1,99999,9","71,1",,,,"MET057METAR ENNO 210650Z 28004KT 9000 -SN OVC025 M04/M05 Q1033;",
"01470399999","2010-01-21T07:50:00","4","59.565683","9.212222","19.2","NOTODDEN, NO","FM-15","ENNO ","V020","280,1,N,0021,1","00750,1,C,N","007000,1,N,1","-0040,1","-0050,1","99999,9","08,5,+00750,1,99,9",,,"08,99,1,99,9,99,9,99999,9,99,9,99,9",,"10339,1,99999,9","71,1",,,,"MET057METAR ENNO 210750Z 28004KT 7000 -SN OVC025 M04/M05 Q1034;",
"01470399999","2010-01-21T08:50:00","4","59.565683","9.212222","19.2","NOTODDEN, NO","FM-15","ENNO ","V020","260,1,N,0015,1","00750,1,C,N","006000,1,N,1","-0040,1","-0050,1","99999,9","08,5,+00750,1,99,9",,,"08,99,1,99,9,99,9,99999,9,99,9,99,9",,"10339,1,99999,9","71,1",,,,"MET057METAR ENNO 210850Z 26003KT 6000 -SN OVC025 M04/M05 Q1034;",
"01470399999","2010-01-21T09:50:00","4","59.565683","9.212222","19.2","NOTODDEN, NO","FM-15","ENNO ","V020","270,1,N,0015,1","00690,1,C,N","008000,1,N,1","-0040,1","-0050,1","99999,9","04,5,+00540,1,99,9","07,5,+00690,1,99,9",,"07,99,1,99,9,99,9,99999,9,99,9,99,9",,"10349,1,99999,9","71,1",,,,"MET064METAR ENNO 210950Z 27003KT 8000 -SN SCT018 BKN023 M04/M05 Q1035;",
"01470399999","2010-01-21T10:50:00","4","59.565683","9.212222","19.2","NOTODDEN, NO","FM-15","ENNO ","V020","270,1,N,0015,1","00690,1,C,N","008000,1,N,1","-0040,1","-0050,1","99999,9","04,5,+00540,1,99,9","07,5,+00690,1,99,9",,"07,99,1,99,9,99,9,99999,9,99,9,99,9",,"10349,1,99999,9","71,1",,,,"MET064METAR ENNO 211050Z 27003KT 8000 -SN SCT018 BKN023 M04/M05 Q1035;",
"01470399999","2010-01-21T12:50:00","4","59.565683","9.212222","19.2","NOTODDEN, NO","FM-15","ENNO ","V020","270,1,N,0015,1","00720,1,C,N","011265,1,N,1","-0040,1","-0050,1","99999,9","04,5,+00540,1,99,9","07,5,+00720,1,99,9",,"07,99,1,99,9,99,9,99999,9,99,9,99,9",,"10349,1,99999,9","16,1",,,,"MET065METAR ENNO 211250Z 27003KT 9999 VCSH SCT018 BKN024 M04/M05 Q1035;",
"01470399999","2010-01-21T13:50:00","4","59.565683","9.212222","19.2","NOTODDEN, NO","FM-15","ENNO ","V020","270,1,N,0015,1","00720,1,C,N","011265,1,N,1","-0040,1","-0050,1","99999,9","04,5,+00540,1,99,9","07,5,+00720,1,99,9",,"07,99,1,99,9,99,9,99999,9,99,9,99,9",,"10349,1,99999,9","71,1",,,,"MET071METAR ENNO 211350Z 27003KT 9999 5000SE -SN SCT018 BKN024 M04/M05 Q1035;",
"01470399999","2010-01-21T14:50:00","4","59.565683","9.212222","19.2","NOTODDEN, NO","FM-15","ENNO ","V020","290,1,N,0015,1","00720,1,C,N","011265,1,N,1","-0040,1","-0050,1","99999,9","04,5,+00540,1,99,9","07,5,+00720,1,99,9",,"07,99,1,99,9,99,9,99999,9,99,9,99,9",,"10349,1,99999,9","71,1",,,,"MET064METAR ENNO 211450Z 29003KT 9999 -SN SCT018 BKN024 M04/M05 Q1035;",
"01470399999","2010-01-21T15:50:00","4","59.565683","9.212222","19.2","NOTODDEN, NO","FM-15","ENNO ","V020","290,1,N,0015,1","00660,1,C,N","011265,1,N,1","-0040,1","-0050,1","99999,9","04,5,+00570,1,99,9","07,5,+00660,1,99,9",,"07,99,1,99,9,99,9,99999,9,99,9,99,9",,"10349,1,99999,9","71,1",,,,"MET064METAR ENNO 211550Z 29003KT 9999 -SN SCT019 BKN022 M04/M05 Q1035;",
"01470399999","2010-01-22T05:50:00","4","59.565683","9.212222","19.2","NOTODDEN, NO","FM-15","ENNO ","V020","999,9,V,0010,1","00870,1,C,N","011265,1,N,1","-0030,1","-0070,1","99999,9","04,5,+00750,1,99,9","07,5,+00870,1,99,9",,"07,99,1,99,9,99,9,99999,9,99,9,99,9",,"10359,1,99999,9","71,1",,,,"MET064METAR ENNO 220550Z VRB02KT 9999 -SN SCT025 BKN029 M03/M07 Q1036;",
"01470399999","2010-01-22T06:50:00","4","59.565683","9.212222","19.2","NOTODDEN, NO","FM-15","ENNO ","V020","999,9,V,0010,1","00870,1,C,N","011265,1,N,1","-0030,1","-0070,1","99999,9","04,5,+00750,1,99,9","07,5,+00870,1,99,9",,"07,99,1,99,9,99,9,99999,9,99,9,99,9",,"10359,1,99999,9",,,,,"MET060METAR ENNO 220650Z VRB02KT 9999 SCT025 BKN029 M03/M07 Q1036;",
"01470399999","2010-01-22T07:50:00","4","59.565683","9.212222","19.2","NOTODDEN, NO","FM-15","ENNO ","V020","999,9,V,0010,1","00870,1,C,N","011265,1,N,1","-0030,1","-0070,1","99999,9","04,5,+00750,1,99,9","07,5,+00870,1,99,9",,"07,99,1,99,9,99,9,99999,9,99,9,99,9",,"10359,1,99999,9",,,,,"MET060METAR ENNO 220750Z VRB02KT 9999 SCT025 BKN029 M03/M07 Q1036;",
"01470399999","2010-01-22T09:50:00","4","59.565683","9.212222","19.2","NOTODDEN, NO","FM-15","ENNO ","V020","999,9,V,0010,1","00870,1,C,N","011265,1,N,1","-0040,1","-0060,1","99999,9","04,5,+00750,1,99,9","07,5,+00870,1,99,9",,"07,99,1,99,9,99,9,99999,9,99,9,99,9",,"10369,1,99999,9","71,1",,,,"MET064METAR ENNO 220950Z VRB02KT 9999 -SN SCT025 BKN029 M04/M06 Q1037;",
"01470399999","2010-01-22T11:50:00","4","59.565683","9.212222","19.2","NOTODDEN, NO","FM-15","ENNO ","V020","999,9,V,0010,1","00780,1,C,N","005000,1,N,1","-0030,1","-0050,1","99999,9","04,5,+00600,1,99,9","07,5,+00780,1,99,9",,"07,99,1,99,9,99,9,99999,9,99,9,99,9",,"10359,1,99999,9","71,1",,,,"MET064METAR ENNO 221150Z VRB02KT 5000 -SN SCT020 BKN026 M03/M05 Q1036;",
"01470399999","2010-01-22T12:50:00","4","59.565683","9.212222","19.2","NOTODDEN, NO","FM-15","ENNO ","V020","999,9,V,0010,1","00780,1,C,N","007000,1,N,1","-0040,1","-0060,1","99999,9","04,5,+00600,1,99,9","07,5,+00780,1,99,9",,"07,99,1,99,9,99,9,99999,9,99,9,99,9",,"10359,1,99999,9","71,1",,,,"MET064METAR ENNO 221250Z VRB02KT 7000 -SN SCT020 BKN026 M04/M06 Q1036;",
"01470399999","2010-01-22T13:50:00","4","59.565683","9.212222","19.2","NOTODDEN, NO","FM-15","ENNO ","V020","999,9,C,0000,1","00630,1,C,N","007000,1,N,1","-0050,1","-0060,1","99999,9","02,5,+00480,1,99,9","04,5,+00630,1,99,9","07,5,+01350,1,99,9","07,99,1,99,9,99,9,99999,9,99,9,99,9",,"10359,1,99999,9",,,,,"MET067METAR ENNO 221350Z 00000KT 7000 FEW016 SCT021 BKN045 M05/M06 Q1036;",
"01470399999","2010-01-22T14:50:00","4","59.565683","9.212222","19.2","NOTODDEN, NO","FM-15","ENNO ","V020","290,1,N,0026,1","00630,1,C,N","011265,1,N,1","-0040,1","-0060,1","99999,9","02,5,+00480,1,99,9","04,5,+00630,1,99,9","07,5,+01320,1,99,9","07,99,1,99,9,99,9,99999,9,99,9,99,9",,"10359,1,99999,9",,,,,"MET067METAR ENNO 221450Z 29005KT 9999 FEW016 SCT021 BKN044 M04/M06 Q1036;",
"01470399999","2010-01-22T15:50:00","4","59.565683","9.212222","19.2","NOTODDEN, NO","FM-15","ENNO ","V020","250,1,N,0015,1","00690,1,C,N","009000,1,N,1","-0040,1","-0050,1","99999,9","02,5,+00480,1,99,9","04,5,+00690,1,99,9","07,5,+01230,1,99,9","07,99,1,99,9,99,9,99999,9,99,9,99,9",,"10359,1,99999,9","71,1",,,,"MET079METAR ENNO 221550Z 25003KT 220V280 9000 -SN FEW016 SCT023 BKN041 M04/M05 Q1036;",
"01470399999","2010-01-24T17:20:00","4","59.565683","9.212222","19.2","NOTODDEN, NO","FM-15","ENNO ","V020","999,9,V,0005,1","00750,1,C,N","011265,1,N,1","-0060,1","-0090,1","99999,9","08,5,+00750,1,99,9",,,"08,99,1,99,9,99,9,99999,9,99,9,99,9",,"10379,1,99999,9",,,,,"MET053METAR ENNO 241720Z VRB01KT 9999 OVC025 M06/M09 Q1038;",
"01470399999","2010-01-24T17:50:00","4","59.565683","9.212222","19.2","NOTODDEN, NO","FM-15","ENNO ","V020","999,9,V,0010,1","00780,1,C,N","011265,1,N,1","-0060,1","-0090,1","99999,9","08,5,+00780,1,99,9",,,"08,99,1,99,9,99,9,99999,9,99,9,99,9",,"10379,1,99999,9",,,,,"MET053METAR ENNO 241750Z VRB02KT 9999 OVC026 M06/M09 Q1038;",
"01470399999","2010-01-24T18:50:00","4","59.565683","9.212222","19.2","NOTODDEN, NO","FM-15","ENNO ","V020","999,9,C,0000,1","00780,1,C,N","011265,1,N,1","-0060,1","-0080,1","99999,9","08,5,+00780,1,99,9",,,"08,99,1,99,9,99,9,99999,9,99,9,99,9",,"10379,1,99999,9",,,,,"MET053METAR ENNO 241850Z 00000KT 9999 OVC026 M06/M08 Q1038;",
"01470399999","2010-01-25T05:50:00","4","59.565683","9.212222","19.2","NOTODDEN, NO","FM-15","ENNO ","V020","999,9,V,0010,1","01740,5,C,N","011265,1,N,1","-0090,1","-0110,1","99999,9","04,5,+00570,1,99,9","07,5,+01740,5,99,9",,"07,99,1,99,9,99,9,99999,9,99,9,99,9",,"10389,1,99999,9",,,,,"MET060METAR ENNO 250550Z VRB02KT 9999 SCT019 BKN058 M09/M11 Q1039;",
"01470399999","2010-01-25T06:50:00","4","59.565683","9.212222","19.2","NOTODDEN, NO","FM-15","ENNO ","V020","999,9,V,0005,1","99999,9,C,N","011265,1,N,1","-0090,1","-0110,1","99999,9","04,5,+00570,1,99,9","04,5,+01410,1,99,9",,"04,99,1,99,9,99,9,99999,9,99,9,99,9",,"10400,1,99999,9",,,,,"MET060METAR ENNO 250650Z VRB01KT 9999 SCT019 SCT047 M09/M11 Q1040;","P01 014103SCOCIG"
"01470399999","2010-01-25T07:50:00","4","59.565683","9.212222","19.2","NOTODDEN, NO","FM-15","ENNO ","V020","999,9,V,0005,1","99999,9,C,N","011265,1,N,1","-0090,1","-0110,1","99999,9","04,5,+00570,1,99,9","04,5,+01410,1,99,9",,"04,99,1,99,9,99,9,99999,9,99,9,99,9",,"10400,1,99999,9",,,,,"MET060METAR ENNO 250750Z VRB01KT 9999 SCT019 SCT047 M09/M11 Q1040;","P01 014103SCOCIG"
"01470399999","2010-01-25T08:50:00","4","59.565683","9.212222","19.2","NOTODDEN, NO","FM-15","ENNO ","V020","999,9,C,0000,1","22000,1,9,N","011265,1,N,1","-0100,1","-0110,1","99999,9","02,5,+01350,1,99,9",,,"02,99,1,99,9,99,9,99999,9,99,9,99,9",,"10410,1,99999,9",,,,,"MET053METAR ENNO 250850Z 00000KT 9999 FEW045 M10/M11 Q1041;",
"01470399999","2010-01-25T09:50:00","4","59.565683","9.212222","19.2","NOTODDEN, NO","FM-15","ENNO ","V020","999,9,V,0010,1","99999,9,9,Y","009900,1,N,1","-0100,1","-0110,1","99999,9",,,,,,"10400,1,99999,9",,,,,"MET047METAR ENNO 250950Z VRB02KT CAVOK M10/M11 Q1040;",
"01470399999","2010-01-25T10:50:00","4","59.565683","9.212222","19.2","NOTODDEN, NO","FM-15","ENNO ","V020","999,9,V,0010,1","99999,9,9,Y","009900,1,N,1","-0080,1","-0110,1","99999,9",,,,,,"10410,1,99999,9",,,,,"MET047METAR ENNO 251050Z VRB02KT CAVOK M08/M11 Q1041;",
"01470399999","2010-01-25T11:50:00","4","59.565683","9.212222","19.2","NOTODDEN, NO","FM-15","ENNO ","V020","999,9,V,0010,1","99999,9,9,Y","009900,1,N,1","-0060,1","-0100,1","99999,9",,,,,,"10410,1,99999,9",,,,,"MET047METAR ENNO 251150Z VRB02KT CAVOK M06/M10 Q1041;",
"01470399999","2010-01-25T12:50:00","4","59.565683","9.212222","19.2","NOTODDEN, NO","FM-15","ENNO ","V020","999,9,V,0010,1","99999,9,9,Y","009900,1,N,1","-0070,1","-0110,1","99999,9",,,,,,"10410,1,99999,9",,,,,"MET047METAR ENNO 251250Z VRB02KT CAVOK M07/M11 Q1041;",
"01470399999","2010-01-25T14:50:00","4","59.565683","9.212222","19.2","NOTODDEN, NO","FM-15","ENNO ","V020","999,9,V,0010,1","99999,9,9,Y","009900,1,N,1","-0100,1","-0120,1","99999,9",,,,,,"10400,1,99999,9",,,,,"MET047METAR ENNO 251450Z VRB02KT CAVOK M10/M12 Q1040;",
"01470399999","2010-01-25T15:50:00","4","59.565683","9.212222","19.2","NOTODDEN, NO","FM-15","ENNO ","V020","999,9,V,0010,1","99999,9,9,Y","009900,1,N,1","-0120,1","-0130,1","99999,9",,,,,,"10410,1,99999,9",,,,,"MET047METAR ENNO 251550Z VRB02KT CAVOK M12/M13 Q1041;",
"01470399999","2010-01-26T05:50:00","4","59.565683","9.212222","19.2","NOTODDEN, NO","FM-15","ENNO ","V020","999,9,V,0010,1","99999,9,9,Y","009900,1,N,1","-0170,1","-0180,1","99999,9",,,,,,"10430,1,99999,9",,,,,"MET047METAR ENNO 260550Z VRB02KT CAVOK M17/M18 Q1043;",
"01470399999","2010-01-26T06:50:00","4","59.565683","9.212222","19.2","NOTODDEN, NO","FM-15","ENNO ","V020","999,9,V,0010,1","99999,9,9,Y","009900,1,N,1","-0170,1","-0190,1","99999,9",,,,,,"10430,1,99999,9",,,,,"MET047METAR ENNO 260650Z VRB02KT CAVOK M17/M19 Q1043;",
"01470399999","2010-01-26T07:50:00","4","59.565683","9.212222","19.2","NOTODDEN, NO","FM-15","ENNO ","V020","999,9,V,0010,1","99999,9,9,Y","009900,1,N,1","-0160,1","-0180,1","99999,9",,,,,,"10430,1,99999,9",,,,,"MET047METAR ENNO 260750Z VRB02KT CAVOK M16/M18 Q1043;",
"01470399999","2010-01-26T09:50:00","4","59.565683","9.212222","19.2","NOTODDEN, NO","FM-15","ENNO ","V020","999,9,V,0010,1","99999,9,9,Y","009900,1,N,1","-0150,1","-0160,1","99999,9",,,,,,"10430,1,99999,9",,,,,"MET047METAR ENNO 260950Z VRB02KT CAVOK M15/M16 Q1043;",
"01470399999","2010-01-26T10:50:00","4","59.565683","9.212222","19.2","NOTODDEN, NO","FM-15","ENNO ","V020","999,9,V,0010,1","99999,9,9,Y","009900,1,N,1","-0130,1","-0140,1","99999,9",,,,,,"10420,1,99999,9",,,,,"MET047METAR ENNO 261050Z VRB02KT CAVOK M13/M14 Q1042;",
"01470399999","2010-01-26T11:50:00","4","59.565683","9.212222","19.2","NOTODDEN, NO","FM-15","ENNO ","V020","999,9,V,0005,1","99999,9,9,Y","009900,1,N,1","-0110,1","-0130,1","99999,9",,,,,,"10420,1,99999,9",,,,,"MET047METAR ENNO 261150Z VRB01KT CAVOK M11/M13 Q1042;",
"01470399999","2010-01-26T12:50:00","4","59.565683","9.212222","19.2","NOTODDEN, NO","FM-15","ENNO ","V020","290,1,N,0015,1","99999,9,9,Y","009900,1,N,1","-0110,1","-0130,1","99999,9",,,,,,"10410,1,99999,9",,,,,"MET047METAR ENNO 261250Z 29003KT CAVOK M11/M13 Q1041;",
"01470399999","2010-01-26T13:50:00","4","59.565683","9.212222","19.2","NOTODDEN, NO","FM-15","ENNO ","V020","999,9,C,0000,1","99999,9,9,Y","009900,1,N,1","-0110,1","-0120,1","99999,9",,,,,,"10400,1,99999,9",,,,,"MET047METAR ENNO 261350Z 00000KT CAVOK M11/M12 Q1040;",
"01470399999","2010-01-26T14:50:00","4","59.565683","9.212222","19.2","NOTODDEN, NO","FM-15","ENNO ","V020","290,1,N,0015,1","99999,9,9,Y","009900,1,N,1","-0110,1","-0120,1","99999,9",,,,,,"10389,1,99999,9",,,,,"MET047METAR ENNO 261450Z 29003KT CAVOK M11/M12 Q1039;",
"01470399999","2010-01-26T15:50:00","4","59.565683","9.212222","19.2","NOTODDEN, NO","FM-15","ENNO ","V020","999,9,C,0000,1","99999,9,9,Y","009900,1,N,1","-0110,1","-0120,1","99999,9",,,,,,"10389,1,99999,9",,,,,"MET047METAR ENNO 261550Z 00000KT CAVOK M11/M12 Q1039;",
"01470399999","2010-01-27T03:20:00","4","59.565683","9.212222","19.2","NOTODDEN, NO","FM-15","ENNO ","V020","999,9,C,0000,1","00270,1,C,N","011265,1,N,1","-0080,1","-0090,1","99999,9","08,5,+00270,1,99,9",,,"08,99,1,99,9,99,9,99999,9,99,9,99,9",,"10220,1,99999,9",,,,,"MET053METAR ENNO 270320Z 00000KT 9999 OVC009 M08/M09 Q1022;",
"01470399999","2010-01-27T05:50:00","4","59.565683","9.212222","19.2","NOTODDEN, NO","FM-15","ENNO ","V020","999,9,C,0000,1","00240,1,C,N","011265,1,N,1","-0080,1","-0090,1","99999,9","08,5,+00240,1,99,9",,,"08,99,1,99,9,99,9,99999,9,99,9,99,9",,"10159,1,99999,9",,,,,"MET053METAR ENNO 270550Z 00000KT 9999 OVC008 M08/M09 Q1016;",
"01470399999","2010-01-27T06:50:00","4","59.565683","9.212222","19.2","NOTODDEN, NO","FM-15","ENNO ","V020","300,1,N,0021,1","00180,1,C,N","011265,1,N,1","-0080,1","-0090,1","99999,9","07,5,+00180,1,99,9","08,5,+00270,1,99,9",,"08,99,1,99,9,99,9,99999,9,99,9,99,9",,"10139,1,99999,9",,,,,"MET075METAR ENNO 270650Z 30004KT 280V010 9999 6000NW BKN006 OVC009 M08/M09 Q1014;",
"01470399999","2010-01-27T07:50:00","4","59.565683","9.212222","19.2","NOTODDEN, NO","FM-15","ENNO ","V020","999,9,C,0000,1","00300,1,C,N","011265,1,N,1","-0080,1","-0090,1","99999,9","04,5,+00180,1,99,9","08,5,+00300,1,99,9",,"08,99,1,99,9,99,9,99999,9,99,9,99,9",,"10102,1,99999,9",,,,,"MET060METAR ENNO 270750Z 00000KT 9999 SCT006 OVC010 M08/M09 Q1010;",
"01470399999","2010-01-27T08:50:00","4","59.565683","9.212222","19.2","NOTODDEN, NO","FM-15","ENNO ","V020","999,9,C,0000,1","00300,1,C,N","011265,1,N,1","-0080,1","-0090,1","99999,9","04,5,+00180,1,99,9","08,5,+00300,1,99,9",,"08,99,1,99,9,99,9,99999,9,99,9,99,9",,"10081,1,99999,9",,,,,"MET060METAR ENNO 270850Z 00000KT 9999 SCT006 OVC010 M08/M09 Q1008;",
"01470399999","2010-01-27T09:50:00","4","59.565683","9.212222","19.2","NOTODDEN, NO","FM-15","ENNO ","V020","290,1,N,0015,1","00300,1,C,N","011265,1,N,1","-0080,1","-0090,1","99999,9","04,5,+00120,1,99,9","08,5,+00300,1,99,9",,"08,99,1,99,9,99,9,99999,9,99,9,99,9",,"10081,1,99999,9",,,,,"MET068METAR ENNO 270950Z 29003KT 260V350 9999 SCT004 OVC010 M08/M09 Q1008;",
"01470399999","2010-01-27T10:50:00","4","59.565683","9.212222","19.2","NOTODDEN, NO","FM-15","ENNO ","V020","999,9,V,0005,1","00540,1,C,N","011265,1,N,1","-0070,1","-0090,1","99999,9","04,5,+00120,1,99,9","07,5,+00540,1,99,9",,"07,99,1,99,9,99,9,99999,9,99,9,99,9",,"10031,1,99999,9",,,,,"MET060METAR ENNO 271050Z VRB01KT 9999 SCT004 BKN018 M07/M09 Q1003;",
"01470399999","2010-01-27T11:50:00","4","59.565683","9.212222","19.2","NOTODDEN, NO","FM-15","ENNO ","V020","999,9,V,0005,1","00360,1,C,N","011265,1,N,1","-0060,1","-0070,1","99999,9","04,5,+00120,1,99,9","07,5,+00360,1,99,9",,"07,99,1,99,9,99,9,99999,9,99,9,99,9",,"10000,2,99999,9",,,,,"MET060METAR ENNO 271150Z VRB01KT 9999 SCT004 BKN012 M06/M07 Q1000;",
"01470399999","2010-01-27T12:50:00","4","59.565683","9.212222","19.2","NOTODDEN, NO","FM-15","ENNO ","V020","999,9,V,0005,1","00450,1,C,N","011265,1,N,1","-0050,1","-0070,1","99999,9","04,5,+00120,1,99,9","07,5,+00450,1,99,9",,"07,99,1,99,9,99,9,99999,9,99,9,99,9",,,,,,,"MET059METAR ENNO 271250Z VRB01KT 9999 SCT004 BKN015 M05/M07 Q998;",
"01470399999","2010-01-27T13:50:00","4","59.565683","9.212222","19.2","NOTODDEN, NO","FM-15","ENNO ","V020","999,9,V,0005,1","00450,1,C,N","011265,1,N,1","-0040,1","-0060,1","99999,9","04,5,+00120,1,99,9","07,5,+00450,1,99,9",,"07,99,1,99,9,99,9,99999,9,99,9,99,9",,,,,,,"MET059METAR ENNO 271350Z VRB01KT 9999 SCT004 BKN015 M04/M06 Q998;",
"01470399999","2010-01-27T15:50:00","4","59.565683","9.212222","19.2","NOTODDEN, NO","FM-15","ENNO ","V020","999,9,V,0005,1","22000,1,9,N","011265,1,N,1","-0080,1","-0090,1","99999,9","02,5,+01500,1,99,9",,,"02,99,1,99,9,99,9,99999,9,99,9,99,9",,,,,,,"MET052METAR ENNO 271550Z VRB01KT 9999 FEW050 M08/M09 Q996;",
"01470399999","2010-01-28T05:50:00","4","59.565683","9.212222","19.2","NOTODDEN, NO","FM-15","ENNO ","V020","999,9,V,0005,1","22000,1,9,N","011265,1,N,1","-0160,1","-0170,1","99999,9","02,5,+00060,1,99,9",,,"02,99,1,99,9,99,9,99999,9,99,9,99,9",,,,,,,"MET052METAR ENNO 280550Z VRB01KT 9999 FEW002 M16/M17 Q993;",
"01470399999","2010-01-28T07:50:00","4","59.565683","9.212222","19.2","NOTODDEN, NO","FM-15","ENNO ","V020","999,9,V,0005,1","22000,1,9,N","011265,1,N,1","-0160,1","-0180,1","99999,9","02,5,+00060,1,99,9",,,"02,99,1,99,9,99,9,99999,9,99,9,99,9",,,,,,,"MET052METAR ENNO 280750Z VRB01KT 9999 FEW002 M16/M18 Q993;",
"01470399999","2010-01-28T08:50:00","4","59.565683","9.212222","19.2","NOTODDEN, NO","FM-15","ENNO ","V020","999,9,V,0005,1","22000,1,9,N","011265,1,N,1","-0150,1","-0170,1","99999,9","02,5,+00060,1,99,9",,,"02,99,1,99,9,99,9,99999,9,99,9,99,9",,,,,,,"MET052METAR ENNO 280850Z VRB01KT 9999 FEW002 M15/M17 Q993;",
"01470399999","2010-01-28T09:50:00","4","59.565683","9.212222","19.2","NOTODDEN, NO","FM-15","ENNO ","V020","999,9,V,0005,1","99999,9,9,Y","009900,1,N,1","-0130,1","-0150,1","99999,9",,,,,,,,,,,"MET046METAR ENNO 280950Z VRB01KT CAVOK M13/M15 Q993;",
"01470399999","2010-01-28T10:50:00","4","59.565683","9.212222","19.2","NOTODDEN, NO","FM-15","ENNO ","V020","999,9,V,0005,1","99999,9,9,Y","009900,1,N,1","-0090,1","-0100,1","99999,9",,,,,,"09919,1,99999,9",,,,,"MET047METAR ENNO 281050Z VRB01KT CAVOK M09/M10 Q0992;",
"01470399999","2010-01-28T12:50:00","4","59.565683","9.212222","19.2","NOTODDEN, NO","FM-15","ENNO ","V020","999,9,V,0005,1","99999,9,9,Y","009900,1,N,1","-0060,1","-0080,1","99999,9",,,,,,"09898,1,99999,9",,,,,"MET047METAR ENNO 281250Z VRB01KT CAVOK M06/M08 Q0990;",
"01470399999","2010-01-28T13:50:00","4","59.565683","9.212222","19.2","NOTODDEN, NO","FM-15","ENNO ","V020","999,9,V,0015,1","99999,9,9,Y","009900,1,N,1","-0080,1","-0090,1","99999,9",,,,,,"09898,1,99999,9",,,,,"MET047METAR ENNO 281350Z VRB03KT CAVOK M08/M09 Q0990;",
"01470399999","2010-01-28T14:50:00","4","59.565683","9.212222","19.2","NOTODDEN, NO","FM-15","ENNO ","V020","999,9,9,9999,9","99999,9,9,Y","009900,1,N,1","-0080,1","-0100,1","99999,9",,,,,,"09900,1,99999,9",,,,,"MET046METAR ENNO 281450Z VRB02T CAVOK M08/M10 Q0990;",
"01470399999","2010-01-28T15:50:00","4","59.565683","9.212222","19.2","NOTODDEN, NO","FM-15","ENNO ","V020","999,9,9,9999,9","99999,9,9,Y","009900,1,N,1","-0090,1","-0100,1","99999,9",,,,,,"09890,1,99999,9",,,,,"MET046METAR ENNO 281550Z VRB02T CAVOK M09/M10 Q0989;",
"01470399999","2010-01-29T03:50:00","4","59.565683","9.212222","19.2","NOTODDEN, NO","FM-15","ENNO ","V020","290,1,N,0015,1","00120,1,9,N","001500,1,N,1","-0030,1","-0040,1","99999,9","09,1,+00120,1,99,9",,,"09,99,1,99,9,99,9,00025,1,99,9,99,9",,"09861,1,99999,9","73,1",,,,"MET063METAR ENNO 290350Z 29003KT 240V330 1500 SN VV004 M03/M04 Q0986;",
"01470399999","2010-01-29T05:50:00","4","59.565683","9.212222","19.2","NOTODDEN, NO","FM-15","ENNO ","V020","999,9,V,0010,1","00360,1,9,N","009000,1,N,1","-0040,1","-0050,1","99999,9","09,1,+00360,1,99,9",,,"09,99,1,99,9,99,9,00025,1,99,9,99,9",,"09861,1,99999,9","71,1",,,,"MET056METAR ENNO 290550Z VRB02KT 9000 -SN VV012 M04/M05 Q0986;",
"01470399999","2010-01-29T06:50:00","4","59.565683","9.212222","19.2","NOTODDEN, NO","FM-15","ENNO ","V020","999,9,C,0000,1","00060,1,9,N","001100,1,N,1","-0040,1","-0050,1","99999,9","09,1,+00060,1,99,9",,,"09,99,1,99,9,99,9,00025,1,99,9,99,9",,"09861,1,99999,9","73,1",,,,"MET055METAR ENNO 290650Z 00000KT 1100 SN VV002 M04/M05 Q0986;",
"01470399999","2010-01-29T08:50:00","4","59.565683","9.212222","19.2","NOTODDEN, NO","FM-15","ENNO ","V020","999,9,V,0010,1","00600,1,C,N","011265,1,N,1","-0040,1","-0060,1","99999,9","02,5,+00420,1,99,9","04,5,+00600,1,99,9","07,5,+01200,1,99,9","07,99,1,99,9,99,9,99999,9,99,9,99,9",,"09871,1,99999,9",,,,,"MET067METAR ENNO 290850Z VRB02KT 9999 FEW014 SCT020 BKN040 M04/M06 Q0987;",
"01470399999","2010-01-29T09:50:00","4","59.565683","9.212222","19.2","NOTODDEN, NO","FM-15","ENNO ","V020","999,9,V,0010,1","00750,1,C,N","011265,1,N,1","-0040,1","-0060,1","99999,9","04,5,+00540,1,99,9","07,5,+00750,1,99,9",,"07,99,1,99,9,99,9,99999,9,99,9,99,9",,"09882,1,99999,9",,,,,"MET060METAR ENNO 290950Z VRB02KT 9999 SCT018 BKN025 M04/M06 Q0988;",
"01470399999","2010-01-29T11:50:00","4","59.565683","9.212222","19.2","NOTODDEN, NO","FM-15","ENNO ","V020","999,9,V,0010,1","00750,1,C,N","011265,1,N,1","-0040,1","-0060,1","99999,9","04,5,+00540,1,99,9","07,5,+00750,1,99,9",,"07,99,1,99,9,99,9,99999,9,99,9,99,9",,"09882,1,99999,9","71,1",,,,"MET064METAR ENNO 291150Z VRB02KT 9999 -SN SCT018 BKN025 M04/M06 Q0988;",
"01470399999","2010-01-29T12:50:00","4","59.565683","9.212222","19.2","NOTODDEN, NO","FM-15","ENNO ","V020","999,9,V,0010,1","00750,1,C,N","011265,1,N,1","-0040,1","-0060,1","99999,9","04,5,+00540,1,99,9","07,5,+00750,1,99,9",,"07,99,1,99,9,99,9,99999,9,99,9,99,9",,"09882,1,99999,9","71,1",,,,"MET064METAR ENNO 291250Z VRB02KT 9999 -SN SCT018 BKN025 M04/M06 Q0988;",
"01470399999","2010-01-29T13:50:00","4","59.565683","9.212222","19.2","NOTODDEN, NO","FM-15","ENNO ","V020","999,9,V,0010,1","00750,1,C,N","011265,1,N,1","-0050,1","-0060,1","99999,9","04,5,+00540,1,99,9","07,5,+00750,1,99,9",,"07,99,1,99,9,99,9,99999,9,99,9,99,9",,"09882,1,99999,9",,,,,"MET060METAR ENNO 291350Z VRB02KT 9999 SCT018 BKN025 M05/M06 Q0988;",
"01470399999","2010-01-29T14:50:00","4","59.565683","9.212222","19.2","NOTODDEN, NO","FM-15","ENNO ","V020","999,9,V,0010,1","00930,1,C,N","011265,1,N,1","-0060,1","-0090,1","99999,9","04,5,+00600,1,99,9","07,5,+00930,1,99,9",,"07,99,1,99,9,99,9,99999,9,99,9,99,9",,"09892,1,99999,9",,,,,"MET060METAR ENNO 291450Z VRB02KT 9999 SCT020 BKN031 M06/M09 Q0989;",
"01470399999","2010-01-29T15:50:00","4","59.565683","9.212222","19.2","NOTODDEN, NO","FM-15","ENNO ","V020","999,9,V,0010,1","00840,1,C,N","011265,1,N,1","-0060,1","-0090,1","99999,9","04,5,+00600,1,99,9","07,5,+00840,1,99,9",,"07,99,1,99,9,99,9,99999,9,99,9,99,9",,"09892,1,99999,9",,,,,"MET060METAR ENNO 291550Z VRB02KT 9999 SCT020 BKN028 M06/M09 Q0989;",
"01470399999","2010-01-31T13:50:00","4","59.565683","9.212222","19.2","NOTODDEN, NO","FM-15","ENNO ","V020","999,9,V,0010,1","00540,1,C,N","011265,1,N,1","-0100,1","-0120,1","99999,9","04,5,+00390,1,99,9","07,5,+00540,1,99,9",,"07,99,1,99,9,99,9,99999,9,99,9,99,9",,"09980,1,99999,9",,,,,"MET067METAR ENNO 311350Z VRB02KT 9999 5000NW SCT013 BKN018 M10/M12 Q0998;",
"01470399999","2010-01-31T14:50:00","4","59.565683","9.212222","19.2","NOTODDEN, NO","FM-15","ENNO ","V020","999,9,V,0010,1","00540,1,C,N","011265,1,N,1","-0100,1","-0120,1","99999,9","04,5,+00390,1,99,9","07,5,+00540,1,99,9",,"07,99,1,99,9,99,9,99999,9,99,9,99,9",,"09990,1,99999,9",,,,,"MET067METAR ENNO 311450Z VRB02KT 9999 7000NW SCT013 BKN018 M10/M12 Q0999;",
"01470399999","2010-02-01T05:50:00","4","59.565683","9.212222","19.2","NOTODDEN, NO","FM-15","ENNO ","V020","999,9,V,0010,1","22000,1,9,N","011265,1,N,1","-0230,1","-0260,1","99999,9","02,5,+00030,1,99,9",,,"02,99,1,99,9,99,9,99999,9,99,9,99,9",,"10041,1,99999,9",,,,,"MET053METAR ENNO 010550Z VRB02KT 9999 FEW001 M23/M26 Q1004;",
"01470399999","2010-02-01T07:50:00","4","59.565683","9.212222","19.2","NOTODDEN, NO","FM-15","ENNO ","V020","999,9,V,0010,1","22000,1,9,N","011265,1,N,1","-0240,1","-0260,1","99999,9","02,5,+00030,1,99,9",,,"02,99,1,99,9,99,9,99999,9,99,9,99,9",,"10061,1,99999,9",,,,,"MET053METAR ENNO 010750Z VRB02KT 9999 FEW001 M24/M26 Q1006;",
"01470399999","2010-02-01T08:50:00","4","59.565683","9.212222","19.2","NOTODDEN, NO","FM-15","ENNO ","V020","999,9,V,0010,1","22000,1,9,N","011265,1,N,1","-0210,1","-0230,1","99999,9","02,5,+00030,1,99,9",,,"02,99,1,99,9,99,9,99999,9,99,9,99,9",,"10061,1,99999,9",,,,,"MET053METAR ENNO 010850Z VRB02KT 9999 FEW001 M21/M23 Q1006;",
"01470399999","2010-02-01T09:50:00","4","59.565683","9.212222","19.2","NOTODDEN, NO","FM-15","ENNO ","V020","999,9,V,0010,1","99999,9,9,Y","009900,1,N,1","-0200,1","-0220,1","99999,9",,,,,,"10061,1,99999,9",,,,,"MET047METAR ENNO 010950Z VRB02KT CAVOK M20/M22 Q1006;",
"01470399999","2010-02-01T10:50:00","4","59.565683","9.212222","19.2","NOTODDEN, NO","FM-15","ENNO ","V020","290,1,N,0005,1","99999,9,9,Y","009900,1,N,1","-0190,1","-0210,1","99999,9",,,,,,"10051,1,99999,9",,,,,"MET047METAR ENNO 011050Z 29001KT CAVOK M19/M21 Q1005;",
"01470399999","2010-02-01T11:50:00","4","59.565683","9.212222","19.2","NOTODDEN, NO","FM-15","ENNO ","V020","999,9,C,0000,1","99999,9,9,Y","009900,1,N,1","-0170,1","-0190,1","99999,9",,,,,,"10051,1,99999,9",,,,,"MET047METAR ENNO 011150Z 00000KT CAVOK M17/M19 Q1005;",
"01470399999","2010-02-01T12:50:00","4","59.565683","9.212222","19.2","NOTODDEN, NO","FM-15","ENNO ","V020","280,1,N,0021,1","99999,9,9,Y","009900,1,N,1","-0160,1","-0180,1","99999,9",,,,,,"10051,1,99999,9",,,,,"MET047METAR ENNO 011250Z 28004KT CAVOK M16/M18 Q1005;",
"01470399999","2010-02-01T13:50:00","4","59.565683","9.212222","19.2","NOTODDEN, NO","FM-15","ENNO ","V020","240,1,N,0005,1","99999,9,9,Y","009900,1,N,1","-0150,1","-0170,1","99999,9",,,,,,"10051,1,99999,9",,,,,"MET047METAR ENNO 011350Z 24001KT CAVOK M15/M17 Q1005;",
"01470399999","2010-02-01T15:20:00","4","59.565683","9.212222","19.2","NOTODDEN, NO","FM-15","ENNO ","V020","140,1,N,0005,1","01710,5,C,N","011265,1,N,1","-0150,1","-0170,1","99999,9","07,5,+01710,5,99,9",,,"07,99,1,99,9,99,9,99999,9,99,9,99,9",,"10051,1,99999,9",,,,,"MET053METAR ENNO 011520Z 14001KT 9999 BKN057 M15/M17 Q1005;",
"01470399999","2010-02-01T15:50:00","4","59.565683","9.212222","19.2","NOTODDEN, NO","FM-15","ENNO ","V020","999,9,C,0000,1","00600,1,C,N","011265,1,N,1","-0150,1","-0170,1","99999,9","08,5,+00600,1,99,9",,,"08,99,1,99,9,99,9,99999,9,99,9,99,9",,"10051,1,99999,9","71,1",,,,"MET064METAR ENNO 011550Z 00000KT 9999 8000NW -SN OVC020 M15/M17 Q1005;",
"01470399999","2010-02-01T16:20:00","4","59.565683","9.212222","19.2","NOTODDEN, NO","FM-15","ENNO ","V020","300,1,N,0010,1","00150,1,9,N","001000,1,N,1","-0150,1","-0170,1","99999,9","09,1,+00150,1,99,9",,,"09,99,1,99,9,99,9,00025,1,99,9,99,9",,"10061,1,99999,9","73,1",,,,"MET055METAR ENNO 011620Z 30002KT 1000 SN VV005 M15/M17 Q1006;",
"01470399999","2010-02-01T16:50:00","4","59.565683","9.212222","19.2","NOTODDEN, NO","FM-15","ENNO ","V020","290,1,N,0005,1","00150,1,9,N","001000,1,N,1","-0150,1","-0160,1","99999,9","09,1,+00150,1,99,9",,,"09,99,1,99,9,99,9,00025,1,99,9,99,9",,"10061,1,99999,9","73,1",,,,"MET055METAR ENNO 011650Z 29001KT 1000 SN VV005 M15/M16 Q1006;",
"01470399999","2010-02-02T03:50:00","4","59.565683","9.212222","19.2","NOTODDEN, NO","FM-15","ENNO ","V020","290,1,N,0005,1","99999,9,9,Y","009900,1,N,1","-0160,1","-0180,1","99999,9",,,,,,"10031,1,99999,9",,,,,"MET047METAR ENNO 020350Z 29001KT CAVOK M16/M18 Q1003;",
"01470399999","2010-02-02T04:50:00","4","59.565683","9.212222","19.2","NOTODDEN, NO","FM-15","ENNO ","V020","999,9,C,0000,1","99999,9,9,Y","009900,1,N,1","-0180,1","-0200,1","99999,9",,,,,,"10031,1,99999,9",,,,,"MET047METAR ENNO 020450Z 00000KT CAVOK M18/M20 Q1003;",
"01470399999","2010-02-02T05:50:00","4","59.565683","9.212222","19.2","NOTODDEN, NO","FM-15","ENNO ","V020","300,1,N,0015,1","99999,9,9,Y","009900,1,N,1","-0190,1","-0210,1","99999,9",,,,,,"10020,1,99999,9",,,,,"MET047METAR ENNO 020550Z 30003KT CAVOK M19/M21 Q1002;",
"01470399999","2010-02-02T06:50:00","4","59.565683","9.212222","19.2","NOTODDEN, NO","FM-15","ENNO ","V020","999,9,C,0000,1","00900,1,C,N","011265,1,N,1","-0190,1","-0200,1","99999,9","07,5,+00900,1,99,9",,,"07,99,1,99,9,99,9,99999,9,99,9,99,9",,"10020,1,99999,9",,,,,"MET053METAR ENNO 020650Z 00000KT 9999 BKN030 M19/M20 Q1002;",
"01470399999","2010-02-02T07:50:00","4","59.565683","9.212222","19.2","NOTODDEN, NO","FM-15","ENNO ","V020","280,1,N,0015,1","00900,1,C,N","011265,1,N,1","-0190,1","-0210,1","99999,9","04,5,+00600,1,99,9","07,5,+00900,1,99,9","08,5,+01320,1,99,9","08,99,1,99,9,99,9,99999,9,99,9,99,9",,"10020,1,99999,9",,,,,"MET067METAR ENNO 020750Z 28003KT 9999 SCT020 BKN030 OVC044 M19/M21 Q1002;",
"01470399999","2010-02-02T08:50:00","4","59.565683","9.212222","19.2","NOTODDEN, NO","FM-15","ENNO ","V020","999,9,C,0000,1","00750,1,C,N","011265,1,N,1","-0160,1","-0180,1","99999,9","04,5,+00600,1,99,9","07,5,+00750,1,99,9","08,5,+00930,1,99,9","08,99,1,99,9,99,9,99999,9,99,9,99,9",,"10010,1,99999,9","16,1",,,,"MET072METAR ENNO 020850Z 00000KT 9999 VCSH SCT020 BKN025 OVC031 M16/M18 Q1001;",
"01470399999","2010-02-02T09:50:00","4","59.565683","9.212222","19.2","NOTODDEN, NO","FM-15","ENNO ","V020","290,1,N,0015,1","00750,1,C,N","011265,1,N,1","-0140,1","-0160,1","99999,9","02,5,+00270,1,99,9","07,5,+00750,1,99,9","08,5,+01260,1,99,9","08,99,1,99,9,99,9,99999,9,99,9,99,9",,"10010,1,99999,9","71,1",,,,"MET071METAR ENNO 020950Z 29003KT 9999 -SN FEW009 BKN025 OVC042 M14/M16 Q1001;",
"01470399999","2010-02-02T10:50:00","4","59.565683","9.212222","19.2","NOTODDEN, NO","FM-15","ENNO ","V020","270,1,N,0021,1","00750,1,C,N","011265,1,N,1","-0130,1","-0140,1","99999,9","07,5,+00750,1,99,9","08,5,+01200,1,99,9",,"08,99,1,99,9,99,9,99999,9,99,9,99,9",,"10000,1,99999,9","16,1",,,,"MET065METAR ENNO 021050Z 27004KT 9999 VCSH BKN025 OVC040 M13/M14 Q1000;",
"01470399999","2010-02-02T11:50:00","4","59.565683","9.212222","19.2","NOTODDEN, NO","FM-15","ENNO ","V020","999,9,V,0010,1","00540,1,C,N","011265,1,N,1","-0110,1","-0130,1","99999,9","08,5,+00540,1,99,9",,,"08,99,1,99,9,99,9,99999,9,99,9,99,9",,"09990,1,99999,9","16,1",,,,"MET058METAR ENNO 021150Z VRB02KT 9999 VCSH OVC018 M11/M13 Q0999;",
"01470399999","2010-02-02T12:50:00","4","59.565683","9.212222","19.2","NOTODDEN, NO","FM-15","ENNO ","V020","999,9,V,0010,1","01230,1,C,N","011265,1,N,1","-0110,1","-0120,1","99999,9","04,5,+00600,1,99,9","08,5,+01230,1,99,9",,"08,99,1,99,9,99,9,99999,9,99,9,99,9",,"09990,1,99999,9","71,1",,,,"MET064METAR ENNO 021250Z VRB02KT 9999 -SN SCT020 OVC041 M11/M12 Q0999;",
"01470399999","2010-02-02T14:50:00","4","59.565683","9.212222","19.2","NOTODDEN, NO","FM-15","ENNO ","V020","999,9,V,0010,1","00900,1,C,N","011265,1,N,1","-0100,1","-0110,1","99999,9","04,5,+00600,1,99,9","08,5,+00900,1,99,9",,"08,99,1,99,9,99,9,99999,9,99,9,99,9",,"09970,1,99999,9",,,,,"MET060METAR ENNO 021450Z VRB02KT 9999 SCT020 OVC030 M10/M11 Q0997;",
"01470399999","2010-02-02T15:50:00","4","59.565683","9.212222","19.2","NOTODDEN, NO","FM-15","ENNO ","V020","999,9,V,0010,1","00900,1,C,N","011265,1,N,1","-0090,1","-0110,1","99999,9","04,5,+00630,1,99,9","07,5,+00900,1,99,9",,"07,99,1,99,9,99,9,99999,9,99,9,99,9",,"09970,1,99999,9","16,1",,,,"MET065METAR ENNO 021550Z VRB02KT 9999 VCSH SCT021 BKN030 M09/M11 Q0997;",
"01470399999","2010-02-03T05:50:00","4","59.565683","9.212222","19.2","NOTODDEN, NO","FM-15","ENNO ","V020","999,9,V,0010,1","00450,1,C,N","005000,1,N,1","-0050,1","-0070,1","99999,9","08,5,+00450,1,99,9",,,"08,99,1,99,9,99,9,99999,9,99,9,99,9",,"09959,1,99999,9","71,1",,,,"MET057METAR ENNO 030550Z VRB02KT 5000 -SN OVC015 M05/M07 Q0996;",
"01470399999","2010-02-03T06:50:00","4","59.565683","9.212222","19.2","NOTODDEN, NO","FM-15","ENNO ","V020","999,9,V,0010,1","00480,1,C,N","005000,1,N,1","-0050,1","-0070,1","99999,9","08,5,+00480,1,99,9",,,"08,99,1,99,9,99,9,99999,9,99,9,99,9",,"09959,1,99999,9","71,1",,,,"MET057METAR ENNO 030650Z VRB02KT 5000 -SN OVC016 M05/M07 Q0996;",
"01470399999","2010-02-03T07:50:00","4","59.565683","9.212222","19.2","NOTODDEN, NO","FM-15","ENNO ","V020","999,9,V,0010,1","00480,1,C,N","005000,1,N,1","-0050,1","-0070,1","99999,9","08,5,+00480,1,99,9",,,"08,99,1,99,9,99,9,99999,9,99,9,99,9",,"09970,1,99999,9","71,1",,,,"MET057METAR ENNO 030750Z VRB02KT 5000 -SN OVC016 M05/M07 Q0997;",
"01470399999","2010-02-03T08:50:00","4","59.565683","9.212222","19.2","NOTODDEN, NO","FM-15","ENNO ","V020","999,9,V,0010,1","00480,1,C,N","005000,1,N,1","-0040,1","-0070,1","99999,9","08,5,+00480,1,99,9",,,"08,99,1,99,9,99,9,99999,9,99,9,99,9",,"09970,1,99999,9","71,1",,,,"MET057METAR ENNO 030850Z VRB02KT 5000 -SN OVC016 M04/M07 Q0997;",
"01470399999","2010-02-03T09:50:00","4","59.565683","9.212222","19.2","NOTODDEN, NO","FM-15","ENNO ","V020","280,1,N,0041,1","00510,1,C,N","008000,1,N,1","-0040,1","-0070,1","99999,9","08,5,+00510,1,99,9",,,"08,99,1,99,9,99,9,99999,9,99,9,99,9",,"09980,1,99999,9","71,1",,,,"MET057METAR ENNO 030950Z 28008KT 8000 -SN OVC017 M04/M07 Q0998;",
"01470399999","2010-02-03T10:50:00","4","59.565683","9.212222","19.2","NOTODDEN, NO","FM-15","ENNO ","V020","300,1,N,0046,1","00600,1,9,N","009000,1,N,1","-0030,1","-0070,1","99999,9","09,1,+00600,1,99,9",,,"09,99,1,99,9,99,9,00025,1,99,9,99,9",,"09980,1,99999,9","71,1",,,,"MET056METAR ENNO 031050Z 30009KT 9000 -SN VV020 M03/M07 Q0998;",
"01470399999","2010-02-03T11:50:00","4","59.565683","9.212222","19.2","NOTODDEN, NO","FM-15","ENNO ","V020","300,1,N,0031,1","00900,1,C,N","009000,1,N,1","-0030,1","-0070,1","99999,9","02,5,+00450,1,99,9","08,5,+00900,1,99,9",,"08,99,1,99,9,99,9,99999,9,99,9,99,9",,"09990,1,99999,9","71,1",,,,"MET072METAR ENNO 031150Z 30006KT 230V350 9000 -SN FEW015 OVC030 M03/M07 Q0999;",
"01470399999","2010-02-03T12:50:00","4","59.565683","9.212222","19.2","NOTODDEN, NO","FM-15","ENNO ","V020","300,1,N,0041,1","00900,1,C,N","009000,1,N,1","-0020,1","-0060,1","99999,9","02,5,+00450,1,99,9","08,5,+00900,1,99,9",,"08,99,1,99,9,99,9,99999,9,99,9,99,9",,"09990,1,99999,9","71,1",,,,"MET064METAR ENNO 031250Z 30008KT 9000 -SN FEW015 OVC030 M02/M06 Q0999;",
"01470399999","2010-02-03T13:50:00","4","59.565683","9.212222","19.2","NOTODDEN, NO","FM-15","ENNO ","V020","300,1,N,0036,1","00600,1,9,N","009000,1,N,1","-0020,1","-0060,1","99999,9","09,1,+00600,1,99,9",,,"09,99,1,99,9,99,9,00025,1,99,9,99,9",,"10000,1,99999,9","71,1",,,,"MET064METAR ENNO 031350Z 30007KT 260V360 9000 -SN VV020 M02/M06 Q1000;",
"01470399999","2010-02-03T14:50:00","4","59.565683","9.212222","19.2","NOTODDEN, NO","FM-15","ENNO ","V020","300,1,N,0031,1","00600,1,9,N","011265,1,N,1","-0020,1","-0060,1","99999,9","09,1,+00600,1,99,9",,,"09,99,1,99,9,99,9,00025,1,99,9,99,9",,"10010,1,99999,9","71,1",,,,"MET056METAR ENNO 031450Z 30006KT 9999 -SN VV020 M02/M06 Q1001;",
"01470399999","2010-02-03T15:50:00","4","59.565683","9.212222","19.2","NOTODDEN, NO","FM-15","ENNO ","V020","300,1,N,0021,1","00750,1,9,N","011265,1,N,1","-0030,1","-0060,1","99999,9","09,1,+00750,1,99,9",,,"09,99,1,99,9,99,9,00025,1,99,9,99,9",,"10020,1,99999,9","71,1",,,,"MET056METAR ENNO 031550Z 30004KT 9999 -SN VV025 M03/M06 Q1002;",
"01470399999","2010-02-03T16:50:00","4","59.565683","9.212222","19.2","NOTODDEN, NO","FM-15","ENNO ","V020","290,1,N,0036,1","99999,9,C,N","011265,1,N,1","-0020,1","-0060,1","99999,9","02,5,+00540,1,99,9","04,5,+01140,1,99,9",,"04,99,1,99,9,99,9,99999,9,99,9,99,9",,"10020,1,99999,9",,,,,"MET060METAR ENNO 031650Z 29007KT 9999 FEW018 SCT038 M02/M06 Q1002;","P01 011403SCOCIG"
"01470399999","2010-02-04T03:50:00","4","59.565683","9.212222","19.2","NOTODDEN, NO","FM-15","ENNO ","V020","290,1,N,0031,1","02580,5,C,N","011265,1,N,1","-0060,1","-0090,1","99999,9","02,5,+01200,1,99,9","08,5,+02580,5,99,9",,"08,99,1,99,9,99,9,99999,9,99,9,99,9",,"10102,1,99999,9",,,,,"MET060METAR ENNO 040350Z 29006KT 9999 FEW040 OVC086 M06/M09 Q1010;",
"01470399999","2010-02-04T04:50:00","4","59.565683","9.212222","19.2","NOTODDEN, NO","FM-15","ENNO ","V020","270,1,N,0010,1","01200,1,C,N","011265,1,N,1","-0080,1","-0100,1","99999,9","07,5,+01200,1,99,9",,,"07,99,1,99,9,99,9,99999,9,99,9,99,9",,"10108,1,99999,9",,,,,"MET053METAR ENNO 040450Z 27002KT 9999 BKN040 M08/M10 Q1011;",
"01470399999","2010-02-04T05:50:00","4","59.565683","9.212222","19.2","NOTODDEN, NO","FM-15","ENNO ","V020","999,9,V,0005,1","01140,1,C,N","011265,1,N,1","-0070,1","-0090,1","99999,9","07,5,+01140,1,99,9",,,"07,99,1,99,9,99,9,99999,9,99,9,99,9",,"10119,1,99999,9",,,,,"MET053METAR ENNO 040550Z VRB01KT 9999 BKN038 M07/M09 Q1012;",
"01470399999","2010-02-04T06:50:00","4","59.565683","9.212222","19.2","NOTODDEN, NO","FM-15","ENNO ","V020","999,9,C,0000,1","01140,1,C,N","011265,1,N,1","-0070,1","-0090,1","99999,9","08,5,+01140,1,99,9",,,"08,99,1,99,9,99,9,99999,9,99,9,99,9",,"10119,1,99999,9",,,,,"MET053METAR ENNO 040650Z 00000KT 9999 OVC038 M07/M09 Q1012;",
"01470399999","2010-02-04T07:50:00","4","59.565683","9.212222","19.2","NOTODDEN, NO","FM-15","ENNO ","V020","999,9,V,0005,1","01110,1,C,N","011265,1,N,1","-0070,1","-0090,1","99999,9","08,5,+01110,1,99,9",,,"08,99,1,99,9,99,9,99999,9,99,9,99,9",,"10129,1,99999,9",,,,,"MET053METAR ENNO 040750Z VRB01KT 9999 OVC037 M07/M09 Q1013;",
"01470399999","2010-02-04T08:50:00","4","59.565683","9.212222","19.2","NOTODDEN, NO","FM-15","ENNO ","V020","999,9,C,0000,1","00930,1,C,N","011265,1,N,1","-0060,1","-0080,1","99999,9","07,5,+00930,1,99,9",,,"07,99,1,99,9,99,9,99999,9,99,9,99,9",,"10129,1,99999,9",,,,,"MET053METAR ENNO 040850Z 00000KT 9999 BKN031 M06/M08 Q1013;",
"01470399999","2010-02-04T09:50:00","4","59.565683","9.212222","19.2","NOTODDEN, NO","FM-15","ENNO ","V020","270,1,N,0015,1","00990,1,C,N","011265,1,N,1","-0060,1","-0080,1","99999,9","07,5,+00990,1,99,9",,,"07,99,1,99,9,99,9,99999,9,99,9,99,9",,"10139,1,99999,9",,,,,"MET053METAR ENNO 040950Z 27003KT 9999 BKN033 M06/M08 Q1014;",
"01470399999","2010-02-04T10:50:00","4","59.565683","9.212222","19.2","NOTODDEN, NO","FM-15","ENNO ","V020","250,1,N,0010,1","00960,1,C,N","011265,1,N,1","-0050,1","-0080,1","99999,9","07,5,+00960,1,99,9",,,"07,99,1,99,9,99,9,99999,9,99,9,99,9",,"10139,1,99999,9",,,,,"MET053METAR ENNO 041050Z 25002KT 9999 BKN032 M05/M08 Q1014;",
"01470399999","2010-02-04T11:50:00","4","59.565683","9.212222","19.2","NOTODDEN, NO","FM-15","ENNO ","V020","999,9,V,0005,1","01320,1,C,N","011265,1,N,1","-0040,1","-0080,1","99999,9","04,5,+00960,1,99,9","07,5,+01320,1,99,9",,"07,99,1,99,9,99,9,99999,9,99,9,99,9",,"10149,1,99999,9",,,,,"MET060METAR ENNO 041150Z VRB01KT 9999 SCT032 BKN044 M04/M08 Q1015;",
"01470399999","2010-02-04T13:50:00","4","59.565683","9.212222","19.2","NOTODDEN, NO","FM-15","ENNO ","V020","999,9,V,0005,1","01260,1,C,N","011265,1,N,1","-0040,1","-0080,1","99999,9","07,5,+01260,1,99,9",,,"07,99,1,99,9,99,9,99999,9,99,9,99,9",,"10149,1,99999,9",,,,,"MET053METAR ENNO 041350Z VRB01KT 9999 BKN042 M04/M08 Q1015;",
"01470399999","2010-02-04T14:50:00","4","59.565683","9.212222","19.2","NOTODDEN, NO","FM-15","ENNO ","V020","999,9,V,0005,1","01260,1,C,N","011265,1,N,1","-0040,1","-0080,1","99999,9","07,5,+01260,1,99,9",,,"07,99,1,99,9,99,9,99999,9,99,9,99,9",,"10159,1,99999,9",,,,,"MET053METAR ENNO 041450Z VRB01KT 9999 BKN042 M04/M08 Q1016;",
"01470399999","2010-02-04T15:50:00","4","59.565683","9.212222","19.2","NOTODDEN, NO","FM-15","ENNO ","V020","999,9,V,0005,1","01260,1,C,N","011265,1,N,1","-0040,1","-0070,1","99999,9","07,5,+01260,1,99,9",,,"07,99,1,99,9,99,9,99999,9,99,9,99,9",,"10159,1,99999,9",,,,,"MET053METAR ENNO 041550Z VRB01KT 9999 BKN042 M04/M07 Q1016;",
"01470399999","2010-02-05T05:50:00","4","59.565683","9.212222","19.2","NOTODDEN, NO","FM-15","ENNO ","V020","999,9,V,0005,1","00570,1,C,N","009000,1,N,1","-0050,1","-0060,1","99999,9","08,5,+00570,1,99,9",,,"08,99,1,99,9,99,9,99999,9,99,9,99,9",,"10200,1,99999,9",,,,,"MET053METAR ENNO 050550Z VRB01KT 9000 OVC019 M05/M06 Q1020;",
"01470399999","2010-02-05T06:50:00","4","59.565683","9.212222","19.2","NOTODDEN, NO","FM-15","ENNO ","V020","999,9,V,0005,1","00570,1,C,N","006000,1,N,1","-0050,1","-0060,1","99999,9","02,5,+00120,1,99,9","08,5,+00570,1,99,9",,"08,99,1,99,9,99,9,99999,9,99,9,99,9",,"10200,1,99999,9","16,1",,,,"MET065METAR ENNO 050650Z VRB01KT 6000 VCSH FEW004 OVC019 M05/M06 Q1020;",
"01470399999","2010-02-05T07:50:00","4","59.565683","9.212222","19.2","NOTODDEN, NO","FM-15","ENNO ","V020","999,9,V,0005,1","00570,1,C,N","011265,1,N,1","-0050,1","-0060,1","99999,9","02,5,+00120,1,99,9","08,5,+00570,1,99,9",,"08,99,1,99,9,99,9,99999,9,99,9,99,9",,"10210,1,99999,9",,,,,"MET067METAR ENNO 050750Z VRB01KT 9999 6000NW FEW004 OVC019 M05/M06 Q1021;",
"01470399999","2010-02-05T08:50:00","4","59.565683","9.212222","19.2","NOTODDEN, NO","FM-15","ENNO ","V020","999,9,V,0005,1","00570,1,C,N","011265,1,N,1","-0050,1","-0060,1","99999,9","02,5,+00060,1,99,9","08,5,+00570,1,99,9",,"08,99,1,99,9,99,9,99999,9,99,9,99,9",,"10210,1,99999,9",,,,,"MET067METAR ENNO 050850Z VRB01KT 9999 6000NW FEW002 OVC019 M05/M06 Q1021;",
"01470399999","2010-02-05T09:50:00","4","59.565683","9.212222","19.2","NOTODDEN, NO","FM-15","ENNO ","V020","999,9,V,0005,1","00570,1,C,N","011265,1,N,1","-0040,1","-0050,1","99999,9","02,5,+00060,1,99,9","08,5,+00570,1,99,9",,"08,99,1,99,9,99,9,99999,9,99,9,99,9",,"10210,1,99999,9",,,,,"MET067METAR ENNO 050950Z VRB01KT 9999 6000NW FEW002 OVC019 M04/M05 Q1021;",
"01470399999","2010-02-05T10:50:00","4","59.565683","9.212222","19.2","NOTODDEN, NO","FM-15","ENNO ","V020","260,1,N,0010,1","00630,1,C,N","011265,1,N,1","-0040,1","-0050,1","99999,9","08,5,+00630,1,99,9",,,"08,99,1,99,9,99,9,99999,9,99,9,99,9",,"10210,1,99999,9","16,1",,,,"MET058METAR ENNO 051050Z 26002KT 9999 VCSH OVC021 M04/M05 Q1021;",
"01470399999","2010-02-05T12:50:00","4","59.565683","9.212222","19.2","NOTODDEN, NO","FM-15","ENNO ","V020","290,1,N,0010,1","00600,1,C,N","009000,1,N,1","-0030,1","-0050,1","99999,9","08,5,+00600,1,99,9",,,"08,99,1,99,9,99,9,99999,9,99,9,99,9",,"10210,1,99999,9",,,,,"MET053METAR ENNO 051250Z 29002KT 9000 OVC020 M03/M05 Q1021;",
"01470399999","2010-02-05T13:50:00","4","59.565683","9.212222","19.2","NOTODDEN, NO","FM-15","ENNO ","V020","999,9,C,0000,1","00600,1,C,N","011265,1,N,1","-0020,1","-0040,1","99999,9","08,5,+00600,1,99,9",,,"08,99,1,99,9,99,9,99999,9,99,9,99,9",,"10200,1,99999,9",,,,,"MET053METAR ENNO 051350Z 00000KT 9999 OVC020 M02/M04 Q1020;",
"01470399999","2010-02-05T14:50:00","4","59.565683","9.212222","19.2","NOTODDEN, NO","FM-15","ENNO ","V020","999,9,V,0005,1","00690,1,C,N","011265,1,N,1","-0020,1","-0040,1","99999,9","08,5,+00690,1,99,9",,,"08,99,1,99,9,99,9,99999,9,99,9,99,9",,"10200,1,99999,9",,,,,"MET053METAR ENNO 051450Z VRB01KT 9999 OVC023 M02/M04 Q1020;",
"01470399999","2010-02-05T15:50:00","4","59.565683","9.212222","19.2","NOTODDEN, NO","FM-15","ENNO ","V020","090,1,N,0031,1","00630,1,C,N","011265,1,N,1","-0020,1","-0050,1","99999,9","08,5,+00630,1,99,9",,,"08,99,1,99,9,99,9,99999,9,99,9,99,9",,"10210,1,99999,9",,,,,"MET053METAR ENNO 051550Z 09006KT 9999 OVC021 M02/M05 Q1021;",
"01470399999","2010-02-05T16:50:00","4","59.565683","9.212222","19.2","NOTODDEN, NO","FM-15","ENNO ","V020","080,1,N,0031,1","00540,1,C,N","011265,1,N,1","-0020,1","-0050,1","99999,9","08,5,+00540,1,99,9",,,"08,99,1,99,9,99,9,99999,9,99,9,99,9",,"10220,1,99999,9",,,,,"MET053METAR ENNO 051650Z 08006KT 9999 OVC018 M02/M05 Q1022;",
"01470399999","2010-02-07T17:50:00","4","59.565683","9.212222","19.2","NOTODDEN, NO","FM-15","ENNO ","V020","999,9,V,0005,1","99999,9,9,Y","009900,1,N,1","-0110,1","-0130,1","99999,9",,,,,,"10261,1,99999,9",,,,,"MET047METAR ENNO 071750Z VRB01KT CAVOK M11/M13 Q1026;",
"01470399999","2010-02-07T18:50:00","4","59.565683","9.212222","19.2","NOTODDEN, NO","FM-15","ENNO ","V020","999,9,C,0000,1","99999,9,9,Y","009900,1,N,1","-0120,1","-0130,1","99999,9",,,,,,"10261,1,99999,9",,,,,"MET047METAR ENNO 071850Z 00000KT CAVOK M12/M13 Q1026;",
"01470399999","2010-02-08T05:50:00","4","59.565683","9.212222","19.2","NOTODDEN, NO","FM-15","ENNO ","V020","999,9,C,0000,1","99999,9,9,Y","009900,1,N,1","-0180,1","-0200,1","99999,9",,,,,,"10200,1,99999,9",,,,,"MET047METAR ENNO 080550Z 00000KT CAVOK M18/M20 Q1020;",
"01470399999","2010-02-08T06:50:00","4","59.565683","9.212222","19.2","NOTODDEN, NO","FM-15","ENNO ","V020","999,9,V,0005,1","99999,9,9,Y","009900,1,N,1","-0180,1","-0200,1","99999,9",,,,,,"10200,1,99999,9",,,,,"MET047METAR ENNO 080650Z VRB01KT CAVOK M18/M20 Q1020;",
"01470399999","2010-02-08T08:20:00","4","59.565683","9.212222","19.2","NOTODDEN, NO","FM-15","ENNO ","V020","999,9,C,0000,1","99999,9,9,Y","009900,1,N,1","-0170,1","-0190,1","99999,9",,,,,,"10190,1,99999,9",,,,,"MET047METAR ENNO 080820Z 00000KT CAVOK M17/M19 Q1019;",
"01470399999","2010-02-08T08:50:00","4","59.565683","9.212222","19.2","NOTODDEN, NO","FM-15","ENNO ","V020","300,1,N,0005,1","99999,9,9,Y","009900,1,N,1","-0170,1","-0190,1","99999,9",,,,,,"10190,1,99999,9",,,,,"MET047METAR ENNO 080850Z 30001KT CAVOK M17/M19 Q1019;",
"01470399999","2010-02-08T09:50:00","4","59.565683","9.212222","19.2","NOTODDEN, NO","FM-15","ENNO ","V020","280,1,N,0010,1","99999,9,9,Y","009900,1,N,1","-0150,1","-0170,1","99999,9",,,,,,"10180,1,99999,9",,,,,"MET047METAR ENNO 080950Z 28002KT CAVOK M15/M17 Q1018;",
"01470399999","2010-02-08T10:50:00","4","59.565683","9.212222","19.2","NOTODDEN, NO","FM-15","ENNO ","V020","290,1,N,0005,1","99999,9,9,Y","009900,1,N,1","-0120,1","-0130,1","99999,9",,,,,,"10169,1,99999,9",,,,,"MET047METAR ENNO 081050Z 29001KT CAVOK M12/M13 Q1017;",
"01470399999","2010-02-08T11:50:00","4","59.565683","9.212222","19.2","NOTODDEN, NO","FM-15","ENNO ","V020","270,1,N,0010,1","99999,9,9,Y","009900,1,N,1","-0100,1","-0120,1","99999,9",,,,,,"10159,1,99999,9",,,,,"MET047METAR ENNO 081150Z 27002KT CAVOK M10/M12 Q1016;",
"01470399999","2010-02-08T12:50:00","4","59.565683","9.212222","19.2","NOTODDEN, NO","FM-15","ENNO ","V020","999,9,C,0000,1","99999,9,9,Y","009900,1,N,1","-0060,1","-0090,1","99999,9",,,,,,"10149,1,99999,9",,,,,"MET047METAR ENNO 081250Z 00000KT CAVOK M06/M09 Q1015;",
"01470399999","2010-02-08T13:50:00","4","59.565683","9.212222","19.2","NOTODDEN, NO","FM-15","ENNO ","V020","999,9,C,0000,1","99999,9,9,Y","009900,1,N,1","-0070,1","-0100,1","99999,9",,,,,,"10139,1,99999,9",,,,,"MET047METAR ENNO 081350Z 00000KT CAVOK M07/M10 Q1014;",
"01470399999","2010-02-08T14:50:00","4","59.565683","9.212222","19.2","NOTODDEN, NO","FM-15","ENNO ","V020","999,9,C,0000,1","99999,9,9,Y","009900,1,N,1","-0080,1","-0110,1","99999,9",,,,,,"10139,1,99999,9",,,,,"MET047METAR ENNO 081450Z 00000KT CAVOK M08/M11 Q1014;",
"01470399999","2010-02-08T15:50:00","4","59.565683","9.212222","19.2","NOTODDEN, NO","FM-15","ENNO ","V020","999,9,C,0000,1","99999,9,9,Y","009900,1,N,1","-0100,1","-0110,1","99999,9",,,,,,"10129,1,99999,9",,,,,"MET047METAR ENNO 081550Z 00000KT CAVOK M10/M11 Q1013;",
"01470399999","2010-02-08T16:50:00","4","59.565683","9.212222","19.2","NOTODDEN, NO","FM-15","ENNO ","V020","999,9,V,0010,1","99999,9,9,Y","009900,1,N,1","-0130,1","-0140,1","99999,9",,,,,,"10129,1,99999,9",,,,,"MET047METAR ENNO 081650Z VRB02KT CAVOK M13/M14 Q1013;",
"01470399999","2010-02-09T05:50:00","4","59.565683","9.212222","19.2","NOTODDEN, NO","FM-15","ENNO ","V020","999,9,V,0010,1","99999,9,C,N","011265,1,N,1","-0160,1","-0180,1","99999,9","02,5,+00180,1,99,9","04,5,+00630,1,99,9","04,5,+01860,5,99,9","04,99,1,99,9,99,9,99999,9,99,9,99,9",,"10108,1,99999,9",,,,,"MET072METAR ENNO 090550Z VRB02KT 9999 FEW006 SCT021 SCT062 M16/M18 Q1011 RESN;","P01 006303SCOCIG"
"01470399999","2010-02-09T06:50:00","4","59.565683","9.212222","19.2","NOTODDEN, NO","FM-15","ENNO ","V020","290,1,N,0015,1","01860,5,C,N","011265,1,N,1","-0160,1","-0180,1","99999,9","04,5,+00630,1,99,9","07,5,+01860,5,99,9",,"07,99,1,99,9,99,9,99999,9,99,9,99,9",,"10108,1,99999,9",,,,,"MET060METAR ENNO 090650Z 29003KT 9999 SCT021 BKN062 M16/M18 Q1011;",
"01470399999","2010-02-09T07:50:00","4","59.565683","9.212222","19.2","NOTODDEN, NO","FM-15","ENNO ","V020","270,1,N,0015,1","99999,9,C,N","011265,1,N,1","-0160,1","-0180,1","99999,9","02,5,+00600,1,99,9","04,5,+01800,1,99,9","04,5,+03300,1,99,9","04,99,1,99,9,99,9,99999,9,99,9,99,9",,"10108,1,99999,9",,,,,"MET075METAR ENNO 090750Z 27003KT 230V290 9999 FEW020 SCT060 SCT110 M16/M18 Q1011;","P01 018003SCOCIG"
"01470399999","2010-02-09T08:50:00","4","59.565683","9.212222","19.2","NOTODDEN, NO","FM-15","ENNO ","V020","999,9,C,0000,1","99999,9,C,N","011265,1,N,1","-0140,1","-0150,1","99999,9","02,5,+00600,1,99,9","04,5,+01800,1,99,9","04,5,+03300,1,99,9","04,99,1,99,9,99,9,99999,9,99,9,99,9",,"10119,1,99999,9",,,,,"MET067METAR ENNO 090850Z 00000KT 9999 FEW020 SCT060 SCT110 M14/M15 Q1012;","P01 018003SCOCIG"
"01470399999","2010-02-09T09:50:00","4","59.565683","9.212222","19.2","NOTODDEN, NO","FM-15","ENNO ","V020","290,1,N,0015,1","99999,9,C,N","011265,1,N,1","-0140,1","-0150,1","99999,9","04,5,+01800,1,99,9","04,5,+03300,1,99,9",,"04,99,1,99,9,99,9,99999,9,99,9,99,9",,"10119,1,99999,9",,,,,"MET068METAR ENNO 090950Z 29003KT 250V320 9999 SCT060 SCT110 M14/M15 Q1012;","P01 033003SCOCIG"
"01470399999","2010-02-09T10:50:00","4","59.565683","9.212222","19.2","NOTODDEN, NO","FM-15","ENNO ","V020","999,9,C,0000,1","99999,9,9,Y","009900,1,N,1","-0120,1","-0130,1","99999,9",,,,,,"10119,1,99999,9",,,,,"MET047METAR ENNO 091050Z 00000KT CAVOK M12/M13 Q1012;",
"01470399999","2010-02-09T11:50:00","4","59.565683","9.212222","19.2","NOTODDEN, NO","FM-15","ENNO ","V020","999,9,V,0010,1","01710,5,C,N","011265,1,N,1","-0090,1","-0110,1","99999,9","07,5,+01710,5,99,9",,,"07,99,1,99,9,99,9,99999,9,99,9,99,9",,"10119,1,99999,9",,,,,"MET053METAR ENNO 091150Z VRB02KT 9999 BKN057 M09/M11 Q1012;",
"01470399999","2010-02-09T12:50:00","4","59.565683","9.212222","19.2","NOTODDEN, NO","FM-15","ENNO ","V020","999,9,V,0010,1","01830,5,C,N","011265,1,N,1","-0080,1","-0090,1","99999,9","07,5,+01830,5,99,9",,,"07,99,1,99,9,99,9,99999,9,99,9,99,9",,"10119,1,99999,9","16,1",,,,"MET058METAR ENNO 091250Z VRB02KT 9999 VCSH BKN061 M08/M09 Q1012;",
"01470399999","2010-02-09T13:50:00","4","59.565683","9.212222","19.2","NOTODDEN, NO","FM-15","ENNO ","V020","330,1,N,0041,1","00900,1,C,N","011265,1,N,1","-0020,1","-0070,1","99999,9","02,5,+00540,1,99,9","04,5,+00900,1,99,9","07,5,+01530,5,99,9","07,99,1,99,9,99,9,99999,9,99,9,99,9",,"10119,1,99999,9","71,1",,,,"MET071METAR ENNO 091350Z 33008KT 9999 -SN FEW018 SCT030 BKN051 M02/M07 Q1012;",
"01470399999","2010-02-09T14:50:00","4","59.565683","9.212222","19.2","NOTODDEN, NO","FM-15","ENNO ","V020","290,1,N,0041,1","00900,1,C,N","009000,1,N,1","-0020,1","-0060,1","99999,9","08,5,+00900,1,99,9",,,"08,99,1,99,9,99,9,99999,9,99,9,99,9",,"10129,1,99999,9","71,1",,,,"MET057METAR ENNO 091450Z 29008KT 9000 -SN OVC030 M02/M06 Q1013;",
"01470399999","2010-02-09T15:50:00","4","59.565683","9.212222","19.2","NOTODDEN, NO","FM-15","ENNO ","V020","300,1,N,0036,1","00900,1,C,N","011265,1,N,1","-0020,1","-0070,1","99999,9","07,5,+00900,1,99,9","08,5,+02100,1,99,9",,"08,99,1,99,9,99,9,99999,9,99,9,99,9",,"10129,1,99999,9",,,,,"MET060METAR ENNO 091550Z 30007KT 9999 BKN030 OVC070 M02/M07 Q1013;",
"01470399999","2010-02-09T16:50:00","4","59.565683","9.212222","19.2","NOTODDEN, NO","FM-15","ENNO ","V020","320,1,N,0041,1","00450,1,9,N","004000,1,N,1","-0030,1","-0060,1","99999,9","09,1,+00450,1,99,9",,,"09,99,1,99,9,99,9,00025,1,99,9,99,9",,"10139,1,99999,9","73,1",,,,"MET055METAR ENNO 091650Z 32008KT 4000 SN VV015 M03/M06 Q1014;",
"01470399999","2010-02-10T05:50:00","4","59.565683","9.212222","19.2","NOTODDEN, NO","FM-15","ENNO ","V020","310,1,N,0010,1","99999,9,9,Y","009900,1,N,1","-0140,1","-0150,1","99999,9",,,,,,"10220,1,99999,9",,,,,"MET047METAR ENNO 100550Z 31002KT CAVOK M14/M15 Q1022;",
"01470399999","2010-02-10T06:50:00","4","59.565683","9.212222","19.2","NOTODDEN, NO","FM-15","ENNO ","V020","999,9,C,0000,1","99999,9,9,Y","009900,1,N,1","-0150,1","-0160,1","99999,9",,,,,,"10230,1,99999,9",,,,,"MET047METAR ENNO 100650Z 00000KT CAVOK M15/M16 Q1023;",
"01470399999","2010-02-10T07:50:00","4","59.565683","9.212222","19.2","NOTODDEN, NO","FM-15","ENNO ","V020","999,9,V,0005,1","99999,9,9,Y","009900,1,N,1","-0160,1","-0170,1","99999,9",,,,,,"10230,1,99999,9",,,,,"MET047METAR ENNO 100750Z VRB01KT CAVOK M16/M17 Q1023;",
"01470399999","2010-02-10T08:50:00","4","59.565683","9.212222","19.2","NOTODDEN, NO","FM-15","ENNO ","V020","270,1,N,0005,1","99999,9,9,Y","009900,1,N,1","-0140,1","-0160,1","99999,9",,,,,,"10240,1,99999,9",,,,,"MET047METAR ENNO 100850Z 27001KT CAVOK M14/M16 Q1024;",
"01470399999","2010-02-10T09:50:00","4","59.565683","9.212222","19.2","NOTODDEN, NO","FM-15","ENNO ","V020","999,9,C,0000,1","99999,9,9,Y","009900,1,N,1","-0120,1","-0130,1","99999,9",,,,,,"10240,1,99999,9",,,,,"MET047METAR ENNO 100950Z 00000KT CAVOK M12/M13 Q1024;",
"01470399999","2010-02-10T10:50:00","4","59.565683","9.212222","19.2","NOTODDEN, NO","FM-15","ENNO ","V020","999,9,C,0000,1","99999,9,9,Y","009900,1,N,1","-0090,1","-0120,1","99999,9",,,,,,"10240,1,99999,9",,,,,"MET047METAR ENNO 101050Z 00000KT CAVOK M09/M12 Q1024;",
"01470399999","2010-02-10T11:50:00","4","59.565683","9.212222","19.2","NOTODDEN, NO","FM-15","ENNO ","V020","999,9,V,0010,1","99999,9,9,Y","009900,1,N,1","-0070,1","-0120,1","99999,9",,,,,,"10230,1,99999,9",,,,,"MET047METAR ENNO 101150Z VRB02KT CAVOK M07/M12 Q1023;",
"01470399999","2010-02-10T12:50:00","4","59.565683","9.212222","19.2","NOTODDEN, NO","FM-15","ENNO ","V020","999,9,C,0000,1","99999,9,9,Y","009900,1,N,1","-0040,1","-0120,1","99999,9",,,,,,"10230,1,99999,9",,,,,"MET047METAR ENNO 101250Z 00000KT CAVOK M04/M12 Q1023;",
"01470399999","2010-02-10T13:50:00","4","59.565683","9.212222","19.2","NOTODDEN, NO","FM-15","ENNO ","V020","999,9,C,0000,1","99999,9,9,Y","009900,1,N,1","-0060,1","-0120,1","99999,9",,,,,,"10220,1,99999,9",,,,,"MET047METAR ENNO 101350Z 00000KT CAVOK M06/M12 Q1022;",
"01470399999","2010-02-10T14:50:00","4","59.565683","9.212222","19.2","NOTODDEN, NO","FM-15","ENNO ","V020","999,9,C,0000,1","99999,9,9,Y","009900,1,N,1","-0070,1","-0110,1","99999,9",,,,,,"10220,1,99999,9",,,,,"MET047METAR ENNO 101450Z 00000KT CAVOK M07/M11 Q1022;",
"01470399999","2010-02-10T15:50:00","4","59.565683","9.212222","19.2","NOTODDEN, NO","FM-15","ENNO ","V020","999,9,C,0000,1","99999,9,9,Y","009900,1,N,1","-0100,1","-0120,1","99999,9",,,,,,"10220,1,99999,9",,,,,"MET047METAR ENNO 101550Z 00000KT CAVOK M10/M12 Q1022;",
"01470399999","2010-02-10T16:50:00","4","59.565683","9.212222","19.2","NOTODDEN, NO","FM-15","ENNO ","V020","999,9,C,0000,1","99999,9,9,Y","009900,1,N,1","-0120,1","-0130,1","99999,9",,,,,,"10220,1,99999,9",,,,,"MET047METAR ENNO 101650Z 00000KT CAVOK M12/M13 Q1022;",
"01470399999","2010-02-11T05:50:00","4","59.565683","9.212222","19.2","NOTODDEN, NO","FM-15","ENNO ","V020","999,9,V,0010,1","99999,9,9,Y","009900,1,N,1","-0130,1","-0150,1","99999,9",,,,,,"10200,1,99999,9",,,,,"MET047METAR ENNO 110550Z VRB02KT CAVOK M13/M15 Q1020;",
"01470399999","2010-02-11T06:50:00","4","59.565683","9.212222","19.2","NOTODDEN, NO","FM-15","ENNO ","V020","999,9,V,0010,1","99999,9,9,Y","009900,1,N,1","-0130,1","-0140,1","99999,9",,,,,,"10200,1,99999,9",,,,,"MET047METAR ENNO 110650Z VRB02KT CAVOK M13/M14 Q1020;",
"01470399999","2010-02-11T07:50:00","4","59.565683","9.212222","19.2","NOTODDEN, NO","FM-15","ENNO ","V020","999,9,V,0005,1","99999,9,9,Y","009900,1,N,1","-0130,1","-0140,1","99999,9",,,,,,"10200,1,99999,9",,,,,"MET047METAR ENNO 110750Z VRB01KT CAVOK M13/M14 Q1020;",
"01470399999","2010-02-11T08:50:00","4","59.565683","9.212222","19.2","NOTODDEN, NO","FM-15","ENNO ","V020","999,9,V,0005,1","99999,9,9,Y","009900,1,N,1","-0120,1","-0130,1","99999,9",,,,,,"10200,1,99999,9",,,,,"MET047METAR ENNO 110850Z VRB01KT CAVOK M12/M13 Q1020;",
"01470399999","2010-02-11T09:50:00","4","59.565683","9.212222","19.2","NOTODDEN, NO","FM-15","ENNO ","V020","999,9,V,0005,1","99999,9,9,Y","009900,1,N,1","-0110,1","-0130,1","99999,9",,,,,,"10200,1,99999,9",,,,,"MET047METAR ENNO 110950Z VRB01KT CAVOK M11/M13 Q1020;",
"01470399999","2010-02-11T10:50:00","4","59.565683","9.212222","19.2","NOTODDEN, NO","FM-15","ENNO ","V020","999,9,V,0010,1","99999,9,9,Y","009900,1,N,1","-0090,1","-0120,1","99999,9",,,,,,"10200,1,99999,9",,,,,"MET047METAR ENNO 111050Z VRB02KT CAVOK M09/M12 Q1020;",
"01470399999","2010-02-11T11:50:00","4","59.565683","9.212222","19.2","NOTODDEN, NO","FM-15","ENNO ","V020","270,1,N,0005,1","99999,9,9,Y","009900,1,N,1","-0080,1","-0110,1","99999,9",,,,,,"10200,1,99999,9",,,,,"MET047METAR ENNO 111150Z 27001KT CAVOK M08/M11 Q1020;",
"01470399999","2010-02-11T12:50:00","4","59.565683","9.212222","19.2","NOTODDEN, NO","FM-15","ENNO ","V020","270,1,N,0015,1","99999,9,9,Y","009900,1,N,1","-0060,1","-0110,1","99999,9",,,,,,"10200,1,99999,9",,,,,"MET047METAR ENNO 111250Z 27003KT CAVOK M06/M11 Q1020;",
"01470399999","2010-02-11T13:50:00","4","59.565683","9.212222","19.2","NOTODDEN, NO","FM-15","ENNO ","V020","270,1,N,0015,1","99999,9,9,Y","009900,1,N,1","-0060,1","-0110,1","99999,9",,,,,,"10200,1,99999,9",,,,,"MET047METAR ENNO 111350Z 27003KT CAVOK M06/M11 Q1020;",
"01470399999","2010-02-11T14:50:00","4","59.565683","9.212222","19.2","NOTODDEN, NO","FM-15","ENNO ","V020","999,9,C,0000,1","99999,9,9,Y","009900,1,N,1","-0040,1","-0100,1","99999,9",,,,,,"10200,1,99999,9",,,,,"MET047METAR ENNO 111450Z 00000KT CAVOK M04/M10 Q1020;",
"01470399999","2010-02-11T15:50:00","4","59.565683","9.212222","19.2","NOTODDEN, NO","FM-15","ENNO ","V020","999,9,C,0000,1","99999,9,9,Y","009900,1,N,1","-0090,1","-0120,1","99999,9",,,,,,"10200,1,99999,9",,,,,"MET047METAR ENNO 111550Z 00000KT CAVOK M09/M12 Q1020;",
"01470399999","2010-02-11T16:50:00","4","59.565683","9.212222","19.2","NOTODDEN, NO","FM-15","ENNO ","V020","300,1,N,0005,1","99999,9,9,Y","009900,1,N,1","-0110,1","-0120,1","99999,9",,,,,,"10200,1,99999,9",,,,,"MET047METAR ENNO 111650Z 30001KT CAVOK M11/M12 Q1020;",
"01470399999","2010-02-11T17:50:00","4","59.565683","9.212222","19.2","NOTODDEN, NO","FM-15","ENNO ","V020","999,9,V,0005,1","99999,9,9,Y","009900,1,N,1","-0120,1","-0130,1","99999,9",,,,,,"10220,1,99999,9",,,,,"MET047METAR ENNO 111750Z VRB01KT CAVOK M12/M13 Q1022;",
"01470399999","2010-02-11T18:50:00","4","59.565683","9.212222","19.2","NOTODDEN, NO","FM-15","ENNO ","V020","999,9,C,0000,1","99999,9,9,Y","009900,1,N,1","-0130,1","-0140,1","99999,9",,,,,,"10220,1,99999,9",,,,,"MET047METAR ENNO 111850Z 00000KT CAVOK M13/M14 Q1022;",
"01470399999","2010-02-12T05:50:00","4","59.565683","9.212222","19.2","NOTODDEN, NO","FM-15","ENNO ","V020","999,9,V,0005,1","22000,1,9,N","011265,1,N,1","-0130,1","-0150,1","99999,9","02,5,+02100,1,99,9",,,"02,99,1,99,9,99,9,99999,9,99,9,99,9",,"10281,1,99999,9",,,,,"MET053METAR ENNO 120550Z VRB01KT 9999 FEW070 M13/M15 Q1028;",
"01470399999","2010-02-12T06:50:00","4","59.565683","9.212222","19.2","NOTODDEN, NO","FM-15","ENNO ","V020","270,1,N,0010,1","22000,1,9,N","011265,1,N,1","-0150,1","-0160,1","99999,9","02,5,+01200,1,99,9",,,"02,99,1,99,9,99,9,99999,9,99,9,99,9",,"10281,1,99999,9",,,,,"MET053METAR ENNO 120650Z 27002KT 9999 FEW040 M15/M16 Q1028;",
"01470399999","2010-02-12T07:50:00","4","59.565683","9.212222","19.2","NOTODDEN, NO","FM-15","ENNO ","V020","999,9,C,0000,1","99999,9,9,Y","009900,1,N,1","-0140,1","-0160,1","99999,9",,,,,,"10291,1,99999,9",,,,,"MET047METAR ENNO 120750Z 00000KT CAVOK M14/M16 Q1029;",
"01470399999","2010-02-12T08:50:00","4","59.565683","9.212222","19.2","NOTODDEN, NO","FM-15","ENNO ","V020","999,9,C,0000,1","99999,9,9,Y","009900,1,N,1","-0130,1","-0140,1","99999,9",,,,,,"10291,1,99999,9",,,,,"MET047METAR ENNO 120850Z 00000KT CAVOK M13/M14 Q1029;",
"01470399999","2010-02-12T09:50:00","4","59.565683","9.212222","19.2","NOTODDEN, NO","FM-15","ENNO ","V020","999,9,C,0000,1","99999,9,9,Y","009900,1,N,1","-0090,1","-0110,1","99999,9",,,,,,"10291,1,99999,9",,,,,"MET047METAR ENNO 120950Z 00000KT CAVOK M09/M11 Q1029;",
"01470399999","2010-02-12T10:50:00","4","59.565683","9.212222","19.2","NOTODDEN, NO","FM-15","ENNO ","V020","999,9,C,0000,1","99999,9,9,Y","009900,1,N,1","-0070,1","-0090,1","99999,9",,,,,,"10291,1,99999,9",,,,,"MET047METAR ENNO 121050Z 00000KT CAVOK M07/M09 Q1029;",
"01470399999","2010-02-12T11:50:00","4","59.565683","9.212222","19.2","NOTODDEN, NO","FM-15","ENNO ","V020","999,9,9,9999,9","99999,9,9,Y","009900,1,N,1","-0040,1","-0080,1","99999,9",,,,,,"10290,1,99999,9",,,,,"MET045METAR ENNO 121150Z VRBKT CAVOK M04/M08 Q1029;",
"01470399999","2010-02-12T12:50:00","4","59.565683","9.212222","19.2","NOTODDEN, NO","FM-15","ENNO ","V020","280,1,N,0010,1","99999,9,9,Y","009900,1,N,1","-0030,1","-0070,1","99999,9",,,,,,"10291,1,99999,9",,,,,"MET047METAR ENNO 121250Z 28002KT CAVOK M03/M07 Q1029;",
"01470399999","2010-02-12T13:50:00","4","59.565683","9.212222","19.2","NOTODDEN, NO","FM-15","ENNO ","V020","999,9,V,0010,1","99999,9,9,Y","009900,1,N,1","-0040,1","-0070,1","99999,9",,,,,,"10281,1,99999,9",,,,,"MET047METAR ENNO 121350Z VRB02KT CAVOK M04/M07 Q1028;",
"01470399999","2010-02-12T14:50:00","4","59.565683","9.212222","19.2","NOTODDEN, NO","FM-15","ENNO ","V020","999,9,C,0000,1","99999,9,9,Y","009900,1,N,1","-0030,1","-0070,1","99999,9",,,,,,"10281,1,99999,9",,,,,"MET047METAR ENNO 121450Z 00000KT CAVOK M03/M07 Q1028;",
"01470399999","2010-02-12T15:50:00","4","59.565683","9.212222","19.2","NOTODDEN, NO","FM-15","ENNO ","V020","999,9,C,0000,1","99999,9,9,Y","009900,1,N,1","-0060,1","-0090,1","99999,9",,,,,,"10281,1,99999,9",,,,,"MET047METAR ENNO 121550Z 00000KT CAVOK M06/M09 Q1028;",
"01470399999","2010-02-12T16:50:00","4","59.565683","9.212222","19.2","NOTODDEN, NO","FM-15","ENNO ","V020","999,9,C,0000,1","99999,9,9,Y","009900,1,N,1","-0080,1","-0100,1","99999,9",,,,,,"10281,1,99999,9",,,,,"MET047METAR ENNO 121650Z 00000KT CAVOK M08/M10 Q1028;",
"01470399999","2010-02-14T16:50:00","4","59.565683","9.212222","19.2","NOTODDEN, NO","FM-15","ENNO ","V020","999,9,C,0000,1","01620,5,C,N","011265,1,N,1","-0030,1","-0050,1","99999,9","02,5,+01290,1,99,9","07,5,+01620,5,99,9",,"07,99,1,99,9,99,9,99999,9,99,9,99,9",,"10169,1,99999,9",,,,,"MET060METAR ENNO 141650Z 00000KT 9999 FEW043 BKN054 M03/M05 Q1017;",
"01470399999","2010-02-14T17:50:00","4","59.565683","9.212222","19.2","NOTODDEN, NO","FM-15","ENNO ","V020","999,9,V,0010,1","01560,5,C,N","011265,1,N,1","-0030,1","-0040,1","99999,9","02,5,+01290,1,99,9","07,5,+01560,5,99,9",,"07,99,1,99,9,99,9,99999,9,99,9,99,9",,"10169,1,99999,9",,,,,"MET060METAR ENNO 141750Z VRB02KT 9999 FEW043 BKN052 M03/M04 Q1017;",
"01470399999","2010-02-14T18:50:00","4","59.565683","9.212222","19.2","NOTODDEN, NO","FM-15","ENNO ","V020","999,9,C,0000,1","01560,5,C,N","011265,1,N,1","-0030,1","-0050,1","99999,9","02,5,+01290,1,99,9","07,5,+01560,5,99,9",,"07,99,1,99,9,99,9,99999,9,99,9,99,9",,"10169,1,99999,9",,,,,"MET060METAR ENNO 141850Z 00000KT 9999 FEW043 BKN052 M03/M05 Q1017;",
"01470399999","2010-02-15T05:50:00","4","59.565683","9.212222","19.2","NOTODDEN, NO","FM-15","ENNO ","V020","999,9,C,0000,1","01260,1,C,N","011265,1,N,1","-0040,1","-0050,1","99999,9","02,5,+00240,1,99,9","07,5,+01260,1,99,9",,"07,99,1,99,9,99,9,99999,9,99,9,99,9",,"10119,1,99999,9",,,,,"MET060METAR ENNO 150550Z 00000KT 9999 FEW008 BKN042 M04/M05 Q1012;",
"01470399999","2010-02-15T06:50:00","4","59.565683","9.212222","19.2","NOTODDEN, NO","FM-15","ENNO ","V020","999,9,V,0005,1","01260,1,C,N","011265,1,N,1","-0040,1","-0050,1","99999,9","02,5,+00240,1,99,9","07,5,+01260,1,99,9",,"07,99,1,99,9,99,9,99999,9,99,9,99,9",,"10119,1,99999,9",,,,,"MET060METAR ENNO 150650Z VRB01KT 9999 FEW008 BKN042 M04/M05 Q1012;",
"01470399999","2010-02-15T07:50:00","4","59.565683","9.212222","19.2","NOTODDEN, NO","FM-15","ENNO ","V020","999,9,V,0005,1","01290,1,C,N","011265,1,N,1","-0040,1","-0050,1","99999,9","02,5,+00240,1,99,9","07,5,+01290,1,99,9",,"07,99,1,99,9,99,9,99999,9,99,9,99,9",,"10119,1,99999,9",,,,,"MET060METAR ENNO 150750Z VRB01KT 9999 FEW008 BKN043 M04/M05 Q1012;",
"01470399999","2010-02-15T08:50:00","4","59.565683","9.212222","19.2","NOTODDEN, NO","FM-15","ENNO ","V020","999,9,V,0005,1","01290,1,C,N","011265,1,N,1","-0040,1","-0050,1","99999,9","02,5,+00240,1,99,9","07,5,+01290,1,99,9",,"07,99,1,99,9,99,9,99999,9,99,9,99,9",,"10119,1,99999,9",,,,,"MET060METAR ENNO 150850Z VRB01KT 9999 FEW008 BKN043 M04/M05 Q1012;",
"01470399999","2010-02-15T09:50:00","4","59.565683","9.212222","19.2","NOTODDEN, NO","FM-15","ENNO ","V020","999,9,V,0010,1","01290,1,C,N","011265,1,N,1","-0030,1","-0040,1","99999,9","02,5,+00240,1,99,9","07,5,+01290,1,99,9",,"07,99,1,99,9,99,9,99999,9,99,9,99,9",,"10108,1,99999,9",,,,,"MET060METAR ENNO 150950Z VRB02KT 9999 FEW008 BKN043 M03/M04 Q1011;",
"01470399999","2010-02-15T10:50:00","4","59.565683","9.212222","19.2","NOTODDEN, NO","FM-15","ENNO ","V020","999,9,V,0010,1","01230,1,C,N","011265,1,N,1","-0030,1","-0040,1","99999,9","02,5,+00240,1,99,9","07,5,+01230,1,99,9",,"07,99,1,99,9,99,9,99999,9,99,9,99,9",,"10108,1,99999,9",,,,,"MET060METAR ENNO 151050Z VRB02KT 9999 FEW008 BKN041 M03/M04 Q1011;",
"01470399999","2010-02-15T11:50:00","4","59.565683","9.212222","19.2","NOTODDEN, NO","FM-15","ENNO ","V020","999,9,V,0010,1","01260,1,C,N","011265,1,N,1","-0020,1","-0030,1","99999,9","02,5,+00060,1,99,9","08,5,+01260,1,99,9",,"08,99,1,99,9,99,9,99999,9,99,9,99,9",,"10108,1,99999,9",,,,,"MET060METAR ENNO 151150Z VRB02KT 9999 FEW002 OVC042 M02/M03 Q1011;",
"01470399999","2010-02-15T12:50:00","4","59.565683","9.212222","19.2","NOTODDEN, NO","FM-15","ENNO ","V020","999,9,V,0010,1","01260,1,C,N","009000,1,N,1","-0010,1","-0030,1","99999,9","08,5,+01260,1,99,9",,,"08,99,1,99,9,99,9,99999,9,99,9,99,9",,"10108,1,99999,9","71,1",,,,"MET057METAR ENNO 151250Z VRB02KT 9000 -SN OVC042 M01/M03 Q1011;",
"01470399999","2010-02-15T13:50:00","4","59.565683","9.212222","19.2","NOTODDEN, NO","FM-15","ENNO ","V020","999,9,V,0010,1","01200,1,C,N","011265,1,N,1","-0010,1","-0030,1","99999,9","04,5,+01050,1,99,9","07,5,+01200,1,99,9",,"07,99,1,99,9,99,9,99999,9,99,9,99,9",,"10102,1,99999,9",,,,,"MET060METAR ENNO 151350Z VRB02KT 9999 SCT035 BKN040 M01/M03 Q1010;",
"01470399999","2010-02-15T16:50:00","4","59.565683","9.212222","19.2","NOTODDEN, NO","FM-15","ENNO ","V020","999,9,V,0010,1","01080,1,C,N","011265,1,N,1","-0020,1","-0030,1","99999,9","02,5,+00030,1,99,9","07,5,+01080,1,99,9",,"07,99,1,99,9,99,9,99999,9,99,9,99,9",,"10091,1,99999,9",,,,,"MET060METAR ENNO 151650Z VRB02KT 9999 FEW001 BKN036 M02/M03 Q1009;",
"01470399999","2010-02-16T05:50:00","4","59.565683","9.212222","19.2","NOTODDEN, NO","FM-15","ENNO ","V020","999,9,V,0010,1","00960,1,C,N","011265,1,N,1","-0020,1","-0060,1","99999,9","08,5,+00960,1,99,9",,,"08,99,1,99,9,99,9,99999,9,99,9,99,9",,"10081,1,99999,9",,,,,"MET053METAR ENNO 160550Z VRB02KT 9999 OVC032 M02/M06 Q1008;",
"01470399999","2010-02-16T06:50:00","4","59.565683","9.212222","19.2","NOTODDEN, NO","FM-15","ENNO ","V020","999,9,V,0010,1","00840,1,C,N","011265,1,N,1","-0030,1","-0050,1","99999,9","02,5,+00030,1,99,9","04,5,+00840,1,99,9","08,5,+01050,1,99,9","08,99,1,99,9,99,9,99999,9,99,9,99,9",,"10081,1,99999,9",,,,,"MET067METAR ENNO 160650Z VRB02KT 9999 FEW001 SCT028 OVC035 M03/M05 Q1008;",
"01470399999","2010-02-16T08:50:00","4","59.565683","9.212222","19.2","NOTODDEN, NO","FM-15","ENNO ","V020","110,1,N,0021,1","00780,1,C,N","011265,1,N,1","-0030,1","-0050,1","99999,9","07,5,+00780,1,99,9",,,"07,99,1,99,9,99,9,99999,9,99,9,99,9",,"10081,1,99999,9","16,1",,,,"MET058METAR ENNO 160850Z 11004KT 9999 VCSH BKN026 M03/M05 Q1008;",
"01470399999","2010-02-16T09:50:00","4","59.565683","9.212222","19.2","NOTODDEN, NO","FM-15","ENNO ","V020","999,9,V,0005,1","00780,1,C,N","011265,1,N,1","-0030,1","-0050,1","99999,9","07,5,+00780,1,99,9",,,"07,99,1,99,9,99,9,99999,9,99,9,99,9",,"10081,1,99999,9","71,1",,,,"MET057METAR ENNO 160950Z VRB01KT 9999 -SN BKN026 M03/M05 Q1008;",
"01470399999","2010-02-16T11:50:00","4","59.565683","9.212222","19.2","NOTODDEN, NO","FM-15","ENNO ","V020","310,1,N,0015,1","01050,1,C,N","011265,1,N,1","-0020,1","-0060,1","99999,9","07,5,+01050,1,99,9",,,"07,99,1,99,9,99,9,99999,9,99,9,99,9",,"10081,1,99999,9","71,1",,,,"MET057METAR ENNO 161150Z 31003KT 9999 -SN BKN035 M02/M06 Q1008;",
"01470399999","2010-02-16T13:50:00","4","59.565683","9.212222","19.2","NOTODDEN, NO","FM-15","ENNO ","V020","120,1,N,0026,1","00900,1,C,N","009000,1,N,1","-0020,1","-0060,1","99999,9","07,5,+00900,1,99,9",,,"07,99,1,99,9,99,9,99999,9,99,9,99,9",,"10081,1,99999,9","71,1",,,,"MET065METAR ENNO 161350Z 12005KT 090V150 9000 -SN BKN030 M02/M06 Q1008;",
"01470399999","2010-02-16T14:50:00","4","59.565683","9.212222","19.2","NOTODDEN, NO","FM-15","ENNO ","V020","999,9,V,0015,1","00900,1,C,N","011265,1,N,1","-0020,1","-0070,1","99999,9","07,5,+00900,1,99,9",,,"07,99,1,99,9,99,9,99999,9,99,9,99,9",,"10081,1,99999,9","71,1",,,,"MET064METAR ENNO 161450Z VRB03KT 9999 4000NW -SN BKN030 M02/M07 Q1008;",
"01470399999","2010-02-16T15:50:00","4","59.565683","9.212222","19.2","NOTODDEN, NO","FM-15","ENNO ","V020","310,1,N,0015,1","00900,1,C,N","011265,1,N,1","-0030,1","-0050,1","99999,9","07,5,+00900,1,99,9",,,"07,99,1,99,9,99,9,99999,9,99,9,99,9",,"10081,1,99999,9","71,1",,,,"MET072METAR ENNO 161550Z 31003KT 280V350 9999 6000NW -SN BKN030 M03/M05 Q1008;",
"01470399999","2010-02-17T04:50:00","4","59.565683","9.212222","19.2","NOTODDEN, NO","FM-15","ENNO ","V020","300,1,N,0010,1","00600,1,C,N","006000,1,N,1","-0050,1","-0060,1","99999,9","02,5,+00240,1,99,9","04,5,+00600,1,99,9","07,5,+00870,1,99,9","07,99,1,99,9,99,9,99999,9,99,9,99,9",,"10081,1,99999,9","71,1",,,,"MET071METAR ENNO 170450Z 30002KT 6000 -SN FEW008 SCT020 BKN029 M05/M06 Q1008;",
"01470399999","2010-02-17T05:50:00","4","59.565683","9.212222","19.2","NOTODDEN, NO","FM-15","ENNO ","V020","270,1,N,0010,1","00600,1,C,N","005000,1,N,1","-0050,1","-0060,1","99999,9","02,5,+00240,1,99,9","04,5,+00600,1,99,9","07,5,+00870,1,99,9","07,99,1,99,9,99,9,99999,9,99,9,99,9",,"10081,1,99999,9","71,1",,,,"MET071METAR ENNO 170550Z 27002KT 5000 -SN FEW008 SCT020 BKN029 M05/M06 Q1008;",
"01470399999","2010-02-17T06:50:00","4","59.565683","9.212222","19.2","NOTODDEN, NO","FM-15","ENNO ","V020","260,1,N,0015,1","00870,1,C,N","005000,1,N,1","-0050,1","-0060,1","99999,9","02,5,+00600,1,99,9","07,5,+00870,1,99,9",,"07,99,1,99,9,99,9,99999,9,99,9,99,9",,"10081,1,99999,9","71,1",,,,"MET072METAR ENNO 170650Z 26003KT 230V290 5000 -SN FEW020 BKN029 M05/M06 Q1008;",
"01470399999","2010-02-17T07:50:00","4","59.565683","9.212222","19.2","NOTODDEN, NO","FM-15","ENNO ","V020","260,1,N,0015,1","00750,1,C,N","005000,1,N,1","-0050,1","-0060,1","99999,9","07,5,+00750,1,99,9",,,"07,99,1,99,9,99,9,99999,9,99,9,99,9",,"10081,1,99999,9","71,1",,,,"MET065METAR ENNO 170750Z 26003KT 230V290 5000 -SN BKN025 M05/M06 Q1008;",
"01470399999","2010-02-17T08:50:00","4","59.565683","9.212222","19.2","NOTODDEN, NO","FM-15","ENNO ","V020","999,9,V,0005,1","00750,1,C,N","011265,1,N,1","-0040,1","-0050,1","99999,9","07,5,+00750,1,99,9",,,"07,99,1,99,9,99,9,99999,9,99,9,99,9",,"10081,1,99999,9","71,1",,,,"MET064METAR ENNO 170850Z VRB01KT 9999 5000NW -SN BKN025 M04/M05 Q1008;",
"01470399999","2010-02-17T09:50:00","4","59.565683","9.212222","19.2","NOTODDEN, NO","FM-15","ENNO ","V020","270,1,N,0015,1","00750,1,C,N","011265,1,N,1","-0040,1","-0050,1","99999,9","02,5,+00360,1,99,9","07,5,+00750,1,99,9",,"07,99,1,99,9,99,9,99999,9,99,9,99,9",,"10081,1,99999,9","16,1",,,,"MET065METAR ENNO 170950Z 27003KT 9999 VCSH FEW012 BKN025 M04/M05 Q1008;",
"01470399999","2010-02-17T10:50:00","4","59.565683","9.212222","19.2","NOTODDEN, NO","FM-15","ENNO ","V020","280,1,N,0021,1","00570,1,C,N","009000,1,N,1","-0040,1","-0050,1","99999,9","02,5,+00360,1,99,9","04,5,+00570,1,99,9","07,5,+00690,1,99,9","07,99,1,99,9,99,9,99999,9,99,9,99,9",,"10081,1,99999,9","71,1",,,,"MET078METAR ENNO 171050Z 28004KT 9000 4000NW -SN FEW012 SCT019 BKN023 M04/M05 Q1008;",
"01470399999","2010-02-17T11:50:00","4","59.565683","9.212222","19.2","NOTODDEN, NO","FM-15","ENNO ","V020","290,1,N,0021,1","00570,1,C,N","009000,1,N,1","-0030,1","-0050,1","99999,9","02,5,+00360,1,99,9","04,5,+00570,1,99,9","07,5,+00690,1,99,9","07,99,1,99,9,99,9,99999,9,99,9,99,9",,"10071,1,99999,9","71,1",,,,"MET071METAR ENNO 171150Z 29004KT 9000 -SN FEW012 SCT019 BKN023 M03/M05 Q1007;",
"01470399999","2010-02-17T12:50:00","4","59.565683","9.212222","19.2","NOTODDEN, NO","FM-15","ENNO ","V020","300,1,N,0026,1","00750,1,C,N","011265,1,N,1","-0030,1","-0040,1","99999,9","04,5,+00600,1,99,9","07,5,+00750,1,99,9",,"07,99,1,99,9,99,9,99999,9,99,9,99,9",,"10071,1,99999,9","71,1",,,,"MET064METAR ENNO 171250Z 30005KT 9999 -SN SCT020 BKN025 M03/M04 Q1007;",
"01470399999","2010-02-17T13:50:00","4","59.565683","9.212222","19.2","NOTODDEN, NO","FM-15","ENNO ","V020","300,1,N,0021,1","00720,1,C,N","011265,1,N,1","-0030,1","-0040,1","99999,9","04,5,+00540,1,99,9","07,5,+00720,1,99,9",,"07,99,1,99,9,99,9,99999,9,99,9,99,9",,"10071,1,99999,9","71,1",,,,"MET064METAR ENNO 171350Z 30004KT 9999 -SN SCT018 BKN024 M03/M04 Q1007;",
"01470399999","2010-02-17T14:50:00","4","59.565683","9.212222","19.2","NOTODDEN, NO","FM-15","ENNO ","V020","999,9,V,0015,1","00660,1,C,N","011265,1,N,1","-0030,1","-0040,1","99999,9","04,5,+00540,1,99,9","07,5,+00660,1,99,9",,"07,99,1,99,9,99,9,99999,9,99,9,99,9",,"10071,1,99999,9","71,1",,,,"MET071METAR ENNO 171450Z VRB03KT 9999 5000NW -SN SCT018 BKN022 M03/M04 Q1007;",
"01470399999","2010-02-17T15:50:00","4","59.565683","9.212222","19.2","NOTODDEN, NO","FM-15","ENNO ","V020","999,9,V,0015,1","00660,1,C,N","011265,1,N,1","-0030,1","-0040,1","99999,9","04,5,+00540,1,99,9","07,5,+00660,1,99,9",,"07,99,1,99,9,99,9,99999,9,99,9,99,9",,"10061,1,99999,9","71,1",,,,"MET064METAR ENNO 171550Z VRB03KT 9999 -SN SCT018 BKN022 M03/M04 Q1006;",
"01470399999","2010-02-17T16:50:00","4","59.565683","9.212222","19.2","NOTODDEN, NO","FM-15","ENNO ","V020","999,9,V,0005,1","00660,1,C,N","011265,1,N,1","-0030,1","-0040,1","99999,9","04,5,+00540,1,99,9","07,5,+00660,1,99,9",,"07,99,1,99,9,99,9,99999,9,99,9,99,9",,"10071,1,99999,9","16,1",,,,"MET065METAR ENNO 171650Z VRB01KT 9999 VCSH SCT018 BKN022 M03/M04 Q1007;",
"01470399999","2010-02-18T05:50:00","4","59.565683","9.212222","19.2","NOTODDEN, NO","FM-15","ENNO ","V020","999,9,V,0010,1","00720,1,C,N","011265,1,N,1","-0060,1","-0080,1","99999,9","07,5,+00720,1,99,9",,,"07,99,1,99,9,99,9,99999,9,99,9,99,9",,"10061,1,99999,9","16,1",,,,"MET058METAR ENNO 180550Z VRB02KT 9999 VCSH BKN024 M06/M08 Q1006;",
"01470399999","2010-02-18T06:50:00","4","59.565683","9.212222","19.2","NOTODDEN, NO","FM-15","ENNO ","V020","999,9,V,0010,1","00720,1,C,N","011265,1,N,1","-0060,1","-0080,1","99999,9","02,5,+00540,1,99,9","07,5,+00720,1,99,9",,"07,99,1,99,9,99,9,99999,9,99,9,99,9",,"10061,1,99999,9","71,1",,,,"MET064METAR ENNO 180650Z VRB02KT 9999 -SN FEW018 BKN024 M06/M08 Q1006;",
"01470399999","2010-02-18T07:50:00","4","59.565683","9.212222","19.2","NOTODDEN, NO","FM-15","ENNO ","V020","999,9,C,0000,1","00720,1,C,N","011265,1,N,1","-0060,1","-0070,1","99999,9","02,5,+00540,1,99,9","07,5,+00720,1,99,9",,"07,99,1,99,9,99,9,99999,9,99,9,99,9",,"10061,1,99999,9","71,1",,,,"MET064METAR ENNO 180750Z 00000KT 9999 -SN FEW018 BKN024 M06/M07 Q1006;",
"01470399999","2010-02-18T08:50:00","4","59.565683","9.212222","19.2","NOTODDEN, NO","FM-15","ENNO ","V020","999,9,V,0010,1","00720,1,C,N","011265,1,N,1","-0050,1","-0070,1","99999,9","02,5,+00540,1,99,9","07,5,+00720,1,99,9",,"07,99,1,99,9,99,9,99999,9,99,9,99,9",,"10061,1,99999,9","16,1",,,,"MET065METAR ENNO 180850Z VRB02KT 9999 VCSH FEW018 BKN024 M05/M07 Q1006;",
"01470399999","2010-02-18T09:50:00","4","59.565683","9.212222","19.2","NOTODDEN, NO","FM-15","ENNO ","V020","999,9,V,0005,1","00720,1,C,N","011265,1,N,1","-0040,1","-0080,1","99999,9","02,5,+00540,1,99,9","07,5,+00720,1,99,9",,"07,99,1,99,9,99,9,99999,9,99,9,99,9",,"10061,1,99999,9","71,1",,,,"MET064METAR ENNO 180950Z VRB01KT 9999 -SN FEW018 BKN024 M04/M08 Q1006;",
"01470399999","2010-02-18T10:50:00","4","59.565683","9.212222","19.2","NOTODDEN, NO","FM-15","ENNO ","V020","999,9,V,0005,1","00720,1,C,N","011265,1,N,1","-0040,1","-0080,1","99999,9","02,5,+00540,1,99,9","07,5,+00720,1,99,9",,"07,99,1,99,9,99,9,99999,9,99,9,99,9",,"10061,1,99999,9","16,1",,,,"MET066METAR ENNO 181050Z VRB01KT 9999 -VCSH FEW018 BKN024 M04/M08 Q1006;",
"01470399999","2010-02-18T11:50:00","4","59.565683","9.212222","19.2","NOTODDEN, NO","FM-15","ENNO ","V020","999,9,V,0010,1","00750,1,C,N","011265,1,N,1","-0040,1","-0080,1","99999,9","07,5,+00750,1,99,9",,,"07,99,1,99,9,99,9,99999,9,99,9,99,9",,"10061,1,99999,9","71,1",,,,"MET057METAR ENNO 181150Z VRB02KT 9999 -SN BKN025 M04/M08 Q1006;",
"01470399999","2010-02-18T12:50:00","4","59.565683","9.212222","19.2","NOTODDEN, NO","FM-15","ENNO ","V020","320,1,N,0031,1","00810,1,C,N","011265,1,N,1","-0040,1","-0090,1","99999,9","02,5,+00480,1,99,9","07,5,+00810,1,99,9",,"07,99,1,99,9,99,9,99999,9,99,9,99,9",,"10051,1,99999,9","16,1",,,,"MET073METAR ENNO 181250Z 32006KT 270V020 9999 VCSH FEW016 BKN027 M04/M09 Q1005;",
"01470399999","2010-02-18T13:50:00","4","59.565683","9.212222","19.2","NOTODDEN, NO","FM-15","ENNO ","V020","330,1,N,0021,1","00810,1,C,N","011265,1,N,1","-0040,1","-0090,1","99999,9","02,5,+00660,1,99,9","04,5,+00810,1,99,9","07,5,+01080,1,99,9","07,99,1,99,9,99,9,99999,9,99,9,99,9",,"10041,1,99999,9","71,1",,,,"MET079METAR ENNO 181350Z 33004KT 270V060 9999 -SN FEW022 SCT027 BKN036 M04/M09 Q1004;",
"01470399999","2010-02-18T14:50:00","4","59.565683","9.212222","19.2","NOTODDEN, NO","FM-15","ENNO ","V020","999,9,V,0010,1","01020,1,C,N","011265,1,N,1","-0040,1","-0080,1","99999,9","04,5,+00720,1,99,9","07,5,+01020,1,99,9",,"07,99,1,99,9,99,9,99999,9,99,9,99,9",,"10041,1,99999,9","16,1",,,,"MET065METAR ENNO 181450Z VRB02KT 9999 VCSH SCT024 BKN034 M04/M08 Q1004;",
"01470399999","2010-02-18T15:50:00","4","59.565683","9.212222","19.2","NOTODDEN, NO","FM-15","ENNO ","V020","999,9,V,0010,1","01020,1,C,N","007000,1,N,1","-0050,1","-0080,1","99999,9","04,5,+00720,1,99,9","07,5,+01020,1,99,9",,"07,99,1,99,9,99,9,99999,9,99,9,99,9",,"10031,1,99999,9","71,1",,,,"MET064METAR ENNO 181550Z VRB02KT 7000 -SN SCT024 BKN034 M05/M08 Q1003;",
"01470399999","2010-02-19T05:50:00","4","59.565683","9.212222","19.2","NOTODDEN, NO","FM-15","ENNO ","V020","300,1,N,0026,1","01140,1,C,N","011265,1,N,1","-0070,1","-0110,1","99999,9","04,5,+00840,1,99,9","07,5,+01140,1,99,9",,"07,99,1,99,9,99,9,99999,9,99,9,99,9",,"10010,1,99999,9",,,,,"MET060METAR ENNO 190550Z 30005KT 9999 SCT028 BKN038 M07/M11 Q1001;",
"01470399999","2010-02-19T14:50:00","4","59.565683","9.212222","19.2","NOTODDEN, NO","FM-15","ENNO ","V020","300,1,N,0021,1","00990,1,C,N","011265,1,N,1","-0070,1","-0130,1","99999,9","04,5,+00690,1,99,9","07,5,+00990,1,99,9",,"07,99,1,99,9,99,9,99999,9,99,9,99,9",,"10010,1,99999,9","16,1",,,,"MET073METAR ENNO 191450Z 30004KT 190V350 9999 VCSH SCT023 BKN033 M07/M13 Q1001;",
"01470399999","2010-02-19T15:50:00","4","59.565683","9.212222","19.2","NOTODDEN, NO","FM-15","ENNO ","V020","290,1,N,0036,1","01140,1,C,N","011265,1,N,1","-0070,1","-0130,1","99999,9","04,5,+00570,1,99,9","07,5,+01140,1,99,9",,"07,99,1,99,9,99,9,99999,9,99,9,99,9",,"10010,1,99999,9","16,1",,,,"MET073METAR ENNO 191550Z 29007KT 270V350 9999 VCSH SCT019 BKN038 M07/M13 Q1001;",
"01470399999","2010-02-21T16:50:00","4","59.565683","9.212222","19.2","NOTODDEN, NO","FM-15","ENNO ","V020","130,1,N,0015,1","00660,1,C,N","011265,1,N,1","-0120,1","-0170,1","99999,9","04,5,+00570,1,99,9","07,5,+00660,1,99,9",,"07,99,1,99,9,99,9,99999,9,99,9,99,9",,"10000,1,99999,9","71,1",,,,"MET064METAR ENNO 211650Z 13003KT 9999 -SN SCT019 BKN022 M12/M17 Q1000;",
"01470399999","2010-02-21T17:50:00","4","59.565683","9.212222","19.2","NOTODDEN, NO","FM-15","ENNO ","V020","130,1,N,0026,1","00660,1,C,N","007000,1,N,1","-0120,1","-0170,1","99999,9","04,5,+00570,1,99,9","07,5,+00660,1,99,9",,"07,99,1,99,9,99,9,99999,9,99,9,99,9",,"10000,1,99999,9","71,1",,,,"MET064METAR ENNO 211750Z 13005KT 7000 -SN SCT019 BKN022 M12/M17 Q1000;",
"01470399999","2010-02-21T18:50:00","4","59.565683","9.212222","19.2","NOTODDEN, NO","FM-15","ENNO ","V020","100,1,N,0026,1","00600,1,C,N","006000,1,N,1","-0120,1","-0150,1","99999,9","04,5,+00540,1,99,9","07,5,+00600,1,99,9",,"07,99,1,99,9,99,9,99999,9,99,9,99,9",,"10000,1,99999,9","71,1",,,,"MET064METAR ENNO 211850Z 10005KT 6000 -SN SCT018 BKN020 M12/M15 Q1000;",
"01470399999","2010-02-22T06:50:00","4","59.565683","9.212222","19.2","NOTODDEN, NO","FM-15","ENNO ","V020","290,1,N,0026,1","00600,1,C,N","004000,1,N,1","-0130,1","-0150,1","99999,9","07,5,+00600,1,99,9",,,"07,99,1,99,9,99,9,99999,9,99,9,99,9",,"09980,1,99999,9","71,1",,,,"MET057METAR ENNO 220650Z 29005KT 4000 -SN BKN020 M13/M15 Q0998;",
"01470399999","2010-02-22T07:50:00","4","59.565683","9.212222","19.2","NOTODDEN, NO","FM-15","ENNO ","V020","280,1,N,0021,1","00540,1,C,N","008000,1,N,1","-0140,1","-0160,1","99999,9","07,5,+00540,1,99,9",,,"07,99,1,99,9,99,9,99999,9,99,9,99,9",,"09980,1,99999,9","71,1",,,,"MET057METAR ENNO 220750Z 28004KT 8000 -SN BKN018 M14/M16 Q0998;",
"01470399999","2010-02-22T08:50:00","4","59.565683","9.212222","19.2","NOTODDEN, NO","FM-15","ENNO ","V020","280,1,N,0015,1","00600,1,C,N","008000,1,N,1","-0140,1","-0160,1","99999,9","07,5,+00600,1,99,9",,,"07,99,1,99,9,99,9,99999,9,99,9,99,9",,"09980,1,99999,9","71,1",,,,"MET057METAR ENNO 220850Z 28003KT 8000 -SN BKN020 M14/M16 Q0998;",
"01470399999","2010-02-22T09:50:00","4","59.565683","9.212222","19.2","NOTODDEN, NO","FM-15","ENNO ","V020","999,9,V,0005,1","00750,1,C,N","011265,1,N,1","-0130,1","-0150,1","99999,9","07,5,+00750,1,99,9",,,"07,99,1,99,9,99,9,99999,9,99,9,99,9",,"09980,1,99999,9","71,1",,,,"MET057METAR ENNO 220950Z VRB01KT 9999 -SN BKN025 M13/M15 Q0998;",
"01470399999","2010-02-22T10:50:00","4","59.565683","9.212222","19.2","NOTODDEN, NO","FM-15","ENNO ","V020","999,9,V,0005,1","00750,1,C,N","011265,1,N,1","-0120,1","-0160,1","99999,9","04,5,+00540,1,99,9","07,5,+00750,1,99,9",,"07,99,1,99,9,99,9,99999,9,99,9,99,9",,"09980,1,99999,9","71,1",,,,"MET064METAR ENNO 221050Z VRB01KT 9999 -SN SCT018 BKN025 M12/M16 Q0998;",
"01470399999","2010-02-22T11:50:00","4","59.565683","9.212222","19.2","NOTODDEN, NO","FM-15","ENNO ","V020","999,9,V,0005,1","22000,1,9,N","011265,1,N,1","-0100,1","-0150,1","99999,9","04,5,+00600,1,99,9",,,"04,99,1,99,9,99,9,99999,9,99,9,99,9",,"09970,1,99999,9","71,1",,,,"MET057METAR ENNO 221150Z VRB01KT 9999 -SN SCT020 M10/M15 Q0997;",
"01470399999","2010-02-22T12:50:00","4","59.565683","9.212222","19.2","NOTODDEN, NO","FM-15","ENNO ","V020","130,1,N,0015,1","22000,1,9,N","011265,1,N,1","-0110,1","-0150,1","99999,9","04,5,+00750,1,99,9",,,"04,99,1,99,9,99,9,99999,9,99,9,99,9",,"09959,1,99999,9","71,1",,,,"MET057METAR ENNO 221250Z 13003KT 9999 -SN SCT025 M11/M15 Q0996;",
"01470399999","2010-02-22T13:50:00","4","59.565683","9.212222","19.2","NOTODDEN, NO","FM-15","ENNO ","V020","130,1,N,0015,1","22000,1,9,N","011265,1,N,1","-0110,1","-0150,1","99999,9","04,5,+00750,1,99,9",,,"04,99,1,99,9,99,9,99999,9,99,9,99,9",,"09959,1,99999,9","71,1",,,,"MET057METAR ENNO 221350Z 13003KT 9999 -SN SCT025 M11/M15 Q0996;",
"01470399999","2010-02-22T14:50:00","4","59.565683","9.212222","19.2","NOTODDEN, NO","FM-15","ENNO ","V020","999,9,C,0000,1","22000,1,9,N","011265,1,N,1","-0090,1","-0140,1","99999,9","04,5,+00750,1,99,9",,,"04,99,1,99,9,99,9,99999,9,99,9,99,9",,"09959,1,99999,9",,,,,"MET053METAR ENNO 221450Z 00000KT 9999 SCT025 M09/M14 Q0996;",
"01470399999","2010-02-22T15:50:00","4","59.565683","9.212222","19.2","NOTODDEN, NO","FM-15","ENNO ","V020","999,9,C,0000,1","22000,1,9,N","011265,1,N,1","-0110,1","-0140,1","99999,9","04,5,+00900,1,99,9",,,"04,99,1,99,9,99,9,99999,9,99,9,99,9",,"09949,1,99999,9",,,,,"MET053METAR ENNO 221550Z 00000KT 9999 SCT030 M11/M14 Q0995;",
"01470399999","2010-02-22T16:50:00","4","59.565683","9.212222","19.2","NOTODDEN, NO","FM-15","ENNO ","V020","999,9,V,0005,1","99999,9,9,Y","009900,1,N,1","-0120,1","-0140,1","99999,9",,,,,,"09949,1,99999,9",,,,,"MET047METAR ENNO 221650Z VRB01KT CAVOK M12/M14 Q0995;",
"01470399999","2010-02-23T05:50:00","4","59.565683","9.212222","19.2","NOTODDEN, NO","FM-15","ENNO ","V020","999,9,C,0000,1","01020,1,C,N","009000,1,N,1","-0130,1","-0160,1","99999,9","02,5,+00570,1,99,9","08,5,+01020,1,99,9",,"08,99,1,99,9,99,9,99999,9,99,9,99,9",,"09949,1,99999,9","71,1",,,,"MET064METAR ENNO 230550Z 00000KT 9000 -SN FEW019 OVC034 M13/M16 Q0995;",
"01470399999","2010-02-23T06:50:00","4","59.565683","9.212222","19.2","NOTODDEN, NO","FM-15","ENNO ","V020","270,1,N,0015,1","00960,1,C,N","011265,1,N,1","-0130,1","-0150,1","99999,9","08,5,+00960,1,99,9",,,"08,99,1,99,9,99,9,99999,9,99,9,99,9",,"09949,1,99999,9","71,1",,,,"MET057METAR ENNO 230650Z 27003KT 9999 -SN OVC032 M13/M15 Q0995;",
"01470399999","2010-02-23T07:50:00","4","59.565683","9.212222","19.2","NOTODDEN, NO","FM-15","ENNO ","V020","230,1,N,0010,1","00990,1,C,N","011265,1,N,1","-0120,1","-0150,1","99999,9","02,5,+00600,1,99,9","08,5,+00990,1,99,9",,"08,99,1,99,9,99,9,99999,9,99,9,99,9",,"09959,1,99999,9","71,1",,,,"MET064METAR ENNO 230750Z 23002KT 9999 -SN FEW020 OVC033 M12/M15 Q0996;",
"01470399999","2010-02-23T08:50:00","4","59.565683","9.212222","19.2","NOTODDEN, NO","FM-15","ENNO ","V020","270,1,N,0010,1","01050,1,C,N","011265,1,N,1","-0120,1","-0150,1","99999,9","02,5,+00750,1,99,9","07,5,+01050,1,99,9",,"07,99,1,99,9,99,9,99999,9,99,9,99,9",,"09959,1,99999,9","71,1",,,,"MET064METAR ENNO 230850Z 27002KT 9999 -SN FEW025 BKN035 M12/M15 Q0996;",
"01470399999","2010-02-23T09:50:00","4","59.565683","9.212222","19.2","NOTODDEN, NO","FM-15","ENNO ","V020","240,1,N,0015,1","01200,1,C,N","011265,1,N,1","-0110,1","-0140,1","99999,9","07,5,+01200,1,99,9",,,"07,99,1,99,9,99,9,99999,9,99,9,99,9",,"09959,1,99999,9","71,1",,,,"MET065METAR ENNO 230950Z 24003KT 160V280 9999 -SN BKN040 M11/M14 Q0996;",
"01470399999","2010-02-23T10:50:00","4","59.565683","9.212222","19.2","NOTODDEN, NO","FM-15","ENNO ","V020","280,1,N,0015,1","02100,1,C,N","011265,1,N,1","-0090,1","-0130,1","99999,9","02,5,+01500,1,99,9","07,5,+02100,1,99,9",,"07,99,1,99,9,99,9,99999,9,99,9,99,9",,"09959,1,99999,9","71,1",,,,"MET064METAR ENNO 231050Z 28003KT 9999 -SN FEW050 BKN070 M09/M13 Q0996;",
"01470399999","2010-02-23T11:50:00","4","59.565683","9.212222","19.2","NOTODDEN, NO","FM-15","ENNO ","V020","999,9,V,0005,1","02250,5,C,N","011265,1,N,1","-0080,1","-0130,1","99999,9","02,5,+00540,1,99,9","07,5,+02250,5,99,9",,"07,99,1,99,9,99,9,99999,9,99,9,99,9",,"09959,1,99999,9",,,,,"MET060METAR ENNO 231150Z VRB01KT 9999 FEW018 BKN075 M08/M13 Q0996;",
"01470399999","2010-02-23T12:50:00","4","59.565683","9.212222","19.2","NOTODDEN, NO","FM-15","ENNO ","V020","999,9,V,0005,1","99999,9,9,Y","009900,1,N,1","-0060,1","-0120,1","99999,9",,,,,,"09959,1,99999,9",,,,,"MET047METAR ENNO 231250Z VRB01KT CAVOK M06/M12 Q0996;",
"01470399999","2010-02-23T13:50:00","4","59.565683","9.212222","19.2","NOTODDEN, NO","FM-15","ENNO ","V020","130,1,N,0021,1","99999,9,9,Y","009900,1,N,1","-0070,1","-0120,1","99999,9",,,,,,"09959,1,99999,9",,,,,"MET047METAR ENNO 231350Z 13004KT CAVOK M07/M12 Q0996;",
"01470399999","2010-02-23T14:50:00","4","59.565683","9.212222","19.2","NOTODDEN, NO","FM-15","ENNO ","V020","999,9,V,0010,1","22000,1,9,N","011265,1,N,1","-0070,1","-0120,1","99999,9","04,5,+01200,1,99,9",,,"04,99,1,99,9,99,9,99999,9,99,9,99,9",,"09959,1,99999,9",,,,,"MET053METAR ENNO 231450Z VRB02KT 9999 SCT040 M07/M12 Q0996;",
"01470399999","2010-02-23T15:50:00","4","59.565683","9.212222","19.2","NOTODDEN, NO","FM-15","ENNO ","V020","999,9,V,0010,1","22000,1,9,N","011265,1,N,1","-0080,1","-0110,1","99999,9","04,5,+01200,1,99,9",,,"04,99,1,99,9,99,9,99999,9,99,9,99,9",,"09959,1,99999,9",,,,,"MET053METAR ENNO 231550Z VRB02KT 9999 SCT040 M08/M11 Q0996;",
"01470399999","2010-02-23T17:50:00","4","59.565683","9.212222","19.2","NOTODDEN, NO","FM-15","ENNO ","V020","999,9,V,0010,1","99999,9,9,Y","009900,1,N,1","-0130,1","-0140,1","99999,9",,,,,,"09980,1,99999,9",,,,,"MET047METAR ENNO 231750Z VRB02KT CAVOK M13/M14 Q0998;",
"01470399999","2010-02-24T05:50:00","4","59.565683","9.212222","19.2","NOTODDEN, NO","FM-15","ENNO ","V020","999,9,V,0010,1","99999,9,9,Y","009900,1,N,1","-0220,1","-0240,1","99999,9",,,,,,"10061,1,99999,9",,,,,"MET047METAR ENNO 240550Z VRB02KT CAVOK M22/M24 Q1006;",
"01470399999","2010-02-24T06:50:00","4","59.565683","9.212222","19.2","NOTODDEN, NO","FM-15","ENNO ","V020","999,9,C,0000,1","99999,9,9,Y","009900,1,N,1","-0220,1","-0240,1","99999,9",,,,,,"10061,1,99999,9",,,,,"MET047METAR ENNO 240650Z 00000KT CAVOK M22/M24 Q1006;",
"01470399999","2010-02-24T07:50:00","4","59.565683","9.212222","19.2","NOTODDEN, NO","FM-15","ENNO ","V020","999,9,C,0000,1","99999,9,9,Y","009900,1,N,1","-0220,1","-0240,1","99999,9",,,,,,"10071,1,99999,9",,,,,"MET047METAR ENNO 240750Z 00000KT CAVOK M22/M24 Q1007;",
"01470399999","2010-02-24T08:50:00","4","59.565683","9.212222","19.2","NOTODDEN, NO","FM-15","ENNO ","V020","999,9,C,0000,1","99999,9,9,Y","009900,1,N,1","-0190,1","-0210,1","99999,9",,,,,,"10071,1,99999,9",,,,,"MET047METAR ENNO 240850Z 00000KT CAVOK M19/M21 Q1007;",
"01470399999","2010-02-24T09:50:00","4","59.565683","9.212222","19.2","NOTODDEN, NO","FM-15","ENNO ","V020","999,9,C,0000,1","99999,9,9,Y","009900,1,N,1","-0160,1","-0180,1","99999,9",,,,,,"10071,1,99999,9",,,,,"MET047METAR ENNO 240950Z 00000KT CAVOK M16/M18 Q1007;",
"01470399999","2010-02-24T10:50:00","4","59.565683","9.212222","19.2","NOTODDEN, NO","FM-15","ENNO ","V020","999,9,C,0000,1","99999,9,9,Y","009900,1,N,1","-0140,1","-0160,1","99999,9",,,,,,"10071,1,99999,9",,,,,"MET047METAR ENNO 241050Z 00000KT CAVOK M14/M16 Q1007;",
"01470399999","2010-02-24T12:50:00","4","59.565683","9.212222","19.2","NOTODDEN, NO","FM-15","ENNO ","V020","999,9,C,0000,1","99999,9,9,Y","009900,1,N,1","-0110,1","-0150,1","99999,9",,,,,,"10071,1,99999,9",,,,,"MET047METAR ENNO 241250Z 00000KT CAVOK M11/M15 Q1007;",
"01470399999","2010-02-24T13:50:00","4","59.565683","9.212222","19.2","NOTODDEN, NO","FM-15","ENNO ","V020","999,9,C,0000,1","99999,9,9,Y","009900,1,N,1","-0100,1","-0150,1","99999,9",,,,,,"10071,1,99999,9",,,,,"MET047METAR ENNO 241350Z 00000KT CAVOK M10/M15 Q1007;",
"01470399999","2010-02-24T14:50:00","4","59.565683","9.212222","19.2","NOTODDEN, NO","FM-15","ENNO ","V020","999,9,C,0000,1","99999,9,9,Y","009900,1,N,1","-0100,1","-0140,1","99999,9",,,,,,"10081,1,99999,9",,,,,"MET047METAR ENNO 241450Z 00000KT CAVOK M10/M14 Q1008;",
"01470399999","2010-02-24T15:50:00","4","59.565683","9.212222","19.2","NOTODDEN, NO","FM-15","ENNO ","V020","999,9,C,0000,1","99999,9,9,Y","009900,1,N,1","-0100,1","-0140,1","99999,9",,,,,,"10081,1,99999,9",,,,,"MET047METAR ENNO 241550Z 00000KT CAVOK M10/M14 Q1008;",
"01470399999","2010-02-24T16:50:00","4","59.565683","9.212222","19.2","NOTODDEN, NO","FM-15","ENNO ","V020","999,9,C,0000,1","99999,9,9,Y","009900,1,N,1","-0120,1","-0150,1","99999,9",,,,,,"10081,1,99999,9",,,,,"MET047METAR ENNO 241650Z 00000KT CAVOK M12/M15 Q1008;",
"01470399999","2010-02-25T05:50:00","4","59.565683","9.212222","19.2","NOTODDEN, NO","FM-15","ENNO ","V020","260,1,N,0015,1","01890,5,C,N","011265,1,N,1","-0130,1","-0140,1","99999,9","07,5,+01890,5,99,9","08,5,+02400,1,99,9",,"08,99,1,99,9,99,9,99999,9,99,9,99,9",,"10061,1,99999,9",,,,,"MET060METAR ENNO 250550Z 26003KT 9999 BKN063 OVC080 M13/M14 Q1006;",
"01470399999","2010-02-25T06:50:00","4","59.565683","9.212222","19.2","NOTODDEN, NO","FM-15","ENNO ","V020","280,1,N,0021,1","01710,5,C,N","011265,1,N,1","-0120,1","-0140,1","99999,9","08,5,+01710,5,99,9",,,"08,99,1,99,9,99,9,99999,9,99,9,99,9",,"10061,1,99999,9",,,,,"MET061METAR ENNO 250650Z 28004KT 210V300 9999 OVC057 M12/M14 Q1006;",
"01470399999","2010-02-25T07:50:00","4","59.565683","9.212222","19.2","NOTODDEN, NO","FM-15","ENNO ","V020","280,1,N,0021,1","01710,5,C,N","011265,1,N,1","-0120,1","-0130,1","99999,9","08,5,+01710,5,99,9",,,"08,99,1,99,9,99,9,99999,9,99,9,99,9",,"10061,1,99999,9",,,,,"MET059METAR ENNO 250750Z 28004KT 9999 OVC057 M12/M13 Q1006 NOSIG;",
"01470399999","2010-02-25T08:50:00","4","59.565683","9.212222","19.2","NOTODDEN, NO","FM-15","ENNO ","V020","300,1,N,0021,1","01530,5,C,N","011265,1,N,1","-0100,1","-0120,1","99999,9","08,5,+01530,5,99,9",,,"08,99,1,99,9,99,9,99999,9,99,9,99,9",,"10051,1,99999,9","71,1",,,,"MET057METAR ENNO 250850Z 30004KT 9999 -SN OVC051 M10/M12 Q1005;",
"01470399999","2010-02-25T09:50:00","4","59.565683","9.212222","19.2","NOTODDEN, NO","FM-15","ENNO ","V020","999,9,V,0010,1","01170,1,C,N","009000,1,N,1","-0090,1","-0110,1","99999,9","08,5,+01170,1,99,9",,,"08,99,1,99,9,99,9,99999,9,99,9,99,9",,"10051,1,99999,9","71,1",,,,"MET057METAR ENNO 250950Z VRB02KT 9000 -SN OVC039 M09/M11 Q1005;",
"01470399999","2010-02-25T10:50:00","4","59.565683","9.212222","19.2","NOTODDEN, NO","FM-15","ENNO ","V020","999,9,V,0005,1","01050,1,C,N","009000,1,N,1","-0080,1","-0110,1","99999,9","08,5,+01050,1,99,9",,,"08,99,1,99,9,99,9,99999,9,99,9,99,9",,"10051,1,99999,9","71,1",,,,"MET057METAR ENNO 251050Z VRB01KT 9000 -SN OVC035 M08/M11 Q1005;",
"01470399999","2010-02-25T13:50:00","4","59.565683","9.212222","19.2","NOTODDEN, NO","FM-15","ENNO ","V020","290,1,N,0015,1","00900,1,C,N","011265,1,N,1","-0060,1","-0090,1","99999,9","08,5,+00900,1,99,9",,,"08,99,1,99,9,99,9,99999,9,99,9,99,9",,"10031,1,99999,9",,,,,"MET053METAR ENNO 251350Z 29003KT 9999 OVC030 M06/M09 Q1003;",
"01470399999","2010-02-25T14:50:00","4","59.565683","9.212222","19.2","NOTODDEN, NO","FM-15","ENNO ","V020","280,1,N,0015,1","00900,1,C,N","009000,1,N,1","-0060,1","-0090,1","99999,9","08,5,+00900,1,99,9",,,"08,99,1,99,9,99,9,99999,9,99,9,99,9",,"10020,1,99999,9","71,1",,,,"MET057METAR ENNO 251450Z 28003KT 9000 -SN OVC030 M06/M09 Q1002;",
"01470399999","2010-02-25T15:50:00","4","59.565683","9.212222","19.2","NOTODDEN, NO","FM-15","ENNO ","V020","999,9,V,0005,1","00900,1,C,N","011265,1,N,1","-0060,1","-0080,1","99999,9","08,5,+00900,1,99,9",,,"08,99,1,99,9,99,9,99999,9,99,9,99,9",,"10020,1,99999,9","71,1",,,,"MET057METAR ENNO 251550Z VRB01KT 9999 -SN OVC030 M06/M08 Q1002;",
"01470399999","2010-02-25T16:50:00","4","59.565683","9.212222","19.2","NOTODDEN, NO","FM-15","ENNO ","V020","999,9,C,0000,1","00600,1,9,N","008000,1,N,1","-0060,1","-0080,1","99999,9","09,1,+00600,1,99,9",,,"09,99,1,99,9,99,9,00025,1,99,9,99,9",,"10020,1,99999,9","71,1",,,,"MET056METAR ENNO 251650Z 00000KT 8000 -SN VV020 M06/M08 Q1002;",
"01470399999","2010-02-26T04:50:00","4","59.565683","9.212222","19.2","NOTODDEN, NO","FM-15","ENNO ","V020","310,1,N,0015,1","22000,1,9,N","011265,1,N,1","-0060,1","-0070,1","99999,9","04,5,+01410,1,99,9",,,"04,99,1,99,9,99,9,99999,9,99,9,99,9",,"09959,1,99999,9",,,,,"MET053METAR ENNO 260450Z 31003KT 9999 SCT047 M06/M07 Q0996;",
"01470399999","2010-02-26T05:50:00","4","59.565683","9.212222","19.2","NOTODDEN, NO","FM-15","ENNO ","V020","280,1,N,0015,1","01380,1,C,N","011265,1,N,1","-0050,1","-0060,1","99999,9","02,5,+00090,1,99,9","07,5,+01380,1,99,9",,"07,99,1,99,9,99,9,99999,9,99,9,99,9",,"09959,1,99999,9",,,,,"MET060METAR ENNO 260550Z 28003KT 9999 FEW003 BKN046 M05/M06 Q0996;",
"01470399999","2010-02-26T06:50:00","4","59.565683","9.212222","19.2","NOTODDEN, NO","FM-15","ENNO ","V020","270,1,N,0021,1","00750,1,9,N","008000,1,N,1","-0050,1","-0060,1","99999,9","09,1,+00750,1,99,9",,,"09,99,1,99,9,99,9,00025,1,99,9,99,9",,"09959,1,99999,9","71,1",,,,"MET056METAR ENNO 260650Z 27004KT 8000 -SN VV025 M05/M06 Q0996;",
"01470399999","2010-02-26T07:50:00","4","59.565683","9.212222","19.2","NOTODDEN, NO","FM-15","ENNO ","V020","280,1,N,0021,1","00510,1,9,N","008000,1,N,1","-0050,1","-0060,1","99999,9","09,1,+00510,1,99,9",,,"09,99,1,99,9,99,9,00025,1,99,9,99,9",,"09959,1,99999,9","71,1",,,,"MET056METAR ENNO 260750Z 28004KT 8000 -SN VV017 M05/M06 Q0996;",
"01470399999","2010-02-26T08:50:00","4","59.565683","9.212222","19.2","NOTODDEN, NO","FM-15","ENNO ","V020","270,1,N,0015,1","00150,1,9,N","001000,1,N,1","-0050,1","-0050,1","99999,9","09,1,+00150,1,99,9",,,"09,99,1,99,9,99,9,00025,1,99,9,99,9",,"09959,1,99999,9","73,1",,,,"MET055METAR ENNO 260850Z 27003KT 1000 SN VV005 M05/M05 Q0996;",
"01470399999","2010-02-26T09:50:00","4","59.565683","9.212222","19.2","NOTODDEN, NO","FM-15","ENNO ","V020","270,1,N,0015,1","00300,1,9,N","002000,1,N,1","-0040,1","-0050,1","99999,9","09,1,+00300,1,99,9",,,"09,99,1,99,9,99,9,00025,1,99,9,99,9",,"09959,1,99999,9","73,1",,,,"MET055METAR ENNO 260950Z 27003KT 2000 SN VV010 M04/M05 Q0996;",
"01470399999","2010-02-26T10:50:00","4","59.565683","9.212222","19.2","NOTODDEN, NO","FM-15","ENNO ","V020","280,1,N,0021,1","01200,1,C,N","009000,1,N,1","-0030,1","-0050,1","99999,9","02,5,+00750,1,99,9","07,5,+01200,1,99,9",,"07,99,1,99,9,99,9,99999,9,99,9,99,9",,"09959,1,99999,9","71,1",,,,"MET064METAR ENNO 261050Z 28004KT 9000 -SN FEW025 BKN040 M03/M05 Q0996;",
"01470399999","2010-02-26T13:50:00","4","59.565683","9.212222","19.2","NOTODDEN, NO","FM-15","ENNO ","V020","290,1,N,0015,1","01140,1,C,N","008000,1,N,1","-0020,1","-0040,1","99999,9","02,5,+00450,1,99,9","08,5,+01140,1,99,9",,"08,99,1,99,9,99,9,99999,9,99,9,99,9",,"09949,1,99999,9","71,1",,,,"MET064METAR ENNO 261350Z 29003KT 8000 -SN FEW015 OVC038 M02/M04 Q0995;",
"01470399999","2010-02-26T14:50:00","4","59.565683","9.212222","19.2","NOTODDEN, NO","FM-15","ENNO ","V020","280,1,N,0021,1","01170,1,C,N","009000,1,N,1","-0020,1","-0040,1","99999,9","02,5,+00450,1,99,9","08,5,+01170,1,99,9",,"08,99,1,99,9,99,9,99999,9,99,9,99,9",,"09949,1,99999,9","71,1",,,,"MET064METAR ENNO 261450Z 28004KT 9000 -SN FEW015 OVC039 M02/M04 Q0995;",
"01470399999","2010-02-26T15:50:00","4","59.565683","9.212222","19.2","NOTODDEN, NO","FM-15","ENNO ","V020","300,1,N,0015,1","00750,1,C,N","009000,1,N,1","-0020,1","-0040,1","99999,9","02,5,+00300,1,99,9","07,5,+00750,1,99,9",,"07,99,1,99,9,99,9,99999,9,99,9,99,9",,"09949,1,99999,9","71,1",,,,"MET071METAR ENNO 261550Z 30003KT 9000 5000SE -SN FEW010 BKN025 M02/M04 Q0995;",
"01470399999","2010-02-26T16:50:00","4","59.565683","9.212222","19.2","NOTODDEN, NO","FM-15","ENNO ","V020","280,1,N,0010,1","01290,1,C,N","008000,1,N,1","-0020,1","-0030,1","99999,9","04,5,+00600,1,99,9","08,5,+01290,1,99,9",,"08,99,1,99,9,99,9,99999,9,99,9,99,9",,"09949,1,99999,9","71,1",,,,"MET064METAR ENNO 261650Z 28002KT 8000 -SN SCT020 OVC043 M02/M03 Q0995;",
"01470399999","2010-02-28T08:50:00","4","59.565683","9.212222","19.2","NOTODDEN, NO","FM-15","ENNO ","V020","290,1,N,0015,1","01590,5,C,N","011265,1,N,1","-0040,1","-0050,1","99999,9","04,5,+00600,1,99,9","08,5,+01590,5,99,9",,"08,99,1,99,9,99,9,99999,9,99,9,99,9",,"09949,1,99999,9",,,,,"MET060METAR ENNO 280850Z 29003KT 9999 SCT020 OVC053 M04/M05 Q0995;",
"01470399999","2010-02-28T09:50:00","4","59.565683","9.212222","19.2","NOTODDEN, NO","FM-15","ENNO ","V020","270,1,N,0015,1","01380,1,C,N","011265,1,N,1","-0030,1","-0050,1","99999,9","08,5,+01380,1,99,9",,,"08,99,1,99,9,99,9,99999,9,99,9,99,9",,"09949,1,99999,9",,,,,"MET053METAR ENNO 280950Z 27003KT 9999 OVC046 M03/M05 Q0995;",
"01470399999","2010-02-28T10:50:00","4","59.565683","9.212222","19.2","NOTODDEN, NO","FM-15","ENNO ","V020","260,1,N,0021,1","01410,1,C,N","011265,1,N,1","-0030,1","-0050,1","99999,9","08,5,+01410,1,99,9",,,"08,99,1,99,9,99,9,99999,9,99,9,99,9",,"09949,1,99999,9",,,,,"MET053METAR ENNO 281050Z 26004KT 9999 OVC047 M03/M05 Q0995;",
"01470399999","2010-02-28T16:50:00","4","59.565683","9.212222","19.2","NOTODDEN, NO","FM-15","ENNO ","V020","999,9,C,0000,1","01380,1,C,N","011265,1,N,1","-0020,1","-0040,1","99999,9","08,5,+01380,1,99,9",,,"08,99,1,99,9,99,9,99999,9,99,9,99,9",,"09939,1,99999,9",,,,,"MET053METAR ENNO 281650Z 00000KT 9999 OVC046 M02/M04 Q0994;",
"01470399999","2010-02-28T17:50:00","4","59.565683","9.212222","19.2","NOTODDEN, NO","FM-15","ENNO ","V020","999,9,C,0000,1","01380,1,C,N","011265,1,N,1","-0030,1","-0040,1","99999,9","08,5,+01380,1,99,9",,,"08,99,1,99,9,99,9,99999,9,99,9,99,9",,"09939,1,99999,9","71,1",,,,"MET057METAR ENNO 281750Z 00000KT 9999 -SN OVC046 M03/M04 Q0994;",
"01470399999","2010-02-28T18:50:00","4","59.565683","9.212222","19.2","NOTODDEN, NO","FM-15","ENNO ","V020","300,1,N,0010,1","01380,1,C,N","011265,1,N,1","-0030,1","-0040,1","99999,9","08,5,+01380,1,99,9",,,"08,99,1,99,9,99,9,99999,9,99,9,99,9",,"09939,1,99999,9","71,1",,,,"MET057METAR ENNO 281850Z 30002KT 9999 -SN OVC046 M03/M04 Q0994;",
"01470399999","2010-03-01T05:50:00","4","59.565683","9.212222","19.2","NOTODDEN, NO","FM-15","ENNO ","V020","290,1,N,0021,1","01830,5,C,N","011265,1,N,1","-0040,1","-0050,1","99999,9","08,5,+01830,5,99,9",,,"08,99,1,99,9,99,9,99999,9,99,9,99,9",,"09929,1,99999,9",,,,,"MET053METAR ENNO 010550Z 29004KT 9999 OVC061 M04/M05 Q0993;",
"01470399999","2010-03-01T06:50:00","4","59.565683","9.212222","19.2","NOTODDEN, NO","FM-15","ENNO ","V020","300,1,N,0015,1","01890,5,C,N","011265,1,N,1","-0040,1","-0050,1","99999,9","07,5,+01890,5,99,9",,,"07,99,1,99,9,99,9,99999,9,99,9,99,9",,"09929,1,99999,9",,,,,"MET053METAR ENNO 010650Z 30003KT 9999 BKN063 M04/M05 Q0993;",
"01470399999","2010-03-01T07:50:00","4","59.565683","9.212222","19.2","NOTODDEN, NO","FM-15","ENNO ","V020","280,1,N,0026,1","01950,5,C,N","011265,1,N,1","-0030,1","-0050,1","99999,9","07,5,+01950,5,99,9",,,"07,99,1,99,9,99,9,99999,9,99,9,99,9",,"09939,1,99999,9",,,,,"MET053METAR ENNO 010750Z 28005KT 9999 BKN065 M03/M05 Q0994;",
"01470399999","2010-03-01T08:50:00","4","59.565683","9.212222","19.2","NOTODDEN, NO","FM-15","ENNO ","V020","280,1,N,0031,1","02880,5,C,N","011265,1,N,1","-0030,1","-0050,1","99999,9","04,5,+02070,5,99,9","07,5,+02880,5,99,9",,"07,99,1,99,9,99,9,99999,9,99,9,99,9",,"09939,1,99999,9",,,,,"MET060METAR ENNO 010850Z 28006KT 9999 SCT069 BKN096 M03/M05 Q0994;",
"01470399999","2010-03-01T09:50:00","4","59.565683","9.212222","19.2","NOTODDEN, NO","FM-15","ENNO ","V020","270,1,N,0026,1","02880,5,C,N","011265,1,N,1","-0020,1","-0050,1","99999,9","04,5,+02130,5,99,9","07,5,+02880,5,99,9",,"07,99,1,99,9,99,9,99999,9,99,9,99,9",,"09949,1,99999,9",,,,,"MET060METAR ENNO 010950Z 27005KT 9999 SCT071 BKN096 M02/M05 Q0995;",
"01470399999","2010-03-01T10:50:00","4","59.565683","9.212222","19.2","NOTODDEN, NO","FM-15","ENNO ","V020","270,1,N,0015,1","99999,9,9,Y","009900,1,N,1","+0000,1","-0040,1","99999,9",,,,,,"09949,1,99999,9",,,,,"MET047METAR ENNO 011050Z 27003KT CAVOK M00/M04 Q0995;",
"01470399999","2010-03-01T11:50:00","4","59.565683","9.212222","19.2","NOTODDEN, NO","FM-15","ENNO ","V020","290,1,N,0031,1","99999,9,9,Y","009900,1,N,1","+0000,1","-0060,1","99999,9",,,,,,"09949,1,99999,9",,,,,"MET047METAR ENNO 011150Z 29006KT CAVOK M00/M06 Q0995;",
"01470399999","2010-03-01T12:50:00","4","59.565683","9.212222","19.2","NOTODDEN, NO","FM-15","ENNO ","V020","999,9,V,0010,1","99999,9,9,Y","009900,1,N,1","+0020,1","-0080,1","99999,9",,,,,,"09949,1,99999,9",,,,,"MET046METAR ENNO 011250Z VRB02KT CAVOK 02/M08 Q0995;",
"01470399999","2010-03-01T13:50:00","4","59.565683","9.212222","19.2","NOTODDEN, NO","FM-15","ENNO ","V020","220,1,N,0021,1","22000,1,9,N","011265,1,N,1","+0020,1","-0110,1","99999,9","02,5,+01950,5,99,9",,,"02,99,1,99,9,99,9,99999,9,99,9,99,9",,"09959,1,99999,9",,,,,"MET052METAR ENNO 011350Z 22004KT 9999 FEW065 02/M11 Q0996;",
"01470399999","2010-03-01T14:50:00","4","59.565683","9.212222","19.2","NOTODDEN, NO","FM-15","ENNO ","V020","999,9,V,0005,1","22000,1,9,N","011265,1,N,1","+0010,1","-0080,1","99999,9","02,5,+01950,5,99,9",,,"02,99,1,99,9,99,9,99999,9,99,9,99,9",,"09959,1,99999,9",,,,,"MET052METAR ENNO 011450Z VRB01KT 9999 FEW065 01/M08 Q0996;",
"01470399999","2010-03-01T15:50:00","4","59.565683","9.212222","19.2","NOTODDEN, NO","FM-15","ENNO ","V020","999,9,C,0000,1","99999,9,9,Y","009900,1,N,1","+0000,1","-0070,1","99999,9",,,,,,"09970,1,99999,9",,,,,"MET047METAR ENNO 011550Z 00000KT CAVOK M00/M07 Q0997;",
"01470399999","2010-03-01T16:50:00","4","59.565683","9.212222","19.2","NOTODDEN, NO","FM-15","ENNO ","V020","999,9,V,0005,1","99999,9,9,Y","009900,1,N,1","-0060,1","-0080,1","99999,9",,,,,,"09980,1,99999,9",,,,,"MET047METAR ENNO 011650Z VRB01KT CAVOK M06/M08 Q0998;",
"01470399999","2010-03-02T05:50:00","4","59.565683","9.212222","19.2","NOTODDEN, NO","FM-15","ENNO ","V020","999,9,C,0000,1","22000,1,9,N","011265,1,N,1","-0190,1","-0210,1","99999,9",,,,,,"10081,1,99999,9","40,1",,,,"MET051METAR ENNO 020550Z 00000KT 9999 VCFG M19/M21 Q1008;",
"01470399999","2010-03-02T06:50:00","4","59.565683","9.212222","19.2","NOTODDEN, NO","FM-15","ENNO ","V020","999,9,C,0000,1","22000,1,9,N","011265,1,N,1","-0190,1","-0210,1","99999,9",,,,"00,99,1,99,9,99,9,99999,9,99,9,99,9",,"10091,1,99999,9","40,1",,,,"MET055METAR ENNO 020650Z 00000KT 9999 VCFG NSC M19/M21 Q1009;","Q01    003SCCGA1"
"01470399999","2010-03-02T07:50:00","4","59.565683","9.212222","19.2","NOTODDEN, NO","FM-15","ENNO ","V020","999,9,C,0000,1","22000,1,9,N","011265,1,N,1","-0160,1","-0170,1","99999,9",,,,"00,99,1,99,9,99,9,99999,9,99,9,99,9",,"10091,1,99999,9","40,1",,,,"MET055METAR ENNO 020750Z 00000KT 9999 VCFG NSC M16/M17 Q1009;","Q01    003SCCGA1"
"01470399999","2010-03-02T08:50:00","4","59.565683","9.212222","19.2","NOTODDEN, NO","FM-15","ENNO ","V020","270,1,N,0010,1","99999,9,9,Y","009900,1,N,1","-0140,1","-0160,1","99999,9",,,,,,"10102,1,99999,9",,,,,"MET047METAR ENNO 020850Z 27002KT CAVOK M14/M16 Q1010;",
"01470399999","2010-03-02T09:50:00","4","59.565683","9.212222","19.2","NOTODDEN, NO","FM-15","ENNO ","V020","999,9,C,0000,1","99999,9,9,Y","009900,1,N,1","-0100,1","-0130,1","99999,9",,,,,,"10102,1,99999,9",,,,,"MET047METAR ENNO 020950Z 00000KT CAVOK M10/M13 Q1010;",
"01470399999","2010-03-02T10:50:00","4","59.565683","9.212222","19.2","NOTODDEN, NO","FM-15","ENNO ","V020","999,9,C,0000,1","99999,9,9,Y","009900,1,N,1","-0070,1","-0120,1","99999,9",,,,,,"10102,1,99999,9",,,,,"MET047METAR ENNO 021050Z 00000KT CAVOK M07/M12 Q1010;",
"01470399999","2010-03-02T11:50:00","4","59.565683","9.212222","19.2","NOTODDEN, NO","FM-15","ENNO ","V020","999,9,C,0000,1","99999,9,9,Y","009900,1,N,1","-0050,1","-0130,1","99999,9",,,,,,"10102,1,99999,9",,,,,"MET047METAR ENNO 021150Z 00000KT CAVOK M05/M13 Q1010;",
"01470399999","2010-03-02T12:50:00","4","59.565683","9.212222","19.2","NOTODDEN, NO","FM-15","ENNO ","V020","999,9,C,0000,1","99999,9,9,Y","009900,1,N,1","-0040,1","-0120,1","99999,9",,,,,,"10102,1,99999,9",,,,,"MET047METAR ENNO 021250Z 00000KT CAVOK M04/M12 Q1010;",
"01470399999","2010-03-02T13:50:00","4","59.565683","9.212222","19.2","NOTODDEN, NO","FM-15","ENNO ","V020","999,9,V,0005,1","99999,9,9,Y","009900,1,N,1","-0020,1","-0120,1","99999,9",,,,,,"10091,1,99999,9",,,,,"MET047METAR ENNO 021350Z VRB01KT CAVOK M02/M12 Q1009;",
"01470399999","2010-03-02T14:50:00","4","59.565683","9.212222","19.2","NOTODDEN, NO","FM-15","ENNO ","V020","999,9,V,0010,1","99999,9,9,Y","009900,1,N,1","-0040,1","-0110,1","99999,9",,,,,,"10091,1,99999,9",,,,,"MET047METAR ENNO 021450Z VRB02KT CAVOK M04/M11 Q1009;",
"01470399999","2010-03-02T15:50:00","4","59.565683","9.212222","19.2","NOTODDEN, NO","FM-15","ENNO ","V020","999,9,V,0005,1","99999,9,9,Y","009900,1,N,1","-0050,1","-0100,1","99999,9",,,,,,"10091,1,99999,9",,,,,"MET047METAR ENNO 021550Z VRB01KT CAVOK M05/M10 Q1009;",
"01470399999","2010-03-02T16:50:00","4","59.565683","9.212222","19.2","NOTODDEN, NO","FM-15","ENNO ","V020","999,9,V,0005,1","99999,9,9,Y","009900,1,N,1","-0070,1","-0110,1","99999,9",,,,,,"10091,1,99999,9",,,,,"MET047METAR ENNO 021650Z VRB01KT CAVOK M07/M11 Q1009;",
"01470399999","2010-03-03T05:50:00","4","59.565683","9.212222","19.2","NOTODDEN, NO","FM-15","ENNO ","V020","999,9,V,0005,1","99999,9,9,Y","009900,1,N,1","-0180,1","-0190,1","99999,9",,,,,,"10149,1,99999,9",,,,,"MET047METAR ENNO 030550Z VRB01KT CAVOK M18/M19 Q1015;",
"01470399999","2010-03-03T06:50:00","4","59.565683","9.212222","19.2","NOTODDEN, NO","FM-15","ENNO ","V020","280,1,N,0015,1","99999,9,9,Y","009900,1,N,1","-0160,1","-0170,1","99999,9",,,,,,"10149,1,99999,9",,,,,"MET047METAR ENNO 030650Z 28003KT CAVOK M16/M17 Q1015;",
"01470399999","2010-03-03T07:50:00","4","59.565683","9.212222","19.2","NOTODDEN, NO","FM-15","ENNO ","V020","999,9,C,0000,1","99999,9,9,Y","009900,1,N,1","-0130,1","-0140,1","99999,9",,,,,,"10159,1,99999,9",,,,,"MET047METAR ENNO 030750Z 00000KT CAVOK M13/M14 Q1016;",
"01470399999","2010-03-03T08:50:00","4","59.565683","9.212222","19.2","NOTODDEN, NO","FM-15","ENNO ","V020","999,9,C,0000,1","99999,9,9,Y","009900,1,N,1","-0100,1","-0120,1","99999,9",,,,,,"10159,1,99999,9",,,,,"MET047METAR ENNO 030850Z 00000KT CAVOK M10/M12 Q1016;",
"01470399999","2010-03-03T09:50:00","4","59.565683","9.212222","19.2","NOTODDEN, NO","FM-15","ENNO ","V020","999,9,C,0000,1","99999,9,9,Y","009900,1,N,1","-0060,1","-0090,1","99999,9",,,,,,"10159,1,99999,9",,,,,"MET047METAR ENNO 030950Z 00000KT CAVOK M06/M09 Q1016;",
"01470399999","2010-03-03T10:50:00","4","59.565683","9.212222","19.2","NOTODDEN, NO","FM-15","ENNO ","V020","999,9,C,0000,1","99999,9,9,Y","009900,1,N,1","-0030,1","-0100,1","99999,9",,,,,,"10159,1,99999,9",,,,,"MET047METAR ENNO 031050Z 00000KT CAVOK M03/M10 Q1016;",
"01470399999","2010-03-03T11:50:00","4","59.565683","9.212222","19.2","NOTODDEN, NO","FM-15","ENNO ","V020","999,9,C,0000,1","99999,9,9,Y","009900,1,N,1","-0010,1","-0090,1","99999,9",,,,,,"10159,1,99999,9",,,,,"MET047METAR ENNO 031150Z 00000KT CAVOK M01/M09 Q1016;",
"01470399999","2010-03-03T12:50:00","4","59.565683","9.212222","19.2","NOTODDEN, NO","FM-15","ENNO ","V020","999,9,C,0000,1","99999,9,9,Y","009900,1,N,1","+0010,1","-0080,1","99999,9",,,,,,"10159,1,99999,9",,,,,"MET046METAR ENNO 031250Z 00000KT CAVOK 01/M08 Q1016;",
"01470399999","2010-03-03T13:50:00","4","59.565683","9.212222","19.2","NOTODDEN, NO","FM-15","ENNO ","V020","999,9,C,0000,1","99999,9,9,Y","009900,1,N,1","+0020,1","-0080,1","99999,9",,,,,,"10149,1,99999,9",,,,,"MET046METAR ENNO 031350Z 00000KT CAVOK 02/M08 Q1015;",
"01470399999","2010-03-03T14:50:00","4","59.565683","9.212222","19.2","NOTODDEN, NO","FM-15","ENNO ","V020","999,9,V,0010,1","99999,9,9,Y","009900,1,N,1","-0010,1","-0080,1","99999,9",,,,,,"10149,1,99999,9",,,,,"MET047METAR ENNO 031450Z VRB02KT CAVOK M01/M08 Q1015;",
"01470399999","2010-03-03T15:50:00","4","59.565683","9.212222","19.2","NOTODDEN, NO","FM-15","ENNO ","V020","999,9,V,0005,1","99999,9,9,Y","009900,1,N,1","-0030,1","-0080,1","99999,9",,,,,,"10149,1,99999,9",,,,,"MET047METAR ENNO 031550Z VRB01KT CAVOK M03/M08 Q1015;",
"01470399999","2010-03-03T16:50:00","4","59.565683","9.212222","19.2","NOTODDEN, NO","FM-15","ENNO ","V020","290,1,N,0021,1","99999,9,9,Y","009900,1,N,1","-0050,1","-0110,1","99999,9",,,,,,"10159,1,99999,9",,,,,"MET047METAR ENNO 031650Z 29004KT CAVOK M05/M11 Q1016;",
"01470399999","2010-03-04T05:50:00","4","59.565683","9.212222","19.2","NOTODDEN, NO","FM-15","ENNO ","V020","999,9,V,0005,1","02400,1,C,N","011265,1,N,1","-0130,1","-0150,1","99999,9","02,5,+01800,1,99,9","07,5,+02400,1,99,9",,"07,99,1,99,9,99,9,99999,9,99,9,99,9",,"10200,1,99999,9",,,,,"MET060METAR ENNO 040550Z VRB01KT 9999 FEW060 BKN080 M13/M15 Q1020;",
"01470399999","2010-03-04T06:50:00","4","59.565683","9.212222","19.2","NOTODDEN, NO","FM-15","ENNO ","V020","310,1,N,0015,1","01800,1,C,N","011265,1,N,1","-0140,1","-0160,1","99999,9","02,5,+01500,1,99,9","04,5,+01800,1,99,9","07,5,+02400,1,99,9","07,99,1,99,9,99,9,99999,9,99,9,99,9",,"10210,1,99999,9",,,,,"MET075METAR ENNO 040650Z 31003KT 290V030 9999 FEW050 SCT060 BKN080 M14/M16 Q1021;",
"01470399999","2010-03-04T07:50:00","4","59.565683","9.212222","19.2","NOTODDEN, NO","FM-15","ENNO ","V020","999,9,V,0005,1","01800,1,C,N","011265,1,N,1","-0120,1","-0130,1","99999,9","02,5,+01500,1,99,9","04,5,+01800,1,99,9","07,5,+02400,1,99,9","07,99,1,99,9,99,9,99999,9,99,9,99,9",,"10210,1,99999,9",,,,,"MET067METAR ENNO 040750Z VRB01KT 9999 FEW050 SCT060 BKN080 M12/M13 Q1021;",
"01470399999","2010-03-04T09:50:00","4","59.565683","9.212222","19.2","NOTODDEN, NO","FM-15","ENNO ","V020","250,1,N,0015,1","99999,9,C,N","011265,1,N,1","-0060,1","-0120,1","99999,9","02,5,+01800,1,99,9","04,5,+02400,1,99,9",,"04,99,1,99,9,99,9,99999,9,99,9,99,9",,"10220,1,99999,9",,,,,"MET060METAR ENNO 040950Z 25003KT 9999 FEW060 SCT080 M06/M12 Q1022;","P01 024003SCOCIG"
"01470399999","2010-03-04T10:50:00","4","59.565683","9.212222","19.2","NOTODDEN, NO","FM-15","ENNO ","V020","999,9,V,0010,1","22000,1,9,N","011265,1,N,1","-0010,1","-0110,1","99999,9","02,5,+01950,5,99,9",,,"02,99,1,99,9,99,9,99999,9,99,9,99,9",,"10210,1,99999,9",,,,,"MET053METAR ENNO 041050Z VRB02KT 9999 FEW065 M01/M11 Q1021;",
"01470399999","2010-03-04T11:50:00","4","59.565683","9.212222","19.2","NOTODDEN, NO","FM-15","ENNO ","V020","999,9,V,0031,1","22000,1,9,N","011265,1,N,1","+0020,1","-0120,1","99999,9","02,5,+01920,5,99,9",,,"02,99,1,99,9,99,9,99999,9,99,9,99,9",,"10210,1,99999,9",,,,,"MET052METAR ENNO 041150Z VRB06KT 9999 FEW064 02/M12 Q1021;",
"01470399999","2010-03-04T12:50:00","4","59.565683","9.212222","19.2","NOTODDEN, NO","FM-15","ENNO ","V020","999,9,V,0026,1","99999,9,9,Y","009900,1,N,1","+0020,1","-0130,1","99999,9",,,,,,"10210,1,99999,9",,,,,"MET046METAR ENNO 041250Z VRB05KT CAVOK 02/M13 Q1021;",
"01470399999","2010-03-04T13:50:00","4","59.565683","9.212222","19.2","NOTODDEN, NO","FM-15","ENNO ","V020","300,1,N,0046,1","22000,1,9,N","011265,1,N,1","+0030,1","-0110,1","99999,9","02,5,+02100,1,99,9",,,"02,99,1,99,9,99,9,99999,9,99,9,99,9",,"10200,1,99999,9",,,,,"MET060METAR ENNO 041350Z 30009KT 240V350 9999 FEW070 03/M11 Q1020;",
"01470399999","2010-03-04T14:50:00","4","59.565683","9.212222","19.2","NOTODDEN, NO","FM-15","ENNO ","V020","999,9,V,0005,1","99999,9,9,Y","009900,1,N,1","+0030,1","-0120,1","99999,9",,,,,,"10210,1,99999,9",,,,,"MET046METAR ENNO 041450Z VRB01KT CAVOK 03/M12 Q1021;",
"01470399999","2010-03-04T15:50:00","4","59.565683","9.212222","19.2","NOTODDEN, NO","FM-15","ENNO ","V020","999,9,V,0010,1","99999,9,9,Y","009900,1,N,1","+0020,1","-0120,1","99999,9",,,,,,"10210,1,99999,9",,,,,"MET046METAR ENNO 041550Z VRB02KT CAVOK 02/M12 Q1021;",
"01470399999","2010-03-04T16:50:00","4","59.565683","9.212222","19.2","NOTODDEN, NO","FM-15","ENNO ","V020","300,1,N,0005,1","02250,5,C,N","011265,1,N,1","-0010,1","-0080,1","99999,9","07,5,+02250,5,99,9",,,"07,99,1,99,9,99,9,99999,9,99,9,99,9",,"10210,1,99999,9",,,,,"MET053METAR ENNO 041650Z 30001KT 9999 BKN075 M01/M08 Q1021;",
"01470399999","2010-03-05T05:50:00","4","59.565683","9.212222","19.2","NOTODDEN, NO","FM-15","ENNO ","V020","999,9,C,0000,1","99999,9,9,Y","009900,1,N,1","-0160,1","-0180,1","99999,9",,,,,,"10210,1,99999,9",,,,,"MET047METAR ENNO 050550Z 00000KT CAVOK M16/M18 Q1021;",
"01470399999","2010-03-05T06:50:00","4","59.565683","9.212222","19.2","NOTODDEN, NO","FM-15","ENNO ","V020","999,9,V,0010,1","99999,9,9,Y","009900,1,N,1","-0150,1","-0170,1","99999,9",,,,,,"10210,1,99999,9",,,,,"MET047METAR ENNO 050650Z VRB02KT CAVOK M15/M17 Q1021;",
"01470399999","2010-03-05T07:50:00","4","59.565683","9.212222","19.2","NOTODDEN, NO","FM-15","ENNO ","V020","999,9,C,0000,1","99999,9,9,Y","009900,1,N,1","-0130,1","-0150,1","99999,9",,,,,,"10200,1,99999,9",,,,,"MET047METAR ENNO 050750Z 00000KT CAVOK M13/M15 Q1020;",
"01470399999","2010-03-05T08:50:00","4","59.565683","9.212222","19.2","NOTODDEN, NO","FM-15","ENNO ","V020","999,9,V,0005,1","99999,9,9,Y","009900,1,N,1","-0120,1","-0140,1","99999,9",,,,,,"10200,1,99999,9",,,,,"MET047METAR ENNO 050850Z VRB01KT CAVOK M12/M14 Q1020;",
"01470399999","2010-03-05T09:50:00","4","59.565683","9.212222","19.2","NOTODDEN, NO","FM-15","ENNO ","V020","999,9,C,0000,1","01200,1,C,N","011265,1,N,1","-0110,1","-0130,1","99999,9","08,5,+01200,1,99,9",,,"08,99,1,99,9,99,9,99999,9,99,9,99,9",,"10190,1,99999,9","16,1",,,,"MET058METAR ENNO 050950Z 00000KT 9999 VCSH OVC040 M11/M13 Q1019;",
"01470399999","2010-03-05T10:20:00","4","59.565683","9.212222","19.2","NOTODDEN, NO","FM-15","ENNO ","V020","270,1,N,0010,1","00750,1,9,N","009000,1,N,1","-0100,1","-0120,1","99999,9","09,1,+00750,1,99,9",,,"09,99,1,99,9,99,9,00025,1,99,9,99,9",,"10190,1,99999,9","71,1",,,,"MET056METAR ENNO 051020Z 27002KT 9000 -SN VV025 M10/M12 Q1019;",
"01470399999","2010-03-05T10:50:00","4","59.565683","9.212222","19.2","NOTODDEN, NO","FM-15","ENNO ","V020","999,9,V,0005,1","00600,1,9,N","008000,1,N,1","-0100,1","-0120,1","99999,9","09,1,+00600,1,99,9",,,"09,99,1,99,9,99,9,00025,1,99,9,99,9",,"10190,1,99999,9","71,1",,,,"MET056METAR ENNO 051050Z VRB01KT 8000 -SN VV020 M10/M12 Q1019;",
"01470399999","2010-03-05T11:50:00","4","59.565683","9.212222","19.2","NOTODDEN, NO","FM-15","ENNO ","V020","999,9,V,0005,1","00240,1,9,N","004000,1,N,1","-0090,1","-0110,1","99999,9","09,1,+00240,1,99,9",,,"09,99,1,99,9,99,9,00025,1,99,9,99,9",,"10190,1,99999,9","73,1",,,,"MET055METAR ENNO 051150Z VRB01KT 4000 SN VV008 M09/M11 Q1019;",
"01470399999","2010-03-05T12:50:00","4","59.565683","9.212222","19.2","NOTODDEN, NO","FM-15","ENNO ","V020","280,1,N,0010,1","00210,1,9,N","002000,1,N,1","-0090,1","-0100,1","99999,9","09,1,+00210,1,99,9",,,"09,99,1,99,9,99,9,00025,1,99,9,99,9",,"10190,1,99999,9","73,1",,,,"MET055METAR ENNO 051250Z 28002KT 2000 SN VV007 M09/M10 Q1019;",
"01470399999","2010-03-05T13:50:00","4","59.565683","9.212222","19.2","NOTODDEN, NO","FM-15","ENNO ","V020","999,9,C,0000,1","00210,1,9,N","001000,1,N,1","-0070,1","-0090,1","99999,9","09,1,+00210,1,99,9",,,"09,99,1,99,9,99,9,00025,1,99,9,99,9",,"10190,1,99999,9","10,1","73,1",,,"MET058METAR ENNO 051350Z 00000KT 1000 SN BR VV007 M07/M09 Q1019;",
"01470399999","2010-03-05T14:50:00","4","59.565683","9.212222","19.2","NOTODDEN, NO","FM-15","ENNO ","V020","999,9,C,0000,1","22000,1,9,N","009000,1,N,1","-0060,1","-0080,1","99999,9","04,5,+00600,1,99,9",,,"04,99,1,99,9,99,9,99999,9,99,9,99,9",,"10190,1,99999,9","71,1",,,,"MET066METAR ENNO 051450Z 00000KT 9000SE 4000NW -SN SCT020 M06/M08 Q1019;",
"01470399999","2010-03-05T15:50:00","4","59.565683","9.212222","19.2","NOTODDEN, NO","FM-15","ENNO ","V020","999,9,C,0000,1","99999,9,C,N","011265,1,N,1","-0070,1","-0090,1","99999,9","04,5,+00540,1,99,9","04,5,+00780,1,99,9",,"04,99,1,99,9,99,9,99999,9,99,9,99,9",,"10200,1,99999,9","16,1",,,,"MET065METAR ENNO 051550Z 00000KT 9999 VCSH SCT018 SCT026 M07/M09 Q1020;","P01 007803SCOCIG"
"01470399999","2010-03-05T16:50:00","4","59.565683","9.212222","19.2","NOTODDEN, NO","FM-15","ENNO ","V020","999,9,C,0000,1","99999,9,C,N","011265,1,N,1","-0090,1","-0100,1","99999,9","02,5,+00300,1,99,9","04,5,+00780,1,99,9",,"04,99,1,99,9,99,9,99999,9,99,9,99,9",,"10210,1,99999,9","16,1",,,,"MET065METAR ENNO 051650Z 00000KT 9999 VCSH FEW010 SCT026 M09/M10 Q1021;","P01 007803SCOCIG"
"01470399999","2010-03-07T16:50:00","4","59.565683","9.212222","19.2","NOTODDEN, NO","FM-15","ENNO ","V020","999,9,C,0000,1","99999,9,9,Y","009900,1,N,1","-0010,1","-0010,1","99999,9",,,,,,"10281,1,99999,9",,,,,"MET047METAR ENNO 071650Z 00000KT CAVOK M01/M01 Q1028;",
"01470399999","2010-03-07T17:50:00","4","59.565683","9.212222","19.2","NOTODDEN, NO","FM-15","ENNO ","V020","999,9,V,0005,1","99999,9,9,Y","009900,1,N,1","-0030,1","-0040,1","99999,9",,,,,,"10281,1,99999,9",,,,,"MET047METAR ENNO 071750Z VRB01KT CAVOK M03/M04 Q1028;",
"01470399999","2010-03-08T05:50:00","4","59.565683","9.212222","19.2","NOTODDEN, NO","FM-15","ENNO ","V020","999,9,C,0000,1","22000,1,9,N","000900,1,N,1","-0120,1","-0130,1","99999,9",,,,,,"10281,1,99999,9","48,1",,,,"MET051METAR ENNO 080550Z 00000KT 0900 FZFG M12/M13 Q1028;",
"01470399999","2010-03-08T06:50:00","4","59.565683","9.212222","19.2","NOTODDEN, NO","FM-15","ENNO ","V020","999,9,C,0000,1","22000,1,9,N","000900,1,N,1","-0120,1","-0130,1","99999,9",,,,,,"10281,1,99999,9","48,1",,,,"MET051METAR ENNO 080650Z 00000KT 0900 FZFG M12/M13 Q1028;",
"01470399999","2010-03-08T07:50:00","4","59.565683","9.212222","19.2","NOTODDEN, NO","FM-15","ENNO ","V020","999,9,C,0000,1","22000,1,9,N","000900,1,N,1","-0110,1","-0120,1","99999,9",,,,,,"10281,1,99999,9","48,1",,,,"MET051METAR ENNO 080750Z 00000KT 0900 FZFG M11/M12 Q1028;",
"01470399999","2010-03-08T08:50:00","4","59.565683","9.212222","19.2","NOTODDEN, NO","FM-15","ENNO ","V020","280,1,N,0015,1","22000,1,9,N","011265,1,N,1","-0090,1","-0100,1","99999,9","02,5,+00000,5,99,9",,,"02,99,1,99,9,99,9,99999,9,99,9,99,9",,"10281,1,99999,9",,,,,"MET053METAR ENNO 080850Z 28003KT 9999 FEW000 M09/M10 Q1028;",
"01470399999","2010-03-08T09:50:00","4","59.565683","9.212222","19.2","NOTODDEN, NO","FM-15","ENNO ","V020","999,9,V,0005,1","99999,9,9,Y","009900,1,N,1","-0060,1","-0080,1","99999,9",,,,,,"10271,1,99999,9",,,,,"MET047METAR ENNO 080950Z VRB01KT CAVOK M06/M08 Q1027;",
"01470399999","2010-03-08T10:50:00","4","59.565683","9.212222","19.2","NOTODDEN, NO","FM-15","ENNO ","V020","999,9,C,0000,1","99999,9,9,Y","009900,1,N,1","-0020,1","-0030,1","99999,9",,,,,,"10261,1,99999,9",,,,,"MET047METAR ENNO 081050Z 00000KT CAVOK M02/M03 Q1026;",
"01470399999","2010-03-08T11:50:00","4","59.565683","9.212222","19.2","NOTODDEN, NO","FM-15","ENNO ","V020","999,9,V,0010,1","99999,9,9,Y","009900,1,N,1","+0010,1","-0040,1","99999,9",,,,,,"10261,1,99999,9",,,,,"MET046METAR ENNO 081150Z VRB02KT CAVOK 01/M04 Q1026;",
"01470399999","2010-03-08T12:50:00","4","59.565683","9.212222","19.2","NOTODDEN, NO","FM-15","ENNO ","V020","110,1,N,0015,1","99999,9,9,Y","009900,1,N,1","+0010,1","-0050,1","99999,9",,,,,,"10251,1,99999,9",,,,,"MET054METAR ENNO 081250Z 11003KT 080V150 CAVOK 01/M05 Q1025;",
"01470399999","2010-03-08T13:50:00","4","59.565683","9.212222","19.2","NOTODDEN, NO","FM-15","ENNO ","V020","310,1,N,0021,1","22000,1,9,N","011265,1,N,1","+0040,1","-0030,1","99999,9","02,5,+01200,1,99,9",,,"02,99,1,99,9,99,9,99999,9,99,9,99,9",,"10240,1,99999,9",,,,,"MET060METAR ENNO 081350Z 31004KT 250V350 9999 FEW040 04/M03 Q1024;",
"01470399999","2010-03-08T14:50:00","4","59.565683","9.212222","19.2","NOTODDEN, NO","FM-15","ENNO ","V020","290,1,N,0031,5","99999,9,9,Y","009900,1,N,1","+0070,1","-0020,1","99999,9",,,,,,"10240,1,99999,9",,,,,"MET044METAR ENNO 081450Z 29006 CAVOK 07/M02 Q1024;",
"01470399999","2010-03-08T15:50:00","4","59.565683","9.212222","19.2","NOTODDEN, NO","FM-15","ENNO ","V020","290,1,N,0021,1","99999,9,9,Y","009900,1,N,1","+0090,1","-0030,1","99999,9",,,,,,"10240,1,99999,9",,,,,"MET054METAR ENNO 081550Z 29004KT 230V330 CAVOK 09/M03 Q1024;",
"01470399999","2010-03-09T05:50:00","4","59.565683","9.212222","19.2","NOTODDEN, NO","FM-15","ENNO ","V020","999,9,V,0005,1","22000,1,9,N","011265,1,N,1","-0100,1","-0110,1","99999,9",,,,"00,99,1,99,9,99,9,99999,9,99,9,99,9",,"10291,1,99999,9","40,1",,,,"MET063METAR ENNO 090550Z VRB01KT 9999 2000SE VCFG NSC M10/M011 Q1029;","Q01    003SCCGA1"
"01470399999","2010-03-09T06:50:00","4","59.565683","9.212222","19.2","NOTODDEN, NO","FM-15","ENNO ","V020","999,9,V,0005,1","22000,1,9,N","011265,1,N,1","-0100,1","-0110,1","99999,9",,,,"00,99,1,99,9,99,9,99999,9,99,9,99,9",,"10291,1,99999,9","40,1",,,,"MET056METAR ENNO 090650Z VRB01KT 9999 VCFG NSC M10/M011 Q1029;","Q01    003SCCGA1"
"01470399999","2010-03-09T08:50:00","4","59.565683","9.212222","19.2","NOTODDEN, NO","FM-15","ENNO ","V020","999,9,V,0005,1","99999,9,9,Y","009900,1,N,1","-0040,1","-0050,1","99999,9",,,,,,"10301,1,99999,9",,,,,"MET047METAR ENNO 090850Z VRB01KT CAVOK M04/M05 Q1030;",
"01470399999","2010-03-09T09:50:00","4","59.565683","9.212222","19.2","NOTODDEN, NO","FM-15","ENNO ","V020","999,9,V,0005,1","99999,9,9,Y","009900,1,N,1","-0030,1","-0050,1","99999,9",,,,,,"10301,1,99999,9",,,,,"MET047METAR ENNO 090950Z VRB01KT CAVOK M03/M05 Q1030;",
"01470399999","2010-03-09T10:50:00","4","59.565683","9.212222","19.2","NOTODDEN, NO","FM-15","ENNO ","V020","999,9,V,0005,1","99999,9,9,Y","009900,1,N,1","+0020,1","-0040,1","99999,9",,,,,,"10291,1,99999,9",,,,,"MET046METAR ENNO 091050Z VRB01KT CAVOK 02/M04 Q1029;",
"01470399999","2010-03-09T11:50:00","4","59.565683","9.212222","19.2","NOTODDEN, NO","FM-15","ENNO ","V020","999,9,V,0005,1","99999,9,9,Y","009900,1,N,1","+0020,1","-0040,1","99999,9",,,,,,"10291,1,99999,9",,,,,"MET046METAR ENNO 091150Z VRB01KT CAVOK 02/M04 Q1029;",
"01470399999","2010-03-09T12:50:00","4","59.565683","9.212222","19.2","NOTODDEN, NO","FM-15","ENNO ","V020","130,1,N,0015,1","99999,9,9,Y","009900,1,N,1","+0030,1","-0060,1","99999,9",,,,,,"10281,1,99999,9",,,,,"MET046METAR ENNO 091250Z 13003KT CAVOK 03/M06 Q1028;",
"01470399999","2010-03-09T13:50:00","4","59.565683","9.212222","19.2","NOTODDEN, NO","FM-15","ENNO ","V020","110,1,N,0031,1","99999,9,9,Y","009900,1,N,1","+0050,1","-0070,1","99999,9",,,,,,"10271,1,99999,9",,,,,"MET054METAR ENNO 091350Z 11006KT 070V130 CAVOK 05/M07 Q1027;",
"01470399999","2010-03-09T14:50:00","4","59.565683","9.212222","19.2","NOTODDEN, NO","FM-15","ENNO ","V020","110,1,N,0026,1","99999,9,9,Y","009900,1,N,1","+0050,1","-0060,1","99999,9",,,,,,"10271,1,99999,9",,,,,"MET054METAR ENNO 091450Z 11005KT 080V140 CAVOK 05/M06 Q1027;",
"01470399999","2010-03-09T15:50:00","4","59.565683","9.212222","19.2","NOTODDEN, NO","FM-15","ENNO ","V020","999,9,V,0005,1","99999,9,9,Y","009900,1,N,1","+0030,1","-0050,1","99999,9",,,,,,"10271,1,99999,9",,,,,"MET046METAR ENNO 091550Z VRB01KT CAVOK 03/M05 Q1027;",
"01470399999","2010-03-10T05:50:00","4","59.565683","9.212222","19.2","NOTODDEN, NO","FM-15","ENNO ","V020","999,9,V,0010,1","99999,9,9,Y","009900,1,N,1","-0070,1","-0080,1","99999,9",,,,,,"10251,1,99999,9",,,,,"MET047METAR ENNO 100550Z VRB02KT CAVOK M07/M08 Q1025;",
"01470399999","2010-03-10T06:50:00","4","59.565683","9.212222","19.2","NOTODDEN, NO","FM-15","ENNO ","V020","999,9,V,0005,1","99999,9,9,Y","009900,1,N,1","-0070,1","-0080,1","99999,9",,,,,,"10251,1,99999,9",,,,,"MET047METAR ENNO 100650Z VRB01KT CAVOK M07/M08 Q1025;",
"01470399999","2010-03-10T07:50:00","4","59.565683","9.212222","19.2","NOTODDEN, NO","FM-15","ENNO ","V020","999,9,V,0010,1","99999,9,9,Y","009900,1,N,1","-0050,1","-0060,1","99999,9",,,,,,"10251,1,99999,9",,,,,"MET047METAR ENNO 100750Z VRB02KT CAVOK M05/M06 Q1025;",
"01470399999","2010-03-10T08:50:00","4","59.565683","9.212222","19.2","NOTODDEN, NO","FM-15","ENNO ","V020","999,9,V,0005,1","99999,9,9,Y","009900,1,N,1","-0010,1","-0050,1","99999,9",,,,,,"10251,1,99999,9",,,,,"MET047METAR ENNO 100850Z VRB01KT CAVOK M01/M05 Q1025;",
"01470399999","2010-03-10T09:50:00","4","59.565683","9.212222","19.2","NOTODDEN, NO","FM-15","ENNO ","V020","999,9,V,0005,1","99999,9,9,Y","009900,1,N,1","+0020,1","-0040,1","99999,9",,,,,,"10240,1,99999,9",,,,,"MET046METAR ENNO 100950Z VRB01KT CAVOK 02/M04 Q1024;",
"01470399999","2010-03-10T10:50:00","4","59.565683","9.212222","19.2","NOTODDEN, NO","FM-15","ENNO ","V020","999,9,V,0005,1","99999,9,9,Y","009900,1,N,1","+0010,1","-0040,1","99999,9",,,,,,"10240,1,99999,9",,,,,"MET046METAR ENNO 101050Z VRB01KT CAVOK 01/M04 Q1024;",
"01470399999","2010-03-10T11:50:00","4","59.565683","9.212222","19.2","NOTODDEN, NO","FM-15","ENNO ","V020","999,9,V,0005,1","99999,9,9,Y","009900,1,N,1","+0050,1","-0030,1","99999,9",,,,,,"10240,1,99999,9",,,,,"MET046METAR ENNO 101150Z VRB01KT CAVOK 05/M03 Q1024;",
"01470399999","2010-03-10T12:50:00","4","59.565683","9.212222","19.2","NOTODDEN, NO","FM-15","ENNO ","V020","999,9,V,0005,1","99999,9,9,Y","009900,1,N,1","+0070,1","-0030,1","99999,9",,,,,,"10230,1,99999,9",,,,,"MET046METAR ENNO 101250Z VRB01KT CAVOK 07/M03 Q1023;",
"01470399999","2010-03-10T14:50:00","4","59.565683","9.212222","19.2","NOTODDEN, NO","FM-15","ENNO ","V020","999,9,V,0005,1","99999,9,9,Y","009900,1,N,1","+0090,1","-0040,1","99999,9",,,,,,"10220,1,99999,9",,,,,"MET046METAR ENNO 101450Z VRB01KT CAVOK 09/M04 Q1022;",
"01470399999","2010-03-10T15:50:00","4","59.565683","9.212222","19.2","NOTODDEN, NO","FM-15","ENNO ","V020","270,1,N,0036,1","99999,9,9,Y","009900,1,N,1","+0080,1","-0040,1","99999,9",,,,,,"10220,1,99999,9",,,,,"MET054METAR ENNO 101550Z 27007KT 240V310 CAVOK 08/M04 Q1022;",
"01470399999","2010-03-11T06:50:00","4","59.565683","9.212222","19.2","NOTODDEN, NO","FM-15","ENNO ","V020","999,9,V,0005,1","99999,9,C,N","011265,1,N,1","-0070,1","-0080,1","99999,9","02,5,+00000,5,99,9","04,5,+03000,1,99,9",,"04,99,1,99,9,99,9,99999,9,99,9,99,9",,"10149,1,99999,9",,,,,"MET060METAR ENNO 110650Z VRB01KT 9999 FEW000 SCT100 M07/M08 Q1015;","P01 030003SCOCIG"
"01470399999","2010-03-11T07:50:00","4","59.565683","9.212222","19.2","NOTODDEN, NO","FM-15","ENNO ","V020","999,9,V,0010,1","99999,9,C,N","011265,1,N,1","-0050,1","-0050,1","99999,9","02,5,+00000,5,99,9","04,5,+03000,1,99,9",,"04,99,1,99,9,99,9,99999,9,99,9,99,9",,"10149,1,99999,9",,,,,"MET060METAR ENNO 110750Z VRB02KT 9999 FEW000 SCT100 M05/M05 Q1015;","P01 030003SCOCIG"
"01470399999","2010-03-11T08:50:00","4","59.565683","9.212222","19.2","NOTODDEN, NO","FM-15","ENNO ","V020","999,9,C,0000,1","99999,9,9,Y","009900,1,N,1","-0010,1","-0030,1","99999,9",,,,,,"10139,1,99999,9",,,,,"MET047METAR ENNO 110850Z 00000KT CAVOK M01/M03 Q1014;",
"01470399999","2010-03-11T09:50:00","4","59.565683","9.212222","19.2","NOTODDEN, NO","FM-15","ENNO ","V020","999,9,C,0000,1","99999,9,9,Y","009900,1,N,1","+0000,1","-0040,1","99999,9",,,,,,"10129,1,99999,9",,,,,"MET047METAR ENNO 110950Z 00000KT CAVOK M00/M04 Q1013;",
"01470399999","2010-03-11T10:50:00","4","59.565683","9.212222","19.2","NOTODDEN, NO","FM-15","ENNO ","V020","999,9,C,0000,1","99999,9,9,Y","009900,1,N,1","+0040,1","-0030,1","99999,9",,,,,,"10119,1,99999,9",,,,,"MET046METAR ENNO 111050Z 00000KT CAVOK 04/M03 Q1012;",
"01470399999","2010-03-11T11:50:00","4","59.565683","9.212222","19.2","NOTODDEN, NO","FM-15","ENNO ","V020","130,1,N,0021,1","99999,9,9,Y","009900,1,N,1","+0040,1","-0030,1","99999,9",,,,,,"10108,1,99999,9",,,,,"MET054METAR ENNO 111150Z 13004KT 080V170 CAVOK 04/M03 Q1011;",
"01470399999","2010-03-11T12:50:00","4","59.565683","9.212222","19.2","NOTODDEN, NO","FM-15","ENNO ","V020","999,9,V,0005,1","99999,9,9,Y","009900,1,N,1","+0070,1","-0020,1","99999,9",,,,,,"10102,1,99999,9",,,,,"MET046METAR ENNO 111250Z VRB01KT CAVOK 07/M02 Q1010;",
"01470399999","2010-03-11T13:50:00","4","59.565683","9.212222","19.2","NOTODDEN, NO","FM-15","ENNO ","V020","999,9,V,0005,1","99999,9,9,Y","009900,1,N,1","+0060,1","-0020,1","99999,9",,,,,,"10091,1,99999,9",,,,,"MET046METAR ENNO 111350Z VRB01KT CAVOK 06/M02 Q1009;",
"01470399999","2010-03-11T14:50:00","4","59.565683","9.212222","19.2","NOTODDEN, NO","FM-15","ENNO ","V020","999,9,V,0005,1","99999,9,9,Y","009900,1,N,1","+0060,1","+0000,1","99999,9",,,,,,"10091,1,99999,9",,,,,"MET046METAR ENNO 111450Z VRB01KT CAVOK 06/M00 Q1009;",
"01470399999","2010-03-11T15:50:00","4","59.565683","9.212222","19.2","NOTODDEN, NO","FM-15","ENNO ","V020","999,9,V,0010,1","99999,9,9,Y","009900,1,N,1","+0040,1","-0010,1","99999,9",,,,,,"10081,1,99999,9",,,,,"MET046METAR ENNO 111550Z VRB02KT CAVOK 04/M01 Q1008;",
"01470399999","2010-03-12T05:50:00","4","59.565683","9.212222","19.2","NOTODDEN, NO","FM-15","ENNO ","V020","280,1,N,0026,1","01500,1,C,N","011265,1,N,1","-0010,1","-0020,1","99999,9","07,5,+01500,1,99,9",,,"07,99,1,99,9,99,9,99999,9,99,9,99,9",,"10091,1,99999,9",,,,,"MET061METAR ENNO 120550Z 28005KT 240V340 9999 BKN050 M01/M02 Q1009;",
"01470399999","2010-03-12T06:50:00","4","59.565683","9.212222","19.2","NOTODDEN, NO","FM-15","ENNO ","V020","999,9,V,0005,1","01530,5,C,N","011265,1,N,1","-0010,1","-0020,1","99999,9","07,5,+01530,5,99,9",,,"07,99,1,99,9,99,9,99999,9,99,9,99,9",,"10102,1,99999,9",,,,,"MET053METAR ENNO 120650Z VRB01KT 9999 BKN051 M01/M02 Q1010;",
"01470399999","2010-03-12T07:50:00","4","59.565683","9.212222","19.2","NOTODDEN, NO","FM-15","ENNO ","V020","999,9,V,0005,1","01530,5,C,N","011265,1,N,1","+0000,1","-0020,1","99999,9","07,5,+01530,5,99,9",,,"07,99,1,99,9,99,9,99999,9,99,9,99,9",,"10108,1,99999,9",,,,,"MET052METAR ENNO 120750Z VRB01KT 9999 BKN051 00/M02 Q1011;",
"01470399999","2010-03-12T09:20:00","4","59.565683","9.212222","19.2","NOTODDEN, NO","FM-15","ENNO ","V020","010,1,N,0015,1","00150,1,C,N","009000,1,N,1","+0030,1","-0020,1","99999,9","02,5,+00060,1,99,9","04,5,+00150,1,99,9","07,5,+00750,1,99,9","07,99,1,99,9,99,9,99999,9,99,9,99,9",,"10119,1,99999,9",,,,,"MET075METAR ENNO 120920Z 01003KT 300V070 9000 FEW002 SCT005 BKN025 03/M02 Q10121;",
"01470399999","2010-03-12T09:50:00","4","59.565683","9.212222","19.2","NOTODDEN, NO","FM-15","ENNO ","V020","999,9,V,0010,1","00900,1,C,N","011265,1,N,1","+0030,1","-0010,1","99999,9","04,5,+00720,1,99,9","07,5,+00900,1,99,9",,"07,99,1,99,9,99,9,99999,9,99,9,99,9",,"10129,1,99999,9",,,,,"MET059METAR ENNO 120950Z VRB02KT 9999 SCT024 BKN030 03/M01 Q1013;",
"01470399999","2010-03-12T10:50:00","4","59.565683","9.212222","19.2","NOTODDEN, NO","FM-15","ENNO ","V020","999,9,V,0010,1","00900,1,C,N","011265,1,N,1","+0020,1","-0010,1","99999,9","04,5,+00720,1,99,9","07,5,+00900,1,99,9",,"07,99,1,99,9,99,9,99999,9,99,9,99,9",,"10119,1,99999,9","71,1",,,,"MET063METAR ENNO 121050Z VRB02KT 9999 -SN SCT024 BKN030 02/M01 Q1012;",
"01470399999","2010-03-12T11:50:00","4","59.565683","9.212222","19.2","NOTODDEN, NO","FM-15","ENNO ","V020","310,1,N,0015,1","00900,1,C,N","011265,1,N,1","+0020,1","-0010,1","99999,9","04,5,+00720,1,99,9","07,5,+00900,1,99,9",,"07,99,1,99,9,99,9,99999,9,99,9,99,9",,"10119,1,99999,9","71,1",,,,"MET063METAR ENNO 121150Z 31003KT 9999 -SN SCT024 BKN030 02/M01 Q1012;",
"01470399999","2010-03-12T12:50:00","4","59.565683","9.212222","19.2","NOTODDEN, NO","FM-15","ENNO ","V020","999,9,V,0005,1","00900,1,C,N","011265,1,N,1","+0030,1","-0010,1","99999,9","04,5,+00540,1,99,9","07,5,+00900,1,99,9",,"07,99,1,99,9,99,9,99999,9,99,9,99,9",,"10119,1,99999,9","16,1",,,,"MET064METAR ENNO 121250Z VRB01KT 9999 VCSH SCT018 BKN030 03/M01 Q1012;",
"01470399999","2010-03-12T13:50:00","4","59.565683","9.212222","19.2","NOTODDEN, NO","FM-15","ENNO ","V020","999,9,V,0005,1","01050,1,C,N","011265,1,N,1","+0030,1","-0010,1","99999,9","07,5,+01050,5,99,9","07,1,+01050,1,99,9",,"07,99,1,99,9,99,9,99999,9,99,9,99,9",,"10119,1,99999,9",,,,,"MET058METAR ENNO 121350Z VRB01KT 9999 FEW25 BKN035 03/M01 Q1012;",
"01470399999","2010-03-12T14:50:00","4","59.565683","9.212222","19.2","NOTODDEN, NO","FM-15","ENNO ","V020","110,1,N,0036,1","99999,9,C,N","011265,1,N,1","+0030,1","-0010,1","99999,9","02,5,+00750,1,99,9","04,5,+01200,1,99,9",,"04,99,1,99,9,99,9,99999,9,99,9,99,9",,"10108,1,99999,9",,,,,"MET059METAR ENNO 121450Z 11007KT 9999 FEW025 SCT040 03/M01 Q1011;","P01 012003SCOCIG"
"01470399999","2010-03-12T15:50:00","4","59.565683","9.212222","19.2","NOTODDEN, NO","FM-15","ENNO ","V020","110,1,N,0036,1","22000,1,9,N","011265,1,N,1","+0030,1","-0010,1","99999,9","04,5,+01200,1,99,9",,,"04,99,1,99,9,99,9,99999,9,99,9,99,9",,"10108,1,99999,9",,,,,"MET052METAR ENNO 121550Z 11007KT 9999 SCT040 03/M01 Q1011;",
"01470399999","2010-03-14T16:50:00","4","59.565683","9.212222","19.2","NOTODDEN, NO","FM-15","ENNO ","V020","280,1,N,0036,1","99999,9,9,Y","009900,1,N,1","+0010,1","-0100,1","99999,9",,,,,,"10091,1,99999,9",,,,,"MET046METAR ENNO 141650Z 28007KT CAVOK 01/M10 Q1009;",
"01470399999","2010-03-14T17:50:00","4","59.565683","9.212222","19.2","NOTODDEN, NO","FM-15","ENNO ","V020","999,9,V,0005,1","99999,9,9,Y","009900,1,N,1","+0000,1","-0090,1","99999,9",,,,,,"10102,1,99999,9",,,,,"MET047METAR ENNO 141750Z VRB01KT CAVOK M00/M09 Q1010;",
"01470399999","2010-03-14T18:50:00","4","59.565683","9.212222","19.2","NOTODDEN, NO","FM-15","ENNO ","V020","290,1,N,0036,1","99999,9,9,Y","009900,1,N,1","-0030,1","-0090,1","99999,9",,,,,,"10102,1,99999,9",,,,,"MET047METAR ENNO 141850Z 29007KT CAVOK M03/M09 Q1010;",
"01470399999","2010-03-15T05:50:00","4","59.565683","9.212222","19.2","NOTODDEN, NO","FM-15","ENNO ","V020","290,1,N,0015,1","99999,9,9,Y","009900,1,N,1","-0120,1","-0130,1","99999,9",,,,,,"10102,1,99999,9",,,,,"MET047METAR ENNO 150550Z 29003KT CAVOK M12/M13 Q1010;",
"01470399999","2010-03-15T06:50:00","4","59.565683","9.212222","19.2","NOTODDEN, NO","FM-15","ENNO ","V020","999,9,V,0005,1","99999,9,9,Y","009900,1,N,1","-0110,1","-0120,1","99999,9",,,,,,"10102,1,99999,9",,,,,"MET047METAR ENNO 150650Z VRB01KT CAVOK M11/M12 Q1010;",
"01470399999","2010-03-15T07:50:00","4","59.565683","9.212222","19.2","NOTODDEN, NO","FM-15","ENNO ","V020","999,9,V,0005,1","99999,9,9,Y","009900,1,N,1","-0090,1","-0110,1","99999,9",,,,,,"10102,1,99999,9",,,,,"MET047METAR ENNO 150750Z VRB01KT CAVOK M09/M11 Q1010;",
"01470399999","2010-03-15T08:50:00","4","59.565683","9.212222","19.2","NOTODDEN, NO","FM-15","ENNO ","V020","999,9,V,0005,1","99999,9,9,Y","009900,1,N,1","-0050,1","-0090,1","99999,9",,,,,,"10108,1,99999,9",,,,,"MET047METAR ENNO 150850Z VRB01KT CAVOK M05/M09 Q1011;",
"01470399999","2010-03-15T09:50:00","4","59.565683","9.212222","19.2","NOTODDEN, NO","FM-15","ENNO ","V020","999,9,V,0005,1","99999,9,9,Y","009900,1,N,1","-0030,1","-0080,1","99999,9",,,,,,"10108,1,99999,9",,,,,"MET047METAR ENNO 150950Z VRB01KT CAVOK M03/M08 Q1011;",
"01470399999","2010-03-15T10:50:00","4","59.565683","9.212222","19.2","NOTODDEN, NO","FM-15","ENNO ","V020","290,1,N,0051,1","99999,9,9,Y","009900,1,N,1","+0030,2","-0110,1","99999,9",,,,,,"10108,1,99999,9",,,,,"MET046METAR ENNO 151050Z 29010KT CAVOK 03/M11 Q1011;",
"01470399999","2010-03-15T11:50:00","4","59.565683","9.212222","19.2","NOTODDEN, NO","FM-15","ENNO ","V020","290,1,N,0051,1","99999,9,9,Y","009900,1,N,1","+0030,1","-0100,1","99999,9",,,,,,"10108,1,99999,9",,,,,"MET046METAR ENNO 151150Z 29010KT CAVOK 03/M10 Q1011;",
"01470399999","2010-03-15T12:50:00","4","59.565683","9.212222","19.2","NOTODDEN, NO","FM-15","ENNO ","V020","310,1,N,0057,1","99999,9,9,Y","009900,1,N,1","+0030,1","-0120,1","99999,9",,,,,,"10108,1,99999,9",,,,"0098,1","MET057METAR ENNO 151250Z 31011G19KT 280V040 CAVOK 03/M12 Q1011;",
"01470399999","2010-03-15T13:50:00","4","59.565683","9.212222","19.2","NOTODDEN, NO","FM-15","ENNO ","V020","290,1,N,0062,1","99999,9,9,Y","009900,1,N,1","+0030,1","-0110,1","99999,9",,,,,,"10102,1,99999,9",,,,,"MET046METAR ENNO 151350Z 29012KT CAVOK 03/M11 Q1010;",
"01470399999","2010-03-15T14:50:00","4","59.565683","9.212222","19.2","NOTODDEN, NO","FM-15","ENNO ","V020","320,1,N,0046,1","99999,9,9,Y","009900,1,N,1","+0030,1","-0120,1","99999,9",,,,,,"10108,1,99999,9",,,,"0077,1","MET049METAR ENNO 151450Z 32009G15KT CAVOK 03/M12 Q1011;",
"01470399999","2010-03-15T15:50:00","4","59.565683","9.212222","19.2","NOTODDEN, NO","FM-15","ENNO ","V020","290,1,N,0057,1","99999,9,9,Y","009900,1,N,1","+0020,1","-0100,1","99999,9",,,,,,"10108,1,99999,9",,,,"0087,1","MET049METAR ENNO 151550Z 29011G17KT CAVOK 02/M10 Q1011;",
"01470399999","2010-03-15T16:50:00","4","59.565683","9.212222","19.2","NOTODDEN, NO","FM-15","ENNO ","V020","280,1,N,0041,1","99999,9,9,Y","009900,1,N,1","+0010,1","-0100,1","99999,9",,,,,,"10108,1,99999,9",,,,,"MET046METAR ENNO 151650Z 28008KT CAVOK 01/M10 Q1011;",
"01470399999","2010-03-15T18:50:00","4","59.565683","9.212222","19.2","NOTODDEN, NO","FM-15","ENNO ","V020","300,1,N,0021,1","99999,9,9,Y","009900,1,N,1","-0010,1","-0110,1","99999,9",,,,,,"10119,1,99999,9",,,,,"MET047METAR ENNO 151850Z 30004KT CAVOK M01/M11 Q1012;",
"01470399999","2010-03-16T05:50:00","4","59.565683","9.212222","19.2","NOTODDEN, NO","FM-15","ENNO ","V020","280,1,N,0015,1","99999,9,9,Y","009900,1,N,1","-0120,1","-0130,1","99999,9",,,,,,"10149,1,99999,9",,,,,"MET047METAR ENNO 160550Z 28003KT CAVOK M12/M13 Q1015;",
"01470399999","2010-03-16T06:50:00","4","59.565683","9.212222","19.2","NOTODDEN, NO","FM-15","ENNO ","V020","999,9,V,0005,1","99999,9,9,Y","009900,1,N,1","-0100,1","-0110,1","99999,9",,,,,,"10159,1,99999,9",,,,,"MET047METAR ENNO 160650Z VRB01KT CAVOK M10/M11 Q1016;",
"01470399999","2010-03-16T07:50:00","4","59.565683","9.212222","19.2","NOTODDEN, NO","FM-15","ENNO ","V020","999,9,C,0000,1","99999,9,9,Y","009900,1,N,1","-0060,1","-0100,1","99999,9",,,,,,"10159,1,99999,9",,,,,"MET047METAR ENNO 160750Z 00000KT CAVOK M06/M10 Q1016;",
"01470399999","2010-03-16T08:50:00","4","59.565683","9.212222","19.2","NOTODDEN, NO","FM-15","ENNO ","V020","999,9,C,0000,1","99999,9,9,Y","009900,1,N,1","-0040,1","-0090,1","99999,9",,,,,,"10159,1,99999,9",,,,,"MET047METAR ENNO 160850Z 00000KT CAVOK M04/M09 Q1016;",
"01470399999","2010-03-16T09:50:00","4","59.565683","9.212222","19.2","NOTODDEN, NO","FM-15","ENNO ","V020","999,9,C,0000,1","99999,9,9,Y","009900,1,N,1","-0010,1","-0080,1","99999,9",,,,,,"10159,1,99999,9",,,,,"MET047METAR ENNO 160950Z 00000KT CAVOK M01/M08 Q1016;",
"01470399999","2010-03-16T10:50:00","4","59.565683","9.212222","19.2","NOTODDEN, NO","FM-15","ENNO ","V020","999,9,C,0000,1","03000,1,C,N","011265,1,N,1","+0000,1","-0080,1","99999,9","02,5,+01350,1,99,9","08,5,+03000,1,99,9",,"08,99,1,99,9,99,9,99999,9,99,9,99,9",,"10159,1,99999,9",,,,,"MET060METAR ENNO 161050Z 00000KT 9999 FEW045 OVC100 M00/M08 Q1016;",
"01470399999","2010-03-16T11:50:00","4","59.565683","9.212222","19.2","NOTODDEN, NO","FM-15","ENNO ","V020","100,1,N,0010,1","03000,1,C,N","011265,1,N,1","+0000,1","-0070,1","99999,9","02,5,+01350,1,99,9","08,5,+03000,1,99,9",,"08,99,1,99,9,99,9,99999,9,99,9,99,9",,"10159,1,99999,9",,,,,"MET059METAR ENNO 161150Z 10002KT 9999 FEW045 OVC100 00/M07 Q1016;",
"01470399999","2010-03-16T12:50:00","4","59.565683","9.212222","19.2","NOTODDEN, NO","FM-15","ENNO ","V020","999,9,V,0005,1","03000,1,C,N","011265,1,N,1","+0020,1","-0060,1","99999,9","02,5,+01350,1,99,9","08,5,+03000,1,99,9",,"08,99,1,99,9,99,9,99999,9,99,9,99,9",,"10159,1,99999,9",,,,,"MET059METAR ENNO 161250Z VRB01KT 9999 FEW045 OVC100 02/M06 Q1016;",
"01470399999","2010-03-16T13:50:00","4","59.565683","9.212222","19.2","NOTODDEN, NO","FM-15","ENNO ","V020","999,9,V,0010,1","99999,9,9,Y","009900,1,N,1","+0040,1","-0060,1","99999,9",,,,,,"10149,1,99999,9",,,,,"MET046METAR ENNO 161350Z VRB02KT CAVOK 04/M06 Q1015;",
"01470399999","2010-03-16T14:50:00","4","59.565683","9.212222","19.2","NOTODDEN, NO","FM-15","ENNO ","V020","999,9,V,0010,1","03600,1,C,N","011265,1,N,1","+0040,1","-0070,1","99999,9","02,5,+01500,1,99,9","07,5,+03600,1,99,9",,"07,99,1,99,9,99,9,99999,9,99,9,99,9",,"10149,1,99999,9",,,,,"MET059METAR ENNO 161450Z VRB02KT 9999 FEW050 BKN120 04/M07 Q1015;",
"01470399999","2010-03-16T15:50:00","4","59.565683","9.212222","19.2","NOTODDEN, NO","FM-15","ENNO ","V020","140,1,N,0021,1","03600,1,C,N","011265,1,N,1","+0040,1","-0060,1","99999,9","02,5,+01200,1,99,9","07,5,+03600,1,99,9",,"07,99,1,99,9,99,9,99999,9,99,9,99,9",,"10139,1,99999,9",,,,,"MET067METAR ENNO 161550Z 14004KT 090V190 9999 FEW040 BKN120 04/M06 Q1014;",
"01470399999","2010-03-17T05:50:00","4","59.565683","9.212222","19.2","NOTODDEN, NO","FM-15","ENNO ","V020","999,9,V,0005,1","99999,9,9,Y","009900,1,N,1","-0060,1","-0070,1","99999,9",,,,,,"10119,1,99999,9",,,,,"MET047METAR ENNO 170550Z VRB01KT CAVOK M06/M07 Q1012;",
"01470399999","2010-03-17T06:50:00","4","59.565683","9.212222","19.2","NOTODDEN, NO","FM-15","ENNO ","V020","999,9,V,0010,1","99999,9,9,Y","009900,1,N,1","-0060,1","-0070,1","99999,9",,,,,,"10119,1,99999,9",,,,,"MET047METAR ENNO 170650Z VRB02KT CAVOK M06/M07 Q1012;",
"01470399999","2010-03-17T07:50:00","4","59.565683","9.212222","19.2","NOTODDEN, NO","FM-15","ENNO ","V020","999,9,V,0010,1","03000,1,C,N","011265,1,N,1","-0050,1","-0060,1","99999,9","04,5,+01800,1,99,9","07,5,+03000,1,99,9",,"07,99,1,99,9,99,9,99999,9,99,9,99,9",,"10129,1,99999,9",,,,,"MET060METAR ENNO 170750Z VRB02KT 9999 SCT060 BKN100 M05/M06 Q1013;",
"01470399999","2010-03-17T09:50:00","4","59.565683","9.212222","19.2","NOTODDEN, NO","FM-15","ENNO ","V020","999,9,V,0010,1","01800,1,C,N","011265,1,N,1","-0030,1","-0050,1","99999,9","07,5,+01800,1,99,9",,,"07,99,1,99,9,99,9,99999,9,99,9,99,9",,"10129,1,99999,9",,,,,"MET053METAR ENNO 170950Z VRB02KT 9999 BKN060 M03/M05 Q1013;",
"01470399999","2010-03-17T10:50:00","4","59.565683","9.212222","19.2","NOTODDEN, NO","FM-15","ENNO ","V020","999,9,V,0005,1","01800,1,C,N","011265,1,N,1","-0010,1","-0040,1","99999,9","07,5,+01800,1,99,9",,,"07,99,1,99,9,99,9,99999,9,99,9,99,9",,"10119,1,99999,9",,,,,"MET053METAR ENNO 171050Z VRB01KT 9999 BKN060 M01/M04 Q1012;",
"01470399999","2010-03-17T11:50:00","4","59.565683","9.212222","19.2","NOTODDEN, NO","FM-15","ENNO ","V020","130,1,N,0010,1","99999,9,9,Y","009900,1,N,1","+0000,1","-0040,1","99999,9",,,,,,"10119,1,99999,9",,,,,"MET046METAR ENNO 171150Z 13002KT CAVOK 00/M04 Q1012;",
"01470399999","2010-03-17T12:50:00","4","59.565683","9.212222","19.2","NOTODDEN, NO","FM-15","ENNO ","V020","999,9,C,0000,1","99999,9,9,Y","009900,1,N,1","+0020,1","-0030,1","99999,9",,,,,,"10108,1,99999,9",,,,,"MET046METAR ENNO 171250Z 00000KT CAVOK 02/M03 Q1011;",
"01470399999","2010-03-17T13:50:00","4","59.565683","9.212222","19.2","NOTODDEN, NO","FM-15","ENNO ","V020","999,9,C,0000,1","22000,1,9,N","011265,1,N,1","+0040,1","-0030,1","99999,9","04,5,+01800,1,99,9",,,"04,99,1,99,9,99,9,99999,9,99,9,99,9",,"10108,1,99999,9",,,,,"MET052METAR ENNO 171350Z 00000KT 9999 SCT060 04/M03 Q1011;",
"01470399999","2010-03-17T14:50:00","4","59.565683","9.212222","19.2","NOTODDEN, NO","FM-15","ENNO ","V020","999,9,C,0000,1","22000,1,9,N","011265,1,N,1","+0030,1","-0030,1","99999,9","04,5,+01800,1,99,9",,,"04,99,1,99,9,99,9,99999,9,99,9,99,9",,"10108,1,99999,9",,,,,"MET052METAR ENNO 171450Z 00000KT 9999 SCT060 03/M03 Q1011;",
"01470399999","2010-03-17T15:50:00","4","59.565683","9.212222","19.2","NOTODDEN, NO","FM-15","ENNO ","V020","999,9,C,0000,1","22000,1,9,N","011265,1,N,1","+0040,1","-0020,1","99999,9","02,5,+01800,1,99,9",,,"02,99,1,99,9,99,9,99999,9,99,9,99,9",,"10102,1,99999,9",,,,,"MET052METAR ENNO 171550Z 00000KT 9999 FEW060 04/M02 Q1010;",
"01470399999","2010-03-17T16:50:00","4","59.565683","9.212222","19.2","NOTODDEN, NO","FM-15","ENNO ","V020","999,9,C,0000,1","06000,1,C,N","011265,1,N,1","+0030,1","-0020,1","99999,9","02,5,+01800,1,99,9","07,5,+06000,1,99,9",,"07,99,1,99,9,99,9,99999,9,99,9,99,9",,"10102,1,99999,9",,,,,"MET059METAR ENNO 171650Z 00000KT 9999 FEW060 BKN200 03/M02 Q1010;",
"01470399999","2010-03-18T05:50:00","4","59.565683","9.212222","19.2","NOTODDEN, NO","FM-15","ENNO ","V020","999,9,C,0000,1","06000,1,C,N","011265,1,N,1","-0040,1","-0050,1","99999,9","02,5,+01800,1,99,9","07,5,+06000,1,99,9",,"07,99,1,99,9,99,9,99999,9,99,9,99,9",,"10091,1,99999,9",,,,,"MET060METAR ENNO 180550Z 00000KT 9999 FEW060 BKN200 M04/M05 Q1009;",
"01470399999","2010-03-18T06:50:00","4","59.565683","9.212222","19.2","NOTODDEN, NO","FM-15","ENNO ","V020","999,9,V,0005,1","04500,1,C,N","011265,1,N,1","-0040,1","-0050,1","99999,9","04,5,+01800,1,99,9","07,5,+04500,1,99,9",,"07,99,1,99,9,99,9,99999,9,99,9,99,9",,"10091,1,99999,9",,,,,"MET060METAR ENNO 180650Z VRB01KT 9999 SCT060 BKN150 M04/M05 Q1009;",
"01470399999","2010-03-18T07:50:00","4","59.565683","9.212222","19.2","NOTODDEN, NO","FM-15","ENNO ","V020","999,9,V,0010,1","04500,1,C,N","011265,1,N,1","-0030,1","-0040,1","99999,9","04,5,+01800,1,99,9","07,5,+04500,1,99,9",,"07,99,1,99,9,99,9,99999,9,99,9,99,9",,"10081,1,99999,9",,,,,"MET060METAR ENNO 180750Z VRB02KT 9999 SCT060 BKN150 M03/M04 Q1008;",
"01470399999","2010-03-18T08:50:00","4","59.565683","9.212222","19.2","NOTODDEN, NO","FM-15","ENNO ","V020","999,9,V,0005,1","04500,1,C,N","011265,1,N,1","-0020,1","-0030,1","99999,9","04,5,+01200,1,99,9","07,5,+04500,1,99,9",,"07,99,1,99,9,99,9,99999,9,99,9,99,9",,"10081,1,99999,9",,,,,"MET060METAR ENNO 180850Z VRB01KT 9999 SCT040 BKN150 M02/M03 Q1008;",
"01470399999","2010-03-18T09:50:00","4","59.565683","9.212222","19.2","NOTODDEN, NO","FM-15","ENNO ","V020","999,9,V,0015,1","04500,1,C,N","011265,1,N,1","-0010,1","-0020,1","99999,9","02,5,+01200,1,99,9","07,5,+04500,1,99,9",,"07,99,1,99,9,99,9,99999,9,99,9,99,9",,"10071,1,99999,9",,,,,"MET060METAR ENNO 180950Z VRB03KT 9999 FEW040 BKN150 M01/M02 Q1007;",
"01470399999","2010-03-18T10:50:00","4","59.565683","9.212222","19.2","NOTODDEN, NO","FM-15","ENNO ","V020","280,1,N,0021,1","04500,1,C,N","011265,1,N,1","+0010,1","-0020,1","99999,9","02,5,+01200,1,99,9","07,5,+04500,1,99,9",,"07,99,1,99,9,99,9,99999,9,99,9,99,9",,"10061,1,99999,9",,,,,"MET059METAR ENNO 181050Z 28004KT 9999 FEW040 BKN150 01/M02 Q1006;",
"01470399999","2010-03-18T11:50:00","4","59.565683","9.212222","19.2","NOTODDEN, NO","FM-15","ENNO ","V020","999,9,V,0010,1","04500,1,C,N","011265,1,N,1","+0040,1","+0000,1","99999,9","02,5,+01200,1,99,9","07,5,+04500,1,99,9",,"07,99,1,99,9,99,9,99999,9,99,9,99,9",,"10061,1,99999,9",,,,,"MET058METAR ENNO 181150Z VRB02KT 9999 FEW040 BKN150 04/00 Q1006;",
"01470399999","2010-03-18T13:50:00","4","59.565683","9.212222","19.2","NOTODDEN, NO","FM-15","ENNO ","V020","999,9,V,0010,1","03900,1,C,N","011265,1,N,1","+0070,1","+0010,1","99999,9","02,5,+01200,1,99,9","07,5,+03900,1,99,9",,"07,99,1,99,9,99,9,99999,9,99,9,99,9",,"10051,1,99999,9",,,,,"MET058METAR ENNO 181350Z VRB02KT 9999 FEW040 BKN130 07/01 Q1005;",
"01470399999","2010-03-18T14:50:00","4","59.565683","9.212222","19.2","NOTODDEN, NO","FM-15","ENNO ","V020","999,9,V,0010,1","03900,1,C,N","011265,1,N,1","+0090,1","+0010,1","99999,9","02,5,+01200,1,99,9","07,5,+03900,1,99,9",,"07,99,1,99,9,99,9,99999,9,99,9,99,9",,"10051,1,99999,9",,,,,"MET058METAR ENNO 181450Z VRB02KT 9999 FEW040 BKN130 09/01 Q1005;",
"01470399999","2010-03-18T15:50:00","4","59.565683","9.212222","19.2","NOTODDEN, NO","FM-15","ENNO ","V020","130,1,N,0021,1","99999,9,C,N","011265,1,N,1","+0070,1","+0010,1","99999,9","02,5,+01200,1,99,9","04,5,+03900,1,99,9",,"04,99,1,99,9,99,9,99999,9,99,9,99,9",,"10051,1,99999,9",,,,,"MET058METAR ENNO 181550Z 13004KT 9999 FEW040 SCT130 07/01 Q1005;","P01 039003SCOCIG"
"01470399999","2010-03-18T16:50:00","4","59.565683","9.212222","19.2","NOTODDEN, NO","FM-15","ENNO ","V020","120,1,N,0015,1","22000,1,9,N","011265,1,N,1","+0070,1","+0010,1","99999,9","02,5,+01200,1,99,9",,,"02,99,1,99,9,99,9,99999,9,99,9,99,9",,"10051,1,99999,9",,,,,"MET051METAR ENNO 181650Z 12003KT 9999 FEW040 07/01 Q1005;",
"01470399999","2010-03-19T05:50:00","4","59.565683","9.212222","19.2","NOTODDEN, NO","FM-15","ENNO ","V020","999,9,C,0000,1","00600,1,C,N","009000,1,N,1","+0000,1","-0010,1","99999,9","02,5,+00240,1,99,9","08,5,+00600,1,99,9",,"08,99,1,99,9,99,9,99999,9,99,9,99,9",,"10010,1,99999,9","61,1",,,,"MET064METAR ENNO 190550Z 00000KT 9000 -RA FEW008 OVC020 M00/M01 Q1001;",
"01470399999","2010-03-19T06:50:00","4","59.565683","9.212222","19.2","NOTODDEN, NO","FM-15","ENNO ","V020","999,9,C,0000,1","01350,1,C,N","009000,1,N,1","+0000,1","+0000,1","99999,9","04,5,+00300,1,99,9","08,5,+01350,1,99,9",,"08,99,1,99,9,99,9,99999,9,99,9,99,9",,"10000,1,99999,9","61,1",,,,"MET063METAR ENNO 190650Z 00000KT 9000 -RA SCT010 OVC045 00/M00 Q1000;",
"01470399999","2010-03-19T07:50:00","4","59.565683","9.212222","19.2","NOTODDEN, NO","FM-15","ENNO ","V020","220,1,N,0005,1","00300,1,C,N","008000,1,N,1","+0000,1","+0000,1","99999,9","02,5,+00150,1,99,9","08,5,+00300,1,99,9",,"08,99,1,99,9,99,9,99999,9,99,9,99,9",,"10000,1,99999,9","10,1","61,1",,,"MET066METAR ENNO 190750Z 22001KT 8000 -RA BR FEW005 OVC010 00/M00 Q1000;",
"01470399999","2010-03-19T08:50:00","4","59.565683","9.212222","19.2","NOTODDEN, NO","FM-15","ENNO ","V020","999,9,V,0010,1","00600,1,C,N","011265,1,N,1","+0020,1","+0010,1","99999,9","02,5,+00000,5,99,9","07,5,+00600,1,99,9",,"07,99,1,99,9,99,9,99999,9,99,9,99,9",,"09990,1,99999,9","10,1",,,,"MET068METAR ENNO 190850Z VRB02KT 9999 5000NW BR FEW000 BKN020 02/01 Q0999;",
"01470399999","2010-03-19T09:50:00","4","59.565683","9.212222","19.2","NOTODDEN, NO","FM-15","ENNO ","V020","999,9,V,0010,1","00300,1,C,N","011265,1,N,1","+0020,1","+0020,1","99999,9","02,5,+00000,5,99,9","04,5,+00300,1,99,9","07,1,+00600,1,99,9","07,99,1,99,9,99,9,99999,9,99,9,99,9",,"09980,1,99999,9",,,,,"MET064METAR ENNO 190950Z VRB02KT 9999 FEW000 SCT010 BKN20 02/02 Q0998;",
"01470399999","2010-03-19T10:50:00","4","59.565683","9.212222","19.2","NOTODDEN, NO","FM-15","ENNO ","V020","999,9,V,0015,1","00750,1,C,N","011265,1,N,1","+0050,1","+0030,1","99999,9","04,5,+00300,1,99,9","07,5,+00750,1,99,9",,"07,99,1,99,9,99,9,99999,9,99,9,99,9",,"09980,1,99999,9",,,,,"MET058METAR ENNO 191050Z VRB03KT 9999 SCT010 BKN025 05/03 Q0998;",
"01470399999","2010-03-19T13:50:00","4","59.565683","9.212222","19.2","NOTODDEN, NO","FM-15","ENNO ","V020","120,1,N,0026,1","00600,1,C,N","011265,1,N,1","+0070,1","+0030,1","99999,9","07,5,+00600,1,99,9",,,"07,99,1,99,9,99,9,99999,9,99,9,99,9",,"09959,1,99999,9",,,,,"MET051METAR ENNO 191350Z 12005KT 9999 BKN020 07/03 Q0996;",
"01470399999","2010-03-19T14:50:00","4","59.565683","9.212222","19.2","NOTODDEN, NO","FM-15","ENNO ","V020","110,1,N,0015,1","00750,1,C,N","011265,1,N,1","+0080,1","+0040,1","99999,9","07,5,+00750,1,99,9",,,"07,99,1,99,9,99,9,99999,9,99,9,99,9",,"09959,1,99999,9",,,,,"MET059METAR ENNO 191450Z 11003KT 070V190 9999 BKN025 08/04 Q0996;",
"01470399999","2010-03-19T15:50:00","4","59.565683","9.212222","19.2","NOTODDEN, NO","FM-15","ENNO ","V020","120,1,N,0031,1","22000,1,9,N","011265,1,N,1","+0070,1","+0030,1","99999,9","04,5,+00900,1,99,9",,,"04,99,1,99,9,99,9,99999,9,99,9,99,9",,"09949,1,99999,9",,,,,"MET051METAR ENNO 191550Z 12006KT 9999 SCT030 07/03 Q0995;",
"01470399999","2010-03-19T16:50:00","4","59.565683","9.212222","19.2","NOTODDEN, NO","FM-15","ENNO ","V020","080,1,N,0015,1","22000,1,9,N","011265,1,N,1","+0070,1","+0020,1","99999,9","02,5,+00900,1,99,9",,,"02,99,1,99,9,99,9,99999,9,99,9,99,9",,"09949,1,99999,9",,,,,"MET051METAR ENNO 191650Z 08003KT 9999 FEW030 07/02 Q0995;",
"01470399999","2010-03-21T11:50:00","4","59.565683","9.212222","19.2","NOTODDEN, NO","FM-15","ENNO ","V020","999,9,V,0041,1","00900,1,C,N","011265,1,N,1","+0050,1","-0010,1","99999,9","07,5,+00900,1,99,9",,,"07,99,1,99,9,99,9,99999,9,99,9,99,9",,"10020,1,99999,9",,,,"0082,1","MET055METAR ENNO 211150Z VRB08G16KT 9999 BKN030 05/M01 Q1002;",
"01470399999","2010-03-21T16:50:00","4","59.565683","9.212222","19.2","NOTODDEN, NO","FM-15","ENNO ","V020","999,9,V,0005,1","22000,1,9,N","011265,1,N,1","+0050,1","-0010,1","99999,9","04,5,+01500,1,99,9",,,"04,99,1,99,9,99,9,99999,9,99,9,99,9",,"10081,1,99999,9",,,,,"MET052METAR ENNO 211650Z VRB01KT 9999 SCT050 05/M01 Q1008;",
"01470399999","2010-03-21T17:50:00","4","59.565683","9.212222","19.2","NOTODDEN, NO","FM-15","ENNO ","V020","999,9,V,0015,1","01350,1,C,N","011265,1,N,1","+0030,1","-0010,1","99999,9","07,5,+01350,1,99,9",,,"07,99,1,99,9,99,9,99999,9,99,9,99,9",,"10102,1,99999,9",,,,,"MET052METAR ENNO 211750Z VRB03KT 9999 BKN045 03/M01 Q1010;",
"01470399999","2010-03-21T18:50:00","4","59.565683","9.212222","19.2","NOTODDEN, NO","FM-15","ENNO ","V020","999,9,V,0021,1","01350,1,C,N","011265,1,N,1","+0030,1","-0010,1","99999,9","07,5,+01350,1,99,9",,,"07,99,1,99,9,99,9,99999,9,99,9,99,9",,"10108,1,99999,9",,,,,"MET052METAR ENNO 211850Z VRB04KT 9999 BKN045 03/M01 Q1011;",
"01470399999","2010-03-22T05:50:00","4","59.565683","9.212222","19.2","NOTODDEN, NO","FM-15","ENNO ","V020","999,9,V,0005,1","00750,1,C,N","011265,1,N,1","+0010,1","-0010,1","99999,9","08,5,+00750,1,99,9",,,"08,99,1,99,9,99,9,99999,9,99,9,99,9",,"10149,1,99999,9",,,,,"MET052METAR ENNO 220550Z VRB01KT 9999 OVC025 01/M01 Q1015;",
"01470399999","2010-03-22T06:50:00","4","59.565683","9.212222","19.2","NOTODDEN, NO","FM-15","ENNO ","V020","999,9,C,0000,1","00750,1,C,N","011265,1,N,1","+0010,1","-0010,1","99999,9","08,5,+00750,1,99,9",,,"08,99,1,99,9,99,9,99999,9,99,9,99,9",,"10149,1,99999,9",,,,,"MET052METAR ENNO 220650Z 00000KT 9999 OVC025 01/M01 Q1015;",
"01470399999","2010-03-22T07:50:00","4","59.565683","9.212222","19.2","NOTODDEN, NO","FM-15","ENNO ","V020","999,9,C,0000,1","00750,1,C,N","011265,1,N,1","+0020,1","-0010,1","99999,9","08,5,+00750,1,99,9",,,"08,99,1,99,9,99,9,99999,9,99,9,99,9",,"10149,1,99999,9",,,,,"MET052METAR ENNO 220750Z 00000KT 9999 OVC025 02/M01 Q1015;",
"01470399999","2010-03-22T08:50:00","4","59.565683","9.212222","19.2","NOTODDEN, NO","FM-15","ENNO ","V020","999,9,C,0000,1","00750,1,C,N","011265,1,N,1","+0030,1","-0010,1","99999,9","07,5,+00750,1,99,9",,,"07,99,1,99,9,99,9,99999,9,99,9,99,9",,"10149,1,99999,9",,,,,"MET052METAR ENNO 220850Z 00000KT 9999 BKN025 03/M01 Q1015;",
"01470399999","2010-03-22T09:50:00","4","59.565683","9.212222","19.2","NOTODDEN, NO","FM-15","ENNO ","V020","110,1,N,0031,1","00750,1,C,N","011265,1,N,1","+0040,1","-0010,1","99999,9","07,5,+00750,1,99,9",,,"07,99,1,99,9,99,9,99999,9,99,9,99,9",,"10159,1,99999,9",,,,,"MET052METAR ENNO 220950Z 11006KT 9999 BKN025 04/M01 Q1016;",
"01470399999","2010-03-22T10:50:00","4","59.565683","9.212222","19.2","NOTODDEN, NO","FM-15","ENNO ","V020","110,1,N,0031,1","22000,1,9,N","011265,1,N,1","+0050,1","-0010,1","99999,9","04,5,+00900,1,99,9",,,"04,99,1,99,9,99,9,99999,9,99,9,99,9",,"10149,1,99999,9",,,,,"MET060METAR ENNO 221050Z 11006KT 070V140 9999 SCT030 05/M01 Q1015;",
"01470399999","2010-03-22T11:50:00","4","59.565683","9.212222","19.2","NOTODDEN, NO","FM-15","ENNO ","V020","110,1,N,0031,1","22000,1,9,N","011265,1,N,1","+0050,1","-0010,1","99999,9","04,5,+00900,1,99,9",,,"04,99,1,99,9,99,9,99999,9,99,9,99,9",,"10149,1,99999,9",,,,,"MET052METAR ENNO 221150Z 11006KT 9999 SCT030 05/M01 Q1015;",
"01470399999","2010-03-22T12:50:00","4","59.565683","9.212222","19.2","NOTODDEN, NO","FM-15","ENNO ","V020","110,1,N,0031,1","22000,1,9,N","011265,1,N,1","+0070,1","-0010,1","99999,9","04,5,+00900,1,99,9",,,"04,99,1,99,9,99,9,99999,9,99,9,99,9",,"10139,1,99999,9",,,,,"MET052METAR ENNO 221250Z 11006KT 9999 SCT030 07/M01 Q1014;",
"01470399999","2010-03-22T13:50:00","4","59.565683","9.212222","19.2","NOTODDEN, NO","FM-15","ENNO ","V020","100,1,N,0031,1","22000,1,9,N","011265,1,N,1","+0070,1","-0020,1","99999,9","04,5,+01050,1,99,9",,,"04,99,1,99,9,99,9,99999,9,99,9,99,9",,"10139,1,99999,9",,,,,"MET052METAR ENNO 221350Z 10006KT 9999 SCT035 07/M02 Q1014;",
"01470399999","2010-03-22T14:50:00","4","59.565683","9.212222","19.2","NOTODDEN, NO","FM-15","ENNO ","V020","110,1,N,0036,1","22000,1,9,N","011265,1,N,1","+0070,1","-0020,1","99999,9","04,5,+01050,1,99,9",,,"04,99,1,99,9,99,9,99999,9,99,9,99,9",,"10129,1,99999,9",,,,,"MET052METAR ENNO 221450Z 11007KT 9999 SCT035 07/M02 Q1013;",
"01470399999","2010-03-22T15:50:00","4","59.565683","9.212222","19.2","NOTODDEN, NO","FM-15","ENNO ","V020","100,1,N,0036,1","03300,1,C,N","011265,1,N,1","+0070,1","-0020,1","99999,9","02,5,+01800,1,99,9","07,5,+03300,1,99,9",,"07,99,1,99,9,99,9,99999,9,99,9,99,9",,"10129,1,99999,9",,,,,"MET059METAR ENNO 221550Z 10007KT 9999 FEW060 BKN110 07/M02 Q1013;",
"01470399999","2010-03-23T05:50:00","4","59.565683","9.212222","19.2","NOTODDEN, NO","FM-15","ENNO ","V020","999,9,C,0000,1","00750,1,C,N","003000,1,N,1","+0000,1","+0000,1","99999,9","02,5,+00180,1,99,9","08,5,+00750,1,99,9",,"08,99,1,99,9,99,9,99999,9,99,9,99,9",,"10051,1,99999,9","10,1","51,1","61,1",,"MET068METAR ENNO 230550Z 00000KT 3000 -RADZ BR FEW006 OVC025 00/M00 Q1005;",
"01470399999","2010-03-23T06:50:00","4","59.565683","9.212222","19.2","NOTODDEN, NO","FM-15","ENNO ","V020","280,1,N,0010,1","00600,1,C,N","003000,1,N,1","+0000,1","+0000,1","99999,9","04,5,+00180,1,99,9","08,5,+00600,1,99,9",,"08,99,1,99,9,99,9,99999,9,99,9,99,9",,"10041,1,99999,9","10,1","51,1","71,1",,"MET068METAR ENNO 230650Z 28002KT 3000 -DZSN BR SCT006 OVC020 00/M00 Q1004;",
"01470399999","2010-03-23T07:50:00","4","59.565683","9.212222","19.2","NOTODDEN, NO","FM-15","ENNO ","V020","999,9,C,0000,1","00600,1,C,N","004000,1,N,1","+0000,1","+0000,1","99999,9","04,5,+00150,1,99,9","08,5,+00600,1,99,9",,"08,99,1,99,9,99,9,99999,9,99,9,99,9",,"10041,1,99999,9","10,1","51,1","71,1",,"MET068METAR ENNO 230750Z 00000KT 4000 -DZSN BR SCT005 OVC020 00/M00 Q1004;",
"01470399999","2010-03-23T08:50:00","4","59.565683","9.212222","19.2","NOTODDEN, NO","FM-15","ENNO ","V020","999,9,C,0000,1","00270,1,C,N","009000,1,N,1","+0010,1","+0010,1","99999,9","02,5,+00060,1,99,9","04,5,+00270,1,99,9","08,5,+00600,1,99,9","08,99,1,99,9,99,9,99999,9,99,9,99,9",,"10051,1,99999,9",,,,,"MET065METAR ENNO 230850Z 00000KT 9000 FEW002 SCT009 OVC020 01/01 Q1005;",
"01470399999","2010-03-23T09:50:00","4","59.565683","9.212222","19.2","NOTODDEN, NO","FM-15","ENNO ","V020","999,9,C,0000,1","00600,1,C,N","011265,1,N,1","+0030,1","+0020,1","99999,9","04,5,+00270,1,99,9","07,5,+00600,1,99,9",,"07,99,1,99,9,99,9,99999,9,99,9,99,9",,"10051,1,99999,9",,,,,"MET058METAR ENNO 230950Z 00000KT 9999 SCT009 BKN020 03/02 Q1005;",
"01470399999","2010-03-23T10:50:00","4","59.565683","9.212222","19.2","NOTODDEN, NO","FM-15","ENNO ","V020","999,9,C,0000,1","06000,1,C,N","011265,1,N,1","+0050,1","+0020,1","99999,9","04,5,+00300,1,99,9","07,5,+06000,1,99,9",,"07,99,1,99,9,99,9,99999,9,99,9,99,9",,"10051,1,99999,9",,,,,"MET058METAR ENNO 231050Z 00000KT 9999 SCT010 BKN200 05/02 Q1005;",
"01470399999","2010-03-23T11:50:00","4","59.565683","9.212222","19.2","NOTODDEN, NO","FM-15","ENNO ","V020","130,1,N,0015,1","06000,1,C,N","011265,1,N,1","+0040,1","+0010,1","99999,9","04,5,+00450,1,99,9","07,5,+06000,1,99,9",,"07,99,1,99,9,99,9,99999,9,99,9,99,9",,"10061,1,99999,9",,,,,"MET058METAR ENNO 231150Z 13003KT 9999 SCT015 BKN200 04/01 Q1006;",
"01470399999","2010-03-23T12:50:00","4","59.565683","9.212222","19.2","NOTODDEN, NO","FM-15","ENNO ","V020","120,1,N,0026,1","99999,9,C,N","011265,1,N,1","+0050,1","+0010,1","99999,9","02,5,+00450,1,99,9","04,5,+06000,1,99,9",,"04,99,1,99,9,99,9,99999,9,99,9,99,9",,"10061,1,99999,9",,,,,"MET058METAR ENNO 231250Z 12005KT 9999 FEW015 SCT200 05/01 Q1006;","P01 060003SCOCIG"
"01470399999","2010-03-23T13:50:00","4","59.565683","9.212222","19.2","NOTODDEN, NO","FM-15","ENNO ","V020","130,1,N,0026,1","22000,1,9,N","011265,1,N,1","+0070,1","+0020,1","99999,9","02,5,+00900,1,99,9",,,"02,99,1,99,9,99,9,99999,9,99,9,99,9",,"10061,1,99999,9",,,,,"MET051METAR ENNO 231350Z 13005KT 9999 FEW030 07/02 Q1006;",
"01470399999","2010-03-23T14:50:00","4","59.565683","9.212222","19.2","NOTODDEN, NO","FM-15","ENNO ","V020","130,1,N,0021,1","22000,1,9,N","011265,1,N,1","+0070,1","+0020,1","99999,9","02,5,+01500,1,99,9",,,"02,99,1,99,9,99,9,99999,9,99,9,99,9",,"10061,1,99999,9",,,,,"MET051METAR ENNO 231450Z 13004KT 9999 FEW050 07/02 Q1006;",
"01470399999","2010-03-23T15:50:00","4","59.565683","9.212222","19.2","NOTODDEN, NO","FM-15","ENNO ","V020","999,9,V,0026,1","22000,1,9,N","011265,1,N,1","+0090,1","+0010,1","99999,9","02,5,+01500,1,99,9",,,"02,99,1,99,9,99,9,99999,9,99,9,99,9",,"10071,1,99999,9",,,,,"MET051METAR ENNO 231550Z VRB05KT 9999 FEW050 09/01 Q1007;",
"01470399999","2010-03-23T16:50:00","4","59.565683","9.212222","19.2","NOTODDEN, NO","FM-15","ENNO ","V020","270,1,N,0036,1","99999,9,9,Y","009900,1,N,1","+0100,1","-0010,1","99999,9",,,,,,"10081,1,99999,9",,,,,"MET046METAR ENNO 231650Z 27007KT CAVOK 10/M01 Q1008;",
"01470399999","2010-03-24T05:50:00","4","59.565683","9.212222","19.2","NOTODDEN, NO","FM-15","ENNO ","V020","999,9,V,0010,1","99999,9,9,Y","009900,1,N,1","-0020,1","-0030,1","99999,9",,,,,,"10139,1,99999,9",,,,,"MET047METAR ENNO 240550Z VRB02KT CAVOK M02/M03 Q1014;",
"01470399999","2010-03-24T06:50:00","4","59.565683","9.212222","19.2","NOTODDEN, NO","FM-15","ENNO ","V020","999,9,C,0000,1","99999,9,9,Y","009900,1,N,1","-0010,1","-0020,1","99999,9",,,,,,"10149,1,99999,9",,,,,"MET047METAR ENNO 240650Z 00000KT CAVOK M01/M02 Q1015;",
"01470399999","2010-03-24T07:50:00","4","59.565683","9.212222","19.2","NOTODDEN, NO","FM-15","ENNO ","V020","270,1,N,0015,1","99999,9,9,Y","009900,1,N,1","+0000,1","-0010,1","99999,9",,,,,,"10149,1,99999,9",,,,,"MET046METAR ENNO 240750Z 27003KT CAVOK 00/M01 Q1015;",
"01470399999","2010-03-24T08:50:00","4","59.565683","9.212222","19.2","NOTODDEN, NO","FM-15","ENNO ","V020","999,9,C,0000,1","99999,9,9,Y","009900,1,N,1","+0010,1","-0010,1","99999,9",,,,,,"10149,1,99999,9",,,,,"MET046METAR ENNO 240850Z 00000KT CAVOK 01/M01 Q1015;",
"01470399999","2010-03-24T09:50:00","4","59.565683","9.212222","19.2","NOTODDEN, NO","FM-15","ENNO ","V020","999,9,V,0005,1","99999,9,9,Y","009900,1,N,1","+0030,1","-0010,1","99999,9",,,,,,"10159,1,99999,9",,,,,"MET046METAR ENNO 240950Z VRB01KT CAVOK 03/M01 Q1016;",
"01470399999","2010-03-24T10:50:00","4","59.565683","9.212222","19.2","NOTODDEN, NO","FM-15","ENNO ","V020","999,9,V,0005,1","01500,1,C,N","011265,1,N,1","+0030,1","-0010,1","99999,9","07,5,+01500,1,99,9",,,"07,99,1,99,9,99,9,99999,9,99,9,99,9",,"10149,1,99999,9",,,,,"MET052METAR ENNO 241050Z VRB01KT 9999 BKN050 03/M01 Q1015;",
"01470399999","2010-03-24T11:50:00","4","59.565683","9.212222","19.2","NOTODDEN, NO","FM-15","ENNO ","V020","180,1,N,0021,1","99999,9,9,Y","009900,1,N,1","+0040,1","-0010,1","99999,9",,,,,,"10149,1,99999,9",,,,,"MET054METAR ENNO 241150Z 18004KT 140V220 CAVOK 04/M01 Q1015;",
"01470399999","2010-03-24T12:50:00","4","59.565683","9.212222","19.2","NOTODDEN, NO","FM-15","ENNO ","V020","290,1,N,0015,1","99999,9,9,Y","009900,1,N,1","+0040,1","-0010,1","99999,9",,,,,,"10149,1,99999,9",,,,,"MET046METAR ENNO 241250Z 29003KT CAVOK 04/M01 Q1015;",
"01470399999","2010-03-24T13:50:00","4","59.565683","9.212222","19.2","NOTODDEN, NO","FM-15","ENNO ","V020","999,9,C,0000,1","99999,9,9,Y","009900,1,N,1","+0040,1","-0010,1","99999,9",,,,,,"10139,1,99999,9",,,,,"MET046METAR ENNO 241350Z 00000KT CAVOK 04/M01 Q1014;",
"01470399999","2010-03-24T14:50:00","4","59.565683","9.212222","19.2","NOTODDEN, NO","FM-15","ENNO ","V020","999,9,C,0000,1","01440,1,C,N","011265,1,N,1","+0060,1","+0000,1","99999,9","02,5,+00750,1,99,9","07,5,+01440,1,99,9",,"07,99,1,99,9,99,9,99999,9,99,9,99,9",,"10139,1,99999,9",,,,,"MET059METAR ENNO 241450Z 00000KT 9999 FEW025 BKN048 06/M00 Q1014;",
"01470399999","2010-03-24T15:50:00","4","59.565683","9.212222","19.2","NOTODDEN, NO","FM-15","ENNO ","V020","120,1,N,0036,1","99999,9,9,Y","009900,1,N,1","+0070,1","-0010,1","99999,9",,,,,,"10139,1,99999,9",,,,,"MET054METAR ENNO 241550Z 12007KT 090V150 CAVOK 07/M01 Q1014;",
"01470399999","2010-03-24T16:50:00","4","59.565683","9.212222","19.2","NOTODDEN, NO","FM-15","ENNO ","V020","110,1,N,0051,1","01500,1,C,N","009000,1,N,1","+0060,1","-0010,1","99999,9","02,5,+01200,1,99,9","07,5,+01500,1,99,9",,"07,99,1,99,9,99,9,99999,9,99,9,99,9",,"10139,1,99999,9","53,1",,,,"MET062METAR ENNO 241650Z 11010KT 9000 DZ FEW040 BKN050 06/M01 Q1014;",
"01470399999","2010-03-25T05:50:00","4","59.565683","9.212222","19.2","NOTODDEN, NO","FM-15","ENNO ","V020","999,9,C,0000,1","00480,1,C,N","002000,1,N,1","+0010,1","+0000,1","99999,9","02,5,+00000,5,99,9","07,5,+00480,1,99,9",,"07,99,1,99,9,99,9,99999,9,99,9,99,9",,"10139,1,99999,9","41,1",,,,"MET063METAR ENNO 250550Z 00000KT 2000 BCFG FEW000 BKN016 01/00 Q1014;",
"01470399999","2010-03-25T06:50:00","4","59.565683","9.212222","19.2","NOTODDEN, NO","FM-15","ENNO ","V020","999,9,V,0005,1","00360,1,9,N","001200,1,N,1","+0010,1","+0010,1","99999,9","09,1,+00360,1,99,9",,,"09,99,1,99,9,99,9,00025,1,99,9,99,9",,"10149,1,99999,9","10,1","41,1",,,"MET058METAR ENNO 250650Z VRB01KT 1200 BR BCFG VV012 01/01 Q1015;",
"01470399999","2010-03-25T07:50:00","4","59.565683","9.212222","19.2","NOTODDEN, NO","FM-15","ENNO ","V020","999,9,V,0005,1","00480,1,C,N","009000,1,N,1","+0010,1","+0010,1","99999,9","04,5,+00000,5,99,9","07,5,+00480,1,99,9",,"07,99,1,99,9,99,9,99999,9,99,9,99,9",,"10149,1,99999,9","10,1",,,,"MET068METAR ENNO 250750Z VRB01KT 9000 3000NW BR SCT000 BKN016 01/01 Q1015;",
"01470399999","2010-03-25T08:50:00","4","59.565683","9.212222","19.2","NOTODDEN, NO","FM-15","ENNO ","V020","999,9,C,0000,1","00420,1,C,N","009000,1,N,1","+0030,1","+0030,1","99999,9","02,5,+00120,1,99,9","04,5,+00420,1,99,9","07,5,+00600,1,99,9","07,99,1,99,9,99,9,99999,9,99,9,99,9",,"10149,1,99999,9",,,,,"MET065METAR ENNO 250850Z 00000KT 9000 FEW004 SCT014 BKN020 03/03 Q1015;",
"01470399999","2010-03-25T09:50:00","4","59.565683","9.212222","19.2","NOTODDEN, NO","FM-15","ENNO ","V020","260,1,N,0015,1","00750,1,C,N","009000,1,N,1","+0040,1","+0020,1","99999,9","04,5,+00420,1,99,9","07,5,+00750,1,99,9",,"07,99,1,99,9,99,9,99999,9,99,9,99,9",,"10139,1,99999,9",,,,,"MET058METAR ENNO 250950Z 26003KT 9000 SCT014 BKN025 04/02 Q1014;",
"01470399999","2010-03-25T10:50:00","4","59.565683","9.212222","19.2","NOTODDEN, NO","FM-15","ENNO ","V020","270,1,N,0021,1","01200,1,C,N","011265,1,N,1","+0050,1","+0020,1","99999,9","02,5,+00600,1,99,9","07,5,+01200,1,99,9",,"07,99,1,99,9,99,9,99999,9,99,9,99,9",,"10139,1,99999,9",,,,,"MET058METAR ENNO 251050Z 27004KT 9999 FEW020 BKN040 05/02 Q1014;",
"01470399999","2010-03-25T11:50:00","4","59.565683","9.212222","19.2","NOTODDEN, NO","FM-15","ENNO ","V020","280,1,N,0021,1","01500,1,C,N","011265,1,N,1","+0050,1","+0020,1","99999,9","02,5,+00750,1,99,9","07,5,+01500,1,99,9",,"07,99,1,99,9,99,9,99999,9,99,9,99,9",,"10139,1,99999,9",,,,,"MET058METAR ENNO 251150Z 28004KT 9999 FEW025 BKN050 05/02 Q1014;",
"01470399999","2010-03-25T12:50:00","4","59.565683","9.212222","19.2","NOTODDEN, NO","FM-15","ENNO ","V020","270,1,N,0021,1","01500,1,C,N","011265,1,N,1","+0060,1","+0020,1","99999,9","02,5,+00750,1,99,9","07,5,+01500,1,99,9",,"07,99,1,99,9,99,9,99999,9,99,9,99,9",,"10129,1,99999,9",,,,,"MET058METAR ENNO 251250Z 27004KT 9999 FEW025 BKN050 06/02 Q1013;",
"01470399999","2010-03-25T13:50:00","4","59.565683","9.212222","19.2","NOTODDEN, NO","FM-15","ENNO ","V020","280,1,N,0021,1","01500,1,C,N","011265,1,N,1","+0060,1","+0020,1","99999,9","02,5,+00750,1,99,9","07,5,+01500,1,99,9",,"07,99,1,99,9,99,9,99999,9,99,9,99,9",,"10119,1,99999,9",,,,,"MET058METAR ENNO 251350Z 28004KT 9999 FEW025 BKN050 06/02 Q1012;",
"01470399999","2010-03-25T14:50:00","4","59.565683","9.212222","19.2","NOTODDEN, NO","FM-15","ENNO ","V020","280,1,N,0015,1","01500,1,C,N","011265,1,N,1","+0070,1","+0020,1","99999,9","02,5,+00750,1,99,9","07,5,+01500,1,99,9",,"07,99,1,99,9,99,9,99999,9,99,9,99,9",,"10119,1,99999,9",,,,,"MET058METAR ENNO 251450Z 28003KT 9999 FEW025 BKN050 07/02 Q1012;",
"01470399999","2010-03-25T15:50:00","4","59.565683","9.212222","19.2","NOTODDEN, NO","FM-15","ENNO ","V020","260,1,N,0021,1","02400,1,C,N","011265,1,N,1","+0060,1","+0020,1","99999,9","02,5,+00900,1,99,9","07,5,+02400,1,99,9",,"07,99,1,99,9,99,9,99999,9,99,9,99,9",,"10119,1,99999,9",,,,,"MET058METAR ENNO 251550Z 26004KT 9999 FEW030 BKN080 06/02 Q1012;",
"01470399999","2010-03-25T16:50:00","4","59.565683","9.212222","19.2","NOTODDEN, NO","FM-15","ENNO ","V020","999,9,C,0000,1","99999,9,9,Y","009900,1,N,1","+0050,1","+0020,1","99999,9",,,,,,"10108,1,99999,9",,,,,"MET045METAR ENNO 251650Z 00000KT CAVOK 05/02 Q1011;",
"01470399999","2010-03-26T05:50:00","4","59.565683","9.212222","19.2","NOTODDEN, NO","FM-15","ENNO ","V020","290,1,N,0015,1","00600,1,C,N","011265,1,N,1","+0010,1","+0000,1","99999,9","08,5,+00600,1,99,9",,,"08,99,1,99,9,99,9,99999,9,99,9,99,9",,"10071,1,99999,9",,,,,"MET051METAR ENNO 260550Z 29003KT 9999 OVC020 01/00 Q1007;",
"01470399999","2010-03-26T07:50:00","4","59.565683","9.212222","19.2","NOTODDEN, NO","FM-15","ENNO ","V020","999,9,V,0005,1","00600,1,C,N","011265,1,N,1","+0020,1","+0010,1","99999,9","07,5,+00600,1,99,9",,,"07,99,1,99,9,99,9,99999,9,99,9,99,9",,"10061,1,99999,9",,,,,"MET051METAR ENNO 260750Z VRB01KT 9999 BKN020 02/01 Q1006;",
"01470399999","2010-03-26T08:50:00","4","59.565683","9.212222","19.2","NOTODDEN, NO","FM-15","ENNO ","V020","999,9,C,0000,1","00600,1,C,N","011265,1,N,1","+0030,1","+0010,1","99999,9","07,5,+00600,1,99,9",,,"07,99,1,99,9,99,9,99999,9,99,9,99,9",,"10051,1,99999,9","61,1",,,,"MET055METAR ENNO 260850Z 00000KT 9999 -RA BKN020 03/01 Q1005;",
"01470399999","2010-03-26T09:50:00","4","59.565683","9.212222","19.2","NOTODDEN, NO","FM-15","ENNO ","V020","999,9,V,0005,1","00600,1,C,N","011265,1,N,1","+0030,1","+0010,1","99999,9","08,5,+00600,1,99,9",,,"08,99,1,99,9,99,9,99999,9,99,9,99,9",,"10051,1,99999,9","61,1","71,1",,,"MET057METAR ENNO 260950Z VRB01KT 9999 -RASN OVC020 03/01 Q1005;",
"01470399999","2010-03-26T10:50:00","4","59.565683","9.212222","19.2","NOTODDEN, NO","FM-15","ENNO ","V020","260,1,N,0010,1","00750,1,C,N","011265,1,N,1","+0030,1","+0010,1","99999,9","08,5,+00750,1,99,9",,,"08,99,1,99,9,99,9,99999,9,99,9,99,9",,"10051,1,99999,9",,,,,"MET051METAR ENNO 261050Z 26002KT 9999 OVC025 03/01 Q1005;",
"01470399999","2010-03-26T11:50:00","4","59.565683","9.212222","19.2","NOTODDEN, NO","FM-15","ENNO ","V020","999,9,V,0005,1","00750,1,C,N","011265,1,N,1","+0030,1","+0010,1","99999,9","08,5,+00750,1,99,9",,,"08,99,1,99,9,99,9,99999,9,99,9,99,9",,"10051,1,99999,9","51,1",,,,"MET055METAR ENNO 261150Z VRB01KT 9999 -DZ OVC025 03/01 Q1005;",
"01470399999","2010-03-26T12:50:00","4","59.565683","9.212222","19.2","NOTODDEN, NO","FM-15","ENNO ","V020","300,1,N,0021,1","00900,1,C,N","011265,1,N,1","+0030,1","+0020,1","99999,9","02,5,+00450,1,99,9","08,5,+00900,1,99,9",,"08,99,1,99,9,99,9,99999,9,99,9,99,9",,"10041,1,99999,9",,,,,"MET063METAR ENNO 261250Z 30004KT 9999 FEW015 OVC030 03/02 Q1004 RERA;",
"01470399999","2010-03-26T13:50:00","4","59.565683","9.212222","19.2","NOTODDEN, NO","FM-15","ENNO ","V020","999,9,V,0010,1","00540,1,C,N","011265,1,N,1","+0040,1","+0020,1","99999,9","02,5,+00180,1,99,9","04,5,+00540,1,99,9","08,5,+00900,1,99,9","08,99,1,99,9,99,9,99999,9,99,9,99,9",,"10031,1,99999,9",,,,,"MET065METAR ENNO 261350Z VRB02KT 9999 FEW006 SCT018 OVC030 04/02 Q1003;",
"01470399999","2010-03-26T14:50:00","4","59.565683","9.212222","19.2","NOTODDEN, NO","FM-15","ENNO ","V020","270,1,N,0015,1","00750,1,C,N","011265,1,N,1","+0040,1","+0020,1","99999,9","02,5,+00540,1,99,9","04,5,+00750,1,99,9","07,5,+01050,1,99,9","07,99,1,99,9,99,9,99999,9,99,9,99,9",,"10031,1,99999,9",,,,,"MET065METAR ENNO 261450Z 27003KT 9999 FEW018 SCT025 BKN035 04/02 Q1003;",
"01470399999","2010-03-26T15:50:00","4","59.565683","9.212222","19.2","NOTODDEN, NO","FM-15","ENNO ","V020","999,9,C,0000,1","00750,1,C,N","011265,1,N,1","+0040,1","+0020,1","99999,9","02,5,+00540,1,99,9","04,5,+00750,1,99,9","07,5,+01050,1,99,9","07,99,1,99,9,99,9,99999,9,99,9,99,9",,"10031,1,99999,9",,,,,"MET065METAR ENNO 261550Z 00000KT 9999 FEW018 SCT025 BKN035 04/02 Q1003;",
"01470399999","2010-03-28T15:50:00","4","59.565683","9.212222","19.2","NOTODDEN, NO","FM-15","ENNO ","V020","100,1,N,0046,1","22000,1,9,N","011265,1,N,1","+0070,1","+0020,1","99999,9","02,5,+01050,1,99,9",,,"02,99,1,99,9,99,9,99999,9,99,9,99,9",,,,,,,"MET058METAR ENNO 281550Z 10009KT 070V130 9999 FEW035 07/02 Q992;",
"01470399999","2010-03-28T16:50:00","4","59.565683","9.212222","19.2","NOTODDEN, NO","FM-15","ENNO ","V020","100,1,N,0041,1","22000,1,9,N","011265,1,N,1","+0060,1","+0020,1","99999,9","02,5,+01050,1,99,9",,,"02,99,1,99,9,99,9,99999,9,99,9,99,9",,"09919,1,99999,9",,,,,"MET051METAR ENNO 281650Z 10008KT 9999 FEW035 06/02 Q0992;",
"01470399999","2010-03-28T17:50:00","4","59.565683","9.212222","19.2","NOTODDEN, NO","FM-15","ENNO ","V020","090,1,N,0041,1","22000,1,9,N","011265,1,N,1","+0050,1","+0010,1","99999,9","02,5,+01050,1,99,9",,,"02,99,1,99,9,99,9,99999,9,99,9,99,9",,"09929,1,99999,9",,,,,"MET051METAR ENNO 281750Z 09008KT 9999 FEW035 05/01 Q0993;",
"01470399999","2010-03-29T04:50:00","4","59.565683","9.212222","19.2","NOTODDEN, NO","FM-15","ENNO ","V020","999,9,C,0000,1","00420,1,C,N","007000,1,N,1","+0010,1","+0000,1","99999,9","08,5,+00420,1,99,9",,,"08,99,1,99,9,99,9,99999,9,99,9,99,9",,"09939,1,99999,9",,,,,"MET051METAR ENNO 290450Z 00000KT 7000 OVC014 01/00 Q0994;",
"01470399999","2010-03-29T05:50:00","4","59.565683","9.212222","19.2","NOTODDEN, NO","FM-15","ENNO ","V020","999,9,V,0005,1","00420,1,C,N","007000,1,N,1","+0010,1","+0000,1","99999,9","02,5,+00180,1,99,9","07,5,+00420,1,99,9","07,5,+00900,1,99,9","07,99,1,99,9,99,9,99999,9,99,9,99,9",,"09939,1,99999,9",,,,,"MET065METAR ENNO 290550Z VRB01KT 7000 FEW006 BKN014 BKN030 01/00 Q0994;",
"01470399999","2010-03-29T13:50:00","4","59.565683","9.212222","19.2","NOTODDEN, NO","FM-15","ENNO ","V020","110,1,N,0051,1","22000,1,9,N","011265,1,N,1","+0060,1","+0020,1","99999,9","04,5,+01200,1,99,9",,,"04,99,1,99,9,99,9,99999,9,99,9,99,9",,"09949,1,99999,9",,,,,"MET056METAR ENNO 291350Z 11010KT 9999 SCT040 06/02 Q0995 RERA;",
"01470399999","2010-03-29T14:50:00","4","59.565683","9.212222","19.2","NOTODDEN, NO","FM-15","ENNO ","V020","290,1,N,0072,1","22000,1,9,N","011265,1,N,1","+0080,1","+9999,9","99999,9","04,5,+01200,1,99,9",,,"04,99,1,99,9,99,9,99999,9,99,9,99,9",,"09949,1,99999,9",,,,,"MET052METAR ENNO 291450Z 29014KT 9999 SCT040 08/M06 Q0995;","Q01-000603ATOD  "
"01470399999","2010-03-30T04:50:00","4","59.565683","9.212222","19.2","NOTODDEN, NO","FM-15","ENNO ","V020","999,9,C,0000,1","99999,9,9,Y","009900,1,N,1","-0050,1","-0060,1","99999,9",,,,,,"10010,1,99999,9",,,,,"MET047METAR ENNO 300450Z 00000KT CAVOK M05/M06 Q1001;",
"01470399999","2010-03-30T05:50:00","4","59.565683","9.212222","19.2","NOTODDEN, NO","FM-15","ENNO ","V020","280,1,N,0015,1","99999,9,9,Y","009900,1,N,1","-0050,1","-0060,1","99999,9",,,,,,"10020,1,99999,9",,,,,"MET047METAR ENNO 300550Z 28003KT CAVOK M05/M06 Q1002;",
"01470399999","2010-03-30T13:50:00","4","59.565683","9.212222","19.2","NOTODDEN, NO","FM-15","ENNO ","V020","999,9,V,0010,1","01200,1,C,N","011265,1,N,1","+0060,1","-0050,1","99999,9","08,5,+01200,1,99,9",,,"08,99,1,99,9,99,9,99999,9,99,9,99,9",,"10010,1,99999,9","16,1",,,,"MET057METAR ENNO 301350Z VRB02KT 9999 VCSH OVC040 06/M05 Q1001;",
"01470399999","2010-03-30T14:50:00","4","59.565683","9.212222","19.2","NOTODDEN, NO","FM-15","ENNO ","V020","140,1,N,0026,1","01200,1,C,N","011265,1,N,1","+0060,1","-0050,1","99999,9","07,5,+01200,1,99,9",,,"07,99,1,99,9,99,9,99999,9,99,9,99,9",,"10000,1,99999,9","16,1",,,,"MET057METAR ENNO 301450Z 14005KT 9999 VCSH BKN040 06/M05 Q1000;",
"01470399999","2010-03-31T04:50:00","4","59.565683","9.212222","19.2","NOTODDEN, NO","FM-15","ENNO ","V020","290,1,N,0021,1","00270,1,C,N","009000,1,N,1","+0000,1","+0000,1","99999,9","02,5,+00060,1,99,9","04,5,+00270,1,99,9","07,5,+00600,1,99,9","07,99,1,99,9,99,9,99999,9,99,9,99,9",,"09990,1,99999,9","61,1",,,,"MET070METAR ENNO 310450Z 29004KT 9000 -RA FEW002 SCT009 BKN020 00/M00 Q0999;",
"01470399999","2010-03-31T05:50:00","4","59.565683","9.212222","19.2","NOTODDEN, NO","FM-15","ENNO ","V020","999,9,V,0010,1","00270,1,C,N","009000,1,N,1","+0000,1","+0000,1","99999,9","02,5,+00060,1,99,9","04,5,+00270,1,99,9","07,5,+00600,1,99,9","07,99,1,99,9,99,9,99999,9,99,9,99,9",,"09980,1,99999,9","51,1",,,,"MET077METAR ENNO 310550Z VRB02KT 9000 4000NW -DZ FEW002 SCT009 BKN020 00/M00 Q0998;",
"01470399999","2010-03-31T13:50:00","4","59.565683","9.212222","19.2","NOTODDEN, NO","FM-15","ENNO ","V020","260,1,N,0015,1","00420,1,C,N","011265,1,N,1","+0020,1","+0010,1","99999,9","02,5,+00090,1,99,9","04,5,+00420,1,99,9","07,5,+00750,1,99,9","07,99,1,99,9,99,9,99999,9,99,9,99,9",,"09980,1,99999,9",,,,,"MET073METAR ENNO 311350Z 26003KT 230V290 9999 FEW003 SCT014 BKN025 02/01 Q0998;",
"01470399999","2010-03-31T14:50:00","4","59.565683","9.212222","19.2","NOTODDEN, NO","FM-15","ENNO ","V020","270,1,N,0015,1","00450,1,C,N","011265,1,N,1","+0020,1","+0010,1","99999,9","02,5,+00090,1,99,9","04,5,+00450,1,99,9","07,5,+00750,1,99,9","07,99,1,99,9,99,9,99999,9,99,9,99,9",,"09980,1,99999,9",,,,,"MET073METAR ENNO 311450Z 27003KT 210V300 9999 FEW003 SCT015 BKN025 02/01 Q0998;",
"01470399999","2010-04-01T04:50:00","4","59.565683","9.212222","19.2","NOTODDEN, NO","FM-15","ENNO ","V020","270,1,N,0015,1","99999,9,C,N","001200,1,N,1","+0010,1","+0000,1","99999,9","04,5,+00450,5,99,9","07,5,+00750,5,99,9",,"02,99,1,99,9,99,9,99999,9,99,9,99,9",,"09990,1,99999,9","10,1","41,1",,,"MET081METAR ENNO 010450Z 27003KT 240V300 1200 BR BCFG FEW00O SCT015 BKN025 01/00 Q0999;","P01 007503SCOCIG"
"01470399999","2010-04-05T08:50:00","4","59.565683","9.212222","19.2","NOTODDEN, NO","FM-15","ENNO ","V020","999,9,C,0000,1","00900,5,9,N","999999,9,N,1","+0040,1","+0010,1","99999,9","07,5,+00900,5,99,9",,,,,"10190,1,99999,9",,,,,"MET046METAR ENNO 050850Z 00000KT BKN030 04/01 Q1019;",
"01470399999","2010-04-05T09:50:00","4","59.565683","9.212222","19.2","NOTODDEN, NO","FM-15","ENNO ","V020","999,9,C,0000,1","00900,5,9,N","999999,9,N,1","+0050,1","+0000,1","99999,9","07,5,+00900,5,99,9",,,,,"10190,1,99999,9",,,,,"MET047METAR ENNO 050950Z 00000KT BKN030 05/M00 Q1019;",
"01470399999","2010-04-05T10:50:00","4","59.565683","9.212222","19.2","NOTODDEN, NO","FM-15","ENNO ","V020","999,9,V,0015,1","01050,1,C,N","011265,1,N,1","+0060,1","-0010,1","99999,9","07,5,+01050,1,99,9",,,"07,99,1,99,9,99,9,99999,9,99,9,99,9",,"10190,1,99999,9",,,,,"MET052METAR ENNO 051050Z VRB03KT 9999 BKN035 06/M01 Q1019;",
"01470399999","2010-04-05T11:50:00","4","59.565683","9.212222","19.2","NOTODDEN, NO","FM-15","ENNO ","V020","120,1,N,0021,1","01050,1,C,N","011265,1,N,1","+0060,1","-0010,1","99999,9","07,5,+01050,1,99,9",,,"07,99,1,99,9,99,9,99999,9,99,9,99,9",,"10200,1,99999,9",,,,,"MET060METAR ENNO 051150Z 12004KT 060V190 9999 BKN035 06/M01 Q1020;",
"01470399999","2010-04-05T12:50:00","4","59.565683","9.212222","19.2","NOTODDEN, NO","FM-15","ENNO ","V020","120,1,N,0021,1","01200,1,C,N","011265,1,N,1","+0070,1","-0010,1","99999,9","07,5,+01200,1,99,9",,,"07,99,1,99,9,99,9,99999,9,99,9,99,9",,"10200,1,99999,9",,,,,"MET052METAR ENNO 051250Z 12004KT 9999 BKN040 07/M01 Q1020;",
"01470399999","2010-04-05T13:50:00","4","59.565683","9.212222","19.2","NOTODDEN, NO","FM-15","ENNO ","V020","110,1,N,0021,1","01200,1,C,N","011265,1,N,1","+0070,1","-0010,1","99999,9","07,5,+01200,1,99,9",,,"07,99,1,99,9,99,9,99999,9,99,9,99,9",,"10200,1,99999,9",,,,,"MET052METAR ENNO 051350Z 11004KT 9999 BKN040 07/M01 Q1020;",
"01470399999","2010-04-05T14:50:00","4","59.565683","9.212222","19.2","NOTODDEN, NO","FM-15","ENNO ","V020","130,1,N,0021,1","01200,1,C,N","011265,1,N,1","+0070,1","-0010,1","99999,9","07,5,+01200,1,99,9",,,"07,99,1,99,9,99,9,99999,9,99,9,99,9",,"10200,1,99999,9",,,,,"MET052METAR ENNO 051450Z 13004KT 9999 BKN040 07/M01 Q1020;",
"01470399999","2010-04-05T15:50:00","4","59.565683","9.212222","19.2","NOTODDEN, NO","FM-15","ENNO ","V020","110,1,N,0031,1","01230,1,C,N","011265,1,N,1","+0060,1","+0000,1","99999,9","07,5,+01230,1,99,9",,,"07,99,1,99,9,99,9,99999,9,99,9,99,9",,"10200,1,99999,9",,,,,"MET051METAR ENNO 051550Z 11006KT 9999 BKN041 06/00 Q1020;",
"01470399999","2010-04-06T04:50:00","4","59.565683","9.212222","19.2","NOTODDEN, NO","FM-15","ENNO ","V020","100,1,N,0036,1","00900,1,C,N","011265,1,N,1","+0020,1","+0010,1","99999,9","04,5,+00540,1,99,9","08,5,+00900,1,99,9",,"08,99,1,99,9,99,9,99999,9,99,9,99,9",,"10220,1,99999,9","61,1",,,,"MET062METAR ENNO 060450Z 10007KT 9999 -RA SCT018 OVC030 02/01 Q1022;",
"01470399999","2010-04-06T05:50:00","4","59.565683","9.212222","19.2","NOTODDEN, NO","FM-15","ENNO ","V020","100,1,N,0041,1","01350,1,C,N","011265,1,N,1","+0030,1","+0010,1","99999,9","04,5,+00540,1,99,9","08,5,+01350,1,99,9",,"08,99,1,99,9,99,9,99999,9,99,9,99,9",,"10230,1,99999,9","61,1",,,,"MET062METAR ENNO 060550Z 10008KT 9999 -RA SCT018 OVC045 03/01 Q1023;",
"01470399999","2010-04-06T06:50:00","4","59.565683","9.212222","19.2","NOTODDEN, NO","FM-15","ENNO ","V020","100,1,N,0031,1","00540,1,C,N","011265,1,N,1","+0030,1","+0010,1","99999,9","08,5,+00540,1,99,9",,,"08,99,1,99,9,99,9,99999,9,99,9,99,9",,"10230,1,99999,9","61,1",,,,"MET055METAR ENNO 060650Z 10006KT 9999 -RA OVC018 03/01 Q1023;",
"01470399999","2010-04-06T13:50:00","4","59.565683","9.212222","19.2","NOTODDEN, NO","FM-15","ENNO ","V020","110,1,N,0031,1","00600,1,C,N","011265,1,N,1","+0050,1","+0020,1","99999,9","02,5,+00300,1,99,9","07,5,+00600,1,99,9",,"07,99,1,99,9,99,9,99999,9,99,9,99,9",,"10230,1,99999,9",,,,,"MET058METAR ENNO 061350Z 11006KT 9999 FEW010 BKN020 05/02 Q1023;",
"01470399999","2010-04-06T14:50:00","4","59.565683","9.212222","19.2","NOTODDEN, NO","FM-15","ENNO ","V020","110,1,N,0031,1","00600,1,C,N","011265,1,N,1","+0050,1","+0030,1","99999,9","02,5,+00300,1,99,9","07,5,+00600,1,99,9",,"07,99,1,99,9,99,9,99999,9,99,9,99,9",,"10220,1,99999,9",,,,,"MET058METAR ENNO 061450Z 11006KT 9999 FEW010 BKN020 05/03 Q1022;",
"01470399999","2010-04-06T15:50:00","4","59.565683","9.212222","19.2","NOTODDEN, NO","FM-15","ENNO ","V020","090,1,N,0015,1","00480,1,C,N","011265,1,N,1","+0050,1","+0030,1","99999,9","08,5,+00480,1,99,9",,,"08,99,1,99,9,99,9,99999,9,99,9,99,9",,"10220,1,99999,9",,,,,"MET059METAR ENNO 061550Z 09003KT 040V140 9999 OVC016 05/03 Q1022;",
"01470399999","2010-04-07T04:50:00","4","59.565683","9.212222","19.2","NOTODDEN, NO","FM-15","ENNO ","V020","999,9,C,0000,1","00150,1,9,N","002000,1,N,1","+0020,1","+0020,1","99999,9","09,1,+00150,1,99,9",,,"09,99,1,99,9,99,9,00025,1,99,9,99,9",,"10220,1,99999,9","10,1",,,,"MET053METAR ENNO 070450Z 00000KT 2000 BR VV005 02/02 Q1022;",
"01470399999","2010-04-07T05:50:00","4","59.565683","9.212222","19.2","NOTODDEN, NO","FM-15","ENNO ","V020","999,9,V,0005,1","00150,1,C,N","009000,1,N,1","+0030,1","+0020,1","99999,9","08,5,+00150,1,99,9",,,"08,99,1,99,9,99,9,99999,9,99,9,99,9",,"10220,1,99999,9","10,1",,,,"MET061METAR ENNO 070550Z VRB01KT 9000 5000SE BR OVC005 03/02 Q1022;",
"01470399999","2010-04-07T06:50:00","4","59.565683","9.212222","19.2","NOTODDEN, NO","FM-15","ENNO ","V020","999,9,C,0000,1","00150,1,C,N","009000,1,N,1","+0030,1","+0020,1","99999,9","08,5,+00150,1,99,9",,,"08,99,1,99,9,99,9,99999,9,99,9,99,9",,"10220,1,99999,9","10,1",,,,"MET061METAR ENNO 070650Z 00000KT 9000 5000SE BR OVC005 03/02 Q1022;",
"01470399999","2010-04-07T07:50:00","4","59.565683","9.212222","19.2","NOTODDEN, NO","FM-15","ENNO ","V020","270,1,N,0010,1","00150,1,C,N","009000,1,N,1","+0040,1","+0030,1","99999,9","08,5,+00150,1,99,9",,,"08,99,1,99,9,99,9,99999,9,99,9,99,9",,"10230,1,99999,9","10,1",,,,"MET061METAR ENNO 070750Z 27002KT 9000 3000SE BR OVC005 04/03 Q1023;",
"01470399999","2010-04-07T12:50:00","4","59.565683","9.212222","19.2","NOTODDEN, NO","FM-15","ENNO ","V020","110,1,N,0046,1","02400,1,C,N","011265,1,N,1","+0090,1","+0050,1","99999,9","04,5,+00900,1,99,9","07,5,+02400,1,99,9",,"07,99,1,99,9,99,9,99999,9,99,9,99,9",,"10220,1,99999,9",,,,,"MET058METAR ENNO 071250Z 11009KT 9999 SCT030 BKN080 09/05 Q1022;",
"01470399999","2010-04-07T13:50:00","4","59.565683","9.212222","19.2","NOTODDEN, NO","FM-15","ENNO ","V020","120,1,N,0036,1","02400,1,C,N","011265,1,N,1","+0100,1","+0050,1","99999,9","04,5,+00900,1,99,9","07,5,+02400,1,99,9",,"07,99,1,99,9,99,9,99999,9,99,9,99,9",,"10220,1,99999,9",,,,,"MET058METAR ENNO 071350Z 12007KT 9999 SCT030 BKN080 10/05 Q1022;",
"01470399999","2010-04-07T14:50:00","4","59.565683","9.212222","19.2","NOTODDEN, NO","FM-15","ENNO ","V020","180,1,N,0021,1","02400,1,C,N","011265,1,N,1","+0100,1","+0040,1","99999,9","04,5,+00750,1,99,9","07,5,+02400,1,99,9",,"07,99,1,99,9,99,9,99999,9,99,9,99,9",,"10210,1,99999,9",,,,,"MET066METAR ENNO 071450Z 18004KT 120V240 9999 SCT025 BKN080 10/04 Q1021;",
"01470399999","2010-04-08T04:50:00","4","59.565683","9.212222","19.2","NOTODDEN, NO","FM-15","ENNO ","V020","999,9,C,0000,1","00300,1,C,N","003000,1,N,1","+0020,1","+0010,1","99999,9","07,5,+00300,1,99,9",,,"07,99,1,99,9,99,9,99999,9,99,9,99,9",,"10210,1,99999,9","10,1",,,,"MET054METAR ENNO 080450Z 00000KT 3000 BR BKN010 02/01 Q1021;",
"01470399999","2010-04-08T05:50:00","4","59.565683","9.212222","19.2","NOTODDEN, NO","FM-15","ENNO ","V020","999,9,C,0000,1","00570,1,C,N","005000,1,N,1","+0020,1","+0010,1","99999,9","02,5,+00000,5,99,9","07,5,+00570,1,99,9",,"07,99,1,99,9,99,9,99999,9,99,9,99,9",,"10210,1,99999,9","10,1",,,,"MET061METAR ENNO 080550Z 00000KT 5000 BR FEW000 BKN019 02/01 Q1021;",
"01470399999","2010-04-08T06:50:00","4","59.565683","9.212222","19.2","NOTODDEN, NO","FM-15","ENNO ","V020","999,9,C,0000,1","00570,1,C,N","004000,1,N,1","+0030,1","+0020,1","99999,9","02,5,+00000,5,99,9","07,5,+00570,1,99,9",,"07,99,1,99,9,99,9,99999,9,99,9,99,9",,"10210,1,99999,9","10,1",,,,"MET061METAR ENNO 080650Z 00000KT 4000 BR FEW000 BKN019 03/02 Q1021;",
"01470399999","2010-04-08T07:50:00","4","59.565683","9.212222","19.2","NOTODDEN, NO","FM-15","ENNO ","V020","999,9,C,0000,1","00600,1,C,N","005000,1,N,1","+0030,1","+0020,1","99999,9","02,5,+00000,5,99,9","08,5,+00600,1,99,9",,"08,99,1,99,9,99,9,99999,9,99,9,99,9",,"10200,1,99999,9","10,1","61,1",,,"MET065METAR ENNO 080750Z 00000KT 5000 -RA BR FEW000 OVC020 03/02 Q1020;",
"01470399999","2010-04-08T12:50:00","4","59.565683","9.212222","19.2","NOTODDEN, NO","FM-15","ENNO ","V020","280,1,N,0021,1","00600,1,C,N","008000,1,N,1","+0050,1","+0040,1","99999,9","02,5,+00000,5,99,9","08,5,+00600,1,99,9",,"08,99,1,99,9,99,9,99999,9,99,9,99,9",,"10190,1,99999,9","10,1","61,1",,,"MET072METAR ENNO 081250Z 28004KT 8000 5000NW -RA BR FEW000 OVC020 05/04 Q1019;",
"01470399999","2010-04-08T13:50:00","4","59.565683","9.212222","19.2","NOTODDEN, NO","FM-15","ENNO ","V020","999,9,V,0005,1","00300,1,C,N","008000,1,N,1","+0060,1","+0050,1","99999,9","02,5,+00000,5,99,9","04,5,+00300,1,99,9","08,5,+00600,1,99,9","08,99,1,99,9,99,9,99999,9,99,9,99,9",,"10190,1,99999,9","10,1","61,1",,,"MET079METAR ENNO 081350Z VRB01KT 8000 5000NW -RA BR FEW000 SCT010 OVC020 06/05 Q1019;",
"01470399999","2010-04-08T14:50:00","4","59.565683","9.212222","19.2","NOTODDEN, NO","FM-15","ENNO ","V020","140,1,N,0015,1","00300,1,C,N","009000,1,N,1","+0060,1","+0050,1","99999,9","02,5,+00000,5,99,9","04,5,+00300,1,99,9","07,5,+00900,1,99,9","07,99,1,99,9,99,9,99999,9,99,9,99,9",,"10190,1,99999,9","10,1",,,,"MET075METAR ENNO 081450Z 14003KT 9000 8000NW BR FEW000 SCT010 BKN030 06/05 Q1019;",
"01470399999","2010-04-08T15:50:00","4","59.565683","9.212222","19.2","NOTODDEN, NO","FM-15","ENNO ","V020","110,1,N,0015,1","00900,1,C,N","009000,1,N,1","+0060,1","+0040,1","99999,9","04,5,+00300,1,99,9","07,5,+00900,1,99,9",,"07,99,1,99,9,99,9,99999,9,99,9,99,9",,"10190,1,99999,9","10,1",,,,"MET061METAR ENNO 081550Z 11003KT 9000 BR SCT010 BKN030 06/04 Q1019;",
"01470399999","2010-04-09T04:50:00","4","59.565683","9.212222","19.2","NOTODDEN, NO","FM-15","ENNO ","V020","999,9,V,0005,1","22000,1,9,N","000400,1,N,1","-0010,1","-0010,1","99999,9",,,,,,"10220,1,99999,9","48,1",,,,"MET051METAR ENNO 090450Z VRB01KT 0400 FZFG M01/M01 Q1022;",
"01470399999","2010-04-09T05:50:00","4","59.565683","9.212222","19.2","NOTODDEN, NO","FM-15","ENNO ","V020","290,1,N,0015,1","22000,1,9,N","000700,1,N,1","-0010,1","-0010,1","99999,9",,,,,,"10220,1,99999,9","48,1",,,,"MET051METAR ENNO 090550Z 29003KT 0700 FZFG M01/M01 Q1022;",
"01470399999","2010-04-09T06:50:00","4","59.565683","9.212222","19.2","NOTODDEN, NO","FM-15","ENNO ","V020","999,9,V,0010,1","00015,1,C,N","000300,1,N,1","-0010,1","-0010,1","99999,9","09,1,+00015,1,99,9",,,"09,99,1,99,9,99,9,00025,1,99,9,99,9",,"10230,1,99999,9","49,1",,,,"MET057METAR ENNO 090650Z VRB02KT 0300 FZFG VV/// M01/M01 Q1023;",
"01470399999","2010-04-09T07:50:00","4","59.565683","9.212222","19.2","NOTODDEN, NO","FM-15","ENNO ","V020","999,9,C,0000,1","22000,1,9,N","011265,1,N,1","+0010,1","+0010,1","99999,9","04,5,+00000,5,99,9",,,"04,99,1,99,9,99,9,99999,9,99,9,99,9",,"10230,1,99999,9",,,,,"MET058METAR ENNO 090750Z 00000KT 9999 2000NW SCT000 01/01 Q1023;",
"01470399999","2010-04-09T12:50:00","4","59.565683","9.212222","19.2","NOTODDEN, NO","FM-15","ENNO ","V020","290,1,N,0067,1","22000,1,9,N","011265,1,N,1","+0140,1","-0030,1","99999,9","02,5,+01500,1,99,9",,,"02,99,1,99,9,99,9,99999,9,99,9,99,9",,"10230,1,99999,9",,,,"0113,1","MET055METAR ENNO 091250Z 29013G22KT 9999 FEW050 14/M03 Q1023;",
"01470399999","2010-04-09T13:50:00","4","59.565683","9.212222","19.2","NOTODDEN, NO","FM-15","ENNO ","V020","280,1,N,0077,1","22000,1,9,N","011265,1,N,1","+0130,1","-0030,1","99999,9","02,5,+01500,1,99,9",,,"02,99,1,99,9,99,9,99999,9,99,9,99,9",,"10230,1,99999,9",,,,"0103,1","MET055METAR ENNO 091350Z 28015G20KT 9999 FEW050 13/M03 Q1023;",
"01470399999","2010-04-09T14:50:00","4","59.565683","9.212222","19.2","NOTODDEN, NO","FM-15","ENNO ","V020","300,1,N,0077,1","99999,9,9,Y","009900,1,N,1","+0130,1","-0020,1","99999,9",,,,,,"10230,1,99999,9",,,,"0103,1","MET049METAR ENNO 091450Z 30015G20KT CAVOK 13/M02 Q1023;",
"01470399999","2010-04-09T15:50:00","4","59.565683","9.212222","19.2","NOTODDEN, NO","FM-15","ENNO ","V020","290,1,N,0067,1","99999,9,9,Y","009900,1,N,1","+0130,1","-0030,1","99999,9",,,,,,"10240,1,99999,9",,,,"0108,1","MET049METAR ENNO 091550Z 29013G21KT CAVOK 13/M03 Q1024;",
"01470399999","2010-04-11T15:50:00","4","59.565683","9.212222","19.2","NOTODDEN, NO","FM-15","ENNO ","V020","999,9,V,0015,1","99999,9,9,Y","009900,1,N,1","+0150,1","-0050,1","99999,9",,,,,,"10329,1,99999,9",,,,,"MET046METAR ENNO 111550Z VRB03KT CAVOK 15/M05 Q1033;",
"01470399999","2010-04-11T16:50:00","4","59.565683","9.212222","19.2","NOTODDEN, NO","FM-15","ENNO ","V020","210,1,N,0010,1","99999,9,9,Y","009900,1,N,1","+0150,1","-0050,1","99999,9",,,,,,"10329,1,99999,9",,,,,"MET046METAR ENNO 111650Z 21002KT CAVOK 15/M05 Q1033;",
"01470399999","2010-04-11T17:50:00","4","59.565683","9.212222","19.2","NOTODDEN, NO","FM-15","ENNO ","V020","999,9,V,0005,1","99999,9,9,Y","009900,1,N,1","+0110,1","-0010,1","99999,9",,,,,,"10329,1,99999,9",,,,,"MET046METAR ENNO 111750Z VRB01KT CAVOK 11/M01 Q1033;",
"01470399999","2010-04-12T04:50:00","4","59.565683","9.212222","19.2","NOTODDEN, NO","FM-15","ENNO ","V020","290,1,N,0021,1","99999,9,9,Y","009900,1,N,1","-0030,1","-0040,1","99999,9",,,,,,"10329,1,99999,9",,,,,"MET047METAR ENNO 120450Z 29004KT CAVOK M03/M04 Q1033;",
"01470399999","2010-04-12T05:50:00","4","59.565683","9.212222","19.2","NOTODDEN, NO","FM-15","ENNO ","V020","999,9,C,0000,1","99999,9,9,Y","009900,1,N,1","-0020,1","-0030,1","99999,9",,,,,,"10329,1,99999,9",,,,,"MET047METAR ENNO 120550Z 00000KT CAVOK M02/M03 Q1033;",
"01470399999","2010-04-12T06:50:00","4","59.565683","9.212222","19.2","NOTODDEN, NO","FM-15","ENNO ","V020","999,9,C,0000,1","99999,9,9,Y","009900,1,N,1","+0000,1","-0030,1","99999,9",,,,,,"10318,1,99999,9",,,,,"MET046METAR ENNO 120650Z 00000KT CAVOK 00/M03 Q1032;",
"01470399999","2010-04-12T08:20:00","4","59.565683","9.212222","19.2","NOTODDEN, NO","FM-15","ENNO ","V020","270,1,N,0015,1","99999,9,9,Y","009900,1,N,1","+0050,1","-0030,1","99999,9",,,,,,"10312,1,99999,9",,,,,"MET046METAR ENNO 120820Z 27003KT CAVOK 05/M03 Q1031;",
"01470399999","2010-04-12T08:50:00","4","59.565683","9.212222","19.2","NOTODDEN, NO","FM-15","ENNO ","V020","270,1,N,0021,1","99999,9,9,Y","009900,1,N,1","+0070,1","-0040,1","99999,9",,,,,,"10301,1,99999,9",,,,,"MET046METAR ENNO 120850Z 27004KT CAVOK 07/M04 Q1030;",
"01470399999","2010-04-12T09:50:00","4","59.565683","9.212222","19.2","NOTODDEN, NO","FM-15","ENNO ","V020","999,9,V,0015,1","99999,9,9,Y","009900,1,N,1","+0100,1","-0040,1","99999,9",,,,,,"10291,1,99999,9",,,,,"MET046METAR ENNO 120950Z VRB03KT CAVOK 10/M04 Q1029;",
"01470399999","2010-04-12T10:50:00","4","59.565683","9.212222","19.2","NOTODDEN, NO","FM-15","ENNO ","V020","130,1,N,0026,1","99999,9,9,Y","009900,1,N,1","+0120,1","-0050,1","99999,9",,,,,,"10281,1,99999,9",,,,,"MET046METAR ENNO 121050Z 13005KT CAVOK 12/M05 Q1028;",
"01470399999","2010-04-12T11:50:00","4","59.565683","9.212222","19.2","NOTODDEN, NO","FM-15","ENNO ","V020","120,1,N,0036,1","99999,9,9,Y","009900,1,N,1","+0140,1","-0040,1","99999,9",,,,,,"10271,1,99999,9",,,,,"MET046METAR ENNO 121150Z 12007KT CAVOK 14/M04 Q1027;",
"01470399999","2010-04-12T12:50:00","4","59.565683","9.212222","19.2","NOTODDEN, NO","FM-15","ENNO ","V020","110,1,N,0041,1","99999,9,9,Y","009900,1,N,1","+0150,1","-0040,1","99999,9",,,,,,"10261,1,99999,9",,,,,"MET046METAR ENNO 121250Z 11008KT CAVOK 15/M04 Q1026;",
"01470399999","2010-04-12T13:50:00","4","59.565683","9.212222","19.2","NOTODDEN, NO","FM-15","ENNO ","V020","110,1,N,0041,1","99999,9,9,Y","009900,1,N,1","+0160,1","-0050,1","99999,9",,,,,,"10251,1,99999,9",,,,,"MET054METAR ENNO 121350Z 11008KT 070V130 CAVOK 16/M05 Q1025;",
"01470399999","2010-04-12T14:50:00","4","59.565683","9.212222","19.2","NOTODDEN, NO","FM-15","ENNO ","V020","290,1,N,0057,1","99999,9,9,Y","009900,1,N,1","+0170,1","-0080,1","99999,9",,,,,,"10240,1,99999,9",,,,,"MET046METAR ENNO 121450Z 29011KT CAVOK 17/M08 Q1024;",
"01470399999","2010-04-12T15:50:00","4","59.565683","9.212222","19.2","NOTODDEN, NO","FM-15","ENNO ","V020","290,1,N,0057,1","99999,9,9,Y","009900,1,N,1","+0160,1","-0070,1","99999,9",,,,,,"10240,1,99999,9",,,,,"MET054METAR ENNO 121550Z 29011KT 260V320 CAVOK 16/M07 Q1024;",
"01470399999","2010-04-12T16:50:00","4","59.565683","9.212222","19.2","NOTODDEN, NO","FM-15","ENNO ","V020","300,1,N,0046,1","99999,9,9,Y","009900,1,N,1","+0150,1","-0050,1","99999,9",,,,,,"10240,1,99999,9",,,,,"MET046METAR ENNO 121650Z 30009KT CAVOK 15/M05 Q1024;",
"01470399999","2010-04-13T04:50:00","4","59.565683","9.212222","19.2","NOTODDEN, NO","FM-15","ENNO ","V020","300,1,N,0015,1","22000,1,9,N","011265,1,N,1","+0010,1","-0010,1","99999,9","02,5,+01800,1,99,9",,,"02,99,1,99,9,99,9,99999,9,99,9,99,9",,"10261,1,99999,9",,,,,"MET060METAR ENNO 130450Z 30003KT 260V030 9999 FEW060 01/M01 Q1026;",
"01470399999","2010-04-13T05:50:00","4","59.565683","9.212222","19.2","NOTODDEN, NO","FM-15","ENNO ","V020","300,1,N,0015,1","22000,1,9,N","011265,1,N,1","+0020,1","-0010,1","99999,9","02,5,+01800,1,99,9",,,"02,99,1,99,9,99,9,99999,9,99,9,99,9",,"10261,1,99999,9",,,,,"MET060METAR ENNO 130550Z 30003KT 270V360 9999 FEW060 02/M01 Q1026;",
"01470399999","2010-04-13T06:50:00","4","59.565683","9.212222","19.2","NOTODDEN, NO","FM-15","ENNO ","V020","270,1,N,0021,1","99999,9,9,Y","009900,1,N,1","+0050,1","+0000,1","99999,9",,,,,,"10261,1,99999,9",,,,,"MET046METAR ENNO 130650Z 27004KT CAVOK 05/M00 Q1026;",
"01470399999","2010-04-13T07:50:00","4","59.565683","9.212222","19.2","NOTODDEN, NO","FM-15","ENNO ","V020","310,1,N,0026,1","99999,9,9,Y","009900,1,N,1","+0100,1","-0020,1","99999,9",,,,,,"10261,1,99999,9",,,,,"MET054METAR ENNO 130750Z 31005KT 270V020 CAVOK 10/M02 Q1026;",
"01470399999","2010-04-13T08:50:00","4","59.565683","9.212222","19.2","NOTODDEN, NO","FM-15","ENNO ","V020","999,9,V,0021,1","99999,9,9,Y","009900,1,N,1","+0110,1","-0040,1","99999,9",,,,,,"10261,1,99999,9",,,,,"MET046METAR ENNO 130850Z VRB04KT CAVOK 11/M04 Q1026;",
"01470399999","2010-04-13T09:50:00","4","59.565683","9.212222","19.2","NOTODDEN, NO","FM-15","ENNO ","V020","999,9,V,0031,1","99999,9,9,Y","009900,1,N,1","+0120,1","-0050,1","99999,9",,,,,,"10261,1,99999,9",,,,,"MET046METAR ENNO 130950Z VRB06KT CAVOK 12/M05 Q1026;",
"01470399999","2010-04-13T10:50:00","4","59.565683","9.212222","19.2","NOTODDEN, NO","FM-15","ENNO ","V020","110,1,N,0036,1","99999,9,9,Y","009900,1,N,1","+0120,1","-0060,1","99999,9",,,,,,"10251,1,99999,9",,,,,"MET054METAR ENNO 131050Z 11007KT 040V190 CAVOK 12/M06 Q1025;",
"01470399999","2010-04-13T11:50:00","4","59.565683","9.212222","19.2","NOTODDEN, NO","FM-15","ENNO ","V020","140,1,N,0041,1","99999,9,9,Y","009900,1,N,1","+0130,1","-0060,1","99999,9",,,,,,"10251,1,99999,9",,,,,"MET054METAR ENNO 131150Z 14008KT 110V200 CAVOK 13/M06 Q1025;",
"01470399999","2010-04-13T12:50:00","4","59.565683","9.212222","19.2","NOTODDEN, NO","FM-15","ENNO ","V020","320,1,N,0051,1","99999,9,9,Y","009900,1,N,1","+0140,1","-0060,1","99999,9",,,,,,"10251,1,99999,9",,,,,"MET054METAR ENNO 131250Z 32010KT 270V010 CAVOK 14/M06 Q1025;",
"01470399999","2010-04-13T13:50:00","4","59.565683","9.212222","19.2","NOTODDEN, NO","FM-15","ENNO ","V020","999,9,V,0026,1","99999,9,9,Y","009900,1,N,1","+0150,1","-0060,1","99999,9",,,,,,"10251,1,99999,9",,,,,"MET046METAR ENNO 131350Z VRB05KT CAVOK 15/M06 Q1025;",
"01470399999","2010-04-13T14:50:00","4","59.565683","9.212222","19.2","NOTODDEN, NO","FM-15","ENNO ","V020","999,9,V,0021,1","99999,9,9,Y","009900,1,N,1","+0140,1","-0080,1","99999,9",,,,,,"10240,1,99999,9",,,,,"MET046METAR ENNO 131450Z VRB04KT CAVOK 14/M08 Q1024;",
"01470399999","2010-04-13T15:50:00","4","59.565683","9.212222","19.2","NOTODDEN, NO","FM-15","ENNO ","V020","300,1,N,0046,1","99999,9,9,Y","009900,1,N,1","+0140,1","-0080,1","99999,9",,,,,,"10240,1,99999,9",,,,"0077,1","MET049METAR ENNO 131550Z 30009G15KT CAVOK 14/M08 Q1024;",
"01470399999","2010-04-14T04:50:00","4","59.565683","9.212222","19.2","NOTODDEN, NO","FM-15","ENNO ","V020","999,9,V,0010,1","99999,9,9,Y","009900,1,N,1","-0020,1","-0030,1","99999,9",,,,,,"10281,1,99999,9",,,,,"MET047METAR ENNO 140450Z VRB02KT CAVOK M02/M03 Q1028;",
"01470399999","2010-04-14T05:50:00","4","59.565683","9.212222","19.2","NOTODDEN, NO","FM-15","ENNO ","V020","999,9,C,0000,1","99999,9,9,Y","009900,1,N,1","-0010,1","-0020,1","99999,9",,,,,,"10281,1,99999,9",,,,,"MET047METAR ENNO 140550Z 00000KT CAVOK M01/M02 Q1028;",
"01470399999","2010-04-14T06:50:00","4","59.565683","9.212222","19.2","NOTODDEN, NO","FM-15","ENNO ","V020","999,9,C,0000,1","99999,9,9,Y","009900,1,N,1","+0010,1","-0020,1","99999,9",,,,,,"10281,1,99999,9",,,,,"MET046METAR ENNO 140650Z 00000KT CAVOK 01/M02 Q1028;",
"01470399999","2010-04-14T07:50:00","4","59.565683","9.212222","19.2","NOTODDEN, NO","FM-15","ENNO ","V020","270,1,N,0021,1","99999,9,9,Y","009900,1,N,1","+0050,1","-0020,1","99999,9",,,,,,"10271,1,99999,9",,,,,"MET046METAR ENNO 140750Z 27004KT CAVOK 05/M02 Q1027;",
"01470399999","2010-04-14T08:50:00","4","59.565683","9.212222","19.2","NOTODDEN, NO","FM-15","ENNO ","V020","999,9,V,0010,1","99999,9,9,Y","009900,1,N,1","+0070,1","-0020,1","99999,9",,,,,,"10261,1,99999,9",,,,,"MET046METAR ENNO 140850Z VRB02KT CAVOK 07/M02 Q1026;",
"01470399999","2010-04-14T09:50:00","4","59.565683","9.212222","19.2","NOTODDEN, NO","FM-15","ENNO ","V020","130,1,N,0026,1","99999,9,9,Y","009900,1,N,1","+0100,1","-0030,1","99999,9",,,,,,"10251,1,99999,9",,,,,"MET046METAR ENNO 140950Z 13005KT CAVOK 10/M03 Q1025;",
"01470399999","2010-04-14T10:50:00","4","59.565683","9.212222","19.2","NOTODDEN, NO","FM-15","ENNO ","V020","130,1,N,0021,1","99999,9,9,Y","009900,1,N,1","+0110,1","-0040,1","99999,9",,,,,,"10251,1,99999,9",,,,,"MET046METAR ENNO 141050Z 13004KT CAVOK 11/M04 Q1025;",
"01470399999","2010-04-14T11:50:00","4","59.565683","9.212222","19.2","NOTODDEN, NO","FM-15","ENNO ","V020","120,1,N,0026,1","99999,9,9,Y","009900,1,N,1","+0130,1","-0040,1","99999,9",,,,,,"10240,1,99999,9",,,,,"MET046METAR ENNO 141150Z 12005KT CAVOK 13/M04 Q1024;",
"01470399999","2010-04-14T12:50:00","4","59.565683","9.212222","19.2","NOTODDEN, NO","FM-15","ENNO ","V020","120,1,N,0031,1","99999,9,9,Y","009900,1,N,1","+0140,1","-0040,1","99999,9",,,,,,"10230,1,99999,9",,,,,"MET046METAR ENNO 141250Z 12006KT CAVOK 14/M04 Q1023;",
"01470399999","2010-04-14T14:20:00","4","59.565683","9.212222","19.2","NOTODDEN, NO","FM-15","ENNO ","V020","120,1,N,0036,1","99999,9,9,Y","009900,1,N,1","+0150,1","-0030,1","99999,9",,,,,,"10220,1,99999,9",,,,,"MET054METAR ENNO 141420Z 12007KT 080V140 CAVOK 15/M03 Q1022;",
"01470399999","2010-04-15T04:50:00","4","59.565683","9.212222","19.2","NOTODDEN, NO","FM-15","ENNO ","V020","999,9,C,0000,1","99999,9,C,N","011265,1,N,1","+0000,1","-0010,1","99999,9","02,5,+01800,1,99,9","04,5,+03600,1,99,9",,"04,99,1,99,9,99,9,99999,9,99,9,99,9",,"10169,1,99999,9",,,,,"MET059METAR ENNO 150450Z 00000KT 9999 FEW060 SCT120 00/M01 Q1017;","P01 036003SCOCIG"
"01470399999","2010-04-15T05:50:00","4","59.565683","9.212222","19.2","NOTODDEN, NO","FM-15","ENNO ","V020","999,9,V,0005,1","03000,1,C,N","011265,1,N,1","+0010,1","+0000,1","99999,9","02,5,+01500,1,99,9","07,5,+03000,1,99,9",,"07,99,1,99,9,99,9,99999,9,99,9,99,9",,"10169,1,99999,9",,,,,"MET059METAR ENNO 150550Z VRB01KT 9999 FEW050 BKN100 01/M00 Q1017;",
"01470399999","2010-04-15T06:50:00","4","59.565683","9.212222","19.2","NOTODDEN, NO","FM-15","ENNO ","V020","999,9,C,0000,1","99999,9,9,Y","009900,1,N,1","+0030,1","-0010,1","99999,9",,,,,,"10169,1,99999,9",,,,,"MET046METAR ENNO 150650Z 00000KT CAVOK 03/M01 Q1017;",
"01470399999","2010-04-15T08:50:00","4","59.565683","9.212222","19.2","NOTODDEN, NO","FM-15","ENNO ","V020","290,1,N,0010,1","99999,9,9,Y","009900,1,N,1","+0050,1","-0010,1","99999,9",,,,,,"10159,1,99999,9",,,,,"MET054METAR ENNO 150850Z 29002KT 260V320 CAVOK 05/M01 Q1016;",
"01470399999","2010-04-15T09:50:00","4","59.565683","9.212222","19.2","NOTODDEN, NO","FM-15","ENNO ","V020","999,9,C,0000,1","99999,9,C,N","011265,1,N,1","+0060,1","+0020,1","99999,9","02,5,+00900,1,99,9","04,5,+02700,1,99,9",,"04,99,1,99,9,99,9,99999,9,99,9,99,9",,"10159,1,99999,9",,,,,"MET058METAR ENNO 150950Z 00000KT 9999 FEW030 SCT090 06/02 Q1016;","P01 027003SCOCIG"
"01470399999","2010-04-15T10:50:00","4","59.565683","9.212222","19.2","NOTODDEN, NO","FM-15","ENNO ","V020","130,1,N,0026,1","22000,1,9,N","011265,1,N,1","+0120,1","+0040,1","99999,9","02,5,+00900,1,99,9",,,"02,99,1,99,9,99,9,99999,9,99,9,99,9",,"10149,1,99999,9",,,,,"MET051METAR ENNO 151050Z 13005KT 9999 FEW030 12/04 Q1015;",
"01470399999","2010-04-15T11:50:00","4","59.565683","9.212222","19.2","NOTODDEN, NO","FM-15","ENNO ","V020","999,9,V,0015,1","22000,1,9,N","011265,1,N,1","+0130,1","+0030,1","99999,9","02,5,+01200,1,99,9",,,"02,99,1,99,9,99,9,99999,9,99,9,99,9",,"10139,1,99999,9",,,,,"MET051METAR ENNO 151150Z VRB03KT 9999 FEW040 13/03 Q1014;",
"01470399999","2010-04-15T12:50:00","4","59.565683","9.212222","19.2","NOTODDEN, NO","FM-15","ENNO ","V020","300,1,N,0087,1","99999,9,C,N","011265,1,N,1","+0140,1","-0020,1","99999,9","02,5,+01200,1,99,9","04,5,+06000,1,99,9",,"04,99,1,99,9,99,9,99999,9,99,9,99,9",,"10139,1,99999,9",,,,"0134,1","MET062METAR ENNO 151250Z 30017G26KT 9999 FEW040 SCT200 14/M02 Q1014;","P01 060003SCOCIG"
"01470399999","2010-04-15T13:50:00","4","59.565683","9.212222","19.2","NOTODDEN, NO","FM-15","ENNO ","V020","270,1,N,0072,1","22000,1,9,N","011265,1,N,1","+0140,1","-0030,1","99999,9","02,5,+01200,1,99,9",,,"02,99,1,99,9,99,9,99999,9,99,9,99,9",,"10139,1,99999,9",,,,,"MET052METAR ENNO 151350Z 27014KT 9999 FEW040 14/M03 Q1014;",
"01470399999","2010-04-15T14:50:00","4","59.565683","9.212222","19.2","NOTODDEN, NO","FM-15","ENNO ","V020","280,1,N,0062,1","99999,9,C,N","011265,1,N,1","+0130,1","-0030,1","99999,9","02,5,+01200,1,99,9","04,5,+06000,1,99,9",,"04,99,1,99,9,99,9,99999,9,99,9,99,9",,"10129,1,99999,9",,,,,"MET059METAR ENNO 151450Z 28012KT 9999 FEW040 SCT200 13/M03 Q1013;","P01 060003SCOCIG"
"01470399999","2010-04-15T15:50:00","4","59.565683","9.212222","19.2","NOTODDEN, NO","FM-15","ENNO ","V020","280,1,N,0082,1","99999,9,C,N","011265,1,N,1","+0120,1","-0030,1","99999,9","02,5,+01200,1,99,9","04,5,+06000,1,99,9",,"04,99,1,99,9,99,9,99999,9,99,9,99,9",,"10129,1,99999,9",,,,,"MET059METAR ENNO 151550Z 28016KT 9999 FEW040 SCT200 12/M03 Q1013;","P01 060003SCOCIG"
"01470399999","2010-04-16T04:50:00","4","59.565683","9.212222","19.2","NOTODDEN, NO","FM-15","ENNO ","V020","290,1,N,0010,1","99999,9,9,Y","009900,1,N,1","+0010,1","-0040,1","99999,9",,,,,,"10149,1,99999,9",,,,,"MET046METAR ENNO 160450Z 29002KT CAVOK 01/M04 Q1015;",
"01470399999","2010-04-16T05:50:00","4","59.565683","9.212222","19.2","NOTODDEN, NO","FM-15","ENNO ","V020","999,9,V,0005,1","99999,9,9,Y","009900,1,N,1","+0030,1","-0040,1","99999,9",,,,,,"10149,1,99999,9",,,,,"MET046METAR ENNO 160550Z VRB01KT CAVOK 03/M04 Q1015;",
"01470399999","2010-04-16T06:50:00","4","59.565683","9.212222","19.2","NOTODDEN, NO","FM-15","ENNO ","V020","330,1,N,0036,1","99999,9,9,Y","009900,1,N,1","+0070,1","-0060,1","99999,9",,,,,,"10149,1,99999,9",,,,,"MET054METAR ENNO 160650Z 33007KT 290V030 CAVOK 07/M06 Q1015;",
"01470399999","2010-04-16T07:50:00","4","59.565683","9.212222","19.2","NOTODDEN, NO","FM-15","ENNO ","V020","300,1,N,0087,1","99999,9,9,Y","009900,1,N,1","+0080,1","-0080,1","99999,9",,,,,,"10159,1,99999,9",,,,"0144,1","MET049METAR ENNO 160750Z 30017G28KT CAVOK 08/M08 Q1016;",
"01470399999","2010-04-16T08:50:00","4","59.565683","9.212222","19.2","NOTODDEN, NO","FM-15","ENNO ","V020","300,1,N,0082,1","99999,9,9,Y","009900,1,N,1","+0080,1","-0070,1","99999,9",,,,,,"10159,1,99999,9",,,,"0118,1","MET049METAR ENNO 160850Z 30016G23KT CAVOK 08/M07 Q1016;",
"01470399999","2010-04-16T09:50:00","4","59.565683","9.212222","19.2","NOTODDEN, NO","FM-15","ENNO ","V020","320,1,N,0072,1","99999,9,9,Y","009900,1,N,1","+0090,1","-0070,1","99999,9",,,,,,"10159,1,99999,9",,,,"0113,1","MET049METAR ENNO 160950Z 32014G22KT CAVOK 09/M07 Q1016;",
"01470399999","2010-04-16T10:50:00","4","59.565683","9.212222","19.2","NOTODDEN, NO","FM-15","ENNO ","V020","290,1,N,0072,1","99999,9,9,Y","009900,1,N,1","+0100,1","-0060,1","99999,9",,,,,,"10159,1,99999,9",,,,"0118,1","MET049METAR ENNO 161050Z 29014G23KT CAVOK 10/M06 Q1016;",
"01470399999","2010-04-16T12:20:00","4","59.565683","9.212222","19.2","NOTODDEN, NO","FM-15","ENNO ","V020","280,1,N,0082,1","99999,9,9,Y","009900,1,N,1","+0090,1","-0080,1","99999,9",,,,,,"10159,1,99999,9",,,,"0134,1","MET057METAR ENNO 161220Z 28016G26KT 240V300 CAVOK 09/M08 Q1016;",
"01470399999","2010-04-16T12:50:00","4","59.565683","9.212222","19.2","NOTODDEN, NO","FM-15","ENNO ","V020","290,1,N,0093,1","99999,9,9,Y","009900,1,N,1","+0100,1","-0070,1","99999,9",,,,,,"10159,1,99999,9",,,,,"MET054METAR ENNO 161250Z 29018KT 260V320 CAVOK 10/M07 Q1016;",
"01470399999","2010-04-16T14:20:00","4","59.565683","9.212222","19.2","NOTODDEN, NO","FM-15","ENNO ","V020","270,1,N,0051,1","99999,9,9,Y","009900,1,N,1","+0100,1","-0080,1","99999,9",,,,,,"10159,1,99999,9",,,,,"MET054METAR ENNO 161420Z 27010KT 230V300 CAVOK 10/M08 Q1016;",
"01470399999","2010-04-16T14:50:00","4","59.565683","9.212222","19.2","NOTODDEN, NO","FM-15","ENNO ","V020","290,1,N,0051,1","99999,9,9,Y","009900,1,N,1","+0100,1","-0080,1","99999,9",,,,,,"10159,1,99999,9",,,,,"MET054METAR ENNO 161450Z 29010KT 250V320 CAVOK 10/M08 Q1016;",
"01470399999","2010-04-18T15:50:00","4","59.565683","9.212222","19.2","NOTODDEN, NO","FM-15","ENNO ","V020","270,1,N,0072,1","22000,1,9,N","011265,1,N,1","+0080,1","-0080,1","99999,9","02,5,+01350,1,99,9",,,"02,99,1,99,9,99,9,99999,9,99,9,99,9",,"10071,1,99999,9",,,,,"MET052METAR ENNO 181550Z 27014KT 9999 FEW045 08/M08 Q1007;",
"01470399999","2010-04-18T16:50:00","4","59.565683","9.212222","19.2","NOTODDEN, NO","FM-15","ENNO ","V020","300,1,N,0077,1","22000,1,9,N","011265,1,N,1","+0070,1","-0080,1","99999,9","02,5,+01350,1,99,9",,,"02,99,1,99,9,99,9,99999,9,99,9,99,9",,"10071,1,99999,9",,,,,"MET052METAR ENNO 181650Z 30015KT 9999 FEW045 07/M08 Q1007;",
"01470399999","2010-04-19T04:50:00","4","59.565683","9.212222","19.2","NOTODDEN, NO","FM-15","ENNO ","V020","999,9,V,0005,1","99999,9,9,Y","009900,1,N,1","-0040,1","-0070,1","99999,9",,,,,,"10129,1,99999,9",,,,,"MET047METAR ENNO 190450Z VRB01KT CAVOK M04/M07 Q1013;",
"01470399999","2010-04-19T05:50:00","4","59.565683","9.212222","19.2","NOTODDEN, NO","FM-15","ENNO ","V020","999,9,C,0000,1","99999,9,9,Y","009900,1,N,1","+0000,1","-0060,1","99999,9",,,,,,"10139,1,99999,9",,,,,"MET047METAR ENNO 190550Z 00000KT CAVOK M00/M06 Q1014;",
"01470399999","2010-04-19T06:50:00","4","59.565683","9.212222","19.2","NOTODDEN, NO","FM-15","ENNO ","V020","999,9,V,0005,1","99999,9,9,Y","009900,1,N,1","+0030,1","-0080,1","99999,9",,,,,,"10139,1,99999,9",,,,,"MET046METAR ENNO 190650Z VRB01KT CAVOK 03/M08 Q1014;",
"01470399999","2010-04-19T07:50:00","4","59.565683","9.212222","19.2","NOTODDEN, NO","FM-15","ENNO ","V020","310,1,N,0021,1","99999,9,9,Y","009900,1,N,1","+0040,1","-0100,1","99999,9",,,,,,"10139,1,99999,9",,,,,"MET054METAR ENNO 190750Z 31004KT 260V010 CAVOK 04/M10 Q1014;",
"01470399999","2010-04-19T08:50:00","4","59.565683","9.212222","19.2","NOTODDEN, NO","FM-15","ENNO ","V020","999,9,V,0026,1","99999,9,9,Y","009900,1,N,1","+0050,1","-0100,1","99999,9",,,,,,"10139,1,99999,9",,,,,"MET046METAR ENNO 190850Z VRB05KT CAVOK 05/M10 Q1014;",
"01470399999","2010-04-19T09:50:00","4","59.565683","9.212222","19.2","NOTODDEN, NO","FM-15","ENNO ","V020","270,1,N,0031,1","22000,1,9,N","011265,1,N,1","+0060,1","-0100,1","99999,9","02,5,+01800,1,99,9",,,"02,99,1,99,9,99,9,99999,9,99,9,99,9",,"10139,1,99999,9",,,,,"MET052METAR ENNO 190950Z 27006KT 9999 FEW060 06/M10 Q1014;",
"01470399999","2010-04-19T10:50:00","4","59.565683","9.212222","19.2","NOTODDEN, NO","FM-15","ENNO ","V020","290,1,N,0036,1","22000,1,9,N","011265,1,N,1","+0070,1","-0100,1","99999,9","02,5,+01500,1,99,9",,,"02,99,1,99,9,99,9,99999,9,99,9,99,9",,"10139,1,99999,9",,,,,"MET052METAR ENNO 191050Z 29007KT 9999 FEW050 07/M10 Q1014;",
"01470399999","2010-04-19T12:50:00","4","59.565683","9.212222","19.2","NOTODDEN, NO","FM-15","ENNO ","V020","290,1,N,0057,1","22000,1,9,N","011265,1,N,1","+0080,1","-0140,1","99999,9","04,5,+01500,1,99,9",,,"04,99,1,99,9,99,9,99999,9,99,9,99,9",,"10129,1,99999,9",,,,,"MET052METAR ENNO 191250Z 29011KT 9999 SCT050 08/M14 Q1013;",
"01470399999","2010-04-19T13:50:00","4","59.565683","9.212222","19.2","NOTODDEN, NO","FM-15","ENNO ","V020","300,1,N,0051,1","22000,1,9,N","011265,1,N,1","+0080,1","-0130,1","99999,9","04,5,+01500,1,99,9",,,"04,99,1,99,9,99,9,99999,9,99,9,99,9",,"10129,1,99999,9",,,,,"MET052METAR ENNO 191350Z 30010KT 9999 SCT050 08/M13 Q1013;",
"01470399999","2010-04-19T14:50:00","4","59.565683","9.212222","19.2","NOTODDEN, NO","FM-15","ENNO ","V020","290,1,N,0036,1","22000,1,9,N","011265,1,N,1","+0080,1","-0130,1","99999,9","04,5,+01500,1,99,9",,,"04,99,1,99,9,99,9,99999,9,99,9,99,9",,"10129,1,99999,9",,,,,"MET052METAR ENNO 191450Z 29007KT 9999 SCT050 08/M13 Q1013;",
"01470399999","2010-04-19T15:50:00","4","59.565683","9.212222","19.2","NOTODDEN, NO","FM-15","ENNO ","V020","320,1,N,0051,1","22000,1,9,N","011265,1,N,1","+0080,1","-0130,1","99999,9","04,5,+01500,1,99,9",,,"04,99,1,99,9,99,9,99999,9,99,9,99,9",,"10129,1,99999,9",,,,,"MET052METAR ENNO 191550Z 32010KT 9999 SCT050 08/M13 Q1013;",
"01470399999","2010-04-20T05:20:00","4","59.565683","9.212222","19.2","NOTODDEN, NO","FM-15","ENNO ","V020","999,9,V,0005,1","03000,1,C,N","011265,1,N,1","-0030,1","-0070,1","99999,9","04,5,+01500,1,99,9","07,5,+03000,1,99,9",,"07,99,1,99,9,99,9,99999,9,99,9,99,9",,"10119,1,99999,9",,,,,"MET060METAR ENNO 200520Z VRB01KT 9999 SCT050 BKN100 M03/M07 Q1012;",
"01470399999","2010-04-20T05:50:00","4","59.565683","9.212222","19.2","NOTODDEN, NO","FM-15","ENNO ","V020","999,9,V,0005,1","03000,1,C,N","011265,1,N,1","-0020,1","-0070,1","99999,9","04,5,+01200,1,99,9","07,5,+03000,1,99,9",,"07,99,1,99,9,99,9,99999,9,99,9,99,9",,"10119,1,99999,9","16,1",,,,"MET065METAR ENNO 200550Z VRB01KT 9999 VCSH SCT040 BKN100 M02/M07 Q1012;",
"01470399999","2010-04-20T06:50:00","4","59.565683","9.212222","19.2","NOTODDEN, NO","FM-15","ENNO ","V020","999,9,V,0005,1","22000,1,9,N","011265,1,N,1","-0010,1","-0060,1","99999,9","04,5,+01800,1,99,9",,,"04,99,1,99,9,99,9,99999,9,99,9,99,9",,"10108,1,99999,9",,,,,"MET053METAR ENNO 200650Z VRB01KT 9999 SCT060 M01/M06 Q1011;",
"01470399999","2010-04-20T07:50:00","4","59.565683","9.212222","19.2","NOTODDEN, NO","FM-15","ENNO ","V020","999,9,V,0005,1","22000,1,9,N","011265,1,N,1","+0010,1","-0050,1","99999,9","04,5,+01800,1,99,9",,,"04,99,1,99,9,99,9,99999,9,99,9,99,9",,"10108,1,99999,9",,,,,"MET052METAR ENNO 200750Z VRB01KT 9999 SCT060 01/M05 Q1011;",
"01470399999","2010-04-20T08:50:00","4","59.565683","9.212222","19.2","NOTODDEN, NO","FM-15","ENNO ","V020","290,1,N,0036,1","22000,1,9,N","011265,1,N,1","+0030,1","-0060,1","99999,9","02,5,+01800,1,99,9",,,"02,99,1,99,9,99,9,99999,9,99,9,99,9",,"10102,1,99999,9",,,,,"MET052METAR ENNO 200850Z 29007KT 9999 FEW060 03/M06 Q1010;",
"01470399999","2010-04-20T10:50:00","4","59.565683","9.212222","19.2","NOTODDEN, NO","FM-15","ENNO ","V020","170,1,N,0031,1","02100,1,C,N","011265,1,N,1","+0060,1","-0060,1","99999,9","04,5,+01500,1,99,9","07,5,+02100,1,99,9",,"07,99,1,99,9,99,9,99999,9,99,9,99,9",,"10091,1,99999,9","16,1",,,,"MET064METAR ENNO 201050Z 17006KT 9999 VCSH SCT050 BKN070 06/M06 Q1009;",
"01470399999","2010-04-20T11:50:00","4","59.565683","9.212222","19.2","NOTODDEN, NO","FM-15","ENNO ","V020","070,1,N,0100,1","00900,5,9,N","011265,1,N,1","+0060,1","-0060,1","99999,9","04,5,+00600,5,99,9","07,5,+00900,5,99,9",,,,"10090,1,99999,9",,,,,"MET072METAR ENNO 201150Z 07010 020V170KT 9999 VCSH SCT020 BKN030 06/M06 Q1009;",
"01470399999","2010-04-20T13:50:00","4","59.565683","9.212222","19.2","NOTODDEN, NO","FM-15","ENNO ","V020","280,1,N,0036,1","01050,1,C,N","011265,1,N,1","+0050,1","-0020,1","99999,9","04,5,+00750,1,99,9","07,5,+01050,1,99,9",,"07,99,1,99,9,99,9,99999,9,99,9,99,9",,"10091,1,99999,9","16,1",,,,"MET064METAR ENNO 201350Z 28007KT 9999 VCSH SCT025 BKN035 05/M02 Q1009;",
"01470399999","2010-04-20T14:50:00","4","59.565683","9.212222","19.2","NOTODDEN, NO","FM-15","ENNO ","V020","300,1,N,0026,1","00420,1,C,N","011265,1,N,1","+0030,1","+0000,1","99999,9","02,5,+00270,1,99,9","04,5,+00420,1,99,9","07,5,+00900,1,99,9","07,99,1,99,9,99,9,99999,9,99,9,99,9",,"10091,1,99999,9","61,1",,,,"MET069METAR ENNO 201450Z 30005KT 9999 -RA FEW009 SCT014 BKN030 03/00 Q1009;",
"01470399999","2010-04-21T04:50:00","4","59.565683","9.212222","19.2","NOTODDEN, NO","FM-15","ENNO ","V020","999,9,C,0000,1","22000,1,9,N","011265,1,N,1","-0020,1","-0030,1","99999,9","04,1,+01500,1,99,9",,,"04,99,1,99,9,99,9,99999,9,99,9,99,9",,"10081,1,99999,9",,,,,"MET054METAR ENNO 210450Z 00000KT 9999 SCT0504 M02/M03 Q1008;",
"01470399999","2010-04-21T05:50:00","4","59.565683","9.212222","19.2","NOTODDEN, NO","FM-15","ENNO ","V020","999,9,C,0000,1","22000,1,9,N","011265,1,N,1","-0010,1","-0020,1","99999,9","04,5,+01500,1,99,9",,,"04,99,1,99,9,99,9,99999,9,99,9,99,9",,"10081,1,99999,9",,,,,"MET054METAR ENNO 210550Z 00000KT 9999 SCT050 M01/M023 Q1008;","Q01-002303ATOD  "
"01470399999","2010-04-21T06:50:00","4","59.565683","9.212222","19.2","NOTODDEN, NO","FM-15","ENNO ","V020","150,1,N,0015,1","22000,1,9,N","011265,1,N,1","+0020,1","-0020,1","99999,9","04,5,+01500,1,99,9",,,"04,99,1,99,9,99,9,99999,9,99,9,99,9",,"10081,1,99999,9",,,,,"MET052METAR ENNO 210650Z 15003KT 9999 SCT050 02/M02 Q1008;",
"01470399999","2010-04-21T07:50:00","4","59.565683","9.212222","19.2","NOTODDEN, NO","FM-15","ENNO ","V020","999,9,V,0010,1","22000,1,9,N","011265,1,N,1","+0040,1","-0040,1","99999,9","04,5,+01500,1,99,9",,,"04,99,1,99,9,99,9,99999,9,99,9,99,9",,"10081,1,99999,9",,,,,"MET052METAR ENNO 210750Z VRB02KT 9999 SCT050 04/M04 Q1008;",
"01470399999","2010-04-21T08:50:00","4","59.565683","9.212222","19.2","NOTODDEN, NO","FM-15","ENNO ","V020","999,9,V,0031,1","01500,1,C,N","011265,1,N,1","+0050,1","-0040,1","99999,9","07,5,+01500,1,99,9",,,"07,99,1,99,9,99,9,99999,9,99,9,99,9",,"10081,1,99999,9",,,,,"MET052METAR ENNO 210850Z VRB06KT 9999 BKN050 05/M04 Q1008;",
"01470399999","2010-04-21T10:50:00","4","59.565683","9.212222","19.2","NOTODDEN, NO","FM-15","ENNO ","V020","999,9,V,0021,1","01500,1,C,N","011265,1,N,1","+0060,1","-0040,1","99999,9","04,5,+00750,1,99,9","07,5,+01500,1,99,9",,"07,99,1,99,9,99,9,99999,9,99,9,99,9",,"10091,1,99999,9","16,1",,,,"MET064METAR ENNO 211050Z VRB04KT 9999 VCSH SCT025 BKN050 06/M04 Q1009;",
"01470399999","2010-04-21T11:50:00","4","59.565683","9.212222","19.2","NOTODDEN, NO","FM-15","ENNO ","V020","999,9,V,0026,1","01500,1,C,N","011265,1,N,1","+0070,1","-0060,1","99999,9","04,5,+00750,1,99,9","07,5,+01500,1,99,9",,"07,99,1,99,9,99,9,99999,9,99,9,99,9",,"10091,1,99999,9","16,1",,,,"MET064METAR ENNO 211150Z VRB05KT 9999 VCSH SCT025 BKN050 07/M06 Q1009;",
"01470399999","2010-04-21T12:50:00","4","59.565683","9.212222","19.2","NOTODDEN, NO","FM-15","ENNO ","V020","999,9,V,0026,1","22000,1,9,N","011265,1,N,1","+0050,1","-0010,1","99999,9","04,5,+01050,1,99,9",,,"04,99,1,99,9,99,9,99999,9,99,9,99,9",,"10091,1,99999,9","16,1",,,,"MET057METAR ENNO 211250Z VRB05KT 9999 VCSH SCT035 05/M01 Q1009;",
"01470399999","2010-04-21T13:50:00","4","59.565683","9.212222","19.2","NOTODDEN, NO","FM-15","ENNO ","V020","350,1,N,0046,1","01200,1,C,N","011265,1,N,1","+0070,1","-0050,1","99999,9","04,5,+01050,1,02,1","07,5,+01200,1,99,9",,"07,99,1,99,9,99,9,99999,9,99,9,99,9",,"10091,1,99999,9","16,1",,,,"MET067METAR ENNO 211350Z 35009KT 9999 VCSH SCT035TCU BKN040 07/M05 Q1009;",
"01470399999","2010-04-21T14:50:00","4","59.565683","9.212222","19.2","NOTODDEN, NO","FM-15","ENNO ","V020","350,1,N,0046,1","01200,1,C,N","011265,1,N,1","+0070,1","-0030,1","99999,9","04,5,+01050,1,02,1","07,5,+01200,1,99,9",,"07,99,1,99,9,99,9,99999,9,99,9,99,9",,"10091,1,99999,9","16,1",,,,"MET067METAR ENNO 211450Z 35009KT 9999 VCSH SCT035TCU BKN040 07/M03 Q1009;",
"01470399999","2010-04-21T15:50:00","4","59.565683","9.212222","19.2","NOTODDEN, NO","FM-15","ENNO ","V020","350,1,N,0051,1","01500,1,C,N","011265,1,N,1","+0070,1","-0030,1","99999,9","04,5,+01200,1,02,1","07,5,+01500,1,99,9",,"07,99,1,99,9,99,9,99999,9,99,9,99,9",,"10091,1,99999,9","16,1",,,"0103,1","MET078METAR ENNO 211550Z 35010G20KT 270V050 9999 VCSH SCT040TCU BKN050 07/M03 Q1009;",
"01470399999","2010-04-22T04:50:00","4","59.565683","9.212222","19.2","NOTODDEN, NO","FM-15","ENNO ","V020","999,9,V,0005,1","99999,9,9,Y","009900,1,N,1","-0050,1","-0060,1","99999,9",,,,,,"10119,1,99999,9",,,,,"MET047METAR ENNO 220450Z VRB01KT CAVOK M05/M06 Q1012;",
"01470399999","2010-04-22T05:50:00","4","59.565683","9.212222","19.2","NOTODDEN, NO","FM-15","ENNO ","V020","999,9,V,0005,1","99999,9,9,Y","009900,1,N,1","-0030,1","-0040,1","99999,9",,,,,,"10119,1,99999,9",,,,,"MET047METAR ENNO 220550Z VRB01KT CAVOK M03/M04 Q1012;",
"01470399999","2010-04-22T06:50:00","4","59.565683","9.212222","19.2","NOTODDEN, NO","FM-15","ENNO ","V020","999,9,V,0005,1","99999,9,9,Y","009900,1,N,1","+0010,1","-0040,1","99999,9",,,,,,"10119,1,99999,9",,,,,"MET046METAR ENNO 220650Z VRB01KT CAVOK 01/M04 Q1012;",
"01470399999","2010-04-22T07:50:00","4","59.565683","9.212222","19.2","NOTODDEN, NO","FM-15","ENNO ","V020","999,9,V,0005,1","99999,9,9,Y","009900,1,N,1","+0030,1","-0060,1","99999,9",,,,,,"10108,1,99999,9",,,,,"MET046METAR ENNO 220750Z VRB01KT CAVOK 03/M06 Q1011;",
"01470399999","2010-04-22T08:50:00","4","59.565683","9.212222","19.2","NOTODDEN, NO","FM-15","ENNO ","V020","999,9,V,0005,1","99999,9,9,Y","009900,1,N,1","+0070,1","-0080,1","99999,9",,,,,,"10108,1,99999,9",,,,,"MET046METAR ENNO 220850Z VRB01KT CAVOK 07/M08 Q1011;",
"01470399999","2010-04-22T09:50:00","4","59.565683","9.212222","19.2","NOTODDEN, NO","FM-15","ENNO ","V020","999,9,V,0005,1","99999,9,9,Y","009900,1,N,1","+0080,1","-0070,1","99999,9",,,,,,"10102,1,99999,9",,,,,"MET046METAR ENNO 220950Z VRB01KT CAVOK 08/M07 Q1010;",
"01470399999","2010-04-22T11:50:00","4","59.565683","9.212222","19.2","NOTODDEN, NO","FM-15","ENNO ","V020","999,9,V,0015,1","99999,9,9,Y","009900,1,N,1","+0090,1","-0070,1","99999,9",,,,,,"10091,1,99999,9",,,,,"MET046METAR ENNO 221150Z VRB03KT CAVOK 09/M07 Q1009;",
"01470399999","2010-04-22T12:50:00","4","59.565683","9.212222","19.2","NOTODDEN, NO","FM-15","ENNO ","V020","330,1,N,0026,1","99999,9,9,Y","009900,1,N,1","+0100,1","-0090,1","99999,9",,,,,,"10081,1,99999,9",,,,,"MET054METAR ENNO 221250Z 33005KT 290V020 CAVOK 10/M09 Q1008;",
"01470399999","2010-04-22T13:50:00","4","59.565683","9.212222","19.2","NOTODDEN, NO","FM-15","ENNO ","V020","300,1,N,0067,1","22000,1,9,N","011265,1,N,1","+0110,1","-0090,1","99999,9","04,5,+01800,1,99,9",,,"04,99,1,99,9,99,9,99999,9,99,9,99,9",,"10081,1,99999,9",,,,,"MET052METAR ENNO 221350Z 30013KT 9999 SCT060 11/M09 Q1008;",
"01470399999","2010-04-22T14:50:00","4","59.565683","9.212222","19.2","NOTODDEN, NO","FM-15","ENNO ","V020","290,1,N,0067,1","22000,1,9,N","011265,1,N,1","+0100,1","-0130,1","99999,9","02,5,+01800,1,99,9",,,"02,99,1,99,9,99,9,99999,9,99,9,99,9",,"10081,1,99999,9",,,,,"MET052METAR ENNO 221450Z 29013KT 9999 FEW060 10/M13 Q1008;",
"01470399999","2010-04-23T04:50:00","4","59.565683","9.212222","19.2","NOTODDEN, NO","FM-15","ENNO ","V020","999,9,V,0010,1","99999,9,9,Y","009900,1,N,1","-0030,1","-0050,1","99999,9",,,,,,"10061,1,99999,9",,,,,"MET047METAR ENNO 230450Z VRB02KT CAVOK M03/M05 Q1006;",
"01470399999","2010-04-23T05:50:00","4","59.565683","9.212222","19.2","NOTODDEN, NO","FM-15","ENNO ","V020","999,9,C,0000,1","99999,9,9,Y","009900,1,N,1","-0010,1","-0050,1","99999,9",,,,,,"10061,1,99999,9",,,,,"MET047METAR ENNO 230550Z 00000KT CAVOK M01/M05 Q1006;",
"01470399999","2010-04-23T06:50:00","4","59.565683","9.212222","19.2","NOTODDEN, NO","FM-15","ENNO ","V020","999,9,C,0000,1","99999,9,9,Y","009900,1,N,1","+0000,1","-0040,1","99999,9",,,,,,"10061,1,99999,9",,,,,"MET046METAR ENNO 230650Z 00000KT CAVOK 00/M04 Q1006;",
"01470399999","2010-04-23T07:50:00","4","59.565683","9.212222","19.2","NOTODDEN, NO","FM-15","ENNO ","V020","999,9,V,0010,1","99999,9,9,Y","009900,1,N,1","+0020,1","-0040,1","99999,9",,,,,,"10061,1,99999,9",,,,,"MET046METAR ENNO 230750Z VRB02KT CAVOK 02/M04 Q1006;",
"01470399999","2010-04-23T08:50:00","4","59.565683","9.212222","19.2","NOTODDEN, NO","FM-15","ENNO ","V020","999,9,V,0010,1","22000,1,9,N","011265,1,N,1","+0030,1","-0050,1","99999,9","02,5,+01650,5,99,9",,,"02,99,1,99,9,99,9,99999,9,99,9,99,9",,"10061,1,99999,9",,,,,"MET052METAR ENNO 230850Z VRB02KT 9999 FEW055 03/M05 Q1006;",
"01470399999","2010-04-23T09:50:00","4","59.565683","9.212222","19.2","NOTODDEN, NO","FM-15","ENNO ","V020","999,9,V,0021,1","02400,1,C,N","011265,1,N,1","+0060,1","-0050,1","99999,9","04,5,+01200,1,99,9","07,5,+02400,1,99,9",,"07,99,1,99,9,99,9,99999,9,99,9,99,9",,"10061,1,99999,9",,,,,"MET059METAR ENNO 230950Z VRB04KT 9999 SCT040 BKN080 06/M05 Q1006;",
"01470399999","2010-04-23T10:50:00","4","59.565683","9.212222","19.2","NOTODDEN, NO","FM-15","ENNO ","V020","270,1,N,0036,1","02100,1,C,N","011265,1,N,1","+0070,1","-0070,1","99999,9","04,5,+01200,1,99,9","07,5,+02100,1,99,9",,"07,99,1,99,9,99,9,99999,9,99,9,99,9",,"10061,1,99999,9",,,,,"MET059METAR ENNO 231050Z 27007KT 9999 SCT040 BKN070 07/M07 Q1006;",
"01470399999","2010-04-23T12:50:00","4","59.565683","9.212222","19.2","NOTODDEN, NO","FM-15","ENNO ","V020","280,1,N,0087,1","99999,9,C,N","011265,1,N,1","+0090,1","-0120,1","99999,9","02,5,+01200,1,99,9","04,5,+02100,1,99,9",,"04,99,1,99,9,99,9,99999,9,99,9,99,9",,"10061,1,99999,9","16,1",,,"0139,1","MET067METAR ENNO 231250Z 28017G27KT 9999 VCSH FEW040 SCT070 09/M12 Q1006;","P01 021003SCOCIG"
"01470399999","2010-04-23T13:50:00","4","59.565683","9.212222","19.2","NOTODDEN, NO","FM-15","ENNO ","V020","290,1,N,0082,1","99999,9,C,N","011265,1,N,1","+0080,1","-0110,1","99999,9","02,5,+01200,1,99,9","04,5,+02100,1,99,9",,"04,99,1,99,9,99,9,99999,9,99,9,99,9",,"10061,1,99999,9","16,1",,,"0134,1","MET067METAR ENNO 231350Z 29016G26KT 9999 VCSH FEW040 SCT070 08/M11 Q1006;","P01 021003SCOCIG"
"01470399999","2010-04-23T14:50:00","4","59.565683","9.212222","19.2","NOTODDEN, NO","FM-15","ENNO ","V020","290,1,N,0082,1","22000,1,9,N","011265,1,N,1","+0070,1","-0100,1","99999,9","02,5,+01200,1,99,9",,,"02,99,1,99,9,99,9,99999,9,99,9,99,9",,"10061,1,99999,9","16,1",,,"0134,1","MET060METAR ENNO 231450Z 29016G26KT 9999 VCSH FEW040 07/M10 Q1006;",
"01470399999","2010-04-23T15:50:00","4","59.565683","9.212222","19.2","NOTODDEN, NO","FM-15","ENNO ","V020","290,1,N,0082,1","22000,1,9,N","011265,1,N,1","+0070,1","-0100,1","99999,9","02,5,+01200,1,99,9",,,"02,99,1,99,9,99,9,99999,9,99,9,99,9",,"10071,1,99999,9",,,,"0134,1","MET055METAR ENNO 231550Z 29016G26KT 9999 FEW040 07/M10 Q1007;",
"01470399999","2010-04-25T15:50:00","4","59.565683","9.212222","19.2","NOTODDEN, NO","FM-15","ENNO ","V020","110,1,N,0041,1","99999,9,9,Y","009900,1,N,1","+0110,1","+0020,1","99999,9",,,,,,"10251,1,99999,9",,,,,"MET045METAR ENNO 251550Z 11008KT CAVOK 11/02 Q1025;",
"01470399999","2010-04-25T16:50:00","4","59.565683","9.212222","19.2","NOTODDEN, NO","FM-15","ENNO ","V020","090,1,N,0031,1","99999,9,9,Y","009900,1,N,1","+0110,1","+0020,1","99999,9",,,,,,"10251,1,99999,9",,,,,"MET045METAR ENNO 251650Z 09006KT CAVOK 11/02 Q1025;",
"01470399999","2010-04-25T17:50:00","4","59.565683","9.212222","19.2","NOTODDEN, NO","FM-15","ENNO ","V020","110,1,N,0031,1","99999,9,9,Y","009900,1,N,1","+0110,1","+0020,1","99999,9",,,,,,"10251,1,99999,9",,,,,"MET045METAR ENNO 251750Z 11006KT CAVOK 11/02 Q1025;",
"01470399999","2010-04-26T04:50:00","4","59.565683","9.212222","19.2","NOTODDEN, NO","FM-15","ENNO ","V020","999,9,V,0010,1","99999,9,9,Y","009900,1,N,1","+0010,1","+0010,1","99999,9",,,,,,"10230,1,99999,9",,,,,"MET045METAR ENNO 260450Z VRB02KT CAVOK 01/01 Q1023;",
"01470399999","2010-04-26T06:50:00","4","59.565683","9.212222","19.2","NOTODDEN, NO","FM-15","ENNO ","V020","999,9,V,0015,1","99999,9,9,Y","009900,1,N,1","+0040,1","+0010,1","99999,9",,,,,,"10220,1,99999,9",,,,,"MET045METAR ENNO 260650Z VRB03KT CAVOK 04/01 Q1022;",
"01470399999","2010-04-26T08:50:00","4","59.565683","9.212222","19.2","NOTODDEN, NO","FM-15","ENNO ","V020","270,1,N,0015,1","01500,1,C,N","011265,1,N,1","+0070,1","+0020,1","99999,9","07,5,+01500,1,99,9",,,"07,99,1,99,9,99,9,99999,9,99,9,99,9",,"10200,1,99999,9",,,,,"MET051METAR ENNO 260850Z 27003KT 9999 BKN050 07/02 Q1020;",
"01470399999","2010-04-26T09:50:00","4","59.565683","9.212222","19.2","NOTODDEN, NO","FM-15","ENNO ","V020","999,9,V,0010,1","01200,1,C,N","011265,1,N,1","+0090,1","+0020,1","99999,9","02,5,+00540,1,99,9","07,5,+01200,1,99,9",,"07,99,1,99,9,99,9,99999,9,99,9,99,9",,"10200,1,99999,9",,,,,"MET058METAR ENNO 260950Z VRB02KT 9999 FEW018 BKN040 09/02 Q1020;",
"01470399999","2010-04-26T10:50:00","4","59.565683","9.212222","19.2","NOTODDEN, NO","FM-15","ENNO ","V020","300,1,N,0026,1","01650,5,C,N","011265,1,N,1","+0090,1","+0010,1","99999,9","07,5,+01650,5,99,9",,,"07,99,1,99,9,99,9,99999,9,99,9,99,9",,"10190,1,99999,9",,,,,"MET051METAR ENNO 261050Z 30005KT 9999 BKN055 09/01 Q1019;",
"01470399999","2010-04-26T11:50:00","4","59.565683","9.212222","19.2","NOTODDEN, NO","FM-15","ENNO ","V020","999,9,V,0010,1","01500,1,C,N","009000,1,N,1","+0070,1","+0030,1","99999,9","07,5,+01500,1,99,9",,,"07,99,1,99,9,99,9,99999,9,99,9,99,9",,"10190,1,99999,9","61,1",,,,"MET055METAR ENNO 261150Z VRB02KT 9000 -RA BKN050 07/03 Q1019;",
"01470399999","2010-04-26T12:50:00","4","59.565683","9.212222","19.2","NOTODDEN, NO","FM-15","ENNO ","V020","330,1,N,0031,1","01350,1,C,N","011265,1,N,1","+0070,1","+0040,1","99999,9","08,5,+01350,1,99,9",,,"08,99,1,99,9,99,9,99999,9,99,9,99,9",,"10190,1,99999,9",,,,,"MET051METAR ENNO 261250Z 33006KT 9999 OVC045 07/04 Q1019;",
"01470399999","2010-04-26T13:50:00","4","59.565683","9.212222","19.2","NOTODDEN, NO","FM-15","ENNO ","V020","330,1,N,0031,1","01230,1,C,N","011265,1,N,1","+0080,1","+0040,1","99999,9","02,5,+00450,1,99,9","07,5,+01230,1,99,9",,"07,99,1,99,9,99,9,99999,9,99,9,99,9",,"10180,1,99999,9",,,,,"MET058METAR ENNO 261350Z 33006KT 9999 FEW015 BKN041 08/04 Q1018;",
"01470399999","2010-04-26T14:50:00","4","59.565683","9.212222","19.2","NOTODDEN, NO","FM-15","ENNO ","V020","280,1,N,0026,1","22000,1,9,N","011265,1,N,1","+0100,1","+0030,1","99999,9","04,1,+01200,1,99,9",,,"04,99,1,99,9,99,9,99999,9,99,9,99,9",,"10180,1,99999,9",,,,,"MET050METAR ENNO 261450Z 28005KT 9999 SCT40 10/03 Q1018;",
"01470399999","2010-04-26T15:50:00","4","59.565683","9.212222","19.2","NOTODDEN, NO","FM-15","ENNO ","V020","999,9,V,0010,1","99999,9,9,Y","009900,1,N,1","+0100,1","+0020,1","99999,9",,,,,,"10169,1,99999,9",,,,,"MET045METAR ENNO 261550Z VRB02KT CAVOK 10/02 Q1017;",
"01470399999","2010-04-27T04:50:00","4","59.565683","9.212222","19.2","NOTODDEN, NO","FM-15","ENNO ","V020","999,9,V,0005,1","22000,1,9,N","002000,1,N,1","+0000,1","-0010,1","99999,9","04,5,+00030,1,99,9",,,"04,99,1,99,9,99,9,99999,9,99,9,99,9",,"10159,1,99999,9","10,1",,,,"MET056METAR ENNO 270450Z VRB01KT 2000 BR SCT001 M00/M01 Q1016;",
"01470399999","2010-04-27T05:50:00","4","59.565683","9.212222","19.2","NOTODDEN, NO","FM-15","ENNO ","V020","999,9,V,0005,1","22000,1,9,N","011265,1,N,1","+0010,1","+0010,1","99999,9","04,5,+00000,5,99,9",,,"04,99,1,99,9,99,9,99999,9,99,9,99,9",,"10159,1,99999,9","10,1",,,,"MET061METAR ENNO 270550Z VRB01KT 9999 2000NW BR SCT000 01/01 Q1016;",
"01470399999","2010-04-27T06:50:00","4","59.565683","9.212222","19.2","NOTODDEN, NO","FM-15","ENNO ","V020","999,9,C,0000,1","99999,9,9,Y","009900,1,N,1","+0040,1","+0030,1","99999,9",,,,,,"10159,1,99999,9",,,,,"MET045METAR ENNO 270650Z 00000KT CAVOK 04/03 Q1016;",
"01470399999","2010-04-27T07:50:00","4","59.565683","9.212222","19.2","NOTODDEN, NO","FM-15","ENNO ","V020","999,9,V,0005,1","99999,9,9,Y","009900,1,N,1","+0060,1","+0030,1","99999,9",,,,,,"10159,1,99999,9",,,,,"MET045METAR ENNO 270750Z VRB01KT CAVOK 06/03 Q1016;",
"01470399999","2010-04-27T08:50:00","4","59.565683","9.212222","19.2","NOTODDEN, NO","FM-15","ENNO ","V020","999,9,V,0010,1","99999,9,C,N","011265,1,N,1","+0100,1","+0040,1","99999,9","02,5,+01500,1,99,9","04,5,+03840,5,99,9",,"04,99,1,99,9,99,9,99999,9,99,9,99,9",,"10159,1,99999,9",,,,,"MET058METAR ENNO 270850Z VRB02KT 9999 FEW050 SCT128 10/04 Q1016;","P01 038403SCOCIG"
"01470399999","2010-04-27T09:50:00","4","59.565683","9.212222","19.2","NOTODDEN, NO","FM-15","ENNO ","V020","999,9,V,0010,1","99999,9,C,N","011265,1,N,1","+0100,1","+0040,1","99999,9","02,5,+01500,1,99,9","04,5,+03600,1,99,9",,"04,99,1,99,9,99,9,99999,9,99,9,99,9",,"10159,1,99999,9",,,,,"MET058METAR ENNO 270950Z VRB02KT 9999 FEW050 SCT120 10/04 Q1016;","P01 036003SCOCIG"
"01470399999","2010-04-27T10:50:00","4","59.565683","9.212222","19.2","NOTODDEN, NO","FM-15","ENNO ","V020","999,9,V,0010,1","99999,9,C,N","011265,1,N,1","+0150,1","+0040,1","99999,9","02,5,+01500,1,99,9","04,5,+03600,1,99,9",,"04,99,1,99,9,99,9,99999,9,99,9,99,9",,"10159,1,99999,9",,,,,"MET058METAR ENNO 271050Z VRB02KT 9999 FEW050 SCT120 15/04 Q1016;","P01 036003SCOCIG"
"01470399999","2010-04-27T11:50:00","4","59.565683","9.212222","19.2","NOTODDEN, NO","FM-15","ENNO ","V020","270,1,N,0072,1","22000,1,9,N","011265,1,N,1","+0180,2","+0020,1","99999,9","02,5,+01500,1,99,9",,,"02,99,1,99,9,99,9,99999,9,99,9,99,9",,"10149,1,99999,9",,,,,"MET051METAR ENNO 271150Z 27014KT 9999 FEW050 18/02 Q1015;",
"01470399999","2010-04-27T12:50:00","4","59.565683","9.212222","19.2","NOTODDEN, NO","FM-15","ENNO ","V020","270,1,N,0077,1","22000,1,9,N","011265,1,N,1","+0180,1","+0020,1","99999,9","02,5,+01500,1,99,9",,,"02,99,1,99,9,99,9,99999,9,99,9,99,9",,"10149,1,99999,9",,,,,"MET051METAR ENNO 271250Z 27015KT 9999 FEW050 18/02 Q1015;",
"01470399999","2010-04-27T13:50:00","4","59.565683","9.212222","19.2","NOTODDEN, NO","FM-15","ENNO ","V020","270,1,N,0072,1","22000,1,9,N","011265,1,N,1","+0180,1","+0020,1","99999,9","02,5,+01500,1,99,9",,,"02,99,1,99,9,99,9,99999,9,99,9,99,9",,"10159,1,99999,9",,,,,"MET051METAR ENNO 271350Z 27014KT 9999 FEW050 18/02 Q1016;",
"01470399999","2010-04-28T04:50:00","4","59.565683","9.212222","19.2","NOTODDEN, NO","FM-15","ENNO ","V020","999,9,V,0010,1","02100,1,C,N","011265,1,N,1","+0020,1","+0000,1","99999,9","04,5,+01650,5,99,9","07,5,+02100,1,99,9",,"07,99,1,99,9,99,9,99999,9,99,9,99,9",,"10210,1,99999,9",,,,,"MET058METAR ENNO 280450Z VRB02KT 9999 SCT055 BKN070 02/00 Q1021;",
"01470399999","2010-04-28T05:50:00","4","59.565683","9.212222","19.2","NOTODDEN, NO","FM-15","ENNO ","V020","999,9,V,0010,1","01800,1,C,N","011265,1,N,1","+0030,1","+0000,1","99999,9","04,5,+00960,1,99,9","07,5,+01800,1,99,9",,"07,99,1,99,9,99,9,99999,9,99,9,99,9",,"10210,1,99999,9","16,1",,,,"MET063METAR ENNO 280550Z VRB02KT 9999 VCSH SCT032 BKN060 03/00 Q1021;",
"01470399999","2010-04-28T06:50:00","4","59.565683","9.212222","19.2","NOTODDEN, NO","FM-15","ENNO ","V020","999,9,V,0010,1","01500,1,C,N","011265,1,N,1","+0030,1","+0010,1","99999,9","04,5,+00990,1,99,9","07,5,+01500,1,99,9",,"07,99,1,99,9,99,9,99999,9,99,9,99,9",,"10210,1,99999,9","61,1",,,,"MET062METAR ENNO 280650Z VRB02KT 9999 -RA SCT033 BKN050 03/01 Q1021;",
"01470399999","2010-04-28T07:50:00","4","59.565683","9.212222","19.2","NOTODDEN, NO","FM-15","ENNO ","V020","999,9,V,0010,1","99999,9,C,N","011265,1,N,1","+0040,1","+0010,1","99999,9","07,5,+00900,5,99,9",,,"04,99,1,99,9,99,9,99999,9,99,9,99,9",,"10200,1,99999,9","61,1",,,,"MET063METAR ENNO 280750Z VRB02KT 9999 -RA SCT0018 BKN030 04/01 Q1020;","P01 009003SCOCIG"
"01470399999","2010-04-28T08:50:00","4","59.565683","9.212222","19.2","NOTODDEN, NO","FM-15","ENNO ","V020","090,1,N,0031,1","00840,1,C,N","011265,1,N,1","+0050,1","+0020,1","99999,9","04,5,+00420,1,99,9","07,5,+00840,1,99,9",,"07,99,1,99,9,99,9,99999,9,99,9,99,9",,"10190,1,99999,9","61,1",,,,"MET062METAR ENNO 280850Z 09006KT 9999 -RA SCT014 BKN028 05/02 Q1019;",
"01470399999","2010-04-28T09:50:00","4","59.565683","9.212222","19.2","NOTODDEN, NO","FM-15","ENNO ","V020","120,1,N,0046,1","00690,1,C,N","011265,1,N,1","+0060,1","+0020,1","99999,9","04,5,+00480,1,99,9","07,5,+00690,1,99,9",,"07,99,1,99,9,99,9,99999,9,99,9,99,9",,"10190,1,99999,9",,,,,"MET058METAR ENNO 280950Z 12009KT 9999 SCT016 BKN023 06/02 Q1019;",
"01470399999","2010-04-28T10:50:00","4","59.565683","9.212222","19.2","NOTODDEN, NO","FM-15","ENNO ","V020","110,1,N,0036,1","00600,1,C,N","011265,1,N,1","+0060,1","+0020,1","99999,9","08,5,+00600,1,99,9",,,"08,99,1,99,9,99,9,99999,9,99,9,99,9",,"10180,1,99999,9",,,,,"MET051METAR ENNO 281050Z 11007KT 9999 OVC020 06/02 Q1018;",
"01470399999","2010-04-28T11:50:00","4","59.565683","9.212222","19.2","NOTODDEN, NO","FM-15","ENNO ","V020","120,1,N,0051,1","00600,1,C,N","011265,1,N,1","+0060,1","+0030,1","99999,9","07,5,+00600,1,99,9","08,5,+01350,1,99,9",,"08,99,1,99,9,99,9,99999,9,99,9,99,9",,"10169,1,99999,9",,,,,"MET058METAR ENNO 281150Z 12010KT 9999 BKN020 OVC045 06/03 Q1017;",
"01470399999","2010-04-28T13:50:00","4","59.565683","9.212222","19.2","NOTODDEN, NO","FM-15","ENNO ","V020","110,1,N,0036,1","00540,1,C,N","011265,1,N,1","+0060,1","+0040,1","99999,9","08,5,+00540,1,99,9",,,"08,99,1,99,9,99,9,99999,9,99,9,99,9",,"10159,1,99999,9","61,1",,,,"MET055METAR ENNO 281350Z 11007KT 9999 -RA OVC018 06/04 Q1016;",
"01470399999","2010-04-28T14:50:00","4","59.565683","9.212222","19.2","NOTODDEN, NO","FM-15","ENNO ","V020","100,1,N,0041,1","00690,1,C,N","011265,1,N,1","+0060,1","+0040,1","99999,9","04,5,+00540,1,99,9","07,5,+00690,1,99,9",,"07,99,1,99,9,99,9,99999,9,99,9,99,9",,"10149,1,99999,9","61,1",,,,"MET062METAR ENNO 281450Z 10008KT 9999 -RA SCT018 BKN023 06/04 Q1015;",
"01470399999","2010-04-28T15:50:00","4","59.565683","9.212222","19.2","NOTODDEN, NO","FM-15","ENNO ","V020","120,1,N,0041,1","01050,1,C,N","011265,1,N,1","+0070,1","+0040,1","99999,9","04,5,+00540,1,99,9","07,5,+01050,1,99,9",,"07,99,1,99,9,99,9,99999,9,99,9,99,9",,"10139,1,99999,9","61,1",,,,"MET062METAR ENNO 281550Z 12008KT 9999 -RA SCT018 BKN035 07/04 Q1014;",
"01470399999","2010-04-29T04:50:00","4","59.565683","9.212222","19.2","NOTODDEN, NO","FM-15","ENNO ","V020","290,1,N,0010,1","00240,1,C,N","009000,1,N,1","+0050,1","+0040,1","99999,9","08,5,+00240,1,99,9",,,"08,99,1,99,9,99,9,99999,9,99,9,99,9",,"10061,1,99999,9","40,1",,,,"MET063METAR ENNO 290450Z 29002KT 9000 2000SE VCFG OVC008 05/04 Q1006;",
"01470399999","2010-04-29T05:50:00","4","59.565683","9.212222","19.2","NOTODDEN, NO","FM-15","ENNO ","V020","280,1,N,0010,1","00150,1,C,N","009000,1,N,1","+0060,1","+0050,1","99999,9","08,5,+00150,1,99,9",,,"08,99,1,99,9,99,9,99999,9,99,9,99,9",,"10061,1,99999,9","40,1",,,,"MET063METAR ENNO 290550Z 28002KT 9000 2000SE VCFG OVC005 06/05 Q1006;",
"01470399999","2010-04-29T06:50:00","4","59.565683","9.212222","19.2","NOTODDEN, NO","FM-15","ENNO ","V020","999,9,V,0005,1","00150,1,C,N","011265,1,N,1","+0070,1","+0050,1","99999,9","08,5,+00150,1,99,9",,,"08,99,1,99,9,99,9,99999,9,99,9,99,9",,"10061,1,99999,9","40,1",,,,"MET063METAR ENNO 290650Z VRB01KT 9999 2000SE VCFG OVC005 07/05 Q1006;",
"01470399999","2010-04-29T07:50:00","4","59.565683","9.212222","19.2","NOTODDEN, NO","FM-15","ENNO ","V020","999,9,V,0005,1","00240,1,C,N","009000,1,N,1","+0070,1","+0060,1","99999,9","08,5,+00240,1,99,9",,,"08,99,1,99,9,99,9,99999,9,99,9,99,9",,"10051,1,99999,9","40,1",,,,"MET063METAR ENNO 290750Z VRB01KT 9000 5000SE VCFG OVC008 07/06 Q1005;",
"01470399999","2010-04-29T08:50:00","4","59.565683","9.212222","19.2","NOTODDEN, NO","FM-15","ENNO ","V020","999,9,V,0005,1","00450,1,C,N","011265,1,N,1","+0080,1","+0060,1","99999,9","07,5,+00450,1,99,9",,,"07,99,1,99,9,99,9,99999,9,99,9,99,9",,"10051,1,99999,9",,,,,"MET051METAR ENNO 290850Z VRB01KT 9999 BKN015 08/06 Q1005;",
"01470399999","2010-04-29T09:50:00","4","59.565683","9.212222","19.2","NOTODDEN, NO","FM-15","ENNO ","V020","130,1,N,0026,1","99999,9,9,Y","009900,1,N,1","+0120,1","+0080,1","99999,9",,,,,,"10031,1,99999,9",,,,,"MET045METAR ENNO 290950Z 13005KT CAVOK 12/08 Q1003;",
"01470399999","2010-04-29T10:50:00","4","59.565683","9.212222","19.2","NOTODDEN, NO","FM-15","ENNO ","V020","100,1,N,0041,1","22000,1,9,N","011265,1,N,1","+0150,1","+0080,1","99999,9","02,5,+01710,5,99,9",,,"02,99,1,99,9,99,9,99999,9,99,9,99,9",,"10031,1,99999,9",,,,,"MET051METAR ENNO 291050Z 10008KT 9999 FEW057 15/08 Q1003;",
"01470399999","2010-04-29T11:50:00","4","59.565683","9.212222","19.2","NOTODDEN, NO","FM-15","ENNO ","V020","100,1,N,0031,1","22000,1,9,N","011265,1,N,1","+0150,1","+0080,1","99999,9","04,5,+01500,1,99,9",,,"04,99,1,99,9,99,9,99999,9,99,9,99,9",,"10020,1,99999,9",,,,,"MET051METAR ENNO 291150Z 10006KT 9999 SCT050 15/08 Q1002;",
"01470399999","2010-04-29T12:50:00","4","59.565683","9.212222","19.2","NOTODDEN, NO","FM-15","ENNO ","V020","200,1,N,0026,1","01500,1,C,N","011265,1,N,1","+0170,1","+0070,1","99999,9","07,5,+01500,1,99,9",,,"07,99,1,99,9,99,9,99999,9,99,9,99,9",,"10020,1,99999,9",,,,,"MET051METAR ENNO 291250Z 20005KT 9999 BKN050 17/07 Q1002;",
"01470399999","2010-04-29T13:50:00","4","59.565683","9.212222","19.2","NOTODDEN, NO","FM-15","ENNO ","V020","250,1,N,0051,1","01500,1,C,N","011265,1,N,1","+0180,1","+0060,1","99999,9","07,5,+01500,1,99,9",,,"07,99,1,99,9,99,9,99999,9,99,9,99,9",,"10010,1,99999,9",,,,,"MET051METAR ENNO 291350Z 25010KT 9999 BKN050 18/06 Q1001;",
"01470399999","2010-04-29T14:50:00","4","59.565683","9.212222","19.2","NOTODDEN, NO","FM-15","ENNO ","V020","270,1,N,0051,1","01500,1,C,N","011265,1,N,1","+0180,1","+0050,1","99999,9","07,5,+01500,1,99,9",,,"07,99,1,99,9,99,9,99999,9,99,9,99,9",,"10010,1,99999,9",,,,,"MET051METAR ENNO 291450Z 27010KT 9999 BKN050 18/05 Q1001;",
"01470399999","2010-04-29T15:50:00","4","59.565683","9.212222","19.2","NOTODDEN, NO","FM-15","ENNO ","V020","260,1,N,0036,1","01500,1,C,N","011265,1,N,1","+0180,1","+0050,1","99999,9","07,5,+01500,1,99,9",,,"07,99,1,99,9,99,9,99999,9,99,9,99,9",,"10010,1,99999,9",,,,,"MET051METAR ENNO 291550Z 26007KT 9999 BKN050 18/05 Q1001;",
"01470399999","2010-04-30T04:50:00","4","59.565683","9.212222","19.2","NOTODDEN, NO","FM-15","ENNO ","V020","999,9,V,0010,1","99999,9,9,Y","009900,1,N,1","+0020,1","+0020,1","99999,9",,,,,,"09990,1,99999,9",,,,,"MET045METAR ENNO 300450Z VRB02KT CAVOK 02/02 Q0999;",
"01470399999","2010-04-30T05:50:00","4","59.565683","9.212222","19.2","NOTODDEN, NO","FM-15","ENNO ","V020","999,9,V,0005,1","99999,9,9,Y","009900,1,N,1","+0040,1","+0030,1","99999,9",,,,,,"09990,1,99999,9",,,,,"MET045METAR ENNO 300550Z VRB01KT CAVOK 04/03 Q0999;",
"01470399999","2010-04-30T06:50:00","4","59.565683","9.212222","19.2","NOTODDEN, NO","FM-15","ENNO ","V020","999,9,V,0005,1","99999,9,9,Y","009900,1,N,1","+0070,1","+0040,1","99999,9",,,,,,"09980,1,99999,9",,,,,"MET045METAR ENNO 300650Z VRB01KT CAVOK 07/04 Q0998;",
"01470399999","2010-04-30T07:50:00","4","59.565683","9.212222","19.2","NOTODDEN, NO","FM-15","ENNO ","V020","999,9,V,0010,1","99999,9,9,Y","009900,1,N,1","+0090,1","+0040,1","99999,9",,,,,,"09980,1,99999,9",,,,,"MET045METAR ENNO 300750Z VRB02KT CAVOK 09/04 Q0998;",
"01470399999","2010-04-30T08:50:00","4","59.565683","9.212222","19.2","NOTODDEN, NO","FM-15","ENNO ","V020","999,9,V,0010,1","99999,9,9,Y","009900,1,N,1","+0100,1","+0040,1","99999,9",,,,,,"09970,1,99999,9",,,,,"MET045METAR ENNO 300850Z VRB02KT CAVOK 10/04 Q0997;",
"01470399999","2010-04-30T09:50:00","4","59.565683","9.212222","19.2","NOTODDEN, NO","FM-15","ENNO ","V020","130,1,N,0031,1","99999,9,9,Y","009900,1,N,1","+0130,1","+0040,1","99999,9",,,,,,"09959,1,99999,9",,,,,"MET045METAR ENNO 300950Z 13006KT CAVOK 13/04 Q0996;",
"01470399999","2010-04-30T10:50:00","4","59.565683","9.212222","19.2","NOTODDEN, NO","FM-15","ENNO ","V020","120,1,N,0036,1","03600,1,C,N","011265,1,N,1","+0150,1","+0030,1","99999,9","02,5,+01710,5,99,9","08,5,+03600,1,99,9",,"08,99,1,99,9,99,9,99999,9,99,9,99,9",,"09959,1,99999,9",,,,,"MET058METAR ENNO 301050Z 12007KT 9999 FEW057 OVC120 15/03 Q0996;",
"01470399999","2010-04-30T11:50:00","4","59.565683","9.212222","19.2","NOTODDEN, NO","FM-15","ENNO ","V020","110,1,N,0041,1","03600,1,C,N","011265,1,N,1","+0160,1","+0030,1","99999,9","04,5,+01650,5,99,9","07,5,+03600,1,99,9",,"07,99,1,99,9,99,9,99999,9,99,9,99,9",,"09949,1,99999,9",,,,,"MET058METAR ENNO 301150Z 11008KT 9999 SCT055 BKN120 16/03 Q0995;",
"01470399999","2010-04-30T12:50:00","4","59.565683","9.212222","19.2","NOTODDEN, NO","FM-15","ENNO ","V020","100,1,N,0031,1","02850,5,C,N","011265,1,N,1","+0160,1","+0040,1","99999,9","04,5,+01500,1,99,9","07,5,+02850,5,99,9",,"07,99,1,99,9,99,9,99999,9,99,9,99,9",,"09949,1,99999,9",,,,,"MET058METAR ENNO 301250Z 10006KT 9999 SCT050 BKN095 16/04 Q0995;",
"01470399999","2010-04-30T13:50:00","4","59.565683","9.212222","19.2","NOTODDEN, NO","FM-15","ENNO ","V020","260,1,N,0041,1","02250,5,C,N","011265,1,N,1","+0160,1","+0020,1","99999,9","04,5,+01200,1,99,9","07,5,+02250,5,99,9",,"07,99,1,99,9,99,9,99999,9,99,9,99,9",,"09949,1,99999,9",,,,,"MET058METAR ENNO 301350Z 26008KT 9999 SCT040 BKN075 16/02 Q0995;",
"01470399999","2010-04-30T14:50:00","4","59.565683","9.212222","19.2","NOTODDEN, NO","FM-15","ENNO ","V020","250,1,N,0041,1","02100,1,C,N","011265,1,N,1","+0150,1","+0020,1","99999,9","04,5,+01350,1,99,9","07,5,+02100,1,99,9",,"07,99,1,99,9,99,9,99999,9,99,9,99,9",,"09949,1,99999,9","61,1",,,,"MET062METAR ENNO 301450Z 25008KT 9999 -RA SCT045 BKN070 15/02 Q0995;",
"01470399999","2010-04-30T15:50:00","4","59.565683","9.212222","19.2","NOTODDEN, NO","FM-15","ENNO ","V020","260,1,N,0036,1","01800,1,C,N","011265,1,N,1","+0140,1","+0020,1","99999,9","04,5,+01200,1,99,9","07,5,+01800,1,99,9",,"07,99,1,99,9,99,9,99999,9,99,9,99,9",,"09949,1,99999,9",,,,,"MET058METAR ENNO 301550Z 26007KT 9999 SCT040 BKN060 14/02 Q0995;",
"01470399999","2010-04-30T16:50:00","4","59.565683","9.212222","19.2","NOTODDEN, NO","FM-15","ENNO ","V020","270,1,N,0051,1","99999,9,9,Y","009900,1,N,1","+0140,1","+0010,1","99999,9",,,,,,"09939,1,99999,9",,,,"0082,1","MET048METAR ENNO 301650Z 27010G16KT CAVOK 14/01 Q0994;",
"01470399999","2010-05-02T08:50:00","4","59.565683","9.212222","19.2","NOTODDEN, NO","FM-15","ENNO ","V020","999,9,V,0015,1","22000,1,9,N","011265,1,N,1","+0100,1","-0080,1","99999,9","02,5,+01650,5,99,9",,,"02,99,1,99,9,99,9,99999,9,99,9,99,9",,"10129,1,99999,9",,,,,"MET052METAR ENNO 020850Z VRB03KT 9999 FEW055 10/M08 Q1013;",
"01470399999","2010-05-02T09:50:00","4","59.565683","9.212222","19.2","NOTODDEN, NO","FM-15","ENNO ","V020","120,1,N,0026,1","99999,9,9,Y","009900,1,N,1","+0090,1","-0080,1","99999,9",,,,,,"10129,1,99999,9",,,,,"MET054METAR ENNO 020950Z 12005KT 060V160 CAVOK 09/M08 Q1013;",
"01470399999","2010-05-02T15:50:00","4","59.565683","9.212222","19.2","NOTODDEN, NO","FM-15","ENNO ","V020","230,1,N,0031,1","22000,1,9,N","011265,1,N,1","+0110,1","-0050,1","99999,9","04,5,+01650,5,99,9",,,"04,99,1,99,9,99,9,99999,9,99,9,99,9",,"10119,1,99999,9",,,,,"MET060METAR ENNO 021550Z 23006KT 170V280 9999 SCT055 11/M05 Q1012;",
"01470399999","2010-05-02T16:50:00","4","59.565683","9.212222","19.2","NOTODDEN, NO","FM-15","ENNO ","V020","070,1,N,0031,1","22000,1,9,N","011265,1,N,1","+0110,1","-0050,1","99999,9","04,5,+01650,5,99,9",,,"04,99,1,99,9,99,9,99999,9,99,9,99,9",,"10119,1,99999,9",,,,,"MET052METAR ENNO 021650Z 07006KT 9999 SCT055 11/M05 Q1012;",
"01470399999","2010-05-02T17:50:00","4","59.565683","9.212222","19.2","NOTODDEN, NO","FM-15","ENNO ","V020","080,1,N,0031,1","22000,1,9,N","011265,1,N,1","+0090,1","-0040,1","99999,9","04,5,+01800,1,99,9",,,"04,99,1,99,9,99,9,99999,9,99,9,99,9",,"10129,1,99999,9",,,,,"MET052METAR ENNO 021750Z 08006KT 9999 SCT060 09/M04 Q1013;",
"01470399999","2010-05-03T04:50:00","4","59.565683","9.212222","19.2","NOTODDEN, NO","FM-15","ENNO ","V020","999,9,C,0000,1","99999,9,9,Y","009900,1,N,1","-0020,1","-0040,1","99999,9",,,,,,"10180,1,99999,9",,,,,"MET047METAR ENNO 030450Z 00000KT CAVOK M02/M04 Q1018;",
"01470399999","2010-05-03T05:50:00","4","59.565683","9.212222","19.2","NOTODDEN, NO","FM-15","ENNO ","V020","999,9,V,0005,1","99999,9,9,Y","009900,1,N,1","+0000,1","-0030,1","99999,9",,,,,,"10180,1,99999,9",,,,,"MET047METAR ENNO 030550Z VRB01KT CAVOK M00/M03 Q1018;",
"01470399999","2010-05-03T06:50:00","4","59.565683","9.212222","19.2","NOTODDEN, NO","FM-15","ENNO ","V020","999,9,V,0010,1","99999,9,9,Y","009900,1,N,1","+0030,1","-0040,1","99999,9",,,,,,"10180,1,99999,9",,,,,"MET046METAR ENNO 030650Z VRB02KT CAVOK 03/M04 Q1018;",
"01470399999","2010-05-03T07:50:00","4","59.565683","9.212222","19.2","NOTODDEN, NO","FM-15","ENNO ","V020","999,9,V,0005,1","99999,9,9,Y","009900,1,N,1","+0070,1","-0040,1","99999,9",,,,,,"10180,1,99999,9",,,,,"MET046METAR ENNO 030750Z VRB01KT CAVOK 07/M04 Q1018;",
"01470399999","2010-05-03T08:50:00","4","59.565683","9.212222","19.2","NOTODDEN, NO","FM-15","ENNO ","V020","999,9,V,0010,1","22000,1,9,N","011265,1,N,1","+0090,1","-0070,1","99999,9","02,5,+01200,1,99,9",,,"02,99,1,99,9,99,9,99999,9,99,9,99,9",,"10169,1,99999,9",,,,,"MET052METAR ENNO 030850Z VRB02KT 9999 FEW040 09/M07 Q1017;",
"01470399999","2010-05-03T09:50:00","4","59.565683","9.212222","19.2","NOTODDEN, NO","FM-15","ENNO ","V020","100,1,N,0031,1","22000,1,9,N","011265,1,N,1","+0110,1","-0070,1","99999,9","02,5,+01200,1,99,9",,,"02,99,1,99,9,99,9,99999,9,99,9,99,9",,"10169,1,99999,9",,,,,"MET060METAR ENNO 030950Z 10006KT 050V130 9999 FEW040 11/M07 Q1017;",
"01470399999","2010-05-03T10:50:00","4","59.565683","9.212222","19.2","NOTODDEN, NO","FM-15","ENNO ","V020","330,1,N,0036,1","22000,1,9,N","011265,1,N,1","+0120,1","-0100,1","99999,9","02,5,+01200,1,99,9",,,"02,99,1,99,9,99,9,99999,9,99,9,99,9",,"10169,1,99999,9",,,,,"MET060METAR ENNO 031050Z 33007KT 280V030 9999 FEW040 12/M10 Q1017;",
"01470399999","2010-05-03T11:50:00","4","59.565683","9.212222","19.2","NOTODDEN, NO","FM-15","ENNO ","V020","999,9,V,0015,1","22000,1,9,N","011265,1,N,1","+0130,1","-0080,1","99999,9","04,5,+01200,1,99,9",,,"04,99,1,99,9,99,9,99999,9,99,9,99,9",,"10159,1,99999,9",,,,,"MET052METAR ENNO 031150Z VRB03KT 9999 SCT040 13/M08 Q1016;",
"01470399999","2010-05-03T12:50:00","4","59.565683","9.212222","19.2","NOTODDEN, NO","FM-15","ENNO ","V020","350,1,N,0026,1","22000,1,9,N","011265,1,N,1","+0120,1","-0100,1","99999,9","04,5,+01800,1,99,9",,,"04,99,1,99,9,99,9,99999,9,99,9,99,9",,"10159,1,99999,9",,,,,"MET060METAR ENNO 031250Z 35005KT 290V060 9999 SCT060 12/M10 Q1016;",
"01470399999","2010-05-03T13:50:00","4","59.565683","9.212222","19.2","NOTODDEN, NO","FM-15","ENNO ","V020","999,9,V,0036,1","99999,9,9,Y","009900,1,N,1","+0130,1","-0090,1","99999,9",,,,,,"10149,1,99999,9",,,,,"MET046METAR ENNO 031350Z VRB07KT CAVOK 13/M09 Q1015;",
"01470399999","2010-05-03T14:50:00","4","59.565683","9.212222","19.2","NOTODDEN, NO","FM-15","ENNO ","V020","300,1,N,0051,1","99999,9,9,Y","009900,1,N,1","+0130,1","-0100,1","99999,9",,,,,,"10149,1,99999,9",,,,,"MET046METAR ENNO 031450Z 30010KT CAVOK 13/M10 Q1015;",
"01470399999","2010-05-04T04:50:00","4","59.565683","9.212222","19.2","NOTODDEN, NO","FM-15","ENNO ","V020","300,1,N,0036,1","02100,1,C,N","011265,1,N,1","+0040,1","-0030,1","99999,9","02,5,+01200,1,99,9","07,5,+02100,1,99,9",,"07,99,1,99,9,99,9,99999,9,99,9,99,9",,"10159,1,99999,9",,,,,"MET059METAR ENNO 040450Z 30007KT 9999 FEW040 BKN070 04/M03 Q1016;",
"01470399999","2010-05-04T05:50:00","4","59.565683","9.212222","19.2","NOTODDEN, NO","FM-15","ENNO ","V020","290,1,N,0051,1","02100,1,C,N","011265,1,N,1","+0040,1","-0050,1","99999,9","04,5,+01200,1,99,9","07,5,+02100,1,99,9",,"07,99,1,99,9,99,9,99999,9,99,9,99,9",,"10159,1,99999,9",,,,,"MET059METAR ENNO 040550Z 29010KT 9999 SCT040 BKN070 04/M05 Q1016;",
"01470399999","2010-05-04T06:50:00","4","59.565683","9.212222","19.2","NOTODDEN, NO","FM-15","ENNO ","V020","300,1,N,0046,1","99999,9,C,N","011265,1,N,1","+0050,1","-0060,1","99999,9","02,5,+01200,1,99,9","04,5,+01500,1,99,9",,"04,99,1,99,9,99,9,99999,9,99,9,99,9",,"10169,1,99999,9",,,,,"MET067METAR ENNO 040650Z 30009KT 260V330 9999 FEW040 SCT050 05/M06 Q1017;","P01 015003SCOCIG"
"01470399999","2010-05-04T07:50:00","4","59.565683","9.212222","19.2","NOTODDEN, NO","FM-15","ENNO ","V020","320,1,N,0026,1","99999,9,C,N","011265,1,N,1","+0050,1","-0070,1","99999,9","02,5,+01200,1,99,9","04,5,+01500,1,99,9",,"04,99,1,99,9,99,9,99999,9,99,9,99,9",,"10169,1,99999,9",,,,,"MET067METAR ENNO 040750Z 32005KT 260V030 9999 FEW040 SCT050 05/M07 Q1017;","P01 015003SCOCIG"
"01470399999","2010-05-04T08:50:00","4","59.565683","9.212222","19.2","NOTODDEN, NO","FM-15","ENNO ","V020","999,9,V,0026,1","99999,9,C,N","011265,1,N,1","+0060,1","-0070,1","99999,9","02,5,+01200,1,99,9","04,5,+01500,1,99,9",,"04,99,1,99,9,99,9,99999,9,99,9,99,9",,"10169,1,99999,9",,,,,"MET059METAR ENNO 040850Z VRB05KT 9999 FEW040 SCT050 06/M07 Q1017;","P01 015003SCOCIG"
"01470399999","2010-05-04T09:50:00","4","59.565683","9.212222","19.2","NOTODDEN, NO","FM-15","ENNO ","V020","320,1,N,0041,1","99999,9,C,N","011265,1,N,1","+0070,1","-0080,1","99999,9","02,5,+01140,1,99,9","04,5,+01500,1,99,9",,"04,99,1,99,9,99,9,99999,9,99,9,99,9",,"10169,1,99999,9",,,,,"MET067METAR ENNO 040950Z 32008KT 280V050 9999 FEW038 SCT050 07/M08 Q1017;","P01 015003SCOCIG"
"01470399999","2010-05-04T10:50:00","4","59.565683","9.212222","19.2","NOTODDEN, NO","FM-15","ENNO ","V020","999,9,V,0046,1","02400,1,C,N","011265,1,N,1","+0070,1","-0090,1","99999,9","02,5,+01500,1,99,9","07,5,+02400,1,99,9",,"07,99,1,99,9,99,9,99999,9,99,9,99,9",,"10169,1,99999,9",,,,"0087,1","MET062METAR ENNO 041050Z VRB09G17KT 9999 FEW050 BKN080 07/M09 Q1017;",
"01470399999","2010-05-04T11:50:00","4","59.565683","9.212222","19.2","NOTODDEN, NO","FM-15","ENNO ","V020","340,1,N,0041,1","99999,9,9,Y","009900,1,N,1","+0080,1","-0080,1","99999,9",,,,,,"10169,1,99999,9",,,,"0093,1","MET049METAR ENNO 041150Z 34008G18KT CAVOK 08/M08 Q1017;",
"01470399999","2010-05-04T12:50:00","4","59.565683","9.212222","19.2","NOTODDEN, NO","FM-15","ENNO ","V020","320,1,N,0062,1","99999,9,9,Y","009900,1,N,1","+0100,1","-0080,1","99999,9",,,,,,"10169,1,99999,9",,,,"0113,1","MET049METAR ENNO 041250Z 32012G22KT CAVOK 10/M08 Q1017;",
"01470399999","2010-05-04T13:50:00","4","59.565683","9.212222","19.2","NOTODDEN, NO","FM-15","ENNO ","V020","999,9,V,0031,1","99999,9,9,Y","009900,1,N,1","+0090,1","-0080,1","99999,9",,,,,,"10169,1,99999,9",,,,"0118,1","MET049METAR ENNO 041350Z VRB06G23KT CAVOK 09/M08 Q1017;",
"01470399999","2010-05-04T14:50:00","4","59.565683","9.212222","19.2","NOTODDEN, NO","FM-15","ENNO ","V020","999,9,V,0031,1","02100,1,C,N","011265,1,N,1","+0090,1","-0080,1","99999,9","07,5,+02100,1,99,9",,,"07,99,1,99,9,99,9,99999,9,99,9,99,9",,"10169,1,99999,9",,,,,"MET052METAR ENNO 041450Z VRB06KT 9999 BKN070 09/M08 Q1017;",
"01470399999","2010-05-04T15:50:00","4","59.565683","9.212222","19.2","NOTODDEN, NO","FM-15","ENNO ","V020","350,1,N,0036,1","02100,1,C,N","011265,1,N,1","+0090,1","-0070,1","99999,9","07,5,+02100,1,99,9",,,"07,99,1,99,9,99,9,99999,9,99,9,99,9",,"10180,1,99999,9",,,,,"MET060METAR ENNO 041550Z 35007KT 250V090 9999 BKN070 09/M07 Q1018;",
"01470399999","2010-05-05T04:50:00","4","59.565683","9.212222","19.2","NOTODDEN, NO","FM-15","ENNO ","V020","999,9,V,0005,1","22000,1,9,N","011265,1,N,1","+0000,1","-0050,1","99999,9","02,5,+01800,1,99,9",,,"02,99,1,99,9,99,9,99999,9,99,9,99,9",,"10220,1,99999,9",,,,,"MET052METAR ENNO 050450Z VRB01KT 9999 FEW060 00/M05 Q1022;",
"01470399999","2010-05-05T05:50:00","4","59.565683","9.212222","19.2","NOTODDEN, NO","FM-15","ENNO ","V020","999,9,C,0000,1","99999,9,9,Y","009900,1,N,1","+0030,1","-0050,1","99999,9",,,,,,"10220,1,99999,9",,,,,"MET046METAR ENNO 050550Z 00000KT CAVOK 03/M05 Q1022;",
"01470399999","2010-05-05T06:50:00","4","59.565683","9.212222","19.2","NOTODDEN, NO","FM-15","ENNO ","V020","999,9,V,0005,1","99999,9,9,Y","009900,1,N,1","+0060,1","-0060,1","99999,9",,,,,,"10220,1,99999,9",,,,,"MET046METAR ENNO 050650Z VRB01KT CAVOK 06/M06 Q1022;",
"01470399999","2010-05-05T07:50:00","4","59.565683","9.212222","19.2","NOTODDEN, NO","FM-15","ENNO ","V020","999,9,V,0010,1","99999,9,9,Y","009900,1,N,1","+0070,1","-0080,1","99999,9",,,,,,"10220,1,99999,9",,,,,"MET046METAR ENNO 050750Z VRB02KT CAVOK 07/M08 Q1022;",
"01470399999","2010-05-05T09:50:00","4","59.565683","9.212222","19.2","NOTODDEN, NO","FM-15","ENNO ","V020","220,1,N,0026,1","99999,9,9,Y","009900,1,N,1","+0100,1","-0080,1","99999,9",,,,,,"10210,1,99999,9",,,,,"MET054METAR ENNO 050950Z 22005KT 150V310 CAVOK 10/M08 Q1021;",
"01470399999","2010-05-05T10:50:00","4","59.565683","9.212222","19.2","NOTODDEN, NO","FM-15","ENNO ","V020","999,9,V,0026,1","99999,9,9,Y","009900,1,N,1","+0110,1","-0090,1","99999,9",,,,,,"10200,1,99999,9",,,,,"MET046METAR ENNO 051050Z VRB05KT CAVOK 11/M09 Q1020;",
"01470399999","2010-05-05T11:50:00","4","59.565683","9.212222","19.2","NOTODDEN, NO","FM-15","ENNO ","V020","999,9,V,0015,1","99999,9,9,Y","009900,1,N,1","+0110,1","-0080,1","99999,9",,,,,,"10200,1,99999,9",,,,,"MET046METAR ENNO 051150Z VRB03KT CAVOK 11/M08 Q1020;",
"01470399999","2010-05-05T12:50:00","4","59.565683","9.212222","19.2","NOTODDEN, NO","FM-15","ENNO ","V020","999,9,V,0031,1","99999,9,9,Y","009900,1,N,1","+0130,1","-0080,1","99999,9",,,,,,"10190,1,99999,9",,,,,"MET046METAR ENNO 051250Z VRB06KT CAVOK 13/M08 Q1019;",
"01470399999","2010-05-05T13:50:00","4","59.565683","9.212222","19.2","NOTODDEN, NO","FM-15","ENNO ","V020","240,1,N,0031,1","99999,9,9,Y","009900,1,N,1","+0120,1","-0090,1","99999,9",,,,,,"10190,1,99999,9",,,,,"MET046METAR ENNO 051350Z 24006KT CAVOK 12/M09 Q1019;",
"01470399999","2010-05-05T14:50:00","4","59.565683","9.212222","19.2","NOTODDEN, NO","FM-15","ENNO ","V020","220,1,N,0036,1","99999,9,9,Y","009900,1,N,1","+0130,1","-0090,1","99999,9",,,,,,"10180,1,99999,9",,,,,"MET054METAR ENNO 051450Z 22007KT 140V290 CAVOK 13/M09 Q1018;",
"01470399999","2010-05-05T15:50:00","4","59.565683","9.212222","19.2","NOTODDEN, NO","FM-15","ENNO ","V020","310,1,N,0031,1","99999,9,9,Y","009900,1,N,1","+0120,1","-0090,1","99999,9",,,,,,"10180,1,99999,9",,,,,"MET054METAR ENNO 051550Z 31006KT 250V350 CAVOK 12/M09 Q1018;",
"01470399999","2010-05-05T16:50:00","4","59.565683","9.212222","19.2","NOTODDEN, NO","FM-15","ENNO ","V020","300,1,N,0036,1","99999,9,9,Y","009900,1,N,1","+0120,1","-0090,1","99999,9",,,,,,"10180,1,99999,9",,,,,"MET046METAR ENNO 051650Z 30007KT CAVOK 12/M09 Q1018;",
"01470399999","2010-05-06T04:50:00","4","59.565683","9.212222","19.2","NOTODDEN, NO","FM-15","ENNO ","V020","999,9,C,0000,1","22000,1,9,N","011265,1,N,1","+0010,1","-0020,1","99999,9","02,5,+01950,5,99,9",,,"02,99,1,99,9,99,9,99999,9,99,9,99,9",,"10190,1,99999,9",,,,,"MET052METAR ENNO 060450Z 00000KT 9999 FEW065 01/M02 Q1019;",
"01470399999","2010-05-06T05:50:00","4","59.565683","9.212222","19.2","NOTODDEN, NO","FM-15","ENNO ","V020","290,1,N,0015,1","22000,1,9,N","011265,1,N,1","+0020,1","-0020,1","99999,9","02,5,+01950,5,99,9",,,"02,99,1,99,9,99,9,99999,9,99,9,99,9",,"10190,1,99999,9",,,,,"MET052METAR ENNO 060550Z 29003KT 9999 FEW065 02/M02 Q1019;",
"01470399999","2010-05-06T06:50:00","4","59.565683","9.212222","19.2","NOTODDEN, NO","FM-15","ENNO ","V020","999,9,V,0010,1","02400,1,C,N","011265,1,N,1","+0040,1","-0040,1","99999,9","04,5,+02100,1,99,9","07,5,+02400,1,99,9",,"07,99,1,99,9,99,9,99999,9,99,9,99,9",,"10190,1,99999,9",,,,,"MET059METAR ENNO 060650Z VRB02KT 9999 SCT070 BKN080 04/M04 Q1019;",
"01470399999","2010-05-06T08:50:00","4","59.565683","9.212222","19.2","NOTODDEN, NO","FM-15","ENNO ","V020","140,1,N,0026,1","99999,9,C,N","011265,1,N,1","+0090,1","-0030,1","99999,9","02,5,+01800,1,99,9","04,5,+02100,1,99,9",,"04,99,1,99,9,99,9,99999,9,99,9,99,9",,"10190,1,99999,9",,,,,"MET067METAR ENNO 060850Z 14005KT 070V180 9999 FEW060 SCT070 09/M03 Q1019;","P01 021003SCOCIG"
"01470399999","2010-05-06T09:50:00","4","59.565683","9.212222","19.2","NOTODDEN, NO","FM-15","ENNO ","V020","100,1,N,0041,1","99999,9,C,N","011265,1,N,1","+0110,1","-0030,1","99999,9","02,5,+01800,1,99,9","04,5,+02700,1,99,9",,"04,99,1,99,9,99,9,99999,9,99,9,99,9",,"10180,1,99999,9",,,,,"MET059METAR ENNO 060950Z 10008KT 9999 FEW060 SCT090 11/M03 Q1018;","P01 027003SCOCIG"
"01470399999","2010-05-06T10:50:00","4","59.565683","9.212222","19.2","NOTODDEN, NO","FM-15","ENNO ","V020","110,1,N,0041,1","02250,5,C,N","011265,1,N,1","+0110,1","-0030,1","99999,9","02,5,+01500,1,99,9","07,5,+02250,5,99,9",,"07,99,1,99,9,99,9,99999,9,99,9,99,9",,"10180,1,99999,9",,,,,"MET059METAR ENNO 061050Z 11008KT 9999 FEW050 BKN075 11/M03 Q1018;",
"01470399999","2010-05-06T11:50:00","4","59.565683","9.212222","19.2","NOTODDEN, NO","FM-15","ENNO ","V020","140,1,N,0031,1","02250,5,C,N","011265,1,N,1","+0100,1","-0020,1","99999,9","02,5,+01500,1,99,9","07,5,+02250,5,99,9",,"07,99,1,99,9,99,9,99999,9,99,9,99,9",,"10190,1,99999,9",,,,,"MET059METAR ENNO 061150Z 14006KT 9999 FEW050 BKN075 10/M02 Q1019;",
"01470399999","2010-05-06T12:50:00","4","59.565683","9.212222","19.2","NOTODDEN, NO","FM-15","ENNO ","V020","120,1,N,0041,1","02100,1,C,N","011265,1,N,1","+0100,1","-0020,1","99999,9","02,5,+01500,1,99,9","07,5,+02100,1,99,9",,"07,99,1,99,9,99,9,99999,9,99,9,99,9",,"10190,1,99999,9",,,,,"MET059METAR ENNO 061250Z 12008KT 9999 FEW050 BKN070 10/M02 Q1019;",
"01470399999","2010-05-06T13:50:00","4","59.565683","9.212222","19.2","NOTODDEN, NO","FM-15","ENNO ","V020","120,1,N,0062,1","01500,1,C,N","011265,1,N,1","+0090,1","+0000,1","99999,9","02,5,+00900,1,99,9","07,5,+01500,1,99,9",,"07,99,1,99,9,99,9,99999,9,99,9,99,9",,"10200,1,99999,9",,,,,"MET059METAR ENNO 061350Z 12012KT 9999 FEW030 BKN050 09/M00 Q1020;",
"01470399999","2010-05-06T14:50:00","4","59.565683","9.212222","19.2","NOTODDEN, NO","FM-15","ENNO ","V020","270,1,N,0031,1","02100,1,C,N","011265,1,N,1","+0110,1","+0000,1","99999,9","04,5,+00900,1,99,9","07,5,+02100,1,99,9",,"07,99,1,99,9,99,9,99999,9,99,9,99,9",,"10190,1,99999,9",,,,,"MET059METAR ENNO 061450Z 27006KT 9999 SCT030 BKN070 11/M00 Q1019;",
"01470399999","2010-05-06T15:50:00","4","59.565683","9.212222","19.2","NOTODDEN, NO","FM-15","ENNO ","V020","240,1,N,0026,1","02850,5,C,N","011265,1,N,1","+0110,1","-0010,1","99999,9","02,5,+00900,1,99,9","07,5,+02850,5,99,9",,"07,99,1,99,9,99,9,99999,9,99,9,99,9",,"10190,1,99999,9",,,,,"MET067METAR ENNO 061550Z 24005KT 170V300 9999 FEW030 BKN095 11/M01 Q1019;",
"01470399999","2010-05-07T04:50:00","4","59.565683","9.212222","19.2","NOTODDEN, NO","FM-15","ENNO ","V020","999,9,V,0005,1","99999,9,9,Y","009900,1,N,1","+0010,1","+0000,1","99999,9",,,,,,"10240,1,99999,9",,,,,"MET046METAR ENNO 070450Z VRB01KT CAVOK 01/M00 Q1024;",
"01470399999","2010-05-07T05:50:00","4","59.565683","9.212222","19.2","NOTODDEN, NO","FM-15","ENNO ","V020","999,9,V,0010,1","99999,9,9,Y","009900,1,N,1","+0040,1","+0010,1","99999,9",,,,,,"10240,1,99999,9",,,,,"MET045METAR ENNO 070550Z VRB02KT CAVOK 04/01 Q1024;",
"01470399999","2010-05-07T07:50:00","4","59.565683","9.212222","19.2","NOTODDEN, NO","FM-15","ENNO ","V020","999,9,V,0026,1","22000,1,9,N","011265,1,N,1","+0120,1","-0040,1","99999,9","04,5,+01800,1,99,9",,,"04,99,1,99,9,99,9,99999,9,99,9,99,9",,"10230,1,99999,9",,,,,"MET052METAR ENNO 070750Z VRB05KT 9999 SCT060 12/M04 Q1023;",
"01470399999","2010-05-07T08:50:00","4","59.565683","9.212222","19.2","NOTODDEN, NO","FM-15","ENNO ","V020","999,9,V,0036,1","22000,1,9,N","011265,1,N,1","+0120,1","-0050,1","99999,9","02,5,+01800,1,99,9",,,"02,99,1,99,9,99,9,99999,9,99,9,99,9",,"10220,1,99999,9",,,,,"MET052METAR ENNO 070850Z VRB07KT 9999 FEW060 12/M05 Q1022;",
"01470399999","2010-05-07T09:50:00","4","59.565683","9.212222","19.2","NOTODDEN, NO","FM-15","ENNO ","V020","999,9,V,0046,1","22000,1,9,N","011265,1,N,1","+0120,1","-0060,1","99999,9","02,5,+01950,5,99,9",,,"02,99,1,99,9,99,9,99999,9,99,9,99,9",,"10220,1,99999,9",,,,"0108,1","MET055METAR ENNO 070950Z VRB09G21KT 9999 FEW065 12/M06 Q1022;",
"01470399999","2010-05-07T10:50:00","4","59.565683","9.212222","19.2","NOTODDEN, NO","FM-15","ENNO ","V020","340,1,N,0041,1","99999,9,C,N","011265,1,N,1","+0130,1","-0070,1","99999,9","02,5,+01950,5,99,9","04,5,+06000,1,99,9",,"04,99,1,99,9,99,9,99999,9,99,9,99,9",,"10210,1,99999,9",,,,"0093,1","MET070METAR ENNO 071050Z 34008G18KT 270V050 9999 FEW065 SCT200 13/M07 Q1021;","P01 060003SCOCIG"
"01470399999","2010-05-07T11:50:00","4","59.565683","9.212222","19.2","NOTODDEN, NO","FM-15","ENNO ","V020","999,9,V,0031,1","99999,9,9,Y","009900,1,N,1","+0130,1","-0080,1","99999,9",,,,,,"10210,1,99999,9",,,,"0077,1","MET049METAR ENNO 071150Z VRB06G15KT CAVOK 13/M08 Q1021;",
"01470399999","2010-05-07T12:50:00","4","59.565683","9.212222","19.2","NOTODDEN, NO","FM-15","ENNO ","V020","999,9,V,0036,1","99999,9,9,Y","009900,1,N,1","+0140,1","-0080,1","99999,9",,,,,,"10200,1,99999,9",,,,,"MET046METAR ENNO 071250Z VRB07KT CAVOK 14/M08 Q1020;",
"01470399999","2010-05-07T13:50:00","4","59.565683","9.212222","19.2","NOTODDEN, NO","FM-15","ENNO ","V020","999,9,V,0036,1","99999,9,9,Y","009900,1,N,1","+0140,1","-0080,1","99999,9",,,,,,"10200,1,99999,9",,,,,"MET046METAR ENNO 071350Z VRB07KT CAVOK 14/M08 Q1020;",
"01470399999","2010-05-07T14:50:00","4","59.565683","9.212222","19.2","NOTODDEN, NO","FM-15","ENNO ","V020","999,9,V,0041,1","99999,9,9,Y","009900,1,N,1","+0150,1","-0070,1","99999,9",,,,,,"10190,1,99999,9",,,,,"MET046METAR ENNO 071450Z VRB08KT CAVOK 15/M07 Q1019;",
"01470399999","2010-05-09T15:50:00","4","59.565683","9.212222","19.2","NOTODDEN, NO","FM-15","ENNO ","V020","120,1,N,0072,1","01800,1,C,N","011265,1,N,1","+0120,1","+0030,1","99999,9","02,5,+01200,1,99,9","04,5,+01800,1,99,9","07,5,+02100,1,99,9","07,99,1,99,9,99,9,99999,9,99,9,99,9",,"10020,1,99999,9","16,1",,,,"MET070METAR ENNO 091550Z 12014KT 9999 VCSH FEW040 SCT060 BKN070 12/03 Q1002;",
"01470399999","2010-05-09T16:50:00","4","59.565683","9.212222","19.2","NOTODDEN, NO","FM-15","ENNO ","V020","330,1,N,0046,1","02010,5,C,N","011265,1,N,1","+0090,1","+0020,1","99999,9","04,5,+01020,1,99,9","07,5,+02010,5,99,9",,"07,99,1,99,9,99,9,99999,9,99,9,99,9",,"10020,1,99999,9","16,1",,,,"MET071METAR ENNO 091650Z 33009KT 290V050 9999 VCSH SCT034 BKN067 09/02 Q1002;",
"01470399999","2010-05-09T17:50:00","4","59.565683","9.212222","19.2","NOTODDEN, NO","FM-15","ENNO ","V020","310,1,N,0021,1","00900,1,C,N","011265,1,N,1","+0060,1","+0040,1","99999,9","04,5,+00690,1,99,9","07,5,+00900,1,99,9",,"07,99,1,99,9,99,9,99999,9,99,9,99,9",,"10031,1,99999,9","61,1",,,,"MET077METAR ENNO 091750Z 31004KT 280V360 9999 7000SE -RA SCT023 BKN030 06/04 Q1003;",
"01470399999","2010-05-10T04:50:00","4","59.565683","9.212222","19.2","NOTODDEN, NO","FM-15","ENNO ","V020","999,9,C,0000,1","00270,1,C,N","011265,1,N,1","+0020,1","+0010,1","99999,9","02,5,+00090,1,99,9","04,5,+00270,1,99,9","07,5,+00420,1,99,9","07,99,1,99,9,99,9,99999,9,99,9,99,9",,"10010,1,99999,9",,,,,"MET065METAR ENNO 100450Z 00000KT 9999 FEW003 SCT009 BKN014 02/01 Q1001;",
"01470399999","2010-05-10T05:50:00","4","59.565683","9.212222","19.2","NOTODDEN, NO","FM-15","ENNO ","V020","280,1,N,0015,1","00570,1,C,N","011265,1,N,1","+0030,1","+0010,1","99999,9","02,5,+00180,1,99,9","04,5,+00570,1,99,9","07,5,+01500,1,99,9","07,99,1,99,9,99,9,99999,9,99,9,99,9",,"10010,1,99999,9",,,,,"MET073METAR ENNO 100550Z 28003KT 250V330 9999 FEW006 SCT019 BKN050 03/01 Q1001;",
"01470399999","2010-05-10T06:50:00","4","59.565683","9.212222","19.2","NOTODDEN, NO","FM-15","ENNO ","V020","999,9,C,0000,1","01500,1,C,N","011265,1,N,1","+0040,1","+0020,1","99999,9","02,5,+00330,1,99,9","07,5,+01500,1,99,9",,"07,99,1,99,9,99,9,99999,9,99,9,99,9",,"10010,1,99999,9",,,,,"MET058METAR ENNO 100650Z 00000KT 9999 FEW011 BKN050 04/02 Q1001;",
"01470399999","2010-05-10T07:50:00","4","59.565683","9.212222","19.2","NOTODDEN, NO","FM-15","ENNO ","V020","999,9,V,0010,1","01500,1,C,N","011265,1,N,1","+0050,1","+0020,1","99999,9","02,5,+00900,1,99,9","07,5,+01500,1,99,9",,"07,99,1,99,9,99,9,99999,9,99,9,99,9",,"10010,1,99999,9",,,,,"MET058METAR ENNO 100750Z VRB02KT 9999 FEW030 BKN050 05/02 Q1001;",
"01470399999","2010-05-10T08:50:00","4","59.565683","9.212222","19.2","NOTODDEN, NO","FM-15","ENNO ","V020","280,1,N,0046,1","01500,1,C,N","011265,1,N,1","+0080,1","-0050,1","99999,9","02,5,+00900,1,99,9","07,5,+01500,1,99,9",,"07,99,1,99,9,99,9,99999,9,99,9,99,9",,"10010,1,99999,9",,,,,"MET067METAR ENNO 100850Z 28009KT 240V330 9999 FEW030 BKN050 08/M05 Q1001;",
"01470399999","2010-05-10T10:50:00","4","59.565683","9.212222","19.2","NOTODDEN, NO","FM-15","ENNO ","V020","290,1,N,0067,1","01500,1,C,N","011265,1,N,1","+0080,1","-0080,1","99999,9","02,5,+00900,1,99,9","07,5,+01500,1,99,9",,"07,99,1,99,9,99,9,99999,9,99,9,99,9",,"10010,1,99999,9",,,,,"MET067METAR ENNO 101050Z 29013KT 260V320 9999 FEW030 BKN050 08/M08 Q1001;",
"01470399999","2010-05-10T12:50:00","4","59.565683","9.212222","19.2","NOTODDEN, NO","FM-15","ENNO ","V020","290,1,N,0067,1","01950,5,C,N","011265,1,N,1","+0090,1","-0090,1","99999,9","02,5,+00900,1,99,9","07,5,+01950,5,99,9",,"07,99,1,99,9,99,9,99999,9,99,9,99,9",,"10020,1,99999,9",,,,,"MET059METAR ENNO 101250Z 29013KT 9999 FEW030 BKN065 09/M09 Q1002;",
"01470399999","2010-05-10T13:50:00","4","59.565683","9.212222","19.2","NOTODDEN, NO","FM-15","ENNO ","V020","290,1,N,0072,1","22000,1,9,N","011265,1,N,1","+0090,1","-0080,1","99999,9","04,5,+01800,1,99,9",,,"04,99,1,99,9,99,9,99999,9,99,9,99,9",,"10020,1,99999,9",,,,,"MET060METAR ENNO 101350Z 29014KT 260V320 9999 SCT060 09/M08 Q1002;",
"01470399999","2010-05-10T14:50:00","4","59.565683","9.212222","19.2","NOTODDEN, NO","FM-15","ENNO ","V020","290,1,N,0067,1","22000,1,9,N","011265,1,N,1","+0100,1","-0090,1","99999,9","04,5,+01800,1,99,9",,,"04,99,1,99,9,99,9,99999,9,99,9,99,9",,"10020,1,99999,9",,,,,"MET060METAR ENNO 101450Z 29013KT 260V330 9999 SCT060 10/M09 Q1002;",
"01470399999","2010-05-10T15:50:00","4","59.565683","9.212222","19.2","NOTODDEN, NO","FM-15","ENNO ","V020","290,1,N,0077,1","22000,1,9,N","011265,1,N,1","+0090,1","-0080,1","99999,9","04,5,+01800,1,99,9",,,"04,99,1,99,9,99,9,99999,9,99,9,99,9",,"10031,1,99999,9",,,,,"MET060METAR ENNO 101550Z 29015KT 260V320 9999 SCT060 09/M08 Q1003;",
"01470399999","2010-05-11T04:50:00","4","59.565683","9.212222","19.2","NOTODDEN, NO","FM-15","ENNO ","V020","999,9,C,0000,1","99999,9,9,Y","009900,1,N,1","-0030,1","-0040,1","99999,9",,,,,,"10091,1,99999,9",,,,,"MET047METAR ENNO 110450Z 00000KT CAVOK M03/M04 Q1009;",
"01470399999","2010-05-11T05:50:00","4","59.565683","9.212222","19.2","NOTODDEN, NO","FM-15","ENNO ","V020","999,9,C,0000,1","99999,9,9,Y","009900,1,N,1","+0010,1","-0030,1","99999,9",,,,,,"10091,1,99999,9",,,,,"MET046METAR ENNO 110550Z 00000KT CAVOK 01/M03 Q1009;",
"01470399999","2010-05-11T06:50:00","4","59.565683","9.212222","19.2","NOTODDEN, NO","FM-15","ENNO ","V020","999,9,V,0005,1","99999,9,9,Y","009900,1,N,1","+0030,1","-0030,1","99999,9",,,,,,"10091,1,99999,9",,,,,"MET046METAR ENNO 110650Z VRB01KT CAVOK 03/M03 Q1009;",
"01470399999","2010-05-11T07:50:00","4","59.565683","9.212222","19.2","NOTODDEN, NO","FM-15","ENNO ","V020","999,9,V,0005,1","22000,1,9,N","011265,1,N,1","+0060,1","-0040,1","99999,9","02,5,+01200,1,99,9",,,"02,99,1,99,9,99,9,99999,9,99,9,99,9",,"10091,1,99999,9",,,,,"MET052METAR ENNO 110750Z VRB01KT 9999 FEW040 06/M04 Q1009;",
"01470399999","2010-05-11T08:50:00","4","59.565683","9.212222","19.2","NOTODDEN, NO","FM-15","ENNO ","V020","999,9,V,0010,1","22000,1,9,N","011265,1,N,1","+0090,1","-0070,1","99999,9","04,5,+01200,1,99,9",,,"04,99,1,99,9,99,9,99999,9,99,9,99,9",,"10091,1,99999,9",,,,,"MET052METAR ENNO 110850Z VRB02KT 9999 SCT040 09/M07 Q1009;",
"01470399999","2010-05-11T09:50:00","4","59.565683","9.212222","19.2","NOTODDEN, NO","FM-15","ENNO ","V020","140,1,N,0031,1","22000,1,9,N","011265,1,N,1","+0100,1","-0070,1","99999,9","04,5,+01500,1,99,9",,,"04,99,1,99,9,99,9,99999,9,99,9,99,9",,"10091,1,99999,9",,,,,"MET060METAR ENNO 110950Z 14006KT 110V190 9999 SCT050 10/M07 Q1009;",
"01470399999","2010-05-11T10:50:00","4","59.565683","9.212222","19.2","NOTODDEN, NO","FM-15","ENNO ","V020","999,9,V,0021,1","22000,1,9,N","011265,1,N,1","+0090,1","-0080,1","99999,9","04,5,+01500,1,99,9",,,"04,99,1,99,9,99,9,99999,9,99,9,99,9",,"10091,1,99999,9",,,,,"MET052METAR ENNO 111050Z VRB04KT 9999 SCT050 09/M08 Q1009;",
"01470399999","2010-05-11T11:50:00","4","59.565683","9.212222","19.2","NOTODDEN, NO","FM-15","ENNO ","V020","999,9,C,0000,1","01500,1,C,N","011265,1,N,1","+0090,1","-0080,1","99999,9","02,5,+00900,1,99,9","07,5,+01500,1,99,9",,"07,99,1,99,9,99,9,99999,9,99,9,99,9",,"10091,1,99999,9",,,,,"MET059METAR ENNO 111150Z 00000KT 9999 FEW030 BKN050 09/M08 Q1009;",
"01470399999","2010-05-11T12:50:00","4","59.565683","9.212222","19.2","NOTODDEN, NO","FM-15","ENNO ","V020","300,1,N,0036,1","99999,9,C,N","011265,1,N,1","+0110,1","-0070,1","99999,9","02,5,+00900,1,99,9","02,5,+01200,1,09,5","04,5,+01500,1,99,9","04,99,1,99,9,99,9,99999,9,99,9,99,9",,"10091,1,99999,9",,,,,"MET076METAR ENNO 111250Z 30007KT 260V340 9999 FEW030 FEW040CB SCT050 11/M07 Q1009;","P01 015003SCOCIG"
"01470399999","2010-05-11T13:50:00","4","59.565683","9.212222","19.2","NOTODDEN, NO","FM-15","ENNO ","V020","999,9,V,0010,1","01200,1,C,N","011265,1,N,1","+0100,1","-0080,1","99999,9","02,5,+00900,1,99,9","04,5,+01200,1,99,9","07,5,+01500,1,99,9","07,99,1,99,9,99,9,99999,9,99,9,99,9",,"10102,1,99999,9",,,,,"MET066METAR ENNO 111350Z VRB02KT 9999 FEW030 SCT040 BKN050 10/M08 Q1010;",
"01470399999","2010-05-11T14:50:00","4","59.565683","9.212222","19.2","NOTODDEN, NO","FM-15","ENNO ","V020","240,1,N,0026,1","01500,1,C,N","011265,1,N,1","+0100,1","-0080,1","99999,9","02,5,+01200,1,99,9","04,5,+01500,1,99,9","07,5,+02400,1,99,9","07,99,1,99,9,99,9,99999,9,99,9,99,9",,"10102,1,99999,9","16,1",,,,"MET079METAR ENNO 111450Z 24005KT 190V290 9999 VCSH FEW040 SCT050 BKN080 10/M08 Q1010;",
"01470399999","2010-05-11T15:50:00","4","59.565683","9.212222","19.2","NOTODDEN, NO","FM-15","ENNO ","V020","120,1,N,0041,1","99999,9,C,N","011265,1,N,1","+0100,1","-0060,1","99999,9","04,5,+01500,1,99,9","04,5,+02400,1,99,9",,"04,99,1,99,9,99,9,99999,9,99,9,99,9",,"10102,1,99999,9",,,,,"MET067METAR ENNO 111550Z 12008KT 080V150 9999 SCT050 SCT080 10/M06 Q1010;","P01 024003SCOCIG"
"01470399999","2010-05-12T04:50:00","4","59.565683","9.212222","19.2","NOTODDEN, NO","FM-15","ENNO ","V020","300,1,N,0015,1","99999,9,9,Y","009900,1,N,1","-0020,1","-0040,1","99999,9",,,,,,"10169,1,99999,9",,,,,"MET047METAR ENNO 120450Z 30003KT CAVOK M02/M04 Q1017;",
"01470399999","2010-05-12T05:50:00","4","59.565683","9.212222","19.2","NOTODDEN, NO","FM-15","ENNO ","V020","999,9,C,0000,1","99999,9,9,Y","009900,1,N,1","+0020,1","-0020,1","99999,9",,,,,,"10169,1,99999,9",,,,,"MET046METAR ENNO 120550Z 00000KT CAVOK 02/M02 Q1017;",
"01470399999","2010-05-12T06:50:00","4","59.565683","9.212222","19.2","NOTODDEN, NO","FM-15","ENNO ","V020","310,1,N,0015,1","99999,9,9,Y","009900,1,N,1","+0040,1","-0020,1","99999,9",,,,,,"10169,1,99999,9",,,,,"MET054METAR ENNO 120650Z 31003KT 270V350 CAVOK 04/M02 Q1017;",
"01470399999","2010-05-12T07:50:00","4","59.565683","9.212222","19.2","NOTODDEN, NO","FM-15","ENNO ","V020","999,9,V,0010,1","22000,1,9,N","011265,1,N,1","+0070,1","-0020,1","99999,9","02,5,+01200,1,99,9",,,"02,99,1,99,9,99,9,99999,9,99,9,99,9",,"10159,1,99999,9",,,,,"MET052METAR ENNO 120750Z VRB02KT 9999 FEW040 07/M02 Q1016;",
"01470399999","2010-05-12T09:20:00","4","59.565683","9.212222","19.2","NOTODDEN, NO","FM-15","ENNO ","V020","999,9,V,0015,1","22000,1,9,N","011265,1,N,1","+0110,1","-0030,1","99999,9","02,5,+01500,1,99,9",,,"02,99,1,99,9,99,9,99999,9,99,9,99,9",,"10159,1,99999,9",,,,,"MET052METAR ENNO 120920Z VRB03KT 9999 FEW050 11/M03 Q1016;",
"01470399999","2010-05-12T09:50:00","4","59.565683","9.212222","19.2","NOTODDEN, NO","FM-15","ENNO ","V020","280,1,N,0026,1","22000,1,9,N","011265,1,N,1","+0120,1","-0040,1","99999,9","02,5,+01800,1,99,9",,,"02,99,1,99,9,99,9,99999,9,99,9,99,9",,"10159,1,99999,9",,,,,"MET060METAR ENNO 120950Z 28005KT 230V330 9999 FEW060 12/M04 Q1016;",
"01470399999","2010-05-12T11:50:00","4","59.565683","9.212222","19.2","NOTODDEN, NO","FM-15","ENNO ","V020","140,1,N,0031,1","22000,1,9,N","011265,1,N,1","+0130,1","-0070,1","99999,9","02,5,+01800,1,99,9",,,"02,99,1,99,9,99,9,99999,9,99,9,99,9",,"10149,1,99999,9",,,,,"MET052METAR ENNO 121150Z 14006KT 9999 FEW060 13/M07 Q1015;",
"01470399999","2010-05-12T13:50:00","4","59.565683","9.212222","19.2","NOTODDEN, NO","FM-15","ENNO ","V020","100,1,N,0041,1","22000,1,9,N","011265,1,N,1","+0130,1","-0070,1","99999,9","02,5,+01800,1,99,9",,,"02,99,1,99,9,99,9,99999,9,99,9,99,9",,"10139,1,99999,9",,,,,"MET052METAR ENNO 121350Z 10008KT 9999 FEW060 13/M07 Q1014;",
"01470399999","2010-05-12T14:50:00","4","59.565683","9.212222","19.2","NOTODDEN, NO","FM-15","ENNO ","V020","130,1,N,0062,1","22000,1,9,N","011265,1,N,1","+0130,1","-0060,1","99999,9","02,5,+01800,1,99,9",,,"02,99,1,99,9,99,9,99999,9,99,9,99,9",,"10139,1,99999,9",,,,,"MET052METAR ENNO 121450Z 13012KT 9999 FEW060 13/M06 Q1014;",
"01470399999","2010-05-12T15:50:00","4","59.565683","9.212222","19.2","NOTODDEN, NO","FM-15","ENNO ","V020","120,1,N,0036,1","22000,1,9,N","011265,1,N,1","+0130,1","-0070,1","99999,9","02,5,+01800,1,99,9",,,"02,99,1,99,9,99,9,99999,9,99,9,99,9",,"10139,1,99999,9",,,,,"MET052METAR ENNO 121550Z 12007KT 9999 FEW060 13/M07 Q1014;",
"01470399999","2010-05-13T05:20:00","4","59.565683","9.212222","19.2","NOTODDEN, NO","FM-15","ENNO ","V020","300,1,N,0026,1","00750,1,C,N","011265,1,N,1","+0070,1","+0030,1","99999,9","07,5,+00750,1,99,9","08,5,+01050,1,99,9",,"08,99,1,99,9,99,9,99999,9,99,9,99,9",,"10119,1,99999,9","16,1",,,,"MET071METAR ENNO 130520Z 30005KT 270V340 9999 VCSH BKN025 OVC035 07/03 Q1012;",
"01470399999","2010-05-13T05:50:00","4","59.565683","9.212222","19.2","NOTODDEN, NO","FM-15","ENNO ","V020","300,1,N,0031,1","00750,1,C,N","011265,1,N,1","+0070,1","+0030,1","99999,9","07,5,+00750,1,99,9","08,5,+01050,1,99,9",,"08,99,1,99,9,99,9,99999,9,99,9,99,9",,"10108,1,99999,9","16,1",,,,"MET071METAR ENNO 130550Z 30006KT 270V330 9999 VCSH BKN025 OVC035 07/03 Q1011;",
"01470399999","2010-05-13T06:50:00","4","59.565683","9.212222","19.2","NOTODDEN, NO","FM-15","ENNO ","V020","290,1,N,0036,1","00750,1,C,N","011265,1,N,1","+0070,1","+0020,1","99999,9","07,5,+00750,1,99,9","08,5,+00900,1,99,9",,"08,99,1,99,9,99,9,99999,9,99,9,99,9",,"10108,1,99999,9","16,1",,,,"MET071METAR ENNO 130650Z 29007KT 260V320 9999 VCSH BKN025 OVC030 07/02 Q1011;",
"01470399999","2010-05-14T04:50:00","4","59.565683","9.212222","19.2","NOTODDEN, NO","FM-15","ENNO ","V020","300,1,N,0015,1","01800,1,C,N","011265,1,N,1","+0070,1","+0050,1","99999,9","04,5,+01050,1,99,9","07,5,+01800,1,99,9",,"07,99,1,99,9,99,9,99999,9,99,9,99,9",,"10102,1,99999,9",,,,,"MET058METAR ENNO 140450Z 30003KT 9999 SCT035 BKN060 07/05 Q1010;",
"01470399999","2010-05-14T05:50:00","4","59.565683","9.212222","19.2","NOTODDEN, NO","FM-15","ENNO ","V020","999,9,V,0005,1","01800,1,C,N","011265,1,N,1","+0080,1","+0050,1","99999,9","04,5,+01050,1,99,9","07,5,+01800,1,99,9",,"07,99,1,99,9,99,9,99999,9,99,9,99,9",,"10102,1,99999,9",,,,,"MET058METAR ENNO 140550Z VRB01KT 9999 SCT035 BKN060 08/05 Q1010;",
"01470399999","2010-05-14T06:50:00","4","59.565683","9.212222","19.2","NOTODDEN, NO","FM-15","ENNO ","V020","999,9,V,0005,1","01800,1,C,N","011265,1,N,1","+0090,1","+0050,1","99999,9","02,5,+01200,1,99,9","07,5,+01800,1,99,9",,"07,99,1,99,9,99,9,99999,9,99,9,99,9",,"10102,1,99999,9",,,,,"MET058METAR ENNO 140650Z VRB01KT 9999 FEW040 BKN060 09/05 Q1010;",
"01470399999","2010-05-14T07:50:00","4","59.565683","9.212222","19.2","NOTODDEN, NO","FM-15","ENNO ","V020","300,1,N,0015,1","01800,1,C,N","011265,1,N,1","+0110,1","+0040,1","99999,9","02,5,+01200,1,99,9","07,5,+01800,1,99,9",,"07,99,1,99,9,99,9,99999,9,99,9,99,9",,"10102,1,99999,9",,,,,"MET066METAR ENNO 140750Z 30003KT 250V360 9999 FEW040 BKN060 11/04 Q1010;",
"01470399999","2010-05-14T08:50:00","4","59.565683","9.212222","19.2","NOTODDEN, NO","FM-15","ENNO ","V020","280,1,N,0036,1","99999,9,C,N","011265,1,N,1","+0130,1","+0030,1","99999,9","02,5,+01200,1,99,9","04,5,+01800,1,99,9",,"04,99,1,99,9,99,9,99999,9,99,9,99,9",,"10091,1,99999,9",,,,,"MET066METAR ENNO 140850Z 28007KT 250V320 9999 FEW040 SCT060 13/03 Q1009;","P01 018003SCOCIG"
"01470399999","2010-05-14T09:50:00","4","59.565683","9.212222","19.2","NOTODDEN, NO","FM-15","ENNO ","V020","270,1,N,0026,1","99999,9,C,N","011265,1,N,1","+0160,1","+0030,1","99999,9","02,5,+01200,1,99,9","04,5,+01800,1,99,9",,"04,99,1,99,9,99,9,99999,9,99,9,99,9",,"10091,1,99999,9",,,,,"MET066METAR ENNO 140950Z 27005KT 210V320 9999 FEW040 SCT060 16/03 Q1009;","P01 018003SCOCIG"
"01470399999","2010-05-14T10:50:00","4","59.565683","9.212222","19.2","NOTODDEN, NO","FM-15","ENNO ","V020","999,9,V,0021,1","22000,1,9,N","011265,1,N,1","+0180,1","+0030,1","99999,9","04,5,+01650,5,99,9",,,"04,99,1,99,9,99,9,99999,9,99,9,99,9",,"10081,1,99999,9",,,,,"MET051METAR ENNO 141050Z VRB04KT 9999 SCT055 18/03 Q1008;",
"01470399999","2010-05-14T11:50:00","4","59.565683","9.212222","19.2","NOTODDEN, NO","FM-15","ENNO ","V020","300,1,N,0031,1","22000,1,9,N","011265,1,N,1","+0170,1","+0020,1","99999,9","04,5,+01800,1,99,9",,,"04,99,1,99,9,99,9,99999,9,99,9,99,9",,"10081,1,99999,9",,,,,"MET059METAR ENNO 141150Z 30006KT 260V340 9999 SCT060 17/02 Q1008;",
"01470399999","2010-05-14T13:50:00","4","59.565683","9.212222","19.2","NOTODDEN, NO","FM-15","ENNO ","V020","200,1,N,0026,1","22000,1,9,N","011265,1,N,1","+0190,1","+0020,1","99999,9","02,5,+01800,1,99,9",,,"02,99,1,99,9,99,9,99999,9,99,9,99,9",,"10071,1,99999,9",,,,,"MET051METAR ENNO 141350Z 20005KT 9999 FEW060 19/02 Q1007;",
"01470399999","2010-05-14T14:50:00","4","59.565683","9.212222","19.2","NOTODDEN, NO","FM-15","ENNO ","V020","230,1,N,0031,1","22000,1,9,N","011265,1,N,1","+0200,1","+0020,1","99999,9","02,5,+01800,1,99,9",,,"02,99,1,99,9,99,9,99999,9,99,9,99,9",,"10071,1,99999,9",,,,,"MET051METAR ENNO 141450Z 23006KT 9999 FEW060 20/02 Q1007;",
"01470399999","2010-05-14T15:50:00","4","59.565683","9.212222","19.2","NOTODDEN, NO","FM-15","ENNO ","V020","160,1,N,0021,1","22000,1,9,N","011265,1,N,1","+0200,1","+0030,1","99999,9","02,5,+01800,1,99,9",,,"02,99,1,99,9,99,9,99999,9,99,9,99,9",,"10071,1,99999,9",,,,,"MET051METAR ENNO 141550Z 16004KT 9999 FEW060 20/03 Q1007;",
"01470399999","2010-05-16T15:50:00","4","59.565683","9.212222","19.2","NOTODDEN, NO","FM-15","ENNO ","V020","110,1,N,0036,1","00300,1,C,N","011265,1,N,1","+0130,1","+0110,1","99999,9","02,5,+00090,1,99,9","04,5,+00300,1,99,9","08,5,+00870,1,99,9","08,99,1,99,9,99,9,99999,9,99,9,99,9",,"10041,1,99999,9",,,,,"MET065METAR ENNO 161550Z 11007KT 9999 FEW003 SCT010 OVC029 13/11 Q1004;",
"01470399999","2010-05-18T04:50:00","4","59.565683","9.212222","19.2","NOTODDEN, NO","FM-15","ENNO ","V020","330,1,N,0010,1","99999,9,9,Y","009900,1,N,1","+0090,1","+0070,1","99999,9",,,,,,"10200,1,99999,9",,,,,"MET045METAR ENNO 180450Z 33002KT CAVOK 09/07 Q1020;",
"01470399999","2010-05-18T05:50:00","4","59.565683","9.212222","19.2","NOTODDEN, NO","FM-15","ENNO ","V020","270,1,N,0021,1","99999,9,9,Y","009900,1,N,1","+0110,1","+0060,1","99999,9",,,,,,"10200,1,99999,9",,,,,"MET045METAR ENNO 180550Z 27004KT CAVOK 11/06 Q1020;",
"01470399999","2010-05-18T06:50:00","4","59.565683","9.212222","19.2","NOTODDEN, NO","FM-15","ENNO ","V020","280,1,N,0021,1","99999,9,9,Y","009900,1,N,1","+0130,1","+0060,1","99999,9",,,,,,"10200,1,99999,9",,,,,"MET045METAR ENNO 180650Z 28004KT CAVOK 13/06 Q1020;",
"01470399999","2010-05-18T07:50:00","4","59.565683","9.212222","19.2","NOTODDEN, NO","FM-15","ENNO ","V020","300,1,N,0057,1","99999,9,9,Y","009900,1,N,1","+0160,1","+0050,1","99999,9",,,,,,"10200,1,99999,9",,,,,"MET045METAR ENNO 180750Z 30011KT CAVOK 16/05 Q1020;",
"01470399999","2010-05-18T08:50:00","4","59.565683","9.212222","19.2","NOTODDEN, NO","FM-15","ENNO ","V020","340,1,N,0041,1","99999,9,9,Y","009900,1,N,1","+0160,1","+0050,1","99999,9",,,,,,"10210,1,99999,9",,,,"0077,1","MET056METAR ENNO 180850Z 34008G15KT 280V070 CAVOK 16/05 Q1021;",
"01470399999","2010-05-18T09:50:00","4","59.565683","9.212222","19.2","NOTODDEN, NO","FM-15","ENNO ","V020","999,9,V,0031,1","22000,1,9,N","011265,1,N,1","+0170,1","+0060,1","99999,9","02,5,+01500,1,99,9",,,"02,99,1,99,9,99,9,99999,9,99,9,99,9",,"10210,1,99999,9",,,,,"MET051METAR ENNO 180950Z VRB06KT 9999 FEW050 17/06 Q1021;",
"01470399999","2010-05-18T10:50:00","4","59.565683","9.212222","19.2","NOTODDEN, NO","FM-15","ENNO ","V020","999,9,V,0026,1","22000,1,9,N","011265,1,N,1","+0170,1","+0060,1","99999,9","04,5,+01500,1,99,9",,,"04,99,1,99,9,99,9,99999,9,99,9,99,9",,"10210,1,99999,9",,,,,"MET051METAR ENNO 181050Z VRB05KT 9999 SCT050 17/06 Q1021;",
"01470399999","2010-05-18T12:20:00","4","59.565683","9.212222","19.2","NOTODDEN, NO","FM-15","ENNO ","V020","999,9,V,0021,1","01890,5,C,N","011265,1,N,1","+0180,1","+0060,1","99999,9","02,5,+01440,1,99,9","07,5,+01890,5,99,9",,"07,99,1,99,9,99,9,99999,9,99,9,99,9",,"10210,1,99999,9",,,,,"MET058METAR ENNO 181220Z VRB04KT 9999 FEW048 BKN063 18/06 Q1021;",
"01470399999","2010-05-18T12:50:00","4","59.565683","9.212222","19.2","NOTODDEN, NO","FM-15","ENNO ","V020","999,9,V,0021,1","01800,1,C,N","011265,1,N,1","+0190,1","+0060,1","99999,9","02,5,+01350,1,99,9","07,5,+01800,1,99,9",,"07,99,1,99,9,99,9,99999,9,99,9,99,9",,"10210,1,99999,9",,,,,"MET058METAR ENNO 181250Z VRB04KT 9999 FEW045 BKN060 19/06 Q1021;",
"01470399999","2010-05-18T13:50:00","4","59.565683","9.212222","19.2","NOTODDEN, NO","FM-15","ENNO ","V020","290,1,N,0021,1","22000,1,9,N","011265,1,N,1","+0190,1","+0070,1","99999,9","04,5,+01800,1,99,9",,,"04,99,1,99,9,99,9,99999,9,99,9,99,9",,"10210,1,99999,9",,,,,"MET051METAR ENNO 181350Z 29004KT 9999 SCT060 19/07 Q1021;",
"01470399999","2010-05-18T14:50:00","4","59.565683","9.212222","19.2","NOTODDEN, NO","FM-15","ENNO ","V020","280,1,N,0051,1","22000,1,9,N","011265,1,N,1","+0200,1","+0080,1","99999,9","04,5,+01650,5,99,9",,,"04,99,1,99,9,99,9,99999,9,99,9,99,9",,"10210,1,99999,9",,,,,"MET051METAR ENNO 181450Z 28010KT 9999 SCT055 20/08 Q1021;",
"01470399999","2010-05-18T15:50:00","4","59.565683","9.212222","19.2","NOTODDEN, NO","FM-15","ENNO ","V020","280,1,N,0041,1","22000,1,9,N","011265,1,N,1","+0190,1","+0070,1","99999,9","04,5,+01650,5,99,9",,,"04,99,1,99,9,99,9,99999,9,99,9,99,9",,"10220,1,99999,9",,,,,"MET051METAR ENNO 181550Z 28008KT 9999 SCT055 19/07 Q1022;",
"01470399999","2010-05-19T05:50:00","4","59.565683","9.212222","19.2","NOTODDEN, NO","FM-15","ENNO ","V020","260,1,N,0015,1","99999,9,9,Y","009900,1,N,1","+0130,1","+0080,1","99999,9",,,,,,"10251,1,99999,9",,,,,"MET053METAR ENNO 190550Z 26003KT 230V300 CAVOK 13/08 Q1025;",
"01470399999","2010-05-19T06:50:00","4","59.565683","9.212222","19.2","NOTODDEN, NO","FM-15","ENNO ","V020","999,9,V,0010,1","99999,9,9,Y","009900,1,N,1","+0140,1","+0080,1","99999,9",,,,,,"10251,1,99999,9",,,,,"MET045METAR ENNO 190650Z VRB02KT CAVOK 14/08 Q1025;",
"01470399999","2010-05-19T07:50:00","4","59.565683","9.212222","19.2","NOTODDEN, NO","FM-15","ENNO ","V020","280,1,N,0026,1","99999,9,9,Y","009900,1,N,1","+0160,1","+0090,1","99999,9",,,,,,"10240,1,99999,9",,,,,"MET045METAR ENNO 190750Z 28005KT CAVOK 16/09 Q1024;",
"01470399999","2010-05-19T08:50:00","4","59.565683","9.212222","19.2","NOTODDEN, NO","FM-15","ENNO ","V020","300,1,N,0021,1","99999,9,9,Y","009900,1,N,1","+0180,1","+0090,1","99999,9",,,,,,"10240,1,99999,9",,,,,"MET053METAR ENNO 190850Z 30004KT 260V350 CAVOK 18/09 Q1024;",
"01470399999","2010-05-19T09:50:00","4","59.565683","9.212222","19.2","NOTODDEN, NO","FM-15","ENNO ","V020","270,1,N,0036,1","99999,9,9,Y","009900,1,N,1","+0200,1","+0080,1","99999,9",,,,,,"10240,1,99999,9",,,,,"MET053METAR ENNO 190950Z 27007KT 210V300 CAVOK 20/08 Q1024;",
"01470399999","2010-05-19T10:50:00","4","59.565683","9.212222","19.2","NOTODDEN, NO","FM-15","ENNO ","V020","250,1,N,0026,1","99999,9,9,Y","009900,1,N,1","+0220,1","+0100,1","99999,9",,,,,,"10230,1,99999,9",,,,,"MET053METAR ENNO 191050Z 25005KT 220V310 CAVOK 22/10 Q1023;",
"01470399999","2010-05-19T11:50:00","4","59.565683","9.212222","19.2","NOTODDEN, NO","FM-15","ENNO ","V020","270,1,N,0036,1","99999,9,9,Y","009900,1,N,1","+0230,1","+0110,1","99999,9",,,,,,"10230,1,99999,9",,,,,"MET045METAR ENNO 191150Z 27007KT CAVOK 23/11 Q1023;",
"01470399999","2010-05-19T12:50:00","4","59.565683","9.212222","19.2","NOTODDEN, NO","FM-15","ENNO ","V020","999,9,V,0021,1","99999,9,C,N","011265,1,N,1","+0250,1","+0100,1","99999,9","02,5,+01710,5,99,9","04,5,+02160,5,99,9",,"04,99,1,99,9,99,9,99999,9,99,9,99,9",,"10220,1,99999,9",,,,,"MET058METAR ENNO 191250Z VRB04KT 9999 FEW057 SCT072 25/10 Q1022;","P01 021603SCOCIG"
"01470399999","2010-05-19T13:50:00","4","59.565683","9.212222","19.2","NOTODDEN, NO","FM-15","ENNO ","V020","999,9,V,0036,1","01710,5,C,N","011265,1,N,1","+0240,1","+0110,1","99999,9","07,5,+01710,5,99,9",,,"07,99,1,99,9,99,9,99999,9,99,9,99,9",,"10220,1,99999,9",,,,,"MET051METAR ENNO 191350Z VRB07KT 9999 BKN057 24/11 Q1022;",
"01470399999","2010-05-19T14:50:00","4","59.565683","9.212222","19.2","NOTODDEN, NO","FM-15","ENNO ","V020","280,1,N,0026,1","22000,1,9,N","011265,1,N,1","+0210,1","+0150,1","99999,9","04,5,+01650,5,02,1",,,"04,99,1,99,9,99,9,99999,9,99,9,99,9",,"10220,1,99999,9","81,1",,,,"MET059METAR ENNO 191450Z 28005KT 9999 SHRA SCT055TCU 21/15 Q1022;",
"01470399999","2010-05-19T15:50:00","4","59.565683","9.212222","19.2","NOTODDEN, NO","FM-15","ENNO ","V020","999,9,V,0010,1","22000,1,9,N","011265,1,N,1","+0220,1","+0130,1","99999,9","04,5,+01650,5,02,1",,,"04,99,1,99,9,99,9,99999,9,99,9,99,9",,"10220,1,99999,9","81,1",,,,"MET059METAR ENNO 191550Z VRB02KT 9999 SHRA SCT055TCU 22/13 Q1022;",
"01470399999","2010-05-19T16:50:00","4","59.565683","9.212222","19.2","NOTODDEN, NO","FM-15","ENNO ","V020","120,1,N,0046,1","22000,1,9,N","011265,1,N,1","+0210,1","+0130,1","99999,9","04,5,+01650,5,02,1",,,"04,99,1,99,9,99,9,99999,9,99,9,99,9",,"10220,1,99999,9","16,1",,,,"MET059METAR ENNO 191650Z 12009KT 9999 VCSH SCT055TCU 21/13 Q1022;",
"01470399999","2010-05-20T04:50:00","4","59.565683","9.212222","19.2","NOTODDEN, NO","FM-15","ENNO ","V020","300,1,N,0026,1","03000,1,C,N","011265,1,N,1","+0140,1","+0100,1","99999,9","02,5,+01650,5,99,9","07,5,+03000,1,99,9",,"07,99,1,99,9,99,9,99999,9,99,9,99,9",,"10251,1,99999,9",,,,,"MET058METAR ENNO 200450Z 30005KT 9999 FEW055 BKN100 14/10 Q1025;",
"01470399999","2010-05-20T05:50:00","4","59.565683","9.212222","19.2","NOTODDEN, NO","FM-15","ENNO ","V020","270,1,N,0021,1","99999,9,9,Y","009900,1,N,1","+0150,1","+0090,1","99999,9",,,,,,"10261,1,99999,9",,,,,"MET045METAR ENNO 200550Z 27004KT CAVOK 15/09 Q1026;",
"01470399999","2010-05-20T06:50:00","4","59.565683","9.212222","19.2","NOTODDEN, NO","FM-15","ENNO ","V020","290,1,N,0026,1","03300,1,C,N","011265,1,N,1","+0150,1","+0100,1","99999,9","02,5,+01350,1,99,9","07,5,+03300,1,99,9",,"07,99,1,99,9,99,9,99999,9,99,9,99,9",,"10261,1,99999,9",,,,,"MET058METAR ENNO 200650Z 29005KT 9999 FEW045 BKN110 15/10 Q1026;",
"01470399999","2010-05-20T07:50:00","4","59.565683","9.212222","19.2","NOTODDEN, NO","FM-15","ENNO ","V020","260,1,N,0026,1","22000,1,9,N","011265,1,N,1","+0160,1","+0100,1","99999,9","04,5,+01800,1,99,9",,,"04,99,1,99,9,99,9,99999,9,99,9,99,9",,"10261,1,99999,9",,,,,"MET051METAR ENNO 200750Z 26005KT 9999 SCT060 16/10 Q1026;",
"01470399999","2010-05-20T08:50:00","4","59.565683","9.212222","19.2","NOTODDEN, NO","FM-15","ENNO ","V020","270,1,N,0021,1","22000,1,9,N","011265,1,N,1","+0180,1","+0110,1","99999,9","04,5,+01800,1,02,1",,,"04,99,1,99,9,99,9,99999,9,99,9,99,9",,"10261,1,99999,9",,,,,"MET054METAR ENNO 200850Z 27004KT 9999 SCT060TCU 18/11 Q1026;",
"01470399999","2010-05-20T09:50:00","4","59.565683","9.212222","19.2","NOTODDEN, NO","FM-15","ENNO ","V020","240,1,N,0015,1","99999,9,C,N","011265,1,N,1","+0180,1","+0140,1","99999,9","02,5,+01200,1,02,1","04,5,+02850,5,99,9",,"04,99,1,99,9,99,9,99999,9,99,9,99,9",,"10251,1,99999,9","81,1",,,,"MET066METAR ENNO 200950Z 24003KT 9999 SHRA FEW040TCU SCT095 18/14 Q1025;","P01 028503SCOCIG"
"01470399999","2010-05-20T10:50:00","4","59.565683","9.212222","19.2","NOTODDEN, NO","FM-15","ENNO ","V020","130,1,N,0031,1","99999,9,C,N","011265,1,N,1","+0190,1","+0130,1","99999,9","02,5,+01800,1,02,1","04,5,+03300,1,99,9",,"04,99,1,99,9,99,9,99999,9,99,9,99,9",,"10251,1,99999,9",,,,,"MET061METAR ENNO 201050Z 13006KT 9999 FEW060TCU SCT110 19/13 Q1025;","P01 033003SCOCIG"
"01470399999","2010-05-20T11:50:00","4","59.565683","9.212222","19.2","NOTODDEN, NO","FM-15","ENNO ","V020","130,1,N,0021,1","22000,1,9,N","011265,1,N,1","+0210,1","+0130,1","99999,9","04,5,+01500,1,09,1",,,"04,99,1,99,9,99,9,99999,9,99,9,99,9",,"10240,1,99999,9",,,,,"MET053METAR ENNO 201150Z 13004KT 9999 SCT050CB 21/13 Q1024;",
"01470399999","2010-05-20T12:50:00","4","59.565683","9.212222","19.2","NOTODDEN, NO","FM-15","ENNO ","V020","120,1,N,0041,1","22000,1,9,N","011265,1,N,1","+0220,1","+0140,1","99999,9","04,5,+01500,1,09,1",,,"04,99,1,99,9,99,9,99999,9,99,9,99,9",,"10240,1,99999,9",,,,,"MET053METAR ENNO 201250Z 12008KT 9999 SCT050CB 22/14 Q1024;",
"01470399999","2010-05-20T13:50:00","4","59.565683","9.212222","19.2","NOTODDEN, NO","FM-15","ENNO ","V020","120,1,N,0041,1","99999,9,C,N","011265,1,N,1","+0220,1","+0140,1","99999,9","02,5,+01050,1,99,9","04,5,+01500,1,09,5",,"04,99,1,99,9,99,9,99999,9,99,9,99,9",,"10240,1,99999,9","17,1",,,,"MET065METAR ENNO 201350Z 12008KT 9999 VCTS FEW035 SCT050CB 22/14 Q1024;","P01 015003SCOCIG"
"01470399999","2010-05-20T14:50:00","4","59.565683","9.212222","19.2","NOTODDEN, NO","FM-15","ENNO ","V020","300,1,N,0046,1","99999,9,C,N","011265,1,N,1","+0170,1","+0140,1","99999,9","02,5,+00360,1,99,9","04,5,+01350,1,09,5",,"04,99,1,99,9,99,9,99999,9,99,9,99,9",,"10251,1,99999,9","80,1","95,1",,,"MET074METAR ENNO 201450Z 30009KT 280V340 9999 -TSRA FEW012 SCT045CB 17/14 Q1025;","P01 013503SCOCIG"
"01470399999","2010-05-20T15:50:00","4","59.565683","9.212222","19.2","NOTODDEN, NO","FM-15","ENNO ","V020","999,9,V,0010,1","99999,9,C,N","011265,1,N,1","+0160,1","+0150,1","99999,9","02,5,+00360,1,99,9","04,5,+01350,1,09,5",,"04,99,1,99,9,99,9,99999,9,99,9,99,9",,"10251,1,99999,9","80,1","95,1",,,"MET066METAR ENNO 201550Z VRB02KT 9999 -TSRA FEW012 SCT045CB 16/15 Q1025;","P01 013503SCOCIG"
"01470399999","2010-05-21T04:50:00","4","59.565683","9.212222","19.2","NOTODDEN, NO","FM-15","ENNO ","V020","999,9,V,0015,1","00900,1,C,N","011265,1,N,1","+0130,1","+0100,1","99999,9","02,5,+00360,1,99,9","07,5,+00900,1,99,9",,"07,99,1,99,9,99,9,99999,9,99,9,99,9",,"10271,1,99999,9",,,,,"MET058METAR ENNO 210450Z VRB03KT 9999 FEW012 BKN030 13/10 Q1027;",
"01470399999","2010-05-21T05:50:00","4","59.565683","9.212222","19.2","NOTODDEN, NO","FM-15","ENNO ","V020","999,9,V,0015,1","99999,9,C,N","011265,1,N,1","+0130,1","+0100,1","99999,9","02,5,+00420,1,99,9","04,5,+00900,1,99,9",,"04,99,1,99,9,99,9,99999,9,99,9,99,9",,"10271,1,99999,9",,,,,"MET058METAR ENNO 210550Z VRB03KT 9999 FEW014 SCT030 13/10 Q1027;","P01 009003SCOCIG"
"01470399999","2010-05-21T06:50:00","4","59.565683","9.212222","19.2","NOTODDEN, NO","FM-15","ENNO ","V020","999,9,V,0005,1","99999,9,C,N","011265,1,N,1","+0150,1","+0100,1","99999,9","02,5,+00420,1,99,9","04,5,+00900,1,99,9",,"04,99,1,99,9,99,9,99999,9,99,9,99,9",,"10271,1,99999,9",,,,,"MET058METAR ENNO 210650Z VRB01KT 9999 FEW014 SCT030 15/10 Q1027;","P01 009003SCOCIG"
"01470399999","2010-05-21T07:50:00","4","59.565683","9.212222","19.2","NOTODDEN, NO","FM-15","ENNO ","V020","999,9,V,0005,1","99999,9,C,N","011265,1,N,1","+0170,1","+0100,1","99999,9","02,5,+00420,1,99,9","04,5,+00900,1,99,9",,"04,99,1,99,9,99,9,99999,9,99,9,99,9",,"10271,1,99999,9",,,,,"MET058METAR ENNO 210750Z VRB01KT 9999 FEW014 SCT030 17/10 Q1027;","P01 009003SCOCIG"
"01470399999","2010-05-21T10:20:00","4","59.565683","9.212222","19.2","NOTODDEN, NO","FM-15","ENNO ","V020","130,1,N,0021,1","22000,1,9,N","011265,1,N,1","+0210,1","+0120,1","99999,9","04,5,+01200,1,99,9",,,"04,99,1,99,9,99,9,99999,9,99,9,99,9",,"10261,1,99999,9",,,,,"MET059METAR ENNO 211020Z 13004KT 080V200 9999 SCT040 21/12 Q1026;",
"01470399999","2010-05-21T10:50:00","4","59.565683","9.212222","19.2","NOTODDEN, NO","FM-15","ENNO ","V020","999,9,V,0015,1","22000,1,9,N","011265,1,N,1","+0220,1","+0110,1","99999,9","04,5,+01800,1,02,1",,,"04,99,1,99,9,99,9,99999,9,99,9,99,9",,"10261,1,99999,9",,,,,"MET054METAR ENNO 211050Z VRB03KT 9999 SCT060TCU 22/11 Q1026;",
"01470399999","2010-05-21T11:50:00","4","59.565683","9.212222","19.2","NOTODDEN, NO","FM-15","ENNO ","V020","170,1,N,0021,1","22000,1,9,N","011265,1,N,1","+0230,1","+0120,1","99999,9","04,5,+01950,5,02,1",,,"04,99,1,99,9,99,9,99999,9,99,9,99,9",,"10251,1,99999,9",,,,,"MET054METAR ENNO 211150Z 17004KT 9999 SCT065TCU 23/12 Q1025;",
"01470399999","2010-05-21T12:50:00","4","59.565683","9.212222","19.2","NOTODDEN, NO","FM-15","ENNO ","V020","170,1,N,0021,1","22000,1,9,N","011265,1,N,1","+0240,1","+0100,1","99999,9","04,5,+01950,5,02,1",,,"04,99,1,99,9,99,9,99999,9,99,9,99,9",,"10251,1,99999,9",,,,,"MET054METAR ENNO 211250Z 17004KT 9999 SCT065TCU 24/10 Q1025;",
"01470399999","2010-05-21T13:50:00","4","59.565683","9.212222","19.2","NOTODDEN, NO","FM-15","ENNO ","V020","140,1,N,0015,1","22000,1,9,N","011265,1,N,1","+0250,1","+0090,1","99999,9","04,5,+01950,5,02,1",,,"04,99,1,99,9,99,9,99999,9,99,9,99,9",,"10240,1,99999,9",,,,,"MET062METAR ENNO 211350Z 14003KT 070V210 9999 SCT065TCU 25/09 Q1024;",
"01470399999","2010-05-21T14:50:00","4","59.565683","9.212222","19.2","NOTODDEN, NO","FM-15","ENNO ","V020","999,9,V,0015,1","22000,1,9,N","011265,1,N,1","+0250,1","+0090,1","99999,9","04,5,+01800,1,02,1",,,"04,99,1,99,9,99,9,99999,9,99,9,99,9",,"10240,1,99999,9",,,,,"MET054METAR ENNO 211450Z VRB03KT 9999 SCT060TCU 25/09 Q1024;",
"01470399999","2010-05-21T15:50:00","4","59.565683","9.212222","19.2","NOTODDEN, NO","FM-15","ENNO ","V020","140,1,N,0021,1","22000,1,9,N","011265,1,N,1","+0240,1","+0090,1","99999,9","02,5,+02250,5,02,1",,,"02,99,1,99,9,99,9,99999,9,99,9,99,9",,"10230,1,99999,9",,,,,"MET054METAR ENNO 211550Z 14004KT 9999 FEW075TCU 24/09 Q1023;",
"01470399999","2010-05-24T14:20:00","4","59.565683","9.212222","19.2","NOTODDEN, NO","FM-15","ENNO ","V020","300,1,N,0046,1","00900,1,C,N","011265,1,N,1","+0090,1","+0070,1","99999,9","02,5,+00000,5,99,9","07,5,+00900,1,99,9",,"07,99,1,99,9,99,9,99999,9,99,9,99,9",,"10000,1,99999,9","40,1","61,1",,,"MET074METAR ENNO 241420Z 30009KT 9999 6000NW -RA VCFG FEW000 BKN030 09/07 Q1000;",
"01470399999","2010-05-24T14:50:00","4","59.565683","9.212222","19.2","NOTODDEN, NO","FM-15","ENNO ","V020","280,1,N,0057,1","00510,1,C,N","008000,1,N,1","+0080,1","+0060,1","99999,9","02,5,+00000,5,99,9","04,5,+00510,1,99,9","07,5,+00900,1,99,9","07,99,1,99,9,99,9,99999,9,99,9,99,9",,"10010,1,99999,9","40,1","61,1",,,"MET082METAR ENNO 241450Z 28011KT 240V330 8000 -RA VCFG FEW000 SCT017 BKN030 08/06 Q1001;",
"01470399999","2010-05-24T15:50:00","4","59.565683","9.212222","19.2","NOTODDEN, NO","FM-15","ENNO ","V020","310,1,N,0046,1","00960,1,C,N","011265,1,N,1","+0070,1","+0040,1","99999,9","02,5,+00600,1,99,9","07,5,+00960,1,99,9",,"07,99,1,99,9,99,9,99999,9,99,9,99,9",,"10000,1,99999,9","16,1",,,,"MET071METAR ENNO 241550Z 31009KT 280V340 9999 VCSH FEW020 BKN032 07/04 Q1000;",
"01470399999","2010-05-25T04:50:00","4","59.565683","9.212222","19.2","NOTODDEN, NO","FM-15","ENNO ","V020","999,9,V,0010,1","22000,1,9,N","011265,1,N,1","+0060,1","+0020,1","99999,9","02,5,+00900,1,99,9",,,"02,99,1,99,9,99,9,99999,9,99,9,99,9",,"10010,1,99999,9",,,,,"MET051METAR ENNO 250450Z VRB02KT 9999 FEW030 06/02 Q1001;",
"01470399999","2010-05-25T05:50:00","4","59.565683","9.212222","19.2","NOTODDEN, NO","FM-15","ENNO ","V020","999,9,V,0005,1","22000,1,9,N","011265,1,N,1","+0060,1","+0020,1","99999,9","02,5,+00900,1,99,9",,,"02,99,1,99,9,99,9,99999,9,99,9,99,9",,"10010,1,99999,9",,,,,"MET051METAR ENNO 250550Z VRB01KT 9999 FEW030 06/02 Q1001;",
"01470399999","2010-05-25T06:50:00","4","59.565683","9.212222","19.2","NOTODDEN, NO","FM-15","ENNO ","V020","290,1,N,0046,1","22000,1,9,N","011265,1,N,1","+0100,1","+0010,1","99999,9","02,5,+01200,1,99,9",,,"02,99,1,99,9,99,9,99999,9,99,9,99,9",,"10010,1,99999,9",,,,,"MET059METAR ENNO 250650Z 29009KT 260V340 9999 FEW040 10/01 Q1001;",
"01470399999","2010-05-25T07:50:00","4","59.565683","9.212222","19.2","NOTODDEN, NO","FM-15","ENNO ","V020","310,1,N,0046,1","99999,9,C,N","011265,1,N,1","+0110,1","+0000,1","99999,9","02,5,+01500,1,99,9","04,5,+02250,5,99,9",,"04,99,1,99,9,99,9,99999,9,99,9,99,9",,"10010,1,99999,9",,,,,"MET066METAR ENNO 250750Z 31009KT 280V020 9999 FEW050 SCT075 11/00 Q1001;","P01 022503SCOCIG"
"01470399999","2010-05-25T08:50:00","4","59.565683","9.212222","19.2","NOTODDEN, NO","FM-15","ENNO ","V020","300,1,N,0057,1","99999,9,C,N","011265,1,N,1","+0110,1","-0030,1","99999,9","02,5,+01500,1,99,9","04,5,+02250,5,99,9",,"04,99,1,99,9,99,9,99999,9,99,9,99,9",,"10010,1,99999,9",,,,,"MET067METAR ENNO 250850Z 30011KT 280V340 9999 FEW050 SCT075 11/M03 Q1001;","P01 022503SCOCIG"
"01470399999","2010-05-25T09:50:00","4","59.565683","9.212222","19.2","NOTODDEN, NO","FM-15","ENNO ","V020","300,1,N,0072,1","99999,9,C,N","011265,1,N,1","+0120,1","-0030,1","99999,9","02,5,+01650,5,99,9","04,5,+02400,1,99,9",,"04,99,1,99,9,99,9,99999,9,99,9,99,9",,"10020,1,99999,9",,,,,"MET067METAR ENNO 250950Z 30014KT 270V350 9999 FEW055 SCT080 12/M03 Q1002;","P01 024003SCOCIG"
"01470399999","2010-05-25T10:50:00","4","59.565683","9.212222","19.2","NOTODDEN, NO","FM-15","ENNO ","V020","280,1,N,0051,1","02550,5,C,N","011265,1,N,1","+0120,1","-0020,1","99999,9","04,5,+01800,1,99,9","07,5,+02550,5,99,9",,"07,99,1,99,9,99,9,99999,9,99,9,99,9",,"10020,1,99999,9",,,,"0087,1","MET062METAR ENNO 251050Z 28010G17KT 9999 SCT060 BKN085 12/M02 Q1002;",
"01470399999","2010-05-25T11:50:00","4","59.565683","9.212222","19.2","NOTODDEN, NO","FM-15","ENNO ","V020","300,1,N,0077,1","02550,5,C,N","011265,1,N,1","+0130,1","-0020,1","99999,9","04,5,+01950,5,99,9","07,5,+02550,5,99,9",,"07,99,1,99,9,99,9,99999,9,99,9,99,9",,"10020,1,99999,9",,,,"0123,1","MET070METAR ENNO 251150Z 30015G24KT 250V010 9999 SCT065 BKN085 13/M02 Q1002;",
"01470399999","2010-05-25T12:50:00","4","59.565683","9.212222","19.2","NOTODDEN, NO","FM-15","ENNO ","V020","280,1,N,0036,1","99999,9,C,N","011265,1,N,1","+0130,1","-0020,1","99999,9","02,5,+01650,5,99,9","04,5,+02700,1,99,9",,"04,99,1,99,9,99,9,99999,9,99,9,99,9",,"10020,1,99999,9",,,,,"MET059METAR ENNO 251250Z 28007KT 9999 FEW055 SCT090 13/M02 Q1002;","P01 027003SCOCIG"
"01470399999","2010-05-25T13:50:00","4","59.565683","9.212222","19.2","NOTODDEN, NO","FM-15","ENNO ","V020","280,1,N,0051,1","99999,9,C,N","011265,1,N,1","+0130,1","-0020,1","99999,9","02,5,+02100,1,99,9","04,5,+02850,5,99,9",,"04,99,1,99,9,99,9,99999,9,99,9,99,9",,"10020,1,99999,9",,,,,"MET059METAR ENNO 251350Z 28010KT 9999 FEW070 SCT095 13/M02 Q1002;","P01 028503SCOCIG"
"01470399999","2010-05-25T14:50:00","4","59.565683","9.212222","19.2","NOTODDEN, NO","FM-15","ENNO ","V020","320,1,N,0036,1","99999,9,C,N","011265,1,N,1","+0130,1","-0040,1","99999,9","02,5,+02100,1,99,9","04,5,+02850,5,99,9",,"04,99,1,99,9,99,9,99999,9,99,9,99,9",,"10020,1,99999,9",,,,,"MET059METAR ENNO 251450Z 32007KT 9999 FEW070 SCT095 13/M04 Q1002;","P01 028503SCOCIG"
"01470399999","2010-05-25T15:50:00","4","59.565683","9.212222","19.2","NOTODDEN, NO","FM-15","ENNO ","V020","999,9,V,0021,1","99999,9,9,Y","009900,1,N,1","+0130,1","-0020,1","99999,9",,,,,,"10020,1,99999,9",,,,,"MET046METAR ENNO 251550Z VRB04KT CAVOK 13/M02 Q1002;",
"01470399999","2010-05-26T04:50:00","4","59.565683","9.212222","19.2","NOTODDEN, NO","FM-15","ENNO ","V020","999,9,C,0000,1","99999,9,C,N","011265,1,N,1","+0040,1","+0010,1","99999,9","02,5,+01500,1,99,9","04,5,+02250,5,99,9",,"04,99,1,99,9,99,9,99999,9,99,9,99,9",,"10071,1,99999,9",,,,,"MET058METAR ENNO 260450Z 00000KT 9999 FEW050 SCT075 04/01 Q1007;","P01 022503SCOCIG"
"01470399999","2010-05-26T05:50:00","4","59.565683","9.212222","19.2","NOTODDEN, NO","FM-15","ENNO ","V020","280,1,N,0026,1","99999,9,C,N","011265,1,N,1","+0060,1","+0010,1","99999,9","02,5,+01800,1,99,9","04,5,+02550,5,99,9",,"04,99,1,99,9,99,9,99999,9,99,9,99,9",,"10071,1,99999,9",,,,,"MET058METAR ENNO 260550Z 28005KT 9999 FEW060 SCT085 64/01 Q1007;","P01 025503SCOCIG"
"01470399999","2010-05-26T06:50:00","4","59.565683","9.212222","19.2","NOTODDEN, NO","FM-15","ENNO ","V020","250,1,N,0021,1","99999,9,C,N","011265,1,N,1","+0070,1","+0010,1","99999,9","02,5,+01800,1,99,9","04,5,+02550,5,99,9",,"04,99,1,99,9,99,9,99999,9,99,9,99,9",,"10071,1,99999,9","61,1",,,,"MET062METAR ENNO 260650Z 25004KT 9999 -RA FEW060 SCT085 07/01 Q1007;","P01 025503SCOCIG"
"01470399999","2010-05-26T07:50:00","4","59.565683","9.212222","19.2","NOTODDEN, NO","FM-15","ENNO ","V020","280,1,N,0021,1","02100,1,C,N","011265,1,N,1","+0080,1","+0030,1","99999,9","02,5,+01500,1,99,9","04,5,+02100,1,99,9","07,5,+02850,5,99,9","07,99,1,99,9,99,9,99999,9,99,9,99,9",,"10071,1,99999,9",,,,,"MET065METAR ENNO 260750Z 28004KT 9999 FEW050 SCT070 BKN095 08/03 Q1007;",
"01470399999","2010-05-26T08:50:00","4","59.565683","9.212222","19.2","NOTODDEN, NO","FM-15","ENNO ","V020","280,1,N,0015,1","02250,5,C,N","011265,1,N,1","+0100,1","+0020,1","99999,9","02,5,+01500,1,99,9","07,5,+02250,5,99,9",,"07,99,1,99,9,99,9,99999,9,99,9,99,9",,"10071,1,99999,9",,,,,"MET066METAR ENNO 260850Z 28003KT 210V320 9999 FEW050 BKN075 10/02 Q1007;",
"01470399999","2010-05-26T09:50:00","4","59.565683","9.212222","19.2","NOTODDEN, NO","FM-15","ENNO ","V020","999,9,V,0021,1","02850,5,C,N","011265,1,N,1","+0120,1","+0000,1","99999,9","02,5,+01500,1,99,9","07,5,+02850,5,99,9",,"07,99,1,99,9,99,9,99999,9,99,9,99,9",,"10061,1,99999,9","16,1",,,,"MET064METAR ENNO 260950Z VRB04KT 9999 VCSH FEW050 BKN095 12/M00 Q1006;",
"01470399999","2010-05-26T10:50:00","4","59.565683","9.212222","19.2","NOTODDEN, NO","FM-15","ENNO ","V020","120,1,N,0026,1","02850,5,C,N","011265,1,N,1","+0120,1","+0020,1","99999,9","02,5,+01500,1,99,9","07,5,+02850,5,99,9",,"07,99,1,99,9,99,9,99999,9,99,9,99,9",,"10061,1,99999,9","16,1",,,,"MET071METAR ENNO 261050Z 12005KT 070V150 9999 VCSH FEW050 BKN095 12/02 Q1006;",
"01470399999","2010-05-26T11:50:00","4","59.565683","9.212222","19.2","NOTODDEN, NO","FM-15","ENNO ","V020","130,1,N,0051,1","99999,9,C,N","011265,1,N,1","+0130,1","+0020,1","99999,9","02,5,+01500,1,02,1","04,5,+02400,1,99,9",,"04,99,1,99,9,99,9,99999,9,99,9,99,9",,"10061,1,99999,9",,,,,"MET061METAR ENNO 261150Z 13010KT 9999 FEW050TCU SCT080 13/02 Q1006;","P01 024003SCOCIG"
"01470399999","2010-05-26T12:50:00","4","59.565683","9.212222","19.2","NOTODDEN, NO","FM-15","ENNO ","V020","120,1,N,0021,1","02100,1,C,N","011265,1,N,1","+0130,1","+0000,1","99999,9","02,5,+01500,1,99,9","04,5,+02160,5,02,5","07,5,+03300,1,99,9","07,99,1,99,9,99,9,99999,9,99,9,99,9",,"10061,1,99999,9","16,1",,,,"MET082METAR ENNO 261250Z 12004KT 070V170 9999 VCSH FEW050 SCT072TCU BKN110 13/M00 Q1006;",
"01470399999","2010-05-26T13:50:00","4","59.565683","9.212222","19.2","NOTODDEN, NO","FM-15","ENNO ","V020","340,1,N,0031,1","02400,1,C,N","011265,1,N,1","+0110,1","+0030,1","99999,9","02,5,+01050,1,99,9","02,5,+01500,1,09,5","07,5,+02400,1,99,9","07,99,1,99,9,99,9,99999,9,99,9,99,9",,"10061,1,99999,9","61,1",,,,"MET079METAR ENNO 261350Z 34006KT 230V030 9999 -RA FEW035 FEW050CB BKN080 11/03 Q1006;",
"01470399999","2010-05-26T14:50:00","4","59.565683","9.212222","19.2","NOTODDEN, NO","FM-15","ENNO ","V020","999,9,V,0015,1","01500,1,C,N","011265,1,N,1","+0130,1","+0040,1","99999,9","02,5,+00900,1,99,9","04,5,+01500,1,99,9","07,5,+02400,1,99,9","07,99,1,99,9,99,9,99999,9,99,9,99,9",,"10061,1,99999,9","16,1",,,,"MET070METAR ENNO 261450Z VRB03KT 9999 VCSH FEW030 SCT050 BKN080 13/04 Q1006;",
"01470399999","2010-05-27T04:50:00","4","59.565683","9.212222","19.2","NOTODDEN, NO","FM-15","ENNO ","V020","999,9,C,0000,1","22000,1,9,N","011265,1,N,1","+0040,1","+0030,1","99999,9","02,5,+01050,1,99,9",,,"02,99,1,99,9,99,9,99999,9,99,9,99,9",,"10071,1,99999,9",,,,,"MET051METAR ENNO 270450Z 00000KT 9999 FEW035 04/03 Q1007;",
"01470399999","2010-05-27T05:50:00","4","59.565683","9.212222","19.2","NOTODDEN, NO","FM-15","ENNO ","V020","999,9,C,0000,1","22000,1,9,N","011265,1,N,1","+0050,1","+0030,1","99999,9","02,5,+01050,1,99,9",,,"02,99,1,99,9,99,9,99999,9,99,9,99,9",,"10071,1,99999,9",,,,,"MET051METAR ENNO 270550Z 00000KT 9999 FEW035 05/03 Q1007;",
"01470399999","2010-05-27T06:50:00","4","59.565683","9.212222","19.2","NOTODDEN, NO","FM-15","ENNO ","V020","310,1,N,0021,1","22000,1,9,N","011265,1,N,1","+0080,1","+0030,1","99999,9","02,5,+01200,1,99,9",,,"02,99,1,99,9,99,9,99999,9,99,9,99,9",,"10071,1,99999,9",,,,,"MET059METAR ENNO 270650Z 31004KT 270V330 9999 FEW040 08/03 Q1007;",
"01470399999","2010-05-27T07:50:00","4","59.565683","9.212222","19.2","NOTODDEN, NO","FM-15","ENNO ","V020","300,1,N,0015,1","99999,9,C,N","011265,1,N,1","+0100,1","+0030,1","99999,9","02,5,+01050,1,99,9","04,5,+01200,1,02,5",,"04,99,1,99,9,99,9,99999,9,99,9,99,9",,"10071,1,99999,9",,,,,"MET069METAR ENNO 270750Z 30003KT 260V020 9999 FEW035 SCT040TCU 10/03 Q1007;","P01 012003SCOCIG"
"01470399999","2010-05-27T08:50:00","4","59.565683","9.212222","19.2","NOTODDEN, NO","FM-15","ENNO ","V020","130,1,N,0026,1","22000,1,9,N","011265,1,N,1","+0120,1","+0030,1","99999,9","04,5,+01050,1,09,1",,,"04,99,1,99,9,99,9,99999,9,99,9,99,9",,"10071,1,99999,9","16,1",,,,"MET066METAR ENNO 270850Z 13005KT 080V160 9999 VCSH SCT035CB 12/03 Q1007;",
"01470399999","2010-05-27T09:50:00","4","59.565683","9.212222","19.2","NOTODDEN, NO","FM-15","ENNO ","V020","070,1,N,0062,1","22000,1,9,N","011265,1,N,1","+0110,1","+0020,1","99999,9","04,5,+01050,1,02,1",,,"04,99,1,99,9,99,9,99999,9,99,9,99,9",,"10071,1,99999,9","16,1",,,,"MET067METAR ENNO 270950Z 07012KT 010V110 9999 VCSH SCT035TCU 11/02 Q1007;",
"01470399999","2010-05-27T10:50:00","4","59.565683","9.212222","19.2","NOTODDEN, NO","FM-15","ENNO ","V020","100,1,N,0026,1","22000,1,9,N","011265,1,N,1","+0110,1","+0020,1","99999,9","04,5,+01200,1,02,1",,,"04,99,1,99,9,99,9,99999,9,99,9,99,9",,"10071,1,99999,9","16,1",,,,"MET067METAR ENNO 271050Z 10005KT 020V160 9999 VCSH SCT040TCU 11/02 Q1007;",
"01470399999","2010-05-27T11:50:00","4","59.565683","9.212222","19.2","NOTODDEN, NO","FM-15","ENNO ","V020","999,9,V,0021,1","22000,1,9,N","011265,1,N,1","+0140,1","+0010,1","99999,9","04,5,+01200,1,02,1",,,"04,99,1,99,9,99,9,99999,9,99,9,99,9",,"10071,1,99999,9",,,,,"MET054METAR ENNO 271150Z VRB04KT 9999 SCT040TCU 14/01 Q1007;",
"01470399999","2010-05-27T12:50:00","4","59.565683","9.212222","19.2","NOTODDEN, NO","FM-15","ENNO ","V020","999,9,V,0015,1","22000,1,9,N","011265,1,N,1","+0150,1","+0020,1","99999,9","04,5,+01350,1,02,1",,,"04,99,1,99,9,99,9,99999,9,99,9,99,9",,"10061,1,99999,9",,,,,"MET054METAR ENNO 271250Z VRB03KT 9999 SCT045TCU 15/02 Q1006;",
"01470399999","2010-05-27T13:50:00","4","59.565683","9.212222","19.2","NOTODDEN, NO","FM-15","ENNO ","V020","120,1,N,0046,1","22000,1,9,N","011265,1,N,1","+0130,1","+0020,1","99999,9","04,5,+01500,1,99,9",,,"04,99,1,99,9,99,9,99999,9,99,9,99,9",,"10061,1,99999,9",,,,,"MET051METAR ENNO 271350Z 12009KT 9999 SCT050 13/02 Q1006;",
"01470399999","2010-05-27T14:50:00","4","59.565683","9.212222","19.2","NOTODDEN, NO","FM-15","ENNO ","V020","170,1,N,0046,1","22000,1,9,N","011265,1,N,1","+0120,1","+0000,1","99999,9","04,5,+01500,1,02,1",,,"04,99,1,99,9,99,9,99999,9,99,9,99,9",,"10071,1,99999,9","80,1",,,,"MET068METAR ENNO 271450Z 17009KT 110V230 9999 -SHRA SCT050TCU 12/00 Q1007;",
"01470399999","2010-05-27T15:50:00","4","59.565683","9.212222","19.2","NOTODDEN, NO","FM-15","ENNO ","V020","130,1,N,0031,1","22000,1,9,N","011265,1,N,1","+0140,1","+0030,1","99999,9","04,5,+01500,1,02,1",,,"04,99,1,99,9,99,9,99999,9,99,9,99,9",,"10071,1,99999,9","16,1",,,,"MET059METAR ENNO 271550Z 13006KT 9999 VCSH SCT050TCU 14/03 Q1007;",
"01470399999","2010-05-28T04:50:00","4","59.565683","9.212222","19.2","NOTODDEN, NO","FM-15","ENNO ","V020","280,1,N,0015,1","99999,9,9,Y","009900,1,N,1","+0030,1","+0020,1","99999,9",,,,,,"10091,1,99999,9",,,,,"MET045METAR ENNO 280450Z 28003KT CAVOK 03/02 Q1009;",
"01470399999","2010-05-28T05:50:00","4","59.565683","9.212222","19.2","NOTODDEN, NO","FM-15","ENNO ","V020","999,9,C,0000,1","99999,9,9,Y","009900,1,N,1","+0050,1","+0030,1","99999,9",,,,,,"10091,1,99999,9",,,,,"MET045METAR ENNO 280550Z 00000KT CAVOK 05/03 Q1009;",
"01470399999","2010-05-28T06:50:00","4","59.565683","9.212222","19.2","NOTODDEN, NO","FM-15","ENNO ","V020","999,9,C,0000,1","99999,9,9,Y","009900,1,N,1","+0080,1","+0030,1","99999,9",,,,,,"10081,1,99999,9",,,,,"MET045METAR ENNO 280650Z 00000KT CAVOK 08/03 Q1008;",
"01470399999","2010-05-28T07:50:00","4","59.565683","9.212222","19.2","NOTODDEN, NO","FM-15","ENNO ","V020","999,9,V,0005,1","22000,1,9,N","011265,1,N,1","+0110,1","+0040,1","99999,9","02,5,+01500,1,02,1",,,"02,99,1,99,9,99,9,99999,9,99,9,99,9",,"10081,1,99999,9",,,,,"MET054METAR ENNO 280750Z VRB01KT 9999 FEW050TCU 11/04 Q1008;",
"01470399999","2010-05-28T08:50:00","4","59.565683","9.212222","19.2","NOTODDEN, NO","FM-15","ENNO ","V020","120,1,N,0026,1","22000,1,9,N","011265,1,N,1","+0120,1","+0030,1","99999,9","02,5,+01500,1,02,1",,,"02,99,1,99,9,99,9,99999,9,99,9,99,9",,"10081,1,99999,9",,,,,"MET054METAR ENNO 280850Z 12005KT 9999 FEW050TCU 12/03 Q1008;",
"01470399999","2010-05-28T09:50:00","4","59.565683","9.212222","19.2","NOTODDEN, NO","FM-15","ENNO ","V020","110,1,N,0021,1","22000,1,9,N","011265,1,N,1","+0140,1","+0020,1","99999,9","04,5,+01800,1,02,1",,,"04,99,1,99,9,99,9,99999,9,99,9,99,9",,"10071,1,99999,9",,,,,"MET062METAR ENNO 280950Z 11004KT 060V190 9999 SCT060TCU 14/02 Q1007;",
"01470399999","2010-05-28T10:50:00","4","59.565683","9.212222","19.2","NOTODDEN, NO","FM-15","ENNO ","V020","140,1,N,0026,1","22000,1,9,N","011265,1,N,1","+0150,1","-0010,1","99999,9","04,5,+01800,1,02,1",,,"04,99,1,99,9,99,9,99999,9,99,9,99,9",,"10071,1,99999,9",,,,,"MET055METAR ENNO 281050Z 14005KT 9999 SCT060TCU 15/M01 Q1007;",
"01470399999","2010-05-28T11:50:00","4","59.565683","9.212222","19.2","NOTODDEN, NO","FM-15","ENNO ","V020","130,1,N,0046,1","22000,1,9,N","011265,1,N,1","+0160,1","-0030,1","99999,9","04,5,+01950,5,02,1",,,"04,99,1,99,9,99,9,99999,9,99,9,99,9",,"10061,1,99999,9",,,,,"MET055METAR ENNO 281150Z 13009KT 9999 SCT065TCU 16/M03 Q1006;",
"01470399999","2010-05-28T12:50:00","4","59.565683","9.212222","19.2","NOTODDEN, NO","FM-15","ENNO ","V020","130,1,N,0057,1","22000,1,9,N","011265,1,N,1","+0150,1","+0000,1","99999,9","04,5,+01950,5,02,1",,,"04,99,1,99,9,99,9,99999,9,99,9,99,9",,"10061,1,99999,9",,,,,"MET063METAR ENNO 281250Z 13011KT 080V160 9999 SCT065TCU 15/M00 Q1006;",
"01470399999","2010-05-28T13:50:00","4","59.565683","9.212222","19.2","NOTODDEN, NO","FM-15","ENNO ","V020","130,1,N,0072,1","02250,5,C,N","011265,1,N,1","+0150,1","+0010,1","99999,9","04,5,+01650,5,02,1","07,5,+02250,5,99,9",,"07,99,1,99,9,99,9,99999,9,99,9,99,9",,"10061,1,99999,9",,,,,"MET069METAR ENNO 281350Z 13014KT 100V160 9999 SCT055TCU BKN075 15/01 Q1006;",
"01470399999","2010-05-28T14:50:00","4","59.565683","9.212222","19.2","NOTODDEN, NO","FM-15","ENNO ","V020","130,1,N,0051,1","02100,5,9,N","011265,1,N,1","+0140,1","+0010,1","99999,9","02,5,+01650,5,02,5","04,5,+02100,5,99,9",,,,"10070,1,99999,9",,,,,"MET075METAR ENNO 281450Z 13010KT 090V200 9999 FE050 FEW055TCU SCT070 14/01 Q1007;",
"01470399999","2010-05-30T15:50:00","4","59.565683","9.212222","19.2","NOTODDEN, NO","FM-15","ENNO ","V020","110,1,N,0036,1","02700,1,C,N","011265,1,N,1","+0150,1","+0060,1","99999,9","02,5,+02100,1,99,9","07,5,+02700,1,99,9",,"07,99,1,99,9,99,9,99999,9,99,9,99,9",,"10108,1,99999,9",,,,,"MET066METAR ENNO 301550Z 11007KT 080V140 9999 FEW070 BKN090 15/06 Q1011;",
"01470399999","2010-05-30T16:50:00","4","59.565683","9.212222","19.2","NOTODDEN, NO","FM-15","ENNO ","V020","160,1,N,0015,1","99999,9,C,N","011265,1,N,1","+0150,1","+0070,1","99999,9","02,5,+02100,1,99,9","04,5,+02700,1,99,9",,"04,99,1,99,9,99,9,99999,9,99,9,99,9",,"10108,1,99999,9",,,,,"MET066METAR ENNO 301650Z 16003KT 110V200 9999 FEW070 SCT090 15/07 Q1011;","P01 027003SCOCIG"
"01470399999","2010-05-30T17:50:00","4","59.565683","9.212222","19.2","NOTODDEN, NO","FM-15","ENNO ","V020","999,9,C,0000,1","22000,1,9,N","011265,1,N,1","+0150,1","+0060,1","99999,9","02,5,+02100,1,99,9",,,"02,99,1,99,9,99,9,99999,9,99,9,99,9",,"10108,1,99999,9",,,,,"MET051METAR ENNO 301750Z 00000KT 9999 FEW070 15/06 Q1011;",
"01470399999","2010-05-31T04:50:00","4","59.565683","9.212222","19.2","NOTODDEN, NO","FM-15","ENNO ","V020","999,9,C,0000,1","99999,9,9,Y","009900,1,N,1","+0060,1","+0050,1","99999,9",,,,,,"10169,1,99999,9",,,,,"MET045METAR ENNO 310450Z 00000KT CAVOK 06/05 Q1017;",
"01470399999","2010-05-31T05:50:00","4","59.565683","9.212222","19.2","NOTODDEN, NO","FM-15","ENNO ","V020","999,9,C,0000,1","99999,9,9,Y","009900,1,N,1","+0100,1","+0060,1","99999,9",,,,,,"10169,1,99999,9",,,,,"MET045METAR ENNO 310550Z 00000KT CAVOK 10/06 Q1017;",
"01470399999","2010-05-31T06:50:00","4","59.565683","9.212222","19.2","NOTODDEN, NO","FM-15","ENNO ","V020","999,9,V,0005,1","99999,9,9,Y","009900,1,N,1","+0130,1","+0060,1","99999,9",,,,,,"10169,1,99999,9",,,,,"MET045METAR ENNO 310650Z VRB01KT CAVOK 13/06 Q1017;",
"01470399999","2010-05-31T07:50:00","4","59.565683","9.212222","19.2","NOTODDEN, NO","FM-15","ENNO ","V020","270,1,N,0015,1","99999,9,9,Y","009900,1,N,1","+0150,1","+0070,1","99999,9",,,,,,"10169,1,99999,9",,,,,"MET053METAR ENNO 310750Z 27003KT 240V300 CAVOK 15/07 Q1017;",
"01470399999","2010-05-31T08:50:00","4","59.565683","9.212222","19.2","NOTODDEN, NO","FM-15","ENNO ","V020","260,1,N,0015,1","99999,9,9,Y","009900,1,N,1","+0190,1","+0040,1","99999,9",,,,,,"10159,1,99999,9",,,,,"MET053METAR ENNO 310850Z 26003KT 160V330 CAVOK 19/04 Q1016;",
"01470399999","2010-05-31T09:50:00","4","59.565683","9.212222","19.2","NOTODDEN, NO","FM-15","ENNO ","V020","999,9,V,0010,1","99999,9,9,Y","009900,1,N,1","+0200,1","+0020,1","99999,9",,,,,,"10159,1,99999,9",,,,,"MET045METAR ENNO 310950Z VRB02KT CAVOK 20/02 Q1016;",
"01470399999","2010-05-31T10:50:00","4","59.565683","9.212222","19.2","NOTODDEN, NO","FM-15","ENNO ","V020","260,1,N,0021,1","99999,9,9,Y","009900,1,N,1","+0200,1","+0000,1","99999,9",,,,,,"10159,1,99999,9",,,,,"MET054METAR ENNO 311050Z 26004KT 230V300 CAVOK 20/M00 Q1016;",
"01470399999","2010-05-31T11:50:00","4","59.565683","9.212222","19.2","NOTODDEN, NO","FM-15","ENNO ","V020","150,1,N,0021,1","99999,9,9,Y","009900,1,N,1","+0200,1","+0000,1","99999,9",,,,,,"10159,1,99999,9",,,,,"MET053METAR ENNO 311150Z 15004KT 110V200 CAVOK 20/00 Q1016;",
"01470399999","2010-05-31T12:50:00","4","59.565683","9.212222","19.2","NOTODDEN, NO","FM-15","ENNO ","V020","999,9,V,0021,1","99999,9,9,Y","009900,1,N,1","+0210,1","+0000,1","99999,9",,,,,,"10159,1,99999,9",,,,,"MET045METAR ENNO 311250Z VRB04KT CAVOK 21/00 Q1016;",
"01470399999","2010-05-31T13:50:00","4","59.565683","9.212222","19.2","NOTODDEN, NO","FM-15","ENNO ","V020","999,9,V,0021,1","99999,9,9,Y","009900,1,N,1","+0220,1","-0020,1","99999,9",,,,,,"10159,1,99999,9",,,,,"MET046METAR ENNO 311350Z VRB04KT CAVOK 22/M02 Q1016;",
"01470399999","2010-05-31T14:50:00","4","59.565683","9.212222","19.2","NOTODDEN, NO","FM-15","ENNO ","V020","280,1,N,0026,1","99999,9,9,Y","009900,1,N,1","+0230,1","+0000,1","99999,9",,,,,,"10149,1,99999,9",,,,,"MET054METAR ENNO 311450Z 28005KT 240V320 CAVOK 23/M00 Q1015;",
"01470399999","2010-05-31T15:50:00","4","59.565683","9.212222","19.2","NOTODDEN, NO","FM-15","ENNO ","V020","999,9,V,0005,1","99999,9,9,Y","009900,1,N,1","+0230,1","-0020,1","99999,9",,,,,,"10149,1,99999,9",,,,,"MET046METAR ENNO 311550Z VRB01KT CAVOK 23/M02 Q1015;",
"01470399999","2010-06-01T04:50:00","4","59.565683","9.212222","19.2","NOTODDEN, NO","FM-15","ENNO ","V020","999,9,C,0000,1","22000,1,9,N","011265,1,N,1","+0090,1","+0050,1","99999,9","02,5,+01950,5,99,9",,,"02,99,1,99,9,99,9,99999,9,99,9,99,9",,"10169,1,99999,9",,,,,"MET051METAR ENNO 010450Z 00000KT 9999 FEW065 09/05 Q1017;",
"01470399999","2010-06-01T05:50:00","4","59.565683","9.212222","19.2","NOTODDEN, NO","FM-15","ENNO ","V020","999,9,C,0000,1","22000,1,9,N","011265,1,N,1","+0110,1","+0040,1","99999,9","02,5,+02100,1,99,9",,,"02,99,1,99,9,99,9,99999,9,99,9,99,9",,"10169,1,99999,9",,,,,"MET051METAR ENNO 010550Z 00000KT 9999 FEW070 11/04 Q1017;",
"01470399999","2010-06-01T06:50:00","4","59.565683","9.212222","19.2","NOTODDEN, NO","FM-15","ENNO ","V020","290,1,N,0021,1","99999,9,9,Y","009900,1,N,1","+0130,1","+0040,1","99999,9",,,,,,"10169,1,99999,9",,,,,"MET053METAR ENNO 010650Z 29004KT 250V330 CAVOK 13/04 Q1017;",
"01470399999","2010-06-01T07:50:00","4","59.565683","9.212222","19.2","NOTODDEN, NO","FM-15","ENNO ","V020","999,9,V,0010,1","99999,9,9,Y","009900,1,N,1","+0150,1","+0050,1","99999,9",,,,,,"10159,1,99999,9",,,,,"MET045METAR ENNO 010750Z VRB02KT CAVOK 15/05 Q1016;",
"01470399999","2010-06-01T08:50:00","4","59.565683","9.212222","19.2","NOTODDEN, NO","FM-15","ENNO ","V020","160,1,N,0015,1","99999,9,9,Y","009900,1,N,1","+0170,1","+0050,1","99999,9",,,,,,"10159,1,99999,9",,,,,"MET053METAR ENNO 010850Z 16003KT 110V240 CAVOK 17/05 Q1016;",
"01470399999","2010-06-01T09:50:00","4","59.565683","9.212222","19.2","NOTODDEN, NO","FM-15","ENNO ","V020","150,1,N,0021,1","22000,1,9,N","011265,1,N,1","+0200,1","+0050,1","99999,9","04,5,+01800,1,99,9",,,"04,99,1,99,9,99,9,99999,9,99,9,99,9",,"10149,1,99999,9",,,,,"MET059METAR ENNO 010950Z 15004KT 120V230 9999 SCT060 20/05 Q1015;",
"01470399999","2010-06-01T10:50:00","4","59.565683","9.212222","19.2","NOTODDEN, NO","FM-15","ENNO ","V020","110,1,N,0051,1","22000,1,9,N","011265,1,N,1","+0220,1","+0030,1","99999,9","04,5,+01800,1,99,9",,,"04,99,1,99,9,99,9,99999,9,99,9,99,9",,"10149,1,99999,9",,,,,"MET059METAR ENNO 011050Z 11010KT 070V140 9999 SCT060 22/03 Q1015;",
"01470399999","2010-06-01T11:50:00","4","59.565683","9.212222","19.2","NOTODDEN, NO","FM-15","ENNO ","V020","140,1,N,0051,1","02550,5,C,N","011265,1,N,1","+0220,1","+0040,1","99999,9","02,5,+01500,1,99,9","07,5,+02550,5,99,9",,"07,99,1,99,9,99,9,99999,9,99,9,99,9",,"10149,1,99999,9",,,,,"MET066METAR ENNO 011150Z 14010KT 110V200 9999 FEW050 BKN085 22/04 Q1015;",
"01470399999","2010-06-01T12:50:00","4","59.565683","9.212222","19.2","NOTODDEN, NO","FM-15","ENNO ","V020","999,9,V,0010,1","02550,5,C,N","011265,1,N,1","+0210,1","+0020,1","99999,9","02,5,+01500,1,99,9","07,5,+02550,5,99,9",,"07,99,1,99,9,99,9,99999,9,99,9,99,9",,"10149,1,99999,9",,,,,"MET058METAR ENNO 011250Z VRB02KT 9999 FEW050 BKN085 21/02 Q1015;",
"01470399999","2010-06-01T13:50:00","4","59.565683","9.212222","19.2","NOTODDEN, NO","FM-15","ENNO ","V020","999,9,V,0026,1","02550,5,C,N","011265,1,N,1","+0220,1","+0010,1","99999,9","02,5,+01500,1,99,9","07,5,+02550,5,99,9",,"07,99,1,99,9,99,9,99999,9,99,9,99,9",,"10149,1,99999,9",,,,,"MET058METAR ENNO 011350Z VRB05KT 9999 FEW050 BKN085 22/01 Q1015;",
"01470399999","2010-06-01T14:50:00","4","59.565683","9.212222","19.2","NOTODDEN, NO","FM-15","ENNO ","V020","999,9,V,0021,1","02550,5,C,N","011265,1,N,1","+0230,1","+0000,1","99999,9","02,5,+01500,1,99,9","07,5,+02550,5,99,9",,"07,99,1,99,9,99,9,99999,9,99,9,99,9",,"10149,1,99999,9",,,,,"MET058METAR ENNO 011450Z VRB04KT 9999 FEW050 BKN085 23/00 Q1015;",
"01470399999","2010-06-02T04:50:00","4","59.565683","9.212222","19.2","NOTODDEN, NO","FM-15","ENNO ","V020","999,9,C,0000,1","99999,9,9,Y","009900,1,N,1","+0070,1","+0050,1","99999,9",,,,,,"10180,1,99999,9",,,,,"MET045METAR ENNO 020450Z 00000KT CAVOK 07/05 Q1018;",
"01470399999","2010-06-02T05:50:00","4","59.565683","9.212222","19.2","NOTODDEN, NO","FM-15","ENNO ","V020","999,9,C,0000,1","99999,9,9,Y","009900,1,N,1","+0090,1","+0060,1","99999,9",,,,,,"10180,1,99999,9",,,,,"MET045METAR ENNO 020550Z 00000KT CAVOK 09/06 Q1018;",
"01470399999","2010-06-02T06:50:00","4","59.565683","9.212222","19.2","NOTODDEN, NO","FM-15","ENNO ","V020","999,9,C,0000,1","99999,9,9,Y","009900,1,N,1","+0130,1","+0050,1","99999,9",,,,,,"10169,1,99999,9",,,,,"MET045METAR ENNO 020650Z 00000KT CAVOK 13/05 Q1017;",
"01470399999","2010-06-02T07:50:00","4","59.565683","9.212222","19.2","NOTODDEN, NO","FM-15","ENNO ","V020","999,9,V,0015,1","99999,9,9,Y","009900,1,N,1","+0150,1","+0060,1","99999,9",,,,,,"10169,1,99999,9",,,,,"MET045METAR ENNO 020750Z VRB03KT CAVOK 15/06 Q1017;",
"01470399999","2010-06-02T08:50:00","4","59.565683","9.212222","19.2","NOTODDEN, NO","FM-15","ENNO ","V020","100,1,N,0041,1","99999,9,9,Y","009900,1,N,1","+0180,1","+0050,1","99999,9",,,,,,"10159,1,99999,9",,,,,"MET053METAR ENNO 020850Z 10008KT 020V130 CAVOK 18/05 Q1016;",
"01470399999","2010-06-02T09:50:00","4","59.565683","9.212222","19.2","NOTODDEN, NO","FM-15","ENNO ","V020","170,1,N,0036,1","99999,9,9,Y","009900,1,N,1","+0210,1","+0010,1","99999,9",,,,,,"10159,1,99999,9",,,,,"MET053METAR ENNO 020950Z 17007KT 120V220 CAVOK 21/01 Q1016;",
"01470399999","2010-06-02T10:50:00","4","59.565683","9.212222","19.2","NOTODDEN, NO","FM-15","ENNO ","V020","150,1,N,0036,1","99999,9,9,Y","009900,1,N,1","+0220,1","+0030,1","99999,9",,,,,,"10159,1,99999,9",,,,,"MET053METAR ENNO 021050Z 15007KT 090V210 CAVOK 22/03 Q1016;",
"01470399999","2010-06-02T11:50:00","4","59.565683","9.212222","19.2","NOTODDEN, NO","FM-15","ENNO ","V020","999,9,V,0021,1","99999,9,9,Y","009900,1,N,1","+0230,1","+0010,1","99999,9",,,,,,"10149,1,99999,9",,,,,"MET045METAR ENNO 021150Z VRB04KT CAVOK 23/01 Q1015;",
"01470399999","2010-06-02T12:50:00","4","59.565683","9.212222","19.2","NOTODDEN, NO","FM-15","ENNO ","V020","230,1,N,0021,1","99999,9,9,Y","009900,1,N,1","+0220,1","+0020,1","99999,9",,,,,,"10149,1,99999,9",,,,,"MET053METAR ENNO 021250Z 23004KT 170V280 CAVOK 22/02 Q1015;",
"01470399999","2010-06-02T13:50:00","4","59.565683","9.212222","19.2","NOTODDEN, NO","FM-15","ENNO ","V020","999,9,V,0015,1","99999,9,9,Y","009900,1,N,1","+0220,1","+0030,1","99999,9",,,,,,"10149,1,99999,9",,,,,"MET045METAR ENNO 021350Z VRB03KT CAVOK 22/03 Q1015;",
"01470399999","2010-06-02T14:50:00","4","59.565683","9.212222","19.2","NOTODDEN, NO","FM-15","ENNO ","V020","230,1,N,0031,1","99999,9,9,Y","009900,1,N,1","+0220,1","+0030,1","99999,9",,,,,,"10139,1,99999,9",,,,,"MET053METAR ENNO 021450Z 23006KT 160V290 CAVOK 22/03 Q1014;",
"01470399999","2010-06-02T15:50:00","4","59.565683","9.212222","19.2","NOTODDEN, NO","FM-15","ENNO ","V020","280,1,N,0041,1","99999,9,9,Y","009900,1,N,1","+0210,1","+0040,1","99999,9",,,,,,"10139,1,99999,9",,,,,"MET053METAR ENNO 021550Z 28008KT 230V320 CAVOK 21/04 Q1014;",
"01470399999","2010-06-03T04:50:00","4","59.565683","9.212222","19.2","NOTODDEN, NO","FM-15","ENNO ","V020","310,1,N,0021,1","99999,9,9,Y","009900,1,N,1","+0100,1","+0060,1","99999,9",,,,,,"10169,1,99999,9",,,,,"MET053METAR ENNO 030450Z 31004KT 270V010 CAVOK 10/06 Q1017;",
"01470399999","2010-06-03T05:50:00","4","59.565683","9.212222","19.2","NOTODDEN, NO","FM-15","ENNO ","V020","350,1,N,0021,1","99999,9,9,Y","009900,1,N,1","+0140,1","+0050,1","99999,9",,,,,,"10169,1,99999,9",,,,,"MET053METAR ENNO 030550Z 35004KT 300V050 CAVOK 14/05 Q1017;",
"01470399999","2010-06-03T06:50:00","4","59.565683","9.212222","19.2","NOTODDEN, NO","FM-15","ENNO ","V020","290,1,N,0021,1","99999,9,9,Y","009900,1,N,1","+0160,1","+0040,1","99999,9",,,,,,"10169,1,99999,9",,,,,"MET053METAR ENNO 030650Z 29004KT 240V360 CAVOK 16/04 Q1017;",
"01470399999","2010-06-03T07:50:00","4","59.565683","9.212222","19.2","NOTODDEN, NO","FM-15","ENNO ","V020","340,1,N,0041,1","22000,1,9,N","011265,1,N,1","+0170,1","+0020,1","99999,9","02,5,+01350,1,99,9",,,"02,99,1,99,9,99,9,99999,9,99,9,99,9",,"10169,1,99999,9",,,,,"MET059METAR ENNO 030750Z 34008KT 300V030 9999 FEW045 17/02 Q1017;",
"01470399999","2010-06-03T08:50:00","4","59.565683","9.212222","19.2","NOTODDEN, NO","FM-15","ENNO ","V020","300,1,N,0036,1","22000,1,9,N","011265,1,N,1","+0180,1","+0030,1","99999,9","02,5,+01350,1,99,9",,,"02,99,1,99,9,99,9,99999,9,99,9,99,9",,"10169,1,99999,9",,,,,"MET059METAR ENNO 030850Z 30007KT 250V340 9999 FEW045 18/03 Q1017;",
"01470399999","2010-06-03T09:50:00","4","59.565683","9.212222","19.2","NOTODDEN, NO","FM-15","ENNO ","V020","999,9,V,0031,1","99999,9,9,Y","009900,1,N,1","+0190,1","+0040,1","99999,9",,,,,,"10169,1,99999,9",,,,,"MET045METAR ENNO 030950Z VRB06KT CAVOK 19/04 Q1017;",
"01470399999","2010-06-03T10:50:00","4","59.565683","9.212222","19.2","NOTODDEN, NO","FM-15","ENNO ","V020","320,1,N,0036,1","99999,9,9,Y","009900,1,N,1","+0200,1","+0030,1","99999,9",,,,,,"10159,1,99999,9",,,,,"MET053METAR ENNO 031050Z 32007KT 260V040 CAVOK 20/03 Q1016;",
"01470399999","2010-06-03T11:50:00","4","59.565683","9.212222","19.2","NOTODDEN, NO","FM-15","ENNO ","V020","310,1,N,0062,1","99999,9,9,Y","009900,1,N,1","+0210,1","+0010,1","99999,9",,,,,,"10169,1,99999,9",,,,,"MET053METAR ENNO 031150Z 31012KT 260V360 CAVOK 21/01 Q1017;",
"01470399999","2010-06-03T12:50:00","4","59.565683","9.212222","19.2","NOTODDEN, NO","FM-15","ENNO ","V020","340,1,N,0062,1","99999,9,9,Y","009900,5,N,1","+0210,1","+0010,1","99999,9",,,,,,"10170,1,99999,9",,,,,"MET054METAR ENNO 031250Z 34012KT 2960V050 CAVOK 21/01 Q1017;",
"01470399999","2010-06-03T13:50:00","4","59.565683","9.212222","19.2","NOTODDEN, NO","FM-15","ENNO ","V020","310,1,N,0062,1","99999,9,9,Y","009900,1,N,1","+0210,1","+0020,1","99999,9",,,,,,"10169,1,99999,9",,,,,"MET053METAR ENNO 031350Z 31012KT 280V350 CAVOK 21/02 Q1017;",
"01470399999","2010-06-03T14:50:00","4","59.565683","9.212222","19.2","NOTODDEN, NO","FM-15","ENNO ","V020","320,1,N,0067,1","99999,9,9,Y","009900,1,N,1","+0200,1","+0020,1","99999,9",,,,,,"10169,1,99999,9",,,,,"MET053METAR ENNO 031450Z 32013KT 280V350 CAVOK 20/02 Q1017;",
"01470399999","2010-06-04T04:50:00","4","59.565683","9.212222","19.2","NOTODDEN, NO","FM-15","ENNO ","V020","999,9,C,0000,1","99999,9,9,Y","009900,1,N,1","+0070,1","+0040,1","99999,9",,,,,,"10220,1,99999,9",,,,,"MET045METAR ENNO 040450Z 00000KT CAVOK 07/04 Q1022;",
"01470399999","2010-06-04T05:50:00","4","59.565683","9.212222","19.2","NOTODDEN, NO","FM-15","ENNO ","V020","300,1,N,0021,1","99999,9,9,Y","009900,1,N,1","+0100,1","+0030,1","99999,9",,,,,,"10220,1,99999,9",,,,,"MET053METAR ENNO 040550Z 30004KT 260V340 CAVOK 10/03 Q1022;",
"01470399999","2010-06-04T06:50:00","4","59.565683","9.212222","19.2","NOTODDEN, NO","FM-15","ENNO ","V020","270,1,N,0021,1","99999,9,9,Y","009900,1,N,1","+0120,1","+0040,1","99999,9",,,,,,"10220,1,99999,9",,,,,"MET053METAR ENNO 040650Z 27004KT 230V330 CAVOK 12/04 Q1022;",
"01470399999","2010-06-04T07:50:00","4","59.565683","9.212222","19.2","NOTODDEN, NO","FM-15","ENNO ","V020","999,9,V,0010,1","99999,9,9,Y","009900,1,N,1","+0150,1","+0040,1","99999,9",,,,,,"10210,1,99999,9",,,,,"MET045METAR ENNO 040750Z VRB02KT CAVOK 15/04 Q1021;",
"01470399999","2010-06-04T08:50:00","4","59.565683","9.212222","19.2","NOTODDEN, NO","FM-15","ENNO ","V020","130,1,N,0026,1","99999,9,9,Y","009900,1,N,1","+0170,1","+0030,1","99999,9",,,,,,"10200,1,99999,9",,,,,"MET045METAR ENNO 040850Z 13005KT CAVOK 17/03 Q1020;",
"01470399999","2010-06-04T09:50:00","4","59.565683","9.212222","19.2","NOTODDEN, NO","FM-15","ENNO ","V020","110,1,N,0036,1","99999,9,9,Y","009900,1,N,1","+0180,1","+0040,1","99999,9",,,,,,"10200,1,99999,9",,,,,"MET045METAR ENNO 040950Z 11007KT CAVOK 18/04 Q1020;",
"01470399999","2010-06-04T10:50:00","4","59.565683","9.212222","19.2","NOTODDEN, NO","FM-15","ENNO ","V020","110,1,N,0046,1","99999,9,9,Y","009900,1,N,1","+0190,1","+0050,1","99999,9",,,,,,"10190,1,99999,9",,,,,"MET053METAR ENNO 041050Z 11009KT 070V140 CAVOK 19/05 Q1019;",
"01470399999","2010-06-04T11:50:00","4","59.565683","9.212222","19.2","NOTODDEN, NO","FM-15","ENNO ","V020","110,1,N,0062,1","99999,9,9,Y","009900,1,N,1","+0200,1","+0050,1","99999,9",,,,,,"10180,1,99999,9",,,,,"MET053METAR ENNO 041150Z 11012KT 080V130 CAVOK 20/05 Q1018;",
"01470399999","2010-06-04T12:50:00","4","59.565683","9.212222","19.2","NOTODDEN, NO","FM-15","ENNO ","V020","120,1,N,0062,1","99999,9,9,Y","009900,1,N,1","+0210,1","+0040,1","99999,9",,,,,,"10169,1,99999,9",,,,,"MET045METAR ENNO 041250Z 12012KT CAVOK 21/04 Q1017;",
"01470399999","2010-06-04T13:50:00","4","59.565683","9.212222","19.2","NOTODDEN, NO","FM-15","ENNO ","V020","110,1,N,0057,1","99999,9,9,Y","009900,1,N,1","+0220,1","+0020,1","99999,9",,,,,,"10159,1,99999,9",,,,,"MET045METAR ENNO 041350Z 11011KT CAVOK 22/02 Q1016;",
"01470399999","2010-06-04T14:50:00","4","59.565683","9.212222","19.2","NOTODDEN, NO","FM-15","ENNO ","V020","130,1,N,0046,1","99999,9,9,Y","009900,1,N,1","+0220,1","+0030,1","99999,9",,,,,,"10159,1,99999,9",,,,,"MET045METAR ENNO 041450Z 13009KT CAVOK 22/03 Q1016;",
"01470399999","2010-06-06T16:50:00","4","59.565683","9.212222","19.2","NOTODDEN, NO","FM-15","ENNO ","V020","280,1,N,0041,1","99999,9,9,Y","009900,1,N,1","+0240,1","-0010,1","99999,9",,,,,,"10061,1,99999,9",,,,,"MET046METAR ENNO 061650Z 28008KT CAVOK 24/M01 Q1006;",
"01470399999","2010-06-07T04:50:00","4","59.565683","9.212222","19.2","NOTODDEN, NO","FM-15","ENNO ","V020","300,1,N,0015,1","99999,9,9,Y","009900,1,N,1","+0090,1","+0050,1","99999,9",,,,,,"10071,1,99999,9",,,,,"MET045METAR ENNO 070450Z 30003KT CAVOK 09/05 Q1007;",
"01470399999","2010-06-07T05:50:00","4","59.565683","9.212222","19.2","NOTODDEN, NO","FM-15","ENNO ","V020","280,1,N,0015,1","99999,9,C,N","011265,1,N,1","+0110,1","+0060,1","99999,9","02,5,+00900,1,99,9","04,5,+02400,1,99,9",,"04,99,1,99,9,99,9,99999,9,99,9,99,9",,"10071,1,99999,9",,,,,"MET066METAR ENNO 070550Z 28003KT 240V320 9999 FEW030 SCT080 11/06 Q1007;","P01 024003SCOCIG"
"01470399999","2010-06-07T06:50:00","4","59.565683","9.212222","19.2","NOTODDEN, NO","FM-15","ENNO ","V020","270,1,N,0015,1","22000,1,9,N","011265,1,N,1","+0140,1","+0070,1","99999,9","04,5,+01200,1,99,9",,,"04,99,1,99,9,99,9,99999,9,99,9,99,9",,"10071,1,99999,9",,,,,"MET059METAR ENNO 070650Z 27003KT 180V310 9999 SCT040 14/07 Q1007;",
"01470399999","2010-06-07T07:50:00","4","59.565683","9.212222","19.2","NOTODDEN, NO","FM-15","ENNO ","V020","150,1,N,0015,1","22000,1,9,N","011265,1,N,1","+0150,1","+0070,1","99999,9","04,5,+01200,1,99,9",,,"04,99,1,99,9,99,9,99999,9,99,9,99,9",,"10061,1,99999,9",,,,,"MET059METAR ENNO 070750Z 15003KT 110V200 9999 SCT040 15/07 Q1006;",
"01470399999","2010-06-07T08:50:00","4","59.565683","9.212222","19.2","NOTODDEN, NO","FM-15","ENNO ","V020","240,1,N,0021,1","22000,1,9,N","011265,1,N,1","+0160,1","+0070,1","99999,9","04,5,+01200,1,99,9",,,"04,99,1,99,9,99,9,99999,9,99,9,99,9",,"10061,1,99999,9",,,,,"MET059METAR ENNO 070850Z 24004KT 210V270 9999 SCT040 16/07 Q1006;",
"01470399999","2010-06-07T09:50:00","4","59.565683","9.212222","19.2","NOTODDEN, NO","FM-15","ENNO ","V020","130,1,N,0026,1","01260,1,C,N","011265,1,N,1","+0170,1","+0070,1","99999,9","07,5,+01260,1,99,9",,,"07,99,1,99,9,99,9,99999,9,99,9,99,9",,"10061,1,99999,9",,,,,"MET059METAR ENNO 070950Z 13005KT 090V200 9999 BKN042 17/07 Q1006;",
"01470399999","2010-06-07T10:50:00","4","59.565683","9.212222","19.2","NOTODDEN, NO","FM-15","ENNO ","V020","999,9,V,0015,1","22000,1,9,N","011265,1,N,1","+0190,1","+0080,1","99999,9","04,5,+01350,1,99,9",,,"04,99,1,99,9,99,9,99999,9,99,9,99,9",,"10051,1,99999,9",,,,,"MET051METAR ENNO 071050Z VRB03KT 9999 SCT045 19/08 Q1005;",
"01470399999","2010-06-07T11:50:00","4","59.565683","9.212222","19.2","NOTODDEN, NO","FM-15","ENNO ","V020","999,9,V,0021,1","22000,1,9,N","011265,1,N,1","+0200,1","+0070,1","99999,9","04,5,+01500,1,99,9",,,"04,99,1,99,9,99,9,99999,9,99,9,99,9",,"10041,1,99999,9",,,,,"MET051METAR ENNO 071150Z VRB04KT 9999 SCT050 20/07 Q1004;",
"01470399999","2010-06-07T12:50:00","4","59.565683","9.212222","19.2","NOTODDEN, NO","FM-15","ENNO ","V020","999,9,V,0010,1","22000,1,9,N","011265,1,N,1","+0200,1","+0050,1","99999,9","04,5,+01350,1,99,9",,,"04,99,1,99,9,99,9,99999,9,99,9,99,9",,"10041,1,99999,9",,,,,"MET051METAR ENNO 071250Z VRB02KT 9999 SCT045 20/05 Q1004;",
"01470399999","2010-06-07T13:50:00","4","59.565683","9.212222","19.2","NOTODDEN, NO","FM-15","ENNO ","V020","130,1,N,0026,1","99999,9,C,N","011265,1,N,1","+0200,1","+0080,1","99999,9","02,5,+01350,1,99,9","04,5,+04500,1,99,9",,"04,99,1,99,9,99,9,99999,9,99,9,99,9",,"10041,1,99999,9",,,,,"MET058METAR ENNO 071350Z 13005KT 9999 FEW045 SCT150 20/08 Q1004;","P01 045003SCOCIG"
"01470399999","2010-06-07T14:50:00","4","59.565683","9.212222","19.2","NOTODDEN, NO","FM-15","ENNO ","V020","120,1,N,0046,1","22000,1,9,N","011265,1,N,1","+0200,1","+0080,1","99999,9","02,5,+01500,1,02,1",,,"02,99,1,99,9,99,9,99999,9,99,9,99,9",,"10031,1,99999,9",,,,,"MET054METAR ENNO 071450Z 12009KT 9999 FEW050TCU 20/08 Q1003;",
"01470399999","2010-06-07T15:50:00","4","59.565683","9.212222","19.2","NOTODDEN, NO","FM-15","ENNO ","V020","150,1,N,0031,1","22000,1,9,N","011265,1,N,1","+0210,1","+0070,1","99999,9","02,5,+01500,1,02,1",,,"02,99,1,99,9,99,9,99999,9,99,9,99,9",,"10031,1,99999,9",,,,,"MET054METAR ENNO 071550Z 15006KT 9999 FEW050TCU 21/07 Q1003;",
"01470399999","2010-06-08T04:50:00","4","59.565683","9.212222","19.2","NOTODDEN, NO","FM-15","ENNO ","V020","300,1,N,0010,1","01140,1,C,N","011265,1,N,1","+0130,1","+0110,1","99999,9","04,5,+00600,1,99,9","07,5,+01140,1,99,9",,"07,99,1,99,9,99,9,99999,9,99,9,99,9",,"10061,1,99999,9",,,,,"MET058METAR ENNO 080450Z 30002KT 9999 SCT020 BKN038 13/11 Q1006;",
"01470399999","2010-06-08T05:50:00","4","59.565683","9.212222","19.2","NOTODDEN, NO","FM-15","ENNO ","V020","999,9,V,0010,1","01170,1,C,N","011265,1,N,1","+0130,1","+0110,1","99999,9","02,5,+00600,1,99,9","07,5,+01170,1,99,9",,"07,99,1,99,9,99,9,99999,9,99,9,99,9",,"10061,1,99999,9",,,,,"MET058METAR ENNO 080550Z VRB02KT 9999 FEW020 BKN039 13/11 Q1006;",
"01470399999","2010-06-08T06:50:00","4","59.565683","9.212222","19.2","NOTODDEN, NO","FM-15","ENNO ","V020","999,9,V,0005,1","00900,1,C,N","011265,1,N,1","+0140,1","+0110,1","99999,9","02,5,+00600,1,99,9","07,5,+00900,1,99,9",,"07,99,1,99,9,99,9,99999,9,99,9,99,9",,"10071,1,99999,9","61,1",,,,"MET062METAR ENNO 080650Z VRB01KT 9999 -RA FEW020 BKN030 14/11 Q1007;",
"01470399999","2010-06-08T07:50:00","4","59.565683","9.212222","19.2","NOTODDEN, NO","FM-15","ENNO ","V020","300,1,N,0021,1","00900,1,C,N","011265,1,N,1","+0150,1","+0120,1","99999,9","07,5,+00900,1,99,9",,,"07,99,1,99,9,99,9,99999,9,99,9,99,9",,"10071,1,99999,9",,,,,"MET051METAR ENNO 080750Z 30004KT 9999 BKN030 15/12 Q1007;",
"01470399999","2010-06-08T08:50:00","4","59.565683","9.212222","19.2","NOTODDEN, NO","FM-15","ENNO ","V020","290,1,N,0026,1","01350,1,C,N","011265,1,N,1","+0150,1","+0110,1","99999,9","04,5,+00900,1,99,9","07,5,+01350,1,99,9",,"07,99,1,99,9,99,9,99999,9,99,9,99,9",,"10071,1,99999,9",,,,,"MET058METAR ENNO 080850Z 29005KT 9999 SCT030 BKN045 15/11 Q1007;",
"01470399999","2010-06-08T09:50:00","4","59.565683","9.212222","19.2","NOTODDEN, NO","FM-15","ENNO ","V020","140,1,N,0026,1","01350,1,C,N","011265,1,N,1","+0150,1","+0100,1","99999,9","04,5,+01050,1,99,9","07,5,+01350,1,99,9",,"07,99,1,99,9,99,9,99999,9,99,9,99,9",,"10071,1,99999,9","80,1",,,,"MET072METAR ENNO 080950Z 14005KT 100V190 9999 -SHRA SCT035 BKN045 15/10 Q1007;",
"01470399999","2010-06-08T10:50:00","4","59.565683","9.212222","19.2","NOTODDEN, NO","FM-15","ENNO ","V020","130,1,N,0021,1","01350,1,C,N","011265,1,N,1","+0150,1","+0100,1","99999,9","04,5,+01050,1,99,9","07,5,+01350,1,99,9",,"07,99,1,99,9,99,9,99999,9,99,9,99,9",,"10071,1,99999,9","80,1",,,,"MET072METAR ENNO 081050Z 13004KT 070V190 9999 -SHRA SCT035 BKN045 15/10 Q1007;",
"01470399999","2010-06-08T11:50:00","4","59.565683","9.212222","19.2","NOTODDEN, NO","FM-15","ENNO ","V020","999,9,V,0010,1","22000,1,9,N","011265,1,N,1","+0160,1","+0110,1","99999,9","04,5,+00900,1,99,9",,,"04,99,1,99,9,99,9,99999,9,99,9,99,9",,"10071,1,99999,9",,,,,"MET051METAR ENNO 081150Z VRB02KT 9999 SCT030 16/11 Q1007;",
"01470399999","2010-06-08T12:50:00","4","59.565683","9.212222","19.2","NOTODDEN, NO","FM-15","ENNO ","V020","110,1,N,0031,1","22000,1,9,N","011265,1,N,1","+0150,1","+0110,1","99999,9","04,5,+00900,1,99,9",,,"04,99,1,99,9,99,9,99999,9,99,9,99,9",,"10071,1,99999,9",,,,,"MET059METAR ENNO 081250Z 11006KT 080V140 9999 SCT030 15/11 Q1007;",
"01470399999","2010-06-08T13:50:00","4","59.565683","9.212222","19.2","NOTODDEN, NO","FM-15","ENNO ","V020","100,1,N,0026,1","22000,1,9,N","011265,1,N,1","+0160,1","+0110,1","99999,9","04,5,+00900,1,99,9",,,"04,99,1,99,9,99,9,99999,9,99,9,99,9",,"10071,1,99999,9",,,,,"MET059METAR ENNO 081350Z 10005KT 060V140 9999 SCT030 16/11 Q1007;",
"01470399999","2010-06-08T14:50:00","4","59.565683","9.212222","19.2","NOTODDEN, NO","FM-15","ENNO ","V020","110,1,N,0026,1","22000,1,9,N","011265,1,N,1","+0160,1","+0110,1","99999,9","04,5,+01050,1,99,9",,,"04,99,1,99,9,99,9,99999,9,99,9,99,9",,"10071,1,99999,9",,,,,"MET051METAR ENNO 081450Z 11005KT 9999 SCT035 16/11 Q1007;",
"01470399999","2010-06-08T15:50:00","4","59.565683","9.212222","19.2","NOTODDEN, NO","FM-15","ENNO ","V020","110,1,N,0041,1","22000,1,9,N","011265,1,N,1","+0160,1","+0110,1","99999,9","04,5,+01050,1,99,9",,,"04,99,1,99,9,99,9,99999,9,99,9,99,9",,"10071,1,99999,9",,,,,"MET051METAR ENNO 081550Z 11008KT 9999 SCT035 16/11 Q1007;",
"01470399999","2010-06-09T04:50:00","4","59.565683","9.212222","19.2","NOTODDEN, NO","FM-15","ENNO ","V020","999,9,C,0000,1","00390,1,C,N","011265,1,N,1","+0110,1","+0100,1","99999,9","04,5,+00120,1,99,9","07,5,+00390,1,99,9",,"07,99,1,99,9,99,9,99999,9,99,9,99,9",,"10108,1,99999,9",,,,,"MET058METAR ENNO 090450Z 00000KT 9999 SCT004 BKN013 11/10 Q1011;",
"01470399999","2010-06-09T05:50:00","4","59.565683","9.212222","19.2","NOTODDEN, NO","FM-15","ENNO ","V020","999,9,V,0010,1","00390,1,C,N","011265,1,N,1","+0120,1","+0110,1","99999,9","04,5,+00150,1,99,9","07,5,+00390,1,99,9",,"07,99,1,99,9,99,9,99999,9,99,9,99,9",,"10108,1,99999,9",,,,,"MET058METAR ENNO 090550Z VRB02KT 9999 SCT005 BKN013 12/11 Q1011;",
"01470399999","2010-06-09T06:50:00","4","59.565683","9.212222","19.2","NOTODDEN, NO","FM-15","ENNO ","V020","999,9,V,0010,1","99999,9,C,N","011265,1,N,1","+0130,1","+0110,1","99999,9","02,5,+00270,1,99,9","04,5,+00750,1,99,9",,"04,99,1,99,9,99,9,99999,9,99,9,99,9",,"10119,1,99999,9",,,,,"MET058METAR ENNO 090650Z VRB02KT 9999 FEW009 SCT025 13/11 Q1012;","P01 007503SCOCIG"
"01470399999","2010-06-09T07:50:00","4","59.565683","9.212222","19.2","NOTODDEN, NO","FM-15","ENNO ","V020","999,9,V,0005,1","99999,9,C,N","011265,1,N,1","+0150,1","+0110,1","99999,9","02,5,+00360,1,99,9","04,5,+00750,1,02,5",,"04,99,1,99,9,99,9,99999,9,99,9,99,9",,"10108,1,99999,9",,,,,"MET061METAR ENNO 090750Z VRB01KT 9999 FEW012 SCT025TCU 15/11 Q1011;","P01 007503SCOCIG"
"01470399999","2010-06-09T08:50:00","4","59.565683","9.212222","19.2","NOTODDEN, NO","FM-15","ENNO ","V020","999,9,V,0015,1","22000,1,9,N","011265,1,N,1","+0180,1","+0100,1","99999,9","04,5,+00900,1,02,1",,,"04,99,1,99,9,99,9,99999,9,99,9,99,9",,"10108,1,99999,9",,,,,"MET054METAR ENNO 090850Z VRB03KT 9999 SCT030TCU 18/10 Q1011;",
"01470399999","2010-06-09T09:50:00","4","59.565683","9.212222","19.2","NOTODDEN, NO","FM-15","ENNO ","V020","999,9,V,0005,1","22000,1,9,N","011265,1,N,1","+0180,1","+0110,1","99999,9","04,5,+01050,1,02,1",,,"04,99,1,99,9,99,9,99999,9,99,9,99,9",,"10108,1,99999,9",,,,,"MET054METAR ENNO 090950Z VRB01KT 9999 SCT035TCU 18/11 Q1011;",
"01470399999","2010-06-09T10:50:00","4","59.565683","9.212222","19.2","NOTODDEN, NO","FM-15","ENNO ","V020","130,1,N,0026,1","22000,1,9,N","011265,1,N,1","+0170,1","+0090,1","99999,9","04,5,+01050,1,02,1",,,"04,99,1,99,9,99,9,99999,9,99,9,99,9",,"10108,1,99999,9",,,,,"MET054METAR ENNO 091050Z 13005KT 9999 SCT035TCU 17/09 Q1011;",
"01470399999","2010-06-09T11:50:00","4","59.565683","9.212222","19.2","NOTODDEN, NO","FM-15","ENNO ","V020","140,1,N,0015,1","02400,1,C,N","011265,1,N,1","+0180,1","+0100,1","99999,9","04,5,+01050,1,99,9","08,5,+02400,1,99,9",,"08,99,1,99,9,99,9,99999,9,99,9,99,9",,"10108,1,99999,9",,,,,"MET058METAR ENNO 091150Z 14003KT 9999 SCT035 OVC080 18/10 Q1011;",
"01470399999","2010-06-09T12:50:00","4","59.565683","9.212222","19.2","NOTODDEN, NO","FM-15","ENNO ","V020","999,9,V,0005,1","02550,5,C,N","011265,1,N,1","+0180,1","+0100,1","99999,9","04,5,+01200,1,99,9","07,5,+02550,5,99,9",,"07,99,1,99,9,99,9,99999,9,99,9,99,9",,"10108,1,99999,9",,,,,"MET058METAR ENNO 091250Z VRB01KT 9999 SCT040 BKN085 18/10 Q1011;",
"01470399999","2010-06-09T13:50:00","4","59.565683","9.212222","19.2","NOTODDEN, NO","FM-15","ENNO ","V020","999,9,V,0005,1","02700,1,C,N","011265,1,N,1","+0190,1","+0090,1","99999,9","04,5,+01200,1,99,9","07,5,+02700,1,99,9",,"07,99,1,99,9,99,9,99999,9,99,9,99,9",,"10108,1,99999,9",,,,,"MET058METAR ENNO 091350Z VRB01KT 9999 SCT040 BKN090 19/09 Q1011;",
"01470399999","2010-06-09T14:50:00","4","59.565683","9.212222","19.2","NOTODDEN, NO","FM-15","ENNO ","V020","120,1,N,0031,1","22000,1,9,N","011265,1,N,1","+0190,1","+0110,1","99999,9","04,5,+01650,5,99,9",,,"04,99,1,99,9,99,9,99999,9,99,9,99,9",,"10108,1,99999,9",,,,,"MET051METAR ENNO 091450Z 12006KT 9999 SCT055 19/11 Q1011;",
"01470399999","2010-06-09T15:50:00","4","59.565683","9.212222","19.2","NOTODDEN, NO","FM-15","ENNO ","V020","110,1,N,0046,1","22000,1,9,N","011265,1,N,1","+0190,1","+0110,1","99999,9","04,5,+01650,5,02,1",,,"04,99,1,99,9,99,9,99999,9,99,9,99,9",,"10108,1,99999,9","16,1",,,,"MET059METAR ENNO 091550Z 11009KT 9999 VCSH SCT055TCU 19/11 Q1011;",
"01470399999","2010-06-10T04:50:00","4","59.565683","9.212222","19.2","NOTODDEN, NO","FM-15","ENNO ","V020","260,1,N,0015,1","00900,1,C,N","011265,1,N,1","+0130,1","+0120,1","99999,9","02,5,+00240,1,99,9","07,5,+00900,1,99,9",,"07,99,1,99,9,99,9,99999,9,99,9,99,9",,"10169,1,99999,9",,,,,"MET058METAR ENNO 100450Z 26003KT 9999 FEW008 BKN030 13/12 Q1017;",
"01470399999","2010-06-10T05:50:00","4","59.565683","9.212222","19.2","NOTODDEN, NO","FM-15","ENNO ","V020","280,1,N,0021,1","00900,1,C,N","011265,1,N,1","+0150,1","+0130,1","99999,9","02,5,+00240,1,99,9","04,5,+00900,1,99,9","07,5,+01650,5,99,9","07,99,1,99,9,99,9,99999,9,99,9,99,9",,"10169,1,99999,9",,,,,"MET065METAR ENNO 100550Z 28004KT 9999 FEW008 SCT030 BKN055 15/13 Q1017;",
"01470399999","2010-06-10T06:50:00","4","59.565683","9.212222","19.2","NOTODDEN, NO","FM-15","ENNO ","V020","310,1,N,0021,1","00900,1,C,N","011265,1,N,1","+0150,1","+0130,1","99999,9","02,5,+00240,1,99,9","04,5,+00900,1,99,9","07,5,+01200,1,99,9","07,99,1,99,9,99,9,99999,9,99,9,99,9",,"10169,1,99999,9",,,,,"MET065METAR ENNO 100650Z 31004KT 9999 FEW008 SCT030 BKN040 15/13 Q1017;",
"01470399999","2010-06-10T07:50:00","4","59.565683","9.212222","19.2","NOTODDEN, NO","FM-15","ENNO ","V020","999,9,V,0015,1","01050,1,C,N","011265,1,N,1","+0160,1","+0130,1","99999,9","04,5,+00750,1,99,9","07,5,+01050,1,02,5",,"07,99,1,99,9,99,9,99999,9,99,9,99,9",,"10169,1,99999,9",,,,,"MET061METAR ENNO 100750Z VRB03KT 9999 SCT025 BKN035TCU 16/13 Q1017;",
"01470399999","2010-06-10T08:50:00","4","59.565683","9.212222","19.2","NOTODDEN, NO","FM-15","ENNO ","V020","300,1,N,0021,1","02250,5,C,N","011265,1,N,1","+0170,1","+0130,1","99999,9","04,5,+01050,1,02,1","07,5,+02250,5,99,9",,"07,99,1,99,9,99,9,99999,9,99,9,99,9",,"10169,1,99999,9",,,,,"MET061METAR ENNO 100850Z 30004KT 9999 SCT035TCU BKN075 17/13 Q1017;",
"01470399999","2010-06-10T09:50:00","4","59.565683","9.212222","19.2","NOTODDEN, NO","FM-15","ENNO ","V020","060,1,N,0026,1","02250,5,C,N","011265,1,N,1","+0180,1","+0110,1","99999,9","04,5,+01050,1,02,1","07,5,+02250,5,99,9",,"07,99,1,99,9,99,9,99999,9,99,9,99,9",,"10159,1,99999,9",,,,,"MET061METAR ENNO 100950Z 06005KT 9999 SCT035TCU BKN075 18/11 Q1016;",
"01470399999","2010-06-10T10:50:00","4","59.565683","9.212222","19.2","NOTODDEN, NO","FM-15","ENNO ","V020","999,9,V,0010,1","02250,5,C,N","011265,1,N,1","+0180,1","+0110,1","99999,9","02,5,+01050,1,99,9","07,5,+02250,5,99,9",,"07,99,1,99,9,99,9,99999,9,99,9,99,9",,"10159,1,99999,9",,,,,"MET058METAR ENNO 101050Z VRB02KT 9999 FEW035 BKN075 18/11 Q1016;",
"01470399999","2010-06-10T11:50:00","4","59.565683","9.212222","19.2","NOTODDEN, NO","FM-15","ENNO ","V020","999,9,V,0010,1","02100,1,C,N","011265,1,N,1","+0180,1","+0110,1","99999,9","02,5,+01050,1,99,9","07,5,+02100,1,99,9",,"07,99,1,99,9,99,9,99999,9,99,9,99,9",,"10149,1,99999,9",,,,,"MET058METAR ENNO 101150Z VRB02KT 9999 FEW035 BKN070 18/11 Q1015;",
"01470399999","2010-06-10T12:50:00","4","59.565683","9.212222","19.2","NOTODDEN, NO","FM-15","ENNO ","V020","999,9,C,0000,1","02400,1,C,N","011265,1,N,1","+0190,1","+0110,1","99999,9","02,5,+01200,1,99,9","07,5,+02400,1,99,9",,"07,99,1,99,9,99,9,99999,9,99,9,99,9",,"10149,1,99999,9",,,,,"MET058METAR ENNO 101250Z 00000KT 9999 FEW040 BKN080 19/11 Q1015;",
"01470399999","2010-06-10T13:50:00","4","59.565683","9.212222","19.2","NOTODDEN, NO","FM-15","ENNO ","V020","999,9,V,0015,1","02400,1,C,N","011265,1,N,1","+0200,1","+0110,1","99999,9","02,5,+01200,1,99,9","07,5,+02400,1,99,9",,"07,99,1,99,9,99,9,99999,9,99,9,99,9",,"10139,1,99999,9",,,,,"MET058METAR ENNO 101350Z VRB03KT 9999 FEW040 BKN080 20/11 Q1014;",
"01470399999","2010-06-10T14:50:00","4","59.565683","9.212222","19.2","NOTODDEN, NO","FM-15","ENNO ","V020","999,9,V,0010,1","02400,1,C,N","011265,1,N,1","+0200,1","+0090,1","99999,9","02,5,+01200,1,99,9","07,5,+02400,1,99,9",,"07,99,1,99,9,99,9,99999,9,99,9,99,9",,"10139,1,99999,9",,,,,"MET058METAR ENNO 101450Z VRB02KT 9999 FEW040 BKN080 20/09 Q1014;",
"01470399999","2010-06-10T15:50:00","4","59.565683","9.212222","19.2","NOTODDEN, NO","FM-15","ENNO ","V020","090,1,N,0031,1","01800,1,C,N","011265,1,N,1","+0190,1","+0090,1","99999,9","02,5,+01200,1,99,9","04,5,+01950,5,99,9","07,5,+02700,1,99,9","07,99,1,99,9,99,9,99999,9,99,9,99,9",,"10139,1,99999,9",,,,,"MET073METAR ENNO 101550Z 09006KT 040V130 9999 FEW040 SCT065 BKN090 19/09 Q1014;",
"01470399999","2010-06-10T17:50:00","4","59.565683","9.212222","19.2","NOTODDEN, NO","FM-15","ENNO ","V020","290,1,N,0021,1","02550,5,C,N","011265,1,N,1","+0190,1","+0120,1","99999,9","02,5,+01200,1,99,9","07,5,+02550,5,99,9",,"07,99,1,99,9,99,9,99999,9,99,9,99,9",,"10119,1,99999,9",,,,,"MET058METAR ENNO 101750Z 29004KT 9999 FEW040 BKN085 19/12 Q1012;",
"01470399999","2010-06-11T04:50:00","4","59.565683","9.212222","19.2","NOTODDEN, NO","FM-15","ENNO ","V020","280,1,N,0021,1","01800,1,C,N","011265,1,N,1","+0130,1","+0120,1","99999,9","02,5,+00090,1,99,9","04,5,+01950,5,99,9","07,5,+03000,1,99,9","07,99,1,99,9,99,9,99999,9,99,9,99,9",,"10061,1,99999,9","80,1",,,,"MET071METAR ENNO 110450Z 28004KT 9999 -SHRA FEW003 SCT065 BKN100 13/12 Q1006;",
"01470399999","2010-06-11T05:50:00","4","59.565683","9.212222","19.2","NOTODDEN, NO","FM-15","ENNO ","V020","999,9,C,0000,1","01140,1,C,N","011265,1,N,1","+0130,1","+0120,1","99999,9","02,5,+00750,1,99,9","07,5,+01140,1,99,9",,"07,99,1,99,9,99,9,99999,9,99,9,99,9",,"10149,2,99999,9",,,,,"MET058METAR ENNO 110550Z 00000KT 9999 FEW025 BKN038 13/12 Q1015;",
"01470399999","2010-06-11T06:50:00","4","59.565683","9.212222","19.2","NOTODDEN, NO","FM-15","ENNO ","V020","999,9,V,0010,1","00750,1,C,N","011265,1,N,1","+0140,1","+0120,1","99999,9","02,5,+00270,1,99,9","04,5,+00750,1,99,9","07,5,+01140,1,99,9","07,99,1,99,9,99,9,99999,9,99,9,99,9",,"99999,9,99999,9",,,,,"MET065METAR ENNO 110650Z VRB02KT 9999 FEW009 SCT025 BKN038 14/12 Q1015;","Q01 101493APOA  "
"01470399999","2010-06-11T11:50:00","4","59.565683","9.212222","19.2","NOTODDEN, NO","FM-15","ENNO ","V020","300,1,N,0015,1","00600,1,C,N","011265,1,N,1","+0140,1","+0120,1","99999,9","02,5,+00180,1,99,9","07,5,+00600,1,99,9",,"07,99,1,99,9,99,9,99999,9,99,9,99,9",,,"80,1",,,,"MET072METAR ENNO 111150Z 30003KT 250V340 9999 -SHRA FEW006 BKN020 14/12 Q0999;","Q01+099903APOA  "
"01470399999","2010-06-11T12:50:00","4","59.565683","9.212222","19.2","NOTODDEN, NO","FM-15","ENNO ","V020","999,9,V,0010,1","00600,1,C,N","011265,1,N,1","+0140,1","+0120,1","99999,9","02,5,+00180,1,99,9","07,5,+00600,1,99,9",,"07,99,1,99,9,99,9,99999,9,99,9,99,9",,"09980,1,99999,9","80,1",,,,"MET064METAR ENNO 111250Z VRB02KT 9999 -SHRA FEW006 BKN020 14/12 Q0998;",
"01470399999","2010-06-11T13:50:00","4","59.565683","9.212222","19.2","NOTODDEN, NO","FM-15","ENNO ","V020","999,9,V,0005,1","00600,1,C,N","011265,1,N,1","+0150,1","+0120,1","99999,9","02,5,+00180,1,99,9","07,5,+00600,1,99,9",,"07,99,1,99,9,99,9,99999,9,99,9,99,9",,"09980,1,99999,9","80,1",,,,"MET064METAR ENNO 111350Z VRB01KT 9999 -SHRA FEW006 BKN020 15/12 Q0998;",
"01470399999","2010-06-11T14:50:00","4","59.565683","9.212222","19.2","NOTODDEN, NO","FM-15","ENNO ","V020","999,9,V,0010,1","00540,1,C,N","011265,1,N,1","+0140,1","+0120,1","99999,9","02,5,+00180,1,99,9","07,5,+00540,1,99,9","08,5,+00780,1,99,9","08,99,1,99,9,99,9,99999,9,99,9,99,9",,"09970,1,99999,9","80,1",,,,"MET071METAR ENNO 111450Z VRB02KT 9999 -SHRA FEW006 BKN018 OVC026 14/12 Q0997;",
"01470399999","2010-06-11T15:50:00","4","59.565683","9.212222","19.2","NOTODDEN, NO","FM-15","ENNO ","V020","170,1,N,0015,1","99999,9,C,N","011265,1,N,1","+0140,1","+0120,1","99999,9","02,5,+00180,1,99,9","04,5,+00750,1,99,9",,"04,99,1,99,9,99,9,99999,9,99,9,99,9",,"09959,1,99999,9",,,,,"MET066METAR ENNO 111550Z 17003KT 150V210 9999 FEW006 SCT025 14/12 Q0996;","P01 007503SCOCIG"
"01470399999","2010-06-13T15:50:00","4","59.565683","9.212222","19.2","NOTODDEN, NO","FM-15","ENNO ","V020","999,9,V,0015,1","99999,9,C,N","011265,1,N,1","+0180,1","+0060,1","99999,9","04,5,+01260,1,99,9","04,5,+02730,5,99,9",,"04,99,1,99,9,99,9,99999,9,99,9,99,9",,"10061,1,99999,9",,,,,"MET058METAR ENNO 131550Z VRB03KT 9999 SCT042 SCT091 18/06 Q1006;","P01 027303SCOCIG"
"01470399999","2010-06-13T16:50:00","4","59.565683","9.212222","19.2","NOTODDEN, NO","FM-15","ENNO ","V020","999,9,V,0010,1","99999,9,C,N","011265,1,N,1","+0170,1","+0070,1","99999,9","02,5,+01260,1,99,9","04,5,+02160,5,99,9","04,5,+02940,5,99,9","04,99,1,99,9,99,9,99999,9,99,9,99,9",,"10061,1,99999,9",,,,,"MET065METAR ENNO 131650Z VRB02KT 9999 FEW042 SCT072 SCT098 17/07 Q1006;","P01 021603SCOCIG"
"01470399999","2010-06-13T17:50:00","4","59.565683","9.212222","19.2","NOTODDEN, NO","FM-15","ENNO ","V020","300,1,N,0015,1","99999,9,C,N","011265,1,N,1","+0160,1","+0080,1","99999,9","02,5,+01260,1,99,9","04,5,+01830,5,99,9","04,5,+02940,5,99,9","04,99,1,99,9,99,9,99999,9,99,9,99,9",,"10061,1,99999,9",,,,,"MET065METAR ENNO 131750Z 30003KT 9999 FEW042 SCT061 SCT098 16/08 Q1006;","P01 018303SCOCIG"
"01470399999","2010-06-14T04:50:00","4","59.565683","9.212222","19.2","NOTODDEN, NO","FM-15","ENNO ","V020","290,1,N,0021,1","01500,1,C,N","011265,1,N,1","+0090,1","+0080,1","99999,9","08,5,+01500,1,99,9",,,"08,99,1,99,9,99,9,99999,9,99,9,99,9",,"10119,1,99999,9",,,,,"MET051METAR ENNO 140450Z 29004KT 9999 OVC050 09/08 Q1012;",
"01470399999","2010-06-14T05:50:00","4","59.565683","9.212222","19.2","NOTODDEN, NO","FM-15","ENNO ","V020","280,1,N,0021,1","01500,1,C,N","011265,1,N,1","+0100,1","+0080,1","99999,9","08,5,+01500,1,99,9",,,"08,99,1,99,9,99,9,99999,9,99,9,99,9",,"10129,1,99999,9","61,1",,,,"MET055METAR ENNO 140550Z 28004KT 9999 -RA OVC050 10/08 Q1013;",
"01470399999","2010-06-14T06:50:00","4","59.565683","9.212222","19.2","NOTODDEN, NO","FM-15","ENNO ","V020","280,1,N,0031,1","01290,1,C,N","011265,1,N,1","+0100,1","+0080,1","99999,9","07,5,+01290,1,99,9",,,"07,99,1,99,9,99,9,99999,9,99,9,99,9",,"10139,1,99999,9","61,1",,,,"MET055METAR ENNO 140650Z 28006KT 9999 -RA BKN043 10/08 Q1014;",
"01470399999","2010-06-14T07:50:00","4","59.565683","9.212222","19.2","NOTODDEN, NO","FM-15","ENNO ","V020","999,9,C,0000,1","02100,1,C,N","011265,1,N,1","+0110,1","+0080,1","99999,9","02,5,+01350,1,99,9","04,5,+02100,1,99,9","07,5,+02850,5,99,9","07,99,1,99,9,99,9,99999,9,99,9,99,9",,"10139,1,99999,9",,,,,"MET065METAR ENNO 140750Z 00000KT 9999 FEW045 SCT070 BKN095 11/08 Q1014;",
"01470399999","2010-06-14T08:50:00","4","59.565683","9.212222","19.2","NOTODDEN, NO","FM-15","ENNO ","V020","150,1,N,0031,1","02850,5,C,N","011265,1,N,1","+0130,1","+0060,1","99999,9","04,5,+01110,1,99,9","07,5,+02850,5,99,9",,"07,99,1,99,9,99,9,99999,9,99,9,99,9",,"10139,1,99999,9",,,,,"MET066METAR ENNO 140850Z 15006KT 100V230 9999 SCT037 BKN095 13/06 Q1014;",
"01470399999","2010-06-14T09:50:00","4","59.565683","9.212222","19.2","NOTODDEN, NO","FM-15","ENNO ","V020","999,9,V,0005,1","01350,1,C,N","011265,1,N,1","+0150,1","+0060,1","99999,9","07,5,+01350,1,99,9",,,"07,99,1,99,9,99,9,99999,9,99,9,99,9",,"10139,1,99999,9",,,,,"MET051METAR ENNO 140950Z VRB01KT 9999 BKN045 15/06 Q1014;",
"01470399999","2010-06-14T10:50:00","4","59.565683","9.212222","19.2","NOTODDEN, NO","FM-15","ENNO ","V020","150,1,N,0036,1","99999,9,C,N","011265,1,N,1","+0160,1","+0050,1","99999,9","02,5,+01350,1,99,9","04,5,+01800,1,99,9",,"04,99,1,99,9,99,9,99999,9,99,9,99,9",,"10139,1,99999,9",,,,,"MET058METAR ENNO 141050Z 15007KT 9999 FEW045 SCT060 16/05 Q1014;","P01 018003SCOCIG"
"01470399999","2010-06-14T11:50:00","4","59.565683","9.212222","19.2","NOTODDEN, NO","FM-15","ENNO ","V020","999,9,V,0026,1","01800,1,C,N","011265,1,N,1","+0150,1","+0050,1","99999,9","04,5,+01290,1,99,9","07,5,+01800,1,99,9",,"07,99,1,99,9,99,9,99999,9,99,9,99,9",,"10139,1,99999,9",,,,,"MET058METAR ENNO 141150Z VRB05KT 9999 SCT043 BKN060 15/05 Q1014;",
"01470399999","2010-06-14T12:50:00","4","59.565683","9.212222","19.2","NOTODDEN, NO","FM-15","ENNO ","V020","999,9,V,0010,1","01290,1,C,N","011265,1,N,1","+0130,1","+0070,1","99999,9","07,5,+01290,1,99,9","07,5,+02940,5,99,9",,"07,99,1,99,9,99,9,99999,9,99,9,99,9",,"10139,1,99999,9",,,,,"MET058METAR ENNO 141250Z VRB02KT 9999 BKN043 BKN098 13/07 Q1014;",
"01470399999","2010-06-14T13:50:00","4","59.565683","9.212222","19.2","NOTODDEN, NO","FM-15","ENNO ","V020","130,1,N,0026,1","01290,1,C,N","011265,1,N,1","+0150,1","+0080,1","99999,9","02,5,+00840,1,99,9","07,5,+01290,1,99,9","07,5,+02850,5,99,9","07,99,1,99,9,99,9,99999,9,99,9,99,9",,"10139,1,99999,9",,,,,"MET073METAR ENNO 141350Z 13005KT 100V160 9999 FEW028 BKN043 BKN095 15/08 Q1014;",
"01470399999","2010-06-14T14:50:00","4","59.565683","9.212222","19.2","NOTODDEN, NO","FM-15","ENNO ","V020","120,1,N,0031,1","01350,1,C,N","011265,1,N,1","+0150,1","+0060,1","99999,9","02,5,+00840,1,99,9","04,5,+01350,1,99,9","07,5,+02850,5,99,9","07,99,1,99,9,99,9,99999,9,99,9,99,9",,"10129,1,99999,9","16,1",,,,"MET070METAR ENNO 141450Z 12006KT 9999 VCSH FEW028 SCT045 BKN095 15/06 Q1013;",
"01470399999","2010-06-15T04:50:00","4","59.565683","9.212222","19.2","NOTODDEN, NO","FM-15","ENNO ","V020","999,9,C,0000,1","22000,1,9,N","011265,1,N,1","+0070,1","+0050,1","99999,9","02,5,+00450,1,99,9",,,"02,99,1,99,9,99,9,99999,9,99,9,99,9",,"10220,1,99999,9",,,,,"MET051METAR ENNO 150450Z 00000KT 9999 FEW015 07/05 Q1022;",
"01470399999","2010-06-15T05:50:00","4","59.565683","9.212222","19.2","NOTODDEN, NO","FM-15","ENNO ","V020","290,1,N,0026,1","99999,9,9,Y","009900,1,N,1","+0080,1","+0050,1","99999,9",,,,,,"10220,1,99999,9",,,,,"MET045METAR ENNO 150550Z 29005KT CAVOK 08/05 Q1022;",
"01470399999","2010-06-15T06:50:00","4","59.565683","9.212222","19.2","NOTODDEN, NO","FM-15","ENNO ","V020","999,9,V,0015,1","99999,9,9,Y","009900,1,N,1","+0110,1","+0050,1","99999,9",,,,,,"10220,1,99999,9",,,,,"MET045METAR ENNO 150650Z VRB03KT CAVOK 11/05 Q1022;",
"01470399999","2010-06-15T07:50:00","4","59.565683","9.212222","19.2","NOTODDEN, NO","FM-15","ENNO ","V020","999,9,V,0005,1","99999,9,9,Y","009900,1,N,1","+0130,1","+0050,1","99999,9",,,,,,"10220,1,99999,9",,,,,"MET045METAR ENNO 150750Z VRB01KT CAVOK 13/05 Q1022;",
"01470399999","2010-06-15T08:50:00","4","59.565683","9.212222","19.2","NOTODDEN, NO","FM-15","ENNO ","V020","160,1,N,0021,1","22000,1,9,N","011265,1,N,1","+0150,1","+0050,1","99999,9","02,5,+01350,1,99,9",,,"02,99,1,99,9,99,9,99999,9,99,9,99,9",,"10220,1,99999,9",,,,,"MET059METAR ENNO 150850Z 16004KT 140V200 9999 FEW045 15/05 Q1022;",
"01470399999","2010-06-15T09:50:00","4","59.565683","9.212222","19.2","NOTODDEN, NO","FM-15","ENNO ","V020","999,9,V,0021,1","99999,9,9,Y","009900,1,N,1","+0160,1","+0050,1","99999,9",,,,,,"10210,1,99999,9",,,,,"MET045METAR ENNO 150950Z VRB04KT CAVOK 16/05 Q1021;",
"01470399999","2010-06-15T10:50:00","4","59.565683","9.212222","19.2","NOTODDEN, NO","FM-15","ENNO ","V020","170,1,N,0026,1","99999,9,9,Y","009900,1,N,1","+0180,1","+0040,1","99999,9",,,,,,"10210,1,99999,9",,,,,"MET045METAR ENNO 151050Z 17005KT CAVOK 18/04 Q1021;",
"01470399999","2010-06-15T11:50:00","4","59.565683","9.212222","19.2","NOTODDEN, NO","FM-15","ENNO ","V020","999,9,V,0021,1","99999,9,9,Y","009900,1,N,1","+0180,1","+0030,1","99999,9",,,,,,"10210,1,99999,9",,,,,"MET045METAR ENNO 151150Z VRB04KT CAVOK 18/03 Q1021;",
"01470399999","2010-06-15T12:50:00","4","59.565683","9.212222","19.2","NOTODDEN, NO","FM-15","ENNO ","V020","160,1,N,0026,1","99999,9,9,Y","009900,1,N,1","+0180,1","+0010,1","99999,9",,,,,,"10210,1,99999,9",,,,,"MET053METAR ENNO 151250Z 16005KT 100V230 CAVOK 18/01 Q1021;",
"01470399999","2010-06-15T13:50:00","4","59.565683","9.212222","19.2","NOTODDEN, NO","FM-15","ENNO ","V020","230,1,N,0021,1","99999,9,9,Y","009900,1,N,1","+0190,1","+0000,1","99999,9",,,,,,"10210,1,99999,9",,,,,"MET053METAR ENNO 151350Z 23004KT 160V280 CAVOK 19/00 Q1021;",
"01470399999","2010-06-15T14:50:00","4","59.565683","9.212222","19.2","NOTODDEN, NO","FM-15","ENNO ","V020","080,1,N,0031,1","99999,9,9,Y","009900,1,N,1","+0190,1","+0010,1","99999,9",,,,,,"10200,1,99999,9",,,,,"MET053METAR ENNO 151450Z 08006KT 020V140 CAVOK 19/01 Q1020;",
"01470399999","2010-06-15T15:50:00","4","59.565683","9.212222","19.2","NOTODDEN, NO","FM-15","ENNO ","V020","150,1,N,0026,1","99999,9,9,Y","009900,1,N,1","+0200,1","+0020,1","99999,9",,,,,,"10200,1,99999,9",,,,,"MET045METAR ENNO 151550Z 15005KT CAVOK 20/02 Q1020;",
"01470399999","2010-06-16T04:50:00","4","59.565683","9.212222","19.2","NOTODDEN, NO","FM-15","ENNO ","V020","999,9,C,0000,1","99999,9,9,Y","009900,1,N,1","+0070,1","+0060,1","99999,9",,,,,,"10230,1,99999,9",,,,,"MET045METAR ENNO 160450Z 00000KT CAVOK 07/06 Q1023;",
"01470399999","2010-06-16T06:50:00","4","59.565683","9.212222","19.2","NOTODDEN, NO","FM-15","ENNO ","V020","250,1,N,0015,1","99999,9,9,Y","009900,1,N,1","+0120,1","+0070,1","99999,9",,,,,,"10220,1,99999,9",,,,,"MET045METAR ENNO 160650Z 25003KT CAVOK 12/07 Q1022;",
"01470399999","2010-06-16T07:50:00","4","59.565683","9.212222","19.2","NOTODDEN, NO","FM-15","ENNO ","V020","999,9,C,0000,1","99999,9,9,Y","009900,1,N,1","+0160,1","+0070,1","99999,9",,,,,,"10220,1,99999,9",,,,,"MET045METAR ENNO 160750Z 00000KT CAVOK 16/07 Q1022;",
"01470399999","2010-06-16T08:50:00","4","59.565683","9.212222","19.2","NOTODDEN, NO","FM-15","ENNO ","V020","130,1,N,0021,1","99999,9,9,Y","009900,1,N,1","+0160,1","+0070,1","99999,9",,,,,,"10210,1,99999,9",,,,,"MET045METAR ENNO 160850Z 13004KT CAVOK 16/07 Q1021;",
"01470399999","2010-06-16T09:50:00","4","59.565683","9.212222","19.2","NOTODDEN, NO","FM-15","ENNO ","V020","120,1,N,0031,1","99999,9,9,Y","009900,1,N,1","+0190,1","+0060,1","99999,9",,,,,,"10200,1,99999,9",,,,,"MET045METAR ENNO 160950Z 12006KT CAVOK 19/06 Q1020;",
"01470399999","2010-06-16T10:50:00","4","59.565683","9.212222","19.2","NOTODDEN, NO","FM-15","ENNO ","V020","110,1,N,0046,1","99999,9,9,Y","009900,1,N,1","+0200,1","+0060,1","99999,9",,,,,,"10200,1,99999,9",,,,,"MET053METAR ENNO 161050Z 11009KT 080V140 CAVOK 20/06 Q1020;",
"01470399999","2010-06-16T11:50:00","4","59.565683","9.212222","19.2","NOTODDEN, NO","FM-15","ENNO ","V020","110,1,N,0051,1","99999,9,9,Y","009900,1,N,1","+0210,1","+0050,1","99999,9",,,,,,"10190,1,99999,9",,,,,"MET045METAR ENNO 161150Z 11010KT CAVOK 21/05 Q1019;",
"01470399999","2010-06-16T12:50:00","4","59.565683","9.212222","19.2","NOTODDEN, NO","FM-15","ENNO ","V020","110,1,N,0046,1","99999,9,9,Y","009900,1,N,1","+0220,1","+0050,1","99999,9",,,,,,"10180,1,99999,9",,,,,"MET053METAR ENNO 161250Z 11009KT 070V130 CAVOK 22/05 Q1018;",
"01470399999","2010-06-16T13:50:00","4","59.565683","9.212222","19.2","NOTODDEN, NO","FM-15","ENNO ","V020","100,1,N,0046,1","99999,9,9,Y","009900,1,N,1","+0230,1","+0030,1","99999,9",,,,,,"10180,1,99999,9",,,,,"MET053METAR ENNO 161350Z 10009KT 070V130 CAVOK 23/03 Q1018;",
"01470399999","2010-06-16T14:50:00","4","59.565683","9.212222","19.2","NOTODDEN, NO","FM-15","ENNO ","V020","100,1,N,0062,1","99999,9,9,Y","009900,1,N,1","+0220,1","+0070,1","99999,9",,,,,,"10169,1,99999,9",,,,,"MET053METAR ENNO 161450Z 10012KT 070V130 CAVOK 22/07 Q1017;",
"01470399999","2010-06-17T04:50:00","4","59.565683","9.212222","19.2","NOTODDEN, NO","FM-15","ENNO ","V020","999,9,C,0000,1","99999,9,9,Y","009900,1,N,1","+0090,1","+0080,1","99999,9",,,,,,"10200,1,99999,9",,,,,"MET045METAR ENNO 170450Z 00000KT CAVOK 09/08 Q1020;",
"01470399999","2010-06-17T05:50:00","4","59.565683","9.212222","19.2","NOTODDEN, NO","FM-15","ENNO ","V020","999,9,V,0010,1","99999,9,9,Y","009900,1,N,1","+0120,1","+0080,1","99999,9",,,,,,"10200,1,99999,9",,,,,"MET045METAR ENNO 170550Z VRB02KT CAVOK 12/08 Q1020;",
"01470399999","2010-06-17T06:50:00","4","59.565683","9.212222","19.2","NOTODDEN, NO","FM-15","ENNO ","V020","999,9,V,0005,1","99999,9,9,Y","009900,1,N,1","+0150,1","+0070,1","99999,9",,,,,,"10190,1,99999,9",,,,,"MET045METAR ENNO 170650Z VRB01KT CAVOK 15/07 Q1019;",
"01470399999","2010-06-17T07:50:00","4","59.565683","9.212222","19.2","NOTODDEN, NO","FM-15","ENNO ","V020","999,9,V,0005,1","99999,9,9,Y","009900,1,N,1","+0180,1","+0080,1","99999,9",,,,,,"10180,1,99999,9",,,,,"MET045METAR ENNO 170750Z VRB01KT CAVOK 18/08 Q1018;",
"01470399999","2010-06-17T08:50:00","4","59.565683","9.212222","19.2","NOTODDEN, NO","FM-15","ENNO ","V020","120,1,N,0031,1","99999,9,9,Y","009900,1,N,1","+0190,1","+0070,1","99999,9",,,,,,"10180,1,99999,9",,,,,"MET045METAR ENNO 170850Z 12006KT CAVOK 19/07 Q1018;",
"01470399999","2010-06-17T09:50:00","4","59.565683","9.212222","19.2","NOTODDEN, NO","FM-15","ENNO ","V020","100,1,N,0057,1","99999,9,9,Y","009900,1,N,1","+0200,1","+0070,1","99999,9",,,,,,"10169,1,99999,9",,,,,"MET045METAR ENNO 170950Z 10011KT CAVOK 20/07 Q1017;",
"01470399999","2010-06-17T10:50:00","4","59.565683","9.212222","19.2","NOTODDEN, NO","FM-15","ENNO ","V020","100,1,N,0062,1","99999,9,9,Y","009900,1,N,1","+0220,1","+0080,1","99999,9",,,,,,"10159,1,99999,9",,,,,"MET045METAR ENNO 171050Z 10012KT CAVOK 22/08 Q1016;",
"01470399999","2010-06-17T11:50:00","4","59.565683","9.212222","19.2","NOTODDEN, NO","FM-15","ENNO ","V020","100,1,N,0067,1","99999,9,9,Y","009900,1,N,1","+0220,1","+0080,1","99999,9",,,,,,"10149,1,99999,9",,,,"0098,1","MET048METAR ENNO 171150Z 10013G19KT CAVOK 22/08 Q1015;",
"01470399999","2010-06-17T12:50:00","4","59.565683","9.212222","19.2","NOTODDEN, NO","FM-15","ENNO ","V020","100,1,N,0067,1","99999,9,9,Y","009900,1,N,1","+0230,1","+0080,1","99999,9",,,,,,"10139,1,99999,9",,,,"0093,1","MET048METAR ENNO 171250Z 10013G18KT CAVOK 23/08 Q1014;",
"01470399999","2010-06-17T13:50:00","4","59.565683","9.212222","19.2","NOTODDEN, NO","FM-15","ENNO ","V020","100,1,N,0051,1","99999,9,9,Y","009900,1,N,1","+0250,1","+0100,1","99999,9",,,,,,"10129,1,99999,9",,,,"0093,1","MET056METAR ENNO 171350Z 10010G18KT 070V150 CAVOK 25/10 Q1013;",
"01470399999","2010-06-17T14:50:00","4","59.565683","9.212222","19.2","NOTODDEN, NO","FM-15","ENNO ","V020","110,1,N,0057,1","99999,9,9,Y","009900,1,N,1","+0250,1","+0110,1","99999,9",,,,,,"10119,1,99999,9",,,,,"MET045METAR ENNO 171450Z 11011KT CAVOK 25/11 Q1012;",
"01470399999","2010-06-17T15:50:00","4","59.565683","9.212222","19.2","NOTODDEN, NO","FM-15","ENNO ","V020","130,1,N,0051,1","22000,1,9,N","011265,1,N,1","+0230,1","+0120,1","99999,9","04,5,+01500,1,99,9",,,"04,99,1,99,9,99,9,99999,9,99,9,99,9",,"10119,1,99999,9",,,,"0098,1","MET054METAR ENNO 171550Z 13010G19KT 9999 SCT050 23/12 Q1012;",
"01470399999","2010-06-18T04:50:00","4","59.565683","9.212222","19.2","NOTODDEN, NO","FM-15","ENNO ","V020","300,1,N,0067,1","99999,9,9,Y","009900,1,N,1","+0130,1","+0010,1","99999,9",,,,,,"10051,1,99999,9",,,,"0113,1","MET048METAR ENNO 180450Z 30013G22KT CAVOK 13/01 Q1005;",
"01470399999","2010-06-18T05:50:00","4","59.565683","9.212222","19.2","NOTODDEN, NO","FM-15","ENNO ","V020","320,1,N,0062,1","99999,9,9,Y","009900,1,N,1","+0140,1","-0010,1","99999,9",,,,,,"10051,1,99999,9",,,,"0103,1","MET049METAR ENNO 180550Z 32012G20KT CAVOK 14/M01 Q1005;",
"01470399999","2010-06-18T06:50:00","4","59.565683","9.212222","19.2","NOTODDEN, NO","FM-15","ENNO ","V020","310,1,N,0077,1","99999,9,9,Y","009900,1,N,1","+0140,1","-0010,1","99999,9",,,,,,"10051,1,99999,9",,,,"0129,1","MET049METAR ENNO 180650Z 31015G25KT CAVOK 14/M01 Q1005;",
"01470399999","2010-06-18T07:50:00","4","59.565683","9.212222","19.2","NOTODDEN, NO","FM-15","ENNO ","V020","350,1,N,0046,1","22000,1,9,N","011265,1,N,1","+0150,1","+0000,1","99999,9","02,5,+02100,1,99,9",,,"02,99,1,99,9,99,9,99999,9,99,9,99,9",,"10051,1,99999,9",,,,,"MET052METAR ENNO 180750Z 35009KT 9999 FEW070 15/M00 Q1005;",
"01470399999","2010-06-18T09:20:00","4","59.565683","9.212222","19.2","NOTODDEN, NO","FM-15","ENNO ","V020","310,1,N,0036,1","02100,1,C,N","011265,1,N,1","+0150,1","+0000,1","99999,9","07,5,+02100,1,99,9",,,"07,99,1,99,9,99,9,99999,9,99,9,99,9",,"10031,1,99999,9",,,,,"MET051METAR ENNO 180920Z 31007KT 9999 BKN070 15/00 Q1003;",
"01470399999","2010-06-18T09:50:00","4","59.565683","9.212222","19.2","NOTODDEN, NO","FM-15","ENNO ","V020","320,1,N,0057,1","22000,1,9,N","011265,1,N,1","+0150,1","+0000,1","99999,9","04,5,+02100,1,99,9",,,"04,99,1,99,9,99,9,99999,9,99,9,99,9",,"10031,1,99999,9",,,,"0093,1","MET054METAR ENNO 180950Z 32011G18KT 9999 SCT070 15/00 Q1003;",
"01470399999","2010-06-18T11:20:00","4","59.565683","9.212222","19.2","NOTODDEN, NO","FM-15","ENNO ","V020","310,1,N,0072,1","22000,1,9,N","011265,1,N,1","+0160,1","-0010,1","99999,9","04,5,+02100,1,99,9",,,"04,99,1,99,9,99,9,99999,9,99,9,99,9",,"10010,1,99999,9",,,,,"MET052METAR ENNO 181120Z 31014KT 9999 SCT070 16/M01 Q1001;",
"01470399999","2010-06-18T11:50:00","4","59.565683","9.212222","19.2","NOTODDEN, NO","FM-15","ENNO ","V020","300,1,N,0067,1","99999,9,C,N","011265,1,N,1","+0160,1","-0010,1","99999,9","02,5,+01980,5,99,9","04,5,+02700,1,02,5","04,5,+03600,1,99,9","04,99,1,99,9,99,9,99999,9,99,9,99,9",,"10010,1,99999,9",,,,,"MET069METAR ENNO 181150Z 30013KT 9999 FEW066 SCT090TCU SCT120 16/M01 Q1001;","P01 027003SCOCIG"
"01470399999","2010-06-18T12:50:00","4","59.565683","9.212222","19.2","NOTODDEN, NO","FM-15","ENNO ","V020","050,1,N,0051,1","02700,1,C,N","011265,1,N,1","+0120,1","+0040,1","99999,9","02,5,+01980,5,99,9","07,5,+02700,1,02,5",,"07,99,1,99,9,99,9,99999,9,99,9,99,9",,"10020,1,99999,9",,,,,"MET074METAR ENNO 181250Z 05010KT 360V080 9999 FEW066 BKN090TCU 12/04 Q1002 RERA;",
"01470399999","2010-06-18T13:50:00","4","59.565683","9.212222","19.2","NOTODDEN, NO","FM-15","ENNO ","V020","320,1,N,0057,1","02580,5,C,N","011265,1,N,1","+0140,1","+0030,1","99999,9","02,5,+01770,5,99,9","07,5,+02580,5,02,5",,"07,99,1,99,9,99,9,99999,9,99,9,99,9",,"10020,1,99999,9","63,1","90,1",,"0144,1","MET069METAR ENNO 181350Z 32011G28KT 9999 RAGR FEW059 BKN086TCU 14/03 Q1002;",
"01470399999","2010-06-18T14:50:00","4","59.565683","9.212222","19.2","NOTODDEN, NO","FM-15","ENNO ","V020","999,9,V,0005,1","22000,1,9,N","011265,1,N,1","+0140,1","+0080,1","99999,9","04,5,+01800,1,99,9",,,"04,99,1,99,9,99,9,99999,9,99,9,99,9",,"10010,1,99999,9",,,,,"MET051METAR ENNO 181450Z VRB01KT 9999 SCT060 14/08 Q1001;",
"01470399999","2010-06-20T15:50:00","4","59.565683","9.212222","19.2","NOTODDEN, NO","FM-15","ENNO ","V020","130,1,N,0031,1","99999,9,9,Y","009900,1,N,1","+0190,1","-0010,1","99999,9",,,,,,"10091,1,99999,9",,,,,"MET046METAR ENNO 201550Z 13006KT CAVOK 19/M01 Q1009;",
"01470399999","2010-06-20T16:50:00","4","59.565683","9.212222","19.2","NOTODDEN, NO","FM-15","ENNO ","V020","160,1,N,0021,1","99999,9,9,Y","009900,1,N,1","+0190,1","+0010,1","99999,9",,,,,,"10091,1,99999,9",,,,,"MET053METAR ENNO 201650Z 16004KT 110V220 CAVOK 19/01 Q1009;",
"01470399999","2010-06-20T17:50:00","4","59.565683","9.212222","19.2","NOTODDEN, NO","FM-15","ENNO ","V020","140,1,N,0051,1","99999,9,9,Y","009900,1,N,1","+0180,1","+0020,1","99999,9",,,,,,"10102,1,99999,9",,,,,"MET045METAR ENNO 201750Z 14010KT CAVOK 18/02 Q1010;",
"01470399999","2010-06-21T04:50:00","4","59.565683","9.212222","19.2","NOTODDEN, NO","FM-15","ENNO ","V020","999,9,C,0000,1","99999,9,9,Y","009900,1,N,1","+0080,1","+0050,1","99999,9",,,,,,"10180,1,99999,9",,,,,"MET045METAR ENNO 210450Z 00000KT CAVOK 08/05 Q1018;",
"01470399999","2010-06-21T05:50:00","4","59.565683","9.212222","19.2","NOTODDEN, NO","FM-15","ENNO ","V020","280,1,N,0015,1","99999,9,9,Y","009900,1,N,1","+0100,1","+0060,1","99999,9",,,,,,"10180,1,99999,9",,,,,"MET053METAR ENNO 210550Z 28003KT 230V320 CAVOK 10/06 Q1018;",
"01470399999","2010-06-21T06:50:00","4","59.565683","9.212222","19.2","NOTODDEN, NO","FM-15","ENNO ","V020","270,1,N,0021,1","99999,9,9,Y","009900,1,N,1","+0120,1","+0060,1","99999,9",,,,,,"10180,1,99999,9",,,,,"MET053METAR ENNO 210650Z 27004KT 230V320 CAVOK 12/06 Q1018;",
"01470399999","2010-06-21T07:50:00","4","59.565683","9.212222","19.2","NOTODDEN, NO","FM-15","ENNO ","V020","999,9,V,0010,1","99999,9,9,Y","009900,1,N,1","+0140,1","+0060,1","99999,9",,,,,,"10169,1,99999,9",,,,,"MET045METAR ENNO 210750Z VRB02KT CAVOK 14/06 Q1017;",
"01470399999","2010-06-21T08:50:00","4","59.565683","9.212222","19.2","NOTODDEN, NO","FM-15","ENNO ","V020","130,1,N,0026,1","99999,9,9,Y","009900,1,N,1","+0170,1","+0050,1","99999,9",,,,,,"10169,1,99999,9",,,,,"MET045METAR ENNO 210850Z 13005KT CAVOK 17/05 Q1017;",
"01470399999","2010-06-21T09:50:00","4","59.565683","9.212222","19.2","NOTODDEN, NO","FM-15","ENNO ","V020","110,1,N,0057,1","99999,9,9,Y","009900,1,N,1","+0190,1","+0040,1","99999,9",,,,,,"10169,1,99999,9",,,,,"MET045METAR ENNO 210950Z 11011KT CAVOK 19/04 Q1017;",
"01470399999","2010-06-21T10:50:00","4","59.565683","9.212222","19.2","NOTODDEN, NO","FM-15","ENNO ","V020","110,1,N,0046,1","22000,1,9,N","011265,1,N,1","+0190,1","+0070,1","99999,9","04,5,+01800,1,99,9",,,"04,99,1,99,9,99,9,99999,9,99,9,99,9",,"10169,1,99999,9",,,,,"MET051METAR ENNO 211050Z 11009KT 9999 SCT060 19/07 Q1017;",
"01470399999","2010-06-21T11:50:00","4","59.565683","9.212222","19.2","NOTODDEN, NO","FM-15","ENNO ","V020","120,1,N,0046,1","22000,1,9,N","011265,1,N,1","+0190,1","+0060,1","99999,9","04,5,+01800,1,99,9",,,"04,99,1,99,9,99,9,99999,9,99,9,99,9",,"10169,1,99999,9",,,,,"MET051METAR ENNO 211150Z 12009KT 9999 SCT060 19/06 Q1017;",
"01470399999","2010-06-21T12:50:00","4","59.565683","9.212222","19.2","NOTODDEN, NO","FM-15","ENNO ","V020","110,1,N,0041,1","22000,1,9,N","011265,1,N,1","+0210,1","+0070,1","99999,9","04,5,+01800,1,99,9",,,"04,99,1,99,9,99,9,99999,9,99,9,99,9",,"10159,1,99999,9",,,,,"MET051METAR ENNO 211250Z 11008KT 9999 SCT060 21/07 Q1016;",
"01470399999","2010-06-21T13:50:00","4","59.565683","9.212222","19.2","NOTODDEN, NO","FM-15","ENNO ","V020","110,1,N,0057,1","22000,1,9,N","011265,1,N,1","+0210,1","+0070,1","99999,9","04,5,+01950,5,99,9",,,"04,99,1,99,9,99,9,99999,9,99,9,99,9",,"10159,1,99999,9",,,,,"MET051METAR ENNO 211350Z 11011KT 9999 SCT065 21/07 Q1016;",
"01470399999","2010-06-21T14:50:00","4","59.565683","9.212222","19.2","NOTODDEN, NO","FM-15","ENNO ","V020","120,1,N,0057,1","22000,1,9,N","011265,1,N,1","+0200,1","+0080,1","99999,9","04,5,+01950,5,99,9",,,"04,99,1,99,9,99,9,99999,9,99,9,99,9",,"10159,1,99999,9",,,,,"MET051METAR ENNO 211450Z 12011KT 9999 SCT065 20/08 Q1016;",
"01470399999","2010-06-21T15:50:00","4","59.565683","9.212222","19.2","NOTODDEN, NO","FM-15","ENNO ","V020","130,1,N,0046,1","99999,9,9,Y","009900,1,N,1","+0210,1","+0080,1","99999,9",,,,,,"10159,1,99999,9",,,,,"MET045METAR ENNO 211550Z 13009KT CAVOK 21/08 Q1016;",
"01470399999","2010-06-22T04:50:00","4","59.565683","9.212222","19.2","NOTODDEN, NO","FM-15","ENNO ","V020","999,9,V,0005,1","99999,9,9,Y","009900,1,N,1","+0090,1","+0070,1","99999,9",,,,,,"10180,1,99999,9",,,,,"MET045METAR ENNO 220450Z VRB01KT CAVOK 09/07 Q1018;",
"01470399999","2010-06-22T05:50:00","4","59.565683","9.212222","19.2","NOTODDEN, NO","FM-15","ENNO ","V020","999,9,V,0005,1","99999,9,9,Y","009900,1,N,1","+0110,1","+0070,1","99999,9",,,,,,"10169,1,99999,9",,,,,"MET045METAR ENNO 220550Z VRB01KT CAVOK 11/07 Q1017;",
"01470399999","2010-06-22T06:50:00","4","59.565683","9.212222","19.2","NOTODDEN, NO","FM-15","ENNO ","V020","999,9,V,0005,1","99999,9,9,Y","009900,1,N,1","+0130,1","+0080,1","99999,9",,,,,,"10169,1,99999,9",,,,,"MET045METAR ENNO 220650Z VRB01KT CAVOK 13/08 Q1017;",
"01470399999","2010-06-22T07:50:00","4","59.565683","9.212222","19.2","NOTODDEN, NO","FM-15","ENNO ","V020","130,1,N,0021,1","99999,9,9,Y","009900,1,N,1","+0150,1","+0080,1","99999,9",,,,,,"10169,1,99999,9",,,,,"MET045METAR ENNO 220750Z 13004KT CAVOK 15/08 Q1017;",
"01470399999","2010-06-22T08:50:00","4","59.565683","9.212222","19.2","NOTODDEN, NO","FM-15","ENNO ","V020","110,1,N,0041,1","99999,9,9,Y","009900,1,N,1","+0170,1","+0080,1","99999,9",,,,,,"10169,1,99999,9",,,,,"MET045METAR ENNO 220850Z 11008KT CAVOK 17/08 Q1017;",
"01470399999","2010-06-22T09:50:00","4","59.565683","9.212222","19.2","NOTODDEN, NO","FM-15","ENNO ","V020","100,1,N,0051,1","99999,9,9,Y","009900,1,N,1","+0200,1","+0080,1","99999,9",,,,,,"10159,1,99999,9",,,,,"MET053METAR ENNO 220950Z 10010KT 040V120 CAVOK 20/08 Q1016;",
"01470399999","2010-06-22T10:50:00","4","59.565683","9.212222","19.2","NOTODDEN, NO","FM-15","ENNO ","V020","110,1,N,0046,1","99999,9,9,Y","009900,1,N,1","+0210,1","+0090,1","99999,9",,,,,,"10149,1,99999,9",,,,,"MET045METAR ENNO 221050Z 11009KT CAVOK 21/09 Q1015;",
"01470399999","2010-06-22T12:50:00","4","59.565683","9.212222","19.2","NOTODDEN, NO","FM-15","ENNO ","V020","120,1,N,0036,1","99999,9,9,Y","009900,1,N,1","+0230,1","+0090,1","99999,9",,,,,,"10149,1,99999,9",,,,,"MET053METAR ENNO 221250Z 12007KT 060V190 CAVOK 23/09 Q1015;",
"01470399999","2010-06-22T13:50:00","4","59.565683","9.212222","19.2","NOTODDEN, NO","FM-15","ENNO ","V020","130,1,N,0051,1","99999,9,9,Y","009900,1,N,1","+0230,1","+0090,1","99999,9",,,,,,"10139,1,99999,9",,,,,"MET053METAR ENNO 221350Z 13010KT 070V190 CAVOK 23/09 Q1014;",
"01470399999","2010-06-22T14:50:00","4","59.565683","9.212222","19.2","NOTODDEN, NO","FM-15","ENNO ","V020","999,9,V,0036,1","99999,9,9,Y","009900,1,N,1","+0240,1","+0080,1","99999,9",,,,,,"10139,1,99999,9",,,,,"MET045METAR ENNO 221450Z VRB07KT CAVOK 24/08 Q1014;",
"01470399999","2010-06-22T15:50:00","4","59.565683","9.212222","19.2","NOTODDEN, NO","FM-15","ENNO ","V020","110,1,N,0036,1","99999,9,9,Y","009900,1,N,1","+0230,1","+0070,1","99999,9",,,,,,"10139,1,99999,9",,,,,"MET053METAR ENNO 221550Z 11007KT 050V190 CAVOK 23/07 Q1014;",
"01470399999","2010-06-23T04:50:00","4","59.565683","9.212222","19.2","NOTODDEN, NO","FM-15","ENNO ","V020","320,1,N,0015,1","99999,9,9,Y","009900,1,N,1","+0100,1","+0070,1","99999,9",,,,,,"10190,1,99999,9",,,,,"MET053METAR ENNO 230450Z 32003KT 280V350 CAVOK 10/07 Q1019;",
"01470399999","2010-06-23T05:50:00","4","59.565683","9.212222","19.2","NOTODDEN, NO","FM-15","ENNO ","V020","999,9,C,0000,1","99999,9,9,Y","009900,1,N,1","+0120,1","+0070,1","99999,9",,,,,,"10190,1,99999,9",,,,,"MET045METAR ENNO 230550Z 00000KT CAVOK 12/07 Q1019;",
"01470399999","2010-06-23T06:50:00","4","59.565683","9.212222","19.2","NOTODDEN, NO","FM-15","ENNO ","V020","999,9,V,0010,1","99999,9,9,Y","009900,1,N,1","+0140,1","+0070,1","99999,9",,,,,,"10190,1,99999,9",,,,,"MET045METAR ENNO 230650Z VRB02KT CAVOK 14/07 Q1019;",
"01470399999","2010-06-23T07:50:00","4","59.565683","9.212222","19.2","NOTODDEN, NO","FM-15","ENNO ","V020","130,1,N,0026,1","99999,9,9,Y","009900,1,N,1","+0170,1","+0090,1","99999,9",,,,,,"10180,1,99999,9",,,,,"MET045METAR ENNO 230750Z 13005KT CAVOK 17/09 Q1018;",
"01470399999","2010-06-23T08:50:00","4","59.565683","9.212222","19.2","NOTODDEN, NO","FM-15","ENNO ","V020","130,1,N,0046,1","99999,9,9,Y","009900,1,N,1","+0180,1","+0110,1","99999,9",,,,,,"10180,1,99999,9",,,,,"MET045METAR ENNO 230850Z 13009KT CAVOK 18/11 Q1018;",
"01470399999","2010-06-23T09:50:00","4","59.565683","9.212222","19.2","NOTODDEN, NO","FM-15","ENNO ","V020","130,1,N,0041,1","99999,9,9,Y","009900,1,N,1","+0180,1","+0100,1","99999,9",,,,,,"10180,1,99999,9",,,,,"MET045METAR ENNO 230950Z 13008KT CAVOK 18/10 Q1018;",
"01470399999","2010-06-23T11:50:00","4","59.565683","9.212222","19.2","NOTODDEN, NO","FM-15","ENNO ","V020","110,1,N,0062,1","99999,9,9,Y","009900,1,N,1","+0200,1","+0110,1","99999,9",,,,,,"10169,1,99999,9",,,,,"MET045METAR ENNO 231150Z 11012KT CAVOK 20/11 Q1017;",
"01470399999","2010-06-23T12:50:00","4","59.565683","9.212222","19.2","NOTODDEN, NO","FM-15","ENNO ","V020","110,1,N,0062,1","99999,9,9,Y","009900,1,N,1","+0220,1","+0090,1","99999,9",,,,,,"10169,1,99999,9",,,,,"MET045METAR ENNO 231250Z 11012KT CAVOK 22/09 Q1017;",
"01470399999","2010-06-23T13:50:00","4","59.565683","9.212222","19.2","NOTODDEN, NO","FM-15","ENNO ","V020","110,1,N,0057,1","99999,9,9,Y","009900,1,N,1","+0230,1","+0070,1","99999,9",,,,,,"10159,1,99999,9",,,,,"MET045METAR ENNO 231350Z 11011KT CAVOK 23/07 Q1016;",
"01470399999","2010-06-23T15:50:00","4","59.565683","9.212222","19.2","NOTODDEN, NO","FM-15","ENNO ","V020","110,1,N,0057,1","99999,9,9,Y","009900,1,N,1","+0210,1","+0090,1","99999,9",,,,,,"10159,1,99999,9",,,,,"MET053METAR ENNO 231550Z 11011KT 060V130 CAVOK 21/09 Q1016;",
"01470399999","2010-06-24T04:50:00","4","59.565683","9.212222","19.2","NOTODDEN, NO","FM-15","ENNO ","V020","999,9,V,0005,1","00270,1,C,N","011265,1,N,1","+0110,1","+0090,1","99999,9","08,5,+00270,1,99,9",,,"08,99,1,99,9,99,9,99999,9,99,9,99,9",,"10159,1,99999,9",,,,,"MET051METAR ENNO 240450Z VRB01KT 9999 OVC009 11/09 Q1016;",
"01470399999","2010-06-24T05:50:00","4","59.565683","9.212222","19.2","NOTODDEN, NO","FM-15","ENNO ","V020","999,9,V,0005,1","00270,1,C,N","011265,1,N,1","+0120,1","+0100,1","99999,9","08,5,+00270,1,99,9",,,"08,99,1,99,9,99,9,99999,9,99,9,99,9",,"10159,1,99999,9",,,,,"MET051METAR ENNO 240550Z VRB01KT 9999 OVC009 12/10 Q1016;",
"01470399999","2010-06-24T06:50:00","4","59.565683","9.212222","19.2","NOTODDEN, NO","FM-15","ENNO ","V020","999,9,V,0005,1","00270,1,C,N","011265,1,N,1","+0130,1","+0100,1","99999,9","07,5,+00270,1,99,9","08,5,+00540,1,99,9",,"08,99,1,99,9,99,9,99999,9,99,9,99,9",,"10149,1,99999,9",,,,,"MET058METAR ENNO 240650Z VRB01KT 9999 BKN009 OVC018 13/10 Q1015;",
"01470399999","2010-06-24T08:50:00","4","59.565683","9.212222","19.2","NOTODDEN, NO","FM-15","ENNO ","V020","999,9,V,0005,1","00450,1,C,N","011265,1,N,1","+0140,1","+0100,1","99999,9","07,5,+00450,1,99,9",,,"07,99,1,99,9,99,9,99999,9,99,9,99,9",,"10149,1,99999,9",,,,,"MET051METAR ENNO 240850Z VRB01KT 9999 BKN015 14/10 Q1015;",
"01470399999","2010-06-24T09:50:00","4","59.565683","9.212222","19.2","NOTODDEN, NO","FM-15","ENNO ","V020","140,1,N,0036,1","00630,1,C,N","011265,1,N,1","+0160,1","+0110,1","99999,9","04,5,+00450,1,99,9","07,5,+00630,1,99,9",,"07,99,1,99,9,99,9,99999,9,99,9,99,9",,"10139,1,99999,9",,,,,"MET058METAR ENNO 240950Z 14007KT 9999 SCT015 BKN021 16/11 Q1014;",
"01470399999","2010-06-24T10:50:00","4","59.565683","9.212222","19.2","NOTODDEN, NO","FM-15","ENNO ","V020","130,1,N,0036,1","00630,1,C,N","011265,1,N,1","+0160,1","+0110,1","99999,9","04,5,+00450,1,99,9","07,5,+00630,1,99,9",,"07,99,1,99,9,99,9,99999,9,99,9,99,9",,"10139,1,99999,9",,,,,"MET058METAR ENNO 241050Z 13007KT 9999 SCT015 BKN021 16/11 Q1014;",
"01470399999","2010-06-24T11:50:00","4","59.565683","9.212222","19.2","NOTODDEN, NO","FM-15","ENNO ","V020","120,1,N,0041,1","00660,1,C,N","011265,1,N,1","+0160,1","+0110,1","99999,9","07,5,+00660,1,99,9",,,"07,99,1,99,9,99,9,99999,9,99,9,99,9",,"10139,1,99999,9",,,,,"MET059METAR ENNO 241150Z 12008KT 080V150 9999 BKN022 16/11 Q1014;",
"01470399999","2010-06-24T12:50:00","4","59.565683","9.212222","19.2","NOTODDEN, NO","FM-15","ENNO ","V020","120,1,N,0057,1","22000,1,9,N","011265,1,N,1","+0170,1","+0120,1","99999,9","04,5,+00810,1,99,9",,,"04,99,1,99,9,99,9,99999,9,99,9,99,9",,"10129,1,99999,9",,,,,"MET051METAR ENNO 241250Z 12011KT 9999 SCT027 17/12 Q1013;",
"01470399999","2010-06-24T13:50:00","4","59.565683","9.212222","19.2","NOTODDEN, NO","FM-15","ENNO ","V020","110,1,N,0062,1","22000,1,9,N","011265,1,N,1","+0190,1","+0110,1","99999,9","04,5,+00900,1,99,9",,,"04,99,1,99,9,99,9,99999,9,99,9,99,9",,"10129,1,99999,9",,,,,"MET059METAR ENNO 241350Z 11012KT 080V140 9999 SCT030 19/11 Q1013;",
"01470399999","2010-06-24T14:50:00","4","59.565683","9.212222","19.2","NOTODDEN, NO","FM-15","ENNO ","V020","110,1,N,0057,1","22000,1,9,N","011265,1,N,1","+0190,1","+0110,1","99999,9","04,5,+00900,1,99,9",,,"04,99,1,99,9,99,9,99999,9,99,9,99,9",,"10119,1,99999,9",,,,,"MET059METAR ENNO 241450Z 11011KT 070V140 9999 SCT030 19/11 Q1012;",
"01470399999","2010-06-25T04:50:00","4","59.565683","9.212222","19.2","NOTODDEN, NO","FM-15","ENNO ","V020","999,9,C,0000,1","22000,1,9,N","011265,1,N,1","+0130,1","+0120,1","99999,9","02,5,+00270,1,99,9",,,"02,99,1,99,9,99,9,99999,9,99,9,99,9",,"10091,1,99999,9",,,,,"MET051METAR ENNO 250450Z 00000KT 9999 FEW009 13/12 Q1009;",
"01470399999","2010-06-25T05:50:00","4","59.565683","9.212222","19.2","NOTODDEN, NO","FM-15","ENNO ","V020","999,9,V,0005,1","22000,1,9,N","011265,1,N,1","+0160,1","+0100,1","99999,9","02,5,+01200,1,99,9",,,"02,99,1,99,9,99,9,99999,9,99,9,99,9",,"10091,1,99999,9",,,,,"MET051METAR ENNO 250550Z VRB01KT 9999 FEW040 16/10 Q1009;",
"01470399999","2010-06-25T06:50:00","4","59.565683","9.212222","19.2","NOTODDEN, NO","FM-15","ENNO ","V020","999,9,V,0010,1","22000,1,9,N","011265,1,N,1","+0180,1","+0080,1","99999,9","02,5,+01500,1,99,9",,,"02,99,1,99,9,99,9,99999,9,99,9,99,9",,"10091,1,99999,9",,,,,"MET051METAR ENNO 250650Z VRB02KT 9999 FEW050 18/08 Q1009;",
"01470399999","2010-06-25T07:50:00","4","59.565683","9.212222","19.2","NOTODDEN, NO","FM-15","ENNO ","V020","999,9,V,0015,1","22000,1,9,N","011265,1,N,1","+0200,1","+0060,1","99999,9","02,5,+01650,5,99,9",,,"02,99,1,99,9,99,9,99999,9,99,9,99,9",,"10091,1,99999,9",,,,,"MET051METAR ENNO 250750Z VRB03KT 9999 FEW055 20/06 Q1009;",
"01470399999","2010-06-25T08:50:00","4","59.565683","9.212222","19.2","NOTODDEN, NO","FM-15","ENNO ","V020","300,1,N,0026,1","22000,1,9,N","011265,1,N,1","+0190,1","+0050,1","99999,9","04,5,+01800,1,99,9",,,"04,99,1,99,9,99,9,99999,9,99,9,99,9",,"10091,1,99999,9",,,,,"MET059METAR ENNO 250850Z 30005KT 260V330 9999 SCT060 19/05 Q1009;",
"01470399999","2010-06-25T09:50:00","4","59.565683","9.212222","19.2","NOTODDEN, NO","FM-15","ENNO ","V020","260,1,N,0036,1","22000,1,9,N","011265,1,N,1","+0200,1","+0050,1","99999,9","04,5,+01800,1,99,9",,,"04,99,1,99,9,99,9,99999,9,99,9,99,9",,"10091,1,99999,9",,,,,"MET059METAR ENNO 250950Z 26007KT 210V310 9999 SCT060 20/05 Q1009;",
"01470399999","2010-06-25T10:50:00","4","59.565683","9.212222","19.2","NOTODDEN, NO","FM-15","ENNO ","V020","270,1,N,0021,1","02850,5,C,N","011265,1,N,1","+0200,1","+0060,1","99999,9","04,5,+01950,5,99,9","07,5,+02850,5,99,9",,"07,99,1,99,9,99,9,99999,9,99,9,99,9",,"10081,1,99999,9",,,,,"MET066METAR ENNO 251050Z 27004KT 230V320 9999 SCT065 BKN095 20/06 Q1008;",
"01470399999","2010-06-25T11:50:00","4","59.565683","9.212222","19.2","NOTODDEN, NO","FM-15","ENNO ","V020","310,1,N,0046,1","02850,5,C,N","011265,1,N,1","+0210,1","+0060,1","99999,9","04,5,+01950,5,99,9","07,5,+02850,5,99,9",,"07,99,1,99,9,99,9,99999,9,99,9,99,9",,"10081,1,99999,9",,,,,"MET058METAR ENNO 251150Z 31009KT 9999 SCT065 BKN095 21/06 Q1008;",
"01470399999","2010-06-25T13:50:00","4","59.565683","9.212222","19.2","NOTODDEN, NO","FM-15","ENNO ","V020","999,9,V,0010,1","02250,5,C,N","011265,1,N,1","+0210,1","+0060,1","99999,9","04,5,+01800,1,99,9","07,5,+02250,5,99,9",,"07,99,1,99,9,99,9,99999,9,99,9,99,9",,"10071,1,99999,9",,,,,"MET058METAR ENNO 251350Z VRB02KT 9999 SCT060 BKN075 21/06 Q1007;",
"01470399999","2010-06-25T14:50:00","4","59.565683","9.212222","19.2","NOTODDEN, NO","FM-15","ENNO ","V020","290,1,N,0072,1","02640,5,C,N","011265,1,N,1","+0200,1","+0060,1","99999,9","04,5,+01800,1,99,9","07,5,+02640,5,99,9",,"07,99,1,99,9,99,9,99999,9,99,9,99,9",,"10071,1,99999,9",,,,,"MET058METAR ENNO 251450Z 29014KT 9999 SCT060 BKN088 20/06 Q1007;",
"01470399999","2010-06-25T15:50:00","4","59.565683","9.212222","19.2","NOTODDEN, NO","FM-15","ENNO ","V020","280,1,N,0067,1","02640,5,C,N","011265,1,N,1","+0200,1","+0050,1","99999,9","04,5,+01800,1,99,9","07,5,+02640,5,99,9",,"07,99,1,99,9,99,9,99999,9,99,9,99,9",,"10071,1,99999,9",,,,,"MET058METAR ENNO 251550Z 28013KT 9999 SCT060 BKN088 20/05 Q1007;",
"01470399999","2010-06-27T16:20:00","4","59.565683","9.212222","19.2","NOTODDEN, NO","FM-15","ENNO ","V020","130,1,N,0046,1","99999,9,9,Y","009900,1,N,1","+0230,1","+0050,1","99999,9",,,,,,"10169,1,99999,9",,,,,"MET045METAR ENNO 271620Z 13009KT CAVOK 23/05 Q1017;",
"01470399999","2010-06-27T16:50:00","4","59.565683","9.212222","19.2","NOTODDEN, NO","FM-15","ENNO ","V020","090,1,N,0051,1","99999,9,9,Y","009900,1,N,1","+0230,1","+0080,1","99999,9",,,,,,"10169,1,99999,9",,,,,"MET045METAR ENNO 271650Z 09010KT CAVOK 23/08 Q1017;",
"01470399999","2010-06-27T17:50:00","4","59.565683","9.212222","19.2","NOTODDEN, NO","FM-15","ENNO ","V020","110,1,N,0057,1","99999,9,9,Y","009900,1,N,1","+0200,1","+0100,1","99999,9",,,,,,"10169,1,99999,9",,,,,"MET045METAR ENNO 271750Z 11011KT CAVOK 20/10 Q1017;",
"01470399999","2010-06-28T04:50:00","4","59.565683","9.212222","19.2","NOTODDEN, NO","FM-15","ENNO ","V020","999,9,C,0000,1","99999,9,9,Y","009900,1,N,1","+0110,1","+0090,1","99999,9",,,,,,"10200,1,99999,9",,,,,"MET045METAR ENNO 280450Z 00000KT CAVOK 11/09 Q1020;",
"01470399999","2010-06-28T05:50:00","4","59.565683","9.212222","19.2","NOTODDEN, NO","FM-15","ENNO ","V020","999,9,V,0005,1","99999,9,9,Y","009900,1,N,1","+0130,1","+0100,1","99999,9",,,,,,"10200,1,99999,9",,,,,"MET045METAR ENNO 280550Z VRB01KT CAVOK 13/10 Q1020;",
"01470399999","2010-06-28T06:50:00","4","59.565683","9.212222","19.2","NOTODDEN, NO","FM-15","ENNO ","V020","999,9,V,0005,1","99999,9,9,Y","009900,1,N,1","+0160,1","+0110,1","99999,9",,,,,,"10190,1,99999,9",,,,,"MET045METAR ENNO 280650Z VRB01KT CAVOK 16/11 Q1019;",
"01470399999","2010-06-28T07:50:00","4","59.565683","9.212222","19.2","NOTODDEN, NO","FM-15","ENNO ","V020","130,1,N,0031,1","99999,9,9,Y","009900,1,N,1","+0170,1","+0110,1","99999,9",,,,,,"10190,1,99999,9",,,,,"MET045METAR ENNO 280750Z 13006KT CAVOK 17/11 Q1019;",
"01470399999","2010-06-28T08:50:00","4","59.565683","9.212222","19.2","NOTODDEN, NO","FM-15","ENNO ","V020","110,1,N,0046,1","99999,9,9,Y","009900,1,N,1","+0180,1","+0120,1","99999,9",,,,,,"10180,1,99999,9",,,,,"MET045METAR ENNO 280850Z 11009KT CAVOK 18/12 Q1018;",
"01470399999","2010-06-28T09:50:00","4","59.565683","9.212222","19.2","NOTODDEN, NO","FM-15","ENNO ","V020","110,1,N,0067,1","22000,1,9,N","011265,1,N,1","+0200,1","+0130,1","99999,9","02,5,+01200,1,99,9",,,"02,99,1,99,9,99,9,99999,9,99,9,99,9",,"10180,1,99999,9",,,,,"MET051METAR ENNO 280950Z 11013KT 9999 FEW040 20/13 Q1018;",
"01470399999","2010-06-28T10:50:00","4","59.565683","9.212222","19.2","NOTODDEN, NO","FM-15","ENNO ","V020","110,1,N,0057,1","22000,1,9,N","011265,1,N,1","+0220,1","+0130,1","99999,9","02,5,+01350,1,99,9",,,"02,99,1,99,9,99,9,99999,9,99,9,99,9",,"10169,1,99999,9",,,,,"MET051METAR ENNO 281050Z 11011KT 9999 FEW045 22/13 Q1017;",
"01470399999","2010-06-28T11:50:00","4","59.565683","9.212222","19.2","NOTODDEN, NO","FM-15","ENNO ","V020","110,1,N,0057,1","22000,1,9,N","011265,1,N,1","+0230,1","+0120,1","99999,9","02,5,+01350,1,99,9",,,"02,99,1,99,9,99,9,99999,9,99,9,99,9",,"10169,1,99999,9",,,,,"MET051METAR ENNO 281150Z 11011KT 9999 FEW045 23/12 Q1017;",
"01470399999","2010-06-28T12:50:00","4","59.565683","9.212222","19.2","NOTODDEN, NO","FM-15","ENNO ","V020","110,1,N,0057,1","22000,1,9,N","011265,1,N,1","+0240,1","+0110,1","99999,9","02,5,+01350,1,99,9",,,"02,99,1,99,9,99,9,99999,9,99,9,99,9",,"10169,1,99999,9",,,,,"MET051METAR ENNO 281250Z 11011KT 9999 FEW045 24/11 Q1017;",
"01470399999","2010-06-28T14:50:00","4","59.565683","9.212222","19.2","NOTODDEN, NO","FM-15","ENNO ","V020","100,1,N,0067,1","22000,1,9,N","011265,1,N,1","+0240,1","+0100,1","99999,9","02,5,+01350,1,99,9",,,"02,99,1,99,9,99,9,99999,9,99,9,99,9",,"10159,1,99999,9",,,,,"MET051METAR ENNO 281450Z 10013KT 9999 FEW045 24/10 Q1016;",
"01470399999","2010-06-28T15:50:00","4","59.565683","9.212222","19.2","NOTODDEN, NO","FM-15","ENNO ","V020","100,1,N,0077,1","22000,1,9,N","011265,1,N,1","+0220,1","+0100,1","99999,9","02,5,+01350,1,99,9",,,"02,99,1,99,9,99,9,99999,9,99,9,99,9",,"10159,1,99999,9",,,,,"MET051METAR ENNO 281550Z 10015KT 9999 FEW045 22/10 Q1016;",
"01470399999","2010-06-29T04:50:00","4","59.565683","9.212222","19.2","NOTODDEN, NO","FM-15","ENNO ","V020","999,9,C,0000,1","99999,9,9,Y","009900,1,N,1","+0120,1","+0110,1","99999,9",,,,,,"10169,1,99999,9",,,,,"MET045METAR ENNO 290450Z 00000KT CAVOK 12/11 Q1017;",
"01470399999","2010-06-29T05:50:00","4","59.565683","9.212222","19.2","NOTODDEN, NO","FM-15","ENNO ","V020","999,9,V,0005,1","99999,9,9,Y","009900,1,N,1","+0130,1","+0110,1","99999,9",,,,,,"10169,1,99999,9",,,,,"MET045METAR ENNO 290550Z VRB01KT CAVOK 13/11 Q1017;",
"01470399999","2010-06-29T06:50:00","4","59.565683","9.212222","19.2","NOTODDEN, NO","FM-15","ENNO ","V020","999,9,V,0005,1","99999,9,9,Y","009900,1,N,1","+0160,1","+0120,1","99999,9",,,,,,"10159,1,99999,9",,,,,"MET045METAR ENNO 290650Z VRB01KT CAVOK 16/12 Q1016;",
"01470399999","2010-06-29T07:50:00","4","59.565683","9.212222","19.2","NOTODDEN, NO","FM-15","ENNO ","V020","999,9,V,0010,1","03000,5,9,N","999999,9,N,1","+0190,1","+0130,1","99999,9","02,5,+01500,5,99,9","04,5,+03000,5,99,9",,,,"10150,1,99999,9",,,,,"MET053METAR ENNO 290750Z VRB02KT FEW050 SCT100 19/13 Q1015;",
"01470399999","2010-06-29T08:50:00","4","59.565683","9.212222","19.2","NOTODDEN, NO","FM-15","ENNO ","V020","120,1,N,0021,1","22000,1,9,N","011265,1,N,1","+0210,1","+0130,1","99999,9","02,5,+01200,1,99,9",,,"02,99,1,99,9,99,9,99999,9,99,9,99,9",,"10149,1,99999,9",,,,,"MET051METAR ENNO 290850Z 12004KT 9999 FEW040 21/13 Q1015;",
"01470399999","2010-06-29T09:50:00","4","59.565683","9.212222","19.2","NOTODDEN, NO","FM-15","ENNO ","V020","100,1,N,0041,1","22000,1,9,N","011265,1,N,1","+0230,1","+0090,1","99999,9","02,5,+01350,1,99,9",,,"02,99,1,99,9,99,9,99999,9,99,9,99,9",,"10149,1,99999,9",,,,,"MET059METAR ENNO 290950Z 10008KT 050V130 9999 FEW045 23/09 Q1015;",
"01470399999","2010-06-29T10:50:00","4","59.565683","9.212222","19.2","NOTODDEN, NO","FM-15","ENNO ","V020","120,1,N,0057,1","22000,1,9,N","011265,1,N,1","+0240,1","+0100,1","99999,9","02,5,+01350,1,99,9",,,"02,99,1,99,9,99,9,99999,9,99,9,99,9",,"10139,1,99999,9",,,,,"MET059METAR ENNO 291050Z 12011KT 080V160 9999 FEW045 24/10 Q1014;",
"01470399999","2010-06-29T11:50:00","4","59.565683","9.212222","19.2","NOTODDEN, NO","FM-15","ENNO ","V020","999,9,V,0005,1","99999,9,C,N","011265,1,N,1","+0240,1","+0080,1","99999,9","02,5,+01350,1,99,9","04,5,+03900,1,99,9",,"04,99,1,99,9,99,9,99999,9,99,9,99,9",,"10139,1,99999,9",,,,,"MET058METAR ENNO 291150Z VRB01KT 9999 FEW045 SCT130 24/08 Q1014;","P01 039003SCOCIG"
"01470399999","2010-06-29T12:50:00","4","59.565683","9.212222","19.2","NOTODDEN, NO","FM-15","ENNO ","V020","100,1,N,0021,1","03900,1,C,N","011265,1,N,1","+0240,1","+0070,1","99999,9","02,5,+01350,1,99,9","07,5,+03900,1,99,9",,"07,99,1,99,9,99,9,99999,9,99,9,99,9",,"10129,1,99999,9",,,,,"MET058METAR ENNO 291250Z 10004KT 9999 FEW045 BKN130 24/07 Q1013;",
"01470399999","2010-06-29T13:50:00","4","59.565683","9.212222","19.2","NOTODDEN, NO","FM-15","ENNO ","V020","120,1,N,0051,1","03900,1,C,N","011265,1,N,1","+0240,1","+0100,1","99999,9","04,5,+01500,1,99,9","07,5,+03900,1,99,9",,"07,99,1,99,9,99,9,99999,9,99,9,99,9",,"10129,1,99999,9",,,,,"MET058METAR ENNO 291350Z 12010KT 9999 SCT050 BKN130 24/10 Q1013;",
"01470399999","2010-06-29T14:50:00","4","59.565683","9.212222","19.2","NOTODDEN, NO","FM-15","ENNO ","V020","120,1,N,0051,1","03900,1,C,N","011265,1,N,1","+0240,1","+0100,1","99999,9","04,5,+01500,1,99,9","07,5,+03900,1,99,9",,"07,99,1,99,9,99,9,99999,9,99,9,99,9",,"10129,1,99999,9",,,,,"MET058METAR ENNO 291450Z 12010KT 9999 SCT050 BKN130 24/10 Q1013;",
"01470399999","2010-06-29T15:50:00","4","59.565683","9.212222","19.2","NOTODDEN, NO","FM-15","ENNO ","V020","130,1,N,0046,1","03900,1,C,N","011265,1,N,1","+0230,1","+0100,1","99999,9","04,5,+01800,1,99,9","07,5,+03900,1,99,9",,"07,99,1,99,9,99,9,99999,9,99,9,99,9",,"10119,1,99999,9",,,,,"MET058METAR ENNO 291550Z 13009KT 9999 SCT060 BKN130 23/10 Q1012;",
"01470399999","2010-06-30T04:50:00","4","59.565683","9.212222","19.2","NOTODDEN, NO","FM-15","ENNO ","V020","999,9,V,0010,1","00300,1,C,N","007000,1,N,1","+0150,1","+0140,1","99999,9","02,5,+00060,1,99,9","04,5,+00300,1,99,9","07,5,+00600,1,99,9","07,99,1,99,9,99,9,99999,9,99,9,99,9",,"10081,1,99999,9","80,1",,,,"MET071METAR ENNO 300450Z VRB02KT 7000 -SHRA FEW002 SCT010 BKN020 15/14 Q1008;",
"01470399999","2010-06-30T05:50:00","4","59.565683","9.212222","19.2","NOTODDEN, NO","FM-15","ENNO ","V020","999,9,V,0005,1","00300,1,C,N","004000,1,N,1","+0150,1","+0140,1","99999,9","02,5,+00060,1,99,9","07,5,+00300,1,99,9",,"07,99,1,99,9,99,9,99999,9,99,9,99,9",,"10081,1,99999,9","10,1","80,1",,,"MET067METAR ENNO 300550Z VRB01KT 4000 -SHRA BR FEW002 BKN010 15/14 Q1008;",
"01470399999","2010-06-30T06:50:00","4","59.565683","9.212222","19.2","NOTODDEN, NO","FM-15","ENNO ","V020","320,1,N,0021,1","00900,1,C,N","011265,1,N,1","+0140,1","+0130,1","99999,9","02,5,+00180,1,99,9","07,5,+00900,1,99,9",,"07,99,1,99,9,99,9,99999,9,99,9,99,9",,"10091,1,99999,9","80,1",,,,"MET072METAR ENNO 300650Z 32004KT 280V010 9999 -SHRA FEW006 BKN030 14/13 Q1009;",
"01470399999","2010-06-30T07:50:00","4","59.565683","9.212222","19.2","NOTODDEN, NO","FM-15","ENNO ","V020","330,1,N,0026,1","00900,5,9,N","003300,1,N,1","+0140,1","+0120,1","99999,9","02,5,+00180,5,99,9","07,5,+00900,5,99,9",,,,"10090,1,99999,9",,,,,"MET072METAR ENNO 300750Z 33005KT 33005KT 9999 -SHRA FEW006 BKN030 14/12 Q1009;",
"01470399999","2010-06-30T08:50:00","4","59.565683","9.212222","19.2","NOTODDEN, NO","FM-15","ENNO ","V020","340,1,N,0021,1","00900,1,C,N","011265,1,N,1","+0150,1","+0120,1","99999,9","02,5,+00300,1,99,9","04,5,+00900,1,99,9","07,5,+01500,1,99,9","07,99,1,99,9,99,9,99999,9,99,9,99,9",,"10091,1,99999,9","80,1",,,,"MET079METAR ENNO 300850Z 34004KT 300V040 9999 -SHRA FEW010 SCT030 BKN050 15/12 Q1009;",
"01470399999","2010-06-30T09:50:00","4","59.565683","9.212222","19.2","NOTODDEN, NO","FM-15","ENNO ","V020","310,1,N,0026,1","01500,1,C,N","011265,1,N,1","+0150,1","+0120,1","99999,9","02,5,+00450,1,99,9","07,5,+01500,1,99,9",,"07,99,1,99,9,99,9,99999,9,99,9,99,9",,"10102,1,99999,9",,,,,"MET066METAR ENNO 300950Z 31005KT 270V010 9999 FEW015 BKN050 15/12 Q1010;",
"01470399999","2010-06-30T10:50:00","4","59.565683","9.212222","19.2","NOTODDEN, NO","FM-15","ENNO ","V020","130,1,N,0026,1","01800,1,C,N","011265,1,N,1","+0170,1","+0130,1","99999,9","02,5,+00750,1,99,9","04,5,+01800,1,99,9","07,5,+02700,1,99,9","07,99,1,99,9,99,9,99999,9,99,9,99,9",,"10102,1,99999,9",,,,,"MET065METAR ENNO 301050Z 13005KT 9999 FEW025 SCT060 BKN090 17/13 Q1010;",
"01470399999","2010-06-30T11:50:00","4","59.565683","9.212222","19.2","NOTODDEN, NO","FM-15","ENNO ","V020","120,1,N,0026,1","01800,1,C,N","011265,1,N,1","+0180,1","+0130,1","99999,9","02,5,+00900,1,99,9","04,5,+01800,1,99,9","07,5,+02400,1,99,9","07,99,1,99,9,99,9,99999,9,99,9,99,9",,"10102,1,99999,9",,,,,"MET073METAR ENNO 301150Z 12005KT 090V190 9999 FEW030 SCT060 BKN080 18/13 Q1010;",
"01470399999","2010-06-30T12:50:00","4","59.565683","9.212222","19.2","NOTODDEN, NO","FM-15","ENNO ","V020","300,1,N,0041,1","01800,1,C,N","011265,1,N,1","+0200,1","+0100,1","99999,9","02,5,+00900,1,99,9","04,5,+01800,1,99,9","07,5,+02400,1,99,9","07,99,1,99,9,99,9,99999,9,99,9,99,9",,"10102,1,99999,9",,,,,"MET065METAR ENNO 301250Z 30008KT 9999 FEW030 SCT060 BKN080 20/10 Q1010;",
"01470399999","2010-06-30T14:50:00","4","59.565683","9.212222","19.2","NOTODDEN, NO","FM-15","ENNO ","V020","280,1,N,0067,1","99999,9,C,N","011265,1,N,1","+0190,1","+0080,1","99999,9","02,5,+01050,1,99,9","04,5,+02700,1,99,9",,"04,99,1,99,9,99,9,99999,9,99,9,99,9",,"10108,1,99999,9",,,,,"MET058METAR ENNO 301450Z 28013KT 9999 FEW035 SCT090 19/08 Q1011;","P01 027003SCOCIG"
"01470399999","2010-06-30T15:50:00","4","59.565683","9.212222","19.2","NOTODDEN, NO","FM-15","ENNO ","V020","320,1,N,0046,1","22000,1,9,N","011265,1,N,1","+0200,1","+0070,1","99999,9","04,5,+02700,1,99,9",,,"04,99,1,99,9,99,9,99999,9,99,9,99,9",,"10108,1,99999,9",,,,,"MET051METAR ENNO 301550Z 32009KT 9999 SCT090 20/07 Q1011;",
"01470399999","2010-07-01T04:50:00","4","59.565683","9.212222","19.2","NOTODDEN, NO","FM-15","ENNO ","V020","999,9,C,0000,1","99999,9,9,Y","009900,1,N,1","+0100,1","+0080,1","99999,9",,,,,,"10159,1,99999,9",,,,,"MET045METAR ENNO 010450Z 00000KT CAVOK 10/08 Q1016;",
"01470399999","2010-07-01T05:50:00","4","59.565683","9.212222","19.2","NOTODDEN, NO","FM-15","ENNO ","V020","999,9,C,0000,1","99999,9,9,Y","009900,1,N,1","+0110,1","+0070,1","99999,9",,,,,,"10159,1,99999,9",,,,,"MET045METAR ENNO 010550Z 00000KT CAVOK 11/07 Q1016;",
"01470399999","2010-07-01T06:50:00","4","59.565683","9.212222","19.2","NOTODDEN, NO","FM-15","ENNO ","V020","999,9,V,0005,1","22000,1,9,N","011265,1,N,1","+0150,1","+0080,1","99999,9","02,5,+01500,1,99,9",,,"02,99,1,99,9,99,9,99999,9,99,9,99,9",,"10159,1,99999,9",,,,,"MET051METAR ENNO 010650Z VRB01KT 9999 FEW050 15/08 Q1016;",
"01470399999","2010-07-01T07:50:00","4","59.565683","9.212222","19.2","NOTODDEN, NO","FM-15","ENNO ","V020","999,9,C,0000,1","22000,1,9,N","011265,1,N,1","+0170,1","+0080,1","99999,9","02,5,+01500,1,99,9",,,"02,99,1,99,9,99,9,99999,9,99,9,99,9",,"10149,1,99999,9",,,,,"MET051METAR ENNO 010750Z 00000KT 9999 FEW050 17/08 Q1015;",
"01470399999","2010-07-01T08:50:00","4","59.565683","9.212222","19.2","NOTODDEN, NO","FM-15","ENNO ","V020","130,1,N,0031,1","22000,1,9,N","011265,1,N,1","+0180,1","+0070,1","99999,9","04,5,+01350,1,99,9",,,"04,99,1,99,9,99,9,99999,9,99,9,99,9",,"10149,1,99999,9",,,,,"MET051METAR ENNO 010850Z 13006KT 9999 SCT045 18/07 Q1015;",
"01470399999","2010-07-01T09:50:00","4","59.565683","9.212222","19.2","NOTODDEN, NO","FM-15","ENNO ","V020","110,1,N,0046,1","22000,1,9,N","011265,1,N,1","+0200,1","+0070,1","99999,9","02,5,+01350,1,99,9",,,"02,99,1,99,9,99,9,99999,9,99,9,99,9",,"10149,1,99999,9",,,,,"MET051METAR ENNO 010950Z 11009KT 9999 FEW045 20/07 Q1015;",
"01470399999","2010-07-01T10:50:00","4","59.565683","9.212222","19.2","NOTODDEN, NO","FM-15","ENNO ","V020","100,1,N,0036,1","22000,1,9,N","011265,1,N,1","+0210,1","+0070,1","99999,9","02,5,+01350,1,99,9",,,"02,99,1,99,9,99,9,99999,9,99,9,99,9",,"10139,1,99999,9",,,,,"MET051METAR ENNO 011050Z 10007KT 9999 FEW045 21/07 Q1014;",
"01470399999","2010-07-01T11:50:00","4","59.565683","9.212222","19.2","NOTODDEN, NO","FM-15","ENNO ","V020","120,1,N,0051,1","99999,9,9,Y","009900,1,N,1","+0230,1","+0080,1","99999,9",,,,,,"10139,1,99999,9",,,,,"MET045METAR ENNO 011150Z 12010KT CAVOK 23/08 Q1014;",
"01470399999","2010-07-01T12:50:00","4","59.565683","9.212222","19.2","NOTODDEN, NO","FM-15","ENNO ","V020","120,1,N,0051,1","99999,9,9,Y","009900,1,N,1","+0230,1","+0070,1","99999,9",,,,,,"10129,1,99999,9",,,,,"MET045METAR ENNO 011250Z 12010KT CAVOK 23/07 Q1013;",
"01470399999","2010-07-01T13:50:00","4","59.565683","9.212222","19.2","NOTODDEN, NO","FM-15","ENNO ","V020","120,1,N,0051,1","99999,9,9,Y","009900,1,N,1","+0240,1","+0070,1","99999,9",,,,,,"10129,1,99999,9",,,,,"MET045METAR ENNO 011350Z 12010KT CAVOK 24/07 Q1013;",
"01470399999","2010-07-01T14:50:00","4","59.565683","9.212222","19.2","NOTODDEN, NO","FM-15","ENNO ","V020","120,1,N,0046,1","99999,9,9,Y","009900,1,N,1","+0240,1","+0070,1","99999,9",,,,,,"10129,1,99999,9",,,,,"MET045METAR ENNO 011450Z 12009KT CAVOK 24/07 Q1013;",
"01470399999","2010-07-01T15:50:00","4","59.565683","9.212222","19.2","NOTODDEN, NO","FM-15","ENNO ","V020","120,1,N,0057,1","99999,9,9,Y","009900,1,N,1","+0240,1","+0080,1","99999,9",,,,,,"10119,1,99999,9",,,,,"MET045METAR ENNO 011550Z 12011KT CAVOK 24/08 Q1012;",
"01470399999","2010-07-02T04:50:00","4","59.565683","9.212222","19.2","NOTODDEN, NO","FM-15","ENNO ","V020","999,9,C,0000,1","99999,9,9,Y","009900,1,N,1","+0120,1","+0090,1","99999,9",,,,,,"10169,1,99999,9",,,,,"MET045METAR ENNO 020450Z 00000KT CAVOK 12/09 Q1017;",
"01470399999","2010-07-02T05:50:00","4","59.565683","9.212222","19.2","NOTODDEN, NO","FM-15","ENNO ","V020","999,9,C,0000,1","99999,9,9,Y","009900,1,N,1","+0130,1","+0090,1","99999,9",,,,,,"10169,1,99999,9",,,,,"MET045METAR ENNO 020550Z 00000KT CAVOK 13/09 Q1017;",
"01470399999","2010-07-02T06:50:00","4","59.565683","9.212222","19.2","NOTODDEN, NO","FM-15","ENNO ","V020","120,1,N,0021,1","99999,9,9,Y","009900,1,N,1","+0170,1","+0110,1","99999,9",,,,,,"10169,1,99999,9",,,,,"MET045METAR ENNO 020650Z 12004KT CAVOK 17/11 Q1017;",
"01470399999","2010-07-02T07:50:00","4","59.565683","9.212222","19.2","NOTODDEN, NO","FM-15","ENNO ","V020","120,1,N,0021,1","99999,9,9,Y","009900,1,N,1","+0180,1","+0120,1","99999,9",,,,,,"10159,1,99999,9",,,,,"MET045METAR ENNO 020750Z 12004KT CAVOK 18/12 Q1016;",
"01470399999","2010-07-02T08:50:00","4","59.565683","9.212222","19.2","NOTODDEN, NO","FM-15","ENNO ","V020","110,1,N,0046,1","22000,1,9,N","011265,1,N,1","+0190,1","+0120,1","99999,9","02,5,+01500,1,99,9",,,"02,99,1,99,9,99,9,99999,9,99,9,99,9",,"10159,1,99999,9",,,,,"MET051METAR ENNO 020850Z 11009KT 9999 FEW050 19/12 Q1016;",
"01470399999","2010-07-02T09:50:00","4","59.565683","9.212222","19.2","NOTODDEN, NO","FM-15","ENNO ","V020","999,9,9,9999,9","22000,1,9,N","011265,1,N,1","+0210,1","+0110,1","99999,9","02,5,+01500,5,99,9",,,,"999,M,+9999,9","10160,1,99999,9",,,,,"MET051METAR ENNO 020950Z 100010T 9999 FEW050 21/11 Q1016;","Q01 +00012ATMX  "
"01470399999","2010-07-02T10:50:00","4","59.565683","9.212222","19.2","NOTODDEN, NO","FM-15","ENNO ","V020","120,1,N,0046,1","22000,1,9,N","011265,1,N,1","+0230,1","+0130,1","99999,9","02,5,+01500,1,99,9",,,"02,99,1,99,9,99,9,99999,9,99,9,99,9",,"10159,1,99999,9",,,,,"MET051METAR ENNO 021050Z 12009KT 9999 FEW050 23/13 Q1016;",
"01470399999","2010-07-02T11:50:00","4","59.565683","9.212222","19.2","NOTODDEN, NO","FM-15","ENNO ","V020","110,1,N,0046,1","01710,5,C,N","011265,1,N,1","+0230,1","+0110,1","99999,9","07,5,+01710,5,99,9",,,"07,99,1,99,9,99,9,99999,9,99,9,99,9",,"10159,1,99999,9",,,,,"MET051METAR ENNO 021150Z 11009KT 9999 BKN057 23/11 Q1016;",
"01470399999","2010-07-02T12:50:00","4","59.565683","9.212222","19.2","NOTODDEN, NO","FM-15","ENNO ","V020","120,1,N,0046,1","01710,5,C,N","011265,1,N,1","+0230,1","+0110,1","99999,9","07,5,+01710,5,99,9",,,"07,99,1,99,9,99,9,99999,9,99,9,99,9",,"10159,1,99999,9",,,,,"MET059METAR ENNO 021250Z 12009KT 080V150 9999 BKN057 23/11 Q1016;",
"01470399999","2010-07-02T13:50:00","4","59.565683","9.212222","19.2","NOTODDEN, NO","FM-15","ENNO ","V020","140,1,N,0051,1","01530,5,C,N","011265,1,N,1","+0230,1","+0120,1","99999,9","07,5,+01530,5,99,9",,,"07,99,1,99,9,99,9,99999,9,99,9,99,9",,"10159,1,99999,9",,,,,"MET051METAR ENNO 021350Z 14010KT 9999 BKN051 23/12 Q1016;",
"01470399999","2010-07-02T14:50:00","4","59.565683","9.212222","19.2","NOTODDEN, NO","FM-15","ENNO ","V020","130,1,N,0057,1","22000,1,9,N","011265,1,N,1","+0220,1","+0120,1","99999,9","04,5,+01440,1,99,9",,,"04,99,1,99,9,99,9,99999,9,99,9,99,9",,"10149,1,99999,9",,,,,"MET059METAR ENNO 021450Z 13011KT 080V190 9999 SCT048 22/12 Q1015;",
"01470399999","2010-07-02T15:50:00","4","59.565683","9.212222","19.2","NOTODDEN, NO","FM-15","ENNO ","V020","140,1,N,0036,1","22000,1,9,N","011265,1,N,1","+0220,1","+0100,1","99999,9","04,5,+01530,5,99,9",,,"04,99,1,99,9,99,9,99999,9,99,9,99,9",,"10149,1,99999,9",,,,,"MET051METAR ENNO 021550Z 14007KT 9999 SCT051 22/10 Q1015;",
"01470399999","2010-07-04T15:50:00","4","59.565683","9.212222","19.2","NOTODDEN, NO","FM-15","ENNO ","V020","110,1,N,0057,1","99999,9,9,Y","009900,1,N,1","+0220,1","+0100,1","99999,9",,,,,,"10108,1,99999,9",,,,,"MET053METAR ENNO 041550Z 11011KT 080V140 CAVOK 22/10 Q1011;",
"01470399999","2010-07-04T16:50:00","4","59.565683","9.212222","19.2","NOTODDEN, NO","FM-15","ENNO ","V020","120,1,N,0051,1","99999,9,9,Y","009900,1,N,1","+0220,1","+0100,1","99999,9",,,,,,"10108,1,99999,9",,,,,"MET045METAR ENNO 041650Z 12010KT CAVOK 22/10 Q1011;",
"01470399999","2010-07-04T17:50:00","4","59.565683","9.212222","19.2","NOTODDEN, NO","FM-15","ENNO ","V020","120,1,N,0057,1","99999,9,9,Y","009900,1,N,1","+0210,1","+0100,1","99999,9",,,,,,"10102,1,99999,9",,,,,"MET045METAR ENNO 041750Z 12011KT CAVOK 21/10 Q1010;",
"01470399999","2010-07-05T04:50:00","4","59.565683","9.212222","19.2","NOTODDEN, NO","FM-15","ENNO ","V020","130,1,N,0036,1","01950,5,C,N","011265,1,N,1","+0170,1","+0130,1","99999,9","04,5,+00900,1,99,9","07,5,+01950,5,99,9",,"07,99,1,99,9,99,9,99999,9,99,9,99,9",,"10091,1,99999,9",,,,,"MET058METAR ENNO 050450Z 13007KT 9999 SCT030 BKN065 17/13 Q1009;",
"01470399999","2010-07-05T05:50:00","4","59.565683","9.212222","19.2","NOTODDEN, NO","FM-15","ENNO ","V020","140,1,N,0036,1","00900,1,C,N","011265,1,N,1","+0180,1","+0120,1","99999,9","07,5,+00900,1,99,9",,,"07,99,1,99,9,99,9,99999,9,99,9,99,9",,"10091,1,99999,9",,,,,"MET059METAR ENNO 050550Z 14007KT 070V180 9999 BKN030 18/12 Q1009;",
"01470399999","2010-07-05T06:50:00","4","59.565683","9.212222","19.2","NOTODDEN, NO","FM-15","ENNO ","V020","130,1,N,0036,1","22000,1,9,N","011265,1,N,1","+0180,1","+0120,1","99999,9","04,5,+01110,1,99,9",,,"04,99,1,99,9,99,9,99999,9,99,9,99,9",,"10102,1,99999,9",,,,,"MET051METAR ENNO 050650Z 13007KT 9999 SCT037 18/12 Q1010;",
"01470399999","2010-07-05T07:50:00","4","59.565683","9.212222","19.2","NOTODDEN, NO","FM-15","ENNO ","V020","170,1,N,0021,1","22000,1,9,N","011265,1,N,1","+0210,1","+0100,1","99999,9","04,5,+01800,1,99,9",,,"04,99,1,99,9,99,9,99999,9,99,9,99,9",,"10102,1,99999,9",,,,,"MET059METAR ENNO 050750Z 17004KT 090V230 9999 SCT060 21/10 Q1010;",
"01470399999","2010-07-05T08:50:00","4","59.565683","9.212222","19.2","NOTODDEN, NO","FM-15","ENNO ","V020","190,1,N,0021,1","22000,1,9,N","011265,1,N,1","+0210,1","+0090,1","99999,9","04,5,+01950,5,99,9",,,"04,99,1,99,9,99,9,99999,9,99,9,99,9",,"10102,1,99999,9",,,,,"MET059METAR ENNO 050850Z 19004KT 110V270 9999 SCT065 21/09 Q1010;",
"01470399999","2010-07-05T09:50:00","4","59.565683","9.212222","19.2","NOTODDEN, NO","FM-15","ENNO ","V020","220,1,N,0041,1","02100,1,C,N","011265,1,N,1","+0210,1","+0070,1","99999,9","07,5,+02100,1,99,9",,,"07,99,1,99,9,99,9,99999,9,99,9,99,9",,"10102,1,99999,9",,,,,"MET059METAR ENNO 050950Z 22008KT 160V310 9999 BKN070 21/07 Q1010;",
"01470399999","2010-07-05T12:20:00","4","59.565683","9.212222","19.2","NOTODDEN, NO","FM-15","ENNO ","V020","210,1,N,0036,1","99999,9,9,Y","009900,1,N,1","+0230,1","+0070,1","99999,9",,,,,,"10102,1,99999,9",,,,,"MET053METAR ENNO 051220Z 21007KT 110V280 CAVOK 23/07 Q1010;",
"01470399999","2010-07-05T12:50:00","4","59.565683","9.212222","19.2","NOTODDEN, NO","FM-15","ENNO ","V020","999,9,V,0031,1","99999,9,9,Y","009900,1,N,1","+0240,1","+0070,1","99999,9",,,,,,"10102,1,99999,9",,,,,"MET045METAR ENNO 051250Z VRB06KT CAVOK 24/07 Q1010;",
"01470399999","2010-07-05T13:50:00","4","59.565683","9.212222","19.2","NOTODDEN, NO","FM-15","ENNO ","V020","250,1,N,0015,1","02070,5,C,N","011265,1,N,1","+0220,1","+0070,1","99999,9","07,5,+02070,5,99,9",,,"07,99,1,99,9,99,9,99999,9,99,9,99,9",,"10102,1,99999,9",,,,,"MET059METAR ENNO 051350Z 25003KT 210V300 9999 BKN069 22/07 Q1010;",
"01470399999","2010-07-05T14:50:00","4","59.565683","9.212222","19.2","NOTODDEN, NO","FM-15","ENNO ","V020","300,1,N,0051,1","99999,9,9,Y","009900,1,N,1","+0230,1","+0070,1","99999,9",,,,,,"10102,1,99999,9",,,,,"MET045METAR ENNO 051450Z 30010KT CAVOK 23/07 Q1010;",
"01470399999","2010-07-06T04:50:00","4","59.565683","9.212222","19.2","NOTODDEN, NO","FM-15","ENNO ","V020","999,9,V,0005,1","99999,9,9,Y","009900,1,N,1","+0120,1","+0070,1","99999,9",,,,,,"10129,1,99999,9",,,,,"MET045METAR ENNO 060450Z VRB01KT CAVOK 12/07 Q1013;",
"01470399999","2010-07-06T05:50:00","4","59.565683","9.212222","19.2","NOTODDEN, NO","FM-15","ENNO ","V020","999,9,V,0005,1","99999,9,9,Y","009900,1,N,1","+0150,1","+0080,1","99999,9",,,,,,"10129,1,99999,9",,,,,"MET045METAR ENNO 060550Z VRB01KT CAVOK 15/08 Q1013;",
"01470399999","2010-07-06T06:50:00","4","59.565683","9.212222","19.2","NOTODDEN, NO","FM-15","ENNO ","V020","320,1,N,0015,1","99999,9,9,Y","009900,1,N,1","+0170,1","+0050,1","99999,9",,,,,,"10119,1,99999,9",,,,,"MET053METAR ENNO 060650Z 32003KT 260V040 CAVOK 17/05 Q1012;",
"01470399999","2010-07-06T07:50:00","4","59.565683","9.212222","19.2","NOTODDEN, NO","FM-15","ENNO ","V020","280,1,N,0021,1","99999,9,9,Y","009900,1,N,1","+0190,1","+0050,1","99999,9",,,,,,"10119,1,99999,9",,,,,"MET053METAR ENNO 060750Z 28004KT 230V340 CAVOK 19/05 Q1012;",
"01470399999","2010-07-06T08:50:00","4","59.565683","9.212222","19.2","NOTODDEN, NO","FM-15","ENNO ","V020","280,1,N,0041,1","01950,5,C,N","011265,1,N,1","+0200,1","+0040,1","99999,9","07,5,+01950,5,99,9",,,"07,99,1,99,9,99,9,99999,9,99,9,99,9",,"10119,1,99999,9",,,,,"MET059METAR ENNO 060850Z 28008KT 240V340 9999 BKN065 20/04 Q1012;",
"01470399999","2010-07-06T09:50:00","4","59.565683","9.212222","19.2","NOTODDEN, NO","FM-15","ENNO ","V020","290,1,N,0026,1","99999,9,C,N","011265,1,N,1","+0210,1","+0050,1","99999,9","02,5,+01950,5,99,9","04,5,+02550,5,99,9",,"04,99,1,99,9,99,9,99999,9,99,9,99,9",,"10119,1,99999,9",,,,,"MET066METAR ENNO 060950Z 29005KT 230V360 9999 FEW065 SCT085 21/05 Q1012;","P01 025503SCOCIG"
"01470399999","2010-07-06T10:50:00","4","59.565683","9.212222","19.2","NOTODDEN, NO","FM-15","ENNO ","V020","270,1,N,0031,1","22000,1,9,N","011265,1,N,1","+0210,1","+0040,1","99999,9","04,5,+01950,5,99,9",,,"04,99,1,99,9,99,9,99999,9,99,9,99,9",,"10119,1,99999,9",,,,,"MET059METAR ENNO 061050Z 27006KT 230V330 9999 SCT065 21/04 Q1012;",
"01470399999","2010-07-06T11:50:00","4","59.565683","9.212222","19.2","NOTODDEN, NO","FM-15","ENNO ","V020","290,1,N,0046,1","22000,1,9,N","011265,1,N,1","+0220,1","+0040,1","99999,9","04,5,+01950,5,99,9",,,"04,99,1,99,9,99,9,99999,9,99,9,99,9",,"10119,1,99999,9",,,,,"MET051METAR ENNO 061150Z 29009KT 9999 SCT065 22/04 Q1012;",
"01470399999","2010-07-06T12:50:00","4","59.565683","9.212222","19.2","NOTODDEN, NO","FM-15","ENNO ","V020","290,1,N,0077,1","22000,1,9,N","011265,1,N,1","+0230,1","+0050,1","99999,9","04,5,+02100,1,02,1",,,"04,99,1,99,9,99,9,99999,9,99,9,99,9",,"10119,1,99999,9",,,,"0103,1","MET057METAR ENNO 061250Z 29015G20KT 9999 SCT070TCU 23/05 Q1012;",
"01470399999","2010-07-06T13:50:00","4","59.565683","9.212222","19.2","NOTODDEN, NO","FM-15","ENNO ","V020","280,1,N,0041,1","22000,1,9,N","011265,1,N,1","+0220,1","+0040,1","99999,9","04,5,+02100,1,99,9",,,"04,99,1,99,9,99,9,99999,9,99,9,99,9",,"10119,1,99999,9",,,,,"MET051METAR ENNO 061350Z 28008KT 9999 SCT070 22/04 Q1012;",
"01470399999","2010-07-06T14:50:00","4","59.565683","9.212222","19.2","NOTODDEN, NO","FM-15","ENNO ","V020","280,1,N,0026,1","22000,1,9,N","011265,1,N,1","+0230,1","+0040,1","99999,9","04,5,+02100,1,99,9",,,"04,99,1,99,9,99,9,99999,9,99,9,99,9",,"10119,1,99999,9",,,,,"MET059METAR ENNO 061450Z 28005KT 210V020 9999 SCT070 23/04 Q1012;",
"01470399999","2010-07-06T15:50:00","4","59.565683","9.212222","19.2","NOTODDEN, NO","FM-15","ENNO ","V020","310,1,N,0026,1","22000,1,9,N","011265,1,N,1","+0220,1","+0030,1","99999,9","04,5,+02100,1,99,9",,,"04,99,1,99,9,99,9,99999,9,99,9,99,9",,"10108,1,99999,9",,,,,"MET051METAR ENNO 061550Z 31005KT 9999 SCT070 22/03 Q1011;",
"01470399999","2010-07-07T04:50:00","4","59.565683","9.212222","19.2","NOTODDEN, NO","FM-15","ENNO ","V020","999,9,C,0000,1","99999,9,9,Y","009900,1,N,1","+0100,1","+0070,1","99999,9",,,,,,"10149,1,99999,9",,,,,"MET045METAR ENNO 070450Z 00000KT CAVOK 10/07 Q1015;",
"01470399999","2010-07-07T05:50:00","4","59.565683","9.212222","19.2","NOTODDEN, NO","FM-15","ENNO ","V020","999,9,C,0000,1","99999,9,9,Y","009900,1,N,1","+0110,1","+0070,1","99999,9",,,,,,"10149,1,99999,9",,,,,"MET045METAR ENNO 070550Z 00000KT CAVOK 11/07 Q1015;",
"01470399999","2010-07-07T06:50:00","4","59.565683","9.212222","19.2","NOTODDEN, NO","FM-15","ENNO ","V020","999,9,C,0000,1","99999,9,9,Y","009900,1,N,1","+0140,1","+0060,1","99999,9",,,,,,"10149,1,99999,9",,,,,"MET045METAR ENNO 070650Z 00000KT CAVOK 14/06 Q1015;",
"01470399999","2010-07-07T07:50:00","4","59.565683","9.212222","19.2","NOTODDEN, NO","FM-15","ENNO ","V020","999,9,V,0005,1","99999,9,9,Y","009900,1,N,1","+0150,1","+0070,1","99999,9",,,,,,"10149,1,99999,9",,,,,"MET045METAR ENNO 070750Z VRB01KT CAVOK 15/07 Q1015;",
"01470399999","2010-07-07T08:50:00","4","59.565683","9.212222","19.2","NOTODDEN, NO","FM-15","ENNO ","V020","999,9,V,0005,1","99999,9,9,Y","009900,1,N,1","+0170,1","+0070,1","99999,9",,,,,,"10149,1,99999,9",,,,,"MET045METAR ENNO 070850Z VRB01KT CAVOK 17/07 Q1015;",
"01470399999","2010-07-07T09:50:00","4","59.565683","9.212222","19.2","NOTODDEN, NO","FM-15","ENNO ","V020","130,1,N,0031,1","99999,9,9,Y","009900,1,N,1","+0180,1","+0070,1","99999,9",,,,,,"10149,1,99999,9",,,,,"MET045METAR ENNO 070950Z 13006KT CAVOK 18/07 Q1015;",
"01470399999","2010-07-07T10:50:00","4","59.565683","9.212222","19.2","NOTODDEN, NO","FM-15","ENNO ","V020","120,1,N,0046,1","99999,9,9,Y","009900,1,N,1","+0200,1","+0070,1","99999,9",,,,,,"10149,1,99999,9",,,,,"MET045METAR ENNO 071050Z 12009KT CAVOK 20/07 Q1015;",
"01470399999","2010-07-07T11:50:00","4","59.565683","9.212222","19.2","NOTODDEN, NO","FM-15","ENNO ","V020","180,1,N,0026,1","02100,1,C,N","011265,1,N,1","+0190,1","+0050,1","99999,9","04,5,+01650,5,99,9","07,5,+02100,1,99,9",,"07,99,1,99,9,99,9,99999,9,99,9,99,9",,"10149,1,99999,9",,,,,"MET066METAR ENNO 071150Z 18005KT 140V280 9999 SCT055 BKN070 19/05 Q1015;",
"01470399999","2010-07-07T12:50:00","4","59.565683","9.212222","19.2","NOTODDEN, NO","FM-15","ENNO ","V020","310,1,N,0015,1","02940,5,C,N","011265,1,N,1","+0190,1","+0070,1","99999,9","04,5,+01650,5,99,9","07,5,+02940,5,99,9",,"07,99,1,99,9,99,9,99999,9,99,9,99,9",,"10149,1,99999,9",,,,,"MET066METAR ENNO 071250Z 31003KT 250V010 9999 SCT055 BKN098 19/07 Q1015;",
"01470399999","2010-07-07T14:50:00","4","59.565683","9.212222","19.2","NOTODDEN, NO","FM-15","ENNO ","V020","150,1,N,0031,1","03000,1,C,N","011265,1,N,1","+0200,1","+0090,1","99999,9","04,5,+01500,1,99,9","07,5,+03000,1,99,9",,"07,99,1,99,9,99,9,99999,9,99,9,99,9",,"10149,1,99999,9",,,,,"MET066METAR ENNO 071450Z 15006KT 110V230 9999 SCT050 BKN100 20/09 Q1015;",
"01470399999","2010-07-08T04:50:00","4","59.565683","9.212222","19.2","NOTODDEN, NO","FM-15","ENNO ","V020","100,1,N,0031,1","22000,1,9,N","011265,1,N,1","+0170,1","+0130,1","99999,9","04,5,+00600,1,99,9",,,"04,99,1,99,9,99,9,99999,9,99,9,99,9",,"10139,1,99999,9",,,,,"MET059METAR ENNO 080450Z 10006KT 070V130 9999 SCT020 17/13 Q1014;",
"01470399999","2010-07-08T05:50:00","4","59.565683","9.212222","19.2","NOTODDEN, NO","FM-15","ENNO ","V020","090,1,N,0031,1","99999,9,C,N","011265,1,N,1","+0170,1","+0130,1","99999,9","02,5,+00600,1,99,9","04,5,+00900,1,99,9",,"04,99,1,99,9,99,9,99999,9,99,9,99,9",,"10139,1,99999,9",,,,,"MET066METAR ENNO 080550Z 09006KT 050V140 9999 FEW020 SCT030 17/13 Q1014;","P01 009003SCOCIG"
"01470399999","2010-07-08T06:50:00","4","59.565683","9.212222","19.2","NOTODDEN, NO","FM-15","ENNO ","V020","110,1,N,0036,1","00900,1,C,N","011265,1,N,1","+0160,1","+0140,1","99999,9","02,5,+00600,1,99,9","07,5,+00900,1,99,9",,"07,99,1,99,9,99,9,99999,9,99,9,99,9",,"10139,1,99999,9",,,,,"MET066METAR ENNO 080650Z 11007KT 070V130 9999 FEW020 BKN030 16/14 Q1014;",
"01470399999","2010-07-08T07:50:00","4","59.565683","9.212222","19.2","NOTODDEN, NO","FM-15","ENNO ","V020","080,1,N,0036,1","00900,1,C,N","009000,1,N,1","+0160,1","+0140,1","99999,9","04,5,+00600,1,99,9","07,5,+00900,1,99,9",,"07,99,1,99,9,99,9,99999,9,99,9,99,9",,"10139,1,99999,9","61,1",,,,"MET070METAR ENNO 080750Z 08007KT 050V110 9000 -RA SCT020 BKN030 16/14 Q1014;",
"01470399999","2010-07-08T08:50:00","4","59.565683","9.212222","19.2","NOTODDEN, NO","FM-15","ENNO ","V020","080,1,N,0051,1","00600,1,C,N","011265,1,N,1","+0160,1","+0140,1","99999,9","02,5,+00360,1,99,9","04,5,+00600,1,99,9","07,5,+02700,1,99,9","07,99,1,99,9,99,9,99999,9,99,9,99,9",,"10139,1,99999,9",,,,,"MET073METAR ENNO 080850Z 08010KT 050V110 9999 FEW012 SCT020 BKN090 16/14 Q1014;",
"01470399999","2010-07-08T09:50:00","4","59.565683","9.212222","19.2","NOTODDEN, NO","FM-15","ENNO ","V020","130,1,N,0036,1","00750,1,C,N","011265,1,N,1","+0180,1","+0140,1","99999,9","02,5,+00450,1,99,9","04,5,+00750,1,99,9","07,5,+03600,1,99,9","07,99,1,99,9,99,9,99999,9,99,9,99,9",,"10139,1,99999,9",,,,,"MET073METAR ENNO 080950Z 13007KT 080V200 9999 FEW015 SCT025 BKN120 18/14 Q1014;",
"01470399999","2010-07-08T10:50:00","4","59.565683","9.212222","19.2","NOTODDEN, NO","FM-15","ENNO ","V020","140,1,N,0051,1","00750,1,C,N","011265,1,N,1","+0190,1","+0140,1","99999,9","02,5,+00600,1,99,9","04,5,+00750,1,99,9","07,5,+01500,1,99,9","07,99,1,99,9,99,9,99999,9,99,9,99,9",,"10139,1,99999,9",,,,,"MET065METAR ENNO 081050Z 14010KT 9999 FEW020 SCT025 BKN050 19/14 Q1014;",
"01470399999","2010-07-08T11:20:00","4","59.565683","9.212222","19.2","NOTODDEN, NO","FM-15","ENNO ","V020","120,1,N,0057,1","00750,1,C,N","011265,1,N,1","+0200,1","+0150,1","99999,9","02,5,+00600,1,99,9","04,5,+00750,1,99,9","07,5,+01800,1,99,9","07,99,1,99,9,99,9,99999,9,99,9,99,9",,"10139,1,99999,9",,,,"0093,1","MET068METAR ENNO 081120Z 12011G18KT 9999 FEW020 SCT025 BKN060 20/15 Q1014;",
"01470399999","2010-07-08T11:50:00","4","59.565683","9.212222","19.2","NOTODDEN, NO","FM-15","ENNO ","V020","120,1,N,0067,1","00750,1,C,N","011265,1,N,1","+0190,1","+0150,1","99999,9","02,5,+00600,1,99,9","04,5,+00750,1,99,9","07,5,+01800,1,99,9","07,99,1,99,9,99,9,99999,9,99,9,99,9",,"10139,1,99999,9",,,,,"MET065METAR ENNO 081150Z 12013KT 9999 FEW020 SCT025 BKN060 19/15 Q1014;",
"01470399999","2010-07-08T12:50:00","4","59.565683","9.212222","19.2","NOTODDEN, NO","FM-15","ENNO ","V020","140,1,N,0057,1","02250,5,C,N","011265,1,N,1","+0200,1","+0140,1","99999,9","04,5,+00750,1,99,9","07,5,+02250,5,99,9",,"07,99,1,99,9,99,9,99999,9,99,9,99,9",,"10129,1,99999,9",,,,"0098,1","MET061METAR ENNO 081250Z 14011G19KT 9999 SCT025 BKN075 20/14 Q1013;",
"01470399999","2010-07-08T13:50:00","4","59.565683","9.212222","19.2","NOTODDEN, NO","FM-15","ENNO ","V020","140,1,N,0057,1","02250,5,C,N","011265,1,N,1","+0200,1","+0140,1","99999,9","04,5,+00750,1,99,9","07,5,+02250,5,99,9",,"07,99,1,99,9,99,9,99999,9,99,9,99,9",,"10129,1,99999,9",,,,"0093,1","MET061METAR ENNO 081350Z 14011G18KT 9999 SCT025 BKN075 20/14 Q1013;",
"01470399999","2010-07-08T14:50:00","4","59.565683","9.212222","19.2","NOTODDEN, NO","FM-15","ENNO ","V020","140,1,N,0041,1","02250,5,C,N","011265,1,N,1","+0190,1","+0140,1","99999,9","02,5,+00900,1,99,9","07,5,+02250,5,99,9",,"07,99,1,99,9,99,9,99999,9,99,9,99,9",,"10129,1,99999,9","81,1",,,,"MET063METAR ENNO 081450Z 14008KT 9999 SHRA FEW030 BKN075 19/14 Q1013;",
"01470399999","2010-07-08T15:50:00","4","59.565683","9.212222","19.2","NOTODDEN, NO","FM-15","ENNO ","V020","130,1,N,0031,1","04500,1,C,N","011265,1,N,1","+0190,1","+0140,1","99999,9","02,5,+00900,1,99,9","08,5,+04500,1,99,9",,"08,99,1,99,9,99,9,99999,9,99,9,99,9",,"10129,1,99999,9","81,1",,,,"MET063METAR ENNO 081550Z 13006KT 9999 SHRA FEW030 OVC150 19/14 Q1013;",
"01470399999","2010-07-09T04:50:00","4","59.565683","9.212222","19.2","NOTODDEN, NO","FM-15","ENNO ","V020","999,9,V,0010,1","99999,9,9,Y","009900,1,N,1","+0110,1","+0090,1","99999,9",,,,,,"10159,1,99999,9",,,,,"MET045METAR ENNO 090450Z VRB02KT CAVOK 11/09 Q1016;",
"01470399999","2010-07-09T05:50:00","4","59.565683","9.212222","19.2","NOTODDEN, NO","FM-15","ENNO ","V020","999,9,C,0000,1","99999,9,9,Y","009900,1,N,1","+0150,1","+0100,1","99999,9",,,,,,"10169,1,99999,9",,,,,"MET045METAR ENNO 090550Z 00000KT CAVOK 15/10 Q1017;",
"01470399999","2010-07-09T07:20:00","4","59.565683","9.212222","19.2","NOTODDEN, NO","FM-15","ENNO ","V020","999,9,V,0010,1","99999,9,9,Y","009900,1,N,1","+0180,1","+0100,1","99999,9",,,,,,"10159,1,99999,9",,,,,"MET045METAR ENNO 090720Z VRB02KT CAVOK 18/10 Q1016;",
"01470399999","2010-07-09T07:50:00","4","59.565683","9.212222","19.2","NOTODDEN, NO","FM-15","ENNO ","V020","999,9,V,0010,1","99999,9,9,Y","009900,1,N,1","+0190,1","+0080,1","99999,9",,,,,,"10159,1,99999,9",,,,,"MET045METAR ENNO 090750Z VRB02KT CAVOK 19/08 Q1016;",
"01470399999","2010-07-09T08:50:00","4","59.565683","9.212222","19.2","NOTODDEN, NO","FM-15","ENNO ","V020","999,9,V,0015,1","99999,9,9,Y","009900,1,N,1","+0200,1","+0060,1","99999,9",,,,,,"10159,1,99999,9",,,,,"MET045METAR ENNO 090850Z VRB03KT CAVOK 20/06 Q1016;",
"01470399999","2010-07-09T09:50:00","4","59.565683","9.212222","19.2","NOTODDEN, NO","FM-15","ENNO ","V020","999,9,V,0015,1","99999,9,9,Y","009900,1,N,1","+0210,1","+0040,1","99999,9",,,,,,"10159,1,99999,9",,,,,"MET045METAR ENNO 090950Z VRB03KT CAVOK 21/04 Q1016;",
"01470399999","2010-07-09T10:50:00","4","59.565683","9.212222","19.2","NOTODDEN, NO","FM-15","ENNO ","V020","300,1,N,0036,1","99999,9,9,Y","009900,1,N,1","+0220,1","+0050,1","99999,9",,,,,,"10159,1,99999,9",,,,,"MET045METAR ENNO 091050Z 30007KT CAVOK 22/05 Q1016;",
"01470399999","2010-07-09T11:50:00","4","59.565683","9.212222","19.2","NOTODDEN, NO","FM-15","ENNO ","V020","290,1,N,0041,1","99999,9,9,Y","009900,1,N,1","+0220,1","+0040,1","99999,9",,,,,,"10159,1,99999,9",,,,,"MET045METAR ENNO 091150Z 29008KT CAVOK 22/04 Q1016;",
"01470399999","2010-07-09T12:50:00","4","59.565683","9.212222","19.2","NOTODDEN, NO","FM-15","ENNO ","V020","300,1,N,0026,1","99999,9,9,Y","009900,1,N,1","+0240,1","+0050,1","99999,9",,,,,,"10159,1,99999,9",,,,,"MET053METAR ENNO 091250Z 30005KT 250V020 CAVOK 24/05 Q1016;",
"01470399999","2010-07-09T13:50:00","4","59.565683","9.212222","19.2","NOTODDEN, NO","FM-15","ENNO ","V020","310,1,N,0031,1","99999,9,9,Y","009900,1,N,1","+0240,1","+0040,1","99999,9",,,,,,"10159,1,99999,9",,,,,"MET053METAR ENNO 091350Z 31006KT 250V350 CAVOK 24/04 Q1016;",
"01470399999","2010-07-09T14:50:00","4","59.565683","9.212222","19.2","NOTODDEN, NO","FM-15","ENNO ","V020","999,9,V,0015,1","99999,9,9,Y","009900,1,N,1","+0240,1","+0050,1","99999,9",,,,,,"10159,1,99999,9",,,,,"MET045METAR ENNO 091450Z VRB03KT CAVOK 24/05 Q1016;",
"01470399999","2010-07-11T15:50:00","4","59.565683","9.212222","19.2","NOTODDEN, NO","FM-15","ENNO ","V020","999,9,V,0010,1","00540,1,C,N","011265,1,N,1","+0170,1","+0160,1","99999,9","02,5,+00180,1,99,9","07,5,+00540,1,99,9",,"07,99,1,99,9,99,9,99999,9,99,9,99,9",,"10129,1,99999,9",,,,,"MET058METAR ENNO 111550Z VRB02KT 9999 FEW006 BKN018 17/16 Q1013;",
"01470399999","2010-07-11T16:50:00","4","59.565683","9.212222","19.2","NOTODDEN, NO","FM-15","ENNO ","V020","140,1,N,0015,1","00480,1,C,N","011265,1,N,1","+0180,1","+0160,1","99999,9","02,5,+00180,1,99,9","07,5,+00480,1,99,9",,"07,99,1,99,9,99,9,99999,9,99,9,99,9",,"10129,1,99999,9",,,,,"MET058METAR ENNO 111650Z 14003KT 9999 FEW006 BKN016 18/16 Q1013;",
"01470399999","2010-07-11T17:50:00","4","59.565683","9.212222","19.2","NOTODDEN, NO","FM-15","ENNO ","V020","100,1,N,0031,1","00480,1,C,N","011265,1,N,1","+0190,1","+0170,1","99999,9","02,5,+00300,1,99,9","04,5,+00480,1,99,9","07,5,+00750,1,99,9","07,99,1,99,9,99,9,99999,9,99,9,99,9",,"10119,1,99999,9",,,,,"MET073METAR ENNO 111750Z 10006KT 060V140 9999 FEW010 SCT016 BKN025 19/17 Q1012;",
"01470399999","2010-07-12T04:50:00","4","59.565683","9.212222","19.2","NOTODDEN, NO","FM-15","ENNO ","V020","300,1,N,0015,1","22000,1,9,N","011265,1,N,1","+0130,1","+0120,1","99999,9","02,5,+00750,1,99,9",,,"02,99,1,99,9,99,9,99999,9,99,9,99,9",,"10149,1,99999,9",,,,,"MET059METAR ENNO 120450Z 30003KT 280V350 9999 FEW025 13/12 Q1015;",
"01470399999","2010-07-12T05:50:00","4","59.565683","9.212222","19.2","NOTODDEN, NO","FM-15","ENNO ","V020","999,9,V,0005,1","22000,1,9,N","011265,1,N,1","+0150,1","+0120,1","99999,9","02,5,+00750,1,99,9",,,"02,99,1,99,9,99,9,99999,9,99,9,99,9",,"10149,1,99999,9",,,,,"MET051METAR ENNO 120550Z VRB01KT 9999 FEW025 15/12 Q1015;",
"01470399999","2010-07-12T06:50:00","4","59.565683","9.212222","19.2","NOTODDEN, NO","FM-15","ENNO ","V020","100,1,N,0051,1","22000,1,9,N","011265,1,N,1","+0170,1","+0110,1","99999,9","02,5,+01050,1,99,9",,,"02,99,1,99,9,99,9,99999,9,99,9,99,9",,"10149,1,99999,9",,,,,"MET059METAR ENNO 120650Z 10010KT 060V120 9999 FEW035 17/11 Q1015;",
"01470399999","2010-07-12T08:20:00","4","59.565683","9.212222","19.2","NOTODDEN, NO","FM-15","ENNO ","V020","100,1,N,0041,1","22000,1,9,N","011265,1,N,1","+0190,1","+0080,1","99999,9","02,5,+01350,1,99,9",,,"02,99,1,99,9,99,9,99999,9,99,9,99,9",,"10159,1,99999,9",,,,,"MET051METAR ENNO 120820Z 10008KT 9999 FEW045 19/08 Q1016;",
"01470399999","2010-07-12T08:50:00","4","59.565683","9.212222","19.2","NOTODDEN, NO","FM-15","ENNO ","V020","100,1,N,0041,1","22000,1,9,N","011265,1,N,1","+0200,1","+0110,1","99999,9","02,5,+01350,1,99,9",,,"02,99,1,99,9,99,9,99999,9,99,9,99,9",,"10159,1,99999,9",,,,,"MET059METAR ENNO 120850Z 10008KT 070V130 9999 FEW045 20/11 Q1016;",
"01470399999","2010-07-12T09:50:00","4","59.565683","9.212222","19.2","NOTODDEN, NO","FM-15","ENNO ","V020","100,1,N,0031,1","22000,1,9,N","011265,1,N,1","+0200,1","+0110,1","99999,9","02,5,+01350,1,99,9",,,"02,99,1,99,9,99,9,99999,9,99,9,99,9",,"10159,1,99999,9",,,,,"MET059METAR ENNO 120950Z 10006KT 060V140 9999 FEW045 20/11 Q1016;",
"01470399999","2010-07-12T10:50:00","4","59.565683","9.212222","19.2","NOTODDEN, NO","FM-15","ENNO ","V020","100,1,N,0036,1","22000,1,9,N","011265,1,N,1","+0220,1","+0100,1","99999,9","02,5,+01350,1,99,9",,,"02,99,1,99,9,99,9,99999,9,99,9,99,9",,"10149,1,99999,9",,,,,"MET059METAR ENNO 121050Z 10007KT 060V130 9999 FEW045 22/10 Q1015;",
"01470399999","2010-07-12T11:50:00","4","59.565683","9.212222","19.2","NOTODDEN, NO","FM-15","ENNO ","V020","110,1,N,0036,1","22000,1,9,N","011265,1,N,1","+0220,1","+0100,1","99999,9","02,5,+01350,1,99,9",,,"02,99,1,99,9,99,9,99999,9,99,9,99,9",,"10149,1,99999,9",,,,,"MET059METAR ENNO 121150Z 11007KT 080V140 9999 FEW045 22/10 Q1015;",
"01470399999","2010-07-12T12:50:00","4","59.565683","9.212222","19.2","NOTODDEN, NO","FM-15","ENNO ","V020","100,1,N,0041,1","22000,1,9,N","011265,1,N,1","+0230,1","+0100,1","99999,9","02,5,+01350,1,99,9",,,"02,99,1,99,9,99,9,99999,9,99,9,99,9",,"10139,1,99999,9",,,,,"MET059METAR ENNO 121250Z 10008KT 070V140 9999 FEW045 23/10 Q1014;",
"01470399999","2010-07-12T13:50:00","4","59.565683","9.212222","19.2","NOTODDEN, NO","FM-15","ENNO ","V020","100,1,N,0051,1","99999,9,9,Y","009900,1,N,1","+0240,1","+0100,1","99999,9",,,,,,"10139,1,99999,9",,,,,"MET045METAR ENNO 121350Z 10010KT CAVOK 24/10 Q1014;",
"01470399999","2010-07-12T14:50:00","4","59.565683","9.212222","19.2","NOTODDEN, NO","FM-15","ENNO ","V020","120,1,N,0046,1","99999,9,9,Y","009900,1,N,1","+0240,1","+0110,1","99999,9",,,,,,"10129,1,99999,9",,,,,"MET045METAR ENNO 121450Z 12009KT CAVOK 24/11 Q1013;",
"01470399999","2010-07-13T05:20:00","4","59.565683","9.212222","19.2","NOTODDEN, NO","FM-15","ENNO ","V020","250,1,N,0015,1","00510,1,C,N","011265,1,N,1","+0140,1","+0130,1","99999,9","08,5,+00510,1,99,9","02,1,+99999,9,99,9",,"08,99,1,99,9,99,9,99999,9,99,9,99,9",,"10051,1,99999,9",,,,,"MET058METAR ENNO 130520Z 25003KT 9999 FEW/// OVC017 14/13 Q1005;",
"01470399999","2010-07-13T05:50:00","4","59.565683","9.212222","19.2","NOTODDEN, NO","FM-15","ENNO ","V020","280,1,N,0021,1","00570,1,C,N","011265,1,N,1","+0150,1","+0130,1","99999,9","02,5,+00000,5,99,9","07,5,+00570,1,99,9",,"07,99,1,99,9,99,9,99999,9,99,9,99,9",,"10051,1,99999,9",,,,,"MET066METAR ENNO 130550Z 28004KT 250V320 9999 FEW000 BKN019 15/13 Q1005;",
"01470399999","2010-07-13T06:50:00","4","59.565683","9.212222","19.2","NOTODDEN, NO","FM-15","ENNO ","V020","999,9,C,0000,1","00570,1,C,N","011265,1,N,1","+0150,1","+0140,1","99999,9","02,5,+00090,1,99,9","07,5,+00570,1,99,9",,"07,99,1,99,9,99,9,99999,9,99,9,99,9",,"10051,1,99999,9",,,,,"MET058METAR ENNO 130650Z 00000KT 9999 FEW003 BKN019 15/14 Q1005;",
"01470399999","2010-07-13T07:50:00","4","59.565683","9.212222","19.2","NOTODDEN, NO","FM-15","ENNO ","V020","999,9,V,0010,1","00540,1,C,N","011265,1,N,1","+0150,1","+0140,1","99999,9","02,5,+00090,1,99,9","07,5,+00540,1,99,9",,"07,99,1,99,9,99,9,99999,9,99,9,99,9",,"10051,1,99999,9",,,,,"MET058METAR ENNO 130750Z VRB02KT 9999 FEW003 BKN018 15/14 Q1005;",
"01470399999","2010-07-13T08:50:00","4","59.565683","9.212222","19.2","NOTODDEN, NO","FM-15","ENNO ","V020","290,1,N,0021,1","00540,1,C,N","011265,1,N,1","+0160,1","+0140,1","99999,9","02,5,+00090,1,99,9","07,5,+00540,1,99,9",,"07,99,1,99,9,99,9,99999,9,99,9,99,9",,"10051,1,99999,9",,,,,"MET058METAR ENNO 130850Z 29004KT 9999 FEW003 BKN018 16/14 Q1005;",
"01470399999","2010-07-13T09:50:00","4","59.565683","9.212222","19.2","NOTODDEN, NO","FM-15","ENNO ","V020","270,1,N,0015,1","00750,1,C,N","011265,1,N,1","+0170,1","+0150,1","99999,9","04,5,+00540,1,99,9","07,5,+00750,1,99,9",,"07,99,1,99,9,99,9,99999,9,99,9,99,9",,"10041,1,99999,9",,,,,"MET058METAR ENNO 130950Z 27003KT 9999 SCT018 BKN025 17/15 Q1004;",
"01470399999","2010-07-13T10:50:00","4","59.565683","9.212222","19.2","NOTODDEN, NO","FM-15","ENNO ","V020","999,9,V,0015,1","00750,1,C,N","011265,1,N,1","+0180,1","+0160,1","99999,9","07,5,+00750,5,99,9","07,1,+00750,1,99,9",,"07,99,1,99,9,99,9,99999,9,99,9,99,9",,"10041,1,99999,9",,,,,"MET057METAR ENNO 131050Z VRB03KT 9999 FEW18 BKN025 18/16 Q1004;",
"01470399999","2010-07-13T11:50:00","4","59.565683","9.212222","19.2","NOTODDEN, NO","FM-15","ENNO ","V020","120,1,N,0046,1","00750,1,C,N","011265,1,N,1","+0200,1","+0160,1","99999,9","07,5,+00750,5,99,9","07,1,+00750,1,99,9",,"07,99,1,99,9,99,9,99999,9,99,9,99,9",,"10051,1,99999,9",,,,,"MET057METAR ENNO 131150Z 12009KT 9999 FEW18 BKN025 20/16 Q1005;",
"01470399999","2010-07-13T12:50:00","4","59.565683","9.212222","19.2","NOTODDEN, NO","FM-15","ENNO ","V020","110,1,N,0057,1","00750,1,C,N","011265,1,N,1","+0200,1","+0160,1","99999,9","04,5,+00540,1,99,9","07,5,+00750,1,99,9",,"07,99,1,99,9,99,9,99999,9,99,9,99,9",,"10051,1,99999,9",,,,,"MET058METAR ENNO 131250Z 11011KT 9999 SCT018 BKN025 20/16 Q1005;",
"01470399999","2010-07-13T13:50:00","4","59.565683","9.212222","19.2","NOTODDEN, NO","FM-15","ENNO ","V020","130,1,N,0051,1","00780,1,C,N","011265,1,N,1","+0200,1","+0150,1","99999,9","02,5,+00570,1,99,9","04,5,+00780,1,99,9","07,5,+01050,1,99,9","07,99,1,99,9,99,9,99999,9,99,9,99,9",,"10041,1,99999,9",,,,,"MET065METAR ENNO 131350Z 13010KT 9999 FEW019 SCT026 BKN035 20/15 Q1004;",
"01470399999","2010-07-13T14:50:00","4","59.565683","9.212222","19.2","NOTODDEN, NO","FM-15","ENNO ","V020","110,1,N,0057,1","01050,1,C,N","011265,1,N,1","+0200,1","+0140,1","99999,9","04,5,+00780,1,99,9","07,5,+01050,1,99,9",,"07,99,1,99,9,99,9,99999,9,99,9,99,9",,"10041,1,99999,9",,,,,"MET058METAR ENNO 131450Z 11011KT 9999 SCT026 BKN035 20/14 Q1004;",
"01470399999","2010-07-14T04:50:00","4","59.565683","9.212222","19.2","NOTODDEN, NO","FM-15","ENNO ","V020","290,1,N,0021,1","00420,1,C,N","011265,1,N,1","+0140,1","+0120,1","99999,9","02,5,+00210,1,99,9","04,5,+00420,1,99,9","07,5,+00570,1,99,9","07,99,1,99,9,99,9,99999,9,99,9,99,9",,"10071,1,99999,9",,,,,"MET065METAR ENNO 140450Z 29004KT 9999 FEW007 SCT014 BKN019 14/12 Q1007;",
"01470399999","2010-07-14T05:50:00","4","59.565683","9.212222","19.2","NOTODDEN, NO","FM-15","ENNO ","V020","300,1,N,0021,1","99999,9,C,N","011265,1,N,1","+0140,1","+0120,1","99999,9","02,5,+00210,1,99,9","04,5,+00420,1,99,9","04,5,+00570,1,99,9","04,99,1,99,9,99,9,99999,9,99,9,99,9",,"10071,1,99999,9",,,,,"MET065METAR ENNO 140550Z 30004KT 9999 FEW007 SCT014 SCT019 14/12 Q1007;","P01 004203SCOCIG"
"01470399999","2010-07-14T06:50:00","4","59.565683","9.212222","19.2","NOTODDEN, NO","FM-15","ENNO ","V020","260,1,N,0015,1","22000,1,9,N","011265,1,N,1","+0160,1","+0130,1","99999,9","04,5,+00390,1,99,9",,,"04,99,1,99,9,99,9,99999,9,99,9,99,9",,"10081,1,99999,9",,,,,"MET059METAR ENNO 140650Z 26003KT 220V280 9999 SCT013 16/13 Q1008;",
"01470399999","2010-07-14T07:50:00","4","59.565683","9.212222","19.2","NOTODDEN, NO","FM-15","ENNO ","V020","999,9,V,0021,1","22000,1,9,N","011265,1,N,1","+0180,1","+0110,1","99999,9","02,5,+01050,1,99,9",,,"02,99,1,99,9,99,9,99999,9,99,9,99,9",,"10091,1,99999,9",,,,,"MET051METAR ENNO 140750Z VRB04KT 9999 FEW035 18/11 Q1009;",
"01470399999","2010-07-14T08:50:00","4","59.565683","9.212222","19.2","NOTODDEN, NO","FM-15","ENNO ","V020","999,9,V,0021,1","99999,9,9,Y","009900,1,N,1","+0210,1","+0110,1","99999,9",,,,,,"10091,1,99999,9",,,,,"MET045METAR ENNO 140850Z VRB04KT CAVOK 21/11 Q1009;",
"01470399999","2010-07-14T09:50:00","4","59.565683","9.212222","19.2","NOTODDEN, NO","FM-15","ENNO ","V020","120,1,N,0057,1","99999,9,9,Y","009900,1,N,1","+0210,1","+0100,1","99999,9",,,,,,"10091,1,99999,9",,,,,"MET045METAR ENNO 140950Z 12011KT CAVOK 21/10 Q1009;",
"01470399999","2010-07-14T10:50:00","4","59.565683","9.212222","19.2","NOTODDEN, NO","FM-15","ENNO ","V020","180,1,N,0026,1","99999,9,9,Y","009900,1,N,1","+0230,1","+0070,1","99999,9",,,,,,"10091,1,99999,9",,,,,"MET053METAR ENNO 141050Z 18005KT 110V250 CAVOK 23/07 Q1009;",
"01470399999","2010-07-14T11:50:00","4","59.565683","9.212222","19.2","NOTODDEN, NO","FM-15","ENNO ","V020","120,1,N,0041,1","99999,9,9,Y","009900,1,N,1","+0230,1","+0080,1","99999,9",,,,,,"10091,1,99999,9",,,,,"MET053METAR ENNO 141150Z 12008KT 100V160 CAVOK 23/08 Q1009;",
"01470399999","2010-07-14T12:50:00","4","59.565683","9.212222","19.2","NOTODDEN, NO","FM-15","ENNO ","V020","120,1,N,0051,1","99999,9,9,Y","009900,1,N,1","+0240,1","+0070,1","99999,9",,,,,,"10091,1,99999,9",,,,,"MET045METAR ENNO 141250Z 12010KT CAVOK 24/07 Q1009;",
"01470399999","2010-07-14T13:50:00","4","59.565683","9.212222","19.2","NOTODDEN, NO","FM-15","ENNO ","V020","130,1,N,0062,1","22000,1,9,N","011265,1,N,1","+0220,1","+0110,1","99999,9","04,5,+02100,1,99,9",,,"04,99,1,99,9,99,9,99999,9,99,9,99,9",,"10102,1,99999,9",,,,,"MET051METAR ENNO 141350Z 13012KT 9999 SCT070 22/11 Q1010;",
"01470399999","2010-07-14T14:50:00","4","59.565683","9.212222","19.2","NOTODDEN, NO","FM-15","ENNO ","V020","120,1,N,0077,1","22000,1,9,N","011265,1,N,1","+0210,1","+0110,1","99999,9","04,5,+02100,1,99,9",,,"04,99,1,99,9,99,9,99999,9,99,9,99,9",,"10102,1,99999,9",,,,,"MET051METAR ENNO 141450Z 12015KT 9999 SCT070 21/11 Q1010;",
"01470399999","2010-07-14T15:50:00","4","59.565683","9.212222","19.2","NOTODDEN, NO","FM-15","ENNO ","V020","110,1,N,0041,1","99999,9,9,Y","009900,1,N,1","+0210,1","+0110,1","99999,9",,,,,,"10102,1,99999,9",,,,,"MET045METAR ENNO 141550Z 11008KT CAVOK 21/11 Q1010;",
"01470399999","2010-07-15T04:50:00","4","59.565683","9.212222","19.2","NOTODDEN, NO","FM-15","ENNO ","V020","250,1,N,0026,1","99999,9,C,N","011265,1,N,1","+0160,1","+0150,1","99999,9","02,5,+00150,1,99,9","04,5,+01200,1,99,9",,"04,99,1,99,9,99,9,99999,9,99,9,99,9",,"10071,1,99999,9",,,,,"MET058METAR ENNO 150450Z 25005KT 9999 FEW005 SCT040 16/15 Q1007;","P01 012003SCOCIG"
"01470399999","2010-07-15T05:50:00","4","59.565683","9.212222","19.2","NOTODDEN, NO","FM-15","ENNO ","V020","250,1,N,0026,1","01500,1,C,N","011265,1,N,1","+0160,1","+0140,1","99999,9","02,5,+00150,1,99,9","04,5,+01500,1,99,9","07,5,+03000,1,99,9","07,99,1,99,9,99,9,99999,9,99,9,99,9",,"10061,1,99999,9",,,,,"MET065METAR ENNO 150550Z 25005KT 9999 FEW005 SCT050 BKN100 16/14 Q1006;",
"01470399999","2010-07-15T06:50:00","4","59.565683","9.212222","19.2","NOTODDEN, NO","FM-15","ENNO ","V020","230,1,N,0015,1","01050,1,C,N","011265,1,N,1","+0160,1","+0150,1","99999,9","02,5,+00150,1,99,9","04,5,+01050,1,99,9","07,5,+03000,1,99,9","07,99,1,99,9,99,9,99999,9,99,9,99,9",,"10061,1,99999,9","80,1",,,,"MET079METAR ENNO 150650Z 23003KT 200V260 9999 -SHRA FEW005 SCT035 BKN100 16/15 Q1006;",
"01470399999","2010-07-15T07:50:00","4","59.565683","9.212222","19.2","NOTODDEN, NO","FM-15","ENNO ","V020","999,9,V,0015,1","00600,1,C,N","006000,1,N,1","+0160,1","+0160,1","99999,9","07,5,+00600,1,99,9",,,"07,99,1,99,9,99,9,99999,9,99,9,99,9",,"10051,1,99999,9","81,1",,,,"MET056METAR ENNO 150750Z VRB03KT 6000 SHRA BKN020 16/16 Q1005;",
"01470399999","2010-07-15T08:50:00","4","59.565683","9.212222","19.2","NOTODDEN, NO","FM-15","ENNO ","V020","999,9,V,0010,1","00900,1,C,N","007000,1,N,1","+0170,1","+0160,1","99999,9","02,5,+00300,1,99,9","07,5,+00900,1,99,9",,"07,99,1,99,9,99,9,99999,9,99,9,99,9",,"10051,1,99999,9","81,1",,,,"MET063METAR ENNO 150850Z VRB02KT 7000 SHRA FEW010 BKN030 17/16 Q1005;",
"01470399999","2010-07-15T09:50:00","4","59.565683","9.212222","19.2","NOTODDEN, NO","FM-15","ENNO ","V020","999,9,V,0005,1","00810,1,C,N","011265,1,N,1","+0170,1","+0160,1","99999,9","02,5,+00090,1,99,9","07,5,+00810,1,99,9",,"07,99,1,99,9,99,9,99999,9,99,9,99,9",,"10051,1,99999,9","80,1",,,,"MET064METAR ENNO 150950Z VRB01KT 9999 -SHRA FEW003 BKN027 17/16 Q1005;",
"01470399999","2010-07-15T10:50:00","4","59.565683","9.212222","19.2","NOTODDEN, NO","FM-15","ENNO ","V020","100,1,N,0036,1","00600,1,C,N","011265,1,N,1","+0190,1","+0170,1","99999,9","02,5,+00180,1,99,9","04,5,+00600,1,99,9","07,5,+00900,1,99,9","07,99,1,99,9,99,9,99999,9,99,9,99,9",,"10061,1,99999,9",,,,,"MET073METAR ENNO 151050Z 10007KT 060V130 9999 FEW006 SCT020 BKN030 19/17 Q1006;",
"01470399999","2010-07-15T11:50:00","4","59.565683","9.212222","19.2","NOTODDEN, NO","FM-15","ENNO ","V020","110,1,N,0051,1","01140,1,C,N","011265,1,N,1","+0210,1","+0160,1","99999,9","04,5,+00750,1,99,9","07,5,+01140,1,99,9",,"07,99,1,99,9,99,9,99999,9,99,9,99,9",,"10051,1,99999,9",,,,,"MET066METAR ENNO 151150Z 11010KT 080V140 9999 SCT025 BKN038 21/16 Q1005;",
"01470399999","2010-07-15T12:50:00","4","59.565683","9.212222","19.2","NOTODDEN, NO","FM-15","ENNO ","V020","120,1,N,0062,1","01080,1,C,N","011265,1,N,1","+0200,1","+0160,1","99999,9","04,5,+00750,1,99,9","07,5,+01080,1,99,9",,"07,99,1,99,9,99,9,99999,9,99,9,99,9",,"10061,1,99999,9",,,,,"MET058METAR ENNO 151250Z 12012KT 9999 SCT025 BKN036 20/16 Q1006;",
"01470399999","2010-07-15T13:50:00","4","59.565683","9.212222","19.2","NOTODDEN, NO","FM-15","ENNO ","V020","130,1,N,0062,1","99999,9,C,N","011265,1,N,1","+0200,1","+0150,1","99999,9","02,5,+00510,1,99,9","04,5,+00750,1,99,9","04,5,+01080,1,99,9","04,99,1,99,9,99,9,99999,9,99,9,99,9",,"10061,1,99999,9",,,,,"MET065METAR ENNO 151350Z 13012KT 9999 FEW017 SCT025 SCT036 20/15 Q1006;","P01 007503SCOCIG"
"01470399999","2010-07-15T14:50:00","4","59.565683","9.212222","19.2","NOTODDEN, NO","FM-15","ENNO ","V020","110,1,N,0057,1","99999,9,C,N","011265,1,N,1","+0220,1","+0150,1","99999,9","02,5,+00750,1,99,9","04,5,+01080,1,99,9",,"04,99,1,99,9,99,9,99999,9,99,9,99,9",,"10061,1,99999,9",,,,,"MET066METAR ENNO 151450Z 11011KT 080V140 9999 FEW025 SCT036 22/15 Q1006;","P01 010803SCOCIG"
"01470399999","2010-07-15T15:50:00","4","59.565683","9.212222","19.2","NOTODDEN, NO","FM-15","ENNO ","V020","120,1,N,0062,1","22000,1,9,N","011265,1,N,1","+0220,1","+0130,1","99999,9","04,5,+01050,1,99,9",,,"04,99,1,99,9,99,9,99999,9,99,9,99,9",,"10061,1,99999,9",,,,,"MET051METAR ENNO 151550Z 12012KT 9999 SCT035 22/13 Q1006;",
"01470399999","2010-07-16T04:50:00","4","59.565683","9.212222","19.2","NOTODDEN, NO","FM-15","ENNO ","V020","120,1,N,0041,1","00780,1,C,N","011265,1,N,1","+0170,1","+0130,1","99999,9","04,5,+00660,1,99,9","07,5,+00780,1,99,9",,"07,99,1,99,9,99,9,99999,9,99,9,99,9",,"10129,1,99999,9","61,1",,,,"MET070METAR ENNO 160450Z 12008KT 080V140 9999 -RA SCT022 BKN026 17/13 Q1013;",
"01470399999","2010-07-16T05:50:00","4","59.565683","9.212222","19.2","NOTODDEN, NO","FM-15","ENNO ","V020","120,1,N,0046,1","00660,1,C,N","011265,1,N,1","+0170,1","+0130,1","99999,9","02,5,+00480,1,99,9","04,5,+00660,1,99,9","07,5,+00780,1,99,9","07,99,1,99,9,99,9,99999,9,99,9,99,9",,"10129,1,99999,9","16,1",,,,"MET070METAR ENNO 160550Z 12009KT 9999 VCSH FEW016 SCT022 BKN026 17/13 Q1013;",
"01470399999","2010-07-16T06:50:00","4","59.565683","9.212222","19.2","NOTODDEN, NO","FM-15","ENNO ","V020","110,1,N,0041,1","00660,1,C,N","011265,1,N,1","+0180,1","+0140,1","99999,9","02,5,+00480,1,99,9","04,5,+00660,1,99,9","07,5,+00780,1,99,9","07,99,1,99,9,99,9,99999,9,99,9,99,9",,"10129,1,99999,9","16,1",,,,"MET070METAR ENNO 160650Z 11008KT 9999 VCSH FEW016 SCT022 BKN026 18/14 Q1013;",
"01470399999","2010-07-16T07:50:00","4","59.565683","9.212222","19.2","NOTODDEN, NO","FM-15","ENNO ","V020","110,1,N,0046,1","00660,1,C,N","011265,1,N,1","+0180,1","+0130,1","99999,9","02,5,+00480,1,99,9","04,5,+00660,1,99,9","07,5,+00780,1,99,9","07,99,1,99,9,99,9,99999,9,99,9,99,9",,"10139,1,99999,9","16,1",,,,"MET070METAR ENNO 160750Z 11009KT 9999 VCSH FEW016 SCT022 BKN026 18/13 Q1014;",
"01470399999","2010-07-16T09:20:00","4","59.565683","9.212222","19.2","NOTODDEN, NO","FM-15","ENNO ","V020","110,1,N,0046,1","01200,1,C,N","011265,1,N,1","+0200,1","+0120,1","99999,9","07,5,+01200,1,99,9",,,"07,99,1,99,9,99,9,99999,9,99,9,99,9",,"10139,1,99999,9",,,,,"MET059METAR ENNO 160920Z 11009KT 070V150 9999 BKN040 20/12 Q1014;",
"01470399999","2010-07-16T09:50:00","4","59.565683","9.212222","19.2","NOTODDEN, NO","FM-15","ENNO ","V020","120,1,N,0057,1","01200,1,C,N","011265,1,N,1","+0200,1","+0120,1","99999,9","07,5,+01200,1,99,9",,,"07,99,1,99,9,99,9,99999,9,99,9,99,9",,"10139,1,99999,9",,,,,"MET059METAR ENNO 160950Z 12011KT 080V150 9999 BKN040 20/12 Q1014;",
"01470399999","2010-07-16T10:50:00","4","59.565683","9.212222","19.2","NOTODDEN, NO","FM-15","ENNO ","V020","999,9,V,0051,1","01350,1,C,N","011265,1,N,1","+0220,1","+0130,1","99999,9","07,5,+01350,1,99,9",,,"07,99,1,99,9,99,9,99999,9,99,9,99,9",,"10139,1,99999,9",,,,,"MET051METAR ENNO 161050Z VRB10KT 9999 BKN045 22/13 Q1014;",
"01470399999","2010-07-16T11:50:00","4","59.565683","9.212222","19.2","NOTODDEN, NO","FM-15","ENNO ","V020","120,1,N,0067,1","01800,1,C,N","011265,1,N,1","+0210,1","+0120,1","99999,9","04,5,+01350,1,99,9","07,5,+01800,1,99,9",,"07,99,1,99,9,99,9,99999,9,99,9,99,9",,"10139,1,99999,9",,,,,"MET066METAR ENNO 161150Z 12013KT 090V150 9999 SCT045 BKN060 21/12 Q1014;",
"01470399999","2010-07-16T12:50:00","4","59.565683","9.212222","19.2","NOTODDEN, NO","FM-15","ENNO ","V020","120,1,N,0072,1","01800,1,C,N","011265,1,N,1","+0220,1","+0120,1","99999,9","04,5,+01350,1,99,9","07,5,+01800,1,99,9",,"07,99,1,99,9,99,9,99999,9,99,9,99,9",,"10139,1,99999,9",,,,"0123,1","MET069METAR ENNO 161250Z 12014G24KT 080V160 9999 SCT045 BKN060 22/12 Q1014;",
"01470399999","2010-07-16T13:50:00","4","59.565683","9.212222","19.2","NOTODDEN, NO","FM-15","ENNO ","V020","120,1,N,0082,1","01800,1,C,N","011265,1,N,1","+0210,1","+0120,1","99999,9","04,5,+01290,1,99,9","07,5,+01800,1,99,9",,"07,99,1,99,9,99,9,99999,9,99,9,99,9",,"10129,1,99999,9",,,,"0139,1","MET069METAR ENNO 161350Z 12016G27KT 090V150 9999 SCT043 BKN060 21/12 Q1013;",
"01470399999","2010-07-16T14:50:00","4","59.565683","9.212222","19.2","NOTODDEN, NO","FM-15","ENNO ","V020","120,1,N,0093,1","01650,5,C,N","011265,1,N,1","+0220,1","+0120,1","99999,9","02,5,+01260,1,99,9","07,5,+01650,5,99,9",,"07,99,1,99,9,99,9,99999,9,99,9,99,9",,"10129,1,99999,9",,,,,"MET058METAR ENNO 161450Z 12018KT 9999 FEW042 BKN055 22/12 Q1013;",
"01470399999","2010-07-16T15:50:00","4","59.565683","9.212222","19.2","NOTODDEN, NO","FM-15","ENNO ","V020","130,1,N,0093,1","02100,1,C,N","011265,1,N,1","+0220,1","+0120,1","99999,9","02,5,+01500,1,99,9","07,5,+02100,1,99,9",,"07,99,1,99,9,99,9,99999,9,99,9,99,9",,"10119,1,99999,9",,,,"0154,1","MET069METAR ENNO 161550Z 13018G30KT 100V160 9999 FEW050 BKN070 22/12 Q1012;",
"01470399999","2010-07-18T15:50:00","4","59.565683","9.212222","19.2","NOTODDEN, NO","FM-15","ENNO ","V020","999,9,V,0015,1","22000,1,9,N","011265,1,N,1","+0220,1","+0070,1","99999,9","04,5,+01950,5,99,9",,,"04,99,1,99,9,99,9,99999,9,99,9,99,9",,"10180,1,99999,9",,,,,"MET051METAR ENNO 181550Z VRB03KT 9999 SCT065 22/07 Q1018;",
"01470399999","2010-07-18T16:50:00","4","59.565683","9.212222","19.2","NOTODDEN, NO","FM-15","ENNO ","V020","210,1,N,0026,1","22000,1,9,N","011265,1,N,1","+0220,1","+0040,1","99999,9","02,5,+01950,5,99,9",,,"02,99,1,99,9,99,9,99999,9,99,9,99,9",,"10180,1,99999,9",,,,,"MET059METAR ENNO 181650Z 21005KT 120V280 9999 FEW065 22/04 Q1018;",
"01470399999","2010-07-19T04:50:00","4","59.565683","9.212222","19.2","NOTODDEN, NO","FM-15","ENNO ","V020","999,9,V,0026,1","22000,1,9,N","011265,1,N,1","+0140,1","+0080,1","99999,9","04,5,+01800,1,99,9",,,"04,99,1,99,9,99,9,99999,9,99,9,99,9",,"10180,1,99999,9",,,,,"MET051METAR ENNO 190450Z VRB05KT 9999 SCT060 14/08 Q1018;",
"01470399999","2010-07-19T05:50:00","4","59.565683","9.212222","19.2","NOTODDEN, NO","FM-15","ENNO ","V020","090,1,N,0036,1","99999,9,C,N","011265,1,N,1","+0160,1","+0090,1","99999,9","02,5,+01350,1,99,9","04,5,+01800,1,99,9",,"04,99,1,99,9,99,9,99999,9,99,9,99,9",,"10180,1,99999,9",,,,,"MET066METAR ENNO 190550Z 09007KT 030V110 9999 FEW045 SCT060 16/09 Q1018;","P01 018003SCOCIG"
"01470399999","2010-07-19T06:50:00","4","59.565683","9.212222","19.2","NOTODDEN, NO","FM-15","ENNO ","V020","110,1,N,0046,1","03300,5,9,N","999999,9,N,1","+0180,1","+0100,1","99999,9","02,5,+01350,5,99,9","07,5,+03300,5,99,9",,,,"10180,1,99999,9",,,,,"MET057METAR ENNO 190650Z 11009KT 999 FEW045 BKN110 18/10 Q1018;",
"01470399999","2010-07-19T07:50:00","4","59.565683","9.212222","19.2","NOTODDEN, NO","FM-15","ENNO ","V020","120,1,N,0041,1","01260,1,C,N","011265,1,N,1","+0170,1","+0110,1","99999,9","02,5,+00900,1,99,9","07,5,+01260,1,99,9",,"07,99,1,99,9,99,9,99999,9,99,9,99,9",,"10190,1,99999,9",,,,,"MET066METAR ENNO 190750Z 12008KT 080V150 9999 FEW030 BKN042 17/11 Q1019;",
"01470399999","2010-07-19T08:50:00","4","59.565683","9.212222","19.2","NOTODDEN, NO","FM-15","ENNO ","V020","100,1,N,0026,1","01350,1,C,N","011265,1,N,1","+0170,1","+0130,1","99999,9","02,5,+00750,1,99,9","07,5,+01350,1,99,9",,"07,99,1,99,9,99,9,99999,9,99,9,99,9",,"10180,1,99999,9","61,1",,,,"MET070METAR ENNO 190850Z 10005KT 060V140 9999 -RA FEW025 BKN045 17/13 Q1018;",
"01470399999","2010-07-19T09:50:00","4","59.565683","9.212222","19.2","NOTODDEN, NO","FM-15","ENNO ","V020","090,1,N,0031,1","00600,1,C,N","011265,1,N,1","+0170,1","+0140,1","99999,9","08,5,+00600,1,99,9",,,"08,99,1,99,9,99,9,99999,9,99,9,99,9",,"10180,1,99999,9","61,1",,,,"MET055METAR ENNO 190950Z 09006KT 9999 -RA OVC020 17/14 Q1018;",
"01470399999","2010-07-19T10:50:00","4","59.565683","9.212222","19.2","NOTODDEN, NO","FM-15","ENNO ","V020","290,1,N,0026,1","00510,1,C,N","009000,1,N,1","+0160,1","+0140,1","99999,9","08,5,+00510,1,99,9",,,"08,99,1,99,9,99,9,99999,9,99,9,99,9",,"10180,1,99999,9","10,1","61,1",,,"MET058METAR ENNO 191050Z 29005KT 9000 -RA BR OVC017 16/14 Q1018;",
"01470399999","2010-07-19T11:50:00","4","59.565683","9.212222","19.2","NOTODDEN, NO","FM-15","ENNO ","V020","999,9,V,0005,1","00600,1,C,N","009000,1,N,1","+0170,1","+0150,1","99999,9","02,5,+00450,1,99,9","07,5,+00600,1,99,9",,"07,99,1,99,9,99,9,99999,9,99,9,99,9",,"10169,1,99999,9","61,1",,,,"MET062METAR ENNO 191150Z VRB01KT 9000 -RA FEW015 BKN020 17/15 Q1017;",
"01470399999","2010-07-19T12:50:00","4","59.565683","9.212222","19.2","NOTODDEN, NO","FM-15","ENNO ","V020","999,9,C,0000,1","00750,1,C,N","005000,1,N,1","+0170,1","+0160,1","99999,9","04,5,+00300,1,99,9","08,5,+00750,1,99,9",,"08,99,1,99,9,99,9,99999,9,99,9,99,9",,"10159,1,99999,9","10,1","61,1",,,"MET065METAR ENNO 191250Z 00000KT 5000 -RA BR SCT010 OVC025 17/16 Q1016;",
"01470399999","2010-07-19T13:50:00","4","59.565683","9.212222","19.2","NOTODDEN, NO","FM-15","ENNO ","V020","100,1,N,0031,1","00600,1,C,N","009000,1,N,1","+0190,1","+0160,1","99999,9","04,5,+00300,1,99,9","07,5,+00600,1,99,9",,"07,99,1,99,9,99,9,99999,9,99,9,99,9",,"10159,1,99999,9","61,1",,,,"MET062METAR ENNO 191350Z 10006KT 9000 -RA SCT010 BKN020 19/16 Q1016;",
"01470399999","2010-07-19T14:50:00","4","59.565683","9.212222","19.2","NOTODDEN, NO","FM-15","ENNO ","V020","090,1,N,0026,1","01200,1,C,N","011265,1,N,1","+0200,1","+0160,1","99999,9","04,5,+00600,1,99,9","07,5,+01200,1,99,9",,"07,99,1,99,9,99,9,99999,9,99,9,99,9",,"10149,1,99999,9",,,,,"MET058METAR ENNO 191450Z 09005KT 9999 SCT020 BKN040 20/16 Q1015;",
"01470399999","2010-07-19T15:50:00","4","59.565683","9.212222","19.2","NOTODDEN, NO","FM-15","ENNO ","V020","280,1,N,0031,1","01350,1,C,N","011265,1,N,1","+0190,1","+0160,1","99999,9","04,5,+00750,1,99,9","07,5,+01350,1,99,9",,"07,99,1,99,9,99,9,99999,9,99,9,99,9",,"10149,1,99999,9",,,,,"MET058METAR ENNO 191550Z 28006KT 9999 SCT025 BKN045 19/16 Q1015;",
"01470399999","2010-07-20T04:50:00","4","59.565683","9.212222","19.2","NOTODDEN, NO","FM-15","ENNO ","V020","999,9,C,0000,1","00840,1,C,N","011265,1,N,1","+0130,1","+0110,1","99999,9","02,5,+00300,1,99,9","08,5,+00840,1,99,9",,"08,99,1,99,9,99,9,99999,9,99,9,99,9",,"10159,1,99999,9","61,1",,,,"MET062METAR ENNO 200450Z 00000KT 9999 -RA FEW010 OVC028 13/11 Q1016;",
"01470399999","2010-07-20T05:50:00","4","59.565683","9.212222","19.2","NOTODDEN, NO","FM-15","ENNO ","V020","999,9,V,0005,1","00600,1,C,N","011265,1,N,1","+0130,1","+0120,1","99999,9","02,5,+00300,1,99,9","04,5,+00600,1,99,9","08,5,+02550,5,99,9","08,99,1,99,9,99,9,99999,9,99,9,99,9",,"10159,1,99999,9","61,1",,,,"MET069METAR ENNO 200550Z VRB01KT 9999 -RA FEW010 SCT020 OVC085 13/12 Q1016;",
"01470399999","2010-07-20T06:50:00","4","59.565683","9.212222","19.2","NOTODDEN, NO","FM-15","ENNO ","V020","999,9,C,0000,1","00540,1,C,N","011265,1,N,1","+0130,1","+0120,1","99999,9","02,5,+00300,1,99,9","08,5,+00540,1,99,9",,"08,99,1,99,9,99,9,99999,9,99,9,99,9",,"10159,1,99999,9",,,,,"MET058METAR ENNO 200650Z 00000KT 9999 FEW010 OVC018 13/12 Q1016;",
"01470399999","2010-07-20T07:50:00","4","59.565683","9.212222","19.2","NOTODDEN, NO","FM-15","ENNO ","V020","999,9,C,0000,1","00600,1,C,N","011265,1,N,1","+0140,1","+0120,1","99999,9","02,5,+00300,1,99,9","08,5,+00600,1,99,9",,"08,99,1,99,9,99,9,99999,9,99,9,99,9",,"10149,1,99999,9",,,,,"MET058METAR ENNO 200750Z 00000KT 9999 FEW010 OVC020 14/12 Q1015;",
"01470399999","2010-07-20T08:50:00","4","59.565683","9.212222","19.2","NOTODDEN, NO","FM-15","ENNO ","V020","999,9,C,0000,1","00600,1,C,N","011265,1,N,1","+0140,1","+0120,1","99999,9","02,5,+00300,1,99,9","08,5,+00600,1,99,9",,"08,99,1,99,9,99,9,99999,9,99,9,99,9",,"10149,1,99999,9",,,,,"MET058METAR ENNO 200850Z 00000KT 9999 FEW010 OVC020 14/12 Q1015;",
"01470399999","2010-07-20T09:50:00","4","59.565683","9.212222","19.2","NOTODDEN, NO","FM-15","ENNO ","V020","999,9,V,0005,1","00900,1,C,N","011265,1,N,1","+0150,1","+0130,1","99999,9","04,5,+00600,1,99,9","07,5,+00900,1,99,9",,"07,99,1,99,9,99,9,99999,9,99,9,99,9",,"10149,1,99999,9",,,,,"MET058METAR ENNO 200950Z VRB01KT 9999 SCT020 BKN030 15/13 Q1015;",
"01470399999","2010-07-20T10:50:00","4","59.565683","9.212222","19.2","NOTODDEN, NO","FM-15","ENNO ","V020","999,9,V,0010,1","00660,1,C,N","011265,1,N,1","+0150,1","+0130,1","99999,9","02,5,+00300,1,99,9","04,5,+00660,1,99,9","07,5,+00750,1,99,9","07,99,1,99,9,99,9,99999,9,99,9,99,9",,"10149,1,99999,9",,,,,"MET065METAR ENNO 201050Z VRB02KT 9999 FEW010 SCT022 BKN025 15/13 Q1015;",
"01470399999","2010-07-20T11:50:00","4","59.565683","9.212222","19.2","NOTODDEN, NO","FM-15","ENNO ","V020","999,9,V,0010,1","00750,1,C,N","011265,1,N,1","+0160,1","+0150,1","99999,9","07,5,+00750,1,99,9",,,"07,99,1,99,9,99,9,99999,9,99,9,99,9",,"10149,1,99999,9","61,1",,,,"MET055METAR ENNO 201150Z VRB02KT 9999 -RA BKN025 16/15 Q1015;",
"01470399999","2010-07-20T12:50:00","4","59.565683","9.212222","19.2","NOTODDEN, NO","FM-15","ENNO ","V020","280,1,N,0015,1","00750,1,C,N","011265,1,N,1","+0170,1","+0160,1","99999,9","07,5,+00750,1,99,9",,,"07,99,1,99,9,99,9,99999,9,99,9,99,9",,"10139,1,99999,9",,,,,"MET051METAR ENNO 201250Z 28003KT 9999 BKN025 17/16 Q1014;",
"01470399999","2010-07-20T13:50:00","4","59.565683","9.212222","19.2","NOTODDEN, NO","FM-15","ENNO ","V020","100,1,N,0026,1","02100,1,C,N","011265,1,N,1","+0190,1","+0160,1","99999,9","04,5,+00750,1,99,9","07,5,+02100,1,99,9",,"07,99,1,99,9,99,9,99999,9,99,9,99,9",,"10139,1,99999,9",,,,,"MET066METAR ENNO 201350Z 10005KT 060V130 9999 SCT025 BKN070 19/16 Q1014;",
"01470399999","2010-07-20T14:50:00","4","59.565683","9.212222","19.2","NOTODDEN, NO","FM-15","ENNO ","V020","999,9,V,0021,1","01200,1,C,N","011265,1,N,1","+0190,1","+0150,1","99999,9","02,5,+00300,1,99,9","04,5,+01200,1,99,9","07,5,+02100,1,99,9","07,99,1,99,9,99,9,99999,9,99,9,99,9",,"10139,1,99999,9","51,1","61,1",,"0072,1","MET074METAR ENNO 201450Z VRB04G14KT 9999 -RADZ FEW010 SCT040 BKN070 19/15 Q1014;",
"01470399999","2010-07-20T15:50:00","4","59.565683","9.212222","19.2","NOTODDEN, NO","FM-15","ENNO ","V020","080,1,N,0026,1","99999,9,C,N","011265,1,N,1","+0180,1","+0160,1","99999,9","02,5,+00450,1,99,9","04,5,+01200,1,99,9",,"04,99,1,99,9,99,9,99999,9,99,9,99,9",,"10129,1,99999,9","51,1","61,1",,,"MET072METAR ENNO 201550Z 08005KT 050V120 9999 -RADZ FEW015 SCT040 18/16 Q1013;","P01 012003SCOCIG"
"01470399999","2010-07-21T05:20:00","4","59.565683","9.212222","19.2","NOTODDEN, NO","FM-15","ENNO ","V020","999,9,C,0000,1","00300,1,C,N","011265,1,N,1","+0140,1","+0140,1","99999,9","02,5,+00090,1,99,9","07,5,+00300,1,99,9",,"07,99,1,99,9,99,9,99999,9,99,9,99,9",,"10108,1,99999,9",,,,,"MET058METAR ENNO 210520Z 00000KT 9999 FEW003 BKN010 14/14 Q1011;",
"01470399999","2010-07-21T05:50:00","4","59.565683","9.212222","19.2","NOTODDEN, NO","FM-15","ENNO ","V020","999,9,C,0000,1","00300,1,C,N","011265,1,N,1","+0150,1","+0140,1","99999,9","02,5,+00090,1,99,9","07,5,+00300,1,99,9",,"07,99,1,99,9,99,9,99999,9,99,9,99,9",,"10108,1,99999,9","61,1",,,,"MET062METAR ENNO 210550Z 00000KT 9999 -RA FEW003 BKN010 15/14 Q1011;",
"01470399999","2010-07-21T06:50:00","4","59.565683","9.212222","19.2","NOTODDEN, NO","FM-15","ENNO ","V020","999,9,C,0000,1","00240,1,C,N","011265,1,N,1","+0150,1","+0140,1","99999,9","02,5,+00150,1,99,9","07,5,+00240,1,99,9",,"07,99,1,99,9,99,9,99999,9,99,9,99,9",,"10108,1,99999,9","51,1","61,1",,,"MET064METAR ENNO 210650Z 00000KT 9999 -RADZ FEW005 BKN008 15/14 Q1011;",
"01470399999","2010-07-21T07:50:00","4","59.565683","9.212222","19.2","NOTODDEN, NO","FM-15","ENNO ","V020","999,9,C,0000,1","00240,1,C,N","011265,1,N,1","+0160,1","+0140,1","99999,9","02,5,+00090,1,99,9","07,5,+00240,1,99,9",,"07,99,1,99,9,99,9,99999,9,99,9,99,9",,"10108,1,99999,9","51,1","61,1",,,"MET064METAR ENNO 210750Z 00000KT 9999 -RADZ FEW003 BKN008 16/14 Q1011;",
"01470399999","2010-07-21T08:50:00","4","59.565683","9.212222","19.2","NOTODDEN, NO","FM-15","ENNO ","V020","999,9,V,0010,1","99999,9,C,N","011265,1,N,1","+0170,1","+0150,1","99999,9","02,5,+00240,1,99,9","04,5,+00750,1,99,9",,"04,99,1,99,9,99,9,99999,9,99,9,99,9",,"10102,1,99999,9",,,,,"MET058METAR ENNO 210850Z VRB02KT 9999 FEW008 SCT025 17/15 Q1010;","P01 007503SCOCIG"
"01470399999","2010-07-21T09:50:00","4","59.565683","9.212222","19.2","NOTODDEN, NO","FM-15","ENNO ","V020","999,9,V,0015,1","99999,9,C,N","011265,1,N,1","+0200,1","+0160,1","99999,9","02,5,+00450,1,99,9","04,5,+01500,1,99,9",,"04,99,1,99,9,99,9,99999,9,99,9,99,9",,"10102,1,99999,9",,,,,"MET058METAR ENNO 210950Z VRB03KT 9999 FEW015 SCT050 20/16 Q1010;","P01 015003SCOCIG"
"01470399999","2010-07-21T10:50:00","4","59.565683","9.212222","19.2","NOTODDEN, NO","FM-15","ENNO ","V020","999,9,V,0005,1","99999,9,C,N","011265,1,N,1","+0210,1","+0170,1","99999,9","02,5,+00900,1,99,9","04,5,+04500,1,99,9",,"04,99,1,99,9,99,9,99999,9,99,9,99,9",,"10091,1,99999,9",,,,,"MET058METAR ENNO 211050Z VRB01KT 9999 FEW030 SCT150 21/17 Q1009;","P01 045003SCOCIG"
"01470399999","2010-07-21T11:50:00","4","59.565683","9.212222","19.2","NOTODDEN, NO","FM-15","ENNO ","V020","999,9,C,0000,1","22000,1,9,N","011265,1,N,1","+0220,1","+0160,1","99999,9","02,5,+00900,1,99,9",,,"02,99,1,99,9,99,9,99999,9,99,9,99,9",,"10081,1,99999,9",,,,,"MET051METAR ENNO 211150Z 00000KT 9999 FEW030 22/16 Q1008;",
"01470399999","2010-07-21T12:50:00","4","59.565683","9.212222","19.2","NOTODDEN, NO","FM-15","ENNO ","V020","150,1,N,0036,1","04500,1,C,N","011265,1,N,1","+0240,1","+0150,1","99999,9","02,5,+01350,1,99,9","07,5,+04500,1,99,9",,"07,99,1,99,9,99,9,99999,9,99,9,99,9",,"10081,1,99999,9",,,,,"MET058METAR ENNO 211250Z 15007KT 9999 FEW045 BKN150 24/15 Q1008;",
"01470399999","2010-07-21T14:50:00","4","59.565683","9.212222","19.2","NOTODDEN, NO","FM-15","ENNO ","V020","130,1,N,0046,1","99999,9,C,N","011265,1,N,1","+0230,1","+0150,1","99999,9","02,5,+01350,1,99,9","04,5,+05100,1,99,9",,"04,99,1,99,9,99,9,99999,9,99,9,99,9",,"10071,1,99999,9",,,,,"MET058METAR ENNO 211450Z 13009KT 9999 FEW045 SCT170 23/15 Q1007;","P01 051003SCOCIG"
"01470399999","2010-07-21T15:20:00","4","59.565683","9.212222","19.2","NOTODDEN, NO","FM-15","ENNO ","V020","140,1,N,0036,1","99999,9,C,N","011265,1,N,1","+0230,1","+0140,1","99999,9","02,5,+01350,1,99,9","04,5,+04500,1,99,9",,"04,99,1,99,9,99,9,99999,9,99,9,99,9",,"10061,1,99999,9",,,,,"MET058METAR ENNO 211520Z 14007KT 9999 FEW045 SCT150 23/14 Q1006;","P01 045003SCOCIG"
"01470399999","2010-07-21T15:50:00","4","59.565683","9.212222","19.2","NOTODDEN, NO","FM-15","ENNO ","V020","130,1,N,0046,1","99999,9,C,N","011265,1,N,1","+0230,1","+0140,1","99999,9","02,5,+01350,1,99,9","04,5,+04800,1,99,9",,"04,99,1,99,9,99,9,99999,9,99,9,99,9",,"10061,1,99999,9",,,,,"MET058METAR ENNO 211550Z 13009KT 9999 FEW045 SCT160 23/14 Q1006;","P01 048003SCOCIG"
"01470399999","2010-07-22T04:50:00","4","59.565683","9.212222","19.2","NOTODDEN, NO","FM-15","ENNO ","V020","110,1,N,0031,1","00900,1,C,N","009000,1,N,1","+0180,1","+0160,1","99999,9","02,5,+00000,5,99,9","07,5,+00900,1,99,9",,"07,99,1,99,9,99,9,99999,9,99,9,99,9",,"10020,1,99999,9",,,,,"MET065METAR ENNO 220450Z 11006KT 9000 4000NW FEW000 BKN030 18/16 Q1002;",
"01470399999","2010-07-22T05:50:00","4","59.565683","9.212222","19.2","NOTODDEN, NO","FM-15","ENNO ","V020","999,9,V,0005,1","00750,1,C,N","009000,1,N,1","+0170,1","+0160,1","99999,9","02,5,+00150,1,99,9","07,5,+00750,1,99,9",,"07,99,1,99,9,99,9,99999,9,99,9,99,9",,"10020,1,99999,9",,,,,"MET058METAR ENNO 220550Z VRB01KT 9000 FEW005 BKN025 17/16 Q1002;",
"01470399999","2010-07-22T06:50:00","4","59.565683","9.212222","19.2","NOTODDEN, NO","FM-15","ENNO ","V020","999,9,V,0015,1","22000,1,9,N","011265,1,N,1","+0190,1","+0150,1","99999,9","04,5,+00900,1,99,9",,,"04,99,1,99,9,99,9,99999,9,99,9,99,9",,"10020,1,99999,9",,,,,"MET051METAR ENNO 220650Z VRB03KT 9999 SCT030 19/15 Q1002;",
"01470399999","2010-07-22T07:50:00","4","59.565683","9.212222","19.2","NOTODDEN, NO","FM-15","ENNO ","V020","230,1,N,0036,1","22000,1,9,N","011265,1,N,1","+0200,1","+0100,1","99999,9","02,5,+01050,1,99,9",,,"02,99,1,99,9,99,9,99999,9,99,9,99,9",,"10031,1,99999,9",,,,,"MET059METAR ENNO 220750Z 23007KT 130V290 9999 FEW035 20/10 Q1003;",
"01470399999","2010-07-22T08:50:00","4","59.565683","9.212222","19.2","NOTODDEN, NO","FM-15","ENNO ","V020","220,1,N,0026,1","99999,9,C,N","011265,1,N,1","+0210,1","+0100,1","99999,9","02,5,+01200,1,99,9","04,5,+04500,1,99,9",,"04,99,1,99,9,99,9,99999,9,99,9,99,9",,"10031,1,99999,9",,,,,"MET066METAR ENNO 220850Z 22005KT 140V280 9999 FEW040 SCT150 21/10 Q1003;","P01 045003SCOCIG"
"01470399999","2010-07-22T09:50:00","4","59.565683","9.212222","19.2","NOTODDEN, NO","FM-15","ENNO ","V020","200,1,N,0041,1","22000,1,9,N","011265,1,N,1","+0220,1","+0090,1","99999,9","04,5,+01800,1,99,9",,,"04,99,1,99,9,99,9,99999,9,99,9,99,9",,"10031,1,99999,9",,,,,"MET059METAR ENNO 220950Z 20008KT 140V260 9999 SCT060 22/09 Q1003;",
"01470399999","2010-07-22T10:50:00","4","59.565683","9.212222","19.2","NOTODDEN, NO","FM-15","ENNO ","V020","190,1,N,0041,1","22000,1,9,N","011265,1,N,1","+0230,1","+0090,1","99999,9","04,5,+01800,1,99,9",,,"04,99,1,99,9,99,9,99999,9,99,9,99,9",,"10031,1,99999,9",,,,,"MET059METAR ENNO 221050Z 19008KT 120V270 9999 SCT060 23/09 Q1003;",
"01470399999","2010-07-22T11:50:00","4","59.565683","9.212222","19.2","NOTODDEN, NO","FM-15","ENNO ","V020","200,1,N,0046,1","22000,1,9,N","011265,1,N,1","+0240,1","+0080,1","99999,9","04,5,+01950,5,99,9",,,"04,99,1,99,9,99,9,99999,9,99,9,99,9",,"10031,1,99999,9",,,,,"MET059METAR ENNO 221150Z 20009KT 120V270 9999 SCT065 24/08 Q1003;",
"01470399999","2010-07-22T12:50:00","4","59.565683","9.212222","19.2","NOTODDEN, NO","FM-15","ENNO ","V020","290,1,N,0072,1","22000,1,9,N","011265,1,N,1","+0220,1","+0110,1","99999,9","04,5,+01950,5,99,9",,,"04,99,1,99,9,99,9,99999,9,99,9,99,9",,"10051,1,99999,9",,,,"0123,1","MET054METAR ENNO 221250Z 29014G24KT 9999 SCT065 22/11 Q1005;",
"01470399999","2010-07-22T13:50:00","4","59.565683","9.212222","19.2","NOTODDEN, NO","FM-15","ENNO ","V020","290,1,N,0067,1","99999,9,C,N","011265,1,N,1","+0220,1","+0070,1","99999,9","02,5,+01950,5,99,9","04,5,+02700,1,99,9",,"04,99,1,99,9,99,9,99999,9,99,9,99,9",,"10051,1,99999,9",,,,,"MET066METAR ENNO 221350Z 29013KT 260V330 9999 FEW065 SCT090 22/07 Q1005;","P01 027003SCOCIG"
"01470399999","2010-07-22T14:50:00","4","59.565683","9.212222","19.2","NOTODDEN, NO","FM-15","ENNO ","V020","290,1,N,0062,1","99999,9,9,Y","009900,1,N,1","+0220,1","+0020,1","99999,9",,,,,,"10061,1,99999,9",,,,,"MET045METAR ENNO 221450Z 29012KT CAVOK 22/02 Q1006;",
"01470399999","2010-07-22T15:50:00","4","59.565683","9.212222","19.2","NOTODDEN, NO","FM-15","ENNO ","V020","300,1,N,0062,1","99999,9,9,Y","009900,1,N,1","+0220,1","+0020,1","99999,9",,,,,,"10071,1,99999,9",,,,,"MET045METAR ENNO 221550Z 30012KT CAVOK 22/02 Q1007;",
"01470399999","2010-07-22T16:50:00","4","59.565683","9.212222","19.2","NOTODDEN, NO","FM-15","ENNO ","V020","290,1,N,0062,1","99999,9,9,Y","009900,1,N,1","+0210,1","+0010,1","99999,9",,,,,,"10071,1,99999,9",,,,,"MET045METAR ENNO 221650Z 29012KT CAVOK 21/01 Q1007;",
"01470399999","2010-07-23T04:50:00","4","59.565683","9.212222","19.2","NOTODDEN, NO","FM-15","ENNO ","V020","999,9,V,0005,1","99999,9,9,Y","009900,1,N,1","+0080,1","+0050,1","99999,9",,,,,,"10200,1,99999,9",,,,,"MET045METAR ENNO 230450Z VRB01KT CAVOK 08/05 Q1020;",
"01470399999","2010-07-23T05:50:00","4","59.565683","9.212222","19.2","NOTODDEN, NO","FM-15","ENNO ","V020","999,9,V,0005,1","99999,9,9,Y","009900,1,N,1","+0100,1","+0050,1","99999,9",,,,,,"10200,1,99999,9",,,,,"MET045METAR ENNO 230550Z VRB01KT CAVOK 10/05 Q1020;",
"01470399999","2010-07-23T06:50:00","4","59.565683","9.212222","19.2","NOTODDEN, NO","FM-15","ENNO ","V020","999,9,V,0036,1","99999,9,9,Y","009900,1,N,1","+0130,1","+0020,1","99999,9",,,,,,"10200,1,99999,9",,,,,"MET045METAR ENNO 230650Z VRB07KT CAVOK 13/02 Q1020;",
"01470399999","2010-07-23T07:50:00","4","59.565683","9.212222","19.2","NOTODDEN, NO","FM-15","ENNO ","V020","999,9,V,0031,1","99999,9,9,Y","009900,1,N,1","+0150,1","+0000,1","99999,9",,,,,,"10200,1,99999,9",,,,,"MET046METAR ENNO 230750Z VRB06KT CAVOK 15/M00 Q1020;",
"01470399999","2010-07-23T08:50:00","4","59.565683","9.212222","19.2","NOTODDEN, NO","FM-15","ENNO ","V020","999,9,V,0026,1","99999,9,9,Y","009900,1,N,1","+0160,1","+0010,1","99999,9",,,,,,"10200,1,99999,9",,,,,"MET045METAR ENNO 230850Z VRB05KT CAVOK 16/01 Q1020;",
"01470399999","2010-07-23T09:50:00","4","59.565683","9.212222","19.2","NOTODDEN, NO","FM-15","ENNO ","V020","999,9,V,0031,1","99999,9,9,Y","009900,1,N,1","+0170,1","+0010,1","99999,9",,,,,,"10200,1,99999,9",,,,,"MET045METAR ENNO 230950Z VRB06KT CAVOK 17/01 Q1020;",
"01470399999","2010-07-23T10:50:00","4","59.565683","9.212222","19.2","NOTODDEN, NO","FM-15","ENNO ","V020","340,1,N,0031,1","99999,9,9,Y","009900,1,N,1","+0180,1","+0030,1","99999,9",,,,,,"10190,1,99999,9",,,,,"MET053METAR ENNO 231050Z 34006KT 270V030 CAVOK 18/03 Q1019;",
"01470399999","2010-07-23T11:50:00","4","59.565683","9.212222","19.2","NOTODDEN, NO","FM-15","ENNO ","V020","999,9,V,0026,1","99999,9,9,Y","009900,1,N,1","+0180,1","+0010,1","99999,9",,,,,,"10190,1,99999,9",,,,,"MET045METAR ENNO 231150Z VRB05KT CAVOK 18/01 Q1019;",
"01470399999","2010-07-23T12:50:00","4","59.565683","9.212222","19.2","NOTODDEN, NO","FM-15","ENNO ","V020","130,1,N,0041,1","99999,9,9,Y","009900,1,N,1","+0180,1","+0040,1","99999,9",,,,,,"10180,1,99999,9",,,,,"MET045METAR ENNO 231250Z 13008KT CAVOK 18/04 Q1018;",
"01470399999","2010-07-23T13:50:00","4","59.565683","9.212222","19.2","NOTODDEN, NO","FM-15","ENNO ","V020","130,1,N,0041,1","99999,9,9,Y","009900,1,N,1","+0180,1","+0050,1","99999,9",,,,,,"10190,1,99999,9",,,,,"MET045METAR ENNO 231350Z 13008KT CAVOK 18/05 Q1019;",
"01470399999","2010-07-23T14:50:00","4","59.565683","9.212222","19.2","NOTODDEN, NO","FM-15","ENNO ","V020","999,9,V,0021,1","99999,9,9,Y","009900,1,N,1","+0190,1","+0020,1","99999,9",,,,,,"10180,1,99999,9",,,,,"MET045METAR ENNO 231450Z VRB04KT CAVOK 19/02 Q1018;",
"01470399999","2010-07-23T15:50:00","4","59.565683","9.212222","19.2","NOTODDEN, NO","FM-15","ENNO ","V020","110,1,N,0031,1","99999,9,9,Y","009900,1,N,1","+0190,1","+0020,1","99999,9",,,,,,"10180,1,99999,9",,,,,"MET053METAR ENNO 231550Z 11006KT 040V150 CAVOK 19/02 Q1018;",
"01470399999","2010-07-25T15:50:00","4","59.565683","9.212222","19.2","NOTODDEN, NO","FM-15","ENNO ","V020","140,1,N,0026,1","04800,1,C,N","011265,1,N,1","+0200,1","+0080,1","99999,9","04,5,+01350,1,99,9","07,5,+04800,1,99,9",,"07,99,1,99,9,99,9,99999,9,99,9,99,9",,"10091,1,99999,9",,,,,"MET058METAR ENNO 251550Z 14005KT 9999 SCT045 BKN160 20/08 Q1009;",
"01470399999","2010-07-25T16:50:00","4","59.565683","9.212222","19.2","NOTODDEN, NO","FM-15","ENNO ","V020","160,1,N,0015,1","99999,9,9,Y","009900,1,N,1","+0200,1","+0080,1","99999,9",,,,,,"10091,1,99999,9",,,,,"MET045METAR ENNO 251650Z 16003KT CAVOK 20/08 Q1009;",
"01470399999","2010-07-25T17:50:00","4","59.565683","9.212222","19.2","NOTODDEN, NO","FM-15","ENNO ","V020","999,9,V,0015,1","99999,9,9,Y","009900,1,N,1","+0190,1","+0060,1","99999,9",,,,,,"10091,1,99999,9",,,,,"MET045METAR ENNO 251750Z VRB03KT CAVOK 19/06 Q1009;",
"01470399999","2010-07-26T04:50:00","4","59.565683","9.212222","19.2","NOTODDEN, NO","FM-15","ENNO ","V020","999,9,C,0000,1","01500,1,C,N","011265,1,N,1","+0140,1","+0100,1","99999,9","07,5,+01500,1,99,9",,,"07,99,1,99,9,99,9,99999,9,99,9,99,9",,"10071,1,99999,9",,,,,"MET051METAR ENNO 260450Z 00000KT 9999 BKN050 14/10 Q1007;",
"01470399999","2010-07-26T05:50:00","4","59.565683","9.212222","19.2","NOTODDEN, NO","FM-15","ENNO ","V020","999,9,C,0000,1","01260,1,C,N","011265,1,N,1","+0150,1","+0100,1","99999,9","07,5,+01260,1,99,9",,,"07,99,1,99,9,99,9,99999,9,99,9,99,9",,"10081,1,99999,9",,,,,"MET051METAR ENNO 260550Z 00000KT 9999 BKN042 15/10 Q1008;",
"01470399999","2010-07-26T07:20:00","4","59.565683","9.212222","19.2","NOTODDEN, NO","FM-15","ENNO ","V020","999,9,C,0000,1","01350,1,C,N","011265,1,N,1","+0160,1","+0100,1","99999,9","07,5,+01350,1,99,9",,,"07,99,1,99,9,99,9,99999,9,99,9,99,9",,"10081,1,99999,9",,,,,"MET051METAR ENNO 260720Z 00000KT 9999 BKN045 16/10 Q1008;",
"01470399999","2010-07-26T07:50:00","4","59.565683","9.212222","19.2","NOTODDEN, NO","FM-15","ENNO ","V020","999,9,C,0000,1","01350,1,C,N","011265,1,N,1","+0160,1","+0100,1","99999,9","07,5,+01350,1,99,9",,,"07,99,1,99,9,99,9,99999,9,99,9,99,9",,"10081,1,99999,9",,,,,"MET051METAR ENNO 260750Z 00000KT 9999 BKN045 16/10 Q1008;",
"01470399999","2010-07-26T12:50:00","4","59.565683","9.212222","19.2","NOTODDEN, NO","FM-15","ENNO ","V020","999,9,V,0031,1","02100,1,C,N","011265,1,N,1","+0210,1","+0110,1","99999,9","02,5,+01350,1,99,9","08,5,+02100,1,99,9",,"08,99,1,99,9,99,9,99999,9,99,9,99,9",,"10081,1,99999,9",,,,,"MET058METAR ENNO 261250Z VRB06KT 9999 FEW045 OVC070 21/11 Q1008;",
"01470399999","2010-07-26T14:50:00","4","59.565683","9.212222","19.2","NOTODDEN, NO","FM-15","ENNO ","V020","130,1,N,0026,1","02550,5,C,N","011265,1,N,1","+0210,1","+0110,1","99999,9","02,5,+01500,1,99,9","07,5,+02550,5,99,9",,"07,99,1,99,9,99,9,99999,9,99,9,99,9",,"10081,1,99999,9",,,,,"MET058METAR ENNO 261450Z 13005KT 9999 FEW050 BKN085 21/11 Q1008;",
"01470399999","2010-07-26T15:50:00","4","59.565683","9.212222","19.2","NOTODDEN, NO","FM-15","ENNO ","V020","120,1,N,0021,1","02400,1,C,N","011265,1,N,1","+0210,1","+0120,1","99999,9","02,5,+01500,1,99,9","07,5,+02400,1,99,9",,"07,99,1,99,9,99,9,99999,9,99,9,99,9",,"10081,1,99999,9",,,,,"MET058METAR ENNO 261550Z 12004KT 9999 FEW050 BKN080 21/12 Q1008;",
"01470399999","2010-07-27T04:50:00","4","59.565683","9.212222","19.2","NOTODDEN, NO","FM-15","ENNO ","V020","290,1,N,0015,1","99999,9,9,Y","009900,1,N,1","+0100,1","+0090,1","99999,9",,,,,,"10108,1,99999,9",,,,,"MET045METAR ENNO 270450Z 29003KT CAVOK 10/09 Q1011;",
"01470399999","2010-07-27T05:50:00","4","59.565683","9.212222","19.2","NOTODDEN, NO","FM-15","ENNO ","V020","999,9,C,0000,1","99999,9,9,Y","009900,1,N,1","+0140,1","+0110,1","99999,9",,,,,,"10108,1,99999,9",,,,,"MET045METAR ENNO 270550Z 00000KT CAVOK 14/11 Q1011;",
"01470399999","2010-07-27T06:50:00","4","59.565683","9.212222","19.2","NOTODDEN, NO","FM-15","ENNO ","V020","999,9,C,0000,1","99999,9,9,Y","009900,1,N,1","+0160,1","+0110,1","99999,9",,,,,,"10108,1,99999,9",,,,,"MET045METAR ENNO 270650Z 00000KT CAVOK 16/11 Q1011;",
"01470399999","2010-07-27T07:50:00","4","59.565683","9.212222","19.2","NOTODDEN, NO","FM-15","ENNO ","V020","999,9,C,0000,1","99999,9,9,Y","009900,1,N,1","+0180,1","+0120,1","99999,9",,,,,,"10108,1,99999,9",,,,,"MET045METAR ENNO 270750Z 00000KT CAVOK 18/12 Q1011;",
"01470399999","2010-07-27T11:50:00","4","59.565683","9.212222","19.2","NOTODDEN, NO","FM-15","ENNO ","V020","110,1,N,0057,1","99999,9,9,Y","009900,1,N,1","+0240,1","+0100,1","99999,9",,,,,,"10102,1,99999,9",,,,"0082,1","MET048METAR ENNO 271150Z 11011G16KT CAVOK 24/10 Q1010;",
"01470399999","2010-07-27T12:50:00","4","59.565683","9.212222","19.2","NOTODDEN, NO","FM-15","ENNO ","V020","110,1,N,0057,1","99999,9,9,Y","009900,1,N,1","+0240,1","+0110,1","99999,9",,,,,,"10102,1,99999,9",,,,"0087,1","MET048METAR ENNO 271250Z 11011G17KT CAVOK 24/11 Q1010;",
"01470399999","2010-07-27T13:50:00","4","59.565683","9.212222","19.2","NOTODDEN, NO","FM-15","ENNO ","V020","110,1,N,0057,1","99999,9,9,Y","009900,1,N,1","+0250,1","+0120,1","99999,9",,,,,,"10102,1,99999,9",,,,"0082,1","MET048METAR ENNO 271350Z 11011G16KT CAVOK 25/12 Q1010;",
"01470399999","2010-07-27T14:50:00","4","59.565683","9.212222","19.2","NOTODDEN, NO","FM-15","ENNO ","V020","120,1,N,0062,1","99999,9,9,Y","009900,1,N,1","+0240,1","+0110,1","99999,9",,,,,,"10091,1,99999,9",,,,,"MET045METAR ENNO 271450Z 12012KT CAVOK 24/11 Q1009;",
"01470399999","2010-07-27T15:50:00","4","59.565683","9.212222","19.2","NOTODDEN, NO","FM-15","ENNO ","V020","130,1,N,0041,1","99999,9,9,Y","009900,1,N,1","+0240,1","+0110,1","99999,9",,,,,,"10102,1,99999,9",,,,"0082,1","MET048METAR ENNO 271550Z 13008G16KT CAVOK 24/11 Q1010;",
"01470399999","2010-07-28T04:50:00","4","59.565683","9.212222","19.2","NOTODDEN, NO","FM-15","ENNO ","V020","999,9,C,0000,1","00600,1,C,N","011265,1,N,1","+0130,1","+0110,1","99999,9","07,5,+00600,1,99,9",,,"07,99,1,99,9,99,9,99999,9,99,9,99,9",,"10108,1,99999,9",,,,,"MET051METAR ENNO 280450Z 00000KT 9999 BKN020 13/11 Q1011;",
"01470399999","2010-07-28T05:50:00","4","59.565683","9.212222","19.2","NOTODDEN, NO","FM-15","ENNO ","V020","280,1,N,0010,1","00600,1,C,N","011265,1,N,1","+0140,1","+0120,1","99999,9","07,5,+00600,1,99,9",,,"07,99,1,99,9,99,9,99999,9,99,9,99,9",,"10108,1,99999,9",,,,,"MET051METAR ENNO 280550Z 28002KT 9999 BKN020 14/12 Q1011;",
"01470399999","2010-07-28T06:50:00","4","59.565683","9.212222","19.2","NOTODDEN, NO","FM-15","ENNO ","V020","280,1,N,0026,1","00510,1,C,N","011265,1,N,1","+0140,1","+0120,1","99999,9","07,5,+00510,1,99,9",,,"07,99,1,99,9,99,9,99999,9,99,9,99,9",,"10119,1,99999,9",,,,,"MET051METAR ENNO 280650Z 28005KT 9999 BKN017 14/12 Q1012;",
"01470399999","2010-07-28T07:50:00","4","59.565683","9.212222","19.2","NOTODDEN, NO","FM-15","ENNO ","V020","280,1,N,0015,1","00600,1,C,N","011265,1,N,1","+0160,1","+0120,1","99999,9","07,5,+00600,1,99,9",,,"07,99,1,99,9,99,9,99999,9,99,9,99,9",,"10108,1,99999,9",,,,,"MET051METAR ENNO 280750Z 28003KT 9999 BKN020 16/12 Q1011;",
"01470399999","2010-07-28T11:50:00","4","59.565683","9.212222","19.2","NOTODDEN, NO","FM-15","ENNO ","V020","120,1,N,0036,1","01800,1,C,N","011265,1,N,1","+0210,1","+0130,1","99999,9","07,5,+01800,1,99,9",,,"07,99,1,99,9,99,9,99999,9,99,9,99,9",,"10102,1,99999,9",,,,,"MET051METAR ENNO 281150Z 12007KT 9999 BKN060 21/13 Q1010;",
"01470399999","2010-07-28T12:50:00","4","59.565683","9.212222","19.2","NOTODDEN, NO","FM-15","ENNO ","V020","120,1,N,0051,1","01890,5,C,N","011265,1,N,1","+0210,1","+0140,1","99999,9","04,5,+01350,1,99,9","07,5,+01890,5,99,9",,"07,99,1,99,9,99,9,99999,9,99,9,99,9",,"10102,1,99999,9",,,,,"MET058METAR ENNO 281250Z 12010KT 9999 SCT045 BKN063 21/14 Q1010;",
"01470399999","2010-07-28T13:50:00","4","59.565683","9.212222","19.2","NOTODDEN, NO","FM-15","ENNO ","V020","140,1,N,0026,1","02100,1,C,N","011265,1,N,1","+0210,1","+0140,1","99999,9","04,5,+01350,1,99,9","07,5,+02100,1,99,9",,"07,99,1,99,9,99,9,99999,9,99,9,99,9",,"10091,1,99999,9",,,,,"MET058METAR ENNO 281350Z 14005KT 9999 SCT045 BKN070 21/14 Q1009;",
"01470399999","2010-07-28T14:50:00","4","59.565683","9.212222","19.2","NOTODDEN, NO","FM-15","ENNO ","V020","999,9,V,0015,1","99999,9,C,N","011265,1,N,1","+0240,1","+0130,1","99999,9","02,5,+01350,1,02,1","04,5,+02250,5,99,9",,"04,99,1,99,9,99,9,99999,9,99,9,99,9",,"10091,1,99999,9",,,,,"MET061METAR ENNO 281450Z VRB03KT 9999 FEW045TCU SCT075 24/13 Q1009;","P01 022503SCOCIG"
"01470399999","2010-07-28T15:50:00","4","59.565683","9.212222","19.2","NOTODDEN, NO","FM-15","ENNO ","V020","120,1,N,0021,1","99999,9,C,N","011265,1,N,1","+0230,1","+0120,1","99999,9","02,5,+01350,1,02,1","04,5,+04500,1,99,9",,"04,99,1,99,9,99,9,99999,9,99,9,99,9",,"10081,1,99999,9",,,,,"MET061METAR ENNO 281550Z 12004KT 9999 FEW045TCU SCT150 23/12 Q1008;","P01 045003SCOCIG"
"01470399999","2010-07-29T04:50:00","4","59.565683","9.212222","19.2","NOTODDEN, NO","FM-15","ENNO ","V020","999,9,V,0010,1","99999,9,9,Y","009900,1,N,1","+0120,1","+0110,1","99999,9",,,,,,"10061,1,99999,9",,,,,"MET045METAR ENNO 290450Z VRB02KT CAVOK 12/11 Q1006;",
"01470399999","2010-07-29T05:50:00","4","59.565683","9.212222","19.2","NOTODDEN, NO","FM-15","ENNO ","V020","999,9,C,0000,1","99999,9,9,Y","009900,1,N,1","+0130,1","+0120,1","99999,9",,,,,,"10061,1,99999,9",,,,,"MET045METAR ENNO 290550Z 00000KT CAVOK 13/12 Q1006;",
"01470399999","2010-07-29T06:50:00","4","59.565683","9.212222","19.2","NOTODDEN, NO","FM-15","ENNO ","V020","270,1,N,0021,1","01950,5,C,N","011265,1,N,1","+0140,1","+0120,1","99999,9","02,5,+01050,1,99,9","07,5,+01950,5,99,9",,"07,99,1,99,9,99,9,99999,9,99,9,99,9",,"10061,1,99999,9","61,1",,,,"MET070METAR ENNO 290650Z 27004KT 230V300 9999 -RA FEW035 BKN065 14/12 Q1006;",
"01470399999","2010-07-29T07:50:00","4","59.565683","9.212222","19.2","NOTODDEN, NO","FM-15","ENNO ","V020","999,9,C,0000,1","01200,1,C,N","011265,1,N,1","+0140,1","+0130,1","99999,9","07,5,+01200,1,99,9","07,5,+01950,5,99,9",,"07,99,1,99,9,99,9,99999,9,99,9,99,9",,"10061,1,99999,9","80,1",,,,"MET064METAR ENNO 290750Z 00000KT 9999 -SHRA BKN040 BKN065 14/13 Q1006;",
"01470399999","2010-07-29T08:50:00","4","59.565683","9.212222","19.2","NOTODDEN, NO","FM-15","ENNO ","V020","290,1,N,0026,1","01200,1,C,N","011265,1,N,1","+0150,1","+0140,1","99999,9","02,5,+00450,1,99,9","04,5,+01200,1,99,9","07,5,+01950,5,99,9","07,99,1,99,9,99,9,99999,9,99,9,99,9",,"10051,1,99999,9",,,,,"MET073METAR ENNO 290850Z 29005KT 230V330 9999 FEW015 SCT040 BKN065 15/14 Q1005;",
"01470399999","2010-07-29T09:50:00","4","59.565683","9.212222","19.2","NOTODDEN, NO","FM-15","ENNO ","V020","270,1,N,0021,1","01050,1,C,N","011265,1,N,1","+0160,1","+0140,1","99999,9","02,5,+00450,1,99,9","04,5,+01050,1,99,9","07,5,+01650,5,99,9","07,99,1,99,9,99,9,99999,9,99,9,99,9",,"10051,1,99999,9",,,,,"MET065METAR ENNO 290950Z 27004KT 9999 FEW015 SCT035 BKN055 16/14 Q1005;",
"01470399999","2010-07-29T10:50:00","4","59.565683","9.212222","19.2","NOTODDEN, NO","FM-15","ENNO ","V020","260,1,N,0026,1","01500,1,C,N","011265,1,N,1","+0160,1","+0140,1","99999,9","04,5,+01050,1,99,9","08,5,+01500,1,99,9",,"08,99,1,99,9,99,9,99999,9,99,9,99,9",,"10041,1,99999,9","61,1",,,,"MET062METAR ENNO 291050Z 26005KT 9999 -RA SCT035 OVC050 16/14 Q1004;",
"01470399999","2010-07-29T11:50:00","4","59.565683","9.212222","19.2","NOTODDEN, NO","FM-15","ENNO ","V020","330,1,N,0031,1","01050,1,C,N","011265,1,N,1","+0170,1","+0150,1","99999,9","02,5,+00300,1,99,9","04,5,+01050,1,99,9","08,5,+01500,1,99,9","08,99,1,99,9,99,9,99999,9,99,9,99,9",,"10041,1,99999,9","61,1",,,,"MET069METAR ENNO 291150Z 33006KT 9999 -RA FEW010 SCT035 OVC050 17/15 Q1004;",
"01470399999","2010-07-29T12:50:00","4","59.565683","9.212222","19.2","NOTODDEN, NO","FM-15","ENNO ","V020","330,1,N,0031,1","01200,1,C,N","009000,1,N,1","+0170,1","+0150,1","99999,9","08,5,+01200,1,99,9",,,"08,99,1,99,9,99,9,99999,9,99,9,99,9",,"10031,1,99999,9","61,1",,,,"MET055METAR ENNO 291250Z 33006KT 9000 -RA OVC040 17/15 Q1003;",
"01470399999","2010-07-29T13:50:00","4","59.565683","9.212222","19.2","NOTODDEN, NO","FM-15","ENNO ","V020","270,1,N,0015,1","01200,1,C,N","009000,1,N,1","+0170,1","+0150,1","99999,9","08,5,+01200,1,99,9",,,"08,99,1,99,9,99,9,99999,9,99,9,99,9",,"10020,1,99999,9","61,1",,,,"MET055METAR ENNO 291350Z 27003KT 9000 -RA OVC040 17/15 Q1002;",
"01470399999","2010-07-29T14:50:00","4","59.565683","9.212222","19.2","NOTODDEN, NO","FM-15","ENNO ","V020","999,9,V,0010,1","01200,1,C,N","011265,1,N,1","+0180,1","+0160,1","99999,9","02,5,+00300,1,99,9","04,5,+01200,1,99,9","07,5,+01500,1,99,9","07,99,1,99,9,99,9,99999,9,99,9,99,9",,"10020,1,99999,9",,,,,"MET065METAR ENNO 291450Z VRB02KT 9999 FEW010 SCT040 BKN050 18/16 Q1002;",
"01470399999","2010-07-29T15:50:00","4","59.565683","9.212222","19.2","NOTODDEN, NO","FM-15","ENNO ","V020","280,1,N,0021,1","01500,1,C,N","011265,1,N,1","+0180,1","+0160,1","99999,9","04,5,+01200,1,99,9","07,5,+01500,1,99,9",,"07,99,1,99,9,99,9,99999,9,99,9,99,9",,"10010,1,99999,9",,,,,"MET058METAR ENNO 291550Z 28004KT 9999 SCT040 BKN050 18/16 Q1001;",
"01470399999","2010-07-30T04:50:00","4","59.565683","9.212222","19.2","NOTODDEN, NO","FM-15","ENNO ","V020","270,1,N,0026,1","00600,1,C,N","009000,1,N,1","+0170,1","+0160,1","99999,9","02,5,+00300,1,99,9","08,5,+00600,1,99,9",,"08,99,1,99,9,99,9,99999,9,99,9,99,9",,"09949,1,99999,9","61,1",,,,"MET062METAR ENNO 300450Z 27005KT 9000 -RA FEW010 OVC020 17/16 Q0995;",
"01470399999","2010-07-30T05:50:00","4","59.565683","9.212222","19.2","NOTODDEN, NO","FM-15","ENNO ","V020","260,1,N,0015,1","00600,1,C,N","009000,1,N,1","+0170,1","+0160,1","99999,9","02,5,+00300,1,99,9","04,5,+00600,1,99,9","08,5,+00750,1,99,9","08,99,1,99,9,99,9,99999,9,99,9,99,9",,"09949,1,99999,9","61,1",,,,"MET069METAR ENNO 300550Z 26003KT 9000 -RA FEW010 SCT020 OVC025 17/16 Q0995;",
"01470399999","2010-07-30T06:50:00","4","59.565683","9.212222","19.2","NOTODDEN, NO","FM-15","ENNO ","V020","290,1,N,0021,1","00600,1,C,N","011265,1,N,1","+0180,1","+0170,1","99999,9","02,5,+00300,1,99,9","04,5,+00600,1,99,9","07,5,+00750,1,99,9","07,99,1,99,9,99,9,99999,9,99,9,99,9",,"09949,1,99999,9",,,,,"MET065METAR ENNO 300650Z 29004KT 9999 FEW010 SCT020 BKN025 18/17 Q0995;",
"01470399999","2010-07-30T07:50:00","4","59.565683","9.212222","19.2","NOTODDEN, NO","FM-15","ENNO ","V020","300,1,N,0036,1","00600,1,C,N","009000,1,N,1","+0180,1","+0160,1","99999,9","02,5,+00300,1,99,9","04,5,+00600,1,99,9","08,5,+00750,1,99,9","08,99,1,99,9,99,9,99999,9,99,9,99,9",,"09959,1,99999,9","16,1",,,,"MET070METAR ENNO 300750Z 30007KT 9000 VCSH FEW010 SCT020 OVC025 18/16 Q0996;",
"01470399999","2010-07-30T08:50:00","4","59.565683","9.212222","19.2","NOTODDEN, NO","FM-15","ENNO ","V020","290,1,N,0041,1","00600,1,C,N","011265,1,N,1","+0190,1","+0170,1","99999,9","02,5,+00300,1,99,9","04,5,+00600,1,99,9","07,5,+01050,1,99,9","07,99,1,99,9,99,9,99999,9,99,9,99,9",,"09959,1,99999,9","16,1",,,,"MET070METAR ENNO 300850Z 29008KT 9999 VCSH FEW010 SCT020 BKN035 19/17 Q0996;",
"01470399999","2010-07-30T09:50:00","4","59.565683","9.212222","19.2","NOTODDEN, NO","FM-15","ENNO ","V020","280,1,N,0031,1","01800,1,C,N","011265,1,N,1","+0210,1","+0160,1","99999,9","04,5,+00750,1,99,9","07,5,+01800,1,99,9",,"07,99,1,99,9,99,9,99999,9,99,9,99,9",,"09959,1,99999,9",,,,,"MET058METAR ENNO 300950Z 28006KT 9999 SCT025 BKN060 21/16 Q0996;",
"01470399999","2010-07-30T10:50:00","4","59.565683","9.212222","19.2","NOTODDEN, NO","FM-15","ENNO ","V020","250,1,N,0021,1","01650,5,C,N","011265,1,N,1","+0210,1","+0170,1","99999,9","04,5,+00900,1,99,9","07,5,+01650,5,99,9",,"07,99,1,99,9,99,9,99999,9,99,9,99,9",,"09959,1,99999,9",,,,,"MET066METAR ENNO 301050Z 25004KT 190V300 9999 SCT030 BKN055 21/17 Q0996;",
"01470399999","2010-07-30T12:50:00","4","59.565683","9.212222","19.2","NOTODDEN, NO","FM-15","ENNO ","V020","220,1,N,0021,1","01800,1,C,N","011265,1,N,1","+0210,1","+0160,1","99999,9","04,5,+00900,1,02,1","07,5,+01800,1,99,9",,"07,99,1,99,9,99,9,99999,9,99,9,99,9",,"09959,1,99999,9","16,1",,,,"MET074METAR ENNO 301250Z 22004KT 190V250 9999 VCSH SCT030TCU BKN060 21/16 Q0996;",
"01470399999","2010-07-30T13:50:00","4","59.565683","9.212222","19.2","NOTODDEN, NO","FM-15","ENNO ","V020","120,1,N,0026,1","99999,9,C,N","011265,1,N,1","+0230,1","+0170,1","99999,9","04,5,+00900,1,02,1","04,5,+01500,1,99,9",,"04,99,1,99,9,99,9,99999,9,99,9,99,9",,"09959,1,99999,9",,,,,"MET069METAR ENNO 301350Z 12005KT 060V170 9999 SCT030TCU SCT050 23/17 Q0996;","P01 015003SCOCIG"
"01470399999","2010-07-30T14:50:00","4","59.565683","9.212222","19.2","NOTODDEN, NO","FM-15","ENNO ","V020","130,1,N,0031,1","01200,1,C,N","011265,1,N,1","+0230,1","+0160,1","99999,9","02,5,+00900,1,02,1","04,5,+01200,1,99,9","07,5,+01500,1,99,9","07,99,1,99,9,99,9,99999,9,99,9,99,9",,"09959,1,99999,9","16,1",,,,"MET073METAR ENNO 301450Z 13006KT 9999 VCSH FEW030TCU SCT040 BKN050 23/16 Q0996;",
"01470399999","2010-08-01T15:50:00","4","59.565683","9.212222","19.2","NOTODDEN, NO","FM-15","ENNO ","V020","140,1,N,0031,1","02250,5,C,N","011265,1,N,1","+0190,1","+0100,1","99999,9","02,5,+01800,1,99,9","07,5,+02250,5,99,9",,"07,99,1,99,9,99,9,99999,9,99,9,99,9",,"10091,1,99999,9",,,,,"MET066METAR ENNO 011550Z 14006KT 100V200 9999 FEW060 BKN075 19/10 Q1009;",
"01470399999","2010-08-01T16:50:00","4","59.565683","9.212222","19.2","NOTODDEN, NO","FM-15","ENNO ","V020","130,1,N,0041,1","99999,9,C,N","011265,1,N,1","+0200,1","+0100,1","99999,9","02,5,+01800,1,99,9","04,5,+02250,5,99,9",,"04,99,1,99,9,99,9,99999,9,99,9,99,9",,"10091,1,99999,9",,,,,"MET058METAR ENNO 011650Z 13008KT 9999 FEW060 SCT075 20/10 Q1009;","P01 022503SCOCIG"
"01470399999","2010-08-01T17:50:00","4","59.565683","9.212222","19.2","NOTODDEN, NO","FM-15","ENNO ","V020","999,9,V,0005,1","99999,9,C,N","011265,1,N,1","+0190,1","+0110,1","99999,9","02,5,+01590,5,99,9","04,5,+02100,1,99,9",,"04,99,1,99,9,99,9,99999,9,99,9,99,9",,"10091,1,99999,9",,,,,"MET058METAR ENNO 011750Z VRB01KT 9999 FEW053 SCT070 19/11 Q1009;","P01 021003SCOCIG"
"01470399999","2010-08-02T04:50:00","4","59.565683","9.212222","19.2","NOTODDEN, NO","FM-15","ENNO ","V020","999,9,V,0005,1","99999,9,C,N","011265,1,N,1","+0100,1","+0090,1","99999,9","02,5,+00210,1,99,9","04,5,+02700,1,99,9",,"04,99,1,99,9,99,9,99999,9,99,9,99,9",,"10119,1,99999,9",,,,,"MET058METAR ENNO 020450Z VRB01KT 9999 FEW007 SCT090 10/09 Q1012;","P01 027003SCOCIG"
"01470399999","2010-08-02T05:50:00","4","59.565683","9.212222","19.2","NOTODDEN, NO","FM-15","ENNO ","V020","999,9,C,0000,1","99999,9,9,Y","009900,1,N,1","+0120,1","+0110,1","99999,9",,,,,,"10119,1,99999,9",,,,,"MET045METAR ENNO 020550Z 00000KT CAVOK 12/11 Q1012;",
"01470399999","2010-08-02T06:50:00","4","59.565683","9.212222","19.2","NOTODDEN, NO","FM-15","ENNO ","V020","999,9,C,0000,1","99999,9,9,Y","009900,1,N,1","+0140,1","+0100,1","99999,9",,,,,,"10119,1,99999,9",,,,,"MET045METAR ENNO 020650Z 00000KT CAVOK 14/10 Q1012;",
"01470399999","2010-08-02T07:50:00","4","59.565683","9.212222","19.2","NOTODDEN, NO","FM-15","ENNO ","V020","300,1,N,0021,1","22000,1,9,N","011265,1,N,1","+0160,1","+0110,1","99999,9","02,5,+00900,1,99,9",,,"02,99,1,99,9,99,9,99999,9,99,9,99,9",,"10119,1,99999,9",,,,,"MET059METAR ENNO 020750Z 30004KT 250V360 9999 FEW030 16/11 Q1012;",
"01470399999","2010-08-02T08:50:00","4","59.565683","9.212222","19.2","NOTODDEN, NO","FM-15","ENNO ","V020","999,9,V,0005,1","22000,1,9,N","011265,1,N,1","+0190,1","+0110,1","99999,9","02,5,+00900,1,99,9",,,"02,99,1,99,9,99,9,99999,9,99,9,99,9",,"10108,1,99999,9",,,,,"MET051METAR ENNO 020850Z VRB01KT 9999 FEW030 19/11 Q1011;",
"01470399999","2010-08-02T09:50:00","4","59.565683","9.212222","19.2","NOTODDEN, NO","FM-15","ENNO ","V020","140,1,N,0021,1","22000,1,9,N","011265,1,N,1","+0200,1","+0110,1","99999,9","04,5,+01050,1,99,9",,,"04,99,1,99,9,99,9,99999,9,99,9,99,9",,"10108,1,99999,9",,,,,"MET059METAR ENNO 020950Z 14004KT 110V190 9999 SCT035 20/11 Q1011;",
"01470399999","2010-08-02T10:50:00","4","59.565683","9.212222","19.2","NOTODDEN, NO","FM-15","ENNO ","V020","120,1,N,0021,1","22000,1,9,N","011265,1,N,1","+0200,1","+0100,1","99999,9","04,5,+01800,1,99,9",,,"04,99,1,99,9,99,9,99999,9,99,9,99,9",,"10102,1,99999,9",,,,,"MET059METAR ENNO 021050Z 12004KT 090V160 9999 SCT060 20/10 Q1010;",
"01470399999","2010-08-02T11:50:00","4","59.565683","9.212222","19.2","NOTODDEN, NO","FM-15","ENNO ","V020","999,9,V,0010,1","02400,1,C,N","011265,1,N,1","+0200,1","+0120,1","99999,9","02,5,+01350,1,99,9","07,5,+02400,1,99,9",,"07,99,1,99,9,99,9,99999,9,99,9,99,9",,"10102,1,99999,9",,,,,"MET058METAR ENNO 021150Z VRB02KT 9999 FEW045 BKN080 20/12 Q1010;",
"01470399999","2010-08-02T12:50:00","4","59.565683","9.212222","19.2","NOTODDEN, NO","FM-15","ENNO ","V020","999,9,C,0000,1","22000,1,9,N","011265,1,N,1","+0210,1","+0100,1","99999,9","04,5,+01350,1,99,9",,,"04,99,1,99,9,99,9,99999,9,99,9,99,9",,"10102,1,99999,9",,,,,"MET051METAR ENNO 021250Z 00000KT 9999 SCT045 21/10 Q1010;",
"01470399999","2010-08-02T13:50:00","4","59.565683","9.212222","19.2","NOTODDEN, NO","FM-15","ENNO ","V020","999,9,V,0005,1","22000,1,9,N","011265,1,N,1","+0210,1","+0100,1","99999,9","04,5,+01350,1,99,9",,,"04,99,1,99,9,99,9,99999,9,99,9,99,9",,"10102,1,99999,9",,,,,"MET051METAR ENNO 021350Z VRB01KT 9999 SCT045 21/10 Q1010;",
"01470399999","2010-08-02T14:50:00","4","59.565683","9.212222","19.2","NOTODDEN, NO","FM-15","ENNO ","V020","110,1,N,0026,1","99999,9,C,N","011265,1,N,1","+0210,1","+0100,1","99999,9","02,5,+01200,1,99,9","04,5,+02850,5,99,9",,"04,99,1,99,9,99,9,99999,9,99,9,99,9",,"10102,1,99999,9",,,,,"MET066METAR ENNO 021450Z 11005KT 080V140 9999 FEW040 SCT095 21/10 Q1010;","P01 028503SCOCIG"
"01470399999","2010-08-02T15:50:00","4","59.565683","9.212222","19.2","NOTODDEN, NO","FM-15","ENNO ","V020","140,1,N,0031,1","22000,1,9,N","011265,1,N,1","+0210,1","+0130,1","99999,9","04,5,+01350,1,99,9",,,"04,99,1,99,9,99,9,99999,9,99,9,99,9",,"10102,1,99999,9",,,,,"MET059METAR ENNO 021550Z 14006KT 110V170 9999 SCT045 21/13 Q1010;",
"01470399999","2010-08-03T04:50:00","4","59.565683","9.212222","19.2","NOTODDEN, NO","FM-15","ENNO ","V020","999,9,C,0000,1","00450,1,C,N","011265,1,N,1","+0130,1","+0120,1","99999,9","02,5,+00150,1,99,9","04,5,+00450,1,99,9","07,5,+02700,1,99,9","07,99,1,99,9,99,9,99999,9,99,9,99,9",,"10102,1,99999,9",,,,,"MET065METAR ENNO 030450Z 00000KT 9999 FEW005 SCT015 BKN090 13/12 Q1010;",
"01470399999","2010-08-03T05:50:00","4","59.565683","9.212222","19.2","NOTODDEN, NO","FM-15","ENNO ","V020","999,9,C,0000,1","99999,9,C,N","011265,1,N,1","+0150,1","+0120,1","99999,9","02,5,+00390,1,99,9","04,5,+00900,1,99,9",,"04,99,1,99,9,99,9,99999,9,99,9,99,9",,"10102,1,99999,9",,,,,"MET058METAR ENNO 030550Z 00000KT 9999 FEW013 SCT030 15/12 Q1010;","P01 009003SCOCIG"
"01470399999","2010-08-03T06:50:00","4","59.565683","9.212222","19.2","NOTODDEN, NO","FM-15","ENNO ","V020","999,9,C,0000,1","99999,9,C,N","011265,1,N,1","+0160,1","+0120,1","99999,9","02,5,+00300,1,99,9","04,5,+00600,1,99,9",,"04,99,1,99,9,99,9,99999,9,99,9,99,9",,"10102,1,99999,9",,,,,"MET058METAR ENNO 030650Z 00000KT 9999 FEW010 SCT020 16/12 Q1010;","P01 006003SCOCIG"
"01470399999","2010-08-03T07:50:00","4","59.565683","9.212222","19.2","NOTODDEN, NO","FM-15","ENNO ","V020","999,9,C,0000,1","22000,1,9,N","011265,1,N,1","+0160,1","+0120,1","99999,9","04,5,+00900,1,99,9",,,"04,99,1,99,9,99,9,99999,9,99,9,99,9",,"10091,1,99999,9",,,,,"MET051METAR ENNO 030750Z 00000KT 9999 SCT030 16/12 Q1009;",
"01470399999","2010-08-03T08:50:00","4","59.565683","9.212222","19.2","NOTODDEN, NO","FM-15","ENNO ","V020","999,9,C,0000,1","22000,1,9,N","011265,1,N,1","+0190,1","+0130,1","99999,9","04,5,+01200,1,99,9",,,"04,99,1,99,9,99,9,99999,9,99,9,99,9",,"10091,1,99999,9",,,,,"MET051METAR ENNO 030850Z 00000KT 9999 SCT040 19/13 Q1009;",
"01470399999","2010-08-03T09:50:00","4","59.565683","9.212222","19.2","NOTODDEN, NO","FM-15","ENNO ","V020","999,9,V,0010,1","22000,1,9,N","011265,1,N,1","+0200,1","+0100,1","99999,9","04,5,+01200,1,99,9",,,"04,99,1,99,9,99,9,99999,9,99,9,99,9",,"10081,1,99999,9",,,,,"MET051METAR ENNO 030950Z VRB02KT 9999 SCT040 20/10 Q1008;",
"01470399999","2010-08-03T10:50:00","4","59.565683","9.212222","19.2","NOTODDEN, NO","FM-15","ENNO ","V020","140,1,N,0021,1","22000,1,9,N","011265,1,N,1","+0200,1","+0110,1","99999,9","04,5,+01350,1,99,9",,,"04,99,1,99,9,99,9,99999,9,99,9,99,9",,"10081,1,99999,9",,,,,"MET059METAR ENNO 031050Z 14004KT 120V180 9999 SCT045 20/11 Q1008;",
"01470399999","2010-08-03T11:50:00","4","59.565683","9.212222","19.2","NOTODDEN, NO","FM-15","ENNO ","V020","100,1,N,0046,1","02700,1,C,N","011265,1,N,1","+0200,1","+0100,1","99999,9","04,5,+01500,1,99,9","07,5,+02700,1,99,9",,"07,99,1,99,9,99,9,99999,9,99,9,99,9",,"10071,1,99999,9",,,,,"MET058METAR ENNO 031150Z 10009KT 9999 SCT050 BKN090 20/10 Q1007;",
"01470399999","2010-08-03T12:50:00","4","59.565683","9.212222","19.2","NOTODDEN, NO","FM-15","ENNO ","V020","120,1,N,0041,1","02700,1,C,N","011265,1,N,1","+0210,1","+0110,1","99999,9","04,5,+01500,1,99,9","07,5,+02700,1,99,9",,"07,99,1,99,9,99,9,99999,9,99,9,99,9",,"10071,1,99999,9",,,,,"MET058METAR ENNO 031250Z 12008KT 9999 SCT050 BKN090 21/11 Q1007;",
"01470399999","2010-08-03T13:50:00","4","59.565683","9.212222","19.2","NOTODDEN, NO","FM-15","ENNO ","V020","120,1,N,0036,1","01200,1,C,N","011265,1,N,1","+0210,1","+0110,1","99999,9","02,5,+00900,1,02,1","04,5,+01200,1,99,9","07,5,+02400,1,99,9","07,99,1,99,9,99,9,99999,9,99,9,99,9",,"10071,1,99999,9",,,,,"MET068METAR ENNO 031350Z 12007KT 9999 FEW030TCU SCT040 BKN080 21/11 Q1007;",
"01470399999","2010-08-03T14:50:00","4","59.565683","9.212222","19.2","NOTODDEN, NO","FM-15","ENNO ","V020","080,1,N,0026,1","01500,1,C,N","011265,1,N,1","+0210,1","+0110,1","99999,9","02,5,+01200,1,02,1","04,5,+01500,1,99,9","07,5,+02250,5,99,9","07,99,1,99,9,99,9,99999,9,99,9,99,9",,"10061,1,99999,9","16,1",,,,"MET081METAR ENNO 031450Z 08005KT 020V120 9999 VCSH FEW040TCU SCT050 BKN075 21/11 Q1006;",
"01470399999","2010-08-03T15:50:00","4","59.565683","9.212222","19.2","NOTODDEN, NO","FM-15","ENNO ","V020","200,1,N,0021,1","01500,1,C,N","011265,1,N,1","+0200,1","+0120,1","99999,9","02,5,+01200,1,02,1","04,5,+01500,1,99,9","07,5,+01800,1,99,9","07,99,1,99,9,99,9,99999,9,99,9,99,9",,"10061,1,99999,9","16,1",,,,"MET081METAR ENNO 031550Z 20004KT 160V250 9999 VCSH FEW040TCU SCT050 BKN060 20/12 Q1006;",
"01470399999","2010-08-04T04:50:00","4","59.565683","9.212222","19.2","NOTODDEN, NO","FM-15","ENNO ","V020","280,1,N,0015,1","00630,1,C,N","009000,1,N,1","+0130,1","+0120,1","99999,9","04,5,+00180,1,99,9","07,5,+00630,1,99,9",,"07,99,1,99,9,99,9,99999,9,99,9,99,9",,"10051,1,99999,9",,,,,"MET066METAR ENNO 040450Z 28003KT 260V320 9000 SCT006 BKN021 13/12 Q1005;",
"01470399999","2010-08-04T05:50:00","4","59.565683","9.212222","19.2","NOTODDEN, NO","FM-15","ENNO ","V020","270,1,N,0021,1","00600,1,C,N","011265,1,N,1","+0130,1","+0120,1","99999,9","02,5,+00240,1,99,9","04,5,+00600,1,99,9","07,5,+00900,1,99,9","07,99,1,99,9,99,9,99999,9,99,9,99,9",,"10051,1,99999,9",,,,,"MET073METAR ENNO 040550Z 27004KT 240V300 9999 FEW008 SCT020 BKN030 13/12 Q1005;",
"01470399999","2010-08-04T06:50:00","4","59.565683","9.212222","19.2","NOTODDEN, NO","FM-15","ENNO ","V020","999,9,V,0005,1","00480,1,C,N","011265,1,N,1","+0140,1","+0120,1","99999,9","02,5,+00240,1,99,9","04,5,+00480,1,99,9","07,5,+00900,1,99,9","07,99,1,99,9,99,9,99999,9,99,9,99,9",,"10041,1,99999,9",,,,,"MET065METAR ENNO 040650Z VRB01KT 9999 FEW008 SCT016 BKN030 14/12 Q1004;",
"01470399999","2010-08-04T07:50:00","4","59.565683","9.212222","19.2","NOTODDEN, NO","FM-15","ENNO ","V020","999,9,V,0005,1","00630,1,C,N","011265,1,N,1","+0150,1","+0130,1","99999,9","04,5,+00360,1,99,9","04,5,+00630,1,99,9","07,5,+01050,1,99,9","07,99,1,99,9,99,9,99999,9,99,9,99,9",,"10051,1,99999,9",,,,,"MET065METAR ENNO 040750Z VRB01KT 9999 SCT012 SCT021 BKN035 15/13 Q1005;",
"01470399999","2010-08-04T08:50:00","4","59.565683","9.212222","19.2","NOTODDEN, NO","FM-15","ENNO ","V020","999,9,C,0000,1","01200,1,C,N","011265,1,N,1","+0170,1","+0130,1","99999,9","02,5,+00570,1,99,9","07,5,+01200,1,99,9",,"07,99,1,99,9,99,9,99999,9,99,9,99,9",,"10041,1,99999,9",,,,,"MET058METAR ENNO 040850Z 00000KT 9999 FEW019 BKN040 17/13 Q1004;",
"01470399999","2010-08-04T09:50:00","4","59.565683","9.212222","19.2","NOTODDEN, NO","FM-15","ENNO ","V020","999,9,V,0010,1","01350,1,C,N","011265,1,N,1","+0200,1","+0100,1","99999,9","02,5,+00750,1,99,9","07,5,+01350,1,99,9",,"07,99,1,99,9,99,9,99999,9,99,9,99,9",,"10031,1,99999,9",,,,,"MET058METAR ENNO 040950Z VRB02KT 9999 FEW025 BKN045 20/10 Q1003;",
"01470399999","2010-08-04T10:50:00","4","59.565683","9.212222","19.2","NOTODDEN, NO","FM-15","ENNO ","V020","999,9,V,0005,1","01350,1,C,N","011265,1,N,1","+0200,1","+0110,1","99999,9","02,5,+00750,1,99,9","07,5,+01350,1,99,9",,"07,99,1,99,9,99,9,99999,9,99,9,99,9",,"10031,1,99999,9",,,,,"MET058METAR ENNO 041050Z VRB01KT 9999 FEW025 BKN045 20/11 Q1003;",
"01470399999","2010-08-04T11:50:00","4","59.565683","9.212222","19.2","NOTODDEN, NO","FM-15","ENNO ","V020","130,1,N,0031,1","01350,1,C,N","011265,1,N,1","+0210,1","+0120,1","99999,9","02,5,+00750,1,99,9","07,5,+01350,1,99,9",,"07,99,1,99,9,99,9,99999,9,99,9,99,9",,"10031,1,99999,9",,,,,"MET058METAR ENNO 041150Z 13006KT 9999 FEW025 BKN045 21/12 Q1003;",
"01470399999","2010-08-04T12:50:00","4","59.565683","9.212222","19.2","NOTODDEN, NO","FM-15","ENNO ","V020","100,1,N,0041,1","01410,1,C,N","011265,1,N,1","+0200,1","+0110,1","99999,9","02,5,+00750,1,99,9","07,5,+01410,1,99,9",,"07,99,1,99,9,99,9,99999,9,99,9,99,9",,"10031,1,99999,9",,,,,"MET058METAR ENNO 041250Z 10008KT 9999 FEW025 BKN047 20/11 Q1003;",
"01470399999","2010-08-04T13:50:00","4","59.565683","9.212222","19.2","NOTODDEN, NO","FM-15","ENNO ","V020","999,9,V,0010,1","99999,9,C,N","011265,1,N,1","+0190,1","+0120,1","99999,9","02,5,+00750,1,99,9","04,5,+01200,1,02,5",,"04,99,1,99,9,99,9,99999,9,99,9,99,9",,"10031,1,99999,9","80,1",,,,"MET067METAR ENNO 041350Z VRB02KT 9999 -SHRA FEW025 SCT040TCU 19/12 Q1003;","P01 012003SCOCIG"
"01470399999","2010-08-04T14:50:00","4","59.565683","9.212222","19.2","NOTODDEN, NO","FM-15","ENNO ","V020","110,1,N,0036,1","03600,1,C,N","011265,1,N,1","+0200,1","+0120,1","99999,9","04,5,+01200,1,02,1","07,5,+03600,1,99,9",,"07,99,1,99,9,99,9,99999,9,99,9,99,9",,"10031,1,99999,9",,,,,"MET069METAR ENNO 041450Z 11007KT 060V140 9999 SCT040TCU BKN120 20/12 Q1003;",
"01470399999","2010-08-04T15:50:00","4","59.565683","9.212222","19.2","NOTODDEN, NO","FM-15","ENNO ","V020","120,1,N,0041,1","03600,1,C,N","011265,1,N,1","+0200,1","+0120,1","99999,9","04,5,+01200,1,02,1","07,5,+03600,1,99,9",,"07,99,1,99,9,99,9,99999,9,99,9,99,9",,"10031,1,99999,9",,,,,"MET061METAR ENNO 041550Z 12008KT 9999 SCT040TCU BKN120 20/12 Q1003;",
"01470399999","2010-08-04T19:20:00","4","59.565683","9.212222","19.2","NOTODDEN, NO","FM-15","ENNO ","V020","100,1,N,0036,1","22000,1,9,N","011265,1,N,1","+0180,1","+0120,1","99999,9","02,5,+01500,1,99,9",,,"02,99,1,99,9,99,9,99999,9,99,9,99,9",,"10041,1,99999,9",,,,,"MET051METAR ENNO 041920Z 10007KT 9999 FEW050 18/12 Q1004;",
"01470399999","2010-08-05T04:50:00","4","59.565683","9.212222","19.2","NOTODDEN, NO","FM-15","ENNO ","V020","999,9,C,0000,1","00840,1,C,N","011265,1,N,1","+0120,1","+0110,1","99999,9","02,5,+00450,1,99,9","07,5,+00840,1,99,9",,"07,99,1,99,9,99,9,99999,9,99,9,99,9",,"10071,1,99999,9","61,1",,,,"MET062METAR ENNO 050450Z 00000KT 9999 -RA FEW015 BKN028 12/11 Q1007;",
"01470399999","2010-08-05T05:50:00","4","59.565683","9.212222","19.2","NOTODDEN, NO","FM-15","ENNO ","V020","999,9,C,0000,1","00750,1,C,N","011265,1,N,1","+0120,1","+0110,1","99999,9","02,5,+00450,1,99,9","07,5,+00750,1,99,9",,"07,99,1,99,9,99,9,99999,9,99,9,99,9",,"10071,1,99999,9","61,1",,,,"MET062METAR ENNO 050550Z 00000KT 9999 -RA FEW015 BKN025 12/11 Q1007;",
"01470399999","2010-08-05T06:50:00","4","59.565683","9.212222","19.2","NOTODDEN, NO","FM-15","ENNO ","V020","999,9,C,0000,1","00750,1,C,N","011265,1,N,1","+0130,1","+0120,1","99999,9","02,5,+00150,1,99,9","07,5,+00750,1,99,9",,"07,99,1,99,9,99,9,99999,9,99,9,99,9",,"10071,1,99999,9","61,1",,,,"MET062METAR ENNO 050650Z 00000KT 9999 -RA FEW005 BKN025 13/12 Q1007;",
"01470399999","2010-08-05T07:50:00","4","59.565683","9.212222","19.2","NOTODDEN, NO","FM-15","ENNO ","V020","300,1,N,0021,1","00540,1,C,N","011265,1,N,1","+0130,1","+0120,1","99999,9","02,5,+00150,1,99,9","04,5,+00540,1,99,9","07,5,+00750,1,99,9","07,99,1,99,9,99,9,99999,9,99,9,99,9",,"10081,1,99999,9","51,1","61,1",,,"MET079METAR ENNO 050750Z 30004KT 270V340 9999 -RADZ FEW005 SCT018 BKN025 13/12 Q1008;",
"01470399999","2010-08-05T08:50:00","4","59.565683","9.212222","19.2","NOTODDEN, NO","FM-15","ENNO ","V020","280,1,N,0015,1","00450,1,9,N","011265,1,N,1","+0140,1","+0130,1","99999,9","09,1,+00450,1,99,9",,,"09,99,1,99,9,99,9,00025,1,99,9,99,9",,"10081,1,99999,9","61,1",,,,"MET054METAR ENNO 050850Z 28003KT 9999 -RA VV015 14/13 Q1008;",
"01470399999","2010-08-05T09:50:00","4","59.565683","9.212222","19.2","NOTODDEN, NO","FM-15","ENNO ","V020","300,1,N,0015,1","00600,1,9,N","011265,1,N,1","+0140,1","+0130,1","99999,9","09,1,+00600,1,99,9",,,"09,99,1,99,9,99,9,00025,1,99,9,99,9",,"10081,1,99999,9","61,1",,,,"MET062METAR ENNO 050950Z 30003KT 260V330 9999 -RA VV020 14/13 Q1008;",
"01470399999","2010-08-05T10:50:00","4","59.565683","9.212222","19.2","NOTODDEN, NO","FM-15","ENNO ","V020","310,1,N,0026,1","00600,1,C,N","011265,1,N,1","+0150,1","+0140,1","99999,9","02,5,+00240,1,99,9","07,5,+00600,1,99,9",,"07,99,1,99,9,99,9,99999,9,99,9,99,9",,"10081,1,99999,9",,,,,"MET066METAR ENNO 051050Z 31005KT 280V350 9999 FEW008 BKN020 15/14 Q1008;",
"01470399999","2010-08-05T11:50:00","4","59.565683","9.212222","19.2","NOTODDEN, NO","FM-15","ENNO ","V020","330,1,N,0021,1","00360,1,9,N","011265,1,N,1","+0150,1","+0130,1","99999,9","09,1,+00360,1,99,9",,,"09,99,1,99,9,99,9,00025,1,99,9,99,9",,"10081,1,99999,9","61,1",,,,"MET062METAR ENNO 051150Z 33004KT 300V010 9999 -RA VV012 15/13 Q1008;",
"01470399999","2010-08-05T12:50:00","4","59.565683","9.212222","19.2","NOTODDEN, NO","FM-15","ENNO ","V020","250,1,N,0015,1","00420,1,C,N","009000,1,N,1","+0140,1","+0130,1","99999,9","02,5,+00180,1,99,9","04,5,+00420,1,99,9","07,5,+00780,1,99,9","07,99,1,99,9,99,9,99999,9,99,9,99,9",,"10081,1,99999,9","61,1",,,,"MET077METAR ENNO 051250Z 25003KT 180V330 9000 -RA FEW006 SCT014 BKN026 14/13 Q1008;",
"01470399999","2010-08-05T13:50:00","4","59.565683","9.212222","19.2","NOTODDEN, NO","FM-15","ENNO ","V020","280,1,N,0031,1","00540,1,C,N","011265,1,N,1","+0160,1","+0140,1","99999,9","02,5,+00180,1,99,9","04,5,+00540,1,99,9","07,5,+00900,1,99,9","07,99,1,99,9,99,9,99999,9,99,9,99,9",,"10081,1,99999,9","61,1",,,,"MET069METAR ENNO 051350Z 28006KT 9999 -RA FEW006 SCT018 BKN030 16/14 Q1008;",
"01470399999","2010-08-05T14:50:00","4","59.565683","9.212222","19.2","NOTODDEN, NO","FM-15","ENNO ","V020","300,1,N,0031,1","00600,1,C,N","011265,1,N,1","+0160,1","+0140,1","99999,9","02,5,+00240,1,99,9","04,5,+00600,1,99,9","07,5,+01200,1,99,9","07,99,1,99,9,99,9,99999,9,99,9,99,9",,"10081,1,99999,9","16,1",,,,"MET070METAR ENNO 051450Z 30006KT 9999 VCSH FEW008 SCT020 BKN040 16/14 Q1008;",
"01470399999","2010-08-05T15:50:00","4","59.565683","9.212222","19.2","NOTODDEN, NO","FM-15","ENNO ","V020","280,1,N,0026,1","00600,1,C,N","011265,1,N,1","+0160,1","+0150,1","99999,9","02,5,+00270,1,99,9","04,5,+00600,1,99,9","07,5,+00960,1,99,9","07,99,1,99,9,99,9,99999,9,99,9,99,9",,"10081,1,99999,9","16,1",,,,"MET078METAR ENNO 051550Z 28005KT 240V310 9999 VCSH FEW009 SCT020 BKN032 16/15 Q1008;",
"01470399999","2010-08-06T04:50:00","4","59.565683","9.212222","19.2","NOTODDEN, NO","FM-15","ENNO ","V020","999,9,C,0000,1","99999,9,C,N","011265,1,N,1","+0130,1","+0120,1","99999,9","02,5,+00000,5,99,9","04,5,+00540,1,99,9","04,5,+00960,1,99,9","04,99,1,99,9,99,9,99999,9,99,9,99,9",,"10108,1,99999,9","40,1",,,,"MET070METAR ENNO 060450Z 00000KT 9999 VCFG FEW000 SCT018 SCT032 13/12 Q1011;","P01 005403SCOCIG"
"01470399999","2010-08-06T05:50:00","4","59.565683","9.212222","19.2","NOTODDEN, NO","FM-15","ENNO ","V020","999,9,V,0010,1","99999,9,C,N","011265,1,N,1","+0150,1","+0140,1","99999,9","02,5,+00540,1,99,9","04,5,+00960,1,99,9","04,5,+01650,5,99,9","04,99,1,99,9,99,9,99999,9,99,9,99,9",,"10119,1,99999,9",,,,,"MET065METAR ENNO 060550Z VRB02KT 9999 FEW018 SCT032 SCT055 15/14 Q1012;","P01 009603SCOCIG"
"01470399999","2010-08-06T06:50:00","4","59.565683","9.212222","19.2","NOTODDEN, NO","FM-15","ENNO ","V020","999,9,C,0000,1","00960,1,C,N","011265,1,N,1","+0150,1","+0140,1","99999,9","02,5,+00540,1,99,9","07,5,+00960,1,99,9",,"07,99,1,99,9,99,9,99999,9,99,9,99,9",,"10119,1,99999,9","61,1",,,,"MET062METAR ENNO 060650Z 00000KT 9999 -RA FEW018 BKN032 15/14 Q1012;",
"01470399999","2010-08-06T08:50:00","4","59.565683","9.212222","19.2","NOTODDEN, NO","FM-15","ENNO ","V020","110,1,N,0036,1","00630,1,C,N","011265,1,N,1","+0180,1","+0130,1","99999,9","02,5,+00540,1,99,9","04,5,+00630,1,99,9","07,5,+01650,5,99,9","07,99,1,99,9,99,9,99999,9,99,9,99,9",,"10129,1,99999,9","16,1",,,,"MET078METAR ENNO 060850Z 11007KT 070V140 9999 VCSH FEW018 SCT021 BKN055 18/13 Q1013;",
"01470399999","2010-08-06T09:50:00","4","59.565683","9.212222","19.2","NOTODDEN, NO","FM-15","ENNO ","V020","110,1,N,0036,1","01710,5,C,N","011265,1,N,1","+0180,1","+0130,1","99999,9","04,5,+00630,1,99,9","07,5,+01710,5,99,9",,"07,99,1,99,9,99,9,99999,9,99,9,99,9",,"10129,1,99999,9",,,,,"MET058METAR ENNO 060950Z 11007KT 9999 SCT021 BKN057 18/13 Q1013;",
"01470399999","2010-08-06T10:50:00","4","59.565683","9.212222","19.2","NOTODDEN, NO","FM-15","ENNO ","V020","110,1,N,0041,1","01050,1,C,N","011265,1,N,1","+0190,1","+0130,1","99999,9","02,5,+00870,1,99,9","04,5,+01050,1,99,9","07,5,+01380,1,99,9","07,99,1,99,9,99,9,99999,9,99,9,99,9",,"10129,1,99999,9",,,,,"MET065METAR ENNO 061050Z 11008KT 9999 FEW029 SCT035 BKN046 19/13 Q1013;",
"01470399999","2010-08-06T11:50:00","4","59.565683","9.212222","19.2","NOTODDEN, NO","FM-15","ENNO ","V020","120,1,N,0036,1","01050,1,C,N","011265,1,N,1","+0200,1","+0140,1","99999,9","02,5,+00870,1,99,9","04,5,+01050,1,99,9","07,5,+01530,5,99,9","07,99,1,99,9,99,9,99999,9,99,9,99,9",,"10139,1,99999,9",,,,,"MET065METAR ENNO 061150Z 12007KT 9999 FEW029 SCT035 BKN051 20/14 Q1014;",
"01470399999","2010-08-06T12:50:00","4","59.565683","9.212222","19.2","NOTODDEN, NO","FM-15","ENNO ","V020","120,1,N,0051,1","22000,1,9,N","011265,1,N,1","+0200,1","+0120,1","99999,9","04,5,+01200,1,99,9",,,"04,99,1,99,9,99,9,99999,9,99,9,99,9",,"10139,1,99999,9",,,,,"MET059METAR ENNO 061250Z 12010KT 090V150 9999 SCT040 20/12 Q1014;",
"01470399999","2010-08-06T13:50:00","4","59.565683","9.212222","19.2","NOTODDEN, NO","FM-15","ENNO ","V020","130,1,N,0046,1","99999,9,C,N","011265,1,N,1","+0190,1","+0130,1","99999,9","02,5,+00300,1,99,9","04,5,+01200,1,99,9",,"04,99,1,99,9,99,9,99999,9,99,9,99,9",,"10139,1,99999,9","80,1",,,,"MET064METAR ENNO 061350Z 13009KT 9999 -SHRA FEW010 SCT040 19/13 Q1014;","P01 012003SCOCIG"
"01470399999","2010-08-06T14:50:00","4","59.565683","9.212222","19.2","NOTODDEN, NO","FM-15","ENNO ","V020","080,1,N,0021,1","01200,1,C,N","011265,1,N,1","+0190,1","+0130,1","99999,9","02,5,+00300,1,99,9","07,5,+01200,1,99,9",,"07,99,1,99,9,99,9,99999,9,99,9,99,9",,"10139,1,99999,9","16,1",,,,"MET071METAR ENNO 061450Z 08004KT 020V120 9999 VCSH FEW010 BKN040 19/13 Q1014;",
"01470399999","2010-08-06T15:50:00","4","59.565683","9.212222","19.2","NOTODDEN, NO","FM-15","ENNO ","V020","280,1,N,0026,1","01350,1,C,N","011265,1,N,1","+0160,1","+0130,1","99999,9","02,5,+00450,1,99,9","07,5,+01350,1,99,9",,"07,99,1,99,9,99,9,99999,9,99,9,99,9",,"10149,1,99999,9","16,1",,,,"MET063METAR ENNO 061550Z 28005KT 9999 VCSH FEW015 BKN045 16/13 Q1015;",
"01470399999","2010-08-08T15:50:00","4","59.565683","9.212222","19.2","NOTODDEN, NO","FM-15","ENNO ","V020","999,9,V,0005,1","99999,9,9,Y","009900,1,N,1","+0250,1","+0100,1","99999,9",,,,,,"10102,1,99999,9",,,,,"MET045METAR ENNO 081550Z VRB01KT CAVOK 25/10 Q1010;",
"01470399999","2010-08-08T16:20:00","4","59.565683","9.212222","19.2","NOTODDEN, NO","FM-15","ENNO ","V020","270,1,N,0005,1","22000,1,9,N","011265,1,N,1","+0260,1","+0120,1","99999,9","04,5,+01980,5,99,9",,,"04,99,1,99,9,99,9,99999,9,99,9,99,9",,"10102,1,99999,9",,,,,"MET051METAR ENNO 081620Z 27001KT 9999 SCT066 26/12 Q1010;",
"01470399999","2010-08-08T16:50:00","4","59.565683","9.212222","19.2","NOTODDEN, NO","FM-15","ENNO ","V020","240,1,N,0005,1","22000,1,9,N","011265,1,N,1","+0240,1","+0140,1","99999,9","02,5,+01980,5,99,9",,,"02,99,1,99,9,99,9,99999,9,99,9,99,9",,"10102,1,99999,9",,,,,"MET051METAR ENNO 081650Z 24001KT 9999 FEW066 24/14 Q1010;",
"01470399999","2010-08-09T04:50:00","4","59.565683","9.212222","19.2","NOTODDEN, NO","FM-15","ENNO ","V020","999,9,V,0005,1","22000,1,9,N","011265,1,N,1","+0120,1","+0110,1","99999,9","04,5,+01800,1,99,9",,,"04,99,1,99,9,99,9,99999,9,99,9,99,9",,"10102,1,99999,9",,,,,"MET051METAR ENNO 090450Z VRB01KT 9999 SCT060 12/11 Q1010;",
"01470399999","2010-08-09T06:50:00","4","59.565683","9.212222","19.2","NOTODDEN, NO","FM-15","ENNO ","V020","999,9,V,0005,1","22000,1,9,N","011265,1,N,1","+0150,1","+0130,1","99999,9","04,5,+01800,1,99,9",,,"04,99,1,99,9,99,9,99999,9,99,9,99,9",,"10102,1,99999,9",,,,,"MET051METAR ENNO 090650Z VRB01KT 9999 SCT060 15/13 Q1010;",
"01470399999","2010-08-09T07:50:00","4","59.565683","9.212222","19.2","NOTODDEN, NO","FM-15","ENNO ","V020","999,9,V,0005,1","22000,1,9,N","011265,1,N,1","+0160,1","+0130,1","99999,9","04,5,+01800,1,99,9",,,"04,99,1,99,9,99,9,99999,9,99,9,99,9",,"10102,1,99999,9",,,,,"MET051METAR ENNO 090750Z VRB01KT 9999 SCT060 16/13 Q1010;",
"01470399999","2010-08-09T08:50:00","4","59.565683","9.212222","19.2","NOTODDEN, NO","FM-15","ENNO ","V020","999,9,V,0005,1","22000,1,9,N","011265,1,N,1","+0190,1","+0140,1","99999,9","04,5,+01800,1,99,9",,,"04,99,1,99,9,99,9,99999,9,99,9,99,9",,"10091,1,99999,9",,,,,"MET051METAR ENNO 090850Z VRB01KT 9999 SCT060 19/14 Q1009;",
"01470399999","2010-08-09T10:50:00","4","59.565683","9.212222","19.2","NOTODDEN, NO","FM-15","ENNO ","V020","270,1,N,0021,1","99999,9,C,N","011265,1,N,1","+0230,1","+0130,1","99999,9","02,5,+01650,5,99,9","04,5,+03600,1,99,9",,"04,99,1,99,9,99,9,99999,9,99,9,99,9",,"10081,1,99999,9",,,,,"MET058METAR ENNO 091050Z 27004KT 9999 FEW055 SCT120 23/13 Q1008;","P01 036003SCOCIG"
"01470399999","2010-08-09T11:50:00","4","59.565683","9.212222","19.2","NOTODDEN, NO","FM-15","ENNO ","V020","999,9,C,0000,1","22000,1,9,N","011265,1,N,1","+0240,1","+0120,1","99999,9","04,5,+01650,5,99,9",,,"04,99,1,99,9,99,9,99999,9,99,9,99,9",,"10081,1,99999,9",,,,,"MET051METAR ENNO 091150Z 00000KT 9999 SCT055 24/12 Q1008;",
"01470399999","2010-08-09T12:50:00","4","59.565683","9.212222","19.2","NOTODDEN, NO","FM-15","ENNO ","V020","999,9,C,0000,1","22000,1,9,N","011265,1,N,1","+0250,1","+0120,1","99999,9","04,5,+01650,5,99,9",,,"04,99,1,99,9,99,9,99999,9,99,9,99,9",,"10081,1,99999,9",,,,,"MET051METAR ENNO 091250Z 00000KT 9999 SCT055 25/12 Q1008;",
"01470399999","2010-08-09T13:50:00","4","59.565683","9.212222","19.2","NOTODDEN, NO","FM-15","ENNO ","V020","999,9,V,0005,1","22000,1,9,N","011265,1,N,1","+0240,1","+0140,1","99999,9","04,5,+01650,5,99,9",,,"04,99,1,99,9,99,9,99999,9,99,9,99,9",,"10071,1,99999,9",,,,,"MET051METAR ENNO 091350Z VRB01KT 9999 SCT055 24/14 Q1007;",
"01470399999","2010-08-09T14:50:00","4","59.565683","9.212222","19.2","NOTODDEN, NO","FM-15","ENNO ","V020","080,1,N,0026,1","22000,1,9,N","011265,1,N,1","+0240,1","+0150,1","99999,9","04,5,+01500,1,99,9",,,"04,99,1,99,9,99,9,99999,9,99,9,99,9",,"10071,1,99999,9",,,,,"MET059METAR ENNO 091450Z 08005KT 060V120 9999 SCT050 24/15 Q1007;",
"01470399999","2010-08-09T15:50:00","4","59.565683","9.212222","19.2","NOTODDEN, NO","FM-15","ENNO ","V020","150,1,N,0021,1","22000,1,9,N","011265,1,N,1","+0240,1","+0140,1","99999,9","04,5,+01500,1,99,9",,,"04,99,1,99,9,99,9,99999,9,99,9,99,9",,"10071,1,99999,9",,,,,"MET059METAR ENNO 091550Z 15004KT 110V200 9999 SCT050 24/14 Q1007;",
"01470399999","2010-08-09T16:50:00","4","59.565683","9.212222","19.2","NOTODDEN, NO","FM-15","ENNO ","V020","140,1,N,0021,1","22000,1,9,N","011265,1,N,1","+0230,1","+0160,1","99999,9","04,5,+01350,1,02,1",,,"04,99,1,99,9,99,9,99999,9,99,9,99,9",,"10071,1,99999,9",,,,,"MET062METAR ENNO 091650Z 14004KT 120V190 9999 SCT045TCU 23/16 Q1007;",
"01470399999","2010-08-09T17:50:00","4","59.565683","9.212222","19.2","NOTODDEN, NO","FM-15","ENNO ","V020","110,1,N,0026,1","22000,1,9,N","011265,1,N,1","+0230,1","+0150,1","99999,9","04,5,+01350,1,02,1",,,"04,99,1,99,9,99,9,99999,9,99,9,99,9",,"10071,1,99999,9",,,,,"MET062METAR ENNO 091750Z 11005KT 080V140 9999 SCT045TCU 23/15 Q1007;",
"01470399999","2010-08-09T18:50:00","4","59.565683","9.212222","19.2","NOTODDEN, NO","FM-15","ENNO ","V020","070,1,N,0031,1","99999,9,C,N","011265,1,N,1","+0220,1","+0150,1","99999,9","02,5,+01200,1,99,9","04,5,+02700,1,99,9",,"04,99,1,99,9,99,9,99999,9,99,9,99,9",,"10071,1,99999,9",,,,,"MET066METAR ENNO 091850Z 07006KT 030V110 9999 FEW040 SCT090 22/15 Q1007;","P01 027003SCOCIG"
"01470399999","2010-08-10T04:50:00","4","59.565683","9.212222","19.2","NOTODDEN, NO","FM-15","ENNO ","V020","999,9,C,0000,1","00210,1,C,N","004500,1,N,1","+0140,1","+0130,1","99999,9","02,5,+00060,1,99,9","07,5,+00210,1,99,9",,"07,99,1,99,9,99,9,99999,9,99,9,99,9",,"10091,1,99999,9","10,1",,,,"MET061METAR ENNO 100450Z 00000KT 4500 BR FEW002 BKN007 14/13 Q1009;",
"01470399999","2010-08-10T05:50:00","4","59.565683","9.212222","19.2","NOTODDEN, NO","FM-15","ENNO ","V020","999,9,C,0000,1","00150,1,C,N","004500,1,N,1","+0140,1","+0140,1","99999,9","07,5,+00150,1,99,9",,,"07,99,1,99,9,99,9,99999,9,99,9,99,9",,"10091,1,99999,9","10,1",,,,"MET054METAR ENNO 100550Z 00000KT 4500 BR BKN005 14/14 Q1009;",
"01470399999","2010-08-10T06:50:00","4","59.565683","9.212222","19.2","NOTODDEN, NO","FM-15","ENNO ","V020","999,9,C,0000,1","00180,1,C,N","005000,1,N,1","+0150,1","+0140,1","99999,9","07,5,+00180,1,99,9",,,"07,99,1,99,9,99,9,99999,9,99,9,99,9",,"10102,1,99999,9","10,1",,,,"MET054METAR ENNO 100650Z 00000KT 5000 BR BKN006 15/14 Q1010;",
"01470399999","2010-08-10T07:50:00","4","59.565683","9.212222","19.2","NOTODDEN, NO","FM-15","ENNO ","V020","999,9,C,0000,1","00240,1,C,N","007000,1,N,1","+0160,1","+0140,1","99999,9","07,5,+00240,1,99,9",,,"07,99,1,99,9,99,9,99999,9,99,9,99,9",,"10102,1,99999,9",,,,,"MET051METAR ENNO 100750Z 00000KT 7000 BKN008 16/14 Q1010;",
"01470399999","2010-08-10T08:50:00","4","59.565683","9.212222","19.2","NOTODDEN, NO","FM-15","ENNO ","V020","999,9,V,0010,1","00450,1,C,N","011265,1,N,1","+0170,1","+0150,1","99999,9","04,5,+00300,1,99,9","07,5,+00450,1,99,9",,"07,99,1,99,9,99,9,99999,9,99,9,99,9",,"10102,1,99999,9",,,,,"MET058METAR ENNO 100850Z VRB02KT 9999 SCT010 BKN015 17/15 Q1010;",
"01470399999","2010-08-10T09:50:00","4","59.565683","9.212222","19.2","NOTODDEN, NO","FM-15","ENNO ","V020","110,1,N,0046,1","00720,1,C,N","011265,1,N,1","+0180,1","+0150,1","99999,9","07,5,+00720,1,99,9",,,"07,99,1,99,9,99,9,99999,9,99,9,99,9",,"10102,1,99999,9",,,,,"MET059METAR ENNO 100950Z 11009KT 070V130 9999 BKN024 18/15 Q1010;",
"01470399999","2010-08-10T10:50:00","4","59.565683","9.212222","19.2","NOTODDEN, NO","FM-15","ENNO ","V020","100,1,N,0051,1","22000,1,9,N","011265,1,N,1","+0200,1","+0140,1","99999,9","04,5,+01200,1,99,9",,,"04,99,1,99,9,99,9,99999,9,99,9,99,9",,"10102,1,99999,9",,,,,"MET059METAR ENNO 101050Z 10010KT 080V140 9999 SCT040 20/14 Q1010;",
"01470399999","2010-08-10T11:50:00","4","59.565683","9.212222","19.2","NOTODDEN, NO","FM-15","ENNO ","V020","110,1,N,0046,1","22000,1,9,N","011265,1,N,1","+0220,1","+0150,1","99999,9","04,5,+01440,1,99,9",,,"04,99,1,99,9,99,9,99999,9,99,9,99,9",,"10091,1,99999,9",,,,,"MET059METAR ENNO 101150Z 11009KT 070V140 9999 SCT048 22/15 Q1009;",
"01470399999","2010-08-10T12:50:00","4","59.565683","9.212222","19.2","NOTODDEN, NO","FM-15","ENNO ","V020","110,1,N,0041,1","22000,1,9,N","011265,1,N,1","+0230,1","+0100,1","99999,9","04,5,+01500,1,99,9",,,"04,99,1,99,9,99,9,99999,9,99,9,99,9",,"10091,1,99999,9",,,,,"MET051METAR ENNO 101250Z 11008KT 9999 SCT050 23/10 Q1009;",
"01470399999","2010-08-10T13:50:00","4","59.565683","9.212222","19.2","NOTODDEN, NO","FM-15","ENNO ","V020","130,1,N,0041,1","02040,5,C,N","011265,1,N,1","+0220,1","+0110,1","99999,9","07,5,+02040,5,99,9",,,"07,99,1,99,9,99,9,99999,9,99,9,99,9",,"10091,1,99999,9",,,,,"MET051METAR ENNO 101350Z 13008KT 9999 BKN068 22/11 Q1009;",
"01470399999","2010-08-10T14:50:00","4","59.565683","9.212222","19.2","NOTODDEN, NO","FM-15","ENNO ","V020","170,1,N,0021,1","02100,1,C,N","011265,1,N,1","+0230,1","+0100,1","99999,9","07,5,+02100,1,99,9",,,"07,99,1,99,9,99,9,99999,9,99,9,99,9",,"10091,1,99999,9",,,,,"MET051METAR ENNO 101450Z 17004KT 9999 BKN070 23/10 Q1009;",
"01470399999","2010-08-11T04:50:00","4","59.565683","9.212222","19.2","NOTODDEN, NO","FM-15","ENNO ","V020","100,1,N,0046,1","00690,1,C,N","009000,1,N,1","+0160,1","+0150,1","99999,9","04,5,+00540,1,99,9","07,5,+00690,1,99,9",,"07,99,1,99,9,99,9,99999,9,99,9,99,9",,"10071,1,99999,9","61,1",,,,"MET062METAR ENNO 110450Z 10009KT 9000 -RA SCT018 BKN023 16/15 Q1007;",
"01470399999","2010-08-11T05:50:00","4","59.565683","9.212222","19.2","NOTODDEN, NO","FM-15","ENNO ","V020","100,1,N,0031,1","00690,1,C,N","011265,1,N,1","+0170,1","+0150,1","99999,9","02,5,+00240,1,99,9","07,5,+00690,1,99,9",,"07,99,1,99,9,99,9,99999,9,99,9,99,9",,"10061,1,99999,9","61,1",,,,"MET062METAR ENNO 110550Z 10006KT 9999 -RA FEW008 BKN023 17/15 Q1006;",
"01470399999","2010-08-11T06:50:00","4","59.565683","9.212222","19.2","NOTODDEN, NO","FM-15","ENNO ","V020","320,1,N,0021,1","00690,1,C,N","011265,1,N,1","+0170,1","+0150,1","99999,9","02,5,+00240,1,99,9","07,5,+00690,1,99,9",,"07,99,1,99,9,99,9,99999,9,99,9,99,9",,"10061,1,99999,9","61,1",,,,"MET062METAR ENNO 110650Z 32004KT 9999 -RA FEW008 BKN023 17/15 Q1006;",
"01470399999","2010-08-11T07:50:00","4","59.565683","9.212222","19.2","NOTODDEN, NO","FM-15","ENNO ","V020","310,1,N,0036,1","00270,1,C,N","006000,1,N,1","+0160,1","+0150,1","99999,9","02,5,+00120,1,99,9","04,5,+00270,1,99,9","07,5,+00540,1,99,9","07,99,1,99,9,99,9,99999,9,99,9,99,9",,"10061,1,99999,9","61,1",,,,"MET069METAR ENNO 110750Z 31007KT 6000 -RA FEW004 SCT009 BKN018 16/15 Q1006;",
"01470399999","2010-08-11T08:50:00","4","59.565683","9.212222","19.2","NOTODDEN, NO","FM-15","ENNO ","V020","270,1,N,0026,1","00540,1,C,N","011265,1,N,1","+0160,1","+0140,1","99999,9","04,5,+00270,1,99,9","07,5,+00540,1,99,9",,"07,99,1,99,9,99,9,99999,9,99,9,99,9",,"10071,1,99999,9",,,,,"MET058METAR ENNO 110850Z 27005KT 9999 SCT009 BKN018 16/14 Q1007;",
"01470399999","2010-08-11T13:50:00","4","59.565683","9.212222","19.2","NOTODDEN, NO","FM-15","ENNO ","V020","140,1,N,0051,1","01800,1,C,N","011265,1,N,1","+0200,1","+0130,1","99999,9","04,5,+00540,1,99,9","07,5,+01800,1,99,9",,"07,99,1,99,9,99,9,99999,9,99,9,99,9",,"10081,1,99999,9",,,,,"MET058METAR ENNO 111350Z 14010KT 9999 SCT018 BKN060 20/13 Q1008;",
"01470399999","2010-08-11T14:50:00","4","59.565683","9.212222","19.2","NOTODDEN, NO","FM-15","ENNO ","V020","160,1,N,0026,1","02400,1,C,N","011265,1,N,1","+0180,1","+0130,1","99999,9","04,5,+00840,1,99,9","07,5,+02400,1,99,9",,"07,99,1,99,9,99,9,99999,9,99,9,99,9",,"10081,1,99999,9",,,,,"MET058METAR ENNO 111450Z 16005KT 9999 SCT028 BKN080 18/13 Q1008;",
"01470399999","2010-08-11T15:50:00","4","59.565683","9.212222","19.2","NOTODDEN, NO","FM-15","ENNO ","V020","110,1,N,0026,1","02400,1,C,N","011265,1,N,1","+0190,1","+0120,1","99999,9","04,5,+01050,1,99,9","07,5,+02400,1,99,9",,"07,99,1,99,9,99,9,99999,9,99,9,99,9",,"10081,1,99999,9",,,,,"MET058METAR ENNO 111550Z 11005KT 9999 SCT035 BKN080 19/12 Q1008;",
"01470399999","2010-08-12T05:20:00","4","59.565683","9.212222","19.2","NOTODDEN, NO","FM-15","ENNO ","V020","999,9,V,0005,1","99999,9,C,N","011265,1,N,1","+0090,1","+0080,1","99999,9","02,5,+00000,5,99,9","04,5,+00300,1,99,9",,"04,99,1,99,9,99,9,99999,9,99,9,99,9",,"10149,1,99999,9",,,,,"MET058METAR ENNO 120520Z VRB01KT 9999 FEW000 SCT010 09/08 Q1015;","P01 003003SCOCIG"
"01470399999","2010-08-12T05:50:00","4","59.565683","9.212222","19.2","NOTODDEN, NO","FM-15","ENNO ","V020","999,9,C,0000,1","99999,9,C,N","011265,1,N,1","+0090,1","+0090,1","99999,9","02,5,+00000,5,99,9","04,5,+00330,1,99,9",,"04,99,1,99,9,99,9,99999,9,99,9,99,9",,"10149,1,99999,9",,,,,"MET058METAR ENNO 120550Z 00000KT 9999 FEW000 SCT011 09/09 Q1015;","P01 003303SCOCIG"
"01470399999","2010-08-12T06:50:00","4","59.565683","9.212222","19.2","NOTODDEN, NO","FM-15","ENNO ","V020","999,9,C,0000,1","02100,1,C,N","011265,1,N,1","+0110,1","+0100,1","99999,9","02,5,+00300,1,99,9","07,5,+02100,1,99,9",,"07,99,1,99,9,99,9,99999,9,99,9,99,9",,"10159,1,99999,9",,,,,"MET058METAR ENNO 120650Z 00000KT 9999 FEW010 BKN070 11/10 Q1016;",
"01470399999","2010-08-12T07:50:00","4","59.565683","9.212222","19.2","NOTODDEN, NO","FM-15","ENNO ","V020","999,9,C,0000,1","22000,1,9,N","011265,1,N,1","+0130,1","+0110,1","99999,9","04,5,+02100,1,99,9",,,"04,99,1,99,9,99,9,99999,9,99,9,99,9",,"10159,1,99999,9",,,,,"MET051METAR ENNO 120750Z 00000KT 9999 SCT070 13/11 Q1016;",
"01470399999","2010-08-12T08:50:00","4","59.565683","9.212222","19.2","NOTODDEN, NO","FM-15","ENNO ","V020","999,9,V,0010,1","99999,9,C,N","011265,1,N,1","+0150,1","+0110,1","99999,9","02,5,+01350,1,02,1","04,5,+02100,1,99,9",,"04,99,1,99,9,99,9,99999,9,99,9,99,9",,"10159,1,99999,9",,,,,"MET061METAR ENNO 120850Z VRB02KT 9999 FEW045TCU SCT070 15/11 Q1016;","P01 021003SCOCIG"
"01470399999","2010-08-12T09:50:00","4","59.565683","9.212222","19.2","NOTODDEN, NO","FM-15","ENNO ","V020","999,9,C,0000,1","22000,1,9,N","011265,1,N,1","+0190,1","+0120,1","99999,9","04,5,+01350,1,02,1",,,"04,99,1,99,9,99,9,99999,9,99,9,99,9",,"10159,1,99999,9",,,,,"MET054METAR ENNO 120950Z 00000KT 9999 SCT045TCU 19/12 Q1016;",
"01470399999","2010-08-12T10:50:00","4","59.565683","9.212222","19.2","NOTODDEN, NO","FM-15","ENNO ","V020","999,9,C,0000,1","22000,1,9,N","011265,1,N,1","+0210,1","+0100,1","99999,9","04,5,+01500,1,02,1",,,"04,99,1,99,9,99,9,99999,9,99,9,99,9",,"10149,1,99999,9",,,,,"MET054METAR ENNO 121050Z 00000KT 9999 SCT050TCU 21/10 Q1015;",
"01470399999","2010-08-12T11:50:00","4","59.565683","9.212222","19.2","NOTODDEN, NO","FM-15","ENNO ","V020","150,1,N,0021,1","22000,1,9,N","011265,1,N,1","+0220,1","+0110,1","99999,9","04,5,+01500,1,02,1",,,"04,99,1,99,9,99,9,99999,9,99,9,99,9",,"10149,1,99999,9",,,,,"MET062METAR ENNO 121150Z 15004KT 110V190 9999 SCT050TCU 22/11 Q1015;",
"01470399999","2010-08-12T12:50:00","4","59.565683","9.212222","19.2","NOTODDEN, NO","FM-15","ENNO ","V020","140,1,N,0026,1","22000,1,9,N","011265,1,N,1","+0230,1","+0100,1","99999,9","04,5,+01500,1,02,1",,,"04,99,1,99,9,99,9,99999,9,99,9,99,9",,"10159,1,99999,9",,,,,"MET054METAR ENNO 121250Z 14005KT 9999 SCT050TCU 23/10 Q1016;",
"01470399999","2010-08-12T13:50:00","4","59.565683","9.212222","19.2","NOTODDEN, NO","FM-15","ENNO ","V020","150,1,N,0031,1","22000,1,9,N","011265,1,N,1","+0230,1","+0090,1","99999,9","04,5,+01500,1,02,1",,,"04,99,1,99,9,99,9,99999,9,99,9,99,9",,"10159,1,99999,9",,,,,"MET054METAR ENNO 121350Z 15006KT 9999 SCT050TCU 23/09 Q1016;",
"01470399999","2010-08-12T14:50:00","4","59.565683","9.212222","19.2","NOTODDEN, NO","FM-15","ENNO ","V020","150,1,N,0026,1","22000,1,9,N","011265,1,N,1","+0230,1","+0090,1","99999,9","04,5,+01500,1,99,9",,,"04,99,1,99,9,99,9,99999,9,99,9,99,9",,"10159,1,99999,9",,,,,"MET051METAR ENNO 121450Z 15005KT 9999 SCT050 23/09 Q1016;",
"01470399999","2010-08-13T05:50:00","4","59.565683","9.212222","19.2","NOTODDEN, NO","FM-15","ENNO ","V020","210,1,N,0021,1","00240,1,C,N","011265,1,N,1","+0140,1","+0140,1","99999,9","02,5,+00060,1,99,9","04,5,+00240,1,99,9","07,5,+00540,1,99,9","07,99,1,99,9,99,9,99999,9,99,9,99,9",,"10149,1,99999,9","61,1",,,,"MET069METAR ENNO 130550Z 21004KT 9999 -RA FEW002 SCT008 BKN018 14/14 Q1015;",
"01470399999","2010-08-13T07:50:00","4","59.565683","9.212222","19.2","NOTODDEN, NO","FM-15","ENNO ","V020","999,9,V,0005,1","00450,1,C,N","006000,1,N,1","+0150,1","+0150,1","99999,9","04,5,+00060,1,99,9","07,5,+00450,1,99,9",,"07,99,1,99,9,99,9,99999,9,99,9,99,9",,"10139,1,99999,9","61,1",,,,"MET062METAR ENNO 130750Z VRB01KT 6000 -RA SCT002 BKN015 15/15 Q1014;",
"01470399999","2010-08-13T08:50:00","4","59.565683","9.212222","19.2","NOTODDEN, NO","FM-15","ENNO ","V020","999,9,V,0005,1","00450,1,C,N","011265,1,N,1","+0160,1","+0150,1","99999,9","02,5,+00060,1,99,9","07,5,+00450,1,99,9",,"07,99,1,99,9,99,9,99999,9,99,9,99,9",,"10139,1,99999,9","61,1",,,,"MET062METAR ENNO 130850Z VRB01KT 9999 -RA FEW002 BKN015 16/15 Q1014;",
"01470399999","2010-08-13T09:50:00","4","59.565683","9.212222","19.2","NOTODDEN, NO","FM-15","ENNO ","V020","999,9,V,0015,1","00450,1,C,N","011265,1,N,1","+0170,1","+0160,1","99999,9","02,5,+00060,1,99,9","07,5,+00450,1,99,9",,"07,99,1,99,9,99,9,99999,9,99,9,99,9",,"10139,1,99999,9","61,1",,,,"MET062METAR ENNO 130950Z VRB03KT 9999 -RA FEW002 BKN015 17/16 Q1014;",
"01470399999","2010-08-13T10:50:00","4","59.565683","9.212222","19.2","NOTODDEN, NO","FM-15","ENNO ","V020","999,9,V,0015,1","00450,1,C,N","011265,1,N,1","+0190,1","+0180,1","99999,9","02,5,+00150,1,99,9","07,5,+00450,1,99,9",,"07,99,1,99,9,99,9,99999,9,99,9,99,9",,"10149,1,99999,9","61,1",,,,"MET062METAR ENNO 131050Z VRB03KT 9999 -RA FEW005 BKN015 19/18 Q1015;",
"01470399999","2010-08-16T13:50:00","4","59.565683","9.212222","19.2","NOTODDEN, NO","FM-15","ENNO ","V020","999,9,V,0005,1","01500,1,C,N","011265,1,N,1","+0190,1","+0130,1","99999,9","07,5,+01500,1,99,9",,,"07,99,1,99,9,99,9,99999,9,99,9,99,9",,"10180,1,99999,9",,,,,"MET051METAR ENNO 161350Z VRB01KT 9999 BKN050 19/13 Q1018;",
"01470399999","2010-08-17T04:50:00","4","59.565683","9.212222","19.2","NOTODDEN, NO","FM-15","ENNO ","V020","270,1,N,0015,1","00150,1,C,N","007000,1,N,1","+0140,1","+0140,1","99999,9","02,5,+00030,1,99,9","04,5,+00150,1,99,9","07,5,+00570,1,99,9","07,99,1,99,9,99,9,99999,9,99,9,99,9",,"10129,1,99999,9","61,1",,,,"MET069METAR ENNO 170450Z 27003KT 7000 -RA FEW001 SCT005 BKN019 14/14 Q1013;",
"01470399999","2010-08-17T06:50:00","4","59.565683","9.212222","19.2","NOTODDEN, NO","FM-15","ENNO ","V020","310,1,N,0015,1","00570,1,C,N","011265,1,N,1","+0150,1","+0140,1","99999,9","02,5,+00060,1,99,9","07,5,+00570,1,99,9",,"07,99,1,99,9,99,9,99999,9,99,9,99,9",,"10119,1,99999,9",,,,,"MET066METAR ENNO 170650Z 31003KT 280V350 9999 FEW002 BKN019 15/14 Q1012;",
"01470399999","2010-08-17T07:50:00","4","59.565683","9.212222","19.2","NOTODDEN, NO","FM-15","ENNO ","V020","320,1,N,0021,1","00570,1,C,N","011265,1,N,1","+0150,1","+0140,1","99999,9","02,5,+00060,1,99,9","07,5,+00570,1,99,9",,"07,99,1,99,9,99,9,99999,9,99,9,99,9",,"10119,1,99999,9",,,,,"MET066METAR ENNO 170750Z 32004KT 280V350 9999 FEW002 BKN019 15/14 Q1012;",
"01470399999","2010-08-17T08:50:00","4","59.565683","9.212222","19.2","NOTODDEN, NO","FM-15","ENNO ","V020","320,1,N,0015,1","00570,1,C,N","011265,1,N,1","+0150,1","+0140,1","99999,9","02,5,+00240,1,99,9","07,5,+00570,1,99,9",,"07,99,1,99,9,99,9,99999,9,99,9,99,9",,"10108,1,99999,9",,,,,"MET066METAR ENNO 170850Z 32003KT 280V360 9999 FEW008 BKN019 15/14 Q1011;",
"01470399999","2010-08-17T09:50:00","4","59.565683","9.212222","19.2","NOTODDEN, NO","FM-15","ENNO ","V020","999,9,V,0010,1","00570,1,C,N","011265,1,N,1","+0150,1","+0140,1","99999,9","02,5,+00240,1,99,9","07,5,+00570,1,99,9",,"07,99,1,99,9,99,9,99999,9,99,9,99,9",,"10108,1,99999,9",,,,,"MET058METAR ENNO 170950Z VRB02KT 9999 FEW008 BKN019 15/14 Q1011;",
"01470399999","2010-08-17T10:50:00","4","59.565683","9.212222","19.2","NOTODDEN, NO","FM-15","ENNO ","V020","320,1,N,0026,1","00750,1,C,N","011265,1,N,1","+0160,1","+0140,1","99999,9","02,5,+00300,1,99,9","04,5,+00750,1,99,9","08,5,+01530,5,99,9","08,99,1,99,9,99,9,99999,9,99,9,99,9",,"10102,1,99999,9",,,,,"MET065METAR ENNO 171050Z 32005KT 9999 FEW010 SCT025 OVC051 16/14 Q1010;",
"01470399999","2010-08-17T11:50:00","4","59.565683","9.212222","19.2","NOTODDEN, NO","FM-15","ENNO ","V020","320,1,N,0031,1","01590,5,C,N","011265,1,N,1","+0160,1","+0140,1","99999,9","04,5,+00750,1,99,9","08,5,+01590,5,99,9",,"08,99,1,99,9,99,9,99999,9,99,9,99,9",,"10091,1,99999,9","61,1",,,,"MET062METAR ENNO 171150Z 32006KT 9999 -RA SCT025 OVC053 16/14 Q1009;",
"01470399999","2010-08-17T12:50:00","4","59.565683","9.212222","19.2","NOTODDEN, NO","FM-15","ENNO ","V020","290,1,N,0021,1","01590,5,C,N","011265,1,N,1","+0160,1","+0140,1","99999,9","02,5,+00750,1,99,9","08,5,+01590,5,99,9",,"08,99,1,99,9,99,9,99999,9,99,9,99,9",,"10081,1,99999,9",,,,,"MET058METAR ENNO 171250Z 29004KT 9999 FEW025 OVC053 16/14 Q1008;",
"01470399999","2010-08-17T13:50:00","4","59.565683","9.212222","19.2","NOTODDEN, NO","FM-15","ENNO ","V020","320,1,N,0031,1","01650,5,C,N","011265,1,N,1","+0170,1","+0140,1","99999,9","07,5,+01650,5,99,9",,,"07,99,1,99,9,99,9,99999,9,99,9,99,9",,"10071,1,99999,9",,,,,"MET051METAR ENNO 171350Z 32006KT 9999 BKN055 17/14 Q1007;",
"01470399999","2010-08-17T14:50:00","4","59.565683","9.212222","19.2","NOTODDEN, NO","FM-15","ENNO ","V020","999,9,C,0000,1","01860,5,C,N","011265,1,N,1","+0170,1","+0140,1","99999,9","07,5,+01860,5,99,9",,,"07,99,1,99,9,99,9,99999,9,99,9,99,9",,"10071,1,99999,9",,,,,"MET051METAR ENNO 171450Z 00000KT 9999 BKN062 17/14 Q1007;",
"01470399999","2010-08-17T15:50:00","4","59.565683","9.212222","19.2","NOTODDEN, NO","FM-15","ENNO ","V020","300,1,N,0031,1","01950,5,C,N","011265,1,N,1","+0180,1","+0140,1","99999,9","04,5,+01650,5,99,9","07,5,+01950,5,99,9",,"07,99,1,99,9,99,9,99999,9,99,9,99,9",,"10061,1,99999,9",,,,,"MET058METAR ENNO 171550Z 30006KT 9999 SCT055 BKN065 18/14 Q1006;",
"01470399999","2010-08-17T17:50:00","4","59.565683","9.212222","19.2","NOTODDEN, NO","FM-15","ENNO ","V020","999,9,V,0015,1","01200,1,C,N","011265,1,N,1","+0160,1","+0140,1","99999,9","07,5,+01200,1,99,9",,,"07,99,1,99,9,99,9,99999,9,99,9,99,9",,"10051,1,99999,9","61,1",,,,"MET055METAR ENNO 171750Z VRB03KT 9999 -RA BKN040 16/14 Q1005;",
"01470399999","2010-08-18T04:50:00","4","59.565683","9.212222","19.2","NOTODDEN, NO","FM-15","ENNO ","V020","270,1,N,0015,1","00750,1,C,N","011265,1,N,1","+0140,1","+0140,1","99999,9","02,5,+00150,1,99,9","07,5,+00750,1,99,9",,"07,99,1,99,9,99,9,99999,9,99,9,99,9",,"10010,1,99999,9","61,1",,,,"MET062METAR ENNO 180450Z 27003KT 9999 -RA FEW005 BKN025 14/14 Q1001;",
"01470399999","2010-08-18T06:20:00","4","59.565683","9.212222","19.2","NOTODDEN, NO","FM-15","ENNO ","V020","999,9,C,0000,1","00750,1,C,N","011265,1,N,1","+0140,1","+0140,1","99999,9","02,5,+00150,1,99,9","07,5,+00750,1,99,9",,"07,99,1,99,9,99,9,99999,9,99,9,99,9",,"10010,1,99999,9","61,1",,,,"MET062METAR ENNO 180620Z 00000KT 9999 -RA FEW005 BKN025 14/14 Q1001;",
"01470399999","2010-08-18T06:50:00","4","59.565683","9.212222","19.2","NOTODDEN, NO","FM-15","ENNO ","V020","999,9,C,0000,1","00720,1,C,N","011265,1,N,1","+0150,1","+0140,1","99999,9","02,5,+00150,1,99,9","07,5,+00720,1,99,9",,"07,99,1,99,9,99,9,99999,9,99,9,99,9",,"10010,1,99999,9","61,1",,,,"MET062METAR ENNO 180650Z 00000KT 9999 -RA FEW005 BKN024 15/14 Q1001;",
"01470399999","2010-08-18T12:50:00","4","59.565683","9.212222","19.2","NOTODDEN, NO","FM-15","ENNO ","V020","999,9,V,0010,1","00750,1,C,N","011265,1,N,1","+0180,1","+0150,1","99999,9","07,5,+00750,1,99,9",,,"07,99,1,99,9,99,9,99999,9,99,9,99,9",,"10010,1,99999,9",,,,,"MET051METAR ENNO 181250Z VRB02KT 9999 BKN025 18/15 Q1001;",
"01470399999","2010-08-18T13:50:00","4","59.565683","9.212222","19.2","NOTODDEN, NO","FM-15","ENNO ","V020","999,9,C,0000,1","01050,1,C,N","011265,1,N,1","+0190,1","+0150,1","99999,9","04,5,+00750,1,99,9","07,5,+01050,1,99,9",,"07,99,1,99,9,99,9,99999,9,99,9,99,9",,"10010,1,99999,9",,,,,"MET058METAR ENNO 181350Z 00000KT 9999 SCT025 BKN035 19/15 Q1001;",
"01470399999","2010-08-18T14:50:00","4","59.565683","9.212222","19.2","NOTODDEN, NO","FM-15","ENNO ","V020","999,9,V,0010,1","00750,1,C,N","011265,1,N,1","+0190,1","+0140,1","99999,9","07,5,+00750,1,99,9",,,"07,99,1,99,9,99,9,99999,9,99,9,99,9",,"10010,1,99999,9","61,1",,,,"MET055METAR ENNO 181450Z VRB02KT 9999 -RA BKN025 19/14 Q1001;",
"01470399999","2010-08-18T15:50:00","4","59.565683","9.212222","19.2","NOTODDEN, NO","FM-15","ENNO ","V020","999,9,C,0000,1","00750,1,C,N","011265,1,N,1","+0180,1","+0160,1","99999,9","07,5,+00750,1,99,9",,,"07,99,1,99,9,99,9,99999,9,99,9,99,9",,"10000,1,99999,9","61,1",,,,"MET055METAR ENNO 181550Z 00000KT 9999 -RA BKN025 18/16 Q1000;",
"01470399999","2010-08-18T16:50:00","4","59.565683","9.212222","19.2","NOTODDEN, NO","FM-15","ENNO ","V020","999,9,V,0005,1","00750,1,C,N","011265,1,N,1","+0180,1","+0140,1","99999,9","07,5,+00750,1,99,9",,,"07,99,1,99,9,99,9,99999,9,99,9,99,9",,"10000,1,99999,9","61,1",,,,"MET055METAR ENNO 181650Z VRB01KT 9999 -RA BKN025 18/14 Q1000;",
"01470399999","2010-08-18T17:50:00","4","59.565683","9.212222","19.2","NOTODDEN, NO","FM-15","ENNO ","V020","999,9,C,0000,1","00780,1,C,N","011265,1,N,1","+0170,1","+0150,1","99999,9","02,5,+00300,1,99,9","07,5,+00780,1,99,9",,"07,99,1,99,9,99,9,99999,9,99,9,99,9",,"10000,1,99999,9",,,,,"MET058METAR ENNO 181750Z 00000KT 9999 FEW010 BKN026 17/15 Q1000;",
"01470399999","2010-08-19T04:50:00","4","59.565683","9.212222","19.2","NOTODDEN, NO","FM-15","ENNO ","V020","999,9,C,0000,1","00600,1,C,N","011265,1,N,1","+0150,1","+0130,1","99999,9","02,5,+00210,1,99,9","07,5,+00600,1,99,9",,"07,99,1,99,9,99,9,99999,9,99,9,99,9",,"10020,1,99999,9","61,1",,,,"MET062METAR ENNO 190450Z 00000KT 9999 -RA FEW007 BKN020 15/13 Q1002;",
"01470399999","2010-08-19T05:50:00","4","59.565683","9.212222","19.2","NOTODDEN, NO","FM-15","ENNO ","V020","999,9,C,0000,1","00600,1,C,N","011265,1,N,1","+0150,1","+0130,1","99999,9","07,5,+00600,1,99,9",,,"07,99,1,99,9,99,9,99999,9,99,9,99,9",,"10020,1,99999,9","61,1",,,,"MET055METAR ENNO 190550Z 00000KT 9999 -RA BKN020 15/13 Q1002;",
"01470399999","2010-08-19T06:50:00","4","59.565683","9.212222","19.2","NOTODDEN, NO","FM-15","ENNO ","V020","999,9,C,0000,1","00690,1,C,N","011265,1,N,1","+0150,1","+0130,1","99999,9","07,5,+00690,1,99,9",,,"07,99,1,99,9,99,9,99999,9,99,9,99,9",,"10031,1,99999,9",,,,,"MET051METAR ENNO 190650Z 00000KT 9999 BKN023 15/13 Q1003;",
"01470399999","2010-08-19T07:50:00","4","59.565683","9.212222","19.2","NOTODDEN, NO","FM-15","ENNO ","V020","999,9,V,0005,1","00750,1,C,N","011265,1,N,1","+0150,1","+0130,1","99999,9","02,5,+00300,1,99,9","07,5,+00750,1,99,9",,"07,99,1,99,9,99,9,99999,9,99,9,99,9",,"10031,1,99999,9","16,1",,,,"MET063METAR ENNO 190750Z VRB01KT 9999 VCSH FEW010 BKN025 15/13 Q1003;",
"01470399999","2010-08-19T08:50:00","4","59.565683","9.212222","19.2","NOTODDEN, NO","FM-15","ENNO ","V020","999,9,C,0000,1","00750,1,C,N","011265,1,N,1","+0150,1","+0130,1","99999,9","02,5,+00450,1,99,9","07,5,+00750,1,99,9",,"07,99,1,99,9,99,9,99999,9,99,9,99,9",,"10041,1,99999,9","16,1",,,,"MET063METAR ENNO 190850Z 00000KT 9999 VCSH FEW015 BKN025 15/13 Q1004;",
"01470399999","2010-08-19T09:50:00","4","59.565683","9.212222","19.2","NOTODDEN, NO","FM-15","ENNO ","V020","999,9,V,0005,1","00720,1,C,N","011265,1,N,1","+0150,1","+0120,1","99999,9","07,5,+00720,1,99,9",,,"07,99,1,99,9,99,9,99999,9,99,9,99,9",,"10041,1,99999,9",,,,,"MET051METAR ENNO 190950Z VRB01KT 9999 BKN024 15/12 Q1004;",
"01470399999","2010-08-19T10:50:00","4","59.565683","9.212222","19.2","NOTODDEN, NO","FM-15","ENNO ","V020","999,9,V,0005,1","00750,1,C,N","011265,1,N,1","+0160,1","+0130,1","99999,9","07,5,+00750,1,99,9",,,"07,99,1,99,9,99,9,99999,9,99,9,99,9",,"10051,1,99999,9",,,,,"MET051METAR ENNO 191050Z VRB01KT 9999 BKN025 16/13 Q1005;",
"01470399999","2010-08-19T11:50:00","4","59.565683","9.212222","19.2","NOTODDEN, NO","FM-15","ENNO ","V020","999,9,V,0031,1","00750,1,C,N","011265,1,N,1","+0160,1","+0120,1","99999,9","02,5,+00150,1,99,9","07,5,+00750,1,99,9",,"07,99,1,99,9,99,9,99999,9,99,9,99,9",,"10061,1,99999,9",,,,,"MET058METAR ENNO 191150Z VRB06KT 9999 FEW005 BKN025 16/12 Q1006;",
"01470399999","2010-08-19T12:50:00","4","59.565683","9.212222","19.2","NOTODDEN, NO","FM-15","ENNO ","V020","999,9,V,0031,1","00750,1,C,N","011265,1,N,1","+0160,1","+0120,1","99999,9","08,5,+00750,1,99,9",,,"08,99,1,99,9,99,9,99999,9,99,9,99,9",,"10061,1,99999,9","16,1",,,,"MET056METAR ENNO 191250Z VRB06KT 9999 VCSH OVC025 16/12 Q1006;",
"01470399999","2010-08-19T13:50:00","4","59.565683","9.212222","19.2","NOTODDEN, NO","FM-15","ENNO ","V020","999,9,9,9999,9","00750,5,9,N","999999,9,N,1","+0160,1","+0120,1","99999,9","08,5,+00750,5,99,9",,,,,"10060,1,99999,9",,,,,"MET052METAR ENNO 191350Z 12007999 VCSH OVC025 16/12 Q1006;",
"01470399999","2010-08-19T14:50:00","4","59.565683","9.212222","19.2","NOTODDEN, NO","FM-15","ENNO ","V020","999,9,V,0015,1","00720,1,C,N","011265,1,N,1","+0160,1","+0120,1","99999,9","08,5,+00720,1,99,9",,,"08,99,1,99,9,99,9,99999,9,99,9,99,9",,"10071,1,99999,9","16,1",,,,"MET056METAR ENNO 191450Z VRB03KT 9999 VCSH OVC024 16/12 Q1007;",
"01470399999","2010-08-19T15:50:00","4","59.565683","9.212222","19.2","NOTODDEN, NO","FM-15","ENNO ","V020","999,9,C,0000,1","00660,1,C,N","011265,1,N,1","+0160,1","+0120,1","99999,9","07,5,+00660,1,99,9",,,"07,99,1,99,9,99,9,99999,9,99,9,99,9",,"10071,1,99999,9","16,1",,,,"MET056METAR ENNO 191550Z 00000KT 9999 VCSH BKN022 16/12 Q1007;",
"01470399999","2010-08-19T16:50:00","4","59.565683","9.212222","19.2","NOTODDEN, NO","FM-15","ENNO ","V020","300,1,N,0010,1","00600,1,C,N","011265,1,N,1","+0160,1","+0130,1","99999,9","07,5,+00600,1,99,9",,,"07,99,1,99,9,99,9,99999,9,99,9,99,9",,"10071,1,99999,9","16,1",,,,"MET056METAR ENNO 191650Z 30002KT 9999 VCSH BKN020 16/13 Q1007;",
"01470399999","2010-08-19T17:50:00","4","59.565683","9.212222","19.2","NOTODDEN, NO","FM-15","ENNO ","V020","999,9,C,0000,1","00750,1,C,N","011265,1,N,1","+0160,1","+0130,1","99999,9","04,5,+00600,1,99,9","08,5,+00750,1,99,9",,"08,99,1,99,9,99,9,99999,9,99,9,99,9",,"10081,1,99999,9","61,1",,,,"MET062METAR ENNO 191750Z 00000KT 9999 -RA SCT020 OVC025 16/13 Q1008;",
"01470399999","2010-08-19T18:50:00","4","59.565683","9.212222","19.2","NOTODDEN, NO","FM-15","ENNO ","V020","999,9,C,0000,1","00750,1,C,N","011265,1,N,1","+0150,1","+0130,1","99999,9","08,5,+00750,1,99,9",,,"08,99,1,99,9,99,9,99999,9,99,9,99,9",,"10081,1,99999,9","16,1",,,,"MET056METAR ENNO 191850Z 00000KT 9999 VCSH OVC025 15/13 Q1008;",
"01470399999","2010-08-20T04:50:00","4","59.565683","9.212222","19.2","NOTODDEN, NO","FM-15","ENNO ","V020","280,1,N,0005,1","01800,1,C,N","011265,1,N,1","+0140,1","+0130,1","99999,9","02,5,+00300,1,99,9","04,5,+01800,1,99,9","07,5,+02700,1,99,9","07,99,1,99,9,99,9,99999,9,99,9,99,9",,"10108,1,99999,9",,,,,"MET065METAR ENNO 200450Z 28001KT 9999 FEW010 SCT060 BKN090 14/13 Q1011;",
"01470399999","2010-08-20T06:20:00","4","59.565683","9.212222","19.2","NOTODDEN, NO","FM-15","ENNO ","V020","999,9,C,0000,1","99999,9,C,N","011265,1,N,1","+0150,1","+0130,1","99999,9","02,5,+00300,1,99,9","04,5,+02100,1,99,9",,"04,99,1,99,9,99,9,99999,9,99,9,99,9",,"10119,1,99999,9",,,,,"MET058METAR ENNO 200620Z 00000KT 9999 FEW010 SCT070 15/13 Q1012;","P01 021003SCOCIG"
"01470399999","2010-08-20T06:50:00","4","59.565683","9.212222","19.2","NOTODDEN, NO","FM-15","ENNO ","V020","999,9,C,0000,1","99999,9,C,N","011265,1,N,1","+0160,1","+0130,1","99999,9","02,5,+00300,1,99,9","04,5,+06000,1,99,9",,"04,99,1,99,9,99,9,99999,9,99,9,99,9",,"10119,1,99999,9",,,,,"MET058METAR ENNO 200650Z 00000KT 9999 FEW010 SCT200 16/13 Q1012;","P01 060003SCOCIG"
"01470399999","2010-08-20T07:50:00","4","59.565683","9.212222","19.2","NOTODDEN, NO","FM-15","ENNO ","V020","999,9,V,0010,1","99999,9,C,N","011265,1,N,1","+0170,1","+0130,1","99999,9","02,5,+01200,1,99,9","04,5,+06000,1,99,9",,"04,99,1,99,9,99,9,99999,9,99,9,99,9",,"10119,1,99999,9",,,,,"MET058METAR ENNO 200750Z VRB02KT 9999 FEW040 SCT200 17/13 Q1012;","P01 060003SCOCIG"
"01470399999","2010-08-20T08:50:00","4","59.565683","9.212222","19.2","NOTODDEN, NO","FM-15","ENNO ","V020","110,1,N,0036,1","99999,9,C,N","011265,1,N,1","+0180,1","+0120,1","99999,9","02,5,+01200,1,99,9","04,5,+06000,1,99,9",,"04,99,1,99,9,99,9,99999,9,99,9,99,9",,"10119,1,99999,9",,,,,"MET058METAR ENNO 200850Z 11007KT 9999 FEW040 SCT200 18/12 Q1012;","P01 060003SCOCIG"
"01470399999","2010-08-20T09:50:00","4","59.565683","9.212222","19.2","NOTODDEN, NO","FM-15","ENNO ","V020","120,1,N,0021,1","99999,9,C,N","011265,1,N,1","+0190,1","+0110,1","99999,9","02,5,+01200,1,99,9","04,5,+04800,1,99,9",,"04,99,1,99,9,99,9,99999,9,99,9,99,9",,"10119,1,99999,9",,,,,"MET066METAR ENNO 200950Z 12004KT 070V190 9999 FEW040 SCT160 19/11 Q1012;","P01 048003SCOCIG"
"01470399999","2010-08-20T12:20:00","4","59.565683","9.212222","19.2","NOTODDEN, NO","FM-15","ENNO ","V020","190,1,N,0021,1","03000,1,C,N","011265,1,N,1","+0200,1","+0090,1","99999,9","02,5,+01350,1,99,9","07,5,+03000,1,99,9",,"07,99,1,99,9,99,9,99999,9,99,9,99,9",,"10129,1,99999,9",,,,,"MET066METAR ENNO 201220Z 19004KT 140V270 9999 FEW045 BKN100 20/09 Q1013;",
"01470399999","2010-08-20T13:50:00","4","59.565683","9.212222","19.2","NOTODDEN, NO","FM-15","ENNO ","V020","220,1,N,0021,1","02700,1,C,N","011265,1,N,1","+0200,1","+0090,1","99999,9","02,5,+02100,1,99,9","07,5,+02700,1,99,9",,"07,99,1,99,9,99,9,99999,9,99,9,99,9",,"10129,1,99999,9",,,,,"MET066METAR ENNO 201350Z 22004KT 150V280 9999 FEW070 BKN090 20/09 Q1013;",
"01470399999","2010-08-20T16:50:00","4","59.565683","9.212222","19.2","NOTODDEN, NO","FM-15","ENNO ","V020","130,1,N,0031,1","00600,1,C,N","011265,1,N,1","+0170,1","+0130,1","99999,9","02,5,+00600,5,99,9","04,5,+01500,5,99,9","04,1,+01500,1,99,9","07,99,1,99,9,99,9,99999,9,99,9,99,9",,"10130,1,99999,9","61,1",,,,"MET069METAR ENNO 201650Z 13006KT 9999 -RA FEW020 SCT050 BKN0R0 17/13 Q1013;",
"01470399999","2010-08-21T11:50:00","4","59.565683","9.212222","19.2","NOTODDEN, NO","FM-15","ENNO ","V020","250,1,N,0051,1","22000,1,9,N","011265,1,N,1","+0230,1","+0080,1","99999,9","04,5,+01650,5,99,9",,,"04,99,1,99,9,99,9,99999,9,99,9,99,9",,"10081,1,99999,9",,,,,"MET059METAR ENNO 211150Z 25010KT 190V280 9999 SCT055 23/08 Q1008;",
"01470399999","2010-08-22T07:50:00","4","59.565683","9.212222","19.2","NOTODDEN, NO","FM-15","ENNO ","V020","100,1,N,0036,1","01800,1,C,N","011265,1,N,1","+0170,1","+0110,1","99999,9","02,5,+01200,1,99,9","07,5,+01800,1,99,9",,"07,99,1,99,9,99,9,99999,9,99,9,99,9",,"10041,1,99999,9",,,,,"MET066METAR ENNO 220750Z 10007KT 030V140 9999 FEW040 BKN060 17/11 Q1004;",
"01470399999","2010-08-22T12:50:00","4","59.565683","9.212222","19.2","NOTODDEN, NO","FM-15","ENNO ","V020","999,9,V,0010,1","01800,1,C,N","011265,1,N,1","+0200,1","+0070,1","99999,9","07,5,+01800,1,99,9",,,"07,99,1,99,9,99,9,99999,9,99,9,99,9",,"10031,1,99999,9",,,,,"MET051METAR ENNO 221250Z VRB02KT 9999 BKN060 20/07 Q1003;",
"01470399999","2010-08-22T15:50:00","4","59.565683","9.212222","19.2","NOTODDEN, NO","FM-15","ENNO ","V020","200,1,N,0041,1","02400,1,C,N","011265,1,N,1","+0180,1","+0080,1","99999,9","04,5,+01800,1,99,9","07,5,+02400,1,99,9",,"07,99,1,99,9,99,9,99999,9,99,9,99,9",,"10031,1,99999,9","16,1",,,,"MET071METAR ENNO 221550Z 20008KT 120V280 9999 VCSH SCT060 BKN080 18/08 Q1003;",
"01470399999","2010-08-23T05:50:00","4","59.565683","9.212222","19.2","NOTODDEN, NO","FM-15","ENNO ","V020","999,9,C,0000,1","00090,1,C,N","011265,1,N,1","+0080,1","+0070,1","99999,9","07,5,+00090,1,99,9",,,"07,99,1,99,9,99,9,99999,9,99,9,99,9",,"10031,1,99999,9",,,,,"MET051METAR ENNO 230550Z 00000KT 9999 BKN003 08/07 Q1003;",
"01470399999","2010-08-23T07:50:00","4","59.565683","9.212222","19.2","NOTODDEN, NO","FM-15","ENNO ","V020","999,9,C,0000,1","22000,1,9,N","011265,1,N,1","+0100,1","+0090,1","99999,9","02,5,+00270,1,99,9",,,"02,99,1,99,9,99,9,99999,9,99,9,99,9",,"10031,1,99999,9",,,,,"MET051METAR ENNO 230750Z 00000KT 9999 FEW009 10/09 Q1003;",
"01470399999","2010-08-23T09:50:00","4","59.565683","9.212222","19.2","NOTODDEN, NO","FM-15","ENNO ","V020","999,9,C,0000,1","99999,9,9,Y","009900,1,N,1","+0170,1","+0110,1","99999,9",,,,,,"10010,1,99999,9",,,,,"MET045METAR ENNO 230950Z 00000KT CAVOK 17/11 Q1001;",
"01470399999","2010-08-23T10:50:00","4","59.565683","9.212222","19.2","NOTODDEN, NO","FM-15","ENNO ","V020","999,9,V,0015,1","99999,9,9,Y","009900,1,N,1","+0200,1","+0080,1","99999,9",,,,,,"10000,1,99999,9",,,,,"MET045METAR ENNO 231050Z VRB03KT CAVOK 20/08 Q1000;",
"01470399999","2010-08-23T12:50:00","4","59.565683","9.212222","19.2","NOTODDEN, NO","FM-15","ENNO ","V020","120,1,N,0041,1","99999,9,C,N","011265,1,N,1","+0210,1","+0100,1","99999,9","02,5,+01350,1,99,9","04,5,+02250,5,99,9",,"04,99,1,99,9,99,9,99999,9,99,9,99,9",,"09990,1,99999,9",,,,,"MET058METAR ENNO 231250Z 12008KT 9999 FEW045 SCT075 21/10 Q0999;","P01 022503SCOCIG"
"01470399999","2010-08-23T13:50:00","4","59.565683","9.212222","19.2","NOTODDEN, NO","FM-15","ENNO ","V020","120,1,N,0051,1","99999,9,C,N","011265,1,N,1","+0200,1","+0100,1","99999,9","02,5,+01350,1,99,9","04,5,+02250,5,99,9",,"04,99,1,99,9,99,9,99999,9,99,9,99,9",,"09980,1,99999,9",,,,,"MET058METAR ENNO 231350Z 12010KT 9999 FEW045 SCT075 20/10 Q0998;","P01 022503SCOCIG"
"01470399999","2010-08-23T15:50:00","4","59.565683","9.212222","19.2","NOTODDEN, NO","FM-15","ENNO ","V020","140,1,N,0021,1","22000,1,9,N","011265,1,N,1","+0180,1","+0110,1","99999,9","02,5,+01380,1,99,9",,,"02,99,1,99,9,99,9,99999,9,99,9,99,9",,"09970,1,99999,9",,,,,"MET051METAR ENNO 231550Z 14004KT 9999 FEW046 18/11 Q0997;",
"01470399999","2010-08-24T04:50:00","4","59.565683","9.212222","19.2","NOTODDEN, NO","FM-15","ENNO ","V020","999,9,V,0036,1","01200,1,C,N","011265,1,N,1","+0130,1","+0110,1","99999,9","04,5,+00780,1,99,9","07,5,+01200,1,99,9",,"07,99,1,99,9,99,9,99999,9,99,9,99,9",,"09821,1,99999,9","61,1",,,,"MET062METAR ENNO 240450Z VRB07KT 9999 -RA SCT026 BKN040 13/11 Q0982;",
"01470399999","2010-08-24T05:50:00","4","59.565683","9.212222","19.2","NOTODDEN, NO","FM-15","ENNO ","V020","280,1,N,0026,1","00900,1,C,N","011265,1,N,1","+0130,1","+0110,1","99999,9","04,5,+00600,1,99,9","07,5,+00900,1,99,9",,"07,99,1,99,9,99,9,99999,9,99,9,99,9",,"09810,1,99999,9","61,1",,,,"MET070METAR ENNO 240550Z 28005KT 230V340 9999 -RA SCT020 BKN030 13/11 Q0981;",
"01470399999","2010-08-24T07:20:00","4","59.565683","9.212222","19.2","NOTODDEN, NO","FM-15","ENNO ","V020","320,1,N,0021,1","00750,1,C,N","011265,1,N,1","+0130,1","+0110,1","99999,9","02,5,+00360,1,99,9","07,5,+00750,1,99,9",,"07,99,1,99,9,99,9,99999,9,99,9,99,9",,"09800,1,99999,9","61,1",,,,"MET070METAR ENNO 240720Z 32004KT 290V030 9999 -RA FEW012 BKN025 13/11 Q0980;",
"01470399999","2010-08-24T09:50:00","4","59.565683","9.212222","19.2","NOTODDEN, NO","FM-15","ENNO ","V020","280,1,N,0036,1","00750,1,C,N","011265,1,N,1","+0140,1","+0120,1","99999,9","02,5,+00300,1,99,9","07,5,+00750,1,99,9",,"07,99,1,99,9,99,9,99999,9,99,9,99,9",,"09790,1,99999,9","16,1",,,,"MET063METAR ENNO 240950Z 28007KT 9999 VCSH FEW010 BKN025 14/12 Q0979;",
"01470399999","2010-08-24T11:20:00","4","59.565683","9.212222","19.2","NOTODDEN, NO","FM-15","ENNO ","V020","280,1,N,0036,1","00750,1,C,N","011265,1,N,1","+0150,1","+0130,1","99999,9","02,5,+00150,1,99,9","04,5,+00750,1,99,9","07,5,+01500,1,99,9","07,99,1,99,9,99,9,99999,9,99,9,99,9",,"09790,1,99999,9",,,,,"MET073METAR ENNO 241120Z 28007KT 230V310 9999 FEW005 SCT025 BKN050 15/13 Q0979;",
"01470399999","2010-08-24T11:50:00","4","59.565683","9.212222","19.2","NOTODDEN, NO","FM-15","ENNO ","V020","280,1,N,0015,1","00750,1,C,N","011265,1,N,1","+0160,1","+0140,1","99999,9","02,5,+00150,1,99,9","04,5,+00750,1,99,9","07,5,+01500,1,99,9","07,99,1,99,9,99,9,99999,9,99,9,99,9",,"09800,1,99999,9","16,1",,,,"MET070METAR ENNO 241150Z 28003KT 9999 VCSH FEW005 SCT025 BKN050 16/14 Q0980;",
"01470399999","2010-08-24T13:50:00","4","59.565683","9.212222","19.2","NOTODDEN, NO","FM-15","ENNO ","V020","999,9,V,0005,1","00750,1,C,N","011265,1,N,1","+0160,1","+0140,1","99999,9","02,5,+00150,1,99,9","04,5,+00750,1,99,9","07,5,+00810,1,99,9","07,99,1,99,9,99,9,99999,9,99,9,99,9",,"09810,1,99999,9","61,1",,,,"MET069METAR ENNO 241350Z VRB01KT 9999 -RA FEW005 SCT025 BKN027 16/14 Q0981;",
"01470399999","2010-08-24T15:50:00","4","59.565683","9.212222","19.2","NOTODDEN, NO","FM-15","ENNO ","V020","999,9,V,0005,1","00600,1,C,N","011265,1,N,1","+0170,1","+0120,1","99999,9","02,5,+00150,1,99,9","04,5,+00600,1,99,9","07,5,+00810,1,99,9","07,99,1,99,9,99,9,99999,9,99,9,99,9",,"09821,1,99999,9",,,,,"MET065METAR ENNO 241550Z VRB01KT 9999 FEW005 SCT020 BKN027 17/12 Q0982;",
"01470399999","2010-08-25T05:50:00","4","59.565683","9.212222","19.2","NOTODDEN, NO","FM-15","ENNO ","V020","999,9,V,0005,1","99999,9,C,N","011265,1,N,1","+0110,1","+0110,1","99999,9","02,5,+00090,1,99,9","04,5,+01800,1,99,9",,"04,99,1,99,9,99,9,99999,9,99,9,99,9",,"09898,1,99999,9",,,,,"MET058METAR ENNO 250550Z VRB01KT 9999 FEW003 SCT060 11/11 Q0990;","P01 018003SCOCIG"
"01470399999","2010-08-25T06:50:00","4","59.565683","9.212222","19.2","NOTODDEN, NO","FM-15","ENNO ","V020","999,9,V,0005,1","22000,1,9,N","011265,1,N,1","+0140,1","+0110,1","99999,9","04,5,+01800,1,99,9",,,"04,99,1,99,9,99,9,99999,9,99,9,99,9",,"09909,1,99999,9",,,,,"MET051METAR ENNO 250650Z VRB01KT 9999 SCT060 14/11 Q0991;",
"01470399999","2010-08-25T10:50:00","4","59.565683","9.212222","19.2","NOTODDEN, NO","FM-15","ENNO ","V020","999,9,V,0010,1","01650,5,C,N","011265,1,N,1","+0150,1","+0120,1","99999,9","02,5,+00540,1,99,9","07,5,+01650,5,99,9",,"07,99,1,99,9,99,9,99999,9,99,9,99,9",,"09939,1,99999,9","61,1",,,,"MET062METAR ENNO 251050Z VRB02KT 9999 -RA FEW018 BKN055 15/12 Q0994;",
"01470399999","2010-08-25T11:50:00","4","59.565683","9.212222","19.2","NOTODDEN, NO","FM-15","ENNO ","V020","999,9,V,0010,1","00540,1,C,N","011265,1,N,1","+0150,1","+0120,1","99999,9","02,5,+00150,1,99,9","04,5,+00540,1,99,9","07,5,+01650,5,99,9","07,99,1,99,9,99,9,99999,9,99,9,99,9",,"09939,1,99999,9","61,1",,,,"MET069METAR ENNO 251150Z VRB02KT 9999 -RA FEW005 SCT018 BKN055 15/12 Q0994;",
"01470399999","2010-08-25T14:50:00","4","59.565683","9.212222","19.2","NOTODDEN, NO","FM-15","ENNO ","V020","999,9,C,0000,1","01350,1,C,N","011265,1,N,1","+0140,1","+0130,1","99999,9","02,5,+00360,1,99,9","07,5,+01350,1,99,9",,"07,99,1,99,9,99,9,99999,9,99,9,99,9",,"09959,1,99999,9","61,1",,,,"MET062METAR ENNO 251450Z 00000KT 9999 -RA FEW012 BKN045 14/13 Q0996;",
"01470399999","2010-08-26T04:50:00","4","59.565683","9.212222","19.2","NOTODDEN, NO","FM-15","ENNO ","V020","999,9,C,0000,1","00060,1,C,N","009000,1,N,1","+0110,1","+0100,1","99999,9","08,5,+00060,1,99,9",,,"08,99,1,99,9,99,9,99999,9,99,9,99,9",,"10020,1,99999,9","40,1",,,,"MET063METAR ENNO 260450Z 00000KT 9000 3000NW VCFG OVC002 11/10 Q1002;",
"01470399999","2010-08-26T05:50:00","4","59.565683","9.212222","19.2","NOTODDEN, NO","FM-15","ENNO ","V020","999,9,C,0000,1","00030,1,C,N","008000,1,N,1","+0110,1","+0110,1","99999,9","07,5,+00030,1,99,9",,,"07,99,1,99,9,99,9,99999,9,99,9,99,9",,"10020,1,99999,9","40,1",,,,"MET063METAR ENNO 260550Z 00000KT 8000 3000NW VCFG BKN001 11/11 Q1002;",
"01470399999","2010-08-26T07:50:00","4","59.565683","9.212222","19.2","NOTODDEN, NO","FM-15","ENNO ","V020","999,9,C,0000,1","02850,5,C,N","011265,1,N,1","+0130,1","+0110,1","99999,9","04,5,+00180,1,99,9","07,5,+02850,5,99,9",,"07,99,1,99,9,99,9,99999,9,99,9,99,9",,"10020,1,99999,9",,,,,"MET058METAR ENNO 260750Z 00000KT 9999 SCT006 BKN095 13/11 Q1002;",
"01470399999","2010-08-26T09:50:00","4","59.565683","9.212222","19.2","NOTODDEN, NO","FM-15","ENNO ","V020","999,9,V,0010,1","01830,5,C,N","011265,1,N,1","+0160,1","+0110,1","99999,9","04,5,+01560,5,99,9","07,5,+01830,5,99,9",,"07,99,1,99,9,99,9,99999,9,99,9,99,9",,"10031,1,99999,9",,,,,"MET058METAR ENNO 260950Z VRB02KT 9999 SCT052 BKN061 16/11 Q1003;",
"01470399999","2010-08-26T10:50:00","4","59.565683","9.212222","19.2","NOTODDEN, NO","FM-15","ENNO ","V020","999,9,C,0000,1","01830,5,C,N","011265,1,N,1","+0160,1","+0110,1","99999,9","04,5,+01560,5,99,9","07,5,+01830,5,99,9",,"07,99,1,99,9,99,9,99999,9,99,9,99,9",,"10031,1,99999,9","61,1",,,,"MET062METAR ENNO 261050Z 00000KT 9999 -RA SCT052 BKN061 16/11 Q1003;",
"01470399999","2010-08-26T11:50:00","4","59.565683","9.212222","19.2","NOTODDEN, NO","FM-15","ENNO ","V020","999,9,V,0015,1","01830,5,C,N","011265,1,N,1","+0180,1","+0110,1","99999,9","07,5,+01830,5,99,9",,,"07,99,1,99,9,99,9,99999,9,99,9,99,9",,"10031,1,99999,9","16,1",,,,"MET056METAR ENNO 261150Z VRB03KT 9999 VCSH BKN061 18/11 Q1003;",
"01470399999","2010-08-26T12:50:00","4","59.565683","9.212222","19.2","NOTODDEN, NO","FM-15","ENNO ","V020","060,1,N,0026,1","01500,1,C,N","011265,1,N,1","+0160,1","+0110,1","99999,9","04,5,+00900,1,99,9","07,5,+01500,1,99,9",,"07,99,1,99,9,99,9,99999,9,99,9,99,9",,"10041,1,99999,9","81,1",,,,"MET071METAR ENNO 261250Z 06005KT 340V110 9999 SHRA SCT030 BKN050 16/11 Q1004;",
"01470399999","2010-08-26T13:50:00","4","59.565683","9.212222","19.2","NOTODDEN, NO","FM-15","ENNO ","V020","100,1,N,0021,1","01500,1,C,N","011265,1,N,1","+0150,1","+0110,1","99999,9","04,5,+00840,1,99,9","07,5,+01500,1,99,9",,"07,99,1,99,9,99,9,99999,9,99,9,99,9",,"10041,1,99999,9","80,1",,,,"MET072METAR ENNO 261350Z 10004KT 050V140 9999 -SHRA SCT028 BKN050 15/11 Q1004;",
"01470399999","2010-08-26T15:20:00","4","59.565683","9.212222","19.2","NOTODDEN, NO","FM-15","ENNO ","V020","100,1,N,0026,1","99999,9,C,N","011265,1,N,1","+0160,1","+0110,1","99999,9","02,5,+00840,1,99,9","04,5,+01200,1,99,9",,"04,99,1,99,9,99,9,99999,9,99,9,99,9",,"10041,1,99999,9",,,,,"MET058METAR ENNO 261520Z 10005KT 9999 FEW028 SCT040 16/11 Q1004;","P01 012003SCOCIG"
"01470399999","2010-08-26T15:50:00","4","59.565683","9.212222","19.2","NOTODDEN, NO","FM-15","ENNO ","V020","160,1,N,0015,1","22000,1,9,N","011265,1,N,1","+0160,1","+0100,1","99999,9","04,5,+00900,1,99,9",,,"04,99,1,99,9,99,9,99999,9,99,9,99,9",,"10041,1,99999,9",,,,,"MET051METAR ENNO 261550Z 16003KT 9999 SCT030 16/10 Q1004;",
"01470399999","2010-08-26T16:50:00","4","59.565683","9.212222","19.2","NOTODDEN, NO","FM-15","ENNO ","V020","110,1,N,0026,1","22000,1,9,N","011265,1,N,1","+0160,1","+0100,1","99999,9","04,5,+01200,1,99,9",,,"04,99,1,99,9,99,9,99999,9,99,9,99,9",,"10041,1,99999,9",,,,,"MET051METAR ENNO 261650Z 11005KT 9999 SCT040 16/10 Q1004;",
"01470399999","2010-08-26T17:50:00","4","59.565683","9.212222","19.2","NOTODDEN, NO","FM-15","ENNO ","V020","060,1,N,0015,1","22000,1,9,N","011265,1,N,1","+0150,1","+0100,1","99999,9","04,5,+01080,1,99,9",,,"04,99,1,99,9,99,9,99999,9,99,9,99,9",,"10051,1,99999,9",,,,,"MET051METAR ENNO 261750Z 06003KT 9999 SCT036 15/10 Q1005;",
"01470399999","2010-08-26T18:50:00","4","59.565683","9.212222","19.2","NOTODDEN, NO","FM-15","ENNO ","V020","999,9,C,0000,1","22000,1,9,N","011265,1,N,1","+0130,1","+0110,1","99999,9","02,5,+01080,1,99,9",,,"02,99,1,99,9,99,9,99999,9,99,9,99,9",,"10051,1,99999,9",,,,,"MET051METAR ENNO 261850Z 00000KT 9999 FEW036 13/11 Q1005;",
"01470399999","2010-08-27T04:50:00","4","59.565683","9.212222","19.2","NOTODDEN, NO","FM-15","ENNO ","V020","280,1,N,0021,1","00150,1,C,N","011265,1,N,1","+0090,1","+0080,1","99999,9","07,5,+00150,1,99,9",,,"07,99,1,99,9,99,9,99999,9,99,9,99,9",,"10061,1,99999,9",,,,,"MET051METAR ENNO 270450Z 28004KT 9999 BKN005 09/08 Q1006;",
"01470399999","2010-08-27T05:50:00","4","59.565683","9.212222","19.2","NOTODDEN, NO","FM-15","ENNO ","V020","310,1,N,0015,1","00300,1,C,N","011265,1,N,1","+0090,1","+0080,1","99999,9","07,5,+00300,1,99,9",,,"07,99,1,99,9,99,9,99999,9,99,9,99,9",,"10061,1,99999,9",,,,,"MET051METAR ENNO 270550Z 31003KT 9999 BKN010 09/08 Q1006;",
"01470399999","2010-08-27T06:50:00","4","59.565683","9.212222","19.2","NOTODDEN, NO","FM-15","ENNO ","V020","270,1,N,0005,1","00300,1,C,N","011265,1,N,1","+0100,1","+0080,1","99999,9","07,5,+00300,1,99,9","08,5,+02100,1,99,9",,"08,99,1,99,9,99,9,99999,9,99,9,99,9",,"10061,1,99999,9",,,,,"MET058METAR ENNO 270650Z 27001KT 9999 BKN010 OVC070 10/08 Q1006;",
"01470399999","2010-08-27T07:50:00","4","59.565683","9.212222","19.2","NOTODDEN, NO","FM-15","ENNO ","V020","999,9,C,0000,1","02250,5,C,N","011265,1,N,1","+0110,1","+0080,1","99999,9","04,5,+00450,1,99,9","07,5,+02250,5,99,9",,"07,99,1,99,9,99,9,99999,9,99,9,99,9",,"10061,1,99999,9",,,,,"MET058METAR ENNO 270750Z 00000KT 9999 SCT015 BKN075 11/08 Q1006;",
"01470399999","2010-08-27T08:50:00","4","59.565683","9.212222","19.2","NOTODDEN, NO","FM-15","ENNO ","V020","999,9,V,0010,1","99999,9,C,N","011265,1,N,1","+0120,1","+0090,1","99999,9","02,5,+00900,1,02,1","04,5,+02340,5,99,9",,"04,99,1,99,9,99,9,99999,9,99,9,99,9",,"10061,1,99999,9",,,,,"MET061METAR ENNO 270850Z VRB02KT 9999 FEW030TCU SCT078 12/09 Q1006;","P01 023403SCOCIG"
"01470399999","2010-08-27T10:20:00","4","59.565683","9.212222","19.2","NOTODDEN, NO","FM-15","ENNO ","V020","999,9,C,0000,1","22000,1,9,N","011265,1,N,1","+0170,1","+0110,1","99999,9","04,5,+01200,1,02,1",,,"04,99,1,99,9,99,9,99999,9,99,9,99,9",,"10051,1,99999,9",,,,,"MET054METAR ENNO 271020Z 00000KT 9999 SCT040TCU 17/11 Q1005;",
"01470399999","2010-08-27T10:50:00","4","59.565683","9.212222","19.2","NOTODDEN, NO","FM-15","ENNO ","V020","140,1,N,0026,1","22000,1,9,N","011265,1,N,1","+0170,1","+0100,1","99999,9","04,5,+01050,1,02,1",,,"04,99,1,99,9,99,9,99999,9,99,9,99,9",,"10051,1,99999,9",,,,,"MET054METAR ENNO 271050Z 14005KT 9999 SCT035TCU 17/10 Q1005;",
"01470399999","2010-08-27T11:50:00","4","59.565683","9.212222","19.2","NOTODDEN, NO","FM-15","ENNO ","V020","130,1,N,0026,1","22000,1,9,N","011265,1,N,1","+0170,1","+0100,1","99999,9","04,5,+01050,1,02,1",,,"04,99,1,99,9,99,9,99999,9,99,9,99,9",,"10051,1,99999,9",,,,,"MET054METAR ENNO 271150Z 13005KT 9999 SCT035TCU 17/10 Q1005;",
"01470399999","2010-08-30T05:50:00","4","59.565683","9.212222","19.2","NOTODDEN, NO","FM-15","ENNO ","V020","999,9,V,0005,1","22000,1,9,N","011265,1,N,1","+0080,1","+0080,1","99999,9","02,5,+00120,1,99,9",,,"02,99,1,99,9,99,9,99999,9,99,9,99,9",,"10169,1,99999,9",,,,,"MET051METAR ENNO 300550Z VRB01KT 9999 FEW004 08/08 Q1017;",
"01470399999","2010-08-30T06:50:00","4","59.565683","9.212222","19.2","NOTODDEN, NO","FM-15","ENNO ","V020","999,9,V,0005,1","22000,1,9,N","011265,1,N,1","+0110,1","+0080,1","99999,9","02,5,+00240,1,99,9",,,"02,99,1,99,9,99,9,99999,9,99,9,99,9",,"10169,1,99999,9",,,,,"MET051METAR ENNO 300650Z VRB01KT 9999 FEW008 11/08 Q1017;",
"01470399999","2010-08-30T07:50:00","4","59.565683","9.212222","19.2","NOTODDEN, NO","FM-15","ENNO ","V020","999,9,V,0005,1","22000,1,9,N","011265,1,N,1","+0140,1","+0080,1","99999,9","04,5,+01500,1,99,9",,,"04,99,1,99,9,99,9,99999,9,99,9,99,9",,"10169,1,99999,9",,,,,"MET051METAR ENNO 300750Z VRB01KT 9999 SCT050 14/08 Q1017;",
"01470399999","2010-08-30T11:50:00","4","59.565683","9.212222","19.2","NOTODDEN, NO","FM-15","ENNO ","V020","180,1,N,0021,1","99999,9,9,Y","009900,1,N,1","+0180,1","+0050,1","99999,9",,,,,,"10169,1,99999,9",,,,,"MET053METAR ENNO 301150Z 18004KT 100V230 CAVOK 18/05 Q1017;",
"01470399999","2010-08-30T12:50:00","4","59.565683","9.212222","19.2","NOTODDEN, NO","FM-15","ENNO ","V020","999,9,V,0021,1","99999,9,9,Y","009900,1,N,1","+0180,1","+0050,1","99999,9",,,,,,"10159,1,99999,9",,,,,"MET045METAR ENNO 301250Z VRB04KT CAVOK 18/05 Q1016;",
"01470399999","2010-08-30T13:50:00","4","59.565683","9.212222","19.2","NOTODDEN, NO","FM-15","ENNO ","V020","130,1,N,0026,1","99999,9,9,Y","009900,1,N,1","+0180,1","+0050,1","99999,9",,,,,,"10159,1,99999,9",,,,,"MET045METAR ENNO 301350Z 13005KT CAVOK 18/05 Q1016;",
"01470399999","2010-08-30T14:50:00","4","59.565683","9.212222","19.2","NOTODDEN, NO","FM-15","ENNO ","V020","140,1,N,0021,1","99999,9,9,Y","009900,1,N,1","+0180,1","+0030,1","99999,9",,,,,,"10159,1,99999,9",,,,,"MET045METAR ENNO 301450Z 14004KT CAVOK 18/03 Q1016;",
"01470399999","2010-08-30T16:20:00","4","59.565683","9.212222","19.2","NOTODDEN, NO","FM-15","ENNO ","V020","140,1,N,0021,1","99999,9,9,Y","009900,1,N,1","+0180,1","+0040,1","99999,9",,,,,,"10149,1,99999,9",,,,,"MET045METAR ENNO 301620Z 14004KT CAVOK 18/04 Q1015;",
"01470399999","2010-08-30T16:50:00","4","59.565683","9.212222","19.2","NOTODDEN, NO","FM-15","ENNO ","V020","110,1,N,0026,1","99999,9,9,Y","009900,1,N,1","+0170,1","+0060,1","99999,9",,,,,,"10149,1,99999,9",,,,,"MET045METAR ENNO 301650Z 11005KT CAVOK 17/06 Q1015;",
"01470399999","2010-08-30T17:50:00","4","59.565683","9.212222","19.2","NOTODDEN, NO","FM-15","ENNO ","V020","130,1,N,0026,1","99999,9,9,Y","009900,1,N,1","+0150,1","+0090,1","99999,9",,,,,,"10159,1,99999,9",,,,,"MET045METAR ENNO 301750Z 13005KT CAVOK 15/09 Q1016;",
"01470399999","2010-08-30T19:20:00","4","59.565683","9.212222","19.2","NOTODDEN, NO","FM-15","ENNO ","V020","110,1,N,0036,1","99999,9,9,Y","009900,1,N,1","+0140,1","+0080,1","99999,9",,,,,,"10159,1,99999,9",,,,,"MET045METAR ENNO 301920Z 11007KT CAVOK 14/08 Q1016;",
"01470399999","2010-08-31T04:50:00","4","59.565683","9.212222","19.2","NOTODDEN, NO","FM-15","ENNO ","V020","999,9,C,0000,1","99999,9,C,N","011265,1,N,1","+0060,1","+0050,1","99999,9","02,5,+00000,5,99,9","04,5,+03900,1,99,9",,"04,99,1,99,9,99,9,99999,9,99,9,99,9",,"10169,1,99999,9",,,,,"MET058METAR ENNO 310450Z 00000KT 9999 FEW000 SCT130 06/05 Q1017;","P01 039003SCOCIG"
"01470399999","2010-08-31T05:50:00","4","59.565683","9.212222","19.2","NOTODDEN, NO","FM-15","ENNO ","V020","999,9,C,0000,1","99999,9,9,Y","009900,1,N,1","+0080,1","+0070,1","99999,9",,,,,,"10169,1,99999,9",,,,,"MET045METAR ENNO 310550Z 00000KT CAVOK 08/07 Q1017;",
"01470399999","2010-08-31T06:50:00","4","59.565683","9.212222","19.2","NOTODDEN, NO","FM-15","ENNO ","V020","999,9,C,0000,1","99999,9,9,Y","009900,1,N,1","+0090,1","+0070,1","99999,9",,,,,,"10169,1,99999,9",,,,,"MET045METAR ENNO 310650Z 00000KT CAVOK 09/07 Q1017;",
"01470399999","2010-08-31T07:50:00","4","59.565683","9.212222","19.2","NOTODDEN, NO","FM-15","ENNO ","V020","999,9,C,0000,1","99999,9,9,Y","009900,1,N,1","+0100,1","+0070,1","99999,9",,,,,,"10169,1,99999,9",,,,,"MET045METAR ENNO 310750Z 00000KT CAVOK 10/07 Q1017;",
"01470399999","2010-08-31T08:50:00","4","59.565683","9.212222","19.2","NOTODDEN, NO","FM-15","ENNO ","V020","999,9,C,0000,1","02250,5,C,N","011265,1,N,1","+0110,1","+0080,1","99999,9","04,5,+01500,1,99,9","08,5,+02250,5,99,9",,"08,99,1,99,9,99,9,99999,9,99,9,99,9",,"10169,1,99999,9",,,,,"MET058METAR ENNO 310850Z 00000KT 9999 SCT050 OVC075 11/08 Q1017;",
"01470399999","2010-08-31T09:50:00","4","59.565683","9.212222","19.2","NOTODDEN, NO","FM-15","ENNO ","V020","999,9,C,0000,1","02100,1,C,N","011265,1,N,1","+0110,1","+0080,1","99999,9","04,5,+01350,1,99,9","08,5,+02100,1,99,9",,"08,99,1,99,9,99,9,99999,9,99,9,99,9",,"10169,1,99999,9",,,,,"MET058METAR ENNO 310950Z 00000KT 9999 SCT045 OVC070 11/08 Q1017;",
"01470399999","2010-08-31T13:50:00","4","59.565683","9.212222","19.2","NOTODDEN, NO","FM-15","ENNO ","V020","100,1,N,0051,1","99999,9,C,N","011265,1,N,1","+0170,1","+0100,1","99999,9","02,5,+00600,1,99,9","04,5,+03600,1,99,9",,"04,99,1,99,9,99,9,99999,9,99,9,99,9",,"10149,1,99999,9","16,1",,,,"MET063METAR ENNO 311350Z 10010KT 9999 VCSH FEW020 SCT120 17/10 Q1015;","P01 036003SCOCIG"
"01470399999","2010-09-01T05:50:00","4","59.565683","9.212222","19.2","NOTODDEN, NO","FM-15","ENNO ","V020","999,9,C,0000,1","00060,1,9,N","000500,1,N,1","+0060,1","+0050,1","99999,9","09,1,+00060,1,99,9",,,"09,99,1,99,9,99,9,00025,1,99,9,99,9",,"10159,1,99999,9","45,1",,,,"MET053METAR ENNO 010550Z 00000KT 0500 FG VV002 06/05 Q1016;",
"01470399999","2010-09-01T06:50:00","4","59.565683","9.212222","19.2","NOTODDEN, NO","FM-15","ENNO ","V020","999,9,V,0005,1","99999,9,C,N","011265,1,N,1","+0070,1","+0070,1","99999,9","02,5,+00060,1,99,9","04,5,+03600,1,99,9",,"04,99,1,99,9,99,9,99999,9,99,9,99,9",,"10169,1,99999,9",,,,,"MET058METAR ENNO 010650Z VRB01KT 9999 FEW002 SCT120 07/07 Q1017;","P01 036003SCOCIG"
"01470399999","2010-09-01T07:50:00","4","59.565683","9.212222","19.2","NOTODDEN, NO","FM-15","ENNO ","V020","999,9,V,0005,1","99999,9,9,Y","009900,1,N,1","+0090,1","+0090,1","99999,9",,,,,,"10169,1,99999,9",,,,,"MET045METAR ENNO 010750Z VRB01KT CAVOK 09/09 Q1017;",
"01470399999","2010-09-01T08:50:00","4","59.565683","9.212222","19.2","NOTODDEN, NO","FM-15","ENNO ","V020","999,9,C,0000,1","22000,1,9,N","011265,1,N,1","+0140,1","+0100,1","99999,9","02,5,+01350,1,99,9",,,"02,99,1,99,9,99,9,99999,9,99,9,99,9",,"10159,1,99999,9",,,,,"MET051METAR ENNO 010850Z 00000KT 9999 FEW045 14/10 Q1016;",
"01470399999","2010-09-01T10:50:00","4","59.565683","9.212222","19.2","NOTODDEN, NO","FM-15","ENNO ","V020","999,9,C,0000,1","22000,1,9,N","011265,1,N,1","+0190,1","+0090,1","99999,9","04,5,+01950,5,99,9",,,"04,99,1,99,9,99,9,99999,9,99,9,99,9",,"10149,1,99999,9",,,,,"MET051METAR ENNO 011050Z 00000KT 9999 SCT065 19/09 Q1015;",
"01470399999","2010-09-01T11:50:00","4","59.565683","9.212222","19.2","NOTODDEN, NO","FM-15","ENNO ","V020","130,1,N,0021,1","22000,1,9,N","011265,1,N,1","+0200,1","+0060,1","99999,9","04,5,+01950,5,99,9",,,"04,99,1,99,9,99,9,99999,9,99,9,99,9",,"10149,1,99999,9",,,,,"MET051METAR ENNO 011150Z 13004KT 9999 SCT065 20/06 Q1015;",
"01470399999","2010-09-01T12:50:00","4","59.565683","9.212222","19.2","NOTODDEN, NO","FM-15","ENNO ","V020","130,1,N,0026,1","02100,1,C,N","011265,1,N,1","+0190,1","+0060,1","99999,9","04,5,+01500,1,99,9","07,5,+02100,1,99,9",,"07,99,1,99,9,99,9,99999,9,99,9,99,9",,"10149,1,99999,9",,,,,"MET058METAR ENNO 011250Z 13005KT 9999 SCT050 BKN070 19/06 Q1015;",
"01470399999","2010-09-01T14:50:00","4","59.565683","9.212222","19.2","NOTODDEN, NO","FM-15","ENNO ","V020","130,1,N,0026,1","22000,1,9,N","011265,1,N,1","+0190,1","+0060,1","99999,9","04,5,+01800,1,99,9",,,"04,99,1,99,9,99,9,99999,9,99,9,99,9",,"10149,1,99999,9",,,,,"MET051METAR ENNO 011450Z 13005KT 9999 SCT060 19/06 Q1015;",
"01470399999","2010-09-01T16:50:00","4","59.565683","9.212222","19.2","NOTODDEN, NO","FM-15","ENNO ","V020","050,1,N,0036,1","01800,1,C,N","011265,1,N,1","+0180,1","+0080,1","99999,9","07,5,+01800,1,99,9",,,"07,99,1,99,9,99,9,99999,9,99,9,99,9",,"10149,1,99999,9",,,,,"MET051METAR ENNO 011650Z 05007KT 9999 BKN060 18/08 Q1015;",
"01470399999","2010-09-02T05:50:00","4","59.565683","9.212222","19.2","NOTODDEN, NO","FM-15","ENNO ","V020","999,9,V,0021,1","99999,9,C,N","011265,1,N,1","+0070,1","+0070,1","99999,9","02,5,+00060,1,99,9","04,5,+01800,1,99,9",,"04,99,1,99,9,99,9,99999,9,99,9,99,9",,"10220,1,99999,9",,,,,"MET058METAR ENNO 020550Z VRB04KT 9999 FEW002 SCT060 07/07 Q1022;","P01 018003SCOCIG"
"01470399999","2010-09-02T06:50:00","4","59.565683","9.212222","19.2","NOTODDEN, NO","FM-15","ENNO ","V020","280,1,N,0026,1","99999,9,C,N","011265,1,N,1","+0090,1","+0080,1","99999,9","02,5,+00150,1,99,9","04,5,+01800,1,99,9",,"04,99,1,99,9,99,9,99999,9,99,9,99,9",,"10220,1,99999,9",,,,,"MET058METAR ENNO 020650Z 28005KT 9999 FEW005 SCT060 09/08 Q1022;","P01 018003SCOCIG"
"01470399999","2010-09-02T07:50:00","4","59.565683","9.212222","19.2","NOTODDEN, NO","FM-15","ENNO ","V020","270,1,N,0015,1","22000,1,9,N","011265,1,N,1","+0100,1","+0080,1","99999,9","04,5,+01800,1,99,9",,,"04,99,1,99,9,99,9,99999,9,99,9,99,9",,"10220,1,99999,9",,,,,"MET051METAR ENNO 020750Z 27003KT 9999 SCT060 10/08 Q1022;",
"01470399999","2010-09-03T04:50:00","4","59.565683","9.212222","19.2","NOTODDEN, NO","FM-15","ENNO ","V020","999,9,C,0000,1","99999,9,9,Y","009900,1,N,1","+0050,1","+0050,1","99999,9",,,,,,"10200,1,99999,9",,,,,"MET045METAR ENNO 030450Z 00000KT CAVOK 05/05 Q1020;",
"01470399999","2010-09-03T07:20:00","4","59.565683","9.212222","19.2","NOTODDEN, NO","FM-15","ENNO ","V020","999,9,C,0000,1","99999,9,9,Y","009900,1,N,1","+0070,1","+0060,1","99999,9",,,,,,"10210,1,99999,9",,,,,"MET045METAR ENNO 030720Z 00000KT CAVOK 07/06 Q1021;",
"01470399999","2010-09-03T07:50:00","4","59.565683","9.212222","19.2","NOTODDEN, NO","FM-15","ENNO ","V020","999,9,C,0000,1","03900,1,C,N","011265,1,N,1","+0080,1","+0060,1","99999,9","02,5,+01500,1,99,9","07,5,+03900,1,99,9",,"07,99,1,99,9,99,9,99999,9,99,9,99,9",,"10210,1,99999,9",,,,,"MET058METAR ENNO 030750Z 00000KT 9999 FEW050 BKN130 08/06 Q1021;",
"01470399999","2010-09-03T08:50:00","4","59.565683","9.212222","19.2","NOTODDEN, NO","FM-15","ENNO ","V020","280,1,N,0021,1","01650,5,C,N","011265,1,N,1","+0100,1","+0070,1","99999,9","02,5,+01350,1,99,9","07,5,+01650,5,99,9",,"07,99,1,99,9,99,9,99999,9,99,9,99,9",,"10210,1,99999,9",,,,,"MET058METAR ENNO 030850Z 28004KT 9999 FEW045 BKN055 10/07 Q1021;",
"01470399999","2010-09-03T10:50:00","4","59.565683","9.212222","19.2","NOTODDEN, NO","FM-15","ENNO ","V020","999,9,C,0000,1","01500,1,C,N","011265,1,N,1","+0120,1","+0060,1","99999,9","07,5,+01500,1,99,9",,,"07,99,1,99,9,99,9,99999,9,99,9,99,9",,"10200,1,99999,9",,,,,"MET051METAR ENNO 031050Z 00000KT 9999 BKN050 12/06 Q1020;",
"01470399999","2010-09-03T11:50:00","4","59.565683","9.212222","19.2","NOTODDEN, NO","FM-15","ENNO ","V020","999,9,V,0010,1","01800,1,C,N","011265,1,N,1","+0130,1","+0040,1","99999,9","07,5,+01800,1,99,9",,,"07,99,1,99,9,99,9,99999,9,99,9,99,9",,"10200,1,99999,9",,,,,"MET051METAR ENNO 031150Z VRB02KT 9999 BKN060 13/04 Q1020;",
"01470399999","2010-09-03T12:50:00","4","59.565683","9.212222","19.2","NOTODDEN, NO","FM-15","ENNO ","V020","999,9,V,0010,1","02700,1,C,N","011265,1,N,1","+0140,1","+0040,1","99999,9","02,5,+01500,1,99,9","07,5,+02700,1,99,9",,"07,99,1,99,9,99,9,99999,9,99,9,99,9",,"10200,1,99999,9",,,,,"MET058METAR ENNO 031250Z VRB02KT 9999 FEW050 BKN090 14/04 Q1020;",
"01470399999","2010-09-03T13:50:00","4","59.565683","9.212222","19.2","NOTODDEN, NO","FM-15","ENNO ","V020","999,9,C,0000,1","99999,9,C,N","011265,1,N,1","+0140,1","+0030,1","99999,9","02,5,+00990,1,99,9","04,5,+02700,1,99,9",,"04,99,1,99,9,99,9,99999,9,99,9,99,9",,"10190,1,99999,9",,,,,"MET058METAR ENNO 031350Z 00000KT 9999 FEW033 SCT090 14/03 Q1019;","P01 027003SCOCIG"
"01470399999","2010-09-03T14:50:00","4","59.565683","9.212222","19.2","NOTODDEN, NO","FM-15","ENNO ","V020","320,1,N,0021,1","99999,9,9,Y","009900,1,N,1","+0150,1","+0040,1","99999,9",,,,,,"10190,1,99999,9",,,,,"MET045METAR ENNO 031450Z 32004KT CAVOK 15/04 Q1019;",
"01470399999","2010-09-03T15:50:00","4","59.565683","9.212222","19.2","NOTODDEN, NO","FM-15","ENNO ","V020","320,1,N,0026,1","99999,9,C,N","011265,1,N,1","+0150,1","+0050,1","99999,9","02,5,+01350,1,99,9","04,5,+02250,5,99,9",,"04,99,1,99,9,99,9,99999,9,99,9,99,9",,"10200,1,99999,9",,,,,"MET058METAR ENNO 031550Z 32005KT 9999 FEW045 SCT075 15/05 Q1020;","P01 022503SCOCIG"
"01470399999","2010-09-03T16:50:00","4","59.565683","9.212222","19.2","NOTODDEN, NO","FM-15","ENNO ","V020","999,9,C,0000,1","99999,9,9,Y","009900,1,N,1","+0150,1","+0040,1","99999,9",,,,,,"10200,1,99999,9",,,,,"MET045METAR ENNO 031650Z 00000KT CAVOK 15/04 Q1020;",
"01470399999","2010-09-03T17:50:00","4","59.565683","9.212222","19.2","NOTODDEN, NO","FM-15","ENNO ","V020","999,9,C,0000,1","99999,9,9,Y","009900,1,N,1","+0120,1","+0080,1","99999,9",,,,,,"10200,1,99999,9",,,,,"MET045METAR ENNO 031750Z 00000KT CAVOK 12/08 Q1020;",
"01470399999","2010-09-03T18:50:00","4","59.565683","9.212222","19.2","NOTODDEN, NO","FM-15","ENNO ","V020","999,9,C,0000,1","99999,9,9,Y","009900,1,N,1","+0090,1","+0070,1","99999,9",,,,,,"10210,1,99999,9",,,,,"MET045METAR ENNO 031850Z 00000KT CAVOK 09/07 Q1021;",
"01470399999","2010-09-05T15:50:00","4","59.565683","9.212222","19.2","NOTODDEN, NO","FM-15","ENNO ","V020","999,9,V,0005,1","99999,9,9,Y","009900,1,N,1","+0190,1","+0090,1","99999,9",,,,,,"10261,1,99999,9",,,,,"MET045METAR ENNO 051550Z VRB01KT CAVOK 19/09 Q1026;",
"01470399999","2010-09-06T04:50:00","4","59.565683","9.212222","19.2","NOTODDEN, NO","FM-15","ENNO ","V020","999,9,C,0000,1","99999,9,9,Y","009900,1,N,1","+0080,1","+0070,1","99999,9",,,,,,"10281,1,99999,9",,,,,"MET045METAR ENNO 060450Z 00000KT CAVOK 08/07 Q1028;",
"01470399999","2010-09-06T05:50:00","4","59.565683","9.212222","19.2","NOTODDEN, NO","FM-15","ENNO ","V020","999,9,C,0000,1","99999,9,9,Y","009900,1,N,1","+0070,1","+0060,1","99999,9",,,,,,"10281,1,99999,9",,,,,"MET045METAR ENNO 060550Z 00000KT CAVOK 07/06 Q1028;",
"01470399999","2010-09-06T06:50:00","4","59.565683","9.212222","19.2","NOTODDEN, NO","FM-15","ENNO ","V020","999,9,C,0000,1","99999,9,9,Y","009900,1,N,1","+0100,1","+0080,1","99999,9",,,,,,"10281,1,99999,9",,,,,"MET045METAR ENNO 060650Z 00000KT CAVOK 10/08 Q1028;",
"01470399999","2010-09-06T07:50:00","4","59.565683","9.212222","19.2","NOTODDEN, NO","FM-15","ENNO ","V020","999,9,C,0000,1","99999,9,9,Y","009900,1,N,1","+0120,1","+0090,1","99999,9",,,,,,"10281,1,99999,9",,,,,"MET045METAR ENNO 060750Z 00000KT CAVOK 12/09 Q1028;",
"01470399999","2010-09-06T08:50:00","4","59.565683","9.212222","19.2","NOTODDEN, NO","FM-15","ENNO ","V020","270,1,N,0021,1","99999,9,9,Y","009900,1,N,1","+0150,1","+0090,1","99999,9",,,,,,"10281,1,99999,9",,,,,"MET053METAR ENNO 060850Z 27004KT 240V300 CAVOK 15/09 Q1028;",
"01470399999","2010-09-06T09:50:00","4","59.565683","9.212222","19.2","NOTODDEN, NO","FM-15","ENNO ","V020","999,9,V,0005,1","99999,9,9,Y","009900,1,N,1","+0180,1","+0090,1","99999,9",,,,,,"10271,1,99999,9",,,,,"MET045METAR ENNO 060950Z VRB01KT CAVOK 18/09 Q1027;",
"01470399999","2010-09-06T10:50:00","4","59.565683","9.212222","19.2","NOTODDEN, NO","FM-15","ENNO ","V020","220,1,N,0015,1","99999,9,9,Y","009900,1,N,1","+0190,1","+0090,1","99999,9",,,,,,"10271,1,99999,9",,,,,"MET053METAR ENNO 061050Z 22003KT 200V280 CAVOK 19/09 Q1027;",
"01470399999","2010-09-06T11:50:00","4","59.565683","9.212222","19.2","NOTODDEN, NO","FM-15","ENNO ","V020","140,1,N,0031,1","22000,1,9,N","011265,1,N,1","+0200,1","+0080,1","99999,9","04,5,+01470,1,99,9",,,"04,99,1,99,9,99,9,99999,9,99,9,99,9",,"10261,1,99999,9",,,,,"MET059METAR ENNO 061150Z 14006KT 100V200 9999 SCT049 20/08 Q1026;",
"01470399999","2010-09-06T14:50:00","4","59.565683","9.212222","19.2","NOTODDEN, NO","FM-15","ENNO ","V020","090,1,N,0021,1","01890,5,C,N","011265,1,N,1","+0180,1","+0100,1","99999,9","04,5,+01470,1,99,9","07,5,+01890,5,99,9",,"07,99,1,99,9,99,9,99999,9,99,9,99,9",,"10261,1,99999,9",,,,,"MET058METAR ENNO 061450Z 09004KT 9999 SCT049 BKN063 18/10 Q1026;",
"01470399999","2010-09-06T15:50:00","4","59.565683","9.212222","19.2","NOTODDEN, NO","FM-15","ENNO ","V020","999,9,V,0005,1","01890,5,C,N","011265,1,N,1","+0170,1","+0110,1","99999,9","04,5,+01350,1,99,9","07,5,+01890,5,99,9",,"07,99,1,99,9,99,9,99999,9,99,9,99,9",,"10251,1,99999,9",,,,,"MET058METAR ENNO 061550Z VRB01KT 9999 SCT045 BKN063 17/11 Q1025;",
"01470399999","2010-09-07T04:50:00","4","59.565683","9.212222","19.2","NOTODDEN, NO","FM-15","ENNO ","V020","999,9,V,0005,1","01800,1,C,N","011265,1,N,1","+0120,1","+0110,1","99999,9","02,5,+01200,1,99,9","07,5,+01800,1,99,9",,"07,99,1,99,9,99,9,99999,9,99,9,99,9",,"10240,1,99999,9",,,,,"MET058METAR ENNO 070450Z VRB01KT 9999 FEW040 BKN060 12/11 Q1024;",
"01470399999","2010-09-07T05:50:00","4","59.565683","9.212222","19.2","NOTODDEN, NO","FM-15","ENNO ","V020","999,9,C,0000,1","01560,5,C,N","011265,1,N,1","+0130,1","+0110,1","99999,9","02,5,+01200,1,99,9","07,5,+01560,5,99,9",,"07,99,1,99,9,99,9,99999,9,99,9,99,9",,"10240,1,99999,9",,,,,"MET058METAR ENNO 070550Z 00000KT 9999 FEW040 BKN052 13/11 Q1024;",
"01470399999","2010-09-07T06:50:00","4","59.565683","9.212222","19.2","NOTODDEN, NO","FM-15","ENNO ","V020","090,1,N,0026,1","01650,5,C,N","011265,1,N,1","+0150,1","+0100,1","99999,9","04,5,+01050,1,99,9","07,5,+01650,5,99,9",,"07,99,1,99,9,99,9,99999,9,99,9,99,9",,"10240,1,99999,9",,,,,"MET058METAR ENNO 070650Z 09005KT 9999 SCT035 BKN055 15/10 Q1024;",
"01470399999","2010-09-07T07:50:00","4","59.565683","9.212222","19.2","NOTODDEN, NO","FM-15","ENNO ","V020","090,1,N,0036,1","01650,5,C,N","011265,1,N,1","+0150,1","+0080,1","99999,9","04,5,+01110,1,99,9","07,5,+01650,5,99,9",,"07,99,1,99,9,99,9,99999,9,99,9,99,9",,"10240,1,99999,9",,,,,"MET058METAR ENNO 070750Z 09007KT 9999 SCT037 BKN055 15/08 Q1024;",
"01470399999","2010-09-07T08:50:00","4","59.565683","9.212222","19.2","NOTODDEN, NO","FM-15","ENNO ","V020","110,1,N,0036,1","01500,1,C,N","011265,1,N,1","+0150,1","+0080,1","99999,9","04,5,+00900,1,99,9","07,5,+01500,1,99,9",,"07,99,1,99,9,99,9,99999,9,99,9,99,9",,"10240,1,99999,9",,,,,"MET058METAR ENNO 070850Z 11007KT 9999 SCT030 BKN050 15/08 Q1024;",
"01470399999","2010-09-07T09:50:00","4","59.565683","9.212222","19.2","NOTODDEN, NO","FM-15","ENNO ","V020","090,1,N,0036,1","22000,1,9,N","011265,1,N,1","+0160,1","+0070,1","99999,9","04,5,+01500,1,99,9",,,"04,99,1,99,9,99,9,99999,9,99,9,99,9",,"10240,1,99999,9",,,,,"MET051METAR ENNO 070950Z 09007KT 9999 SCT050 16/07 Q1024;",
"01470399999","2010-09-07T10:50:00","4","59.565683","9.212222","19.2","NOTODDEN, NO","FM-15","ENNO ","V020","080,1,N,0036,1","01530,5,C,N","011265,1,N,1","+0160,1","+0060,1","99999,9","07,5,+01530,5,99,9",,,"07,99,1,99,9,99,9,99999,9,99,9,99,9",,"10230,1,99999,9",,,,,"MET051METAR ENNO 071050Z 08007KT 9999 BKN051 16/06 Q1023;",
"01470399999","2010-09-07T11:50:00","4","59.565683","9.212222","19.2","NOTODDEN, NO","FM-15","ENNO ","V020","060,1,N,0036,1","01500,1,C,N","011265,1,N,1","+0160,1","+0070,1","99999,9","07,5,+01500,1,99,9",,,"07,99,1,99,9,99,9,99999,9,99,9,99,9",,"10230,1,99999,9",,,,,"MET059METAR ENNO 071150Z 06007KT 020V110 9999 BKN050 16/07 Q1023;",
"01470399999","2010-09-07T12:50:00","4","59.565683","9.212222","19.2","NOTODDEN, NO","FM-15","ENNO ","V020","120,1,N,0051,1","01650,5,C,N","011265,1,N,1","+0160,1","+0080,1","99999,9","07,5,+01650,5,99,9",,,"07,99,1,99,9,99,9,99999,9,99,9,99,9",,"10230,1,99999,9",,,,"0098,1","MET054METAR ENNO 071250Z 12010G19KT 9999 BKN055 16/08 Q1023;",
"01470399999","2010-09-07T13:50:00","4","59.565683","9.212222","19.2","NOTODDEN, NO","FM-15","ENNO ","V020","120,1,N,0036,1","01710,5,C,N","011265,1,N,1","+0170,1","+0080,1","99999,9","07,5,+01710,5,99,9",,,"07,99,1,99,9,99,9,99999,9,99,9,99,9",,"10230,1,99999,9",,,,,"MET051METAR ENNO 071350Z 12007KT 9999 BKN057 17/08 Q1023;",
"01470399999","2010-09-07T14:50:00","4","59.565683","9.212222","19.2","NOTODDEN, NO","FM-15","ENNO ","V020","100,1,N,0036,1","99999,9,C,N","011265,1,N,1","+0170,1","+0070,1","99999,9","04,5,+01290,1,99,9","04,5,+01470,1,99,9",,"04,99,1,99,9,99,9,99999,9,99,9,99,9",,"10220,1,99999,9",,,,,"MET066METAR ENNO 071450Z 10007KT 020V140 9999 SCT043 SCT049 17/07 Q1022;","P01 014703SCOCIG"
"01470399999","2010-09-07T15:50:00","4","59.565683","9.212222","19.2","NOTODDEN, NO","FM-15","ENNO ","V020","080,1,N,0026,1","99999,9,C,N","011265,1,N,1","+0160,1","+0070,1","99999,9","02,5,+01200,1,99,9","04,5,+01500,1,99,9","04,5,+01800,1,99,9","04,99,1,99,9,99,9,99999,9,99,9,99,9",,"10220,1,99999,9",,,,,"MET073METAR ENNO 071550Z 08005KT 020V130 9999 FEW040 SCT050 SCT060 16/07 Q1022;","P01 015003SCOCIG"
"01470399999","2010-09-08T04:50:00","4","59.565683","9.212222","19.2","NOTODDEN, NO","FM-15","ENNO ","V020","999,9,C,0000,1","00780,1,C,N","011265,1,N,1","+0110,1","+0090,1","99999,9","02,5,+00660,1,99,9","08,5,+00780,1,99,9",,"08,99,1,99,9,99,9,99999,9,99,9,99,9",,"10230,1,99999,9",,,,,"MET058METAR ENNO 080450Z 00000KT 9999 FEW022 OVC026 11/09 Q1023;",
"01470399999","2010-09-08T05:50:00","4","59.565683","9.212222","19.2","NOTODDEN, NO","FM-15","ENNO ","V020","999,9,C,0000,1","00750,1,C,N","011265,1,N,1","+0110,1","+0100,1","99999,9","07,5,+00750,1,99,9",,,"07,99,1,99,9,99,9,99999,9,99,9,99,9",,"10230,1,99999,9",,,,,"MET051METAR ENNO 080550Z 00000KT 9999 BKN025 11/10 Q1023;",
"01470399999","2010-09-08T06:50:00","4","59.565683","9.212222","19.2","NOTODDEN, NO","FM-15","ENNO ","V020","999,9,C,0000,1","00750,1,C,N","011265,1,N,1","+0120,1","+0100,1","99999,9","07,5,+00750,1,99,9",,,"07,99,1,99,9,99,9,99999,9,99,9,99,9",,"10230,1,99999,9",,,,,"MET051METAR ENNO 080650Z 00000KT 9999 BKN025 12/10 Q1023;",
"01470399999","2010-09-08T07:50:00","4","59.565683","9.212222","19.2","NOTODDEN, NO","FM-15","ENNO ","V020","999,9,V,0005,1","00840,1,C,N","011265,1,N,1","+0140,1","+0090,1","99999,9","07,5,+00840,1,99,9",,,"07,99,1,99,9,99,9,99999,9,99,9,99,9",,"10230,1,99999,9",,,,,"MET051METAR ENNO 080750Z VRB01KT 9999 BKN028 14/09 Q1023;",
"01470399999","2010-09-08T08:50:00","4","59.565683","9.212222","19.2","NOTODDEN, NO","FM-15","ENNO ","V020","100,1,N,0031,1","00900,1,C,N","011265,1,N,1","+0140,1","+0090,1","99999,9","07,5,+00900,1,99,9",,,"07,99,1,99,9,99,9,99999,9,99,9,99,9",,"10240,1,99999,9",,,,,"MET059METAR ENNO 080850Z 10006KT 050V130 9999 BKN030 14/09 Q1024;",
"01470399999","2010-09-08T09:50:00","4","59.565683","9.212222","19.2","NOTODDEN, NO","FM-15","ENNO ","V020","070,1,N,0036,1","00750,1,C,N","011265,1,N,1","+0140,1","+0090,1","99999,9","08,5,+00750,1,99,9",,,"08,99,1,99,9,99,9,99999,9,99,9,99,9",,"10240,1,99999,9",,,,,"MET059METAR ENNO 080950Z 07007KT 020V110 9999 OVC025 14/09 Q1024;",
"01470399999","2010-09-08T10:50:00","4","59.565683","9.212222","19.2","NOTODDEN, NO","FM-15","ENNO ","V020","070,1,N,0036,1","00750,1,C,N","011265,1,N,1","+0140,1","+0090,1","99999,9","08,5,+00750,1,99,9",,,"08,99,1,99,9,99,9,99999,9,99,9,99,9",,"10240,1,99999,9",,,,,"MET059METAR ENNO 081050Z 07007KT 030V110 9999 OVC025 14/09 Q1024;",
"01470399999","2010-09-08T11:50:00","4","59.565683","9.212222","19.2","NOTODDEN, NO","FM-15","ENNO ","V020","100,1,N,0041,1","00600,1,C,N","011265,1,N,1","+0140,1","+0090,1","99999,9","08,5,+00600,1,99,9",,,"08,99,1,99,9,99,9,99999,9,99,9,99,9",,"10230,1,99999,9",,,,,"MET051METAR ENNO 081150Z 10008KT 9999 OVC020 14/09 Q1023;",
"01470399999","2010-09-08T12:50:00","4","59.565683","9.212222","19.2","NOTODDEN, NO","FM-15","ENNO ","V020","100,1,N,0036,1","00600,1,C,N","011265,1,N,1","+0140,1","+0090,1","99999,9","08,5,+00600,1,99,9",,,"08,99,1,99,9,99,9,99999,9,99,9,99,9",,"10230,1,99999,9",,,,,"MET051METAR ENNO 081250Z 10007KT 9999 OVC020 14/09 Q1023;",
"01470399999","2010-09-08T13:50:00","4","59.565683","9.212222","19.2","NOTODDEN, NO","FM-15","ENNO ","V020","100,1,N,0026,1","00630,1,C,N","011265,1,N,1","+0140,1","+0090,1","99999,9","08,5,+00630,1,99,9",,,"08,99,1,99,9,99,9,99999,9,99,9,99,9",,"10230,1,99999,9",,,,,"MET051METAR ENNO 081350Z 10005KT 9999 OVC021 14/09 Q1023;",
"01470399999","2010-09-08T14:50:00","4","59.565683","9.212222","19.2","NOTODDEN, NO","FM-15","ENNO ","V020","999,9,V,0005,1","00750,1,C,N","011265,1,N,1","+0140,1","+0090,1","99999,9","07,5,+00750,1,99,9",,,"07,99,1,99,9,99,9,99999,9,99,9,99,9",,"10220,1,99999,9",,,,,"MET051METAR ENNO 081450Z VRB01KT 9999 BKN025 14/09 Q1022;",
"01470399999","2010-09-08T15:50:00","4","59.565683","9.212222","19.2","NOTODDEN, NO","FM-15","ENNO ","V020","310,1,N,0021,1","00750,1,C,N","011265,1,N,1","+0140,1","+0100,1","99999,9","07,5,+00750,1,99,9",,,"07,99,1,99,9,99,9,99999,9,99,9,99,9",,"10220,1,99999,9",,,,,"MET051METAR ENNO 081550Z 31004KT 9999 BKN025 14/10 Q1022;",
"01470399999","2010-09-09T04:50:00","4","59.565683","9.212222","19.2","NOTODDEN, NO","FM-15","ENNO ","V020","999,9,V,0010,1","01800,1,C,N","011265,1,N,1","+0100,1","+0090,1","99999,9","04,5,+01050,1,99,9","08,5,+01800,1,99,9",,"08,99,1,99,9,99,9,99999,9,99,9,99,9",,"10230,1,99999,9",,,,,"MET058METAR ENNO 090450Z VRB02KT 9999 SCT035 OVC060 10/09 Q1023;",
"01470399999","2010-09-09T05:50:00","4","59.565683","9.212222","19.2","NOTODDEN, NO","FM-15","ENNO ","V020","999,9,C,0000,1","01650,5,C,N","011265,1,N,1","+0100,1","+0090,1","99999,9","04,5,+01050,1,99,9","07,5,+01650,5,99,9",,"07,99,1,99,9,99,9,99999,9,99,9,99,9",,"10230,1,99999,9",,,,,"MET058METAR ENNO 090550Z 00000KT 9999 SCT035 BKN055 10/09 Q1023;",
"01470399999","2010-09-09T06:50:00","4","59.565683","9.212222","19.2","NOTODDEN, NO","FM-15","ENNO ","V020","280,1,N,0021,1","01800,1,C,N","011265,1,N,1","+0110,1","+0090,1","99999,9","04,5,+01200,1,99,9","07,5,+01800,1,99,9",,"07,99,1,99,9,99,9,99999,9,99,9,99,9",,"10230,1,99999,9",,,,,"MET066METAR ENNO 090650Z 28004KT 230V330 9999 SCT040 BKN060 11/09 Q1023;",
"01470399999","2010-09-09T07:50:00","4","59.565683","9.212222","19.2","NOTODDEN, NO","FM-15","ENNO ","V020","090,1,N,0031,1","00900,1,C,N","011265,1,N,1","+0140,1","+0090,1","99999,9","07,5,+00900,1,99,9",,,"07,99,1,99,9,99,9,99999,9,99,9,99,9",,"10230,1,99999,9",,,,,"MET059METAR ENNO 090750Z 09006KT 050V150 9999 BKN030 14/09 Q1023;",
"01470399999","2010-09-09T08:50:00","4","59.565683","9.212222","19.2","NOTODDEN, NO","FM-15","ENNO ","V020","080,1,N,0026,1","00900,1,C,N","011265,1,N,1","+0140,1","+0090,1","99999,9","07,5,+00900,1,99,9",,,"07,99,1,99,9,99,9,99999,9,99,9,99,9",,"10230,1,99999,9",,,,,"MET059METAR ENNO 090850Z 08005KT 350V120 9999 BKN030 14/09 Q1023;",
"01470399999","2010-09-09T09:50:00","4","59.565683","9.212222","19.2","NOTODDEN, NO","FM-15","ENNO ","V020","999,9,V,0015,1","00900,1,C,N","011265,1,N,1","+0150,1","+0090,1","99999,9","07,5,+00900,1,99,9",,,"07,99,1,99,9,99,9,99999,9,99,9,99,9",,"10230,1,99999,9",,,,,"MET051METAR ENNO 090950Z VRB03KT 9999 BKN030 15/09 Q1023;",
"01470399999","2010-09-09T10:50:00","4","59.565683","9.212222","19.2","NOTODDEN, NO","FM-15","ENNO ","V020","110,1,N,0026,1","01200,1,C,N","011265,1,N,1","+0160,1","+0090,1","99999,9","04,5,+00900,1,99,9","07,5,+01200,1,99,9",,"07,99,1,99,9,99,9,99999,9,99,9,99,9",,"10230,1,99999,9",,,,,"MET058METAR ENNO 091050Z 11005KT 9999 SCT030 BKN040 16/09 Q1023;",
"01470399999","2010-09-09T11:50:00","4","59.565683","9.212222","19.2","NOTODDEN, NO","FM-15","ENNO ","V020","120,1,N,0021,1","01200,1,C,N","011265,1,N,1","+0160,1","+0090,1","99999,9","04,5,+00900,1,99,9","07,5,+01200,1,99,9",,"07,99,1,99,9,99,9,99999,9,99,9,99,9",,"10230,1,99999,9",,,,,"MET058METAR ENNO 091150Z 12004KT 9999 SCT030 BKN040 16/09 Q1023;",
"01470399999","2010-09-09T12:50:00","4","59.565683","9.212222","19.2","NOTODDEN, NO","FM-15","ENNO ","V020","999,9,V,0015,1","01500,1,C,N","011265,1,N,1","+0160,1","+0090,1","99999,9","04,5,+00900,1,99,9","04,5,+01650,5,99,9","07,5,+02100,1,99,9","07,99,1,99,9,99,9,99999,9,99,9,99,9",,"10220,1,99999,9",,,,,"MET065METAR ENNO 091250Z VRB03KT 9999 SCT030 SCT055 BKN070 16/09 Q1022;",
"01470399999","2010-09-09T13:50:00","4","59.565683","9.212222","19.2","NOTODDEN, NO","FM-15","ENNO ","V020","100,1,N,0021,1","01500,1,C,N","011265,1,N,1","+0160,1","+0100,1","99999,9","02,5,+01020,1,99,9","04,5,+01710,5,99,9","07,5,+02130,5,99,9","07,99,1,99,9,99,9,99999,9,99,9,99,9",,"10220,1,99999,9",,,,,"MET073METAR ENNO 091350Z 10004KT 070V140 9999 FEW034 SCT057 BKN071 16/10 Q1022;",
"01470399999","2010-09-09T14:50:00","4","59.565683","9.212222","19.2","NOTODDEN, NO","FM-15","ENNO ","V020","999,9,V,0005,1","01500,1,C,N","011265,1,N,1","+0160,1","+0100,1","99999,9","02,5,+00960,1,99,9","04,5,+01650,5,99,9","07,5,+02010,5,99,9","07,99,1,99,9,99,9,99999,9,99,9,99,9",,"10220,1,99999,9",,,,,"MET065METAR ENNO 091450Z VRB01KT 9999 FEW032 SCT055 BKN067 16/10 Q1022;",
"01470399999","2010-09-09T15:50:00","4","59.565683","9.212222","19.2","NOTODDEN, NO","FM-15","ENNO ","V020","999,9,C,0000,1","01440,1,C,N","011265,1,N,1","+0150,1","+0110,1","99999,9","02,5,+00960,1,99,9","04,5,+01440,1,99,9","07,5,+01950,5,99,9","07,99,1,99,9,99,9,99999,9,99,9,99,9",,"10210,1,99999,9",,,,,"MET065METAR ENNO 091550Z 00000KT 9999 FEW032 SCT048 BKN065 15/11 Q1021;",
"01470399999","2010-09-10T04:50:00","4","59.565683","9.212222","19.2","NOTODDEN, NO","FM-15","ENNO ","V020","999,9,C,0000,1","01080,1,C,N","011265,1,N,1","+0090,1","+0080,1","99999,9","02,5,+00900,1,99,9","04,5,+01080,1,99,9","07,5,+01440,1,99,9","07,99,1,99,9,99,9,99999,9,99,9,99,9",,"10210,1,99999,9",,,,,"MET065METAR ENNO 100450Z 00000KT 9999 FEW030 SCT036 BKN048 09/08 Q1021;",
"01470399999","2010-09-10T05:50:00","4","59.565683","9.212222","19.2","NOTODDEN, NO","FM-15","ENNO ","V020","999,9,C,0000,1","01500,1,C,N","011265,1,N,1","+0100,1","+0090,1","99999,9","02,5,+00750,1,99,9","04,5,+01500,1,99,9","07,5,+01800,1,99,9","07,99,1,99,9,99,9,99999,9,99,9,99,9",,"10210,1,99999,9",,,,,"MET065METAR ENNO 100550Z 00000KT 9999 FEW025 SCT050 BKN060 10/09 Q1021;",
"01470399999","2010-09-10T06:50:00","4","59.565683","9.212222","19.2","NOTODDEN, NO","FM-15","ENNO ","V020","999,9,C,0000,1","01500,1,C,N","011265,1,N,1","+0100,1","+0090,1","99999,9","02,5,+00750,1,99,9","04,5,+01500,1,99,9","07,5,+01800,1,99,9","07,99,1,99,9,99,9,99999,9,99,9,99,9",,"10210,1,99999,9",,,,,"MET065METAR ENNO 100650Z 00000KT 9999 FEW025 SCT050 BKN060 10/09 Q1021;",
"01470399999","2010-09-10T07:50:00","4","59.565683","9.212222","19.2","NOTODDEN, NO","FM-15","ENNO ","V020","999,9,C,0000,1","01500,1,C,N","011265,1,N,1","+0110,1","+0090,1","99999,9","02,5,+00750,1,99,9","04,5,+01590,5,99,9","07,5,+02010,5,99,9","07,99,1,99,9,99,9,99999,9,99,9,99,9",,"10210,1,99999,9",,,,,"MET065METAR ENNO 100750Z 00000KT 9999 FEW025 SCT053 BKN067 11/09 Q1021;",
"01470399999","2010-09-10T08:50:00","4","59.565683","9.212222","19.2","NOTODDEN, NO","FM-15","ENNO ","V020","999,9,C,0000,1","01500,1,C,N","011265,1,N,1","+0120,1","+0100,1","99999,9","02,5,+00750,1,99,9","04,5,+01590,5,99,9","07,5,+02010,5,99,9","07,99,1,99,9,99,9,99999,9,99,9,99,9",,"10200,1,99999,9",,,,,"MET065METAR ENNO 100850Z 00000KT 9999 FEW025 SCT053 BKN067 12/10 Q1020;",
"01470399999","2010-09-10T09:50:00","4","59.565683","9.212222","19.2","NOTODDEN, NO","FM-15","ENNO ","V020","080,1,N,0021,1","02100,1,C,N","011265,1,N,1","+0140,1","+0080,1","99999,9","04,5,+00750,1,99,9","07,5,+02100,1,99,9",,"07,99,1,99,9,99,9,99999,9,99,9,99,9",,"10200,1,99999,9",,,,,"MET066METAR ENNO 100950Z 08004KT 350V130 9999 SCT025 BKN070 14/08 Q1020;",
"01470399999","2010-09-10T10:50:00","4","59.565683","9.212222","19.2","NOTODDEN, NO","FM-15","ENNO ","V020","070,1,N,0031,1","00900,1,C,N","011265,1,N,1","+0140,1","+0070,1","99999,9","07,5,+00900,1,99,9",,,"07,99,1,99,9,99,9,99999,9,99,9,99,9",,"10200,1,99999,9",,,,,"MET059METAR ENNO 101050Z 07006KT 340V120 9999 BKN030 14/07 Q1020;",
"01470399999","2010-09-10T11:50:00","4","59.565683","9.212222","19.2","NOTODDEN, NO","FM-15","ENNO ","V020","070,1,N,0036,1","02250,5,C,N","011265,1,N,1","+0140,1","+0070,1","99999,9","04,5,+01050,1,99,9","07,5,+02250,5,99,9",,"07,99,1,99,9,99,9,99999,9,99,9,99,9",,"10200,1,99999,9",,,,,"MET066METAR ENNO 101150Z 07007KT 010V110 9999 SCT035 BKN075 14/07 Q1020;",
"01470399999","2010-09-10T12:50:00","4","59.565683","9.212222","19.2","NOTODDEN, NO","FM-15","ENNO ","V020","070,1,N,0041,1","02250,5,C,N","011265,1,N,1","+0150,1","+0080,1","99999,9","04,5,+01050,1,99,9","07,5,+02250,5,99,9",,"07,99,1,99,9,99,9,99999,9,99,9,99,9",,"10190,1,99999,9",,,,,"MET058METAR ENNO 101250Z 07008KT 9999 SCT035 BKN075 15/08 Q1019;",
"01470399999","2010-09-10T13:50:00","4","59.565683","9.212222","19.2","NOTODDEN, NO","FM-15","ENNO ","V020","999,9,V,0010,1","02250,5,C,N","011265,1,N,1","+0150,1","+0080,1","99999,9","04,5,+01110,1,99,9","07,5,+02250,5,99,9",,"07,99,1,99,9,99,9,99999,9,99,9,99,9",,"10190,1,99999,9",,,,,"MET058METAR ENNO 101350Z VRB02KT 9999 SCT037 BKN075 15/08 Q1019;",
"01470399999","2010-09-10T14:50:00","4","59.565683","9.212222","19.2","NOTODDEN, NO","FM-15","ENNO ","V020","070,1,N,0036,1","01950,5,C,N","011265,1,N,1","+0150,1","+0080,1","99999,9","04,5,+01080,1,99,9","08,5,+01950,5,99,9",,"08,99,1,99,9,99,9,99999,9,99,9,99,9",,"10180,1,99999,9",,,,,"MET058METAR ENNO 101450Z 07007KT 9999 SCT036 OVC065 15/08 Q1018;",
"01470399999","2010-09-10T15:50:00","4","59.565683","9.212222","19.2","NOTODDEN, NO","FM-15","ENNO ","V020","170,1,N,0005,1","00960,1,C,N","011265,1,N,1","+0140,1","+0080,1","99999,9","07,5,+00960,1,99,9",,,"07,99,1,99,9,99,9,99999,9,99,9,99,9",,"10180,1,99999,9","16,1",,,,"MET056METAR ENNO 101550Z 17001KT 9999 VCSH BKN032 14/08 Q1018;",
"01470399999","2010-09-12T15:50:00","4","59.565683","9.212222","19.2","NOTODDEN, NO","FM-15","ENNO ","V020","999,9,V,0021,1","99999,9,C,N","011265,1,N,1","+0190,1","+0100,1","99999,9","02,5,+01650,5,99,9","04,5,+02160,5,99,9",,"04,99,1,99,9,99,9,99999,9,99,9,99,9",,"10119,1,99999,9",,,,,"MET058METAR ENNO 121550Z VRB04KT 9999 FEW055 SCT072 19/10 Q1012;","P01 021603SCOCIG"
"01470399999","2010-09-12T16:50:00","4","59.565683","9.212222","19.2","NOTODDEN, NO","FM-15","ENNO ","V020","320,1,N,0026,1","99999,9,C,N","011265,1,N,1","+0190,1","+0090,1","99999,9","02,5,+01500,1,99,9","04,5,+02400,1,99,9",,"04,99,1,99,9,99,9,99999,9,99,9,99,9",,"10119,1,99999,9",,,,,"MET058METAR ENNO 121650Z 32005KT 9999 FEW050 SCT080 19/09 Q1012;","P01 024003SCOCIG"
"01470399999","2010-09-12T17:50:00","4","59.565683","9.212222","19.2","NOTODDEN, NO","FM-15","ENNO ","V020","999,9,C,0000,1","22000,1,9,N","011265,1,N,1","+0160,1","+0110,1","99999,9","02,5,+01500,1,99,9",,,"02,99,1,99,9,99,9,99999,9,99,9,99,9",,"10119,1,99999,9",,,,,"MET051METAR ENNO 121750Z 00000KT 9999 FEW050 16/11 Q1012;",
"01470399999","2010-09-13T04:50:00","4","59.565683","9.212222","19.2","NOTODDEN, NO","FM-15","ENNO ","V020","999,9,C,0000,1","22000,1,9,N","011265,1,N,1","+0050,1","+0040,1","99999,9","02,5,+00000,5,99,9",,,"02,99,1,99,9,99,9,99999,9,99,9,99,9",,"10159,1,99999,9","40,1",,,,"MET056METAR ENNO 130450Z 00000KT 9999 VCFG FEW000 05/04 Q1016;",
"01470399999","2010-09-13T06:50:00","4","59.565683","9.212222","19.2","NOTODDEN, NO","FM-15","ENNO ","V020","999,9,C,0000,1","99999,9,9,Y","009900,1,N,1","+0070,1","+0060,1","99999,9",,,,,,"10159,1,99999,9",,,,,"MET045METAR ENNO 130650Z 00000KT CAVOK 07/06 Q1016;",
"01470399999","2010-09-13T07:50:00","4","59.565683","9.212222","19.2","NOTODDEN, NO","FM-15","ENNO ","V020","999,9,C,0000,1","99999,9,9,Y","009900,1,N,1","+0100,1","+0080,1","99999,9",,,,,,"10159,1,99999,9",,,,,"MET045METAR ENNO 130750Z 00000KT CAVOK 10/08 Q1016;",
"01470399999","2010-09-13T08:50:00","4","59.565683","9.212222","19.2","NOTODDEN, NO","FM-15","ENNO ","V020","999,9,C,0000,1","99999,9,9,Y","009900,1,N,1","+0120,1","+0090,1","99999,9",,,,,,"10159,1,99999,9",,,,,"MET045METAR ENNO 130850Z 00000KT CAVOK 12/09 Q1016;",
"01470399999","2010-09-13T09:50:00","4","59.565683","9.212222","19.2","NOTODDEN, NO","FM-15","ENNO ","V020","130,1,N,0026,1","22000,1,9,N","011265,1,N,1","+0140,1","+0080,1","99999,9","02,5,+01500,1,99,9",,,"02,99,1,99,9,99,9,99999,9,99,9,99,9",,"10149,1,99999,9",,,,,"MET051METAR ENNO 130950Z 13005KT 9999 FEW050 14/08 Q1015;",
"01470399999","2010-09-13T10:50:00","4","59.565683","9.212222","19.2","NOTODDEN, NO","FM-15","ENNO ","V020","100,1,N,0036,1","22000,1,9,N","011265,1,N,1","+0160,1","+0070,1","99999,9","02,5,+01500,1,99,9",,,"02,99,1,99,9,99,9,99999,9,99,9,99,9",,"10139,1,99999,9",,,,,"MET051METAR ENNO 131050Z 10007KT 9999 FEW050 16/07 Q1014;",
"01470399999","2010-09-13T11:50:00","4","59.565683","9.212222","19.2","NOTODDEN, NO","FM-15","ENNO ","V020","120,1,N,0021,1","22000,1,9,N","011265,1,N,1","+0180,1","+0100,1","99999,9","04,5,+01800,1,99,9",,,"04,99,1,99,9,99,9,99999,9,99,9,99,9",,"10139,1,99999,9",,,,,"MET051METAR ENNO 131150Z 12004KT 9999 SCT060 18/10 Q1014;",
"01470399999","2010-09-13T13:50:00","4","59.565683","9.212222","19.2","NOTODDEN, NO","FM-15","ENNO ","V020","220,1,N,0026,1","22000,1,9,N","011265,1,N,1","+0190,1","+0040,1","99999,9","04,5,+01950,5,99,9",,,"04,99,1,99,9,99,9,99999,9,99,9,99,9",,"10129,1,99999,9",,,,,"MET059METAR ENNO 131350Z 22005KT 140V270 9999 SCT065 19/04 Q1013;",
"01470399999","2010-09-13T14:50:00","4","59.565683","9.212222","19.2","NOTODDEN, NO","FM-15","ENNO ","V020","999,9,V,0010,1","22000,1,9,N","011265,1,N,1","+0180,1","+0050,1","99999,9","02,5,+01800,1,99,9",,,"02,99,1,99,9,99,9,99999,9,99,9,99,9",,"10129,1,99999,9",,,,,"MET051METAR ENNO 131450Z VRB02KT 9999 FEW060 18/05 Q1013;",
"01470399999","2010-09-13T15:50:00","4","59.565683","9.212222","19.2","NOTODDEN, NO","FM-15","ENNO ","V020","210,1,N,0026,1","99999,9,9,Y","009900,1,N,1","+0180,1","+0040,1","99999,9",,,,,,"10129,1,99999,9",,,,,"MET053METAR ENNO 131550Z 21005KT 120V280 CAVOK 18/04 Q1013;",
"01470399999","2010-09-14T04:50:00","4","59.565683","9.212222","19.2","NOTODDEN, NO","FM-15","ENNO ","V020","090,1,N,0057,1","00540,1,C,N","006000,1,N,1","+0140,1","+0120,1","99999,9","04,5,+00330,1,99,9","08,5,+00540,1,99,9",,"08,99,1,99,9,99,9,99999,9,99,9,99,9",,"09980,1,99999,9","53,1","63,1",,,"MET071METAR ENNO 140450Z 09011KT 060V120 6000 RADZ SCT011 OVC018 14/12 Q0998;",
"01470399999","2010-09-14T05:50:00","4","59.565683","9.212222","19.2","NOTODDEN, NO","FM-15","ENNO ","V020","070,1,N,0046,1","00570,1,C,N","008000,1,N,1","+0140,1","+0120,1","99999,9","04,5,+00330,1,99,9","07,5,+00570,1,99,9",,"07,99,1,99,9,99,9,99999,9,99,9,99,9",,"09980,1,99999,9","61,1",,,,"MET070METAR ENNO 140550Z 07009KT 050V110 8000 -RA SCT011 BKN019 14/12 Q0998;",
"01470399999","2010-09-14T06:50:00","4","59.565683","9.212222","19.2","NOTODDEN, NO","FM-15","ENNO ","V020","100,1,N,0041,1","00570,1,C,N","011265,1,N,1","+0140,1","+0130,1","99999,9","04,5,+00330,1,99,9","07,5,+00570,1,99,9",,"07,99,1,99,9,99,9,99999,9,99,9,99,9",,"09970,1,99999,9","61,1",,,,"MET062METAR ENNO 140650Z 10008KT 9999 -RA SCT011 BKN019 14/13 Q0997;",
"01470399999","2010-09-14T07:50:00","4","59.565683","9.212222","19.2","NOTODDEN, NO","FM-15","ENNO ","V020","100,1,N,0031,1","99999,9,C,N","011265,1,N,1","+0150,1","+0140,1","99999,9","02,5,+00330,1,99,9","04,5,+00570,1,99,9","04,5,+01080,1,99,9","04,99,1,99,9,99,9,99999,9,99,9,99,9",,"09970,1,99999,9",,,,,"MET065METAR ENNO 140750Z 10006KT 9999 FEW011 SCT019 SCT036 15/14 Q0997;","P01 005703SCOCIG"
"01470399999","2010-09-14T08:50:00","4","59.565683","9.212222","19.2","NOTODDEN, NO","FM-15","ENNO ","V020","120,1,N,0026,1","00750,1,C,N","011265,1,N,1","+0160,1","+0130,1","99999,9","02,5,+00360,1,99,9","04,5,+00750,1,99,9","07,5,+01200,1,99,9","07,99,1,99,9,99,9,99999,9,99,9,99,9",,"09970,1,99999,9",,,,,"MET065METAR ENNO 140850Z 12005KT 9999 FEW012 SCT025 BKN040 16/13 Q0997;",
"01470399999","2010-09-14T09:50:00","4","59.565683","9.212222","19.2","NOTODDEN, NO","FM-15","ENNO ","V020","140,1,N,0036,1","01200,1,C,N","011265,1,N,1","+0190,1","+0130,1","99999,9","04,5,+00750,1,99,9","07,5,+01200,1,99,9",,"07,99,1,99,9,99,9,99999,9,99,9,99,9",,"09959,1,99999,9",,,,,"MET058METAR ENNO 140950Z 14007KT 9999 SCT025 BKN040 19/13 Q0996;",
"01470399999","2010-09-14T10:50:00","4","59.565683","9.212222","19.2","NOTODDEN, NO","FM-15","ENNO ","V020","230,1,N,0031,1","99999,9,C,N","011265,1,N,1","+0200,1","+0100,1","99999,9","02,5,+01200,1,99,9","04,5,+02100,1,99,9",,"04,99,1,99,9,99,9,99999,9,99,9,99,9",,"09959,1,99999,9",,,,,"MET066METAR ENNO 141050Z 23006KT 160V280 9999 FEW040 SCT070 20/10 Q0996;","P01 021003SCOCIG"
"01470399999","2010-09-14T11:50:00","4","59.565683","9.212222","19.2","NOTODDEN, NO","FM-15","ENNO ","V020","260,1,N,0051,1","22000,1,9,N","011265,1,N,1","+0190,1","+0060,1","99999,9","04,5,+01800,1,99,9",,,"04,99,1,99,9,99,9,99999,9,99,9,99,9",,"09959,1,99999,9",,,,,"MET059METAR ENNO 141150Z 26010KT 180V320 9999 SCT060 19/06 Q0996;",
"01470399999","2010-09-14T13:50:00","4","59.565683","9.212222","19.2","NOTODDEN, NO","FM-15","ENNO ","V020","200,1,N,0036,1","01800,1,C,N","011265,1,N,1","+0170,1","+0070,1","99999,9","07,5,+01800,1,99,9",,,"07,99,1,99,9,99,9,99999,9,99,9,99,9",,"09939,1,99999,9",,,,,"MET051METAR ENNO 141350Z 20007KT 9999 BKN060 17/07 Q0994;",
"01470399999","2010-09-14T14:50:00","4","59.565683","9.212222","19.2","NOTODDEN, NO","FM-15","ENNO ","V020","160,1,N,0031,1","03600,1,C,N","011265,1,N,1","+0170,1","+0080,1","99999,9","04,5,+01800,1,99,9","07,5,+03600,1,99,9",,"07,99,1,99,9,99,9,99999,9,99,9,99,9",,"09939,1,99999,9",,,,,"MET058METAR ENNO 141450Z 16006KT 9999 SCT060 BKN120 17/08 Q0994;",
"01470399999","2010-09-14T15:50:00","4","59.565683","9.212222","19.2","NOTODDEN, NO","FM-15","ENNO ","V020","160,1,N,0031,1","01800,1,C,N","011265,1,N,1","+0150,1","+0100,1","99999,9","02,5,+00900,1,99,9","07,5,+01800,1,99,9",,"07,99,1,99,9,99,9,99999,9,99,9,99,9",,"09919,1,99999,9","61,1",,,,"MET062METAR ENNO 141550Z 16006KT 9999 -RA FEW030 BKN060 15/10 Q0992;",
"01470399999","2010-09-15T04:50:00","4","59.565683","9.212222","19.2","NOTODDEN, NO","FM-15","ENNO ","V020","999,9,C,0000,1","22000,1,9,N","000900,1,N,1","+0030,1","+0030,1","99999,9","02,5,+01500,1,99,9",,,"02,99,1,99,9,99,9,99999,9,99,9,99,9",,"09909,1,99999,9","41,1",,,,"MET056METAR ENNO 150450Z 00000KT 0900 BCFG FEW050 03/03 Q0991;",
"01470399999","2010-09-15T05:50:00","4","59.565683","9.212222","19.2","NOTODDEN, NO","FM-15","ENNO ","V020","999,9,C,0000,1","22000,1,9,N","003000,1,N,1","+0040,1","+0030,1","99999,9","02,5,+00000,5,99,9",,,"02,99,1,99,9,99,9,99999,9,99,9,99,9",,"09909,1,99999,9","41,1",,,,"MET056METAR ENNO 150550Z 00000KT 3000 BCFG FEW000 04/03 Q0991;",
"01470399999","2010-09-15T06:50:00","4","59.565683","9.212222","19.2","NOTODDEN, NO","FM-15","ENNO ","V020","999,9,V,0005,1","22000,1,9,N","011265,1,N,1","+0050,1","+0040,1","99999,9","04,5,+00000,5,99,9",,,"04,99,1,99,9,99,9,99999,9,99,9,99,9",,"09909,1,99999,9","41,1",,,,"MET063METAR ENNO 150650Z VRB01KT 9999 3000NW BCFG SCT000 05/04 Q0991;",
"01470399999","2010-09-15T07:50:00","4","59.565683","9.212222","19.2","NOTODDEN, NO","FM-15","ENNO ","V020","999,9,C,0000,1","22000,1,9,N","011265,1,N,1","+0060,1","+0060,1","99999,9","02,5,+00180,1,99,9",,,"02,99,1,99,9,99,9,99999,9,99,9,99,9",,"09909,1,99999,9",,,,,"MET051METAR ENNO 150750Z 00000KT 9999 FEW006 06/06 Q0991;",
"01470399999","2010-09-15T08:50:00","4","59.565683","9.212222","19.2","NOTODDEN, NO","FM-15","ENNO ","V020","999,9,V,0010,1","22000,1,9,N","011265,1,N,1","+0080,1","+0060,1","99999,9","02,5,+00360,1,99,9",,,"02,99,1,99,9,99,9,99999,9,99,9,99,9",,"09898,1,99999,9",,,,,"MET051METAR ENNO 150850Z VRB02KT 9999 FEW012 08/06 Q0990;",
"01470399999","2010-09-15T13:50:00","4","59.565683","9.212222","19.2","NOTODDEN, NO","FM-15","ENNO ","V020","130,1,N,0036,1","01650,5,C,N","011265,1,N,1","+0130,1","+0060,1","99999,9","02,5,+01200,1,99,9","07,5,+01650,5,99,9",,"07,99,1,99,9,99,9,99999,9,99,9,99,9",,"09892,1,99999,9",,,,,"MET066METAR ENNO 151350Z 13007KT 100V160 9999 FEW040 BKN055 13/06 Q0989;",
"01470399999","2010-09-15T14:50:00","4","59.565683","9.212222","19.2","NOTODDEN, NO","FM-15","ENNO ","V020","130,1,N,0041,1","01650,5,C,N","011265,1,N,1","+0130,1","+0060,1","99999,9","02,5,+01200,1,99,9","07,5,+01650,5,99,9",,"07,99,1,99,9,99,9,99999,9,99,9,99,9",,"09892,1,99999,9",,,,,"MET058METAR ENNO 151450Z 13008KT 9999 FEW040 BKN055 13/06 Q0989;",
"01470399999","2010-09-15T15:50:00","4","59.565683","9.212222","19.2","NOTODDEN, NO","FM-15","ENNO ","V020","140,1,N,0026,1","01650,5,C,N","011265,1,N,1","+0130,1","+0060,1","99999,9","02,5,+01200,1,99,9","07,5,+01650,5,99,9",,"07,99,1,99,9,99,9,99999,9,99,9,99,9",,"09882,1,99999,9",,,,,"MET066METAR ENNO 151550Z 14005KT 110V170 9999 FEW040 BKN055 13/06 Q0988;",
"01470399999","2010-09-16T04:50:00","4","59.565683","9.212222","19.2","NOTODDEN, NO","FM-15","ENNO ","V020","999,9,V,0005,1","99999,9,C,N","011265,1,N,1","+0010,1","+0010,1","99999,9","02,5,+00000,5,99,9","04,5,+00120,1,99,9",,"04,99,1,99,9,99,9,99999,9,99,9,99,9",,"09882,1,99999,9",,,,,"MET058METAR ENNO 160450Z VRB01KT 9999 FEW000 SCT004 01/01 Q0988;","P01 001203SCOCIG"
"01470399999","2010-09-16T05:50:00","4","59.565683","9.212222","19.2","NOTODDEN, NO","FM-15","ENNO ","V020","999,9,C,0000,1","00150,1,C,N","011265,1,N,1","+0020,1","+0010,1","99999,9","02,5,+00000,5,99,9","07,5,+00150,1,99,9",,"07,99,1,99,9,99,9,99999,9,99,9,99,9",,"09882,1,99999,9","61,1",,,,"MET062METAR ENNO 160550Z 00000KT 9999 -RA FEW000 BKN005 02/01 Q0988;",
"01470399999","2010-09-16T06:50:00","4","59.565683","9.212222","19.2","NOTODDEN, NO","FM-15","ENNO ","V020","999,9,C,0000,1","00090,1,C,N","011265,1,N,1","+0030,1","+0030,1","99999,9","02,5,+00000,5,99,9","07,5,+00090,1,99,9",,"07,99,1,99,9,99,9,99999,9,99,9,99,9",,"09882,1,99999,9","41,1",,,,"MET070METAR ENNO 160650Z 00000KT 9999 1500NW BCFG FEW000 BKN003 03/03 Q0988;",
"01470399999","2010-09-16T08:20:00","4","59.565683","9.212222","19.2","NOTODDEN, NO","FM-15","ENNO ","V020","999,9,V,0005,1","99999,9,C,N","011265,1,N,1","+0070,1","+0060,1","99999,9","02,5,+00090,1,99,9","04,5,+01800,1,99,9",,"04,99,1,99,9,99,9,99999,9,99,9,99,9",,"09871,1,99999,9",,,,,"MET058METAR ENNO 160820Z VRB01KT 9999 FEW003 SCT060 07/06 Q0987;","P01 018003SCOCIG"
"01470399999","2010-09-16T08:50:00","4","59.565683","9.212222","19.2","NOTODDEN, NO","FM-15","ENNO ","V020","999,9,V,0010,1","22000,1,9,N","011265,1,N,1","+0090,1","+0070,1","99999,9","04,5,+01950,5,99,9",,,"04,99,1,99,9,99,9,99999,9,99,9,99,9",,"09871,1,99999,9",,,,,"MET051METAR ENNO 160850Z VRB02KT 9999 SCT065 09/07 Q0987;",
"01470399999","2010-09-16T09:50:00","4","59.565683","9.212222","19.2","NOTODDEN, NO","FM-15","ENNO ","V020","150,1,N,0021,1","99999,9,9,Y","009900,1,N,1","+0120,1","+0070,1","99999,9",,,,,,"09871,1,99999,9",,,,,"MET053METAR ENNO 160950Z 15004KT 120V190 CAVOK 12/07 Q0987;",
"01470399999","2010-09-16T10:50:00","4","59.565683","9.212222","19.2","NOTODDEN, NO","FM-15","ENNO ","V020","100,1,N,0041,1","99999,9,9,Y","009900,1,N,1","+0140,1","+0060,1","99999,9",,,,,,"09861,1,99999,9",,,,,"MET053METAR ENNO 161050Z 10008KT 070V130 CAVOK 14/06 Q0986;",
"01470399999","2010-09-16T11:50:00","4","59.565683","9.212222","19.2","NOTODDEN, NO","FM-15","ENNO ","V020","090,1,N,0026,1","22000,1,9,N","011265,1,N,1","+0140,1","+0070,1","99999,9","02,5,+01800,1,99,9",,,"02,99,1,99,9,99,9,99999,9,99,9,99,9",,"09861,1,99999,9",,,,,"MET059METAR ENNO 161150Z 09005KT 070V140 9999 FEW060 14/07 Q0986;",
"01470399999","2010-09-16T12:50:00","4","59.565683","9.212222","19.2","NOTODDEN, NO","FM-15","ENNO ","V020","130,1,N,0026,1","22000,1,9,N","011265,1,N,1","+0150,1","+0070,1","99999,9","04,5,+01650,5,99,9",,,"04,99,1,99,9,99,9,99999,9,99,9,99,9",,"09861,1,99999,9",,,,,"MET059METAR ENNO 161250Z 13005KT 100V170 9999 SCT055 15/07 Q0986;",
"01470399999","2010-09-16T13:50:00","4","59.565683","9.212222","19.2","NOTODDEN, NO","FM-15","ENNO ","V020","170,1,N,0026,1","01800,1,C,N","011265,1,N,1","+0160,1","+0060,1","99999,9","07,5,+01800,1,99,9",,,"07,99,1,99,9,99,9,99999,9,99,9,99,9",,"09851,1,99999,9",,,,,"MET059METAR ENNO 161350Z 17005KT 110V230 9999 BKN060 16/06 Q0985;",
"01470399999","2010-09-16T14:50:00","4","59.565683","9.212222","19.2","NOTODDEN, NO","FM-15","ENNO ","V020","999,9,V,0031,1","22000,1,9,N","011265,1,N,1","+0150,1","+0060,1","99999,9","04,5,+01650,5,99,9",,,"04,99,1,99,9,99,9,99999,9,99,9,99,9",,"09851,1,99999,9",,,,,"MET051METAR ENNO 161450Z VRB06KT 9999 SCT055 15/06 Q0985;",
"01470399999","2010-09-17T04:50:00","4","59.565683","9.212222","19.2","NOTODDEN, NO","FM-15","ENNO ","V020","999,9,C,0000,1","22000,1,9,N","011265,1,N,1","+0050,1","+0040,1","99999,9","02,5,+00090,1,99,9",,,"02,99,1,99,9,99,9,99999,9,99,9,99,9",,"09882,1,99999,9",,,,,"MET051METAR ENNO 170450Z 00000KT 9999 FEW003 05/04 Q0988;",
"01470399999","2010-09-17T05:50:00","4","59.565683","9.212222","19.2","NOTODDEN, NO","FM-15","ENNO ","V020","999,9,C,0000,1","22000,1,9,N","011265,1,N,1","+0050,1","+0040,1","99999,9","02,5,+00150,1,99,9",,,"02,99,1,99,9,99,9,99999,9,99,9,99,9",,"09882,1,99999,9",,,,,"MET051METAR ENNO 170550Z 00000KT 9999 FEW005 05/04 Q0988;",
"01470399999","2010-09-17T06:50:00","4","59.565683","9.212222","19.2","NOTODDEN, NO","FM-15","ENNO ","V020","999,9,C,0000,1","99999,9,9,Y","009900,1,N,1","+0060,1","+0050,1","99999,9",,,,,,"09892,1,99999,9",,,,,"MET045METAR ENNO 170650Z 00000KT CAVOK 06/05 Q0989;",
"01470399999","2010-09-17T07:50:00","4","59.565683","9.212222","19.2","NOTODDEN, NO","FM-15","ENNO ","V020","999,9,C,0000,1","99999,9,9,Y","009900,1,N,1","+0090,1","+0060,1","99999,9",,,,,,"09892,1,99999,9",,,,,"MET045METAR ENNO 170750Z 00000KT CAVOK 09/06 Q0989;",
"01470399999","2010-09-17T08:50:00","4","59.565683","9.212222","19.2","NOTODDEN, NO","FM-15","ENNO ","V020","999,9,C,0000,1","99999,9,9,Y","009900,1,N,1","+0110,1","+0060,1","99999,9",,,,,,"09892,1,99999,9",,,,,"MET045METAR ENNO 170850Z 00000KT CAVOK 11/06 Q0989;",
"01470399999","2010-09-17T09:50:00","4","59.565683","9.212222","19.2","NOTODDEN, NO","FM-15","ENNO ","V020","999,9,C,0000,1","99999,9,9,Y","009900,1,N,1","+0130,1","+0060,1","99999,9",,,,,,"09892,1,99999,9",,,,,"MET045METAR ENNO 170950Z 00000KT CAVOK 13/06 Q0989;",
"01470399999","2010-09-17T10:50:00","4","59.565683","9.212222","19.2","NOTODDEN, NO","FM-15","ENNO ","V020","270,1,N,0021,1","22000,1,9,N","011265,1,N,1","+0150,1","+0040,1","99999,9","04,5,+01650,5,99,9",,,"04,99,1,99,9,99,9,99999,9,99,9,99,9",,"09898,1,99999,9",,,,,"MET059METAR ENNO 171050Z 27004KT 190V320 9999 SCT055 15/04 Q0990;",
"01470399999","2010-09-17T11:50:00","4","59.565683","9.212222","19.2","NOTODDEN, NO","FM-15","ENNO ","V020","280,1,N,0021,1","22000,1,9,N","011265,1,N,1","+0160,1","+0040,1","99999,9","04,5,+01800,1,99,9",,,"04,99,1,99,9,99,9,99999,9,99,9,99,9",,"09898,1,99999,9",,,,,"MET059METAR ENNO 171150Z 28004KT 230V320 9999 SCT060 16/04 Q0990;",
"01470399999","2010-09-17T13:20:00","4","59.565683","9.212222","19.2","NOTODDEN, NO","FM-15","ENNO ","V020","999,9,V,0005,1","99999,9,C,N","011265,1,N,1","+0160,1","+0030,1","99999,9","02,5,+01200,1,99,9","04,5,+02400,1,99,9",,"04,99,1,99,9,99,9,99999,9,99,9,99,9",,"09898,1,99999,9",,,,,"MET058METAR ENNO 171320Z VRB01KT 9999 FEW040 SCT080 16/03 Q0990;","P01 024003SCOCIG"
"01470399999","2010-09-17T13:50:00","4","59.565683","9.212222","19.2","NOTODDEN, NO","FM-15","ENNO ","V020","130,1,N,0031,1","99999,9,C,N","011265,1,N,1","+0170,1","+0050,1","99999,9","02,5,+01500,1,99,9","04,5,+02400,1,99,9",,"04,99,1,99,9,99,9,99999,9,99,9,99,9",,"09898,1,99999,9",,,,,"MET058METAR ENNO 171350Z 13006KT 9999 FEW050 SCT080 17/05 Q0990;","P01 024003SCOCIG"
"01470399999","2010-09-17T14:50:00","4","59.565683","9.212222","19.2","NOTODDEN, NO","FM-15","ENNO ","V020","110,1,N,0036,1","22000,1,9,N","011265,1,N,1","+0170,1","+0060,1","99999,9","04,5,+02100,1,99,9",,,"04,99,1,99,9,99,9,99999,9,99,9,99,9",,"09898,1,99999,9",,,,,"MET051METAR ENNO 171450Z 11007KT 9999 SCT070 17/06 Q0990;",
"01470399999","2010-09-17T15:50:00","4","59.565683","9.212222","19.2","NOTODDEN, NO","FM-15","ENNO ","V020","290,1,N,0046,1","99999,9,C,N","011265,1,N,1","+0160,1","+0050,1","99999,9","02,5,+01350,1,99,9","04,5,+02400,1,99,9",,"04,99,1,99,9,99,9,99999,9,99,9,99,9",,"09898,1,99999,9",,,,,"MET058METAR ENNO 171550Z 29009KT 9999 FEW045 SCT080 16/05 Q0990;","P01 024003SCOCIG"
"01470399999","2010-09-19T09:20:00","4","59.565683","9.212222","19.2","NOTODDEN, NO","FM-15","ENNO ","V020","999,9,C,0000,1","01950,5,C,N","011265,1,N,1","+0120,1","+0070,1","99999,9","07,5,+01950,5,99,9",,,"07,99,1,99,9,99,9,99999,9,99,9,99,9",,"10020,1,99999,9",,,,,"MET051METAR ENNO 190920Z 00000KT 9999 BKN065 12/07 Q1002;",
"01470399999","2010-09-19T12:50:00","4","59.565683","9.212222","19.2","NOTODDEN, NO","FM-15","ENNO ","V020","080,1,N,0036,1","22000,1,9,N","011265,1,N,1","+0160,1","+0060,1","99999,9","04,5,+01650,5,99,9",,,"04,99,1,99,9,99,9,99999,9,99,9,99,9",,"10020,1,99999,9",,,,,"MET059METAR ENNO 191250Z 08007KT 030V120 9999 SCT055 16/06 Q1002;",
"01470399999","2010-09-19T14:50:00","4","59.565683","9.212222","19.2","NOTODDEN, NO","FM-15","ENNO ","V020","100,1,N,0036,1","99999,9,C,N","011265,1,N,1","+0160,1","+0070,1","99999,9","02,5,+01200,1,02,1","04,5,+01650,5,99,9",,"04,99,1,99,9,99,9,99999,9,99,9,99,9",,"10020,1,99999,9",,,,,"MET061METAR ENNO 191450Z 10007KT 9999 FEW040TCU SCT055 16/07 Q1002;","P01 016503SCOCIG"
"01470399999","2010-09-19T15:50:00","4","59.565683","9.212222","19.2","NOTODDEN, NO","FM-15","ENNO ","V020","999,9,V,0005,1","99999,9,C,N","011265,1,N,1","+0140,1","+0070,1","99999,9","02,5,+01500,1,02,1","04,5,+01800,1,99,9",,"04,99,1,99,9,99,9,99999,9,99,9,99,9",,"10020,1,99999,9","16,1",,,,"MET066METAR ENNO 191550Z VRB01KT 9999 VCSH FEW050TCU SCT060 14/07 Q1002;","P01 018003SCOCIG"
"01470399999","2010-09-19T17:20:00","4","59.565683","9.212222","19.2","NOTODDEN, NO","FM-15","ENNO ","V020","999,9,C,0000,1","22000,1,9,N","011265,1,N,1","+0120,1","+0090,1","99999,9","02,5,+01500,1,99,9",,,"02,99,1,99,9,99,9,99999,9,99,9,99,9",,"10031,1,99999,9",,,,,"MET051METAR ENNO 191720Z 00000KT 9999 FEW050 12/09 Q1003;",
"01470399999","2010-09-20T04:50:00","4","59.565683","9.212222","19.2","NOTODDEN, NO","FM-15","ENNO ","V020","999,9,C,0000,1","22000,1,9,N","011265,1,N,1","+0010,1","+0000,1","99999,9","02,5,+00000,5,99,9",,,"02,99,1,99,9,99,9,99999,9,99,9,99,9",,"10051,1,99999,9",,,,,"MET051METAR ENNO 200450Z 00000KT 9999 FEW000 01/00 Q1005;",
"01470399999","2010-09-20T05:50:00","4","59.565683","9.212222","19.2","NOTODDEN, NO","FM-15","ENNO ","V020","999,9,C,0000,1","22000,1,9,N","011265,1,N,1","+0010,1","+0000,1","99999,9","02,5,+00000,5,99,9",,,"02,99,1,99,9,99,9,99999,9,99,9,99,9",,"10061,1,99999,9",,,,,"MET051METAR ENNO 200550Z 00000KT 9999 FEW000 01/00 Q1006;",
"01470399999","2010-09-20T06:50:00","4","59.565683","9.212222","19.2","NOTODDEN, NO","FM-15","ENNO ","V020","999,9,C,0000,1","99999,9,9,Y","009900,1,N,1","+0030,1","+0020,1","99999,9",,,,,,"10061,1,99999,9",,,,,"MET045METAR ENNO 200650Z 00000KT CAVOK 03/02 Q1006;",
"01470399999","2010-09-20T07:50:00","4","59.565683","9.212222","19.2","NOTODDEN, NO","FM-15","ENNO ","V020","999,9,V,0010,1","99999,9,9,Y","009900,1,N,1","+0040,1","+0030,1","99999,9",,,,,,"10061,1,99999,9",,,,,"MET045METAR ENNO 200750Z VRB02KT CAVOK 04/03 Q1006;",
"01470399999","2010-09-20T12:50:00","4","59.565683","9.212222","19.2","NOTODDEN, NO","FM-15","ENNO ","V020","999,9,V,0010,1","01200,1,C,N","011265,1,N,1","+0100,1","+0050,1","99999,9","07,5,+01200,1,99,9",,,"07,99,1,99,9,99,9,99999,9,99,9,99,9",,"10041,1,99999,9","16,1",,,,"MET056METAR ENNO 201250Z VRB02KT 9999 VCSH BKN040 10/05 Q1004;",
"01470399999","2010-09-20T13:50:00","4","59.565683","9.212222","19.2","NOTODDEN, NO","FM-15","ENNO ","V020","270,1,N,0015,1","00900,1,C,N","011265,1,N,1","+0090,1","+0060,1","99999,9","02,5,+00150,1,99,9","04,5,+00900,1,99,9","07,5,+01200,1,99,9","07,99,1,99,9,99,9,99999,9,99,9,99,9",,"10031,1,99999,9","61,1",,,,"MET069METAR ENNO 201350Z 27003KT 9999 -RA FEW005 SCT030 BKN040 09/06 Q1003;",
"01470399999","2010-09-20T14:50:00","4","59.565683","9.212222","19.2","NOTODDEN, NO","FM-15","ENNO ","V020","170,1,N,0021,1","00840,1,C,N","011265,1,N,1","+0090,1","+0070,1","99999,9","02,5,+00090,1,99,9","04,5,+00840,1,99,9","07,5,+01140,1,99,9","07,99,1,99,9,99,9,99999,9,99,9,99,9",,"10031,1,99999,9","61,1",,,,"MET069METAR ENNO 201450Z 17004KT 9999 -RA FEW003 SCT028 BKN038 09/07 Q1003;",
"01470399999","2010-09-20T15:50:00","4","59.565683","9.212222","19.2","NOTODDEN, NO","FM-15","ENNO ","V020","330,1,N,0026,1","00840,1,C,N","011265,1,N,1","+0080,1","+0070,1","99999,9","02,5,+00090,1,99,9","04,5,+00840,1,99,9","07,5,+01140,1,99,9","07,99,1,99,9,99,9,99999,9,99,9,99,9",,"10020,1,99999,9","61,1",,,,"MET069METAR ENNO 201550Z 33005KT 9999 -RA FEW003 SCT028 BKN038 08/07 Q1002;",
"01470399999","2010-09-21T04:50:00","4","59.565683","9.212222","19.2","NOTODDEN, NO","FM-15","ENNO ","V020","999,9,V,0005,1","22000,1,9,N","011265,1,N,1","+0020,1","+0010,1","99999,9","02,5,+00000,5,99,9",,,"02,99,1,99,9,99,9,99999,9,99,9,99,9",,"10091,1,99999,9",,,,,"MET051METAR ENNO 210450Z VRB01KT 9999 FEW000 02/01 Q1009;",
"01470399999","2010-09-21T05:50:00","4","59.565683","9.212222","19.2","NOTODDEN, NO","FM-15","ENNO ","V020","999,9,V,0005,1","22000,1,9,N","011265,1,N,1","+0020,1","+0010,1","99999,9","02,5,+00000,5,99,9",,,"02,99,1,99,9,99,9,99999,9,99,9,99,9",,"10102,1,99999,9",,,,,"MET051METAR ENNO 210550Z VRB01KT 9999 FEW000 02/01 Q1010;",
"01470399999","2010-09-21T06:50:00","4","59.565683","9.212222","19.2","NOTODDEN, NO","FM-15","ENNO ","V020","999,9,V,0005,1","22000,1,9,N","011265,1,N,1","+0040,1","+0040,1","99999,9","02,5,+00000,5,99,9",,,"02,99,1,99,9,99,9,99999,9,99,9,99,9",,"10108,1,99999,9",,,,,"MET051METAR ENNO 210650Z VRB01KT 9999 FEW000 04/04 Q1011;",
"01470399999","2010-09-21T07:50:00","4","59.565683","9.212222","19.2","NOTODDEN, NO","FM-15","ENNO ","V020","999,9,V,0005,1","22000,1,9,N","011265,1,N,1","+0080,1","+0060,1","99999,9","02,5,+00030,1,99,9",,,"02,99,1,99,9,99,9,99999,9,99,9,99,9",,"10119,1,99999,9",,,,,"MET051METAR ENNO 210750Z VRB01KT 9999 FEW001 08/06 Q1012;",
"01470399999","2010-09-21T09:50:00","4","59.565683","9.212222","19.2","NOTODDEN, NO","FM-15","ENNO ","V020","140,1,N,0026,1","99999,9,9,Y","009900,1,N,1","+0120,1","+0060,1","99999,9",,,,,,"10129,1,99999,9",,,,,"MET045METAR ENNO 210950Z 14005KT CAVOK 12/06 Q1013;",
"01470399999","2010-09-21T10:50:00","4","59.565683","9.212222","19.2","NOTODDEN, NO","FM-15","ENNO ","V020","999,9,C,0000,1","99999,9,9,Y","009900,1,N,1","+0140,1","+0050,1","99999,9",,,,,,"10129,1,99999,9",,,,,"MET045METAR ENNO 211050Z 00000KT CAVOK 14/05 Q1013;",
"01470399999","2010-09-21T11:50:00","4","59.565683","9.212222","19.2","NOTODDEN, NO","FM-15","ENNO ","V020","260,1,N,0015,1","99999,9,9,Y","009900,1,N,1","+0160,1","+0050,1","99999,9",,,,,,"10129,1,99999,9",,,,,"MET053METAR ENNO 211150Z 26003KT 190V300 CAVOK 16/05 Q1013;",
"01470399999","2010-09-21T12:50:00","4","59.565683","9.212222","19.2","NOTODDEN, NO","FM-15","ENNO ","V020","270,1,N,0021,1","99999,9,9,Y","009900,1,N,1","+0160,1","+0020,1","99999,9",,,,,,"10139,1,99999,9",,,,,"MET053METAR ENNO 211250Z 27004KT 220V300 CAVOK 16/02 Q1014;",
"01470399999","2010-09-21T13:50:00","4","59.565683","9.212222","19.2","NOTODDEN, NO","FM-15","ENNO ","V020","999,9,C,0000,1","99999,9,9,Y","009900,1,N,1","+0170,1","+0020,1","99999,9",,,,,,"10139,1,99999,9",,,,,"MET045METAR ENNO 211350Z 00000KT CAVOK 17/02 Q1014;",
"01470399999","2010-09-21T14:50:00","4","59.565683","9.212222","19.2","NOTODDEN, NO","FM-15","ENNO ","V020","999,9,C,0000,1","99999,9,9,Y","009900,1,N,1","+0180,1","+0020,1","99999,9",,,,,,"10149,1,99999,9",,,,,"MET045METAR ENNO 211450Z 00000KT CAVOK 18/02 Q1015;",
"01470399999","2010-09-22T04:50:00","4","59.565683","9.212222","19.2","NOTODDEN, NO","FM-15","ENNO ","V020","999,9,C,0000,1","03000,1,C,N","011265,1,N,1","+0030,1","+0020,1","99999,9","02,5,+00120,1,99,9","08,5,+03000,1,99,9",,"08,99,1,99,9,99,9,99999,9,99,9,99,9",,"10200,1,99999,9",,,,,"MET058METAR ENNO 220450Z 00000KT 9999 FEW004 OVC100 03/02 Q1020;",
"01470399999","2010-09-22T05:50:00","4","59.565683","9.212222","19.2","NOTODDEN, NO","FM-15","ENNO ","V020","999,9,C,0000,1","03300,1,C,N","011265,1,N,1","+0030,1","+0020,1","99999,9","02,5,+00120,1,99,9","07,5,+03300,1,99,9",,"07,99,1,99,9,99,9,99999,9,99,9,99,9",,"10200,1,99999,9",,,,,"MET058METAR ENNO 220550Z 00000KT 9999 FEW004 BKN110 03/02 Q1020;",
"01470399999","2010-09-22T06:50:00","4","59.565683","9.212222","19.2","NOTODDEN, NO","FM-15","ENNO ","V020","999,9,C,0000,1","03300,1,C,N","011265,1,N,1","+0040,1","+0030,1","99999,9","02,5,+00120,1,99,9","04,5,+03300,1,99,9","07,5,+04200,1,99,9","07,99,1,99,9,99,9,99999,9,99,9,99,9",,"10190,1,99999,9",,,,,"MET065METAR ENNO 220650Z 00000KT 9999 FEW004 SCT110 BKN140 04/03 Q1019;",
"01470399999","2010-09-22T07:50:00","4","59.565683","9.212222","19.2","NOTODDEN, NO","FM-15","ENNO ","V020","999,9,C,0000,1","99999,9,9,Y","009900,1,N,1","+0050,1","+0040,1","99999,9",,,,,,"10190,1,99999,9",,,,,"MET045METAR ENNO 220750Z 00000KT CAVOK 05/04 Q1019;",
"01470399999","2010-09-22T08:50:00","4","59.565683","9.212222","19.2","NOTODDEN, NO","FM-15","ENNO ","V020","999,9,C,0000,1","99999,9,9,Y","009900,1,N,1","+0070,1","+0040,1","99999,9",,,,,,"10190,1,99999,9",,,,,"MET045METAR ENNO 220850Z 00000KT CAVOK 07/04 Q1019;",
"01470399999","2010-09-22T09:50:00","4","59.565683","9.212222","19.2","NOTODDEN, NO","FM-15","ENNO ","V020","999,9,C,0000,1","99999,9,9,Y","009900,1,N,1","+0090,1","+0040,1","99999,9",,,,,,"10190,1,99999,9",,,,,"MET045METAR ENNO 220950Z 00000KT CAVOK 09/04 Q1019;",
"01470399999","2010-09-22T10:50:00","4","59.565683","9.212222","19.2","NOTODDEN, NO","FM-15","ENNO ","V020","999,9,V,0010,1","99999,9,9,Y","009900,1,N,1","+0090,1","+0040,1","99999,9",,,,,,"10180,1,99999,9",,,,,"MET045METAR ENNO 221050Z VRB02KT CAVOK 09/04 Q1018;",
"01470399999","2010-09-22T11:50:00","4","59.565683","9.212222","19.2","NOTODDEN, NO","FM-15","ENNO ","V020","999,9,C,0000,1","99999,9,9,Y","009900,1,N,1","+0110,1","+0060,1","99999,9",,,,,,"10169,1,99999,9",,,,,"MET045METAR ENNO 221150Z 00000KT CAVOK 11/06 Q1017;",
"01470399999","2010-09-22T12:50:00","4","59.565683","9.212222","19.2","NOTODDEN, NO","FM-15","ENNO ","V020","999,9,C,0000,1","99999,9,9,Y","009900,1,N,1","+0120,1","+0060,1","99999,9",,,,,,"10159,1,99999,9",,,,,"MET045METAR ENNO 221250Z 00000KT CAVOK 12/06 Q1016;",
"01470399999","2010-09-22T13:50:00","4","59.565683","9.212222","19.2","NOTODDEN, NO","FM-15","ENNO ","V020","999,9,C,0000,1","22000,1,9,N","011265,1,N,1","+0130,1","+0080,1","99999,9","02,5,+01470,1,99,9",,,"02,99,1,99,9,99,9,99999,9,99,9,99,9",,"10159,1,99999,9",,,,,"MET051METAR ENNO 221350Z 00000KT 9999 FEW049 13/08 Q1016;",
"01470399999","2010-09-22T14:50:00","4","59.565683","9.212222","19.2","NOTODDEN, NO","FM-15","ENNO ","V020","999,9,V,0005,1","01350,1,C,N","011265,1,N,1","+0130,1","+0090,1","99999,9","07,5,+01350,1,99,9",,,"07,99,1,99,9,99,9,99999,9,99,9,99,9",,"10159,1,99999,9",,,,,"MET051METAR ENNO 221450Z VRB01KT 9999 BKN045 13/09 Q1016;",
"01470399999","2010-09-23T04:50:00","4","59.565683","9.212222","19.2","NOTODDEN, NO","FM-15","ENNO ","V020","120,1,N,0041,1","01290,1,C,N","011265,1,N,1","+0140,1","+0110,1","99999,9","04,5,+00630,1,99,9","07,5,+01290,1,99,9",,"07,99,1,99,9,99,9,99999,9,99,9,99,9",,"10081,1,99999,9",,,,,"MET058METAR ENNO 230450Z 12008KT 9999 SCT021 BKN043 14/11 Q1008;",
"01470399999","2010-09-23T05:50:00","4","59.565683","9.212222","19.2","NOTODDEN, NO","FM-15","ENNO ","V020","120,1,N,0041,1","00780,1,C,N","011265,1,N,1","+0140,1","+0110,1","99999,9","02,5,+00600,1,99,9","04,5,+00780,1,99,9","07,5,+01290,1,99,9","07,99,1,99,9,99,9,99999,9,99,9,99,9",,"10081,1,99999,9",,,,,"MET065METAR ENNO 230550Z 12008KT 9999 FEW020 SCT026 BKN043 14/11 Q1008;",
"01470399999","2010-09-23T06:50:00","4","59.565683","9.212222","19.2","NOTODDEN, NO","FM-15","ENNO ","V020","110,1,N,0036,1","00780,1,C,N","011265,1,N,1","+0140,1","+0110,1","99999,9","02,5,+00630,1,99,9","07,5,+00780,1,99,9",,"07,99,1,99,9,99,9,99999,9,99,9,99,9",,"10081,1,99999,9",,,,,"MET066METAR ENNO 230650Z 11007KT 070V140 9999 FEW021 BKN026 14/11 Q1008;",
"01470399999","2010-09-23T07:50:00","4","59.565683","9.212222","19.2","NOTODDEN, NO","FM-15","ENNO ","V020","120,1,N,0051,1","00780,1,C,N","011265,1,N,1","+0150,1","+0110,1","99999,9","02,5,+00630,1,99,9","07,5,+00780,1,99,9",,"07,99,1,99,9,99,9,99999,9,99,9,99,9",,"10081,1,99999,9",,,,,"MET058METAR ENNO 230750Z 12010KT 9999 FEW021 BKN026 15/11 Q1008;",
"01470399999","2010-09-23T08:50:00","4","59.565683","9.212222","19.2","NOTODDEN, NO","FM-15","ENNO ","V020","120,1,N,0041,1","99999,9,C,N","011265,1,N,1","+0150,1","+0110,1","99999,9","02,5,+00630,1,99,9","04,5,+00780,1,99,9",,"04,99,1,99,9,99,9,99999,9,99,9,99,9",,"10081,1,99999,9",,,,,"MET058METAR ENNO 230850Z 12008KT 9999 FEW021 SCT026 15/11 Q1008;","P01 007803SCOCIG"
"01470399999","2010-09-23T09:50:00","4","59.565683","9.212222","19.2","NOTODDEN, NO","FM-15","ENNO ","V020","120,1,N,0051,1","02550,5,C,N","011265,1,N,1","+0150,1","+0110,1","99999,9","04,5,+00750,1,99,9","08,5,+02550,5,99,9",,"08,99,1,99,9,99,9,99999,9,99,9,99,9",,"10081,1,99999,9",,,,,"MET058METAR ENNO 230950Z 12010KT 9999 SCT025 OVC085 15/11 Q1008;",
"01470399999","2010-09-23T10:50:00","4","59.565683","9.212222","19.2","NOTODDEN, NO","FM-15","ENNO ","V020","100,1,N,0036,1","02550,5,C,N","011265,1,N,1","+0160,1","+0110,1","99999,9","04,5,+00810,1,99,9","07,5,+02550,5,99,9",,"07,99,1,99,9,99,9,99999,9,99,9,99,9",,"10071,1,99999,9",,,,,"MET058METAR ENNO 231050Z 10007KT 9999 SCT027 BKN085 16/11 Q1007;",
"01470399999","2010-09-23T11:50:00","4","59.565683","9.212222","19.2","NOTODDEN, NO","FM-15","ENNO ","V020","110,1,N,0041,1","02400,1,C,N","011265,1,N,1","+0160,1","+0110,1","99999,9","04,5,+00900,1,99,9","07,5,+02400,1,99,9",,"07,99,1,99,9,99,9,99999,9,99,9,99,9",,"10071,1,99999,9",,,,,"MET058METAR ENNO 231150Z 11008KT 9999 SCT030 BKN080 16/11 Q1007;",
"01470399999","2010-09-23T12:50:00","4","59.565683","9.212222","19.2","NOTODDEN, NO","FM-15","ENNO ","V020","120,1,N,0031,1","01200,1,C,N","011265,1,N,1","+0160,1","+0110,1","99999,9","04,5,+00900,1,99,9","07,5,+01200,1,99,9",,"07,99,1,99,9,99,9,99999,9,99,9,99,9",,"10061,1,99999,9",,,,,"MET058METAR ENNO 231250Z 12006KT 9999 SCT030 BKN040 16/11 Q1006;",
"01470399999","2010-09-23T13:50:00","4","59.565683","9.212222","19.2","NOTODDEN, NO","FM-15","ENNO ","V020","130,1,N,0036,1","01200,1,C,N","011265,1,N,1","+0160,1","+0110,1","99999,9","04,5,+00900,1,99,9","07,5,+01200,1,99,9",,"07,99,1,99,9,99,9,99999,9,99,9,99,9",,"10061,1,99999,9","16,1",,,,"MET063METAR ENNO 231350Z 13007KT 9999 VCSH SCT030 BKN040 16/11 Q1006;",
"01470399999","2010-09-23T14:50:00","4","59.565683","9.212222","19.2","NOTODDEN, NO","FM-15","ENNO ","V020","100,1,N,0036,1","01050,1,C,N","011265,1,N,1","+0160,1","+0120,1","99999,9","04,5,+00690,1,99,9","07,5,+01050,1,99,9",,"07,99,1,99,9,99,9,99999,9,99,9,99,9",,"10051,1,99999,9","16,1",,,,"MET063METAR ENNO 231450Z 10007KT 9999 VCSH SCT023 BKN035 16/12 Q1005;",
"01470399999","2010-09-23T15:50:00","4","59.565683","9.212222","19.2","NOTODDEN, NO","FM-15","ENNO ","V020","110,1,N,0041,1","00690,1,C,N","009000,1,N,1","+0160,1","+0120,1","99999,9","07,5,+00690,1,99,9",,,"07,99,1,99,9,99,9,99999,9,99,9,99,9",,"10051,1,99999,9","16,1",,,,"MET056METAR ENNO 231550Z 11008KT 9000 VCSH BKN023 16/12 Q1005;",
"01470399999","2010-09-24T04:50:00","4","59.565683","9.212222","19.2","NOTODDEN, NO","FM-15","ENNO ","V020","120,1,N,0031,1","00750,1,C,N","009000,1,N,1","+0130,1","+0120,1","99999,9","07,5,+00750,1,99,9",,,"07,99,1,99,9,99,9,99999,9,99,9,99,9",,"09990,1,99999,9","61,1",,,,"MET055METAR ENNO 240450Z 12006KT 9000 -RA BKN025 13/12 Q0999;",
"01470399999","2010-09-24T05:50:00","4","59.565683","9.212222","19.2","NOTODDEN, NO","FM-15","ENNO ","V020","090,1,N,0041,1","00750,1,C,N","011265,1,N,1","+0130,1","+0120,1","99999,9","02,5,+00300,1,99,9","07,5,+00750,1,99,9",,"07,99,1,99,9,99,9,99999,9,99,9,99,9",,"09990,1,99999,9","61,1",,,,"MET062METAR ENNO 240550Z 09008KT 9999 -RA FEW010 BKN025 13/12 Q0999;",
"01470399999","2010-09-24T06:50:00","4","59.565683","9.212222","19.2","NOTODDEN, NO","FM-15","ENNO ","V020","110,1,N,0031,1","00600,1,C,N","011265,1,N,1","+0130,1","+0120,1","99999,9","02,5,+00300,1,99,9","04,5,+00600,1,99,9","08,5,+01500,1,99,9","08,99,1,99,9,99,9,99999,9,99,9,99,9",,"09980,1,99999,9","61,1",,,,"MET069METAR ENNO 240650Z 11006KT 9999 -RA FEW010 SCT020 OVC050 13/12 Q0998;",
"01470399999","2010-09-24T07:50:00","4","59.565683","9.212222","19.2","NOTODDEN, NO","FM-15","ENNO ","V020","090,1,N,0026,1","00600,1,C,N","011265,1,N,1","+0140,1","+0120,1","99999,9","02,5,+00180,1,99,9","07,5,+00600,1,99,9",,"07,99,1,99,9,99,9,99999,9,99,9,99,9",,"09980,1,99999,9","61,1",,,,"MET062METAR ENNO 240750Z 09005KT 9999 -RA FEW006 BKN020 14/12 Q0998;",
"01470399999","2010-09-24T08:50:00","4","59.565683","9.212222","19.2","NOTODDEN, NO","FM-15","ENNO ","V020","110,1,N,0026,1","00600,1,C,N","009000,1,N,1","+0140,1","+0120,1","99999,9","02,5,+00000,5,99,9","04,5,+00600,1,99,9","08,5,+00900,1,99,9","08,99,1,99,9,99,9,99999,9,99,9,99,9",,"09980,1,99999,9","40,1","61,1",,,"MET074METAR ENNO 240850Z 11005KT 9000 -RA VCFG FEW000 SCT020 OVC030 14/12 Q0998;",
"01470399999","2010-09-24T09:50:00","4","59.565683","9.212222","19.2","NOTODDEN, NO","FM-15","ENNO ","V020","100,1,N,0021,1","00600,1,C,N","009000,1,N,1","+0140,1","+0120,1","99999,9","02,5,+00150,1,99,9","04,5,+00600,1,99,9","08,5,+00900,1,99,9","08,99,1,99,9,99,9,99999,9,99,9,99,9",,"09980,1,99999,9","40,1","61,1",,,"MET081METAR ENNO 240950Z 10004KT 9000 4000NW -RA VCFG FEW005 SCT020 OVC030 14/12 Q0998;",
"01470399999","2010-09-24T11:50:00","4","59.565683","9.212222","19.2","NOTODDEN, NO","FM-15","ENNO ","V020","999,9,C,0000,1","00300,1,C,N","009000,1,N,1","+0140,1","+0130,1","99999,9","07,5,+00300,1,99,9",,,"07,99,1,99,9,99,9,99999,9,99,9,99,9",,"09970,1,99999,9","40,1","61,1",,,"MET067METAR ENNO 241150Z 00000KT 9000 4000NW -RA VCFG BKN010 14/13 Q0997;",
"01470399999","2010-09-24T12:50:00","4","59.565683","9.212222","19.2","NOTODDEN, NO","FM-15","ENNO ","V020","270,1,N,0031,1","00570,1,C,N","009000,1,N,1","+0110,1","+0090,1","99999,9","02,5,+00300,1,99,9","04,5,+00570,1,99,9","07,5,+00780,1,99,9","07,99,1,99,9,99,9,99999,9,99,9,99,9",,"09970,1,99999,9","40,1","61,1",,,"MET089METAR ENNO 241250Z 27006KT 210V360 9000 4000NW -RA VCFG FEW010 SCT019 BKN026 11/09 Q0997;",
"01470399999","2010-09-24T13:50:00","4","59.565683","9.212222","19.2","NOTODDEN, NO","FM-15","ENNO ","V020","260,1,N,0021,1","00540,1,C,N","011265,1,N,1","+0100,1","+0080,1","99999,9","02,5,+00360,1,99,9","04,5,+00540,1,99,9","07,5,+00780,1,99,9","07,99,1,99,9,99,9,99999,9,99,9,99,9",,"09980,1,99999,9","51,1","61,1",,,"MET086METAR ENNO 241350Z 26004KT 210V320 9999 5000NW -RADZ FEW012 SCT018 BKN026 10/08 Q0998;",
"01470399999","2010-09-24T14:50:00","4","59.565683","9.212222","19.2","NOTODDEN, NO","FM-15","ENNO ","V020","999,9,C,0000,1","00570,1,C,N","009000,1,N,1","+0090,1","+0080,1","99999,9","02,5,+00420,1,99,9","04,5,+00570,1,99,9","07,5,+00840,1,99,9","07,99,1,99,9,99,9,99999,9,99,9,99,9",,"09990,1,99999,9","61,1",,,,"MET069METAR ENNO 241450Z 00000KT 9000 -RA FEW014 SCT019 BKN028 09/08 Q0999;",
"01470399999","2010-09-24T15:50:00","4","59.565683","9.212222","19.2","NOTODDEN, NO","FM-15","ENNO ","V020","310,1,N,0021,1","00390,1,C,N","009000,1,N,1","+0080,1","+0070,1","99999,9","02,5,+00240,1,99,9","04,5,+00390,1,99,9","07,5,+00690,1,99,9","07,99,1,99,9,99,9,99999,9,99,9,99,9",,"09990,1,99999,9","61,1",,,,"MET077METAR ENNO 241550Z 31004KT 280V010 9000 -RA FEW008 SCT013 BKN023 08/07 Q0999;",
"01470399999","2010-09-26T15:50:00","4","59.565683","9.212222","19.2","NOTODDEN, NO","FM-15","ENNO ","V020","999,9,V,0010,1","99999,9,9,Y","009900,1,N,1","+0130,1","+0010,1","99999,9",,,,,,"10200,1,99999,9",,,,,"MET045METAR ENNO 261550Z VRB02KT CAVOK 13/01 Q1020;",
"01470399999","2010-09-26T16:50:00","4","59.565683","9.212222","19.2","NOTODDEN, NO","FM-15","ENNO ","V020","999,9,C,0000,1","99999,9,9,Y","009900,1,N,1","+0110,1","+0020,1","99999,9",,,,,,"10200,1,99999,9",,,,,"MET045METAR ENNO 261650Z 00000KT CAVOK 11/02 Q1020;",
"01470399999","2010-09-26T17:50:00","4","59.565683","9.212222","19.2","NOTODDEN, NO","FM-15","ENNO ","V020","290,1,N,0021,1","99999,9,9,Y","009900,1,N,1","+0070,1","+0030,1","99999,9",,,,,,"10210,1,99999,9",,,,,"MET053METAR ENNO 261750Z 29004KT 270V010 CAVOK 07/03 Q1021;",
"01470399999","2010-09-27T04:50:00","4","59.565683","9.212222","19.2","NOTODDEN, NO","FM-15","ENNO ","V020","280,1,N,0026,1","99999,9,9,Y","009900,1,N,1","+0010,1","+0000,1","99999,9",,,,,,"10220,1,99999,9",,,,,"MET053METAR ENNO 270450Z 28005KT 250V340 CAVOK 01/00 Q1022;",
"01470399999","2010-09-27T05:50:00","4","59.565683","9.212222","19.2","NOTODDEN, NO","FM-15","ENNO ","V020","999,9,C,0000,1","99999,9,9,Y","009900,1,N,1","+0000,1","-0010,1","99999,9",,,,,,"10230,1,99999,9",,,,,"MET046METAR ENNO 270550Z 00000KT CAVOK 00/M01 Q1023;",
"01470399999","2010-09-27T06:50:00","4","59.565683","9.212222","19.2","NOTODDEN, NO","FM-15","ENNO ","V020","280,1,N,0015,1","99999,9,9,Y","009900,1,N,1","+0020,1","+0010,1","99999,9",,,,,,"10230,1,99999,9",,,,,"MET045METAR ENNO 270650Z 28003KT CAVOK 02/01 Q1023;",
"01470399999","2010-09-27T07:50:00","4","59.565683","9.212222","19.2","NOTODDEN, NO","FM-15","ENNO ","V020","270,1,N,0021,1","99999,9,9,Y","009900,1,N,1","+0040,1","+0020,1","99999,9",,,,,,"10230,1,99999,9",,,,,"MET053METAR ENNO 270750Z 27004KT 250V310 CAVOK 04/02 Q1023;",
"01470399999","2010-09-27T08:50:00","4","59.565683","9.212222","19.2","NOTODDEN, NO","FM-15","ENNO ","V020","999,9,V,0010,1","99999,9,9,Y","009900,1,N,1","+0070,1","+0030,1","99999,9",,,,,,"10230,1,99999,9",,,,,"MET045METAR ENNO 270850Z VRB02KT CAVOK 07/03 Q1023;",
"01470399999","2010-09-27T09:50:00","4","59.565683","9.212222","19.2","NOTODDEN, NO","FM-15","ENNO ","V020","340,1,N,0036,1","99999,9,9,Y","009900,1,N,1","+0110,1","+0010,1","99999,9",,,,,,"10220,1,99999,9",,,,"0077,1","MET048METAR ENNO 270950Z 34007G15KT CAVOK 11/01 Q1022;",
"01470399999","2010-09-27T10:50:00","4","59.565683","9.212222","19.2","NOTODDEN, NO","FM-15","ENNO ","V020","999,9,V,0021,1","99999,9,9,Y","009900,1,N,1","+0120,1","+0020,1","99999,9",,,,,,"10220,1,99999,9",,,,,"MET045METAR ENNO 271050Z VRB04KT CAVOK 12/02 Q1022;",
"01470399999","2010-09-27T11:50:00","4","59.565683","9.212222","19.2","NOTODDEN, NO","FM-15","ENNO ","V020","999,9,V,0031,1","99999,9,9,Y","009900,1,N,1","+0130,1","+0000,1","99999,9",,,,,,"10210,1,99999,9",,,,"0087,1","MET049METAR ENNO 271150Z VRB06G17KT CAVOK 13/M00 Q1021;",
"01470399999","2010-09-27T12:50:00","4","59.565683","9.212222","19.2","NOTODDEN, NO","FM-15","ENNO ","V020","999,9,V,0026,1","99999,9,9,Y","009900,1,N,1","+0140,1","+0010,1","99999,9",,,,,,"10210,1,99999,9",,,,,"MET045METAR ENNO 271250Z VRB05KT CAVOK 14/01 Q1021;",
"01470399999","2010-09-27T13:50:00","4","59.565683","9.212222","19.2","NOTODDEN, NO","FM-15","ENNO ","V020","999,9,V,0026,1","99999,9,9,Y","009900,1,N,1","+0140,1","-0010,1","99999,9",,,,,,"10210,1,99999,9",,,,,"MET046METAR ENNO 271350Z VRB05KT CAVOK 14/M01 Q1021;",
"01470399999","2010-09-27T14:50:00","4","59.565683","9.212222","19.2","NOTODDEN, NO","FM-15","ENNO ","V020","999,9,V,0026,1","99999,9,9,Y","009900,1,N,1","+0140,1","-0010,1","99999,9",,,,,,"10210,1,99999,9",,,,,"MET046METAR ENNO 271450Z VRB05KT CAVOK 14/M01 Q1021;",
"01470399999","2010-09-27T15:50:00","4","59.565683","9.212222","19.2","NOTODDEN, NO","FM-15","ENNO ","V020","999,9,V,0015,1","99999,9,9,Y","009900,1,N,1","+0130,1","-0020,1","99999,9",,,,,,"10210,1,99999,9",,,,,"MET046METAR ENNO 271550Z VRB03KT CAVOK 13/M02 Q1021;",
"01470399999","2010-09-28T04:50:00","4","59.565683","9.212222","19.2","NOTODDEN, NO","FM-15","ENNO ","V020","999,9,C,0000,1","99999,9,9,Y","009900,1,N,1","-0010,1","-0020,1","99999,9",,,,,,"10240,1,99999,9",,,,,"MET047METAR ENNO 280450Z 00000KT CAVOK M01/M02 Q1024;",
"01470399999","2010-09-28T05:50:00","4","59.565683","9.212222","19.2","NOTODDEN, NO","FM-15","ENNO ","V020","999,9,C,0000,1","99999,9,9,Y","009900,1,N,1","-0010,1","-0010,1","99999,9",,,,,,"10240,1,99999,9",,,,,"MET047METAR ENNO 280550Z 00000KT CAVOK M01/M01 Q1024;",
"01470399999","2010-09-28T06:50:00","4","59.565683","9.212222","19.2","NOTODDEN, NO","FM-15","ENNO ","V020","280,1,N,0015,1","99999,9,9,Y","009900,1,N,1","+0010,1","+0000,1","99999,9",,,,,,"10251,1,99999,9",,,,,"MET045METAR ENNO 280650Z 28003KT CAVOK 01/00 Q1025;",
"01470399999","2010-09-28T07:50:00","4","59.565683","9.212222","19.2","NOTODDEN, NO","FM-15","ENNO ","V020","999,9,V,0005,1","99999,9,9,Y","009900,1,N,1","+0040,1","+0020,1","99999,9",,,,,,"10251,1,99999,9",,,,,"MET045METAR ENNO 280750Z VRB01KT CAVOK 04/02 Q1025;",
"01470399999","2010-09-28T08:50:00","4","59.565683","9.212222","19.2","NOTODDEN, NO","FM-15","ENNO ","V020","999,9,C,0000,1","99999,9,9,Y","009900,1,N,1","+0080,1","+0030,1","99999,9",,,,,,"10251,1,99999,9",,,,,"MET045METAR ENNO 280850Z 00000KT CAVOK 08/03 Q1025;",
"01470399999","2010-09-28T09:50:00","4","59.565683","9.212222","19.2","NOTODDEN, NO","FM-15","ENNO ","V020","999,9,V,0021,1","99999,9,9,Y","009900,1,N,1","+0110,1","+0000,1","99999,9",,,,,,"10240,1,99999,9",,,,,"MET045METAR ENNO 280950Z VRB04KT CAVOK 11/00 Q1024;",
"01470399999","2010-09-28T10:50:00","4","59.565683","9.212222","19.2","NOTODDEN, NO","FM-15","ENNO ","V020","340,1,N,0036,1","99999,9,9,Y","009900,1,N,1","+0120,1","-0010,1","99999,9",,,,,,"10240,1,99999,9",,,,,"MET054METAR ENNO 281050Z 34007KT 260V050 CAVOK 12/M01 Q1024;",
"01470399999","2010-09-28T11:50:00","4","59.565683","9.212222","19.2","NOTODDEN, NO","FM-15","ENNO ","V020","999,9,V,0005,1","99999,9,9,Y","009900,1,N,1","+0120,1","-0010,1","99999,9",,,,,,"10240,1,99999,9",,,,,"MET046METAR ENNO 281150Z VRB01KT CAVOK 12/M01 Q1024;",
"01470399999","2010-09-28T13:50:00","4","59.565683","9.212222","19.2","NOTODDEN, NO","FM-15","ENNO ","V020","300,1,N,0041,1","99999,9,9,Y","009900,1,N,1","+0140,1","-0010,1","99999,9",,,,,,"10230,1,99999,9",,,,,"MET046METAR ENNO 281350Z 30008KT CAVOK 14/M01 Q1023;",
"01470399999","2010-09-28T14:50:00","4","59.565683","9.212222","19.2","NOTODDEN, NO","FM-15","ENNO ","V020","999,9,V,0015,1","99999,9,9,Y","009900,1,N,1","+0140,1","-0020,1","99999,9",,,,,,"10230,1,99999,9",,,,,"MET046METAR ENNO 281450Z VRB03KT CAVOK 14/M02 Q1023;",
"01470399999","2010-09-28T15:50:00","4","59.565683","9.212222","19.2","NOTODDEN, NO","FM-15","ENNO ","V020","999,9,V,0015,1","99999,9,9,Y","009900,1,N,1","+0130,1","-0020,1","99999,9",,,,,,"10230,1,99999,9",,,,,"MET046METAR ENNO 281550Z VRB03KT CAVOK 13/M02 Q1023;",
"01470399999","2010-09-29T04:50:00","4","59.565683","9.212222","19.2","NOTODDEN, NO","FM-15","ENNO ","V020","999,9,C,0000,1","22000,1,9,N","011265,1,N,1","-0020,1","-0030,1","99999,9","02,5,+00090,1,99,9",,,"02,99,1,99,9,99,9,99999,9,99,9,99,9",,"10271,1,99999,9",,,,,"MET053METAR ENNO 290450Z 00000KT 9999 FEW003 M02/M03 Q1027;",
"01470399999","2010-09-29T05:50:00","4","59.565683","9.212222","19.2","NOTODDEN, NO","FM-15","ENNO ","V020","999,9,C,0000,1","22000,1,9,N","011265,1,N,1","-0020,1","-0030,1","99999,9","02,5,+00090,1,99,9",,,"02,99,1,99,9,99,9,99999,9,99,9,99,9",,"10281,1,99999,9",,,,,"MET053METAR ENNO 290550Z 00000KT 9999 FEW003 M02/M03 Q1028;",
"01470399999","2010-09-29T06:50:00","4","59.565683","9.212222","19.2","NOTODDEN, NO","FM-15","ENNO ","V020","300,1,N,0005,1","99999,9,9,Y","009900,1,N,1","-0010,1","-0020,1","99999,9",,,,,,"10281,1,99999,9",,,,,"MET047METAR ENNO 290650Z 30001KT CAVOK M01/M02 Q1028;",
"01470399999","2010-09-29T07:50:00","4","59.565683","9.212222","19.2","NOTODDEN, NO","FM-15","ENNO ","V020","999,9,C,0000,1","99999,9,9,Y","009900,1,N,1","+0010,1","+0000,1","99999,9",,,,,,"10281,1,99999,9",,,,,"MET046METAR ENNO 290750Z 00000KT CAVOK 01/M00 Q1028;",
"01470399999","2010-09-29T08:50:00","4","59.565683","9.212222","19.2","NOTODDEN, NO","FM-15","ENNO ","V020","280,1,N,0015,1","99999,9,9,Y","009900,1,N,1","+0040,1","+0010,1","99999,9",,,,,,"10281,1,99999,9",,,,,"MET045METAR ENNO 290850Z 28003KT CAVOK 04/01 Q1028;",
"01470399999","2010-09-29T09:50:00","4","59.565683","9.212222","19.2","NOTODDEN, NO","FM-15","ENNO ","V020","999,9,C,0000,1","99999,9,9,Y","009900,1,N,1","+0070,1","+0010,1","99999,9",,,,,,"10271,1,99999,9",,,,,"MET045METAR ENNO 290950Z 00000KT CAVOK 07/01 Q1027;",
"01470399999","2010-09-29T10:50:00","4","59.565683","9.212222","19.2","NOTODDEN, NO","FM-15","ENNO ","V020","260,1,N,0015,1","99999,9,9,Y","009900,1,N,1","+0090,1","+0010,1","99999,9",,,,,,"10261,1,99999,9",,,,,"MET045METAR ENNO 291050Z 26003KT CAVOK 09/01 Q1026;",
"01470399999","2010-09-29T11:50:00","4","59.565683","9.212222","19.2","NOTODDEN, NO","FM-15","ENNO ","V020","999,9,C,0000,1","99999,9,9,Y","009900,1,N,1","+0120,1","+0020,1","99999,9",,,,,,"10261,1,99999,9",,,,,"MET045METAR ENNO 291150Z 00000KT CAVOK 12/02 Q1026;",
"01470399999","2010-09-29T12:50:00","4","59.565683","9.212222","19.2","NOTODDEN, NO","FM-15","ENNO ","V020","130,1,N,0021,1","99999,9,9,Y","009900,1,N,1","+0130,1","+0020,1","99999,9",,,,,,"10251,1,99999,9",,,,,"MET045METAR ENNO 291250Z 13004KT CAVOK 13/02 Q1025;",
"01470399999","2010-09-29T14:50:00","4","59.565683","9.212222","19.2","NOTODDEN, NO","FM-15","ENNO ","V020","120,1,N,0015,1","99999,9,9,Y","009900,1,N,1","+0130,1","+0020,1","99999,9",,,,,,"10240,1,99999,9",,,,,"MET045METAR ENNO 291450Z 12003KT CAVOK 13/02 Q1024;",
"01470399999","2010-09-30T04:50:00","4","59.565683","9.212222","19.2","NOTODDEN, NO","FM-15","ENNO ","V020","999,9,V,0005,1","22000,1,9,N","011265,1,N,1","-0020,1","-0020,1","99999,9","02,5,+00000,5,99,9",,,"02,99,1,99,9,99,9,99999,9,99,9,99,9",,"10261,1,99999,9",,,,,"MET053METAR ENNO 300450Z VRB01KT 9999 FEW000 M02/M02 Q1026;",
"01470399999","2010-09-30T05:50:00","4","59.565683","9.212222","19.2","NOTODDEN, NO","FM-15","ENNO ","V020","999,9,V,0005,1","22000,1,9,N","011265,1,N,1","-0020,1","-0020,1","99999,9","02,5,+00000,5,99,9",,,"02,99,1,99,9,99,9,99999,9,99,9,99,9",,"10261,1,99999,9",,,,,"MET053METAR ENNO 300550Z VRB01KT 9999 FEW000 M02/M02 Q1026;",
"01470399999","2010-09-30T06:50:00","4","59.565683","9.212222","19.2","NOTODDEN, NO","FM-15","ENNO ","V020","999,9,V,0005,1","22000,1,9,N","011265,1,N,1","-0010,1","-0020,1","99999,9","02,5,+00000,5,99,9",,,"02,99,1,99,9,99,9,99999,9,99,9,99,9",,"10261,1,99999,9",,,,,"MET053METAR ENNO 300650Z VRB01KT 9999 FEW000 M01/M02 Q1026;",
"01470399999","2010-09-30T07:50:00","4","59.565683","9.212222","19.2","NOTODDEN, NO","FM-15","ENNO ","V020","999,9,V,0005,1","99999,9,9,Y","009900,1,N,1","+0010,1","+0010,1","99999,9",,,,,,"10261,1,99999,9",,,,,"MET045METAR ENNO 300750Z VRB01KT CAVOK 01/01 Q1026;",
"01470399999","2010-09-30T08:50:00","4","59.565683","9.212222","19.2","NOTODDEN, NO","FM-15","ENNO ","V020","999,9,V,0005,1","99999,9,9,Y","009900,1,N,1","+0030,1","+0020,1","99999,9",,,,,,"10251,1,99999,9",,,,,"MET045METAR ENNO 300850Z VRB01KT CAVOK 03/02 Q1025;",
"01470399999","2010-09-30T09:50:00","4","59.565683","9.212222","19.2","NOTODDEN, NO","FM-15","ENNO ","V020","260,1,N,0015,1","99999,9,9,Y","009900,1,N,1","+0070,1","+0030,1","99999,9",,,,,,"10251,1,99999,9",,,,,"MET045METAR ENNO 300950Z 26003KT CAVOK 07/03 Q1025;",
"01470399999","2010-09-30T10:50:00","4","59.565683","9.212222","19.2","NOTODDEN, NO","FM-15","ENNO ","V020","270,1,N,0015,1","99999,9,9,Y","009900,1,N,1","+0100,1","+0040,1","99999,9",,,,,,"10240,1,99999,9",,,,,"MET053METAR ENNO 301050Z 27003KT 230V320 CAVOK 10/04 Q1024;",
"01470399999","2010-09-30T11:50:00","4","59.565683","9.212222","19.2","NOTODDEN, NO","FM-15","ENNO ","V020","280,1,N,0015,1","99999,9,9,Y","009900,1,N,1","+0130,1","+0040,1","99999,9",,,,,,"10230,1,99999,9",,,,,"MET045METAR ENNO 301150Z 28003KT CAVOK 13/04 Q1023;",
"01470399999","2010-09-30T12:50:00","4","59.565683","9.212222","19.2","NOTODDEN, NO","FM-15","ENNO ","V020","110,1,N,0036,1","99999,9,9,Y","009900,1,N,1","+0130,1","+0050,1","99999,9",,,,,,"10230,1,99999,9",,,,,"MET045METAR ENNO 301250Z 11007KT CAVOK 13/05 Q1023;",
"01470399999","2010-09-30T13:50:00","4","59.565683","9.212222","19.2","NOTODDEN, NO","FM-15","ENNO ","V020","100,1,N,0031,1","99999,9,9,Y","009900,1,N,1","+0140,1","+0040,1","99999,9",,,,,,"10220,1,99999,9",,,,,"MET045METAR ENNO 301350Z 10006KT CAVOK 14/04 Q1022;",
"01470399999","2010-09-30T14:50:00","4","59.565683","9.212222","19.2","NOTODDEN, NO","FM-15","ENNO ","V020","110,1,N,0031,1","99999,9,9,Y","009900,1,N,1","+0130,1","+0040,1","99999,9",,,,,,"10220,1,99999,9",,,,,"MET045METAR ENNO 301450Z 11006KT CAVOK 13/04 Q1022;",
"01470399999","2010-09-30T15:50:00","4","59.565683","9.212222","19.2","NOTODDEN, NO","FM-15","ENNO ","V020","140,1,N,0021,1","99999,9,9,Y","009900,1,N,1","+0120,1","+0040,1","99999,9",,,,,,"10220,1,99999,9",,,,,"MET045METAR ENNO 301550Z 14004KT CAVOK 12/04 Q1022;",
"01470399999","2010-10-01T04:50:00","4","59.565683","9.212222","19.2","NOTODDEN, NO","FM-15","ENNO ","V020","999,9,C,0000,1","01230,1,C,N","011265,1,N,1","+0040,1","+0030,1","99999,9","08,5,+01230,1,99,9",,,"08,99,1,99,9,99,9,99999,9,99,9,99,9",,"10210,1,99999,9",,,,,"MET051METAR ENNO 010450Z 00000KT 9999 OVC041 04/03 Q1021;",
"01470399999","2010-10-01T05:50:00","4","59.565683","9.212222","19.2","NOTODDEN, NO","FM-15","ENNO ","V020","999,9,V,0005,1","01350,1,C,N","011265,1,N,1","+0040,1","+0030,1","99999,9","08,5,+01350,1,99,9",,,"08,99,1,99,9,99,9,99999,9,99,9,99,9",,"10220,1,99999,9",,,,,"MET051METAR ENNO 010550Z VRB01KT 9999 OVC045 04/03 Q1022;",
"01470399999","2010-10-01T06:50:00","4","59.565683","9.212222","19.2","NOTODDEN, NO","FM-15","ENNO ","V020","999,9,C,0000,1","01350,1,C,N","011265,1,N,1","+0040,1","+0030,1","99999,9","08,5,+01350,1,99,9",,,"08,99,1,99,9,99,9,99999,9,99,9,99,9",,"10220,1,99999,9",,,,,"MET051METAR ENNO 010650Z 00000KT 9999 OVC045 04/03 Q1022;",
"01470399999","2010-10-01T07:50:00","4","59.565683","9.212222","19.2","NOTODDEN, NO","FM-15","ENNO ","V020","999,9,C,0000,1","01500,1,C,N","011265,1,N,1","+0050,1","+0040,1","99999,9","08,5,+01500,1,99,9",,,"08,99,1,99,9,99,9,99999,9,99,9,99,9",,"10220,1,99999,9",,,,,"MET051METAR ENNO 010750Z 00000KT 9999 OVC050 05/04 Q1022;",
"01470399999","2010-10-01T08:50:00","4","59.565683","9.212222","19.2","NOTODDEN, NO","FM-15","ENNO ","V020","999,9,C,0000,1","01710,5,C,N","011265,1,N,1","+0060,1","+0050,1","99999,9","02,5,+00900,1,99,9","08,5,+01710,5,99,9",,"08,99,1,99,9,99,9,99999,9,99,9,99,9",,"10220,1,99999,9",,,,,"MET058METAR ENNO 010850Z 00000KT 9999 FEW030 OVC057 06/05 Q1022;",
"01470399999","2010-10-01T09:50:00","4","59.565683","9.212222","19.2","NOTODDEN, NO","FM-15","ENNO ","V020","999,9,C,0000,1","00900,1,C,N","011265,1,N,1","+0080,1","+0050,1","99999,9","07,5,+00900,1,99,9","08,5,+01800,1,99,9",,"08,99,1,99,9,99,9,99999,9,99,9,99,9",,"10220,1,99999,9",,,,,"MET058METAR ENNO 010950Z 00000KT 9999 BKN030 OVC060 08/05 Q1022;",
"01470399999","2010-10-01T11:50:00","4","59.565683","9.212222","19.2","NOTODDEN, NO","FM-15","ENNO ","V020","999,9,C,0000,1","01200,1,C,N","011265,1,N,1","+0100,1","+0060,1","99999,9","07,5,+01200,1,99,9",,,"07,99,1,99,9,99,9,99999,9,99,9,99,9",,"10210,1,99999,9",,,,,"MET051METAR ENNO 011150Z 00000KT 9999 BKN040 10/06 Q1021;",
"01470399999","2010-10-01T12:50:00","4","59.565683","9.212222","19.2","NOTODDEN, NO","FM-15","ENNO ","V020","140,1,N,0041,1","01200,1,C,N","011265,1,N,1","+0100,1","+0040,1","99999,9","07,5,+01200,1,99,9",,,"07,99,1,99,9,99,9,99999,9,99,9,99,9",,"10210,1,99999,9",,,,,"MET051METAR ENNO 011250Z 14008KT 9999 BKN040 10/04 Q1021;",
"01470399999","2010-10-01T14:50:00","4","59.565683","9.212222","19.2","NOTODDEN, NO","FM-15","ENNO ","V020","120,1,N,0041,1","01500,1,C,N","011265,1,N,1","+0090,1","+0050,1","99999,9","07,5,+01500,1,99,9",,,"07,99,1,99,9,99,9,99999,9,99,9,99,9",,"10210,1,99999,9","61,1",,,,"MET055METAR ENNO 011450Z 12008KT 9999 -RA BKN050 09/05 Q1021;",
"01470399999","2010-10-03T15:50:00","4","59.565683","9.212222","19.2","NOTODDEN, NO","FM-15","ENNO ","V020","130,1,N,0015,1","00600,1,C,N","009000,1,N,1","+0100,1","+0090,1","99999,9","02,5,+00300,1,99,9","04,5,+00600,1,99,9","08,5,+00900,1,99,9","08,99,1,99,9,99,9,99999,9,99,9,99,9",,"10108,1,99999,9","61,1",,,,"MET069METAR ENNO 031550Z 13003KT 9000 -RA FEW010 SCT020 OVC030 10/09 Q1011;",
"01470399999","2010-10-03T16:50:00","4","59.565683","9.212222","19.2","NOTODDEN, NO","FM-15","ENNO ","V020","120,1,N,0026,1","00600,1,C,N","009000,1,N,1","+0100,1","+0090,1","99999,9","02,5,+00300,1,99,9","04,5,+00600,1,99,9","08,5,+00990,1,99,9","08,99,1,99,9,99,9,99999,9,99,9,99,9",,"10108,1,99999,9","61,1",,,,"MET069METAR ENNO 031650Z 12005KT 9000 -RA FEW010 SCT020 OVC033 10/09 Q1011;",
"01470399999","2010-10-03T17:50:00","4","59.565683","9.212222","19.2","NOTODDEN, NO","FM-15","ENNO ","V020","100,1,N,0021,1","00900,1,C,N","009000,1,N,1","+0110,1","+0090,1","99999,9","07,5,+00900,1,99,9",,,"07,99,1,99,9,99,9,99999,9,99,9,99,9",,"10108,1,99999,9","61,1",,,,"MET055METAR ENNO 031750Z 10004KT 9000 -RA BKN030 11/09 Q1011;",
"01470399999","2010-10-04T04:50:00","4","59.565683","9.212222","19.2","NOTODDEN, NO","FM-15","ENNO ","V020","120,1,N,0057,1","00420,1,C,N","011265,1,N,1","+0120,1","+0100,1","99999,9","07,5,+00420,1,99,9",,,"07,99,1,99,9,99,9,99999,9,99,9,99,9",,"10081,1,99999,9","61,1",,,"0108,1","MET058METAR ENNO 040450Z 12011G21KT 9999 -RA BKN014 12/10 Q1008;",
"01470399999","2010-10-04T05:50:00","4","59.565683","9.212222","19.2","NOTODDEN, NO","FM-15","ENNO ","V020","120,1,N,0093,1","00750,1,C,N","011265,1,N,1","+0120,1","+0100,1","99999,9","04,5,+00420,1,99,9","07,5,+00750,1,99,9",,"07,99,1,99,9,99,9,99999,9,99,9,99,9",,"10081,1,99999,9","61,1",,,,"MET062METAR ENNO 040550Z 12018KT 9999 -RA SCT014 BKN025 12/10 Q1008;",
"01470399999","2010-10-04T06:50:00","4","59.565683","9.212222","19.2","NOTODDEN, NO","FM-15","ENNO ","V020","120,1,N,0062,1","00480,1,C,N","011265,1,N,1","+0120,1","+0100,1","99999,9","07,5,+00480,1,99,9",,,"07,99,1,99,9,99,9,99999,9,99,9,99,9",,"10081,1,99999,9","61,1",,,,"MET062METAR ENNO 040650Z 12012KT 9999 5000NW -RA BKN016 12/10 Q1008;",
"01470399999","2010-10-04T08:20:00","4","59.565683","9.212222","19.2","NOTODDEN, NO","FM-15","ENNO ","V020","120,1,N,0072,1","00480,1,C,N","009000,1,N,1","+0120,1","+0100,1","99999,9","04,5,+00090,1,99,9","07,5,+00480,1,99,9",,"07,99,1,99,9,99,9,99999,9,99,9,99,9",,"10081,1,99999,9","61,1",,,,"MET069METAR ENNO 040820Z 12014KT 9000 5000NW -RA SCT003 BKN016 12/10 Q1008;",
"01470399999","2010-10-04T08:50:00","4","59.565683","9.212222","19.2","NOTODDEN, NO","FM-15","ENNO ","V020","110,1,N,0051,1","00480,1,C,N","009000,1,N,1","+0120,1","+0100,1","99999,9","04,5,+00090,1,99,9","07,5,+00480,1,99,9",,"07,99,1,99,9,99,9,99999,9,99,9,99,9",,"10081,1,99999,9","61,1",,,"0103,1","MET072METAR ENNO 040850Z 11010G20KT 9000 5000NW -RA SCT003 BKN016 12/10 Q1008;",
"01470399999","2010-10-04T09:50:00","4","59.565683","9.212222","19.2","NOTODDEN, NO","FM-15","ENNO ","V020","120,1,N,0026,1","00540,1,C,N","011265,1,N,1","+0120,1","+0100,1","99999,9","04,5,+00150,1,99,9","07,5,+00540,1,99,9",,"07,99,1,99,9,99,9,99999,9,99,9,99,9",,"10081,1,99999,9","61,1",,,,"MET069METAR ENNO 040950Z 12005KT 9999 6000NW -RA SCT005 BKN018 12/10 Q1008;",
"01470399999","2010-10-04T10:50:00","4","59.565683","9.212222","19.2","NOTODDEN, NO","FM-15","ENNO ","V020","140,1,N,0062,1","00540,1,C,N","011265,1,N,1","+0120,1","+0090,1","99999,9","04,5,+00150,1,99,9","07,5,+00540,1,99,9",,"07,99,1,99,9,99,9,99999,9,99,9,99,9",,"10081,1,99999,9",,,,,"MET058METAR ENNO 041050Z 14012KT 9999 SCT005 BKN018 12/09 Q1008;",
"01470399999","2010-10-04T11:50:00","4","59.565683","9.212222","19.2","NOTODDEN, NO","FM-15","ENNO ","V020","140,1,N,0046,1","00360,1,C,N","011265,1,N,1","+0120,1","+0100,1","99999,9","02,5,+00030,1,99,9","04,5,+00360,1,99,9","07,5,+00690,1,99,9","07,99,1,99,9,99,9,99999,9,99,9,99,9",,"10081,1,99999,9",,,,,"MET065METAR ENNO 041150Z 14009KT 9999 FEW001 SCT012 BKN023 12/10 Q1008;",
"01470399999","2010-10-04T12:50:00","4","59.565683","9.212222","19.2","NOTODDEN, NO","FM-15","ENNO ","V020","130,1,N,0051,1","00510,1,C,N","007000,1,N,1","+0120,1","+0100,1","99999,9","02,5,+00210,1,99,9","07,5,+00510,1,99,9",,"07,99,1,99,9,99,9,99999,9,99,9,99,9",,"10091,1,99999,9","63,1",,,,"MET069METAR ENNO 041250Z 13010KT 100V180 7000 RA FEW007 BKN017 12/10 Q1009;",
"01470399999","2010-10-04T13:50:00","4","59.565683","9.212222","19.2","NOTODDEN, NO","FM-15","ENNO ","V020","120,1,N,0051,1","00510,1,C,N","008000,1,N,1","+0120,1","+0100,1","99999,9","07,5,+00510,1,99,9",,,"07,99,1,99,9,99,9,99999,9,99,9,99,9",,"10081,1,99999,9","61,1",,,,"MET063METAR ENNO 041350Z 12010KT 100V160 8000 -RA BKN017 12/10 Q1008;",
"01470399999","2010-10-04T14:50:00","4","59.565683","9.212222","19.2","NOTODDEN, NO","FM-15","ENNO ","V020","120,1,N,0057,1","00510,1,C,N","011265,1,N,1","+0120,1","+0100,1","99999,9","07,5,+00510,1,99,9",,,"07,99,1,99,9,99,9,99999,9,99,9,99,9",,"10081,1,99999,9","61,1",,,,"MET062METAR ENNO 041450Z 12011KT 9999 9000NW -RA BKN017 12/10 Q1008;",
"01470399999","2010-10-04T15:50:00","4","59.565683","9.212222","19.2","NOTODDEN, NO","FM-15","ENNO ","V020","130,1,N,0051,1","00510,1,C,N","011265,1,N,1","+0120,1","+0100,1","99999,9","07,5,+00510,1,99,9",,,"07,99,1,99,9,99,9,99999,9,99,9,99,9",,"10081,1,99999,9","61,1",,,,"MET055METAR ENNO 041550Z 13010KT 9999 -RA BKN017 12/10 Q1008;",
"01470399999","2010-10-05T05:20:00","4","59.565683","9.212222","19.2","NOTODDEN, NO","FM-15","ENNO ","V020","120,1,N,0067,1","00510,1,C,N","011265,1,N,1","+0130,1","+0100,1","99999,9","07,5,+00510,1,99,9",,,"07,99,1,99,9,99,9,99999,9,99,9,99,9",,"10091,1,99999,9",,,,,"MET058METAR ENNO 050520Z 12013KT 9999 6000NW BKN017 13/10 Q1009;",
"01470399999","2010-10-05T05:50:00","4","59.565683","9.212222","19.2","NOTODDEN, NO","FM-15","ENNO ","V020","120,1,N,0067,1","00510,1,C,N","011265,1,N,1","+0130,1","+0100,1","99999,9","07,5,+00510,1,99,9",,,"07,99,1,99,9,99,9,99999,9,99,9,99,9",,"10091,1,99999,9",,,,,"MET051METAR ENNO 050550Z 12013KT 9999 BKN017 13/10 Q1009;",
"01470399999","2010-10-05T06:50:00","4","59.565683","9.212222","19.2","NOTODDEN, NO","FM-15","ENNO ","V020","130,1,N,0062,1","00480,1,C,N","011265,1,N,1","+0130,1","+0100,1","99999,9","08,5,+00480,1,99,9",,,"08,99,1,99,9,99,9,99999,9,99,9,99,9",,"10091,1,99999,9",,,,,"MET059METAR ENNO 050650Z 13012KT 100V170 9999 OVC016 13/10 Q1009;",
"01470399999","2010-10-05T07:50:00","4","59.565683","9.212222","19.2","NOTODDEN, NO","FM-15","ENNO ","V020","110,1,N,0077,1","00450,1,C,N","011265,1,N,1","+0120,1","+0090,1","99999,9","08,5,+00450,1,99,9",,,"08,99,1,99,9,99,9,99999,9,99,9,99,9",,"10102,1,99999,9",,,,,"MET059METAR ENNO 050750Z 11015KT 080V140 9999 OVC015 12/09 Q1010;",
"01470399999","2010-10-05T08:50:00","4","59.565683","9.212222","19.2","NOTODDEN, NO","FM-15","ENNO ","V020","110,1,N,0072,1","00450,1,C,N","011265,1,N,1","+0120,1","+0090,1","99999,9","08,5,+00450,1,99,9",,,"08,99,1,99,9,99,9,99999,9,99,9,99,9",,"10102,1,99999,9",,,,,"MET059METAR ENNO 050850Z 11014KT 070V130 9999 OVC015 12/09 Q1010;",
"01470399999","2010-10-05T09:50:00","4","59.565683","9.212222","19.2","NOTODDEN, NO","FM-15","ENNO ","V020","110,1,N,0062,1","00450,1,C,N","011265,1,N,1","+0120,1","+0090,1","99999,9","08,5,+00450,1,99,9",,,"08,99,1,99,9,99,9,99999,9,99,9,99,9",,"10102,1,99999,9",,,,,"MET051METAR ENNO 050950Z 11012KT 9999 OVC015 12/09 Q1010;",
"01470399999","2010-10-05T10:50:00","4","59.565683","9.212222","19.2","NOTODDEN, NO","FM-15","ENNO ","V020","120,1,N,0057,1","00480,1,C,N","011265,1,N,1","+0120,1","+0090,1","99999,9","08,5,+00480,1,99,9",,,"08,99,1,99,9,99,9,99999,9,99,9,99,9",,"10102,1,99999,9",,,,,"MET059METAR ENNO 051050Z 12011KT 080V140 9999 OVC016 12/09 Q1010;",
"01470399999","2010-10-05T11:50:00","4","59.565683","9.212222","19.2","NOTODDEN, NO","FM-15","ENNO ","V020","120,1,N,0051,1","00480,1,C,N","011265,1,N,1","+0120,1","+0090,1","99999,9","08,5,+00480,1,99,9",,,"08,99,1,99,9,99,9,99999,9,99,9,99,9",,"10102,1,99999,9",,,,,"MET051METAR ENNO 051150Z 12010KT 9999 OVC016 12/09 Q1010;",
"01470399999","2010-10-05T12:50:00","4","59.565683","9.212222","19.2","NOTODDEN, NO","FM-15","ENNO ","V020","130,1,N,0051,1","00510,1,C,N","011265,1,N,1","+0120,1","+0080,1","99999,9","08,5,+00510,1,99,9",,,"08,99,1,99,9,99,9,99999,9,99,9,99,9",,"10102,1,99999,9",,,,,"MET059METAR ENNO 051250Z 13010KT 100V160 9999 OVC017 12/08 Q1010;",
"01470399999","2010-10-05T14:50:00","4","59.565683","9.212222","19.2","NOTODDEN, NO","FM-15","ENNO ","V020","090,1,N,0026,1","00480,1,C,N","011265,1,N,1","+0110,1","+0080,1","99999,9","02,5,+00270,1,99,9","07,5,+00480,1,99,9","08,5,+00750,1,99,9","08,99,1,99,9,99,9,99999,9,99,9,99,9",,"10102,1,99999,9",,,,,"MET065METAR ENNO 051450Z 09005KT 9999 FEW009 BKN016 OVC025 11/08 Q1010;",
"01470399999","2010-10-06T05:20:00","4","59.565683","9.212222","19.2","NOTODDEN, NO","FM-15","ENNO ","V020","999,9,C,0000,1","00750,1,C,N","011265,1,N,1","+0100,1","+0100,1","99999,9","02,5,+00000,5,99,9","08,5,+00750,1,99,9",,"08,99,1,99,9,99,9,99999,9,99,9,99,9",,"10102,1,99999,9","40,1","51,1","61,1",,"MET076METAR ENNO 060520Z 00000KT 9999 5000NW -RADZ VCFG FEW000 OVC025 10/10 Q1010;",
"01470399999","2010-10-06T05:50:00","4","59.565683","9.212222","19.2","NOTODDEN, NO","FM-15","ENNO ","V020","999,9,C,0000,1","00600,1,C,N","011265,1,N,1","+0110,1","+0100,1","99999,9","02,5,+00000,5,99,9","07,5,+00600,1,99,9","08,5,+00900,1,99,9","08,99,1,99,9,99,9,99999,9,99,9,99,9",,"10102,1,99999,9","40,1","51,1","61,1",,"MET083METAR ENNO 060550Z 00000KT 9999 5000NW -RADZ VCFG FEW000 BKN020 OVC030 11/10 Q1010;",
"01470399999","2010-10-06T06:50:00","4","59.565683","9.212222","19.2","NOTODDEN, NO","FM-15","ENNO ","V020","100,1,N,0036,1","00540,1,C,N","011265,1,N,1","+0120,1","+0110,1","99999,9","02,5,+00000,5,99,9","07,5,+00540,1,99,9","08,5,+00810,1,99,9","08,99,1,99,9,99,9,99999,9,99,9,99,9",,"10102,1,99999,9","40,1","51,1","61,1",,"MET091METAR ENNO 060650Z 10007KT 070V130 9999 5000NW -RADZ VCFG FEW000 BKN018 OVC027 12/11 Q1010;",
"01470399999","2010-10-06T07:50:00","4","59.565683","9.212222","19.2","NOTODDEN, NO","FM-15","ENNO ","V020","100,1,N,0031,1","00540,1,C,N","011265,1,N,1","+0120,1","+0110,1","99999,9","02,5,+00330,1,99,9","07,5,+00540,1,99,9","08,5,+00810,1,99,9","08,99,1,99,9,99,9,99999,9,99,9,99,9",,"10102,1,99999,9","51,1","61,1",,,"MET079METAR ENNO 060750Z 10006KT 070V130 9999 -RADZ FEW011 BKN018 OVC027 12/11 Q1010;",
"01470399999","2010-10-06T09:50:00","4","59.565683","9.212222","19.2","NOTODDEN, NO","FM-15","ENNO ","V020","120,1,N,0077,1","00660,1,9,N","008000,1,N,1","+0120,1","+0100,1","99999,9","09,1,+00660,1,99,9",,,"09,99,1,99,9,99,9,00025,1,99,9,99,9",,"10102,1,99999,9","53,1","63,1",,,"MET055METAR ENNO 060950Z 12015KT 8000 RADZ VV022 12/10 Q1010;",
"01470399999","2010-10-06T10:50:00","4","59.565683","9.212222","19.2","NOTODDEN, NO","FM-15","ENNO ","V020","120,1,N,0082,1","00540,1,C,N","011265,1,N,1","+0120,1","+0100,1","99999,9","02,5,+00450,1,99,9","07,5,+00540,1,99,9","08,5,+00720,1,99,9","08,99,1,99,9,99,9,99999,9,99,9,99,9",,"10102,1,99999,9","53,1","63,1",,,"MET070METAR ENNO 061050Z 12016KT 9999 RADZ FEW015 BKN018 OVC024 12/10 Q1010;",
"01470399999","2010-10-06T11:50:00","4","59.565683","9.212222","19.2","NOTODDEN, NO","FM-15","ENNO ","V020","999,9,N,0067,1","00600,1,C,N","005000,1,N,1","+0120,1","+0100,1","99999,9","04,5,+00450,1,99,9","08,5,+00600,1,99,9",,"08,99,1,99,9,99,9,99999,9,99,9,99,9",,"10102,1,99999,9","53,1","63,1",,"0108,1","MET067METAR ENNO 061150Z 121013G21KT 5000 RADZ SCT015 OVC020 12/10 Q1010;",
"01470399999","2010-10-06T12:50:00","4","59.565683","9.212222","19.2","NOTODDEN, NO","FM-15","ENNO ","V020","130,1,N,0082,1","00600,1,C,N","006000,1,N,1","+0120,1","+0100,1","99999,9","04,5,+00450,1,99,9","08,5,+00600,1,99,9",,"08,99,1,99,9,99,9,99999,9,99,9,99,9",,"10091,1,99999,9","53,1","63,1",,"0134,1","MET066METAR ENNO 061250Z 13016G26KT 6000 RADZ SCT015 OVC020 12/10 Q1009;",
"01470399999","2010-10-06T13:50:00","4","59.565683","9.212222","19.2","NOTODDEN, NO","FM-15","ENNO ","V020","110,1,N,0082,1","00600,1,C,N","008000,1,N,1","+0120,1","+0100,1","99999,9","04,5,+00450,1,99,9","08,5,+00600,1,99,9",,"08,99,1,99,9,99,9,99999,9,99,9,99,9",,"10091,1,99999,9","53,1","63,1",,"0123,1","MET066METAR ENNO 061350Z 11016G24KT 8000 RADZ SCT015 OVC020 12/10 Q1009;",
"01470399999","2010-10-06T14:50:00","4","59.565683","9.212222","19.2","NOTODDEN, NO","FM-15","ENNO ","V020","120,1,N,0087,1","00600,1,C,N","008000,1,N,1","+0120,1","+0100,1","99999,9","04,5,+00450,1,99,9","08,5,+00600,1,99,9",,"08,99,1,99,9,99,9,99999,9,99,9,99,9",,"10081,1,99999,9","53,1","63,1",,"0118,1","MET066METAR ENNO 061450Z 12017G23KT 8000 RADZ SCT015 OVC020 12/10 Q1008;",
"01470399999","2010-10-06T15:50:00","4","59.565683","9.212222","19.2","NOTODDEN, NO","FM-15","ENNO ","V020","120,1,N,0093,1","00450,1,C,N","008000,1,N,1","+0120,1","+0100,1","99999,9","08,5,+00450,1,99,9",,,"08,99,1,99,9,99,9,99999,9,99,9,99,9",,"10081,1,99999,9","53,1","63,1",,"0134,1","MET059METAR ENNO 061550Z 12018G26KT 8000 RADZ OVC015 12/10 Q1008;",
"01470399999","2010-10-07T04:50:00","4","59.565683","9.212222","19.2","NOTODDEN, NO","FM-15","ENNO ","V020","280,1,N,0015,1","22000,1,9,N","011265,1,N,1","+0070,1","+0060,1","99999,9","02,5,+00000,5,99,9",,,"02,99,1,99,9,99,9,99999,9,99,9,99,9",,"10180,1,99999,9",,,,,"MET051METAR ENNO 070450Z 28003KT 9999 FEW000 07/06 Q1018;",
"01470399999","2010-10-07T05:50:00","4","59.565683","9.212222","19.2","NOTODDEN, NO","FM-15","ENNO ","V020","300,1,N,0015,1","22000,1,9,N","011265,1,N,1","+0060,1","+0050,1","99999,9","02,5,+00000,5,99,9",,,"02,99,1,99,9,99,9,99999,9,99,9,99,9",,"10200,1,99999,9","41,1",,,,"MET063METAR ENNO 070550Z 30003KT 9999 0800NW PRFG FEW000 06/05 Q1020;",
"01470399999","2010-10-07T06:50:00","4","59.565683","9.212222","19.2","NOTODDEN, NO","FM-15","ENNO ","V020","999,9,C,0000,1","99999,9,C,N","011265,1,N,1","+0050,1","+0040,1","99999,9","02,5,+00000,5,99,9","04,5,+00150,1,99,9",,"04,99,1,99,9,99,9,99999,9,99,9,99,9",,"10210,1,99999,9","41,1",,,,"MET070METAR ENNO 070650Z 00000KT 9999 0800NW PRFG FEW000 SCT005 05/04 Q1021;","P01 001503SCOCIG"
"01470399999","2010-10-07T08:50:00","4","59.565683","9.212222","19.2","NOTODDEN, NO","FM-15","ENNO ","V020","130,1,N,0015,1","22000,1,9,N","011265,1,N,1","+0090,1","+0070,1","99999,9","02,5,+00150,1,99,9",,,"02,99,1,99,9,99,9,99999,9,99,9,99,9",,"10230,1,99999,9",,,,,"MET051METAR ENNO 070850Z 13003KT 9999 FEW005 09/07 Q1023;",
"01470399999","2010-10-07T09:50:00","4","59.565683","9.212222","19.2","NOTODDEN, NO","FM-15","ENNO ","V020","140,1,N,0026,1","99999,9,9,Y","009900,1,N,1","+0100,1","+0080,1","99999,9",,,,,,"10230,1,99999,9",,,,,"MET045METAR ENNO 070950Z 14005KT CAVOK 10/08 Q1023;",
"01470399999","2010-10-07T10:50:00","4","59.565683","9.212222","19.2","NOTODDEN, NO","FM-15","ENNO ","V020","999,9,V,0010,1","99999,9,9,Y","009900,1,N,1","+0110,1","+0070,1","99999,9",,,,,,"10230,1,99999,9",,,,,"MET045METAR ENNO 071050Z VRB02KT CAVOK 11/07 Q1023;",
"01470399999","2010-10-07T11:50:00","4","59.565683","9.212222","19.2","NOTODDEN, NO","FM-15","ENNO ","V020","999,9,V,0010,1","22000,1,9,N","011265,1,N,1","+0140,1","+0080,1","99999,9","02,5,+01200,1,99,9",,,"02,99,1,99,9,99,9,99999,9,99,9,99,9",,"10240,1,99999,9",,,,,"MET051METAR ENNO 071150Z VRB02KT 9999 FEW040 14/08 Q1024;",
"01470399999","2010-10-07T12:50:00","4","59.565683","9.212222","19.2","NOTODDEN, NO","FM-15","ENNO ","V020","120,1,N,0026,1","22000,1,9,N","011265,1,N,1","+0150,1","+0090,1","99999,9","02,5,+01200,1,99,9",,,"02,99,1,99,9,99,9,99999,9,99,9,99,9",,"10240,1,99999,9",,,,,"MET051METAR ENNO 071250Z 12005KT 9999 FEW040 15/09 Q1024;",
"01470399999","2010-10-07T13:50:00","4","59.565683","9.212222","19.2","NOTODDEN, NO","FM-15","ENNO ","V020","110,1,N,0026,1","22000,1,9,N","011265,1,N,1","+0160,1","+0080,1","99999,9","02,5,+01200,1,99,9",,,"02,99,1,99,9,99,9,99999,9,99,9,99,9",,"10240,1,99999,9",,,,,"MET051METAR ENNO 071350Z 11005KT 9999 FEW040 16/08 Q1024;",
"01470399999","2010-10-07T14:50:00","4","59.565683","9.212222","19.2","NOTODDEN, NO","FM-15","ENNO ","V020","999,9,V,0005,1","22000,1,9,N","011265,1,N,1","+0140,1","+0090,1","99999,9","04,5,+01500,1,99,9",,,"04,99,1,99,9,99,9,99999,9,99,9,99,9",,"10251,1,99999,9",,,,,"MET051METAR ENNO 071450Z VRB01KT 9999 SCT050 14/09 Q1025;",
"01470399999","2010-10-08T05:20:00","4","59.565683","9.212222","19.2","NOTODDEN, NO","FM-15","ENNO ","V020","270,1,N,0015,1","00240,1,C,N","001500,1,N,1","+0020,1","+0020,1","99999,9","08,5,+00240,1,99,9",,,"08,99,1,99,9,99,9,99999,9,99,9,99,9",,"10318,1,99999,9","10,1",,,,"MET054METAR ENNO 080520Z 27003KT 1500 BR OVC008 02/02 Q1032;",
"01470399999","2010-10-08T05:50:00","4","59.565683","9.212222","19.2","NOTODDEN, NO","FM-15","ENNO ","V020","280,1,N,0015,1","00240,1,C,N","009000,1,N,1","+0030,1","+0020,1","99999,9","02,5,+00060,1,99,9","08,5,+00240,1,99,9",,"08,99,1,99,9,99,9,99999,9,99,9,99,9",,"10318,1,99999,9",,,,,"MET066METAR ENNO 080550Z 28003KT 200V300 9000 FEW002 OVC008 03/02 Q1032;",
"01470399999","2010-10-08T06:50:00","4","59.565683","9.212222","19.2","NOTODDEN, NO","FM-15","ENNO ","V020","999,9,V,0005,1","00090,1,C,N","003000,1,N,1","+0040,1","+0030,1","99999,9","08,5,+00090,1,99,9",,,"08,99,1,99,9,99,9,99999,9,99,9,99,9",,"10329,1,99999,9","10,1",,,,"MET054METAR ENNO 080650Z VRB01KT 3000 BR OVC003 04/03 Q1033;",
"01470399999","2010-10-08T07:50:00","4","59.565683","9.212222","19.2","NOTODDEN, NO","FM-15","ENNO ","V020","999,9,V,0010,1","00030,1,C,N","001200,1,N,1","+0050,1","+0040,1","99999,9","08,5,+00030,1,99,9",,,"08,99,1,99,9,99,9,99999,9,99,9,99,9",,"10329,1,99999,9","10,1",,,,"MET054METAR ENNO 080750Z VRB02KT 1200 BR OVC001 05/04 Q1033;",
"01470399999","2010-10-08T08:50:00","4","59.565683","9.212222","19.2","NOTODDEN, NO","FM-15","ENNO ","V020","270,1,N,0015,1","00030,1,C,N","002000,1,N,1","+0050,1","+0050,1","99999,9","07,5,+00030,1,99,9",,,"07,99,1,99,9,99,9,99999,9,99,9,99,9",,"10329,1,99999,9","40,1",,,,"MET056METAR ENNO 080850Z 27003KT 2000 VCFG BKN001 05/05 Q1033;",
"01470399999","2010-10-08T09:50:00","4","59.565683","9.212222","19.2","NOTODDEN, NO","FM-15","ENNO ","V020","270,1,N,0015,1","00030,1,C,N","002000,1,N,1","+0060,1","+0050,1","99999,9","07,5,+00030,1,99,9",,,"07,99,1,99,9,99,9,99999,9,99,9,99,9",,"10329,1,99999,9","40,1",,,,"MET056METAR ENNO 080950Z 27003KT 2000 VCFG BKN001 06/05 Q1033;",
"01470399999","2010-10-08T10:50:00","4","59.565683","9.212222","19.2","NOTODDEN, NO","FM-15","ENNO ","V020","999,9,V,0005,1","22000,1,9,N","011265,1,N,1","+0080,1","+0070,1","99999,9","02,5,+01200,1,99,9",,,"02,99,1,99,9,99,9,99999,9,99,9,99,9",,"10329,1,99999,9",,,,,"MET051METAR ENNO 081050Z VRB01KT 9999 FEW040 08/07 Q1033;",
"01470399999","2010-10-08T11:50:00","4","59.565683","9.212222","19.2","NOTODDEN, NO","FM-15","ENNO ","V020","130,1,N,0021,1","22000,1,9,N","011265,1,N,1","+0100,1","+0070,1","99999,9","02,5,+01200,1,99,9",,,"02,99,1,99,9,99,9,99999,9,99,9,99,9",,"10329,1,99999,9",,,,,"MET059METAR ENNO 081150Z 13004KT 100V170 9999 FEW040 10/07 Q1033;",
"01470399999","2010-10-08T12:50:00","4","59.565683","9.212222","19.2","NOTODDEN, NO","FM-15","ENNO ","V020","130,1,N,0021,1","22000,1,9,N","011265,1,N,1","+0120,1","+0070,1","99999,9","02,5,+01200,1,99,9",,,"02,99,1,99,9,99,9,99999,9,99,9,99,9",,"10318,1,99999,9",,,,,"MET051METAR ENNO 081250Z 13004KT 9999 FEW040 12/07 Q1032;",
"01470399999","2010-10-08T13:50:00","4","59.565683","9.212222","19.2","NOTODDEN, NO","FM-15","ENNO ","V020","140,1,N,0021,1","22000,1,9,N","011265,1,N,1","+0120,1","+0080,1","99999,9","02,5,+01200,1,99,9",,,"02,99,1,99,9,99,9,99999,9,99,9,99,9",,"10318,1,99999,9",,,,,"MET051METAR ENNO 081350Z 14004KT 9999 FEW040 12/08 Q1032;",
"01470399999","2010-10-08T14:50:00","4","59.565683","9.212222","19.2","NOTODDEN, NO","FM-15","ENNO ","V020","110,1,N,0046,1","99999,9,9,Y","009900,1,N,1","+0120,1","+0080,1","99999,9",,,,,,"10318,1,99999,9",,,,,"MET045METAR ENNO 081450Z 11009KT CAVOK 12/08 Q1032;",
"01470399999","2010-10-08T15:50:00","4","59.565683","9.212222","19.2","NOTODDEN, NO","FM-15","ENNO ","V020","100,1,N,0046,1","99999,9,9,Y","009900,1,N,1","+0110,1","+0080,1","99999,9",,,,,,"10318,1,99999,9",,,,,"MET045METAR ENNO 081550Z 10009KT CAVOK 11/08 Q1032;",
"01470399999","2010-10-10T08:50:00","4","59.565683","9.212222","19.2","NOTODDEN, NO","FM-15","ENNO ","V020","280,1,N,0021,1","00300,1,C,N","011265,1,N,1","+0050,1","+0030,1","99999,9","07,5,+00300,1,99,9",,,"07,99,1,99,9,99,9,99999,9,99,9,99,9",,"10240,1,99999,9",,,,,"MET051METAR ENNO 100850Z 28004KT 9999 BKN010 05/03 Q1024;",
"01470399999","2010-10-10T09:50:00","4","59.565683","9.212222","19.2","NOTODDEN, NO","FM-15","ENNO ","V020","999,9,V,0005,1","99999,9,9,Y","009900,1,N,1","+0070,1","+0040,1","99999,9",,,,,,"10240,1,99999,9",,,,,"MET045METAR ENNO 100950Z VRB01KT CAVOK 07/04 Q1024;",
"01470399999","2010-10-10T15:50:00","4","59.565683","9.212222","19.2","NOTODDEN, NO","FM-15","ENNO ","V020","999,9,V,0010,1","99999,9,9,Y","009900,1,N,1","+0100,1","+0060,1","99999,9",,,,,,"10230,1,99999,9",,,,,"MET045METAR ENNO 101550Z VRB02KT CAVOK 10/06 Q1023;",
"01470399999","2010-10-10T16:50:00","4","59.565683","9.212222","19.2","NOTODDEN, NO","FM-15","ENNO ","V020","999,9,C,0000,1","99999,9,9,Y","009900,1,N,1","+0080,1","+0050,1","99999,9",,,,,,"10230,1,99999,9",,,,,"MET045METAR ENNO 101650Z 00000KT CAVOK 08/05 Q1023;",
"01470399999","2010-10-11T04:50:00","4","59.565683","9.212222","19.2","NOTODDEN, NO","FM-15","ENNO ","V020","320,1,N,0005,1","00120,1,C,N","011265,1,N,1","+0000,1","+0000,1","99999,9","08,5,+00120,1,99,9",,,"08,99,1,99,9,99,9,99999,9,99,9,99,9",,"10230,1,99999,9",,,,,"MET052METAR ENNO 110450Z 32001KT 9999 OVC004 00/M00 Q1023;",
"01470399999","2010-10-11T05:50:00","4","59.565683","9.212222","19.2","NOTODDEN, NO","FM-15","ENNO ","V020","999,9,V,0010,1","00060,1,9,N","001000,1,N,1","+0010,1","+0010,1","99999,9","09,1,+00060,1,99,9",,,"09,99,1,99,9,99,9,00025,1,99,9,99,9",,"10230,1,99999,9","45,1",,,,"MET053METAR ENNO 110550Z VRB02KT 1000 FG VV002 01/01 Q1023;",
"01470399999","2010-10-11T06:50:00","4","59.565683","9.212222","19.2","NOTODDEN, NO","FM-15","ENNO ","V020","290,1,N,0010,1","00060,1,9,N","001500,1,N,1","+0010,1","+0010,1","99999,9","09,1,+00060,1,99,9",,,"09,99,1,99,9,99,9,00025,1,99,9,99,9",,"10230,1,99999,9","10,1",,,,"MET053METAR ENNO 110650Z 29002KT 1500 BR VV002 01/01 Q1023;",
"01470399999","2010-10-11T07:50:00","4","59.565683","9.212222","19.2","NOTODDEN, NO","FM-15","ENNO ","V020","999,9,V,0010,1","00090,1,C,N","004000,1,N,1","+0020,1","+0020,1","99999,9","08,5,+00090,1,99,9",,,"08,99,1,99,9,99,9,99999,9,99,9,99,9",,"10220,1,99999,9","10,1",,,,"MET054METAR ENNO 110750Z VRB02KT 4000 BR OVC003 02/02 Q1022;",
"01470399999","2010-10-11T08:50:00","4","59.565683","9.212222","19.2","NOTODDEN, NO","FM-15","ENNO ","V020","999,9,V,0010,1","00150,1,C,N","009000,1,N,1","+0020,1","+0020,1","99999,9","08,5,+00150,1,99,9",,,"08,99,1,99,9,99,9,99999,9,99,9,99,9",,"10220,1,99999,9",,,,,"MET051METAR ENNO 110850Z VRB02KT 9000 OVC005 02/02 Q1022;",
"01470399999","2010-10-11T09:50:00","4","59.565683","9.212222","19.2","NOTODDEN, NO","FM-15","ENNO ","V020","999,9,V,0010,1","00120,1,C,N","009000,1,N,1","+0030,1","+0020,1","99999,9","08,5,+00120,1,99,9",,,"08,99,1,99,9,99,9,99999,9,99,9,99,9",,"10220,1,99999,9",,,,,"MET051METAR ENNO 110950Z VRB02KT 9000 OVC004 03/02 Q1022;",
"01470399999","2010-10-11T10:50:00","4","59.565683","9.212222","19.2","NOTODDEN, NO","FM-15","ENNO ","V020","999,9,V,0010,1","00120,1,C,N","009000,1,N,1","+0030,1","+0030,1","99999,9","08,5,+00120,1,99,9",,,"08,99,1,99,9,99,9,99999,9,99,9,99,9",,"10210,1,99999,9",,,,,"MET051METAR ENNO 111050Z VRB02KT 9000 OVC004 03/03 Q1021;",
"01470399999","2010-10-11T11:50:00","4","59.565683","9.212222","19.2","NOTODDEN, NO","FM-15","ENNO ","V020","340,1,N,0015,1","00120,1,C,N","011265,1,N,1","+0040,1","+0030,1","99999,9","08,5,+00120,1,99,9",,,"08,99,1,99,9,99,9,99999,9,99,9,99,9",,"10210,1,99999,9",,,,,"MET059METAR ENNO 111150Z 34003KT 260V030 9999 OVC004 04/03 Q1021;",
"01470399999","2010-10-11T12:50:00","4","59.565683","9.212222","19.2","NOTODDEN, NO","FM-15","ENNO ","V020","999,9,V,0010,1","00120,1,C,N","011265,1,N,1","+0040,1","+0030,1","99999,9","08,5,+00120,1,99,9",,,"08,99,1,99,9,99,9,99999,9,99,9,99,9",,"10200,1,99999,9",,,,,"MET051METAR ENNO 111250Z VRB02KT 9999 OVC004 04/03 Q1020;",
"01470399999","2010-10-11T13:50:00","4","59.565683","9.212222","19.2","NOTODDEN, NO","FM-15","ENNO ","V020","150,1,N,0015,1","99999,9,C,N","011265,1,N,1","+0050,1","+0040,1","99999,9","02,5,+00120,1,99,9","04,5,+00270,1,99,9",,"04,99,1,99,9,99,9,99999,9,99,9,99,9",,"10200,1,99999,9",,,,,"MET066METAR ENNO 111350Z 15003KT 100V200 9999 FEW004 SCT009 05/04 Q1020;","P01 002703SCOCIG"
"01470399999","2010-10-11T14:50:00","4","59.565683","9.212222","19.2","NOTODDEN, NO","FM-15","ENNO ","V020","150,1,N,0015,1","99999,9,9,Y","009900,1,N,1","+0060,1","+0040,1","99999,9",,,,,,"10190,1,99999,9",,,,,"MET053METAR ENNO 111450Z 15003KT 120V230 CAVOK 06/04 Q1019;",
"01470399999","2010-10-11T15:50:00","4","59.565683","9.212222","19.2","NOTODDEN, NO","FM-15","ENNO ","V020","999,9,V,0010,1","99999,9,9,Y","009900,1,N,1","+0060,1","+0030,1","99999,9",,,,,,"10190,1,99999,9",,,,,"MET045METAR ENNO 111550Z VRB02KT CAVOK 06/03 Q1019;",
"01470399999","2010-10-12T04:50:00","4","59.565683","9.212222","19.2","NOTODDEN, NO","FM-15","ENNO ","V020","999,9,V,0010,1","00090,1,9,N","000800,1,N,1","+0010,1","+0010,1","99999,9","09,1,+00090,1,99,9",,,"09,99,1,99,9,99,9,00025,1,99,9,99,9",,"10190,1,99999,9","45,1",,,,"MET053METAR ENNO 120450Z VRB02KT 0800 FG VV003 01/01 Q1019;",
"01470399999","2010-10-12T05:50:00","4","59.565683","9.212222","19.2","NOTODDEN, NO","FM-15","ENNO ","V020","999,9,V,0010,1","00090,1,9,N","000600,1,N,1","+0010,1","+0010,1","99999,9","09,1,+00090,1,99,9",,,"09,99,1,99,9,99,9,00025,1,99,9,99,9",,"10190,1,99999,9","45,1",,,,"MET053METAR ENNO 120550Z VRB02KT 0600 FG VV003 01/01 Q1019;",
"01470399999","2010-10-12T06:50:00","4","59.565683","9.212222","19.2","NOTODDEN, NO","FM-15","ENNO ","V020","999,9,V,0010,1","00090,1,9,N","000900,1,N,1","+0010,1","+0010,1","99999,9","09,1,+00090,1,99,9",,,"09,99,1,99,9,99,9,00025,1,99,9,99,9",,"10200,1,99999,9","45,1",,,,"MET053METAR ENNO 120650Z VRB02KT 0900 FG VV003 01/01 Q1020;",
"01470399999","2010-10-12T07:50:00","4","59.565683","9.212222","19.2","NOTODDEN, NO","FM-15","ENNO ","V020","300,1,N,0026,1","00090,1,C,N","001200,1,N,1","+0010,1","+0010,1","99999,9","08,5,+00090,1,99,9",,,"08,99,1,99,9,99,9,99999,9,99,9,99,9",,"10200,1,99999,9","10,1",,,,"MET054METAR ENNO 120750Z 30005KT 1200 BR OVC003 01/01 Q1020;",
"01470399999","2010-10-12T08:50:00","4","59.565683","9.212222","19.2","NOTODDEN, NO","FM-15","ENNO ","V020","999,9,V,0005,1","00090,1,C,N","001200,1,N,1","+0020,1","+0010,1","99999,9","08,5,+00090,1,99,9",,,"08,99,1,99,9,99,9,99999,9,99,9,99,9",,"10200,1,99999,9","10,1",,,,"MET054METAR ENNO 120850Z VRB01KT 1200 BR OVC003 02/01 Q1020;",
"01470399999","2010-10-12T09:50:00","4","59.565683","9.212222","19.2","NOTODDEN, NO","FM-15","ENNO ","V020","270,1,N,0021,1","22000,1,9,N","011265,1,N,1","+0030,1","+0030,1","99999,9","02,5,+00000,5,99,9",,,"02,99,1,99,9,99,9,99999,9,99,9,99,9",,"10200,1,99999,9",,,,,"MET057METAR ENNO 120950Z 27004KT 9999 3000W FEW000 03/03 Q1020;",
"01470399999","2010-10-12T10:50:00","4","59.565683","9.212222","19.2","NOTODDEN, NO","FM-15","ENNO ","V020","270,1,N,0015,1","22000,1,9,N","011265,1,N,1","+0050,1","+0040,1","99999,9","02,5,+00000,5,99,9",,,"02,99,1,99,9,99,9,99999,9,99,9,99,9",,"10200,1,99999,9",,,,,"MET059METAR ENNO 121050Z 27003KT 240V300 9999 FEW000 05/04 Q1020;",
"01470399999","2010-10-12T11:50:00","4","59.565683","9.212222","19.2","NOTODDEN, NO","FM-15","ENNO ","V020","130,1,N,0021,1","99999,9,9,Y","009900,1,N,1","+0080,1","+0050,1","99999,9",,,,,,"10190,1,99999,9",,,,,"MET053METAR ENNO 121150Z 13004KT 110V190 CAVOK 08/05 Q1019;",
"01470399999","2010-10-12T12:50:00","4","59.565683","9.212222","19.2","NOTODDEN, NO","FM-15","ENNO ","V020","140,1,N,0036,1","99999,9,9,Y","009900,1,N,1","+0100,1","+0040,1","99999,9",,,,,,"10190,1,99999,9",,,,,"MET045METAR ENNO 121250Z 14007KT CAVOK 10/04 Q1019;",
"01470399999","2010-10-12T13:50:00","4","59.565683","9.212222","19.2","NOTODDEN, NO","FM-15","ENNO ","V020","100,1,N,0031,1","99999,9,9,Y","009900,1,N,1","+0120,1","+0030,1","99999,9",,,,,,"10180,1,99999,9",,,,,"MET053METAR ENNO 121350Z 10006KT 070V130 CAVOK 12/03 Q1018;",
"01470399999","2010-10-12T14:50:00","4","59.565683","9.212222","19.2","NOTODDEN, NO","FM-15","ENNO ","V020","090,1,N,0041,1","99999,9,9,Y","009900,1,N,1","+0110,1","+0030,1","99999,9",,,,,,"10180,1,99999,9",,,,,"MET053METAR ENNO 121450Z 09008KT 050V120 CAVOK 11/03 Q1018;",
"01470399999","2010-10-12T15:50:00","4","59.565683","9.212222","19.2","NOTODDEN, NO","FM-15","ENNO ","V020","110,1,N,0036,1","99999,9,9,Y","009900,1,N,1","+0100,1","+0030,1","99999,9",,,,,,"10190,1,99999,9",,,,,"MET045METAR ENNO 121550Z 11007KT CAVOK 10/03 Q1019;",
"01470399999","2010-10-13T04:50:00","4","59.565683","9.212222","19.2","NOTODDEN, NO","FM-15","ENNO ","V020","260,1,N,0015,1","00090,1,C,N","009000,1,N,1","+0000,1","-0010,1","99999,9","02,5,+00000,5,99,9","08,5,+00090,1,99,9",,"08,99,1,99,9,99,9,99999,9,99,9,99,9",,"10180,1,99999,9",,,,,"MET075METAR ENNO 130450Z 26003KT 220V300 9000 4000NW FEW000 OVC003 M00/M01 Q1018;",
"01470399999","2010-10-13T05:50:00","4","59.565683","9.212222","19.2","NOTODDEN, NO","FM-15","ENNO ","V020","260,1,N,0015,1","00090,1,9,N","000900,1,N,1","+0000,1","-0010,1","99999,9","09,1,+00090,1,99,9",,,"09,99,1,99,9,99,9,00025,1,99,9,99,9",,"10180,1,99999,9","45,1",,,,"MET062METAR ENNO 130550Z 26003KT 230V300 0900 FG VV003 00/M01 Q1018;",
"01470399999","2010-10-13T06:50:00","4","59.565683","9.212222","19.2","NOTODDEN, NO","FM-15","ENNO ","V020","999,9,V,0005,1","00090,1,9,N","000900,1,N,1","+0010,1","+0000,1","99999,9","09,1,+00090,1,99,9",,,"09,99,1,99,9,99,9,00025,1,99,9,99,9",,"10180,1,99999,9","45,1",,,,"MET053METAR ENNO 130650Z VRB01KT 0900 FG VV003 01/00 Q1018;",
"01470399999","2010-10-13T07:50:00","4","59.565683","9.212222","19.2","NOTODDEN, NO","FM-15","ENNO ","V020","999,9,V,0005,1","00180,1,C,N","009000,1,N,1","+0010,1","+0000,1","99999,9","04,5,+00090,1,99,9","07,5,+00180,1,99,9","08,5,+00270,1,99,9","08,99,1,99,9,99,9,99999,9,99,9,99,9",,"10169,1,99999,9",,,,,"MET065METAR ENNO 130750Z VRB01KT 9000 SCT003 BKN006 OVC009 01/00 Q1017;",
"01470399999","2010-10-13T09:50:00","4","59.565683","9.212222","19.2","NOTODDEN, NO","FM-15","ENNO ","V020","310,1,N,0015,1","22000,1,9,N","011265,1,N,1","+0030,1","+0020,1","99999,9","02,5,+00240,1,99,9",,,"02,99,1,99,9,99,9,99999,9,99,9,99,9",,"10169,1,99999,9",,,,,"MET059METAR ENNO 130950Z 31003KT 260V020 9999 FEW008 03/02 Q1017;",
"01470399999","2010-10-13T10:50:00","4","59.565683","9.212222","19.2","NOTODDEN, NO","FM-15","ENNO ","V020","270,1,N,0036,1","99999,9,9,Y","009900,1,N,1","+0030,1","+0020,1","99999,9",,,,,,"10159,1,99999,9",,,,,"MET045METAR ENNO 131050Z 27007KT CAVOK 03/02 Q1016;",
"01470399999","2010-10-13T11:50:00","4","59.565683","9.212222","19.2","NOTODDEN, NO","FM-15","ENNO ","V020","999,9,V,0010,1","99999,9,9,Y","009900,1,N,1","+0060,1","+0030,1","99999,9",,,,,,"10149,1,99999,9",,,,,"MET045METAR ENNO 131150Z VRB02KT CAVOK 06/03 Q1015;",
"01470399999","2010-10-13T12:50:00","4","59.565683","9.212222","19.2","NOTODDEN, NO","FM-15","ENNO ","V020","999,9,V,0010,1","99999,9,9,Y","009900,1,N,1","+0060,1","+0030,1","99999,9",,,,,,"10139,1,99999,9",,,,,"MET045METAR ENNO 131250Z VRB02KT CAVOK 06/03 Q1014;",
"01470399999","2010-10-13T13:50:00","4","59.565683","9.212222","19.2","NOTODDEN, NO","FM-15","ENNO ","V020","999,9,V,0010,1","99999,9,9,Y","009900,1,N,1","+0070,1","+0030,1","99999,9",,,,,,"10139,1,99999,9",,,,,"MET045METAR ENNO 131350Z VRB02KT CAVOK 07/03 Q1014;",
"01470399999","2010-10-13T14:50:00","4","59.565683","9.212222","19.2","NOTODDEN, NO","FM-15","ENNO ","V020","999,9,V,0005,1","99999,9,9,Y","009900,1,N,1","+0070,1","+0030,1","99999,9",,,,,,"10129,1,99999,9",,,,,"MET045METAR ENNO 131450Z VRB01KT CAVOK 07/03 Q1013;",
"01470399999","2010-10-13T15:50:00","4","59.565683","9.212222","19.2","NOTODDEN, NO","FM-15","ENNO ","V020","999,9,C,0000,1","99999,9,9,Y","009900,1,N,1","+0060,1","+0030,1","99999,9",,,,,,"10129,1,99999,9",,,,,"MET045METAR ENNO 131550Z 00000KT CAVOK 06/03 Q1013;",
"01470399999","2010-10-14T04:50:00","4","59.565683","9.212222","19.2","NOTODDEN, NO","FM-15","ENNO ","V020","300,1,N,0021,1","00060,1,9,N","001100,1,N,1","+0000,1","+0000,1","99999,9","09,1,+00060,1,99,9",,,"09,99,1,99,9,99,9,00025,1,99,9,99,9",,"10071,1,99999,9","10,1",,,,"MET055METAR ENNO 140450Z 30004KT 1100 BR VV002 M00/M00 Q1007;",
"01470399999","2010-10-14T05:50:00","4","59.565683","9.212222","19.2","NOTODDEN, NO","FM-15","ENNO ","V020","999,9,C,0000,1","00030,1,9,N","000800,1,N,1","+0000,1","-0010,1","99999,9","09,1,+00030,1,99,9",,,"09,99,1,99,9,99,9,00025,1,99,9,99,9",,"10071,1,99999,9","49,1",,,,"MET057METAR ENNO 140550Z 00000KT 0800 FZFG VV001 M00/M01 Q1007;",
"01470399999","2010-10-14T07:20:00","4","59.565683","9.212222","19.2","NOTODDEN, NO","FM-15","ENNO ","V020","999,9,V,0005,1","00060,1,9,N","000900,1,N,1","+0000,1","+0000,1","99999,9","09,1,+00060,1,99,9",,,"09,99,1,99,9,99,9,00025,1,99,9,99,9",,"10081,1,99999,9","49,1",,,,"MET057METAR ENNO 140720Z VRB01KT 0900 FZFG VV002 M00/M00 Q1008;",
"01470399999","2010-10-14T07:50:00","4","59.565683","9.212222","19.2","NOTODDEN, NO","FM-15","ENNO ","V020","999,9,V,0005,1","22000,1,9,N","001500,1,N,1","+0000,1","+0000,1","99999,9",,,,"00,99,1,99,9,99,9,99999,9,99,9,99,9",,"10091,1,99999,9","10,1",,,,"MET051METAR ENNO 140750Z VRB01KT 1500 BR NSC 00/00 Q1009;","Q01    003SCCGA1"
"01470399999","2010-10-14T08:50:00","4","59.565683","9.212222","19.2","NOTODDEN, NO","FM-15","ENNO ","V020","999,9,V,0010,1","22000,1,9,N","001500,1,N,1","+0020,1","+0020,1","99999,9","02,5,+01500,1,99,9",,,"02,99,1,99,9,99,9,99999,9,99,9,99,9",,"10091,1,99999,9","10,1",,,,"MET054METAR ENNO 140850Z VRB02KT 1500 BR FEW050 02/02 Q1009;",
"01470399999","2010-10-14T09:50:00","4","59.565683","9.212222","19.2","NOTODDEN, NO","FM-15","ENNO ","V020","130,1,N,0021,1","02460,5,C,N","011265,1,N,1","+0050,1","+0050,1","99999,9","04,5,+01950,5,99,9","07,5,+02460,5,99,9",,"07,99,1,99,9,99,9,99999,9,99,9,99,9",,"10091,1,99999,9",,,,,"MET058METAR ENNO 140950Z 13004KT 9999 SCT065 BKN082 05/05 Q1009;",
"01470399999","2010-10-14T10:50:00","4","59.565683","9.212222","19.2","NOTODDEN, NO","FM-15","ENNO ","V020","140,1,N,0015,1","02340,5,C,N","011265,1,N,1","+0060,1","+0060,1","99999,9","02,5,+01650,5,99,9","07,5,+02340,5,99,9",,"07,99,1,99,9,99,9,99999,9,99,9,99,9",,"10102,1,99999,9",,,,,"MET066METAR ENNO 141050Z 14003KT 110V190 9999 FEW055 BKN078 06/06 Q1010;",
"01470399999","2010-10-14T11:50:00","4","59.565683","9.212222","19.2","NOTODDEN, NO","FM-15","ENNO ","V020","190,1,N,0015,1","02250,5,C,N","011265,1,N,1","+0100,1","+0060,1","99999,9","02,5,+01650,5,99,9","07,5,+02250,5,99,9",,"07,99,1,99,9,99,9,99999,9,99,9,99,9",,"10102,1,99999,9",,,,,"MET066METAR ENNO 141150Z 19003KT 110V230 9999 FEW055 BKN075 10/06 Q1010;",
"01470399999","2010-10-14T12:50:00","4","59.565683","9.212222","19.2","NOTODDEN, NO","FM-15","ENNO ","V020","999,9,V,0005,1","99999,9,C,N","011265,1,N,1","+0100,1","+0030,1","99999,9","02,5,+01500,1,99,9","04,5,+02250,5,99,9",,"04,99,1,99,9,99,9,99999,9,99,9,99,9",,"10102,1,99999,9",,,,,"MET058METAR ENNO 141250Z VRB01KT 9999 FEW050 SCT075 10/03 Q1010;","P01 022503SCOCIG"
"01470399999","2010-10-14T13:50:00","4","59.565683","9.212222","19.2","NOTODDEN, NO","FM-15","ENNO ","V020","999,9,V,0010,1","99999,9,9,Y","009900,1,N,1","+0110,1","+0050,1","99999,9",,,,,,"10102,1,99999,9",,,,,"MET045METAR ENNO 141350Z VRB02KT CAVOK 11/05 Q1010;",
"01470399999","2010-10-14T14:50:00","4","59.565683","9.212222","19.2","NOTODDEN, NO","FM-15","ENNO ","V020","999,9,V,0005,1","99999,9,9,Y","009900,1,N,1","+0120,1","+0030,1","99999,9",,,,,,"10102,1,99999,9",,,,,"MET045METAR ENNO 141450Z VRB01KT CAVOK 12/03 Q1010;",
"01470399999","2010-10-15T04:50:00","4","59.565683","9.212222","19.2","NOTODDEN, NO","FM-15","ENNO ","V020","999,9,V,0010,1","01800,1,C,N","011265,1,N,1","-0020,1","-0020,1","99999,9","07,5,+01800,1,99,9",,,"07,99,1,99,9,99,9,99999,9,99,9,99,9",,"10129,1,99999,9",,,,,"MET053METAR ENNO 150450Z VRB02KT 9999 BKN060 M02/M02 Q1013;",
"01470399999","2010-10-15T05:50:00","4","59.565683","9.212222","19.2","NOTODDEN, NO","FM-15","ENNO ","V020","999,9,V,0005,1","01800,1,C,N","011265,1,N,1","-0010,1","-0020,1","99999,9","07,5,+01800,1,99,9",,,"07,99,1,99,9,99,9,99999,9,99,9,99,9",,"10129,1,99999,9",,,,,"MET053METAR ENNO 150550Z VRB01KT 9999 BKN060 M01/M02 Q1013;",
"01470399999","2010-10-15T06:50:00","4","59.565683","9.212222","19.2","NOTODDEN, NO","FM-15","ENNO ","V020","999,9,V,0005,1","01950,5,C,N","011265,1,N,1","-0020,1","-0020,1","99999,9","02,5,+00270,1,99,9","07,5,+01950,5,99,9",,"07,99,1,99,9,99,9,99999,9,99,9,99,9",,"10129,1,99999,9",,,,,"MET060METAR ENNO 150650Z VRB01KT 9999 FEW009 BKN065 M02/M02 Q1013;",
"01470399999","2010-10-15T07:50:00","4","59.565683","9.212222","19.2","NOTODDEN, NO","FM-15","ENNO ","V020","999,9,V,0010,1","01800,1,C,N","011265,1,N,1","-0010,1","-0020,1","99999,9","07,5,+01800,1,99,9",,,"07,99,1,99,9,99,9,99999,9,99,9,99,9",,"10129,1,99999,9",,,,,"MET053METAR ENNO 150750Z VRB02KT 9999 BKN060 M01/M02 Q1013;",
"01470399999","2010-10-15T08:50:00","4","59.565683","9.212222","19.2","NOTODDEN, NO","FM-15","ENNO ","V020","999,9,V,0010,1","01590,5,C,N","011265,1,N,1","+0000,1","-0010,1","99999,9","07,5,+01590,5,99,9",,,"07,99,1,99,9,99,9,99999,9,99,9,99,9",,"10129,1,99999,9",,,,,"MET052METAR ENNO 150850Z VRB02KT 9999 BKN053 00/M01 Q1013;",
"01470399999","2010-10-15T09:50:00","4","59.565683","9.212222","19.2","NOTODDEN, NO","FM-15","ENNO ","V020","999,9,V,0010,1","01950,5,C,N","011265,1,N,1","+0010,1","+0000,1","99999,9","04,5,+01590,5,99,9","07,5,+01950,5,99,9",,"07,99,1,99,9,99,9,99999,9,99,9,99,9",,"10129,1,99999,9",,,,,"MET059METAR ENNO 150950Z VRB02KT 9999 SCT053 BKN065 01/M00 Q1013;",
"01470399999","2010-10-15T11:29:00","4","59.565683","9.212222","19.2","NOTODDEN, NO","FM-15","ENNO ","V020","999,9,V,0005,1","01950,5,C,N","011265,1,N,1","+0060,1","-0020,1","99999,9","07,5,+01950,5,99,9",,,"07,99,1,99,9,99,9,99999,9,99,9,99,9",,"10119,1,99999,9",,,,,"MET052METAR ENNO 151129Z VRB01KT 9999 BKN065 06/M02 Q1012;",
"01470399999","2010-10-15T11:50:00","4","59.565683","9.212222","19.2","NOTODDEN, NO","FM-15","ENNO ","V020","999,9,C,0000,1","01950,5,C,N","011265,1,N,1","+0060,1","-0030,1","99999,9","07,5,+01950,5,99,9",,,"07,99,1,99,9,99,9,99999,9,99,9,99,9",,"10119,1,99999,9",,,,,"MET052METAR ENNO 151150Z 00000KT 9999 BKN065 06/M03 Q1012;",
"01470399999","2010-10-15T12:50:00","4","59.565683","9.212222","19.2","NOTODDEN, NO","FM-15","ENNO ","V020","999,9,V,0005,1","22000,1,9,N","011265,1,N,1","+0070,1","-0020,1","99999,9","02,5,+01950,5,99,9",,,"02,99,1,99,9,99,9,99999,9,99,9,99,9",,"10119,1,99999,9",,,,,"MET052METAR ENNO 151250Z VRB01KT 9999 FEW065 07/M02 Q1012;",
"01470399999","2010-10-15T13:50:00","4","59.565683","9.212222","19.2","NOTODDEN, NO","FM-15","ENNO ","V020","130,1,N,0015,1","22000,1,9,N","011265,1,N,1","+0070,1","-0020,1","99999,9","02,5,+01800,1,99,9",,,"02,99,1,99,9,99,9,99999,9,99,9,99,9",,"10119,1,99999,9",,,,,"MET052METAR ENNO 151350Z 13003KT 9999 FEW060 07/M02 Q1012;",
"01470399999","2010-10-15T15:20:00","4","59.565683","9.212222","19.2","NOTODDEN, NO","FM-15","ENNO ","V020","999,9,C,0000,1","99999,9,9,Y","009900,1,N,1","+0060,1","-0020,1","99999,9",,,,,,"10119,1,99999,9",,,,,"MET046METAR ENNO 151520Z 00000KT CAVOK 06/M02 Q1012;",
"01470399999","2010-10-15T15:50:00","4","59.565683","9.212222","19.2","NOTODDEN, NO","FM-15","ENNO ","V020","999,9,C,0000,1","99999,9,9,Y","009900,1,N,1","+0030,1","-0020,1","99999,9",,,,,,"10119,1,99999,9",,,,,"MET046METAR ENNO 151550Z 00000KT CAVOK 03/M02 Q1012;",
"01470399999","2010-10-17T15:50:00","4","59.565683","9.212222","19.2","NOTODDEN, NO","FM-15","ENNO ","V020","120,1,N,0015,1","99999,9,9,Y","009900,1,N,1","+0080,1","-0030,1","99999,9",,,,,,"10169,1,99999,9",,,,,"MET046METAR ENNO 171550Z 12003KT CAVOK 08/M03 Q1017;",
"01470399999","2010-10-17T16:50:00","4","59.565683","9.212222","19.2","NOTODDEN, NO","FM-15","ENNO ","V020","090,1,N,0021,1","99999,9,9,Y","009900,1,N,1","+0080,1","-0020,1","99999,9",,,,,,"10159,1,99999,9",,,,,"MET054METAR ENNO 171650Z 09004KT 030V170 CAVOK 08/M02 Q1016;",
"01470399999","2010-10-17T17:50:00","4","59.565683","9.212222","19.2","NOTODDEN, NO","FM-15","ENNO ","V020","999,9,V,0026,1","99999,9,9,Y","009900,1,N,1","+0070,1","+0000,1","99999,9",,,,,,"10159,1,99999,9",,,,,"MET046METAR ENNO 171750Z VRB05KT CAVOK 07/M00 Q1016;",
"01470399999","2010-10-18T04:50:00","4","59.565683","9.212222","19.2","NOTODDEN, NO","FM-15","ENNO ","V020","999,9,V,0015,1","00750,1,C,N","011265,1,N,1","+0040,1","+0020,1","99999,9","07,5,+00750,1,99,9","08,5,+00900,1,99,9",,"08,99,1,99,9,99,9,99999,9,99,9,99,9",,"10081,1,99999,9","61,1",,,,"MET062METAR ENNO 180450Z VRB03KT 9999 -RA BKN025 OVC030 04/02 Q1008;",
"01470399999","2010-10-18T05:50:00","4","59.565683","9.212222","19.2","NOTODDEN, NO","FM-15","ENNO ","V020","999,9,V,0010,1","00750,1,C,N","011265,1,N,1","+0040,1","+0030,1","99999,9","07,5,+00750,1,99,9","08,5,+01050,1,99,9",,"08,99,1,99,9,99,9,99999,9,99,9,99,9",,"10071,1,99999,9",,,,,"MET058METAR ENNO 180550Z VRB02KT 9999 BKN025 OVC035 04/03 Q1007;",
"01470399999","2010-10-18T06:50:00","4","59.565683","9.212222","19.2","NOTODDEN, NO","FM-15","ENNO ","V020","999,9,V,0010,1","00900,1,C,N","011265,1,N,1","+0050,1","+0040,1","99999,9","04,5,+00510,1,99,9","08,5,+00900,1,99,9",,"08,99,1,99,9,99,9,99999,9,99,9,99,9",,"10061,1,99999,9","61,1",,,,"MET062METAR ENNO 180650Z VRB02KT 9999 -RA SCT017 OVC030 05/04 Q1006;",
"01470399999","2010-10-18T07:50:00","4","59.565683","9.212222","19.2","NOTODDEN, NO","FM-15","ENNO ","V020","290,1,N,0021,1","00450,1,C,N","011265,1,N,1","+0050,1","+0040,1","99999,9","08,5,+00450,1,99,9",,,"08,99,1,99,9,99,9,99999,9,99,9,99,9",,"10051,1,99999,9",,,,,"MET051METAR ENNO 180750Z 29004KT 9999 OVC015 05/04 Q1005;",
"01470399999","2010-10-18T08:50:00","4","59.565683","9.212222","19.2","NOTODDEN, NO","FM-15","ENNO ","V020","250,1,N,0015,1","00510,1,C,N","011265,1,N,1","+0050,1","+0040,1","99999,9","07,5,+00510,1,99,9",,,"07,99,1,99,9,99,9,99999,9,99,9,99,9",,"10041,1,99999,9",,,,,"MET051METAR ENNO 180850Z 25003KT 9999 BKN017 05/04 Q1004;",
"01470399999","2010-10-18T09:50:00","4","59.565683","9.212222","19.2","NOTODDEN, NO","FM-15","ENNO ","V020","280,1,N,0021,1","00900,1,C,N","011265,1,N,1","+0070,1","+0050,1","99999,9","04,5,+00600,1,99,9","07,5,+00900,1,99,9",,"07,99,1,99,9,99,9,99999,9,99,9,99,9",,"10031,1,99999,9",,,,,"MET058METAR ENNO 180950Z 28004KT 9999 SCT020 BKN030 07/05 Q1003;",
"01470399999","2010-10-18T10:50:00","4","59.565683","9.212222","19.2","NOTODDEN, NO","FM-15","ENNO ","V020","999,9,V,0015,1","01200,1,C,N","011265,1,N,1","+0100,1","+0070,1","99999,9","04,5,+00900,1,99,9","07,5,+01200,1,99,9",,"07,99,1,99,9,99,9,99999,9,99,9,99,9",,"10031,1,99999,9",,,,,"MET058METAR ENNO 181050Z VRB03KT 9999 SCT030 BKN040 10/07 Q1003;",
"01470399999","2010-10-18T11:50:00","4","59.565683","9.212222","19.2","NOTODDEN, NO","FM-15","ENNO ","V020","110,1,N,0046,1","22000,1,9,N","011265,1,N,1","+0110,1","+0060,1","99999,9","04,5,+00900,1,99,9",,,"04,99,1,99,9,99,9,99999,9,99,9,99,9",,"10020,1,99999,9",,,,,"MET051METAR ENNO 181150Z 11009KT 9999 SCT030 11/06 Q1002;",
"01470399999","2010-10-18T12:50:00","4","59.565683","9.212222","19.2","NOTODDEN, NO","FM-15","ENNO ","V020","120,1,N,0051,1","22000,1,9,N","011265,1,N,1","+0110,1","+0060,1","99999,9","04,5,+01050,1,99,9",,,"04,99,1,99,9,99,9,99999,9,99,9,99,9",,"10010,1,99999,9",,,,,"MET051METAR ENNO 181250Z 12010KT 9999 SCT035 11/06 Q1001;",
"01470399999","2010-10-18T13:50:00","4","59.565683","9.212222","19.2","NOTODDEN, NO","FM-15","ENNO ","V020","999,9,V,0021,1","01140,1,C,N","011265,1,N,1","+0110,1","+0050,1","99999,9","07,5,+01140,1,99,9",,,"07,99,1,99,9,99,9,99999,9,99,9,99,9",,"10000,1,99999,9",,,,,"MET051METAR ENNO 181350Z VRB04KT 9999 BKN038 11/05 Q1000;",
"01470399999","2010-10-18T14:50:00","4","59.565683","9.212222","19.2","NOTODDEN, NO","FM-15","ENNO ","V020","999,9,V,0010,1","01350,1,C,N","011265,1,N,1","+0110,1","+0050,1","99999,9","07,5,+01350,1,99,9",,,"07,99,1,99,9,99,9,99999,9,99,9,99,9",,"09990,1,99999,9",,,,,"MET051METAR ENNO 181450Z VRB02KT 9999 BKN045 11/05 Q0999;",
"01470399999","2010-10-18T15:50:00","4","59.565683","9.212222","19.2","NOTODDEN, NO","FM-15","ENNO ","V020","999,9,V,0015,1","01350,1,C,N","011265,1,N,1","+0100,1","+0050,1","99999,9","07,5,+01350,1,99,9",,,"07,99,1,99,9,99,9,99999,9,99,9,99,9",,"09990,1,99999,9","61,1",,,,"MET055METAR ENNO 181550Z VRB03KT 9999 -RA BKN045 10/05 Q0999;",
"01470399999","2010-10-18T16:50:00","4","59.565683","9.212222","19.2","NOTODDEN, NO","FM-15","ENNO ","V020","999,9,V,0015,1","22000,1,9,N","011265,1,N,1","+0100,1","+0050,1","99999,9","04,5,+01350,1,99,9",,,"04,99,1,99,9,99,9,99999,9,99,9,99,9",,"09980,1,99999,9",,,,,"MET051METAR ENNO 181650Z VRB03KT 9999 SCT045 10/05 Q0998;",
"01470399999","2010-10-19T04:50:00","4","59.565683","9.212222","19.2","NOTODDEN, NO","FM-15","ENNO ","V020","999,9,V,0005,1","00270,1,C,N","011265,1,N,1","+0000,1","+0000,1","99999,9","07,5,+00270,1,99,9",,,"07,99,1,99,9,99,9,99999,9,99,9,99,9",,"09939,1,99999,9",,,,,"MET052METAR ENNO 190450Z VRB01KT 9999 BKN009 00/M00 Q0994;",
"01470399999","2010-10-19T05:50:00","4","59.565683","9.212222","19.2","NOTODDEN, NO","FM-15","ENNO ","V020","999,9,V,0005,1","00450,1,C,N","011265,1,N,1","+0000,1","+0000,1","99999,9","02,5,+00210,1,99,9","07,5,+00450,1,99,9",,"07,99,1,99,9,99,9,99999,9,99,9,99,9",,"09939,1,99999,9",,,,,"MET059METAR ENNO 190550Z VRB01KT 9999 FEW007 BKN015 00/M00 Q0994;",
"01470399999","2010-10-19T06:50:00","4","59.565683","9.212222","19.2","NOTODDEN, NO","FM-15","ENNO ","V020","999,9,V,0005,1","00270,1,C,N","011265,1,N,1","+0010,1","+0000,1","99999,9","02,5,+00090,1,99,9","07,5,+00270,1,99,9",,"07,99,1,99,9,99,9,99999,9,99,9,99,9",,"09939,1,99999,9",,,,,"MET058METAR ENNO 190650Z VRB01KT 9999 FEW003 BKN009 01/00 Q0994;",
"01470399999","2010-10-19T08:50:00","4","59.565683","9.212222","19.2","NOTODDEN, NO","FM-15","ENNO ","V020","999,9,V,0005,1","00090,1,C,N","011265,1,N,1","+0030,1","+0020,1","99999,9","02,5,+00030,1,99,9","07,5,+00090,1,99,9",,"07,99,1,99,9,99,9,99999,9,99,9,99,9",,"09939,1,99999,9",,,,,"MET058METAR ENNO 190850Z VRB01KT 9999 FEW001 BKN003 03/02 Q0994;",
"01470399999","2010-10-19T09:50:00","4","59.565683","9.212222","19.2","NOTODDEN, NO","FM-15","ENNO ","V020","999,9,V,0010,1","99999,9,9,Y","009900,1,N,1","+0040,1","+0030,1","99999,9",,,,,,"09939,1,99999,9",,,,,"MET045METAR ENNO 190950Z VRB02KT CAVOK 04/03 Q0994;",
"01470399999","2010-10-19T10:50:00","4","59.565683","9.212222","19.2","NOTODDEN, NO","FM-15","ENNO ","V020","999,9,V,0005,1","99999,9,9,Y","009900,1,N,1","+0080,1","+0030,1","99999,9",,,,,,"09929,1,99999,9",,,,,"MET045METAR ENNO 191050Z VRB01KT CAVOK 08/03 Q0993;",
"01470399999","2010-10-19T11:50:00","4","59.565683","9.212222","19.2","NOTODDEN, NO","FM-15","ENNO ","V020","999,9,V,0005,1","99999,9,C,N","011265,1,N,1","+0090,1","+0020,1","99999,9","02,5,+01350,1,99,9","04,5,+05100,1,99,9",,"04,99,1,99,9,99,9,99999,9,99,9,99,9",,"09929,1,99999,9",,,,,"MET058METAR ENNO 191150Z VRB01KT 9999 FEW045 SCT170 09/02 Q0993;","P01 051003SCOCIG"
"01470399999","2010-10-19T12:50:00","4","59.565683","9.212222","19.2","NOTODDEN, NO","FM-15","ENNO ","V020","999,9,V,0005,1","99999,9,C,N","011265,1,N,1","+0090,1","+0020,1","99999,9","02,5,+01200,1,99,9","04,5,+02700,1,99,9",,"04,99,1,99,9,99,9,99999,9,99,9,99,9",,"09919,1,99999,9",,,,,"MET058METAR ENNO 191250Z VRB01KT 9999 FEW040 SCT090 09/02 Q0992;","P01 027003SCOCIG"
"01470399999","2010-10-19T13:50:00","4","59.565683","9.212222","19.2","NOTODDEN, NO","FM-15","ENNO ","V020","280,1,N,0010,1","99999,9,C,N","011265,1,N,1","+0090,1","+0020,1","99999,9","02,5,+01800,1,99,9","04,5,+02850,5,99,9",,"04,99,1,99,9,99,9,99999,9,99,9,99,9",,"09919,1,99999,9",,,,,"MET058METAR ENNO 191350Z 28002KT 9999 FEW060 SCT095 09/02 Q0992;","P01 028503SCOCIG"
"01470399999","2010-10-19T14:50:00","4","59.565683","9.212222","19.2","NOTODDEN, NO","FM-15","ENNO ","V020","999,9,V,0010,1","22000,1,9,N","011265,1,N,1","+0080,1","+0020,1","99999,9","04,5,+01650,5,99,9",,,"04,99,1,99,9,99,9,99999,9,99,9,99,9",,"09919,1,99999,9",,,,,"MET051METAR ENNO 191450Z VRB02KT 9999 SCT055 08/02 Q0992;",
"01470399999","2010-10-19T15:50:00","4","59.565683","9.212222","19.2","NOTODDEN, NO","FM-15","ENNO ","V020","260,1,N,0015,1","01650,5,C,N","011265,1,N,1","+0070,1","+0030,1","99999,9","07,5,+01650,5,99,9",,,"07,99,1,99,9,99,9,99999,9,99,9,99,9",,"09929,1,99999,9","81,1",,,,"MET056METAR ENNO 191550Z 26003KT 9999 SHRA BKN055 07/03 Q0993;",
"01470399999","2010-10-20T04:50:00","4","59.565683","9.212222","19.2","NOTODDEN, NO","FM-15","ENNO ","V020","330,1,N,0015,1","02100,1,C,N","011265,1,N,1","+0030,1","-0030,1","99999,9","08,5,+02100,1,99,9",,,"08,99,1,99,9,99,9,99999,9,99,9,99,9",,"10010,1,99999,9",,,,,"MET052METAR ENNO 200450Z 33003KT 9999 OVC070 03/M03 Q1001;",
"01470399999","2010-10-20T05:50:00","4","59.565683","9.212222","19.2","NOTODDEN, NO","FM-15","ENNO ","V020","300,1,N,0021,1","99999,9,9,Y","009900,1,N,1","+0030,1","-0030,1","99999,9",,,,,,"10020,1,99999,9",,,,,"MET046METAR ENNO 200550Z 30004KT CAVOK 03/M03 Q1002;",
"01470399999","2010-10-20T06:50:00","4","59.565683","9.212222","19.2","NOTODDEN, NO","FM-15","ENNO ","V020","300,1,N,0031,1","99999,9,9,Y","009900,1,N,1","+0030,1","-0060,1","99999,9",,,,,,"10031,1,99999,9",,,,,"MET046METAR ENNO 200650Z 30006KT CAVOK 03/M06 Q1003;",
"01470399999","2010-10-20T07:50:00","4","59.565683","9.212222","19.2","NOTODDEN, NO","FM-15","ENNO ","V020","280,1,N,0021,1","99999,9,9,Y","009900,1,N,1","+0000,1","-0030,1","99999,9",,,,,,"10041,1,99999,9",,,,,"MET046METAR ENNO 200750Z 28004KT CAVOK 00/M03 Q1004;",
"01470399999","2010-10-20T08:50:00","4","59.565683","9.212222","19.2","NOTODDEN, NO","FM-15","ENNO ","V020","270,1,N,0031,1","99999,9,9,Y","009900,1,N,1","+0040,1","-0060,1","99999,9",,,,,,"10041,1,99999,9",,,,,"MET046METAR ENNO 200850Z 27006KT CAVOK 04/M06 Q1004;",
"01470399999","2010-10-20T09:50:00","4","59.565683","9.212222","19.2","NOTODDEN, NO","FM-15","ENNO ","V020","999,9,V,0015,1","99999,9,9,Y","009900,1,N,1","+0050,1","-0080,1","99999,9",,,,,,"10041,1,99999,9",,,,,"MET046METAR ENNO 200950Z VRB03KT CAVOK 05/M08 Q1004;",
"01470399999","2010-10-20T10:50:00","4","59.565683","9.212222","19.2","NOTODDEN, NO","FM-15","ENNO ","V020","290,1,N,0031,1","99999,9,9,Y","009900,1,N,1","+0060,1","-0090,1","99999,9",,,,,,"10041,1,99999,9",,,,,"MET054METAR ENNO 201050Z 29006KT 230V350 CAVOK 06/M09 Q1004;",
"01470399999","2010-10-20T12:50:00","4","59.565683","9.212222","19.2","NOTODDEN, NO","FM-15","ENNO ","V020","310,1,N,0036,1","22000,1,9,N","011265,1,N,1","+0070,1","-0090,1","99999,9","02,5,+01800,1,99,9",,,"02,99,1,99,9,99,9,99999,9,99,9,99,9",,"10041,1,99999,9",,,,,"MET060METAR ENNO 201250Z 31007KT 260V020 9999 FEW060 07/M09 Q1004;",
"01470399999","2010-10-20T13:50:00","4","59.565683","9.212222","19.2","NOTODDEN, NO","FM-15","ENNO ","V020","270,1,N,0021,1","22000,1,9,N","011265,1,N,1","+0060,1","-0090,1","99999,9","02,5,+01800,1,99,9",,,"02,99,1,99,9,99,9,99999,9,99,9,99,9",,"10041,1,99999,9",,,,,"MET060METAR ENNO 201350Z 27004KT 230V290 9999 FEW060 06/M09 Q1004;",
"01470399999","2010-10-20T14:50:00","4","59.565683","9.212222","19.2","NOTODDEN, NO","FM-15","ENNO ","V020","290,1,N,0041,1","22000,1,9,N","011265,1,N,1","+0060,1","-0100,1","99999,9","02,5,+02100,1,99,9",,,"02,99,1,99,9,99,9,99999,9,99,9,99,9",,"10041,1,99999,9",,,,,"MET060METAR ENNO 201450Z 29008KT 240V320 9999 FEW070 06/M10 Q1004;",
"01470399999","2010-10-20T15:50:00","4","59.565683","9.212222","19.2","NOTODDEN, NO","FM-15","ENNO ","V020","300,1,N,0015,1","99999,9,9,Y","009900,1,N,1","+0030,1","-0080,1","99999,9",,,,,,"10051,1,99999,9",,,,,"MET054METAR ENNO 201550Z 30003KT 260V320 CAVOK 03/M08 Q1005;",
"01470399999","2010-10-21T04:50:00","4","59.565683","9.212222","19.2","NOTODDEN, NO","FM-15","ENNO ","V020","999,9,V,0005,1","99999,9,9,Y","009900,1,N,1","-0070,1","-0080,1","99999,9",,,,,,"10071,1,99999,9",,,,,"MET047METAR ENNO 210450Z VRB01KT CAVOK M07/M08 Q1007;",
"01470399999","2010-10-21T05:50:00","4","59.565683","9.212222","19.2","NOTODDEN, NO","FM-15","ENNO ","V020","999,9,V,0005,1","99999,9,9,Y","009900,1,N,1","-0080,1","-0080,1","99999,9",,,,,,"10071,1,99999,9",,,,,"MET047METAR ENNO 210550Z VRB01KT CAVOK M08/M08 Q1007;",
"01470399999","2010-10-21T06:50:00","4","59.565683","9.212222","19.2","NOTODDEN, NO","FM-15","ENNO ","V020","250,1,N,0015,1","99999,9,9,Y","009900,1,N,1","-0070,1","-0080,1","99999,9",,,,,,"10071,1,99999,9",,,,,"MET047METAR ENNO 210650Z 25003KT CAVOK M07/M08 Q1007;",
"01470399999","2010-10-21T07:50:00","4","59.565683","9.212222","19.2","NOTODDEN, NO","FM-15","ENNO ","V020","999,9,C,0000,1","99999,9,9,Y","009900,1,N,1","-0050,1","-0060,1","99999,9",,,,,,"10071,1,99999,9",,,,,"MET047METAR ENNO 210750Z 00000KT CAVOK M05/M06 Q1007;",
"01470399999","2010-10-21T08:50:00","4","59.565683","9.212222","19.2","NOTODDEN, NO","FM-15","ENNO ","V020","280,1,N,0015,1","99999,9,9,Y","009900,1,N,1","-0040,1","-0060,1","99999,9",,,,,,"10071,1,99999,9",,,,,"MET055METAR ENNO 210850Z 28003KT 250V320 CAVOK M04/M06 Q1007;",
"01470399999","2010-10-21T09:50:00","4","59.565683","9.212222","19.2","NOTODDEN, NO","FM-15","ENNO ","V020","999,9,V,0005,1","99999,9,9,Y","009900,1,N,1","-0010,1","-0060,1","99999,9",,,,,,"10061,1,99999,9",,,,,"MET047METAR ENNO 210950Z VRB01KT CAVOK M01/M06 Q1006;",
"01470399999","2010-10-21T10:50:00","4","59.565683","9.212222","19.2","NOTODDEN, NO","FM-15","ENNO ","V020","999,9,V,0005,1","99999,9,9,Y","009900,1,N,1","-0010,1","-0060,1","99999,9",,,,,,"10051,1,99999,9",,,,,"MET047METAR ENNO 211050Z VRB01KT CAVOK M01/M06 Q1005;",
"01470399999","2010-10-21T11:50:00","4","59.565683","9.212222","19.2","NOTODDEN, NO","FM-15","ENNO ","V020","999,9,V,0010,1","99999,9,9,Y","009900,1,N,1","+0010,1","-0040,1","99999,9",,,,,,"10041,1,99999,9",,,,,"MET046METAR ENNO 211150Z VRB02KT CAVOK 01/M04 Q1004;",
"01470399999","2010-10-21T12:50:00","4","59.565683","9.212222","19.2","NOTODDEN, NO","FM-15","ENNO ","V020","290,1,N,0015,1","99999,9,9,Y","009900,1,N,1","+0010,1","-0040,1","99999,9",,,,,,"10031,1,99999,9",,,,,"MET046METAR ENNO 211250Z 29003KT CAVOK 01/M04 Q1003;",
"01470399999","2010-10-21T13:50:00","4","59.565683","9.212222","19.2","NOTODDEN, NO","FM-15","ENNO ","V020","999,9,V,0005,1","99999,9,9,Y","009900,1,N,1","+0010,1","-0040,1","99999,9",,,,,,"10010,1,99999,9",,,,,"MET046METAR ENNO 211350Z VRB01KT CAVOK 01/M04 Q1001;",
"01470399999","2010-10-21T14:50:00","4","59.565683","9.212222","19.2","NOTODDEN, NO","FM-15","ENNO ","V020","160,1,N,0026,1","00900,1,C,N","011265,1,N,1","+0020,1","-0040,1","99999,9","08,5,+00900,1,99,9",,,"08,99,1,99,9,99,9,99999,9,99,9,99,9",,"10000,1,99999,9","16,1",,,,"MET065METAR ENNO 211450Z 16005KT 110V230 9999 VCSH OVC030 02/M04 Q1000;",
"01470399999","2010-10-21T15:50:00","4","59.565683","9.212222","19.2","NOTODDEN, NO","FM-15","ENNO ","V020","100,1,N,0026,1","00450,1,9,N","005000,1,N,1","+0010,1","-0010,1","99999,9","09,1,+00450,1,99,9",,,"09,99,1,99,9,99,9,00025,1,99,9,99,9",,"10000,1,99999,9","71,1",,,,"MET055METAR ENNO 211550Z 10005KT 5000 -SN VV015 01/M01 Q1000;",
"01470399999","2010-10-22T04:50:00","4","59.565683","9.212222","19.2","NOTODDEN, NO","FM-15","ENNO ","V020","320,1,N,0021,1","22000,1,9,N","011265,1,N,1","-0030,1","-0040,1","99999,9","04,5,+00240,1,99,9",,,"04,99,1,99,9,99,9,99999,9,99,9,99,9",,"09990,1,99999,9",,,,,"MET053METAR ENNO 220450Z 32004KT 9999 SCT008 M03/M04 Q0999;",
"01470399999","2010-10-22T05:50:00","4","59.565683","9.212222","19.2","NOTODDEN, NO","FM-15","ENNO ","V020","280,1,N,0021,1","00300,1,C,N","011265,1,N,1","-0040,1","-0050,1","99999,9","07,5,+00300,1,99,9",,,"07,99,1,99,9,99,9,99999,9,99,9,99,9",,"10010,1,99999,9",,,,,"MET053METAR ENNO 220550Z 28004KT 9999 BKN010 M04/M05 Q1001;",
"01470399999","2010-10-22T06:50:00","4","59.565683","9.212222","19.2","NOTODDEN, NO","FM-15","ENNO ","V020","999,9,V,0010,1","22000,1,9,N","011265,1,N,1","-0050,1","-0060,1","99999,9","04,5,+00450,1,99,9",,,"04,99,1,99,9,99,9,99999,9,99,9,99,9",,"10010,1,99999,9",,,,,"MET053METAR ENNO 220650Z VRB02KT 9999 SCT015 M05/M06 Q1001;",
"01470399999","2010-10-22T07:50:00","4","59.565683","9.212222","19.2","NOTODDEN, NO","FM-15","ENNO ","V020","300,1,N,0015,1","00300,1,C,N","011265,1,N,1","-0040,1","-0050,1","99999,9","07,5,+00300,1,99,9",,,"07,99,1,99,9,99,9,99999,9,99,9,99,9",,"10020,1,99999,9",,,,,"MET053METAR ENNO 220750Z 30003KT 9999 BKN010 M04/M05 Q1002;",
"01470399999","2010-10-22T08:50:00","4","59.565683","9.212222","19.2","NOTODDEN, NO","FM-15","ENNO ","V020","999,9,V,0005,1","22000,1,9,N","011265,1,N,1","-0020,1","-0030,1","99999,9","02,5,+00300,1,99,9",,,"02,99,1,99,9,99,9,99999,9,99,9,99,9",,"10031,1,99999,9",,,,,"MET053METAR ENNO 220850Z VRB01KT 9999 FEW010 M02/M03 Q1003;",
"01470399999","2010-10-22T09:50:00","4","59.565683","9.212222","19.2","NOTODDEN, NO","FM-15","ENNO ","V020","999,9,V,0005,1","99999,9,9,Y","009900,1,N,1","-0010,1","-0020,1","99999,9",,,,,,"10031,1,99999,9",,,,,"MET047METAR ENNO 220950Z VRB01KT CAVOK M01/M02 Q1003;",
"01470399999","2010-10-22T10:50:00","4","59.565683","9.212222","19.2","NOTODDEN, NO","FM-15","ENNO ","V020","999,9,V,0015,1","99999,9,9,Y","009900,1,N,1","+0020,1","-0010,1","99999,9",,,,,,"10020,1,99999,9",,,,,"MET046METAR ENNO 221050Z VRB03KT CAVOK 02/M01 Q1002;",
"01470399999","2010-10-22T11:50:00","4","59.565683","9.212222","19.2","NOTODDEN, NO","FM-15","ENNO ","V020","120,1,N,0051,1","22000,1,9,N","011265,1,N,1","+0040,1","-0010,1","99999,9","02,5,+01710,5,99,9",,,"02,99,1,99,9,99,9,99999,9,99,9,99,9",,"10020,1,99999,9",,,,,"MET052METAR ENNO 221150Z 12010KT 9999 FEW057 04/M01 Q1002;",
"01470399999","2010-10-22T12:50:00","4","59.565683","9.212222","19.2","NOTODDEN, NO","FM-15","ENNO ","V020","100,1,N,0046,1","22000,1,9,N","011265,1,N,1","+0060,1","-0020,1","99999,9","02,5,+01800,1,99,9",,,"02,99,1,99,9,99,9,99999,9,99,9,99,9",,"10020,1,99999,9",,,,,"MET052METAR ENNO 221250Z 10009KT 9999 FEW060 06/M02 Q1002;",
"01470399999","2010-10-22T13:50:00","4","59.565683","9.212222","19.2","NOTODDEN, NO","FM-15","ENNO ","V020","100,1,N,0036,1","22000,1,9,N","011265,1,N,1","+0070,1","-0020,1","99999,9","02,5,+01800,1,99,9",,,"02,99,1,99,9,99,9,99999,9,99,9,99,9",,"10020,1,99999,9",,,,,"MET052METAR ENNO 221350Z 10007KT 9999 FEW060 07/M02 Q1002;",
"01470399999","2010-10-22T14:50:00","4","59.565683","9.212222","19.2","NOTODDEN, NO","FM-15","ENNO ","V020","999,9,V,0010,1","22000,1,9,N","011265,1,N,1","+0050,1","-0020,1","99999,9","02,5,+01800,1,99,9",,,"02,99,1,99,9,99,9,99999,9,99,9,99,9",,"10020,1,99999,9",,,,,"MET052METAR ENNO 221450Z VRB02KT 9999 FEW060 05/M02 Q1002;",
"01470399999","2010-10-22T15:50:00","4","59.565683","9.212222","19.2","NOTODDEN, NO","FM-15","ENNO ","V020","999,9,V,0010,1","22000,1,9,N","011265,1,N,1","+0020,1","-0020,1","99999,9","02,5,+01800,1,99,9",,,"02,99,1,99,9,99,9,99999,9,99,9,99,9",,"10020,1,99999,9",,,,,"MET052METAR ENNO 221550Z VRB02KT 9999 FEW060 02/M02 Q1002;",
"01470399999","2010-10-24T15:50:00","4","59.565683","9.212222","19.2","NOTODDEN, NO","FM-15","ENNO ","V020","999,9,V,0010,1","22000,1,9,N","011265,1,N,1","+0020,1","-0020,1","99999,9","02,5,+01800,1,99,9",,,"02,99,1,99,9,99,9,99999,9,99,9,99,9",,"10020,1,99999,9",,,,,"MET052METAR ENNO 241550Z VRB02KT 9999 FEW060 02/M02 Q1002;",
"01470399999","2010-10-24T16:50:00","4","59.565683","9.212222","19.2","NOTODDEN, NO","FM-15","ENNO ","V020","999,9,V,0005,1","99999,9,9,Y","009900,1,N,1","-0010,1","-0040,1","99999,9",,,,,,"10051,1,99999,9",,,,,"MET047METAR ENNO 241650Z VRB01KT CAVOK M01/M04 Q1005;",
"01470399999","2010-10-24T17:50:00","4","59.565683","9.212222","19.2","NOTODDEN, NO","FM-15","ENNO ","V020","999,9,C,0000,1","99999,9,9,Y","009900,1,N,1","-0030,1","-0050,1","99999,9",,,,,,"10051,1,99999,9",,,,,"MET047METAR ENNO 241750Z 00000KT CAVOK M03/M05 Q1005;",
"01470399999","2010-10-25T04:50:00","4","59.565683","9.212222","19.2","NOTODDEN, NO","FM-15","ENNO ","V020","999,9,C,0000,1","99999,9,9,Y","009900,1,N,1","-0070,1","-0080,1","99999,9",,,,,,"10102,1,99999,9",,,,,"MET047METAR ENNO 250450Z 00000KT CAVOK M07/M08 Q1010;",
"01470399999","2010-10-25T05:50:00","4","59.565683","9.212222","19.2","NOTODDEN, NO","FM-15","ENNO ","V020","999,9,V,0010,1","99999,9,9,Y","009900,1,N,1","-0070,1","-0080,1","99999,9",,,,,,"10102,1,99999,9",,,,,"MET047METAR ENNO 250550Z VRB02KT CAVOK M07/M08 Q1010;",
"01470399999","2010-10-25T06:50:00","4","59.565683","9.212222","19.2","NOTODDEN, NO","FM-15","ENNO ","V020","999,9,V,0005,1","99999,9,9,Y","009900,1,N,1","-0070,1","-0080,1","99999,9",,,,,,"10108,1,99999,9",,,,,"MET047METAR ENNO 250650Z VRB01KT CAVOK M07/M08 Q1011;",
"01470399999","2010-10-25T07:50:00","4","59.565683","9.212222","19.2","NOTODDEN, NO","FM-15","ENNO ","V020","999,9,V,0005,1","99999,9,9,Y","009900,1,N,1","-0050,1","-0060,1","99999,9",,,,,,"10108,1,99999,9",,,,,"MET047METAR ENNO 250750Z VRB01KT CAVOK M05/M06 Q1011;",
"01470399999","2010-10-25T08:50:00","4","59.565683","9.212222","19.2","NOTODDEN, NO","FM-15","ENNO ","V020","999,9,V,0005,1","99999,9,9,Y","009900,1,N,1","-0030,1","-0040,1","99999,9",,,,,,"10108,1,99999,9",,,,,"MET047METAR ENNO 250850Z VRB01KT CAVOK M03/M04 Q1011;",
"01470399999","2010-10-25T09:50:00","4","59.565683","9.212222","19.2","NOTODDEN, NO","FM-15","ENNO ","V020","280,1,N,0015,1","99999,9,9,Y","009900,1,N,1","-0010,1","-0040,1","99999,9",,,,,,"10108,1,99999,9",,,,,"MET047METAR ENNO 250950Z 28003KT CAVOK M01/M04 Q1011;",
"01470399999","2010-10-25T10:50:00","4","59.565683","9.212222","19.2","NOTODDEN, NO","FM-15","ENNO ","V020","999,9,V,0010,1","99999,9,9,Y","009900,1,N,1","+0020,1","-0040,1","99999,9",,,,,,"10108,1,99999,9",,,,,"MET046METAR ENNO 251050Z VRB02KT CAVOK 02/M04 Q1011;",
"01470399999","2010-10-25T11:50:00","4","59.565683","9.212222","19.2","NOTODDEN, NO","FM-15","ENNO ","V020","270,1,N,0010,1","99999,9,9,Y","009900,1,N,1","+0030,1","-0040,1","99999,9",,,,,,"10108,1,99999,9",,,,,"MET046METAR ENNO 251150Z 27002KT CAVOK 03/M04 Q1011;",
"01470399999","2010-10-25T12:50:00","4","59.565683","9.212222","19.2","NOTODDEN, NO","FM-15","ENNO ","V020","260,1,N,0010,1","99999,9,9,Y","009900,1,N,1","+0060,1","-0040,1","99999,9",,,,,,"10119,1,99999,9",,,,,"MET046METAR ENNO 251250Z 26002KT CAVOK 06/M04 Q1012;",
"01470399999","2010-10-25T13:50:00","4","59.565683","9.212222","19.2","NOTODDEN, NO","FM-15","ENNO ","V020","300,1,N,0036,1","99999,9,9,Y","009900,1,N,1","+0080,1","-0060,1","99999,9",,,,,,"10119,1,99999,9",,,,,"MET054METAR ENNO 251350Z 30007KT 260V340 CAVOK 08/M06 Q1012;",
"01470399999","2010-10-25T15:50:00","4","59.565683","9.212222","19.2","NOTODDEN, NO","FM-15","ENNO ","V020","280,1,N,0015,1","99999,9,9,Y","009900,1,N,1","+0010,1","-0050,1","99999,9",,,,,,"10129,1,99999,9",,,,,"MET046METAR ENNO 251550Z 28003KT CAVOK 01/M05 Q1013;",
"01470399999","2010-10-26T04:50:00","4","59.565683","9.212222","19.2","NOTODDEN, NO","FM-15","ENNO ","V020","270,1,N,0005,1","99999,9,9,Y","009900,1,N,1","-0080,1","-0080,1","99999,9",,,,,,"10210,1,99999,9",,,,,"MET047METAR ENNO 260450Z 27001KT CAVOK M08/M08 Q1021;",
"01470399999","2010-10-26T05:50:00","4","59.565683","9.212222","19.2","NOTODDEN, NO","FM-15","ENNO ","V020","300,1,N,0010,1","99999,9,9,Y","009900,1,N,1","-0080,1","-0090,1","99999,9",,,,,,"10210,1,99999,9",,,,,"MET047METAR ENNO 260550Z 30002KT CAVOK M08/M09 Q1021;",
"01470399999","2010-10-26T06:50:00","4","59.565683","9.212222","19.2","NOTODDEN, NO","FM-15","ENNO ","V020","999,9,V,0005,1","99999,9,9,Y","009900,1,N,1","-0080,1","-0090,1","99999,9",,,,,,"10220,1,99999,9",,,,,"MET047METAR ENNO 260650Z VRB01KT CAVOK M08/M09 Q1022;",
"01470399999","2010-10-26T07:50:00","4","59.565683","9.212222","19.2","NOTODDEN, NO","FM-15","ENNO ","V020","999,9,V,0005,1","99999,9,9,Y","009900,1,N,1","-0060,1","-0070,1","99999,9",,,,,,"10220,1,99999,9",,,,,"MET047METAR ENNO 260750Z VRB01KT CAVOK M06/M07 Q1022;",
"01470399999","2010-10-26T08:50:00","4","59.565683","9.212222","19.2","NOTODDEN, NO","FM-15","ENNO ","V020","999,9,V,0005,1","99999,9,9,Y","009900,1,N,1","-0040,1","-0050,1","99999,9",,,,,,"10220,1,99999,9",,,,,"MET047METAR ENNO 260850Z VRB01KT CAVOK M04/M05 Q1022;",
"01470399999","2010-10-26T09:50:00","4","59.565683","9.212222","19.2","NOTODDEN, NO","FM-15","ENNO ","V020","270,1,N,0015,1","99999,9,9,Y","009900,1,N,1","-0020,1","-0040,1","99999,9",,,,,,"10220,1,99999,9",,,,,"MET047METAR ENNO 260950Z 27003KT CAVOK M02/M04 Q1022;",
"01470399999","2010-10-26T10:50:00","4","59.565683","9.212222","19.2","NOTODDEN, NO","FM-15","ENNO ","V020","270,1,N,0015,1","99999,9,9,Y","009900,1,N,1","+0000,1","-0040,1","99999,9",,,,,,"10220,1,99999,9",,,,,"MET047METAR ENNO 261050Z 27003KT CAVOK M00/M04 Q1022;",
"01470399999","2010-10-26T11:50:00","4","59.565683","9.212222","19.2","NOTODDEN, NO","FM-15","ENNO ","V020","999,9,V,0010,1","99999,9,9,Y","009900,1,N,1","+0010,1","-0050,1","99999,9",,,,,,"10210,1,99999,9",,,,,"MET046METAR ENNO 261150Z VRB02KT CAVOK 01/M05 Q1021;",
"01470399999","2010-10-26T12:50:00","4","59.565683","9.212222","19.2","NOTODDEN, NO","FM-15","ENNO ","V020","999,9,V,0010,1","99999,9,9,Y","009900,1,N,1","+0010,1","-0040,1","99999,9",,,,,,"10210,1,99999,9",,,,,"MET046METAR ENNO 261250Z VRB02KT CAVOK 01/M04 Q1021;",
"01470399999","2010-10-26T13:50:00","4","59.565683","9.212222","19.2","NOTODDEN, NO","FM-15","ENNO ","V020","999,9,V,0010,1","99999,9,9,Y","009900,1,N,1","+0010,1","-0040,1","99999,9",,,,,,"10200,1,99999,9",,,,,"MET046METAR ENNO 261350Z VRB02KT CAVOK 01/M04 Q1020;",
"01470399999","2010-10-26T14:50:00","4","59.565683","9.212222","19.2","NOTODDEN, NO","FM-15","ENNO ","V020","999,9,9,9999,9","99999,9,9,Y","009900,1,N,1","+0010,1","-0040,1","99999,9",,,,,,"10200,1,99999,9",,,,,"MET046METAR ENNO 261450Z VRB021T CAVOK 01/M04 Q1020;",
"01470399999","2010-10-26T15:50:00","4","59.565683","9.212222","19.2","NOTODDEN, NO","FM-15","ENNO ","V020","999,9,C,0000,1","99999,9,9,Y","009900,1,N,1","+0000,1","-0040,1","99999,9",,,,,,"10200,1,99999,9",,,,,"MET047METAR ENNO 261550Z 00000KT CAVOK M00/M04 Q1020;",
"01470399999","2010-10-27T04:50:00","4","59.565683","9.212222","19.2","NOTODDEN, NO","FM-15","ENNO ","V020","999,9,V,0015,1","00300,1,C,N","008000,1,N,1","+0000,1","+0000,1","99999,9","02,5,+00150,1,99,9","07,5,+00300,1,99,9",,"07,99,1,99,9,99,9,99999,9,99,9,99,9",,"10102,1,99999,9","61,1","71,1",,,"MET066METAR ENNO 270450Z VRB03KT 8000 -RASN FEW005 BKN010 M00/M00 Q1010;",
"01470399999","2010-10-27T05:50:00","4","59.565683","9.212222","19.2","NOTODDEN, NO","FM-15","ENNO ","V020","999,9,V,0005,1","00210,1,C,N","011265,1,N,1","+0000,1","+0000,1","99999,9","02,5,+00090,1,99,9","04,5,+00210,1,99,9","07,5,+00360,1,99,9","07,99,1,99,9,99,9,99999,9,99,9,99,9",,"10102,1,99999,9","61,1",,,,"MET071METAR ENNO 270550Z VRB01KT 9999 -RA FEW003 SCT007 BKN012 M00/M00 Q1010;",
"01470399999","2010-10-27T06:50:00","4","59.565683","9.212222","19.2","NOTODDEN, NO","FM-15","ENNO ","V020","310,1,N,0015,1","00210,1,C,N","007000,1,N,1","+0000,1","+0000,1","99999,9","02,5,+00090,1,99,9","04,5,+00210,1,99,9","07,5,+00360,1,99,9","07,99,1,99,9,99,9,99999,9,99,9,99,9",,"10091,1,99999,9","61,1",,,,"MET078METAR ENNO 270650Z 31003KT 240V030 7000 -RA FEW003 SCT007 BKN012 00/M00 Q1009;",
"01470399999","2010-10-27T08:20:00","4","59.565683","9.212222","19.2","NOTODDEN, NO","FM-15","ENNO ","V020","999,9,V,0010,1","00240,1,C,N","011265,1,N,1","+0000,1","+0000,1","99999,9","02,5,+00030,1,99,9","04,5,+00240,1,99,9","07,5,+00420,1,99,9","07,99,1,99,9,99,9,99999,9,99,9,99,9",,"10071,1,99999,9","61,1",,,,"MET077METAR ENNO 270820Z VRB02KT 9999 8000NW -RA FEW001 SCT008 BKN014 00/M00 Q1007;",
"01470399999","2010-10-27T08:50:00","4","59.565683","9.212222","19.2","NOTODDEN, NO","FM-15","ENNO ","V020","999,9,V,0010,1","00450,1,C,N","007000,1,N,1","+0000,1","+0000,1","99999,9","02,5,+00000,5,99,9","08,5,+00450,1,99,9",,"08,99,1,99,9,99,9,99999,9,99,9,99,9",,"10061,1,99999,9","61,1",,,,"MET062METAR ENNO 270850Z VRB02KT 7000 -RA FEW000 OVC015 00/00 Q1006;",
"01470399999","2010-10-27T09:50:00","4","59.565683","9.212222","19.2","NOTODDEN, NO","FM-15","ENNO ","V020","999,9,V,0010,1","00510,1,C,N","011265,1,N,1","+0020,1","+0020,1","99999,9","02,5,+00090,1,99,9","07,5,+00510,1,99,9",,"07,99,1,99,9,99,9,99999,9,99,9,99,9",,"10051,1,99999,9","61,1",,,,"MET062METAR ENNO 270950Z VRB02KT 9999 -RA FEW003 BKN017 02/02 Q1005;",
"01470399999","2010-10-27T10:50:00","4","59.565683","9.212222","19.2","NOTODDEN, NO","FM-15","ENNO ","V020","110,1,N,0046,1","00540,1,C,N","008000,1,N,1","+0070,1","+0060,1","99999,9","02,5,+00240,1,99,9","08,5,+00540,1,99,9",,"08,99,1,99,9,99,9,99999,9,99,9,99,9",,"10041,1,99999,9","61,1",,,,"MET062METAR ENNO 271050Z 11009KT 8000 -RA FEW008 OVC018 07/06 Q1004;",
"01470399999","2010-10-27T11:50:00","4","59.565683","9.212222","19.2","NOTODDEN, NO","FM-15","ENNO ","V020","060,1,N,0041,1","00600,1,C,N","009000,1,N,1","+0070,1","+0060,1","99999,9","04,5,+00300,1,99,9","08,5,+00600,1,99,9",,"08,99,1,99,9,99,9,99999,9,99,9,99,9",,"10031,1,99999,9","61,1",,,,"MET062METAR ENNO 271150Z 06008KT 9000 -RA SCT010 OVC020 07/06 Q1003;",
"01470399999","2010-10-27T12:50:00","4","59.565683","9.212222","19.2","NOTODDEN, NO","FM-15","ENNO ","V020","070,1,N,0021,1","00450,1,C,N","011265,1,N,1","+0080,1","+0060,1","99999,9","02,5,+00300,1,99,9","08,5,+00450,1,99,9",,"08,99,1,99,9,99,9,99999,9,99,9,99,9",,"10020,1,99999,9",,,,,"MET058METAR ENNO 271250Z 07004KT 9999 FEW010 OVC015 08/06 Q1002;",
"01470399999","2010-10-27T13:50:00","4","59.565683","9.212222","19.2","NOTODDEN, NO","FM-15","ENNO ","V020","130,1,N,0015,1","00540,1,C,N","011265,1,N,1","+0070,1","+0060,1","99999,9","02,5,+00300,1,99,9","07,5,+00540,1,99,9",,"07,99,1,99,9,99,9,99999,9,99,9,99,9",,"10010,1,99999,9",,,,,"MET058METAR ENNO 271350Z 13003KT 9999 FEW010 BKN018 07/06 Q1001;",
"01470399999","2010-10-27T14:50:00","4","59.565683","9.212222","19.2","NOTODDEN, NO","FM-15","ENNO ","V020","090,1,N,0031,1","00540,1,C,N","011265,1,N,1","+0080,1","+0070,1","99999,9","02,5,+00300,1,99,9","07,5,+00540,1,99,9",,"07,99,1,99,9,99,9,99999,9,99,9,99,9",,"10010,1,99999,9",,,,,"MET058METAR ENNO 271450Z 09006KT 9999 FEW010 BKN018 08/07 Q1001;",
"01470399999","2010-10-27T15:50:00","4","59.565683","9.212222","19.2","NOTODDEN, NO","FM-15","ENNO ","V020","100,1,N,0015,1","00450,1,C,N","011265,1,N,1","+0070,1","+0060,1","99999,9","02,5,+00000,5,99,9","04,5,+00450,1,99,9","07,5,+01350,1,99,9","07,99,1,99,9,99,9,99999,9,99,9,99,9",,"10010,1,99999,9","41,1",,,,"MET070METAR ENNO 271550Z 10003KT 9999 PRFG FEW000 SCT015 BKN045 07/06 Q1001;",
"01470399999","2010-10-28T04:50:00","4","59.565683","9.212222","19.2","NOTODDEN, NO","FM-15","ENNO ","V020","999,9,V,0015,1","22000,1,9,N","011265,1,N,1","+0020,1","+0000,1","99999,9","02,5,+01800,1,99,9",,,"02,99,1,99,9,99,9,99999,9,99,9,99,9",,"10010,1,99999,9",,,,,"MET051METAR ENNO 280450Z VRB03KT 9999 FEW060 02/00 Q1001;",
"01470399999","2010-10-28T05:50:00","4","59.565683","9.212222","19.2","NOTODDEN, NO","FM-15","ENNO ","V020","280,1,N,0021,1","22000,1,9,N","011265,1,N,1","+0010,1","+0000,1","99999,9","02,5,+01800,1,99,9",,,"02,99,1,99,9,99,9,99999,9,99,9,99,9",,"10010,1,99999,9",,,,,"MET060METAR ENNO 280550Z 28004KT 200V300 9999 FEW060 01/M00 Q1001;",
"01470399999","2010-10-28T06:50:00","4","59.565683","9.212222","19.2","NOTODDEN, NO","FM-15","ENNO ","V020","270,1,N,0026,1","22000,1,9,N","011265,1,N,1","+0010,1","+0000,1","99999,9","02,5,+01650,5,99,9",,,"02,99,1,99,9,99,9,99999,9,99,9,99,9",,"10010,1,99999,9",,,,,"MET051METAR ENNO 280650Z 27005KT 9999 FEW055 01/00 Q1001;",
"01470399999","2010-10-28T07:50:00","4","59.565683","9.212222","19.2","NOTODDEN, NO","FM-15","ENNO ","V020","999,9,V,0005,1","99999,9,C,N","011265,1,N,1","+0000,1","+0000,1","99999,9","02,5,+01650,5,99,9","04,5,+03900,1,99,9",,"04,99,1,99,9,99,9,99999,9,99,9,99,9",,"10010,1,99999,9",,,,,"MET059METAR ENNO 280750Z VRB01KT 9999 FEW055 SCT130 00/M00 Q1001;","P01 039003SCOCIG"
"01470399999","2010-10-28T08:50:00","4","59.565683","9.212222","19.2","NOTODDEN, NO","FM-15","ENNO ","V020","999,9,V,0005,1","02100,1,C,N","011265,1,N,1","+0010,1","+0010,1","99999,9","02,5,+00900,1,99,9","04,5,+02100,1,99,9","07,5,+02700,1,99,9","07,99,1,99,9,99,9,99999,9,99,9,99,9",,"10010,1,99999,9",,,,,"MET065METAR ENNO 280850Z VRB01KT 9999 FEW030 SCT070 BKN090 01/01 Q1001;",
"01470399999","2010-10-28T09:50:00","4","59.565683","9.212222","19.2","NOTODDEN, NO","FM-15","ENNO ","V020","280,1,N,0015,1","01500,1,C,N","011265,1,N,1","+0020,1","+0010,1","99999,9","04,5,+00600,1,99,9","08,5,+01500,1,99,9",,"08,99,1,99,9,99,9,99999,9,99,9,99,9",,"10000,1,99999,9","51,1",,,,"MET062METAR ENNO 280950Z 28003KT 9999 -DZ SCT020 OVC050 02/01 Q1000;",
"01470399999","2010-10-28T10:50:00","4","59.565683","9.212222","19.2","NOTODDEN, NO","FM-15","ENNO ","V020","270,1,N,0015,1","01200,1,C,N","009000,1,N,1","+0020,1","+0020,1","99999,9","04,5,+00450,1,99,9","08,5,+01200,1,99,9",,"08,99,1,99,9,99,9,99999,9,99,9,99,9",,"10000,1,99999,9","61,1",,,,"MET070METAR ENNO 281050Z 27003KT 190V300 9000 -RA SCT015 OVC040 02/02 Q1000;",
"01470399999","2010-10-28T11:50:00","4","59.565683","9.212222","19.2","NOTODDEN, NO","FM-15","ENNO ","V020","999,9,V,0005,1","00240,1,C,N","011265,1,N,1","+0040,1","+0030,1","99999,9","02,5,+00060,1,99,9","04,5,+00240,1,99,9","07,5,+01200,1,99,9","07,99,1,99,9,99,9,99999,9,99,9,99,9",,"09990,1,99999,9","61,1",,,,"MET069METAR ENNO 281150Z VRB01KT 9999 -RA FEW002 SCT008 BKN040 04/03 Q0999;",
"01470399999","2010-10-28T12:50:00","4","59.565683","9.212222","19.2","NOTODDEN, NO","FM-15","ENNO ","V020","999,9,V,0010,1","99999,9,C,N","011265,1,N,1","+0050,1","+0050,1","99999,9","02,5,+00120,1,99,9","04,5,+00240,1,99,9",,"04,99,1,99,9,99,9,99999,9,99,9,99,9",,"10000,1,99999,9",,,,,"MET058METAR ENNO 281250Z VRB02KT 9999 FEW004 SCT008 05/05 Q1000;","P01 002403SCOCIG"
"01470399999","2010-10-28T13:50:00","4","59.565683","9.212222","19.2","NOTODDEN, NO","FM-15","ENNO ","V020","999,9,V,0005,1","99999,9,C,N","011265,1,N,1","+0060,1","+0050,1","99999,9","02,5,+00090,1,99,9","04,5,+00270,1,99,9",,"04,99,1,99,9,99,9,99999,9,99,9,99,9",,"10000,1,99999,9",,,,,"MET058METAR ENNO 281350Z VRB01KT 9999 FEW003 SCT009 06/05 Q1000;","P01 002703SCOCIG"
"01470399999","2010-10-28T14:50:00","4","59.565683","9.212222","19.2","NOTODDEN, NO","FM-15","ENNO ","V020","999,9,C,0000,1","99999,9,C,N","011265,1,N,1","+0050,1","+0040,1","99999,9","02,5,+00090,1,99,9","04,5,+00240,1,99,9",,"04,99,1,99,9,99,9,99999,9,99,9,99,9",,"10000,1,99999,9",,,,,"MET058METAR ENNO 281450Z 00000KT 9999 FEW003 SCT008 05/04 Q1000;","P01 002403SCOCIG"
"01470399999","2010-10-28T15:50:00","4","59.565683","9.212222","19.2","NOTODDEN, NO","FM-15","ENNO ","V020","999,9,V,0010,1","22000,1,9,N","011265,1,N,1","+0040,1","+0030,1","99999,9","02,5,+01500,1,99,9",,,"02,99,1,99,9,99,9,99999,9,99,9,99,9",,"10000,1,99999,9","41,1",,,,"MET063METAR ENNO 281550Z VRB02KT 9999 0900NW BCFG FEW050 04/03 Q1000;",
"01470399999","2010-10-29T05:50:00","4","59.565683","9.212222","19.2","NOTODDEN, NO","FM-15","ENNO ","V020","999,9,V,0005,1","00090,1,9,N","002000,1,N,1","+0000,1","+0000,1","99999,9","09,1,+00090,1,99,9",,,"09,99,1,99,9,99,9,00025,1,99,9,99,9",,"10061,1,99999,9","10,1",,,,"MET053METAR ENNO 290550Z VRB01KT 2000 BR VV003 00/00 Q1006;",
"01470399999","2010-10-29T06:50:00","4","59.565683","9.212222","19.2","NOTODDEN, NO","FM-15","ENNO ","V020","999,9,V,0010,1","00300,1,C,N","011265,1,N,1","+0000,1","+0000,1","99999,9","02,5,+00060,1,99,9","07,5,+00300,1,99,9",,"07,99,1,99,9,99,9,99999,9,99,9,99,9",,"10051,1,99999,9","51,1",,,,"MET062METAR ENNO 290650Z VRB02KT 9999 -DZ FEW002 BKN010 00/00 Q1005;",
"01470399999","2010-10-29T07:50:00","4","59.565683","9.212222","19.2","NOTODDEN, NO","FM-15","ENNO ","V020","270,1,N,0015,1","00300,1,C,N","011265,1,N,1","+0010,1","+0010,1","99999,9","02,5,+00060,1,99,9","04,5,+00300,1,99,9","07,5,+00510,1,99,9","07,99,1,99,9,99,9,99999,9,99,9,99,9",,"10051,1,99999,9","51,1",,,,"MET077METAR ENNO 290750Z 27003KT 240V300 9999 -DZ FEW002 SCT010 BKN017 01/01 Q1005;",
"01470399999","2010-10-29T08:50:00","4","59.565683","9.212222","19.2","NOTODDEN, NO","FM-15","ENNO ","V020","260,1,N,0015,1","00300,1,C,N","011265,1,N,1","+0010,1","+0010,1","99999,9","02,5,+00030,1,99,9","04,5,+00300,1,99,9","07,5,+00600,1,99,9","07,99,1,99,9,99,9,99999,9,99,9,99,9",,"10041,1,99999,9","61,1",,,,"MET077METAR ENNO 290850Z 26003KT 220V310 9999 -RA FEW001 SCT010 BKN020 01/01 Q1004;",
"01470399999","2010-10-29T09:50:00","4","59.565683","9.212222","19.2","NOTODDEN, NO","FM-15","ENNO ","V020","999,9,V,0005,1","00450,1,C,N","011265,1,N,1","+0010,1","+0010,1","99999,9","02,5,+00090,1,99,9","07,5,+00450,1,99,9",,"07,99,1,99,9,99,9,99999,9,99,9,99,9",,"10041,1,99999,9","40,1","61,1",,,"MET074METAR ENNO 290950Z VRB01KT 9999 8000NW -RA VCFG FEW003 BKN015 01/01 Q1004;",
"01470399999","2010-10-29T11:50:00","4","59.565683","9.212222","19.2","NOTODDEN, NO","FM-15","ENNO ","V020","280,1,N,0015,1","00450,1,C,N","009000,1,N,1","+0020,1","+0020,1","99999,9","02,5,+00090,1,99,9","07,5,+00450,1,99,9",,"07,99,1,99,9,99,9,99999,9,99,9,99,9",,"10020,1,99999,9","40,1","61,1",,,"MET074METAR ENNO 291150Z 28003KT 9000 6000NW -RA VCFG FEW003 BKN015 02/02 Q1002;",
"01470399999","2010-10-29T13:50:00","4","59.565683","9.212222","19.2","NOTODDEN, NO","FM-15","ENNO ","V020","999,9,V,0005,1","00180,1,C,N","008000,1,N,1","+0030,1","+0030,1","99999,9","02,5,+00090,1,99,9","04,5,+00180,1,99,9","07,5,+00450,1,99,9","07,99,1,99,9,99,9,99999,9,99,9,99,9",,"10000,1,99999,9","40,1","61,1",,,"MET081METAR ENNO 291350Z VRB01KT 8000 5000NW -RA VCFG FEW003 SCT006 BKN015 03/03 Q1000;",
"01470399999","2010-10-29T14:50:00","4","59.565683","9.212222","19.2","NOTODDEN, NO","FM-15","ENNO ","V020","999,9,V,0005,1","00180,1,C,N","011265,1,N,1","+0040,1","+0030,1","99999,9","02,5,+00060,1,99,9","04,5,+00180,1,99,9","07,5,+00450,1,99,9","07,99,1,99,9,99,9,99999,9,99,9,99,9",,"10000,1,99999,9",,,,,"MET065METAR ENNO 291450Z VRB01KT 9999 FEW002 SCT006 BKN015 04/03 Q1000;",
"01470399999","2010-10-29T15:50:00","4","59.565683","9.212222","19.2","NOTODDEN, NO","FM-15","ENNO ","V020","999,9,V,0005,1","00180,1,C,N","011265,1,N,1","+0040,1","+0030,1","99999,9","02,5,+00030,1,99,9","04,5,+00180,1,99,9","07,5,+00450,1,99,9","07,99,1,99,9,99,9,99999,9,99,9,99,9",,"09990,1,99999,9",,,,,"MET065METAR ENNO 291550Z VRB01KT 9999 FEW001 SCT006 BKN015 04/03 Q0999;",
"01470399999","2010-10-31T16:50:00","4","59.565683","9.212222","19.2","NOTODDEN, NO","FM-15","ENNO ","V020","090,1,N,0010,1","22000,1,9,N","011265,1,N,1","+0080,1","+0030,1","99999,9","02,5,+01710,5,99,9",,,"02,99,1,99,9,99,9,99999,9,99,9,99,9",,"10031,1,99999,9",,,,,"MET051METAR ENNO 311650Z 09002KT 9999 FEW057 08/03 Q1003;",
"01470399999","2010-10-31T17:50:00","4","59.565683","9.212222","19.2","NOTODDEN, NO","FM-15","ENNO ","V020","999,9,V,0015,1","99999,9,9,Y","009900,1,N,1","+0080,1","+0030,1","99999,9",,,,,,"10041,1,99999,9",,,,,"MET045METAR ENNO 311750Z VRB03KT CAVOK 08/03 Q1004;",
"01470399999","2010-10-31T18:50:00","4","59.565683","9.212222","19.2","NOTODDEN, NO","FM-15","ENNO ","V020","999,9,V,0010,1","99999,9,9,Y","009900,1,N,1","+0050,1","+0010,1","99999,9",,,,,,"10051,1,99999,9",,,,,"MET045METAR ENNO 311850Z VRB02KT CAVOK 05/01 Q1005;",
"01470399999","2010-11-01T05:50:00","4","59.565683","9.212222","19.2","NOTODDEN, NO","FM-15","ENNO ","V020","999,9,V,0005,1","01800,1,C,N","011265,1,N,1","+0010,1","+0000,1","99999,9","02,5,+00030,1,99,9","07,5,+01800,1,99,9",,"07,99,1,99,9,99,9,99999,9,99,9,99,9",,"10071,1,99999,9",,,,,"MET058METAR ENNO 010550Z VRB01KT 9999 FEW001 BKN060 01/00 Q1007;",
"01470399999","2010-11-01T07:50:00","4","59.565683","9.212222","19.2","NOTODDEN, NO","FM-15","ENNO ","V020","999,9,V,0005,1","00060,1,9,N","000800,1,N,1","+0010,1","+0010,1","99999,9","09,1,+00060,1,99,9",,,"09,99,1,99,9,99,9,00025,1,99,9,99,9",,"10091,1,99999,9","45,1",,,,"MET053METAR ENNO 010750Z VRB01KT 0800 FG VV002 01/01 Q1009;",
"01470399999","2010-11-01T08:50:00","4","59.565683","9.212222","19.2","NOTODDEN, NO","FM-15","ENNO ","V020","999,9,V,0005,1","22000,1,9,N","001200,1,N,1","+0020,1","+0020,1","99999,9","04,5,+01800,1,99,9",,,"04,99,1,99,9,99,9,99999,9,99,9,99,9",,"10091,1,99999,9","41,1",,,,"MET056METAR ENNO 010850Z VRB01KT 1200 BCFG SCT060 02/02 Q1009;",
"01470399999","2010-11-01T09:50:00","4","59.565683","9.212222","19.2","NOTODDEN, NO","FM-15","ENNO ","V020","999,9,V,0005,1","00090,1,C,N","001200,1,N,1","+0030,1","+0020,1","99999,9","07,5,+00090,1,99,9",,,"07,99,1,99,9,99,9,99999,9,99,9,99,9",,"10091,1,99999,9","41,1",,,,"MET056METAR ENNO 010950Z VRB01KT 1200 BCFG BKN003 03/02 Q1009;",
"01470399999","2010-11-01T10:50:00","4","59.565683","9.212222","19.2","NOTODDEN, NO","FM-15","ENNO ","V020","999,9,V,0005,1","99999,9,C,N","011265,1,N,1","+0030,1","+0030,1","99999,9","02,5,+00000,5,99,9","04,5,+00150,1,99,9",,"04,99,1,99,9,99,9,99999,9,99,9,99,9",,"10091,1,99999,9",,,,,"MET058METAR ENNO 011050Z VRB01KT 9999 FEW000 SCT005 03/03 Q1009;","P01 001503SCOCIG"
"01470399999","2010-11-01T11:50:00","4","59.565683","9.212222","19.2","NOTODDEN, NO","FM-15","ENNO ","V020","999,9,V,0005,1","99999,9,9,Y","009900,1,N,1","+0050,1","+0040,1","99999,9",,,,,,"10091,1,99999,9",,,,,"MET045METAR ENNO 011150Z VRB01KT CAVOK 05/04 Q1009;",
"01470399999","2010-11-01T13:50:00","4","59.565683","9.212222","19.2","NOTODDEN, NO","FM-15","ENNO ","V020","270,1,N,0015,1","99999,9,9,Y","009900,1,N,1","+0060,1","+0040,1","99999,9",,,,,,"10091,1,99999,9",,,,,"MET053METAR ENNO 011350Z 27003KT 210V300 CAVOK 06/04 Q1009;",
"01470399999","2010-11-01T15:50:00","4","59.565683","9.212222","19.2","NOTODDEN, NO","FM-15","ENNO ","V020","999,9,V,0010,1","99999,9,9,Y","009900,1,N,1","+0010,1","+0000,1","99999,9",,,,,,"10102,1,99999,9",,,,,"MET045METAR ENNO 011550Z VRB02KT CAVOK 01/00 Q1010;",
"01470399999","2010-11-01T16:50:00","4","59.565683","9.212222","19.2","NOTODDEN, NO","FM-15","ENNO ","V020","999,9,V,0010,1","99999,9,9,Y","009900,1,N,1","+0010,1","+0000,1","99999,9",,,,,,"10102,1,99999,9",,,,,"MET046METAR ENNO 011650Z VRB02KT CAVOK 01/M00 Q1010;",
"01470399999","2010-11-02T05:50:00","4","59.565683","9.212222","19.2","NOTODDEN, NO","FM-15","ENNO ","V020","999,9,V,0010,1","00540,1,C,N","011265,1,N,1","+0000,1","-0010,1","99999,9","02,5,+00150,1,99,9","07,5,+00540,1,99,9",,"07,99,1,99,9,99,9,99999,9,99,9,99,9",,"10041,1,99999,9","66,1",,,,"MET066METAR ENNO 020550Z VRB02KT 9999 -FZRA FEW005 BKN018 M00/M01 Q1004;",
"01470399999","2010-11-02T06:50:00","4","59.565683","9.212222","19.2","NOTODDEN, NO","FM-15","ENNO ","V020","999,9,V,0010,1","00180,1,C,N","011265,1,N,1","+0000,1","-0010,1","99999,9","02,5,+00060,1,99,9","04,5,+00180,1,99,9","07,5,+00510,1,99,9","07,99,1,99,9,99,9,99999,9,99,9,99,9",,"10031,1,99999,9","66,1",,,,"MET080METAR ENNO 020650Z VRB02KT 9999 6000NW -FZRA FEW002 SCT006 BKN017 M00/M01 Q1003;",
"01470399999","2010-11-02T07:50:00","4","59.565683","9.212222","19.2","NOTODDEN, NO","FM-15","ENNO ","V020","260,1,N,0015,1","00120,1,C,N","011265,1,N,1","+0000,1","+0000,1","99999,9","02,5,+00030,1,99,9","04,5,+00120,1,99,9","07,5,+00300,1,99,9","07,99,1,99,9,99,9,99999,9,99,9,99,9",,"10010,1,99999,9","66,1",,,,"MET088METAR ENNO 020750Z 26003KT 220V290 9999 5000NW -FZRA FEW001 SCT004 BKN010 M00/M00 Q1001;",
"01470399999","2010-11-02T08:50:00","4","59.565683","9.212222","19.2","NOTODDEN, NO","FM-15","ENNO ","V020","260,1,N,0015,1","00120,1,C,N","004000,1,N,1","+0000,1","+0000,1","99999,9","02,5,+00030,1,99,9","04,5,+00120,1,99,9","07,5,+00360,1,99,9","07,99,1,99,9,99,9,99999,9,99,9,99,9",,"09990,1,99999,9","10,1","61,1",,,"MET083METAR ENNO 020850Z 26003KT 190V290 4000NW -RA BR FEW001 SCT004 BKN012 00/M00 Q0999;",
"01470399999","2010-11-02T09:50:00","4","59.565683","9.212222","19.2","NOTODDEN, NO","FM-15","ENNO ","V020","999,9,V,0010,1","00150,1,C,N","005000,1,N,1","+0000,1","+0000,1","99999,9","02,5,+00030,1,99,9","04,5,+00150,1,99,9","07,5,+00390,1,99,9","07,99,1,99,9,99,9,99999,9,99,9,99,9",,"09980,1,99999,9","10,1","61,1",,,"MET073METAR ENNO 020950Z VRB02KT 5000 -RA BR FEW001 SCT005 BKN013 00/M00 Q0998;",
"01470399999","2010-11-02T10:50:00","4","59.565683","9.212222","19.2","NOTODDEN, NO","FM-15","ENNO ","V020","290,1,N,0026,1","00750,1,9,N","004000,1,N,1","+0010,1","+0010,1","99999,9","09,1,+00750,1,99,9",,,"09,99,1,99,9,99,9,00025,1,99,9,99,9",,"09959,1,99999,9","10,1","61,1",,,"MET065METAR ENNO 021050Z 29005KT 240V320 4000 -RA BR VV025 01/01 Q0996;",
"01470399999","2010-11-02T11:50:00","4","59.565683","9.212222","19.2","NOTODDEN, NO","FM-15","ENNO ","V020","280,1,N,0021,1","00660,1,9,N","005000,1,N,1","+0020,1","+0020,1","99999,9","09,1,+00660,1,99,9",,,"09,99,1,99,9,99,9,00025,1,99,9,99,9",,"09959,1,99999,9","10,1","61,1",,,"MET065METAR ENNO 021150Z 28004KT 220V320 5000 -RA BR VV022 02/02 Q0996;",
"01470399999","2010-11-02T12:50:00","4","59.565683","9.212222","19.2","NOTODDEN, NO","FM-15","ENNO ","V020","300,1,N,0026,1","00450,1,C,N","011265,1,N,1","+0030,1","+0030,1","99999,9","02,5,+00090,1,99,9","08,5,+00450,1,99,9",,"08,99,1,99,9,99,9,99999,9,99,9,99,9",,"09939,1,99999,9","61,1",,,,"MET062METAR ENNO 021250Z 30005KT 9999 -RA FEW003 OVC015 03/03 Q0994;",
"01470399999","2010-11-02T13:50:00","4","59.565683","9.212222","19.2","NOTODDEN, NO","FM-15","ENNO ","V020","270,1,N,0015,1","00480,1,C,N","009000,1,N,1","+0040,1","+0040,1","99999,9","02,5,+00090,1,99,9","04,5,+00480,1,99,9","08,5,+00660,1,99,9","08,99,1,99,9,99,9,99999,9,99,9,99,9",,"09929,1,99999,9","61,1",,,,"MET077METAR ENNO 021350Z 27003KT 240V300 9000 -RA FEW003 SCT016 OVC022 04/04 Q0993;",
"01470399999","2010-11-02T14:50:00","4","59.565683","9.212222","19.2","NOTODDEN, NO","FM-15","ENNO ","V020","290,1,N,0015,1","00480,1,C,N","009000,1,N,1","+0040,1","+0040,1","99999,9","02,5,+00090,1,99,9","04,5,+00480,1,99,9","07,5,+00720,1,99,9","07,99,1,99,9,99,9,99999,9,99,9,99,9",,"09929,1,99999,9",,,,,"MET073METAR ENNO 021450Z 29003KT 240V020 9000 FEW003 SCT016 BKN024 04/04 Q0993;",
"01470399999","2010-11-02T15:50:00","4","59.565683","9.212222","19.2","NOTODDEN, NO","FM-15","ENNO ","V020","999,9,V,0015,1","00450,1,C,N","009000,1,N,1","+0050,1","+0040,1","99999,9","02,5,+00060,1,99,9","04,5,+00450,1,99,9","07,5,+00660,1,99,9","07,99,1,99,9,99,9,99999,9,99,9,99,9",,"09919,1,99999,9",,,,,"MET065METAR ENNO 021550Z VRB03KT 9000 FEW002 SCT015 BKN022 05/04 Q0992;",
"01470399999","2010-11-03T05:50:00","4","59.565683","9.212222","19.2","NOTODDEN, NO","FM-15","ENNO ","V020","999,9,V,0005,1","00450,1,C,N","011265,1,N,1","+0050,1","+0050,1","99999,9","04,5,+00270,1,99,9","07,5,+00450,1,99,9",,"07,99,1,99,9,99,9,99999,9,99,9,99,9",,"09861,1,99999,9",,,,,"MET058METAR ENNO 030550Z VRB01KT 9999 SCT009 BKN015 05/05 Q0986;",
"01470399999","2010-11-03T06:50:00","4","59.565683","9.212222","19.2","NOTODDEN, NO","FM-15","ENNO ","V020","300,1,N,0031,1","00450,1,C,N","011265,1,N,1","+0050,1","+0040,1","99999,9","02,5,+00240,1,99,9","04,5,+00450,1,99,9","07,5,+00630,1,99,9","07,99,1,99,9,99,9,99999,9,99,9,99,9",,"09861,1,99999,9",,,,,"MET073METAR ENNO 030650Z 30006KT 270V330 9999 FEW008 SCT015 BKN021 05/04 Q0986;",
"01470399999","2010-11-03T07:50:00","4","59.565683","9.212222","19.2","NOTODDEN, NO","FM-15","ENNO ","V020","999,9,V,0010,1","99999,9,C,N","011265,1,N,1","+0040,1","+0040,1","99999,9","02,5,+00300,1,99,9","04,5,+00450,1,99,9",,"04,99,1,99,9,99,9,99999,9,99,9,99,9",,"09861,1,99999,9",,,,,"MET058METAR ENNO 030750Z VRB02KT 9999 FEW010 SCT015 04/04 Q0986;","P01 004503SCOCIG"
"01470399999","2010-11-03T08:50:00","4","59.565683","9.212222","19.2","NOTODDEN, NO","FM-15","ENNO ","V020","999,9,V,0010,1","00300,1,C,N","011265,1,N,1","+0050,1","+0040,1","99999,9","02,5,+00090,1,99,9","07,5,+00300,1,99,9",,"07,99,1,99,9,99,9,99999,9,99,9,99,9",,"09861,1,99999,9",,,,,"MET058METAR ENNO 030850Z VRB02KT 9999 FEW003 BKN010 05/04 Q0986;",
"01470399999","2010-11-03T10:20:00","4","59.565683","9.212222","19.2","NOTODDEN, NO","FM-15","ENNO ","V020","999,9,V,0021,1","00600,1,C,N","011265,1,N,1","+0080,1","+0060,1","99999,9","02,5,+00240,1,99,9","04,5,+00600,1,99,9","07,5,+06000,1,99,9","07,99,1,99,9,99,9,99999,9,99,9,99,9",,"09871,1,99999,9",,,,,"MET065METAR ENNO 031020Z VRB04KT 9999 FEW008 SCT020 BKN200 08/06 Q0987;",
"01470399999","2010-11-03T10:50:00","4","59.565683","9.212222","19.2","NOTODDEN, NO","FM-15","ENNO ","V020","100,1,N,0041,1","01500,1,C,N","011265,1,N,1","+0080,1","+0060,1","99999,9","02,5,+00360,1,99,9","04,5,+01650,5,99,9","07,5,+06000,1,99,9","07,99,1,99,9,99,9,99999,9,99,9,99,9",,"09871,1,99999,9",,,,,"MET065METAR ENNO 031050Z 10008KT 9999 FEW012 SCT055 BKN200 08/06 Q0987;",
"01470399999","2010-11-03T11:50:00","4","59.565683","9.212222","19.2","NOTODDEN, NO","FM-15","ENNO ","V020","999,9,V,0010,1","03600,1,C,N","011265,1,N,1","+0070,1","+0050,1","99999,9","02,5,+00900,1,99,9","07,5,+03600,1,99,9",,"07,99,1,99,9,99,9,99999,9,99,9,99,9",,"09861,1,99999,9",,,,,"MET058METAR ENNO 031150Z VRB02KT 9999 FEW030 BKN120 07/05 Q0986;",
"01470399999","2010-11-03T12:50:00","4","59.565683","9.212222","19.2","NOTODDEN, NO","FM-15","ENNO ","V020","100,1,N,0021,1","22000,1,9,N","011265,1,N,1","+0100,1","+0030,1","99999,9","04,5,+01500,1,99,9",,,"04,99,1,99,9,99,9,99999,9,99,9,99,9",,"09861,1,99999,9",,,,,"MET059METAR ENNO 031250Z 10004KT 050V150 9999 SCT050 10/03 Q0986;",
"01470399999","2010-11-03T13:50:00","4","59.565683","9.212222","19.2","NOTODDEN, NO","FM-15","ENNO ","V020","999,9,V,0015,1","22000,1,9,N","011265,1,N,1","+0090,1","+0030,1","99999,9","04,5,+01530,5,99,9",,,"04,99,1,99,9,99,9,99999,9,99,9,99,9",,"09871,1,99999,9",,,,,"MET051METAR ENNO 031350Z VRB03KT 9999 SCT051 09/03 Q0987;",
"01470399999","2010-11-03T14:50:00","4","59.565683","9.212222","19.2","NOTODDEN, NO","FM-15","ENNO ","V020","120,1,N,0026,1","22000,1,9,N","011265,1,N,1","+0090,1","+0040,1","99999,9","04,5,+01500,1,99,9",,,"04,99,1,99,9,99,9,99999,9,99,9,99,9",,"09871,1,99999,9",,,,,"MET051METAR ENNO 031450Z 12005KT 9999 SCT050 09/04 Q0987;",
"01470399999","2010-11-03T15:50:00","4","59.565683","9.212222","19.2","NOTODDEN, NO","FM-15","ENNO ","V020","999,9,V,0015,1","22000,1,9,N","011265,1,N,1","+0060,1","+0030,1","99999,9","04,5,+01500,1,99,9",,,"04,99,1,99,9,99,9,99999,9,99,9,99,9",,"09882,1,99999,9",,,,,"MET051METAR ENNO 031550Z VRB03KT 9999 SCT050 06/03 Q0988;",
"01470399999","2010-11-03T16:50:00","4","59.565683","9.212222","19.2","NOTODDEN, NO","FM-15","ENNO ","V020","330,1,N,0015,1","22000,1,9,N","011265,1,N,1","+0050,1","+0040,1","99999,9","04,5,+01380,1,99,9",,,"04,99,1,99,9,99,9,99999,9,99,9,99,9",,"09892,1,99999,9",,,,,"MET051METAR ENNO 031650Z 33003KT 9999 SCT046 05/04 Q0989;",
"01470399999","2010-11-04T05:50:00","4","59.565683","9.212222","19.2","NOTODDEN, NO","FM-15","ENNO ","V020","999,9,V,0010,1","99999,9,9,Y","009900,1,N,1","-0020,1","-0020,1","99999,9",,,,,,"09959,1,99999,9",,,,,"MET047METAR ENNO 040550Z VRB02KT CAVOK M02/M02 Q0996;",
"01470399999","2010-11-04T06:50:00","4","59.565683","9.212222","19.2","NOTODDEN, NO","FM-15","ENNO ","V020","999,9,V,0015,1","99999,9,9,Y","009900,1,N,1","-0010,1","-0020,1","99999,9",,,,,,"09959,1,99999,9",,,,,"MET047METAR ENNO 040650Z VRB03KT CAVOK M01/M02 Q0996;",
"01470399999","2010-11-04T07:50:00","4","59.565683","9.212222","19.2","NOTODDEN, NO","FM-15","ENNO ","V020","999,9,V,0010,1","99999,9,9,Y","009900,1,N,1","-0010,1","-0020,1","99999,9",,,,,,"09970,1,99999,9",,,,,"MET047METAR ENNO 040750Z VRB02KT CAVOK M01/M02 Q0997;",
"01470399999","2010-11-04T08:50:00","4","59.565683","9.212222","19.2","NOTODDEN, NO","FM-15","ENNO ","V020","999,9,V,0010,1","99999,9,9,Y","009900,1,N,1","+0020,1","+0000,1","99999,9",,,,,,"09970,1,99999,9",,,,,"MET045METAR ENNO 040850Z VRB02KT CAVOK 02/00 Q0997;",
"01470399999","2010-11-04T09:50:00","4","59.565683","9.212222","19.2","NOTODDEN, NO","FM-15","ENNO ","V020","110,1,N,0021,1","99999,9,9,Y","009900,1,N,1","+0060,1","+0000,1","99999,9",,,,,,"09980,1,99999,9",,,,,"MET053METAR ENNO 040950Z 11004KT 060V140 CAVOK 06/00 Q0998;",
"01470399999","2010-11-04T10:50:00","4","59.565683","9.212222","19.2","NOTODDEN, NO","FM-15","ENNO ","V020","150,1,N,0021,1","99999,9,9,Y","009900,1,N,1","+0070,1","+0000,1","99999,9",,,,,,"09980,1,99999,9",,,,,"MET045METAR ENNO 041050Z 15004KT CAVOK 07/00 Q0998;",
"01470399999","2010-11-04T11:50:00","4","59.565683","9.212222","19.2","NOTODDEN, NO","FM-15","ENNO ","V020","290,1,N,0031,1","99999,9,9,Y","009900,1,N,1","+0090,1","-0020,1","99999,9",,,,,,"09990,1,99999,9",,,,,"MET046METAR ENNO 041150Z 29006KT CAVOK 09/M02 Q0999;",
"01470399999","2010-11-04T12:50:00","4","59.565683","9.212222","19.2","NOTODDEN, NO","FM-15","ENNO ","V020","280,1,N,0057,1","99999,9,9,Y","009900,1,N,1","+0090,1","-0030,1","99999,9",,,,,,"09990,1,99999,9",,,,"0093,1","MET049METAR ENNO 041250Z 28011G18KT CAVOK 09/M03 Q0999;",
"01470399999","2010-11-04T13:50:00","4","59.565683","9.212222","19.2","NOTODDEN, NO","FM-15","ENNO ","V020","280,1,N,0057,1","99999,9,9,Y","009900,1,N,1","+0090,1","-0040,1","99999,9",,,,,,"09990,1,99999,9",,,,"0093,1","MET049METAR ENNO 041350Z 28011G18KT CAVOK 09/M04 Q0999;",
"01470399999","2010-11-04T14:50:00","4","59.565683","9.212222","19.2","NOTODDEN, NO","FM-15","ENNO ","V020","280,1,N,0031,1","99999,9,9,Y","009900,1,N,1","+0070,1","-0040,1","99999,9",,,,,,"10000,1,99999,9",,,,,"MET046METAR ENNO 041450Z 28006KT CAVOK 07/M04 Q1000;",
"01470399999","2010-11-04T15:50:00","4","59.565683","9.212222","19.2","NOTODDEN, NO","FM-15","ENNO ","V020","999,9,V,0005,1","99999,9,9,Y","009900,1,N,1","+0040,1","-0030,1","99999,9",,,,,,"10000,1,99999,9",,,,,"MET046METAR ENNO 041550Z VRB01KT CAVOK 04/M03 Q1000;",
"01470399999","2010-11-04T16:50:00","4","59.565683","9.212222","19.2","NOTODDEN, NO","FM-15","ENNO ","V020","999,9,V,0010,1","99999,9,9,Y","009900,1,N,1","+0010,1","-0030,1","99999,9",,,,,,"10000,1,99999,9",,,,,"MET046METAR ENNO 041650Z VRB02KT CAVOK 01/M03 Q1000;",
"01470399999","2010-11-05T05:50:00","4","59.565683","9.212222","19.2","NOTODDEN, NO","FM-15","ENNO ","V020","130,1,N,0015,1","99999,9,9,Y","009900,1,N,1","+0010,1","-0010,1","99999,9",,,,,,"10000,1,99999,9",,,,,"MET054METAR ENNO 050550Z 13003KT 080V160 CAVOK 01/M01 Q1000;",
"01470399999","2010-11-05T06:50:00","4","59.565683","9.212222","19.2","NOTODDEN, NO","FM-15","ENNO ","V020","999,9,V,0005,1","99999,9,9,Y","009900,1,N,1","+0000,1","-0010,1","99999,9",,,,,,"10000,1,99999,9",,,,,"MET046METAR ENNO 050650Z VRB01KT CAVOK 00/M01 Q1000;",
"01470399999","2010-11-05T08:20:00","4","59.565683","9.212222","19.2","NOTODDEN, NO","FM-15","ENNO ","V020","999,9,V,0005,1","99999,9,9,Y","009900,1,N,1","+0000,1","-0010,1","99999,9",,,,,,"10000,1,99999,9",,,,,"MET046METAR ENNO 050820Z VRB01KT CAVOK 00/M01 Q1000;",
"01470399999","2010-11-05T08:50:00","4","59.565683","9.212222","19.2","NOTODDEN, NO","FM-15","ENNO ","V020","999,9,V,0005,1","99999,9,9,Y","009900,1,N,1","+0010,1","+0000,1","99999,9",,,,,,"10010,1,99999,9",,,,,"MET046METAR ENNO 050850Z VRB01KT CAVOK 01/M00 Q1001;",
"01470399999","2010-11-05T09:50:00","4","59.565683","9.212222","19.2","NOTODDEN, NO","FM-15","ENNO ","V020","999,9,V,0010,1","99999,9,9,Y","009900,1,N,1","+0050,1","+0010,1","99999,9",,,,,,"10010,1,99999,9",,,,,"MET045METAR ENNO 050950Z VRB02KT CAVOK 05/01 Q1001;",
"01470399999","2010-11-05T10:50:00","4","59.565683","9.212222","19.2","NOTODDEN, NO","FM-15","ENNO ","V020","170,1,N,0015,1","99999,9,9,Y","009900,1,N,1","+0060,1","+0010,1","99999,9",,,,,,"10031,1,99999,9",,,,,"MET053METAR ENNO 051050Z 17003KT 120V250 CAVOK 06/01 Q1003;",
"01470399999","2010-11-05T11:50:00","4","59.565683","9.212222","19.2","NOTODDEN, NO","FM-15","ENNO ","V020","140,1,N,0031,1","99999,9,9,Y","009900,1,N,1","+0070,1","+0010,1","99999,9",,,,,,"10031,1,99999,9",,,,,"MET045METAR ENNO 051150Z 14006KT CAVOK 07/01 Q1003;",
"01470399999","2010-11-05T12:50:00","4","59.565683","9.212222","19.2","NOTODDEN, NO","FM-15","ENNO ","V020","230,1,N,0015,1","22000,1,9,N","011265,1,N,1","+0080,1","+0010,1","99999,9","02,5,+01650,5,99,9",,,"02,99,1,99,9,99,9,99999,9,99,9,99,9",,"10031,1,99999,9",,,,,"MET059METAR ENNO 051250Z 23003KT 170V300 9999 FEW055 08/01 Q1003;",
"01470399999","2010-11-05T13:50:00","4","59.565683","9.212222","19.2","NOTODDEN, NO","FM-15","ENNO ","V020","999,9,V,0015,1","99999,9,9,Y","009900,1,N,1","+0080,1","-0010,1","99999,9",,,,,,"10031,1,99999,9",,,,,"MET046METAR ENNO 051350Z VRB03KT CAVOK 08/M01 Q1003;",
"01470399999","2010-11-05T14:50:00","4","59.565683","9.212222","19.2","NOTODDEN, NO","FM-15","ENNO ","V020","330,1,N,0015,1","99999,9,9,Y","009900,1,N,1","+0070,1","-0020,1","99999,9",,,,,,"10041,1,99999,9",,,,,"MET046METAR ENNO 051450Z 33003KT CAVOK 07/M02 Q1004;",
"01470399999","2010-11-05T15:50:00","4","59.565683","9.212222","19.2","NOTODDEN, NO","FM-15","ENNO ","V020","310,1,N,0031,1","99999,9,9,Y","009900,1,N,1","+0040,1","-0010,1","99999,9",,,,,,"10041,1,99999,9",,,,,"MET046METAR ENNO 051550Z 31006KT CAVOK 04/M01 Q1004;",
"01470399999","2010-11-05T17:20:00","4","59.565683","9.212222","19.2","NOTODDEN, NO","FM-15","ENNO ","V020","999,9,V,0005,1","99999,9,9,Y","009900,1,N,1","+0000,1","-0020,1","99999,9",,,,,,"10041,1,99999,9",,,,,"MET046METAR ENNO 051720Z VRB01KT CAVOK 00/M02 Q1004;",
"01470399999","2010-11-07T09:50:00","4","59.565683","9.212222","19.2","NOTODDEN, NO","FM-15","ENNO ","V020","999,9,V,0005,1","99999,9,9,Y","009900,1,N,1","-0020,1","-0030,1","99999,9",,,,,,"10051,1,99999,9",,,,,"MET047METAR ENNO 070950Z VRB01KT CAVOK M02/M03 Q1005;",
"01470399999","2010-11-07T10:50:00","4","59.565683","9.212222","19.2","NOTODDEN, NO","FM-15","ENNO ","V020","999,9,V,0005,1","22000,1,9,N","011265,1,N,1","+0010,1","-0020,1","99999,9","02,5,+01800,1,99,9",,,"02,99,1,99,9,99,9,99999,9,99,9,99,9",,"10041,1,99999,9",,,,,"MET052METAR ENNO 071050Z VRB01KT 9999 FEW060 01/M02 Q1004;",
"01470399999","2010-11-07T11:50:00","4","59.565683","9.212222","19.2","NOTODDEN, NO","FM-15","ENNO ","V020","999,9,V,0010,1","22000,1,9,N","011265,1,N,1","+0000,1","-0030,1","99999,9","02,5,+01800,1,99,9",,,"02,99,1,99,9,99,9,99999,9,99,9,99,9",,"10041,1,99999,9",,,,,"MET052METAR ENNO 071150Z VRB02KT 9999 FEW060 00/M03 Q1004;",
"01470399999","2010-11-07T16:50:00","4","59.565683","9.212222","19.2","NOTODDEN, NO","FM-15","ENNO ","V020","999,9,V,0005,1","99999,9,9,Y","009900,1,N,1","-0030,1","-0050,1","99999,9",,,,,,"10020,1,99999,9",,,,,"MET047METAR ENNO 071650Z VRB01KT CAVOK M03/M05 Q1002;",
"01470399999","2010-11-07T17:50:00","4","59.565683","9.212222","19.2","NOTODDEN, NO","FM-15","ENNO ","V020","290,1,N,0015,1","99999,9,9,Y","009900,1,N,1","-0040,1","-0050,1","99999,9",,,,,,"10020,1,99999,9",,,,,"MET047METAR ENNO 071750Z 29003KT CAVOK M04/M05 Q1002;",
"01470399999","2010-11-07T18:50:00","4","59.565683","9.212222","19.2","NOTODDEN, NO","FM-15","ENNO ","V020","999,9,V,0010,1","99999,9,9,Y","009900,1,N,1","-0050,1","-0060,1","99999,9",,,,,,"10031,1,99999,9",,,,,"MET047METAR ENNO 071850Z VRB02KT CAVOK M05/M06 Q1003;",
"01470399999","2010-11-07T19:50:00","4","59.565683","9.212222","19.2","NOTODDEN, NO","FM-15","ENNO ","V020","999,9,V,0010,1","99999,9,9,Y","009900,1,N,1","-0060,1","-0070,1","99999,9",,,,,,"10020,1,99999,9",,,,,"MET047METAR ENNO 071950Z VRB02KT CAVOK M06/M07 Q1002;",
"01470399999","2010-11-08T05:50:00","4","59.565683","9.212222","19.2","NOTODDEN, NO","FM-15","ENNO ","V020","999,9,V,0010,1","01770,5,C,N","011265,1,N,1","-0090,1","-0090,1","99999,9","07,5,+01770,5,99,9",,,"07,99,1,99,9,99,9,99999,9,99,9,99,9",,"10020,1,99999,9",,,,,"MET053METAR ENNO 080550Z VRB02KT 9999 BKN059 M09/M09 Q1002;",
"01470399999","2010-11-08T06:50:00","4","59.565683","9.212222","19.2","NOTODDEN, NO","FM-15","ENNO ","V020","999,9,V,0005,1","01500,1,C,N","011265,1,N,1","-0070,1","-0080,1","99999,9","07,5,+01500,1,99,9",,,"07,99,1,99,9,99,9,99999,9,99,9,99,9",,"10020,1,99999,9",,,,,"MET053METAR ENNO 080650Z VRB01KT 9999 BKN050 M07/M08 Q1002;",
"01470399999","2010-11-08T07:50:00","4","59.565683","9.212222","19.2","NOTODDEN, NO","FM-15","ENNO ","V020","310,1,N,0010,1","01710,5,C,N","011265,1,N,1","-0060,1","-0070,1","99999,9","07,5,+01710,5,99,9",,,"07,99,1,99,9,99,9,99999,9,99,9,99,9",,"10020,1,99999,9",,,,,"MET053METAR ENNO 080750Z 31002KT 9999 BKN057 M06/M07 Q1002;",
"01470399999","2010-11-08T08:50:00","4","59.565683","9.212222","19.2","NOTODDEN, NO","FM-15","ENNO ","V020","260,1,N,0010,1","22000,1,9,N","011265,1,N,1","-0050,1","-0060,1","99999,9","04,5,+01890,5,99,9",,,"04,99,1,99,9,99,9,99999,9,99,9,99,9",,"10020,1,99999,9",,,,,"MET053METAR ENNO 080850Z 26002KT 9999 SCT063 M05/M06 Q1002;",
"01470399999","2010-11-08T09:50:00","4","59.565683","9.212222","19.2","NOTODDEN, NO","FM-15","ENNO ","V020","280,1,N,0026,1","22000,1,9,N","011265,1,N,1","-0030,1","-0060,1","99999,9","02,5,+01890,5,99,9",,,"02,99,1,99,9,99,9,99999,9,99,9,99,9",,"10010,1,99999,9",,,,,"MET053METAR ENNO 080950Z 28005KT 9999 FEW063 M03/M06 Q1001;",
"01470399999","2010-11-08T10:50:00","4","59.565683","9.212222","19.2","NOTODDEN, NO","FM-15","ENNO ","V020","270,1,N,0015,1","22000,1,9,N","011265,1,N,1","-0010,1","-0060,1","99999,9","04,5,+01380,1,99,9",,,"04,99,1,99,9,99,9,99999,9,99,9,99,9",,"10010,1,99999,9",,,,,"MET053METAR ENNO 081050Z 27003KT 9999 SCT046 M01/M06 Q1001;",
"01470399999","2010-11-08T11:50:00","4","59.565683","9.212222","19.2","NOTODDEN, NO","FM-15","ENNO ","V020","999,9,V,0005,1","22000,1,9,N","011265,1,N,1","-0010,1","-0060,1","99999,9","04,5,+01440,1,99,9",,,"04,99,1,99,9,99,9,99999,9,99,9,99,9",,"10010,1,99999,9",,,,,"MET053METAR ENNO 081150Z VRB01KT 9999 SCT048 M01/M06 Q1001;",
"01470399999","2010-11-08T12:50:00","4","59.565683","9.212222","19.2","NOTODDEN, NO","FM-15","ENNO ","V020","999,9,V,0005,1","01800,1,C,N","011265,1,N,1","+0000,1","-0060,1","99999,9","07,5,+01800,1,99,9",,,"07,99,1,99,9,99,9,99999,9,99,9,99,9",,"10010,1,99999,9",,,,,"MET053METAR ENNO 081250Z VRB01KT 9999 BKN060 M00/M06 Q1001;",
"01470399999","2010-11-08T13:50:00","4","59.565683","9.212222","19.2","NOTODDEN, NO","FM-15","ENNO ","V020","310,1,N,0010,1","01800,1,C,N","011265,1,N,1","+0000,1","-0050,1","99999,9","02,5,+01200,1,99,9","07,5,+01800,1,99,9",,"07,99,1,99,9,99,9,99999,9,99,9,99,9",,"10000,1,99999,9",,,,,"MET060METAR ENNO 081350Z 31002KT 9999 FEW040 BKN060 M00/M05 Q1000;",
"01470399999","2010-11-08T14:50:00","4","59.565683","9.212222","19.2","NOTODDEN, NO","FM-15","ENNO ","V020","999,9,C,0000,1","01800,1,C,N","011265,1,N,1","+0000,1","-0050,1","99999,9","04,5,+01200,1,99,9","07,5,+01800,1,99,9",,"07,99,1,99,9,99,9,99999,9,99,9,99,9",,"10000,1,99999,9",,,,,"MET060METAR ENNO 081450Z 00000KT 9999 SCT040 BKN060 M00/M05 Q1000;",
"01470399999","2010-11-08T15:50:00","4","59.565683","9.212222","19.2","NOTODDEN, NO","FM-15","ENNO ","V020","999,9,V,0010,1","01710,5,C,N","011265,1,N,1","+0000,1","-0060,1","99999,9","02,5,+01200,1,99,9","07,5,+01710,5,99,9",,"07,99,1,99,9,99,9,99999,9,99,9,99,9",,"10000,1,99999,9",,,,,"MET059METAR ENNO 081550Z VRB02KT 9999 FEW040 BKN057 00/M06 Q1000;",
"01470399999","2010-11-09T05:50:00","4","59.565683","9.212222","19.2","NOTODDEN, NO","FM-15","ENNO ","V020","290,1,N,0036,1","00900,1,C,N","011265,1,N,1","+9999,9","+9999,9","99999,9","07,5,+00900,1,99,9",,,"07,99,1,99,9,99,9,99999,9,99,9,99,9",,"10010,1,99999,9",,,,,"MET053METAR ENNO 090550Z 29007KT 9999 BKN030 MO7/M09 Q1001;",
"01470399999","2010-11-09T06:50:00","4","59.565683","9.212222","19.2","NOTODDEN, NO","FM-15","ENNO ","V020","300,1,N,0036,1","01050,1,C,N","011265,1,N,1","+9999,9","+9999,9","99999,9","07,5,+01050,1,99,9",,,"07,99,1,99,9,99,9,99999,9,99,9,99,9",,"10010,1,99999,9",,,,,"MET053METAR ENNO 090650Z 30007KT 9999 BKN035 MO3/M08 Q1001;",
"01470399999","2010-11-09T07:50:00","4","59.565683","9.212222","19.2","NOTODDEN, NO","FM-15","ENNO ","V020","300,1,N,0057,1","01050,1,C,N","011265,1,N,1","+9999,9","+9999,9","99999,9","07,5,+01050,1,99,9",,,"07,99,1,99,9,99,9,99999,9,99,9,99,9",,"10010,1,99999,9",,,,"0118,1","MET056METAR ENNO 090750Z 30011G23KT 9999 BKN035 MO2/M08 Q1001;",
"01470399999","2010-11-09T08:50:00","4","59.565683","9.212222","19.2","NOTODDEN, NO","FM-15","ENNO ","V020","300,1,N,0062,1","00960,1,C,N","011265,1,N,1","+9999,9","+9999,9","99999,9","07,5,+00960,1,99,9",,,"07,99,1,99,9,99,9,99999,9,99,9,99,9",,"10000,1,99999,9",,,,,"MET061METAR ENNO 090850Z 30012KT 250V360 9999 BKN032 MO2/M08 Q1000;",
"01470399999","2010-11-09T09:50:00","4","59.565683","9.212222","19.2","NOTODDEN, NO","FM-15","ENNO ","V020","290,1,N,0057,1","00960,1,C,N","011265,1,N,1","-0020,1","-0080,1","99999,9","07,5,+00960,1,99,9",,,"07,99,1,99,9,99,9,99999,9,99,9,99,9",,"10000,1,99999,9",,,,,"MET061METAR ENNO 090950Z 29011KT 250V310 9999 BKN032 M02/M08 Q1000;",
"01470399999","2010-11-09T10:50:00","4","59.565683","9.212222","19.2","NOTODDEN, NO","FM-15","ENNO ","V020","300,1,N,0046,1","00960,1,C,N","011265,1,N,1","-0010,1","-0080,1","99999,9","07,5,+00960,1,99,9",,,"07,99,1,99,9,99,9,99999,9,99,9,99,9",,"09990,1,99999,9",,,,,"MET061METAR ENNO 091050Z 30009KT 270V360 9999 BKN032 M01/M08 Q0999;",
"01470399999","2010-11-09T11:50:00","4","59.565683","9.212222","19.2","NOTODDEN, NO","FM-15","ENNO ","V020","320,1,N,0041,1","01050,1,C,N","011265,1,N,1","+0000,1","-0080,1","99999,9","07,5,+01050,1,99,9",,,"07,99,1,99,9,99,9,99999,9,99,9,99,9",,"09990,1,99999,9",,,,,"MET061METAR ENNO 091150Z 32008KT 270V010 9999 BKN035 M00/M08 Q0999;",
"01470399999","2010-11-09T12:50:00","4","59.565683","9.212222","19.2","NOTODDEN, NO","FM-15","ENNO ","V020","310,1,N,0041,1","01050,1,C,N","011265,1,N,1","+0000,1","-0080,1","99999,9","07,5,+01050,1,99,9",,,"07,99,1,99,9,99,9,99999,9,99,9,99,9",,"09980,1,99999,9",,,,,"MET061METAR ENNO 091250Z 31008KT 250V030 9999 BKN035 M00/M08 Q0998;",
"01470399999","2010-11-09T13:50:00","4","59.565683","9.212222","19.2","NOTODDEN, NO","FM-15","ENNO ","V020","320,1,N,0046,1","03000,1,C,N","011265,1,N,1","+0000,1","-0080,1","99999,9","02,5,+01050,1,99,9","07,5,+03000,1,99,9",,"07,99,1,99,9,99,9,99999,9,99,9,99,9",,"09970,1,99999,9",,,,,"MET068METAR ENNO 091350Z 32009KT 250V030 9999 FEW035 BKN100 M00/M08 Q0997;",
"01470399999","2010-11-09T14:50:00","4","59.565683","9.212222","19.2","NOTODDEN, NO","FM-15","ENNO ","V020","320,1,N,0036,1","03000,1,C,N","011265,1,N,1","+0000,1","-0080,1","99999,9","02,5,+01050,1,99,9","07,5,+03000,1,99,9",,"07,99,1,99,9,99,9,99999,9,99,9,99,9",,"09970,1,99999,9","16,1",,,,"MET073METAR ENNO 091450Z 32007KT 240V030 9999 VCSH FEW035 BKN100 M00/M08 Q0997;",
"01470399999","2010-11-09T15:50:00","4","59.565683","9.212222","19.2","NOTODDEN, NO","FM-15","ENNO ","V020","290,1,N,0046,1","01500,1,C,N","011265,1,N,1","+0000,1","-0080,1","99999,9","02,5,+00750,1,99,9","07,5,+01500,1,99,9",,"07,99,1,99,9,99,9,99999,9,99,9,99,9",,"09959,1,99999,9","16,1",,,,"MET073METAR ENNO 091550Z 29009KT 250V030 9999 VCSH FEW025 BKN050 M00/M08 Q0996;",
"01470399999","2010-11-10T03:50:00","4","59.565683","9.212222","19.2","NOTODDEN, NO","FM-15","ENNO ","V020","290,1,N,0021,1","00540,1,C,N","006000,1,N,1","-0020,1","-0030,1","99999,9","07,5,+00540,1,99,9",,,"07,99,1,99,9,99,9,99999,9,99,9,99,9",,"09909,1,99999,9","71,1",,,,"MET057METAR ENNO 100350Z 29004KT 6000 -SN BKN018 M02/M03 Q0991;",
"01470399999","2010-11-10T05:50:00","4","59.565683","9.212222","19.2","NOTODDEN, NO","FM-15","ENNO ","V020","280,1,N,0015,1","00540,1,C,N","007000,1,N,1","-0020,1","-0030,1","99999,9","07,5,+00540,1,99,9",,,"07,99,1,99,9,99,9,99999,9,99,9,99,9",,"09909,1,99999,9","71,1",,,,"MET057METAR ENNO 100550Z 28003KT 7000 -SN BKN018 M02/M03 Q0991;",
"01470399999","2010-11-10T06:50:00","4","59.565683","9.212222","19.2","NOTODDEN, NO","FM-15","ENNO ","V020","280,1,N,0015,1","00540,1,C,N","007000,1,N,1","-0020,1","-0030,1","99999,9","07,5,+00540,1,99,9",,,"07,99,1,99,9,99,9,99999,9,99,9,99,9",,"09909,1,99999,9","71,1",,,,"MET057METAR ENNO 100650Z 28003KT 7000 -SN BKN018 M02/M03 Q0991;",
"01470399999","2010-11-10T10:50:00","4","59.565683","9.212222","19.2","NOTODDEN, NO","FM-15","ENNO ","V020","999,9,V,0015,1","01350,1,C,N","011265,1,N,1","+0000,1","-0030,1","99999,9","07,5,+01350,1,99,9",,,"07,99,1,99,9,99,9,99999,9,99,9,99,9",,"09919,1,99999,9",,,,,"MET053METAR ENNO 101050Z VRB03KT 9999 BKN045 M00/M03 Q0992;",
"01470399999","2010-11-10T11:50:00","4","59.565683","9.212222","19.2","NOTODDEN, NO","FM-15","ENNO ","V020","360,1,N,0021,1","01350,1,C,N","011265,1,N,1","+0010,1","-0060,1","99999,9","07,5,+01350,1,99,9",,,"07,99,1,99,9,99,9,99999,9,99,9,99,9",,"09909,1,99999,9",,,,,"MET060METAR ENNO 101150Z 36004KT 290V060 9999 BKN045 01/M06 Q0991;",
"01470399999","2010-11-10T12:50:00","4","59.565683","9.212222","19.2","NOTODDEN, NO","FM-15","ENNO ","V020","999,9,V,0010,1","01350,1,C,N","011265,1,N,1","+0010,1","-0060,1","99999,9","07,5,+01350,1,99,9",,,"07,99,1,99,9,99,9,99999,9,99,9,99,9",,"09909,1,99999,9",,,,,"MET052METAR ENNO 101250Z VRB02KT 9999 BKN045 01/M06 Q0991;",
"01470399999","2010-11-10T13:50:00","4","59.565683","9.212222","19.2","NOTODDEN, NO","FM-15","ENNO ","V020","999,9,V,0005,1","01350,1,C,N","011265,1,N,1","+0010,1","-0070,1","99999,9","07,5,+01350,1,99,9",,,"07,99,1,99,9,99,9,99999,9,99,9,99,9",,"09909,1,99999,9",,,,,"MET052METAR ENNO 101350Z VRB01KT 9999 BKN045 01/M07 Q0991;",
"01470399999","2010-11-10T14:50:00","4","59.565683","9.212222","19.2","NOTODDEN, NO","FM-15","ENNO ","V020","999,9,V,0010,1","01350,1,C,N","011265,1,N,1","+0000,1","-0050,1","99999,9","07,5,+01350,1,99,9",,,"07,99,1,99,9,99,9,99999,9,99,9,99,9",,"09909,1,99999,9",,,,,"MET053METAR ENNO 101450Z VRB02KT 9999 BKN045 M00/M05 Q0991;",
"01470399999","2010-11-10T16:20:00","4","59.565683","9.212222","19.2","NOTODDEN, NO","FM-15","ENNO ","V020","999,9,V,0010,1","01350,1,C,N","011265,1,N,1","-0010,1","-0050,1","99999,9","07,5,+01350,1,99,9",,,"07,99,1,99,9,99,9,99999,9,99,9,99,9",,"09919,1,99999,9",,,,,"MET053METAR ENNO 101620Z VRB02KT 9999 BKN045 M01/M05 Q0992;",
"01470399999","2010-11-10T16:50:00","4","59.565683","9.212222","19.2","NOTODDEN, NO","FM-15","ENNO ","V020","999,9,V,0010,1","01350,1,C,N","011265,1,N,1","-0010,1","-0050,1","99999,9","07,5,+01350,1,99,9",,,"07,99,1,99,9,99,9,99999,9,99,9,99,9",,"09919,1,99999,9",,,,,"MET053METAR ENNO 101650Z VRB02KT 9999 BKN045 M01/M05 Q0992;",
"01470399999","2010-11-11T05:50:00","4","59.565683","9.212222","19.2","NOTODDEN, NO","FM-15","ENNO ","V020","999,9,V,0010,1","99999,9,9,Y","009900,1,N,1","-0110,1","-0120,1","99999,9",,,,,,"09939,1,99999,9",,,,,"MET047METAR ENNO 110550Z VRB02KT CAVOK M11/M12 Q0994;",
"01470399999","2010-11-11T06:50:00","4","59.565683","9.212222","19.2","NOTODDEN, NO","FM-15","ENNO ","V020","999,9,C,0000,1","22000,1,9,N","011265,1,N,1","-0120,1","-0130,1","99999,9","02,5,+00270,1,99,9",,,"02,99,1,99,9,99,9,99999,9,99,9,99,9",,"09939,1,99999,9",,,,,"MET053METAR ENNO 110650Z 00000KT 9999 FEW009 M12/M13 Q0994;",
"01470399999","2010-11-11T07:50:00","4","59.565683","9.212222","19.2","NOTODDEN, NO","FM-15","ENNO ","V020","999,9,V,0015,1","22000,1,9,N","011265,1,N,1","-0110,1","-0120,1","99999,9","02,5,+00270,1,99,9",,,"02,99,1,99,9,99,9,99999,9,99,9,99,9",,"09949,1,99999,9",,,,,"MET053METAR ENNO 110750Z VRB03KT 9999 FEW009 M11/M12 Q0995;",
"01470399999","2010-11-11T08:50:00","4","59.565683","9.212222","19.2","NOTODDEN, NO","FM-15","ENNO ","V020","999,9,C,0000,1","22000,1,9,N","011265,1,N,1","-0080,1","-0090,1","99999,9","02,5,+00210,1,99,9",,,"02,99,1,99,9,99,9,99999,9,99,9,99,9",,"09939,1,99999,9",,,,,"MET053METAR ENNO 110850Z 00000KT 9999 FEW007 M08/M09 Q0994;",
"01470399999","2010-11-11T09:50:00","4","59.565683","9.212222","19.2","NOTODDEN, NO","FM-15","ENNO ","V020","999,9,V,0005,1","22000,1,9,N","011265,1,N,1","-0070,1","+9999,9","99999,9","02,5,+00300,1,99,9",,,"02,99,1,99,9,99,9,99999,9,99,9,99,9",,"09939,1,99999,9",,,,,"MET052METAR ENNO 110950Z VRB01KT 9999 FEW010 M07/M0 Q0994;",
"01470399999","2010-11-11T10:50:00","4","59.565683","9.212222","19.2","NOTODDEN, NO","FM-15","ENNO ","V020","999,9,V,0005,1","99999,9,9,Y","009900,1,N,1","-0060,1","-0080,1","99999,9",,,,,,"09929,1,99999,9",,,,,"MET047METAR ENNO 111050Z VRB01KT CAVOK M06/M08 Q0993;",
"01470399999","2010-11-11T11:50:00","4","59.565683","9.212222","19.2","NOTODDEN, NO","FM-15","ENNO ","V020","999,9,V,0010,1","99999,9,9,Y","009900,1,N,1","-0050,1","-0070,1","99999,9",,,,,,"09919,1,99999,9",,,,,"MET047METAR ENNO 111150Z VRB02KT CAVOK M05/M07 Q0992;",
"01470399999","2010-11-11T13:50:00","4","59.565683","9.212222","19.2","NOTODDEN, NO","FM-15","ENNO ","V020","999,9,V,0010,1","22000,1,9,N","011265,1,N,1","-0050,1","-0070,1","99999,9","04,5,+01500,1,99,9",,,"04,99,1,99,9,99,9,99999,9,99,9,99,9",,"09909,1,99999,9",,,,,"MET053METAR ENNO 111350Z VRB02KT 9999 SCT050 M05/M07 Q0991;",
"01470399999","2010-11-11T14:50:00","4","59.565683","9.212222","19.2","NOTODDEN, NO","FM-15","ENNO ","V020","280,1,N,0015,1","01500,1,C,N","011265,1,N,1","-0050,1","-0070,1","99999,9","07,5,+01500,1,99,9",,,"07,99,1,99,9,99,9,99999,9,99,9,99,9",,"09898,1,99999,9",,,,,"MET053METAR ENNO 111450Z 28003KT 9999 BKN050 M05/M07 Q0990;",
"01470399999","2010-11-11T15:50:00","4","59.565683","9.212222","19.2","NOTODDEN, NO","FM-15","ENNO ","V020","280,1,N,0015,1","00900,1,C,N","011265,1,N,1","-0040,1","-0060,1","99999,9","07,5,+00900,1,99,9",,,"07,99,1,99,9,99,9,99999,9,99,9,99,9",,"09871,1,99999,9",,,,,"MET053METAR ENNO 111550Z 28003KT 9999 BKN030 M04/M06 Q0987;",
"01470399999","2010-11-12T03:50:00","4","59.565683","9.212222","19.2","NOTODDEN, NO","FM-15","ENNO ","V020","290,1,N,0021,1","00660,1,C,N","011265,1,N,1","-0020,1","-0030,1","99999,9","08,5,+00660,1,99,9",,,"08,99,1,99,9,99,9,99999,9,99,9,99,9",,"09729,1,99999,9",,,,,"MET053METAR ENNO 120350Z 29004KT 9999 OVC022 M02/M03 Q0973;",
"01470399999","2010-11-12T04:50:00","4","59.565683","9.212222","19.2","NOTODDEN, NO","FM-15","ENNO ","V020","280,1,N,0021,1","00300,1,9,N","003000,1,N,1","-0020,1","-0030,1","99999,9","09,1,+00300,1,99,9",,,"09,99,1,99,9,99,9,00025,1,99,9,99,9",,"09729,1,99999,9","71,1",,,,"MET064METAR ENNO 120450Z 28004KT 250V310 3000 -SN VV010 M02/M03 Q0973;",
"01470399999","2010-11-12T05:50:00","4","59.565683","9.212222","19.2","NOTODDEN, NO","FM-15","ENNO ","V020","270,1,N,0010,1","00780,1,C,N","009000,1,N,1","-0020,1","-0030,1","99999,9","08,5,+00780,1,99,9",,,"08,99,1,99,9,99,9,99999,9,99,9,99,9",,"09719,1,99999,9",,,,,"MET053METAR ENNO 120550Z 27002KT 9000 OVC026 M02/M03 Q0972;",
"01470399999","2010-11-12T06:50:00","4","59.565683","9.212222","19.2","NOTODDEN, NO","FM-15","ENNO ","V020","999,9,V,0010,1","01260,1,C,N","011265,1,N,1","-0020,1","-0020,1","99999,9","04,5,+00780,1,99,9","07,5,+01260,1,99,9",,"07,99,1,99,9,99,9,99999,9,99,9,99,9",,"09719,1,99999,9",,,,,"MET060METAR ENNO 120650Z VRB02KT 9999 SCT026 BKN042 M02/M02 Q0972;",
"01470399999","2010-11-12T07:50:00","4","59.565683","9.212222","19.2","NOTODDEN, NO","FM-15","ENNO ","V020","270,1,N,0015,1","00780,1,C,N","011265,1,N,1","-0010,1","-0020,1","99999,9","02,5,+00540,1,99,9","04,5,+00780,1,99,9","07,5,+01380,1,99,9","07,99,1,99,9,99,9,99999,9,99,9,99,9",,"09729,1,99999,9",,,,,"MET075METAR ENNO 120750Z 27003KT 200V320 9999 FEW018 SCT026 BKN046 M01/M02 Q0973;",
"01470399999","2010-11-12T08:50:00","4","59.565683","9.212222","19.2","NOTODDEN, NO","FM-15","ENNO ","V020","270,1,N,0015,1","00750,1,C,N","011265,1,N,1","-0010,1","-0010,1","99999,9","02,5,+00300,1,99,9","07,5,+00750,1,99,9",,"07,99,1,99,9,99,9,99999,9,99,9,99,9",,"09719,1,99999,9",,,,,"MET068METAR ENNO 120850Z 27003KT 200V320 9999 FEW010 BKN025 M01/M01 Q0972;",
"01470399999","2010-11-12T09:50:00","4","59.565683","9.212222","19.2","NOTODDEN, NO","FM-15","ENNO ","V020","300,1,N,0031,1","00750,1,C,N","011265,1,N,1","+0000,1","-0010,1","99999,9","02,5,+00300,1,99,9","07,5,+00750,1,99,9",,"07,99,1,99,9,99,9,99999,9,99,9,99,9",,"09719,1,99999,9",,,,,"MET060METAR ENNO 120950Z 30006KT 9999 FEW010 BKN025 M00/M01 Q0972;",
"01470399999","2010-11-12T10:50:00","4","59.565683","9.212222","19.2","NOTODDEN, NO","FM-15","ENNO ","V020","300,1,N,0031,1","00720,1,C,N","011265,1,N,1","+0000,1","-0010,1","99999,9","02,5,+00300,1,99,9","07,5,+00720,1,99,9",,"07,99,1,99,9,99,9,99999,9,99,9,99,9",,"09719,1,99999,9",,,,,"MET059METAR ENNO 121050Z 30006KT 9999 FEW010 BKN024 00/M01 Q0972;",
"01470399999","2010-11-12T11:50:00","4","59.565683","9.212222","19.2","NOTODDEN, NO","FM-15","ENNO ","V020","310,1,N,0015,1","00720,1,C,N","008000,1,N,1","+0000,1","-0010,1","99999,9","02,5,+00300,1,99,9","07,5,+00720,1,99,9",,"07,99,1,99,9,99,9,99999,9,99,9,99,9",,"09719,1,99999,9","71,1",,,,"MET063METAR ENNO 121150Z 31003KT 8000 -SN FEW010 BKN024 00/M01 Q0972;",
"01470399999","2010-11-12T12:50:00","4","59.565683","9.212222","19.2","NOTODDEN, NO","FM-15","ENNO ","V020","300,1,N,0026,1","00300,1,9,N","009000,1,N,1","+0010,1","+0000,1","99999,9","09,1,+00300,1,99,9",,,"09,99,1,99,9,99,9,00025,1,99,9,99,9",,"09729,1,99999,9","61,1","71,1",,,"MET064METAR ENNO 121250Z 30005KT 9000 4000NW -RASN VV010 01/M00 Q0973;",
"01470399999","2010-11-12T13:50:00","4","59.565683","9.212222","19.2","NOTODDEN, NO","FM-15","ENNO ","V020","280,1,N,0026,1","00570,1,9,N","011265,1,N,1","+0010,1","+0000,1","99999,9","09,1,+00570,1,99,9",,,"09,99,1,99,9,99,9,00025,1,99,9,99,9",,"09729,1,99999,9","61,1","71,1",,,"MET064METAR ENNO 121350Z 28005KT 9999 7000NW -RASN VV019 01/M00 Q0973;",
"01470399999","2010-11-12T14:50:00","4","59.565683","9.212222","19.2","NOTODDEN, NO","FM-15","ENNO ","V020","280,1,N,0026,1","00480,1,C,N","011265,1,N,1","+0010,1","+0000,1","99999,9","02,5,+00240,1,99,9","07,5,+00480,1,99,9",,"07,99,1,99,9,99,9,99999,9,99,9,99,9",,"09729,1,99999,9",,,,,"MET059METAR ENNO 121450Z 28005KT 9999 FEW008 BKN016 01/M00 Q0973;",
"01470399999","2010-11-12T15:50:00","4","59.565683","9.212222","19.2","NOTODDEN, NO","FM-15","ENNO ","V020","999,9,V,0005,1","00480,1,9,N","011265,1,N,1","+0000,1","+0000,1","99999,9","09,1,+00480,1,99,9",,,"09,99,1,99,9,99,9,00025,1,99,9,99,9",,"09739,1,99999,9","61,1",,,,"MET062METAR ENNO 121550Z VRB01KT 9999 4000NW -RA VV016 00/M00 Q0974;",
"01470399999","2010-11-14T16:20:00","4","59.565683","9.212222","19.2","NOTODDEN, NO","FM-15","ENNO ","V020","999,9,V,0010,1","00450,1,C,N","011265,1,N,1","+0000,1","-0010,1","99999,9","07,5,+00450,1,99,9",,,"07,99,1,99,9,99,9,99999,9,99,9,99,9",,"09949,1,99999,9",,,,,"MET053METAR ENNO 141620Z VRB02KT 9999 BKN015 M00/M01 Q0995;",
"01470399999","2010-11-14T16:50:00","4","59.565683","9.212222","19.2","NOTODDEN, NO","FM-15","ENNO ","V020","290,1,N,0021,1","00420,1,C,N","011265,1,N,1","+0000,1","-0010,1","99999,9","07,5,+00420,1,99,9",,,"07,99,1,99,9,99,9,99999,9,99,9,99,9",,"09959,1,99999,9",,,,,"MET053METAR ENNO 141650Z 29004KT 9999 BKN014 M00/M01 Q0996;",
"01470399999","2010-11-14T17:50:00","4","59.565683","9.212222","19.2","NOTODDEN, NO","FM-15","ENNO ","V020","999,9,V,0010,1","00420,1,C,N","011265,1,N,1","+0000,1","-0010,1","99999,9","07,5,+00420,1,99,9",,,"07,99,1,99,9,99,9,99999,9,99,9,99,9",,"09959,1,99999,9",,,,,"MET053METAR ENNO 141750Z VRB02KT 9999 BKN014 M00/M01 Q0996;",
"01470399999","2010-11-14T18:50:00","4","59.565683","9.212222","19.2","NOTODDEN, NO","FM-15","ENNO ","V020","999,9,V,0010,1","00750,1,C,N","011265,1,N,1","-0010,1","-0010,1","99999,9","02,5,+00450,1,99,9","07,5,+00750,1,99,9",,"07,99,1,99,9,99,9,99999,9,99,9,99,9",,"09970,1,99999,9",,,,,"MET060METAR ENNO 141850Z VRB02KT 9999 FEW015 BKN025 M01/M01 Q0997;",
"01470399999","2010-11-15T04:50:00","4","59.565683","9.212222","19.2","NOTODDEN, NO","FM-15","ENNO ","V020","999,9,V,0005,1","00450,1,C,N","011265,1,N,1","-0010,1","-0010,1","99999,9","07,5,+00450,1,99,9",,,"07,99,1,99,9,99,9,99999,9,99,9,99,9",,"09980,1,99999,9",,,,,"MET053METAR ENNO 150450Z VRB01KT 9999 BKN015 M01/M01 Q0998;",
"01470399999","2010-11-15T05:50:00","4","59.565683","9.212222","19.2","NOTODDEN, NO","FM-15","ENNO ","V020","999,9,V,0010,1","00450,1,C,N","011265,1,N,1","-0010,1","-0010,1","99999,9","07,5,+00450,1,99,9",,,"07,99,1,99,9,99,9,99999,9,99,9,99,9",,"09980,1,99999,9",,,,,"MET053METAR ENNO 150550Z VRB02KT 9999 BKN015 M01/M01 Q0998;",
"01470399999","2010-11-15T06:50:00","4","59.565683","9.212222","19.2","NOTODDEN, NO","FM-15","ENNO ","V020","999,9,V,0010,1","00450,1,C,N","011265,1,N,1","-0010,1","-0010,1","99999,9","02,5,+00300,1,99,9","07,5,+00450,1,99,9",,"07,99,1,99,9,99,9,99999,9,99,9,99,9",,"09990,1,99999,9",,,,,"MET060METAR ENNO 150650Z VRB02KT 9999 FEW010 BKN015 M01/M01 Q0999;",
"01470399999","2010-11-15T07:50:00","4","59.565683","9.212222","19.2","NOTODDEN, NO","FM-15","ENNO ","V020","290,1,N,0010,1","00450,1,C,N","011265,1,N,1","-0010,1","-0010,1","99999,9","02,5,+00300,1,99,9","04,5,+00450,1,99,9","07,5,+00600,1,99,9","07,99,1,99,9,99,9,99999,9,99,9,99,9",,"10000,1,99999,9",,,,,"MET067METAR ENNO 150750Z 29002KT 9999 FEW010 SCT015 BKN020 M01/M01 Q1000;",
"01470399999","2010-11-15T08:50:00","4","59.565683","9.212222","19.2","NOTODDEN, NO","FM-15","ENNO ","V020","300,1,N,0021,1","00390,1,C,N","011265,1,N,1","-0010,1","-0010,1","99999,9","02,5,+00300,1,99,9","04,5,+00390,1,99,9","07,5,+00900,1,99,9","07,99,1,99,9,99,9,99999,9,99,9,99,9",,"10010,1,99999,9",,,,,"MET067METAR ENNO 150850Z 30004KT 9999 FEW010 SCT013 BKN030 M01/M01 Q1001;",
"01470399999","2010-11-15T09:50:00","4","59.565683","9.212222","19.2","NOTODDEN, NO","FM-15","ENNO ","V020","999,9,V,0005,1","00600,1,C,N","011265,1,N,1","+0000,1","-0010,1","99999,9","04,5,+00330,1,99,9","07,5,+00600,1,99,9",,"07,99,1,99,9,99,9,99999,9,99,9,99,9",,"10020,1,99999,9",,,,,"MET060METAR ENNO 150950Z VRB01KT 9999 SCT011 BKN020 M00/M01 Q1002;",
"01470399999","2010-11-15T10:50:00","4","59.565683","9.212222","19.2","NOTODDEN, NO","FM-15","ENNO ","V020","280,1,N,0010,1","00480,1,C,N","011265,1,N,1","+0000,1","-0010,1","99999,9","02,5,+00150,1,99,9","04,5,+00480,1,99,9","07,5,+02400,1,99,9","07,99,1,99,9,99,9,99999,9,99,9,99,9",,"10031,1,99999,9",,,,,"MET067METAR ENNO 151050Z 28002KT 9999 FEW005 SCT016 BKN080 M00/M01 Q1003;",
"01470399999","2010-11-15T11:50:00","4","59.565683","9.212222","19.2","NOTODDEN, NO","FM-15","ENNO ","V020","999,9,V,0010,1","22000,1,9,N","011265,1,N,1","+0010,1","+0000,1","99999,9","02,5,+00480,1,99,9",,,"02,99,1,99,9,99,9,99999,9,99,9,99,9",,"10051,1,99999,9",,,,,"MET052METAR ENNO 151150Z VRB02KT 9999 FEW016 01/M00 Q1005;",
"01470399999","2010-11-15T13:20:00","4","59.565683","9.212222","19.2","NOTODDEN, NO","FM-15","ENNO ","V020","250,1,N,0015,1","22000,1,9,N","011265,1,N,1","+0000,1","-0020,1","99999,9","02,5,+00150,1,99,9",,,"02,99,1,99,9,99,9,99999,9,99,9,99,9",,"10061,1,99999,9",,,,,"MET053METAR ENNO 151320Z 25003KT 9999 FEW005 M00/M02 Q1006;",
"01470399999","2010-11-15T13:50:00","4","59.565683","9.212222","19.2","NOTODDEN, NO","FM-15","ENNO ","V020","999,9,V,0010,1","22000,1,9,N","011265,1,N,1","-0020,1","-0020,1","99999,9",,,,,,"10061,1,99999,9","41,1",,,,"MET055METAR ENNO 151350Z VRB02KT 9999 BCFG NSW M02/M02 Q1006;",
"01470399999","2010-11-15T14:50:00","4","59.565683","9.212222","19.2","NOTODDEN, NO","FM-15","ENNO ","V020","999,9,V,0010,1","22000,1,9,N","011265,1,N,1","-0020,1","-0020,1","99999,9",,,,,,"10071,1,99999,9","48,1",,,,"MET057METAR ENNO 151450Z VRB02KT 9999 BCFZFG NSW M02/M02 Q1007;",
"01470399999","2010-11-15T15:50:00","4","59.565683","9.212222","19.2","NOTODDEN, NO","FM-15","ENNO ","V020","999,9,V,0010,1","00060,1,9,N","000500,1,N,1","-0030,1","-0040,1","99999,9","09,1,+00060,1,99,9",,,"09,99,1,99,9,99,9,00025,1,99,9,99,9",,"10091,1,99999,9","49,1",,,,"MET057METAR ENNO 151550Z VRB02KT 0500 FZFG VV002 M03/M04 Q1009;",
"01470399999","2010-11-16T05:50:00","4","59.565683","9.212222","19.2","NOTODDEN, NO","FM-15","ENNO ","V020","999,9,V,0010,1","22000,1,9,N","011265,1,N,1","-0090,1","-0090,1","99999,9","02,5,+00090,1,99,9",,,"02,99,1,99,9,99,9,99999,9,99,9,99,9",,"10220,1,99999,9",,,,,"MET053METAR ENNO 160550Z VRB02KT 9999 FEW003 M09/M09 Q1022;",
"01470399999","2010-11-16T06:50:00","4","59.565683","9.212222","19.2","NOTODDEN, NO","FM-15","ENNO ","V020","999,9,V,0010,1","22000,1,9,N","011265,1,N,1","-0090,1","-0100,1","99999,9","02,5,+00090,1,99,9",,,"02,99,1,99,9,99,9,99999,9,99,9,99,9",,"10230,1,99999,9",,,,,"MET053METAR ENNO 160650Z VRB02KT 9999 FEW003 M09/M10 Q1023;",
"01470399999","2010-11-16T07:50:00","4","59.565683","9.212222","19.2","NOTODDEN, NO","FM-15","ENNO ","V020","999,9,V,0010,1","22000,1,9,N","011265,1,N,1","-0100,1","-0110,1","99999,9","02,5,+00030,1,99,9",,,"02,99,1,99,9,99,9,99999,9,99,9,99,9",,"10251,1,99999,9",,,,,"MET053METAR ENNO 160750Z VRB02KT 9999 FEW001 M10/M11 Q1025;",
"01470399999","2010-11-16T08:50:00","4","59.565683","9.212222","19.2","NOTODDEN, NO","FM-15","ENNO ","V020","999,9,V,0010,1","22000,1,9,N","011265,1,N,1","-0090,1","-0100,1","99999,9","02,5,+00030,1,99,9",,,"02,99,1,99,9,99,9,99999,9,99,9,99,9",,"10251,1,99999,9",,,,,"MET053METAR ENNO 160850Z VRB02KT 9999 FEW001 M09/M10 Q1025;",
"01470399999","2010-11-16T09:50:00","4","59.565683","9.212222","19.2","NOTODDEN, NO","FM-15","ENNO ","V020","999,9,V,0010,1","22000,1,9,N","011265,1,N,1","-0080,1","-0080,1","99999,9","02,5,+00060,1,99,9",,,"02,99,1,99,9,99,9,99999,9,99,9,99,9",,"10251,1,99999,9",,,,,"MET053METAR ENNO 160950Z VRB02KT 9999 FEW002 M08/M08 Q1025;",
"01470399999","2010-11-16T10:50:00","4","59.565683","9.212222","19.2","NOTODDEN, NO","FM-15","ENNO ","V020","290,1,N,0005,1","99999,9,9,Y","011265,1,N,1","-0060,1","-0070,1","99999,9",,,,,,"10250,1,99999,9",,,,,"MET052METAR ENNO 161050Z 29001KT 9999 CAVOK M06/M07 Q1025;",
"01470399999","2010-11-16T11:50:00","4","59.565683","9.212222","19.2","NOTODDEN, NO","FM-15","ENNO ","V020","999,9,C,0000,1","99999,9,9,Y","009900,1,N,1","-0030,1","-0040,1","99999,9",,,,,,"10261,1,99999,9",,,,,"MET047METAR ENNO 161150Z 00000KT CAVOK M03/M04 Q1026;",
"01470399999","2010-11-16T12:50:00","4","59.565683","9.212222","19.2","NOTODDEN, NO","FM-15","ENNO ","V020","999,9,V,0010,1","99999,9,9,Y","009900,1,N,1","-0030,1","-0040,1","99999,9",,,,,,"10261,1,99999,9",,,,,"MET047METAR ENNO 161250Z VRB02KT CAVOK M03/M04 Q1026;",
"01470399999","2010-11-16T13:50:00","4","59.565683","9.212222","19.2","NOTODDEN, NO","FM-15","ENNO ","V020","260,1,N,0005,1","99999,9,9,Y","009900,1,N,1","-0050,1","-0060,1","99999,9",,,,,,"10261,1,99999,9",,,,,"MET047METAR ENNO 161350Z 26001KT CAVOK M05/M06 Q1026;",
"01470399999","2010-11-16T15:50:00","4","59.565683","9.212222","19.2","NOTODDEN, NO","FM-15","ENNO ","V020","290,1,N,0021,1","22000,1,9,N","011265,1,N,1","-0080,1","-0080,1","99999,9","02,5,+00090,1,99,9",,,"02,99,1,99,9,99,9,99999,9,99,9,99,9",,"10261,1,99999,9",,,,,"MET053METAR ENNO 161550Z 29004KT 9999 FEW003 M08/M08 Q1026;",
"01470399999","2010-11-16T16:50:00","4","59.565683","9.212222","19.2","NOTODDEN, NO","FM-15","ENNO ","V020","300,1,N,0010,1","22000,1,9,N","011265,1,N,1","-0080,1","-0090,1","99999,9","02,5,+00000,5,99,9",,,"02,99,1,99,9,99,9,99999,9,99,9,99,9",,"10271,1,99999,9",,,,,"MET053METAR ENNO 161650Z 30002KT 9999 FEW000 M08/M09 Q1027;",
"01470399999","2010-11-16T20:50:00","4","59.565683","9.212222","19.2","NOTODDEN, NO","FM-15","ENNO ","V020","999,9,V,0005,1","22000,1,9,N","011265,1,N,1","-0100,1","-0110,1","99999,9","02,5,+00150,1,99,9",,,"02,99,1,99,9,99,9,99999,9,99,9,99,9",,"10291,1,99999,9",,,,,"MET053METAR ENNO 162050Z VRB01KT 9999 FEW005 M10/M11 Q1029;",
"01470399999","2010-11-17T05:50:00","4","59.565683","9.212222","19.2","NOTODDEN, NO","FM-15","ENNO ","V020","999,9,V,0005,1","00810,1,C,N","011265,1,N,1","-0080,1","-0090,1","99999,9","07,5,+00810,1,99,9",,,"07,99,1,99,9,99,9,99999,9,99,9,99,9",,"10301,1,99999,9",,,,,"MET053METAR ENNO 170550Z VRB01KT 9999 BKN027 M08/M09 Q1030;",
"01470399999","2010-11-17T06:50:00","4","59.565683","9.212222","19.2","NOTODDEN, NO","FM-15","ENNO ","V020","290,1,N,0021,1","22000,1,9,N","011265,1,N,1","-0090,1","-0100,1","99999,9","04,5,+00810,1,99,9",,,"04,99,1,99,9,99,9,99999,9,99,9,99,9",,"10301,1,99999,9",,,,,"MET053METAR ENNO 170650Z 29004KT 9999 SCT027 M09/M10 Q1030;",
"01470399999","2010-11-17T07:50:00","4","59.565683","9.212222","19.2","NOTODDEN, NO","FM-15","ENNO ","V020","280,1,N,0010,1","22000,1,9,N","011265,1,N,1","-0100,1","-0110,1","99999,9","02,5,+00810,1,99,9",,,"02,99,1,99,9,99,9,99999,9,99,9,99,9",,"10301,1,99999,9",,,,,"MET053METAR ENNO 170750Z 28002KT 9999 FEW027 M10/M11 Q1030;",
"01470399999","2010-11-17T08:50:00","4","59.565683","9.212222","19.2","NOTODDEN, NO","FM-15","ENNO ","V020","250,1,N,0010,1","22000,1,9,N","011265,1,N,1","-0090,1","-0100,1","99999,9","02,5,+00150,1,99,9",,,"02,99,1,99,9,99,9,99999,9,99,9,99,9",,"10312,1,99999,9",,,,,"MET053METAR ENNO 170850Z 25002KT 9999 FEW005 M09/M10 Q1031;",
"01470399999","2010-11-17T09:50:00","4","59.565683","9.212222","19.2","NOTODDEN, NO","FM-15","ENNO ","V020","280,1,N,0015,1","22000,1,9,N","011265,1,N,1","-0070,1","-0080,1","99999,9",,,,"00,99,1,99,9,99,9,99999,9,99,9,99,9",,"10301,1,99999,9",,,,,"MET050METAR ENNO 170950Z 28003KT 9999 NSC M07/M08 Q1030;","Q01    003SCCGA1"
"01470399999","2010-11-17T10:50:00","4","59.565683","9.212222","19.2","NOTODDEN, NO","FM-15","ENNO ","V020","270,1,N,0015,1","22000,1,9,N","011265,1,N,1","-0060,1","-0070,1","99999,9",,,,"00,99,1,99,9,99,9,99999,9,99,9,99,9",,"10301,1,99999,9",,,,,"MET050METAR ENNO 171050Z 27003KT 9999 NSC M06/M07 Q1030;","Q01    003SCCGA1"
"01470399999","2010-11-17T11:50:00","4","59.565683","9.212222","19.2","NOTODDEN, NO","FM-15","ENNO ","V020","280,1,N,0015,1","99999,9,9,Y","009900,1,N,1","-0050,1","-0060,1","99999,9",,,,,,"10301,1,99999,9",,,,,"MET047METAR ENNO 171150Z 28003KT CAVOK M05/M06 Q1030;",
"01470399999","2010-11-17T12:50:00","4","59.565683","9.212222","19.2","NOTODDEN, NO","FM-15","ENNO ","V020","270,1,N,0010,1","99999,9,9,Y","009900,1,N,1","-0040,1","-0050,1","99999,9",,,,,,"10301,1,99999,9",,,,,"MET047METAR ENNO 171250Z 27002KT CAVOK M04/M05 Q1030;",
"01470399999","2010-11-17T13:50:00","4","59.565683","9.212222","19.2","NOTODDEN, NO","FM-15","ENNO ","V020","999,9,V,0010,1","99999,9,9,Y","009900,1,N,1","-0060,1","-0070,1","99999,9",,,,,,"10291,1,99999,9",,,,,"MET047METAR ENNO 171350Z VRB02KT CAVOK M06/M07 Q1029;",
"01470399999","2010-11-17T14:50:00","4","59.565683","9.212222","19.2","NOTODDEN, NO","FM-15","ENNO ","V020","280,1,N,0010,1","99999,9,9,Y","009900,1,N,1","-0070,1","-0080,1","99999,9",,,,,,"10291,1,99999,9",,,,,"MET047METAR ENNO 171450Z 28002KT CAVOK M07/M08 Q1029;",
"01470399999","2010-11-17T15:50:00","4","59.565683","9.212222","19.2","NOTODDEN, NO","FM-15","ENNO ","V020","290,1,N,0021,1","99999,9,9,Y","009900,1,N,1","-0080,1","-0090,1","99999,9",,,,,,"10291,1,99999,9",,,,,"MET047METAR ENNO 171550Z 29004KT CAVOK M08/M09 Q1029;",
"01470399999","2010-11-18T05:50:00","4","59.565683","9.212222","19.2","NOTODDEN, NO","FM-15","ENNO ","V020","290,1,N,0021,1","00480,1,C,N","011265,1,N,1","-0100,1","-0110,1","99999,9","07,5,+00480,1,99,9",,,"07,99,1,99,9,99,9,99999,9,99,9,99,9",,"10271,1,99999,9",,,,,"MET053METAR ENNO 180550Z 29004KT 9999 BKN016 M10/M11 Q1027;",
"01470399999","2010-11-18T06:50:00","4","59.565683","9.212222","19.2","NOTODDEN, NO","FM-15","ENNO ","V020","280,1,N,0015,1","00480,1,C,N","011265,1,N,1","-0090,1","-0100,1","99999,9","07,5,+00480,1,99,9",,,"07,99,1,99,9,99,9,99999,9,99,9,99,9",,"10271,1,99999,9",,,,,"MET053METAR ENNO 180650Z 28003KT 9999 BKN016 M09/M10 Q1027;",
"01470399999","2010-11-18T07:50:00","4","59.565683","9.212222","19.2","NOTODDEN, NO","FM-15","ENNO ","V020","300,1,N,0021,1","00510,1,C,N","011265,1,N,1","-0090,1","-0100,1","99999,9","07,5,+00510,1,99,9",,,"07,99,1,99,9,99,9,99999,9,99,9,99,9",,"10271,1,99999,9",,,,,"MET061METAR ENNO 180750Z 30004KT 260V320 9999 BKN017 M09/M10 Q1027;",
"01470399999","2010-11-18T08:50:00","4","59.565683","9.212222","19.2","NOTODDEN, NO","FM-15","ENNO ","V020","999,9,V,0010,1","00600,1,C,N","011265,1,N,1","-0080,1","-0090,1","99999,9","04,5,+00480,1,99,9","07,5,+00600,1,99,9",,"07,99,1,99,9,99,9,99999,9,99,9,99,9",,"10271,1,99999,9",,,,,"MET060METAR ENNO 180850Z VRB02KT 9999 SCT016 BKN020 M08/M09 Q1027;",
"01470399999","2010-11-18T09:50:00","4","59.565683","9.212222","19.2","NOTODDEN, NO","FM-15","ENNO ","V020","999,9,V,0021,1","00600,1,C,N","011265,1,N,1","-0070,1","-0080,1","99999,9","04,5,+00480,1,99,9","07,5,+00600,1,99,9",,"07,99,1,99,9,99,9,99999,9,99,9,99,9",,"10271,1,99999,9",,,,,"MET060METAR ENNO 180950Z VRB04KT 9999 SCT016 BKN020 M07/M08 Q1027;",
"01470399999","2010-11-18T10:50:00","4","59.565683","9.212222","19.2","NOTODDEN, NO","FM-15","ENNO ","V020","999,9,V,0010,1","00540,1,C,N","011265,1,N,1","-0070,1","-0070,1","99999,9","07,5,+00540,1,99,9",,,"07,99,1,99,9,99,9,99999,9,99,9,99,9",,"10271,1,99999,9",,,,,"MET053METAR ENNO 181050Z VRB02KT 9999 BKN018 M07/M07 Q1027;",
"01470399999","2010-11-18T11:50:00","4","59.565683","9.212222","19.2","NOTODDEN, NO","FM-15","ENNO ","V020","999,9,V,0021,1","00540,1,C,N","011265,1,N,1","-0050,1","-0060,1","99999,9","07,5,+00540,1,99,9",,,"07,99,1,99,9,99,9,99999,9,99,9,99,9",,"10261,1,99999,9","16,1",,,,"MET058METAR ENNO 181150Z VRB04KT 9999 VCSH BKN018 M05/M06 Q1026;",
"01470399999","2010-11-18T12:50:00","4","59.565683","9.212222","19.2","NOTODDEN, NO","FM-15","ENNO ","V020","999,9,V,0010,1","00540,1,C,N","011265,1,N,1","-0050,1","-0060,1","99999,9","07,5,+00540,1,99,9",,,"07,99,1,99,9,99,9,99999,9,99,9,99,9",,"10261,1,99999,9","16,1",,,,"MET058METAR ENNO 181250Z VRB02KT 9999 VCSH BKN018 M05/M06 Q1026;",
"01470399999","2010-11-18T13:50:00","4","59.565683","9.212222","19.2","NOTODDEN, NO","FM-15","ENNO ","V020","100,1,N,0031,1","00600,1,C,N","011265,1,N,1","-0040,1","-0070,1","99999,9","07,5,+00600,1,99,9",,,"07,99,1,99,9,99,9,99999,9,99,9,99,9",,"10261,1,99999,9","16,1",,,,"MET066METAR ENNO 181350Z 10006KT 050V170 9999 VCSH BKN020 M04/M07 Q1026;",
"01470399999","2010-11-18T14:50:00","4","59.565683","9.212222","19.2","NOTODDEN, NO","FM-15","ENNO ","V020","360,1,N,0026,1","00600,1,C,N","011265,1,N,1","-0050,1","-0070,1","99999,9","07,5,+00600,1,99,9",,,"07,99,1,99,9,99,9,99999,9,99,9,99,9",,"10261,1,99999,9","16,1",,,,"MET066METAR ENNO 181450Z 36005KT 300V090 9999 VCSH BKN020 M05/M07 Q1026;",
"01470399999","2010-11-18T15:50:00","4","59.565683","9.212222","19.2","NOTODDEN, NO","FM-15","ENNO ","V020","020,1,N,0041,1","00750,1,C,N","011265,1,N,1","-0050,1","-0080,1","99999,9","07,5,+00750,1,99,9",,,"07,99,1,99,9,99,9,99999,9,99,9,99,9",,"10251,1,99999,9",,,,,"MET061METAR ENNO 181550Z 02008KT 310V080 9999 BKN025 M05/M08 Q1025;",
"01470399999","2010-11-18T16:50:00","4","59.565683","9.212222","19.2","NOTODDEN, NO","FM-15","ENNO ","V020","999,9,V,0021,1","00600,1,C,N","011265,1,N,1","-0050,1","-0070,1","99999,9","08,5,+00600,1,99,9",,,"08,99,1,99,9,99,9,99999,9,99,9,99,9",,"10261,1,99999,9",,,,,"MET053METAR ENNO 181650Z VRB04KT 9999 OVC020 M05/M07 Q1026;",
"01470399999","2010-11-19T05:50:00","4","59.565683","9.212222","19.2","NOTODDEN, NO","FM-15","ENNO ","V020","300,1,N,0041,1","00600,1,C,N","011265,1,N,1","-0060,1","-0090,1","99999,9","08,5,+00600,1,99,9",,,"08,99,1,99,9,99,9,99999,9,99,9,99,9",,"10281,1,99999,9","71,1",,,,"MET057METAR ENNO 190550Z 30008KT 9999 -SN OVC020 M06/M09 Q1028;",
"01470399999","2010-11-19T06:50:00","4","59.565683","9.212222","19.2","NOTODDEN, NO","FM-15","ENNO ","V020","300,1,N,0057,1","00600,1,C,N","011265,1,N,1","-0060,1","-0100,1","99999,9","08,5,+00600,1,99,9",,,"08,99,1,99,9,99,9,99999,9,99,9,99,9",,"10281,1,99999,9",,,,"0087,1","MET056METAR ENNO 190650Z 30011G17KT 9999 OVC020 M06/M10 Q1028;",
"01470399999","2010-11-19T07:50:00","4","59.565683","9.212222","19.2","NOTODDEN, NO","FM-15","ENNO ","V020","300,1,N,0051,1","00600,1,C,N","011265,1,N,1","-0060,1","-0100,1","99999,9","08,5,+00600,1,99,9",,,"08,99,1,99,9,99,9,99999,9,99,9,99,9",,"10281,1,99999,9",,,,,"MET053METAR ENNO 190750Z 30010KT 9999 OVC020 M06/M10 Q1028;",
"01470399999","2010-11-19T08:50:00","4","59.565683","9.212222","19.2","NOTODDEN, NO","FM-15","ENNO ","V020","300,1,N,0036,1","00600,1,C,N","011265,1,N,1","-0060,1","-0100,1","99999,9","08,5,+00600,1,99,9",,,"08,99,1,99,9,99,9,99999,9,99,9,99,9",,"10291,1,99999,9","16,1",,,,"MET058METAR ENNO 190850Z 30007KT 9999 VCSH OVC020 M06/M10 Q1029;",
"01470399999","2010-11-19T09:50:00","4","59.565683","9.212222","19.2","NOTODDEN, NO","FM-15","ENNO ","V020","310,1,N,0021,1","00600,1,C,N","011265,1,N,1","-0060,1","-0090,1","99999,9","07,5,+00600,1,99,9",,,"07,99,1,99,9,99,9,99999,9,99,9,99,9",,"10291,1,99999,9","16,1",,,,"MET058METAR ENNO 190950Z 31004KT 9999 VCSH BKN020 M06/M09 Q1029;",
"01470399999","2010-11-19T10:50:00","4","59.565683","9.212222","19.2","NOTODDEN, NO","FM-15","ENNO ","V020","330,1,N,0031,1","00630,1,C,N","011265,1,N,1","-0060,1","-0100,1","99999,9","08,5,+00630,1,99,9",,,"08,99,1,99,9,99,9,99999,9,99,9,99,9",,"10281,1,99999,9","71,1",,,,"MET058METAR ENNO 191050Z 33006KT 9999 --SN OVC021 M06/M10 Q1028;",
"01470399999","2010-11-19T11:50:00","4","59.565683","9.212222","19.2","NOTODDEN, NO","FM-15","ENNO ","V020","340,1,N,0036,1","00660,1,C,N","011265,1,N,1","-0060,1","-0100,1","99999,9","08,5,+00660,1,99,9",,,"08,99,1,99,9,99,9,99999,9,99,9,99,9",,"10281,1,99999,9","71,1",,,,"MET057METAR ENNO 191150Z 34007KT 9999 -SN OVC022 M06/M10 Q1028;",
"01470399999","2010-11-19T12:50:00","4","59.565683","9.212222","19.2","NOTODDEN, NO","FM-15","ENNO ","V020","300,1,N,0026,1","00690,1,C,N","011265,1,N,1","-0060,1","-0090,1","99999,9","07,5,+00690,1,99,9",,,"07,99,1,99,9,99,9,99999,9,99,9,99,9",,"10281,1,99999,9",,,,,"MET061METAR ENNO 191250Z 30005KT 270V340 9999 BKN023 M06/M09 Q1028;",
"01470399999","2010-11-19T13:50:00","4","59.565683","9.212222","19.2","NOTODDEN, NO","FM-15","ENNO ","V020","260,1,N,0021,1","00750,1,C,N","011265,1,N,1","-0060,1","-0090,1","99999,9","07,5,+00750,1,99,9",,,"07,99,1,99,9,99,9,99999,9,99,9,99,9",,"10271,1,99999,9",,,,,"MET053METAR ENNO 191350Z 26004KT 9999 BKN025 M06/M09 Q1027;",
"01470399999","2010-11-19T14:50:00","4","59.565683","9.212222","19.2","NOTODDEN, NO","FM-15","ENNO ","V020","999,9,V,0010,1","00750,1,C,N","011265,1,N,1","-0060,1","-0090,1","99999,9","07,5,+00750,1,99,9",,,"07,99,1,99,9,99,9,99999,9,99,9,99,9",,"10271,1,99999,9",,,,,"MET053METAR ENNO 191450Z VRB02KT 9999 BKN025 M06/M09 Q1027;",
"01470399999","2010-11-19T15:50:00","4","59.565683","9.212222","19.2","NOTODDEN, NO","FM-15","ENNO ","V020","290,1,N,0031,1","00840,1,C,N","011265,1,N,1","-0050,1","-0080,1","99999,9","07,5,+00840,1,99,9",,,"07,99,1,99,9,99,9,99999,9,99,9,99,9",,"10271,1,99999,9",,,,,"MET053METAR ENNO 191550Z 29006KT 9999 BKN028 M05/M08 Q1027;",
"01470399999","2010-11-19T16:50:00","4","59.565683","9.212222","19.2","NOTODDEN, NO","FM-15","ENNO ","V020","280,1,N,0036,1","00870,1,C,N","011265,1,N,1","-0050,1","-0070,1","99999,9","07,5,+00870,1,99,9",,,"07,99,1,99,9,99,9,99999,9,99,9,99,9",,"10271,1,99999,9",,,,,"MET053METAR ENNO 191650Z 28007KT 9999 BKN029 M05/M07 Q1027;",
"01470399999","2010-11-21T16:50:00","4","59.565683","9.212222","19.2","NOTODDEN, NO","FM-15","ENNO ","V020","300,1,N,0026,1","01050,1,C,N","011265,1,N,1","+0010,1","-0040,1","99999,9","07,5,+01050,1,99,9",,,"07,99,1,99,9,99,9,99999,9,99,9,99,9",,"10251,1,99999,9",,,,,"MET060METAR ENNO 211650Z 30005KT 250V020 9999 BKN035 01/M04 Q1025;",
"01470399999","2010-11-21T17:50:00","4","59.565683","9.212222","19.2","NOTODDEN, NO","FM-15","ENNO ","V020","270,1,N,0026,1","00900,1,C,N","011265,1,N,1","+0010,1","-0040,1","99999,9","07,5,+00900,1,99,9",,,"07,99,1,99,9,99,9,99999,9,99,9,99,9",,"10251,1,99999,9",,,,,"MET060METAR ENNO 211750Z 27005KT 240V300 9999 BKN030 01/M04 Q1025;",
"01470399999","2010-11-21T18:50:00","4","59.565683","9.212222","19.2","NOTODDEN, NO","FM-15","ENNO ","V020","270,1,N,0021,1","00930,1,C,N","011265,1,N,1","+0010,1","-0040,1","99999,9","07,5,+00930,1,99,9",,,"07,99,1,99,9,99,9,99999,9,99,9,99,9",,"10251,1,99999,9",,,,,"MET060METAR ENNO 211850Z 27004KT 220V010 9999 BKN031 01/M04 Q1025;",
"01470399999","2010-11-22T05:50:00","4","59.565683","9.212222","19.2","NOTODDEN, NO","FM-15","ENNO ","V020","300,1,N,0015,1","01950,5,C,N","011265,1,N,1","-0020,1","-0030,1","99999,9","04,5,+00900,1,99,9","07,5,+01950,5,99,9",,"07,99,1,99,9,99,9,99999,9,99,9,99,9",,"10210,1,99999,9",,,,,"MET065METAR ENNO 220550Z 30003KT 9999 SCT030 BKN065 M02/M03 Q1021 RESN;",
"01470399999","2010-11-22T06:50:00","4","59.565683","9.212222","19.2","NOTODDEN, NO","FM-15","ENNO ","V020","999,9,V,0010,1","01800,1,C,N","011265,1,N,1","-0010,1","-0030,1","99999,9","02,5,+00900,1,99,9","04,5,+01890,5,99,9","07,5,+03540,5,99,9","07,99,1,99,9,99,9,99999,9,99,9,99,9",,"10210,1,99999,9",,,,,"MET067METAR ENNO 220650Z VRB02KT 9999 FEW030 SCT063 BKN118 M01/M03 Q1021;",
"01470399999","2010-11-22T07:50:00","4","59.565683","9.212222","19.2","NOTODDEN, NO","FM-15","ENNO ","V020","999,9,V,0010,1","01800,1,C,N","011265,1,N,1","+0000,1","-0050,1","99999,9","02,5,+00900,1,99,9","04,5,+01980,5,99,9","07,5,+03840,5,99,9","07,99,1,99,9,99,9,99999,9,99,9,99,9",,"10210,1,99999,9",,,,,"MET067METAR ENNO 220750Z VRB02KT 9999 FEW030 SCT066 BKN128 M00/M05 Q1021;",
"01470399999","2010-11-22T08:50:00","4","59.565683","9.212222","19.2","NOTODDEN, NO","FM-15","ENNO ","V020","999,9,V,0010,1","02160,5,C,N","011265,1,N,1","+0000,1","-0060,1","99999,9","02,5,+00900,1,99,9","07,5,+02160,5,99,9",,"07,99,1,99,9,99,9,99999,9,99,9,99,9",,"10210,1,99999,9",,,,,"MET060METAR ENNO 220850Z VRB02KT 9999 FEW030 BKN072 M00/M06 Q1021;",
"01470399999","2010-11-22T09:50:00","4","59.565683","9.212222","19.2","NOTODDEN, NO","FM-15","ENNO ","V020","150,1,N,0015,1","01080,1,C,N","011265,1,N,1","+0000,1","-0060,1","99999,9","02,5,+00810,1,99,9","07,5,+01080,1,99,9",,"07,99,1,99,9,99,9,99999,9,99,9,99,9",,"10200,1,99999,9",,,,,"MET060METAR ENNO 220950Z 15003KT 9999 FEW027 BKN036 M00/M06 Q1020;",
"01470399999","2010-11-22T10:50:00","4","59.565683","9.212222","19.2","NOTODDEN, NO","FM-15","ENNO ","V020","160,1,N,0026,1","02400,1,C,N","011265,1,N,1","+0000,1","-0060,1","99999,9","02,5,+00900,1,99,9","07,5,+02400,1,99,9",,"07,99,1,99,9,99,9,99999,9,99,9,99,9",,"10200,1,99999,9",,,,,"MET060METAR ENNO 221050Z 16005KT 9999 FEW030 BKN080 M00/M06 Q1020;",
"01470399999","2010-11-22T11:50:00","4","59.565683","9.212222","19.2","NOTODDEN, NO","FM-15","ENNO ","V020","999,9,V,0026,1","02400,1,C,N","011265,1,N,1","+0000,1","-0060,1","99999,9","02,5,+00900,1,99,9","07,5,+02400,1,99,9",,"07,99,1,99,9,99,9,99999,9,99,9,99,9",,"10190,1,99999,9",,,,,"MET060METAR ENNO 221150Z VRB05KT 9999 FEW030 BKN080 M00/M06 Q1019;",
"01470399999","2010-11-22T12:50:00","4","59.565683","9.212222","19.2","NOTODDEN, NO","FM-15","ENNO ","V020","999,9,V,0031,1","02400,1,C,N","011265,1,N,1","+0000,1","-0060,1","99999,9","04,5,+00900,1,99,9","07,5,+02400,1,99,9",,"07,99,1,99,9,99,9,99999,9,99,9,99,9",,"10190,1,99999,9",,,,,"MET060METAR ENNO 221250Z VRB06KT 9999 SCT030 BKN080 M00/M06 Q1019;",
"01470399999","2010-11-22T13:50:00","4","59.565683","9.212222","19.2","NOTODDEN, NO","FM-15","ENNO ","V020","999,9,V,0015,1","00900,1,C,N","011265,1,N,1","-0010,1","-0060,1","99999,9","07,5,+00900,1,99,9",,,"07,99,1,99,9,99,9,99999,9,99,9,99,9",,"10180,1,99999,9",,,,,"MET053METAR ENNO 221350Z VRB03KT 9999 BKN030 M01/M06 Q1018;",
"01470399999","2010-11-22T14:50:00","4","59.565683","9.212222","19.2","NOTODDEN, NO","FM-15","ENNO ","V020","140,1,N,0021,1","00750,1,C,N","011265,1,N,1","-0020,1","-0060,1","99999,9","07,5,+00750,1,99,9",,,"07,99,1,99,9,99,9,99999,9,99,9,99,9",,"10180,1,99999,9",,,,,"MET053METAR ENNO 221450Z 14004KT 9999 BKN025 M02/M06 Q1018;",
"01470399999","2010-11-22T15:50:00","4","59.565683","9.212222","19.2","NOTODDEN, NO","FM-15","ENNO ","V020","999,9,V,0005,1","00810,1,C,N","011265,1,N,1","-0020,1","-0060,1","99999,9","08,5,+00810,1,99,9",,,"08,99,1,99,9,99,9,99999,9,99,9,99,9",,"10169,1,99999,9",,,,,"MET053METAR ENNO 221550Z VRB01KT 9999 OVC027 M02/M06 Q1017;",
"01470399999","2010-11-22T16:50:00","4","59.565683","9.212222","19.2","NOTODDEN, NO","FM-15","ENNO ","V020","130,1,N,0021,1","00750,1,C,N","011265,1,N,1","-0020,1","-0060,1","99999,9","08,5,+00750,1,99,9",,,"08,99,1,99,9,99,9,99999,9,99,9,99,9",,"10169,1,99999,9",,,,,"MET053METAR ENNO 221650Z 13004KT 9999 OVC025 M02/M06 Q1017;",
"01470399999","2010-11-22T17:50:00","4","59.565683","9.212222","19.2","NOTODDEN, NO","FM-15","ENNO ","V020","120,1,N,0015,1","00750,1,C,N","011265,1,N,1","-0020,1","-0060,1","99999,9","08,5,+00750,1,99,9",,,"08,99,1,99,9,99,9,99999,9,99,9,99,9",,"10169,1,99999,9",,,,,"MET053METAR ENNO 221750Z 12003KT 9999 OVC025 M02/M06 Q1017;",
"01470399999","2010-11-22T18:50:00","4","59.565683","9.212222","19.2","NOTODDEN, NO","FM-15","ENNO ","V020","050,1,N,0031,1","22000,1,9,N","011265,1,N,1","-0030,1","-0070,1","99999,9","04,5,+00810,1,99,9",,,"04,99,1,99,9,99,9,99999,9,99,9,99,9",,"10159,1,99999,9",,,,,"MET053METAR ENNO 221850Z 05006KT 9999 SCT027 M03/M07 Q1016;",
"01470399999","2010-11-23T05:50:00","4","59.565683","9.212222","19.2","NOTODDEN, NO","FM-15","ENNO ","V020","999,9,V,0005,1","99999,9,9,Y","009900,1,N,1","-0110,1","-0110,1","99999,9",,,,,,"10119,1,99999,9",,,,,"MET047METAR ENNO 230550Z VRB01KT CAVOK M11/M11 Q1012;",
"01470399999","2010-11-23T06:50:00","4","59.565683","9.212222","19.2","NOTODDEN, NO","FM-15","ENNO ","V020","999,9,V,0010,1","99999,9,9,Y","009900,1,N,1","-0100,1","-0110,1","99999,9",,,,,,"10119,1,99999,9",,,,,"MET047METAR ENNO 230650Z VRB02KT CAVOK M10/M11 Q1012;",
"01470399999","2010-11-23T07:50:00","4","59.565683","9.212222","19.2","NOTODDEN, NO","FM-15","ENNO ","V020","290,1,N,0026,1","99999,9,9,Y","009900,1,N,1","-0100,1","-0110,1","99999,9",,,,,,"10119,1,99999,9",,,,,"MET055METAR ENNO 230750Z 29005KT 250V030 CAVOK M10/M11 Q1012;",
"01470399999","2010-11-23T08:50:00","4","59.565683","9.212222","19.2","NOTODDEN, NO","FM-15","ENNO ","V020","300,1,N,0021,1","22000,1,9,N","011265,1,N,1","-0060,1","-0090,1","99999,9","04,5,+01500,1,99,9",,,"04,99,1,99,9,99,9,99999,9,99,9,99,9",,"10119,1,99999,9",,,,,"MET061METAR ENNO 230850Z 30004KT 250V040 9999 SCT050 M06/M09 Q1012;",
"01470399999","2010-11-23T09:50:00","4","59.565683","9.212222","19.2","NOTODDEN, NO","FM-15","ENNO ","V020","300,1,N,0021,1","01140,1,C,N","011265,1,N,1","-0060,1","-0100,1","99999,9","07,5,+01140,1,99,9",,,"07,99,1,99,9,99,9,99999,9,99,9,99,9",,"10119,1,99999,9",,,,,"MET061METAR ENNO 230950Z 30004KT 260V360 9999 BKN038 M06/M10 Q1012;",
"01470399999","2010-11-23T11:50:00","4","59.565683","9.212222","19.2","NOTODDEN, NO","FM-15","ENNO ","V020","999,9,V,0031,1","01050,1,C,N","011265,1,N,1","-0020,1","-0090,1","99999,9","07,5,+01050,1,99,9","08,5,+01440,1,99,9",,"08,99,1,99,9,99,9,99999,9,99,9,99,9",,"10119,1,99999,9",,,,,"MET060METAR ENNO 231150Z VRB06KT 9999 BKN035 OVC048 M02/M09 Q1012;",
"01470399999","2010-11-23T12:50:00","4","59.565683","9.212222","19.2","NOTODDEN, NO","FM-15","ENNO ","V020","300,1,N,0041,1","01200,1,C,N","011265,1,N,1","-0020,1","-0090,1","99999,9","07,5,+01200,1,99,9",,,"07,99,1,99,9,99,9,99999,9,99,9,99,9",,"10108,1,99999,9",,,,,"MET061METAR ENNO 231250Z 30008KT 230V020 9999 BKN040 M02/M09 Q1011;",
"01470399999","2010-11-23T13:50:00","4","59.565683","9.212222","19.2","NOTODDEN, NO","FM-15","ENNO ","V020","300,1,N,0036,1","01200,1,C,N","011265,1,N,1","-0020,1","-0090,1","99999,9","07,5,+01200,1,99,9",,,"07,99,1,99,9,99,9,99999,9,99,9,99,9",,"10108,1,99999,9","71,1",,,,"MET065METAR ENNO 231350Z 30007KT 280V340 9999 -SN BKN040 M02/M09 Q1011;",
"01470399999","2010-11-23T15:50:00","4","59.565683","9.212222","19.2","NOTODDEN, NO","FM-15","ENNO ","V020","290,1,N,0046,1","00990,1,C,N","011265,1,N,1","-0020,1","-0080,1","99999,9","07,5,+00990,1,99,9",,,"07,99,1,99,9,99,9,99999,9,99,9,99,9",,"10108,1,99999,9","71,1",,,,"MET065METAR ENNO 231550Z 29009KT 240V020 9999 -SN BKN033 M02/M08 Q1011;",
"01470399999","2010-11-23T16:50:00","4","59.565683","9.212222","19.2","NOTODDEN, NO","FM-15","ENNO ","V020","290,1,N,0031,1","00900,1,C,N","011265,1,N,1","-0020,1","-0080,1","99999,9","07,5,+00900,1,99,9",,,"07,99,1,99,9,99,9,99999,9,99,9,99,9",,"10102,1,99999,9","71,1",,,,"MET065METAR ENNO 231650Z 29006KT 250V330 9999 -SN BKN030 M02/M08 Q1010;",
"01470399999","2010-11-24T05:50:00","4","59.565683","9.212222","19.2","NOTODDEN, NO","FM-15","ENNO ","V020","999,9,V,0026,1","01200,1,C,N","011265,1,N,1","-0040,1","-0110,1","99999,9","02,5,+00900,1,99,9","07,5,+01200,1,99,9",,"07,99,1,99,9,99,9,99999,9,99,9,99,9",,"10102,1,99999,9",,,,,"MET060METAR ENNO 240550Z VRB05KT 9999 FEW030 BKN040 M04/M11 Q1010;",
"01470399999","2010-11-24T06:50:00","4","59.565683","9.212222","19.2","NOTODDEN, NO","FM-15","ENNO ","V020","290,1,N,0041,1","01200,1,C,N","011265,1,N,1","-0040,1","-0100,1","99999,9","02,5,+00900,1,99,9","07,5,+01200,1,99,9",,"07,99,1,99,9,99,9,99999,9,99,9,99,9",,"10102,1,99999,9",,,,,"MET068METAR ENNO 240650Z 29008KT 240V350 9999 FEW030 BKN040 M04/M10 Q1010;",
"01470399999","2010-11-24T07:50:00","4","59.565683","9.212222","19.2","NOTODDEN, NO","FM-15","ENNO ","V020","280,1,N,0046,1","01200,1,C,N","011265,1,N,1","-0040,1","-0100,1","99999,9","02,5,+00750,1,99,9","07,5,+01200,1,99,9",,"07,99,1,99,9,99,9,99999,9,99,9,99,9",,"10102,1,99999,9",,,,,"MET060METAR ENNO 240750Z 28009KT 9999 FEW025 BKN040 M04/M10 Q1010;",
"01470399999","2010-11-24T08:50:00","4","59.565683","9.212222","19.2","NOTODDEN, NO","FM-15","ENNO ","V020","300,1,N,0036,1","01200,1,C,N","011265,1,N,1","-0030,1","-0100,1","99999,9","07,5,+01200,1,99,9",,,"07,99,1,99,9,99,9,99999,9,99,9,99,9",,"10102,1,99999,9",,,,,"MET061METAR ENNO 240850Z 30007KT 230V350 9999 BKN040 M03/M10 Q1010;",
"01470399999","2010-11-24T09:50:00","4","59.565683","9.212222","19.2","NOTODDEN, NO","FM-15","ENNO ","V020","320,1,N,0041,1","01050,1,C,N","011265,1,N,1","-0030,1","-0110,1","99999,9","07,5,+01050,1,99,9",,,"07,99,1,99,9,99,9,99999,9,99,9,99,9",,"10102,1,99999,9",,,,"0093,1","MET064METAR ENNO 240950Z 32008G18KT 260V020 9999 BKN035 M03/M11 Q1010;",
"01470399999","2010-11-24T11:50:00","4","59.565683","9.212222","19.2","NOTODDEN, NO","FM-15","ENNO ","V020","310,1,N,0036,1","01500,1,C,N","011265,1,N,1","-0030,1","-0110,1","99999,9","04,5,+01050,1,99,9","07,5,+01500,1,99,9",,"07,99,1,99,9,99,9,99999,9,99,9,99,9",,"10091,1,99999,9","71,1",,,"0093,1","MET075METAR ENNO 241150Z 31007G18KT 260V050 9999 -SN SCT035 BKN050 M03/M11 Q1009;",
"01470399999","2010-11-24T12:50:00","4","59.565683","9.212222","19.2","NOTODDEN, NO","FM-15","ENNO ","V020","280,1,N,0031,1","01500,1,C,N","011265,1,N,1","-0030,1","-0110,1","99999,9","04,5,+01050,1,99,9","07,5,+01500,1,99,9",,"07,99,1,99,9,99,9,99999,9,99,9,99,9",,"10091,1,99999,9","71,1",,,,"MET064METAR ENNO 241250Z 28006KT 9999 -SN SCT035 BKN050 M03/M11 Q1009;",
"01470399999","2010-11-24T14:50:00","4","59.565683","9.212222","19.2","NOTODDEN, NO","FM-15","ENNO ","V020","280,1,N,0067,1","00840,1,C,N","011265,1,N,1","-0040,1","-0110,1","99999,9","07,5,+00840,1,99,9",,,"07,99,1,99,9,99,9,99999,9,99,9,99,9",,"10102,1,99999,9","71,1",,,,"MET057METAR ENNO 241450Z 28013KT 9999 -SN BKN028 M04/M11 Q1010;",
"01470399999","2010-11-24T15:50:00","4","59.565683","9.212222","19.2","NOTODDEN, NO","FM-15","ENNO ","V020","280,1,N,0067,1","01200,1,C,N","011265,1,N,1","-0040,1","-0110,1","99999,9","04,5,+00900,1,99,9","07,5,+01200,1,99,9",,"07,99,1,99,9,99,9,99999,9,99,9,99,9",,"10102,1,99999,9","16,1",,,,"MET065METAR ENNO 241550Z 28013KT 9999 VCSH SCT030 BKN040 M04/M11 Q1010;",
"01470399999","2010-11-24T16:50:00","4","59.565683","9.212222","19.2","NOTODDEN, NO","FM-15","ENNO ","V020","280,1,N,0031,1","01200,1,C,N","011265,1,N,1","-0040,1","-0110,1","99999,9","04,5,+00900,1,99,9","07,5,+01200,1,99,9",,"07,99,1,99,9,99,9,99999,9,99,9,99,9",,"10102,1,99999,9","16,1",,,,"MET065METAR ENNO 241650Z 28006KT 9999 VCSH SCT030 BKN040 M04/M11 Q1010;",
"01470399999","2010-11-25T05:50:00","4","59.565683","9.212222","19.2","NOTODDEN, NO","FM-15","ENNO ","V020","290,1,N,0041,1","22000,1,9,N","011265,1,N,1","-0080,1","-0140,1","99999,9","04,5,+01500,1,99,9",,,"04,99,1,99,9,99,9,99999,9,99,9,99,9",,"10129,1,99999,9",,,,,"MET053METAR ENNO 250550Z 29008KT 9999 SCT050 M08/M14 Q1013;",
"01470399999","2010-11-25T06:50:00","4","59.565683","9.212222","19.2","NOTODDEN, NO","FM-15","ENNO ","V020","280,1,N,0036,1","22000,1,9,N","011265,1,N,1","-0100,1","-0150,1","99999,9","02,5,+01800,1,99,9",,,"02,99,1,99,9,99,9,99999,9,99,9,99,9",,"10139,1,99999,9",,,,,"MET053METAR ENNO 250650Z 28007KT 9999 FEW060 M10/M15 Q1014;",
"01470399999","2010-11-25T07:50:00","4","59.565683","9.212222","19.2","NOTODDEN, NO","FM-15","ENNO ","V020","280,1,N,0031,1","22000,1,9,N","011265,1,N,1","-0100,1","-0140,1","99999,9","02,5,+01800,1,99,9",,,"02,99,1,99,9,99,9,99999,9,99,9,99,9",,"10139,1,99999,9",,,,,"MET053METAR ENNO 250750Z 28006KT 9999 FEW060 M10/M14 Q1014;",
"01470399999","2010-11-25T09:50:00","4","59.565683","9.212222","19.2","NOTODDEN, NO","FM-15","ENNO ","V020","270,1,N,0015,1","22000,1,9,N","011265,1,N,1","-0100,1","-0140,1","99999,9","04,5,+01800,1,99,9",,,"04,99,1,99,9,99,9,99999,9,99,9,99,9",,"10139,1,99999,9",,,,,"MET053METAR ENNO 250950Z 27003KT 9999 SCT060 M10/M14 Q1014;",
"01470399999","2010-11-25T10:50:00","4","59.565683","9.212222","19.2","NOTODDEN, NO","FM-15","ENNO ","V020","290,1,N,0026,1","22000,1,9,N","011265,1,N,1","-0070,1","-0130,1","99999,9","04,5,+01800,1,99,9",,,"04,99,1,99,9,99,9,99999,9,99,9,99,9",,"10139,1,99999,9",,,,,"MET054METAR ENNO 251050Z 29005KT 9999 SCT060 M07/M134 Q1014;",
"01470399999","2010-11-25T11:50:00","4","59.565683","9.212222","19.2","NOTODDEN, NO","FM-15","ENNO ","V020","310,1,N,0031,1","22000,1,9,N","011265,1,N,1","-0070,1","-0140,1","99999,9","04,5,+01050,1,99,9",,,"04,99,1,99,9,99,9,99999,9,99,9,99,9",,"10129,1,99999,9",,,,,"MET053METAR ENNO 251150Z 31006KT 9999 SCT035 M07/M14 Q1013;",
"01470399999","2010-11-25T12:50:00","4","59.565683","9.212222","19.2","NOTODDEN, NO","FM-15","ENNO ","V020","300,1,N,0036,1","22000,1,9,N","011265,1,N,1","-0060,1","-0130,1","99999,9","04,5,+01050,1,99,9",,,"04,99,1,99,9,99,9,99999,9,99,9,99,9",,"10129,1,99999,9",,,,,"MET053METAR ENNO 251250Z 30007KT 9999 SCT035 M06/M13 Q1013;",
"01470399999","2010-11-25T13:50:00","4","59.565683","9.212222","19.2","NOTODDEN, NO","FM-15","ENNO ","V020","280,1,N,0026,1","22000,1,9,N","011265,1,N,1","-0080,1","-0130,1","99999,9","02,5,+01200,1,99,9",,,"02,99,1,99,9,99,9,99999,9,99,9,99,9",,"10119,1,99999,9",,,,,"MET053METAR ENNO 251350Z 28005KT 9999 FEW040 M08/M13 Q1012;",
"01470399999","2010-11-25T14:50:00","4","59.565683","9.212222","19.2","NOTODDEN, NO","FM-15","ENNO ","V020","290,1,N,0021,1","22000,1,9,N","011265,1,N,1","-0090,1","-0140,1","99999,9","04,5,+01200,1,99,9",,,"04,99,1,99,9,99,9,99999,9,99,9,99,9",,"10129,1,99999,9",,,,,"MET053METAR ENNO 251450Z 29004KT 9999 SCT040 M09/M14 Q1013;",
"01470399999","2010-11-25T15:50:00","4","59.565683","9.212222","19.2","NOTODDEN, NO","FM-15","ENNO ","V020","290,1,N,0026,1","22000,1,9,N","011265,1,N,1","-0110,1","-0140,1","99999,9",,,,,,"10130,1,99999,9",,,,,"MET052METAR ENNO 251550Z 29005KT 9999 FE045 M11/M14 Q1013;",
"01470399999","2010-11-25T16:50:00","4","59.565683","9.212222","19.2","NOTODDEN, NO","FM-15","ENNO ","V020","280,1,N,0021,1","99999,9,9,Y","009900,1,N,1","-0120,1","-0140,1","99999,9",,,,,,"10129,1,99999,9",,,,,"MET047METAR ENNO 251650Z 28004KT CAVOK M12/M14 Q1013;",
"01470399999","2010-11-26T05:50:00","4","59.565683","9.212222","19.2","NOTODDEN, NO","FM-15","ENNO ","V020","999,9,V,0010,1","01650,5,C,N","011265,1,N,1","-0120,1","-0150,1","99999,9","07,5,+01650,5,99,9",,,"07,99,1,99,9,99,9,99999,9,99,9,99,9",,"10139,1,99999,9",,,,,"MET053METAR ENNO 260550Z VRB02KT 9999 BKN055 M12/M15 Q1014;",
"01470399999","2010-11-26T06:50:00","4","59.565683","9.212222","19.2","NOTODDEN, NO","FM-15","ENNO ","V020","999,9,V,0005,1","01650,5,C,N","011265,1,N,1","-0120,1","-0160,1","99999,9","07,5,+01650,5,99,9",,,"07,99,1,99,9,99,9,99999,9,99,9,99,9",,"10139,1,99999,9",,,,,"MET053METAR ENNO 260650Z VRB01KT 9999 BKN055 M12/M16 Q1014;",
"01470399999","2010-11-26T07:50:00","4","59.565683","9.212222","19.2","NOTODDEN, NO","FM-15","ENNO ","V020","999,9,V,0005,1","22000,1,9,N","011265,1,N,1","-0120,1","-0160,1","99999,9","04,5,+01650,5,99,9",,,"04,99,1,99,9,99,9,99999,9,99,9,99,9",,"10149,1,99999,9",,,,,"MET053METAR ENNO 260750Z VRB01KT 9999 SCT055 M12/M16 Q1015;",
"01470399999","2010-11-26T09:50:00","4","59.565683","9.212222","19.2","NOTODDEN, NO","FM-15","ENNO ","V020","280,1,N,0026,1","22000,1,9,N","011265,1,N,1","-0090,1","-0160,1","99999,9","04,5,+01650,5,99,9",,,"04,99,1,99,9,99,9,99999,9,99,9,99,9",,"10149,1,99999,9",,,,,"MET061METAR ENNO 260950Z 28005KT 240V310 9999 SCT055 M09/M16 Q1015;",
"01470399999","2010-11-26T10:50:00","4","59.565683","9.212222","19.2","NOTODDEN, NO","FM-15","ENNO ","V020","280,1,N,0046,1","99999,9,C,N","011265,1,N,1","-0080,1","-0160,1","99999,9","02,5,+01200,1,99,9","04,5,+01650,5,99,9",,"04,99,1,99,9,99,9,99999,9,99,9,99,9",,"10149,1,99999,9",,,,,"MET060METAR ENNO 261050Z 28009KT 9999 FEW040 SCT055 M08/M16 Q1015;","P01 016503SCOCIG"
"01470399999","2010-11-26T11:50:00","4","59.565683","9.212222","19.2","NOTODDEN, NO","FM-15","ENNO ","V020","290,1,N,0041,1","01650,5,C,N","011265,1,N,1","-0080,1","-0150,1","99999,9","02,5,+01200,1,99,9","07,5,+01650,5,99,9",,"07,99,1,99,9,99,9,99999,9,99,9,99,9",,"10149,1,99999,9","16,1",,,,"MET065METAR ENNO 261150Z 29008KT 9999 VCSH FEW040 BKN055 M08/M15 Q1015;",
"01470399999","2010-11-26T12:50:00","4","59.565683","9.212222","19.2","NOTODDEN, NO","FM-15","ENNO ","V020","320,1,N,0036,1","01650,5,C,N","011265,1,N,1","-0080,1","-0150,1","99999,9","02,5,+01200,1,99,9","07,5,+01650,5,99,9",,"07,99,1,99,9,99,9,99999,9,99,9,99,9",,"10149,1,99999,9","16,1",,,,"MET065METAR ENNO 261250Z 32007KT 9999 VCSH FEW040 BKN055 M08/M15 Q1015;",
"01470399999","2010-11-26T14:50:00","4","59.565683","9.212222","19.2","NOTODDEN, NO","FM-15","ENNO ","V020","270,1,N,0021,1","01650,5,C,N","011265,1,N,1","-0080,1","-0150,1","99999,9","02,5,+01200,1,99,9","07,5,+01650,5,99,9",,"07,99,1,99,9,99,9,99999,9,99,9,99,9",,"10149,1,99999,9","16,1",,,,"MET065METAR ENNO 261450Z 27004KT 9999 VCSH FEW040 BKN055 M08/M15 Q1015;",
"01470399999","2010-11-26T15:50:00","4","59.565683","9.212222","19.2","NOTODDEN, NO","FM-15","ENNO ","V020","290,1,N,0021,1","01650,5,C,N","011265,1,N,1","-0080,1","-0150,1","99999,9","04,5,+01050,1,99,9","07,5,+01650,5,99,9",,"07,99,1,99,9,99,9,99999,9,99,9,99,9",,"10149,1,99999,9","16,1",,,,"MET065METAR ENNO 261550Z 29004KT 9999 VCSH SCT035 BKN055 M08/M15 Q1015;",
"01470399999","2010-11-28T17:50:00","4","59.565683","9.212222","19.2","NOTODDEN, NO","FM-15","ENNO ","V020","270,1,N,0036,1","00570,1,C,N","008000,1,N,1","-0070,1","-0100,1","99999,9","04,5,+00450,1,99,9","07,5,+00570,1,99,9",,"07,99,1,99,9,99,9,99999,9,99,9,99,9",,"10261,1,99999,9","71,1",,,,"MET064METAR ENNO 281750Z 27007KT 8000 -SN SCT015 BKN019 M07/M10 Q1026;",
"01470399999","2010-11-29T05:50:00","4","59.565683","9.212222","19.2","NOTODDEN, NO","FM-15","ENNO ","V020","330,1,N,0031,1","00960,1,C,N","011265,1,N,1","-0070,1","-0120,1","99999,9","04,5,+00600,1,99,9","07,5,+00960,1,99,9",,"07,99,1,99,9,99,9,99999,9,99,9,99,9",,"10312,1,99999,9","71,1",,,,"MET064METAR ENNO 290550Z 33006KT 9999 -SN SCT020 BKN032 M07/M12 Q1031;",
"01470399999","2010-11-29T06:50:00","4","59.565683","9.212222","19.2","NOTODDEN, NO","FM-15","ENNO ","V020","300,1,N,0031,1","01020,1,C,N","011265,1,N,1","-0070,1","-0120,1","99999,9","04,5,+00600,1,99,9","07,5,+01020,1,99,9",,"07,99,1,99,9,99,9,99999,9,99,9,99,9",,"10318,1,99999,9","16,1",,,,"MET065METAR ENNO 290650Z 30006KT 9999 VCSH SCT020 BKN034 M07/M12 Q1032;",
"01470399999","2010-11-29T07:50:00","4","59.565683","9.212222","19.2","NOTODDEN, NO","FM-15","ENNO ","V020","300,1,N,0015,1","22000,1,9,N","011265,1,N,1","-0100,1","-0130,1","99999,9","04,5,+01200,1,99,9",,,"04,99,1,99,9,99,9,99999,9,99,9,99,9",,"10329,1,99999,9",,,,,"MET053METAR ENNO 290750Z 30003KT 9999 SCT040 M10/M13 Q1033;",
"01470399999","2010-11-29T08:50:00","4","59.565683","9.212222","19.2","NOTODDEN, NO","FM-15","ENNO ","V020","300,1,N,0015,1","22000,1,9,N","011265,1,N,1","-0100,1","-0130,1","99999,9","02,5,+01200,1,99,9",,,"02,99,1,99,9,99,9,99999,9,99,9,99,9",,"10329,1,99999,9",,,,,"MET053METAR ENNO 290850Z 30003KT 9999 FEW040 M10/M13 Q1033;",
"01470399999","2010-11-29T10:50:00","4","59.565683","9.212222","19.2","NOTODDEN, NO","FM-15","ENNO ","V020","999,9,V,0036,1","99999,9,9,Y","009900,1,N,1","-0070,1","-0130,1","99999,9",,,,,,"10318,1,99999,9",,,,,"MET047METAR ENNO 291050Z VRB07KT CAVOK M07/M13 Q1032;",
"01470399999","2010-11-29T11:50:00","4","59.565683","9.212222","19.2","NOTODDEN, NO","FM-15","ENNO ","V020","999,9,V,0021,1","99999,9,9,Y","009900,1,N,1","-0060,1","-0140,1","99999,9",,,,,,"10318,1,99999,9",,,,,"MET047METAR ENNO 291150Z VRB04KT CAVOK M06/M14 Q1032;",
"01470399999","2010-11-29T12:50:00","4","59.565683","9.212222","19.2","NOTODDEN, NO","FM-15","ENNO ","V020","999,9,V,0010,1","99999,9,9,Y","009900,1,N,1","-0070,1","-0140,1","99999,9",,,,,,"10318,1,99999,9",,,,,"MET047METAR ENNO 291250Z VRB02KT CAVOK M07/M14 Q1032;",
"01470399999","2010-11-29T13:50:00","4","59.565683","9.212222","19.2","NOTODDEN, NO","FM-15","ENNO ","V020","230,1,N,0021,1","22000,1,9,N","011265,1,N,1","-0070,1","-0140,1","99999,9","04,5,+00960,1,99,9",,,"04,99,1,99,9,99,9,99999,9,99,9,99,9",,"10318,1,99999,9",,,,,"MET061METAR ENNO 291350Z 23004KT 200V300 9999 SCT032 M07/M14 Q1032;",
"01470399999","2010-11-29T14:50:00","4","59.565683","9.212222","19.2","NOTODDEN, NO","FM-15","ENNO ","V020","999,9,V,0015,1","22000,1,9,N","011265,1,N,1","-0070,1","-0140,1","99999,9","04,5,+00900,1,99,9",,,"04,99,1,99,9,99,9,99999,9,99,9,99,9",,"10318,1,99999,9","16,1",,,,"MET058METAR ENNO 291450Z VRB03KT 9999 VCSH SCT030 M07/M14 Q1032;",
"01470399999","2010-11-29T15:50:00","4","59.565683","9.212222","19.2","NOTODDEN, NO","FM-15","ENNO ","V020","290,1,N,0026,1","00900,1,C,N","011265,1,N,1","-0090,1","-0130,1","99999,9","07,5,+00900,1,99,9",,,"07,99,1,99,9,99,9,99999,9,99,9,99,9",,"10318,1,99999,9","16,1",,,,"MET058METAR ENNO 291550Z 29005KT 9999 VCSH BKN030 M09/M13 Q1032;",
"01470399999","2010-11-30T05:50:00","4","59.565683","9.212222","19.2","NOTODDEN, NO","FM-15","ENNO ","V020","999,9,V,0010,1","22000,1,9,N","011265,1,N,1","-0130,1","-0150,1","99999,9","02,5,+01650,5,99,9",,,"02,99,1,99,9,99,9,99999,9,99,9,99,9",,"10329,1,99999,9",,,,,"MET053METAR ENNO 300550Z VRB02KT 9999 FEW055 M13/M15 Q1033;",
"01470399999","2010-11-30T06:50:00","4","59.565683","9.212222","19.2","NOTODDEN, NO","FM-15","ENNO ","V020","999,9,V,0005,1","99999,9,9,Y","009900,1,N,1","-0140,1","-0150,1","99999,9",,,,,,"10329,1,99999,9",,,,,"MET047METAR ENNO 300650Z VRB01KT CAVOK M14/M15 Q1033;",
"01470399999","2010-11-30T07:50:00","4","59.565683","9.212222","19.2","NOTODDEN, NO","FM-15","ENNO ","V020","999,9,C,0000,1","99999,9,9,Y","009900,1,N,1","-0150,1","-0170,1","99999,9",,,,,,"10339,1,99999,9",,,,,"MET047METAR ENNO 300750Z 00000KT CAVOK M15/M17 Q1034;",
"01470399999","2010-11-30T08:50:00","4","59.565683","9.212222","19.2","NOTODDEN, NO","FM-15","ENNO ","V020","999,9,V,0005,1","99999,9,9,Y","009900,1,N,1","-0150,1","-0160,1","99999,9",,,,,,"10339,1,99999,9",,,,,"MET047METAR ENNO 300850Z VRB01KT CAVOK M15/M16 Q1034;",
"01470399999","2010-11-30T09:50:00","4","59.565683","9.212222","19.2","NOTODDEN, NO","FM-15","ENNO ","V020","999,9,V,0005,1","99999,9,9,Y","009900,1,N,1","-0140,1","-0150,1","99999,9",,,,,,"10339,1,99999,9",,,,,"MET047METAR ENNO 300950Z VRB01KT CAVOK M14/M15 Q1034;",
"01470399999","2010-11-30T10:50:00","4","59.565683","9.212222","19.2","NOTODDEN, NO","FM-15","ENNO ","V020","999,9,V,0010,1","22000,1,9,N","011265,1,N,1","-0120,1","-0140,1","99999,9","02,5,+01050,1,99,9",,,"02,99,1,99,9,99,9,99999,9,99,9,99,9",,"10339,1,99999,9",,,,,"MET053METAR ENNO 301050Z VRB02KT 9999 FEW035 M12/M14 Q1034;",
"01470399999","2010-11-30T11:50:00","4","59.565683","9.212222","19.2","NOTODDEN, NO","FM-15","ENNO ","V020","999,9,V,0010,1","99999,9,9,Y","009900,1,N,1","-0120,1","-0150,1","99999,9",,,,,,"10339,1,99999,9",,,,,"MET047METAR ENNO 301150Z VRB02KT CAVOK M12/M15 Q1034;",
"01470399999","2010-11-30T12:50:00","4","59.565683","9.212222","19.2","NOTODDEN, NO","FM-15","ENNO ","V020","260,1,N,0015,1","99999,9,9,Y","009900,1,N,1","-0120,1","-0160,1","99999,9",,,,,,"10329,1,99999,9",,,,,"MET047METAR ENNO 301250Z 26003KT CAVOK M12/M16 Q1033;",
"01470399999","2010-11-30T13:50:00","4","59.565683","9.212222","19.2","NOTODDEN, NO","FM-15","ENNO ","V020","270,1,N,0015,1","99999,9,9,Y","009900,1,N,1","-0130,1","-0160,1","99999,9",,,,,,"10329,1,99999,9",,,,,"MET047METAR ENNO 301350Z 27003KT CAVOK M13/M16 Q1033;",
"01470399999","2010-11-30T14:50:00","4","59.565683","9.212222","19.2","NOTODDEN, NO","FM-15","ENNO ","V020","999,9,V,0010,1","99999,9,9,Y","009900,1,N,1","-0150,1","-0170,1","99999,9",,,,,,"10318,1,99999,9",,,,,"MET047METAR ENNO 301450Z VRB02KT CAVOK M15/M17 Q1032;",
"01470399999","2010-11-30T15:50:00","4","59.565683","9.212222","19.2","NOTODDEN, NO","FM-15","ENNO ","V020","300,1,N,0015,1","99999,9,9,Y","009900,1,N,1","-0150,1","-0170,1","99999,9",,,,,,"10318,1,99999,9",,,,,"MET047METAR ENNO 301550Z 30003KT CAVOK M15/M17 Q1032;",
"01470399999","2010-11-30T16:50:00","4","59.565683","9.212222","19.2","NOTODDEN, NO","FM-15","ENNO ","V020","280,1,N,0010,1","99999,9,9,Y","009900,1,N,1","-0160,1","-0180,1","99999,9",,,,,,"10318,1,99999,9",,,,,"MET047METAR ENNO 301650Z 28002KT CAVOK M16/M18 Q1032;",
"01470399999","2010-12-01T05:50:00","4","59.565683","9.212222","19.2","NOTODDEN, NO","FM-15","ENNO ","V020","280,1,N,0010,1","99999,9,9,Y","009900,1,N,1","-0210,1","-0230,1","99999,9",,,,,,"10318,1,99999,9",,,,,"MET047METAR ENNO 010550Z 28002KT CAVOK M21/M23 Q1032;",
"01470399999","2010-12-01T06:50:00","4","59.565683","9.212222","19.2","NOTODDEN, NO","FM-15","ENNO ","V020","280,1,N,0015,1","99999,9,9,Y","009900,1,N,1","-0210,1","-0230,1","99999,9",,,,,,"10318,1,99999,9",,,,,"MET047METAR ENNO 010650Z 28003KT CAVOK M21/M23 Q1032;",
"01470399999","2010-12-01T08:50:00","4","59.565683","9.212222","19.2","NOTODDEN, NO","FM-15","ENNO ","V020","290,1,N,0015,1","99999,9,9,Y","009900,1,N,1","-0210,1","-0230,1","99999,9",,,,,,"10318,1,99999,9",,,,,"MET055METAR ENNO 010850Z 29003KT 240V320 CAVOK M21/M23 Q1032;",
"01470399999","2010-12-01T09:50:00","4","59.565683","9.212222","19.2","NOTODDEN, NO","FM-15","ENNO ","V020","300,1,N,0015,1","99999,9,9,Y","009900,1,N,1","-0190,1","-0210,1","99999,9",,,,,,"10318,1,99999,9",,,,,"MET047METAR ENNO 010950Z 30003KT CAVOK M19/M21 Q1032;",
"01470399999","2010-12-01T10:50:00","4","59.565683","9.212222","19.2","NOTODDEN, NO","FM-15","ENNO ","V020","270,1,N,0015,1","99999,9,9,Y","009900,1,N,1","-0170,1","-0190,1","99999,9",,,,,,"10312,1,99999,9",,,,,"MET047METAR ENNO 011050Z 27003KT CAVOK M17/M19 Q1031;",
"01470399999","2010-12-01T11:50:00","4","59.565683","9.212222","19.2","NOTODDEN, NO","FM-15","ENNO ","V020","290,1,N,0015,1","99999,9,9,Y","009900,1,N,1","-0150,1","-0180,1","99999,9",,,,,,"10312,1,99999,9",,,,,"MET047METAR ENNO 011150Z 29003KT CAVOK M15/M18 Q1031;",
"01470399999","2010-12-01T12:50:00","4","59.565683","9.212222","19.2","NOTODDEN, NO","FM-15","ENNO ","V020","270,1,N,0021,1","99999,9,9,Y","009900,1,N,1","-0160,1","-0180,1","99999,9",,,,,,"10301,1,99999,9",,,,,"MET047METAR ENNO 011250Z 27004KT CAVOK M16/M18 Q1030;",
"01470399999","2010-12-01T13:50:00","4","59.565683","9.212222","19.2","NOTODDEN, NO","FM-15","ENNO ","V020","280,1,N,0021,1","99999,9,9,Y","009900,1,N,1","-0160,1","-0180,1","99999,9",,,,,,"10301,1,99999,9",,,,,"MET047METAR ENNO 011350Z 28004KT CAVOK M16/M18 Q1030;",
"01470399999","2010-12-01T14:50:00","4","59.565683","9.212222","19.2","NOTODDEN, NO","FM-15","ENNO ","V020","270,1,N,0015,1","99999,9,9,Y","009900,1,N,1","-0180,1","-0200,1","99999,9",,,,,,"10301,1,99999,9",,,,,"MET047METAR ENNO 011450Z 27003KT CAVOK M18/M20 Q1030;",
"01470399999","2010-12-01T15:50:00","4","59.565683","9.212222","19.2","NOTODDEN, NO","FM-15","ENNO ","V020","280,1,N,0021,1","99999,9,9,Y","009900,1,N,1","-0170,1","-0190,1","99999,9",,,,,,"10301,1,99999,9",,,,,"MET047METAR ENNO 011550Z 28004KT CAVOK M17/M19 Q1030;",
"01470399999","2010-12-02T05:50:00","4","59.565683","9.212222","19.2","NOTODDEN, NO","FM-15","ENNO ","V020","999,9,V,0010,1","01050,1,C,N","011265,1,N,1","-0120,1","-0140,1","99999,9","07,5,+01050,1,99,9",,,"07,99,1,99,9,99,9,99999,9,99,9,99,9",,"10251,1,99999,9",,,,,"MET053METAR ENNO 020550Z VRB02KT 9999 BKN035 M12/M14 Q1025;",
"01470399999","2010-12-02T06:50:00","4","59.565683","9.212222","19.2","NOTODDEN, NO","FM-15","ENNO ","V020","999,9,V,0010,1","01050,1,C,N","011265,1,N,1","-0130,1","-0140,1","99999,9","07,5,+01050,1,99,9",,,"07,99,1,99,9,99,9,99999,9,99,9,99,9",,"10251,1,99999,9",,,,,"MET053METAR ENNO 020650Z VRB02KT 9999 BKN035 M13/M14 Q1025;",
"01470399999","2010-12-02T07:50:00","4","59.565683","9.212222","19.2","NOTODDEN, NO","FM-15","ENNO ","V020","999,9,V,0005,1","99999,9,9,Y","009900,1,N,1","-0150,1","-0170,1","99999,9",,,,,,"10251,1,99999,9",,,,,"MET047METAR ENNO 020750Z VRB01KT CAVOK M15/M17 Q1025;",
"01470399999","2010-12-02T08:50:00","4","59.565683","9.212222","19.2","NOTODDEN, NO","FM-15","ENNO ","V020","270,1,N,0010,1","99999,9,9,Y","009900,1,N,1","-0150,1","-0170,1","99999,9",,,,,,"10240,1,99999,9",,,,,"MET047METAR ENNO 020850Z 27002KT CAVOK M15/M17 Q1024;",
"01470399999","2010-12-02T09:50:00","4","59.565683","9.212222","19.2","NOTODDEN, NO","FM-15","ENNO ","V020","999,9,V,0005,1","99999,9,9,Y","009900,1,N,1","-0140,1","-0150,1","99999,9",,,,,,"10240,1,99999,9",,,,,"MET047METAR ENNO 020950Z VRB01KT CAVOK M14/M15 Q1024;",
"01470399999","2010-12-02T10:50:00","4","59.565683","9.212222","19.2","NOTODDEN, NO","FM-15","ENNO ","V020","999,9,C,0000,1","99999,9,9,Y","009900,1,N,1","-0110,1","-0120,1","99999,9",,,,,,"10230,1,99999,9",,,,,"MET047METAR ENNO 021050Z 00000KT CAVOK M11/M12 Q1023;",
"01470399999","2010-12-02T11:50:00","4","59.565683","9.212222","19.2","NOTODDEN, NO","FM-15","ENNO ","V020","999,9,C,0000,1","99999,9,9,Y","009900,1,N,1","-0090,1","-0120,1","99999,9",,,,,,"10220,1,99999,9",,,,,"MET047METAR ENNO 021150Z 00000KT CAVOK M09/M12 Q1022;",
"01470399999","2010-12-02T12:50:00","4","59.565683","9.212222","19.2","NOTODDEN, NO","FM-15","ENNO ","V020","999,9,V,0005,1","99999,9,9,Y","009900,1,N,1","-0110,1","-0140,1","99999,9",,,,,,"10210,1,99999,9",,,,,"MET047METAR ENNO 021250Z VRB01KT CAVOK M11/M14 Q1021;",
"01470399999","2010-12-02T13:50:00","4","59.565683","9.212222","19.2","NOTODDEN, NO","FM-15","ENNO ","V020","290,1,N,0021,1","99999,9,9,Y","009900,1,N,1","-0140,1","-0150,1","99999,9",,,,,,"10210,1,99999,9",,,,,"MET047METAR ENNO 021350Z 29004KT CAVOK M14/M15 Q1021;",
"01470399999","2010-12-02T14:50:00","4","59.565683","9.212222","19.2","NOTODDEN, NO","FM-15","ENNO ","V020","300,1,N,0015,1","99999,9,9,Y","009900,1,N,1","-0150,1","-0160,1","99999,9",,,,,,"10200,1,99999,9",,,,,"MET047METAR ENNO 021450Z 30003KT CAVOK M15/M16 Q1020;",
"01470399999","2010-12-02T15:50:00","4","59.565683","9.212222","19.2","NOTODDEN, NO","FM-15","ENNO ","V020","290,1,N,0015,1","99999,9,9,Y","009900,1,N,1","-0150,1","-0160,1","99999,9",,,,,,"10190,1,99999,9",,,,,"MET055METAR ENNO 021550Z 29003KT 240V320 CAVOK M15/M16 Q1019;",
"01470399999","2010-12-03T05:50:00","4","59.565683","9.212222","19.2","NOTODDEN, NO","FM-15","ENNO ","V020","999,9,V,0010,1","99999,9,9,Y","009900,1,N,1","-0200,1","-0220,1","99999,9",,,,,,"10102,1,99999,9",,,,,"MET047METAR ENNO 030550Z VRB02KT CAVOK M20/M22 Q1010;",
"01470399999","2010-12-03T06:50:00","4","59.565683","9.212222","19.2","NOTODDEN, NO","FM-15","ENNO ","V020","999,9,V,0010,1","99999,9,9,Y","009900,1,N,1","-0200,1","-0220,1","99999,9",,,,,,"10091,1,99999,9",,,,,"MET047METAR ENNO 030650Z VRB02KT CAVOK M20/M22 Q1009;",
"01470399999","2010-12-03T07:50:00","4","59.565683","9.212222","19.2","NOTODDEN, NO","FM-15","ENNO ","V020","999,9,V,0010,1","99999,9,9,Y","009900,1,N,1","-0200,1","-0220,1","99999,9",,,,,,"10091,1,99999,9",,,,,"MET047METAR ENNO 030750Z VRB02KT CAVOK M20/M22 Q1009;",
"01470399999","2010-12-03T08:50:00","4","59.565683","9.212222","19.2","NOTODDEN, NO","FM-15","ENNO ","V020","999,9,V,0010,1","99999,9,9,Y","009900,1,N,1","-0200,1","-0220,1","99999,9",,,,,,"10091,1,99999,9",,,,,"MET047METAR ENNO 030850Z VRB02KT CAVOK M20/M22 Q1009;",
"01470399999","2010-12-03T09:50:00","4","59.565683","9.212222","19.2","NOTODDEN, NO","FM-15","ENNO ","V020","999,9,V,0010,1","99999,9,9,Y","009900,1,N,1","-0190,1","-0210,1","99999,9",,,,,,"10081,1,99999,9",,,,,"MET047METAR ENNO 030950Z VRB02KT CAVOK M19/M21 Q1008;",
"01470399999","2010-12-03T10:50:00","4","59.565683","9.212222","19.2","NOTODDEN, NO","FM-15","ENNO ","V020","300,1,N,0010,1","99999,9,9,Y","009900,1,N,1","-0180,1","-0200,1","99999,9",,,,,,"10081,1,99999,9",,,,,"MET047METAR ENNO 031050Z 30002KT CAVOK M18/M20 Q1008;",
"01470399999","2010-12-03T11:50:00","4","59.565683","9.212222","19.2","NOTODDEN, NO","FM-15","ENNO ","V020","290,1,N,0015,1","99999,9,9,Y","009900,1,N,1","-0160,1","-0180,1","99999,9",,,,,,"10071,1,99999,9",,,,,"MET047METAR ENNO 031150Z 29003KT CAVOK M16/M18 Q1007;",
"01470399999","2010-12-03T12:50:00","4","59.565683","9.212222","19.2","NOTODDEN, NO","FM-15","ENNO ","V020","999,9,V,0010,1","99999,9,9,Y","009900,1,N,1","-0150,1","-0170,1","99999,9",,,,,,"10061,1,99999,9",,,,,"MET047METAR ENNO 031250Z VRB02KT CAVOK M15/M17 Q1006;",
"01470399999","2010-12-03T13:50:00","4","59.565683","9.212222","19.2","NOTODDEN, NO","FM-15","ENNO ","V020","290,1,N,0010,1","99999,9,9,Y","009900,1,N,1","-0160,1","-0180,1","99999,9",,,,,,"10061,1,99999,9",,,,,"MET047METAR ENNO 031350Z 29002KT CAVOK M16/M18 Q1006;",
"01470399999","2010-12-03T14:50:00","4","59.565683","9.212222","19.2","NOTODDEN, NO","FM-15","ENNO ","V020","290,1,N,0010,1","99999,9,9,Y","009900,1,N,1","-0160,1","-0180,1","99999,9",,,,,,"10061,1,99999,9",,,,,"MET047METAR ENNO 031450Z 29002KT CAVOK M16/M18 Q1006;",
"01470399999","2010-12-03T15:50:00","4","59.565683","9.212222","19.2","NOTODDEN, NO","FM-15","ENNO ","V020","260,1,N,0005,1","99999,9,9,Y","009900,1,N,1","-0160,1","-0180,1","99999,9",,,,,,"10061,1,99999,9",,,,,"MET047METAR ENNO 031550Z 26001KT CAVOK M16/M18 Q1006;",
"01470399999","2010-12-03T16:50:00","4","59.565683","9.212222","19.2","NOTODDEN, NO","FM-15","ENNO ","V020","290,1,N,0010,1","99999,9,9,Y","009900,1,N,1","-0170,1","-0180,1","99999,9",,,,,,"10061,1,99999,9",,,,,"MET047METAR ENNO 031650Z 29002KT CAVOK M17/M18 Q1006;",
"01470399999","2010-12-05T17:20:00","4","59.565683","9.212222","19.2","NOTODDEN, NO","FM-15","ENNO ","V020","300,1,N,0010,1","99999,9,9,Y","009900,1,N,1","-0170,1","-0190,1","99999,9",,,,,,"09949,1,99999,9",,,,,"MET047METAR ENNO 051720Z 30002KT CAVOK M17/M19 Q0995;",
"01470399999","2010-12-05T17:50:00","4","59.565683","9.212222","19.2","NOTODDEN, NO","FM-15","ENNO ","V020","999,9,V,0005,1","99999,9,9,Y","009900,1,N,1","-0180,1","-0190,1","99999,9",,,,,,"09949,1,99999,9",,,,,"MET047METAR ENNO 051750Z VRB01KT CAVOK M18/M19 Q0995;",
"01470399999","2010-12-05T18:50:00","4","59.565683","9.212222","19.2","NOTODDEN, NO","FM-15","ENNO ","V020","290,1,N,0021,1","99999,9,9,Y","009900,1,N,1","-0180,1","-0200,1","99999,9",,,,,,"09939,1,99999,9",,,,,"MET047METAR ENNO 051850Z 29004KT CAVOK M18/M20 Q0994;",
"01470399999","2010-12-06T05:50:00","4","59.565683","9.212222","19.2","NOTODDEN, NO","FM-15","ENNO ","V020","999,9,V,0015,1","99999,9,9,Y","009900,1,N,1","-0200,1","-0220,1","99999,9",,,,,,"09949,1,99999,9",,,,,"MET047METAR ENNO 060550Z VRB03KT CAVOK M20/M22 Q0995;",
"01470399999","2010-12-06T06:50:00","4","59.565683","9.212222","19.2","NOTODDEN, NO","FM-15","ENNO ","V020","999,9,V,0005,1","99999,9,9,Y","009900,1,N,1","-0210,1","-0230,1","99999,9",,,,,,"09949,1,99999,9",,,,,"MET047METAR ENNO 060650Z VRB01KT CAVOK M21/M23 Q0995;",
"01470399999","2010-12-06T07:50:00","4","59.565683","9.212222","19.2","NOTODDEN, NO","FM-15","ENNO ","V020","270,1,N,0015,1","99999,9,9,Y","009900,1,N,1","-0210,1","-0230,1","99999,9",,,,,,"09949,1,99999,9",,,,,"MET047METAR ENNO 060750Z 27003KT CAVOK M21/M23 Q0995;",
"01470399999","2010-12-06T08:50:00","4","59.565683","9.212222","19.2","NOTODDEN, NO","FM-15","ENNO ","V020","310,1,N,0010,1","99999,9,9,Y","009900,1,N,1","-0210,1","-0240,1","99999,9",,,,,,"09959,1,99999,9",,,,,"MET047METAR ENNO 060850Z 31002KT CAVOK M21/M24 Q0996;",
"01470399999","2010-12-06T09:50:00","4","59.565683","9.212222","19.2","NOTODDEN, NO","FM-15","ENNO ","V020","999,9,V,0005,1","99999,9,9,Y","009900,1,N,1","-0200,1","-0220,1","99999,9",,,,,,"09959,1,99999,9",,,,,"MET047METAR ENNO 060950Z VRB01KT CAVOK M20/M22 Q0996;",
"01470399999","2010-12-06T10:50:00","4","59.565683","9.212222","19.2","NOTODDEN, NO","FM-15","ENNO ","V020","310,1,N,0015,1","22000,1,9,N","011265,1,N,1","-0160,1","-0180,1","99999,9",,,,"00,99,1,99,9,99,9,99999,9,99,9,99,9",,"09959,1,99999,9",,,,,"MET050METAR ENNO 061050Z 31003KT 9999 NSC M16/M18 Q0996;","Q01    003SCCGA1"
"01470399999","2010-12-06T11:50:00","4","59.565683","9.212222","19.2","NOTODDEN, NO","FM-15","ENNO ","V020","999,9,V,0005,1","99999,9,9,Y","009900,1,N,1","-0140,1","-0160,1","99999,9",,,,,,"09959,1,99999,9",,,,,"MET047METAR ENNO 061150Z VRB01KT CAVOK M14/M16 Q0996;",
"01470399999","2010-12-06T12:50:00","4","59.565683","9.212222","19.2","NOTODDEN, NO","FM-15","ENNO ","V020","999,9,V,0005,1","99999,9,9,Y","009900,1,N,1","-0180,1","-0190,1","99999,9",,,,,,"09959,1,99999,9",,,,,"MET047METAR ENNO 061250Z VRB01KT CAVOK M18/M19 Q0996;",
"01470399999","2010-12-06T14:50:00","4","59.565683","9.212222","19.2","NOTODDEN, NO","FM-15","ENNO ","V020","280,1,N,0015,1","22000,1,9,N","011265,1,N,1","-0190,1","-0200,1","99999,9","02,5,+00000,5,99,9",,,"02,99,1,99,9,99,9,99999,9,99,9,99,9",,"09959,1,99999,9",,,,,"MET053METAR ENNO 061450Z 28003KT 9999 FEW000 M19/M20 Q0996;",
"01470399999","2010-12-06T15:50:00","4","59.565683","9.212222","19.2","NOTODDEN, NO","FM-15","ENNO ","V020","270,1,N,0010,1","22000,1,9,N","011265,1,N,1","-0200,1","-0220,1","99999,9","02,5,+00000,5,99,9",,,"02,99,1,99,9,99,9,99999,9,99,9,99,9",,"09970,1,99999,9",,,,,"MET053METAR ENNO 061550Z 27002KT 9999 FEW000 M20/M22 Q0997;",
"01470399999","2010-12-07T05:50:00","4","59.565683","9.212222","19.2","NOTODDEN, NO","FM-15","ENNO ","V020","999,9,V,0005,1","22000,1,9,N","011265,1,N,1","-0230,1","-0260,1","99999,9","02,5,+00000,5,99,9",,,"02,99,1,99,9,99,9,99999,9,99,9,99,9",,"10010,1,99999,9",,,,,"MET053METAR ENNO 070550Z VRB01KT 9999 FEW000 M23/M26 Q1001;",
"01470399999","2010-12-07T06:50:00","4","59.565683","9.212222","19.2","NOTODDEN, NO","FM-15","ENNO ","V020","999,9,V,0010,1","22000,1,9,N","011265,1,N,1","-0230,1","-0260,1","99999,9","02,5,+00000,5,99,9",,,"02,99,1,99,9,99,9,99999,9,99,9,99,9",,"10020,1,99999,9",,,,,"MET053METAR ENNO 070650Z VRB02KT 9999 FEW000 M23/M26 Q1002;",
"01470399999","2010-12-07T07:50:00","4","59.565683","9.212222","19.2","NOTODDEN, NO","FM-15","ENNO ","V020","310,1,N,0015,1","22000,1,9,N","011265,1,N,1","-0240,1","-0260,1","99999,9","02,5,+00000,5,99,9",,,"02,99,1,99,9,99,9,99999,9,99,9,99,9",,"10020,1,99999,9",,,,,"MET053METAR ENNO 070750Z 31003KT 9999 FEW000 M24/M26 Q1002;",
"01470399999","2010-12-07T08:50:00","4","59.565683","9.212222","19.2","NOTODDEN, NO","FM-15","ENNO ","V020","999,9,C,0000,1","22000,1,9,N","011265,1,N,1","-0230,1","-0250,1","99999,9","02,5,+00000,5,99,9",,,"02,99,1,99,9,99,9,99999,9,99,9,99,9",,"10031,1,99999,9",,,,,"MET053METAR ENNO 070850Z 00000KT 9999 FEW000 M23/M25 Q1003;",
"01470399999","2010-12-07T10:20:00","4","59.565683","9.212222","19.2","NOTODDEN, NO","FM-15","ENNO ","V020","999,9,V,0010,1","22000,1,9,N","011265,1,N,1","-0200,1","-0230,1","99999,9","02,5,+00000,5,99,9",,,"02,99,1,99,9,99,9,99999,9,99,9,99,9",,"10041,1,99999,9",,,,,"MET053METAR ENNO 071020Z VRB02KT 9999 FEW000 M20/M23 Q1004;",
"01470399999","2010-12-07T10:50:00","4","59.565683","9.212222","19.2","NOTODDEN, NO","FM-15","ENNO ","V020","290,1,N,0015,1","22000,1,9,N","011265,1,N,1","-0190,1","-0210,1","99999,9","02,5,+00000,5,99,9",,,"02,99,1,99,9,99,9,99999,9,99,9,99,9",,"10041,1,99999,9",,,,,"MET053METAR ENNO 071050Z 29003KT 9999 FEW000 M19/M21 Q1004;",
"01470399999","2010-12-07T11:50:00","4","59.565683","9.212222","19.2","NOTODDEN, NO","FM-15","ENNO ","V020","290,1,N,0010,1","22000,1,9,N","011265,1,N,1","-0170,1","-0190,1","99999,9","02,5,+00000,5,99,9",,,"02,99,1,99,9,99,9,99999,9,99,9,99,9",,"10031,1,99999,9",,,,,"MET053METAR ENNO 071150Z 29002KT 9999 FEW000 M17/M19 Q1003;",
"01470399999","2010-12-07T12:50:00","4","59.565683","9.212222","19.2","NOTODDEN, NO","FM-15","ENNO ","V020","999,9,V,0010,1","22000,1,9,N","011265,1,N,1","-0180,1","-0200,1","99999,9","02,5,+00000,5,99,9",,,"02,99,1,99,9,99,9,99999,9,99,9,99,9",,"10041,1,99999,9",,,,,"MET053METAR ENNO 071250Z VRB02KT 9999 FEW000 M18/M20 Q1004;",
"01470399999","2010-12-07T13:50:00","4","59.565683","9.212222","19.2","NOTODDEN, NO","FM-15","ENNO ","V020","999,9,V,0010,1","22000,1,9,N","011265,1,N,1","-0200,1","-0220,1","99999,9","02,5,+00000,5,99,9",,,"02,99,1,99,9,99,9,99999,9,99,9,99,9",,"10041,1,99999,9",,,,,"MET053METAR ENNO 071350Z VRB02KT 9999 FEW000 M20/M22 Q1004;",
"01470399999","2010-12-07T15:50:00","4","59.565683","9.212222","19.2","NOTODDEN, NO","FM-15","ENNO ","V020","999,9,V,0010,1","22000,1,9,N","011265,1,N,1","-0210,1","-0230,1","99999,9","02,5,+00000,5,99,9",,,"02,99,1,99,9,99,9,99999,9,99,9,99,9",,"10051,1,99999,9",,,,,"MET053METAR ENNO 071550Z VRB02KT 9999 FEW000 M21/M23 Q1005;",
"01470399999","2010-12-08T05:50:00","4","59.565683","9.212222","19.2","NOTODDEN, NO","FM-15","ENNO ","V020","999,9,V,0010,1","99999,9,9,Y","009900,1,N,1","-0180,1","-0200,1","99999,9",,,,,,"10071,1,99999,9",,,,,"MET047METAR ENNO 080550Z VRB02KT CAVOK M18/M20 Q1007;",
"01470399999","2010-12-08T06:50:00","4","59.565683","9.212222","19.2","NOTODDEN, NO","FM-15","ENNO ","V020","999,9,V,0010,1","99999,9,9,Y","009900,1,N,1","-0190,1","-0210,1","99999,9",,,,,,"10071,1,99999,9",,,,,"MET047METAR ENNO 080650Z VRB02KT CAVOK M19/M21 Q1007;",
"01470399999","2010-12-08T07:50:00","4","59.565683","9.212222","19.2","NOTODDEN, NO","FM-15","ENNO ","V020","999,9,V,0010,1","99999,9,9,Y","009900,1,N,1","-0200,1","-0220,1","99999,9",,,,,,"10071,1,99999,9",,,,,"MET047METAR ENNO 080750Z VRB02KT CAVOK M20/M22 Q1007;",
"01470399999","2010-12-08T08:50:00","4","59.565683","9.212222","19.2","NOTODDEN, NO","FM-15","ENNO ","V020","999,9,V,0005,1","22000,1,9,N","011265,1,N,1","-0190,1","-0210,1","99999,9","02,5,+00000,5,99,9",,,"02,99,1,99,9,99,9,99999,9,99,9,99,9",,"10071,1,99999,9",,,,,"MET053METAR ENNO 080850Z VRB01KT 9999 FEW000 M19/M21 Q1007;",
"01470399999","2010-12-08T09:50:00","4","59.565683","9.212222","19.2","NOTODDEN, NO","FM-15","ENNO ","V020","999,9,V,0005,1","22000,1,9,N","011265,1,N,1","-0160,1","-0180,1","99999,9","02,5,+00000,5,99,9",,,"02,99,1,99,9,99,9,99999,9,99,9,99,9",,"10071,1,99999,9",,,,,"MET053METAR ENNO 080950Z VRB01KT 9999 FEW000 M16/M18 Q1007;",
"01470399999","2010-12-08T10:50:00","4","59.565683","9.212222","19.2","NOTODDEN, NO","FM-15","ENNO ","V020","240,1,N,0010,1","22000,1,9,N","011265,1,N,1","-0140,1","-0160,1","99999,9","02,5,+00000,5,99,9",,,"02,99,1,99,9,99,9,99999,9,99,9,99,9",,"10071,1,99999,9",,,,,"MET054METAR ENNO 081050Z 24002KT 9999 FEW000 M14/M168 Q1007;",
"01470399999","2010-12-08T11:20:00","4","59.565683","9.212222","19.2","NOTODDEN, NO","FM-15","ENNO ","V020","999,9,V,0010,1","99999,9,9,Y","009900,1,N,1","-0120,1","-0140,1","99999,9",,,,,,"10071,1,99999,9",,,,,"MET047METAR ENNO 081120Z VRB02KT CAVOK M12/M14 Q1007;",
"01470399999","2010-12-08T11:50:00","4","59.565683","9.212222","19.2","NOTODDEN, NO","FM-15","ENNO ","V020","999,9,V,0010,1","99999,9,9,Y","009900,1,N,1","-0140,1","-0150,1","99999,9",,,,,,"10071,1,99999,9",,,,,"MET047METAR ENNO 081150Z VRB02KT CAVOK M14/M15 Q1007;",
"01470399999","2010-12-08T12:50:00","4","59.565683","9.212222","19.2","NOTODDEN, NO","FM-15","ENNO ","V020","280,1,N,0015,1","99999,9,9,Y","009900,1,N,1","-0140,1","-0150,1","99999,9",,,,,,"10061,1,99999,9",,,,,"MET047METAR ENNO 081250Z 28003KT CAVOK M14/M15 Q1006;",
"01470399999","2010-12-08T13:50:00","4","59.565683","9.212222","19.2","NOTODDEN, NO","FM-15","ENNO ","V020","999,9,C,0000,1","99999,9,9,Y","009900,1,N,1","-0130,1","-0150,1","99999,9",,,,,,"10061,1,99999,9",,,,,"MET047METAR ENNO 081350Z 00000KT CAVOK M13/M15 Q1006;",
"01470399999","2010-12-08T14:50:00","4","59.565683","9.212222","19.2","NOTODDEN, NO","FM-15","ENNO ","V020","280,1,N,0021,1","99999,9,9,Y","009900,1,N,1","-0140,1","-0160,1","99999,9",,,,,,"10061,1,99999,9",,,,,"MET047METAR ENNO 081450Z 28004KT CAVOK M14/M16 Q1006;",
"01470399999","2010-12-08T15:50:00","4","59.565683","9.212222","19.2","NOTODDEN, NO","FM-15","ENNO ","V020","270,1,N,0021,1","99999,9,9,Y","009900,1,N,1","-0130,1","-0140,1","99999,9",,,,,,"10051,1,99999,9",,,,,"MET055METAR ENNO 081550Z 27004KT 220V300 CAVOK M13/M14 Q1005;",
"01470399999","2010-12-09T05:50:00","4","59.565683","9.212222","19.2","NOTODDEN, NO","FM-15","ENNO ","V020","280,1,N,0015,1","22000,1,9,N","011265,1,N,1","-0190,1","-0210,1","99999,9","02,5,+00000,5,99,9",,,"02,99,1,99,9,99,9,99999,9,99,9,99,9",,"10081,1,99999,9",,,,,"MET061METAR ENNO 090550Z 28003KT 240V320 9999 FEW000 M19/M21 Q1008;",
"01470399999","2010-12-09T06:50:00","4","59.565683","9.212222","19.2","NOTODDEN, NO","FM-15","ENNO ","V020","300,1,N,0021,1","22000,1,9,N","011265,1,N,1","-0190,1","-0210,1","99999,9","02,5,+00000,5,99,9",,,"02,99,1,99,9,99,9,99999,9,99,9,99,9",,"10081,1,99999,9",,,,,"MET053METAR ENNO 090650Z 30004KT 9999 FEW000 M19/M21 Q1008;",
"01470399999","2010-12-09T07:50:00","4","59.565683","9.212222","19.2","NOTODDEN, NO","FM-15","ENNO ","V020","999,9,V,0010,1","22000,1,9,N","011265,1,N,1","-0200,1","-0220,1","99999,9","02,5,+00000,5,99,9",,,"02,99,1,99,9,99,9,99999,9,99,9,99,9",,"10091,1,99999,9",,,,,"MET053METAR ENNO 090750Z VRB02KT 9999 FEW000 M20/M22 Q1009;",
"01470399999","2010-12-09T08:50:00","4","59.565683","9.212222","19.2","NOTODDEN, NO","FM-15","ENNO ","V020","999,9,V,0010,1","22000,1,9,N","011265,1,N,1","-0200,1","-0220,1","99999,9","02,5,+00000,5,99,9",,,"02,99,1,99,9,99,9,99999,9,99,9,99,9",,"10091,1,99999,9",,,,,"MET053METAR ENNO 090850Z VRB02KT 9999 FEW000 M20/M22 Q1009;",
"01470399999","2010-12-09T09:50:00","4","59.565683","9.212222","19.2","NOTODDEN, NO","FM-15","ENNO ","V020","999,9,V,0010,1","02850,5,C,N","011265,1,N,1","-0160,1","-0180,1","99999,9","02,5,+00000,5,99,9","07,5,+02850,5,99,9",,"07,99,1,99,9,99,9,99999,9,99,9,99,9",,"10102,1,99999,9",,,,,"MET060METAR ENNO 090950Z VRB02KT 9999 FEW000 BKN095 M16/M18 Q1010;",
"01470399999","2010-12-09T10:50:00","4","59.565683","9.212222","19.2","NOTODDEN, NO","FM-15","ENNO ","V020","999,9,V,0010,1","99999,9,C,N","011265,1,N,1","-0150,1","-0170,1","99999,9","02,5,+00000,5,99,9","04,5,+03000,1,99,9",,"04,99,1,99,9,99,9,99999,9,99,9,99,9",,"10102,1,99999,9",,,,,"MET060METAR ENNO 091050Z VRB02KT 9999 FEW000 SCT100 M15/M17 Q1010;","P01 030003SCOCIG"
"01470399999","2010-12-09T11:50:00","4","59.565683","9.212222","19.2","NOTODDEN, NO","FM-15","ENNO ","V020","999,9,V,0010,1","99999,9,C,N","011265,1,N,1","-0130,1","-0150,1","99999,9","02,5,+00000,5,99,9","04,5,+03000,1,99,9",,"04,99,1,99,9,99,9,99999,9,99,9,99,9",,"10108,1,99999,9",,,,,"MET060METAR ENNO 091150Z VRB02KT 9999 FEW000 SCT100 M13/M15 Q1011;","P01 030003SCOCIG"
"01470399999","2010-12-09T12:50:00","4","59.565683","9.212222","19.2","NOTODDEN, NO","FM-15","ENNO ","V020","999,9,V,0010,1","99999,9,9,Y","009900,1,N,1","-0150,1","-0170,1","99999,9",,,,,,"10108,1,99999,9",,,,,"MET047METAR ENNO 091250Z VRB02KT CAVOK M15/M17 Q1011;",
"01470399999","2010-12-09T14:50:00","4","59.565683","9.212222","19.2","NOTODDEN, NO","FM-15","ENNO ","V020","999,9,V,0010,1","99999,9,9,Y","009900,1,N,1","-0170,1","-0180,1","99999,9",,,,,,"10119,1,99999,9",,,,,"MET047METAR ENNO 091450Z VRB02KT CAVOK M17/M18 Q1012;",
"01470399999","2010-12-09T15:50:00","4","59.565683","9.212222","19.2","NOTODDEN, NO","FM-15","ENNO ","V020","999,9,V,0010,1","99999,9,9,Y","009900,1,N,1","-0180,1","-0200,1","99999,9",,,,,,"10139,1,99999,9",,,,,"MET047METAR ENNO 091550Z VRB02KT CAVOK M18/M20 Q1014;",
"01470399999","2010-12-09T16:50:00","4","59.565683","9.212222","19.2","NOTODDEN, NO","FM-15","ENNO ","V020","999,9,V,0010,1","99999,9,9,Y","009900,1,N,1","-0190,1","-0210,1","99999,9",,,,,,"10149,1,99999,9",,,,,"MET047METAR ENNO 091650Z VRB02KT CAVOK M19/M21 Q1015;",
"01470399999","2010-12-10T05:50:00","4","59.565683","9.212222","19.2","NOTODDEN, NO","FM-15","ENNO ","V020","999,9,V,0005,1","99999,9,9,Y","009900,1,N,1","-0150,1","-0160,1","99999,9",,,,,,"10190,1,99999,9",,,,,"MET047METAR ENNO 100550Z VRB01KT CAVOK M15/M16 Q1019;",
"01470399999","2010-12-10T06:50:00","4","59.565683","9.212222","19.2","NOTODDEN, NO","FM-15","ENNO ","V020","999,9,V,0005,1","99999,9,9,Y","009900,1,N,1","-0140,1","-0160,1","99999,9",,,,,,"10190,1,99999,9",,,,,"MET047METAR ENNO 100650Z VRB01KT CAVOK M14/M16 Q1019;",
"01470399999","2010-12-10T07:50:00","4","59.565683","9.212222","19.2","NOTODDEN, NO","FM-15","ENNO ","V020","999,9,V,0005,1","02250,5,C,N","011265,1,N,1","-0130,1","-0150,1","99999,9","02,5,+01470,1,99,9","07,5,+02250,5,99,9",,"07,99,1,99,9,99,9,99999,9,99,9,99,9",,"10190,1,99999,9",,,,,"MET060METAR ENNO 100750Z VRB01KT 9999 FEW049 BKN075 M13/M15 Q1019;",
"01470399999","2010-12-10T08:50:00","4","59.565683","9.212222","19.2","NOTODDEN, NO","FM-15","ENNO ","V020","999,9,V,0010,1","01350,1,C,N","011265,1,N,1","-0120,1","-0130,1","99999,9","02,5,+00900,1,99,9","04,5,+01350,1,99,9","07,5,+01500,1,99,9","07,99,1,99,9,99,9,99999,9,99,9,99,9",,"10190,1,99999,9","16,1",,,,"MET072METAR ENNO 100850Z VRB02KT 9999 VCSH FEW030 SCT045 BKN050 M12/M13 Q1019;",
"01470399999","2010-12-10T09:50:00","4","59.565683","9.212222","19.2","NOTODDEN, NO","FM-15","ENNO ","V020","999,9,V,0010,1","00900,1,C,N","011265,1,N,1","-0110,2","-0120,1","99999,9","07,5,+00900,1,99,9",,,"07,99,1,99,9,99,9,99999,9,99,9,99,9",,"10180,1,99999,9","71,1",,,,"MET058METAR ENNO 100950Z VRB02KT 9999 -SN BKN030 M112/M12 Q1018;",
"01470399999","2010-12-10T10:50:00","4","59.565683","9.212222","19.2","NOTODDEN, NO","FM-15","ENNO ","V020","280,1,N,0021,1","99999,9,9,Y","009900,1,N,1","-0100,1","-0110,1","99999,9",,,,,,"10159,1,99999,9",,,,,"MET047METAR ENNO 101050Z 28004KT CAVOK M10/M11 Q1016;",
"01470399999","2010-12-10T11:50:00","4","59.565683","9.212222","19.2","NOTODDEN, NO","FM-15","ENNO ","V020","999,9,C,0000,1","02010,5,C,N","011265,1,N,1","-0090,1","-0100,1","99999,9","07,5,+02010,5,99,9",,,"07,99,1,99,9,99,9,99999,9,99,9,99,9",,"10149,1,99999,9",,,,,"MET053METAR ENNO 101150Z 00000KT 9999 BKN067 M09/M10 Q1015;",
"01470399999","2010-12-10T12:50:00","4","59.565683","9.212222","19.2","NOTODDEN, NO","FM-15","ENNO ","V020","999,9,V,0005,1","03000,1,C,N","011265,1,N,1","-0090,1","-0110,1","99999,9","04,5,+02100,1,99,9","07,5,+03000,1,99,9",,"07,99,1,99,9,99,9,99999,9,99,9,99,9",,"10139,1,99999,9",,,,,"MET060METAR ENNO 101250Z VRB01KT 9999 SCT070 BKN100 M09/M11 Q1014;",
"01470399999","2010-12-10T13:50:00","4","59.565683","9.212222","19.2","NOTODDEN, NO","FM-15","ENNO ","V020","999,9,V,0010,1","99999,9,9,Y","009900,1,N,1","-0110,1","-0120,1","99999,9",,,,,,"10129,1,99999,9",,,,,"MET047METAR ENNO 101350Z VRB02KT CAVOK M11/M12 Q1013;",
"01470399999","2010-12-10T14:50:00","4","59.565683","9.212222","19.2","NOTODDEN, NO","FM-15","ENNO ","V020","999,9,V,0005,1","99999,9,9,Y","009900,1,N,1","-0100,1","-0110,1","99999,9",,,,,,"10119,1,99999,9",,,,,"MET047METAR ENNO 101450Z VRB01KT CAVOK M10/M11 Q1012;",
"01470399999","2010-12-10T15:50:00","4","59.565683","9.212222","19.2","NOTODDEN, NO","FM-15","ENNO ","V020","999,9,V,0005,1","99999,9,9,Y","009900,1,N,1","-0090,1","-0100,1","99999,9",,,,,,"10102,1,99999,9",,,,,"MET047METAR ENNO 101550Z VRB01KT CAVOK M09/M10 Q1010;",
"01470399999","2010-12-10T16:50:00","4","59.565683","9.212222","19.2","NOTODDEN, NO","FM-15","ENNO ","V020","999,9,V,0010,1","99999,9,9,Y","009900,1,N,1","-0100,1","-0120,1","99999,9",,,,,,"10091,1,99999,9",,,,,"MET047METAR ENNO 101650Z VRB02KT CAVOK M10/M12 Q1009;",
"01470399999","2010-12-11T08:20:00","4","59.565683","9.212222","19.2","NOTODDEN, NO","FM-15","ENNO ","V020","340,1,N,0015,1","99999,9,9,Y","009900,1,N,1","-0080,1","-0090,1","99999,9",,,,,,"09939,1,99999,9",,,,,"MET055METAR ENNO 110820Z 34003KT 280V070 CAVOK M08/M09 Q0994;",
"01470399999","2010-12-11T09:20:00","4","59.565683","9.212222","19.2","NOTODDEN, NO","FM-15","ENNO ","V020","999,9,V,0010,1","99999,9,9,Y","009900,1,N,1","-0070,1","-0070,1","99999,9",,,,,,"09949,1,99999,9",,,,,"MET047METAR ENNO 110920Z VRB02KT CAVOK M07/M07 Q0995;",
"01470399999","2010-12-12T13:20:00","4","59.565683","9.212222","19.2","NOTODDEN, NO","FM-15","ENNO ","V020","999,9,V,0010,1","99999,9,9,Y","009900,1,N,1","-0110,1","-0120,1","99999,9",,,,,,"10220,1,99999,9",,,,,"MET047METAR ENNO 121320Z VRB02KT CAVOK M11/M12 Q1022;",
"01470399999","2010-12-12T14:20:00","4","59.565683","9.212222","19.2","NOTODDEN, NO","FM-15","ENNO ","V020","290,1,N,0010,1","99999,9,9,Y","009900,1,N,1","-0120,1","-0130,1","99999,9",,,,,,"10220,1,99999,9",,,,,"MET047METAR ENNO 121420Z 29002KT CAVOK M12/M13 Q1022;",
"01470399999","2010-12-12T14:50:00","4","59.565683","9.212222","19.2","NOTODDEN, NO","FM-15","ENNO ","V020","290,1,N,0015,1","99999,9,9,Y","009900,1,N,1","-0120,1","-0140,1","99999,9",,,,,,"10230,1,99999,9",,,,,"MET047METAR ENNO 121450Z 29003KT CAVOK M12/M14 Q1023;",
"01470399999","2010-12-12T15:50:00","4","59.565683","9.212222","19.2","NOTODDEN, NO","FM-15","ENNO ","V020","300,1,N,0010,1","99999,9,9,Y","009900,1,N,1","-0130,1","-0140,1","99999,9",,,,,,"10230,1,99999,9",,,,,"MET047METAR ENNO 121550Z 30002KT CAVOK M13/M14 Q1023;",
"01470399999","2010-12-12T16:50:00","4","59.565683","9.212222","19.2","NOTODDEN, NO","FM-15","ENNO ","V020","999,9,V,0005,1","99999,9,9,Y","009900,1,N,1","-0130,1","-0140,1","99999,9",,,,,,"10230,1,99999,9",,,,,"MET047METAR ENNO 121650Z VRB01KT CAVOK M13/M14 Q1023;",
"01470399999","2010-12-12T17:50:00","4","59.565683","9.212222","19.2","NOTODDEN, NO","FM-15","ENNO ","V020","999,9,V,0010,1","99999,9,9,Y","009900,1,N,1","-0130,1","-0140,1","99999,9",,,,,,"10230,1,99999,9",,,,,"MET047METAR ENNO 121750Z VRB02KT CAVOK M13/M14 Q1023;",
"01470399999","2010-12-12T18:50:00","4","59.565683","9.212222","19.2","NOTODDEN, NO","FM-15","ENNO ","V020","280,1,N,0010,1","99999,9,9,Y","009900,1,N,1","-0140,1","-0150,1","99999,9",,,,,,"10230,1,99999,9",,,,,"MET047METAR ENNO 121850Z 28002KT CAVOK M14/M15 Q1023;",
"01470399999","2010-12-13T03:50:00","4","59.565683","9.212222","19.2","NOTODDEN, NO","FM-15","ENNO ","V020","280,1,N,0015,1","01200,1,C,N","011265,1,N,1","-0110,1","-0120,1","99999,9","07,5,+01200,1,99,9",,,"07,99,1,99,9,99,9,99999,9,99,9,99,9",,"10240,1,99999,9",,,,,"MET053METAR ENNO 130350Z 28003KT 9999 BKN040 M11/M12 Q1024;",
"01470399999","2010-12-13T04:50:00","4","59.565683","9.212222","19.2","NOTODDEN, NO","FM-15","ENNO ","V020","999,9,V,0010,1","01200,1,C,N","011265,1,N,1","-0100,1","-0110,1","99999,9","07,5,+01200,1,99,9",,,"07,99,1,99,9,99,9,99999,9,99,9,99,9",,"10240,1,99999,9",,,,,"MET053METAR ENNO 130450Z VRB02KT 9999 BKN040 M10/M11 Q1024;",
"01470399999","2010-12-13T05:50:00","4","59.565683","9.212222","19.2","NOTODDEN, NO","FM-15","ENNO ","V020","999,9,V,0005,1","01350,1,C,N","011265,1,N,1","-0100,1","-0110,1","99999,9","07,5,+01350,1,99,9",,,"07,99,1,99,9,99,9,99999,9,99,9,99,9",,"10251,1,99999,9",,,,,"MET053METAR ENNO 130550Z VRB01KT 9999 BKN045 M10/M11 Q1025;",
"01470399999","2010-12-13T06:50:00","4","59.565683","9.212222","19.2","NOTODDEN, NO","FM-15","ENNO ","V020","999,9,V,0010,1","00900,1,C,N","011265,1,N,1","-0090,1","-0100,1","99999,9","07,5,+00900,1,99,9",,,"07,99,1,99,9,99,9,99999,9,99,9,99,9",,"10251,1,99999,9",,,,,"MET053METAR ENNO 130650Z VRB02KT 9999 BKN030 M09/M10 Q1025;",
"01470399999","2010-12-13T07:50:00","4","59.565683","9.212222","19.2","NOTODDEN, NO","FM-15","ENNO ","V020","999,9,V,0005,1","00900,1,C,N","011265,1,N,1","-0080,1","-0090,1","99999,9","07,5,+00900,1,99,9",,,"07,99,1,99,9,99,9,99999,9,99,9,99,9",,"10271,1,99999,9",,,,,"MET053METAR ENNO 130750Z VRB01KT 9999 BKN030 M08/M09 Q1027;",
"01470399999","2010-12-13T08:50:00","4","59.565683","9.212222","19.2","NOTODDEN, NO","FM-15","ENNO ","V020","999,9,V,0010,1","00900,1,C,N","011265,1,N,1","-0080,1","-0100,1","99999,9","07,5,+00900,1,99,9",,,"07,99,1,99,9,99,9,99999,9,99,9,99,9",,"10271,1,99999,9",,,,,"MET053METAR ENNO 130850Z VRB02KT 9999 BKN030 M08/M10 Q1027;",
"01470399999","2010-12-13T09:50:00","4","59.565683","9.212222","19.2","NOTODDEN, NO","FM-15","ENNO ","V020","280,1,N,0015,1","01110,1,C,N","011265,1,N,1","-0080,1","-0090,1","99999,9","07,5,+01110,1,99,9",,,"07,99,1,99,9,99,9,99999,9,99,9,99,9",,"10281,1,99999,9",,,,,"MET053METAR ENNO 130950Z 28003KT 9999 BKN037 M08/M09 Q1028;",
"01470399999","2010-12-13T11:50:00","4","59.565683","9.212222","19.2","NOTODDEN, NO","FM-15","ENNO ","V020","999,9,C,0000,1","22000,1,9,N","011265,1,N,1","-0050,1","-0070,1","99999,9","04,5,+01200,1,99,9",,,"04,99,1,99,9,99,9,99999,9,99,9,99,9",,"10291,1,99999,9",,,,,"MET053METAR ENNO 131150Z 00000KT 9999 SCT040 M05/M07 Q1029;",
"01470399999","2010-12-13T12:50:00","4","59.565683","9.212222","19.2","NOTODDEN, NO","FM-15","ENNO ","V020","999,9,V,0005,1","22000,1,9,N","011265,1,N,1","-0080,1","-0090,1","99999,9","04,5,+01500,1,99,9",,,"04,99,1,99,9,99,9,99999,9,99,9,99,9",,"10291,1,99999,9",,,,,"MET053METAR ENNO 131250Z VRB01KT 9999 SCT050 M08/M09 Q1029;",
"01470399999","2010-12-13T13:50:00","4","59.565683","9.212222","19.2","NOTODDEN, NO","FM-15","ENNO ","V020","999,9,V,0005,1","22000,1,9,N","011265,1,N,1","-0090,1","-0100,1","99999,9","04,5,+01500,1,99,9",,,"04,99,1,99,9,99,9,99999,9,99,9,99,9",,"10291,1,99999,9",,,,,"MET053METAR ENNO 131350Z VRB01KT 9999 SCT050 M09/M10 Q1029;",
"01470399999","2010-12-13T15:50:00","4","59.565683","9.212222","19.2","NOTODDEN, NO","FM-15","ENNO ","V020","999,9,V,0005,1","22000,1,9,N","011265,1,N,1","-0100,1","-0110,1","99999,9","04,5,+01500,1,99,9",,,"04,99,1,99,9,99,9,99999,9,99,9,99,9",,"10301,1,99999,9",,,,,"MET053METAR ENNO 131550Z VRB01KT 9999 SCT050 M10/M11 Q1030;",
"01470399999","2010-12-14T08:50:00","4","59.565683","9.212222","19.2","NOTODDEN, NO","FM-15","ENNO ","V020","999,9,V,0010,1","02400,1,C,N","011265,1,N,1","-0130,1","-0140,1","99999,9","02,5,+01650,5,99,9","07,5,+02400,1,99,9",,"07,99,1,99,9,99,9,99999,9,99,9,99,9",,"10329,1,99999,9","71,1",,,,"MET064METAR ENNO 140850Z VRB02KT 9999 -SN FEW055 BKN080 M13/M14 Q1033;",
"01470399999","2010-12-14T09:50:00","4","59.565683","9.212222","19.2","NOTODDEN, NO","FM-15","ENNO ","V020","999,9,V,0010,1","02400,1,C,N","011265,1,N,1","-0110,1","-0120,1","99999,9","02,5,+01650,5,99,9","07,5,+02400,1,99,9",,"07,99,1,99,9,99,9,99999,9,99,9,99,9",,"10329,1,99999,9",,,,,"MET060METAR ENNO 140950Z VRB02KT 9999 FEW055 BKN080 M11/M12 Q1033;",
"01470399999","2010-12-14T10:50:00","4","59.565683","9.212222","19.2","NOTODDEN, NO","FM-15","ENNO ","V020","999,9,V,0005,1","99999,9,9,Y","009900,1,N,1","-0100,1","-0110,1","99999,9",,,,,,"10329,1,99999,9",,,,,"MET047METAR ENNO 141050Z VRB01KT CAVOK M10/M11 Q1033;",
"01470399999","2010-12-14T11:50:00","4","59.565683","9.212222","19.2","NOTODDEN, NO","FM-15","ENNO ","V020","290,1,N,0021,1","02850,5,C,N","011265,1,N,1","-0100,1","-0110,1","99999,9","02,5,+01800,1,99,9","07,5,+02850,5,99,9",,"07,99,1,99,9,99,9,99999,9,99,9,99,9",,"10329,1,99999,9",,,,,"MET060METAR ENNO 141150Z 29004KT 9999 FEW060 BKN095 M10/M11 Q1033;",
"01470399999","2010-12-14T12:50:00","4","59.565683","9.212222","19.2","NOTODDEN, NO","FM-15","ENNO ","V020","270,1,N,0015,1","01500,1,C,N","011265,1,N,1","-0080,1","-0090,1","99999,9","07,5,+01500,1,99,9",,,"07,99,1,99,9,99,9,99999,9,99,9,99,9",,"10318,1,99999,9",,,,,"MET053METAR ENNO 141250Z 27003KT 9999 BKN050 M08/M09 Q1032;",
"01470399999","2010-12-14T13:50:00","4","59.565683","9.212222","19.2","NOTODDEN, NO","FM-15","ENNO ","V020","999,9,V,0005,1","02700,1,C,N","011265,1,N,1","-0080,1","-0090,1","99999,9","02,5,+01500,1,99,9","07,5,+02700,1,99,9",,"07,99,1,99,9,99,9,99999,9,99,9,99,9",,"10318,1,99999,9",,,,,"MET060METAR ENNO 141350Z VRB01KT 9999 FEW050 BKN090 M08/M09 Q1032;",
"01470399999","2010-12-14T14:50:00","4","59.565683","9.212222","19.2","NOTODDEN, NO","FM-15","ENNO ","V020","300,1,N,0015,1","02550,5,C,N","011265,1,N,1","-0080,1","-0090,1","99999,9","02,5,+01500,1,99,9","07,5,+02550,5,99,9",,"07,99,1,99,9,99,9,99999,9,99,9,99,9",,"10318,1,99999,9",,,,,"MET060METAR ENNO 141450Z 30003KT 9999 FEW050 BKN085 M08/M09 Q1032;",
"01470399999","2010-12-14T15:50:00","4","59.565683","9.212222","19.2","NOTODDEN, NO","FM-15","ENNO ","V020","240,1,N,0010,1","02400,1,C,N","011265,1,N,1","-0100,1","-0110,1","99999,9","07,5,+02400,1,99,9",,,"07,99,1,99,9,99,9,99999,9,99,9,99,9",,"10318,1,99999,9",,,,,"MET053METAR ENNO 141550Z 24002KT 9999 BKN080 M10/M11 Q1032;",
"01470399999","2010-12-14T16:50:00","4","59.565683","9.212222","19.2","NOTODDEN, NO","FM-15","ENNO ","V020","999,9,C,0000,1","02100,1,C,N","011265,1,N,1","-0100,1","-0110,1","99999,9","08,5,+02100,1,99,9",,,"08,99,1,99,9,99,9,99999,9,99,9,99,9",,"10329,1,99999,9",,,,,"MET053METAR ENNO 141650Z 00000KT 9999 OVC070 M10/M11 Q1033;",
"01470399999","2010-12-15T05:50:00","4","59.565683","9.212222","19.2","NOTODDEN, NO","FM-15","ENNO ","V020","290,1,N,0010,1","99999,9,9,Y","009900,1,N,1","-0140,1","-0150,1","99999,9",,,,,,"10318,1,99999,9",,,,,"MET047METAR ENNO 150550Z 29002KT CAVOK M14/M15 Q1032;",
"01470399999","2010-12-15T06:50:00","4","59.565683","9.212222","19.2","NOTODDEN, NO","FM-15","ENNO ","V020","999,9,V,0005,1","99999,9,9,Y","009900,1,N,1","-0140,1","-0160,1","99999,9",,,,,,"10318,1,99999,9",,,,,"MET047METAR ENNO 150650Z VRB01KT CAVOK M14/M16 Q1032;",
"01470399999","2010-12-15T07:50:00","4","59.565683","9.212222","19.2","NOTODDEN, NO","FM-15","ENNO ","V020","999,9,V,0005,1","99999,9,9,Y","009900,1,N,1","-0150,1","-0160,1","99999,9",,,,,,"10312,1,99999,9",,,,,"MET047METAR ENNO 150750Z VRB01KT CAVOK M15/M16 Q1031;",
"01470399999","2010-12-15T08:50:00","4","59.565683","9.212222","19.2","NOTODDEN, NO","FM-15","ENNO ","V020","999,9,V,0005,1","99999,9,9,Y","009900,1,N,1","-0150,1","-0160,1","99999,9",,,,,,"10312,1,99999,9",,,,,"MET047METAR ENNO 150850Z VRB01KT CAVOK M15/M16 Q1031;",
"01470399999","2010-12-15T09:50:00","4","59.565683","9.212222","19.2","NOTODDEN, NO","FM-15","ENNO ","V020","999,9,C,0000,1","99999,9,9,Y","009900,1,N,1","-0150,1","-0160,1","99999,9",,,,,,"10312,1,99999,9",,,,,"MET047METAR ENNO 150950Z 00000KT CAVOK M15/M16 Q1031;",
"01470399999","2010-12-15T10:50:00","4","59.565683","9.212222","19.2","NOTODDEN, NO","FM-15","ENNO ","V020","999,9,V,0005,1","99999,9,9,Y","009900,1,N,1","-0120,1","-0130,1","99999,9",,,,,,"10291,1,99999,9",,,,,"MET047METAR ENNO 151050Z VRB01KT CAVOK M12/M13 Q1029;",
"01470399999","2010-12-15T11:50:00","4","59.565683","9.212222","19.2","NOTODDEN, NO","FM-15","ENNO ","V020","270,1,N,0015,1","99999,9,9,Y","009900,1,N,1","-0110,1","-0120,1","99999,9",,,,,,"10281,1,99999,9",,,,,"MET047METAR ENNO 151150Z 27003KT CAVOK M11/M12 Q1028;",
"01470399999","2010-12-15T12:50:00","4","59.565683","9.212222","19.2","NOTODDEN, NO","FM-15","ENNO ","V020","999,9,V,0005,1","99999,9,9,Y","009900,1,N,1","-0120,1","-0130,1","99999,9",,,,,,"10261,1,99999,9",,,,,"MET047METAR ENNO 151250Z VRB01KT CAVOK M12/M13 Q1026;",
"01470399999","2010-12-15T14:50:00","4","59.565683","9.212222","19.2","NOTODDEN, NO","FM-15","ENNO ","V020","999,9,V,0010,1","99999,9,9,Y","009900,1,N,1","-0120,1","-0140,1","99999,9",,,,,,"10230,1,99999,9",,,,,"MET047METAR ENNO 151450Z VRB02KT CAVOK M12/M14 Q1023;",
"01470399999","2010-12-15T15:50:00","4","59.565683","9.212222","19.2","NOTODDEN, NO","FM-15","ENNO ","V020","999,9,C,0000,1","99999,9,9,Y","009900,1,N,1","-0120,1","-0140,1","99999,9",,,,,,"10210,1,99999,9",,,,,"MET047METAR ENNO 151550Z 00000KT CAVOK M12/M14 Q1021;",
"01470399999","2010-12-15T16:50:00","4","59.565683","9.212222","19.2","NOTODDEN, NO","FM-15","ENNO ","V020","999,9,C,0000,1","99999,9,9,Y","009900,1,N,1","-0120,1","-0130,1","99999,9",,,,,,"10200,1,99999,9",,,,,"MET047METAR ENNO 151650Z 00000KT CAVOK M12/M13 Q1020;",
"01470399999","2010-12-16T05:50:00","4","59.565683","9.212222","19.2","NOTODDEN, NO","FM-15","ENNO ","V020","999,9,V,0010,1","00360,1,C,N","011265,1,N,1","-0080,1","-0090,1","99999,9","08,5,+00360,1,99,9",,,"08,99,1,99,9,99,9,99999,9,99,9,99,9",,"09882,1,99999,9",,,,,"MET058METAR ENNO 160550Z VRB02KT 9999 OVC012 M08/M09 Q0988 RESN;",
"01470399999","2010-12-16T06:50:00","4","59.565683","9.212222","19.2","NOTODDEN, NO","FM-15","ENNO ","V020","310,1,N,0015,1","00360,1,C,N","011265,1,N,1","-0090,1","-0100,1","99999,9","07,5,+00360,1,99,9",,,"07,99,1,99,9,99,9,99999,9,99,9,99,9",,"09871,1,99999,9",,,,,"MET053METAR ENNO 160650Z 31003KT 9999 BKN012 M09/M10 Q0987;",
"01470399999","2010-12-16T07:50:00","4","59.565683","9.212222","19.2","NOTODDEN, NO","FM-15","ENNO ","V020","999,9,V,0010,1","01500,1,C,N","011265,1,N,1","-0080,1","-0090,1","99999,9","02,5,+00360,1,99,9","07,5,+01500,1,99,9",,"07,99,1,99,9,99,9,99999,9,99,9,99,9",,"09871,1,99999,9",,,,,"MET060METAR ENNO 160750Z VRB02KT 9999 FEW012 BKN050 M08/M09 Q0987;",
"01470399999","2010-12-16T08:50:00","4","59.565683","9.212222","19.2","NOTODDEN, NO","FM-15","ENNO ","V020","999,9,V,0005,1","99999,9,C,N","011265,1,N,1","-0100,1","-0120,1","99999,9","02,5,+00360,1,99,9","04,5,+01500,1,99,9",,"04,99,1,99,9,99,9,99999,9,99,9,99,9",,"09871,1,99999,9",,,,,"MET060METAR ENNO 160850Z VRB01KT 9999 FEW012 SCT050 M10/M12 Q0987;","P01 015003SCOCIG"
"01470399999","2010-12-16T09:50:00","4","59.565683","9.212222","19.2","NOTODDEN, NO","FM-15","ENNO ","V020","999,9,V,0010,1","01500,1,C,N","011265,1,N,1","-0090,1","-0100,1","99999,9","02,5,+00420,1,99,9","07,5,+01500,1,99,9",,"07,99,1,99,9,99,9,99999,9,99,9,99,9",,"09871,1,99999,9","16,1",,,,"MET065METAR ENNO 160950Z VRB02KT 9999 VCSH FEW014 BKN050 M09/M10 Q0987;",
"01470399999","2010-12-16T10:50:00","4","59.565683","9.212222","19.2","NOTODDEN, NO","FM-15","ENNO ","V020","999,9,V,0010,1","00210,1,9,N","001000,1,N,1","-0080,1","-0090,1","99999,9","09,1,+00210,1,99,9",,,"09,99,1,99,9,99,9,00025,1,99,9,99,9",,"09882,1,99999,9","73,1",,,,"MET055METAR ENNO 161050Z VRB02KT 1000 SN VV007 M08/M09 Q0988;",
"01470399999","2010-12-16T11:50:00","4","59.565683","9.212222","19.2","NOTODDEN, NO","FM-15","ENNO ","V020","999,9,V,0005,1","00690,1,9,N","009000,1,N,1","-0070,1","-0080,1","99999,9","09,1,+00690,1,99,9",,,"09,99,1,99,9,99,9,00025,1,99,9,99,9",,"09871,1,99999,9","71,1",,,,"MET056METAR ENNO 161150Z VRB01KT 9000 -SN VV023 M07/M08 Q0987;",
"01470399999","2010-12-16T13:20:00","4","59.565683","9.212222","19.2","NOTODDEN, NO","FM-15","ENNO ","V020","999,9,V,0005,1","00900,1,C,N","011265,1,N,1","-0050,1","-0060,1","99999,9","07,5,+00900,1,99,9",,,"07,99,1,99,9,99,9,99999,9,99,9,99,9",,"09871,1,99999,9",,,,,"MET053METAR ENNO 161320Z VRB01KT 9999 BKN030 M05/M06 Q0987;",
"01470399999","2010-12-16T13:50:00","4","59.565683","9.212222","19.2","NOTODDEN, NO","FM-15","ENNO ","V020","160,1,N,0010,1","01200,1,C,N","011265,1,N,1","-0050,1","-0060,1","99999,9","07,5,+01200,1,99,9",,,"07,99,1,99,9,99,9,99999,9,99,9,99,9",,"09861,1,99999,9","16,1",,,,"MET058METAR ENNO 161350Z 16002KT 9999 VCSH BKN040 M05/M06 Q0986;",
"01470399999","2010-12-16T14:50:00","4","59.565683","9.212222","19.2","NOTODDEN, NO","FM-15","ENNO ","V020","999,9,C,0000,1","22000,1,9,N","011265,1,N,1","-0070,1","-0080,1","99999,9","04,5,+01500,1,99,9",,,"04,99,1,99,9,99,9,99999,9,99,9,99,9",,"09861,1,99999,9",,,,,"MET053METAR ENNO 161450Z 00000KT 9999 SCT050 M07/M08 Q0986;",
"01470399999","2010-12-16T15:50:00","4","59.565683","9.212222","19.2","NOTODDEN, NO","FM-15","ENNO ","V020","999,9,V,0005,1","99999,9,9,Y","009900,1,N,1","-0100,1","-0100,1","99999,9",,,,,,"09861,1,99999,9",,,,,"MET047METAR ENNO 161550Z VRB01KT CAVOK M10/M10 Q0986;",
"01470399999","2010-12-16T16:50:00","4","59.565683","9.212222","19.2","NOTODDEN, NO","FM-15","ENNO ","V020","999,9,V,0005,1","99999,9,9,Y","009900,1,N,1","-0120,1","-0130,1","99999,9",,,,,,"09861,1,99999,9",,,,,"MET047METAR ENNO 161650Z VRB01KT CAVOK M12/M13 Q0986;",
"01470399999","2010-12-17T05:50:00","4","59.565683","9.212222","19.2","NOTODDEN, NO","FM-15","ENNO ","V020","999,9,V,0005,1","99999,9,9,Y","009900,1,N,1","-0220,1","-0250,1","99999,9",,,,,,"09939,1,99999,9",,,,,"MET047METAR ENNO 170550Z VRB01KT CAVOK M22/M25 Q0994;",
"01470399999","2010-12-17T06:50:00","4","59.565683","9.212222","19.2","NOTODDEN, NO","FM-15","ENNO ","V020","300,1,N,0010,1","99999,9,9,Y","009900,1,N,1","-0220,1","-0240,1","99999,9",,,,,,"09949,1,99999,9",,,,,"MET047METAR ENNO 170650Z 30002KT CAVOK M22/M24 Q0995;",
"01470399999","2010-12-17T07:50:00","4","59.565683","9.212222","19.2","NOTODDEN, NO","FM-15","ENNO ","V020","290,1,N,0015,1","99999,9,9,Y","009900,1,N,1","-0220,1","-0240,1","99999,9",,,,,,"09959,1,99999,9",,,,,"MET047METAR ENNO 170750Z 29003KT CAVOK M22/M24 Q0996;",
"01470399999","2010-12-17T08:50:00","4","59.565683","9.212222","19.2","NOTODDEN, NO","FM-15","ENNO ","V020","999,9,V,0005,1","99999,9,9,Y","009900,1,N,1","-0220,1","-0240,1","99999,9",,,,,,"09970,1,99999,9",,,,,"MET047METAR ENNO 170850Z VRB01KT CAVOK M22/M24 Q0997;",
"01470399999","2010-12-17T09:50:00","4","59.565683","9.212222","19.2","NOTODDEN, NO","FM-15","ENNO ","V020","270,1,N,0010,1","99999,9,9,Y","009900,1,N,1","-0220,1","-0240,1","99999,9",,,,,,"09980,1,99999,9",,,,,"MET047METAR ENNO 170950Z 27002KT CAVOK M22/M24 Q0998;",
"01470399999","2010-12-17T10:50:00","4","59.565683","9.212222","19.2","NOTODDEN, NO","FM-15","ENNO ","V020","999,9,V,0005,1","99999,9,9,Y","009900,1,N,1","-0190,1","-0210,1","99999,9",,,,,,"09990,1,99999,9",,,,,"MET047METAR ENNO 171050Z VRB01KT CAVOK M19/M21 Q0999;",
"01470399999","2010-12-17T11:50:00","4","59.565683","9.212222","19.2","NOTODDEN, NO","FM-15","ENNO ","V020","290,1,N,0010,1","22000,1,9,N","011265,1,N,1","-0180,1","-0190,1","99999,9","04,5,+00750,1,99,9",,,"04,99,1,99,9,99,9,99999,9,99,9,99,9",,"09990,1,99999,9",,,,,"MET053METAR ENNO 171150Z 29002KT 9999 SCT025 M18/M19 Q0999;",
"01470399999","2010-12-17T12:50:00","4","59.565683","9.212222","19.2","NOTODDEN, NO","FM-15","ENNO ","V020","999,9,V,0010,1","22000,1,9,N","011265,1,N,1","-0170,1","-0190,1","99999,9","04,5,+00750,1,99,9",,,"04,99,1,99,9,99,9,99999,9,99,9,99,9",,"10000,1,99999,9",,,,,"MET053METAR ENNO 171250Z VRB02KT 9999 SCT025 M17/M19 Q1000;",
"01470399999","2010-12-17T13:50:00","4","59.565683","9.212222","19.2","NOTODDEN, NO","FM-15","ENNO ","V020","999,9,V,0005,1","00810,1,C,N","011265,1,N,1","-0160,1","-0180,1","99999,9","07,5,+00810,1,99,9",,,"07,99,1,99,9,99,9,99999,9,99,9,99,9",,"10010,1,99999,9",,,,,"MET053METAR ENNO 171350Z VRB01KT 9999 BKN027 M16/M18 Q1001;",
"01470399999","2010-12-17T14:50:00","4","59.565683","9.212222","19.2","NOTODDEN, NO","FM-15","ENNO ","V020","999,9,V,0010,1","00780,1,C,N","011265,1,N,1","-0150,1","-0160,1","99999,9","07,5,+00780,1,99,9",,,"07,99,1,99,9,99,9,99999,9,99,9,99,9",,"10020,1,99999,9",,,,,"MET053METAR ENNO 171450Z VRB02KT 9999 BKN026 M15/M16 Q1002;",
"01470399999","2010-12-17T15:50:00","4","59.565683","9.212222","19.2","NOTODDEN, NO","FM-15","ENNO ","V020","999,9,V,0010,1","00780,1,C,N","011265,1,N,1","-0140,1","-0160,1","99999,9","07,5,+00780,1,99,9",,,"07,99,1,99,9,99,9,99999,9,99,9,99,9",,"10020,1,99999,9",,,,,"MET053METAR ENNO 171550Z VRB02KT 9999 BKN026 M14/M16 Q1002;",
"01470399999","2010-12-19T17:20:00","4","59.565683","9.212222","19.2","NOTODDEN, NO","FM-15","ENNO ","V020","290,1,N,0036,1","99999,9,9,Y","009900,1,N,1","-0070,1","-0120,1","99999,9",,,,,,"10051,1,99999,9",,,,,"MET055METAR ENNO 191720Z 29007KT 260V330 CAVOK M07/M12 Q1005;",
"01470399999","2010-12-19T17:50:00","4","59.565683","9.212222","19.2","NOTODDEN, NO","FM-15","ENNO ","V020","310,1,N,0031,1","99999,9,9,Y","009900,1,N,1","-0070,1","-0120,1","99999,9",,,,,,"10051,1,99999,9",,,,,"MET055METAR ENNO 191750Z 31006KT 240V050 CAVOK M07/M12 Q1005;",
"01470399999","2010-12-19T18:50:00","4","59.565683","9.212222","19.2","NOTODDEN, NO","FM-15","ENNO ","V020","280,1,N,0031,1","22000,1,9,N","011265,1,N,1","-0080,1","-0130,1","99999,9","04,5,+01500,1,99,9",,,"04,99,1,99,9,99,9,99999,9,99,9,99,9",,"10041,1,99999,9",,,,,"MET061METAR ENNO 191850Z 28006KT 240V300 9999 SCT050 M08/M13 Q1004;",
"01470399999","2010-12-20T05:50:00","4","59.565683","9.212222","19.2","NOTODDEN, NO","FM-15","ENNO ","V020","290,1,N,0026,1","01050,1,C,N","011265,1,N,1","-0090,1","-0140,1","99999,9","02,5,+00600,1,99,9","07,5,+01050,1,99,9",,"07,99,1,99,9,99,9,99999,9,99,9,99,9",,"10031,1,99999,9",,,,,"MET060METAR ENNO 200550Z 29005KT 9999 FEW020 BKN035 M09/M14 Q1003;",
"01470399999","2010-12-20T06:50:00","4","59.565683","9.212222","19.2","NOTODDEN, NO","FM-15","ENNO ","V020","320,1,N,0015,1","01200,1,C,N","011265,1,N,1","-0090,1","-0140,1","99999,9","02,5,+00600,1,99,9","07,5,+01200,1,99,9",,"07,99,1,99,9,99,9,99999,9,99,9,99,9",,"10041,1,99999,9",,,,,"MET068METAR ENNO 200650Z 32003KT 280V020 9999 FEW020 BKN040 M09/M14 Q1004;",
"01470399999","2010-12-20T07:50:00","4","59.565683","9.212222","19.2","NOTODDEN, NO","FM-15","ENNO ","V020","310,1,N,0015,1","01200,1,C,N","011265,1,N,1","-0090,1","-0130,1","99999,9","07,5,+01200,1,99,9",,,"07,99,1,99,9,99,9,99999,9,99,9,99,9",,"10041,1,99999,9",,,,,"MET061METAR ENNO 200750Z 31003KT 250V030 9999 BKN040 M09/M13 Q1004;",
"01470399999","2010-12-20T08:50:00","4","59.565683","9.212222","19.2","NOTODDEN, NO","FM-15","ENNO ","V020","999,9,V,0010,1","01200,1,C,N","011265,1,N,1","-0080,1","-0130,1","99999,9","07,5,+01200,1,99,9",,,"07,99,1,99,9,99,9,99999,9,99,9,99,9",,"10041,1,99999,9",,,,,"MET053METAR ENNO 200850Z VRB02KT 9999 BKN040 M08/M13 Q1004;",
"01470399999","2010-12-20T09:50:00","4","59.565683","9.212222","19.2","NOTODDEN, NO","FM-15","ENNO ","V020","999,9,V,0005,1","22000,1,9,N","011265,1,N,1","-0100,1","-0130,1","99999,9","04,5,+01200,1,99,9",,,"04,99,1,99,9,99,9,99999,9,99,9,99,9",,"10041,1,99999,9",,,,,"MET053METAR ENNO 200950Z VRB01KT 9999 SCT040 M10/M13 Q1004;",
"01470399999","2010-12-20T10:50:00","4","59.565683","9.212222","19.2","NOTODDEN, NO","FM-15","ENNO ","V020","290,1,N,0015,1","00960,1,C,N","011265,1,N,1","-0100,1","-0130,1","99999,9","04,5,+00750,1,99,9","07,5,+00960,1,99,9",,"07,99,1,99,9,99,9,99999,9,99,9,99,9",,"10041,1,99999,9","16,1",,,,"MET065METAR ENNO 201050Z 29003KT 9999 VCSH SCT025 BKN032 M10/M13 Q1004;",
"01470399999","2010-12-20T11:50:00","4","59.565683","9.212222","19.2","NOTODDEN, NO","FM-15","ENNO ","V020","999,9,V,0010,1","01140,1,C,N","011265,1,N,1","-0080,1","-0120,1","99999,9","04,5,+00690,1,99,9","07,5,+01140,1,99,9",,"07,99,1,99,9,99,9,99999,9,99,9,99,9",,"10041,1,99999,9","16,1",,,,"MET065METAR ENNO 201150Z VRB02KT 9999 VCSH SCT023 BKN038 M08/M12 Q1004;",
"01470399999","2010-12-20T12:50:00","4","59.565683","9.212222","19.2","NOTODDEN, NO","FM-15","ENNO ","V020","999,9,V,0005,1","99999,9,9,Y","009900,1,N,1","-0090,1","-0120,1","99999,9",,,,,,"10041,1,99999,9",,,,,"MET047METAR ENNO 201250Z VRB01KT CAVOK M09/M12 Q1004;",
"01470399999","2010-12-20T13:50:00","4","59.565683","9.212222","19.2","NOTODDEN, NO","FM-15","ENNO ","V020","250,1,N,0010,1","99999,9,9,Y","009900,1,N,1","-0110,1","-0130,1","99999,9",,,,,,"10041,1,99999,9",,,,,"MET047METAR ENNO 201350Z 25002KT CAVOK M11/M13 Q1004;",
"01470399999","2010-12-20T14:50:00","4","59.565683","9.212222","19.2","NOTODDEN, NO","FM-15","ENNO ","V020","999,9,V,0005,1","99999,9,9,Y","009900,1,N,1","-0130,1","-0150,1","99999,9",,,,,,"10041,1,99999,9",,,,,"MET047METAR ENNO 201450Z VRB01KT CAVOK M13/M15 Q1004;",
"01470399999","2010-12-20T15:50:00","4","59.565683","9.212222","19.2","NOTODDEN, NO","FM-15","ENNO ","V020","300,1,N,0005,1","99999,9,9,Y","009900,1,N,1","-0150,1","-0160,1","99999,9",,,,,,"10051,1,99999,9",,,,,"MET047METAR ENNO 201550Z 30001KT CAVOK M15/M16 Q1005;",
"01470399999","2010-12-20T16:50:00","4","59.565683","9.212222","19.2","NOTODDEN, NO","FM-15","ENNO ","V020","999,9,C,0000,1","99999,9,9,Y","009900,1,N,1","-0160,1","-0180,1","99999,9",,,,,,"10051,1,99999,9",,,,,"MET047METAR ENNO 201650Z 00000KT CAVOK M16/M18 Q1005;",
"01470399999","2010-12-21T05:50:00","4","59.565683","9.212222","19.2","NOTODDEN, NO","FM-15","ENNO ","V020","999,9,V,0005,1","99999,9,9,Y","009900,1,N,1","-0190,1","-0210,1","99999,9",,,,,,"10051,1,99999,9",,,,,"MET047METAR ENNO 210550Z VRB01KT CAVOK M19/M21 Q1005;",
"01470399999","2010-12-21T06:50:00","4","59.565683","9.212222","19.2","NOTODDEN, NO","FM-15","ENNO ","V020","999,9,V,0005,1","22000,1,9,N","011265,1,N,1","-0180,1","-0200,1","99999,9","02,5,+01950,5,99,9",,,"02,99,1,99,9,99,9,99999,9,99,9,99,9",,"10061,1,99999,9",,,,,"MET053METAR ENNO 210650Z VRB01KT 9999 FEW065 M18/M20 Q1006;",
"01470399999","2010-12-21T07:50:00","4","59.565683","9.212222","19.2","NOTODDEN, NO","FM-15","ENNO ","V020","999,9,V,0005,1","22000,1,9,N","011265,1,N,1","-0170,1","-0190,1","99999,9",,,,"00,99,1,99,9,99,9,99999,9,99,9,99,9",,"10061,1,99999,9","16,1",,,,"MET055METAR ENNO 210750Z VRB01KT 9999 VCSH NSC M17/M19 Q1006;","Q01    003SCCGA1"
"01470399999","2010-12-21T08:50:00","4","59.565683","9.212222","19.2","NOTODDEN, NO","FM-15","ENNO ","V020","300,1,N,0015,1","22000,1,9,N","011265,1,N,1","-0170,1","-0190,1","99999,9","04,5,+01410,1,99,9",,,"04,99,1,99,9,99,9,99999,9,99,9,99,9",,"10071,1,99999,9","16,1",,,,"MET058METAR ENNO 210850Z 30003KT 9999 VCSH SCT047 M17/M19 Q1007;",
"01470399999","2010-12-21T09:50:00","4","59.565683","9.212222","19.2","NOTODDEN, NO","FM-15","ENNO ","V020","999,9,C,0000,1","01050,1,C,N","009000,1,N,1","-0160,1","-0180,1","99999,9","07,5,+01050,1,99,9",,,"07,99,1,99,9,99,9,99999,9,99,9,99,9",,"10071,1,99999,9","85,5",,,,"MET059METAR ENNO 210950Z 00000KT 9000 -SHSN BKN035 M16/M18 Q1007;",
"01470399999","2010-12-21T10:50:00","4","59.565683","9.212222","19.2","NOTODDEN, NO","FM-15","ENNO ","V020","999,9,V,0005,1","22000,1,9,N","011265,1,N,1","-0160,1","-0180,1","99999,9","04,5,+01650,5,99,9",,,"04,99,1,99,9,99,9,99999,9,99,9,99,9",,"10071,1,99999,9",,,,,"MET053METAR ENNO 211050Z VRB01KT 9999 SCT055 M16/M18 Q1007;",
"01470399999","2010-12-21T11:50:00","4","59.565683","9.212222","19.2","NOTODDEN, NO","FM-15","ENNO ","V020","300,1,N,0010,1","03300,1,C,N","011265,1,N,1","-0160,1","-0180,1","99999,9","02,5,+01710,5,99,9","07,5,+03300,1,99,9",,"07,99,1,99,9,99,9,99999,9,99,9,99,9",,"10071,1,99999,9",,,,,"MET060METAR ENNO 211150Z 30002KT 9999 FEW057 BKN110 M16/M18 Q1007;",
"01470399999","2010-12-21T12:50:00","4","59.565683","9.212222","19.2","NOTODDEN, NO","FM-15","ENNO ","V020","999,9,V,0005,1","00900,1,9,N","009000,1,N,1","-0150,1","-0170,1","99999,9","09,1,+00900,1,99,9",,,"09,99,1,99,9,99,9,00025,1,99,9,99,9",,"10071,1,99999,9","71,1",,,,"MET056METAR ENNO 211250Z VRB01KT 9000 -SN VV030 M15/M17 Q1007;",
"01470399999","2010-12-21T13:50:00","4","59.565683","9.212222","19.2","NOTODDEN, NO","FM-15","ENNO ","V020","999,9,C,0000,1","01500,1,C,N","011265,1,N,1","-0150,1","-0170,1","99999,9","07,5,+01500,1,99,9",,,"07,99,1,99,9,99,9,99999,9,99,9,99,9",,"10071,1,99999,9",,,,,"MET053METAR ENNO 211350Z 00000KT 9999 BKN050 M15/M17 Q1007;",
"01470399999","2010-12-21T14:50:00","4","59.565683","9.212222","19.2","NOTODDEN, NO","FM-15","ENNO ","V020","999,9,C,0000,1","02100,1,C,N","011265,1,N,1","-0150,1","-0170,1","99999,9","04,5,+00600,1,99,9","07,5,+02100,1,99,9",,"07,99,1,99,9,99,9,99999,9,99,9,99,9",,"10081,1,99999,9","16,1",,,,"MET065METAR ENNO 211450Z 00000KT 9999 VCSH SCT020 BKN070 M15/M17 Q1008;",
"01470399999","2010-12-21T15:50:00","4","59.565683","9.212222","19.2","NOTODDEN, NO","FM-15","ENNO ","V020","310,1,N,0010,1","02100,1,C,N","011265,1,N,1","-0160,1","-0180,1","99999,9","04,5,+00600,1,99,9","07,5,+02100,1,99,9",,"07,99,1,99,9,99,9,99999,9,99,9,99,9",,"10081,1,99999,9",,,,,"MET060METAR ENNO 211550Z 31002KT 9999 SCT020 BKN070 M16/M18 Q1008;",
"01470399999","2010-12-21T16:50:00","4","59.565683","9.212222","19.2","NOTODDEN, NO","FM-15","ENNO ","V020","999,9,V,0005,1","99999,9,9,Y","009900,1,N,1","-0180,1","-0200,1","99999,9",,,,,,"10091,1,99999,9",,,,,"MET047METAR ENNO 211650Z VRB01KT CAVOK M18/M20 Q1009;",
"01470399999","2010-12-22T05:50:00","4","59.565683","9.212222","19.2","NOTODDEN, NO","FM-15","ENNO ","V020","999,9,V,0005,1","22000,1,9,N","011265,1,N,1","-0230,1","-0260,1","99999,9","04,5,+00300,1,99,9",,,"04,99,1,99,9,99,9,99999,9,99,9,99,9",,"10139,1,99999,9",,,,,"MET053METAR ENNO 220550Z VRB01KT 9999 SCT010 M23/M26 Q1014;",
"01470399999","2010-12-22T06:50:00","4","59.565683","9.212222","19.2","NOTODDEN, NO","FM-15","ENNO ","V020","999,9,V,0005,1","22000,1,9,N","011265,1,N,1","-0220,1","-0250,1","99999,9","04,5,+00450,1,99,9",,,"04,99,1,99,9,99,9,99999,9,99,9,99,9",,"10149,1,99999,9",,,,,"MET053METAR ENNO 220650Z VRB01KT 9999 SCT015 M22/M25 Q1015;",
"01470399999","2010-12-22T07:50:00","4","59.565683","9.212222","19.2","NOTODDEN, NO","FM-15","ENNO ","V020","999,9,V,0010,1","22000,1,9,N","011265,1,N,1","-0220,1","-0250,1","99999,9","04,5,+00300,1,99,9",,,"04,99,1,99,9,99,9,99999,9,99,9,99,9",,"10149,1,99999,9",,,,,"MET053METAR ENNO 220750Z VRB02KT 9999 SCT010 M22/M25 Q1015;",
"01470399999","2010-12-22T08:50:00","4","59.565683","9.212222","19.2","NOTODDEN, NO","FM-15","ENNO ","V020","999,9,C,0000,1","22000,1,9,N","011265,1,N,1","-0230,1","-0250,1","99999,9","02,5,+00240,1,99,9",,,"02,99,1,99,9,99,9,99999,9,99,9,99,9",,"10159,1,99999,9",,,,,"MET053METAR ENNO 220850Z 00000KT 9999 FEW008 M23/M25 Q1016;",
"01470399999","2010-12-22T09:50:00","4","59.565683","9.212222","19.2","NOTODDEN, NO","FM-15","ENNO ","V020","999,9,C,0000,1","22000,1,9,N","011265,1,N,1","-0230,1","-0250,1","99999,9","02,5,+00240,1,99,9",,,"02,99,1,99,9,99,9,99999,9,99,9,99,9",,"10159,1,99999,9",,,,,"MET053METAR ENNO 220950Z 00000KT 9999 FEW008 M23/M25 Q1016;",
"01470399999","2010-12-22T10:50:00","4","59.565683","9.212222","19.2","NOTODDEN, NO","FM-15","ENNO ","V020","999,9,C,0000,1","99999,9,C,N","011265,1,N,1","-0210,1","-0240,1","99999,9","02,5,+00150,1,99,9","04,5,+01650,5,99,9",,"04,99,1,99,9,99,9,99999,9,99,9,99,9",,"10159,1,99999,9",,,,,"MET060METAR ENNO 221050Z 00000KT 9999 FEW005 SCT055 M21/M24 Q1016;","P01 016503SCOCIG"
"01470399999","2010-12-22T11:50:00","4","59.565683","9.212222","19.2","NOTODDEN, NO","FM-15","ENNO ","V020","999,9,C,0000,1","99999,9,C,N","011265,1,N,1","-0200,1","-0220,1","99999,9","02,5,+00150,1,99,9","04,5,+01650,5,99,9",,"04,99,1,99,9,99,9,99999,9,99,9,99,9",,"10159,1,99999,9",,,,,"MET060METAR ENNO 221150Z 00000KT 9999 FEW005 SCT055 M20/M22 Q1016;","P01 016503SCOCIG"
"01470399999","2010-12-22T12:50:00","4","59.565683","9.212222","19.2","NOTODDEN, NO","FM-15","ENNO ","V020","999,9,C,0000,1","99999,9,C,N","011265,1,N,1","-0200,1","-0220,1","99999,9","02,5,+00150,1,99,9","04,5,+02550,5,99,9",,"04,99,1,99,9,99,9,99999,9,99,9,99,9",,"10159,1,99999,9",,,,,"MET060METAR ENNO 221250Z 00000KT 9999 FEW005 SCT085 M20/M22 Q1016;","P01 025503SCOCIG"
"01470399999","2010-12-22T14:50:00","4","59.565683","9.212222","19.2","NOTODDEN, NO","FM-15","ENNO ","V020","999,9,C,0000,1","22000,1,9,N","011265,1,N,1","-0180,1","-0200,1","99999,9","04,5,+02070,5,99,9",,,"04,99,1,99,9,99,9,99999,9,99,9,99,9",,"10159,1,99999,9",,,,,"MET053METAR ENNO 221450Z 00000KT 9999 SCT069 M18/M20 Q1016;",
"01470399999","2010-12-22T15:50:00","4","59.565683","9.212222","19.2","NOTODDEN, NO","FM-15","ENNO ","V020","999,9,C,0000,1","99999,9,9,Y","009900,1,N,1","-0170,1","-0190,1","99999,9",,,,,,"10169,1,99999,9",,,,,"MET047METAR ENNO 221550Z 00000KT CAVOK M17/M19 Q1017;",
"01470399999","2010-12-22T16:50:00","4","59.565683","9.212222","19.2","NOTODDEN, NO","FM-15","ENNO ","V020","999,9,C,0000,1","22000,1,9,N","011265,1,N,1","-0170,1","-0190,1","99999,9","04,5,+01800,1,99,9",,,"04,99,1,99,9,99,9,99999,9,99,9,99,9",,"10169,1,99999,9",,,,,"MET053METAR ENNO 221650Z 00000KT 9999 SCT060 M17/M19 Q1017;",
"01470399999","2010-12-23T07:20:00","4","59.565683","9.212222","19.2","NOTODDEN, NO","FM-15","ENNO ","V020","999,9,C,0000,1","99999,9,9,Y","009900,1,N,1","-0220,1","-0250,1","99999,9",,,,,,"10230,1,99999,9",,,,,"MET047METAR ENNO 230720Z 00000KT CAVOK M22/M25 Q1023;",
"01470399999","2010-12-23T07:50:00","4","59.565683","9.212222","19.2","NOTODDEN, NO","FM-15","ENNO ","V020","999,9,C,0000,1","99999,9,9,Y","009900,1,N,1","-0220,1","-0250,1","99999,9",,,,,,"10230,1,99999,9",,,,,"MET047METAR ENNO 230750Z 00000KT CAVOK M22/M25 Q1023;",
"01470399999","2010-12-23T08:50:00","4","59.565683","9.212222","19.2","NOTODDEN, NO","FM-15","ENNO ","V020","999,9,C,0000,1","99999,9,9,Y","009900,1,N,1","-0230,1","-0250,1","99999,9",,,,,,"10240,1,99999,9",,,,,"MET047METAR ENNO 230850Z 00000KT CAVOK M23/M25 Q1024;",
"01470399999","2010-12-23T09:50:00","4","59.565683","9.212222","19.2","NOTODDEN, NO","FM-15","ENNO ","V020","999,9,C,0000,1","99999,9,9,Y","009900,1,N,1","-0210,1","-0240,1","99999,9",,,,,,"10251,1,99999,9",,,,,"MET047METAR ENNO 230950Z 00000KT CAVOK M21/M24 Q1025;",
"01470399999","2010-12-23T10:50:00","4","59.565683","9.212222","19.2","NOTODDEN, NO","FM-15","ENNO ","V020","999,9,C,0000,1","22000,1,9,N","011265,1,N,1","-0190,1","-0210,1","99999,9","02,5,+01800,1,99,9",,,"02,99,1,99,9,99,9,99999,9,99,9,99,9",,"10251,1,99999,9","16,1",,,,"MET058METAR ENNO 231050Z 00000KT 9999 VCSH FEW060 M19/M21 Q1025;",
"01470399999","2010-12-23T11:50:00","4","59.565683","9.212222","19.2","NOTODDEN, NO","FM-15","ENNO ","V020","999,9,C,0000,1","22000,1,9,N","011265,1,N,1","-0180,1","-0200,1","99999,9","02,5,+01800,1,99,9",,,"02,99,1,99,9,99,9,99999,9,99,9,99,9",,"10251,1,99999,9","71,1",,,,"MET057METAR ENNO 231150Z 00000KT 9999 -SN FEW060 M18/M20 Q1025;",
"01470399999","2010-12-23T13:20:00","4","59.565683","9.212222","19.2","NOTODDEN, NO","FM-15","ENNO ","V020","999,9,V,0005,1","99999,9,9,Y","009900,1,N,1","-0190,1","-0220,1","99999,9",,,,,,"10240,1,99999,9",,,,,"MET047METAR ENNO 231320Z VRB01KT CAVOK M19/M22 Q1024;",
"01470399999","2010-12-23T13:50:00","4","59.565683","9.212222","19.2","NOTODDEN, NO","FM-15","ENNO ","V020","999,9,V,0005,1","99999,9,9,Y","009900,1,N,1","-0200,1","-0220,1","99999,9",,,,,,"10240,1,99999,9",,,,,"MET047METAR ENNO 231350Z VRB01KT CAVOK M20/M22 Q1024;",
"01470399999","2010-12-23T14:50:00","4","59.565683","9.212222","19.2","NOTODDEN, NO","FM-15","ENNO ","V020","999,9,V,0005,1","22000,1,9,N","011265,1,N,1","-0200,1","-0220,1","99999,9","04,5,+01800,1,99,9",,,"04,99,1,99,9,99,9,99999,9,99,9,99,9",,"10251,1,99999,9",,,,,"MET053METAR ENNO 231450Z VRB01KT 9999 SCT060 M20/M22 Q1025;",
"01470399999","2010-12-23T15:50:00","4","59.565683","9.212222","19.2","NOTODDEN, NO","FM-15","ENNO ","V020","999,9,V,0005,1","22000,1,9,N","011265,1,N,1","-0200,1","-0220,1","99999,9","02,5,+01650,5,99,9",,,"02,99,1,99,9,99,9,99999,9,99,9,99,9",,"10251,1,99999,9",,,,,"MET053METAR ENNO 231550Z VRB01KT 9999 FEW055 M20/M22 Q1025;",
"01470399999","2010-12-23T16:50:00","4","59.565683","9.212222","19.2","NOTODDEN, NO","FM-15","ENNO ","V020","290,1,N,0015,1","22000,1,9,N","011265,1,N,1","-0200,1","-0230,1","99999,9","02,5,+01650,5,99,9",,,"02,99,1,99,9,99,9,99999,9,99,9,99,9",,"10251,1,99999,9",,,,,"MET053METAR ENNO 231650Z 29003KT 9999 FEW055 M20/M23 Q1025;",
"01470399999","2010-12-23T17:50:00","4","59.565683","9.212222","19.2","NOTODDEN, NO","FM-15","ENNO ","V020","290,1,N,0015,1","00600,1,C,N","011265,1,N,1","-0210,1","-0230,1","99999,9","07,5,+00600,1,99,9",,,"07,99,1,99,9,99,9,99999,9,99,9,99,9",,"10251,1,99999,9",,,,,"MET053METAR ENNO 231750Z 29003KT 9999 BKN020 M21/M23 Q1025;",
"01470399999","2010-12-27T05:50:00","4","59.565683","9.212222","19.2","NOTODDEN, NO","FM-15","ENNO ","V020","999,9,V,0010,1","01200,1,C,N","011265,1,N,1","-0140,1","-0150,1","99999,9","07,5,+01200,1,99,9",,,"07,99,1,99,9,99,9,99999,9,99,9,99,9",,"10190,1,99999,9","71,1",,,,"MET057METAR ENNO 270550Z VRB02KT 9999 -SN BKN040 M14/M15 Q1019;",
"01470399999","2010-12-27T06:50:00","4","59.565683","9.212222","19.2","NOTODDEN, NO","FM-15","ENNO ","V020","999,9,V,0010,1","01200,1,C,N","011265,1,N,1","-0130,1","-0140,1","99999,9","07,5,+01200,1,99,9",,,"07,99,1,99,9,99,9,99999,9,99,9,99,9",,"10190,1,99999,9",,,,,"MET053METAR ENNO 270650Z VRB02KT 9999 BKN040 M13/M14 Q1019;",
"01470399999","2010-12-27T07:50:00","4","59.565683","9.212222","19.2","NOTODDEN, NO","FM-15","ENNO ","V020","999,9,C,0000,1","01800,1,C,N","011265,1,N,1","-0120,1","-0130,1","99999,9","02,5,+00810,1,99,9","04,5,+01800,1,99,9","07,5,+02400,1,99,9","07,99,1,99,9,99,9,99999,9,99,9,99,9",,"10200,1,99999,9",,,,,"MET067METAR ENNO 270750Z 00000KT 9999 FEW027 SCT060 BKN080 M12/M13 Q1020;",
"01470399999","2010-12-27T08:50:00","4","59.565683","9.212222","19.2","NOTODDEN, NO","FM-15","ENNO ","V020","999,9,C,0000,1","01800,1,C,N","011265,1,N,1","-0110,1","-0120,1","99999,9","02,5,+00810,1,99,9","04,5,+01800,1,99,9","07,5,+02280,5,99,9","07,99,1,99,9,99,9,99999,9,99,9,99,9",,"10200,1,99999,9",,,,,"MET067METAR ENNO 270850Z 00000KT 9999 FEW027 SCT060 BKN076 M11/M12 Q1020;",
"01470399999","2010-12-27T09:50:00","4","59.565683","9.212222","19.2","NOTODDEN, NO","FM-15","ENNO ","V020","999,9,C,0000,1","02280,5,C,N","011265,1,N,1","-0100,1","-0110,1","99999,9","04,5,+01200,1,99,9","07,5,+02280,5,99,9",,"07,99,1,99,9,99,9,99999,9,99,9,99,9",,"10200,1,99999,9","71,1",,,,"MET064METAR ENNO 270950Z 00000KT 9999 -SN SCT040 BKN076 M10/M11 Q1020;",
"01470399999","2010-12-27T10:50:00","4","59.565683","9.212222","19.2","NOTODDEN, NO","FM-15","ENNO ","V020","999,9,C,0000,1","02280,5,C,N","011265,1,N,1","-0090,1","-0100,1","99999,9","04,5,+01200,1,99,9","07,5,+02280,5,99,9",,"07,99,1,99,9,99,9,99999,9,99,9,99,9",,"10210,1,99999,9",,,,,"MET060METAR ENNO 271050Z 00000KT 9999 SCT040 BKN076 M09/M10 Q1021;",
"01470399999","2010-12-27T11:50:00","4","59.565683","9.212222","19.2","NOTODDEN, NO","FM-15","ENNO ","V020","999,9,C,0000,1","02460,5,C,N","011265,1,N,1","-0080,1","-0090,1","99999,9","04,5,+01200,1,99,9","07,5,+02460,5,99,9",,"07,99,1,99,9,99,9,99999,9,99,9,99,9",,"10210,1,99999,9",,,,,"MET060METAR ENNO 271150Z 00000KT 9999 SCT040 BKN082 M08/M09 Q1021;",
"01470399999","2010-12-27T12:50:00","4","59.565683","9.212222","19.2","NOTODDEN, NO","FM-15","ENNO ","V020","999,9,C,0000,1","02400,1,C,N","011265,1,N,1","-0080,1","-0090,1","99999,9","04,5,+01200,1,99,9","07,5,+02400,1,99,9",,"07,99,1,99,9,99,9,99999,9,99,9,99,9",,"10210,1,99999,9",,,,,"MET060METAR ENNO 271250Z 00000KT 9999 SCT040 BKN080 M08/M09 Q1021;",
"01470399999","2010-12-27T13:50:00","4","59.565683","9.212222","19.2","NOTODDEN, NO","FM-15","ENNO ","V020","999,9,V,0005,1","02400,1,C,N","011265,1,N,1","-0080,1","-0090,1","99999,9","04,5,+01200,1,99,9","07,5,+02400,1,99,9",,"07,99,1,99,9,99,9,99999,9,99,9,99,9",,"10220,1,99999,9",,,,,"MET060METAR ENNO 271350Z VRB01KT 9999 SCT040 BKN080 M08/M09 Q1022;",
"01470399999","2010-12-27T14:50:00","4","59.565683","9.212222","19.2","NOTODDEN, NO","FM-15","ENNO ","V020","999,9,V,0005,1","02400,1,C,N","011265,1,N,1","-0080,1","-0090,1","99999,9","02,5,+01200,1,99,9","07,5,+02400,1,99,9",,"07,99,1,99,9,99,9,99999,9,99,9,99,9",,"10220,1,99999,9",,,,,"MET060METAR ENNO 271450Z VRB01KT 9999 FEW040 BKN080 M08/M09 Q1022;",
"01470399999","2010-12-27T15:50:00","4","59.565683","9.212222","19.2","NOTODDEN, NO","FM-15","ENNO ","V020","999,9,C,0000,1","99999,9,9,Y","009900,1,N,1","-0080,1","-0090,1","99999,9",,,,,,"10220,1,99999,9",,,,,"MET047METAR ENNO 271550Z 00000KT CAVOK M08/M09 Q1022;",
"01470399999","2010-12-27T16:50:00","4","59.565683","9.212222","19.2","NOTODDEN, NO","FM-15","ENNO ","V020","999,9,C,0000,1","99999,9,9,Y","009900,1,N,1","-0080,1","-0090,1","99999,9",,,,,,"10230,1,99999,9",,,,,"MET047METAR ENNO 271650Z 00000KT CAVOK M08/M09 Q1023;",
"01470399999","2010-12-28T05:50:00","4","59.565683","9.212222","19.2","NOTODDEN, NO","FM-15","ENNO ","V020","999,9,V,0005,1","01050,1,9,N","007000,1,N,1","-0080,1","-0090,1","99999,9","09,1,+01050,1,99,9",,,"09,99,1,99,9,99,9,00025,1,99,9,99,9",,"10291,1,99999,9","71,1",,,,"MET056METAR ENNO 280550Z VRB01KT 7000 -SN VV035 M08/M09 Q1029;",
"01470399999","2010-12-28T06:50:00","4","59.565683","9.212222","19.2","NOTODDEN, NO","FM-15","ENNO ","V020","999,9,V,0005,1","01050,1,9,N","007000,1,N,1","-0080,1","-0090,1","99999,9","09,1,+01050,1,99,9",,,"09,99,1,99,9,99,9,00025,1,99,9,99,9",,"10291,1,99999,9","71,1",,,,"MET056METAR ENNO 280650Z VRB01KT 7000 -SN VV035 M08/M09 Q1029;",
"01470399999","2010-12-28T07:50:00","4","59.565683","9.212222","19.2","NOTODDEN, NO","FM-15","ENNO ","V020","999,9,C,0000,1","00630,1,9,N","006000,1,N,1","-0080,1","-0090,1","99999,9","09,1,+00630,1,99,9",,,"09,99,1,99,9,99,9,00025,1,99,9,99,9",,"10301,1,99999,9","71,1",,,,"MET056METAR ENNO 280750Z 00000KT 6000 -SN VV021 M08/M09 Q1030;",
"01470399999","2010-12-28T08:50:00","4","59.565683","9.212222","19.2","NOTODDEN, NO","FM-15","ENNO ","V020","999,9,C,0000,1","01050,1,C,N","011265,1,N,1","-0080,1","-0090,1","99999,9","04,5,+00750,1,99,9","07,5,+01050,1,99,9",,"07,99,1,99,9,99,9,99999,9,99,9,99,9",,"10301,1,99999,9","71,1",,,,"MET064METAR ENNO 280850Z 00000KT 9999 -SN SCT025 BKN035 M08/M09 Q1030;",
"01470399999","2010-12-28T09:50:00","4","59.565683","9.212222","19.2","NOTODDEN, NO","FM-15","ENNO ","V020","999,9,C,0000,1","00900,1,C,N","011265,1,N,1","-0090,1","-0100,1","99999,9","07,5,+00900,1,99,9",,,"07,99,1,99,9,99,9,99999,9,99,9,99,9",,"10301,1,99999,9","71,1",,,,"MET057METAR ENNO 280950Z 00000KT 9999 -SN BKN030 M09/M10 Q1030;",
"01470399999","2010-12-28T10:50:00","4","59.565683","9.212222","19.2","NOTODDEN, NO","FM-15","ENNO ","V020","999,9,C,0000,1","22000,1,9,N","011265,1,N,1","-0090,1","-0100,1","99999,9","04,5,+00900,1,99,9",,,"04,99,1,99,9,99,9,99999,9,99,9,99,9",,"10301,1,99999,9",,,,,"MET053METAR ENNO 281050Z 00000KT 9999 SCT030 M09/M10 Q1030;",
"01470399999","2010-12-28T11:50:00","4","59.565683","9.212222","19.2","NOTODDEN, NO","FM-15","ENNO ","V020","999,9,C,0000,1","22000,1,9,N","011265,1,N,1","-0070,1","-0080,1","99999,9","02,5,+00900,1,99,9",,,"02,99,1,99,9,99,9,99999,9,99,9,99,9",,"10301,1,99999,9",,,,,"MET053METAR ENNO 281150Z 00000KT 9999 FEW030 M07/M08 Q1030;",
"01470399999","2010-12-28T12:50:00","4","59.565683","9.212222","19.2","NOTODDEN, NO","FM-15","ENNO ","V020","999,9,C,0000,1","22000,1,9,N","011265,1,N,1","-0120,1","-0140,1","99999,9","02,5,+00780,1,99,9",,,"02,99,1,99,9,99,9,99999,9,99,9,99,9",,"10301,1,99999,9",,,,,"MET053METAR ENNO 281250Z 00000KT 9999 FEW026 M12/M14 Q1030;",
"01470399999","2010-12-28T13:50:00","4","59.565683","9.212222","19.2","NOTODDEN, NO","FM-15","ENNO ","V020","999,9,C,0000,1","22000,1,9,N","011265,1,N,1","-0140,1","-0150,1","99999,9","02,5,+00780,1,99,9",,,"02,99,1,99,9,99,9,99999,9,99,9,99,9",,"10301,1,99999,9",,,,,"MET053METAR ENNO 281350Z 00000KT 9999 FEW026 M14/M15 Q1030;",
"01470399999","2010-12-28T14:50:00","4","59.565683","9.212222","19.2","NOTODDEN, NO","FM-15","ENNO ","V020","999,9,C,0000,1","22000,1,9,N","011265,1,N,1","-0150,1","-0160,1","99999,9","02,5,+00780,1,99,9",,,"02,99,1,99,9,99,9,99999,9,99,9,99,9",,"10301,1,99999,9",,,,,"MET053METAR ENNO 281450Z 00000KT 9999 FEW026 M15/M16 Q1030;",
"01470399999","2010-12-28T15:50:00","4","59.565683","9.212222","19.2","NOTODDEN, NO","FM-15","ENNO ","V020","999,9,C,0000,1","22000,1,9,N","011265,1,N,1","-0160,1","-0180,1","99999,9","02,5,+00780,1,99,9",,,"02,99,1,99,9,99,9,99999,9,99,9,99,9",,"10312,1,99999,9",,,,,"MET053METAR ENNO 281550Z 00000KT 9999 FEW026 M16/M18 Q1031;",
"01470399999","2010-12-29T05:50:00","4","59.565683","9.212222","19.2","NOTODDEN, NO","FM-15","ENNO ","V020","999,9,C,0000,1","22000,1,9,N","011265,1,N,1","-0240,1","-0260,1","99999,9","02,5,+00630,1,99,9",,,"02,99,1,99,9,99,9,99999,9,99,9,99,9",,"10318,1,99999,9",,,,,"MET053METAR ENNO 290550Z 00000KT 9999 FEW021 M24/M26 Q1032;",
"01470399999","2010-12-29T06:50:00","4","59.565683","9.212222","19.2","NOTODDEN, NO","FM-15","ENNO ","V020","999,9,C,0000,1","22000,1,9,N","011265,1,N,1","-0240,1","-0260,1","99999,9","02,5,+00630,1,99,9",,,"02,99,1,99,9,99,9,99999,9,99,9,99,9",,"10312,1,99999,9",,,,,"MET053METAR ENNO 290650Z 00000KT 9999 FEW021 M24/M26 Q1031;",
"01470399999","2010-12-29T07:50:00","4","59.565683","9.212222","19.2","NOTODDEN, NO","FM-15","ENNO ","V020","999,9,C,0000,1","22000,1,9,N","011265,1,N,1","-0240,1","-0260,1","99999,9","04,5,+00780,1,99,9",,,"04,99,1,99,9,99,9,99999,9,99,9,99,9",,"10318,1,99999,9",,,,,"MET053METAR ENNO 290750Z 00000KT 9999 SCT026 M24/M26 Q1032;",
"01470399999","2010-12-29T08:50:00","4","59.565683","9.212222","19.2","NOTODDEN, NO","FM-15","ENNO ","V020","999,9,V,0005,1","22000,1,9,N","011265,1,N,1","-0240,1","-0260,1","99999,9","04,5,+00900,1,99,9",,,"04,99,1,99,9,99,9,99999,9,99,9,99,9",,"10318,1,99999,9",,,,,"MET053METAR ENNO 290850Z VRB01KT 9999 SCT030 M24/M26 Q1032;",
"01470399999","2010-12-29T09:50:00","4","59.565683","9.212222","19.2","NOTODDEN, NO","FM-15","ENNO ","V020","999,9,C,0000,1","00900,1,C,N","011265,1,N,1","-0230,1","-0250,1","99999,9","07,5,+00900,1,99,9",,,"07,99,1,99,9,99,9,99999,9,99,9,99,9",,"10318,1,99999,9",,,,,"MET053METAR ENNO 290950Z 00000KT 9999 BKN030 M23/M25 Q1032;",
"01470399999","2010-12-29T10:50:00","4","59.565683","9.212222","19.2","NOTODDEN, NO","FM-15","ENNO ","V020","999,9,C,0000,1","00900,1,C,N","011265,1,N,1","-0180,1","-0200,1","99999,9","07,5,+00900,1,99,9","07,5,+02850,5,99,9",,"07,99,1,99,9,99,9,99999,9,99,9,99,9",,"10312,1,99999,9",,,,,"MET060METAR ENNO 291050Z 00000KT 9999 BKN030 BKN095 M18/M20 Q1031;",
"01470399999","2010-12-29T11:50:00","4","59.565683","9.212222","19.2","NOTODDEN, NO","FM-15","ENNO ","V020","999,9,C,0000,1","99999,9,9,Y","009900,1,N,1","-0160,1","-0180,1","99999,9",,,,,,"10312,1,99999,9",,,,,"MET047METAR ENNO 291150Z 00000KT CAVOK M16/M18 Q1031;",
"01470399999","2010-12-29T12:50:00","4","59.565683","9.212222","19.2","NOTODDEN, NO","FM-15","ENNO ","V020","999,9,C,0000,1","99999,9,9,Y","009900,1,N,1","-0160,1","-0180,1","99999,9",,,,,,"10301,1,99999,9",,,,,"MET047METAR ENNO 291250Z 00000KT CAVOK M16/M18 Q1030;",
"01470399999","2010-12-29T13:50:00","4","59.565683","9.212222","19.2","NOTODDEN, NO","FM-15","ENNO ","V020","999,9,C,0000,1","99999,9,9,Y","009900,1,N,1","-0160,1","-0180,1","99999,9",,,,,,"10291,1,99999,9",,,,,"MET047METAR ENNO 291350Z 00000KT CAVOK M16/M18 Q1029;",
"01470399999","2010-12-29T14:50:00","4","59.565683","9.212222","19.2","NOTODDEN, NO","FM-15","ENNO ","V020","999,9,C,0000,1","99999,9,9,Y","009900,1,N,1","-0170,1","-0190,1","99999,9",,,,,,"10291,1,99999,9",,,,,"MET047METAR ENNO 291450Z 00000KT CAVOK M17/M19 Q1029;",
"01470399999","2010-12-29T15:50:00","4","59.565683","9.212222","19.2","NOTODDEN, NO","FM-15","ENNO ","V020","999,9,C,0000,1","99999,9,9,Y","009900,1,N,1","-0180,1","-0200,1","99999,9",,,,,,"10291,1,99999,9",,,,,"MET047METAR ENNO 291550Z 00000KT CAVOK M18/M20 Q1029;",
"01470399999","2010-12-29T16:50:00","4","59.565683","9.212222","19.2","NOTODDEN, NO","FM-15","ENNO ","V020","999,9,C,0000,1","99999,9,9,Y","009900,1,N,1","-0180,1","-0190,1","99999,9",,,,,,"10281,1,99999,9",,,,,"MET047METAR ENNO 291650Z 00000KT CAVOK M18/M19 Q1028;",
"01470399999","2010-12-30T05:50:00","4","59.565683","9.212222","19.2","NOTODDEN, NO","FM-15","ENNO ","V020","270,1,N,0005,1","99999,9,9,Y","009900,1,N,1","-0130,1","-0140,1","99999,9",,,,,,"10200,1,99999,9",,,,,"MET047METAR ENNO 300550Z 27001KT CAVOK M13/M14 Q1020;",
"01470399999","2010-12-30T06:50:00","4","59.565683","9.212222","19.2","NOTODDEN, NO","FM-15","ENNO ","V020","999,9,V,0005,1","99999,9,9,Y","009900,1,N,1","-0120,1","-0130,1","99999,9",,,,,,"10200,1,99999,9",,,,,"MET047METAR ENNO 300650Z VRB01KT CAVOK M12/M13 Q1020;",
"01470399999","2010-12-30T07:50:00","4","59.565683","9.212222","19.2","NOTODDEN, NO","FM-15","ENNO ","V020","999,9,C,0000,1","99999,9,9,Y","009900,1,N,1","-0110,1","-0130,1","99999,9",,,,,,"10190,1,99999,9",,,,,"MET047METAR ENNO 300750Z 00000KT CAVOK M11/M13 Q1019;",
"01470399999","2010-12-30T08:50:00","4","59.565683","9.212222","19.2","NOTODDEN, NO","FM-15","ENNO ","V020","999,9,C,0000,1","99999,9,9,Y","009900,1,N,1","-0110,1","-0120,1","99999,9",,,,,,"10180,1,99999,9",,,,,"MET047METAR ENNO 300850Z 00000KT CAVOK M11/M12 Q1018;",
"01470399999","2010-12-30T09:50:00","4","59.565683","9.212222","19.2","NOTODDEN, NO","FM-15","ENNO ","V020","999,9,C,0000,1","99999,9,9,Y","009900,1,N,1","-0110,1","-0120,1","99999,9",,,,,,"10180,1,99999,9",,,,,"MET047METAR ENNO 300950Z 00000KT CAVOK M11/M12 Q1018;",
"01470399999","2010-12-30T10:50:00","4","59.565683","9.212222","19.2","NOTODDEN, NO","FM-15","ENNO ","V020","999,9,V,0005,1","99999,9,9,Y","009900,1,N,1","-0100,1","-0110,1","99999,9",,,,,,"10159,1,99999,9",,,,,"MET047METAR ENNO 301050Z VRB01KT CAVOK M10/M11 Q1016;",
"01470399999","2010-12-30T11:50:00","4","59.565683","9.212222","19.2","NOTODDEN, NO","FM-15","ENNO ","V020","999,9,V,0005,1","99999,9,9,Y","009900,1,N,1","-0100,1","-0110,1","99999,9",,,,,,"10159,1,99999,9",,,,,"MET047METAR ENNO 301150Z VRB01KT CAVOK M10/M11 Q1016;",
"01470399999","2010-12-30T12:50:00","4","59.565683","9.212222","19.2","NOTODDEN, NO","FM-15","ENNO ","V020","999,9,C,0000,1","99999,9,9,Y","009900,1,N,1","-0100,1","-0120,1","99999,9",,,,,,"10149,1,99999,9",,,,,"MET047METAR ENNO 301250Z 00000KT CAVOK M10/M12 Q1015;",
"01470399999","2010-12-30T13:50:00","4","59.565683","9.212222","19.2","NOTODDEN, NO","FM-15","ENNO ","V020","999,9,V,0005,1","99999,9,9,Y","009900,1,N,1","-0110,1","-0130,1","99999,9",,,,,,"10139,1,99999,9",,,,,"MET047METAR ENNO 301350Z VRB01KT CAVOK M11/M13 Q1014;",
"01470399999","2010-12-30T14:50:00","4","59.565683","9.212222","19.2","NOTODDEN, NO","FM-15","ENNO ","V020","999,9,V,0005,1","99999,9,9,Y","009900,1,N,1","-0120,1","-0130,1","99999,9",,,,,,"10139,1,99999,9",,,,,"MET047METAR ENNO 301450Z VRB01KT CAVOK M12/M13 Q1014;",
"01470399999","2010-12-30T15:50:00","4","59.565683","9.212222","19.2","NOTODDEN, NO","FM-15","ENNO ","V020","999,9,V,0005,1","99999,9,9,Y","009900,1,N,1","-0120,1","-0130,1","99999,9",,,,,,"10139,1,99999,9",,,,,"MET047METAR ENNO 301550Z VRB01KT CAVOK M12/M13 Q1014;",
"01470399999","2010-12-30T16:50:00","4","59.565683","9.212222","19.2","NOTODDEN, NO","FM-15","ENNO ","V020","999,9,V,0005,1","99999,9,9,Y","009900,1,N,1","-0110,1","-0120,1","99999,9",,,,,,"10139,1,99999,9",,,,,"MET047METAR ENNO 301650Z VRB01KT CAVOK M11/M12 Q1014;",
