"STATION","DATE","SOURCE","LATITUDE","LONGITUDE","ELEVATION","NAME","REPORT_TYPE","CALL_SIGN","QUALITY_CONTROL","WND","CIG","VIS","TMP","DEW","SLP","AW1","AW2","GA1","GA2","GA3","GF1","MA1","OC1","REM","EQD"
"01488199999","2010-11-23T08:50:00","4","61.206389","1.828889","142.0","STATFJORD B OIL PLATFORM, NO","FM-15","ENFB ","V020","030,1,N,0139,1","22000,1,9,N","011265,1,N,1","+0040,1","+0010,1","99999,9",,,"02,1,+00480,1,99,9","04,1,+01290,1,99,9",,"04,99,1,99,9,99,9,99999,9,99,9,99,9","10119,1,99999,9",,"MET079METAR ENFB 230850Z AUTO 03027KT 9999NDV FEW016/// SCT043/// 04/01 Q1012 W///S5;",
"01488199999","2010-11-23T09:20:00","4","61.206389","1.828889","142.0","STATFJORD B OIL PLATFORM, NO","FM-15","ENFB ","V020","020,1,N,0134,1","00660,1,9,N","011265,1,N,1","+0040,1","+0010,1","99999,9",,,"07,1,+00660,1,99,9",,,"07,99,1,99,9,99,9,99999,9,99,9,99,9","10119,1,99999,9",,"MET069METAR ENFB 230920Z AUTO 02026KT 9999NDV BKN022/// 04/01 Q1012 W///S5;",
"01488199999","2010-11-23T09:50:00","4","61.206389","1.828889","142.0","STATFJORD B OIL PLATFORM, NO","FM-15","ENFB ","V020","040,1,N,0129,1","00810,1,9,N","011265,1,N,1","+0050,1","+0010,1","99999,9",,,"02,1,+00510,1,99,9","07,1,+00810,1,99,9","07,1,+01500,1,99,9","07,99,1,99,9,99,9,99999,9,99,9,99,9","10119,1,99999,9",,"MET089METAR ENFB 230950Z AUTO 04025KT 9999NDV FEW017/// BKN027/// BKN050/// 05/01 Q1012 W///S5;",
"01488199999","2010-11-23T10:20:00","4","61.206389","1.828889","142.0","STATFJORD B OIL PLATFORM, NO","FM-15","ENFB ","V020","040,1,N,0118,1","00750,1,9,N","011265,1,N,1","+0050,1","+0010,1","99999,9",,,"07,1,+00750,1,99,9",,,"07,99,1,99,9,99,9,99999,9,99,9,99,9","10119,1,99999,9",,"MET069METAR ENFB 231020Z AUTO 04023KT 9999NDV BKN025/// 05/01 Q1012 W///S5;",
"01488199999","2010-11-23T10:50:00","4","61.206389","1.828889","142.0","STATFJORD B OIL PLATFORM, NO","FM-15","ENFB ","V020","030,1,N,0139,1","22000,1,9,N","011265,1,N,1","+0050,1","+0000,1","99999,9",,,"04,1,+00750,1,99,9",,,"04,99,1,99,9,99,9,99999,9,99,9,99,9","10119,1,99999,9",,"MET069METAR ENFB 231050Z AUTO 03027KT 9999NDV SCT025/// 05/00 Q1012 W///S5;",
"01488199999","2010-11-23T11:20:00","4","61.206389","1.828889","142.0","STATFJORD B OIL PLATFORM, NO","FM-15","ENFB ","V020","030,1,N,0149,1","22000,1,9,N","011265,1,N,1","+0050,1","-0010,1","99999,9",,,"02,1,+00810,1,99,9",,,"02,99,1,99,9,99,9,99999,9,99,9,99,9","10119,1,99999,9",,"MET070METAR ENFB 231120Z AUTO 03029KT 9999NDV FEW027/// 05/M01 Q1012 W///S5;",
"01488199999","2010-11-23T11:50:00","4","61.206389","1.828889","142.0","STATFJORD B OIL PLATFORM, NO","FM-15","ENFB ","V020","030,1,N,0139,1","22000,1,9,N","011265,1,N,1","+0050,1","-0010,1","99999,9",,,"02,1,+00900,1,99,9",,,"02,99,1,99,9,99,9,99999,9,99,9,99,9","10119,1,99999,9",,"MET070METAR ENFB 231150Z AUTO 03027KT 9999NDV FEW030/// 05/M01 Q1012 W///S5;",
"01488199999","2010-11-23T12:20:00","4","61.206389","1.828889","142.0","STATFJORD B OIL PLATFORM, NO","FM-15","ENFB ","V020","020,1,N,0123,1","01470,1,9,N","011265,1,N,1","+0050,1","+0000,1","99999,9",,,"04,1,+00780,1,99,9","07,1,+01470,1,99,9",,"07,99,1,99,9,99,9,99999,9,99,9,99,9","10119,1,99999,9",,"MET079METAR ENFB 231220Z AUTO 02024KT 9999NDV SCT026/// BKN049/// 05/00 Q1012 W///S5;",
"01488199999","2010-11-23T12:50:00","4","61.206389","1.828889","142.0","STATFJORD B OIL PLATFORM, NO","FM-15","ENFB ","V020","030,1,N,0149,1","22000,1,9,N","011265,1,N,1","+0050,1","+0000,1","99999,9",,,"02,1,+00630,1,99,9","04,1,+00870,1,99,9",,"04,99,1,99,9,99,9,99999,9,99,9,99,9","10119,1,99999,9",,"MET079METAR ENFB 231250Z AUTO 03029KT 9999NDV FEW021/// SCT029/// 05/00 Q1012 W///S5;",
"01488199999","2010-11-23T13:20:00","4","61.206389","1.828889","142.0","STATFJORD B OIL PLATFORM, NO","FM-15","ENFB ","V020","030,1,N,0154,1","22000,1,9,N","011265,1,N,1","+0040,1","+0000,1","99999,9",,,"02,1,+00510,1,99,9",,,"02,99,1,99,9,99,9,99999,9,99,9,99,9","10108,1,99999,9",,"MET069METAR ENFB 231320Z AUTO 03030KT 9999NDV FEW017/// 04/00 Q1011 W///S5;",
"01488199999","2010-11-23T13:50:00","4","61.206389","1.828889","142.0","STATFJORD B OIL PLATFORM, NO","FM-15","ENFB ","V020","040,1,N,0165,1","00780,1,9,N","011265,1,N,1","+0050,1","-0010,1","99999,9",,,"07,1,+00780,1,99,9","07,1,+01800,1,99,9",,"07,99,1,99,9,99,9,99999,9,99,9,99,9","10108,1,99999,9",,"MET080METAR ENFB 231350Z AUTO 04032KT 9999NDV BKN026/// BKN061/// 05/M01 Q1011 W///S5;",
"01488199999","2010-11-23T14:20:00","4","61.206389","1.828889","142.0","STATFJORD B OIL PLATFORM, NO","FM-15","ENFB ","V020","030,1,N,0154,1","22000,1,9,N","011265,1,N,1","+0050,1","-0010,1","99999,9",,,"04,1,+00750,1,99,9",,,"04,99,1,99,9,99,9,99999,9,99,9,99,9","10108,1,99999,9",,"MET070METAR ENFB 231420Z AUTO 03030KT 9999NDV SCT025/// 05/M01 Q1011 W///S5;",
"01488199999","2010-11-23T14:50:00","4","61.206389","1.828889","142.0","STATFJORD B OIL PLATFORM, NO","FM-15","ENFB ","V020","030,1,N,0139,1","22000,1,9,N","011265,1,N,1","+0040,1","-0010,1","99999,9","81,1",,"04,1,+00570,1,99,9",,,"04,99,1,99,9,99,9,99999,9,99,9,99,9","10108,1,99999,9",,"MET076METAR ENFB 231450Z AUTO 03027KT 9999NDV -SHRA SCT019/// 04/M01 Q1011 W///S5;",
"01488199999","2010-11-23T15:20:00","4","61.206389","1.828889","142.0","STATFJORD B OIL PLATFORM, NO","FM-15","ENFB ","V020","030,1,N,0144,1","00630,1,9,N","011265,1,N,1","+0040,1","-0010,1","99999,9",,,"07,1,+00630,1,99,9",,,"07,99,1,99,9,99,9,99999,9,99,9,99,9","10108,1,99999,9",,"MET070METAR ENFB 231520Z AUTO 03028KT 9999NDV BKN021/// 04/M01 Q1011 W///S5;",
"01488199999","2010-11-23T15:50:00","4","61.206389","1.828889","142.0","STATFJORD B OIL PLATFORM, NO","FM-15","ENFB ","V020","030,1,N,0139,1","22000,1,9,N","011265,1,N,1","+0040,1","-0010,1","99999,9",,,"02,1,+00600,1,99,9","04,1,+00750,1,99,9",,"04,99,1,99,9,99,9,99999,9,99,9,99,9","10108,1,99999,9",,"MET080METAR ENFB 231550Z AUTO 03027KT 9999NDV FEW020/// SCT025/// 04/M01 Q1011 W///S5;",
"01488199999","2010-11-23T16:20:00","4","61.206389","1.828889","142.0","STATFJORD B OIL PLATFORM, NO","FM-15","ENFB ","V020","050,1,N,0159,1","00660,1,9,N","011265,1,N,1","+0030,1","+0000,1","99999,9","61,1",,"02,1,+00360,1,99,9","07,1,+00660,1,99,9",,"07,99,1,99,9,99,9,99999,9,99,9,99,9","10108,1,99999,9",,"MET083METAR ENFB 231620Z AUTO 05031KT 9999NDV -RA FEW012/// BKN022/// 03/00 Q1011 W///S5;",
"01488199999","2010-11-23T16:50:00","4","61.206389","1.828889","142.0","STATFJORD B OIL PLATFORM, NO","FM-15","ENFB ","V020","050,1,N,0144,1","00570,1,9,N","011265,1,N,1","+0040,1","+0010,1","99999,9",,,"07,1,+00570,1,99,9",,,"07,99,1,99,9,99,9,99999,9,99,9,99,9","10108,1,99999,9",,"MET069METAR ENFB 231650Z AUTO 05028KT 9999NDV BKN019/// 04/01 Q1011 W///S5;",
"01488199999","2010-11-23T17:20:00","4","61.206389","1.828889","142.0","STATFJORD B OIL PLATFORM, NO","FM-15","ENFB ","V020","030,1,N,0165,1","00420,1,9,N","005000,1,N,1","+0020,1","+0010,1","99999,9","81,1",,"07,1,+00420,1,99,9",,,"07,99,1,99,9,99,9,99999,9,99,9,99,9","10108,1,99999,9",,"MET075METAR ENFB 231720Z AUTO 03032KT 5000NDV -SHRA BKN014/// 02/01 Q1011 W///S5;",
"01488199999","2010-11-23T17:50:00","4","61.206389","1.828889","142.0","STATFJORD B OIL PLATFORM, NO","FM-15","ENFB ","V020","030,1,N,0118,1","00270,1,9,N","011265,1,N,1","+0030,1","+0020,1","99999,9","61,1",,"08,1,+00270,1,99,9",,,"08,99,1,99,9,99,9,99999,9,99,9,99,9","10108,1,99999,9","0175,1","MET076METAR ENFB 231750Z AUTO 03023G34KT 9999NDV -RA OVC009/// 03/02 Q1011 W///S5;",
"01488199999","2010-11-23T18:20:00","4","61.206389","1.828889","142.0","STATFJORD B OIL PLATFORM, NO","FM-15","ENFB ","V020","030,1,N,0170,1","01140,1,9,N","011265,1,N,1","+0040,1","+9999,9","99999,9",,,"08,1,+01140,1,99,9",,,"08,99,1,99,9,99,9,99999,9,99,9,99,9","10108,1,99999,9",,"MET069METAR ENFB 231820Z AUTO 03033KT 9999NDV OVC038/// 04/// Q1011 W///S5;",
"01488199999","2010-11-23T18:50:00","4","61.206389","1.828889","142.0","STATFJORD B OIL PLATFORM, NO","FM-15","ENFB ","V020","030,1,N,0165,1","22000,1,9,N","011265,1,N,1","+0040,1","+9999,9","99999,9",,,"02,1,+01800,1,99,9",,,"02,99,1,99,9,99,9,99999,9,99,9,99,9","10108,1,99999,9",,"MET069METAR ENFB 231850Z AUTO 03032KT 9999NDV FEW069/// 04/// Q1011 W///S5;",
"01488199999","2010-11-23T19:20:00","4","61.206389","1.828889","142.0","STATFJORD B OIL PLATFORM, NO","FM-15","ENFB ","V020","030,1,N,0170,1","22000,1,9,N","011265,1,N,1","+0040,1","-0010,1","99999,9",,,"04,1,+00930,1,99,9",,,"04,99,1,99,9,99,9,99999,9,99,9,99,9","10108,1,99999,9",,"MET070METAR ENFB 231920Z AUTO 03033KT 9999NDV SCT031/// 04/M01 Q1011 W///S5;",
"01488199999","2010-11-23T19:50:00","4","61.206389","1.828889","142.0","STATFJORD B OIL PLATFORM, NO","FM-15","ENFB ","V020","030,1,N,0159,1","01500,1,9,N","011265,1,N,1","+0040,1","-0020,1","99999,9",,,"04,1,+00900,1,99,9","07,1,+01500,1,99,9",,"07,99,1,99,9,99,9,99999,9,99,9,99,9","10108,1,99999,9",,"MET080METAR ENFB 231950Z AUTO 03031KT 9999NDV SCT030/// BKN059/// 04/M02 Q1011 W///S5;",
"01488199999","2010-11-23T20:20:00","4","61.206389","1.828889","142.0","STATFJORD B OIL PLATFORM, NO","FM-15","ENFB ","V020","040,1,N,0165,1","01020,1,9,N","011265,1,N,1","+0040,1","-0040,1","99999,9",,,"07,1,+01020,1,99,9",,,"07,99,1,99,9,99,9,99999,9,99,9,99,9","10108,1,99999,9",,"MET070METAR ENFB 232020Z AUTO 04032KT 9999NDV BKN034/// 04/M04 Q1011 W///S5;",
"01488199999","2010-11-23T20:50:00","4","61.206389","1.828889","142.0","STATFJORD B OIL PLATFORM, NO","FM-15","ENFB ","V020","030,1,N,0149,1","22000,1,9,N","011265,1,N,1","+0040,1","-0020,1","99999,9","81,1",,"02,1,+00840,1,99,9","04,1,+00960,1,99,9",,"04,99,1,99,9,99,9,99999,9,99,9,99,9","10108,1,99999,9",,"MET086METAR ENFB 232050Z AUTO 03029KT 9999NDV -SHRA FEW028/// SCT032/// 04/M02 Q1011 W///S5;",
"01488199999","2010-11-23T21:20:00","4","61.206389","1.828889","142.0","STATFJORD B OIL PLATFORM, NO","FM-15","ENFB ","V020","020,1,N,0159,1","01020,1,9,N","011265,1,N,1","+0030,1","-0020,1","99999,9",,,"02,1,+00840,1,99,9","07,1,+01020,1,99,9",,"07,99,1,99,9,99,9,99999,9,99,9,99,9","10108,1,99999,9",,"MET080METAR ENFB 232120Z AUTO 02031KT 9999NDV FEW028/// BKN034/// 03/M02 Q1011 W///S5;",
"01488199999","2010-11-23T21:50:00","4","61.206389","1.828889","142.0","STATFJORD B OIL PLATFORM, NO","FM-15","ENFB ","V020","020,1,N,0139,1","01080,1,9,N","011265,1,N,1","+0030,1","-0020,1","99999,9",,,"07,1,+01080,1,99,9",,,"07,99,1,99,9,99,9,99999,9,99,9,99,9","10108,1,99999,9","0195,1","MET073METAR ENFB 232150Z AUTO 02027G38KT 9999NDV BKN036/// 03/M02 Q1011 W///S6;",
"01488199999","2010-11-23T22:20:00","4","61.206389","1.828889","142.0","STATFJORD B OIL PLATFORM, NO","FM-15","ENFB ","V020","030,1,N,0159,1","01500,1,9,N","011265,1,N,1","+0040,1","-0050,1","99999,9",,,"04,1,+01260,1,99,9","07,1,+01500,1,99,9","07,1,+02100,1,99,9","07,99,1,99,9,99,9,99999,9,99,9,99,9","10102,1,99999,9",,"MET090METAR ENFB 232220Z AUTO 03031KT 9999NDV SCT042/// BKN054/// BKN074/// 04/M05 Q1010 W///S5;",
"01488199999","2010-11-23T22:50:00","4","61.206389","1.828889","142.0","STATFJORD B OIL PLATFORM, NO","FM-15","ENFB ","V020","040,1,N,0129,1","00870,1,9,N","011265,1,N,1","+0040,1","-0010,1","99999,9",,,"07,1,+00870,1,99,9",,,"07,99,1,99,9,99,9,99999,9,99,9,99,9","10108,1,99999,9",,"MET070METAR ENFB 232250Z AUTO 04025KT 9999NDV BKN029/// 04/M01 Q1011 W///S5;",
"01488199999","2010-11-23T23:20:00","4","61.206389","1.828889","142.0","STATFJORD B OIL PLATFORM, NO","FM-15","ENFB ","V020","020,1,N,0144,1","22000,1,9,N","011265,1,N,1","+0030,1","-0020,1","99999,9",,,"02,1,+00960,1,99,9","04,1,+01440,1,99,9",,"04,99,1,99,9,99,9,99999,9,99,9,99,9","10108,1,99999,9",,"MET080METAR ENFB 232320Z AUTO 02028KT 9999NDV FEW032/// SCT048/// 03/M02 Q1011 W///S5;",
"01488199999","2010-11-24T00:20:00","4","61.206389","1.828889","142.0","STATFJORD B OIL PLATFORM, NO","FM-15","ENFB ","V020","999,9,9,9999,9","01800,1,9,N","011265,1,N,1","+0030,1","+0000,1","99999,9","81,1",,"04,1,+00630,1,99,9","07,1,+01800,1,99,9",,"07,99,1,99,9,99,9,99999,9,99,9,99,9","10108,1,99999,9",,"MET092METAR ENFB 240020Z AUTO /////KT 9999NDV -SHRA SCT021/// BKN067/// 03/00 Q1011 RESHRA W///S5;",
"01488199999","2010-11-24T00:50:00","4","61.206389","1.828889","142.0","STATFJORD B OIL PLATFORM, NO","FM-15","ENFB ","V020","050,1,N,0129,1","00600,1,9,N","011265,1,N,1","+0030,1","+0000,1","99999,9",,,"07,1,+00600,1,99,9",,,"07,99,1,99,9,99,9,99999,9,99,9,99,9","10108,1,99999,9",,"MET069METAR ENFB 240050Z AUTO 05025KT 9999NDV BKN020/// 03/00 Q1011 W///S/;",
"01488199999","2010-11-24T01:20:00","4","61.206389","1.828889","142.0","STATFJORD B OIL PLATFORM, NO","FM-15","ENFB ","V020","999,9,9,9999,9","00510,1,9,N","011265,1,N,1","+0030,1","+0000,1","99999,9",,,"07,1,+00510,1,99,9","07,1,+03900,1,99,9",,"07,99,1,99,9,99,9,99999,9,99,9,99,9","10108,1,99999,9",,"MET079METAR ENFB 240120Z AUTO /////KT 9999NDV BKN017/// BKN130/// 03/00 Q1011 W///S5;",
"01488199999","2010-11-24T01:50:00","4","61.206389","1.828889","142.0","STATFJORD B OIL PLATFORM, NO","FM-15","ENFB ","V020","999,9,9,9999,9","00300,1,9,N","006000,1,N,1","+0020,1","-0010,1","99999,9","81,1",,"07,1,+00300,1,99,9","07,1,+04200,1,99,9",,"07,99,1,99,9,99,9,99999,9,99,9,99,9","10108,1,99999,9",,"MET086METAR ENFB 240150Z AUTO /////KT 6000NDV -SHRA BKN010/// BKN140/// 02/M01 Q1011 W///S5;",
"01488199999","2010-11-24T02:20:00","4","61.206389","1.828889","142.0","STATFJORD B OIL PLATFORM, NO","FM-15","ENFB ","V020","040,1,N,0103,1","01050,1,C,N","009000,1,N,1","+0020,1","+0000,1","99999,9","81,1",,"02,1,+00180,1,99,9","04,1,+01050,1,99,9","07,1,+01500,1,99,9","07,99,1,99,9,99,9,99999,9,99,9,99,9","10108,1,99999,9",,"MET095METAR ENFB 240220Z AUTO 04020KT 9000NDV -SHRA FEW006/// SCT035/// BKN055/// 02/00 Q1011 W///S5;",
"01488199999","2010-11-24T02:50:00","4","61.206389","1.828889","142.0","STATFJORD B OIL PLATFORM, NO","FM-15","ENFB ","V020","020,1,N,0108,1","00390,1,9,N","011265,1,N,1","+0020,1","+0000,1","99999,9","81,1",,"02,1,+00300,1,99,9","07,1,+00390,1,99,9",,"07,99,1,99,9,99,9,99999,9,99,9,99,9","10108,1,99999,9",,"MET092METAR ENFB 240250Z AUTO 02021KT 9999NDV -SHRA FEW010/// BKN013/// 02/00 Q1011 RESHRA W///S5;",
"01488199999","2010-11-24T03:20:00","4","61.206389","1.828889","142.0","STATFJORD B OIL PLATFORM, NO","FM-15","ENFB ","V020","040,1,N,0129,1","00390,1,9,N","011265,1,N,1","+0020,1","+0000,1","99999,9","81,1",,"07,1,+00390,1,99,9","07,1,+01800,1,99,9",,"07,99,1,99,9,99,9,99999,9,99,9,99,9","10102,1,99999,9",,"MET085METAR ENFB 240320Z AUTO 04025KT 9999NDV -SHRA BKN013/// BKN068/// 02/00 Q1010 W///S5;",
"01488199999","2010-11-24T03:50:00","4","61.206389","1.828889","142.0","STATFJORD B OIL PLATFORM, NO","FM-15","ENFB ","V020","040,1,N,0129,1","00360,1,9,N","011265,1,N,1","+0020,1","+0000,1","99999,9","81,1",,"07,1,+00360,1,99,9","07,1,+01110,1,99,9",,"07,99,1,99,9,99,9,99999,9,99,9,99,9","10102,1,99999,9",,"MET085METAR ENFB 240350Z AUTO 04025KT 9999NDV -SHRA BKN012/// BKN037/// 02/00 Q1010 W///S5;",
"01488199999","2010-11-24T04:20:00","4","61.206389","1.828889","142.0","STATFJORD B OIL PLATFORM, NO","FM-15","ENFB ","V020","030,1,N,0123,1","22000,1,9,N","011265,1,N,1","+0020,1","-0010,1","99999,9",,,"02,1,+00480,1,99,9",,,"02,99,1,99,9,99,9,99999,9,99,9,99,9","10108,1,99999,9",,"MET070METAR ENFB 240420Z AUTO 03024KT 9999NDV FEW016/// 02/M01 Q1011 W///S5;",
"01488199999","2010-11-24T04:50:00","4","61.206389","1.828889","142.0","STATFJORD B OIL PLATFORM, NO","FM-15","ENFB ","V020","030,1,N,0139,1","00810,1,9,N","008000,1,N,1","+0020,1","-0010,1","99999,9","61,1",,"07,1,+00810,1,99,9",,,"07,99,1,99,9,99,9,99999,9,99,9,99,9","10108,1,99999,9",,"MET074METAR ENFB 240450Z AUTO 03027KT 8000NDV -RA BKN027/// 02/M01 Q1011 W///S5;",
"01488199999","2010-11-24T05:20:00","4","61.206389","1.828889","142.0","STATFJORD B OIL PLATFORM, NO","FM-15","ENFB ","V020","040,1,N,0149,1","22000,1,9,N","011265,1,N,1","+0030,1","+9999,9","99999,9",,,"02,1,+01050,1,99,9","04,1,+01380,1,99,9",,"04,99,1,99,9,99,9,99999,9,99,9,99,9","10108,1,99999,9",,"MET079METAR ENFB 240520Z AUTO 04029KT 9999NDV FEW035/// SCT046/// 03/// Q1011 W///S5;",
"01488199999","2010-11-24T05:50:00","4","61.206389","1.828889","142.0","STATFJORD B OIL PLATFORM, NO","FM-15","ENFB ","V020","040,1,N,0144,1","22000,1,9,N","011265,1,N,1","+0030,1","-0060,1","99999,9",,,"04,1,+01500,1,99,9",,,"04,99,1,99,9,99,9,99999,9,99,9,99,9","10108,1,99999,9",,"MET070METAR ENFB 240550Z AUTO 04028KT 9999NDV SCT051/// 03/M06 Q1011 W///S5;",
"01488199999","2010-11-24T06:20:00","4","61.206389","1.828889","142.0","STATFJORD B OIL PLATFORM, NO","FM-15","ENFB ","V020","040,1,N,0139,1","01440,1,9,N","011265,1,N,1","+0030,1","-0060,1","99999,9",,,"07,1,+01440,1,99,9",,,"07,99,1,99,9,99,9,99999,9,99,9,99,9","10108,1,99999,9",,"MET070METAR ENFB 240620Z AUTO 04027KT 9999NDV BKN048/// 03/M06 Q1011 W///S5;",
"01488199999","2010-11-24T06:50:00","4","61.206389","1.828889","142.0","STATFJORD B OIL PLATFORM, NO","FM-15","ENFB ","V020","050,1,N,0123,1","01350,1,9,N","011265,1,N,1","+0030,1","-0060,1","99999,9",,,"07,1,+01350,1,99,9",,,"07,99,1,99,9,99,9,99999,9,99,9,99,9","10108,1,99999,9",,"MET070METAR ENFB 240650Z AUTO 05024KT 9999NDV BKN045/// 03/M06 Q1011 W///S6;",
"01488199999","2010-11-24T07:20:00","4","61.206389","1.828889","142.0","STATFJORD B OIL PLATFORM, NO","FM-15","ENFB ","V020","050,1,N,0134,1","01410,1,9,N","011265,1,N,1","+0030,1","-0070,1","99999,9",,,"07,1,+01410,1,99,9",,,"07,99,1,99,9,99,9,99999,9,99,9,99,9","10108,1,99999,9",,"MET070METAR ENFB 240720Z AUTO 05026KT 9999NDV BKN047/// 03/M07 Q1011 W///S5;",
"01488199999","2010-11-24T07:50:00","4","61.206389","1.828889","142.0","STATFJORD B OIL PLATFORM, NO","FM-15","ENFB ","V020","050,1,N,0129,1","01500,1,9,N","011265,1,N,1","+0030,1","-0080,1","99999,9",,,"07,1,+01500,1,99,9",,,"07,99,1,99,9,99,9,99999,9,99,9,99,9","10119,1,99999,9",,"MET070METAR ENFB 240750Z AUTO 05025KT 9999NDV BKN050/// 03/M08 Q1012 W///S6;",
"01488199999","2010-11-24T08:20:00","4","61.206389","1.828889","142.0","STATFJORD B OIL PLATFORM, NO","FM-15","ENFB ","V020","040,1,N,0123,1","22000,1,9,N","011265,1,N,1","+0030,1","-0080,1","99999,9",,,"02,1,+01440,1,99,9","04,1,+01500,1,99,9",,"04,99,1,99,9,99,9,99999,9,99,9,99,9","10119,1,99999,9",,"MET080METAR ENFB 240820Z AUTO 04024KT 9999NDV FEW048/// SCT059/// 03/M08 Q1012 W///S6;",
"01488199999","2010-11-24T08:50:00","4","61.206389","1.828889","142.0","STATFJORD B OIL PLATFORM, NO","FM-15","ENFB ","V020","040,1,N,0118,1","22000,1,9,N","011265,1,N,1","+0030,1","-0090,1","99999,9",,,"02,1,+01440,1,99,9",,,"02,99,1,99,9,99,9,99999,9,99,9,99,9","10119,1,99999,9",,"MET070METAR ENFB 240850Z AUTO 04023KT 9999NDV FEW048/// 03/M09 Q1012 W///S6;",
"01488199999","2010-11-24T09:20:00","4","61.206389","1.828889","142.0","STATFJORD B OIL PLATFORM, NO","FM-15","ENFB ","V020","040,1,N,0129,1","22000,1,9,N","011265,1,N,1","+0030,1","-0090,1","99999,9",,,"04,1,+01500,1,99,9",,,"04,99,1,99,9,99,9,99999,9,99,9,99,9","10119,1,99999,9",,"MET070METAR ENFB 240920Z AUTO 04025KT 9999NDV SCT052/// 03/M09 Q1012 W///S5;",
"01488199999","2010-11-24T09:50:00","4","61.206389","1.828889","142.0","STATFJORD B OIL PLATFORM, NO","FM-15","ENFB ","V020","040,1,N,0134,1","22000,1,9,N","011265,1,N,1","+0030,1","-0070,1","99999,9",,,"04,1,+01500,1,99,9",,,"04,99,1,99,9,99,9,99999,9,99,9,99,9","10119,1,99999,9",,"MET070METAR ENFB 240950Z AUTO 04026KT 9999NDV SCT052/// 03/M07 Q1012 W///S5;",
"01488199999","2010-11-24T10:20:00","4","61.206389","1.828889","142.0","STATFJORD B OIL PLATFORM, NO","FM-15","ENFB ","V020","030,1,N,0144,1","01800,1,9,N","011265,1,N,1","+0030,1","-0080,1","99999,9",,,"04,1,+01500,1,99,9","07,1,+01800,1,99,9",,"07,99,1,99,9,99,9,99999,9,99,9,99,9","10108,1,99999,9",,"MET080METAR ENFB 241020Z AUTO 03028KT 9999NDV SCT050/// BKN067/// 03/M08 Q1011 W///S5;",
"01488199999","2010-11-24T10:50:00","4","61.206389","1.828889","142.0","STATFJORD B OIL PLATFORM, NO","FM-15","ENFB ","V020","030,1,N,0175,1","01140,1,9,N","005000,1,N,1","+0010,1","-0040,1","99999,9","61,1",,"07,1,+01140,1,99,9",,,"07,99,1,99,9,99,9,99999,9,99,9,99,9","10108,1,99999,9",,"MET074METAR ENFB 241050Z AUTO 03034KT 5000NDV -RA BKN038/// 01/M04 Q1011 W///S5;",
"01488199999","2010-11-24T11:20:00","4","61.206389","1.828889","142.0","STATFJORD B OIL PLATFORM, NO","FM-15","ENFB ","V020","030,1,N,0180,1","22000,1,9,N","011265,1,N,1","+0020,1","-0100,1","99999,9",,,"02,1,+00690,1,99,9",,,"02,99,1,99,9,99,9,99999,9,99,9,99,9","10102,1,99999,9",,"MET070METAR ENFB 241120Z AUTO 03035KT 9999NDV FEW023/// 02/M10 Q1010 W///S5;",
"01488199999","2010-11-24T11:50:00","4","61.206389","1.828889","142.0","STATFJORD B OIL PLATFORM, NO","FM-15","ENFB ","V020","030,1,N,0170,1","01380,1,9,N","011265,1,N,1","+0020,1","-0060,1","99999,9",,,"07,1,+01380,1,99,9",,,"07,99,1,99,9,99,9,99999,9,99,9,99,9","10108,1,99999,9",,"MET070METAR ENFB 241150Z AUTO 03033KT 9999NDV BKN046/// 02/M06 Q1011 W///S5;",
"01488199999","2010-11-24T12:20:00","4","61.206389","1.828889","142.0","STATFJORD B OIL PLATFORM, NO","FM-15","ENFB ","V020","040,1,N,0175,1","01200,1,9,N","011265,1,N,1","+0020,1","-0080,1","99999,9",,,"07,1,+01200,1,99,9",,,"07,99,1,99,9,99,9,99999,9,99,9,99,9","10102,1,99999,9",,"MET070METAR ENFB 241220Z AUTO 04034KT 9999NDV BKN040/// 02/M08 Q1010 W///S5;",
"01488199999","2010-11-24T12:50:00","4","61.206389","1.828889","142.0","STATFJORD B OIL PLATFORM, NO","FM-15","ENFB ","V020","030,1,N,0175,1","01170,1,9,N","011265,1,N,1","+0020,1","-0060,1","99999,9",,,"07,1,+01170,1,99,9",,,"07,99,1,99,9,99,9,99999,9,99,9,99,9","10108,1,99999,9",,"MET070METAR ENFB 241250Z AUTO 03034KT 9999NDV BKN039/// 02/M06 Q1011 W///S5;",
"01488199999","2010-11-24T13:20:00","4","61.206389","1.828889","142.0","STATFJORD B OIL PLATFORM, NO","FM-15","ENFB ","V020","040,1,N,0175,1","01170,1,9,N","011265,1,N,1","+0020,1","-0070,1","99999,9",,,"07,1,+01170,1,99,9",,,"07,99,1,99,9,99,9,99999,9,99,9,99,9","10108,1,99999,9",,"MET070METAR ENFB 241320Z AUTO 04034KT 9999NDV BKN039/// 02/M07 Q1011 W///S5;",
"01488199999","2010-11-24T13:50:00","4","61.206389","1.828889","142.0","STATFJORD B OIL PLATFORM, NO","FM-15","ENFB ","V020","040,1,N,0180,1","01230,1,9,N","011265,1,N,1","+0020,1","-0070,1","99999,9",,,"07,1,+01230,1,99,9",,,"07,99,1,99,9,99,9,99999,9,99,9,99,9","10108,1,99999,9",,"MET070METAR ENFB 241350Z AUTO 04035KT 9999NDV BKN041/// 02/M07 Q1011 W///S5;",
"01488199999","2010-11-24T14:20:00","4","61.206389","1.828889","142.0","STATFJORD B OIL PLATFORM, NO","FM-15","ENFB ","V020","040,1,N,0185,1","01170,1,9,N","011265,1,N,1","+0020,1","-0070,1","99999,9",,,"07,1,+01170,1,99,9",,,"07,99,1,99,9,99,9,99999,9,99,9,99,9","10102,1,99999,9",,"MET070METAR ENFB 241420Z AUTO 04036KT 9999NDV BKN039/// 02/M07 Q1010 W///S5;",
"01488199999","2010-11-24T14:50:00","4","61.206389","1.828889","142.0","STATFJORD B OIL PLATFORM, NO","FM-15","ENFB ","V020","050,1,N,0180,1","01080,1,9,N","011265,1,N,1","+0020,1","-0060,1","99999,9",,,"07,1,+01080,1,99,9",,,"07,99,1,99,9,99,9,99999,9,99,9,99,9","10102,1,99999,9",,"MET070METAR ENFB 241450Z AUTO 05035KT 9999NDV BKN036/// 02/M06 Q1010 W///S5;",
"01488199999","2010-11-24T15:20:00","4","61.206389","1.828889","142.0","STATFJORD B OIL PLATFORM, NO","FM-15","ENFB ","V020","050,1,N,0175,1","01080,1,9,N","011265,1,N,1","+0010,1","-0060,1","99999,9",,,"07,1,+01080,1,99,9",,,"07,99,1,99,9,99,9,99999,9,99,9,99,9","10108,1,99999,9",,"MET070METAR ENFB 241520Z AUTO 05034KT 9999NDV BKN036/// 01/M06 Q1011 W///S5;",
"01488199999","2010-11-24T15:50:00","4","61.206389","1.828889","142.0","STATFJORD B OIL PLATFORM, NO","FM-15","ENFB ","V020","050,1,N,0170,1","01140,1,9,N","011265,1,N,1","+0020,1","-0060,1","99999,9",,,"07,1,+01140,1,99,9",,,"07,99,1,99,9,99,9,99999,9,99,9,99,9","10108,1,99999,9","0221,1","MET073METAR ENFB 241550Z AUTO 05033G43KT 9999NDV BKN038/// 02/M06 Q1011 W///S5;",
"01488199999","2010-11-24T16:20:00","4","61.206389","1.828889","142.0","STATFJORD B OIL PLATFORM, NO","FM-15","ENFB ","V020","040,1,N,0180,1","01110,1,9,N","011265,1,N,1","+0020,1","-0060,1","99999,9",,,"07,1,+01110,1,99,9",,,"07,99,1,99,9,99,9,99999,9,99,9,99,9","10108,1,99999,9",,"MET070METAR ENFB 241620Z AUTO 04035KT 9999NDV BKN037/// 02/M06 Q1011 W///S6;",
"01488199999","2010-11-24T16:50:00","4","61.206389","1.828889","142.0","STATFJORD B OIL PLATFORM, NO","FM-15","ENFB ","V020","040,1,N,0180,1","01080,1,9,N","011265,1,N,1","+0020,1","-0070,1","99999,9",,,"07,1,+01080,1,99,9",,,"07,99,1,99,9,99,9,99999,9,99,9,99,9","10108,1,99999,9",,"MET070METAR ENFB 241650Z AUTO 04035KT 9999NDV BKN036/// 02/M07 Q1011 W///S6;",
"01488199999","2010-11-24T17:20:00","4","61.206389","1.828889","142.0","STATFJORD B OIL PLATFORM, NO","FM-15","ENFB ","V020","040,1,N,0180,1","01020,1,9,N","011265,1,N,1","+0020,1","-0060,1","99999,9",,,"07,1,+01020,1,99,9",,,"07,99,1,99,9,99,9,99999,9,99,9,99,9","10119,1,99999,9",,"MET070METAR ENFB 241720Z AUTO 04035KT 9999NDV BKN034/// 02/M06 Q1012 W///S6;",
"01488199999","2010-11-24T17:50:00","4","61.206389","1.828889","142.0","STATFJORD B OIL PLATFORM, NO","FM-15","ENFB ","V020","040,1,N,0185,1","00960,1,9,N","011265,1,N,1","+0020,1","-0050,1","99999,9",,,"07,1,+00960,1,99,9",,,"07,99,1,99,9,99,9,99999,9,99,9,99,9","10119,1,99999,9",,"MET070METAR ENFB 241750Z AUTO 04036KT 9999NDV BKN032/// 02/M05 Q1012 W///S6;",
"01488199999","2010-11-24T18:20:00","4","61.206389","1.828889","142.0","STATFJORD B OIL PLATFORM, NO","FM-15","ENFB ","V020","050,1,N,0180,1","01050,1,9,N","011265,1,N,1","+0020,1","-0070,1","99999,9",,,"07,1,+01050,1,99,9",,,"07,99,1,99,9,99,9,99999,9,99,9,99,9","10119,1,99999,9",,"MET070METAR ENFB 241820Z AUTO 05035KT 9999NDV BKN035/// 02/M07 Q1012 W///S5;",
"01488199999","2010-11-24T18:50:00","4","61.206389","1.828889","142.0","STATFJORD B OIL PLATFORM, NO","FM-15","ENFB ","V020","040,1,N,0185,1","01080,1,9,N","011265,1,N,1","+0020,1","-0060,1","99999,9",,,"07,1,+01080,1,99,9",,,"07,99,1,99,9,99,9,99999,9,99,9,99,9","10119,1,99999,9",,"MET070METAR ENFB 241850Z AUTO 04036KT 9999NDV BKN036/// 02/M06 Q1012 W///S6;",
"01488199999","2010-11-24T19:20:00","4","61.206389","1.828889","142.0","STATFJORD B OIL PLATFORM, NO","FM-15","ENFB ","V020","040,1,N,0185,1","01080,1,9,N","011265,1,N,1","+0020,1","-0090,1","99999,9",,,"07,1,+01080,1,99,9",,,"07,99,1,99,9,99,9,99999,9,99,9,99,9","10119,1,99999,9",,"MET070METAR ENFB 241920Z AUTO 04036KT 9999NDV BKN036/// 02/M09 Q1012 W///S6;",
"01488199999","2010-11-24T19:50:00","4","61.206389","1.828889","142.0","STATFJORD B OIL PLATFORM, NO","FM-15","ENFB ","V020","040,1,N,0185,1","01140,1,9,N","011265,1,N,1","+0020,1","-0070,1","99999,9",,,"07,1,+01140,1,99,9",,,"07,99,1,99,9,99,9,99999,9,99,9,99,9","10119,1,99999,9",,"MET070METAR ENFB 241950Z AUTO 04036KT 9999NDV BKN038/// 02/M07 Q1012 W///S6;",
"01488199999","2010-11-24T20:20:00","4","61.206389","1.828889","142.0","STATFJORD B OIL PLATFORM, NO","FM-15","ENFB ","V020","040,1,N,0185,1","01260,1,9,N","011265,1,N,1","+0010,1","-0080,1","99999,9",,,"07,1,+01260,1,99,9",,,"07,99,1,99,9,99,9,99999,9,99,9,99,9","10119,1,99999,9",,"MET070METAR ENFB 242020Z AUTO 04036KT 9999NDV BKN042/// 01/M08 Q1012 W///S6;",
"01488199999","2010-11-24T20:50:00","4","61.206389","1.828889","142.0","STATFJORD B OIL PLATFORM, NO","FM-15","ENFB ","V020","030,1,N,0175,1","01200,1,9,N","011265,1,N,1","+0010,1","-0060,1","99999,9",,,"07,1,+01200,1,99,9",,,"07,99,1,99,9,99,9,99999,9,99,9,99,9","10119,1,99999,9",,"MET070METAR ENFB 242050Z AUTO 03034KT 9999NDV BKN040/// 01/M06 Q1012 W///S6;",
"01488199999","2010-11-24T21:20:00","4","61.206389","1.828889","142.0","STATFJORD B OIL PLATFORM, NO","FM-15","ENFB ","V020","030,1,N,0180,1","22000,1,9,N","011265,1,N,1","+0010,1","-0090,1","99999,9",,,"04,1,+01050,1,99,9",,,"04,99,1,99,9,99,9,99999,9,99,9,99,9","10119,1,99999,9",,"MET070METAR ENFB 242120Z AUTO 03035KT 9999NDV SCT035/// 01/M09 Q1012 W///S6;",
"01488199999","2010-11-24T21:50:00","4","61.206389","1.828889","142.0","STATFJORD B OIL PLATFORM, NO","FM-15","ENFB ","V020","030,1,N,0170,1","01140,1,9,N","011265,1,N,1","+0010,1","-0090,1","99999,9",,,"07,1,+01140,1,99,9",,,"07,99,1,99,9,99,9,99999,9,99,9,99,9","10119,1,99999,9",,"MET070METAR ENFB 242150Z AUTO 03033KT 9999NDV BKN038/// 01/M09 Q1012 W///S6;",
"01488199999","2010-11-24T22:20:00","4","61.206389","1.828889","142.0","STATFJORD B OIL PLATFORM, NO","FM-15","ENFB ","V020","030,1,N,0165,1","01170,1,9,N","011265,1,N,1","+0010,1","-0050,1","99999,9",,,"07,1,+01170,1,99,9",,,"07,99,1,99,9,99,9,99999,9,99,9,99,9","10119,1,99999,9",,"MET070METAR ENFB 242220Z AUTO 03032KT 9999NDV BKN039/// 01/M05 Q1012 W///S6;",
"01488199999","2010-11-24T22:50:00","4","61.206389","1.828889","142.0","STATFJORD B OIL PLATFORM, NO","FM-15","ENFB ","V020","040,1,N,0170,1","01110,1,9,N","011265,1,N,1","+0010,1","-0070,1","99999,9",,,"07,1,+01110,1,99,9",,,"07,99,1,99,9,99,9,99999,9,99,9,99,9","10119,1,99999,9",,"MET070METAR ENFB 242250Z AUTO 04033KT 9999NDV BKN037/// 01/M07 Q1012 W///S6;",
"01488199999","2010-11-24T23:20:00","4","61.206389","1.828889","142.0","STATFJORD B OIL PLATFORM, NO","FM-15","ENFB ","V020","040,1,N,0170,1","01050,1,9,N","011265,1,N,1","+0010,1","-0070,1","99999,9",,,"07,1,+01050,1,99,9",,,"07,99,1,99,9,99,9,99999,9,99,9,99,9","10119,1,99999,9",,"MET070METAR ENFB 242320Z AUTO 04033KT 9999NDV BKN035/// 01/M07 Q1012 W///S6;",
"01488199999","2010-11-24T23:50:00","4","61.206389","1.828889","142.0","STATFJORD B OIL PLATFORM, NO","FM-15","ENFB ","V020","040,1,N,0159,1","01110,1,9,N","011265,1,N,1","+0010,1","-0070,1","99999,9",,,"07,1,+01110,1,99,9",,,"07,99,1,99,9,99,9,99999,9,99,9,99,9","10119,1,99999,9",,"MET070METAR ENFB 242350Z AUTO 04031KT 9999NDV BKN037/// 01/M07 Q1012 W///S6;",
"01488199999","2010-11-25T00:20:00","4","61.206389","1.828889","142.0","STATFJORD B OIL PLATFORM, NO","FM-15","ENFB ","V020","040,1,N,0165,1","01140,1,9,N","011265,1,N,1","+0010,1","-0070,1","99999,9",,,"07,1,+01140,1,99,9",,,"07,99,1,99,9,99,9,99999,9,99,9,99,9","10119,1,99999,9",,"MET070METAR ENFB 250020Z AUTO 04032KT 9999NDV BKN038/// 01/M07 Q1012 W///S6;",
"01488199999","2010-11-25T00:50:00","4","61.206389","1.828889","142.0","STATFJORD B OIL PLATFORM, NO","FM-15","ENFB ","V020","030,1,N,0149,1","01110,1,9,N","011265,1,N,1","+0020,1","-0060,1","99999,9",,,"07,1,+01110,1,99,9",,,"07,99,1,99,9,99,9,99999,9,99,9,99,9","10119,1,99999,9",,"MET070METAR ENFB 250050Z AUTO 03029KT 9999NDV BKN037/// 02/M06 Q1012 W///S6;",
"01488199999","2010-11-25T01:20:00","4","61.206389","1.828889","142.0","STATFJORD B OIL PLATFORM, NO","FM-15","ENFB ","V020","040,1,N,0144,1","01110,1,9,N","011265,1,N,1","+0020,1","-0050,1","99999,9",,,"07,1,+01110,1,99,9",,,"07,99,1,99,9,99,9,99999,9,99,9,99,9","10119,1,99999,9",,"MET070METAR ENFB 250120Z AUTO 04028KT 9999NDV BKN037/// 02/M05 Q1012 W///S5;",
"01488199999","2010-11-25T01:50:00","4","61.206389","1.828889","142.0","STATFJORD B OIL PLATFORM, NO","FM-15","ENFB ","V020","040,1,N,0154,1","01200,1,9,N","011265,1,N,1","+0020,1","-0070,1","99999,9",,,"07,1,+01200,1,99,9",,,"07,99,1,99,9,99,9,99999,9,99,9,99,9","10119,1,99999,9",,"MET070METAR ENFB 250150Z AUTO 04030KT 9999NDV BKN040/// 02/M07 Q1012 W///S5;",
"01488199999","2010-11-25T02:20:00","4","61.206389","1.828889","142.0","STATFJORD B OIL PLATFORM, NO","FM-15","ENFB ","V020","040,1,N,0139,1","01170,1,9,N","011265,1,N,1","+0020,1","-0060,1","99999,9",,,"07,1,+01170,1,99,9",,,"07,99,1,99,9,99,9,99999,9,99,9,99,9","10119,1,99999,9",,"MET070METAR ENFB 250220Z AUTO 04027KT 9999NDV BKN039/// 02/M06 Q1012 W///S5;",
"01488199999","2010-11-25T02:50:00","4","61.206389","1.828889","142.0","STATFJORD B OIL PLATFORM, NO","FM-15","ENFB ","V020","030,1,N,0139,1","01200,1,9,N","011265,1,N,1","+0020,1","-0070,1","99999,9",,,"07,1,+01200,1,99,9",,,"07,99,1,99,9,99,9,99999,9,99,9,99,9","10119,1,99999,9",,"MET070METAR ENFB 250250Z AUTO 03027KT 9999NDV BKN040/// 02/M07 Q1012 W///S5;",
"01488199999","2010-11-25T03:20:00","4","61.206389","1.828889","142.0","STATFJORD B OIL PLATFORM, NO","FM-15","ENFB ","V020","030,1,N,0149,1","22000,1,9,N","011265,1,N,1","+0020,1","-0080,1","99999,9",,,"04,1,+01200,1,99,9",,,"04,99,1,99,9,99,9,99999,9,99,9,99,9","10119,1,99999,9",,"MET070METAR ENFB 250320Z AUTO 03029KT 9999NDV SCT040/// 02/M08 Q1012 W///S5;",
"01488199999","2010-11-25T03:50:00","4","61.206389","1.828889","142.0","STATFJORD B OIL PLATFORM, NO","FM-15","ENFB ","V020","030,1,N,0134,1","01200,1,9,N","011265,1,N,1","+0010,1","-0070,1","99999,9",,,"07,1,+01200,1,99,9",,,"07,99,1,99,9,99,9,99999,9,99,9,99,9","10119,1,99999,9",,"MET070METAR ENFB 250350Z AUTO 03026KT 9999NDV BKN040/// 01/M07 Q1012 W///S5;",
"01488199999","2010-11-25T04:20:00","4","61.206389","1.828889","142.0","STATFJORD B OIL PLATFORM, NO","FM-15","ENFB ","V020","030,1,N,0139,1","01200,1,9,N","011265,1,N,1","+0020,1","-0070,1","99999,9",,,"07,1,+01200,1,99,9",,,"07,99,1,99,9,99,9,99999,9,99,9,99,9","10119,1,99999,9",,"MET070METAR ENFB 250420Z AUTO 03027KT 9999NDV BKN040/// 02/M07 Q1012 W///S5;",
"01488199999","2010-11-25T04:50:00","4","61.206389","1.828889","142.0","STATFJORD B OIL PLATFORM, NO","FM-15","ENFB ","V020","040,1,N,0129,1","01230,1,9,N","011265,1,N,1","+0020,1","-0060,1","99999,9",,,"07,1,+01230,1,99,9",,,"07,99,1,99,9,99,9,99999,9,99,9,99,9","10119,1,99999,9",,"MET070METAR ENFB 250450Z AUTO 04025KT 9999NDV BKN041/// 02/M06 Q1012 W///S5;",
"01488199999","2010-11-25T05:20:00","4","61.206389","1.828889","142.0","STATFJORD B OIL PLATFORM, NO","FM-15","ENFB ","V020","040,1,N,0129,1","01140,1,9,N","011265,1,N,1","+0020,1","-0060,1","99999,9","81,1",,"07,1,+01140,1,99,9",,,"07,99,1,99,9,99,9,99999,9,99,9,99,9","10119,1,99999,9",,"MET076METAR ENFB 250520Z AUTO 04025KT 9999NDV -SHRA BKN038/// 02/M06 Q1012 W///S5;",
"01488199999","2010-11-25T05:50:00","4","61.206389","1.828889","142.0","STATFJORD B OIL PLATFORM, NO","FM-15","ENFB ","V020","040,1,N,0129,1","01260,1,9,N","011265,1,N,1","+0020,1","-0080,1","99999,9",,,"07,1,+01260,1,99,9",,,"07,99,1,99,9,99,9,99999,9,99,9,99,9","10119,1,99999,9",,"MET070METAR ENFB 250550Z AUTO 04025KT 9999NDV BKN042/// 02/M08 Q1012 W///S5;",
"01488199999","2010-11-25T06:20:00","4","61.206389","1.828889","142.0","STATFJORD B OIL PLATFORM, NO","FM-15","ENFB ","V020","040,1,N,0123,1","01290,1,9,N","011265,1,N,1","+0020,1","-0070,1","99999,9",,,"07,1,+01290,1,99,9",,,"07,99,1,99,9,99,9,99999,9,99,9,99,9","10119,1,99999,9",,"MET070METAR ENFB 250620Z AUTO 04024KT 9999NDV BKN043/// 02/M07 Q1012 W///S5;",
"01488199999","2010-11-25T06:50:00","4","61.206389","1.828889","142.0","STATFJORD B OIL PLATFORM, NO","FM-15","ENFB ","V020","040,1,N,0113,1","01320,1,9,N","011265,1,N,1","+0020,1","-0070,1","99999,9",,,"07,1,+01320,1,99,9",,,"07,99,1,99,9,99,9,99999,9,99,9,99,9","10119,1,99999,9",,"MET070METAR ENFB 250650Z AUTO 04022KT 9999NDV BKN044/// 02/M07 Q1012 W///S5;",
"01488199999","2010-11-25T07:20:00","4","61.206389","1.828889","142.0","STATFJORD B OIL PLATFORM, NO","FM-15","ENFB ","V020","030,1,N,0113,1","22000,1,9,N","011265,1,N,1","+0020,1","-0090,1","99999,9",,,"02,1,+01320,1,99,9",,,"02,99,1,99,9,99,9,99999,9,99,9,99,9","10119,1,99999,9",,"MET070METAR ENFB 250720Z AUTO 03022KT 9999NDV FEW044/// 02/M09 Q1012 W///S5;",
"01488199999","2010-11-25T07:50:00","4","61.206389","1.828889","142.0","STATFJORD B OIL PLATFORM, NO","FM-15","ENFB ","V020","030,1,N,0108,1","22000,1,9,N","011265,1,N,1","+0010,1","-0090,1","99999,9",,,"02,1,+01470,1,99,9",,,"02,99,1,99,9,99,9,99999,9,99,9,99,9","10119,1,99999,9",,"MET070METAR ENFB 250750Z AUTO 03021KT 9999NDV FEW049/// 01/M09 Q1012 W///S5;",
"01488199999","2010-11-25T08:20:00","4","61.206389","1.828889","142.0","STATFJORD B OIL PLATFORM, NO","FM-15","ENFB ","V020","030,1,N,0108,1","22000,1,9,N","011265,1,N,1","+0020,1","-0090,1","99999,9",,,"02,1,+01440,1,99,9",,,"02,99,1,99,9,99,9,99999,9,99,9,99,9","10119,1,99999,9",,"MET070METAR ENFB 250820Z AUTO 03021KT 9999NDV FEW048/// 02/M09 Q1012 W///S5;",
"01488199999","2010-11-25T08:50:00","4","61.206389","1.828889","142.0","STATFJORD B OIL PLATFORM, NO","FM-15","ENFB ","V020","030,1,N,0103,1","01440,1,9,N","011265,1,N,1","+0020,1","-0090,1","99999,9",,,"07,1,+01440,1,99,9",,,"07,99,1,99,9,99,9,99999,9,99,9,99,9","10119,1,99999,9",,"MET070METAR ENFB 250850Z AUTO 03020KT 9999NDV BKN048/// 02/M09 Q1012 W///S5;",
"01488199999","2010-11-25T09:20:00","4","61.206389","1.828889","142.0","STATFJORD B OIL PLATFORM, NO","FM-15","ENFB ","V020","030,1,N,0087,1","01380,1,9,N","011265,1,N,1","+0010,1","-0090,1","99999,9",,,"07,1,+01380,1,99,9",,,"07,99,1,99,9,99,9,99999,9,99,9,99,9","10119,1,99999,9",,"MET070METAR ENFB 250920Z AUTO 03017KT 9999NDV BKN046/// 01/M09 Q1012 W///S5;",
"01488199999","2010-11-25T09:50:00","4","61.206389","1.828889","142.0","STATFJORD B OIL PLATFORM, NO","FM-15","ENFB ","V020","030,1,N,0103,1","01380,1,9,N","011265,1,N,1","+0020,1","-0090,1","99999,9",,,"07,1,+01380,1,99,9",,,"07,99,1,99,9,99,9,99999,9,99,9,99,9","10119,1,99999,9",,"MET070METAR ENFB 250950Z AUTO 03020KT 9999NDV BKN046/// 02/M09 Q1012 W///S5;",
"01488199999","2010-11-25T10:20:00","4","61.206389","1.828889","142.0","STATFJORD B OIL PLATFORM, NO","FM-15","ENFB ","V020","020,1,N,0098,1","01440,1,9,N","011265,1,N,1","+0020,1","-0090,1","99999,9",,,"07,1,+01440,1,99,9",,,"07,99,1,99,9,99,9,99999,9,99,9,99,9","10119,1,99999,9",,"MET070METAR ENFB 251020Z AUTO 02019KT 9999NDV BKN048/// 02/M09 Q1012 W///S5;",
"01488199999","2010-11-25T10:50:00","4","61.206389","1.828889","142.0","STATFJORD B OIL PLATFORM, NO","FM-15","ENFB ","V020","020,1,N,0093,1","01470,1,9,N","011265,1,N,1","+0010,1","-0110,1","99999,9",,,"02,1,+01080,1,99,9","07,1,+01470,1,99,9",,"07,99,1,99,9,99,9,99999,9,99,9,99,9","10108,1,99999,9",,"MET080METAR ENFB 251050Z AUTO 02018KT 9999NDV FEW036/// BKN049/// 01/M11 Q1011 W///S5;",
"01488199999","2010-11-25T11:20:00","4","61.206389","1.828889","142.0","STATFJORD B OIL PLATFORM, NO","FM-15","ENFB ","V020","020,1,N,0077,1","01290,1,9,N","011265,1,N,1","+0020,1","-0090,1","99999,9",,,"07,1,+01290,1,99,9",,,"07,99,1,99,9,99,9,99999,9,99,9,99,9","10108,1,99999,9",,"MET070METAR ENFB 251120Z AUTO 02015KT 9999NDV BKN043/// 02/M09 Q1011 W///S5;",
"01488199999","2010-11-25T11:50:00","4","61.206389","1.828889","142.0","STATFJORD B OIL PLATFORM, NO","FM-15","ENFB ","V020","030,1,N,0067,1","22000,1,9,N","011265,1,N,1","+0020,1","-0070,1","99999,9",,,"04,1,+01380,1,99,9",,,"04,99,1,99,9,99,9,99999,9,99,9,99,9","10108,1,99999,9",,"MET070METAR ENFB 251150Z AUTO 03013KT 9999NDV SCT046/// 02/M07 Q1011 W///S4;",
"01488199999","2010-11-25T12:20:00","4","61.206389","1.828889","142.0","STATFJORD B OIL PLATFORM, NO","FM-15","ENFB ","V020","030,1,N,0067,1","22000,1,9,N","011265,1,N,1","+0020,1","-0080,1","99999,9",,,"02,1,+01050,1,99,9","04,1,+01320,1,99,9",,"04,99,1,99,9,99,9,99999,9,99,9,99,9","10108,1,99999,9",,"MET080METAR ENFB 251220Z AUTO 03013KT 9999NDV FEW035/// SCT044/// 02/M08 Q1011 W///S4;",
"01488199999","2010-11-25T12:50:00","4","61.206389","1.828889","142.0","STATFJORD B OIL PLATFORM, NO","FM-15","ENFB ","V020","020,1,N,0067,1","22000,1,9,N","011265,1,N,1","+0020,1","-0090,1","99999,9",,,"04,1,+01380,1,99,9",,,"04,99,1,99,9,99,9,99999,9,99,9,99,9","10108,1,99999,9",,"MET070METAR ENFB 251250Z AUTO 02013KT 9999NDV SCT046/// 02/M09 Q1011 W///S4;",
"01488199999","2010-11-25T13:20:00","4","61.206389","1.828889","142.0","STATFJORD B OIL PLATFORM, NO","FM-15","ENFB ","V020","030,1,N,0067,1","01380,1,9,N","011265,1,N,1","+0020,1","-0060,1","99999,9",,,"07,1,+01380,1,99,9",,,"07,99,1,99,9,99,9,99999,9,99,9,99,9","10108,1,99999,9",,"MET070METAR ENFB 251320Z AUTO 03013KT 9999NDV BKN046/// 02/M06 Q1011 W///S4;",
"01488199999","2010-11-25T13:50:00","4","61.206389","1.828889","142.0","STATFJORD B OIL PLATFORM, NO","FM-15","ENFB ","V020","040,1,N,0057,1","01260,1,9,N","011265,1,N,1","+0020,1","-0070,1","99999,9",,,"07,1,+01260,1,99,9",,,"07,99,1,99,9,99,9,99999,9,99,9,99,9","10108,1,99999,9",,"MET078METAR ENFB 251350Z AUTO 04011KT 350V070 9999NDV BKN042/// 02/M07 Q1011 W///S4;",
"01488199999","2010-11-25T14:20:00","4","61.206389","1.828889","142.0","STATFJORD B OIL PLATFORM, NO","FM-15","ENFB ","V020","020,1,N,0067,1","01320,1,9,N","011265,1,N,1","+0020,1","-0090,1","99999,9",,,"07,1,+01320,1,99,9",,,"07,99,1,99,9,99,9,99999,9,99,9,99,9","10108,1,99999,9",,"MET070METAR ENFB 251420Z AUTO 02013KT 9999NDV BKN044/// 02/M09 Q1011 W///S4;",
"01488199999","2010-11-25T14:50:00","4","61.206389","1.828889","142.0","STATFJORD B OIL PLATFORM, NO","FM-15","ENFB ","V020","020,1,N,0057,1","01350,1,9,N","011265,1,N,1","+0010,1","-0090,1","99999,9",,,"07,1,+01350,1,99,9",,,"07,99,1,99,9,99,9,99999,9,99,9,99,9","10102,1,99999,9",,"MET070METAR ENFB 251450Z AUTO 02011KT 9999NDV BKN045/// 01/M09 Q1010 W///S4;",
"01488199999","2010-11-25T15:20:00","4","61.206389","1.828889","142.0","STATFJORD B OIL PLATFORM, NO","FM-15","ENFB ","V020","010,1,N,0062,1","01380,1,9,N","011265,1,N,1","+0010,1","-0100,1","99999,9",,,"07,1,+01380,1,99,9",,,"07,99,1,99,9,99,9,99999,9,99,9,99,9","10102,1,99999,9",,"MET070METAR ENFB 251520Z AUTO 01012KT 9999NDV BKN046/// 01/M10 Q1010 W///S4;",
"01488199999","2010-11-25T15:50:00","4","61.206389","1.828889","142.0","STATFJORD B OIL PLATFORM, NO","FM-15","ENFB ","V020","020,1,N,0036,1","22000,1,9,N","011265,1,N,1","+0020,1","-0090,1","99999,9",,,"02,1,+01380,1,99,9",,,"02,99,1,99,9,99,9,99999,9,99,9,99,9","10102,1,99999,9",,"MET078METAR ENFB 251550Z AUTO 02007KT 350V050 9999NDV FEW046/// 02/M09 Q1010 W///S4;",
"01488199999","2010-11-25T16:20:00","4","61.206389","1.828889","142.0","STATFJORD B OIL PLATFORM, NO","FM-15","ENFB ","V020","030,1,N,0051,1","22000,1,9,N","011265,1,N,1","+0020,1","-0090,1","99999,9",,,"02,1,+01380,1,99,9",,,"02,99,1,99,9,99,9,99999,9,99,9,99,9","10102,1,99999,9",,"MET070METAR ENFB 251620Z AUTO 03010KT 9999NDV FEW046/// 02/M09 Q1010 W///S4;",
"01488199999","2010-11-25T16:50:00","4","61.206389","1.828889","142.0","STATFJORD B OIL PLATFORM, NO","FM-15","ENFB ","V020","030,1,N,0046,1","22000,1,9,N","011265,1,N,1","+0020,1","-0080,1","99999,9",,,"02,1,+01350,1,99,9",,,"02,99,1,99,9,99,9,99999,9,99,9,99,9","10102,1,99999,9",,"MET070METAR ENFB 251650Z AUTO 03009KT 9999NDV FEW045/// 02/M08 Q1010 W///S4;",
"01488199999","2010-11-25T17:20:00","4","61.206389","1.828889","142.0","STATFJORD B OIL PLATFORM, NO","FM-15","ENFB ","V020","030,1,N,0036,1","22000,1,9,N","011265,1,N,1","+0020,1","-0090,1","99999,9",,,,,,"00,99,1,99,9,99,9,99999,9,99,9,99,9","10102,1,99999,9",,"MET072METAR ENFB 251720Z AUTO 03007KT 350V050 9999NDV NCD 02/M09 Q1010 W///S4;","Q01    003SCCGA1"
"01488199999","2010-11-25T17:50:00","4","61.206389","1.828889","142.0","STATFJORD B OIL PLATFORM, NO","FM-15","ENFB ","V020","040,1,N,0036,1","22000,1,9,N","011265,1,N,1","+0020,1","-0090,1","99999,9",,,"02,1,+01440,1,99,9",,,"02,99,1,99,9,99,9,99999,9,99,9,99,9","10102,1,99999,9",,"MET078METAR ENFB 251750Z AUTO 04007KT 020V090 9999NDV FEW048/// 02/M09 Q1010 W///S4;",
"01488199999","2010-11-25T18:20:00","4","61.206389","1.828889","142.0","STATFJORD B OIL PLATFORM, NO","FM-15","ENFB ","V020","040,1,N,0036,1","22000,1,9,N","011265,1,N,1","+0020,1","-0090,1","99999,9",,,,,,"00,99,1,99,9,99,9,99999,9,99,9,99,9","10091,1,99999,9",,"MET064METAR ENFB 251820Z AUTO 04007KT 9999NDV NCD 02/M09 Q1009 W///S3;","Q01    003SCCGA1"
"01488199999","2010-11-25T18:50:00","4","61.206389","1.828889","142.0","STATFJORD B OIL PLATFORM, NO","FM-15","ENFB ","V020","060,1,N,0031,1","22000,1,9,N","011265,1,N,1","+0020,1","-0090,1","99999,9",,,"02,1,+03600,1,99,9",,,"02,99,1,99,9,99,9,99999,9,99,9,99,9","10091,1,99999,9",,"MET070METAR ENFB 251850Z AUTO 06006KT 9999NDV FEW120/// 02/M09 Q1009 W///S3;",
"01488199999","2010-11-25T19:20:00","4","61.206389","1.828889","142.0","STATFJORD B OIL PLATFORM, NO","FM-15","ENFB ","V020","100,1,N,0021,1","22000,1,9,N","011265,1,N,1","+0020,1","-0080,1","99999,9",,,,,,"00,99,1,99,9,99,9,99999,9,99,9,99,9","10091,1,99999,9",,"MET072METAR ENFB 251920Z AUTO 10004KT 070V150 9999NDV NCD 02/M08 Q1009 W///S3;","Q01    003SCCGA1"
"01488199999","2010-11-25T19:50:00","4","61.206389","1.828889","142.0","STATFJORD B OIL PLATFORM, NO","FM-15","ENFB ","V020","110,1,N,0031,1","04200,1,9,N","011265,1,N,1","+0020,1","-0080,1","99999,9",,,"07,1,+04200,1,99,9",,,"07,99,1,99,9,99,9,99999,9,99,9,99,9","10091,1,99999,9",,"MET078METAR ENFB 251950Z AUTO 11006KT 350V160 9999NDV BKN140/// 02/M08 Q1009 W///S3;",
"01488199999","2010-11-25T20:20:00","4","61.206389","1.828889","142.0","STATFJORD B OIL PLATFORM, NO","FM-15","ENFB ","V020","130,1,N,0041,1","03900,1,9,N","011265,1,N,1","+0020,1","-0080,1","99999,9",,,"07,1,+03900,1,99,9",,,"07,99,1,99,9,99,9,99999,9,99,9,99,9","10091,1,99999,9",,"MET070METAR ENFB 252020Z AUTO 13008KT 9999NDV BKN130/// 02/M08 Q1009 W///S3;",
"01488199999","2010-11-25T20:50:00","4","61.206389","1.828889","142.0","STATFJORD B OIL PLATFORM, NO","FM-15","ENFB ","V020","150,1,N,0046,1","04500,1,9,N","011265,1,N,1","+0020,1","-0080,1","99999,9",,,"02,1,+03900,1,99,9","07,1,+04500,1,99,9",,"07,99,1,99,9,99,9,99999,9,99,9,99,9","10091,1,99999,9",,"MET080METAR ENFB 252050Z AUTO 15009KT 9999NDV FEW130/// BKN150/// 02/M08 Q1009 W///S3;",
"01488199999","2010-11-25T21:20:00","4","61.206389","1.828889","142.0","STATFJORD B OIL PLATFORM, NO","FM-15","ENFB ","V020","150,1,N,0051,1","22000,1,9,N","011265,1,N,1","+0020,1","-0080,1","99999,9",,,"02,1,+01500,1,99,9",,,"02,99,1,99,9,99,9,99999,9,99,9,99,9","10081,1,99999,9",,"MET070METAR ENFB 252120Z AUTO 15010KT 9999NDV FEW052/// 02/M08 Q1008 W///S3;",
"01488199999","2010-11-25T21:50:00","4","61.206389","1.828889","142.0","STATFJORD B OIL PLATFORM, NO","FM-15","ENFB ","V020","160,1,N,0051,1","01500,1,9,N","011265,1,N,1","+0020,1","-0080,1","99999,9",,,"07,1,+01500,1,99,9",,,"07,99,1,99,9,99,9,99999,9,99,9,99,9","10081,1,99999,9",,"MET070METAR ENFB 252150Z AUTO 16010KT 9999NDV BKN059/// 02/M08 Q1008 W///S3;",
"01488199999","2010-11-25T22:20:00","4","61.206389","1.828889","142.0","STATFJORD B OIL PLATFORM, NO","FM-15","ENFB ","V020","170,1,N,0051,1","01800,1,9,N","011265,1,N,1","+0020,1","-0080,1","99999,9",,,"07,1,+01800,1,99,9",,,"07,99,1,99,9,99,9,99999,9,99,9,99,9","10081,1,99999,9",,"MET070METAR ENFB 252220Z AUTO 17010KT 9999NDV BKN060/// 02/M08 Q1008 W///S3;",
"01488199999","2010-11-25T22:50:00","4","61.206389","1.828889","142.0","STATFJORD B OIL PLATFORM, NO","FM-15","ENFB ","V020","170,1,N,0062,1","01410,1,9,N","011265,1,N,1","+0020,1","-0080,1","99999,9",,,"07,1,+01410,1,99,9","07,1,+01800,1,99,9",,"07,99,1,99,9,99,9,99999,9,99,9,99,9","10081,1,99999,9",,"MET088METAR ENFB 252250Z AUTO 17012KT 100V190 9999NDV BKN047/// BKN060/// 02/M08 Q1008 W///S3;",
"01488199999","2010-11-25T23:20:00","4","61.206389","1.828889","142.0","STATFJORD B OIL PLATFORM, NO","FM-15","ENFB ","V020","180,1,N,0057,1","01410,1,9,N","011265,1,N,1","+0020,1","-0090,1","99999,9",,,"07,1,+01410,1,99,9",,,"07,99,1,99,9,99,9,99999,9,99,9,99,9","10081,1,99999,9",,"MET070METAR ENFB 252320Z AUTO 18011KT 9999NDV BKN047/// 02/M09 Q1008 W///S3;",
"01488199999","2010-11-25T23:50:00","4","61.206389","1.828889","142.0","STATFJORD B OIL PLATFORM, NO","FM-15","ENFB ","V020","180,1,N,0062,1","01410,1,9,N","011265,1,N,1","+0020,1","-0080,1","99999,9",,,"08,1,+01410,1,99,9",,,"08,99,1,99,9,99,9,99999,9,99,9,99,9","10081,1,99999,9",,"MET070METAR ENFB 252350Z AUTO 18012KT 9999NDV OVC047/// 02/M08 Q1008 W///S3;",
"01488199999","2010-11-26T00:20:00","4","61.206389","1.828889","142.0","STATFJORD B OIL PLATFORM, NO","FM-15","ENFB ","V020","180,1,N,0062,1","01440,1,9,N","011265,1,N,1","+0020,1","-0080,1","99999,9",,,"07,1,+01440,1,99,9",,,"07,99,1,99,9,99,9,99999,9,99,9,99,9","10071,1,99999,9",,"MET070METAR ENFB 260020Z AUTO 18012KT 9999NDV BKN048/// 02/M08 Q1007 W///S3;",
"01488199999","2010-11-26T00:50:00","4","61.206389","1.828889","142.0","STATFJORD B OIL PLATFORM, NO","FM-15","ENFB ","V020","999,9,V,0057,1","01500,1,9,N","011265,1,N,1","+0020,1","-0080,1","99999,9",,,"07,1,+01500,1,99,9","07,1,+03900,1,99,9",,"07,99,1,99,9,99,9,99999,9,99,9,99,9","10071,1,99999,9",,"MET080METAR ENFB 260050Z AUTO VRB11KT 9999NDV BKN058/// BKN130/// 02/M08 Q1007 W///S3;",
"01488199999","2010-11-26T01:20:00","4","61.206389","1.828889","142.0","STATFJORD B OIL PLATFORM, NO","FM-15","ENFB ","V020","180,1,N,0057,1","04200,1,9,N","011265,1,N,1","+0020,1","-0090,1","99999,9",,,"02,1,+01500,1,99,9","07,1,+04200,1,99,9",,"07,99,1,99,9,99,9,99999,9,99,9,99,9","10071,1,99999,9",,"MET080METAR ENFB 260120Z AUTO 18011KT 9999NDV FEW051/// BKN140/// 02/M09 Q1007 W///S3;",
"01488199999","2010-11-26T01:50:00","4","61.206389","1.828889","142.0","STATFJORD B OIL PLATFORM, NO","FM-15","ENFB ","V020","170,1,N,0062,1","22000,1,9,N","011265,1,N,1","+0020,1","-0080,1","99999,9",,,"02,1,+01500,1,99,9","04,1,+03600,1,99,9",,"04,99,1,99,9,99,9,99999,9,99,9,99,9","10071,1,99999,9",,"MET088METAR ENFB 260150Z AUTO 17012KT 150V210 9999NDV FEW052/// SCT120/// 02/M08 Q1007 W///S3;",
"01488199999","2010-11-26T02:20:00","4","61.206389","1.828889","142.0","STATFJORD B OIL PLATFORM, NO","FM-15","ENFB ","V020","160,1,N,0072,1","03900,1,9,N","011265,1,N,1","+0020,1","-0070,1","99999,9",,,"02,1,+03000,1,99,9","07,1,+03900,1,99,9","07,1,+04800,1,99,9","07,99,1,99,9,99,9,99999,9,99,9,99,9","10071,1,99999,9",,"MET098METAR ENFB 260220Z AUTO 16014KT 100V190 9999NDV FEW100/// BKN130/// BKN160/// 02/M07 Q1007 W///S3;",
"01488199999","2010-11-26T02:50:00","4","61.206389","1.828889","142.0","STATFJORD B OIL PLATFORM, NO","FM-15","ENFB ","V020","160,1,N,0057,1","03000,1,9,N","011265,1,N,1","+0030,1","-0080,1","99999,9",,,"02,1,+01140,1,99,9","07,1,+03000,1,99,9","07,1,+04800,1,99,9","07,99,1,99,9,99,9,99999,9,99,9,99,9","10071,1,99999,9",,"MET098METAR ENFB 260250Z AUTO 16011KT 130V190 9999NDV FEW038/// BKN100/// BKN160/// 03/M08 Q1007 W///S3;",
"01488199999","2010-11-26T03:20:00","4","61.206389","1.828889","142.0","STATFJORD B OIL PLATFORM, NO","FM-15","ENFB ","V020","150,1,N,0057,1","22000,1,9,N","011265,1,N,1","+0030,1","-0080,1","99999,9",,,"02,1,+01200,1,99,9",,,"02,99,1,99,9,99,9,99999,9,99,9,99,9","10081,1,99999,9",,"MET078METAR ENFB 260320Z AUTO 15011KT 130V190 9999NDV FEW040/// 03/M08 Q1008 W///S3;",
"01488199999","2010-11-26T03:50:00","4","61.206389","1.828889","142.0","STATFJORD B OIL PLATFORM, NO","FM-15","ENFB ","V020","140,1,N,0108,1","01140,1,9,N","011265,1,N,1","+0020,1","-0040,1","99999,9","61,1",,"07,1,+01140,1,99,9","07,1,+04800,1,99,9",,"07,99,1,99,9,99,9,99999,9,99,9,99,9","10071,1,99999,9",,"MET084METAR ENFB 260350Z AUTO 14021KT 9999NDV -RA BKN038/// BKN160/// 02/M04 Q1007 W///S4;",
"01488199999","2010-11-26T04:20:00","4","61.206389","1.828889","142.0","STATFJORD B OIL PLATFORM, NO","FM-15","ENFB ","V020","150,1,N,0082,1","00930,1,9,N","011265,1,N,1","+0020,1","-0040,1","99999,9","61,1",,"08,1,+00930,1,99,9",,,"08,99,1,99,9,99,9,99999,9,99,9,99,9","10081,1,99999,9",,"MET082METAR ENFB 260420Z AUTO 15016KT 130V190 9999NDV -RA OVC031/// 02/M04 Q1008 W///S4;",
"01488199999","2010-11-26T04:50:00","4","61.206389","1.828889","142.0","STATFJORD B OIL PLATFORM, NO","FM-15","ENFB ","V020","140,1,N,0103,1","01020,1,9,N","011265,1,N,1","+0030,1","-0060,1","99999,9",,,"07,1,+01020,1,99,9",,,"07,99,1,99,9,99,9,99999,9,99,9,99,9","10081,1,99999,9",,"MET070METAR ENFB 260450Z AUTO 14020KT 9999NDV BKN034/// 03/M06 Q1008 W///S4;",
"01488199999","2010-11-26T05:20:00","4","61.206389","1.828889","142.0","STATFJORD B OIL PLATFORM, NO","FM-15","ENFB ","V020","130,1,N,0098,1","01800,1,9,N","011265,1,N,1","+0030,1","-0070,1","99999,9",,,"04,1,+01140,1,99,9","07,1,+01800,1,99,9",,"07,99,1,99,9,99,9,99999,9,99,9,99,9","10081,1,99999,9",,"MET080METAR ENFB 260520Z AUTO 13019KT 9999NDV SCT038/// BKN066/// 03/M07 Q1008 W///S5;",
"01488199999","2010-11-26T05:50:00","4","61.206389","1.828889","142.0","STATFJORD B OIL PLATFORM, NO","FM-15","ENFB ","V020","130,1,N,0098,1","01140,1,9,N","011265,1,N,1","+0030,1","-0070,1","99999,9",,,"07,1,+01140,1,99,9",,,"07,99,1,99,9,99,9,99999,9,99,9,99,9","10081,1,99999,9",,"MET070METAR ENFB 260550Z AUTO 13019KT 9999NDV BKN038/// 03/M07 Q1008 W///S5;",
"01488199999","2010-11-26T06:20:00","4","61.206389","1.828889","142.0","STATFJORD B OIL PLATFORM, NO","FM-15","ENFB ","V020","130,1,N,0093,1","01140,1,9,N","011265,1,N,1","+0030,1","-0060,1","99999,9",,,"07,1,+01140,1,99,9",,,"07,99,1,99,9,99,9,99999,9,99,9,99,9","10091,1,99999,9",,"MET070METAR ENFB 260620Z AUTO 13018KT 9999NDV BKN038/// 03/M06 Q1009 W///S5;",
"01488199999","2010-11-26T06:50:00","4","61.206389","1.828889","142.0","STATFJORD B OIL PLATFORM, NO","FM-15","ENFB ","V020","130,1,N,0103,1","01320,1,9,N","011265,1,N,1","+0020,1","-0060,1","99999,9",,,"07,1,+01320,1,99,9",,,"07,99,1,99,9,99,9,99999,9,99,9,99,9","10091,1,99999,9",,"MET070METAR ENFB 260650Z AUTO 13020KT 9999NDV BKN044/// 02/M06 Q1009 W///S5;",
"01488199999","2010-11-26T07:20:00","4","61.206389","1.828889","142.0","STATFJORD B OIL PLATFORM, NO","FM-15","ENFB ","V020","120,1,N,0098,1","01200,1,9,N","011265,1,N,1","+0020,1","-0070,1","99999,9",,,"07,1,+01200,1,99,9",,,"07,99,1,99,9,99,9,99999,9,99,9,99,9","10102,1,99999,9",,"MET070METAR ENFB 260720Z AUTO 12019KT 9999NDV BKN040/// 02/M07 Q1010 W///S5;",
"01488199999","2010-11-26T07:50:00","4","61.206389","1.828889","142.0","STATFJORD B OIL PLATFORM, NO","FM-15","ENFB ","V020","120,1,N,0093,1","01500,1,9,N","011265,1,N,1","+0020,1","-0070,1","99999,9",,,"02,1,+01230,1,99,9","07,1,+01500,1,99,9","07,1,+02100,1,99,9","07,99,1,99,9,99,9,99999,9,99,9,99,9","10102,1,99999,9",,"MET090METAR ENFB 260750Z AUTO 12018KT 9999NDV FEW041/// BKN051/// BKN074/// 02/M07 Q1010 W///S5;",
"01488199999","2010-11-26T08:20:00","4","61.206389","1.828889","142.0","STATFJORD B OIL PLATFORM, NO","FM-15","ENFB ","V020","120,1,N,0108,1","02100,1,9,N","011265,1,N,1","+0020,1","-0080,1","99999,9",,,"02,1,+01140,1,99,9","07,1,+02100,1,99,9",,"07,99,1,99,9,99,9,99999,9,99,9,99,9","10102,1,99999,9",,"MET080METAR ENFB 260820Z AUTO 12021KT 9999NDV FEW038/// BKN072/// 02/M08 Q1010 W///S5;",
"01488199999","2010-11-26T08:50:00","4","61.206389","1.828889","142.0","STATFJORD B OIL PLATFORM, NO","FM-15","ENFB ","V020","110,1,N,0108,1","22000,1,9,N","011265,1,N,1","+0020,1","-0080,1","99999,9",,,"02,1,+01500,1,99,9","04,1,+01800,1,99,9",,"04,99,1,99,9,99,9,99999,9,99,9,99,9","10108,1,99999,9",,"MET080METAR ENFB 260850Z AUTO 11021KT 9999NDV FEW052/// SCT067/// 02/M08 Q1011 W///S5;",
"01488199999","2010-11-26T09:20:00","4","61.206389","1.828889","142.0","STATFJORD B OIL PLATFORM, NO","FM-15","ENFB ","V020","120,1,N,0098,1","22000,1,9,N","011265,1,N,1","+0020,1","-0080,1","99999,9",,,"02,1,+01260,1,99,9",,,"02,99,1,99,9,99,9,99999,9,99,9,99,9","10108,1,99999,9",,"MET070METAR ENFB 260920Z AUTO 12019KT 9999NDV FEW042/// 02/M08 Q1011 W///S5;",
"01488199999","2010-11-26T09:50:00","4","61.206389","1.828889","142.0","STATFJORD B OIL PLATFORM, NO","FM-15","ENFB ","V020","110,1,N,0087,1","22000,1,9,N","011265,1,N,1","+0020,1","-0090,1","99999,9",,,"02,1,+01500,1,99,9",,,"02,99,1,99,9,99,9,99999,9,99,9,99,9","10119,1,99999,9",,"MET070METAR ENFB 260950Z AUTO 11017KT 9999NDV FEW056/// 02/M09 Q1012 W///S5;",
"01488199999","2010-11-26T10:20:00","4","61.206389","1.828889","142.0","STATFJORD B OIL PLATFORM, NO","FM-15","ENFB ","V020","090,1,N,0082,1","01500,1,9,N","011265,1,N,1","+0020,1","-0090,1","99999,9",,,"07,1,+01500,1,99,9",,,"07,99,1,99,9,99,9,99999,9,99,9,99,9","10119,1,99999,9",,"MET070METAR ENFB 261020Z AUTO 09016KT 9999NDV BKN052/// 02/M09 Q1012 W///S5;",
"01488199999","2010-11-26T10:50:00","4","61.206389","1.828889","142.0","STATFJORD B OIL PLATFORM, NO","FM-15","ENFB ","V020","090,1,N,0087,1","22000,1,9,N","011265,1,N,1","+0020,1","-0090,1","99999,9",,,"04,1,+01380,1,99,9",,,"04,99,1,99,9,99,9,99999,9,99,9,99,9","10119,1,99999,9",,"MET070METAR ENFB 261050Z AUTO 09017KT 9999NDV SCT046/// 02/M09 Q1012 W///S5;",
"01488199999","2010-11-26T11:20:00","4","61.206389","1.828889","142.0","STATFJORD B OIL PLATFORM, NO","FM-15","ENFB ","V020","080,1,N,0082,1","01290,1,9,N","011265,1,N,1","+0020,1","-0080,1","99999,9",,,"07,1,+01290,1,99,9",,,"07,99,1,99,9,99,9,99999,9,99,9,99,9","10119,1,99999,9",,"MET070METAR ENFB 261120Z AUTO 08016KT 9999NDV BKN043/// 02/M08 Q1012 W///S5;",
"01488199999","2010-11-26T11:50:00","4","61.206389","1.828889","142.0","STATFJORD B OIL PLATFORM, NO","FM-15","ENFB ","V020","050,1,N,0062,1","01020,1,9,N","011265,1,N,1","+0020,1","-0040,1","99999,9","80,1",,"04,1,+00480,1,99,9","07,1,+01020,1,99,9",,"07,99,1,99,9,99,9,99999,9,99,9,99,9","10119,1,99999,9",,"MET088METAR ENFB 261150Z AUTO 05012KT 9999NDV -SHRASN SCT016/// BKN034/// 02/M04 Q1012 W///S5;",
"01488199999","2010-11-26T12:20:00","4","61.206389","1.828889","142.0","STATFJORD B OIL PLATFORM, NO","FM-15","ENFB ","V020","050,1,N,0149,1","00660,1,9,N","011265,1,N,1","+0010,1","-0050,1","99999,9",,,"07,1,+00660,1,99,9",,,"07,99,1,99,9,99,9,99999,9,99,9,99,9","10119,1,99999,9",,"MET070METAR ENFB 261220Z AUTO 05029KT 9999NDV BKN022/// 01/M05 Q1012 W///S5;",
"01488199999","2010-11-26T12:50:00","4","61.206389","1.828889","142.0","STATFJORD B OIL PLATFORM, NO","FM-15","ENFB ","V020","050,1,N,0118,1","22000,1,9,N","011265,1,N,1","+0020,1","-0060,1","99999,9",,,"04,1,+00930,1,99,9","04,1,+02400,1,99,9",,"04,99,1,99,9,99,9,99999,9,99,9,99,9","10119,1,99999,9",,"MET080METAR ENFB 261250Z AUTO 05023KT 9999NDV SCT031/// SCT083/// 02/M06 Q1012 W///S5;",
"01488199999","2010-11-26T13:20:00","4","61.206389","1.828889","142.0","STATFJORD B OIL PLATFORM, NO","FM-15","ENFB ","V020","040,1,N,0129,1","22000,1,9,N","011265,1,N,1","+0010,1","-0090,1","99999,9",,,"02,1,+01080,1,99,9","04,1,+01440,1,99,9",,"04,99,1,99,9,99,9,99999,9,99,9,99,9","10119,1,99999,9",,"MET080METAR ENFB 261320Z AUTO 04025KT 9999NDV FEW036/// SCT048/// 01/M09 Q1012 W///S5;",
"01488199999","2010-11-26T13:50:00","4","61.206389","1.828889","142.0","STATFJORD B OIL PLATFORM, NO","FM-15","ENFB ","V020","040,1,N,0134,1","01260,1,9,N","011265,1,N,1","+0010,1","-0080,1","99999,9","81,1",,"02,1,+00570,1,99,9","07,1,+01260,1,99,9",,"07,99,1,99,9,99,9,99999,9,99,9,99,9","10119,1,99999,9",,"MET086METAR ENFB 261350Z AUTO 04026KT 9999NDV -SHRA FEW019/// BKN042/// 01/M08 Q1012 W///S5;",
"01488199999","2010-11-26T14:20:00","4","61.206389","1.828889","142.0","STATFJORD B OIL PLATFORM, NO","FM-15","ENFB ","V020","040,1,N,0149,1","01170,1,9,N","011265,1,N,1","+0010,1","-0070,1","99999,9","81,1",,"07,1,+01170,1,99,9",,,"07,99,1,99,9,99,9,99999,9,99,9,99,9","10129,1,99999,9",,"MET076METAR ENFB 261420Z AUTO 04029KT 9999NDV -SHRA BKN039/// 01/M07 Q1013 W///S5;",
"01488199999","2010-11-26T14:50:00","4","61.206389","1.828889","142.0","STATFJORD B OIL PLATFORM, NO","FM-15","ENFB ","V020","040,1,N,0154,1","01230,1,9,N","011265,1,N,1","+0010,1","-0070,1","99999,9","81,1",,"07,1,+01230,1,99,9",,,"07,99,1,99,9,99,9,99999,9,99,9,99,9","10129,1,99999,9",,"MET076METAR ENFB 261450Z AUTO 04030KT 9999NDV -SHRA BKN041/// 01/M07 Q1013 W///S5;",
"01488199999","2010-11-26T15:20:00","4","61.206389","1.828889","142.0","STATFJORD B OIL PLATFORM, NO","FM-15","ENFB ","V020","040,1,N,0154,1","01170,1,9,N","011265,1,N,1","+0000,1","-0080,1","99999,9","81,1",,"07,1,+01170,1,99,9",,,"07,99,1,99,9,99,9,99999,9,99,9,99,9","10129,1,99999,9",,"MET076METAR ENFB 261520Z AUTO 04030KT 9999NDV -SHRA BKN039/// 00/M08 Q1013 W///S5;",
"01488199999","2010-11-26T15:50:00","4","61.206389","1.828889","142.0","STATFJORD B OIL PLATFORM, NO","FM-15","ENFB ","V020","040,1,N,0170,1","01170,1,9,N","011265,1,N,1","+0010,1","-0070,1","99999,9",,,"07,1,+01170,1,99,9",,,"07,99,1,99,9,99,9,99999,9,99,9,99,9","10129,1,99999,9",,"MET070METAR ENFB 261550Z AUTO 04033KT 9999NDV BKN039/// 01/M07 Q1013 W///S5;",
"01488199999","2010-11-26T16:20:00","4","61.206389","1.828889","142.0","STATFJORD B OIL PLATFORM, NO","FM-15","ENFB ","V020","040,1,N,0159,1","22000,1,9,N","011265,1,N,1","+0000,1","-0090,1","99999,9",,,"04,1,+01140,1,99,9",,,"04,99,1,99,9,99,9,99999,9,99,9,99,9","10129,1,99999,9",,"MET070METAR ENFB 261620Z AUTO 04031KT 9999NDV SCT038/// 00/M09 Q1013 W///S5;",
"01488199999","2010-11-26T16:50:00","4","61.206389","1.828889","142.0","STATFJORD B OIL PLATFORM, NO","FM-15","ENFB ","V020","050,1,N,0170,1","01110,1,9,N","011265,1,N,1","+0000,1","-0080,1","99999,9","61,1",,"07,1,+01110,1,99,9",,,"07,99,1,99,9,99,9,99999,9,99,9,99,9","10139,1,99999,9",,"MET074METAR ENFB 261650Z AUTO 05033KT 9999NDV -RA BKN037/// 00/M08 Q1014 W///S5;",
"01488199999","2010-11-26T17:20:00","4","61.206389","1.828889","142.0","STATFJORD B OIL PLATFORM, NO","FM-15","ENFB ","V020","040,1,N,0159,1","01140,1,9,N","011265,1,N,1","+0000,1","-0090,1","99999,9",,,"07,1,+01140,1,99,9",,,"07,99,1,99,9,99,9,99999,9,99,9,99,9","10139,1,99999,9",,"MET070METAR ENFB 261720Z AUTO 04031KT 9999NDV BKN038/// 00/M09 Q1014 W///S6;",
"01488199999","2010-11-26T17:50:00","4","61.206389","1.828889","142.0","STATFJORD B OIL PLATFORM, NO","FM-15","ENFB ","V020","040,1,N,0159,1","01200,1,9,N","011265,1,N,1","+0000,1","-0090,1","99999,9",,,"07,1,+01200,1,99,9",,,"07,99,1,99,9,99,9,99999,9,99,9,99,9","10139,1,99999,9",,"MET070METAR ENFB 261750Z AUTO 04031KT 9999NDV BKN040/// 00/M09 Q1014 W///S6;",
"01488199999","2010-11-26T18:20:00","4","61.206389","1.828889","142.0","STATFJORD B OIL PLATFORM, NO","FM-15","ENFB ","V020","040,1,N,0165,1","01230,1,9,N","011265,1,N,1","+0000,1","-0080,1","99999,9",,,"07,1,+01230,1,99,9",,,"07,99,1,99,9,99,9,99999,9,99,9,99,9","10139,1,99999,9",,"MET070METAR ENFB 261820Z AUTO 04032KT 9999NDV BKN041/// 00/M08 Q1014 W///S6;",
"01488199999","2010-11-26T18:50:00","4","61.206389","1.828889","142.0","STATFJORD B OIL PLATFORM, NO","FM-15","ENFB ","V020","040,1,N,0154,1","01080,1,9,N","011265,1,N,1","+0000,1","-0080,1","99999,9",,,"07,1,+01080,1,99,9",,,"07,99,1,99,9,99,9,99999,9,99,9,99,9","10139,1,99999,9",,"MET070METAR ENFB 261850Z AUTO 04030KT 9999NDV BKN036/// 00/M08 Q1014 W///S6;",
"01488199999","2010-11-26T19:20:00","4","61.206389","1.828889","142.0","STATFJORD B OIL PLATFORM, NO","FM-15","ENFB ","V020","050,1,N,0159,1","01080,1,9,N","011265,1,N,1","+0000,1","-0080,1","99999,9",,,"07,1,+01080,1,99,9",,,"07,99,1,99,9,99,9,99999,9,99,9,99,9","10139,1,99999,9",,"MET070METAR ENFB 261920Z AUTO 05031KT 9999NDV BKN036/// 00/M08 Q1014 W///S6;",
"01488199999","2010-11-26T19:50:00","4","61.206389","1.828889","142.0","STATFJORD B OIL PLATFORM, NO","FM-15","ENFB ","V020","040,1,N,0144,1","01080,1,9,N","011265,1,N,1","+0010,1","-0070,1","99999,9",,,"07,1,+01080,1,99,9",,,"07,99,1,99,9,99,9,99999,9,99,9,99,9","10139,1,99999,9",,"MET070METAR ENFB 261950Z AUTO 04028KT 9999NDV BKN036/// 01/M07 Q1014 W///S6;",
"01488199999","2010-11-26T20:20:00","4","61.206389","1.828889","142.0","STATFJORD B OIL PLATFORM, NO","FM-15","ENFB ","V020","040,1,N,0149,1","00990,1,9,N","011265,1,N,1","+0000,1","-0080,1","99999,9",,,"07,1,+00990,1,99,9",,,"07,99,1,99,9,99,9,99999,9,99,9,99,9","10139,1,99999,9",,"MET070METAR ENFB 262020Z AUTO 04029KT 9999NDV BKN033/// 00/M08 Q1014 W///S6;",
"01488199999","2010-11-26T20:50:00","4","61.206389","1.828889","142.0","STATFJORD B OIL PLATFORM, NO","FM-15","ENFB ","V020","040,1,N,0144,1","01080,1,9,N","011265,1,N,1","+0000,1","-0080,1","99999,9",,,"07,1,+01080,1,99,9",,,"07,99,1,99,9,99,9,99999,9,99,9,99,9","10139,1,99999,9",,"MET070METAR ENFB 262050Z AUTO 04028KT 9999NDV BKN036/// 00/M08 Q1014 W///S5;",
"01488199999","2010-11-26T21:20:00","4","61.206389","1.828889","142.0","STATFJORD B OIL PLATFORM, NO","FM-15","ENFB ","V020","050,1,N,0139,1","01050,1,9,N","011265,1,N,1","+0010,1","-0070,1","99999,9","81,1",,"07,1,+01050,1,99,9",,,"07,99,1,99,9,99,9,99999,9,99,9,99,9","10139,1,99999,9",,"MET076METAR ENFB 262120Z AUTO 05027KT 9999NDV -SHRA BKN035/// 01/M07 Q1014 W///S6;",
"01488199999","2010-11-26T21:50:00","4","61.206389","1.828889","142.0","STATFJORD B OIL PLATFORM, NO","FM-15","ENFB ","V020","050,1,N,0134,1","00990,1,9,N","011265,1,N,1","+0000,1","-0060,1","99999,9",,,"07,1,+00990,1,99,9",,,"07,99,1,99,9,99,9,99999,9,99,9,99,9","10139,1,99999,9",,"MET070METAR ENFB 262150Z AUTO 05026KT 9999NDV BKN033/// 00/M06 Q1014 W///S5;",
"01488199999","2010-11-26T22:20:00","4","61.206389","1.828889","142.0","STATFJORD B OIL PLATFORM, NO","FM-15","ENFB ","V020","050,1,N,0134,1","01050,1,9,N","011265,1,N,1","+0000,1","-0080,1","99999,9",,,"07,1,+01050,1,99,9",,,"07,99,1,99,9,99,9,99999,9,99,9,99,9","10139,1,99999,9",,"MET070METAR ENFB 262220Z AUTO 05026KT 9999NDV BKN035/// 00/M08 Q1014 W///S6;",
"01488199999","2010-11-26T22:50:00","4","61.206389","1.828889","142.0","STATFJORD B OIL PLATFORM, NO","FM-15","ENFB ","V020","050,1,N,0134,1","00990,1,9,N","011265,1,N,1","+0000,1","-0070,1","99999,9",,,"07,1,+00990,1,99,9",,,"07,99,1,99,9,99,9,99999,9,99,9,99,9","10139,1,99999,9",,"MET070METAR ENFB 262250Z AUTO 05026KT 9999NDV BKN033/// 00/M07 Q1014 W///S5;",
"01488199999","2010-11-26T23:20:00","4","61.206389","1.828889","142.0","STATFJORD B OIL PLATFORM, NO","FM-15","ENFB ","V020","040,1,N,0129,1","00840,1,9,N","011265,1,N,1","-0010,1","-0070,1","99999,9","85,1",,"07,1,+00840,1,99,9",,,"07,99,1,99,9,99,9,99999,9,99,9,99,9","10139,1,99999,9",,"MET077METAR ENFB 262320Z AUTO 04025KT 9999NDV -SHSN BKN028/// M01/M07 Q1014 W///S5;",
"01488199999","2010-11-26T23:50:00","4","61.206389","1.828889","142.0","STATFJORD B OIL PLATFORM, NO","FM-15","ENFB ","V020","050,1,N,0134,1","00660,1,9,N","011265,1,N,1","-0010,1","-0060,1","99999,9","85,1",,"07,1,+00660,1,99,9",,,"07,99,1,99,9,99,9,99999,9,99,9,99,9","10139,1,99999,9",,"MET077METAR ENFB 262350Z AUTO 05026KT 9999NDV -SHSN BKN022/// M01/M06 Q1014 W///S5;",
"01488199999","2010-11-27T00:20:00","4","61.206389","1.828889","142.0","STATFJORD B OIL PLATFORM, NO","FM-15","ENFB ","V020","040,1,N,0134,1","00960,1,9,N","011265,1,N,1","+0000,1","-0060,1","99999,9","81,1",,"08,1,+00960,1,99,9",,,"08,99,1,99,9,99,9,99999,9,99,9,99,9","10139,1,99999,9",,"MET076METAR ENFB 270020Z AUTO 04026KT 9999NDV -SHRA OVC032/// 00/M06 Q1014 W///S5;",
"01488199999","2010-11-27T00:50:00","4","61.206389","1.828889","142.0","STATFJORD B OIL PLATFORM, NO","FM-15","ENFB ","V020","040,1,N,0123,1","00600,1,9,N","007000,1,N,1","-0020,1","-0050,1","99999,9","85,1",,"07,1,+00600,1,99,9",,,"07,99,1,99,9,99,9,99999,9,99,9,99,9","10139,1,99999,9",,"MET077METAR ENFB 270050Z AUTO 04024KT 7000NDV -SHSN BKN020/// M02/M05 Q1014 W///S5;",
"01488199999","2010-11-27T01:20:00","4","61.206389","1.828889","142.0","STATFJORD B OIL PLATFORM, NO","FM-15","ENFB ","V020","040,1,N,0123,1","00630,1,9,N","011265,1,N,1","-0010,1","-0060,1","99999,9","64,1",,"07,1,+00630,1,99,9",,,"07,99,1,99,9,99,9,99999,9,99,9,99,9","10139,1,99999,9",,"MET077METAR ENFB 270120Z AUTO 04024KT 9999NDV -FZRA BKN021/// M01/M06 Q1014 W///S5;",
"01488199999","2010-11-27T01:50:00","4","61.206389","1.828889","142.0","STATFJORD B OIL PLATFORM, NO","FM-15","ENFB ","V020","040,1,N,0118,1","00900,1,9,N","011265,1,N,1","-0020,1","-0060,1","99999,9","64,1",,"02,1,+00420,1,99,9","07,1,+00900,1,99,9",,"07,99,1,99,9,99,9,99999,9,99,9,99,9","10139,1,99999,9",,"MET087METAR ENFB 270150Z AUTO 04023KT 9999NDV -FZRA FEW014/// BKN030/// M02/M06 Q1014 W///S5;",
"01488199999","2010-11-27T02:20:00","4","61.206389","1.828889","142.0","STATFJORD B OIL PLATFORM, NO","FM-15","ENFB ","V020","040,1,N,0108,1","22000,1,9,N","011265,1,N,1","-0010,1","-0060,1","99999,9",,,"04,1,+00780,1,99,9",,,"04,99,1,99,9,99,9,99999,9,99,9,99,9","10139,1,99999,9",,"MET078METAR ENFB 270220Z AUTO 04021KT 9999NDV SCT026/// M01/M06 Q1014 REFZRA W///S5;",
"01488199999","2010-11-27T02:50:00","4","61.206389","1.828889","142.0","STATFJORD B OIL PLATFORM, NO","FM-15","ENFB ","V020","040,1,N,0123,1","01170,1,9,N","011265,1,N,1","-0010,1","-0090,1","99999,9",,,"07,1,+01170,1,99,9","07,1,+02100,1,99,9",,"07,99,1,99,9,99,9,99999,9,99,9,99,9","10129,1,99999,9",,"MET088METAR ENFB 270250Z AUTO 04024KT 9999NDV BKN039/// BKN075/// M01/M09 Q1013 REFZRA W///S5;",
"01488199999","2010-11-27T03:20:00","4","61.206389","1.828889","142.0","STATFJORD B OIL PLATFORM, NO","FM-15","ENFB ","V020","050,1,N,0123,1","01230,1,9,N","011265,1,N,1","-0010,1","-0100,1","99999,9","85,1",,"07,1,+01230,1,99,9",,,"07,99,1,99,9,99,9,99999,9,99,9,99,9","10129,1,99999,9",,"MET077METAR ENFB 270320Z AUTO 05024KT 9999NDV -SHSN BKN041/// M01/M10 Q1013 W///S5;",
"01488199999","2010-11-27T03:50:00","4","61.206389","1.828889","142.0","STATFJORD B OIL PLATFORM, NO","FM-15","ENFB ","V020","040,1,N,0118,1","01290,1,9,N","011265,1,N,1","-0010,1","-0100,1","99999,9",,,"07,1,+01290,1,99,9",,,"07,99,1,99,9,99,9,99999,9,99,9,99,9","10129,1,99999,9",,"MET071METAR ENFB 270350Z AUTO 04023KT 9999NDV BKN043/// M01/M10 Q1013 W///S5;",
"01488199999","2010-11-27T04:20:00","4","61.206389","1.828889","142.0","STATFJORD B OIL PLATFORM, NO","FM-15","ENFB ","V020","040,1,N,0118,1","01200,1,9,N","011265,1,N,1","-0010,1","-0110,1","99999,9",,,"07,1,+01200,1,99,9",,,"07,99,1,99,9,99,9,99999,9,99,9,99,9","10129,1,99999,9",,"MET071METAR ENFB 270420Z AUTO 04023KT 9999NDV BKN040/// M01/M11 Q1013 W///S5;",
"01488199999","2010-11-27T04:50:00","4","61.206389","1.828889","142.0","STATFJORD B OIL PLATFORM, NO","FM-15","ENFB ","V020","060,1,N,0087,1","01140,1,9,N","011265,1,N,1","-0010,1","-0090,1","99999,9","71,1",,"07,1,+01140,1,99,9",,,"07,99,1,99,9,99,9,99999,9,99,9,99,9","10129,1,99999,9","0139,1","MET086METAR ENFB 270450Z AUTO 06017G27KT 030V090 9999NDV -SN BKN038/// M01/M09 Q1013 W///S5;",
"01488199999","2010-11-27T05:20:00","4","61.206389","1.828889","142.0","STATFJORD B OIL PLATFORM, NO","FM-15","ENFB ","V020","090,1,N,0077,1","01080,1,9,N","011265,1,N,1","-0020,1","-0080,1","99999,9","85,1",,"07,1,+01080,1,99,9",,,"07,99,1,99,9,99,9,99999,9,99,9,99,9","10129,1,99999,9",,"MET077METAR ENFB 270520Z AUTO 09015KT 9999NDV -SHSN BKN036/// M02/M08 Q1013 W///S5;",
"01488199999","2010-11-27T05:50:00","4","61.206389","1.828889","142.0","STATFJORD B OIL PLATFORM, NO","FM-15","ENFB ","V020","090,1,N,0108,1","00990,1,9,N","011265,1,N,1","-0020,1","-0120,1","99999,9",,,"07,1,+00990,1,99,9",,,"07,99,1,99,9,99,9,99999,9,99,9,99,9","10129,1,99999,9",,"MET071METAR ENFB 270550Z AUTO 09021KT 9999NDV BKN033/// M02/M12 Q1013 W///S5;",
"01488199999","2010-11-27T06:20:00","4","61.206389","1.828889","142.0","STATFJORD B OIL PLATFORM, NO","FM-15","ENFB ","V020","080,1,N,0113,1","01350,1,9,N","011265,1,N,1","-0020,1","-0120,1","99999,9",,,"07,1,+01350,1,99,9",,,"07,99,1,99,9,99,9,99999,9,99,9,99,9","10129,1,99999,9",,"MET071METAR ENFB 270620Z AUTO 08022KT 9999NDV BKN045/// M02/M12 Q1013 W///S5;",
"01488199999","2010-11-27T06:50:00","4","61.206389","1.828889","142.0","STATFJORD B OIL PLATFORM, NO","FM-15","ENFB ","V020","080,1,N,0113,1","01080,1,9,N","007000,1,N,1","-0020,1","-0090,1","99999,9","71,1",,"07,1,+01080,1,99,9",,,"07,99,1,99,9,99,9,99999,9,99,9,99,9","10129,1,99999,9","0165,1","MET078METAR ENFB 270650Z AUTO 08022G32KT 7000NDV -SN BKN036/// M02/M09 Q1013 W///S5;",
"01488199999","2010-11-27T07:20:00","4","61.206389","1.828889","142.0","STATFJORD B OIL PLATFORM, NO","FM-15","ENFB ","V020","080,1,N,0118,1","01050,1,9,N","011265,1,N,1","-0020,1","-0100,1","99999,9","85,1",,"07,1,+01050,1,99,9","07,1,+01500,1,99,9",,"07,99,1,99,9,99,9,99999,9,99,9,99,9","10129,1,99999,9",,"MET087METAR ENFB 270720Z AUTO 08023KT 9999NDV -SHSN BKN035/// BKN058/// M02/M10 Q1013 W///S5;",
"01488199999","2010-11-27T07:50:00","4","61.206389","1.828889","142.0","STATFJORD B OIL PLATFORM, NO","FM-15","ENFB ","V020","080,1,N,0113,1","01080,1,9,N","011265,1,N,1","-0020,1","-0090,1","99999,9","85,1",,"07,1,+01080,1,99,9",,,"07,99,1,99,9,99,9,99999,9,99,9,99,9","10129,1,99999,9",,"MET077METAR ENFB 270750Z AUTO 08022KT 9999NDV -SHSN BKN036/// M02/M09 Q1013 W///S4;",
"01488199999","2010-11-27T08:20:00","4","61.206389","1.828889","142.0","STATFJORD B OIL PLATFORM, NO","FM-15","ENFB ","V020","080,1,N,0108,1","00960,1,C,N","011265,1,N,1","-0030,1","-0080,1","99999,9","85,1",,"02,1,+00750,1,99,9","04,1,+00960,1,99,9","07,1,+01170,1,99,9","07,99,1,99,9,99,9,99999,9,99,9,99,9","10139,1,99999,9",,"MET097METAR ENFB 270820Z AUTO 08021KT 9999NDV -SHSN FEW025/// SCT032/// BKN039/// M03/M08 Q1014 W///S4;",
"01488199999","2010-11-27T08:50:00","4","61.206389","1.828889","142.0","STATFJORD B OIL PLATFORM, NO","FM-15","ENFB ","V020","090,1,N,0098,1","00900,1,9,N","011265,1,N,1","-0020,1","-0130,1","99999,9","85,1",,"07,1,+00900,1,99,9","07,1,+01800,1,99,9",,"07,99,1,99,9,99,9,99999,9,99,9,99,9","10139,1,99999,9",,"MET087METAR ENFB 270850Z AUTO 09019KT 9999NDV -SHSN BKN030/// BKN061/// M02/M13 Q1014 W///S4;",
"01488199999","2010-11-27T09:20:00","4","61.206389","1.828889","142.0","STATFJORD B OIL PLATFORM, NO","FM-15","ENFB ","V020","100,1,N,0103,1","01500,1,9,N","011265,1,N,1","-0020,1","-0130,1","99999,9",,,"02,1,+01110,1,99,9","07,1,+01500,1,99,9",,"07,99,1,99,9,99,9,99999,9,99,9,99,9","10139,1,99999,9",,"MET081METAR ENFB 270920Z AUTO 10020KT 9999NDV FEW037/// BKN050/// M02/M13 Q1014 W///S4;",
"01488199999","2010-11-27T09:50:00","4","61.206389","1.828889","142.0","STATFJORD B OIL PLATFORM, NO","FM-15","ENFB ","V020","100,1,N,0093,1","01140,1,9,N","011265,1,N,1","-0020,1","-0110,1","99999,9",,,"07,1,+01140,1,99,9",,,"07,99,1,99,9,99,9,99999,9,99,9,99,9","10139,1,99999,9",,"MET071METAR ENFB 270950Z AUTO 10018KT 9999NDV BKN038/// M02/M11 Q1014 W///S4;",
"01488199999","2010-11-27T10:20:00","4","61.206389","1.828889","142.0","STATFJORD B OIL PLATFORM, NO","FM-15","ENFB ","V020","090,1,N,0108,1","01500,1,9,N","011265,1,N,1","-0020,1","-0130,1","99999,9",,,"02,1,+01350,1,99,9","07,1,+01500,1,99,9",,"07,99,1,99,9,99,9,99999,9,99,9,99,9","10139,1,99999,9",,"MET081METAR ENFB 271020Z AUTO 09021KT 9999NDV FEW045/// BKN056/// M02/M13 Q1014 W///S4;",
"01488199999","2010-11-27T10:50:00","4","61.206389","1.828889","142.0","STATFJORD B OIL PLATFORM, NO","FM-15","ENFB ","V020","080,1,N,0108,1","01170,1,9,N","011265,1,N,1","-0020,1","-0090,1","99999,9","85,1",,"07,1,+01170,1,99,9",,,"07,99,1,99,9,99,9,99999,9,99,9,99,9","10139,1,99999,9",,"MET077METAR ENFB 271050Z AUTO 08021KT 9999NDV -SHSN BKN039/// M02/M09 Q1014 W///S4;",
"01488199999","2010-11-27T11:20:00","4","61.206389","1.828889","142.0","STATFJORD B OIL PLATFORM, NO","FM-15","ENFB ","V020","090,1,N,0098,1","00960,1,9,N","011265,1,N,1","-0010,1","-0120,1","99999,9","85,1",,"07,1,+00960,1,99,9",,,"07,99,1,99,9,99,9,99999,9,99,9,99,9","10139,1,99999,9",,"MET077METAR ENFB 271120Z AUTO 09019KT 9999NDV -SHSN BKN032/// M01/M12 Q1014 W///S4;",
"01488199999","2010-11-27T11:50:00","4","61.206389","1.828889","142.0","STATFJORD B OIL PLATFORM, NO","FM-15","ENFB ","V020","100,1,N,0093,1","01500,1,9,N","011265,1,N,1","-0010,1","-0110,1","99999,9",,,"07,1,+01500,1,99,9",,,"07,99,1,99,9,99,9,99999,9,99,9,99,9","10139,1,99999,9",,"MET071METAR ENFB 271150Z AUTO 10018KT 9999NDV BKN053/// M01/M11 Q1014 W///S4;",
"01488199999","2010-11-27T12:20:00","4","61.206389","1.828889","142.0","STATFJORD B OIL PLATFORM, NO","FM-15","ENFB ","V020","100,1,N,0103,1","01500,1,9,N","011265,1,N,1","-0010,1","-0110,1","99999,9",,,"02,1,+01230,1,99,9","07,1,+01500,1,99,9",,"07,99,1,99,9,99,9,99999,9,99,9,99,9","10139,1,99999,9",,"MET081METAR ENFB 271220Z AUTO 10020KT 9999NDV FEW041/// BKN052/// M01/M11 Q1014 W///S4;",
"01488199999","2010-11-27T12:50:00","4","61.206389","1.828889","142.0","STATFJORD B OIL PLATFORM, NO","FM-15","ENFB ","V020","100,1,N,0123,1","01170,1,C,N","011265,1,N,1","-0020,1","-0080,1","99999,9","71,1",,"02,1,+00750,1,99,9","04,1,+01170,1,99,9","07,1,+01500,1,99,9","07,99,1,99,9,99,9,99999,9,99,9,99,9","10149,1,99999,9",,"MET095METAR ENFB 271250Z AUTO 10024KT 9999NDV -SN FEW025/// SCT039/// BKN054/// M02/M08 Q1015 W///S4;",
"01488199999","2010-11-27T13:20:00","4","61.206389","1.828889","142.0","STATFJORD B OIL PLATFORM, NO","FM-15","ENFB ","V020","110,1,N,0098,1","01020,1,9,N","011265,1,N,1","-0020,1","-0100,1","99999,9",,,"02,1,+00720,1,99,9","07,1,+01020,1,99,9",,"07,99,1,99,9,99,9,99999,9,99,9,99,9","10149,1,99999,9",,"MET081METAR ENFB 271320Z AUTO 11019KT 9999NDV FEW024/// BKN034/// M02/M10 Q1015 W///S4;",
"01488199999","2010-11-27T13:50:00","4","61.206389","1.828889","142.0","STATFJORD B OIL PLATFORM, NO","FM-15","ENFB ","V020","090,1,N,0082,1","00870,1,9,N","011265,1,N,1","-0010,1","-0090,1","99999,9","85,1",,"02,1,+00390,1,99,9","07,1,+00870,1,99,9","07,1,+01500,1,99,9","07,99,1,99,9,99,9,99999,9,99,9,99,9","10149,1,99999,9",,"MET105METAR ENFB 271350Z AUTO 09016KT 060V120 9999NDV -SHSN FEW013/// BKN029/// BKN057/// M01/M09 Q1015 W///S4;",
"01488199999","2010-11-27T14:20:00","4","61.206389","1.828889","142.0","STATFJORD B OIL PLATFORM, NO","FM-15","ENFB ","V020","110,1,N,0093,1","01290,1,9,N","011265,1,N,1","-0010,1","-0090,1","99999,9","85,1",,"07,1,+01290,1,99,9",,,"07,99,1,99,9,99,9,99999,9,99,9,99,9","10149,1,99999,9",,"MET077METAR ENFB 271420Z AUTO 11018KT 9999NDV -SHSN BKN043/// M01/M09 Q1015 W///S4;",
"01488199999","2010-11-27T14:50:00","4","61.206389","1.828889","142.0","STATFJORD B OIL PLATFORM, NO","FM-15","ENFB ","V020","090,1,N,0098,1","01200,1,9,N","011265,1,N,1","-0010,1","-0090,1","99999,9","85,1",,"07,1,+01200,1,99,9",,,"07,99,1,99,9,99,9,99999,9,99,9,99,9","10149,1,99999,9",,"MET077METAR ENFB 271450Z AUTO 09019KT 9999NDV -SHSN BKN040/// M01/M09 Q1015 W///S4;",
"01488199999","2010-11-27T15:20:00","4","61.206389","1.828889","142.0","STATFJORD B OIL PLATFORM, NO","FM-15","ENFB ","V020","090,1,N,0077,1","01500,1,9,N","011265,1,N,1","-0010,1","-0090,1","99999,9","85,1",,"07,1,+01500,1,99,9",,,"07,99,1,99,9,99,9,99999,9,99,9,99,9","10149,1,99999,9",,"MET077METAR ENFB 271520Z AUTO 09015KT 9999NDV -SHSN BKN052/// M01/M09 Q1015 W///S4;",
"01488199999","2010-11-27T15:50:00","4","61.206389","1.828889","142.0","STATFJORD B OIL PLATFORM, NO","FM-15","ENFB ","V020","080,1,N,0087,1","01500,1,9,N","011265,1,N,1","-0010,1","-0090,1","99999,9",,,"07,1,+01500,1,99,9",,,"07,99,1,99,9,99,9,99999,9,99,9,99,9","10149,1,99999,9",,"MET071METAR ENFB 271550Z AUTO 08017KT 9999NDV BKN054/// M01/M09 Q1015 W///S4;",
"01488199999","2010-11-27T16:20:00","4","61.206389","1.828889","142.0","STATFJORD B OIL PLATFORM, NO","FM-15","ENFB ","V020","100,1,N,0077,1","01110,1,9,N","011265,1,N,1","-0010,1","-0100,1","99999,9","85,1",,"07,1,+01110,1,99,9",,,"07,99,1,99,9,99,9,99999,9,99,9,99,9","10149,1,99999,9",,"MET077METAR ENFB 271620Z AUTO 10015KT 9999NDV -SHSN BKN037/// M01/M10 Q1015 W///S5;",
"01488199999","2010-11-27T16:50:00","4","61.206389","1.828889","142.0","STATFJORD B OIL PLATFORM, NO","FM-15","ENFB ","V020","110,1,N,0098,1","01500,1,9,N","011265,1,N,1","-0010,1","-0090,1","99999,9",,,"07,1,+01500,1,99,9",,,"07,99,1,99,9,99,9,99999,9,99,9,99,9","10149,1,99999,9",,"MET071METAR ENFB 271650Z AUTO 11019KT 9999NDV BKN050/// M01/M09 Q1015 W///S4;",
"01488199999","2010-11-27T17:20:00","4","61.206389","1.828889","142.0","STATFJORD B OIL PLATFORM, NO","FM-15","ENFB ","V020","090,1,N,0108,1","01050,1,9,N","011265,1,N,1","-0010,1","-0080,1","99999,9","85,1",,"07,1,+01050,1,99,9",,,"07,99,1,99,9,99,9,99999,9,99,9,99,9","10149,1,99999,9",,"MET077METAR ENFB 271720Z AUTO 09021KT 9999NDV -SHSN BKN035/// M01/M08 Q1015 W///S5;",
"01488199999","2010-11-27T17:50:00","4","61.206389","1.828889","142.0","STATFJORD B OIL PLATFORM, NO","FM-15","ENFB ","V020","100,1,N,0082,1","00870,1,9,N","011265,1,N,1","-0010,1","-0080,1","99999,9","85,1",,"07,1,+00870,1,99,9","08,1,+01200,1,99,9",,"08,99,1,99,9,99,9,99999,9,99,9,99,9","10159,1,99999,9",,"MET087METAR ENFB 271750Z AUTO 10016KT 9999NDV -SHSN BKN029/// OVC040/// M01/M08 Q1016 W///S5;",
"01488199999","2010-11-27T18:20:00","4","61.206389","1.828889","142.0","STATFJORD B OIL PLATFORM, NO","FM-15","ENFB ","V020","090,1,N,0098,1","01170,1,9,N","011265,1,N,1","+0000,1","-0100,1","99999,9",,,"07,1,+01170,1,99,9",,,"07,99,1,99,9,99,9,99999,9,99,9,99,9","10159,1,99999,9",,"MET070METAR ENFB 271820Z AUTO 09019KT 9999NDV BKN039/// 00/M10 Q1016 W///S5;",
"01488199999","2010-11-27T18:50:00","4","61.206389","1.828889","142.0","STATFJORD B OIL PLATFORM, NO","FM-15","ENFB ","V020","100,1,N,0098,1","01500,1,C,N","011265,1,N,1","+0000,1","-0100,1","99999,9",,,"04,1,+01230,1,99,9","04,1,+01500,1,99,9","07,1,+02400,1,99,9","07,99,1,99,9,99,9,99999,9,99,9,99,9","10159,1,99999,9",,"MET090METAR ENFB 271850Z AUTO 10019KT 9999NDV SCT041/// SCT055/// BKN087/// 00/M10 Q1016 W///S4;",
"01488199999","2010-11-27T19:20:00","4","61.206389","1.828889","142.0","STATFJORD B OIL PLATFORM, NO","FM-15","ENFB ","V020","100,1,N,0098,1","01170,1,9,N","011265,1,N,1","+0000,1","-0100,1","99999,9",,,"07,1,+01170,1,99,9","07,1,+02100,1,99,9",,"07,99,1,99,9,99,9,99999,9,99,9,99,9","10159,1,99999,9",,"MET080METAR ENFB 271920Z AUTO 10019KT 9999NDV BKN039/// BKN071/// 00/M10 Q1016 W///S5;",
"01488199999","2010-11-27T19:50:00","4","61.206389","1.828889","142.0","STATFJORD B OIL PLATFORM, NO","FM-15","ENFB ","V020","090,1,N,0093,1","01170,1,9,N","011265,1,N,1","+0000,1","-0090,1","99999,9","81,1",,"07,1,+01170,1,99,9",,,"07,99,1,99,9,99,9,99999,9,99,9,99,9","10159,1,99999,9",,"MET076METAR ENFB 271950Z AUTO 09018KT 9999NDV -SHRA BKN039/// 00/M09 Q1016 W///S5;",
"01488199999","2010-11-27T20:20:00","4","61.206389","1.828889","142.0","STATFJORD B OIL PLATFORM, NO","FM-15","ENFB ","V020","100,1,N,0098,1","01230,1,9,N","011265,1,N,1","+0000,1","-0100,1","99999,9",,,"07,1,+01230,1,99,9",,,"07,99,1,99,9,99,9,99999,9,99,9,99,9","10169,1,99999,9",,"MET070METAR ENFB 272020Z AUTO 10019KT 9999NDV BKN041/// 00/M10 Q1017 W///S4;",
"01488199999","2010-11-27T20:50:00","4","61.206389","1.828889","142.0","STATFJORD B OIL PLATFORM, NO","FM-15","ENFB ","V020","100,1,N,0098,1","01170,1,9,N","011265,1,N,1","-0010,1","-0100,1","99999,9","81,1",,"07,1,+01170,1,99,9",,,"07,99,1,99,9,99,9,99999,9,99,9,99,9","10169,1,99999,9",,"MET077METAR ENFB 272050Z AUTO 10019KT 9999NDV -SHRA BKN039/// M01/M10 Q1017 W///S4;",
"01488199999","2010-11-27T21:20:00","4","61.206389","1.828889","142.0","STATFJORD B OIL PLATFORM, NO","FM-15","ENFB ","V020","100,1,N,0098,1","01200,1,9,N","011265,1,N,1","+0000,1","-0100,1","99999,9",,,"07,1,+01200,1,99,9",,,"07,99,1,99,9,99,9,99999,9,99,9,99,9","10169,1,99999,9",,"MET070METAR ENFB 272120Z AUTO 10019KT 9999NDV BKN040/// 00/M10 Q1017 W///S4;",
"01488199999","2010-11-27T21:50:00","4","61.206389","1.828889","142.0","STATFJORD B OIL PLATFORM, NO","FM-15","ENFB ","V020","070,1,N,0093,1","01290,1,9,N","011265,1,N,1","+0000,1","-0110,1","99999,9",,,"07,1,+01290,1,99,9",,,"07,99,1,99,9,99,9,99999,9,99,9,99,9","10169,1,99999,9",,"MET070METAR ENFB 272150Z AUTO 07018KT 9999NDV BKN043/// 00/M11 Q1017 W///S4;",
"01488199999","2010-11-27T22:20:00","4","61.206389","1.828889","142.0","STATFJORD B OIL PLATFORM, NO","FM-15","ENFB ","V020","090,1,N,0093,1","01290,1,9,N","011265,1,N,1","+0000,1","-0100,1","99999,9",,,"07,1,+01290,1,99,9",,,"07,99,1,99,9,99,9,99999,9,99,9,99,9","10169,1,99999,9",,"MET070METAR ENFB 272220Z AUTO 09018KT 9999NDV BKN043/// 00/M10 Q1017 W///S4;",
"01488199999","2010-11-27T22:50:00","4","61.206389","1.828889","142.0","STATFJORD B OIL PLATFORM, NO","FM-15","ENFB ","V020","070,1,N,0093,1","01260,1,9,N","011265,1,N,1","+0000,1","-0100,1","99999,9",,,"07,1,+01260,1,99,9",,,"07,99,1,99,9,99,9,99999,9,99,9,99,9","10169,1,99999,9",,"MET070METAR ENFB 272250Z AUTO 07018KT 9999NDV BKN042/// 00/M10 Q1017 W///S4;",
"01488199999","2010-11-27T23:20:00","4","61.206389","1.828889","142.0","STATFJORD B OIL PLATFORM, NO","FM-15","ENFB ","V020","080,1,N,0087,1","01320,1,9,N","011265,1,N,1","+0000,1","-0100,1","99999,9",,,"07,1,+01320,1,99,9",,,"07,99,1,99,9,99,9,99999,9,99,9,99,9","10180,1,99999,9",,"MET070METAR ENFB 272320Z AUTO 08017KT 9999NDV BKN044/// 00/M10 Q1018 W///S4;",
"01488199999","2010-11-27T23:50:00","4","61.206389","1.828889","142.0","STATFJORD B OIL PLATFORM, NO","FM-15","ENFB ","V020","080,1,N,0082,1","01320,1,9,N","011265,1,N,1","+0000,1","-0100,1","99999,9",,,"07,1,+01320,1,99,9",,,"07,99,1,99,9,99,9,99999,9,99,9,99,9","10180,1,99999,9",,"MET070METAR ENFB 272350Z AUTO 08016KT 9999NDV BKN044/// 00/M10 Q1018 W///S4;",
"01488199999","2010-11-28T00:20:00","4","61.206389","1.828889","142.0","STATFJORD B OIL PLATFORM, NO","FM-15","ENFB ","V020","080,1,N,0082,1","01260,1,9,N","011265,1,N,1","+0000,1","-0100,1","99999,9",,,"07,1,+01260,1,99,9",,,"07,99,1,99,9,99,9,99999,9,99,9,99,9","10180,1,99999,9",,"MET078METAR ENFB 280020Z AUTO 08016KT 050V110 9999NDV BKN042/// 00/M10 Q1018 W///S4;",
"01488199999","2010-11-28T00:50:00","4","61.206389","1.828889","142.0","STATFJORD B OIL PLATFORM, NO","FM-15","ENFB ","V020","070,1,N,0077,1","01260,1,9,N","011265,1,N,1","+0000,1","-0090,1","99999,9","81,1",,"07,1,+01260,1,99,9",,,"07,99,1,99,9,99,9,99999,9,99,9,99,9","10180,1,99999,9",,"MET076METAR ENFB 280050Z AUTO 07015KT 9999NDV -SHRA BKN042/// 00/M09 Q1018 W///S4;",
"01488199999","2010-11-28T01:20:00","4","61.206389","1.828889","142.0","STATFJORD B OIL PLATFORM, NO","FM-15","ENFB ","V020","080,1,N,0093,1","01140,1,9,N","011265,1,N,1","+0000,1","-0090,1","99999,9","81,1",,"08,1,+01140,1,99,9",,,"08,99,1,99,9,99,9,99999,9,99,9,99,9","10180,1,99999,9",,"MET076METAR ENFB 280120Z AUTO 08018KT 9999NDV -SHRA OVC038/// 00/M09 Q1018 W///S4;",
"01488199999","2010-11-28T01:50:00","4","61.206389","1.828889","142.0","STATFJORD B OIL PLATFORM, NO","FM-15","ENFB ","V020","100,1,N,0093,1","01200,1,9,N","011265,1,N,1","+0000,1","-0100,1","99999,9",,,"08,1,+01200,1,99,9",,,"08,99,1,99,9,99,9,99999,9,99,9,99,9","10180,1,99999,9",,"MET070METAR ENFB 280150Z AUTO 10018KT 9999NDV OVC040/// 00/M10 Q1018 W///S4;",
"01488199999","2010-11-28T02:20:00","4","61.206389","1.828889","142.0","STATFJORD B OIL PLATFORM, NO","FM-15","ENFB ","V020","080,1,N,0087,1","01140,1,9,N","011265,1,N,1","+0000,1","-0100,1","99999,9",,,"07,1,+01140,1,99,9",,,"07,99,1,99,9,99,9,99999,9,99,9,99,9","10190,1,99999,9",,"MET070METAR ENFB 280220Z AUTO 08017KT 9999NDV BKN038/// 00/M10 Q1019 W///S4;",
"01488199999","2010-11-28T02:50:00","4","61.206389","1.828889","142.0","STATFJORD B OIL PLATFORM, NO","FM-15","ENFB ","V020","080,1,N,0072,1","01290,1,9,N","011265,1,N,1","+0000,1","-0110,1","99999,9",,,"07,1,+01290,1,99,9",,,"07,99,1,99,9,99,9,99999,9,99,9,99,9","10190,1,99999,9",,"MET070METAR ENFB 280250Z AUTO 08014KT 9999NDV BKN043/// 00/M11 Q1019 W///S4;",
"01488199999","2010-11-28T03:20:00","4","61.206389","1.828889","142.0","STATFJORD B OIL PLATFORM, NO","FM-15","ENFB ","V020","999,9,9,9999,9","22000,1,9,N","011265,1,N,1","+0000,1","-0100,1","99999,9",,,,,,"00,99,1,99,9,99,9,99999,9,99,9,99,9","10190,1,99999,9",,"MET064METAR ENFB 280320Z AUTO /////KT 9999NDV NCD 00/M10 Q1019 W///S4;","Q01    003SCCGA1"
"01488199999","2010-11-28T03:50:00","4","61.206389","1.828889","142.0","STATFJORD B OIL PLATFORM, NO","FM-15","ENFB ","V020","080,1,N,0082,1","01140,1,9,N","011265,1,N,1","+0000,1","-0100,1","99999,9",,,"07,1,+01140,1,99,9",,,"07,99,1,99,9,99,9,99999,9,99,9,99,9","10190,1,99999,9",,"MET070METAR ENFB 280350Z AUTO 08016KT 9999NDV BKN038/// 00/M10 Q1019 W///S4;",
"01488199999","2010-11-28T04:20:00","4","61.206389","1.828889","142.0","STATFJORD B OIL PLATFORM, NO","FM-15","ENFB ","V020","070,1,N,0077,1","01170,1,9,N","011265,1,N,1","+0000,1","-0100,1","99999,9",,,"07,1,+01170,1,99,9",,,"07,99,1,99,9,99,9,99999,9,99,9,99,9","10190,1,99999,9",,"MET070METAR ENFB 280420Z AUTO 07015KT 9999NDV BKN039/// 00/M10 Q1019 W///S4;",
"01488199999","2010-11-28T04:50:00","4","61.206389","1.828889","142.0","STATFJORD B OIL PLATFORM, NO","FM-15","ENFB ","V020","070,1,N,0093,1","01170,1,9,N","011265,1,N,1","-0010,1","-0110,1","99999,9",,,"07,1,+01170,1,99,9",,,"07,99,1,99,9,99,9,99999,9,99,9,99,9","10190,1,99999,9",,"MET071METAR ENFB 280450Z AUTO 07018KT 9999NDV BKN039/// M01/M11 Q1019 W///S4;",
"01488199999","2010-11-28T05:20:00","4","61.206389","1.828889","142.0","STATFJORD B OIL PLATFORM, NO","FM-15","ENFB ","V020","070,1,N,0087,1","01230,1,9,N","011265,1,N,1","+0000,1","-0110,1","99999,9",,,"07,1,+01230,1,99,9",,,"07,99,1,99,9,99,9,99999,9,99,9,99,9","10190,1,99999,9",,"MET070METAR ENFB 280520Z AUTO 07017KT 9999NDV BKN041/// 00/M11 Q1019 W///S4;",
"01488199999","2010-11-28T05:50:00","4","61.206389","1.828889","142.0","STATFJORD B OIL PLATFORM, NO","FM-15","ENFB ","V020","080,1,N,0093,1","01260,1,9,N","011265,1,N,1","+0000,1","-0100,1","99999,9",,,"07,1,+01260,1,99,9",,,"07,99,1,99,9,99,9,99999,9,99,9,99,9","10190,1,99999,9",,"MET070METAR ENFB 280550Z AUTO 08018KT 9999NDV BKN042/// 00/M10 Q1019 W///S4;",
"01488199999","2010-11-28T06:20:00","4","61.206389","1.828889","142.0","STATFJORD B OIL PLATFORM, NO","FM-15","ENFB ","V020","090,1,N,0093,1","01230,1,9,N","011265,1,N,1","+0000,1","-0100,1","99999,9",,,"07,1,+01230,1,99,9",,,"07,99,1,99,9,99,9,99999,9,99,9,99,9","10190,1,99999,9",,"MET070METAR ENFB 280620Z AUTO 09018KT 9999NDV BKN041/// 00/M10 Q1019 W///S4;",
"01488199999","2010-11-28T06:50:00","4","61.206389","1.828889","142.0","STATFJORD B OIL PLATFORM, NO","FM-15","ENFB ","V020","090,1,N,0093,1","01200,1,9,N","011265,1,N,1","+0000,1","-0100,1","99999,9",,,"07,1,+01200,1,99,9",,,"07,99,1,99,9,99,9,99999,9,99,9,99,9","10190,1,99999,9",,"MET070METAR ENFB 280650Z AUTO 09018KT 9999NDV BKN040/// 00/M10 Q1019 W///S4;",
"01488199999","2010-11-28T07:20:00","4","61.206389","1.828889","142.0","STATFJORD B OIL PLATFORM, NO","FM-15","ENFB ","V020","090,1,N,0093,1","01170,1,9,N","011265,1,N,1","+0000,1","-0100,1","99999,9",,,"07,1,+01170,1,99,9",,,"07,99,1,99,9,99,9,99999,9,99,9,99,9","10200,1,99999,9",,"MET070METAR ENFB 280720Z AUTO 09018KT 9999NDV BKN039/// 00/M10 Q1020 W///S4;",
"01488199999","2010-11-28T07:50:00","4","61.206389","1.828889","142.0","STATFJORD B OIL PLATFORM, NO","FM-15","ENFB ","V020","090,1,N,0077,1","01200,1,9,N","011265,1,N,1","-0010,1","-0100,1","99999,9",,,"07,1,+01200,1,99,9",,,"07,99,1,99,9,99,9,99999,9,99,9,99,9","10200,1,99999,9",,"MET071METAR ENFB 280750Z AUTO 09015KT 9999NDV BKN040/// M01/M10 Q1020 W///S4;",
"01488199999","2010-11-28T08:20:00","4","61.206389","1.828889","142.0","STATFJORD B OIL PLATFORM, NO","FM-15","ENFB ","V020","090,1,N,0087,1","22000,1,9,N","011265,1,N,1","-0010,1","-0100,1","99999,9",,,"04,1,+01200,1,99,9",,,"04,99,1,99,9,99,9,99999,9,99,9,99,9","10200,1,99999,9",,"MET071METAR ENFB 280820Z AUTO 09017KT 9999NDV SCT040/// M01/M10 Q1020 W///S4;",
"01488199999","2010-11-28T08:50:00","4","61.206389","1.828889","142.0","STATFJORD B OIL PLATFORM, NO","FM-15","ENFB ","V020","080,1,N,0087,1","22000,1,9,N","011265,1,N,1","+0000,1","-0110,1","99999,9",,,,,,"00,99,1,99,9,99,9,99999,9,99,9,99,9","10210,1,99999,9",,"MET064METAR ENFB 280850Z AUTO 08017KT 9999NDV NCD 00/M11 Q1021 W///S4;","Q01    003SCCGA1"
"01488199999","2010-11-28T09:20:00","4","61.206389","1.828889","142.0","STATFJORD B OIL PLATFORM, NO","FM-15","ENFB ","V020","080,1,N,0093,1","22000,1,9,N","011265,1,N,1","+0000,1","-0110,1","99999,9",,,"02,1,+01230,1,99,9",,,"02,99,1,99,9,99,9,99999,9,99,9,99,9","10210,1,99999,9",,"MET070METAR ENFB 280920Z AUTO 08018KT 9999NDV FEW041/// 00/M11 Q1021 W///S4;",
"01488199999","2010-11-28T09:50:00","4","61.206389","1.828889","142.0","STATFJORD B OIL PLATFORM, NO","FM-15","ENFB ","V020","080,1,N,0082,1","22000,1,9,N","011265,1,N,1","+0000,1","-0110,1","99999,9",,,"04,1,+01230,1,99,9",,,"04,99,1,99,9,99,9,99999,9,99,9,99,9","10210,1,99999,9",,"MET070METAR ENFB 280950Z AUTO 08016KT 9999NDV SCT041/// 00/M11 Q1021 W///S4;",
"01488199999","2010-11-28T10:20:00","4","61.206389","1.828889","142.0","STATFJORD B OIL PLATFORM, NO","FM-15","ENFB ","V020","080,1,N,0087,1","01170,1,9,N","011265,1,N,1","+0000,1","-0100,1","99999,9",,,"07,1,+01170,1,99,9",,,"07,99,1,99,9,99,9,99999,9,99,9,99,9","10210,1,99999,9",,"MET070METAR ENFB 281020Z AUTO 08017KT 9999NDV BKN039/// 00/M10 Q1021 W///S4;",
"01488199999","2010-11-28T10:50:00","4","61.206389","1.828889","142.0","STATFJORD B OIL PLATFORM, NO","FM-15","ENFB ","V020","080,1,N,0077,1","22000,1,9,N","011265,1,N,1","+0000,1","-0100,1","99999,9",,,"04,1,+01140,1,99,9",,,"04,99,1,99,9,99,9,99999,9,99,9,99,9","10220,1,99999,9",,"MET070METAR ENFB 281050Z AUTO 08015KT 9999NDV SCT038/// 00/M10 Q1022 W///S4;",
"01488199999","2010-11-28T11:20:00","4","61.206389","1.828889","142.0","STATFJORD B OIL PLATFORM, NO","FM-15","ENFB ","V020","080,1,N,0072,1","01110,1,9,N","011265,1,N,1","+0000,1","-0120,1","99999,9",,,"07,1,+01110,1,99,9",,,"07,99,1,99,9,99,9,99999,9,99,9,99,9","10220,1,99999,9",,"MET078METAR ENFB 281120Z AUTO 08014KT 060V120 9999NDV BKN037/// 00/M12 Q1022 W///S4;",
"01488199999","2010-11-28T11:50:00","4","61.206389","1.828889","142.0","STATFJORD B OIL PLATFORM, NO","FM-15","ENFB ","V020","080,1,N,0082,1","01230,1,9,N","011265,1,N,1","+0000,1","-0110,1","99999,9",,,"07,1,+01230,1,99,9",,,"07,99,1,99,9,99,9,99999,9,99,9,99,9","10220,1,99999,9",,"MET070METAR ENFB 281150Z AUTO 08016KT 9999NDV BKN041/// 00/M11 Q1022 W///S4;",
"01488199999","2010-11-28T12:20:00","4","61.206389","1.828889","142.0","STATFJORD B OIL PLATFORM, NO","FM-15","ENFB ","V020","070,1,N,0082,1","01140,1,9,N","011265,1,N,1","+0000,1","-0120,1","99999,9",,,"07,1,+01140,1,99,9",,,"07,99,1,99,9,99,9,99999,9,99,9,99,9","10220,1,99999,9",,"MET070METAR ENFB 281220Z AUTO 07016KT 9999NDV BKN038/// 00/M12 Q1022 W///S4;",
"01488199999","2010-11-28T12:50:00","4","61.206389","1.828889","142.0","STATFJORD B OIL PLATFORM, NO","FM-15","ENFB ","V020","080,1,N,0072,1","22000,1,9,N","011265,1,N,1","+0000,1","-0110,1","99999,9",,,"02,1,+01290,1,99,9",,,"02,99,1,99,9,99,9,99999,9,99,9,99,9","10220,1,99999,9",,"MET070METAR ENFB 281250Z AUTO 08014KT 9999NDV FEW043/// 00/M11 Q1022 W///S4;",
"01488199999","2010-11-28T13:20:00","4","61.206389","1.828889","142.0","STATFJORD B OIL PLATFORM, NO","FM-15","ENFB ","V020","080,1,N,0062,1","22000,1,9,N","011265,1,N,1","+0000,1","-0100,1","99999,9",,,"02,1,+01110,1,99,9",,,"02,99,1,99,9,99,9,99999,9,99,9,99,9","10220,1,99999,9",,"MET070METAR ENFB 281320Z AUTO 08012KT 9999NDV FEW037/// 00/M10 Q1022 W///S4;",
"01488199999","2010-11-28T13:50:00","4","61.206389","1.828889","142.0","STATFJORD B OIL PLATFORM, NO","FM-15","ENFB ","V020","080,1,N,0082,1","01200,1,9,N","011265,1,N,1","+0000,1","-0090,1","99999,9",,,"07,1,+01200,1,99,9",,,"07,99,1,99,9,99,9,99999,9,99,9,99,9","10220,1,99999,9",,"MET070METAR ENFB 281350Z AUTO 08016KT 9999NDV BKN040/// 00/M09 Q1022 W///S4;",
"01488199999","2010-11-28T14:20:00","4","61.206389","1.828889","142.0","STATFJORD B OIL PLATFORM, NO","FM-15","ENFB ","V020","080,1,N,0082,1","01170,1,9,N","011265,1,N,1","+0000,1","-0090,1","99999,9","81,1",,"07,1,+01170,1,99,9",,,"07,99,1,99,9,99,9,99999,9,99,9,99,9","10220,1,99999,9",,"MET076METAR ENFB 281420Z AUTO 08016KT 9999NDV -SHRA BKN039/// 00/M09 Q1022 W///S4;",
"01488199999","2010-11-28T14:50:00","4","61.206389","1.828889","142.0","STATFJORD B OIL PLATFORM, NO","FM-15","ENFB ","V020","070,1,N,0093,1","01170,1,9,N","011265,1,N,1","+0000,1","-0090,1","99999,9",,,"07,1,+01170,1,99,9",,,"07,99,1,99,9,99,9,99999,9,99,9,99,9","10220,1,99999,9",,"MET070METAR ENFB 281450Z AUTO 07018KT 9999NDV BKN039/// 00/M09 Q1022 W///S4;",
"01488199999","2010-11-28T15:20:00","4","61.206389","1.828889","142.0","STATFJORD B OIL PLATFORM, NO","FM-15","ENFB ","V020","070,1,N,0098,1","01140,1,9,N","011265,1,N,1","+0000,1","-0100,1","99999,9",,,"07,1,+01140,1,99,9",,,"07,99,1,99,9,99,9,99999,9,99,9,99,9","10220,1,99999,9",,"MET070METAR ENFB 281520Z AUTO 07019KT 9999NDV BKN038/// 00/M10 Q1022 W///S5;",
"01488199999","2010-11-28T15:50:00","4","61.206389","1.828889","142.0","STATFJORD B OIL PLATFORM, NO","FM-15","ENFB ","V020","090,1,N,0098,1","01110,1,9,N","011265,1,N,1","+0000,1","-0090,1","99999,9",,,"07,1,+01110,1,99,9",,,"07,99,1,99,9,99,9,99999,9,99,9,99,9","10220,1,99999,9",,"MET070METAR ENFB 281550Z AUTO 09019KT 9999NDV BKN037/// 00/M09 Q1022 W///S4;",
"01488199999","2010-11-28T16:20:00","4","61.206389","1.828889","142.0","STATFJORD B OIL PLATFORM, NO","FM-15","ENFB ","V020","080,1,N,0093,1","22000,1,9,N","011265,1,N,1","-0010,1","-0100,1","99999,9",,,"04,1,+01170,1,99,9",,,"04,99,1,99,9,99,9,99999,9,99,9,99,9","10220,1,99999,9",,"MET071METAR ENFB 281620Z AUTO 08018KT 9999NDV SCT039/// M01/M10 Q1022 W///S4;",
"01488199999","2010-11-28T16:50:00","4","61.206389","1.828889","142.0","STATFJORD B OIL PLATFORM, NO","FM-15","ENFB ","V020","080,1,N,0103,1","22000,1,9,N","011265,1,N,1","-0010,1","-0100,1","99999,9",,,"02,1,+01230,1,99,9",,,"02,99,1,99,9,99,9,99999,9,99,9,99,9","10220,1,99999,9",,"MET071METAR ENFB 281650Z AUTO 08020KT 9999NDV FEW041/// M01/M10 Q1022 W///S4;",
"01488199999","2010-11-28T17:20:00","4","61.206389","1.828889","142.0","STATFJORD B OIL PLATFORM, NO","FM-15","ENFB ","V020","080,1,N,0087,1","01110,1,9,N","011265,1,N,1","-0010,1","-0090,1","99999,9",,,"07,1,+01110,1,99,9",,,"07,99,1,99,9,99,9,99999,9,99,9,99,9","10220,1,99999,9",,"MET071METAR ENFB 281720Z AUTO 08017KT 9999NDV BKN037/// M01/M09 Q1022 W///S4;",
"01488199999","2010-11-28T17:50:00","4","61.206389","1.828889","142.0","STATFJORD B OIL PLATFORM, NO","FM-15","ENFB ","V020","070,1,N,0082,1","01140,1,9,N","011265,1,N,1","-0010,1","-0090,1","99999,9",,,"07,1,+01140,1,99,9",,,"07,99,1,99,9,99,9,99999,9,99,9,99,9","10230,1,99999,9",,"MET079METAR ENFB 281750Z AUTO 07016KT 040V100 9999NDV BKN038/// M01/M09 Q1023 W///S4;",
"01488199999","2010-11-28T18:20:00","4","61.206389","1.828889","142.0","STATFJORD B OIL PLATFORM, NO","FM-15","ENFB ","V020","090,1,N,0087,1","22000,1,9,N","011265,1,N,1","-0010,1","-0100,1","99999,9",,,"04,1,+01050,1,99,9",,,"04,99,1,99,9,99,9,99999,9,99,9,99,9","10230,1,99999,9",,"MET071METAR ENFB 281820Z AUTO 09017KT 9999NDV SCT035/// M01/M10 Q1023 W///S4;",
"01488199999","2010-11-28T18:50:00","4","61.206389","1.828889","142.0","STATFJORD B OIL PLATFORM, NO","FM-15","ENFB ","V020","070,1,N,0087,1","22000,1,9,N","011265,1,N,1","-0010,1","-0100,1","99999,9",,,"04,1,+01200,1,99,9",,,"04,99,1,99,9,99,9,99999,9,99,9,99,9","10230,1,99999,9",,"MET071METAR ENFB 281850Z AUTO 07017KT 9999NDV SCT040/// M01/M10 Q1023 W///S4;",
"01488199999","2010-11-28T19:20:00","4","61.206389","1.828889","142.0","STATFJORD B OIL PLATFORM, NO","FM-15","ENFB ","V020","060,1,N,0093,1","01170,1,9,N","011265,1,N,1","+0000,1","-0090,1","99999,9",,,"07,1,+01170,1,99,9",,,"07,99,1,99,9,99,9,99999,9,99,9,99,9","10230,1,99999,9",,"MET070METAR ENFB 281920Z AUTO 06018KT 9999NDV BKN039/// 00/M09 Q1023 W///S4;",
"01488199999","2010-11-28T19:50:00","4","61.206389","1.828889","142.0","STATFJORD B OIL PLATFORM, NO","FM-15","ENFB ","V020","070,1,N,0108,1","01140,1,9,N","011265,1,N,1","+0000,1","-0100,1","99999,9",,,"07,1,+01140,1,99,9",,,"07,99,1,99,9,99,9,99999,9,99,9,99,9","10230,1,99999,9",,"MET070METAR ENFB 281950Z AUTO 07021KT 9999NDV BKN038/// 00/M10 Q1023 W///S4;",
"01488199999","2010-11-28T20:20:00","4","61.206389","1.828889","142.0","STATFJORD B OIL PLATFORM, NO","FM-15","ENFB ","V020","070,1,N,0113,1","01170,1,9,N","011265,1,N,1","+0000,1","-0100,1","99999,9",,,"07,1,+01170,1,99,9",,,"07,99,1,99,9,99,9,99999,9,99,9,99,9","10230,1,99999,9",,"MET070METAR ENFB 282020Z AUTO 07022KT 9999NDV BKN039/// 00/M10 Q1023 W///S4;",
"01488199999","2010-11-28T20:50:00","4","61.206389","1.828889","142.0","STATFJORD B OIL PLATFORM, NO","FM-15","ENFB ","V020","070,1,N,0118,1","01110,1,9,N","011265,1,N,1","+0000,1","-0090,1","99999,9",,,"07,1,+01110,1,99,9",,,"07,99,1,99,9,99,9,99999,9,99,9,99,9","10230,1,99999,9",,"MET070METAR ENFB 282050Z AUTO 07023KT 9999NDV BKN037/// 00/M09 Q1023 W///S4;",
"01488199999","2010-11-28T21:20:00","4","61.206389","1.828889","142.0","STATFJORD B OIL PLATFORM, NO","FM-15","ENFB ","V020","070,1,N,0103,1","01140,1,9,N","011265,1,N,1","+0000,1","-0100,1","99999,9",,,"07,1,+01140,1,99,9",,,"07,99,1,99,9,99,9,99999,9,99,9,99,9","10230,1,99999,9",,"MET070METAR ENFB 282120Z AUTO 07020KT 9999NDV BKN038/// 00/M10 Q1023 W///S4;",
"01488199999","2010-11-28T21:50:00","4","61.206389","1.828889","142.0","STATFJORD B OIL PLATFORM, NO","FM-15","ENFB ","V020","080,1,N,0103,1","01170,1,9,N","011265,1,N,1","+0000,1","-0080,1","99999,9",,,"07,1,+01170,1,99,9",,,"07,99,1,99,9,99,9,99999,9,99,9,99,9","10230,1,99999,9",,"MET070METAR ENFB 282150Z AUTO 08020KT 9999NDV BKN039/// 00/M08 Q1023 W///S4;",
"01488199999","2010-11-28T22:20:00","4","61.206389","1.828889","142.0","STATFJORD B OIL PLATFORM, NO","FM-15","ENFB ","V020","090,1,N,0098,1","01110,1,9,N","011265,1,N,1","+0000,1","-0090,1","99999,9",,,"07,1,+01110,1,99,9",,,"07,99,1,99,9,99,9,99999,9,99,9,99,9","10240,1,99999,9",,"MET070METAR ENFB 282220Z AUTO 09019KT 9999NDV BKN037/// 00/M09 Q1024 W///S4;",
"01488199999","2010-11-28T22:50:00","4","61.206389","1.828889","142.0","STATFJORD B OIL PLATFORM, NO","FM-15","ENFB ","V020","080,1,N,0103,1","01110,1,9,N","011265,1,N,1","+0000,1","-0080,1","99999,9",,,"07,1,+01110,1,99,9",,,"07,99,1,99,9,99,9,99999,9,99,9,99,9","10240,1,99999,9",,"MET070METAR ENFB 282250Z AUTO 08020KT 9999NDV BKN037/// 00/M08 Q1024 W///S4;",
"01488199999","2010-11-28T23:20:00","4","61.206389","1.828889","142.0","STATFJORD B OIL PLATFORM, NO","FM-15","ENFB ","V020","090,1,N,0108,1","01140,1,9,N","011265,1,N,1","+0000,1","-0090,1","99999,9",,,"07,1,+01140,1,99,9",,,"07,99,1,99,9,99,9,99999,9,99,9,99,9","10240,1,99999,9",,"MET070METAR ENFB 282320Z AUTO 09021KT 9999NDV BKN038/// 00/M09 Q1024 W///S4;",
"01488199999","2010-11-28T23:50:00","4","61.206389","1.828889","142.0","STATFJORD B OIL PLATFORM, NO","FM-15","ENFB ","V020","090,1,N,0093,1","01140,1,9,N","011265,1,N,1","+0000,1","-0080,1","99999,9",,,"07,1,+01140,1,99,9",,,"07,99,1,99,9,99,9,99999,9,99,9,99,9","10240,1,99999,9",,"MET070METAR ENFB 282350Z AUTO 09018KT 9999NDV BKN038/// 00/M08 Q1024 W///S4;",
"01488199999","2010-11-29T00:20:00","4","61.206389","1.828889","142.0","STATFJORD B OIL PLATFORM, NO","FM-15","ENFB ","V020","100,1,N,0098,1","01080,1,9,N","011265,1,N,1","+0000,1","-0090,1","99999,9",,,"07,1,+01080,1,99,9",,,"07,99,1,99,9,99,9,99999,9,99,9,99,9","10240,1,99999,9",,"MET070METAR ENFB 290020Z AUTO 10019KT 9999NDV BKN036/// 00/M09 Q1024 W///S4;",
"01488199999","2010-11-29T00:50:00","4","61.206389","1.828889","142.0","STATFJORD B OIL PLATFORM, NO","FM-15","ENFB ","V020","100,1,N,0087,1","01110,1,9,N","011265,1,N,1","+0000,1","-0090,1","99999,9",,,"07,1,+01110,1,99,9",,,"07,99,1,99,9,99,9,99999,9,99,9,99,9","10240,1,99999,9",,"MET070METAR ENFB 290050Z AUTO 10017KT 9999NDV BKN037/// 00/M09 Q1024 W///S4;",
"01488199999","2010-11-29T01:20:00","4","61.206389","1.828889","142.0","STATFJORD B OIL PLATFORM, NO","FM-15","ENFB ","V020","110,1,N,0082,1","01140,1,9,N","011265,1,N,1","+0000,1","-0090,1","99999,9",,,"07,1,+01140,1,99,9",,,"07,99,1,99,9,99,9,99999,9,99,9,99,9","10240,1,99999,9",,"MET070METAR ENFB 290120Z AUTO 11016KT 9999NDV BKN038/// 00/M09 Q1024 W///S4;",
"01488199999","2010-11-29T01:50:00","4","61.206389","1.828889","142.0","STATFJORD B OIL PLATFORM, NO","FM-15","ENFB ","V020","100,1,N,0077,1","01110,1,9,N","011265,1,N,1","+0000,1","-0080,1","99999,9",,,"08,1,+01110,1,99,9",,,"08,99,1,99,9,99,9,99999,9,99,9,99,9","10240,1,99999,9",,"MET070METAR ENFB 290150Z AUTO 10015KT 9999NDV OVC037/// 00/M08 Q1024 W///S4;",
"01488199999","2010-11-29T02:20:00","4","61.206389","1.828889","142.0","STATFJORD B OIL PLATFORM, NO","FM-15","ENFB ","V020","100,1,N,0072,1","01110,1,9,N","011265,1,N,1","+0000,1","-0090,1","99999,9",,,"07,1,+01110,1,99,9",,,"07,99,1,99,9,99,9,99999,9,99,9,99,9","10251,1,99999,9",,"MET070METAR ENFB 290220Z AUTO 10014KT 9999NDV BKN037/// 00/M09 Q1025 W///S4;",
"01488199999","2010-11-29T02:50:00","4","61.206389","1.828889","142.0","STATFJORD B OIL PLATFORM, NO","FM-15","ENFB ","V020","100,1,N,0067,1","01140,1,9,N","011265,1,N,1","+0000,1","-0090,1","99999,9",,,"07,1,+01140,1,99,9",,,"07,99,1,99,9,99,9,99999,9,99,9,99,9","10251,1,99999,9",,"MET070METAR ENFB 290250Z AUTO 10013KT 9999NDV BKN038/// 00/M09 Q1025 W///S4;",
"01488199999","2010-11-29T03:20:00","4","61.206389","1.828889","142.0","STATFJORD B OIL PLATFORM, NO","FM-15","ENFB ","V020","100,1,N,0072,1","01110,1,9,N","011265,1,N,1","+0000,1","-0080,1","99999,9",,,"07,1,+01110,1,99,9",,,"07,99,1,99,9,99,9,99999,9,99,9,99,9","10251,1,99999,9",,"MET070METAR ENFB 290320Z AUTO 10014KT 9999NDV BKN037/// 00/M08 Q1025 W///S4;",
"01488199999","2010-11-29T03:50:00","4","61.206389","1.828889","142.0","STATFJORD B OIL PLATFORM, NO","FM-15","ENFB ","V020","100,1,N,0072,1","01080,1,9,N","011265,1,N,1","+0000,1","-0090,1","99999,9",,,"07,1,+01080,1,99,9",,,"07,99,1,99,9,99,9,99999,9,99,9,99,9","10251,1,99999,9",,"MET070METAR ENFB 290350Z AUTO 10014KT 9999NDV BKN036/// 00/M09 Q1025 W///S4;",
"01488199999","2010-11-29T04:20:00","4","61.206389","1.828889","142.0","STATFJORD B OIL PLATFORM, NO","FM-15","ENFB ","V020","110,1,N,0067,1","01110,1,9,N","011265,1,N,1","+0000,1","-0080,1","99999,9",,,"07,1,+01110,1,99,9",,,"07,99,1,99,9,99,9,99999,9,99,9,99,9","10251,1,99999,9",,"MET070METAR ENFB 290420Z AUTO 11013KT 9999NDV BKN037/// 00/M08 Q1025 W///S4;",
"01488199999","2010-11-29T04:50:00","4","61.206389","1.828889","142.0","STATFJORD B OIL PLATFORM, NO","FM-15","ENFB ","V020","120,1,N,0057,1","01110,1,9,N","011265,1,N,1","+0000,1","-0080,1","99999,9",,,"07,1,+01110,1,99,9",,,"07,99,1,99,9,99,9,99999,9,99,9,99,9","10261,1,99999,9",,"MET070METAR ENFB 290450Z AUTO 12011KT 9999NDV BKN037/// 00/M08 Q1026 W///S4;",
"01488199999","2010-11-29T05:20:00","4","61.206389","1.828889","142.0","STATFJORD B OIL PLATFORM, NO","FM-15","ENFB ","V020","120,1,N,0057,1","01110,1,9,N","011265,1,N,1","+0010,1","-0080,1","99999,9",,,"08,1,+01110,1,99,9",,,"08,99,1,99,9,99,9,99999,9,99,9,99,9","10261,1,99999,9",,"MET070METAR ENFB 290520Z AUTO 12011KT 9999NDV OVC037/// 01/M08 Q1026 W///S4;",
"01488199999","2010-11-29T05:50:00","4","61.206389","1.828889","142.0","STATFJORD B OIL PLATFORM, NO","FM-15","ENFB ","V020","120,1,N,0051,1","01050,1,9,N","011265,1,N,1","+0010,1","-0080,1","99999,9",,,"08,1,+01050,1,99,9",,,"08,99,1,99,9,99,9,99999,9,99,9,99,9","10261,1,99999,9",,"MET070METAR ENFB 290550Z AUTO 12010KT 9999NDV OVC035/// 01/M08 Q1026 W///S4;",
"01488199999","2010-11-29T06:20:00","4","61.206389","1.828889","142.0","STATFJORD B OIL PLATFORM, NO","FM-15","ENFB ","V020","100,1,N,0041,1","01080,1,9,N","011265,1,N,1","+0010,1","-0080,1","99999,9",,,"07,1,+01080,1,99,9",,,"07,99,1,99,9,99,9,99999,9,99,9,99,9","10261,1,99999,9",,"MET078METAR ENFB 290620Z AUTO 10008KT 020V130 9999NDV BKN036/// 01/M08 Q1026 W///S4;",
"01488199999","2010-11-29T06:50:00","4","61.206389","1.828889","142.0","STATFJORD B OIL PLATFORM, NO","FM-15","ENFB ","V020","110,1,N,0046,1","01080,1,9,N","011265,1,N,1","+0010,1","-0070,1","99999,9",,,"07,1,+01080,1,99,9",,,"07,99,1,99,9,99,9,99999,9,99,9,99,9","10261,1,99999,9",,"MET078METAR ENFB 290650Z AUTO 11009KT 090V230 9999NDV BKN036/// 01/M07 Q1026 W///S4;",
"01488199999","2010-11-29T07:20:00","4","61.206389","1.828889","142.0","STATFJORD B OIL PLATFORM, NO","FM-15","ENFB ","V020","110,1,N,0057,1","01110,1,9,N","011265,1,N,1","+0010,1","-0080,1","99999,9",,,"07,1,+01110,1,99,9",,,"07,99,1,99,9,99,9,99999,9,99,9,99,9","10271,1,99999,9",,"MET078METAR ENFB 290720Z AUTO 11011KT 030V130 9999NDV BKN037/// 01/M08 Q1027 W///S4;",
"01488199999","2010-11-29T07:50:00","4","61.206389","1.828889","142.0","STATFJORD B OIL PLATFORM, NO","FM-15","ENFB ","V020","110,1,N,0046,1","01110,1,9,N","011265,1,N,1","+0010,1","-0070,1","99999,9",,,"07,1,+01110,1,99,9",,,"07,99,1,99,9,99,9,99999,9,99,9,99,9","10271,1,99999,9",,"MET078METAR ENFB 290750Z AUTO 11009KT 060V130 9999NDV BKN037/// 01/M07 Q1027 W///S4;",
"01488199999","2010-11-29T08:20:00","4","61.206389","1.828889","142.0","STATFJORD B OIL PLATFORM, NO","FM-15","ENFB ","V020","110,1,N,0051,1","01140,1,9,N","011265,1,N,1","+0010,1","-0080,1","99999,9",,,"07,1,+01140,1,99,9",,,"07,99,1,99,9,99,9,99999,9,99,9,99,9","10271,1,99999,9",,"MET070METAR ENFB 290820Z AUTO 11010KT 9999NDV BKN038/// 01/M08 Q1027 W///S4;",
"01488199999","2010-11-29T08:50:00","4","61.206389","1.828889","142.0","STATFJORD B OIL PLATFORM, NO","FM-15","ENFB ","V020","110,1,N,0041,1","01140,1,9,N","011265,1,N,1","+0010,1","-0080,1","99999,9",,,"07,1,+01140,1,99,9",,,"07,99,1,99,9,99,9,99999,9,99,9,99,9","10281,1,99999,9",,"MET070METAR ENFB 290850Z AUTO 11008KT 9999NDV BKN038/// 01/M08 Q1028 W///S4;",
"01488199999","2010-11-29T09:20:00","4","61.206389","1.828889","142.0","STATFJORD B OIL PLATFORM, NO","FM-15","ENFB ","V020","120,1,N,0036,1","01170,1,9,N","011265,1,N,1","+0010,1","-0080,1","99999,9",,,"07,1,+01170,1,99,9",,,"07,99,1,99,9,99,9,99999,9,99,9,99,9","10281,1,99999,9",,"MET070METAR ENFB 290920Z AUTO 12007KT 9999NDV BKN039/// 01/M08 Q1028 W///S4;",
"01488199999","2010-11-29T09:50:00","4","61.206389","1.828889","142.0","STATFJORD B OIL PLATFORM, NO","FM-15","ENFB ","V020","120,1,N,0031,1","01170,1,9,N","011265,1,N,1","+0010,1","-0080,1","99999,9",,,"07,1,+01170,1,99,9",,,"07,99,1,99,9,99,9,99999,9,99,9,99,9","10281,1,99999,9",,"MET078METAR ENFB 290950Z AUTO 12006KT 080V160 9999NDV BKN039/// 01/M08 Q1028 W///S4;",
"01488199999","2010-11-29T10:20:00","4","61.206389","1.828889","142.0","STATFJORD B OIL PLATFORM, NO","FM-15","ENFB ","V020","999,9,V,0015,1","01200,1,9,N","011265,1,N,1","+0020,1","-0070,1","99999,9",,,"08,1,+01200,1,99,9",,,"08,99,1,99,9,99,9,99999,9,99,9,99,9","10281,1,99999,9",,"MET070METAR ENFB 291020Z AUTO VRB03KT 9999NDV OVC040/// 02/M07 Q1028 W///S4;",
"01488199999","2010-11-29T10:50:00","4","61.206389","1.828889","142.0","STATFJORD B OIL PLATFORM, NO","FM-15","ENFB ","V020","070,1,N,0026,1","01140,1,9,N","011265,1,N,1","+0020,1","-0070,1","99999,9",,,"07,1,+01140,1,99,9",,,"07,99,1,99,9,99,9,99999,9,99,9,99,9","10281,1,99999,9",,"MET070METAR ENFB 291050Z AUTO 07005KT 9999NDV BKN038/// 02/M07 Q1028 W///S4;",
"01488199999","2010-11-29T11:20:00","4","61.206389","1.828889","142.0","STATFJORD B OIL PLATFORM, NO","FM-15","ENFB ","V020","090,1,N,0036,1","01080,1,9,N","011265,1,N,1","+0020,1","-0060,1","99999,9","81,1",,"07,1,+01080,1,99,9",,,"07,99,1,99,9,99,9,99999,9,99,9,99,9","10281,1,99999,9",,"MET084METAR ENFB 291120Z AUTO 09007KT 050V130 9999NDV -SHRA BKN036/// 02/M06 Q1028 W///S4;",
"01488199999","2010-11-29T11:50:00","4","61.206389","1.828889","142.0","STATFJORD B OIL PLATFORM, NO","FM-15","ENFB ","V020","070,1,N,0031,1","01260,1,9,N","011265,1,N,1","+0020,1","-0060,1","99999,9",,,"08,1,+01260,1,99,9",,,"08,99,1,99,9,99,9,99999,9,99,9,99,9","10281,1,99999,9",,"MET078METAR ENFB 291150Z AUTO 07006KT 030V100 9999NDV OVC042/// 02/M06 Q1028 W///S4;",
"01488199999","2010-11-29T12:20:00","4","61.206389","1.828889","142.0","STATFJORD B OIL PLATFORM, NO","FM-15","ENFB ","V020","070,1,N,0036,1","01020,1,9,N","011265,1,N,1","+0020,1","-0050,1","99999,9",,,"07,1,+01020,1,99,9",,,"07,99,1,99,9,99,9,99999,9,99,9,99,9","10281,1,99999,9",,"MET070METAR ENFB 291220Z AUTO 07007KT 9999NDV BKN034/// 02/M05 Q1028 W///S4;",
"01488199999","2010-11-29T12:50:00","4","61.206389","1.828889","142.0","STATFJORD B OIL PLATFORM, NO","FM-15","ENFB ","V020","070,1,N,0026,1","01080,1,9,N","011265,1,N,1","+0020,1","-0050,1","99999,9","81,1",,"08,1,+01080,1,99,9",,,"08,99,1,99,9,99,9,99999,9,99,9,99,9","10281,1,99999,9",,"MET084METAR ENFB 291250Z AUTO 07005KT 040V100 9999NDV -SHRA OVC036/// 02/M05 Q1028 W///S4;",
"01488199999","2010-11-29T13:20:00","4","61.206389","1.828889","142.0","STATFJORD B OIL PLATFORM, NO","FM-15","ENFB ","V020","070,1,N,0015,1","01260,1,9,N","011265,1,N,1","+0020,1","-0050,1","99999,9",,,"08,1,+01260,1,99,9",,,"08,99,1,99,9,99,9,99999,9,99,9,99,9","10281,1,99999,9",,"MET070METAR ENFB 291320Z AUTO 07003KT 9999NDV OVC042/// 02/M05 Q1028 W///S4;",
"01488199999","2010-11-29T13:50:00","4","61.206389","1.828889","142.0","STATFJORD B OIL PLATFORM, NO","FM-15","ENFB ","V020","040,1,N,0031,1","01380,1,9,N","011265,1,N,1","+0020,1","-0060,1","99999,9",,,"08,1,+01380,1,99,9",,,"08,99,1,99,9,99,9,99999,9,99,9,99,9","10281,1,99999,9",,"MET078METAR ENFB 291350Z AUTO 04006KT 360V070 9999NDV OVC046/// 02/M06 Q1028 W///S4;",
"01488199999","2010-11-29T14:20:00","4","61.206389","1.828889","142.0","STATFJORD B OIL PLATFORM, NO","FM-15","ENFB ","V020","040,1,N,0031,1","01350,1,9,N","011265,1,N,1","+0020,1","-0060,1","99999,9",,,"08,1,+01350,1,99,9",,,"08,99,1,99,9,99,9,99999,9,99,9,99,9","10281,1,99999,9",,"MET078METAR ENFB 291420Z AUTO 04006KT 350V060 9999NDV OVC045/// 02/M06 Q1028 W///S4;",
"01488199999","2010-11-29T14:50:00","4","61.206389","1.828889","142.0","STATFJORD B OIL PLATFORM, NO","FM-15","ENFB ","V020","030,1,N,0046,1","01080,1,9,N","011265,1,N,1","+0010,1","-0050,1","99999,9","51,1",,"07,1,+01080,1,99,9",,,"07,99,1,99,9,99,9,99999,9,99,9,99,9","10281,1,99999,9",,"MET074METAR ENFB 291450Z AUTO 03009KT 9999NDV -DZ BKN036/// 01/M05 Q1028 W///S4;",
"01488199999","2010-11-29T15:20:00","4","61.206389","1.828889","142.0","STATFJORD B OIL PLATFORM, NO","FM-15","ENFB ","V020","040,1,N,0046,1","01020,1,9,N","011265,1,N,1","+0020,1","-0060,1","99999,9",,,"07,1,+01020,1,99,9",,,"07,99,1,99,9,99,9,99999,9,99,9,99,9","10281,1,99999,9",,"MET070METAR ENFB 291520Z AUTO 04009KT 9999NDV BKN034/// 02/M06 Q1028 W///S4;",
"01488199999","2010-11-29T15:50:00","4","61.206389","1.828889","142.0","STATFJORD B OIL PLATFORM, NO","FM-15","ENFB ","V020","030,1,N,0046,1","00990,1,9,N","011265,1,N,1","+0010,1","-0060,1","99999,9",,,"07,1,+00990,1,99,9",,,"07,99,1,99,9,99,9,99999,9,99,9,99,9","10281,1,99999,9",,"MET070METAR ENFB 291550Z AUTO 03009KT 9999NDV BKN033/// 01/M06 Q1028 W///S4;",
"01488199999","2010-11-29T16:20:00","4","61.206389","1.828889","142.0","STATFJORD B OIL PLATFORM, NO","FM-15","ENFB ","V020","040,1,N,0046,1","01500,1,9,N","011265,1,N,1","+0020,1","-0050,1","99999,9",,,"02,1,+01230,1,99,9","08,1,+01500,1,99,9",,"08,99,1,99,9,99,9,99999,9,99,9,99,9","10281,1,99999,9",,"MET080METAR ENFB 291620Z AUTO 04009KT 9999NDV FEW041/// OVC052/// 02/M05 Q1028 W///S4;",
"01488199999","2010-11-29T16:50:00","4","61.206389","1.828889","142.0","STATFJORD B OIL PLATFORM, NO","FM-15","ENFB ","V020","030,1,N,0046,1","01110,1,9,N","011265,1,N,1","+0010,1","-0070,1","99999,9",,,"07,1,+01110,1,99,9",,,"07,99,1,99,9,99,9,99999,9,99,9,99,9","10281,1,99999,9",,"MET070METAR ENFB 291650Z AUTO 03009KT 9999NDV BKN037/// 01/M07 Q1028 W///S4;",
"01488199999","2010-11-29T17:20:00","4","61.206389","1.828889","142.0","STATFJORD B OIL PLATFORM, NO","FM-15","ENFB ","V020","030,1,N,0057,1","01140,1,9,N","011265,1,N,1","+0010,1","-0070,1","99999,9",,,"07,1,+01140,1,99,9",,,"07,99,1,99,9,99,9,99999,9,99,9,99,9","10281,1,99999,9",,"MET070METAR ENFB 291720Z AUTO 03011KT 9999NDV BKN038/// 01/M07 Q1028 W///S4;",
"01488199999","2010-11-29T17:50:00","4","61.206389","1.828889","142.0","STATFJORD B OIL PLATFORM, NO","FM-15","ENFB ","V020","040,1,N,0051,1","01200,1,9,N","011265,1,N,1","+0020,1","-0080,1","99999,9",,,"07,1,+01200,1,99,9",,,"07,99,1,99,9,99,9,99999,9,99,9,99,9","10281,1,99999,9",,"MET070METAR ENFB 291750Z AUTO 04010KT 9999NDV BKN040/// 02/M08 Q1028 W///S4;",
"01488199999","2010-11-29T18:20:00","4","61.206389","1.828889","142.0","STATFJORD B OIL PLATFORM, NO","FM-15","ENFB ","V020","030,1,N,0041,1","01290,1,9,N","011265,1,N,1","+0010,1","-0080,1","99999,9",,,"07,1,+01290,1,99,9",,,"07,99,1,99,9,99,9,99999,9,99,9,99,9","10281,1,99999,9",,"MET070METAR ENFB 291820Z AUTO 03008KT 9999NDV BKN043/// 01/M08 Q1028 W///S4;",
"01488199999","2010-11-29T18:50:00","4","61.206389","1.828889","142.0","STATFJORD B OIL PLATFORM, NO","FM-15","ENFB ","V020","040,1,N,0051,1","01350,1,9,N","011265,1,N,1","+0010,1","-0090,1","99999,9",,,"07,1,+01350,1,99,9",,,"07,99,1,99,9,99,9,99999,9,99,9,99,9","10281,1,99999,9",,"MET070METAR ENFB 291850Z AUTO 04010KT 9999NDV BKN045/// 01/M09 Q1028 W///S4;",
"01488199999","2010-11-29T19:20:00","4","61.206389","1.828889","142.0","STATFJORD B OIL PLATFORM, NO","FM-15","ENFB ","V020","040,1,N,0036,1","22000,1,9,N","011265,1,N,1","+0020,1","-0060,1","99999,9",,,"04,1,+01410,1,99,9",,,"04,99,1,99,9,99,9,99999,9,99,9,99,9","10281,1,99999,9",,"MET070METAR ENFB 291920Z AUTO 04007KT 9999NDV SCT047/// 02/M06 Q1028 W///S4;",
"01488199999","2010-11-29T19:50:00","4","61.206389","1.828889","142.0","STATFJORD B OIL PLATFORM, NO","FM-15","ENFB ","V020","040,1,N,0031,1","22000,1,9,N","011265,1,N,1","+0020,1","-0070,1","99999,9",,,"02,1,+01200,1,99,9",,,"02,99,1,99,9,99,9,99999,9,99,9,99,9","10291,1,99999,9",,"MET078METAR ENFB 291950Z AUTO 04006KT 360V070 9999NDV FEW040/// 02/M07 Q1029 W///S4;",
"01488199999","2010-11-29T20:20:00","4","61.206389","1.828889","142.0","STATFJORD B OIL PLATFORM, NO","FM-15","ENFB ","V020","090,1,N,0036,1","22000,1,9,N","011265,1,N,1","+0020,1","-0080,1","99999,9",,,,,,"00,99,1,99,9,99,9,99999,9,99,9,99,9","10281,1,99999,9",,"MET072METAR ENFB 292020Z AUTO 09007KT 040V110 9999NDV NCD 02/M08 Q1028 W///S4;","Q01    003SCCGA1"
"01488199999","2010-11-29T20:50:00","4","61.206389","1.828889","142.0","STATFJORD B OIL PLATFORM, NO","FM-15","ENFB ","V020","120,1,N,0031,1","22000,1,9,N","011265,1,N,1","+0020,1","-0080,1","99999,9",,,"02,1,+01230,1,99,9",,,"02,99,1,99,9,99,9,99999,9,99,9,99,9","10291,1,99999,9",,"MET070METAR ENFB 292050Z AUTO 12006KT 9999NDV FEW041/// 02/M08 Q1029 W///S4;",
"01488199999","2010-11-29T21:20:00","4","61.206389","1.828889","142.0","STATFJORD B OIL PLATFORM, NO","FM-15","ENFB ","V020","140,1,N,0026,1","01290,1,9,N","011265,1,N,1","+0020,1","-0080,1","99999,9",,,"07,1,+01290,1,99,9",,,"07,99,1,99,9,99,9,99999,9,99,9,99,9","10291,1,99999,9",,"MET070METAR ENFB 292120Z AUTO 14005KT 9999NDV BKN043/// 02/M08 Q1029 W///S4;",
"01488199999","2010-11-29T21:50:00","4","61.206389","1.828889","142.0","STATFJORD B OIL PLATFORM, NO","FM-15","ENFB ","V020","100,1,N,0026,1","01260,1,9,N","011265,1,N,1","+0020,1","-0080,1","99999,9",,,"07,1,+01260,1,99,9",,,"07,99,1,99,9,99,9,99999,9,99,9,99,9","10291,1,99999,9",,"MET070METAR ENFB 292150Z AUTO 10005KT 9999NDV BKN042/// 02/M08 Q1029 W///S4;",
"01488199999","2010-11-29T22:20:00","4","61.206389","1.828889","142.0","STATFJORD B OIL PLATFORM, NO","FM-15","ENFB ","V020","110,1,N,0031,1","01410,1,9,N","011265,1,N,1","+0020,1","-0090,1","99999,9",,,"07,1,+01410,1,99,9",,,"07,99,1,99,9,99,9,99999,9,99,9,99,9","10291,1,99999,9",,"MET078METAR ENFB 292220Z AUTO 11006KT 070V130 9999NDV BKN047/// 02/M09 Q1029 W///S4;",
"01488199999","2010-11-29T22:50:00","4","61.206389","1.828889","142.0","STATFJORD B OIL PLATFORM, NO","FM-15","ENFB ","V020","080,1,N,0026,1","01380,1,9,N","011265,1,N,1","+0020,1","-0080,1","99999,9",,,"07,1,+01380,1,99,9","07,1,+01800,1,99,9",,"07,99,1,99,9,99,9,99999,9,99,9,99,9","10291,1,99999,9",,"MET088METAR ENFB 292250Z AUTO 08005KT 050V110 9999NDV BKN046/// BKN061/// 02/M08 Q1029 W///S4;",
"01488199999","2010-11-29T23:20:00","4","61.206389","1.828889","142.0","STATFJORD B OIL PLATFORM, NO","FM-15","ENFB ","V020","100,1,N,0036,1","01140,1,9,N","011265,1,N,1","+0020,1","-0060,1","99999,9",,,"07,1,+01140,1,99,9","08,1,+01800,1,99,9",,"08,99,1,99,9,99,9,99999,9,99,9,99,9","10291,1,99999,9",,"MET088METAR ENFB 292320Z AUTO 10007KT 030V140 9999NDV BKN038/// OVC060/// 02/M06 Q1029 W///S4;",
"01488199999","2010-11-29T23:50:00","4","61.206389","1.828889","142.0","STATFJORD B OIL PLATFORM, NO","FM-15","ENFB ","V020","130,1,N,0046,1","01260,1,9,N","011265,1,N,1","+0020,1","-0050,1","99999,9",,,"07,1,+01260,1,99,9",,,"07,99,1,99,9,99,9,99999,9,99,9,99,9","10291,1,99999,9",,"MET070METAR ENFB 292350Z AUTO 13009KT 9999NDV BKN042/// 02/M05 Q1029 W///S4;",
"01488199999","2010-11-30T00:20:00","4","61.206389","1.828889","142.0","STATFJORD B OIL PLATFORM, NO","FM-15","ENFB ","V020","100,1,N,0026,1","01800,1,9,N","011265,1,N,1","+0020,1","-0060,1","99999,9",,,"07,1,+01800,1,99,9",,,"07,99,1,99,9,99,9,99999,9,99,9,99,9","10291,1,99999,9",,"MET078METAR ENFB 300020Z AUTO 10005KT 070V130 9999NDV BKN061/// 02/M06 Q1029 W///S4;",
"01488199999","2010-11-30T00:50:00","4","61.206389","1.828889","142.0","STATFJORD B OIL PLATFORM, NO","FM-15","ENFB ","V020","110,1,N,0031,1","01500,1,9,N","011265,1,N,1","+0020,1","-0060,1","99999,9",,,"08,1,+01500,1,99,9",,,"08,99,1,99,9,99,9,99999,9,99,9,99,9","10291,1,99999,9",,"MET070METAR ENFB 300050Z AUTO 11006KT 9999NDV OVC059/// 02/M06 Q1029 W///S4;",
"01488199999","2010-11-30T01:20:00","4","61.206389","1.828889","142.0","STATFJORD B OIL PLATFORM, NO","FM-15","ENFB ","V020","130,1,N,0046,1","00960,1,9,N","011265,1,N,1","+0020,1","-0030,1","99999,9","81,1",,"08,1,+00960,1,99,9",,,"08,99,1,99,9,99,9,99999,9,99,9,99,9","10291,1,99999,9",,"MET084METAR ENFB 300120Z AUTO 13009KT 090V160 9999NDV -SHRA OVC032/// 02/M03 Q1029 W///S4;",
"01488199999","2010-11-30T01:50:00","4","61.206389","1.828889","142.0","STATFJORD B OIL PLATFORM, NO","FM-15","ENFB ","V020","130,1,N,0072,1","00840,1,9,N","011265,1,N,1","+0020,1","-0040,1","99999,9","81,1",,"02,1,+00690,1,99,9","08,1,+00840,1,99,9",,"08,99,1,99,9,99,9,99999,9,99,9,99,9","10291,1,99999,9",,"MET086METAR ENFB 300150Z AUTO 13014KT 9999NDV -SHRA FEW023/// OVC028/// 02/M04 Q1029 W///S4;",
"01488199999","2010-11-30T02:20:00","4","61.206389","1.828889","142.0","STATFJORD B OIL PLATFORM, NO","FM-15","ENFB ","V020","040,1,N,0062,1","00420,1,9,N","005000,1,N,1","-0010,1","-0040,1","99999,9","85,1",,"07,1,+00420,1,99,9",,,"07,99,1,99,9,99,9,99999,9,99,9,99,9","10291,1,99999,9",,"MET085METAR ENFB 300220Z AUTO 04012KT 010V070 5000NDV -SHSN BKN014/// M01/M04 Q1029 W///S4;",
"01488199999","2010-11-30T02:50:00","4","61.206389","1.828889","142.0","STATFJORD B OIL PLATFORM, NO","FM-15","ENFB ","V020","050,1,N,0031,1","00570,1,9,N","011265,1,N,1","+0000,1","-0020,1","99999,9","64,1",,"02,1,+00480,1,99,9","07,1,+00570,1,99,9","07,1,+01500,1,99,9","07,99,1,99,9,99,9,99999,9,99,9,99,9","10291,1,99999,9",,"MET104METAR ENFB 300250Z AUTO 05006KT 010V110 9999NDV -FZRA FEW016/// BKN019/// BKN055/// 00/M02 Q1029 W///S4;",
"01488199999","2010-11-30T03:20:00","4","61.206389","1.828889","142.0","STATFJORD B OIL PLATFORM, NO","FM-15","ENFB ","V020","130,1,N,0041,1","01800,1,9,N","011265,1,N,1","+0010,1","-0020,1","99999,9","61,1",,"04,1,+00570,1,99,9","07,1,+01800,1,99,9",,"07,99,1,99,9,99,9,99999,9,99,9,99,9","10291,1,99999,9",,"MET091METAR ENFB 300320Z AUTO 13008KT 9999NDV -RA SCT019/// BKN062/// 01/M02 Q1029 REFZRA W///S4;",
"01488199999","2010-11-30T03:50:00","4","61.206389","1.828889","142.0","STATFJORD B OIL PLATFORM, NO","FM-15","ENFB ","V020","130,1,N,0062,1","00540,1,9,N","003700,1,N,1","+0000,1","-0020,1","99999,9","67,1",,"04,1,+00300,1,99,9","07,1,+00540,1,99,9",,"07,99,1,99,9,99,9,99999,9,99,9,99,9","10291,1,99999,9",,"MET086METAR ENFB 300350Z AUTO 13012KT 3700NDV -RASN SCT010/// BKN018/// 00/M02 Q1029 W///S4;",
"01488199999","2010-11-30T04:20:00","4","61.206389","1.828889","142.0","STATFJORD B OIL PLATFORM, NO","FM-15","ENFB ","V020","120,1,N,0031,1","01050,1,9,N","011265,1,N,1","+0010,1","-0020,1","99999,9","61,1",,"08,1,+01050,1,99,9",,,"08,99,1,99,9,99,9,99999,9,99,9,99,9","10281,1,99999,9",,"MET082METAR ENFB 300420Z AUTO 12006KT 060V150 9999NDV -RA OVC035/// 01/M02 Q1028 W///S4;",
"01488199999","2010-11-30T04:50:00","4","61.206389","1.828889","142.0","STATFJORD B OIL PLATFORM, NO","FM-15","ENFB ","V020","150,1,N,0098,1","00780,1,9,N","011265,1,N,1","+0020,1","-0020,1","99999,9",,,"02,1,+00630,1,99,9","07,1,+00780,1,99,9",,"07,99,1,99,9,99,9,99999,9,99,9,99,9","10281,1,99999,9",,"MET080METAR ENFB 300450Z AUTO 15019KT 9999NDV FEW021/// BKN026/// 02/M02 Q1028 W///S4;",
"01488199999","2010-11-30T05:20:00","4","61.206389","1.828889","142.0","STATFJORD B OIL PLATFORM, NO","FM-15","ENFB ","V020","150,1,N,0093,1","01380,1,9,N","011265,1,N,1","+0010,1","-0020,1","99999,9",,,"04,1,+00270,1,99,9","07,1,+01380,1,99,9",,"07,99,1,99,9,99,9,99999,9,99,9,99,9","10281,1,99999,9",,"MET080METAR ENFB 300520Z AUTO 15018KT 9999NDV SCT009/// BKN046/// 01/M02 Q1028 W///S4;",
"01488199999","2010-11-30T05:50:00","4","61.206389","1.828889","142.0","STATFJORD B OIL PLATFORM, NO","FM-15","ENFB ","V020","150,1,N,0082,1","22000,1,9,N","011265,1,N,1","+0010,1","-0020,1","99999,9",,,,,,"00,99,1,99,9,99,9,99999,9,99,9,99,9","10281,1,99999,9",,"MET064METAR ENFB 300550Z AUTO 15016KT 9999NDV NCD 01/M02 Q1028 W///S4;","Q01    003SCCGA1"
"01488199999","2010-11-30T06:20:00","4","61.206389","1.828889","142.0","STATFJORD B OIL PLATFORM, NO","FM-15","ENFB ","V020","150,1,N,0062,1","00630,1,9,N","005000,1,N,1","+0010,1","-0020,1","99999,9","71,1",,"07,1,+00630,1,99,9","07,1,+01500,1,99,9",,"07,99,1,99,9,99,9,99999,9,99,9,99,9","10291,1,99999,9",,"MET084METAR ENFB 300620Z AUTO 15012KT 5000NDV -SN BKN021/// BKN056/// 01/M02 Q1029 W///S4;",
"01488199999","2010-11-30T06:50:00","4","61.206389","1.828889","142.0","STATFJORD B OIL PLATFORM, NO","FM-15","ENFB ","V020","130,1,N,0113,1","00480,1,9,N","011265,1,N,1","+0010,1","-0020,1","99999,9","67,1",,"08,1,+00480,1,99,9",,,"08,99,1,99,9,99,9,99999,9,99,9,99,9","10281,1,99999,9",,"MET076METAR ENFB 300650Z AUTO 13022KT 9999NDV -RASN OVC016/// 01/M02 Q1028 W///S4;",
"01488199999","2010-11-30T07:20:00","4","61.206389","1.828889","142.0","STATFJORD B OIL PLATFORM, NO","FM-15","ENFB ","V020","130,1,N,0093,1","00900,1,9,N","011265,1,N,1","+0010,1","-0030,1","99999,9","61,1",,"08,1,+00900,1,99,9",,,"08,99,1,99,9,99,9,99999,9,99,9,99,9","10291,1,99999,9",,"MET074METAR ENFB 300720Z AUTO 13018KT 9999NDV -RA OVC030/// 01/M03 Q1029 W///S4;",
"01488199999","2010-11-30T07:50:00","4","61.206389","1.828889","142.0","STATFJORD B OIL PLATFORM, NO","FM-15","ENFB ","V020","140,1,N,0072,1","01500,1,9,N","011265,1,N,1","+0020,1","-0040,1","99999,9",,,"04,1,+01050,1,99,9","07,1,+01500,1,99,9",,"07,99,1,99,9,99,9,99999,9,99,9,99,9","10291,1,99999,9",,"MET080METAR ENFB 300750Z AUTO 14014KT 9999NDV SCT035/// BKN052/// 02/M04 Q1029 W///S4;",
"01488199999","2010-11-30T08:20:00","4","61.206389","1.828889","142.0","STATFJORD B OIL PLATFORM, NO","FM-15","ENFB ","V020","120,1,N,0067,1","01140,1,9,N","011265,1,N,1","+0020,1","-0050,1","99999,9",,,"07,1,+01140,1,99,9",,,"07,99,1,99,9,99,9,99999,9,99,9,99,9","10291,1,99999,9",,"MET070METAR ENFB 300820Z AUTO 12013KT 9999NDV BKN038/// 02/M05 Q1029 W///S4;",
"01488199999","2010-11-30T08:50:00","4","61.206389","1.828889","142.0","STATFJORD B OIL PLATFORM, NO","FM-15","ENFB ","V020","160,1,N,0098,1","00870,1,9,N","011265,1,N,1","+0020,1","-0020,1","99999,9","81,1",,"02,1,+00420,1,99,9","07,1,+00870,1,99,9","07,1,+01500,1,99,9","07,99,1,99,9,99,9,99999,9,99,9,99,9","10291,1,99999,9",,"MET096METAR ENFB 300850Z AUTO 16019KT 9999NDV -SHRA FEW014/// BKN029/// BKN058/// 02/M02 Q1029 W///S4;",
"01488199999","2010-11-30T09:20:00","4","61.206389","1.828889","142.0","STATFJORD B OIL PLATFORM, NO","FM-15","ENFB ","V020","140,1,N,0087,1","00180,1,9,N","000900,1,N,1","+0010,1","-0020,1","99999,9","80,1",,"07,1,+00180,1,99,9",,,"07,99,1,99,9,99,9,99999,9,99,9,99,9","10301,1,99999,9",,"MET078METAR ENFB 300920Z AUTO 14017KT 0900NDV -SHRASN BKN006/// 01/M02 Q1030 W///S3;",
"01488199999","2010-11-30T09:50:00","4","61.206389","1.828889","142.0","STATFJORD B OIL PLATFORM, NO","FM-15","ENFB ","V020","140,1,N,0077,1","00180,1,9,N","004300,1,N,1","+0000,1","-0020,1","99999,9","10,1","67,1","07,1,+00180,1,99,9",,,"07,99,1,99,9,99,9,99999,9,99,9,99,9","10301,1,99999,9",,"MET094METAR ENFB 300950Z AUTO 14015KT 100V180 4300NDV -RASN BR BKN006/// 00/M02 Q1030 RERASN W///S4;",
"01488199999","2010-11-30T10:20:00","4","61.206389","1.828889","142.0","STATFJORD B OIL PLATFORM, NO","FM-15","ENFB ","V020","150,1,N,0082,1","00210,1,9,N","001200,1,N,1","+0000,1","-0020,1","99999,9","85,1",,"08,1,+00210,1,99,9",,,"08,99,1,99,9,99,9,99999,9,99,9,99,9","10301,1,99999,9",,"MET076METAR ENFB 301020Z AUTO 15016KT 1200NDV -SHSN OVC007/// 00/M02 Q1030 W///S4;",
"01488199999","2010-11-30T10:50:00","4","61.206389","1.828889","142.0","STATFJORD B OIL PLATFORM, NO","FM-15","ENFB ","V020","160,1,N,0087,1","00270,1,9,N","007000,1,N,1","+0000,1","-0020,1","99999,9","80,1",,"08,1,+00270,1,99,9",,,"08,99,1,99,9,99,9,99999,9,99,9,99,9","10301,1,99999,9",,"MET078METAR ENFB 301050Z AUTO 16017KT 7000NDV -SHRASN OVC009/// 00/M02 Q1030 W///S4;",
"01488199999","2010-11-30T11:20:00","4","61.206389","1.828889","142.0","STATFJORD B OIL PLATFORM, NO","FM-15","ENFB ","V020","160,1,N,0087,1","00840,1,9,N","011265,1,N,1","+0010,1","-0020,1","99999,9","81,1",,"07,1,+00840,1,99,9",,,"07,99,1,99,9,99,9,99999,9,99,9,99,9","10291,1,99999,9",,"MET076METAR ENFB 301120Z AUTO 16017KT 9999NDV -SHRA BKN028/// 01/M02 Q1029 W///S4;",
"01488199999","2010-11-30T11:50:00","4","61.206389","1.828889","142.0","STATFJORD B OIL PLATFORM, NO","FM-15","ENFB ","V020","150,1,N,0098,1","00810,1,9,N","011265,1,N,1","+0010,1","-0030,1","99999,9","81,1",,"07,1,+00810,1,99,9",,,"07,99,1,99,9,99,9,99999,9,99,9,99,9","10291,1,99999,9",,"MET076METAR ENFB 301150Z AUTO 15019KT 9999NDV -SHRA BKN027/// 01/M03 Q1029 W///S4;",
"01488199999","2010-11-30T12:20:00","4","61.206389","1.828889","142.0","STATFJORD B OIL PLATFORM, NO","FM-15","ENFB ","V020","160,1,N,0098,1","00930,1,9,N","011265,1,N,1","+0010,1","-0040,1","99999,9","81,1",,"07,1,+00930,1,99,9",,,"07,99,1,99,9,99,9,99999,9,99,9,99,9","10291,1,99999,9",,"MET076METAR ENFB 301220Z AUTO 16019KT 9999NDV -SHRA BKN031/// 01/M04 Q1029 W///S4;",
"01488199999","2010-11-30T12:50:00","4","61.206389","1.828889","142.0","STATFJORD B OIL PLATFORM, NO","FM-15","ENFB ","V020","160,1,N,0087,1","00870,1,9,N","011265,1,N,1","+0010,1","-0040,1","99999,9","81,1",,"07,1,+00870,1,99,9","07,1,+01350,1,99,9",,"07,99,1,99,9,99,9,99999,9,99,9,99,9","10291,1,99999,9",,"MET086METAR ENFB 301250Z AUTO 16017KT 9999NDV -SHRA BKN029/// BKN045/// 01/M04 Q1029 W///S4;",
"01488199999","2010-11-30T13:20:00","4","61.206389","1.828889","142.0","STATFJORD B OIL PLATFORM, NO","FM-15","ENFB ","V020","160,1,N,0082,1","01470,1,9,N","011265,1,N,1","+0010,1","-0040,1","99999,9",,,"02,1,+00900,1,99,9","07,1,+01470,1,99,9",,"07,99,1,99,9,99,9,99999,9,99,9,99,9","10291,1,99999,9",,"MET088METAR ENFB 301320Z AUTO 16016KT 110V180 9999NDV FEW030/// BKN049/// 01/M04 Q1029 W///S4;",
"01488199999","2010-11-30T13:50:00","4","61.206389","1.828889","142.0","STATFJORD B OIL PLATFORM, NO","FM-15","ENFB ","V020","160,1,N,0082,1","01050,1,9,N","011265,1,N,1","+0010,1","-0050,1","99999,9",,,"07,1,+01050,1,99,9",,,"07,99,1,99,9,99,9,99999,9,99,9,99,9","10291,1,99999,9",,"MET070METAR ENFB 301350Z AUTO 16016KT 9999NDV BKN035/// 01/M05 Q1029 W///S4;",
"01488199999","2010-11-30T14:20:00","4","61.206389","1.828889","142.0","STATFJORD B OIL PLATFORM, NO","FM-15","ENFB ","V020","160,1,N,0082,1","00960,1,9,N","011265,1,N,1","+0010,1","-0060,1","99999,9",,,"07,1,+00960,1,99,9","07,1,+01140,1,99,9",,"07,99,1,99,9,99,9,99999,9,99,9,99,9","10291,1,99999,9",,"MET080METAR ENFB 301420Z AUTO 16016KT 9999NDV BKN032/// BKN038/// 01/M06 Q1029 W///S4;",
"01488199999","2010-11-30T14:50:00","4","61.206389","1.828889","142.0","STATFJORD B OIL PLATFORM, NO","FM-15","ENFB ","V020","160,1,N,0077,1","01110,1,9,N","011265,1,N,1","+0010,1","-0060,1","99999,9",,,"08,1,+01110,1,99,9",,,"08,99,1,99,9,99,9,99999,9,99,9,99,9","10291,1,99999,9",,"MET070METAR ENFB 301450Z AUTO 16015KT 9999NDV OVC037/// 01/M06 Q1029 W///S4;",
"01488199999","2010-11-30T15:20:00","4","61.206389","1.828889","142.0","STATFJORD B OIL PLATFORM, NO","FM-15","ENFB ","V020","160,1,N,0077,1","01050,1,9,N","011265,1,N,1","+0010,1","-0070,1","99999,9",,,"07,1,+01050,1,99,9",,,"07,99,1,99,9,99,9,99999,9,99,9,99,9","10291,1,99999,9",,"MET070METAR ENFB 301520Z AUTO 16015KT 9999NDV BKN035/// 01/M07 Q1029 W///S4;",
"01488199999","2010-11-30T15:50:00","4","61.206389","1.828889","142.0","STATFJORD B OIL PLATFORM, NO","FM-15","ENFB ","V020","160,1,N,0067,1","01110,1,9,N","011265,1,N,1","+0010,1","-0070,1","99999,9",,,"07,1,+01110,1,99,9",,,"07,99,1,99,9,99,9,99999,9,99,9,99,9","10291,1,99999,9",,"MET070METAR ENFB 301550Z AUTO 16013KT 9999NDV BKN037/// 01/M07 Q1029 W///S4;",
"01488199999","2010-11-30T16:20:00","4","61.206389","1.828889","142.0","STATFJORD B OIL PLATFORM, NO","FM-15","ENFB ","V020","150,1,N,0062,1","01110,1,9,N","011265,1,N,1","+0010,1","-0070,1","99999,9",,,"07,1,+01110,1,99,9",,,"07,99,1,99,9,99,9,99999,9,99,9,99,9","10291,1,99999,9",,"MET070METAR ENFB 301620Z AUTO 15012KT 9999NDV BKN037/// 01/M07 Q1029 W///S3;",
"01488199999","2010-11-30T16:50:00","4","61.206389","1.828889","142.0","STATFJORD B OIL PLATFORM, NO","FM-15","ENFB ","V020","999,9,V,0057,1","01110,1,9,N","011265,1,N,1","+0010,1","-0070,1","99999,9",,,"07,1,+01110,1,99,9",,,"07,99,1,99,9,99,9,99999,9,99,9,99,9","10291,1,99999,9",,"MET070METAR ENFB 301650Z AUTO VRB11KT 9999NDV BKN037/// 01/M07 Q1029 W///S3;",
"01488199999","2010-11-30T17:20:00","4","61.206389","1.828889","142.0","STATFJORD B OIL PLATFORM, NO","FM-15","ENFB ","V020","160,1,N,0057,1","01500,1,9,N","011265,1,N,1","+0010,1","-0070,1","99999,9",,,"02,1,+01260,1,99,9","07,1,+01500,1,99,9",,"07,99,1,99,9,99,9,99999,9,99,9,99,9","10291,1,99999,9",,"MET088METAR ENFB 301720Z AUTO 16011KT 140V200 9999NDV FEW042/// BKN053/// 01/M07 Q1029 W///S3;",
"01488199999","2010-11-30T17:50:00","4","61.206389","1.828889","142.0","STATFJORD B OIL PLATFORM, NO","FM-15","ENFB ","V020","170,1,N,0057,1","01230,1,9,N","011265,1,N,1","+0010,1","-0070,1","99999,9",,,"07,1,+01230,1,99,9",,,"07,99,1,99,9,99,9,99999,9,99,9,99,9","10291,1,99999,9",,"MET070METAR ENFB 301750Z AUTO 17011KT 9999NDV BKN041/// 01/M07 Q1029 W///S3;",
"01488199999","2010-11-30T18:20:00","4","61.206389","1.828889","142.0","STATFJORD B OIL PLATFORM, NO","FM-15","ENFB ","V020","150,1,N,0062,1","01080,1,9,N","011265,1,N,1","+0010,1","-0070,1","99999,9",,,"07,1,+01080,1,99,9",,,"07,99,1,99,9,99,9,99999,9,99,9,99,9","10291,1,99999,9",,"MET078METAR ENFB 301820Z AUTO 15012KT 130V190 9999NDV BKN036/// 01/M07 Q1029 W///S3;",
"01488199999","2010-11-30T18:50:00","4","61.206389","1.828889","142.0","STATFJORD B OIL PLATFORM, NO","FM-15","ENFB ","V020","160,1,N,0067,1","01500,1,9,N","011265,1,N,1","+0010,1","-0070,1","99999,9",,,"07,1,+01500,1,99,9",,,"07,99,1,99,9,99,9,99999,9,99,9,99,9","10291,1,99999,9",,"MET070METAR ENFB 301850Z AUTO 16013KT 9999NDV BKN050/// 01/M07 Q1029 W///S3;",
"01488199999","2010-11-30T19:20:00","4","61.206389","1.828889","142.0","STATFJORD B OIL PLATFORM, NO","FM-15","ENFB ","V020","170,1,N,0072,1","01500,1,9,N","011265,1,N,1","+0010,1","-0070,1","99999,9",,,"07,1,+01500,1,99,9",,,"07,99,1,99,9,99,9,99999,9,99,9,99,9","10291,1,99999,9",,"MET070METAR ENFB 301920Z AUTO 17014KT 9999NDV BKN052/// 01/M07 Q1029 W///S3;",
"01488199999","2010-11-30T19:50:00","4","61.206389","1.828889","142.0","STATFJORD B OIL PLATFORM, NO","FM-15","ENFB ","V020","150,1,N,0062,1","01500,1,9,N","011265,1,N,1","+0010,1","-0080,1","99999,9",,,"07,1,+01500,1,99,9",,,"07,99,1,99,9,99,9,99999,9,99,9,99,9","10291,1,99999,9",,"MET078METAR ENFB 301950Z AUTO 15012KT 130V190 9999NDV BKN050/// 01/M08 Q1029 W///S3;",
"01488199999","2010-11-30T20:20:00","4","61.206389","1.828889","142.0","STATFJORD B OIL PLATFORM, NO","FM-15","ENFB ","V020","160,1,N,0057,1","01440,1,9,N","011265,1,N,1","+0010,1","-0070,1","99999,9",,,"02,1,+01020,1,99,9","07,1,+01440,1,99,9",,"07,99,1,99,9,99,9,99999,9,99,9,99,9","10291,1,99999,9",,"MET080METAR ENFB 302020Z AUTO 16011KT 9999NDV FEW034/// BKN048/// 01/M07 Q1029 W///S3;",
"01488199999","2010-11-30T20:50:00","4","61.206389","1.828889","142.0","STATFJORD B OIL PLATFORM, NO","FM-15","ENFB ","V020","170,1,N,0062,1","01290,1,9,N","011265,1,N,1","+0010,1","-0070,1","99999,9",,,"07,1,+01290,1,99,9",,,"07,99,1,99,9,99,9,99999,9,99,9,99,9","10291,1,99999,9",,"MET070METAR ENFB 302050Z AUTO 17012KT 9999NDV BKN043/// 01/M07 Q1029 W///S3;",
"01488199999","2010-11-30T21:20:00","4","61.206389","1.828889","142.0","STATFJORD B OIL PLATFORM, NO","FM-15","ENFB ","V020","170,1,N,0062,1","22000,1,9,N","011265,1,N,1","+0010,1","-0060,1","99999,9",,,"04,1,+01020,1,99,9",,,"04,99,1,99,9,99,9,99999,9,99,9,99,9","10291,1,99999,9",,"MET070METAR ENFB 302120Z AUTO 17012KT 9999NDV SCT034/// 01/M06 Q1029 W///S3;",
"01488199999","2010-11-30T21:50:00","4","61.206389","1.828889","142.0","STATFJORD B OIL PLATFORM, NO","FM-15","ENFB ","V020","160,1,N,0057,1","01080,1,9,N","011265,1,N,1","+0010,1","-0060,1","99999,9",,,"07,1,+01080,1,99,9",,,"07,99,1,99,9,99,9,99999,9,99,9,99,9","10291,1,99999,9",,"MET078METAR ENFB 302150Z AUTO 16011KT 140V200 9999NDV BKN036/// 01/M06 Q1029 W///S3;",
"01488199999","2010-11-30T22:20:00","4","61.206389","1.828889","142.0","STATFJORD B OIL PLATFORM, NO","FM-15","ENFB ","V020","160,1,N,0046,1","01110,1,9,N","011265,1,N,1","+0010,1","-0070,1","99999,9",,,"07,1,+01110,1,99,9",,,"07,99,1,99,9,99,9,99999,9,99,9,99,9","10291,1,99999,9",,"MET070METAR ENFB 302220Z AUTO 16009KT 9999NDV BKN037/// 01/M07 Q1029 W///S3;",
"01488199999","2010-11-30T22:50:00","4","61.206389","1.828889","142.0","STATFJORD B OIL PLATFORM, NO","FM-15","ENFB ","V020","150,1,N,0057,1","01110,1,9,N","011265,1,N,1","+0010,1","-0070,1","99999,9",,,"08,1,+01110,1,99,9",,,"08,99,1,99,9,99,9,99999,9,99,9,99,9","10291,1,99999,9",,"MET070METAR ENFB 302250Z AUTO 15011KT 9999NDV OVC037/// 01/M07 Q1029 W///S3;",
"01488199999","2010-11-30T23:20:00","4","61.206389","1.828889","142.0","STATFJORD B OIL PLATFORM, NO","FM-15","ENFB ","V020","160,1,N,0062,1","01110,1,9,N","011265,1,N,1","+0010,1","-0070,1","99999,9",,,"07,1,+01110,1,99,9","07,1,+01440,1,99,9",,"07,99,1,99,9,99,9,99999,9,99,9,99,9","10291,1,99999,9",,"MET080METAR ENFB 302320Z AUTO 16012KT 9999NDV BKN037/// BKN048/// 01/M07 Q1029 W///S3;",
"01488199999","2010-11-30T23:50:00","4","61.206389","1.828889","142.0","STATFJORD B OIL PLATFORM, NO","FM-15","ENFB ","V020","170,1,N,0067,1","01110,1,9,N","011265,1,N,1","+0010,1","-0070,1","99999,9",,,"07,1,+01110,1,99,9",,,"07,99,1,99,9,99,9,99999,9,99,9,99,9","10281,1,99999,9",,"MET070METAR ENFB 302350Z AUTO 17013KT 9999NDV BKN037/// 01/M07 Q1028 W///S3;",
"01488199999","2010-12-01T00:20:00","4","61.206389","1.828889","142.0","STATFJORD B OIL PLATFORM, NO","FM-15","ENFB ","V020","160,1,N,0067,1","01410,1,9,N","011265,1,N,1","+0010,1","-0080,1","99999,9",,,"07,1,+01410,1,99,9",,,"07,99,1,99,9,99,9,99999,9,99,9,99,9","10281,1,99999,9",,"MET078METAR ENFB 010020Z AUTO 16013KT 130V200 9999NDV BKN047/// 01/M08 Q1028 W///S3;",
"01488199999","2010-12-01T00:50:00","4","61.206389","1.828889","142.0","STATFJORD B OIL PLATFORM, NO","FM-15","ENFB ","V020","160,1,N,0057,1","22000,1,9,N","011265,1,N,1","+0010,1","-0080,1","99999,9",,,"04,1,+01320,1,99,9",,,"04,99,1,99,9,99,9,99999,9,99,9,99,9","10281,1,99999,9",,"MET070METAR ENFB 010050Z AUTO 16011KT 9999NDV SCT044/// 01/M08 Q1028 W///S3;",
"01488199999","2010-12-01T01:20:00","4","61.206389","1.828889","142.0","STATFJORD B OIL PLATFORM, NO","FM-15","ENFB ","V020","170,1,N,0051,1","22000,1,9,N","011265,1,N,1","+0010,1","-0080,1","99999,9",,,"02,1,+01320,1,99,9",,,"02,99,1,99,9,99,9,99999,9,99,9,99,9","10281,1,99999,9",,"MET078METAR ENFB 010120Z AUTO 17010KT 150V210 9999NDV FEW044/// 01/M08 Q1028 W///S3;",
"01488199999","2010-12-01T01:50:00","4","61.206389","1.828889","142.0","STATFJORD B OIL PLATFORM, NO","FM-15","ENFB ","V020","150,1,N,0041,1","01380,1,9,N","011265,1,N,1","+0010,1","-0080,1","99999,9",,,"07,1,+01380,1,99,9",,,"07,99,1,99,9,99,9,99999,9,99,9,99,9","10281,1,99999,9",,"MET070METAR ENFB 010150Z AUTO 15008KT 9999NDV BKN046/// 01/M08 Q1028 W///S3;",
"01488199999","2010-12-01T02:20:00","4","61.206389","1.828889","142.0","STATFJORD B OIL PLATFORM, NO","FM-15","ENFB ","V020","180,1,N,0031,1","01170,1,9,N","011265,1,N,1","+0010,1","-0080,1","99999,9",,,"07,1,+01170,1,99,9",,,"07,99,1,99,9,99,9,99999,9,99,9,99,9","10281,1,99999,9",,"MET070METAR ENFB 010220Z AUTO 18006KT 9999NDV BKN039/// 01/M08 Q1028 W///S3;",
"01488199999","2010-12-01T02:50:00","4","61.206389","1.828889","142.0","STATFJORD B OIL PLATFORM, NO","FM-15","ENFB ","V020","200,1,N,0046,1","22000,1,9,N","011265,1,N,1","+0000,1","-0080,1","99999,9",,,"04,1,+01170,1,99,9",,,"04,99,1,99,9,99,9,99999,9,99,9,99,9","10281,1,99999,9",,"MET078METAR ENFB 010250Z AUTO 20009KT 090V250 9999NDV SCT039/// 00/M08 Q1028 W///S3;",
"01488199999","2010-12-01T03:20:00","4","61.206389","1.828889","142.0","STATFJORD B OIL PLATFORM, NO","FM-15","ENFB ","V020","170,1,N,0051,1","22000,1,9,N","011265,1,N,1","+0010,1","-0080,1","99999,9",,,,,,"00,99,1,99,9,99,9,99999,9,99,9,99,9","10281,1,99999,9",,"MET064METAR ENFB 010320Z AUTO 17010KT 9999NDV NCD 01/M08 Q1028 W///S3;","Q01    003SCCGA1"
"01488199999","2010-12-01T03:50:00","4","61.206389","1.828889","142.0","STATFJORD B OIL PLATFORM, NO","FM-15","ENFB ","V020","160,1,N,0041,1","22000,1,9,N","011265,1,N,1","+0010,1","-0090,1","99999,9",,,"04,1,+01350,1,99,9",,,"04,99,1,99,9,99,9,99999,9,99,9,99,9","10281,1,99999,9",,"MET070METAR ENFB 010350Z AUTO 16008KT 9999NDV SCT045/// 01/M09 Q1028 W///S3;",
"01488199999","2010-12-01T04:20:00","4","61.206389","1.828889","142.0","STATFJORD B OIL PLATFORM, NO","FM-15","ENFB ","V020","160,1,N,0046,1","01500,1,9,N","011265,1,N,1","+0010,1","-0090,1","99999,9",,,"07,1,+01500,1,99,9",,,"07,99,1,99,9,99,9,99999,9,99,9,99,9","10281,1,99999,9",,"MET078METAR ENFB 010420Z AUTO 16009KT 140V210 9999NDV BKN055/// 01/M09 Q1028 W///S3;",
"01488199999","2010-12-01T04:50:00","4","61.206389","1.828889","142.0","STATFJORD B OIL PLATFORM, NO","FM-15","ENFB ","V020","999,9,V,0046,1","01320,1,9,N","011265,1,N,1","+0010,1","-0080,1","99999,9",,,"07,1,+01320,1,99,9",,,"07,99,1,99,9,99,9,99999,9,99,9,99,9","10271,1,99999,9",,"MET070METAR ENFB 010450Z AUTO VRB09KT 9999NDV BKN044/// 01/M08 Q1027 W///S3;",
"01488199999","2010-12-01T05:20:00","4","61.206389","1.828889","142.0","STATFJORD B OIL PLATFORM, NO","FM-15","ENFB ","V020","999,9,V,0046,1","22000,1,9,N","011265,1,N,1","+0010,1","-0090,1","99999,9",,,,,,"00,99,1,99,9,99,9,99999,9,99,9,99,9","10271,1,99999,9",,"MET064METAR ENFB 010520Z AUTO VRB09KT 9999NDV NCD 01/M09 Q1027 W///S3;","Q01    003SCCGA1"
"01488199999","2010-12-01T05:50:00","4","61.206389","1.828889","142.0","STATFJORD B OIL PLATFORM, NO","FM-15","ENFB ","V020","999,9,V,0041,1","01500,1,9,N","011265,1,N,1","+0010,1","-0080,1","99999,9",,,"07,1,+01500,1,99,9",,,"07,99,1,99,9,99,9,99999,9,99,9,99,9","10271,1,99999,9",,"MET070METAR ENFB 010550Z AUTO VRB08KT 9999NDV BKN054/// 01/M08 Q1027 W///S3;",
"01488199999","2010-12-01T06:20:00","4","61.206389","1.828889","142.0","STATFJORD B OIL PLATFORM, NO","FM-15","ENFB ","V020","190,1,N,0031,1","01500,1,9,N","011265,1,N,1","+0000,1","-0080,1","99999,9",,,"02,1,+01230,1,99,9","07,1,+01500,1,99,9",,"07,99,1,99,9,99,9,99999,9,99,9,99,9","10271,1,99999,9",,"MET080METAR ENFB 010620Z AUTO 19006KT 9999NDV FEW041/// BKN051/// 00/M08 Q1027 W///S3;",
"01488199999","2010-12-01T06:50:00","4","61.206389","1.828889","142.0","STATFJORD B OIL PLATFORM, NO","FM-15","ENFB ","V020","190,1,N,0031,1","01500,1,9,N","011265,1,N,1","+0010,1","-0090,1","99999,9",,,"02,1,+01230,1,99,9","07,1,+01500,1,99,9",,"07,99,1,99,9,99,9,99999,9,99,9,99,9","10271,1,99999,9",,"MET080METAR ENFB 010650Z AUTO 19006KT 9999NDV FEW041/// BKN050/// 01/M09 Q1027 W///S3;",
"01488199999","2010-12-01T07:20:00","4","61.206389","1.828889","142.0","STATFJORD B OIL PLATFORM, NO","FM-15","ENFB ","V020","190,1,N,0041,1","22000,1,9,N","011265,1,N,1","+0000,1","-0090,1","99999,9",,,"02,1,+01350,1,99,9",,,"02,99,1,99,9,99,9,99999,9,99,9,99,9","10271,1,99999,9",,"MET070METAR ENFB 010720Z AUTO 19008KT 9999NDV FEW045/// 00/M09 Q1027 W///S3;",
"01488199999","2010-12-01T07:50:00","4","61.206389","1.828889","142.0","STATFJORD B OIL PLATFORM, NO","FM-15","ENFB ","V020","999,9,V,0041,1","22000,1,9,N","011265,1,N,1","+0010,1","-0080,1","99999,9",,,,,,"00,99,1,99,9,99,9,99999,9,99,9,99,9","10271,1,99999,9",,"MET064METAR ENFB 010750Z AUTO VRB08KT 9999NDV NCD 01/M08 Q1027 W///S3;","Q01    003SCCGA1"
"01488199999","2010-12-01T08:20:00","4","61.206389","1.828889","142.0","STATFJORD B OIL PLATFORM, NO","FM-15","ENFB ","V020","180,1,N,0036,1","22000,1,9,N","011265,1,N,1","+0010,1","-0080,1","99999,9",,,,,,"00,99,1,99,9,99,9,99999,9,99,9,99,9","10271,1,99999,9",,"MET064METAR ENFB 010820Z AUTO 18007KT 9999NDV NCD 01/M08 Q1027 W///S3;","Q01    003SCCGA1"
"01488199999","2010-12-01T08:50:00","4","61.206389","1.828889","142.0","STATFJORD B OIL PLATFORM, NO","FM-15","ENFB ","V020","170,1,N,0041,1","22000,1,9,N","011265,1,N,1","+0010,1","-0090,1","99999,9",,,,,,"00,99,1,99,9,99,9,99999,9,99,9,99,9","10281,1,99999,9",,"MET072METAR ENFB 010850Z AUTO 17008KT 140V240 9999NDV NCD 01/M09 Q1028 W///S3;","Q01    003SCCGA1"
"01488199999","2010-12-01T09:20:00","4","61.206389","1.828889","142.0","STATFJORD B OIL PLATFORM, NO","FM-15","ENFB ","V020","999,9,V,0036,1","22000,1,9,N","011265,1,N,1","+0000,1","-0090,1","99999,9",,,,,,"00,99,1,99,9,99,9,99999,9,99,9,99,9","10281,1,99999,9",,"MET064METAR ENFB 010920Z AUTO VRB07KT 9999NDV NCD 00/M09 Q1028 W///S3;","Q01    003SCCGA1"
"01488199999","2010-12-01T09:50:00","4","61.206389","1.828889","142.0","STATFJORD B OIL PLATFORM, NO","FM-15","ENFB ","V020","999,9,V,0041,1","22000,1,9,N","011265,1,N,1","+0010,1","-0080,1","99999,9",,,"02,1,+01230,1,99,9",,,"02,99,1,99,9,99,9,99999,9,99,9,99,9","10281,1,99999,9",,"MET070METAR ENFB 010950Z AUTO VRB08KT 9999NDV FEW041/// 01/M08 Q1028 W///S3;",
"01488199999","2010-12-01T10:20:00","4","61.206389","1.828889","142.0","STATFJORD B OIL PLATFORM, NO","FM-15","ENFB ","V020","190,1,N,0036,1","22000,1,9,N","011265,1,N,1","+0010,1","-0090,1","99999,9",,,"02,1,+01260,1,99,9",,,"02,99,1,99,9,99,9,99999,9,99,9,99,9","10281,1,99999,9",,"MET070METAR ENFB 011020Z AUTO 19007KT 9999NDV FEW042/// 01/M09 Q1028 W///S3;",
"01488199999","2010-12-01T10:50:00","4","61.206389","1.828889","142.0","STATFJORD B OIL PLATFORM, NO","FM-15","ENFB ","V020","170,1,N,0041,1","22000,1,9,N","011265,1,N,1","+0010,1","-0080,1","99999,9",,,"02,1,+01260,1,99,9",,,"02,99,1,99,9,99,9,99999,9,99,9,99,9","10271,1,99999,9",,"MET070METAR ENFB 011050Z AUTO 17008KT 9999NDV FEW042/// 01/M08 Q1027 W///S3;",
"01488199999","2010-12-01T11:20:00","4","61.206389","1.828889","142.0","STATFJORD B OIL PLATFORM, NO","FM-15","ENFB ","V020","180,1,N,0041,1","22000,1,9,N","011265,1,N,1","+0010,1","-0090,1","99999,9",,,"04,1,+01260,1,99,9",,,"04,99,1,99,9,99,9,99999,9,99,9,99,9","10271,1,99999,9",,"MET070METAR ENFB 011120Z AUTO 18008KT 9999NDV SCT042/// 01/M09 Q1027 W///S3;",
"01488199999","2010-12-01T11:50:00","4","61.206389","1.828889","142.0","STATFJORD B OIL PLATFORM, NO","FM-15","ENFB ","V020","190,1,N,0021,1","22000,1,9,N","011265,1,N,1","+0010,1","-0090,1","99999,9",,,,,,"00,99,1,99,9,99,9,99999,9,99,9,99,9","10271,1,99999,9",,"MET064METAR ENFB 011150Z AUTO 19004KT 9999NDV NCD 01/M09 Q1027 W///S3;","Q01    003SCCGA1"
"01488199999","2010-12-01T12:20:00","4","61.206389","1.828889","142.0","STATFJORD B OIL PLATFORM, NO","FM-15","ENFB ","V020","999,9,V,0036,1","22000,1,9,N","011265,1,N,1","+0010,1","-0080,1","99999,9",,,"04,1,+01260,1,99,9",,,"04,99,1,99,9,99,9,99999,9,99,9,99,9","10271,1,99999,9",,"MET070METAR ENFB 011220Z AUTO VRB07KT 9999NDV SCT042/// 01/M08 Q1027 W///S3;",
"01488199999","2010-12-01T12:50:00","4","61.206389","1.828889","142.0","STATFJORD B OIL PLATFORM, NO","FM-15","ENFB ","V020","210,1,N,0026,1","01200,1,9,N","011265,1,N,1","+0010,1","-0080,1","99999,9",,,"07,1,+01200,1,99,9",,,"07,99,1,99,9,99,9,99999,9,99,9,99,9","10271,1,99999,9",,"MET070METAR ENFB 011250Z AUTO 21005KT 9999NDV BKN040/// 01/M08 Q1027 W///S3;",
"01488199999","2010-12-01T13:20:00","4","61.206389","1.828889","142.0","STATFJORD B OIL PLATFORM, NO","FM-15","ENFB ","V020","190,1,N,0021,1","22000,1,9,N","011265,1,N,1","+0020,1","-0090,1","99999,9",,,"04,1,+01200,1,99,9",,,"04,99,1,99,9,99,9,99999,9,99,9,99,9","10271,1,99999,9","0072,1","MET073METAR ENFB 011320Z AUTO 19004G14KT 9999NDV SCT040/// 02/M09 Q1027 W///S3;",
"01488199999","2010-12-01T13:50:00","4","61.206389","1.828889","142.0","STATFJORD B OIL PLATFORM, NO","FM-15","ENFB ","V020","190,1,N,0036,1","01230,1,9,N","011265,1,N,1","+0010,1","-0080,1","99999,9",,,"07,1,+01230,1,99,9",,,"07,99,1,99,9,99,9,99999,9,99,9,99,9","10271,1,99999,9",,"MET078METAR ENFB 011350Z AUTO 19007KT 090V230 9999NDV BKN041/// 01/M08 Q1027 W///S3;",
"01488199999","2010-12-01T14:20:00","4","61.206389","1.828889","142.0","STATFJORD B OIL PLATFORM, NO","FM-15","ENFB ","V020","190,1,N,0026,1","01260,1,9,N","011265,1,N,1","+0010,1","-0080,1","99999,9",,,"07,1,+01260,1,99,9",,,"07,99,1,99,9,99,9,99999,9,99,9,99,9","10271,1,99999,9",,"MET070METAR ENFB 011420Z AUTO 19005KT 9999NDV BKN042/// 01/M08 Q1027 W///S3;",
"01488199999","2010-12-01T14:50:00","4","61.206389","1.828889","142.0","STATFJORD B OIL PLATFORM, NO","FM-15","ENFB ","V020","999,9,V,0021,1","22000,1,9,N","011265,1,N,1","+0010,1","-0090,1","99999,9",,,"04,1,+01350,1,99,9",,,"04,99,1,99,9,99,9,99999,9,99,9,99,9","10261,1,99999,9",,"MET070METAR ENFB 011450Z AUTO VRB04KT 9999NDV SCT045/// 01/M09 Q1026 W///S3;",
"01488199999","2010-12-01T15:20:00","4","61.206389","1.828889","142.0","STATFJORD B OIL PLATFORM, NO","FM-15","ENFB ","V020","220,1,N,0041,1","01260,1,9,N","011265,1,N,1","+0010,1","-0080,1","99999,9",,,"07,1,+01260,1,99,9",,,"07,99,1,99,9,99,9,99999,9,99,9,99,9","10261,1,99999,9",,"MET078METAR ENFB 011520Z AUTO 22008KT 190V280 9999NDV BKN042/// 01/M08 Q1026 W///S3;",
"01488199999","2010-12-01T15:50:00","4","61.206389","1.828889","142.0","STATFJORD B OIL PLATFORM, NO","FM-15","ENFB ","V020","999,9,V,0036,1","01230,1,9,N","011265,1,N,1","+0010,1","-0080,1","99999,9",,,"07,1,+01230,1,99,9",,,"07,99,1,99,9,99,9,99999,9,99,9,99,9","10261,1,99999,9",,"MET070METAR ENFB 011550Z AUTO VRB07KT 9999NDV BKN041/// 01/M08 Q1026 W///S3;",
"01488199999","2010-12-01T16:20:00","4","61.206389","1.828889","142.0","STATFJORD B OIL PLATFORM, NO","FM-15","ENFB ","V020","220,1,N,0041,1","01260,1,9,N","011265,1,N,1","+0010,1","-0080,1","99999,9",,,"07,1,+01260,1,99,9",,,"07,99,1,99,9,99,9,99999,9,99,9,99,9","10261,1,99999,9",,"MET070METAR ENFB 011620Z AUTO 22008KT 9999NDV BKN042/// 01/M08 Q1026 W///S3;",
"01488199999","2010-12-01T16:50:00","4","61.206389","1.828889","142.0","STATFJORD B OIL PLATFORM, NO","FM-15","ENFB ","V020","200,1,N,0046,1","01260,1,9,N","011265,1,N,1","+0010,1","-0090,1","99999,9",,,"07,1,+01260,1,99,9",,,"07,99,1,99,9,99,9,99999,9,99,9,99,9","10261,1,99999,9",,"MET078METAR ENFB 011650Z AUTO 20009KT 150V220 9999NDV BKN042/// 01/M09 Q1026 W///S3;",
"01488199999","2010-12-01T17:20:00","4","61.206389","1.828889","142.0","STATFJORD B OIL PLATFORM, NO","FM-15","ENFB ","V020","210,1,N,0046,1","22000,1,9,N","011265,1,N,1","+0010,1","-0090,1","99999,9",,,"04,1,+01230,1,99,9",,,"04,99,1,99,9,99,9,99999,9,99,9,99,9","10261,1,99999,9",,"MET078METAR ENFB 011720Z AUTO 21009KT 180V240 9999NDV SCT041/// 01/M09 Q1026 W///S3;",
"01488199999","2010-12-01T17:50:00","4","61.206389","1.828889","142.0","STATFJORD B OIL PLATFORM, NO","FM-15","ENFB ","V020","210,1,N,0046,1","01170,1,9,N","011265,1,N,1","+0010,1","-0090,1","99999,9",,,"07,1,+01170,1,99,9",,,"07,99,1,99,9,99,9,99999,9,99,9,99,9","10261,1,99999,9",,"MET070METAR ENFB 011750Z AUTO 21009KT 9999NDV BKN039/// 01/M09 Q1026 W///S3;",
"01488199999","2010-12-01T18:20:00","4","61.206389","1.828889","142.0","STATFJORD B OIL PLATFORM, NO","FM-15","ENFB ","V020","200,1,N,0051,1","01230,1,9,N","011265,1,N,1","+0010,1","-0080,1","99999,9",,,"07,1,+01230,1,99,9",,,"07,99,1,99,9,99,9,99999,9,99,9,99,9","10261,1,99999,9",,"MET070METAR ENFB 011820Z AUTO 20010KT 9999NDV BKN041/// 01/M08 Q1026 W///S3;",
"01488199999","2010-12-01T18:50:00","4","61.206389","1.828889","142.0","STATFJORD B OIL PLATFORM, NO","FM-15","ENFB ","V020","210,1,N,0046,1","01230,1,9,N","011265,1,N,1","+0000,1","-0080,1","99999,9",,,"07,1,+01230,1,99,9",,,"07,99,1,99,9,99,9,99999,9,99,9,99,9","10261,1,99999,9",,"MET078METAR ENFB 011850Z AUTO 21009KT 190V310 9999NDV BKN041/// 00/M08 Q1026 W///S3;",
"01488199999","2010-12-01T19:20:00","4","61.206389","1.828889","142.0","STATFJORD B OIL PLATFORM, NO","FM-15","ENFB ","V020","200,1,N,0051,1","01230,1,9,N","011265,1,N,1","+0010,1","-0090,1","99999,9",,,"07,1,+01230,1,99,9",,,"07,99,1,99,9,99,9,99999,9,99,9,99,9","10261,1,99999,9",,"MET078METAR ENFB 011920Z AUTO 20010KT 070V240 9999NDV BKN041/// 01/M09 Q1026 W///S3;",
"01488199999","2010-12-01T19:50:00","4","61.206389","1.828889","142.0","STATFJORD B OIL PLATFORM, NO","FM-15","ENFB ","V020","210,1,N,0046,1","22000,1,9,N","011265,1,N,1","+0000,1","-0090,1","99999,9",,,"02,1,+01290,1,99,9",,,"02,99,1,99,9,99,9,99999,9,99,9,99,9","10261,1,99999,9",,"MET078METAR ENFB 011950Z AUTO 21009KT 180V270 9999NDV FEW043/// 00/M09 Q1026 W///S3;",
"01488199999","2010-12-01T20:20:00","4","61.206389","1.828889","142.0","STATFJORD B OIL PLATFORM, NO","FM-15","ENFB ","V020","210,1,N,0026,1","22000,1,9,N","011265,1,N,1","+0010,1","-0090,1","99999,9",,,"04,1,+01230,1,99,9",,,"04,99,1,99,9,99,9,99999,9,99,9,99,9","10261,1,99999,9",,"MET070METAR ENFB 012020Z AUTO 21005KT 9999NDV SCT041/// 01/M09 Q1026 W///S3;",
"01488199999","2010-12-01T20:50:00","4","61.206389","1.828889","142.0","STATFJORD B OIL PLATFORM, NO","FM-15","ENFB ","V020","200,1,N,0036,1","01170,1,9,N","011265,1,N,1","+0010,1","-0070,1","99999,9",,,"07,1,+01170,1,99,9",,,"07,99,1,99,9,99,9,99999,9,99,9,99,9","10261,1,99999,9",,"MET070METAR ENFB 012050Z AUTO 20007KT 9999NDV BKN039/// 01/M07 Q1026 W///S3;",
"01488199999","2010-12-01T21:20:00","4","61.206389","1.828889","142.0","STATFJORD B OIL PLATFORM, NO","FM-15","ENFB ","V020","210,1,N,0062,1","01140,1,9,N","011265,1,N,1","+0010,1","-0080,1","99999,9",,,"07,1,+01140,1,99,9",,,"07,99,1,99,9,99,9,99999,9,99,9,99,9","10261,1,99999,9",,"MET070METAR ENFB 012120Z AUTO 21012KT 9999NDV BKN038/// 01/M08 Q1026 W///S3;",
"01488199999","2010-12-01T21:50:00","4","61.206389","1.828889","142.0","STATFJORD B OIL PLATFORM, NO","FM-15","ENFB ","V020","210,1,N,0051,1","01200,1,9,N","011265,1,N,1","+0010,1","-0080,1","99999,9",,,"07,1,+01200,1,99,9",,,"07,99,1,99,9,99,9,99999,9,99,9,99,9","10261,1,99999,9",,"MET078METAR ENFB 012150Z AUTO 21010KT 190V310 9999NDV BKN040/// 01/M08 Q1026 W///S3;",
"01488199999","2010-12-01T22:20:00","4","61.206389","1.828889","142.0","STATFJORD B OIL PLATFORM, NO","FM-15","ENFB ","V020","210,1,N,0051,1","01260,1,9,N","011265,1,N,1","+0000,1","-0090,1","99999,9",,,"07,1,+01260,1,99,9",,,"07,99,1,99,9,99,9,99999,9,99,9,99,9","10261,1,99999,9",,"MET078METAR ENFB 012220Z AUTO 21010KT 100V220 9999NDV BKN042/// 00/M09 Q1026 W///S3;",
"01488199999","2010-12-01T22:50:00","4","61.206389","1.828889","142.0","STATFJORD B OIL PLATFORM, NO","FM-15","ENFB ","V020","200,1,N,0051,1","01200,1,9,N","011265,1,N,1","+0010,1","-0080,1","99999,9",,,"07,1,+01200,1,99,9",,,"07,99,1,99,9,99,9,99999,9,99,9,99,9","10251,1,99999,9",,"MET078METAR ENFB 012250Z AUTO 20010KT 110V250 9999NDV BKN040/// 01/M08 Q1025 W///S3;",
"01488199999","2010-12-01T23:20:00","4","61.206389","1.828889","142.0","STATFJORD B OIL PLATFORM, NO","FM-15","ENFB ","V020","210,1,N,0057,1","01200,1,9,N","011265,1,N,1","+0010,1","-0080,1","99999,9",,,"07,1,+01200,1,99,9",,,"07,99,1,99,9,99,9,99999,9,99,9,99,9","10251,1,99999,9",,"MET078METAR ENFB 012320Z AUTO 21011KT 170V230 9999NDV BKN040/// 01/M08 Q1025 W///S3;",
"01488199999","2010-12-01T23:50:00","4","61.206389","1.828889","142.0","STATFJORD B OIL PLATFORM, NO","FM-15","ENFB ","V020","210,1,N,0046,1","01170,1,9,N","011265,1,N,1","+0010,1","-0080,1","99999,9",,,"08,1,+01170,1,99,9",,,"08,99,1,99,9,99,9,99999,9,99,9,99,9","10251,1,99999,9",,"MET070METAR ENFB 012350Z AUTO 21009KT 9999NDV OVC039/// 01/M08 Q1025 W///S3;",
"01488199999","2010-12-02T00:20:00","4","61.206389","1.828889","142.0","STATFJORD B OIL PLATFORM, NO","FM-15","ENFB ","V020","200,1,N,0046,1","01230,1,9,N","011265,1,N,1","+0000,1","-0090,1","99999,9",,,"07,1,+01230,1,99,9",,,"07,99,1,99,9,99,9,99999,9,99,9,99,9","10251,1,99999,9",,"MET070METAR ENFB 020020Z AUTO 20009KT 9999NDV BKN041/// 00/M09 Q1025 W///S3;",
"01488199999","2010-12-02T00:50:00","4","61.206389","1.828889","142.0","STATFJORD B OIL PLATFORM, NO","FM-15","ENFB ","V020","200,1,N,0062,1","01230,1,9,N","011265,1,N,1","+0010,1","-0090,1","99999,9",,,"07,1,+01230,1,99,9",,,"07,99,1,99,9,99,9,99999,9,99,9,99,9","10240,1,99999,9",,"MET078METAR ENFB 020050Z AUTO 20012KT 160V220 9999NDV BKN041/// 01/M09 Q1024 W///S3;",
"01488199999","2010-12-02T01:20:00","4","61.206389","1.828889","142.0","STATFJORD B OIL PLATFORM, NO","FM-15","ENFB ","V020","190,1,N,0062,1","01230,1,9,N","011265,1,N,1","+0010,1","-0080,1","99999,9",,,"07,1,+01230,1,99,9",,,"07,99,1,99,9,99,9,99999,9,99,9,99,9","10240,1,99999,9",,"MET070METAR ENFB 020120Z AUTO 19012KT 9999NDV BKN041/// 01/M08 Q1024 W///S3;",
"01488199999","2010-12-02T01:50:00","4","61.206389","1.828889","142.0","STATFJORD B OIL PLATFORM, NO","FM-15","ENFB ","V020","200,1,N,0062,1","01260,1,9,N","011265,1,N,1","+0010,1","-0080,1","99999,9",,,"08,1,+01260,1,99,9",,,"08,99,1,99,9,99,9,99999,9,99,9,99,9","10240,1,99999,9",,"MET078METAR ENFB 020150Z AUTO 20012KT 170V230 9999NDV OVC042/// 01/M08 Q1024 W///S3;",
"01488199999","2010-12-02T02:20:00","4","61.206389","1.828889","142.0","STATFJORD B OIL PLATFORM, NO","FM-15","ENFB ","V020","210,1,N,0051,1","01290,1,9,N","011265,1,N,1","+0010,1","-0080,1","99999,9",,,"07,1,+01290,1,99,9",,,"07,99,1,99,9,99,9,99999,9,99,9,99,9","10240,1,99999,9",,"MET078METAR ENFB 020220Z AUTO 21010KT 060V230 9999NDV BKN043/// 01/M08 Q1024 W///S3;",
"01488199999","2010-12-02T02:50:00","4","61.206389","1.828889","142.0","STATFJORD B OIL PLATFORM, NO","FM-15","ENFB ","V020","200,1,N,0062,1","01320,1,9,N","011265,1,N,1","+0010,1","-0080,1","99999,9",,,"07,1,+01320,1,99,9",,,"07,99,1,99,9,99,9,99999,9,99,9,99,9","10230,1,99999,9",,"MET070METAR ENFB 020250Z AUTO 20012KT 9999NDV BKN044/// 01/M08 Q1023 W///S3;",
"01488199999","2010-12-02T03:20:00","4","61.206389","1.828889","142.0","STATFJORD B OIL PLATFORM, NO","FM-15","ENFB ","V020","999,9,V,0057,1","01320,1,9,N","011265,1,N,1","+0010,1","-0080,1","99999,9",,,"07,1,+01320,1,99,9",,,"07,99,1,99,9,99,9,99999,9,99,9,99,9","10230,1,99999,9",,"MET070METAR ENFB 020320Z AUTO VRB11KT 9999NDV BKN044/// 01/M08 Q1023 W///S3;",
"01488199999","2010-12-02T03:50:00","4","61.206389","1.828889","142.0","STATFJORD B OIL PLATFORM, NO","FM-15","ENFB ","V020","200,1,N,0062,1","01260,1,9,N","011265,1,N,1","+0010,1","-0080,1","99999,9",,,"07,1,+01260,1,99,9",,,"07,99,1,99,9,99,9,99999,9,99,9,99,9","10230,1,99999,9",,"MET070METAR ENFB 020350Z AUTO 20012KT 9999NDV BKN042/// 01/M08 Q1023 W///S3;",
"01488199999","2010-12-02T04:20:00","4","61.206389","1.828889","142.0","STATFJORD B OIL PLATFORM, NO","FM-15","ENFB ","V020","200,1,N,0051,1","01170,1,9,N","011265,1,N,1","+0010,1","-0070,1","99999,9",,,"07,1,+01170,1,99,9",,,"07,99,1,99,9,99,9,99999,9,99,9,99,9","10220,1,99999,9",,"MET070METAR ENFB 020420Z AUTO 20010KT 9999NDV BKN039/// 01/M07 Q1022 W///S3;",
"01488199999","2010-12-02T04:50:00","4","61.206389","1.828889","142.0","STATFJORD B OIL PLATFORM, NO","FM-15","ENFB ","V020","220,1,N,0072,1","01200,1,9,N","011265,1,N,1","+0010,1","-0070,1","99999,9",,,"08,1,+01200,1,99,9",,,"08,99,1,99,9,99,9,99999,9,99,9,99,9","10220,1,99999,9",,"MET070METAR ENFB 020450Z AUTO 22014KT 9999NDV OVC040/// 01/M07 Q1022 W///S3;",
"01488199999","2010-12-02T05:20:00","4","61.206389","1.828889","142.0","STATFJORD B OIL PLATFORM, NO","FM-15","ENFB ","V020","190,1,N,0062,1","01230,1,9,N","011265,1,N,1","+0020,1","-0070,1","99999,9",,,"07,1,+01230,1,99,9",,,"07,99,1,99,9,99,9,99999,9,99,9,99,9","10220,1,99999,9",,"MET070METAR ENFB 020520Z AUTO 19012KT 9999NDV BKN041/// 02/M07 Q1022 W///S3;",
"01488199999","2010-12-02T05:50:00","4","61.206389","1.828889","142.0","STATFJORD B OIL PLATFORM, NO","FM-15","ENFB ","V020","210,1,N,0072,1","01320,1,9,N","011265,1,N,1","+0010,1","-0070,1","99999,9",,,"08,1,+01320,1,99,9",,,"08,99,1,99,9,99,9,99999,9,99,9,99,9","10220,1,99999,9",,"MET070METAR ENFB 020550Z AUTO 21014KT 9999NDV OVC044/// 01/M07 Q1022 W///S3;",
"01488199999","2010-12-02T06:20:00","4","61.206389","1.828889","142.0","STATFJORD B OIL PLATFORM, NO","FM-15","ENFB ","V020","180,1,N,0062,1","01290,1,9,N","011265,1,N,1","+0020,1","-0070,1","99999,9",,,"08,1,+01290,1,99,9",,,"08,99,1,99,9,99,9,99999,9,99,9,99,9","10220,1,99999,9",,"MET070METAR ENFB 020620Z AUTO 18012KT 9999NDV OVC043/// 02/M07 Q1022 W///S3;",
"01488199999","2010-12-02T06:50:00","4","61.206389","1.828889","142.0","STATFJORD B OIL PLATFORM, NO","FM-15","ENFB ","V020","200,1,N,0072,1","01230,1,9,N","011265,1,N,1","+0020,1","-0070,1","99999,9",,,"07,1,+01230,1,99,9",,,"07,99,1,99,9,99,9,99999,9,99,9,99,9","10210,1,99999,9",,"MET070METAR ENFB 020650Z AUTO 20014KT 9999NDV BKN041/// 02/M07 Q1021 W///S3;",
"01488199999","2010-12-02T07:20:00","4","61.206389","1.828889","142.0","STATFJORD B OIL PLATFORM, NO","FM-15","ENFB ","V020","190,1,N,0098,1","01170,1,9,N","011265,1,N,1","+0020,1","-0040,1","99999,9",,,"07,1,+01170,1,99,9",,,"07,99,1,99,9,99,9,99999,9,99,9,99,9","10210,1,99999,9",,"MET070METAR ENFB 020720Z AUTO 19019KT 9999NDV BKN039/// 02/M04 Q1021 W///S3;",
"01488199999","2010-12-02T07:50:00","4","61.206389","1.828889","142.0","STATFJORD B OIL PLATFORM, NO","FM-15","ENFB ","V020","190,1,N,0108,1","01050,1,9,N","011265,1,N,1","+0020,1","-0040,1","99999,9",,,"07,1,+01050,1,99,9",,,"07,99,1,99,9,99,9,99999,9,99,9,99,9","10210,1,99999,9",,"MET070METAR ENFB 020750Z AUTO 19021KT 9999NDV BKN035/// 02/M04 Q1021 W///S3;",
"01488199999","2010-12-02T08:20:00","4","61.206389","1.828889","142.0","STATFJORD B OIL PLATFORM, NO","FM-15","ENFB ","V020","200,1,N,0093,1","00960,1,9,N","011265,1,N,1","+0010,1","-0060,1","99999,9",,,"07,1,+00960,1,99,9",,,"07,99,1,99,9,99,9,99999,9,99,9,99,9","10210,1,99999,9",,"MET070METAR ENFB 020820Z AUTO 20018KT 9999NDV BKN032/// 01/M06 Q1021 W///S3;",
"01488199999","2010-12-02T08:50:00","4","61.206389","1.828889","142.0","STATFJORD B OIL PLATFORM, NO","FM-15","ENFB ","V020","200,1,N,0098,1","01020,1,9,N","011265,1,N,1","+0020,1","-0050,1","99999,9",,,"07,1,+01020,1,99,9",,,"07,99,1,99,9,99,9,99999,9,99,9,99,9","10200,1,99999,9",,"MET070METAR ENFB 020850Z AUTO 20019KT 9999NDV BKN034/// 02/M05 Q1020 W///S3;",
"01488199999","2010-12-02T09:20:00","4","61.206389","1.828889","142.0","STATFJORD B OIL PLATFORM, NO","FM-15","ENFB ","V020","200,1,N,0093,1","01050,1,9,N","011265,1,N,1","+0020,1","-0050,1","99999,9",,,"07,1,+01050,1,99,9",,,"07,99,1,99,9,99,9,99999,9,99,9,99,9","10200,1,99999,9",,"MET070METAR ENFB 020920Z AUTO 20018KT 9999NDV BKN035/// 02/M05 Q1020 W///S3;",
"01488199999","2010-12-02T09:50:00","4","61.206389","1.828889","142.0","STATFJORD B OIL PLATFORM, NO","FM-15","ENFB ","V020","200,1,N,0103,1","01050,1,9,N","011265,1,N,1","+0020,1","-0050,1","99999,9",,,"07,1,+01050,1,99,9",,,"07,99,1,99,9,99,9,99999,9,99,9,99,9","10190,1,99999,9",,"MET070METAR ENFB 020950Z AUTO 20020KT 9999NDV BKN035/// 02/M05 Q1019 W///S3;",
"01488199999","2010-12-02T10:20:00","4","61.206389","1.828889","142.0","STATFJORD B OIL PLATFORM, NO","FM-15","ENFB ","V020","200,1,N,0108,1","01170,1,9,N","011265,1,N,1","+0020,1","-0050,1","99999,9",,,"07,1,+01170,1,99,9",,,"07,99,1,99,9,99,9,99999,9,99,9,99,9","10190,1,99999,9",,"MET070METAR ENFB 021020Z AUTO 20021KT 9999NDV BKN039/// 02/M05 Q1019 W///S3;",
"01488199999","2010-12-02T10:50:00","4","61.206389","1.828889","142.0","STATFJORD B OIL PLATFORM, NO","FM-15","ENFB ","V020","200,1,N,0098,1","01050,1,9,N","011265,1,N,1","+0020,1","-0050,1","99999,9",,,"07,1,+01050,1,99,9",,,"07,99,1,99,9,99,9,99999,9,99,9,99,9","10190,1,99999,9",,"MET070METAR ENFB 021050Z AUTO 20019KT 9999NDV BKN035/// 02/M05 Q1019 W///S3;",
"01488199999","2010-12-02T11:20:00","4","61.206389","1.828889","142.0","STATFJORD B OIL PLATFORM, NO","FM-15","ENFB ","V020","200,1,N,0103,1","01020,1,9,N","011265,1,N,1","+0020,1","-0050,1","99999,9",,,"07,1,+01020,1,99,9",,,"07,99,1,99,9,99,9,99999,9,99,9,99,9","10190,1,99999,9",,"MET070METAR ENFB 021120Z AUTO 20020KT 9999NDV BKN034/// 02/M05 Q1019 W///S3;",
"01488199999","2010-12-02T11:50:00","4","61.206389","1.828889","142.0","STATFJORD B OIL PLATFORM, NO","FM-15","ENFB ","V020","200,1,N,0093,1","01140,1,9,N","011265,1,N,1","+0020,1","-0060,1","99999,9",,,"07,1,+01140,1,99,9",,,"07,99,1,99,9,99,9,99999,9,99,9,99,9","10180,1,99999,9",,"MET070METAR ENFB 021150Z AUTO 20018KT 9999NDV BKN038/// 02/M06 Q1018 W///S3;",
"01488199999","2010-12-02T12:20:00","4","61.206389","1.828889","142.0","STATFJORD B OIL PLATFORM, NO","FM-15","ENFB ","V020","200,1,N,0108,1","01110,1,9,N","011265,1,N,1","+0020,1","-0050,1","99999,9","81,1",,"07,1,+01110,1,99,9",,,"07,99,1,99,9,99,9,99999,9,99,9,99,9","10180,1,99999,9",,"MET076METAR ENFB 021220Z AUTO 20021KT 9999NDV -SHRA BKN037/// 02/M05 Q1018 W///S3;",
"01488199999","2010-12-02T12:50:00","4","61.206389","1.828889","142.0","STATFJORD B OIL PLATFORM, NO","FM-15","ENFB ","V020","200,1,N,0113,1","01500,1,9,N","011265,1,N,1","+0020,1","-0060,1","99999,9",,,"02,1,+01020,1,99,9","07,1,+01500,1,99,9",,"07,99,1,99,9,99,9,99999,9,99,9,99,9","10169,1,99999,9",,"MET080METAR ENFB 021250Z AUTO 20022KT 9999NDV FEW034/// BKN058/// 02/M06 Q1017 W///S3;",
"01488199999","2010-12-02T13:20:00","4","61.206389","1.828889","142.0","STATFJORD B OIL PLATFORM, NO","FM-15","ENFB ","V020","210,1,N,0108,1","01500,1,9,N","011265,1,N,1","+0020,1","-0060,1","99999,9",,,"04,1,+01020,1,99,9","07,1,+01500,1,99,9",,"07,99,1,99,9,99,9,99999,9,99,9,99,9","10169,1,99999,9",,"MET080METAR ENFB 021320Z AUTO 21021KT 9999NDV SCT034/// BKN057/// 02/M06 Q1017 W///S3;",
"01488199999","2010-12-02T13:50:00","4","61.206389","1.828889","142.0","STATFJORD B OIL PLATFORM, NO","FM-15","ENFB ","V020","210,1,N,0098,1","01140,1,9,N","011265,1,N,1","+0020,1","-0060,1","99999,9",,,"07,1,+01140,1,99,9",,,"07,99,1,99,9,99,9,99999,9,99,9,99,9","10159,1,99999,9",,"MET070METAR ENFB 021350Z AUTO 21019KT 9999NDV BKN038/// 02/M06 Q1016 W///S3;",
"01488199999","2010-12-02T14:20:00","4","61.206389","1.828889","142.0","STATFJORD B OIL PLATFORM, NO","FM-15","ENFB ","V020","210,1,N,0098,1","01050,1,9,N","011265,1,N,1","+0020,1","-0060,1","99999,9",,,"07,1,+01050,1,99,9",,,"07,99,1,99,9,99,9,99999,9,99,9,99,9","10159,1,99999,9",,"MET070METAR ENFB 021420Z AUTO 21019KT 9999NDV BKN035/// 02/M06 Q1016 W///S3;",
"01488199999","2010-12-02T14:50:00","4","61.206389","1.828889","142.0","STATFJORD B OIL PLATFORM, NO","FM-15","ENFB ","V020","200,1,N,0103,1","01080,1,9,N","011265,1,N,1","+0020,1","-0050,1","99999,9",,,"07,1,+01080,1,99,9",,,"07,99,1,99,9,99,9,99999,9,99,9,99,9","10159,1,99999,9",,"MET070METAR ENFB 021450Z AUTO 20020KT 9999NDV BKN036/// 02/M05 Q1016 W///S4;",
"01488199999","2010-12-02T15:20:00","4","61.206389","1.828889","142.0","STATFJORD B OIL PLATFORM, NO","FM-15","ENFB ","V020","210,1,N,0103,1","01800,1,9,N","011265,1,N,1","+0020,1","-0050,1","99999,9",,,"04,1,+00990,1,99,9","07,1,+01800,1,99,9",,"07,99,1,99,9,99,9,99999,9,99,9,99,9","10149,1,99999,9",,"MET080METAR ENFB 021520Z AUTO 21020KT 9999NDV SCT033/// BKN065/// 02/M05 Q1015 W///S4;",
"01488199999","2010-12-02T15:50:00","4","61.206389","1.828889","142.0","STATFJORD B OIL PLATFORM, NO","FM-15","ENFB ","V020","200,1,N,0108,1","01800,1,9,N","011265,1,N,1","+0020,1","-0050,1","99999,9",,,"02,1,+01020,1,99,9","07,1,+01800,1,99,9",,"07,99,1,99,9,99,9,99999,9,99,9,99,9","10149,1,99999,9",,"MET080METAR ENFB 021550Z AUTO 20021KT 9999NDV FEW034/// BKN061/// 02/M05 Q1015 W///S4;",
"01488199999","2010-12-02T16:20:00","4","61.206389","1.828889","142.0","STATFJORD B OIL PLATFORM, NO","FM-15","ENFB ","V020","210,1,N,0108,1","01800,1,9,N","011265,1,N,1","+0020,1","-0050,1","99999,9",,,"02,1,+00990,1,99,9","07,1,+01800,1,99,9",,"07,99,1,99,9,99,9,99999,9,99,9,99,9","10139,1,99999,9",,"MET080METAR ENFB 021620Z AUTO 21021KT 9999NDV FEW033/// BKN060/// 02/M05 Q1014 W///S4;",
"01488199999","2010-12-02T16:50:00","4","61.206389","1.828889","142.0","STATFJORD B OIL PLATFORM, NO","FM-15","ENFB ","V020","210,1,N,0113,1","01500,1,9,N","011265,1,N,1","+0020,1","-0050,1","99999,9",,,"04,1,+00960,1,99,9","07,1,+01500,1,99,9",,"07,99,1,99,9,99,9,99999,9,99,9,99,9","10139,1,99999,9",,"MET080METAR ENFB 021650Z AUTO 21022KT 9999NDV SCT032/// BKN058/// 02/M05 Q1014 W///S4;",
"01488199999","2010-12-02T17:20:00","4","61.206389","1.828889","142.0","STATFJORD B OIL PLATFORM, NO","FM-15","ENFB ","V020","210,1,N,0108,1","01800,1,9,N","011265,1,N,1","+0020,1","-0050,1","99999,9",,,"02,1,+00990,1,99,9","07,1,+01800,1,99,9",,"07,99,1,99,9,99,9,99999,9,99,9,99,9","10139,1,99999,9",,"MET080METAR ENFB 021720Z AUTO 21021KT 9999NDV FEW033/// BKN061/// 02/M05 Q1014 W///S4;",
"01488199999","2010-12-02T17:50:00","4","61.206389","1.828889","142.0","STATFJORD B OIL PLATFORM, NO","FM-15","ENFB ","V020","200,1,N,0103,1","01800,1,9,N","011265,1,N,1","+0030,1","-0050,1","99999,9",,,"02,1,+01020,1,99,9","07,1,+01800,1,99,9",,"07,99,1,99,9,99,9,99999,9,99,9,99,9","10129,1,99999,9",,"MET080METAR ENFB 021750Z AUTO 20020KT 9999NDV FEW034/// BKN060/// 03/M05 Q1013 W///S4;",
"01488199999","2010-12-02T18:20:00","4","61.206389","1.828889","142.0","STATFJORD B OIL PLATFORM, NO","FM-15","ENFB ","V020","200,1,N,0098,1","01410,1,9,N","011265,1,N,1","+0020,1","-0050,1","99999,9","81,1",,"07,1,+01410,1,99,9",,,"07,99,1,99,9,99,9,99999,9,99,9,99,9","10129,1,99999,9",,"MET076METAR ENFB 021820Z AUTO 20019KT 9999NDV -SHRA BKN047/// 02/M05 Q1013 W///S4;",
"01488199999","2010-12-02T18:50:00","4","61.206389","1.828889","142.0","STATFJORD B OIL PLATFORM, NO","FM-15","ENFB ","V020","210,1,N,0098,1","01500,1,9,N","011265,1,N,1","+0030,1","-0060,1","99999,9",,,"07,1,+01500,1,99,9",,,"07,99,1,99,9,99,9,99999,9,99,9,99,9","10129,1,99999,9",,"MET070METAR ENFB 021850Z AUTO 21019KT 9999NDV BKN057/// 03/M06 Q1013 W///S4;",
"01488199999","2010-12-02T19:20:00","4","61.206389","1.828889","142.0","STATFJORD B OIL PLATFORM, NO","FM-15","ENFB ","V020","210,1,N,0098,1","01140,1,9,N","011265,1,N,1","+0020,1","-0050,1","99999,9",,,"07,1,+01140,1,99,9",,,"07,99,1,99,9,99,9,99999,9,99,9,99,9","10129,1,99999,9",,"MET070METAR ENFB 021920Z AUTO 21019KT 9999NDV BKN038/// 02/M05 Q1013 W///S4;",
"01488199999","2010-12-02T19:50:00","4","61.206389","1.828889","142.0","STATFJORD B OIL PLATFORM, NO","FM-15","ENFB ","V020","210,1,N,0103,1","01260,1,9,N","011265,1,N,1","+0020,1","-0060,1","99999,9","81,1",,"07,1,+01260,1,99,9",,,"07,99,1,99,9,99,9,99999,9,99,9,99,9","10119,1,99999,9",,"MET076METAR ENFB 021950Z AUTO 21020KT 9999NDV -SHRA BKN042/// 02/M06 Q1012 W///S4;",
"01488199999","2010-12-02T20:20:00","4","61.206389","1.828889","142.0","STATFJORD B OIL PLATFORM, NO","FM-15","ENFB ","V020","200,1,N,0098,1","01320,1,9,N","011265,1,N,1","+0030,1","-0060,1","99999,9",,,"07,1,+01320,1,99,9",,,"07,99,1,99,9,99,9,99999,9,99,9,99,9","10119,1,99999,9",,"MET070METAR ENFB 022020Z AUTO 20019KT 9999NDV BKN044/// 03/M06 Q1012 W///S4;",
"01488199999","2010-12-02T20:50:00","4","61.206389","1.828889","142.0","STATFJORD B OIL PLATFORM, NO","FM-15","ENFB ","V020","210,1,N,0098,1","01410,1,9,N","011265,1,N,1","+0030,1","-0060,1","99999,9",,,"07,1,+01410,1,99,9",,,"07,99,1,99,9,99,9,99999,9,99,9,99,9","10108,1,99999,9",,"MET070METAR ENFB 022050Z AUTO 21019KT 9999NDV BKN047/// 03/M06 Q1011 W///S4;",
"01488199999","2010-12-02T21:20:00","4","61.206389","1.828889","142.0","STATFJORD B OIL PLATFORM, NO","FM-15","ENFB ","V020","200,1,N,0098,1","01320,1,9,N","011265,1,N,1","+0030,1","-0060,1","99999,9",,,"07,1,+01320,1,99,9",,,"07,99,1,99,9,99,9,99999,9,99,9,99,9","10108,1,99999,9",,"MET070METAR ENFB 022120Z AUTO 20019KT 9999NDV BKN044/// 03/M06 Q1011 W///S4;",
"01488199999","2010-12-02T21:50:00","4","61.206389","1.828889","142.0","STATFJORD B OIL PLATFORM, NO","FM-15","ENFB ","V020","200,1,N,0082,1","01500,1,9,N","011265,1,N,1","+0030,1","-0070,1","99999,9",,,"07,1,+01500,1,99,9",,,"07,99,1,99,9,99,9,99999,9,99,9,99,9","10102,1,99999,9",,"MET070METAR ENFB 022150Z AUTO 20016KT 9999NDV BKN056/// 03/M07 Q1010 W///S4;",
"01488199999","2010-12-02T22:20:00","4","61.206389","1.828889","142.0","STATFJORD B OIL PLATFORM, NO","FM-15","ENFB ","V020","210,1,N,0087,1","01800,1,9,N","011265,1,N,1","+0030,1","-0070,1","99999,9",,,"07,1,+01800,1,99,9",,,"07,99,1,99,9,99,9,99999,9,99,9,99,9","10102,1,99999,9",,"MET070METAR ENFB 022220Z AUTO 21017KT 9999NDV BKN061/// 03/M07 Q1010 W///S4;",
"01488199999","2010-12-02T22:50:00","4","61.206389","1.828889","142.0","STATFJORD B OIL PLATFORM, NO","FM-15","ENFB ","V020","200,1,N,0093,1","01800,1,9,N","011265,1,N,1","+0030,1","-0060,1","99999,9",,,"07,1,+01800,1,99,9",,,"07,99,1,99,9,99,9,99999,9,99,9,99,9","10091,1,99999,9",,"MET070METAR ENFB 022250Z AUTO 20018KT 9999NDV BKN065/// 03/M06 Q1009 W///S4;",
"01488199999","2010-12-02T23:20:00","4","61.206389","1.828889","142.0","STATFJORD B OIL PLATFORM, NO","FM-15","ENFB ","V020","200,1,N,0108,1","01800,1,9,N","011265,1,N,1","+0030,1","-0060,1","99999,9",,,"07,1,+01800,1,99,9",,,"07,99,1,99,9,99,9,99999,9,99,9,99,9","10091,1,99999,9",,"MET070METAR ENFB 022320Z AUTO 20021KT 9999NDV BKN064/// 03/M06 Q1009 W///S4;",
"01488199999","2010-12-02T23:50:00","4","61.206389","1.828889","142.0","STATFJORD B OIL PLATFORM, NO","FM-15","ENFB ","V020","200,1,N,0108,1","01350,1,9,N","011265,1,N,1","+0030,1","-0050,1","99999,9",,,"07,1,+01350,1,99,9",,,"07,99,1,99,9,99,9,99999,9,99,9,99,9","10091,1,99999,9",,"MET070METAR ENFB 022350Z AUTO 20021KT 9999NDV BKN045/// 03/M05 Q1009 W///S4;",
"01488199999","2010-12-03T00:20:00","4","61.206389","1.828889","142.0","STATFJORD B OIL PLATFORM, NO","FM-15","ENFB ","V020","200,1,N,0108,1","01050,1,9,N","011265,1,N,1","+0030,1","-0040,1","99999,9",,,"07,1,+01050,1,99,9",,,"07,99,1,99,9,99,9,99999,9,99,9,99,9","10081,1,99999,9",,"MET070METAR ENFB 030020Z AUTO 20021KT 9999NDV BKN035/// 03/M04 Q1008 W///S4;",
"01488199999","2010-12-03T00:50:00","4","61.206389","1.828889","142.0","STATFJORD B OIL PLATFORM, NO","FM-15","ENFB ","V020","210,1,N,0113,1","00990,1,9,N","011265,1,N,1","+0020,1","-0020,1","99999,9","81,1",,"07,1,+00990,1,99,9",,,"07,99,1,99,9,99,9,99999,9,99,9,99,9","10081,1,99999,9",,"MET076METAR ENFB 030050Z AUTO 21022KT 9999NDV -SHRA BKN033/// 02/M02 Q1008 W///S4;",
"01488199999","2010-12-03T01:20:00","4","61.206389","1.828889","142.0","STATFJORD B OIL PLATFORM, NO","FM-15","ENFB ","V020","210,1,N,0113,1","01140,1,9,N","011265,1,N,1","+0020,1","-0020,1","99999,9","81,1",,"02,1,+00570,1,99,9","07,1,+01140,1,99,9","07,1,+02100,1,99,9","07,99,1,99,9,99,9,99999,9,99,9,99,9","10071,1,99999,9",,"MET096METAR ENFB 030120Z AUTO 21022KT 9999NDV -SHRA FEW019/// BKN038/// BKN070/// 02/M02 Q1007 W///S4;",
"01488199999","2010-12-03T01:50:00","4","61.206389","1.828889","142.0","STATFJORD B OIL PLATFORM, NO","FM-15","ENFB ","V020","210,1,N,0129,1","00600,1,9,N","003700,1,N,1","+0010,1","-0020,1","99999,9","85,1",,"07,1,+00600,1,99,9",,,"07,99,1,99,9,99,9,99999,9,99,9,99,9","10071,1,99999,9",,"MET076METAR ENFB 030150Z AUTO 21025KT 3700NDV -SHSN BKN020/// 01/M02 Q1007 W///S4;",
"01488199999","2010-12-03T02:20:00","4","61.206389","1.828889","142.0","STATFJORD B OIL PLATFORM, NO","FM-15","ENFB ","V020","200,1,N,0134,1","00270,1,9,N","011265,1,N,1","+0010,1","-0010,1","99999,9","81,1",,"07,1,+00270,1,99,9",,,"07,99,1,99,9,99,9,99999,9,99,9,99,9","10061,1,99999,9","0221,1","MET079METAR ENFB 030220Z AUTO 20026G43KT 9999NDV -SHRA BKN009/// 01/M01 Q1006 W///S4;",
"01488199999","2010-12-03T02:50:00","4","61.206389","1.828889","142.0","STATFJORD B OIL PLATFORM, NO","FM-15","ENFB ","V020","210,1,N,0144,1","00510,1,9,N","004100,1,N,1","+0000,1","-0020,1","99999,9","81,1",,"07,1,+00510,1,99,9","07,1,+01500,1,99,9",,"07,99,1,99,9,99,9,99999,9,99,9,99,9","10061,1,99999,9",,"MET086METAR ENFB 030250Z AUTO 21028KT 4100NDV -SHRA BKN017/// BKN057/// 00/M02 Q1006 W///S4;",
"01488199999","2010-12-03T03:20:00","4","61.206389","1.828889","142.0","STATFJORD B OIL PLATFORM, NO","FM-15","ENFB ","V020","200,1,N,0129,1","00450,1,9,N","011265,1,N,1","+0020,1","+0000,1","99999,9","81,1",,"04,1,+00330,1,99,9","07,1,+00450,1,99,9",,"07,99,1,99,9,99,9,99999,9,99,9,99,9","10051,1,99999,9",,"MET085METAR ENFB 030320Z AUTO 20025KT 9999NDV -SHRA SCT011/// BKN015/// 02/00 Q1005 W///S4;",
"01488199999","2010-12-03T03:50:00","4","61.206389","1.828889","142.0","STATFJORD B OIL PLATFORM, NO","FM-15","ENFB ","V020","210,1,N,0144,1","01020,1,9,N","011265,1,N,1","+0020,1","+0000,1","99999,9",,,"02,1,+00420,1,99,9","07,1,+01020,1,99,9",,"07,99,1,99,9,99,9,99999,9,99,9,99,9","10051,1,99999,9",,"MET079METAR ENFB 030350Z AUTO 21028KT 9999NDV FEW014/// BKN034/// 02/00 Q1005 W///S4;",
"01488199999","2010-12-03T04:20:00","4","61.206389","1.828889","142.0","STATFJORD B OIL PLATFORM, NO","FM-15","ENFB ","V020","210,1,N,0082,1","00270,1,9,N","003000,1,N,1","+0010,1","-0010,1","99999,9","80,1",,"07,1,+00270,1,99,9",,,"07,99,1,99,9,99,9,99999,9,99,9,99,9","10051,1,99999,9",,"MET077METAR ENFB 030420Z AUTO 21016KT 3000NDV SHRASN BKN009/// 01/M01 Q1005 W///S4;",
"01488199999","2010-12-03T04:50:00","4","61.206389","1.828889","142.0","STATFJORD B OIL PLATFORM, NO","FM-15","ENFB ","V020","200,1,N,0154,1","00600,1,9,N","011265,1,N,1","+0020,1","+0000,1","99999,9",,,"07,1,+00600,1,99,9",,,"07,99,1,99,9,99,9,99999,9,99,9,99,9","10041,1,99999,9",,"MET078METAR ENFB 030450Z AUTO 20030KT 9999NDV BKN020/// 02/00 Q1004 RESHRASN W///S4;",
"01488199999","2010-12-03T05:20:00","4","61.206389","1.828889","142.0","STATFJORD B OIL PLATFORM, NO","FM-15","ENFB ","V020","200,1,N,0134,1","01800,1,9,N","011265,1,N,1","+0030,1","+0000,1","99999,9",,,"02,1,+00600,1,99,9","07,1,+01800,1,99,9",,"07,99,1,99,9,99,9,99999,9,99,9,99,9","10031,1,99999,9",,"MET079METAR ENFB 030520Z AUTO 20026KT 9999NDV FEW020/// BKN066/// 03/00 Q1003 W///S4;",
"01488199999","2010-12-03T05:50:00","4","61.206389","1.828889","142.0","STATFJORD B OIL PLATFORM, NO","FM-15","ENFB ","V020","200,1,N,0170,1","22000,1,9,N","011265,1,N,1","+0020,1","-0010,1","99999,9","81,1",,"02,1,+00180,1,99,9",,,"02,99,1,99,9,99,9,99999,9,99,9,99,9","10031,1,99999,9",,"MET076METAR ENFB 030550Z AUTO 20033KT 9999NDV -SHRA FEW006/// 02/M01 Q1003 W///S5;",
"01488199999","2010-12-03T06:20:00","4","61.206389","1.828889","142.0","STATFJORD B OIL PLATFORM, NO","FM-15","ENFB ","V020","200,1,N,0154,1","22000,1,9,N","011265,1,N,1","+0020,1","-0010,1","99999,9",,,"02,1,+00510,1,99,9",,,"02,99,1,99,9,99,9,99999,9,99,9,99,9","10031,1,99999,9",,"MET070METAR ENFB 030620Z AUTO 20030KT 9999NDV FEW017/// 02/M01 Q1003 W///S5;",
"01488199999","2010-12-03T06:50:00","4","61.206389","1.828889","142.0","STATFJORD B OIL PLATFORM, NO","FM-15","ENFB ","V020","200,1,N,0149,1","22000,1,9,N","011265,1,N,1","+0030,1","+0000,1","99999,9",,,"02,1,+00330,1,99,9","04,1,+01800,1,99,9",,"04,99,1,99,9,99,9,99999,9,99,9,99,9","10020,1,99999,9",,"MET079METAR ENFB 030650Z AUTO 20029KT 9999NDV FEW011/// SCT061/// 03/00 Q1002 W///S5;",
"01488199999","2010-12-03T07:20:00","4","61.206389","1.828889","142.0","STATFJORD B OIL PLATFORM, NO","FM-15","ENFB ","V020","200,1,N,0129,1","01170,1,9,N","011265,1,N,1","+0020,1","+0000,1","99999,9","81,1",,"02,1,+00240,1,99,9","07,1,+01170,1,99,9",,"07,99,1,99,9,99,9,99999,9,99,9,99,9","10020,1,99999,9",,"MET085METAR ENFB 030720Z AUTO 20025KT 9999NDV -SHRA FEW008/// BKN039/// 02/00 Q1002 W///S5;",
"01488199999","2010-12-03T07:50:00","4","61.206389","1.828889","142.0","STATFJORD B OIL PLATFORM, NO","FM-15","ENFB ","V020","190,1,N,0144,1","00780,1,9,N","011265,1,N,1","+0030,1","+0000,1","99999,9",,,"07,1,+00780,1,99,9",,,"07,99,1,99,9,99,9,99999,9,99,9,99,9","10020,1,99999,9",,"MET069METAR ENFB 030750Z AUTO 19028KT 9999NDV BKN026/// 03/00 Q1002 W///S5;",
"01488199999","2010-12-03T08:20:00","4","61.206389","1.828889","142.0","STATFJORD B OIL PLATFORM, NO","FM-15","ENFB ","V020","200,1,N,0159,1","00840,1,9,N","011265,1,N,1","+0030,1","-0010,1","99999,9",,,"07,1,+00840,1,99,9",,,"07,99,1,99,9,99,9,99999,9,99,9,99,9","10020,1,99999,9",,"MET070METAR ENFB 030820Z AUTO 20031KT 9999NDV BKN028/// 03/M01 Q1002 W///S5;",
"01488199999","2010-12-03T08:50:00","4","61.206389","1.828889","142.0","STATFJORD B OIL PLATFORM, NO","FM-15","ENFB ","V020","200,1,N,0165,1","00780,1,9,N","011265,1,N,1","+0020,1","-0010,1","99999,9","61,1",,"07,1,+00780,1,99,9",,,"07,99,1,99,9,99,9,99999,9,99,9,99,9","10020,1,99999,9",,"MET074METAR ENFB 030850Z AUTO 20032KT 9999NDV -RA BKN026/// 02/M01 Q1002 W///S5;",
"01488199999","2010-12-03T09:20:00","4","61.206389","1.828889","142.0","STATFJORD B OIL PLATFORM, NO","FM-15","ENFB ","V020","210,1,N,0159,1","00630,1,9,N","011265,1,N,1","+0020,1","-0010,1","99999,9","81,1",,"02,1,+00360,1,99,9","07,1,+00630,1,99,9","07,1,+01410,1,99,9","07,99,1,99,9,99,9,99999,9,99,9,99,9","10010,1,99999,9",,"MET096METAR ENFB 030920Z AUTO 21031KT 9999NDV -SHRA FEW012/// BKN021/// BKN047/// 02/M01 Q1001 W///S5;",
"01488199999","2010-12-03T09:50:00","4","61.206389","1.828889","142.0","STATFJORD B OIL PLATFORM, NO","FM-15","ENFB ","V020","200,1,N,0149,1","01470,1,9,N","011265,1,N,1","+0030,1","-0020,1","99999,9",,,"04,1,+00810,1,99,9","07,1,+01470,1,99,9","07,1,+04800,1,99,9","07,99,1,99,9,99,9,99999,9,99,9,99,9","10010,1,99999,9",,"MET090METAR ENFB 030950Z AUTO 20029KT 9999NDV SCT027/// BKN049/// BKN160/// 03/M02 Q1001 W///S5;",
"01488199999","2010-12-03T10:20:00","4","61.206389","1.828889","142.0","STATFJORD B OIL PLATFORM, NO","FM-15","ENFB ","V020","200,1,N,0159,1","22000,1,9,N","011265,1,N,1","+0030,1","-0010,1","99999,9",,,"02,1,+00600,1,99,9",,,"02,99,1,99,9,99,9,99999,9,99,9,99,9","10010,1,99999,9",,"MET070METAR ENFB 031020Z AUTO 20031KT 9999NDV FEW020/// 03/M01 Q1001 W///S5;",
"01488199999","2010-12-03T10:50:00","4","61.206389","1.828889","142.0","STATFJORD B OIL PLATFORM, NO","FM-15","ENFB ","V020","200,1,N,0129,1","00570,1,9,N","011265,1,N,1","+0030,1","-0010,1","99999,9","81,1",,"07,1,+00570,1,99,9","07,1,+01500,1,99,9","07,1,+03000,1,99,9","07,99,1,99,9,99,9,99999,9,99,9,99,9","10000,1,99999,9",,"MET096METAR ENFB 031050Z AUTO 20025KT 9999NDV -SHRA BKN019/// BKN050/// BKN100/// 03/M01 Q1000 W///S5;",
"01488199999","2010-12-03T11:20:00","4","61.206389","1.828889","142.0","STATFJORD B OIL PLATFORM, NO","FM-15","ENFB ","V020","210,1,N,0144,1","00870,1,9,N","011265,1,N,1","+0020,1","-0010,1","99999,9","81,1",,"07,1,+00870,1,99,9",,,"07,99,1,99,9,99,9,99999,9,99,9,99,9","10000,1,99999,9",,"MET076METAR ENFB 031120Z AUTO 21028KT 9999NDV -SHRA BKN029/// 02/M01 Q1000 W///S5;",
"01488199999","2010-12-03T11:50:00","4","61.206389","1.828889","142.0","STATFJORD B OIL PLATFORM, NO","FM-15","ENFB ","V020","200,1,N,0149,1","00870,1,9,N","011265,1,N,1","+0030,1","-0010,1","99999,9",,,"07,1,+00870,1,99,9",,,"07,99,1,99,9,99,9,99999,9,99,9,99,9","10000,1,99999,9",,"MET070METAR ENFB 031150Z AUTO 20029KT 9999NDV BKN029/// 03/M01 Q1000 W///S5;",
"01488199999","2010-12-03T12:20:00","4","61.206389","1.828889","142.0","STATFJORD B OIL PLATFORM, NO","FM-15","ENFB ","V020","200,1,N,0149,1","00930,1,9,N","011265,1,N,1","+0040,1","-0020,1","99999,9",,,"07,1,+00930,1,99,9",,,"07,99,1,99,9,99,9,99999,9,99,9,99,9","09990,1,99999,9",,"MET070METAR ENFB 031220Z AUTO 20029KT 9999NDV BKN031/// 04/M02 Q0999 W///S5;",
"01488199999","2010-12-03T12:50:00","4","61.206389","1.828889","142.0","STATFJORD B OIL PLATFORM, NO","FM-15","ENFB ","V020","190,1,N,0149,1","00900,1,9,N","011265,1,N,1","+0040,1","-0010,1","99999,9",,,"07,1,+00900,1,99,9",,,"07,99,1,99,9,99,9,99999,9,99,9,99,9","09990,1,99999,9",,"MET070METAR ENFB 031250Z AUTO 19029KT 9999NDV BKN030/// 04/M01 Q0999 W///S5;",
"01488199999","2010-12-03T13:20:00","4","61.206389","1.828889","142.0","STATFJORD B OIL PLATFORM, NO","FM-15","ENFB ","V020","200,1,N,0144,1","00930,1,9,N","011265,1,N,1","+0040,1","-0020,1","99999,9",,,"07,1,+00930,1,99,9",,,"07,99,1,99,9,99,9,99999,9,99,9,99,9","09990,1,99999,9",,"MET070METAR ENFB 031320Z AUTO 20028KT 9999NDV BKN031/// 04/M02 Q0999 W///S5;",
"01488199999","2010-12-03T13:50:00","4","61.206389","1.828889","142.0","STATFJORD B OIL PLATFORM, NO","FM-15","ENFB ","V020","200,1,N,0154,1","00300,1,9,N","011265,1,N,1","+0030,1","+0000,1","99999,9","81,1",,"07,1,+00300,1,99,9","07,1,+01050,1,99,9",,"07,99,1,99,9,99,9,99999,9,99,9,99,9","09990,1,99999,9",,"MET085METAR ENFB 031350Z AUTO 20030KT 9999NDV -SHRA BKN010/// BKN035/// 03/00 Q0999 W///S5;",
"01488199999","2010-12-03T14:20:00","4","61.206389","1.828889","142.0","STATFJORD B OIL PLATFORM, NO","FM-15","ENFB ","V020","200,1,N,0139,1","00270,1,9,N","011265,1,N,1","+0030,1","+0000,1","99999,9","81,1",,"07,1,+00270,1,99,9","07,1,+01410,1,99,9",,"07,99,1,99,9,99,9,99999,9,99,9,99,9","09990,1,99999,9",,"MET085METAR ENFB 031420Z AUTO 20027KT 9999NDV -SHRA BKN009/// BKN047/// 03/00 Q0999 W///S5;",
"01488199999","2010-12-03T14:50:00","4","61.206389","1.828889","142.0","STATFJORD B OIL PLATFORM, NO","FM-15","ENFB ","V020","190,1,N,0139,1","00690,1,9,N","011265,1,N,1","+0030,1","-0010,1","99999,9",,,"07,1,+00690,1,99,9",,,"07,99,1,99,9,99,9,99999,9,99,9,99,9","09980,1,99999,9",,"MET070METAR ENFB 031450Z AUTO 19027KT 9999NDV BKN023/// 03/M01 Q0998 W///S5;",
"01488199999","2010-12-03T15:20:00","4","61.206389","1.828889","142.0","STATFJORD B OIL PLATFORM, NO","FM-15","ENFB ","V020","190,1,N,0144,1","00930,1,9,N","011265,1,N,1","+0040,1","-0020,1","99999,9",,,"07,1,+00930,1,99,9",,,"07,99,1,99,9,99,9,99999,9,99,9,99,9","09980,1,99999,9",,"MET070METAR ENFB 031520Z AUTO 19028KT 9999NDV BKN031/// 04/M02 Q0998 W///S5;",
"01488199999","2010-12-03T15:50:00","4","61.206389","1.828889","142.0","STATFJORD B OIL PLATFORM, NO","FM-15","ENFB ","V020","190,1,N,0129,1","01020,1,9,N","011265,1,N,1","+0040,1","-0010,1","99999,9",,,"07,1,+01020,1,99,9",,,"07,99,1,99,9,99,9,99999,9,99,9,99,9","09980,1,99999,9",,"MET070METAR ENFB 031550Z AUTO 19025KT 9999NDV BKN034/// 04/M01 Q0998 W///S5;",
"01488199999","2010-12-03T16:20:00","4","61.206389","1.828889","142.0","STATFJORD B OIL PLATFORM, NO","FM-15","ENFB ","V020","200,1,N,0139,1","00690,1,9,N","011265,1,N,1","+0040,1","-0010,1","99999,9","52,1",,"07,1,+00690,1,99,9",,,"07,99,1,99,9,99,9,99999,9,99,9,99,9","09980,1,99999,9",,"MET073METAR ENFB 031620Z AUTO 20027KT 9999NDV DZ BKN023/// 04/M01 Q0998 W///S5;",
"01488199999","2010-12-03T16:50:00","4","61.206389","1.828889","142.0","STATFJORD B OIL PLATFORM, NO","FM-15","ENFB ","V020","200,1,N,0129,1","01110,1,9,N","011265,1,N,1","+0040,1","-0010,1","99999,9",,,"02,1,+00660,1,99,9","07,1,+01110,1,99,9",,"07,99,1,99,9,99,9,99999,9,99,9,99,9","09980,1,99999,9",,"MET080METAR ENFB 031650Z AUTO 20025KT 9999NDV FEW022/// BKN037/// 04/M01 Q0998 W///S5;",
"01488199999","2010-12-03T17:20:00","4","61.206389","1.828889","142.0","STATFJORD B OIL PLATFORM, NO","FM-15","ENFB ","V020","200,1,N,0123,1","01800,1,9,N","011265,1,N,1","+0040,1","-0040,1","99999,9",,,"02,1,+01170,1,99,9","07,1,+01800,1,99,9",,"07,99,1,99,9,99,9,99999,9,99,9,99,9","09980,1,99999,9",,"MET080METAR ENFB 031720Z AUTO 20024KT 9999NDV FEW039/// BKN060/// 04/M04 Q0998 W///S5;",
"01488199999","2010-12-03T17:50:00","4","61.206389","1.828889","142.0","STATFJORD B OIL PLATFORM, NO","FM-15","ENFB ","V020","200,1,N,0123,1","01500,1,9,N","011265,1,N,1","+0040,1","-0030,1","99999,9",,,"04,1,+01050,1,99,9","07,1,+01500,1,99,9",,"07,99,1,99,9,99,9,99999,9,99,9,99,9","09980,1,99999,9",,"MET080METAR ENFB 031750Z AUTO 20024KT 9999NDV SCT035/// BKN058/// 04/M03 Q0998 W///S5;",
"01488199999","2010-12-03T18:20:00","4","61.206389","1.828889","142.0","STATFJORD B OIL PLATFORM, NO","FM-15","ENFB ","V020","200,1,N,0123,1","01080,1,9,N","011265,1,N,1","+0050,1","-0040,1","99999,9",,,"07,1,+01080,1,99,9","07,1,+02100,1,99,9",,"07,99,1,99,9,99,9,99999,9,99,9,99,9","09980,1,99999,9",,"MET080METAR ENFB 031820Z AUTO 20024KT 9999NDV BKN036/// BKN070/// 05/M04 Q0998 W///S5;",
"01488199999","2010-12-03T18:50:00","4","61.206389","1.828889","142.0","STATFJORD B OIL PLATFORM, NO","FM-15","ENFB ","V020","190,1,N,0129,1","01500,1,9,N","011265,1,N,1","+0050,1","-0030,1","99999,9",,,"04,1,+01050,1,99,9","07,1,+01500,1,99,9",,"07,99,1,99,9,99,9,99999,9,99,9,99,9","09980,1,99999,9",,"MET080METAR ENFB 031850Z AUTO 19025KT 9999NDV SCT035/// BKN059/// 05/M03 Q0998 W///S5;",
"01488199999","2010-12-03T19:20:00","4","61.206389","1.828889","142.0","STATFJORD B OIL PLATFORM, NO","FM-15","ENFB ","V020","200,1,N,0113,1","01140,1,9,N","011265,1,N,1","+0050,1","-0030,1","99999,9",,,"07,1,+01140,1,99,9",,,"07,99,1,99,9,99,9,99999,9,99,9,99,9","09980,1,99999,9",,"MET070METAR ENFB 031920Z AUTO 20022KT 9999NDV BKN038/// 05/M03 Q0998 W///S5;",
"01488199999","2010-12-03T19:50:00","4","61.206389","1.828889","142.0","STATFJORD B OIL PLATFORM, NO","FM-15","ENFB ","V020","200,1,N,0123,1","01080,1,9,N","011265,1,N,1","+0050,1","-0030,1","99999,9",,,"07,1,+01080,1,99,9","07,1,+02100,1,99,9",,"07,99,1,99,9,99,9,99999,9,99,9,99,9","09980,1,99999,9",,"MET080METAR ENFB 031950Z AUTO 20024KT 9999NDV BKN036/// BKN070/// 05/M03 Q0998 W///S5;",
"01488199999","2010-12-03T20:20:00","4","61.206389","1.828889","142.0","STATFJORD B OIL PLATFORM, NO","FM-15","ENFB ","V020","200,1,N,0123,1","01140,1,9,N","011265,1,N,1","+0050,1","-0030,1","99999,9",,,"08,1,+01140,1,99,9",,,"08,99,1,99,9,99,9,99999,9,99,9,99,9","09980,1,99999,9",,"MET070METAR ENFB 032020Z AUTO 20024KT 9999NDV OVC038/// 05/M03 Q0998 W///S5;",
"01488199999","2010-12-03T20:50:00","4","61.206389","1.828889","142.0","STATFJORD B OIL PLATFORM, NO","FM-15","ENFB ","V020","190,1,N,0108,1","01140,1,9,N","011265,1,N,1","+0050,1","-0020,1","99999,9",,,"07,1,+01140,1,99,9","07,1,+01800,1,99,9",,"07,99,1,99,9,99,9,99999,9,99,9,99,9","09980,1,99999,9",,"MET080METAR ENFB 032050Z AUTO 19021KT 9999NDV BKN038/// BKN066/// 05/M02 Q0998 W///S5;",
"01488199999","2010-12-03T21:20:00","4","61.206389","1.828889","142.0","STATFJORD B OIL PLATFORM, NO","FM-15","ENFB ","V020","190,1,N,0108,1","01050,1,9,N","011265,1,N,1","+0050,1","-0020,1","99999,9",,,"08,1,+01050,1,99,9",,,"08,99,1,99,9,99,9,99999,9,99,9,99,9","09980,1,99999,9",,"MET070METAR ENFB 032120Z AUTO 19021KT 9999NDV OVC035/// 05/M02 Q0998 W///S5;",
"01488199999","2010-12-03T21:50:00","4","61.206389","1.828889","142.0","STATFJORD B OIL PLATFORM, NO","FM-15","ENFB ","V020","190,1,N,0123,1","00960,1,9,N","011265,1,N,1","+0050,1","-0010,1","99999,9",,,"07,1,+00960,1,99,9","07,1,+01800,1,99,9",,"07,99,1,99,9,99,9,99999,9,99,9,99,9","09980,1,99999,9",,"MET080METAR ENFB 032150Z AUTO 19024KT 9999NDV BKN032/// BKN068/// 05/M01 Q0998 W///S5;",
"01488199999","2010-12-03T22:20:00","4","61.206389","1.828889","142.0","STATFJORD B OIL PLATFORM, NO","FM-15","ENFB ","V020","190,1,N,0103,1","00870,1,9,N","011265,1,N,1","+0050,1","-0010,1","99999,9",,,"02,1,+00750,1,99,9","07,1,+00870,1,99,9","07,1,+02100,1,99,9","07,99,1,99,9,99,9,99999,9,99,9,99,9","09980,1,99999,9",,"MET090METAR ENFB 032220Z AUTO 19020KT 9999NDV FEW025/// BKN029/// BKN070/// 05/M01 Q0998 W///S4;",
"01488199999","2010-12-03T22:50:00","4","61.206389","1.828889","142.0","STATFJORD B OIL PLATFORM, NO","FM-15","ENFB ","V020","190,1,N,0103,1","00900,1,9,N","011265,1,N,1","+0050,1","-0010,1","99999,9",,,"07,1,+00900,1,99,9","07,1,+02100,1,99,9",,"07,99,1,99,9,99,9,99999,9,99,9,99,9","09980,1,99999,9",,"MET080METAR ENFB 032250Z AUTO 19020KT 9999NDV BKN030/// BKN071/// 05/M01 Q0998 W///S5;",
"01488199999","2010-12-03T23:20:00","4","61.206389","1.828889","142.0","STATFJORD B OIL PLATFORM, NO","FM-15","ENFB ","V020","200,1,N,0103,1","01050,1,9,N","011265,1,N,1","+0050,1","-0010,1","99999,9",,,"07,1,+01050,1,99,9",,,"07,99,1,99,9,99,9,99999,9,99,9,99,9","09980,1,99999,9",,"MET070METAR ENFB 032320Z AUTO 20020KT 9999NDV BKN035/// 05/M01 Q0998 W///S4;",
"01488199999","2010-12-03T23:50:00","4","61.206389","1.828889","142.0","STATFJORD B OIL PLATFORM, NO","FM-15","ENFB ","V020","170,1,N,0118,1","00810,1,9,N","011265,1,N,1","+0050,1","+0000,1","99999,9",,,"07,1,+00810,1,99,9",,,"07,99,1,99,9,99,9,99999,9,99,9,99,9","09980,1,99999,9",,"MET069METAR ENFB 032350Z AUTO 17023KT 9999NDV BKN027/// 05/00 Q0998 W///S4;",
"01488199999","2010-12-04T00:20:00","4","61.206389","1.828889","142.0","STATFJORD B OIL PLATFORM, NO","FM-15","ENFB ","V020","170,1,N,0113,1","00810,1,9,N","011265,1,N,1","+0050,1","+0010,1","99999,9","81,1",,"08,1,+00810,1,99,9",,,"08,99,1,99,9,99,9,99999,9,99,9,99,9","09980,1,99999,9",,"MET075METAR ENFB 040020Z AUTO 17022KT 9999NDV -SHRA OVC027/// 05/01 Q0998 W///S4;",
"01488199999","2010-12-04T00:50:00","4","61.206389","1.828889","142.0","STATFJORD B OIL PLATFORM, NO","FM-15","ENFB ","V020","210,1,N,0113,1","00660,1,9,N","011265,1,N,1","+0040,1","+0010,1","99999,9","81,1",,"08,1,+00660,1,99,9",,,"08,99,1,99,9,99,9,99999,9,99,9,99,9","09980,1,99999,9",,"MET075METAR ENFB 040050Z AUTO 21022KT 9999NDV -SHRA OVC022/// 04/01 Q0998 W///S4;",
"01488199999","2010-12-04T01:20:00","4","61.206389","1.828889","142.0","STATFJORD B OIL PLATFORM, NO","FM-15","ENFB ","V020","200,1,N,0113,1","00630,1,9,N","011265,1,N,1","+0040,1","+0010,1","99999,9",,,"02,1,+00570,1,99,9","08,1,+00630,1,99,9",,"08,99,1,99,9,99,9,99999,9,99,9,99,9","09970,1,99999,9",,"MET079METAR ENFB 040120Z AUTO 20022KT 9999NDV FEW019/// OVC021/// 04/01 Q0997 W///S4;",
"01488199999","2010-12-04T01:50:00","4","61.206389","1.828889","142.0","STATFJORD B OIL PLATFORM, NO","FM-15","ENFB ","V020","190,1,N,0103,1","00870,1,9,N","011265,1,N,1","+0050,1","+0010,1","99999,9","81,1",,"04,1,+00690,1,99,9","08,1,+00870,1,99,9",,"08,99,1,99,9,99,9,99999,9,99,9,99,9","09970,1,99999,9",,"MET085METAR ENFB 040150Z AUTO 19020KT 9999NDV -SHRA SCT023/// OVC029/// 05/01 Q0997 W///S4;",
"01488199999","2010-12-04T02:20:00","4","61.206389","1.828889","142.0","STATFJORD B OIL PLATFORM, NO","FM-15","ENFB ","V020","190,1,N,0113,1","00720,1,9,N","011265,1,N,1","+0050,1","+0010,1","99999,9",,,"02,1,+00600,1,99,9","07,1,+00720,1,99,9","07,1,+01800,1,99,9","07,99,1,99,9,99,9,99999,9,99,9,99,9","09970,1,99999,9",,"MET089METAR ENFB 040220Z AUTO 19022KT 9999NDV FEW020/// BKN024/// BKN063/// 05/01 Q0997 W///S4;",
"01488199999","2010-12-04T02:50:00","4","61.206389","1.828889","142.0","STATFJORD B OIL PLATFORM, NO","FM-15","ENFB ","V020","210,1,N,0098,1","00540,1,9,N","011265,1,N,1","+0050,1","+0010,1","99999,9",,,"07,1,+00540,1,99,9","07,1,+01800,1,99,9","07,1,+02400,1,99,9","07,99,1,99,9,99,9,99999,9,99,9,99,9","09970,1,99999,9",,"MET089METAR ENFB 040250Z AUTO 21019KT 9999NDV BKN018/// BKN068/// BKN081/// 05/01 Q0997 W///S4;",
"01488199999","2010-12-04T03:20:00","4","61.206389","1.828889","142.0","STATFJORD B OIL PLATFORM, NO","FM-15","ENFB ","V020","210,1,N,0087,1","02100,1,9,N","011265,1,N,1","+0040,1","+0010,1","99999,9",,,"02,1,+00570,1,99,9","07,1,+02100,1,99,9","07,1,+02700,1,99,9","07,99,1,99,9,99,9,99999,9,99,9,99,9","09970,1,99999,9",,"MET089METAR ENFB 040320Z AUTO 21017KT 9999NDV FEW019/// BKN079/// BKN098/// 04/01 Q0997 W///S4;",
"01488199999","2010-12-04T03:50:00","4","61.206389","1.828889","142.0","STATFJORD B OIL PLATFORM, NO","FM-15","ENFB ","V020","200,1,N,0087,1","01320,1,9,N","011265,1,N,1","+0050,1","+0010,1","99999,9",,,"04,1,+00810,1,99,9","07,1,+01320,1,99,9","07,1,+02100,1,99,9","07,99,1,99,9,99,9,99999,9,99,9,99,9","09970,1,99999,9",,"MET089METAR ENFB 040350Z AUTO 20017KT 9999NDV SCT027/// BKN044/// BKN076/// 05/01 Q0997 W///S4;",
"01488199999","2010-12-04T04:20:00","4","61.206389","1.828889","142.0","STATFJORD B OIL PLATFORM, NO","FM-15","ENFB ","V020","200,1,N,0098,1","00780,1,9,N","011265,1,N,1","+0050,1","+0010,1","99999,9",,,"07,1,+00780,1,99,9","07,1,+01080,1,99,9",,"07,99,1,99,9,99,9,99999,9,99,9,99,9","09970,1,99999,9",,"MET079METAR ENFB 040420Z AUTO 20019KT 9999NDV BKN026/// BKN036/// 05/01 Q0997 W///S4;",
"01488199999","2010-12-04T04:50:00","4","61.206389","1.828889","142.0","STATFJORD B OIL PLATFORM, NO","FM-15","ENFB ","V020","220,1,N,0072,1","00600,1,9,N","011265,1,N,1","+0050,1","+0010,1","99999,9","61,1",,"08,1,+00600,1,99,9",,,"08,99,1,99,9,99,9,99999,9,99,9,99,9","09970,1,99999,9",,"MET073METAR ENFB 040450Z AUTO 22014KT 9999NDV -RA OVC020/// 05/01 Q0997 W///S4;",
"01488199999","2010-12-04T05:20:00","4","61.206389","1.828889","142.0","STATFJORD B OIL PLATFORM, NO","FM-15","ENFB ","V020","210,1,N,0077,1","00630,1,9,N","011265,1,N,1","+0040,1","+0010,1","99999,9","81,1",,"08,1,+00630,1,99,9",,,"08,99,1,99,9,99,9,99999,9,99,9,99,9","09970,1,99999,9",,"MET075METAR ENFB 040520Z AUTO 21015KT 9999NDV -SHRA OVC021/// 04/01 Q0997 W///S4;",
"01488199999","2010-12-04T05:50:00","4","61.206389","1.828889","142.0","STATFJORD B OIL PLATFORM, NO","FM-15","ENFB ","V020","210,1,N,0072,1","01800,1,9,N","011265,1,N,1","+0050,1","+0010,1","99999,9","81,1",,"02,1,+00600,1,99,9","07,1,+01800,1,99,9",,"07,99,1,99,9,99,9,99999,9,99,9,99,9","09970,1,99999,9",,"MET085METAR ENFB 040550Z AUTO 21014KT 9999NDV -SHRA FEW020/// BKN061/// 05/01 Q0997 W///S4;",
"01488199999","2010-12-04T06:20:00","4","61.206389","1.828889","142.0","STATFJORD B OIL PLATFORM, NO","FM-15","ENFB ","V020","210,1,N,0067,1","02100,1,9,N","011265,1,N,1","+0050,1","+0000,1","99999,9",,,"02,1,+01500,1,99,9","07,1,+02100,1,99,9",,"07,99,1,99,9,99,9,99999,9,99,9,99,9","09970,1,99999,9",,"MET079METAR ENFB 040620Z AUTO 21013KT 9999NDV FEW054/// BKN070/// 05/00 Q0997 W///S4;",
"01488199999","2010-12-04T06:50:00","4","61.206389","1.828889","142.0","STATFJORD B OIL PLATFORM, NO","FM-15","ENFB ","V020","210,1,N,0057,1","01500,1,9,N","011265,1,N,1","+0050,1","+0000,1","99999,9",,,"02,1,+00720,1,99,9","07,1,+01500,1,99,9",,"07,99,1,99,9,99,9,99999,9,99,9,99,9","09980,1,99999,9",,"MET079METAR ENFB 040650Z AUTO 21011KT 9999NDV FEW024/// BKN057/// 05/00 Q0998 W///S4;",
"01488199999","2010-12-04T07:20:00","4","61.206389","1.828889","142.0","STATFJORD B OIL PLATFORM, NO","FM-15","ENFB ","V020","210,1,N,0082,1","01500,1,9,N","011265,1,N,1","+0050,1","+0010,1","99999,9",,,"02,1,+00690,1,99,9","07,1,+01500,1,99,9",,"07,99,1,99,9,99,9,99999,9,99,9,99,9","09970,1,99999,9",,"MET079METAR ENFB 040720Z AUTO 21016KT 9999NDV FEW023/// BKN059/// 05/01 Q0997 W///S4;",
"01488199999","2010-12-04T07:50:00","4","61.206389","1.828889","142.0","STATFJORD B OIL PLATFORM, NO","FM-15","ENFB ","V020","200,1,N,0082,1","01800,1,9,N","011265,1,N,1","+0050,1","+0010,1","99999,9",,,"02,1,+00570,1,99,9","07,1,+01800,1,99,9",,"07,99,1,99,9,99,9,99999,9,99,9,99,9","09980,1,99999,9",,"MET079METAR ENFB 040750Z AUTO 20016KT 9999NDV FEW019/// BKN064/// 05/01 Q0998 W///S4;",
"01488199999","2010-12-04T08:20:00","4","61.206389","1.828889","142.0","STATFJORD B OIL PLATFORM, NO","FM-15","ENFB ","V020","220,1,N,0082,1","00540,1,9,N","011265,1,N,1","+0050,1","+0010,1","99999,9","81,1",,"08,1,+00540,1,99,9",,,"08,99,1,99,9,99,9,99999,9,99,9,99,9","09980,1,99999,9",,"MET075METAR ENFB 040820Z AUTO 22016KT 9999NDV -SHRA OVC018/// 05/01 Q0998 W///S4;",
"01488199999","2010-12-04T08:50:00","4","61.206389","1.828889","142.0","STATFJORD B OIL PLATFORM, NO","FM-15","ENFB ","V020","210,1,N,0077,1","00810,1,9,N","011265,1,N,1","+0050,1","+0010,1","99999,9",,,"07,1,+00810,1,99,9","07,1,+01800,1,99,9",,"07,99,1,99,9,99,9,99999,9,99,9,99,9","09980,1,99999,9",,"MET079METAR ENFB 040850Z AUTO 21015KT 9999NDV BKN027/// BKN061/// 05/01 Q0998 W///S4;",
"01488199999","2010-12-04T09:20:00","4","61.206389","1.828889","142.0","STATFJORD B OIL PLATFORM, NO","FM-15","ENFB ","V020","220,1,N,0082,1","00510,1,9,N","011265,1,N,1","+0050,1","+0010,1","99999,9",,,"07,1,+00510,1,99,9","07,1,+01800,1,99,9",,"07,99,1,99,9,99,9,99999,9,99,9,99,9","09980,1,99999,9",,"MET079METAR ENFB 040920Z AUTO 22016KT 9999NDV BKN017/// BKN062/// 05/01 Q0998 W///S4;",
"01488199999","2010-12-04T09:50:00","4","61.206389","1.828889","142.0","STATFJORD B OIL PLATFORM, NO","FM-15","ENFB ","V020","220,1,N,0093,1","00570,1,9,N","011265,1,N,1","+0050,1","+0010,1","99999,9","52,1",,"07,1,+00570,1,99,9",,,"07,99,1,99,9,99,9,99999,9,99,9,99,9","09980,1,99999,9",,"MET072METAR ENFB 040950Z AUTO 22018KT 9999NDV DZ BKN019/// 05/01 Q0998 W///S4;",
"01488199999","2010-12-04T10:20:00","4","61.206389","1.828889","142.0","STATFJORD B OIL PLATFORM, NO","FM-15","ENFB ","V020","250,1,N,0087,1","00390,1,9,N","011265,1,N,1","+0040,1","+0010,1","99999,9","81,1",,"07,1,+00390,1,99,9","07,1,+02400,1,99,9",,"07,99,1,99,9,99,9,99999,9,99,9,99,9","09980,1,99999,9",,"MET085METAR ENFB 041020Z AUTO 25017KT 9999NDV -SHRA BKN013/// BKN080/// 04/01 Q0998 W///S4;",
"01488199999","2010-12-04T10:50:00","4","61.206389","1.828889","142.0","STATFJORD B OIL PLATFORM, NO","FM-15","ENFB ","V020","250,1,N,0103,1","00570,1,9,N","011265,1,N,1","+0040,1","+0010,1","99999,9",,,"07,1,+00570,1,99,9",,,"07,99,1,99,9,99,9,99999,9,99,9,99,9","09980,1,99999,9",,"MET069METAR ENFB 041050Z AUTO 25020KT 9999NDV BKN019/// 04/01 Q0998 W///S4;",
"01488199999","2010-12-04T11:20:00","4","61.206389","1.828889","142.0","STATFJORD B OIL PLATFORM, NO","FM-15","ENFB ","V020","220,1,N,0093,1","00660,1,9,N","011265,1,N,1","+0030,1","+0010,1","99999,9","81,1",,"07,1,+00660,1,99,9","07,1,+01800,1,99,9",,"07,99,1,99,9,99,9,99999,9,99,9,99,9","09980,1,99999,9",,"MET085METAR ENFB 041120Z AUTO 22018KT 9999NDV -SHRA BKN022/// BKN066/// 03/01 Q0998 W///S4;",
"01488199999","2010-12-04T11:50:00","4","61.206389","1.828889","142.0","STATFJORD B OIL PLATFORM, NO","FM-15","ENFB ","V020","220,1,N,0082,1","00450,1,9,N","011265,1,N,1","+0040,1","+0020,1","99999,9","61,1",,"07,1,+00450,1,99,9","08,1,+01500,1,99,9",,"08,99,1,99,9,99,9,99999,9,99,9,99,9","09980,1,99999,9",,"MET083METAR ENFB 041150Z AUTO 22016KT 9999NDV -RA BKN015/// OVC051/// 04/02 Q0998 W///S4;",
"01488199999","2010-12-04T12:20:00","4","61.206389","1.828889","142.0","STATFJORD B OIL PLATFORM, NO","FM-15","ENFB ","V020","020,1,N,0036,1","00420,1,9,N","011265,1,N,1","+0040,1","+0020,1","99999,9",,,"08,1,+00420,1,99,9",,,"08,99,1,99,9,99,9,99999,9,99,9,99,9","09980,1,99999,9",,"MET077METAR ENFB 041220Z AUTO 02007KT 350V050 9999NDV OVC014/// 04/02 Q0998 W///S4;",
"01488199999","2010-12-04T12:50:00","4","61.206389","1.828889","142.0","STATFJORD B OIL PLATFORM, NO","FM-15","ENFB ","V020","060,1,N,0046,1","01020,1,9,N","011265,1,N,1","+0040,1","+0020,1","99999,9",,,"08,1,+01020,1,99,9",,,"08,99,1,99,9,99,9,99999,9,99,9,99,9","09980,1,99999,9",,"MET069METAR ENFB 041250Z AUTO 06009KT 9999NDV OVC034/// 04/02 Q0998 W///S4;",
"01488199999","2010-12-04T13:20:00","4","61.206389","1.828889","142.0","STATFJORD B OIL PLATFORM, NO","FM-15","ENFB ","V020","070,1,N,0031,1","01110,1,9,N","011265,1,N,1","+0040,1","+0020,1","99999,9",,,"08,1,+01110,1,99,9",,,"08,99,1,99,9,99,9,99999,9,99,9,99,9","09980,1,99999,9",,"MET069METAR ENFB 041320Z AUTO 07006KT 9999NDV OVC037/// 04/02 Q0998 W///S4;",
"01488199999","2010-12-04T13:50:00","4","61.206389","1.828889","142.0","STATFJORD B OIL PLATFORM, NO","FM-15","ENFB ","V020","110,1,N,0021,1","00780,1,9,N","011265,1,N,1","+0040,1","+0020,1","99999,9","61,1",,"07,1,+00780,1,99,9","08,1,+01230,1,99,9",,"08,99,1,99,9,99,9,99999,9,99,9,99,9","09980,1,99999,9",,"MET083METAR ENFB 041350Z AUTO 11004KT 9999NDV -RA BKN026/// OVC041/// 04/02 Q0998 W///S4;",
"01488199999","2010-12-04T14:20:00","4","61.206389","1.828889","142.0","STATFJORD B OIL PLATFORM, NO","FM-15","ENFB ","V020","120,1,N,0010,1","00660,1,9,N","011265,1,N,1","+0040,1","+0020,1","99999,9",,,"02,1,+00510,1,99,9","07,1,+00660,1,99,9",,"07,99,1,99,9,99,9,99999,9,99,9,99,9","09980,1,99999,9",,"MET079METAR ENFB 041420Z AUTO 12002KT 9999NDV FEW017/// BKN022/// 04/02 Q0998 W///S4;",
"01488199999","2010-12-04T14:50:00","4","61.206389","1.828889","142.0","STATFJORD B OIL PLATFORM, NO","FM-15","ENFB ","V020","999,9,V,0021,1","01470,1,9,N","011265,1,N,1","+0040,1","+0020,1","99999,9",,,"02,1,+00420,1,99,9","07,1,+01470,1,99,9",,"07,99,1,99,9,99,9,99999,9,99,9,99,9","09980,1,99999,9",,"MET079METAR ENFB 041450Z AUTO VRB04KT 9999NDV FEW014/// BKN049/// 04/02 Q0998 W///S4;",
"01488199999","2010-12-04T15:20:00","4","61.206389","1.828889","142.0","STATFJORD B OIL PLATFORM, NO","FM-15","ENFB ","V020","210,1,N,0010,1","00480,1,9,N","011265,1,N,1","+0040,1","+0010,1","99999,9",,,"07,1,+00480,1,99,9","07,1,+01500,1,99,9",,"07,99,1,99,9,99,9,99999,9,99,9,99,9","09980,1,99999,9",,"MET079METAR ENFB 041520Z AUTO 21002KT 9999NDV BKN016/// BKN057/// 04/01 Q0998 W///S4;",
"01488199999","2010-12-04T15:50:00","4","61.206389","1.828889","142.0","STATFJORD B OIL PLATFORM, NO","FM-15","ENFB ","V020","230,1,N,0041,1","01050,1,9,N","011265,1,N,1","+0040,1","+0010,1","99999,9","81,1",,"02,1,+00480,1,99,9","07,1,+01050,1,99,9","07,1,+01800,1,99,9","07,99,1,99,9,99,9,99999,9,99,9,99,9","09980,1,99999,9",,"MET095METAR ENFB 041550Z AUTO 23008KT 9999NDV -SHRA FEW016/// BKN035/// BKN060/// 04/01 Q0998 W///S4;",
"01488199999","2010-12-04T16:20:00","4","61.206389","1.828889","142.0","STATFJORD B OIL PLATFORM, NO","FM-15","ENFB ","V020","260,1,N,0015,1","01800,1,9,N","011265,1,N,1","+0040,1","+0010,1","99999,9",,,"02,1,+00870,1,99,9","08,1,+01800,1,99,9",,"08,99,1,99,9,99,9,99999,9,99,9,99,9","09970,1,99999,9",,"MET087METAR ENFB 041620Z AUTO 26003KT 230V290 9999NDV FEW029/// OVC064/// 04/01 Q0997 W///S4;",
"01488199999","2010-12-04T16:50:00","4","61.206389","1.828889","142.0","STATFJORD B OIL PLATFORM, NO","FM-15","ENFB ","V020","999,9,V,0010,1","01800,1,9,N","011265,1,N,1","+0040,1","+0010,1","99999,9",,,"08,1,+01800,1,99,9",,,"08,99,1,99,9,99,9,99999,9,99,9,99,9","09970,1,99999,9",,"MET069METAR ENFB 041650Z AUTO VRB02KT 9999NDV OVC065/// 04/01 Q0997 W///S4;",
"01488199999","2010-12-04T17:20:00","4","61.206389","1.828889","142.0","STATFJORD B OIL PLATFORM, NO","FM-15","ENFB ","V020","280,1,N,0021,1","01800,1,9,N","011265,1,N,1","+0040,1","+0010,1","99999,9",,,"07,1,+01800,1,99,9",,,"07,99,1,99,9,99,9,99999,9,99,9,99,9","09970,1,99999,9",,"MET069METAR ENFB 041720Z AUTO 28004KT 9999NDV BKN069/// 04/01 Q0997 W///S4;",
"01488199999","2010-12-04T17:50:00","4","61.206389","1.828889","142.0","STATFJORD B OIL PLATFORM, NO","FM-15","ENFB ","V020","330,1,N,0057,1","00750,1,9,N","011265,1,N,1","+0050,1","+0010,1","99999,9",,,"07,1,+00750,1,99,9","07,1,+02100,1,99,9",,"07,99,1,99,9,99,9,99999,9,99,9,99,9","09970,1,99999,9",,"MET079METAR ENFB 041750Z AUTO 33011KT 9999NDV BKN025/// BKN078/// 05/01 Q0997 W///S4;",
"01488199999","2010-12-04T18:20:00","4","61.206389","1.828889","142.0","STATFJORD B OIL PLATFORM, NO","FM-15","ENFB ","V020","330,1,N,0082,1","22000,1,9,N","011265,1,N,1","+0040,1","+0000,1","99999,9",,,"02,1,+00840,1,99,9","04,1,+02100,1,99,9",,"04,99,1,99,9,99,9,99999,9,99,9,99,9","09970,1,99999,9",,"MET079METAR ENFB 041820Z AUTO 33016KT 9999NDV FEW028/// SCT078/// 04/00 Q0997 W///S4;",
"01488199999","2010-12-04T18:50:00","4","61.206389","1.828889","142.0","STATFJORD B OIL PLATFORM, NO","FM-15","ENFB ","V020","320,1,N,0067,1","03600,1,9,N","011265,1,N,1","+0040,1","+0000,1","99999,9",,,"02,1,+01020,1,99,9","07,1,+03600,1,99,9",,"07,99,1,99,9,99,9,99999,9,99,9,99,9","09970,1,99999,9",,"MET079METAR ENFB 041850Z AUTO 32013KT 9999NDV FEW034/// BKN120/// 04/00 Q0997 W///S4;",
"01488199999","2010-12-04T19:20:00","4","61.206389","1.828889","142.0","STATFJORD B OIL PLATFORM, NO","FM-15","ENFB ","V020","320,1,N,0072,1","00810,1,9,N","011265,1,N,1","+0040,1","+0000,1","99999,9",,,"07,1,+00810,1,99,9","07,1,+03600,1,99,9",,"07,99,1,99,9,99,9,99999,9,99,9,99,9","09970,1,99999,9",,"MET079METAR ENFB 041920Z AUTO 32014KT 9999NDV BKN027/// BKN120/// 04/00 Q0997 W///S4;",
"01488199999","2010-12-04T19:50:00","4","61.206389","1.828889","142.0","STATFJORD B OIL PLATFORM, NO","FM-15","ENFB ","V020","330,1,N,0067,1","22000,1,9,N","011265,1,N,1","+0040,1","-0010,1","99999,9",,,"02,1,+00780,1,99,9",,,"02,99,1,99,9,99,9,99999,9,99,9,99,9","09970,1,99999,9",,"MET070METAR ENFB 041950Z AUTO 33013KT 9999NDV FEW026/// 04/M01 Q0997 W///S4;",
"01488199999","2010-12-04T20:20:00","4","61.206389","1.828889","142.0","STATFJORD B OIL PLATFORM, NO","FM-15","ENFB ","V020","340,1,N,0077,1","00630,1,9,N","011265,1,N,1","+0040,1","+0000,1","99999,9","61,1",,"02,1,+00480,1,99,9","07,1,+00630,1,99,9",,"07,99,1,99,9,99,9,99999,9,99,9,99,9","09970,1,99999,9",,"MET083METAR ENFB 042020Z AUTO 34015KT 9999NDV -RA FEW016/// BKN021/// 04/00 Q0997 W///S4;",
"01488199999","2010-12-04T20:50:00","4","61.206389","1.828889","142.0","STATFJORD B OIL PLATFORM, NO","FM-15","ENFB ","V020","350,1,N,0113,1","22000,1,9,N","011265,1,N,1","+0020,1","+0000,1","99999,9","81,1",,"02,1,+00300,1,99,9","04,1,+00390,1,99,9",,"04,99,1,99,9,99,9,99999,9,99,9,99,9","09970,1,99999,9",,"MET085METAR ENFB 042050Z AUTO 35022KT 9999NDV -SHRA FEW010/// SCT013/// 02/00 Q0997 W///S4;",
"01488199999","2010-12-04T21:20:00","4","61.206389","1.828889","142.0","STATFJORD B OIL PLATFORM, NO","FM-15","ENFB ","V020","350,1,N,0108,1","00360,1,9,N","011265,1,N,1","+0030,1","+0000,1","99999,9",,,"07,1,+00360,1,99,9",,,"07,99,1,99,9,99,9,99999,9,99,9,99,9","09970,1,99999,9",,"MET069METAR ENFB 042120Z AUTO 35021KT 9999NDV BKN012/// 03/00 Q0997 W///S4;",
"01488199999","2010-12-04T21:50:00","4","61.206389","1.828889","142.0","STATFJORD B OIL PLATFORM, NO","FM-15","ENFB ","V020","340,1,N,0139,1","00330,1,9,N","009000,1,N,1","+0020,1","+0000,1","99999,9","81,1",,"08,1,+00330,1,99,9",,,"08,99,1,99,9,99,9,99999,9,99,9,99,9","09970,1,99999,9",,"MET075METAR ENFB 042150Z AUTO 34027KT 9000NDV -SHRA OVC011/// 02/00 Q0997 W///S5;",
"01488199999","2010-12-04T22:20:00","4","61.206389","1.828889","142.0","STATFJORD B OIL PLATFORM, NO","FM-15","ENFB ","V020","350,1,N,0108,1","00360,1,9,N","011265,1,N,1","+0020,1","+0000,1","99999,9","81,1",,"08,1,+00360,1,99,9",,,"08,99,1,99,9,99,9,99999,9,99,9,99,9","09970,1,99999,9",,"MET075METAR ENFB 042220Z AUTO 35021KT 9999NDV -SHRA OVC012/// 02/00 Q0997 W///S5;",
"01488199999","2010-12-04T22:50:00","4","61.206389","1.828889","142.0","STATFJORD B OIL PLATFORM, NO","FM-15","ENFB ","V020","360,1,N,0103,1","00780,1,9,N","011265,1,N,1","+0020,1","+9999,9","99999,9","81,1",,"02,1,+00630,1,99,9","07,1,+00780,1,99,9","07,1,+01800,1,99,9","07,99,1,99,9,99,9,99999,9,99,9,99,9","09970,1,99999,9",,"MET095METAR ENFB 042250Z AUTO 36020KT 9999NDV -SHRA FEW021/// BKN026/// BKN060/// 02/// Q0997 W///S5;",
"01488199999","2010-12-04T23:20:00","4","61.206389","1.828889","142.0","STATFJORD B OIL PLATFORM, NO","FM-15","ENFB ","V020","340,1,N,0139,1","00840,1,9,N","011265,1,N,1","+0020,1","+9999,9","99999,9","81,1",,"08,1,+00840,1,99,9",,,"08,99,1,99,9,99,9,99999,9,99,9,99,9","09970,1,99999,9",,"MET075METAR ENFB 042320Z AUTO 34027KT 9999NDV -SHRA OVC028/// 02/// Q0997 W///S5;",
"01488199999","2010-12-04T23:50:00","4","61.206389","1.828889","142.0","STATFJORD B OIL PLATFORM, NO","FM-15","ENFB ","V020","360,1,N,0103,1","01230,1,9,N","011265,1,N,1","+0020,1","+9999,9","99999,9",,,"02,1,+00750,1,99,9","07,1,+01230,1,99,9","07,1,+02400,1,99,9","07,99,1,99,9,99,9,99999,9,99,9,99,9","09970,1,99999,9",,"MET089METAR ENFB 042350Z AUTO 36020KT 9999NDV FEW025/// BKN041/// BKN083/// 02/// Q0997 W///S5;",
"01488199999","2010-12-05T00:20:00","4","61.206389","1.828889","142.0","STATFJORD B OIL PLATFORM, NO","FM-15","ENFB ","V020","330,1,N,0134,1","00750,1,9,N","011265,1,N,1","+0020,1","+9999,9","99999,9","81,1",,"07,1,+00750,1,99,9","07,1,+01500,1,99,9",,"07,99,1,99,9,99,9,99999,9,99,9,99,9","09970,1,99999,9",,"MET085METAR ENFB 050020Z AUTO 33026KT 9999NDV -SHRA BKN025/// BKN053/// 02/// Q0997 W///S5;",
"01488199999","2010-12-05T00:50:00","4","61.206389","1.828889","142.0","STATFJORD B OIL PLATFORM, NO","FM-15","ENFB ","V020","330,1,N,0098,1","01260,1,9,N","011265,1,N,1","+0020,1","+9999,9","99999,9",,,"02,1,+01080,1,99,9","07,1,+01260,1,99,9",,"07,99,1,99,9,99,9,99999,9,99,9,99,9","09970,1,99999,9",,"MET079METAR ENFB 050050Z AUTO 33019KT 9999NDV FEW036/// BKN042/// 02/// Q0997 W///S5;",
"01488199999","2010-12-05T01:20:00","4","61.206389","1.828889","142.0","STATFJORD B OIL PLATFORM, NO","FM-15","ENFB ","V020","330,1,N,0118,1","01110,1,9,N","011265,1,N,1","+0020,1","-0030,1","99999,9","81,1",,"07,1,+01110,1,99,9",,,"07,99,1,99,9,99,9,99999,9,99,9,99,9","09970,1,99999,9",,"MET076METAR ENFB 050120Z AUTO 33023KT 9999NDV -SHRA BKN037/// 02/M03 Q0997 W///S5;",
"01488199999","2010-12-05T01:50:00","4","61.206389","1.828889","142.0","STATFJORD B OIL PLATFORM, NO","FM-15","ENFB ","V020","340,1,N,0118,1","00750,1,9,N","011265,1,N,1","+0010,1","-0030,1","99999,9",,,"07,1,+00750,1,99,9",,,"07,99,1,99,9,99,9,99999,9,99,9,99,9","09970,1,99999,9",,"MET070METAR ENFB 050150Z AUTO 34023KT 9999NDV BKN025/// 01/M03 Q0997 W///S5;",
"01488199999","2010-12-05T02:20:00","4","61.206389","1.828889","142.0","STATFJORD B OIL PLATFORM, NO","FM-15","ENFB ","V020","340,1,N,0098,1","04500,1,9,N","011265,1,N,1","+0020,1","-0060,1","99999,9",,,"02,1,+01800,1,99,9","07,1,+04500,1,99,9",,"07,99,1,99,9,99,9,99999,9,99,9,99,9","09970,1,99999,9",,"MET080METAR ENFB 050220Z AUTO 34019KT 9999NDV FEW060/// BKN150/// 02/M06 Q0997 W///S5;",
"01488199999","2010-12-05T02:50:00","4","61.206389","1.828889","142.0","STATFJORD B OIL PLATFORM, NO","FM-15","ENFB ","V020","340,1,N,0087,1","01500,1,C,N","011265,1,N,1","+0020,1","-0050,1","99999,9",,,"02,1,+01200,1,99,9","04,1,+01500,1,99,9","07,1,+04500,1,99,9","07,99,1,99,9,99,9,99999,9,99,9,99,9","09970,1,99999,9",,"MET090METAR ENFB 050250Z AUTO 34017KT 9999NDV FEW040/// SCT054/// BKN150/// 02/M05 Q0997 W///S5;",
"01488199999","2010-12-05T03:20:00","4","61.206389","1.828889","142.0","STATFJORD B OIL PLATFORM, NO","FM-15","ENFB ","V020","330,1,N,0108,1","01140,1,9,N","011265,1,N,1","+0020,1","-0040,1","99999,9",,,"07,1,+01140,1,99,9",,,"07,99,1,99,9,99,9,99999,9,99,9,99,9","09959,1,99999,9",,"MET070METAR ENFB 050320Z AUTO 33021KT 9999NDV BKN038/// 02/M04 Q0996 W///S5;",
"01488199999","2010-12-05T03:50:00","4","61.206389","1.828889","142.0","STATFJORD B OIL PLATFORM, NO","FM-15","ENFB ","V020","320,1,N,0108,1","22000,1,9,N","011265,1,N,1","+0020,1","-0040,1","99999,9",,,"02,1,+00990,1,99,9",,,"02,99,1,99,9,99,9,99999,9,99,9,99,9","09959,1,99999,9",,"MET070METAR ENFB 050350Z AUTO 32021KT 9999NDV FEW033/// 02/M04 Q0996 W///S5;",
"01488199999","2010-12-05T04:20:00","4","61.206389","1.828889","142.0","STATFJORD B OIL PLATFORM, NO","FM-15","ENFB ","V020","330,1,N,0098,1","22000,1,9,N","011265,1,N,1","+0010,1","-0060,1","99999,9",,,"02,1,+06000,1,99,9",,,"02,99,1,99,9,99,9,99999,9,99,9,99,9","09959,1,99999,9",,"MET070METAR ENFB 050420Z AUTO 33019KT 9999NDV FEW200/// 01/M06 Q0996 W///S5;",
"01488199999","2010-12-05T04:50:00","4","61.206389","1.828889","142.0","STATFJORD B OIL PLATFORM, NO","FM-15","ENFB ","V020","310,1,N,0093,1","22000,1,9,N","011265,1,N,1","+0020,1","-0070,1","99999,9",,,"02,1,+01440,1,99,9",,,"02,99,1,99,9,99,9,99999,9,99,9,99,9","09970,1,99999,9",,"MET070METAR ENFB 050450Z AUTO 31018KT 9999NDV FEW048/// 02/M07 Q0997 W///S5;",
"01488199999","2010-12-05T05:20:00","4","61.206389","1.828889","142.0","STATFJORD B OIL PLATFORM, NO","FM-15","ENFB ","V020","310,1,N,0057,1","01500,1,9,N","011265,1,N,1","+0020,1","-0050,1","99999,9",,,"02,1,+01140,1,99,9","07,1,+01500,1,99,9",,"07,99,1,99,9,99,9,99999,9,99,9,99,9","09959,1,99999,9",,"MET080METAR ENFB 050520Z AUTO 31011KT 9999NDV FEW038/// BKN059/// 02/M05 Q0996 W///S5;",
"01488199999","2010-12-05T05:50:00","4","61.206389","1.828889","142.0","STATFJORD B OIL PLATFORM, NO","FM-15","ENFB ","V020","330,1,N,0113,1","00840,1,9,N","011265,1,N,1","+0010,1","-0030,1","99999,9","61,1",,"07,1,+00840,1,99,9","07,1,+01800,1,99,9",,"07,99,1,99,9,99,9,99999,9,99,9,99,9","09959,1,99999,9",,"MET084METAR ENFB 050550Z AUTO 33022KT 9999NDV -RA BKN028/// BKN064/// 01/M03 Q0996 W///S5;",
"01488199999","2010-12-05T06:20:00","4","61.206389","1.828889","142.0","STATFJORD B OIL PLATFORM, NO","FM-15","ENFB ","V020","310,1,N,0062,1","22000,1,9,N","011265,1,N,1","+0020,1","-0040,1","99999,9",,,"02,1,+01800,1,99,9",,,"02,99,1,99,9,99,9,99999,9,99,9,99,9","09959,1,99999,9",,"MET070METAR ENFB 050620Z AUTO 31012KT 9999NDV FEW061/// 02/M04 Q0996 W///S5;",
"01488199999","2010-12-05T06:50:00","4","61.206389","1.828889","142.0","STATFJORD B OIL PLATFORM, NO","FM-15","ENFB ","V020","330,1,N,0046,1","01020,1,9,N","011265,1,N,1","+0010,1","-0030,1","99999,9","81,1",,"07,1,+01020,1,99,9","07,1,+01800,1,99,9",,"07,99,1,99,9,99,9,99999,9,99,9,99,9","09959,1,99999,9",,"MET086METAR ENFB 050650Z AUTO 33009KT 9999NDV -SHRA BKN034/// BKN069/// 01/M03 Q0996 W///S5;",
"01488199999","2010-12-05T07:20:00","4","61.206389","1.828889","142.0","STATFJORD B OIL PLATFORM, NO","FM-15","ENFB ","V020","320,1,N,0123,1","01410,1,9,N","011265,1,N,1","+0020,1","-0030,1","99999,9",,,"04,1,+00720,1,99,9","07,1,+01410,1,99,9",,"07,99,1,99,9,99,9,99999,9,99,9,99,9","09959,1,99999,9",,"MET080METAR ENFB 050720Z AUTO 32024KT 9999NDV SCT024/// BKN047/// 02/M03 Q0996 W///S5;",
"01488199999","2010-12-05T07:50:00","4","61.206389","1.828889","142.0","STATFJORD B OIL PLATFORM, NO","FM-15","ENFB ","V020","320,1,N,0087,1","22000,1,9,N","002800,1,N,1","+0000,1","-0030,1","99999,9","81,1",,"04,1,+00480,1,99,9",,,"04,99,1,99,9,99,9,99999,9,99,9,99,9","09959,1,99999,9",,"MET076METAR ENFB 050750Z AUTO 32017KT 2800NDV -SHRA SCT016/// 00/M03 Q0996 W///S5;",
"01488199999","2010-12-05T08:20:00","4","61.206389","1.828889","142.0","STATFJORD B OIL PLATFORM, NO","FM-15","ENFB ","V020","300,1,N,0051,1","00270,1,9,N","002700,1,N,1","+0010,1","-0010,1","99999,9","85,1",,"07,1,+00270,1,99,9",,,"07,99,1,99,9,99,9,99999,9,99,9,99,9","09959,1,99999,9",,"MET076METAR ENFB 050820Z AUTO 30010KT 2700NDV -SHSN BKN009/// 01/M01 Q0996 W///S5;",
"01488199999","2010-12-05T08:50:00","4","61.206389","1.828889","142.0","STATFJORD B OIL PLATFORM, NO","FM-15","ENFB ","V020","340,1,N,0113,1","00300,1,9,N","011265,1,N,1","+0000,1","-0020,1","99999,9","81,1",,"07,1,+00300,1,99,9","07,1,+01500,1,99,9",,"07,99,1,99,9,99,9,99999,9,99,9,99,9","09959,1,99999,9",,"MET086METAR ENFB 050850Z AUTO 34022KT 9999NDV -SHRA BKN010/// BKN055/// 00/M02 Q0996 W///S5;",
"01488199999","2010-12-05T09:20:00","4","61.206389","1.828889","142.0","STATFJORD B OIL PLATFORM, NO","FM-15","ENFB ","V020","320,1,N,0129,1","22000,1,9,N","002300,1,N,1","-0010,1","-0020,1","99999,9","10,1","71,1",,,,,"09960,1,99999,9",,"MET096METAR ENFB 050920Z AUTO 32025KT 2300NDV -SHFZRA -SN BR BKN009/// BKN034/// M01/M02 Q0996 W///S5;",
"01488199999","2010-12-05T09:50:00","4","61.206389","1.828889","142.0","STATFJORD B OIL PLATFORM, NO","FM-15","ENFB ","V020","360,1,N,0087,1","00360,1,9,N","011265,1,N,1","+0000,1","-0010,1","99999,9",,,"07,1,+00360,1,99,9",,,"07,99,1,99,9,99,9,99999,9,99,9,99,9","09959,1,99999,9",,"MET070METAR ENFB 050950Z AUTO 36017KT 9999NDV BKN012/// 00/M01 Q0996 W///S5;",
"01488199999","2010-12-05T10:20:00","4","61.206389","1.828889","142.0","STATFJORD B OIL PLATFORM, NO","FM-15","ENFB ","V020","350,1,N,0087,1","00810,1,9,N","011265,1,N,1","+0010,1","-0010,1","99999,9","81,1",,"07,1,+00810,1,99,9","07,1,+01500,1,99,9",,"07,99,1,99,9,99,9,99999,9,99,9,99,9","09959,1,99999,9",,"MET086METAR ENFB 051020Z AUTO 35017KT 9999NDV -SHRA BKN027/// BKN056/// 01/M01 Q0996 W///S5;",
"01488199999","2010-12-05T10:50:00","4","61.206389","1.828889","142.0","STATFJORD B OIL PLATFORM, NO","FM-15","ENFB ","V020","340,1,N,0098,1","01320,1,9,N","011265,1,N,1","+0010,1","-0030,1","99999,9",,,"04,1,+00480,1,99,9","07,1,+01320,1,99,9","07,1,+01500,1,99,9","07,99,1,99,9,99,9,99999,9,99,9,99,9","09949,1,99999,9",,"MET090METAR ENFB 051050Z AUTO 34019KT 9999NDV SCT016/// BKN044/// BKN058/// 01/M03 Q0995 W///S5;",
"01488199999","2010-12-05T11:20:00","4","61.206389","1.828889","142.0","STATFJORD B OIL PLATFORM, NO","FM-15","ENFB ","V020","320,1,N,0093,1","01020,1,9,N","011265,1,N,1","+0020,1","-0030,1","99999,9",,,"07,1,+01020,1,99,9",,,"07,99,1,99,9,99,9,99999,9,99,9,99,9","09949,1,99999,9",,"MET070METAR ENFB 051120Z AUTO 32018KT 9999NDV BKN034/// 02/M03 Q0995 W///S5;",
"01488199999","2010-12-05T11:50:00","4","61.206389","1.828889","142.0","STATFJORD B OIL PLATFORM, NO","FM-15","ENFB ","V020","300,1,N,0098,1","01320,1,9,N","011265,1,N,1","+0030,1","-0050,1","99999,9",,,"07,1,+01320,1,99,9",,,"07,99,1,99,9,99,9,99999,9,99,9,99,9","09949,1,99999,9",,"MET070METAR ENFB 051150Z AUTO 30019KT 9999NDV BKN044/// 03/M05 Q0995 W///S5;",
"01488199999","2010-12-05T12:20:00","4","61.206389","1.828889","142.0","STATFJORD B OIL PLATFORM, NO","FM-15","ENFB ","V020","310,1,N,0098,1","22000,1,9,N","011265,1,N,1","+0030,1","-0060,1","99999,9",,,"02,1,+01350,1,99,9",,,"02,99,1,99,9,99,9,99999,9,99,9,99,9","09949,1,99999,9",,"MET070METAR ENFB 051220Z AUTO 31019KT 9999NDV FEW045/// 03/M06 Q0995 W///S5;",
"01488199999","2010-12-05T12:50:00","4","61.206389","1.828889","142.0","STATFJORD B OIL PLATFORM, NO","FM-15","ENFB ","V020","310,1,N,0087,1","22000,1,9,N","011265,1,N,1","+0030,1","-0070,1","99999,9",,,"02,1,+01350,1,99,9",,,"02,99,1,99,9,99,9,99999,9,99,9,99,9","09949,1,99999,9",,"MET070METAR ENFB 051250Z AUTO 31017KT 9999NDV FEW045/// 03/M07 Q0995 W///S6;",
"01488199999","2010-12-05T13:20:00","4","61.206389","1.828889","142.0","STATFJORD B OIL PLATFORM, NO","FM-15","ENFB ","V020","290,1,N,0082,1","22000,1,9,N","011265,1,N,1","+0020,1","-0050,1","99999,9",,,"02,1,+00810,1,99,9","04,1,+01500,1,99,9",,"04,99,1,99,9,99,9,99999,9,99,9,99,9","09939,1,99999,9",,"MET080METAR ENFB 051320Z AUTO 29016KT 9999NDV FEW027/// SCT050/// 02/M05 Q0994 W///S6;",
"01488199999","2010-12-05T13:50:00","4","61.206389","1.828889","142.0","STATFJORD B OIL PLATFORM, NO","FM-15","ENFB ","V020","270,1,N,0062,1","22000,1,9,N","011265,1,N,1","+0030,1","-0050,1","99999,9",,,,,,"00,99,1,99,9,99,9,99999,9,99,9,99,9","09939,1,99999,9",,"MET064METAR ENFB 051350Z AUTO 27012KT 9999NDV NCD 03/M05 Q0994 W///S6;","Q01    003SCCGA1"
"01488199999","2010-12-05T14:20:00","4","61.206389","1.828889","142.0","STATFJORD B OIL PLATFORM, NO","FM-15","ENFB ","V020","260,1,N,0093,1","01500,1,9,N","003000,1,N,1","+0010,1","-0030,1","99999,9","61,1",,"02,1,+00480,1,99,9","07,1,+01500,1,99,9",,"07,99,1,99,9,99,9,99999,9,99,9,99,9","09939,1,99999,9",,"MET084METAR ENFB 051420Z AUTO 26018KT 3000NDV -RA FEW016/// BKN051/// 01/M03 Q0994 W///S6;",
"01488199999","2010-12-05T14:50:00","4","61.206389","1.828889","142.0","STATFJORD B OIL PLATFORM, NO","FM-15","ENFB ","V020","260,1,N,0129,1","00330,1,9,N","009000,1,N,1","+0010,1","-0020,1","99999,9","81,1",,"07,1,+00330,1,99,9","07,1,+00960,1,99,9",,"07,99,1,99,9,99,9,99999,9,99,9,99,9","09929,1,99999,9",,"MET086METAR ENFB 051450Z AUTO 26025KT 9000NDV -SHRA BKN011/// BKN032/// 01/M02 Q0993 W///S6;",
"01488199999","2010-12-05T15:20:00","4","61.206389","1.828889","142.0","STATFJORD B OIL PLATFORM, NO","FM-15","ENFB ","V020","190,1,N,0108,1","00240,1,9,N","002000,1,N,1","+0000,1","+0000,1","99999,9","86,1",,"07,1,+00240,1,99,9","07,1,+01230,1,99,9",,"07,99,1,99,9,99,9,99999,9,99,9,99,9","09919,1,99999,9",,"MET084METAR ENFB 051520Z AUTO 19021KT 2000NDV SHSN BKN008/// BKN041/// 00/00 Q0992 W///S5;",
"01488199999","2010-12-05T15:50:00","4","61.206389","1.828889","142.0","STATFJORD B OIL PLATFORM, NO","FM-15","ENFB ","V020","080,1,N,0082,1","00210,1,9,N","011265,1,N,1","+0010,1","+0000,1","99999,9","81,1",,"07,1,+00210,1,99,9",,,"07,99,1,99,9,99,9,99999,9,99,9,99,9","09919,1,99999,9",,"MET090METAR ENFB 051550Z AUTO 08016KT 070V140 9999NDV -SHRA BKN007/// 01/00 Q0992 RESHSN W///S6;",
"01488199999","2010-12-05T16:20:00","4","61.206389","1.828889","142.0","STATFJORD B OIL PLATFORM, NO","FM-15","ENFB ","V020","060,1,N,0072,1","00210,1,9,N","011265,1,N,1","+0010,1","+0000,1","99999,9","80,1",,"07,1,+00210,1,99,9",,,"07,99,1,99,9,99,9,99999,9,99,9,99,9","09929,1,99999,9",,"MET077METAR ENFB 051620Z AUTO 06014KT 9999NDV -SHRASN BKN007/// 01/00 Q0993 W///S6;",
"01488199999","2010-12-05T16:50:00","4","61.206389","1.828889","142.0","STATFJORD B OIL PLATFORM, NO","FM-15","ENFB ","V020","060,1,N,0051,1","00240,1,9,N","000800,1,N,1","+0010,1","+0000,1","99999,9","85,1",,"07,1,+00240,1,99,9",,,"07,99,1,99,9,99,9,99999,9,99,9,99,9","09929,1,99999,9",,"MET075METAR ENFB 051650Z AUTO 06010KT 0800NDV -SHSN BKN008/// 01/00 Q0993 W///S6;",
"01488199999","2010-12-05T17:20:00","4","61.206389","1.828889","142.0","STATFJORD B OIL PLATFORM, NO","FM-15","ENFB ","V020","360,1,N,0057,1","22000,1,9,N","000800,1,N,1","+0000,1","-0010,1","99999,9","72,1",,,,,"00,99,1,99,9,99,9,99999,9,99,9,99,9","09939,1,99999,9",,"MET075METAR ENFB 051720Z AUTO 36011KT 330V030 0800NDV SN NCD 00/M01 Q0994 W///S6;","Q01    003SCCGA1"
"01488199999","2010-12-05T17:50:00","4","61.206389","1.828889","142.0","STATFJORD B OIL PLATFORM, NO","FM-15","ENFB ","V020","030,1,N,0082,1","00300,1,9,N","011265,1,N,1","+0000,1","+0000,1","99999,9","61,1",,"08,1,+00300,1,99,9",,,"08,99,1,99,9,99,9,99999,9,99,9,99,9","09939,1,99999,9",,"MET078METAR ENFB 051750Z AUTO 03016KT 9999NDV -RA OVC010/// 00/00 Q0994 RESN W///S6;",
"01488199999","2010-12-05T18:20:00","4","61.206389","1.828889","142.0","STATFJORD B OIL PLATFORM, NO","FM-15","ENFB ","V020","040,1,N,0082,1","01230,1,9,N","011265,1,N,1","+0010,1","+0010,1","99999,9","71,1",,"02,1,+00330,1,99,9","07,1,+01230,1,99,9",,"07,99,1,99,9,99,9,99999,9,99,9,99,9","09939,1,99999,9",,"MET083METAR ENFB 051820Z AUTO 04016KT 9999NDV -SN FEW011/// BKN041/// 01/01 Q0994 W///S6;",
"01488199999","2010-12-05T18:50:00","4","61.206389","1.828889","142.0","STATFJORD B OIL PLATFORM, NO","FM-15","ENFB ","V020","350,1,N,0062,1","00570,1,9,N","011265,1,N,1","+0010,1","+0000,1","99999,9","61,1",,"07,1,+00570,1,99,9","08,1,+01500,1,99,9",,"08,99,1,99,9,99,9,99999,9,99,9,99,9","09939,1,99999,9","0123,1","MET086METAR ENFB 051850Z AUTO 35012G24KT 9999NDV -RA BKN019/// OVC056/// 01/00 Q0994 W///S6;",
"01488199999","2010-12-05T19:20:00","4","61.206389","1.828889","142.0","STATFJORD B OIL PLATFORM, NO","FM-15","ENFB ","V020","340,1,N,0108,1","01290,1,9,N","011265,1,N,1","+0020,1","+9999,9","99999,9",,,"07,1,+01290,1,99,9","08,1,+01800,1,99,9",,"08,99,1,99,9,99,9,99999,9,99,9,99,9","09939,1,99999,9",,"MET079METAR ENFB 051920Z AUTO 34021KT 9999NDV BKN043/// OVC068/// 02/// Q0994 W///S6;",
"01488199999","2010-12-05T19:50:00","4","61.206389","1.828889","142.0","STATFJORD B OIL PLATFORM, NO","FM-15","ENFB ","V020","340,1,N,0108,1","01800,1,9,N","011265,1,N,1","+0020,1","+9999,9","99999,9",,,"02,1,+01230,1,99,9","07,1,+01800,1,99,9",,"07,99,1,99,9,99,9,99999,9,99,9,99,9","09939,1,99999,9",,"MET079METAR ENFB 051950Z AUTO 34021KT 9999NDV FEW041/// BKN069/// 02/// Q0994 W///S6;",
"01488199999","2010-12-05T20:20:00","4","61.206389","1.828889","142.0","STATFJORD B OIL PLATFORM, NO","FM-15","ENFB ","V020","330,1,N,0103,1","01800,1,9,N","011265,1,N,1","+0020,1","+9999,9","99999,9",,,"07,1,+01800,1,99,9",,,"07,99,1,99,9,99,9,99999,9,99,9,99,9","09939,1,99999,9",,"MET069METAR ENFB 052020Z AUTO 33020KT 9999NDV BKN062/// 02/// Q0994 W///S6;",
"01488199999","2010-12-05T20:50:00","4","61.206389","1.828889","142.0","STATFJORD B OIL PLATFORM, NO","FM-15","ENFB ","V020","330,1,N,0098,1","01290,1,9,N","011265,1,N,1","+0020,1","-0030,1","99999,9","81,1",,"07,1,+01290,1,99,9",,,"07,99,1,99,9,99,9,99999,9,99,9,99,9","09939,1,99999,9",,"MET076METAR ENFB 052050Z AUTO 33019KT 9999NDV -SHRA BKN043/// 02/M03 Q0994 W///S6;",
"01488199999","2010-12-05T21:20:00","4","61.206389","1.828889","142.0","STATFJORD B OIL PLATFORM, NO","FM-15","ENFB ","V020","330,1,N,0118,1","22000,1,9,N","011265,1,N,1","+0020,1","-0030,1","99999,9",,,"02,1,+00840,1,99,9",,,"02,99,1,99,9,99,9,99999,9,99,9,99,9","09939,1,99999,9",,"MET070METAR ENFB 052120Z AUTO 33023KT 9999NDV FEW028/// 02/M03 Q0994 W///S6;",
"01488199999","2010-12-05T21:50:00","4","61.206389","1.828889","142.0","STATFJORD B OIL PLATFORM, NO","FM-15","ENFB ","V020","320,1,N,0098,1","22000,1,9,N","011265,1,N,1","+0020,1","-0040,1","99999,9",,,"02,1,+00840,1,99,9",,,"02,99,1,99,9,99,9,99999,9,99,9,99,9","09939,1,99999,9",,"MET070METAR ENFB 052150Z AUTO 32019KT 9999NDV FEW028/// 02/M04 Q0994 W///S6;",
"01488199999","2010-12-05T22:20:00","4","61.206389","1.828889","142.0","STATFJORD B OIL PLATFORM, NO","FM-15","ENFB ","V020","320,1,N,0093,1","22000,1,9,N","011265,1,N,1","+0020,1","-0070,1","99999,9",,,"02,1,+01230,1,99,9",,,"02,99,1,99,9,99,9,99999,9,99,9,99,9","09939,1,99999,9",,"MET070METAR ENFB 052220Z AUTO 32018KT 9999NDV FEW041/// 02/M07 Q0994 W///S6;",
"01488199999","2010-12-05T22:50:00","4","61.206389","1.828889","142.0","STATFJORD B OIL PLATFORM, NO","FM-15","ENFB ","V020","320,1,N,0087,1","22000,1,9,N","011265,1,N,1","+0020,1","-0050,1","99999,9",,,"02,1,+01350,1,99,9",,,"02,99,1,99,9,99,9,99999,9,99,9,99,9","09939,1,99999,9",,"MET070METAR ENFB 052250Z AUTO 32017KT 9999NDV FEW045/// 02/M05 Q0994 W///S6;",
"01488199999","2010-12-05T23:20:00","4","61.206389","1.828889","142.0","STATFJORD B OIL PLATFORM, NO","FM-15","ENFB ","V020","310,1,N,0072,1","00660,1,9,N","011265,1,N,1","+0020,1","-0050,1","99999,9","80,1",,"07,1,+00660,1,99,9",,,"07,99,1,99,9,99,9,99999,9,99,9,99,9","09939,1,99999,9",,"MET078METAR ENFB 052320Z AUTO 31014KT 9999NDV -SHRASN BKN022/// 02/M05 Q0994 W///S6;",
"01488199999","2010-12-05T23:50:00","4","61.206389","1.828889","142.0","STATFJORD B OIL PLATFORM, NO","FM-15","ENFB ","V020","300,1,N,0082,1","22000,1,9,N","011265,1,N,1","+0020,1","-0070,1","99999,9",,,"02,1,+01320,1,99,9",,,"02,99,1,99,9,99,9,99999,9,99,9,99,9","09939,1,99999,9",,"MET070METAR ENFB 052350Z AUTO 30016KT 9999NDV FEW044/// 02/M07 Q0994 W///S6;",
"01488199999","2010-12-06T00:20:00","4","61.206389","1.828889","142.0","STATFJORD B OIL PLATFORM, NO","FM-15","ENFB ","V020","320,1,N,0108,1","01800,1,9,N","011265,1,N,1","+0020,1","-0040,1","99999,9","81,1",,"04,1,+01020,1,99,9","07,1,+01800,1,99,9",,"07,99,1,99,9,99,9,99999,9,99,9,99,9","09939,1,99999,9",,"MET086METAR ENFB 060020Z AUTO 32021KT 9999NDV -SHRA SCT034/// BKN063/// 02/M04 Q0994 W///S6;",
"01488199999","2010-12-06T00:50:00","4","61.206389","1.828889","142.0","STATFJORD B OIL PLATFORM, NO","FM-15","ENFB ","V020","310,1,N,0098,1","22000,1,9,N","011265,1,N,1","+0020,1","-0050,1","99999,9",,,"02,1,+01470,1,99,9",,,"02,99,1,99,9,99,9,99999,9,99,9,99,9","09929,1,99999,9",,"MET070METAR ENFB 060050Z AUTO 31019KT 9999NDV FEW049/// 02/M05 Q0993 W///S6;",
"01488199999","2010-12-06T01:20:00","4","61.206389","1.828889","142.0","STATFJORD B OIL PLATFORM, NO","FM-15","ENFB ","V020","310,1,N,0072,1","22000,1,9,N","011265,1,N,1","+0020,1","-0060,1","99999,9",,,,,,"00,99,1,99,9,99,9,99999,9,99,9,99,9","09939,1,99999,9",,"MET064METAR ENFB 060120Z AUTO 31014KT 9999NDV NCD 02/M06 Q0994 W///S6;","Q01    003SCCGA1"
"01488199999","2010-12-06T01:50:00","4","61.206389","1.828889","142.0","STATFJORD B OIL PLATFORM, NO","FM-15","ENFB ","V020","310,1,N,0062,1","22000,1,9,N","011265,1,N,1","+0020,1","-0050,1","99999,9",,,"02,1,+00960,1,99,9",,,"02,99,1,99,9,99,9,99999,9,99,9,99,9","09929,1,99999,9",,"MET070METAR ENFB 060150Z AUTO 31012KT 9999NDV FEW032/// 02/M05 Q0993 W///S6;",
"01488199999","2010-12-06T02:20:00","4","61.206389","1.828889","142.0","STATFJORD B OIL PLATFORM, NO","FM-15","ENFB ","V020","290,1,N,0067,1","01350,1,9,N","011265,1,N,1","+0010,1","-0040,1","99999,9",,,"07,1,+01350,1,99,9",,,"07,99,1,99,9,99,9,99999,9,99,9,99,9","09939,1,99999,9",,"MET070METAR ENFB 060220Z AUTO 29013KT 9999NDV BKN045/// 01/M04 Q0994 W///S6;",
"01488199999","2010-12-06T02:50:00","4","61.206389","1.828889","142.0","STATFJORD B OIL PLATFORM, NO","FM-15","ENFB ","V020","350,1,N,0062,1","01350,1,9,N","011265,1,N,1","+0000,1","-0030,1","99999,9","81,1",,"02,1,+00240,1,99,9","07,1,+01350,1,99,9",,"07,99,1,99,9,99,9,99999,9,99,9,99,9","09929,1,99999,9",,"MET086METAR ENFB 060250Z AUTO 35012KT 9999NDV -SHRA FEW008/// BKN045/// 00/M03 Q0993 W///S6;",
"01488199999","2010-12-06T03:20:00","4","61.206389","1.828889","142.0","STATFJORD B OIL PLATFORM, NO","FM-15","ENFB ","V020","340,1,N,0026,1","00870,1,9,N","011265,1,N,1","+0010,1","-0020,1","99999,9","81,1",,"07,1,+00870,1,99,9",,,"07,99,1,99,9,99,9,99999,9,99,9,99,9","09929,1,99999,9",,"MET084METAR ENFB 060320Z AUTO 34005KT 310V010 9999NDV -SHRA BKN029/// 01/M02 Q0993 W///S6;",
"01488199999","2010-12-06T03:50:00","4","61.206389","1.828889","142.0","STATFJORD B OIL PLATFORM, NO","FM-15","ENFB ","V020","310,1,N,0062,1","00810,1,9,N","011265,1,N,1","+0010,1","-0030,1","99999,9",,,"07,1,+00810,1,99,9",,,"07,99,1,99,9,99,9,99999,9,99,9,99,9","09929,1,99999,9",,"MET070METAR ENFB 060350Z AUTO 31012KT 9999NDV BKN027/// 01/M03 Q0993 W///S6;",
"01488199999","2010-12-06T04:20:00","4","61.206389","1.828889","142.0","STATFJORD B OIL PLATFORM, NO","FM-15","ENFB ","V020","310,1,N,0072,1","22000,1,9,N","011265,1,N,1","+0020,1","-0030,1","99999,9",,,"04,1,+00930,1,99,9",,,"04,99,1,99,9,99,9,99999,9,99,9,99,9","09929,1,99999,9",,"MET070METAR ENFB 060420Z AUTO 31014KT 9999NDV SCT031/// 02/M03 Q0993 W///S6;",
"01488199999","2010-12-06T04:50:00","4","61.206389","1.828889","142.0","STATFJORD B OIL PLATFORM, NO","FM-15","ENFB ","V020","320,1,N,0051,1","22000,1,9,N","011265,1,N,1","+0020,1","-0050,1","99999,9",,,"04,1,+01020,1,99,9",,,"04,99,1,99,9,99,9,99999,9,99,9,99,9","09929,1,99999,9",,"MET070METAR ENFB 060450Z AUTO 32010KT 9999NDV SCT034/// 02/M05 Q0993 W///S6;",
"01488199999","2010-12-06T05:20:00","4","61.206389","1.828889","142.0","STATFJORD B OIL PLATFORM, NO","FM-15","ENFB ","V020","310,1,N,0051,1","22000,1,9,N","011265,1,N,1","+0020,1","-0060,1","99999,9",,,,,,"00,99,1,99,9,99,9,99999,9,99,9,99,9","09929,1,99999,9",,"MET064METAR ENFB 060520Z AUTO 31010KT 9999NDV NCD 02/M06 Q0993 W///S6;","Q01    003SCCGA1"
"01488199999","2010-12-06T05:50:00","4","61.206389","1.828889","142.0","STATFJORD B OIL PLATFORM, NO","FM-15","ENFB ","V020","300,1,N,0051,1","22000,1,9,N","011265,1,N,1","+0020,1","-0060,1","99999,9",,,,,,"00,99,1,99,9,99,9,99999,9,99,9,99,9","09929,1,99999,9",,"MET064METAR ENFB 060550Z AUTO 30010KT 9999NDV NCD 02/M06 Q0993 W///S6;","Q01    003SCCGA1"
"01488199999","2010-12-06T06:20:00","4","61.206389","1.828889","142.0","STATFJORD B OIL PLATFORM, NO","FM-15","ENFB ","V020","280,1,N,0051,1","22000,1,9,N","011265,1,N,1","+0020,1","-0060,1","99999,9",,,"04,1,+01230,1,99,9",,,"04,99,1,99,9,99,9,99999,9,99,9,99,9","09929,1,99999,9",,"MET070METAR ENFB 060620Z AUTO 28010KT 9999NDV SCT041/// 02/M06 Q0993 W///S6;",
"01488199999","2010-12-06T06:50:00","4","61.206389","1.828889","142.0","STATFJORD B OIL PLATFORM, NO","FM-15","ENFB ","V020","310,1,N,0062,1","22000,1,9,N","011265,1,N,1","+0030,1","-0060,1","99999,9",,,"04,1,+01260,1,99,9",,,"04,99,1,99,9,99,9,99999,9,99,9,99,9","09929,1,99999,9",,"MET070METAR ENFB 060650Z AUTO 31012KT 9999NDV SCT042/// 03/M06 Q0993 W///S6;",
"01488199999","2010-12-06T07:20:00","4","61.206389","1.828889","142.0","STATFJORD B OIL PLATFORM, NO","FM-15","ENFB ","V020","300,1,N,0072,1","01170,1,9,N","011265,1,N,1","+0030,1","-0060,1","99999,9",,,"07,1,+01170,1,99,9",,,"07,99,1,99,9,99,9,99999,9,99,9,99,9","09929,1,99999,9",,"MET070METAR ENFB 060720Z AUTO 30014KT 9999NDV BKN039/// 03/M06 Q0993 W///S6;",
"01488199999","2010-12-06T07:50:00","4","61.206389","1.828889","142.0","STATFJORD B OIL PLATFORM, NO","FM-15","ENFB ","V020","320,1,N,0062,1","22000,1,9,N","011265,1,N,1","+0020,1","-0060,1","99999,9",,,"04,1,+01230,1,99,9",,,"04,99,1,99,9,99,9,99999,9,99,9,99,9","09929,1,99999,9",,"MET070METAR ENFB 060750Z AUTO 32012KT 9999NDV SCT041/// 02/M06 Q0993 W///S5;",
"01488199999","2010-12-06T08:20:00","4","61.206389","1.828889","142.0","STATFJORD B OIL PLATFORM, NO","FM-15","ENFB ","V020","300,1,N,0051,1","22000,1,9,N","011265,1,N,1","+0020,1","-0070,1","99999,9",,,,,,"00,99,1,99,9,99,9,99999,9,99,9,99,9","09929,1,99999,9",,"MET064METAR ENFB 060820Z AUTO 30010KT 9999NDV NCD 02/M07 Q0993 W///S5;","Q01    003SCCGA1"
"01488199999","2010-12-06T08:50:00","4","61.206389","1.828889","142.0","STATFJORD B OIL PLATFORM, NO","FM-15","ENFB ","V020","280,1,N,0046,1","01350,1,9,N","011265,1,N,1","+0020,1","-0070,1","99999,9",,,"07,1,+01350,1,99,9",,,"07,99,1,99,9,99,9,99999,9,99,9,99,9","09929,1,99999,9",,"MET070METAR ENFB 060850Z AUTO 28009KT 9999NDV BKN045/// 02/M07 Q0993 W///S5;",
"01488199999","2010-12-06T09:20:00","4","61.206389","1.828889","142.0","STATFJORD B OIL PLATFORM, NO","FM-15","ENFB ","V020","290,1,N,0026,1","22000,1,9,N","011265,1,N,1","+0020,1","-0070,1","99999,9",,,"02,1,+01410,1,99,9",,,"02,99,1,99,9,99,9,99999,9,99,9,99,9","09939,1,99999,9",,"MET078METAR ENFB 060920Z AUTO 29005KT 260V320 9999NDV FEW047/// 02/M07 Q0994 W///S5;",
"01488199999","2010-12-06T09:50:00","4","61.206389","1.828889","142.0","STATFJORD B OIL PLATFORM, NO","FM-15","ENFB ","V020","290,1,N,0046,1","22000,1,9,N","011265,1,N,1","+0030,1","-0050,1","99999,9",,,"04,1,+01230,1,99,9",,,"04,99,1,99,9,99,9,99999,9,99,9,99,9","09939,1,99999,9",,"MET070METAR ENFB 060950Z AUTO 29009KT 9999NDV SCT041/// 03/M05 Q0994 W///S5;",
"01488199999","2010-12-06T10:20:00","4","61.206389","1.828889","142.0","STATFJORD B OIL PLATFORM, NO","FM-15","ENFB ","V020","290,1,N,0057,1","01230,1,9,N","011265,1,N,1","+0030,1","-0070,1","99999,9",,,"07,1,+01230,1,99,9",,,"07,99,1,99,9,99,9,99999,9,99,9,99,9","09939,1,99999,9",,"MET070METAR ENFB 061020Z AUTO 29011KT 9999NDV BKN041/// 03/M07 Q0994 W///S5;",
"01488199999","2010-12-06T10:50:00","4","61.206389","1.828889","142.0","STATFJORD B OIL PLATFORM, NO","FM-15","ENFB ","V020","280,1,N,0057,1","22000,1,9,N","011265,1,N,1","+0030,1","-0080,1","99999,9",,,,,,"00,99,1,99,9,99,9,99999,9,99,9,99,9","09939,1,99999,9",,"MET064METAR ENFB 061050Z AUTO 28011KT 9999NDV NCD 03/M08 Q0994 W///S5;","Q01    003SCCGA1"
"01488199999","2010-12-06T11:20:00","4","61.206389","1.828889","142.0","STATFJORD B OIL PLATFORM, NO","FM-15","ENFB ","V020","290,1,N,0046,1","22000,1,9,N","011265,1,N,1","+0030,1","-0050,1","99999,9",,,"02,1,+01230,1,99,9",,,"02,99,1,99,9,99,9,99999,9,99,9,99,9","09939,1,99999,9",,"MET070METAR ENFB 061120Z AUTO 29009KT 9999NDV FEW041/// 03/M05 Q0994 W///S5;",
"01488199999","2010-12-06T11:50:00","4","61.206389","1.828889","142.0","STATFJORD B OIL PLATFORM, NO","FM-15","ENFB ","V020","280,1,N,0057,1","01140,1,9,N","011265,1,N,1","+0030,1","-0050,1","99999,9",,,"07,1,+01140,1,99,9",,,"07,99,1,99,9,99,9,99999,9,99,9,99,9","09939,1,99999,9",,"MET070METAR ENFB 061150Z AUTO 28011KT 9999NDV BKN038/// 03/M05 Q0994 W///S5;",
"01488199999","2010-12-06T12:20:00","4","61.206389","1.828889","142.0","STATFJORD B OIL PLATFORM, NO","FM-15","ENFB ","V020","290,1,N,0057,1","22000,1,9,N","011265,1,N,1","+0030,1","-0060,1","99999,9",,,,,,"00,99,1,99,9,99,9,99999,9,99,9,99,9","09939,1,99999,9",,"MET064METAR ENFB 061220Z AUTO 29011KT 9999NDV NCD 03/M06 Q0994 W///S5;","Q01    003SCCGA1"
"01488199999","2010-12-06T12:50:00","4","61.206389","1.828889","142.0","STATFJORD B OIL PLATFORM, NO","FM-15","ENFB ","V020","290,1,N,0057,1","22000,1,9,N","011265,1,N,1","+0030,1","-0080,1","99999,9",,,"04,1,+04500,1,99,9",,,"04,99,1,99,9,99,9,99999,9,99,9,99,9","09939,1,99999,9",,"MET070METAR ENFB 061250Z AUTO 29011KT 9999NDV SCT150/// 03/M08 Q0994 W///S5;",
"01488199999","2010-12-06T13:20:00","4","61.206389","1.828889","142.0","STATFJORD B OIL PLATFORM, NO","FM-15","ENFB ","V020","270,1,N,0046,1","22000,1,9,N","011265,1,N,1","+0030,1","-0070,1","99999,9",,,"02,1,+04500,1,99,9",,,"02,99,1,99,9,99,9,99999,9,99,9,99,9","09939,1,99999,9",,"MET070METAR ENFB 061320Z AUTO 27009KT 9999NDV FEW150/// 03/M07 Q0994 W///S5;",
"01488199999","2010-12-06T13:50:00","4","61.206389","1.828889","142.0","STATFJORD B OIL PLATFORM, NO","FM-15","ENFB ","V020","270,1,N,0051,1","04200,1,9,N","011265,1,N,1","+0040,1","-0050,1","99999,9",,,"04,1,+03600,1,99,9","07,1,+04200,1,99,9",,"07,99,1,99,9,99,9,99999,9,99,9,99,9","09939,1,99999,9",,"MET080METAR ENFB 061350Z AUTO 27010KT 9999NDV SCT120/// BKN140/// 04/M05 Q0994 W///S5;",
"01488199999","2010-12-06T14:20:00","4","61.206389","1.828889","142.0","STATFJORD B OIL PLATFORM, NO","FM-15","ENFB ","V020","290,1,N,0062,1","01290,1,C,N","011265,1,N,1","+0040,1","-0020,1","99999,9",,,"02,1,+00660,1,99,9","04,1,+01290,1,99,9","07,1,+03300,1,99,9","07,99,1,99,9,99,9,99999,9,99,9,99,9","09939,1,99999,9",,"MET098METAR ENFB 061420Z AUTO 29012KT 260V320 9999NDV FEW022/// SCT043/// BKN110/// 04/M02 Q0994 W///S5;",
"01488199999","2010-12-06T14:50:00","4","61.206389","1.828889","142.0","STATFJORD B OIL PLATFORM, NO","FM-15","ENFB ","V020","300,1,N,0082,1","00750,1,9,N","011265,1,N,1","+0030,1","-0010,1","99999,9",,,"02,1,+00510,1,99,9","07,1,+00750,1,99,9","07,1,+02400,1,99,9","07,99,1,99,9,99,9,99999,9,99,9,99,9","09939,1,99999,9",,"MET090METAR ENFB 061450Z AUTO 30016KT 9999NDV FEW017/// BKN025/// BKN089/// 03/M01 Q0994 W///S6;",
"01488199999","2010-12-06T15:20:00","4","61.206389","1.828889","142.0","STATFJORD B OIL PLATFORM, NO","FM-15","ENFB ","V020","300,1,N,0082,1","01380,1,C,N","011265,1,N,1","+0030,1","-0010,1","99999,9","81,1",,"02,1,+00360,1,99,9","04,1,+01380,1,99,9","07,1,+01500,1,99,9","07,99,1,99,9,99,9,99999,9,99,9,99,9","09939,1,99999,9",,"MET096METAR ENFB 061520Z AUTO 30016KT 9999NDV -SHRA FEW012/// SCT046/// BKN058/// 03/M01 Q0994 W///S6;",
"01488199999","2010-12-06T15:50:00","4","61.206389","1.828889","142.0","STATFJORD B OIL PLATFORM, NO","FM-15","ENFB ","V020","260,1,N,0072,1","01500,1,9,N","011265,1,N,1","+0020,1","-0020,1","99999,9","81,1",,"04,1,+00930,1,99,9","07,1,+01500,1,99,9",,"07,99,1,99,9,99,9,99999,9,99,9,99,9","09939,1,99999,9",,"MET086METAR ENFB 061550Z AUTO 26014KT 9999NDV -SHRA SCT031/// BKN059/// 02/M02 Q0994 W///S6;",
"01488199999","2010-12-06T16:20:00","4","61.206389","1.828889","142.0","STATFJORD B OIL PLATFORM, NO","FM-15","ENFB ","V020","250,1,N,0067,1","00870,1,9,N","011265,1,N,1","+0010,1","-0010,1","99999,9","80,1",,"02,1,+00450,1,99,9","07,1,+00870,1,99,9","07,1,+01260,1,99,9","07,99,1,99,9,99,9,99999,9,99,9,99,9","09939,1,99999,9",,"MET098METAR ENFB 061620Z AUTO 25013KT 9999NDV -SHRASN FEW015/// BKN029/// BKN042/// 01/M01 Q0994 W///S6;",
"01488199999","2010-12-06T16:50:00","4","61.206389","1.828889","142.0","STATFJORD B OIL PLATFORM, NO","FM-15","ENFB ","V020","250,1,N,0062,1","00810,1,9,N","011265,1,N,1","+0020,1","-0010,1","99999,9",,,"07,1,+00810,1,99,9",,,"07,99,1,99,9,99,9,99999,9,99,9,99,9","09939,1,99999,9",,"MET070METAR ENFB 061650Z AUTO 25012KT 9999NDV BKN027/// 02/M01 Q0994 W///S6;",
"01488199999","2010-12-06T17:20:00","4","61.206389","1.828889","142.0","STATFJORD B OIL PLATFORM, NO","FM-15","ENFB ","V020","250,1,N,0046,1","00660,1,9,N","011265,1,N,1","+0020,1","+0000,1","99999,9","61,1",,"07,1,+00660,1,99,9","07,1,+01110,1,99,9",,"07,99,1,99,9,99,9,99999,9,99,9,99,9","09949,1,99999,9",,"MET091METAR ENFB 061720Z AUTO 25009KT 230V290 9999NDV -RA BKN022/// BKN037/// 02/00 Q0995 W///S6;",
"01488199999","2010-12-06T17:50:00","4","61.206389","1.828889","142.0","STATFJORD B OIL PLATFORM, NO","FM-15","ENFB ","V020","010,1,N,0067,1","00750,1,9,N","011265,1,N,1","+0030,1","-0010,1","99999,9",,,"07,1,+00750,1,99,9",,,"07,99,1,99,9,99,9,99999,9,99,9,99,9","09949,1,99999,9",,"MET070METAR ENFB 061750Z AUTO 01013KT 9999NDV BKN025/// 03/M01 Q0995 W///S6;",
"01488199999","2010-12-06T18:20:00","4","61.206389","1.828889","142.0","STATFJORD B OIL PLATFORM, NO","FM-15","ENFB ","V020","360,1,N,0046,1","03300,1,9,N","011265,1,N,1","+0040,1","-0010,1","99999,9",,,"04,1,+00870,1,99,9","07,1,+03300,1,99,9",,"07,99,1,99,9,99,9,99999,9,99,9,99,9","09949,1,99999,9",,"MET088METAR ENFB 061820Z AUTO 36009KT 330V030 9999NDV SCT029/// BKN110/// 04/M01 Q0995 W///S6;",
"01488199999","2010-12-06T18:50:00","4","61.206389","1.828889","142.0","STATFJORD B OIL PLATFORM, NO","FM-15","ENFB ","V020","360,1,N,0021,1","00870,1,9,N","011265,1,N,1","+0040,1","-0010,1","99999,9",,,"07,1,+00870,1,99,9",,,"07,99,1,99,9,99,9,99999,9,99,9,99,9","09949,1,99999,9",,"MET078METAR ENFB 061850Z AUTO 36004KT 330V030 9999NDV BKN029/// 04/M01 Q0995 W///S6;",
"01488199999","2010-12-06T19:20:00","4","61.206389","1.828889","142.0","STATFJORD B OIL PLATFORM, NO","FM-15","ENFB ","V020","320,1,N,0077,1","00930,1,9,N","011265,1,N,1","+0040,1","-0020,1","99999,9","81,1",,"08,1,+00930,1,99,9",,,"08,99,1,99,9,99,9,99999,9,99,9,99,9","09949,1,99999,9",,"MET076METAR ENFB 061920Z AUTO 32015KT 9999NDV -SHRA OVC031/// 04/M02 Q0995 W///S6;",
"01488199999","2010-12-06T19:50:00","4","61.206389","1.828889","142.0","STATFJORD B OIL PLATFORM, NO","FM-15","ENFB ","V020","320,1,N,0077,1","01080,1,9,N","011265,1,N,1","+0040,1","-0020,1","99999,9",,,"07,1,+01080,1,99,9",,,"07,99,1,99,9,99,9,99999,9,99,9,99,9","09949,1,99999,9",,"MET070METAR ENFB 061950Z AUTO 32015KT 9999NDV BKN036/// 04/M02 Q0995 W///S6;",
"01488199999","2010-12-06T20:20:00","4","61.206389","1.828889","142.0","STATFJORD B OIL PLATFORM, NO","FM-15","ENFB ","V020","300,1,N,0087,1","01110,1,9,N","011265,1,N,1","+0040,1","-0020,1","99999,9",,,"07,1,+01110,1,99,9",,,"07,99,1,99,9,99,9,99999,9,99,9,99,9","09949,1,99999,9",,"MET070METAR ENFB 062020Z AUTO 30017KT 9999NDV BKN037/// 04/M02 Q0995 W///S6;",
"01488199999","2010-12-06T20:50:00","4","61.206389","1.828889","142.0","STATFJORD B OIL PLATFORM, NO","FM-15","ENFB ","V020","300,1,N,0098,1","01080,1,9,N","011265,1,N,1","+0040,1","-0030,1","99999,9",,,"07,1,+01080,1,99,9",,,"07,99,1,99,9,99,9,99999,9,99,9,99,9","09949,1,99999,9",,"MET070METAR ENFB 062050Z AUTO 30019KT 9999NDV BKN036/// 04/M03 Q0995 W///S6;",
"01488199999","2010-12-06T21:20:00","4","61.206389","1.828889","142.0","STATFJORD B OIL PLATFORM, NO","FM-15","ENFB ","V020","290,1,N,0108,1","01500,1,9,N","011265,1,N,1","+0040,1","-0030,1","99999,9",,,"08,1,+01500,1,99,9",,,"08,99,1,99,9,99,9,99999,9,99,9,99,9","09949,1,99999,9",,"MET070METAR ENFB 062120Z AUTO 29021KT 9999NDV OVC054/// 04/M03 Q0995 W///S6;",
"01488199999","2010-12-06T21:50:00","4","61.206389","1.828889","142.0","STATFJORD B OIL PLATFORM, NO","FM-15","ENFB ","V020","290,1,N,0113,1","01500,1,9,N","011265,1,N,1","+0040,1","-0040,1","99999,9",,,"08,1,+01500,1,99,9",,,"08,99,1,99,9,99,9,99999,9,99,9,99,9","09949,1,99999,9",,"MET070METAR ENFB 062150Z AUTO 29022KT 9999NDV OVC054/// 04/M04 Q0995 W///S6;",
"01488199999","2010-12-06T22:20:00","4","61.206389","1.828889","142.0","STATFJORD B OIL PLATFORM, NO","FM-15","ENFB ","V020","290,1,N,0082,1","22000,1,9,N","011265,1,N,1","+0040,1","-0030,1","99999,9",,,"04,1,+01500,1,99,9",,,"04,99,1,99,9,99,9,99999,9,99,9,99,9","09949,1,99999,9",,"MET070METAR ENFB 062220Z AUTO 29016KT 9999NDV SCT055/// 04/M03 Q0995 W///S6;",
"01488199999","2010-12-06T22:50:00","4","61.206389","1.828889","142.0","STATFJORD B OIL PLATFORM, NO","FM-15","ENFB ","V020","290,1,N,0087,1","00900,1,9,N","011265,1,N,1","+0040,1","-0020,1","99999,9",,,"07,1,+00900,1,99,9",,,"07,99,1,99,9,99,9,99999,9,99,9,99,9","09949,1,99999,9",,"MET070METAR ENFB 062250Z AUTO 29017KT 9999NDV BKN030/// 04/M02 Q0995 W///S6;",
"01488199999","2010-12-06T23:20:00","4","61.206389","1.828889","142.0","STATFJORD B OIL PLATFORM, NO","FM-15","ENFB ","V020","270,1,N,0087,1","22000,1,9,N","011265,1,N,1","+0040,1","-0010,1","99999,9",,,"02,1,+00810,1,99,9",,,"02,99,1,99,9,99,9,99999,9,99,9,99,9","09949,1,99999,9",,"MET070METAR ENFB 062320Z AUTO 27017KT 9999NDV FEW027/// 04/M01 Q0995 W///S6;",
"01488199999","2010-12-06T23:50:00","4","61.206389","1.828889","142.0","STATFJORD B OIL PLATFORM, NO","FM-15","ENFB ","V020","250,1,N,0067,1","22000,1,9,N","011265,1,N,1","+0030,1","-0010,1","99999,9",,,"02,1,+01080,1,99,9",,,"02,99,1,99,9,99,9,99999,9,99,9,99,9","09949,1,99999,9",,"MET070METAR ENFB 062350Z AUTO 25013KT 9999NDV FEW036/// 03/M01 Q0995 W///S6;",
"01488199999","2010-12-07T00:20:00","4","61.206389","1.828889","142.0","STATFJORD B OIL PLATFORM, NO","FM-15","ENFB ","V020","290,1,N,0087,1","22000,1,9,N","011265,1,N,1","+0030,1","-0010,1","99999,9",,,"04,1,+00840,1,99,9",,,"04,99,1,99,9,99,9,99999,9,99,9,99,9","09949,1,99999,9",,"MET070METAR ENFB 070020Z AUTO 29017KT 9999NDV SCT028/// 03/M01 Q0995 W///S6;",
"01488199999","2010-12-07T00:50:00","4","61.206389","1.828889","142.0","STATFJORD B OIL PLATFORM, NO","FM-15","ENFB ","V020","290,1,N,0067,1","00690,1,C,N","011265,1,N,1","+0030,1","-0010,1","99999,9","81,1",,"02,1,+00390,1,99,9","04,1,+00690,1,99,9","07,1,+00900,1,99,9","07,99,1,99,9,99,9,99999,9,99,9,99,9","09959,1,99999,9",,"MET096METAR ENFB 070050Z AUTO 29013KT 9999NDV -SHRA FEW013/// SCT023/// BKN030/// 03/M01 Q0996 W///S6;",
"01488199999","2010-12-07T01:20:00","4","61.206389","1.828889","142.0","STATFJORD B OIL PLATFORM, NO","FM-15","ENFB ","V020","300,1,N,0093,1","04500,1,9,N","011265,1,N,1","+0030,1","+0000,1","99999,9","81,1",,"04,1,+00450,1,99,9","07,1,+04500,1,99,9",,"07,99,1,99,9,99,9,99999,9,99,9,99,9","09949,1,99999,9",,"MET085METAR ENFB 070120Z AUTO 30018KT 9999NDV -SHRA SCT015/// BKN150/// 03/00 Q0995 W///S6;",
"01488199999","2010-12-07T01:50:00","4","61.206389","1.828889","142.0","STATFJORD B OIL PLATFORM, NO","FM-15","ENFB ","V020","290,1,N,0123,1","00330,1,9,N","011265,1,N,1","+0030,1","+0000,1","99999,9","81,1",,"07,1,+00330,1,99,9","07,1,+02400,1,99,9",,"07,99,1,99,9,99,9,99999,9,99,9,99,9","09949,1,99999,9",,"MET085METAR ENFB 070150Z AUTO 29024KT 9999NDV -SHRA BKN011/// BKN086/// 03/00 Q0995 W///S6;",
"01488199999","2010-12-07T02:20:00","4","61.206389","1.828889","142.0","STATFJORD B OIL PLATFORM, NO","FM-15","ENFB ","V020","290,1,N,0154,1","00330,1,9,N","011265,1,N,1","+0020,1","+0000,1","99999,9",,,"07,1,+00330,1,99,9",,,"07,99,1,99,9,99,9,99999,9,99,9,99,9","09949,1,99999,9",,"MET069METAR ENFB 070220Z AUTO 29030KT 9999NDV BKN011/// 02/00 Q0995 W///S6;",
"01488199999","2010-12-07T02:50:00","4","61.206389","1.828889","142.0","STATFJORD B OIL PLATFORM, NO","FM-15","ENFB ","V020","290,1,N,0185,1","00270,1,9,N","011265,1,N,1","+0030,1","+0010,1","99999,9","81,1",,"07,1,+00270,1,99,9","07,1,+01800,1,99,9",,"07,99,1,99,9,99,9,99999,9,99,9,99,9","09939,1,99999,9",,"MET085METAR ENFB 070250Z AUTO 29036KT 9999NDV -SHRA BKN009/// BKN062/// 03/01 Q0994 W///S6;",
"01488199999","2010-12-07T03:20:00","4","61.206389","1.828889","142.0","STATFJORD B OIL PLATFORM, NO","FM-15","ENFB ","V020","290,1,N,0190,1","00360,1,9,N","011265,1,N,1","+0030,1","+0010,1","99999,9",,,"07,1,+00360,1,99,9",,,"07,99,1,99,9,99,9,99999,9,99,9,99,9","09939,1,99999,9",,"MET069METAR ENFB 070320Z AUTO 29037KT 9999NDV BKN012/// 03/01 Q0994 W///S6;",
"01488199999","2010-12-07T03:50:00","4","61.206389","1.828889","142.0","STATFJORD B OIL PLATFORM, NO","FM-15","ENFB ","V020","280,1,N,0180,1","00270,1,9,N","011265,1,N,1","+0030,1","+0010,1","99999,9","81,1",,"07,1,+00270,1,99,9",,,"07,99,1,99,9,99,9,99999,9,99,9,99,9","09929,1,99999,9",,"MET075METAR ENFB 070350Z AUTO 28035KT 9999NDV -SHRA BKN009/// 03/01 Q0993 W///S6;",
"01488199999","2010-12-07T04:20:00","4","61.206389","1.828889","142.0","STATFJORD B OIL PLATFORM, NO","FM-15","ENFB ","V020","300,1,N,0180,1","00300,1,9,N","011265,1,N,1","+0030,1","+0020,1","99999,9",,,"07,1,+00300,1,99,9",,,"07,99,1,99,9,99,9,99999,9,99,9,99,9","09929,1,99999,9",,"MET069METAR ENFB 070420Z AUTO 30035KT 9999NDV BKN010/// 03/02 Q0993 W///S6;",
"01488199999","2010-12-07T04:50:00","4","61.206389","1.828889","142.0","STATFJORD B OIL PLATFORM, NO","FM-15","ENFB ","V020","300,1,N,0159,1","00330,1,9,N","011265,1,N,1","+0040,1","+0020,1","99999,9",,,"07,1,+00330,1,99,9","07,1,+03600,1,99,9","07,1,+04500,1,99,9","07,99,1,99,9,99,9,99999,9,99,9,99,9","09929,1,99999,9",,"MET089METAR ENFB 070450Z AUTO 30031KT 9999NDV BKN011/// BKN120/// BKN150/// 04/02 Q0993 W///S6;",
"01488199999","2010-12-07T05:20:00","4","61.206389","1.828889","142.0","STATFJORD B OIL PLATFORM, NO","FM-15","ENFB ","V020","300,1,N,0149,1","00420,1,9,N","011265,1,N,1","+0040,1","+0020,1","99999,9",,,"07,1,+00420,1,99,9",,,"07,99,1,99,9,99,9,99999,9,99,9,99,9","09929,1,99999,9",,"MET069METAR ENFB 070520Z AUTO 30029KT 9999NDV BKN014/// 04/02 Q0993 W///S6;",
"01488199999","2010-12-07T05:50:00","4","61.206389","1.828889","142.0","STATFJORD B OIL PLATFORM, NO","FM-15","ENFB ","V020","320,1,N,0149,1","00600,1,9,N","011265,1,N,1","+0050,1","+0010,1","99999,9","81,1",,"07,1,+00600,1,99,9",,,"07,99,1,99,9,99,9,99999,9,99,9,99,9","09919,1,99999,9",,"MET075METAR ENFB 070550Z AUTO 32029KT 9999NDV -SHRA BKN020/// 05/01 Q0992 W///S6;",
"01488199999","2010-12-07T06:20:00","4","61.206389","1.828889","142.0","STATFJORD B OIL PLATFORM, NO","FM-15","ENFB ","V020","330,1,N,0159,1","00870,1,9,N","011265,1,N,1","+0050,1","+0010,1","99999,9",,,"02,1,+00750,1,99,9","07,1,+00870,1,99,9",,"07,99,1,99,9,99,9,99999,9,99,9,99,9","09919,1,99999,9",,"MET079METAR ENFB 070620Z AUTO 33031KT 9999NDV FEW025/// BKN029/// 05/01 Q0992 W///S6;",
"01488199999","2010-12-07T06:50:00","4","61.206389","1.828889","142.0","STATFJORD B OIL PLATFORM, NO","FM-15","ENFB ","V020","330,1,N,0175,1","22000,1,9,N","011265,1,N,1","+0040,1","+0010,1","99999,9",,,"04,1,+00600,1,99,9",,,"04,99,1,99,9,99,9,99999,9,99,9,99,9","09919,1,99999,9",,"MET069METAR ENFB 070650Z AUTO 33034KT 9999NDV SCT020/// 04/01 Q0992 W///S6;",
"01488199999","2010-12-07T07:20:00","4","61.206389","1.828889","142.0","STATFJORD B OIL PLATFORM, NO","FM-15","ENFB ","V020","340,1,N,0185,1","00630,1,9,N","011265,1,N,1","+0040,1","+0010,1","99999,9",,,"02,1,+00510,1,99,9","07,1,+00630,1,99,9",,"07,99,1,99,9,99,9,99999,9,99,9,99,9","09919,1,99999,9",,"MET079METAR ENFB 070720Z AUTO 34036KT 9999NDV FEW017/// BKN021/// 04/01 Q0992 W///S6;",
"01488199999","2010-12-07T07:50:00","4","61.206389","1.828889","142.0","STATFJORD B OIL PLATFORM, NO","FM-15","ENFB ","V020","350,1,N,0185,1","00780,1,9,N","011265,1,N,1","+0040,1","+0020,1","99999,9",,,"07,1,+00780,1,99,9",,,"07,99,1,99,9,99,9,99999,9,99,9,99,9","09929,1,99999,9",,"MET069METAR ENFB 070750Z AUTO 35036KT 9999NDV BKN026/// 04/02 Q0993 W///S6;",
"01488199999","2010-12-07T08:20:00","4","61.206389","1.828889","142.0","STATFJORD B OIL PLATFORM, NO","FM-15","ENFB ","V020","350,1,N,0170,1","00480,1,9,N","011265,1,N,1","+0030,1","+0010,1","99999,9","81,1",,"07,1,+00480,1,99,9","07,1,+01170,1,99,9",,"07,99,1,99,9,99,9,99999,9,99,9,99,9","09939,1,99999,9",,"MET085METAR ENFB 070820Z AUTO 35033KT 9999NDV -SHRA BKN016/// BKN039/// 03/01 Q0994 W///S6;",
"01488199999","2010-12-07T08:50:00","4","61.206389","1.828889","142.0","STATFJORD B OIL PLATFORM, NO","FM-15","ENFB ","V020","360,1,N,0149,1","00450,1,9,N","011265,1,N,1","+0040,1","+0020,1","99999,9","81,1",,"07,1,+00450,1,99,9","07,1,+01050,1,99,9",,"07,99,1,99,9,99,9,99999,9,99,9,99,9","09949,1,99999,9",,"MET085METAR ENFB 070850Z AUTO 36029KT 9999NDV -SHRA BKN015/// BKN035/// 04/02 Q0995 W///S6;",
"01488199999","2010-12-07T09:20:00","4","61.206389","1.828889","142.0","STATFJORD B OIL PLATFORM, NO","FM-15","ENFB ","V020","360,1,N,0154,1","00510,1,9,N","011265,1,N,1","+0040,1","+0020,1","99999,9",,,"07,1,+00510,1,99,9","07,1,+01470,1,99,9",,"07,99,1,99,9,99,9,99999,9,99,9,99,9","09949,1,99999,9",,"MET079METAR ENFB 070920Z AUTO 36030KT 9999NDV BKN017/// BKN049/// 04/02 Q0995 W///S6;",
"01488199999","2010-12-07T09:50:00","4","61.206389","1.828889","142.0","STATFJORD B OIL PLATFORM, NO","FM-15","ENFB ","V020","010,1,N,0149,1","00630,1,9,N","011265,1,N,1","+0040,1","+0020,1","99999,9",,,"07,1,+00630,1,99,9","07,1,+01500,1,99,9",,"07,99,1,99,9,99,9,99999,9,99,9,99,9","09959,1,99999,9",,"MET079METAR ENFB 070950Z AUTO 01029KT 9999NDV BKN021/// BKN054/// 04/02 Q0996 W///S6;",
"01488199999","2010-12-07T10:20:00","4","61.206389","1.828889","142.0","STATFJORD B OIL PLATFORM, NO","FM-15","ENFB ","V020","020,1,N,0118,1","00510,1,9,N","011265,1,N,1","+0040,1","+0010,1","99999,9",,,"07,1,+00510,1,99,9",,,"07,99,1,99,9,99,9,99999,9,99,9,99,9","09970,1,99999,9",,"MET069METAR ENFB 071020Z AUTO 02023KT 9999NDV BKN017/// 04/01 Q0997 W///S6;",
"01488199999","2010-12-07T10:50:00","4","61.206389","1.828889","142.0","STATFJORD B OIL PLATFORM, NO","FM-15","ENFB ","V020","010,1,N,0123,1","00510,1,9,N","011265,1,N,1","+0040,1","+0020,1","99999,9","81,1",,"07,1,+00510,1,99,9",,,"07,99,1,99,9,99,9,99999,9,99,9,99,9","09970,1,99999,9",,"MET075METAR ENFB 071050Z AUTO 01024KT 9999NDV -SHRA BKN017/// 04/02 Q0997 W///S6;",
"01488199999","2010-12-07T11:20:00","4","61.206389","1.828889","142.0","STATFJORD B OIL PLATFORM, NO","FM-15","ENFB ","V020","020,1,N,0118,1","00540,1,9,N","011265,1,N,1","+0030,1","+0010,1","99999,9",,,"07,1,+00540,1,99,9",,,"07,99,1,99,9,99,9,99999,9,99,9,99,9","09970,1,99999,9",,"MET069METAR ENFB 071120Z AUTO 02023KT 9999NDV BKN018/// 03/01 Q0997 W///S6;",
"01488199999","2010-12-07T11:50:00","4","61.206389","1.828889","142.0","STATFJORD B OIL PLATFORM, NO","FM-15","ENFB ","V020","010,1,N,0113,1","22000,1,9,N","011265,1,N,1","+0040,1","+0020,1","99999,9",,,"02,1,+00420,1,99,9","04,1,+00750,1,99,9",,"04,99,1,99,9,99,9,99999,9,99,9,99,9","09980,1,99999,9",,"MET079METAR ENFB 071150Z AUTO 01022KT 9999NDV FEW014/// SCT025/// 04/02 Q0998 W///S6;",
"01488199999","2010-12-07T12:20:00","4","61.206389","1.828889","142.0","STATFJORD B OIL PLATFORM, NO","FM-15","ENFB ","V020","010,1,N,0129,1","22000,1,9,N","011265,1,N,1","+0040,1","+0010,1","99999,9",,,"04,1,+00510,1,99,9",,,"04,99,1,99,9,99,9,99999,9,99,9,99,9","09980,1,99999,9",,"MET069METAR ENFB 071220Z AUTO 01025KT 9999NDV SCT017/// 04/01 Q0998 W///S6;",
"01488199999","2010-12-07T12:50:00","4","61.206389","1.828889","142.0","STATFJORD B OIL PLATFORM, NO","FM-15","ENFB ","V020","360,1,N,0103,1","00630,1,9,N","011265,1,N,1","+0040,1","+0010,1","99999,9",,,"07,1,+00630,1,99,9",,,"07,99,1,99,9,99,9,99999,9,99,9,99,9","09980,1,99999,9",,"MET069METAR ENFB 071250Z AUTO 36020KT 9999NDV BKN021/// 04/01 Q0998 W///S5;",
"01488199999","2010-12-07T13:20:00","4","61.206389","1.828889","142.0","STATFJORD B OIL PLATFORM, NO","FM-15","ENFB ","V020","350,1,N,0118,1","00570,1,9,N","011265,1,N,1","+0040,1","+0010,1","99999,9","81,1",,"07,1,+00570,1,99,9","07,1,+01080,1,99,9",,"07,99,1,99,9,99,9,99999,9,99,9,99,9","09980,1,99999,9",,"MET085METAR ENFB 071320Z AUTO 35023KT 9999NDV -SHRA BKN019/// BKN036/// 04/01 Q0998 W///S5;",
"01488199999","2010-12-07T13:50:00","4","61.206389","1.828889","142.0","STATFJORD B OIL PLATFORM, NO","FM-15","ENFB ","V020","340,1,N,0108,1","22000,1,9,N","011265,1,N,1","+0040,1","+0010,1","99999,9",,,"04,1,+00570,1,99,9",,,"04,99,1,99,9,99,9,99999,9,99,9,99,9","09980,1,99999,9",,"MET069METAR ENFB 071350Z AUTO 34021KT 9999NDV SCT019/// 04/01 Q0998 W///S6;",
"01488199999","2010-12-07T14:20:00","4","61.206389","1.828889","142.0","STATFJORD B OIL PLATFORM, NO","FM-15","ENFB ","V020","330,1,N,0093,1","00570,1,9,N","004700,1,N,1","+0040,1","+0010,1","99999,9","62,1",,"07,1,+00570,1,99,9",,,"07,99,1,99,9,99,9,99999,9,99,9,99,9","09990,1,99999,9",,"MET072METAR ENFB 071420Z AUTO 33018KT 4700NDV RA BKN019/// 04/01 Q0999 W///S6;",
"01488199999","2010-12-07T14:50:00","4","61.206389","1.828889","142.0","STATFJORD B OIL PLATFORM, NO","FM-15","ENFB ","V020","360,1,N,0087,1","00540,1,9,N","011265,1,N,1","+0040,1","+0010,1","99999,9",,,"07,1,+00540,1,99,9",,,"07,99,1,99,9,99,9,99999,9,99,9,99,9","09990,1,99999,9",,"MET069METAR ENFB 071450Z AUTO 36017KT 9999NDV BKN018/// 04/01 Q0999 W///S5;",
"01488199999","2010-12-07T15:20:00","4","61.206389","1.828889","142.0","STATFJORD B OIL PLATFORM, NO","FM-15","ENFB ","V020","010,1,N,0098,1","00630,1,9,N","011265,1,N,1","+0040,1","+0010,1","99999,9","81,1",,"07,1,+00630,1,99,9",,,"07,99,1,99,9,99,9,99999,9,99,9,99,9","09990,1,99999,9",,"MET075METAR ENFB 071520Z AUTO 01019KT 9999NDV -SHRA BKN021/// 04/01 Q0999 W///S5;",
"01488199999","2010-12-07T15:50:00","4","61.206389","1.828889","142.0","STATFJORD B OIL PLATFORM, NO","FM-15","ENFB ","V020","020,1,N,0087,1","22000,1,9,N","011265,1,N,1","+0040,1","+0000,1","99999,9",,,"04,1,+00720,1,99,9",,,"04,99,1,99,9,99,9,99999,9,99,9,99,9","09990,1,99999,9",,"MET069METAR ENFB 071550Z AUTO 02017KT 9999NDV SCT024/// 04/00 Q0999 W///S5;",
"01488199999","2010-12-07T16:20:00","4","61.206389","1.828889","142.0","STATFJORD B OIL PLATFORM, NO","FM-15","ENFB ","V020","020,1,N,0087,1","00630,1,9,N","011265,1,N,1","+0040,1","+0000,1","99999,9",,,"07,1,+00630,1,99,9",,,"07,99,1,99,9,99,9,99999,9,99,9,99,9","09990,1,99999,9",,"MET069METAR ENFB 071620Z AUTO 02017KT 9999NDV BKN021/// 04/00 Q0999 W///S5;",
"01488199999","2010-12-07T16:50:00","4","61.206389","1.828889","142.0","STATFJORD B OIL PLATFORM, NO","FM-15","ENFB ","V020","020,1,N,0093,1","00690,1,9,N","011265,1,N,1","+0040,1","+0000,1","99999,9","81,1",,"07,1,+00690,1,99,9","07,1,+01800,1,99,9",,"07,99,1,99,9,99,9,99999,9,99,9,99,9","09990,1,99999,9",,"MET085METAR ENFB 071650Z AUTO 02018KT 9999NDV -SHRA BKN023/// BKN063/// 04/00 Q0999 W///S5;",
"01488199999","2010-12-07T17:20:00","4","61.206389","1.828889","142.0","STATFJORD B OIL PLATFORM, NO","FM-15","ENFB ","V020","030,1,N,0082,1","01140,1,C,N","011265,1,N,1","+0040,1","+0000,1","99999,9",,,"04,1,+00570,1,99,9","04,1,+01140,1,99,9","07,1,+01800,1,99,9","07,99,1,99,9,99,9,99999,9,99,9,99,9","10000,1,99999,9",,"MET089METAR ENFB 071720Z AUTO 03016KT 9999NDV SCT019/// SCT038/// BKN069/// 04/00 Q1000 W///S5;",
"01488199999","2010-12-07T17:50:00","4","61.206389","1.828889","142.0","STATFJORD B OIL PLATFORM, NO","FM-15","ENFB ","V020","030,1,N,0072,1","00720,1,9,N","011265,1,N,1","+0040,1","+0010,1","99999,9","81,1",,"07,1,+00720,1,99,9",,,"07,99,1,99,9,99,9,99999,9,99,9,99,9","10000,1,99999,9",,"MET075METAR ENFB 071750Z AUTO 03014KT 9999NDV -SHRA BKN024/// 04/01 Q1000 W///S5;",
"01488199999","2010-12-07T18:20:00","4","61.206389","1.828889","142.0","STATFJORD B OIL PLATFORM, NO","FM-15","ENFB ","V020","030,1,N,0093,1","00540,1,9,N","011265,1,N,1","+0040,1","+0010,1","99999,9",,,"07,1,+00540,1,99,9",,,"07,99,1,99,9,99,9,99999,9,99,9,99,9","10000,1,99999,9",,"MET069METAR ENFB 071820Z AUTO 03018KT 9999NDV BKN018/// 04/01 Q1000 W///S5;",
"01488199999","2010-12-07T18:50:00","4","61.206389","1.828889","142.0","STATFJORD B OIL PLATFORM, NO","FM-15","ENFB ","V020","040,1,N,0098,1","00390,1,9,N","011265,1,N,1","+0040,1","+0010,1","99999,9",,,"07,1,+00390,1,99,9",,,"07,99,1,99,9,99,9,99999,9,99,9,99,9","10000,1,99999,9",,"MET069METAR ENFB 071850Z AUTO 04019KT 9999NDV BKN013/// 04/01 Q1000 W///S5;",
"01488199999","2010-12-07T19:20:00","4","61.206389","1.828889","142.0","STATFJORD B OIL PLATFORM, NO","FM-15","ENFB ","V020","040,1,N,0108,1","00300,1,9,N","011265,1,N,1","+0030,1","+0010,1","99999,9",,,"07,1,+00300,1,99,9",,,"07,99,1,99,9,99,9,99999,9,99,9,99,9","10000,1,99999,9",,"MET069METAR ENFB 071920Z AUTO 04021KT 9999NDV BKN010/// 03/01 Q1000 W///S5;",
"01488199999","2010-12-07T19:50:00","4","61.206389","1.828889","142.0","STATFJORD B OIL PLATFORM, NO","FM-15","ENFB ","V020","040,1,N,0077,1","00330,1,9,N","011265,1,N,1","+0030,1","+0010,1","99999,9",,,"07,1,+00330,1,99,9",,,"07,99,1,99,9,99,9,99999,9,99,9,99,9","10010,1,99999,9",,"MET069METAR ENFB 071950Z AUTO 04015KT 9999NDV BKN011/// 03/01 Q1001 W///S5;",
"01488199999","2010-12-07T20:20:00","4","61.206389","1.828889","142.0","STATFJORD B OIL PLATFORM, NO","FM-15","ENFB ","V020","040,1,N,0072,1","00330,1,9,N","011265,1,N,1","+0040,1","+0020,1","99999,9",,,"07,1,+00330,1,99,9",,,"07,99,1,99,9,99,9,99999,9,99,9,99,9","10010,1,99999,9",,"MET069METAR ENFB 072020Z AUTO 04014KT 9999NDV BKN011/// 04/02 Q1001 W///S5;",
"01488199999","2010-12-07T20:50:00","4","61.206389","1.828889","142.0","STATFJORD B OIL PLATFORM, NO","FM-15","ENFB ","V020","030,1,N,0087,1","00480,1,9,N","011265,1,N,1","+0030,1","+0010,1","99999,9",,,"07,1,+00480,1,99,9","08,1,+01440,1,99,9",,"08,99,1,99,9,99,9,99999,9,99,9,99,9","10010,1,99999,9",,"MET079METAR ENFB 072050Z AUTO 03017KT 9999NDV BKN016/// OVC048/// 03/01 Q1001 W///S5;",
"01488199999","2010-12-07T21:20:00","4","61.206389","1.828889","142.0","STATFJORD B OIL PLATFORM, NO","FM-15","ENFB ","V020","030,1,N,0077,1","00570,1,9,N","011265,1,N,1","+0030,1","+0000,1","99999,9",,,"07,1,+00570,1,99,9","07,1,+01380,1,99,9",,"07,99,1,99,9,99,9,99999,9,99,9,99,9","10010,1,99999,9",,"MET079METAR ENFB 072120Z AUTO 03015KT 9999NDV BKN019/// BKN046/// 03/00 Q1001 W///S5;",
"01488199999","2010-12-07T21:50:00","4","61.206389","1.828889","142.0","STATFJORD B OIL PLATFORM, NO","FM-15","ENFB ","V020","020,1,N,0072,1","00600,1,9,N","011265,1,N,1","+0030,1","+0000,1","99999,9",,,"07,1,+00600,1,99,9","07,1,+03600,1,99,9",,"07,99,1,99,9,99,9,99999,9,99,9,99,9","10010,1,99999,9",,"MET079METAR ENFB 072150Z AUTO 02014KT 9999NDV BKN020/// BKN120/// 03/00 Q1001 W///S5;",
"01488199999","2010-12-07T22:20:00","4","61.206389","1.828889","142.0","STATFJORD B OIL PLATFORM, NO","FM-15","ENFB ","V020","030,1,N,0077,1","00480,1,9,N","011265,1,N,1","+0040,1","+0010,1","99999,9",,,"07,1,+00480,1,99,9",,,"07,99,1,99,9,99,9,99999,9,99,9,99,9","10020,1,99999,9",,"MET069METAR ENFB 072220Z AUTO 03015KT 9999NDV BKN016/// 04/01 Q1002 W///S5;",
"01488199999","2010-12-07T22:50:00","4","61.206389","1.828889","142.0","STATFJORD B OIL PLATFORM, NO","FM-15","ENFB ","V020","040,1,N,0108,1","00870,1,9,N","011265,1,N,1","+0030,1","+0010,1","99999,9",,,"02,1,+00300,1,99,9","07,1,+00870,1,99,9","07,1,+01500,1,99,9","07,99,1,99,9,99,9,99999,9,99,9,99,9","10020,1,99999,9",,"MET089METAR ENFB 072250Z AUTO 04021KT 9999NDV FEW010/// BKN029/// BKN054/// 03/01 Q1002 W///S5;",
"01488199999","2010-12-07T23:20:00","4","61.206389","1.828889","142.0","STATFJORD B OIL PLATFORM, NO","FM-15","ENFB ","V020","350,1,N,0154,1","00270,1,9,N","011265,1,N,1","+0020,1","+0000,1","99999,9","81,1",,"07,1,+00270,1,99,9","07,1,+01500,1,99,9",,"07,99,1,99,9,99,9,99999,9,99,9,99,9","10010,1,99999,9",,"MET085METAR ENFB 072320Z AUTO 35030KT 9999NDV -SHRA BKN009/// BKN058/// 02/00 Q1001 W///S5;",
"01488199999","2010-12-07T23:50:00","4","61.206389","1.828889","142.0","STATFJORD B OIL PLATFORM, NO","FM-15","ENFB ","V020","350,1,N,0149,1","00210,1,9,N","006000,1,N,1","+0010,1","+0000,1","99999,9","82,1",,"07,1,+00210,1,99,9","07,1,+00900,1,99,9",,"07,99,1,99,9,99,9,99999,9,99,9,99,9","10020,1,99999,9",,"MET084METAR ENFB 072350Z AUTO 35029KT 6000NDV SHRA BKN007/// BKN030/// 01/00 Q1002 W///S5;",
"01488199999","2010-12-08T00:20:00","4","61.206389","1.828889","142.0","STATFJORD B OIL PLATFORM, NO","FM-15","ENFB ","V020","999,9,9,9999,9","00210,1,9,N","011265,1,N,1","+0010,1","+0000,1","99999,9","81,1",,"07,1,+00210,1,99,9",,,"07,99,1,99,9,99,9,99999,9,99,9,99,9","10031,1,99999,9",,"MET075METAR ENFB 080020Z AUTO /////KT 9999NDV -SHRA BKN007/// 01/00 Q1003 W///S5;",
"01488199999","2010-12-08T00:50:00","4","61.206389","1.828889","142.0","STATFJORD B OIL PLATFORM, NO","FM-15","ENFB ","V020","360,1,N,0123,1","00180,1,9,N","002800,1,N,1","+0010,1","+0000,1","99999,9","85,1",,"07,1,+00180,1,99,9","07,1,+01110,1,99,9","07,1,+01800,1,99,9","07,99,1,99,9,99,9,99999,9,99,9,99,9","10031,1,99999,9",,"MET095METAR ENFB 080050Z AUTO 36024KT 2800NDV -SHSN BKN006/// BKN037/// BKN061/// 01/00 Q1003 W///S5;",
"01488199999","2010-12-08T01:20:00","4","61.206389","1.828889","142.0","STATFJORD B OIL PLATFORM, NO","FM-15","ENFB ","V020","020,1,N,0134,1","00180,1,9,N","011265,1,N,1","+0010,1","+0010,1","99999,9","61,1",,"07,1,+00180,1,99,9","07,1,+01290,1,99,9",,"07,99,1,99,9,99,9,99999,9,99,9,99,9","10020,1,99999,9","0195,1","MET086METAR ENFB 080120Z AUTO 02026G38KT 9999NDV -RA BKN006/// BKN043/// 01/01 Q1002 W///S5;",
"01488199999","2010-12-08T01:50:00","4","61.206389","1.828889","142.0","STATFJORD B OIL PLATFORM, NO","FM-15","ENFB ","V020","360,1,N,0108,1","00450,1,C,N","011265,1,N,1","+0020,1","+0010,1","99999,9",,,"02,1,+00270,1,99,9","04,1,+00450,1,99,9","07,1,+03000,1,99,9","07,99,1,99,9,99,9,99999,9,99,9,99,9","10031,1,99999,9",,"MET089METAR ENFB 080150Z AUTO 36021KT 9999NDV FEW009/// SCT015/// BKN100/// 02/01 Q1003 W///S5;",
"01488199999","2010-12-08T02:20:00","4","61.206389","1.828889","142.0","STATFJORD B OIL PLATFORM, NO","FM-15","ENFB ","V020","360,1,N,0144,1","00840,1,C,N","011265,1,N,1","+0030,1","+9999,9","99999,9",,,"02,1,+00240,1,99,9","04,1,+00840,1,99,9","07,1,+02700,1,99,9","07,99,1,99,9,99,9,99999,9,99,9,99,9","10031,1,99999,9",,"MET089METAR ENFB 080220Z AUTO 36028KT 9999NDV FEW008/// SCT028/// BKN092/// 03/// Q1003 W///S5;",
"01488199999","2010-12-08T02:50:00","4","61.206389","1.828889","142.0","STATFJORD B OIL PLATFORM, NO","FM-15","ENFB ","V020","350,1,N,0139,1","00810,1,9,N","011265,1,N,1","+0030,1","+9999,9","99999,9","81,1",,"07,1,+00810,1,99,9","07,1,+03000,1,99,9",,"07,99,1,99,9,99,9,99999,9,99,9,99,9","10031,1,99999,9","0195,1","MET088METAR ENFB 080250Z AUTO 35027G38KT 9999NDV -SHRA BKN027/// BKN100/// 03/// Q1003 W///S5;",
"01488199999","2010-12-08T03:20:00","4","61.206389","1.828889","142.0","STATFJORD B OIL PLATFORM, NO","FM-15","ENFB ","V020","360,1,N,0149,1","02100,1,C,N","011265,1,N,1","+0030,1","+9999,9","99999,9",,,"02,1,+01050,1,99,9","04,1,+02100,1,99,9","07,1,+03300,1,99,9","07,99,1,99,9,99,9,99999,9,99,9,99,9","10041,1,99999,9",,"MET089METAR ENFB 080320Z AUTO 36029KT 9999NDV FEW035/// SCT072/// BKN110/// 03/// Q1004 W///S5;",
"01488199999","2010-12-08T03:50:00","4","61.206389","1.828889","142.0","STATFJORD B OIL PLATFORM, NO","FM-15","ENFB ","V020","360,1,N,0149,1","00870,1,9,N","011265,1,N,1","+0030,1","+9999,9","99999,9","61,1",,"07,1,+00870,1,99,9","07,1,+02400,1,99,9","07,1,+03900,1,99,9","07,99,1,99,9,99,9,99999,9,99,9,99,9","10041,1,99999,9",,"MET093METAR ENFB 080350Z AUTO 36029KT 9999NDV -RA BKN029/// BKN085/// BKN130/// 03/// Q1004 W///S5;",
"01488199999","2010-12-08T04:20:00","4","61.206389","1.828889","142.0","STATFJORD B OIL PLATFORM, NO","FM-15","ENFB ","V020","360,1,N,0149,1","00780,1,9,N","011265,1,N,1","+0020,1","+9999,9","99999,9","81,1",,"07,1,+00780,1,99,9",,,"07,99,1,99,9,99,9,99999,9,99,9,99,9","10041,1,99999,9",,"MET075METAR ENFB 080420Z AUTO 36029KT 9999NDV -SHRA BKN026/// 02/// Q1004 W///S5;",
"01488199999","2010-12-08T04:50:00","4","61.206389","1.828889","142.0","STATFJORD B OIL PLATFORM, NO","FM-15","ENFB ","V020","350,1,N,0175,1","00810,1,9,N","011265,1,N,1","+0020,1","+9999,9","99999,9",,,"07,1,+00810,1,99,9",,,"07,99,1,99,9,99,9,99999,9,99,9,99,9","10041,1,99999,9",,"MET069METAR ENFB 080450Z AUTO 35034KT 9999NDV BKN027/// 02/// Q1004 W///S5;",
"01488199999","2010-12-08T05:20:00","4","61.206389","1.828889","142.0","STATFJORD B OIL PLATFORM, NO","FM-15","ENFB ","V020","360,1,N,0154,1","22000,1,9,N","011265,1,N,1","+0020,1","-0020,1","99999,9",,,"04,1,+00840,1,99,9",,,"04,99,1,99,9,99,9,99999,9,99,9,99,9","10051,1,99999,9",,"MET070METAR ENFB 080520Z AUTO 36030KT 9999NDV SCT028/// 02/M02 Q1005 W///S5;",
"01488199999","2010-12-08T05:50:00","4","61.206389","1.828889","142.0","STATFJORD B OIL PLATFORM, NO","FM-15","ENFB ","V020","350,1,N,0165,1","00780,1,9,N","011265,1,N,1","+0030,1","-0040,1","99999,9",,,"07,1,+00780,1,99,9","07,1,+01500,1,99,9",,"07,99,1,99,9,99,9,99999,9,99,9,99,9","10051,1,99999,9",,"MET080METAR ENFB 080550Z AUTO 35032KT 9999NDV BKN026/// BKN052/// 03/M04 Q1005 W///S5;",
"01488199999","2010-12-08T06:20:00","4","61.206389","1.828889","142.0","STATFJORD B OIL PLATFORM, NO","FM-15","ENFB ","V020","350,1,N,0154,1","22000,1,9,N","011265,1,N,1","+0030,1","-0060,1","99999,9",,,"04,1,+01230,1,99,9",,,"04,99,1,99,9,99,9,99999,9,99,9,99,9","10051,1,99999,9",,"MET070METAR ENFB 080620Z AUTO 35030KT 9999NDV SCT041/// 03/M06 Q1005 W///S5;",
"01488199999","2010-12-08T06:50:00","4","61.206389","1.828889","142.0","STATFJORD B OIL PLATFORM, NO","FM-15","ENFB ","V020","340,1,N,0154,1","01260,1,9,N","011265,1,N,1","+0030,1","-0110,1","99999,9",,,"07,1,+01260,1,99,9",,,"07,99,1,99,9,99,9,99999,9,99,9,99,9","10051,1,99999,9",,"MET070METAR ENFB 080650Z AUTO 34030KT 9999NDV BKN042/// 03/M11 Q1005 W///S5;",
"01488199999","2010-12-08T07:20:00","4","61.206389","1.828889","142.0","STATFJORD B OIL PLATFORM, NO","FM-15","ENFB ","V020","340,1,N,0144,1","06300,1,9,N","011265,1,N,1","+0020,1","-0100,1","99999,9",,,"04,1,+01500,1,99,9","07,1,+06300,1,99,9",,"07,99,1,99,9,99,9,99999,9,99,9,99,9","10061,1,99999,9",,"MET080METAR ENFB 080720Z AUTO 34028KT 9999NDV SCT050/// BKN210/// 02/M10 Q1006 W///S5;",
"01488199999","2010-12-08T07:50:00","4","61.206389","1.828889","142.0","STATFJORD B OIL PLATFORM, NO","FM-15","ENFB ","V020","350,1,N,0149,1","01500,1,9,N","011265,1,N,1","+0020,1","-0060,1","99999,9",,,"07,1,+01500,1,99,9",,,"07,99,1,99,9,99,9,99999,9,99,9,99,9","10061,1,99999,9","0201,1","MET073METAR ENFB 080750Z AUTO 35029G39KT 9999NDV BKN052/// 02/M06 Q1006 W///S5;",
"01488199999","2010-12-08T08:20:00","4","61.206389","1.828889","142.0","STATFJORD B OIL PLATFORM, NO","FM-15","ENFB ","V020","350,1,N,0134,1","01500,1,C,N","011265,1,N,1","+0030,1","-0100,1","99999,9",,,"04,1,+01260,1,99,9","04,1,+01500,1,99,9","07,1,+02700,1,99,9","07,99,1,99,9,99,9,99999,9,99,9,99,9","10071,1,99999,9",,"MET090METAR ENFB 080820Z AUTO 35026KT 9999NDV SCT042/// SCT053/// BKN093/// 03/M10 Q1007 W///S5;",
"01488199999","2010-12-08T08:50:00","4","61.206389","1.828889","142.0","STATFJORD B OIL PLATFORM, NO","FM-15","ENFB ","V020","340,1,N,0118,1","05400,1,9,N","011265,1,N,1","+0020,1","-0110,1","99999,9",,,"02,1,+01500,1,99,9","07,1,+05400,1,99,9",,"07,99,1,99,9,99,9,99999,9,99,9,99,9","10071,1,99999,9",,"MET080METAR ENFB 080850Z AUTO 34023KT 9999NDV FEW055/// BKN180/// 02/M11 Q1007 W///S6;",
"01488199999","2010-12-08T09:20:00","4","61.206389","1.828889","142.0","STATFJORD B OIL PLATFORM, NO","FM-15","ENFB ","V020","330,1,N,0103,1","22000,1,9,N","011265,1,N,1","+0030,1","-0100,1","99999,9",,,"02,1,+01500,1,99,9",,,"02,99,1,99,9,99,9,99999,9,99,9,99,9","10071,1,99999,9",,"MET070METAR ENFB 080920Z AUTO 33020KT 9999NDV FEW055/// 03/M10 Q1007 W///S6;",
"01488199999","2010-12-08T09:50:00","4","61.206389","1.828889","142.0","STATFJORD B OIL PLATFORM, NO","FM-15","ENFB ","V020","330,1,N,0098,1","01200,1,9,N","011265,1,N,1","+0020,1","-0070,1","99999,9","81,1",,"07,1,+01200,1,99,9",,,"07,99,1,99,9,99,9,99999,9,99,9,99,9","10081,1,99999,9",,"MET076METAR ENFB 080950Z AUTO 33019KT 9999NDV -SHRA BKN040/// 02/M07 Q1008 W///S5;",
"01488199999","2010-12-08T10:20:00","4","61.206389","1.828889","142.0","STATFJORD B OIL PLATFORM, NO","FM-15","ENFB ","V020","320,1,N,0093,1","22000,1,9,N","011265,1,N,1","+0020,1","-0060,1","99999,9",,,,,,"00,99,1,99,9,99,9,99999,9,99,9,99,9","10081,1,99999,9",,"MET064METAR ENFB 081020Z AUTO 32018KT 9999NDV NCD 02/M06 Q1008 W///S5;","Q01    003SCCGA1"
"01488199999","2010-12-08T10:50:00","4","61.206389","1.828889","142.0","STATFJORD B OIL PLATFORM, NO","FM-15","ENFB ","V020","280,1,N,0113,1","22000,1,9,N","011265,1,N,1","+0020,1","-0050,1","99999,9",,,"02,1,+01410,1,99,9","04,1,+03300,1,99,9",,"04,99,1,99,9,99,9,99999,9,99,9,99,9","10081,1,99999,9",,"MET080METAR ENFB 081050Z AUTO 28022KT 9999NDV FEW047/// SCT110/// 02/M05 Q1008 W///S5;",
"01488199999","2010-12-08T11:20:00","4","61.206389","1.828889","142.0","STATFJORD B OIL PLATFORM, NO","FM-15","ENFB ","V020","290,1,N,0082,1","22000,1,9,N","011265,1,N,1","+0020,1","-0060,1","99999,9",,,"02,1,+01500,1,99,9","04,1,+02700,1,99,9",,"04,99,1,99,9,99,9,99999,9,99,9,99,9","10081,1,99999,9",,"MET080METAR ENFB 081120Z AUTO 29016KT 9999NDV FEW058/// SCT096/// 02/M06 Q1008 W///S5;",
"01488199999","2010-12-08T11:50:00","4","61.206389","1.828889","142.0","STATFJORD B OIL PLATFORM, NO","FM-15","ENFB ","V020","270,1,N,0098,1","22000,1,9,N","011265,1,N,1","+0020,1","-0060,1","99999,9",,,"02,1,+00600,1,99,9","04,1,+02100,1,99,9",,"04,99,1,99,9,99,9,99999,9,99,9,99,9","10071,1,99999,9",,"MET080METAR ENFB 081150Z AUTO 27019KT 9999NDV FEW020/// SCT070/// 02/M06 Q1007 W///S5;",
"01488199999","2010-12-08T12:20:00","4","61.206389","1.828889","142.0","STATFJORD B OIL PLATFORM, NO","FM-15","ENFB ","V020","260,1,N,0082,1","22000,1,9,N","011265,1,N,1","+0020,1","-0040,1","99999,9",,,"02,1,+01020,1,99,9",,,"02,99,1,99,9,99,9,99999,9,99,9,99,9","10061,1,99999,9",,"MET070METAR ENFB 081220Z AUTO 26016KT 9999NDV FEW034/// 02/M04 Q1006 W///S5;",
"01488199999","2010-12-08T12:50:00","4","61.206389","1.828889","142.0","STATFJORD B OIL PLATFORM, NO","FM-15","ENFB ","V020","260,1,N,0123,1","00330,1,9,N","011265,1,N,1","+0010,1","-0020,1","99999,9","81,1",,"07,1,+00330,1,99,9","07,1,+01140,1,99,9",,"07,99,1,99,9,99,9,99999,9,99,9,99,9","10061,1,99999,9",,"MET086METAR ENFB 081250Z AUTO 26024KT 9999NDV -SHRA BKN011/// BKN038/// 01/M02 Q1006 W///S5;",
"01488199999","2010-12-08T13:20:00","4","61.206389","1.828889","142.0","STATFJORD B OIL PLATFORM, NO","FM-15","ENFB ","V020","330,1,N,0170,1","00210,1,9,N","002500,1,N,1","+0000,1","-0010,1","99999,9","85,1",,"07,1,+00210,1,99,9",,,"07,99,1,99,9,99,9,99999,9,99,9,99,9","10041,1,99999,9",,"MET076METAR ENFB 081320Z AUTO 33033KT 2500NDV -SHSN BKN007/// 00/M01 Q1004 W///S5;",
"01488199999","2010-12-08T13:50:00","4","61.206389","1.828889","142.0","STATFJORD B OIL PLATFORM, NO","FM-15","ENFB ","V020","350,1,N,0190,1","00270,1,9,N","003000,1,N,1","-0010,1","-0010,1","99999,9","10,1","63,1","07,1,+00270,1,99,9",,,"07,99,1,99,9,99,9,99999,9,99,9,99,9","10051,1,99999,9",,"MET085METAR ENFB 081350Z AUTO 35037KT 3000NDV +RA BR BKN009/// M01/M01 Q1005 RERASN W///S5;",
"01488199999","2010-12-08T14:20:00","4","61.206389","1.828889","142.0","STATFJORD B OIL PLATFORM, NO","FM-15","ENFB ","V020","350,1,N,0159,1","00510,1,9,N","007000,1,N,1","-0010,1","-0010,1","99999,9","61,1",,"07,1,+00510,1,99,9",,,"07,99,1,99,9,99,9,99999,9,99,9,99,9","10061,1,99999,9",,"MET082METAR ENFB 081420Z AUTO 35031KT 7000NDV -RA BKN017/// M01/M01 Q1006 RERASN W///S5;",
"01488199999","2010-12-08T14:50:00","4","61.206389","1.828889","142.0","STATFJORD B OIL PLATFORM, NO","FM-15","ENFB ","V020","330,1,N,0170,1","01170,1,9,N","011265,1,N,1","-0010,1","-0020,1","99999,9","81,1",,"07,1,+01170,1,99,9",,,"07,99,1,99,9,99,9,99999,9,99,9,99,9","10051,1,99999,9",,"MET084METAR ENFB 081450Z AUTO 33033KT 9999NDV -SHRA BKN039/// M01/M02 Q1005 RESHRA W///S5;",
"01488199999","2010-12-08T15:20:00","4","61.206389","1.828889","142.0","STATFJORD B OIL PLATFORM, NO","FM-15","ENFB ","V020","340,1,N,0149,1","01170,1,9,N","011265,1,N,1","+0000,1","+9999,9","99999,9",,,"07,1,+01170,1,99,9","07,1,+02100,1,99,9",,"07,99,1,99,9,99,9,99999,9,99,9,99,9","10061,1,99999,9",,"MET079METAR ENFB 081520Z AUTO 34029KT 9999NDV BKN039/// BKN073/// 00/// Q1006 W///S5;",
"01488199999","2010-12-08T15:50:00","4","61.206389","1.828889","142.0","STATFJORD B OIL PLATFORM, NO","FM-15","ENFB ","V020","340,1,N,0154,1","00990,1,9,N","011265,1,N,1","+0000,1","+9999,9","99999,9",,,"07,1,+00990,1,99,9",,,"07,99,1,99,9,99,9,99999,9,99,9,99,9","10061,1,99999,9",,"MET069METAR ENFB 081550Z AUTO 34030KT 9999NDV BKN033/// 00/// Q1006 W///S5;",
"01488199999","2010-12-08T16:20:00","4","61.206389","1.828889","142.0","STATFJORD B OIL PLATFORM, NO","FM-15","ENFB ","V020","350,1,N,0154,1","00900,1,9,N","008000,1,N,1","-0010,1","-0050,1","99999,9","81,1",,"07,1,+00900,1,99,9",,,"07,99,1,99,9,99,9,99999,9,99,9,99,9","10071,1,99999,9",,"MET077METAR ENFB 081620Z AUTO 35030KT 8000NDV -SHRA BKN030/// M01/M05 Q1007 W///S5;",
"01488199999","2010-12-08T16:50:00","4","61.206389","1.828889","142.0","STATFJORD B OIL PLATFORM, NO","FM-15","ENFB ","V020","340,1,N,0149,1","22000,1,9,N","011265,1,N,1","+0010,1","-0040,1","99999,9",,,"04,1,+00810,1,99,9",,,"04,99,1,99,9,99,9,99999,9,99,9,99,9","10071,1,99999,9",,"MET070METAR ENFB 081650Z AUTO 34029KT 9999NDV SCT027/// 01/M04 Q1007 W///S5;",
"01488199999","2010-12-08T17:20:00","4","61.206389","1.828889","142.0","STATFJORD B OIL PLATFORM, NO","FM-15","ENFB ","V020","320,1,N,0154,1","01200,1,9,N","011265,1,N,1","+0010,1","-0030,1","99999,9",,,"02,1,+00510,1,99,9","07,1,+01200,1,99,9",,"07,99,1,99,9,99,9,99999,9,99,9,99,9","10071,1,99999,9",,"MET080METAR ENFB 081720Z AUTO 32030KT 9999NDV FEW017/// BKN040/// 01/M03 Q1007 W///S5;",
"01488199999","2010-12-08T17:50:00","4","61.206389","1.828889","142.0","STATFJORD B OIL PLATFORM, NO","FM-15","ENFB ","V020","320,1,N,0154,1","00780,1,9,N","011265,1,N,1","+0010,1","-0020,1","99999,9","71,1",,"07,1,+00780,1,99,9",,,"07,99,1,99,9,99,9,99999,9,99,9,99,9","10071,1,99999,9",,"MET074METAR ENFB 081750Z AUTO 32030KT 9999NDV -SN BKN026/// 01/M02 Q1007 W///S6;",
"01488199999","2010-12-08T18:20:00","4","61.206389","1.828889","142.0","STATFJORD B OIL PLATFORM, NO","FM-15","ENFB ","V020","340,1,N,0139,1","00360,1,9,N","001100,1,N,1","-0010,1","-0020,1","99999,9","10,1","85,1","07,1,+00360,1,99,9",,,"07,99,1,99,9,99,9,99999,9,99,9,99,9","10081,1,99999,9",,"MET080METAR ENFB 081820Z AUTO 34027KT 1100NDV -SHSN BR BKN012/// M01/M02 Q1008 W///S6;",
"01488199999","2010-12-08T18:50:00","4","61.206389","1.828889","142.0","STATFJORD B OIL PLATFORM, NO","FM-15","ENFB ","V020","330,1,N,0190,1","00690,1,9,N","004700,1,N,1","+0000,1","-0010,1","99999,9","71,1",,"02,1,+00510,1,99,9","07,1,+00690,1,99,9",,"07,99,1,99,9,99,9,99999,9,99,9,99,9","10071,1,99999,9",,"MET084METAR ENFB 081850Z AUTO 33037KT 4700NDV -SN FEW017/// BKN023/// 00/M01 Q1007 W///S5;",
"01488199999","2010-12-08T19:20:00","4","61.206389","1.828889","142.0","STATFJORD B OIL PLATFORM, NO","FM-15","ENFB ","V020","320,1,N,0185,1","00630,1,9,N","011265,1,N,1","+0000,1","-0010,1","99999,9","81,1",,"07,1,+00630,1,99,9",,,"07,99,1,99,9,99,9,99999,9,99,9,99,9","10081,1,99999,9",,"MET076METAR ENFB 081920Z AUTO 32036KT 9999NDV -SHRA BKN021/// 00/M01 Q1008 W///S6;",
"01488199999","2010-12-08T19:50:00","4","61.206389","1.828889","142.0","STATFJORD B OIL PLATFORM, NO","FM-15","ENFB ","V020","320,1,N,0190,1","01080,1,9,N","011265,1,N,1","+0010,1","-0010,1","99999,9","81,1",,"04,1,+00480,1,99,9","07,1,+01080,1,99,9",,"07,99,1,99,9,99,9,99999,9,99,9,99,9","10081,1,99999,9",,"MET086METAR ENFB 081950Z AUTO 32037KT 9999NDV -SHRA SCT016/// BKN036/// 01/M01 Q1008 W///S6;",
"01488199999","2010-12-08T20:20:00","4","61.206389","1.828889","142.0","STATFJORD B OIL PLATFORM, NO","FM-15","ENFB ","V020","350,1,N,0206,1","00750,1,9,N","011265,1,N,1","+0010,1","-0020,1","99999,9","81,1",,"02,1,+00330,1,99,9","07,1,+00750,1,99,9","07,1,+02100,1,99,9","07,99,1,99,9,99,9,99999,9,99,9,99,9","10071,1,99999,9",,"MET096METAR ENFB 082020Z AUTO 35040KT 9999NDV -SHRA FEW011/// BKN025/// BKN070/// 01/M02 Q1007 W///S6;",
"01488199999","2010-12-08T20:50:00","4","61.206389","1.828889","142.0","STATFJORD B OIL PLATFORM, NO","FM-15","ENFB ","V020","360,1,N,0175,1","02700,1,9,N","011265,1,N,1","+0000,1","-0010,1","99999,9","81,1",,"04,1,+00330,1,99,9","07,1,+02700,1,99,9",,"07,99,1,99,9,99,9,99999,9,99,9,99,9","10081,1,99999,9",,"MET086METAR ENFB 082050Z AUTO 36034KT 9999NDV -SHRA SCT011/// BKN097/// 00/M01 Q1008 W///S6;",
"01488199999","2010-12-08T21:20:00","4","61.206389","1.828889","142.0","STATFJORD B OIL PLATFORM, NO","FM-15","ENFB ","V020","350,1,N,0165,1","00930,1,9,N","011265,1,N,1","+0010,1","-0010,1","99999,9","81,1",,"02,1,+00570,1,99,9","07,1,+00930,1,99,9","07,1,+03000,1,99,9","07,99,1,99,9,99,9,99999,9,99,9,99,9","10081,1,99999,9",,"MET096METAR ENFB 082120Z AUTO 35032KT 9999NDV -SHRA FEW019/// BKN031/// BKN100/// 01/M01 Q1008 W///S6;",
"01488199999","2010-12-08T21:50:00","4","61.206389","1.828889","142.0","STATFJORD B OIL PLATFORM, NO","FM-15","ENFB ","V020","340,1,N,0170,1","00720,1,9,N","008000,1,N,1","+0010,1","-0020,1","99999,9","81,1",,"02,1,+00600,1,99,9","07,1,+00720,1,99,9",,"07,99,1,99,9,99,9,99999,9,99,9,99,9","10081,1,99999,9",,"MET086METAR ENFB 082150Z AUTO 34033KT 8000NDV -SHRA FEW020/// BKN024/// 01/M02 Q1008 W///S6;",
"01488199999","2010-12-08T22:20:00","4","61.206389","1.828889","142.0","STATFJORD B OIL PLATFORM, NO","FM-15","ENFB ","V020","320,1,N,0154,1","01260,1,9,N","011265,1,N,1","+0020,1","-0030,1","99999,9","81,1",,"07,1,+01260,1,99,9","07,1,+03300,1,99,9",,"07,99,1,99,9,99,9,99999,9,99,9,99,9","10091,1,99999,9",,"MET086METAR ENFB 082220Z AUTO 32030KT 9999NDV -SHRA BKN042/// BKN110/// 02/M03 Q1009 W///S6;",
"01488199999","2010-12-08T22:50:00","4","61.206389","1.828889","142.0","STATFJORD B OIL PLATFORM, NO","FM-15","ENFB ","V020","330,1,N,0159,1","01200,1,9,N","011265,1,N,1","+0020,1","-0040,1","99999,9",,,"07,1,+01200,1,99,9",,,"07,99,1,99,9,99,9,99999,9,99,9,99,9","10091,1,99999,9",,"MET070METAR ENFB 082250Z AUTO 33031KT 9999NDV BKN040/// 02/M04 Q1009 W///S6;",
"01488199999","2010-12-08T23:20:00","4","61.206389","1.828889","142.0","STATFJORD B OIL PLATFORM, NO","FM-15","ENFB ","V020","330,1,N,0175,1","00900,1,9,N","011265,1,N,1","+0010,1","-0040,1","99999,9",,,"07,1,+00900,1,99,9","07,1,+01500,1,99,9",,"07,99,1,99,9,99,9,99999,9,99,9,99,9","10091,1,99999,9",,"MET080METAR ENFB 082320Z AUTO 33034KT 9999NDV BKN030/// BKN054/// 01/M04 Q1009 W///S6;",
"01488199999","2010-12-08T23:50:00","4","61.206389","1.828889","142.0","STATFJORD B OIL PLATFORM, NO","FM-15","ENFB ","V020","320,1,N,0159,1","22000,1,9,N","011265,1,N,1","+0010,1","-0030,1","99999,9",,,"02,1,+00600,1,99,9","04,1,+00930,1,99,9",,"04,99,1,99,9,99,9,99999,9,99,9,99,9","10102,1,99999,9",,"MET080METAR ENFB 082350Z AUTO 32031KT 9999NDV FEW020/// SCT031/// 01/M03 Q1010 W///S6;",
"01488199999","2010-12-09T00:20:00","4","61.206389","1.828889","142.0","STATFJORD B OIL PLATFORM, NO","FM-15","ENFB ","V020","340,1,N,0149,1","00870,1,9,N","011265,1,N,1","+0010,1","-0030,1","99999,9","81,1",,"02,1,+00330,1,99,9","07,1,+00870,1,99,9",,"07,99,1,99,9,99,9,99999,9,99,9,99,9","10102,1,99999,9","0211,1","MET089METAR ENFB 090020Z AUTO 34029G41KT 9999NDV -SHRA FEW011/// BKN029/// 01/M03 Q1010 W///S6;",
"01488199999","2010-12-09T00:50:00","4","61.206389","1.828889","142.0","STATFJORD B OIL PLATFORM, NO","FM-15","ENFB ","V020","330,1,N,0165,1","00720,1,9,N","011265,1,N,1","+0010,1","-0020,1","99999,9","85,1",,"07,1,+00720,1,99,9",,,"07,99,1,99,9,99,9,99999,9,99,9,99,9","10102,1,99999,9",,"MET076METAR ENFB 090050Z AUTO 33032KT 9999NDV -SHSN BKN024/// 01/M02 Q1010 W///S6;",
"01488199999","2010-12-09T01:20:00","4","61.206389","1.828889","142.0","STATFJORD B OIL PLATFORM, NO","FM-15","ENFB ","V020","340,1,N,0144,1","01050,1,9,N","011265,1,N,1","+0020,1","-0030,1","99999,9",,,"07,1,+01050,1,99,9",,,"07,99,1,99,9,99,9,99999,9,99,9,99,9","10102,1,99999,9",,"MET070METAR ENFB 090120Z AUTO 34028KT 9999NDV BKN035/// 02/M03 Q1010 W///S6;",
"01488199999","2010-12-09T01:50:00","4","61.206389","1.828889","142.0","STATFJORD B OIL PLATFORM, NO","FM-15","ENFB ","V020","330,1,N,0144,1","00690,1,9,N","011265,1,N,1","+0010,1","-0030,1","99999,9","81,1",,"07,1,+00690,1,99,9",,,"07,99,1,99,9,99,9,99999,9,99,9,99,9","10102,1,99999,9",,"MET076METAR ENFB 090150Z AUTO 33028KT 9999NDV -SHRA BKN023/// 01/M03 Q1010 W///S6;",
"01488199999","2010-12-09T02:20:00","4","61.206389","1.828889","142.0","STATFJORD B OIL PLATFORM, NO","FM-15","ENFB ","V020","330,1,N,0170,1","01080,1,C,N","011265,1,N,1","+0010,1","-0030,1","99999,9",,,"02,1,+00930,1,99,9","04,1,+01080,1,99,9","07,1,+01800,1,99,9","07,99,1,99,9,99,9,99999,9,99,9,99,9","10108,1,99999,9",,"MET090METAR ENFB 090220Z AUTO 33033KT 9999NDV FEW031/// SCT036/// BKN063/// 01/M03 Q1011 W///S6;",
"01488199999","2010-12-09T02:50:00","4","61.206389","1.828889","142.0","STATFJORD B OIL PLATFORM, NO","FM-15","ENFB ","V020","310,1,N,0159,1","00870,1,9,N","011265,1,N,1","+0010,1","-0030,1","99999,9","61,1",,"07,1,+00870,1,99,9","07,1,+02400,1,99,9",,"07,99,1,99,9,99,9,99999,9,99,9,99,9","10108,1,99999,9",,"MET084METAR ENFB 090250Z AUTO 31031KT 9999NDV -RA BKN029/// BKN083/// 01/M03 Q1011 W///S6;",
"01488199999","2010-12-09T03:20:00","4","61.206389","1.828889","142.0","STATFJORD B OIL PLATFORM, NO","FM-15","ENFB ","V020","330,1,N,0144,1","01320,1,9,N","011265,1,N,1","+0020,1","-0050,1","99999,9",,,"02,1,+01080,1,99,9","07,1,+01320,1,99,9",,"07,99,1,99,9,99,9,99999,9,99,9,99,9","10108,1,99999,9",,"MET080METAR ENFB 090320Z AUTO 33028KT 9999NDV FEW036/// BKN044/// 02/M05 Q1011 W///S6;",
"01488199999","2010-12-09T03:50:00","4","61.206389","1.828889","142.0","STATFJORD B OIL PLATFORM, NO","FM-15","ENFB ","V020","330,1,N,0139,1","22000,1,9,N","011265,1,N,1","+0020,1","-0070,1","99999,9",,,"02,1,+01260,1,99,9","04,1,+01380,1,99,9",,"04,99,1,99,9,99,9,99999,9,99,9,99,9","10108,1,99999,9",,"MET080METAR ENFB 090350Z AUTO 33027KT 9999NDV FEW042/// SCT046/// 02/M07 Q1011 W///S6;",
"01488199999","2010-12-09T04:20:00","4","61.206389","1.828889","142.0","STATFJORD B OIL PLATFORM, NO","FM-15","ENFB ","V020","340,1,N,0139,1","01260,1,9,N","011265,1,N,1","+0020,1","-0070,1","99999,9",,,"02,1,+01110,1,99,9","07,1,+01260,1,99,9",,"07,99,1,99,9,99,9,99999,9,99,9,99,9","10119,1,99999,9",,"MET080METAR ENFB 090420Z AUTO 34027KT 9999NDV FEW037/// BKN042/// 02/M07 Q1012 W///S6;",
"01488199999","2010-12-09T04:50:00","4","61.206389","1.828889","142.0","STATFJORD B OIL PLATFORM, NO","FM-15","ENFB ","V020","330,1,N,0129,1","01500,1,9,N","011265,1,N,1","+0020,1","-0070,1","99999,9",,,"07,1,+01500,1,99,9",,,"07,99,1,99,9,99,9,99999,9,99,9,99,9","10119,1,99999,9",,"MET070METAR ENFB 090450Z AUTO 33025KT 9999NDV BKN055/// 02/M07 Q1012 W///S6;",
"01488199999","2010-12-09T05:20:00","4","61.206389","1.828889","142.0","STATFJORD B OIL PLATFORM, NO","FM-15","ENFB ","V020","320,1,N,0123,1","01440,1,9,N","011265,1,N,1","+0020,1","-0060,1","99999,9",,,"07,1,+01440,1,99,9",,,"07,99,1,99,9,99,9,99999,9,99,9,99,9","10129,1,99999,9",,"MET070METAR ENFB 090520Z AUTO 32024KT 9999NDV BKN048/// 02/M06 Q1013 W///S6;",
"01488199999","2010-12-09T05:50:00","4","61.206389","1.828889","142.0","STATFJORD B OIL PLATFORM, NO","FM-15","ENFB ","V020","320,1,N,0113,1","01500,1,9,N","011265,1,N,1","+0020,1","-0070,1","99999,9",,,"07,1,+01500,1,99,9",,,"07,99,1,99,9,99,9,99999,9,99,9,99,9","10129,1,99999,9",,"MET070METAR ENFB 090550Z AUTO 32022KT 9999NDV BKN058/// 02/M07 Q1013 W///S6;",
"01488199999","2010-12-09T06:20:00","4","61.206389","1.828889","142.0","STATFJORD B OIL PLATFORM, NO","FM-15","ENFB ","V020","330,1,N,0129,1","01080,1,9,N","011265,1,N,1","+0020,1","-0060,1","99999,9",,,"07,1,+01080,1,99,9",,,"07,99,1,99,9,99,9,99999,9,99,9,99,9","10129,1,99999,9",,"MET070METAR ENFB 090620Z AUTO 33025KT 9999NDV BKN036/// 02/M06 Q1013 W///S6;",
"01488199999","2010-12-09T06:50:00","4","61.206389","1.828889","142.0","STATFJORD B OIL PLATFORM, NO","FM-15","ENFB ","V020","350,1,N,0134,1","22000,1,9,N","011265,1,N,1","+0010,1","-0030,1","99999,9",,,"02,1,+00540,1,99,9",,,"02,99,1,99,9,99,9,99999,9,99,9,99,9","10129,1,99999,9",,"MET070METAR ENFB 090650Z AUTO 35026KT 9999NDV FEW018/// 01/M03 Q1013 W///S6;",
"01488199999","2010-12-09T07:20:00","4","61.206389","1.828889","142.0","STATFJORD B OIL PLATFORM, NO","FM-15","ENFB ","V020","340,1,N,0139,1","01110,1,C,N","005000,1,N,1","-0010,1","-0040,1","99999,9","61,1",,"02,1,+00600,1,99,9","04,1,+01110,1,99,9","07,1,+01500,1,99,9","07,99,1,99,9,99,9,99999,9,99,9,99,9","10139,1,99999,9",,"MET095METAR ENFB 090720Z AUTO 34027KT 5000NDV -RA FEW020/// SCT037/// BKN056/// M01/M04 Q1014 W///S6;",
"01488199999","2010-12-09T07:50:00","4","61.206389","1.828889","142.0","STATFJORD B OIL PLATFORM, NO","FM-15","ENFB ","V020","350,1,N,0129,1","01110,1,9,N","011265,1,N,1","+0010,1","-0040,1","99999,9","81,1",,"02,1,+00390,1,99,9","07,1,+01110,1,99,9","07,1,+01500,1,99,9","07,99,1,99,9,99,9,99999,9,99,9,99,9","10139,1,99999,9",,"MET103METAR ENFB 090750Z AUTO 35025KT 9999NDV -SHRA FEW013/// BKN037/// BKN054/// 01/M04 Q1014 RESHRA W///S6;",
"01488199999","2010-12-09T08:20:00","4","61.206389","1.828889","142.0","STATFJORD B OIL PLATFORM, NO","FM-15","ENFB ","V020","330,1,N,0108,1","22000,1,9,N","011265,1,N,1","+0030,1","-0060,1","99999,9",,,"04,1,+01350,1,99,9",,,"04,99,1,99,9,99,9,99999,9,99,9,99,9","10139,1,99999,9",,"MET077METAR ENFB 090820Z AUTO 33021KT 9999NDV SCT045/// 03/M06 Q1014 RESHRA W///S6;",
"01488199999","2010-12-09T08:50:00","4","61.206389","1.828889","142.0","STATFJORD B OIL PLATFORM, NO","FM-15","ENFB ","V020","320,1,N,0103,1","22000,1,9,N","011265,1,N,1","+0030,1","-0070,1","99999,9",,,"02,1,+01800,1,99,9",,,"02,99,1,99,9,99,9,99999,9,99,9,99,9","10149,1,99999,9",,"MET070METAR ENFB 090850Z AUTO 32020KT 9999NDV FEW064/// 03/M07 Q1015 W///S6;",
"01488199999","2010-12-09T09:20:00","4","61.206389","1.828889","142.0","STATFJORD B OIL PLATFORM, NO","FM-15","ENFB ","V020","320,1,N,0108,1","01500,1,9,N","011265,1,N,1","+0030,1","-0050,1","99999,9",,,"02,1,+01350,1,99,9","07,1,+01500,1,99,9",,"07,99,1,99,9,99,9,99999,9,99,9,99,9","10149,1,99999,9",,"MET080METAR ENFB 090920Z AUTO 32021KT 9999NDV FEW045/// BKN059/// 03/M05 Q1015 W///S6;",
"01488199999","2010-12-09T09:50:00","4","61.206389","1.828889","142.0","STATFJORD B OIL PLATFORM, NO","FM-15","ENFB ","V020","330,1,N,0113,1","01350,1,9,N","011265,1,N,1","+0030,1","-0050,1","99999,9",,,"07,1,+01350,1,99,9",,,"07,99,1,99,9,99,9,99999,9,99,9,99,9","10149,1,99999,9",,"MET070METAR ENFB 090950Z AUTO 33022KT 9999NDV BKN045/// 03/M05 Q1015 W///S6;",
"01488199999","2010-12-09T10:20:00","4","61.206389","1.828889","142.0","STATFJORD B OIL PLATFORM, NO","FM-15","ENFB ","V020","320,1,N,0123,1","01050,1,9,N","011265,1,N,1","+0030,1","-0030,1","99999,9","61,1",,"07,1,+01050,1,99,9",,,"07,99,1,99,9,99,9,99999,9,99,9,99,9","10149,1,99999,9",,"MET074METAR ENFB 091020Z AUTO 32024KT 9999NDV -RA BKN035/// 03/M03 Q1015 W///S6;",
"01488199999","2010-12-09T10:50:00","4","61.206389","1.828889","142.0","STATFJORD B OIL PLATFORM, NO","FM-15","ENFB ","V020","320,1,N,0113,1","00480,1,9,N","011265,1,N,1","+0030,1","-0010,1","99999,9",,,"07,1,+00480,1,99,9","07,1,+01500,1,99,9",,"07,99,1,99,9,99,9,99999,9,99,9,99,9","10149,1,99999,9",,"MET080METAR ENFB 091050Z AUTO 32022KT 9999NDV BKN016/// BKN056/// 03/M01 Q1015 W///S6;",
"01488199999","2010-12-09T11:20:00","4","61.206389","1.828889","142.0","STATFJORD B OIL PLATFORM, NO","FM-15","ENFB ","V020","320,1,N,0108,1","22000,1,9,N","011265,1,N,1","+0030,1","-0010,1","99999,9",,,"02,1,+00270,1,99,9",,,"02,99,1,99,9,99,9,99999,9,99,9,99,9","10149,1,99999,9",,"MET070METAR ENFB 091120Z AUTO 32021KT 9999NDV FEW009/// 03/M01 Q1015 W///S6;",
"01488199999","2010-12-09T11:50:00","4","61.206389","1.828889","142.0","STATFJORD B OIL PLATFORM, NO","FM-15","ENFB ","V020","330,1,N,0108,1","22000,1,9,N","011265,1,N,1","+0040,1","-0010,1","99999,9",,,"04,1,+00720,1,99,9",,,"04,99,1,99,9,99,9,99999,9,99,9,99,9","10149,1,99999,9",,"MET070METAR ENFB 091150Z AUTO 33021KT 9999NDV SCT024/// 04/M01 Q1015 W///S6;",
"01488199999","2010-12-09T12:20:00","4","61.206389","1.828889","142.0","STATFJORD B OIL PLATFORM, NO","FM-15","ENFB ","V020","320,1,N,0108,1","22000,1,9,N","011265,1,N,1","+0040,1","-0020,1","99999,9",,,"02,1,+01110,1,99,9",,,"02,99,1,99,9,99,9,99999,9,99,9,99,9","10159,1,99999,9",,"MET070METAR ENFB 091220Z AUTO 32021KT 9999NDV FEW037/// 04/M02 Q1016 W///S6;",
"01488199999","2010-12-09T12:50:00","4","61.206389","1.828889","142.0","STATFJORD B OIL PLATFORM, NO","FM-15","ENFB ","V020","330,1,N,0103,1","22000,1,9,N","011265,1,N,1","+0040,1","-0020,1","99999,9",,,"02,1,+00930,1,99,9",,,"02,99,1,99,9,99,9,99999,9,99,9,99,9","10159,1,99999,9",,"MET070METAR ENFB 091250Z AUTO 33020KT 9999NDV FEW031/// 04/M02 Q1016 W///S6;",
"01488199999","2010-12-09T13:20:00","4","61.206389","1.828889","142.0","STATFJORD B OIL PLATFORM, NO","FM-15","ENFB ","V020","330,1,N,0103,1","22000,1,9,N","011265,1,N,1","+0040,1","-0010,1","99999,9",,,"02,1,+00720,1,99,9",,,"02,99,1,99,9,99,9,99999,9,99,9,99,9","10159,1,99999,9",,"MET070METAR ENFB 091320Z AUTO 33020KT 9999NDV FEW024/// 04/M01 Q1016 W///S6;",
"01488199999","2010-12-09T13:50:00","4","61.206389","1.828889","142.0","STATFJORD B OIL PLATFORM, NO","FM-15","ENFB ","V020","320,1,N,0098,1","22000,1,9,N","011265,1,N,1","+0040,1","+0000,1","99999,9",,,"02,1,+00810,1,99,9",,,"02,99,1,99,9,99,9,99999,9,99,9,99,9","10169,1,99999,9",,"MET069METAR ENFB 091350Z AUTO 32019KT 9999NDV FEW027/// 04/00 Q1017 W///S6;",
"01488199999","2010-12-09T14:20:00","4","61.206389","1.828889","142.0","STATFJORD B OIL PLATFORM, NO","FM-15","ENFB ","V020","310,1,N,0103,1","22000,1,9,N","011265,1,N,1","+0040,1","+0000,1","99999,9",,,,,,"00,99,1,99,9,99,9,99999,9,99,9,99,9","10169,1,99999,9",,"MET063METAR ENFB 091420Z AUTO 31020KT 9999NDV NCD 04/00 Q1017 W///S6;","Q01    003SCCGA1"
"01488199999","2010-12-09T14:50:00","4","61.206389","1.828889","142.0","STATFJORD B OIL PLATFORM, NO","FM-15","ENFB ","V020","300,1,N,0087,1","22000,1,9,N","011265,1,N,1","+0040,1","+0000,1","99999,9",,,"02,1,+01800,1,99,9",,,"02,99,1,99,9,99,9,99999,9,99,9,99,9","10169,1,99999,9",,"MET069METAR ENFB 091450Z AUTO 30017KT 9999NDV FEW065/// 04/00 Q1017 W///S6;",
"01488199999","2010-12-09T15:20:00","4","61.206389","1.828889","142.0","STATFJORD B OIL PLATFORM, NO","FM-15","ENFB ","V020","300,1,N,0062,1","01260,1,C,N","011265,1,N,1","+0040,1","+0000,1","99999,9",,,"02,1,+01110,1,99,9","04,1,+01260,1,99,9","07,1,+01410,1,99,9","07,99,1,99,9,99,9,99999,9,99,9,99,9","10180,1,99999,9",,"MET089METAR ENFB 091520Z AUTO 30012KT 9999NDV FEW037/// SCT042/// BKN047/// 04/00 Q1018 W///S6;",
"01488199999","2010-12-09T15:50:00","4","61.206389","1.828889","142.0","STATFJORD B OIL PLATFORM, NO","FM-15","ENFB ","V020","350,1,N,0087,1","00840,1,9,N","011265,1,N,1","+0040,1","-0010,1","99999,9",,,"07,1,+00840,1,99,9",,,"07,99,1,99,9,99,9,99999,9,99,9,99,9","10169,1,99999,9",,"MET070METAR ENFB 091550Z AUTO 35017KT 9999NDV BKN028/// 04/M01 Q1017 W///S5;",
"01488199999","2010-12-09T16:20:00","4","61.206389","1.828889","142.0","STATFJORD B OIL PLATFORM, NO","FM-15","ENFB ","V020","350,1,N,0051,1","01320,1,9,N","011265,1,N,1","+0040,1","-0010,1","99999,9",,,"07,1,+01320,1,99,9",,,"07,99,1,99,9,99,9,99999,9,99,9,99,9","10180,1,99999,9",,"MET070METAR ENFB 091620Z AUTO 35010KT 9999NDV BKN044/// 04/M01 Q1018 W///S6;",
"01488199999","2010-12-09T16:50:00","4","61.206389","1.828889","142.0","STATFJORD B OIL PLATFORM, NO","FM-15","ENFB ","V020","330,1,N,0051,1","01500,1,9,N","011265,1,N,1","+0040,1","-0020,1","99999,9",,,"04,1,+01050,1,99,9","07,1,+01500,1,99,9",,"07,99,1,99,9,99,9,99999,9,99,9,99,9","10190,1,99999,9",,"MET080METAR ENFB 091650Z AUTO 33010KT 9999NDV SCT035/// BKN052/// 04/M02 Q1019 W///S6;",
"01488199999","2010-12-09T17:20:00","4","61.206389","1.828889","142.0","STATFJORD B OIL PLATFORM, NO","FM-15","ENFB ","V020","350,1,N,0051,1","01050,1,9,N","011265,1,N,1","+0050,1","-0010,1","99999,9",,,"07,1,+01050,1,99,9",,,"07,99,1,99,9,99,9,99999,9,99,9,99,9","10190,1,99999,9",,"MET070METAR ENFB 091720Z AUTO 35010KT 9999NDV BKN035/// 05/M01 Q1019 W///S6;",
"01488199999","2010-12-09T17:50:00","4","61.206389","1.828889","142.0","STATFJORD B OIL PLATFORM, NO","FM-15","ENFB ","V020","340,1,N,0046,1","22000,1,9,N","011265,1,N,1","+0050,1","-0020,1","99999,9",,,"02,1,+01080,1,99,9",,,"02,99,1,99,9,99,9,99999,9,99,9,99,9","10190,1,99999,9",,"MET070METAR ENFB 091750Z AUTO 34009KT 9999NDV FEW036/// 05/M02 Q1019 W///S5;",
"01488199999","2010-12-09T18:20:00","4","61.206389","1.828889","142.0","STATFJORD B OIL PLATFORM, NO","FM-15","ENFB ","V020","300,1,N,0077,1","01230,1,9,N","011265,1,N,1","+0050,1","+0000,1","99999,9",,,"02,1,+01080,1,99,9","07,1,+01230,1,99,9",,"07,99,1,99,9,99,9,99999,9,99,9,99,9","10190,1,99999,9",,"MET079METAR ENFB 091820Z AUTO 30015KT 9999NDV FEW036/// BKN041/// 05/00 Q1019 W///S5;",
"01488199999","2010-12-09T18:50:00","4","61.206389","1.828889","142.0","STATFJORD B OIL PLATFORM, NO","FM-15","ENFB ","V020","310,1,N,0082,1","22000,1,9,N","011265,1,N,1","+0050,1","+0000,1","99999,9",,,"04,1,+00750,1,99,9",,,"04,99,1,99,9,99,9,99999,9,99,9,99,9","10200,1,99999,9",,"MET069METAR ENFB 091850Z AUTO 31016KT 9999NDV SCT025/// 05/00 Q1020 W///S6;",
"01488199999","2010-12-09T19:20:00","4","61.206389","1.828889","142.0","STATFJORD B OIL PLATFORM, NO","FM-15","ENFB ","V020","300,1,N,0072,1","01500,1,9,N","011265,1,N,1","+0040,1","-0010,1","99999,9",,,"02,1,+00990,1,99,9","07,1,+01500,1,99,9",,"07,99,1,99,9,99,9,99999,9,99,9,99,9","10200,1,99999,9",,"MET080METAR ENFB 091920Z AUTO 30014KT 9999NDV FEW033/// BKN059/// 04/M01 Q1020 W///S5;",
"01488199999","2010-12-09T19:50:00","4","61.206389","1.828889","142.0","STATFJORD B OIL PLATFORM, NO","FM-15","ENFB ","V020","290,1,N,0036,1","05100,1,9,N","011265,1,N,1","+0050,1","-0010,1","99999,9",,,"04,1,+01500,1,99,9","07,1,+05100,1,99,9",,"07,99,1,99,9,99,9,99999,9,99,9,99,9","10190,1,99999,9",,"MET080METAR ENFB 091950Z AUTO 29007KT 9999NDV SCT052/// BKN170/// 05/M01 Q1019 W///S5;",
"01488199999","2010-12-09T20:20:00","4","61.206389","1.828889","142.0","STATFJORD B OIL PLATFORM, NO","FM-15","ENFB ","V020","340,1,N,0041,1","05100,1,9,N","011265,1,N,1","+0040,1","+0000,1","99999,9",,,"04,1,+00810,1,99,9","07,1,+05100,1,99,9",,"07,99,1,99,9,99,9,99999,9,99,9,99,9","10190,1,99999,9",,"MET079METAR ENFB 092020Z AUTO 34008KT 9999NDV SCT027/// BKN170/// 04/00 Q1019 W///S5;",
"01488199999","2010-12-09T20:50:00","4","61.206389","1.828889","142.0","STATFJORD B OIL PLATFORM, NO","FM-15","ENFB ","V020","320,1,N,0026,1","04500,1,9,N","011265,1,N,1","+0040,1","+0000,1","99999,9",,,"04,1,+00750,1,99,9","07,1,+04500,1,99,9","07,1,+05400,1,99,9","07,99,1,99,9,99,9,99999,9,99,9,99,9","10190,1,99999,9",,"MET097METAR ENFB 092050Z AUTO 32005KT 260V360 9999NDV SCT025/// BKN150/// BKN180/// 04/00 Q1019 W///S5;",
"01488199999","2010-12-09T21:20:00","4","61.206389","1.828889","142.0","STATFJORD B OIL PLATFORM, NO","FM-15","ENFB ","V020","250,1,N,0031,1","00840,1,9,N","011265,1,N,1","+0040,1","+0000,1","99999,9",,,"04,1,+00750,1,99,9","07,1,+00840,1,99,9","07,1,+05400,1,99,9","07,99,1,99,9,99,9,99999,9,99,9,99,9","10180,1,99999,9",,"MET097METAR ENFB 092120Z AUTO 25006KT 220V340 9999NDV SCT025/// BKN028/// BKN180/// 04/00 Q1018 W///S5;",
"01488199999","2010-12-09T21:50:00","4","61.206389","1.828889","142.0","STATFJORD B OIL PLATFORM, NO","FM-15","ENFB ","V020","240,1,N,0062,1","04800,1,9,N","011265,1,N,1","+0040,1","-0010,1","99999,9",,,"02,1,+00810,1,99,9","07,1,+04800,1,99,9",,"07,99,1,99,9,99,9,99999,9,99,9,99,9","10180,1,99999,9",,"MET080METAR ENFB 092150Z AUTO 24012KT 9999NDV FEW027/// BKN160/// 04/M01 Q1018 W///S5;",
"01488199999","2010-12-09T22:20:00","4","61.206389","1.828889","142.0","STATFJORD B OIL PLATFORM, NO","FM-15","ENFB ","V020","240,1,N,0082,1","00810,1,9,N","011265,1,N,1","+0040,1","-0010,1","99999,9",,,"07,1,+00810,1,99,9","07,1,+04800,1,99,9",,"07,99,1,99,9,99,9,99999,9,99,9,99,9","10180,1,99999,9",,"MET080METAR ENFB 092220Z AUTO 24016KT 9999NDV BKN027/// BKN160/// 04/M01 Q1018 W///S5;",
"01488199999","2010-12-09T22:50:00","4","61.206389","1.828889","142.0","STATFJORD B OIL PLATFORM, NO","FM-15","ENFB ","V020","230,1,N,0082,1","02700,1,9,N","011265,1,N,1","+0040,1","-0020,1","99999,9",,,"04,1,+00900,1,99,9","07,1,+02700,1,99,9",,"07,99,1,99,9,99,9,99999,9,99,9,99,9","10180,1,99999,9",,"MET080METAR ENFB 092250Z AUTO 23016KT 9999NDV SCT030/// BKN096/// 04/M02 Q1018 W///S5;",
"01488199999","2010-12-09T23:20:00","4","61.206389","1.828889","142.0","STATFJORD B OIL PLATFORM, NO","FM-15","ENFB ","V020","230,1,N,0103,1","02700,1,9,N","011265,1,N,1","+0040,1","-0020,1","99999,9",,,"04,1,+00870,1,99,9","07,1,+02700,1,99,9",,"07,99,1,99,9,99,9,99999,9,99,9,99,9","10180,1,99999,9",,"MET080METAR ENFB 092320Z AUTO 23020KT 9999NDV SCT029/// BKN093/// 04/M02 Q1018 W///S5;",
"01488199999","2010-12-09T23:50:00","4","61.206389","1.828889","142.0","STATFJORD B OIL PLATFORM, NO","FM-15","ENFB ","V020","230,1,N,0098,1","02100,1,9,N","011265,1,N,1","+0040,1","-0020,1","99999,9",,,"04,1,+00930,1,99,9","07,1,+02100,1,99,9",,"07,99,1,99,9,99,9,99999,9,99,9,99,9","10180,1,99999,9",,"MET080METAR ENFB 092350Z AUTO 23019KT 9999NDV SCT031/// BKN079/// 04/M02 Q1018 W///S4;",
"01488199999","2010-12-10T00:20:00","4","61.206389","1.828889","142.0","STATFJORD B OIL PLATFORM, NO","FM-15","ENFB ","V020","220,1,N,0087,1","01260,1,9,N","011265,1,N,1","+0040,1","-0020,1","99999,9",,,"02,1,+00870,1,99,9","07,1,+01260,1,99,9","07,1,+02100,1,99,9","07,99,1,99,9,99,9,99999,9,99,9,99,9","10180,1,99999,9",,"MET090METAR ENFB 100020Z AUTO 22017KT 9999NDV FEW029/// BKN042/// BKN077/// 04/M02 Q1018 W///S4;",
"01488199999","2010-12-10T00:50:00","4","61.206389","1.828889","142.0","STATFJORD B OIL PLATFORM, NO","FM-15","ENFB ","V020","220,1,N,0103,1","01230,1,9,N","011265,1,N,1","+0040,1","-0020,1","99999,9",,,"07,1,+01230,1,99,9","07,1,+02700,1,99,9",,"07,99,1,99,9,99,9,99999,9,99,9,99,9","10169,1,99999,9",,"MET080METAR ENFB 100050Z AUTO 22020KT 9999NDV BKN041/// BKN099/// 04/M02 Q1017 W///S4;",
"01488199999","2010-12-10T01:20:00","4","61.206389","1.828889","142.0","STATFJORD B OIL PLATFORM, NO","FM-15","ENFB ","V020","220,1,N,0093,1","01170,1,9,N","011265,1,N,1","+0040,1","+0000,1","99999,9","81,1",,"04,1,+00630,1,99,9","08,1,+01170,1,99,9",,"08,99,1,99,9,99,9,99999,9,99,9,99,9","10169,1,99999,9",,"MET085METAR ENFB 100120Z AUTO 22018KT 9999NDV -SHRA SCT021/// OVC039/// 04/00 Q1017 W///S4;",
"01488199999","2010-12-10T01:50:00","4","61.206389","1.828889","142.0","STATFJORD B OIL PLATFORM, NO","FM-15","ENFB ","V020","210,1,N,0093,1","00420,1,9,N","008000,1,N,1","+0040,1","+0010,1","99999,9",,,"07,1,+00420,1,99,9",,,"07,99,1,99,9,99,9,99999,9,99,9,99,9","10159,1,99999,9",,"MET069METAR ENFB 100150Z AUTO 21018KT 8000NDV BKN014/// 04/01 Q1016 W///S5;",
"01488199999","2010-12-10T02:20:00","4","61.206389","1.828889","142.0","STATFJORD B OIL PLATFORM, NO","FM-15","ENFB ","V020","200,1,N,0129,1","00240,1,9,N","011265,1,N,1","+0050,1","+0020,1","99999,9",,,"07,1,+00240,1,99,9",,,"07,99,1,99,9,99,9,99999,9,99,9,99,9","10149,1,99999,9",,"MET069METAR ENFB 100220Z AUTO 20025KT 9999NDV BKN008/// 05/02 Q1015 W///S4;",
"01488199999","2010-12-10T02:50:00","4","61.206389","1.828889","142.0","STATFJORD B OIL PLATFORM, NO","FM-15","ENFB ","V020","200,1,N,0149,1","00240,1,9,N","011265,1,N,1","+0050,1","+0030,1","99999,9",,,"08,1,+00240,1,99,9",,,"08,99,1,99,9,99,9,99999,9,99,9,99,9","10139,1,99999,9",,"MET069METAR ENFB 100250Z AUTO 20029KT 9999NDV OVC008/// 05/03 Q1014 W///S4;",
"01488199999","2010-12-10T03:20:00","4","61.206389","1.828889","142.0","STATFJORD B OIL PLATFORM, NO","FM-15","ENFB ","V020","200,1,N,0165,1","00210,1,9,N","011265,1,N,1","+0050,1","+0040,1","99999,9",,,"08,1,+00210,1,99,9",,,"08,99,1,99,9,99,9,99999,9,99,9,99,9","10129,1,99999,9",,"MET069METAR ENFB 100320Z AUTO 20032KT 9999NDV OVC007/// 05/04 Q1013 W///S4;",
"01488199999","2010-12-10T03:50:00","4","61.206389","1.828889","142.0","STATFJORD B OIL PLATFORM, NO","FM-15","ENFB ","V020","200,1,N,0170,1","00180,1,9,N","009000,1,N,1","+0060,1","+0050,1","99999,9","81,1",,"07,1,+00180,1,99,9",,,"07,99,1,99,9,99,9,99999,9,99,9,99,9","10119,1,99999,9",,"MET075METAR ENFB 100350Z AUTO 20033KT 9000NDV -SHRA BKN006/// 06/05 Q1012 W///S4;",
"01488199999","2010-12-10T04:20:00","4","61.206389","1.828889","142.0","STATFJORD B OIL PLATFORM, NO","FM-15","ENFB ","V020","210,1,N,0144,1","00150,1,9,N","008000,1,N,1","+0060,1","+0050,1","99999,9","51,1",,"08,1,+00150,1,99,9",,,"08,99,1,99,9,99,9,99999,9,99,9,99,9","10119,1,99999,9",,"MET073METAR ENFB 100420Z AUTO 21028KT 8000NDV -DZ OVC005/// 06/05 Q1012 W///S4;",
"01488199999","2010-12-10T04:50:00","4","61.206389","1.828889","142.0","STATFJORD B OIL PLATFORM, NO","FM-15","ENFB ","V020","210,1,N,0139,1","00150,1,9,N","003700,1,N,1","+0070,1","+0060,1","99999,9","10,1","51,1","07,1,+00150,1,99,9",,,"07,99,1,99,9,99,9,99999,9,99,9,99,9","10108,1,99999,9",,"MET076METAR ENFB 100450Z AUTO 21027KT 3700NDV -DZ BR BKN005/// 07/06 Q1011 W///S4;",
"01488199999","2010-12-10T05:20:00","4","61.206389","1.828889","142.0","STATFJORD B OIL PLATFORM, NO","FM-15","ENFB ","V020","240,1,N,0123,1","00180,1,9,N","003500,1,N,1","+0070,1","+0070,1","99999,9","10,1","61,1","07,1,+00180,1,99,9",,,"07,99,1,99,9,99,9,99999,9,99,9,99,9","10108,1,99999,9",,"MET076METAR ENFB 100520Z AUTO 24024KT 3500NDV -RA BR BKN006/// 07/07 Q1011 W///S4;",
"01488199999","2010-12-10T05:50:00","4","61.206389","1.828889","142.0","STATFJORD B OIL PLATFORM, NO","FM-15","ENFB ","V020","240,1,N,0123,1","00150,1,9,N","002700,1,N,1","+0070,1","+0070,1","99999,9","10,1","81,1","07,1,+00150,1,99,9",,,"07,99,1,99,9,99,9,99999,9,99,9,99,9","10102,1,99999,9",,"MET078METAR ENFB 100550Z AUTO 24024KT 2700NDV -SHRA BR BKN005/// 07/07 Q1010 W///S4;",
"01488199999","2010-12-10T06:20:00","4","61.206389","1.828889","142.0","STATFJORD B OIL PLATFORM, NO","FM-15","ENFB ","V020","260,1,N,0113,1","00180,1,9,N","011265,1,N,1","+0080,1","+0070,1","99999,9",,,"07,1,+00180,1,99,9",,,"07,99,1,99,9,99,9,99999,9,99,9,99,9","10102,1,99999,9",,"MET069METAR ENFB 100620Z AUTO 26022KT 9999NDV BKN006/// 08/07 Q1010 W///S4;",
"01488199999","2010-12-10T06:50:00","4","61.206389","1.828889","142.0","STATFJORD B OIL PLATFORM, NO","FM-15","ENFB ","V020","260,1,N,0113,1","00240,1,9,N","011265,1,N,1","+0080,1","+0070,1","99999,9",,,"07,1,+00240,1,99,9","07,1,+01050,1,99,9",,"07,99,1,99,9,99,9,99999,9,99,9,99,9","10102,1,99999,9",,"MET079METAR ENFB 100650Z AUTO 26022KT 9999NDV BKN008/// BKN035/// 08/07 Q1010 W///S4;",
"01488199999","2010-12-10T07:20:00","4","61.206389","1.828889","142.0","STATFJORD B OIL PLATFORM, NO","FM-15","ENFB ","V020","260,1,N,0118,1","00210,1,9,N","011265,1,N,1","+0080,1","+0080,1","99999,9",,,"07,1,+00210,1,99,9",,,"07,99,1,99,9,99,9,99999,9,99,9,99,9","10102,1,99999,9",,"MET069METAR ENFB 100720Z AUTO 26023KT 9999NDV BKN007/// 08/08 Q1010 W///S4;",
"01488199999","2010-12-10T07:50:00","4","61.206389","1.828889","142.0","STATFJORD B OIL PLATFORM, NO","FM-15","ENFB ","V020","260,1,N,0103,1","00180,1,9,N","011265,1,N,1","+0080,1","+0080,1","99999,9",,,"07,1,+00180,1,99,9","07,1,+00900,1,99,9",,"07,99,1,99,9,99,9,99999,9,99,9,99,9","10102,1,99999,9",,"MET079METAR ENFB 100750Z AUTO 26020KT 9999NDV BKN006/// BKN030/// 08/08 Q1010 W///S4;",
"01488199999","2010-12-10T08:20:00","4","61.206389","1.828889","142.0","STATFJORD B OIL PLATFORM, NO","FM-15","ENFB ","V020","260,1,N,0103,1","00150,1,9,N","005000,1,N,1","+0080,1","+0080,1","99999,9",,,"08,1,+00150,1,99,9",,,"08,99,1,99,9,99,9,99999,9,99,9,99,9","10091,1,99999,9",,"MET069METAR ENFB 100820Z AUTO 26020KT 5000NDV OVC005/// 08/08 Q1009 W///S4;",
"01488199999","2010-12-10T08:50:00","4","61.206389","1.828889","142.0","STATFJORD B OIL PLATFORM, NO","FM-15","ENFB ","V020","270,1,N,0093,1","00180,1,9,N","005000,1,N,1","+0080,1","+0080,1","99999,9","52,1",,"07,1,+00180,1,99,9",,,"07,99,1,99,9,99,9,99999,9,99,9,99,9","10091,1,99999,9",,"MET072METAR ENFB 100850Z AUTO 27018KT 5000NDV DZ BKN006/// 08/08 Q1009 W///S4;",
"01488199999","2010-12-10T09:20:00","4","61.206389","1.828889","142.0","STATFJORD B OIL PLATFORM, NO","FM-15","ENFB ","V020","280,1,N,0098,1","00150,1,9,N","011265,1,N,1","+0080,1","+0080,1","99999,9","81,1",,"07,1,+00150,1,99,9",,,"07,99,1,99,9,99,9,99999,9,99,9,99,9","10091,1,99999,9",,"MET075METAR ENFB 100920Z AUTO 28019KT 9999NDV -SHRA BKN005/// 08/08 Q1009 W///S4;",
"01488199999","2010-12-10T09:50:00","4","61.206389","1.828889","142.0","STATFJORD B OIL PLATFORM, NO","FM-15","ENFB ","V020","280,1,N,0087,1","00270,1,9,N","011265,1,N,1","+0090,1","+0080,1","99999,9",,,"07,1,+00270,1,99,9","07,1,+00570,1,99,9","07,1,+04200,1,99,9","07,99,1,99,9,99,9,99999,9,99,9,99,9","10091,1,99999,9",,"MET089METAR ENFB 100950Z AUTO 28017KT 9999NDV BKN009/// BKN019/// BKN140/// 09/08 Q1009 W///S4;",
"01488199999","2010-12-10T10:20:00","4","61.206389","1.828889","142.0","STATFJORD B OIL PLATFORM, NO","FM-15","ENFB ","V020","280,1,N,0098,1","00270,1,9,N","011265,1,N,1","+0090,1","+0080,1","99999,9",,,"08,1,+00270,1,99,9",,,"08,99,1,99,9,99,9,99999,9,99,9,99,9","10091,1,99999,9",,"MET069METAR ENFB 101020Z AUTO 28019KT 9999NDV OVC009/// 09/08 Q1009 W///S4;",
"01488199999","2010-12-10T10:50:00","4","61.206389","1.828889","142.0","STATFJORD B OIL PLATFORM, NO","FM-15","ENFB ","V020","280,1,N,0098,1","00210,1,9,N","007000,1,N,1","+0090,1","+0080,1","99999,9",,,"08,1,+00210,1,99,9",,,"08,99,1,99,9,99,9,99999,9,99,9,99,9","10081,1,99999,9",,"MET069METAR ENFB 101050Z AUTO 28019KT 7000NDV OVC007/// 09/08 Q1008 W///S4;",
"01488199999","2010-12-10T11:20:00","4","61.206389","1.828889","142.0","STATFJORD B OIL PLATFORM, NO","FM-15","ENFB ","V020","270,1,N,0108,1","00150,1,9,N","011265,1,N,1","+0090,1","+0080,1","99999,9",,,"07,1,+00150,1,99,9",,,"07,99,1,99,9,99,9,99999,9,99,9,99,9","10081,1,99999,9",,"MET069METAR ENFB 101120Z AUTO 27021KT 9999NDV BKN005/// 09/08 Q1008 W///S4;",
"01488199999","2010-12-10T11:50:00","4","61.206389","1.828889","142.0","STATFJORD B OIL PLATFORM, NO","FM-15","ENFB ","V020","270,1,N,0103,1","00150,1,9,N","008000,1,N,1","+0090,1","+0080,1","99999,9","61,1",,"08,1,+00150,1,99,9",,,"08,99,1,99,9,99,9,99999,9,99,9,99,9","10071,1,99999,9",,"MET073METAR ENFB 101150Z AUTO 27020KT 8000NDV -RA OVC005/// 09/08 Q1007 W///S4;",
"01488199999","2010-12-10T12:20:00","4","61.206389","1.828889","142.0","STATFJORD B OIL PLATFORM, NO","FM-15","ENFB ","V020","280,1,N,0118,1","00210,1,9,N","011265,1,N,1","+0090,1","+0080,1","99999,9","81,1",,"07,1,+00210,1,99,9","07,1,+02100,1,99,9",,"07,99,1,99,9,99,9,99999,9,99,9,99,9","10071,1,99999,9",,"MET085METAR ENFB 101220Z AUTO 28023KT 9999NDV -SHRA BKN007/// BKN070/// 09/08 Q1007 W///S4;",
"01488199999","2010-12-10T12:50:00","4","61.206389","1.828889","142.0","STATFJORD B OIL PLATFORM, NO","FM-15","ENFB ","V020","280,1,N,0103,1","00210,1,9,N","011265,1,N,1","+0090,1","+0080,1","99999,9",,,"07,1,+00210,1,99,9",,,"07,99,1,99,9,99,9,99999,9,99,9,99,9","10071,1,99999,9",,"MET069METAR ENFB 101250Z AUTO 28020KT 9999NDV BKN007/// 09/08 Q1007 W///S4;",
"01488199999","2010-12-10T13:20:00","4","61.206389","1.828889","142.0","STATFJORD B OIL PLATFORM, NO","FM-15","ENFB ","V020","280,1,N,0103,1","00180,1,9,N","011265,1,N,1","+0090,1","+0080,1","99999,9","81,1",,"08,1,+00180,1,99,9",,,"08,99,1,99,9,99,9,99999,9,99,9,99,9","10071,1,99999,9",,"MET075METAR ENFB 101320Z AUTO 28020KT 9999NDV -SHRA OVC006/// 09/08 Q1007 W///S4;",
"01488199999","2010-12-10T13:50:00","4","61.206389","1.828889","142.0","STATFJORD B OIL PLATFORM, NO","FM-15","ENFB ","V020","280,1,N,0108,1","00150,1,9,N","011265,1,N,1","+0090,1","+0080,1","99999,9","81,1",,"07,1,+00150,1,99,9","08,1,+00690,1,99,9",,"08,99,1,99,9,99,9,99999,9,99,9,99,9","10061,1,99999,9",,"MET085METAR ENFB 101350Z AUTO 28021KT 9999NDV -SHRA BKN005/// OVC023/// 09/08 Q1006 W///S4;",
"01488199999","2010-12-10T14:20:00","4","61.206389","1.828889","142.0","STATFJORD B OIL PLATFORM, NO","FM-15","ENFB ","V020","280,1,N,0113,1","00150,1,9,N","011265,1,N,1","+0090,1","+0080,1","99999,9","61,1",,"07,1,+00150,1,99,9","07,1,+00870,1,99,9",,"07,99,1,99,9,99,9,99999,9,99,9,99,9","10061,1,99999,9",,"MET083METAR ENFB 101420Z AUTO 28022KT 9999NDV -RA BKN005/// BKN029/// 09/08 Q1006 W///S4;",
"01488199999","2010-12-10T14:50:00","4","61.206389","1.828889","142.0","STATFJORD B OIL PLATFORM, NO","FM-15","ENFB ","V020","280,1,N,0108,1","00150,1,9,N","011265,1,N,1","+0090,1","+0080,1","99999,9","61,1",,"08,1,+00150,1,99,9",,,"08,99,1,99,9,99,9,99999,9,99,9,99,9","10051,1,99999,9",,"MET073METAR ENFB 101450Z AUTO 28021KT 9999NDV -RA OVC005/// 09/08 Q1005 W///S4;",
"01488199999","2010-12-10T15:20:00","4","61.206389","1.828889","142.0","STATFJORD B OIL PLATFORM, NO","FM-15","ENFB ","V020","280,1,N,0103,1","00210,1,9,N","004300,1,N,1","+0090,1","+0080,1","99999,9","10,1","61,1","07,1,+00210,1,99,9",,,"07,99,1,99,9,99,9,99999,9,99,9,99,9","10051,1,99999,9",,"MET076METAR ENFB 101520Z AUTO 28020KT 4300NDV -RA BR BKN007/// 09/08 Q1005 W///S4;",
"01488199999","2010-12-10T15:50:00","4","61.206389","1.828889","142.0","STATFJORD B OIL PLATFORM, NO","FM-15","ENFB ","V020","270,1,N,0113,1","00150,1,9,N","011265,1,N,1","+0090,1","+0080,1","99999,9","61,1",,"07,1,+00150,1,99,9","07,1,+00930,1,99,9",,"07,99,1,99,9,99,9,99999,9,99,9,99,9","10041,1,99999,9",,"MET083METAR ENFB 101550Z AUTO 27022KT 9999NDV -RA BKN005/// BKN031/// 09/08 Q1004 W///S4;",
"01488199999","2010-12-10T16:20:00","4","61.206389","1.828889","142.0","STATFJORD B OIL PLATFORM, NO","FM-15","ENFB ","V020","260,1,N,0118,1","00150,1,9,N","008000,1,N,1","+0090,1","+0080,1","99999,9","61,1",,"07,1,+00150,1,99,9",,,"07,99,1,99,9,99,9,99999,9,99,9,99,9","10031,1,99999,9",,"MET073METAR ENFB 101620Z AUTO 26023KT 8000NDV -RA BKN005/// 09/08 Q1003 W///S4;",
"01488199999","2010-12-10T16:50:00","4","61.206389","1.828889","142.0","STATFJORD B OIL PLATFORM, NO","FM-15","ENFB ","V020","270,1,N,0134,1","00180,1,9,N","011265,1,N,1","+0090,1","+0080,1","99999,9","61,1",,"07,1,+00180,1,99,9",,,"07,99,1,99,9,99,9,99999,9,99,9,99,9","10031,1,99999,9",,"MET073METAR ENFB 101650Z AUTO 27026KT 9999NDV -RA BKN006/// 09/08 Q1003 W///S4;",
"01488199999","2010-12-10T17:20:00","4","61.206389","1.828889","142.0","STATFJORD B OIL PLATFORM, NO","FM-15","ENFB ","V020","280,1,N,0139,1","00180,1,9,N","005000,1,N,1","+0090,1","+0080,1","99999,9","61,1",,"07,1,+00180,1,99,9","07,1,+01050,1,99,9",,"07,99,1,99,9,99,9,99999,9,99,9,99,9","10020,1,99999,9",,"MET083METAR ENFB 101720Z AUTO 28027KT 5000NDV -RA BKN006/// BKN035/// 09/08 Q1002 W///S4;",
"01488199999","2010-12-10T17:50:00","4","61.206389","1.828889","142.0","STATFJORD B OIL PLATFORM, NO","FM-15","ENFB ","V020","280,1,N,0149,1","00180,1,9,N","006000,1,N,1","+0090,1","+0080,1","99999,9","61,1",,"07,1,+00180,1,99,9",,,"07,99,1,99,9,99,9,99999,9,99,9,99,9","10020,1,99999,9",,"MET073METAR ENFB 101750Z AUTO 28029KT 6000NDV -RA BKN006/// 09/08 Q1002 W///S4;",
"01488199999","2010-12-10T18:20:00","4","61.206389","1.828889","142.0","STATFJORD B OIL PLATFORM, NO","FM-15","ENFB ","V020","280,1,N,0139,1","00180,1,9,N","007000,1,N,1","+0090,1","+0080,1","99999,9","61,1",,"07,1,+00180,1,99,9","08,1,+01350,1,99,9",,"08,99,1,99,9,99,9,99999,9,99,9,99,9","10020,1,99999,9",,"MET083METAR ENFB 101820Z AUTO 28027KT 7000NDV -RA BKN006/// OVC045/// 09/08 Q1002 W///S4;",
"01488199999","2010-12-10T18:50:00","4","61.206389","1.828889","142.0","STATFJORD B OIL PLATFORM, NO","FM-15","ENFB ","V020","280,1,N,0165,1","00150,1,9,N","011265,1,N,1","+0090,1","+0080,1","99999,9","61,1",,"08,1,+00150,1,99,9",,,"08,99,1,99,9,99,9,99999,9,99,9,99,9","10010,1,99999,9",,"MET073METAR ENFB 101850Z AUTO 28032KT 9999NDV -RA OVC005/// 09/08 Q1001 W///S5;",
"01488199999","2010-12-10T19:20:00","4","61.206389","1.828889","142.0","STATFJORD B OIL PLATFORM, NO","FM-15","ENFB ","V020","290,1,N,0206,1","00330,1,9,N","011265,1,N,1","+0090,1","+0080,1","99999,9","52,1",,"07,1,+00330,1,99,9",,,"07,99,1,99,9,99,9,99999,9,99,9,99,9","10010,1,99999,9",,"MET072METAR ENFB 101920Z AUTO 29040KT 9999NDV DZ BKN011/// 09/08 Q1001 W///S5;",
"01488199999","2010-12-10T19:50:00","4","61.206389","1.828889","142.0","STATFJORD B OIL PLATFORM, NO","FM-15","ENFB ","V020","290,1,N,0195,1","00450,1,9,N","011265,1,N,1","+0090,1","+0080,1","99999,9",,,"07,1,+00450,1,99,9","07,1,+01110,1,99,9",,"07,99,1,99,9,99,9,99999,9,99,9,99,9","10010,1,99999,9",,"MET079METAR ENFB 101950Z AUTO 29038KT 9999NDV BKN015/// BKN037/// 09/08 Q1001 W///S5;",
"01488199999","2010-12-10T20:20:00","4","61.206389","1.828889","142.0","STATFJORD B OIL PLATFORM, NO","FM-15","ENFB ","V020","290,1,N,0206,1","00390,1,9,N","011265,1,N,1","+0080,1","+0080,1","99999,9",,,"07,1,+00390,1,99,9",,,"07,99,1,99,9,99,9,99999,9,99,9,99,9","10000,1,99999,9",,"MET069METAR ENFB 102020Z AUTO 29040KT 9999NDV BKN013/// 08/08 Q1000 W///S5;",
"01488199999","2010-12-10T20:50:00","4","61.206389","1.828889","142.0","STATFJORD B OIL PLATFORM, NO","FM-15","ENFB ","V020","290,1,N,0211,1","00330,1,9,N","011265,1,N,1","+0090,1","+0070,1","99999,9",,,"07,1,+00330,1,99,9",,,"07,99,1,99,9,99,9,99999,9,99,9,99,9","10000,1,99999,9",,"MET069METAR ENFB 102050Z AUTO 29041KT 9999NDV BKN011/// 09/07 Q1000 W///S5;",
"01488199999","2010-12-10T21:20:00","4","61.206389","1.828889","142.0","STATFJORD B OIL PLATFORM, NO","FM-15","ENFB ","V020","290,1,N,0211,1","00480,1,9,N","011265,1,N,1","+0090,1","+0080,1","99999,9",,,"08,1,+00480,1,99,9",,,"08,99,1,99,9,99,9,99999,9,99,9,99,9","10000,1,99999,9",,"MET069METAR ENFB 102120Z AUTO 29041KT 9999NDV OVC016/// 09/08 Q1000 W///S5;",
"01488199999","2010-12-10T21:50:00","4","61.206389","1.828889","142.0","STATFJORD B OIL PLATFORM, NO","FM-15","ENFB ","V020","290,1,N,0211,1","00480,1,9,N","009000,1,N,1","+0090,1","+0070,1","99999,9",,,"07,1,+00480,1,99,9",,,"07,99,1,99,9,99,9,99999,9,99,9,99,9","10000,1,99999,9",,"MET069METAR ENFB 102150Z AUTO 29041KT 9000NDV BKN016/// 09/07 Q1000 W///S5;",
"01488199999","2010-12-10T22:20:00","4","61.206389","1.828889","142.0","STATFJORD B OIL PLATFORM, NO","FM-15","ENFB ","V020","300,1,N,0221,1","00480,1,9,N","011265,1,N,1","+0090,1","+0070,1","99999,9",,,"07,1,+00480,1,99,9",,,"07,99,1,99,9,99,9,99999,9,99,9,99,9","10000,1,99999,9",,"MET069METAR ENFB 102220Z AUTO 30043KT 9999NDV BKN016/// 09/07 Q1000 W///S5;",
"01488199999","2010-12-10T22:50:00","4","61.206389","1.828889","142.0","STATFJORD B OIL PLATFORM, NO","FM-15","ENFB ","V020","310,1,N,0226,1","00600,1,9,N","011265,1,N,1","+0090,1","+0060,1","99999,9",,,"07,1,+00600,1,99,9",,,"07,99,1,99,9,99,9,99999,9,99,9,99,9","10000,1,99999,9",,"MET069METAR ENFB 102250Z AUTO 31044KT 9999NDV BKN020/// 09/06 Q1000 W///S6;",
"01488199999","2010-12-10T23:20:00","4","61.206389","1.828889","142.0","STATFJORD B OIL PLATFORM, NO","FM-15","ENFB ","V020","310,1,N,0231,1","00510,1,9,N","011265,1,N,1","+0090,1","+0060,1","99999,9",,,"07,1,+00510,1,99,9",,,"07,99,1,99,9,99,9,99999,9,99,9,99,9","10000,1,99999,9",,"MET069METAR ENFB 102320Z AUTO 31045KT 9999NDV BKN017/// 09/06 Q1000 W///S6;",
"01488199999","2010-12-10T23:50:00","4","61.206389","1.828889","142.0","STATFJORD B OIL PLATFORM, NO","FM-15","ENFB ","V020","310,1,N,0201,1","00360,1,9,N","011265,1,N,1","+0080,1","+0050,1","99999,9",,,"07,1,+00360,1,99,9",,,"07,99,1,99,9,99,9,99999,9,99,9,99,9","10010,1,99999,9",,"MET069METAR ENFB 102350Z AUTO 31039KT 9999NDV BKN012/// 08/05 Q1001 W///S6;",
"01488199999","2010-12-11T00:20:00","4","61.206389","1.828889","142.0","STATFJORD B OIL PLATFORM, NO","FM-15","ENFB ","V020","320,1,N,0190,1","00330,1,9,N","011265,1,N,1","+0080,1","+0050,1","99999,9",,,"07,1,+00330,1,99,9","07,1,+01050,1,99,9",,"07,99,1,99,9,99,9,99999,9,99,9,99,9","10020,1,99999,9",,"MET079METAR ENFB 110020Z AUTO 32037KT 9999NDV BKN011/// BKN035/// 08/05 Q1002 W///S6;",
"01488199999","2010-12-11T00:50:00","4","61.206389","1.828889","142.0","STATFJORD B OIL PLATFORM, NO","FM-15","ENFB ","V020","330,1,N,0195,1","00330,1,9,N","011265,1,N,1","+0070,1","+0050,1","99999,9",,,"07,1,+00330,1,99,9",,,"07,99,1,99,9,99,9,99999,9,99,9,99,9","10020,1,99999,9",,"MET069METAR ENFB 110050Z AUTO 33038KT 9999NDV BKN011/// 07/05 Q1002 W///S6;",
"01488199999","2010-12-11T01:20:00","4","61.206389","1.828889","142.0","STATFJORD B OIL PLATFORM, NO","FM-15","ENFB ","V020","320,1,N,0185,1","00510,1,9,N","011265,1,N,1","+0070,1","+0050,1","99999,9",,,"07,1,+00510,1,99,9",,,"07,99,1,99,9,99,9,99999,9,99,9,99,9","10031,1,99999,9",,"MET069METAR ENFB 110120Z AUTO 32036KT 9999NDV BKN017/// 07/05 Q1003 W///S6;",
"01488199999","2010-12-11T01:50:00","4","61.206389","1.828889","142.0","STATFJORD B OIL PLATFORM, NO","FM-15","ENFB ","V020","320,1,N,0190,1","00510,1,9,N","011265,1,N,1","+0070,1","+0040,1","99999,9",,,"07,1,+00510,1,99,9","07,1,+01500,1,99,9",,"07,99,1,99,9,99,9,99999,9,99,9,99,9","10041,1,99999,9",,"MET079METAR ENFB 110150Z AUTO 32037KT 9999NDV BKN017/// BKN052/// 07/04 Q1004 W///S6;",
"01488199999","2010-12-11T02:20:00","4","61.206389","1.828889","142.0","STATFJORD B OIL PLATFORM, NO","FM-15","ENFB ","V020","310,1,N,0180,1","00510,1,9,N","011265,1,N,1","+0070,1","+0040,1","99999,9",,,"02,1,+00420,1,99,9","07,1,+00510,1,99,9",,"07,99,1,99,9,99,9,99999,9,99,9,99,9","10041,1,99999,9",,"MET079METAR ENFB 110220Z AUTO 31035KT 9999NDV FEW014/// BKN017/// 07/04 Q1004 W///S6;",
"01488199999","2010-12-11T02:50:00","4","61.206389","1.828889","142.0","STATFJORD B OIL PLATFORM, NO","FM-15","ENFB ","V020","320,1,N,0190,1","00510,1,9,N","011265,1,N,1","+0070,1","+0040,1","99999,9",,,"07,1,+00510,1,99,9","07,1,+01500,1,99,9",,"07,99,1,99,9,99,9,99999,9,99,9,99,9","10041,1,99999,9",,"MET079METAR ENFB 110250Z AUTO 32037KT 9999NDV BKN017/// BKN057/// 07/04 Q1004 W///S6;",
"01488199999","2010-12-11T03:20:00","4","61.206389","1.828889","142.0","STATFJORD B OIL PLATFORM, NO","FM-15","ENFB ","V020","320,1,N,0190,1","00630,1,9,N","011265,1,N,1","+0070,1","+0030,1","99999,9",,,"07,1,+00630,1,99,9",,,"07,99,1,99,9,99,9,99999,9,99,9,99,9","10041,1,99999,9",,"MET069METAR ENFB 110320Z AUTO 32037KT 9999NDV BKN021/// 07/03 Q1004 W///S6;",
"01488199999","2010-12-11T03:50:00","4","61.206389","1.828889","142.0","STATFJORD B OIL PLATFORM, NO","FM-15","ENFB ","V020","310,1,N,0201,1","00300,1,9,N","011265,1,N,1","+0070,1","+0040,1","99999,9","81,1",,"07,1,+00300,1,99,9","07,1,+00630,1,99,9",,"07,99,1,99,9,99,9,99999,9,99,9,99,9","10041,1,99999,9",,"MET085METAR ENFB 110350Z AUTO 31039KT 9999NDV -SHRA BKN010/// BKN021/// 07/04 Q1004 W///S6;",
"01488199999","2010-12-11T04:20:00","4","61.206389","1.828889","142.0","STATFJORD B OIL PLATFORM, NO","FM-15","ENFB ","V020","320,1,N,0201,1","00570,1,9,N","011265,1,N,1","+0060,1","+0030,1","99999,9","81,1",,"02,1,+00480,1,99,9","07,1,+00570,1,99,9","07,1,+01800,1,99,9","07,99,1,99,9,99,9,99999,9,99,9,99,9","10041,1,99999,9",,"MET095METAR ENFB 110420Z AUTO 32039KT 9999NDV -SHRA FEW016/// BKN019/// BKN062/// 06/03 Q1004 W///S6;",
"01488199999","2010-12-11T04:50:00","4","61.206389","1.828889","142.0","STATFJORD B OIL PLATFORM, NO","FM-15","ENFB ","V020","320,1,N,0195,1","00510,1,9,N","011265,1,N,1","+0060,1","+0030,1","99999,9",,,"07,1,+00510,1,99,9",,,"07,99,1,99,9,99,9,99999,9,99,9,99,9","10041,1,99999,9",,"MET069METAR ENFB 110450Z AUTO 32038KT 9999NDV BKN017/// 06/03 Q1004 W///S6;",
"01488199999","2010-12-11T05:20:00","4","61.206389","1.828889","142.0","STATFJORD B OIL PLATFORM, NO","FM-15","ENFB ","V020","310,1,N,0201,1","00600,1,9,N","011265,1,N,1","+0060,1","+0030,1","99999,9",,,"07,1,+00600,1,99,9",,,"07,99,1,99,9,99,9,99999,9,99,9,99,9","10041,1,99999,9",,"MET069METAR ENFB 110520Z AUTO 31039KT 9999NDV BKN020/// 06/03 Q1004 W///S6;",
"01488199999","2010-12-11T05:50:00","4","61.206389","1.828889","142.0","STATFJORD B OIL PLATFORM, NO","FM-15","ENFB ","V020","310,1,N,0201,1","00720,1,9,N","011265,1,N,1","+0060,1","+0020,1","99999,9",,,"07,1,+00720,1,99,9",,,"07,99,1,99,9,99,9,99999,9,99,9,99,9","10041,1,99999,9",,"MET069METAR ENFB 110550Z AUTO 31039KT 9999NDV BKN024/// 06/02 Q1004 W///S6;",
"01488199999","2010-12-11T06:20:00","4","61.206389","1.828889","142.0","STATFJORD B OIL PLATFORM, NO","FM-15","ENFB ","V020","320,1,N,0185,1","00660,1,9,N","011265,1,N,1","+0050,1","+0020,1","99999,9",,,"07,1,+00660,1,99,9",,,"07,99,1,99,9,99,9,99999,9,99,9,99,9","10051,1,99999,9",,"MET069METAR ENFB 110620Z AUTO 32036KT 9999NDV BKN022/// 05/02 Q1005 W///S6;",
"01488199999","2010-12-11T06:50:00","4","61.206389","1.828889","142.0","STATFJORD B OIL PLATFORM, NO","FM-15","ENFB ","V020","320,1,N,0201,1","00540,1,9,N","011265,1,N,1","+0050,1","+0020,1","99999,9",,,"07,1,+00540,1,99,9",,,"07,99,1,99,9,99,9,99999,9,99,9,99,9","10051,1,99999,9",,"MET069METAR ENFB 110650Z AUTO 32039KT 9999NDV BKN018/// 05/02 Q1005 W///S6;",
"01488199999","2010-12-11T07:20:00","4","61.206389","1.828889","142.0","STATFJORD B OIL PLATFORM, NO","FM-15","ENFB ","V020","320,1,N,0211,1","00690,1,9,N","011265,1,N,1","+0050,1","+0020,1","99999,9",,,"02,1,+00540,1,99,9","07,1,+00690,1,99,9",,"07,99,1,99,9,99,9,99999,9,99,9,99,9","10051,1,99999,9",,"MET079METAR ENFB 110720Z AUTO 32041KT 9999NDV FEW018/// BKN023/// 05/02 Q1005 W///S6;",
"01488199999","2010-12-11T07:50:00","4","61.206389","1.828889","142.0","STATFJORD B OIL PLATFORM, NO","FM-15","ENFB ","V020","320,1,N,0237,1","00780,1,9,N","011265,1,N,1","+0060,1","+0000,1","99999,9",,,"07,1,+00780,1,99,9",,,"07,99,1,99,9,99,9,99999,9,99,9,99,9","10051,1,99999,9",,"MET069METAR ENFB 110750Z AUTO 32046KT 9999NDV BKN026/// 06/00 Q1005 W///S6;",
"01488199999","2010-12-11T08:20:00","4","61.206389","1.828889","142.0","STATFJORD B OIL PLATFORM, NO","FM-15","ENFB ","V020","320,1,N,0201,1","00900,1,9,N","011265,1,N,1","+0060,1","+0010,1","99999,9",,,"07,1,+00900,1,99,9",,,"07,99,1,99,9,99,9,99999,9,99,9,99,9","10051,1,99999,9","0252,1","MET072METAR ENFB 110820Z AUTO 32039G49KT 9999NDV BKN030/// 06/01 Q1005 W///S6;",
"01488199999","2010-12-11T08:50:00","4","61.206389","1.828889","142.0","STATFJORD B OIL PLATFORM, NO","FM-15","ENFB ","V020","320,1,N,0211,1","03000,1,9,N","011265,1,N,1","+0060,1","+0010,1","99999,9",,,"04,1,+00840,1,99,9","07,1,+03000,1,99,9",,"07,99,1,99,9,99,9,99999,9,99,9,99,9","10061,1,99999,9",,"MET079METAR ENFB 110850Z AUTO 32041KT 9999NDV SCT028/// BKN100/// 06/01 Q1006 W///S6;",
"01488199999","2010-12-11T09:20:00","4","61.206389","1.828889","142.0","STATFJORD B OIL PLATFORM, NO","FM-15","ENFB ","V020","310,1,N,0216,1","00690,1,9,N","011265,1,N,1","+0060,1","+0020,1","99999,9",,,"07,1,+00690,1,99,9","07,1,+01500,1,99,9","07,1,+03000,1,99,9","07,99,1,99,9,99,9,99999,9,99,9,99,9","10061,1,99999,9",,"MET089METAR ENFB 110920Z AUTO 31042KT 9999NDV BKN023/// BKN059/// BKN100/// 06/02 Q1006 W///S6;",
"01488199999","2010-12-11T09:50:00","4","61.206389","1.828889","142.0","STATFJORD B OIL PLATFORM, NO","FM-15","ENFB ","V020","320,1,N,0201,1","01500,1,C,N","011265,1,N,1","+0060,1","+0020,1","99999,9",,,"04,1,+00540,1,99,9","04,1,+01500,1,99,9","07,1,+03000,1,99,9","07,99,1,99,9,99,9,99999,9,99,9,99,9","10061,1,99999,9",,"MET089METAR ENFB 110950Z AUTO 32039KT 9999NDV SCT018/// SCT057/// BKN100/// 06/02 Q1006 W///S6;",
"01488199999","2010-12-11T10:20:00","4","61.206389","1.828889","142.0","STATFJORD B OIL PLATFORM, NO","FM-15","ENFB ","V020","320,1,N,0206,1","01800,1,9,N","011265,1,N,1","+0050,1","+0020,1","99999,9",,,"04,1,+00660,1,99,9","07,1,+01800,1,99,9","07,1,+03300,1,99,9","07,99,1,99,9,99,9,99999,9,99,9,99,9","10061,1,99999,9",,"MET089METAR ENFB 111020Z AUTO 32040KT 9999NDV SCT022/// BKN060/// BKN110/// 05/02 Q1006 W///S7;",
"01488199999","2010-12-11T10:50:00","4","61.206389","1.828889","142.0","STATFJORD B OIL PLATFORM, NO","FM-15","ENFB ","V020","320,1,N,0221,1","00690,1,9,N","011265,1,N,1","+0050,1","+0010,1","99999,9",,,"04,1,+00600,1,99,9","07,1,+00690,1,99,9","07,1,+03300,1,99,9","07,99,1,99,9,99,9,99999,9,99,9,99,9","10051,1,99999,9",,"MET089METAR ENFB 111050Z AUTO 32043KT 9999NDV SCT020/// BKN023/// BKN110/// 05/01 Q1005 W///S6;",
"01488199999","2010-12-11T11:20:00","4","61.206389","1.828889","142.0","STATFJORD B OIL PLATFORM, NO","FM-15","ENFB ","V020","320,1,N,0206,1","00540,1,9,N","011265,1,N,1","+0050,1","+0020,1","99999,9","81,1",,"07,1,+00540,1,99,9","07,1,+01800,1,99,9",,"07,99,1,99,9,99,9,99999,9,99,9,99,9","10061,1,99999,9",,"MET085METAR ENFB 111120Z AUTO 32040KT 9999NDV -SHRA BKN018/// BKN063/// 05/02 Q1006 W///S6;",
"01488199999","2010-12-11T11:50:00","4","61.206389","1.828889","142.0","STATFJORD B OIL PLATFORM, NO","FM-15","ENFB ","V020","320,1,N,0206,1","00600,1,9,N","011265,1,N,1","+0050,1","+0020,1","99999,9",,,"07,1,+00600,1,99,9",,,"07,99,1,99,9,99,9,99999,9,99,9,99,9","10051,1,99999,9",,"MET069METAR ENFB 111150Z AUTO 32040KT 9999NDV BKN020/// 05/02 Q1005 W///S6;",
"01488199999","2010-12-11T12:20:00","4","61.206389","1.828889","142.0","STATFJORD B OIL PLATFORM, NO","FM-15","ENFB ","V020","320,1,N,0211,1","00660,1,9,N","011265,1,N,1","+0050,1","+0010,1","99999,9",,,"07,1,+00660,1,99,9","07,1,+02100,1,99,9",,"07,99,1,99,9,99,9,99999,9,99,9,99,9","10061,1,99999,9",,"MET079METAR ENFB 111220Z AUTO 32041KT 9999NDV BKN022/// BKN072/// 05/01 Q1006 W///S6;",
"01488199999","2010-12-11T12:50:00","4","61.206389","1.828889","142.0","STATFJORD B OIL PLATFORM, NO","FM-15","ENFB ","V020","320,1,N,0195,1","00630,1,9,N","011265,1,N,1","+0050,1","+0020,1","99999,9","81,1",,"02,1,+00540,1,99,9","07,1,+00630,1,99,9","07,1,+02700,1,99,9","07,99,1,99,9,99,9,99999,9,99,9,99,9","10051,1,99999,9",,"MET095METAR ENFB 111250Z AUTO 32038KT 9999NDV -SHRA FEW018/// BKN021/// BKN092/// 05/02 Q1005 W///S6;",
"01488199999","2010-12-11T13:20:00","4","61.206389","1.828889","142.0","STATFJORD B OIL PLATFORM, NO","FM-15","ENFB ","V020","330,1,N,0190,1","00600,1,9,N","011265,1,N,1","+0050,1","+0020,1","99999,9","81,1",,"07,1,+00600,1,99,9","07,1,+02100,1,99,9",,"07,99,1,99,9,99,9,99999,9,99,9,99,9","10051,1,99999,9",,"MET085METAR ENFB 111320Z AUTO 33037KT 9999NDV -SHRA BKN020/// BKN075/// 05/02 Q1005 W///S6;",
"01488199999","2010-12-11T13:50:00","4","61.206389","1.828889","142.0","STATFJORD B OIL PLATFORM, NO","FM-15","ENFB ","V020","330,1,N,0201,1","00510,1,9,N","011265,1,N,1","+0040,1","+0020,1","99999,9",,,"07,1,+00510,1,99,9","07,1,+01500,1,99,9",,"07,99,1,99,9,99,9,99999,9,99,9,99,9","10051,1,99999,9","0252,1","MET082METAR ENFB 111350Z AUTO 33039G49KT 9999NDV BKN017/// BKN059/// 04/02 Q1005 W///S6;",
"01488199999","2010-12-11T14:20:00","4","61.206389","1.828889","142.0","STATFJORD B OIL PLATFORM, NO","FM-15","ENFB ","V020","340,1,N,0201,1","00660,1,C,N","011265,1,N,1","+0050,1","+0020,1","99999,9",,,"02,1,+00570,1,99,9","04,1,+00660,1,99,9","07,1,+01800,1,99,9","07,99,1,99,9,99,9,99999,9,99,9,99,9","10061,1,99999,9",,"MET089METAR ENFB 111420Z AUTO 34039KT 9999NDV FEW019/// SCT022/// BKN062/// 05/02 Q1006 W///S6;",
"01488199999","2010-12-11T14:50:00","4","61.206389","1.828889","142.0","STATFJORD B OIL PLATFORM, NO","FM-15","ENFB ","V020","340,1,N,0211,1","00630,1,9,N","005000,1,N,1","+0040,1","+0020,1","99999,9","52,1",,"07,1,+00630,1,99,9","07,1,+01800,1,99,9","07,1,+02400,1,99,9","07,99,1,99,9,99,9,99999,9,99,9,99,9","10061,1,99999,9",,"MET092METAR ENFB 111450Z AUTO 34041KT 5000NDV DZ BKN021/// BKN061/// BKN081/// 04/02 Q1006 W///S6;",
"01488199999","2010-12-11T15:20:00","4","61.206389","1.828889","142.0","STATFJORD B OIL PLATFORM, NO","FM-15","ENFB ","V020","340,1,N,0206,1","00510,1,9,N","003700,1,N,1","+0030,1","+0020,1","99999,9","81,1",,"07,1,+00510,1,99,9",,,"07,99,1,99,9,99,9,99999,9,99,9,99,9","10061,1,99999,9",,"MET075METAR ENFB 111520Z AUTO 34040KT 3700NDV -SHRA BKN017/// 03/02 Q1006 W///S6;",
"01488199999","2010-12-11T15:50:00","4","61.206389","1.828889","142.0","STATFJORD B OIL PLATFORM, NO","FM-15","ENFB ","V020","340,1,N,0201,1","00510,1,9,N","011265,1,N,1","+0050,1","+0030,1","99999,9","81,1",,"07,1,+00510,1,99,9",,,"07,99,1,99,9,99,9,99999,9,99,9,99,9","10071,1,99999,9",,"MET075METAR ENFB 111550Z AUTO 34039KT 9999NDV -SHRA BKN017/// 05/03 Q1007 W///S6;",
"01488199999","2010-12-11T16:20:00","4","61.206389","1.828889","142.0","STATFJORD B OIL PLATFORM, NO","FM-15","ENFB ","V020","340,1,N,0195,1","00570,1,9,N","011265,1,N,1","+0060,1","+0040,1","99999,9",,,"07,1,+00570,1,99,9","07,1,+01350,1,99,9",,"07,99,1,99,9,99,9,99999,9,99,9,99,9","10071,1,99999,9",,"MET079METAR ENFB 111620Z AUTO 34038KT 9999NDV BKN019/// BKN045/// 06/04 Q1007 W///S6;",
"01488199999","2010-12-11T16:50:00","4","61.206389","1.828889","142.0","STATFJORD B OIL PLATFORM, NO","FM-15","ENFB ","V020","330,1,N,0180,1","00570,1,9,N","011265,1,N,1","+0060,1","+0040,1","99999,9",,,"07,1,+00570,1,99,9",,,"07,99,1,99,9,99,9,99999,9,99,9,99,9","10081,1,99999,9",,"MET069METAR ENFB 111650Z AUTO 33035KT 9999NDV BKN019/// 06/04 Q1008 W///S6;",
"01488199999","2010-12-11T17:20:00","4","61.206389","1.828889","142.0","STATFJORD B OIL PLATFORM, NO","FM-15","ENFB ","V020","020,1,N,0149,1","00600,1,9,N","011265,1,N,1","+0060,1","+0030,1","99999,9",,,"02,1,+00420,1,99,9","07,1,+00600,1,99,9",,"07,99,1,99,9,99,9,99999,9,99,9,99,9","10102,1,99999,9",,"MET079METAR ENFB 111720Z AUTO 02029KT 9999NDV FEW014/// BKN020/// 06/03 Q1010 W///S7;",
"01488199999","2010-12-11T17:50:00","4","61.206389","1.828889","142.0","STATFJORD B OIL PLATFORM, NO","FM-15","ENFB ","V020","020,1,N,0144,1","00630,1,9,N","011265,1,N,1","+0060,1","+0020,1","99999,9",,,"07,1,+00630,1,99,9",,,"07,99,1,99,9,99,9,99999,9,99,9,99,9","10108,1,99999,9",,"MET069METAR ENFB 111750Z AUTO 02028KT 9999NDV BKN021/// 06/02 Q1011 W///S6;",
"01488199999","2010-12-11T18:20:00","4","61.206389","1.828889","142.0","STATFJORD B OIL PLATFORM, NO","FM-15","ENFB ","V020","020,1,N,0154,1","00870,1,9,N","011265,1,N,1","+0060,1","+0010,1","99999,9",,,"07,1,+00870,1,99,9",,,"07,99,1,99,9,99,9,99999,9,99,9,99,9","10119,1,99999,9",,"MET069METAR ENFB 111820Z AUTO 02030KT 9999NDV BKN029/// 06/01 Q1012 W///S6;",
"01488199999","2010-12-11T18:50:00","4","61.206389","1.828889","142.0","STATFJORD B OIL PLATFORM, NO","FM-15","ENFB ","V020","010,1,N,0139,1","00960,1,9,N","011265,1,N,1","+0060,1","+0010,1","99999,9",,,"07,1,+00960,1,99,9",,,"07,99,1,99,9,99,9,99999,9,99,9,99,9","10129,1,99999,9",,"MET069METAR ENFB 111850Z AUTO 01027KT 9999NDV BKN032/// 06/01 Q1013 W///S6;",
"01488199999","2010-12-11T19:20:00","4","61.206389","1.828889","142.0","STATFJORD B OIL PLATFORM, NO","FM-15","ENFB ","V020","020,1,N,0144,1","22000,1,9,N","011265,1,N,1","+0060,1","-0010,1","99999,9",,,"04,1,+01020,1,99,9",,,"04,99,1,99,9,99,9,99999,9,99,9,99,9","10129,1,99999,9",,"MET070METAR ENFB 111920Z AUTO 02028KT 9999NDV SCT034/// 06/M01 Q1013 W///S6;",
"01488199999","2010-12-11T19:50:00","4","61.206389","1.828889","142.0","STATFJORD B OIL PLATFORM, NO","FM-15","ENFB ","V020","010,1,N,0144,1","01020,1,9,N","011265,1,N,1","+0060,1","-0010,1","99999,9",,,"07,1,+01020,1,99,9",,,"07,99,1,99,9,99,9,99999,9,99,9,99,9","10139,1,99999,9",,"MET070METAR ENFB 111950Z AUTO 01028KT 9999NDV BKN034/// 06/M01 Q1014 W///S6;",
"01488199999","2010-12-11T20:20:00","4","61.206389","1.828889","142.0","STATFJORD B OIL PLATFORM, NO","FM-15","ENFB ","V020","010,1,N,0139,1","01050,1,9,N","011265,1,N,1","+0060,1","-0010,1","99999,9",,,"07,1,+01050,1,99,9",,,"07,99,1,99,9,99,9,99999,9,99,9,99,9","10149,1,99999,9",,"MET070METAR ENFB 112020Z AUTO 01027KT 9999NDV BKN035/// 06/M01 Q1015 W///S6;",
"01488199999","2010-12-11T20:50:00","4","61.206389","1.828889","142.0","STATFJORD B OIL PLATFORM, NO","FM-15","ENFB ","V020","010,1,N,0123,1","01050,1,9,N","011265,1,N,1","+0060,1","-0010,1","99999,9",,,"07,1,+01050,1,99,9",,,"07,99,1,99,9,99,9,99999,9,99,9,99,9","10149,1,99999,9",,"MET070METAR ENFB 112050Z AUTO 01024KT 9999NDV BKN035/// 06/M01 Q1015 W///S6;",
"01488199999","2010-12-11T21:20:00","4","61.206389","1.828889","142.0","STATFJORD B OIL PLATFORM, NO","FM-15","ENFB ","V020","020,1,N,0113,1","01080,1,9,N","011265,1,N,1","+0060,1","+0000,1","99999,9",,,"07,1,+01080,1,99,9",,,"07,99,1,99,9,99,9,99999,9,99,9,99,9","10159,1,99999,9",,"MET069METAR ENFB 112120Z AUTO 02022KT 9999NDV BKN036/// 06/00 Q1016 W///S6;",
"01488199999","2010-12-11T21:50:00","4","61.206389","1.828889","142.0","STATFJORD B OIL PLATFORM, NO","FM-15","ENFB ","V020","030,1,N,0113,1","01380,1,9,N","011265,1,N,1","+0060,1","+0020,1","99999,9",,,"04,1,+00900,1,99,9","07,1,+01380,1,99,9",,"07,99,1,99,9,99,9,99999,9,99,9,99,9","10159,1,99999,9",,"MET079METAR ENFB 112150Z AUTO 03022KT 9999NDV SCT030/// BKN046/// 06/02 Q1016 W///S6;",
"01488199999","2010-12-11T22:20:00","4","61.206389","1.828889","142.0","STATFJORD B OIL PLATFORM, NO","FM-15","ENFB ","V020","020,1,N,0103,1","22000,1,9,N","011265,1,N,1","+0050,1","+0000,1","99999,9",,,"02,1,+00690,1,99,9",,,"02,99,1,99,9,99,9,99999,9,99,9,99,9","10159,1,99999,9",,"MET069METAR ENFB 112220Z AUTO 02020KT 9999NDV FEW023/// 05/00 Q1016 W///S6;",
"01488199999","2010-12-11T22:50:00","4","61.206389","1.828889","142.0","STATFJORD B OIL PLATFORM, NO","FM-15","ENFB ","V020","030,1,N,0098,1","22000,1,9,N","011265,1,N,1","+0060,1","+0000,1","99999,9",,,"04,1,+00960,1,99,9",,,"04,99,1,99,9,99,9,99999,9,99,9,99,9","10169,1,99999,9",,"MET069METAR ENFB 112250Z AUTO 03019KT 9999NDV SCT032/// 06/00 Q1017 W///S6;",
"01488199999","2010-12-11T23:20:00","4","61.206389","1.828889","142.0","STATFJORD B OIL PLATFORM, NO","FM-15","ENFB ","V020","030,1,N,0093,1","00990,1,9,N","011265,1,N,1","+0060,1","-0010,1","99999,9",,,"07,1,+00990,1,99,9",,,"07,99,1,99,9,99,9,99999,9,99,9,99,9","10169,1,99999,9",,"MET070METAR ENFB 112320Z AUTO 03018KT 9999NDV BKN033/// 06/M01 Q1017 W///S6;",
"01488199999","2010-12-11T23:50:00","4","61.206389","1.828889","142.0","STATFJORD B OIL PLATFORM, NO","FM-15","ENFB ","V020","040,1,N,0087,1","01020,1,9,N","011265,1,N,1","+0060,1","-0010,1","99999,9",,,"07,1,+01020,1,99,9",,,"07,99,1,99,9,99,9,99999,9,99,9,99,9","10180,1,99999,9",,"MET070METAR ENFB 112350Z AUTO 04017KT 9999NDV BKN034/// 06/M01 Q1018 W///S6;",
"01488199999","2010-12-12T00:20:00","4","61.206389","1.828889","142.0","STATFJORD B OIL PLATFORM, NO","FM-15","ENFB ","V020","040,1,N,0082,1","01080,1,9,N","011265,1,N,1","+0060,1","-0010,1","99999,9",,,"07,1,+01080,1,99,9",,,"07,99,1,99,9,99,9,99999,9,99,9,99,9","10180,1,99999,9",,"MET070METAR ENFB 120020Z AUTO 04016KT 9999NDV BKN036/// 06/M01 Q1018 W///S6;",
"01488199999","2010-12-12T00:50:00","4","61.206389","1.828889","142.0","STATFJORD B OIL PLATFORM, NO","FM-15","ENFB ","V020","040,1,N,0082,1","01110,1,9,N","011265,1,N,1","+0060,1","-0020,1","99999,9",,,"07,1,+01110,1,99,9",,,"07,99,1,99,9,99,9,99999,9,99,9,99,9","10190,1,99999,9",,"MET070METAR ENFB 120050Z AUTO 04016KT 9999NDV BKN037/// 06/M02 Q1019 W///S6;",
"01488199999","2010-12-12T01:20:00","4","61.206389","1.828889","142.0","STATFJORD B OIL PLATFORM, NO","FM-15","ENFB ","V020","030,1,N,0077,1","01320,1,9,N","011265,1,N,1","+0060,1","-0020,1","99999,9",,,"08,1,+01320,1,99,9",,,"08,99,1,99,9,99,9,99999,9,99,9,99,9","10190,1,99999,9",,"MET070METAR ENFB 120120Z AUTO 03015KT 9999NDV OVC044/// 06/M02 Q1019 W///S6;",
"01488199999","2010-12-12T01:50:00","4","61.206389","1.828889","142.0","STATFJORD B OIL PLATFORM, NO","FM-15","ENFB ","V020","030,1,N,0077,1","01290,1,9,N","011265,1,N,1","+0060,1","-0030,1","99999,9",,,"07,1,+01290,1,99,9",,,"07,99,1,99,9,99,9,99999,9,99,9,99,9","10200,1,99999,9",,"MET070METAR ENFB 120150Z AUTO 03015KT 9999NDV BKN043/// 06/M03 Q1020 W///S6;",
"01488199999","2010-12-12T02:20:00","4","61.206389","1.828889","142.0","STATFJORD B OIL PLATFORM, NO","FM-15","ENFB ","V020","040,1,N,0067,1","01290,1,9,N","011265,1,N,1","+0060,1","-0020,1","99999,9",,,"07,1,+01290,1,99,9",,,"07,99,1,99,9,99,9,99999,9,99,9,99,9","10200,1,99999,9",,"MET070METAR ENFB 120220Z AUTO 04013KT 9999NDV BKN043/// 06/M02 Q1020 W///S6;",
"01488199999","2010-12-12T02:50:00","4","61.206389","1.828889","142.0","STATFJORD B OIL PLATFORM, NO","FM-15","ENFB ","V020","030,1,N,0072,1","01380,1,9,N","011265,1,N,1","+0060,1","-0030,1","99999,9",,,"07,1,+01380,1,99,9",,,"07,99,1,99,9,99,9,99999,9,99,9,99,9","10200,1,99999,9",,"MET070METAR ENFB 120250Z AUTO 03014KT 9999NDV BKN046/// 06/M03 Q1020 W///S6;",
"01488199999","2010-12-12T03:20:00","4","61.206389","1.828889","142.0","STATFJORD B OIL PLATFORM, NO","FM-15","ENFB ","V020","050,1,N,0077,1","22000,1,9,N","011265,1,N,1","+0060,1","-0010,1","99999,9",,,"04,1,+01350,1,99,9",,,"04,99,1,99,9,99,9,99999,9,99,9,99,9","10200,1,99999,9",,"MET070METAR ENFB 120320Z AUTO 05015KT 9999NDV SCT045/// 06/M01 Q1020 W///S6;",
"01488199999","2010-12-12T03:50:00","4","61.206389","1.828889","142.0","STATFJORD B OIL PLATFORM, NO","FM-15","ENFB ","V020","050,1,N,0072,1","22000,1,9,N","011265,1,N,1","+0060,1","-0020,1","99999,9",,,,,,"00,99,1,99,9,99,9,99999,9,99,9,99,9","10210,1,99999,9",,"MET064METAR ENFB 120350Z AUTO 05014KT 9999NDV NCD 06/M02 Q1021 W///S6;","Q01    003SCCGA1"
"01488199999","2010-12-12T04:20:00","4","61.206389","1.828889","142.0","STATFJORD B OIL PLATFORM, NO","FM-15","ENFB ","V020","050,1,N,0057,1","22000,1,9,N","011265,1,N,1","+0050,1","-0020,1","99999,9",,,,,,"00,99,1,99,9,99,9,99999,9,99,9,99,9","10210,1,99999,9",,"MET064METAR ENFB 120420Z AUTO 05011KT 9999NDV NCD 05/M02 Q1021 W///S6;","Q01    003SCCGA1"
"01488199999","2010-12-12T04:50:00","4","61.206389","1.828889","142.0","STATFJORD B OIL PLATFORM, NO","FM-15","ENFB ","V020","050,1,N,0057,1","22000,1,9,N","011265,1,N,1","+0050,1","-0020,1","99999,9",,,,,,"00,99,1,99,9,99,9,99999,9,99,9,99,9","10210,1,99999,9",,"MET064METAR ENFB 120450Z AUTO 05011KT 9999NDV NCD 05/M02 Q1021 W///S6;","Q01    003SCCGA1"
"01488199999","2010-12-12T05:20:00","4","61.206389","1.828889","142.0","STATFJORD B OIL PLATFORM, NO","FM-15","ENFB ","V020","050,1,N,0046,1","22000,1,9,N","011265,1,N,1","+0050,1","-0030,1","99999,9",,,,,,"00,99,1,99,9,99,9,99999,9,99,9,99,9","10210,1,99999,9",,"MET064METAR ENFB 120520Z AUTO 05009KT 9999NDV NCD 05/M03 Q1021 W///S6;","Q01    003SCCGA1"
"01488199999","2010-12-12T05:50:00","4","61.206389","1.828889","142.0","STATFJORD B OIL PLATFORM, NO","FM-15","ENFB ","V020","080,1,N,0041,1","22000,1,9,N","011265,1,N,1","+0050,1","-0020,1","99999,9",,,,,,"00,99,1,99,9,99,9,99999,9,99,9,99,9","10210,1,99999,9",,"MET064METAR ENFB 120550Z AUTO 08008KT 9999NDV NCD 05/M02 Q1021 W///S5;","Q01    003SCCGA1"
"01488199999","2010-12-12T06:20:00","4","61.206389","1.828889","142.0","STATFJORD B OIL PLATFORM, NO","FM-15","ENFB ","V020","070,1,N,0036,1","22000,1,9,N","011265,1,N,1","+0050,1","-0030,1","99999,9",,,,,,"00,99,1,99,9,99,9,99999,9,99,9,99,9","10220,1,99999,9",,"MET064METAR ENFB 120620Z AUTO 07007KT 9999NDV NCD 05/M03 Q1022 W///S5;","Q01    003SCCGA1"
"01488199999","2010-12-12T06:50:00","4","61.206389","1.828889","142.0","STATFJORD B OIL PLATFORM, NO","FM-15","ENFB ","V020","070,1,N,0026,1","22000,1,9,N","011265,1,N,1","+0060,1","-0030,1","99999,9",,,,,,"00,99,1,99,9,99,9,99999,9,99,9,99,9","10220,1,99999,9",,"MET064METAR ENFB 120650Z AUTO 07005KT 9999NDV NCD 06/M03 Q1022 W///S5;","Q01    003SCCGA1"
"01488199999","2010-12-12T07:20:00","4","61.206389","1.828889","142.0","STATFJORD B OIL PLATFORM, NO","FM-15","ENFB ","V020","100,1,N,0026,1","01500,1,9,N","011265,1,N,1","+0060,1","-0030,1","99999,9",,,"07,1,+01500,1,99,9",,,"07,99,1,99,9,99,9,99999,9,99,9,99,9","10220,1,99999,9",,"MET070METAR ENFB 120720Z AUTO 10005KT 9999NDV BKN057/// 06/M03 Q1022 W///S5;",
"01488199999","2010-12-12T07:50:00","4","61.206389","1.828889","142.0","STATFJORD B OIL PLATFORM, NO","FM-15","ENFB ","V020","120,1,N,0031,1","01500,1,9,N","011265,1,N,1","+0060,1","-0020,1","99999,9",,,"07,1,+01500,1,99,9",,,"07,99,1,99,9,99,9,99999,9,99,9,99,9","10230,1,99999,9",,"MET070METAR ENFB 120750Z AUTO 12006KT 9999NDV BKN051/// 06/M02 Q1023 W///S5;",
"01488199999","2010-12-12T08:20:00","4","61.206389","1.828889","142.0","STATFJORD B OIL PLATFORM, NO","FM-15","ENFB ","V020","130,1,N,0036,1","01380,1,9,N","011265,1,N,1","+0060,1","-0030,1","99999,9",,,"07,1,+01380,1,99,9","07,1,+05100,1,99,9",,"07,99,1,99,9,99,9,99999,9,99,9,99,9","10230,1,99999,9",,"MET080METAR ENFB 120820Z AUTO 13007KT 9999NDV BKN046/// BKN170/// 06/M03 Q1023 W///S5;",
"01488199999","2010-12-12T08:50:00","4","61.206389","1.828889","142.0","STATFJORD B OIL PLATFORM, NO","FM-15","ENFB ","V020","150,1,N,0026,1","01200,1,9,N","011265,1,N,1","+0060,1","-0020,1","99999,9",,,"07,1,+01200,1,99,9",,,"07,99,1,99,9,99,9,99999,9,99,9,99,9","10230,1,99999,9",,"MET070METAR ENFB 120850Z AUTO 15005KT 9999NDV BKN040/// 06/M02 Q1023 W///S5;",
"01488199999","2010-12-12T09:20:00","4","61.206389","1.828889","142.0","STATFJORD B OIL PLATFORM, NO","FM-15","ENFB ","V020","190,1,N,0036,1","22000,1,9,N","011265,1,N,1","+0060,1","-0020,1","99999,9",,,"04,1,+01200,1,99,9",,,"04,99,1,99,9,99,9,99999,9,99,9,99,9","10230,1,99999,9",,"MET078METAR ENFB 120920Z AUTO 19007KT 150V240 9999NDV SCT040/// 06/M02 Q1023 W///S5;",
"01488199999","2010-12-12T09:50:00","4","61.206389","1.828889","142.0","STATFJORD B OIL PLATFORM, NO","FM-15","ENFB ","V020","999,9,V,0031,1","01110,1,9,N","011265,1,N,1","+0060,1","-0020,1","99999,9",,,"07,1,+01110,1,99,9",,,"07,99,1,99,9,99,9,99999,9,99,9,99,9","10230,1,99999,9",,"MET070METAR ENFB 120950Z AUTO VRB06KT 9999NDV BKN037/// 06/M02 Q1023 W///S5;",
"01488199999","2010-12-12T10:20:00","4","61.206389","1.828889","142.0","STATFJORD B OIL PLATFORM, NO","FM-15","ENFB ","V020","240,1,N,0051,1","01020,1,9,N","011265,1,N,1","+0060,1","-0010,1","99999,9",,,"07,1,+01020,1,99,9","08,1,+01380,1,99,9",,"08,99,1,99,9,99,9,99999,9,99,9,99,9","10240,1,99999,9",,"MET080METAR ENFB 121020Z AUTO 24010KT 9999NDV BKN034/// OVC046/// 06/M01 Q1024 W///S5;",
"01488199999","2010-12-12T10:50:00","4","61.206389","1.828889","142.0","STATFJORD B OIL PLATFORM, NO","FM-15","ENFB ","V020","240,1,N,0057,1","00900,1,9,N","011265,1,N,1","+0050,1","+0000,1","99999,9","81,1",,"07,1,+00900,1,99,9",,,"07,99,1,99,9,99,9,99999,9,99,9,99,9","10240,1,99999,9",,"MET075METAR ENFB 121050Z AUTO 24011KT 9999NDV -SHRA BKN030/// 05/00 Q1024 W///S5;",
"01488199999","2010-12-12T11:20:00","4","61.206389","1.828889","142.0","STATFJORD B OIL PLATFORM, NO","FM-15","ENFB ","V020","230,1,N,0067,1","00720,1,9,N","011265,1,N,1","+0050,1","+0010,1","99999,9",,,"07,1,+00720,1,99,9",,,"07,99,1,99,9,99,9,99999,9,99,9,99,9","10230,1,99999,9",,"MET069METAR ENFB 121120Z AUTO 23013KT 9999NDV BKN024/// 05/01 Q1023 W///S5;",
"01488199999","2010-12-12T11:50:00","4","61.206389","1.828889","142.0","STATFJORD B OIL PLATFORM, NO","FM-15","ENFB ","V020","230,1,N,0062,1","00660,1,9,N","008000,1,N,1","+0040,1","+0010,1","99999,9","81,1",,"02,1,+00330,1,99,9","08,1,+00660,1,99,9",,"08,99,1,99,9,99,9,99999,9,99,9,99,9","10240,1,99999,9",,"MET085METAR ENFB 121150Z AUTO 23012KT 8000NDV -SHRA FEW011/// OVC022/// 04/01 Q1024 W///S5;",
"01488199999","2010-12-12T12:20:00","4","61.206389","1.828889","142.0","STATFJORD B OIL PLATFORM, NO","FM-15","ENFB ","V020","220,1,N,0051,1","00360,1,9,N","005000,1,N,1","+0040,1","+0020,1","99999,9",,,"08,1,+00360,1,99,9",,,"08,99,1,99,9,99,9,99999,9,99,9,99,9","10240,1,99999,9",,"MET069METAR ENFB 121220Z AUTO 22010KT 5000NDV OVC012/// 04/02 Q1024 W///S5;",
"01488199999","2010-12-12T12:50:00","4","61.206389","1.828889","142.0","STATFJORD B OIL PLATFORM, NO","FM-15","ENFB ","V020","310,1,N,0051,1","00300,1,9,N","009000,1,N,1","+0050,1","+0030,1","99999,9","81,1",,"07,1,+00300,1,99,9",,,"07,99,1,99,9,99,9,99999,9,99,9,99,9","10230,1,99999,9",,"MET075METAR ENFB 121250Z AUTO 31010KT 9000NDV -SHRA BKN010/// 05/03 Q1023 W///S4;",
"01488199999","2010-12-12T13:20:00","4","61.206389","1.828889","142.0","STATFJORD B OIL PLATFORM, NO","FM-15","ENFB ","V020","310,1,N,0072,1","00450,1,9,N","011265,1,N,1","+0060,1","+0030,1","99999,9",,,"07,1,+00450,1,99,9","07,1,+03300,1,99,9",,"07,99,1,99,9,99,9,99999,9,99,9,99,9","10230,1,99999,9",,"MET079METAR ENFB 121320Z AUTO 31014KT 9999NDV BKN015/// BKN110/// 06/03 Q1023 W///S4;",
"01488199999","2010-12-12T13:50:00","4","61.206389","1.828889","142.0","STATFJORD B OIL PLATFORM, NO","FM-15","ENFB ","V020","320,1,N,0087,1","03000,1,9,N","011265,1,N,1","+0050,1","+0030,1","99999,9",,,"04,1,+00300,1,99,9","07,1,+03000,1,99,9",,"07,99,1,99,9,99,9,99999,9,99,9,99,9","10230,1,99999,9",,"MET079METAR ENFB 121350Z AUTO 32017KT 9999NDV SCT010/// BKN100/// 05/03 Q1023 W///S4;",
"01488199999","2010-12-12T14:20:00","4","61.206389","1.828889","142.0","STATFJORD B OIL PLATFORM, NO","FM-15","ENFB ","V020","320,1,N,0077,1","00330,1,9,N","011265,1,N,1","+0050,1","+0030,1","99999,9","81,1",,"07,1,+00330,1,99,9","07,1,+03000,1,99,9",,"07,99,1,99,9,99,9,99999,9,99,9,99,9","10230,1,99999,9",,"MET085METAR ENFB 121420Z AUTO 32015KT 9999NDV -SHRA BKN011/// BKN100/// 05/03 Q1023 W///S5;",
"01488199999","2010-12-12T14:50:00","4","61.206389","1.828889","142.0","STATFJORD B OIL PLATFORM, NO","FM-15","ENFB ","V020","320,1,N,0077,1","00420,1,9,N","011265,1,N,1","+0050,1","+0030,1","99999,9",,,"04,1,+00390,1,99,9","07,1,+00420,1,99,9","07,1,+03000,1,99,9","07,99,1,99,9,99,9,99999,9,99,9,99,9","10230,1,99999,9",,"MET089METAR ENFB 121450Z AUTO 32015KT 9999NDV SCT013/// BKN014/// BKN100/// 05/03 Q1023 W///S5;",
"01488199999","2010-12-12T15:20:00","4","61.206389","1.828889","142.0","STATFJORD B OIL PLATFORM, NO","FM-15","ENFB ","V020","320,1,N,0082,1","00510,1,9,N","011265,1,N,1","+0050,1","+0030,1","99999,9",,,"07,1,+00510,1,99,9",,,"07,99,1,99,9,99,9,99999,9,99,9,99,9","10230,1,99999,9",,"MET069METAR ENFB 121520Z AUTO 32016KT 9999NDV BKN017/// 05/03 Q1023 W///S4;",
"01488199999","2010-12-12T15:50:00","4","61.206389","1.828889","142.0","STATFJORD B OIL PLATFORM, NO","FM-15","ENFB ","V020","320,1,N,0093,1","00510,1,9,N","011265,1,N,1","+0050,1","+0030,1","99999,9",,,"04,1,+00450,1,99,9","07,1,+00510,1,99,9",,"07,99,1,99,9,99,9,99999,9,99,9,99,9","10230,1,99999,9",,"MET079METAR ENFB 121550Z AUTO 32018KT 9999NDV SCT015/// BKN017/// 05/03 Q1023 W///S4;",
"01488199999","2010-12-12T16:20:00","4","61.206389","1.828889","142.0","STATFJORD B OIL PLATFORM, NO","FM-15","ENFB ","V020","320,1,N,0087,1","02400,1,9,N","011265,1,N,1","+0050,1","+0030,1","99999,9",,,"04,1,+00510,1,99,9","07,1,+02400,1,99,9",,"07,99,1,99,9,99,9,99999,9,99,9,99,9","10230,1,99999,9",,"MET079METAR ENFB 121620Z AUTO 32017KT 9999NDV SCT017/// BKN088/// 05/03 Q1023 W///S5;",
"01488199999","2010-12-12T16:50:00","4","61.206389","1.828889","142.0","STATFJORD B OIL PLATFORM, NO","FM-15","ENFB ","V020","320,1,N,0087,1","00630,1,9,N","011265,1,N,1","+0050,1","+0020,1","99999,9",,,"07,1,+00630,1,99,9","07,1,+02400,1,99,9",,"07,99,1,99,9,99,9,99999,9,99,9,99,9","10230,1,99999,9",,"MET079METAR ENFB 121650Z AUTO 32017KT 9999NDV BKN021/// BKN085/// 05/02 Q1023 W///S4;",
"01488199999","2010-12-12T17:20:00","4","61.206389","1.828889","142.0","STATFJORD B OIL PLATFORM, NO","FM-15","ENFB ","V020","320,1,N,0087,1","00630,1,9,N","011265,1,N,1","+0050,1","+0010,1","99999,9",,,"07,1,+00630,1,99,9",,,"07,99,1,99,9,99,9,99999,9,99,9,99,9","10230,1,99999,9",,"MET069METAR ENFB 121720Z AUTO 32017KT 9999NDV BKN021/// 05/01 Q1023 W///S5;",
"01488199999","2010-12-12T17:50:00","4","61.206389","1.828889","142.0","STATFJORD B OIL PLATFORM, NO","FM-15","ENFB ","V020","330,1,N,0087,1","00720,1,9,N","011265,1,N,1","+0050,1","+0010,1","99999,9",,,"07,1,+00720,1,99,9","07,1,+02100,1,99,9",,"07,99,1,99,9,99,9,99999,9,99,9,99,9","10230,1,99999,9",,"MET079METAR ENFB 121750Z AUTO 33017KT 9999NDV BKN024/// BKN076/// 05/01 Q1023 W///S5;",
"01488199999","2010-12-12T18:20:00","4","61.206389","1.828889","142.0","STATFJORD B OIL PLATFORM, NO","FM-15","ENFB ","V020","320,1,N,0087,1","00720,1,9,N","011265,1,N,1","+0050,1","+0010,1","99999,9",,,"07,1,+00720,1,99,9",,,"07,99,1,99,9,99,9,99999,9,99,9,99,9","10230,1,99999,9",,"MET069METAR ENFB 121820Z AUTO 32017KT 9999NDV BKN024/// 05/01 Q1023 W///S5;",
"01488199999","2010-12-12T18:50:00","4","61.206389","1.828889","142.0","STATFJORD B OIL PLATFORM, NO","FM-15","ENFB ","V020","320,1,N,0082,1","00720,1,9,N","011265,1,N,1","+0050,1","+0000,1","99999,9",,,"07,1,+00720,1,99,9",,,"07,99,1,99,9,99,9,99999,9,99,9,99,9","10230,1,99999,9",,"MET069METAR ENFB 121850Z AUTO 32016KT 9999NDV BKN024/// 05/00 Q1023 W///S5;",
"01488199999","2010-12-12T19:20:00","4","61.206389","1.828889","142.0","STATFJORD B OIL PLATFORM, NO","FM-15","ENFB ","V020","330,1,N,0082,1","00720,1,9,N","011265,1,N,1","+0050,1","+0010,1","99999,9",,,"08,1,+00720,1,99,9",,,"08,99,1,99,9,99,9,99999,9,99,9,99,9","10230,1,99999,9",,"MET069METAR ENFB 121920Z AUTO 33016KT 9999NDV OVC024/// 05/01 Q1023 W///S5;",
"01488199999","2010-12-12T19:50:00","4","61.206389","1.828889","142.0","STATFJORD B OIL PLATFORM, NO","FM-15","ENFB ","V020","330,1,N,0077,1","00690,1,9,N","011265,1,N,1","+0050,1","+0000,1","99999,9","61,1",,"07,1,+00690,1,99,9","07,1,+01800,1,99,9",,"07,99,1,99,9,99,9,99999,9,99,9,99,9","10230,1,99999,9",,"MET083METAR ENFB 121950Z AUTO 33015KT 9999NDV -RA BKN023/// BKN063/// 05/00 Q1023 W///S4;",
"01488199999","2010-12-12T20:20:00","4","61.206389","1.828889","142.0","STATFJORD B OIL PLATFORM, NO","FM-15","ENFB ","V020","330,1,N,0082,1","00690,1,9,N","011265,1,N,1","+0050,1","+0010,1","99999,9",,,"07,1,+00690,1,99,9",,,"07,99,1,99,9,99,9,99999,9,99,9,99,9","10240,1,99999,9",,"MET069METAR ENFB 122020Z AUTO 33016KT 9999NDV BKN023/// 05/01 Q1024 W///S4;",
"01488199999","2010-12-12T20:50:00","4","61.206389","1.828889","142.0","STATFJORD B OIL PLATFORM, NO","FM-15","ENFB ","V020","330,1,N,0072,1","00630,1,9,N","011265,1,N,1","+0050,1","+0010,1","99999,9",,,"07,1,+00630,1,99,9","07,1,+02100,1,99,9",,"07,99,1,99,9,99,9,99999,9,99,9,99,9","10240,1,99999,9",,"MET079METAR ENFB 122050Z AUTO 33014KT 9999NDV BKN021/// BKN071/// 05/01 Q1024 W///S4;",
"01488199999","2010-12-12T21:20:00","4","61.206389","1.828889","142.0","STATFJORD B OIL PLATFORM, NO","FM-15","ENFB ","V020","330,1,N,0077,1","00630,1,9,N","011265,1,N,1","+0050,1","+0010,1","99999,9",,,"07,1,+00630,1,99,9","07,1,+01800,1,99,9",,"07,99,1,99,9,99,9,99999,9,99,9,99,9","10240,1,99999,9",,"MET079METAR ENFB 122120Z AUTO 33015KT 9999NDV BKN021/// BKN060/// 05/01 Q1024 W///S4;",
"01488199999","2010-12-12T21:50:00","4","61.206389","1.828889","142.0","STATFJORD B OIL PLATFORM, NO","FM-15","ENFB ","V020","330,1,N,0077,1","00630,1,9,N","011265,1,N,1","+0060,1","+0020,1","99999,9",,,"07,1,+00630,1,99,9",,,"07,99,1,99,9,99,9,99999,9,99,9,99,9","10240,1,99999,9",,"MET069METAR ENFB 122150Z AUTO 33015KT 9999NDV BKN021/// 06/02 Q1024 W///S5;",
"01488199999","2010-12-12T22:20:00","4","61.206389","1.828889","142.0","STATFJORD B OIL PLATFORM, NO","FM-15","ENFB ","V020","340,1,N,0082,1","00660,1,9,N","011265,1,N,1","+0060,1","+0020,1","99999,9",,,"07,1,+00660,1,99,9",,,"07,99,1,99,9,99,9,99999,9,99,9,99,9","10230,1,99999,9",,"MET069METAR ENFB 122220Z AUTO 34016KT 9999NDV BKN022/// 06/02 Q1023 W///S5;",
"01488199999","2010-12-12T22:50:00","4","61.206389","1.828889","142.0","STATFJORD B OIL PLATFORM, NO","FM-15","ENFB ","V020","330,1,N,0077,1","00750,1,9,N","011265,1,N,1","+0060,1","+0010,1","99999,9",,,"07,1,+00750,1,99,9",,,"07,99,1,99,9,99,9,99999,9,99,9,99,9","10230,1,99999,9",,"MET069METAR ENFB 122250Z AUTO 33015KT 9999NDV BKN025/// 06/01 Q1023 W///S5;",
"01488199999","2010-12-12T23:20:00","4","61.206389","1.828889","142.0","STATFJORD B OIL PLATFORM, NO","FM-15","ENFB ","V020","320,1,N,0072,1","00690,1,9,N","011265,1,N,1","+0060,1","+0020,1","99999,9",,,"07,1,+00690,1,99,9","07,1,+02100,1,99,9",,"07,99,1,99,9,99,9,99999,9,99,9,99,9","10230,1,99999,9",,"MET079METAR ENFB 122320Z AUTO 32014KT 9999NDV BKN023/// BKN075/// 06/02 Q1023 W///S5;",
"01488199999","2010-12-12T23:50:00","4","61.206389","1.828889","142.0","STATFJORD B OIL PLATFORM, NO","FM-15","ENFB ","V020","320,1,N,0072,1","00690,1,9,N","011265,1,N,1","+0060,1","+0020,1","99999,9",,,"07,1,+00690,1,99,9","07,1,+02100,1,99,9",,"07,99,1,99,9,99,9,99999,9,99,9,99,9","10230,1,99999,9",,"MET079METAR ENFB 122350Z AUTO 32014KT 9999NDV BKN023/// BKN075/// 06/02 Q1023 W///S5;",
"01488199999","2010-12-13T00:20:00","4","61.206389","1.828889","142.0","STATFJORD B OIL PLATFORM, NO","FM-15","ENFB ","V020","320,1,N,0077,1","02100,1,9,N","011265,1,N,1","+0060,1","+0020,1","99999,9",,,"02,1,+00720,1,99,9","07,1,+02100,1,99,9",,"07,99,1,99,9,99,9,99999,9,99,9,99,9","10230,1,99999,9",,"MET079METAR ENFB 130020Z AUTO 32015KT 9999NDV FEW024/// BKN074/// 06/02 Q1023 W///S4;",
"01488199999","2010-12-13T00:50:00","4","61.206389","1.828889","142.0","STATFJORD B OIL PLATFORM, NO","FM-15","ENFB ","V020","330,1,N,0077,1","02100,1,9,N","011265,1,N,1","+0070,1","+0020,1","99999,9",,,"04,1,+00720,1,99,9","07,1,+02100,1,99,9",,"07,99,1,99,9,99,9,99999,9,99,9,99,9","10230,1,99999,9",,"MET079METAR ENFB 130050Z AUTO 33015KT 9999NDV SCT024/// BKN072/// 07/02 Q1023 W///S4;",
"01488199999","2010-12-13T01:20:00","4","61.206389","1.828889","142.0","STATFJORD B OIL PLATFORM, NO","FM-15","ENFB ","V020","330,1,N,0067,1","02100,1,9,N","011265,1,N,1","+0070,1","+0020,1","99999,9",,,"02,1,+00720,1,99,9","07,1,+02100,1,99,9",,"07,99,1,99,9,99,9,99999,9,99,9,99,9","10230,1,99999,9",,"MET079METAR ENFB 130120Z AUTO 33013KT 9999NDV FEW024/// BKN071/// 07/02 Q1023 W///S4;",
"01488199999","2010-12-13T01:50:00","4","61.206389","1.828889","142.0","STATFJORD B OIL PLATFORM, NO","FM-15","ENFB ","V020","340,1,N,0051,1","22000,1,9,N","011265,1,N,1","+0070,1","+0030,1","99999,9",,,"04,1,+01500,1,99,9",,,"04,99,1,99,9,99,9,99999,9,99,9,99,9","10230,1,99999,9",,"MET069METAR ENFB 130150Z AUTO 34010KT 9999NDV SCT057/// 07/03 Q1023 W///S4;",
"01488199999","2010-12-13T02:20:00","4","61.206389","1.828889","142.0","STATFJORD B OIL PLATFORM, NO","FM-15","ENFB ","V020","350,1,N,0036,1","00630,1,9,N","011265,1,N,1","+0070,1","+0030,1","99999,9",,,"07,1,+00630,1,99,9","07,1,+01500,1,99,9",,"07,99,1,99,9,99,9,99999,9,99,9,99,9","10230,1,99999,9",,"MET079METAR ENFB 130220Z AUTO 35007KT 9999NDV BKN021/// BKN058/// 07/03 Q1023 W///S4;",
"01488199999","2010-12-13T02:50:00","4","61.206389","1.828889","142.0","STATFJORD B OIL PLATFORM, NO","FM-15","ENFB ","V020","320,1,N,0041,1","00570,1,9,N","011265,1,N,1","+0070,1","+0030,1","99999,9","61,1",,"07,1,+00570,1,99,9","08,1,+00990,1,99,9",,"08,99,1,99,9,99,9,99999,9,99,9,99,9","10230,1,99999,9",,"MET083METAR ENFB 130250Z AUTO 32008KT 9999NDV -RA BKN019/// OVC033/// 07/03 Q1023 W///S4;",
"01488199999","2010-12-13T03:20:00","4","61.206389","1.828889","142.0","STATFJORD B OIL PLATFORM, NO","FM-15","ENFB ","V020","320,1,N,0036,1","00570,1,9,N","011265,1,N,1","+0070,1","+0040,1","99999,9","81,1",,"08,1,+00570,1,99,9",,,"08,99,1,99,9,99,9,99999,9,99,9,99,9","10230,1,99999,9",,"MET075METAR ENFB 130320Z AUTO 32007KT 9999NDV -SHRA OVC019/// 07/04 Q1023 W///S4;",
"01488199999","2010-12-13T03:50:00","4","61.206389","1.828889","142.0","STATFJORD B OIL PLATFORM, NO","FM-15","ENFB ","V020","340,1,N,0036,1","00990,1,9,N","011265,1,N,1","+0060,1","+0040,1","99999,9","81,1",,"04,1,+00450,1,99,9","07,1,+00990,1,99,9","07,1,+01500,1,99,9","07,99,1,99,9,99,9,99999,9,99,9,99,9","10230,1,99999,9",,"MET095METAR ENFB 130350Z AUTO 34007KT 9999NDV -SHRA SCT015/// BKN033/// BKN058/// 06/04 Q1023 W///S4;",
"01488199999","2010-12-13T04:20:00","4","61.206389","1.828889","142.0","STATFJORD B OIL PLATFORM, NO","FM-15","ENFB ","V020","320,1,N,0031,1","00510,1,9,N","011265,1,N,1","+0060,1","+0040,1","99999,9","81,1",,"02,1,+00450,1,99,9","07,1,+00510,1,99,9",,"07,99,1,99,9,99,9,99999,9,99,9,99,9","10230,1,99999,9",,"MET085METAR ENFB 130420Z AUTO 32006KT 9999NDV -SHRA FEW015/// BKN017/// 06/04 Q1023 W///S4;",
"01488199999","2010-12-13T04:50:00","4","61.206389","1.828889","142.0","STATFJORD B OIL PLATFORM, NO","FM-15","ENFB ","V020","310,1,N,0051,1","00510,1,9,N","011265,1,N,1","+0070,1","+0050,1","99999,9",,,"02,1,+00330,1,99,9","07,1,+00510,1,99,9",,"07,99,1,99,9,99,9,99999,9,99,9,99,9","10230,1,99999,9",,"MET079METAR ENFB 130450Z AUTO 31010KT 9999NDV FEW011/// BKN017/// 07/05 Q1023 W///S4;",
"01488199999","2010-12-13T05:20:00","4","61.206389","1.828889","142.0","STATFJORD B OIL PLATFORM, NO","FM-15","ENFB ","V020","320,1,N,0041,1","00420,1,9,N","008000,1,N,1","+0070,1","+0050,1","99999,9","81,1",,"07,1,+00420,1,99,9",,,"07,99,1,99,9,99,9,99999,9,99,9,99,9","10230,1,99999,9",,"MET075METAR ENFB 130520Z AUTO 32008KT 8000NDV -SHRA BKN014/// 07/05 Q1023 W///S4;",
"01488199999","2010-12-13T05:50:00","4","61.206389","1.828889","142.0","STATFJORD B OIL PLATFORM, NO","FM-15","ENFB ","V020","310,1,N,0021,1","00930,1,9,N","011265,1,N,1","+0070,1","+0050,1","99999,9",,,"07,1,+00930,1,99,9","07,1,+01320,1,99,9",,"07,99,1,99,9,99,9,99999,9,99,9,99,9","10230,1,99999,9",,"MET079METAR ENFB 130550Z AUTO 31004KT 9999NDV BKN031/// BKN044/// 07/05 Q1023 W///S4;",
"01488199999","2010-12-13T06:20:00","4","61.206389","1.828889","142.0","STATFJORD B OIL PLATFORM, NO","FM-15","ENFB ","V020","310,1,N,0015,1","00900,1,9,N","011265,1,N,1","+0070,1","+0050,1","99999,9",,,"07,1,+00900,1,99,9","08,1,+01350,1,99,9",,"08,99,1,99,9,99,9,99999,9,99,9,99,9","10230,1,99999,9",,"MET087METAR ENFB 130620Z AUTO 31003KT 280V360 9999NDV BKN030/// OVC045/// 07/05 Q1023 W///S4;",
"01488199999","2010-12-13T06:50:00","4","61.206389","1.828889","142.0","STATFJORD B OIL PLATFORM, NO","FM-15","ENFB ","V020","300,1,N,0021,1","00810,1,9,N","011265,1,N,1","+0070,1","+0050,1","99999,9",,,"08,1,+00810,1,99,9",,,"08,99,1,99,9,99,9,99999,9,99,9,99,9","10230,1,99999,9",,"MET069METAR ENFB 130650Z AUTO 30004KT 9999NDV OVC027/// 07/05 Q1023 W///S4;",
"01488199999","2010-12-13T07:20:00","4","61.206389","1.828889","142.0","STATFJORD B OIL PLATFORM, NO","FM-15","ENFB ","V020","999,9,V,0010,1","00870,1,9,N","011265,1,N,1","+0080,1","+0050,1","99999,9",,,"08,1,+00870,1,99,9",,,"08,99,1,99,9,99,9,99999,9,99,9,99,9","10230,1,99999,9",,"MET069METAR ENFB 130720Z AUTO VRB02KT 9999NDV OVC029/// 08/05 Q1023 W///S4;",
"01488199999","2010-12-13T07:50:00","4","61.206389","1.828889","142.0","STATFJORD B OIL PLATFORM, NO","FM-15","ENFB ","V020","999,9,V,0010,1","00600,1,9,N","008000,1,N,1","+0070,1","+0050,1","99999,9","61,1",,"08,1,+00600,1,99,9",,,"08,99,1,99,9,99,9,99999,9,99,9,99,9","10230,1,99999,9",,"MET073METAR ENFB 130750Z AUTO VRB02KT 8000NDV -RA OVC020/// 07/05 Q1023 W///S4;",
"01488199999","2010-12-13T08:20:00","4","61.206389","1.828889","142.0","STATFJORD B OIL PLATFORM, NO","FM-15","ENFB ","V020","020,1,N,0015,1","00240,1,9,N","009000,1,N,1","+0060,1","+0040,1","99999,9","52,1",,"07,1,+00240,1,99,9",,,"07,99,1,99,9,99,9,99999,9,99,9,99,9","10240,1,99999,9",,"MET080METAR ENFB 130820Z AUTO 02003KT 330V050 9000NDV DZ BKN008/// 06/04 Q1024 W///S4;",
"01488199999","2010-12-13T08:50:00","4","61.206389","1.828889","142.0","STATFJORD B OIL PLATFORM, NO","FM-15","ENFB ","V020","080,1,N,0015,1","00750,1,9,N","011265,1,N,1","+0070,1","+0050,1","99999,9",,,"08,1,+00750,1,99,9",,,"08,99,1,99,9,99,9,99999,9,99,9,99,9","10240,1,99999,9",,"MET069METAR ENFB 130850Z AUTO 08003KT 9999NDV OVC025/// 07/05 Q1024 W///S4;",
"01488199999","2010-12-13T09:20:00","4","61.206389","1.828889","142.0","STATFJORD B OIL PLATFORM, NO","FM-15","ENFB ","V020","999,9,C,0000,1","00960,1,9,N","011265,1,N,1","+0060,1","+0050,1","99999,9",,,"07,1,+00960,1,99,9",,,"07,99,1,99,9,99,9,99999,9,99,9,99,9","10240,1,99999,9",,"MET069METAR ENFB 130920Z AUTO 00000KT 9999NDV BKN032/// 06/05 Q1024 W///S3;",
"01488199999","2010-12-13T09:50:00","4","61.206389","1.828889","142.0","STATFJORD B OIL PLATFORM, NO","FM-15","ENFB ","V020","999,9,C,0000,1","00720,1,9,N","011265,1,N,1","+0060,1","+0050,1","99999,9",,,"02,1,+00300,1,99,9","07,1,+00720,1,99,9","07,1,+01080,1,99,9","07,99,1,99,9,99,9,99999,9,99,9,99,9","10240,1,99999,9",,"MET089METAR ENFB 130950Z AUTO 00000KT 9999NDV FEW010/// BKN024/// BKN036/// 06/05 Q1024 W///S3;",
"01488199999","2010-12-13T10:20:00","4","61.206389","1.828889","142.0","STATFJORD B OIL PLATFORM, NO","FM-15","ENFB ","V020","350,1,N,0046,1","00270,1,9,N","011265,1,N,1","+0060,1","+0040,1","99999,9",,,"07,1,+00270,1,99,9","07,1,+00660,1,99,9","08,1,+00990,1,99,9","08,99,1,99,9,99,9,99999,9,99,9,99,9","10240,1,99999,9",,"MET089METAR ENFB 131020Z AUTO 35009KT 9999NDV BKN009/// BKN022/// OVC033/// 06/04 Q1024 W///S4;",
"01488199999","2010-12-13T10:50:00","4","61.206389","1.828889","142.0","STATFJORD B OIL PLATFORM, NO","FM-15","ENFB ","V020","340,1,N,0026,1","00600,1,9,N","011265,1,N,1","+0060,1","+0040,1","99999,9",,,"08,1,+00600,1,99,9",,,"08,99,1,99,9,99,9,99999,9,99,9,99,9","10240,1,99999,9",,"MET077METAR ENFB 131050Z AUTO 34005KT 310V010 9999NDV OVC020/// 06/04 Q1024 W///S4;",
"01488199999","2010-12-13T11:20:00","4","61.206389","1.828889","142.0","STATFJORD B OIL PLATFORM, NO","FM-15","ENFB ","V020","010,1,N,0031,1","01080,1,9,N","011265,1,N,1","+0060,1","+0040,1","99999,9",,,"02,1,+00570,1,99,9","07,1,+01080,1,99,9",,"07,99,1,99,9,99,9,99999,9,99,9,99,9","10240,1,99999,9",,"MET079METAR ENFB 131120Z AUTO 01006KT 9999NDV FEW019/// BKN036/// 06/04 Q1024 W///S4;",
"01488199999","2010-12-13T11:50:00","4","61.206389","1.828889","142.0","STATFJORD B OIL PLATFORM, NO","FM-15","ENFB ","V020","010,1,N,0036,1","01170,1,9,N","011265,1,N,1","+0060,1","+0040,1","99999,9",,,"02,1,+00750,1,99,9","07,1,+01170,1,99,9",,"07,99,1,99,9,99,9,99999,9,99,9,99,9","10251,1,99999,9",,"MET079METAR ENFB 131150Z AUTO 01007KT 9999NDV FEW025/// BKN039/// 06/04 Q1025 W///S4;",
"01488199999","2010-12-13T12:20:00","4","61.206389","1.828889","142.0","STATFJORD B OIL PLATFORM, NO","FM-15","ENFB ","V020","360,1,N,0036,1","01200,1,9,N","011265,1,N,1","+0060,1","+0040,1","99999,9",,,"02,1,+00840,1,99,9","07,1,+01200,1,99,9",,"07,99,1,99,9,99,9,99999,9,99,9,99,9","10251,1,99999,9",,"MET079METAR ENFB 131220Z AUTO 36007KT 9999NDV FEW028/// BKN040/// 06/04 Q1025 W///S4;",
"01488199999","2010-12-13T12:50:00","4","61.206389","1.828889","142.0","STATFJORD B OIL PLATFORM, NO","FM-15","ENFB ","V020","010,1,N,0041,1","01110,1,9,N","011265,1,N,1","+0070,1","+0040,1","99999,9",,,"07,1,+01110,1,99,9",,,"07,99,1,99,9,99,9,99999,9,99,9,99,9","10251,1,99999,9",,"MET069METAR ENFB 131250Z AUTO 01008KT 9999NDV BKN037/// 07/04 Q1025 W///S4;",
"01488199999","2010-12-13T13:20:00","4","61.206389","1.828889","142.0","STATFJORD B OIL PLATFORM, NO","FM-15","ENFB ","V020","320,1,N,0041,1","00660,1,9,N","011265,1,N,1","+0070,1","+0040,1","99999,9",,,"07,1,+00660,1,99,9",,,"07,99,1,99,9,99,9,99999,9,99,9,99,9","10251,1,99999,9",,"MET069METAR ENFB 131320Z AUTO 32008KT 9999NDV BKN022/// 07/04 Q1025 W///S4;",
"01488199999","2010-12-13T13:50:00","4","61.206389","1.828889","142.0","STATFJORD B OIL PLATFORM, NO","FM-15","ENFB ","V020","330,1,N,0051,1","00540,1,9,N","011265,1,N,1","+0070,1","+0040,1","99999,9","61,1",,"07,1,+00540,1,99,9",,,"07,99,1,99,9,99,9,99999,9,99,9,99,9","10251,1,99999,9",,"MET073METAR ENFB 131350Z AUTO 33010KT 9999NDV -RA BKN018/// 07/04 Q1025 W///S4;",
"01488199999","2010-12-13T14:20:00","4","61.206389","1.828889","142.0","STATFJORD B OIL PLATFORM, NO","FM-15","ENFB ","V020","360,1,N,0021,1","00780,1,9,N","011265,1,N,1","+0060,1","+0030,1","99999,9",,,"07,1,+00780,1,99,9",,,"07,99,1,99,9,99,9,99999,9,99,9,99,9","10261,1,99999,9",,"MET069METAR ENFB 131420Z AUTO 36004KT 9999NDV BKN026/// 06/03 Q1026 W///S4;",
"01488199999","2010-12-13T14:50:00","4","61.206389","1.828889","142.0","STATFJORD B OIL PLATFORM, NO","FM-15","ENFB ","V020","020,1,N,0031,1","22000,1,9,N","011265,1,N,1","+0060,1","+0030,1","99999,9",,,"02,1,+00900,1,99,9",,,"02,99,1,99,9,99,9,99999,9,99,9,99,9","10261,1,99999,9",,"MET069METAR ENFB 131450Z AUTO 02006KT 9999NDV FEW030/// 06/03 Q1026 W///S4;",
"01488199999","2010-12-13T15:20:00","4","61.206389","1.828889","142.0","STATFJORD B OIL PLATFORM, NO","FM-15","ENFB ","V020","360,1,N,0036,1","22000,1,9,N","011265,1,N,1","+0070,1","+0040,1","99999,9",,,"04,1,+00540,1,99,9",,,"04,99,1,99,9,99,9,99999,9,99,9,99,9","10261,1,99999,9",,"MET069METAR ENFB 131520Z AUTO 36007KT 9999NDV SCT018/// 07/04 Q1026 W///S4;",
"01488199999","2010-12-13T15:50:00","4","61.206389","1.828889","142.0","STATFJORD B OIL PLATFORM, NO","FM-15","ENFB ","V020","020,1,N,0051,1","00450,1,9,N","011265,1,N,1","+0060,1","+0040,1","99999,9",,,"07,1,+00450,1,99,9",,,"07,99,1,99,9,99,9,99999,9,99,9,99,9","10261,1,99999,9",,"MET069METAR ENFB 131550Z AUTO 02010KT 9999NDV BKN015/// 06/04 Q1026 W///S4;",
"01488199999","2010-12-13T16:20:00","4","61.206389","1.828889","142.0","STATFJORD B OIL PLATFORM, NO","FM-15","ENFB ","V020","010,1,N,0051,1","00450,1,9,N","011265,1,N,1","+0060,1","+0040,1","99999,9",,,"02,1,+00330,1,99,9","07,1,+00450,1,99,9",,"07,99,1,99,9,99,9,99999,9,99,9,99,9","10261,1,99999,9",,"MET079METAR ENFB 131620Z AUTO 01010KT 9999NDV FEW011/// BKN015/// 06/04 Q1026 W///S4;",
"01488199999","2010-12-13T16:50:00","4","61.206389","1.828889","142.0","STATFJORD B OIL PLATFORM, NO","FM-15","ENFB ","V020","360,1,N,0041,1","00930,1,9,N","011265,1,N,1","+0060,1","+0040,1","99999,9",,,"02,1,+00390,1,99,9","07,1,+00930,1,99,9",,"07,99,1,99,9,99,9,99999,9,99,9,99,9","10271,1,99999,9",,"MET079METAR ENFB 131650Z AUTO 36008KT 9999NDV FEW013/// BKN031/// 06/04 Q1027 W///S4;",
"01488199999","2010-12-13T17:20:00","4","61.206389","1.828889","142.0","STATFJORD B OIL PLATFORM, NO","FM-15","ENFB ","V020","010,1,N,0046,1","00930,1,9,N","011265,1,N,1","+0060,1","+0040,1","99999,9",,,"04,1,+00390,1,99,9","07,1,+00930,1,99,9",,"07,99,1,99,9,99,9,99999,9,99,9,99,9","10271,1,99999,9",,"MET079METAR ENFB 131720Z AUTO 01009KT 9999NDV SCT013/// BKN031/// 06/04 Q1027 W///S4;",
"01488199999","2010-12-13T17:50:00","4","61.206389","1.828889","142.0","STATFJORD B OIL PLATFORM, NO","FM-15","ENFB ","V020","010,1,N,0046,1","00450,1,9,N","011265,1,N,1","+0050,1","+0040,1","99999,9","81,1",,"07,1,+00450,1,99,9",,,"07,99,1,99,9,99,9,99999,9,99,9,99,9","10271,1,99999,9",,"MET075METAR ENFB 131750Z AUTO 01009KT 9999NDV -SHRA BKN015/// 05/04 Q1027 W///S4;",
"01488199999","2010-12-13T18:20:00","4","61.206389","1.828889","142.0","STATFJORD B OIL PLATFORM, NO","FM-15","ENFB ","V020","010,1,N,0046,1","00810,1,C,N","011265,1,N,1","+0050,1","+0040,1","99999,9",,,"02,1,+00240,1,99,9","04,1,+00810,1,99,9","07,1,+01170,1,99,9","07,99,1,99,9,99,9,99999,9,99,9,99,9","10281,1,99999,9",,"MET089METAR ENFB 131820Z AUTO 01009KT 9999NDV FEW008/// SCT027/// BKN039/// 05/04 Q1028 W///S3;",
"01488199999","2010-12-13T18:50:00","4","61.206389","1.828889","142.0","STATFJORD B OIL PLATFORM, NO","FM-15","ENFB ","V020","020,1,N,0046,1","00960,1,9,N","009000,1,N,1","+0050,1","+0040,1","99999,9",,,"02,1,+00210,1,99,9","07,1,+00960,1,99,9",,"07,99,1,99,9,99,9,99999,9,99,9,99,9","10281,1,99999,9",,"MET079METAR ENFB 131850Z AUTO 02009KT 9000NDV FEW007/// BKN032/// 05/04 Q1028 W///S3;",
"01488199999","2010-12-13T19:20:00","4","61.206389","1.828889","142.0","STATFJORD B OIL PLATFORM, NO","FM-15","ENFB ","V020","030,1,N,0041,1","00870,1,9,N","011265,1,N,1","+0050,1","+0040,1","99999,9",,,"02,1,+00360,1,99,9","07,1,+00870,1,99,9",,"07,99,1,99,9,99,9,99999,9,99,9,99,9","10281,1,99999,9",,"MET079METAR ENFB 131920Z AUTO 03008KT 9999NDV FEW012/// BKN029/// 05/04 Q1028 W///S3;",
"01488199999","2010-12-13T19:50:00","4","61.206389","1.828889","142.0","STATFJORD B OIL PLATFORM, NO","FM-15","ENFB ","V020","020,1,N,0057,1","00450,1,9,N","011265,1,N,1","+0050,1","+0040,1","99999,9",,,"04,1,+00360,1,99,9","08,1,+00450,1,99,9",,"08,99,1,99,9,99,9,99999,9,99,9,99,9","10281,1,99999,9",,"MET079METAR ENFB 131950Z AUTO 02011KT 9999NDV SCT012/// OVC015/// 05/04 Q1028 W///S3;",
"01488199999","2010-12-13T20:20:00","4","61.206389","1.828889","142.0","STATFJORD B OIL PLATFORM, NO","FM-15","ENFB ","V020","010,1,N,0051,1","00690,1,9,N","011265,1,N,1","+0050,1","+0040,1","99999,9","81,1",,"04,1,+00240,1,99,9","08,1,+00690,1,99,9",,"08,99,1,99,9,99,9,99999,9,99,9,99,9","10291,1,99999,9",,"MET085METAR ENFB 132020Z AUTO 01010KT 9999NDV -SHRA SCT008/// OVC023/// 05/04 Q1029 W///S4;",
"01488199999","2010-12-13T20:50:00","4","61.206389","1.828889","142.0","STATFJORD B OIL PLATFORM, NO","FM-15","ENFB ","V020","010,1,N,0041,1","00810,1,9,N","011265,1,N,1","+0050,1","+0040,1","99999,9",,,"02,1,+00420,1,99,9","07,1,+00810,1,99,9",,"07,99,1,99,9,99,9,99999,9,99,9,99,9","10291,1,99999,9",,"MET079METAR ENFB 132050Z AUTO 01008KT 9999NDV FEW014/// BKN027/// 05/04 Q1029 W///S4;",
"01488199999","2010-12-13T21:20:00","4","61.206389","1.828889","142.0","STATFJORD B OIL PLATFORM, NO","FM-15","ENFB ","V020","020,1,N,0051,1","00390,1,9,N","011265,1,N,1","+0050,1","+0040,1","99999,9",,,"07,1,+00390,1,99,9",,,"07,99,1,99,9,99,9,99999,9,99,9,99,9","10291,1,99999,9",,"MET069METAR ENFB 132120Z AUTO 02010KT 9999NDV BKN013/// 05/04 Q1029 W///S4;",
"01488199999","2010-12-13T21:50:00","4","61.206389","1.828889","142.0","STATFJORD B OIL PLATFORM, NO","FM-15","ENFB ","V020","020,1,N,0057,1","01020,1,9,N","011265,1,N,1","+0050,1","+0040,1","99999,9",,,"04,1,+00390,1,99,9","07,1,+01020,1,99,9",,"07,99,1,99,9,99,9,99999,9,99,9,99,9","10301,1,99999,9",,"MET079METAR ENFB 132150Z AUTO 02011KT 9999NDV SCT013/// BKN034/// 05/04 Q1030 W///S4;",
"01488199999","2010-12-13T22:20:00","4","61.206389","1.828889","142.0","STATFJORD B OIL PLATFORM, NO","FM-15","ENFB ","V020","020,1,N,0051,1","00420,1,9,N","011265,1,N,1","+0050,1","+0030,1","99999,9",,,"07,1,+00420,1,99,9",,,"07,99,1,99,9,99,9,99999,9,99,9,99,9","10301,1,99999,9",,"MET069METAR ENFB 132220Z AUTO 02010KT 9999NDV BKN014/// 05/03 Q1030 W///S4;",
"01488199999","2010-12-13T22:50:00","4","61.206389","1.828889","142.0","STATFJORD B OIL PLATFORM, NO","FM-15","ENFB ","V020","010,1,N,0051,1","22000,1,9,N","011265,1,N,1","+0050,1","+0030,1","99999,9",,,"04,1,+00420,1,99,9",,,"04,99,1,99,9,99,9,99999,9,99,9,99,9","10301,1,99999,9",,"MET069METAR ENFB 132250Z AUTO 01010KT 9999NDV SCT014/// 05/03 Q1030 W///S4;",
"01488199999","2010-12-13T23:20:00","4","61.206389","1.828889","142.0","STATFJORD B OIL PLATFORM, NO","FM-15","ENFB ","V020","010,1,N,0057,1","00480,1,9,N","011265,1,N,1","+0050,1","+0030,1","99999,9",,,"07,1,+00480,1,99,9",,,"07,99,1,99,9,99,9,99999,9,99,9,99,9","10301,1,99999,9",,"MET069METAR ENFB 132320Z AUTO 01011KT 9999NDV BKN016/// 05/03 Q1030 W///S4;",
"01488199999","2010-12-13T23:50:00","4","61.206389","1.828889","142.0","STATFJORD B OIL PLATFORM, NO","FM-15","ENFB ","V020","360,1,N,0041,1","00510,1,9,N","011265,1,N,1","+0050,1","+0030,1","99999,9",,,"07,1,+00510,1,99,9",,,"07,99,1,99,9,99,9,99999,9,99,9,99,9","10301,1,99999,9",,"MET069METAR ENFB 132350Z AUTO 36008KT 9999NDV BKN017/// 05/03 Q1030 W///S4;",
"01488199999","2010-12-14T00:20:00","4","61.206389","1.828889","142.0","STATFJORD B OIL PLATFORM, NO","FM-15","ENFB ","V020","360,1,N,0041,1","00870,1,9,N","011265,1,N,1","+0050,1","+0020,1","99999,9",,,"02,1,+00510,1,99,9","07,1,+00870,1,99,9",,"07,99,1,99,9,99,9,99999,9,99,9,99,9","10301,1,99999,9",,"MET079METAR ENFB 140020Z AUTO 36008KT 9999NDV FEW017/// BKN029/// 05/02 Q1030 W///S4;",
"01488199999","2010-12-14T00:50:00","4","61.206389","1.828889","142.0","STATFJORD B OIL PLATFORM, NO","FM-15","ENFB ","V020","360,1,N,0046,1","00660,1,9,N","011265,1,N,1","+0050,1","+0020,1","99999,9",,,"07,1,+00660,1,99,9",,,"07,99,1,99,9,99,9,99999,9,99,9,99,9","10312,1,99999,9",,"MET069METAR ENFB 140050Z AUTO 36009KT 9999NDV BKN022/// 05/02 Q1031 W///S4;",
"01488199999","2010-12-14T01:20:00","4","61.206389","1.828889","142.0","STATFJORD B OIL PLATFORM, NO","FM-15","ENFB ","V020","360,1,N,0051,1","00570,1,9,N","011265,1,N,1","+0050,1","+0020,1","99999,9",,,"07,1,+00570,1,99,9",,,"07,99,1,99,9,99,9,99999,9,99,9,99,9","10312,1,99999,9",,"MET069METAR ENFB 140120Z AUTO 36010KT 9999NDV BKN019/// 05/02 Q1031 W///S4;",
"01488199999","2010-12-14T01:50:00","4","61.206389","1.828889","142.0","STATFJORD B OIL PLATFORM, NO","FM-15","ENFB ","V020","360,1,N,0046,1","00690,1,9,N","011265,1,N,1","+0050,1","+0010,1","99999,9",,,"07,1,+00690,1,99,9",,,"07,99,1,99,9,99,9,99999,9,99,9,99,9","10312,1,99999,9",,"MET069METAR ENFB 140150Z AUTO 36009KT 9999NDV BKN023/// 05/01 Q1031 W///S4;",
"01488199999","2010-12-14T02:20:00","4","61.206389","1.828889","142.0","STATFJORD B OIL PLATFORM, NO","FM-15","ENFB ","V020","340,1,N,0051,1","00750,1,9,N","011265,1,N,1","+0050,1","+0010,1","99999,9",,,"07,1,+00750,1,99,9",,,"07,99,1,99,9,99,9,99999,9,99,9,99,9","10312,1,99999,9",,"MET069METAR ENFB 140220Z AUTO 34010KT 9999NDV BKN025/// 05/01 Q1031 W///S4;",
"01488199999","2010-12-14T02:50:00","4","61.206389","1.828889","142.0","STATFJORD B OIL PLATFORM, NO","FM-15","ENFB ","V020","340,1,N,0051,1","00750,1,9,N","011265,1,N,1","+0050,1","+0010,1","99999,9",,,"07,1,+00750,1,99,9",,,"07,99,1,99,9,99,9,99999,9,99,9,99,9","10312,1,99999,9",,"MET069METAR ENFB 140250Z AUTO 34010KT 9999NDV BKN025/// 05/01 Q1031 W///S4;",
"01488199999","2010-12-14T03:20:00","4","61.206389","1.828889","142.0","STATFJORD B OIL PLATFORM, NO","FM-15","ENFB ","V020","330,1,N,0062,1","00840,1,9,N","011265,1,N,1","+0050,1","+0010,1","99999,9",,,"02,1,+00540,1,99,9","07,1,+00840,1,99,9",,"07,99,1,99,9,99,9,99999,9,99,9,99,9","10312,1,99999,9",,"MET079METAR ENFB 140320Z AUTO 33012KT 9999NDV FEW018/// BKN028/// 05/01 Q1031 W///S4;",
"01488199999","2010-12-14T03:50:00","4","61.206389","1.828889","142.0","STATFJORD B OIL PLATFORM, NO","FM-15","ENFB ","V020","330,1,N,0062,1","00690,1,9,N","011265,1,N,1","+0050,1","+0010,1","99999,9",,,"07,1,+00690,1,99,9",,,"07,99,1,99,9,99,9,99999,9,99,9,99,9","10312,1,99999,9",,"MET069METAR ENFB 140350Z AUTO 33012KT 9999NDV BKN023/// 05/01 Q1031 W///S4;",
"01488199999","2010-12-14T04:20:00","4","61.206389","1.828889","142.0","STATFJORD B OIL PLATFORM, NO","FM-15","ENFB ","V020","350,1,N,0062,1","00720,1,9,N","011265,1,N,1","+0050,1","+0010,1","99999,9",,,"08,1,+00720,1,99,9",,,"08,99,1,99,9,99,9,99999,9,99,9,99,9","10312,1,99999,9",,"MET069METAR ENFB 140420Z AUTO 35012KT 9999NDV OVC024/// 05/01 Q1031 W///S4;",
"01488199999","2010-12-14T04:50:00","4","61.206389","1.828889","142.0","STATFJORD B OIL PLATFORM, NO","FM-15","ENFB ","V020","010,1,N,0057,1","00750,1,9,N","011265,1,N,1","+0050,1","+0010,1","99999,9",,,"07,1,+00750,1,99,9",,,"07,99,1,99,9,99,9,99999,9,99,9,99,9","10318,1,99999,9",,"MET069METAR ENFB 140450Z AUTO 01011KT 9999NDV BKN025/// 05/01 Q1032 W///S4;",
"01488199999","2010-12-14T05:20:00","4","61.206389","1.828889","142.0","STATFJORD B OIL PLATFORM, NO","FM-15","ENFB ","V020","010,1,N,0057,1","00780,1,9,N","011265,1,N,1","+0050,1","+0010,1","99999,9",,,"07,1,+00780,1,99,9",,,"07,99,1,99,9,99,9,99999,9,99,9,99,9","10318,1,99999,9",,"MET069METAR ENFB 140520Z AUTO 01011KT 9999NDV BKN026/// 05/01 Q1032 W///S4;",
"01488199999","2010-12-14T05:50:00","4","61.206389","1.828889","142.0","STATFJORD B OIL PLATFORM, NO","FM-15","ENFB ","V020","360,1,N,0051,1","00660,1,9,N","011265,1,N,1","+0050,1","+0010,1","99999,9",,,"07,1,+00660,1,99,9",,,"07,99,1,99,9,99,9,99999,9,99,9,99,9","10318,1,99999,9",,"MET069METAR ENFB 140550Z AUTO 36010KT 9999NDV BKN022/// 05/01 Q1032 W///S4;",
"01488199999","2010-12-14T06:20:00","4","61.206389","1.828889","142.0","STATFJORD B OIL PLATFORM, NO","FM-15","ENFB ","V020","360,1,N,0041,1","00510,1,9,N","011265,1,N,1","+0050,1","+0020,1","99999,9",,,"07,1,+00510,1,99,9","07,1,+00840,1,99,9",,"07,99,1,99,9,99,9,99999,9,99,9,99,9","10318,1,99999,9",,"MET079METAR ENFB 140620Z AUTO 36008KT 9999NDV BKN017/// BKN028/// 05/02 Q1032 W///S4;",
"01488199999","2010-12-14T06:50:00","4","61.206389","1.828889","142.0","STATFJORD B OIL PLATFORM, NO","FM-15","ENFB ","V020","340,1,N,0026,1","00870,1,9,N","011265,1,N,1","+0050,1","+0020,1","99999,9",,,"02,1,+00480,1,99,9","07,1,+00870,1,99,9",,"07,99,1,99,9,99,9,99999,9,99,9,99,9","10329,1,99999,9",,"MET079METAR ENFB 140650Z AUTO 34005KT 9999NDV FEW016/// BKN029/// 05/02 Q1033 W///S4;",
"01488199999","2010-12-14T07:20:00","4","61.206389","1.828889","142.0","STATFJORD B OIL PLATFORM, NO","FM-15","ENFB ","V020","330,1,N,0026,1","01170,1,9,N","011265,1,N,1","+0050,1","+0020,1","99999,9",,,"04,1,+00570,1,99,9","07,1,+01170,1,99,9",,"07,99,1,99,9,99,9,99999,9,99,9,99,9","10329,1,99999,9",,"MET079METAR ENFB 140720Z AUTO 33005KT 9999NDV SCT019/// BKN039/// 05/02 Q1033 W///S4;",
"01488199999","2010-12-14T07:50:00","4","61.206389","1.828889","142.0","STATFJORD B OIL PLATFORM, NO","FM-15","ENFB ","V020","340,1,N,0031,1","00450,1,9,N","011265,1,N,1","+0070,1","+0040,1","99999,9",,,"07,1,+00450,1,99,9",,,"07,99,1,99,9,99,9,99999,9,99,9,99,9","10329,1,99999,9",,"MET069METAR ENFB 140750Z AUTO 34006KT 9999NDV BKN015/// 07/04 Q1033 W///S3;",
"01488199999","2010-12-14T08:20:00","4","61.206389","1.828889","142.0","STATFJORD B OIL PLATFORM, NO","FM-15","ENFB ","V020","340,1,N,0057,1","00450,1,9,N","011265,1,N,1","+0050,1","+0030,1","99999,9",,,"07,1,+00450,1,99,9",,,"07,99,1,99,9,99,9,99999,9,99,9,99,9","10329,1,99999,9",,"MET069METAR ENFB 140820Z AUTO 34011KT 9999NDV BKN015/// 05/03 Q1033 W///S4;",
"01488199999","2010-12-14T08:50:00","4","61.206389","1.828889","142.0","STATFJORD B OIL PLATFORM, NO","FM-15","ENFB ","V020","010,1,N,0077,1","00480,1,9,N","011265,1,N,1","+0050,1","+0030,1","99999,9",,,"04,1,+00390,1,99,9","07,1,+00480,1,99,9",,"07,99,1,99,9,99,9,99999,9,99,9,99,9","10329,1,99999,9",,"MET079METAR ENFB 140850Z AUTO 01015KT 9999NDV SCT013/// BKN016/// 05/03 Q1033 W///S4;",
"01488199999","2010-12-14T09:20:00","4","61.206389","1.828889","142.0","STATFJORD B OIL PLATFORM, NO","FM-15","ENFB ","V020","360,1,N,0087,1","00480,1,9,N","011265,1,N,1","+0050,1","+0030,1","99999,9",,,"07,1,+00480,1,99,9",,,"07,99,1,99,9,99,9,99999,9,99,9,99,9","10329,1,99999,9",,"MET069METAR ENFB 140920Z AUTO 36017KT 9999NDV BKN016/// 05/03 Q1033 W///S4;",
"01488199999","2010-12-14T09:50:00","4","61.206389","1.828889","142.0","STATFJORD B OIL PLATFORM, NO","FM-15","ENFB ","V020","350,1,N,0103,1","22000,1,9,N","011265,1,N,1","+0050,1","+0020,1","99999,9",,,"04,1,+00630,1,99,9",,,"04,99,1,99,9,99,9,99999,9,99,9,99,9","10329,1,99999,9",,"MET069METAR ENFB 140950Z AUTO 35020KT 9999NDV SCT021/// 05/02 Q1033 W///S4;",
"01488199999","2010-12-14T10:20:00","4","61.206389","1.828889","142.0","STATFJORD B OIL PLATFORM, NO","FM-15","ENFB ","V020","010,1,N,0087,1","00630,1,9,N","011265,1,N,1","+0050,1","+0020,1","99999,9",,,"07,1,+00630,1,99,9",,,"07,99,1,99,9,99,9,99999,9,99,9,99,9","10329,1,99999,9",,"MET069METAR ENFB 141020Z AUTO 01017KT 9999NDV BKN021/// 05/02 Q1033 W///S4;",
"01488199999","2010-12-14T10:50:00","4","61.206389","1.828889","142.0","STATFJORD B OIL PLATFORM, NO","FM-15","ENFB ","V020","010,1,N,0082,1","00600,1,9,N","011265,1,N,1","+0060,1","+0020,1","99999,9",,,"07,1,+00600,1,99,9",,,"07,99,1,99,9,99,9,99999,9,99,9,99,9","10339,1,99999,9",,"MET069METAR ENFB 141050Z AUTO 01016KT 9999NDV BKN020/// 06/02 Q1034 W///S4;",
"01488199999","2010-12-14T11:20:00","4","61.206389","1.828889","142.0","STATFJORD B OIL PLATFORM, NO","FM-15","ENFB ","V020","010,1,N,0087,1","00630,1,9,N","011265,1,N,1","+0060,1","+0020,1","99999,9",,,"07,1,+00630,1,99,9",,,"07,99,1,99,9,99,9,99999,9,99,9,99,9","10339,1,99999,9",,"MET069METAR ENFB 141120Z AUTO 01017KT 9999NDV BKN021/// 06/02 Q1034 W///S4;",
"01488199999","2010-12-14T11:50:00","4","61.206389","1.828889","142.0","STATFJORD B OIL PLATFORM, NO","FM-15","ENFB ","V020","360,1,N,0077,1","22000,1,9,N","011265,1,N,1","+0060,1","+0020,1","99999,9",,,"02,1,+00540,1,99,9",,,"02,99,1,99,9,99,9,99999,9,99,9,99,9","10339,1,99999,9",,"MET069METAR ENFB 141150Z AUTO 36015KT 9999NDV FEW018/// 06/02 Q1034 W///S4;",
"01488199999","2010-12-14T12:20:00","4","61.206389","1.828889","142.0","STATFJORD B OIL PLATFORM, NO","FM-15","ENFB ","V020","010,1,N,0082,1","00540,1,9,N","011265,1,N,1","+0050,1","+0020,1","99999,9",,,"07,1,+00540,1,99,9",,,"07,99,1,99,9,99,9,99999,9,99,9,99,9","10339,1,99999,9",,"MET069METAR ENFB 141220Z AUTO 01016KT 9999NDV BKN018/// 05/02 Q1034 W///S4;",
"01488199999","2010-12-14T12:50:00","4","61.206389","1.828889","142.0","STATFJORD B OIL PLATFORM, NO","FM-15","ENFB ","V020","010,1,N,0072,1","22000,1,9,N","011265,1,N,1","+0050,1","+0030,1","99999,9",,,"04,1,+00480,1,99,9",,,"04,99,1,99,9,99,9,99999,9,99,9,99,9","10339,1,99999,9",,"MET069METAR ENFB 141250Z AUTO 01014KT 9999NDV SCT016/// 05/03 Q1034 W///S4;",
"01488199999","2010-12-14T13:20:00","4","61.206389","1.828889","142.0","STATFJORD B OIL PLATFORM, NO","FM-15","ENFB ","V020","010,1,N,0057,1","00540,1,9,N","011265,1,N,1","+0060,1","+0030,1","99999,9",,,"07,1,+00540,1,99,9",,,"07,99,1,99,9,99,9,99999,9,99,9,99,9","10349,1,99999,9",,"MET069METAR ENFB 141320Z AUTO 01011KT 9999NDV BKN018/// 06/03 Q1035 W///S4;",
"01488199999","2010-12-14T13:50:00","4","61.206389","1.828889","142.0","STATFJORD B OIL PLATFORM, NO","FM-15","ENFB ","V020","020,1,N,0062,1","00510,1,9,N","011265,1,N,1","+0050,1","+0030,1","99999,9",,,"07,1,+00510,1,99,9",,,"07,99,1,99,9,99,9,99999,9,99,9,99,9","10349,1,99999,9",,"MET069METAR ENFB 141350Z AUTO 02012KT 9999NDV BKN017/// 05/03 Q1035 W///S4;",
"01488199999","2010-12-14T14:20:00","4","61.206389","1.828889","142.0","STATFJORD B OIL PLATFORM, NO","FM-15","ENFB ","V020","010,1,N,0062,1","00420,1,9,N","011265,1,N,1","+0070,1","+0040,1","99999,9",,,"07,1,+00420,1,99,9",,,"07,99,1,99,9,99,9,99999,9,99,9,99,9","10349,1,99999,9",,"MET069METAR ENFB 141420Z AUTO 01012KT 9999NDV BKN014/// 07/04 Q1035 W///S4;",
"01488199999","2010-12-14T14:50:00","4","61.206389","1.828889","142.0","STATFJORD B OIL PLATFORM, NO","FM-15","ENFB ","V020","010,1,N,0057,1","00450,1,9,N","011265,1,N,1","+0060,1","+0030,1","99999,9",,,"07,1,+00450,1,99,9",,,"07,99,1,99,9,99,9,99999,9,99,9,99,9","10349,1,99999,9",,"MET069METAR ENFB 141450Z AUTO 01011KT 9999NDV BKN015/// 06/03 Q1035 W///S4;",
"01488199999","2010-12-14T15:20:00","4","61.206389","1.828889","142.0","STATFJORD B OIL PLATFORM, NO","FM-15","ENFB ","V020","010,1,N,0046,1","00420,1,9,N","011265,1,N,1","+0060,1","+0030,1","99999,9",,,"07,1,+00420,1,99,9",,,"07,99,1,99,9,99,9,99999,9,99,9,99,9","10349,1,99999,9",,"MET069METAR ENFB 141520Z AUTO 01009KT 9999NDV BKN014/// 06/03 Q1035 W///S4;",
"01488199999","2010-12-14T15:50:00","4","61.206389","1.828889","142.0","STATFJORD B OIL PLATFORM, NO","FM-15","ENFB ","V020","360,1,N,0051,1","00480,1,9,N","011265,1,N,1","+0060,1","+0030,1","99999,9",,,"07,1,+00480,1,99,9",,,"07,99,1,99,9,99,9,99999,9,99,9,99,9","10349,1,99999,9",,"MET069METAR ENFB 141550Z AUTO 36010KT 9999NDV BKN016/// 06/03 Q1035 W///S4;",
"01488199999","2010-12-14T16:20:00","4","61.206389","1.828889","142.0","STATFJORD B OIL PLATFORM, NO","FM-15","ENFB ","V020","360,1,N,0051,1","00510,1,9,N","011265,1,N,1","+0060,1","+0030,1","99999,9",,,"07,1,+00510,1,99,9",,,"07,99,1,99,9,99,9,99999,9,99,9,99,9","10349,1,99999,9",,"MET069METAR ENFB 141620Z AUTO 36010KT 9999NDV BKN017/// 06/03 Q1035 W///S4;",
"01488199999","2010-12-14T16:50:00","4","61.206389","1.828889","142.0","STATFJORD B OIL PLATFORM, NO","FM-15","ENFB ","V020","360,1,N,0046,1","00480,1,9,N","011265,1,N,1","+0060,1","+0030,1","99999,9",,,"07,1,+00480,1,99,9",,,"07,99,1,99,9,99,9,99999,9,99,9,99,9","10349,1,99999,9",,"MET069METAR ENFB 141650Z AUTO 36009KT 9999NDV BKN016/// 06/03 Q1035 W///S4;",
"01488199999","2010-12-14T17:20:00","4","61.206389","1.828889","142.0","STATFJORD B OIL PLATFORM, NO","FM-15","ENFB ","V020","350,1,N,0041,1","03300,1,9,N","011265,1,N,1","+0060,1","+0030,1","99999,9",,,"02,1,+00480,1,99,9","07,1,+03300,1,99,9",,"07,99,1,99,9,99,9,99999,9,99,9,99,9","10349,1,99999,9",,"MET079METAR ENFB 141720Z AUTO 35008KT 9999NDV FEW016/// BKN110/// 06/03 Q1035 W///S4;",
"01488199999","2010-12-14T17:50:00","4","61.206389","1.828889","142.0","STATFJORD B OIL PLATFORM, NO","FM-15","ENFB ","V020","350,1,N,0046,1","03600,1,9,N","011265,1,N,1","+0060,1","+0030,1","99999,9",,,"02,1,+00480,1,99,9","07,1,+03600,1,99,9",,"07,99,1,99,9,99,9,99999,9,99,9,99,9","10349,1,99999,9",,"MET079METAR ENFB 141750Z AUTO 35009KT 9999NDV FEW016/// BKN120/// 06/03 Q1035 W///S4;",
"01488199999","2010-12-14T18:20:00","4","61.206389","1.828889","142.0","STATFJORD B OIL PLATFORM, NO","FM-15","ENFB ","V020","350,1,N,0041,1","00510,1,9,N","011265,1,N,1","+0060,1","+0030,1","99999,9",,,"07,1,+00510,1,99,9",,,"07,99,1,99,9,99,9,99999,9,99,9,99,9","10349,1,99999,9",,"MET069METAR ENFB 141820Z AUTO 35008KT 9999NDV BKN017/// 06/03 Q1035 W///S3;",
"01488199999","2010-12-14T18:50:00","4","61.206389","1.828889","142.0","STATFJORD B OIL PLATFORM, NO","FM-15","ENFB ","V020","350,1,N,0046,1","00480,1,9,N","011265,1,N,1","+0060,1","+0030,1","99999,9",,,"07,1,+00480,1,99,9",,,"07,99,1,99,9,99,9,99999,9,99,9,99,9","10359,1,99999,9",,"MET069METAR ENFB 141850Z AUTO 35009KT 9999NDV BKN016/// 06/03 Q1036 W///S4;",
"01488199999","2010-12-14T19:20:00","4","61.206389","1.828889","142.0","STATFJORD B OIL PLATFORM, NO","FM-15","ENFB ","V020","340,1,N,0051,1","00450,1,9,N","011265,1,N,1","+0060,1","+0030,1","99999,9",,,"08,1,+00450,1,99,9",,,"08,99,1,99,9,99,9,99999,9,99,9,99,9","10359,1,99999,9",,"MET069METAR ENFB 141920Z AUTO 34010KT 9999NDV OVC015/// 06/03 Q1036 W///S3;",
"01488199999","2010-12-14T19:50:00","4","61.206389","1.828889","142.0","STATFJORD B OIL PLATFORM, NO","FM-15","ENFB ","V020","340,1,N,0041,1","00450,1,9,N","011265,1,N,1","+0060,1","+0030,1","99999,9",,,"07,1,+00450,1,99,9",,,"07,99,1,99,9,99,9,99999,9,99,9,99,9","10359,1,99999,9",,"MET069METAR ENFB 141950Z AUTO 34008KT 9999NDV BKN015/// 06/03 Q1036 W///S3;",
"01488199999","2010-12-14T20:20:00","4","61.206389","1.828889","142.0","STATFJORD B OIL PLATFORM, NO","FM-15","ENFB ","V020","340,1,N,0041,1","00540,1,9,N","011265,1,N,1","+0060,1","+0040,1","99999,9",,,"02,1,+00330,1,99,9","07,1,+00540,1,99,9",,"07,99,1,99,9,99,9,99999,9,99,9,99,9","10359,1,99999,9",,"MET079METAR ENFB 142020Z AUTO 34008KT 9999NDV FEW011/// BKN018/// 06/04 Q1036 W///S3;",
"01488199999","2010-12-14T20:50:00","4","61.206389","1.828889","142.0","STATFJORD B OIL PLATFORM, NO","FM-15","ENFB ","V020","340,1,N,0036,1","00210,1,9,N","009000,1,N,1","+0050,1","+0040,1","99999,9",,,"08,1,+00210,1,99,9",,,"08,99,1,99,9,99,9,99999,9,99,9,99,9","10359,1,99999,9",,"MET069METAR ENFB 142050Z AUTO 34007KT 9000NDV OVC007/// 05/04 Q1036 W///S3;",
"01488199999","2010-12-14T21:20:00","4","61.206389","1.828889","142.0","STATFJORD B OIL PLATFORM, NO","FM-15","ENFB ","V020","340,1,N,0046,1","00240,1,9,N","011265,1,N,1","+0060,1","+0040,1","99999,9",,,"07,1,+00240,1,99,9",,,"07,99,1,99,9,99,9,99999,9,99,9,99,9","10359,1,99999,9",,"MET069METAR ENFB 142120Z AUTO 34009KT 9999NDV BKN008/// 06/04 Q1036 W///S3;",
"01488199999","2010-12-14T21:50:00","4","61.206389","1.828889","142.0","STATFJORD B OIL PLATFORM, NO","FM-15","ENFB ","V020","340,1,N,0046,1","00270,1,9,N","007000,1,N,1","+0060,1","+0040,1","99999,9",,,"07,1,+00270,1,99,9",,,"07,99,1,99,9,99,9,99999,9,99,9,99,9","10359,1,99999,9",,"MET069METAR ENFB 142150Z AUTO 34009KT 7000NDV BKN009/// 06/04 Q1036 W///S3;",
"01488199999","2010-12-14T22:20:00","4","61.206389","1.828889","142.0","STATFJORD B OIL PLATFORM, NO","FM-15","ENFB ","V020","320,1,N,0062,1","00210,1,9,N","011265,1,N,1","+0060,1","+0050,1","99999,9",,,"07,1,+00210,1,99,9",,,"07,99,1,99,9,99,9,99999,9,99,9,99,9","10349,1,99999,9",,"MET069METAR ENFB 142220Z AUTO 32012KT 9999NDV BKN007/// 06/05 Q1035 W///S3;",
"01488199999","2010-12-14T22:50:00","4","61.206389","1.828889","142.0","STATFJORD B OIL PLATFORM, NO","FM-15","ENFB ","V020","320,1,N,0057,1","00270,1,9,N","011265,1,N,1","+0060,1","+0050,1","99999,9",,,"07,1,+00270,1,99,9",,,"07,99,1,99,9,99,9,99999,9,99,9,99,9","10349,1,99999,9",,"MET069METAR ENFB 142250Z AUTO 32011KT 9999NDV BKN009/// 06/05 Q1035 W///S3;",
"01488199999","2010-12-14T23:20:00","4","61.206389","1.828889","142.0","STATFJORD B OIL PLATFORM, NO","FM-15","ENFB ","V020","330,1,N,0057,1","00300,1,9,N","011265,1,N,1","+0060,1","+0040,1","99999,9",,,"07,1,+00300,1,99,9",,,"07,99,1,99,9,99,9,99999,9,99,9,99,9","10349,1,99999,9",,"MET069METAR ENFB 142320Z AUTO 33011KT 9999NDV BKN010/// 06/04 Q1035 W///S4;",
"01488199999","2010-12-14T23:50:00","4","61.206389","1.828889","142.0","STATFJORD B OIL PLATFORM, NO","FM-15","ENFB ","V020","320,1,N,0041,1","00330,1,9,N","011265,1,N,1","+0060,1","+0040,1","99999,9",,,"07,1,+00330,1,99,9",,,"07,99,1,99,9,99,9,99999,9,99,9,99,9","10349,1,99999,9",,"MET069METAR ENFB 142350Z AUTO 32008KT 9999NDV BKN011/// 06/04 Q1035 W///S4;",
"01488199999","2010-12-15T00:20:00","4","61.206389","1.828889","142.0","STATFJORD B OIL PLATFORM, NO","FM-15","ENFB ","V020","330,1,N,0057,1","00300,1,9,N","011265,1,N,1","+0060,1","+0040,1","99999,9",,,"07,1,+00300,1,99,9",,,"07,99,1,99,9,99,9,99999,9,99,9,99,9","10349,1,99999,9",,"MET069METAR ENFB 150020Z AUTO 33011KT 9999NDV BKN010/// 06/04 Q1035 W///S3;",
"01488199999","2010-12-15T00:50:00","4","61.206389","1.828889","142.0","STATFJORD B OIL PLATFORM, NO","FM-15","ENFB ","V020","320,1,N,0067,1","00330,1,9,N","011265,1,N,1","+0060,1","+0040,1","99999,9",,,"07,1,+00330,1,99,9",,,"07,99,1,99,9,99,9,99999,9,99,9,99,9","10349,1,99999,9",,"MET069METAR ENFB 150050Z AUTO 32013KT 9999NDV BKN011/// 06/04 Q1035 W///S4;",
"01488199999","2010-12-15T01:20:00","4","61.206389","1.828889","142.0","STATFJORD B OIL PLATFORM, NO","FM-15","ENFB ","V020","330,1,N,0072,1","00360,1,9,N","011265,1,N,1","+0060,1","+0040,1","99999,9",,,"07,1,+00360,1,99,9",,,"07,99,1,99,9,99,9,99999,9,99,9,99,9","10349,1,99999,9",,"MET069METAR ENFB 150120Z AUTO 33014KT 9999NDV BKN012/// 06/04 Q1035 W///S3;",
"01488199999","2010-12-15T01:50:00","4","61.206389","1.828889","142.0","STATFJORD B OIL PLATFORM, NO","FM-15","ENFB ","V020","320,1,N,0077,1","00330,1,9,N","011265,1,N,1","+0060,1","+0050,1","99999,9",,,"07,1,+00330,1,99,9",,,"07,99,1,99,9,99,9,99999,9,99,9,99,9","10339,1,99999,9",,"MET069METAR ENFB 150150Z AUTO 32015KT 9999NDV BKN011/// 06/05 Q1034 W///S3;",
"01488199999","2010-12-15T02:20:00","4","61.206389","1.828889","142.0","STATFJORD B OIL PLATFORM, NO","FM-15","ENFB ","V020","320,1,N,0067,1","00420,1,9,N","011265,1,N,1","+0060,1","+0050,1","99999,9",,,"07,1,+00420,1,99,9",,,"07,99,1,99,9,99,9,99999,9,99,9,99,9","10339,1,99999,9",,"MET069METAR ENFB 150220Z AUTO 32013KT 9999NDV BKN014/// 06/05 Q1034 W///S3;",
"01488199999","2010-12-15T02:50:00","4","61.206389","1.828889","142.0","STATFJORD B OIL PLATFORM, NO","FM-15","ENFB ","V020","320,1,N,0067,1","00390,1,9,N","011265,1,N,1","+0060,1","+0040,1","99999,9",,,"08,1,+00390,1,99,9",,,"08,99,1,99,9,99,9,99999,9,99,9,99,9","10339,1,99999,9",,"MET069METAR ENFB 150250Z AUTO 32013KT 9999NDV OVC013/// 06/04 Q1034 W///S3;",
"01488199999","2010-12-15T03:20:00","4","61.206389","1.828889","142.0","STATFJORD B OIL PLATFORM, NO","FM-15","ENFB ","V020","320,1,N,0067,1","00420,1,9,N","011265,1,N,1","+0060,1","+0040,1","99999,9",,,"08,1,+00420,1,99,9",,,"08,99,1,99,9,99,9,99999,9,99,9,99,9","10329,1,99999,9",,"MET069METAR ENFB 150320Z AUTO 32013KT 9999NDV OVC014/// 06/04 Q1033 W///S3;",
"01488199999","2010-12-15T03:50:00","4","61.206389","1.828889","142.0","STATFJORD B OIL PLATFORM, NO","FM-15","ENFB ","V020","310,1,N,0072,1","00450,1,9,N","011265,1,N,1","+0070,1","+0040,1","99999,9",,,"08,1,+00450,1,99,9",,,"08,99,1,99,9,99,9,99999,9,99,9,99,9","10329,1,99999,9",,"MET069METAR ENFB 150350Z AUTO 31014KT 9999NDV OVC015/// 07/04 Q1033 W///S3;",
"01488199999","2010-12-15T04:20:00","4","61.206389","1.828889","142.0","STATFJORD B OIL PLATFORM, NO","FM-15","ENFB ","V020","290,1,N,0072,1","00420,1,9,N","011265,1,N,1","+0070,1","+0040,1","99999,9",,,"08,1,+00420,1,99,9",,,"08,99,1,99,9,99,9,99999,9,99,9,99,9","10329,1,99999,9",,"MET069METAR ENFB 150420Z AUTO 29014KT 9999NDV OVC014/// 07/04 Q1033 W///S3;",
"01488199999","2010-12-15T04:50:00","4","61.206389","1.828889","142.0","STATFJORD B OIL PLATFORM, NO","FM-15","ENFB ","V020","290,1,N,0067,1","00450,1,9,N","011265,1,N,1","+0060,1","+0040,1","99999,9",,,"08,1,+00450,1,99,9",,,"08,99,1,99,9,99,9,99999,9,99,9,99,9","10318,1,99999,9",,"MET069METAR ENFB 150450Z AUTO 29013KT 9999NDV OVC015/// 06/04 Q1032 W///S3;",
"01488199999","2010-12-15T05:20:00","4","61.206389","1.828889","142.0","STATFJORD B OIL PLATFORM, NO","FM-15","ENFB ","V020","270,1,N,0082,1","00480,1,9,N","011265,1,N,1","+0070,1","+0040,1","99999,9",,,"08,1,+00480,1,99,9",,,"08,99,1,99,9,99,9,99999,9,99,9,99,9","10312,1,99999,9",,"MET069METAR ENFB 150520Z AUTO 27016KT 9999NDV OVC016/// 07/04 Q1031 W///S3;",
"01488199999","2010-12-15T05:50:00","4","61.206389","1.828889","142.0","STATFJORD B OIL PLATFORM, NO","FM-15","ENFB ","V020","270,1,N,0093,1","00450,1,9,N","011265,1,N,1","+0070,1","+0040,1","99999,9",,,"07,1,+00450,1,99,9",,,"07,99,1,99,9,99,9,99999,9,99,9,99,9","10312,1,99999,9",,"MET069METAR ENFB 150550Z AUTO 27018KT 9999NDV BKN015/// 07/04 Q1031 W///S3;",
"01488199999","2010-12-15T06:20:00","4","61.206389","1.828889","142.0","STATFJORD B OIL PLATFORM, NO","FM-15","ENFB ","V020","280,1,N,0118,1","00510,1,9,N","011265,1,N,1","+0070,1","+0030,1","99999,9",,,"08,1,+00510,1,99,9",,,"08,99,1,99,9,99,9,99999,9,99,9,99,9","10301,1,99999,9",,"MET069METAR ENFB 150620Z AUTO 28023KT 9999NDV OVC017/// 07/03 Q1030 W///S3;",
"01488199999","2010-12-15T06:50:00","4","61.206389","1.828889","142.0","STATFJORD B OIL PLATFORM, NO","FM-15","ENFB ","V020","270,1,N,0098,1","00660,1,9,N","011265,1,N,1","+0070,1","+0040,1","99999,9",,,"08,1,+00660,1,99,9",,,"08,99,1,99,9,99,9,99999,9,99,9,99,9","10301,1,99999,9",,"MET069METAR ENFB 150650Z AUTO 27019KT 9999NDV OVC022/// 07/04 Q1030 W///S3;",
"01488199999","2010-12-15T07:20:00","4","61.206389","1.828889","142.0","STATFJORD B OIL PLATFORM, NO","FM-15","ENFB ","V020","270,1,N,0082,1","00630,1,9,N","011265,1,N,1","+0080,1","+0040,1","99999,9",,,"07,1,+00630,1,99,9",,,"07,99,1,99,9,99,9,99999,9,99,9,99,9","10301,1,99999,9",,"MET069METAR ENFB 150720Z AUTO 27016KT 9999NDV BKN021/// 08/04 Q1030 W///S3;",
"01488199999","2010-12-15T07:50:00","4","61.206389","1.828889","142.0","STATFJORD B OIL PLATFORM, NO","FM-15","ENFB ","V020","260,1,N,0093,1","00570,1,9,N","011265,1,N,1","+0080,1","+0040,1","99999,9",,,"08,1,+00570,1,99,9",,,"08,99,1,99,9,99,9,99999,9,99,9,99,9","10281,1,99999,9",,"MET069METAR ENFB 150750Z AUTO 26018KT 9999NDV OVC019/// 08/04 Q1028 W///S3;",
"01488199999","2010-12-15T08:20:00","4","61.206389","1.828889","142.0","STATFJORD B OIL PLATFORM, NO","FM-15","ENFB ","V020","260,1,N,0098,1","00780,1,9,N","011265,1,N,1","+0080,1","+0040,1","99999,9",,,"02,1,+00540,1,99,9","07,1,+00780,1,99,9",,"07,99,1,99,9,99,9,99999,9,99,9,99,9","10281,1,99999,9",,"MET079METAR ENFB 150820Z AUTO 26019KT 9999NDV FEW018/// BKN026/// 08/04 Q1028 W///S3;",
"01488199999","2010-12-15T08:50:00","4","61.206389","1.828889","142.0","STATFJORD B OIL PLATFORM, NO","FM-15","ENFB ","V020","260,1,N,0108,1","00540,1,9,N","011265,1,N,1","+0080,1","+0050,1","99999,9",,,"07,1,+00540,1,99,9",,,"07,99,1,99,9,99,9,99999,9,99,9,99,9","10271,1,99999,9",,"MET069METAR ENFB 150850Z AUTO 26021KT 9999NDV BKN018/// 08/05 Q1027 W///S3;",
"01488199999","2010-12-15T09:20:00","4","61.206389","1.828889","142.0","STATFJORD B OIL PLATFORM, NO","FM-15","ENFB ","V020","260,1,N,0098,1","00780,1,9,N","011265,1,N,1","+0080,1","+0050,1","99999,9",,,"07,1,+00780,1,99,9","07,1,+01140,1,99,9",,"07,99,1,99,9,99,9,99999,9,99,9,99,9","10271,1,99999,9",,"MET079METAR ENFB 150920Z AUTO 26019KT 9999NDV BKN026/// BKN038/// 08/05 Q1027 W///S3;",
"01488199999","2010-12-15T09:50:00","4","61.206389","1.828889","142.0","STATFJORD B OIL PLATFORM, NO","FM-15","ENFB ","V020","250,1,N,0098,1","00720,1,9,N","011265,1,N,1","+0080,1","+0040,1","99999,9",,,"08,1,+00720,1,99,9",,,"08,99,1,99,9,99,9,99999,9,99,9,99,9","10261,1,99999,9",,"MET069METAR ENFB 150950Z AUTO 25019KT 9999NDV OVC024/// 08/04 Q1026 W///S4;",
"01488199999","2010-12-15T10:20:00","4","61.206389","1.828889","142.0","STATFJORD B OIL PLATFORM, NO","FM-15","ENFB ","V020","240,1,N,0103,1","00240,1,9,N","005000,1,N,1","+0070,1","+0050,1","99999,9","61,1",,"07,1,+00240,1,99,9",,,"07,99,1,99,9,99,9,99999,9,99,9,99,9","10261,1,99999,9",,"MET073METAR ENFB 151020Z AUTO 24020KT 5000NDV -RA BKN008/// 07/05 Q1026 W///S4;",
"01488199999","2010-12-15T10:50:00","4","61.206389","1.828889","142.0","STATFJORD B OIL PLATFORM, NO","FM-15","ENFB ","V020","230,1,N,0123,1","00120,1,9,N","005000,1,N,1","+0070,1","+0060,1","99999,9","61,1",,"07,1,+00120,1,99,9",,,"07,99,1,99,9,99,9,99999,9,99,9,99,9","10251,1,99999,9",,"MET073METAR ENFB 151050Z AUTO 23024KT 5000NDV -RA BKN004/// 07/06 Q1025 W///S4;",
"01488199999","2010-12-15T11:20:00","4","61.206389","1.828889","142.0","STATFJORD B OIL PLATFORM, NO","FM-15","ENFB ","V020","240,1,N,0129,1","00150,1,9,N","005000,1,N,1","+0080,1","+0070,1","99999,9","61,1",,"07,1,+00150,1,99,9",,,"07,99,1,99,9,99,9,99999,9,99,9,99,9","10240,1,99999,9",,"MET073METAR ENFB 151120Z AUTO 24025KT 5000NDV -RA BKN005/// 08/07 Q1024 W///S4;",
"01488199999","2010-12-15T11:50:00","4","61.206389","1.828889","142.0","STATFJORD B OIL PLATFORM, NO","FM-15","ENFB ","V020","250,1,N,0134,1","00150,1,9,N","004800,1,N,1","+0080,1","+0070,1","99999,9","10,1",,"07,1,+00150,1,99,9",,,"07,99,1,99,9,99,9,99999,9,99,9,99,9","10220,1,99999,9",,"MET072METAR ENFB 151150Z AUTO 25026KT 4800NDV BR BKN005/// 08/07 Q1022 W///S4;",
"01488199999","2010-12-15T12:20:00","4","61.206389","1.828889","142.0","STATFJORD B OIL PLATFORM, NO","FM-15","ENFB ","V020","250,1,N,0139,1","00150,1,9,N","005000,1,N,1","+0080,1","+0070,1","99999,9","81,1",,"07,1,+00150,1,99,9",,,"07,99,1,99,9,99,9,99999,9,99,9,99,9","10210,1,99999,9",,"MET075METAR ENFB 151220Z AUTO 25027KT 5000NDV -SHRA BKN005/// 08/07 Q1021 W///S4;",
"01488199999","2010-12-15T12:50:00","4","61.206389","1.828889","142.0","STATFJORD B OIL PLATFORM, NO","FM-15","ENFB ","V020","260,1,N,0134,1","00150,1,9,N","011265,1,N,1","+0080,1","+0080,1","99999,9","81,1",,"07,1,+00150,1,99,9",,,"07,99,1,99,9,99,9,99999,9,99,9,99,9","10200,1,99999,9","0185,1","MET078METAR ENFB 151250Z AUTO 26026G36KT 9999NDV -SHRA BKN005/// 08/08 Q1020 W///S4;",
"01488199999","2010-12-15T13:20:00","4","61.206389","1.828889","142.0","STATFJORD B OIL PLATFORM, NO","FM-15","ENFB ","V020","260,1,N,0144,1","00180,1,9,N","011265,1,N,1","+0080,1","+0070,1","99999,9","81,1",,"07,1,+00180,1,99,9",,,"07,99,1,99,9,99,9,99999,9,99,9,99,9","10190,1,99999,9",,"MET075METAR ENFB 151320Z AUTO 26028KT 9999NDV -SHRA BKN006/// 08/07 Q1019 W///S4;",
"01488199999","2010-12-15T13:50:00","4","61.206389","1.828889","142.0","STATFJORD B OIL PLATFORM, NO","FM-15","ENFB ","V020","250,1,N,0144,1","00450,1,9,N","011265,1,N,1","+0080,1","+0070,1","99999,9","81,1",,"07,1,+00450,1,99,9","07,1,+05400,1,99,9",,"07,99,1,99,9,99,9,99999,9,99,9,99,9","10169,1,99999,9",,"MET085METAR ENFB 151350Z AUTO 25028KT 9999NDV -SHRA BKN015/// BKN180/// 08/07 Q1017 W///S4;",
"01488199999","2010-12-15T14:20:00","4","61.206389","1.828889","142.0","STATFJORD B OIL PLATFORM, NO","FM-15","ENFB ","V020","260,1,N,0175,1","00300,1,9,N","011265,1,N,1","+0080,1","+0070,1","99999,9","81,1",,"07,1,+00300,1,99,9",,,"07,99,1,99,9,99,9,99999,9,99,9,99,9","10159,1,99999,9",,"MET075METAR ENFB 151420Z AUTO 26034KT 9999NDV -SHRA BKN010/// 08/07 Q1016 W///S4;",
"01488199999","2010-12-15T14:50:00","4","61.206389","1.828889","142.0","STATFJORD B OIL PLATFORM, NO","FM-15","ENFB ","V020","250,1,N,0180,1","00600,1,9,N","011265,1,N,1","+0080,1","+0070,1","99999,9","81,1",,"07,1,+00600,1,99,9",,,"07,99,1,99,9,99,9,99999,9,99,9,99,9","10149,1,99999,9",,"MET075METAR ENFB 151450Z AUTO 25035KT 9999NDV -SHRA BKN020/// 08/07 Q1015 W///S4;",
"01488199999","2010-12-15T15:20:00","4","61.206389","1.828889","142.0","STATFJORD B OIL PLATFORM, NO","FM-15","ENFB ","V020","260,1,N,0185,1","00450,1,9,N","011265,1,N,1","+0090,1","+0070,1","99999,9","81,1",,"07,1,+00450,1,99,9",,,"07,99,1,99,9,99,9,99999,9,99,9,99,9","10139,1,99999,9",,"MET075METAR ENFB 151520Z AUTO 26036KT 9999NDV -SHRA BKN015/// 09/07 Q1014 W///S4;",
"01488199999","2010-12-15T15:50:00","4","61.206389","1.828889","142.0","STATFJORD B OIL PLATFORM, NO","FM-15","ENFB ","V020","260,1,N,0175,1","00450,1,9,N","011265,1,N,1","+0090,1","+0070,1","99999,9",,,"07,1,+00450,1,99,9",,,"07,99,1,99,9,99,9,99999,9,99,9,99,9","10129,1,99999,9",,"MET069METAR ENFB 151550Z AUTO 26034KT 9999NDV BKN015/// 09/07 Q1013 W///S4;",
"01488199999","2010-12-15T16:20:00","4","61.206389","1.828889","142.0","STATFJORD B OIL PLATFORM, NO","FM-15","ENFB ","V020","260,1,N,0190,1","00540,1,9,N","011265,1,N,1","+0080,1","+0060,1","99999,9",,,"07,1,+00540,1,99,9",,,"07,99,1,99,9,99,9,99999,9,99,9,99,9","10119,1,99999,9",,"MET069METAR ENFB 151620Z AUTO 26037KT 9999NDV BKN018/// 08/06 Q1012 W///S5;",
"01488199999","2010-12-15T16:50:00","4","61.206389","1.828889","142.0","STATFJORD B OIL PLATFORM, NO","FM-15","ENFB ","V020","260,1,N,0190,1","00570,1,9,N","011265,1,N,1","+0080,1","+0060,1","99999,9",,,"07,1,+00570,1,99,9",,,"07,99,1,99,9,99,9,99999,9,99,9,99,9","10108,1,99999,9",,"MET069METAR ENFB 151650Z AUTO 26037KT 9999NDV BKN019/// 08/06 Q1011 W///S5;",
"01488199999","2010-12-15T17:20:00","4","61.206389","1.828889","142.0","STATFJORD B OIL PLATFORM, NO","FM-15","ENFB ","V020","260,1,N,0190,1","00630,1,9,N","011265,1,N,1","+0080,1","+0060,1","99999,9",,,"07,1,+00630,1,99,9",,,"07,99,1,99,9,99,9,99999,9,99,9,99,9","10091,1,99999,9",,"MET069METAR ENFB 151720Z AUTO 26037KT 9999NDV BKN021/// 08/06 Q1009 W///S5;",
"01488199999","2010-12-15T17:50:00","4","61.206389","1.828889","142.0","STATFJORD B OIL PLATFORM, NO","FM-15","ENFB ","V020","250,1,N,0175,1","00360,1,9,N","007000,1,N,1","+0070,1","+0050,1","99999,9","81,1",,"07,1,+00360,1,99,9","07,1,+01080,1,99,9",,"07,99,1,99,9,99,9,99999,9,99,9,99,9","10081,1,99999,9",,"MET085METAR ENFB 151750Z AUTO 25034KT 7000NDV -SHRA BKN012/// BKN036/// 07/05 Q1008 W///S5;",
"01488199999","2010-12-15T18:20:00","4","61.206389","1.828889","142.0","STATFJORD B OIL PLATFORM, NO","FM-15","ENFB ","V020","250,1,N,0185,1","00360,1,9,N","011265,1,N,1","+0080,1","+0060,1","99999,9","81,1",,"07,1,+00360,1,99,9",,,"07,99,1,99,9,99,9,99999,9,99,9,99,9","10061,1,99999,9",,"MET075METAR ENFB 151820Z AUTO 25036KT 9999NDV -SHRA BKN012/// 08/06 Q1006 W///S5;",
"01488199999","2010-12-15T18:50:00","4","61.206389","1.828889","142.0","STATFJORD B OIL PLATFORM, NO","FM-15","ENFB ","V020","250,1,N,0195,1","00300,1,9,N","011265,1,N,1","+0080,1","+0060,1","99999,9","81,1",,"07,1,+00300,1,99,9",,,"07,99,1,99,9,99,9,99999,9,99,9,99,9","10051,1,99999,9",,"MET075METAR ENFB 151850Z AUTO 25038KT 9999NDV -SHRA BKN010/// 08/06 Q1005 W///S5;",
"01488199999","2010-12-15T19:20:00","4","61.206389","1.828889","142.0","STATFJORD B OIL PLATFORM, NO","FM-15","ENFB ","V020","260,1,N,0195,1","00270,1,9,N","011265,1,N,1","+0080,1","+0060,1","99999,9","81,1",,"07,1,+00270,1,99,9","07,1,+00930,1,99,9",,"07,99,1,99,9,99,9,99999,9,99,9,99,9","10041,1,99999,9",,"MET085METAR ENFB 151920Z AUTO 26038KT 9999NDV -SHRA BKN009/// BKN031/// 08/06 Q1004 W///S5;",
"01488199999","2010-12-15T19:50:00","4","61.206389","1.828889","142.0","STATFJORD B OIL PLATFORM, NO","FM-15","ENFB ","V020","330,1,N,0154,1","00270,1,9,N","003000,1,N,1","+0050,1","+0040,1","99999,9","10,1","61,1","07,1,+00270,1,99,9",,,"07,99,1,99,9,99,9,99999,9,99,9,99,9","10031,1,99999,9",,"MET076METAR ENFB 151950Z AUTO 33030KT 3000NDV -RA BR BKN009/// 05/04 Q1003 W///S5;",
"01488199999","2010-12-15T20:20:00","4","61.206389","1.828889","142.0","STATFJORD B OIL PLATFORM, NO","FM-15","ENFB ","V020","340,1,N,0154,1","00300,1,9,N","003800,1,N,1","+0030,1","+0020,1","99999,9","10,1","61,1","07,1,+00300,1,99,9",,,"07,99,1,99,9,99,9,99999,9,99,9,99,9","10031,1,99999,9",,"MET076METAR ENFB 152020Z AUTO 34030KT 3800NDV -RA BR BKN010/// 03/02 Q1003 W///S5;",
"01488199999","2010-12-15T20:50:00","4","61.206389","1.828889","142.0","STATFJORD B OIL PLATFORM, NO","FM-15","ENFB ","V020","340,1,N,0165,1","00360,1,9,N","009000,1,N,1","+0030,1","+0020,1","99999,9","61,1",,"07,1,+00360,1,99,9",,,"07,99,1,99,9,99,9,99999,9,99,9,99,9","10031,1,99999,9",,"MET073METAR ENFB 152050Z AUTO 34032KT 9000NDV -RA BKN012/// 03/02 Q1003 W///S5;",
"01488199999","2010-12-15T21:20:00","4","61.206389","1.828889","142.0","STATFJORD B OIL PLATFORM, NO","FM-15","ENFB ","V020","330,1,N,0165,1","00360,1,9,N","011265,1,N,1","+0020,1","+0020,1","99999,9","61,1",,"07,1,+00360,1,99,9",,,"07,99,1,99,9,99,9,99999,9,99,9,99,9","10031,1,99999,9",,"MET073METAR ENFB 152120Z AUTO 33032KT 9999NDV -RA BKN012/// 02/02 Q1003 W///S5;",
"01488199999","2010-12-15T21:50:00","4","61.206389","1.828889","142.0","STATFJORD B OIL PLATFORM, NO","FM-15","ENFB ","V020","330,1,N,0154,1","00390,1,9,N","011265,1,N,1","+0020,1","+0010,1","99999,9","81,1",,"07,1,+00390,1,99,9","07,1,+01500,1,99,9","07,1,+02100,1,99,9","07,99,1,99,9,99,9,99999,9,99,9,99,9","10020,1,99999,9",,"MET095METAR ENFB 152150Z AUTO 33030KT 9999NDV -SHRA BKN013/// BKN053/// BKN079/// 02/01 Q1002 W///S5;",
"01488199999","2010-12-15T22:20:00","4","61.206389","1.828889","142.0","STATFJORD B OIL PLATFORM, NO","FM-15","ENFB ","V020","320,1,N,0190,1","00510,1,9,N","011265,1,N,1","+0020,1","+0010,1","99999,9",,,"07,1,+00510,1,99,9","07,1,+02100,1,99,9","07,1,+03600,1,99,9","07,99,1,99,9,99,9,99999,9,99,9,99,9","10031,1,99999,9",,"MET089METAR ENFB 152220Z AUTO 32037KT 9999NDV BKN017/// BKN074/// BKN120/// 02/01 Q1003 W///S5;",
"01488199999","2010-12-15T22:50:00","4","61.206389","1.828889","142.0","STATFJORD B OIL PLATFORM, NO","FM-15","ENFB ","V020","320,1,N,0195,1","00480,1,9,N","011265,1,N,1","+0020,1","+0000,1","99999,9","81,1",,"08,1,+00480,1,99,9",,,"08,99,1,99,9,99,9,99999,9,99,9,99,9","10031,1,99999,9",,"MET075METAR ENFB 152250Z AUTO 32038KT 9999NDV -SHRA OVC016/// 02/00 Q1003 W///S6;",
"01488199999","2010-12-15T23:20:00","4","61.206389","1.828889","142.0","STATFJORD B OIL PLATFORM, NO","FM-15","ENFB ","V020","310,1,N,0190,1","01020,1,9,N","011265,1,N,1","+0020,1","-0010,1","99999,9",,,"02,1,+00810,1,99,9","07,1,+01020,1,99,9",,"07,99,1,99,9,99,9,99999,9,99,9,99,9","10020,1,99999,9",,"MET080METAR ENFB 152320Z AUTO 31037KT 9999NDV FEW027/// BKN034/// 02/M01 Q1002 W///S6;",
"01488199999","2010-12-15T23:50:00","4","61.206389","1.828889","142.0","STATFJORD B OIL PLATFORM, NO","FM-15","ENFB ","V020","340,1,N,0221,1","00360,1,9,N","002200,1,N,1","-0010,1","-0030,1","99999,9","62,1",,"07,1,+00360,1,99,9",,,"07,99,1,99,9,99,9,99999,9,99,9,99,9","10000,1,99999,9",,"MET074METAR ENFB 152350Z AUTO 34043KT 2200NDV RA BKN012/// M01/M03 Q1000 W///S6;",
"01488199999","2010-12-16T00:20:00","4","61.206389","1.828889","142.0","STATFJORD B OIL PLATFORM, NO","FM-15","ENFB ","V020","340,1,N,0226,1","00540,1,9,N","011265,1,N,1","+0000,1","-0020,1","99999,9",,,"07,1,+00540,1,99,9",,,"07,99,1,99,9,99,9,99999,9,99,9,99,9","10010,1,99999,9",,"MET070METAR ENFB 160020Z AUTO 34044KT 9999NDV BKN018/// 00/M02 Q1001 W///S6;",
"01488199999","2010-12-16T00:50:00","4","61.206389","1.828889","142.0","STATFJORD B OIL PLATFORM, NO","FM-15","ENFB ","V020","330,1,N,0226,1","00990,1,9,N","011265,1,N,1","-0010,1","-0030,1","99999,9",,,"04,1,+00300,1,99,9","07,1,+00990,1,99,9","07,1,+01500,1,99,9","07,99,1,99,9,99,9,99999,9,99,9,99,9","10020,1,99999,9",,"MET097METAR ENFB 160050Z AUTO 33044KT 9999NDV -SHPL SCT010/// BKN033/// BKN054/// M01/M03 Q1002 W///S6;",
"01488199999","2010-12-16T01:20:00","4","61.206389","1.828889","142.0","STATFJORD B OIL PLATFORM, NO","FM-15","ENFB ","V020","330,1,N,0206,1","00630,1,9,N","003300,1,N,1","-0010,1","-0030,1","99999,9","10,1","64,1","07,1,+00630,1,99,9",,,"07,99,1,99,9,99,9,99999,9,99,9,99,9","10020,1,99999,9",,"MET080METAR ENFB 160120Z AUTO 33040KT 3300NDV -FZRA BR BKN021/// M01/M03 Q1002 W///S6;",
"01488199999","2010-12-16T01:50:00","4","61.206389","1.828889","142.0","STATFJORD B OIL PLATFORM, NO","FM-15","ENFB ","V020","330,1,N,0231,1","00810,1,9,N","011265,1,N,1","-0010,1","-0050,1","99999,9","71,1",,"07,1,+00810,1,99,9",,,"07,99,1,99,9,99,9,99999,9,99,9,99,9","10010,1,99999,9",,"MET082METAR ENFB 160150Z AUTO 33045KT 9999NDV -SN BKN027/// M01/M05 Q1001 REFZRA W///S6;",
"01488199999","2010-12-16T02:20:00","4","61.206389","1.828889","142.0","STATFJORD B OIL PLATFORM, NO","FM-15","ENFB ","V020","330,1,N,0226,1","00840,1,9,N","011265,1,N,1","-0010,1","-0060,1","99999,9",,,"07,1,+00840,1,99,9",,,"07,99,1,99,9,99,9,99999,9,99,9,99,9","10000,1,99999,9",,"MET078METAR ENFB 160220Z AUTO 33044KT 9999NDV BKN028/// M01/M06 Q1000 REFZDZ W///S6;",
"01488199999","2010-12-16T02:50:00","4","61.206389","1.828889","142.0","STATFJORD B OIL PLATFORM, NO","FM-15","ENFB ","V020","330,1,N,0201,1","02400,1,9,N","011265,1,N,1","-0010,1","-0080,1","99999,9","85,1",,"04,1,+00870,1,99,9","07,1,+02400,1,99,9",,"07,99,1,99,9,99,9,99999,9,99,9,99,9","10010,1,99999,9","0257,1","MET090METAR ENFB 160250Z AUTO 33039G50KT 9999NDV -SHSN SCT029/// BKN088/// M01/M08 Q1001 W///S6;",
"01488199999","2010-12-16T03:20:00","4","61.206389","1.828889","142.0","STATFJORD B OIL PLATFORM, NO","FM-15","ENFB ","V020","330,1,N,0211,1","00750,1,9,N","004400,1,N,1","-0020,1","-0070,1","99999,9","10,1","85,1","07,1,+00750,1,99,9","07,1,+01800,1,99,9",,"07,99,1,99,9,99,9,99999,9,99,9,99,9","10010,1,99999,9",,"MET090METAR ENFB 160320Z AUTO 33041KT 4400NDV -SHSN BR BKN025/// BKN068/// M02/M07 Q1001 W///S6;",
"01488199999","2010-12-16T03:50:00","4","61.206389","1.828889","142.0","STATFJORD B OIL PLATFORM, NO","FM-15","ENFB ","V020","320,1,N,0221,1","01080,1,9,N","011265,1,N,1","-0020,1","-0090,1","99999,9","71,1",,"07,1,+01080,1,99,9",,,"07,99,1,99,9,99,9,99999,9,99,9,99,9","10010,1,99999,9",,"MET082METAR ENFB 160350Z AUTO 32043KT 9999NDV -SN BKN036/// M02/M09 Q1001 REFZRA W///S6;",
"01488199999","2010-12-16T04:20:00","4","61.206389","1.828889","142.0","STATFJORD B OIL PLATFORM, NO","FM-15","ENFB ","V020","320,1,N,0226,1","00840,1,C,N","011265,1,N,1","-0010,1","-0080,1","99999,9","71,1",,"02,1,+00720,1,99,9","04,1,+00840,1,99,9","07,1,+01500,1,99,9","07,99,1,99,9,99,9,99999,9,99,9,99,9","09990,1,99999,9",,"MET102METAR ENFB 160420Z AUTO 32044KT 9999NDV -SN FEW024/// SCT028/// BKN053/// M01/M08 Q0999 REFZRA W///S6;",
"01488199999","2010-12-16T04:50:00","4","61.206389","1.828889","142.0","STATFJORD B OIL PLATFORM, NO","FM-15","ENFB ","V020","330,1,N,0185,1","22000,1,9,N","011265,1,N,1","-0010,1","-0100,1","99999,9",,,"02,1,+01080,1,99,9","04,1,+03300,1,99,9",,"04,99,1,99,9,99,9,99999,9,99,9,99,9","09990,1,99999,9",,"MET081METAR ENFB 160450Z AUTO 33036KT 9999NDV FEW036/// SCT110/// M01/M10 Q0999 W///S6;",
"01488199999","2010-12-16T05:20:00","4","61.206389","1.828889","142.0","STATFJORD B OIL PLATFORM, NO","FM-15","ENFB ","V020","320,1,N,0139,1","00420,1,9,N","011265,1,N,1","-0030,1","-0060,1","99999,9",,,"07,1,+00420,1,99,9","07,1,+02700,1,99,9",,"07,99,1,99,9,99,9,99999,9,99,9,99,9","09990,1,99999,9",,"MET087METAR ENFB 160520Z AUTO 32027KT 9999NDV -SHPL BKN014/// BKN092/// M03/M06 Q0999 W///S6;",
"01488199999","2010-12-16T05:50:00","4","61.206389","1.828889","142.0","STATFJORD B OIL PLATFORM, NO","FM-15","ENFB ","V020","320,1,N,0195,1","00480,1,9,N","002200,1,N,1","-0020,1","-0040,1","99999,9","10,1","85,1","04,1,+00420,1,99,9","07,1,+00480,1,99,9",,"07,99,1,99,9,99,9,99999,9,99,9,99,9","09980,1,99999,9",,"MET090METAR ENFB 160550Z AUTO 32038KT 2200NDV -SHSN BR SCT014/// BKN016/// M02/M04 Q0998 W///S6;",
"01488199999","2010-12-16T06:20:00","4","61.206389","1.828889","142.0","STATFJORD B OIL PLATFORM, NO","FM-15","ENFB ","V020","330,1,N,0180,1","00480,1,9,N","011265,1,N,1","-0020,1","-0040,1","99999,9","85,1",,"07,1,+00480,1,99,9","07,1,+02100,1,99,9",,"07,99,1,99,9,99,9,99999,9,99,9,99,9","09980,1,99999,9",,"MET087METAR ENFB 160620Z AUTO 33035KT 9999NDV -SHSN BKN016/// BKN077/// M02/M04 Q0998 W///S6;",
"01488199999","2010-12-16T06:50:00","4","61.206389","1.828889","142.0","STATFJORD B OIL PLATFORM, NO","FM-15","ENFB ","V020","340,1,N,0170,1","00390,1,9,N","002100,1,N,1","-0030,1","-0040,1","99999,9","10,1","85,1","07,1,+00390,1,99,9",,,"07,99,1,99,9,99,9,99999,9,99,9,99,9","09970,1,99999,9","0226,1","MET083METAR ENFB 160650Z AUTO 34033G44KT 2100NDV -SHSN BR BKN013/// M03/M04 Q0997 W///S6;",
"01488199999","2010-12-16T07:20:00","4","61.206389","1.828889","142.0","STATFJORD B OIL PLATFORM, NO","FM-15","ENFB ","V020","330,1,N,0201,1","01380,1,9,N","011265,1,N,1","-0020,1","-0040,1","99999,9","85,1",,"04,1,+00870,1,99,9","07,1,+01380,1,99,9","07,1,+02700,1,99,9","07,99,1,99,9,99,9,99999,9,99,9,99,9","09970,1,99999,9",,"MET097METAR ENFB 160720Z AUTO 33039KT 9999NDV -SHSN SCT029/// BKN046/// BKN097/// M02/M04 Q0997 W///S6;",
"01488199999","2010-12-16T07:50:00","4","61.206389","1.828889","142.0","STATFJORD B OIL PLATFORM, NO","FM-15","ENFB ","V020","340,1,N,0206,1","01140,1,9,N","011265,1,N,1","-0020,1","-0050,1","99999,9",,,"07,1,+01140,1,99,9",,,"07,99,1,99,9,99,9,99999,9,99,9,99,9","09959,1,99999,9",,"MET071METAR ENFB 160750Z AUTO 34040KT 9999NDV BKN038/// M02/M05 Q0996 W///S6;",
"01488199999","2010-12-16T08:20:00","4","61.206389","1.828889","142.0","STATFJORD B OIL PLATFORM, NO","FM-15","ENFB ","V020","330,1,N,0190,1","03300,1,9,N","011265,1,N,1","-0010,1","-0050,1","99999,9",,,"04,1,+00990,1,99,9","07,1,+03300,1,99,9",,"07,99,1,99,9,99,9,99999,9,99,9,99,9","09959,1,99999,9",,"MET081METAR ENFB 160820Z AUTO 33037KT 9999NDV SCT033/// BKN110/// M01/M05 Q0996 W///S6;",
"01488199999","2010-12-16T08:50:00","4","61.206389","1.828889","142.0","STATFJORD B OIL PLATFORM, NO","FM-15","ENFB ","V020","340,1,N,0201,1","03300,1,9,N","002100,1,N,1","-0030,1","-0050,1","99999,9","64,1",,"04,1,+00450,1,99,9","07,1,+03300,1,99,9",,"07,99,1,99,9,99,9,99999,9,99,9,99,9","09959,1,99999,9",,"MET087METAR ENFB 160850Z AUTO 34039KT 2100NDV -FZRA SCT015/// BKN110/// M03/M05 Q0996 W///S7;",
"01488199999","2010-12-16T09:20:00","4","61.206389","1.828889","142.0","STATFJORD B OIL PLATFORM, NO","FM-15","ENFB ","V020","350,1,N,0201,1","01230,1,9,N","011265,1,N,1","-0030,1","-0050,1","99999,9","64,1",,"04,1,+00360,1,99,9","07,1,+01230,1,99,9",,"07,99,1,99,9,99,9,99999,9,99,9,99,9","09959,1,99999,9",,"MET087METAR ENFB 160920Z AUTO 35039KT 9999NDV -FZRA SCT012/// BKN041/// M03/M05 Q0996 W///S6;",
"01488199999","2010-12-16T09:50:00","4","61.206389","1.828889","142.0","STATFJORD B OIL PLATFORM, NO","FM-15","ENFB ","V020","350,1,N,0175,1","00420,1,9,N","005000,1,N,1","-0030,1","-0050,1","99999,9","10,1","71,1","07,1,+00420,1,99,9","07,1,+03900,1,99,9",,"07,99,1,99,9,99,9,99999,9,99,9,99,9","09949,1,99999,9",,"MET095METAR ENFB 160950Z AUTO 35034KT 5000NDV -SN BR BKN014/// BKN130/// M03/M05 Q0995 REFZRA W///S7;",
"01488199999","2010-12-16T10:20:00","4","61.206389","1.828889","142.0","STATFJORD B OIL PLATFORM, NO","FM-15","ENFB ","V020","350,1,N,0216,1","01020,1,9,N","011265,1,N,1","-0020,1","-0040,1","99999,9","54,1",,"02,1,+00540,1,99,9","07,1,+01020,1,99,9","07,1,+03600,1,99,9","07,99,1,99,9,99,9,99999,9,99,9,99,9","09949,1,99999,9",,"MET097METAR ENFB 161020Z AUTO 35042KT 9999NDV -FZDZ FEW018/// BKN034/// BKN120/// M02/M04 Q0995 W///S7;",
"01488199999","2010-12-16T10:50:00","4","61.206389","1.828889","142.0","STATFJORD B OIL PLATFORM, NO","FM-15","ENFB ","V020","340,1,N,0201,1","03300,1,9,N","002800,1,N,1","-0030,1","-0060,1","99999,9","10,1","71,1","04,1,+00840,1,99,9","07,1,+03300,1,99,9","07,1,+03900,1,99,9","07,99,1,99,9,99,9,99999,9,99,9,99,9","09939,1,99999,9",,"MET105METAR ENFB 161050Z AUTO 34039KT 2800NDV -SN BR SCT028/// BKN110/// BKN130/// M03/M06 Q0994 REFZDZ W///S7;",
"01488199999","2010-12-16T11:20:00","4","61.206389","1.828889","142.0","STATFJORD B OIL PLATFORM, NO","FM-15","ENFB ","V020","340,1,N,0180,1","00330,1,9,N","011265,1,N,1","-0030,1","-0050,1","99999,9","64,1",,"07,1,+00330,1,99,9",,,"07,99,1,99,9,99,9,99999,9,99,9,99,9","09939,1,99999,9",,"MET077METAR ENFB 161120Z AUTO 34035KT 9999NDV -FZRA BKN011/// M03/M05 Q0994 W///S7;",
"01488199999","2010-12-16T11:50:00","4","61.206389","1.828889","142.0","STATFJORD B OIL PLATFORM, NO","FM-15","ENFB ","V020","310,1,N,0190,1","01350,1,9,N","003600,1,N,1","-0020,1","-0040,1","99999,9","10,1","85,1","04,1,+00360,1,99,9","07,1,+01350,1,99,9","07,1,+01800,1,99,9","07,99,1,99,9,99,9,99999,9,99,9,99,9","09939,1,99999,9",,"MET100METAR ENFB 161150Z AUTO 31037KT 3600NDV -SHSN BR SCT012/// BKN045/// BKN062/// M02/M04 Q0994 W///S7;",
"01488199999","2010-12-16T12:20:00","4","61.206389","1.828889","142.0","STATFJORD B OIL PLATFORM, NO","FM-15","ENFB ","V020","320,1,N,0165,1","00990,1,9,N","011265,1,N,1","-0010,1","-0040,1","99999,9","54,1",,"07,1,+00990,1,99,9","07,1,+03600,1,99,9",,"07,99,1,99,9,99,9,99999,9,99,9,99,9","09939,1,99999,9",,"MET087METAR ENFB 161220Z AUTO 32032KT 9999NDV -FZDZ BKN033/// BKN120/// M01/M04 Q0994 W///S7;",
"01488199999","2010-12-16T12:50:00","4","61.206389","1.828889","142.0","STATFJORD B OIL PLATFORM, NO","FM-15","ENFB ","V020","360,1,N,0154,1","00750,1,9,N","011265,1,N,1","-0010,1","-0050,1","99999,9",,,"07,1,+00750,1,99,9","07,1,+02400,1,99,9",,"07,99,1,99,9,99,9,99999,9,99,9,99,9","09929,1,99999,9",,"MET081METAR ENFB 161250Z AUTO 36030KT 9999NDV BKN025/// BKN089/// M01/M05 Q0993 W///S7;",
"01488199999","2010-12-16T13:20:00","4","61.206389","1.828889","142.0","STATFJORD B OIL PLATFORM, NO","FM-15","ENFB ","V020","340,1,N,0129,1","00270,1,9,N","000800,1,N,1","-0040,1","-0060,1","99999,9","10,1","85,1","07,1,+00270,1,99,9",,,"07,99,1,99,9,99,9,99999,9,99,9,99,9","09929,1,99999,9",,"MET080METAR ENFB 161320Z AUTO 34025KT 0800NDV -SHSN BR BKN009/// M04/M06 Q0993 W///S7;",
"01488199999","2010-12-16T13:50:00","4","61.206389","1.828889","142.0","STATFJORD B OIL PLATFORM, NO","FM-15","ENFB ","V020","340,1,N,0175,1","00600,1,9,N","011265,1,N,1","-0030,1","-0040,1","99999,9","64,1",,"07,1,+00600,1,99,9","07,1,+03000,1,99,9",,"07,99,1,99,9,99,9,99999,9,99,9,99,9","09919,1,99999,9",,"MET087METAR ENFB 161350Z AUTO 34034KT 9999NDV -FZRA BKN020/// BKN100/// M03/M04 Q0992 W///S7;",
"01488199999","2010-12-16T14:20:00","4","61.206389","1.828889","142.0","STATFJORD B OIL PLATFORM, NO","FM-15","ENFB ","V020","350,1,N,0139,1","03600,1,9,N","011265,1,N,1","-0030,1","-0050,1","99999,9",,,"02,1,+03000,1,99,9","07,1,+03600,1,99,9",,"07,99,1,99,9,99,9,99999,9,99,9,99,9","09919,1,99999,9",,"MET088METAR ENFB 161420Z AUTO 35027KT 9999NDV FEW100/// BKN120/// M03/M05 Q0992 REFZDZ W///S7;",
"01488199999","2010-12-16T14:50:00","4","61.206389","1.828889","142.0","STATFJORD B OIL PLATFORM, NO","FM-15","ENFB ","V020","320,1,N,0144,1","00330,1,9,N","001900,1,N,1","-0040,1","-0050,1","99999,9","10,1","85,1","07,1,+00330,1,99,9","07,1,+01800,1,99,9","07,1,+03000,1,99,9","07,99,1,99,9,99,9,99999,9,99,9,99,9","09919,1,99999,9",,"MET100METAR ENFB 161450Z AUTO 32028KT 1900NDV -SHSN BR BKN011/// BKN067/// BKN100/// M04/M05 Q0992 W///S7;",
"01488199999","2010-12-16T15:20:00","4","61.206389","1.828889","142.0","STATFJORD B OIL PLATFORM, NO","FM-15","ENFB ","V020","360,1,N,0149,1","00690,1,9,N","011265,1,N,1","-0030,1","-0040,1","99999,9","71,1",,"07,1,+00690,1,99,9","07,1,+01080,1,99,9",,"07,99,1,99,9,99,9,99999,9,99,9,99,9","09909,1,99999,9","0206,1","MET095METAR ENFB 161520Z AUTO 36029G40KT 9999NDV -SN BKN023/// BKN036/// M03/M04 Q0991 REFZRA W///S7;",
"01488199999","2010-12-16T15:50:00","4","61.206389","1.828889","142.0","STATFJORD B OIL PLATFORM, NO","FM-15","ENFB ","V020","350,1,N,0165,1","00240,1,9,N","000800,1,N,1","-0040,1","-0050,1","99999,9","72,1",,"07,1,+00240,1,99,9",,,"07,99,1,99,9,99,9,99999,9,99,9,99,9","09909,1,99999,9",,"MET081METAR ENFB 161550Z AUTO 35032KT 0800NDV SN BKN008/// M04/M05 Q0991 REFZRA W///S7;",
"01488199999","2010-12-16T16:20:00","4","61.206389","1.828889","142.0","STATFJORD B OIL PLATFORM, NO","FM-15","ENFB ","V020","350,1,N,0139,1","00990,1,9,N","005000,1,N,1","+9999,9","+9999,9","99999,9","85,1",,"02,1,+00300,1,99,9","08,1,+00990,1,99,9",,"08,99,1,99,9,99,9,99999,9,99,9,99,9",,,"MET085METAR ENFB 161620Z AUTO 35027KT 5000NDV -SHSN FEW010/// OVC033/// ///// Q//// W///S7;",
"01488199999","2010-12-16T16:50:00","4","61.206389","1.828889","142.0","STATFJORD B OIL PLATFORM, NO","FM-15","ENFB ","V020","330,1,N,0144,1","00870,1,9,N","011265,1,N,1","+9999,9","+9999,9","99999,9",,,"07,1,+00870,1,99,9",,,"07,99,1,99,9,99,9,99999,9,99,9,99,9",,,"MET069METAR ENFB 161650Z AUTO 33028KT 9999NDV BKN029/// ///// Q//// W///S7;",
"01488199999","2010-12-16T17:20:00","4","61.206389","1.828889","142.0","STATFJORD B OIL PLATFORM, NO","FM-15","ENFB ","V020","320,1,N,0175,1","03000,1,9,N","011265,1,N,1","-0030,1","-0050,1","99999,9","85,1",,"02,1,+00480,1,99,9","07,1,+03000,1,99,9",,"07,99,1,99,9,99,9,99999,9,99,9,99,9","09898,1,99999,9",,"MET087METAR ENFB 161720Z AUTO 32034KT 9999NDV -SHSN FEW016/// BKN100/// M03/M05 Q0990 W///S7;",
"01488199999","2010-12-16T17:50:00","4","61.206389","1.828889","142.0","STATFJORD B OIL PLATFORM, NO","FM-15","ENFB ","V020","320,1,N,0144,1","00660,1,9,N","011265,1,N,1","-0030,1","-0040,1","99999,9",,,"07,1,+00660,1,99,9",,,"07,99,1,99,9,99,9,99999,9,99,9,99,9","09898,1,99999,9",,"MET071METAR ENFB 161750Z AUTO 32028KT 9999NDV BKN022/// M03/M04 Q0990 W///S7;",
"01488199999","2010-12-16T18:20:00","4","61.206389","1.828889","142.0","STATFJORD B OIL PLATFORM, NO","FM-15","ENFB ","V020","320,1,N,0134,1","00900,1,C,N","003600,1,N,1","-0020,1","-0040,1","99999,9","10,1","64,1","02,1,+00570,1,99,9","04,1,+00900,1,99,9","07,1,+03300,1,99,9","07,99,1,99,9,99,9,99999,9,99,9,99,9","09892,1,99999,9",,"MET100METAR ENFB 161820Z AUTO 32026KT 3600NDV -FZRA BR FEW019/// SCT030/// BKN110/// M02/M04 Q0989 W///S7;",
"01488199999","2010-12-16T18:50:00","4","61.206389","1.828889","142.0","STATFJORD B OIL PLATFORM, NO","FM-15","ENFB ","V020","360,1,N,0118,1","00900,1,9,N","011265,1,N,1","-0020,1","-0040,1","99999,9","71,1",,"07,1,+00900,1,99,9","07,1,+03000,1,99,9",,"07,99,1,99,9,99,9,99999,9,99,9,99,9","09892,1,99999,9",,"MET092METAR ENFB 161850Z AUTO 36023KT 9999NDV -SN BKN030/// BKN100/// M02/M04 Q0989 REFZRA W///S7;",
"01488199999","2010-12-16T19:20:00","4","61.206389","1.828889","142.0","STATFJORD B OIL PLATFORM, NO","FM-15","ENFB ","V020","010,1,N,0103,1","03300,1,9,N","011265,1,N,1","-0020,1","-0050,1","99999,9","71,1",,"04,1,+00720,1,99,9","07,1,+03300,1,99,9",,"07,99,1,99,9,99,9,99999,9,99,9,99,9","09892,1,99999,9",,"MET092METAR ENFB 161920Z AUTO 01020KT 9999NDV -SN SCT024/// BKN110/// M02/M05 Q0989 REFZRA W///S7;",
"01488199999","2010-12-16T19:50:00","4","61.206389","1.828889","142.0","STATFJORD B OIL PLATFORM, NO","FM-15","ENFB ","V020","010,1,N,0082,1","01800,1,9,N","011265,1,N,1","-0020,1","+9999,9","99999,9","54,1",,"02,1,+01470,1,99,9","07,1,+01800,1,99,9",,"07,99,1,99,9,99,9,99999,9,99,9,99,9","09882,1,99999,9",,"MET086METAR ENFB 161950Z AUTO 01016KT 9999NDV -FZDZ FEW049/// BKN060/// M02/// Q0988 W///S7;",
"01488199999","2010-12-16T20:20:00","4","61.206389","1.828889","142.0","STATFJORD B OIL PLATFORM, NO","FM-15","ENFB ","V020","360,1,N,0087,1","22000,1,9,N","011265,1,N,1","-0010,1","+9999,9","99999,9",,,"04,1,+01440,1,99,9",,,"04,99,1,99,9,99,9,99999,9,99,9,99,9","09882,1,99999,9",,"MET077METAR ENFB 162020Z AUTO 36017KT 9999NDV SCT048/// M01/// Q0988 REFZDZ W///S7;",
"01488199999","2010-12-16T20:50:00","4","61.206389","1.828889","142.0","STATFJORD B OIL PLATFORM, NO","FM-15","ENFB ","V020","010,1,N,0072,1","22000,1,9,N","011265,1,N,1","-0010,1","+9999,9","99999,9",,,"02,1,+01440,1,99,9",,,"02,99,1,99,9,99,9,99999,9,99,9,99,9","09882,1,99999,9",,"MET070METAR ENFB 162050Z AUTO 01014KT 9999NDV FEW048/// M01/// Q0988 W///S7;",
"01488199999","2010-12-16T21:20:00","4","61.206389","1.828889","142.0","STATFJORD B OIL PLATFORM, NO","FM-15","ENFB ","V020","010,1,N,0062,1","04500,1,9,N","011265,1,N,1","-0010,1","-0090,1","99999,9",,,"04,1,+03900,1,99,9","07,1,+04500,1,99,9",,"07,99,1,99,9,99,9,99999,9,99,9,99,9","09882,1,99999,9",,"MET089METAR ENFB 162120Z AUTO 01012KT 340V040 9999NDV SCT130/// BKN150/// M01/M09 Q0988 W///S7;",
"01488199999","2010-12-16T21:50:00","4","61.206389","1.828889","142.0","STATFJORD B OIL PLATFORM, NO","FM-15","ENFB ","V020","030,1,N,0062,1","03300,1,9,N","011265,1,N,1","+0000,1","-0120,1","99999,9",,,"02,1,+01350,1,99,9","07,1,+03300,1,99,9",,"07,99,1,99,9,99,9,99999,9,99,9,99,9","09882,1,99999,9",,"MET088METAR ENFB 162150Z AUTO 03012KT 350V050 9999NDV FEW045/// BKN110/// 00/M12 Q0988 W///S7;",
"01488199999","2010-12-16T22:20:00","4","61.206389","1.828889","142.0","STATFJORD B OIL PLATFORM, NO","FM-15","ENFB ","V020","020,1,N,0046,1","01800,1,9,N","011265,1,N,1","-0010,1","-0100,1","99999,9",,,"02,1,+01320,1,99,9","07,1,+01800,1,99,9",,"07,99,1,99,9,99,9,99999,9,99,9,99,9","09882,1,99999,9",,"MET081METAR ENFB 162220Z AUTO 02009KT 9999NDV FEW044/// BKN069/// M01/M10 Q0988 W///S7;",
"01488199999","2010-12-16T22:50:00","4","61.206389","1.828889","142.0","STATFJORD B OIL PLATFORM, NO","FM-15","ENFB ","V020","320,1,N,0062,1","00630,1,9,N","011265,1,N,1","-0010,1","-0060,1","99999,9","64,1",,"08,1,+00630,1,99,9",,,"08,99,1,99,9,99,9,99999,9,99,9,99,9","09882,1,99999,9",,"MET077METAR ENFB 162250Z AUTO 32012KT 9999NDV -FZRA OVC021/// M01/M06 Q0988 W///S7;",
"01488199999","2010-12-16T23:20:00","4","61.206389","1.828889","142.0","STATFJORD B OIL PLATFORM, NO","FM-15","ENFB ","V020","280,1,N,0057,1","00780,1,9,N","008000,1,N,1","-0020,1","-0060,1","99999,9","71,1",,"02,1,+00330,1,99,9","08,1,+00780,1,99,9",,"08,99,1,99,9,99,9,99999,9,99,9,99,9","09882,1,99999,9",,"MET085METAR ENFB 162320Z AUTO 28011KT 8000NDV -SN FEW011/// OVC026/// M02/M06 Q0988 W///S7;",
"01488199999","2010-12-16T23:50:00","4","61.206389","1.828889","142.0","STATFJORD B OIL PLATFORM, NO","FM-15","ENFB ","V020","270,1,N,0041,1","01140,1,9,N","011265,1,N,1","-0020,1","-0060,1","99999,9",,,"08,1,+01140,1,99,9",,,"08,99,1,99,9,99,9,99999,9,99,9,99,9","09882,1,99999,9",,"MET078METAR ENFB 162350Z AUTO 27008KT 9999NDV OVC038/// M02/M06 Q0988 REFZRA W///S7;",
"01488199999","2010-12-17T00:20:00","4","61.206389","1.828889","142.0","STATFJORD B OIL PLATFORM, NO","FM-15","ENFB ","V020","250,1,N,0051,1","02100,1,9,N","011265,1,N,1","-0020,1","-0060,1","99999,9",,,"04,1,+01500,1,99,9","08,1,+02100,1,99,9",,"08,99,1,99,9,99,9,99999,9,99,9,99,9","09882,1,99999,9",,"MET088METAR ENFB 170020Z AUTO 25010KT 9999NDV SCT053/// OVC077/// M02/M06 Q0988 REFZRA W///S7;",
"01488199999","2010-12-17T00:50:00","4","61.206389","1.828889","142.0","STATFJORD B OIL PLATFORM, NO","FM-15","ENFB ","V020","260,1,N,0031,1","22000,1,9,N","011265,1,N,1","-0010,1","-0050,1","99999,9",,,"04,1,+01500,1,99,9",,,"04,99,1,99,9,99,9,99999,9,99,9,99,9","09882,1,99999,9",,"MET079METAR ENFB 170050Z AUTO 26006KT 230V290 9999NDV SCT054/// M01/M05 Q0988 W///S7;",
"01488199999","2010-12-17T01:20:00","4","61.206389","1.828889","142.0","STATFJORD B OIL PLATFORM, NO","FM-15","ENFB ","V020","999,9,V,0010,1","22000,1,9,N","011265,1,N,1","-0010,1","-0050,1","99999,9",,,"02,1,+00750,1,99,9","04,1,+01440,1,99,9",,"04,99,1,99,9,99,9,99999,9,99,9,99,9","09882,1,99999,9",,"MET081METAR ENFB 170120Z AUTO VRB02KT 9999NDV FEW025/// SCT048/// M01/M05 Q0988 W///S7;",
"01488199999","2010-12-17T01:50:00","4","61.206389","1.828889","142.0","STATFJORD B OIL PLATFORM, NO","FM-15","ENFB ","V020","020,1,N,0067,1","00900,1,9,N","011265,1,N,1","-0010,1","-0050,1","99999,9",,,"07,1,+00900,1,99,9",,,"07,99,1,99,9,99,9,99999,9,99,9,99,9","09882,1,99999,9",,"MET071METAR ENFB 170150Z AUTO 02013KT 9999NDV BKN030/// M01/M05 Q0988 W///S7;",
"01488199999","2010-12-17T02:20:00","4","61.206389","1.828889","142.0","STATFJORD B OIL PLATFORM, NO","FM-15","ENFB ","V020","030,1,N,0098,1","22000,1,9,N","011265,1,N,1","-0020,1","-0060,1","99999,9",,,"02,1,+00600,1,99,9","04,1,+01500,1,99,9",,"04,99,1,99,9,99,9,99999,9,99,9,99,9","09882,1,99999,9",,"MET081METAR ENFB 170220Z AUTO 03019KT 9999NDV FEW020/// SCT053/// M02/M06 Q0988 W///S7;",
"01488199999","2010-12-17T02:50:00","4","61.206389","1.828889","142.0","STATFJORD B OIL PLATFORM, NO","FM-15","ENFB ","V020","020,1,N,0087,1","02400,1,9,N","011265,1,N,1","-0020,1","-0060,1","99999,9",,,"07,1,+02400,1,99,9",,,"07,99,1,99,9,99,9,99999,9,99,9,99,9","09882,1,99999,9",,"MET071METAR ENFB 170250Z AUTO 02017KT 9999NDV BKN085/// M02/M06 Q0988 W///S7;",
"01488199999","2010-12-17T03:20:00","4","61.206389","1.828889","142.0","STATFJORD B OIL PLATFORM, NO","FM-15","ENFB ","V020","020,1,N,0087,1","01800,1,9,N","011265,1,N,1","-0020,1","-0070,1","99999,9",,,"07,1,+01800,1,99,9","07,1,+04800,1,99,9",,"07,99,1,99,9,99,9,99999,9,99,9,99,9","09882,1,99999,9",,"MET081METAR ENFB 170320Z AUTO 02017KT 9999NDV BKN069/// BKN160/// M02/M07 Q0988 W///S7;",
"01488199999","2010-12-17T03:50:00","4","61.206389","1.828889","142.0","STATFJORD B OIL PLATFORM, NO","FM-15","ENFB ","V020","030,1,N,0046,1","03000,1,9,N","011265,1,N,1","-0010,1","-0070,1","99999,9",,,"07,1,+03000,1,99,9","07,1,+04500,1,99,9",,"07,99,1,99,9,99,9,99999,9,99,9,99,9","09882,1,99999,9",,"MET081METAR ENFB 170350Z AUTO 03009KT 9999NDV BKN100/// BKN150/// M01/M07 Q0988 W///S7;",
"01488199999","2010-12-17T04:20:00","4","61.206389","1.828889","142.0","STATFJORD B OIL PLATFORM, NO","FM-15","ENFB ","V020","010,1,N,0046,1","02400,1,9,N","011265,1,N,1","-0010,1","-0120,1","99999,9",,,"07,1,+02400,1,99,9",,,"07,99,1,99,9,99,9,99999,9,99,9,99,9","09882,1,99999,9",,"MET079METAR ENFB 170420Z AUTO 01009KT 340V040 9999NDV BKN089/// M01/M12 Q0988 W///S7;",
"01488199999","2010-12-17T04:50:00","4","61.206389","1.828889","142.0","STATFJORD B OIL PLATFORM, NO","FM-15","ENFB ","V020","020,1,N,0046,1","22000,1,9,N","011265,1,N,1","-0010,1","-0110,1","99999,9",,,"02,1,+03300,1,99,9",,,"02,99,1,99,9,99,9,99999,9,99,9,99,9","09882,1,99999,9",,"MET071METAR ENFB 170450Z AUTO 02009KT 9999NDV FEW110/// M01/M11 Q0988 W///S7;",
"01488199999","2010-12-17T05:20:00","4","61.206389","1.828889","142.0","STATFJORD B OIL PLATFORM, NO","FM-15","ENFB ","V020","030,1,N,0062,1","01500,1,9,N","011265,1,N,1","-0010,1","-0070,1","99999,9",,,"02,1,+00870,1,99,9","07,1,+01500,1,99,9",,"07,99,1,99,9,99,9,99999,9,99,9,99,9","09882,1,99999,9",,"MET081METAR ENFB 170520Z AUTO 03012KT 9999NDV FEW029/// BKN051/// M01/M07 Q0988 W///S7;",
"01488199999","2010-12-17T05:50:00","4","61.206389","1.828889","142.0","STATFJORD B OIL PLATFORM, NO","FM-15","ENFB ","V020","030,1,N,0041,1","02100,1,9,N","011265,1,N,1","+0000,1","-0090,1","99999,9",,,"02,1,+01500,1,99,9","07,1,+02100,1,99,9","07,1,+03900,1,99,9","07,99,1,99,9,99,9,99999,9,99,9,99,9","09882,1,99999,9",,"MET090METAR ENFB 170550Z AUTO 03008KT 9999NDV FEW056/// BKN078/// BKN130/// 00/M09 Q0988 W///S7;",
"01488199999","2010-12-17T06:20:00","4","61.206389","1.828889","142.0","STATFJORD B OIL PLATFORM, NO","FM-15","ENFB ","V020","030,1,N,0046,1","22000,1,9,N","011265,1,N,1","-0010,1","-0090,1","99999,9",,,,,,"00,99,1,99,9,99,9,99999,9,99,9,99,9","09882,1,99999,9",,"MET065METAR ENFB 170620Z AUTO 03009KT 9999NDV NCD M01/M09 Q0988 W///S7;","Q01    003SCCGA1"
"01488199999","2010-12-17T06:50:00","4","61.206389","1.828889","142.0","STATFJORD B OIL PLATFORM, NO","FM-15","ENFB ","V020","070,1,N,0026,1","22000,1,9,N","011265,1,N,1","+0010,1","-0090,1","99999,9",,,"02,1,+00390,1,99,9",,,"02,99,1,99,9,99,9,99999,9,99,9,99,9","09882,1,99999,9",,"MET078METAR ENFB 170650Z AUTO 07005KT 010V140 9999NDV FEW013/// 01/M09 Q0988 W///S7;",
"01488199999","2010-12-17T07:20:00","4","61.206389","1.828889","142.0","STATFJORD B OIL PLATFORM, NO","FM-15","ENFB ","V020","060,1,N,0026,1","22000,1,9,N","011265,1,N,1","+0010,1","-0080,1","99999,9",,,"02,1,+00540,1,99,9",,,"02,99,1,99,9,99,9,99999,9,99,9,99,9","09892,1,99999,9",,"MET078METAR ENFB 170720Z AUTO 06005KT 360V160 9999NDV FEW018/// 01/M08 Q0989 W///S7;",
"01488199999","2010-12-17T07:50:00","4","61.206389","1.828889","142.0","STATFJORD B OIL PLATFORM, NO","FM-15","ENFB ","V020","030,1,N,0041,1","22000,1,9,N","011265,1,N,1","+0010,1","-0080,1","99999,9",,,"02,1,+01170,1,99,9",,,"02,99,1,99,9,99,9,99999,9,99,9,99,9","09892,1,99999,9",,"MET070METAR ENFB 170750Z AUTO 03008KT 9999NDV FEW039/// 01/M08 Q0989 W///S7;",
"01488199999","2010-12-17T08:20:00","4","61.206389","1.828889","142.0","STATFJORD B OIL PLATFORM, NO","FM-15","ENFB ","V020","050,1,N,0036,1","22000,1,9,N","011265,1,N,1","+0000,1","-0070,1","99999,9",,,,,,"00,99,1,99,9,99,9,99999,9,99,9,99,9","09892,1,99999,9",,"MET064METAR ENFB 170820Z AUTO 05007KT 9999NDV NCD 00/M07 Q0989 W///S7;","Q01    003SCCGA1"
"01488199999","2010-12-17T08:50:00","4","61.206389","1.828889","142.0","STATFJORD B OIL PLATFORM, NO","FM-15","ENFB ","V020","060,1,N,0072,1","02700,1,9,N","011265,1,N,1","+0000,1","-0070,1","99999,9",,,"02,1,+01500,1,99,9","07,1,+02700,1,99,9","07,1,+04500,1,99,9","07,99,1,99,9,99,9,99999,9,99,9,99,9","09892,1,99999,9",,"MET090METAR ENFB 170850Z AUTO 06014KT 9999NDV FEW051/// BKN090/// BKN150/// 00/M07 Q0989 W///S7;",
"01488199999","2010-12-17T09:20:00","4","61.206389","1.828889","142.0","STATFJORD B OIL PLATFORM, NO","FM-15","ENFB ","V020","120,1,N,0046,1","00990,1,9,N","011265,1,N,1","+0000,1","-0070,1","99999,9","81,1",,"07,1,+00990,1,99,9","07,1,+01800,1,99,9",,"07,99,1,99,9,99,9,99999,9,99,9,99,9","09898,1,99999,9",,"MET086METAR ENFB 170920Z AUTO 12009KT 9999NDV -SHRA BKN033/// BKN067/// 00/M07 Q0990 W///S6;",
"01488199999","2010-12-17T09:50:00","4","61.206389","1.828889","142.0","STATFJORD B OIL PLATFORM, NO","FM-15","ENFB ","V020","120,1,N,0015,1","01320,1,9,N","011265,1,N,1","+0010,1","-0100,1","99999,9","81,1",,"02,1,+00330,1,99,9","07,1,+01320,1,99,9",,"07,99,1,99,9,99,9,99999,9,99,9,99,9","09898,1,99999,9",,"MET094METAR ENFB 170950Z AUTO 12003KT 060V180 9999NDV -SHRA FEW011/// BKN044/// 01/M10 Q0990 W///S6;",
"01488199999","2010-12-17T10:20:00","4","61.206389","1.828889","142.0","STATFJORD B OIL PLATFORM, NO","FM-15","ENFB ","V020","080,1,N,0015,1","00660,1,C,N","011265,1,N,1","+0010,1","-0060,1","99999,9","81,1",,"02,1,+00450,1,99,9","04,1,+00660,1,99,9","07,1,+01350,1,99,9","07,99,1,99,9,99,9,99999,9,99,9,99,9","09898,1,99999,9",,"MET096METAR ENFB 171020Z AUTO 08003KT 9999NDV -SHRA FEW015/// SCT022/// BKN045/// 01/M06 Q0990 W///S6;",
"01488199999","2010-12-17T10:50:00","4","61.206389","1.828889","142.0","STATFJORD B OIL PLATFORM, NO","FM-15","ENFB ","V020","140,1,N,0046,1","00780,1,9,N","011265,1,N,1","+0010,1","-0040,1","99999,9","81,1",,"07,1,+00780,1,99,9",,,"07,99,1,99,9,99,9,99999,9,99,9,99,9","09898,1,99999,9",,"MET084METAR ENFB 171050Z AUTO 14009KT 100V180 9999NDV -SHRA BKN026/// 01/M04 Q0990 W///S6;",
"01488199999","2010-12-17T11:20:00","4","61.206389","1.828889","142.0","STATFJORD B OIL PLATFORM, NO","FM-15","ENFB ","V020","110,1,N,0051,1","22000,1,9,N","011265,1,N,1","+0010,1","-0070,1","99999,9",,,"02,1,+00810,1,99,9","04,1,+04500,1,99,9",,"04,99,1,99,9,99,9,99999,9,99,9,99,9","09898,1,99999,9",,"MET080METAR ENFB 171120Z AUTO 11010KT 9999NDV FEW027/// SCT150/// 01/M07 Q0990 W///S6;",
"01488199999","2010-12-17T11:50:00","4","61.206389","1.828889","142.0","STATFJORD B OIL PLATFORM, NO","FM-15","ENFB ","V020","130,1,N,0057,1","22000,1,9,N","011265,1,N,1","+0010,1","-0070,1","99999,9",,,"02,1,+00270,1,99,9",,,"02,99,1,99,9,99,9,99999,9,99,9,99,9","09898,1,99999,9",,"MET070METAR ENFB 171150Z AUTO 13011KT 9999NDV FEW009/// 01/M07 Q0990 W///S6;",
"01488199999","2010-12-17T12:20:00","4","61.206389","1.828889","142.0","STATFJORD B OIL PLATFORM, NO","FM-15","ENFB ","V020","130,1,N,0103,1","22000,1,9,N","011265,1,N,1","+0000,1","-0060,1","99999,9",,,"02,1,+00180,1,99,9","04,1,+00720,1,99,9",,"04,99,1,99,9,99,9,99999,9,99,9,99,9","09898,1,99999,9",,"MET080METAR ENFB 171220Z AUTO 13020KT 9999NDV FEW006/// SCT024/// 00/M06 Q0990 W///S6;",
"01488199999","2010-12-17T12:50:00","4","61.206389","1.828889","142.0","STATFJORD B OIL PLATFORM, NO","FM-15","ENFB ","V020","120,1,N,0103,1","22000,1,9,N","011265,1,N,1","+0000,1","-0050,1","99999,9",,,"02,1,+00180,1,99,9",,,"02,99,1,99,9,99,9,99999,9,99,9,99,9","09898,1,99999,9",,"MET070METAR ENFB 171250Z AUTO 12020KT 9999NDV FEW006/// 00/M05 Q0990 W///S6;",
"01488199999","2010-12-17T13:20:00","4","61.206389","1.828889","142.0","STATFJORD B OIL PLATFORM, NO","FM-15","ENFB ","V020","120,1,N,0103,1","22000,1,9,N","002700,1,N,1","+0000,1","-0040,1","99999,9","61,1",,"02,1,+00180,1,99,9",,,"02,99,1,99,9,99,9,99999,9,99,9,99,9","09909,1,99999,9",,"MET074METAR ENFB 171320Z AUTO 12020KT 2700NDV -RA FEW006/// 00/M04 Q0991 W///S6;",
"01488199999","2010-12-17T13:50:00","4","61.206389","1.828889","142.0","STATFJORD B OIL PLATFORM, NO","FM-15","ENFB ","V020","140,1,N,0087,1","00450,1,9,N","011265,1,N,1","+0000,1","-0040,1","99999,9","67,1",,"07,1,+00450,1,99,9",,,"07,99,1,99,9,99,9,99999,9,99,9,99,9","09909,1,99999,9",,"MET076METAR ENFB 171350Z AUTO 14017KT 9999NDV -RASN BKN015/// 00/M04 Q0991 W///S6;",
"01488199999","2010-12-17T14:20:00","4","61.206389","1.828889","142.0","STATFJORD B OIL PLATFORM, NO","FM-15","ENFB ","V020","130,1,N,0134,1","01500,1,9,N","002300,1,N,1","-0010,1","-0040,1","99999,9","85,1",,"04,1,+00420,1,99,9","07,1,+01500,1,99,9",,"07,99,1,99,9,99,9,99999,9,99,9,99,9","09909,1,99999,9",,"MET087METAR ENFB 171420Z AUTO 13026KT 2300NDV -SHSN SCT014/// BKN054/// M01/M04 Q0991 W///S6;",
"01488199999","2010-12-17T14:50:00","4","61.206389","1.828889","142.0","STATFJORD B OIL PLATFORM, NO","FM-15","ENFB ","V020","130,1,N,0154,1","00570,1,9,N","011265,1,N,1","+0000,1","-0030,1","99999,9","80,1",,"07,1,+00570,1,99,9",,,"07,99,1,99,9,99,9,99999,9,99,9,99,9","09909,1,99999,9",,"MET078METAR ENFB 171450Z AUTO 13030KT 9999NDV -SHRASN BKN019/// 00/M03 Q0991 W///S6;",
"01488199999","2010-12-17T15:20:00","4","61.206389","1.828889","142.0","STATFJORD B OIL PLATFORM, NO","FM-15","ENFB ","V020","140,1,N,0129,1","00810,1,9,N","011265,1,N,1","+0000,1","-0030,1","99999,9","81,1",,"02,1,+00300,1,99,9","07,1,+00810,1,99,9",,"07,99,1,99,9,99,9,99999,9,99,9,99,9","09919,1,99999,9",,"MET086METAR ENFB 171520Z AUTO 14025KT 9999NDV -SHRA FEW010/// BKN027/// 00/M03 Q0992 W///S6;",
"01488199999","2010-12-17T15:50:00","4","61.206389","1.828889","142.0","STATFJORD B OIL PLATFORM, NO","FM-15","ENFB ","V020","140,1,N,0159,1","00660,1,9,N","011265,1,N,1","+0010,1","-0030,1","99999,9","85,1",,"07,1,+00660,1,99,9",,,"07,99,1,99,9,99,9,99999,9,99,9,99,9","09919,1,99999,9",,"MET076METAR ENFB 171550Z AUTO 14031KT 9999NDV -SHSN BKN022/// 01/M03 Q0992 W///S5;",
"01488199999","2010-12-17T16:20:00","4","61.206389","1.828889","142.0","STATFJORD B OIL PLATFORM, NO","FM-15","ENFB ","V020","140,1,N,0144,1","00630,1,9,N","007000,1,N,1","+0010,1","-0030,1","99999,9","67,1",,"07,1,+00630,1,99,9",,,"07,99,1,99,9,99,9,99999,9,99,9,99,9","09919,1,99999,9",,"MET076METAR ENFB 171620Z AUTO 14028KT 7000NDV -RASN BKN021/// 01/M03 Q0992 W///S6;",
"01488199999","2010-12-17T16:50:00","4","61.206389","1.828889","142.0","STATFJORD B OIL PLATFORM, NO","FM-15","ENFB ","V020","130,1,N,0165,1","00990,1,9,N","011265,1,N,1","+0010,1","-0040,1","99999,9",,,"07,1,+00990,1,99,9",,,"07,99,1,99,9,99,9,99999,9,99,9,99,9","09929,1,99999,9",,"MET070METAR ENFB 171650Z AUTO 13032KT 9999NDV BKN033/// 01/M04 Q0993 W///S5;",
"01488199999","2010-12-17T17:20:00","4","61.206389","1.828889","142.0","STATFJORD B OIL PLATFORM, NO","FM-15","ENFB ","V020","130,1,N,0165,1","01080,1,9,N","011265,1,N,1","+0020,1","-0050,1","99999,9",,,"07,1,+01080,1,99,9",,,"07,99,1,99,9,99,9,99999,9,99,9,99,9","09929,1,99999,9",,"MET070METAR ENFB 171720Z AUTO 13032KT 9999NDV BKN036/// 02/M05 Q0993 W///S5;",
"01488199999","2010-12-17T17:50:00","4","61.206389","1.828889","142.0","STATFJORD B OIL PLATFORM, NO","FM-15","ENFB ","V020","130,1,N,0165,1","01110,1,9,N","011265,1,N,1","+0020,1","-0060,1","99999,9",,,"07,1,+01110,1,99,9","07,1,+03000,1,99,9","07,1,+03600,1,99,9","07,99,1,99,9,99,9,99999,9,99,9,99,9","09929,1,99999,9",,"MET090METAR ENFB 171750Z AUTO 13032KT 9999NDV BKN037/// BKN100/// BKN120/// 02/M06 Q0993 W///S6;",
"01488199999","2010-12-17T18:20:00","4","61.206389","1.828889","142.0","STATFJORD B OIL PLATFORM, NO","FM-15","ENFB ","V020","130,1,N,0175,1","01200,1,9,N","011265,1,N,1","+0020,1","-0060,1","99999,9",,,"07,1,+01200,1,99,9","07,1,+03300,1,99,9","07,1,+03900,1,99,9","07,99,1,99,9,99,9,99999,9,99,9,99,9","09939,1,99999,9",,"MET090METAR ENFB 171820Z AUTO 13034KT 9999NDV BKN040/// BKN110/// BKN130/// 02/M06 Q0994 W///S6;",
"01488199999","2010-12-17T18:50:00","4","61.206389","1.828889","142.0","STATFJORD B OIL PLATFORM, NO","FM-15","ENFB ","V020","130,1,N,0170,1","03600,1,9,N","011265,1,N,1","+0020,1","-0060,1","99999,9","81,1",,"04,1,+01320,1,99,9","07,1,+03600,1,99,9",,"07,99,1,99,9,99,9,99999,9,99,9,99,9","09939,1,99999,9",,"MET086METAR ENFB 171850Z AUTO 13033KT 9999NDV -SHRA SCT044/// BKN120/// 02/M06 Q0994 W///S5;",
"01488199999","2010-12-17T19:20:00","4","61.206389","1.828889","142.0","STATFJORD B OIL PLATFORM, NO","FM-15","ENFB ","V020","120,1,N,0190,1","00780,1,9,N","011265,1,N,1","+0020,1","-0050,1","99999,9","81,1",,"02,1,+00210,1,99,9","07,1,+00780,1,99,9","07,1,+04200,1,99,9","07,99,1,99,9,99,9,99999,9,99,9,99,9","09949,1,99999,9",,"MET096METAR ENFB 171920Z AUTO 12037KT 9999NDV -SHRA FEW007/// BKN026/// BKN140/// 02/M05 Q0995 W///S5;",
"01488199999","2010-12-17T19:50:00","4","61.206389","1.828889","142.0","STATFJORD B OIL PLATFORM, NO","FM-15","ENFB ","V020","120,1,N,0175,1","01140,1,9,N","011265,1,N,1","+0020,1","-0050,1","99999,9","81,1",,"02,1,+00150,1,99,9","07,1,+01140,1,99,9",,"07,99,1,99,9,99,9,99999,9,99,9,99,9","09949,1,99999,9",,"MET086METAR ENFB 171950Z AUTO 12034KT 9999NDV -SHRA FEW005/// BKN038/// 02/M05 Q0995 W///S5;",
"01488199999","2010-12-17T20:20:00","4","61.206389","1.828889","142.0","STATFJORD B OIL PLATFORM, NO","FM-15","ENFB ","V020","130,1,N,0185,1","01500,1,9,N","011265,1,N,1","+0020,1","-0060,1","99999,9","81,1",,"02,1,+01110,1,99,9","07,1,+01500,1,99,9",,"07,99,1,99,9,99,9,99999,9,99,9,99,9","09959,1,99999,9",,"MET086METAR ENFB 172020Z AUTO 13036KT 9999NDV -SHRA FEW037/// BKN058/// 02/M06 Q0996 W///S6;",
"01488199999","2010-12-17T20:50:00","4","61.206389","1.828889","142.0","STATFJORD B OIL PLATFORM, NO","FM-15","ENFB ","V020","120,1,N,0190,1","01050,1,9,N","011265,1,N,1","+0020,1","-0050,1","99999,9",,,"07,1,+01050,1,99,9",,,"07,99,1,99,9,99,9,99999,9,99,9,99,9","09959,1,99999,9",,"MET070METAR ENFB 172050Z AUTO 12037KT 9999NDV BKN035/// 02/M05 Q0996 W///S6;",
"01488199999","2010-12-17T21:20:00","4","61.206389","1.828889","142.0","STATFJORD B OIL PLATFORM, NO","FM-15","ENFB ","V020","130,1,N,0190,1","01020,1,9,N","011265,1,N,1","+0020,1","-0070,1","99999,9","81,1",,"02,1,+00150,1,99,9","07,1,+01020,1,99,9",,"07,99,1,99,9,99,9,99999,9,99,9,99,9","09970,1,99999,9",,"MET086METAR ENFB 172120Z AUTO 13037KT 9999NDV -SHRA FEW005/// BKN034/// 02/M07 Q0997 W///S5;",
"01488199999","2010-12-17T21:50:00","4","61.206389","1.828889","142.0","STATFJORD B OIL PLATFORM, NO","FM-15","ENFB ","V020","130,1,N,0180,1","01290,1,9,N","011265,1,N,1","+0020,1","-0060,1","99999,9",,,"07,1,+01290,1,99,9",,,"07,99,1,99,9,99,9,99999,9,99,9,99,9","09970,1,99999,9",,"MET070METAR ENFB 172150Z AUTO 13035KT 9999NDV BKN043/// 02/M06 Q0997 W///S5;",
"01488199999","2010-12-17T22:20:00","4","61.206389","1.828889","142.0","STATFJORD B OIL PLATFORM, NO","FM-15","ENFB ","V020","130,1,N,0170,1","01230,1,9,N","011265,1,N,1","+0020,1","-0050,1","99999,9",,,"07,1,+01230,1,99,9",,,"07,99,1,99,9,99,9,99999,9,99,9,99,9","09980,1,99999,9",,"MET070METAR ENFB 172220Z AUTO 13033KT 9999NDV BKN041/// 02/M05 Q0998 W///S5;",
"01488199999","2010-12-17T22:50:00","4","61.206389","1.828889","142.0","STATFJORD B OIL PLATFORM, NO","FM-15","ENFB ","V020","120,1,N,0170,1","01020,1,9,N","011265,1,N,1","+0020,1","-0060,1","99999,9",,,"02,1,+00150,1,99,9","07,1,+01020,1,99,9",,"07,99,1,99,9,99,9,99999,9,99,9,99,9","09980,1,99999,9",,"MET080METAR ENFB 172250Z AUTO 12033KT 9999NDV FEW005/// BKN034/// 02/M06 Q0998 W///S5;",
"01488199999","2010-12-17T23:20:00","4","61.206389","1.828889","142.0","STATFJORD B OIL PLATFORM, NO","FM-15","ENFB ","V020","120,1,N,0165,1","01230,1,9,N","011265,1,N,1","+0020,1","-0060,1","99999,9",,,"02,1,+00150,1,99,9","07,1,+01230,1,99,9",,"07,99,1,99,9,99,9,99999,9,99,9,99,9","09990,1,99999,9",,"MET080METAR ENFB 172320Z AUTO 12032KT 9999NDV FEW005/// BKN041/// 02/M06 Q0999 W///S5;",
"01488199999","2010-12-17T23:50:00","4","61.206389","1.828889","142.0","STATFJORD B OIL PLATFORM, NO","FM-15","ENFB ","V020","110,1,N,0149,1","01290,1,9,N","011265,1,N,1","+0020,1","-0060,1","99999,9",,,"02,1,+00180,1,99,9","07,1,+01290,1,99,9",,"07,99,1,99,9,99,9,99999,9,99,9,99,9","09990,1,99999,9",,"MET080METAR ENFB 172350Z AUTO 11029KT 9999NDV FEW006/// BKN043/// 02/M06 Q0999 W///S5;",
"01488199999","2010-12-18T00:20:00","4","61.206389","1.828889","142.0","STATFJORD B OIL PLATFORM, NO","FM-15","ENFB ","V020","120,1,N,0149,1","22000,1,9,N","011265,1,N,1","+0020,1","-0070,1","99999,9",,,"02,1,+00150,1,99,9","04,1,+01140,1,99,9",,"04,99,1,99,9,99,9,99999,9,99,9,99,9","10000,1,99999,9",,"MET080METAR ENFB 180020Z AUTO 12029KT 9999NDV FEW005/// SCT038/// 02/M07 Q1000 W///S5;",
"01488199999","2010-12-18T00:50:00","4","61.206389","1.828889","142.0","STATFJORD B OIL PLATFORM, NO","FM-15","ENFB ","V020","120,1,N,0139,1","01170,1,9,N","011265,1,N,1","+0020,1","-0070,1","99999,9",,,"02,1,+00180,1,99,9","07,1,+01170,1,99,9",,"07,99,1,99,9,99,9,99999,9,99,9,99,9","10000,1,99999,9",,"MET080METAR ENFB 180050Z AUTO 12027KT 9999NDV FEW006/// BKN039/// 02/M07 Q1000 W///S5;",
"01488199999","2010-12-18T01:20:00","4","61.206389","1.828889","142.0","STATFJORD B OIL PLATFORM, NO","FM-15","ENFB ","V020","120,1,N,0129,1","22000,1,9,N","011265,1,N,1","+0020,1","-0070,1","99999,9",,,"02,1,+01200,1,99,9",,,"02,99,1,99,9,99,9,99999,9,99,9,99,9","10000,1,99999,9",,"MET070METAR ENFB 180120Z AUTO 12025KT 9999NDV FEW040/// 02/M07 Q1000 W///S5;",
"01488199999","2010-12-18T01:50:00","4","61.206389","1.828889","142.0","STATFJORD B OIL PLATFORM, NO","FM-15","ENFB ","V020","120,1,N,0118,1","22000,1,9,N","011265,1,N,1","+0020,1","-0080,1","99999,9",,,"02,1,+01020,1,99,9","04,1,+04800,1,99,9",,"04,99,1,99,9,99,9,99999,9,99,9,99,9","10010,1,99999,9",,"MET080METAR ENFB 180150Z AUTO 12023KT 9999NDV FEW034/// SCT160/// 02/M08 Q1001 W///S5;",
"01488199999","2010-12-18T02:20:00","4","61.206389","1.828889","142.0","STATFJORD B OIL PLATFORM, NO","FM-15","ENFB ","V020","120,1,N,0108,1","04200,1,9,N","011265,1,N,1","+0020,1","-0080,1","99999,9",,,"02,1,+01260,1,99,9","07,1,+04200,1,99,9",,"07,99,1,99,9,99,9,99999,9,99,9,99,9","10010,1,99999,9",,"MET080METAR ENFB 180220Z AUTO 12021KT 9999NDV FEW042/// BKN140/// 02/M08 Q1001 W///S5;",
"01488199999","2010-12-18T02:50:00","4","61.206389","1.828889","142.0","STATFJORD B OIL PLATFORM, NO","FM-15","ENFB ","V020","120,1,N,0113,1","04200,1,C,N","011265,1,N,1","+0020,1","-0080,1","99999,9",,,"04,1,+01380,1,99,9","04,1,+04200,1,99,9","07,1,+04800,1,99,9","07,99,1,99,9,99,9,99999,9,99,9,99,9","10020,1,99999,9",,"MET090METAR ENFB 180250Z AUTO 12022KT 9999NDV SCT046/// SCT140/// BKN160/// 02/M08 Q1002 W///S5;",
"01488199999","2010-12-18T03:20:00","4","61.206389","1.828889","142.0","STATFJORD B OIL PLATFORM, NO","FM-15","ENFB ","V020","110,1,N,0113,1","22000,1,9,N","011265,1,N,1","+0020,1","-0080,1","99999,9",,,"02,1,+01380,1,99,9",,,"02,99,1,99,9,99,9,99999,9,99,9,99,9","10020,1,99999,9",,"MET070METAR ENFB 180320Z AUTO 11022KT 9999NDV FEW046/// 02/M08 Q1002 W///S5;",
"01488199999","2010-12-18T03:50:00","4","61.206389","1.828889","142.0","STATFJORD B OIL PLATFORM, NO","FM-15","ENFB ","V020","110,1,N,0108,1","22000,1,9,N","011265,1,N,1","+0020,1","-0090,1","99999,9",,,"04,1,+01440,1,99,9","04,1,+05700,1,99,9",,"04,99,1,99,9,99,9,99999,9,99,9,99,9","10020,1,99999,9",,"MET080METAR ENFB 180350Z AUTO 11021KT 9999NDV SCT048/// SCT190/// 02/M09 Q1002 W///S5;",
"01488199999","2010-12-18T04:20:00","4","61.206389","1.828889","142.0","STATFJORD B OIL PLATFORM, NO","FM-15","ENFB ","V020","100,1,N,0108,1","22000,1,9,N","011265,1,N,1","+0020,1","-0090,1","99999,9",,,"02,1,+01410,1,99,9",,,"02,99,1,99,9,99,9,99999,9,99,9,99,9","10020,1,99999,9",,"MET070METAR ENFB 180420Z AUTO 10021KT 9999NDV FEW047/// 02/M09 Q1002 W///S5;",
"01488199999","2010-12-18T04:50:00","4","61.206389","1.828889","142.0","STATFJORD B OIL PLATFORM, NO","FM-15","ENFB ","V020","100,1,N,0108,1","22000,1,9,N","011265,1,N,1","+0020,1","-0090,1","99999,9",,,,,,"00,99,1,99,9,99,9,99999,9,99,9,99,9","10020,1,99999,9",,"MET064METAR ENFB 180450Z AUTO 10021KT 9999NDV NCD 02/M09 Q1002 W///S5;","Q01    003SCCGA1"
"01488199999","2010-12-18T05:20:00","4","61.206389","1.828889","142.0","STATFJORD B OIL PLATFORM, NO","FM-15","ENFB ","V020","100,1,N,0108,1","22000,1,9,N","011265,1,N,1","+0030,1","-0090,1","99999,9",,,,,,"00,99,1,99,9,99,9,99999,9,99,9,99,9","10031,1,99999,9",,"MET064METAR ENFB 180520Z AUTO 10021KT 9999NDV NCD 03/M09 Q1003 W///S5;","Q01    003SCCGA1"
"01488199999","2010-12-18T05:50:00","4","61.206389","1.828889","142.0","STATFJORD B OIL PLATFORM, NO","FM-15","ENFB ","V020","100,1,N,0108,1","22000,1,9,N","011265,1,N,1","+0030,1","-0080,1","99999,9",,,,,,"00,99,1,99,9,99,9,99999,9,99,9,99,9","10031,1,99999,9",,"MET064METAR ENFB 180550Z AUTO 10021KT 9999NDV NCD 03/M08 Q1003 W///S5;","Q01    003SCCGA1"
"01488199999","2010-12-18T06:20:00","4","61.206389","1.828889","142.0","STATFJORD B OIL PLATFORM, NO","FM-15","ENFB ","V020","110,1,N,0118,1","22000,1,9,N","011265,1,N,1","+0030,1","-0080,1","99999,9",,,,,,"00,99,1,99,9,99,9,99999,9,99,9,99,9","10031,1,99999,9",,"MET064METAR ENFB 180620Z AUTO 11023KT 9999NDV NCD 03/M08 Q1003 W///S5;","Q01    003SCCGA1"
"01488199999","2010-12-18T06:50:00","4","61.206389","1.828889","142.0","STATFJORD B OIL PLATFORM, NO","FM-15","ENFB ","V020","100,1,N,0108,1","22000,1,9,N","011265,1,N,1","+0030,1","-0080,1","99999,9",,,"02,1,+01140,1,99,9",,,"02,99,1,99,9,99,9,99999,9,99,9,99,9","10031,1,99999,9",,"MET070METAR ENFB 180650Z AUTO 10021KT 9999NDV FEW038/// 03/M08 Q1003 W///S5;",
"01488199999","2010-12-18T07:20:00","4","61.206389","1.828889","142.0","STATFJORD B OIL PLATFORM, NO","FM-15","ENFB ","V020","110,1,N,0118,1","22000,1,9,N","011265,1,N,1","+0030,1","-0070,1","99999,9",,,,,,"00,99,1,99,9,99,9,99999,9,99,9,99,9","10041,1,99999,9",,"MET064METAR ENFB 180720Z AUTO 11023KT 9999NDV NCD 03/M07 Q1004 W///S5;","Q01    003SCCGA1"
"01488199999","2010-12-18T07:50:00","4","61.206389","1.828889","142.0","STATFJORD B OIL PLATFORM, NO","FM-15","ENFB ","V020","120,1,N,0134,1","01260,1,9,N","011265,1,N,1","+0030,1","-0060,1","99999,9",,,"07,1,+01260,1,99,9",,,"07,99,1,99,9,99,9,99999,9,99,9,99,9","10041,1,99999,9",,"MET070METAR ENFB 180750Z AUTO 12026KT 9999NDV BKN042/// 03/M06 Q1004 W///S5;",
"01488199999","2010-12-18T08:20:00","4","61.206389","1.828889","142.0","STATFJORD B OIL PLATFORM, NO","FM-15","ENFB ","V020","120,1,N,0154,1","01290,1,9,N","011265,1,N,1","+0030,1","-0050,1","99999,9",,,"07,1,+01290,1,99,9",,,"07,99,1,99,9,99,9,99999,9,99,9,99,9","10051,1,99999,9",,"MET070METAR ENFB 180820Z AUTO 12030KT 9999NDV BKN043/// 03/M05 Q1005 W///S5;",
"01488199999","2010-12-18T08:50:00","4","61.206389","1.828889","142.0","STATFJORD B OIL PLATFORM, NO","FM-15","ENFB ","V020","120,1,N,0149,1","01500,1,9,N","011265,1,N,1","+0030,1","-0060,1","99999,9",,,"02,1,+00960,1,99,9","07,1,+01500,1,99,9",,"07,99,1,99,9,99,9,99999,9,99,9,99,9","10051,1,99999,9",,"MET080METAR ENFB 180850Z AUTO 12029KT 9999NDV FEW032/// BKN052/// 03/M06 Q1005 W///S5;",
"01488199999","2010-12-18T09:20:00","4","61.206389","1.828889","142.0","STATFJORD B OIL PLATFORM, NO","FM-15","ENFB ","V020","110,1,N,0129,1","01500,1,9,N","011265,1,N,1","+0020,1","-0060,1","99999,9","81,1",,"07,1,+01500,1,99,9",,,"07,99,1,99,9,99,9,99999,9,99,9,99,9","10051,1,99999,9",,"MET076METAR ENFB 180920Z AUTO 11025KT 9999NDV -SHRA BKN055/// 02/M06 Q1005 W///S5;",
"01488199999","2010-12-18T09:50:00","4","61.206389","1.828889","142.0","STATFJORD B OIL PLATFORM, NO","FM-15","ENFB ","V020","110,1,N,0154,1","01320,1,9,N","011265,1,N,1","+0030,1","-0070,1","99999,9",,,"07,1,+01320,1,99,9",,,"07,99,1,99,9,99,9,99999,9,99,9,99,9","10051,1,99999,9",,"MET070METAR ENFB 180950Z AUTO 11030KT 9999NDV BKN044/// 03/M07 Q1005 W///S5;",
"01488199999","2010-12-18T10:20:00","4","61.206389","1.828889","142.0","STATFJORD B OIL PLATFORM, NO","FM-15","ENFB ","V020","110,1,N,0149,1","01470,1,9,N","011265,1,N,1","+0030,1","-0070,1","99999,9",,,"02,1,+01320,1,99,9","07,1,+01470,1,99,9","07,1,+04200,1,99,9","07,99,1,99,9,99,9,99999,9,99,9,99,9","10061,1,99999,9",,"MET090METAR ENFB 181020Z AUTO 11029KT 9999NDV FEW044/// BKN049/// BKN140/// 03/M07 Q1006 W///S5;",
"01488199999","2010-12-18T10:50:00","4","61.206389","1.828889","142.0","STATFJORD B OIL PLATFORM, NO","FM-15","ENFB ","V020","110,1,N,0144,1","01380,1,9,N","011265,1,N,1","+0030,1","-0070,1","99999,9",,,"07,1,+01380,1,99,9",,,"07,99,1,99,9,99,9,99999,9,99,9,99,9","10061,1,99999,9",,"MET070METAR ENFB 181050Z AUTO 11028KT 9999NDV BKN046/// 03/M07 Q1006 W///S5;",
"01488199999","2010-12-18T11:20:00","4","61.206389","1.828889","142.0","STATFJORD B OIL PLATFORM, NO","FM-15","ENFB ","V020","110,1,N,0149,1","01260,1,9,N","011265,1,N,1","+0020,1","-0070,1","99999,9",,,"07,1,+01260,1,99,9",,,"07,99,1,99,9,99,9,99999,9,99,9,99,9","10061,1,99999,9",,"MET070METAR ENFB 181120Z AUTO 11029KT 9999NDV BKN042/// 02/M07 Q1006 W///S5;",
"01488199999","2010-12-18T11:50:00","4","61.206389","1.828889","142.0","STATFJORD B OIL PLATFORM, NO","FM-15","ENFB ","V020","110,1,N,0129,1","22000,1,9,N","011265,1,N,1","+0030,1","-0070,1","99999,9",,,"02,1,+01410,1,99,9",,,"02,99,1,99,9,99,9,99999,9,99,9,99,9","10071,1,99999,9",,"MET070METAR ENFB 181150Z AUTO 11025KT 9999NDV FEW047/// 03/M07 Q1007 W///S5;",
"01488199999","2010-12-18T12:20:00","4","61.206389","1.828889","142.0","STATFJORD B OIL PLATFORM, NO","FM-15","ENFB ","V020","120,1,N,0129,1","22000,1,9,N","011265,1,N,1","+0020,1","-0070,1","99999,9",,,"02,1,+01290,1,99,9",,,"02,99,1,99,9,99,9,99999,9,99,9,99,9","10071,1,99999,9",,"MET070METAR ENFB 181220Z AUTO 12025KT 9999NDV FEW043/// 02/M07 Q1007 W///S5;",
"01488199999","2010-12-18T12:50:00","4","61.206389","1.828889","142.0","STATFJORD B OIL PLATFORM, NO","FM-15","ENFB ","V020","120,1,N,0118,1","22000,1,9,N","011265,1,N,1","+0030,1","-0060,1","99999,9",,,"02,1,+01260,1,99,9",,,"02,99,1,99,9,99,9,99999,9,99,9,99,9","10071,1,99999,9",,"MET070METAR ENFB 181250Z AUTO 12023KT 9999NDV FEW042/// 03/M06 Q1007 W///S5;",
"01488199999","2010-12-18T13:20:00","4","61.206389","1.828889","142.0","STATFJORD B OIL PLATFORM, NO","FM-15","ENFB ","V020","120,1,N,0113,1","22000,1,9,N","011265,1,N,1","+0030,1","-0070,1","99999,9",,,"02,1,+01350,1,99,9",,,"02,99,1,99,9,99,9,99999,9,99,9,99,9","10071,1,99999,9",,"MET070METAR ENFB 181320Z AUTO 12022KT 9999NDV FEW045/// 03/M07 Q1007 W///S5;",
"01488199999","2010-12-18T13:50:00","4","61.206389","1.828889","142.0","STATFJORD B OIL PLATFORM, NO","FM-15","ENFB ","V020","120,1,N,0118,1","22000,1,9,N","011265,1,N,1","+0030,1","-0070,1","99999,9",,,"02,1,+01260,1,99,9",,,"02,99,1,99,9,99,9,99999,9,99,9,99,9","10071,1,99999,9",,"MET070METAR ENFB 181350Z AUTO 12023KT 9999NDV FEW042/// 03/M07 Q1007 W///S5;",
"01488199999","2010-12-18T14:20:00","4","61.206389","1.828889","142.0","STATFJORD B OIL PLATFORM, NO","FM-15","ENFB ","V020","120,1,N,0103,1","22000,1,9,N","011265,1,N,1","+0030,1","-0070,1","99999,9",,,"02,1,+01260,1,99,9",,,"02,99,1,99,9,99,9,99999,9,99,9,99,9","10071,1,99999,9",,"MET070METAR ENFB 181420Z AUTO 12020KT 9999NDV FEW042/// 03/M07 Q1007 W///S5;",
"01488199999","2010-12-18T14:50:00","4","61.206389","1.828889","142.0","STATFJORD B OIL PLATFORM, NO","FM-15","ENFB ","V020","120,1,N,0113,1","01350,1,9,N","011265,1,N,1","+0030,1","-0070,1","99999,9",,,"07,1,+01350,1,99,9",,,"07,99,1,99,9,99,9,99999,9,99,9,99,9","10071,1,99999,9",,"MET070METAR ENFB 181450Z AUTO 12022KT 9999NDV BKN045/// 03/M07 Q1007 W///S5;",
"01488199999","2010-12-18T15:20:00","4","61.206389","1.828889","142.0","STATFJORD B OIL PLATFORM, NO","FM-15","ENFB ","V020","120,1,N,0108,1","01470,1,9,N","011265,1,N,1","+0030,1","-0070,1","99999,9",,,"07,1,+01470,1,99,9",,,"07,99,1,99,9,99,9,99999,9,99,9,99,9","10081,1,99999,9",,"MET070METAR ENFB 181520Z AUTO 12021KT 9999NDV BKN049/// 03/M07 Q1008 W///S5;",
"01488199999","2010-12-18T15:50:00","4","61.206389","1.828889","142.0","STATFJORD B OIL PLATFORM, NO","FM-15","ENFB ","V020","120,1,N,0108,1","01350,1,9,N","011265,1,N,1","+0030,1","-0070,1","99999,9",,,"07,1,+01350,1,99,9",,,"07,99,1,99,9,99,9,99999,9,99,9,99,9","10081,1,99999,9",,"MET070METAR ENFB 181550Z AUTO 12021KT 9999NDV BKN045/// 03/M07 Q1008 W///S5;",
"01488199999","2010-12-18T16:20:00","4","61.206389","1.828889","142.0","STATFJORD B OIL PLATFORM, NO","FM-15","ENFB ","V020","120,1,N,0103,1","01320,1,9,N","011265,1,N,1","+0030,1","-0070,1","99999,9",,,"07,1,+01320,1,99,9",,,"07,99,1,99,9,99,9,99999,9,99,9,99,9","10081,1,99999,9",,"MET070METAR ENFB 181620Z AUTO 12020KT 9999NDV BKN044/// 03/M07 Q1008 W///S5;",
"01488199999","2010-12-18T16:50:00","4","61.206389","1.828889","142.0","STATFJORD B OIL PLATFORM, NO","FM-15","ENFB ","V020","110,1,N,0098,1","22000,1,9,N","011265,1,N,1","+0030,1","-0080,1","99999,9",,,,,,"00,99,1,99,9,99,9,99999,9,99,9,99,9","10081,1,99999,9",,"MET064METAR ENFB 181650Z AUTO 11019KT 9999NDV NCD 03/M08 Q1008 W///S4;","Q01    003SCCGA1"
"01488199999","2010-12-18T17:20:00","4","61.206389","1.828889","142.0","STATFJORD B OIL PLATFORM, NO","FM-15","ENFB ","V020","120,1,N,0103,1","01470,1,9,N","011265,1,N,1","+0030,1","-0070,1","99999,9",,,"07,1,+01470,1,99,9",,,"07,99,1,99,9,99,9,99999,9,99,9,99,9","10091,1,99999,9",,"MET070METAR ENFB 181720Z AUTO 12020KT 9999NDV BKN049/// 03/M07 Q1009 W///S5;",
"01488199999","2010-12-18T17:50:00","4","61.206389","1.828889","142.0","STATFJORD B OIL PLATFORM, NO","FM-15","ENFB ","V020","120,1,N,0113,1","01500,1,9,N","011265,1,N,1","+0030,1","-0080,1","99999,9",,,"07,1,+01500,1,99,9",,,"07,99,1,99,9,99,9,99999,9,99,9,99,9","10091,1,99999,9",,"MET070METAR ENFB 181750Z AUTO 12022KT 9999NDV BKN052/// 03/M08 Q1009 W///S5;",
"01488199999","2010-12-18T18:20:00","4","61.206389","1.828889","142.0","STATFJORD B OIL PLATFORM, NO","FM-15","ENFB ","V020","120,1,N,0108,1","01500,1,9,N","011265,1,N,1","+0030,1","-0070,1","99999,9",,,"07,1,+01500,1,99,9",,,"07,99,1,99,9,99,9,99999,9,99,9,99,9","10091,1,99999,9",,"MET070METAR ENFB 181820Z AUTO 12021KT 9999NDV BKN054/// 03/M07 Q1009 W///S5;",
"01488199999","2010-12-18T18:50:00","4","61.206389","1.828889","142.0","STATFJORD B OIL PLATFORM, NO","FM-15","ENFB ","V020","110,1,N,0103,1","01440,1,9,N","011265,1,N,1","+0030,1","-0070,1","99999,9",,,"07,1,+01440,1,99,9",,,"07,99,1,99,9,99,9,99999,9,99,9,99,9","10091,1,99999,9",,"MET070METAR ENFB 181850Z AUTO 11020KT 9999NDV BKN048/// 03/M07 Q1009 W///S4;",
"01488199999","2010-12-18T19:20:00","4","61.206389","1.828889","142.0","STATFJORD B OIL PLATFORM, NO","FM-15","ENFB ","V020","120,1,N,0098,1","01380,1,9,N","011265,1,N,1","+0020,1","-0080,1","99999,9",,,"07,1,+01380,1,99,9",,,"07,99,1,99,9,99,9,99999,9,99,9,99,9","10091,1,99999,9",,"MET070METAR ENFB 181920Z AUTO 12019KT 9999NDV BKN046/// 02/M08 Q1009 W///S5;",
"01488199999","2010-12-18T19:50:00","4","61.206389","1.828889","142.0","STATFJORD B OIL PLATFORM, NO","FM-15","ENFB ","V020","120,1,N,0093,1","01350,1,9,N","011265,1,N,1","+0020,1","-0080,1","99999,9",,,"07,1,+01350,1,99,9",,,"07,99,1,99,9,99,9,99999,9,99,9,99,9","10091,1,99999,9",,"MET070METAR ENFB 181950Z AUTO 12018KT 9999NDV BKN045/// 02/M08 Q1009 W///S5;",
"01488199999","2010-12-18T20:20:00","4","61.206389","1.828889","142.0","STATFJORD B OIL PLATFORM, NO","FM-15","ENFB ","V020","120,1,N,0082,1","22000,1,9,N","011265,1,N,1","+0020,1","-0080,1","99999,9",,,"02,1,+01380,1,99,9",,,"02,99,1,99,9,99,9,99999,9,99,9,99,9","10091,1,99999,9",,"MET070METAR ENFB 182020Z AUTO 12016KT 9999NDV FEW046/// 02/M08 Q1009 W///S4;",
"01488199999","2010-12-18T20:50:00","4","61.206389","1.828889","142.0","STATFJORD B OIL PLATFORM, NO","FM-15","ENFB ","V020","120,1,N,0067,1","22000,1,9,N","011265,1,N,1","+0020,1","-0080,1","99999,9",,,"04,1,+01380,1,99,9",,,"04,99,1,99,9,99,9,99999,9,99,9,99,9","10091,1,99999,9",,"MET070METAR ENFB 182050Z AUTO 12013KT 9999NDV SCT046/// 02/M08 Q1009 W///S4;",
"01488199999","2010-12-18T21:20:00","4","61.206389","1.828889","142.0","STATFJORD B OIL PLATFORM, NO","FM-15","ENFB ","V020","120,1,N,0067,1","22000,1,9,N","011265,1,N,1","+0020,1","-0080,1","99999,9",,,"04,1,+01350,1,99,9",,,"04,99,1,99,9,99,9,99999,9,99,9,99,9","10091,1,99999,9",,"MET070METAR ENFB 182120Z AUTO 12013KT 9999NDV SCT045/// 02/M08 Q1009 W///S4;",
"01488199999","2010-12-18T21:50:00","4","61.206389","1.828889","142.0","STATFJORD B OIL PLATFORM, NO","FM-15","ENFB ","V020","120,1,N,0057,1","22000,1,9,N","011265,1,N,1","+0030,1","-0080,1","99999,9",,,"02,1,+01380,1,99,9","04,1,+01500,1,99,9",,"04,99,1,99,9,99,9,99999,9,99,9,99,9","10091,1,99999,9",,"MET080METAR ENFB 182150Z AUTO 12011KT 9999NDV FEW046/// SCT053/// 03/M08 Q1009 W///S4;",
"01488199999","2010-12-18T22:20:00","4","61.206389","1.828889","142.0","STATFJORD B OIL PLATFORM, NO","FM-15","ENFB ","V020","110,1,N,0062,1","01410,1,9,N","011265,1,N,1","+0030,1","-0080,1","99999,9",,,"07,1,+01410,1,99,9",,,"07,99,1,99,9,99,9,99999,9,99,9,99,9","10091,1,99999,9",,"MET070METAR ENFB 182220Z AUTO 11012KT 9999NDV BKN047/// 03/M08 Q1009 W///S4;",
"01488199999","2010-12-18T22:50:00","4","61.206389","1.828889","142.0","STATFJORD B OIL PLATFORM, NO","FM-15","ENFB ","V020","110,1,N,0067,1","01350,1,9,N","011265,1,N,1","+0020,1","-0070,1","99999,9",,,"07,1,+01350,1,99,9",,,"07,99,1,99,9,99,9,99999,9,99,9,99,9","10091,1,99999,9",,"MET070METAR ENFB 182250Z AUTO 11013KT 9999NDV BKN045/// 02/M07 Q1009 W///S4;",
"01488199999","2010-12-18T23:20:00","4","61.206389","1.828889","142.0","STATFJORD B OIL PLATFORM, NO","FM-15","ENFB ","V020","090,1,N,0093,1","01290,1,9,N","011265,1,N,1","+0020,1","-0070,1","99999,9",,,"07,1,+01290,1,99,9",,,"07,99,1,99,9,99,9,99999,9,99,9,99,9","10091,1,99999,9",,"MET070METAR ENFB 182320Z AUTO 09018KT 9999NDV BKN043/// 02/M07 Q1009 W///S4;",
"01488199999","2010-12-18T23:50:00","4","61.206389","1.828889","142.0","STATFJORD B OIL PLATFORM, NO","FM-15","ENFB ","V020","100,1,N,0082,1","01170,1,9,N","011265,1,N,1","+0020,1","-0070,1","99999,9","61,1",,"07,1,+01170,1,99,9","07,1,+01500,1,99,9",,"07,99,1,99,9,99,9,99999,9,99,9,99,9","10091,1,99999,9",,"MET084METAR ENFB 182350Z AUTO 10016KT 9999NDV -RA BKN039/// BKN055/// 02/M07 Q1009 W///S4;",
"01488199999","2010-12-19T00:20:00","4","61.206389","1.828889","142.0","STATFJORD B OIL PLATFORM, NO","FM-15","ENFB ","V020","100,1,N,0077,1","01200,1,9,N","011265,1,N,1","+0020,1","-0070,1","99999,9",,,"07,1,+01200,1,99,9",,,"07,99,1,99,9,99,9,99999,9,99,9,99,9","10091,1,99999,9",,"MET070METAR ENFB 190020Z AUTO 10015KT 9999NDV BKN040/// 02/M07 Q1009 W///S4;",
"01488199999","2010-12-19T00:50:00","4","61.206389","1.828889","142.0","STATFJORD B OIL PLATFORM, NO","FM-15","ENFB ","V020","100,1,N,0082,1","01230,1,9,N","011265,1,N,1","+0020,1","-0080,1","99999,9",,,"07,1,+01230,1,99,9",,,"07,99,1,99,9,99,9,99999,9,99,9,99,9","10091,1,99999,9",,"MET070METAR ENFB 190050Z AUTO 10016KT 9999NDV BKN041/// 02/M08 Q1009 W///S4;",
"01488199999","2010-12-19T01:20:00","4","61.206389","1.828889","142.0","STATFJORD B OIL PLATFORM, NO","FM-15","ENFB ","V020","100,1,N,0072,1","01230,1,9,N","011265,1,N,1","+0020,1","-0080,1","99999,9",,,"07,1,+01230,1,99,9",,,"07,99,1,99,9,99,9,99999,9,99,9,99,9","10091,1,99999,9",,"MET070METAR ENFB 190120Z AUTO 10014KT 9999NDV BKN041/// 02/M08 Q1009 W///S4;",
"01488199999","2010-12-19T01:50:00","4","61.206389","1.828889","142.0","STATFJORD B OIL PLATFORM, NO","FM-15","ENFB ","V020","090,1,N,0062,1","01260,1,9,N","011265,1,N,1","+0020,1","-0080,1","99999,9",,,"07,1,+01260,1,99,9",,,"07,99,1,99,9,99,9,99999,9,99,9,99,9","10091,1,99999,9",,"MET070METAR ENFB 190150Z AUTO 09012KT 9999NDV BKN042/// 02/M08 Q1009 W///S4;",
"01488199999","2010-12-19T02:20:00","4","61.206389","1.828889","142.0","STATFJORD B OIL PLATFORM, NO","FM-15","ENFB ","V020","100,1,N,0067,1","01290,1,9,N","011265,1,N,1","+0020,1","-0080,1","99999,9",,,"07,1,+01290,1,99,9",,,"07,99,1,99,9,99,9,99999,9,99,9,99,9","10091,1,99999,9",,"MET070METAR ENFB 190220Z AUTO 10013KT 9999NDV BKN043/// 02/M08 Q1009 W///S4;",
"01488199999","2010-12-19T02:50:00","4","61.206389","1.828889","142.0","STATFJORD B OIL PLATFORM, NO","FM-15","ENFB ","V020","100,1,N,0062,1","01200,1,9,N","011265,1,N,1","+0010,1","-0080,1","99999,9",,,"07,1,+01200,1,99,9",,,"07,99,1,99,9,99,9,99999,9,99,9,99,9","10091,1,99999,9",,"MET070METAR ENFB 190250Z AUTO 10012KT 9999NDV BKN040/// 01/M08 Q1009 W///S4;",
"01488199999","2010-12-19T03:20:00","4","61.206389","1.828889","142.0","STATFJORD B OIL PLATFORM, NO","FM-15","ENFB ","V020","090,1,N,0046,1","01230,1,9,N","011265,1,N,1","+0010,1","-0080,1","99999,9",,,"07,1,+01230,1,99,9",,,"07,99,1,99,9,99,9,99999,9,99,9,99,9","10081,1,99999,9",,"MET070METAR ENFB 190320Z AUTO 09009KT 9999NDV BKN041/// 01/M08 Q1008 W///S5;",
"01488199999","2010-12-19T03:50:00","4","61.206389","1.828889","142.0","STATFJORD B OIL PLATFORM, NO","FM-15","ENFB ","V020","080,1,N,0057,1","01230,1,9,N","011265,1,N,1","+0010,1","-0080,1","99999,9",,,"07,1,+01230,1,99,9",,,"07,99,1,99,9,99,9,99999,9,99,9,99,9","10081,1,99999,9",,"MET070METAR ENFB 190350Z AUTO 08011KT 9999NDV BKN041/// 01/M08 Q1008 W///S5;",
"01488199999","2010-12-19T04:20:00","4","61.206389","1.828889","142.0","STATFJORD B OIL PLATFORM, NO","FM-15","ENFB ","V020","080,1,N,0057,1","01260,1,9,N","011265,1,N,1","+0020,1","-0080,1","99999,9",,,"07,1,+01260,1,99,9",,,"07,99,1,99,9,99,9,99999,9,99,9,99,9","10081,1,99999,9",,"MET070METAR ENFB 190420Z AUTO 08011KT 9999NDV BKN042/// 02/M08 Q1008 W///S5;",
"01488199999","2010-12-19T04:50:00","4","61.206389","1.828889","142.0","STATFJORD B OIL PLATFORM, NO","FM-15","ENFB ","V020","060,1,N,0041,1","01260,1,9,N","011265,1,N,1","+0010,1","-0080,1","99999,9",,,"07,1,+01260,1,99,9",,,"07,99,1,99,9,99,9,99999,9,99,9,99,9","10081,1,99999,9",,"MET078METAR ENFB 190450Z AUTO 06008KT 020V090 9999NDV BKN042/// 01/M08 Q1008 W///S5;",
"01488199999","2010-12-19T05:20:00","4","61.206389","1.828889","142.0","STATFJORD B OIL PLATFORM, NO","FM-15","ENFB ","V020","070,1,N,0062,1","01350,1,9,N","011265,1,N,1","+0010,1","-0080,1","99999,9",,,"07,1,+01350,1,99,9",,,"07,99,1,99,9,99,9,99999,9,99,9,99,9","10081,1,99999,9",,"MET070METAR ENFB 190520Z AUTO 07012KT 9999NDV BKN045/// 01/M08 Q1008 W///S5;",
"01488199999","2010-12-19T05:50:00","4","61.206389","1.828889","142.0","STATFJORD B OIL PLATFORM, NO","FM-15","ENFB ","V020","080,1,N,0062,1","22000,1,9,N","011265,1,N,1","+0010,1","-0070,1","99999,9",,,"02,1,+01230,1,99,9",,,"02,99,1,99,9,99,9,99999,9,99,9,99,9","10071,1,99999,9",,"MET070METAR ENFB 190550Z AUTO 08012KT 9999NDV FEW041/// 01/M07 Q1007 W///S4;",
"01488199999","2010-12-19T06:20:00","4","61.206389","1.828889","142.0","STATFJORD B OIL PLATFORM, NO","FM-15","ENFB ","V020","100,1,N,0062,1","22000,1,9,N","011265,1,N,1","+0010,1","-0080,1","99999,9",,,,,,"00,99,1,99,9,99,9,99999,9,99,9,99,9","10071,1,99999,9",,"MET064METAR ENFB 190620Z AUTO 10012KT 9999NDV NCD 01/M08 Q1007 W///S5;","Q01    003SCCGA1"
"01488199999","2010-12-19T06:50:00","4","61.206389","1.828889","142.0","STATFJORD B OIL PLATFORM, NO","FM-15","ENFB ","V020","100,1,N,0062,1","22000,1,9,N","011265,1,N,1","+0010,1","-0090,1","99999,9",,,,,,"00,99,1,99,9,99,9,99999,9,99,9,99,9","10071,1,99999,9",,"MET064METAR ENFB 190650Z AUTO 10012KT 9999NDV NCD 01/M09 Q1007 W///S/;","Q01    003SCCGA1"
"01488199999","2010-12-19T07:20:00","4","61.206389","1.828889","142.0","STATFJORD B OIL PLATFORM, NO","FM-15","ENFB ","V020","090,1,N,0057,1","22000,1,9,N","011265,1,N,1","+0010,1","-0080,1","99999,9",,,,,,"00,99,1,99,9,99,9,99999,9,99,9,99,9","10071,1,99999,9",,"MET064METAR ENFB 190720Z AUTO 09011KT 9999NDV NCD 01/M08 Q1007 W///S4;","Q01    003SCCGA1"
"01488199999","2010-12-19T07:50:00","4","61.206389","1.828889","142.0","STATFJORD B OIL PLATFORM, NO","FM-15","ENFB ","V020","100,1,N,0067,1","22000,1,9,N","011265,1,N,1","+0010,1","-0080,1","99999,9",,,"04,1,+05400,1,99,9","04,1,+06300,1,99,9",,"04,99,1,99,9,99,9,99999,9,99,9,99,9","10071,1,99999,9",,"MET080METAR ENFB 190750Z AUTO 10013KT 9999NDV SCT180/// SCT210/// 01/M08 Q1007 W///S4;",
"01488199999","2010-12-19T08:20:00","4","61.206389","1.828889","142.0","STATFJORD B OIL PLATFORM, NO","FM-15","ENFB ","V020","080,1,N,0062,1","04500,1,9,N","011265,1,N,1","+0010,1","-0080,1","99999,9",,,"07,1,+04500,1,99,9",,,"07,99,1,99,9,99,9,99999,9,99,9,99,9","10071,1,99999,9",,"MET070METAR ENFB 190820Z AUTO 08012KT 9999NDV BKN150/// 01/M08 Q1007 W///S4;",
"01488199999","2010-12-19T08:50:00","4","61.206389","1.828889","142.0","STATFJORD B OIL PLATFORM, NO","FM-15","ENFB ","V020","080,1,N,0072,1","04500,1,9,N","011265,1,N,1","+0010,1","-0080,1","99999,9",,,"02,1,+01140,1,99,9","07,1,+04500,1,99,9",,"07,99,1,99,9,99,9,99999,9,99,9,99,9","10071,1,99999,9",,"MET080METAR ENFB 190850Z AUTO 08014KT 9999NDV FEW038/// BKN150/// 01/M08 Q1007 W///S5;",
"01488199999","2010-12-19T09:20:00","4","61.206389","1.828889","142.0","STATFJORD B OIL PLATFORM, NO","FM-15","ENFB ","V020","060,1,N,0057,1","04200,1,9,N","011265,1,N,1","+0010,1","-0070,1","99999,9",,,"04,1,+01080,1,99,9","07,1,+04200,1,99,9",,"07,99,1,99,9,99,9,99999,9,99,9,99,9","10071,1,99999,9",,"MET080METAR ENFB 190920Z AUTO 06011KT 9999NDV SCT036/// BKN140/// 01/M07 Q1007 W///S5;",
"01488199999","2010-12-19T09:50:00","4","61.206389","1.828889","142.0","STATFJORD B OIL PLATFORM, NO","FM-15","ENFB ","V020","070,1,N,0062,1","01500,1,9,N","011265,1,N,1","+0010,1","-0080,1","99999,9",,,"04,1,+01110,1,99,9","07,1,+01500,1,99,9",,"07,99,1,99,9,99,9,99999,9,99,9,99,9","10071,1,99999,9",,"MET080METAR ENFB 190950Z AUTO 07012KT 9999NDV SCT037/// BKN053/// 01/M08 Q1007 W///S5;",
"01488199999","2010-12-19T10:20:00","4","61.206389","1.828889","142.0","STATFJORD B OIL PLATFORM, NO","FM-15","ENFB ","V020","060,1,N,0051,1","01500,1,9,N","011265,1,N,1","+0020,1","-0070,1","99999,9",,,"07,1,+01500,1,99,9",,,"07,99,1,99,9,99,9,99999,9,99,9,99,9","10071,1,99999,9",,"MET070METAR ENFB 191020Z AUTO 06010KT 9999NDV BKN052/// 02/M07 Q1007 W///S/;",
"01488199999","2010-12-19T10:50:00","4","61.206389","1.828889","142.0","STATFJORD B OIL PLATFORM, NO","FM-15","ENFB ","V020","070,1,N,0051,1","01320,1,9,N","011265,1,N,1","+0010,1","-0070,1","99999,9",,,"02,1,+01080,1,99,9","07,1,+01320,1,99,9",,"07,99,1,99,9,99,9,99999,9,99,9,99,9","10061,1,99999,9",,"MET080METAR ENFB 191050Z AUTO 07010KT 9999NDV FEW036/// BKN044/// 01/M07 Q1006 W///S/;",
"01488199999","2010-12-19T11:20:00","4","61.206389","1.828889","142.0","STATFJORD B OIL PLATFORM, NO","FM-15","ENFB ","V020","040,1,N,0051,1","01500,1,9,N","011265,1,N,1","+0010,1","-0060,1","99999,9",,,"04,1,+01350,1,99,9","07,1,+01500,1,99,9",,"07,99,1,99,9,99,9,99999,9,99,9,99,9","10061,1,99999,9",,"MET080METAR ENFB 191120Z AUTO 04010KT 9999NDV SCT045/// BKN057/// 01/M06 Q1006 W///S4;",
"01488199999","2010-12-19T11:50:00","4","61.206389","1.828889","142.0","STATFJORD B OIL PLATFORM, NO","FM-15","ENFB ","V020","050,1,N,0051,1","01500,1,9,N","011265,1,N,1","+0010,1","-0060,1","99999,9",,,"02,1,+01020,1,99,9","07,1,+01500,1,99,9",,"07,99,1,99,9,99,9,99999,9,99,9,99,9","10051,1,99999,9",,"MET080METAR ENFB 191150Z AUTO 05010KT 9999NDV FEW034/// BKN057/// 01/M06 Q1005 W///S4;",
"01488199999","2010-12-19T12:20:00","4","61.206389","1.828889","142.0","STATFJORD B OIL PLATFORM, NO","FM-15","ENFB ","V020","050,1,N,0051,1","01290,1,9,N","011265,1,N,1","+0010,1","-0050,1","99999,9",,,"02,1,+00960,1,99,9","07,1,+01290,1,99,9",,"07,99,1,99,9,99,9,99999,9,99,9,99,9","10051,1,99999,9",,"MET080METAR ENFB 191220Z AUTO 05010KT 9999NDV FEW032/// BKN043/// 01/M05 Q1005 W///S4;",
"01488199999","2010-12-19T12:50:00","4","61.206389","1.828889","142.0","STATFJORD B OIL PLATFORM, NO","FM-15","ENFB ","V020","040,1,N,0036,1","01260,1,9,N","011265,1,N,1","+0010,1","-0050,1","99999,9",,,"07,1,+01260,1,99,9",,,"07,99,1,99,9,99,9,99999,9,99,9,99,9","10051,1,99999,9",,"MET070METAR ENFB 191250Z AUTO 04007KT 9999NDV BKN042/// 01/M05 Q1005 W///S4;",
"01488199999","2010-12-19T13:20:00","4","61.206389","1.828889","142.0","STATFJORD B OIL PLATFORM, NO","FM-15","ENFB ","V020","040,1,N,0041,1","01320,1,9,N","011265,1,N,1","+0010,1","-0040,1","99999,9",,,"07,1,+01320,1,99,9",,,"07,99,1,99,9,99,9,99999,9,99,9,99,9","10041,1,99999,9",,"MET070METAR ENFB 191320Z AUTO 04008KT 9999NDV BKN044/// 01/M04 Q1004 W///S4;",
"01488199999","2010-12-19T13:50:00","4","61.206389","1.828889","142.0","STATFJORD B OIL PLATFORM, NO","FM-15","ENFB ","V020","050,1,N,0036,1","01140,1,9,N","011265,1,N,1","+0010,1","-0040,1","99999,9",,,"07,1,+01140,1,99,9",,,"07,99,1,99,9,99,9,99999,9,99,9,99,9","10041,1,99999,9",,"MET070METAR ENFB 191350Z AUTO 05007KT 9999NDV BKN038/// 01/M04 Q1004 W///S4;",
"01488199999","2010-12-19T14:20:00","4","61.206389","1.828889","142.0","STATFJORD B OIL PLATFORM, NO","FM-15","ENFB ","V020","030,1,N,0026,1","01140,1,9,N","011265,1,N,1","+0010,1","-0040,1","99999,9",,,"07,1,+01140,1,99,9",,,"07,99,1,99,9,99,9,99999,9,99,9,99,9","10041,1,99999,9",,"MET078METAR ENFB 191420Z AUTO 03005KT 350V050 9999NDV BKN038/// 01/M04 Q1004 W///S4;",
"01488199999","2010-12-19T14:50:00","4","61.206389","1.828889","142.0","STATFJORD B OIL PLATFORM, NO","FM-15","ENFB ","V020","010,1,N,0026,1","03900,1,9,N","011265,1,N,1","+0010,1","-0040,1","99999,9",,,"04,1,+01080,1,99,9","07,1,+03900,1,99,9",,"07,99,1,99,9,99,9,99999,9,99,9,99,9","10041,1,99999,9",,"MET088METAR ENFB 191450Z AUTO 01005KT 340V040 9999NDV SCT036/// BKN130/// 01/M04 Q1004 W///S4;",
"01488199999","2010-12-19T15:20:00","4","61.206389","1.828889","142.0","STATFJORD B OIL PLATFORM, NO","FM-15","ENFB ","V020","360,1,N,0026,1","03900,1,9,N","011265,1,N,1","+0020,1","-0040,1","99999,9",,,"04,1,+01500,1,99,9","07,1,+03900,1,99,9",,"07,99,1,99,9,99,9,99999,9,99,9,99,9","10031,1,99999,9",,"MET080METAR ENFB 191520Z AUTO 36005KT 9999NDV SCT054/// BKN130/// 02/M04 Q1003 W///S4;",
"01488199999","2010-12-19T15:50:00","4","61.206389","1.828889","142.0","STATFJORD B OIL PLATFORM, NO","FM-15","ENFB ","V020","020,1,N,0021,1","22000,1,9,N","011265,1,N,1","+0020,1","-0030,1","99999,9",,,"02,1,+01500,1,99,9","04,1,+03900,1,99,9",,"04,99,1,99,9,99,9,99999,9,99,9,99,9","10031,1,99999,9",,"MET088METAR ENFB 191550Z AUTO 02004KT 340V050 9999NDV FEW056/// SCT130/// 02/M03 Q1003 W///S4;",
"01488199999","2010-12-19T16:20:00","4","61.206389","1.828889","142.0","STATFJORD B OIL PLATFORM, NO","FM-15","ENFB ","V020","040,1,N,0021,1","01500,1,9,N","011265,1,N,1","+0010,1","-0030,1","99999,9",,,"02,1,+00690,1,99,9","07,1,+01500,1,99,9",,"07,99,1,99,9,99,9,99999,9,99,9,99,9","10031,1,99999,9",,"MET088METAR ENFB 191620Z AUTO 04004KT 010V070 9999NDV FEW023/// BKN055/// 01/M03 Q1003 W///S4;",
"01488199999","2010-12-19T16:50:00","4","61.206389","1.828889","142.0","STATFJORD B OIL PLATFORM, NO","FM-15","ENFB ","V020","080,1,N,0041,1","22000,1,9,N","011265,1,N,1","+0020,1","-0040,1","99999,9",,,"02,1,+00690,1,99,9","04,1,+01050,1,99,9",,"04,99,1,99,9,99,9,99999,9,99,9,99,9","10020,1,99999,9",,"MET080METAR ENFB 191650Z AUTO 08008KT 9999NDV FEW023/// SCT035/// 02/M04 Q1002 W///S4;",
"01488199999","2010-12-19T17:20:00","4","61.206389","1.828889","142.0","STATFJORD B OIL PLATFORM, NO","FM-15","ENFB ","V020","060,1,N,0041,1","00750,1,9,N","011265,1,N,1","+0020,1","-0040,1","99999,9",,,"07,1,+00750,1,99,9",,,"07,99,1,99,9,99,9,99999,9,99,9,99,9","10020,1,99999,9",,"MET070METAR ENFB 191720Z AUTO 06008KT 9999NDV BKN025/// 02/M04 Q1002 W///S4;",
"01488199999","2010-12-19T17:50:00","4","61.206389","1.828889","142.0","STATFJORD B OIL PLATFORM, NO","FM-15","ENFB ","V020","080,1,N,0046,1","00870,1,9,N","011265,1,N,1","+0020,1","-0050,1","99999,9",,,"07,1,+00870,1,99,9",,,"07,99,1,99,9,99,9,99999,9,99,9,99,9","10020,1,99999,9",,"MET070METAR ENFB 191750Z AUTO 08009KT 9999NDV BKN029/// 02/M05 Q1002 W///S4;",
"01488199999","2010-12-19T18:20:00","4","61.206389","1.828889","142.0","STATFJORD B OIL PLATFORM, NO","FM-15","ENFB ","V020","070,1,N,0046,1","00870,1,9,N","011265,1,N,1","+0020,1","-0040,1","99999,9",,,"07,1,+00870,1,99,9",,,"07,99,1,99,9,99,9,99999,9,99,9,99,9","10020,1,99999,9",,"MET070METAR ENFB 191820Z AUTO 07009KT 9999NDV BKN029/// 02/M04 Q1002 W///S4;",
"01488199999","2010-12-19T18:50:00","4","61.206389","1.828889","142.0","STATFJORD B OIL PLATFORM, NO","FM-15","ENFB ","V020","070,1,N,0041,1","00810,1,9,N","011265,1,N,1","+0020,1","-0040,1","99999,9",,,"07,1,+00810,1,99,9",,,"07,99,1,99,9,99,9,99999,9,99,9,99,9","10020,1,99999,9",,"MET070METAR ENFB 191850Z AUTO 07008KT 9999NDV BKN027/// 02/M04 Q1002 W///S4;",
"01488199999","2010-12-19T19:20:00","4","61.206389","1.828889","142.0","STATFJORD B OIL PLATFORM, NO","FM-15","ENFB ","V020","060,1,N,0057,1","00870,1,9,N","011265,1,N,1","+0020,1","-0040,1","99999,9",,,"08,1,+00870,1,99,9",,,"08,99,1,99,9,99,9,99999,9,99,9,99,9","10020,1,99999,9",,"MET070METAR ENFB 191920Z AUTO 06011KT 9999NDV OVC029/// 02/M04 Q1002 W///S4;",
"01488199999","2010-12-19T19:50:00","4","61.206389","1.828889","142.0","STATFJORD B OIL PLATFORM, NO","FM-15","ENFB ","V020","100,1,N,0051,1","00780,1,9,N","011265,1,N,1","+0020,1","-0040,1","99999,9",,,"07,1,+00780,1,99,9",,,"07,99,1,99,9,99,9,99999,9,99,9,99,9","10020,1,99999,9",,"MET070METAR ENFB 191950Z AUTO 10010KT 9999NDV BKN026/// 02/M04 Q1002 W///S4;",
"01488199999","2010-12-19T20:20:00","4","61.206389","1.828889","142.0","STATFJORD B OIL PLATFORM, NO","FM-15","ENFB ","V020","110,1,N,0036,1","01200,1,9,N","011265,1,N,1","+0020,1","-0040,1","99999,9",,,"07,1,+01200,1,99,9",,,"07,99,1,99,9,99,9,99999,9,99,9,99,9","10020,1,99999,9",,"MET070METAR ENFB 192020Z AUTO 11007KT 9999NDV BKN040/// 02/M04 Q1002 W///S3;",
"01488199999","2010-12-19T20:50:00","4","61.206389","1.828889","142.0","STATFJORD B OIL PLATFORM, NO","FM-15","ENFB ","V020","090,1,N,0041,1","00870,1,9,N","011265,1,N,1","+0020,1","-0050,1","99999,9",,,"07,1,+00870,1,99,9",,,"07,99,1,99,9,99,9,99999,9,99,9,99,9","10020,1,99999,9",,"MET070METAR ENFB 192050Z AUTO 09008KT 9999NDV BKN029/// 02/M05 Q1002 W///S4;",
"01488199999","2010-12-19T21:20:00","4","61.206389","1.828889","142.0","STATFJORD B OIL PLATFORM, NO","FM-15","ENFB ","V020","080,1,N,0036,1","01380,1,9,N","011265,1,N,1","+0020,1","-0040,1","99999,9",,,"02,1,+00900,1,99,9","07,1,+01380,1,99,9",,"07,99,1,99,9,99,9,99999,9,99,9,99,9","10010,1,99999,9",,"MET088METAR ENFB 192120Z AUTO 08007KT 050V110 9999NDV FEW030/// BKN046/// 02/M04 Q1001 W///S4;",
"01488199999","2010-12-19T21:50:00","4","61.206389","1.828889","142.0","STATFJORD B OIL PLATFORM, NO","FM-15","ENFB ","V020","050,1,N,0036,1","22000,1,9,N","011265,1,N,1","+0020,1","-0040,1","99999,9",,,"02,1,+01440,1,99,9",,,"02,99,1,99,9,99,9,99999,9,99,9,99,9","10010,1,99999,9",,"MET070METAR ENFB 192150Z AUTO 05007KT 9999NDV FEW048/// 02/M04 Q1001 W///S3;",
"01488199999","2010-12-19T22:20:00","4","61.206389","1.828889","142.0","STATFJORD B OIL PLATFORM, NO","FM-15","ENFB ","V020","060,1,N,0057,1","01320,1,9,N","011265,1,N,1","+0020,1","-0040,1","99999,9",,,"02,1,+00840,1,99,9","07,1,+01320,1,99,9",,"07,99,1,99,9,99,9,99999,9,99,9,99,9","10010,1,99999,9",,"MET080METAR ENFB 192220Z AUTO 06011KT 9999NDV FEW028/// BKN044/// 02/M04 Q1001 W///S4;",
"01488199999","2010-12-19T22:50:00","4","61.206389","1.828889","142.0","STATFJORD B OIL PLATFORM, NO","FM-15","ENFB ","V020","080,1,N,0072,1","00870,1,9,N","011265,1,N,1","+0020,1","-0040,1","99999,9",,,"07,1,+00870,1,99,9",,,"07,99,1,99,9,99,9,99999,9,99,9,99,9","10010,1,99999,9",,"MET070METAR ENFB 192250Z AUTO 08014KT 9999NDV BKN029/// 02/M04 Q1001 W///S4;",
"01488199999","2010-12-19T23:20:00","4","61.206389","1.828889","142.0","STATFJORD B OIL PLATFORM, NO","FM-15","ENFB ","V020","050,1,N,0072,1","05400,1,9,N","011265,1,N,1","+0020,1","-0060,1","99999,9",,,"04,1,+00990,1,99,9","07,1,+05400,1,99,9",,"07,99,1,99,9,99,9,99999,9,99,9,99,9","10010,1,99999,9",,"MET080METAR ENFB 192320Z AUTO 05014KT 9999NDV SCT033/// BKN180/// 02/M06 Q1001 W///S4;",
"01488199999","2010-12-19T23:50:00","4","61.206389","1.828889","142.0","STATFJORD B OIL PLATFORM, NO","FM-15","ENFB ","V020","050,1,N,0062,1","05100,1,9,N","011265,1,N,1","+0020,1","-0050,1","99999,9",,,"02,1,+01170,1,99,9","07,1,+05100,1,99,9",,"07,99,1,99,9,99,9,99999,9,99,9,99,9","10010,1,99999,9",,"MET080METAR ENFB 192350Z AUTO 05012KT 9999NDV FEW039/// BKN170/// 02/M05 Q1001 W///S/;",
"01488199999","2010-12-20T00:20:00","4","61.206389","1.828889","142.0","STATFJORD B OIL PLATFORM, NO","FM-15","ENFB ","V020","040,1,N,0057,1","00990,1,9,N","011265,1,N,1","+0020,1","-0060,1","99999,9",,,"07,1,+00990,1,99,9",,,"07,99,1,99,9,99,9,99999,9,99,9,99,9","10000,1,99999,9",,"MET070METAR ENFB 200020Z AUTO 04011KT 9999NDV BKN033/// 02/M06 Q1000 W///S4;",
"01488199999","2010-12-20T00:50:00","4","61.206389","1.828889","142.0","STATFJORD B OIL PLATFORM, NO","FM-15","ENFB ","V020","070,1,N,0057,1","22000,1,9,N","011265,1,N,1","+0020,1","-0070,1","99999,9",,,"02,1,+01320,1,99,9",,,"02,99,1,99,9,99,9,99999,9,99,9,99,9","10000,1,99999,9",,"MET070METAR ENFB 200050Z AUTO 07011KT 9999NDV FEW044/// 02/M07 Q1000 W///S4;",
"01488199999","2010-12-20T01:20:00","4","61.206389","1.828889","142.0","STATFJORD B OIL PLATFORM, NO","FM-15","ENFB ","V020","070,1,N,0062,1","01050,1,9,N","011265,1,N,1","+0020,1","-0050,1","99999,9",,,"07,1,+01050,1,99,9",,,"07,99,1,99,9,99,9,99999,9,99,9,99,9","10000,1,99999,9",,"MET070METAR ENFB 200120Z AUTO 07012KT 9999NDV BKN035/// 02/M05 Q1000 W///S4;",
"01488199999","2010-12-20T01:50:00","4","61.206389","1.828889","142.0","STATFJORD B OIL PLATFORM, NO","FM-15","ENFB ","V020","060,1,N,0062,1","01230,1,9,N","011265,1,N,1","+0020,1","-0050,1","99999,9",,,"02,1,+00960,1,99,9","07,1,+01230,1,99,9",,"07,99,1,99,9,99,9,99999,9,99,9,99,9","10000,1,99999,9",,"MET080METAR ENFB 200150Z AUTO 06012KT 9999NDV FEW032/// BKN041/// 02/M05 Q1000 W///S4;",
"01488199999","2010-12-20T02:20:00","4","61.206389","1.828889","142.0","STATFJORD B OIL PLATFORM, NO","FM-15","ENFB ","V020","090,1,N,0057,1","01050,1,9,N","011265,1,N,1","+0020,1","-0060,1","99999,9",,,"07,1,+01050,1,99,9",,,"07,99,1,99,9,99,9,99999,9,99,9,99,9","10000,1,99999,9",,"MET070METAR ENFB 200220Z AUTO 09011KT 9999NDV BKN035/// 02/M06 Q1000 W///S4;",
"01488199999","2010-12-20T02:50:00","4","61.206389","1.828889","142.0","STATFJORD B OIL PLATFORM, NO","FM-15","ENFB ","V020","090,1,N,0051,1","01380,1,9,N","011265,1,N,1","+0020,1","-0060,1","99999,9",,,"02,1,+01080,1,99,9","07,1,+01380,1,99,9","07,1,+04500,1,99,9","07,99,1,99,9,99,9,99999,9,99,9,99,9","10000,1,99999,9",,"MET090METAR ENFB 200250Z AUTO 09010KT 9999NDV FEW036/// BKN046/// BKN150/// 02/M06 Q1000 W///S4;",
"01488199999","2010-12-20T03:20:00","4","61.206389","1.828889","142.0","STATFJORD B OIL PLATFORM, NO","FM-15","ENFB ","V020","110,1,N,0036,1","01020,1,9,N","011265,1,N,1","+0020,1","-0060,1","99999,9",,,"07,1,+01020,1,99,9",,,"07,99,1,99,9,99,9,99999,9,99,9,99,9","10000,1,99999,9",,"MET070METAR ENFB 200320Z AUTO 11007KT 9999NDV BKN034/// 02/M06 Q1000 W///S/;",
"01488199999","2010-12-20T03:50:00","4","61.206389","1.828889","142.0","STATFJORD B OIL PLATFORM, NO","FM-15","ENFB ","V020","110,1,N,0041,1","01200,1,9,N","011265,1,N,1","+0020,1","-0060,1","99999,9",,,"07,1,+01200,1,99,9",,,"07,99,1,99,9,99,9,99999,9,99,9,99,9","10000,1,99999,9",,"MET070METAR ENFB 200350Z AUTO 11008KT 9999NDV BKN040/// 02/M06 Q1000 W///S3;",
"01488199999","2010-12-20T04:20:00","4","61.206389","1.828889","142.0","STATFJORD B OIL PLATFORM, NO","FM-15","ENFB ","V020","110,1,N,0046,1","01410,1,9,N","011265,1,N,1","+0020,1","-0060,1","99999,9",,,"07,1,+01410,1,99,9",,,"07,99,1,99,9,99,9,99999,9,99,9,99,9","10000,1,99999,9",,"MET070METAR ENFB 200420Z AUTO 11009KT 9999NDV BKN047/// 02/M06 Q1000 W///S3;",
"01488199999","2010-12-20T04:50:00","4","61.206389","1.828889","142.0","STATFJORD B OIL PLATFORM, NO","FM-15","ENFB ","V020","110,1,N,0041,1","01440,1,9,N","011265,1,N,1","+0020,1","-0060,1","99999,9",,,"02,1,+01170,1,99,9","07,1,+01440,1,99,9",,"07,99,1,99,9,99,9,99999,9,99,9,99,9","10000,1,99999,9",,"MET080METAR ENFB 200450Z AUTO 11008KT 9999NDV FEW039/// BKN048/// 02/M06 Q1000 W///S3;",
"01488199999","2010-12-20T05:20:00","4","61.206389","1.828889","142.0","STATFJORD B OIL PLATFORM, NO","FM-15","ENFB ","V020","120,1,N,0036,1","01140,1,9,N","011265,1,N,1","+0030,1","-0060,1","99999,9",,,"07,1,+01140,1,99,9",,,"07,99,1,99,9,99,9,99999,9,99,9,99,9","10000,1,99999,9",,"MET070METAR ENFB 200520Z AUTO 12007KT 9999NDV BKN038/// 03/M06 Q1000 W///S3;",
"01488199999","2010-12-20T05:50:00","4","61.206389","1.828889","142.0","STATFJORD B OIL PLATFORM, NO","FM-15","ENFB ","V020","140,1,N,0041,1","00900,1,9,N","011265,1,N,1","+0020,1","-0050,1","99999,9",,,"07,1,+00900,1,99,9",,,"07,99,1,99,9,99,9,99999,9,99,9,99,9","10000,1,99999,9",,"MET078METAR ENFB 200550Z AUTO 14008KT 120V180 9999NDV BKN030/// 02/M05 Q1000 W///S3;",
"01488199999","2010-12-20T06:20:00","4","61.206389","1.828889","142.0","STATFJORD B OIL PLATFORM, NO","FM-15","ENFB ","V020","160,1,N,0051,1","01320,1,9,N","011265,1,N,1","+0020,1","-0040,1","99999,9",,,"02,1,+00900,1,99,9","08,1,+01320,1,99,9",,"08,99,1,99,9,99,9,99999,9,99,9,99,9","10000,1,99999,9",,"MET080METAR ENFB 200620Z AUTO 16010KT 9999NDV FEW030/// OVC044/// 02/M04 Q1000 W///S3;",
"01488199999","2010-12-20T06:50:00","4","61.206389","1.828889","142.0","STATFJORD B OIL PLATFORM, NO","FM-15","ENFB ","V020","150,1,N,0041,1","00840,1,9,N","011265,1,N,1","+0020,1","-0050,1","99999,9",,,"08,1,+00840,1,99,9",,,"08,99,1,99,9,99,9,99999,9,99,9,99,9","10000,1,99999,9",,"MET078METAR ENFB 200650Z AUTO 15008KT 110V200 9999NDV OVC028/// 02/M05 Q1000 W///S3;",
"01488199999","2010-12-20T07:20:00","4","61.206389","1.828889","142.0","STATFJORD B OIL PLATFORM, NO","FM-15","ENFB ","V020","150,1,N,0031,1","01200,1,9,N","011265,1,N,1","+0020,1","-0050,1","99999,9",,,"08,1,+01200,1,99,9",,,"08,99,1,99,9,99,9,99999,9,99,9,99,9","10000,1,99999,9",,"MET070METAR ENFB 200720Z AUTO 15006KT 9999NDV OVC040/// 02/M05 Q1000 W///S4;",
"01488199999","2010-12-20T07:50:00","4","61.206389","1.828889","142.0","STATFJORD B OIL PLATFORM, NO","FM-15","ENFB ","V020","150,1,N,0036,1","00930,1,9,N","011265,1,N,1","+0020,1","-0050,1","99999,9",,,"08,1,+00930,1,99,9",,,"08,99,1,99,9,99,9,99999,9,99,9,99,9","10000,1,99999,9",,"MET070METAR ENFB 200750Z AUTO 15007KT 9999NDV OVC031/// 02/M05 Q1000 W///S4;",
"01488199999","2010-12-20T08:20:00","4","61.206389","1.828889","142.0","STATFJORD B OIL PLATFORM, NO","FM-15","ENFB ","V020","130,1,N,0026,1","01470,1,9,N","011265,1,N,1","+0020,1","-0050,1","99999,9",,,"04,1,+00900,1,99,9","07,1,+01470,1,99,9",,"07,99,1,99,9,99,9,99999,9,99,9,99,9","10000,1,99999,9",,"MET088METAR ENFB 200820Z AUTO 13005KT 080V160 9999NDV SCT030/// BKN049/// 02/M05 Q1000 W///S4;",
"01488199999","2010-12-20T08:50:00","4","61.206389","1.828889","142.0","STATFJORD B OIL PLATFORM, NO","FM-15","ENFB ","V020","999,9,V,0015,1","01470,1,9,N","011265,1,N,1","+0020,1","-0050,1","99999,9",,,"07,1,+01470,1,99,9",,,"07,99,1,99,9,99,9,99999,9,99,9,99,9","10000,1,99999,9",,"MET070METAR ENFB 200850Z AUTO VRB03KT 9999NDV BKN049/// 02/M05 Q1000 W///S4;",
"01488199999","2010-12-20T09:20:00","4","61.206389","1.828889","142.0","STATFJORD B OIL PLATFORM, NO","FM-15","ENFB ","V020","999,9,V,0015,1","01260,1,9,N","011265,1,N,1","+0020,1","-0040,1","99999,9",,,"02,1,+00810,1,99,9","07,1,+01260,1,99,9",,"07,99,1,99,9,99,9,99999,9,99,9,99,9","10010,1,99999,9",,"MET080METAR ENFB 200920Z AUTO VRB03KT 9999NDV FEW027/// BKN042/// 02/M04 Q1001 W///S4;",
"01488199999","2010-12-20T09:50:00","4","61.206389","1.828889","142.0","STATFJORD B OIL PLATFORM, NO","FM-15","ENFB ","V020","060,1,N,0021,1","01500,1,9,N","011265,1,N,1","+0020,1","-0050,1","99999,9",,,"07,1,+01500,1,99,9",,,"07,99,1,99,9,99,9,99999,9,99,9,99,9","10010,1,99999,9",,"MET070METAR ENFB 200950Z AUTO 06004KT 9999NDV BKN052/// 02/M05 Q1001 W///S4;",
"01488199999","2010-12-20T10:20:00","4","61.206389","1.828889","142.0","STATFJORD B OIL PLATFORM, NO","FM-15","ENFB ","V020","040,1,N,0036,1","00990,1,9,N","011265,1,N,1","+0020,1","-0050,1","99999,9",,,"07,1,+00990,1,99,9",,,"07,99,1,99,9,99,9,99999,9,99,9,99,9","10010,1,99999,9",,"MET070METAR ENFB 201020Z AUTO 04007KT 9999NDV BKN033/// 02/M05 Q1001 W///S4;",
"01488199999","2010-12-20T10:50:00","4","61.206389","1.828889","142.0","STATFJORD B OIL PLATFORM, NO","FM-15","ENFB ","V020","050,1,N,0026,1","01020,1,9,N","011265,1,N,1","+0020,1","-0050,1","99999,9",,,"08,1,+01020,1,99,9",,,"08,99,1,99,9,99,9,99999,9,99,9,99,9","10010,1,99999,9",,"MET078METAR ENFB 201050Z AUTO 05005KT 020V100 9999NDV OVC034/// 02/M05 Q1001 W///S4;",
"01488199999","2010-12-20T11:20:00","4","61.206389","1.828889","142.0","STATFJORD B OIL PLATFORM, NO","FM-15","ENFB ","V020","050,1,N,0026,1","00960,1,9,N","011265,1,N,1","+0020,1","-0040,1","99999,9",,,"07,1,+00960,1,99,9",,,"07,99,1,99,9,99,9,99999,9,99,9,99,9","10010,1,99999,9",,"MET078METAR ENFB 201120Z AUTO 05005KT 020V120 9999NDV BKN032/// 02/M04 Q1001 W///S4;",
"01488199999","2010-12-20T11:50:00","4","61.206389","1.828889","142.0","STATFJORD B OIL PLATFORM, NO","FM-15","ENFB ","V020","080,1,N,0026,1","00930,1,9,N","011265,1,N,1","+0020,1","-0040,1","99999,9",,,"07,1,+00930,1,99,9",,,"07,99,1,99,9,99,9,99999,9,99,9,99,9","10010,1,99999,9",,"MET078METAR ENFB 201150Z AUTO 08005KT 040V120 9999NDV BKN031/// 02/M04 Q1001 W///S4;",
"01488199999","2010-12-20T12:20:00","4","61.206389","1.828889","142.0","STATFJORD B OIL PLATFORM, NO","FM-15","ENFB ","V020","140,1,N,0026,1","01500,1,9,N","011265,1,N,1","+0020,1","-0030,1","99999,9",,,"07,1,+01500,1,99,9",,,"07,99,1,99,9,99,9,99999,9,99,9,99,9","10010,1,99999,9",,"MET070METAR ENFB 201220Z AUTO 14005KT 9999NDV BKN058/// 02/M03 Q1001 W///S4;",
"01488199999","2010-12-20T12:50:00","4","61.206389","1.828889","142.0","STATFJORD B OIL PLATFORM, NO","FM-15","ENFB ","V020","999,9,V,0021,1","01320,1,9,N","011265,1,N,1","+0020,1","-0020,1","99999,9",,,"02,1,+00630,1,99,9","07,1,+01320,1,99,9",,"07,99,1,99,9,99,9,99999,9,99,9,99,9","10010,1,99999,9",,"MET080METAR ENFB 201250Z AUTO VRB04KT 9999NDV FEW021/// BKN044/// 02/M02 Q1001 W///S4;",
"01488199999","2010-12-20T13:20:00","4","61.206389","1.828889","142.0","STATFJORD B OIL PLATFORM, NO","FM-15","ENFB ","V020","020,1,N,0010,1","00570,1,9,N","011265,1,N,1","+0020,1","-0030,1","99999,9","81,1",,"07,1,+00570,1,99,9",,,"07,99,1,99,9,99,9,99999,9,99,9,99,9","10010,1,99999,9","0062,1","MET079METAR ENFB 201320Z AUTO 02002G12KT 9999NDV -SHRA BKN019/// 02/M03 Q1001 W///S4;",
"01488199999","2010-12-20T13:50:00","4","61.206389","1.828889","142.0","STATFJORD B OIL PLATFORM, NO","FM-15","ENFB ","V020","360,1,N,0026,1","01500,1,9,N","011265,1,N,1","+0010,1","-0030,1","99999,9","81,1",,"08,1,+01500,1,99,9",,,"08,99,1,99,9,99,9,99999,9,99,9,99,9","10010,1,99999,9",,"MET076METAR ENFB 201350Z AUTO 36005KT 9999NDV -SHRA OVC050/// 01/M03 Q1001 W///S4;",
"01488199999","2010-12-20T14:20:00","4","61.206389","1.828889","142.0","STATFJORD B OIL PLATFORM, NO","FM-15","ENFB ","V020","340,1,N,0021,1","01320,1,9,N","011265,1,N,1","+0010,1","-0030,1","99999,9","81,1",,"07,1,+01320,1,99,9",,,"07,99,1,99,9,99,9,99999,9,99,9,99,9","10010,1,99999,9",,"MET076METAR ENFB 201420Z AUTO 34004KT 9999NDV -SHRA BKN044/// 01/M03 Q1001 W///S4;",
"01488199999","2010-12-20T14:50:00","4","61.206389","1.828889","142.0","STATFJORD B OIL PLATFORM, NO","FM-15","ENFB ","V020","350,1,N,0026,1","00810,1,9,N","011265,1,N,1","+0010,1","-0030,1","99999,9",,,"07,1,+00810,1,99,9",,,"07,99,1,99,9,99,9,99999,9,99,9,99,9","10010,1,99999,9",,"MET078METAR ENFB 201450Z AUTO 35005KT 310V020 9999NDV BKN027/// 01/M03 Q1001 W///S4;",
"01488199999","2010-12-20T15:20:00","4","61.206389","1.828889","142.0","STATFJORD B OIL PLATFORM, NO","FM-15","ENFB ","V020","010,1,N,0051,1","01320,1,9,N","011265,1,N,1","+0030,1","-0010,1","99999,9",,,"04,1,+00480,1,99,9","07,1,+01320,1,99,9",,"07,99,1,99,9,99,9,99999,9,99,9,99,9","10010,1,99999,9",,"MET080METAR ENFB 201520Z AUTO 01010KT 9999NDV SCT016/// BKN044/// 03/M01 Q1001 W///S4;",
"01488199999","2010-12-20T15:50:00","4","61.206389","1.828889","142.0","STATFJORD B OIL PLATFORM, NO","FM-15","ENFB ","V020","030,1,N,0077,1","01410,1,9,N","011265,1,N,1","+0010,1","-0040,1","99999,9",,,"02,1,+00630,1,99,9","07,1,+01410,1,99,9",,"07,99,1,99,9,99,9,99999,9,99,9,99,9","10000,1,99999,9",,"MET080METAR ENFB 201550Z AUTO 03015KT 9999NDV FEW021/// BKN047/// 01/M04 Q1000 W///S4;",
"01488199999","2010-12-20T16:20:00","4","61.206389","1.828889","142.0","STATFJORD B OIL PLATFORM, NO","FM-15","ENFB ","V020","030,1,N,0082,1","01500,1,9,N","011265,1,N,1","+0010,1","-0050,1","99999,9",,,"02,1,+00990,1,99,9","07,1,+01500,1,99,9",,"07,99,1,99,9,99,9,99999,9,99,9,99,9","10000,1,99999,9",,"MET080METAR ENFB 201620Z AUTO 03016KT 9999NDV FEW033/// BKN053/// 01/M05 Q1000 W///S4;",
"01488199999","2010-12-20T16:50:00","4","61.206389","1.828889","142.0","STATFJORD B OIL PLATFORM, NO","FM-15","ENFB ","V020","030,1,N,0077,1","01380,1,9,N","011265,1,N,1","+0010,1","-0050,1","99999,9","81,1",,"07,1,+01380,1,99,9",,,"07,99,1,99,9,99,9,99999,9,99,9,99,9","10000,1,99999,9",,"MET076METAR ENFB 201650Z AUTO 03015KT 9999NDV -SHRA BKN046/// 01/M05 Q1000 W///S4;",
"01488199999","2010-12-20T17:20:00","4","61.206389","1.828889","142.0","STATFJORD B OIL PLATFORM, NO","FM-15","ENFB ","V020","020,1,N,0077,1","01500,1,9,N","011265,1,N,1","+0010,1","-0050,1","99999,9",,,"02,1,+01440,1,99,9","07,1,+01500,1,99,9",,"07,99,1,99,9,99,9,99999,9,99,9,99,9","10000,1,99999,9",,"MET080METAR ENFB 201720Z AUTO 02015KT 9999NDV FEW048/// BKN055/// 01/M05 Q1000 W///S4;",
"01488199999","2010-12-20T17:50:00","4","61.206389","1.828889","142.0","STATFJORD B OIL PLATFORM, NO","FM-15","ENFB ","V020","030,1,N,0082,1","01500,1,9,N","011265,1,N,1","+0020,1","-0030,1","99999,9",,,"02,1,+00780,1,99,9","07,1,+01500,1,99,9",,"07,99,1,99,9,99,9,99999,9,99,9,99,9","10010,1,99999,9",,"MET080METAR ENFB 201750Z AUTO 03016KT 9999NDV FEW026/// BKN057/// 02/M03 Q1001 W///S4;",
"01488199999","2010-12-20T18:20:00","4","61.206389","1.828889","142.0","STATFJORD B OIL PLATFORM, NO","FM-15","ENFB ","V020","030,1,N,0072,1","00840,1,9,N","011265,1,N,1","+0010,1","-0030,1","99999,9","67,1",,"07,1,+00840,1,99,9",,,"07,99,1,99,9,99,9,99999,9,99,9,99,9","10010,1,99999,9",,"MET076METAR ENFB 201820Z AUTO 03014KT 9999NDV -RASN BKN028/// 01/M03 Q1001 W///S4;",
"01488199999","2010-12-20T18:50:00","4","61.206389","1.828889","142.0","STATFJORD B OIL PLATFORM, NO","FM-15","ENFB ","V020","030,1,N,0082,1","01500,1,9,N","011265,1,N,1","+0020,1","-0030,1","99999,9",,,"07,1,+01500,1,99,9",,,"07,99,1,99,9,99,9,99999,9,99,9,99,9","10010,1,99999,9",,"MET070METAR ENFB 201850Z AUTO 03016KT 9999NDV BKN058/// 02/M03 Q1001 W///S5;",
"01488199999","2010-12-20T19:20:00","4","61.206389","1.828889","142.0","STATFJORD B OIL PLATFORM, NO","FM-15","ENFB ","V020","030,1,N,0082,1","01500,1,9,N","011265,1,N,1","+0020,1","-0030,1","99999,9",,,"02,1,+00750,1,99,9","07,1,+01500,1,99,9",,"07,99,1,99,9,99,9,99999,9,99,9,99,9","10010,1,99999,9",,"MET080METAR ENFB 201920Z AUTO 03016KT 9999NDV FEW025/// BKN055/// 02/M03 Q1001 W///S5;",
"01488199999","2010-12-20T19:50:00","4","61.206389","1.828889","142.0","STATFJORD B OIL PLATFORM, NO","FM-15","ENFB ","V020","040,1,N,0093,1","01500,1,9,N","011265,1,N,1","+0020,1","-0030,1","99999,9",,,"02,1,+00720,1,99,9","07,1,+01500,1,99,9",,"07,99,1,99,9,99,9,99999,9,99,9,99,9","10010,1,99999,9",,"MET080METAR ENFB 201950Z AUTO 04018KT 9999NDV FEW024/// BKN056/// 02/M03 Q1001 W///S5;",
"01488199999","2010-12-20T20:20:00","4","61.206389","1.828889","142.0","STATFJORD B OIL PLATFORM, NO","FM-15","ENFB ","V020","040,1,N,0087,1","00900,1,9,N","011265,1,N,1","+0020,1","-0050,1","99999,9",,,"07,1,+00900,1,99,9",,,"07,99,1,99,9,99,9,99999,9,99,9,99,9","10010,1,99999,9",,"MET070METAR ENFB 202020Z AUTO 04017KT 9999NDV BKN030/// 02/M05 Q1001 W///S5;",
"01488199999","2010-12-20T20:50:00","4","61.206389","1.828889","142.0","STATFJORD B OIL PLATFORM, NO","FM-15","ENFB ","V020","030,1,N,0077,1","01410,1,C,N","011265,1,N,1","+0020,1","-0040,1","99999,9",,,"04,1,+00900,1,99,9","04,1,+01410,1,99,9","07,1,+01500,1,99,9","07,99,1,99,9,99,9,99999,9,99,9,99,9","10010,1,99999,9",,"MET090METAR ENFB 202050Z AUTO 03015KT 9999NDV SCT030/// SCT047/// BKN053/// 02/M04 Q1001 W///S5;",
"01488199999","2010-12-20T21:20:00","4","61.206389","1.828889","142.0","STATFJORD B OIL PLATFORM, NO","FM-15","ENFB ","V020","030,1,N,0082,1","01020,1,9,N","011265,1,N,1","+0010,1","-0060,1","99999,9",,,"07,1,+01020,1,99,9",,,"07,99,1,99,9,99,9,99999,9,99,9,99,9","10010,1,99999,9",,"MET070METAR ENFB 202120Z AUTO 03016KT 9999NDV BKN034/// 01/M06 Q1001 W///S5;",
"01488199999","2010-12-20T21:50:00","4","61.206389","1.828889","142.0","STATFJORD B OIL PLATFORM, NO","FM-15","ENFB ","V020","030,1,N,0077,1","01500,1,9,N","011265,1,N,1","+0020,1","-0050,1","99999,9",,,"02,1,+00960,1,99,9","07,1,+01500,1,99,9",,"07,99,1,99,9,99,9,99999,9,99,9,99,9","10010,1,99999,9",,"MET080METAR ENFB 202150Z AUTO 03015KT 9999NDV FEW032/// BKN052/// 02/M05 Q1001 W///S5;",
"01488199999","2010-12-20T22:20:00","4","61.206389","1.828889","142.0","STATFJORD B OIL PLATFORM, NO","FM-15","ENFB ","V020","020,1,N,0072,1","01500,1,9,N","011265,1,N,1","+0010,1","-0040,1","99999,9",,,"02,1,+01140,1,99,9","07,1,+01500,1,99,9",,"07,99,1,99,9,99,9,99999,9,99,9,99,9","10010,1,99999,9",,"MET080METAR ENFB 202220Z AUTO 02014KT 9999NDV FEW038/// BKN056/// 01/M04 Q1001 W///S5;",
"01488199999","2010-12-20T22:50:00","4","61.206389","1.828889","142.0","STATFJORD B OIL PLATFORM, NO","FM-15","ENFB ","V020","020,1,N,0087,1","01020,1,9,N","011265,1,N,1","+0010,1","-0050,1","99999,9",,,"07,1,+01020,1,99,9",,,"07,99,1,99,9,99,9,99999,9,99,9,99,9","10010,1,99999,9",,"MET070METAR ENFB 202250Z AUTO 02017KT 9999NDV BKN034/// 01/M05 Q1001 W///S5;",
"01488199999","2010-12-20T23:20:00","4","61.206389","1.828889","142.0","STATFJORD B OIL PLATFORM, NO","FM-15","ENFB ","V020","030,1,N,0087,1","01080,1,9,N","011265,1,N,1","+0010,1","-0040,1","99999,9",,,"02,1,+00810,1,99,9","07,1,+01080,1,99,9",,"07,99,1,99,9,99,9,99999,9,99,9,99,9","10010,1,99999,9",,"MET080METAR ENFB 202320Z AUTO 03017KT 9999NDV FEW027/// BKN036/// 01/M04 Q1001 W///S5;",
"01488199999","2010-12-20T23:50:00","4","61.206389","1.828889","142.0","STATFJORD B OIL PLATFORM, NO","FM-15","ENFB ","V020","030,1,N,0087,1","00840,1,9,N","011265,1,N,1","+0010,1","-0050,1","99999,9",,,"07,1,+00840,1,99,9",,,"07,99,1,99,9,99,9,99999,9,99,9,99,9","10010,1,99999,9",,"MET070METAR ENFB 202350Z AUTO 03017KT 9999NDV BKN028/// 01/M05 Q1001 W///S5;",
"01488199999","2010-12-21T00:20:00","4","61.206389","1.828889","142.0","STATFJORD B OIL PLATFORM, NO","FM-15","ENFB ","V020","010,1,N,0072,1","00840,1,9,N","011265,1,N,1","+0010,1","-0040,1","99999,9","81,1",,"07,1,+00840,1,99,9",,,"07,99,1,99,9,99,9,99999,9,99,9,99,9","10010,1,99999,9",,"MET076METAR ENFB 210020Z AUTO 01014KT 9999NDV -SHRA BKN028/// 01/M04 Q1001 W///S5;",
"01488199999","2010-12-21T00:50:00","4","61.206389","1.828889","142.0","STATFJORD B OIL PLATFORM, NO","FM-15","ENFB ","V020","030,1,N,0093,1","00840,1,9,N","011265,1,N,1","+0010,1","-0040,1","99999,9",,,"07,1,+00840,1,99,9",,,"07,99,1,99,9,99,9,99999,9,99,9,99,9","10010,1,99999,9",,"MET070METAR ENFB 210050Z AUTO 03018KT 9999NDV BKN028/// 01/M04 Q1001 W///S5;",
"01488199999","2010-12-21T01:20:00","4","61.206389","1.828889","142.0","STATFJORD B OIL PLATFORM, NO","FM-15","ENFB ","V020","030,1,N,0087,1","00780,1,9,N","011265,1,N,1","+0010,1","-0040,1","99999,9",,,"07,1,+00780,1,99,9",,,"07,99,1,99,9,99,9,99999,9,99,9,99,9","10010,1,99999,9",,"MET070METAR ENFB 210120Z AUTO 03017KT 9999NDV BKN026/// 01/M04 Q1001 W///S5;",
"01488199999","2010-12-21T01:50:00","4","61.206389","1.828889","142.0","STATFJORD B OIL PLATFORM, NO","FM-15","ENFB ","V020","030,1,N,0093,1","01260,1,9,N","011265,1,N,1","+0010,1","-0050,1","99999,9",,,"07,1,+01260,1,99,9",,,"07,99,1,99,9,99,9,99999,9,99,9,99,9","10010,1,99999,9",,"MET070METAR ENFB 210150Z AUTO 03018KT 9999NDV BKN042/// 01/M05 Q1001 W///S5;",
"01488199999","2010-12-21T02:20:00","4","61.206389","1.828889","142.0","STATFJORD B OIL PLATFORM, NO","FM-15","ENFB ","V020","030,1,N,0077,1","22000,1,9,N","011265,1,N,1","+0010,1","-0040,1","99999,9",,,"02,1,+00840,1,99,9",,,"02,99,1,99,9,99,9,99999,9,99,9,99,9","10020,1,99999,9",,"MET070METAR ENFB 210220Z AUTO 03015KT 9999NDV FEW028/// 01/M04 Q1002 W///S5;",
"01488199999","2010-12-21T02:50:00","4","61.206389","1.828889","142.0","STATFJORD B OIL PLATFORM, NO","FM-15","ENFB ","V020","030,1,N,0072,1","00870,1,9,N","011265,1,N,1","+0010,1","-0040,1","99999,9",,,"04,1,+00780,1,99,9","07,1,+00870,1,99,9",,"07,99,1,99,9,99,9,99999,9,99,9,99,9","10020,1,99999,9",,"MET080METAR ENFB 210250Z AUTO 03014KT 9999NDV SCT026/// BKN029/// 01/M04 Q1002 W///S5;",
"01488199999","2010-12-21T03:20:00","4","61.206389","1.828889","142.0","STATFJORD B OIL PLATFORM, NO","FM-15","ENFB ","V020","040,1,N,0072,1","22000,1,9,N","011265,1,N,1","+0020,1","-0050,1","99999,9",,,"02,1,+00960,1,99,9",,,"02,99,1,99,9,99,9,99999,9,99,9,99,9","10020,1,99999,9",,"MET070METAR ENFB 210320Z AUTO 04014KT 9999NDV FEW032/// 02/M05 Q1002 W///S5;",
"01488199999","2010-12-21T03:50:00","4","61.206389","1.828889","142.0","STATFJORD B OIL PLATFORM, NO","FM-15","ENFB ","V020","030,1,N,0077,1","00960,1,9,N","011265,1,N,1","+0010,1","-0060,1","99999,9",,,"07,1,+00960,1,99,9",,,"07,99,1,99,9,99,9,99999,9,99,9,99,9","10020,1,99999,9",,"MET070METAR ENFB 210350Z AUTO 03015KT 9999NDV BKN032/// 01/M06 Q1002 W///S5;",
"01488199999","2010-12-21T04:20:00","4","61.206389","1.828889","142.0","STATFJORD B OIL PLATFORM, NO","FM-15","ENFB ","V020","030,1,N,0057,1","22000,1,9,N","011265,1,N,1","+0010,1","-0050,1","99999,9",,,"04,1,+01020,1,99,9",,,"04,99,1,99,9,99,9,99999,9,99,9,99,9","10020,1,99999,9",,"MET070METAR ENFB 210420Z AUTO 03011KT 9999NDV SCT034/// 01/M05 Q1002 W///S5;",
"01488199999","2010-12-21T04:50:00","4","61.206389","1.828889","142.0","STATFJORD B OIL PLATFORM, NO","FM-15","ENFB ","V020","020,1,N,0057,1","00960,1,9,N","011265,1,N,1","+0010,1","-0050,1","99999,9",,,"07,1,+00960,1,99,9","07,1,+01500,1,99,9",,"07,99,1,99,9,99,9,99999,9,99,9,99,9","10020,1,99999,9",,"MET080METAR ENFB 210450Z AUTO 02011KT 9999NDV BKN032/// BKN056/// 01/M05 Q1002 W///S5;",
"01488199999","2010-12-21T05:20:00","4","61.206389","1.828889","142.0","STATFJORD B OIL PLATFORM, NO","FM-15","ENFB ","V020","040,1,N,0072,1","00810,1,C,N","011265,1,N,1","+0020,1","-0040,1","99999,9","81,1",,"02,1,+00690,1,99,9","04,1,+00810,1,99,9","07,1,+01500,1,99,9","07,99,1,99,9,99,9,99999,9,99,9,99,9","10020,1,99999,9",,"MET096METAR ENFB 210520Z AUTO 04014KT 9999NDV -SHRA FEW023/// SCT027/// BKN053/// 02/M04 Q1002 W///S5;",
"01488199999","2010-12-21T05:50:00","4","61.206389","1.828889","142.0","STATFJORD B OIL PLATFORM, NO","FM-15","ENFB ","V020","030,1,N,0062,1","22000,1,9,N","011265,1,N,1","+0010,1","-0040,1","99999,9",,,"02,1,+00660,1,99,9",,,"02,99,1,99,9,99,9,99999,9,99,9,99,9","10020,1,99999,9",,"MET070METAR ENFB 210550Z AUTO 03012KT 9999NDV FEW022/// 01/M04 Q1002 W///S5;",
"01488199999","2010-12-21T06:20:00","4","61.206389","1.828889","142.0","STATFJORD B OIL PLATFORM, NO","FM-15","ENFB ","V020","030,1,N,0072,1","22000,1,9,N","011265,1,N,1","+0010,1","-0050,1","99999,9",,,"02,1,+00990,1,99,9",,,"02,99,1,99,9,99,9,99999,9,99,9,99,9","10020,1,99999,9",,"MET070METAR ENFB 210620Z AUTO 03014KT 9999NDV FEW033/// 01/M05 Q1002 W///S5;",
"01488199999","2010-12-21T06:50:00","4","61.206389","1.828889","142.0","STATFJORD B OIL PLATFORM, NO","FM-15","ENFB ","V020","030,1,N,0062,1","22000,1,9,N","011265,1,N,1","+0010,1","-0050,1","99999,9",,,"02,1,+00990,1,99,9",,,"02,99,1,99,9,99,9,99999,9,99,9,99,9","10020,1,99999,9",,"MET070METAR ENFB 210650Z AUTO 03012KT 9999NDV FEW033/// 01/M05 Q1002 W///S5;",
"01488199999","2010-12-21T07:20:00","4","61.206389","1.828889","142.0","STATFJORD B OIL PLATFORM, NO","FM-15","ENFB ","V020","040,1,N,0057,1","22000,1,9,N","011265,1,N,1","+0020,1","-0040,1","99999,9",,,"02,1,+00960,1,99,9",,,"02,99,1,99,9,99,9,99999,9,99,9,99,9","10031,1,99999,9",,"MET070METAR ENFB 210720Z AUTO 04011KT 9999NDV FEW032/// 02/M04 Q1003 W///S5;",
"01488199999","2010-12-21T07:50:00","4","61.206389","1.828889","142.0","STATFJORD B OIL PLATFORM, NO","FM-15","ENFB ","V020","030,1,N,0051,1","22000,1,9,N","011265,1,N,1","+0010,1","-0040,1","99999,9",,,,,,"00,99,1,99,9,99,9,99999,9,99,9,99,9","10031,1,99999,9",,"MET064METAR ENFB 210750Z AUTO 03010KT 9999NDV NCD 01/M04 Q1003 W///S5;","Q01    003SCCGA1"
"01488199999","2010-12-21T08:20:00","4","61.206389","1.828889","142.0","STATFJORD B OIL PLATFORM, NO","FM-15","ENFB ","V020","030,1,N,0046,1","22000,1,9,N","011265,1,N,1","+0010,1","-0050,1","99999,9",,,"02,1,+00870,1,99,9",,,"02,99,1,99,9,99,9,99999,9,99,9,99,9","10031,1,99999,9",,"MET070METAR ENFB 210820Z AUTO 03009KT 9999NDV FEW029/// 01/M05 Q1003 W///S5;",
"01488199999","2010-12-21T08:50:00","4","61.206389","1.828889","142.0","STATFJORD B OIL PLATFORM, NO","FM-15","ENFB ","V020","020,1,N,0046,1","22000,1,9,N","011265,1,N,1","+0010,1","-0050,1","99999,9",,,"02,1,+00930,1,99,9",,,"02,99,1,99,9,99,9,99999,9,99,9,99,9","10031,1,99999,9",,"MET070METAR ENFB 210850Z AUTO 02009KT 9999NDV FEW031/// 01/M05 Q1003 W///S5;",
"01488199999","2010-12-21T09:20:00","4","61.206389","1.828889","142.0","STATFJORD B OIL PLATFORM, NO","FM-15","ENFB ","V020","030,1,N,0041,1","22000,1,9,N","011265,1,N,1","+0010,1","-0050,1","99999,9",,,"02,1,+00900,1,99,9",,,"02,99,1,99,9,99,9,99999,9,99,9,99,9","10041,1,99999,9",,"MET070METAR ENFB 210920Z AUTO 03008KT 9999NDV FEW030/// 01/M05 Q1004 W///S4;",
"01488199999","2010-12-21T09:50:00","4","61.206389","1.828889","142.0","STATFJORD B OIL PLATFORM, NO","FM-15","ENFB ","V020","030,1,N,0036,1","22000,1,9,N","011265,1,N,1","+0010,1","-0050,1","99999,9",,,"04,1,+00930,1,99,9",,,"04,99,1,99,9,99,9,99999,9,99,9,99,9","10041,1,99999,9",,"MET070METAR ENFB 210950Z AUTO 03007KT 9999NDV SCT031/// 01/M05 Q1004 W///S4;",
"01488199999","2010-12-21T10:20:00","4","61.206389","1.828889","142.0","STATFJORD B OIL PLATFORM, NO","FM-15","ENFB ","V020","030,1,N,0041,1","01020,1,9,N","011265,1,N,1","+0020,1","-0060,1","99999,9",,,"07,1,+01020,1,99,9",,,"07,99,1,99,9,99,9,99999,9,99,9,99,9","10041,1,99999,9",,"MET070METAR ENFB 211020Z AUTO 03008KT 9999NDV BKN034/// 02/M06 Q1004 W///S4;",
"01488199999","2010-12-21T10:50:00","4","61.206389","1.828889","142.0","STATFJORD B OIL PLATFORM, NO","FM-15","ENFB ","V020","010,1,N,0036,1","22000,1,9,N","011265,1,N,1","+0010,1","-0060,1","99999,9",,,"02,1,+01050,1,99,9",,,"02,99,1,99,9,99,9,99999,9,99,9,99,9","10041,1,99999,9",,"MET070METAR ENFB 211050Z AUTO 01007KT 9999NDV FEW035/// 01/M06 Q1004 W///S4;",
"01488199999","2010-12-21T11:20:00","4","61.206389","1.828889","142.0","STATFJORD B OIL PLATFORM, NO","FM-15","ENFB ","V020","010,1,N,0031,1","22000,1,9,N","011265,1,N,1","+0010,1","-0060,1","99999,9",,,"02,1,+01080,1,99,9",,,"02,99,1,99,9,99,9,99999,9,99,9,99,9","10051,1,99999,9",,"MET070METAR ENFB 211120Z AUTO 01006KT 9999NDV FEW036/// 01/M06 Q1005 W///S4;",
"01488199999","2010-12-21T11:50:00","4","61.206389","1.828889","142.0","STATFJORD B OIL PLATFORM, NO","FM-15","ENFB ","V020","360,1,N,0026,1","22000,1,9,N","011265,1,N,1","+0020,1","-0050,1","99999,9",,,"02,1,+00990,1,99,9",,,"02,99,1,99,9,99,9,99999,9,99,9,99,9","10051,1,99999,9",,"MET078METAR ENFB 211150Z AUTO 36005KT 310V050 9999NDV FEW033/// 02/M05 Q1005 W///S4;",
"01488199999","2010-12-21T12:20:00","4","61.206389","1.828889","142.0","STATFJORD B OIL PLATFORM, NO","FM-15","ENFB ","V020","360,1,N,0026,1","01200,1,9,N","011265,1,N,1","+0010,1","-0050,1","99999,9",,,"04,1,+00960,1,99,9","07,1,+01200,1,99,9",,"07,99,1,99,9,99,9,99999,9,99,9,99,9","10051,1,99999,9",,"MET080METAR ENFB 211220Z AUTO 36005KT 9999NDV SCT032/// BKN040/// 01/M05 Q1005 W///S4;",
"01488199999","2010-12-21T12:50:00","4","61.206389","1.828889","142.0","STATFJORD B OIL PLATFORM, NO","FM-15","ENFB ","V020","999,9,9,9999,9","22000,1,9,N","011265,1,N,1","+0020,1","-0050,1","99999,9",,,,,,"00,99,1,99,9,99,9,99999,9,99,9,99,9","10051,1,99999,9",,"MET064METAR ENFB 211250Z AUTO /////KT 9999NDV NCD 02/M05 Q1005 W///S4;","Q01    003SCCGA1"
"01488199999","2010-12-21T13:20:00","4","61.206389","1.828889","142.0","STATFJORD B OIL PLATFORM, NO","FM-15","ENFB ","V020","330,1,N,0015,1","22000,1,9,N","011265,1,N,1","+0020,1","-0040,1","99999,9",,,,,,"00,99,1,99,9,99,9,99999,9,99,9,99,9","10051,1,99999,9",,"MET072METAR ENFB 211320Z AUTO 33003KT 290V010 9999NDV NCD 02/M04 Q1005 W///S4;","Q01    003SCCGA1"
"01488199999","2010-12-21T13:50:00","4","61.206389","1.828889","142.0","STATFJORD B OIL PLATFORM, NO","FM-15","ENFB ","V020","320,1,N,0021,1","22000,1,9,N","011265,1,N,1","+0020,1","-0050,1","99999,9",,,"02,1,+00870,1,99,9",,,"02,99,1,99,9,99,9,99999,9,99,9,99,9","10051,1,99999,9",,"MET070METAR ENFB 211350Z AUTO 32004KT 9999NDV FEW029/// 02/M05 Q1005 W///S4;",
"01488199999","2010-12-21T14:20:00","4","61.206389","1.828889","142.0","STATFJORD B OIL PLATFORM, NO","FM-15","ENFB ","V020","330,1,N,0021,1","22000,1,9,N","011265,1,N,1","+0020,1","-0050,1","99999,9",,,"04,1,+01500,1,99,9",,,"04,99,1,99,9,99,9,99999,9,99,9,99,9","10051,1,99999,9",,"MET078METAR ENFB 211420Z AUTO 33004KT 290V020 9999NDV SCT051/// 02/M05 Q1005 W///S4;",
"01488199999","2010-12-21T14:50:00","4","61.206389","1.828889","142.0","STATFJORD B OIL PLATFORM, NO","FM-15","ENFB ","V020","310,1,N,0026,1","22000,1,9,N","011265,1,N,1","+0020,1","-0050,1","99999,9",,,,,,"00,99,1,99,9,99,9,99999,9,99,9,99,9","10051,1,99999,9",,"MET064METAR ENFB 211450Z AUTO 31005KT 9999NDV NCD 02/M05 Q1005 W///S4;","Q01    003SCCGA1"
"01488199999","2010-12-21T15:20:00","4","61.206389","1.828889","142.0","STATFJORD B OIL PLATFORM, NO","FM-15","ENFB ","V020","330,1,N,0026,1","01440,1,9,N","011265,1,N,1","+0020,1","-0040,1","99999,9",,,"02,1,+00930,1,99,9","07,1,+01440,1,99,9",,"07,99,1,99,9,99,9,99999,9,99,9,99,9","10051,1,99999,9",,"MET080METAR ENFB 211520Z AUTO 33005KT 9999NDV FEW031/// BKN048/// 02/M04 Q1005 W///S4;",
"01488199999","2010-12-21T15:50:00","4","61.206389","1.828889","142.0","STATFJORD B OIL PLATFORM, NO","FM-15","ENFB ","V020","270,1,N,0026,1","00690,1,9,N","011265,1,N,1","+0020,1","-0030,1","99999,9",,,"07,1,+00690,1,99,9",,,"07,99,1,99,9,99,9,99999,9,99,9,99,9","10051,1,99999,9",,"MET070METAR ENFB 211550Z AUTO 27005KT 9999NDV BKN023/// 02/M03 Q1005 W///S4;",
"01488199999","2010-12-21T16:20:00","4","61.206389","1.828889","142.0","STATFJORD B OIL PLATFORM, NO","FM-15","ENFB ","V020","280,1,N,0015,1","22000,1,9,N","011265,1,N,1","+0020,1","-0040,1","99999,9",,,"04,1,+01140,1,99,9",,,"04,99,1,99,9,99,9,99999,9,99,9,99,9","10061,1,99999,9",,"MET078METAR ENFB 211620Z AUTO 28003KT 230V310 9999NDV SCT038/// 02/M04 Q1006 W///S4;",
"01488199999","2010-12-21T16:50:00","4","61.206389","1.828889","142.0","STATFJORD B OIL PLATFORM, NO","FM-15","ENFB ","V020","250,1,N,0026,1","22000,1,9,N","011265,1,N,1","+0020,1","-0030,1","99999,9",,,"02,1,+01110,1,99,9",,,"02,99,1,99,9,99,9,99999,9,99,9,99,9","10061,1,99999,9",,"MET078METAR ENFB 211650Z AUTO 25005KT 220V310 9999NDV FEW037/// 02/M03 Q1006 W///S4;",
"01488199999","2010-12-21T17:20:00","4","61.206389","1.828889","142.0","STATFJORD B OIL PLATFORM, NO","FM-15","ENFB ","V020","270,1,N,0041,1","22000,1,9,N","011265,1,N,1","+0020,1","-0020,1","99999,9",,,"02,1,+00330,1,99,9",,,"02,99,1,99,9,99,9,99999,9,99,9,99,9","10061,1,99999,9",,"MET070METAR ENFB 211720Z AUTO 27008KT 9999NDV FEW011/// 02/M02 Q1006 W///S4;",
"01488199999","2010-12-21T17:50:00","4","61.206389","1.828889","142.0","STATFJORD B OIL PLATFORM, NO","FM-15","ENFB ","V020","240,1,N,0077,1","22000,1,9,N","011265,1,N,1","+0010,1","-0020,1","99999,9","61,1",,"02,1,+00360,1,99,9",,,"02,99,1,99,9,99,9,99999,9,99,9,99,9","10061,1,99999,9",,"MET074METAR ENFB 211750Z AUTO 24015KT 9999NDV -RA FEW012/// 01/M02 Q1006 W///S4;",
"01488199999","2010-12-21T18:20:00","4","61.206389","1.828889","142.0","STATFJORD B OIL PLATFORM, NO","FM-15","ENFB ","V020","230,1,N,0036,1","01800,1,9,N","011265,1,N,1","+0010,1","-0020,1","99999,9",,,"07,1,+01800,1,99,9","07,1,+03000,1,99,9",,"07,99,1,99,9,99,9,99999,9,99,9,99,9","10061,1,99999,9",,"MET088METAR ENFB 211820Z AUTO 23007KT 210V270 9999NDV BKN061/// BKN100/// 01/M02 Q1006 W///S4;",
"01488199999","2010-12-21T18:50:00","4","61.206389","1.828889","142.0","STATFJORD B OIL PLATFORM, NO","FM-15","ENFB ","V020","230,1,N,0036,1","01020,1,C,N","011265,1,N,1","+0010,1","-0020,1","99999,9",,,"04,1,+00390,1,99,9","04,1,+01020,1,99,9","07,1,+01500,1,99,9","07,99,1,99,9,99,9,99999,9,99,9,99,9","10061,1,99999,9",,"MET090METAR ENFB 211850Z AUTO 23007KT 9999NDV SCT013/// SCT034/// BKN055/// 01/M02 Q1006 W///S4;",
"01488199999","2010-12-21T19:20:00","4","61.206389","1.828889","142.0","STATFJORD B OIL PLATFORM, NO","FM-15","ENFB ","V020","220,1,N,0046,1","01500,1,9,N","011265,1,N,1","+0010,1","-0020,1","99999,9",,,"02,1,+00390,1,99,9","07,1,+01500,1,99,9",,"07,99,1,99,9,99,9,99999,9,99,9,99,9","10071,1,99999,9",,"MET088METAR ENFB 211920Z AUTO 22009KT 120V230 9999NDV FEW013/// BKN051/// 01/M02 Q1007 W///S4;",
"01488199999","2010-12-21T19:50:00","4","61.206389","1.828889","142.0","STATFJORD B OIL PLATFORM, NO","FM-15","ENFB ","V020","220,1,N,0057,1","22000,1,9,N","011265,1,N,1","+0010,1","-0010,1","99999,9",,,"04,1,+01500,1,99,9",,,"04,99,1,99,9,99,9,99999,9,99,9,99,9","10071,1,99999,9",,"MET070METAR ENFB 211950Z AUTO 22011KT 9999NDV SCT054/// 01/M01 Q1007 W///S4;",
"01488199999","2010-12-21T20:20:00","4","61.206389","1.828889","142.0","STATFJORD B OIL PLATFORM, NO","FM-15","ENFB ","V020","210,1,N,0067,1","22000,1,9,N","011265,1,N,1","+0010,1","-0010,1","99999,9",,,"04,1,+00270,1,99,9","04,1,+01800,1,99,9",,"04,99,1,99,9,99,9,99999,9,99,9,99,9","10071,1,99999,9",,"MET080METAR ENFB 212020Z AUTO 21013KT 9999NDV SCT009/// SCT061/// 01/M01 Q1007 W///S4;",
"01488199999","2010-12-21T20:50:00","4","61.206389","1.828889","142.0","STATFJORD B OIL PLATFORM, NO","FM-15","ENFB ","V020","230,1,N,0057,1","01500,1,9,N","011265,1,N,1","+0020,1","-0010,1","99999,9",,,"07,1,+01500,1,99,9",,,"07,99,1,99,9,99,9,99999,9,99,9,99,9","10071,1,99999,9",,"MET070METAR ENFB 212050Z AUTO 23011KT 9999NDV BKN050/// 02/M01 Q1007 W///S5;",
"01488199999","2010-12-21T21:20:00","4","61.206389","1.828889","142.0","STATFJORD B OIL PLATFORM, NO","FM-15","ENFB ","V020","220,1,N,0041,1","01080,1,9,N","011265,1,N,1","+0020,1","-0010,1","99999,9",,,"08,1,+01080,1,99,9",,,"08,99,1,99,9,99,9,99999,9,99,9,99,9","10071,1,99999,9",,"MET078METAR ENFB 212120Z AUTO 22008KT 180V240 9999NDV OVC036/// 02/M01 Q1007 W///S5;",
"01488199999","2010-12-21T21:50:00","4","61.206389","1.828889","142.0","STATFJORD B OIL PLATFORM, NO","FM-15","ENFB ","V020","300,1,N,0046,1","00270,1,9,N","001400,1,N,1","+0010,1","-0020,1","99999,9","80,1",,"07,1,+00270,1,99,9","08,1,+00750,1,99,9",,"08,99,1,99,9,99,9,99999,9,99,9,99,9","10081,1,99999,9","0098,1","MET099METAR ENFB 212150Z AUTO 30009G19KT 260V340 1400NDV -SHRASN BKN009/// OVC025/// 01/M02 Q1008 W///S5;",
"01488199999","2010-12-21T22:20:00","4","61.206389","1.828889","142.0","STATFJORD B OIL PLATFORM, NO","FM-15","ENFB ","V020","100,1,N,0026,1","01440,1,9,N","011265,1,N,1","+0010,1","-0010,1","99999,9",,,"04,1,+00150,1,99,9","07,1,+01440,1,99,9",,"07,99,1,99,9,99,9,99999,9,99,9,99,9","10081,1,99999,9",,"MET088METAR ENFB 212220Z AUTO 10005KT 060V150 9999NDV SCT005/// BKN048/// 01/M01 Q1008 W///S5;",
"01488199999","2010-12-21T22:50:00","4","61.206389","1.828889","142.0","STATFJORD B OIL PLATFORM, NO","FM-15","ENFB ","V020","130,1,N,0026,1","01230,1,9,N","011265,1,N,1","+0010,1","+0000,1","99999,9",,,"02,1,+00510,1,99,9","07,1,+01230,1,99,9",,"07,99,1,99,9,99,9,99999,9,99,9,99,9","10081,1,99999,9",,"MET079METAR ENFB 212250Z AUTO 13005KT 9999NDV FEW017/// BKN041/// 01/00 Q1008 W///S4;",
"01488199999","2010-12-21T23:20:00","4","61.206389","1.828889","142.0","STATFJORD B OIL PLATFORM, NO","FM-15","ENFB ","V020","270,1,N,0010,1","01320,1,9,N","011265,1,N,1","+0020,1","+0000,1","99999,9","61,1",,"04,1,+00630,1,99,9","07,1,+01320,1,99,9",,"07,99,1,99,9,99,9,99999,9,99,9,99,9","10081,1,99999,9",,"MET083METAR ENFB 212320Z AUTO 27002KT 9999NDV -RA SCT021/// BKN044/// 02/00 Q1008 W///S5;",
"01488199999","2010-12-21T23:50:00","4","61.206389","1.828889","142.0","STATFJORD B OIL PLATFORM, NO","FM-15","ENFB ","V020","999,9,C,0000,1","00240,1,9,N","011265,1,N,1","+0010,1","+0000,1","99999,9","67,1",,"08,1,+00240,1,99,9",,,"08,99,1,99,9,99,9,99999,9,99,9,99,9","10081,1,99999,9",,"MET082METAR ENFB 212350Z AUTO 00000KT 9999NDV -RASN OVC008/// 01/00 Q1008 RERASN W///S5;",
"01488199999","2010-12-22T00:20:00","4","61.206389","1.828889","142.0","STATFJORD B OIL PLATFORM, NO","FM-15","ENFB ","V020","280,1,N,0015,1","00600,1,9,N","011265,1,N,1","+0010,1","+0000,1","99999,9","81,1",,"08,1,+00600,1,99,9",,,"08,99,1,99,9,99,9,99999,9,99,9,99,9","10081,1,99999,9",,"MET083METAR ENFB 220020Z AUTO 28003KT 230V010 9999NDV -SHRA OVC020/// 01/00 Q1008 W///S5;",
"01488199999","2010-12-22T00:50:00","4","61.206389","1.828889","142.0","STATFJORD B OIL PLATFORM, NO","FM-15","ENFB ","V020","999,9,V,0010,1","00450,1,9,N","011265,1,N,1","+0020,1","+0000,1","99999,9","81,1",,"07,1,+00450,1,99,9",,,"07,99,1,99,9,99,9,99999,9,99,9,99,9","10081,1,99999,9",,"MET075METAR ENFB 220050Z AUTO VRB02KT 9999NDV -SHRA BKN015/// 02/00 Q1008 W///S5;",
"01488199999","2010-12-22T01:20:00","4","61.206389","1.828889","142.0","STATFJORD B OIL PLATFORM, NO","FM-15","ENFB ","V020","270,1,N,0031,1","00240,1,9,N","011265,1,N,1","+0010,1","+0000,1","99999,9","81,1",,"07,1,+00240,1,99,9",,,"07,99,1,99,9,99,9,99999,9,99,9,99,9","10081,1,99999,9",,"MET075METAR ENFB 220120Z AUTO 27006KT 9999NDV -SHRA BKN008/// 01/00 Q1008 W///S5;",
"01488199999","2010-12-22T01:50:00","4","61.206389","1.828889","142.0","STATFJORD B OIL PLATFORM, NO","FM-15","ENFB ","V020","290,1,N,0015,1","02700,1,9,N","011265,1,N,1","+0010,1","+0000,1","99999,9",,,"02,1,+02100,1,99,9","07,1,+02700,1,99,9",,"07,99,1,99,9,99,9,99999,9,99,9,99,9","10081,1,99999,9",,"MET087METAR ENFB 220150Z AUTO 29003KT 250V310 9999NDV FEW077/// BKN093/// 01/00 Q1008 W///S5;",
"01488199999","2010-12-22T02:20:00","4","61.206389","1.828889","142.0","STATFJORD B OIL PLATFORM, NO","FM-15","ENFB ","V020","999,9,V,0010,1","22000,1,9,N","011265,1,N,1","+0020,1","+0000,1","99999,9",,,"02,1,+02700,1,99,9",,,"02,99,1,99,9,99,9,99999,9,99,9,99,9","10081,1,99999,9",,"MET069METAR ENFB 220220Z AUTO VRB02KT 9999NDV FEW092/// 02/00 Q1008 W///S5;",
"01488199999","2010-12-22T02:50:00","4","61.206389","1.828889","142.0","STATFJORD B OIL PLATFORM, NO","FM-15","ENFB ","V020","310,1,N,0015,1","22000,1,9,N","011265,1,N,1","+0020,1","+0000,1","99999,9",,,,,,"00,99,1,99,9,99,9,99999,9,99,9,99,9","10091,1,99999,9",,"MET063METAR ENFB 220250Z AUTO 31003KT 9999NDV NCD 02/00 Q1009 W///S5;","Q01    003SCCGA1"
"01488199999","2010-12-22T03:20:00","4","61.206389","1.828889","142.0","STATFJORD B OIL PLATFORM, NO","FM-15","ENFB ","V020","300,1,N,0031,1","22000,1,9,N","011265,1,N,1","+0020,1","+0010,1","99999,9",,,"02,1,+00420,1,99,9","04,1,+00870,1,99,9",,"04,99,1,99,9,99,9,99999,9,99,9,99,9","10091,1,99999,9",,"MET079METAR ENFB 220320Z AUTO 30006KT 9999NDV FEW014/// SCT029/// 02/01 Q1009 W///S5;",
"01488199999","2010-12-22T03:50:00","4","61.206389","1.828889","142.0","STATFJORD B OIL PLATFORM, NO","FM-15","ENFB ","V020","340,1,N,0036,1","22000,1,9,N","011265,1,N,1","+0020,1","+0000,1","99999,9",,,"04,1,+00420,1,99,9",,,"04,99,1,99,9,99,9,99999,9,99,9,99,9","10091,1,99999,9",,"MET069METAR ENFB 220350Z AUTO 34007KT 9999NDV SCT014/// 02/00 Q1009 W///S5;",
"01488199999","2010-12-22T04:20:00","4","61.206389","1.828889","142.0","STATFJORD B OIL PLATFORM, NO","FM-15","ENFB ","V020","030,1,N,0036,1","01230,1,C,N","011265,1,N,1","+0020,1","+0000,1","99999,9","81,1",,"04,1,+00690,1,99,9","04,1,+01230,1,99,9","07,1,+02100,1,99,9","07,99,1,99,9,99,9,99999,9,99,9,99,9","10091,1,99999,9",,"MET095METAR ENFB 220420Z AUTO 03007KT 9999NDV -SHRA SCT023/// SCT041/// BKN070/// 02/00 Q1009 W///S5;",
"01488199999","2010-12-22T04:50:00","4","61.206389","1.828889","142.0","STATFJORD B OIL PLATFORM, NO","FM-15","ENFB ","V020","330,1,N,0057,1","00720,1,9,N","011265,1,N,1","+0030,1","+0000,1","99999,9",,,"02,1,+00450,1,99,9","07,1,+00720,1,99,9",,"07,99,1,99,9,99,9,99999,9,99,9,99,9","10091,1,99999,9",,"MET079METAR ENFB 220450Z AUTO 33011KT 9999NDV FEW015/// BKN024/// 03/00 Q1009 W///S5;",
"01488199999","2010-12-22T05:20:00","4","61.206389","1.828889","142.0","STATFJORD B OIL PLATFORM, NO","FM-15","ENFB ","V020","010,1,N,0067,1","00630,1,C,N","011265,1,N,1","+0030,1","+0010,1","99999,9",,,"02,1,+00540,1,99,9","04,1,+00630,1,99,9","07,1,+00930,1,99,9","07,99,1,99,9,99,9,99999,9,99,9,99,9","10091,1,99999,9",,"MET089METAR ENFB 220520Z AUTO 01013KT 9999NDV FEW018/// SCT021/// BKN031/// 03/01 Q1009 W///S5;",
"01488199999","2010-12-22T05:50:00","4","61.206389","1.828889","142.0","STATFJORD B OIL PLATFORM, NO","FM-15","ENFB ","V020","030,1,N,0067,1","22000,1,9,N","011265,1,N,1","+0030,1","+0000,1","99999,9",,,"04,1,+00570,1,99,9",,,"04,99,1,99,9,99,9,99999,9,99,9,99,9","10091,1,99999,9",,"MET069METAR ENFB 220550Z AUTO 03013KT 9999NDV SCT019/// 03/00 Q1009 W///S5;",
"01488199999","2010-12-22T06:20:00","4","61.206389","1.828889","142.0","STATFJORD B OIL PLATFORM, NO","FM-15","ENFB ","V020","040,1,N,0077,1","22000,1,9,N","011265,1,N,1","+0030,1","-0010,1","99999,9",,,"02,1,+00570,1,99,9",,,"02,99,1,99,9,99,9,99999,9,99,9,99,9","10091,1,99999,9",,"MET070METAR ENFB 220620Z AUTO 04015KT 9999NDV FEW019/// 03/M01 Q1009 W///S5;",
"01488199999","2010-12-22T06:50:00","4","61.206389","1.828889","142.0","STATFJORD B OIL PLATFORM, NO","FM-15","ENFB ","V020","040,1,N,0082,1","22000,1,9,N","011265,1,N,1","+0030,1","-0010,1","99999,9",,,"02,1,+00690,1,99,9",,,"02,99,1,99,9,99,9,99999,9,99,9,99,9","10102,1,99999,9",,"MET070METAR ENFB 220650Z AUTO 04016KT 9999NDV FEW023/// 03/M01 Q1010 W///S5;",
"01488199999","2010-12-22T07:20:00","4","61.206389","1.828889","142.0","STATFJORD B OIL PLATFORM, NO","FM-15","ENFB ","V020","050,1,N,0072,1","22000,1,9,N","011265,1,N,1","+0040,1","-0010,1","99999,9",,,"02,1,+00660,1,99,9",,,"02,99,1,99,9,99,9,99999,9,99,9,99,9","10102,1,99999,9",,"MET070METAR ENFB 220720Z AUTO 05014KT 9999NDV FEW022/// 04/M01 Q1010 W///S5;",
"01488199999","2010-12-22T07:50:00","4","61.206389","1.828889","142.0","STATFJORD B OIL PLATFORM, NO","FM-15","ENFB ","V020","070,1,N,0062,1","22000,1,9,N","011265,1,N,1","+0040,1","-0010,1","99999,9",,,"02,1,+00690,1,99,9",,,"02,99,1,99,9,99,9,99999,9,99,9,99,9","10102,1,99999,9",,"MET070METAR ENFB 220750Z AUTO 07012KT 9999NDV FEW023/// 04/M01 Q1010 W///S5;",
"01488199999","2010-12-22T08:20:00","4","61.206389","1.828889","142.0","STATFJORD B OIL PLATFORM, NO","FM-15","ENFB ","V020","070,1,N,0062,1","22000,1,9,N","011265,1,N,1","+0030,1","-0010,1","99999,9",,,,,,"00,99,1,99,9,99,9,99999,9,99,9,99,9","10108,1,99999,9",,"MET064METAR ENFB 220820Z AUTO 07012KT 9999NDV NCD 03/M01 Q1011 W///S5;","Q01    003SCCGA1"
"01488199999","2010-12-22T08:50:00","4","61.206389","1.828889","142.0","STATFJORD B OIL PLATFORM, NO","FM-15","ENFB ","V020","070,1,N,0036,1","02100,1,9,N","011265,1,N,1","+0030,1","-0020,1","99999,9",,,"07,1,+02100,1,99,9",,,"07,99,1,99,9,99,9,99999,9,99,9,99,9","10108,1,99999,9",,"MET070METAR ENFB 220850Z AUTO 07007KT 9999NDV BKN073/// 03/M02 Q1011 W///S5;",
"01488199999","2010-12-22T09:20:00","4","61.206389","1.828889","142.0","STATFJORD B OIL PLATFORM, NO","FM-15","ENFB ","V020","040,1,N,0021,1","00990,1,9,N","011265,1,N,1","+0030,1","-0020,1","99999,9",,,"07,1,+00990,1,99,9",,,"07,99,1,99,9,99,9,99999,9,99,9,99,9","10108,1,99999,9",,"MET070METAR ENFB 220920Z AUTO 04004KT 9999NDV BKN033/// 03/M02 Q1011 W///S5;",
"01488199999","2010-12-22T09:50:00","4","61.206389","1.828889","142.0","STATFJORD B OIL PLATFORM, NO","FM-15","ENFB ","V020","320,1,N,0036,1","00960,1,9,N","011265,1,N,1","+0030,1","-0010,1","99999,9",,,"07,1,+00960,1,99,9",,,"07,99,1,99,9,99,9,99999,9,99,9,99,9","10108,1,99999,9",,"MET078METAR ENFB 220950Z AUTO 32007KT 300V010 9999NDV BKN032/// 03/M01 Q1011 W///S5;",
"01488199999","2010-12-22T10:20:00","4","61.206389","1.828889","142.0","STATFJORD B OIL PLATFORM, NO","FM-15","ENFB ","V020","310,1,N,0031,1","00600,1,9,N","011265,1,N,1","+0040,1","-0010,1","99999,9",,,"07,1,+00600,1,99,9",,,"07,99,1,99,9,99,9,99999,9,99,9,99,9","10119,1,99999,9",,"MET070METAR ENFB 221020Z AUTO 31006KT 9999NDV BKN020/// 04/M01 Q1012 W///S5;",
"01488199999","2010-12-22T10:50:00","4","61.206389","1.828889","142.0","STATFJORD B OIL PLATFORM, NO","FM-15","ENFB ","V020","280,1,N,0046,1","00540,1,9,N","011265,1,N,1","+0030,1","-0010,1","99999,9","81,1",,"07,1,+00540,1,99,9","07,1,+01050,1,99,9",,"07,99,1,99,9,99,9,99999,9,99,9,99,9","10119,1,99999,9",,"MET086METAR ENFB 221050Z AUTO 28009KT 9999NDV -SHRA BKN018/// BKN035/// 03/M01 Q1012 W///S5;",
"01488199999","2010-12-22T11:20:00","4","61.206389","1.828889","142.0","STATFJORD B OIL PLATFORM, NO","FM-15","ENFB ","V020","300,1,N,0051,1","02100,1,9,N","011265,1,N,1","+0030,1","+0000,1","99999,9",,,"02,1,+00840,1,99,9","07,1,+02100,1,99,9",,"07,99,1,99,9,99,9,99999,9,99,9,99,9","10119,1,99999,9",,"MET079METAR ENFB 221120Z AUTO 30010KT 9999NDV FEW028/// BKN072/// 03/00 Q1012 W///S5;",
"01488199999","2010-12-22T11:50:00","4","61.206389","1.828889","142.0","STATFJORD B OIL PLATFORM, NO","FM-15","ENFB ","V020","300,1,N,0026,1","01800,1,9,N","011265,1,N,1","+0040,1","+0000,1","99999,9",,,"02,1,+01410,1,99,9","07,1,+01800,1,99,9",,"07,99,1,99,9,99,9,99999,9,99,9,99,9","10119,1,99999,9",,"MET079METAR ENFB 221150Z AUTO 30005KT 9999NDV FEW047/// BKN063/// 04/00 Q1012 W///S5;",
"01488199999","2010-12-22T12:20:00","4","61.206389","1.828889","142.0","STATFJORD B OIL PLATFORM, NO","FM-15","ENFB ","V020","300,1,N,0021,1","22000,1,9,N","011265,1,N,1","+0030,1","-0010,1","99999,9",,,"04,1,+01500,1,99,9",,,"04,99,1,99,9,99,9,99999,9,99,9,99,9","10119,1,99999,9",,"MET078METAR ENFB 221220Z AUTO 30004KT 250V340 9999NDV SCT050/// 03/M01 Q1012 W///S5;",
"01488199999","2010-12-22T12:50:00","4","61.206389","1.828889","142.0","STATFJORD B OIL PLATFORM, NO","FM-15","ENFB ","V020","280,1,N,0031,1","01500,1,9,N","011265,1,N,1","+0040,1","-0010,1","99999,9",,,"07,1,+01500,1,99,9",,,"07,99,1,99,9,99,9,99999,9,99,9,99,9","10119,1,99999,9",,"MET078METAR ENFB 221250Z AUTO 28006KT 210V310 9999NDV BKN055/// 04/M01 Q1012 W///S5;",
"01488199999","2010-12-22T13:20:00","4","61.206389","1.828889","142.0","STATFJORD B OIL PLATFORM, NO","FM-15","ENFB ","V020","320,1,N,0036,1","00540,1,9,N","004100,1,N,1","+0020,1","-0020,1","99999,9","67,1",,"08,1,+00540,1,99,9",,,"08,99,1,99,9,99,9,99999,9,99,9,99,9","10119,1,99999,9",,"MET084METAR ENFB 221320Z AUTO 32007KT 290V350 4100NDV -RASN OVC018/// 02/M02 Q1012 W///S5;",
"01488199999","2010-12-22T13:50:00","4","61.206389","1.828889","142.0","STATFJORD B OIL PLATFORM, NO","FM-15","ENFB ","V020","010,1,N,0015,1","00630,1,9,N","001900,1,N,1","+0010,1","-0020,1","99999,9","80,1",,"02,1,+00450,1,99,9","07,1,+00630,1,99,9","07,1,+01800,1,99,9","07,99,1,99,9,99,9,99999,9,99,9,99,9","10119,1,99999,9",,"MET106METAR ENFB 221350Z AUTO 01003KT 320V050 1900NDV -SHRASN FEW015/// BKN021/// BKN062/// 01/M02 Q1012 W///S5;",
"01488199999","2010-12-22T14:20:00","4","61.206389","1.828889","142.0","STATFJORD B OIL PLATFORM, NO","FM-15","ENFB ","V020","280,1,N,0021,1","00420,1,9,N","011265,1,N,1","+0010,1","-0020,1","99999,9","80,1",,"07,1,+00420,1,99,9",,,"07,99,1,99,9,99,9,99999,9,99,9,99,9","10119,1,99999,9",,"MET086METAR ENFB 221420Z AUTO 28004KT 240V310 9999NDV -SHRASN BKN014/// 01/M02 Q1012 W///S5;",
"01488199999","2010-12-22T14:50:00","4","61.206389","1.828889","142.0","STATFJORD B OIL PLATFORM, NO","FM-15","ENFB ","V020","999,9,V,0026,1","00480,1,9,N","011265,1,N,1","+0010,1","-0010,1","99999,9","85,1",,"07,1,+00480,1,99,9","07,1,+01350,1,99,9",,"07,99,1,99,9,99,9,99999,9,99,9,99,9","10119,1,99999,9",,"MET086METAR ENFB 221450Z AUTO VRB05KT 9999NDV -SHSN BKN016/// BKN045/// 01/M01 Q1012 W///S5;",
"01488199999","2010-12-22T15:20:00","4","61.206389","1.828889","142.0","STATFJORD B OIL PLATFORM, NO","FM-15","ENFB ","V020","320,1,N,0046,1","01800,1,9,N","011265,1,N,1","+0020,1","-0010,1","99999,9",,,"04,1,+00630,1,99,9","07,1,+01800,1,99,9",,"07,99,1,99,9,99,9,99999,9,99,9,99,9","10119,1,99999,9",,"MET080METAR ENFB 221520Z AUTO 32009KT 9999NDV SCT021/// BKN066/// 02/M01 Q1012 W///S5;",
"01488199999","2010-12-22T15:50:00","4","61.206389","1.828889","142.0","STATFJORD B OIL PLATFORM, NO","FM-15","ENFB ","V020","330,1,N,0046,1","22000,1,9,N","011265,1,N,1","+0020,1","-0010,1","99999,9",,,"02,1,+00570,1,99,9","04,1,+01800,1,99,9",,"04,99,1,99,9,99,9,99999,9,99,9,99,9","10119,1,99999,9",,"MET080METAR ENFB 221550Z AUTO 33009KT 9999NDV FEW019/// SCT061/// 02/M01 Q1012 W///S5;",
"01488199999","2010-12-22T16:20:00","4","61.206389","1.828889","142.0","STATFJORD B OIL PLATFORM, NO","FM-15","ENFB ","V020","310,1,N,0072,1","22000,1,9,N","011265,1,N,1","+0030,1","-0010,1","99999,9",,,"02,1,+00660,1,99,9",,,"02,99,1,99,9,99,9,99999,9,99,9,99,9","10119,1,99999,9",,"MET070METAR ENFB 221620Z AUTO 31014KT 9999NDV FEW022/// 03/M01 Q1012 W///S5;",
"01488199999","2010-12-22T16:50:00","4","61.206389","1.828889","142.0","STATFJORD B OIL PLATFORM, NO","FM-15","ENFB ","V020","300,1,N,0051,1","01500,1,9,N","011265,1,N,1","+0030,1","-0010,1","99999,9","81,1",,"02,1,+01320,1,99,9","07,1,+01500,1,99,9",,"07,99,1,99,9,99,9,99999,9,99,9,99,9","10119,1,99999,9",,"MET086METAR ENFB 221650Z AUTO 30010KT 9999NDV -SHRA FEW044/// BKN051/// 03/M01 Q1012 W///S5;",
"01488199999","2010-12-22T17:20:00","4","61.206389","1.828889","142.0","STATFJORD B OIL PLATFORM, NO","FM-15","ENFB ","V020","330,1,N,0057,1","00990,1,9,N","011265,1,N,1","+0020,1","-0010,1","99999,9",,,"04,1,+00510,1,99,9","07,1,+00990,1,99,9",,"07,99,1,99,9,99,9,99999,9,99,9,99,9","10119,1,99999,9",,"MET080METAR ENFB 221720Z AUTO 33011KT 9999NDV SCT017/// BKN033/// 02/M01 Q1012 W///S5;",
"01488199999","2010-12-22T17:50:00","4","61.206389","1.828889","142.0","STATFJORD B OIL PLATFORM, NO","FM-15","ENFB ","V020","330,1,N,0051,1","22000,1,9,N","011265,1,N,1","+0020,1","-0010,1","99999,9",,,"02,1,+00480,1,99,9",,,"02,99,1,99,9,99,9,99999,9,99,9,99,9","10119,1,99999,9",,"MET070METAR ENFB 221750Z AUTO 33010KT 9999NDV FEW016/// 02/M01 Q1012 W///S5;",
"01488199999","2010-12-22T18:20:00","4","61.206389","1.828889","142.0","STATFJORD B OIL PLATFORM, NO","FM-15","ENFB ","V020","340,1,N,0077,1","01290,1,9,N","011265,1,N,1","+0020,1","-0010,1","99999,9",,,"07,1,+01290,1,99,9",,,"07,99,1,99,9,99,9,99999,9,99,9,99,9","10119,1,99999,9",,"MET070METAR ENFB 221820Z AUTO 34015KT 9999NDV BKN043/// 02/M01 Q1012 W///S5;",
"01488199999","2010-12-22T18:50:00","4","61.206389","1.828889","142.0","STATFJORD B OIL PLATFORM, NO","FM-15","ENFB ","V020","010,1,N,0072,1","01170,1,9,N","011265,1,N,1","+0010,1","-0010,1","99999,9","61,1",,"02,1,+00720,1,99,9","07,1,+01170,1,99,9",,"07,99,1,99,9,99,9,99999,9,99,9,99,9","10119,1,99999,9",,"MET084METAR ENFB 221850Z AUTO 01014KT 9999NDV -RA FEW024/// BKN039/// 01/M01 Q1012 W///S5;",
"01488199999","2010-12-22T19:20:00","4","61.206389","1.828889","142.0","STATFJORD B OIL PLATFORM, NO","FM-15","ENFB ","V020","040,1,N,0046,1","00960,1,9,N","011265,1,N,1","+0010,1","+0000,1","99999,9","81,1",,"02,1,+00120,1,99,9","07,1,+00960,1,99,9",,"07,99,1,99,9,99,9,99999,9,99,9,99,9","10119,1,99999,9",,"MET085METAR ENFB 221920Z AUTO 04009KT 9999NDV -SHRA FEW004/// BKN032/// 01/00 Q1012 W///S5;",
"01488199999","2010-12-22T19:50:00","4","61.206389","1.828889","142.0","STATFJORD B OIL PLATFORM, NO","FM-15","ENFB ","V020","060,1,N,0051,1","00330,1,9,N","011265,1,N,1","+0020,1","+0010,1","99999,9","81,1",,"07,1,+00330,1,99,9","07,1,+00990,1,99,9",,"07,99,1,99,9,99,9,99999,9,99,9,99,9","10119,1,99999,9","0103,1","MET096METAR ENFB 221950Z AUTO 06010G20KT 030V090 9999NDV -SHRA BKN011/// BKN033/// 02/01 Q1012 W///S5;",
"01488199999","2010-12-22T20:20:00","4","61.206389","1.828889","142.0","STATFJORD B OIL PLATFORM, NO","FM-15","ENFB ","V020","070,1,N,0118,1","00540,1,9,N","011265,1,N,1","+0020,1","+0010,1","99999,9",,,"04,1,+00240,1,99,9","07,1,+00540,1,99,9",,"07,99,1,99,9,99,9,99999,9,99,9,99,9","10119,1,99999,9",,"MET079METAR ENFB 222020Z AUTO 07023KT 9999NDV SCT008/// BKN018/// 02/01 Q1012 W///S4;",
"01488199999","2010-12-22T20:50:00","4","61.206389","1.828889","142.0","STATFJORD B OIL PLATFORM, NO","FM-15","ENFB ","V020","070,1,N,0118,1","00300,1,9,N","011265,1,N,1","+0020,1","+0000,1","99999,9",,,"07,1,+00300,1,99,9",,,"07,99,1,99,9,99,9,99999,9,99,9,99,9","10129,1,99999,9",,"MET069METAR ENFB 222050Z AUTO 07023KT 9999NDV BKN010/// 02/00 Q1013 W///S4;",
"01488199999","2010-12-22T21:20:00","4","61.206389","1.828889","142.0","STATFJORD B OIL PLATFORM, NO","FM-15","ENFB ","V020","070,1,N,0108,1","00600,1,9,N","011265,1,N,1","+0020,1","+0000,1","99999,9",,,"07,1,+00600,1,99,9","07,1,+02700,1,99,9",,"07,99,1,99,9,99,9,99999,9,99,9,99,9","10129,1,99999,9",,"MET079METAR ENFB 222120Z AUTO 07021KT 9999NDV BKN020/// BKN093/// 02/00 Q1013 W///S5;",
"01488199999","2010-12-22T21:50:00","4","61.206389","1.828889","142.0","STATFJORD B OIL PLATFORM, NO","FM-15","ENFB ","V020","070,1,N,0098,1","02100,1,9,N","011265,1,N,1","+0020,1","-0010,1","99999,9",,,"02,1,+00630,1,99,9","07,1,+02100,1,99,9",,"07,99,1,99,9,99,9,99999,9,99,9,99,9","10139,1,99999,9",,"MET080METAR ENFB 222150Z AUTO 07019KT 9999NDV FEW021/// BKN077/// 02/M01 Q1014 W///S5;",
"01488199999","2010-12-22T22:20:00","4","61.206389","1.828889","142.0","STATFJORD B OIL PLATFORM, NO","FM-15","ENFB ","V020","070,1,N,0098,1","00630,1,9,N","011265,1,N,1","+0020,1","-0020,1","99999,9",,,"07,1,+00630,1,99,9","07,1,+02100,1,99,9",,"07,99,1,99,9,99,9,99999,9,99,9,99,9","10139,1,99999,9",,"MET080METAR ENFB 222220Z AUTO 07019KT 9999NDV BKN021/// BKN070/// 02/M02 Q1014 W///S5;",
"01488199999","2010-12-22T22:50:00","4","61.206389","1.828889","142.0","STATFJORD B OIL PLATFORM, NO","FM-15","ENFB ","V020","070,1,N,0093,1","01800,1,9,N","011265,1,N,1","+0020,1","-0020,1","99999,9",,,"04,1,+00690,1,99,9","07,1,+01800,1,99,9",,"07,99,1,99,9,99,9,99999,9,99,9,99,9","10139,1,99999,9",,"MET080METAR ENFB 222250Z AUTO 07018KT 9999NDV SCT023/// BKN060/// 02/M02 Q1014 W///S5;",
"01488199999","2010-12-22T23:20:00","4","61.206389","1.828889","142.0","STATFJORD B OIL PLATFORM, NO","FM-15","ENFB ","V020","070,1,N,0093,1","22000,1,9,N","011265,1,N,1","+0020,1","-0030,1","99999,9",,,"02,1,+00780,1,99,9","04,1,+02400,1,99,9",,"04,99,1,99,9,99,9,99999,9,99,9,99,9","10149,1,99999,9",,"MET080METAR ENFB 222320Z AUTO 07018KT 9999NDV FEW026/// SCT089/// 02/M03 Q1015 W///S5;",
"01488199999","2010-12-22T23:50:00","4","61.206389","1.828889","142.0","STATFJORD B OIL PLATFORM, NO","FM-15","ENFB ","V020","070,1,N,0082,1","22000,1,9,N","011265,1,N,1","+0020,1","-0030,1","99999,9",,,"02,1,+00810,1,99,9",,,"02,99,1,99,9,99,9,99999,9,99,9,99,9","10149,1,99999,9",,"MET070METAR ENFB 222350Z AUTO 07016KT 9999NDV FEW027/// 02/M03 Q1015 W///S5;",
"01488199999","2010-12-23T00:20:00","4","61.206389","1.828889","142.0","STATFJORD B OIL PLATFORM, NO","FM-15","ENFB ","V020","050,1,N,0072,1","22000,1,9,N","011265,1,N,1","+0020,1","-0040,1","99999,9",,,"02,1,+00870,1,99,9",,,"02,99,1,99,9,99,9,99999,9,99,9,99,9","10149,1,99999,9",,"MET070METAR ENFB 230020Z AUTO 05014KT 9999NDV FEW029/// 02/M04 Q1015 W///S4;",
"01488199999","2010-12-23T00:50:00","4","61.206389","1.828889","142.0","STATFJORD B OIL PLATFORM, NO","FM-15","ENFB ","V020","050,1,N,0062,1","22000,1,9,N","011265,1,N,1","+0020,1","-0040,1","99999,9",,,"02,1,+00930,1,99,9",,,"02,99,1,99,9,99,9,99999,9,99,9,99,9","10149,1,99999,9",,"MET070METAR ENFB 230050Z AUTO 05012KT 9999NDV FEW031/// 02/M04 Q1015 W///S4;",
"01488199999","2010-12-23T01:20:00","4","61.206389","1.828889","142.0","STATFJORD B OIL PLATFORM, NO","FM-15","ENFB ","V020","050,1,N,0062,1","00930,1,9,N","011265,1,N,1","+0020,1","-0040,1","99999,9",,,"07,1,+00930,1,99,9",,,"07,99,1,99,9,99,9,99999,9,99,9,99,9","10149,1,99999,9",,"MET070METAR ENFB 230120Z AUTO 05012KT 9999NDV BKN031/// 02/M04 Q1015 W///S4;",
"01488199999","2010-12-23T01:50:00","4","61.206389","1.828889","142.0","STATFJORD B OIL PLATFORM, NO","FM-15","ENFB ","V020","050,1,N,0046,1","22000,1,9,N","011265,1,N,1","+0010,1","-0050,1","99999,9",,,"02,1,+00900,1,99,9",,,"02,99,1,99,9,99,9,99999,9,99,9,99,9","10149,1,99999,9",,"MET070METAR ENFB 230150Z AUTO 05009KT 9999NDV FEW030/// 01/M05 Q1015 W///S4;",
"01488199999","2010-12-23T02:20:00","4","61.206389","1.828889","142.0","STATFJORD B OIL PLATFORM, NO","FM-15","ENFB ","V020","050,1,N,0046,1","22000,1,9,N","011265,1,N,1","+0020,1","-0040,1","99999,9",,,"04,1,+00960,1,99,9",,,"04,99,1,99,9,99,9,99999,9,99,9,99,9","10149,1,99999,9",,"MET070METAR ENFB 230220Z AUTO 05009KT 9999NDV SCT032/// 02/M04 Q1015 W///S4;",
"01488199999","2010-12-23T02:50:00","4","61.206389","1.828889","142.0","STATFJORD B OIL PLATFORM, NO","FM-15","ENFB ","V020","050,1,N,0041,1","00960,1,9,N","011265,1,N,1","+0020,1","-0050,1","99999,9",,,"07,1,+00960,1,99,9",,,"07,99,1,99,9,99,9,99999,9,99,9,99,9","10149,1,99999,9",,"MET070METAR ENFB 230250Z AUTO 05008KT 9999NDV BKN032/// 02/M05 Q1015 W///S4;",
"01488199999","2010-12-23T03:20:00","4","61.206389","1.828889","142.0","STATFJORD B OIL PLATFORM, NO","FM-15","ENFB ","V020","050,1,N,0041,1","00960,1,9,N","011265,1,N,1","+0020,1","-0050,1","99999,9",,,"07,1,+00960,1,99,9",,,"07,99,1,99,9,99,9,99999,9,99,9,99,9","10149,1,99999,9",,"MET070METAR ENFB 230320Z AUTO 05008KT 9999NDV BKN032/// 02/M05 Q1015 W///S4;",
"01488199999","2010-12-23T03:50:00","4","61.206389","1.828889","142.0","STATFJORD B OIL PLATFORM, NO","FM-15","ENFB ","V020","070,1,N,0036,1","00990,1,9,N","011265,1,N,1","+0020,1","-0050,1","99999,9",,,"07,1,+00990,1,99,9",,,"07,99,1,99,9,99,9,99999,9,99,9,99,9","10149,1,99999,9",,"MET070METAR ENFB 230350Z AUTO 07007KT 9999NDV BKN033/// 02/M05 Q1015 W///S4;",
"01488199999","2010-12-23T04:20:00","4","61.206389","1.828889","142.0","STATFJORD B OIL PLATFORM, NO","FM-15","ENFB ","V020","050,1,N,0036,1","01110,1,9,N","011265,1,N,1","+0020,1","-0050,1","99999,9",,,"08,1,+01110,1,99,9",,,"08,99,1,99,9,99,9,99999,9,99,9,99,9","10149,1,99999,9",,"MET070METAR ENFB 230420Z AUTO 05007KT 9999NDV OVC037/// 02/M05 Q1015 W///S4;",
"01488199999","2010-12-23T04:50:00","4","61.206389","1.828889","142.0","STATFJORD B OIL PLATFORM, NO","FM-15","ENFB ","V020","010,1,N,0051,1","00900,1,9,N","011265,1,N,1","+0000,1","-0040,1","99999,9","71,1",,"08,1,+00900,1,99,9",,,"08,99,1,99,9,99,9,99999,9,99,9,99,9","10149,1,99999,9",,"MET074METAR ENFB 230450Z AUTO 01010KT 9999NDV -SN OVC030/// 00/M04 Q1015 W///S4;",
"01488199999","2010-12-23T05:20:00","4","61.206389","1.828889","142.0","STATFJORD B OIL PLATFORM, NO","FM-15","ENFB ","V020","040,1,N,0041,1","00960,1,9,N","011265,1,N,1","+0010,1","-0020,1","99999,9","67,1",,"02,1,+00270,1,99,9","08,1,+00960,1,99,9",,"08,99,1,99,9,99,9,99999,9,99,9,99,9","10149,1,99999,9",,"MET086METAR ENFB 230520Z AUTO 04008KT 9999NDV -RASN FEW009/// OVC032/// 01/M02 Q1015 W///S4;",
"01488199999","2010-12-23T05:50:00","4","61.206389","1.828889","142.0","STATFJORD B OIL PLATFORM, NO","FM-15","ENFB ","V020","060,1,N,0057,1","00510,1,9,N","011265,1,N,1","+0010,1","-0030,1","99999,9","67,1",,"07,1,+00510,1,99,9","08,1,+00990,1,99,9",,"08,99,1,99,9,99,9,99999,9,99,9,99,9","10149,1,99999,9",,"MET086METAR ENFB 230550Z AUTO 06011KT 9999NDV -RASN BKN017/// OVC033/// 01/M03 Q1015 W///S4;",
"01488199999","2010-12-23T06:20:00","4","61.206389","1.828889","142.0","STATFJORD B OIL PLATFORM, NO","FM-15","ENFB ","V020","050,1,N,0057,1","00750,1,9,N","011265,1,N,1","+0010,1","-0030,1","99999,9","81,1",,"07,1,+00750,1,99,9","07,1,+01800,1,99,9",,"07,99,1,99,9,99,9,99999,9,99,9,99,9","10149,1,99999,9",,"MET086METAR ENFB 230620Z AUTO 05011KT 9999NDV -SHRA BKN025/// BKN061/// 01/M03 Q1015 W///S4;",
"01488199999","2010-12-23T06:50:00","4","61.206389","1.828889","142.0","STATFJORD B OIL PLATFORM, NO","FM-15","ENFB ","V020","040,1,N,0051,1","00780,1,9,N","011265,1,N,1","+0010,1","-0030,1","99999,9",,,"07,1,+00780,1,99,9",,,"07,99,1,99,9,99,9,99999,9,99,9,99,9","10149,1,99999,9",,"MET070METAR ENFB 230650Z AUTO 04010KT 9999NDV BKN026/// 01/M03 Q1015 W///S4;",
"01488199999","2010-12-23T07:20:00","4","61.206389","1.828889","142.0","STATFJORD B OIL PLATFORM, NO","FM-15","ENFB ","V020","040,1,N,0072,1","00870,1,9,N","011265,1,N,1","+0010,1","-0040,1","99999,9",,,"07,1,+00870,1,99,9",,,"07,99,1,99,9,99,9,99999,9,99,9,99,9","10159,1,99999,9",,"MET070METAR ENFB 230720Z AUTO 04014KT 9999NDV BKN029/// 01/M04 Q1016 W///S4;",
"01488199999","2010-12-23T07:50:00","4","61.206389","1.828889","142.0","STATFJORD B OIL PLATFORM, NO","FM-15","ENFB ","V020","030,1,N,0067,1","22000,1,9,N","011265,1,N,1","+0010,1","-0050,1","99999,9",,,"02,1,+00930,1,99,9",,,"02,99,1,99,9,99,9,99999,9,99,9,99,9","10159,1,99999,9",,"MET070METAR ENFB 230750Z AUTO 03013KT 9999NDV FEW031/// 01/M05 Q1016 W///S4;",
"01488199999","2010-12-23T08:20:00","4","61.206389","1.828889","142.0","STATFJORD B OIL PLATFORM, NO","FM-15","ENFB ","V020","020,1,N,0067,1","01410,1,9,N","011265,1,N,1","+0010,1","-0060,1","99999,9",,,"02,1,+01020,1,99,9","07,1,+01410,1,99,9",,"07,99,1,99,9,99,9,99999,9,99,9,99,9","10159,1,99999,9",,"MET080METAR ENFB 230820Z AUTO 02013KT 9999NDV FEW034/// BKN047/// 01/M06 Q1016 W///S4;",
"01488199999","2010-12-23T08:50:00","4","61.206389","1.828889","142.0","STATFJORD B OIL PLATFORM, NO","FM-15","ENFB ","V020","030,1,N,0072,1","00960,1,9,N","011265,1,N,1","+0010,1","-0060,1","99999,9",,,"07,1,+00960,1,99,9",,,"07,99,1,99,9,99,9,99999,9,99,9,99,9","10159,1,99999,9",,"MET070METAR ENFB 230850Z AUTO 03014KT 9999NDV BKN032/// 01/M06 Q1016 W///S4;",
"01488199999","2010-12-23T09:20:00","4","61.206389","1.828889","142.0","STATFJORD B OIL PLATFORM, NO","FM-15","ENFB ","V020","040,1,N,0067,1","22000,1,9,N","011265,1,N,1","+0010,1","-0050,1","99999,9",,,"02,1,+00780,1,99,9",,,"02,99,1,99,9,99,9,99999,9,99,9,99,9","10159,1,99999,9",,"MET070METAR ENFB 230920Z AUTO 04013KT 9999NDV FEW026/// 01/M05 Q1016 W///S4;",
"01488199999","2010-12-23T09:50:00","4","61.206389","1.828889","142.0","STATFJORD B OIL PLATFORM, NO","FM-15","ENFB ","V020","040,1,N,0062,1","01320,1,9,N","011265,1,N,1","+0010,1","-0040,1","99999,9","81,1",,"04,1,+00780,1,99,9","07,1,+01320,1,99,9","07,1,+01800,1,99,9","07,99,1,99,9,99,9,99999,9,99,9,99,9","10159,1,99999,9",,"MET096METAR ENFB 230950Z AUTO 04012KT 9999NDV -SHRA SCT026/// BKN044/// BKN061/// 01/M04 Q1016 W///S4;",
"01488199999","2010-12-23T10:20:00","4","61.206389","1.828889","142.0","STATFJORD B OIL PLATFORM, NO","FM-15","ENFB ","V020","040,1,N,0067,1","00960,1,9,N","011265,1,N,1","+0010,1","-0040,1","99999,9",,,"07,1,+00960,1,99,9",,,"07,99,1,99,9,99,9,99999,9,99,9,99,9","10169,1,99999,9",,"MET070METAR ENFB 231020Z AUTO 04013KT 9999NDV BKN032/// 01/M04 Q1017 W///S4;",
"01488199999","2010-12-23T10:50:00","4","61.206389","1.828889","142.0","STATFJORD B OIL PLATFORM, NO","FM-15","ENFB ","V020","030,1,N,0067,1","00960,1,9,N","011265,1,N,1","+0010,1","-0060,1","99999,9",,,"07,1,+00960,1,99,9",,,"07,99,1,99,9,99,9,99999,9,99,9,99,9","10169,1,99999,9",,"MET070METAR ENFB 231050Z AUTO 03013KT 9999NDV BKN032/// 01/M06 Q1017 W///S4;",
"01488199999","2010-12-23T11:20:00","4","61.206389","1.828889","142.0","STATFJORD B OIL PLATFORM, NO","FM-15","ENFB ","V020","030,1,N,0077,1","00960,1,9,N","011265,1,N,1","+0010,1","-0040,1","99999,9",,,"07,1,+00960,1,99,9",,,"07,99,1,99,9,99,9,99999,9,99,9,99,9","10159,1,99999,9",,"MET070METAR ENFB 231120Z AUTO 03015KT 9999NDV BKN032/// 01/M04 Q1016 W///S4;",
"01488199999","2010-12-23T11:50:00","4","61.206389","1.828889","142.0","STATFJORD B OIL PLATFORM, NO","FM-15","ENFB ","V020","030,1,N,0072,1","00930,1,9,N","011265,1,N,1","+0000,1","-0060,1","99999,9",,,"07,1,+00930,1,99,9",,,"07,99,1,99,9,99,9,99999,9,99,9,99,9","10169,1,99999,9",,"MET070METAR ENFB 231150Z AUTO 03014KT 9999NDV BKN031/// 00/M06 Q1017 W///S4;",
"01488199999","2010-12-23T12:20:00","4","61.206389","1.828889","142.0","STATFJORD B OIL PLATFORM, NO","FM-15","ENFB ","V020","030,1,N,0067,1","00930,1,9,N","011265,1,N,1","+0010,1","-0050,1","99999,9",,,"07,1,+00930,1,99,9",,,"07,99,1,99,9,99,9,99999,9,99,9,99,9","10169,1,99999,9",,"MET070METAR ENFB 231220Z AUTO 03013KT 9999NDV BKN031/// 01/M05 Q1017 W///S4;",
"01488199999","2010-12-23T12:50:00","4","61.206389","1.828889","142.0","STATFJORD B OIL PLATFORM, NO","FM-15","ENFB ","V020","030,1,N,0067,1","01080,1,9,N","011265,1,N,1","+0010,1","-0050,1","99999,9",,,"07,1,+01080,1,99,9",,,"07,99,1,99,9,99,9,99999,9,99,9,99,9","10159,1,99999,9",,"MET070METAR ENFB 231250Z AUTO 03013KT 9999NDV BKN036/// 01/M05 Q1016 W///S4;",
"01488199999","2010-12-23T13:20:00","4","61.206389","1.828889","142.0","STATFJORD B OIL PLATFORM, NO","FM-15","ENFB ","V020","030,1,N,0087,1","00900,1,9,N","011265,1,N,1","+0000,1","-0040,1","99999,9","61,1",,"07,1,+00900,1,99,9",,,"07,99,1,99,9,99,9,99999,9,99,9,99,9","10159,1,99999,9",,"MET074METAR ENFB 231320Z AUTO 03017KT 9999NDV -RA BKN030/// 00/M04 Q1016 W///S4;",
"01488199999","2010-12-23T13:50:00","4","61.206389","1.828889","142.0","STATFJORD B OIL PLATFORM, NO","FM-15","ENFB ","V020","030,1,N,0072,1","00630,1,9,N","011265,1,N,1","+0000,1","-0030,1","99999,9",,,"02,1,+00510,1,99,9","07,1,+00630,1,99,9","07,1,+01320,1,99,9","07,99,1,99,9,99,9,99999,9,99,9,99,9","10159,1,99999,9",,"MET090METAR ENFB 231350Z AUTO 03014KT 9999NDV FEW017/// BKN021/// BKN044/// 00/M03 Q1016 W///S4;",
"01488199999","2010-12-23T14:20:00","4","61.206389","1.828889","142.0","STATFJORD B OIL PLATFORM, NO","FM-15","ENFB ","V020","030,1,N,0062,1","22000,1,9,N","011265,1,N,1","+0010,1","-0030,1","99999,9",,,"02,1,+00420,1,99,9",,,"02,99,1,99,9,99,9,99999,9,99,9,99,9","10169,1,99999,9",,"MET070METAR ENFB 231420Z AUTO 03012KT 9999NDV FEW014/// 01/M03 Q1017 W///S4;",
"01488199999","2010-12-23T14:50:00","4","61.206389","1.828889","142.0","STATFJORD B OIL PLATFORM, NO","FM-15","ENFB ","V020","040,1,N,0067,1","22000,1,9,N","011265,1,N,1","+0000,1","-0030,1","99999,9",,,"02,1,+00360,1,99,9",,,"02,99,1,99,9,99,9,99999,9,99,9,99,9","10169,1,99999,9",,"MET070METAR ENFB 231450Z AUTO 04013KT 9999NDV FEW012/// 00/M03 Q1017 W///S4;",
"01488199999","2010-12-23T15:20:00","4","61.206389","1.828889","142.0","STATFJORD B OIL PLATFORM, NO","FM-15","ENFB ","V020","040,1,N,0062,1","01500,1,9,N","011265,1,N,1","+0000,1","-0030,1","99999,9",,,"04,1,+00510,1,99,9","07,1,+01500,1,99,9",,"07,99,1,99,9,99,9,99999,9,99,9,99,9","10169,1,99999,9",,"MET080METAR ENFB 231520Z AUTO 04012KT 9999NDV SCT017/// BKN059/// 00/M03 Q1017 W///S4;",
"01488199999","2010-12-23T15:50:00","4","61.206389","1.828889","142.0","STATFJORD B OIL PLATFORM, NO","FM-15","ENFB ","V020","040,1,N,0051,1","22000,1,9,N","011265,1,N,1","+0000,1","-0030,1","99999,9",,,"02,1,+00300,1,99,9",,,"02,99,1,99,9,99,9,99999,9,99,9,99,9","10169,1,99999,9",,"MET070METAR ENFB 231550Z AUTO 04010KT 9999NDV FEW010/// 00/M03 Q1017 W///S4;",
"01488199999","2010-12-23T16:20:00","4","61.206389","1.828889","142.0","STATFJORD B OIL PLATFORM, NO","FM-15","ENFB ","V020","040,1,N,0077,1","00540,1,9,N","011265,1,N,1","+0010,1","-0020,1","99999,9","81,1",,"02,1,+00420,1,99,9","07,1,+00540,1,99,9","07,1,+01500,1,99,9","07,99,1,99,9,99,9,99999,9,99,9,99,9","10169,1,99999,9",,"MET096METAR ENFB 231620Z AUTO 04015KT 9999NDV -SHRA FEW014/// BKN018/// BKN052/// 01/M02 Q1017 W///S4;",
"01488199999","2010-12-23T16:50:00","4","61.206389","1.828889","142.0","STATFJORD B OIL PLATFORM, NO","FM-15","ENFB ","V020","030,1,N,0087,1","00870,1,9,N","011265,1,N,1","+0010,1","-0040,1","99999,9","81,1",,"07,1,+00870,1,99,9",,,"07,99,1,99,9,99,9,99999,9,99,9,99,9","10169,1,99999,9",,"MET076METAR ENFB 231650Z AUTO 03017KT 9999NDV -SHRA BKN029/// 01/M04 Q1017 W///S4;",
"01488199999","2010-12-23T17:20:00","4","61.206389","1.828889","142.0","STATFJORD B OIL PLATFORM, NO","FM-15","ENFB ","V020","030,1,N,0082,1","01110,1,9,N","011265,1,N,1","+0010,1","-0040,1","99999,9",,,"07,1,+01110,1,99,9",,,"07,99,1,99,9,99,9,99999,9,99,9,99,9","10169,1,99999,9",,"MET070METAR ENFB 231720Z AUTO 03016KT 9999NDV BKN037/// 01/M04 Q1017 W///S4;",
"01488199999","2010-12-23T17:50:00","4","61.206389","1.828889","142.0","STATFJORD B OIL PLATFORM, NO","FM-15","ENFB ","V020","040,1,N,0093,1","00960,1,9,N","011265,1,N,1","+0010,1","-0030,1","99999,9","61,1",,"02,1,+00630,1,99,9","07,1,+00960,1,99,9",,"07,99,1,99,9,99,9,99999,9,99,9,99,9","10169,1,99999,9",,"MET084METAR ENFB 231750Z AUTO 04018KT 9999NDV -RA FEW021/// BKN032/// 01/M03 Q1017 W///S4;",
"01488199999","2010-12-23T18:20:00","4","61.206389","1.828889","142.0","STATFJORD B OIL PLATFORM, NO","FM-15","ENFB ","V020","030,1,N,0082,1","01410,1,9,N","011265,1,N,1","+0010,1","-0060,1","99999,9",,,"07,1,+01410,1,99,9",,,"07,99,1,99,9,99,9,99999,9,99,9,99,9","10169,1,99999,9",,"MET070METAR ENFB 231820Z AUTO 03016KT 9999NDV BKN047/// 01/M06 Q1017 W///S4;",
"01488199999","2010-12-23T18:50:00","4","61.206389","1.828889","142.0","STATFJORD B OIL PLATFORM, NO","FM-15","ENFB ","V020","030,1,N,0087,1","00690,1,9,N","011265,1,N,1","+0010,1","-0070,1","99999,9",,,"07,1,+00690,1,99,9",,,"07,99,1,99,9,99,9,99999,9,99,9,99,9","10169,1,99999,9",,"MET070METAR ENFB 231850Z AUTO 03017KT 9999NDV BKN023/// 01/M07 Q1017 W///S4;",
"01488199999","2010-12-23T19:20:00","4","61.206389","1.828889","142.0","STATFJORD B OIL PLATFORM, NO","FM-15","ENFB ","V020","040,1,N,0077,1","01320,1,9,N","011265,1,N,1","+0010,1","-0050,1","99999,9",,,"07,1,+01320,1,99,9",,,"07,99,1,99,9,99,9,99999,9,99,9,99,9","10180,1,99999,9",,"MET070METAR ENFB 231920Z AUTO 04015KT 9999NDV BKN044/// 01/M05 Q1018 W///S4;",
"01488199999","2010-12-23T19:50:00","4","61.206389","1.828889","142.0","STATFJORD B OIL PLATFORM, NO","FM-15","ENFB ","V020","040,1,N,0093,1","00870,1,9,N","011265,1,N,1","+0010,1","-0040,1","99999,9","81,1",,"02,1,+00780,1,99,9","07,1,+00870,1,99,9",,"07,99,1,99,9,99,9,99999,9,99,9,99,9","10169,1,99999,9",,"MET086METAR ENFB 231950Z AUTO 04018KT 9999NDV -SHRA FEW026/// BKN029/// 01/M04 Q1017 W///S4;",
"01488199999","2010-12-23T20:20:00","4","61.206389","1.828889","142.0","STATFJORD B OIL PLATFORM, NO","FM-15","ENFB ","V020","040,1,N,0072,1","01320,1,9,N","011265,1,N,1","+0010,1","-0070,1","99999,9",,,"07,1,+01320,1,99,9",,,"07,99,1,99,9,99,9,99999,9,99,9,99,9","10169,1,99999,9",,"MET070METAR ENFB 232020Z AUTO 04014KT 9999NDV BKN044/// 01/M07 Q1017 W///S4;",
"01488199999","2010-12-23T20:50:00","4","61.206389","1.828889","142.0","STATFJORD B OIL PLATFORM, NO","FM-15","ENFB ","V020","030,1,N,0087,1","01080,1,9,N","011265,1,N,1","+0010,1","-0050,1","99999,9",,,"07,1,+01080,1,99,9",,,"07,99,1,99,9,99,9,99999,9,99,9,99,9","10169,1,99999,9",,"MET070METAR ENFB 232050Z AUTO 03017KT 9999NDV BKN036/// 01/M05 Q1017 W///S4;",
"01488199999","2010-12-23T21:20:00","4","61.206389","1.828889","142.0","STATFJORD B OIL PLATFORM, NO","FM-15","ENFB ","V020","030,1,N,0077,1","00810,1,9,N","011265,1,N,1","+0010,1","-0040,1","99999,9","61,1",,"07,1,+00810,1,99,9",,,"07,99,1,99,9,99,9,99999,9,99,9,99,9","10169,1,99999,9",,"MET074METAR ENFB 232120Z AUTO 03015KT 9999NDV -RA BKN027/// 01/M04 Q1017 W///S4;",
"01488199999","2010-12-23T21:50:00","4","61.206389","1.828889","142.0","STATFJORD B OIL PLATFORM, NO","FM-15","ENFB ","V020","040,1,N,0087,1","00750,1,9,N","011265,1,N,1","+0010,1","-0030,1","99999,9",,,"07,1,+00750,1,99,9",,,"07,99,1,99,9,99,9,99999,9,99,9,99,9","10180,1,99999,9",,"MET070METAR ENFB 232150Z AUTO 04017KT 9999NDV BKN025/// 01/M03 Q1018 W///S4;",
"01488199999","2010-12-23T22:20:00","4","61.206389","1.828889","142.0","STATFJORD B OIL PLATFORM, NO","FM-15","ENFB ","V020","040,1,N,0077,1","00810,1,9,N","011265,1,N,1","+0010,1","-0030,1","99999,9","81,1",,"07,1,+00810,1,99,9","07,1,+01500,1,99,9",,"07,99,1,99,9,99,9,99999,9,99,9,99,9","10180,1,99999,9",,"MET086METAR ENFB 232220Z AUTO 04015KT 9999NDV -SHRA BKN027/// BKN053/// 01/M03 Q1018 W///S4;",
"01488199999","2010-12-23T22:50:00","4","61.206389","1.828889","142.0","STATFJORD B OIL PLATFORM, NO","FM-15","ENFB ","V020","030,1,N,0093,1","00720,1,9,N","011265,1,N,1","+0010,1","-0050,1","99999,9",,,"07,1,+00720,1,99,9",,,"07,99,1,99,9,99,9,99999,9,99,9,99,9","10180,1,99999,9",,"MET070METAR ENFB 232250Z AUTO 03018KT 9999NDV BKN024/// 01/M05 Q1018 W///S4;",
"01488199999","2010-12-23T23:20:00","4","61.206389","1.828889","142.0","STATFJORD B OIL PLATFORM, NO","FM-15","ENFB ","V020","040,1,N,0098,1","00960,1,9,N","011265,1,N,1","+0010,1","-0040,1","99999,9","81,1",,"07,1,+00960,1,99,9",,,"07,99,1,99,9,99,9,99999,9,99,9,99,9","10180,1,99999,9",,"MET076METAR ENFB 232320Z AUTO 04019KT 9999NDV -SHRA BKN032/// 01/M04 Q1018 W///S4;",
"01488199999","2010-12-23T23:50:00","4","61.206389","1.828889","142.0","STATFJORD B OIL PLATFORM, NO","FM-15","ENFB ","V020","040,1,N,0098,1","00930,1,9,N","011265,1,N,1","+0010,1","-0050,1","99999,9",,,"07,1,+00930,1,99,9",,,"07,99,1,99,9,99,9,99999,9,99,9,99,9","10180,1,99999,9",,"MET070METAR ENFB 232350Z AUTO 04019KT 9999NDV BKN031/// 01/M05 Q1018 W///S4;",
"01488199999","2010-12-24T00:20:00","4","61.206389","1.828889","142.0","STATFJORD B OIL PLATFORM, NO","FM-15","ENFB ","V020","040,1,N,0098,1","01080,1,9,N","011265,1,N,1","+0010,1","-0050,1","99999,9",,,"07,1,+01080,1,99,9",,,"07,99,1,99,9,99,9,99999,9,99,9,99,9","10180,1,99999,9",,"MET070METAR ENFB 240020Z AUTO 04019KT 9999NDV BKN036/// 01/M05 Q1018 W///S4;",
"01488199999","2010-12-24T00:50:00","4","61.206389","1.828889","142.0","STATFJORD B OIL PLATFORM, NO","FM-15","ENFB ","V020","040,1,N,0103,1","01170,1,9,N","011265,1,N,1","+0010,1","-0060,1","99999,9",,,"07,1,+01170,1,99,9",,,"07,99,1,99,9,99,9,99999,9,99,9,99,9","10180,1,99999,9",,"MET070METAR ENFB 240050Z AUTO 04020KT 9999NDV BKN039/// 01/M06 Q1018 W///S4;",
"01488199999","2010-12-24T01:20:00","4","61.206389","1.828889","142.0","STATFJORD B OIL PLATFORM, NO","FM-15","ENFB ","V020","040,1,N,0093,1","01170,1,9,N","011265,1,N,1","+0010,1","-0070,1","99999,9",,,"07,1,+01170,1,99,9",,,"07,99,1,99,9,99,9,99999,9,99,9,99,9","10180,1,99999,9",,"MET070METAR ENFB 240120Z AUTO 04018KT 9999NDV BKN039/// 01/M07 Q1018 W///S4;",
"01488199999","2010-12-24T01:50:00","4","61.206389","1.828889","142.0","STATFJORD B OIL PLATFORM, NO","FM-15","ENFB ","V020","040,1,N,0098,1","01200,1,9,N","011265,1,N,1","+0010,1","-0060,1","99999,9",,,"07,1,+01200,1,99,9",,,"07,99,1,99,9,99,9,99999,9,99,9,99,9","10180,1,99999,9",,"MET070METAR ENFB 240150Z AUTO 04019KT 9999NDV BKN040/// 01/M06 Q1018 W///S4;",
"01488199999","2010-12-24T02:20:00","4","61.206389","1.828889","142.0","STATFJORD B OIL PLATFORM, NO","FM-15","ENFB ","V020","040,1,N,0072,1","01140,1,9,N","011265,1,N,1","+0010,1","-0060,1","99999,9",,,"07,1,+01140,1,99,9",,,"07,99,1,99,9,99,9,99999,9,99,9,99,9","10180,1,99999,9",,"MET070METAR ENFB 240220Z AUTO 04014KT 9999NDV BKN038/// 01/M06 Q1018 W///S4;",
"01488199999","2010-12-24T02:50:00","4","61.206389","1.828889","142.0","STATFJORD B OIL PLATFORM, NO","FM-15","ENFB ","V020","040,1,N,0093,1","22000,1,9,N","011265,1,N,1","+0010,1","-0070,1","99999,9",,,"04,1,+01110,1,99,9",,,"04,99,1,99,9,99,9,99999,9,99,9,99,9","10180,1,99999,9",,"MET070METAR ENFB 240250Z AUTO 04018KT 9999NDV SCT037/// 01/M07 Q1018 W///S4;",
"01488199999","2010-12-24T03:20:00","4","61.206389","1.828889","142.0","STATFJORD B OIL PLATFORM, NO","FM-15","ENFB ","V020","040,1,N,0093,1","01140,1,9,N","011265,1,N,1","+0010,1","-0060,1","99999,9",,,"07,1,+01140,1,99,9",,,"07,99,1,99,9,99,9,99999,9,99,9,99,9","10180,1,99999,9",,"MET070METAR ENFB 240320Z AUTO 04018KT 9999NDV BKN038/// 01/M06 Q1018 W///S4;",
"01488199999","2010-12-24T03:50:00","4","61.206389","1.828889","142.0","STATFJORD B OIL PLATFORM, NO","FM-15","ENFB ","V020","040,1,N,0093,1","22000,1,9,N","011265,1,N,1","+0010,1","-0060,1","99999,9",,,"02,1,+01080,1,99,9","04,1,+01170,1,99,9",,"04,99,1,99,9,99,9,99999,9,99,9,99,9","10180,1,99999,9",,"MET080METAR ENFB 240350Z AUTO 04018KT 9999NDV FEW036/// SCT039/// 01/M06 Q1018 W///S4;",
"01488199999","2010-12-24T04:20:00","4","61.206389","1.828889","142.0","STATFJORD B OIL PLATFORM, NO","FM-15","ENFB ","V020","030,1,N,0077,1","00960,1,9,N","011265,1,N,1","+0010,1","-0060,1","99999,9",,,"07,1,+00960,1,99,9",,,"07,99,1,99,9,99,9,99999,9,99,9,99,9","10180,1,99999,9",,"MET070METAR ENFB 240420Z AUTO 03015KT 9999NDV BKN032/// 01/M06 Q1018 W///S4;",
"01488199999","2010-12-24T04:50:00","4","61.206389","1.828889","142.0","STATFJORD B OIL PLATFORM, NO","FM-15","ENFB ","V020","040,1,N,0072,1","00900,1,9,N","011265,1,N,1","+0010,1","-0040,1","99999,9",,,"07,1,+00900,1,99,9",,,"07,99,1,99,9,99,9,99999,9,99,9,99,9","10180,1,99999,9",,"MET083METAR ENFB 240450Z AUTO 04014KT 9999NDV BKN030/// 01/M04 Q1018 AR ENNE 240450Z NIL;",
"01488199999","2010-12-24T05:20:00","4","61.206389","1.828889","142.0","STATFJORD B OIL PLATFORM, NO","FM-15","ENFB ","V020","030,1,N,0072,1","22000,1,9,N","011265,1,N,1","+0010,1","-0050,1","99999,9",,,"02,1,+00930,1,99,9","04,1,+01500,1,99,9",,"04,99,1,99,9,99,9,99999,9,99,9,99,9","10180,1,99999,9",,"MET080METAR ENFB 240520Z AUTO 03014KT 9999NDV FEW031/// SCT056/// 01/M05 Q1018 W///S4;",
"01488199999","2010-12-24T05:50:00","4","61.206389","1.828889","142.0","STATFJORD B OIL PLATFORM, NO","FM-15","ENFB ","V020","040,1,N,0067,1","00870,1,9,N","011265,1,N,1","+0010,1","-0040,1","99999,9",,,"07,1,+00870,1,99,9",,,"07,99,1,99,9,99,9,99999,9,99,9,99,9","10180,1,99999,9",,"MET070METAR ENFB 240550Z AUTO 04013KT 9999NDV BKN029/// 01/M04 Q1018 W///S4;",
"01488199999","2010-12-24T06:20:00","4","61.206389","1.828889","142.0","STATFJORD B OIL PLATFORM, NO","FM-15","ENFB ","V020","040,1,N,0077,1","22000,1,9,N","011265,1,N,1","+0010,1","-0050,1","99999,9",,,"02,1,+00900,1,99,9",,,"02,99,1,99,9,99,9,99999,9,99,9,99,9","10190,1,99999,9",,"MET070METAR ENFB 240620Z AUTO 04015KT 9999NDV FEW030/// 01/M05 Q1019 W///S4;",
"01488199999","2010-12-24T06:50:00","4","61.206389","1.828889","142.0","STATFJORD B OIL PLATFORM, NO","FM-15","ENFB ","V020","040,1,N,0067,1","00810,1,9,N","011265,1,N,1","+0010,1","-0040,1","99999,9",,,"07,1,+00810,1,99,9","07,1,+01380,1,99,9",,"07,99,1,99,9,99,9,99999,9,99,9,99,9","10190,1,99999,9",,"MET080METAR ENFB 240650Z AUTO 04013KT 9999NDV BKN027/// BKN046/// 01/M04 Q1019 W///S4;",
"01488199999","2010-12-24T07:20:00","4","61.206389","1.828889","142.0","STATFJORD B OIL PLATFORM, NO","FM-15","ENFB ","V020","040,1,N,0062,1","01110,1,9,N","011265,1,N,1","+0010,1","-0040,1","99999,9",,,"07,1,+01110,1,99,9",,,"07,99,1,99,9,99,9,99999,9,99,9,99,9","10190,1,99999,9",,"MET070METAR ENFB 240720Z AUTO 04012KT 9999NDV BKN037/// 01/M04 Q1019 W///S4;",
"01488199999","2010-12-24T07:50:00","4","61.206389","1.828889","142.0","STATFJORD B OIL PLATFORM, NO","FM-15","ENFB ","V020","050,1,N,0067,1","01110,1,9,N","011265,1,N,1","+0020,1","-0050,1","99999,9",,,"07,1,+01110,1,99,9",,,"07,99,1,99,9,99,9,99999,9,99,9,99,9","10190,1,99999,9",,"MET070METAR ENFB 240750Z AUTO 05013KT 9999NDV BKN037/// 02/M05 Q1019 W///S4;",
"01488199999","2010-12-24T08:20:00","4","61.206389","1.828889","142.0","STATFJORD B OIL PLATFORM, NO","FM-15","ENFB ","V020","040,1,N,0067,1","01290,1,9,N","011265,1,N,1","+0010,1","-0050,1","99999,9",,,"07,1,+01290,1,99,9",,,"07,99,1,99,9,99,9,99999,9,99,9,99,9","10190,1,99999,9",,"MET070METAR ENFB 240820Z AUTO 04013KT 9999NDV BKN043/// 01/M05 Q1019 W///S4;",
"01488199999","2010-12-24T08:50:00","4","61.206389","1.828889","142.0","STATFJORD B OIL PLATFORM, NO","FM-15","ENFB ","V020","040,1,N,0062,1","00990,1,9,N","011265,1,N,1","+0010,1","-0060,1","99999,9",,,"07,1,+00990,1,99,9",,,"07,99,1,99,9,99,9,99999,9,99,9,99,9","10190,1,99999,9",,"MET070METAR ENFB 240850Z AUTO 04012KT 9999NDV BKN033/// 01/M06 Q1019 W///S4;",
"01488199999","2010-12-24T09:20:00","4","61.206389","1.828889","142.0","STATFJORD B OIL PLATFORM, NO","FM-15","ENFB ","V020","050,1,N,0057,1","00990,1,9,N","011265,1,N,1","+0010,1","-0050,1","99999,9",,,"07,1,+00990,1,99,9",,,"07,99,1,99,9,99,9,99999,9,99,9,99,9","10190,1,99999,9",,"MET070METAR ENFB 240920Z AUTO 05011KT 9999NDV BKN033/// 01/M05 Q1019 W///S4;",
"01488199999","2010-12-24T09:50:00","4","61.206389","1.828889","142.0","STATFJORD B OIL PLATFORM, NO","FM-15","ENFB ","V020","040,1,N,0062,1","01170,1,9,N","011265,1,N,1","+0010,1","-0060,1","99999,9",,,"04,1,+00990,1,99,9","07,1,+01170,1,99,9",,"07,99,1,99,9,99,9,99999,9,99,9,99,9","10200,1,99999,9",,"MET080METAR ENFB 240950Z AUTO 04012KT 9999NDV SCT033/// BKN039/// 01/M06 Q1020 W///S4;",
"01488199999","2010-12-24T10:20:00","4","61.206389","1.828889","142.0","STATFJORD B OIL PLATFORM, NO","FM-15","ENFB ","V020","040,1,N,0051,1","01020,1,9,N","011265,1,N,1","+0010,1","-0060,1","99999,9",,,"07,1,+01020,1,99,9",,,"07,99,1,99,9,99,9,99999,9,99,9,99,9","10200,1,99999,9",,"MET070METAR ENFB 241020Z AUTO 04010KT 9999NDV BKN034/// 01/M06 Q1020 W///S4;",
"01488199999","2010-12-24T10:50:00","4","61.206389","1.828889","142.0","STATFJORD B OIL PLATFORM, NO","FM-15","ENFB ","V020","050,1,N,0046,1","01410,1,9,N","011265,1,N,1","+0010,1","-0060,1","99999,9",,,"04,1,+00960,1,99,9","07,1,+01410,1,99,9",,"07,99,1,99,9,99,9,99999,9,99,9,99,9","10200,1,99999,9",,"MET080METAR ENFB 241050Z AUTO 05009KT 9999NDV SCT032/// BKN047/// 01/M06 Q1020 W///S4;",
"01488199999","2010-12-24T11:20:00","4","61.206389","1.828889","142.0","STATFJORD B OIL PLATFORM, NO","FM-15","ENFB ","V020","050,1,N,0046,1","01110,1,9,N","011265,1,N,1","+0010,1","-0050,1","99999,9",,,"07,1,+01110,1,99,9",,,"07,99,1,99,9,99,9,99999,9,99,9,99,9","10200,1,99999,9",,"MET070METAR ENFB 241120Z AUTO 05009KT 9999NDV BKN037/// 01/M05 Q1020 W///S4;",
"01488199999","2010-12-24T11:50:00","4","61.206389","1.828889","142.0","STATFJORD B OIL PLATFORM, NO","FM-15","ENFB ","V020","040,1,N,0051,1","22000,1,9,N","011265,1,N,1","+0010,1","-0050,1","99999,9",,,"02,1,+00960,1,99,9",,,"02,99,1,99,9,99,9,99999,9,99,9,99,9","10190,1,99999,9",,"MET070METAR ENFB 241150Z AUTO 04010KT 9999NDV FEW032/// 01/M05 Q1019 W///S4;",
"01488199999","2010-12-24T12:20:00","4","61.206389","1.828889","142.0","STATFJORD B OIL PLATFORM, NO","FM-15","ENFB ","V020","040,1,N,0046,1","22000,1,9,N","011265,1,N,1","+0010,1","-0050,1","99999,9",,,"04,1,+00990,1,99,9",,,"04,99,1,99,9,99,9,99999,9,99,9,99,9","10190,1,99999,9",,"MET070METAR ENFB 241220Z AUTO 04009KT 9999NDV SCT033/// 01/M05 Q1019 W///S4;",
"01488199999","2010-12-24T12:50:00","4","61.206389","1.828889","142.0","STATFJORD B OIL PLATFORM, NO","FM-15","ENFB ","V020","040,1,N,0041,1","00960,1,9,N","011265,1,N,1","+0010,1","-0050,1","99999,9",,,"07,1,+00960,1,99,9",,,"07,99,1,99,9,99,9,99999,9,99,9,99,9","10190,1,99999,9",,"MET070METAR ENFB 241250Z AUTO 04008KT 9999NDV BKN032/// 01/M05 Q1019 W///S4;",
"01488199999","2010-12-24T13:20:00","4","61.206389","1.828889","142.0","STATFJORD B OIL PLATFORM, NO","FM-15","ENFB ","V020","040,1,N,0036,1","22000,1,9,N","011265,1,N,1","+0010,1","-0060,1","99999,9",,,"04,1,+00930,1,99,9",,,"04,99,1,99,9,99,9,99999,9,99,9,99,9","10190,1,99999,9",,"MET070METAR ENFB 241320Z AUTO 04007KT 9999NDV SCT031/// 01/M06 Q1019 W///S4;",
"01488199999","2010-12-24T13:50:00","4","61.206389","1.828889","142.0","STATFJORD B OIL PLATFORM, NO","FM-15","ENFB ","V020","030,1,N,0031,1","01500,1,9,N","011265,1,N,1","+0010,1","-0050,1","99999,9",,,"02,1,+00900,1,99,9","07,1,+01500,1,99,9",,"07,99,1,99,9,99,9,99999,9,99,9,99,9","10190,1,99999,9",,"MET080METAR ENFB 241350Z AUTO 03006KT 9999NDV FEW030/// BKN054/// 01/M05 Q1019 W///S4;",
"01488199999","2010-12-24T14:20:00","4","61.206389","1.828889","142.0","STATFJORD B OIL PLATFORM, NO","FM-15","ENFB ","V020","040,1,N,0041,1","01500,1,9,N","011265,1,N,1","+0010,1","-0040,1","99999,9",,,"07,1,+01500,1,99,9",,,"07,99,1,99,9,99,9,99999,9,99,9,99,9","10190,1,99999,9",,"MET070METAR ENFB 241420Z AUTO 04008KT 9999NDV BKN055/// 01/M04 Q1019 W///S4;",
"01488199999","2010-12-24T14:50:00","4","61.206389","1.828889","142.0","STATFJORD B OIL PLATFORM, NO","FM-15","ENFB ","V020","010,1,N,0041,1","01410,1,9,N","011265,1,N,1","+0010,1","-0060,1","99999,9",,,"02,1,+00870,1,99,9","07,1,+01410,1,99,9",,"07,99,1,99,9,99,9,99999,9,99,9,99,9","10190,1,99999,9",,"MET080METAR ENFB 241450Z AUTO 01008KT 9999NDV FEW029/// BKN047/// 01/M06 Q1019 W///S4;",
"01488199999","2010-12-24T15:20:00","4","61.206389","1.828889","142.0","STATFJORD B OIL PLATFORM, NO","FM-15","ENFB ","V020","010,1,N,0057,1","01500,1,9,N","011265,1,N,1","+0010,1","-0060,1","99999,9",,,"04,1,+00900,1,99,9","07,1,+01500,1,99,9",,"07,99,1,99,9,99,9,99999,9,99,9,99,9","10190,1,99999,9",,"MET080METAR ENFB 241520Z AUTO 01011KT 9999NDV SCT030/// BKN059/// 01/M06 Q1019 W///S4;",
"01488199999","2010-12-24T15:50:00","4","61.206389","1.828889","142.0","STATFJORD B OIL PLATFORM, NO","FM-15","ENFB ","V020","040,1,N,0072,1","01050,1,9,N","011265,1,N,1","+0010,1","-0030,1","99999,9",,,"02,1,+00360,1,99,9","07,1,+01050,1,99,9",,"07,99,1,99,9,99,9,99999,9,99,9,99,9","10190,1,99999,9",,"MET080METAR ENFB 241550Z AUTO 04014KT 9999NDV FEW012/// BKN035/// 01/M03 Q1019 W///S4;",
"01488199999","2010-12-24T16:20:00","4","61.206389","1.828889","142.0","STATFJORD B OIL PLATFORM, NO","FM-15","ENFB ","V020","030,1,N,0062,1","01440,1,9,N","011265,1,N,1","+0010,1","-0030,1","99999,9",,,"07,1,+01440,1,99,9",,,"07,99,1,99,9,99,9,99999,9,99,9,99,9","10190,1,99999,9",,"MET070METAR ENFB 241620Z AUTO 03012KT 9999NDV BKN048/// 01/M03 Q1019 W///S4;",
"01488199999","2010-12-24T16:50:00","4","61.206389","1.828889","142.0","STATFJORD B OIL PLATFORM, NO","FM-15","ENFB ","V020","010,1,N,0062,1","00840,1,9,N","011265,1,N,1","+0000,1","-0040,1","99999,9","61,1",,"07,1,+00840,1,99,9",,,"07,99,1,99,9,99,9,99999,9,99,9,99,9","10190,1,99999,9",,"MET074METAR ENFB 241650Z AUTO 01012KT 9999NDV -RA BKN028/// 00/M04 Q1019 W///S4;",
"01488199999","2010-12-24T17:20:00","4","61.206389","1.828889","142.0","STATFJORD B OIL PLATFORM, NO","FM-15","ENFB ","V020","020,1,N,0067,1","22000,1,9,N","011265,1,N,1","+0010,1","-0050,1","99999,9",,,"04,1,+00720,1,99,9",,,"04,99,1,99,9,99,9,99999,9,99,9,99,9","10190,1,99999,9",,"MET070METAR ENFB 241720Z AUTO 02013KT 9999NDV SCT024/// 01/M05 Q1019 W///S4;",
"01488199999","2010-12-24T17:50:00","4","61.206389","1.828889","142.0","STATFJORD B OIL PLATFORM, NO","FM-15","ENFB ","V020","040,1,N,0067,1","00870,1,9,N","011265,1,N,1","+0010,1","-0040,1","99999,9",,,"07,1,+00870,1,99,9",,,"07,99,1,99,9,99,9,99999,9,99,9,99,9","10190,1,99999,9",,"MET070METAR ENFB 241750Z AUTO 04013KT 9999NDV BKN029/// 01/M04 Q1019 W///S4;",
"01488199999","2010-12-24T18:20:00","4","61.206389","1.828889","142.0","STATFJORD B OIL PLATFORM, NO","FM-15","ENFB ","V020","040,1,N,0057,1","01200,1,9,N","011265,1,N,1","+0010,1","-0060,1","99999,9",,,"07,1,+01200,1,99,9",,,"07,99,1,99,9,99,9,99999,9,99,9,99,9","10190,1,99999,9",,"MET070METAR ENFB 241820Z AUTO 04011KT 9999NDV BKN040/// 01/M06 Q1019 W///S4;",
"01488199999","2010-12-24T18:50:00","4","61.206389","1.828889","142.0","STATFJORD B OIL PLATFORM, NO","FM-15","ENFB ","V020","040,1,N,0062,1","22000,1,9,N","011265,1,N,1","+0010,1","-0050,1","99999,9",,,"02,1,+00900,1,99,9",,,"02,99,1,99,9,99,9,99999,9,99,9,99,9","10190,1,99999,9",,"MET070METAR ENFB 241850Z AUTO 04012KT 9999NDV FEW030/// 01/M05 Q1019 W///S5;",
"01488199999","2010-12-24T19:20:00","4","61.206389","1.828889","142.0","STATFJORD B OIL PLATFORM, NO","FM-15","ENFB ","V020","040,1,N,0067,1","01020,1,9,N","011265,1,N,1","+0010,1","-0050,1","99999,9",,,"02,1,+00870,1,99,9","07,1,+01020,1,99,9",,"07,99,1,99,9,99,9,99999,9,99,9,99,9","10190,1,99999,9",,"MET080METAR ENFB 241920Z AUTO 04013KT 9999NDV FEW029/// BKN034/// 01/M05 Q1019 W///S/;",
"01488199999","2010-12-24T19:50:00","4","61.206389","1.828889","142.0","STATFJORD B OIL PLATFORM, NO","FM-15","ENFB ","V020","030,1,N,0072,1","22000,1,9,N","011265,1,N,1","+0010,1","-0070,1","99999,9",,,"04,1,+01080,1,99,9",,,"04,99,1,99,9,99,9,99999,9,99,9,99,9","10190,1,99999,9",,"MET070METAR ENFB 241950Z AUTO 03014KT 9999NDV SCT036/// 01/M07 Q1019 W///S4;",
"01488199999","2010-12-24T20:20:00","4","61.206389","1.828889","142.0","STATFJORD B OIL PLATFORM, NO","FM-15","ENFB ","V020","030,1,N,0067,1","01110,1,9,N","011265,1,N,1","+0010,1","-0060,1","99999,9","81,1",,"07,1,+01110,1,99,9",,,"07,99,1,99,9,99,9,99999,9,99,9,99,9","10190,1,99999,9",,"MET076METAR ENFB 242020Z AUTO 03013KT 9999NDV -SHRA BKN037/// 01/M06 Q1019 W///S5;",
"01488199999","2010-12-24T20:50:00","4","61.206389","1.828889","142.0","STATFJORD B OIL PLATFORM, NO","FM-15","ENFB ","V020","050,1,N,0093,1","00480,1,9,N","011265,1,N,1","+0010,1","-0020,1","99999,9","85,1",,"07,1,+00480,1,99,9",,,"07,99,1,99,9,99,9,99999,9,99,9,99,9","10190,1,99999,9",,"MET076METAR ENFB 242050Z AUTO 05018KT 9999NDV -SHSN BKN016/// 01/M02 Q1019 W///S4;",
"01488199999","2010-12-24T21:20:00","4","61.206389","1.828889","142.0","STATFJORD B OIL PLATFORM, NO","FM-15","ENFB ","V020","040,1,N,0103,1","01500,1,9,N","011265,1,N,1","+0010,1","-0020,1","99999,9",,,"04,1,+00450,1,99,9","07,1,+01500,1,99,9",,"07,99,1,99,9,99,9,99999,9,99,9,99,9","10190,1,99999,9",,"MET080METAR ENFB 242120Z AUTO 04020KT 9999NDV SCT015/// BKN053/// 01/M02 Q1019 W///S/;",
"01488199999","2010-12-24T21:50:00","4","61.206389","1.828889","142.0","STATFJORD B OIL PLATFORM, NO","FM-15","ENFB ","V020","040,1,N,0103,1","22000,1,9,N","003300,1,N,1","+0000,1","-0020,1","99999,9","67,1",,"02,1,+00360,1,99,9","04,1,+00900,1,99,9",,"04,99,1,99,9,99,9,99999,9,99,9,99,9","10190,1,99999,9",,"MET086METAR ENFB 242150Z AUTO 04020KT 3300NDV -RASN FEW012/// SCT030/// 00/M02 Q1019 W///S/;",
"01488199999","2010-12-24T22:20:00","4","61.206389","1.828889","142.0","STATFJORD B OIL PLATFORM, NO","FM-15","ENFB ","V020","050,1,N,0093,1","00540,1,9,N","008000,1,N,1","+0010,1","-0020,1","99999,9","61,1",,"07,1,+00540,1,99,9",,,"07,99,1,99,9,99,9,99999,9,99,9,99,9","10190,1,99999,9",,"MET074METAR ENFB 242220Z AUTO 05018KT 8000NDV -RA BKN018/// 01/M02 Q1019 W///S4;",
"01488199999","2010-12-24T22:50:00","4","61.206389","1.828889","142.0","STATFJORD B OIL PLATFORM, NO","FM-15","ENFB ","V020","060,1,N,0103,1","00660,1,9,N","011265,1,N,1","+0010,1","-0020,1","99999,9",,,"02,1,+00510,1,99,9","07,1,+00660,1,99,9",,"07,99,1,99,9,99,9,99999,9,99,9,99,9","10190,1,99999,9",,"MET080METAR ENFB 242250Z AUTO 06020KT 9999NDV FEW017/// BKN022/// 01/M02 Q1019 W///S4;",
"01488199999","2010-12-24T23:20:00","4","61.206389","1.828889","142.0","STATFJORD B OIL PLATFORM, NO","FM-15","ENFB ","V020","050,1,N,0103,1","01470,1,9,N","011265,1,N,1","+0010,1","-0020,1","99999,9",,,"07,1,+01470,1,99,9",,,"07,99,1,99,9,99,9,99999,9,99,9,99,9","10190,1,99999,9",,"MET070METAR ENFB 242320Z AUTO 05020KT 9999NDV BKN049/// 01/M02 Q1019 W///S4;",
"01488199999","2010-12-24T23:50:00","4","61.206389","1.828889","142.0","STATFJORD B OIL PLATFORM, NO","FM-15","ENFB ","V020","040,1,N,0098,1","01380,1,9,N","011265,1,N,1","+0020,1","-0030,1","99999,9",,,"07,1,+01380,1,99,9",,,"07,99,1,99,9,99,9,99999,9,99,9,99,9","10190,1,99999,9",,"MET070METAR ENFB 242350Z AUTO 04019KT 9999NDV BKN046/// 02/M03 Q1019 W///S4;",
"01488199999","2010-12-25T00:20:00","4","61.206389","1.828889","142.0","STATFJORD B OIL PLATFORM, NO","FM-15","ENFB ","V020","050,1,N,0103,1","01380,1,9,N","011265,1,N,1","+0020,1","-0030,1","99999,9",,,"02,1,+00720,1,99,9","07,1,+01380,1,99,9",,"07,99,1,99,9,99,9,99999,9,99,9,99,9","10190,1,99999,9",,"MET080METAR ENFB 250020Z AUTO 05020KT 9999NDV FEW024/// BKN046/// 02/M03 Q1019 W///S/;",
"01488199999","2010-12-25T00:50:00","4","61.206389","1.828889","142.0","STATFJORD B OIL PLATFORM, NO","FM-15","ENFB ","V020","040,1,N,0098,1","01470,1,9,N","011265,1,N,1","+0020,1","-0030,1","99999,9",,,"02,1,+00810,1,99,9","07,1,+01470,1,99,9",,"07,99,1,99,9,99,9,99999,9,99,9,99,9","10190,1,99999,9",,"MET080METAR ENFB 250050Z AUTO 04019KT 9999NDV FEW027/// BKN049/// 02/M03 Q1019 W///S/;",
"01488199999","2010-12-25T01:20:00","4","61.206389","1.828889","142.0","STATFJORD B OIL PLATFORM, NO","FM-15","ENFB ","V020","040,1,N,0093,1","01500,1,9,N","011265,1,N,1","+0020,1","-0030,1","99999,9",,,"02,1,+00780,1,99,9","07,1,+01500,1,99,9",,"07,99,1,99,9,99,9,99999,9,99,9,99,9","10200,1,99999,9",,"MET080METAR ENFB 250120Z AUTO 04018KT 9999NDV FEW026/// BKN051/// 02/M03 Q1020 W///S4;",
"01488199999","2010-12-25T01:50:00","4","61.206389","1.828889","142.0","STATFJORD B OIL PLATFORM, NO","FM-15","ENFB ","V020","050,1,N,0093,1","22000,1,9,N","011265,1,N,1","+0020,1","-0030,1","99999,9",,,"02,1,+00900,1,99,9","04,1,+01470,1,99,9",,"04,99,1,99,9,99,9,99999,9,99,9,99,9","10200,1,99999,9",,"MET080METAR ENFB 250150Z AUTO 05018KT 9999NDV FEW030/// SCT049/// 02/M03 Q1020 W///S4;",
"01488199999","2010-12-25T02:20:00","4","61.206389","1.828889","142.0","STATFJORD B OIL PLATFORM, NO","FM-15","ENFB ","V020","050,1,N,0098,1","22000,1,9,N","011265,1,N,1","+0020,1","-0030,1","99999,9",,,,,,"00,99,1,99,9,99,9,99999,9,99,9,99,9","10190,1,99999,9",,"MET064METAR ENFB 250220Z AUTO 05019KT 9999NDV NCD 02/M03 Q1019 W///S4;","Q01    003SCCGA1"
"01488199999","2010-12-25T02:50:00","4","61.206389","1.828889","142.0","STATFJORD B OIL PLATFORM, NO","FM-15","ENFB ","V020","050,1,N,0093,1","22000,1,9,N","011265,1,N,1","+0020,1","-0030,1","99999,9",,,"02,1,+00690,1,99,9",,,"02,99,1,99,9,99,9,99999,9,99,9,99,9","10190,1,99999,9",,"MET070METAR ENFB 250250Z AUTO 05018KT 9999NDV FEW023/// 02/M03 Q1019 W///S4;",
"01488199999","2010-12-25T03:20:00","4","61.206389","1.828889","142.0","STATFJORD B OIL PLATFORM, NO","FM-15","ENFB ","V020","040,1,N,0093,1","22000,1,9,N","011265,1,N,1","+0020,1","-0030,1","99999,9",,,"02,1,+00720,1,99,9",,,"02,99,1,99,9,99,9,99999,9,99,9,99,9","10190,1,99999,9",,"MET070METAR ENFB 250320Z AUTO 04018KT 9999NDV FEW024/// 02/M03 Q1019 W///S4;",
"01488199999","2010-12-25T03:50:00","4","61.206389","1.828889","142.0","STATFJORD B OIL PLATFORM, NO","FM-15","ENFB ","V020","040,1,N,0093,1","01380,1,9,N","011265,1,N,1","+0020,1","-0030,1","99999,9",,,"04,1,+00660,1,99,9","07,1,+01380,1,99,9",,"07,99,1,99,9,99,9,99999,9,99,9,99,9","10190,1,99999,9",,"MET080METAR ENFB 250350Z AUTO 04018KT 9999NDV SCT022/// BKN046/// 02/M03 Q1019 W///S4;",
"01488199999","2010-12-25T04:20:00","4","61.206389","1.828889","142.0","STATFJORD B OIL PLATFORM, NO","FM-15","ENFB ","V020","050,1,N,0098,1","00660,1,9,N","011265,1,N,1","+0020,1","-0020,1","99999,9","61,1",,"02,1,+00420,1,99,9","07,1,+00660,1,99,9",,"07,99,1,99,9,99,9,99999,9,99,9,99,9","10200,1,99999,9",,"MET084METAR ENFB 250420Z AUTO 05019KT 9999NDV -RA FEW014/// BKN022/// 02/M02 Q1020 W///S4;",
"01488199999","2010-12-25T04:50:00","4","61.206389","1.828889","142.0","STATFJORD B OIL PLATFORM, NO","FM-15","ENFB ","V020","040,1,N,0098,1","00540,1,9,N","001900,1,N,1","+0000,1","-0030,1","99999,9","71,1",,"08,1,+00540,1,99,9",,,"08,99,1,99,9,99,9,99999,9,99,9,99,9","10190,1,99999,9",,"MET074METAR ENFB 250450Z AUTO 04019KT 1900NDV -SN OVC018/// 00/M03 Q1019 W///S4;",
"01488199999","2010-12-25T05:20:00","4","61.206389","1.828889","142.0","STATFJORD B OIL PLATFORM, NO","FM-15","ENFB ","V020","040,1,N,0103,1","00480,1,9,N","011265,1,N,1","+0000,1","-0020,1","99999,9","74,1",,"07,1,+00480,1,99,9",,,"07,99,1,99,9,99,9,99999,9,99,9,99,9","10190,1,99999,9",,"MET074METAR ENFB 250520Z AUTO 04020KT 9999NDV -PL BKN016/// 00/M02 Q1019 W///S/;",
"01488199999","2010-12-25T05:50:00","4","61.206389","1.828889","142.0","STATFJORD B OIL PLATFORM, NO","FM-15","ENFB ","V020","060,1,N,0118,1","00510,1,9,N","011265,1,N,1","+0010,1","-0020,1","99999,9","67,1",,"08,1,+00510,1,99,9",,,"08,99,1,99,9,99,9,99999,9,99,9,99,9","10200,1,99999,9",,"MET076METAR ENFB 250550Z AUTO 06023KT 9999NDV -RASN OVC017/// 01/M02 Q1020 W///S/;",
"01488199999","2010-12-25T06:20:00","4","61.206389","1.828889","142.0","STATFJORD B OIL PLATFORM, NO","FM-15","ENFB ","V020","050,1,N,0113,1","00510,1,9,N","011265,1,N,1","+0010,1","-0010,1","99999,9","61,1",,"07,1,+00510,1,99,9",,,"07,99,1,99,9,99,9,99999,9,99,9,99,9","10190,1,99999,9",,"MET074METAR ENFB 250620Z AUTO 05022KT 9999NDV -RA BKN017/// 01/M01 Q1019 W///S4;",
"01488199999","2010-12-25T06:50:00","4","61.206389","1.828889","142.0","STATFJORD B OIL PLATFORM, NO","FM-15","ENFB ","V020","050,1,N,0113,1","00510,1,9,N","011265,1,N,1","+0010,1","-0010,1","99999,9","81,1",,"07,1,+00510,1,99,9","07,1,+01500,1,99,9",,"07,99,1,99,9,99,9,99999,9,99,9,99,9","10200,1,99999,9",,"MET086METAR ENFB 250650Z AUTO 05022KT 9999NDV -SHRA BKN017/// BKN053/// 01/M01 Q1020 W///S4;",
"01488199999","2010-12-25T07:20:00","4","61.206389","1.828889","142.0","STATFJORD B OIL PLATFORM, NO","FM-15","ENFB ","V020","050,1,N,0108,1","00900,1,9,N","011265,1,N,1","+0010,1","-0020,1","99999,9","81,1",,"07,1,+00900,1,99,9",,,"07,99,1,99,9,99,9,99999,9,99,9,99,9","10200,1,99999,9",,"MET076METAR ENFB 250720Z AUTO 05021KT 9999NDV -SHRA BKN030/// 01/M02 Q1020 W///S4;",
"01488199999","2010-12-25T07:50:00","4","61.206389","1.828889","142.0","STATFJORD B OIL PLATFORM, NO","FM-15","ENFB ","V020","050,1,N,0108,1","01200,1,9,N","011265,1,N,1","+0010,1","-0020,1","99999,9","81,1",,"07,1,+01200,1,99,9",,,"07,99,1,99,9,99,9,99999,9,99,9,99,9","10200,1,99999,9",,"MET076METAR ENFB 250750Z AUTO 05021KT 9999NDV -SHRA BKN040/// 01/M02 Q1020 W///S4;",
"01488199999","2010-12-25T08:20:00","4","61.206389","1.828889","142.0","STATFJORD B OIL PLATFORM, NO","FM-15","ENFB ","V020","050,1,N,0108,1","00720,1,9,N","011265,1,N,1","+0020,1","-0020,1","99999,9","81,1",,"07,1,+00720,1,99,9",,,"07,99,1,99,9,99,9,99999,9,99,9,99,9","10200,1,99999,9",,"MET076METAR ENFB 250820Z AUTO 05021KT 9999NDV -SHRA BKN024/// 02/M02 Q1020 W///S4;",
"01488199999","2010-12-25T08:50:00","4","61.206389","1.828889","142.0","STATFJORD B OIL PLATFORM, NO","FM-15","ENFB ","V020","060,1,N,0103,1","00660,1,9,N","011265,1,N,1","+0020,1","-0020,1","99999,9",,,"07,1,+00660,1,99,9",,,"07,99,1,99,9,99,9,99999,9,99,9,99,9","10210,1,99999,9",,"MET070METAR ENFB 250850Z AUTO 06020KT 9999NDV BKN022/// 02/M02 Q1021 W///S4;",
"01488199999","2010-12-25T09:20:00","4","61.206389","1.828889","142.0","STATFJORD B OIL PLATFORM, NO","FM-15","ENFB ","V020","070,1,N,0103,1","01500,1,9,N","011265,1,N,1","+0020,1","-0020,1","99999,9",,,"02,1,+00510,1,99,9","07,1,+01500,1,99,9",,"07,99,1,99,9,99,9,99999,9,99,9,99,9","10210,1,99999,9",,"MET080METAR ENFB 250920Z AUTO 07020KT 9999NDV FEW017/// BKN051/// 02/M02 Q1021 W///S4;",
"01488199999","2010-12-25T09:50:00","4","61.206389","1.828889","142.0","STATFJORD B OIL PLATFORM, NO","FM-15","ENFB ","V020","070,1,N,0108,1","01500,1,9,N","011265,1,N,1","+0010,1","-0030,1","99999,9",,,"02,1,+00600,1,99,9","07,1,+01500,1,99,9",,"07,99,1,99,9,99,9,99999,9,99,9,99,9","10210,1,99999,9",,"MET080METAR ENFB 250950Z AUTO 07021KT 9999NDV FEW020/// BKN053/// 01/M03 Q1021 W///S/;",
"01488199999","2010-12-25T10:20:00","4","61.206389","1.828889","142.0","STATFJORD B OIL PLATFORM, NO","FM-15","ENFB ","V020","060,1,N,0093,1","01470,1,9,N","011265,1,N,1","+0020,1","-0030,1","99999,9",,,"04,1,+00720,1,99,9","07,1,+01470,1,99,9",,"07,99,1,99,9,99,9,99999,9,99,9,99,9","10210,1,99999,9",,"MET080METAR ENFB 251020Z AUTO 06018KT 9999NDV SCT024/// BKN049/// 02/M03 Q1021 W///S/;",
"01488199999","2010-12-25T10:50:00","4","61.206389","1.828889","142.0","STATFJORD B OIL PLATFORM, NO","FM-15","ENFB ","V020","050,1,N,0082,1","01800,1,9,N","011265,1,N,1","+0020,1","-0030,1","99999,9",,,"02,1,+00750,1,99,9","07,1,+01800,1,99,9",,"07,99,1,99,9,99,9,99999,9,99,9,99,9","10210,1,99999,9",,"MET080METAR ENFB 251050Z AUTO 05016KT 9999NDV FEW025/// BKN060/// 02/M03 Q1021 W///S/;",
"01488199999","2010-12-25T11:20:00","4","61.206389","1.828889","142.0","STATFJORD B OIL PLATFORM, NO","FM-15","ENFB ","V020","050,1,N,0077,1","01500,1,9,N","011265,1,N,1","+0020,1","-0030,1","99999,9",,,"02,1,+00750,1,99,9","07,1,+01500,1,99,9",,"07,99,1,99,9,99,9,99999,9,99,9,99,9","10210,1,99999,9",,"MET080METAR ENFB 251120Z AUTO 05015KT 9999NDV FEW025/// BKN051/// 02/M03 Q1021 W///S4;",
"01488199999","2010-12-25T11:50:00","4","61.206389","1.828889","142.0","STATFJORD B OIL PLATFORM, NO","FM-15","ENFB ","V020","060,1,N,0082,1","01140,1,9,N","011265,1,N,1","+0020,1","-0020,1","99999,9",,,"04,1,+00600,1,99,9","07,1,+01140,1,99,9",,"07,99,1,99,9,99,9,99999,9,99,9,99,9","10210,1,99999,9",,"MET080METAR ENFB 251150Z AUTO 06016KT 9999NDV SCT020/// BKN038/// 02/M02 Q1021 W///S4;",
"01488199999","2010-12-25T12:20:00","4","61.206389","1.828889","142.0","STATFJORD B OIL PLATFORM, NO","FM-15","ENFB ","V020","060,1,N,0082,1","22000,1,9,N","011265,1,N,1","+0020,1","-0030,1","99999,9",,,"02,1,+00600,1,99,9","04,1,+01140,1,99,9",,"04,99,1,99,9,99,9,99999,9,99,9,99,9","10210,1,99999,9",,"MET080METAR ENFB 251220Z AUTO 06016KT 9999NDV FEW020/// SCT038/// 02/M03 Q1021 W///S4;",
"01488199999","2010-12-25T12:50:00","4","61.206389","1.828889","142.0","STATFJORD B OIL PLATFORM, NO","FM-15","ENFB ","V020","050,1,N,0082,1","22000,1,9,N","011265,1,N,1","+0020,1","-0020,1","99999,9",,,"04,1,+00690,1,99,9",,,"04,99,1,99,9,99,9,99999,9,99,9,99,9","10210,1,99999,9",,"MET070METAR ENFB 251250Z AUTO 05016KT 9999NDV SCT023/// 02/M02 Q1021 W///S4;",
"01488199999","2010-12-25T13:20:00","4","61.206389","1.828889","142.0","STATFJORD B OIL PLATFORM, NO","FM-15","ENFB ","V020","040,1,N,0082,1","00630,1,9,N","011265,1,N,1","+0020,1","-0030,1","99999,9",,,"07,1,+00630,1,99,9",,,"07,99,1,99,9,99,9,99999,9,99,9,99,9","10210,1,99999,9",,"MET070METAR ENFB 251320Z AUTO 04016KT 9999NDV BKN021/// 02/M03 Q1021 W///S4;",
"01488199999","2010-12-25T13:50:00","4","61.206389","1.828889","142.0","STATFJORD B OIL PLATFORM, NO","FM-15","ENFB ","V020","040,1,N,0082,1","00720,1,9,N","011265,1,N,1","+0020,1","-0030,1","99999,9",,,"07,1,+00720,1,99,9",,,"07,99,1,99,9,99,9,99999,9,99,9,99,9","10210,1,99999,9",,"MET070METAR ENFB 251350Z AUTO 04016KT 9999NDV BKN024/// 02/M03 Q1021 W///S4;",
"01488199999","2010-12-25T14:20:00","4","61.206389","1.828889","142.0","STATFJORD B OIL PLATFORM, NO","FM-15","ENFB ","V020","040,1,N,0082,1","01500,1,9,N","011265,1,N,1","+0020,1","-0030,1","99999,9",,,"02,1,+00720,1,99,9","07,1,+01500,1,99,9",,"07,99,1,99,9,99,9,99999,9,99,9,99,9","10210,1,99999,9",,"MET080METAR ENFB 251420Z AUTO 04016KT 9999NDV FEW024/// BKN055/// 02/M03 Q1021 W///S4;",
"01488199999","2010-12-25T14:50:00","4","61.206389","1.828889","142.0","STATFJORD B OIL PLATFORM, NO","FM-15","ENFB ","V020","030,1,N,0082,1","22000,1,9,N","011265,1,N,1","+0010,1","-0040,1","99999,9",,,"02,1,+00720,1,99,9",,,"02,99,1,99,9,99,9,99999,9,99,9,99,9","10210,1,99999,9",,"MET070METAR ENFB 251450Z AUTO 03016KT 9999NDV FEW024/// 01/M04 Q1021 W///S4;",
"01488199999","2010-12-25T15:20:00","4","61.206389","1.828889","142.0","STATFJORD B OIL PLATFORM, NO","FM-15","ENFB ","V020","030,1,N,0093,1","22000,1,9,N","011265,1,N,1","+0010,1","-0030,1","99999,9",,,"02,1,+00690,1,99,9","04,1,+01500,1,99,9",,"04,99,1,99,9,99,9,99999,9,99,9,99,9","10210,1,99999,9",,"MET080METAR ENFB 251520Z AUTO 03018KT 9999NDV FEW023/// SCT050/// 01/M03 Q1021 W///S4;",
"01488199999","2010-12-25T15:50:00","4","61.206389","1.828889","142.0","STATFJORD B OIL PLATFORM, NO","FM-15","ENFB ","V020","030,1,N,0098,1","01500,1,9,N","011265,1,N,1","+0010,1","-0040,1","99999,9",,,"04,1,+00690,1,99,9","07,1,+01500,1,99,9",,"07,99,1,99,9,99,9,99999,9,99,9,99,9","10200,1,99999,9",,"MET080METAR ENFB 251550Z AUTO 03019KT 9999NDV SCT023/// BKN050/// 01/M04 Q1020 W///S4;",
"01488199999","2010-12-25T16:20:00","4","61.206389","1.828889","142.0","STATFJORD B OIL PLATFORM, NO","FM-15","ENFB ","V020","030,1,N,0098,1","00630,1,9,N","011265,1,N,1","+0010,1","-0030,1","99999,9","51,1",,"07,1,+00630,1,99,9",,,"07,99,1,99,9,99,9,99999,9,99,9,99,9","10200,1,99999,9",,"MET074METAR ENFB 251620Z AUTO 03019KT 9999NDV -DZ BKN021/// 01/M03 Q1020 W///S4;",
"01488199999","2010-12-25T16:50:00","4","61.206389","1.828889","142.0","STATFJORD B OIL PLATFORM, NO","FM-15","ENFB ","V020","020,1,N,0103,1","00600,1,9,N","011265,1,N,1","+0010,1","-0030,1","99999,9","81,1",,"07,1,+00600,1,99,9","07,1,+01500,1,99,9",,"07,99,1,99,9,99,9,99999,9,99,9,99,9","10210,1,99999,9",,"MET086METAR ENFB 251650Z AUTO 02020KT 9999NDV -SHRA BKN020/// BKN053/// 01/M03 Q1021 W///S4;",
"01488199999","2010-12-25T17:20:00","4","61.206389","1.828889","142.0","STATFJORD B OIL PLATFORM, NO","FM-15","ENFB ","V020","030,1,N,0113,1","00210,1,9,N","001200,1,N,1","-0010,1","-0020,1","99999,9","71,1",,"07,1,+00210,1,99,9",,,"07,99,1,99,9,99,9,99999,9,99,9,99,9","10210,1,99999,9",,"MET075METAR ENFB 251720Z AUTO 03022KT 1200NDV -SN BKN007/// M01/M02 Q1021 W///S4;",
"01488199999","2010-12-25T17:50:00","4","61.206389","1.828889","142.0","STATFJORD B OIL PLATFORM, NO","FM-15","ENFB ","V020","020,1,N,0108,1","22000,1,9,N","000600,1,N,1","-0010,1","-0020,1","99999,9","72,1",,,,,"00,99,1,99,9,99,9,99999,9,99,9,99,9","10210,1,99999,9",,"MET068METAR ENFB 251750Z AUTO 02021KT 0600NDV SN NCD M01/M02 Q1021 W///S4;","Q01    003SCCGA1"
"01488199999","2010-12-25T18:20:00","4","61.206389","1.828889","142.0","STATFJORD B OIL PLATFORM, NO","FM-15","ENFB ","V020","020,1,N,0093,1","22000,1,9,N","000800,1,N,1","-0010,1","-0010,1","99999,9","10,1","72,1",,,,"00,99,1,99,9,99,9,99999,9,99,9,99,9","10210,1,99999,9",,"MET071METAR ENFB 251820Z AUTO 02018KT 0800NDV SN BR NCD M01/M01 Q1021 W///S4;","Q01    003SCCGA1"
"01488199999","2010-12-25T18:50:00","4","61.206389","1.828889","142.0","STATFJORD B OIL PLATFORM, NO","FM-15","ENFB ","V020","100,1,N,0087,1","00150,1,9,N","011265,1,N,1","+0000,1","+0000,1","99999,9","67,1",,"07,1,+00150,1,99,9",,,"07,99,1,99,9,99,9,99999,9,99,9,99,9","10210,1,99999,9",,"MET075METAR ENFB 251850Z AUTO 10017KT 9999NDV -RASN BKN005/// 00/00 Q1021 W///S4;",
"01488199999","2010-12-25T19:20:00","4","61.206389","1.828889","142.0","STATFJORD B OIL PLATFORM, NO","FM-15","ENFB ","V020","110,1,N,0098,1","00540,1,9,N","011265,1,N,1","+0000,1","+0000,1","99999,9","61,1",,"08,1,+00540,1,99,9",,,"08,99,1,99,9,99,9,99999,9,99,9,99,9","10210,1,99999,9",,"MET073METAR ENFB 251920Z AUTO 11019KT 9999NDV -RA OVC018/// 00/00 Q1021 W///S4;",
"01488199999","2010-12-25T19:50:00","4","61.206389","1.828889","142.0","STATFJORD B OIL PLATFORM, NO","FM-15","ENFB ","V020","110,1,N,0098,1","00570,1,9,N","011265,1,N,1","+0010,1","+0010,1","99999,9","81,1",,"07,1,+00570,1,99,9",,,"07,99,1,99,9,99,9,99999,9,99,9,99,9","10210,1,99999,9",,"MET075METAR ENFB 251950Z AUTO 11019KT 9999NDV -SHRA BKN019/// 01/01 Q1021 W///S4;",
"01488199999","2010-12-25T20:20:00","4","61.206389","1.828889","142.0","STATFJORD B OIL PLATFORM, NO","FM-15","ENFB ","V020","110,1,N,0093,1","01290,1,9,N","011265,1,N,1","+0010,1","+0010,1","99999,9",,,"02,1,+00720,1,99,9","07,1,+01290,1,99,9",,"07,99,1,99,9,99,9,99999,9,99,9,99,9","10210,1,99999,9",,"MET079METAR ENFB 252020Z AUTO 11018KT 9999NDV FEW024/// BKN043/// 01/01 Q1021 W///S4;",
"01488199999","2010-12-25T20:50:00","4","61.206389","1.828889","142.0","STATFJORD B OIL PLATFORM, NO","FM-15","ENFB ","V020","110,1,N,0108,1","00660,1,9,N","011265,1,N,1","+0020,1","+0010,1","99999,9","81,1",,"08,1,+00660,1,99,9",,,"08,99,1,99,9,99,9,99999,9,99,9,99,9","10210,1,99999,9",,"MET075METAR ENFB 252050Z AUTO 11021KT 9999NDV -SHRA OVC022/// 02/01 Q1021 W///S4;",
"01488199999","2010-12-25T21:20:00","4","61.206389","1.828889","142.0","STATFJORD B OIL PLATFORM, NO","FM-15","ENFB ","V020","120,1,N,0134,1","00690,1,9,N","011265,1,N,1","+0020,1","+0010,1","99999,9",,,"07,1,+00690,1,99,9",,,"07,99,1,99,9,99,9,99999,9,99,9,99,9","10210,1,99999,9",,"MET069METAR ENFB 252120Z AUTO 12026KT 9999NDV BKN023/// 02/01 Q1021 W///S4;",
"01488199999","2010-12-25T21:50:00","4","61.206389","1.828889","142.0","STATFJORD B OIL PLATFORM, NO","FM-15","ENFB ","V020","120,1,N,0134,1","01500,1,9,N","011265,1,N,1","+0020,1","+0010,1","99999,9",,,"02,1,+00510,1,99,9","07,1,+01500,1,99,9",,"07,99,1,99,9,99,9,99999,9,99,9,99,9","10210,1,99999,9",,"MET079METAR ENFB 252150Z AUTO 12026KT 9999NDV FEW017/// BKN053/// 02/01 Q1021 W///S4;",
"01488199999","2010-12-25T22:20:00","4","61.206389","1.828889","142.0","STATFJORD B OIL PLATFORM, NO","FM-15","ENFB ","V020","120,1,N,0123,1","01500,1,9,N","011265,1,N,1","+0020,1","+0010,1","99999,9",,,"02,1,+00480,1,99,9","07,1,+01500,1,99,9",,"07,99,1,99,9,99,9,99999,9,99,9,99,9","10220,1,99999,9",,"MET079METAR ENFB 252220Z AUTO 12024KT 9999NDV FEW016/// BKN054/// 02/01 Q1022 W///S4;",
"01488199999","2010-12-25T22:50:00","4","61.206389","1.828889","142.0","STATFJORD B OIL PLATFORM, NO","FM-15","ENFB ","V020","110,1,N,0113,1","01500,1,9,N","011265,1,N,1","+0020,1","+0010,1","99999,9",,,"04,1,+00540,1,99,9","07,1,+01500,1,99,9",,"07,99,1,99,9,99,9,99999,9,99,9,99,9","10220,1,99999,9",,"MET079METAR ENFB 252250Z AUTO 11022KT 9999NDV SCT018/// BKN055/// 02/01 Q1022 W///S4;",
"01488199999","2010-12-25T23:20:00","4","61.206389","1.828889","142.0","STATFJORD B OIL PLATFORM, NO","FM-15","ENFB ","V020","110,1,N,0093,1","01500,1,9,N","011265,1,N,1","+0020,1","+0010,1","99999,9",,,"02,1,+00570,1,99,9","07,1,+01500,1,99,9",,"07,99,1,99,9,99,9,99999,9,99,9,99,9","10220,1,99999,9",,"MET079METAR ENFB 252320Z AUTO 11018KT 9999NDV FEW019/// BKN051/// 02/01 Q1022 W///S4;",
"01488199999","2010-12-25T23:50:00","4","61.206389","1.828889","142.0","STATFJORD B OIL PLATFORM, NO","FM-15","ENFB ","V020","110,1,N,0093,1","00750,1,9,N","011265,1,N,1","+0020,1","+0010,1","99999,9","61,1",,"07,1,+00750,1,99,9","07,1,+01500,1,99,9",,"07,99,1,99,9,99,9,99999,9,99,9,99,9","10230,1,99999,9",,"MET083METAR ENFB 252350Z AUTO 11018KT 9999NDV -RA BKN025/// BKN059/// 02/01 Q1023 W///S4;",
"01488199999","2010-12-26T00:20:00","4","61.206389","1.828889","142.0","STATFJORD B OIL PLATFORM, NO","FM-15","ENFB ","V020","110,1,N,0098,1","00690,1,9,N","011265,1,N,1","+0020,1","+0000,1","99999,9","81,1",,"07,1,+00690,1,99,9",,,"07,99,1,99,9,99,9,99999,9,99,9,99,9","10230,1,99999,9",,"MET075METAR ENFB 260020Z AUTO 11019KT 9999NDV -SHRA BKN023/// 02/00 Q1023 W///S4;",
"01488199999","2010-12-26T00:50:00","4","61.206389","1.828889","142.0","STATFJORD B OIL PLATFORM, NO","FM-15","ENFB ","V020","110,1,N,0093,1","01500,1,9,N","011265,1,N,1","+0020,1","-0010,1","99999,9",,,"02,1,+00960,1,99,9","07,1,+01500,1,99,9",,"07,99,1,99,9,99,9,99999,9,99,9,99,9","10230,1,99999,9",,"MET080METAR ENFB 260050Z AUTO 11018KT 9999NDV FEW032/// BKN051/// 02/M01 Q1023 W///S4;",
"01488199999","2010-12-26T01:20:00","4","61.206389","1.828889","142.0","STATFJORD B OIL PLATFORM, NO","FM-15","ENFB ","V020","110,1,N,0087,1","01500,1,9,N","011265,1,N,1","+0020,1","-0020,1","99999,9",,,"07,1,+01500,1,99,9",,,"07,99,1,99,9,99,9,99999,9,99,9,99,9","10230,1,99999,9",,"MET070METAR ENFB 260120Z AUTO 11017KT 9999NDV BKN056/// 02/M02 Q1023 W///S4;",
"01488199999","2010-12-26T01:50:00","4","61.206389","1.828889","142.0","STATFJORD B OIL PLATFORM, NO","FM-15","ENFB ","V020","100,1,N,0067,1","01800,1,9,N","011265,1,N,1","+0020,1","-0040,1","99999,9",,,"02,1,+00780,1,99,9","07,1,+01800,1,99,9",,"07,99,1,99,9,99,9,99999,9,99,9,99,9","10230,1,99999,9",,"MET080METAR ENFB 260150Z AUTO 10013KT 9999NDV FEW026/// BKN061/// 02/M04 Q1023 W///S4;",
"01488199999","2010-12-26T02:20:00","4","61.206389","1.828889","142.0","STATFJORD B OIL PLATFORM, NO","FM-15","ENFB ","V020","100,1,N,0077,1","01800,1,9,N","011265,1,N,1","+0020,1","-0040,1","99999,9",,,"04,1,+00840,1,99,9","07,1,+01800,1,99,9",,"07,99,1,99,9,99,9,99999,9,99,9,99,9","10230,1,99999,9",,"MET080METAR ENFB 260220Z AUTO 10015KT 9999NDV SCT028/// BKN060/// 02/M04 Q1023 W///S4;",
"01488199999","2010-12-26T02:50:00","4","61.206389","1.828889","142.0","STATFJORD B OIL PLATFORM, NO","FM-15","ENFB ","V020","090,1,N,0062,1","01800,1,9,N","011265,1,N,1","+0020,1","-0040,1","99999,9",,,"02,1,+00810,1,99,9","07,1,+01800,1,99,9",,"07,99,1,99,9,99,9,99999,9,99,9,99,9","10230,1,99999,9",,"MET080METAR ENFB 260250Z AUTO 09012KT 9999NDV FEW027/// BKN060/// 02/M04 Q1023 W///S4;",
"01488199999","2010-12-26T03:20:00","4","61.206389","1.828889","142.0","STATFJORD B OIL PLATFORM, NO","FM-15","ENFB ","V020","100,1,N,0062,1","01500,1,9,N","011265,1,N,1","+0010,1","-0050,1","99999,9",,,"02,1,+00840,1,99,9","07,1,+01500,1,99,9",,"07,99,1,99,9,99,9,99999,9,99,9,99,9","10230,1,99999,9",,"MET080METAR ENFB 260320Z AUTO 10012KT 9999NDV FEW028/// BKN058/// 01/M05 Q1023 W///S4;",
"01488199999","2010-12-26T03:50:00","4","61.206389","1.828889","142.0","STATFJORD B OIL PLATFORM, NO","FM-15","ENFB ","V020","100,1,N,0057,1","01500,1,9,N","011265,1,N,1","+0010,1","-0050,1","99999,9",,,"02,1,+00870,1,99,9","07,1,+01500,1,99,9",,"07,99,1,99,9,99,9,99999,9,99,9,99,9","10230,1,99999,9",,"MET080METAR ENFB 260350Z AUTO 10011KT 9999NDV FEW029/// BKN057/// 01/M05 Q1023 W///S4;",
"01488199999","2010-12-26T04:20:00","4","61.206389","1.828889","142.0","STATFJORD B OIL PLATFORM, NO","FM-15","ENFB ","V020","100,1,N,0051,1","01500,1,9,N","011265,1,N,1","+0010,1","-0050,1","99999,9",,,"07,1,+01500,1,99,9",,,"07,99,1,99,9,99,9,99999,9,99,9,99,9","10230,1,99999,9",,"MET070METAR ENFB 260420Z AUTO 10010KT 9999NDV BKN055/// 01/M05 Q1023 W///S4;",
"01488199999","2010-12-26T04:50:00","4","61.206389","1.828889","142.0","STATFJORD B OIL PLATFORM, NO","FM-15","ENFB ","V020","080,1,N,0051,1","00990,1,9,N","011265,1,N,1","+0020,1","-0050,1","99999,9",,,"07,1,+00990,1,99,9",,,"07,99,1,99,9,99,9,99999,9,99,9,99,9","10230,1,99999,9",,"MET070METAR ENFB 260450Z AUTO 08010KT 9999NDV BKN033/// 02/M05 Q1023 W///S3;",
"01488199999","2010-12-26T05:20:00","4","61.206389","1.828889","142.0","STATFJORD B OIL PLATFORM, NO","FM-15","ENFB ","V020","080,1,N,0051,1","01500,1,9,N","011265,1,N,1","+0020,1","-0040,1","99999,9",,,"02,1,+00900,1,99,9","07,1,+01500,1,99,9",,"07,99,1,99,9,99,9,99999,9,99,9,99,9","10230,1,99999,9",,"MET088METAR ENFB 260520Z AUTO 08010KT 050V110 9999NDV FEW030/// BKN051/// 02/M04 Q1023 W///S4;",
"01488199999","2010-12-26T05:50:00","4","61.206389","1.828889","142.0","STATFJORD B OIL PLATFORM, NO","FM-15","ENFB ","V020","070,1,N,0062,1","01500,1,9,N","011265,1,N,1","+0020,1","-0040,1","99999,9",,,"02,1,+00840,1,99,9","07,1,+01500,1,99,9",,"07,99,1,99,9,99,9,99999,9,99,9,99,9","10230,1,99999,9",,"MET080METAR ENFB 260550Z AUTO 07012KT 9999NDV FEW028/// BKN050/// 02/M04 Q1023 W///S3;",
"01488199999","2010-12-26T06:20:00","4","61.206389","1.828889","142.0","STATFJORD B OIL PLATFORM, NO","FM-15","ENFB ","V020","060,1,N,0057,1","01500,1,9,N","011265,1,N,1","+0020,1","-0040,1","99999,9",,,"07,1,+01500,1,99,9",,,"07,99,1,99,9,99,9,99999,9,99,9,99,9","10230,1,99999,9",,"MET070METAR ENFB 260620Z AUTO 06011KT 9999NDV BKN052/// 02/M04 Q1023 W///S3;",
"01488199999","2010-12-26T06:50:00","4","61.206389","1.828889","142.0","STATFJORD B OIL PLATFORM, NO","FM-15","ENFB ","V020","050,1,N,0057,1","22000,1,9,N","011265,1,N,1","+0020,1","-0040,1","99999,9",,,"04,1,+01500,1,99,9",,,"04,99,1,99,9,99,9,99999,9,99,9,99,9","10230,1,99999,9",,"MET070METAR ENFB 260650Z AUTO 05011KT 9999NDV SCT051/// 02/M04 Q1023 W///S3;",
"01488199999","2010-12-26T07:20:00","4","61.206389","1.828889","142.0","STATFJORD B OIL PLATFORM, NO","FM-15","ENFB ","V020","060,1,N,0046,1","22000,1,9,N","011265,1,N,1","+0020,1","-0050,1","99999,9",,,,,,"00,99,1,99,9,99,9,99999,9,99,9,99,9","10230,1,99999,9",,"MET064METAR ENFB 260720Z AUTO 06009KT 9999NDV NCD 02/M05 Q1023 W///S3;","Q01    003SCCGA1"
"01488199999","2010-12-26T07:50:00","4","61.206389","1.828889","142.0","STATFJORD B OIL PLATFORM, NO","FM-15","ENFB ","V020","060,1,N,0051,1","22000,1,9,N","011265,1,N,1","+0020,1","-0050,1","99999,9",,,"02,1,+00870,1,99,9",,,"02,99,1,99,9,99,9,99999,9,99,9,99,9","10230,1,99999,9",,"MET070METAR ENFB 260750Z AUTO 06010KT 9999NDV FEW029/// 02/M05 Q1023 W///S3;",
"01488199999","2010-12-26T08:20:00","4","61.206389","1.828889","142.0","STATFJORD B OIL PLATFORM, NO","FM-15","ENFB ","V020","070,1,N,0051,1","22000,1,9,N","011265,1,N,1","+0010,1","-0060,1","99999,9",,,,,,"00,99,1,99,9,99,9,99999,9,99,9,99,9","10230,1,99999,9",,"MET064METAR ENFB 260820Z AUTO 07010KT 9999NDV NCD 01/M06 Q1023 W///S3;","Q01    003SCCGA1"
"01488199999","2010-12-26T08:50:00","4","61.206389","1.828889","142.0","STATFJORD B OIL PLATFORM, NO","FM-15","ENFB ","V020","070,1,N,0057,1","22000,1,9,N","011265,1,N,1","+0020,1","-0060,1","99999,9",,,,,,"00,99,1,99,9,99,9,99999,9,99,9,99,9","10230,1,99999,9",,"MET064METAR ENFB 260850Z AUTO 07011KT 9999NDV NCD 02/M06 Q1023 W///S3;","Q01    003SCCGA1"
"01488199999","2010-12-26T09:20:00","4","61.206389","1.828889","142.0","STATFJORD B OIL PLATFORM, NO","FM-15","ENFB ","V020","070,1,N,0057,1","22000,1,9,N","011265,1,N,1","+0020,1","-0050,1","99999,9",,,,,,"00,99,1,99,9,99,9,99999,9,99,9,99,9","10230,1,99999,9",,"MET064METAR ENFB 260920Z AUTO 07011KT 9999NDV NCD 02/M05 Q1023 W///S3;","Q01    003SCCGA1"
"01488199999","2010-12-26T09:50:00","4","61.206389","1.828889","142.0","STATFJORD B OIL PLATFORM, NO","FM-15","ENFB ","V020","080,1,N,0051,1","22000,1,9,N","011265,1,N,1","+0020,1","-0050,1","99999,9",,,,,,"00,99,1,99,9,99,9,99999,9,99,9,99,9","10230,1,99999,9",,"MET064METAR ENFB 260950Z AUTO 08010KT 9999NDV NCD 02/M05 Q1023 W///S3;","Q01    003SCCGA1"
"01488199999","2010-12-26T10:20:00","4","61.206389","1.828889","142.0","STATFJORD B OIL PLATFORM, NO","FM-15","ENFB ","V020","070,1,N,0051,1","22000,1,9,N","011265,1,N,1","+0020,1","-0050,1","99999,9",,,,,,"00,99,1,99,9,99,9,99999,9,99,9,99,9","10230,1,99999,9",,"MET064METAR ENFB 261020Z AUTO 07010KT 9999NDV NCD 02/M05 Q1023 W///S3;","Q01    003SCCGA1"
"01488199999","2010-12-26T10:50:00","4","61.206389","1.828889","142.0","STATFJORD B OIL PLATFORM, NO","FM-15","ENFB ","V020","070,1,N,0041,1","22000,1,9,N","011265,1,N,1","+0020,1","-0050,1","99999,9",,,,,,"00,99,1,99,9,99,9,99999,9,99,9,99,9","10230,1,99999,9",,"MET064METAR ENFB 261050Z AUTO 07008KT 9999NDV NCD 02/M05 Q1023 W///S3;","Q01    003SCCGA1"
"01488199999","2010-12-26T11:20:00","4","61.206389","1.828889","142.0","STATFJORD B OIL PLATFORM, NO","FM-15","ENFB ","V020","060,1,N,0036,1","22000,1,9,N","011265,1,N,1","+0020,1","-0050,1","99999,9",,,"02,1,+00870,1,99,9",,,"02,99,1,99,9,99,9,99999,9,99,9,99,9","10230,1,99999,9",,"MET070METAR ENFB 261120Z AUTO 06007KT 9999NDV FEW029/// 02/M05 Q1023 W///S3;",
"01488199999","2010-12-26T11:50:00","4","61.206389","1.828889","142.0","STATFJORD B OIL PLATFORM, NO","FM-15","ENFB ","V020","070,1,N,0041,1","22000,1,9,N","011265,1,N,1","+0020,1","-0040,1","99999,9",,,"02,1,+00780,1,99,9",,,"02,99,1,99,9,99,9,99999,9,99,9,99,9","10230,1,99999,9",,"MET070METAR ENFB 261150Z AUTO 07008KT 9999NDV FEW026/// 02/M04 Q1023 W///S3;",
"01488199999","2010-12-26T12:20:00","4","61.206389","1.828889","142.0","STATFJORD B OIL PLATFORM, NO","FM-15","ENFB ","V020","070,1,N,0036,1","22000,1,9,N","011265,1,N,1","+0020,1","-0040,1","99999,9",,,"02,1,+00780,1,99,9",,,"02,99,1,99,9,99,9,99999,9,99,9,99,9","10230,1,99999,9",,"MET070METAR ENFB 261220Z AUTO 07007KT 9999NDV FEW026/// 02/M04 Q1023 W///S3;",
"01488199999","2010-12-26T12:50:00","4","61.206389","1.828889","142.0","STATFJORD B OIL PLATFORM, NO","FM-15","ENFB ","V020","090,1,N,0031,1","22000,1,9,N","011265,1,N,1","+0020,1","-0040,1","99999,9",,,"04,1,+00780,1,99,9",,,"04,99,1,99,9,99,9,99999,9,99,9,99,9","10220,1,99999,9",,"MET070METAR ENFB 261250Z AUTO 09006KT 9999NDV SCT026/// 02/M04 Q1022 W///S3;",
"01488199999","2010-12-26T13:20:00","4","61.206389","1.828889","142.0","STATFJORD B OIL PLATFORM, NO","FM-15","ENFB ","V020","070,1,N,0036,1","22000,1,9,N","011265,1,N,1","+0020,1","-0050,1","99999,9",,,"02,1,+00810,1,99,9",,,"02,99,1,99,9,99,9,99999,9,99,9,99,9","10220,1,99999,9",,"MET070METAR ENFB 261320Z AUTO 07007KT 9999NDV FEW027/// 02/M05 Q1022 W///S3;",
"01488199999","2010-12-26T13:50:00","4","61.206389","1.828889","142.0","STATFJORD B OIL PLATFORM, NO","FM-15","ENFB ","V020","060,1,N,0031,1","22000,1,9,N","011265,1,N,1","+0020,1","-0040,1","99999,9",,,"02,1,+00870,1,99,9",,,"02,99,1,99,9,99,9,99999,9,99,9,99,9","10220,1,99999,9",,"MET078METAR ENFB 261350Z AUTO 06006KT 040V100 9999NDV FEW029/// 02/M04 Q1022 W///S3;",
"01488199999","2010-12-26T14:20:00","4","61.206389","1.828889","142.0","STATFJORD B OIL PLATFORM, NO","FM-15","ENFB ","V020","080,1,N,0026,1","22000,1,9,N","011265,1,N,1","+0020,1","-0050,1","99999,9",,,,,,"00,99,1,99,9,99,9,99999,9,99,9,99,9","10220,1,99999,9",,"MET064METAR ENFB 261420Z AUTO 08005KT 9999NDV NCD 02/M05 Q1022 W///S3;","Q01    003SCCGA1"
"01488199999","2010-12-26T14:50:00","4","61.206389","1.828889","142.0","STATFJORD B OIL PLATFORM, NO","FM-15","ENFB ","V020","080,1,N,0036,1","22000,1,9,N","011265,1,N,1","+0020,1","-0040,1","99999,9",,,,,,"00,99,1,99,9,99,9,99999,9,99,9,99,9","10220,1,99999,9",,"MET064METAR ENFB 261450Z AUTO 08007KT 9999NDV NCD 02/M04 Q1022 W///S3;","Q01    003SCCGA1"
"01488199999","2010-12-26T15:20:00","4","61.206389","1.828889","142.0","STATFJORD B OIL PLATFORM, NO","FM-15","ENFB ","V020","090,1,N,0036,1","00780,1,9,N","011265,1,N,1","+0020,1","-0040,1","99999,9",,,"07,1,+00780,1,99,9",,,"07,99,1,99,9,99,9,99999,9,99,9,99,9","10210,1,99999,9",,"MET078METAR ENFB 261520Z AUTO 09007KT 040V110 9999NDV BKN026/// 02/M04 Q1021 W///S3;",
"01488199999","2010-12-26T15:50:00","4","61.206389","1.828889","142.0","STATFJORD B OIL PLATFORM, NO","FM-15","ENFB ","V020","090,1,N,0041,1","00750,1,9,N","011265,1,N,1","+0020,1","-0040,1","99999,9",,,"07,1,+00750,1,99,9",,,"07,99,1,99,9,99,9,99999,9,99,9,99,9","10210,1,99999,9",,"MET070METAR ENFB 261550Z AUTO 09008KT 9999NDV BKN025/// 02/M04 Q1021 W///S3;",
"01488199999","2010-12-26T16:20:00","4","61.206389","1.828889","142.0","STATFJORD B OIL PLATFORM, NO","FM-15","ENFB ","V020","090,1,N,0041,1","00750,1,9,N","011265,1,N,1","+0020,1","-0030,1","99999,9",,,"07,1,+00750,1,99,9",,,"07,99,1,99,9,99,9,99999,9,99,9,99,9","10210,1,99999,9",,"MET070METAR ENFB 261620Z AUTO 09008KT 9999NDV BKN025/// 02/M03 Q1021 W///S3;",
"01488199999","2010-12-26T16:50:00","4","61.206389","1.828889","142.0","STATFJORD B OIL PLATFORM, NO","FM-15","ENFB ","V020","090,1,N,0051,1","22000,1,9,N","011265,1,N,1","+0020,1","-0030,1","99999,9",,,"04,1,+00690,1,99,9",,,"04,99,1,99,9,99,9,99999,9,99,9,99,9","10210,1,99999,9",,"MET070METAR ENFB 261650Z AUTO 09010KT 9999NDV SCT023/// 02/M03 Q1021 W///S3;",
"01488199999","2010-12-26T17:20:00","4","61.206389","1.828889","142.0","STATFJORD B OIL PLATFORM, NO","FM-15","ENFB ","V020","090,1,N,0051,1","22000,1,9,N","011265,1,N,1","+0010,1","-0040,1","99999,9",,,"04,1,+00660,1,99,9",,,"04,99,1,99,9,99,9,99999,9,99,9,99,9","10210,1,99999,9",,"MET070METAR ENFB 261720Z AUTO 09010KT 9999NDV SCT022/// 01/M04 Q1021 W///S3;",
"01488199999","2010-12-26T17:50:00","4","61.206389","1.828889","142.0","STATFJORD B OIL PLATFORM, NO","FM-15","ENFB ","V020","110,1,N,0036,1","22000,1,9,N","011265,1,N,1","+0020,1","-0030,1","99999,9",,,"04,1,+00660,1,99,9",,,"04,99,1,99,9,99,9,99999,9,99,9,99,9","10210,1,99999,9",,"MET070METAR ENFB 261750Z AUTO 11007KT 9999NDV SCT022/// 02/M03 Q1021 W///S3;",
"01488199999","2010-12-26T18:20:00","4","61.206389","1.828889","142.0","STATFJORD B OIL PLATFORM, NO","FM-15","ENFB ","V020","110,1,N,0031,1","22000,1,9,N","011265,1,N,1","+0020,1","-0040,1","99999,9",,,"02,1,+00720,1,99,9",,,"02,99,1,99,9,99,9,99999,9,99,9,99,9","10210,1,99999,9",,"MET078METAR ENFB 261820Z AUTO 11006KT 070V130 9999NDV FEW024/// 02/M04 Q1021 W///S3;",
"01488199999","2010-12-26T18:50:00","4","61.206389","1.828889","142.0","STATFJORD B OIL PLATFORM, NO","FM-15","ENFB ","V020","110,1,N,0036,1","22000,1,9,N","011265,1,N,1","+0020,1","-0030,1","99999,9",,,"04,1,+00690,1,99,9",,,"04,99,1,99,9,99,9,99999,9,99,9,99,9","10200,1,99999,9",,"MET070METAR ENFB 261850Z AUTO 11007KT 9999NDV SCT023/// 02/M03 Q1020 W///S3;",
"01488199999","2010-12-26T19:20:00","4","61.206389","1.828889","142.0","STATFJORD B OIL PLATFORM, NO","FM-15","ENFB ","V020","100,1,N,0031,1","22000,1,9,N","011265,1,N,1","+0020,1","-0030,1","99999,9",,,,,,"00,99,1,99,9,99,9,99999,9,99,9,99,9","10200,1,99999,9",,"MET072METAR ENFB 261920Z AUTO 10006KT 070V220 9999NDV NCD 02/M03 Q1020 W///S3;","Q01    003SCCGA1"
"01488199999","2010-12-26T19:50:00","4","61.206389","1.828889","142.0","STATFJORD B OIL PLATFORM, NO","FM-15","ENFB ","V020","110,1,N,0036,1","22000,1,9,N","011265,1,N,1","+0020,1","-0030,1","99999,9",,,"02,1,+00630,1,99,9",,,"02,99,1,99,9,99,9,99999,9,99,9,99,9","10200,1,99999,9",,"MET070METAR ENFB 261950Z AUTO 11007KT 9999NDV FEW021/// 02/M03 Q1020 W///S3;",
"01488199999","2010-12-26T20:20:00","4","61.206389","1.828889","142.0","STATFJORD B OIL PLATFORM, NO","FM-15","ENFB ","V020","100,1,N,0041,1","22000,1,9,N","011265,1,N,1","+0020,1","-0030,1","99999,9",,,,,,"00,99,1,99,9,99,9,99999,9,99,9,99,9","10200,1,99999,9",,"MET064METAR ENFB 262020Z AUTO 10008KT 9999NDV NCD 02/M03 Q1020 W///S4;","Q01    003SCCGA1"
"01488199999","2010-12-26T20:50:00","4","61.206389","1.828889","142.0","STATFJORD B OIL PLATFORM, NO","FM-15","ENFB ","V020","110,1,N,0036,1","22000,1,9,N","011265,1,N,1","+0020,1","-0030,1","99999,9",,,"02,1,+00630,1,99,9",,,"02,99,1,99,9,99,9,99999,9,99,9,99,9","10190,1,99999,9",,"MET070METAR ENFB 262050Z AUTO 11007KT 9999NDV FEW021/// 02/M03 Q1019 W///S4;",
"01488199999","2010-12-26T21:20:00","4","61.206389","1.828889","142.0","STATFJORD B OIL PLATFORM, NO","FM-15","ENFB ","V020","110,1,N,0041,1","22000,1,9,N","011265,1,N,1","+0020,1","-0030,1","99999,9",,,"02,1,+06000,1,99,9",,,"02,99,1,99,9,99,9,99999,9,99,9,99,9","10190,1,99999,9",,"MET070METAR ENFB 262120Z AUTO 11008KT 9999NDV FEW200/// 02/M03 Q1019 W///S4;",
"01488199999","2010-12-26T21:50:00","4","61.206389","1.828889","142.0","STATFJORD B OIL PLATFORM, NO","FM-15","ENFB ","V020","110,1,N,0041,1","22000,1,9,N","011265,1,N,1","+0020,1","-0030,1","99999,9",,,,,,"00,99,1,99,9,99,9,99999,9,99,9,99,9","10190,1,99999,9",,"MET064METAR ENFB 262150Z AUTO 11008KT 9999NDV NCD 02/M03 Q1019 W///S4;","Q01    003SCCGA1"
"01488199999","2010-12-26T22:20:00","4","61.206389","1.828889","142.0","STATFJORD B OIL PLATFORM, NO","FM-15","ENFB ","V020","110,1,N,0046,1","22000,1,9,N","011265,1,N,1","+0020,1","-0030,1","99999,9",,,,,,"00,99,1,99,9,99,9,99999,9,99,9,99,9","10190,1,99999,9",,"MET064METAR ENFB 262220Z AUTO 11009KT 9999NDV NCD 02/M03 Q1019 W///S4;","Q01    003SCCGA1"
"01488199999","2010-12-26T22:50:00","4","61.206389","1.828889","142.0","STATFJORD B OIL PLATFORM, NO","FM-15","ENFB ","V020","110,1,N,0051,1","22000,1,9,N","011265,1,N,1","+0020,1","-0030,1","99999,9",,,,,,"00,99,1,99,9,99,9,99999,9,99,9,99,9","10180,1,99999,9",,"MET064METAR ENFB 262250Z AUTO 11010KT 9999NDV NCD 02/M03 Q1018 W///S4;","Q01    003SCCGA1"
"01488199999","2010-12-26T23:20:00","4","61.206389","1.828889","142.0","STATFJORD B OIL PLATFORM, NO","FM-15","ENFB ","V020","120,1,N,0046,1","22000,1,9,N","011265,1,N,1","+0020,1","-0020,1","99999,9",,,,,,"00,99,1,99,9,99,9,99999,9,99,9,99,9","10180,1,99999,9",,"MET064METAR ENFB 262320Z AUTO 12009KT 9999NDV NCD 02/M02 Q1018 W///S4;","Q01    003SCCGA1"
"01488199999","2010-12-26T23:50:00","4","61.206389","1.828889","142.0","STATFJORD B OIL PLATFORM, NO","FM-15","ENFB ","V020","130,1,N,0041,1","22000,1,9,N","011265,1,N,1","+0020,1","-0020,1","99999,9",,,,,,"00,99,1,99,9,99,9,99999,9,99,9,99,9","10180,1,99999,9",,"MET064METAR ENFB 262350Z AUTO 13008KT 9999NDV NCD 02/M02 Q1018 W///S4;","Q01    003SCCGA1"
"01488199999","2010-12-27T00:20:00","4","61.206389","1.828889","142.0","STATFJORD B OIL PLATFORM, NO","FM-15","ENFB ","V020","130,1,N,0046,1","22000,1,9,N","011265,1,N,1","+0020,1","-0020,1","99999,9",,,"02,1,+00570,1,99,9",,,"02,99,1,99,9,99,9,99999,9,99,9,99,9","10180,1,99999,9",,"MET070METAR ENFB 270020Z AUTO 13009KT 9999NDV FEW019/// 02/M02 Q1018 W///S4;",
"01488199999","2010-12-27T00:50:00","4","61.206389","1.828889","142.0","STATFJORD B OIL PLATFORM, NO","FM-15","ENFB ","V020","140,1,N,0051,1","22000,1,9,N","011265,1,N,1","+0020,1","-0020,1","99999,9",,,,,,"00,99,1,99,9,99,9,99999,9,99,9,99,9","10180,1,99999,9",,"MET064METAR ENFB 270050Z AUTO 14010KT 9999NDV NCD 02/M02 Q1018 W///S4;","Q01    003SCCGA1"
"01488199999","2010-12-27T01:20:00","4","61.206389","1.828889","142.0","STATFJORD B OIL PLATFORM, NO","FM-15","ENFB ","V020","140,1,N,0046,1","22000,1,9,N","011265,1,N,1","+0020,1","-0020,1","99999,9",,,,,,"00,99,1,99,9,99,9,99999,9,99,9,99,9","10169,1,99999,9",,"MET064METAR ENFB 270120Z AUTO 14009KT 9999NDV NCD 02/M02 Q1017 W///S4;","Q01    003SCCGA1"
"01488199999","2010-12-27T01:50:00","4","61.206389","1.828889","142.0","STATFJORD B OIL PLATFORM, NO","FM-15","ENFB ","V020","130,1,N,0046,1","22000,1,9,N","011265,1,N,1","+0030,1","-0020,1","99999,9",,,"02,1,+00570,1,99,9",,,"02,99,1,99,9,99,9,99999,9,99,9,99,9","10169,1,99999,9",,"MET070METAR ENFB 270150Z AUTO 13009KT 9999NDV FEW019/// 03/M02 Q1017 W///S4;",
"01488199999","2010-12-27T02:20:00","4","61.206389","1.828889","142.0","STATFJORD B OIL PLATFORM, NO","FM-15","ENFB ","V020","140,1,N,0046,1","06000,1,9,N","011265,1,N,1","+0030,1","-0020,1","99999,9",,,"02,1,+00600,1,99,9","07,1,+06000,1,99,9",,"07,99,1,99,9,99,9,99999,9,99,9,99,9","10169,1,99999,9",,"MET080METAR ENFB 270220Z AUTO 14009KT 9999NDV FEW020/// BKN200/// 03/M02 Q1017 W///S4;",
"01488199999","2010-12-27T02:50:00","4","61.206389","1.828889","142.0","STATFJORD B OIL PLATFORM, NO","FM-15","ENFB ","V020","130,1,N,0051,1","00600,1,9,N","011265,1,N,1","+0030,1","-0020,1","99999,9",,,"07,1,+00600,1,99,9",,,"07,99,1,99,9,99,9,99999,9,99,9,99,9","10169,1,99999,9",,"MET070METAR ENFB 270250Z AUTO 13010KT 9999NDV BKN020/// 03/M02 Q1017 W///S4;",
"01488199999","2010-12-27T03:20:00","4","61.206389","1.828889","142.0","STATFJORD B OIL PLATFORM, NO","FM-15","ENFB ","V020","130,1,N,0057,1","22000,1,9,N","011265,1,N,1","+0030,1","-0020,1","99999,9",,,"04,1,+00630,1,99,9",,,"04,99,1,99,9,99,9,99999,9,99,9,99,9","10169,1,99999,9",,"MET070METAR ENFB 270320Z AUTO 13011KT 9999NDV SCT021/// 03/M02 Q1017 W///S4;",
"01488199999","2010-12-27T03:50:00","4","61.206389","1.828889","142.0","STATFJORD B OIL PLATFORM, NO","FM-15","ENFB ","V020","140,1,N,0062,1","22000,1,9,N","011265,1,N,1","+0030,1","-0020,1","99999,9",,,"04,1,+00630,1,99,9",,,"04,99,1,99,9,99,9,99999,9,99,9,99,9","10159,1,99999,9",,"MET070METAR ENFB 270350Z AUTO 14012KT 9999NDV SCT021/// 03/M02 Q1016 W///S4;",
"01488199999","2010-12-27T04:20:00","4","61.206389","1.828889","142.0","STATFJORD B OIL PLATFORM, NO","FM-15","ENFB ","V020","130,1,N,0062,1","00630,1,9,N","011265,1,N,1","+0020,1","-0020,1","99999,9",,,"07,1,+00630,1,99,9",,,"07,99,1,99,9,99,9,99999,9,99,9,99,9","10159,1,99999,9",,"MET070METAR ENFB 270420Z AUTO 13012KT 9999NDV BKN021/// 02/M02 Q1016 W///S4;",
"01488199999","2010-12-27T04:50:00","4","61.206389","1.828889","142.0","STATFJORD B OIL PLATFORM, NO","FM-15","ENFB ","V020","130,1,N,0062,1","22000,1,9,N","011265,1,N,1","+0020,1","-0020,1","99999,9",,,"04,1,+00630,1,99,9",,,"04,99,1,99,9,99,9,99999,9,99,9,99,9","10159,1,99999,9",,"MET070METAR ENFB 270450Z AUTO 13012KT 9999NDV SCT021/// 02/M02 Q1016 W///S4;",
"01488199999","2010-12-27T05:20:00","4","61.206389","1.828889","142.0","STATFJORD B OIL PLATFORM, NO","FM-15","ENFB ","V020","140,1,N,0057,1","22000,1,9,N","011265,1,N,1","+0030,1","-0020,1","99999,9",,,"04,1,+00630,1,99,9",,,"04,99,1,99,9,99,9,99999,9,99,9,99,9","10159,1,99999,9",,"MET070METAR ENFB 270520Z AUTO 14011KT 9999NDV SCT021/// 03/M02 Q1016 W///S4;",
"01488199999","2010-12-27T05:50:00","4","61.206389","1.828889","142.0","STATFJORD B OIL PLATFORM, NO","FM-15","ENFB ","V020","999,9,V,0051,1","00630,1,9,N","011265,1,N,1","+0030,1","-0020,1","99999,9",,,"07,1,+00630,1,99,9",,,"07,99,1,99,9,99,9,99999,9,99,9,99,9","10159,1,99999,9",,"MET070METAR ENFB 270550Z AUTO VRB10KT 9999NDV BKN021/// 03/M02 Q1016 W///S4;",
"01488199999","2010-12-27T06:20:00","4","61.206389","1.828889","142.0","STATFJORD B OIL PLATFORM, NO","FM-15","ENFB ","V020","140,1,N,0057,1","00660,1,9,N","011265,1,N,1","+0030,1","-0020,1","99999,9",,,"07,1,+00660,1,99,9",,,"07,99,1,99,9,99,9,99999,9,99,9,99,9","10159,1,99999,9",,"MET070METAR ENFB 270620Z AUTO 14011KT 9999NDV BKN022/// 03/M02 Q1016 W///S4;",
"01488199999","2010-12-27T06:50:00","4","61.206389","1.828889","142.0","STATFJORD B OIL PLATFORM, NO","FM-15","ENFB ","V020","140,1,N,0057,1","22000,1,9,N","011265,1,N,1","+0030,1","-0020,1","99999,9",,,"04,1,+00690,1,99,9",,,"04,99,1,99,9,99,9,99999,9,99,9,99,9","10159,1,99999,9",,"MET070METAR ENFB 270650Z AUTO 14011KT 9999NDV SCT023/// 03/M02 Q1016 W///S4;",
"01488199999","2010-12-27T07:20:00","4","61.206389","1.828889","142.0","STATFJORD B OIL PLATFORM, NO","FM-15","ENFB ","V020","130,1,N,0062,1","00660,1,9,N","011265,1,N,1","+0030,1","-0020,1","99999,9",,,"07,1,+00660,1,99,9",,,"07,99,1,99,9,99,9,99999,9,99,9,99,9","10159,1,99999,9",,"MET070METAR ENFB 270720Z AUTO 13012KT 9999NDV BKN022/// 03/M02 Q1016 W///S4;",
"01488199999","2010-12-27T07:50:00","4","61.206389","1.828889","142.0","STATFJORD B OIL PLATFORM, NO","FM-15","ENFB ","V020","130,1,N,0062,1","22000,1,9,N","011265,1,N,1","+0030,1","-0020,1","99999,9",,,"04,1,+00690,1,99,9",,,"04,99,1,99,9,99,9,99999,9,99,9,99,9","10159,1,99999,9",,"MET070METAR ENFB 270750Z AUTO 13012KT 9999NDV SCT023/// 03/M02 Q1016 W///S4;",
"01488199999","2010-12-27T08:20:00","4","61.206389","1.828889","142.0","STATFJORD B OIL PLATFORM, NO","FM-15","ENFB ","V020","130,1,N,0062,1","00690,1,9,N","011265,1,N,1","+0030,1","-0020,1","99999,9",,,"07,1,+00690,1,99,9",,,"07,99,1,99,9,99,9,99999,9,99,9,99,9","10159,1,99999,9",,"MET070METAR ENFB 270820Z AUTO 13012KT 9999NDV BKN023/// 03/M02 Q1016 W///S4;",
"01488199999","2010-12-27T08:50:00","4","61.206389","1.828889","142.0","STATFJORD B OIL PLATFORM, NO","FM-15","ENFB ","V020","120,1,N,0077,1","00690,1,9,N","011265,1,N,1","+0030,1","-0020,1","99999,9",,,"07,1,+00690,1,99,9",,,"07,99,1,99,9,99,9,99999,9,99,9,99,9","10159,1,99999,9",,"MET070METAR ENFB 270850Z AUTO 12015KT 9999NDV BKN023/// 03/M02 Q1016 W///S4;",
"01488199999","2010-12-27T09:20:00","4","61.206389","1.828889","142.0","STATFJORD B OIL PLATFORM, NO","FM-15","ENFB ","V020","130,1,N,0072,1","00690,1,9,N","011265,1,N,1","+0030,1","-0020,1","99999,9",,,"07,1,+00690,1,99,9",,,"07,99,1,99,9,99,9,99999,9,99,9,99,9","10159,1,99999,9",,"MET070METAR ENFB 270920Z AUTO 13014KT 9999NDV BKN023/// 03/M02 Q1016 W///S4;",
"01488199999","2010-12-27T09:50:00","4","61.206389","1.828889","142.0","STATFJORD B OIL PLATFORM, NO","FM-15","ENFB ","V020","130,1,N,0077,1","00720,1,9,N","011265,1,N,1","+0030,1","-0020,1","99999,9",,,"07,1,+00720,1,99,9",,,"07,99,1,99,9,99,9,99999,9,99,9,99,9","10159,1,99999,9",,"MET070METAR ENFB 270950Z AUTO 13015KT 9999NDV BKN024/// 03/M02 Q1016 W///S4;",
"01488199999","2010-12-27T10:20:00","4","61.206389","1.828889","142.0","STATFJORD B OIL PLATFORM, NO","FM-15","ENFB ","V020","140,1,N,0077,1","00720,1,9,N","011265,1,N,1","+0030,1","-0020,1","99999,9",,,"07,1,+00720,1,99,9",,,"07,99,1,99,9,99,9,99999,9,99,9,99,9","10159,1,99999,9",,"MET070METAR ENFB 271020Z AUTO 14015KT 9999NDV BKN024/// 03/M02 Q1016 W///S4;",
"01488199999","2010-12-27T10:50:00","4","61.206389","1.828889","142.0","STATFJORD B OIL PLATFORM, NO","FM-15","ENFB ","V020","140,1,N,0082,1","00720,1,9,N","011265,1,N,1","+0030,1","-0020,1","99999,9",,,"07,1,+00720,1,99,9",,,"07,99,1,99,9,99,9,99999,9,99,9,99,9","10159,1,99999,9",,"MET070METAR ENFB 271050Z AUTO 14016KT 9999NDV BKN024/// 03/M02 Q1016 W///S4;",
"01488199999","2010-12-27T11:20:00","4","61.206389","1.828889","142.0","STATFJORD B OIL PLATFORM, NO","FM-15","ENFB ","V020","140,1,N,0087,1","00750,1,9,N","011265,1,N,1","+0030,1","-0020,1","99999,9",,,"07,1,+00750,1,99,9",,,"07,99,1,99,9,99,9,99999,9,99,9,99,9","10159,1,99999,9",,"MET070METAR ENFB 271120Z AUTO 14017KT 9999NDV BKN025/// 03/M02 Q1016 W///S4;",
"01488199999","2010-12-27T11:50:00","4","61.206389","1.828889","142.0","STATFJORD B OIL PLATFORM, NO","FM-15","ENFB ","V020","140,1,N,0087,1","00720,1,9,N","011265,1,N,1","+0030,1","-0020,1","99999,9",,,"07,1,+00720,1,99,9",,,"07,99,1,99,9,99,9,99999,9,99,9,99,9","10159,1,99999,9",,"MET070METAR ENFB 271150Z AUTO 14017KT 9999NDV BKN024/// 03/M02 Q1016 W///S4;",
"01488199999","2010-12-27T12:20:00","4","61.206389","1.828889","142.0","STATFJORD B OIL PLATFORM, NO","FM-15","ENFB ","V020","150,1,N,0082,1","00750,1,9,N","011265,1,N,1","+0040,1","-0020,1","99999,9",,,"07,1,+00750,1,99,9",,,"07,99,1,99,9,99,9,99999,9,99,9,99,9","10159,1,99999,9",,"MET070METAR ENFB 271220Z AUTO 15016KT 9999NDV BKN025/// 04/M02 Q1016 W///S4;",
"01488199999","2010-12-27T12:50:00","4","61.206389","1.828889","142.0","STATFJORD B OIL PLATFORM, NO","FM-15","ENFB ","V020","140,1,N,0077,1","00780,1,9,N","011265,1,N,1","+0040,1","-0020,1","99999,9",,,"07,1,+00780,1,99,9",,,"07,99,1,99,9,99,9,99999,9,99,9,99,9","10159,1,99999,9",,"MET070METAR ENFB 271250Z AUTO 14015KT 9999NDV BKN026/// 04/M02 Q1016 W///S4;",
"01488199999","2010-12-27T13:20:00","4","61.206389","1.828889","142.0","STATFJORD B OIL PLATFORM, NO","FM-15","ENFB ","V020","140,1,N,0087,1","00780,1,9,N","011265,1,N,1","+0040,1","-0030,1","99999,9",,,"07,1,+00780,1,99,9",,,"07,99,1,99,9,99,9,99999,9,99,9,99,9","10159,1,99999,9",,"MET070METAR ENFB 271320Z AUTO 14017KT 9999NDV BKN026/// 04/M03 Q1016 W///S4;",
"01488199999","2010-12-27T13:50:00","4","61.206389","1.828889","142.0","STATFJORD B OIL PLATFORM, NO","FM-15","ENFB ","V020","150,1,N,0082,1","22000,1,9,N","011265,1,N,1","+0040,1","-0020,1","99999,9",,,"02,1,+00780,1,99,9",,,"02,99,1,99,9,99,9,99999,9,99,9,99,9","10159,1,99999,9",,"MET070METAR ENFB 271350Z AUTO 15016KT 9999NDV FEW026/// 04/M02 Q1016 W///S5;",
"01488199999","2010-12-27T14:20:00","4","61.206389","1.828889","142.0","STATFJORD B OIL PLATFORM, NO","FM-15","ENFB ","V020","150,1,N,0082,1","22000,1,9,N","011265,1,N,1","+0040,1","-0020,1","99999,9",,,"04,1,+00780,1,99,9",,,"04,99,1,99,9,99,9,99999,9,99,9,99,9","10159,1,99999,9",,"MET070METAR ENFB 271420Z AUTO 15016KT 9999NDV SCT026/// 04/M02 Q1016 W///S5;",
"01488199999","2010-12-27T14:50:00","4","61.206389","1.828889","142.0","STATFJORD B OIL PLATFORM, NO","FM-15","ENFB ","V020","150,1,N,0093,1","00810,1,9,N","011265,1,N,1","+0040,1","-0020,1","99999,9",,,"07,1,+00810,1,99,9",,,"07,99,1,99,9,99,9,99999,9,99,9,99,9","10159,1,99999,9",,"MET070METAR ENFB 271450Z AUTO 15018KT 9999NDV BKN027/// 04/M02 Q1016 W///S4;",
"01488199999","2010-12-27T15:20:00","4","61.206389","1.828889","142.0","STATFJORD B OIL PLATFORM, NO","FM-15","ENFB ","V020","150,1,N,0093,1","00840,1,9,N","011265,1,N,1","+0040,1","-0020,1","99999,9",,,"07,1,+00840,1,99,9","07,1,+05400,1,99,9",,"07,99,1,99,9,99,9,99999,9,99,9,99,9","10159,1,99999,9",,"MET080METAR ENFB 271520Z AUTO 15018KT 9999NDV BKN028/// BKN180/// 04/M02 Q1016 W///S4;",
"01488199999","2010-12-27T15:50:00","4","61.206389","1.828889","142.0","STATFJORD B OIL PLATFORM, NO","FM-15","ENFB ","V020","150,1,N,0082,1","00780,1,9,N","011265,1,N,1","+0040,1","-0020,1","99999,9",,,"07,1,+00780,1,99,9",,,"07,99,1,99,9,99,9,99999,9,99,9,99,9","10159,1,99999,9",,"MET070METAR ENFB 271550Z AUTO 15016KT 9999NDV BKN026/// 04/M02 Q1016 W///S4;",
"01488199999","2010-12-27T16:20:00","4","61.206389","1.828889","142.0","STATFJORD B OIL PLATFORM, NO","FM-15","ENFB ","V020","150,1,N,0103,1","00870,1,9,N","011265,1,N,1","+0040,1","-0020,1","99999,9",,,"07,1,+00870,1,99,9",,,"07,99,1,99,9,99,9,99999,9,99,9,99,9","10159,1,99999,9",,"MET070METAR ENFB 271620Z AUTO 15020KT 9999NDV BKN029/// 04/M02 Q1016 W///S4;",
"01488199999","2010-12-27T16:50:00","4","61.206389","1.828889","142.0","STATFJORD B OIL PLATFORM, NO","FM-15","ENFB ","V020","150,1,N,0108,1","01200,1,9,N","011265,1,N,1","+0040,1","-0020,1","99999,9",,,"07,1,+01200,1,99,9",,,"07,99,1,99,9,99,9,99999,9,99,9,99,9","10159,1,99999,9",,"MET070METAR ENFB 271650Z AUTO 15021KT 9999NDV BKN040/// 04/M02 Q1016 W///S4;",
"01488199999","2010-12-27T17:20:00","4","61.206389","1.828889","142.0","STATFJORD B OIL PLATFORM, NO","FM-15","ENFB ","V020","150,1,N,0123,1","00870,1,9,N","011265,1,N,1","+0040,1","-0020,1","99999,9",,,"07,1,+00870,1,99,9",,,"07,99,1,99,9,99,9,99999,9,99,9,99,9","10159,1,99999,9",,"MET070METAR ENFB 271720Z AUTO 15024KT 9999NDV BKN029/// 04/M02 Q1016 W///S4;",
"01488199999","2010-12-27T17:50:00","4","61.206389","1.828889","142.0","STATFJORD B OIL PLATFORM, NO","FM-15","ENFB ","V020","140,1,N,0118,1","01140,1,9,N","011265,1,N,1","+0040,1","-0010,1","99999,9",,,"02,1,+00660,1,99,9","07,1,+01140,1,99,9",,"07,99,1,99,9,99,9,99999,9,99,9,99,9","10169,1,99999,9",,"MET080METAR ENFB 271750Z AUTO 14023KT 9999NDV FEW022/// BKN038/// 04/M01 Q1017 W///S4;",
"01488199999","2010-12-27T18:20:00","4","61.206389","1.828889","142.0","STATFJORD B OIL PLATFORM, NO","FM-15","ENFB ","V020","160,1,N,0098,1","00900,1,9,N","011265,1,N,1","+0040,1","-0030,1","99999,9",,,"07,1,+00900,1,99,9",,,"07,99,1,99,9,99,9,99999,9,99,9,99,9","10169,1,99999,9",,"MET070METAR ENFB 271820Z AUTO 16019KT 9999NDV BKN030/// 04/M03 Q1017 W///S4;",
"01488199999","2010-12-27T18:50:00","4","61.206389","1.828889","142.0","STATFJORD B OIL PLATFORM, NO","FM-15","ENFB ","V020","150,1,N,0093,1","00960,1,9,N","011265,1,N,1","+0040,1","-0030,1","99999,9",,,"07,1,+00960,1,99,9",,,"07,99,1,99,9,99,9,99999,9,99,9,99,9","10169,1,99999,9",,"MET070METAR ENFB 271850Z AUTO 15018KT 9999NDV BKN032/// 04/M03 Q1017 W///S4;",
"01488199999","2010-12-27T19:20:00","4","61.206389","1.828889","142.0","STATFJORD B OIL PLATFORM, NO","FM-15","ENFB ","V020","160,1,N,0098,1","00990,1,9,N","011265,1,N,1","+0040,1","-0030,1","99999,9",,,"07,1,+00990,1,99,9",,,"07,99,1,99,9,99,9,99999,9,99,9,99,9","10169,1,99999,9",,"MET070METAR ENFB 271920Z AUTO 16019KT 9999NDV BKN033/// 04/M03 Q1017 W///S5;",
"01488199999","2010-12-27T19:50:00","4","61.206389","1.828889","142.0","STATFJORD B OIL PLATFORM, NO","FM-15","ENFB ","V020","150,1,N,0103,1","00960,1,9,N","011265,1,N,1","+0040,1","-0030,1","99999,9",,,"07,1,+00960,1,99,9",,,"07,99,1,99,9,99,9,99999,9,99,9,99,9","10169,1,99999,9",,"MET070METAR ENFB 271950Z AUTO 15020KT 9999NDV BKN032/// 04/M03 Q1017 W///S4;",
"01488199999","2010-12-27T20:20:00","4","61.206389","1.828889","142.0","STATFJORD B OIL PLATFORM, NO","FM-15","ENFB ","V020","160,1,N,0103,1","22000,1,9,N","011265,1,N,1","+0040,1","-0030,1","99999,9",,,"04,1,+01140,1,99,9",,,"04,99,1,99,9,99,9,99999,9,99,9,99,9","10169,1,99999,9",,"MET070METAR ENFB 272020Z AUTO 16020KT 9999NDV SCT038/// 04/M03 Q1017 W///S4;",
"01488199999","2010-12-27T20:50:00","4","61.206389","1.828889","142.0","STATFJORD B OIL PLATFORM, NO","FM-15","ENFB ","V020","170,1,N,0103,1","01140,1,9,N","011265,1,N,1","+0040,1","-0040,1","99999,9",,,"07,1,+01140,1,99,9",,,"07,99,1,99,9,99,9,99999,9,99,9,99,9","10169,1,99999,9",,"MET070METAR ENFB 272050Z AUTO 17020KT 9999NDV BKN038/// 04/M04 Q1017 W///S4;",
"01488199999","2010-12-27T21:20:00","4","61.206389","1.828889","142.0","STATFJORD B OIL PLATFORM, NO","FM-15","ENFB ","V020","150,1,N,0129,1","00600,1,9,N","011265,1,N,1","+0040,1","+0000,1","99999,9","61,1",,"07,1,+00600,1,99,9",,,"07,99,1,99,9,99,9,99999,9,99,9,99,9","10169,1,99999,9",,"MET073METAR ENFB 272120Z AUTO 15025KT 9999NDV -RA BKN020/// 04/00 Q1017 W///S4;",
"01488199999","2010-12-27T21:50:00","4","61.206389","1.828889","142.0","STATFJORD B OIL PLATFORM, NO","FM-15","ENFB ","V020","160,1,N,0149,1","00600,1,9,N","011265,1,N,1","+0040,1","+0000,1","99999,9",,,"07,1,+00600,1,99,9",,,"07,99,1,99,9,99,9,99999,9,99,9,99,9","10180,1,99999,9",,"MET069METAR ENFB 272150Z AUTO 16029KT 9999NDV BKN020/// 04/00 Q1018 W///S4;",
"01488199999","2010-12-27T22:20:00","4","61.206389","1.828889","142.0","STATFJORD B OIL PLATFORM, NO","FM-15","ENFB ","V020","160,1,N,0165,1","00660,1,9,N","011265,1,N,1","+0040,1","+0000,1","99999,9","81,1",,"02,1,+00570,1,99,9","07,1,+00660,1,99,9",,"07,99,1,99,9,99,9,99999,9,99,9,99,9","10180,1,99999,9",,"MET085METAR ENFB 272220Z AUTO 16032KT 9999NDV -SHRA FEW019/// BKN022/// 04/00 Q1018 W///S4;",
"01488199999","2010-12-27T22:50:00","4","61.206389","1.828889","142.0","STATFJORD B OIL PLATFORM, NO","FM-15","ENFB ","V020","160,1,N,0165,1","01380,1,9,N","011265,1,N,1","+0040,1","-0010,1","99999,9",,,"02,1,+00540,1,99,9","07,1,+01380,1,99,9",,"07,99,1,99,9,99,9,99999,9,99,9,99,9","10180,1,99999,9",,"MET080METAR ENFB 272250Z AUTO 16032KT 9999NDV FEW018/// BKN046/// 04/M01 Q1018 W///S4;",
"01488199999","2010-12-27T23:20:00","4","61.206389","1.828889","142.0","STATFJORD B OIL PLATFORM, NO","FM-15","ENFB ","V020","150,1,N,0159,1","00720,1,9,N","011265,1,N,1","+0040,1","-0010,1","99999,9",,,"07,1,+00720,1,99,9",,,"07,99,1,99,9,99,9,99999,9,99,9,99,9","10180,1,99999,9",,"MET070METAR ENFB 272320Z AUTO 15031KT 9999NDV BKN024/// 04/M01 Q1018 W///S4;",
"01488199999","2010-12-27T23:50:00","4","61.206389","1.828889","142.0","STATFJORD B OIL PLATFORM, NO","FM-15","ENFB ","V020","150,1,N,0170,1","00720,1,9,N","011265,1,N,1","+0040,1","-0010,1","99999,9",,,"07,1,+00720,1,99,9",,,"07,99,1,99,9,99,9,99999,9,99,9,99,9","10180,1,99999,9",,"MET070METAR ENFB 272350Z AUTO 15033KT 9999NDV BKN024/// 04/M01 Q1018 W///S5;",
"01488199999","2010-12-28T00:20:00","4","61.206389","1.828889","142.0","STATFJORD B OIL PLATFORM, NO","FM-15","ENFB ","V020","150,1,N,0159,1","00840,1,9,N","011265,1,N,1","+0040,1","-0020,1","99999,9",,,"08,1,+00840,1,99,9",,,"08,99,1,99,9,99,9,99999,9,99,9,99,9","10180,1,99999,9",,"MET070METAR ENFB 280020Z AUTO 15031KT 9999NDV OVC028/// 04/M02 Q1018 W///S5;",
"01488199999","2010-12-28T00:50:00","4","61.206389","1.828889","142.0","STATFJORD B OIL PLATFORM, NO","FM-15","ENFB ","V020","160,1,N,0154,1","00930,1,9,N","011265,1,N,1","+0030,1","-0030,1","99999,9",,,"07,1,+00930,1,99,9",,,"07,99,1,99,9,99,9,99999,9,99,9,99,9","10190,1,99999,9",,"MET070METAR ENFB 280050Z AUTO 16030KT 9999NDV BKN031/// 03/M03 Q1019 W///S5;",
"01488199999","2010-12-28T01:20:00","4","61.206389","1.828889","142.0","STATFJORD B OIL PLATFORM, NO","FM-15","ENFB ","V020","160,1,N,0159,1","00990,1,9,N","011265,1,N,1","+0030,1","-0040,1","99999,9",,,"08,1,+00990,1,99,9",,,"08,99,1,99,9,99,9,99999,9,99,9,99,9","10190,1,99999,9",,"MET070METAR ENFB 280120Z AUTO 16031KT 9999NDV OVC033/// 03/M04 Q1019 W///S5;",
"01488199999","2010-12-28T01:50:00","4","61.206389","1.828889","142.0","STATFJORD B OIL PLATFORM, NO","FM-15","ENFB ","V020","160,1,N,0139,1","00930,1,9,N","011265,1,N,1","+0030,1","-0040,1","99999,9",,,"07,1,+00930,1,99,9",,,"07,99,1,99,9,99,9,99999,9,99,9,99,9","10190,1,99999,9",,"MET070METAR ENFB 280150Z AUTO 16027KT 9999NDV BKN031/// 03/M04 Q1019 W///S5;",
"01488199999","2010-12-28T02:20:00","4","61.206389","1.828889","142.0","STATFJORD B OIL PLATFORM, NO","FM-15","ENFB ","V020","150,1,N,0154,1","00810,1,9,N","011265,1,N,1","+0030,1","-0030,1","99999,9",,,"08,1,+00810,1,99,9",,,"08,99,1,99,9,99,9,99999,9,99,9,99,9","10190,1,99999,9",,"MET070METAR ENFB 280220Z AUTO 15030KT 9999NDV OVC027/// 03/M03 Q1019 W///S5;",
"01488199999","2010-12-28T02:50:00","4","61.206389","1.828889","142.0","STATFJORD B OIL PLATFORM, NO","FM-15","ENFB ","V020","150,1,N,0159,1","00810,1,9,N","011265,1,N,1","+0030,1","-0030,1","99999,9",,,"08,1,+00810,1,99,9",,,"08,99,1,99,9,99,9,99999,9,99,9,99,9","10190,1,99999,9",,"MET070METAR ENFB 280250Z AUTO 15031KT 9999NDV OVC027/// 03/M03 Q1019 W///S5;",
"01488199999","2010-12-28T03:20:00","4","61.206389","1.828889","142.0","STATFJORD B OIL PLATFORM, NO","FM-15","ENFB ","V020","150,1,N,0144,1","00840,1,9,N","011265,1,N,1","+0030,1","-0040,1","99999,9",,,"08,1,+00840,1,99,9",,,"08,99,1,99,9,99,9,99999,9,99,9,99,9","10190,1,99999,9",,"MET070METAR ENFB 280320Z AUTO 15028KT 9999NDV OVC028/// 03/M04 Q1019 W///S5;",
"01488199999","2010-12-28T03:50:00","4","61.206389","1.828889","142.0","STATFJORD B OIL PLATFORM, NO","FM-15","ENFB ","V020","150,1,N,0129,1","00870,1,9,N","011265,1,N,1","+0030,1","-0030,1","99999,9",,,"08,1,+00870,1,99,9",,,"08,99,1,99,9,99,9,99999,9,99,9,99,9","10190,1,99999,9",,"MET070METAR ENFB 280350Z AUTO 15025KT 9999NDV OVC029/// 03/M03 Q1019 W///S5;",
"01488199999","2010-12-28T04:20:00","4","61.206389","1.828889","142.0","STATFJORD B OIL PLATFORM, NO","FM-15","ENFB ","V020","150,1,N,0139,1","00810,1,9,N","011265,1,N,1","+0030,1","-0030,1","99999,9",,,"08,1,+00810,1,99,9",,,"08,99,1,99,9,99,9,99999,9,99,9,99,9","10190,1,99999,9",,"MET070METAR ENFB 280420Z AUTO 15027KT 9999NDV OVC027/// 03/M03 Q1019 W///S5;",
"01488199999","2010-12-28T04:50:00","4","61.206389","1.828889","142.0","STATFJORD B OIL PLATFORM, NO","FM-15","ENFB ","V020","150,1,N,0134,1","00750,1,9,N","011265,1,N,1","+0030,1","-0030,1","99999,9",,,"08,1,+00750,1,99,9",,,"08,99,1,99,9,99,9,99999,9,99,9,99,9","10190,1,99999,9",,"MET070METAR ENFB 280450Z AUTO 15026KT 9999NDV OVC025/// 03/M03 Q1019 W///S5;",
"01488199999","2010-12-28T05:20:00","4","61.206389","1.828889","142.0","STATFJORD B OIL PLATFORM, NO","FM-15","ENFB ","V020","150,1,N,0144,1","00720,1,9,N","011265,1,N,1","+0030,1","-0030,1","99999,9",,,"07,1,+00720,1,99,9",,,"07,99,1,99,9,99,9,99999,9,99,9,99,9","10190,1,99999,9",,"MET070METAR ENFB 280520Z AUTO 15028KT 9999NDV BKN024/// 03/M03 Q1019 W///S5;",
"01488199999","2010-12-28T05:50:00","4","61.206389","1.828889","142.0","STATFJORD B OIL PLATFORM, NO","FM-15","ENFB ","V020","150,1,N,0154,1","01500,1,9,N","011265,1,N,1","+0030,1","-0030,1","99999,9",,,"02,1,+00690,1,99,9","07,1,+01500,1,99,9",,"07,99,1,99,9,99,9,99999,9,99,9,99,9","10190,1,99999,9",,"MET080METAR ENFB 280550Z AUTO 15030KT 9999NDV FEW023/// BKN050/// 03/M03 Q1019 W///S5;",
"01488199999","2010-12-28T06:20:00","4","61.206389","1.828889","142.0","STATFJORD B OIL PLATFORM, NO","FM-15","ENFB ","V020","150,1,N,0154,1","00660,1,9,N","011265,1,N,1","+0030,1","-0020,1","99999,9",,,"07,1,+00660,1,99,9","07,1,+01500,1,99,9",,"07,99,1,99,9,99,9,99999,9,99,9,99,9","10200,1,99999,9",,"MET080METAR ENFB 280620Z AUTO 15030KT 9999NDV BKN022/// BKN051/// 03/M02 Q1020 W///S5;",
"01488199999","2010-12-28T06:50:00","4","61.206389","1.828889","142.0","STATFJORD B OIL PLATFORM, NO","FM-15","ENFB ","V020","140,1,N,0154,1","01500,1,9,N","011265,1,N,1","+0030,1","-0020,1","99999,9",,,"04,1,+00630,1,99,9","07,1,+01500,1,99,9",,"07,99,1,99,9,99,9,99999,9,99,9,99,9","10200,1,99999,9",,"MET080METAR ENFB 280650Z AUTO 14030KT 9999NDV SCT021/// BKN052/// 03/M02 Q1020 W///S5;",
"01488199999","2010-12-28T07:20:00","4","61.206389","1.828889","142.0","STATFJORD B OIL PLATFORM, NO","FM-15","ENFB ","V020","140,1,N,0165,1","01500,1,9,N","011265,1,N,1","+0030,1","-0010,1","99999,9",,,"02,1,+00600,1,99,9","07,1,+01500,1,99,9",,"07,99,1,99,9,99,9,99999,9,99,9,99,9","10200,1,99999,9",,"MET080METAR ENFB 280720Z AUTO 14032KT 9999NDV FEW020/// BKN052/// 03/M01 Q1020 W///S5;",
"01488199999","2010-12-28T07:50:00","4","61.206389","1.828889","142.0","STATFJORD B OIL PLATFORM, NO","FM-15","ENFB ","V020","140,1,N,0149,1","01500,1,9,N","011265,1,N,1","+0030,1","-0010,1","99999,9",,,"02,1,+00570,1,99,9","07,1,+01500,1,99,9",,"07,99,1,99,9,99,9,99999,9,99,9,99,9","10200,1,99999,9",,"MET080METAR ENFB 280750Z AUTO 14029KT 9999NDV FEW019/// BKN052/// 03/M01 Q1020 W///S5;",
"01488199999","2010-12-28T08:20:00","4","61.206389","1.828889","142.0","STATFJORD B OIL PLATFORM, NO","FM-15","ENFB ","V020","140,1,N,0154,1","00690,1,9,N","011265,1,N,1","+0030,1","-0020,1","99999,9",,,"07,1,+00690,1,99,9","07,1,+01500,1,99,9",,"07,99,1,99,9,99,9,99999,9,99,9,99,9","10200,1,99999,9",,"MET080METAR ENFB 280820Z AUTO 14030KT 9999NDV BKN023/// BKN052/// 03/M02 Q1020 W///S5;",
"01488199999","2010-12-28T08:50:00","4","61.206389","1.828889","142.0","STATFJORD B OIL PLATFORM, NO","FM-15","ENFB ","V020","140,1,N,0139,1","01410,1,9,N","011265,1,N,1","+0030,1","-0020,1","99999,9",,,"04,1,+00690,1,99,9","07,1,+01410,1,99,9",,"07,99,1,99,9,99,9,99999,9,99,9,99,9","10200,1,99999,9",,"MET080METAR ENFB 280850Z AUTO 14027KT 9999NDV SCT023/// BKN047/// 03/M02 Q1020 W///S5;",
"01488199999","2010-12-28T09:20:00","4","61.206389","1.828889","142.0","STATFJORD B OIL PLATFORM, NO","FM-15","ENFB ","V020","130,1,N,0154,1","00750,1,9,N","011265,1,N,1","+0030,1","-0010,1","99999,9",,,"02,1,+00630,1,99,9","07,1,+00750,1,99,9",,"07,99,1,99,9,99,9,99999,9,99,9,99,9","10200,1,99999,9",,"MET080METAR ENFB 280920Z AUTO 13030KT 9999NDV FEW021/// BKN025/// 03/M01 Q1020 W///S5;",
"01488199999","2010-12-28T09:50:00","4","61.206389","1.828889","142.0","STATFJORD B OIL PLATFORM, NO","FM-15","ENFB ","V020","140,1,N,0154,1","00600,1,9,N","011265,1,N,1","+0030,1","-0010,1","99999,9","52,1",,"07,1,+00600,1,99,9",,,"07,99,1,99,9,99,9,99999,9,99,9,99,9","10200,1,99999,9",,"MET073METAR ENFB 280950Z AUTO 14030KT 9999NDV DZ BKN020/// 03/M01 Q1020 W///S5;",
"01488199999","2010-12-28T10:20:00","4","61.206389","1.828889","142.0","STATFJORD B OIL PLATFORM, NO","FM-15","ENFB ","V020","150,1,N,0165,1","00720,1,9,N","011265,1,N,1","+0030,1","-0020,1","99999,9",,,"07,1,+00720,1,99,9",,,"07,99,1,99,9,99,9,99999,9,99,9,99,9","10200,1,99999,9",,"MET070METAR ENFB 281020Z AUTO 15032KT 9999NDV BKN024/// 03/M02 Q1020 W///S5;",
"01488199999","2010-12-28T10:50:00","4","61.206389","1.828889","142.0","STATFJORD B OIL PLATFORM, NO","FM-15","ENFB ","V020","150,1,N,0159,1","00720,1,9,N","011265,1,N,1","+0030,1","-0010,1","99999,9",,,"07,1,+00720,1,99,9",,,"07,99,1,99,9,99,9,99999,9,99,9,99,9","10200,1,99999,9",,"MET070METAR ENFB 281050Z AUTO 15031KT 9999NDV BKN024/// 03/M01 Q1020 W///S5;",
"01488199999","2010-12-28T11:20:00","4","61.206389","1.828889","142.0","STATFJORD B OIL PLATFORM, NO","FM-15","ENFB ","V020","150,1,N,0159,1","00630,1,9,N","011265,1,N,1","+0030,1","-0010,1","99999,9","51,1",,"07,1,+00630,1,99,9",,,"07,99,1,99,9,99,9,99999,9,99,9,99,9","10210,1,99999,9",,"MET074METAR ENFB 281120Z AUTO 15031KT 9999NDV -DZ BKN021/// 03/M01 Q1021 W///S5;",
"01488199999","2010-12-28T11:50:00","4","61.206389","1.828889","142.0","STATFJORD B OIL PLATFORM, NO","FM-15","ENFB ","V020","160,1,N,0175,1","00570,1,9,N","011265,1,N,1","+0030,1","-0010,1","99999,9","81,1",,"07,1,+00570,1,99,9",,,"07,99,1,99,9,99,9,99999,9,99,9,99,9","10210,1,99999,9",,"MET076METAR ENFB 281150Z AUTO 16034KT 9999NDV -SHRA BKN019/// 03/M01 Q1021 W///S5;",
"01488199999","2010-12-28T12:20:00","4","61.206389","1.828889","142.0","STATFJORD B OIL PLATFORM, NO","FM-15","ENFB ","V020","150,1,N,0170,1","00510,1,9,N","011265,1,N,1","+0030,1","-0010,1","99999,9","81,1",,"07,1,+00510,1,99,9",,,"07,99,1,99,9,99,9,99999,9,99,9,99,9","10210,1,99999,9",,"MET076METAR ENFB 281220Z AUTO 15033KT 9999NDV -SHRA BKN017/// 03/M01 Q1021 W///S5;",
"01488199999","2010-12-28T12:50:00","4","61.206389","1.828889","142.0","STATFJORD B OIL PLATFORM, NO","FM-15","ENFB ","V020","150,1,N,0165,1","00480,1,9,N","011265,1,N,1","+0030,1","-0010,1","99999,9","81,1",,"08,1,+00480,1,99,9",,,"08,99,1,99,9,99,9,99999,9,99,9,99,9","10210,1,99999,9",,"MET076METAR ENFB 281250Z AUTO 15032KT 9999NDV -SHRA OVC016/// 03/M01 Q1021 W///S5;",
"01488199999","2010-12-28T13:20:00","4","61.206389","1.828889","142.0","STATFJORD B OIL PLATFORM, NO","FM-15","ENFB ","V020","150,1,N,0159,1","00480,1,9,N","011265,1,N,1","+0020,1","-0010,1","99999,9","81,1",,"07,1,+00480,1,99,9",,,"07,99,1,99,9,99,9,99999,9,99,9,99,9","10210,1,99999,9",,"MET076METAR ENFB 281320Z AUTO 15031KT 9999NDV -SHRA BKN016/// 02/M01 Q1021 W///S5;",
"01488199999","2010-12-28T13:50:00","4","61.206389","1.828889","142.0","STATFJORD B OIL PLATFORM, NO","FM-15","ENFB ","V020","150,1,N,0165,1","00480,1,9,N","011265,1,N,1","+0030,1","-0010,1","99999,9","81,1",,"08,1,+00480,1,99,9",,,"08,99,1,99,9,99,9,99999,9,99,9,99,9","10210,1,99999,9",,"MET076METAR ENFB 281350Z AUTO 15032KT 9999NDV -SHRA OVC016/// 03/M01 Q1021 W///S5;",
"01488199999","2010-12-28T14:20:00","4","61.206389","1.828889","142.0","STATFJORD B OIL PLATFORM, NO","FM-15","ENFB ","V020","999,9,9,9999,9","22000,1,9,N","999999,9,N,1","+9999,9","+9999,9","99999,9",,,,,,,,,"MET060METAR ENFB 281420Z AUTO /////KT //// /// ///// Q//// W///S5;",
"01488199999","2010-12-28T14:50:00","4","61.206389","1.828889","142.0","STATFJORD B OIL PLATFORM, NO","FM-15","ENFB ","V020","150,1,N,0165,1","00480,1,9,N","011265,1,N,1","+0030,1","-0010,1","99999,9",,,"07,1,+00480,1,99,9",,,"07,99,1,99,9,99,9,99999,9,99,9,99,9","10210,1,99999,9",,"MET070METAR ENFB 281450Z AUTO 15032KT 9999NDV BKN016/// 03/M01 Q1021 W///S5;",
"01488199999","2010-12-28T15:20:00","4","61.206389","1.828889","142.0","STATFJORD B OIL PLATFORM, NO","FM-15","ENFB ","V020","150,1,N,0170,1","00450,1,9,N","011265,1,N,1","+0030,1","+0000,1","99999,9",,,"07,1,+00450,1,99,9",,,"07,99,1,99,9,99,9,99999,9,99,9,99,9","10210,1,99999,9",,"MET069METAR ENFB 281520Z AUTO 15033KT 9999NDV BKN015/// 03/00 Q1021 W///S5;",
"01488199999","2010-12-28T15:50:00","4","61.206389","1.828889","142.0","STATFJORD B OIL PLATFORM, NO","FM-15","ENFB ","V020","150,1,N,0165,1","00450,1,9,N","011265,1,N,1","+0030,1","+0000,1","99999,9",,,"07,1,+00450,1,99,9",,,"07,99,1,99,9,99,9,99999,9,99,9,99,9","10210,1,99999,9",,"MET069METAR ENFB 281550Z AUTO 15032KT 9999NDV BKN015/// 03/00 Q1021 W///S5;",
"01488199999","2010-12-28T16:20:00","4","61.206389","1.828889","142.0","STATFJORD B OIL PLATFORM, NO","FM-15","ENFB ","V020","150,1,N,0175,1","00450,1,9,N","011265,1,N,1","+0030,1","+0000,1","99999,9",,,"08,1,+00450,1,99,9",,,"08,99,1,99,9,99,9,99999,9,99,9,99,9","10210,1,99999,9",,"MET069METAR ENFB 281620Z AUTO 15034KT 9999NDV OVC015/// 03/00 Q1021 W///S5;",
"01488199999","2010-12-28T16:50:00","4","61.206389","1.828889","142.0","STATFJORD B OIL PLATFORM, NO","FM-15","ENFB ","V020","150,1,N,0175,1","00480,1,9,N","011265,1,N,1","+0030,1","+0000,1","99999,9","81,1",,"08,1,+00480,1,99,9",,,"08,99,1,99,9,99,9,99999,9,99,9,99,9","10210,1,99999,9",,"MET075METAR ENFB 281650Z AUTO 15034KT 9999NDV -SHRA OVC016/// 03/00 Q1021 W///S5;",
"01488199999","2010-12-28T17:20:00","4","61.206389","1.828889","142.0","STATFJORD B OIL PLATFORM, NO","FM-15","ENFB ","V020","150,1,N,0175,1","00420,1,9,N","011265,1,N,1","+0030,1","+0000,1","99999,9",,,"07,1,+00420,1,99,9",,,"07,99,1,99,9,99,9,99999,9,99,9,99,9","10210,1,99999,9",,"MET069METAR ENFB 281720Z AUTO 15034KT 9999NDV BKN014/// 03/00 Q1021 W///S5;",
"01488199999","2010-12-28T17:50:00","4","61.206389","1.828889","142.0","STATFJORD B OIL PLATFORM, NO","FM-15","ENFB ","V020","150,1,N,0185,1","00390,1,9,N","011265,1,N,1","+0030,1","+0000,1","99999,9",,,"07,1,+00390,1,99,9",,,"07,99,1,99,9,99,9,99999,9,99,9,99,9","10210,1,99999,9",,"MET069METAR ENFB 281750Z AUTO 15036KT 9999NDV BKN013/// 03/00 Q1021 W///S6;",
"01488199999","2010-12-28T18:20:00","4","61.206389","1.828889","142.0","STATFJORD B OIL PLATFORM, NO","FM-15","ENFB ","V020","140,1,N,0170,1","00330,1,9,N","011265,1,N,1","+0030,1","+0010,1","99999,9",,,"07,1,+00330,1,99,9",,,"07,99,1,99,9,99,9,99999,9,99,9,99,9","10210,1,99999,9",,"MET069METAR ENFB 281820Z AUTO 14033KT 9999NDV BKN011/// 03/01 Q1021 W///S6;",
"01488199999","2010-12-28T18:50:00","4","61.206389","1.828889","142.0","STATFJORD B OIL PLATFORM, NO","FM-15","ENFB ","V020","150,1,N,0180,1","00330,1,9,N","011265,1,N,1","+0030,1","+0010,1","99999,9","81,1",,"07,1,+00330,1,99,9","07,1,+01170,1,99,9",,"07,99,1,99,9,99,9,99999,9,99,9,99,9","10210,1,99999,9",,"MET085METAR ENFB 281850Z AUTO 15035KT 9999NDV -SHRA BKN011/// BKN039/// 03/01 Q1021 W///S6;",
"01488199999","2010-12-28T19:20:00","4","61.206389","1.828889","142.0","STATFJORD B OIL PLATFORM, NO","FM-15","ENFB ","V020","150,1,N,0180,1","00300,1,9,N","011265,1,N,1","+0030,1","+0010,1","99999,9","81,1",,"07,1,+00300,1,99,9",,,"07,99,1,99,9,99,9,99999,9,99,9,99,9","10210,1,99999,9",,"MET075METAR ENFB 281920Z AUTO 15035KT 9999NDV -SHRA BKN010/// 03/01 Q1021 W///S6;",
"01488199999","2010-12-28T19:50:00","4","61.206389","1.828889","142.0","STATFJORD B OIL PLATFORM, NO","FM-15","ENFB ","V020","150,1,N,0175,1","00270,1,9,N","011265,1,N,1","+0030,1","+0010,1","99999,9","81,1",,"07,1,+00270,1,99,9",,,"07,99,1,99,9,99,9,99999,9,99,9,99,9","10210,1,99999,9",,"MET075METAR ENFB 281950Z AUTO 15034KT 9999NDV -SHRA BKN009/// 03/01 Q1021 W///S6;",
"01488199999","2010-12-28T20:20:00","4","61.206389","1.828889","142.0","STATFJORD B OIL PLATFORM, NO","FM-15","ENFB ","V020","150,1,N,0180,1","00390,1,9,N","011265,1,N,1","+0030,1","+0010,1","99999,9","61,1",,"08,1,+00390,1,99,9",,,"08,99,1,99,9,99,9,99999,9,99,9,99,9","10210,1,99999,9",,"MET073METAR ENFB 282020Z AUTO 15035KT 9999NDV -RA OVC013/// 03/01 Q1021 W///S6;",
"01488199999","2010-12-28T20:50:00","4","61.206389","1.828889","142.0","STATFJORD B OIL PLATFORM, NO","FM-15","ENFB ","V020","150,1,N,0175,1","00420,1,9,N","011265,1,N,1","+0040,1","+0010,1","99999,9","81,1",,"07,1,+00420,1,99,9",,,"07,99,1,99,9,99,9,99999,9,99,9,99,9","10210,1,99999,9",,"MET075METAR ENFB 282050Z AUTO 15034KT 9999NDV -SHRA BKN014/// 04/01 Q1021 W///S6;",
"01488199999","2010-12-28T21:20:00","4","61.206389","1.828889","142.0","STATFJORD B OIL PLATFORM, NO","FM-15","ENFB ","V020","160,1,N,0185,1","00420,1,9,N","011265,1,N,1","+0040,1","+0010,1","99999,9",,,"07,1,+00420,1,99,9",,,"07,99,1,99,9,99,9,99999,9,99,9,99,9","10210,1,99999,9",,"MET069METAR ENFB 282120Z AUTO 16036KT 9999NDV BKN014/// 04/01 Q1021 W///S6;",
"01488199999","2010-12-28T21:50:00","4","61.206389","1.828889","142.0","STATFJORD B OIL PLATFORM, NO","FM-15","ENFB ","V020","150,1,N,0185,1","00390,1,9,N","011265,1,N,1","+0040,1","+0010,1","99999,9","81,1",,"07,1,+00390,1,99,9",,,"07,99,1,99,9,99,9,99999,9,99,9,99,9","10210,1,99999,9",,"MET075METAR ENFB 282150Z AUTO 15036KT 9999NDV -SHRA BKN013/// 04/01 Q1021 W///S5;",
"01488199999","2010-12-28T22:20:00","4","61.206389","1.828889","142.0","STATFJORD B OIL PLATFORM, NO","FM-15","ENFB ","V020","150,1,N,0175,1","00360,1,9,N","011265,1,N,1","+0040,1","+0010,1","99999,9","81,1",,"07,1,+00360,1,99,9",,,"07,99,1,99,9,99,9,99999,9,99,9,99,9","10210,1,99999,9",,"MET075METAR ENFB 282220Z AUTO 15034KT 9999NDV -SHRA BKN012/// 04/01 Q1021 W///S6;",
"01488199999","2010-12-28T22:50:00","4","61.206389","1.828889","142.0","STATFJORD B OIL PLATFORM, NO","FM-15","ENFB ","V020","150,1,N,0185,1","00300,1,9,N","008000,1,N,1","+0030,1","+0010,1","99999,9","61,1",,"07,1,+00300,1,99,9",,,"07,99,1,99,9,99,9,99999,9,99,9,99,9","10210,1,99999,9",,"MET073METAR ENFB 282250Z AUTO 15036KT 8000NDV -RA BKN010/// 03/01 Q1021 W///S6;",
"01488199999","2010-12-28T23:20:00","4","61.206389","1.828889","142.0","STATFJORD B OIL PLATFORM, NO","FM-15","ENFB ","V020","150,1,N,0180,1","00360,1,9,N","011265,1,N,1","+0040,1","+0020,1","99999,9","81,1",,"07,1,+00360,1,99,9",,,"07,99,1,99,9,99,9,99999,9,99,9,99,9","10200,1,99999,9",,"MET075METAR ENFB 282320Z AUTO 15035KT 9999NDV -SHRA BKN012/// 04/02 Q1020 W///S6;",
"01488199999","2010-12-28T23:50:00","4","61.206389","1.828889","142.0","STATFJORD B OIL PLATFORM, NO","FM-15","ENFB ","V020","160,1,N,0185,1","00420,1,9,N","011265,1,N,1","+0040,1","+0010,1","99999,9",,,"07,1,+00420,1,99,9",,,"07,99,1,99,9,99,9,99999,9,99,9,99,9","10200,1,99999,9",,"MET069METAR ENFB 282350Z AUTO 16036KT 9999NDV BKN014/// 04/01 Q1020 W///S5;",
"01488199999","2010-12-29T00:20:00","4","61.206389","1.828889","142.0","STATFJORD B OIL PLATFORM, NO","FM-15","ENFB ","V020","160,1,N,0180,1","00480,1,9,N","011265,1,N,1","+0040,1","+0010,1","99999,9",,,"08,1,+00480,1,99,9",,,"08,99,1,99,9,99,9,99999,9,99,9,99,9","10200,1,99999,9",,"MET069METAR ENFB 290020Z AUTO 16035KT 9999NDV OVC016/// 04/01 Q1020 W///S5;",
"01488199999","2010-12-29T00:50:00","4","61.206389","1.828889","142.0","STATFJORD B OIL PLATFORM, NO","FM-15","ENFB ","V020","160,1,N,0185,1","00570,1,9,N","011265,1,N,1","+0040,1","+0000,1","99999,9",,,"07,1,+00570,1,99,9",,,"07,99,1,99,9,99,9,99999,9,99,9,99,9","10200,1,99999,9",,"MET069METAR ENFB 290050Z AUTO 16036KT 9999NDV BKN019/// 04/00 Q1020 W///S6;",
"01488199999","2010-12-29T01:20:00","4","61.206389","1.828889","142.0","STATFJORD B OIL PLATFORM, NO","FM-15","ENFB ","V020","160,1,N,0190,1","00600,1,9,N","011265,1,N,1","+0040,1","+0000,1","99999,9",,,"07,1,+00600,1,99,9",,,"07,99,1,99,9,99,9,99999,9,99,9,99,9","10200,1,99999,9",,"MET069METAR ENFB 290120Z AUTO 16037KT 9999NDV BKN020/// 04/00 Q1020 W///S5;",
"01488199999","2010-12-29T01:50:00","4","61.206389","1.828889","142.0","STATFJORD B OIL PLATFORM, NO","FM-15","ENFB ","V020","160,1,N,0190,1","00690,1,9,N","011265,1,N,1","+0040,1","+0000,1","99999,9",,,"08,1,+00690,1,99,9",,,"08,99,1,99,9,99,9,99999,9,99,9,99,9","10200,1,99999,9",,"MET069METAR ENFB 290150Z AUTO 16037KT 9999NDV OVC023/// 04/00 Q1020 W///S6;",
"01488199999","2010-12-29T02:20:00","4","61.206389","1.828889","142.0","STATFJORD B OIL PLATFORM, NO","FM-15","ENFB ","V020","170,1,N,0195,1","00690,1,9,N","011265,1,N,1","+0050,1","-0010,1","99999,9",,,"08,1,+00690,1,99,9",,,"08,99,1,99,9,99,9,99999,9,99,9,99,9","10200,1,99999,9",,"MET070METAR ENFB 290220Z AUTO 17038KT 9999NDV OVC023/// 05/M01 Q1020 W///S6;",
"01488199999","2010-12-29T02:50:00","4","61.206389","1.828889","142.0","STATFJORD B OIL PLATFORM, NO","FM-15","ENFB ","V020","170,1,N,0201,1","00750,1,9,N","011265,1,N,1","+0040,1","+0000,1","99999,9",,,"08,1,+00750,1,99,9",,,"08,99,1,99,9,99,9,99999,9,99,9,99,9","10200,1,99999,9",,"MET069METAR ENFB 290250Z AUTO 17039KT 9999NDV OVC025/// 04/00 Q1020 W///S6;",
"01488199999","2010-12-29T03:20:00","4","61.206389","1.828889","142.0","STATFJORD B OIL PLATFORM, NO","FM-15","ENFB ","V020","160,1,N,0185,1","00840,1,9,N","011265,1,N,1","+0050,1","+0000,1","99999,9",,,"08,1,+00840,1,99,9",,,"08,99,1,99,9,99,9,99999,9,99,9,99,9","10200,1,99999,9",,"MET069METAR ENFB 290320Z AUTO 16036KT 9999NDV OVC028/// 05/00 Q1020 W///S6;",
"01488199999","2010-12-29T03:50:00","4","61.206389","1.828889","142.0","STATFJORD B OIL PLATFORM, NO","FM-15","ENFB ","V020","170,1,N,0180,1","00690,1,9,N","011265,1,N,1","+0050,1","+0000,1","99999,9",,,"08,1,+00690,1,99,9",,,"08,99,1,99,9,99,9,99999,9,99,9,99,9","10190,1,99999,9",,"MET069METAR ENFB 290350Z AUTO 17035KT 9999NDV OVC023/// 05/00 Q1019 W///S6;",
"01488199999","2010-12-29T04:20:00","4","61.206389","1.828889","142.0","STATFJORD B OIL PLATFORM, NO","FM-15","ENFB ","V020","160,1,N,0185,1","00540,1,9,N","011265,1,N,1","+0040,1","+0010,1","99999,9",,,"07,1,+00540,1,99,9",,,"07,99,1,99,9,99,9,99999,9,99,9,99,9","10190,1,99999,9",,"MET069METAR ENFB 290420Z AUTO 16036KT 9999NDV BKN018/// 04/01 Q1019 W///S6;",
"01488199999","2010-12-29T04:50:00","4","61.206389","1.828889","142.0","STATFJORD B OIL PLATFORM, NO","FM-15","ENFB ","V020","170,1,N,0185,1","00480,1,9,N","011265,1,N,1","+0040,1","+0010,1","99999,9","81,1",,"07,1,+00480,1,99,9",,,"07,99,1,99,9,99,9,99999,9,99,9,99,9","10190,1,99999,9",,"MET075METAR ENFB 290450Z AUTO 17036KT 9999NDV -SHRA BKN016/// 04/01 Q1019 W///S5;",
"01488199999","2010-12-29T05:20:00","4","61.206389","1.828889","142.0","STATFJORD B OIL PLATFORM, NO","FM-15","ENFB ","V020","170,1,N,0185,1","00480,1,9,N","011265,1,N,1","+0050,1","+0010,1","99999,9",,,"07,1,+00480,1,99,9",,,"07,99,1,99,9,99,9,99999,9,99,9,99,9","10190,1,99999,9",,"MET069METAR ENFB 290520Z AUTO 17036KT 9999NDV BKN016/// 05/01 Q1019 W///S5;",
"01488199999","2010-12-29T05:50:00","4","61.206389","1.828889","142.0","STATFJORD B OIL PLATFORM, NO","FM-15","ENFB ","V020","170,1,N,0185,1","00510,1,9,N","011265,1,N,1","+0050,1","+0010,1","99999,9",,,"07,1,+00510,1,99,9",,,"07,99,1,99,9,99,9,99999,9,99,9,99,9","10190,1,99999,9",,"MET069METAR ENFB 290550Z AUTO 17036KT 9999NDV BKN017/// 05/01 Q1019 W///S5;",
"01488199999","2010-12-29T06:20:00","4","61.206389","1.828889","142.0","STATFJORD B OIL PLATFORM, NO","FM-15","ENFB ","V020","180,1,N,0175,1","00480,1,9,N","011265,1,N,1","+0050,1","+0010,1","99999,9",,,"07,1,+00480,1,99,9",,,"07,99,1,99,9,99,9,99999,9,99,9,99,9","10190,1,99999,9",,"MET069METAR ENFB 290620Z AUTO 18034KT 9999NDV BKN016/// 05/01 Q1019 W///S5;",
"01488199999","2010-12-29T06:50:00","4","61.206389","1.828889","142.0","STATFJORD B OIL PLATFORM, NO","FM-15","ENFB ","V020","180,1,N,0165,1","00420,1,9,N","011265,1,N,1","+0050,1","+0020,1","99999,9",,,"07,1,+00420,1,99,9",,,"07,99,1,99,9,99,9,99999,9,99,9,99,9","10190,1,99999,9",,"MET069METAR ENFB 290650Z AUTO 18032KT 9999NDV BKN014/// 05/02 Q1019 W///S5;",
"01488199999","2010-12-29T07:20:00","4","61.206389","1.828889","142.0","STATFJORD B OIL PLATFORM, NO","FM-15","ENFB ","V020","180,1,N,0170,1","00480,1,9,N","011265,1,N,1","+0050,1","+0020,1","99999,9",,,"07,1,+00480,1,99,9",,,"07,99,1,99,9,99,9,99999,9,99,9,99,9","10190,1,99999,9",,"MET069METAR ENFB 290720Z AUTO 18033KT 9999NDV BKN016/// 05/02 Q1019 W///S6;",
"01488199999","2010-12-29T07:50:00","4","61.206389","1.828889","142.0","STATFJORD B OIL PLATFORM, NO","FM-15","ENFB ","V020","190,1,N,0180,1","00480,1,9,N","011265,1,N,1","+0050,1","+0010,1","99999,9",,,"08,1,+00480,1,99,9",,,"08,99,1,99,9,99,9,99999,9,99,9,99,9","10190,1,99999,9",,"MET069METAR ENFB 290750Z AUTO 19035KT 9999NDV OVC016/// 05/01 Q1019 W///S5;",
"01488199999","2010-12-29T08:20:00","4","61.206389","1.828889","142.0","STATFJORD B OIL PLATFORM, NO","FM-15","ENFB ","V020","180,1,N,0190,1","00450,1,9,N","011265,1,N,1","+0050,1","+0020,1","99999,9",,,"08,1,+00450,1,99,9",,,"08,99,1,99,9,99,9,99999,9,99,9,99,9","10190,1,99999,9",,"MET069METAR ENFB 290820Z AUTO 18037KT 9999NDV OVC015/// 05/02 Q1019 W///S5;",
"01488199999","2010-12-29T08:50:00","4","61.206389","1.828889","142.0","STATFJORD B OIL PLATFORM, NO","FM-15","ENFB ","V020","180,1,N,0195,1","00420,1,9,N","011265,1,N,1","+0050,1","+0020,1","99999,9","81,1",,"08,1,+00420,1,99,9",,,"08,99,1,99,9,99,9,99999,9,99,9,99,9","10190,1,99999,9",,"MET075METAR ENFB 290850Z AUTO 18038KT 9999NDV -SHRA OVC014/// 05/02 Q1019 W///S5;",
"01488199999","2010-12-29T09:20:00","4","61.206389","1.828889","142.0","STATFJORD B OIL PLATFORM, NO","FM-15","ENFB ","V020","180,1,N,0180,1","00420,1,9,N","011265,1,N,1","+0050,1","+0020,1","99999,9",,,"08,1,+00420,1,99,9",,,"08,99,1,99,9,99,9,99999,9,99,9,99,9","10190,1,99999,9",,"MET069METAR ENFB 290920Z AUTO 18035KT 9999NDV OVC014/// 05/02 Q1019 W///S5;",
"01488199999","2010-12-29T09:50:00","4","61.206389","1.828889","142.0","STATFJORD B OIL PLATFORM, NO","FM-15","ENFB ","V020","180,1,N,0185,1","00420,1,9,N","011265,1,N,1","+0050,1","+0020,1","99999,9",,,"08,1,+00420,1,99,9",,,"08,99,1,99,9,99,9,99999,9,99,9,99,9","10190,1,99999,9",,"MET069METAR ENFB 290950Z AUTO 18036KT 9999NDV OVC014/// 05/02 Q1019 W///S5;",
"01488199999","2010-12-29T10:20:00","4","61.206389","1.828889","142.0","STATFJORD B OIL PLATFORM, NO","FM-15","ENFB ","V020","190,1,N,0190,1","00420,1,9,N","011265,1,N,1","+0050,1","+0020,1","99999,9",,,"08,1,+00420,1,99,9",,,"08,99,1,99,9,99,9,99999,9,99,9,99,9","10190,1,99999,9",,"MET069METAR ENFB 291020Z AUTO 19037KT 9999NDV OVC014/// 05/02 Q1019 W///S5;",
"01488199999","2010-12-29T10:50:00","4","61.206389","1.828889","142.0","STATFJORD B OIL PLATFORM, NO","FM-15","ENFB ","V020","190,1,N,0185,1","00420,1,9,N","011265,1,N,1","+0050,1","+0020,1","99999,9",,,"08,1,+00420,1,99,9",,,"08,99,1,99,9,99,9,99999,9,99,9,99,9","10190,1,99999,9",,"MET069METAR ENFB 291050Z AUTO 19036KT 9999NDV OVC014/// 05/02 Q1019 W///S5;",
"01488199999","2010-12-29T11:20:00","4","61.206389","1.828889","142.0","STATFJORD B OIL PLATFORM, NO","FM-15","ENFB ","V020","190,1,N,0190,1","00360,1,9,N","011265,1,N,1","+0050,1","+0030,1","99999,9","81,1",,"07,1,+00360,1,99,9",,,"07,99,1,99,9,99,9,99999,9,99,9,99,9","10190,1,99999,9",,"MET075METAR ENFB 291120Z AUTO 19037KT 9999NDV -SHRA BKN012/// 05/03 Q1019 W///S5;",
"01488199999","2010-12-29T11:50:00","4","61.206389","1.828889","142.0","STATFJORD B OIL PLATFORM, NO","FM-15","ENFB ","V020","190,1,N,0190,1","00330,1,9,N","011265,1,N,1","+0050,1","+0030,1","99999,9","81,1",,"07,1,+00330,1,99,9",,,"07,99,1,99,9,99,9,99999,9,99,9,99,9","10180,1,99999,9",,"MET075METAR ENFB 291150Z AUTO 19037KT 9999NDV -SHRA BKN011/// 05/03 Q1018 W///S5;",
"01488199999","2010-12-29T12:20:00","4","61.206389","1.828889","142.0","STATFJORD B OIL PLATFORM, NO","FM-15","ENFB ","V020","190,1,N,0201,1","00360,1,9,N","011265,1,N,1","+0050,1","+0030,1","99999,9","81,1",,"08,1,+00360,1,99,9",,,"08,99,1,99,9,99,9,99999,9,99,9,99,9","10180,1,99999,9",,"MET075METAR ENFB 291220Z AUTO 19039KT 9999NDV -SHRA OVC012/// 05/03 Q1018 W///S5;",
"01488199999","2010-12-29T12:50:00","4","61.206389","1.828889","142.0","STATFJORD B OIL PLATFORM, NO","FM-15","ENFB ","V020","190,1,N,0201,1","00360,1,9,N","011265,1,N,1","+0060,1","+0030,1","99999,9",,,"08,1,+00360,1,99,9",,,"08,99,1,99,9,99,9,99999,9,99,9,99,9","10180,1,99999,9",,"MET069METAR ENFB 291250Z AUTO 19039KT 9999NDV OVC012/// 06/03 Q1018 W///S5;",
"01488199999","2010-12-29T13:20:00","4","61.206389","1.828889","142.0","STATFJORD B OIL PLATFORM, NO","FM-15","ENFB ","V020","190,1,N,0216,1","00330,1,9,N","011265,1,N,1","+0050,1","+0030,1","99999,9",,,"08,1,+00330,1,99,9",,,"08,99,1,99,9,99,9,99999,9,99,9,99,9","10180,1,99999,9",,"MET069METAR ENFB 291320Z AUTO 19042KT 9999NDV OVC011/// 05/03 Q1018 W///S5;",
"01488199999","2010-12-29T13:50:00","4","61.206389","1.828889","142.0","STATFJORD B OIL PLATFORM, NO","FM-15","ENFB ","V020","190,1,N,0190,1","00360,1,9,N","011265,1,N,1","+0060,1","+0030,1","99999,9",,,"08,1,+00360,1,99,9",,,"08,99,1,99,9,99,9,99999,9,99,9,99,9","10180,1,99999,9",,"MET069METAR ENFB 291350Z AUTO 19037KT 9999NDV OVC012/// 06/03 Q1018 W///S5;",
"01488199999","2010-12-29T14:20:00","4","61.206389","1.828889","142.0","STATFJORD B OIL PLATFORM, NO","FM-15","ENFB ","V020","200,1,N,0201,1","00360,1,9,N","011265,1,N,1","+0060,1","+0030,1","99999,9","81,1",,"08,1,+00360,1,99,9",,,"08,99,1,99,9,99,9,99999,9,99,9,99,9","10180,1,99999,9",,"MET075METAR ENFB 291420Z AUTO 20039KT 9999NDV -SHRA OVC012/// 06/03 Q1018 W///S6;",
"01488199999","2010-12-29T14:50:00","4","61.206389","1.828889","142.0","STATFJORD B OIL PLATFORM, NO","FM-15","ENFB ","V020","200,1,N,0190,1","00330,1,9,N","011265,1,N,1","+0060,1","+0030,1","99999,9",,,"07,1,+00330,1,99,9",,,"07,99,1,99,9,99,9,99999,9,99,9,99,9","10180,1,99999,9",,"MET069METAR ENFB 291450Z AUTO 20037KT 9999NDV BKN011/// 06/03 Q1018 W///S5;",
"01488199999","2010-12-29T15:20:00","4","61.206389","1.828889","142.0","STATFJORD B OIL PLATFORM, NO","FM-15","ENFB ","V020","200,1,N,0185,1","00270,1,9,N","004500,1,N,1","+0050,1","+0040,1","99999,9","10,1","81,1","07,1,+00270,1,99,9",,,"07,99,1,99,9,99,9,99999,9,99,9,99,9","10180,1,99999,9",,"MET078METAR ENFB 291520Z AUTO 20036KT 4500NDV -SHRA BR BKN009/// 05/04 Q1018 W///S5;",
"01488199999","2010-12-29T15:50:00","4","61.206389","1.828889","142.0","STATFJORD B OIL PLATFORM, NO","FM-15","ENFB ","V020","200,1,N,0185,1","00180,1,9,N","005000,1,N,1","+0060,1","+0040,1","99999,9","51,1",,"07,1,+00180,1,99,9",,,"07,99,1,99,9,99,9,99999,9,99,9,99,9","10190,1,99999,9",,"MET073METAR ENFB 291550Z AUTO 20036KT 5000NDV -DZ BKN006/// 06/04 Q1019 W///S5;",
"01488199999","2010-12-29T16:20:00","4","61.206389","1.828889","142.0","STATFJORD B OIL PLATFORM, NO","FM-15","ENFB ","V020","200,1,N,0190,1","00150,1,9,N","008000,1,N,1","+0050,1","+0040,1","99999,9","51,1",,"07,1,+00150,1,99,9",,,"07,99,1,99,9,99,9,99999,9,99,9,99,9","10180,1,99999,9",,"MET073METAR ENFB 291620Z AUTO 20037KT 8000NDV -DZ BKN005/// 05/04 Q1018 W///S5;",
"01488199999","2010-12-29T16:50:00","4","61.206389","1.828889","142.0","STATFJORD B OIL PLATFORM, NO","FM-15","ENFB ","V020","200,1,N,0185,1","00180,1,9,N","009000,1,N,1","+0060,1","+0050,1","99999,9",,,"08,1,+00180,1,99,9",,,"08,99,1,99,9,99,9,99999,9,99,9,99,9","10180,1,99999,9",,"MET069METAR ENFB 291650Z AUTO 20036KT 9000NDV OVC006/// 06/05 Q1018 W///S5;",
"01488199999","2010-12-29T17:20:00","4","61.206389","1.828889","142.0","STATFJORD B OIL PLATFORM, NO","FM-15","ENFB ","V020","200,1,N,0185,1","00210,1,9,N","011265,1,N,1","+0060,1","+0050,1","99999,9",,,"08,1,+00210,1,99,9",,,"08,99,1,99,9,99,9,99999,9,99,9,99,9","10180,1,99999,9",,"MET069METAR ENFB 291720Z AUTO 20036KT 9999NDV OVC007/// 06/05 Q1018 W///S5;",
"01488199999","2010-12-29T17:50:00","4","61.206389","1.828889","142.0","STATFJORD B OIL PLATFORM, NO","FM-15","ENFB ","V020","200,1,N,0190,1","00240,1,9,N","011265,1,N,1","+0060,1","+0050,1","99999,9",,,"08,1,+00240,1,99,9",,,"08,99,1,99,9,99,9,99999,9,99,9,99,9","10180,1,99999,9",,"MET069METAR ENFB 291750Z AUTO 20037KT 9999NDV OVC008/// 06/05 Q1018 W///S5;",
"01488199999","2010-12-29T18:20:00","4","61.206389","1.828889","142.0","STATFJORD B OIL PLATFORM, NO","FM-15","ENFB ","V020","200,1,N,0190,1","00240,1,9,N","011265,1,N,1","+0060,1","+0050,1","99999,9",,,"08,1,+00240,1,99,9",,,"08,99,1,99,9,99,9,99999,9,99,9,99,9","10180,1,99999,9",,"MET069METAR ENFB 291820Z AUTO 20037KT 9999NDV OVC008/// 06/05 Q1018 W///S5;",
"01488199999","2010-12-29T18:50:00","4","61.206389","1.828889","142.0","STATFJORD B OIL PLATFORM, NO","FM-15","ENFB ","V020","200,1,N,0180,1","00210,1,9,N","011265,1,N,1","+0060,1","+0050,1","99999,9",,,"08,1,+00210,1,99,9",,,"08,99,1,99,9,99,9,99999,9,99,9,99,9","10180,1,99999,9",,"MET069METAR ENFB 291850Z AUTO 20035KT 9999NDV OVC007/// 06/05 Q1018 W///S5;",
"01488199999","2010-12-29T19:20:00","4","61.206389","1.828889","142.0","STATFJORD B OIL PLATFORM, NO","FM-15","ENFB ","V020","200,1,N,0175,1","00180,1,9,N","011265,1,N,1","+0060,1","+0050,1","99999,9",,,"08,1,+00180,1,99,9",,,"08,99,1,99,9,99,9,99999,9,99,9,99,9","10180,1,99999,9",,"MET069METAR ENFB 291920Z AUTO 20034KT 9999NDV OVC006/// 06/05 Q1018 W///S5;",
"01488199999","2010-12-29T19:50:00","4","61.206389","1.828889","142.0","STATFJORD B OIL PLATFORM, NO","FM-15","ENFB ","V020","210,1,N,0165,1","00180,1,9,N","011265,1,N,1","+0060,1","+0060,1","99999,9",,,"08,1,+00180,1,99,9",,,"08,99,1,99,9,99,9,99999,9,99,9,99,9","10180,1,99999,9",,"MET069METAR ENFB 291950Z AUTO 21032KT 9999NDV OVC006/// 06/06 Q1018 W///S5;",
"01488199999","2010-12-29T20:20:00","4","61.206389","1.828889","142.0","STATFJORD B OIL PLATFORM, NO","FM-15","ENFB ","V020","210,1,N,0165,1","00180,1,9,N","011265,1,N,1","+0070,1","+0060,1","99999,9",,,"08,1,+00180,1,99,9",,,"08,99,1,99,9,99,9,99999,9,99,9,99,9","10180,1,99999,9",,"MET069METAR ENFB 292020Z AUTO 21032KT 9999NDV OVC006/// 07/06 Q1018 W///S5;",
"01488199999","2010-12-29T20:50:00","4","61.206389","1.828889","142.0","STATFJORD B OIL PLATFORM, NO","FM-15","ENFB ","V020","210,1,N,0159,1","00180,1,9,N","011265,1,N,1","+0070,1","+0060,1","99999,9",,,"08,1,+00180,1,99,9",,,"08,99,1,99,9,99,9,99999,9,99,9,99,9","10180,1,99999,9",,"MET069METAR ENFB 292050Z AUTO 21031KT 9999NDV OVC006/// 07/06 Q1018 W///S5;",
"01488199999","2010-12-29T21:20:00","4","61.206389","1.828889","142.0","STATFJORD B OIL PLATFORM, NO","FM-15","ENFB ","V020","210,1,N,0159,1","00210,1,9,N","011265,1,N,1","+0070,1","+0060,1","99999,9",,,"08,1,+00210,1,99,9",,,"08,99,1,99,9,99,9,99999,9,99,9,99,9","10180,1,99999,9",,"MET069METAR ENFB 292120Z AUTO 21031KT 9999NDV OVC007/// 07/06 Q1018 W///S5;",
"01488199999","2010-12-29T21:50:00","4","61.206389","1.828889","142.0","STATFJORD B OIL PLATFORM, NO","FM-15","ENFB ","V020","210,1,N,0154,1","00240,1,9,N","006000,1,N,1","+0070,1","+0060,1","99999,9",,,"08,1,+00240,1,99,9",,,"08,99,1,99,9,99,9,99999,9,99,9,99,9","10180,1,99999,9",,"MET069METAR ENFB 292150Z AUTO 21030KT 6000NDV OVC008/// 07/06 Q1018 W///S5;",
"01488199999","2010-12-29T22:20:00","4","61.206389","1.828889","142.0","STATFJORD B OIL PLATFORM, NO","FM-15","ENFB ","V020","210,1,N,0159,1","22000,1,9,N","002600,1,N,1","+0070,1","+0060,1","99999,9","10,1",,,,,"00,99,1,99,9,99,9,99999,9,99,9,99,9","10180,1,99999,9",,"MET066METAR ENFB 292220Z AUTO 21031KT 2600NDV BR NCD 07/06 Q1018 W///S5;","Q01    003SCCGA1"
"01488199999","2010-12-29T22:50:00","4","61.206389","1.828889","142.0","STATFJORD B OIL PLATFORM, NO","FM-15","ENFB ","V020","210,1,N,0154,1","00150,1,9,N","004500,1,N,1","+0070,1","+0060,1","99999,9","10,1","81,1","07,1,+00150,1,99,9",,,"07,99,1,99,9,99,9,99999,9,99,9,99,9","10180,1,99999,9",,"MET078METAR ENFB 292250Z AUTO 21030KT 4500NDV -SHRA BR BKN005/// 07/06 Q1018 W///S5;",
"01488199999","2010-12-29T23:20:00","4","61.206389","1.828889","142.0","STATFJORD B OIL PLATFORM, NO","FM-15","ENFB ","V020","210,1,N,0144,1","00150,1,9,N","003300,1,N,1","+0070,1","+0060,1","99999,9","10,1","81,1","07,1,+00150,1,99,9",,,"07,99,1,99,9,99,9,99999,9,99,9,99,9","10180,1,99999,9",,"MET078METAR ENFB 292320Z AUTO 21028KT 3300NDV -SHRA BR BKN005/// 07/06 Q1018 W///S5;",
"01488199999","2010-12-29T23:50:00","4","61.206389","1.828889","142.0","STATFJORD B OIL PLATFORM, NO","FM-15","ENFB ","V020","220,1,N,0144,1","00120,1,9,N","002000,1,N,1","+0070,1","+0070,1","99999,9","10,1","81,1","07,1,+00120,1,99,9",,,"07,99,1,99,9,99,9,99999,9,99,9,99,9","10180,1,99999,9",,"MET078METAR ENFB 292350Z AUTO 22028KT 2000NDV -SHRA BR BKN004/// 07/07 Q1018 W///S5;",
"01488199999","2010-12-30T00:20:00","4","61.206389","1.828889","142.0","STATFJORD B OIL PLATFORM, NO","FM-15","ENFB ","V020","220,1,N,0144,1","00120,1,9,N","002800,1,N,1","+0070,1","+0070,1","99999,9","10,1","81,1","07,1,+00120,1,99,9",,,"07,99,1,99,9,99,9,99999,9,99,9,99,9","10180,1,99999,9",,"MET078METAR ENFB 300020Z AUTO 22028KT 2800NDV -SHRA BR BKN004/// 07/07 Q1018 W///S5;",
"01488199999","2010-12-30T00:50:00","4","61.206389","1.828889","142.0","STATFJORD B OIL PLATFORM, NO","FM-15","ENFB ","V020","230,1,N,0149,1","00120,1,9,N","005000,1,N,1","+0070,1","+0070,1","99999,9","81,1",,"07,1,+00120,1,99,9",,,"07,99,1,99,9,99,9,99999,9,99,9,99,9","10169,1,99999,9",,"MET075METAR ENFB 300050Z AUTO 23029KT 5000NDV -SHRA BKN004/// 07/07 Q1017 W///S5;",
"01488199999","2010-12-30T01:20:00","4","61.206389","1.828889","142.0","STATFJORD B OIL PLATFORM, NO","FM-15","ENFB ","V020","230,1,N,0139,1","00120,1,9,N","002300,1,N,1","+0070,1","+0070,1","99999,9","10,1","61,1","07,1,+00120,1,99,9",,,"07,99,1,99,9,99,9,99999,9,99,9,99,9","10169,1,99999,9",,"MET076METAR ENFB 300120Z AUTO 23027KT 2300NDV -RA BR BKN004/// 07/07 Q1017 W///S5;",
"01488199999","2010-12-30T01:50:00","4","61.206389","1.828889","142.0","STATFJORD B OIL PLATFORM, NO","FM-15","ENFB ","V020","250,1,N,0134,1","00120,1,9,N","002900,1,N,1","+0070,1","+0070,1","99999,9","10,1","81,1","07,1,+00120,1,99,9",,,"07,99,1,99,9,99,9,99999,9,99,9,99,9","10169,1,99999,9",,"MET078METAR ENFB 300150Z AUTO 25026KT 2900NDV -SHRA BR BKN004/// 07/07 Q1017 W///S5;",
"01488199999","2010-12-30T02:20:00","4","61.206389","1.828889","142.0","STATFJORD B OIL PLATFORM, NO","FM-15","ENFB ","V020","340,1,N,0093,1","00120,1,9,N","002600,1,N,1","+0060,1","+0060,1","99999,9","10,1","81,1","07,1,+00120,1,99,9",,,"07,99,1,99,9,99,9,99999,9,99,9,99,9","10180,1,99999,9",,"MET078METAR ENFB 300220Z AUTO 34018KT 2600NDV -SHRA BR BKN004/// 06/06 Q1018 W///S5;",
"01488199999","2010-12-30T02:50:00","4","61.206389","1.828889","142.0","STATFJORD B OIL PLATFORM, NO","FM-15","ENFB ","V020","340,1,N,0057,1","00510,1,9,N","011265,1,N,1","+0060,1","+0060,1","99999,9",,,"04,1,+00150,1,99,9","07,1,+00510,1,99,9","07,1,+01200,1,99,9","07,99,1,99,9,99,9,99999,9,99,9,99,9","10180,1,99999,9",,"MET089METAR ENFB 300250Z AUTO 34011KT 9999NDV SCT005/// BKN017/// BKN040/// 06/06 Q1018 W///S4;",
"01488199999","2010-12-30T03:20:00","4","61.206389","1.828889","142.0","STATFJORD B OIL PLATFORM, NO","FM-15","ENFB ","V020","330,1,N,0046,1","00180,1,9,N","011265,1,N,1","+0060,1","+0060,1","99999,9",,,"07,1,+00180,1,99,9","07,1,+01500,1,99,9",,"07,99,1,99,9,99,9,99999,9,99,9,99,9","10180,1,99999,9",,"MET079METAR ENFB 300320Z AUTO 33009KT 9999NDV BKN006/// BKN054/// 06/06 Q1018 W///S4;",
"01488199999","2010-12-30T03:50:00","4","61.206389","1.828889","142.0","STATFJORD B OIL PLATFORM, NO","FM-15","ENFB ","V020","320,1,N,0072,1","00270,1,9,N","008000,1,N,1","+0060,1","+0060,1","99999,9","61,1",,"07,1,+00270,1,99,9",,,"07,99,1,99,9,99,9,99999,9,99,9,99,9","10180,1,99999,9",,"MET073METAR ENFB 300350Z AUTO 32014KT 8000NDV -RA BKN009/// 06/06 Q1018 W///S4;",
"01488199999","2010-12-30T04:20:00","4","61.206389","1.828889","142.0","STATFJORD B OIL PLATFORM, NO","FM-15","ENFB ","V020","310,1,N,0067,1","00570,1,9,N","011265,1,N,1","+0070,1","+0060,1","99999,9",,,"07,1,+00570,1,99,9",,,"07,99,1,99,9,99,9,99999,9,99,9,99,9","10180,1,99999,9",,"MET069METAR ENFB 300420Z AUTO 31013KT 9999NDV BKN019/// 07/06 Q1018 W///S4;",
"01488199999","2010-12-30T04:50:00","4","61.206389","1.828889","142.0","STATFJORD B OIL PLATFORM, NO","FM-15","ENFB ","V020","310,1,N,0093,1","04800,1,9,N","011265,1,N,1","+0070,1","+0060,1","99999,9",,,"02,1,+00990,1,99,9","07,1,+04800,1,99,9",,"07,99,1,99,9,99,9,99999,9,99,9,99,9","10180,1,99999,9",,"MET079METAR ENFB 300450Z AUTO 31018KT 9999NDV FEW033/// BKN160/// 07/06 Q1018 W///S4;",
"01488199999","2010-12-30T05:20:00","4","61.206389","1.828889","142.0","STATFJORD B OIL PLATFORM, NO","FM-15","ENFB ","V020","310,1,N,0098,1","04800,1,9,N","011265,1,N,1","+0070,1","+0050,1","99999,9",,,"02,1,+00720,1,99,9","07,1,+04800,1,99,9",,"07,99,1,99,9,99,9,99999,9,99,9,99,9","10180,1,99999,9",,"MET079METAR ENFB 300520Z AUTO 31019KT 9999NDV FEW024/// BKN160/// 07/05 Q1018 W///S4;",
"01488199999","2010-12-30T05:50:00","4","61.206389","1.828889","142.0","STATFJORD B OIL PLATFORM, NO","FM-15","ENFB ","V020","320,1,N,0098,1","04500,1,9,N","011265,1,N,1","+0070,1","+0050,1","99999,9",,,"07,1,+04500,1,99,9",,,"07,99,1,99,9,99,9,99999,9,99,9,99,9","10180,1,99999,9",,"MET069METAR ENFB 300550Z AUTO 32019KT 9999NDV BKN150/// 07/05 Q1018 W///S4;",
"01488199999","2010-12-30T06:20:00","4","61.206389","1.828889","142.0","STATFJORD B OIL PLATFORM, NO","FM-15","ENFB ","V020","330,1,N,0082,1","04200,1,9,N","011265,1,N,1","+0070,1","+0040,1","99999,9",,,"02,1,+00540,1,99,9","07,1,+04200,1,99,9",,"07,99,1,99,9,99,9,99999,9,99,9,99,9","10180,1,99999,9",,"MET079METAR ENFB 300620Z AUTO 33016KT 9999NDV FEW018/// BKN140/// 07/04 Q1018 W///S4;",
"01488199999","2010-12-30T06:50:00","4","61.206389","1.828889","142.0","STATFJORD B OIL PLATFORM, NO","FM-15","ENFB ","V020","320,1,N,0077,1","01320,1,C,N","011265,1,N,1","+0070,1","+0030,1","99999,9",,,"02,1,+00570,1,99,9","04,1,+01320,1,99,9","07,1,+03900,1,99,9","07,99,1,99,9,99,9,99999,9,99,9,99,9","10190,1,99999,9",,"MET089METAR ENFB 300650Z AUTO 32015KT 9999NDV FEW019/// SCT044/// BKN130/// 07/03 Q1019 W///S4;",
"01488199999","2010-12-30T07:20:00","4","61.206389","1.828889","142.0","STATFJORD B OIL PLATFORM, NO","FM-15","ENFB ","V020","320,1,N,0072,1","01140,1,9,N","011265,1,N,1","+0070,1","+0030,1","99999,9",,,"02,1,+00780,1,99,9","08,1,+01140,1,99,9",,"08,99,1,99,9,99,9,99999,9,99,9,99,9","10190,1,99999,9",,"MET079METAR ENFB 300720Z AUTO 32014KT 9999NDV FEW026/// OVC038/// 07/03 Q1019 W///S4;",
"01488199999","2010-12-30T07:50:00","4","61.206389","1.828889","142.0","STATFJORD B OIL PLATFORM, NO","FM-15","ENFB ","V020","300,1,N,0072,1","00750,1,9,N","011265,1,N,1","+0070,1","+0030,1","99999,9","81,1",,"07,1,+00750,1,99,9",,,"07,99,1,99,9,99,9,99999,9,99,9,99,9","10190,1,99999,9",,"MET075METAR ENFB 300750Z AUTO 30014KT 9999NDV -SHRA BKN025/// 07/03 Q1019 W///S4;",
"01488199999","2010-12-30T08:20:00","4","61.206389","1.828889","142.0","STATFJORD B OIL PLATFORM, NO","FM-15","ENFB ","V020","310,1,N,0072,1","01110,1,9,N","011265,1,N,1","+0070,1","+0030,1","99999,9",,,"07,1,+01110,1,99,9","07,1,+05400,1,99,9",,"07,99,1,99,9,99,9,99999,9,99,9,99,9","10190,1,99999,9",,"MET079METAR ENFB 300820Z AUTO 31014KT 9999NDV BKN037/// BKN180/// 07/03 Q1019 W///S4;",
"01488199999","2010-12-30T08:50:00","4","61.206389","1.828889","142.0","STATFJORD B OIL PLATFORM, NO","FM-15","ENFB ","V020","320,1,N,0087,1","00690,1,9,N","011265,1,N,1","+0070,1","+0030,1","99999,9",,,"07,1,+00690,1,99,9","07,1,+05100,1,99,9",,"07,99,1,99,9,99,9,99999,9,99,9,99,9","10190,1,99999,9",,"MET079METAR ENFB 300850Z AUTO 32017KT 9999NDV BKN023/// BKN170/// 07/03 Q1019 W///S4;",
"01488199999","2010-12-30T09:20:00","4","61.206389","1.828889","142.0","STATFJORD B OIL PLATFORM, NO","FM-15","ENFB ","V020","320,1,N,0087,1","04500,1,9,N","011265,1,N,1","+0070,1","+0030,1","99999,9",,,"04,1,+00720,1,99,9","07,1,+04500,1,99,9",,"07,99,1,99,9,99,9,99999,9,99,9,99,9","10190,1,99999,9",,"MET079METAR ENFB 300920Z AUTO 32017KT 9999NDV SCT024/// BKN150/// 07/03 Q1019 W///S4;",
"01488199999","2010-12-30T09:50:00","4","61.206389","1.828889","142.0","STATFJORD B OIL PLATFORM, NO","FM-15","ENFB ","V020","320,1,N,0093,1","04500,1,9,N","011265,1,N,1","+0070,1","+0030,1","99999,9",,,"04,1,+01200,1,99,9","07,1,+04500,1,99,9",,"07,99,1,99,9,99,9,99999,9,99,9,99,9","10190,1,99999,9",,"MET079METAR ENFB 300950Z AUTO 32018KT 9999NDV SCT040/// BKN150/// 07/03 Q1019 W///S4;",
"01488199999","2010-12-30T10:20:00","4","61.206389","1.828889","142.0","STATFJORD B OIL PLATFORM, NO","FM-15","ENFB ","V020","330,1,N,0108,1","04800,1,9,N","011265,1,N,1","+0060,1","+0020,1","99999,9",,,"02,1,+00690,1,99,9","07,1,+04800,1,99,9",,"07,99,1,99,9,99,9,99999,9,99,9,99,9","10190,1,99999,9",,"MET079METAR ENFB 301020Z AUTO 33021KT 9999NDV FEW023/// BKN160/// 06/02 Q1019 W///S4;",
"01488199999","2010-12-30T10:50:00","4","61.206389","1.828889","142.0","STATFJORD B OIL PLATFORM, NO","FM-15","ENFB ","V020","340,1,N,0108,1","01080,1,9,N","011265,1,N,1","+0060,1","+0020,1","99999,9",,,"07,1,+01080,1,99,9","07,1,+05100,1,99,9",,"07,99,1,99,9,99,9,99999,9,99,9,99,9","10190,1,99999,9",,"MET079METAR ENFB 301050Z AUTO 34021KT 9999NDV BKN036/// BKN170/// 06/02 Q1019 W///S4;",
"01488199999","2010-12-30T11:20:00","4","61.206389","1.828889","142.0","STATFJORD B OIL PLATFORM, NO","FM-15","ENFB ","V020","340,1,N,0113,1","22000,1,9,N","011265,1,N,1","+0060,1","+0000,1","99999,9",,,"02,1,+00750,1,99,9",,,"02,99,1,99,9,99,9,99999,9,99,9,99,9","10190,1,99999,9",,"MET069METAR ENFB 301120Z AUTO 34022KT 9999NDV FEW025/// 06/00 Q1019 W///S4;",
"01488199999","2010-12-30T11:50:00","4","61.206389","1.828889","142.0","STATFJORD B OIL PLATFORM, NO","FM-15","ENFB ","V020","340,1,N,0118,1","22000,1,9,N","011265,1,N,1","+0060,1","-0010,1","99999,9",,,"02,1,+04800,1,99,9",,,"02,99,1,99,9,99,9,99999,9,99,9,99,9","10190,1,99999,9",,"MET070METAR ENFB 301150Z AUTO 34023KT 9999NDV FEW160/// 06/M01 Q1019 W///S4;",
"01488199999","2010-12-30T12:20:00","4","61.206389","1.828889","142.0","STATFJORD B OIL PLATFORM, NO","FM-15","ENFB ","V020","340,1,N,0103,1","22000,1,9,N","011265,1,N,1","+0060,1","-0020,1","99999,9",,,"02,1,+01020,1,99,9",,,"02,99,1,99,9,99,9,99999,9,99,9,99,9","10190,1,99999,9",,"MET070METAR ENFB 301220Z AUTO 34020KT 9999NDV FEW034/// 06/M02 Q1019 W///S4;",
"01488199999","2010-12-30T12:50:00","4","61.206389","1.828889","142.0","STATFJORD B OIL PLATFORM, NO","FM-15","ENFB ","V020","330,1,N,0113,1","22000,1,9,N","011265,1,N,1","+0050,1","-0020,1","99999,9",,,"04,1,+01050,1,99,9",,,"04,99,1,99,9,99,9,99999,9,99,9,99,9","10190,1,99999,9",,"MET070METAR ENFB 301250Z AUTO 33022KT 9999NDV SCT035/// 05/M02 Q1019 W///S4;",
"01488199999","2010-12-30T13:20:00","4","61.206389","1.828889","142.0","STATFJORD B OIL PLATFORM, NO","FM-15","ENFB ","V020","330,1,N,0123,1","22000,1,9,N","011265,1,N,1","+0050,1","-0020,1","99999,9",,,"02,1,+01110,1,99,9",,,"02,99,1,99,9,99,9,99999,9,99,9,99,9","10190,1,99999,9",,"MET070METAR ENFB 301320Z AUTO 33024KT 9999NDV FEW037/// 05/M02 Q1019 W///S4;",
"01488199999","2010-12-30T13:50:00","4","61.206389","1.828889","142.0","STATFJORD B OIL PLATFORM, NO","FM-15","ENFB ","V020","330,1,N,0118,1","22000,1,9,N","011265,1,N,1","+0050,1","-0040,1","99999,9",,,"02,1,+01080,1,99,9",,,"02,99,1,99,9,99,9,99999,9,99,9,99,9","10190,1,99999,9",,"MET070METAR ENFB 301350Z AUTO 33023KT 9999NDV FEW036/// 05/M04 Q1019 W///S4;",
"01488199999","2010-12-30T14:20:00","4","61.206389","1.828889","142.0","STATFJORD B OIL PLATFORM, NO","FM-15","ENFB ","V020","320,1,N,0103,1","01080,1,9,N","011265,1,N,1","+0060,1","-0020,1","99999,9",,,"07,1,+01080,1,99,9",,,"07,99,1,99,9,99,9,99999,9,99,9,99,9","10200,1,99999,9",,"MET070METAR ENFB 301420Z AUTO 32020KT 9999NDV BKN036/// 06/M02 Q1020 W///S4;",
"01488199999","2010-12-30T14:50:00","4","61.206389","1.828889","142.0","STATFJORD B OIL PLATFORM, NO","FM-15","ENFB ","V020","330,1,N,0103,1","22000,1,9,N","011265,1,N,1","+0050,1","+0000,1","99999,9",,,"04,1,+00930,1,99,9","04,1,+01050,1,99,9",,"04,99,1,99,9,99,9,99999,9,99,9,99,9","10200,1,99999,9",,"MET079METAR ENFB 301450Z AUTO 33020KT 9999NDV SCT031/// SCT035/// 05/00 Q1020 W///S4;",
"01488199999","2010-12-30T15:20:00","4","61.206389","1.828889","142.0","STATFJORD B OIL PLATFORM, NO","FM-15","ENFB ","V020","330,1,N,0098,1","00930,1,9,N","011265,1,N,1","+0050,1","+0000,1","99999,9",,,"07,1,+00930,1,99,9",,,"07,99,1,99,9,99,9,99999,9,99,9,99,9","10200,1,99999,9",,"MET069METAR ENFB 301520Z AUTO 33019KT 9999NDV BKN031/// 05/00 Q1020 W///S4;",
"01488199999","2010-12-30T15:50:00","4","61.206389","1.828889","142.0","STATFJORD B OIL PLATFORM, NO","FM-15","ENFB ","V020","320,1,N,0108,1","22000,1,9,N","011265,1,N,1","+0060,1","-0020,1","99999,9",,,"02,1,+00900,1,99,9","04,1,+01050,1,99,9",,"04,99,1,99,9,99,9,99999,9,99,9,99,9","10200,1,99999,9",,"MET080METAR ENFB 301550Z AUTO 32021KT 9999NDV FEW030/// SCT035/// 06/M02 Q1020 W///S4;",
"01488199999","2010-12-30T16:20:00","4","61.206389","1.828889","142.0","STATFJORD B OIL PLATFORM, NO","FM-15","ENFB ","V020","320,1,N,0113,1","22000,1,9,N","011265,1,N,1","+0050,1","-0020,1","99999,9",,,"04,1,+01050,1,99,9",,,"04,99,1,99,9,99,9,99999,9,99,9,99,9","10200,1,99999,9",,"MET070METAR ENFB 301620Z AUTO 32022KT 9999NDV SCT035/// 05/M02 Q1020 W///S4;",
"01488199999","2010-12-30T16:50:00","4","61.206389","1.828889","142.0","STATFJORD B OIL PLATFORM, NO","FM-15","ENFB ","V020","330,1,N,0108,1","22000,1,9,N","011265,1,N,1","+0050,1","-0020,1","99999,9",,,"04,1,+00930,1,99,9",,,"04,99,1,99,9,99,9,99999,9,99,9,99,9","10200,1,99999,9",,"MET070METAR ENFB 301650Z AUTO 33021KT 9999NDV SCT031/// 05/M02 Q1020 W///S4;",
"01488199999","2010-12-30T17:20:00","4","61.206389","1.828889","142.0","STATFJORD B OIL PLATFORM, NO","FM-15","ENFB ","V020","330,1,N,0103,1","22000,1,9,N","011265,1,N,1","+0050,1","-0020,1","99999,9",,,"02,1,+00960,1,99,9",,,"02,99,1,99,9,99,9,99999,9,99,9,99,9","10200,1,99999,9",,"MET070METAR ENFB 301720Z AUTO 33020KT 9999NDV FEW032/// 05/M02 Q1020 W///S4;",
"01488199999","2010-12-30T17:50:00","4","61.206389","1.828889","142.0","STATFJORD B OIL PLATFORM, NO","FM-15","ENFB ","V020","330,1,N,0113,1","22000,1,9,N","011265,1,N,1","+0050,1","-0030,1","99999,9",,,"02,1,+00930,1,99,9",,,"02,99,1,99,9,99,9,99999,9,99,9,99,9","10200,1,99999,9",,"MET070METAR ENFB 301750Z AUTO 33022KT 9999NDV FEW031/// 05/M03 Q1020 W///S4;",
"01488199999","2010-12-30T18:20:00","4","61.206389","1.828889","142.0","STATFJORD B OIL PLATFORM, NO","FM-15","ENFB ","V020","320,1,N,0108,1","22000,1,9,N","011265,1,N,1","+0050,1","-0020,1","99999,9",,,"02,1,+00960,1,99,9",,,"02,99,1,99,9,99,9,99999,9,99,9,99,9","10200,1,99999,9",,"MET070METAR ENFB 301820Z AUTO 32021KT 9999NDV FEW032/// 05/M02 Q1020 W///S4;",
"01488199999","2010-12-30T18:50:00","4","61.206389","1.828889","142.0","STATFJORD B OIL PLATFORM, NO","FM-15","ENFB ","V020","320,1,N,0113,1","22000,1,9,N","011265,1,N,1","+0050,1","-0030,1","99999,9",,,"04,1,+00960,1,99,9",,,"04,99,1,99,9,99,9,99999,9,99,9,99,9","10200,1,99999,9",,"MET070METAR ENFB 301850Z AUTO 32022KT 9999NDV SCT032/// 05/M03 Q1020 W///S4;",
"01488199999","2010-12-30T19:20:00","4","61.206389","1.828889","142.0","STATFJORD B OIL PLATFORM, NO","FM-15","ENFB ","V020","330,1,N,0108,1","22000,1,9,N","011265,1,N,1","+0050,1","-0030,1","99999,9",,,,,,"00,99,1,99,9,99,9,99999,9,99,9,99,9","10200,1,99999,9",,"MET064METAR ENFB 301920Z AUTO 33021KT 9999NDV NCD 05/M03 Q1020 W///S4;","Q01    003SCCGA1"
"01488199999","2010-12-30T19:50:00","4","61.206389","1.828889","142.0","STATFJORD B OIL PLATFORM, NO","FM-15","ENFB ","V020","320,1,N,0098,1","22000,1,9,N","011265,1,N,1","+0050,1","-0020,1","99999,9",,,"02,1,+00960,1,99,9",,,"02,99,1,99,9,99,9,99999,9,99,9,99,9","10200,1,99999,9",,"MET070METAR ENFB 301950Z AUTO 32019KT 9999NDV FEW032/// 05/M02 Q1020 W///S5;",
"01488199999","2010-12-30T20:20:00","4","61.206389","1.828889","142.0","STATFJORD B OIL PLATFORM, NO","FM-15","ENFB ","V020","330,1,N,0103,1","22000,1,9,N","011265,1,N,1","+0040,1","-0020,1","99999,9",,,"02,1,+00900,1,99,9",,,"02,99,1,99,9,99,9,99999,9,99,9,99,9","10200,1,99999,9",,"MET070METAR ENFB 302020Z AUTO 33020KT 9999NDV FEW030/// 04/M02 Q1020 W///S4;",
"01488199999","2010-12-30T20:50:00","4","61.206389","1.828889","142.0","STATFJORD B OIL PLATFORM, NO","FM-15","ENFB ","V020","320,1,N,0098,1","22000,1,9,N","011265,1,N,1","+0050,1","-0020,1","99999,9",,,"02,1,+00930,1,99,9",,,"02,99,1,99,9,99,9,99999,9,99,9,99,9","10200,1,99999,9",,"MET070METAR ENFB 302050Z AUTO 32019KT 9999NDV FEW031/// 05/M02 Q1020 W///S5;",
"01488199999","2010-12-30T21:20:00","4","61.206389","1.828889","142.0","STATFJORD B OIL PLATFORM, NO","FM-15","ENFB ","V020","320,1,N,0087,1","22000,1,9,N","011265,1,N,1","+0050,1","-0010,1","99999,9",,,"02,1,+00840,1,99,9",,,"02,99,1,99,9,99,9,99999,9,99,9,99,9","10200,1,99999,9",,"MET070METAR ENFB 302120Z AUTO 32017KT 9999NDV FEW028/// 05/M01 Q1020 W///S5;",
"01488199999","2010-12-30T21:50:00","4","61.206389","1.828889","142.0","STATFJORD B OIL PLATFORM, NO","FM-15","ENFB ","V020","320,1,N,0082,1","22000,1,9,N","011265,1,N,1","+0050,1","-0010,1","99999,9",,,"02,1,+00840,1,99,9",,,"02,99,1,99,9,99,9,99999,9,99,9,99,9","10200,1,99999,9",,"MET070METAR ENFB 302150Z AUTO 32016KT 9999NDV FEW028/// 05/M01 Q1020 W///S5;",
"01488199999","2010-12-30T22:20:00","4","61.206389","1.828889","142.0","STATFJORD B OIL PLATFORM, NO","FM-15","ENFB ","V020","320,1,N,0077,1","22000,1,9,N","011265,1,N,1","+0050,1","-0020,1","99999,9",,,"02,1,+00930,1,99,9",,,"02,99,1,99,9,99,9,99999,9,99,9,99,9","10200,1,99999,9",,"MET070METAR ENFB 302220Z AUTO 32015KT 9999NDV FEW031/// 05/M02 Q1020 W///S5;",
"01488199999","2010-12-30T22:50:00","4","61.206389","1.828889","142.0","STATFJORD B OIL PLATFORM, NO","FM-15","ENFB ","V020","320,1,N,0077,1","22000,1,9,N","011265,1,N,1","+0050,1","-0010,1","99999,9",,,"02,1,+00870,1,99,9",,,"02,99,1,99,9,99,9,99999,9,99,9,99,9","10200,1,99999,9",,"MET070METAR ENFB 302250Z AUTO 32015KT 9999NDV FEW029/// 05/M01 Q1020 W///S5;",
"01488199999","2010-12-30T23:20:00","4","61.206389","1.828889","142.0","STATFJORD B OIL PLATFORM, NO","FM-15","ENFB ","V020","310,1,N,0062,1","02100,1,9,N","011265,1,N,1","+0050,1","-0010,1","99999,9",,,"02,1,+00840,1,99,9","07,1,+02100,1,99,9","07,1,+03900,1,99,9","07,99,1,99,9,99,9,99999,9,99,9,99,9","10200,1,99999,9",,"MET090METAR ENFB 302320Z AUTO 31012KT 9999NDV FEW028/// BKN073/// BKN130/// 05/M01 Q1020 W///S5;",
"01488199999","2010-12-30T23:50:00","4","61.206389","1.828889","142.0","STATFJORD B OIL PLATFORM, NO","FM-15","ENFB ","V020","290,1,N,0046,1","22000,1,9,N","011265,1,N,1","+0050,1","+0000,1","99999,9",,,"02,1,+00810,1,99,9",,,"02,99,1,99,9,99,9,99999,9,99,9,99,9","10190,1,99999,9",,"MET069METAR ENFB 302350Z AUTO 29009KT 9999NDV FEW027/// 05/00 Q1019 W///S5;",
"01488199999","2010-12-31T00:20:00","4","61.206389","1.828889","142.0","STATFJORD B OIL PLATFORM, NO","FM-15","ENFB ","V020","280,1,N,0057,1","03000,1,9,N","011265,1,N,1","+0050,1","+0010,1","99999,9",,,"02,1,+02100,1,99,9","07,1,+03000,1,99,9",,"07,99,1,99,9,99,9,99999,9,99,9,99,9","10190,1,99999,9",,"MET079METAR ENFB 310020Z AUTO 28011KT 9999NDV FEW071/// BKN100/// 05/01 Q1019 W///S5;",
"01488199999","2010-12-31T00:50:00","4","61.206389","1.828889","142.0","STATFJORD B OIL PLATFORM, NO","FM-15","ENFB ","V020","270,1,N,0062,1","03000,1,9,N","011265,1,N,1","+0060,1","+0010,1","99999,9",,,"04,1,+00720,1,99,9","07,1,+03000,1,99,9",,"07,99,1,99,9,99,9,99999,9,99,9,99,9","10190,1,99999,9",,"MET079METAR ENFB 310050Z AUTO 27012KT 9999NDV SCT024/// BKN100/// 06/01 Q1019 W///S5;",
"01488199999","2010-12-31T01:20:00","4","61.206389","1.828889","142.0","STATFJORD B OIL PLATFORM, NO","FM-15","ENFB ","V020","260,1,N,0062,1","00810,1,C,N","011265,1,N,1","+0060,1","+0020,1","99999,9",,,"02,1,+00690,1,99,9","04,1,+00810,1,99,9","07,1,+01350,1,99,9","07,99,1,99,9,99,9,99999,9,99,9,99,9","10180,1,99999,9",,"MET089METAR ENFB 310120Z AUTO 26012KT 9999NDV FEW023/// SCT027/// BKN045/// 06/02 Q1018 W///S5;",
"01488199999","2010-12-31T01:50:00","4","61.206389","1.828889","142.0","STATFJORD B OIL PLATFORM, NO","FM-15","ENFB ","V020","250,1,N,0077,1","01050,1,9,N","011265,1,N,1","+0060,1","+0020,1","99999,9",,,"07,1,+01050,1,99,9",,,"07,99,1,99,9,99,9,99999,9,99,9,99,9","10180,1,99999,9",,"MET069METAR ENFB 310150Z AUTO 25015KT 9999NDV BKN035/// 06/02 Q1018 W///S5;",
"01488199999","2010-12-31T02:20:00","4","61.206389","1.828889","142.0","STATFJORD B OIL PLATFORM, NO","FM-15","ENFB ","V020","260,1,N,0077,1","00630,1,9,N","011265,1,N,1","+0070,1","+0030,1","99999,9","81,1",,"07,1,+00630,1,99,9","07,1,+01320,1,99,9",,"07,99,1,99,9,99,9,99999,9,99,9,99,9","10169,1,99999,9",,"MET085METAR ENFB 310220Z AUTO 26015KT 9999NDV -SHRA BKN021/// BKN044/// 07/03 Q1017 W///S5;",
"01488199999","2010-12-31T02:50:00","4","61.206389","1.828889","142.0","STATFJORD B OIL PLATFORM, NO","FM-15","ENFB ","V020","250,1,N,0098,1","00690,1,9,N","011265,1,N,1","+0060,1","+0030,1","99999,9","81,1",,"07,1,+00690,1,99,9","07,1,+01470,1,99,9",,"07,99,1,99,9,99,9,99999,9,99,9,99,9","10169,1,99999,9",,"MET085METAR ENFB 310250Z AUTO 25019KT 9999NDV -SHRA BKN023/// BKN049/// 06/03 Q1017 W///S5;",
"01488199999","2010-12-31T03:20:00","4","61.206389","1.828889","142.0","STATFJORD B OIL PLATFORM, NO","FM-15","ENFB ","V020","250,1,N,0113,1","00420,1,9,N","011265,1,N,1","+0060,1","+0040,1","99999,9","81,1",,"07,1,+00420,1,99,9",,,"07,99,1,99,9,99,9,99999,9,99,9,99,9","10159,1,99999,9",,"MET075METAR ENFB 310320Z AUTO 25022KT 9999NDV -SHRA BKN014/// 06/04 Q1016 W///S5;",
"01488199999","2010-12-31T03:50:00","4","61.206389","1.828889","142.0","STATFJORD B OIL PLATFORM, NO","FM-15","ENFB ","V020","250,1,N,0113,1","00540,1,9,N","011265,1,N,1","+0070,1","+0050,1","99999,9",,,"07,1,+00540,1,99,9",,,"07,99,1,99,9,99,9,99999,9,99,9,99,9","10149,1,99999,9",,"MET069METAR ENFB 310350Z AUTO 25022KT 9999NDV BKN018/// 07/05 Q1015 W///S5;",
"01488199999","2010-12-31T04:20:00","4","61.206389","1.828889","142.0","STATFJORD B OIL PLATFORM, NO","FM-15","ENFB ","V020","270,1,N,0134,1","00930,1,9,N","011265,1,N,1","+0080,1","+0050,1","99999,9",,,"02,1,+00510,1,99,9","07,1,+00930,1,99,9","07,1,+03900,1,99,9","07,99,1,99,9,99,9,99999,9,99,9,99,9","10139,1,99999,9",,"MET089METAR ENFB 310420Z AUTO 27026KT 9999NDV FEW017/// BKN031/// BKN130/// 08/05 Q1014 W///S5;",
"01488199999","2010-12-31T04:50:00","4","61.206389","1.828889","142.0","STATFJORD B OIL PLATFORM, NO","FM-15","ENFB ","V020","270,1,N,0139,1","00570,1,9,N","011265,1,N,1","+0080,1","+0050,1","99999,9",,,"07,1,+00570,1,99,9","07,1,+03000,1,99,9",,"07,99,1,99,9,99,9,99999,9,99,9,99,9","10139,1,99999,9",,"MET079METAR ENFB 310450Z AUTO 27027KT 9999NDV BKN019/// BKN100/// 08/05 Q1014 W///S5;",
"01488199999","2010-12-31T05:20:00","4","61.206389","1.828889","142.0","STATFJORD B OIL PLATFORM, NO","FM-15","ENFB ","V020","260,1,N,0123,1","00600,1,9,N","011265,1,N,1","+0080,1","+0040,1","99999,9",,,"07,1,+00600,1,99,9",,,"07,99,1,99,9,99,9,99999,9,99,9,99,9","10139,1,99999,9",,"MET069METAR ENFB 310520Z AUTO 26024KT 9999NDV BKN020/// 08/04 Q1014 W///S5;",
"01488199999","2010-12-31T05:50:00","4","61.206389","1.828889","142.0","STATFJORD B OIL PLATFORM, NO","FM-15","ENFB ","V020","260,1,N,0129,1","00630,1,9,N","011265,1,N,1","+0080,1","+0040,1","99999,9",,,"07,1,+00630,1,99,9",,,"07,99,1,99,9,99,9,99999,9,99,9,99,9","10129,1,99999,9",,"MET069METAR ENFB 310550Z AUTO 26025KT 9999NDV BKN021/// 08/04 Q1013 W///S5;",
"01488199999","2010-12-31T06:20:00","4","61.206389","1.828889","142.0","STATFJORD B OIL PLATFORM, NO","FM-15","ENFB ","V020","260,1,N,0129,1","00480,1,9,N","011265,1,N,1","+0070,1","+0050,1","99999,9","61,1",,"07,1,+00480,1,99,9",,,"07,99,1,99,9,99,9,99999,9,99,9,99,9","10119,1,99999,9",,"MET073METAR ENFB 310620Z AUTO 26025KT 9999NDV -RA BKN016/// 07/05 Q1012 W///S5;",
"01488199999","2010-12-31T06:50:00","4","61.206389","1.828889","142.0","STATFJORD B OIL PLATFORM, NO","FM-15","ENFB ","V020","260,1,N,0144,1","00540,1,9,N","011265,1,N,1","+0070,1","+0050,1","99999,9",,,"07,1,+00540,1,99,9",,,"07,99,1,99,9,99,9,99999,9,99,9,99,9","10119,1,99999,9",,"MET069METAR ENFB 310650Z AUTO 26028KT 9999NDV BKN018/// 07/05 Q1012 W///S5;",
"01488199999","2010-12-31T07:20:00","4","61.206389","1.828889","142.0","STATFJORD B OIL PLATFORM, NO","FM-15","ENFB ","V020","260,1,N,0195,1","00510,1,9,N","011265,1,N,1","+0080,1","+0050,1","99999,9",,,"07,1,+00510,1,99,9",,,"07,99,1,99,9,99,9,99999,9,99,9,99,9","10108,1,99999,9",,"MET069METAR ENFB 310720Z AUTO 26038KT 9999NDV BKN017/// 08/05 Q1011 W///S5;",
"01488199999","2010-12-31T07:50:00","4","61.206389","1.828889","142.0","STATFJORD B OIL PLATFORM, NO","FM-15","ENFB ","V020","260,1,N,0159,1","00660,1,9,N","011265,1,N,1","+0080,1","+0050,1","99999,9",,,"07,1,+00660,1,99,9",,,"07,99,1,99,9,99,9,99999,9,99,9,99,9","10108,1,99999,9",,"MET069METAR ENFB 310750Z AUTO 26031KT 9999NDV BKN022/// 08/05 Q1011 W///S5;",
"01488199999","2010-12-31T08:20:00","4","61.206389","1.828889","142.0","STATFJORD B OIL PLATFORM, NO","FM-15","ENFB ","V020","270,1,N,0175,1","00480,1,9,N","011265,1,N,1","+0080,1","+0050,1","99999,9",,,"07,1,+00480,1,99,9",,,"07,99,1,99,9,99,9,99999,9,99,9,99,9","10102,1,99999,9",,"MET069METAR ENFB 310820Z AUTO 27034KT 9999NDV BKN016/// 08/05 Q1010 W///S6;",
"01488199999","2010-12-31T08:50:00","4","61.206389","1.828889","142.0","STATFJORD B OIL PLATFORM, NO","FM-15","ENFB ","V020","260,1,N,0190,1","00360,1,9,N","011265,1,N,1","+0070,1","+0050,1","99999,9",,,"07,1,+00360,1,99,9",,,"07,99,1,99,9,99,9,99999,9,99,9,99,9","10091,1,99999,9",,"MET069METAR ENFB 310850Z AUTO 26037KT 9999NDV BKN012/// 07/05 Q1009 W///S6;",
"01488199999","2010-12-31T09:20:00","4","61.206389","1.828889","142.0","STATFJORD B OIL PLATFORM, NO","FM-15","ENFB ","V020","270,1,N,0190,1","00540,1,9,N","011265,1,N,1","+0070,1","+0050,1","99999,9",,,"07,1,+00540,1,99,9",,,"07,99,1,99,9,99,9,99999,9,99,9,99,9","10091,1,99999,9",,"MET069METAR ENFB 310920Z AUTO 27037KT 9999NDV BKN018/// 07/05 Q1009 W///S6;",
"01488199999","2010-12-31T09:50:00","4","61.206389","1.828889","142.0","STATFJORD B OIL PLATFORM, NO","FM-15","ENFB ","V020","270,1,N,0206,1","00510,1,9,N","011265,1,N,1","+0080,1","+0050,1","99999,9",,,"07,1,+00510,1,99,9",,,"07,99,1,99,9,99,9,99999,9,99,9,99,9","10081,1,99999,9",,"MET069METAR ENFB 310950Z AUTO 27040KT 9999NDV BKN017/// 08/05 Q1008 W///S6;",
"01488199999","2010-12-31T10:20:00","4","61.206389","1.828889","142.0","STATFJORD B OIL PLATFORM, NO","FM-15","ENFB ","V020","270,1,N,0195,1","00510,1,9,N","011265,1,N,1","+0080,1","+0050,1","99999,9",,,"07,1,+00510,1,99,9",,,"07,99,1,99,9,99,9,99999,9,99,9,99,9","10081,1,99999,9",,"MET069METAR ENFB 311020Z AUTO 27038KT 9999NDV BKN017/// 08/05 Q1008 W///S6;",
"01488199999","2010-12-31T10:50:00","4","61.206389","1.828889","142.0","STATFJORD B OIL PLATFORM, NO","FM-15","ENFB ","V020","280,1,N,0180,1","00630,1,9,N","011265,1,N,1","+0080,1","+0050,1","99999,9",,,"07,1,+00630,1,99,9",,,"07,99,1,99,9,99,9,99999,9,99,9,99,9","10071,1,99999,9",,"MET069METAR ENFB 311050Z AUTO 28035KT 9999NDV BKN021/// 08/05 Q1007 W///S6;",
"01488199999","2010-12-31T11:20:00","4","61.206389","1.828889","142.0","STATFJORD B OIL PLATFORM, NO","FM-15","ENFB ","V020","280,1,N,0190,1","00330,1,9,N","011265,1,N,1","+0080,1","+0060,1","99999,9","81,1",,"07,1,+00330,1,99,9","07,1,+00480,1,99,9","07,1,+00990,1,99,9","07,99,1,99,9,99,9,99999,9,99,9,99,9","10071,1,99999,9",,"MET095METAR ENFB 311120Z AUTO 28037KT 9999NDV -SHRA BKN011/// BKN016/// BKN033/// 08/06 Q1007 W///S6;",
"01488199999","2010-12-31T11:50:00","4","61.206389","1.828889","142.0","STATFJORD B OIL PLATFORM, NO","FM-15","ENFB ","V020","280,1,N,0190,1","00450,1,9,N","011265,1,N,1","+0080,1","+0050,1","99999,9",,,"07,1,+00450,1,99,9",,,"07,99,1,99,9,99,9,99999,9,99,9,99,9","10061,1,99999,9",,"MET069METAR ENFB 311150Z AUTO 28037KT 9999NDV BKN015/// 08/05 Q1006 W///S6;",
"01488199999","2010-12-31T12:20:00","4","61.206389","1.828889","142.0","STATFJORD B OIL PLATFORM, NO","FM-15","ENFB ","V020","280,1,N,0190,1","00720,1,9,N","011265,1,N,1","+0080,1","+0040,1","99999,9",,,"07,1,+00720,1,99,9",,,"07,99,1,99,9,99,9,99999,9,99,9,99,9","10051,1,99999,9",,"MET069METAR ENFB 311220Z AUTO 28037KT 9999NDV BKN024/// 08/04 Q1005 W///S6;",
"01488199999","2010-12-31T12:50:00","4","61.206389","1.828889","142.0","STATFJORD B OIL PLATFORM, NO","FM-15","ENFB ","V020","280,1,N,0185,1","00570,1,9,N","011265,1,N,1","+0080,1","+0050,1","99999,9",,,"02,1,+00510,1,99,9","07,1,+00570,1,99,9",,"07,99,1,99,9,99,9,99999,9,99,9,99,9","10051,1,99999,9",,"MET079METAR ENFB 311250Z AUTO 28036KT 9999NDV FEW017/// BKN019/// 08/05 Q1005 W///S6;",
"01488199999","2010-12-31T13:20:00","4","61.206389","1.828889","142.0","STATFJORD B OIL PLATFORM, NO","FM-15","ENFB ","V020","280,1,N,0201,1","00570,1,9,N","011265,1,N,1","+0080,1","+0050,1","99999,9",,,"07,1,+00570,1,99,9",,,"07,99,1,99,9,99,9,99999,9,99,9,99,9","10041,1,99999,9",,"MET069METAR ENFB 311320Z AUTO 28039KT 9999NDV BKN019/// 08/05 Q1004 W///S6;",
"01488199999","2010-12-31T13:50:00","4","61.206389","1.828889","142.0","STATFJORD B OIL PLATFORM, NO","FM-15","ENFB ","V020","280,1,N,0195,1","00510,1,9,N","011265,1,N,1","+0080,1","+0050,1","99999,9",,,"07,1,+00510,1,99,9","07,1,+01500,1,99,9",,"07,99,1,99,9,99,9,99999,9,99,9,99,9","10031,1,99999,9",,"MET079METAR ENFB 311350Z AUTO 28038KT 9999NDV BKN017/// BKN051/// 08/05 Q1003 W///S6;",
"01488199999","2010-12-31T14:20:00","4","61.206389","1.828889","142.0","STATFJORD B OIL PLATFORM, NO","FM-15","ENFB ","V020","290,1,N,0216,1","00630,1,9,N","011265,1,N,1","+0080,1","+0040,1","99999,9",,,"07,1,+00630,1,99,9","07,1,+01500,1,99,9",,"07,99,1,99,9,99,9,99999,9,99,9,99,9","10031,1,99999,9",,"MET079METAR ENFB 311420Z AUTO 29042KT 9999NDV BKN021/// BKN052/// 08/04 Q1003 W///S6;",
"01488199999","2010-12-31T14:50:00","4","61.206389","1.828889","142.0","STATFJORD B OIL PLATFORM, NO","FM-15","ENFB ","V020","300,1,N,0226,1","00750,1,9,N","011265,1,N,1","+0070,1","+0010,1","99999,9",,,"07,1,+00750,1,99,9",,,"07,99,1,99,9,99,9,99999,9,99,9,99,9","10031,1,99999,9",,"MET069METAR ENFB 311450Z AUTO 30044KT 9999NDV BKN025/// 07/01 Q1003 W///S6;",
"01488199999","2010-12-31T15:20:00","4","61.206389","1.828889","142.0","STATFJORD B OIL PLATFORM, NO","FM-15","ENFB ","V020","300,1,N,0257,1","00870,1,9,N","011265,1,N,1","+0060,1","-0010,1","99999,9",,,"07,1,+00870,1,99,9",,,"07,99,1,99,9,99,9,99999,9,99,9,99,9","10031,1,99999,9",,"MET070METAR ENFB 311520Z AUTO 30050KT 9999NDV BKN029/// 06/M01 Q1003 W///S6;",
"01488199999","2010-12-31T15:50:00","4","61.206389","1.828889","142.0","STATFJORD B OIL PLATFORM, NO","FM-15","ENFB ","V020","300,1,N,0252,1","00900,1,9,N","011265,1,N,1","+0050,1","-0010,1","99999,9",,,"07,1,+00900,1,99,9",,,"07,99,1,99,9,99,9,99999,9,99,9,99,9","10031,1,99999,9",,"MET070METAR ENFB 311550Z AUTO 30049KT 9999NDV BKN030/// 05/M01 Q1003 W///S6;",
"01488199999","2010-12-31T16:20:00","4","61.206389","1.828889","142.0","STATFJORD B OIL PLATFORM, NO","FM-15","ENFB ","V020","300,1,N,0257,1","00930,1,9,N","011265,1,N,1","+0050,1","-0010,1","99999,9",,,"07,1,+00930,1,99,9",,,"07,99,1,99,9,99,9,99999,9,99,9,99,9","10031,1,99999,9",,"MET070METAR ENFB 311620Z AUTO 30050KT 9999NDV BKN031/// 05/M01 Q1003 W///S6;",
"01488199999","2010-12-31T16:50:00","4","61.206389","1.828889","142.0","STATFJORD B OIL PLATFORM, NO","FM-15","ENFB ","V020","300,1,N,0278,1","00900,1,9,N","011265,1,N,1","+0040,1","-0010,1","99999,9",,,"07,1,+00900,1,99,9",,,"07,99,1,99,9,99,9,99999,9,99,9,99,9","10031,1,99999,9",,"MET070METAR ENFB 311650Z AUTO 30054KT 9999NDV BKN030/// 04/M01 Q1003 W///S7;",
"01488199999","2010-12-31T17:20:00","4","61.206389","1.828889","142.0","STATFJORD B OIL PLATFORM, NO","FM-15","ENFB ","V020","290,1,N,0273,1","00750,1,9,N","011265,1,N,1","+0040,1","+0000,1","99999,9",,,"07,1,+00750,1,99,9",,,"07,99,1,99,9,99,9,99999,9,99,9,99,9","10020,1,99999,9",,"MET069METAR ENFB 311720Z AUTO 29053KT 9999NDV BKN025/// 04/00 Q1002 W///S7;",
"01488199999","2010-12-31T17:50:00","4","61.206389","1.828889","142.0","STATFJORD B OIL PLATFORM, NO","FM-15","ENFB ","V020","300,1,N,0273,1","00690,1,9,N","011265,1,N,1","+0050,1","+0010,1","99999,9",,,"07,1,+00690,1,99,9",,,"07,99,1,99,9,99,9,99999,9,99,9,99,9","10010,1,99999,9",,"MET069METAR ENFB 311750Z AUTO 30053KT 9999NDV BKN023/// 05/01 Q1001 W///S7;",
"01488199999","2010-12-31T18:20:00","4","61.206389","1.828889","142.0","STATFJORD B OIL PLATFORM, NO","FM-15","ENFB ","V020","310,1,N,0262,1","00480,1,9,N","011265,1,N,1","+0060,1","+0020,1","99999,9",,,"07,1,+00480,1,99,9",,,"07,99,1,99,9,99,9,99999,9,99,9,99,9","10010,1,99999,9",,"MET069METAR ENFB 311820Z AUTO 31051KT 9999NDV BKN016/// 06/02 Q1001 W///S7;",
"01488199999","2010-12-31T18:50:00","4","61.206389","1.828889","142.0","STATFJORD B OIL PLATFORM, NO","FM-15","ENFB ","V020","330,1,N,0262,1","00480,1,9,N","011265,1,N,1","+0060,1","+0020,1","99999,9",,,"07,1,+00480,1,99,9","07,1,+01800,1,99,9",,"07,99,1,99,9,99,9,99999,9,99,9,99,9","10020,1,99999,9",,"MET079METAR ENFB 311850Z AUTO 33051KT 9999NDV BKN016/// BKN061/// 06/02 Q1002 W///S7;",
"01488199999","2010-12-31T19:20:00","4","61.206389","1.828889","142.0","STATFJORD B OIL PLATFORM, NO","FM-15","ENFB ","V020","330,1,N,0273,1","00660,1,9,N","011265,1,N,1","+0060,1","+0010,1","99999,9",,,"07,1,+00660,1,99,9",,,"07,99,1,99,9,99,9,99999,9,99,9,99,9","10020,1,99999,9",,"MET069METAR ENFB 311920Z AUTO 33053KT 9999NDV BKN022/// 06/01 Q1002 W///S7;",
"01488199999","2010-12-31T19:50:00","4","61.206389","1.828889","142.0","STATFJORD B OIL PLATFORM, NO","FM-15","ENFB ","V020","340,1,N,0252,1","00540,1,9,N","011265,1,N,1","+0050,1","+0020,1","99999,9","81,1",,"02,1,+00480,1,99,9","07,1,+00540,1,99,9","07,1,+01500,1,99,9","07,99,1,99,9,99,9,99999,9,99,9,99,9","10031,1,99999,9",,"MET095METAR ENFB 311950Z AUTO 34049KT 9999NDV -SHRA FEW016/// BKN018/// BKN059/// 05/02 Q1003 W///S7;",
"01488199999","2010-12-31T20:20:00","4","61.206389","1.828889","142.0","STATFJORD B OIL PLATFORM, NO","FM-15","ENFB ","V020","340,1,N,0237,1","00660,1,9,N","011265,1,N,1","+0050,1","+0010,1","99999,9",,,"07,1,+00660,1,99,9",,,"07,99,1,99,9,99,9,99999,9,99,9,99,9","10051,1,99999,9",,"MET069METAR ENFB 312020Z AUTO 34046KT 9999NDV BKN022/// 05/01 Q1005 W///S7;",
"01488199999","2010-12-31T20:50:00","4","61.206389","1.828889","142.0","STATFJORD B OIL PLATFORM, NO","FM-15","ENFB ","V020","340,1,N,0242,1","00690,1,9,N","011265,1,N,1","+0040,1","+0010,1","99999,9","81,1",,"07,1,+00690,1,99,9",,,"07,99,1,99,9,99,9,99999,9,99,9,99,9","10051,1,99999,9",,"MET075METAR ENFB 312050Z AUTO 34047KT 9999NDV -SHRA BKN023/// 04/01 Q1005 W///S7;",
"01488199999","2010-12-31T21:20:00","4","61.206389","1.828889","142.0","STATFJORD B OIL PLATFORM, NO","FM-15","ENFB ","V020","340,1,N,0221,1","00630,1,9,N","011265,1,N,1","+0040,1","+0010,1","99999,9",,,"07,1,+00630,1,99,9","07,1,+01800,1,99,9",,"07,99,1,99,9,99,9,99999,9,99,9,99,9","10061,1,99999,9",,"MET079METAR ENFB 312120Z AUTO 34043KT 9999NDV BKN021/// BKN068/// 04/01 Q1006 W///S7;",
"01488199999","2010-12-31T21:50:00","4","61.206389","1.828889","142.0","STATFJORD B OIL PLATFORM, NO","FM-15","ENFB ","V020","340,1,N,0237,1","22000,1,9,N","011265,1,N,1","+0050,1","-0010,1","99999,9",,,"02,1,+00750,1,99,9","04,1,+00930,1,99,9",,"04,99,1,99,9,99,9,99999,9,99,9,99,9","10061,1,99999,9",,"MET080METAR ENFB 312150Z AUTO 34046KT 9999NDV FEW025/// SCT031/// 05/M01 Q1006 W///S7;",
"01488199999","2010-12-31T22:20:00","4","61.206389","1.828889","142.0","STATFJORD B OIL PLATFORM, NO","FM-15","ENFB ","V020","340,1,N,0237,1","22000,1,9,N","011265,1,N,1","+0050,1","-0010,1","99999,9",,,"04,1,+00810,1,99,9","04,1,+01470,1,99,9",,"04,99,1,99,9,99,9,99999,9,99,9,99,9","10071,1,99999,9",,"MET080METAR ENFB 312220Z AUTO 34046KT 9999NDV SCT027/// SCT049/// 05/M01 Q1007 W///S7;",
"01488199999","2010-12-31T22:50:00","4","61.206389","1.828889","142.0","STATFJORD B OIL PLATFORM, NO","FM-15","ENFB ","V020","340,1,N,0231,1","01050,1,9,N","011265,1,N,1","+0050,1","-0040,1","99999,9",,,"07,1,+01050,1,99,9",,,"07,99,1,99,9,99,9,99999,9,99,9,99,9","10071,1,99999,9",,"MET070METAR ENFB 312250Z AUTO 34045KT 9999NDV BKN035/// 05/M04 Q1007 W///S7;",
"01488199999","2010-12-31T23:20:00","4","61.206389","1.828889","142.0","STATFJORD B OIL PLATFORM, NO","FM-15","ENFB ","V020","330,1,N,0211,1","01200,1,9,N","011265,1,N,1","+0040,1","-0040,1","99999,9",,,"07,1,+01200,1,99,9",,,"07,99,1,99,9,99,9,99999,9,99,9,99,9","10091,1,99999,9",,"MET070METAR ENFB 312320Z AUTO 33041KT 9999NDV BKN040/// 04/M04 Q1009 W///S7;",
"01488199999","2010-12-31T23:50:00","4","61.206389","1.828889","142.0","STATFJORD B OIL PLATFORM, NO","FM-15","ENFB ","V020","330,1,N,0195,1","00930,1,9,N","011265,1,N,1","+0040,1","-0010,1","99999,9",,,"02,1,+00870,1,99,9","07,1,+00930,1,99,9",,"07,99,1,99,9,99,9,99999,9,99,9,99,9","10102,1,99999,9",,"MET080METAR ENFB 312350Z AUTO 33038KT 9999NDV FEW029/// BKN031/// 04/M01 Q1010 W///S7;",
