"STATION","DATE","SOURCE","LATITUDE","LONGITUDE","ELEVATION","NAME","REPORT_TYPE","CALL_SIGN","QUALITY_CONTROL","WND","CIG","VIS","TMP","DEW","SLP","AW1","AZ1","GA1","GA2","KA1","KA2","MA1","MD1","REM","EQD"
"02151099999","2010-01-01T00:00:00","4","66.4833333","20.1666666","275.0","JOKKMOKK FPL, SW","FM-12","99999","V020","020,1,N,0020,1","00240,1,C,N","009000,1,N,1","-0122,1","-0129,1","10180,1","71,1","8,1,06,1","04,1,+00180,1,99,9","06,1,+00240,1,99,9",,,"99999,9,09821,1","3,1,019,1,+999,9","SYN088AAXX  01001 02151 47259 /0202 11122 21129 39821 40180 53019 77187 333 84/06 86/08 87/11;",
"02151099999","2010-01-01T03:00:00","4","66.4833333","20.1666666","275.0","JOKKMOKK FPL, SW","FM-12","99999","V020","010,1,N,0020,1","99999,9,9,N","006000,1,N,1","-0134,1","-0143,1","10197,1","71,1","7,1,03,1","04,1,+00510,1,99,9",,,,"99999,9,09835,1","2,1,015,1,+999,9","SYN082AAXX  01031 02151 47456 /0102 11134 21143 39835 40197 52015 77177 333 84/17 88/24;",
"02151099999","2010-01-01T06:00:00","4","66.4833333","20.1666666","275.0","JOKKMOKK FPL, SW","FM-12","99999","V020","020,1,N,0030,1","00450,1,C,N","014000,1,N,1","-0135,1","-0148,1","10210,1","71,1","7,1,06,1","06,1,+00450,1,99,9","07,1,+00690,1,99,9","120,M,-0115,1","999,N,-0136,1","99999,9,09847,1","3,1,012,1,+999,9","SYN100AAXX  01061 02151 47464 /0203 11135 21148 39847 40210 53012 77177 333 11115 21136 86/15 87/23 88/28;",
"02151099999","2010-01-01T09:00:00","4","66.4833333","20.1666666","275.0","JOKKMOKK FPL, SW","FM-12","99999","V020","010,1,N,0020,1","00570,1,C,N","022000,1,N,1","-0135,1","-0150,1","10228,1","78,1","7,1,03,1","04,1,+00390,1,99,9","06,1,+00570,1,99,9",,,"99999,9,09865,1","2,1,018,1,+999,9","SYN088AAXX  01091 02151 47472 /0102 11135 21150 39865 40228 52018 77877 333 84/13 86/19 88/26;",
"02151099999","2010-01-01T12:00:00","4","66.4833333","20.1666666","275.0","JOKKMOKK FPL, SW","FM-12","99999","V020","310,1,N,0020,1","00480,1,C,N","006000,1,N,1","-0145,1","-0157,1","10239,1","71,1","7,1,06,1","08,1,+00480,1,99,9",,,,"99999,9,09874,1","2,1,008,1,+999,9","SYN076AAXX  01121 02151 47456 /3102 11145 21157 39874 40239 52008 77177 333 88/16;",
"02151099999","2010-01-01T15:00:00","4","66.4833333","20.1666666","275.0","JOKKMOKK FPL, SW","FM-12","99999","V020","260,1,N,0010,1","00240,1,C,N","009000,1,N,1","-0185,1","-0197,1","10254,1","71,1","7,1,03,1","03,1,+00090,1,99,9","05,1,+00240,1,99,9",,,"99999,9,09883,1","2,1,009,1,+999,9","SYN088AAXX  01151 02151 47159 /2601 11185 21197 39883 40254 52009 77177 333 83/03 85/08 87/10;",
"02151099999","2010-01-01T18:00:00","4","66.4833333","20.1666666","275.0","JOKKMOKK FPL, SW","FM-12","99999","V020","330,1,N,0010,1","99999,9,9,N","008000,1,N,1","-0197,1","-0211,1","10265,1","71,1","8,1,06,1","03,1,+00060,1,99,9",,"120,M,-0133,1","999,N,-0211,1","99999,9,09892,1","2,1,009,1,+999,9","SYN094AAXX  01181 02151 47158 /3301 11197 21211 39892 40265 52009 77187 333 11133 21211 83/02 88/07;",
"02151099999","2010-01-01T21:00:00","4","66.4833333","20.1666666","275.0","JOKKMOKK FPL, SW","FM-12","99999","V020","999,9,C,0000,1","00480,1,C,N","016000,1,N,1","-0204,1","-0219,1","10270,1","85,1","8,1,03,1","05,1,+00480,1,99,9",,,,"99999,9,09895,1","0,1,004,1,+999,9","SYN082AAXX  01211 02151 47466 /0000 11204 21219 39895 40270 50004 78587 333 85/16 88/26;",
"02151099999","2010-01-02T00:00:00","4","66.4833333","20.1666666","275.0","JOKKMOKK FPL, SW","FM-12","99999","V020","270,1,N,0010,1","01320,1,C,N","045000,1,N,1","-0207,1","-0222,1","10266,1","24,1","8,1,06,1","08,1,+01320,1,99,9",,,,"99999,9,09891,1","7,1,005,1,+999,9","SYN076AAXX  02001 02151 47683 /2701 11207 21222 39891 40266 57005 72487 333 88/44;",
"02151099999","2010-01-02T03:00:00","4","66.4833333","20.1666666","275.0","JOKKMOKK FPL, SW","FM-12","99999","V020","999,9,C,0000,1","99999,9,9,N","007000,1,N,1","-0220,1","-0237,1","10260,1","71,1","8,1,03,1","01,1,+00270,1,99,9",,,,"99999,9,09884,1","8,1,007,1,+999,9","SYN082AAXX  02031 02151 47357 /0000 11220 21237 39884 40260 58007 77187 333 81/09 88/44;",
"02151099999","2010-01-02T06:00:00","4","66.4833333","20.1666666","275.0","JOKKMOKK FPL, SW","FM-12","99999","V020","999,9,C,0000,1","22000,1,C,N","006000,1,N,1","-0221,1","-0238,1","10254,1","85,1","8,1,06,1","01,1,+00090,1,99,9","04,1,+00180,1,99,9","120,M,-0182,1","999,N,-0245,1","99999,9,09877,1","7,1,006,1,+999,9","SYN100AAXX  02061 02151 47156 /0000 11221 21238 39877 40254 57006 78587 333 11182 21245 81/03 84/06 85/19;",
"02151099999","2010-01-02T09:00:00","4","66.4833333","20.1666666","275.0","JOKKMOKK FPL, SW","FM-12","99999","V020","260,1,N,0010,1","99999,9,9,N","040000,1,N,1","-0250,1","-0269,1","10252,1","24,1","8,1,03,1","01,1,+00180,1,99,9",,,,"99999,9,09871,1","8,1,006,1,+999,9","SYN076AAXX  02091 02151 47382 /2601 11250 21269 39871 40252 58006 72487 333 81/06;",
"02151099999","2010-01-02T12:00:00","4","66.4833333","20.1666666","275.0","JOKKMOKK FPL, SW","FM-12","99999","V020","220,1,N,0010,1","99999,9,9,N","050000,1,N,1","-0267,1","-0288,1","10231,1","00,1","8,1,06,1",,,,,"99999,9,09848,1","8,1,023,1,+999,9","SYN066AAXX  02121 02151 47984 /2201 11267 21288 39848 40231 58023 70087;",
"02151099999","2010-01-02T15:00:00","4","66.4833333","20.1666666","275.0","JOKKMOKK FPL, SW","FM-12","99999","V020","270,1,N,0010,1","99999,9,9,N","050000,1,N,1","-0256,1","-0277,1","10206,1",,,,,,,"99999,9,09826,1","8,1,022,1,+999,9","SYN060AAXX  02151 02151 45984 /2701 11256 21277 39826 40206 58022;",
"02151099999","2010-01-02T18:00:00","4","66.4833333","20.1666666","275.0","JOKKMOKK FPL, SW","FM-12","99999","V020","999,9,C,0000,1","01200,1,C,N","050000,1,N,1","-0229,1","-0247,1","10176,1",,,"08,1,+01200,1,99,9",,"120,M,-0216,1","999,N,-0277,1","99999,9,09801,1","8,1,025,1,+999,9","SYN082AAXX  02181 02151 45684 /0000 11229 21247 39801 40176 58025 333 11216 21277 88/40;",
"02151099999","2010-01-02T21:00:00","4","66.4833333","20.1666666","275.0","JOKKMOKK FPL, SW","FM-12","99999","V020","999,9,C,0000,1","99999,9,9,N","008000,1,N,1","-0208,1","-0225,1","10150,1","85,1","8,1,03,1","01,1,+00390,1,99,9","03,1,+01200,1,99,9",,,"99999,9,09779,1","8,1,022,1,+999,9","SYN088AAXX  02211 02151 47458 /0000 11208 21225 39779 40150 58022 78587 333 81/13 83/40 85/58;",
"02151099999","2010-01-03T00:00:00","4","66.4833333","20.1666666","275.0","JOKKMOKK FPL, SW","FM-12","99999","V020","090,1,N,0010,1","02400,1,C,N","040000,1,N,1","-0198,1","-0213,1","10108,1","85,1","8,1,06,1","08,1,+02400,1,99,9",,,,"99999,9,09740,1","8,1,039,1,+999,9","SYN076AAXX  03001 02151 47982 /0901 11198 21213 39740 40108 58039 78587 333 88/58;",
"02151099999","2010-01-03T03:00:00","4","66.4833333","20.1666666","275.0","JOKKMOKK FPL, SW","FM-12","99999","V020","999,9,C,0000,1","02400,1,C,N","050000,1,N,1","-0194,1","-0209,1","10074,1","24,1","8,1,03,1","08,1,+02400,1,99,9",,,,"99999,9,09707,1","8,1,032,1,+999,9","SYN076AAXX  03031 02151 47884 /0000 11194 21209 39707 40074 58032 72487 333 88/58;",
"02151099999","2010-01-03T06:00:00","4","66.4833333","20.1666666","275.0","JOKKMOKK FPL, SW","FM-12","99999","V020","999,9,C,0000,1","00180,1,C,N","000600,1,N,1","-0182,1","-0195,1","10043,1","72,1","8,1,06,1","09,1,+00180,1,99,9",,"120,M,-0181,1","999,N,-0229,1","99999,9,09680,1","6,1,027,1,+999,9","SYN088AAXX  03060 02151 47/06 /0000 11182 21195 39680 40043 56027 77287 333 11181 21229 89/06;",
"02151099999","2010-01-03T09:00:00","4","66.4833333","20.1666666","275.0","JOKKMOKK FPL, SW","FM-12","99999","V020","999,9,9,9999,9","99999,9,9,N","999999,9,N,1","-0129,1","-0137,1","10023,1",,,,,,,"99999,9,09668,1","7,1,012,1,+999,9","SYN066AAXX  03091 02151 46/// ///// 11129 21137 39668 40023 57012 7//77;",
"02151099999","2010-01-03T12:00:00","4","66.4833333","20.1666666","275.0","JOKKMOKK FPL, SW","FM-12","99999","V020","060,1,N,0010,1","99999,9,9,N","022000,1,N,1","-0150,1","-0160,1","10018,1","77,1","7,1,06,1",,,,,"99999,9,09660,1","7,1,008,1,+999,9","SYN066AAXX  03121 02151 47972 /0601 11150 21160 39660 40018 57008 77770;",
"02151099999","2010-01-03T15:00:00","4","66.4833333","20.1666666","275.0","JOKKMOKK FPL, SW","FM-12","99999","V020","300,1,N,0010,1","01020,1,C,N","012000,1,N,1","-0117,1","-0124,1","10004,1","77,1","8,1,03,1","01,1,+00750,1,99,9","05,1,+01020,1,99,9",,,"99999,9,09651,1","8,1,009,1,+999,9","SYN088AAXX  03151 02151 47562 /3001 11117 21124 39651 40004 58009 77787 333 81/25 85/34 88/43;",
"02151099999","2010-01-03T18:00:00","4","66.4833333","20.1666666","275.0","JOKKMOKK FPL, SW","FM-12","99999","V020","330,1,N,0010,1","99999,9,9,N","050000,1,N,1","-0155,1","-0164,1","09999,1","00,1","8,1,06,1",,,"120,M,-0108,1","999,N,-0182,1","99999,9,09641,1","5,1,010,1,+999,9","SYN082AAXX  03181 02151 47984 /3301 11155 21164 39641 49999 55010 70087 333 11108 21182;",
"02151099999","2010-01-03T21:00:00","4","66.4833333","20.1666666","275.0","JOKKMOKK FPL, SW","FM-12","99999","V020","310,1,N,0010,1","00390,1,C,N","004300,1,N,1","-0172,1","-0183,1","09999,1","85,1","8,1,03,1","03,1,+00270,1,99,9","05,1,+00390,1,99,9",,,"99999,9,09639,1","8,1,002,1,+999,9","SYN088AAXX  03211 02151 47343 /3101 11172 21183 39639 49999 58002 78587 333 83/09 85/13 87/21;",
"02151099999","2010-01-04T00:00:00","4","66.4833333","20.1666666","275.0","JOKKMOKK FPL, SW","FM-12","99999","V020","010,1,N,0010,1","99999,9,9,N","004900,1,N,1","-0152,1","-0160,1","10018,1","71,1","8,1,06,1","04,1,+00090,1,99,9",,,,"99999,9,09660,1","2,1,021,1,+999,9","SYN082AAXX  04001 02151 47149 /0101 11152 21160 39660 40018 52021 77187 333 84/03 88/05;",
"02151099999","2010-01-04T03:00:00","4","66.4833333","20.1666666","275.0","JOKKMOKK FPL, SW","FM-12","99999","V020","999,9,9,9999,9","99999,9,9,N","999999,9,N,1","-0179,1","-0201,1","10049,1",,,,,,,"99999,9,09686,1","3,1,027,1,+999,9","SYN066AAXX  04031 02151 46/// ///// 11179 21201 39686 40049 53027 7//87;",
"02151099999","2010-01-04T06:00:00","4","66.4833333","20.1666666","275.0","JOKKMOKK FPL, SW","FM-12","99999","V020","350,1,N,0030,1","99999,9,9,N","013000,1,N,1","-0182,1","-0203,1","10062,1","71,1","8,1,06,1",,,"120,M,-0146,1","999,N,-0192,1","99999,9,09698,1","3,1,012,1,+999,9","SYN082AAXX  04061 02151 47/63 /3503 11182 21203 39698 40062 53012 77187 333 11146 21192;",
"02151099999","2010-01-04T09:00:00","4","66.4833333","20.1666666","275.0","JOKKMOKK FPL, SW","FM-12","99999","V020","360,1,N,0030,1","00510,1,C,N","008000,1,N,1","-0180,1","-0204,1","10088,1","71,1","7,1,03,1","06,1,+00510,1,99,9",,,,"99999,9,09723,1","2,1,025,1,+999,9","SYN082AAXX  04091 02151 47458 /3603 11180 21204 39723 40088 52025 77177 333 86/17 88/42;",
"02151099999","2010-01-04T12:00:00","4","66.4833333","20.1666666","275.0","JOKKMOKK FPL, SW","FM-12","99999","V020","350,1,N,0020,1","99999,9,9,N","050000,1,N,1","-0173,1","-0196,1","10104,1","22,1","8,1,06,1","01,1,+01500,1,99,9",,,,"99999,9,09739,1","2,1,016,1,+999,9","SYN076AAXX  04121 02151 47784 /3502 11173 21196 39739 40104 52016 72287 333 81/50;",
"02151099999","2010-01-04T15:00:00","4","66.4833333","20.1666666","275.0","JOKKMOKK FPL, SW","FM-12","99999","V020","350,1,N,0040,1","99999,9,9,N","014000,1,N,1","-0179,1","-0202,1","10117,1",,,"02,1,+01110,1,99,9",,,,"99999,9,09751,1","2,1,012,1,+999,9","SYN070AAXX  04151 02151 45664 /3504 11179 21202 39751 40117 52012 333 82/37;",
"02151099999","2010-01-04T18:00:00","4","66.4833333","20.1666666","275.0","JOKKMOKK FPL, SW","FM-12","99999","V020","340,1,N,0040,1","99999,9,9,N","050000,1,N,1","-0212,1","-0231,1","10138,1","00,1","8,1,06,1",,,"120,M,-0168,1","999,N,-0212,1","99999,9,09767,1","2,1,015,1,+999,9","SYN082AAXX  04181 02151 47984 /3404 11212 21231 39767 40138 52015 70087 333 11168 21212;",
"02151099999","2010-01-04T21:00:00","4","66.4833333","20.1666666","275.0","JOKKMOKK FPL, SW","FM-12","99999","V020","300,1,N,0030,1","99999,9,9,N","050000,1,N,1","-0207,1","-0227,1","10140,1",,,,,,,"99999,9,09769,1","0,1,003,1,+999,9","SYN060AAXX  04211 02151 45984 /3003 11207 21227 39769 40140 50003;",
"02151099999","2010-01-05T00:00:00","4","66.4833333","20.1666666","275.0","JOKKMOKK FPL, SW","FM-12","99999","V020","070,1,N,0010,1","99999,9,9,N","050000,1,N,1","-0227,1","-0244,1","10136,1",,,,,,,"99999,9,09763,1","8,1,007,1,+999,9","SYN060AAXX  05001 02151 45984 /0701 11227 21244 39763 40136 58007;",
"02151099999","2010-01-05T03:00:00","4","66.4833333","20.1666666","275.0","JOKKMOKK FPL, SW","FM-12","99999","V020","280,1,N,0010,1","99999,9,9,N","050000,1,N,1","-0227,1","-0244,1","10137,1",,,,,,,"99999,9,09764,1","2,1,001,1,+999,9","SYN060AAXX  05031 02151 45984 /2801 11227 21244 39764 40137 52001;",
"02151099999","2010-01-05T06:00:00","4","66.4833333","20.1666666","275.0","JOKKMOKK FPL, SW","FM-12","99999","V020","999,9,C,0000,1","99999,9,9,N","050000,1,N,1","-0246,1","-0265,1","10142,1",,,,,"120,M,-0200,1","999,N,-0256,1","99999,9,09765,1","3,1,002,1,+999,9","SYN076AAXX  05061 02151 45984 /0000 11246 21265 39765 40142 53002 333 11200 21256;",
"02151099999","2010-01-05T09:00:00","4","66.4833333","20.1666666","275.0","JOKKMOKK FPL, SW","FM-12","99999","V020","999,9,C,0000,1","99999,9,9,N","050000,1,N,1","-0236,1","-0255,1","10141,1","00,1","8,1,03,1",,,,,"99999,9,09766,1","4,1,000,1,+999,9","SYN066AAXX  05091 02151 47984 /0000 11236 21255 39766 40141 54001 70087;",
"02151099999","2010-01-05T12:00:00","4","66.4833333","20.1666666","275.0","JOKKMOKK FPL, SW","FM-12","99999","V020","280,1,N,0010,1","99999,9,9,N","050000,1,N,1","-0212,1","-0228,1","10139,1","24,1","8,1,06,1",,,,,"99999,9,09768,1","2,1,001,1,+999,9","SYN066AAXX  05121 02151 47984 /2801 11212 21228 39768 40139 52001 72487;",
"02151099999","2010-01-05T15:00:00","4","66.4833333","20.1666666","275.0","JOKKMOKK FPL, SW","FM-12","99999","V020","300,1,N,0020,1","01380,1,C,N","050000,1,N,1","-0186,1","-0198,1","10137,1",,,"06,1,+01380,1,99,9",,,,"99999,9,09770,1","3,1,003,1,+999,9","SYN070AAXX  05151 02151 45684 /3002 11186 21198 39770 40137 53003 333 86/46;",
"02151099999","2010-01-05T18:00:00","4","66.4833333","20.1666666","275.0","JOKKMOKK FPL, SW","FM-12","99999","V020","310,1,N,0020,1","99999,9,9,N","050000,1,N,1","-0185,1","-0199,1","10138,1",,,,,"120,M,-0167,1","999,N,-0254,1","99999,9,09771,1","2,1,001,1,+999,9","SYN076AAXX  05181 02151 45984 /3102 11185 21199 39771 40138 52001 333 11167 21254;",
"02151099999","2010-01-05T21:00:00","4","66.4833333","20.1666666","275.0","JOKKMOKK FPL, SW","FM-12","99999","V020","290,1,N,0030,1","99999,9,9,N","050000,1,N,1","-0165,1","-0177,1","10139,1",,,,,,,"99999,9,09775,1","2,1,004,1,+999,9","SYN060AAXX  05211 02151 45984 /2903 11165 21177 39775 40139 52004;",
"02151099999","2010-01-06T00:00:00","4","66.4833333","20.1666666","275.0","JOKKMOKK FPL, SW","FM-12","99999","V020","999,9,C,0000,1","99999,9,9,N","050000,1,N,1","-0202,1","-0216,1","10148,1",,,"01,1,+00540,1,99,9",,,,"99999,9,09778,1","3,1,003,1,+999,9","SYN070AAXX  06001 02151 45484 /0000 11202 21216 39778 40148 53003 333 81/18;",
"02151099999","2010-01-06T03:00:00","4","66.4833333","20.1666666","275.0","JOKKMOKK FPL, SW","FM-12","99999","V020","300,1,N,0020,1","99999,9,9,N","050000,1,N,1","-0183,1","-0196,1","10145,1","00,1","8,1,03,1",,,,,"99999,9,09778,1","5,1,000,1,+999,9","SYN066AAXX  06031 02151 47984 /3002 11183 21196 39778 40145 55000 70087;",
"02151099999","2010-01-06T06:00:00","4","66.4833333","20.1666666","275.0","JOKKMOKK FPL, SW","FM-12","99999","V020","320,1,N,0010,1","00090,1,C,N","005000,1,N,1","-0187,1","-0200,1","10148,1","85,1","8,1,06,1","07,1,+00090,1,99,9",,"120,M,-0163,1","999,N,-0232,1","99999,9,09780,1","2,1,002,1,+999,9","SYN094AAXX  06061 02151 47250 /3201 11187 21200 39780 40148 52002 78587 333 11163 21232 87/03 88/07;",
"02151099999","2010-01-06T09:00:00","4","66.4833333","20.1666666","275.0","JOKKMOKK FPL, SW","FM-12","99999","V020","999,9,C,0000,1","01020,1,C,N","026000,1,N,1","-0174,1","-0187,1","10156,1","71,1","8,1,03,1","08,1,+01020,1,99,9",,,,"99999,9,09790,1","2,1,010,1,+999,9","SYN076AAXX  06091 02151 47676 /0000 11174 21187 39790 40156 52010 77187 333 88/34;",
"02151099999","2010-01-06T12:00:00","4","66.4833333","20.1666666","275.0","JOKKMOKK FPL, SW","FM-12","99999","V020","340,1,N,0010,1","99999,9,9,N","050000,1,N,1","-0193,1","-0207,1","10166,1","00,1","8,1,06,1","03,1,+00750,1,99,9",,,,"99999,9,09797,1","2,1,008,1,+999,9","SYN082AAXX  06121 02151 47584 /3401 11193 21207 39797 40166 52008 70087 333 83/25 88/31;",
"02151099999","2010-01-06T15:00:00","4","66.4833333","20.1666666","275.0","JOKKMOKK FPL, SW","FM-12","99999","V020","999,9,C,0000,1","22000,1,C,N","050000,1,N,1","-0205,1","-0220,1","10177,1","24,1","8,1,03,1","01,1,+00150,1,99,9","04,1,+00240,1,99,9",,,"99999,9,09806,1","2,1,009,1,+999,9","SYN088AAXX  06151 02151 47284 /0000 11205 21220 39806 40177 52009 72487 333 81/05 84/08 87/15;",
"02151099999","2010-01-06T18:00:00","4","66.4833333","20.1666666","275.0","JOKKMOKK FPL, SW","FM-12","99999","V020","290,1,N,0010,1","99999,9,9,N","050000,1,N,1","-0234,1","-0253,1","10193,1","71,1","8,1,06,1","04,1,+00390,1,99,9",,"120,M,-0152,1","999,N,-0233,1","99999,9,09817,1","1,1,011,1,+999,9","SYN088AAXX  06181 02151 47484 /2901 11234 21253 39817 40193 51011 77187 333 11152 21233 84/13;",
"02151099999","2010-01-06T21:00:00","4","66.4833333","20.1666666","275.0","JOKKMOKK FPL, SW","FM-12","99999","V020","270,1,N,0010,1","99999,9,9,N","050000,1,N,1","-0243,1","-0262,1","10206,1","71,1","8,1,03,1","02,1,+00180,1,99,9",,,,"99999,9,09828,1","2,1,011,1,+999,9","SYN076AAXX  06211 02151 47284 /2701 11243 21262 39828 40206 52011 77187 333 82/06;",
"02151099999","2010-01-07T00:00:00","4","66.4833333","20.1666666","275.0","JOKKMOKK FPL, SW","FM-12","99999","V020","260,1,N,0010,1","99999,9,9,N","050000,1,N,1","-0281,1","-0305,1","10218,1","00,1","8,1,06,1",,,,,"99999,9,09834,1","3,1,006,1,+999,9","SYN066AAXX  07001 02151 47984 /2601 11281 21305 39834 40218 53006 70087;",
"02151099999","2010-01-07T03:00:00","4","66.4833333","20.1666666","275.0","JOKKMOKK FPL, SW","FM-12","99999","V020","280,1,N,0010,1","99999,9,9,N","050000,1,N,1","-0289,1","-0311,1","10223,1",,,,,,,"99999,9,09837,1","0,1,004,1,+999,9","SYN060AAXX  07031 02151 45984 /2801 11289 21311 39837 40223 50004;",
"02151099999","2010-01-07T06:00:00","4","66.4833333","20.1666666","275.0","JOKKMOKK FPL, SW","FM-12","99999","V020","220,1,N,0010,1","99999,9,9,N","050000,1,N,1","-0300,1","-0325,1","10230,1",,,,,"120,M,-0213,1","999,N,-0309,1","99999,9,09842,1","0,1,005,1,+999,9","SYN076AAXX  07061 02151 45984 /2201 11300 21325 39842 40230 50005 333 11213 21309;",
"02151099999","2010-01-07T09:00:00","4","66.4833333","20.1666666","275.0","JOKKMOKK FPL, SW","FM-12","99999","V020","999,9,C,0000,1","99999,9,9,N","050000,1,N,1","-0305,1","-0332,1","10240,1",,,,,,,"99999,9,09851,1","3,1,009,1,+999,9","SYN060AAXX  07091 02151 45984 /0000 11305 21332 39851 40240 53009;",
"02151099999","2010-01-07T12:00:00","4","66.4833333","20.1666666","275.0","JOKKMOKK FPL, SW","FM-12","99999","V020","999,9,C,0000,1","99999,9,9,N","050000,1,N,1","-0290,1","-0315,1","10236,1",,,,,,,"99999,9,09849,1","8,1,002,1,+999,9","SYN060AAXX  07121 02151 45984 /0000 11290 21315 39849 40236 58002;",
"02151099999","2010-01-07T15:00:00","4","66.4833333","20.1666666","275.0","JOKKMOKK FPL, SW","FM-12","99999","V020","999,9,C,0000,1","99999,9,9,N","050000,1,N,1","-0281,1","-0303,1","10238,1",,,"03,1,+02700,1,99,9",,,,"99999,9,09853,1","3,1,003,1,+999,9","SYN070AAXX  07151 02151 45984 /0000 11281 21303 39853 40238 53003 333 83/59;",
"02151099999","2010-01-07T18:00:00","4","66.4833333","20.1666666","275.0","JOKKMOKK FPL, SW","FM-12","99999","V020","170,1,N,0020,1","99999,9,9,N","050000,1,N,1","-0258,1","-0279,1","10221,1",,,,,"120,M,-0258,1","999,N,-0313,1","99999,9,09840,1","8,1,013,1,+999,9","SYN076AAXX  07181 02151 45984 /1702 11258 21279 39840 40221 58013 333 11258 21313;",
"02151099999","2010-01-07T21:00:00","4","66.4833333","20.1666666","275.0","JOKKMOKK FPL, SW","FM-12","99999","V020","250,1,N,0010,1","99999,9,9,N","050000,1,N,1","-0249,1","-0269,1","10221,1",,,"01,1,+01500,1,99,9",,,,"99999,9,09842,1","0,1,001,1,+999,9","SYN070AAXX  07211 02151 45784 /2501 11249 21269 39842 40221 50001 333 81/50;",
"02151099999","2010-01-08T00:00:00","4","66.4833333","20.1666666","275.0","JOKKMOKK FPL, SW","FM-12","99999","V020","999,9,C,0000,1","99999,9,9,N","050000,1,N,1","-0228,1","-0246,1","10211,1",,,,,,,"99999,9,09835,1","8,1,007,1,+999,9","SYN060AAXX  08001 02151 45984 /0000 11228 21246 39835 40211 58007;",
"02151099999","2010-01-08T03:00:00","4","66.4833333","20.1666666","275.0","JOKKMOKK FPL, SW","FM-12","99999","V020","999,9,C,0000,1","99999,9,9,N","050000,1,N,1","-0236,1","-0255,1","10205,1",,,"01,1,+01800,1,99,9",,,,"99999,9,09828,1","7,1,007,1,+999,9","SYN076AAXX  08031 02151 45784 /0000 11236 21255 39828 40205 57007 333 81/56 83/59;",
"02151099999","2010-01-08T06:00:00","4","66.4833333","20.1666666","275.0","JOKKMOKK FPL, SW","FM-12","99999","V020","999,9,C,0000,1","99999,9,9,N","050000,1,N,1","-0215,1","-0231,1","10190,1",,,,,"120,M,-0207,1","999,N,-0290,1","99999,9,09817,1","7,1,011,1,+999,9","SYN076AAXX  08061 02151 45984 /0000 11215 21231 39817 40190 57011 333 11207 21290;",
"02151099999","2010-01-08T09:00:00","4","66.4833333","20.1666666","275.0","JOKKMOKK FPL, SW","FM-12","99999","V020","999,9,C,0000,1","99999,9,9,N","050000,1,N,1","-0195,1","-0209,1","10191,1",,,,,,,"99999,9,09821,1","3,1,004,1,+999,9","SYN060AAXX  08091 02151 45/84 /0000 11195 21209 39821 40191 53004;",
"02151099999","2010-01-08T12:00:00","4","66.4833333","20.1666666","275.0","JOKKMOKK FPL, SW","FM-12","99999","V020","999,9,C,0000,1","99999,9,9,N","050000,1,N,1","-0182,1","-0195,1","10194,1",,,,,,,"99999,9,09825,1","3,1,004,1,+999,9","SYN060AAXX  08121 02151 45984 /0000 11182 21195 39825 40194 53004;",
"02151099999","2010-01-08T15:00:00","4","66.4833333","20.1666666","275.0","JOKKMOKK FPL, SW","FM-12","99999","V020","999,9,C,0000,1","99999,9,9,N","050000,1,N,1","-0144,1","-0154,1","10208,1",,,"04,1,+04800,1,99,9",,,,"99999,9,09844,1","3,1,019,1,+999,9","SYN070AAXX  08151 02151 45984 /0000 11144 21154 39844 40208 53019 333 84/66;",
"02151099999","2010-01-08T18:00:00","4","66.4833333","20.1666666","275.0","JOKKMOKK FPL, SW","FM-12","99999","V020","999,9,C,0000,1","99999,9,9,N","050000,1,N,1","-0127,1","-0134,1","10228,1","24,1","8,1,06,1",,,"120,M,-0095,1","999,N,-0217,1","99999,9,09866,1","3,1,022,1,+999,9","SYN082AAXX  08181 02151 47984 /0000 11127 21134 39866 40228 53022 72487 333 11095 21217;",
"02151099999","2010-01-08T21:00:00","4","66.4833333","20.1666666","275.0","JOKKMOKK FPL, SW","FM-12","99999","V020","150,1,N,0010,1","99999,9,9,N","050000,1,N,1","-0135,1","-0144,1","10249,1",,,"01,1,+02700,1,99,9",,,,"99999,9,09885,1","2,1,019,1,+999,9","SYN076AAXX  08211 02151 45984 /1501 11135 21144 39885 40249 52019 333 81/59 88/65;",
"02151099999","2010-01-09T00:00:00","4","66.4833333","20.1666666","275.0","JOKKMOKK FPL, SW","FM-12","99999","V020","170,1,N,0010,1","99999,9,9,N","050000,1,N,1","-0134,1","-0141,1","10260,1",,,"04,1,+02400,1,99,9",,,,"99999,9,09896,1","0,1,011,1,+999,9","SYN076AAXX  09001 02151 45884 /1701 11134 21141 39896 40260 50011 333 84/58 86/63;",
"02151099999","2010-01-09T03:00:00","4","66.4833333","20.1666666","275.0","JOKKMOKK FPL, SW","FM-12","99999","V020","999,9,C,0000,1","99999,9,9,N","050000,1,N,1","-0145,1","-0155,1","10269,1",,,,,,,"99999,9,09903,1","2,1,007,1,+999,9","SYN060AAXX  09031 02151 45984 /0000 11145 21155 39903 40269 52007;",
"02151099999","2010-01-09T06:00:00","4","66.4833333","20.1666666","275.0","JOKKMOKK FPL, SW","FM-12","99999","V020","999,9,C,0000,1","99999,9,9,N","050000,1,N,1","-0177,1","-0190,1","10280,1","85,1","8,1,06,1",,,"120,M,-0099,1","999,N,-0180,1","99999,9,09909,1","2,1,006,1,+999,9","SYN082AAXX  09061 02151 47984 /0000 11177 21190 39909 40280 52006 78587 333 11099 21180;",
"02151099999","2010-01-09T09:00:00","4","66.4833333","20.1666666","275.0","JOKKMOKK FPL, SW","FM-12","99999","V020","999,9,C,0000,1","99999,9,9,N","050000,1,N,1","-0196,1","-0211,1","10292,1","00,1","8,1,03,1",,,,,"99999,9,09918,1","2,1,009,1,+999,9","SYN066AAXX  09091 02151 47984 /0000 11196 21211 39918 40292 52009 70082;",
"02151099999","2010-01-09T12:00:00","4","66.4833333","20.1666666","275.0","JOKKMOKK FPL, SW","FM-12","99999","V020","010,1,N,0010,1","99999,9,9,N","050000,1,N,1","-0183,1","-0197,1","10292,1","00,1","8,1,06,1",,,,,"99999,9,09919,1","3,1,001,1,+999,9","SYN066AAXX  09121 02151 47984 /0101 11183 21197 39919 40292 53001 70080;",
"02151099999","2010-01-09T15:00:00","4","66.4833333","20.1666666","275.0","JOKKMOKK FPL, SW","FM-12","99999","V020","999,9,C,0000,1","99999,9,9,N","050000,1,N,1","-0059,1","-0060,1","10283,1","00,1","8,1,03,1",,,,,"99999,9,09928,1","3,1,009,1,+999,9","SYN066AAXX  09151 02151 47984 /0000 11059 21060 39928 40283 53009 70087;",
"02151099999","2010-01-09T18:00:00","4","66.4833333","20.1666666","275.0","JOKKMOKK FPL, SW","FM-12","99999","V020","270,1,N,0060,1","99999,9,9,N","050000,1,N,1","+0017,1","-0012,1","10274,1","00,1","8,1,06,1",,,"120,M,+0019,1","999,N,-0198,1","99999,9,09929,1","5,1,001,1,+999,9","SYN082AAXX  09181 02151 47984 /2706 10017 21012 39929 40274 55001 70082 333 10019 21198;",
"02151099999","2010-01-09T21:00:00","4","66.4833333","20.1666666","275.0","JOKKMOKK FPL, SW","FM-12","99999","V020","270,1,N,0050,1","99999,9,9,N","050000,1,N,1","+0014,1","-0017,1","10274,1",,,,,,,"99999,9,09928,1","4,1,000,1,+999,9","SYN060AAXX  09211 02151 45984 /2705 10014 21017 39928 40274 54001;",
"02151099999","2010-01-10T00:00:00","4","66.4833333","20.1666666","275.0","JOKKMOKK FPL, SW","FM-12","99999","V020","280,1,N,0060,1","99999,9,9,N","050000,1,N,1","+0022,1","-0012,1","10258,1",,,,,,,"99999,9,09914,1","8,1,014,1,+999,9","SYN060AAXX  10001 02151 45984 /2806 10022 21012 39914 40258 58014;",
"02151099999","2010-01-10T03:00:00","4","66.4833333","20.1666666","275.0","JOKKMOKK FPL, SW","FM-12","99999","V020","250,1,N,0040,1","99999,9,9,N","050000,1,N,1","+0018,1","-0011,1","10253,1",,,,,,,"99999,9,09909,1","5,1,006,1,+999,9","SYN060AAXX  10031 02151 45984 /2504 10018 21011 39909 40253 55006;",
"02151099999","2010-01-10T06:00:00","4","66.4833333","20.1666666","275.0","JOKKMOKK FPL, SW","FM-12","99999","V020","260,1,N,0060,1","99999,9,9,N","050000,1,N,1","+0024,1","-0011,1","10236,1",,,,,"120,M,+0029,1","999,N,+0000,1","99999,9,09893,1","8,1,016,1,+999,9","SYN076AAXX  10061 02151 45984 /2606 10024 21011 39893 40236 58016 333 10029 20000;",
"02151099999","2010-01-10T09:00:00","4","66.4833333","20.1666666","275.0","JOKKMOKK FPL, SW","FM-12","99999","V020","250,1,N,0020,1","99999,9,9,N","050000,1,N,1","+0019,1","-0010,1","10231,1",,,,,,,"99999,9,09888,1","5,1,006,1,+999,9","SYN060AAXX  10091 02151 45984 /2502 10019 21010 39888 40231 55006;",
"02151099999","2010-01-10T12:00:00","4","66.4833333","20.1666666","275.0","JOKKMOKK FPL, SW","FM-12","99999","V020","270,1,N,0070,1","99999,9,9,N","050000,1,N,1","+0034,1","-0004,1","10222,1",,,,,,,"99999,9,09881,1","8,1,006,1,+999,9","SYN060AAXX  10121 02151 45984 /2707 10034 21004 39881 40222 58006;",
"02151099999","2010-01-10T15:00:00","4","66.4833333","20.1666666","275.0","JOKKMOKK FPL, SW","FM-12","99999","V020","260,1,N,0040,1","99999,9,9,N","050000,1,N,1","+0035,1","+0000,1","10222,1",,,,,,,"99999,9,09881,1","5,1,000,1,+999,9","SYN060AAXX  10151 02151 45984 /2604 10035 20000 39881 40222 55000;",
"02151099999","2010-01-10T18:00:00","4","66.4833333","20.1666666","275.0","JOKKMOKK FPL, SW","FM-12","99999","V020","230,1,N,0030,1","99999,9,9,N","050000,1,N,1","+0023,1","+0004,1","10225,1",,,,,"120,M,+0041,1","999,N,-0021,1","99999,9,09882,1","4,1,000,1,+999,9","SYN076AAXX  10181 02151 45984 /2303 10023 20004 39882 40225 54001 333 10041 21021;",
"02151099999","2010-01-10T21:00:00","4","66.4833333","20.1666666","275.0","JOKKMOKK FPL, SW","FM-12","99999","V020","200,1,N,0030,1","99999,9,9,N","050000,1,N,1","+0025,1","+0007,1","10223,1",,,,,,,"99999,9,09880,1","7,1,002,1,+999,9","SYN060AAXX  10211 02151 45984 /2003 10025 20007 39880 40223 57002;",
"02151099999","2010-01-11T00:00:00","4","66.4833333","20.1666666","275.0","JOKKMOKK FPL, SW","FM-12","99999","V020","280,1,N,0050,1","99999,9,9,N","050000,1,N,1","+0048,1","+0007,1","10223,1",,,,,,,"99999,9,09883,1","3,1,003,1,+999,9","SYN060AAXX  11001 02151 45984 /2805 10048 20007 39883 40223 53003;",
"02151099999","2010-01-11T03:00:00","4","66.4833333","20.1666666","275.0","JOKKMOKK FPL, SW","FM-12","99999","V020","290,1,N,0040,1","99999,9,9,N","050000,1,N,1","+0040,1","-0006,1","10221,1",,,,,,,"99999,9,09881,1","5,1,003,1,+999,9","SYN060AAXX  11031 02151 45984 /2904 10040 21006 39881 40221 55003;",
"02151099999","2010-01-11T06:00:00","4","66.4833333","20.1666666","275.0","JOKKMOKK FPL, SW","FM-12","99999","V020","250,1,N,0030,1","99999,9,9,N","050000,1,N,1","+0021,1","-0013,1","10233,1",,,,,"120,M,+0051,1","999,N,-0015,1","99999,9,09890,1","0,1,009,1,+999,9","SYN076AAXX  11061 02151 45984 /2503 10021 21013 39890 40233 50009 333 10051 21015;",
"02151099999","2010-01-11T09:00:00","4","66.4833333","20.1666666","275.0","JOKKMOKK FPL, SW","FM-12","99999","V020","220,1,N,0020,1","99999,9,9,N","050000,1,N,1","+0013,1","-0015,1","10240,1",,,,,,,"99999,9,09895,1","1,1,006,1,+999,9","SYN060AAXX  11091 02151 45984 /2202 10013 21015 39895 40240 51006;",
"02151099999","2010-01-11T12:00:00","4","66.4833333","20.1666666","275.0","JOKKMOKK FPL, SW","FM-12","99999","V020","220,1,N,0020,1","99999,9,9,N","050000,1,N,1","+0010,1","-0008,1","10232,1",,,,,,,"99999,9,09887,1","8,1,008,1,+999,9","SYN060AAXX  11121 02151 45984 /2202 10010 21008 39887 40232 58008;",
"02151099999","2010-01-11T15:00:00","4","66.4833333","20.1666666","275.0","JOKKMOKK FPL, SW","FM-12","99999","V020","290,1,N,0030,1","99999,9,9,N","050000,1,N,1","+0025,1","-0013,1","10214,1",,,,,,,"99999,9,09872,1","8,1,015,1,+999,9","SYN060AAXX  11151 02151 45984 /2903 10025 21013 39872 40214 58015;",
"02151099999","2010-01-11T18:00:00","4","66.4833333","20.1666666","275.0","JOKKMOKK FPL, SW","FM-12","99999","V020","280,1,N,0030,1","99999,9,9,N","050000,1,N,1","+0038,1","-0009,1","10201,1",,,"01,1,+01800,1,99,9",,"120,M,+0043,1","999,N,-0042,1","99999,9,09861,1","7,1,011,1,+999,9","SYN082AAXX  11181 02151 45784 /2803 10038 21009 39861 40201 57011 333 10043 21042 81/56;",
"02151099999","2010-01-11T21:00:00","4","66.4833333","20.1666666","275.0","JOKKMOKK FPL, SW","FM-12","99999","V020","290,1,N,0030,1","99999,9,9,N","050000,1,N,1","+0024,1","-0001,1","10197,1",,,,,,,"99999,9,09855,1","8,1,006,1,+999,9","SYN060AAXX  11211 02151 45984 /2903 10024 21001 39855 40197 58006;",
"02151099999","2010-01-12T00:00:00","4","66.4833333","20.1666666","275.0","JOKKMOKK FPL, SW","FM-12","99999","V020","160,1,N,0020,1","99999,9,9,N","050000,1,N,1","+0001,1","-0011,1","10206,1",,,,,,,"99999,9,09861,1","0,1,005,1,+999,9","SYN060AAXX  12001 02151 45984 /1602 10001 21011 39861 40206 50005;",
"02151099999","2010-01-12T03:00:00","4","66.4833333","20.1666666","275.0","JOKKMOKK FPL, SW","FM-12","99999","V020","010,1,N,0020,1","99999,9,9,N","050000,1,N,1","+0001,1","-0026,1","10205,1",,,,,,,"99999,9,09860,1","0,1,001,1,+999,9","SYN060AAXX  12031 02151 45984 /0102 10001 21026 39860 40205 50001;",
"02151099999","2010-01-12T06:00:00","4","66.4833333","20.1666666","275.0","JOKKMOKK FPL, SW","FM-12","99999","V020","280,1,N,0030,1","99999,9,9,N","050000,1,N,1","+0017,1","-0020,1","10197,1",,,,,"120,M,+0038,1","999,N,-0030,1","99999,9,09854,1","6,1,005,1,+999,9","SYN076AAXX  12061 02151 45984 /2803 10017 21020 39854 40197 56005 333 10038 21030;",
"02151099999","2010-01-12T09:00:00","4","66.4833333","20.1666666","275.0","JOKKMOKK FPL, SW","FM-12","99999","V020","290,1,N,0050,1","99999,9,9,N","050000,1,N,1","+0018,1","-0021,1","10198,1",,,"02,1,+01800,1,99,9",,,,"99999,9,09855,1","2,1,001,1,+999,9","SYN070AAXX  12091 02151 45784 /2905 10018 21021 39855 40198 52001 333 82/56;",
"02151099999","2010-01-12T12:00:00","4","66.4833333","20.1666666","275.0","JOKKMOKK FPL, SW","FM-12","99999","V020","300,1,N,0040,1","99999,9,9,N","050000,1,N,1","+0008,1","-0025,1","10197,1",,,,,,,"99999,9,09853,1","8,1,002,1,+999,9","SYN060AAXX  12121 02151 45984 /3004 10008 21025 39853 40197 58002;",
"02151099999","2010-01-12T15:00:00","4","66.4833333","20.1666666","275.0","JOKKMOKK FPL, SW","FM-12","99999","V020","300,1,N,0030,1","99999,9,9,N","050000,1,N,1","-0008,1","-0034,1","10199,1",,,,,,,"99999,9,09854,1","4,1,000,1,+999,9","SYN060AAXX  12151 02151 45984 /3003 11008 21034 39854 40199 54001;",
"02151099999","2010-01-12T18:00:00","4","66.4833333","20.1666666","275.0","JOKKMOKK FPL, SW","FM-12","99999","V020","300,1,N,0020,1","99999,9,9,N","050000,1,N,1","-0026,1","-0047,1","10207,1",,,,,"120,M,+0021,1","999,N,-0050,1","99999,9,09858,1","3,1,005,1,+999,9","SYN076AAXX  12181 02151 45984 /3002 11026 21047 39858 40207 53005 333 10021 21050;",
"02151099999","2010-01-12T21:00:00","4","66.4833333","20.1666666","275.0","JOKKMOKK FPL, SW","FM-12","99999","V020","180,1,N,0010,1","99999,9,9,N","050000,1,N,1","-0047,1","-0050,1","10213,1",,,,,,,"99999,9,09861,1","2,1,003,1,+999,9","SYN060AAXX  12211 02151 45984 /1801 11047 21050 39861 40213 52003;",
"02151099999","2010-01-13T00:00:00","4","66.4833333","20.1666666","275.0","JOKKMOKK FPL, SW","FM-12","99999","V020","999,9,C,0000,1","99999,9,9,N","050000,1,N,1","-0068,1","-0068,1","10216,1",,,,,,,"99999,9,09862,1","4,1,000,1,+999,9","SYN060AAXX  13001 02151 45984 /0000 11068 21068 39862 40216 54000;",
"02151099999","2010-01-13T03:00:00","4","66.4833333","20.1666666","275.0","JOKKMOKK FPL, SW","FM-12","99999","V020","210,1,N,0010,1","99999,9,9,N","050000,1,N,1","-0079,1","-0082,1","10215,1",,,,,,,"99999,9,09860,1","7,1,002,1,+999,9","SYN060AAXX  13031 02151 45984 /2101 11079 21082 39860 40215 57002;",
"02151099999","2010-01-13T06:00:00","4","66.4833333","20.1666666","275.0","JOKKMOKK FPL, SW","FM-12","99999","V020","999,9,C,0000,1","99999,9,9,N","009000,1,N,1","-0100,1","-0102,1","10219,1","78,1","7,1,06,1",,,"120,M,-0026,1","999,N,-0136,1","99999,9,09861,1","3,1,001,1,+999,9","SYN082AAXX  13061 02151 47959 /0000 11100 21102 39861 40219 53001 77870 333 11026 21136;",
"02151099999","2010-01-13T09:00:00","4","66.4833333","20.1666666","275.0","JOKKMOKK FPL, SW","FM-12","99999","V020","999,9,9,9999,9","99999,9,9,N","999999,9,N,1","-0107,1","-0112,1","10226,1",,,,,,,"99999,9,09867,1","3,1,005,1,+999,9","SYN066AAXX  13091 02151 46/// ///// 11107 21112 39867 40226 53005 7//87;",
"02151099999","2010-01-13T12:00:00","4","66.4833333","20.1666666","275.0","JOKKMOKK FPL, SW","FM-12","99999","V020","260,1,N,0020,1","99999,9,9,N","035000,1,N,1","-0111,1","-0117,1","10226,1","00,1","8,1,06,1",,,,,"99999,9,09866,1","8,1,001,1,+999,9","SYN066AAXX  13121 02151 47981 /2602 11111 21117 39866 40226 58001 70087;",
"02151099999","2010-01-13T15:00:00","4","66.4833333","20.1666666","275.0","JOKKMOKK FPL, SW","FM-12","99999","V020","280,1,N,0010,1","99999,9,9,N","026000,1,N,1","-0123,1","-0128,1","10222,1","24,1","8,1,03,1",,,,,"99999,9,09861,1","7,1,005,1,+999,9","SYN066AAXX  13151 02151 47976 /2801 11123 21128 39861 40222 57005 72487;",
"02151099999","2010-01-13T18:00:00","4","66.4833333","20.1666666","275.0","JOKKMOKK FPL, SW","FM-12","99999","V020","270,1,N,0010,1","99999,9,9,N","050000,1,N,1","-0152,1","-0162,1","10221,1","00,1","8,1,06,1",,,"120,M,-0083,1","999,N,-0160,1","99999,9,09855,1","7,1,005,1,+999,9","SYN082AAXX  13181 02151 47984 /2701 11152 21162 39855 40221 57005 70087 333 11083 21160;",
"02151099999","2010-01-13T21:00:00","4","66.4833333","20.1666666","275.0","JOKKMOKK FPL, SW","FM-12","99999","V020","999,9,C,0000,1","99999,9,9,N","050000,1,N,1","-0168,1","-0178,1","10210,1","24,1","8,1,03,1",,,,,"99999,9,09843,1","8,1,012,1,+999,9","SYN066AAXX  13211 02151 47984 /0000 11168 21178 39843 40210 58012 72487;",
"02151099999","2010-01-14T00:00:00","4","66.4833333","20.1666666","275.0","JOKKMOKK FPL, SW","FM-12","99999","V020","999,9,C,0000,1","00090,1,C,N","045000,1,N,1","-0179,1","-0191,1","10201,1","00,1","8,1,06,1","08,1,+00090,1,99,9",,,,"99999,9,09833,1","8,1,010,1,+999,9","SYN076AAXX  14001 02151 47183 /0000 11179 21191 39833 40201 58010 70087 333 88/03;",
"02151099999","2010-01-14T03:00:00","4","66.4833333","20.1666666","275.0","JOKKMOKK FPL, SW","FM-12","99999","V020","999,9,C,0000,1","99999,9,9,N","050000,1,N,1","-0172,1","-0184,1","10190,1","00,1","8,1,03,1",,,,,"99999,9,09823,1","7,1,009,1,+999,9","SYN066AAXX  14031 02151 47984 /0000 11172 21184 39823 40190 57009 70087;",
"02151099999","2010-01-14T06:00:00","4","66.4833333","20.1666666","275.0","JOKKMOKK FPL, SW","FM-12","99999","V020","280,1,N,0010,1","99999,9,9,N","050000,1,N,1","-0138,1","-0146,1","10196,1","00,1","8,1,06,1","01,1,+07200,1,99,9",,"120,M,-0134,1","999,N,-0183,1","99999,9,09833,1","1,1,010,1,+999,9","SYN088AAXX  14061 02151 47984 /2801 11138 21146 39833 40196 51010 70087 333 11134 21183 81/74;",
"02151099999","2010-01-14T09:00:00","4","66.4833333","20.1666666","275.0","JOKKMOKK FPL, SW","FM-12","99999","V020","030,1,N,0010,1","99999,9,9,N","050000,1,N,1","-0138,1","-0147,1","10212,1",,,,,,,"99999,9,09849,1","2,1,016,1,+999,9","SYN060AAXX  14091 02151 45984 /0301 11138 21147 39849 40212 52016;",
"02151099999","2010-01-14T12:00:00","4","66.4833333","20.1666666","275.0","JOKKMOKK FPL, SW","FM-12","99999","V020","999,9,C,0000,1","99999,9,9,N","050000,1,N,1","-0127,1","-0134,1","10226,1",,,,,,,"99999,9,09864,1","2,1,015,1,+999,9","SYN060AAXX  14121 02151 45984 /0000 11127 21134 39864 40226 52015;",
"02151099999","2010-01-14T15:00:00","4","66.4833333","20.1666666","275.0","JOKKMOKK FPL, SW","FM-12","99999","V020","999,9,C,0000,1","99999,9,9,N","050000,1,N,1","-0136,1","-0145,1","10243,1",,,,,,,"99999,9,09879,1","2,1,015,1,+999,9","SYN060AAXX  14151 02151 45984 /0000 11136 21145 39879 40243 52015;",
"02151099999","2010-01-14T18:00:00","4","66.4833333","20.1666666","275.0","JOKKMOKK FPL, SW","FM-12","99999","V020","280,1,N,0010,1","99999,9,9,N","050000,1,N,1","-0146,1","-0157,1","10261,1",,,,,"120,M,-0121,1","999,N,-0154,1","99999,9,09895,1","3,1,016,1,+999,9","SYN076AAXX  14181 02151 45984 /2801 11146 21157 39895 40261 53016 333 11121 21154;",
"02151099999","2010-01-14T21:00:00","4","66.4833333","20.1666666","275.0","JOKKMOKK FPL, SW","FM-12","99999","V020","270,1,N,0010,1","99999,9,9,N","050000,1,N,1","-0152,1","-0162,1","10275,1",,,,,,,"99999,9,09908,1","3,1,013,1,+999,9","SYN060AAXX  14211 02151 45984 /2701 11152 21162 39908 40275 53013;",
"02151099999","2010-01-15T00:00:00","4","66.4833333","20.1666666","275.0","JOKKMOKK FPL, SW","FM-12","99999","V020","270,1,N,0010,1","99999,9,9,N","050000,1,N,1","-0169,1","-0181,1","10287,1",,,,,,,"99999,9,09917,1","2,1,009,1,+999,9","SYN060AAXX  15001 02151 45984 /2701 11169 21181 39917 40287 52009;",
"02151099999","2010-01-15T03:00:00","4","66.4833333","20.1666666","275.0","JOKKMOKK FPL, SW","FM-12","99999","V020","260,1,N,0010,1","00210,1,C,N","050000,1,N,1","-0193,1","-0208,1","10296,1",,,"06,1,+00210,1,99,9",,,,"99999,9,09922,1","2,1,005,1,+999,9","SYN070AAXX  15031 02151 45384 /2601 11193 21208 39922 40296 52005 333 86/07;",
"02151099999","2010-01-15T06:00:00","4","66.4833333","20.1666666","275.0","JOKKMOKK FPL, SW","FM-12","99999","V020","260,1,N,0010,1","00060,1,C,N","030000,1,N,1","-0177,1","-0189,1","10298,1","77,1","7,1,06,1","08,1,+00060,1,99,9",,"120,M,-0135,1","999,N,-0197,1","99999,9,09926,1","2,1,004,1,+999,9","SYN088AAXX  15061 02151 47180 /2601 11177 21189 39926 40298 52004 77770 333 11135 21197 88/02;",
"02151099999","2010-01-15T09:00:00","4","66.4833333","20.1666666","275.0","JOKKMOKK FPL, SW","FM-12","99999","V020","999,9,C,0000,1","00060,1,C,N","000800,1,N,1","-0185,1","-0198,1","10308,1","32,1","8,1,03,1","08,1,+00060,1,99,9",,,,"99999,9,09935,1","2,1,009,1,+999,9","SYN076AAXX  15091 02151 47108 /0000 11185 21198 39935 40308 52009 73287 333 88/02;",
"02151099999","2010-01-15T12:00:00","4","66.4833333","20.1666666","275.0","JOKKMOKK FPL, SW","FM-12","99999","V020","999,9,C,0000,1","99999,9,9,N","004000,1,N,1","-0169,1","-0181,1","10306,1","24,1","8,1,06,1",,,,,"99999,9,09935,1","0,1,000,1,+999,9","SYN066AAXX  15121 02151 47/40 /0000 11169 21181 39935 40306 50000 72487;",
"02151099999","2010-01-15T15:00:00","4","66.4833333","20.1666666","275.0","JOKKMOKK FPL, SW","FM-12","99999","V020","140,1,N,0010,1","99999,9,9,N","050000,1,N,1","-0191,1","-0204,1","10310,1",,,"04,1,+00090,1,99,9",,,,"99999,9,09936,1","5,1,001,1,+999,9","SYN070AAXX  15151 02151 45284 /1401 11191 21204 39936 40310 55001 333 84/03;",
"02151099999","2010-01-15T18:00:00","4","66.4833333","20.1666666","275.0","JOKKMOKK FPL, SW","FM-12","99999","V020","160,1,N,0010,1","99999,9,9,N","050000,1,N,1","-0234,1","-0255,1","10317,1",,,,,"120,M,-0166,1","999,N,-0231,1","99999,9,09936,1","0,1,001,1,+999,9","SYN076AAXX  15181 02151 45984 /1601 11234 21255 39936 40317 50001 333 11166 21231;",
"02151099999","2010-01-15T21:00:00","4","66.4833333","20.1666666","275.0","JOKKMOKK FPL, SW","FM-12","99999","V020","190,1,N,0010,1","99999,9,9,N","050000,1,N,1","-0236,1","-0254,1","10322,1",,,,,,,"99999,9,09941,1","3,1,004,1,+999,9","SYN060AAXX  15211 02151 45984 /1901 11236 21254 39941 40322 53004;",
"02151099999","2010-01-16T00:00:00","4","66.4833333","20.1666666","275.0","JOKKMOKK FPL, SW","FM-12","99999","V020","999,9,C,0000,1","99999,9,9,N","050000,1,N,1","-0247,1","-0267,1","10315,1",,,,,,,"99999,9,09932,1","8,1,009,1,+999,9","SYN060AAXX  16001 02151 45984 /0000 11247 21267 39932 40315 58009;",
"02151099999","2010-01-16T03:00:00","4","66.4833333","20.1666666","275.0","JOKKMOKK FPL, SW","FM-12","99999","V020","150,1,N,0010,1","99999,9,9,N","025000,1,N,1","-0198,1","-0213,1","10294,1","85,1","8,1,03,1",,,,,"99999,9,09920,1","7,1,013,1,+999,9","SYN066AAXX  16031 02151 47/75 /1501 11198 21213 39920 40294 57013 78587;",
"02151099999","2010-01-16T06:00:00","4","66.4833333","20.1666666","275.0","JOKKMOKK FPL, SW","FM-12","99999","V020","999,9,C,0000,1","99999,9,9,N","022000,1,N,1","-0175,1","-0185,1","10286,1","71,1","8,1,06,1",,,"120,M,-0157,1","999,N,-0256,1","99999,9,09915,1","5,1,006,1,+999,9","SYN082AAXX  16061 02151 47972 /0000 11175 21185 39915 40286 55006 77187 333 11157 21256;",
"02151099999","2010-01-16T09:00:00","4","66.4833333","20.1666666","275.0","JOKKMOKK FPL, SW","FM-12","99999","V020","160,1,N,0010,1","99999,9,9,N","045000,1,N,1","-0180,1","-0194,1","10285,1","85,1","8,1,03,1","02,1,+00120,1,99,9",,,,"99999,9,09913,1","5,1,001,1,+999,9","SYN076AAXX  16091 02151 47283 /1601 11180 21194 39913 40285 55001 78587 333 82/04;",
"02151099999","2010-01-16T12:00:00","4","66.4833333","20.1666666","275.0","JOKKMOKK FPL, SW","FM-12","99999","V020","220,1,N,0010,1","99999,9,9,N","050000,1,N,1","-0150,1","-0160,1","10275,1","00,1","8,1,06,1",,,,,"99999,9,09908,1","6,1,005,1,+999,9","SYN066AAXX  16121 02151 47984 /2201 11150 21160 39908 40275 56005 70087;",
"02151099999","2010-01-16T15:00:00","4","66.4833333","20.1666666","275.0","JOKKMOKK FPL, SW","FM-12","99999","V020","140,1,N,0010,1","99999,9,9,N","050000,1,N,1","-0195,1","-0211,1","10281,1",,,,,,,"99999,9,09907,1","0,1,001,1,+999,9","SYN060AAXX  16151 02151 45984 /1401 11195 21211 39907 40281 50001;",
"02151099999","2010-01-16T18:00:00","4","66.4833333","20.1666666","275.0","JOKKMOKK FPL, SW","FM-12","99999","V020","999,9,C,0000,1","00180,1,C,N","045000,1,N,1","-0220,1","-0237,1","10291,1","71,1","7,1,06,1","09,1,+00180,1,99,9",,"120,M,-0148,1","999,N,-0234,1","99999,9,09914,1","2,1,007,1,+999,9","SYN088AAXX  16181 02151 47/83 /0000 11220 21237 39914 40291 52007 77170 333 11148 21234 89/06;",
"02151099999","2010-01-16T21:00:00","4","66.4833333","20.1666666","275.0","JOKKMOKK FPL, SW","FM-12","99999","V020","999,9,C,0000,1","99999,9,9,N","035000,1,N,1","-0234,1","-0252,1","10289,1","85,1","8,1,03,1","03,1,+00480,1,99,9",,,,"99999,9,09910,1","7,1,004,1,+999,9","SYN076AAXX  16211 02151 47481 /0000 11234 21252 39910 40289 57004 78587 333 83/16;",
"02151099999","2010-01-17T00:00:00","4","66.4833333","20.1666666","275.0","JOKKMOKK FPL, SW","FM-12","99999","V020","999,9,C,0000,1","00420,1,C,N","030000,1,N,1","-0177,1","-0190,1","10281,1","85,1","8,1,06,1","08,1,+00420,1,99,9",,,,"99999,9,09910,1","4,1,000,1,+999,9","SYN076AAXX  17001 02151 47480 /0000 11177 21190 39910 40281 54000 78587 333 88/14;",
"02151099999","2010-01-17T03:00:00","4","66.4833333","20.1666666","275.0","JOKKMOKK FPL, SW","FM-12","99999","V020","180,1,N,0010,1","00420,1,C,N","050000,1,N,1","-0091,1","-0093,1","10269,1","00,1","8,1,03,1","08,1,+00420,1,99,9",,,,"99999,9,09911,1","4,1,000,1,+999,9","SYN076AAXX  17031 02151 47484 /1801 11091 21093 39911 40269 54001 70082 333 88/14;",
"02151099999","2010-01-17T06:00:00","4","66.4833333","20.1666666","275.0","JOKKMOKK FPL, SW","FM-12","99999","V020","190,1,N,0020,1","00390,1,C,N","050000,1,N,1","-0070,1","-0072,1","10268,1","00,1","8,1,06,1","08,1,+00390,1,99,9",,"120,M,-0070,1","999,N,-0248,1","99999,9,09912,1","0,1,001,1,+999,9","SYN088AAXX  17061 02151 47484 /1902 11070 21072 39912 40268 50001 70082 333 11070 21248 88/13;",
"02151099999","2010-01-17T09:00:00","4","66.4833333","20.1666666","275.0","JOKKMOKK FPL, SW","FM-12","99999","V020","200,1,N,0020,1","00450,1,C,N","050000,1,N,1","-0062,1","-0067,1","10275,1",,,"08,1,+00450,1,99,9",,,,"99999,9,09920,1","2,1,008,1,+999,9","SYN070AAXX  17091 02151 45484 /2002 11062 21067 39920 40275 52008 333 88/15;",
"02151099999","2010-01-17T12:00:00","4","66.4833333","20.1666666","275.0","JOKKMOKK FPL, SW","FM-12","99999","V020","200,1,N,0030,1","00540,1,C,N","030000,1,N,1","-0058,1","-0070,1","10281,1","71,1","8,1,06,1","08,1,+00540,1,99,9",,,,"99999,9,09926,1","2,1,006,1,+999,9","SYN076AAXX  17121 02151 47480 /2003 11058 21070 39926 40281 52006 77187 333 88/18;",
"02151099999","2010-01-17T15:00:00","4","66.4833333","20.1666666","275.0","JOKKMOKK FPL, SW","FM-12","99999","V020","190,1,N,0040,1","00600,1,C,N","050000,1,N,1","-0048,1","-0065,1","10280,1","78,1","7,1,03,1","08,1,+00600,1,99,9",,,,"99999,9,09926,1","4,1,000,1,+999,9","SYN076AAXX  17151 02151 47584 /1904 11048 21065 39926 40280 54000 77877 333 88/20;",
"02151099999","2010-01-17T18:00:00","4","66.4833333","20.1666666","275.0","JOKKMOKK FPL, SW","FM-12","99999","V020","210,1,N,0040,1","00660,1,C,N","040000,1,N,1","-0045,1","-0068,1","10280,1","00,1","7,1,06,1","08,1,+00660,1,99,9",,"120,M,-0044,1","999,N,-0070,1","99999,9,09926,1","4,1,000,1,+999,9","SYN088AAXX  17181 02151 47582 /2104 11045 21068 39926 40280 54000 70072 333 11044 21070 88/22;",
"02151099999","2010-01-17T21:00:00","4","66.4833333","20.1666666","275.0","JOKKMOKK FPL, SW","FM-12","99999","V020","210,1,N,0030,1","00570,1,C,N","050000,1,N,1","-0045,1","-0069,1","10283,1","00,1","7,1,03,1","08,1,+00570,1,99,9",,,,"99999,9,09930,1","2,1,003,1,+999,9","SYN076AAXX  17211 02151 47484 /2103 11045 21069 39930 40283 52003 70072 333 88/19;",
"02151099999","2010-01-18T00:00:00","4","66.4833333","20.1666666","275.0","JOKKMOKK FPL, SW","FM-12","99999","V020","190,1,N,0030,1","00630,1,C,N","050000,1,N,1","-0040,1","-0067,1","10279,1","00,1","7,1,06,1","08,1,+00630,1,99,9",,,,"99999,9,09927,1","7,1,003,1,+999,9","SYN076AAXX  18001 02151 47584 /1903 11040 21067 39927 40279 57003 70072 333 88/21;",
"02151099999","2010-01-18T03:00:00","4","66.4833333","20.1666666","275.0","JOKKMOKK FPL, SW","FM-12","99999","V020","190,1,N,0040,1","00510,1,C,N","050000,1,N,1","-0045,1","-0068,1","10276,1",,,"08,1,+00510,1,99,9",,,,"99999,9,09923,1","5,1,004,1,+999,9","SYN070AAXX  18031 02151 45484 /1904 11045 21068 39923 40276 55004 333 88/17;",
"02151099999","2010-01-18T06:00:00","4","66.4833333","20.1666666","275.0","JOKKMOKK FPL, SW","FM-12","99999","V020","190,1,N,0040,1","00480,1,C,N","045000,1,N,1","-0057,1","-0077,1","10277,1",,,"08,1,+00480,1,99,9",,"120,M,-0038,1","999,N,-0057,1","99999,9,09923,1","4,1,000,1,+999,9","SYN082AAXX  18061 02151 45483 /1904 11057 21077 39923 40277 54000 333 11038 21057 88/16;",
"02151099999","2010-01-18T09:00:00","4","66.4833333","20.1666666","275.0","JOKKMOKK FPL, SW","FM-12","99999","V020","150,1,N,0050,1","99999,9,9,N","007000,1,N,1","-0070,1","-0082,1","10284,1","71,1","8,1,03,1","01,1,+00750,1,99,9",,,,"99999,9,09927,1","2,1,004,1,+999,9","SYN082AAXX  18091 02151 47557 /1505 11070 21082 39927 40284 52004 77187 333 81/25 88/34;",
"02151099999","2010-01-18T12:00:00","4","66.4833333","20.1666666","275.0","JOKKMOKK FPL, SW","FM-12","99999","V020","130,1,N,0040,1","00390,1,C,N","022000,1,N,1","-0065,1","-0074,1","10278,1","71,1","8,1,06,1","08,1,+00390,1,99,9",,,,"99999,9,09923,1","7,1,004,1,+999,9","SYN076AAXX  18121 02151 47472 /1304 11065 21074 39923 40278 57004 77187 333 88/13;",
"02151099999","2010-01-18T15:00:00","4","66.4833333","20.1666666","275.0","JOKKMOKK FPL, SW","FM-12","99999","V020","150,1,N,0040,1","00480,1,C,N","050000,1,N,1","-0056,1","-0063,1","10279,1","22,1","7,1,03,1","08,1,+00480,1,99,9",,,,"99999,9,09925,1","3,1,002,1,+999,9","SYN076AAXX  18151 02151 47484 /1504 11056 21063 39925 40279 53002 72272 333 88/16;",
"02151099999","2010-01-18T18:00:00","4","66.4833333","20.1666666","275.0","JOKKMOKK FPL, SW","FM-12","99999","V020","150,1,N,0040,1","00270,1,C,N","018000,1,N,1","-0053,1","-0059,1","10283,1","77,1","7,1,06,1","08,1,+00270,1,99,9",,"120,M,-0052,1","999,N,-0072,1","99999,9,09928,1","0,1,003,1,+999,9","SYN088AAXX  18181 02151 47368 /1504 11053 21059 39928 40283 50003 77772 333 11052 21072 88/09;",
"02151099999","2010-01-18T21:00:00","4","66.4833333","20.1666666","275.0","JOKKMOKK FPL, SW","FM-12","99999","V020","150,1,N,0040,1","00240,1,C,N","012000,1,N,1","-0055,1","-0061,1","10284,1","71,1","7,1,03,1","08,1,+00240,1,99,9",,,,"99999,9,09930,1","2,1,001,1,+999,9","SYN076AAXX  18211 02151 47362 /1504 11055 21061 39930 40284 52001 77177 333 88/08;",
"02151099999","2010-01-19T00:00:00","4","66.4833333","20.1666666","275.0","JOKKMOKK FPL, SW","FM-12","99999","V020","170,1,N,0040,1","00330,1,C,N","018000,1,N,1","-0059,1","-0069,1","10280,1","71,1","7,1,06,1","05,1,+00330,1,99,9",,,,"99999,9,09925,1","8,1,004,1,+999,9","SYN082AAXX  19001 02151 47468 /1704 11059 21069 39925 40280 58004 77177 333 85/11 88/34;",
"02151099999","2010-01-19T03:00:00","4","66.4833333","20.1666666","275.0","JOKKMOKK FPL, SW","FM-12","99999","V020","160,1,N,0040,1","99999,9,9,N","017000,1,N,1","-0059,1","-0070,1","10274,1","71,1","7,1,03,1","04,1,+00390,1,99,9",,,,"99999,9,09919,1","8,1,006,1,+999,9","SYN082AAXX  19031 02151 47467 /1604 11059 21070 39919 40274 58006 77177 333 84/13 88/30;",
"02151099999","2010-01-19T06:00:00","4","66.4833333","20.1666666","275.0","JOKKMOKK FPL, SW","FM-12","99999","V020","160,1,N,0050,1","01350,1,C,N","009000,1,N,1","-0062,1","-0072,1","10271,1","71,1","7,1,06,1","08,1,+01350,1,99,9",,"120,M,-0052,1","999,N,-0063,1","99999,9,09916,1","7,1,003,1,+999,9","SYN088AAXX  19061 02151 47659 /1605 11062 21072 39916 40271 57003 77177 333 11052 21063 88/45;",
"02151099999","2010-01-19T09:00:00","4","66.4833333","20.1666666","275.0","JOKKMOKK FPL, SW","FM-12","99999","V020","150,1,N,0040,1","22000,1,C,N","004200,1,N,1","-0061,1","-0068,1","10272,1","71,1","7,1,03,1","02,1,+00390,1,99,9","03,1,+00450,1,99,9",,,"99999,9,09917,1","2,1,001,1,+999,9","SYN088AAXX  19091 02151 47442 /1504 11061 21068 39917 40272 52001 77177 333 82/13 83/15 85/23;",
"02151099999","2010-01-19T12:00:00","4","66.4833333","20.1666666","275.0","JOKKMOKK FPL, SW","FM-12","99999","V020","140,1,N,0030,1","00600,1,C,N","010000,1,N,1","-0058,1","-0064,1","10273,1","77,1","7,1,06,1","08,1,+00600,1,99,9",,,,"99999,9,09919,1","2,1,001,1,+999,9","SYN076AAXX  19121 02151 47560 /1403 11058 21064 39919 40273 52001 77777 333 88/20;",
"02151099999","2010-01-19T15:00:00","4","66.4833333","20.1666666","275.0","JOKKMOKK FPL, SW","FM-12","99999","V020","170,1,N,0020,1","00600,1,C,N","050000,1,N,1","-0044,1","-0062,1","10280,1","00,1","7,1,03,1","08,1,+00600,1,99,9",,,,"99999,9,09926,1","0,1,008,1,+999,9","SYN076AAXX  19151 02151 47584 /1702 11044 21062 39926 40280 50008 70072 333 88/20;",
"02151099999","2010-01-19T18:00:00","4","66.4833333","20.1666666","275.0","JOKKMOKK FPL, SW","FM-12","99999","V020","190,1,N,0020,1","99999,9,9,N","035000,1,N,1","-0071,1","-0078,1","10291,1","00,1","8,1,06,1",,,"120,M,-0042,1","999,N,-0075,1","99999,9,09934,1","2,1,008,1,+999,9","SYN082AAXX  19181 02151 47981 /1902 11071 21078 39934 40291 52008 70087 333 11042 21075;",
"02151099999","2010-01-19T21:00:00","4","66.4833333","20.1666666","275.0","JOKKMOKK FPL, SW","FM-12","99999","V020","180,1,N,0020,1","99999,9,9,N","035000,1,N,1","-0088,1","-0089,1","10302,1",,,,,,,"99999,9,09942,1","3,1,008,1,+999,9","SYN060AAXX  19211 02151 45981 /1802 11088 21089 39942 40302 53008;",
"02151099999","2010-01-20T00:00:00","4","66.4833333","20.1666666","275.0","JOKKMOKK FPL, SW","FM-12","99999","V020","999,9,C,0000,1","99999,9,9,N","050000,1,N,1","-0146,1","-0157,1","10319,1",,,,,,,"99999,9,09950,1","1,1,008,1,+999,9","SYN060AAXX  20001 02151 45984 /0000 11146 21157 39950 40319 51008;",
"02151099999","2010-01-20T03:00:00","4","66.4833333","20.1666666","275.0","JOKKMOKK FPL, SW","FM-12","99999","V020","999,9,C,0000,1","99999,9,9,N","050000,1,N,1","-0135,1","-0143,1","10327,1",,,,,,,"99999,9,09960,1","3,1,010,1,+999,9","SYN060AAXX  20031 02151 45984 /0000 11135 21143 39960 40327 53010;",
"02151099999","2010-01-20T06:00:00","4","66.4833333","20.1666666","275.0","JOKKMOKK FPL, SW","FM-12","99999","V020","999,9,C,0000,1","00450,1,C,N","005000,1,N,1","-0108,1","-0114,1","10333,1","85,1","8,1,06,1","09,1,+00450,1,99,9",,"120,M,-0060,1","999,N,-0155,1","99999,9,09970,1","1,1,010,1,+999,9","SYN088AAXX  20061 02151 47/50 /0000 11108 21114 39970 40333 51010 78587 333 11060 21155 89/15;",
"02151099999","2010-01-20T09:00:00","4","66.4833333","20.1666666","275.0","JOKKMOKK FPL, SW","FM-12","99999","V020","999,9,C,0000,1","99999,9,9,N","023000,1,N,1","-0092,1","-0096,1","10343,1","85,1","8,1,03,1","01,1,+00510,1,99,9","03,1,+00780,1,99,9",,,"99999,9,09982,1","3,1,012,1,+999,9","SYN088AAXX  20091 02151 47473 /0000 11092 21096 39982 40343 53012 78582 333 81/17 83/26 85/57;",
"02151099999","2010-01-20T12:00:00","4","66.4833333","20.1666666","275.0","JOKKMOKK FPL, SW","FM-12","99999","V020","999,9,C,0000,1","99999,9,9,N","026000,1,N,1","-0097,1","-0102,1","10357,1","00,1","8,1,06,1",,,,,"99999,9,09994,1","1,1,012,1,+999,9","SYN066AAXX  20121 02151 47/76 /0000 11097 21102 39994 40357 51012 70087;",
"02151099999","2010-01-20T15:00:00","4","66.4833333","20.1666666","275.0","JOKKMOKK FPL, SW","FM-12","99999","V020","999,9,9,9999,9","99999,9,9,N","999999,9,N,1","-0126,1","-0132,1","10377,1",,,,,,,"99999,9,10010,1","3,1,016,1,+999,9","SYN060AAXX  20151 02151 46/// ///// 11126 21132 30010 40377 53016;",
"02151099999","2010-01-20T18:00:00","4","66.4833333","20.1666666","275.0","JOKKMOKK FPL, SW","FM-12","99999","V020","150,1,N,0010,1","22000,1,C,N","050000,1,N,1","-0120,1","-0126,1","10386,1",,,"02,1,+00810,1,99,9","03,1,+01470,1,99,9","120,M,-0088,1","999,N,-0139,1","99999,9,10020,1","2,1,010,1,+999,9","SYN094AAXX  20181 02151 45584 /1501 11120 21126 30020 40386 52010 333 11088 21139 82/27 83/49 88/58;",
"02151099999","2010-01-20T21:00:00","4","66.4833333","20.1666666","275.0","JOKKMOKK FPL, SW","FM-12","99999","V020","350,1,N,0010,1","00240,1,C,N","045000,1,N,1","-0114,1","-0119,1","10397,1",,,"04,1,+00120,1,99,9","06,1,+00240,1,99,9",,,"99999,9,10030,1","2,1,011,1,+999,9","SYN082AAXX  20211 02151 45283 /3501 11114 21119 30030 40397 52011 333 84/04 86/08 87/14;",
"02151099999","2010-01-21T00:00:00","4","66.4833333","20.1666666","275.0","JOKKMOKK FPL, SW","FM-12","99999","V020","140,1,N,0010,1","00090,1,C,N","013000,1,N,1","-0093,1","-0097,1","10404,1","10,1","2,1,06,1","08,1,+00090,1,99,9",,,,"99999,9,10040,1","2,1,010,1,+999,9","SYN076AAXX  21001 02151 47163 /1401 11093 21097 30040 40404 52010 71010 333 88/03;",
"02151099999","2010-01-21T03:00:00","4","66.4833333","20.1666666","275.0","JOKKMOKK FPL, SW","FM-12","99999","V020","120,1,N,0010,1","00090,1,C,N","007000,1,N,1","-0085,1","-0088,1","10407,1","10,1","2,1,03,1","08,1,+00090,1,99,9",,,,"99999,9,10044,1","2,1,004,1,+999,9","SYN076AAXX  21031 02151 47257 /1201 11085 21088 30044 40407 52004 71010 333 88/03;",
"02151099999","2010-01-21T06:00:00","4","66.4833333","20.1666666","275.0","JOKKMOKK FPL, SW","FM-12","99999","V020","110,1,N,0010,1","00060,1,C,N","007000,1,N,1","-0080,1","-0083,1","10411,1","10,1","2,1,06,1","08,1,+00060,1,99,9",,"120,M,-0080,1","999,N,-0127,1","99999,9,10049,1","2,1,005,1,+999,9","SYN088AAXX  21061 02151 47157 /1101 11080 21083 30049 40411 52005 71010 333 11080 21127 88/02;",
"02151099999","2010-01-21T09:00:00","4","66.4833333","20.1666666","275.0","JOKKMOKK FPL, SW","FM-12","99999","V020","130,1,N,0010,1","00060,1,C,N","001400,1,N,1","-0077,1","-0080,1","10423,1","20,1","4,1,03,1","08,1,+00060,1,99,9",,,,"99999,9,10060,1","2,1,011,1,+999,9","SYN076AAXX  21091 02151 47114 /1301 11077 21080 30060 40423 52011 72032 333 88/02;",
"02151099999","2010-01-21T12:00:00","4","66.4833333","20.1666666","275.0","JOKKMOKK FPL, SW","FM-12","99999","V020","130,1,N,0020,1","00090,1,C,N","006000,1,N,1","-0072,1","-0074,1","10425,1","20,1","8,1,06,1","08,1,+00090,1,99,9",,,,"99999,9,10064,1","2,1,003,1,+999,9","SYN076AAXX  21121 02151 47256 /1302 11072 21074 30064 40425 52003 72087 333 88/03;",
"02151099999","2010-01-21T15:00:00","4","66.4833333","20.1666666","275.0","JOKKMOKK FPL, SW","FM-12","99999","V020","160,1,N,0010,1","00090,1,C,N","014000,1,N,1","-0091,1","-0095,1","10434,1",,,"08,1,+00090,1,99,9",,,,"99999,9,10070,1","2,1,006,1,+999,9","SYN070AAXX  21151 02151 45264 /1601 11091 21095 30070 40434 52006 333 88/03;",
"02151099999","2010-01-21T18:00:00","4","66.4833333","20.1666666","275.0","JOKKMOKK FPL, SW","FM-12","99999","V020","150,1,N,0010,1","99999,9,9,N","050000,1,N,1","-0136,1","-0145,1","10444,1","00,1","8,1,06,1",,,"120,M,-0070,1","999,N,-0135,1","99999,9,10072,1","2,1,003,1,+999,9","SYN082AAXX  21181 02151 47984 /1501 11136 21145 30072 40444 52003 70087 333 11070 21135;",
"02151099999","2010-01-21T21:00:00","4","66.4833333","20.1666666","275.0","JOKKMOKK FPL, SW","FM-12","99999","V020","999,9,C,0000,1","99999,9,9,N","023000,1,N,1","-0158,1","-0168,1","10451,1","85,1","8,1,03,1","04,1,+00090,1,99,9",,,,"99999,9,10077,1","2,1,004,1,+999,9","SYN082AAXX  21211 02151 47273 /0000 11158 21168 30077 40451 52004 78587 333 84/03 87/05;",
"02151099999","2010-01-22T00:00:00","4","66.4833333","20.1666666","275.0","JOKKMOKK FPL, SW","FM-12","99999","V020","320,1,N,0010,1","99999,9,9,N","050000,1,N,1","-0202,1","-0216,1","10462,1","00,1","8,1,06,1",,,,,"99999,9,10081,1","2,1,004,1,+999,9","SYN066AAXX  22001 02151 47984 /3201 11202 21216 30081 40462 52004 70087;",
"02151099999","2010-01-22T03:00:00","4","66.4833333","20.1666666","275.0","JOKKMOKK FPL, SW","FM-12","99999","V020","160,1,N,0010,1","99999,9,9,N","050000,1,N,1","-0210,1","-0227,1","10460,1",,,"01,1,+00510,1,99,9",,,,"99999,9,10078,1","8,1,003,1,+999,9","SYN070AAXX  22031 02151 45484 /1601 11210 21227 30078 40460 58003 333 81/17;",
"02151099999","2010-01-22T06:00:00","4","66.4833333","20.1666666","275.0","JOKKMOKK FPL, SW","FM-12","99999","V020","130,1,N,0010,1","00600,1,C,N","050000,1,N,1","-0163,1","-0174,1","10445,1","24,1","8,1,06,1","08,1,+00600,1,99,9",,"120,M,-0136,1","999,N,-0229,1","99999,9,10069,1","6,1,009,1,+999,9","SYN088AAXX  22061 02151 47584 /1301 11163 21174 30069 40445 56009 72487 333 11136 21229 88/20;",
"02151099999","2010-01-22T09:00:00","4","66.4833333","20.1666666","275.0","JOKKMOKK FPL, SW","FM-12","99999","V020","150,1,N,0010,1","99999,9,9,N","021000,1,N,1","-0139,1","-0148,1","10444,1","71,1","7,1,03,1","01,1,+00210,1,99,9",,,,"99999,9,10072,1","3,1,002,1,+999,9","SYN082AAXX  22091 02151 47371 /1501 11139 21148 30072 40444 53002 77172 333 81/07 88/10;",
"02151099999","2010-01-22T12:00:00","4","66.4833333","20.1666666","275.0","JOKKMOKK FPL, SW","FM-12","99999","V020","130,1,N,0010,1","99999,9,9,N","030000,1,N,1","-0143,1","-0153,1","10440,1","71,1","7,1,06,1","01,1,+00090,1,99,9",,,,"99999,9,10068,1","7,1,004,1,+999,9","SYN076AAXX  22121 02151 47280 /1301 11143 21153 30068 40440 57004 77172 333 81/03;",
"02151099999","2010-01-22T15:00:00","4","66.4833333","20.1666666","275.0","JOKKMOKK FPL, SW","FM-12","99999","V020","999,9,C,0000,1","99999,9,9,N","013000,1,N,1","-0161,1","-0172,1","10437,1","85,1","8,1,03,1",,,,,"99999,9,10062,1","7,1,006,1,+999,9","SYN066AAXX  22151 02151 47963 /0000 11161 21172 30062 40437 57006 78587;",
"02151099999","2010-01-22T18:00:00","4","66.4833333","20.1666666","275.0","JOKKMOKK FPL, SW","FM-12","99999","V020","140,1,N,0010,1","99999,9,9,N","027000,1,N,1","-0154,1","-0164,1","10431,1","71,1","8,1,06,1","02,1,+00420,1,99,9",,"120,M,-0135,1","999,N,-0166,1","99999,9,10058,1","7,1,004,1,+999,9","SYN094AAXX  22181 02151 47477 /1401 11154 21164 30058 40431 57004 77187 333 11135 21166 82/14 88/20;",
"02151099999","2010-01-22T21:00:00","4","66.4833333","20.1666666","275.0","JOKKMOKK FPL, SW","FM-12","99999","V020","130,1,N,0010,1","99999,9,9,N","035000,1,N,1","-0162,1","-0173,1","10430,1","71,1","8,1,03,1","04,1,+00390,1,99,9",,,,"99999,9,10056,1","5,1,003,1,+999,9","SYN082AAXX  22211 02151 47481 /1301 11162 21173 30056 40430 55003 77187 333 84/13 88/23;",
"02151099999","2010-01-23T00:00:00","4","66.4833333","20.1666666","275.0","JOKKMOKK FPL, SW","FM-12","99999","V020","140,1,N,0010,1","99999,9,9,N","018000,1,N,1","-0155,1","-0165,1","10424,1","71,1","8,1,06,1","01,1,+00600,1,99,9",,,,"99999,9,10051,1","7,1,005,1,+999,9","SYN082AAXX  23001 02151 47568 /1401 11155 21165 30051 40424 57005 77187 333 81/20 88/27;",
"02151099999","2010-01-23T03:00:00","4","66.4833333","20.1666666","275.0","JOKKMOKK FPL, SW","FM-12","99999","V020","140,1,N,0010,1","99999,9,9,N","015000,1,N,1","-0147,1","-0156,1","10416,1","85,1","8,1,03,1","01,1,+00690,1,99,9",,,,"99999,9,10045,1","7,1,007,1,+999,9","SYN082AAXX  23031 02151 47565 /1401 11147 21156 30045 40416 57007 78587 333 81/23 88/30;",
"02151099999","2010-01-23T06:00:00","4","66.4833333","20.1666666","275.0","JOKKMOKK FPL, SW","FM-12","99999","V020","160,1,N,0010,1","00690,1,C,N","014000,1,N,1","-0169,1","-0180,1","10407,1","71,1","8,1,06,1","09,1,+00690,1,99,9",,"120,M,-0141,1","999,N,-0172,1","99999,9,10033,1","8,1,011,1,+999,9","SYN088AAXX  23061 02151 47/64 /1601 11169 21180 30033 40407 58011 77187 333 11141 21172 89/23;",
"02151099999","2010-01-23T09:00:00","4","66.4833333","20.1666666","275.0","JOKKMOKK FPL, SW","FM-12","99999","V020","160,1,N,0010,1","00570,1,C,N","010000,1,N,1","-0161,1","-0173,1","10411,1","85,1","8,1,03,1","04,1,+00360,1,99,9","06,1,+00570,1,99,9",,,"99999,9,10037,1","2,1,005,1,+999,9","SYN088AAXX  23091 02151 47460 /1601 11161 21173 30037 40411 52005 78587 333 84/12 86/19 87/26;",
"02151099999","2010-01-23T12:00:00","4","66.4833333","20.1666666","275.0","JOKKMOKK FPL, SW","FM-12","99999","V020","160,1,N,0010,1","99999,9,9,N","020000,1,N,1","-0145,1","-0153,1","10407,1","85,1","8,1,06,1","01,1,+00180,1,99,9",,,,"99999,9,10036,1","8,1,001,1,+999,9","SYN076AAXX  23121 02151 47270 /1601 11145 21153 30036 40407 58001 78587 333 81/06;",
"02151099999","2010-01-23T15:00:00","4","66.4833333","20.1666666","275.0","JOKKMOKK FPL, SW","FM-12","99999","V020","120,1,N,0010,1","99999,9,9,N","004600,1,N,1","-0132,1","-0140,1","10394,1","71,1","8,1,03,1","01,1,+00090,1,99,9",,,,"99999,9,10025,1","7,1,011,1,+999,9","SYN082AAXX  23151 02151 47246 /1201 11132 21140 30025 40394 57011 77187 333 81/03 88/25;",
"02151099999","2010-01-23T18:00:00","4","66.4833333","20.1666666","275.0","JOKKMOKK FPL, SW","FM-12","99999","V020","140,1,N,0010,1","99999,9,9,N","008000,1,N,1","-0125,1","-0132,1","10384,1","71,1","8,1,06,1",,,"120,M,-0125,1","999,N,-0197,1","99999,9,10016,1","7,1,009,1,+999,9","SYN082AAXX  23181 02151 47/58 /1401 11125 21132 30016 40384 57009 77187 333 11125 21197;",
"02151099999","2010-01-23T21:00:00","4","66.4833333","20.1666666","275.0","JOKKMOKK FPL, SW","FM-12","99999","V020","160,1,N,0010,1","99999,9,9,N","009000,1,N,1","-0102,1","-0107,1","10368,1","71,1","7,1,03,1","02,1,+00360,1,99,9",,,,"99999,9,10004,1","8,1,012,1,+999,9","SYN082AAXX  23211 02151 47459 /1601 11102 21107 30004 40368 58012 77177 333 82/12 88/22;",
"02151099999","2010-01-24T00:00:00","4","66.4833333","20.1666666","275.0","JOKKMOKK FPL, SW","FM-12","99999","V020","170,1,N,0010,1","99999,9,9,N","045000,1,N,1","-0123,1","-0131,1","10360,1","00,1","8,1,06,1",,,,,"99999,9,09994,1","7,1,011,1,+999,9","SYN066AAXX  24001 02151 47983 /1701 11123 21131 39994 40360 57011 70087;",
"02151099999","2010-01-24T03:00:00","4","66.4833333","20.1666666","275.0","JOKKMOKK FPL, SW","FM-12","99999","V020","999,9,C,0000,1","99999,9,9,N","050000,1,N,1","-0187,1","-0200,1","10357,1",,,,,,,"99999,9,09982,1","7,1,012,1,+999,9","SYN060AAXX  24031 02151 45984 /0000 11187 21200 39982 40357 57012;",
"02151099999","2010-01-24T06:00:00","4","66.4833333","20.1666666","275.0","JOKKMOKK FPL, SW","FM-12","99999","V020","999,9,C,0000,1","99999,9,9,N","050000,1,N,1","-0225,1","-0242,1","10354,1",,,,,"120,M,-0094,1","999,N,-0225,1","99999,9,09974,1","7,1,008,1,+999,9","SYN076AAXX  24061 02151 45984 /0000 11225 21242 39974 40354 57008 333 11094 21225;",
"02151099999","2010-01-24T09:00:00","4","66.4833333","20.1666666","275.0","JOKKMOKK FPL, SW","FM-12","99999","V020","999,9,C,0000,1","99999,9,9,N","050000,1,N,1","-0190,1","-0204,1","10341,1",,,,,,,"99999,9,09965,1","7,1,008,1,+999,9","SYN060AAXX  24091 02151 45984 /0000 11190 21204 39965 40341 57008;",
"02151099999","2010-01-24T12:00:00","4","66.4833333","20.1666666","275.0","JOKKMOKK FPL, SW","FM-12","99999","V020","999,9,C,0000,1","00780,1,C,N","050000,1,N,1","-0166,1","-0178,1","10332,1",,,"08,1,+00780,1,99,9",,,,"99999,9,09961,1","7,1,005,1,+999,9","SYN070AAXX  24121 02151 45584 /0000 11166 21178 39961 40332 57005 333 88/26;",
"02151099999","2010-01-24T15:00:00","4","66.4833333","20.1666666","275.0","JOKKMOKK FPL, SW","FM-12","99999","V020","300,1,N,0010,1","00750,1,C,N","050000,1,N,1","-0163,1","-0174,1","10329,1","00,1","8,1,03,1","08,1,+00750,1,99,9",,,,"99999,9,09958,1","5,1,003,1,+999,9","SYN076AAXX  24151 02151 47584 /3001 11163 21174 39958 40329 55003 70087 333 88/25;",
"02151099999","2010-01-24T18:00:00","4","66.4833333","20.1666666","275.0","JOKKMOKK FPL, SW","FM-12","99999","V020","300,1,N,0010,1","00720,1,C,N","050000,1,N,1","-0157,1","-0168,1","10331,1","00,1","7,1,06,1","08,1,+00720,1,99,9",,"120,M,-0152,1","999,N,-0226,1","99999,9,09961,1","3,1,003,1,+999,9","SYN088AAXX  24181 02151 47584 /3001 11157 21168 39961 40331 53003 70072 333 11152 21226 88/24;",
"02151099999","2010-01-24T21:00:00","4","66.4833333","20.1666666","275.0","JOKKMOKK FPL, SW","FM-12","99999","V020","999,9,C,0000,1","00090,1,C,N","050000,1,N,1","-0143,1","-0153,1","10335,1","00,1","8,1,03,1","08,1,+00090,1,99,9",,,,"99999,9,09967,1","3,1,006,1,+999,9","SYN076AAXX  24211 02151 47284 /0000 11143 21153 39967 40335 53006 70087 333 88/03;",
"02151099999","2010-01-25T00:00:00","4","66.4833333","20.1666666","275.0","JOKKMOKK FPL, SW","FM-12","99999","V020","999,9,C,0000,1","00090,1,C,N","013000,1,N,1","-0133,1","-0142,1","10337,1","24,1","8,1,06,1","08,1,+00090,1,99,9",,,,"99999,9,09970,1","0,1,003,1,+999,9","SYN076AAXX  25001 02151 47263 /0000 11133 21142 39970 40337 50003 72487 333 88/03;",
"02151099999","2010-01-25T03:00:00","4","66.4833333","20.1666666","275.0","JOKKMOKK FPL, SW","FM-12","99999","V020","999,9,C,0000,1","00090,1,C,N","017000,1,N,1","-0128,1","-0136,1","10342,1","00,1","8,1,03,1","08,1,+00090,1,99,9",,,,"99999,9,09976,1","2,1,006,1,+999,9","SYN076AAXX  25031 02151 47167 /0000 11128 21136 39976 40342 52006 70087 333 88/03;",
"02151099999","2010-01-25T06:00:00","4","66.4833333","20.1666666","275.0","JOKKMOKK FPL, SW","FM-12","99999","V020","999,9,C,0000,1","00060,1,C,N","001300,1,N,1","-0119,1","-0126,1","10347,1","10,1","8,1,06,1","08,1,+00060,1,99,9",,"120,M,-0119,1","999,N,-0157,1","99999,9,09981,1","2,1,006,1,+999,9","SYN088AAXX  25061 02151 47113 /0000 11119 21126 39981 40347 52006 71087 333 11119 21157 88/02;",
"02151099999","2010-01-25T09:00:00","4","66.4833333","20.1666666","275.0","JOKKMOKK FPL, SW","FM-12","99999","V020","300,1,N,0010,1","00090,1,C,N","002500,1,N,1","-0112,1","-0118,1","10364,1","77,1","8,1,03,1","08,1,+00090,1,99,9",,,,"99999,9,09999,1","2,1,018,1,+999,9","SYN076AAXX  25091 02151 47125 /3001 11112 21118 39999 40364 52018 77787 333 88/03;",
"02151099999","2010-01-25T15:00:00","4","66.4833333","20.1666666","275.0","JOKKMOKK FPL, SW","FM-12","99999","V020","999,9,C,0000,1","00180,1,C,N","017000,1,N,1","-0099,1","-0104,1","10377,1","22,1","8,1,03,1","06,1,+00180,1,99,9",,,,"99999,9,10014,1","2,1,010,1,+999,9","SYN082AAXX  25151 02151 47267 /0000 11099 21104 30014 40377 52010 72287 333 86/06 88/10;",
"02151099999","2010-01-25T18:00:00","4","66.4833333","20.1666666","275.0","JOKKMOKK FPL, SW","FM-12","99999","V020","999,9,C,0000,1","00210,1,C,N","021000,1,N,1","-0105,1","-0111,1","10386,1","00,1","8,1,06,1","05,1,+00210,1,99,9",,"120,M,-0095,1","999,N,-0120,1","99999,9,10021,1","2,1,007,1,+999,9","SYN094AAXX  25181 02151 47371 /0000 11105 21111 30021 40386 52007 70087 333 11095 21120 85/07 88/24;",
"02151099999","2010-01-25T21:00:00","4","66.4833333","20.1666666","275.0","JOKKMOKK FPL, SW","FM-12","99999","V020","150,1,N,0010,1","00180,1,C,N","009000,1,N,1","-0095,1","-0099,1","10394,1",,,"02,1,+00150,1,99,9","06,1,+00180,1,99,9",,,"99999,9,10031,1","1,1,010,1,+999,9","SYN082AAXX  25211 02151 45259 /1501 11095 21099 30031 40394 51010 333 82/05 86/06 88/18;",
"02151099999","2010-01-26T00:00:00","4","66.4833333","20.1666666","275.0","JOKKMOKK FPL, SW","FM-12","99999","V020","999,9,C,0000,1","00450,1,C,N","020000,1,N,1","-0090,1","-0093,1","10396,1",,,"08,1,+00450,1,99,9",,,,"99999,9,10033,1","3,1,002,1,+999,9","SYN070AAXX  26001 02151 45470 /0000 11090 21093 30033 40396 53002 333 88/15;",
"02151099999","2010-01-26T03:00:00","4","66.4833333","20.1666666","275.0","JOKKMOKK FPL, SW","FM-12","99999","V020","150,1,N,0010,1","00300,1,C,N","023000,1,N,1","-0075,1","-0078,1","10384,1",,,"08,1,+00300,1,99,9",,,,"99999,9,10023,1","8,1,009,1,+999,9","SYN070AAXX  26031 02151 45473 /1501 11075 21078 30023 40384 58009 333 88/10;",
"02151099999","2010-01-26T06:00:00","4","66.4833333","20.1666666","275.0","JOKKMOKK FPL, SW","FM-12","99999","V020","220,1,N,0010,1","00270,1,C,N","050000,1,N,1","-0066,1","-0068,1","10377,1",,,"08,1,+00270,1,99,9",,"120,M,-0065,1","999,N,-0106,1","99999,9,10017,1","5,1,006,1,+999,9","SYN082AAXX  26061 02151 45384 /2201 11066 21068 30017 40377 55006 333 11065 21106 88/09;",
"02151099999","2010-01-26T09:00:00","4","66.4833333","20.1666666","275.0","JOKKMOKK FPL, SW","FM-12","99999","V020","170,1,N,0010,1","00270,1,C,N","050000,1,N,1","-0051,1","-0052,1","10360,1",,,"08,1,+00270,1,99,9",,,,"99999,9,10004,1","8,1,014,1,+999,9","SYN070AAXX  26091 02151 45384 /1701 11051 21052 30004 40360 58014 333 88/09;",
"02151099999","2010-01-26T12:00:00","4","66.4833333","20.1666666","275.0","JOKKMOKK FPL, SW","FM-12","99999","V020","190,1,N,0020,1","00240,1,C,N","050000,1,N,1","-0039,1","-0039,1","10327,1",,,"08,1,+00240,1,99,9",,,,"99999,9,09973,1","8,1,031,1,+999,9","SYN070AAXX  26121 02151 45384 /1902 11039 21039 39973 40327 58031 333 88/08;",
"02151099999","2010-01-26T18:00:00","4","66.4833333","20.1666666","275.0","JOKKMOKK FPL, SW","FM-12","99999","V020","180,1,N,0040,1","00390,1,C,N","045000,1,N,1","-0031,1","-0038,1","10246,1","00,1","7,1,06,1","08,1,+00390,1,99,9",,"120,M,-0030,1","999,N,-0078,1","99999,9,09896,1","8,1,045,1,+999,9","SYN088AAXX  26181 02151 47483 /1804 11031 21038 39896 40246 58045 70072 333 11030 21078 88/13;",
"02151099999","2010-01-26T21:00:00","4","66.4833333","20.1666666","275.0","JOKKMOKK FPL, SW","FM-12","99999","V020","190,1,N,0060,1","99999,9,9,N","023000,1,N,1","-0033,1","-0047,1","10193,1","77,1","7,1,03,1",,,,,"99999,9,09844,1","8,1,052,1,+999,9","SYN066AAXX  26211 02151 47973 /1906 11033 21047 39844 40193 58052 77774;",
"02151099999","2010-01-27T00:00:00","4","66.4833333","20.1666666","275.0","JOKKMOKK FPL, SW","FM-12","99999","V020","180,1,N,0050,1","00540,1,C,N","050000,1,N,1","-0028,1","-0045,1","99999,9","00,1","8,1,06,1","08,1,+00540,1,99,9",,,,,"8,1,064,1,+999,9","SYN076AAXX  27001 02151 47484 /1805 11028 21045 39781 40127 58064 70087 333 88/18;","Q01+097813APOSP "
"02151099999","2010-01-27T03:00:00","4","66.4833333","20.1666666","275.0","JOKKMOKK FPL, SW","FM-12","99999","V020","160,1,N,0040,1","99999,9,9,N","007000,1,N,1","-0038,1","-0045,1","10057,1","71,1","7,1,03,1","04,1,+00480,1,99,9",,,,"99999,9,09712,1","8,1,068,2,+999,9","SYN082AAXX  27031 02151 47457 /1604 11038 21045 39712 40057 58068 77174 333 84/16 88/20;","Q01+000682APC3  "
"02151099999","2010-01-27T06:00:00","4","66.4833333","20.1666666","275.0","JOKKMOKK FPL, SW","FM-12","99999","V020","160,1,N,0040,1","00510,1,C,N","006000,1,N,1","-0037,1","-0046,1","09988,1","77,1","7,1,06,1","08,1,+00510,1,99,9",,"120,M,-0026,1","999,N,-0040,1","99999,9,09646,1","8,1,067,1,+999,9","SYN088AAXX  27061 02151 47456 /1604 11037 21046 39646 49988 58067 77770 333 11026 21040 88/17;",
"02151099999","2010-01-27T09:00:00","4","66.4833333","20.1666666","275.0","JOKKMOKK FPL, SW","FM-12","99999","V020","160,1,N,0030,1","00480,1,C,N","005000,1,N,1","-0045,1","-0055,1","09942,1","71,1","7,1,03,1","06,1,+00480,1,99,9",,,,"99999,9,09600,1","6,1,045,1,+999,9","SYN082AAXX  27091 02151 47450 /1603 11045 21055 39600 49942 56045 77177 333 86/16 88/20;",
"02151099999","2010-01-27T12:00:00","4","66.4833333","20.1666666","275.0","JOKKMOKK FPL, SW","FM-12","99999","V020","160,1,N,0030,1","00630,1,C,N","002700,1,N,1","-0048,1","-0058,1","09911,1","71,1","7,1,06,1","09,1,+00630,1,99,9",,,,"99999,9,09570,1","6,1,030,1,+999,9","SYN076AAXX  27121 02151 47/27 /1603 11048 21058 39570 49911 56030 77177 333 89/21;",
"02151099999","2010-01-27T15:00:00","4","66.4833333","20.1666666","275.0","JOKKMOKK FPL, SW","FM-12","99999","V020","150,1,N,0040,1","00660,1,C,N","006000,1,N,1","-0055,1","-0059,1","09904,1","77,1","7,1,03,1","09,1,+00660,1,99,9",,,,"99999,9,09563,1","7,1,007,1,+999,9","SYN076AAXX  27151 02151 47/56 /1504 11055 21059 39563 49904 57007 77777 333 89/22;",
"02151099999","2010-01-27T18:00:00","4","66.4833333","20.1666666","275.0","JOKKMOKK FPL, SW","FM-12","99999","V020","160,1,N,0030,1","00360,1,C,N","001800,1,N,1","-0057,1","-0060,1","09913,1","71,1","7,1,06,1","09,1,+00360,1,99,9",,"120,M,-0036,1","999,N,-0057,1","99999,9,09571,1","2,1,008,1,+999,9","SYN088AAXX  27181 02151 47/18 /1603 11057 21060 39571 49913 52008 77177 333 11036 21057 89/12;",
"02151099999","2010-01-27T21:00:00","4","66.4833333","20.1666666","275.0","JOKKMOKK FPL, SW","FM-12","99999","V020","140,1,N,0030,1","00600,1,C,N","001700,1,N,1","-0059,1","-0062,1","09918,1","71,1","7,1,03,1","09,1,+00600,1,99,9",,,,"99999,9,09575,1","3,1,005,1,+999,9","SYN076AAXX  27211 02151 47/17 /1403 11059 21062 39575 49918 53005 77177 333 89/20;",
"02151099999","2010-01-28T00:00:00","4","66.4833333","20.1666666","275.0","JOKKMOKK FPL, SW","FM-12","99999","V020","140,1,N,0060,1","00810,1,C,N","001900,1,N,1","-0081,1","-0089,1","09932,1","71,1","7,1,06,1","09,1,+00810,1,99,9",,,,"99999,9,09586,1","2,1,011,1,+999,9","SYN076AAXX  28001 02151 47/19 /1406 11081 21089 39586 49932 52011 77177 333 89/27;",
"02151099999","2010-01-28T03:00:00","4","66.4833333","20.1666666","275.0","JOKKMOKK FPL, SW","FM-12","99999","V020","140,1,N,0070,1","00690,1,C,N","002200,1,N,1","-0105,1","-0117,1","09947,1","71,1","7,1,03,1","09,1,+00690,1,99,9",,,,"99999,9,09597,1","3,1,012,1,+999,9","SYN076AAXX  28031 02151 47/22 /1407 11105 21117 39597 49947 53012 77177 333 89/23;",
"02151099999","2010-01-28T06:00:00","4","66.4833333","20.1666666","275.0","JOKKMOKK FPL, SW","FM-12","99999","V020","130,1,N,0060,1","00060,1,C,N","001600,1,N,1","-0129,1","-0141,1","09971,1","71,1","7,1,06,1","08,1,+00060,1,99,9",,"120,M,-0057,1","999,N,-0128,1","99999,9,09618,1","2,1,019,1,+999,9","SYN088AAXX  28061 02151 47116 /1306 11129 21141 39618 49971 52019 77177 333 11057 21128 88/02;",
"02151099999","2010-01-28T09:00:00","4","66.4833333","20.1666666","275.0","JOKKMOKK FPL, SW","FM-12","99999","V020","130,1,N,0070,1","00180,1,C,N","003000,1,N,1","-0161,1","-0179,1","09997,1","71,1","7,1,03,1","03,1,+00090,1,99,9","06,1,+00180,1,99,9",,,"99999,9,09638,1","3,1,020,1,+999,9","SYN088AAXX  28091 02151 47230 /1307 11161 21179 39638 49997 53020 77177 333 83/03 86/06 87/09;",
"02151099999","2010-01-28T12:00:00","4","66.4833333","20.1666666","275.0","JOKKMOKK FPL, SW","FM-12","99999","V020","120,1,N,0050,1","00390,1,C,N","009000,1,N,1","-0197,1","-0215,1","10013,1","78,1","7,1,06,1","04,1,+00240,1,99,9","06,1,+00390,1,99,9",,,"99999,9,09649,1","2,1,011,1,+999,9","SYN088AAXX  28121 02151 47359 /1205 11197 21215 39649 40013 52011 77877 333 84/08 86/13 87/26;",
"02151099999","2010-01-28T15:00:00","4","66.4833333","20.1666666","275.0","JOKKMOKK FPL, SW","FM-12","99999","V020","110,1,N,0040,1","00660,1,C,N","015000,1,N,1","-0231,1","-0250,1","10025,1","78,1","8,1,03,1","05,1,+00660,1,99,9",,,,"99999,9,09655,1","2,1,007,1,+999,9","SYN076AAXX  28151 02151 47565 /1104 11231 21250 39655 40025 52007 77887 333 85/22;",
"02151099999","2010-01-28T18:00:00","4","66.4833333","20.1666666","275.0","JOKKMOKK FPL, SW","FM-12","99999","V020","999,9,C,0000,1","99999,9,9,N","003900,1,N,1","-0256,1","-0276,1","10031,1","71,1","8,1,06,1","01,1,+00450,1,99,9",,"120,M,-0129,1","999,N,-0258,1","99999,9,09657,1","2,1,002,1,+999,9","SYN094AAXX  28181 02151 47439 /0000 11256 21276 39657 40031 52002 77187 333 11129 21258 81/15 88/25;",
"02151099999","2010-01-28T21:00:00","4","66.4833333","20.1666666","275.0","JOKKMOKK FPL, SW","FM-12","99999","V020","999,9,C,0000,1","00270,1,C,N","003200,1,N,1","-0275,1","-0297,1","10030,1","71,1","7,1,03,1","09,1,+00270,1,99,9",,,,"99999,9,09654,1","7,1,003,1,+999,9","SYN076AAXX  28211 02151 47/32 /0000 11275 21297 39654 40030 57003 77177 333 89/09;",
"02151099999","2010-01-29T00:00:00","4","66.4833333","20.1666666","275.0","JOKKMOKK FPL, SW","FM-12","99999","V020","999,9,C,0000,1","00090,1,C,N","002500,1,N,1","-0294,1","-0318,1","10028,1","71,1","7,1,06,1","05,1,+00090,1,99,9",,,,"99999,9,09649,1","8,1,004,1,+999,9","SYN082AAXX  29001 02151 47225 /0000 11294 21318 39649 40028 58004 77177 333 85/03 88/33;",
"02151099999","2010-01-29T03:00:00","4","66.4833333","20.1666666","275.0","JOKKMOKK FPL, SW","FM-12","99999","V020","999,9,C,0000,1","01470,1,C,N","025000,1,N,1","-0280,1","-0303,1","10016,1","77,1","7,1,03,1","08,1,+01470,1,99,9",,,,"99999,9,09640,1","7,1,009,1,+999,9","SYN076AAXX  29031 02151 47675 /0000 11280 21303 39640 40016 57009 77777 333 88/49;",
"02151099999","2010-01-29T06:00:00","4","66.4833333","20.1666666","275.0","JOKKMOKK FPL, SW","FM-12","99999","V020","999,9,C,0000,1","00630,1,C,N","007000,1,N,1","-0307,1","-0333,1","10017,1","71,1","8,1,06,1","09,1,+00630,1,99,9",,"120,M,-0255,1","999,N,-0318,1","99999,9,09636,1","7,1,004,1,+999,9","SYN088AAXX  29061 02151 47/57 /0000 11307 21333 39636 40017 57004 77187 333 11255 21318 89/21;",
"02151099999","2010-01-29T09:00:00","4","66.4833333","20.1666666","275.0","JOKKMOKK FPL, SW","FM-12","99999","V020","310,1,N,0010,1","99999,9,9,N","005000,1,N,1","-0275,1","-0297,1","10016,1","71,1","7,1,03,1","03,1,+00240,1,99,9",,,,"99999,9,09641,1","2,1,005,1,+999,9","SYN082AAXX  29091 02151 47350 /3101 11275 21297 39641 40016 52005 77177 333 83/08 85/31;",
"02151099999","2010-01-29T12:00:00","4","66.4833333","20.1666666","275.0","JOKKMOKK FPL, SW","FM-12","99999","V020","270,1,N,0010,1","00270,1,C,N","002200,1,N,1","-0268,1","-0290,1","10013,1","71,1","7,1,06,1","03,1,+00060,1,99,9","06,1,+00270,1,99,9",,,"99999,9,09639,1","8,1,002,1,+999,9","SYN088AAXX  29121 02151 47122 /2701 11268 21290 39639 40013 58002 77177 333 83/02 86/09 87/18;",
"02151099999","2010-01-29T15:00:00","4","66.4833333","20.1666666","275.0","JOKKMOKK FPL, SW","FM-12","99999","V020","290,1,N,0010,1","99999,9,9,N","002700,1,N,1","-0276,1","-0298,1","10018,1","71,1","8,1,03,1","01,1,+00120,1,99,9","03,1,+00210,1,99,9",,,"99999,9,09643,1","3,1,004,1,+999,9","SYN088AAXX  29151 02151 47227 /2901 11276 21298 39643 40018 53004 77187 333 81/04 83/07 87/16;",
"02151099999","2010-01-29T18:00:00","4","66.4833333","20.1666666","275.0","JOKKMOKK FPL, SW","FM-12","99999","V020","999,9,C,0000,1","00090,1,C,N","007000,1,N,1","-0267,1","-0289,1","10024,1","71,1","8,1,06,1","06,1,+00090,1,99,9","07,1,+00180,1,99,9","120,M,-0263,1","999,N,-0307,1","99999,9,09650,1","2,1,007,1,+999,9","SYN100AAXX  29181 02151 47257 /0000 11267 21289 39650 40024 52007 77187 333 11263 21307 86/03 87/06 88/11;",
"02151099999","2010-01-29T21:00:00","4","66.4833333","20.1666666","275.0","JOKKMOKK FPL, SW","FM-12","99999","V020","310,1,N,0020,1","99999,9,9,N","008000,1,N,1","-0261,1","-0283,1","10032,1","71,1","7,1,03,1","01,1,+00060,1,99,9",,,,"99999,9,09658,1","2,1,008,1,+999,9","SYN082AAXX  29211 02151 47158 /3102 11261 21283 39658 40032 52008 77177 333 81/02 88/23;",
"02151099999","2010-01-30T00:00:00","4","66.4833333","20.1666666","275.0","JOKKMOKK FPL, SW","FM-12","99999","V020","330,1,N,0020,1","00660,1,C,N","003800,1,N,1","-0248,1","-0268,1","10031,1","71,1","8,1,06,1","09,1,+00660,1,99,9",,,,"99999,9,09659,1","4,1,000,1,+999,9","SYN076AAXX  30001 02151 47/38 /3302 11248 21268 39659 40031 54001 77187 333 89/22;",
"02151099999","2010-01-30T03:00:00","4","66.4833333","20.1666666","275.0","JOKKMOKK FPL, SW","FM-12","99999","V020","999,9,C,0000,1","01410,1,C,N","006000,1,N,1","-0245,1","-0266,1","10028,1","71,1","7,1,03,1","09,1,+01410,1,99,9",,,,"99999,9,09656,1","7,1,003,1,+999,9","SYN076AAXX  30031 02151 47/56 /0000 11245 21266 39656 40028 57003 77177 333 89/47;",
"02151099999","2010-01-30T06:00:00","4","66.4833333","20.1666666","275.0","JOKKMOKK FPL, SW","FM-12","99999","V020","999,9,C,0000,1","00780,1,C,N","003200,1,N,1","-0242,1","-0262,1","10030,1","71,1","7,1,06,1","09,1,+00780,1,99,9",,"120,M,-0237,1","999,N,-0282,1","99999,9,09659,1","2,1,003,1,+999,9","SYN088AAXX  30061 02151 47/32 /0000 11242 21262 39659 40030 52003 77177 333 11237 21282 89/26;",
"02151099999","2010-01-30T09:00:00","4","66.4833333","20.1666666","275.0","JOKKMOKK FPL, SW","FM-12","99999","V020","999,9,C,0000,1","22000,1,C,N","005000,1,N,1","-0254,1","-0275,1","10039,1","71,1","7,1,03,1","01,1,+00090,1,99,9","04,1,+00240,1,99,9",,,"99999,9,09665,1","2,1,006,1,+999,9","SYN088AAXX  30091 02151 47250 /0000 11254 21275 39665 40039 52006 77177 333 81/03 84/08 86/11;",
"02151099999","2010-01-30T12:00:00","4","66.4833333","20.1666666","275.0","JOKKMOKK FPL, SW","FM-12","99999","V020","310,1,N,0010,1","00090,1,C,N","001900,1,N,1","-0229,1","-0249,1","10036,1","71,1","7,1,06,1","08,1,+00090,1,99,9",,,,"99999,9,09666,1","4,1,000,1,+999,9","SYN076AAXX  30121 02151 47119 /3101 11229 21249 39666 40036 54001 77177 333 88/03;",
"02151099999","2010-01-30T15:00:00","4","66.4833333","20.1666666","275.0","JOKKMOKK FPL, SW","FM-12","99999","V020","310,1,N,0010,1","00090,1,C,N","003700,1,N,1","-0217,1","-0235,1","10040,1","71,1","7,1,03,1","08,1,+00090,1,99,9",,,,"99999,9,09671,1","3,1,005,1,+999,9","SYN076AAXX  30151 02151 47137 /3101 11217 21235 39671 40040 53005 77177 333 88/03;",
"02151099999","2010-01-30T18:00:00","4","66.4833333","20.1666666","275.0","JOKKMOKK FPL, SW","FM-12","99999","V020","320,1,N,0010,1","00060,1,C,N","001200,1,N,1","-0212,1","-0229,1","10045,1","71,1","7,1,06,1","08,1,+00060,1,99,9",,"120,M,-0208,1","999,N,-0255,1","99999,9,09677,1","2,1,006,1,+999,9","SYN088AAXX  30181 02151 47112 /3201 11212 21229 39677 40045 52006 77177 333 11208 21255 88/02;",
"02151099999","2010-01-30T21:00:00","4","66.4833333","20.1666666","275.0","JOKKMOKK FPL, SW","FM-12","99999","V020","320,1,N,0010,1","00060,1,C,N","003000,1,N,1","-0210,1","-0228,1","10053,1","71,1","7,1,03,1","07,1,+00060,1,99,9",,,,"99999,9,09685,1","2,1,008,1,+999,9","SYN082AAXX  30211 02151 47130 /3201 11210 21228 39685 40053 52008 77177 333 87/02 88/05;",
"02151099999","2010-01-31T00:00:00","4","66.4833333","20.1666666","275.0","JOKKMOKK FPL, SW","FM-12","99999","V020","270,1,N,0010,1","00420,1,C,N","002500,1,N,1","-0204,1","-0220,1","10055,1","71,1","7,1,06,1","03,1,+00150,1,99,9","05,1,+00420,1,99,9",,,"99999,9,09688,1","2,1,003,1,+999,9","SYN088AAXX  31001 02151 47225 /2701 11204 21220 39688 40055 52003 77177 333 83/05 85/14 87/19;",
"02151099999","2010-01-31T03:00:00","4","66.4833333","20.1666666","275.0","JOKKMOKK FPL, SW","FM-12","99999","V020","310,1,N,0010,1","99999,9,9,N","005000,1,N,1","-0222,1","-0239,1","10064,1","71,1","7,1,03,1","03,1,+00060,1,99,9",,,,"99999,9,09695,1","3,1,006,1,+999,9","SYN082AAXX  31031 02151 47150 /3101 11222 21239 39695 40064 53006 77177 333 83/02 88/58;",
"02151099999","2010-01-31T06:00:00","4","66.4833333","20.1666666","275.0","JOKKMOKK FPL, SW","FM-12","99999","V020","290,1,N,0010,1","00060,1,C,N","001000,1,N,1","-0205,1","-0220,1","10068,1","72,1","7,1,06,1","08,1,+00060,1,99,9",,"120,M,-0201,1","999,N,-0247,1","99999,9,09701,1","3,1,006,1,+999,9","SYN088AAXX  31061 02151 47110 /2901 11205 21220 39701 40068 53006 77277 333 11201 21247 88/02;",
"02151099999","2010-01-31T09:00:00","4","66.4833333","20.1666666","275.0","JOKKMOKK FPL, SW","FM-12","99999","V020","310,1,N,0020,1","99999,9,9,N","004600,1,N,1","-0200,1","-0216,1","10070,1","71,1","7,1,03,1","01,1,+00090,1,99,9",,,,"99999,9,09704,1","3,1,003,1,+999,9","SYN082AAXX  31091 02151 47146 /3102 11200 21216 39704 40070 53003 77177 333 81/03 88/11;",
"02151099999","2010-01-31T12:00:00","4","66.4833333","20.1666666","275.0","JOKKMOKK FPL, SW","FM-12","99999","V020","340,1,N,0040,1","00060,1,C,N","001200,1,N,1","-0185,1","-0202,1","10055,1","71,1","7,1,06,1","08,1,+00060,1,99,9",,,,"99999,9,09691,1","8,1,013,1,+999,9","SYN076AAXX  31121 02151 47112 /3404 11185 21202 39691 40055 58013 77177 333 88/02;",
"02151099999","2010-01-31T15:00:00","4","66.4833333","20.1666666","275.0","JOKKMOKK FPL, SW","FM-12","99999","V020","320,1,N,0030,1","00660,1,C,N","001800,1,N,1","-0180,1","-0196,1","10044,1","71,1","7,1,03,1","09,1,+00660,1,99,9",,,,"99999,9,09681,1","6,1,009,1,+999,9","SYN076AAXX  31151 02151 47/18 /3203 11180 21196 39681 40044 56009 77177 333 89/22;",
"02151099999","2010-01-31T18:00:00","4","66.4833333","20.1666666","275.0","JOKKMOKK FPL, SW","FM-12","99999","V020","300,1,N,0020,1","00270,1,C,N","004700,1,N,1","-0177,1","-0191,1","10043,1","71,1","7,1,06,1","03,1,+00090,1,99,9","06,1,+00270,1,99,9","120,M,-0177,1","999,N,-0205,1","99999,9,09681,1","4,1,000,1,+999,9","SYN100AAXX  31181 02151 47247 /3002 11177 21191 39681 40043 54001 77177 333 11177 21205 83/03 86/09 87/15;",
"02151099999","2010-01-31T21:00:00","4","66.4833333","20.1666666","275.0","JOKKMOKK FPL, SW","FM-12","99999","V020","999,9,C,0000,1","00060,1,C,N","001800,1,N,1","-0196,1","-0211,1","10054,1","71,1","7,1,03,1","08,1,+00060,1,99,9",,,,"99999,9,09689,1","2,1,008,1,+999,9","SYN076AAXX  31211 02151 47118 /0000 11196 21211 39689 40054 52008 77177 333 88/02;",
"02151099999","2010-02-01T00:00:00","4","66.4833333","20.1666666","275.0","JOKKMOKK FPL, SW","FM-12","99999","V020","340,1,N,0010,1","00090,1,C,N","003900,1,N,1","-0188,1","-0201,1","10058,1","71,1","7,1,06,1","05,1,+00090,1,99,9","07,1,+00210,1,99,9",,,"99999,9,09693,1","2,1,005,1,+999,9","SYN088AAXX  01001 02151 47239 /3401 11188 21201 39693 40058 52005 77177 333 85/03 87/07 88/47;",
"02151099999","2010-02-01T03:00:00","4","66.4833333","20.1666666","275.0","JOKKMOKK FPL, SW","FM-12","99999","V020","320,1,N,0020,1","01200,1,C,N","003900,1,N,1","-0184,1","-0199,1","10066,1","71,1","7,1,03,1","09,1,+01200,1,99,9",,,,"99999,9,09701,1","2,1,008,1,+999,9","SYN076AAXX  01031 02151 47/39 /3202 11184 21199 39701 40066 52008 77177 333 89/40;",
"02151099999","2010-02-01T06:00:00","4","66.4833333","20.1666666","275.0","JOKKMOKK FPL, SW","FM-12","99999","V020","320,1,N,0010,1","00870,1,C,N","003700,1,N,1","-0189,1","-0203,1","10076,1","71,1","7,1,06,1","09,1,+00870,1,99,9",,"120,M,-0174,1","999,N,-0199,1","99999,9,09711,1","3,1,009,1,+999,9","SYN088AAXX  01061 02151 47/37 /3201 11189 21203 39711 40076 53009 77177 333 11174 21199 89/29;",
"02151099999","2010-02-01T09:00:00","4","66.4833333","20.1666666","275.0","JOKKMOKK FPL, SW","FM-12","99999","V020","999,9,C,0000,1","99999,9,9,N","035000,1,N,1","-0227,1","-0245,1","10104,1","24,1","8,1,03,1",,,,,"99999,9,09732,1","3,1,022,1,+999,9","SYN066AAXX  01091 02151 47981 /0000 11227 21245 39732 40104 53022 72487;",
"02151099999","2010-02-01T12:00:00","4","66.4833333","20.1666666","275.0","JOKKMOKK FPL, SW","FM-12","99999","V020","999,9,C,0000,1","99999,9,9,N","002100,1,N,1","-0229,1","-0248,1","10122,1","85,1","8,1,06,1",,,,,"99999,9,09749,1","2,1,016,1,+999,9","SYN066AAXX  01121 02151 47921 /0000 11229 21248 39749 40122 52016 78587;",
"02151099999","2010-02-01T15:00:00","4","66.4833333","20.1666666","275.0","JOKKMOKK FPL, SW","FM-12","99999","V020","160,1,N,0010,1","99999,9,9,N","023000,1,N,1","-0251,1","-0274,1","10146,1","85,1","8,1,03,1",,,,,"99999,9,09769,1","3,1,020,1,+999,9","SYN066AAXX  01151 02151 47973 /1601 11251 21274 39769 40146 53020 78582;",
"02151099999","2010-02-01T18:00:00","4","66.4833333","20.1666666","275.0","JOKKMOKK FPL, SW","FM-12","99999","V020","999,9,C,0000,1","99999,9,9,N","050000,1,N,1","-0261,1","-0282,1","10161,1","00,1","8,1,06,1","03,1,+00750,1,99,9",,"120,M,-0185,1","999,N,-0281,1","99999,9,09782,1","2,1,013,1,+999,9","SYN094AAXX  01181 02151 47584 /0000 11261 21282 39782 40161 52013 70082 333 11185 21281 83/25 86/42;",
"02151099999","2010-02-01T21:00:00","4","66.4833333","20.1666666","275.0","JOKKMOKK FPL, SW","FM-12","99999","V020","999,9,C,0000,1","00540,1,C,N","003500,1,N,1","-0244,1","-0264,1","10162,1","71,1","7,1,03,1","04,1,+00120,1,99,9","05,1,+00540,1,99,9",,,"99999,9,09786,1","1,1,003,1,+999,9","SYN088AAXX  01211 02151 47235 /0000 11244 21264 39786 40162 51003 77170 333 84/04 85/18 87/41;",
"02151099999","2010-02-02T00:00:00","4","66.4833333","20.1666666","275.0","JOKKMOKK FPL, SW","FM-12","99999","V020","999,9,C,0000,1","00720,1,C,N","009000,1,N,1","-0232,1","-0251,1","10159,1","71,1","8,1,06,1","04,1,+00540,1,99,9","07,1,+00720,1,99,9",,,"99999,9,09784,1","8,1,002,1,+999,9","SYN088AAXX  02001 02151 47459 /0000 11232 21251 39784 40159 58002 77187 333 84/18 87/24 88/34;",
"02151099999","2010-02-02T03:00:00","4","66.4833333","20.1666666","275.0","JOKKMOKK FPL, SW","FM-12","99999","V020","320,1,N,0020,1","99999,9,9,N","045000,1,N,1","-0210,1","-0225,1","10146,1","00,1","7,1,03,1",,,,,"99999,9,09775,1","8,1,010,1,+999,9","SYN066AAXX  02031 02151 47983 /3202 11210 21225 39775 40146 58010 70072;",
"02151099999","2010-02-02T06:00:00","4","66.4833333","20.1666666","275.0","JOKKMOKK FPL, SW","FM-12","99999","V020","320,1,N,0030,1","99999,9,9,N","045000,1,N,1","-0195,1","-0210,1","10118,1","00,1","7,1,06,1","03,1,+04200,1,99,9",,"120,M,-0194,1","999,N,-0270,1","99999,9,09750,1","7,1,025,1,+999,9","SYN088AAXX  02061 02151 47983 /3203 11195 21210 39750 40118 57025 70072 333 11194 21270 83/64;",
"02151099999","2010-02-02T09:00:00","4","66.4833333","20.1666666","275.0","JOKKMOKK FPL, SW","FM-12","99999","V020","300,1,N,0050,1","00960,1,C,N","007000,1,N,1","-0165,1","-0178,1","10069,1","77,1","7,1,03,1","09,1,+00960,1,99,9",,,,"99999,9,09708,1","8,1,042,1,+999,9","SYN076AAXX  02091 02151 47/57 /3005 11165 21178 39708 40069 58042 77771 333 89/32;",
"02151099999","2010-02-02T12:00:00","4","66.4833333","20.1666666","275.0","JOKKMOKK FPL, SW","FM-12","99999","V020","030,1,N,0030,1","00330,1,C,N","001300,1,N,1","-0128,1","-0138,1","10039,1","71,1","7,1,06,1","09,1,+00330,1,99,9",,,,"99999,9,09683,1","8,1,025,1,+999,9","SYN076AAXX  02121 02151 47/13 /0303 11128 21138 39683 40039 58025 77170 333 89/11;",
"02151099999","2010-02-02T15:00:00","4","66.4833333","20.1666666","275.0","JOKKMOKK FPL, SW","FM-12","99999","V020","030,1,N,0030,1","00360,1,C,N","003200,1,N,1","-0127,1","-0136,1","10030,1","71,1","7,1,03,1","02,1,+00150,1,99,9","04,1,+00360,1,99,9",,,"99999,9,09674,1","6,1,009,1,+999,9","SYN088AAXX  02151 02151 47232 /0303 11127 21136 39674 40030 56009 77177 333 82/05 84/12 86/22;",
"02151099999","2010-02-02T18:00:00","4","66.4833333","20.1666666","275.0","JOKKMOKK FPL, SW","FM-12","99999","V020","320,1,N,0030,1","00570,1,C,N","001300,1,N,1","-0119,1","-0126,1","10027,1","72,1","7,1,06,1","09,1,+00570,1,99,9",,"120,M,-0119,1","999,N,-0195,1","99999,9,09673,1","4,1,000,1,+999,9","SYN088AAXX  02181 02151 47/13 /3203 11119 21126 39673 40027 54001 77277 333 11119 21195 89/19;",
"02151099999","2010-02-02T21:00:00","4","66.4833333","20.1666666","275.0","JOKKMOKK FPL, SW","FM-12","99999","V020","300,1,N,0020,1","99999,9,9,N","001900,1,N,1","-0115,1","-0122,1","10037,1","71,1","7,1,03,1","04,1,+00060,1,99,9",,,,"99999,9,09683,1","2,1,010,1,+999,9","SYN082AAXX  02211 02151 47119 /3002 11115 21122 39683 40037 52010 77177 333 84/02 88/15;",
"02151099999","2010-02-03T00:00:00","4","66.4833333","20.1666666","275.0","JOKKMOKK FPL, SW","FM-12","99999","V020","120,1,N,0040,1","01080,1,C,N","003100,1,N,1","-0082,1","-0087,1","10045,1","71,1","7,1,06,1","09,1,+01080,1,99,9",,,,"99999,9,09695,1","2,1,012,1,+999,9","SYN076AAXX  03001 02151 47/31 /1204 11082 21087 39695 40045 52012 77177 333 89/36;",
"02151099999","2010-02-03T03:00:00","4","66.4833333","20.1666666","275.0","JOKKMOKK FPL, SW","FM-12","99999","V020","130,1,N,0060,1","00540,1,C,N","002300,1,N,1","-0103,1","-0111,1","10076,1","71,1","7,1,03,1","09,1,+00540,1,99,9",,,,"99999,9,09722,1","3,1,027,1,+999,9","SYN076AAXX  03031 02151 47/23 /1306 11103 21111 39722 40076 53027 77177 333 89/18;",
"02151099999","2010-02-03T06:00:00","4","66.4833333","20.1666666","275.0","JOKKMOKK FPL, SW","FM-12","99999","V020","140,1,N,0020,1","00090,1,C,N","004700,1,N,1","-0146,1","-0154,1","10114,1","71,1","7,1,06,1","08,1,+00090,1,99,9",,"120,M,-0081,1","999,N,-0150,1","99999,9,09754,1","3,1,032,1,+999,9","SYN088AAXX  03061 02151 47247 /1402 11146 21154 39754 40114 53032 77177 333 11081 21150 88/03;",
"02151099999","2010-02-03T09:00:00","4","66.4833333","20.1666666","275.0","JOKKMOKK FPL, SW","FM-12","99999","V020","110,1,N,0010,1","99999,9,9,N","000200,1,N,1","-0182,1","-0195,1","10149,1","71,1","7,1,03,1","03,1,+00090,1,99,9",,,,"99999,9,09782,1","1,1,028,1,+999,9","SYN082AAXX  03091 02151 47102 /1101 11182 21195 39782 40149 51028 77177 333 83/03 86/05;",
"02151099999","2010-02-03T12:00:00","4","66.4833333","20.1666666","275.0","JOKKMOKK FPL, SW","FM-12","99999","V020","999,9,C,0000,1","99999,9,9,N","007000,1,N,1","-0167,1","-0181,1","10165,1","71,1","8,1,06,1","03,1,+00090,1,99,9",,,,"99999,9,09800,1","2,1,018,1,+999,9","SYN076AAXX  03121 02151 47157 /0000 11167 21181 39800 40165 52018 77187 333 83/03;",
"02151099999","2010-02-03T15:00:00","4","66.4833333","20.1666666","275.0","JOKKMOKK FPL, SW","FM-12","99999","V020","999,9,C,0000,1","99999,9,9,N","012000,1,N,1","-0234,1","-0253,1","10184,1","85,1","8,1,03,1",,,,,"99999,9,09808,1","3,1,008,1,+999,9","SYN066AAXX  03151 02151 47962 /0000 11234 21253 39808 40184 53008 78587;",
"02151099999","2010-02-03T18:00:00","4","66.4833333","20.1666666","275.0","JOKKMOKK FPL, SW","FM-12","99999","V020","999,9,C,0000,1","00060,1,C,N","013000,1,N,1","-0229,1","-0245,1","10201,1","85,1","8,1,06,1","08,1,+00060,1,99,9",,"120,M,-0146,1","999,N,-0264,1","99999,9,09825,1","3,1,018,1,+999,9","SYN088AAXX  03181 02151 47163 /0000 11229 21245 39825 40201 53018 78587 333 11146 21264 88/02;",
"02151099999","2010-02-03T21:00:00","4","66.4833333","20.1666666","275.0","JOKKMOKK FPL, SW","FM-12","99999","V020","999,9,C,0000,1","00180,1,C,N","004800,1,N,1","-0253,1","-0273,1","10229,1","71,1","8,1,03,1","01,1,+00090,1,99,9","05,1,+00180,1,99,9",,,"99999,9,09849,1","3,1,023,1,+999,9","SYN088AAXX  03211 02151 47148 /0000 11253 21273 39849 40229 53023 77187 333 81/03 85/06 87/17;",
"02151099999","2010-02-04T00:00:00","4","66.4833333","20.1666666","275.0","JOKKMOKK FPL, SW","FM-12","99999","V020","140,1,N,0010,1","99999,9,9,N","014000,1,N,1","-0254,1","-0278,1","10260,1","85,1","8,1,06,1","02,1,+00420,1,99,9",,,,"99999,9,09879,1","3,1,030,1,+999,9","SYN082AAXX  04001 02151 47464 /1401 11254 21278 39879 40260 53030 78587 333 82/14 88/24;",
"02151099999","2010-02-04T03:00:00","4","66.4833333","20.1666666","275.0","JOKKMOKK FPL, SW","FM-12","99999","V020","999,9,C,0000,1","00480,1,C,N","007000,1,N,1","-0191,1","-0205,1","10277,1","71,1","8,1,03,1","03,1,+00210,1,99,9","05,1,+00480,1,99,9",,,"99999,9,09904,1","3,1,026,1,+999,9","SYN088AAXX  04031 02151 47357 /0000 11191 21205 39904 40277 53026 77187 333 83/07 85/16 88/20;",
"02151099999","2010-02-04T06:00:00","4","66.4833333","20.1666666","275.0","JOKKMOKK FPL, SW","FM-12","99999","V020","130,1,N,0010,1","00180,1,C,N","003800,1,N,1","-0164,1","-0175,1","10301,1","71,1","8,1,06,1","02,1,+00090,1,99,9","04,1,+00180,1,99,9","120,M,-0164,1","999,N,-0273,1","99999,9,09931,1","2,1,027,1,+999,9","SYN100AAXX  04061 02151 47238 /1301 11164 21175 39931 40301 52027 77187 333 11164 21273 82/03 84/06 85/08;",
"02151099999","2010-02-04T09:00:00","4","66.4833333","20.1666666","275.0","JOKKMOKK FPL, SW","FM-12","99999","V020","999,9,C,0000,1","00090,1,C,N","001700,1,N,1","-0160,1","-0171,1","10315,1","71,1","7,1,03,1","06,1,+00090,1,99,9","07,1,+00150,1,99,9",,,"99999,9,09945,1","3,1,014,1,+999,9","SYN088AAXX  04091 02151 47117 /0000 11160 21171 39945 40315 53014 77177 333 86/03 87/05 88/17;",
"02151099999","2010-02-04T12:00:00","4","66.4833333","20.1666666","275.0","JOKKMOKK FPL, SW","FM-12","99999","V020","280,1,N,0010,1","00060,1,C,N","001100,1,N,1","-0140,1","-0149,1","10313,1","71,1","7,1,06,1","08,1,+00060,1,99,9",,,,"99999,9,09946,1","0,1,001,1,+999,9","SYN076AAXX  04121 02151 47111 /2801 11140 21149 39946 40313 50001 77177 333 88/02;",
"02151099999","2010-02-04T15:00:00","4","66.4833333","20.1666666","275.0","JOKKMOKK FPL, SW","FM-12","99999","V020","999,9,C,0000,1","00060,1,C,N","002900,1,N,1","-0140,1","-0149,1","10307,1","71,1","7,1,03,1","08,1,+00060,1,99,9",,,,"99999,9,09941,1","6,1,005,1,+999,9","SYN076AAXX  04151 02151 47129 /0000 11140 21149 39941 40307 56005 77177 333 88/02;",
"02151099999","2010-02-04T18:00:00","4","66.4833333","20.1666666","275.0","JOKKMOKK FPL, SW","FM-12","99999","V020","999,9,C,0000,1","00060,1,C,N","002400,1,N,1","-0145,1","-0155,1","10296,1","71,1","8,1,06,1","07,1,+00060,1,99,9",,"120,M,-0137,1","999,N,-0168,1","99999,9,09929,1","7,1,011,1,+999,9","SYN094AAXX  04181 02151 47124 /0000 11145 21155 39929 40296 57011 77187 333 11137 21168 87/02 88/05;",
"02151099999","2010-02-04T21:00:00","4","66.4833333","20.1666666","275.0","JOKKMOKK FPL, SW","FM-12","99999","V020","330,1,N,0010,1","00090,1,C,N","001500,1,N,1","-0141,1","-0150,1","10284,1","71,1","8,1,03,1","05,1,+00090,1,99,9","07,1,+00270,1,99,9",,,"99999,9,09918,1","8,1,011,1,+999,9","SYN088AAXX  04211 02151 47215 /3301 11141 21150 39918 40284 58011 77187 333 85/03 87/09 88/12;",
"02151099999","2010-02-05T00:00:00","4","66.4833333","20.1666666","275.0","JOKKMOKK FPL, SW","FM-12","99999","V020","290,1,N,0010,1","00870,1,C,N","002100,1,N,1","-0128,1","-0136,1","10266,1","71,1","8,1,06,1","09,1,+00870,1,99,9",,,,"99999,9,09902,1","6,1,016,1,+999,9","SYN076AAXX  05001 02151 47/21 /2901 11128 21136 39902 40266 56016 77187 333 89/29;",
"02151099999","2010-02-05T03:00:00","4","66.4833333","20.1666666","275.0","JOKKMOKK FPL, SW","FM-12","99999","V020","290,1,N,0010,1","01140,1,C,N","004500,1,N,1","-0131,1","-0140,1","10253,1","71,1","7,1,03,1","09,1,+01140,1,99,9",,,,"99999,9,09890,1","7,1,012,1,+999,9","SYN076AAXX  05031 02151 47/45 /2901 11131 21140 39890 40253 57012 77177 333 89/38;",
"02151099999","2010-02-05T06:00:00","4","66.4833333","20.1666666","275.0","JOKKMOKK FPL, SW","FM-12","99999","V020","999,9,C,0000,1","00600,1,C,N","004100,1,N,1","-0154,1","-0165,1","10253,1","71,1","7,1,06,1","04,1,+00090,1,99,9","07,1,+00600,1,99,9","120,M,-0127,1","999,N,-0154,1","99999,9,09886,1","8,1,004,1,+999,9","SYN100AAXX  05061 02151 47141 /0000 11154 21165 39886 40253 58004 77177 333 11127 21154 84/03 87/20 88/26;",
"02151099999","2010-02-05T09:00:00","4","66.4833333","20.1666666","275.0","JOKKMOKK FPL, SW","FM-12","99999","V020","999,9,C,0000,1","99999,9,9,N","002400,1,N,1","-0152,1","-0162,1","10256,1","85,1","8,1,03,1","01,1,+00120,1,99,9",,,,"99999,9,09889,1","3,1,003,1,+999,9","SYN082AAXX  05091 02151 47224 /0000 11152 21162 39889 40256 53003 78587 333 81/04 88/13;",
"02151099999","2010-02-05T12:00:00","4","66.4833333","20.1666666","275.0","JOKKMOKK FPL, SW","FM-12","99999","V020","999,9,C,0000,1","99999,9,9,N","016000,1,N,1","-0146,1","-0157,1","10249,1","00,1","8,1,06,1","03,1,+01800,1,99,9",,,,"99999,9,09884,1","5,1,005,1,+999,9","SYN076AAXX  05121 02151 47766 /0000 11146 21157 39884 40249 55005 70087 333 83/56;",
"02151099999","2010-02-05T15:00:00","4","66.4833333","20.1666666","275.0","JOKKMOKK FPL, SW","FM-12","99999","V020","140,1,N,0020,1","00750,1,C,N","021000,1,N,1","-0192,1","-0205,1","10252,1","24,1","8,1,03,1","05,1,+00750,1,99,9",,,,"99999,9,09880,1","8,1,003,1,+999,9","SYN076AAXX  05151 02151 47571 /1402 11192 21205 39880 40252 58003 72487 333 85/25;",
"02151099999","2010-02-05T18:00:00","4","66.4833333","20.1666666","275.0","JOKKMOKK FPL, SW","FM-12","99999","V020","999,9,C,0000,1","22000,1,C,N","005000,1,N,1","-0163,1","-0174,1","10243,1","71,1","8,1,06,1","01,1,+00450,1,99,9","04,1,+00690,1,99,9","120,M,-0127,1","999,N,-0213,1","99999,9,09875,1","8,1,005,1,+999,9","SYN100AAXX  05181 02151 47450 /0000 11163 21174 39875 40243 58005 77187 333 11127 21213 81/15 84/23 88/49;",
"02151099999","2010-02-05T21:00:00","4","66.4833333","20.1666666","275.0","JOKKMOKK FPL, SW","FM-12","99999","V020","999,9,C,0000,1","00060,1,C,N","003300,1,N,1","-0177,1","-0190,1","10237,1","71,1","7,1,03,1","08,1,+00060,1,99,9",,,,"99999,9,09868,1","7,1,008,1,+999,9","SYN076AAXX  05211 02151 47133 /0000 11177 21190 39868 40237 57008 77177 333 88/02;",
"02151099999","2010-02-06T00:00:00","4","66.4833333","20.1666666","275.0","JOKKMOKK FPL, SW","FM-12","99999","V020","999,9,C,0000,1","99999,9,9,N","009000,1,N,1","-0219,1","-0236,1","10237,1","85,1","8,1,06,1",,,,,"99999,9,09861,1","7,1,007,1,+999,9","SYN066AAXX  06001 02151 47959 /0000 11219 21236 39861 40237 57007 78587;",
"02151099999","2010-02-06T03:00:00","4","66.4833333","20.1666666","275.0","JOKKMOKK FPL, SW","FM-12","99999","V020","250,1,N,0010,1","99999,9,9,N","050000,1,N,1","-0229,1","-0247,1","10229,1","24,1","8,1,03,1",,,,,"99999,9,09852,1","8,1,009,1,+999,9","SYN066AAXX  06031 02151 47984 /2501 11229 21247 39852 40229 58009 72487;",
"02151099999","2010-02-06T06:00:00","4","66.4833333","20.1666666","275.0","JOKKMOKK FPL, SW","FM-12","99999","V020","270,1,N,0010,1","99999,9,9,N","050000,1,N,1","-0254,1","-0274,1","10222,1","00,1","8,1,06,1",,,"120,M,-0150,1","999,N,-0261,1","99999,9,09842,1","7,1,010,1,+999,9","SYN082AAXX  06061 02151 47984 /2701 11254 21274 39842 40222 57010 70087 333 11150 21261;",
"02151099999","2010-02-06T09:00:00","4","66.4833333","20.1666666","275.0","JOKKMOKK FPL, SW","FM-12","99999","V020","999,9,C,0000,1","99999,9,9,N","045000,1,N,1","-0223,1","-0240,1","10215,1",,,,,,,"99999,9,09840,1","7,1,002,1,+999,9","SYN060AAXX  06091 02151 45983 /0000 11223 21240 39840 40215 57002;",
"02151099999","2010-02-06T12:00:00","4","66.4833333","20.1666666","275.0","JOKKMOKK FPL, SW","FM-12","99999","V020","999,9,C,0000,1","99999,9,9,N","035000,1,N,1","-0184,1","-0197,1","10197,1",,,,,,,"99999,9,09828,1","8,1,012,1,+999,9","SYN060AAXX  06121 02151 45981 /0000 11184 21197 39828 40197 58012;",
"02151099999","2010-02-06T15:00:00","4","66.4833333","20.1666666","275.0","JOKKMOKK FPL, SW","FM-12","99999","V020","999,9,C,0000,1","99999,9,9,N","050000,1,N,1","-0141,1","-0150,1","10174,1",,,,,,,"99999,9,09812,1","8,1,017,1,+999,9","SYN060AAXX  06151 02151 45984 /0000 11141 21150 39812 40174 58017;",
"02151099999","2010-02-06T18:00:00","4","66.4833333","20.1666666","275.0","JOKKMOKK FPL, SW","FM-12","99999","V020","020,1,N,0010,1","99999,9,9,N","050000,1,N,1","-0054,1","-0055,1","10151,1",,,,,"120,M,-0040,1","999,N,-0263,1","99999,9,09801,1","6,1,011,1,+999,9","SYN076AAXX  06181 02151 45984 /0201 11054 21055 39801 40151 56011 333 11040 21263;",
"02151099999","2010-02-06T21:00:00","4","66.4833333","20.1666666","275.0","JOKKMOKK FPL, SW","FM-12","99999","V020","999,9,C,0000,1","99999,9,9,N","050000,1,N,1","-0081,1","-0085,1","10157,1",,,,,,,"99999,9,09804,1","3,1,003,1,+999,9","SYN060AAXX  06211 02151 45984 /0000 11081 21085 39804 40157 53003;",
"02151099999","2010-02-07T00:00:00","4","66.4833333","20.1666666","275.0","JOKKMOKK FPL, SW","FM-12","99999","V020","330,1,N,0010,1","02700,1,C,N","050000,1,N,1","-0077,1","-0081,1","10161,1",,,"06,1,+02700,1,99,9",,,,"99999,9,09808,1","2,1,004,1,+999,9","SYN070AAXX  07001 02151 45984 /3301 11077 21081 39808 40161 52004 333 86/59;",
"02151099999","2010-02-07T03:00:00","4","66.4833333","20.1666666","275.0","JOKKMOKK FPL, SW","FM-12","99999","V020","300,1,N,0020,1","99999,9,9,N","030000,1,N,1","-0102,1","-0107,1","10163,1",,,,,,,"99999,9,09807,1","4,1,000,1,+999,9","SYN060AAXX  07031 02151 45980 /3002 11102 21107 39807 40163 54001;",
"02151099999","2010-02-07T06:00:00","4","66.4833333","20.1666666","275.0","JOKKMOKK FPL, SW","FM-12","99999","V020","999,9,C,0000,1","99999,9,9,N","050000,1,N,1","-0127,1","-0133,1","10162,1",,,,,"120,M,-0034,1","999,N,-0136,1","99999,9,09802,1","7,1,005,1,+999,9","SYN076AAXX  07061 02151 45984 /0000 11127 21133 39802 40162 57005 333 11034 21136;",
"02151099999","2010-02-07T09:00:00","4","66.4833333","20.1666666","275.0","JOKKMOKK FPL, SW","FM-12","99999","V020","280,1,N,0010,1","99999,9,9,N","050000,1,N,1","-0105,1","-0112,1","10158,1",,,,,,,"99999,9,09801,1","4,1,000,1,+999,9","SYN060AAXX  07091 02151 45984 /2801 11105 21112 39801 40158 54001;",
"02151099999","2010-02-07T12:00:00","4","66.4833333","20.1666666","275.0","JOKKMOKK FPL, SW","FM-12","99999","V020","999,9,C,0000,1","99999,9,9,N","045000,1,N,1","-0065,1","-0067,1","10146,1",,,,,,,"99999,9,09794,1","7,1,007,1,+999,9","SYN060AAXX  07121 02151 45/83 /0000 11065 21067 39794 40146 57007;",
"02151099999","2010-02-07T15:00:00","4","66.4833333","20.1666666","275.0","JOKKMOKK FPL, SW","FM-12","99999","V020","999,9,C,0000,1","99999,9,9,N","050000,1,N,1","-0091,1","-0096,1","10140,1",,,"02,1,+01500,1,99,9",,,,"99999,9,09786,1","7,1,009,1,+999,9","SYN070AAXX  07151 02151 45784 /0000 11091 21096 39786 40140 57009 333 82/50;",
"02151099999","2010-02-07T18:00:00","4","66.4833333","20.1666666","275.0","JOKKMOKK FPL, SW","FM-12","99999","V020","999,9,C,0000,1","01050,1,C,N","050000,1,N,1","-0080,1","-0083,1","10132,1","00,1","8,1,06,1","05,1,+01050,1,99,9",,"120,M,-0045,1","999,N,-0127,1","99999,9,09780,1","7,1,006,1,+999,9","SYN094AAXX  07181 02151 47684 /0000 11080 21083 39780 40132 57006 70087 333 11045 21127 85/35 88/58;",
"02151099999","2010-02-07T21:00:00","4","66.4833333","20.1666666","275.0","JOKKMOKK FPL, SW","FM-12","99999","V020","999,9,C,0000,1","99999,9,9,N","050000,1,N,1","-0078,1","-0081,1","10127,1",,,,,,,"99999,9,09774,1","7,1,005,1,+999,9","SYN060AAXX  07211 02151 45984 /0000 11078 21081 39774 40127 57005;",
"02151099999","2010-02-08T00:00:00","4","66.4833333","20.1666666","275.0","JOKKMOKK FPL, SW","FM-12","99999","V020","320,1,N,0010,1","99999,9,9,N","008000,1,N,1","-0084,1","-0087,1","10125,1","71,1","7,1,06,1","04,1,+01350,1,99,9",,,,"99999,9,09773,1","7,1,002,1,+999,9","SYN076AAXX  08001 02151 47658 /3201 11084 21087 39773 40125 57002 77170 333 84/45;",
"02151099999","2010-02-08T03:00:00","4","66.4833333","20.1666666","275.0","JOKKMOKK FPL, SW","FM-12","99999","V020","999,9,C,0000,1","00900,1,C,N","040000,1,N,1","-0110,1","-0115,1","10128,1","24,1","8,1,03,1","05,1,+00900,1,99,9",,,,"99999,9,09772,1","5,1,001,1,+999,9","SYN082AAXX  08031 02151 47582 /0000 11110 21115 39772 40128 55001 72487 333 85/30 88/38;",
"02151099999","2010-02-08T06:00:00","4","66.4833333","20.1666666","275.0","JOKKMOKK FPL, SW","FM-12","99999","V020","340,1,N,0010,1","00600,1,C,N","017000,1,N,1","-0124,1","-0130,1","10130,1","71,1","8,1,06,1","04,1,+00300,1,99,9","05,1,+00600,1,99,9","120,M,-0064,1","999,N,-0125,1","99999,9,09771,1","4,1,000,1,+999,9","SYN100AAXX  08061 02151 47467 /3401 11124 21130 39771 40130 54000 77187 333 11064 21125 84/10 85/20 87/50;",
"02151099999","2010-02-08T09:00:00","4","66.4833333","20.1666666","275.0","JOKKMOKK FPL, SW","FM-12","99999","V020","999,9,C,0000,1","00660,1,C,N","002100,1,N,1","-0085,1","-0089,1","10135,1","71,1","7,1,03,1","02,1,+00390,1,99,9","06,1,+00660,1,99,9",,,"99999,9,09782,1","2,1,010,1,+999,9","SYN088AAXX  08091 02151 47421 /0000 11085 21089 39782 40135 52010 77177 333 82/13 86/22 88/27;",
"02151099999","2010-02-08T12:00:00","4","66.4833333","20.1666666","275.0","JOKKMOKK FPL, SW","FM-12","99999","V020","010,1,N,0020,1","01260,1,C,N","004100,1,N,1","-0083,1","-0088,1","10141,1","71,1","7,1,06,1","09,1,+01260,1,99,9",,,,"99999,9,09787,1","2,1,006,1,+999,9","SYN076AAXX  08121 02151 47/41 /0102 11083 21088 39787 40141 52006 77177 333 89/42;",
"02151099999","2010-02-08T15:00:00","4","66.4833333","20.1666666","275.0","JOKKMOKK FPL, SW","FM-12","99999","V020","350,1,N,0010,1","00540,1,C,N","003500,1,N,1","-0099,1","-0104,1","10148,1","71,1","7,1,03,1","03,1,+00090,1,99,9","06,1,+00540,1,99,9",,,"99999,9,09792,1","2,1,004,1,+999,9","SYN088AAXX  08151 02151 47135 /3501 11099 21104 39792 40148 52004 77177 333 83/03 86/18 88/26;",
"02151099999","2010-02-08T18:00:00","4","66.4833333","20.1666666","275.0","JOKKMOKK FPL, SW","FM-12","99999","V020","300,1,N,0020,1","00090,1,C,N","002200,1,N,1","-0115,1","-0121,1","10158,1","71,1","7,1,06,1","05,1,+00090,1,99,9","07,1,+00390,1,99,9","120,M,-0081,1","999,N,-0129,1","99999,9,09800,1","2,1,008,1,+999,9","SYN100AAXX  08181 02151 47222 /3002 11115 21121 39800 40158 52008 77177 333 11081 21129 85/03 87/13 88/16;",
"02151099999","2010-02-08T21:00:00","4","66.4833333","20.1666666","275.0","JOKKMOKK FPL, SW","FM-12","99999","V020","320,1,N,0020,1","22000,1,C,N","002900,1,N,1","-0106,1","-0112,1","10164,1","71,1","7,1,03,1","02,1,+00090,1,99,9","03,1,+00210,1,99,9",,,"99999,9,09807,1","2,1,007,1,+999,9","SYN088AAXX  08211 02151 47129 /3202 11106 21112 39807 40164 52007 77177 333 82/03 83/07 86/13;",
"02151099999","2010-02-09T00:00:00","4","66.4833333","20.1666666","275.0","JOKKMOKK FPL, SW","FM-12","99999","V020","340,1,N,0020,1","00360,1,C,N","005000,1,N,1","-0106,1","-0111,1","10171,1","71,1","7,1,06,1","05,1,+00360,1,99,9",,,,"99999,9,09813,1","2,1,006,1,+999,9","SYN082AAXX  09001 02151 47450 /3402 11106 21111 39813 40171 52006 77177 333 85/12 88/33;",
"02151099999","2010-02-09T03:00:00","4","66.4833333","20.1666666","275.0","JOKKMOKK FPL, SW","FM-12","99999","V020","300,1,N,0010,1","00390,1,C,N","003300,1,N,1","-0114,1","-0121,1","10178,1","71,1","7,1,03,1","01,1,+00120,1,99,9","05,1,+00390,1,99,9",,,"99999,9,09820,1","2,1,007,1,+999,9","SYN088AAXX  09031 02151 47233 /3001 11114 21121 39820 40178 52007 77177 333 81/04 85/13 87/39;",
"02151099999","2010-02-09T06:00:00","4","66.4833333","20.1666666","275.0","JOKKMOKK FPL, SW","FM-12","99999","V020","999,9,C,0000,1","00450,1,C,N","004100,1,N,1","-0134,1","-0141,1","10192,1","71,1","7,1,06,1","01,1,+00240,1,99,9","07,1,+00450,1,99,9","120,M,-0102,1","999,N,-0136,1","99999,9,09830,1","2,1,010,1,+999,9","SYN100AAXX  09061 02151 47341 /0000 11134 21141 39830 40192 52010 77177 333 11102 21136 81/08 87/15 88/27;",
"02151099999","2010-02-09T09:00:00","4","66.4833333","20.1666666","275.0","JOKKMOKK FPL, SW","FM-12","99999","V020","999,9,C,0000,1","00090,1,C,N","001400,1,N,1","-0117,1","-0124,1","10204,1","71,1","7,1,03,1","08,1,+00090,1,99,9",,,,"99999,9,09844,1","2,1,014,1,+999,9","SYN076AAXX  09091 02151 47114 /0000 11117 21124 39844 40204 52014 77177 333 88/03;",
"02151099999","2010-02-09T12:00:00","4","66.4833333","20.1666666","275.0","JOKKMOKK FPL, SW","FM-12","99999","V020","300,1,N,0010,1","00060,1,C,N","002700,1,N,1","-0111,1","-0118,1","10207,1","71,1","7,1,06,1","06,1,+00060,1,99,9","07,1,+00540,1,99,9",,,"99999,9,09848,1","0,1,003,1,+999,9","SYN088AAXX  09121 02151 47127 /3001 11111 21118 39848 40207 50003 77177 333 86/02 87/18 88/24;",
"02151099999","2010-02-09T15:00:00","4","66.4833333","20.1666666","275.0","JOKKMOKK FPL, SW","FM-12","99999","V020","310,1,N,0020,1","00420,1,C,N","006000,1,N,1","-0136,1","-0145,1","10212,1","71,1","7,1,03,1","07,1,+00420,1,99,9",,,,"99999,9,09849,1","3,1,001,1,+999,9","SYN082AAXX  09151 02151 47456 /3102 11136 21145 39849 40212 53001 77177 333 87/14 88/28;",
"02151099999","2010-02-09T18:00:00","4","66.4833333","20.1666666","275.0","JOKKMOKK FPL, SW","FM-12","99999","V020","999,9,C,0000,1","99999,9,9,N","011000,1,N,1","-0143,1","-0152,1","10216,1","71,1","7,1,06,1","04,1,+00090,1,99,9",,"120,M,-0106,1","999,N,-0151,1","99999,9,09852,1","2,1,004,1,+999,9","SYN094AAXX  09181 02151 47161 /0000 11143 21152 39852 40216 52004 77177 333 11106 21151 84/03 88/05;",
"02151099999","2010-02-09T21:00:00","4","66.4833333","20.1666666","275.0","JOKKMOKK FPL, SW","FM-12","99999","V020","270,1,N,0010,1","01500,1,C,N","022000,1,N,1","-0156,1","-0166,1","10221,1","71,1","7,1,03,1","08,1,+01500,1,99,9",,,,"99999,9,09855,1","2,1,003,1,+999,9","SYN076AAXX  09211 02151 47772 /2701 11156 21166 39855 40221 52003 77177 333 88/50;",
"02151099999","2010-02-10T00:00:00","4","66.4833333","20.1666666","275.0","JOKKMOKK FPL, SW","FM-12","99999","V020","999,9,C,0000,1","01500,1,C,N","045000,1,N,1","-0170,1","-0181,1","10221,1","24,1","8,1,06,1","08,1,+01500,1,99,9",,,,"99999,9,09853,1","8,1,002,1,+999,9","SYN076AAXX  10001 02151 47783 /0000 11170 21181 39853 40221 58002 72487 333 88/50;",
"02151099999","2010-02-10T03:00:00","4","66.4833333","20.1666666","275.0","JOKKMOKK FPL, SW","FM-12","99999","V020","280,1,N,0010,1","00090,1,C,N","007000,1,N,1","-0212,1","-0228,1","10222,1","85,1","8,1,03,1","06,1,+00090,1,99,9",,,,"99999,9,09848,1","7,1,005,1,+999,9","SYN076AAXX  10031 02151 47257 /2801 11212 21228 39848 40222 57005 78587 333 86/03;",
"02151099999","2010-02-10T06:00:00","4","66.4833333","20.1666666","275.0","JOKKMOKK FPL, SW","FM-12","99999","V020","999,9,C,0000,1","00060,1,C,N","004400,1,N,1","-0231,1","-0249,1","10216,1","71,1","8,1,06,1","08,1,+00060,1,99,9",,"120,M,-0141,1","999,N,-0245,1","99999,9,09839,1","7,1,009,1,+999,9","SYN088AAXX  10061 02151 47144 /0000 11231 21249 39839 40216 57009 77187 333 11141 21245 88/02;",
"02151099999","2010-02-10T09:00:00","4","66.4833333","20.1666666","275.0","JOKKMOKK FPL, SW","FM-12","99999","V020","999,9,C,0000,1","00060,1,C,N","002400,1,N,1","-0205,1","-0221,1","10204,1","77,1","7,1,03,1","08,1,+00060,1,99,9",,,,"99999,9,09831,1","8,1,008,1,+999,9","SYN076AAXX  10091 02151 47124 /0000 11205 21221 39831 40204 58008 77777 333 88/02;",
"02151099999","2010-02-10T12:00:00","4","66.4833333","20.1666666","275.0","JOKKMOKK FPL, SW","FM-12","99999","V020","150,1,N,0010,1","99999,9,9,N","014000,1,N,1","-0185,1","-0200,1","10185,1","24,1","8,1,06,1",,,,,"99999,9,09817,1","8,1,015,1,+999,9","SYN066AAXX  10121 02151 47964 /1501 11185 21200 39817 40185 58015 72487;",
"02151099999","2010-02-10T15:00:00","4","66.4833333","20.1666666","275.0","JOKKMOKK FPL, SW","FM-12","99999","V020","130,1,N,0010,1","99999,9,9,N","005000,1,N,1","-0207,1","-0222,1","10166,1","71,1","8,1,03,1","02,1,+00090,1,99,9",,,,"99999,9,09795,1","7,1,022,1,+999,9","SYN076AAXX  10151 02151 47250 /1301 11207 21222 39795 40166 57022 77187 333 82/03;",
"02151099999","2010-02-10T18:00:00","4","66.4833333","20.1666666","275.0","JOKKMOKK FPL, SW","FM-12","99999","V020","130,1,N,0010,1","99999,9,9,N","027000,1,N,1","-0199,1","-0213,1","10152,1","71,1","8,1,06,1",,,"120,M,-0178,1","999,N,-0244,1","99999,9,09782,1","7,1,013,1,+999,9","SYN082AAXX  10181 02151 47977 /1301 11199 21213 39782 40152 57013 77187 333 11178 21244;",
"02151099999","2010-02-10T21:00:00","4","66.4833333","20.1666666","275.0","JOKKMOKK FPL, SW","FM-12","99999","V020","110,1,N,0020,1","00300,1,C,N","001900,1,N,1","-0182,1","-0195,1","10138,1","71,1","8,1,03,1","09,1,+00300,1,99,9",,,,"99999,9,09772,1","7,1,011,1,+999,9","SYN076AAXX  10211 02151 47/19 /1102 11182 21195 39772 40138 57011 77187 333 89/10;",
"02151099999","2010-02-11T00:00:00","4","66.4833333","20.1666666","275.0","JOKKMOKK FPL, SW","FM-12","99999","V020","130,1,N,0010,1","00630,1,C,N","004100,1,N,1","-0179,1","-0192,1","10132,1","71,1","8,1,06,1","02,1,+00120,1,99,9","05,1,+00630,1,99,9",,,"99999,9,09766,1","8,1,006,1,+999,9","SYN088AAXX  11001 02151 47241 /1301 11179 21192 39766 40132 58006 77187 333 82/04 85/21 88/36;",
"02151099999","2010-02-11T03:00:00","4","66.4833333","20.1666666","275.0","JOKKMOKK FPL, SW","FM-12","99999","V020","999,9,C,0000,1","00900,1,C,N","002300,1,N,1","-0176,1","-0189,1","10128,1","71,1","7,1,03,1","09,1,+00900,1,99,9",,,,"99999,9,09763,1","7,1,003,1,+999,9","SYN076AAXX  11031 02151 47/23 /0000 11176 21189 39763 40128 57003 77177 333 89/30;",
"02151099999","2010-02-11T06:00:00","4","66.4833333","20.1666666","275.0","JOKKMOKK FPL, SW","FM-12","99999","V020","280,1,N,0020,1","00060,1,C,N","002800,1,N,1","-0188,1","-0202,1","10136,1","71,1","7,1,06,1","08,1,+00060,1,99,9",,"120,M,-0169,1","999,N,-0201,1","99999,9,09769,1","2,1,006,1,+999,9","SYN088AAXX  11061 02151 47128 /2802 11188 21202 39769 40136 52006 77177 333 11169 21201 88/02;",
"02151099999","2010-02-11T09:00:00","4","66.4833333","20.1666666","275.0","JOKKMOKK FPL, SW","FM-12","99999","V020","999,9,C,0000,1","99999,9,9,N","021000,1,N,1","-0202,1","-0215,1","10158,1","24,1","8,1,03,1","03,1,+02400,1,99,9",,,,"99999,9,09787,1","2,1,018,1,+999,9","SYN076AAXX  11091 02151 47971 /0000 11202 21215 39787 40158 52018 72487 333 83/58;",
"02151099999","2010-02-11T12:00:00","4","66.4833333","20.1666666","275.0","JOKKMOKK FPL, SW","FM-12","99999","V020","300,1,N,0030,1","02100,1,C,N","029000,1,N,1","-0171,1","-0183,1","10169,1","85,1","8,1,06,1","07,1,+02100,1,99,9",,,,"99999,9,09803,1","2,1,016,1,+999,9","SYN076AAXX  11121 02151 47879 /3003 11171 21183 39803 40169 52016 78587 333 87/57;",
"02151099999","2010-02-11T15:00:00","4","66.4833333","20.1666666","275.0","JOKKMOKK FPL, SW","FM-12","99999","V020","310,1,N,0020,1","01110,1,C,N","040000,1,N,1","-0160,1","-0171,1","10187,1","24,1","8,1,03,1","08,1,+01110,1,99,9",,,,"99999,9,09822,1","3,1,018,1,+999,9","SYN076AAXX  11151 02151 47682 /3102 11160 21171 39822 40187 53018 72487 333 88/37;",
"02151099999","2010-02-11T18:00:00","4","66.4833333","20.1666666","275.0","JOKKMOKK FPL, SW","FM-12","99999","V020","999,9,C,0000,1","01200,1,C,N","050000,1,N,1","-0155,1","-0165,1","10207,1","00,1","8,1,06,1","08,1,+01200,1,99,9",,"120,M,-0150,1","999,N,-0233,1","99999,9,09841,1","2,1,020,1,+999,9","SYN088AAXX  11181 02151 47684 /0000 11155 21165 39841 40207 52020 70087 333 11150 21233 88/40;",
"02151099999","2010-02-11T21:00:00","4","66.4833333","20.1666666","275.0","JOKKMOKK FPL, SW","FM-12","99999","V020","999,9,C,0000,1","99999,9,9,N","050000,1,N,1","-0225,1","-0245,1","10238,1",,,,,,,"99999,9,09862,1","3,1,021,1,+999,9","SYN060AAXX  11211 02151 45984 /0000 11225 21245 39862 40238 53021;",
"02151099999","2010-02-12T00:00:00","4","66.4833333","20.1666666","275.0","JOKKMOKK FPL, SW","FM-12","99999","V020","270,1,N,0010,1","99999,9,9,N","045000,1,N,1","-0220,1","-0238,1","10250,1","71,1","0,1,06,1",,,,,"99999,9,09874,1","3,1,012,1,+999,9","SYN066AAXX  12001 02151 47983 /2701 11220 21238 39874 40250 53012 77100;",
"02151099999","2010-02-12T03:00:00","4","66.4833333","20.1666666","275.0","JOKKMOKK FPL, SW","FM-12","99999","V020","260,1,N,0010,1","99999,9,9,N","050000,1,N,1","-0229,1","-0247,1","10259,1","00,1","8,1,03,1",,,,,"99999,9,09881,1","1,1,007,1,+999,9","SYN066AAXX  12031 02151 47984 /2601 11229 21247 39881 40259 51007 70087;",
"02151099999","2010-02-12T06:00:00","4","66.4833333","20.1666666","275.0","JOKKMOKK FPL, SW","FM-12","99999","V020","999,9,C,0000,1","99999,9,9,N","050000,1,N,1","-0256,1","-0277,1","10267,1","00,1","7,1,06,1","03,1,+04500,1,99,9",,"120,M,-0155,1","999,N,-0259,1","99999,9,09885,1","0,1,004,1,+999,9","SYN088AAXX  12061 02151 47984 /0000 11256 21277 39885 40267 50004 70072 333 11155 21259 83/65;",
"02151099999","2010-02-12T09:00:00","4","66.4833333","20.1666666","275.0","JOKKMOKK FPL, SW","FM-12","99999","V020","290,1,N,0010,1","99999,9,9,N","045000,1,N,1","-0235,1","-0254,1","10263,1",,,"01,1,+02100,1,99,9",,,,"99999,9,09884,1","0,1,001,1,+999,9","SYN070AAXX  12091 02151 45883 /2901 11235 21254 39884 40263 50001 333 81/57;",
"02151099999","2010-02-12T12:00:00","4","66.4833333","20.1666666","275.0","JOKKMOKK FPL, SW","FM-12","99999","V020","999,9,C,0000,1","99999,9,9,N","050000,1,N,1","-0168,1","-0182,1","10243,1",,,"04,1,+01440,1,99,9",,,,"99999,9,09875,1","8,1,010,1,+999,9","SYN076AAXX  12121 02151 45684 /0000 11168 21182 39875 40243 58010 333 84/48 87/57;",
"02151099999","2010-02-12T15:00:00","4","66.4833333","20.1666666","275.0","JOKKMOKK FPL, SW","FM-12","99999","V020","999,9,C,0000,1","02400,1,C,N","050000,1,N,1","-0178,1","-0192,1","10231,1",,,"06,1,+02400,1,99,9",,,,"99999,9,09861,1","6,1,013,1,+999,9","SYN070AAXX  12151 02151 45884 /0000 11178 21192 39861 40231 56013 333 86/58;",
"02151099999","2010-02-12T18:00:00","4","66.4833333","20.1666666","275.0","JOKKMOKK FPL, SW","FM-12","99999","V020","999,9,C,0000,1","03300,1,C,N","050000,1,N,1","-0177,1","-0190,1","10224,1",,,"05,1,+03300,1,99,9",,"120,M,-0162,1","999,N,-0261,1","99999,9,09855,1","7,1,006,1,+999,9","SYN082AAXX  12181 02151 45984 /0000 11177 21190 39855 40224 57006 333 11162 21261 85/61;",
"02151099999","2010-02-12T21:00:00","4","66.4833333","20.1666666","275.0","JOKKMOKK FPL, SW","FM-12","99999","V020","250,1,N,0020,1","99999,9,9,N","050000,1,N,1","-0166,1","-0179,1","10216,1",,,,,,,"99999,9,09849,1","8,1,006,1,+999,9","SYN060AAXX  12211 02151 45984 /2502 11166 21179 39849 40216 58006;",
"02151099999","2010-02-13T00:00:00","4","66.4833333","20.1666666","275.0","JOKKMOKK FPL, SW","FM-12","99999","V020","220,1,N,0030,1","99999,9,9,N","050000,1,N,1","+9999,9","+9999,9","10186,1",,,"02,1,+02400,1,99,9",,,,"99999,9,09840,1","7,1,009,1,+999,9","SYN070AAXX  13001 02151 45984 /2203 11020 21025 39840 40186 57009 333 82/58;","Q01-000203ATOT  "
"02151099999","2010-02-13T03:00:00","4","66.4833333","20.1666666","275.0","JOKKMOKK FPL, SW","FM-12","99999","V020","180,1,N,0010,1","02400,1,C,N","050000,1,N,1","-0005,1","-0016,1","10166,1",,,"06,1,+02400,1,99,9",,,,"99999,9,09821,1","8,1,018,1,+999,9","SYN070AAXX  13031 02151 45884 /1801 11005 21016 39821 40166 58018 333 86/58;",
"02151099999","2010-02-13T06:00:00","4","66.4833333","20.1666666","275.0","JOKKMOKK FPL, SW","FM-12","99999","V020","230,1,N,0030,1","02700,1,C,N","050000,1,N,1","-0010,1","-0025,1","10140,1",,,"06,1,+02700,1,99,9",,"120,M,+0001,1","999,N,-0181,1","99999,9,09796,1","8,1,025,1,+999,9","SYN082AAXX  13061 02151 45984 /2303 11010 21025 39796 40140 58025 333 10001 21181 86/59;",
"02151099999","2010-02-13T09:00:00","4","66.4833333","20.1666666","275.0","JOKKMOKK FPL, SW","FM-12","99999","V020","240,1,N,0020,1","99999,9,9,N","050000,1,N,1","-0019,1","-0041,1","10124,1",,,"01,1,+04200,1,99,9",,,,"99999,9,09779,1","7,1,017,1,+999,9","SYN070AAXX  13091 02151 45984 /2402 11019 21041 39779 40124 57017 333 81/64;",
"02151099999","2010-02-13T12:00:00","4","66.4833333","20.1666666","275.0","JOKKMOKK FPL, SW","FM-12","99999","V020","250,1,N,0040,1","01020,1,C,N","050000,1,N,1","+0011,1","-0017,1","10107,1",,,"05,1,+01020,1,99,9",,,,"99999,9,09767,1","6,1,012,1,+999,9","SYN076AAXX  13121 02151 45684 /2504 10011 21017 39767 40107 56012 333 85/34 87/64;",
"02151099999","2010-02-13T15:00:00","4","66.4833333","20.1666666","275.0","JOKKMOKK FPL, SW","FM-12","99999","V020","290,1,N,0040,1","99999,9,9,N","050000,1,N,1","-0015,1","-0056,1","10113,1",,,"03,1,+01800,1,99,9",,,,"99999,9,09769,1","3,1,002,1,+999,9","SYN070AAXX  13151 02151 45884 /2904 11015 21056 39769 40113 53002 333 83/56;",
"02151099999","2010-02-13T18:00:00","4","66.4833333","20.1666666","275.0","JOKKMOKK FPL, SW","FM-12","99999","V020","350,1,N,0010,1","99999,9,9,N","050000,1,N,1","-0097,1","-0117,1","10129,1",,,,,"120,M,+0014,1","999,N,-0101,1","99999,9,09774,1","2,1,005,1,+999,9","SYN076AAXX  13181 02151 45984 /3501 11097 21117 39774 40129 52005 333 10014 21101;",
"02151099999","2010-02-13T21:00:00","4","66.4833333","20.1666666","275.0","JOKKMOKK FPL, SW","FM-12","99999","V020","250,1,N,0020,1","99999,9,9,N","050000,1,N,1","-0092,1","-0115,1","10130,1",,,,,,,"99999,9,09776,1","0,1,002,1,+999,9","SYN060AAXX  13211 02151 45984 /2502 11092 21115 39776 40130 50002;",
"02151099999","2010-02-14T00:00:00","4","66.4833333","20.1666666","275.0","JOKKMOKK FPL, SW","FM-12","99999","V020","240,1,N,0020,1","99999,9,9,N","050000,1,N,1","-0066,1","-0109,1","10114,1",,,,,,,"99999,9,09764,1","8,1,012,1,+999,9","SYN060AAXX  14001 02151 45984 /2402 11066 21109 39764 40114 58012;",
"02151099999","2010-02-14T03:00:00","4","66.4833333","20.1666666","275.0","JOKKMOKK FPL, SW","FM-12","99999","V020","240,1,N,0040,1","99999,9,9,N","050000,1,N,1","-0070,1","-0107,1","10093,1",,,,,,,"99999,9,09744,1","8,1,021,1,+999,9","SYN060AAXX  14031 02151 45984 /2404 11070 21107 39744 40093 58021;",
"02151099999","2010-02-14T06:00:00","4","66.4833333","20.1666666","275.0","JOKKMOKK FPL, SW","FM-12","99999","V020","270,1,N,0060,1","99999,9,9,N","023000,1,N,1","-0035,1","-0083,1","10067,1","40,1","6,1,06,1",,,"120,M,-0034,1","999,N,-0128,1","99999,9,09722,1","8,1,021,1,+999,9","SYN082AAXX  14061 02151 47973 /2706 11035 21083 39722 40067 58021 74040 333 11034 21128;",
"02151099999","2010-02-14T09:00:00","4","66.4833333","20.1666666","275.0","JOKKMOKK FPL, SW","FM-12","99999","V020","280,1,N,0050,1","01260,1,C,N","050000,1,N,1","-0030,1","-0054,1","10074,1","24,1","8,1,03,1","06,1,+01260,1,99,9",,,,"99999,9,09730,1","3,1,008,1,+999,9","SYN076AAXX  14091 02151 47684 /2805 11030 21054 39730 40074 53008 72487 333 86/42;",
"02151099999","2010-02-14T12:00:00","4","66.4833333","20.1666666","275.0","JOKKMOKK FPL, SW","FM-12","99999","V020","290,1,N,0040,1","99999,9,9,N","045000,1,N,1","-0015,1","-0083,1","10083,1","00,1","8,1,06,1",,,,,"99999,9,09741,1","3,1,011,1,+999,9","SYN066AAXX  14121 02151 47983 /2904 11015 21083 39741 40083 53011 70087;",
"02151099999","2010-02-14T15:00:00","4","66.4833333","20.1666666","275.0","JOKKMOKK FPL, SW","FM-12","99999","V020","280,1,N,0050,1","99999,9,9,N","050000,1,N,1","-0033,1","-0091,1","10083,1",,,,,,,"99999,9,09738,1","8,1,002,1,+999,9","SYN060AAXX  14151 02151 45984 /2805 11033 21091 39738 40083 58002;",
"02151099999","2010-02-14T18:00:00","4","66.4833333","20.1666666","275.0","JOKKMOKK FPL, SW","FM-12","99999","V020","280,1,N,0040,1","99999,9,9,N","050000,1,N,1","-0034,1","-0087,1","10068,1",,,,,"120,M,-0011,1","999,N,-0045,1","99999,9,09723,1","8,1,015,1,+999,9","SYN076AAXX  14181 02151 45984 /2804 11034 21087 39723 40068 58015 333 11011 21045;",
"02151099999","2010-02-14T21:00:00","4","66.4833333","20.1666666","275.0","JOKKMOKK FPL, SW","FM-12","99999","V020","290,1,N,0040,1","99999,9,9,N","050000,1,N,1","-0038,1","-0087,1","10063,1",,,"01,1,+02400,1,99,9",,,,"99999,9,09718,1","5,1,006,1,+999,9","SYN070AAXX  14211 02151 45884 /2904 11038 21087 39718 40063 55006 333 81/58;",
"02151099999","2010-02-15T00:00:00","4","66.4833333","20.1666666","275.0","JOKKMOKK FPL, SW","FM-12","99999","V020","290,1,N,0040,1","99999,9,9,N","050000,1,N,1","-0035,1","-0080,1","10061,1",,,,,,,"99999,9,09717,1","4,1,000,1,+999,9","SYN060AAXX  15001 02151 45984 /2904 11035 21080 39717 40061 54001;",
"02151099999","2010-02-15T03:00:00","4","66.4833333","20.1666666","275.0","JOKKMOKK FPL, SW","FM-12","99999","V020","300,1,N,0040,1","99999,9,9,N","050000,1,N,1","-0044,1","-0081,1","10070,1",,,,,,,"99999,9,09724,1","3,1,007,1,+999,9","SYN060AAXX  15031 02151 45984 /3004 11044 21081 39724 40070 53007;",
"02151099999","2010-02-15T06:00:00","4","66.4833333","20.1666666","275.0","JOKKMOKK FPL, SW","FM-12","99999","V020","290,1,N,0030,1","99999,9,9,N","050000,1,N,1","-0059,1","-0086,1","10072,1",,,"02,1,+03600,1,99,9",,"120,M,-0026,1","999,N,-0067,1","99999,9,09725,1","4,1,000,1,+999,9","SYN082AAXX  15061 02151 45984 /2903 11059 21086 39725 40072 54001 333 11026 21067 82/62;",
"02151099999","2010-02-15T09:00:00","4","66.4833333","20.1666666","275.0","JOKKMOKK FPL, SW","FM-12","99999","V020","310,1,N,0020,1","99999,9,9,N","045000,1,N,1","-0039,1","-0070,1","10081,1",,,"02,1,+01410,1,99,9",,,,"99999,9,09736,1","2,1,011,1,+999,9","SYN076AAXX  15091 02151 45683 /3102 11039 21070 39736 40081 52011 333 82/47 83/56;",
"02151099999","2010-02-15T12:00:00","4","66.4833333","20.1666666","275.0","JOKKMOKK FPL, SW","FM-12","99999","V020","300,1,N,0040,1","99999,9,9,N","045000,1,N,1","-0017,1","-0066,1","10083,1",,,"04,1,+01500,1,99,9",,,,"99999,9,09741,1","2,1,005,1,+999,9","SYN070AAXX  15121 02151 45783 /3004 11017 21066 39741 40083 52005 333 84/50;",
"02151099999","2010-02-15T15:00:00","4","66.4833333","20.1666666","275.0","JOKKMOKK FPL, SW","FM-12","99999","V020","320,1,N,0040,1","99999,9,9,N","050000,1,N,1","-0015,1","-0061,1","10082,1",,,"04,1,+01800,1,99,9",,,,"99999,9,09740,1","4,1,000,1,+999,9","SYN076AAXX  15151 02151 45784 /3204 11015 21061 39740 40082 54001 333 84/56 88/57;",
"02151099999","2010-02-15T18:00:00","4","66.4833333","20.1666666","275.0","JOKKMOKK FPL, SW","FM-12","99999","V020","290,1,N,0030,1","99999,9,9,N","050000,1,N,1","-0047,1","-0070,1","10089,1",,,"03,1,+02100,1,99,9",,"120,M,-0008,1","999,N,-0060,1","99999,9,09743,1","2,1,003,1,+999,9","SYN082AAXX  15181 02151 45884 /2903 11047 21070 39743 40089 52003 333 11008 21060 83/57;",
"02151099999","2010-02-15T21:00:00","4","66.4833333","20.1666666","275.0","JOKKMOKK FPL, SW","FM-12","99999","V020","999,9,C,0000,1","99999,9,9,N","050000,1,N,1","-0083,1","-0086,1","10100,1",,,"04,1,+00990,1,99,9",,,,"99999,9,09748,1","2,1,006,1,+999,9","SYN070AAXX  15211 02151 45584 /0000 11083 21086 39748 40100 52006 333 84/33;",
"02151099999","2010-02-16T00:00:00","4","66.4833333","20.1666666","275.0","JOKKMOKK FPL, SW","FM-12","99999","V020","030,1,N,0010,1","01410,1,C,N","050000,1,N,1","-0093,1","-0103,1","10105,1",,,"08,1,+01410,1,99,9",,,,"99999,9,09752,1","2,1,004,1,+999,9","SYN070AAXX  16001 02151 45684 /0301 11093 21103 39752 40105 52004 333 88/47;",
"02151099999","2010-02-16T03:00:00","4","66.4833333","20.1666666","275.0","JOKKMOKK FPL, SW","FM-12","99999","V020","999,9,C,0000,1","99999,9,9,N","045000,1,N,1","-0092,1","-0099,1","10114,1",,,"01,1,+00840,1,99,9",,,,"99999,9,09760,1","2,1,008,1,+999,9","SYN076AAXX  16031 02151 45583 /0000 11092 21099 39760 40114 52008 333 81/28 88/50;",
"02151099999","2010-02-16T06:00:00","4","66.4833333","20.1666666","275.0","JOKKMOKK FPL, SW","FM-12","99999","V020","999,9,C,0000,1","99999,9,9,N","050000,1,N,1","-0089,1","-0092,1","10125,1",,,"01,1,+00540,1,99,9",,"120,M,-0042,1","999,N,-0104,1","99999,9,09771,1","2,1,011,1,+999,9","SYN088AAXX  16061 02151 45484 /0000 11089 21092 39771 40125 52011 333 11042 21104 81/18 88/50;",
"02151099999","2010-02-16T09:00:00","4","66.4833333","20.1666666","275.0","JOKKMOKK FPL, SW","FM-12","99999","V020","100,1,N,0020,1","99999,9,9,N","016000,1,N,1","-0076,1","-0087,1","10140,1","71,1","7,1,03,1","04,1,+00210,1,99,9",,,,"99999,9,09788,1","2,1,016,1,+999,9","SYN082AAXX  16091 02151 47366 /1002 11076 21087 39788 40140 52016 77170 333 84/07 88/11;",
"02151099999","2010-02-16T12:00:00","4","66.4833333","20.1666666","275.0","JOKKMOKK FPL, SW","FM-12","99999","V020","070,1,N,0020,1","00120,1,C,N","001400,1,N,1","-0080,1","-0099,1","10154,1","71,1","7,1,06,1","05,1,+00120,1,99,9","07,1,+00180,1,99,9",,,"99999,9,09800,1","2,1,013,1,+999,9","SYN088AAXX  16121 02151 47214 /0702 11080 21099 39800 40154 52013 77170 333 85/04 87/06 88/17;",
"02151099999","2010-02-16T15:00:00","4","66.4833333","20.1666666","275.0","JOKKMOKK FPL, SW","FM-12","99999","V020","140,1,N,0010,1","99999,9,9,N","009000,1,N,1","-0116,1","-0122,1","10164,1","85,1","8,1,03,1",,,,,"99999,9,09805,1","2,1,005,1,+999,9","SYN066AAXX  16151 02151 47/59 /1401 11116 21122 39805 40164 52005 78587;",
"02151099999","2010-02-16T18:00:00","4","66.4833333","20.1666666","275.0","JOKKMOKK FPL, SW","FM-12","99999","V020","140,1,N,0010,1","01800,1,C,N","040000,1,N,1","-0158,1","-0174,1","10180,1","00,1","8,1,06,1","07,1,+01800,1,99,9",,"120,M,-0072,1","999,N,-0171,1","99999,9,09815,1","2,1,010,1,+999,9","SYN088AAXX  16181 02151 47882 /1401 11158 21174 39815 40180 52010 70087 333 11072 21171 87/56;",
"02151099999","2010-02-16T21:00:00","4","66.4833333","20.1666666","275.0","JOKKMOKK FPL, SW","FM-12","99999","V020","140,1,N,0010,1","99999,9,9,N","030000,1,N,1","-0141,1","-0151,1","10187,1","00,1","8,1,03,1","01,1,+00480,1,99,9",,,,"99999,9,09824,1","2,1,009,1,+999,9","SYN082AAXX  16211 02151 47480 /1401 11141 21151 39824 40187 52009 70087 333 81/16 88/56;",
"02151099999","2010-02-17T00:00:00","4","66.4833333","20.1666666","275.0","JOKKMOKK FPL, SW","FM-12","99999","V020","140,1,N,0020,1","99999,9,9,N","006000,1,N,1","-0130,1","-0138,1","10190,1","71,1","8,1,06,1","04,1,+00150,1,99,9",,,,"99999,9,09829,1","2,1,005,1,+999,9","SYN082AAXX  17001 02151 47256 /1402 11130 21138 39829 40190 52005 77187 333 84/05 88/57;",
"02151099999","2010-02-17T03:00:00","4","66.4833333","20.1666666","275.0","JOKKMOKK FPL, SW","FM-12","99999","V020","130,1,N,0010,1","00060,1,C,N","001300,1,N,1","-0132,1","-0140,1","10192,1","71,1","7,1,03,1","08,1,+00060,1,99,9",,,,"99999,9,09831,1","3,1,002,1,+999,9","SYN076AAXX  17031 02151 47113 /1301 11132 21140 39831 40192 53002 77177 333 88/02;",
"02151099999","2010-02-17T06:00:00","4","66.4833333","20.1666666","275.0","JOKKMOKK FPL, SW","FM-12","99999","V020","110,1,N,0010,1","00060,1,C,N","004000,1,N,1","-0148,1","-0158,1","10194,1","71,1","7,1,06,1","06,1,+00060,1,99,9","07,1,+00960,1,99,9","120,M,-0128,1","999,N,-0168,1","99999,9,09830,1","5,1,001,1,+999,9","SYN100AAXX  17061 02151 47140 /1101 11148 21158 39830 40194 55001 77177 333 11128 21168 86/02 87/32 88/59;",
"02151099999","2010-02-17T09:00:00","4","66.4833333","20.1666666","275.0","JOKKMOKK FPL, SW","FM-12","99999","V020","140,1,N,0020,1","99999,9,9,N","023000,1,N,1","-0150,1","-0163,1","10198,1","85,1","8,1,03,1",,,,,"99999,9,09834,1","2,1,004,1,+999,9","SYN066AAXX  17091 02151 47973 /1402 11150 21163 39834 40198 52004 78587;",
"02151099999","2010-02-17T12:00:00","4","66.4833333","20.1666666","275.0","JOKKMOKK FPL, SW","FM-12","99999","V020","140,1,N,0030,1","00210,1,C,N","035000,1,N,1","-0144,1","-0158,1","10191,1","71,1","8,1,06,1","02,1,+00120,1,99,9","04,1,+00210,1,99,9",,,"99999,9,09828,1","8,1,006,1,+999,9","SYN088AAXX  17121 02151 47281 /1403 11144 21158 39828 40191 58006 77187 333 82/04 84/07 88/58;",
"02151099999","2010-02-17T15:00:00","4","66.4833333","20.1666666","275.0","JOKKMOKK FPL, SW","FM-12","99999","V020","130,1,N,0020,1","99999,9,9,N","022000,1,N,1","-0166,1","-0181,1","10189,1","71,1","8,1,03,1","02,1,+00120,1,99,9",,,,"99999,9,09823,1","7,1,005,1,+999,9","SYN082AAXX  17151 02151 47272 /1302 11166 21181 39823 40189 57005 77187 333 82/04 88/62;",
"02151099999","2010-02-17T18:00:00","4","66.4833333","20.1666666","275.0","JOKKMOKK FPL, SW","FM-12","99999","V020","110,1,N,0010,1","00420,1,C,N","010000,1,N,1","-0174,1","-0186,1","10185,1","71,1","8,1,06,1","09,1,+00420,1,99,9",,"120,M,-0142,1","999,N,-0174,1","99999,9,09818,1","7,1,005,1,+999,9","SYN088AAXX  17181 02151 47/60 /1101 11174 21186 39818 40185 57005 77187 333 11142 21174 89/14;",
"02151099999","2010-02-17T21:00:00","4","66.4833333","20.1666666","275.0","JOKKMOKK FPL, SW","FM-12","99999","V020","110,1,N,0010,1","00090,1,C,N","002500,1,N,1","-0179,1","-0193,1","10182,1","71,1","7,1,03,1","08,1,+00090,1,99,9",,,,"99999,9,09815,1","7,1,003,1,+999,9","SYN076AAXX  17211 02151 47125 /1101 11179 21193 39815 40182 57003 77177 333 88/03;",
"02151099999","2010-02-18T00:00:00","4","66.4833333","20.1666666","275.0","JOKKMOKK FPL, SW","FM-12","99999","V020","130,1,N,0020,1","00060,1,C,N","004700,1,N,1","-0187,1","-0202,1","10177,1","71,1","7,1,06,1","08,1,+00060,1,99,9",,,,"99999,9,09808,1","7,1,006,1,+999,9","SYN076AAXX  18001 02151 47147 /1302 11187 21202 39808 40177 57006 77177 333 88/02;",
"02151099999","2010-02-18T03:00:00","4","66.4833333","20.1666666","275.0","JOKKMOKK FPL, SW","FM-12","99999","V020","140,1,N,0010,1","00090,1,C,N","005000,1,N,1","-0191,1","-0206,1","10169,1","71,1","7,1,03,1","07,1,+00090,1,99,9",,,,"99999,9,09800,1","8,1,009,1,+999,9","SYN082AAXX  18031 02151 47150 /1401 11191 21206 39800 40169 58009 77177 333 87/03 88/04;",
"02151099999","2010-02-18T06:00:00","4","66.4833333","20.1666666","275.0","JOKKMOKK FPL, SW","FM-12","99999","V020","100,1,N,0010,1","00060,1,C,N","003200,1,N,1","-0193,1","-0208,1","10166,1","71,1","7,1,06,1","08,1,+00060,1,99,9",,"120,M,-0174,1","999,N,-0193,1","99999,9,09797,1","7,1,003,1,+999,9","SYN088AAXX  18061 02151 47132 /1001 11193 21208 39797 40166 57003 77177 333 11174 21193 88/02;",
"02151099999","2010-02-18T09:00:00","4","66.4833333","20.1666666","275.0","JOKKMOKK FPL, SW","FM-12","99999","V020","150,1,N,0020,1","00060,1,C,N","004100,1,N,1","-0187,1","-0205,1","10173,1","71,1","7,1,03,1","08,1,+00060,1,99,9",,,,"99999,9,09805,1","2,1,008,1,+999,9","SYN076AAXX  18091 02151 47141 /1502 11187 21205 39805 40173 52008 77177 333 88/02;",
"02151099999","2010-02-18T12:00:00","4","66.4833333","20.1666666","275.0","JOKKMOKK FPL, SW","FM-12","99999","V020","160,1,N,0010,1","00060,1,C,N","005000,1,N,1","-0173,1","-0193,1","10172,1","71,1","7,1,06,1","07,1,+00060,1,99,9",,,,"99999,9,09806,1","4,1,000,1,+999,9","SYN082AAXX  18121 02151 47150 /1601 11173 21193 39806 40172 54001 77177 333 87/02 88/07;",
"02151099999","2010-02-18T15:00:00","4","66.4833333","20.1666666","275.0","JOKKMOKK FPL, SW","FM-12","99999","V020","160,1,N,0010,1","03600,1,C,N","017000,1,N,1","-0192,1","-0208,1","10170,1","71,1","7,1,03,1","08,1,+03600,1,99,9",,,,"99999,9,09801,1","7,1,005,1,+999,9","SYN076AAXX  18151 02151 47967 /1601 11192 21208 39801 40170 57005 77177 333 88/62;",
"02151099999","2010-02-18T18:00:00","4","66.4833333","20.1666666","275.0","JOKKMOKK FPL, SW","FM-12","99999","V020","999,9,C,0000,1","99999,9,9,N","011000,1,N,1","-0220,1","-0236,1","10180,1","77,1","7,1,06,1","01,1,+00480,1,99,9",,"120,M,-0170,1","999,N,-0224,1","99999,9,09807,1","2,1,006,1,+999,9","SYN094AAXX  18181 02151 47461 /0000 11220 21236 39807 40180 52006 77777 333 11170 21224 81/16 88/62;",
"02151099999","2010-02-18T21:00:00","4","66.4833333","20.1666666","275.0","JOKKMOKK FPL, SW","FM-12","99999","V020","999,9,C,0000,1","99999,9,9,N","050000,1,N,1","-0237,1","-0254,1","10185,1","00,1","7,1,03,1",,,,,"99999,9,09808,1","2,1,001,1,+999,9","SYN066AAXX  18211 02151 47984 /0000 11237 21254 39808 40185 52001 70072;",
"02151099999","2010-02-19T00:00:00","4","66.4833333","20.1666666","275.0","JOKKMOKK FPL, SW","FM-12","99999","V020","280,1,N,0010,1","99999,9,9,N","019000,1,N,1","-0257,1","-0277,1","10192,1","78,1","7,1,06,1",,,,,"99999,9,09812,1","2,1,004,1,+999,9","SYN066AAXX  19001 02151 47969 /2801 11257 21277 39812 40192 52004 77872;",
"02151099999","2010-02-19T03:00:00","4","66.4833333","20.1666666","275.0","JOKKMOKK FPL, SW","FM-12","99999","V020","270,1,N,0010,1","99999,9,9,N","025000,1,N,1","-0244,1","-0263,1","10187,1","71,1","7,1,03,1","03,1,+02400,1,99,9",,,,"99999,9,09810,1","7,1,003,1,+999,9","SYN082AAXX  19031 02151 47975 /2701 11244 21263 39810 40187 57003 77177 333 83/58 87/61;",
"02151099999","2010-02-19T06:00:00","4","66.4833333","20.1666666","275.0","JOKKMOKK FPL, SW","FM-12","99999","V020","999,9,C,0000,1","03000,1,C,N","014000,1,N,1","-0248,1","-0268,1","10186,1","71,1","7,1,06,1","08,1,+03000,1,99,9",,"120,M,-0216,1","999,N,-0278,1","99999,9,09808,1","5,1,001,1,+999,9","SYN088AAXX  19061 02151 47964 /0000 11248 21268 39808 40186 55001 77172 333 11216 21278 88/60;",
"02151099999","2010-02-19T09:00:00","4","66.4833333","20.1666666","275.0","JOKKMOKK FPL, SW","FM-12","99999","V020","999,9,C,0000,1","00720,1,C,N","006000,1,N,1","-0229,1","-0249,1","10193,1","71,1","7,1,03,1","09,1,+00720,1,99,9",,,,"99999,9,09818,1","2,1,009,1,+999,9","SYN076AAXX  19091 02151 47/56 /0000 11229 21249 39818 40193 52009 77177 333 89/24;",
"02151099999","2010-02-19T12:00:00","4","66.4833333","20.1666666","275.0","JOKKMOKK FPL, SW","FM-12","99999","V020","330,1,N,0010,1","00090,1,C,N","002300,1,N,1","-0188,1","-0206,1","10188,1","71,1","7,1,06,1","06,1,+00090,1,99,9",,,,"99999,9,09818,1","0,1,001,1,+999,9","SYN082AAXX  19121 02151 47123 /3301 11188 21206 39818 40188 50001 77177 333 86/03 88/11;",
"02151099999","2010-02-19T18:00:00","4","66.4833333","20.1666666","275.0","JOKKMOKK FPL, SW","FM-12","99999","V020","120,1,N,0010,1","00570,1,C,N","012000,1,N,1","-0195,1","-0210,1","10198,1","71,1","7,1,06,1","08,1,+00570,1,99,9",,"120,M,-0177,1","999,N,-0250,1","99999,9,09827,1","3,1,010,1,+999,9","SYN088AAXX  19181 02151 47462 /1201 11195 21210 39827 40198 53010 77177 333 11177 21250 88/19;",
"02151099999","2010-02-19T21:00:00","4","66.4833333","20.1666666","275.0","JOKKMOKK FPL, SW","FM-12","99999","V020","150,1,N,0010,1","00840,1,C,N","016000,1,N,1","-0210,1","-0226,1","10209,1","71,1","7,1,03,1","02,1,+00150,1,99,9","06,1,+00840,1,99,9",,,"99999,9,09835,1","3,1,008,1,+999,9","SYN088AAXX  19211 02151 47266 /1501 11210 21226 39835 40209 53008 77177 333 82/05 86/28 88/37;",
"02151099999","2010-02-20T00:00:00","4","66.4833333","20.1666666","275.0","JOKKMOKK FPL, SW","FM-12","99999","V020","999,9,C,0000,1","00210,1,C,N","003500,1,N,1","-0257,1","-0279,1","10224,1","71,1","7,1,06,1","03,1,+00090,1,99,9","05,1,+00210,1,99,9",,,"99999,9,09843,1","3,1,008,1,+999,9","SYN088AAXX  20001 02151 47235 /0000 11257 21279 39843 40224 53008 77172 333 83/03 85/07 87/16;",
"02151099999","2010-02-20T03:00:00","4","66.4833333","20.1666666","275.0","JOKKMOKK FPL, SW","FM-12","99999","V020","999,9,C,0000,1","99999,9,9,N","006000,1,N,1","-0262,1","-0284,1","10226,1","71,1","7,1,03,1","02,1,+00570,1,99,9",,,,"99999,9,09844,1","2,1,001,1,+999,9","SYN082AAXX  20031 02151 47456 /0000 11262 21284 39844 40226 52001 77177 333 82/19 88/49;",
"02151099999","2010-02-20T06:00:00","4","66.4833333","20.1666666","275.0","JOKKMOKK FPL, SW","FM-12","99999","V020","999,9,C,0000,1","00840,1,C,N","005000,1,N,1","-0247,1","-0267,1","10226,1","77,1","7,1,06,1","09,1,+00840,1,99,9",,"120,M,-0189,1","999,N,-0274,1","99999,9,09846,1","3,1,002,1,+999,9","SYN088AAXX  20061 02151 47/50 /0000 11247 21267 39846 40226 53002 77777 333 11189 21274 89/28;",
"02151099999","2010-02-20T09:00:00","4","66.4833333","20.1666666","275.0","JOKKMOKK FPL, SW","FM-12","99999","V020","999,9,C,0000,1","99999,9,9,N","014000,1,N,1","-0234,1","-0254,1","10230,1","85,1","8,1,03,1","02,1,+00090,1,99,9",,,,"99999,9,09852,1","1,1,006,1,+999,9","SYN082AAXX  20091 02151 47264 /0000 11234 21254 39852 40230 51006 78587 333 82/03 83/74;",
"02151099999","2010-02-20T12:00:00","4","66.4833333","20.1666666","275.0","JOKKMOKK FPL, SW","FM-12","99999","V020","999,9,C,0000,1","99999,9,9,N","040000,1,N,1","-0213,1","-0234,1","10230,1","00,1","8,1,06,1","02,1,+01410,1,99,9",,,,"99999,9,09856,1","2,1,003,1,+999,9","SYN076AAXX  20121 02151 47682 /0000 11213 21234 39856 40230 52003 70087 333 82/47;",
"02151099999","2010-02-20T15:00:00","4","66.4833333","20.1666666","275.0","JOKKMOKK FPL, SW","FM-12","99999","V020","340,1,N,0010,1","99999,9,9,N","050000,1,N,1","-0236,1","-0263,1","10226,1",,,,,,,"99999,9,09849,1","7,1,007,1,+999,9","SYN060AAXX  20151 02151 45984 /3401 11236 21263 39849 40226 57007;",
"02151099999","2010-02-20T18:00:00","4","66.4833333","20.1666666","275.0","JOKKMOKK FPL, SW","FM-12","99999","V020","999,9,C,0000,1","01020,1,C,N","050000,1,N,1","-0262,1","-0283,1","10229,1",,,"08,1,+01020,1,99,9",,"120,M,-0192,1","999,N,-0283,1","99999,9,09847,1","7,1,001,1,+999,9","SYN082AAXX  20181 02151 45684 /0000 11262 21283 39847 40229 57001 333 11192 21283 88/34;",
"02151099999","2010-02-20T21:00:00","4","66.4833333","20.1666666","275.0","JOKKMOKK FPL, SW","FM-12","99999","V020","270,1,N,0010,1","99999,9,9,N","050000,1,N,1","-0288,1","-0311,1","10228,1",,,,,,,"99999,9,09842,1","7,1,005,1,+999,9","SYN060AAXX  20211 02151 45984 /2701 11288 21311 39842 40228 57005;",
"02151099999","2010-02-21T00:00:00","4","66.4833333","20.1666666","275.0","JOKKMOKK FPL, SW","FM-12","99999","V020","270,1,N,0010,1","99999,9,9,N","050000,1,N,1","-0299,1","-0325,1","10224,1",,,"01,1,+00120,1,99,9","03,1,+00210,1,99,9",,,"99999,9,09836,1","7,1,006,1,+999,9","SYN082AAXX  21001 02151 45284 /2701 11299 21325 39836 40224 57006 333 81/04 83/07 86/16;",
"02151099999","2010-02-21T03:00:00","4","66.4833333","20.1666666","275.0","JOKKMOKK FPL, SW","FM-12","99999","V020","999,9,C,0000,1","99999,9,9,N","045000,1,N,1","-0298,1","-0323,1","10208,1","71,1","7,1,03,1",,,,,"99999,9,09821,1","7,1,015,1,+999,9","SYN066AAXX  21031 02151 47983 /0000 11298 21323 39821 40208 57015 77170;",
"02151099999","2010-02-21T06:00:00","4","66.4833333","20.1666666","275.0","JOKKMOKK FPL, SW","FM-12","99999","V020","260,1,N,0010,1","99999,9,9,N","050000,1,N,1","-0301,1","-0326,1","10198,1","00,1","8,1,06,1",,,"120,M,-0261,1","999,N,-0318,1","99999,9,09811,1","7,1,010,1,+999,9","SYN082AAXX  21061 02151 47984 /2601 11301 21326 39811 40198 57010 70087 333 11261 21318;",
"02151099999","2010-02-21T09:00:00","4","66.4833333","20.1666666","275.0","JOKKMOKK FPL, SW","FM-12","99999","V020","999,9,C,0000,1","99999,9,9,N","050000,1,N,1","-0262,1","-0284,1","10184,1",,,,,,,"99999,9,09804,1","8,1,007,1,+999,9","SYN060AAXX  21091 02151 45984 /0000 11262 21284 39804 40184 58007;",
"02151099999","2010-02-21T12:00:00","4","66.4833333","20.1666666","275.0","JOKKMOKK FPL, SW","FM-12","99999","V020","340,1,N,0010,1","00390,1,C,N","045000,1,N,1","-0224,1","-0243,1","10162,1",,,"07,1,+00390,1,99,9",,,,"99999,9,09789,1","8,1,015,1,+999,9","SYN070AAXX  21121 02151 45483 /3401 11224 21243 39789 40162 58015 333 87/13;",
"02151099999","2010-02-21T15:00:00","4","66.4833333","20.1666666","275.0","JOKKMOKK FPL, SW","FM-12","99999","V020","999,9,C,0000,1","99999,9,9,N","050000,1,N,1","-0216,1","-0232,1","10141,1",,,,,,,"99999,9,09769,1","7,1,019,1,+999,9","SYN060AAXX  21151 02151 45984 /0000 11216 21232 39769 40141 57019;",
"02151099999","2010-02-21T18:00:00","4","66.4833333","20.1666666","275.0","JOKKMOKK FPL, SW","FM-12","99999","V020","050,1,N,0010,1","99999,9,9,N","050000,1,N,1","-0182,1","-0201,1","10119,1",,,"01,1,+00990,1,99,9",,"120,M,-0182,1","999,N,-0333,1","99999,9,09753,1","7,1,016,1,+999,9","SYN082AAXX  21181 02151 45584 /0501 11182 21201 39753 40119 57016 333 11182 21333 81/33;",
"02151099999","2010-02-21T21:00:00","4","66.4833333","20.1666666","275.0","JOKKMOKK FPL, SW","FM-12","99999","V020","060,1,N,0040,1","00720,1,C,N","004800,1,N,1","-0162,1","-0178,1","10086,1","71,1","7,1,03,1","09,1,+00720,1,99,9",,,,"99999,9,09724,1","7,1,029,1,+999,9","SYN076AAXX  21211 02151 47/48 /0604 11162 21178 39724 40086 57029 77170 333 89/24;",
"02151099999","2010-02-22T00:00:00","4","66.4833333","20.1666666","275.0","JOKKMOKK FPL, SW","FM-12","99999","V020","060,1,N,0040,1","01110,1,C,N","002600,1,N,1","-0169,1","-0184,1","10072,1","71,1","7,1,06,1","09,1,+01110,1,99,9",,,,"99999,9,09709,1","8,1,014,1,+999,9","SYN076AAXX  22001 02151 47/26 /0604 11169 21184 39709 40072 58014 77170 333 89/37;",
"02151099999","2010-02-22T03:00:00","4","66.4833333","20.1666666","275.0","JOKKMOKK FPL, SW","FM-12","99999","V020","060,1,N,0030,1","99999,9,9,N","011000,1,N,1","-0171,1","-0186,1","10055,1","77,1","7,1,03,1","02,1,+00450,1,99,9",,,,"99999,9,09693,1","7,1,017,1,+999,9","SYN082AAXX  22031 02151 47461 /0603 11171 21186 39693 40055 57017 77777 333 82/15 88/56;",
"02151099999","2010-02-22T06:00:00","4","66.4833333","20.1666666","275.0","JOKKMOKK FPL, SW","FM-12","99999","V020","060,1,N,0030,1","00720,1,C,N","007000,1,N,1","-0174,1","-0190,1","10043,1","71,1","7,1,06,1","09,1,+00720,1,99,9",,"120,M,-0161,1","999,N,-0184,1","99999,9,09681,1","7,1,012,1,+999,9","SYN088AAXX  22061 02151 47/57 /0603 11174 21190 39681 40043 57012 77177 333 11161 21184 89/24;",
"02151099999","2010-02-22T09:00:00","4","66.4833333","20.1666666","275.0","JOKKMOKK FPL, SW","FM-12","99999","V020","060,1,N,0040,1","00600,1,C,N","004900,1,N,1","-0177,1","-0194,1","10039,1","71,1","7,1,03,1","06,1,+00600,1,99,9","07,1,+00960,1,99,9",,,"99999,9,09677,1","7,1,004,1,+999,9","SYN088AAXX  22091 02151 47549 /0604 11177 21194 39677 40039 57004 77177 333 86/20 87/32 88/56;",
"02151099999","2010-02-22T12:00:00","4","66.4833333","20.1666666","275.0","JOKKMOKK FPL, SW","FM-12","99999","V020","050,1,N,0020,1","00330,1,C,N","003200,1,N,1","-0177,1","-0195,1","10034,1","71,1","7,1,06,1","09,1,+00330,1,99,9",,,,"99999,9,09672,1","7,1,005,1,+999,9","SYN076AAXX  22121 02151 47/32 /0502 11177 21195 39672 40034 57005 77177 333 89/11;",
"02151099999","2010-02-22T15:00:00","4","66.4833333","20.1666666","275.0","JOKKMOKK FPL, SW","FM-12","99999","V020","050,1,N,0010,1","01320,1,C,N","013000,1,N,1","-0185,1","-0201,1","10031,1","71,1","8,1,03,1","09,1,+01320,1,99,9",,,,"99999,9,09668,1","7,1,004,1,+999,9","SYN076AAXX  22151 02151 47/63 /0501 11185 21201 39668 40031 57004 77187 333 89/44;",
"02151099999","2010-02-22T18:00:00","4","66.4833333","20.1666666","275.0","JOKKMOKK FPL, SW","FM-12","99999","V020","020,1,N,0010,1","00720,1,C,N","005000,1,N,1","-0197,1","-0212,1","10031,1","71,1","8,1,06,1","09,1,+00720,1,99,9",,"120,M,-0172,1","999,N,-0201,1","99999,9,09666,1","7,1,002,1,+999,9","SYN088AAXX  22181 02151 47/50 /0201 11197 21212 39666 40031 57002 77187 333 11172 21201 89/24;",
"02151099999","2010-02-22T21:00:00","4","66.4833333","20.1666666","275.0","JOKKMOKK FPL, SW","FM-12","99999","V020","310,1,N,0010,1","99999,9,9,N","030000,1,N,1","-0224,1","-0241,1","10032,1","71,1","7,1,03,1","01,1,+00150,1,99,9",,,,"99999,9,09663,1","7,1,003,1,+999,9","SYN076AAXX  22211 02151 47280 /3101 11224 21241 39663 40032 57003 77177 333 81/05;",
"02151099999","2010-02-23T00:00:00","4","66.4833333","20.1666666","275.0","JOKKMOKK FPL, SW","FM-12","99999","V020","999,9,C,0000,1","99999,9,9,N","009000,1,N,1","-0247,1","-0267,1","10030,1","71,1","7,1,06,1","01,1,+00240,1,99,9",,,,"99999,9,09658,1","7,1,005,1,+999,9","SYN082AAXX  23001 02151 47359 /0000 11247 21267 39658 40030 57005 77177 333 81/08 85/59;",
"02151099999","2010-02-23T03:00:00","4","66.4833333","20.1666666","275.0","JOKKMOKK FPL, SW","FM-12","99999","V020","999,9,C,0000,1","00720,1,C,N","012000,1,N,1","-0263,1","-0285,1","10027,1","71,1","7,1,03,1","09,1,+00720,1,99,9",,,,"99999,9,09653,1","7,1,005,1,+999,9","SYN076AAXX  23031 02151 47/62 /0000 11263 21285 39653 40027 57005 77177 333 89/24;",
"02151099999","2010-02-23T06:00:00","4","66.4833333","20.1666666","275.0","JOKKMOKK FPL, SW","FM-12","99999","V020","999,9,C,0000,1","99999,9,9,N","011000,1,N,1","-0272,1","-0295,1","10025,1","71,1","7,1,06,1","01,1,+00150,1,99,9",,"120,M,-0195,1","999,N,-0273,1","99999,9,09649,1","7,1,004,1,+999,9","SYN088AAXX  23061 02151 47261 /0000 11272 21295 39649 40025 57004 77177 333 11195 21273 81/05;",
"02151099999","2010-02-23T09:00:00","4","66.4833333","20.1666666","275.0","JOKKMOKK FPL, SW","FM-12","99999","V020","300,1,N,0010,1","99999,9,9,N","015000,1,N,1","-0246,1","-0267,1","10021,1","77,1","7,1,03,1","02,1,+00210,1,99,9",,,,"99999,9,09650,1","4,1,000,1,+999,9","SYN082AAXX  23091 02151 47365 /3001 11246 21267 39650 40021 54001 77777 333 82/07 83/13;",
"02151099999","2010-02-23T12:00:00","4","66.4833333","20.1666666","275.0","JOKKMOKK FPL, SW","FM-12","99999","V020","300,1,N,0010,1","99999,9,9,N","040000,1,N,1","-0215,1","-0235,1","10014,1","00,1","7,1,06,1",,,,,"99999,9,09647,1","7,1,003,1,+999,9","SYN066AAXX  23121 02151 47982 /3001 11215 21235 39647 40014 57003 70072;",
"02151099999","2010-02-23T15:00:00","4","66.4833333","20.1666666","275.0","JOKKMOKK FPL, SW","FM-12","99999","V020","999,9,C,0000,1","99999,9,9,N","050000,1,N,1","-0233,1","-0252,1","10015,1",,,,,,,"99999,9,09646,1","7,1,001,1,+999,9","SYN060AAXX  23151 02151 45984 /0000 11233 21252 39646 40015 57001;",
"02151099999","2010-02-23T18:00:00","4","66.4833333","20.1666666","275.0","JOKKMOKK FPL, SW","FM-12","99999","V020","999,9,C,0000,1","99999,9,9,N","050000,1,N,1","-0301,1","-0327,1","10025,1",,,,,"120,M,-0206,1","999,N,-0308,1","99999,9,09645,1","5,1,000,1,+999,9","SYN076AAXX  23181 02151 45984 /0000 11301 21327 39645 40025 55000 333 11206 21308;",
"02151099999","2010-02-23T21:00:00","4","66.4833333","20.1666666","275.0","JOKKMOKK FPL, SW","FM-12","99999","V020","999,9,C,0000,1","99999,9,9,N","050000,1,N,1","-0319,1","-0347,1","10029,1",,,,,,,"99999,9,09646,1","4,1,000,1,+999,9","SYN060AAXX  23211 02151 45984 /0000 11319 21347 39646 40029 54001;",
"02151099999","2010-02-24T00:00:00","4","66.4833333","20.1666666","275.0","JOKKMOKK FPL, SW","FM-12","99999","V020","999,9,C,0000,1","99999,9,9,N","050000,1,N,1","-0336,1","-0364,1","10033,1",,,,,,,"99999,9,09647,1","4,1,000,1,+999,9","SYN060AAXX  24001 02151 45984 /0000 11336 21364 39647 40033 54001;",
"02151099999","2010-02-24T03:00:00","4","66.4833333","20.1666666","275.0","JOKKMOKK FPL, SW","FM-12","99999","V020","999,9,C,0000,1","99999,9,9,N","050000,1,N,1","-0332,1","-0361,1","10032,1","24,1","8,1,03,1",,,,,"99999,9,09647,1","5,1,000,1,+999,9","SYN066AAXX  24031 02151 47984 /0000 11332 21361 39647 40032 55000 72487;",
"02151099999","2010-02-24T06:00:00","4","66.4833333","20.1666666","275.0","JOKKMOKK FPL, SW","FM-12","99999","V020","999,9,C,0000,1","99999,9,9,N","019000,1,N,1","-0333,1","-0363,1","10030,1","00,1","8,1,06,1",,,"120,M,-0282,1","999,N,-0353,1","99999,9,09645,1","7,1,002,1,+999,9","SYN082AAXX  24061 02151 47969 /0000 11333 21363 39645 40030 57002 70087 333 11282 21353;",
"02151099999","2010-02-24T09:00:00","4","66.4833333","20.1666666","275.0","JOKKMOKK FPL, SW","FM-12","99999","V020","300,1,N,0020,1","99999,9,9,N","045000,1,N,1","-0284,1","-0309,1","10027,1","00,1","7,1,03,1",,,,,"99999,9,09649,1","2,1,004,1,+999,9","SYN066AAXX  24091 02151 47983 /3002 11284 21309 39649 40027 52004 70072;",
"02151099999","2010-02-24T12:00:00","4","66.4833333","20.1666666","275.0","JOKKMOKK FPL, SW","FM-12","99999","V020","340,1,N,0020,1","99999,9,9,N","035000,1,N,1","-0234,1","-0255,1","10018,1","00,1","7,1,06,1",,,,,"99999,9,09648,1","0,1,001,1,+999,9","SYN066AAXX  24121 02151 47981 /3402 11234 21255 39648 40018 50001 70072;",
"02151099999","2010-02-24T15:00:00","4","66.4833333","20.1666666","275.0","JOKKMOKK FPL, SW","FM-12","99999","V020","999,9,C,0000,1","99999,9,9,N","050000,1,N,1","-0241,1","-0262,1","10019,1",,,,,,,"99999,9,09648,1","0,1,000,1,+999,9","SYN060AAXX  24151 02151 45984 /0000 11241 21262 39648 40019 50000;",
"02151099999","2010-02-24T18:00:00","4","66.4833333","20.1666666","275.0","JOKKMOKK FPL, SW","FM-12","99999","V020","999,9,C,0000,1","99999,9,9,N","021000,1,N,1","-0271,1","-0294,1","10026,1",,,"03,1,+00750,1,99,9",,"120,M,-0205,1","999,N,-0339,1","99999,9,09650,1","2,1,002,1,+999,9","SYN082AAXX  24181 02151 45571 /0000 11271 21294 39650 40026 52002 333 11205 21339 83/25;",
"02151099999","2010-02-24T21:00:00","4","66.4833333","20.1666666","275.0","JOKKMOKK FPL, SW","FM-12","99999","V020","280,1,N,0010,1","99999,9,9,N","050000,1,N,1","-0280,1","-0303,1","10028,1",,,,,,,"99999,9,09651,1","2,1,001,1,+999,9","SYN060AAXX  24211 02151 45984 /2801 11280 21303 39651 40028 52001;",
"02151099999","2010-02-25T00:00:00","4","66.4833333","20.1666666","275.0","JOKKMOKK FPL, SW","FM-12","99999","V020","999,9,C,0000,1","99999,9,9,N","050000,1,N,1","-0295,1","-0319,1","10034,1",,,,,,,"99999,9,09655,1","2,1,004,1,+999,9","SYN060AAXX  25001 02151 45984 /0000 11295 21319 39655 40034 52004;",
"02151099999","2010-02-25T03:00:00","4","66.4833333","20.1666666","275.0","JOKKMOKK FPL, SW","FM-12","99999","V020","999,9,C,0000,1","99999,9,9,N","050000,1,N,1","-0306,1","-0332,1","10039,1",,,,,,,"99999,9,09658,1","2,1,003,1,+999,9","SYN060AAXX  25031 02151 45984 /0000 11306 21332 39658 40039 52003;",
"02151099999","2010-02-25T06:00:00","4","66.4833333","20.1666666","275.0","JOKKMOKK FPL, SW","FM-12","99999","V020","260,1,N,0020,1","99999,9,9,N","045000,1,N,1","-0296,1","-0321,1","10042,1",,,,,"120,M,-0264,1","999,N,-0329,1","99999,9,09662,1","3,1,004,1,+999,9","SYN076AAXX  25061 02151 45983 /2602 11296 21321 39662 40042 53004 333 11264 21329;",
"02151099999","2010-02-25T09:00:00","4","66.4833333","20.1666666","275.0","JOKKMOKK FPL, SW","FM-12","99999","V020","999,9,C,0000,1","99999,9,9,N","040000,1,N,1","-0250,1","-0272,1","10043,1",,,,,,,"99999,9,09670,1","3,1,008,1,+999,9","SYN060AAXX  25091 02151 45982 /0000 11250 21272 39670 40043 53008;",
"02151099999","2010-02-25T12:00:00","4","66.4833333","20.1666666","275.0","JOKKMOKK FPL, SW","FM-12","99999","V020","270,1,N,0010,1","99999,9,9,N","045000,1,N,1","-0184,1","-0209,1","10043,1",,,,,,,"99999,9,09680,1","2,1,009,1,+999,9","SYN060AAXX  25121 02151 45983 /2701 11184 21209 39680 40043 52009;",
"02151099999","2010-02-25T15:00:00","4","66.4833333","20.1666666","275.0","JOKKMOKK FPL, SW","FM-12","99999","V020","999,9,C,0000,1","99999,9,9,N","050000,1,N,1","-0194,1","-0214,1","10051,1",,,,,,,"99999,9,09685,1","3,1,006,1,+999,9","SYN060AAXX  25151 02151 45984 /0000 11194 21214 39685 40051 53006;",
"02151099999","2010-02-25T18:00:00","4","66.4833333","20.1666666","275.0","JOKKMOKK FPL, SW","FM-12","99999","V020","330,1,N,0010,1","99999,9,9,N","023000,1,N,1","-0255,1","-0279,1","10067,1","00,1","8,1,06,1",,,"120,M,-0153,1","999,N,-0316,1","99999,9,09692,1","3,1,007,1,+999,9","SYN082AAXX  25181 02151 47973 /3301 11255 21279 39692 40067 53007 70087 333 11153 21316;",
"02151099999","2010-02-25T21:00:00","4","66.4833333","20.1666666","275.0","JOKKMOKK FPL, SW","FM-12","99999","V020","290,1,N,0010,1","99999,9,9,N","050000,1,N,1","-0258,1","-0280,1","10072,1",,,,,,,"99999,9,09696,1","2,1,005,1,+999,9","SYN060AAXX  25211 02151 45984 /2901 11258 21280 39696 40072 52005;",
"02151099999","2010-02-26T00:00:00","4","66.4833333","20.1666666","275.0","JOKKMOKK FPL, SW","FM-12","99999","V020","260,1,N,0010,1","99999,9,9,N","050000,1,N,1","-0274,1","-0295,1","10079,1",,,,,,,"99999,9,09702,1","2,1,005,1,+999,9","SYN060AAXX  26001 02151 45984 /2601 11274 21295 39702 40079 52005;",
"02151099999","2010-02-26T03:00:00","4","66.4833333","20.1666666","275.0","JOKKMOKK FPL, SW","FM-12","99999","V020","270,1,N,0010,1","99999,9,9,N","050000,1,N,1","-0280,1","-0305,1","10083,1",,,,,,,"99999,9,09704,1","2,1,002,1,+999,9","SYN060AAXX  26031 02151 45984 /2701 11280 21305 39704 40083 52002;",
"02151099999","2010-02-26T06:00:00","4","66.4833333","20.1666666","275.0","JOKKMOKK FPL, SW","FM-12","99999","V020","270,1,N,0010,1","99999,9,9,N","050000,1,N,1","-0274,1","-0297,1","10082,1",,,,,"120,M,-0236,1","999,N,-0289,1","99999,9,09704,1","4,1,000,1,+999,9","SYN076AAXX  26061 02151 45984 /2701 11274 21297 39704 40082 54000 333 11236 21289;",
"02151099999","2010-02-26T09:00:00","4","66.4833333","20.1666666","275.0","JOKKMOKK FPL, SW","FM-12","99999","V020","999,9,C,0000,1","00060,1,C,N","008000,1,N,1","-0236,1","-0256,1","10080,1","71,1","8,1,03,1","08,1,+00060,1,99,9",,,,"99999,9,09708,1","2,1,004,1,+999,9","SYN076AAXX  26091 02151 47158 /0000 11236 21256 39708 40080 52004 77187 333 88/02;",
"02151099999","2010-02-26T12:00:00","4","66.4833333","20.1666666","275.0","JOKKMOKK FPL, SW","FM-12","99999","V020","360,1,N,0020,1","99999,9,9,N","004200,1,N,1","-0179,1","-0193,1","10069,1","71,1","8,1,06,1","04,1,+00060,1,99,9",,,,"99999,9,09705,1","8,1,003,1,+999,9","SYN082AAXX  26121 02151 47142 /3602 11179 21193 39705 40069 58003 77187 333 84/02 88/49;",
"02151099999","2010-02-26T15:00:00","4","66.4833333","20.1666666","275.0","JOKKMOKK FPL, SW","FM-12","99999","V020","999,9,C,0000,1","00060,1,C,N","002900,1,N,1","-0161,1","-0174,1","10061,1","71,1","7,1,03,1","08,1,+00060,1,99,9",,,,"99999,9,09700,1","8,1,005,1,+999,9","SYN076AAXX  26151 02151 47129 /0000 11161 21174 39700 40061 58005 77177 333 88/02;",
"02151099999","2010-02-26T18:00:00","4","66.4833333","20.1666666","275.0","JOKKMOKK FPL, SW","FM-12","99999","V020","999,9,C,0000,1","00090,1,C,N","002900,1,N,1","-0161,1","-0173,1","10056,1","85,1","8,1,06,1","06,1,+00090,1,99,9",,"120,M,-0158,1","999,N,-0277,1","99999,9,09695,1","7,1,005,1,+999,9","SYN094AAXX  26181 02151 47129 /0000 11161 21173 39695 40056 57005 78587 333 11158 21277 86/03 88/06;",
"02151099999","2010-02-26T21:00:00","4","66.4833333","20.1666666","275.0","JOKKMOKK FPL, SW","FM-12","99999","V020","999,9,C,0000,1","99999,9,9,N","003700,1,N,1","-0159,1","-0171,1","10049,1","71,1","8,1,03,1","04,1,+00060,1,99,9",,,,"99999,9,09688,1","7,1,006,1,+999,9","SYN082AAXX  26211 02151 47137 /0000 11159 21171 39688 40049 57006 77187 333 84/02 88/05;",
"02151099999","2010-02-27T00:00:00","4","66.4833333","20.1666666","275.0","JOKKMOKK FPL, SW","FM-12","99999","V020","320,1,N,0010,1","00990,1,C,N","003800,1,N,1","-0156,1","-0168,1","10039,1","71,1","8,1,06,1","09,1,+00990,1,99,9",,,,"99999,9,09680,1","8,1,009,1,+999,9","SYN076AAXX  27001 02151 47/38 /3201 11156 21168 39680 40039 58009 77187 333 89/33;",
"02151099999","2010-02-27T03:00:00","4","66.4833333","20.1666666","275.0","JOKKMOKK FPL, SW","FM-12","99999","V020","290,1,N,0010,1","00060,1,C,N","001100,1,N,1","-0156,1","-0167,1","10025,1","71,1","7,1,03,1","06,1,+00060,1,99,9","07,1,+00150,1,99,9",,,"99999,9,09666,1","8,1,014,1,+999,9","SYN088AAXX  27031 02151 47111 /2901 11156 21167 39666 40025 58014 77177 333 86/02 87/05 88/08;",
"02151099999","2010-02-27T06:00:00","4","66.4833333","20.1666666","275.0","JOKKMOKK FPL, SW","FM-12","99999","V020","310,1,N,0010,1","00390,1,C,N","001800,1,N,1","-0148,1","-0159,1","10018,1","71,1","7,1,06,1","03,1,+00060,1,99,9","05,1,+00390,1,99,9","120,M,-0148,1","999,N,-0167,1","99999,9,09660,1","7,1,006,1,+999,9","SYN100AAXX  27061 02151 47118 /3101 11148 21159 39660 40018 57006 77177 333 11148 21167 83/02 85/13 87/21;",
"02151099999","2010-02-27T09:00:00","4","66.4833333","20.1666666","275.0","JOKKMOKK FPL, SW","FM-12","99999","V020","300,1,N,0010,1","00090,1,C,N","004500,1,N,1","-0141,1","-0152,1","10019,1","71,1","7,1,03,1","05,1,+00090,1,99,9",,,,"99999,9,09662,1","2,1,002,1,+999,9","SYN082AAXX  27091 02151 47145 /3001 11141 21152 39662 40019 52002 77177 333 85/03 88/42;",
"02151099999","2010-02-27T12:00:00","4","66.4833333","20.1666666","275.0","JOKKMOKK FPL, SW","FM-12","99999","V020","300,1,N,0020,1","99999,9,9,N","035000,1,N,1","-0141,1","-0157,1","10021,1","24,1","7,1,06,1","01,1,+03600,1,99,9",,,,"99999,9,09664,1","0,1,002,1,+999,9","SYN076AAXX  27121 02151 47981 /3002 11141 21157 39664 40021 50002 72472 333 81/62;",
"02151099999","2010-02-27T15:00:00","4","66.4833333","20.1666666","275.0","JOKKMOKK FPL, SW","FM-12","99999","V020","999,9,C,0000,1","99999,9,9,N","045000,1,N,1","-0143,1","-0156,1","10025,1",,,,,,,"99999,9,09667,1","3,1,003,1,+999,9","SYN060AAXX  27151 02151 45983 /0000 11143 21156 39667 40025 53003;",
"02151099999","2010-02-27T18:00:00","4","66.4833333","20.1666666","275.0","JOKKMOKK FPL, SW","FM-12","99999","V020","999,9,C,0000,1","99999,9,9,N","050000,1,N,1","-0217,1","-0235,1","10039,1",,,,,"120,M,-0124,1","999,N,-0225,1","99999,9,09671,1","2,1,004,1,+999,9","SYN076AAXX  27181 02151 45984 /0000 11217 21235 39671 40039 52004 333 11124 21225;",
"02151099999","2010-02-27T21:00:00","4","66.4833333","20.1666666","275.0","JOKKMOKK FPL, SW","FM-12","99999","V020","230,1,N,0010,1","99999,9,9,N","050000,1,N,1","-0212,1","-0228,1","10046,1","00,1","8,1,03,1","01,1,+04200,1,99,9",,,,"99999,9,09679,1","2,1,008,1,+999,9","SYN076AAXX  27211 02151 47984 /2301 11212 21228 39679 40046 52008 70087 333 81/64;",
"02151099999","2010-02-28T00:00:00","4","66.4833333","20.1666666","275.0","JOKKMOKK FPL, SW","FM-12","99999","V020","360,1,N,0010,1","99999,9,9,N","050000,1,N,1","-0198,1","-0213,1","10047,1","00,1","8,1,06,1",,,,,"99999,9,09681,1","0,1,002,1,+999,9","SYN066AAXX  28001 02151 47984 /3601 11198 21213 39681 40047 50002 70087;",
"02151099999","2010-02-28T03:00:00","4","66.4833333","20.1666666","275.0","JOKKMOKK FPL, SW","FM-12","99999","V020","320,1,N,0010,1","04200,1,C,N","050000,1,N,1","-0194,1","-0209,1","10044,1",,,"07,1,+04200,1,99,9",,,,"99999,9,09679,1","5,1,002,1,+999,9","SYN070AAXX  28031 02151 45984 /3201 11194 21209 39679 40044 55002 333 87/64;",
"02151099999","2010-02-28T06:00:00","4","66.4833333","20.1666666","275.0","JOKKMOKK FPL, SW","FM-12","99999","V020","320,1,N,0010,1","99999,9,9,N","050000,1,N,1","-0188,1","-0203,1","10040,1",,,"01,1,+03000,1,99,9",,"120,M,-0180,1","999,N,-0239,1","99999,9,09676,1","7,1,003,1,+999,9","SYN082AAXX  28061 02151 45984 /3201 11188 21203 39676 40040 57003 333 11180 21239 81/60;",
"02151099999","2010-02-28T09:00:00","4","66.4833333","20.1666666","275.0","JOKKMOKK FPL, SW","FM-12","99999","V020","330,1,N,0020,1","99999,9,9,N","050000,1,N,1","-0164,1","-0177,1","10036,1",,,"01,1,+05700,1,99,9",,,,"99999,9,09676,1","4,1,000,1,+999,9","SYN070AAXX  28091 02151 45984 /3302 11164 21177 39676 40036 54000 333 81/69;",
"02151099999","2010-02-28T12:00:00","4","66.4833333","20.1666666","275.0","JOKKMOKK FPL, SW","FM-12","99999","V020","290,1,N,0010,1","99999,9,9,N","050000,1,N,1","-0130,1","-0145,1","10025,1",,,"04,1,+02700,1,99,9",,,,"99999,9,09670,1","7,1,006,1,+999,9","SYN070AAXX  28121 02151 45984 /2901 11130 21145 39670 40025 57006 333 84/59;",
"02151099999","2010-02-28T15:00:00","4","66.4833333","20.1666666","275.0","JOKKMOKK FPL, SW","FM-12","99999","V020","310,1,N,0020,1","02100,1,C,N","050000,1,N,1","-0117,1","-0131,1","10022,1",,,"07,1,+02100,1,99,9",,,,"99999,9,09668,1","5,1,002,1,+999,9","SYN070AAXX  28151 02151 45884 /3102 11117 21131 39668 40022 55002 333 87/57;",
"02151099999","2010-02-28T18:00:00","4","66.4833333","20.1666666","275.0","JOKKMOKK FPL, SW","FM-12","99999","V020","360,1,N,0030,1","01350,1,C,N","050000,1,N,1","-0113,1","-0142,1","10019,1",,,"08,1,+01350,1,99,9",,"120,M,-0107,1","999,N,-0195,1","99999,9,09666,1","7,1,002,1,+999,9","SYN082AAXX  28181 02151 45684 /3603 11113 21142 39666 40019 57002 333 11107 21195 88/45;",
"02151099999","2010-02-28T21:00:00","4","66.4833333","20.1666666","275.0","JOKKMOKK FPL, SW","FM-12","99999","V020","320,1,N,0030,1","01050,1,C,N","019000,1,N,1","-0117,1","-0139,1","10019,1","71,1","7,1,03,1","06,1,+01050,1,99,9",,,,"99999,9,09665,1","4,1,000,1,+999,9","SYN082AAXX  28211 02151 47669 /3203 11117 21139 39665 40019 54000 77170 333 86/35 88/50;",
"02151099999","2010-03-01T00:00:00","4","66.4833333","20.1666666","275.0","JOKKMOKK FPL, SW","FM-12","99999","V020","330,1,N,0040,1","01440,1,C,N","008000,1,N,1","-0111,1","-0131,1","10004,1","78,1","8,1,06,1","09,1,+01440,1,99,9",,,,"99999,9,09652,1","6,1,013,1,+999,9","SYN076AAXX  01001 02151 47/58 /3304 11111 21131 39652 40004 56013 77887 333 89/48;",
"02151099999","2010-03-01T03:00:00","4","66.4833333","20.1666666","275.0","JOKKMOKK FPL, SW","FM-12","99999","V020","340,1,N,0030,1","00870,1,C,N","050000,1,N,1","-0098,1","-0119,1","09994,1","78,1","8,1,03,1","07,1,+00870,1,99,9",,,,"99999,9,09643,1","7,1,009,1,+999,9","SYN082AAXX  01031 02151 47584 /3403 11098 21119 39643 49994 57009 77887 333 87/29 88/47;",
"02151099999","2010-03-01T06:00:00","4","66.4833333","20.1666666","275.0","JOKKMOKK FPL, SW","FM-12","99999","V020","330,1,N,0040,1","00390,1,C,N","001700,1,N,1","-0101,1","-0109,1","09992,1","71,1","8,1,06,1","09,1,+00390,1,99,9",,"120,M,-0097,1","999,N,-0118,1","99999,9,09641,1","8,1,002,1,+999,9","SYN088AAXX  01061 02151 47/17 /3304 11101 21109 39641 49992 58002 77187 333 11097 21118 89/13;",
"02151099999","2010-03-01T09:00:00","4","66.4833333","20.1666666","275.0","JOKKMOKK FPL, SW","FM-12","99999","V020","360,1,N,0030,1","00510,1,C,N","004700,1,N,1","-0089,1","-0099,1","09992,1","71,1","7,1,03,1","09,1,+00510,1,99,9",,,,"99999,9,09643,1","2,1,002,1,+999,9","SYN076AAXX  01091 02151 47/47 /3603 11089 21099 39643 49992 52002 77177 333 89/17;",
"02151099999","2010-03-01T12:00:00","4","66.4833333","20.1666666","275.0","JOKKMOKK FPL, SW","FM-12","99999","V020","350,1,N,0030,1","00450,1,C,N","002600,1,N,1","-0079,1","-0087,1","09992,1","71,1","7,1,06,1","09,1,+00450,1,99,9",,,,"99999,9,09644,1","4,1,000,1,+999,9","SYN076AAXX  01121 02151 47/26 /3503 11079 21087 39644 49992 54001 77177 333 89/15;",
"02151099999","2010-03-01T15:00:00","4","66.4833333","20.1666666","275.0","JOKKMOKK FPL, SW","FM-12","99999","V020","360,1,N,0020,1","00450,1,C,N","002400,1,N,1","-0078,1","-0085,1","09992,1","71,1","7,1,03,1","09,1,+00450,1,99,9",,,,"99999,9,09644,1","4,1,000,1,+999,9","SYN076AAXX  01151 02151 47/24 /3602 11078 21085 39644 49992 54000 77177 333 89/15;",
"02151099999","2010-03-01T18:00:00","4","66.4833333","20.1666666","275.0","JOKKMOKK FPL, SW","FM-12","99999","V020","350,1,N,0030,1","00690,1,C,N","008000,1,N,1","-0078,1","-0086,1","09997,1","71,1","7,1,06,1","01,1,+00420,1,99,9","05,1,+00690,1,99,9","120,M,-0077,1","999,N,-0102,1","99999,9,09649,1","2,1,005,1,+999,9","SYN100AAXX  01181 02151 47458 /3503 11078 21086 39649 49997 52005 77177 333 11077 21102 81/14 85/23 88/50;",
"02151099999","2010-03-01T21:00:00","4","66.4833333","20.1666666","275.0","JOKKMOKK FPL, SW","FM-12","99999","V020","340,1,N,0050,1","01230,1,C,N","003600,1,N,1","-0083,1","-0091,1","10001,1","71,1","7,1,03,1","09,1,+01230,1,99,9",,,,"99999,9,09653,1","2,1,004,1,+999,9","SYN076AAXX  01211 02151 47/36 /3405 11083 21091 39653 40001 52004 77177 333 89/41;",
"02151099999","2010-03-02T00:00:00","4","66.4833333","20.1666666","275.0","JOKKMOKK FPL, SW","FM-12","99999","V020","340,1,N,0060,1","99999,9,9,N","008000,1,N,1","-0087,1","-0096,1","10008,1","71,1","7,1,06,1","01,1,+00420,1,99,9","03,1,+00720,1,99,9",,,"99999,9,09659,1","2,1,006,1,+999,9","SYN088AAXX  02001 02151 47458 /3406 11087 21096 39659 40008 52006 77177 333 81/14 83/24 88/48;",
"02151099999","2010-03-02T03:00:00","4","66.4833333","20.1666666","275.0","JOKKMOKK FPL, SW","FM-12","99999","V020","340,1,N,0060,1","00750,1,C,N","002900,1,N,1","-0085,1","-0094,1","10012,1","71,1","7,1,03,1","09,1,+00750,1,99,9",,,,"99999,9,09663,1","2,1,004,1,+999,9","SYN076AAXX  02031 02151 47/29 /3406 11085 21094 39663 40012 52004 77177 333 89/25;",
"02151099999","2010-03-02T06:00:00","4","66.4833333","20.1666666","275.0","JOKKMOKK FPL, SW","FM-12","99999","V020","340,1,N,0050,1","99999,9,9,N","003500,1,N,1","-0082,1","-0092,1","10022,1","71,1","7,1,06,1","04,1,+00540,1,99,9",,"120,M,-0077,1","999,N,-0089,1","99999,9,09673,1","2,1,010,1,+999,9","SYN094AAXX  02061 02151 47435 /3405 11082 21092 39673 40022 52010 77177 333 11077 21089 84/18 88/25;",
"02151099999","2010-03-02T09:00:00","4","66.4833333","20.1666666","275.0","JOKKMOKK FPL, SW","FM-12","99999","V020","330,1,N,0060,1","99999,9,9,N","040000,1,N,1","-0073,1","-0098,1","10030,1","24,1","7,1,03,1","02,1,+01500,1,99,9",,,,"99999,9,09682,1","2,1,009,1,+999,9","SYN076AAXX  02091 02151 47782 /3306 11073 21098 39682 40030 52009 72472 333 82/50;",
"02151099999","2010-03-02T12:00:00","4","66.4833333","20.1666666","275.0","JOKKMOKK FPL, SW","FM-12","99999","V020","340,1,N,0060,1","01800,1,C,N","050000,1,N,1","-0067,1","-0095,1","10035,1","00,1","7,1,06,1","06,1,+01800,1,99,9",,,,"99999,9,09687,1","2,1,005,1,+999,9","SYN076AAXX  02121 02151 47784 /3406 11067 21095 39687 40035 52005 70072 333 86/56;",
"02151099999","2010-03-02T15:00:00","4","66.4833333","20.1666666","275.0","JOKKMOKK FPL, SW","FM-12","99999","V020","340,1,N,0070,1","99999,9,9,N","021000,1,N,1","-0066,1","-0096,1","10039,1","78,1","7,1,03,1","04,1,+00810,1,99,9",,,,"99999,9,09692,1","2,1,004,1,+999,9","SYN076AAXX  02151 02151 47571 /3407 11066 21096 39692 40039 52004 77870 333 84/27;",
"02151099999","2010-03-02T18:00:00","4","66.4833333","20.1666666","275.0","JOKKMOKK FPL, SW","FM-12","99999","V020","340,1,N,0070,1","01410,1,C,N","014000,1,N,1","-0077,1","-0112,1","10049,1","71,1","8,1,06,1","09,1,+01410,1,99,9",,"120,M,-0059,1","999,N,-0083,1","99999,9,09700,1","2,1,009,1,+999,9","SYN088AAXX  02181 02151 47/64 /3407 11077 21112 39700 40049 52009 77187 333 11059 21083 89/47;",
"02151099999","2010-03-02T21:00:00","4","66.4833333","20.1666666","275.0","JOKKMOKK FPL, SW","FM-12","99999","V020","340,1,N,0080,1","00870,1,C,N","007000,1,N,1","-0085,1","-0110,1","10053,1","77,1","7,1,03,1","05,1,+00870,1,99,9",,,,"99999,9,09703,1","2,1,003,1,+999,9","SYN082AAXX  02211 02151 47557 /3408 11085 21110 39703 40053 52003 77777 333 85/29 88/45;",
"02151099999","2010-03-03T00:00:00","4","66.4833333","20.1666666","275.0","JOKKMOKK FPL, SW","FM-12","99999","V020","350,1,N,0060,1","00930,1,C,N","005000,1,N,1","-0078,1","-0102,1","10058,1","71,1","7,1,06,1","09,1,+00930,1,99,9",,,,"99999,9,09709,1","3,1,005,1,+999,9","SYN076AAXX  03001 02151 47/50 /3506 11078 21102 39709 40058 53005 77177 333 89/31;",
"02151099999","2010-03-03T03:00:00","4","66.4833333","20.1666666","275.0","JOKKMOKK FPL, SW","FM-12","99999","V020","360,1,N,0070,1","99999,9,9,N","006000,1,N,1","-0072,1","-0105,1","10071,1","71,1","7,1,03,1","04,1,+00630,1,99,9",,,,"99999,9,09722,1","2,1,013,1,+999,9","SYN082AAXX  03031 02151 47556 /3607 11072 21105 39722 40071 52013 77177 333 84/21 85/27;",
"02151099999","2010-03-03T09:00:00","4","66.4833333","20.1666666","275.0","JOKKMOKK FPL, SW","FM-12","99999","V020","350,1,N,0060,1","99999,9,9,N","035000,1,N,1","-0071,1","-0108,1","10090,1",,,,,,,"99999,9,09740,1","2,1,009,1,+999,9","SYN060AAXX  03091 02151 45981 /3506 11071 21108 39740 40090 52009;",
"02151099999","2010-03-03T15:00:00","4","66.4833333","20.1666666","275.0","JOKKMOKK FPL, SW","FM-12","99999","V020","340,1,N,0060,1","99999,9,9,N","050000,1,N,1","-0065,1","-0097,1","10122,1","24,1","8,1,03,1","01,1,+02100,1,99,9",,,,"99999,9,09771,1","2,1,016,1,+999,9","SYN076AAXX  03151 02151 47884 /3406 11065 21097 39771 40122 52016 72487 333 81/57;",
"02151099999","2010-03-03T18:00:00","4","66.4833333","20.1666666","275.0","JOKKMOKK FPL, SW","FM-12","99999","V020","340,1,N,0060,1","99999,9,9,N","050000,1,N,1","-0086,1","-0122,1","10144,1","00,1","8,1,06,1",,,"120,M,-0059,1","999,N,-0086,1","99999,9,09790,1","2,1,019,1,+999,9","SYN082AAXX  03181 02151 47984 /3406 11086 21122 39790 40144 52019 70082 333 11059 21086;",
"02151099999","2010-03-03T21:00:00","4","66.4833333","20.1666666","275.0","JOKKMOKK FPL, SW","FM-12","99999","V020","330,1,N,0060,1","99999,9,9,N","050000,1,N,1","-0101,1","-0132,1","10161,1",,,,,,,"99999,9,09804,1","2,1,014,1,+999,9","SYN060AAXX  03211 02151 45984 /3306 11101 21132 39804 40161 52014;",
"02151099999","2010-03-04T00:00:00","4","66.4833333","20.1666666","275.0","JOKKMOKK FPL, SW","FM-12","99999","V020","320,1,N,0060,1","99999,9,9,N","050000,1,N,1","-0116,1","-0145,1","10172,1",,,,,,,"99999,9,09813,1","2,1,009,1,+999,9","SYN060AAXX  04001 02151 45984 /3206 11116 21145 39813 40172 52009;",
"02151099999","2010-03-04T03:00:00","4","66.4833333","20.1666666","275.0","JOKKMOKK FPL, SW","FM-12","99999","V020","290,1,N,0040,1","99999,9,9,N","050000,1,N,1","-0141,1","-0167,1","10185,1",,,,,,,"99999,9,09822,1","2,1,009,1,+999,9","SYN060AAXX  04031 02151 45984 /2904 11141 21167 39822 40185 52009;",
"02151099999","2010-03-04T06:00:00","4","66.4833333","20.1666666","275.0","JOKKMOKK FPL, SW","FM-12","99999","V020","330,1,N,0010,1","99999,9,9,N","050000,1,N,1","-0158,1","-0185,1","10195,1",,,,,"120,M,-0084,1","999,N,-0158,1","99999,9,09829,1","2,1,007,1,+999,9","SYN076AAXX  04061 02151 45984 /3301 11158 21185 39829 40195 52007 333 11084 21158;",
"02151099999","2010-03-04T09:00:00","4","66.4833333","20.1666666","275.0","JOKKMOKK FPL, SW","FM-12","99999","V020","310,1,N,0030,1","99999,9,9,N","045000,1,N,1","-0113,1","-0175,1","10190,1",,,,,,,"99999,9,09831,1","2,1,002,1,+999,9","SYN060AAXX  04091 02151 45983 /3103 11113 21175 39831 40190 52002;",
"02151099999","2010-03-04T12:00:00","4","66.4833333","20.1666666","275.0","JOKKMOKK FPL, SW","FM-12","99999","V020","320,1,N,0040,1","99999,9,9,N","050000,1,N,1","-0066,1","-0160,1","10180,1",,,"02,1,+02400,1,99,9",,,,"99999,9,09828,1","5,1,004,1,+999,9","SYN070AAXX  04121 02151 45984 /3204 11066 21160 39828 40180 55004 333 82/58;",
"02151099999","2010-03-04T15:00:00","4","66.4833333","20.1666666","275.0","JOKKMOKK FPL, SW","FM-12","99999","V020","300,1,N,0040,1","22000,1,C,N","050000,1,N,1","-0053,1","-0142,1","10174,1",,,"02,1,+01350,1,99,9","03,1,+01500,1,99,9",,,"99999,9,09824,1","7,1,004,1,+999,9","SYN082AAXX  04151 02151 45684 /3004 11053 21142 39824 40174 57004 333 82/45 83/50 86/57;",
"02151099999","2010-03-04T18:00:00","4","66.4833333","20.1666666","275.0","JOKKMOKK FPL, SW","FM-12","99999","V020","300,1,N,0020,1","02100,1,C,N","050000,1,N,1","-0062,1","-0136,1","10172,1",,,"08,1,+02100,1,99,9",,"120,M,-0049,1","999,N,-0169,1","99999,9,09821,1","7,1,003,1,+999,9","SYN082AAXX  04181 02151 45884 /3002 11062 21136 39821 40172 57003 333 11049 21169 88/57;",
"02151099999","2010-03-04T21:00:00","4","66.4833333","20.1666666","275.0","JOKKMOKK FPL, SW","FM-12","99999","V020","310,1,N,0020,1","99999,9,9,N","050000,1,N,1","-0090,1","-0137,1","10169,1",,,"01,1,+01800,1,99,9",,,,"99999,9,09813,1","7,1,007,1,+999,9","SYN070AAXX  04211 02151 45884 /3102 11090 21137 39813 40169 57007 333 81/56;",
"02151099999","2010-03-05T00:00:00","4","66.4833333","20.1666666","275.0","JOKKMOKK FPL, SW","FM-12","99999","V020","999,9,C,0000,1","99999,9,9,N","050000,1,N,1","-0113,1","-0126,1","10166,1",,,,,,,"99999,9,09808,1","7,1,005,1,+999,9","SYN060AAXX  05001 02151 45984 /0000 11113 21126 39808 40166 57005;",
"02151099999","2010-03-05T03:00:00","4","66.4833333","20.1666666","275.0","JOKKMOKK FPL, SW","FM-12","99999","V020","060,1,N,0010,1","99999,9,9,N","050000,1,N,1","-0138,1","-0142,1","10164,1",,,,,,,"99999,9,09803,1","7,1,006,1,+999,9","SYN060AAXX  05031 02151 45984 /0601 11138 21142 39803 40164 57006;",
"02151099999","2010-03-05T06:00:00","4","66.4833333","20.1666666","275.0","JOKKMOKK FPL, SW","FM-12","99999","V020","260,1,N,0010,1","99999,9,9,N","050000,1,N,1","-0166,1","-0178,1","10162,1",,,,,"120,M,-0062,1","999,N,-0171,1","99999,9,09797,1","7,1,006,1,+999,9","SYN076AAXX  05061 02151 45984 /2601 11166 21178 39797 40162 57006 333 11062 21171;",
"02151099999","2010-03-05T09:00:00","4","66.4833333","20.1666666","275.0","JOKKMOKK FPL, SW","FM-12","99999","V020","999,9,C,0000,1","99999,9,9,N","045000,1,N,1","-0098,1","-0120,1","10150,1",,,,,,,"99999,9,09794,1","8,1,003,1,+999,9","SYN060AAXX  05091 02151 45983 /0000 11098 21120 39794 40150 58003;",
"02151099999","2010-03-05T12:00:00","4","66.4833333","20.1666666","275.0","JOKKMOKK FPL, SW","FM-12","99999","V020","280,1,N,0040,1","99999,9,9,N","045000,1,N,1","-0009,1","-0093,1","10133,1",,,"01,1,+01800,1,99,9",,,,"99999,9,09789,1","7,1,005,1,+999,9","SYN070AAXX  05121 02151 45783 /2804 11009 21093 39789 40133 57005 333 81/56;",
"02151099999","2010-03-05T15:00:00","4","66.4833333","20.1666666","275.0","JOKKMOKK FPL, SW","FM-12","99999","V020","300,1,N,0030,1","99999,9,9,N","050000,1,N,1","-0010,1","-0092,1","10134,1",,,,,,,"99999,9,09790,1","2,1,001,1,+999,9","SYN060AAXX  05151 02151 45984 /3003 11010 21092 39790 40134 52001;",
"02151099999","2010-03-05T18:00:00","4","66.4833333","20.1666666","275.0","JOKKMOKK FPL, SW","FM-12","99999","V020","280,1,N,0030,1","99999,9,9,N","050000,1,N,1","-0048,1","-0093,1","10148,1",,,,,"120,M,-0006,1","999,N,-0180,1","99999,9,09799,1","3,1,008,1,+999,9","SYN076AAXX  05181 02151 45984 /2803 11048 21093 39799 40148 53008 333 11006 21180;",
"02151099999","2010-03-05T21:00:00","4","66.4833333","20.1666666","275.0","JOKKMOKK FPL, SW","FM-12","99999","V020","300,1,N,0030,1","02100,1,C,N","050000,1,N,1","-0061,1","-0093,1","10158,1",,,"08,1,+02100,1,99,9",,,,"99999,9,09807,1","2,1,008,1,+999,9","SYN070AAXX  05211 02151 45884 /3003 11061 21093 39807 40158 52008 333 88/57;",
"02151099999","2010-03-06T00:00:00","4","66.4833333","20.1666666","275.0","JOKKMOKK FPL, SW","FM-12","99999","V020","320,1,N,0020,1","99999,9,9,N","050000,1,N,1","-0073,1","-0098,1","10172,1",,,"01,1,+01410,1,99,9",,,,"99999,9,09819,1","3,1,012,1,+999,9","SYN076AAXX  06001 02151 45684 /3202 11073 21098 39819 40172 53012 333 81/47 87/57;",
"02151099999","2010-03-06T03:00:00","4","66.4833333","20.1666666","275.0","JOKKMOKK FPL, SW","FM-12","99999","V020","999,9,C,0000,1","99999,9,9,N","021000,1,N,1","-0069,1","-0090,1","10187,1","85,1","8,1,03,1","03,1,+00660,1,99,9",,,,"99999,9,09834,1","3,1,014,1,+999,9","SYN082AAXX  06031 02151 47571 /0000 11069 21090 39834 40187 53014 78587 333 83/22 88/37;",
"02151099999","2010-03-06T06:00:00","4","66.4833333","20.1666666","275.0","JOKKMOKK FPL, SW","FM-12","99999","V020","999,9,C,0000,1","00900,1,C,N","050000,1,N,1","-0066,1","-0082,1","10199,1","22,1","8,1,06,1","08,1,+00900,1,99,9",,"120,M,-0048,1","999,N,-0093,1","99999,9,09846,1","2,1,012,1,+999,9","SYN088AAXX  06061 02151 47584 /0000 11066 21082 39846 40199 52012 72287 333 11048 21093 88/30;",
"02151099999","2010-03-06T09:00:00","4","66.4833333","20.1666666","275.0","JOKKMOKK FPL, SW","FM-12","99999","V020","140,1,N,0020,1","00480,1,C,N","035000,1,N,1","-0058,1","-0078,1","10212,1",,,"06,1,+00480,1,99,9",,,,"99999,9,09860,1","1,1,014,1,+999,9","SYN076AAXX  06091 02151 45481 /1402 11058 21078 39860 40212 51014 333 86/16 87/32;",
"02151099999","2010-03-06T12:00:00","4","66.4833333","20.1666666","275.0","JOKKMOKK FPL, SW","FM-12","99999","V020","140,1,N,0040,1","99999,9,9,N","035000,1,N,1","-0037,1","-0069,1","10216,1",,,"03,1,+01500,1,99,9",,,,"99999,9,09866,1","0,1,007,1,+999,9","SYN070AAXX  06121 02151 45781 /1404 11037 21069 39866 40216 50007 333 83/50;",
"02151099999","2010-03-06T15:00:00","4","66.4833333","20.1666666","275.0","JOKKMOKK FPL, SW","FM-12","99999","V020","140,1,N,0030,1","99999,9,9,N","050000,1,N,1","-0044,1","-0077,1","10217,1",,,,,,,"99999,9,09866,1","4,1,000,1,+999,9","SYN060AAXX  06151 02151 45984 /1403 11044 21077 39866 40217 54000;",
"02151099999","2010-03-06T18:00:00","4","66.4833333","20.1666666","275.0","JOKKMOKK FPL, SW","FM-12","99999","V020","150,1,N,0020,1","99999,9,9,N","050000,1,N,1","-0075,1","-0092,1","10220,1",,,,,"120,M,-0022,1","999,N,-0076,1","99999,9,09865,1","4,1,000,1,+999,9","SYN076AAXX  06181 02151 45/84 /1502 11075 21092 39865 40220 54001 333 11022 21076;",
"02151099999","2010-03-06T21:00:00","4","66.4833333","20.1666666","275.0","JOKKMOKK FPL, SW","FM-12","99999","V020","150,1,N,0040,1","99999,9,9,N","050000,1,N,1","-0082,1","-0098,1","10210,1",,,,,,,"99999,9,09855,1","8,1,010,1,+999,9","SYN060AAXX  06211 02151 45984 /1504 11082 21098 39855 40210 58010;",
"02151099999","2010-03-07T00:00:00","4","66.4833333","20.1666666","275.0","JOKKMOKK FPL, SW","FM-12","99999","V020","120,1,N,0020,1","00750,1,C,N","011000,1,N,1","-0085,1","-0097,1","10202,1","71,1","7,1,06,1","09,1,+00750,1,99,9",,,,"99999,9,09847,1","8,1,008,1,+999,9","SYN076AAXX  07001 02151 47/61 /1202 11085 21097 39847 40202 58008 77170 333 89/25;",
"02151099999","2010-03-07T03:00:00","4","66.4833333","20.1666666","275.0","JOKKMOKK FPL, SW","FM-12","99999","V020","130,1,N,0020,1","02400,1,C,N","050000,1,N,1","-0082,1","-0090,1","10183,1","00,1","7,1,03,1","07,1,+02400,1,99,9",,,,"99999,9,09828,1","6,1,018,1,+999,9","SYN076AAXX  07031 02151 47984 /1302 11082 21090 39828 40183 56018 70072 333 87/58;",
"02151099999","2010-03-07T06:00:00","4","66.4833333","20.1666666","275.0","JOKKMOKK FPL, SW","FM-12","99999","V020","150,1,N,0020,1","02100,1,C,N","050000,1,N,1","-0093,1","-0096,1","10173,1","00,1","7,1,06,1","06,1,+02100,1,99,9",,"120,M,-0073,1","999,N,-0098,1","99999,9,09817,1","6,1,011,1,+999,9","SYN088AAXX  07061 02151 47884 /1502 11093 21096 39817 40173 56011 70072 333 11073 21098 86/57;",
"02151099999","2010-03-07T09:00:00","4","66.4833333","20.1666666","275.0","JOKKMOKK FPL, SW","FM-12","99999","V020","999,9,C,0000,1","01800,1,C,N","045000,1,N,1","-0061,1","-0073,1","10163,1",,,"08,1,+01800,1,99,9",,,,"99999,9,09812,1","8,1,006,1,+999,9","SYN070AAXX  07091 02151 45783 /0000 11061 21073 39812 40163 58006 333 88/56;",
"02151099999","2010-03-07T12:00:00","4","66.4833333","20.1666666","275.0","JOKKMOKK FPL, SW","FM-12","99999","V020","260,1,N,0010,1","99999,9,9,N","050000,1,N,1","+0027,1","-0013,1","10139,1",,,,,,,"99999,9,09800,1","8,1,012,1,+999,9","SYN060AAXX  07121 02151 45/84 /2601 10027 21013 39800 40139 58012;",
"02151099999","2010-03-07T15:00:00","4","66.4833333","20.1666666","275.0","JOKKMOKK FPL, SW","FM-12","99999","V020","210,1,N,0030,1","99999,9,9,N","050000,1,N,1","+0030,1","-0006,1","10122,1",,,,,,,"99999,9,09783,1","8,1,017,1,+999,9","SYN060AAXX  07151 02151 45984 /2103 10030 21006 39783 40122 58017;",
"02151099999","2010-03-07T18:00:00","4","66.4833333","20.1666666","275.0","JOKKMOKK FPL, SW","FM-12","99999","V020","220,1,N,0020,1","99999,9,9,N","050000,1,N,1","+0027,1","-0001,1","10104,1",,,,,"120,M,+0036,1","999,N,-0096,1","99999,9,09766,1","8,1,017,1,+999,9","SYN076AAXX  07181 02151 45984 /2202 10027 21001 39766 40104 58017 333 10036 21096;",
"02151099999","2010-03-07T21:00:00","4","66.4833333","20.1666666","275.0","JOKKMOKK FPL, SW","FM-12","99999","V020","230,1,N,0060,1","99999,9,9,N","050000,1,N,1","+0041,1","+0001,1","10080,1",,,,,,,"99999,9,09744,1","7,1,022,1,+999,9","SYN060AAXX  07211 02151 45984 /2306 10041 20001 39744 40080 57022;",
"02151099999","2010-03-08T00:00:00","4","66.4833333","20.1666666","275.0","JOKKMOKK FPL, SW","FM-12","99999","V020","230,1,N,0040,1","99999,9,9,N","050000,1,N,1","+0039,1","-0004,1","10050,1",,,,,,,"99999,9,09715,1","6,1,029,1,+999,9","SYN060AAXX  08001 02151 45984 /2304 10039 21004 39715 40050 56029;",
"02151099999","2010-03-08T03:00:00","4","66.4833333","20.1666666","275.0","JOKKMOKK FPL, SW","FM-12","99999","V020","230,1,N,0080,1","99999,9,9,N","050000,1,N,1","+0040,1","-0003,1","10004,1",,,,,,,"99999,9,09671,1","6,1,044,1,+999,9","SYN060AAXX  08031 02151 45984 /2308 10040 21003 39671 40004 56044;",
"02151099999","2010-03-08T06:00:00","4","66.4833333","20.1666666","275.0","JOKKMOKK FPL, SW","FM-12","99999","V020","280,1,N,0060,1","00270,1,C,N","002800,1,N,1","+0009,1","+0006,1","09985,1","67,1","6,1,06,1","09,1,+00270,1,99,9",,"120,M,+0049,1","999,N,+0008,1","99999,9,09648,1","5,1,023,1,+999,9","SYN088AAXX  08061 02151 47/28 /2806 10009 20006 39648 49985 55023 76764 333 10049 20008 89/09;",
"02151099999","2010-03-08T09:00:00","4","66.4833333","20.1666666","275.0","JOKKMOKK FPL, SW","FM-12","99999","V020","290,1,N,0090,1","99999,9,9,N","045000,1,N,1","-0010,1","-0081,1","10012,1","00,1","8,1,03,1","01,1,+01440,1,99,9",,,,"99999,9,09673,1","3,1,024,1,+999,9","SYN076AAXX  08091 02151 47683 /2909 11010 21081 39673 40012 53024 70086 333 81/48;",
"02151099999","2010-03-08T12:00:00","4","66.4833333","20.1666666","275.0","JOKKMOKK FPL, SW","FM-12","99999","V020","290,1,N,0110,1","99999,9,9,N","035000,1,N,1","-0034,1","-0119,1","10044,1","00,1","8,1,06,1",,,,,"99999,9,09700,1","2,1,028,1,+999,9","SYN066AAXX  08121 02151 47981 /2911 11034 21119 39700 40044 52028 70086;",
"02151099999","2010-03-08T15:00:00","4","66.4833333","20.1666666","275.0","JOKKMOKK FPL, SW","FM-12","99999","V020","300,1,N,0070,1","99999,9,9,N","050000,1,N,1","-0045,1","-0092,1","10063,1",,,"01,1,+01020,1,99,9",,,,"99999,9,09718,1","3,1,017,1,+999,9","SYN070AAXX  08151 02151 45684 /3007 11045 21092 39718 40063 53017 333 81/34;",
"02151099999","2010-03-08T18:00:00","4","66.4833333","20.1666666","275.0","JOKKMOKK FPL, SW","FM-12","99999","V020","290,1,N,0050,1","99999,9,9,N","050000,1,N,1","-0062,1","-0122,1","10093,1","00,1","8,1,06,1",,,"120,M,+0019,1","999,N,-0065,1","99999,9,09744,1","3,1,027,1,+999,9","SYN082AAXX  08181 02151 47984 /2905 11062 21122 39744 40093 53027 70087 333 10019 21065;",
"02151099999","2010-03-08T21:00:00","4","66.4833333","20.1666666","275.0","JOKKMOKK FPL, SW","FM-12","99999","V020","270,1,N,0050,1","99999,9,9,N","050000,1,N,1","-0047,1","-0107,1","10096,1",,,,,,,"99999,9,09748,1","0,1,005,1,+999,9","SYN060AAXX  08211 02151 45984 /2705 11047 21107 39748 40096 50005;",
"02151099999","2010-03-09T00:00:00","4","66.4833333","20.1666666","275.0","JOKKMOKK FPL, SW","FM-12","99999","V020","280,1,N,0030,1","99999,9,9,N","050000,1,N,1","-0048,1","-0101,1","10103,1",,,,,,,"99999,9,09756,1","2,1,008,1,+999,9","SYN060AAXX  09001 02151 45984 /2803 11048 21101 39756 40103 52008;",
"02151099999","2010-03-09T03:00:00","4","66.4833333","20.1666666","275.0","JOKKMOKK FPL, SW","FM-12","99999","V020","290,1,N,0050,1","99999,9,9,N","050000,1,N,1","-0054,1","-0105,1","10105,1",,,,,,,"99999,9,09757,1","3,1,001,1,+999,9","SYN060AAXX  09031 02151 45984 /2905 11054 21105 39757 40105 53001;",
"02151099999","2010-03-09T06:00:00","4","66.4833333","20.1666666","275.0","JOKKMOKK FPL, SW","FM-12","99999","V020","999,9,C,0000,1","99999,9,9,N","050000,1,N,1","-0103,1","-0132,1","10121,1",,,,,"120,M,-0044,1","999,N,-0118,1","99999,9,09766,1","2,1,009,1,+999,9","SYN076AAXX  09061 02151 45984 /0000 11103 21132 39766 40121 52009 333 11044 21118;",
"02151099999","2010-03-09T09:00:00","4","66.4833333","20.1666666","275.0","JOKKMOKK FPL, SW","FM-12","99999","V020","300,1,N,0040,1","99999,9,9,N","045000,1,N,1","-0043,1","-0115,1","10114,1",,,,,,,"99999,9,09767,1","2,1,001,1,+999,9","SYN060AAXX  09091 02151 45983 /3004 11043 21115 39767 40114 52001;",
"02151099999","2010-03-09T12:00:00","4","66.4833333","20.1666666","275.0","JOKKMOKK FPL, SW","FM-12","99999","V020","300,1,N,0060,1","99999,9,9,N","050000,1,N,1","-0029,1","-0104,1","10102,1",,,,,,,"99999,9,09757,1","8,1,009,1,+999,9","SYN060AAXX  09121 02151 45984 /3006 11029 21104 39757 40102 58009;",
"02151099999","2010-03-09T18:00:00","4","66.4833333","20.1666666","275.0","JOKKMOKK FPL, SW","FM-12","99999","V020","230,1,N,0010,1","99999,9,9,N","050000,1,N,1","-0057,1","-0097,1","10074,1",,,,,"120,M,-0019,1","999,N,-0103,1","99999,9,09726,1","8,1,018,1,+999,9","SYN076AAXX  09181 02151 45984 /2301 11057 21097 39726 40074 58018 333 11019 21103;",
"02151099999","2010-03-09T21:00:00","4","66.4833333","20.1666666","275.0","JOKKMOKK FPL, SW","FM-12","99999","V020","160,1,N,0010,1","99999,9,9,N","050000,1,N,1","-0072,1","-0088,1","10058,1",,,,,,,"99999,9,09709,1","7,1,017,1,+999,9","SYN060AAXX  09211 02151 45984 /1601 11072 21088 39709 40058 57017;",
"02151099999","2010-03-10T00:00:00","4","66.4833333","20.1666666","275.0","JOKKMOKK FPL, SW","FM-12","99999","V020","999,9,C,0000,1","00480,1,C,N","002200,1,N,1","-0078,1","-0086,1","10047,1","71,1","7,1,06,1","09,1,+00480,1,99,9",,,,"99999,9,09698,1","6,1,011,1,+999,9","SYN076AAXX  10001 02151 47/22 /0000 11078 21086 39698 40047 56011 77170 333 89/16;",
"02151099999","2010-03-10T03:00:00","4","66.4833333","20.1666666","275.0","JOKKMOKK FPL, SW","FM-12","99999","V020","999,9,C,0000,1","99999,9,9,N","050000,1,N,1","-0094,1","-0099,1","10059,1","22,1","7,1,03,1","04,1,+02100,1,99,9",,,,"99999,9,09707,1","3,1,009,1,+999,9","SYN082AAXX  10031 02151 47884 /0000 11094 21099 39707 40059 53009 72272 333 84/57 85/59;",
"02151099999","2010-03-10T06:00:00","4","66.4833333","20.1666666","275.0","JOKKMOKK FPL, SW","FM-12","99999","V020","999,9,C,0000,1","99999,9,9,N","003600,1,N,1","-0113,1","-0115,1","10080,1","85,1","8,1,06,1",,,"120,M,-0054,1","999,N,-0143,1","99999,9,09725,1","2,1,018,1,+999,9","SYN082AAXX  10061 02151 47936 /0000 11113 21115 39725 40080 52018 78587 333 11054 21143;",
"02151099999","2010-03-10T09:00:00","4","66.4833333","20.1666666","275.0","JOKKMOKK FPL, SW","FM-12","99999","V020","300,1,N,0020,1","99999,9,9,N","050000,1,N,1","-0059,1","-0087,1","10087,1","00,1","8,1,03,1","04,1,+01500,1,99,9",,,,"99999,9,09738,1","2,1,013,1,+999,9","SYN076AAXX  10091 02151 47784 /3002 11059 21087 39738 40087 52013 70080 333 84/50;",
"02151099999","2010-03-10T12:00:00","4","66.4833333","20.1666666","275.0","JOKKMOKK FPL, SW","FM-12","99999","V020","310,1,N,0010,1","99999,9,9,N","050000,1,N,1","-0036,1","-0099,1","10092,1","00,1","8,1,06,1","01,1,+06300,1,99,9",,,,"99999,9,09746,1","1,1,008,1,+999,9","SYN076AAXX  10121 02151 47984 /3101 11036 21099 39746 40092 51008 70080 333 81/71;",
"02151099999","2010-03-10T15:00:00","4","66.4833333","20.1666666","275.0","JOKKMOKK FPL, SW","FM-12","99999","V020","170,1,N,0010,1","99999,9,9,N","050000,1,N,1","-0035,1","-0086,1","10076,1",,,,,,,"99999,9,09731,1","8,1,015,1,+999,9","SYN060AAXX  10151 02151 45984 /1701 11035 21086 39731 40076 58015;",
"02151099999","2010-03-10T18:00:00","4","66.4833333","20.1666666","275.0","JOKKMOKK FPL, SW","FM-12","99999","V020","180,1,N,0020,1","00930,1,C,N","007000,1,N,1","-0042,1","-0052,1","10059,1","71,1","7,1,06,1","09,1,+00930,1,99,9",,"120,M,-0026,1","999,N,-0136,1","99999,9,09713,1","7,1,018,1,+999,9","SYN088AAXX  10181 02151 47/57 /1802 11042 21052 39713 40059 57018 77174 333 11026 21136 89/31;",
"02151099999","2010-03-10T21:00:00","4","66.4833333","20.1666666","275.0","JOKKMOKK FPL, SW","FM-12","99999","V020","170,1,N,0010,1","00270,1,C,N","001500,1,N,1","-0045,1","-0046,1","10038,1","71,1","7,1,03,1","09,1,+00270,1,99,9",,,,"99999,9,09693,1","7,1,020,1,+999,9","SYN076AAXX  10211 02151 47/15 /1701 11045 21046 39693 40038 57020 77177 333 89/09;",
"02151099999","2010-03-11T00:00:00","4","66.4833333","20.1666666","275.0","JOKKMOKK FPL, SW","FM-12","99999","V020","200,1,N,0010,1","01080,1,C,N","002700,1,N,1","-0044,1","-0044,1","10013,1","71,1","7,1,06,1","09,1,+01080,1,99,9",,,,"99999,9,09669,1","7,1,024,1,+999,9","SYN076AAXX  11001 02151 47/27 /2001 11044 21044 39669 40013 57024 77177 333 89/36;",
"02151099999","2010-03-11T03:00:00","4","66.4833333","20.1666666","275.0","JOKKMOKK FPL, SW","FM-12","99999","V020","999,9,C,0000,1","00600,1,C,N","001900,1,N,1","-0052,1","-0053,1","09984,1","71,1","7,1,03,1","09,1,+00600,1,99,9",,,,"99999,9,09640,1","8,1,029,1,+999,9","SYN076AAXX  11031 02151 47/19 /0000 11052 21053 39640 49984 58029 77177 333 89/20;",
"02151099999","2010-03-11T06:00:00","4","66.4833333","20.1666666","275.0","JOKKMOKK FPL, SW","FM-12","99999","V020","999,9,C,0000,1","00900,1,C,N","002300,1,N,1","-0053,1","-0055,1","09970,1","71,1","7,1,06,1","09,1,+00900,1,99,9",,"120,M,-0041,1","999,N,-0054,1","99999,9,09627,1","7,1,014,1,+999,9","SYN088AAXX  11061 02151 47/23 /0000 11053 21055 39627 49970 57014 77177 333 11041 21054 89/30;",
"02151099999","2010-03-11T09:00:00","4","66.4833333","20.1666666","275.0","JOKKMOKK FPL, SW","FM-12","99999","V020","300,1,N,0020,1","00330,1,C,N","019000,1,N,1","-0038,1","-0043,1","09974,1","71,1","7,1,03,1","02,1,+00240,1,99,9","05,1,+00330,1,99,9",,,"99999,9,09632,1","2,1,006,1,+999,9","SYN088AAXX  11091 02151 47369 /3002 11038 21043 39632 49974 52006 77177 333 82/08 85/11 87/18;",
"02151099999","2010-03-11T12:00:00","4","66.4833333","20.1666666","275.0","JOKKMOKK FPL, SW","FM-12","99999","V020","340,1,N,0040,1","99999,9,9,N","050000,1,N,1","-0041,1","-0065,1","09992,1","00,1","8,1,06,1","01,1,+00600,1,99,9",,,,"99999,9,09649,1","2,1,017,1,+999,9","SYN082AAXX  11121 02151 47584 /3404 11041 21065 39649 49992 52017 70087 333 81/20 87/58;",
"02151099999","2010-03-11T15:00:00","4","66.4833333","20.1666666","275.0","JOKKMOKK FPL, SW","FM-12","99999","V020","310,1,N,0060,1","99999,9,9,N","001300,1,N,1","-0044,1","-0090,1","10000,1","85,1","8,1,03,1","01,1,+00990,1,99,9",,,,"99999,9,09656,1","2,1,007,1,+999,9","SYN076AAXX  11151 02151 47513 /3106 11044 21090 39656 40000 52007 78587 333 81/33;",
"02151099999","2010-03-11T18:00:00","4","66.4833333","20.1666666","275.0","JOKKMOKK FPL, SW","FM-12","99999","V020","280,1,N,0020,1","99999,9,9,N","050000,1,N,1","-0100,1","-0120,1","10019,1","00,1","8,1,06,1",,,"120,M,-0033,1","999,N,-0100,1","99999,9,09668,1","2,1,012,1,+999,9","SYN082AAXX  11181 02151 47984 /2802 11100 21120 39668 40019 52012 70087 333 11033 21100;",
"02151099999","2010-03-11T21:00:00","4","66.4833333","20.1666666","275.0","JOKKMOKK FPL, SW","FM-12","99999","V020","290,1,N,0020,1","99999,9,9,N","050000,1,N,1","-0093,1","-0113,1","10021,1",,,,,,,"99999,9,09671,1","3,1,003,1,+999,9","SYN060AAXX  11211 02151 45984 /2902 11093 21113 39671 40021 53003;",
"02151099999","2010-03-12T00:00:00","4","66.4833333","20.1666666","275.0","JOKKMOKK FPL, SW","FM-12","99999","V020","999,9,C,0000,1","99999,9,9,N","050000,1,N,1","-0153,1","-0157,1","10031,1",,,,,,,"99999,9,09673,1","0,1,002,1,+999,9","SYN060AAXX  12001 02151 45984 /0000 11153 21157 39673 40031 50002;",
"02151099999","2010-03-12T03:00:00","4","66.4833333","20.1666666","275.0","JOKKMOKK FPL, SW","FM-12","99999","V020","999,9,C,0000,1","99999,9,9,N","050000,1,N,1","-0157,1","-0169,1","10028,1",,,,,,,"99999,9,09669,1","8,1,004,1,+999,9","SYN060AAXX  12031 02151 45984 /0000 11157 21169 39669 40028 58004;",
"02151099999","2010-03-12T06:00:00","4","66.4833333","20.1666666","275.0","JOKKMOKK FPL, SW","FM-12","99999","V020","999,9,C,0000,1","99999,9,9,N","050000,1,N,1","-0128,1","-0137,1","10013,1",,,,,"120,M,-0085,1","999,N,-0168,1","99999,9,09659,1","6,1,010,1,+999,9","SYN076AAXX  12061 02151 45984 /0000 11128 21137 39659 40013 56010 333 11085 21168;",
"02151099999","2010-03-12T09:00:00","4","66.4833333","20.1666666","275.0","JOKKMOKK FPL, SW","FM-12","99999","V020","290,1,N,0040,1","99999,9,9,N","040000,1,N,1","-0057,1","-0098,1","09999,1",,,,,,,"99999,9,09654,1","7,1,005,1,+999,9","SYN060AAXX  12091 02151 45982 /2904 11057 21098 39654 49999 57005;",
"02151099999","2010-03-12T12:00:00","4","66.4833333","20.1666666","275.0","JOKKMOKK FPL, SW","FM-12","99999","V020","300,1,N,0060,1","99999,9,9,N","005000,1,N,1","-0030,1","-0095,1","09989,1","00,1","8,1,06,1",,,,,"99999,9,09648,1","8,1,006,1,+999,9","SYN066AAXX  12121 02151 47950 /3006 11030 21095 39648 49989 58006 70080;",
"02151099999","2010-03-12T15:00:00","4","66.4833333","20.1666666","275.0","JOKKMOKK FPL, SW","FM-12","99999","V020","300,1,N,0040,1","99999,9,9,N","050000,1,N,1","-0032,1","-0101,1","09982,1","00,1","8,1,03,1",,,,,"99999,9,09641,1","7,1,007,1,+999,9","SYN066AAXX  12151 02151 47984 /3004 11032 21101 39641 49982 57007 70082;",
"02151099999","2010-03-12T18:00:00","4","66.4833333","20.1666666","275.0","JOKKMOKK FPL, SW","FM-12","99999","V020","270,1,N,0020,1","99999,9,9,N","050000,1,N,1","-0065,1","-0110,1","09979,1","00,1","8,1,06,1",,,"120,M,-0020,1","999,N,-0131,1","99999,9,09633,1","7,1,008,1,+999,9","SYN082AAXX  12181 02151 47984 /2702 11065 21110 39633 49979 57008 70082 333 11020 21131;",
"02151099999","2010-03-12T21:00:00","4","66.4833333","20.1666666","275.0","JOKKMOKK FPL, SW","FM-12","99999","V020","130,1,N,0010,1","99999,9,9,N","050000,1,N,1","-0099,1","-0118,1","09975,1",,,,,,,"99999,9,09625,1","7,1,008,1,+999,9","SYN060AAXX  12211 02151 45984 /1301 11099 21118 39625 49975 57008;",
"02151099999","2010-03-13T00:00:00","4","66.4833333","20.1666666","275.0","JOKKMOKK FPL, SW","FM-12","99999","V020","300,1,N,0030,1","99999,9,9,N","050000,1,N,1","-0096,1","-0120,1","09968,1",,,,,,,"99999,9,09619,1","7,1,006,1,+999,9","SYN060AAXX  13001 02151 45984 /3003 11096 21120 39619 49968 57006;",
"02151099999","2010-03-13T03:00:00","4","66.4833333","20.1666666","275.0","JOKKMOKK FPL, SW","FM-12","99999","V020","320,1,N,0010,1","99999,9,9,N","050000,1,N,1","-0139,1","-0146,1","09972,1",,,,,,,"99999,9,09617,1","5,1,002,1,+999,9","SYN060AAXX  13031 02151 45984 /3201 11139 21146 39617 49972 55002;",
"02151099999","2010-03-13T06:00:00","4","66.4833333","20.1666666","275.0","JOKKMOKK FPL, SW","FM-12","99999","V020","999,9,C,0000,1","99999,9,9,N","050000,1,N,1","-0152,1","-0160,1","09964,1",,,,,"120,M,-0065,1","999,N,-0185,1","99999,9,09608,1","7,1,009,1,+999,9","SYN076AAXX  13061 02151 45984 /0000 11152 21160 39608 49964 57009 333 11065 21185;",
"02151099999","2010-03-13T09:00:00","4","66.4833333","20.1666666","275.0","JOKKMOKK FPL, SW","FM-12","99999","V020","160,1,N,0010,1","00870,1,C,N","050000,1,N,1","-0094,1","-0122,1","09944,1",,,"09,1,+00870,1,99,9",,,,"99999,9,09596,1","8,1,012,1,+999,9","SYN070AAXX  13091 02151 45/84 /1601 11094 21122 39596 49944 58012 333 89/29;",
"02151099999","2010-03-13T12:00:00","4","66.4833333","20.1666666","275.0","JOKKMOKK FPL, SW","FM-12","99999","V020","040,1,N,0010,1","00690,1,C,N","001900,1,N,1","-0071,1","-0077,1","09943,1","71,1","8,1,06,1","09,1,+00690,1,99,9",,,,"99999,9,09598,1","3,1,002,1,+999,9","SYN076AAXX  13121 02151 47/19 /0401 11071 21077 39598 49943 53002 77187 333 89/23;",
"02151099999","2010-03-13T15:00:00","4","66.4833333","20.1666666","275.0","JOKKMOKK FPL, SW","FM-12","99999","V020","350,1,N,0020,1","99999,9,9,N","050000,1,N,1","-0069,1","-0081,1","09964,1","22,1","8,1,03,1",,,,,"99999,9,09619,1","2,1,021,1,+999,9","SYN066AAXX  13151 02151 47984 /3502 11069 21081 39619 49964 52021 72287;",
"02151099999","2010-03-13T18:00:00","4","66.4833333","20.1666666","275.0","JOKKMOKK FPL, SW","FM-12","99999","V020","310,1,N,0040,1","99999,9,9,N","050000,1,N,1","-0095,1","-0128,1","09985,1","00,1","8,1,06,1",,,"120,M,-0064,1","999,N,-0171,1","99999,9,09636,1","2,1,017,1,+999,9","SYN082AAXX  13181 02151 47984 /3104 11095 21128 39636 49985 52017 70087 333 11064 21171;",
"02151099999","2010-03-13T21:00:00","4","66.4833333","20.1666666","275.0","JOKKMOKK FPL, SW","FM-12","99999","V020","300,1,N,0010,1","99999,9,9,N","050000,1,N,1","-0135,1","-0156,1","10003,1",,,,,,,"99999,9,09647,1","2,1,012,1,+999,9","SYN060AAXX  13211 02151 45984 /3001 11135 21156 39647 40003 52012;",
"02151099999","2010-03-14T00:00:00","4","66.4833333","20.1666666","275.0","JOKKMOKK FPL, SW","FM-12","99999","V020","999,9,C,0000,1","99999,9,9,N","050000,1,N,1","-0151,1","-0167,1","09998,1",,,,,,,"99999,9,09641,1","8,1,007,1,+999,9","SYN060AAXX  14001 02151 45984 /0000 11151 21167 39641 49998 58007;",
"02151099999","2010-03-14T03:00:00","4","66.4833333","20.1666666","275.0","JOKKMOKK FPL, SW","FM-12","99999","V020","310,1,N,0020,1","99999,9,9,N","050000,1,N,1","-0163,1","-0184,1","09988,1",,,"01,1,+02100,1,99,9",,,,"99999,9,09629,1","8,1,011,1,+999,9","SYN070AAXX  14031 02151 45884 /3102 11163 21184 39629 49988 58011 333 81/57;",
"02151099999","2010-03-14T06:00:00","4","66.4833333","20.1666666","275.0","JOKKMOKK FPL, SW","FM-12","99999","V020","300,1,N,0040,1","00750,1,C,N","045000,1,N,1","-0100,1","-0134,1","09978,1","85,1","8,1,06,1","06,1,+00750,1,99,9",,"120,M,-0095,1","999,N,-0191,1","99999,9,09628,1","7,1,001,1,+999,9","SYN094AAXX  14061 02151 47583 /3004 11100 21134 39628 49978 57001 78587 333 11095 21191 86/25 88/32;",
"02151099999","2010-03-14T09:00:00","4","66.4833333","20.1666666","275.0","JOKKMOKK FPL, SW","FM-12","99999","V020","320,1,N,0040,1","99999,9,9,N","035000,1,N,1","-0063,1","-0096,1","09985,1","00,1","8,1,03,1","01,1,+00720,1,99,9",,,,"99999,9,09640,1","0,1,012,1,+999,9","SYN082AAXX  14091 02151 47581 /3204 11063 21096 39640 49985 50012 70082 333 81/24 84/35;",
"02151099999","2010-03-14T12:00:00","4","66.4833333","20.1666666","275.0","JOKKMOKK FPL, SW","FM-12","99999","V020","360,1,N,0040,1","99999,9,9,N","012000,1,N,1","-0038,1","-0099,1","09984,1","85,1","8,1,06,1",,,,,"99999,9,09642,1","2,1,002,1,+999,9","SYN066AAXX  14121 02151 47962 /3604 11038 21099 39642 49984 52002 78587;",
"02151099999","2010-03-14T15:00:00","4","66.4833333","20.1666666","275.0","JOKKMOKK FPL, SW","FM-12","99999","V020","330,1,N,0020,1","99999,9,9,N","050000,1,N,1","-0052,1","-0100,1","09990,1","00,1","8,1,03,1","03,1,+01230,1,99,9",,,,"99999,9,09646,1","2,1,004,1,+999,9","SYN082AAXX  14151 02151 47684 /3302 11052 21100 39646 49990 52004 70082 333 83/41 86/57;",
"02151099999","2010-03-14T18:00:00","4","66.4833333","20.1666666","275.0","JOKKMOKK FPL, SW","FM-12","99999","V020","999,9,C,0000,1","99999,9,9,N","050000,1,N,1","-0130,1","-0136,1","10002,1","00,1","8,1,06,1",,,"120,M,-0035,1","999,N,-0135,1","99999,9,09648,1","2,1,001,1,+999,9","SYN082AAXX  14181 02151 47984 /0000 11130 21136 39648 40002 52001 70082 333 11035 21135;",
"02151099999","2010-03-14T21:00:00","4","66.4833333","20.1666666","275.0","JOKKMOKK FPL, SW","FM-12","99999","V020","999,9,C,0000,1","99999,9,9,N","050000,1,N,1","-0142,1","-0153,1","10008,1",,,,,,,"99999,9,09652,1","2,1,004,1,+999,9","SYN060AAXX  14211 02151 45984 /0000 11142 21153 39652 40008 52004;",
"02151099999","2010-03-15T00:00:00","4","66.4833333","20.1666666","275.0","JOKKMOKK FPL, SW","FM-12","99999","V020","999,9,C,0000,1","99999,9,9,N","050000,1,N,1","-0158,1","-0168,1","10010,1",,,"01,1,+01800,1,99,9",,,,"99999,9,09652,1","0,1,000,1,+999,9","SYN070AAXX  15001 02151 45784 /0000 11158 21168 39652 40010 50000 333 81/56;",
"02151099999","2010-03-15T03:00:00","4","66.4833333","20.1666666","275.0","JOKKMOKK FPL, SW","FM-12","99999","V020","999,9,C,0000,1","99999,9,9,N","050000,1,N,1","-0175,1","-0185,1","10013,1",,,,,,,"99999,9,09652,1","4,1,000,1,+999,9","SYN060AAXX  15031 02151 45984 /0000 11175 21185 39652 40013 54000;",
"02151099999","2010-03-15T06:00:00","4","66.4833333","20.1666666","275.0","JOKKMOKK FPL, SW","FM-12","99999","V020","999,9,C,0000,1","99999,9,9,N","035000,1,N,1","-0144,1","-0154,1","10015,1","24,1","8,1,06,1","02,1,+00510,1,99,9",,"120,M,-0103,1","999,N,-0194,1","99999,9,09658,1","2,1,006,1,+999,9","SYN094AAXX  15061 02151 47481 /0000 11144 21154 39658 40015 52006 72487 333 11103 21194 82/17 86/50;",
"02151099999","2010-03-15T09:00:00","4","66.4833333","20.1666666","275.0","JOKKMOKK FPL, SW","FM-12","99999","V020","130,1,N,0010,1","99999,9,9,N","050000,1,N,1","-0100,1","-0121,1","10023,1",,,,,,,"99999,9,09671,1","3,1,014,1,+999,9","SYN060AAXX  15091 02151 45984 /1301 11100 21121 39671 40023 53014;",
"02151099999","2010-03-15T12:00:00","4","66.4833333","20.1666666","275.0","JOKKMOKK FPL, SW","FM-12","99999","V020","100,1,N,0020,1","00660,1,C,N","040000,1,N,1","-0072,1","-0112,1","10031,1",,,"07,1,+00660,1,99,9",,,,"99999,9,09683,1","2,1,011,1,+999,9","SYN070AAXX  15121 02151 45582 /1002 11072 21112 39683 40031 52011 333 87/22;",
"02151099999","2010-03-15T15:00:00","4","66.4833333","20.1666666","275.0","JOKKMOKK FPL, SW","FM-12","99999","V020","140,1,N,0020,1","99999,9,9,N","050000,1,N,1","-0093,1","-0130,1","10036,1",,,,,,,"99999,9,09685,1","3,1,003,1,+999,9","SYN060AAXX  15151 02151 45984 /1402 11093 21130 39685 40036 53003;",
"02151099999","2010-03-15T18:00:00","4","66.4833333","20.1666666","275.0","JOKKMOKK FPL, SW","FM-12","99999","V020","100,1,N,0010,1","99999,9,9,N","050000,1,N,1","-0127,1","-0151,1","10053,1",,,"01,1,+00840,1,99,9",,"120,M,-0063,1","999,N,-0152,1","99999,9,09697,1","3,1,012,1,+999,9","SYN088AAXX  15181 02151 45584 /1001 11127 21151 39697 40053 53012 333 11063 21152 81/28 85/58;",
"02151099999","2010-03-15T21:00:00","4","66.4833333","20.1666666","275.0","JOKKMOKK FPL, SW","FM-12","99999","V020","999,9,C,0000,1","00300,1,C,N","015000,1,N,1","-0133,1","-0143,1","10068,1","85,1","8,1,03,1","08,1,+00300,1,99,9",,,,"99999,9,09711,1","2,1,014,1,+999,9","SYN076AAXX  15211 02151 47465 /0000 11133 21143 39711 40068 52014 78580 333 88/10;",
"02151099999","2010-03-16T00:00:00","4","66.4833333","20.1666666","275.0","JOKKMOKK FPL, SW","FM-12","99999","V020","999,9,C,0000,1","00180,1,C,N","004300,1,N,1","-0161,1","-0173,1","10086,1","71,1","8,1,06,1","06,1,+00180,1,99,9","07,1,+00270,1,99,9",,,"99999,9,09725,1","2,1,014,1,+999,9","SYN088AAXX  16001 02151 47343 /0000 11161 21173 39725 40086 52014 77187 333 86/06 87/09 88/10;",
"02151099999","2010-03-16T03:00:00","4","66.4833333","20.1666666","275.0","JOKKMOKK FPL, SW","FM-12","99999","V020","999,9,C,0000,1","99999,9,9,N","050000,1,N,1","-0207,1","-0218,1","10102,1","24,1","7,1,03,1",,,,,"99999,9,09733,1","1,1,008,1,+999,9","SYN066AAXX  16031 02151 47984 /0000 11207 21218 39733 40102 51008 72472;",
"02151099999","2010-03-16T06:00:00","4","66.4833333","20.1666666","275.0","JOKKMOKK FPL, SW","FM-12","99999","V020","999,9,C,0000,1","99999,9,9,N","040000,1,N,1","-0237,1","-0262,1","10109,1","00,1","7,1,06,1",,,"120,M,-0112,1","999,N,-0251,1","99999,9,09736,1","0,1,003,1,+999,9","SYN082AAXX  16061 02151 47982 /0000 11237 21262 39736 40109 50003 70072 333 11112 21251;",
"02151099999","2010-03-16T09:00:00","4","66.4833333","20.1666666","275.0","JOKKMOKK FPL, SW","FM-12","99999","V020","330,1,N,0010,1","99999,9,9,N","040000,1,N,1","-0136,1","-0156,1","10094,1","00,1","8,1,03,1",,,,,"99999,9,09735,1","0,1,001,1,+999,9","SYN066AAXX  16091 02151 47982 /3301 11136 21156 39735 40094 50001 70087;",
"02151099999","2010-03-16T12:00:00","4","66.4833333","20.1666666","275.0","JOKKMOKK FPL, SW","FM-12","99999","V020","250,1,N,0020,1","99999,9,9,N","050000,1,N,1","-0058,1","-0128,1","10076,1","00,1","8,1,06,1",,,,,"99999,9,09728,1","7,1,007,1,+999,9","SYN066AAXX  16121 02151 47984 /2502 11058 21128 39728 40076 57007 70087;",
"02151099999","2010-03-16T15:00:00","4","66.4833333","20.1666666","275.0","JOKKMOKK FPL, SW","FM-12","99999","V020","310,1,N,0020,1","99999,9,9,N","050000,1,N,1","-0061,1","-0120,1","10074,1",,,"02,1,+02100,1,99,9",,,,"99999,9,09726,1","7,1,002,1,+999,9","SYN070AAXX  16151 02151 45884 /3102 11061 21120 39726 40074 57002 333 82/57;",
"02151099999","2010-03-16T18:00:00","4","66.4833333","20.1666666","275.0","JOKKMOKK FPL, SW","FM-12","99999","V020","999,9,C,0000,1","99999,9,9,N","050000,1,N,1","-0122,1","-0141,1","10077,1",,,,,"120,M,-0049,1","999,N,-0237,1","99999,9,09721,1","7,1,005,1,+999,9","SYN076AAXX  16181 02151 45984 /0000 11122 21141 39721 40077 57005 333 11049 21237;",
"02151099999","2010-03-16T21:00:00","4","66.4833333","20.1666666","275.0","JOKKMOKK FPL, SW","FM-12","99999","V020","270,1,N,0010,1","99999,9,9,N","050000,1,N,1","-0188,1","-0211,1","10085,1",,,,,,,"99999,9,09719,1","7,1,002,1,+999,9","SYN060AAXX  16211 02151 45984 /2701 11188 21211 39719 40085 57002;",
"02151099999","2010-03-17T00:00:00","4","66.4833333","20.1666666","275.0","JOKKMOKK FPL, SW","FM-12","99999","V020","290,1,N,0020,1","99999,9,9,N","050000,1,N,1","-0182,1","-0196,1","10078,1",,,,,,,"99999,9,09714,1","7,1,006,1,+999,9","SYN060AAXX  17001 02151 45984 /2902 11182 21196 39714 40078 57006;",
"02151099999","2010-03-17T03:00:00","4","66.4833333","20.1666666","275.0","JOKKMOKK FPL, SW","FM-12","99999","V020","999,9,C,0000,1","99999,9,9,N","050000,1,N,1","-0216,1","-0233,1","10081,1",,,,,,,"99999,9,09711,1","7,1,003,1,+999,9","SYN060AAXX  17031 02151 45984 /0000 11216 21233 39711 40081 57003;",
"02151099999","2010-03-17T06:00:00","4","66.4833333","20.1666666","275.0","JOKKMOKK FPL, SW","FM-12","99999","V020","999,9,C,0000,1","99999,9,9,N","008000,1,N,1","-0202,1","-0218,1","10079,1","10,1","2,1,06,1",,,"120,M,-0118,1","999,N,-0223,1","99999,9,09712,1","5,1,001,1,+999,9","SYN082AAXX  17061 02151 47958 /0000 11202 21218 39712 40079 55001 71010 333 11118 21223;",
"02151099999","2010-03-17T09:00:00","4","66.4833333","20.1666666","275.0","JOKKMOKK FPL, SW","FM-12","99999","V020","330,1,N,0010,1","99999,9,9,N","030000,1,N,1","-0089,1","-0135,1","10072,1",,,,,,,"99999,9,09720,1","2,1,008,1,+999,9","SYN060AAXX  17091 02151 45980 /3301 11089 21135 39720 40072 52008;",
"02151099999","2010-03-17T12:00:00","4","66.4833333","20.1666666","275.0","JOKKMOKK FPL, SW","FM-12","99999","V020","310,1,N,0040,1","99999,9,9,N","040000,1,N,1","-0048,1","-0116,1","10073,1",,,,,,,"99999,9,09727,1","2,1,007,1,+999,9","SYN060AAXX  17121 02151 45982 /3104 11048 21116 39727 40073 52007;",
"02151099999","2010-03-17T15:00:00","4","66.4833333","20.1666666","275.0","JOKKMOKK FPL, SW","FM-12","99999","V020","300,1,N,0050,1","99999,9,9,N","050000,1,N,1","-0033,1","-0126,1","10074,1",,,,,,,"99999,9,09730,1","2,1,003,1,+999,9","SYN060AAXX  17151 02151 45984 /3005 11033 21126 39730 40074 52003;",
"02151099999","2010-03-17T18:00:00","4","66.4833333","20.1666666","275.0","JOKKMOKK FPL, SW","FM-12","99999","V020","999,9,C,0000,1","99999,9,9,N","050000,1,N,1","-0115,1","-0145,1","10096,1",,,,,"120,M,-0030,1","999,N,-0202,1","99999,9,09740,1","2,1,010,1,+999,9","SYN076AAXX  17181 02151 45984 /0000 11115 21145 39740 40096 52010 333 11030 21202;",
"02151099999","2010-03-17T21:00:00","4","66.4833333","20.1666666","275.0","JOKKMOKK FPL, SW","FM-12","99999","V020","999,9,C,0000,1","99999,9,9,N","050000,1,N,1","-0177,1","-0190,1","10111,1",,,,,,,"99999,9,09746,1","2,1,006,1,+999,9","SYN060AAXX  17211 02151 45984 /0000 11177 21190 39746 40111 52006;",
"02151099999","2010-03-18T00:00:00","4","66.4833333","20.1666666","275.0","JOKKMOKK FPL, SW","FM-12","99999","V020","270,1,N,0020,1","99999,9,9,N","050000,1,N,1","-0179,1","-0191,1","10114,1",,,,,,,"99999,9,09749,1","2,1,003,1,+999,9","SYN060AAXX  18001 02151 45984 /2702 11179 21191 39749 40114 52003;",
"02151099999","2010-03-18T03:00:00","4","66.4833333","20.1666666","275.0","JOKKMOKK FPL, SW","FM-12","99999","V020","340,1,N,0010,1","99999,9,9,N","050000,1,N,1","-0215,1","-0232,1","10116,1",,,,,,,"99999,9,09745,1","7,1,004,1,+999,9","SYN060AAXX  18031 02151 45984 /3401 11215 21232 39745 40116 57004;",
"02151099999","2010-03-18T06:00:00","4","66.4833333","20.1666666","275.0","JOKKMOKK FPL, SW","FM-12","99999","V020","260,1,N,0010,1","99999,9,9,N","050000,1,N,1","-0194,1","-0209,1","10103,1",,,,,"120,M,-0107,1","999,N,-0229,1","99999,9,09736,1","7,1,009,1,+999,9","SYN076AAXX  18061 02151 45984 /2601 11194 21209 39736 40103 57009 333 11107 21229;",
"02151099999","2010-03-18T09:00:00","4","66.4833333","20.1666666","275.0","JOKKMOKK FPL, SW","FM-12","99999","V020","999,9,C,0000,1","99999,9,9,N","050000,1,N,1","-0138,1","-0154,1","10083,1",,,"02,1,+02400,1,99,9",,,,"99999,9,09724,1","7,1,012,1,+999,9","SYN070AAXX  18091 02151 45884 /0000 11138 21154 39724 40083 57012 333 82/58;",
"02151099999","2010-03-18T12:00:00","4","66.4833333","20.1666666","275.0","JOKKMOKK FPL, SW","FM-12","99999","V020","110,1,N,0030,1","00690,1,C,N","002300,1,N,1","-0096,1","-0114,1","10060,1","71,1","7,1,06,1","04,1,+00270,1,99,9","05,1,+00690,1,99,9",,,"99999,9,09708,1","7,1,017,1,+999,9","SYN088AAXX  18121 02151 47323 /1103 11096 21114 39708 40060 57017 77170 333 84/09 85/23 88/38;",
"02151099999","2010-03-18T15:00:00","4","66.4833333","20.1666666","275.0","JOKKMOKK FPL, SW","FM-12","99999","V020","120,1,N,0040,1","00150,1,C,N","000700,1,N,1","-0079,1","-0085,1","10031,1","72,1","7,1,03,1","09,1,+00150,1,99,9",,,,"99999,9,09682,1","6,1,025,1,+999,9","SYN076AAXX  18151 02151 47/07 /1204 11079 21085 39682 40031 56025 77277 333 89/05;",
"02151099999","2010-03-18T18:00:00","4","66.4833333","20.1666666","275.0","JOKKMOKK FPL, SW","FM-12","99999","V020","120,1,N,0030,1","00690,1,C,N","002400,1,N,1","-0082,1","-0087,1","10037,1","71,1","7,1,06,1","04,1,+00390,1,99,9","05,1,+00690,1,99,9","120,M,-0077,1","999,N,-0194,1","99999,9,09688,1","3,1,006,1,+999,9","SYN100AAXX  18181 02151 47424 /1203 11082 21087 39688 40037 53006 77177 333 11077 21194 84/13 85/23 88/41;",
"02151099999","2010-03-18T21:00:00","4","66.4833333","20.1666666","275.0","JOKKMOKK FPL, SW","FM-12","99999","V020","110,1,N,0020,1","00810,1,C,N","002600,1,N,1","-0082,1","-0086,1","10048,1","71,1","7,1,03,1","09,1,+00810,1,99,9",,,,"99999,9,09698,1","2,1,010,1,+999,9","SYN076AAXX  18211 02151 47/26 /1102 11082 21086 39698 40048 52010 77177 333 89/27;",
"02151099999","2010-03-19T00:00:00","4","66.4833333","20.1666666","275.0","JOKKMOKK FPL, SW","FM-12","99999","V020","120,1,N,0010,1","00240,1,C,N","023000,1,N,1","-0081,1","-0085,1","10052,1","77,1","7,1,06,1","08,1,+00240,1,99,9",,,,"99999,9,09702,1","2,1,004,1,+999,9","SYN076AAXX  19001 02151 47373 /1201 11081 21085 39702 40052 52004 77777 333 88/08;",
"02151099999","2010-03-19T03:00:00","4","66.4833333","20.1666666","275.0","JOKKMOKK FPL, SW","FM-12","99999","V020","999,9,C,0000,1","00210,1,C,N","007000,1,N,1","-0086,1","-0090,1","10057,1","71,1","7,1,03,1","08,1,+00210,1,99,9",,,,"99999,9,09707,1","2,1,005,1,+999,9","SYN076AAXX  19031 02151 47357 /0000 11086 21090 39707 40057 52005 77177 333 88/07;",
"02151099999","2010-03-19T06:00:00","4","66.4833333","20.1666666","275.0","JOKKMOKK FPL, SW","FM-12","99999","V020","999,9,C,0000,1","00090,1,C,N","002900,1,N,1","-0088,1","-0092,1","10058,1","71,1","7,1,06,1","07,1,+00090,1,99,9",,"120,M,-0080,1","999,N,-0092,1","99999,9,09707,1","4,1,000,1,+999,9","SYN094AAXX  19061 02151 47129 /0000 11088 21092 39707 40058 54001 77177 333 11080 21092 87/03 88/23;",
"02151099999","2010-03-19T09:00:00","4","66.4833333","20.1666666","275.0","JOKKMOKK FPL, SW","FM-12","99999","V020","130,1,N,0020,1","00210,1,C,N","007000,1,N,1","-0077,1","-0081,1","10048,1","71,1","7,1,03,1","07,1,+00210,1,99,9",,,,"99999,9,09699,1","7,1,008,1,+999,9","SYN082AAXX  19091 02151 47357 /1302 11077 21081 39699 40048 57008 77177 333 87/07 88/22;",
"02151099999","2010-03-19T12:00:00","4","66.4833333","20.1666666","275.0","JOKKMOKK FPL, SW","FM-12","99999","V020","150,1,N,0030,1","22000,1,C,N","007000,1,N,1","-0066,1","-0078,1","10028,1","71,1","7,1,06,1","01,1,+00180,1,99,9","04,1,+00390,1,99,9",,,"99999,9,09681,1","8,1,018,1,+999,9","SYN088AAXX  19121 02151 47257 /1503 11066 21078 39681 40028 58018 77177 333 81/06 84/13 88/18;",
"02151099999","2010-03-19T15:00:00","4","66.4833333","20.1666666","275.0","JOKKMOKK FPL, SW","FM-12","99999","V020","130,1,N,0040,1","00300,1,C,N","008000,1,N,1","-0065,1","-0074,1","09999,1","00,1","7,1,03,1","07,1,+00300,1,99,9",,,,"99999,9,09653,1","8,1,028,1,+999,9","SYN082AAXX  19151 02151 47458 /1304 11065 21074 39653 49999 58028 70072 333 87/10 88/12;",
"02151099999","2010-03-19T18:00:00","4","66.4833333","20.1666666","275.0","JOKKMOKK FPL, SW","FM-12","99999","V020","130,1,N,0040,1","00480,1,C,N","004300,1,N,1","-0073,1","-0078,1","09977,1","71,1","8,1,06,1","03,1,+00270,1,99,9","05,1,+00480,1,99,9","120,M,-0062,1","999,N,-0089,1","99999,9,09631,1","8,1,022,1,+999,9","SYN100AAXX  19181 02151 47343 /1304 11073 21078 39631 49977 58022 77187 333 11062 21089 83/09 85/16 87/22;",
"02151099999","2010-03-19T21:00:00","4","66.4833333","20.1666666","275.0","JOKKMOKK FPL, SW","FM-12","99999","V020","130,1,N,0030,1","00390,1,C,N","003600,1,N,1","-0079,1","-0084,1","09952,1","71,1","7,1,03,1","09,1,+00390,1,99,9",,,,"99999,9,09606,1","8,1,025,1,+999,9","SYN076AAXX  19211 02151 47/36 /1303 11079 21084 39606 49952 58025 77177 333 89/13;",
"02151099999","2010-03-20T00:00:00","4","66.4833333","20.1666666","275.0","JOKKMOKK FPL, SW","FM-12","99999","V020","130,1,N,0020,1","01110,1,C,N","007000,1,N,1","-0084,1","-0089,1","09924,1","71,1","7,1,06,1","09,1,+01110,1,99,9",,,,"99999,9,09578,1","7,1,028,1,+999,9","SYN076AAXX  20001 02151 47/57 /1302 11084 21089 39578 49924 57028 77177 333 89/37;",
"02151099999","2010-03-20T03:00:00","4","66.4833333","20.1666666","275.0","JOKKMOKK FPL, SW","FM-12","99999","V020","999,9,C,0000,1","01080,1,C,N","004100,1,N,1","-0085,1","-0089,1","09907,1","71,1","7,1,03,1","09,1,+01080,1,99,9",,,,"99999,9,09562,1","7,1,016,1,+999,9","SYN076AAXX  20031 02151 47/41 /0000 11085 21089 39562 49907 57016 77177 333 89/36;",
"02151099999","2010-03-20T06:00:00","4","66.4833333","20.1666666","275.0","JOKKMOKK FPL, SW","FM-12","99999","V020","300,1,N,0020,1","00780,1,C,N","002700,1,N,1","-0082,1","-0087,1","09900,1","71,1","7,1,06,1","09,1,+00780,1,99,9",,"120,M,-0072,1","999,N,-0085,1","99999,9,09555,1","7,1,006,1,+999,9","SYN088AAXX  20061 02151 47/27 /3002 11082 21087 39555 49900 57006 77177 333 11072 21085 89/26;",
"02151099999","2010-03-20T09:00:00","4","66.4833333","20.1666666","275.0","JOKKMOKK FPL, SW","FM-12","99999","V020","340,1,N,0040,1","99999,9,9,N","021000,1,N,1","-0070,1","-0082,1","09904,1","85,1","8,1,03,1","01,1,+00420,1,99,9",,,,"99999,9,09561,1","3,1,006,1,+999,9","SYN082AAXX  20091 02151 47471 /3404 11070 21082 39561 49904 53006 78587 333 81/14 88/45;",
"02151099999","2010-03-20T12:00:00","4","66.4833333","20.1666666","275.0","JOKKMOKK FPL, SW","FM-12","99999","V020","340,1,N,0040,1","99999,9,9,N","022000,1,N,1","-0059,1","-0088,1","09917,1","77,1","8,1,06,1","02,1,+00360,1,99,9",,,,"99999,9,09575,1","2,1,014,1,+999,9","SYN082AAXX  20121 02151 47472 /3404 11059 21088 39575 49917 52014 77787 333 82/12 87/19;",
"02151099999","2010-03-20T15:00:00","4","66.4833333","20.1666666","275.0","JOKKMOKK FPL, SW","FM-12","99999","V020","340,1,N,0050,1","99999,9,9,N","009000,1,N,1","-0059,1","-0103,1","09934,1","85,1","8,1,03,1",,,,,"99999,9,09591,1","3,1,016,1,+999,9","SYN066AAXX  20151 02151 47959 /3405 11059 21103 39591 49934 53016 78587;",
"02151099999","2010-03-20T18:00:00","4","66.4833333","20.1666666","275.0","JOKKMOKK FPL, SW","FM-12","99999","V020","330,1,N,0040,1","99999,9,9,N","050000,1,N,1","-0088,1","-0134,1","09960,1","00,1","8,1,06,1",,,"120,M,-0055,1","999,N,-0098,1","99999,9,09612,1","3,1,021,1,+999,9","SYN082AAXX  20181 02151 47984 /3304 11088 21134 39612 49960 53021 70087 333 11055 21098;",
"02151099999","2010-03-20T21:00:00","4","66.4833333","20.1666666","275.0","JOKKMOKK FPL, SW","FM-12","99999","V020","300,1,N,0040,1","99999,9,9,N","050000,1,N,1","-0106,1","-0150,1","09984,1",,,,,,,"99999,9,09633,1","2,1,021,1,+999,9","SYN060AAXX  20211 02151 45984 /3004 11106 21150 39633 49984 52021;",
"02151099999","2010-03-21T00:00:00","4","66.4833333","20.1666666","275.0","JOKKMOKK FPL, SW","FM-12","99999","V020","999,9,C,0000,1","99999,9,9,N","050000,1,N,1","-0151,1","-0166,1","10015,1",,,,,,,"99999,9,09657,1","3,1,024,1,+999,9","SYN060AAXX  21001 02151 45984 /0000 11151 21166 39657 40015 53024;",
"02151099999","2010-03-21T03:00:00","4","66.4833333","20.1666666","275.0","JOKKMOKK FPL, SW","FM-12","99999","V020","999,9,C,0000,1","99999,9,9,N","050000,1,N,1","-0155,1","-0170,1","10029,1",,,,,,,"99999,9,09670,1","2,1,012,1,+999,9","SYN060AAXX  21031 02151 45984 /0000 11155 21170 39670 40029 52012;",
"02151099999","2010-03-21T06:00:00","4","66.4833333","20.1666666","275.0","JOKKMOKK FPL, SW","FM-12","99999","V020","260,1,N,0010,1","99999,9,9,N","050000,1,N,1","-0166,1","-0181,1","10033,1",,,,,"120,M,-0079,1","999,N,-0198,1","99999,9,09672,1","0,1,003,1,+999,9","SYN076AAXX  21061 02151 45984 /2601 11166 21181 39672 40033 50003 333 11079 21198;",
"02151099999","2010-03-21T09:00:00","4","66.4833333","20.1666666","275.0","JOKKMOKK FPL, SW","FM-12","99999","V020","140,1,N,0010,1","99999,9,9,N","050000,1,N,1","-0082,1","-0125,1","10020,1",,,"03,1,+02400,1,99,9",,,,"99999,9,09671,1","8,1,001,1,+999,9","SYN070AAXX  21091 02151 45884 /1401 11082 21125 39671 40020 58001 333 83/58;",
"02151099999","2010-03-21T12:00:00","4","66.4833333","20.1666666","275.0","JOKKMOKK FPL, SW","FM-12","99999","V020","150,1,N,0030,1","01380,1,C,N","040000,1,N,1","-0040,1","-0097,1","10003,1",,,"03,1,+01080,1,99,9","05,1,+01380,1,99,9",,,"99999,9,09660,1","8,1,012,1,+999,9","SYN082AAXX  21121 02151 45682 /1503 11040 21097 39660 40003 58012 333 83/36 85/46 87/57;",
"02151099999","2010-03-21T15:00:00","4","66.4833333","20.1666666","275.0","JOKKMOKK FPL, SW","FM-12","99999","V020","310,1,N,0050,1","99999,9,9,N","050000,1,N,1","-0033,1","-0100,1","10004,1",,,,,,,"99999,9,09662,1","2,1,002,1,+999,9","SYN060AAXX  21151 02151 45984 /3105 11033 21100 39662 40004 52002;",
"02151099999","2010-03-21T18:00:00","4","66.4833333","20.1666666","275.0","JOKKMOKK FPL, SW","FM-12","99999","V020","290,1,N,0030,1","99999,9,9,N","050000,1,N,1","-0072,1","-0114,1","10027,1",,,,,"120,M,-0023,1","999,N,-0166,1","99999,9,09679,1","3,1,017,1,+999,9","SYN076AAXX  21181 02151 45984 /2903 11072 21114 39679 40027 53017 333 11023 21166;",
"02151099999","2010-03-21T21:00:00","4","66.4833333","20.1666666","275.0","JOKKMOKK FPL, SW","FM-12","99999","V020","280,1,N,0030,1","99999,9,9,N","050000,1,N,1","-0100,1","-0123,1","10038,1",,,,,,,"99999,9,09686,1","2,1,007,1,+999,9","SYN060AAXX  21211 02151 45984 /2803 11100 21123 39686 40038 52007;",
"02151099999","2010-03-22T00:00:00","4","66.4833333","20.1666666","275.0","JOKKMOKK FPL, SW","FM-12","99999","V020","290,1,N,0010,1","99999,9,9,N","050000,1,N,1","-0131,1","-0135,1","10044,1",,,,,,,"99999,9,09688,1","0,1,001,1,+999,9","SYN060AAXX  22001 02151 45984 /2901 11131 21135 39688 40044 50001;",
"02151099999","2010-03-22T03:00:00","4","66.4833333","20.1666666","275.0","JOKKMOKK FPL, SW","FM-12","99999","V020","300,1,N,0030,1","99999,9,9,N","050000,1,N,1","-0094,1","-0109,1","10035,1",,,,,,,"99999,9,09684,1","7,1,004,1,+999,9","SYN060AAXX  22031 02151 45984 /3003 11094 21109 39684 40035 57004;",
"02151099999","2010-03-22T06:00:00","4","66.4833333","20.1666666","275.0","JOKKMOKK FPL, SW","FM-12","99999","V020","010,1,N,0010,1","99999,9,9,N","045000,1,N,1","-0126,1","-0138,1","10037,1",,,,,"120,M,-0072,1","999,N,-0181,1","99999,9,09681,1","7,1,003,1,+999,9","SYN076AAXX  22061 02151 45983 /0101 11126 21138 39681 40037 57003 333 11072 21181;",
"02151099999","2010-03-22T09:00:00","4","66.4833333","20.1666666","275.0","JOKKMOKK FPL, SW","FM-12","99999","V020","290,1,N,0060,1","99999,9,9,N","045000,1,N,1","-0035,1","-0116,1","10023,1",,,,,,,"99999,9,09680,1","0,1,001,1,+999,9","SYN060AAXX  22091 02151 45983 /2906 11035 21116 39680 40023 50001;",
"02151099999","2010-03-22T12:00:00","4","66.4833333","20.1666666","275.0","JOKKMOKK FPL, SW","FM-12","99999","V020","280,1,N,0060,1","99999,9,9,N","002100,1,N,1","-0013,1","-0103,1","10021,1","85,1","8,1,06,1",,,,,"99999,9,09681,1","0,1,001,1,+999,9","SYN066AAXX  22121 02151 47921 /2806 11013 21103 39681 40021 50001 78587;",
"02151099999","2010-03-22T15:00:00","4","66.4833333","20.1666666","275.0","JOKKMOKK FPL, SW","FM-12","99999","V020","310,1,N,0090,1","99999,9,9,N","035000,1,N,1","-0015,1","-0074,1","10033,1","24,1","8,1,03,1","02,1,+01260,1,99,9",,,,"99999,9,09692,1","3,1,011,1,+999,9","SYN082AAXX  22151 02151 47681 /3109 11015 21074 39692 40033 53011 72487 333 82/42 83/50;",
"02151099999","2010-03-22T18:00:00","4","66.4833333","20.1666666","275.0","JOKKMOKK FPL, SW","FM-12","99999","V020","310,1,N,0050,1","99999,9,9,N","050000,1,N,1","-0032,1","-0094,1","10055,1","00,1","8,1,06,1",,,"120,M,-0007,1","999,N,-0140,1","99999,9,09711,1","2,1,019,1,+999,9","SYN082AAXX  22181 02151 47984 /3105 11032 21094 39711 40055 52019 70087 333 11007 21140;",
"02151099999","2010-03-22T21:00:00","4","66.4833333","20.1666666","275.0","JOKKMOKK FPL, SW","FM-12","99999","V020","300,1,N,0050,1","99999,9,9,N","050000,1,N,1","-0049,1","-0094,1","10069,1",,,,,,,"99999,9,09722,1","2,1,012,1,+999,9","SYN060AAXX  22211 02151 45984 /3005 11049 21094 39722 40069 52012;",
"02151099999","2010-03-23T00:00:00","4","66.4833333","20.1666666","275.0","JOKKMOKK FPL, SW","FM-12","99999","V020","290,1,N,0030,1","99999,9,9,N","050000,1,N,1","-0074,1","-0106,1","10084,1",,,,,,,"99999,9,09734,1","1,1,012,1,+999,9","SYN060AAXX  23001 02151 45984 /2903 11074 21106 39734 40084 51012;",
"02151099999","2010-03-23T03:00:00","4","66.4833333","20.1666666","275.0","JOKKMOKK FPL, SW","FM-12","99999","V020","290,1,N,0020,1","99999,9,9,N","050000,1,N,1","-0114,1","-0134,1","10097,1",,,,,,,"99999,9,09741,1","3,1,008,1,+999,9","SYN060AAXX  23031 02151 45984 /2902 11114 21134 39741 40097 53008;",
"02151099999","2010-03-23T06:00:00","4","66.4833333","20.1666666","275.0","JOKKMOKK FPL, SW","FM-12","99999","V020","300,1,N,0030,1","99999,9,9,N","050000,1,N,1","-0083,1","-0118,1","10096,1",,,,,"120,M,-0028,1","999,N,-0124,1","99999,9,09745,1","2,1,003,1,+999,9","SYN076AAXX  23061 02151 45984 /3003 11083 21118 39745 40096 52003 333 11028 21124;",
"02151099999","2010-03-23T09:00:00","4","66.4833333","20.1666666","275.0","JOKKMOKK FPL, SW","FM-12","99999","V020","320,1,N,0050,1","99999,9,9,N","045000,1,N,1","-0040,1","-0111,1","10099,1",,,,,,,"99999,9,09753,1","2,1,008,1,+999,9","SYN060AAXX  23091 02151 45983 /3205 11040 21111 39753 40099 52008;",
"02151099999","2010-03-23T12:00:00","4","66.4833333","20.1666666","275.0","JOKKMOKK FPL, SW","FM-12","99999","V020","310,1,N,0030,1","99999,9,9,N","030000,1,N,1","-0017,1","-0104,1","10098,1",,,,,,,"99999,9,09755,1","2,1,002,1,+999,9","SYN060AAXX  23121 02151 45980 /3103 11017 21104 39755 40098 52002;",
"02151099999","2010-03-23T15:00:00","4","66.4833333","20.1666666","275.0","JOKKMOKK FPL, SW","FM-12","99999","V020","330,1,N,0030,1","99999,9,9,N","045000,1,N,1","-0021,1","-0105,1","10099,1",,,,,,,"99999,9,09755,1","4,1,000,1,+999,9","SYN060AAXX  23151 02151 45983 /3303 11021 21105 39755 40099 54001;",
"02151099999","2010-03-23T18:00:00","4","66.4833333","20.1666666","275.0","JOKKMOKK FPL, SW","FM-12","99999","V020","310,1,N,0030,1","99999,9,9,N","050000,1,N,1","-0055,1","-0108,1","10115,1",,,,,"120,M,-0007,1","999,N,-0085,1","99999,9,09767,1","3,1,012,1,+999,9","SYN076AAXX  23181 02151 45984 /3103 11055 21108 39767 40115 53012 333 11007 21085;",
"02151099999","2010-03-23T21:00:00","4","66.4833333","20.1666666","275.0","JOKKMOKK FPL, SW","FM-12","99999","V020","310,1,N,0020,1","99999,9,9,N","050000,1,N,1","-0119,1","-0147,1","10136,1",,,,,,,"99999,9,09778,1","2,1,011,1,+999,9","SYN060AAXX  23211 02151 45984 /3102 11119 21147 39778 40136 52011;",
"02151099999","2010-03-24T00:00:00","4","66.4833333","20.1666666","275.0","JOKKMOKK FPL, SW","FM-12","99999","V020","999,9,C,0000,1","99999,9,9,N","050000,1,N,1","-0146,1","-0154,1","10157,1",,,,,,,"99999,9,09794,1","2,1,017,1,+999,9","SYN060AAXX  24001 02151 45984 /0000 11146 21154 39794 40157 52017;",
"02151099999","2010-03-24T03:00:00","4","66.4833333","20.1666666","275.0","JOKKMOKK FPL, SW","FM-12","99999","V020","999,9,C,0000,1","99999,9,9,N","050000,1,N,1","-0161,1","-0171,1","10170,1",,,,,,,"99999,9,09805,1","2,1,011,1,+999,9","SYN060AAXX  24031 02151 45984 /0000 11161 21171 39805 40170 52011;",
"02151099999","2010-03-24T06:00:00","4","66.4833333","20.1666666","275.0","JOKKMOKK FPL, SW","FM-12","99999","V020","999,9,C,0000,1","99999,9,9,N","045000,1,N,1","-0153,1","-0165,1","10185,1",,,,,"120,M,-0052,1","999,N,-0202,1","99999,9,09820,1","3,1,015,1,+999,9","SYN076AAXX  24061 02151 45983 /0000 11153 21165 39820 40185 53015 333 11052 21202;",
"02151099999","2010-03-24T09:00:00","4","66.4833333","20.1666666","275.0","JOKKMOKK FPL, SW","FM-12","99999","V020","310,1,N,0030,1","99999,9,9,N","035000,1,N,1","-0070,1","-0121,1","10187,1",,,"01,1,+01320,1,99,9",,,,"99999,9,09834,1","2,1,013,1,+999,9","SYN070AAXX  24091 02151 45681 /3103 11070 21121 39834 40187 52013 333 81/44;",
"02151099999","2010-03-24T12:00:00","4","66.4833333","20.1666666","275.0","JOKKMOKK FPL, SW","FM-12","99999","V020","300,1,N,0020,1","99999,9,9,N","035000,1,N,1","-0033,1","-0109,1","10191,1",,,,,,,"99999,9,09842,1","1,1,008,1,+999,9","SYN060AAXX  24121 02151 45981 /3002 11033 21109 39842 40191 51008;",
"02151099999","2010-03-24T15:00:00","4","66.4833333","20.1666666","275.0","JOKKMOKK FPL, SW","FM-12","99999","V020","320,1,N,0020,1","99999,9,9,N","040000,1,N,1","-0031,1","-0111,1","10193,1",,,,,,,"99999,9,09845,1","2,1,003,1,+999,9","SYN060AAXX  24151 02151 45982 /3202 11031 21111 39845 40193 52003;",
"02151099999","2010-03-24T18:00:00","4","66.4833333","20.1666666","275.0","JOKKMOKK FPL, SW","FM-12","99999","V020","999,9,C,0000,1","99999,9,9,N","050000,1,N,1","-0090,1","-0128,1","10213,1",,,,,"120,M,-0022,1","999,N,-0160,1","99999,9,09856,1","3,1,011,1,+999,9","SYN076AAXX  24181 02151 45/84 /0000 11090 21128 39856 40213 53011 333 11022 21160;",
"02151099999","2010-03-24T21:00:00","4","66.4833333","20.1666666","275.0","JOKKMOKK FPL, SW","FM-12","99999","V020","999,9,C,0000,1","99999,9,9,N","050000,1,N,1","-0145,1","-0147,1","10236,1",,,,,,,"99999,9,09871,1","2,1,015,1,+999,9","SYN060AAXX  24211 02151 45984 /0000 11145 21147 39871 40236 52015;",
"02151099999","2010-03-25T00:00:00","4","66.4833333","20.1666666","275.0","JOKKMOKK FPL, SW","FM-12","99999","V020","260,1,N,0010,1","99999,9,9,N","050000,1,N,1","-0172,1","-0184,1","10250,1",,,,,,,"99999,9,09881,1","2,1,010,1,+999,9","SYN060AAXX  25001 02151 45984 /2601 11172 21184 39881 40250 52010;",
"02151099999","2010-03-25T03:00:00","4","66.4833333","20.1666666","275.0","JOKKMOKK FPL, SW","FM-12","99999","V020","280,1,N,0010,1","99999,9,9,N","050000,1,N,1","-0193,1","-0207,1","10256,1",,,,,,,"99999,9,09883,1","2,1,003,1,+999,9","SYN060AAXX  25031 02151 45984 /2801 11193 21207 39883 40256 52003;",
"02151099999","2010-03-25T06:00:00","4","66.4833333","20.1666666","275.0","JOKKMOKK FPL, SW","FM-12","99999","V020","290,1,N,0010,1","99999,9,9,N","045000,1,N,1","-0184,1","-0199,1","10256,1",,,,,"120,M,-0082,1","999,N,-0215,1","99999,9,09885,1","2,1,002,1,+999,9","SYN076AAXX  25061 02151 45983 /2901 11184 21199 39885 40256 52002 333 11082 21215;",
"02151099999","2010-03-25T09:00:00","4","66.4833333","20.1666666","275.0","JOKKMOKK FPL, SW","FM-12","99999","V020","160,1,N,0010,1","99999,9,9,N","035000,1,N,1","-0090,1","-0145,1","10235,1",,,,,,,"99999,9,09878,1","8,1,008,1,+999,9","SYN060AAXX  25091 02151 45981 /1601 11090 21145 39878 40235 58008;",
"02151099999","2010-03-25T12:00:00","4","66.4833333","20.1666666","275.0","JOKKMOKK FPL, SW","FM-12","99999","V020","170,1,N,0040,1","99999,9,9,N","035000,1,N,1","-0021,1","-0101,1","10207,1",,,,,,,"99999,9,09859,1","8,1,019,1,+999,9","SYN060AAXX  25121 02151 45981 /1704 11021 21101 39859 40207 58019;",
"02151099999","2010-03-25T15:00:00","4","66.4833333","20.1666666","275.0","JOKKMOKK FPL, SW","FM-12","99999","V020","150,1,N,0050,1","99999,9,9,N","050000,1,N,1","-0022,1","-0097,1","10179,1",,,"04,1,+01500,1,99,9",,,,"99999,9,09832,1","8,1,027,1,+999,9","SYN076AAXX  25151 02151 45784 /1505 11022 21097 39832 40179 58027 333 84/50 88/57;",
"02151099999","2010-03-25T18:00:00","4","66.4833333","20.1666666","275.0","JOKKMOKK FPL, SW","FM-12","99999","V020","180,1,N,0050,1","99999,9,9,N","024000,1,N,1","-0037,1","-0089,1","10167,1","80,1","8,1,06,1","01,1,+00750,1,99,9",,"120,M,-0015,1","999,N,-0186,1","99999,9,09818,1","6,1,014,1,+999,9","SYN094AAXX  25181 02151 47574 /1805 11037 21089 39818 40167 56014 78080 333 11015 21186 81/25 87/44;",
"02151099999","2010-03-25T21:00:00","4","66.4833333","20.1666666","275.0","JOKKMOKK FPL, SW","FM-12","99999","V020","140,1,N,0030,1","00630,1,C,N","007000,1,N,1","-0064,1","-0069,1","10146,1","71,1","7,1,03,1","02,1,+00270,1,99,9","06,1,+00630,1,99,9",,,"99999,9,09795,1","8,1,023,1,+999,9","SYN088AAXX  25211 02151 47357 /1403 11064 21069 39795 40146 58023 77174 333 82/09 86/21 87/50;",
"02151099999","2010-03-26T00:00:00","4","66.4833333","20.1666666","275.0","JOKKMOKK FPL, SW","FM-12","99999","V020","110,1,N,0010,1","00210,1,C,N","006000,1,N,1","-0066,1","-0070,1","10119,1","71,1","7,1,06,1","08,1,+00210,1,99,9",,,,"99999,9,09769,1","8,1,027,1,+999,9","SYN076AAXX  26001 02151 47356 /1101 11066 21070 39769 40119 58027 77174 333 88/07;",
"02151099999","2010-03-26T03:00:00","4","66.4833333","20.1666666","275.0","JOKKMOKK FPL, SW","FM-12","99999","V020","999,9,C,0000,1","00300,1,C,N","030000,1,N,1","-0072,1","-0075,1","10105,1","00,1","7,1,03,1","07,1,+00300,1,99,9",,,,"99999,9,09755,1","6,1,014,1,+999,9","SYN082AAXX  26031 02151 47480 /0000 11072 21075 39755 40105 56014 70072 333 87/10 88/13;",
"02151099999","2010-03-26T06:00:00","4","66.4833333","20.1666666","275.0","JOKKMOKK FPL, SW","FM-12","99999","V020","999,9,C,0000,1","00420,1,C,N","035000,1,N,1","-0069,1","-0072,1","10099,1","00,1","7,1,06,1","08,1,+00420,1,99,9",,"120,M,-0037,1","999,N,-0081,1","99999,9,09749,1","5,1,006,1,+999,9","SYN088AAXX  26061 02151 47481 /0000 11069 21072 39749 40099 55006 70072 333 11037 21081 88/14;",
"02151099999","2010-03-26T09:00:00","4","66.4833333","20.1666666","275.0","JOKKMOKK FPL, SW","FM-12","99999","V020","030,1,N,0010,1","00480,1,C,N","040000,1,N,1","-0043,1","-0066,1","10096,1",,,"08,1,+00480,1,99,9",,,,"99999,9,09749,1","0,1,000,1,+999,9","SYN070AAXX  26091 02151 45482 /0301 11043 21066 39749 40096 50000 333 88/16;",
"02151099999","2010-03-26T12:00:00","4","66.4833333","20.1666666","275.0","JOKKMOKK FPL, SW","FM-12","99999","V020","320,1,N,0020,1","00480,1,C,N","040000,1,N,1","-0041,1","-0066,1","10091,1",,,"08,1,+00480,1,99,9",,,,"99999,9,09744,1","7,1,005,1,+999,9","SYN070AAXX  26121 02151 45482 /3202 11041 21066 39744 40091 57005 333 88/16;",
"02151099999","2010-03-26T15:00:00","4","66.4833333","20.1666666","275.0","JOKKMOKK FPL, SW","FM-12","99999","V020","270,1,N,0010,1","00690,1,C,N","050000,1,N,1","-0032,1","-0069,1","10080,1",,,"07,1,+00690,1,99,9",,,,"99999,9,09735,1","7,1,009,1,+999,9","SYN070AAXX  26151 02151 45584 /2701 11032 21069 39735 40080 57009 333 87/23;",
"02151099999","2010-03-26T18:00:00","4","66.4833333","20.1666666","275.0","JOKKMOKK FPL, SW","FM-12","99999","V020","999,9,C,0000,1","00840,1,C,N","050000,1,N,1","-0034,1","-0063,1","10083,1",,,"08,1,+00840,1,99,9",,"120,M,-0028,1","999,N,-0069,1","99999,9,09738,1","3,1,003,1,+999,9","SYN082AAXX  26181 02151 45584 /0000 11034 21063 39738 40083 53003 333 11028 21069 88/28;",
"02151099999","2010-03-26T21:00:00","4","66.4833333","20.1666666","275.0","JOKKMOKK FPL, SW","FM-12","99999","V020","010,1,N,0010,1","01110,1,C,N","050000,1,N,1","-0044,1","-0076,1","10093,1",,,"08,1,+01110,1,99,9",,,,"99999,9,09746,1","1,1,008,1,+999,9","SYN070AAXX  26211 02151 45684 /0101 11044 21076 39746 40093 51008 333 88/37;",
"02151099999","2010-03-27T00:00:00","4","66.4833333","20.1666666","275.0","JOKKMOKK FPL, SW","FM-12","99999","V020","999,9,C,0000,1","01200,1,C,N","050000,1,N,1","-0081,1","-0088,1","10100,1",,,"08,1,+01200,1,99,9",,,,"99999,9,09749,1","3,1,002,1,+999,9","SYN070AAXX  27001 02151 45684 /0000 11081 21088 39749 40100 53002 333 88/40;",
"02151099999","2010-03-27T03:00:00","4","66.4833333","20.1666666","275.0","JOKKMOKK FPL, SW","FM-12","99999","V020","330,1,N,0010,1","99999,9,9,N","050000,1,N,1","-0083,1","-0095,1","10098,1",,,"03,1,+00630,1,99,9",,,,"99999,9,09746,1","5,1,003,1,+999,9","SYN076AAXX  27031 02151 45584 /3301 11083 21095 39746 40098 55003 333 83/21 88/28;",
"02151099999","2010-03-27T06:00:00","4","66.4833333","20.1666666","275.0","JOKKMOKK FPL, SW","FM-12","99999","V020","360,1,N,0010,1","00750,1,C,N","050000,1,N,1","-0060,1","-0078,1","10105,1",,,"08,1,+00750,1,99,9",,"120,M,-0031,1","999,N,-0109,1","99999,9,09755,1","3,1,009,1,+999,9","SYN082AAXX  27061 02151 45584 /3601 11060 21078 39755 40105 53009 333 11031 21109 88/25;",
"02151099999","2010-03-27T09:00:00","4","66.4833333","20.1666666","275.0","JOKKMOKK FPL, SW","FM-12","99999","V020","100,1,N,0030,1","00690,1,C,N","040000,1,N,1","-0040,1","-0079,1","10101,1",,,"08,1,+00690,1,99,9",,,,"99999,9,09754,1","8,1,001,1,+999,9","SYN070AAXX  27091 02151 45582 /1003 11040 21079 39754 40101 58001 333 88/23;",
"02151099999","2010-03-27T12:00:00","4","66.4833333","20.1666666","275.0","JOKKMOKK FPL, SW","FM-12","99999","V020","070,1,N,0030,1","00780,1,C,N","050000,1,N,1","-0036,1","-0081,1","10087,1",,,"08,1,+00780,1,99,9",,,,"99999,9,09742,1","8,1,013,1,+999,9","SYN070AAXX  27121 02151 45584 /0703 11036 21081 39742 40087 58013 333 88/26;",
"02151099999","2010-03-27T15:00:00","4","66.4833333","20.1666666","275.0","JOKKMOKK FPL, SW","FM-12","99999","V020","080,1,N,0030,1","00780,1,C,N","050000,1,N,1","-0037,1","-0081,1","10074,1",,,"08,1,+00780,1,99,9",,,,"99999,9,09729,1","7,1,012,1,+999,9","SYN070AAXX  27151 02151 45584 /0803 11037 21081 39729 40074 57012 333 88/26;",
"02151099999","2010-03-27T18:00:00","4","66.4833333","20.1666666","275.0","JOKKMOKK FPL, SW","FM-12","99999","V020","070,1,N,0020,1","00720,1,C,N","002200,1,N,1","-0055,1","-0065,1","10063,1","71,1","7,1,06,1","09,1,+00720,1,99,9",,"120,M,-0033,1","999,N,-0060,1","99999,9,09716,1","7,1,013,1,+999,9","SYN088AAXX  27181 02151 47/22 /0702 11055 21065 39716 40063 57013 77174 333 11033 21060 89/24;",
"02151099999","2010-03-27T21:00:00","4","66.4833333","20.1666666","275.0","JOKKMOKK FPL, SW","FM-12","99999","V020","040,1,N,0020,1","00180,1,C,N","000900,1,N,1","-0059,1","-0062,1","10045,1","72,1","7,1,03,1","09,1,+00180,1,99,9",,,,"99999,9,09698,1","8,1,018,1,+999,9","SYN076AAXX  27211 02151 47/09 /0402 11059 21062 39698 40045 58018 77277 333 89/06;",
"02151099999","2010-03-28T00:00:00","4","66.4833333","20.1666666","275.0","JOKKMOKK FPL, SW","FM-12","99999","V020","040,1,N,0030,1","00210,1,C,N","001000,1,N,1","-0057,1","-0059,1","10022,1","71,1","7,1,06,1","09,1,+00210,1,99,9",,,,"99999,9,09676,1","8,1,022,1,+999,9","SYN076AAXX  28001 02151 47/10 /0403 11057 21059 39676 40022 58022 77177 333 89/07;",
"02151099999","2010-03-28T03:00:00","4","66.4833333","20.1666666","275.0","JOKKMOKK FPL, SW","FM-12","99999","V020","040,1,N,0030,1","00210,1,C,N","001200,1,N,1","-0061,1","-0064,1","10004,1","72,1","7,1,03,1","09,1,+00210,1,99,9",,,,"99999,9,09658,1","8,1,018,1,+999,9","SYN076AAXX  28031 02151 47/12 /0403 11061 21064 39658 40004 58018 77277 333 89/07;",
"02151099999","2010-03-28T06:00:00","4","66.4833333","20.1666666","275.0","JOKKMOKK FPL, SW","FM-12","99999","V020","030,1,N,0040,1","99999,9,9,N","020000,1,N,1","-0060,1","-0067,1","09995,1","71,1","7,1,06,1","04,1,+00570,1,99,9",,"120,M,-0055,1","999,N,-0064,1","99999,9,09649,1","7,1,009,1,+999,9","SYN094AAXX  28061 02151 47470 /0304 11060 21067 39649 49995 57009 77177 333 11055 21064 84/19 88/29;",
"02151099999","2010-03-28T09:00:00","4","66.4833333","20.1666666","275.0","JOKKMOKK FPL, SW","FM-12","99999","V020","010,1,N,0040,1","00780,1,C,N","003600,1,N,1","-0058,1","-0070,1","09986,1","71,1","7,1,03,1","09,1,+00780,1,99,9",,,,"99999,9,09641,1","7,1,008,1,+999,9","SYN076AAXX  28091 02151 47/36 /0104 11058 21070 39641 49986 57008 77177 333 89/26;",
"02151099999","2010-03-28T12:00:00","4","66.4833333","20.1666666","275.0","JOKKMOKK FPL, SW","FM-12","99999","V020","020,1,N,0030,1","22000,1,C,N","015000,1,N,1","-0049,1","-0073,1","09978,1","71,1","7,1,06,1","01,1,+00210,1,99,9","04,1,+00570,1,99,9",,,"99999,9,09635,1","7,1,006,1,+999,9","SYN088AAXX  28121 02151 47365 /0203 11049 21073 39635 49978 57006 77177 333 81/07 84/19 88/26;",
"02151099999","2010-03-28T15:00:00","4","66.4833333","20.1666666","275.0","JOKKMOKK FPL, SW","FM-12","99999","V020","010,1,N,0030,1","99999,9,9,N","040000,1,N,1","-0050,1","-0075,1","09977,1","24,1","8,1,03,1","01,1,+00240,1,99,9","03,1,+00360,1,99,9",,,"99999,9,09633,1","7,1,002,1,+999,9","SYN088AAXX  28151 02151 47382 /0103 11050 21075 39633 49977 57002 72487 333 81/08 83/12 85/20;",
"02151099999","2010-03-28T18:00:00","4","66.4833333","20.1666666","275.0","JOKKMOKK FPL, SW","FM-12","99999","V020","360,1,N,0030,1","00570,1,C,N","050000,1,N,1","-0052,1","-0074,1","09980,1","00,1","8,1,06,1","08,1,+00570,1,99,9",,"120,M,-0049,1","999,N,-0061,1","99999,9,09636,1","3,1,003,1,+999,9","SYN088AAXX  28181 02151 47484 /3603 11052 21074 39636 49980 53003 70087 333 11049 21061 88/19;",
"02151099999","2010-03-28T21:00:00","4","66.4833333","20.1666666","275.0","JOKKMOKK FPL, SW","FM-12","99999","V020","010,1,N,0020,1","00510,1,C,N","045000,1,N,1","-0056,1","-0076,1","09985,1",,,"08,1,+00510,1,99,9",,,,"99999,9,09641,1","2,1,005,1,+999,9","SYN070AAXX  28211 02151 45483 /0102 11056 21076 39641 49985 52005 333 88/17;",
"02151099999","2010-03-29T00:00:00","4","66.4833333","20.1666666","275.0","JOKKMOKK FPL, SW","FM-12","99999","V020","360,1,N,0020,1","00480,1,C,N","040000,1,N,1","-0059,1","-0079,1","09987,1",,,"08,1,+00480,1,99,9",,,,"99999,9,09642,1","2,1,002,1,+999,9","SYN070AAXX  29001 02151 45482 /3602 11059 21079 39642 49987 52002 333 88/16;",
"02151099999","2010-03-29T03:00:00","4","66.4833333","20.1666666","275.0","JOKKMOKK FPL, SW","FM-12","99999","V020","340,1,N,0030,1","00480,1,C,N","012000,1,N,1","-0065,1","-0081,1","09994,1","71,1","8,1,03,1","07,1,+00480,1,99,9",,,,"99999,9,09649,1","1,1,006,1,+999,9","SYN082AAXX  29031 02151 47462 /3403 11065 21081 39649 49994 51006 77187 333 87/16 88/20;",
"02151099999","2010-03-29T06:00:00","4","66.4833333","20.1666666","275.0","JOKKMOKK FPL, SW","FM-12","99999","V020","350,1,N,0020,1","00480,1,C,N","030000,1,N,1","-0063,1","-0084,1","10000,1","71,1","8,1,06,1","08,1,+00480,1,99,9",,"120,M,-0051,1","999,N,-0068,1","99999,9,09654,1","2,1,006,1,+999,9","SYN088AAXX  29061 02151 47480 /3502 11063 21084 39654 40000 52006 77187 333 11051 21068 88/16;",
"02151099999","2010-03-29T09:00:00","4","66.4833333","20.1666666","275.0","JOKKMOKK FPL, SW","FM-12","99999","V020","360,1,N,0030,1","00570,1,C,N","030000,1,N,1","-0055,1","-0087,1","10007,1","85,1","8,1,03,1","07,1,+00570,1,99,9",,,,"99999,9,09661,1","2,1,007,1,+999,9","SYN082AAXX  29091 02151 47480 /3603 11055 21087 39661 40007 52007 78587 333 87/19 88/23;",
"02151099999","2010-03-29T12:00:00","4","66.4833333","20.1666666","275.0","JOKKMOKK FPL, SW","FM-12","99999","V020","020,1,N,0030,1","00720,1,C,N","002900,1,N,1","-0044,1","-0076,1","10010,1","00,1","8,1,06,1","05,1,+00720,1,99,9","07,1,+01380,1,99,9",,,"99999,9,09666,1","2,1,004,1,+999,9","SYN088AAXX  29121 02151 47529 /0203 11044 21076 39666 40010 52004 70087 333 85/24 87/46 88/56;",
"02151099999","2010-03-29T21:00:00","4","66.4833333","20.1666666","275.0","JOKKMOKK FPL, SW","FM-12","99999","V020","320,1,N,0020,1","99999,9,9,N","012000,1,N,1","-0056,1","-0070,1","10019,1","71,1","7,1,03,1","04,1,+00750,1,99,9",,,,"99999,9,09673,1","4,1,000,1,+999,9","SYN082AAXX  29211 02151 47562 /3202 11056 21070 39673 40019 54001 77177 333 84/25 88/56;",
"02151099999","2010-03-30T00:00:00","4","66.4833333","20.1666666","275.0","JOKKMOKK FPL, SW","FM-12","99999","V020","310,1,N,0030,1","99999,9,9,N","014000,1,N,1","-0061,1","-0074,1","10018,1","71,1","7,1,06,1","01,1,+01020,1,99,9",,,,"99999,9,09671,1","7,1,002,1,+999,9","SYN082AAXX  30001 02151 47664 /3103 11061 21074 39671 40018 57002 77177 333 81/34 88/56;",
"02151099999","2010-03-30T03:00:00","4","66.4833333","20.1666666","275.0","JOKKMOKK FPL, SW","FM-12","99999","V020","300,1,N,0030,1","00990,1,C,N","006000,1,N,1","-0071,1","-0082,1","10016,1","71,1","7,1,03,1","09,1,+00990,1,99,9",,,,"99999,9,09668,1","7,1,003,1,+999,9","SYN076AAXX  30031 02151 47/56 /3003 11071 21082 39668 40016 57003 77177 333 89/33;",
"02151099999","2010-03-30T06:00:00","4","66.4833333","20.1666666","275.0","JOKKMOKK FPL, SW","FM-12","99999","V020","300,1,N,0030,1","22000,1,C,N","007000,1,N,1","-0068,1","-0079,1","10018,1","71,1","7,1,06,1","01,1,+00270,1,99,9","04,1,+00990,1,99,9","120,M,-0049,1","999,N,-0074,1","99999,9,09671,1","2,1,002,1,+999,9","SYN100AAXX  30061 02151 47357 /3003 11068 21079 39671 40018 52002 77177 333 11049 21074 81/09 84/33 87/57;",
"02151099999","2010-03-30T09:00:00","4","66.4833333","20.1666666","275.0","JOKKMOKK FPL, SW","FM-12","99999","V020","300,1,N,0040,1","99999,9,9,N","014000,1,N,1","-0051,1","-0073,1","10021,1","71,1","7,1,03,1",,,,,"99999,9,09676,1","2,1,006,1,+999,9","SYN066AAXX  30091 02151 47964 /3004 11051 21073 39676 40021 52006 77177;",
"02151099999","2010-03-30T12:00:00","4","66.4833333","20.1666666","275.0","JOKKMOKK FPL, SW","FM-12","99999","V020","300,1,N,0030,1","00780,1,C,N","030000,1,N,1","-0025,1","-0072,1","10028,1","00,1","7,1,06,1","05,1,+00780,1,99,9",,,,"99999,9,09687,1","2,1,010,1,+999,9","SYN076AAXX  30121 02151 47580 /3003 11025 21072 39687 40028 52010 70072 333 85/26;",
"02151099999","2010-03-30T15:00:00","4","66.4833333","20.1666666","275.0","JOKKMOKK FPL, SW","FM-12","99999","V020","290,1,N,0020,1","99999,9,9,N","045000,1,N,1","-0014,1","-0083,1","10040,1",,,"01,1,+00660,1,99,9",,,,"99999,9,09699,1","2,1,013,1,+999,9","SYN070AAXX  30151 02151 45583 /2902 11014 21083 39699 40040 52013 333 81/22;",
"02151099999","2010-03-30T18:00:00","4","66.4833333","20.1666666","275.0","JOKKMOKK FPL, SW","FM-12","99999","V020","210,1,N,0010,1","99999,9,9,N","050000,1,N,1","-0052,1","-0080,1","10061,1",,,,,"120,M,-0005,1","999,N,-0107,1","99999,9,09714,1","3,1,015,1,+999,9","SYN076AAXX  30181 02151 45984 /2101 11052 21080 39714 40061 53015 333 11005 21107;",
"02151099999","2010-03-30T21:00:00","4","66.4833333","20.1666666","275.0","JOKKMOKK FPL, SW","FM-12","99999","V020","180,1,N,0010,1","99999,9,9,N","050000,1,N,1","-0121,1","-0133,1","10083,1",,,"03,1,+01290,1,99,9",,,,"99999,9,09727,1","3,1,013,1,+999,9","SYN070AAXX  30211 02151 45684 /1801 11121 21133 39727 40083 53013 333 83/43;",
"02151099999","2010-03-31T00:00:00","4","66.4833333","20.1666666","275.0","JOKKMOKK FPL, SW","FM-12","99999","V020","160,1,N,0010,1","01350,1,C,N","050000,1,N,1","-0089,1","-0104,1","10090,1",,,"08,1,+01350,1,99,9",,,,"99999,9,09738,1","3,1,011,1,+999,9","SYN070AAXX  31001 02151 45684 /1601 11089 21104 39738 40090 53011 333 88/45;",
"02151099999","2010-03-31T03:00:00","4","66.4833333","20.1666666","275.0","JOKKMOKK FPL, SW","FM-12","99999","V020","140,1,N,0020,1","99999,9,9,N","050000,1,N,1","-0085,1","-0097,1","10098,1",,,"02,1,+02100,1,99,9",,,,"99999,9,09746,1","0,1,008,1,+999,9","SYN076AAXX  31031 02151 45884 /1402 11085 21097 39746 40098 50008 333 82/57 88/61;",
"02151099999","2010-03-31T06:00:00","4","66.4833333","20.1666666","275.0","JOKKMOKK FPL, SW","FM-12","99999","V020","130,1,N,0020,1","99999,9,9,N","018000,1,N,1","-0061,1","-0070,1","10100,1","71,1","7,1,06,1","01,1,+00390,1,99,9",,"120,M,-0050,1","999,N,-0127,1","99999,9,09751,1","1,1,005,1,+999,9","SYN094AAXX  31061 02151 47468 /1302 11061 21070 39751 40100 51005 77170 333 11050 21127 81/13 88/38;",
"02151099999","2010-03-31T09:00:00","4","66.4833333","20.1666666","275.0","JOKKMOKK FPL, SW","FM-12","99999","V020","140,1,N,0030,1","99999,9,9,N","040000,1,N,1","-0025,1","-0041,1","10107,1","00,1","8,1,03,1","02,1,+00450,1,99,9",,,,"99999,9,09763,1","3,1,012,1,+999,9","SYN082AAXX  31091 02151 47482 /1403 11025 21041 39763 40107 53012 70087 333 82/15 88/39;",
"02151099999","2010-03-31T12:00:00","4","66.4833333","20.1666666","275.0","JOKKMOKK FPL, SW","FM-12","99999","V020","130,1,N,0040,1","01500,1,C,N","040000,1,N,1","-0004,1","-0025,1","10113,1","00,1","8,1,06,1","08,1,+01500,1,99,9",,,,"99999,9,09770,1","2,1,008,1,+999,9","SYN076AAXX  31121 02151 47782 /1304 11004 21025 39770 40113 52008 70087 333 88/50;",
"02151099999","2010-03-31T15:00:00","4","66.4833333","20.1666666","275.0","JOKKMOKK FPL, SW","FM-12","99999","V020","130,1,N,0040,1","02400,1,C,N","045000,1,N,1","+0012,1","-0020,1","10108,1",,,"08,1,+02400,1,99,9",,,,"99999,9,09768,1","7,1,002,1,+999,9","SYN070AAXX  31151 02151 45883 /1304 10012 21020 39768 40108 57002 333 88/58;",
"02151099999","2010-03-31T18:00:00","4","66.4833333","20.1666666","275.0","JOKKMOKK FPL, SW","FM-12","99999","V020","140,1,N,0030,1","03000,1,C,N","050000,1,N,1","-0026,1","-0042,1","10126,1",,,"06,1,+03000,1,99,9",,"120,M,+0015,1","999,N,-0061,1","99999,9,09780,1","3,1,012,1,+999,9","SYN082AAXX  31181 02151 45984 /1403 11026 21042 39780 40126 53012 333 10015 21061 86/60;",
"02151099999","2010-03-31T21:00:00","4","66.4833333","20.1666666","275.0","JOKKMOKK FPL, SW","FM-12","99999","V020","100,1,N,0010,1","00150,1,C,N","005000,1,N,1","-0058,1","-0058,1","10136,1","10,1","2,1,03,1","08,1,+00150,1,99,9",,,,"99999,9,09786,1","2,1,006,1,+999,9","SYN076AAXX  31211 02151 47250 /1001 11058 21058 39786 40136 52006 71010 333 88/05;",
"02151099999","2010-04-01T00:00:00","4","66.4833333","20.1666666","275.0","JOKKMOKK FPL, SW","FM-12","99999","V020","999,9,C,0000,1","00120,1,C,N","011000,1,N,1","-0049,1","-0049,1","10127,1",,,"08,1,+00120,1,99,9",,,,"99999,9,09779,1","8,1,007,1,+999,9","SYN070AAXX  01001 02151 45261 /0000 11049 21049 39779 40127 58007 333 88/04;",
"02151099999","2010-04-01T03:00:00","4","66.4833333","20.1666666","275.0","JOKKMOKK FPL, SW","FM-12","99999","V020","300,1,N,0010,1","99999,9,9,N","015000,1,N,1","-0052,1","-0053,1","10121,1",,,"02,1,+00210,1,99,9",,,,"99999,9,09772,1","8,1,006,1,+999,9","SYN076AAXX  01031 02151 45365 /3001 11052 21053 39772 40121 58006 333 82/07 84/50;",
"02151099999","2010-04-01T06:00:00","4","66.4833333","20.1666666","275.0","JOKKMOKK FPL, SW","FM-12","99999","V020","999,9,C,0000,1","00180,1,C,N","007000,1,N,1","-0042,1","-0043,1","10119,1","71,1","7,1,06,1","08,1,+00180,1,99,9",,"120,M,-0023,1","999,N,-0064,1","99999,9,09771,1","4,1,000,1,+999,9","SYN088AAXX  01061 02151 47357 /0000 11042 21043 39771 40119 54001 77174 333 11023 21064 88/06;",
"02151099999","2010-04-01T09:00:00","4","66.4833333","20.1666666","275.0","JOKKMOKK FPL, SW","FM-12","99999","V020","310,1,N,0010,1","00150,1,C,N","011000,1,N,1","-0025,1","-0028,1","10117,1","71,1","7,1,03,1","08,1,+00150,1,99,9",,,,"99999,9,09772,1","4,1,000,1,+999,9","SYN076AAXX  01091 02151 47261 /3101 11025 21028 39772 40117 54001 77176 333 88/05;",
"02151099999","2010-04-01T12:00:00","4","66.4833333","20.1666666","275.0","JOKKMOKK FPL, SW","FM-12","99999","V020","999,9,C,0000,1","00150,1,C,N","013000,1,N,1","-0005,1","-0011,1","10113,1","00,1","7,1,06,1","08,1,+00150,1,99,9",,,,"99999,9,09771,1","7,1,002,1,+999,9","SYN076AAXX  01121 02151 47263 /0000 11005 21011 39771 40113 57002 70076 333 88/05;",
"02151099999","2010-04-01T15:00:00","4","66.4833333","20.1666666","275.0","JOKKMOKK FPL, SW","FM-12","99999","V020","999,9,C,0000,1","00090,1,C,N","006000,1,N,1","+0000,1","-0001,1","10107,1","10,1","2,1,03,1","08,1,+00090,1,99,9",,,,"99999,9,09765,1","7,1,006,1,+999,9","SYN076AAXX  01151 02151 47256 /0000 10000 21001 39765 40107 57006 71010 333 88/03;",
"02151099999","2010-04-01T18:00:00","4","66.4833333","20.1666666","275.0","JOKKMOKK FPL, SW","FM-12","99999","V020","999,9,C,0000,1","00030,1,C,N","000300,1,N,1","+0000,1","+0000,1","10108,1","30,1","4,1,06,1","08,1,+00030,1,99,9",,"120,M,+0003,1","999,N,-0042,1","99999,9,09766,1","4,1,000,1,+999,9","SYN088AAXX  01181 02151 47103 /0000 10000 20000 39766 40108 54001 73031 333 10003 21042 88/01;",
"02151099999","2010-04-01T21:00:00","4","66.4833333","20.1666666","275.0","JOKKMOKK FPL, SW","FM-12","99999","V020","999,9,C,0000,1","00060,1,C,N","000100,1,N,1","+0005,1","+0005,1","10104,1","34,1","4,1,03,1","09,1,+00060,1,99,9",,,,"99999,9,09763,1","7,1,003,1,+999,9","SYN076AAXX  01211 02151 47/01 /0000 10005 20005 39763 40104 57003 73433 333 89/02;",
"02151099999","2010-04-02T00:00:00","4","66.4833333","20.1666666","275.0","JOKKMOKK FPL, SW","FM-12","99999","V020","999,9,C,0000,1","00210,1,C,N","002700,1,N,1","+0009,1","+0009,1","10098,1","20,1","4,1,06,1","08,1,+00210,1,99,9",,,,"99999,9,09758,1","5,1,006,1,+999,9","SYN076AAXX  02001 02151 47327 /0000 10009 20009 39758 40098 55006 72032 333 88/07;",
"02151099999","2010-04-02T03:00:00","4","66.4833333","20.1666666","275.0","JOKKMOKK FPL, SW","FM-12","99999","V020","150,1,N,0010,1","00060,1,C,N","003200,1,N,1","+0011,1","+0011,1","10090,1","10,1","4,1,03,1","08,1,+00060,1,99,9",,,,"99999,9,09750,1","6,1,007,1,+999,9","SYN076AAXX  02031 02151 47132 /1501 10011 20011 39750 40090 56007 71032 333 88/02;",
"02151099999","2010-04-02T06:00:00","4","66.4833333","20.1666666","275.0","JOKKMOKK FPL, SW","FM-12","99999","V020","140,1,N,0020,1","00030,1,C,N","000600,1,N,1","+0008,1","+0008,1","10097,1","33,1","8,1,06,1","08,1,+00030,1,99,9",,"120,M,+0013,1","999,N,+0000,1","99999,9,09757,1","3,1,006,1,+999,9","SYN088AAXX  02061 02151 47106 /1402 10008 20008 39757 40097 53006 73385 333 10013 20000 88/01;",
"02151099999","2010-04-02T09:00:00","4","66.4833333","20.1666666","275.0","JOKKMOKK FPL, SW","FM-12","99999","V020","160,1,N,0020,1","00060,1,C,N","004500,1,N,1","+0019,1","+0019,1","10112,1","20,1","4,1,03,1","08,1,+00060,1,99,9",,,,"99999,9,09773,1","3,1,016,1,+999,9","SYN076AAXX  02091 02151 47145 /1602 10019 20019 39773 40112 53016 72032 333 88/02;",
"02151099999","2010-04-02T12:00:00","4","66.4833333","20.1666666","275.0","JOKKMOKK FPL, SW","FM-12","99999","V020","190,1,N,0050,1","99999,9,9,N","035000,1,N,1","+0048,1","+0002,1","10122,1","00,1","4,1,06,1","04,1,+00810,1,99,9",,,,"99999,9,09785,1","2,1,013,1,+999,9","SYN076AAXX  02121 02151 47581 /1905 10048 20002 39785 40122 52013 70032 333 84/27;",
"02151099999","2010-04-02T15:00:00","4","66.4833333","20.1666666","275.0","JOKKMOKK FPL, SW","FM-12","99999","V020","190,1,N,0040,1","00990,1,C,N","045000,1,N,1","+0045,1","-0007,1","10136,1",,,"07,1,+00990,1,99,9",,,,"99999,9,09799,1","3,1,013,1,+999,9","SYN070AAXX  02151 02151 45583 /1904 10045 21007 39799 40136 53013 333 87/33;",
"02151099999","2010-04-02T18:00:00","4","66.4833333","20.1666666","275.0","JOKKMOKK FPL, SW","FM-12","99999","V020","140,1,N,0020,1","00960,1,C,N","050000,1,N,1","+0018,1","-0004,1","10147,1",,,"08,1,+00960,1,99,9",,"120,M,+0057,1","999,N,+0008,1","99999,9,09806,1","3,1,007,1,+999,9","SYN082AAXX  02181 02151 45584 /1402 10018 21004 39806 40147 53007 333 10057 20008 88/32;",
"02151099999","2010-04-02T21:00:00","4","66.4833333","20.1666666","275.0","JOKKMOKK FPL, SW","FM-12","99999","V020","140,1,N,0040,1","99999,9,9,N","028000,1,N,1","-0011,1","-0015,1","10166,1",,,"02,1,+00150,1,99,9",,,,"99999,9,09821,1","3,1,014,1,+999,9","SYN070AAXX  02211 02151 45278 /1404 11011 21015 39821 40166 53014 333 82/05;",
"02151099999","2010-04-03T00:00:00","4","66.4833333","20.1666666","275.0","JOKKMOKK FPL, SW","FM-12","99999","V020","140,1,N,0030,1","00030,1,C,N","000500,1,N,1","-0015,1","-0015,1","10176,1","32,1","4,1,06,1","05,1,+00030,1,99,9",,,,"99999,9,09830,1","2,1,010,1,+999,9","SYN082AAXX  03001 02151 47105 /1403 11015 21015 39830 40176 52010 73231 333 85/01 88/03;",
"02151099999","2010-04-03T03:00:00","4","66.4833333","20.1666666","275.0","JOKKMOKK FPL, SW","FM-12","99999","V020","150,1,N,0030,1","00030,1,C,N","000600,1,N,1","-0021,1","-0021,1","10182,1","30,1","4,1,03,1","08,1,+00030,1,99,9",,,,"99999,9,09835,1","2,1,005,1,+999,9","SYN076AAXX  03031 02151 47106 /1503 11021 21021 39835 40182 52005 73032 333 88/01;",
"02151099999","2010-04-03T06:00:00","4","66.4833333","20.1666666","275.0","JOKKMOKK FPL, SW","FM-12","99999","V020","160,1,N,0030,1","00060,1,C,N","001100,1,N,1","-0029,1","-0029,1","10194,1","77,1","7,1,06,1","08,1,+00060,1,99,9",,"120,M,+0021,1","999,N,-0029,1","99999,9,09845,1","2,1,011,1,+999,9","SYN088AAXX  03061 02151 47111 /1603 11029 21029 39845 40194 52011 77774 333 10021 21029 88/02;",
"02151099999","2010-04-03T09:00:00","4","66.4833333","20.1666666","275.0","JOKKMOKK FPL, SW","FM-12","99999","V020","140,1,N,0020,1","00120,1,C,N","020000,1,N,1","-0030,1","-0030,1","10205,1","85,1","8,1,03,1","08,1,+00120,1,99,9",,,,"99999,9,09856,1","2,1,011,1,+999,9","SYN076AAXX  03091 02151 47270 /1402 11030 21030 39856 40205 52011 78587 333 88/04;",
"02151099999","2010-04-03T12:00:00","4","66.4833333","20.1666666","275.0","JOKKMOKK FPL, SW","FM-12","99999","V020","090,1,N,0010,1","00270,1,C,N","045000,1,N,1","-0015,1","-0016,1","10207,1","00,1","8,1,06,1","08,1,+00270,1,99,9",,,,"99999,9,09860,1","2,1,004,1,+999,9","SYN076AAXX  03121 02151 47383 /0901 11015 21016 39860 40207 52004 70087 333 88/09;",
"02151099999","2010-04-03T15:00:00","4","66.4833333","20.1666666","275.0","JOKKMOKK FPL, SW","FM-12","99999","V020","080,1,N,0010,1","00480,1,C,N","045000,1,N,1","-0006,1","-0019,1","10205,1",,,"08,1,+00480,1,99,9",,,,"99999,9,09860,1","4,1,000,1,+999,9","SYN070AAXX  03151 02151 45483 /0801 11006 21019 39860 40205 54001 333 88/16;",
"02151099999","2010-04-03T18:00:00","4","66.4833333","20.1666666","275.0","JOKKMOKK FPL, SW","FM-12","99999","V020","150,1,N,0010,1","99999,9,9,N","050000,1,N,1","-0037,1","-0038,1","10214,1",,,,,"120,M,-0003,1","999,N,-0040,1","99999,9,09864,1","3,1,004,1,+999,9","SYN076AAXX  03181 02151 45984 /1501 11037 21038 39864 40214 53004 333 11003 21040;",
"02151099999","2010-04-03T21:00:00","4","66.4833333","20.1666666","275.0","JOKKMOKK FPL, SW","FM-12","99999","V020","999,9,C,0000,1","99999,9,9,N","050000,1,N,1","-0098,1","-0103,1","10226,1",,,,,,,"99999,9,09867,1","2,1,004,1,+999,9","SYN060AAXX  03211 02151 45/84 /0000 11098 21103 39867 40226 52004;",
"02151099999","2010-04-04T00:00:00","4","66.4833333","20.1666666","275.0","JOKKMOKK FPL, SW","FM-12","99999","V020","290,1,N,0010,1","00030,1,C,N","019000,1,N,1","-0069,1","-0071,1","10227,1","20,1","4,1,06,1","09,1,+00030,1,99,9",,,,"99999,9,09873,1","2,1,005,1,+999,9","SYN076AAXX  04001 02151 47/69 /2901 11069 21071 39873 40227 52005 72032 333 89/01;",
"02151099999","2010-04-04T03:00:00","4","66.4833333","20.1666666","275.0","JOKKMOKK FPL, SW","FM-12","99999","V020","320,1,N,0010,1","00030,1,C,N","001200,1,N,1","-0076,1","-0078,1","10232,1","32,1","4,1,03,1","06,1,+00030,1,99,9",,,,"99999,9,09877,1","2,1,004,1,+999,9","SYN082AAXX  04031 02151 47112 /3201 11076 21078 39877 40232 52004 73232 333 86/01 88/03;",
"02151099999","2010-04-04T06:00:00","4","66.4833333","20.1666666","275.0","JOKKMOKK FPL, SW","FM-12","99999","V020","300,1,N,0010,1","00060,1,C,N","001600,1,N,1","-0075,1","-0078,1","10238,1","20,1","4,1,06,1","08,1,+00060,1,99,9",,"120,M,-0030,1","999,N,-0101,1","99999,9,09882,1","2,1,006,1,+999,9","SYN088AAXX  04061 02151 47116 /3001 11075 21078 39882 40238 52006 72032 333 11030 21101 88/02;",
"02151099999","2010-04-04T09:00:00","4","66.4833333","20.1666666","275.0","JOKKMOKK FPL, SW","FM-12","99999","V020","310,1,N,0020,1","99999,9,9,N","040000,1,N,1","-0030,1","-0031,1","10233,1",,,,,,,"99999,9,09883,1","2,1,001,1,+999,9","SYN060AAXX  04091 02151 45982 /3102 11030 21031 39883 40233 52001;",
"02151099999","2010-04-04T12:00:00","4","66.4833333","20.1666666","275.0","JOKKMOKK FPL, SW","FM-12","99999","V020","340,1,N,0020,1","99999,9,9,N","040000,1,N,1","+0027,1","-0027,1","10219,1",,,,,,,"99999,9,09877,1","7,1,006,1,+999,9","SYN060AAXX  04121 02151 45982 /3402 10027 21027 39877 40219 57006;",
"02151099999","2010-04-04T15:00:00","4","66.4833333","20.1666666","275.0","JOKKMOKK FPL, SW","FM-12","99999","V020","330,1,N,0020,1","99999,9,9,N","040000,1,N,1","+0040,1","-0044,1","10210,1",,,,,,,"99999,9,09870,1","7,1,007,1,+999,9","SYN060AAXX  04151 02151 45982 /3302 10040 21044 39870 40210 57007;",
"02151099999","2010-04-04T18:00:00","4","66.4833333","20.1666666","275.0","JOKKMOKK FPL, SW","FM-12","99999","V020","999,9,C,0000,1","99999,9,9,N","050000,1,N,1","-0020,1","-0061,1","10222,1",,,,,"120,M,+0048,1","999,N,-0075,1","99999,9,09874,1","2,1,004,1,+999,9","SYN076AAXX  04181 02151 45984 /0000 11020 21061 39874 40222 52004 333 10048 21075;",
"02151099999","2010-04-04T21:00:00","4","66.4833333","20.1666666","275.0","JOKKMOKK FPL, SW","FM-12","99999","V020","999,9,C,0000,1","99999,9,9,N","050000,1,N,1","-0069,1","-0073,1","10235,1",,,,,,,"99999,9,09881,1","2,1,007,1,+999,9","SYN060AAXX  04211 02151 45984 /0000 11069 21073 39881 40235 52007;",
"02151099999","2010-04-05T00:00:00","4","66.4833333","20.1666666","275.0","JOKKMOKK FPL, SW","FM-12","99999","V020","999,9,C,0000,1","99999,9,9,N","050000,1,N,1","-0084,1","-0087,1","10242,1",,,,,,,"99999,9,09885,1","2,1,004,1,+999,9","SYN060AAXX  05001 02151 45984 /0000 11084 21087 39885 40242 52004;",
"02151099999","2010-04-05T03:00:00","4","66.4833333","20.1666666","275.0","JOKKMOKK FPL, SW","FM-12","99999","V020","999,9,C,0000,1","99999,9,9,N","050000,1,N,1","-0096,1","-0098,1","10246,1",,,,,,,"99999,9,09887,1","2,1,002,1,+999,9","SYN060AAXX  05031 02151 45984 /0000 11096 21098 39887 40246 52002;",
"02151099999","2010-04-05T06:00:00","4","66.4833333","20.1666666","275.0","JOKKMOKK FPL, SW","FM-12","99999","V020","999,9,C,0000,1","00480,1,C,N","045000,1,N,1","-0071,1","-0080,1","10243,1",,,"07,1,+00480,1,99,9",,"120,M,-0010,1","999,N,-0113,1","99999,9,09888,1","4,1,000,1,+999,9","SYN082AAXX  05061 02151 45483 /0000 11071 21080 39888 40243 54001 333 11010 21113 87/16;",
"02151099999","2010-04-05T09:00:00","4","66.4833333","20.1666666","275.0","JOKKMOKK FPL, SW","FM-12","99999","V020","240,1,N,0010,1","99999,9,9,N","040000,1,N,1","-0014,1","-0048,1","10242,1",,,"02,1,+00450,1,99,9",,,,"99999,9,09894,1","2,1,006,1,+999,9","SYN070AAXX  05091 02151 45482 /2401 11014 21048 39894 40242 52006 333 82/15;",
"02151099999","2010-04-05T12:00:00","4","66.4833333","20.1666666","275.0","JOKKMOKK FPL, SW","FM-12","99999","V020","350,1,N,0030,1","99999,9,9,N","035000,1,N,1","+0007,1","-0038,1","10235,1",,,,,,,"99999,9,09890,1","7,1,004,1,+999,9","SYN060AAXX  05121 02151 45981 /3503 10007 21038 39890 40235 57004;",
"02151099999","2010-04-05T15:00:00","4","66.4833333","20.1666666","275.0","JOKKMOKK FPL, SW","FM-12","99999","V020","360,1,N,0020,1","99999,9,9,N","045000,1,N,1","+0018,1","-0030,1","10232,1",,,,,,,"99999,9,09889,1","7,1,001,1,+999,9","SYN060AAXX  05151 02151 45983 /3602 10018 21030 39889 40232 57001;",
"02151099999","2010-04-05T18:00:00","4","66.4833333","20.1666666","275.0","JOKKMOKK FPL, SW","FM-12","99999","V020","260,1,N,0010,1","99999,9,9,N","050000,1,N,1","-0027,1","-0044,1","10243,1",,,,,"120,M,+0027,1","999,N,-0073,1","99999,9,09893,1","2,1,005,1,+999,9","SYN076AAXX  05181 02151 45984 /2601 11027 21044 39893 40243 52005 333 10027 21073;",
"02151099999","2010-04-05T21:00:00","4","66.4833333","20.1666666","275.0","JOKKMOKK FPL, SW","FM-12","99999","V020","290,1,N,0010,1","01080,1,C,N","050000,1,N,1","-0073,1","-0077,1","10259,1",,,"05,1,+01080,1,99,9",,,,"99999,9,09903,1","2,1,010,1,+999,9","SYN070AAXX  05211 02151 45684 /2901 11073 21077 39903 40259 52010 333 85/36;",
"02151099999","2010-04-06T00:00:00","4","66.4833333","20.1666666","275.0","JOKKMOKK FPL, SW","FM-12","99999","V020","350,1,N,0010,1","01050,1,C,N","050000,1,N,1","-0040,1","-0048,1","10260,1",,,"08,1,+01050,1,99,9",,,,"99999,9,09908,1","2,1,005,1,+999,9","SYN070AAXX  06001 02151 45684 /3501 11040 21048 39908 40260 52005 333 88/35;",
"02151099999","2010-04-06T03:00:00","4","66.4833333","20.1666666","275.0","JOKKMOKK FPL, SW","FM-12","99999","V020","999,9,C,0000,1","00900,1,C,N","050000,1,N,1","-0041,1","-0050,1","10267,1",,,"08,1,+00900,1,99,9",,,,"99999,9,09914,1","2,1,006,1,+999,9","SYN070AAXX  06031 02151 45584 /0000 11041 21050 39914 40267 52006 333 88/30;",
"02151099999","2010-04-06T06:00:00","4","66.4833333","20.1666666","275.0","JOKKMOKK FPL, SW","FM-12","99999","V020","310,1,N,0020,1","00930,1,C,N","050000,1,N,1","-0034,1","-0052,1","10267,1",,,"08,1,+00930,1,99,9",,"120,M,-0027,1","999,N,-0077,1","99999,9,09916,1","2,1,002,1,+999,9","SYN082AAXX  06061 02151 45584 /3102 11034 21052 39916 40267 52002 333 11027 21077 88/31;",
"02151099999","2010-04-06T09:00:00","4","66.4833333","20.1666666","275.0","JOKKMOKK FPL, SW","FM-12","99999","V020","320,1,N,0010,1","00960,1,C,N","035000,1,N,1","-0005,1","-0041,1","10268,1",,,"08,1,+00960,1,99,9",,,,"99999,9,09920,1","2,1,004,1,+999,9","SYN070AAXX  06091 02151 45581 /3201 11005 21041 39920 40268 52004 333 88/32;",
"02151099999","2010-04-06T12:00:00","4","66.4833333","20.1666666","275.0","JOKKMOKK FPL, SW","FM-12","99999","V020","140,1,N,0020,1","99999,9,9,N","035000,1,N,1","+0033,1","-0038,1","10253,1",,,,,,,"99999,9,09911,1","7,1,009,1,+999,9","SYN060AAXX  06121 02151 45981 /1402 10033 21038 39911 40253 57009;",
"02151099999","2010-04-06T15:00:00","4","66.4833333","20.1666666","275.0","JOKKMOKK FPL, SW","FM-12","99999","V020","100,1,N,0020,1","99999,9,9,N","040000,1,N,1","+0048,1","-0039,1","10245,1",,,,,,,"99999,9,09905,1","7,1,006,1,+999,9","SYN060AAXX  06151 02151 45982 /1002 10048 21039 39905 40245 57006;",
"02151099999","2010-04-06T18:00:00","4","66.4833333","20.1666666","275.0","JOKKMOKK FPL, SW","FM-12","99999","V020","999,9,C,0000,1","99999,9,9,N","050000,1,N,1","+0004,1","-0042,1","10253,1",,,,,"120,M,+0062,1","999,N,-0034,1","99999,9,09907,1","2,1,002,1,+999,9","SYN076AAXX  06181 02151 45984 /0000 10004 21042 39907 40253 52002 333 10062 21034;",
"02151099999","2010-04-06T21:00:00","4","66.4833333","20.1666666","275.0","JOKKMOKK FPL, SW","FM-12","99999","V020","200,1,N,0010,1","02400,1,C,N","050000,1,N,1","-0026,1","-0048,1","10259,1",,,"05,1,+02400,1,99,9",,,,"99999,9,09909,1","0,1,002,1,+999,9","SYN070AAXX  06211 02151 45984 /2001 11026 21048 39909 40259 50002 333 85/58;",
"02151099999","2010-04-07T00:00:00","4","66.4833333","20.1666666","275.0","JOKKMOKK FPL, SW","FM-12","99999","V020","260,1,N,0010,1","02100,1,C,N","050000,1,N,1","-0036,1","-0053,1","10261,1",,,"08,1,+02100,1,99,9",,,,"99999,9,09909,1","0,1,000,1,+999,9","SYN070AAXX  07001 02151 45884 /2601 11036 21053 39909 40261 50000 333 88/57;",
"02151099999","2010-04-07T03:00:00","4","66.4833333","20.1666666","275.0","JOKKMOKK FPL, SW","FM-12","99999","V020","999,9,C,0000,1","01410,1,C,N","050000,1,N,1","-0036,1","-0051,1","10254,1",,,"08,1,+01410,1,99,9",,,,"99999,9,09903,1","8,1,006,1,+999,9","SYN070AAXX  07031 02151 45684 /0000 11036 21051 39903 40254 58006 333 88/47;",
"02151099999","2010-04-07T06:00:00","4","66.4833333","20.1666666","275.0","JOKKMOKK FPL, SW","FM-12","99999","V020","320,1,N,0010,1","01320,1,C,N","050000,1,N,1","-0026,1","-0048,1","10254,1",,,"08,1,+01320,1,99,9",,"120,M,+0004,1","999,N,-0060,1","99999,9,09904,1","2,1,002,1,+999,9","SYN082AAXX  07061 02151 45684 /3201 11026 21048 39904 40254 52002 333 10004 21060 88/44;",
"02151099999","2010-04-07T09:00:00","4","66.4833333","20.1666666","275.0","JOKKMOKK FPL, SW","FM-12","99999","V020","280,1,N,0010,1","01320,1,C,N","050000,1,N,1","+0008,1","-0033,1","10243,1",,,"08,1,+01320,1,99,9",,,,"99999,9,09897,1","7,1,007,1,+999,9","SYN070AAXX  07091 02151 45684 /2801 10008 21033 39897 40243 57007 333 88/44;",
"02151099999","2010-04-07T12:00:00","4","66.4833333","20.1666666","275.0","JOKKMOKK FPL, SW","FM-12","99999","V020","140,1,N,0010,1","01290,1,C,N","040000,1,N,1","+0035,1","-0020,1","10224,1",,,"08,1,+01290,1,99,9",,,,"99999,9,09883,1","8,1,015,1,+999,9","SYN070AAXX  07121 02151 45682 /1401 10035 21020 39883 40224 58015 333 88/43;",
"02151099999","2010-04-07T15:00:00","4","66.4833333","20.1666666","275.0","JOKKMOKK FPL, SW","FM-12","99999","V020","130,1,N,0020,1","01500,1,C,N","045000,1,N,1","+0035,1","-0013,1","10211,1",,,"08,1,+01500,1,99,9",,,,"99999,9,09870,1","7,1,013,1,+999,9","SYN070AAXX  07151 02151 45783 /1302 10035 21013 39870 40211 57013 333 88/50;",
"02151099999","2010-04-07T18:00:00","4","66.4833333","20.1666666","275.0","JOKKMOKK FPL, SW","FM-12","99999","V020","150,1,N,0010,1","01440,1,C,N","050000,1,N,1","+0020,1","-0014,1","10209,1",,,"08,1,+01440,1,99,9",,"120,M,+0054,1","999,N,-0026,1","99999,9,09867,1","7,1,004,1,+999,9","SYN082AAXX  07181 02151 45684 /1501 10020 21014 39867 40209 57004 333 10054 21026 88/48;",
"02151099999","2010-04-07T21:00:00","4","66.4833333","20.1666666","275.0","JOKKMOKK FPL, SW","FM-12","99999","V020","999,9,C,0000,1","00720,1,C,N","024000,1,N,1","+0011,1","-0006,1","10208,1",,,"05,1,+00720,1,99,9",,,,"99999,9,09865,1","8,1,002,1,+999,9","SYN076AAXX  07211 02151 45574 /0000 10011 21006 39865 40208 58002 333 85/24 88/33;",
"02151099999","2010-04-08T00:00:00","4","66.4833333","20.1666666","275.0","JOKKMOKK FPL, SW","FM-12","99999","V020","999,9,C,0000,1","99999,9,9,N","010000,1,N,1","+0004,1","-0007,1","10204,1","61,1","6,1,06,1","04,1,+00600,1,99,9",,,,"99999,9,09859,1","7,1,005,1,+999,9","SYN082AAXX  08001 02151 47560 /0000 10004 21007 39859 40204 57005 76165 333 84/20 88/33;",
"02151099999","2010-04-08T03:00:00","4","66.4833333","20.1666666","275.0","JOKKMOKK FPL, SW","FM-12","99999","V020","999,9,C,0000,1","01200,1,C,N","014000,1,N,1","-0006,1","-0006,1","10201,1","00,1","6,1,03,1","05,1,+01200,1,99,9",,,,"99999,9,09856,1","7,1,003,1,+999,9","SYN082AAXX  08031 02151 47664 /0000 11006 21006 39856 40201 57003 70065 333 85/40 88/63;",
"02151099999","2010-04-08T06:00:00","4","66.4833333","20.1666666","275.0","JOKKMOKK FPL, SW","FM-12","99999","V020","999,9,C,0000,1","22000,1,C,N","007000,1,N,1","+0006,1","+0002,1","10199,1","71,1","7,1,06,1","01,1,+00450,1,99,9","04,1,+00750,1,99,9","120,M,+0022,1","999,N,-0015,1","99999,9,09855,1","4,1,000,1,+999,9","SYN100AAXX  08061 02151 47457 /0000 10006 20002 39855 40199 54001 77176 333 10022 21015 81/15 84/25 85/32;",
"02151099999","2010-04-08T09:00:00","4","66.4833333","20.1666666","275.0","JOKKMOKK FPL, SW","FM-12","99999","V020","999,9,C,0000,1","00600,1,C,N","040000,1,N,1","+0034,1","+0008,1","10194,1","00,1","7,1,03,1","08,1,+00600,1,99,9",,,,"99999,9,09853,1","7,1,002,1,+999,9","SYN076AAXX  08091 02151 47582 /0000 10034 20008 39853 40194 57002 70076 333 88/20;",
"02151099999","2010-04-08T12:00:00","4","66.4833333","20.1666666","275.0","JOKKMOKK FPL, SW","FM-12","99999","V020","150,1,N,0010,1","99999,9,9,N","040000,1,N,1","+0065,1","+0013,1","10185,1","00,1","7,1,06,1",,,,,"99999,9,09849,1","7,1,005,1,+999,9","SYN066AAXX  08121 02151 47982 /1501 10065 20013 39849 40185 57005 70076;",
"02151099999","2010-04-08T15:00:00","4","66.4833333","20.1666666","275.0","JOKKMOKK FPL, SW","FM-12","99999","V020","140,1,N,0040,1","02100,1,C,N","050000,1,N,1","+0047,1","+0010,1","10181,1",,,"07,1,+02100,1,99,9",,,,"99999,9,09843,1","7,1,006,1,+999,9","SYN076AAXX  08151 02151 45884 /1404 10047 20010 39843 40181 57006 333 87/57 88/58;",
"02151099999","2010-04-08T18:00:00","4","66.4833333","20.1666666","275.0","JOKKMOKK FPL, SW","FM-12","99999","V020","210,1,N,0010,1","99999,9,9,N","030000,1,N,1","+0034,1","+0027,1","10186,1","61,1","6,1,06,1","01,1,+00270,1,99,9",,"120,M,+0076,1","999,N,+0006,1","99999,9,09845,1","2,1,003,1,+999,9","SYN094AAXX  08181 02151 47380 /2101 10034 20027 39845 40186 52003 76165 333 10076 20006 81/09 85/20;",
"02151099999","2010-04-08T21:00:00","4","66.4833333","20.1666666","275.0","JOKKMOKK FPL, SW","FM-12","99999","V020","140,1,N,0020,1","00090,1,C,N","004800,1,N,1","+0011,1","+0011,1","10188,1","61,1","6,1,03,1","08,1,+00090,1,99,9",,,,"99999,9,09845,1","4,1,000,1,+999,9","SYN076AAXX  08211 02151 47248 /1402 10011 20011 39845 40188 54000 76165 333 88/03;",
"02151099999","2010-04-09T00:00:00","4","66.4833333","20.1666666","275.0","JOKKMOKK FPL, SW","FM-12","99999","V020","130,1,N,0020,1","00060,1,C,N","005000,1,N,1","+0002,1","+0002,1","10190,1","71,1","7,1,06,1","08,1,+00060,1,99,9",,,,"99999,9,09845,1","4,1,000,1,+999,9","SYN076AAXX  09001 02151 47150 /1302 10002 20002 39845 40190 54000 77176 333 88/02;",
"02151099999","2010-04-09T03:00:00","4","66.4833333","20.1666666","275.0","JOKKMOKK FPL, SW","FM-12","99999","V020","120,1,N,0030,1","00090,1,C,N","007000,1,N,1","-0003,1","-0003,1","10192,1","71,1","7,1,03,1","08,1,+00090,1,99,9",,,,"99999,9,09847,1","2,1,002,1,+999,9","SYN076AAXX  09031 02151 47157 /1203 11003 21003 39847 40192 52002 77177 333 88/03;",
"02151099999","2010-04-09T06:00:00","4","66.4833333","20.1666666","275.0","JOKKMOKK FPL, SW","FM-12","99999","V020","120,1,N,0020,1","00060,1,C,N","010000,1,N,1","-0007,1","-0007,1","10202,1","71,1","7,1,06,1","06,1,+00060,1,99,9",,"120,M,+0035,1","999,N,-0008,1","99999,9,09857,1","2,1,010,1,+999,9","SYN094AAXX  09061 02151 47160 /1202 11007 21007 39857 40202 52010 77177 333 10035 21008 86/02 88/04;",
"02151099999","2010-04-09T09:00:00","4","66.4833333","20.1666666","275.0","JOKKMOKK FPL, SW","FM-12","99999","V020","110,1,N,0020,1","00150,1,C,N","011000,1,N,1","+0001,1","-0002,1","10212,1","71,1","7,1,03,1","08,1,+00150,1,99,9",,,,"99999,9,09867,1","2,1,010,1,+999,9","SYN076AAXX  09091 02151 47261 /1102 10001 21002 39867 40212 52010 77177 333 88/05;",
"02151099999","2010-04-09T12:00:00","4","66.4833333","20.1666666","275.0","JOKKMOKK FPL, SW","FM-12","99999","V020","999,9,C,0000,1","00180,1,C,N","021000,1,N,1","+0017,1","+0010,1","10221,1","62,1","7,1,06,1","07,1,+00180,1,99,9",,,,"99999,9,09878,1","2,1,011,1,+999,9","SYN082AAXX  09121 02151 47371 /0000 10017 20010 39878 40221 52011 76276 333 87/06 88/09;",
"02151099999","2010-04-09T15:00:00","4","66.4833333","20.1666666","275.0","JOKKMOKK FPL, SW","FM-12","99999","V020","030,1,N,0010,1","00510,1,C,N","024000,1,N,1","+0018,1","+0014,1","10232,1","61,1","6,1,03,1","09,1,+00510,1,99,9",,,,"99999,9,09889,1","2,1,011,1,+999,9","SYN076AAXX  09151 02151 47/74 /0301 10018 20014 39889 40232 52011 76165 333 89/17;",
"02151099999","2010-04-09T18:00:00","4","66.4833333","20.1666666","275.0","JOKKMOKK FPL, SW","FM-12","99999","V020","999,9,C,0000,1","00180,1,C,N","040000,1,N,1","+0011,1","+0011,1","10250,1","51,1","6,1,06,1","05,1,+00180,1,99,9",,"120,M,+0022,1","999,N,-0007,1","99999,9,09905,1","2,1,016,1,+999,9","SYN094AAXX  09181 02151 47282 /0000 10011 20011 39905 40250 52016 75165 333 10022 21007 85/06 88/15;",
"02151099999","2010-04-09T21:00:00","4","66.4833333","20.1666666","275.0","JOKKMOKK FPL, SW","FM-12","99999","V020","999,9,C,0000,1","99999,9,9,N","025000,1,N,1","+0001,1","+0001,1","10269,1","00,1","8,1,03,1","04,1,+00390,1,99,9",,,,"99999,9,09922,1","2,1,018,1,+999,9","SYN082AAXX  09211 02151 47475 /0000 10001 20001 39922 40269 52018 70085 333 84/13 88/43;",
"02151099999","2010-04-10T00:00:00","4","66.4833333","20.1666666","275.0","JOKKMOKK FPL, SW","FM-12","99999","V020","999,9,C,0000,1","00750,1,C,N","024000,1,N,1","+0002,1","+0002,1","10284,1","00,1","8,1,06,1","05,1,+00750,1,99,9","07,1,+01290,1,99,9",,,"99999,9,09936,1","2,1,014,1,+999,9","SYN088AAXX  10001 02151 47574 /0000 10002 20002 39936 40284 52014 70085 333 85/25 87/43 88/50;",
"02151099999","2010-04-10T03:00:00","4","66.4833333","20.1666666","275.0","JOKKMOKK FPL, SW","FM-12","99999","V020","999,9,C,0000,1","01500,1,C,N","025000,1,N,1","+0002,1","+0002,1","10297,1",,,"08,1,+01500,1,99,9",,,,"99999,9,09949,1","2,1,013,1,+999,9","SYN070AAXX  10031 02151 45775 /0000 10002 20002 39949 40297 52013 333 88/50;",
"02151099999","2010-04-10T06:00:00","4","66.4833333","20.1666666","275.0","JOKKMOKK FPL, SW","FM-12","99999","V020","320,1,N,0020,1","00840,1,C,N","050000,1,N,1","+0014,1","+0011,1","10313,1",,,"08,1,+00840,1,99,9",,"120,M,+0014,1","999,N,-0001,1","99999,9,09966,1","2,1,016,1,+999,9","SYN082AAXX  10061 02151 45584 /3202 10014 20011 39966 40313 52016 333 10014 21001 88/28;",
"02151099999","2010-04-10T09:00:00","4","66.4833333","20.1666666","275.0","JOKKMOKK FPL, SW","FM-12","99999","V020","330,1,N,0030,1","00780,1,C,N","045000,1,N,1","+0036,1","-0003,1","10320,1",,,"08,1,+00780,1,99,9",,,,"99999,9,09975,1","2,1,009,1,+999,9","SYN070AAXX  10091 02151 45583 /3303 10036 21003 39975 40320 52009 333 88/26;",
"02151099999","2010-04-10T12:00:00","4","66.4833333","20.1666666","275.0","JOKKMOKK FPL, SW","FM-12","99999","V020","320,1,N,0030,1","99999,9,9,N","045000,1,N,1","+0065,1","-0015,1","10320,1",,,,,,,"99999,9,09979,1","2,1,004,1,+999,9","SYN060AAXX  10121 02151 45983 /3203 10065 21015 39979 40320 52004;",
"02151099999","2010-04-10T15:00:00","4","66.4833333","20.1666666","275.0","JOKKMOKK FPL, SW","FM-12","99999","V020","020,1,N,0020,1","99999,9,9,N","045000,1,N,1","+0077,1","-0019,1","10326,1",,,,,,,"99999,9,09986,1","2,1,006,1,+999,9","SYN060AAXX  10151 02151 45983 /0202 10077 21019 39986 40326 52006;",
"02151099999","2010-04-10T18:00:00","4","66.4833333","20.1666666","275.0","JOKKMOKK FPL, SW","FM-12","99999","V020","320,1,N,0010,1","99999,9,9,N","050000,1,N,1","+0031,1","-0023,1","10344,1",,,,,"120,M,+0078,1","999,N,+0014,1","99999,9,09998,1","2,1,012,1,+999,9","SYN076AAXX  10181 02151 45984 /3201 10031 21023 39998 40344 52012 333 10078 20014;",
"02151099999","2010-04-10T21:00:00","4","66.4833333","20.1666666","275.0","JOKKMOKK FPL, SW","FM-12","99999","V020","280,1,N,0020,1","99999,9,9,N","050000,1,N,1","+0009,1","-0018,1","10359,1",,,,,,,"99999,9,10010,1","2,1,011,1,+999,9","SYN060AAXX  10211 02151 45984 /2802 10009 21018 30010 40359 52011;",
"02151099999","2010-04-11T00:00:00","4","66.4833333","20.1666666","275.0","JOKKMOKK FPL, SW","FM-12","99999","V020","999,9,C,0000,1","99999,9,9,N","050000,1,N,1","-0019,1","-0026,1","10370,1",,,,,,,"99999,9,10017,1","0,1,007,1,+999,9","SYN060AAXX  11001 02151 45984 /0000 11019 21026 30017 40370 50007;",
"02151099999","2010-04-11T03:00:00","4","66.4833333","20.1666666","275.0","JOKKMOKK FPL, SW","FM-12","99999","V020","240,1,N,0010,1","99999,9,9,N","050000,1,N,1","-0036,1","-0038,1","10371,1",,,,,,,"99999,9,10016,1","8,1,001,1,+999,9","SYN060AAXX  11031 02151 45984 /2401 11036 21038 30016 40371 58001;",
"02151099999","2010-04-11T06:00:00","4","66.4833333","20.1666666","275.0","JOKKMOKK FPL, SW","FM-12","99999","V020","999,9,C,0000,1","99999,9,9,N","050000,1,N,1","-0011,1","-0029,1","10369,1",,,,,"120,M,+0031,1","999,N,-0055,1","99999,9,10017,1","0,1,001,1,+999,9","SYN076AAXX  11061 02151 45984 /0000 11011 21029 30017 40369 50001 333 10031 21055;",
"02151099999","2010-04-11T09:00:00","4","66.4833333","20.1666666","275.0","JOKKMOKK FPL, SW","FM-12","99999","V020","170,1,N,0020,1","99999,9,9,N","040000,1,N,1","+0058,1","-0010,1","10352,1",,,,,,,"99999,9,10009,1","7,1,008,1,+999,9","SYN060AAXX  11091 02151 45982 /1702 10058 21010 30009 40352 57008;",
"02151099999","2010-04-11T12:00:00","4","66.4833333","20.1666666","275.0","JOKKMOKK FPL, SW","FM-12","99999","V020","250,1,N,0030,1","03600,1,C,N","045000,1,N,1","+0071,1","-0042,1","10338,1",,,"05,1,+03600,1,99,9",,,,"99999,9,09997,1","7,1,012,1,+999,9","SYN070AAXX  11121 02151 45983 /2503 10071 21042 39997 40338 57012 333 85/62;",
"02151099999","2010-04-11T15:00:00","4","66.4833333","20.1666666","275.0","JOKKMOKK FPL, SW","FM-12","99999","V020","250,1,N,0030,1","03000,1,C,N","045000,1,N,1","+0075,1","-0044,1","10323,1",,,"07,1,+03000,1,99,9",,,,"99999,9,09983,1","8,1,014,1,+999,9","SYN070AAXX  11151 02151 45983 /2503 10075 21044 39983 40323 58014 333 87/60;",
"02151099999","2010-04-11T18:00:00","4","66.4833333","20.1666666","275.0","JOKKMOKK FPL, SW","FM-12","99999","V020","999,9,C,0000,1","04200,1,C,N","050000,1,N,1","+0054,1","-0035,1","10313,1",,,"06,1,+04200,1,99,9",,"120,M,+0082,1","999,N,-0011,1","99999,9,09971,1","8,1,012,1,+999,9","SYN082AAXX  11181 02151 45984 /0000 10054 21035 39971 40313 58012 333 10082 21011 86/64;",
"02151099999","2010-04-11T21:00:00","4","66.4833333","20.1666666","275.0","JOKKMOKK FPL, SW","FM-12","99999","V020","999,9,C,0000,1","99999,9,9,N","050000,1,N,1","+0027,1","-0022,1","10298,1",,,"02,1,+02400,1,99,9",,,,"99999,9,09954,1","8,1,017,1,+999,9","SYN076AAXX  11211 02151 45984 /0000 10027 21022 39954 40298 58017 333 82/58 87/60;",
"02151099999","2010-04-12T00:00:00","4","66.4833333","20.1666666","275.0","JOKKMOKK FPL, SW","FM-12","99999","V020","210,1,N,0020,1","99999,9,9,N","050000,1,N,1","+0048,1","-0031,1","10277,1",,,"01,1,+02100,1,99,9",,,,"99999,9,09936,1","8,1,018,1,+999,9","SYN076AAXX  12001 02151 45884 /2102 10048 21031 39936 40277 58018 333 81/57 88/58;",
"02151099999","2010-04-12T03:00:00","4","66.4833333","20.1666666","275.0","JOKKMOKK FPL, SW","FM-12","99999","V020","999,9,C,0000,1","99999,9,9,N","050000,1,N,1","+0000,1","-0026,1","10262,1",,,,,,,"99999,9,09915,1","8,1,021,1,+999,9","SYN060AAXX  12031 02151 45984 /0000 10000 21026 39915 40262 58021;",
"02151099999","2010-04-12T06:00:00","4","66.4833333","20.1666666","275.0","JOKKMOKK FPL, SW","FM-12","99999","V020","050,1,N,0010,1","99999,9,9,N","045000,1,N,1","+0052,1","-0003,1","10230,1",,,,,"120,M,+0057,1","999,N,-0014,1","99999,9,09891,1","8,1,024,1,+999,9","SYN076AAXX  12061 02151 45983 /0501 10052 21003 39891 40230 58024 333 10057 21014;",
"02151099999","2010-04-12T09:00:00","4","66.4833333","20.1666666","275.0","JOKKMOKK FPL, SW","FM-12","99999","V020","240,1,N,0030,1","03900,1,C,N","045000,1,N,1","+0080,1","+0006,1","10199,1",,,"08,1,+03900,1,99,9",,,,"99999,9,09864,1","8,1,027,1,+999,9","SYN070AAXX  12091 02151 45983 /2403 10080 20006 39864 40199 58027 333 88/63;",
"02151099999","2010-04-12T12:00:00","4","66.4833333","20.1666666","275.0","JOKKMOKK FPL, SW","FM-12","99999","V020","230,1,N,0040,1","04500,1,C,N","035000,1,N,1","+0098,1","-0001,1","10171,1",,,"07,1,+04500,1,99,9",,,,"99999,9,09839,1","7,1,025,1,+999,9","SYN070AAXX  12121 02151 45981 /2304 10098 21001 39839 40171 57025 333 87/65;",
"02151099999","2010-04-12T15:00:00","4","66.4833333","20.1666666","275.0","JOKKMOKK FPL, SW","FM-12","99999","V020","240,1,N,0020,1","03300,1,C,N","050000,1,N,1","+0089,1","-0012,1","10145,1",,,"08,1,+03300,1,99,9",,,,"99999,9,09813,1","7,1,026,1,+999,9","SYN070AAXX  12151 02151 45984 /2402 10089 21012 39813 40145 57026 333 88/61;",
"02151099999","2010-04-12T18:00:00","4","66.4833333","20.1666666","275.0","JOKKMOKK FPL, SW","FM-12","99999","V020","260,1,N,0040,1","99999,9,9,N","050000,1,N,1","+0045,1","+0015,1","10145,1","22,1","6,1,06,1",,,"120,M,+0099,1","999,N,+0043,1","99999,9,09807,1","8,1,006,1,+999,9","SYN082AAXX  12181 02151 47984 /2604 10045 20015 39807 40145 58006 72265 333 10099 20043;",
"02151099999","2010-04-12T21:00:00","4","66.4833333","20.1666666","275.0","JOKKMOKK FPL, SW","FM-12","99999","V020","290,1,N,0040,1","99999,9,9,N","050000,1,N,1","+0041,1","-0001,1","10132,1",,,,,,,"99999,9,09795,1","6,1,012,1,+999,9","SYN060AAXX  12211 02151 45984 /2904 10041 21001 39795 40132 56012;",
"02151099999","2010-04-13T00:00:00","4","66.4833333","20.1666666","275.0","JOKKMOKK FPL, SW","FM-12","99999","V020","280,1,N,0040,1","99999,9,9,N","050000,1,N,1","+0026,1","-0009,1","10133,1",,,,,,,"99999,9,09794,1","8,1,001,1,+999,9","SYN060AAXX  13001 02151 45984 /2804 10026 21009 39794 40133 58001;",
"02151099999","2010-04-13T03:00:00","4","66.4833333","20.1666666","275.0","JOKKMOKK FPL, SW","FM-12","99999","V020","290,1,N,0030,1","99999,9,9,N","050000,1,N,1","+0015,1","-0008,1","10143,1",,,,,,,"99999,9,09802,1","2,1,008,1,+999,9","SYN060AAXX  13031 02151 45/84 /2903 10015 21008 39802 40143 52008;",
"02151099999","2010-04-13T06:00:00","4","66.4833333","20.1666666","275.0","JOKKMOKK FPL, SW","FM-12","99999","V020","320,1,N,0010,1","99999,9,9,N","050000,1,N,1","+0045,1","-0004,1","10150,1",,,,,"120,M,+0046,1","999,N,+0009,1","99999,9,09813,1","3,1,011,1,+999,9","SYN076AAXX  13061 02151 45984 /3201 10045 21004 39813 40150 53011 333 10046 20009;",
"02151099999","2010-04-13T09:00:00","4","66.4833333","20.1666666","275.0","JOKKMOKK FPL, SW","FM-12","99999","V020","350,1,N,0060,1","01410,1,C,N","050000,1,N,1","+0041,1","+0002,1","10165,1",,,"06,1,+01410,1,99,9",,,,"99999,9,09826,1","3,1,014,1,+999,9","SYN076AAXX  13091 02151 45684 /3506 10041 20002 39826 40165 53014 333 86/47 88/50;",
"02151099999","2010-04-13T12:00:00","4","66.4833333","20.1666666","275.0","JOKKMOKK FPL, SW","FM-12","99999","V020","330,1,N,0050,1","22000,1,C,N","045000,1,N,1","+0044,1","-0015,1","10174,1","81,1","8,1,06,1","01,1,+00600,1,99,9","04,1,+01050,1,99,9",,,"99999,9,09836,1","1,1,010,1,+999,9","SYN088AAXX  13121 02151 47583 /3305 10044 21015 39836 40174 51010 78186 333 81/20 84/35 85/68;",
"02151099999","2010-04-13T15:00:00","4","66.4833333","20.1666666","275.0","JOKKMOKK FPL, SW","FM-12","99999","V020","320,1,N,0040,1","00510,1,C,N","030000,1,N,1","+0022,1","-0005,1","10186,1","81,1","8,1,03,1","02,1,+00360,1,99,9","04,1,+00510,1,99,9",,,"99999,9,09845,1","3,1,009,1,+999,9","SYN088AAXX  13151 02151 47480 /3204 10022 21005 39845 40186 53009 78182 333 82/12 84/17 85/40;",
"02151099999","2010-04-13T18:00:00","4","66.4833333","20.1666666","275.0","JOKKMOKK FPL, SW","FM-12","99999","V020","320,1,N,0040,1","99999,9,9,N","050000,1,N,1","+0017,1","-0046,1","10199,1","00,1","8,1,06,1","01,1,+02100,1,99,9",,"120,M,+0057,1","999,N,+0014,1","99999,9,09856,1","3,1,012,1,+999,9","SYN088AAXX  13181 02151 47884 /3204 10017 21046 39856 40199 53012 70082 333 10057 20014 81/57;",
"02151099999","2010-04-13T21:00:00","4","66.4833333","20.1666666","275.0","JOKKMOKK FPL, SW","FM-12","99999","V020","280,1,N,0010,1","99999,9,9,N","050000,1,N,1","-0016,1","-0047,1","10210,1",,,,,,,"99999,9,09863,1","2,1,007,1,+999,9","SYN060AAXX  13211 02151 45984 /2801 11016 21047 39863 40210 52007;",
"02151099999","2010-04-14T00:00:00","4","66.4833333","20.1666666","275.0","JOKKMOKK FPL, SW","FM-12","99999","V020","999,9,C,0000,1","99999,9,9,N","050000,1,N,1","-0047,1","-0063,1","10210,1",,,,,,,"99999,9,09859,1","8,1,004,1,+999,9","SYN060AAXX  14001 02151 45984 /0000 11047 21063 39859 40210 58004;",
"02151099999","2010-04-14T03:00:00","4","66.4833333","20.1666666","275.0","JOKKMOKK FPL, SW","FM-12","99999","V020","150,1,N,0010,1","99999,9,9,N","050000,1,N,1","-0050,1","-0053,1","10201,1",,,,,,,"99999,9,09850,1","7,1,009,1,+999,9","SYN060AAXX  14031 02151 45984 /1501 11050 21053 39850 40201 57009;",
"02151099999","2010-04-14T06:00:00","4","66.4833333","20.1666666","275.0","JOKKMOKK FPL, SW","FM-12","99999","V020","999,9,C,0000,1","99999,9,9,N","045000,1,N,1","-0010,1","-0036,1","10186,1",,,"04,1,+01170,1,99,9",,"120,M,+0018,1","999,N,-0070,1","99999,9,09840,1","6,1,010,1,+999,9","SYN088AAXX  14061 02151 45683 /0000 11010 21036 39840 40186 56010 333 10018 21070 84/39 88/50;",
"02151099999","2010-04-14T09:00:00","4","66.4833333","20.1666666","275.0","JOKKMOKK FPL, SW","FM-12","99999","V020","140,1,N,0030,1","99999,9,9,N","040000,1,N,1","+0038,1","-0010,1","10165,1",,,"01,1,+00930,1,99,9",,,,"99999,9,09826,1","7,1,014,1,+999,9","SYN070AAXX  14091 02151 45582 /1403 10038 21010 39826 40165 57014 333 81/31;",
"02151099999","2010-04-14T12:00:00","4","66.4833333","20.1666666","275.0","JOKKMOKK FPL, SW","FM-12","99999","V020","280,1,N,0020,1","99999,9,9,N","040000,1,N,1","+0073,1","-0008,1","10148,1",,,"02,1,+01260,1,99,9",,,,"99999,9,09814,1","7,1,012,1,+999,9","SYN076AAXX  14121 02151 45682 /2802 10073 21008 39814 40148 57012 333 82/42 85/59;",
"02151099999","2010-04-14T15:00:00","4","66.4833333","20.1666666","275.0","JOKKMOKK FPL, SW","FM-12","99999","V020","280,1,N,0050,1","99999,9,9,N","050000,1,N,1","+0076,1","-0001,1","10138,1",,,"04,1,+01410,1,99,9",,,,"99999,9,09804,1","7,1,010,1,+999,9","SYN076AAXX  14151 02151 45684 /2805 10076 21001 39804 40138 57010 333 84/47 87/60;",
"02151099999","2010-04-14T18:00:00","4","66.4833333","20.1666666","275.0","JOKKMOKK FPL, SW","FM-12","99999","V020","250,1,N,0020,1","99999,9,9,N","050000,1,N,1","+0055,1","+0005,1","10126,1",,,"04,1,+02700,1,99,9",,"120,M,+0083,1","999,N,-0012,1","99999,9,09791,1","7,1,014,1,+999,9","SYN082AAXX  14181 02151 45984 /2502 10055 20005 39791 40126 57014 333 10083 21012 84/59;",
"02151099999","2010-04-14T21:00:00","4","66.4833333","20.1666666","275.0","JOKKMOKK FPL, SW","FM-12","99999","V020","250,1,N,0030,1","02700,1,C,N","050000,1,N,1","+0042,1","+0009,1","10110,1",,,"08,1,+02700,1,99,9",,,,"99999,9,09774,1","8,1,017,1,+999,9","SYN070AAXX  14211 02151 45984 /2503 10042 20009 39774 40110 58017 333 88/59;",
"02151099999","2010-04-15T00:00:00","4","66.4833333","20.1666666","275.0","JOKKMOKK FPL, SW","FM-12","99999","V020","250,1,N,0040,1","99999,9,9,N","050000,1,N,1","+0034,1","+0006,1","10094,1",,,,,,,"99999,9,09757,1","7,1,016,1,+999,9","SYN060AAXX  15001 02151 45984 /2504 10034 20006 39757 40094 57016;",
"02151099999","2010-04-15T03:00:00","4","66.4833333","20.1666666","275.0","JOKKMOKK FPL, SW","FM-12","99999","V020","999,9,C,0000,1","99999,9,9,N","050000,1,N,1","-0012,1","-0020,1","10088,1",,,,,,,"99999,9,09746,1","7,1,011,1,+999,9","SYN060AAXX  15031 02151 45984 /0000 11012 21020 39746 40088 57011;",
"02151099999","2010-04-15T06:00:00","4","66.4833333","20.1666666","275.0","JOKKMOKK FPL, SW","FM-12","99999","V020","290,1,N,0020,1","99999,9,9,N","050000,1,N,1","+0047,1","+0001,1","10068,1",,,,,"120,M,+0057,1","999,N,-0017,1","99999,9,09733,1","8,1,013,1,+999,9","SYN076AAXX  15061 02151 45984 /2902 10047 20001 39733 40068 58013 333 10057 21017;",
"02151099999","2010-04-15T09:00:00","4","66.4833333","20.1666666","275.0","JOKKMOKK FPL, SW","FM-12","99999","V020","240,1,N,0020,1","03000,1,C,N","035000,1,N,1","+0069,1","-0004,1","10049,1",,,"05,1,+03000,1,99,9",,,,"99999,9,09718,1","7,1,015,1,+999,9","SYN070AAXX  15091 02151 45981 /2402 10069 21004 39718 40049 57015 333 85/60;",
"02151099999","2010-04-15T12:00:00","4","66.4833333","20.1666666","275.0","JOKKMOKK FPL, SW","FM-12","99999","V020","220,1,N,0040,1","99999,9,9,N","045000,1,N,1","+0074,1","-0007,1","10027,1",,,"01,1,+01410,1,99,9",,,,"99999,9,09697,1","8,1,021,1,+999,9","SYN076AAXX  15121 02151 45683 /2204 10074 21007 39697 40027 58021 333 81/47 88/56;",
"02151099999","2010-04-15T15:00:00","4","66.4833333","20.1666666","275.0","JOKKMOKK FPL, SW","FM-12","99999","V020","240,1,N,0020,1","99999,9,9,N","035000,1,N,1","+0043,1","+0022,1","10013,1","61,1","8,1,03,1","01,1,+00240,1,99,9","03,1,+00630,1,99,9",,,"99999,9,09679,1","8,1,018,1,+999,9","SYN088AAXX  15151 02151 47381 /2402 10043 20022 39679 40013 58018 76186 333 81/08 83/21 85/25;",
"02151099999","2010-04-15T18:00:00","4","66.4833333","20.1666666","275.0","JOKKMOKK FPL, SW","FM-12","99999","V020","160,1,N,0020,1","99999,9,9,N","050000,1,N,1","+0025,1","+0016,1","09987,1","23,1","8,1,06,1",,,"120,M,+0078,1","999,N,+0025,1","99999,9,09653,1","8,1,026,1,+999,9","SYN082AAXX  15181 02151 47984 /1602 10025 20016 39653 49987 58026 72386 333 10078 20025;",
"02151099999","2010-04-15T21:00:00","4","66.4833333","20.1666666","275.0","JOKKMOKK FPL, SW","FM-12","99999","V020","290,1,N,0040,1","99999,9,9,N","050000,1,N,1","+0020,1","-0016,1","09978,1",,,,,,,"99999,9,09644,1","7,1,009,1,+999,9","SYN060AAXX  15211 02151 45984 /2904 10020 21016 39644 49978 57009;",
"02151099999","2010-04-16T00:00:00","4","66.4833333","20.1666666","275.0","JOKKMOKK FPL, SW","FM-12","99999","V020","290,1,N,0040,1","99999,9,9,N","050000,1,N,1","+0011,1","-0025,1","09985,1","00,1","8,1,06,1","02,1,+03000,1,99,9",,,,"99999,9,09649,1","3,1,005,1,+999,9","SYN076AAXX  16001 02151 47984 /2904 10011 21025 39649 49985 53005 70087 333 82/60;",
"02151099999","2010-04-16T03:00:00","4","66.4833333","20.1666666","275.0","JOKKMOKK FPL, SW","FM-12","99999","V020","300,1,N,0040,1","99999,9,9,N","050000,1,N,1","-0006,1","-0039,1","09987,1",,,,,,,"99999,9,09649,1","4,1,000,1,+999,9","SYN060AAXX  16031 02151 45984 /3004 11006 21039 39649 49987 54000;",
"02151099999","2010-04-16T06:00:00","4","66.4833333","20.1666666","275.0","JOKKMOKK FPL, SW","FM-12","99999","V020","310,1,N,0060,1","99999,9,9,N","050000,1,N,1","+0009,1","-0040,1","09993,1",,,"04,1,+00960,1,99,9",,"120,M,+0034,1","999,N,-0011,1","99999,9,09657,1","2,1,008,1,+999,9","SYN088AAXX  16061 02151 45584 /3106 10009 21040 39657 49993 52008 333 10034 21011 84/32 85/58;",
"02151099999","2010-04-16T09:00:00","4","66.4833333","20.1666666","275.0","JOKKMOKK FPL, SW","FM-12","99999","V020","290,1,N,0050,1","02400,1,C,N","030000,1,N,1","+0028,1","-0044,1","09996,1",,,"05,1,+02400,1,99,9",,,,"99999,9,09662,1","2,1,005,1,+999,9","SYN070AAXX  16091 02151 45980 /2905 10028 21044 39662 49996 52005 333 85/58;",
"02151099999","2010-04-16T12:00:00","4","66.4833333","20.1666666","275.0","JOKKMOKK FPL, SW","FM-12","99999","V020","290,1,N,0080,1","99999,9,9,N","040000,1,N,1","+0020,1","-0102,1","10005,1",,,"01,1,+01260,1,99,9",,,,"99999,9,09669,1","2,1,007,1,+999,9","SYN070AAXX  16121 02151 45682 /2908 10020 21102 39669 40005 52007 333 81/42;",
"02151099999","2010-04-16T15:00:00","4","66.4833333","20.1666666","275.0","JOKKMOKK FPL, SW","FM-12","99999","V020","280,1,N,0070,1","99999,9,9,N","045000,1,N,1","+0014,1","-0080,1","10010,1",,,"01,1,+01500,1,99,9",,,,"99999,9,09673,1","2,1,004,1,+999,9","SYN070AAXX  16151 02151 45783 /2807 10014 21080 39673 40010 52004 333 81/50;",
"02151099999","2010-04-16T18:00:00","4","66.4833333","20.1666666","275.0","JOKKMOKK FPL, SW","FM-12","99999","V020","280,1,N,0040,1","99999,9,9,N","050000,1,N,1","-0008,1","-0075,1","10010,1",,,,,"120,M,+0033,1","999,N,-0007,1","99999,9,09671,1","7,1,002,1,+999,9","SYN076AAXX  16181 02151 45984 /2804 11008 21075 39671 40010 57002 333 10033 21007;",
"02151099999","2010-04-16T21:00:00","4","66.4833333","20.1666666","275.0","JOKKMOKK FPL, SW","FM-12","99999","V020","290,1,N,0040,1","99999,9,9,N","050000,1,N,1","-0025,1","-0077,1","10003,1",,,,,,,"99999,9,09662,1","8,1,009,1,+999,9","SYN060AAXX  16211 02151 45984 /2904 11025 21077 39662 40003 58009;",
"02151099999","2010-04-17T00:00:00","4","66.4833333","20.1666666","275.0","JOKKMOKK FPL, SW","FM-12","99999","V020","240,1,N,0010,1","99999,9,9,N","050000,1,N,1","-0060,1","-0087,1","10002,1",,,,,,,"99999,9,09656,1","6,1,005,1,+999,9","SYN060AAXX  17001 02151 45984 /2401 11060 21087 39656 40002 56005;",
"02151099999","2010-04-17T03:00:00","4","66.4833333","20.1666666","275.0","JOKKMOKK FPL, SW","FM-12","99999","V020","999,9,9,9999,9","99999,9,9,N","999999,9,N,1","-0071,1","-0099,1","09992,1",,,,,,,"99999,9,09645,1","8,1,011,1,+999,9","SYN060AAXX  17031 02151 46/// ///// 11071 21099 39645 49992 58011;",
"02151099999","2010-04-17T06:00:00","4","66.4833333","20.1666666","275.0","JOKKMOKK FPL, SW","FM-12","99999","V020","999,9,9,9999,9","99999,9,9,N","999999,9,N,1","-0037,1","-0092,1","09979,1",,,,,"120,M,-0008,1","999,N,-0087,1","99999,9,09637,1","7,1,008,1,+999,9","SYN076AAXX  17061 02151 46/// ///// 11037 21092 39637 49979 57008 333 11008 21087;",
"02151099999","2010-04-19T09:00:00","4","66.4833333","20.1666666","275.0","JOKKMOKK FPL, SW","FM-12","99999","V020","310,1,N,0030,1","99999,9,9,N","030000,1,N,1","+0019,1","-0057,1","10002,1",,,"01,1,+01500,1,99,9",,,,"99999,9,09667,1",,"SYN064AAXX  19091 02151 45780 /3103 10019 21057 39667 40002 333 81/50;",
"02151099999","2010-04-19T12:00:00","4","66.4833333","20.1666666","275.0","JOKKMOKK FPL, SW","FM-12","99999","V020","300,1,N,0030,1","99999,9,9,N","045000,1,N,1","+0034,1","-0055,1","10013,1",,,"04,1,+01500,1,99,9",,,,"99999,9,09679,1","2,1,012,1,+999,9","SYN070AAXX  19121 02151 45783 /3003 10034 21055 39679 40013 52012 333 84/50;",
"02151099999","2010-04-19T15:00:00","4","66.4833333","20.1666666","275.0","JOKKMOKK FPL, SW","FM-12","99999","V020","310,1,N,0020,1","99999,9,9,N","050000,1,N,1","+0025,1","-0024,1","10024,1","23,1","8,1,03,1","02,1,+00780,1,99,9",,,,"99999,9,09688,1","2,1,009,1,+999,9","SYN076AAXX  19151 02151 47584 /3102 10025 21024 39688 40024 52009 72386 333 82/26;",
"02151099999","2010-04-19T18:00:00","4","66.4833333","20.1666666","275.0","JOKKMOKK FPL, SW","FM-12","99999","V020","320,1,N,0010,1","01500,1,C,N","050000,1,N,1","-0016,1","-0016,1","10046,1","00,1","8,1,06,1","07,1,+01500,1,99,9",,"120,M,+0041,1","999,N,-0016,1","99999,9,09704,1","1,1,016,1,+999,9","SYN088AAXX  19181 02151 47784 /3201 11016 21016 39704 40046 51016 70082 333 10041 21016 87/50;",
"02151099999","2010-04-19T21:00:00","4","66.4833333","20.1666666","275.0","JOKKMOKK FPL, SW","FM-12","99999","V020","999,9,C,0000,1","99999,9,9,N","050000,1,N,1","-0027,1","-0027,1","10058,1",,,"04,1,+01500,1,99,9",,,,"99999,9,09715,1","3,1,010,1,+999,9","SYN070AAXX  19211 02151 45784 /0000 11027 21027 39715 40058 53010 333 84/50;",
"02151099999","2010-04-20T00:00:00","4","66.4833333","20.1666666","275.0","JOKKMOKK FPL, SW","FM-12","99999","V020","290,1,N,0020,1","01500,1,C,N","050000,1,N,1","-0016,1","-0023,1","10069,1",,,"08,1,+01500,1,99,9",,,,"99999,9,09727,1","2,1,012,1,+999,9","SYN070AAXX  20001 02151 45784 /2902 11016 21023 39727 40069 52012 333 88/50;",
"02151099999","2010-04-20T03:00:00","4","66.4833333","20.1666666","275.0","JOKKMOKK FPL, SW","FM-12","99999","V020","999,9,C,0000,1","99999,9,9,N","050000,1,N,1","-0052,1","-0056,1","10082,1",,,,,,,"99999,9,09735,1","2,1,008,1,+999,9","SYN060AAXX  20031 02151 45984 /0000 11052 21056 39735 40082 52008;",
"02151099999","2010-04-20T06:00:00","4","66.4833333","20.1666666","275.0","JOKKMOKK FPL, SW","FM-12","99999","V020","320,1,N,0020,1","99999,9,9,N","045000,1,N,1","-0013,1","-0055,1","10087,1",,,,,"120,M,-0006,1","999,N,-0061,1","99999,9,09745,1","2,1,010,1,+999,9","SYN076AAXX  20061 02151 45983 /3202 11013 21055 39745 40087 52010 333 11006 21061;",
"02151099999","2010-04-20T09:00:00","4","66.4833333","20.1666666","275.0","JOKKMOKK FPL, SW","FM-12","99999","V020","270,1,N,0020,1","99999,9,9,N","030000,1,N,1","+0028,1","-0056,1","10091,1",,,"01,1,+01290,1,99,9",,,,"99999,9,09753,1","3,1,008,1,+999,9","SYN070AAXX  20091 02151 45680 /2702 10028 21056 39753 40091 53008 333 81/43;",
"02151099999","2010-04-20T12:00:00","4","66.4833333","20.1666666","275.0","JOKKMOKK FPL, SW","FM-12","99999","V020","300,1,N,0010,1","99999,9,9,N","040000,1,N,1","+0040,1","-0064,1","10094,1",,,"02,1,+01500,1,99,9",,,,"99999,9,09758,1","2,1,005,1,+999,9","SYN070AAXX  20121 02151 45782 /3001 10040 21064 39758 40094 52005 333 82/50;",
"02151099999","2010-04-20T15:00:00","4","66.4833333","20.1666666","275.0","JOKKMOKK FPL, SW","FM-12","99999","V020","150,1,N,0010,1","00900,1,C,N","040000,1,N,1","+0040,1","-0042,1","10094,1","23,1","8,1,03,1","09,1,+00900,1,99,9",,,,"99999,9,09758,1","4,1,000,1,+999,9","SYN076AAXX  20151 02151 47/82 /1501 10040 21042 39758 40094 54000 72386 333 89/30;",
"02151099999","2010-04-20T18:00:00","4","66.4833333","20.1666666","275.0","JOKKMOKK FPL, SW","FM-12","99999","V020","150,1,N,0020,1","01500,1,C,N","050000,1,N,1","+0021,1","-0038,1","10100,1","00,1","8,1,06,1","08,1,+01500,1,99,9",,"120,M,+0049,1","999,N,-0013,1","99999,9,09761,1","2,1,003,1,+999,9","SYN088AAXX  20181 02151 47784 /1502 10021 21038 39761 40100 52003 70086 333 10049 21013 88/50;",
"02151099999","2010-04-20T21:00:00","4","66.4833333","20.1666666","275.0","JOKKMOKK FPL, SW","FM-12","99999","V020","140,1,N,0010,1","01500,1,C,N","050000,1,N,1","-0023,1","-0048,1","10114,1",,,"06,1,+01500,1,99,9",,,,"99999,9,09770,1","2,1,009,1,+999,9","SYN070AAXX  20211 02151 45784 /1401 11023 21048 39770 40114 52009 333 86/50;",
"02151099999","2010-04-21T00:00:00","4","66.4833333","20.1666666","275.0","JOKKMOKK FPL, SW","FM-12","99999","V020","999,9,C,0000,1","99999,9,9,N","050000,1,N,1","-0067,1","-0071,1","10122,1",,,,,,,"99999,9,09772,1","2,1,002,1,+999,9","SYN060AAXX  21001 02151 45984 /0000 11067 21071 39772 40122 52002;",
"02151099999","2010-04-21T03:00:00","4","66.4833333","20.1666666","275.0","JOKKMOKK FPL, SW","FM-12","99999","V020","999,9,C,0000,1","99999,9,9,N","050000,1,N,1","-0067,1","-0068,1","10121,1",,,,,,,"99999,9,09771,1","4,1,000,1,+999,9","SYN060AAXX  21031 02151 45984 /0000 11067 21068 39771 40121 54001;",
"02151099999","2010-04-21T06:00:00","4","66.4833333","20.1666666","275.0","JOKKMOKK FPL, SW","FM-12","99999","V020","360,1,N,0010,1","01500,1,C,N","040000,1,N,1","-0012,1","-0046,1","10119,1",,,"07,1,+01500,1,99,9",,"120,M,+0022,1","999,N,-0081,1","99999,9,09775,1","2,1,005,1,+999,9","SYN082AAXX  21061 02151 45782 /3601 11012 21046 39775 40119 52005 333 10022 21081 87/50;",
"02151099999","2010-04-21T09:00:00","4","66.4833333","20.1666666","275.0","JOKKMOKK FPL, SW","FM-12","99999","V020","999,9,C,0000,1","01500,1,C,N","050000,1,N,1","+0036,1","-0046,1","10114,1",,,"08,1,+01500,1,99,9",,,,"99999,9,09777,1","2,1,001,1,+999,9","SYN070AAXX  21091 02151 45784 /0000 10036 21046 39777 40114 52001 333 88/50;",
"02151099999","2010-04-21T12:00:00","4","66.4833333","20.1666666","275.0","JOKKMOKK FPL, SW","FM-12","99999","V020","190,1,N,0040,1","01500,1,C,N","045000,1,N,1","+0054,1","-0061,1","10113,1",,,"07,1,+01500,1,99,9",,,,"99999,9,09778,1","2,1,001,1,+999,9","SYN070AAXX  21121 02151 45783 /1904 10054 21061 39778 40113 52001 333 87/50;",
"02151099999","2010-04-21T15:00:00","4","66.4833333","20.1666666","275.0","JOKKMOKK FPL, SW","FM-12","99999","V020","260,1,N,0010,1","01800,1,C,N","050000,1,N,1","+0055,1","-0060,1","10110,1",,,"05,1,+01800,1,99,9",,,,"99999,9,09775,1","7,1,003,1,+999,9","SYN070AAXX  21151 02151 45784 /2601 10055 21060 39775 40110 57003 333 85/56;",
"02151099999","2010-04-21T18:00:00","4","66.4833333","20.1666666","275.0","JOKKMOKK FPL, SW","FM-12","99999","V020","150,1,N,0010,1","99999,9,9,N","050000,1,N,1","+0033,1","-0029,1","10118,1",,,"01,1,+01800,1,99,9",,"120,M,+0058,1","999,N,-0012,1","99999,9,09780,1","2,1,005,1,+999,9","SYN082AAXX  21181 02151 45784 /1501 10033 21029 39780 40118 52005 333 10058 21012 81/56;",
"02151099999","2010-04-21T21:00:00","4","66.4833333","20.1666666","275.0","JOKKMOKK FPL, SW","FM-12","99999","V020","140,1,N,0020,1","99999,9,9,N","050000,1,N,1","-0005,1","-0058,1","10125,1",,,,,,,"99999,9,09782,1","0,1,002,1,+999,9","SYN060AAXX  21211 02151 45/84 /1402 11005 21058 39782 40125 50002;",
"02151099999","2010-04-22T00:00:00","4","66.4833333","20.1666666","275.0","JOKKMOKK FPL, SW","FM-12","99999","V020","999,9,C,0000,1","99999,9,9,N","050000,1,N,1","-0032,1","-0066,1","10129,1",,,"01,1,+01800,1,99,9",,,,"99999,9,09783,1","4,1,000,1,+999,9","SYN070AAXX  22001 02151 45784 /0000 11032 21066 39783 40129 54001 333 81/56;",
"02151099999","2010-04-22T03:00:00","4","66.4833333","20.1666666","275.0","JOKKMOKK FPL, SW","FM-12","99999","V020","999,9,C,0000,1","99999,9,9,N","050000,1,N,1","-0061,1","-0073,1","10128,1",,,,,,,"99999,9,09777,1","7,1,005,1,+999,9","SYN060AAXX  22031 02151 45984 /0000 11061 21073 39777 40128 57005;",
"02151099999","2010-04-22T06:00:00","4","66.4833333","20.1666666","275.0","JOKKMOKK FPL, SW","FM-12","99999","V020","999,9,C,0000,1","99999,9,9,N","050000,1,N,1","-0017,1","-0063,1","10121,1",,,"03,1,+01320,1,99,9",,"120,M,+0037,1","999,N,-0070,1","99999,9,09776,1","7,1,001,1,+999,9","SYN088AAXX  22061 02151 45684 /0000 11017 21063 39776 40121 57001 333 10037 21070 83/44 87/50;",
"02151099999","2010-04-22T09:00:00","4","66.4833333","20.1666666","275.0","JOKKMOKK FPL, SW","FM-12","99999","V020","050,1,N,0010,1","99999,9,9,N","040000,1,N,1","+0043,1","-0057,1","10105,1",,,"04,1,+01800,1,99,9",,,,"99999,9,09769,1","8,1,008,1,+999,9","SYN070AAXX  22091 02151 45782 /0501 10043 21057 39769 40105 58008 333 84/56;",
"02151099999","2010-04-22T12:00:00","4","66.4833333","20.1666666","275.0","JOKKMOKK FPL, SW","FM-12","99999","V020","160,1,N,0020,1","01500,1,C,N","045000,1,N,1","+0039,1","-0041,1","10094,1",,,"06,1,+01500,1,99,9",,,,"99999,9,09758,1","7,1,011,1,+999,9","SYN070AAXX  22121 02151 45783 /1602 10039 21041 39758 40094 57011 333 86/50;",
"02151099999","2010-04-22T15:00:00","4","66.4833333","20.1666666","275.0","JOKKMOKK FPL, SW","FM-12","99999","V020","340,1,N,0030,1","99999,9,9,N","040000,1,N,1","+0045,1","-0040,1","10085,1",,,"01,1,+01800,1,99,9",,,,"99999,9,09749,1","8,1,008,1,+999,9","SYN070AAXX  22151 02151 45782 /3403 10045 21040 39749 40085 58008 333 81/56;",
"02151099999","2010-04-22T18:00:00","4","66.4833333","20.1666666","275.0","JOKKMOKK FPL, SW","FM-12","99999","V020","290,1,N,0020,1","99999,9,9,N","050000,1,N,1","+0030,1","-0029,1","10083,1",,,"04,1,+01500,1,99,9",,"120,M,+0055,1","999,N,-0018,1","99999,9,09745,1","7,1,004,1,+999,9","SYN088AAXX  22181 02151 45784 /2902 10030 21029 39745 40083 57004 333 10055 21018 84/50 87/57;",
"02151099999","2010-04-22T21:00:00","4","66.4833333","20.1666666","275.0","JOKKMOKK FPL, SW","FM-12","99999","V020","300,1,N,0020,1","99999,9,9,N","050000,1,N,1","+0007,1","-0030,1","10075,1",,,"03,1,+01500,1,99,9",,,,"99999,9,09736,1","8,1,010,1,+999,9","SYN076AAXX  22211 02151 45784 /3002 10007 21030 39736 40075 58010 333 83/50 88/57;",
"02151099999","2010-04-23T00:00:00","4","66.4833333","20.1666666","275.0","JOKKMOKK FPL, SW","FM-12","99999","V020","290,1,N,0030,1","99999,9,9,N","050000,1,N,1","-0018,1","-0041,1","10070,1",,,,,,,"99999,9,09727,1","7,1,008,1,+999,9","SYN060AAXX  23001 02151 45984 /2903 11018 21041 39727 40070 57008;",
"02151099999","2010-04-23T03:00:00","4","66.4833333","20.1666666","275.0","JOKKMOKK FPL, SW","FM-12","99999","V020","300,1,N,0030,1","99999,9,9,N","050000,1,N,1","-0030,1","-0050,1","10063,1",,,,,,,"99999,9,09719,1","7,1,008,1,+999,9","SYN060AAXX  23031 02151 45984 /3003 11030 21050 39719 40063 57008;",
"02151099999","2010-04-23T06:00:00","4","66.4833333","20.1666666","275.0","JOKKMOKK FPL, SW","FM-12","99999","V020","310,1,N,0040,1","01500,1,C,N","045000,1,N,1","-0009,1","-0050,1","10056,1",,,"05,1,+01500,1,99,9",,"120,M,+0030,1","999,N,-0031,1","99999,9,09715,1","7,1,004,1,+999,9","SYN082AAXX  23061 02151 45783 /3104 11009 21050 39715 40056 57004 333 10030 21031 85/50;",
"02151099999","2010-04-23T09:00:00","4","66.4833333","20.1666666","275.0","JOKKMOKK FPL, SW","FM-12","99999","V020","030,1,N,0040,1","99999,9,9,N","040000,1,N,1","+0024,1","-0072,1","10049,1",,,,,,,"99999,9,09712,1","6,1,003,1,+999,9","SYN060AAXX  23091 02151 45/82 /0304 10024 21072 39712 40049 56003;",
"02151099999","2010-04-23T12:00:00","4","66.4833333","20.1666666","275.0","JOKKMOKK FPL, SW","FM-12","99999","V020","350,1,N,0060,1","01500,1,C,N","040000,1,N,1","+0027,1","-0073,1","10047,1",,,"07,1,+01500,1,99,9",,,,"99999,9,09711,1","7,1,001,1,+999,9","SYN070AAXX  23121 02151 45782 /3506 10027 21073 39711 40047 57001 333 87/50;",
"02151099999","2010-04-23T15:00:00","4","66.4833333","20.1666666","275.0","JOKKMOKK FPL, SW","FM-12","99999","V020","350,1,N,0060,1","01500,1,C,N","050000,1,N,1","+0025,1","-0073,1","10050,1",,,"05,1,+01500,1,99,9",,,,"99999,9,09713,1","3,1,002,1,+999,9","SYN070AAXX  23151 02151 45784 /3506 10025 21073 39713 40050 53002 333 85/50;",
"02151099999","2010-04-23T18:00:00","4","66.4833333","20.1666666","275.0","JOKKMOKK FPL, SW","FM-12","99999","V020","350,1,N,0050,1","99999,9,9,N","050000,1,N,1","+0006,1","-0058,1","10060,1",,,,,"120,M,+0036,1","999,N,-0009,1","99999,9,09721,1","3,1,008,1,+999,9","SYN076AAXX  23181 02151 45984 /3505 10006 21058 39721 40060 53008 333 10036 21009;",
"02151099999","2010-04-23T21:00:00","4","66.4833333","20.1666666","275.0","JOKKMOKK FPL, SW","FM-12","99999","V020","320,1,N,0060,1","99999,9,9,N","050000,1,N,1","-0020,1","-0049,1","10071,1",,,,,,,"99999,9,09728,1","2,1,006,1,+999,9","SYN060AAXX  23211 02151 45984 /3206 11020 21049 39728 40071 52006;",
"02151099999","2010-04-24T00:00:00","4","66.4833333","20.1666666","275.0","JOKKMOKK FPL, SW","FM-12","99999","V020","320,1,N,0070,1","01020,1,C,N","050000,1,N,1","-0022,1","-0047,1","10076,1",,,"08,1,+01020,1,99,9",,,,"99999,9,09733,1","2,1,005,1,+999,9","SYN070AAXX  24001 02151 45684 /3207 11022 21047 39733 40076 52005 333 88/34;",
"02151099999","2010-04-24T03:00:00","4","66.4833333","20.1666666","275.0","JOKKMOKK FPL, SW","FM-12","99999","V020","330,1,N,0060,1","00720,1,C,N","050000,1,N,1","-0018,1","-0046,1","10089,1",,,"08,1,+00720,1,99,9",,,,"99999,9,09746,1","2,1,013,1,+999,9","SYN070AAXX  24031 02151 45584 /3306 11018 21046 39746 40089 52013 333 88/24;",
"02151099999","2010-04-24T06:00:00","4","66.4833333","20.1666666","275.0","JOKKMOKK FPL, SW","FM-12","99999","V020","340,1,N,0070,1","99999,9,9,N","045000,1,N,1","-0003,1","-0048,1","10102,1",,,"04,1,+00900,1,99,9",,"120,M,+0006,1","999,N,-0027,1","99999,9,09760,1","2,1,015,1,+999,9","SYN082AAXX  24061 02151 45583 /3407 11003 21048 39760 40102 52015 333 10006 21027 84/30;",
"02151099999","2010-04-24T09:00:00","4","66.4833333","20.1666666","275.0","JOKKMOKK FPL, SW","FM-12","99999","V020","350,1,N,0060,1","99999,9,9,N","045000,1,N,1","+0020,1","-0063,1","10117,1",,,"02,1,+01320,1,99,9",,,,"99999,9,09777,1","2,1,017,1,+999,9","SYN070AAXX  24091 02151 45683 /3506 10020 21063 39777 40117 52017 333 82/44;",
"02151099999","2010-04-24T12:00:00","4","66.4833333","20.1666666","275.0","JOKKMOKK FPL, SW","FM-12","99999","V020","340,1,N,0050,1","01800,1,C,N","040000,1,N,1","+0037,1","-0072,1","10124,1",,,"06,1,+01800,1,99,9",,,,"99999,9,09786,1","2,1,009,1,+999,9","SYN070AAXX  24121 02151 45782 /3405 10037 21072 39786 40124 52009 333 86/56;",
"02151099999","2010-04-24T15:00:00","4","66.4833333","20.1666666","275.0","JOKKMOKK FPL, SW","FM-12","99999","V020","320,1,N,0080,1","99999,9,9,N","029000,1,N,1","+0018,1","-0048,1","10146,1","61,1","6,1,03,1","01,1,+00720,1,99,9",,,,"99999,9,09805,1","3,1,019,1,+999,9","SYN082AAXX  24151 02151 47579 /3208 10018 21048 39805 40146 53019 76160 333 81/24 85/50;",
"02151099999","2010-04-24T18:00:00","4","66.4833333","20.1666666","275.0","JOKKMOKK FPL, SW","FM-12","99999","V020","300,1,N,0050,1","99999,9,9,N","050000,1,N,1","+0018,1","-0047,1","10164,1","00,1","8,1,06,1",,,"120,M,+0041,1","999,N,-0004,1","99999,9,09822,1","2,1,017,1,+999,9","SYN082AAXX  24181 02151 47984 /3005 10018 21047 39822 40164 52017 70087 333 10041 21004;",
"02151099999","2010-04-24T21:00:00","4","66.4833333","20.1666666","275.0","JOKKMOKK FPL, SW","FM-12","99999","V020","290,1,N,0020,1","99999,9,9,N","050000,1,N,1","-0015,1","-0062,1","10190,1",,,,,,,"99999,9,09843,1","2,1,021,1,+999,9","SYN060AAXX  24211 02151 45984 /2902 11015 21062 39843 40190 52021;",
"02151099999","2010-04-25T00:00:00","4","66.4833333","20.1666666","275.0","JOKKMOKK FPL, SW","FM-12","99999","V020","999,9,C,0000,1","99999,9,9,N","050000,1,N,1","-0062,1","-0081,1","10207,1",,,,,,,"99999,9,09854,1","2,1,011,1,+999,9","SYN060AAXX  25001 02151 45984 /0000 11062 21081 39854 40207 52011;",
"02151099999","2010-04-25T03:00:00","4","66.4833333","20.1666666","275.0","JOKKMOKK FPL, SW","FM-12","99999","V020","999,9,C,0000,1","99999,9,9,N","050000,1,N,1","-0080,1","-0086,1","10217,1",,,"01,1,+01500,1,99,9",,,,"99999,9,09862,1","2,1,008,1,+999,9","SYN070AAXX  25031 02151 45784 /0000 11080 21086 39862 40217 52008 333 81/50;",
"02151099999","2010-04-25T06:00:00","4","66.4833333","20.1666666","275.0","JOKKMOKK FPL, SW","FM-12","99999","V020","150,1,N,0020,1","99999,9,9,N","035000,1,N,1","-0004,1","-0058,1","10212,1",,,,,"120,M,+0018,1","999,N,-0086,1","99999,9,09866,1","2,1,004,1,+999,9","SYN076AAXX  25061 02151 45981 /1502 11004 21058 39866 40212 52004 333 10018 21086;",
"02151099999","2010-04-25T09:00:00","4","66.4833333","20.1666666","275.0","JOKKMOKK FPL, SW","FM-12","99999","V020","290,1,N,0030,1","99999,9,9,N","035000,1,N,1","+0041,1","-0054,1","10208,1",,,,,,,"99999,9,09868,1","2,1,002,1,+999,9","SYN060AAXX  25091 02151 45981 /2903 10041 21054 39868 40208 52002;",
"02151099999","2010-04-25T12:00:00","4","66.4833333","20.1666666","275.0","JOKKMOKK FPL, SW","FM-12","99999","V020","280,1,N,0050,1","01500,1,C,N","040000,1,N,1","+0053,1","-0039,1","10215,1",,,"06,1,+01500,1,99,9",,,,"99999,9,09876,1","3,1,008,1,+999,9","SYN070AAXX  25121 02151 45782 /2805 10053 21039 39876 40215 53008 333 86/50;",
"02151099999","2010-04-25T15:00:00","4","66.4833333","20.1666666","275.0","JOKKMOKK FPL, SW","FM-12","99999","V020","250,1,N,0040,1","01800,1,C,N","050000,1,N,1","+0049,1","-0035,1","10221,1",,,"08,1,+01800,1,99,9",,,,"99999,9,09881,1","1,1,005,1,+999,9","SYN070AAXX  25151 02151 45784 /2504 10049 21035 39881 40221 51005 333 88/56;",
"02151099999","2010-04-25T18:00:00","4","66.4833333","20.1666666","275.0","JOKKMOKK FPL, SW","FM-12","99999","V020","280,1,N,0020,1","99999,9,9,N","050000,1,N,1","+0035,1","-0046,1","10227,1",,,,,"120,M,+0060,1","999,N,-0004,1","99999,9,09886,1","2,1,004,1,+999,9","SYN076AAXX  25181 02151 45984 /2802 10035 21046 39886 40227 52004 333 10060 21004;",
"02151099999","2010-04-25T21:00:00","4","66.4833333","20.1666666","275.0","JOKKMOKK FPL, SW","FM-12","99999","V020","280,1,N,0020,1","99999,9,9,N","050000,1,N,1","+0002,1","-0046,1","10235,1",,,,,,,"99999,9,09890,1","2,1,004,1,+999,9","SYN060AAXX  25211 02151 45/84 /2802 10002 21046 39890 40235 52004;",
"02151099999","2010-04-26T00:00:00","4","66.4833333","20.1666666","275.0","JOKKMOKK FPL, SW","FM-12","99999","V020","160,1,N,0010,1","99999,9,9,N","050000,1,N,1","-0042,1","-0051,1","10240,1",,,,,,,"99999,9,09889,1","4,1,000,1,+999,9","SYN060AAXX  26001 02151 45984 /1601 11042 21051 39889 40240 54001;",
"02151099999","2010-04-26T03:00:00","4","66.4833333","20.1666666","275.0","JOKKMOKK FPL, SW","FM-12","99999","V020","210,1,N,0020,1","99999,9,9,N","050000,1,N,1","-0022,1","-0048,1","10224,1",,,,,,,"99999,9,09876,1","7,1,013,1,+999,9","SYN060AAXX  26031 02151 45984 /2102 11022 21048 39876 40224 57013;",
"02151099999","2010-04-26T06:00:00","4","66.4833333","20.1666666","275.0","JOKKMOKK FPL, SW","FM-12","99999","V020","140,1,N,0030,1","99999,9,9,N","050000,1,N,1","+0004,1","-0037,1","10198,1",,,"01,1,+03300,1,99,9",,"120,M,+0037,1","999,N,-0061,1","99999,9,09854,1","8,1,022,1,+999,9","SYN082AAXX  26061 02151 45984 /1403 10004 21037 39854 40198 58022 333 10037 21061 81/61;",
"02151099999","2010-04-26T09:00:00","4","66.4833333","20.1666666","275.0","JOKKMOKK FPL, SW","FM-12","99999","V020","160,1,N,0040,1","99999,9,9,N","050000,1,N,1","+0030,1","-0027,1","10162,1",,,"04,1,+01410,1,99,9",,,,"99999,9,09822,1","8,1,032,1,+999,9","SYN076AAXX  26091 02151 45684 /1604 10030 21027 39822 40162 58032 333 84/47 85/74;",
"02151099999","2010-04-26T12:00:00","4","66.4833333","20.1666666","275.0","JOKKMOKK FPL, SW","FM-12","99999","V020","190,1,N,0040,1","02400,1,C,N","045000,1,N,1","+0055,1","+0016,1","10132,1","00,1","8,1,06,1","05,1,+02400,1,99,9",,,,"99999,9,09796,1","8,1,026,1,+999,9","SYN076AAXX  26121 02151 47883 /1904 10055 20016 39796 40132 58026 70086 333 85/58;",
"02151099999","2010-04-26T15:00:00","4","66.4833333","20.1666666","275.0","JOKKMOKK FPL, SW","FM-12","99999","V020","180,1,N,0040,1","03900,1,C,N","045000,1,N,1","+0082,1","-0001,1","10093,1",,,"05,1,+03900,1,99,9",,,,"99999,9,09761,1","8,1,035,1,+999,9","SYN070AAXX  26151 02151 45983 /1804 10082 21001 39761 40093 58035 333 85/63;",
"02151099999","2010-04-26T18:00:00","4","66.4833333","20.1666666","275.0","JOKKMOKK FPL, SW","FM-12","99999","V020","180,1,N,0040,1","99999,9,9,N","050000,1,N,1","+0078,1","-0001,1","10053,1",,,"02,1,+04200,1,99,9",,"120,M,+0090,1","999,N,+0003,1","99999,9,09723,1","8,1,039,1,+999,9","SYN082AAXX  26181 02151 45984 /1804 10078 21001 39723 40053 58039 333 10090 20003 82/64;",
"02151099999","2010-04-26T21:00:00","4","66.4833333","20.1666666","275.0","JOKKMOKK FPL, SW","FM-12","99999","V020","180,1,N,0040,1","02400,1,C,N","050000,1,N,1","+0056,1","-0010,1","10023,1",,,"05,1,+02400,1,99,9",,,,"99999,9,09691,1","7,1,032,1,+999,9","SYN076AAXX  26211 02151 45984 /1804 10056 21010 39691 40023 57032 333 85/58 87/66;",
"02151099999","2010-04-27T00:00:00","4","66.4833333","20.1666666","275.0","JOKKMOKK FPL, SW","FM-12","99999","V020","240,1,N,0020,1","01230,1,C,N","050000,1,N,1","+0060,1","+0016,1","10010,1",,,"07,1,+01230,1,99,9",,,,"99999,9,09679,1","5,1,012,1,+999,9","SYN070AAXX  27001 02151 45684 /2402 10060 20016 39679 40010 55012 333 87/41;",
"02151099999","2010-04-27T03:00:00","4","66.4833333","20.1666666","275.0","JOKKMOKK FPL, SW","FM-12","99999","V020","300,1,N,0040,1","99999,9,9,N","050000,1,N,1","+0008,1","-0051,1","10050,1","24,1","8,1,03,1","04,1,+02100,1,99,9",,,,"99999,9,09712,1","1,1,033,1,+999,9","SYN076AAXX  27031 02151 47884 /3004 10008 21051 39712 40050 51033 72487 333 84/57;",
"02151099999","2010-04-27T06:00:00","4","66.4833333","20.1666666","275.0","JOKKMOKK FPL, SW","FM-12","99999","V020","290,1,N,0050,1","99999,9,9,N","050000,1,N,1","+0007,1","-0055,1","10070,1","00,1","8,1,06,1",,,"120,M,+0078,1","999,N,+0003,1","99999,9,09731,1","2,1,019,1,+999,9","SYN082AAXX  27061 02151 47984 /2905 10007 21055 39731 40070 52019 70087 333 10078 20003;",
"02151099999","2010-04-27T09:00:00","4","66.4833333","20.1666666","275.0","JOKKMOKK FPL, SW","FM-12","99999","V020","290,1,N,0060,1","99999,9,9,N","040000,1,N,1","+0038,1","-0054,1","10081,1",,,"01,1,+01500,1,99,9",,,,"99999,9,09745,1","3,1,014,1,+999,9","SYN070AAXX  27091 02151 45782 /2906 10038 21054 39745 40081 53014 333 81/50;",
"02151099999","2010-04-27T12:00:00","4","66.4833333","20.1666666","275.0","JOKKMOKK FPL, SW","FM-12","99999","V020","290,1,N,0070,1","99999,9,9,N","045000,1,N,1","+0035,1","-0067,1","10098,1",,,,,,,"99999,9,09760,1","1,1,016,1,+999,9","SYN060AAXX  27121 02151 45983 /2907 10035 21067 39760 40098 51016;",
"02151099999","2010-04-27T15:00:00","4","66.4833333","20.1666666","275.0","JOKKMOKK FPL, SW","FM-12","99999","V020","290,1,N,0060,1","99999,9,9,N","035000,1,N,1","+0031,1","-0066,1","10102,1",,,"01,1,+05700,1,99,9",,,,"99999,9,09764,1","0,1,004,1,+999,9","SYN070AAXX  27151 02151 45981 /2906 10031 21066 39764 40102 50004 333 81/69;",
"02151099999","2010-04-27T18:00:00","4","66.4833333","20.1666666","275.0","JOKKMOKK FPL, SW","FM-12","99999","V020","290,1,N,0070,1","99999,9,9,N","030000,1,N,1","+0010,1","-0044,1","10103,1","41,1","6,1,06,1","02,1,+01350,1,99,9",,"120,M,+0040,1","999,N,+0007,1","99999,9,09763,1","5,1,002,1,+999,9","SYN094AAXX  27181 02151 47680 /2907 10010 21044 39763 40103 55002 74140 333 10040 20007 82/45 83/50;",
"02151099999","2010-04-27T21:00:00","4","66.4833333","20.1666666","275.0","JOKKMOKK FPL, SW","FM-12","99999","V020","280,1,N,0050,1","99999,9,9,N","050000,1,N,1","-0009,1","-0058,1","10110,1","00,1","6,1,03,1",,,,,"99999,9,09767,1","2,1,004,1,+999,9","SYN066AAXX  27211 02151 47984 /2805 11009 21058 39767 40110 52004 70040;",
"02151099999","2010-04-28T00:00:00","4","66.4833333","20.1666666","275.0","JOKKMOKK FPL, SW","FM-12","99999","V020","270,1,N,0050,1","99999,9,9,N","050000,1,N,1","-0020,1","-0072,1","10112,1",,,,,,,"99999,9,09768,1","0,1,001,1,+999,9","SYN060AAXX  28001 02151 45984 /2705 11020 21072 39768 40112 50001;",
"02151099999","2010-04-28T03:00:00","4","66.4833333","20.1666666","275.0","JOKKMOKK FPL, SW","FM-12","99999","V020","220,1,N,0030,1","99999,9,9,N","050000,1,N,1","-0033,1","-0073,1","10112,1",,,,,,,"99999,9,09766,1","7,1,001,1,+999,9","SYN060AAXX  28031 02151 45984 /2203 11033 21073 39766 40112 57001;",
"02151099999","2010-04-28T06:00:00","4","66.4833333","20.1666666","275.0","JOKKMOKK FPL, SW","FM-12","99999","V020","260,1,N,0050,1","99999,9,9,N","040000,1,N,1","+0000,1","-0065,1","10100,1",,,,,"120,M,+0011,1","999,N,-0035,1","99999,9,09759,1","7,1,008,1,+999,9","SYN076AAXX  28061 02151 45982 /2605 10000 21065 39759 40100 57008 333 10011 21035;",
"02151099999","2010-04-28T09:00:00","4","66.4833333","20.1666666","275.0","JOKKMOKK FPL, SW","FM-12","99999","V020","270,1,N,0060,1","01320,1,C,N","040000,1,N,1","+0018,1","-0062,1","10096,1",,,"05,1,+01320,1,99,9",,,,"99999,9,09757,1","7,1,002,1,+999,9","SYN070AAXX  28091 02151 45682 /2706 10018 21062 39757 40096 57002 333 85/44;",
"02151099999","2010-04-28T12:00:00","4","66.4833333","20.1666666","275.0","JOKKMOKK FPL, SW","FM-12","99999","V020","280,1,N,0070,1","99999,9,9,N","050000,1,N,1","+0031,1","-0063,1","10087,1",,,"03,1,+01500,1,99,9",,,,"99999,9,09750,1","5,1,006,1,+999,9","SYN070AAXX  28121 02151 45784 /2807 10031 21063 39750 40087 55006 333 83/50;",
"02151099999","2010-04-28T15:00:00","4","66.4833333","20.1666666","275.0","JOKKMOKK FPL, SW","FM-12","99999","V020","280,1,N,0060,1","99999,9,9,N","040000,1,N,1","+0029,1","-0069,1","10083,1",,,"01,1,+01500,1,99,9",,,,"99999,9,09746,1","7,1,004,1,+999,9","SYN076AAXX  28151 02151 45782 /2806 10029 21069 39746 40083 57004 333 81/50 87/57;",
"02151099999","2010-04-28T18:00:00","4","66.4833333","20.1666666","275.0","JOKKMOKK FPL, SW","FM-12","99999","V020","270,1,N,0050,1","99999,9,9,N","050000,1,N,1","+0011,1","-0062,1","10075,1",,,,,"120,M,+0036,1","999,N,-0003,1","99999,9,09736,1","6,1,010,1,+999,9","SYN076AAXX  28181 02151 45984 /2705 10011 21062 39736 40075 56010 333 10036 21003;",
"02151099999","2010-04-28T21:00:00","4","66.4833333","20.1666666","275.0","JOKKMOKK FPL, SW","FM-12","99999","V020","210,1,N,0010,1","99999,9,9,N","050000,1,N,1","-0017,1","-0069,1","10073,1",,,,,,,"99999,9,09730,1","8,1,006,1,+999,9","SYN060AAXX  28211 02151 45984 /2101 11017 21069 39730 40073 58006;",
"02151099999","2010-04-29T00:00:00","4","66.4833333","20.1666666","275.0","JOKKMOKK FPL, SW","FM-12","99999","V020","310,1,N,0010,1","99999,9,9,N","050000,1,N,1","-0046,1","-0077,1","10069,1",,,,,,,"99999,9,09723,1","8,1,008,1,+999,9","SYN060AAXX  29001 02151 45984 /3101 11046 21077 39723 40069 58008;",
"02151099999","2010-04-29T03:00:00","4","66.4833333","20.1666666","275.0","JOKKMOKK FPL, SW","FM-12","99999","V020","050,1,N,0010,1","99999,9,9,N","050000,1,N,1","-0071,1","-0088,1","10063,1",,,,,,,"99999,9,09714,1","7,1,008,1,+999,9","SYN060AAXX  29031 02151 45984 /0501 11071 21088 39714 40063 57008;",
"02151099999","2010-04-29T06:00:00","4","66.4833333","20.1666666","275.0","JOKKMOKK FPL, SW","FM-12","99999","V020","320,1,N,0030,1","99999,9,9,N","040000,1,N,1","-0013,1","-0067,1","10052,1",,,,,"120,M,+0011,1","999,N,-0083,1","99999,9,09710,1","7,1,004,1,+999,9","SYN076AAXX  29061 02151 45982 /3203 11013 21067 39710 40052 57004 333 10011 21083;",
"02151099999","2010-04-29T09:00:00","4","66.4833333","20.1666666","275.0","JOKKMOKK FPL, SW","FM-12","99999","V020","310,1,N,0030,1","99999,9,9,N","040000,1,N,1","+0017,1","-0074,1","10040,1",,,,,,,"99999,9,09703,1","7,1,007,1,+999,9","SYN060AAXX  29091 02151 45982 /3103 10017 21074 39703 40040 57007;",
"02151099999","2010-04-29T12:00:00","4","66.4833333","20.1666666","275.0","JOKKMOKK FPL, SW","FM-12","99999","V020","999,9,C,0000,1","99999,9,9,N","045000,1,N,1","+0043,1","-0094,1","10030,1",,,,,,,"99999,9,09696,1","7,1,007,1,+999,9","SYN060AAXX  29121 02151 45983 /0000 10043 21094 39696 40030 57007;",
"02151099999","2010-04-29T15:00:00","4","66.4833333","20.1666666","275.0","JOKKMOKK FPL, SW","FM-12","99999","V020","150,1,N,0020,1","99999,9,9,N","050000,1,N,1","+0038,1","-0095,1","10022,1",,,,,,,"99999,9,09688,1","7,1,008,1,+999,9","SYN060AAXX  29151 02151 45984 /1502 10038 21095 39688 40022 57008;",
"02151099999","2010-04-29T18:00:00","4","66.4833333","20.1666666","275.0","JOKKMOKK FPL, SW","FM-12","99999","V020","150,1,N,0020,1","99999,9,9,N","050000,1,N,1","+0029,1","-0088,1","10020,1",,,,,"120,M,+0054,1","999,N,-0013,1","99999,9,09685,1","7,1,003,1,+999,9","SYN076AAXX  29181 02151 45984 /1502 10029 21088 39685 40020 57003 333 10054 21013;",
"02151099999","2010-04-29T21:00:00","4","66.4833333","20.1666666","275.0","JOKKMOKK FPL, SW","FM-12","99999","V020","090,1,N,0020,1","99999,9,9,N","050000,1,N,1","+0002,1","-0058,1","10027,1",,,,,,,"99999,9,09689,1","2,1,004,1,+999,9","SYN060AAXX  29211 02151 45984 /0902 10002 21058 39689 40027 52004;",
"02151099999","2010-04-30T00:00:00","4","66.4833333","20.1666666","275.0","JOKKMOKK FPL, SW","FM-12","99999","V020","100,1,N,0020,1","99999,9,9,N","050000,1,N,1","-0006,1","-0071,1","10031,1",,,,,,,"99999,9,09691,1","2,1,002,1,+999,9","SYN060AAXX  30001 02151 45984 /1002 11006 21071 39691 40031 52002;",
"02151099999","2010-04-30T03:00:00","4","66.4833333","20.1666666","275.0","JOKKMOKK FPL, SW","FM-12","99999","V020","060,1,N,0010,1","99999,9,9,N","050000,1,N,1","-0012,1","-0071,1","10031,1",,,"04,1,+01800,1,99,9",,,,"99999,9,09691,1","0,1,000,1,+999,9","SYN076AAXX  30031 02151 45784 /0601 11012 21071 39691 40031 50000 333 84/56 88/59;",
"02151099999","2010-04-30T06:00:00","4","66.4833333","20.1666666","275.0","JOKKMOKK FPL, SW","FM-12","99999","V020","080,1,N,0010,1","01500,1,C,N","050000,1,N,1","+0002,1","-0071,1","10028,1",,,"03,1,+01140,1,99,9","06,1,+01500,1,99,9","120,M,+0031,1","999,N,-0018,1","99999,9,09689,1","7,1,002,1,+999,9","SYN094AAXX  30061 02151 45684 /0801 10002 21071 39689 40028 57002 333 10031 21018 83/38 86/50 88/57;",
"02151099999","2010-04-30T09:00:00","4","66.4833333","20.1666666","275.0","JOKKMOKK FPL, SW","FM-12","99999","V020","110,1,N,0030,1","00570,1,C,N","006000,1,N,1","+0000,1","-0031,1","10024,1","71,1","7,1,03,1","09,1,+00570,1,99,9",,,,"99999,9,09685,1","7,1,004,1,+999,9","SYN076AAXX  30091 02151 47/56 /1103 10000 21031 39685 40024 57004 77176 333 89/19;",
"02151099999","2010-04-30T12:00:00","4","66.4833333","20.1666666","275.0","JOKKMOKK FPL, SW","FM-12","99999","V020","110,1,N,0040,1","00270,1,C,N","001500,1,N,1","-0001,1","-0002,1","10014,1","71,1","7,1,06,1","09,1,+00270,1,99,9",,,,"99999,9,09675,1","8,1,010,1,+999,9","SYN076AAXX  30121 02151 47/15 /1104 11001 21002 39675 40014 58010 77174 333 89/09;",
"02151099999","2010-04-30T15:00:00","4","66.4833333","20.1666666","275.0","JOKKMOKK FPL, SW","FM-12","99999","V020","110,1,N,0020,1","99999,9,9,N","003900,1,N,1","+0000,1","+0000,1","10002,1","71,1","7,1,03,1","03,1,+00180,1,99,9",,,,"99999,9,09664,1","7,1,011,1,+999,9","SYN082AAXX  30151 02151 47239 /1102 10000 20000 39664 40002 57011 77177 333 83/06 88/18;",
"02151099999","2010-04-30T18:00:00","4","66.4833333","20.1666666","275.0","JOKKMOKK FPL, SW","FM-12","99999","V020","090,1,N,0020,1","00240,1,C,N","002100,1,N,1","+0000,1","+0000,1","09989,1","71,1","7,1,06,1","04,1,+00180,1,99,9","07,1,+00240,1,99,9","120,M,+0012,1","999,N,-0002,1","99999,9,09651,1","7,1,013,1,+999,9","SYN100AAXX  30181 02151 47221 /0902 10000 20000 39651 49989 57013 77177 333 10012 21002 84/06 87/08 88/11;",
"02151099999","2010-04-30T21:00:00","4","66.4833333","20.1666666","275.0","JOKKMOKK FPL, SW","FM-12","99999","V020","100,1,N,0010,1","00120,1,C,N","007000,1,N,1","-0001,1","-0001,1","09974,1","67,1","7,1,03,1","08,1,+00120,1,99,9",,,,"99999,9,09636,1","7,1,015,1,+999,9","SYN076AAXX  30211 02151 47257 /1001 11001 21001 39636 49974 57015 76776 333 88/04;",
"02151099999","2010-05-01T00:00:00","4","66.4833333","20.1666666","275.0","JOKKMOKK FPL, SW","FM-12","99999","V020","090,1,N,0010,1","00060,1,C,N","005000,1,N,1","-0002,1","-0002,1","09961,1","24,1","8,1,06,1","08,1,+00060,1,99,9",,,,"99999,9,09624,1","8,1,013,1,+999,9","SYN076AAXX  01001 02151 47150 /0901 11002 21002 39624 49961 58013 72487 333 88/02;",
"02151099999","2010-05-01T03:00:00","4","66.4833333","20.1666666","275.0","JOKKMOKK FPL, SW","FM-12","99999","V020","999,9,C,0000,1","00090,1,C,N","012000,1,N,1","-0001,1","-0001,1","09949,1","77,1","8,1,03,1","08,1,+00090,1,99,9",,,,"99999,9,09612,1","8,1,012,1,+999,9","SYN076AAXX  01031 02151 47162 /0000 11001 21001 39612 49949 58012 77787 333 88/03;",
"02151099999","2010-05-01T06:00:00","4","66.4833333","20.1666666","275.0","JOKKMOKK FPL, SW","FM-12","99999","V020","340,1,N,0020,1","00090,1,C,N","006000,1,N,1","+0006,1","+0006,1","09937,1","61,1","8,1,06,1","06,1,+00090,1,99,9",,"120,M,+0006,1","999,N,-0002,1","99999,9,09602,1","7,1,010,1,+999,9","SYN094AAXX  01061 02151 47156 /3402 10006 20006 39602 49937 57010 76187 333 10006 21002 86/03 88/05;",
"02151099999","2010-05-01T09:00:00","4","66.4833333","20.1666666","275.0","JOKKMOKK FPL, SW","FM-12","99999","V020","330,1,N,0020,1","00120,1,C,N","005000,1,N,1","+0011,1","+0011,1","09925,1","67,1","7,1,03,1","06,1,+00120,1,99,9","07,1,+00240,1,99,9",,,"99999,9,09591,1","7,1,011,1,+999,9","SYN088AAXX  01091 02151 47250 /3302 10011 20011 39591 49925 57011 76776 333 86/04 87/08 88/12;",
"02151099999","2010-05-01T12:00:00","4","66.4833333","20.1666666","275.0","JOKKMOKK FPL, SW","FM-12","99999","V020","320,1,N,0040,1","00120,1,C,N","003400,1,N,1","+0010,1","+0010,1","09913,1","67,1","7,1,06,1","08,1,+00120,1,99,9",,,,"99999,9,09579,1","7,1,012,1,+999,9","SYN076AAXX  01121 02151 47234 /3204 10010 20010 39579 49913 57012 76776 333 88/04;",
"02151099999","2010-05-01T15:00:00","4","66.4833333","20.1666666","275.0","JOKKMOKK FPL, SW","FM-12","99999","V020","310,1,N,0040,1","00150,1,C,N","000700,1,N,1","+0003,1","+0003,1","09908,1","72,1","7,1,03,1","09,1,+00150,1,99,9",,,,"99999,9,09574,1","8,1,005,1,+999,9","SYN076AAXX  01151 02151 47/07 /3104 10003 20003 39574 49908 58005 77276 333 89/05;",
"02151099999","2010-05-01T18:00:00","4","66.4833333","20.1666666","275.0","JOKKMOKK FPL, SW","FM-12","99999","V020","320,1,N,0060,1","00180,1,C,N","002700,1,N,1","+0003,1","+0003,1","09908,1","71,1","7,1,06,1","06,1,+00180,1,99,9",,"120,M,+0017,1","999,N,+0001,1","99999,9,09574,1","4,1,000,1,+999,9","SYN094AAXX  01181 02151 47227 /3206 10003 20003 39574 49908 54000 77176 333 10017 20001 86/06 88/11;",
"02151099999","2010-05-01T21:00:00","4","66.4833333","20.1666666","275.0","JOKKMOKK FPL, SW","FM-12","99999","V020","320,1,N,0070,1","00390,1,C,N","001400,1,N,1","+0001,1","+0001,1","09919,1","71,1","7,1,03,1","09,1,+00390,1,99,9",,,,"99999,9,09584,1","2,1,009,1,+999,9","SYN076AAXX  01211 02151 47/14 /3207 10001 20001 39584 49919 52009 77177 333 89/13;",
"02151099999","2010-05-02T00:00:00","4","66.4833333","20.1666666","275.0","JOKKMOKK FPL, SW","FM-12","99999","V020","310,1,N,0060,1","00390,1,C,N","000900,1,N,1","-0004,1","-0004,1","09930,1","71,1","7,1,06,1","09,1,+00390,1,99,9",,,,"99999,9,09594,1","2,1,010,1,+999,9","SYN076AAXX  02001 02151 47/09 /3106 11004 21004 39594 49930 52010 77177 333 89/13;",
"02151099999","2010-05-02T03:00:00","4","66.4833333","20.1666666","275.0","JOKKMOKK FPL, SW","FM-12","99999","V020","310,1,N,0050,1","00390,1,C,N","001600,1,N,1","-0006,1","-0006,1","09941,1","71,1","7,1,03,1","09,1,+00390,1,99,9",,,,"99999,9,09605,1","2,1,011,1,+999,9","SYN076AAXX  02031 02151 47/16 /3105 11006 21006 39605 49941 52011 77177 333 89/13;",
"02151099999","2010-05-02T06:00:00","4","66.4833333","20.1666666","275.0","JOKKMOKK FPL, SW","FM-12","99999","V020","300,1,N,0040,1","00330,1,C,N","002500,1,N,1","+0001,1","+0001,1","09952,1","71,1","7,1,06,1","09,1,+00330,1,99,9",,"120,M,+0003,1","999,N,-0006,1","99999,9,09615,1","2,1,011,1,+999,9","SYN088AAXX  02061 02151 47/25 /3004 10001 20001 39615 49952 52011 77177 333 10003 21006 89/11;",
"02151099999","2010-05-02T09:00:00","4","66.4833333","20.1666666","275.0","JOKKMOKK FPL, SW","FM-12","99999","V020","300,1,N,0050,1","00450,1,C,N","002300,1,N,1","+0006,1","+0006,1","09969,1","71,1","7,1,03,1","09,1,+00450,1,99,9",,,,"99999,9,09633,1","2,1,017,1,+999,9","SYN076AAXX  02091 02151 47/23 /3005 10006 20006 39633 49969 52017 77177 333 89/15;",
"02151099999","2010-05-02T12:00:00","4","66.4833333","20.1666666","275.0","JOKKMOKK FPL, SW","FM-12","99999","V020","300,1,N,0060,1","00900,1,C,N","007000,1,N,1","+0013,1","+0006,1","09989,1","74,1","7,1,06,1","09,1,+00900,1,99,9",,,,"99999,9,09653,1","3,1,021,1,+999,9","SYN076AAXX  02121 02151 47/57 /3006 10013 20006 39653 49989 53021 77477 333 89/30;",
"02151099999","2010-05-02T15:00:00","4","66.4833333","20.1666666","275.0","JOKKMOKK FPL, SW","FM-12","99999","V020","300,1,N,0050,1","99999,9,9,N","030000,1,N,1","+0020,1","-0002,1","10008,1","22,1","8,1,03,1","01,1,+00660,1,99,9",,,,"99999,9,09672,1","2,1,018,1,+999,9","SYN082AAXX  02151 02151 47580 /3005 10020 21002 39672 40008 52018 72287 333 81/22 83/28;",
"02151099999","2010-05-02T18:00:00","4","66.4833333","20.1666666","275.0","JOKKMOKK FPL, SW","FM-12","99999","V020","330,1,N,0040,1","99999,9,9,N","050000,1,N,1","+0016,1","-0008,1","10026,1","00,1","8,1,06,1","01,1,+00720,1,99,9",,"120,M,+0027,1","999,N,+0001,1","99999,9,09689,1","2,1,017,1,+999,9","SYN088AAXX  02181 02151 47584 /3304 10016 21008 39689 40026 52017 70087 333 10027 20001 81/24;",
"02151099999","2010-05-02T21:00:00","4","66.4833333","20.1666666","275.0","JOKKMOKK FPL, SW","FM-12","99999","V020","300,1,N,0040,1","99999,9,9,N","050000,1,N,1","+0011,1","-0034,1","10045,1",,,,,,,"99999,9,09706,1","2,1,018,1,+999,9","SYN060AAXX  02211 02151 45984 /3004 10011 21034 39706 40045 52018;",
"02151099999","2010-05-03T00:00:00","4","66.4833333","20.1666666","275.0","JOKKMOKK FPL, SW","FM-12","99999","V020","290,1,N,0040,1","02100,1,C,N","050000,1,N,1","+0003,1","-0043,1","10063,1",,,"05,1,+02100,1,99,9",,,,"99999,9,09723,1","3,1,017,1,+999,9","SYN070AAXX  03001 02151 45884 /2904 10003 21043 39723 40063 53017 333 85/57;",
"02151099999","2010-05-03T03:00:00","4","66.4833333","20.1666666","275.0","JOKKMOKK FPL, SW","FM-12","99999","V020","280,1,N,0030,1","02100,1,C,N","050000,1,N,1","+0000,1","-0042,1","10079,1",,,"07,1,+02100,1,99,9",,,,"99999,9,09738,1","3,1,015,1,+999,9","SYN070AAXX  03031 02151 45884 /2803 10000 21042 39738 40079 53015 333 87/57;",
"02151099999","2010-05-03T06:00:00","4","66.4833333","20.1666666","275.0","JOKKMOKK FPL, SW","FM-12","99999","V020","300,1,N,0050,1","01800,1,C,N","050000,1,N,1","+0018,1","-0034,1","10095,1",,,"04,1,+01440,1,99,9","07,1,+01800,1,99,9","120,M,+0022,1","999,N,-0004,1","99999,9,09756,1","3,1,018,1,+999,9","SYN094AAXX  03061 02151 45684 /3005 10018 21034 39756 40095 53018 333 10022 21004 84/48 87/56 88/58;",
"02151099999","2010-05-03T09:00:00","4","66.4833333","20.1666666","275.0","JOKKMOKK FPL, SW","FM-12","99999","V020","310,1,N,0040,1","99999,9,9,N","040000,1,N,1","+0033,1","-0065,1","10108,1",,,"02,1,+01800,1,99,9",,,,"99999,9,09771,1","2,1,014,1,+999,9","SYN076AAXX  03091 02151 45782 /3104 10033 21065 39771 40108 52014 333 82/56 84/59;",
"02151099999","2010-05-03T12:00:00","4","66.4833333","20.1666666","275.0","JOKKMOKK FPL, SW","FM-12","99999","V020","280,1,N,0050,1","99999,9,9,N","045000,1,N,1","+0032,1","-0066,1","10121,1",,,"03,1,+01500,1,99,9",,,,"99999,9,09783,1","2,1,012,1,+999,9","SYN070AAXX  03121 02151 45783 /2805 10032 21066 39783 40121 52012 333 83/50;",
"02151099999","2010-05-03T15:00:00","4","66.4833333","20.1666666","275.0","JOKKMOKK FPL, SW","FM-12","99999","V020","280,1,N,0040,1","01500,1,C,N","040000,1,N,1","+0038,1","-0064,1","10132,1",,,"07,1,+01500,1,99,9",,,,"99999,9,09794,1","2,1,011,1,+999,9","SYN070AAXX  03151 02151 45782 /2804 10038 21064 39794 40132 52011 333 87/50;",
"02151099999","2010-05-03T18:00:00","4","66.4833333","20.1666666","275.0","JOKKMOKK FPL, SW","FM-12","99999","V020","270,1,N,0020,1","01200,1,C,N","050000,1,N,1","+0025,1","-0042,1","10148,1",,,"06,1,+01200,1,99,9",,"120,M,+0041,1","999,N,+0017,1","99999,9,09808,1","2,1,014,1,+999,9","SYN088AAXX  03181 02151 45684 /2702 10025 21042 39808 40148 52014 333 10041 20017 86/40 88/50;",
"02151099999","2010-05-03T21:00:00","4","66.4833333","20.1666666","275.0","JOKKMOKK FPL, SW","FM-12","99999","V020","280,1,N,0030,1","99999,9,9,N","050000,1,N,1","-0013,1","-0067,1","10170,1",,,,,,,"99999,9,09825,1","3,1,016,1,+999,9","SYN060AAXX  03211 02151 45984 /2803 11013 21067 39825 40170 53016;",
"02151099999","2010-05-04T00:00:00","4","66.4833333","20.1666666","275.0","JOKKMOKK FPL, SW","FM-12","99999","V020","270,1,N,0010,1","99999,9,9,N","050000,1,N,1","-0045,1","-0077,1","10186,1",,,,,,,"99999,9,09836,1","2,1,011,1,+999,9","SYN060AAXX  04001 02151 45984 /2701 11045 21077 39836 40186 52011;",
"02151099999","2010-05-04T03:00:00","4","66.4833333","20.1666666","275.0","JOKKMOKK FPL, SW","FM-12","99999","V020","999,9,C,0000,1","99999,9,9,N","045000,1,N,1","-0066,1","-0082,1","10197,1",,,,,,,"99999,9,09844,1","1,1,008,1,+999,9","SYN060AAXX  04031 02151 45983 /0000 11066 21082 39844 40197 51008;",
"02151099999","2010-05-04T06:00:00","4","66.4833333","20.1666666","275.0","JOKKMOKK FPL, SW","FM-12","99999","V020","300,1,N,0030,1","99999,9,9,N","040000,1,N,1","-0015,1","-0078,1","10192,1",,,,,"120,M,+0028,1","999,N,-0075,1","99999,9,09846,1","2,1,002,1,+999,9","SYN076AAXX  04061 02151 45982 /3003 11015 21078 39846 40192 52002 333 10028 21075;",
"02151099999","2010-05-04T09:00:00","4","66.4833333","20.1666666","275.0","JOKKMOKK FPL, SW","FM-12","99999","V020","320,1,N,0020,1","99999,9,9,N","035000,1,N,1","+0022,1","-0087,1","10193,1",,,,,,,"99999,9,09851,1","0,1,005,1,+999,9","SYN060AAXX  04091 02151 45981 /3202 10022 21087 39851 40193 50005;",
"02151099999","2010-05-04T12:00:00","4","66.4833333","20.1666666","275.0","JOKKMOKK FPL, SW","FM-12","99999","V020","340,1,N,0040,1","99999,9,9,N","040000,1,N,1","+0037,1","-0075,1","10185,1",,,,,,,"99999,9,09845,1","7,1,006,1,+999,9","SYN060AAXX  04121 02151 45982 /3404 10037 21075 39845 40185 57006;",
"02151099999","2010-05-04T15:00:00","4","66.4833333","20.1666666","275.0","JOKKMOKK FPL, SW","FM-12","99999","V020","320,1,N,0030,1","99999,9,9,N","045000,1,N,1","+0036,1","-0075,1","10182,1",,,,,,,"99999,9,09842,1","7,1,003,1,+999,9","SYN060AAXX  04151 02151 45/83 /3203 10036 21075 39842 40182 57003;",
"02151099999","2010-05-04T18:00:00","4","66.4833333","20.1666666","275.0","JOKKMOKK FPL, SW","FM-12","99999","V020","340,1,N,0020,1","99999,9,9,N","050000,1,N,1","+0027,1","-0048,1","10184,1",,,,,"120,M,+0053,1","999,N,-0015,1","99999,9,09843,1","2,1,002,1,+999,9","SYN076AAXX  04181 02151 45984 /3402 10027 21048 39843 40184 52002 333 10053 21015;",
"02151099999","2010-05-04T21:00:00","4","66.4833333","20.1666666","275.0","JOKKMOKK FPL, SW","FM-12","99999","V020","999,9,C,0000,1","99999,9,9,N","050000,1,N,1","-0032,1","-0042,1","10198,1",,,,,,,"99999,9,09850,1","2,1,006,1,+999,9","SYN060AAXX  04211 02151 45984 /0000 11032 21042 39850 40198 52006;",
"02151099999","2010-05-05T00:00:00","4","66.4833333","20.1666666","275.0","JOKKMOKK FPL, SW","FM-12","99999","V020","999,9,C,0000,1","99999,9,9,N","050000,1,N,1","-0034,1","-0042,1","10195,1",,,"02,1,+01800,1,99,9",,,,"99999,9,09846,1","7,1,004,1,+999,9","SYN070AAXX  05001 02151 45784 /0000 11034 21042 39846 40195 57004 333 82/56;",
"02151099999","2010-05-05T03:00:00","4","66.4833333","20.1666666","275.0","JOKKMOKK FPL, SW","FM-12","99999","V020","320,1,N,0020,1","01800,1,C,N","050000,1,N,1","-0029,1","-0060,1","10193,1",,,"06,1,+01800,1,99,9",,,,"99999,9,09845,1","4,1,000,1,+999,9","SYN070AAXX  05031 02151 45784 /3202 11029 21060 39845 40193 54001 333 86/56;",
"02151099999","2010-05-05T06:00:00","4","66.4833333","20.1666666","275.0","JOKKMOKK FPL, SW","FM-12","99999","V020","300,1,N,0020,1","99999,9,9,N","050000,1,N,1","-0006,1","-0046,1","10185,1",,,,,"120,M,+0028,1","999,N,-0038,1","99999,9,09840,1","7,1,005,1,+999,9","SYN076AAXX  05061 02151 45984 /3002 11006 21046 39840 40185 57005 333 10028 21038;",
"02151099999","2010-05-05T09:00:00","4","66.4833333","20.1666666","275.0","JOKKMOKK FPL, SW","FM-12","99999","V020","310,1,N,0030,1","99999,9,9,N","030000,1,N,1","+0024,1","-0049,1","10179,1",,,"01,1,+01080,1,99,9",,,,"99999,9,09838,1","7,1,002,1,+999,9","SYN070AAXX  05091 02151 45680 /3103 10024 21049 39838 40179 57002 333 81/36;",
"02151099999","2010-05-05T12:00:00","4","66.4833333","20.1666666","275.0","JOKKMOKK FPL, SW","FM-12","99999","V020","999,9,C,0000,1","01500,1,C,N","040000,1,N,1","+0029,1","-0038,1","10176,1","23,1","8,1,06,1","06,1,+01500,1,99,9",,,,"99999,9,09836,1","7,1,002,1,+999,9","SYN076AAXX  05121 02151 47782 /0000 10029 21038 39836 40176 57002 72386 333 86/50;",
"02151099999","2010-05-05T15:00:00","4","66.4833333","20.1666666","275.0","JOKKMOKK FPL, SW","FM-12","99999","V020","310,1,N,0010,1","99999,9,9,N","040000,1,N,1","+0033,1","-0047,1","10174,1","24,1","8,1,03,1","01,1,+02400,1,99,9",,,,"99999,9,09834,1","5,1,001,1,+999,9","SYN076AAXX  05151 02151 47882 /3101 10033 21047 39834 40174 55001 72482 333 81/58;",
"02151099999","2010-05-05T18:00:00","4","66.4833333","20.1666666","275.0","JOKKMOKK FPL, SW","FM-12","99999","V020","070,1,N,0020,1","99999,9,9,N","045000,1,N,1","+0025,1","-0021,1","10177,1","00,1","8,1,06,1",,,"120,M,+0049,1","999,N,-0007,1","99999,9,09836,1","3,1,002,1,+999,9","SYN082AAXX  05181 02151 47/83 /0702 10025 21021 39836 40177 53002 70082 333 10049 21007;",
"02151099999","2010-05-05T21:00:00","4","66.4833333","20.1666666","275.0","JOKKMOKK FPL, SW","FM-12","99999","V020","999,9,C,0000,1","99999,9,9,N","040000,1,N,1","-0032,1","-0039,1","10193,1",,,,,,,"99999,9,09844,1","2,1,008,1,+999,9","SYN060AAXX  05211 02151 45982 /0000 11032 21039 39844 40193 52008;",
"02151099999","2010-05-06T00:00:00","4","66.4833333","20.1666666","275.0","JOKKMOKK FPL, SW","FM-12","99999","V020","999,9,C,0000,1","99999,9,9,N","050000,1,N,1","-0046,1","-0047,1","10202,1",,,,,,,"99999,9,09852,1","2,1,008,1,+999,9","SYN060AAXX  06001 02151 45984 /0000 11046 21047 39852 40202 52008;",
"02151099999","2010-05-06T03:00:00","4","66.4833333","20.1666666","275.0","JOKKMOKK FPL, SW","FM-12","99999","V020","999,9,C,0000,1","01410,1,C,N","050000,1,N,1","-0044,1","-0047,1","10215,1",,,"05,1,+01410,1,99,9",,,,"99999,9,09865,1","2,1,013,1,+999,9","SYN076AAXX  06031 02151 45684 /0000 11044 21047 39865 40215 52013 333 85/47 87/50;",
"02151099999","2010-05-06T06:00:00","4","66.4833333","20.1666666","275.0","JOKKMOKK FPL, SW","FM-12","99999","V020","320,1,N,0020,1","01020,1,C,N","028000,1,N,1","+0005,1","-0020,1","10225,1","24,1","8,1,06,1","02,1,+00810,1,99,9","05,1,+01020,1,99,9","120,M,+0025,1","999,N,-0059,1","99999,9,09880,1","2,1,015,1,+999,9","SYN100AAXX  06061 02151 47578 /3202 10005 21020 39880 40225 52015 72487 333 10025 21059 82/27 85/34 88/56;",
"02151099999","2010-05-06T09:00:00","4","66.4833333","20.1666666","275.0","JOKKMOKK FPL, SW","FM-12","99999","V020","360,1,N,0020,1","00870,1,C,N","017000,1,N,1","+0025,1","-0020,1","10238,1","81,1","8,1,03,1","09,1,+00870,1,99,9",,,,"99999,9,09895,1","2,1,015,1,+999,9","SYN076AAXX  06091 02151 47/67 /3602 10025 21020 39895 40238 52015 78186 333 89/29;",
"02151099999","2010-05-06T12:00:00","4","66.4833333","20.1666666","275.0","JOKKMOKK FPL, SW","FM-12","99999","V020","010,1,N,0020,1","99999,9,9,N","035000,1,N,1","+0040,1","-0032,1","10248,1","00,1","8,1,06,1","03,1,+01350,1,99,9",,,,"99999,9,09906,1","3,1,011,1,+999,9","SYN082AAXX  06121 02151 47681 /0102 10040 21032 39906 40248 53011 70086 333 83/45 87/56;",
"02151099999","2010-05-06T15:00:00","4","66.4833333","20.1666666","275.0","JOKKMOKK FPL, SW","FM-12","99999","V020","320,1,N,0010,1","99999,9,9,N","040000,1,N,1","+0047,1","-0039,1","10256,1",,,"02,1,+01440,1,99,9",,,,"99999,9,09915,1","2,1,009,1,+999,9","SYN076AAXX  06151 02151 45682 /3201 10047 21039 39915 40256 52009 333 82/48 88/56;",
"02151099999","2010-05-06T18:00:00","4","66.4833333","20.1666666","275.0","JOKKMOKK FPL, SW","FM-12","99999","V020","100,1,N,0020,1","01500,1,C,N","045000,1,N,1","+0041,1","-0032,1","10269,1",,,"06,1,+01500,1,99,9",,"120,M,+0057,1","999,N,+0004,1","99999,9,09927,1","3,1,011,1,+999,9","SYN082AAXX  06181 02151 45783 /1002 10041 21032 39927 40269 53011 333 10057 20004 86/50;",
"02151099999","2010-05-06T21:00:00","4","66.4833333","20.1666666","275.0","JOKKMOKK FPL, SW","FM-12","99999","V020","140,1,N,0010,1","99999,9,9,N","050000,1,N,1","-0014,1","-0036,1","10290,1",,,,,,,"99999,9,09941,1","2,1,014,1,+999,9","SYN060AAXX  06211 02151 45984 /1401 11014 21036 39941 40290 52014;",
"02151099999","2010-05-07T00:00:00","4","66.4833333","20.1666666","275.0","JOKKMOKK FPL, SW","FM-12","99999","V020","130,1,N,0010,1","99999,9,9,N","040000,1,N,1","-0038,1","-0049,1","10302,1",,,,,,,"99999,9,09949,1","1,1,009,1,+999,9","SYN060AAXX  07001 02151 45982 /1301 11038 21049 39949 40302 51009;",
"02151099999","2010-05-07T03:00:00","4","66.4833333","20.1666666","275.0","JOKKMOKK FPL, SW","FM-12","99999","V020","140,1,N,0020,1","99999,9,9,N","030000,1,N,1","-0041,1","-0052,1","10303,1",,,,,,,"99999,9,09950,1","4,1,000,1,+999,9","SYN060AAXX  07031 02151 45980 /1402 11041 21052 39950 40303 54001;",
"02151099999","2010-05-07T06:00:00","4","66.4833333","20.1666666","275.0","JOKKMOKK FPL, SW","FM-12","99999","V020","150,1,N,0020,1","99999,9,9,N","030000,1,N,1","+0007,1","-0024,1","10292,1",,,,,"120,M,+0041,1","999,N,-0055,1","99999,9,09945,1","7,1,005,1,+999,9","SYN076AAXX  07061 02151 45980 /1502 10007 21024 39945 40292 57005 333 10041 21055;",
"02151099999","2010-05-07T09:00:00","4","66.4833333","20.1666666","275.0","JOKKMOKK FPL, SW","FM-12","99999","V020","150,1,N,0040,1","99999,9,9,N","035000,1,N,1","+0053,1","-0012,1","10275,1",,,"04,1,+01800,1,99,9",,,,"99999,9,09934,1","8,1,011,1,+999,9","SYN070AAXX  07091 02151 45781 /1504 10053 21012 39934 40275 58011 333 84/56;",
"02151099999","2010-05-07T12:00:00","4","66.4833333","20.1666666","275.0","JOKKMOKK FPL, SW","FM-12","99999","V020","150,1,N,0020,1","01800,1,C,N","045000,1,N,1","+0067,1","-0040,1","10258,1",,,"05,1,+01800,1,99,9",,,,"99999,9,09920,1","7,1,014,1,+999,9","SYN070AAXX  07121 02151 45783 /1502 10067 21040 39920 40258 57014 333 85/56;",
"02151099999","2010-05-07T15:00:00","4","66.4833333","20.1666666","275.0","JOKKMOKK FPL, SW","FM-12","99999","V020","170,1,N,0030,1","02100,1,C,N","045000,1,N,1","+0078,1","-0053,1","10241,1",,,"05,1,+02100,1,99,9",,,,"99999,9,09904,1","7,1,016,1,+999,9","SYN070AAXX  07151 02151 45883 /1703 10078 21053 39904 40241 57016 333 85/57;",
"02151099999","2010-05-07T18:00:00","4","66.4833333","20.1666666","275.0","JOKKMOKK FPL, SW","FM-12","99999","V020","180,1,N,0030,1","99999,9,9,N","050000,1,N,1","+0060,1","-0036,1","10230,1",,,"04,1,+02100,1,99,9",,"120,M,+0087,1","999,N,+0006,1","99999,9,09891,1","7,1,013,1,+999,9","SYN082AAXX  07181 02151 45884 /1803 10060 21036 39891 40230 57013 333 10087 20006 84/57;",
"02151099999","2010-05-07T21:00:00","4","66.4833333","20.1666666","275.0","JOKKMOKK FPL, SW","FM-12","99999","V020","120,1,N,0010,1","99999,9,9,N","050000,1,N,1","+0011,1","-0024,1","10229,1",,,,,,,"99999,9,09884,1","7,1,007,1,+999,9","SYN060AAXX  07211 02151 45984 /1201 10011 21024 39884 40229 57007;",
"02151099999","2010-05-08T06:00:00","4","66.4833333","20.1666666","275.0","JOKKMOKK FPL, SW","FM-12","99999","V020","130,1,N,0050,1","02100,1,C,N","050000,1,N,1","+0023,1","-0018,1","10178,1",,,"08,1,+02100,1,99,9",,"120,M,+0060,1","999,N,-0022,1","99999,9,09837,1","8,1,016,1,+999,9","SYN082AAXX  08061 02151 45884 /1305 10023 21018 39837 40178 58016 333 10060 21022 88/57;",
"02151099999","2010-05-08T09:00:00","4","66.4833333","20.1666666","275.0","JOKKMOKK FPL, SW","FM-12","99999","V020","170,1,N,0060,1","02100,1,C,N","040000,1,N,1","+0070,1","-0027,1","10153,1",,,"05,1,+02100,1,99,9",,,,"99999,9,09819,1","8,1,018,1,+999,9","SYN070AAXX  08091 02151 45882 /1706 10070 21027 39819 40153 58018 333 85/57;",
"02151099999","2010-05-08T12:00:00","4","66.4833333","20.1666666","275.0","JOKKMOKK FPL, SW","FM-12","99999","V020","170,1,N,0060,1","99999,9,9,N","045000,1,N,1","+0081,1","-0035,1","10132,1",,,"01,1,+01800,1,99,9",,,,"99999,9,09799,1","7,1,019,1,+999,9","SYN070AAXX  08121 02151 45783 /1706 10081 21035 39799 40132 57019 333 81/56;",
"02151099999","2010-05-08T15:00:00","4","66.4833333","20.1666666","275.0","JOKKMOKK FPL, SW","FM-12","99999","V020","180,1,N,0040,1","02100,1,C,N","050000,1,N,1","+0082,1","-0041,1","10113,1",,,"08,1,+02100,1,99,9",,,,"99999,9,09781,1","7,1,018,1,+999,9","SYN070AAXX  08151 02151 45884 /1804 10082 21041 39781 40113 57018 333 88/57;",
"02151099999","2010-05-08T18:00:00","4","66.4833333","20.1666666","275.0","JOKKMOKK FPL, SW","FM-12","99999","V020","140,1,N,0040,1","99999,9,9,N","050000,1,N,1","+0054,1","-0020,1","10100,1",,,"02,1,+03600,1,99,9",,"120,M,+0088,1","999,N,+0023,1","99999,9,09765,1","7,1,015,1,+999,9","SYN082AAXX  08181 02151 45984 /1404 10054 21020 39765 40100 57015 333 10088 20023 82/62;",
"02151099999","2010-05-08T21:00:00","4","66.4833333","20.1666666","275.0","JOKKMOKK FPL, SW","FM-12","99999","V020","170,1,N,0020,1","01800,1,C,N","050000,1,N,1","+0033,1","-0021,1","10092,1",,,"06,1,+01800,1,99,9",,,,"99999,9,09755,1","7,1,011,1,+999,9","SYN076AAXX  08211 02151 45884 /1702 10033 21021 39755 40092 57011 333 86/56 87/58;",
"02151099999","2010-05-09T00:00:00","4","66.4833333","20.1666666","275.0","JOKKMOKK FPL, SW","FM-12","99999","V020","250,1,N,0010,1","01500,1,C,N","050000,1,N,1","+0012,1","-0022,1","10081,1",,,"08,1,+01500,1,99,9",,,,"99999,9,09742,1","7,1,013,1,+999,9","SYN070AAXX  09001 02151 45784 /2501 10012 21022 39742 40081 57013 333 88/50;",
"02151099999","2010-05-09T03:00:00","4","66.4833333","20.1666666","275.0","JOKKMOKK FPL, SW","FM-12","99999","V020","310,1,N,0030,1","00300,1,C,N","050000,1,N,1","+0005,1","-0007,1","10078,1",,,"08,1,+00300,1,99,9",,,,"99999,9,09738,1","8,1,004,1,+999,9","SYN070AAXX  09031 02151 45484 /3103 10005 21007 39738 40078 58004 333 88/10;",
"02151099999","2010-05-09T06:00:00","4","66.4833333","20.1666666","275.0","JOKKMOKK FPL, SW","FM-12","99999","V020","300,1,N,0040,1","99999,9,9,N","045000,1,N,1","+0007,1","-0014,1","10070,1","85,1","8,1,06,1","02,1,+01500,1,99,9",,"120,M,+0057,1","999,N,+0003,1","99999,9,09731,1","7,1,007,1,+999,9","SYN094AAXX  09061 02151 47783 /3004 10007 21014 39731 40070 57007 78584 333 10057 20003 82/50 84/58;",
"02151099999","2010-05-09T09:00:00","4","66.4833333","20.1666666","275.0","JOKKMOKK FPL, SW","FM-12","99999","V020","330,1,N,0030,1","99999,9,9,N","040000,1,N,1","+0037,1","-0032,1","10057,1","00,1","8,1,03,1","01,1,+01290,1,99,9",,,,"99999,9,09721,1","8,1,010,1,+999,9","SYN082AAXX  09091 02151 47682 /3303 10037 21032 39721 40057 58010 70082 333 81/43 88/56;",
"02151099999","2010-05-09T12:00:00","4","66.4833333","20.1666666","275.0","JOKKMOKK FPL, SW","FM-12","99999","V020","240,1,N,0010,1","99999,9,9,N","035000,1,N,1","+0059,1","-0031,1","10044,1","00,1","8,1,06,1","02,1,+01440,1,99,9",,,,"99999,9,09712,1","7,1,010,1,+999,9","SYN082AAXX  09121 02151 47681 /2401 10059 21031 39712 40044 57010 70082 333 82/48 86/58;",
"02151099999","2010-05-09T15:00:00","4","66.4833333","20.1666666","275.0","JOKKMOKK FPL, SW","FM-12","99999","V020","190,1,N,0010,1","99999,9,9,N","045000,1,N,1","+0066,1","-0028,1","10040,1",,,"02,1,+01500,1,99,9",,,,"99999,9,09709,1","7,1,003,1,+999,9","SYN076AAXX  09151 02151 45783 /1901 10066 21028 39709 40040 57003 333 82/50 84/56;",
"02151099999","2010-05-09T18:00:00","4","66.4833333","20.1666666","275.0","JOKKMOKK FPL, SW","FM-12","99999","V020","999,9,C,0000,1","01800,1,C,N","050000,1,N,1","+0046,1","-0013,1","10045,1",,,"08,1,+01800,1,99,9",,"120,M,+0082,1","999,N,+0007,1","99999,9,09711,1","2,1,002,1,+999,9","SYN082AAXX  09181 02151 45884 /0000 10046 21013 39711 40045 52002 333 10082 20007 88/56;",
"02151099999","2010-05-09T21:00:00","4","66.4833333","20.1666666","275.0","JOKKMOKK FPL, SW","FM-12","99999","V020","999,9,C,0000,1","99999,9,9,N","050000,1,N,1","-0009,1","-0025,1","10063,1",,,,,,,"99999,9,09721,1","3,1,011,1,+999,9","SYN060AAXX  09211 02151 45984 /0000 11009 21025 39721 40063 53011;",
"02151099999","2010-05-10T00:00:00","4","66.4833333","20.1666666","275.0","JOKKMOKK FPL, SW","FM-12","99999","V020","999,9,C,0000,1","99999,9,9,N","050000,1,N,1","-0029,1","-0037,1","10075,1",,,,,,,"99999,9,09731,1","3,1,009,1,+999,9","SYN060AAXX  10001 02151 45984 /0000 11029 21037 39731 40075 53009;",
"02151099999","2010-05-10T03:00:00","4","66.4833333","20.1666666","275.0","JOKKMOKK FPL, SW","FM-12","99999","V020","999,9,C,0000,1","99999,9,9,N","050000,1,N,1","-0024,1","-0038,1","10085,1",,,,,,,"99999,9,09741,1","2,1,010,1,+999,9","SYN060AAXX  10031 02151 45984 /0000 11024 21038 39741 40085 52010;",
"02151099999","2010-05-10T06:00:00","4","66.4833333","20.1666666","275.0","JOKKMOKK FPL, SW","FM-12","99999","V020","240,1,N,0010,1","99999,9,9,N","050000,1,N,1","+0029,1","-0005,1","10087,1",,,,,"120,M,+0047,1","999,N,-0041,1","99999,9,09749,1","2,1,009,1,+999,9","SYN076AAXX  10061 02151 45984 /2401 10029 21005 39749 40087 52009 333 10047 21041;",
"02151099999","2010-05-10T09:00:00","4","66.4833333","20.1666666","275.0","JOKKMOKK FPL, SW","FM-12","99999","V020","150,1,N,0010,1","99999,9,9,N","040000,1,N,1","+0063,1","-0025,1","10083,1",,,"01,1,+01320,1,99,9",,,,"99999,9,09750,1","4,1,000,1,+999,9","SYN070AAXX  10091 02151 45682 /1501 10063 21025 39750 40083 54001 333 81/44;",
"02151099999","2010-05-10T12:00:00","4","66.4833333","20.1666666","275.0","JOKKMOKK FPL, SW","FM-12","99999","V020","130,1,N,0020,1","99999,9,9,N","030000,1,N,1","+0083,1","-0044,1","10079,1",,,,,,,"99999,9,09748,1","7,1,002,1,+999,9","SYN060AAXX  10121 02151 45980 /1302 10083 21044 39748 40079 57002;",
"02151099999","2010-05-10T15:00:00","4","66.4833333","20.1666666","275.0","JOKKMOKK FPL, SW","FM-12","99999","V020","120,1,N,0040,1","01800,1,C,N","050000,1,N,1","+0089,1","-0031,1","10075,1",,,"08,1,+01800,1,99,9",,,,"99999,9,09745,1","7,1,003,1,+999,9","SYN070AAXX  10151 02151 45784 /1204 10089 21031 39745 40075 57003 333 88/56;",
"02151099999","2010-05-10T18:00:00","4","66.4833333","20.1666666","275.0","JOKKMOKK FPL, SW","FM-12","99999","V020","120,1,N,0020,1","01800,1,C,N","017000,1,N,1","+0074,1","-0005,1","10076,1",,,"08,1,+01800,1,99,9",,"120,M,+0099,1","999,N,+0029,1","99999,9,09745,1","4,1,000,1,+999,9","SYN082AAXX  10181 02151 45767 /1202 10074 21005 39745 40076 54001 333 10099 20029 88/56;",
"02151099999","2010-05-10T21:00:00","4","66.4833333","20.1666666","275.0","JOKKMOKK FPL, SW","FM-12","99999","V020","999,9,C,0000,1","01500,1,C,N","050000,1,N,1","+0039,1","-0002,1","10075,1",,,"08,1,+01500,1,99,9",,,,"99999,9,09739,1","8,1,005,1,+999,9","SYN070AAXX  10211 02151 45784 /0000 10039 21002 39739 40075 58005 333 88/50;",
"02151099999","2010-05-11T00:00:00","4","66.4833333","20.1666666","275.0","JOKKMOKK FPL, SW","FM-12","99999","V020","140,1,N,0020,1","00780,1,C,N","008000,1,N,1","+0027,1","+0010,1","10077,1","61,1","6,1,06,1","09,1,+00780,1,99,9",,,,"99999,9,09740,1","5,1,000,1,+999,9","SYN076AAXX  11001 02151 47/58 /1402 10027 20010 39740 40077 55000 76165 333 89/26;",
"02151099999","2010-05-11T03:00:00","4","66.4833333","20.1666666","275.0","JOKKMOKK FPL, SW","FM-12","99999","V020","100,1,N,0020,1","00120,1,C,N","015000,1,N,1","+0024,1","+0024,1","10077,1","22,1","6,1,03,1","07,1,+00120,1,99,9",,,,"99999,9,09739,1","7,1,001,1,+999,9","SYN082AAXX  11031 02151 47265 /1002 10024 20024 39739 40077 57001 72265 333 87/04 88/14;",
"02151099999","2010-05-11T06:00:00","4","66.4833333","20.1666666","275.0","JOKKMOKK FPL, SW","FM-12","99999","V020","140,1,N,0040,1","00060,1,C,N","006000,1,N,1","+0023,1","+0023,1","10079,1","81,1","8,1,06,1","08,1,+00060,1,99,9",,"120,M,+0075,1","999,N,+0019,1","99999,9,09741,1","2,1,002,1,+999,9","SYN088AAXX  11061 02151 47156 /1404 10023 20023 39741 40079 52002 78186 333 10075 20019 88/02;",
"02151099999","2010-05-11T09:00:00","4","66.4833333","20.1666666","275.0","JOKKMOKK FPL, SW","FM-12","99999","V020","150,1,N,0060,1","22000,1,C,N","040000,1,N,1","+0040,1","+0028,1","10091,1","00,1","8,1,03,1","01,1,+00270,1,99,9","04,1,+00360,1,99,9",,,"99999,9,09755,1","3,1,014,1,+999,9","SYN088AAXX  11091 02151 47382 /1506 10040 20028 39755 40091 53014 70085 333 81/09 84/12 88/19;",
"02151099999","2010-05-11T12:00:00","4","66.4833333","20.1666666","275.0","JOKKMOKK FPL, SW","FM-12","99999","V020","170,1,N,0040,1","00900,1,C,N","040000,1,N,1","+0056,1","+0028,1","10099,1","22,1","8,1,06,1","04,1,+00600,1,99,9","06,1,+00900,1,99,9",,,"99999,9,09765,1","1,1,009,1,+999,9","SYN088AAXX  11121 02151 47582 /1704 10056 20028 39765 40099 51009 72286 333 84/20 86/30 87/68;",
"02151099999","2010-05-11T15:00:00","4","66.4833333","20.1666666","275.0","JOKKMOKK FPL, SW","FM-12","99999","V020","170,1,N,0050,1","01800,1,C,N","050000,1,N,1","+0072,1","-0008,1","10109,1","00,1","8,1,03,1","07,1,+01800,1,99,9",,,,"99999,9,09776,1","2,1,011,1,+999,9","SYN076AAXX  11151 02151 47784 /1705 10072 21008 39776 40109 52011 70086 333 87/56;",
"02151099999","2010-05-11T18:00:00","4","66.4833333","20.1666666","275.0","JOKKMOKK FPL, SW","FM-12","99999","V020","220,1,N,0020,1","99999,9,9,N","050000,1,N,1","+0078,1","-0033,1","10125,1","00,1","8,1,06,1",,,"120,M,+0082,1","999,N,+0023,1","99999,9,09792,1","2,1,016,1,+999,9","SYN082AAXX  11181 02151 47984 /2202 10078 21033 39792 40125 52016 70082 333 10082 20023;",
"02151099999","2010-05-11T21:00:00","4","66.4833333","20.1666666","275.0","JOKKMOKK FPL, SW","FM-12","99999","V020","210,1,N,0010,1","99999,9,9,N","050000,1,N,1","+0005,1","-0029,1","10154,1",,,,,,,"99999,9,09812,1","1,1,020,1,+999,9","SYN060AAXX  11211 02151 45984 /2101 10005 21029 39812 40154 51020;",
"02151099999","2010-05-12T00:00:00","4","66.4833333","20.1666666","275.0","JOKKMOKK FPL, SW","FM-12","99999","V020","999,9,C,0000,1","99999,9,9,N","050000,1,N,1","-0034,1","-0044,1","10171,1",,,,,,,"99999,9,09823,1","2,1,011,1,+999,9","SYN060AAXX  12001 02151 45984 /0000 11034 21044 39823 40171 52011;",
"02151099999","2010-05-12T03:00:00","4","66.4833333","20.1666666","275.0","JOKKMOKK FPL, SW","FM-12","99999","V020","130,1,N,0010,1","99999,9,9,N","050000,1,N,1","-0025,1","-0039,1","10172,1",,,,,,,"99999,9,09825,1","2,1,003,1,+999,9","SYN060AAXX  12031 02151 45984 /1301 11025 21039 39825 40172 52003;",
"02151099999","2010-05-12T06:00:00","4","66.4833333","20.1666666","275.0","JOKKMOKK FPL, SW","FM-12","99999","V020","140,1,N,0030,1","99999,9,9,N","045000,1,N,1","+0046,1","+0005,1","10165,1",,,,,"120,M,+0078,1","999,N,-0040,1","99999,9,09827,1","2,1,001,1,+999,9","SYN076AAXX  12061 02151 45983 /1403 10046 20005 39827 40165 52001 333 10078 21040;",
"02151099999","2010-05-12T09:00:00","4","66.4833333","20.1666666","275.0","JOKKMOKK FPL, SW","FM-12","99999","V020","130,1,N,0050,1","99999,9,9,N","035000,1,N,1","+0081,1","+0002,1","10158,1",,,,,,,"99999,9,09824,1","7,1,003,1,+999,9","SYN060AAXX  12091 02151 45981 /1305 10081 20002 39824 40158 57003;",
"02151099999","2010-05-12T12:00:00","4","66.4833333","20.1666666","275.0","JOKKMOKK FPL, SW","FM-12","99999","V020","160,1,N,0030,1","02100,1,C,N","045000,1,N,1","+0084,1","-0017,1","10158,1",,,"07,1,+02100,1,99,9",,,,"99999,9,09825,1","4,1,000,1,+999,9","SYN070AAXX  12121 02151 45883 /1603 10084 21017 39825 40158 54001 333 87/57;",
"02151099999","2010-05-12T15:00:00","4","66.4833333","20.1666666","275.0","JOKKMOKK FPL, SW","FM-12","99999","V020","230,1,N,0030,1","02400,1,C,N","045000,1,N,1","+0100,1","-0030,1","10162,1",,,"06,1,+02400,1,99,9",,,,"99999,9,09831,1","2,1,006,1,+999,9","SYN070AAXX  12151 02151 45983 /2303 10100 21030 39831 40162 52006 333 86/58;",
"02151099999","2010-05-12T18:00:00","4","66.4833333","20.1666666","275.0","JOKKMOKK FPL, SW","FM-12","99999","V020","250,1,N,0020,1","02100,1,C,N","050000,1,N,1","+0090,1","-0022,1","10179,1",,,"08,1,+02100,1,99,9",,"120,M,+0104,1","999,N,+0046,1","99999,9,09845,1","3,1,014,1,+999,9","SYN082AAXX  12181 02151 45884 /2502 10090 21022 39845 40179 53014 333 10104 20046 88/57;",
"02151099999","2010-05-12T21:00:00","4","66.4833333","20.1666666","275.0","JOKKMOKK FPL, SW","FM-12","99999","V020","999,9,C,0000,1","99999,9,9,N","050000,1,N,1","+0008,1","-0018,1","10207,1",,,,,,,"99999,9,09863,1","2,1,017,1,+999,9","SYN060AAXX  12211 02151 45984 /0000 10008 21018 39863 40207 52017;",
"02151099999","2010-05-13T00:00:00","4","66.4833333","20.1666666","275.0","JOKKMOKK FPL, SW","FM-12","99999","V020","999,9,C,0000,1","99999,9,9,N","050000,1,N,1","-0028,1","-0031,1","10225,1",,,,,,,"99999,9,09876,1","2,1,014,1,+999,9","SYN060AAXX  13001 02151 45984 /0000 11028 21031 39876 40225 52014;",
"02151099999","2010-05-13T03:00:00","4","66.4833333","20.1666666","275.0","JOKKMOKK FPL, SW","FM-12","99999","V020","999,9,C,0000,1","04200,1,C,N","050000,1,N,1","-0017,1","-0023,1","10234,1",,,"08,1,+04200,1,99,9",,,,"99999,9,09886,1","2,1,010,1,+999,9","SYN070AAXX  13031 02151 45984 /0000 11017 21023 39886 40234 52010 333 88/64;",
"02151099999","2010-05-13T06:00:00","4","66.4833333","20.1666666","275.0","JOKKMOKK FPL, SW","FM-12","99999","V020","999,9,C,0000,1","03300,1,C,N","050000,1,N,1","+0033,1","+0006,1","10235,1",,,"08,1,+03300,1,99,9",,"120,M,+0090,1","999,N,-0035,1","99999,9,09893,1","0,1,007,1,+999,9","SYN082AAXX  13061 02151 45984 /0000 10033 20006 39893 40235 50007 333 10090 21035 88/61;",
"02151099999","2010-05-13T09:00:00","4","66.4833333","20.1666666","275.0","JOKKMOKK FPL, SW","FM-12","99999","V020","140,1,N,0010,1","02400,1,C,N","040000,1,N,1","+0059,1","+0011,1","10228,1",,,"08,1,+02400,1,99,9",,,,"99999,9,09889,1","8,1,004,1,+999,9","SYN070AAXX  13091 02151 45882 /1401 10059 20011 39889 40228 58004 333 88/58;",
"02151099999","2010-05-13T12:00:00","4","66.4833333","20.1666666","275.0","JOKKMOKK FPL, SW","FM-12","99999","V020","090,1,N,0030,1","01350,1,C,N","045000,1,N,1","+0115,1","-0013,1","10204,1",,,"08,1,+01350,1,99,9",,,,"99999,9,09873,1","8,1,016,1,+999,9","SYN070AAXX  13121 02151 45683 /0903 10115 21013 39873 40204 58016 333 88/45;",
"02151099999","2010-05-13T15:00:00","4","66.4833333","20.1666666","275.0","JOKKMOKK FPL, SW","FM-12","99999","V020","090,1,N,0040,1","99999,9,9,N","050000,1,N,1","+0136,1","+0012,1","10184,1",,,,,,,"99999,9,09856,1","7,1,017,1,+999,9","SYN060AAXX  13151 02151 45984 /0904 10136 20012 39856 40184 57017;",
"02151099999","2010-05-13T18:00:00","4","66.4833333","20.1666666","275.0","JOKKMOKK FPL, SW","FM-12","99999","V020","080,1,N,0020,1","02100,1,C,N","050000,1,N,1","+0123,1","+0022,1","10174,1","23,1","8,1,06,1","05,1,+02100,1,99,9",,"120,M,+0142,1","999,N,+0032,1","99999,9,09845,1","7,1,011,1,+999,9","SYN094AAXX  13181 02151 47884 /0802 10123 20022 39845 40174 57011 72386 333 10142 20032 85/57 87/60;",
"02151099999","2010-05-13T21:00:00","4","66.4833333","20.1666666","275.0","JOKKMOKK FPL, SW","FM-12","99999","V020","310,1,N,0010,1","99999,9,9,N","028000,1,N,1","+0057,1","+0036,1","10171,1","81,1","8,1,03,1","02,1,+01290,1,99,9",,,,"99999,9,09834,1","8,1,011,1,+999,9","SYN082AAXX  13211 02151 47678 /3101 10057 20036 39834 40171 58011 78186 333 82/43 86/56;",
"02151099999","2010-05-14T00:00:00","4","66.4833333","20.1666666","275.0","JOKKMOKK FPL, SW","FM-12","99999","V020","310,1,N,0020,1","00360,1,C,N","040000,1,N,1","+0046,1","+0045,1","10163,1","22,1","8,1,06,1","05,1,+00360,1,99,9",,,,"99999,9,09825,1","6,1,008,1,+999,9","SYN082AAXX  14001 02151 47482 /3102 10046 20045 39825 40163 56008 72286 333 85/12 88/15;",
"02151099999","2010-05-14T03:00:00","4","66.4833333","20.1666666","275.0","JOKKMOKK FPL, SW","FM-12","99999","V020","999,9,C,0000,1","00180,1,C,N","013000,1,N,1","+0045,1","+0045,1","10166,1","22,1","8,1,03,1","08,1,+00180,1,99,9",,,,"99999,9,09827,1","0,1,002,1,+999,9","SYN076AAXX  14031 02151 47263 /0000 10045 20045 39827 40166 50002 72282 333 88/06;",
"02151099999","2010-05-14T06:00:00","4","66.4833333","20.1666666","275.0","JOKKMOKK FPL, SW","FM-12","99999","V020","310,1,N,0020,1","00030,1,C,N","000300,1,N,1","+0047,1","+0047,1","10166,1","34,1","8,1,06,1","07,1,+00030,1,99,9",,"120,M,+0124,1","999,N,+0035,1","99999,9,09828,1","4,1,000,1,+999,9","SYN094AAXX  14061 02151 47103 /3102 10047 20047 39828 40166 54001 73483 333 10124 20035 87/01 88/03;",
"02151099999","2010-05-14T09:00:00","4","66.4833333","20.1666666","275.0","JOKKMOKK FPL, SW","FM-12","99999","V020","340,1,N,0020,1","99999,9,9,N","000200,1,N,1","+0055,1","+0055,1","10176,1","33,1","8,1,03,1","04,1,+00030,1,99,9",,,,"99999,9,09839,1","2,1,011,1,+999,9","SYN082AAXX  14091 02151 47102 /3402 10055 20055 39839 40176 52011 73386 333 84/01 88/03;",
"02151099999","2010-05-14T12:00:00","4","66.4833333","20.1666666","275.0","JOKKMOKK FPL, SW","FM-12","99999","V020","300,1,N,0020,1","00060,1,C,N","000600,1,N,1","+0069,1","+0069,1","10177,1","33,1","8,1,06,1","08,1,+00060,1,99,9",,,,"99999,9,09841,1","2,1,002,1,+999,9","SYN076AAXX  14121 02151 47106 /3002 10069 20069 39841 40177 52002 73386 333 88/02;",
"02151099999","2010-05-14T15:00:00","4","66.4833333","20.1666666","275.0","JOKKMOKK FPL, SW","FM-12","99999","V020","290,1,N,0020,1","00060,1,C,N","000700,1,N,1","+0068,1","+0068,1","10180,1","62,1","8,1,03,1","07,1,+00060,1,99,9",,,,"99999,9,09844,1","0,1,003,1,+999,9","SYN082AAXX  14151 02151 47107 /2902 10068 20068 39844 40180 50003 76286 333 87/02 88/04;",
"02151099999","2010-05-14T18:00:00","4","66.4833333","20.1666666","275.0","JOKKMOKK FPL, SW","FM-12","99999","V020","320,1,N,0020,1","00030,1,C,N","000200,1,N,1","+0063,1","+0063,1","10182,1","32,1","8,1,06,1","06,1,+00030,1,99,9",,"120,M,+0071,1","999,N,+0047,1","99999,9,09846,1","2,1,001,1,+999,9","SYN094AAXX  14181 02151 47102 /3202 10063 20063 39846 40182 52001 73286 333 10071 20047 86/01 88/03;",
"02151099999","2010-05-14T21:00:00","4","66.4833333","20.1666666","275.0","JOKKMOKK FPL, SW","FM-12","99999","V020","310,1,N,0010,1","00090,1,C,N","000200,1,N,1","+0060,1","+0060,1","10184,1","33,1","4,1,03,1","09,1,+00090,1,99,9",,,,"99999,9,09847,1","2,1,001,1,+999,9","SYN076AAXX  14211 02151 47/02 /3101 10060 20060 39847 40184 52001 73333 333 89/03;",
"02151099999","2010-05-15T00:00:00","4","66.4833333","20.1666666","275.0","JOKKMOKK FPL, SW","FM-12","99999","V020","999,9,9,9999,9","00060,1,C,N","000500,1,N,1","+0072,1","+0072,1","10177,1","81,1","8,1,06,1","09,1,+00060,1,99,9",,,,"99999,9,09841,1","8,1,006,1,+999,9","SYN076AAXX  15001 02151 47/05 ///// 10072 20072 39841 40177 58006 78186 333 89/02;",
"02151099999","2010-05-15T03:00:00","4","66.4833333","20.1666666","275.0","JOKKMOKK FPL, SW","FM-12","99999","V020","999,9,9,9999,9","00060,1,C,N","000200,1,N,1","+0060,1","+0060,1","10180,1","34,1","8,1,03,1","09,1,+00060,1,99,9",,,,"99999,9,09843,1","3,1,002,1,+999,9","SYN076AAXX  15031 02151 47/02 ///// 10060 20060 39843 40180 53002 73486 333 89/02;",
"02151099999","2010-05-15T06:00:00","4","66.4833333","20.1666666","275.0","JOKKMOKK FPL, SW","FM-12","99999","V020","999,9,9,9999,9","00060,1,C,N","000500,1,N,1","+0073,1","+0073,1","10182,1","31,1","8,1,06,1","08,1,+00060,1,99,9",,"120,M,+0095,1","999,N,+0047,1","99999,9,09847,1","2,1,004,1,+999,9","SYN088AAXX  15061 02151 47105 ///// 10073 20073 39847 40182 52004 73186 333 10095 20047 88/02;",
"02151099999","2010-05-15T09:00:00","4","66.4833333","20.1666666","275.0","JOKKMOKK FPL, SW","FM-12","99999","V020","999,9,9,9999,9","99999,9,9,N","040000,1,N,1","+0147,1","+0126,1","10170,1","00,1","4,1,03,1",,,,,"99999,9,09843,1","7,1,004,1,+999,9","SYN066AAXX  15091 02151 47982 ///// 10147 20126 39843 40170 57004 70032;",
"02151099999","2010-05-15T12:00:00","4","66.4833333","20.1666666","275.0","JOKKMOKK FPL, SW","FM-12","99999","V020","999,9,9,9999,9","99999,9,9,N","035000,1,N,1","+0197,1","+0119,1","10159,1","00,1","4,1,06,1",,,,,"99999,9,09839,1","7,1,004,1,+999,9","SYN066AAXX  15121 02151 47981 ///// 10197 20119 39839 40159 57004 70032;",
"02151099999","2010-05-15T15:00:00","4","66.4833333","20.1666666","275.0","JOKKMOKK FPL, SW","FM-12","99999","V020","999,9,9,9999,9","99999,9,9,N","040000,1,N,1","+0225,1","+0096,1","10148,1",,,,,,,"99999,9,09831,1","7,1,008,1,+999,9","SYN060AAXX  15151 02151 45982 ///// 10225 20096 39831 40148 57008;",
"02151099999","2010-05-15T18:00:00","4","66.4833333","20.1666666","275.0","JOKKMOKK FPL, SW","FM-12","99999","V020","999,9,9,9999,9","02400,1,C,N","045000,1,N,1","+0196,1","+0104,1","10151,1",,,"05,1,+02400,1,99,9",,"120,M,+0230,1","999,N,+0071,1","99999,9,09831,1","4,1,000,1,+999,9","SYN082AAXX  15181 02151 45983 ///// 10196 20104 39831 40151 54000 333 10230 20071 85/58;",
"02151099999","2010-05-15T21:00:00","4","66.4833333","20.1666666","275.0","JOKKMOKK FPL, SW","FM-12","99999","V020","999,9,9,9999,9","99999,9,9,N","040000,1,N,1","+0082,1","+0076,1","10177,1",,,"03,1,+02700,1,99,9",,,,"99999,9,09843,1","2,1,012,1,+999,9","SYN070AAXX  15211 02151 45982 ///// 10082 20076 39843 40177 52012 333 83/59;",
"02151099999","2010-05-16T00:00:00","4","66.4833333","20.1666666","275.0","JOKKMOKK FPL, SW","FM-12","99999","V020","999,9,9,9999,9","99999,9,9,N","015000,1,N,1","+0073,1","+0073,1","10181,1","00,1","8,1,06,1","01,1,+02700,1,99,9",,,,"99999,9,09846,1","0,1,003,1,+999,9","SYN082AAXX  16001 02151 47965 ///// 10073 20073 39846 40181 50003 70086 333 81/59 87/64;",
"02151099999","2010-05-16T03:00:00","4","66.4833333","20.1666666","275.0","JOKKMOKK FPL, SW","FM-12","99999","V020","999,9,9,9999,9","99999,9,9,N","021000,1,N,1","+0062,1","+0060,1","10185,1",,,"01,1,+03300,1,99,9",,,,"99999,9,09848,1","0,1,002,1,+999,9","SYN070AAXX  16031 02151 45971 ///// 10062 20060 39848 40185 50002 333 81/61;",
"02151099999","2010-05-16T06:00:00","4","66.4833333","20.1666666","275.0","JOKKMOKK FPL, SW","FM-12","99999","V020","999,9,9,9999,9","99999,9,9,N","040000,1,N,1","+0132,1","+0088,1","10176,1",,,"02,1,+03300,1,99,9",,"120,M,+0196,1","999,N,+0050,1","99999,9,09848,1","0,1,000,1,+999,9","SYN082AAXX  16061 02151 45982 ///// 10132 20088 39848 40176 50000 333 10196 20050 82/61;",
"02151099999","2010-05-16T09:00:00","4","66.4833333","20.1666666","275.0","JOKKMOKK FPL, SW","FM-12","99999","V020","999,9,9,9999,9","99999,9,9,N","035000,1,N,1","+0171,1","+0105,1","10172,1",,,"01,1,+03300,1,99,9",,,,"99999,9,09848,1","0,1,001,1,+999,9","SYN070AAXX  16091 02151 45981 ///// 10171 20105 39848 40172 50001 333 81/61;",
"02151099999","2010-05-16T12:00:00","4","66.4833333","20.1666666","275.0","JOKKMOKK FPL, SW","FM-12","99999","V020","999,9,9,9999,9","99999,9,9,N","029000,1,N,1","+0196,1","+0113,1","10166,1",,,"01,1,+02700,1,99,9",,,,"99999,9,09845,1","8,1,004,1,+999,9","SYN076AAXX  16121 02151 45979 ///// 10196 20113 39845 40166 58004 333 81/59 83/63;",
"02151099999","2010-05-16T15:00:00","4","66.4833333","20.1666666","275.0","JOKKMOKK FPL, SW","FM-12","99999","V020","999,9,9,9999,9","99999,9,9,N","040000,1,N,1","+0186,1","+0107,1","10163,1",,,"02,1,+03000,1,99,9",,,,"99999,9,09841,1","7,1,004,1,+999,9","SYN076AAXX  16151 02151 45982 ///// 10186 20107 39841 40163 57004 333 82/60 87/64;",
"02151099999","2010-05-16T18:00:00","4","66.4833333","20.1666666","275.0","JOKKMOKK FPL, SW","FM-12","99999","V020","999,9,9,9999,9","99999,9,9,N","035000,1,N,1","+0194,1","+0122,1","10157,1",,,,,"120,M,+0207,1","999,N,+0130,1","99999,9,09836,1","7,1,005,1,+999,9","SYN076AAXX  16181 02151 45981 ///// 10194 20122 39836 40157 57005 333 10207 20130;",
"02151099999","2010-05-16T21:00:00","4","66.4833333","20.1666666","275.0","JOKKMOKK FPL, SW","FM-12","99999","V020","999,9,9,9999,9","99999,9,9,N","024000,1,N,1","+0088,1","+0068,1","10174,1",,,"04,1,+03900,1,99,9",,,,"99999,9,09840,1","2,1,005,1,+999,9","SYN070AAXX  16211 02151 45974 ///// 10088 20068 39840 40174 52005 333 84/63;",
"02151099999","2010-05-17T00:00:00","4","66.4833333","20.1666666","275.0","JOKKMOKK FPL, SW","FM-12","99999","V020","999,9,9,9999,9","99999,9,9,N","008000,1,N,1","+0050,1","+0048,1","10181,1","10,1","2,1,06,1","02,1,+03300,1,99,9",,,,"99999,9,09843,1","3,1,002,1,+999,9","SYN076AAXX  17001 02151 47958 ///// 10050 20048 39843 40181 53002 71010 333 82/61;",
"02151099999","2010-05-17T03:00:00","4","66.4833333","20.1666666","275.0","JOKKMOKK FPL, SW","FM-12","99999","V020","999,9,9,9999,9","99999,9,9,N","027000,1,N,1","+0106,1","+0099,1","10181,1",,,"03,1,+02100,1,99,9",,,,"99999,9,09850,1","3,1,007,1,+999,9","SYN070AAXX  17031 02151 45877 ///// 10106 20099 39850 40181 53007 333 83/57;",
"02151099999","2010-05-17T06:00:00","4","66.4833333","20.1666666","275.0","JOKKMOKK FPL, SW","FM-12","99999","V020","999,9,9,9999,9","99999,9,9,N","004500,1,N,1","+0110,1","+0110,1","10183,1","63,1","6,1,06,1","04,1,+01050,1,99,9",,"120,M,+0194,1","999,N,+0044,1","99999,9,09852,1","0,1,002,1,+999,9","SYN094AAXX  17061 02151 47645 ///// 10110 20110 39852 40183 50002 76361 333 10194 20044 84/35 85/50;",
"02151099999","2010-05-17T09:00:00","4","66.4833333","20.1666666","275.0","JOKKMOKK FPL, SW","FM-12","99999","V020","999,9,9,9999,9","99999,9,9,N","040000,1,N,1","+0169,1","+0134,1","10175,1","00,1","8,1,03,1",,,,,"99999,9,09850,1","8,1,001,1,+999,9","SYN066AAXX  17091 02151 47982 ///// 10169 20134 39850 40175 58001 70086;",
"02151099999","2010-05-17T12:00:00","4","66.4833333","20.1666666","275.0","JOKKMOKK FPL, SW","FM-12","99999","V020","999,9,9,9999,9","99999,9,9,N","040000,1,N,1","+0217,1","+0132,1","10157,1","00,1","8,1,06,1","02,1,+01470,1,99,9",,,,"99999,9,09839,1","8,1,012,1,+999,9","SYN076AAXX  17121 02151 47682 ///// 10217 20132 39839 40157 58012 70086 333 82/49;",
"02151099999","2010-05-17T15:00:00","4","66.4833333","20.1666666","275.0","JOKKMOKK FPL, SW","FM-12","99999","V020","999,9,9,9999,9","99999,9,9,N","040000,1,N,1","+0223,1","+0126,1","10152,1",,,"03,1,+01500,1,99,9",,,,"99999,9,09834,1","7,1,005,1,+999,9","SYN070AAXX  17151 02151 45782 ///// 10223 20126 39834 40152 57005 333 83/50;",
"02151099999","2010-05-17T18:00:00","4","66.4833333","20.1666666","275.0","JOKKMOKK FPL, SW","FM-12","99999","V020","999,9,9,9999,9","99999,9,9,N","035000,1,N,1","+0206,1","+0125,1","10160,1",,,"01,1,+01800,1,99,9",,"120,M,+0228,1","999,N,+0100,1","99999,9,09841,1","3,1,006,1,+999,9","SYN082AAXX  17181 02151 45781 ///// 10206 20125 39841 40160 53006 333 10228 20100 81/56;",
"02151099999","2010-05-17T21:00:00","4","66.4833333","20.1666666","275.0","JOKKMOKK FPL, SW","FM-12","99999","V020","999,9,9,9999,9","99999,9,9,N","035000,1,N,1","+0124,1","+0103,1","10181,1",,,"03,1,+01800,1,99,9",,,,"99999,9,09851,1","2,1,011,1,+999,9","SYN070AAXX  17211 02151 45781 ///// 10124 20103 39851 40181 52011 333 83/56;",
"02151099999","2010-05-18T00:00:00","4","66.4833333","20.1666666","275.0","JOKKMOKK FPL, SW","FM-12","99999","V020","999,9,9,9999,9","99999,9,9,N","010000,1,N,1","+0081,1","+0080,1","10197,1","10,1","2,1,06,1",,,,,"99999,9,09862,1","2,1,010,1,+999,9","SYN066AAXX  18001 02151 47960 ///// 10081 20080 39862 40197 52010 71010;",
"02151099999","2010-05-18T03:00:00","4","66.4833333","20.1666666","275.0","JOKKMOKK FPL, SW","FM-12","99999","V020","999,9,9,9999,9","99999,9,9,N","013000,1,N,1","+0091,1","+0091,1","10206,1",,,"02,1,+03300,1,99,9",,,,"99999,9,09872,1","2,1,010,1,+999,9","SYN070AAXX  18031 02151 45963 ///// 10091 20091 39872 40206 52010 333 82/61;",
"02151099999","2010-05-18T06:00:00","4","66.4833333","20.1666666","275.0","JOKKMOKK FPL, SW","FM-12","99999","V020","999,9,9,9999,9","99999,9,9,N","030000,1,N,1","+0144,1","+0121,1","10214,1",,,"01,1,+02400,1,99,9",,"120,M,+0206,1","999,N,+0068,1","99999,9,09886,1","2,1,014,1,+999,9","SYN088AAXX  18061 02151 45880 ///// 10144 20121 39886 40214 52014 333 10206 20068 81/58 85/62;",
"02151099999","2010-05-18T09:00:00","4","66.4833333","20.1666666","275.0","JOKKMOKK FPL, SW","FM-12","99999","V020","999,9,9,9999,9","22000,1,C,N","030000,1,N,1","+0182,1","+0141,1","10222,1",,,"01,1,+00720,1,99,9","04,1,+03600,1,99,9",,,"99999,9,09897,1","2,1,011,1,+999,9","SYN082AAXX  18091 02151 45580 ///// 10182 20141 39897 40222 52011 333 81/24 84/62 85/69;",
"02151099999","2010-05-18T12:00:00","4","66.4833333","20.1666666","275.0","JOKKMOKK FPL, SW","FM-12","99999","V020","999,9,9,9999,9","99999,9,9,N","030000,1,N,1","+0188,1","+0147,1","10228,1","00,1","8,1,06,1","01,1,+01500,1,99,9",,,,"99999,9,09904,1","2,1,007,1,+999,9","SYN082AAXX  18121 02151 47780 ///// 10188 20147 39904 40228 52007 70086 333 81/50 83/62;",
"02151099999","2010-05-18T15:00:00","4","66.4833333","20.1666666","275.0","JOKKMOKK FPL, SW","FM-12","99999","V020","999,9,9,9999,9","99999,9,9,N","035000,1,N,1","+0195,1","+0139,1","10233,1",,,,,,,"99999,9,09910,1","2,1,005,1,+999,9","SYN060AAXX  18151 02151 45981 ///// 10195 20139 39910 40233 52005;",
"02151099999","2010-05-18T18:00:00","4","66.4833333","20.1666666","275.0","JOKKMOKK FPL, SW","FM-12","99999","V020","999,9,9,9999,9","02700,1,C,N","050000,1,N,1","+0152,1","+0111,1","10254,1","00,1","8,1,06,1","07,1,+02700,1,99,9",,,,"99999,9,09926,1",,"SYN070AAXX  18181 02151 47984 ///// 10152 20111 39926 40254 70086 333 87/59;",
"02151099999","2010-05-18T21:00:00","4","66.4833333","20.1666666","275.0","JOKKMOKK FPL, SW","FM-12","99999","V020","999,9,9,9999,9","01170,1,C,N","050000,1,N,1","+0109,1","+0089,1","10278,1",,,"06,1,+01170,1,99,9",,,,"99999,9,09944,1","3,1,018,1,+999,9","SYN076AAXX  18211 02151 45684 ///// 10109 20089 39944 40278 53018 333 86/39 87/50;",
"02151099999","2010-05-19T00:00:00","4","66.4833333","20.1666666","275.0","JOKKMOKK FPL, SW","FM-12","99999","V020","999,9,9,9999,9","02700,1,C,N","050000,1,N,1","+0091,1","+0080,1","10284,1","00,1","8,1,06,1","08,1,+02700,1,99,9",,,,"99999,9,09947,1","2,1,003,1,+999,9","SYN076AAXX  19001 02151 47984 ///// 10091 20080 39947 40284 52003 70086 333 88/59;",
"02151099999","2010-05-19T03:00:00","4","66.4833333","20.1666666","275.0","JOKKMOKK FPL, SW","FM-12","99999","V020","999,9,9,9999,9","99999,9,9,N","040000,1,N,1","+0091,1","+0076,1","10287,1","81,1","8,1,03,1","03,1,+01500,1,99,9",,,,"99999,9,09950,1","2,1,003,1,+999,9","SYN082AAXX  19031 02151 47782 ///// 10091 20076 39950 40287 52003 78186 333 83/50 87/57;",
"02151099999","2010-05-19T06:00:00","4","66.4833333","20.1666666","275.0","JOKKMOKK FPL, SW","FM-12","99999","V020","999,9,9,9999,9","99999,9,9,N","040000,1,N,1","+0108,1","+0088,1","10287,1","00,1","8,1,06,1","01,1,+01800,1,99,9",,"120,M,+0152,1","999,N,+0083,1","99999,9,09953,1","2,1,003,1,+999,9","SYN094AAXX  19061 02151 47782 ///// 10108 20088 39953 40287 52003 70086 333 10152 20083 81/56 85/61;",
"02151099999","2010-05-19T09:00:00","4","66.4833333","20.1666666","275.0","JOKKMOKK FPL, SW","FM-12","99999","V020","999,9,9,9999,9","99999,9,9,N","040000,1,N,1","+0127,1","+0096,1","10290,1",,,"01,1,+01800,1,99,9",,,,"99999,9,09958,1","2,1,005,1,+999,9","SYN076AAXX  19091 02151 45782 ///// 10127 20096 39958 40290 52005 333 81/56 83/61;",
"02151099999","2010-05-19T12:00:00","4","66.4833333","20.1666666","275.0","JOKKMOKK FPL, SW","FM-12","99999","V020","999,9,9,9999,9","03600,1,C,N","050000,1,N,1","+0151,1","+0109,1","10285,1","00,1","8,1,06,1","05,1,+03600,1,99,9",,,,"99999,9,09955,1","8,1,003,1,+999,9","SYN076AAXX  19121 02151 47984 ///// 10151 20109 39955 40285 58003 70086 333 85/62;",
"02151099999","2010-05-19T15:00:00","4","66.4833333","20.1666666","275.0","JOKKMOKK FPL, SW","FM-12","99999","V020","340,1,N,0020,1","03600,1,C,N","035000,1,N,1","+0171,1","+0120,1","10275,1",,,"05,1,+03600,1,99,9",,,,"99999,9,09948,1","7,1,007,1,+999,9","SYN070AAXX  19151 02151 45981 /3402 10171 20120 39948 40275 57007 333 85/62;",
"02151099999","2010-05-19T18:00:00","4","66.4833333","20.1666666","275.0","JOKKMOKK FPL, SW","FM-12","99999","V020","320,1,N,0030,1","03600,1,C,N","050000,1,N,1","+0157,1","+0120,1","10275,1",,,"08,1,+03600,1,99,9",,"120,M,+0180,1","999,N,+0107,1","99999,9,09946,1","7,1,002,1,+999,9","SYN082AAXX  19181 02151 45984 /3203 10157 20120 39946 40275 57002 333 10180 20107 88/62;",
"02151099999","2010-05-19T21:00:00","4","66.4833333","20.1666666","275.0","JOKKMOKK FPL, SW","FM-12","99999","V020","999,9,C,0000,1","99999,9,9,N","050000,1,N,1","+0119,1","+0100,1","10277,1",,,"02,1,+04200,1,99,9",,,,"99999,9,09944,1","7,1,002,1,+999,9","SYN070AAXX  19211 02151 45984 /0000 10119 20100 39944 40277 57002 333 82/64;",
"02151099999","2010-05-20T00:00:00","4","66.4833333","20.1666666","275.0","JOKKMOKK FPL, SW","FM-12","99999","V020","999,9,C,0000,1","99999,9,9,N","018000,1,N,1","+0077,1","+0076,1","10279,1",,,"01,1,+04800,1,99,9",,,,"99999,9,09941,1","7,1,003,1,+999,9","SYN070AAXX  20001 02151 45968 /0000 10077 20076 39941 40279 57003 333 81/66;",
"02151099999","2010-05-20T03:00:00","4","66.4833333","20.1666666","275.0","JOKKMOKK FPL, SW","FM-12","99999","V020","310,1,N,0020,1","99999,9,9,N","040000,1,N,1","+0101,1","+0093,1","10270,1",,,"01,1,+01800,1,99,9",,,,"99999,9,09935,1","7,1,006,1,+999,9","SYN076AAXX  20031 02151 45782 /3102 10101 20093 39935 40270 57006 333 81/56 85/65;",
"02151099999","2010-05-20T06:00:00","4","66.4833333","20.1666666","275.0","JOKKMOKK FPL, SW","FM-12","99999","V020","300,1,N,0010,1","99999,9,9,N","030000,1,N,1","+0138,1","+0108,1","10256,1",,,,,"120,M,+0157,1","999,N,+0064,1","99999,9,09925,1","7,1,010,1,+999,9","SYN076AAXX  20061 02151 45980 /3001 10138 20108 39925 40256 57010 333 10157 20064;",
"02151099999","2010-05-20T09:00:00","4","66.4833333","20.1666666","275.0","JOKKMOKK FPL, SW","FM-12","99999","V020","040,1,N,0010,1","99999,9,9,N","040000,1,N,1","+0192,1","+0119,1","10237,1",,,"03,1,+03600,1,99,9",,,,"99999,9,09914,1","8,1,012,1,+999,9","SYN070AAXX  20091 02151 45982 /0401 10192 20119 39914 40237 58012 333 83/62;",
"02151099999","2010-05-20T12:00:00","4","66.4833333","20.1666666","275.0","JOKKMOKK FPL, SW","FM-12","99999","V020","280,1,N,0030,1","03300,1,C,N","045000,1,N,1","+0210,1","+0105,1","10223,1",,,"05,1,+03300,1,99,9",,,,"99999,9,09902,1","7,1,012,1,+999,9","SYN070AAXX  20121 02151 45983 /2803 10210 20105 39902 40223 57012 333 85/61;",
"02151099999","2010-05-20T15:00:00","4","66.4833333","20.1666666","275.0","JOKKMOKK FPL, SW","FM-12","99999","V020","300,1,N,0040,1","02100,1,C,N","045000,1,N,1","+0154,1","+0117,1","10232,1","61,1","6,1,03,1","08,1,+02100,1,99,9",,,,"99999,9,09904,1","2,1,002,1,+999,9","SYN076AAXX  20151 02151 47883 /3004 10154 20117 39904 40232 52002 76160 333 88/57;",
"02151099999","2010-05-20T18:00:00","4","66.4833333","20.1666666","275.0","JOKKMOKK FPL, SW","FM-12","99999","V020","350,1,N,0030,1","99999,9,9,N","045000,1,N,1","+0149,1","+0124,1","10233,1","00,1","8,1,06,1","02,1,+00570,1,99,9",,"120,M,+0225,1","999,N,+0136,1","99999,9,09904,1","4,1,000,1,+999,9","SYN094AAXX  20181 02151 47483 /3503 10149 20124 39904 40233 54000 70086 333 10225 20136 82/19 86/28;",
"02151099999","2010-05-20T21:00:00","4","66.4833333","20.1666666","275.0","JOKKMOKK FPL, SW","FM-12","99999","V020","330,1,N,0060,1","99999,9,9,N","050000,1,N,1","+0092,1","+0052,1","10257,1",,,,,,,"99999,9,09921,1","3,1,017,1,+999,9","SYN060AAXX  20211 02151 45984 /3306 10092 20052 39921 40257 53017;",
"02151099999","2010-05-21T00:00:00","4","66.4833333","20.1666666","275.0","JOKKMOKK FPL, SW","FM-12","99999","V020","310,1,N,0040,1","99999,9,9,N","050000,1,N,1","+0060,1","+0036,1","10271,1",,,,,,,"99999,9,09932,1","2,1,010,1,+999,9","SYN060AAXX  21001 02151 45984 /3104 10060 20036 39932 40271 52010;",
"02151099999","2010-05-21T03:00:00","4","66.4833333","20.1666666","275.0","JOKKMOKK FPL, SW","FM-12","99999","V020","300,1,N,0020,1","99999,9,9,N","045000,1,N,1","+0060,1","+0023,1","10280,1",,,,,,,"99999,9,09940,1","2,1,008,1,+999,9","SYN060AAXX  21031 02151 45983 /3002 10060 20023 39940 40280 52008;",
"02151099999","2010-05-21T06:00:00","4","66.4833333","20.1666666","275.0","JOKKMOKK FPL, SW","FM-12","99999","V020","300,1,N,0030,1","99999,9,9,N","045000,1,N,1","+0092,1","+0022,1","10278,1",,,,,"120,M,+0149,1","999,N,+0047,1","99999,9,09942,1","2,1,002,1,+999,9","SYN076AAXX  21061 02151 45983 /3003 10092 20022 39942 40278 52002 333 10149 20047;",
"02151099999","2010-05-21T09:00:00","4","66.4833333","20.1666666","275.0","JOKKMOKK FPL, SW","FM-12","99999","V020","340,1,N,0050,1","99999,9,9,N","045000,1,N,1","+0139,1","+0009,1","10270,1",,,,,,,"99999,9,09940,1","8,1,003,1,+999,9","SYN060AAXX  21091 02151 45983 /3405 10139 20009 39940 40270 58003;",
"02151099999","2010-05-21T12:00:00","4","66.4833333","20.1666666","275.0","JOKKMOKK FPL, SW","FM-12","99999","V020","350,1,N,0050,1","99999,9,9,N","023000,1,N,1","+0159,1","+0039,1","10262,1",,,,,,,"99999,9,09934,1","7,1,006,1,+999,9","SYN060AAXX  21121 02151 45973 /3505 10159 20039 39934 40262 57006;",
"02151099999","2010-05-21T15:00:00","4","66.4833333","20.1666666","275.0","JOKKMOKK FPL, SW","FM-12","99999","V020","340,1,N,0040,1","99999,9,9,N","026000,1,N,1","+0150,1","+0039,1","10263,1",,,,,,,"99999,9,09934,1","0,1,000,1,+999,9","SYN060AAXX  21151 02151 45976 /3404 10150 20039 39934 40263 50000;",
"02151099999","2010-05-21T18:00:00","4","66.4833333","20.1666666","275.0","JOKKMOKK FPL, SW","FM-12","99999","V020","010,1,N,0020,1","99999,9,9,N","035000,1,N,1","+0144,1","+0036,1","10263,1",,,,,"120,M,+0165,1","999,N,+0091,1","99999,9,09933,1","5,1,000,1,+999,9","SYN076AAXX  21181 02151 45981 /0102 10144 20036 39933 40263 55000 333 10165 20091;",
"02151099999","2010-05-21T21:00:00","4","66.4833333","20.1666666","275.0","JOKKMOKK FPL, SW","FM-12","99999","V020","360,1,N,0010,1","99999,9,9,N","019000,1,N,1","+0076,1","+0028,1","10279,1",,,,,,,"99999,9,09941,1","2,1,007,1,+999,9","SYN060AAXX  21211 02151 45969 /3601 10076 20028 39941 40279 52007;",
"02151099999","2010-05-22T00:00:00","4","66.4833333","20.1666666","275.0","JOKKMOKK FPL, SW","FM-12","99999","V020","999,9,C,0000,1","99999,9,9,N","010000,1,N,1","+0015,1","+0010,1","10285,1",,,,,,,"99999,9,09940,1","7,1,001,1,+999,9","SYN060AAXX  22001 02151 45960 /0000 10015 20010 39940 40285 57001;",
"02151099999","2010-05-22T03:00:00","4","66.4833333","20.1666666","275.0","JOKKMOKK FPL, SW","FM-12","99999","V020","999,9,C,0000,1","99999,9,9,N","015000,1,N,1","+0045,1","+0031,1","10273,1",,,,,,,"99999,9,09931,1","7,1,009,1,+999,9","SYN060AAXX  22031 02151 45965 /0000 10045 20031 39931 40273 57009;",
"02151099999","2010-05-22T06:00:00","4","66.4833333","20.1666666","275.0","JOKKMOKK FPL, SW","FM-12","99999","V020","140,1,N,0020,1","01500,1,C,N","030000,1,N,1","+0104,1","+0050,1","10245,1",,,"06,1,+01500,1,99,9",,"120,M,+0144,1","999,N,+0011,1","99999,9,09911,1","7,1,020,1,+999,9","SYN082AAXX  22061 02151 45780 /1402 10104 20050 39911 40245 57020 333 10144 20011 86/50;",
"02151099999","2010-05-22T09:00:00","4","66.4833333","20.1666666","275.0","JOKKMOKK FPL, SW","FM-12","99999","V020","140,1,N,0040,1","03900,1,C,N","035000,1,N,1","+0133,1","+0047,1","10216,1",,,"08,1,+03900,1,99,9",,,,"99999,9,09887,1","7,1,024,1,+999,9","SYN070AAXX  22091 02151 45981 /1404 10133 20047 39887 40216 57024 333 88/63;",
"02151099999","2010-05-22T12:00:00","4","66.4833333","20.1666666","275.0","JOKKMOKK FPL, SW","FM-12","99999","V020","160,1,N,0040,1","99999,9,9,N","040000,1,N,1","+0156,1","+0055,1","10183,1",,,"01,1,+01500,1,99,9",,,,"99999,9,09857,1","7,1,029,1,+999,9","SYN076AAXX  22121 02151 45782 /1604 10156 20055 39857 40183 57029 333 81/50 86/62;",
"02151099999","2010-05-22T15:00:00","4","66.4833333","20.1666666","275.0","JOKKMOKK FPL, SW","FM-12","99999","V020","250,1,N,0030,1","02700,1,C,N","040000,1,N,1","+0161,1","+0035,1","10156,1",,,"05,1,+02700,1,99,9",,,,"99999,9,09831,1","7,1,026,1,+999,9","SYN070AAXX  22151 02151 45982 /2503 10161 20035 39831 40156 57026 333 85/59;",
"02151099999","2010-05-22T18:00:00","4","66.4833333","20.1666666","275.0","JOKKMOKK FPL, SW","FM-12","99999","V020","230,1,N,0020,1","99999,9,9,N","019000,1,N,1","+0105,1","+0081,1","10147,1","82,1","8,1,06,1","01,1,+00480,1,99,9",,"120,M,+0181,1","999,N,+0103,1","99999,9,09817,1","8,1,015,1,+999,9","SYN094AAXX  22181 02151 47469 /2302 10105 20081 39817 40147 58015 78286 333 10181 20103 81/16 86/50;",
"02151099999","2010-05-22T21:00:00","4","66.4833333","20.1666666","275.0","JOKKMOKK FPL, SW","FM-12","99999","V020","270,1,N,0020,1","99999,9,9,N","050000,1,N,1","+0098,1","+0052,1","10132,1","00,1","8,1,03,1","03,1,+01800,1,99,9",,,,"99999,9,09801,1","7,1,015,1,+999,9","SYN076AAXX  22211 02151 47784 /2702 10098 20052 39801 40132 57015 70082 333 83/56;",
"02151099999","2010-05-23T00:00:00","4","66.4833333","20.1666666","275.0","JOKKMOKK FPL, SW","FM-12","99999","V020","300,1,N,0030,1","99999,9,9,N","050000,1,N,1","+0064,1","+0036,1","10120,1","00,1","8,1,06,1",,,,,"99999,9,09785,1","7,1,016,1,+999,9","SYN066AAXX  23001 02151 47984 /3003 10064 20036 39785 40120 57016 70082;",
"02151099999","2010-05-23T03:00:00","4","66.4833333","20.1666666","275.0","JOKKMOKK FPL, SW","FM-12","99999","V020","340,1,N,0010,1","01500,1,C,N","050000,1,N,1","+0049,1","+0028,1","10112,1",,,"08,1,+01500,1,99,9",,,,"99999,9,09777,1","7,1,008,1,+999,9","SYN070AAXX  23031 02151 45784 /3401 10049 20028 39777 40112 57008 333 88/50;",
"02151099999","2010-05-23T06:00:00","4","66.4833333","20.1666666","275.0","JOKKMOKK FPL, SW","FM-12","99999","V020","310,1,N,0040,1","01500,1,C,N","050000,1,N,1","+0085,1","+0035,1","10094,1",,,"07,1,+01500,1,99,9",,"120,M,+0113,1","999,N,+0045,1","99999,9,09763,1","7,1,014,1,+999,9","SYN082AAXX  23061 02151 45784 /3104 10085 20035 39763 40094 57014 333 10113 20045 87/50;",
"02151099999","2010-05-23T09:00:00","4","66.4833333","20.1666666","275.0","JOKKMOKK FPL, SW","FM-12","99999","V020","320,1,N,0020,1","01230,1,C,N","050000,1,N,1","+0107,1","+0035,1","10081,1","00,1","8,1,03,1","06,1,+01230,1,99,9","07,1,+01500,1,99,9",,,"99999,9,09753,1","8,1,010,1,+999,9","SYN088AAXX  23091 02151 47684 /3202 10107 20035 39753 40081 58010 70086 333 86/41 87/50 88/56;",
"02151099999","2010-05-23T12:00:00","4","66.4833333","20.1666666","275.0","JOKKMOKK FPL, SW","FM-12","99999","V020","020,1,N,0030,1","99999,9,9,N","045000,1,N,1","+0119,1","+0029,1","10066,1","81,1","8,1,06,1","03,1,+01500,1,99,9",,,,"99999,9,09740,1","7,1,013,1,+999,9","SYN082AAXX  23121 02151 47783 /0203 10119 20029 39740 40066 57013 78186 333 83/50 85/57;",
"02151099999","2010-05-23T15:00:00","4","66.4833333","20.1666666","275.0","JOKKMOKK FPL, SW","FM-12","99999","V020","330,1,N,0040,1","02100,1,C,N","045000,1,N,1","+0141,1","+0006,1","10044,1","00,1","8,1,03,1","06,1,+02100,1,99,9",,,,"99999,9,09721,1","7,1,018,1,+999,9","SYN076AAXX  23151 02151 47883 /3304 10141 20006 39721 40044 57018 70082 333 86/57;",
"02151099999","2010-05-23T18:00:00","4","66.4833333","20.1666666","275.0","JOKKMOKK FPL, SW","FM-12","99999","V020","160,1,N,0040,1","00720,1,C,N","010000,1,N,1","+0090,1","+0052,1","10045,1","62,1","8,1,06,1","09,1,+00720,1,99,9",,"120,M,+0145,1","999,N,+0084,1","99999,9,09716,1","5,1,005,1,+999,9","SYN088AAXX  23181 02151 47/60 /1604 10090 20052 39716 40045 55005 76286 333 10145 20084 89/24;",
"02151099999","2010-05-23T21:00:00","4","66.4833333","20.1666666","275.0","JOKKMOKK FPL, SW","FM-12","99999","V020","999,9,C,0000,1","99999,9,9,N","045000,1,N,1","+0065,1","+0062,1","10051,1","61,1","6,1,03,1","01,1,+00900,1,99,9",,,,"99999,9,09719,1","0,1,003,1,+999,9","SYN082AAXX  23211 02151 47583 /0000 10065 20062 39719 40051 50003 76165 333 81/30 83/39;",
"02151099999","2010-05-24T00:00:00","4","66.4833333","20.1666666","275.0","JOKKMOKK FPL, SW","FM-12","99999","V020","300,1,N,0030,1","00630,1,C,N","021000,1,N,1","+0041,1","+0034,1","10047,1","61,1","8,1,06,1","08,1,+00630,1,99,9",,,,"99999,9,09712,1","7,1,007,1,+999,9","SYN076AAXX  24001 02151 47571 /3003 10041 20034 39712 40047 57007 76186 333 88/21;",
"02151099999","2010-05-24T03:00:00","4","66.4833333","20.1666666","275.0","JOKKMOKK FPL, SW","FM-12","99999","V020","320,1,N,0040,1","99999,9,9,N","030000,1,N,1","+0034,1","+0031,1","10039,1","61,1","6,1,03,1","04,1,+00660,1,99,9",,,,"99999,9,09704,1","7,1,008,1,+999,9","SYN082AAXX  24031 02151 47580 /3204 10034 20031 39704 40039 57008 76165 333 84/22 87/28;",
"02151099999","2010-05-24T06:00:00","4","66.4833333","20.1666666","275.0","JOKKMOKK FPL, SW","FM-12","99999","V020","320,1,N,0040,1","00180,1,C,N","030000,1,N,1","+0034,1","+0032,1","10030,1","61,1","6,1,06,1","08,1,+00180,1,99,9",,"120,M,+0093,1","999,N,+0027,1","99999,9,09696,1","7,1,008,1,+999,9","SYN088AAXX  24061 02151 47280 /3204 10034 20032 39696 40030 57008 76165 333 10093 20027 88/06;",
"02151099999","2010-05-24T09:00:00","4","66.4833333","20.1666666","275.0","JOKKMOKK FPL, SW","FM-12","99999","V020","350,1,N,0030,1","00210,1,C,N","006000,1,N,1","+0051,1","+0049,1","10022,1","52,1","6,1,03,1","07,1,+00210,1,99,9",,,,"99999,9,09689,1","7,1,006,1,+999,9","SYN082AAXX  24091 02151 47356 /3503 10051 20049 39689 40022 57006 75265 333 87/07 88/10;",
"02151099999","2010-05-24T12:00:00","4","66.4833333","20.1666666","275.0","JOKKMOKK FPL, SW","FM-12","99999","V020","360,1,N,0030,1","99999,9,9,N","014000,1,N,1","+0052,1","+0044,1","10016,1","61,1","6,1,06,1","04,1,+00390,1,99,9",,,,"99999,9,09684,1","7,1,005,1,+999,9","SYN082AAXX  24121 02151 47464 /3603 10052 20044 39684 40016 57005 76165 333 84/13 87/21;",
"02151099999","2010-05-24T15:00:00","4","66.4833333","20.1666666","275.0","JOKKMOKK FPL, SW","FM-12","99999","V020","350,1,N,0020,1","99999,9,9,N","050000,1,N,1","+0060,1","+0054,1","10005,1","22,1","8,1,03,1","01,1,+00390,1,99,9",,,,"99999,9,09674,1","6,1,010,1,+999,9","SYN082AAXX  24151 02151 47484 /3502 10060 20054 39674 40005 56010 72286 333 81/13 88/26;",
"02151099999","2010-05-24T18:00:00","4","66.4833333","20.1666666","275.0","JOKKMOKK FPL, SW","FM-12","99999","V020","340,1,N,0020,1","00660,1,C,N","050000,1,N,1","+0058,1","+0047,1","09995,1","00,1","8,1,06,1","08,1,+00660,1,99,9",,"120,M,+0062,1","999,N,+0034,1","99999,9,09664,1","7,1,010,1,+999,9","SYN088AAXX  24181 02151 47584 /3402 10058 20047 39664 49995 57010 70086 333 10062 20034 88/22;",
"02151099999","2010-05-24T21:00:00","4","66.4833333","20.1666666","275.0","JOKKMOKK FPL, SW","FM-12","99999","V020","350,1,N,0040,1","00510,1,C,N","040000,1,N,1","+0046,1","+0038,1","09985,1","61,1","6,1,03,1","06,1,+00510,1,99,9","07,1,+00810,1,99,9",,,"99999,9,09653,1","7,1,011,1,+999,9","SYN088AAXX  24211 02151 47482 /3504 10046 20038 39653 49985 57011 76165 333 86/17 87/27 88/33;",
"02151099999","2010-05-25T00:00:00","4","66.4833333","20.1666666","275.0","JOKKMOKK FPL, SW","FM-12","99999","V020","310,1,N,0050,1","00270,1,C,N","004000,1,N,1","+0030,1","+0028,1","09969,1","62,1","6,1,06,1","08,1,+00270,1,99,9",,,,"99999,9,09635,1","6,1,018,1,+999,9","SYN076AAXX  25001 02151 47340 /3105 10030 20028 39635 49969 56018 76265 333 88/09;",
"02151099999","2010-05-25T03:00:00","4","66.4833333","20.1666666","275.0","JOKKMOKK FPL, SW","FM-12","99999","V020","300,1,N,0030,1","00150,1,C,N","002500,1,N,1","+0034,1","+0034,1","09957,1","53,1","6,1,03,1","07,1,+00150,1,99,9",,,,"99999,9,09624,1","7,1,011,1,+999,9","SYN082AAXX  25031 02151 47225 /3003 10034 20034 39624 49957 57011 75365 333 87/05 88/07;",
"02151099999","2010-05-25T06:00:00","4","66.4833333","20.1666666","275.0","JOKKMOKK FPL, SW","FM-12","99999","V020","290,1,N,0030,1","99999,9,9,N","009000,1,N,1","+0053,1","+0053,1","09952,1","61,1","6,1,06,1","01,1,+00090,1,99,9",,"120,M,+0061,1","999,N,+0030,1","99999,9,09622,1","7,1,002,1,+999,9","SYN094AAXX  25061 02151 47259 /2903 10053 20053 39622 49952 57002 76165 333 10061 20030 81/03 88/05;",
"02151099999","2010-05-25T09:00:00","4","66.4833333","20.1666666","275.0","JOKKMOKK FPL, SW","FM-12","99999","V020","060,1,N,0030,1","00300,1,C,N","011000,1,N,1","+0081,1","+0081,1","09958,1","62,1","6,1,03,1","03,1,+00210,1,99,9","07,1,+00300,1,99,9",,,"99999,9,09631,1","2,1,009,1,+999,9","SYN088AAXX  25091 02151 47361 /0603 10081 20081 39631 49958 52009 76266 333 83/07 87/10 88/13;",
"02151099999","2010-05-25T12:00:00","4","66.4833333","20.1666666","275.0","JOKKMOKK FPL, SW","FM-12","99999","V020","060,1,N,0030,1","00210,1,C,N","021000,1,N,1","+0089,1","+0087,1","09967,1","61,1","6,1,06,1","06,1,+00210,1,99,9","07,1,+00330,1,99,9",,,"99999,9,09641,1","2,1,010,1,+999,9","SYN088AAXX  25121 02151 47371 /0603 10089 20087 39641 49967 52010 76166 333 86/07 87/11 88/14;",
"02151099999","2010-05-25T15:00:00","4","66.4833333","20.1666666","275.0","JOKKMOKK FPL, SW","FM-12","99999","V020","060,1,N,0020,1","00540,1,C,N","040000,1,N,1","+0097,1","+0090,1","09983,1","81,1","8,1,03,1","06,1,+00540,1,99,9","07,1,+00780,1,99,9",,,"99999,9,09657,1","2,1,016,1,+999,9","SYN088AAXX  25151 02151 47482 /0602 10097 20090 39657 49983 52016 78186 333 86/18 87/26 88/39;",
"02151099999","2010-05-25T18:00:00","4","66.4833333","20.1666666","275.0","JOKKMOKK FPL, SW","FM-12","99999","V020","020,1,N,0010,1","00630,1,C,N","009000,1,N,1","+0083,1","+0083,1","09994,1","62,1","8,1,06,1","04,1,+00480,1,99,9","06,1,+00630,1,99,9","120,M,+0101,1","999,N,+0053,1","99999,9,09666,1","2,1,009,1,+999,9","SYN100AAXX  25181 02151 47459 /0201 10083 20083 39666 49994 52009 76286 333 10101 20053 84/16 86/21 87/28;",
"02151099999","2010-05-25T21:00:00","4","66.4833333","20.1666666","275.0","JOKKMOKK FPL, SW","FM-12","99999","V020","080,1,N,0020,1","00360,1,C,N","050000,1,N,1","+0091,1","+0090,1","10009,1","00,1","6,1,03,1","08,1,+00360,1,99,9",,,,"99999,9,09682,1","3,1,016,1,+999,9","SYN076AAXX  25211 02151 47484 /0802 10091 20090 39682 40009 53016 70062 333 88/12;",
"02151099999","2010-05-26T00:00:00","4","66.4833333","20.1666666","275.0","JOKKMOKK FPL, SW","FM-12","99999","V020","070,1,N,0020,1","99999,9,9,N","028000,1,N,1","+0089,1","+0087,1","10024,1","81,1","8,1,06,1","04,1,+00330,1,99,9",,,,"99999,9,09696,1","2,1,014,1,+999,9","SYN082AAXX  26001 02151 47478 /0702 10089 20087 39696 40024 52014 78186 333 84/11 88/16;",
"02151099999","2010-05-26T03:00:00","4","66.4833333","20.1666666","275.0","JOKKMOKK FPL, SW","FM-12","99999","V020","070,1,N,0020,1","00150,1,C,N","004500,1,N,1","+0082,1","+0082,1","10041,1","80,1","8,1,03,1","08,1,+00150,1,99,9",,,,"99999,9,09711,1","2,1,015,1,+999,9","SYN076AAXX  26031 02151 47245 /0702 10082 20082 39711 40041 52015 78082 333 88/05;",
"02151099999","2010-05-26T06:00:00","4","66.4833333","20.1666666","275.0","JOKKMOKK FPL, SW","FM-12","99999","V020","060,1,N,0040,1","99999,9,9,N","035000,1,N,1","+0069,1","+0067,1","10064,1","00,1","8,1,06,1","03,1,+00150,1,99,9",,"120,M,+0095,1","999,N,+0069,1","99999,9,09732,1","3,1,021,1,+999,9","SYN094AAXX  26061 02151 47281 /0604 10069 20067 39732 40064 53021 70086 333 10095 20069 83/05 88/08;",
"02151099999","2010-05-26T09:00:00","4","66.4833333","20.1666666","275.0","JOKKMOKK FPL, SW","FM-12","99999","V020","030,1,N,0040,1","00210,1,C,N","011000,1,N,1","+0046,1","+0045,1","10096,1",,,"08,1,+00210,1,99,9",,,,"99999,9,09760,1","3,1,028,1,+999,9","SYN070AAXX  26091 02151 45361 /0304 10046 20045 39760 40096 53028 333 88/07;",
"02151099999","2010-05-26T12:00:00","4","66.4833333","20.1666666","275.0","JOKKMOKK FPL, SW","FM-12","99999","V020","040,1,N,0030,1","00240,1,C,N","006000,1,N,1","+0033,1","+0030,1","10122,1","61,1","8,1,06,1","06,1,+00240,1,99,9",,,,"99999,9,09784,1","2,1,023,1,+999,9","SYN082AAXX  26121 02151 47356 /0403 10033 20030 39784 40122 52023 76186 333 86/08 88/11;",
"02151099999","2010-05-26T15:00:00","4","66.4833333","20.1666666","275.0","JOKKMOKK FPL, SW","FM-12","99999","V020","340,1,N,0030,1","99999,9,9,N","008000,1,N,1","+0038,1","+0035,1","10127,1","61,1","6,1,03,1","01,1,+00270,1,99,9",,,,"99999,9,09789,1","1,1,006,1,+999,9","SYN082AAXX  26151 02151 47358 /3403 10038 20035 39789 40127 51006 76165 333 81/09 88/13;",
"02151099999","2010-05-26T18:00:00","4","66.4833333","20.1666666","275.0","JOKKMOKK FPL, SW","FM-12","99999","V020","320,1,N,0030,1","01470,1,C,N","013000,1,N,1","+0058,1","+0052,1","10127,1","81,1","8,1,06,1","08,1,+01470,1,99,9",,"120,M,+0069,1","999,N,+0032,1","99999,9,09791,1","2,1,002,1,+999,9","SYN088AAXX  26181 02151 47663 /3203 10058 20052 39791 40127 52002 78186 333 10069 20032 88/49;",
"02151099999","2010-05-26T21:00:00","4","66.4833333","20.1666666","275.0","JOKKMOKK FPL, SW","FM-12","99999","V020","310,1,N,0030,1","99999,9,9,N","016000,1,N,1","+0057,1","+0046,1","10133,1","00,1","8,1,03,1","03,1,+01800,1,99,9",,,,"99999,9,09798,1","2,1,006,1,+999,9","SYN076AAXX  26211 02151 47766 /3103 10057 20046 39798 40133 52006 70082 333 83/56;",
"02151099999","2010-05-27T00:00:00","4","66.4833333","20.1666666","275.0","JOKKMOKK FPL, SW","FM-12","99999","V020","360,1,N,0020,1","01800,1,C,N","026000,1,N,1","+0067,1","+0040,1","10135,1","00,1","8,1,06,1","07,1,+01800,1,99,9",,,,"99999,9,09801,1","2,1,003,1,+999,9","SYN082AAXX  27001 02151 47776 /3602 10067 20040 39801 40135 52003 70082 333 87/56 88/57;",
"02151099999","2010-05-27T03:00:00","4","66.4833333","20.1666666","275.0","JOKKMOKK FPL, SW","FM-12","99999","V020","060,1,N,0020,1","02100,1,C,N","029000,1,N,1","+0060,1","+0025,1","10141,1",,,"08,1,+02100,1,99,9",,,,"99999,9,09806,1","2,1,005,1,+999,9","SYN070AAXX  27031 02151 45879 /0602 10060 20025 39806 40141 52005 333 88/57;",
"02151099999","2010-05-27T06:00:00","4","66.4833333","20.1666666","275.0","JOKKMOKK FPL, SW","FM-12","99999","V020","070,1,N,0020,1","99999,9,9,N","035000,1,N,1","+0076,1","+0025,1","10138,1",,,,,"120,M,+0078,1","999,N,+0052,1","99999,9,09805,1","4,1,000,1,+999,9","SYN076AAXX  27061 02151 45981 /0702 10076 20025 39805 40138 54001 333 10078 20052;",
"02151099999","2010-05-27T09:00:00","4","66.4833333","20.1666666","275.0","JOKKMOKK FPL, SW","FM-12","99999","V020","050,1,N,0030,1","99999,9,9,N","045000,1,N,1","+0100,1","+0027,1","10135,1",,,"02,1,+01110,1,99,9",,,,"99999,9,09805,1","4,1,000,1,+999,9","SYN076AAXX  27091 02151 45683 /0503 10100 20027 39805 40135 54000 333 82/37 83/69;",
"02151099999","2010-05-27T12:00:00","4","66.4833333","20.1666666","275.0","JOKKMOKK FPL, SW","FM-12","99999","V020","070,1,N,0030,1","99999,9,9,N","045000,1,N,1","+0103,1","+0022,1","10132,1",,,"01,1,+01230,1,99,9",,,,"99999,9,09802,1","7,1,003,1,+999,9","SYN070AAXX  27121 02151 45683 /0703 10103 20022 39802 40132 57003 333 81/41;",
"02151099999","2010-05-27T15:00:00","4","66.4833333","20.1666666","275.0","JOKKMOKK FPL, SW","FM-12","99999","V020","050,1,N,0030,1","99999,9,9,N","045000,1,N,1","+0116,1","+0025,1","10123,1",,,,,,,"99999,9,09794,1","6,1,007,1,+999,9","SYN060AAXX  27151 02151 45983 /0503 10116 20025 39794 40123 56007;",
"02151099999","2010-05-27T18:00:00","4","66.4833333","20.1666666","275.0","JOKKMOKK FPL, SW","FM-12","99999","V020","050,1,N,0020,1","99999,9,9,N","045000,1,N,1","+0118,1","+0021,1","10119,1",,,,,"120,M,+0126,1","999,N,+0073,1","99999,9,09791,1","7,1,003,1,+999,9","SYN076AAXX  27181 02151 45983 /0502 10118 20021 39791 40119 57003 333 10126 20073;",
"02151099999","2010-05-27T21:00:00","4","66.4833333","20.1666666","275.0","JOKKMOKK FPL, SW","FM-12","99999","V020","050,1,N,0020,1","99999,9,9,N","050000,1,N,1","+0081,1","+0021,1","10129,1",,,,,,,"99999,9,09797,1","2,1,005,1,+999,9","SYN060AAXX  27211 02151 45984 /0502 10081 20021 39797 40129 52005;",
"02151099999","2010-05-28T00:00:00","4","66.4833333","20.1666666","275.0","JOKKMOKK FPL, SW","FM-12","99999","V020","310,1,N,0010,1","99999,9,9,N","040000,1,N,1","+0012,1","+0005,1","10141,1",,,"02,1,+01500,1,99,9",,,,"99999,9,09800,1","2,1,003,1,+999,9","SYN076AAXX  28001 02151 45782 /3101 10012 20005 39800 40141 52003 333 82/50 84/59;",
"02151099999","2010-05-28T03:00:00","4","66.4833333","20.1666666","275.0","JOKKMOKK FPL, SW","FM-12","99999","V020","999,9,C,0000,1","99999,9,9,N","045000,1,N,1","+0060,1","+0027,1","10133,1",,,,,,,"99999,9,09798,1","7,1,003,1,+999,9","SYN060AAXX  28031 02151 45983 /0000 10060 20027 39798 40133 57003;",
"02151099999","2010-05-28T06:00:00","4","66.4833333","20.1666666","275.0","JOKKMOKK FPL, SW","FM-12","99999","V020","090,1,N,0020,1","99999,9,9,N","045000,1,N,1","+0098,1","+0016,1","10125,1",,,,,"120,M,+0119,1","999,N,+0002,1","99999,9,09794,1","7,1,004,1,+999,9","SYN076AAXX  28061 02151 45983 /0902 10098 20016 39794 40125 57004 333 10119 20002;",
"02151099999","2010-05-28T09:00:00","4","66.4833333","20.1666666","275.0","JOKKMOKK FPL, SW","FM-12","99999","V020","120,1,N,0040,1","99999,9,9,N","040000,1,N,1","+0113,1","+0050,1","10122,1",,,"03,1,+01020,1,99,9",,,,"99999,9,09793,1","4,1,000,1,+999,9","SYN076AAXX  28091 02151 45682 /1204 10113 20050 39793 40122 54001 333 83/34 86/44;",
"02151099999","2010-05-28T12:00:00","4","66.4833333","20.1666666","275.0","JOKKMOKK FPL, SW","FM-12","99999","V020","120,1,N,0040,1","99999,9,9,N","040000,1,N,1","+0132,1","+0036,1","10113,1",,,"01,1,+01500,1,99,9",,,,"99999,9,09786,1","7,1,007,1,+999,9","SYN076AAXX  28121 02151 45782 /1204 10132 20036 39786 40113 57007 333 81/50 83/59;",
"02151099999","2010-05-28T15:00:00","4","66.4833333","20.1666666","275.0","JOKKMOKK FPL, SW","FM-12","99999","V020","110,1,N,0030,1","02100,1,C,N","050000,1,N,1","+0129,1","+0034,1","10106,1",,,"01,1,+01500,1,99,9","06,1,+02100,1,99,9",,,"99999,9,09779,1","7,1,007,1,+999,9","SYN082AAXX  28151 02151 45784 /1103 10129 20034 39779 40106 57007 333 81/50 86/57 87/59;",
"02151099999","2010-05-28T18:00:00","4","66.4833333","20.1666666","275.0","JOKKMOKK FPL, SW","FM-12","99999","V020","090,1,N,0010,1","99999,9,9,N","050000,1,N,1","+0113,1","+0045,1","10107,1",,,"04,1,+01800,1,99,9",,"120,M,+0135,1","999,N,+0096,1","99999,9,09779,1","4,1,000,1,+999,9","SYN088AAXX  28181 02151 45784 /0901 10113 20045 39779 40107 54001 333 10135 20096 84/56 88/59;",
"02151099999","2010-05-28T21:00:00","4","66.4833333","20.1666666","275.0","JOKKMOKK FPL, SW","FM-12","99999","V020","090,1,N,0010,1","99999,9,9,N","050000,1,N,1","+0095,1","+0045,1","10108,1",,,"04,1,+02100,1,99,9",,,,"99999,9,09777,1","7,1,001,1,+999,9","SYN076AAXX  28211 02151 45884 /0901 10095 20045 39777 40108 57001 333 84/57 88/59;",
"02151099999","2010-05-29T00:00:00","4","66.4833333","20.1666666","275.0","JOKKMOKK FPL, SW","FM-12","99999","V020","999,9,C,0000,1","02400,1,C,N","035000,1,N,1","+0056,1","+0051,1","10106,1",,,"08,1,+02400,1,99,9",,,,"99999,9,09771,1","7,1,006,1,+999,9","SYN070AAXX  29001 02151 45981 /0000 10056 20051 39771 40106 57006 333 88/58;",
"02151099999","2010-05-29T03:00:00","4","66.4833333","20.1666666","275.0","JOKKMOKK FPL, SW","FM-12","99999","V020","999,9,C,0000,1","99999,9,9,N","027000,1,N,1","+0056,1","+0052,1","10099,1",,,"04,1,+01800,1,99,9",,,,"99999,9,09764,1","7,1,007,1,+999,9","SYN076AAXX  29031 02151 45777 /0000 10056 20052 39764 40099 57007 333 84/56 88/58;",
"02151099999","2010-05-29T06:00:00","4","66.4833333","20.1666666","275.0","JOKKMOKK FPL, SW","FM-12","99999","V020","010,1,N,0010,1","02700,1,C,N","050000,1,N,1","+0092,1","+0037,1","10092,1",,,"08,1,+02700,1,99,9",,"120,M,+0113,1","999,N,+0051,1","99999,9,09761,1","7,1,002,1,+999,9","SYN082AAXX  29061 02151 45984 /0101 10092 20037 39761 40092 57002 333 10113 20051 88/59;",
"02151099999","2010-05-29T09:00:00","4","66.4833333","20.1666666","275.0","JOKKMOKK FPL, SW","FM-12","99999","V020","060,1,N,0020,1","99999,9,9,N","045000,1,N,1","+0121,1","-0008,1","10079,1",,,"01,1,+01800,1,99,9",,,,"99999,9,09752,1","7,1,009,1,+999,9","SYN076AAXX  29091 02151 45883 /0602 10121 21008 39752 40079 57009 333 81/56 87/58;",
"02151099999","2010-05-29T12:00:00","4","66.4833333","20.1666666","275.0","JOKKMOKK FPL, SW","FM-12","99999","V020","150,1,N,0020,1","02400,1,C,N","045000,1,N,1","+0120,1","+0027,1","10076,1",,,"07,1,+02400,1,99,9",,,,"99999,9,09749,1","7,1,003,1,+999,9","SYN070AAXX  29121 02151 45983 /1502 10120 20027 39749 40076 57003 333 87/58;",
"02151099999","2010-05-29T15:00:00","4","66.4833333","20.1666666","275.0","JOKKMOKK FPL, SW","FM-12","99999","V020","170,1,N,0020,1","02400,1,C,N","045000,1,N,1","+0116,1","+0020,1","10072,1","00,1","8,1,03,1","05,1,+02400,1,99,9",,,,"99999,9,09745,1","8,1,004,1,+999,9","SYN076AAXX  29151 02151 47983 /1702 10116 20020 39745 40072 58004 70086 333 85/58;",
"02151099999","2010-05-29T18:00:00","4","66.4833333","20.1666666","275.0","JOKKMOKK FPL, SW","FM-12","99999","V020","170,1,N,0020,1","99999,9,9,N","035000,1,N,1","+0108,1","+0028,1","10072,1","00,1","8,1,06,1","02,1,+00960,1,99,9",,"120,M,+0133,1","999,N,+0092,1","99999,9,09745,1","5,1,001,1,+999,9","SYN088AAXX  29181 02151 47581 /1702 10108 20028 39745 40072 55001 70086 333 10133 20092 82/32;",
"02151099999","2010-05-29T21:00:00","4","66.4833333","20.1666666","275.0","JOKKMOKK FPL, SW","FM-12","99999","V020","190,1,N,0020,1","01800,1,C,N","050000,1,N,1","+0086,1","+0038,1","10073,1","23,1","8,1,03,1","05,1,+01800,1,99,9",,,,"99999,9,09743,1","7,1,002,1,+999,9","SYN076AAXX  29211 02151 47784 /1902 10086 20038 39743 40073 57002 72386 333 85/56;",
"02151099999","2010-05-30T00:00:00","4","66.4833333","20.1666666","275.0","JOKKMOKK FPL, SW","FM-12","99999","V020","220,1,N,0010,1","03000,1,C,N","035000,1,N,1","+0047,1","+0023,1","10072,1","00,1","8,1,06,1","08,1,+03000,1,99,9",,,,"99999,9,09737,1","7,1,006,1,+999,9","SYN076AAXX  30001 02151 47981 /2201 10047 20023 39737 40072 57006 70086 333 88/60;",
"02151099999","2010-05-30T03:00:00","4","66.4833333","20.1666666","275.0","JOKKMOKK FPL, SW","FM-12","99999","V020","360,1,N,0010,1","02700,1,C,N","040000,1,N,1","+0064,1","+0044,1","10070,1",,,"07,1,+02700,1,99,9",,,,"99999,9,09737,1","4,1,000,1,+999,9","SYN076AAXX  30031 02151 45982 /3601 10064 20044 39737 40070 54000 333 87/59 88/61;",
"02151099999","2010-05-30T06:00:00","4","66.4833333","20.1666666","275.0","JOKKMOKK FPL, SW","FM-12","99999","V020","330,1,N,0040,1","02700,1,C,N","045000,1,N,1","+0095,1","+0053,1","10069,1","00,1","8,1,06,1","08,1,+02700,1,99,9",,"120,M,+0109,1","999,N,+0028,1","99999,9,09740,1","3,1,003,1,+999,9","SYN088AAXX  30061 02151 47983 /3304 10095 20053 39740 40069 53003 70086 333 10109 20028 88/59;",
"02151099999","2010-05-30T09:00:00","4","66.4833333","20.1666666","275.0","JOKKMOKK FPL, SW","FM-12","99999","V020","320,1,N,0020,1","03300,1,C,N","035000,1,N,1","+0125,1","+0036,1","10066,1",,,"08,1,+03300,1,99,9",,,,"99999,9,09741,1","4,1,000,1,+999,9","SYN070AAXX  30091 02151 45981 /3202 10125 20036 39741 40066 54001 333 88/61;",
"02151099999","2010-05-30T12:00:00","4","66.4833333","20.1666666","275.0","JOKKMOKK FPL, SW","FM-12","99999","V020","070,1,N,0010,1","02100,1,C,N","040000,1,N,1","+0137,1","+0014,1","10067,1","61,1","6,1,06,1","05,1,+02100,1,99,9",,,,"99999,9,09742,1","2,1,001,1,+999,9","SYN076AAXX  30121 02151 47882 /0701 10137 20014 39742 40067 52001 76160 333 85/57;",
"02151099999","2010-05-30T15:00:00","4","66.4833333","20.1666666","275.0","JOKKMOKK FPL, SW","FM-12","99999","V020","300,1,N,0040,1","99999,9,9,N","035000,1,N,1","+0151,1","+0037,1","10064,1","00,1","8,1,03,1","02,1,+03600,1,99,9",,,,"99999,9,09742,1","0,1,001,1,+999,9","SYN076AAXX  30151 02151 47981 /3004 10151 20037 39742 40064 50001 70086 333 82/62;",
"02151099999","2010-05-30T18:00:00","4","66.4833333","20.1666666","275.0","JOKKMOKK FPL, SW","FM-12","99999","V020","310,1,N,0030,1","02100,1,C,N","045000,1,N,1","+0136,1","+0027,1","10071,1","00,1","8,1,06,1","08,1,+02100,1,99,9",,"120,M,+0153,1","999,N,+0093,1","99999,9,09747,1","2,1,005,1,+999,9","SYN088AAXX  30181 02151 47883 /3103 10136 20027 39747 40071 52005 70086 333 10153 20093 88/57;",
"02151099999","2010-05-30T21:00:00","4","66.4833333","20.1666666","275.0","JOKKMOKK FPL, SW","FM-12","99999","V020","300,1,N,0030,1","02400,1,C,N","050000,1,N,1","+0093,1","+0038,1","10090,1",,,"07,1,+02400,1,99,9",,,,"99999,9,09760,1","3,1,014,1,+999,9","SYN070AAXX  30211 02151 45884 /3003 10093 20038 39760 40090 53014 333 87/58;",
"02151099999","2010-05-31T00:00:00","4","66.4833333","20.1666666","275.0","JOKKMOKK FPL, SW","FM-12","99999","V020","310,1,N,0050,1","99999,9,9,N","050000,1,N,1","+0071,1","+0015,1","10101,1",,,,,,,"99999,9,09768,1","2,1,008,1,+999,9","SYN060AAXX  31001 02151 45/84 /3105 10071 20015 39768 40101 52008;",
"02151099999","2010-05-31T03:00:00","4","66.4833333","20.1666666","275.0","JOKKMOKK FPL, SW","FM-12","99999","V020","310,1,N,0040,1","01380,1,C,N","050000,1,N,1","+0068,1","+0018,1","10111,1",,,"08,1,+01380,1,99,9",,,,"99999,9,09777,1","2,1,009,1,+999,9","SYN070AAXX  31031 02151 45684 /3104 10068 20018 39777 40111 52009 333 88/46;",
"02151099999","2010-05-31T06:00:00","4","66.4833333","20.1666666","275.0","JOKKMOKK FPL, SW","FM-12","99999","V020","320,1,N,0040,1","99999,9,9,N","050000,1,N,1","+0085,1","+0018,1","10118,1","00,1","8,1,06,1","04,1,+01350,1,99,9",,"120,M,+0137,1","999,N,+0060,1","99999,9,09786,1","2,1,009,1,+999,9","SYN094AAXX  31061 02151 47684 /3204 10085 20018 39786 40118 52009 70086 333 10137 20060 84/45 87/57;",
"02151099999","2010-05-31T09:00:00","4","66.4833333","20.1666666","275.0","JOKKMOKK FPL, SW","FM-12","99999","V020","310,1,N,0030,1","01500,1,C,N","050000,1,N,1","+0112,1","+0016,1","10117,1",,,"08,1,+01500,1,99,9",,,,"99999,9,09789,1","2,1,003,1,+999,9","SYN070AAXX  31091 02151 45784 /3103 10112 20016 39789 40117 52003 333 88/50;",
"02151099999","2010-05-31T12:00:00","4","66.4833333","20.1666666","275.0","JOKKMOKK FPL, SW","FM-12","99999","V020","300,1,N,0030,1","01800,1,C,N","040000,1,N,1","+0131,1","+0016,1","10112,1",,,"07,1,+01800,1,99,9",,,,"99999,9,09786,1","7,1,003,1,+999,9","SYN070AAXX  31121 02151 45782 /3003 10131 20016 39786 40112 57003 333 87/56;",
"02151099999","2010-05-31T15:00:00","4","66.4833333","20.1666666","275.0","JOKKMOKK FPL, SW","FM-12","99999","V020","290,1,N,0060,1","99999,9,9,N","040000,1,N,1","+0138,1","+0002,1","10113,1",,,"02,1,+01800,1,99,9",,,,"99999,9,09787,1","0,1,001,1,+999,9","SYN070AAXX  31151 02151 45782 /2906 10138 20002 39787 40113 50001 333 82/56;",
"02151099999","2010-05-31T18:00:00","4","66.4833333","20.1666666","275.0","JOKKMOKK FPL, SW","FM-12","99999","V020","310,1,N,0060,1","99999,9,9,N","050000,1,N,1","+0108,1","-0002,1","10128,1",,,,,"120,M,+0147,1","999,N,+0084,1","99999,9,09799,1","3,1,012,1,+999,9","SYN076AAXX  31181 02151 45984 /3106 10108 21002 39799 40128 53012 333 10147 20084;",
"02151099999","2010-05-31T21:00:00","4","66.4833333","20.1666666","275.0","JOKKMOKK FPL, SW","FM-12","99999","V020","280,1,N,0040,1","99999,9,9,N","050000,1,N,1","+0075,1","+0004,1","10145,1",,,,,,,"99999,9,09811,1","3,1,012,1,+999,9","SYN060AAXX  31211 02151 45984 /2804 10075 20004 39811 40145 53012;",
"02151099999","2010-06-01T00:00:00","4","66.4833333","20.1666666","275.0","JOKKMOKK FPL, SW","FM-12","99999","V020","310,1,N,0040,1","99999,9,9,N","050000,1,N,1","+0029,1","-0005,1","10172,1",,,,,,,"99999,9,09831,1","3,1,020,1,+999,9","SYN060AAXX  01001 02151 45984 /3104 10029 21005 39831 40172 53020;",
"02151099999","2010-06-01T03:00:00","4","66.4833333","20.1666666","275.0","JOKKMOKK FPL, SW","FM-12","99999","V020","340,1,N,0030,1","99999,9,9,N","050000,1,N,1","+0030,1","-0030,1","10192,1",,,,,,,"99999,9,09851,1","3,1,020,1,+999,9","SYN060AAXX  01031 02151 45984 /3403 10030 21030 39851 40192 53020;",
"02151099999","2010-06-01T06:00:00","4","66.4833333","20.1666666","275.0","JOKKMOKK FPL, SW","FM-12","99999","V020","320,1,N,0040,1","99999,9,9,N","045000,1,N,1","+0054,1","-0048,1","10200,1",,,,,"120,M,+0108,1","999,N,+0025,1","99999,9,09862,1","3,1,011,1,+999,9","SYN076AAXX  01061 02151 45983 /3204 10054 21048 39862 40200 53011 333 10108 20025;",
"02151099999","2010-06-01T09:00:00","4","66.4833333","20.1666666","275.0","JOKKMOKK FPL, SW","FM-12","99999","V020","290,1,N,0020,1","99999,9,9,N","050000,1,N,1","+0083,1","-0049,1","10199,1",,,,,,,"99999,9,09865,1","0,1,002,1,+999,9","SYN060AAXX  01091 02151 45984 /2902 10083 21049 39865 40199 50002;",
"02151099999","2010-06-01T12:00:00","4","66.4833333","20.1666666","275.0","JOKKMOKK FPL, SW","FM-12","99999","V020","320,1,N,0020,1","99999,9,9,N","045000,1,N,1","+0108,1","-0036,1","10192,1",,,,,,,"99999,9,09860,1","7,1,004,1,+999,9","SYN060AAXX  01121 02151 45983 /3202 10108 21036 39860 40192 57004;",
"02151099999","2010-06-01T15:00:00","4","66.4833333","20.1666666","275.0","JOKKMOKK FPL, SW","FM-12","99999","V020","060,1,N,0010,1","99999,9,9,N","045000,1,N,1","+0127,1","-0030,1","10185,1",,,,,,,"99999,9,09856,1","7,1,004,1,+999,9","SYN060AAXX  01151 02151 45983 /0601 10127 21030 39856 40185 57004;",
"02151099999","2010-06-01T18:00:00","4","66.4833333","20.1666666","275.0","JOKKMOKK FPL, SW","FM-12","99999","V020","100,1,N,0020,1","99999,9,9,N","050000,1,N,1","+0127,1","-0019,1","10182,1",,,,,"120,M,+0135,1","999,N,+0051,1","99999,9,09853,1","7,1,003,1,+999,9","SYN076AAXX  01181 02151 45984 /1002 10127 21019 39853 40182 57003 333 10135 20051;",
"02151099999","2010-06-01T21:00:00","4","66.4833333","20.1666666","275.0","JOKKMOKK FPL, SW","FM-12","99999","V020","140,1,N,0020,1","99999,9,9,N","050000,1,N,1","+0066,1","-0011,1","10199,1",,,,,,,"99999,9,09862,1","2,1,009,1,+999,9","SYN060AAXX  01211 02151 45984 /1402 10066 21011 39862 40199 52009;",
"02151099999","2010-06-02T00:00:00","4","66.4833333","20.1666666","275.0","JOKKMOKK FPL, SW","FM-12","99999","V020","160,1,N,0020,1","99999,9,9,N","050000,1,N,1","+0048,1","+0003,1","10203,1",,,,,,,"99999,9,09864,1","2,1,002,1,+999,9","SYN060AAXX  02001 02151 45984 /1602 10048 20003 39864 40203 52002;",
"02151099999","2010-06-02T03:00:00","4","66.4833333","20.1666666","275.0","JOKKMOKK FPL, SW","FM-12","99999","V020","140,1,N,0020,1","99999,9,9,N","050000,1,N,1","+0052,1","+0024,1","10198,1",,,,,,,"99999,9,09860,1","7,1,004,1,+999,9","SYN060AAXX  02031 02151 45984 /1402 10052 20024 39860 40198 57004;",
"02151099999","2010-06-02T06:00:00","4","66.4833333","20.1666666","275.0","JOKKMOKK FPL, SW","FM-12","99999","V020","160,1,N,0050,1","99999,9,9,N","045000,1,N,1","+0118,1","-0015,1","10179,1",,,,,"120,M,+0127,1","999,N,+0021,1","99999,9,09849,1","8,1,011,1,+999,9","SYN076AAXX  02061 02151 45983 /1605 10118 21015 39849 40179 58011 333 10127 20021;",
"02151099999","2010-06-02T09:00:00","4","66.4833333","20.1666666","275.0","JOKKMOKK FPL, SW","FM-12","99999","V020","140,1,N,0050,1","99999,9,9,N","045000,1,N,1","+0147,1","+0002,1","10161,1",,,,,,,"99999,9,09835,1","7,1,014,1,+999,9","SYN060AAXX  02091 02151 45983 /1405 10147 20002 39835 40161 57014;",
"02151099999","2010-06-02T15:00:00","4","66.4833333","20.1666666","275.0","JOKKMOKK FPL, SW","FM-12","99999","V020","160,1,N,0040,1","02100,1,C,N","045000,1,N,1","+0183,1","+0038,1","10124,1",,,"05,1,+02100,1,99,9",,,,"99999,9,09803,1","7,1,017,1,+999,9","SYN070AAXX  02151 02151 45883 /1604 10183 20038 39803 40124 57017 333 85/57;",
"02151099999","2010-06-02T18:00:00","4","66.4833333","20.1666666","275.0","JOKKMOKK FPL, SW","FM-12","99999","V020","140,1,N,0060,1","99999,9,9,N","050000,1,N,1","+0161,1","+0042,1","10114,1",,,"03,1,+02400,1,99,9",,"120,M,+0191,1","999,N,+0113,1","99999,9,09791,1","7,1,012,1,+999,9","SYN082AAXX  02181 02151 45884 /1406 10161 20042 39791 40114 57012 333 10191 20113 83/58;",
"02151099999","2010-06-03T00:00:00","4","66.4833333","20.1666666","275.0","JOKKMOKK FPL, SW","FM-12","99999","V020","140,1,N,0040,1","99999,9,9,N","050000,1,N,1","+0091,1","+0013,1","10096,1",,,,,,,"99999,9,09766,1","8,1,016,1,+999,9","SYN060AAXX  03001 02151 45984 /1404 10091 20013 39766 40096 58016;",
"02151099999","2010-06-03T03:00:00","4","66.4833333","20.1666666","275.0","JOKKMOKK FPL, SW","FM-12","99999","V020","110,1,N,0010,1","99999,9,9,N","025000,1,N,1","+0065,1","+0046,1","10079,1","61,1","6,1,03,1","01,1,+00240,1,99,9",,,,"99999,9,09746,1","8,1,020,1,+999,9","SYN082AAXX  03031 02151 47375 /1101 10065 20046 39746 40079 58020 76160 333 81/08 83/50;",
"02151099999","2010-06-03T06:00:00","4","66.4833333","20.1666666","275.0","JOKKMOKK FPL, SW","FM-12","99999","V020","110,1,N,0010,1","01050,1,C,N","011000,1,N,1","+0062,1","+0057,1","10064,1","61,1","6,1,06,1","05,1,+01050,1,99,9",,"120,M,+0161,1","999,N,+0059,1","99999,9,09732,1","8,1,015,1,+999,9","SYN088AAXX  03061 02151 47661 /1101 10062 20057 39732 40064 58015 76165 333 10161 20059 85/35;",
"02151099999","2010-06-03T09:00:00","4","66.4833333","20.1666666","275.0","JOKKMOKK FPL, SW","FM-12","99999","V020","090,1,N,0010,1","00180,1,C,N","015000,1,N,1","+0070,1","+0069,1","10050,1","52,1","6,1,03,1","09,1,+00180,1,99,9",,,,"99999,9,09719,1","7,1,013,1,+999,9","SYN076AAXX  03091 02151 47/65 /0901 10070 20069 39719 40050 57013 75265 333 89/06;",
"02151099999","2010-06-03T12:00:00","4","66.4833333","20.1666666","275.0","JOKKMOKK FPL, SW","FM-12","99999","V020","320,1,N,0050,1","99999,9,9,N","019000,1,N,1","+0098,1","+0095,1","10039,1","51,1","6,1,06,1","03,1,+00300,1,99,9",,,,"99999,9,09712,1","7,1,007,1,+999,9","SYN082AAXX  03121 02151 47469 /3205 10098 20095 39712 40039 57007 75165 333 83/10 87/15;",
"02151099999","2010-06-03T15:00:00","4","66.4833333","20.1666666","275.0","JOKKMOKK FPL, SW","FM-12","99999","V020","320,1,N,0060,1","01200,1,C,N","030000,1,N,1","+0097,1","+0085,1","10043,1","61,1","8,1,03,1","02,1,+00510,1,99,9","04,1,+01200,1,99,9",,,"99999,9,09715,1","2,1,003,1,+999,9","SYN088AAXX  03151 02151 47480 /3206 10097 20085 39715 40043 52003 76186 333 82/17 84/40 85/49;",
"02151099999","2010-06-03T18:00:00","4","66.4833333","20.1666666","275.0","JOKKMOKK FPL, SW","FM-12","99999","V020","340,1,N,0040,1","01410,1,C,N","050000,1,N,1","+0097,1","+0086,1","10047,1","22,1","8,1,06,1","08,1,+01410,1,99,9",,"120,M,+0102,1","999,N,+0061,1","99999,9,09719,1","2,1,004,1,+999,9","SYN088AAXX  03181 02151 47684 /3404 10097 20086 39719 40047 52004 72286 333 10102 20061 88/47;",
"02151099999","2010-06-03T21:00:00","4","66.4833333","20.1666666","275.0","JOKKMOKK FPL, SW","FM-12","99999","V020","310,1,N,0060,1","99999,9,9,N","050000,1,N,1","+0085,1","+0054,1","10060,1","23,1","8,1,03,1","02,1,+01410,1,99,9",,,,"99999,9,09730,1","2,1,011,1,+999,9","SYN076AAXX  03211 02151 47684 /3106 10085 20054 39730 40060 52011 72386 333 82/47;",
"02151099999","2010-06-04T00:00:00","4","66.4833333","20.1666666","275.0","JOKKMOKK FPL, SW","FM-12","99999","V020","320,1,N,0080,1","02100,1,C,N","050000,1,N,1","+0060,1","+0012,1","10078,1","00,1","8,1,06,1","08,1,+02100,1,99,9",,,,"99999,9,09744,1","2,1,015,1,+999,9","SYN076AAXX  04001 02151 47884 /3208 10060 20012 39744 40078 52015 70086 333 88/57;",
"02151099999","2010-06-04T03:00:00","4","66.4833333","20.1666666","275.0","JOKKMOKK FPL, SW","FM-12","99999","V020","310,1,N,0090,1","02400,1,C,N","050000,1,N,1","+0073,1","+0021,1","10079,1",,,"08,1,+02400,1,99,9",,,,"99999,9,09747,1","0,1,002,1,+999,9","SYN070AAXX  04031 02151 45884 /3109 10073 20021 39747 40079 50002 333 88/58;",
"02151099999","2010-06-04T06:00:00","4","66.4833333","20.1666666","275.0","JOKKMOKK FPL, SW","FM-12","99999","V020","330,1,N,0100,1","02100,1,C,N","050000,1,N,1","+0078,1","+0004,1","10088,1",,,"07,1,+02100,1,99,9",,"120,M,+0098,1","999,N,+0045,1","99999,9,09757,1","2,1,010,1,+999,9","SYN082AAXX  04061 02151 45884 /3310 10078 20004 39757 40088 52010 333 10098 20045 87/57;",
"02151099999","2010-06-04T09:00:00","4","66.4833333","20.1666666","275.0","JOKKMOKK FPL, SW","FM-12","99999","V020","310,1,N,0090,1","01500,1,C,N","050000,1,N,1","+0084,1","-0003,1","10100,1",,,"05,1,+01500,1,99,9",,,,"99999,9,09769,1","2,1,011,1,+999,9","SYN070AAXX  04091 02151 45784 /3109 10084 21003 39769 40100 52011 333 85/50;",
"02151099999","2010-06-04T12:00:00","4","66.4833333","20.1666666","275.0","JOKKMOKK FPL, SW","FM-12","99999","V020","310,1,N,0080,1","01800,1,C,N","045000,1,N,1","+0091,1","-0010,1","10107,1",,,"07,1,+01800,1,99,9",,,,"99999,9,09776,1","2,1,007,1,+999,9","SYN070AAXX  04121 02151 45783 /3108 10091 21010 39776 40107 52007 333 87/56;",
"02151099999","2010-06-04T15:00:00","4","66.4833333","20.1666666","275.0","JOKKMOKK FPL, SW","FM-12","99999","V020","340,1,N,0090,1","99999,9,9,N","045000,1,N,1","+0096,1","-0025,1","10109,1",,,"03,1,+01800,1,99,9",,,,"99999,9,09779,1","2,1,003,1,+999,9","SYN070AAXX  04151 02151 45783 /3409 10096 21025 39779 40109 52003 333 83/56;",
"02151099999","2010-06-04T18:00:00","4","66.4833333","20.1666666","275.0","JOKKMOKK FPL, SW","FM-12","99999","V020","330,1,N,0070,1","99999,9,9,N","050000,1,N,1","+0074,1","-0021,1","10115,1",,,"01,1,+01500,1,99,9",,"120,M,+0111,1","999,N,+0075,1","99999,9,09782,1","1,1,003,1,+999,9","SYN082AAXX  04181 02151 45784 /3307 10074 21021 39782 40115 51003 333 10111 20075 81/50;",
"02151099999","2010-06-04T21:00:00","4","66.4833333","20.1666666","275.0","JOKKMOKK FPL, SW","FM-12","99999","V020","340,1,N,0040,1","01500,1,C,N","050000,1,N,1","+0047,1","-0005,1","10120,1","81,1","8,1,03,1","04,1,+01260,1,99,9","06,1,+01500,1,99,9",,,"99999,9,09784,1","2,1,002,1,+999,9","SYN088AAXX  04211 02151 47684 /3404 10047 21005 39784 40120 52002 78186 333 84/42 86/50 88/57;",
"02151099999","2010-06-05T00:00:00","4","66.4833333","20.1666666","275.0","JOKKMOKK FPL, SW","FM-12","99999","V020","320,1,N,0050,1","99999,9,9,N","050000,1,N,1","+0031,1","-0013,1","10120,1","00,1","8,1,06,1","02,1,+01500,1,99,9",,,,"99999,9,09782,1","7,1,002,1,+999,9","SYN076AAXX  05001 02151 47784 /3205 10031 21013 39782 40120 57002 70082 333 82/50;",
"02151099999","2010-06-05T03:00:00","4","66.4833333","20.1666666","275.0","JOKKMOKK FPL, SW","FM-12","99999","V020","300,1,N,0050,1","99999,9,9,N","045000,1,N,1","+0036,1","-0017,1","10114,1",,,,,,,"99999,9,09776,1","8,1,005,1,+999,9","SYN060AAXX  05031 02151 45983 /3005 10036 21017 39776 40114 58005;",
"02151099999","2010-06-05T06:00:00","4","66.4833333","20.1666666","275.0","JOKKMOKK FPL, SW","FM-12","99999","V020","310,1,N,0070,1","99999,9,9,N","050000,1,N,1","+0050,1","-0027,1","10109,1",,,,,"120,M,+0074,1","999,N,+0016,1","99999,9,09773,1","7,1,003,1,+999,9","SYN076AAXX  05061 02151 45/84 /3107 10050 21027 39773 40109 57003 333 10074 20016;",
"02151099999","2010-06-05T09:00:00","4","66.4833333","20.1666666","275.0","JOKKMOKK FPL, SW","FM-12","99999","V020","290,1,N,0070,1","01350,1,C,N","050000,1,N,1","+0063,1","-0007,1","10103,1","00,1","8,1,03,1","01,1,+00750,1,99,9","06,1,+01350,1,99,9",,,"99999,9,09770,1","8,1,004,1,+999,9","SYN088AAXX  05091 02151 47584 /2907 10063 21007 39770 40103 58004 70086 333 81/25 86/45 87/56;",
"02151099999","2010-06-05T12:00:00","4","66.4833333","20.1666666","275.0","JOKKMOKK FPL, SW","FM-12","99999","V020","350,1,N,0070,1","99999,9,9,N","035000,1,N,1","+0080,1","-0017,1","10100,1","23,1","8,1,06,1","01,1,+01500,1,99,9",,,,"99999,9,09768,1","5,1,001,1,+999,9","SYN076AAXX  05121 02151 47781 /3507 10080 21017 39768 40100 55001 72386 333 81/50;",
"02151099999","2010-06-05T15:00:00","4","66.4833333","20.1666666","275.0","JOKKMOKK FPL, SW","FM-12","99999","V020","320,1,N,0070,1","01800,1,C,N","050000,1,N,1","+0080,1","-0023,1","10108,1",,,"08,1,+01800,1,99,9",,,,"99999,9,09776,1","2,1,008,1,+999,9","SYN070AAXX  05151 02151 45784 /3207 10080 21023 39776 40108 52008 333 88/56;",
"02151099999","2010-06-05T18:00:00","4","66.4833333","20.1666666","275.0","JOKKMOKK FPL, SW","FM-12","99999","V020","330,1,N,0060,1","01800,1,C,N","050000,1,N,1","+0072,1","-0012,1","10113,1",,,"08,1,+01800,1,99,9",,"120,M,+0090,1","999,N,+0044,1","99999,9,09780,1","2,1,004,1,+999,9","SYN082AAXX  05181 02151 45884 /3306 10072 21012 39780 40113 52004 333 10090 20044 88/56;",
"02151099999","2010-06-05T21:00:00","4","66.4833333","20.1666666","275.0","JOKKMOKK FPL, SW","FM-12","99999","V020","310,1,N,0030,1","99999,9,9,N","050000,1,N,1","+0045,1","-0016,1","10122,1",,,"04,1,+01800,1,99,9",,,,"99999,9,09786,1","2,1,006,1,+999,9","SYN070AAXX  05211 02151 45784 /3103 10045 21016 39786 40122 52006 333 84/56;",
"02151099999","2010-06-06T00:00:00","4","66.4833333","20.1666666","275.0","JOKKMOKK FPL, SW","FM-12","99999","V020","290,1,N,0020,1","02100,1,C,N","050000,1,N,1","+0017,1","-0020,1","10128,1",,,"06,1,+02100,1,99,9",,,,"99999,9,09788,1","2,1,003,1,+999,9","SYN070AAXX  06001 02151 45884 /2902 10017 21020 39788 40128 52003 333 86/57;",
"02151099999","2010-06-06T03:00:00","4","66.4833333","20.1666666","275.0","JOKKMOKK FPL, SW","FM-12","99999","V020","320,1,N,0020,1","01800,1,C,N","050000,1,N,1","+0034,1","-0010,1","10125,1",,,"08,1,+01800,1,99,9",,,,"99999,9,09787,1","7,1,001,1,+999,9","SYN070AAXX  06031 02151 45784 /3202 10034 21010 39787 40125 57001 333 88/56;",
"02151099999","2010-06-06T06:00:00","4","66.4833333","20.1666666","275.0","JOKKMOKK FPL, SW","FM-12","99999","V020","330,1,N,0020,1","01440,1,C,N","050000,1,N,1","+0051,1","-0020,1","10119,1",,,"07,1,+01440,1,99,9",,"120,M,+0072,1","999,N,+0016,1","99999,9,09783,1","7,1,004,1,+999,9","SYN088AAXX  06061 02151 45684 /3302 10051 21020 39783 40119 57004 333 10072 20016 87/48 88/56;",
"02151099999","2010-06-06T09:00:00","4","66.4833333","20.1666666","275.0","JOKKMOKK FPL, SW","FM-12","99999","V020","010,1,N,0020,1","99999,9,9,N","045000,1,N,1","+0057,1","-0028,1","10117,1","81,1","8,1,03,1","02,1,+01320,1,99,9",,,,"99999,9,09782,1","4,1,000,1,+999,9","SYN082AAXX  06091 02151 47683 /0102 10057 21028 39782 40117 54001 78186 333 82/44 88/56;",
"02151099999","2010-06-06T12:00:00","4","66.4833333","20.1666666","275.0","JOKKMOKK FPL, SW","FM-12","99999","V020","340,1,N,0020,1","99999,9,9,N","050000,1,N,1","+0075,1","-0020,1","10113,1","00,1","8,1,06,1","02,1,+01500,1,99,9",,,,"99999,9,09780,1","7,1,002,1,+999,9","SYN082AAXX  06121 02151 47784 /3402 10075 21020 39780 40113 57002 70086 333 82/50 88/57;",
"02151099999","2010-06-06T15:00:00","4","66.4833333","20.1666666","275.0","JOKKMOKK FPL, SW","FM-12","99999","V020","350,1,N,0030,1","02100,1,C,N","050000,1,N,1","+0076,1","-0028,1","10111,1",,,"08,1,+02100,1,99,9",,,,"99999,9,09778,1","8,1,002,1,+999,9","SYN070AAXX  06151 02151 45884 /3503 10076 21028 39778 40111 58002 333 88/57;",
"02151099999","2010-06-06T18:00:00","4","66.4833333","20.1666666","275.0","JOKKMOKK FPL, SW","FM-12","99999","V020","340,1,N,0020,1","02100,1,C,N","050000,1,N,1","+0073,1","-0019,1","10109,1",,,"08,1,+02100,1,99,9",,"120,M,+0080,1","999,N,+0051,1","99999,9,09776,1","7,1,002,1,+999,9","SYN082AAXX  06181 02151 45884 /3402 10073 21019 39776 40109 57002 333 10080 20051 88/57;",
"02151099999","2010-06-06T21:00:00","4","66.4833333","20.1666666","275.0","JOKKMOKK FPL, SW","FM-12","99999","V020","290,1,N,0010,1","02100,1,C,N","050000,1,N,1","+0045,1","+0000,1","10114,1",,,"08,1,+02100,1,99,9",,,,"99999,9,09777,1","2,1,001,1,+999,9","SYN070AAXX  06211 02151 45884 /2901 10045 20000 39777 40114 52001 333 88/57;",
"02151099999","2010-06-07T00:00:00","4","66.4833333","20.1666666","275.0","JOKKMOKK FPL, SW","FM-12","99999","V020","260,1,N,0010,1","02100,1,C,N","050000,1,N,1","+0028,1","+0000,1","10122,1",,,"08,1,+02100,1,99,9",,,,"99999,9,09784,1","2,1,006,1,+999,9","SYN070AAXX  07001 02151 45884 /2601 10028 20000 39784 40122 52006 333 88/57;",
"02151099999","2010-06-07T03:00:00","4","66.4833333","20.1666666","275.0","JOKKMOKK FPL, SW","FM-12","99999","V020","330,1,N,0010,1","01800,1,C,N","050000,1,N,1","+0036,1","+0004,1","10127,1",,,"08,1,+01800,1,99,9",,,,"99999,9,09789,1","2,1,005,1,+999,9","SYN070AAXX  07031 02151 45784 /3301 10036 20004 39789 40127 52005 333 88/56;",
"02151099999","2010-06-07T06:00:00","4","66.4833333","20.1666666","275.0","JOKKMOKK FPL, SW","FM-12","99999","V020","020,1,N,0010,1","99999,9,9,N","050000,1,N,1","+0051,1","-0011,1","10129,1",,,"04,1,+01500,1,99,9",,"120,M,+0073,1","999,N,+0022,1","99999,9,09793,1","2,1,004,1,+999,9","SYN088AAXX  07061 02151 45784 /0201 10051 21011 39793 40129 52004 333 10073 20022 84/50 88/56;",
"02151099999","2010-06-07T09:00:00","4","66.4833333","20.1666666","275.0","JOKKMOKK FPL, SW","FM-12","99999","V020","360,1,N,0020,1","01800,1,C,N","050000,1,N,1","+0070,1","-0033,1","10130,1",,,"08,1,+01800,1,99,9",,,,"99999,9,09796,1","2,1,002,1,+999,9","SYN070AAXX  07091 02151 45884 /3602 10070 21033 39796 40130 52002 333 88/56;",
"02151099999","2010-06-07T12:00:00","4","66.4833333","20.1666666","275.0","JOKKMOKK FPL, SW","FM-12","99999","V020","310,1,N,0010,1","01800,1,C,N","045000,1,N,1","+0085,1","-0042,1","10128,1",,,"08,1,+01800,1,99,9",,,,"99999,9,09796,1","4,1,000,1,+999,9","SYN070AAXX  07121 02151 45783 /3101 10085 21042 39796 40128 54001 333 88/56;",
"02151099999","2010-06-07T15:00:00","4","66.4833333","20.1666666","275.0","JOKKMOKK FPL, SW","FM-12","99999","V020","340,1,N,0020,1","01800,1,C,N","050000,1,N,1","+0090,1","-0037,1","10124,1",,,"08,1,+01800,1,99,9",,,,"99999,9,09793,1","7,1,004,1,+999,9","SYN070AAXX  07151 02151 45784 /3402 10090 21037 39793 40124 57004 333 88/56;",
"02151099999","2010-06-07T18:00:00","4","66.4833333","20.1666666","275.0","JOKKMOKK FPL, SW","FM-12","99999","V020","330,1,N,0020,1","02100,1,C,N","050000,1,N,1","+0095,1","-0030,1","10125,1",,,"07,1,+02100,1,99,9",,"120,M,+0103,1","999,N,+0050,1","99999,9,09794,1","2,1,001,1,+999,9","SYN082AAXX  07181 02151 45884 /3302 10095 21030 39794 40125 52001 333 10103 20050 87/57;",
"02151099999","2010-06-07T21:00:00","4","66.4833333","20.1666666","275.0","JOKKMOKK FPL, SW","FM-12","99999","V020","999,9,C,0000,1","99999,9,9,N","050000,1,N,1","+0013,1","-0009,1","10140,1",,,"04,1,+02400,1,99,9",,,,"99999,9,09798,1","2,1,004,1,+999,9","SYN070AAXX  07211 02151 45884 /0000 10013 21009 39798 40140 52004 333 84/58;",
"02151099999","2010-06-08T00:00:00","4","66.4833333","20.1666666","275.0","JOKKMOKK FPL, SW","FM-12","99999","V020","999,9,C,0000,1","99999,9,9,N","050000,1,N,1","-0007,1","-0016,1","10146,1",,,,,,,"99999,9,09802,1","2,1,004,1,+999,9","SYN060AAXX  08001 02151 45984 /0000 11007 21016 39802 40146 52004;",
"02151099999","2010-06-08T03:00:00","4","66.4833333","20.1666666","275.0","JOKKMOKK FPL, SW","FM-12","99999","V020","999,9,C,0000,1","99999,9,9,N","050000,1,N,1","+0005,1","-0009,1","10150,1",,,,,,,"99999,9,09808,1","2,1,006,1,+999,9","SYN060AAXX  08031 02151 45984 /0000 10005 21009 39808 40150 52006;",
"02151099999","2010-06-08T06:00:00","4","66.4833333","20.1666666","275.0","JOKKMOKK FPL, SW","FM-12","99999","V020","120,1,N,0010,1","99999,9,9,N","045000,1,N,1","+0090,1","-0004,1","10136,1",,,,,"120,M,+0096,1","999,N,-0020,1","99999,9,09804,1","7,1,004,1,+999,9","SYN076AAXX  08061 02151 45983 /1201 10090 21004 39804 40136 57004 333 10096 21020;",
"02151099999","2010-06-08T09:00:00","4","66.4833333","20.1666666","275.0","JOKKMOKK FPL, SW","FM-12","99999","V020","360,1,N,0010,1","02100,1,C,N","050000,1,N,1","+0101,1","-0031,1","10134,1",,,"07,1,+02100,1,99,9",,,,"99999,9,09803,1","7,1,001,1,+999,9","SYN070AAXX  08091 02151 45884 /3601 10101 21031 39803 40134 57001 333 87/57;",
"02151099999","2010-06-08T12:00:00","4","66.4833333","20.1666666","275.0","JOKKMOKK FPL, SW","FM-12","99999","V020","200,1,N,0020,1","02400,1,C,N","050000,1,N,1","+0121,1","-0020,1","10125,1",,,"06,1,+02400,1,99,9",,,,"99999,9,09798,1","7,1,006,1,+999,9","SYN070AAXX  08121 02151 45984 /2002 10121 21020 39798 40125 57006 333 86/58;",
"02151099999","2010-06-08T15:00:00","4","66.4833333","20.1666666","275.0","JOKKMOKK FPL, SW","FM-12","99999","V020","200,1,N,0020,1","02700,1,C,N","050000,1,N,1","+0121,1","-0010,1","10123,1",,,"08,1,+02700,1,99,9",,,,"99999,9,09795,1","7,1,002,1,+999,9","SYN070AAXX  08151 02151 45984 /2002 10121 21010 39795 40123 57002 333 88/59;",
"02151099999","2010-06-08T18:00:00","4","66.4833333","20.1666666","275.0","JOKKMOKK FPL, SW","FM-12","99999","V020","180,1,N,0020,1","02700,1,C,N","050000,1,N,1","+0117,1","+0013,1","10118,1",,,"08,1,+02700,1,99,9",,"120,M,+0134,1","999,N,+0088,1","99999,9,09790,1","7,1,005,1,+999,9","SYN082AAXX  08181 02151 45984 /1802 10117 20013 39790 40118 57005 333 10134 20088 88/59;",
"02151099999","2010-06-08T21:00:00","4","66.4833333","20.1666666","275.0","JOKKMOKK FPL, SW","FM-12","99999","V020","180,1,N,0020,1","02700,1,C,N","050000,1,N,1","+0085,1","+0017,1","10126,1",,,"08,1,+02700,1,99,9",,,,"99999,9,09794,1","2,1,004,1,+999,9","SYN070AAXX  08211 02151 45984 /1802 10085 20017 39794 40126 52004 333 88/59;",
"02151099999","2010-06-09T00:00:00","4","66.4833333","20.1666666","275.0","JOKKMOKK FPL, SW","FM-12","99999","V020","200,1,N,0010,1","02700,1,C,N","050000,1,N,1","+0076,1","+0023,1","10125,1",,,"08,1,+02700,1,99,9",,,,"99999,9,09792,1","7,1,002,1,+999,9","SYN070AAXX  09001 02151 45984 /2001 10076 20023 39792 40125 57002 333 88/59;",
"02151099999","2010-06-09T03:00:00","4","66.4833333","20.1666666","275.0","JOKKMOKK FPL, SW","FM-12","99999","V020","999,9,C,0000,1","02700,1,C,N","050000,1,N,1","+0069,1","+0037,1","10127,1",,,"08,1,+02700,1,99,9",,,,"99999,9,09793,1","4,1,000,1,+999,9","SYN070AAXX  09031 02151 45984 /0000 10069 20037 39793 40127 54000 333 88/59;",
"02151099999","2010-06-09T06:00:00","4","66.4833333","20.1666666","275.0","JOKKMOKK FPL, SW","FM-12","99999","V020","220,1,N,0030,1","03000,1,C,N","045000,1,N,1","+0121,1","+0052,1","10119,1",,,"08,1,+03000,1,99,9",,"120,M,+0124,1","999,N,+0054,1","99999,9,09792,1","7,1,001,1,+999,9","SYN082AAXX  09061 02151 45983 /2203 10121 20052 39792 40119 57001 333 10124 20054 88/60;",
"02151099999","2010-06-09T09:00:00","4","66.4833333","20.1666666","275.0","JOKKMOKK FPL, SW","FM-12","99999","V020","240,1,N,0050,1","99999,9,9,N","040000,1,N,1","+0144,1","+0039,1","10115,1",,,"01,1,+02400,1,99,9",,,,"99999,9,09790,1","7,1,002,1,+999,9","SYN070AAXX  09091 02151 45982 /2405 10144 20039 39790 40115 57002 333 81/58;",
"02151099999","2010-06-09T12:00:00","4","66.4833333","20.1666666","275.0","JOKKMOKK FPL, SW","FM-12","99999","V020","320,1,N,0030,1","02700,1,C,N","050000,1,N,1","+0116,1","+0050,1","10121,1",,,"07,1,+02700,1,99,9",,,,"99999,9,09793,1","3,1,003,1,+999,9","SYN070AAXX  09121 02151 45984 /3203 10116 20050 39793 40121 53003 333 87/59;",
"02151099999","2010-06-09T15:00:00","4","66.4833333","20.1666666","275.0","JOKKMOKK FPL, SW","FM-12","99999","V020","250,1,N,0030,1","99999,9,9,N","020000,1,N,1","+0103,1","+0057,1","10127,1","81,1","8,1,03,1","01,1,+00420,1,99,9",,,,"99999,9,09797,1","3,1,004,1,+999,9","SYN082AAXX  09151 02151 47470 /2503 10103 20057 39797 40127 53004 78180 333 81/14 83/57;",
"02151099999","2010-06-09T18:00:00","4","66.4833333","20.1666666","275.0","JOKKMOKK FPL, SW","FM-12","99999","V020","270,1,N,0010,1","02100,1,C,N","050000,1,N,1","+0124,1","+0041,1","10122,1","00,1","8,1,06,1","07,1,+02100,1,99,9",,"120,M,+0164,1","999,N,+0101,1","99999,9,09795,1","5,1,002,1,+999,9","SYN094AAXX  09181 02151 47884 /2701 10124 20041 39795 40122 55002 70082 333 10164 20101 87/57 88/59;",
"02151099999","2010-06-09T21:00:00","4","66.4833333","20.1666666","275.0","JOKKMOKK FPL, SW","FM-12","99999","V020","300,1,N,0040,1","99999,9,9,N","050000,1,N,1","+0077,1","+0006,1","10149,1",,,,,,,"99999,9,09816,1","2,1,021,1,+999,9","SYN060AAXX  09211 02151 45984 /3004 10077 20006 39816 40149 52021;",
"02151099999","2010-06-10T00:00:00","4","66.4833333","20.1666666","275.0","JOKKMOKK FPL, SW","FM-12","99999","V020","300,1,N,0030,1","99999,9,9,N","050000,1,N,1","+0038,1","+0004,1","10170,1",,,,,,,"99999,9,09831,1","2,1,015,1,+999,9","SYN060AAXX  10001 02151 45984 /3003 10038 20004 39831 40170 52015;",
"02151099999","2010-06-10T03:00:00","4","66.4833333","20.1666666","275.0","JOKKMOKK FPL, SW","FM-12","99999","V020","310,1,N,0030,1","99999,9,9,N","050000,1,N,1","+0052,1","+0006,1","10181,1",,,,,,,"99999,9,09843,1","2,1,012,1,+999,9","SYN060AAXX  10031 02151 45984 /3103 10052 20006 39843 40181 52012;",
"02151099999","2010-06-10T06:00:00","4","66.4833333","20.1666666","275.0","JOKKMOKK FPL, SW","FM-12","99999","V020","320,1,N,0030,1","99999,9,9,N","050000,1,N,1","+0077,1","-0010,1","10182,1",,,,,"120,M,+0124,1","999,N,+0032,1","99999,9,09847,1","2,1,004,1,+999,9","SYN076AAXX  10061 02151 45984 /3203 10077 21010 39847 40182 52004 333 10124 20032;",
"02151099999","2010-06-10T09:00:00","4","66.4833333","20.1666666","275.0","JOKKMOKK FPL, SW","FM-12","99999","V020","260,1,N,0030,1","99999,9,9,N","040000,1,N,1","+0099,1","-0013,1","10176,1",,,"01,1,+01500,1,99,9",,,,"99999,9,09844,1","7,1,003,1,+999,9","SYN070AAXX  10091 02151 45782 /2603 10099 21013 39844 40176 57003 333 81/50;",
"02151099999","2010-06-10T12:00:00","4","66.4833333","20.1666666","275.0","JOKKMOKK FPL, SW","FM-12","99999","V020","280,1,N,0020,1","99999,9,9,N","040000,1,N,1","+0132,1","-0015,1","10160,1",,,,,,,"99999,9,09832,1","8,1,012,1,+999,9","SYN060AAXX  10121 02151 45982 /2802 10132 21015 39832 40160 58012;",
"02151099999","2010-06-10T15:00:00","4","66.4833333","20.1666666","275.0","JOKKMOKK FPL, SW","FM-12","99999","V020","260,1,N,0030,1","99999,9,9,N","040000,1,N,1","+0161,1","-0014,1","10143,1",,,,,,,"99999,9,09819,1","7,1,014,1,+999,9","SYN060AAXX  10151 02151 45982 /2603 10161 21014 39819 40143 57014;",
"02151099999","2010-06-10T18:00:00","4","66.4833333","20.1666666","275.0","JOKKMOKK FPL, SW","FM-12","99999","V020","360,1,N,0010,1","99999,9,9,N","050000,1,N,1","+0150,1","-0019,1","10129,1",,,,,"120,M,+0161,1","999,N,+0074,1","99999,9,09804,1","7,1,015,1,+999,9","SYN076AAXX  10181 02151 45984 /3601 10150 21019 39804 40129 57015 333 10161 20074;",
"02151099999","2010-06-10T21:00:00","4","66.4833333","20.1666666","275.0","JOKKMOKK FPL, SW","FM-12","99999","V020","999,9,C,0000,1","99999,9,9,N","050000,1,N,1","+0068,1","+0009,1","10128,1",,,,,,,"99999,9,09794,1","7,1,009,1,+999,9","SYN060AAXX  10211 02151 45984 /0000 10068 20009 39794 40128 57009;",
"02151099999","2010-06-11T00:00:00","4","66.4833333","20.1666666","275.0","JOKKMOKK FPL, SW","FM-12","99999","V020","999,9,C,0000,1","99999,9,9,N","050000,1,N,1","+0028,1","+0018,1","10120,1",,,,,,,"99999,9,09781,1","8,1,013,1,+999,9","SYN060AAXX  11001 02151 45984 /0000 10028 20018 39781 40120 58013;",
"02151099999","2010-06-11T03:00:00","4","66.4833333","20.1666666","275.0","JOKKMOKK FPL, SW","FM-12","99999","V020","999,9,C,0000,1","99999,9,9,N","050000,1,N,1","+0053,1","+0039,1","10103,1",,,,,,,"99999,9,09768,1","8,1,014,1,+999,9","SYN060AAXX  11031 02151 45984 /0000 10053 20039 39768 40103 58014;",
"02151099999","2010-06-11T06:00:00","4","66.4833333","20.1666666","275.0","JOKKMOKK FPL, SW","FM-12","99999","V020","070,1,N,0010,1","99999,9,9,N","045000,1,N,1","+0102,1","+0049,1","10083,1",,,,,"120,M,+0155,1","999,N,+0027,1","99999,9,09755,1","7,1,013,1,+999,9","SYN076AAXX  11061 02151 45983 /0701 10102 20049 39755 40083 57013 333 10155 20027;",
"02151099999","2010-06-11T09:00:00","4","66.4833333","20.1666666","275.0","JOKKMOKK FPL, SW","FM-12","99999","V020","100,1,N,0030,1","99999,9,9,N","040000,1,N,1","+0159,1","+0073,1","10056,1",,,,,,,"99999,9,09734,1","8,1,021,1,+999,9","SYN060AAXX  11091 02151 45982 /1003 10159 20073 39734 40056 58021;",
"02151099999","2010-06-11T12:00:00","4","66.4833333","20.1666666","275.0","JOKKMOKK FPL, SW","FM-12","99999","V020","180,1,N,0030,1","99999,9,9,N","050000,1,N,1","+0201,1","+0039,1","10018,1",,,"02,1,+02400,1,99,9",,,,"99999,9,09703,1","7,1,031,1,+999,9","SYN076AAXX  11121 02151 45884 /1803 10201 20039 39703 40018 57031 333 82/58 86/63;",
"02151099999","2010-06-11T15:00:00","4","66.4833333","20.1666666","275.0","JOKKMOKK FPL, SW","FM-12","99999","V020","230,1,N,0010,1","02400,1,C,N","050000,1,N,1","+0166,1","+0087,1","10015,1","81,1","8,1,03,1","06,1,+02400,1,99,9",,,,"99999,9,09696,1","6,1,007,1,+999,9","SYN082AAXX  11151 02151 47984 /2301 10166 20087 39696 40015 56007 78186 333 86/58 87/73;",
"02151099999","2010-06-11T18:00:00","4","66.4833333","20.1666666","275.0","JOKKMOKK FPL, SW","FM-12","99999","V020","090,1,N,0020,1","99999,9,9,N","050000,1,N,1","+0162,1","+0025,1","10011,1","00,1","8,1,06,1","02,1,+03000,1,99,9",,"120,M,+0215,1","999,N,+0102,1","99999,9,09691,1","7,1,005,1,+999,9","SYN094AAXX  11181 02151 47984 /0902 10162 20025 39691 40011 57005 70086 333 10215 20102 82/60 84/63;",
"02151099999","2010-06-11T21:00:00","4","66.4833333","20.1666666","275.0","JOKKMOKK FPL, SW","FM-12","99999","V020","060,1,N,0020,1","99999,9,9,N","050000,1,N,1","+0115,1","+0071,1","10016,1",,,"03,1,+04200,1,99,9",,,,"99999,9,09691,1","4,1,000,1,+999,9","SYN070AAXX  11211 02151 45984 /0602 10115 20071 39691 40016 54001 333 83/64;",
"02151099999","2010-06-12T00:00:00","4","66.4833333","20.1666666","275.0","JOKKMOKK FPL, SW","FM-12","99999","V020","040,1,N,0010,1","99999,9,9,N","050000,1,N,1","+0085,1","+0062,1","10018,1",,,,,,,"99999,9,09690,1","5,1,002,1,+999,9","SYN060AAXX  12001 02151 45984 /0401 10085 20062 39690 40018 55002;",
"02151099999","2010-06-12T03:00:00","4","66.4833333","20.1666666","275.0","JOKKMOKK FPL, SW","FM-12","99999","V020","020,1,N,0020,1","99999,9,9,N","050000,1,N,1","+0081,1","+0048,1","10010,1",,,,,,,"99999,9,09682,1","6,1,008,1,+999,9","SYN060AAXX  12031 02151 45984 /0202 10081 20048 39682 40010 56008;",
"02151099999","2010-06-12T06:00:00","4","66.4833333","20.1666666","275.0","JOKKMOKK FPL, SW","FM-12","99999","V020","010,1,N,0030,1","99999,9,9,N","045000,1,N,1","+0105,1","+0051,1","09994,1",,,,,"120,M,+0162,1","999,N,+0075,1","99999,9,09669,1","7,1,013,1,+999,9","SYN076AAXX  12061 02151 45983 /0103 10105 20051 39669 49994 57013 333 10162 20075;",
"02151099999","2010-06-12T09:00:00","4","66.4833333","20.1666666","275.0","JOKKMOKK FPL, SW","FM-12","99999","V020","060,1,N,0040,1","99999,9,9,N","040000,1,N,1","+0148,1","+0064,1","09976,1",,,,,,,"99999,9,09656,1","7,1,012,1,+999,9","SYN060AAXX  12091 02151 45982 /0604 10148 20064 39656 49976 57012;",
"02151099999","2010-06-12T12:00:00","4","66.4833333","20.1666666","275.0","JOKKMOKK FPL, SW","FM-12","99999","V020","060,1,N,0050,1","99999,9,9,N","040000,1,N,1","+0168,1","+0061,1","09960,1",,,"03,1,+02100,1,99,9",,,,"99999,9,09642,1","7,1,014,1,+999,9","SYN076AAXX  12121 02151 45882 /0605 10168 20061 39642 49960 57014 333 83/57 85/58;",
"02151099999","2010-06-12T15:00:00","4","66.4833333","20.1666666","275.0","JOKKMOKK FPL, SW","FM-12","99999","V020","060,1,N,0050,1","99999,9,9,N","050000,1,N,1","+0180,1","+0049,1","09946,1",,,"01,1,+02400,1,99,9",,,,"99999,9,09630,1","7,1,012,1,+999,9","SYN070AAXX  12151 02151 45984 /0605 10180 20049 39630 49946 57012 333 81/58;",
"02151099999","2010-06-12T18:00:00","4","66.4833333","20.1666666","275.0","JOKKMOKK FPL, SW","FM-12","99999","V020","060,1,N,0050,1","99999,9,9,N","050000,1,N,1","+0166,1","+0055,1","09941,1",,,,,"120,M,+0190,1","999,N,+0105,1","99999,9,09624,1","7,1,006,1,+999,9","SYN076AAXX  12181 02151 45984 /0605 10166 20055 39624 49941 57006 333 10190 20105;",
"02151099999","2010-06-12T21:00:00","4","66.4833333","20.1666666","275.0","JOKKMOKK FPL, SW","FM-12","99999","V020","040,1,N,0020,1","99999,9,9,N","050000,1,N,1","+0134,1","+0057,1","09954,1",,,,,,,"99999,9,09633,1","2,1,008,1,+999,9","SYN060AAXX  12211 02151 45984 /0402 10134 20057 39633 49954 52008;",
"02151099999","2010-06-13T00:00:00","4","66.4833333","20.1666666","275.0","JOKKMOKK FPL, SW","FM-12","99999","V020","350,1,N,0010,1","99999,9,9,N","050000,1,N,1","+0071,1","+0034,1","09966,1",,,,,,,"99999,9,09637,1","2,1,005,1,+999,9","SYN060AAXX  13001 02151 45984 /3501 10071 20034 39637 49966 52005;",
"02151099999","2010-06-13T03:00:00","4","66.4833333","20.1666666","275.0","JOKKMOKK FPL, SW","FM-12","99999","V020","070,1,N,0020,1","99999,9,9,N","050000,1,N,1","+0100,1","+0015,1","09975,1",,,,,,,"99999,9,09649,1","2,1,012,1,+999,9","SYN060AAXX  13031 02151 45984 /0702 10100 20015 39649 49975 52012;",
"02151099999","2010-06-13T06:00:00","4","66.4833333","20.1666666","275.0","JOKKMOKK FPL, SW","FM-12","99999","V020","030,1,N,0020,1","99999,9,9,N","045000,1,N,1","+0118,1","+0014,1","09983,1",,,,,"120,M,+0166,1","999,N,+0064,1","99999,9,09659,1","2,1,010,1,+999,9","SYN076AAXX  13061 02151 45983 /0302 10118 20014 39659 49983 52010 333 10166 20064;",
"02151099999","2010-06-13T09:00:00","4","66.4833333","20.1666666","275.0","JOKKMOKK FPL, SW","FM-12","99999","V020","080,1,N,0020,1","99999,9,9,N","045000,1,N,1","+0140,1","+0018,1","09987,1",,,,,,,"99999,9,09666,1","2,1,006,1,+999,9","SYN060AAXX  13091 02151 45983 /0802 10140 20018 39666 49987 52006;",
"02151099999","2010-06-13T12:00:00","4","66.4833333","20.1666666","275.0","JOKKMOKK FPL, SW","FM-12","99999","V020","360,1,N,0030,1","01800,1,C,N","050000,1,N,1","+0156,1","+0022,1","09993,1",,,"07,1,+01800,1,99,9",,,,"99999,9,09673,1","3,1,008,1,+999,9","SYN070AAXX  13121 02151 45784 /3603 10156 20022 39673 49993 53008 333 87/56;",
"02151099999","2010-06-13T15:00:00","4","66.4833333","20.1666666","275.0","JOKKMOKK FPL, SW","FM-12","99999","V020","310,1,N,0040,1","99999,9,9,N","050000,1,N,1","+0137,1","+0060,1","10010,1","23,1","8,1,03,1","04,1,+02100,1,99,9",,,,"99999,9,09687,1","2,1,014,1,+999,9","SYN076AAXX  13151 02151 47884 /3104 10137 20060 39687 40010 52014 72386 333 84/57;",
"02151099999","2010-06-13T18:00:00","4","66.4833333","20.1666666","275.0","JOKKMOKK FPL, SW","FM-12","99999","V020","330,1,N,0030,1","01500,1,C,N","050000,1,N,1","+0118,1","+0074,1","10025,1","23,1","8,1,06,1","08,1,+01500,1,99,9",,"120,M,+0171,1","999,N,+0116,1","99999,9,09700,1","2,1,013,1,+999,9","SYN088AAXX  13181 02151 47784 /3303 10118 20074 39700 40025 52013 72386 333 10171 20116 88/50;",
"02151099999","2010-06-13T21:00:00","4","66.4833333","20.1666666","275.0","JOKKMOKK FPL, SW","FM-12","99999","V020","310,1,N,0020,1","01500,1,C,N","023000,1,N,1","+0091,1","+0089,1","10047,1","52,1","6,1,03,1","07,1,+01500,1,99,9",,,,"99999,9,09718,1","2,1,017,1,+999,9","SYN076AAXX  13211 02151 47773 /3102 10091 20089 39718 40047 52017 75265 333 87/50;",
"02151099999","2010-06-14T00:00:00","4","66.4833333","20.1666666","275.0","JOKKMOKK FPL, SW","FM-12","99999","V020","350,1,N,0020,1","01500,1,C,N","050000,1,N,1","+0083,1","+0075,1","10062,1","00,1","8,1,06,1","08,1,+01500,1,99,9",,,,"99999,9,09732,1","2,1,014,1,+999,9","SYN076AAXX  14001 02151 47784 /3502 10083 20075 39732 40062 52014 70086 333 88/50;",
"02151099999","2010-06-14T03:00:00","4","66.4833333","20.1666666","275.0","JOKKMOKK FPL, SW","FM-12","99999","V020","010,1,N,0010,1","99999,9,9,N","017000,1,N,1","+0076,1","+0070,1","10076,1","61,1","8,1,03,1","01,1,+01230,1,99,9",,,,"99999,9,09745,1","3,1,013,1,+999,9","SYN076AAXX  14031 02151 47667 /0101 10076 20070 39745 40076 53013 76186 333 81/41;",
"02151099999","2010-06-14T06:00:00","4","66.4833333","20.1666666","275.0","JOKKMOKK FPL, SW","FM-12","99999","V020","030,1,N,0020,1","00960,1,C,N","012000,1,N,1","+0069,1","+0066,1","10092,1","61,1","8,1,06,1","09,1,+00960,1,99,9",,"120,M,+0119,1","999,N,+0068,1","99999,9,09759,1","3,1,014,1,+999,9","SYN088AAXX  14061 02151 47/62 /0302 10069 20066 39759 40092 53014 76186 333 10119 20068 89/32;",
"02151099999","2010-06-14T09:00:00","4","66.4833333","20.1666666","275.0","JOKKMOKK FPL, SW","FM-12","99999","V020","060,1,N,0030,1","00450,1,C,N","007000,1,N,1","+0071,1","+0068,1","10111,1","61,1","6,1,03,1","09,1,+00450,1,99,9",,,,"99999,9,09778,1","2,1,018,1,+999,9","SYN076AAXX  14091 02151 47/57 /0603 10071 20068 39778 40111 52018 76166 333 89/15;",
"02151099999","2010-06-14T12:00:00","4","66.4833333","20.1666666","275.0","JOKKMOKK FPL, SW","FM-12","99999","V020","060,1,N,0020,1","00420,1,C,N","017000,1,N,1","+0079,1","+0073,1","10123,1","61,1","6,1,06,1","02,1,+00300,1,99,9","04,1,+00420,1,99,9",,,"99999,9,09791,1","2,1,013,1,+999,9","SYN088AAXX  14121 02151 47467 /0602 10079 20073 39791 40123 52013 76166 333 82/10 84/14 86/18;",
"02151099999","2010-06-14T15:00:00","4","66.4833333","20.1666666","275.0","JOKKMOKK FPL, SW","FM-12","99999","V020","060,1,N,0010,1","00990,1,C,N","030000,1,N,1","+0089,1","+0081,1","10128,1","61,1","6,1,03,1","01,1,+00300,1,99,9","05,1,+00990,1,99,9",,,"99999,9,09796,1","2,1,005,1,+999,9","SYN088AAXX  14151 02151 47480 /0601 10089 20081 39796 40128 52005 76165 333 81/10 85/33 88/43;",
"02151099999","2010-06-14T18:00:00","4","66.4833333","20.1666666","275.0","JOKKMOKK FPL, SW","FM-12","99999","V020","270,1,N,0010,1","99999,9,9,N","045000,1,N,1","+0092,1","+0076,1","10132,1","00,1","6,1,06,1","01,1,+00360,1,99,9",,"120,M,+0093,1","999,N,+0069,1","99999,9,09800,1","2,1,004,1,+999,9","SYN094AAXX  14181 02151 47483 /2701 10092 20076 39800 40132 52004 70065 333 10093 20069 81/12 86/61;",
"02151099999","2010-06-14T21:00:00","4","66.4833333","20.1666666","275.0","JOKKMOKK FPL, SW","FM-12","99999","V020","350,1,N,0020,1","01020,1,C,N","050000,1,N,1","+0075,1","+0070,1","10148,1","51,1","6,1,03,1","08,1,+01020,1,99,9",,,,"99999,9,09815,1","2,1,014,1,+999,9","SYN076AAXX  14211 02151 47684 /3502 10075 20070 39815 40148 52014 75165 333 88/34;",
"02151099999","2010-06-15T00:00:00","4","66.4833333","20.1666666","275.0","JOKKMOKK FPL, SW","FM-12","99999","V020","010,1,N,0020,1","99999,9,9,N","026000,1,N,1","+0060,1","+0052,1","10168,1","62,1","8,1,06,1","03,1,+00780,1,99,9",,,,"99999,9,09832,1","2,1,017,1,+999,9","SYN076AAXX  15001 02151 47576 /0102 10060 20052 39832 40168 52017 76286 333 83/26;",
"02151099999","2010-06-15T03:00:00","4","66.4833333","20.1666666","275.0","JOKKMOKK FPL, SW","FM-12","99999","V020","320,1,N,0030,1","01800,1,C,N","050000,1,N,1","+0057,1","+0051,1","10178,1","00,1","8,1,03,1","08,1,+01800,1,99,9",,,,"99999,9,09841,1","2,1,009,1,+999,9","SYN076AAXX  15031 02151 47784 /3203 10057 20051 39841 40178 52009 70086 333 88/56;",
"02151099999","2010-06-15T06:00:00","4","66.4833333","20.1666666","275.0","JOKKMOKK FPL, SW","FM-12","99999","V020","350,1,N,0030,1","01500,1,C,N","050000,1,N,1","+0071,1","+0035,1","10185,1","00,1","8,1,06,1","08,1,+01500,1,99,9",,"120,M,+0093,1","999,N,+0056,1","99999,9,09849,1","2,1,008,1,+999,9","SYN088AAXX  15061 02151 47784 /3503 10071 20035 39849 40185 52008 70086 333 10093 20056 88/50;",
"02151099999","2010-06-15T09:00:00","4","66.4833333","20.1666666","275.0","JOKKMOKK FPL, SW","FM-12","99999","V020","350,1,N,0030,1","99999,9,9,N","050000,1,N,1","+0086,1","+0014,1","10190,1",,,"04,1,+01320,1,99,9",,,,"99999,9,09856,1","2,1,007,1,+999,9","SYN076AAXX  15091 02151 45684 /3503 10086 20014 39856 40190 52007 333 84/44 88/50;",
"02151099999","2010-06-15T12:00:00","4","66.4833333","20.1666666","275.0","JOKKMOKK FPL, SW","FM-12","99999","V020","350,1,N,0020,1","99999,9,9,N","045000,1,N,1","+0102,1","+0007,1","10185,1",,,"02,1,+01440,1,99,9",,,,"99999,9,09853,1","7,1,003,1,+999,9","SYN076AAXX  15121 02151 45683 /3502 10102 20007 39853 40185 57003 333 82/48 88/56;",
"02151099999","2010-06-15T15:00:00","4","66.4833333","20.1666666","275.0","JOKKMOKK FPL, SW","FM-12","99999","V020","330,1,N,0030,1","99999,9,9,N","040000,1,N,1","+0122,1","+0000,1","10176,1",,,"04,1,+01800,1,99,9",,,,"99999,9,09847,1","7,1,006,1,+999,9","SYN070AAXX  15151 02151 45782 /3303 10122 20000 39847 40176 57006 333 84/56;",
"02151099999","2010-06-15T18:00:00","4","66.4833333","20.1666666","275.0","JOKKMOKK FPL, SW","FM-12","99999","V020","270,1,N,0010,1","99999,9,9,N","050000,1,N,1","+0102,1","+0027,1","10174,1",,,"01,1,+02400,1,99,9",,"120,M,+0131,1","999,N,+0070,1","99999,9,09842,1","7,1,005,1,+999,9","SYN082AAXX  15181 02151 45984 /2701 10102 20027 39842 40174 57005 333 10131 20070 81/58;",
"02151099999","2010-06-15T21:00:00","4","66.4833333","20.1666666","275.0","JOKKMOKK FPL, SW","FM-12","99999","V020","320,1,N,0030,1","02100,1,C,N","050000,1,N,1","+0080,1","+0022,1","10184,1",,,"07,1,+02100,1,99,9",,,,"99999,9,09850,1","3,1,008,1,+999,9","SYN070AAXX  15211 02151 45884 /3203 10080 20022 39850 40184 53008 333 87/57;",
"02151099999","2010-06-16T00:00:00","4","66.4833333","20.1666666","275.0","JOKKMOKK FPL, SW","FM-12","99999","V020","300,1,N,0020,1","99999,9,9,N","050000,1,N,1","+0039,1","+0010,1","10191,1",,,"01,1,+02100,1,99,9",,,,"99999,9,09851,1","0,1,001,1,+999,9","SYN070AAXX  16001 02151 45884 /3002 10039 20010 39851 40191 50001 333 81/57;",
"02151099999","2010-06-16T03:00:00","4","66.4833333","20.1666666","275.0","JOKKMOKK FPL, SW","FM-12","99999","V020","310,1,N,0030,1","99999,9,9,N","050000,1,N,1","+0062,1","+0020,1","10182,1",,,,,,,"99999,9,09845,1","8,1,006,1,+999,9","SYN060AAXX  16031 02151 45984 /3103 10062 20020 39845 40182 58006;",
"02151099999","2010-06-16T06:00:00","4","66.4833333","20.1666666","275.0","JOKKMOKK FPL, SW","FM-12","99999","V020","290,1,N,0020,1","99999,9,9,N","040000,1,N,1","+0096,1","+0019,1","10169,1",,,,,"120,M,+0115,1","999,N,+0029,1","99999,9,09837,1","8,1,009,1,+999,9","SYN076AAXX  16061 02151 45982 /2902 10096 20019 39837 40169 58009 333 10115 20029;",
"02151099999","2010-06-16T09:00:00","4","66.4833333","20.1666666","275.0","JOKKMOKK FPL, SW","FM-12","99999","V020","310,1,N,0030,1","01500,1,C,N","050000,1,N,1","+0115,1","+0008,1","10154,1",,,"07,1,+01500,1,99,9",,,,"99999,9,09825,1","7,1,012,1,+999,9","SYN076AAXX  16091 02151 45784 /3103 10115 20008 39825 40154 57012 333 87/50 88/69;",
"02151099999","2010-06-16T12:00:00","4","66.4833333","20.1666666","275.0","JOKKMOKK FPL, SW","FM-12","99999","V020","310,1,N,0030,1","01800,1,C,N","045000,1,N,1","+0139,1","+0029,1","10141,1",,,"05,1,+01800,1,99,9",,,,"99999,9,09815,1","8,1,010,1,+999,9","SYN070AAXX  16121 02151 45783 /3103 10139 20029 39815 40141 58010 333 85/56;",
"02151099999","2010-06-16T15:00:00","4","66.4833333","20.1666666","275.0","JOKKMOKK FPL, SW","FM-12","99999","V020","310,1,N,0070,1","01500,1,C,N","050000,1,N,1","+0139,1","+0045,1","10134,1","23,1","8,1,03,1","07,1,+01500,1,99,9",,,,"99999,9,09808,1","7,1,007,1,+999,9","SYN076AAXX  16151 02151 47784 /3107 10139 20045 39808 40134 57007 72386 333 87/50;",
"02151099999","2010-06-16T18:00:00","4","66.4833333","20.1666666","275.0","JOKKMOKK FPL, SW","FM-12","99999","V020","280,1,N,0050,1","99999,9,9,N","050000,1,N,1","+0106,1","+0054,1","10140,1","00,1","8,1,06,1","04,1,+02700,1,99,9",,"120,M,+0157,1","999,N,+0091,1","99999,9,09810,1","0,1,002,1,+999,9","SYN088AAXX  16181 02151 47984 /2805 10106 20054 39810 40140 50002 70086 333 10157 20091 84/59;",
"02151099999","2010-06-16T21:00:00","4","66.4833333","20.1666666","275.0","JOKKMOKK FPL, SW","FM-12","99999","V020","270,1,N,0020,1","02400,1,C,N","050000,1,N,1","+0100,1","+0056,1","10136,1",,,"06,1,+02400,1,99,9",,,,"99999,9,09806,1","7,1,004,1,+999,9","SYN070AAXX  16211 02151 45984 /2702 10100 20056 39806 40136 57004 333 86/58;",
"02151099999","2010-06-17T00:00:00","4","66.4833333","20.1666666","275.0","JOKKMOKK FPL, SW","FM-12","99999","V020","280,1,N,0020,1","99999,9,9,N","050000,1,N,1","+0069,1","+0048,1","10140,1",,,"01,1,+03300,1,99,9",,,,"99999,9,09806,1","0,1,000,1,+999,9","SYN070AAXX  17001 02151 45984 /2802 10069 20048 39806 40140 50000 333 81/61;",
"02151099999","2010-06-17T03:00:00","4","66.4833333","20.1666666","275.0","JOKKMOKK FPL, SW","FM-12","99999","V020","310,1,N,0020,1","99999,9,9,N","050000,1,N,1","+0085,1","+0058,1","10140,1",,,,,,,"99999,9,09808,1","2,1,002,1,+999,9","SYN060AAXX  17031 02151 45984 /3102 10085 20058 39808 40140 52002;",
"02151099999","2010-06-17T06:00:00","4","66.4833333","20.1666666","275.0","JOKKMOKK FPL, SW","FM-12","99999","V020","340,1,N,0030,1","99999,9,9,N","040000,1,N,1","+0119,1","+0057,1","10129,1",,,"02,1,+01020,1,99,9",,"120,M,+0121,1","999,N,+0059,1","99999,9,09800,1","7,1,007,1,+999,9","SYN082AAXX  17061 02151 45682 /3403 10119 20057 39800 40129 57007 333 10121 20059 82/34;",
"02151099999","2010-06-17T09:00:00","4","66.4833333","20.1666666","275.0","JOKKMOKK FPL, SW","FM-12","99999","V020","270,1,N,0020,1","01500,1,C,N","045000,1,N,1","+0138,1","+0042,1","10116,1",,,"06,1,+01500,1,99,9",,,,"99999,9,09790,1","7,1,011,1,+999,9","SYN070AAXX  17091 02151 45783 /2702 10138 20042 39790 40116 57011 333 86/50;",
"02151099999","2010-06-17T12:00:00","4","66.4833333","20.1666666","275.0","JOKKMOKK FPL, SW","FM-12","99999","V020","240,1,N,0030,1","99999,9,9,N","050000,1,N,1","+0143,1","+0035,1","10104,1",,,"01,1,+04500,1,99,9",,,,"99999,9,09780,1","7,1,010,1,+999,9","SYN070AAXX  17121 02151 45984 /2403 10143 20035 39780 40104 57010 333 81/65;",
"02151099999","2010-06-17T15:00:00","4","66.4833333","20.1666666","275.0","JOKKMOKK FPL, SW","FM-12","99999","V020","270,1,N,0010,1","03600,1,C,N","050000,1,N,1","+0158,1","+0026,1","10085,1",,,"05,1,+03600,1,99,9",,,,"99999,9,09762,1","8,1,018,1,+999,9","SYN070AAXX  17151 02151 45984 /2701 10158 20026 39762 40085 58018 333 85/62;",
"02151099999","2010-06-17T18:00:00","4","66.4833333","20.1666666","275.0","JOKKMOKK FPL, SW","FM-12","99999","V020","310,1,N,0030,1","99999,9,9,N","050000,1,N,1","+0141,1","+0048,1","10075,1",,,"04,1,+02100,1,99,9",,"120,M,+0165,1","999,N,+0117,1","99999,9,09751,1","7,1,011,1,+999,9","SYN082AAXX  17181 02151 45884 /3103 10141 20048 39751 40075 57011 333 10165 20117 84/57;",
"02151099999","2010-06-17T21:00:00","4","66.4833333","20.1666666","275.0","JOKKMOKK FPL, SW","FM-12","99999","V020","250,1,N,0010,1","01500,1,C,N","050000,1,N,1","+0117,1","+0066,1","10067,1","52,1","8,1,03,1","08,1,+01500,1,99,9",,,,"99999,9,09741,1","7,1,011,1,+999,9","SYN076AAXX  17211 02151 47784 /2501 10117 20066 39741 40067 57011 75285 333 88/50;",
"02151099999","2010-06-18T00:00:00","4","66.4833333","20.1666666","275.0","JOKKMOKK FPL, SW","FM-12","99999","V020","999,9,C,0000,1","01500,1,C,N","050000,1,N,1","+0088,1","+0068,1","10056,1","00,1","6,1,06,1","08,1,+01500,1,99,9",,,,"99999,9,09727,1","7,1,014,1,+999,9","SYN076AAXX  18001 02151 47784 /0000 10088 20068 39727 40056 57014 70065 333 88/50;",
"02151099999","2010-06-18T03:00:00","4","66.4833333","20.1666666","275.0","JOKKMOKK FPL, SW","FM-12","99999","V020","999,9,C,0000,1","01500,1,C,N","050000,1,N,1","+0102,1","+0075,1","10044,1",,,"08,1,+01500,1,99,9",,,,"99999,9,09717,1","8,1,010,1,+999,9","SYN070AAXX  18031 02151 45784 /0000 10102 20075 39717 40044 58010 333 88/50;",
"02151099999","2010-06-18T06:00:00","4","66.4833333","20.1666666","275.0","JOKKMOKK FPL, SW","FM-12","99999","V020","100,1,N,0010,1","01500,1,C,N","050000,1,N,1","+0121,1","+0068,1","10040,1",,,"08,1,+01500,1,99,9",,"120,M,+0142,1","999,N,+0077,1","99999,9,09715,1","5,1,001,1,+999,9","SYN082AAXX  18061 02151 45784 /1001 10121 20068 39715 40040 55001 333 10142 20077 88/50;",
"02151099999","2010-06-18T09:00:00","4","66.4833333","20.1666666","275.0","JOKKMOKK FPL, SW","FM-12","99999","V020","130,1,N,0040,1","22000,1,C,N","040000,1,N,1","+0138,1","+0079,1","10040,1",,,"01,1,+00960,1,99,9","04,1,+01320,1,99,9",,,"99999,9,09717,1","2,1,002,1,+999,9","SYN082AAXX  18091 02151 45582 /1304 10138 20079 39717 40040 52002 333 81/32 84/44 88/56;",
"02151099999","2010-06-18T12:00:00","4","66.4833333","20.1666666","275.0","JOKKMOKK FPL, SW","FM-12","99999","V020","130,1,N,0040,1","01800,1,C,N","050000,1,N,1","+0155,1","+0078,1","10038,1",,,"08,1,+01800,1,99,9",,,,"99999,9,09716,1","4,1,000,1,+999,9","SYN070AAXX  18121 02151 45784 /1304 10155 20078 39716 40038 54001 333 88/56;",
"02151099999","2010-06-18T15:00:00","4","66.4833333","20.1666666","275.0","JOKKMOKK FPL, SW","FM-12","99999","V020","110,1,N,0060,1","22000,1,C,N","040000,1,N,1","+0172,1","+0041,1","10036,1",,,"01,1,+01800,1,99,9","04,1,+02100,1,99,9",,,"99999,9,09717,1","4,1,000,1,+999,9","SYN082AAXX  18151 02151 45782 /1106 10172 20041 39717 40036 54001 333 81/56 84/57 86/61;",
"02151099999","2010-06-18T18:00:00","4","66.4833333","20.1666666","275.0","JOKKMOKK FPL, SW","FM-12","99999","V020","130,1,N,0040,1","02400,1,C,N","050000,1,N,1","+0157,1","+0073,1","10043,1",,,"07,1,+02400,1,99,9",,"120,M,+0180,1","999,N,+0121,1","99999,9,09721,1","2,1,004,1,+999,9","SYN082AAXX  18181 02151 45984 /1304 10157 20073 39721 40043 52004 333 10180 20121 87/58;",
"02151099999","2010-06-18T21:00:00","4","66.4833333","20.1666666","275.0","JOKKMOKK FPL, SW","FM-12","99999","V020","999,9,C,0000,1","01500,1,C,N","050000,1,N,1","+0122,1","+0090,1","10051,1",,,"05,1,+01500,1,99,9",,,,"99999,9,09725,1","0,1,004,1,+999,9","SYN076AAXX  18211 02151 45784 /0000 10122 20090 39725 40051 50004 333 85/50 87/59;",
"02151099999","2010-06-19T00:00:00","4","66.4833333","20.1666666","275.0","JOKKMOKK FPL, SW","FM-12","99999","V020","999,9,C,0000,1","99999,9,9,N","026000,1,N,1","+0100,1","+0099,1","10059,1","52,1","8,1,06,1","03,1,+01500,1,99,9",,,,"99999,9,09731,1","0,1,005,1,+999,9","SYN076AAXX  19001 02151 47776 /0000 10100 20099 39731 40059 50005 75286 333 83/50;",
"02151099999","2010-06-19T03:00:00","4","66.4833333","20.1666666","275.0","JOKKMOKK FPL, SW","FM-12","99999","V020","999,9,C,0000,1","99999,9,9,N","018000,1,N,1","+0103,1","+0103,1","10055,1","61,1","6,1,03,1","01,1,+01350,1,99,9",,,,"99999,9,09727,1","5,1,004,1,+999,9","SYN076AAXX  19031 02151 47668 /0000 10103 20103 39727 40055 55004 76165 333 81/45;",
"02151099999","2010-06-19T06:00:00","4","66.4833333","20.1666666","275.0","JOKKMOKK FPL, SW","FM-12","99999","V020","150,1,N,0020,1","99999,9,9,N","017000,1,N,1","+0106,1","+0102,1","10052,1","61,1","6,1,06,1","02,1,+00210,1,99,9",,"120,M,+0157,1","999,N,+0097,1","99999,9,09725,1","5,1,002,1,+999,9","SYN088AAXX  19061 02151 47367 /1502 10106 20102 39725 40052 55002 76165 333 10157 20097 82/07;",
"02151099999","2010-06-19T09:00:00","4","66.4833333","20.1666666","275.0","JOKKMOKK FPL, SW","FM-12","99999","V020","140,1,N,0050,1","00450,1,C,N","045000,1,N,1","+0121,1","+0107,1","10049,1","00,1","8,1,03,1","05,1,+00450,1,99,9","07,1,+01050,1,99,9",,,"99999,9,09724,1","0,1,001,1,+999,9","SYN088AAXX  19091 02151 47483 /1405 10121 20107 39724 40049 50001 70086 333 85/15 87/35 88/58;",
"02151099999","2010-06-19T12:00:00","4","66.4833333","20.1666666","275.0","JOKKMOKK FPL, SW","FM-12","99999","V020","110,1,N,0030,1","99999,9,9,N","035000,1,N,1","+0113,1","+0110,1","10038,1","61,1","8,1,06,1","03,1,+00240,1,99,9",,,,"99999,9,09712,1","8,1,012,1,+999,9","SYN082AAXX  19121 02151 47381 /1103 10113 20110 39712 40038 58012 76186 333 83/08 85/11;",
"02151099999","2010-06-19T15:00:00","4","66.4833333","20.1666666","275.0","JOKKMOKK FPL, SW","FM-12","99999","V020","140,1,N,0040,1","00300,1,C,N","030000,1,N,1","+0118,1","+0117,1","10031,1","23,1","8,1,03,1","04,1,+00210,1,99,9","07,1,+00300,1,99,9",,,"99999,9,09705,1","7,1,007,1,+999,9","SYN088AAXX  19151 02151 47380 /1404 10118 20117 39705 40031 57007 72386 333 84/07 87/10 88/24;",
"02151099999","2010-06-19T18:00:00","4","66.4833333","20.1666666","275.0","JOKKMOKK FPL, SW","FM-12","99999","V020","140,1,N,0040,1","00360,1,C,N","045000,1,N,1","+0116,1","+0113,1","10024,1","00,1","8,1,06,1","04,1,+00240,1,99,9","07,1,+00360,1,99,9","120,M,+0122,1","999,N,+0104,1","99999,9,09699,1","5,1,007,1,+999,9","SYN100AAXX  19181 02151 47383 /1404 10116 20113 39699 40024 55007 70086 333 10122 20104 84/08 87/12 88/15;",
"02151099999","2010-06-19T21:00:00","4","66.4833333","20.1666666","275.0","JOKKMOKK FPL, SW","FM-12","99999","V020","120,1,N,0020,1","00240,1,C,N","011000,1,N,1","+0105,1","+0104,1","10023,1","61,1","6,1,03,1","09,1,+00240,1,99,9",,,,"99999,9,09697,1","7,1,002,1,+999,9","SYN076AAXX  19211 02151 47/61 /1202 10105 20104 39697 40023 57002 76165 333 89/08;",
"02151099999","2010-06-20T00:00:00","4","66.4833333","20.1666666","275.0","JOKKMOKK FPL, SW","FM-12","99999","V020","100,1,N,0020,1","99999,9,9,N","013000,1,N,1","+0097,1","+0097,1","10017,1","61,1","6,1,06,1","01,1,+00180,1,99,9","03,1,+00390,1,99,9",,,"99999,9,09690,1","8,1,007,1,+999,9","SYN088AAXX  20001 02151 47263 /1002 10097 20097 39690 40017 58007 76165 333 81/06 83/13 85/22;",
"02151099999","2010-06-20T03:00:00","4","66.4833333","20.1666666","275.0","JOKKMOKK FPL, SW","FM-12","99999","V020","999,9,C,0000,1","22000,1,C,N","009000,1,N,1","+0096,1","+0096,1","10007,1","61,1","6,1,03,1","01,1,+00150,1,99,9","04,1,+00240,1,99,9",,,"99999,9,09680,1","7,1,010,1,+999,9","SYN088AAXX  20031 02151 47259 /0000 10096 20096 39680 40007 57010 76165 333 81/05 84/08 88/11;",
"02151099999","2010-06-20T06:00:00","4","66.4833333","20.1666666","275.0","JOKKMOKK FPL, SW","FM-12","99999","V020","340,1,N,0020,1","00150,1,C,N","030000,1,N,1","+0104,1","+0104,1","09992,1","61,1","6,1,06,1","08,1,+00150,1,99,9",,"120,M,+0116,1","999,N,+0095,1","99999,9,09666,1","7,1,013,1,+999,9","SYN088AAXX  20061 02151 47280 /3402 10104 20104 39666 49992 57013 76165 333 10116 20095 88/05;",
"02151099999","2010-06-20T09:00:00","4","66.4833333","20.1666666","275.0","JOKKMOKK FPL, SW","FM-12","99999","V020","310,1,N,0040,1","00210,1,C,N","012000,1,N,1","+0087,1","+0086,1","10000,1","61,1","6,1,03,1","08,1,+00210,1,99,9",,,,"99999,9,09673,1","2,1,006,1,+999,9","SYN076AAXX  20091 02151 47362 /3104 10087 20086 39673 40000 52006 76165 333 88/07;",
"02151099999","2010-06-20T12:00:00","4","66.4833333","20.1666666","275.0","JOKKMOKK FPL, SW","FM-12","99999","V020","300,1,N,0050,1","00240,1,C,N","015000,1,N,1","+0079,1","+0076,1","10008,1","52,1","6,1,06,1","07,1,+00240,1,99,9",,,,"99999,9,09679,1","3,1,007,1,+999,9","SYN082AAXX  20121 02151 47365 /3005 10079 20076 39679 40008 53007 75265 333 87/08 88/12;",
"02151099999","2010-06-20T15:00:00","4","66.4833333","20.1666666","275.0","JOKKMOKK FPL, SW","FM-12","99999","V020","320,1,N,0040,1","99999,9,9,N","050000,1,N,1","+0079,1","+0076,1","10021,1","61,1","8,1,03,1",,,,,"99999,9,09692,1","3,1,012,1,+999,9","SYN066AAXX  20151 02151 47984 /3204 10079 20076 39692 40021 53012 76186;",
"02151099999","2010-06-20T18:00:00","4","66.4833333","20.1666666","275.0","JOKKMOKK FPL, SW","FM-12","99999","V020","999,9,C,0000,1","01140,1,C,N","050000,1,N,1","+0083,1","+0078,1","10040,1","22,1","8,1,06,1","08,1,+01140,1,99,9",,"120,M,+0109,1","999,N,+0073,1","99999,9,09711,1","1,1,019,1,+999,9","SYN088AAXX  20181 02151 47684 /0000 10083 20078 39711 40040 51019 72286 333 10109 20073 88/38;",
"02151099999","2010-06-20T21:00:00","4","66.4833333","20.1666666","275.0","JOKKMOKK FPL, SW","FM-12","99999","V020","320,1,N,0030,1","00660,1,C,N","009000,1,N,1","+0068,1","+0059,1","10060,1","81,1","8,1,03,1","01,1,+00390,1,99,9","05,1,+00660,1,99,9",,,"99999,9,09728,1","3,1,017,1,+999,9","SYN088AAXX  20211 02151 47459 /3203 10068 20059 39728 40060 53017 78186 333 81/13 85/22 88/25;",
"02151099999","2010-06-21T00:00:00","4","66.4833333","20.1666666","275.0","JOKKMOKK FPL, SW","FM-12","99999","V020","310,1,N,0030,1","00810,1,C,N","014000,1,N,1","+0048,1","+0043,1","10078,1","61,1","8,1,06,1","06,1,+00810,1,99,9",,,,"99999,9,09743,1","3,1,015,1,+999,9","SYN076AAXX  21001 02151 47564 /3103 10048 20043 39743 40078 53015 76186 333 86/27;",
"02151099999","2010-06-21T03:00:00","4","66.4833333","20.1666666","275.0","JOKKMOKK FPL, SW","FM-12","99999","V020","270,1,N,0020,1","99999,9,9,N","050000,1,N,1","+0042,1","+0038,1","10097,1","23,1","6,1,03,1","02,1,+01290,1,99,9",,,,"99999,9,09761,1","0,1,018,1,+999,9","SYN082AAXX  21031 02151 47684 /2702 10042 20038 39761 40097 50018 72362 333 82/43 85/56;",
"02151099999","2010-06-21T06:00:00","4","66.4833333","20.1666666","275.0","JOKKMOKK FPL, SW","FM-12","99999","V020","290,1,N,0040,1","99999,9,9,N","045000,1,N,1","+0078,1","+0037,1","10110,1","00,1","6,1,06,1",,,"120,M,+0084,1","999,N,+0041,1","99999,9,09778,1","2,1,017,1,+999,9","SYN082AAXX  21061 02151 47983 /2904 10078 20037 39778 40110 52017 70062 333 10084 20041;",
"02151099999","2010-06-21T09:00:00","4","66.4833333","20.1666666","275.0","JOKKMOKK FPL, SW","FM-12","99999","V020","290,1,N,0050,1","01800,1,C,N","045000,1,N,1","+0096,1","-0003,1","10118,1",,,"08,1,+01800,1,99,9",,,,"99999,9,09787,1","2,1,010,1,+999,9","SYN070AAXX  21091 02151 45783 /2905 10096 21003 39787 40118 52010 333 88/56;",
"02151099999","2010-06-21T12:00:00","4","66.4833333","20.1666666","275.0","JOKKMOKK FPL, SW","FM-12","99999","V020","260,1,N,0030,1","02100,1,C,N","045000,1,N,1","+0122,1","+0006,1","10114,1",,,"05,1,+02100,1,99,9",,,,"99999,9,09787,1","4,1,000,1,+999,9","SYN070AAXX  21121 02151 45883 /2603 10122 20006 39787 40114 54001 333 85/57;",
"02151099999","2010-06-21T15:00:00","4","66.4833333","20.1666666","275.0","JOKKMOKK FPL, SW","FM-12","99999","V020","260,1,N,0040,1","02400,1,C,N","050000,1,N,1","+0115,1","+0000,1","10117,1",,,"08,1,+02400,1,99,9",,,,"99999,9,09789,1","2,1,002,1,+999,9","SYN070AAXX  21151 02151 45984 /2604 10115 20000 39789 40117 52002 333 88/58;",
"02151099999","2010-06-21T18:00:00","4","66.4833333","20.1666666","275.0","JOKKMOKK FPL, SW","FM-12","99999","V020","300,1,N,0050,1","02400,1,C,N","045000,1,N,1","+0107,1","+0005,1","10122,1",,,"05,1,+02400,1,99,9",,"120,M,+0129,1","999,N,+0076,1","99999,9,09793,1","2,1,004,1,+999,9","SYN082AAXX  21181 02151 45983 /3005 10107 20005 39793 40122 52004 333 10129 20076 85/58;",
"02151099999","2010-06-21T21:00:00","4","66.4833333","20.1666666","275.0","JOKKMOKK FPL, SW","FM-12","99999","V020","260,1,N,0020,1","99999,9,9,N","050000,1,N,1","+0064,1","+0008,1","10137,1",,,,,,,"99999,9,09802,1","2,1,009,1,+999,9","SYN060AAXX  21211 02151 45984 /2602 10064 20008 39802 40137 52009;",
"02151099999","2010-06-22T00:00:00","4","66.4833333","20.1666666","275.0","JOKKMOKK FPL, SW","FM-12","99999","V020","270,1,N,0020,1","99999,9,9,N","050000,1,N,1","+0053,1","+0008,1","10136,1",,,,,,,"99999,9,09799,1","7,1,003,1,+999,9","SYN060AAXX  22001 02151 45984 /2702 10053 20008 39799 40136 57003;",
"02151099999","2010-06-22T03:00:00","4","66.4833333","20.1666666","275.0","JOKKMOKK FPL, SW","FM-12","99999","V020","280,1,N,0010,1","99999,9,9,N","045000,1,N,1","+0068,1","+0015,1","10127,1",,,,,,,"99999,9,09793,1","8,1,006,1,+999,9","SYN060AAXX  22031 02151 45983 /2801 10068 20015 39793 40127 58006;",
"02151099999","2010-06-22T06:00:00","4","66.4833333","20.1666666","275.0","JOKKMOKK FPL, SW","FM-12","99999","V020","260,1,N,0030,1","99999,9,9,N","050000,1,N,1","+0100,1","+0033,1","10120,1",,,,,"120,M,+0108,1","999,N,+0040,1","99999,9,09790,1","7,1,003,1,+999,9","SYN076AAXX  22061 02151 45984 /2603 10100 20033 39790 40120 57003 333 10108 20040;",
"02151099999","2010-06-22T09:00:00","4","66.4833333","20.1666666","275.0","JOKKMOKK FPL, SW","FM-12","99999","V020","240,1,N,0060,1","03300,1,C,N","045000,1,N,1","+0113,1","+0035,1","10113,1",,,"08,1,+03300,1,99,9",,,,"99999,9,09785,1","8,1,005,1,+999,9","SYN070AAXX  22091 02151 45983 /2406 10113 20035 39785 40113 58005 333 88/61;",
"02151099999","2010-06-22T12:00:00","4","66.4833333","20.1666666","275.0","JOKKMOKK FPL, SW","FM-12","99999","V020","260,1,N,0060,1","03000,1,C,N","045000,1,N,1","+0118,1","+0030,1","10114,1",,,"08,1,+03000,1,99,9",,,,"99999,9,09786,1","5,1,001,1,+999,9","SYN070AAXX  22121 02151 45983 /2606 10118 20030 39786 40114 55001 333 88/60;",
"02151099999","2010-06-22T15:00:00","4","66.4833333","20.1666666","275.0","JOKKMOKK FPL, SW","FM-12","99999","V020","270,1,N,0050,1","99999,9,9,N","050000,1,N,1","+0116,1","+0035,1","10112,1",,,"03,1,+01440,1,99,9",,,,"99999,9,09784,1","7,1,001,1,+999,9","SYN070AAXX  22151 02151 45684 /2705 10116 20035 39784 40112 57001 333 83/48;",
"02151099999","2010-06-22T18:00:00","4","66.4833333","20.1666666","275.0","JOKKMOKK FPL, SW","FM-12","99999","V020","260,1,N,0060,1","01800,1,C,N","050000,1,N,1","+0107,1","+0043,1","10114,1","00,1","8,1,06,1","05,1,+01800,1,99,9",,"120,M,+0131,1","999,N,+0097,1","99999,9,09785,1","4,1,000,1,+999,9","SYN088AAXX  22181 02151 47784 /2606 10107 20043 39785 40114 54001 70086 333 10131 20097 85/56;",
"02151099999","2010-06-22T21:00:00","4","66.4833333","20.1666666","275.0","JOKKMOKK FPL, SW","FM-12","99999","V020","280,1,N,0040,1","99999,9,9,N","050000,1,N,1","+0082,1","+0028,1","10123,1",,,"02,1,+03600,1,99,9",,,,"99999,9,09791,1","2,1,006,1,+999,9","SYN070AAXX  22211 02151 45984 /2804 10082 20028 39791 40123 52006 333 82/62;",
"02151099999","2010-06-23T00:00:00","4","66.4833333","20.1666666","275.0","JOKKMOKK FPL, SW","FM-12","99999","V020","270,1,N,0030,1","99999,9,9,N","050000,1,N,1","+0058,1","+0012,1","10133,1",,,,,,,"99999,9,09797,1","2,1,007,1,+999,9","SYN060AAXX  23001 02151 45984 /2703 10058 20012 39797 40133 52007;",
"02151099999","2010-06-23T03:00:00","4","66.4833333","20.1666666","275.0","JOKKMOKK FPL, SW","FM-12","99999","V020","290,1,N,0010,1","99999,9,9,N","050000,1,N,1","+0074,1","+0020,1","10142,1",,,,,,,"99999,9,09808,1","3,1,011,1,+999,9","SYN060AAXX  23031 02151 45984 /2901 10074 20020 39808 40142 53011;",
"02151099999","2010-06-23T06:00:00","4","66.4833333","20.1666666","275.0","JOKKMOKK FPL, SW","FM-12","99999","V020","310,1,N,0050,1","99999,9,9,N","050000,1,N,1","+0105,1","+0022,1","10148,1",,,,,"120,M,+0108,1","999,N,+0054,1","99999,9,09818,1","2,1,009,1,+999,9","SYN076AAXX  23061 02151 45984 /3105 10105 20022 39818 40148 52009 333 10108 20054;",
"02151099999","2010-06-23T09:00:00","4","66.4833333","20.1666666","275.0","JOKKMOKK FPL, SW","FM-12","99999","V020","330,1,N,0020,1","99999,9,9,N","045000,1,N,1","+0131,1","+0025,1","10153,1",,,"02,1,+01500,1,99,9",,,,"99999,9,09826,1","2,1,008,1,+999,9","SYN070AAXX  23091 02151 45783 /3302 10131 20025 39826 40153 52008 333 82/50;",
"02151099999","2010-06-23T12:00:00","4","66.4833333","20.1666666","275.0","JOKKMOKK FPL, SW","FM-12","99999","V020","360,1,N,0010,1","01800,1,C,N","040000,1,N,1","+0146,1","+0029,1","10153,1",,,"07,1,+01800,1,99,9",,,,"99999,9,09827,1","4,1,000,1,+999,9","SYN076AAXX  23121 02151 45782 /3601 10146 20029 39827 40153 54001 333 87/56 88/69;",
"02151099999","2010-06-23T15:00:00","4","66.4833333","20.1666666","275.0","JOKKMOKK FPL, SW","FM-12","99999","V020","290,1,N,0020,1","01800,1,C,N","050000,1,N,1","+0152,1","+0045,1","10155,1",,,"08,1,+01800,1,99,9",,,,"99999,9,09829,1","2,1,003,1,+999,9","SYN070AAXX  23151 02151 45784 /2902 10152 20045 39829 40155 52003 333 88/56;",
"02151099999","2010-06-23T18:00:00","4","66.4833333","20.1666666","275.0","JOKKMOKK FPL, SW","FM-12","99999","V020","330,1,N,0020,1","01800,1,C,N","035000,1,N,1","+0148,1","+0052,1","10153,1",,,"08,1,+01800,1,99,9",,"120,M,+0159,1","999,N,+0104,1","99999,9,09828,1","5,1,002,1,+999,9","SYN082AAXX  23181 02151 45781 /3302 10148 20052 39828 40153 55002 333 10159 20104 88/56;",
"02151099999","2010-06-23T21:00:00","4","66.4833333","20.1666666","275.0","JOKKMOKK FPL, SW","FM-12","99999","V020","280,1,N,0020,1","99999,9,9,N","050000,1,N,1","+0113,1","+0054,1","10165,1",,,"03,1,+01800,1,99,9",,,,"99999,9,09835,1","2,1,007,1,+999,9","SYN070AAXX  23211 02151 45784 /2802 10113 20054 39835 40165 52007 333 83/56;",
"02151099999","2010-06-24T00:00:00","4","66.4833333","20.1666666","275.0","JOKKMOKK FPL, SW","FM-12","99999","V020","290,1,N,0020,1","04500,1,C,N","050000,1,N,1","+0068,1","+0039,1","10171,1",,,"06,1,+04500,1,99,9",,,,"99999,9,09836,1","2,1,001,1,+999,9","SYN070AAXX  24001 02151 45984 /2902 10068 20039 39836 40171 52001 333 86/65;",
"02151099999","2010-06-24T03:00:00","4","66.4833333","20.1666666","275.0","JOKKMOKK FPL, SW","FM-12","99999","V020","330,1,N,0010,1","04200,1,C,N","050000,1,N,1","+0077,1","+0051,1","10170,1",,,"07,1,+04200,1,99,9",,,,"99999,9,09836,1","4,1,000,1,+999,9","SYN070AAXX  24031 02151 45984 /3301 10077 20051 39836 40170 54000 333 87/64;",
"02151099999","2010-06-24T06:00:00","4","66.4833333","20.1666666","275.0","JOKKMOKK FPL, SW","FM-12","99999","V020","220,1,N,0010,1","99999,9,9,N","045000,1,N,1","+0120,1","+0064,1","10161,1",,,"03,1,+04200,1,99,9",,"120,M,+0148,1","999,N,+0058,1","99999,9,09832,1","7,1,004,1,+999,9","SYN082AAXX  24061 02151 45983 /2201 10120 20064 39832 40161 57004 333 10148 20058 83/64;",
"02151099999","2010-06-24T09:00:00","4","66.4833333","20.1666666","275.0","JOKKMOKK FPL, SW","FM-12","99999","V020","160,1,N,0020,1","99999,9,9,N","035000,1,N,1","+0161,1","+0048,1","10146,1",,,,,,,"99999,9,09822,1","7,1,011,1,+999,9","SYN060AAXX  24091 02151 45981 /1602 10161 20048 39822 40146 57011;",
"02151099999","2010-06-24T12:00:00","4","66.4833333","20.1666666","275.0","JOKKMOKK FPL, SW","FM-12","99999","V020","240,1,N,0030,1","99999,9,9,N","040000,1,N,1","+0191,1","+0035,1","10131,1",,,"01,1,+06000,1,99,9",,,,"99999,9,09810,1","8,1,011,1,+999,9","SYN070AAXX  24121 02151 45982 /2403 10191 20035 39810 40131 58011 333 81/70;",
"02151099999","2010-06-24T15:00:00","4","66.4833333","20.1666666","275.0","JOKKMOKK FPL, SW","FM-12","99999","V020","220,1,N,0020,1","99999,9,9,N","040000,1,N,1","+0209,1","+0047,1","10117,1",,,"01,1,+02100,1,99,9",,,,"99999,9,09799,1","8,1,012,1,+999,9","SYN070AAXX  24151 02151 45882 /2202 10209 20047 39799 40117 58012 333 81/57;",
"02151099999","2010-06-24T18:00:00","4","66.4833333","20.1666666","275.0","JOKKMOKK FPL, SW","FM-12","99999","V020","160,1,N,0020,1","99999,9,9,N","050000,1,N,1","+0198,1","+0075,1","10109,1",,,,,"120,M,+0213,1","999,N,+0114,1","99999,9,09790,1","7,1,009,1,+999,9","SYN076AAXX  24181 02151 45984 /1602 10198 20075 39790 40109 57009 333 10213 20114;",
"02151099999","2010-06-24T21:00:00","4","66.4833333","20.1666666","275.0","JOKKMOKK FPL, SW","FM-12","99999","V020","110,1,N,0010,1","99999,9,9,N","050000,1,N,1","+0147,1","+0077,1","10123,1",,,,,,,"99999,9,09798,1","2,1,008,1,+999,9","SYN060AAXX  24211 02151 45984 /1101 10147 20077 39798 40123 52008;",
"02151099999","2010-06-25T00:00:00","4","66.4833333","20.1666666","275.0","JOKKMOKK FPL, SW","FM-12","99999","V020","130,1,N,0010,1","01800,1,C,N","050000,1,N,1","+0101,1","+0076,1","10124,1",,,"05,1,+01800,1,99,9",,,,"99999,9,09794,1","7,1,004,1,+999,9","SYN070AAXX  25001 02151 45784 /1301 10101 20076 39794 40124 57004 333 85/56;",
"02151099999","2010-06-25T03:00:00","4","66.4833333","20.1666666","275.0","JOKKMOKK FPL, SW","FM-12","99999","V020","140,1,N,0020,1","01500,1,C,N","050000,1,N,1","+0117,1","+0090,1","10115,1",,,"05,1,+01500,1,99,9",,,,"99999,9,09787,1","7,1,007,1,+999,9","SYN070AAXX  25031 02151 45784 /1402 10117 20090 39787 40115 57007 333 85/50;",
"02151099999","2010-06-25T06:00:00","4","66.4833333","20.1666666","275.0","JOKKMOKK FPL, SW","FM-12","99999","V020","140,1,N,0030,1","02100,1,C,N","045000,1,N,1","+0144,1","+0111,1","10106,1",,,"06,1,+02100,1,99,9",,"120,M,+0199,1","999,N,+0090,1","99999,9,09782,1","7,1,006,1,+999,9","SYN088AAXX  25061 02151 45883 /1403 10144 20111 39782 40106 57006 333 10199 20090 86/57 87/59;",
"02151099999","2010-06-25T09:00:00","4","66.4833333","20.1666666","275.0","JOKKMOKK FPL, SW","FM-12","99999","V020","120,1,N,0050,1","99999,9,9,N","030000,1,N,1","+0187,1","+0131,1","10094,1","00,1","8,1,03,1",,,,,"99999,9,09774,1","7,1,008,1,+999,9","SYN066AAXX  25091 02151 47980 /1205 10187 20131 39774 40094 57008 70086;",
"02151099999","2010-06-25T12:00:00","4","66.4833333","20.1666666","275.0","JOKKMOKK FPL, SW","FM-12","99999","V020","130,1,N,0060,1","02400,1,C,N","045000,1,N,1","+0209,1","+0115,1","10073,1","23,1","8,1,06,1","02,1,+01500,1,99,9","04,1,+02400,1,99,9",,,"99999,9,09756,1","8,1,018,1,+999,9","SYN088AAXX  25121 02151 47783 /1306 10209 20115 39756 40073 58018 72386 333 82/50 84/58 85/67;",
"02151099999","2010-06-25T15:00:00","4","66.4833333","20.1666666","275.0","JOKKMOKK FPL, SW","FM-12","99999","V020","140,1,N,0070,1","99999,9,9,N","045000,1,N,1","+0210,1","+0094,1","10057,1",,,,,,,"99999,9,09741,1","7,1,015,1,+999,9","SYN060AAXX  25151 02151 45983 /1407 10210 20094 39741 40057 57015;",
"02151099999","2010-06-25T18:00:00","4","66.4833333","20.1666666","275.0","JOKKMOKK FPL, SW","FM-12","99999","V020","150,1,N,0040,1","99999,9,9,N","050000,1,N,1","+0186,1","+0085,1","10050,1",,,,,"120,M,+0223,1","999,N,+0137,1","99999,9,09731,1","7,1,010,1,+999,9","SYN076AAXX  25181 02151 45984 /1504 10186 20085 39731 40050 57010 333 10223 20137;",
"02151099999","2010-06-25T21:00:00","4","66.4833333","20.1666666","275.0","JOKKMOKK FPL, SW","FM-12","99999","V020","140,1,N,0040,1","99999,9,9,N","050000,1,N,1","+0153,1","+0083,1","10048,1",,,"01,1,+02100,1,99,9",,,,"99999,9,09726,1","7,1,005,1,+999,9","SYN070AAXX  25211 02151 45884 /1404 10153 20083 39726 40048 57005 333 81/57;",
"02151099999","2010-06-26T00:00:00","4","66.4833333","20.1666666","275.0","JOKKMOKK FPL, SW","FM-12","99999","V020","150,1,N,0010,1","04200,1,C,N","050000,1,N,1","+0116,1","+0078,1","10041,1",,,"05,1,+04200,1,99,9",,,,"99999,9,09716,1","8,1,010,1,+999,9","SYN070AAXX  26001 02151 45984 /1501 10116 20078 39716 40041 58010 333 85/64;",
"02151099999","2010-06-26T03:00:00","4","66.4833333","20.1666666","275.0","JOKKMOKK FPL, SW","FM-12","99999","V020","130,1,N,0010,1","03300,1,C,N","045000,1,N,1","+0142,1","+0091,1","10028,1",,,"06,1,+03300,1,99,9",,,,"99999,9,09706,1","8,1,010,1,+999,9","SYN070AAXX  26031 02151 45983 /1301 10142 20091 39706 40028 58010 333 86/61;",
"02151099999","2010-06-26T06:00:00","4","66.4833333","20.1666666","275.0","JOKKMOKK FPL, SW","FM-12","99999","V020","140,1,N,0010,1","01500,1,C,N","050000,1,N,1","+0160,1","+0107,1","10016,1",,,"06,1,+01500,1,99,9",,"120,M,+0191,1","999,N,+0091,1","99999,9,09696,1","7,1,010,1,+999,9","SYN082AAXX  26061 02151 45784 /1401 10160 20107 39696 40016 57010 333 10191 20091 86/50;",
"02151099999","2010-06-26T09:00:00","4","66.4833333","20.1666666","275.0","JOKKMOKK FPL, SW","FM-12","99999","V020","160,1,N,0030,1","99999,9,9,N","040000,1,N,1","+0183,1","+0111,1","10008,1",,,"01,1,+01140,1,99,9",,,,"99999,9,09690,1","8,1,006,1,+999,9","SYN076AAXX  26091 02151 45682 /1603 10183 20111 39690 40008 58006 333 81/38 84/59;",
"02151099999","2010-06-26T12:00:00","4","66.4833333","20.1666666","275.0","JOKKMOKK FPL, SW","FM-12","99999","V020","240,1,N,0040,1","99999,9,9,N","035000,1,N,1","+0200,1","+0107,1","09996,1",,,"02,1,+01290,1,99,9",,,,"99999,9,09681,1","8,1,010,1,+999,9","SYN076AAXX  26121 02151 45681 /2404 10200 20107 39681 49996 58010 333 82/43 83/50;",
"02151099999","2010-06-26T15:00:00","4","66.4833333","20.1666666","275.0","JOKKMOKK FPL, SW","FM-12","99999","V020","080,1,N,0020,1","99999,9,9,N","019000,1,N,1","+0136,1","+0132,1","10018,1","61,1","6,1,03,1","01,1,+00180,1,99,9",,,,"99999,9,09695,1","3,1,015,1,+999,9","SYN076AAXX  26151 02151 47269 /0802 10136 20132 39695 40018 53015 76165 333 81/06;",
"02151099999","2010-06-26T18:00:00","4","66.4833333","20.1666666","275.0","JOKKMOKK FPL, SW","FM-12","99999","V020","310,1,N,0040,1","01800,1,C,N","050000,1,N,1","+0119,1","+0088,1","10036,1","81,1","8,1,06,1","06,1,+01800,1,99,9",,"120,M,+0202,1","999,N,+0117,1","99999,9,09711,1","1,1,016,1,+999,9","SYN094AAXX  26181 02151 47784 /3104 10119 20088 39711 40036 51016 78186 333 10202 20117 86/56 87/57;",
"02151099999","2010-06-26T21:00:00","4","66.4833333","20.1666666","275.0","JOKKMOKK FPL, SW","FM-12","99999","V020","290,1,N,0040,1","99999,9,9,N","050000,1,N,1","+0100,1","+0045,1","10059,1","00,1","8,1,03,1","02,1,+01800,1,99,9",,,,"99999,9,09731,1","2,1,020,1,+999,9","SYN082AAXX  26211 02151 47784 /2904 10100 20045 39731 40059 52020 70082 333 82/56 88/58;",
"02151099999","2010-06-27T00:00:00","4","66.4833333","20.1666666","275.0","JOKKMOKK FPL, SW","FM-12","99999","V020","290,1,N,0030,1","02400,1,C,N","050000,1,N,1","+0062,1","+0013,1","10080,1","00,1","8,1,06,1","05,1,+02400,1,99,9",,,,"99999,9,09746,1","2,1,015,1,+999,9","SYN076AAXX  27001 02151 47984 /2903 10062 20013 39746 40080 52015 70082 333 85/58;",
"02151099999","2010-06-27T03:00:00","4","66.4833333","20.1666666","275.0","JOKKMOKK FPL, SW","FM-12","99999","V020","310,1,N,0040,1","99999,9,9,N","050000,1,N,1","+0061,1","+0015,1","10090,1",,,,,,,"99999,9,09757,1","2,1,011,1,+999,9","SYN060AAXX  27031 02151 45984 /3104 10061 20015 39757 40090 52011;",
"02151099999","2010-06-27T06:00:00","4","66.4833333","20.1666666","275.0","JOKKMOKK FPL, SW","FM-12","99999","V020","310,1,N,0050,1","99999,9,9,N","050000,1,N,1","+0094,1","+0006,1","10100,1",,,,,"120,M,+0119,1","999,N,+0052,1","99999,9,09770,1","2,1,013,1,+999,9","SYN076AAXX  27061 02151 45984 /3105 10094 20006 39770 40100 52013 333 10119 20052;",
"02151099999","2010-06-27T09:00:00","4","66.4833333","20.1666666","275.0","JOKKMOKK FPL, SW","FM-12","99999","V020","290,1,N,0070,1","01500,1,C,N","045000,1,N,1","+0113,1","+0017,1","10104,1",,,"05,1,+01500,1,99,9",,,,"99999,9,09776,1","2,1,006,1,+999,9","SYN070AAXX  27091 02151 45783 /2907 10113 20017 39776 40104 52006 333 85/50;",
"02151099999","2010-06-27T12:00:00","4","66.4833333","20.1666666","275.0","JOKKMOKK FPL, SW","FM-12","99999","V020","290,1,N,0090,1","01800,1,C,N","040000,1,N,1","+0134,1","+0010,1","10110,1",,,"06,1,+01800,1,99,9",,,,"99999,9,09784,1","2,1,008,1,+999,9","SYN070AAXX  27121 02151 45782 /2909 10134 20010 39784 40110 52008 333 86/56;",
"02151099999","2010-06-27T15:00:00","4","66.4833333","20.1666666","275.0","JOKKMOKK FPL, SW","FM-12","99999","V020","300,1,N,0080,1","99999,9,9,N","050000,1,N,1","+0133,1","+0021,1","10115,1",,,"03,1,+01800,1,99,9",,,,"99999,9,09789,1","2,1,004,1,+999,9","SYN070AAXX  27151 02151 45784 /3008 10133 20021 39789 40115 52004 333 83/56;",
"02151099999","2010-06-27T18:00:00","4","66.4833333","20.1666666","275.0","JOKKMOKK FPL, SW","FM-12","99999","V020","280,1,N,0050,1","99999,9,9,N","050000,1,N,1","+0111,1","+0024,1","10125,1",,,"03,1,+02100,1,99,9",,"120,M,+0140,1","999,N,+0093,1","99999,9,09796,1","2,1,008,1,+999,9","SYN082AAXX  27181 02151 45884 /2805 10111 20024 39796 40125 52008 333 10140 20093 83/57;",
"02151099999","2010-06-27T21:00:00","4","66.4833333","20.1666666","275.0","JOKKMOKK FPL, SW","FM-12","99999","V020","270,1,N,0040,1","99999,9,9,N","050000,1,N,1","+0085,1","+0025,1","10128,1",,,"02,1,+03900,1,99,9",,,,"99999,9,09796,1","4,1,000,1,+999,9","SYN070AAXX  27211 02151 45984 /2704 10085 20025 39796 40128 54000 333 82/63;",
"02151099999","2010-06-28T00:00:00","4","66.4833333","20.1666666","275.0","JOKKMOKK FPL, SW","FM-12","99999","V020","280,1,N,0040,1","99999,9,9,N","050000,1,N,1","+0058,1","+0016,1","10135,1",,,,,,,"99999,9,09800,1","2,1,004,1,+999,9","SYN060AAXX  28001 02151 45984 /2804 10058 20016 39800 40135 52004;",
"02151099999","2010-06-28T03:00:00","4","66.4833333","20.1666666","275.0","JOKKMOKK FPL, SW","FM-12","99999","V020","290,1,N,0030,1","99999,9,9,N","050000,1,N,1","+0071,1","+0025,1","10139,1",,,,,,,"99999,9,09805,1","2,1,005,1,+999,9","SYN060AAXX  28031 02151 45984 /2903 10071 20025 39805 40139 52005;",
"02151099999","2010-06-28T06:00:00","4","66.4833333","20.1666666","275.0","JOKKMOKK FPL, SW","FM-12","99999","V020","310,1,N,0040,1","99999,9,9,N","040000,1,N,1","+0117,1","+0028,1","10146,1",,,,,"120,M,+0120,1","999,N,+0052,1","99999,9,09817,1","3,1,012,1,+999,9","SYN076AAXX  28061 02151 45982 /3104 10117 20028 39817 40146 53012 333 10120 20052;",
"02151099999","2010-06-28T09:00:00","4","66.4833333","20.1666666","275.0","JOKKMOKK FPL, SW","FM-12","99999","V020","300,1,N,0040,1","99999,9,9,N","030000,1,N,1","+0144,1","+0031,1","10150,1",,,,,,,"99999,9,09824,1","2,1,008,1,+999,9","SYN060AAXX  28091 02151 45980 /3004 10144 20031 39824 40150 52008;",
"02151099999","2010-06-28T12:00:00","4","66.4833333","20.1666666","275.0","JOKKMOKK FPL, SW","FM-12","99999","V020","320,1,N,0030,1","99999,9,9,N","045000,1,N,1","+0162,1","+0030,1","10150,1",,,"03,1,+01800,1,99,9",,,,"99999,9,09826,1","2,1,001,1,+999,9","SYN070AAXX  28121 02151 45783 /3203 10162 20030 39826 40150 52001 333 83/56;",
"02151099999","2010-06-28T15:00:00","4","66.4833333","20.1666666","275.0","JOKKMOKK FPL, SW","FM-12","99999","V020","320,1,N,0030,1","02100,1,C,N","050000,1,N,1","+0170,1","+0033,1","10149,1",,,"08,1,+02100,1,99,9",,,,"99999,9,09826,1","4,1,000,1,+999,9","SYN070AAXX  28151 02151 45884 /3203 10170 20033 39826 40149 54000 333 88/57;",
"02151099999","2010-06-28T18:00:00","4","66.4833333","20.1666666","275.0","JOKKMOKK FPL, SW","FM-12","99999","V020","340,1,N,0010,1","99999,9,9,N","050000,1,N,1","+0170,1","+0053,1","10150,1",,,"01,1,+02100,1,99,9",,"120,M,+0182,1","999,N,+0114,1","99999,9,09827,1","4,1,000,1,+999,9","SYN082AAXX  28181 02151 45884 /3401 10170 20053 39827 40150 54001 333 10182 20114 81/57;",
"02151099999","2010-06-28T21:00:00","4","66.4833333","20.1666666","275.0","JOKKMOKK FPL, SW","FM-12","99999","V020","280,1,N,0020,1","99999,9,9,N","050000,1,N,1","+0112,1","+0054,1","10165,1",,,,,,,"99999,9,09834,1","3,1,008,1,+999,9","SYN060AAXX  28211 02151 45984 /2802 10112 20054 39834 40165 53008;",
"02151099999","2010-06-29T00:00:00","4","66.4833333","20.1666666","275.0","JOKKMOKK FPL, SW","FM-12","99999","V020","290,1,N,0010,1","99999,9,9,N","050000,1,N,1","+0046,1","+0041,1","10180,1",,,,,,,"99999,9,09841,1","2,1,007,1,+999,9","SYN060AAXX  29001 02151 45984 /2901 10046 20041 39841 40180 52007;",
"02151099999","2010-06-29T03:00:00","4","66.4833333","20.1666666","275.0","JOKKMOKK FPL, SW","FM-12","99999","V020","999,9,C,0000,1","99999,9,9,N","050000,1,N,1","+0088,1","+0062,1","10174,1",,,,,,,"99999,9,09841,1","4,1,000,1,+999,9","SYN060AAXX  29031 02151 45984 /0000 10088 20062 39841 40174 54001;",
"02151099999","2010-06-29T06:00:00","4","66.4833333","20.1666666","275.0","JOKKMOKK FPL, SW","FM-12","99999","V020","140,1,N,0020,1","99999,9,9,N","040000,1,N,1","+0139,1","+0078,1","10165,1",,,"02,1,+05400,1,99,9",,"120,M,+0170,1","999,N,+0042,1","99999,9,09838,1","7,1,003,1,+999,9","SYN082AAXX  29061 02151 45982 /1402 10139 20078 39838 40165 57003 333 10170 20042 82/68;",
"02151099999","2010-06-29T09:00:00","4","66.4833333","20.1666666","275.0","JOKKMOKK FPL, SW","FM-12","99999","V020","140,1,N,0040,1","99999,9,9,N","035000,1,N,1","+0178,1","+0073,1","10155,1",,,,,,,"99999,9,09832,1","8,1,006,1,+999,9","SYN060AAXX  29091 02151 45981 /1404 10178 20073 39832 40155 58006;",
"02151099999","2010-06-29T12:00:00","4","66.4833333","20.1666666","275.0","JOKKMOKK FPL, SW","FM-12","99999","V020","130,1,N,0040,1","99999,9,9,N","050000,1,N,1","+0195,1","+0073,1","10142,1",,,"04,1,+02100,1,99,9",,,,"99999,9,09821,1","7,1,011,1,+999,9","SYN070AAXX  29121 02151 45884 /1304 10195 20073 39821 40142 57011 333 84/57;",
"02151099999","2010-06-29T15:00:00","4","66.4833333","20.1666666","275.0","JOKKMOKK FPL, SW","FM-12","99999","V020","240,1,N,0020,1","99999,9,9,N","035000,1,N,1","+0174,1","+0117,1","10143,1","81,1","8,1,03,1","01,1,+01440,1,99,9",,,,"99999,9,09821,1","4,1,000,1,+999,9","SYN082AAXX  29151 02151 47681 /2402 10174 20117 39821 40143 54001 78186 333 81/48 84/58;",
"02151099999","2010-06-29T18:00:00","4","66.4833333","20.1666666","275.0","JOKKMOKK FPL, SW","FM-12","99999","V020","130,1,N,0030,1","01500,1,C,N","045000,1,N,1","+0192,1","+0117,1","10133,1","00,1","8,1,06,1","07,1,+01500,1,99,9",,"120,M,+0208,1","999,N,+0137,1","99999,9,09812,1","7,1,009,1,+999,9","SYN094AAXX  29181 02151 47783 /1303 10192 20117 39812 40133 57009 70086 333 10208 20137 87/50 88/56;",
"02151099999","2010-06-29T21:00:00","4","66.4833333","20.1666666","275.0","JOKKMOKK FPL, SW","FM-12","99999","V020","999,9,C,0000,1","99999,9,9,N","050000,1,N,1","+0136,1","+0105,1","10137,1",,,,,,,"99999,9,09810,1","7,1,002,1,+999,9","SYN060AAXX  29211 02151 45984 /0000 10136 20105 39810 40137 57002;",
"02151099999","2010-06-30T00:00:00","4","66.4833333","20.1666666","275.0","JOKKMOKK FPL, SW","FM-12","99999","V020","180,1,N,0020,1","99999,9,9,N","050000,1,N,1","+0135,1","+0119,1","10136,1",,,"03,1,+02400,1,99,9",,,,"99999,9,09809,1","8,1,001,1,+999,9","SYN070AAXX  30001 02151 45884 /1802 10135 20119 39809 40136 58001 333 83/58;",
"02151099999","2010-06-30T03:00:00","4","66.4833333","20.1666666","275.0","JOKKMOKK FPL, SW","FM-12","99999","V020","140,1,N,0030,1","99999,9,9,N","015000,1,N,1","+0125,1","+0125,1","10119,1","00,1","6,1,03,1","01,1,+00210,1,99,9",,,,"99999,9,09791,1","6,1,018,1,+999,9","SYN082AAXX  30031 02151 47365 /1403 10125 20125 39791 40119 56018 70065 333 81/07 83/63;",
"02151099999","2010-06-30T06:00:00","4","66.4833333","20.1666666","275.0","JOKKMOKK FPL, SW","FM-12","99999","V020","999,9,C,0000,1","01800,1,C,N","040000,1,N,1","+0142,1","+0130,1","10116,1","00,1","6,1,06,1","02,1,+00270,1,99,9","04,1,+01800,1,99,9","120,M,+0192,1","999,N,+0106,1","99999,9,09791,1","0,1,000,1,+999,9","SYN100AAXX  30061 02151 47382 /0000 10142 20130 39791 40116 50000 70065 333 10192 20106 82/09 84/56 85/57;",
"02151099999","2010-06-30T09:00:00","4","66.4833333","20.1666666","275.0","JOKKMOKK FPL, SW","FM-12","99999","V020","140,1,N,0010,1","99999,9,9,N","050000,1,N,1","+0164,1","+0129,1","10108,1","00,1","8,1,03,1","04,1,+00750,1,99,9",,,,"99999,9,09785,1","7,1,006,1,+999,9","SYN082AAXX  30091 02151 47584 /1401 10164 20129 39785 40108 57006 70086 333 84/25 86/37;",
"02151099999","2010-06-30T12:00:00","4","66.4833333","20.1666666","275.0","JOKKMOKK FPL, SW","FM-12","99999","V020","090,1,N,0030,1","01110,1,C,N","045000,1,N,1","+0183,1","+0137,1","10095,1","00,1","5,1,06,1","08,1,+01110,1,99,9",,,,"99999,9,09775,1","7,1,011,1,+999,9","SYN076AAXX  30121 02151 47683 /0903 10183 20137 39775 40095 57011 70052 333 88/37;",
"02151099999","2010-06-30T15:00:00","4","66.4833333","20.1666666","275.0","JOKKMOKK FPL, SW","FM-12","99999","V020","310,1,N,0010,1","00720,1,C,N","014000,1,N,1","+0130,1","+0127,1","10097,1","83,1","8,1,03,1","02,1,+00210,1,99,9","05,1,+00720,1,99,9",,,"99999,9,09771,1","5,1,004,1,+999,9","SYN088AAXX  30151 02151 47364 /3101 10130 20127 39771 40097 55004 78386 333 82/07 85/24 88/50;",
"02151099999","2010-06-30T18:00:00","4","66.4833333","20.1666666","275.0","JOKKMOKK FPL, SW","FM-12","99999","V020","999,9,C,0000,1","99999,9,9,N","008000,1,N,1","+0126,1","+0126,1","10098,1","62,1","8,1,06,1","01,1,+00030,1,99,9",,"120,M,+0199,1","999,N,+0124,1","99999,9,09771,1","5,1,001,1,+999,9","SYN094AAXX  30181 02151 47058 /0000 10126 20126 39771 40098 55001 76286 333 10199 20124 81/01 83/28;",
"02151099999","2010-06-30T21:00:00","4","66.4833333","20.1666666","275.0","JOKKMOKK FPL, SW","FM-12","99999","V020","999,9,C,0000,1","99999,9,9,N","005000,1,N,1","+0123,1","+0123,1","10083,1","61,1","6,1,03,1","01,1,+00360,1,99,9",,,,"99999,9,09757,1","6,1,015,1,+999,9","SYN076AAXX  30211 02151 47450 /0000 10123 20123 39757 40083 56015 76165 333 81/12;",
"02151099999","2010-07-01T00:00:00","4","66.4833333","20.1666666","275.0","JOKKMOKK FPL, SW","FM-12","99999","V020","999,9,C,0000,1","99999,9,9,N","008000,1,N,1","+0120,1","+0120,1","10082,1","61,1","6,1,06,1","02,1,+00060,1,99,9",,,,"99999,9,09756,1","8,1,001,1,+999,9","SYN082AAXX  01001 02151 47158 /0000 10120 20120 39756 40082 58001 76165 333 82/02 85/04;",
"02151099999","2010-07-01T03:00:00","4","66.4833333","20.1666666","275.0","JOKKMOKK FPL, SW","FM-12","99999","V020","330,1,N,0020,1","99999,9,9,N","025000,1,N,1","+0121,1","+0121,1","10080,1","52,1","6,1,03,1","01,1,+00300,1,99,9",,,,"99999,9,09753,1","7,1,003,1,+999,9","SYN082AAXX  01031 02151 47475 /3302 10121 20121 39753 40080 57003 75265 333 81/10 88/14;",
"02151099999","2010-07-01T06:00:00","4","66.4833333","20.1666666","275.0","JOKKMOKK FPL, SW","FM-12","99999","V020","350,1,N,0020,1","22000,1,C,N","040000,1,N,1","+0129,1","+0127,1","10078,1","00,1","6,1,06,1","01,1,+00450,1,99,9","04,1,+00900,1,99,9","120,M,+0130,1","999,N,+0119,1","99999,9,09753,1","4,1,000,1,+999,9","SYN100AAXX  01061 02151 47482 /3502 10129 20127 39753 40078 54001 70065 333 10130 20119 81/15 84/30 88/56;",
"02151099999","2010-07-01T09:00:00","4","66.4833333","20.1666666","275.0","JOKKMOKK FPL, SW","FM-12","99999","V020","350,1,N,0040,1","01800,1,C,N","045000,1,N,1","+0143,1","+0128,1","10083,1","00,1","8,1,03,1","03,1,+00900,1,99,9","06,1,+01800,1,99,9",,,"99999,9,09759,1","3,1,006,1,+999,9","SYN088AAXX  01091 02151 47583 /3504 10143 20128 39759 40083 53006 70086 333 83/30 86/56 87/71;",
"02151099999","2010-07-01T12:00:00","4","66.4833333","20.1666666","275.0","JOKKMOKK FPL, SW","FM-12","99999","V020","340,1,N,0040,1","00600,1,C,N","050000,1,N,1","+0141,1","+0118,1","10089,1","23,1","8,1,06,1","08,1,+00600,1,99,9",,,,"99999,9,09765,1","2,1,006,1,+999,9","SYN076AAXX  01121 02151 47584 /3404 10141 20118 39765 40089 52006 72386 333 88/20;",
"02151099999","2010-07-01T15:00:00","4","66.4833333","20.1666666","275.0","JOKKMOKK FPL, SW","FM-12","99999","V020","350,1,N,0030,1","00990,1,C,N","040000,1,N,1","+0154,1","+0115,1","10094,1",,,"01,1,+00750,1,99,9","06,1,+00990,1,99,9",,,"99999,9,09770,1","2,1,006,1,+999,9","SYN082AAXX  01151 02151 45582 /3503 10154 20115 39770 40094 52006 333 81/25 86/33 87/43;",
"02151099999","2010-07-01T18:00:00","4","66.4833333","20.1666666","275.0","JOKKMOKK FPL, SW","FM-12","99999","V020","330,1,N,0040,1","99999,9,9,N","050000,1,N,1","+0158,1","+0110,1","10098,1",,,"02,1,+01110,1,99,9",,"120,M,+0164,1","999,N,+0128,1","99999,9,09775,1","2,1,004,1,+999,9","SYN088AAXX  01181 02151 45684 /3304 10158 20110 39775 40098 52004 333 10164 20128 82/37 83/57;",
"02151099999","2010-07-01T21:00:00","4","66.4833333","20.1666666","275.0","JOKKMOKK FPL, SW","FM-12","99999","V020","310,1,N,0040,1","99999,9,9,N","050000,1,N,1","+0124,1","+0103,1","10116,1",,,,,,,"99999,9,09789,1","3,1,015,1,+999,9","SYN060AAXX  01211 02151 45984 /3104 10124 20103 39789 40116 53015;",
"02151099999","2010-07-02T00:00:00","4","66.4833333","20.1666666","275.0","JOKKMOKK FPL, SW","FM-12","99999","V020","340,1,N,0040,1","99999,9,9,N","050000,1,N,1","+0110,1","+0088,1","10136,1",,,,,,,"99999,9,09806,1","2,1,017,1,+999,9","SYN060AAXX  02001 02151 45984 /3404 10110 20088 39806 40136 52017;",
"02151099999","2010-07-02T03:00:00","4","66.4833333","20.1666666","275.0","JOKKMOKK FPL, SW","FM-12","99999","V020","340,1,N,0030,1","99999,9,9,N","050000,1,N,1","+0101,1","+0079,1","10152,1",,,,,,,"99999,9,09821,1","2,1,015,1,+999,9","SYN060AAXX  02031 02151 45984 /3403 10101 20079 39821 40152 52015;",
"02151099999","2010-07-02T06:00:00","4","66.4833333","20.1666666","275.0","JOKKMOKK FPL, SW","FM-12","99999","V020","340,1,N,0020,1","99999,9,9,N","035000,1,N,1","+0125,1","+0084,1","10155,1",,,"01,1,+00810,1,99,9",,"120,M,+0165,1","999,N,+0096,1","99999,9,09826,1","2,1,005,1,+999,9","SYN082AAXX  02061 02151 45581 /3402 10125 20084 39826 40155 52005 333 10165 20096 81/27;",
"02151099999","2010-07-02T09:00:00","4","66.4833333","20.1666666","275.0","JOKKMOKK FPL, SW","FM-12","99999","V020","350,1,N,0020,1","01080,1,C,N","045000,1,N,1","+0145,1","+0084,1","10160,1",,,"08,1,+01080,1,99,9",,,,"99999,9,09833,1","2,1,007,1,+999,9","SYN070AAXX  02091 02151 45683 /3502 10145 20084 39833 40160 52007 333 88/36;",
"02151099999","2010-07-02T12:00:00","4","66.4833333","20.1666666","275.0","JOKKMOKK FPL, SW","FM-12","99999","V020","330,1,N,0020,1","99999,9,9,N","040000,1,N,1","+0179,1","+0096,1","10155,1",,,"01,1,+06900,1,99,9",,,,"99999,9,09833,1","4,1,000,1,+999,9","SYN070AAXX  02121 02151 45982 /3302 10179 20096 39833 40155 54001 333 81/73;",
"02151099999","2010-07-02T15:00:00","4","66.4833333","20.1666666","275.0","JOKKMOKK FPL, SW","FM-12","99999","V020","130,1,N,0030,1","99999,9,9,N","040000,1,N,1","+0197,1","+0102,1","10144,1",,,,,,,"99999,9,09823,1","7,1,010,1,+999,9","SYN060AAXX  02151 02151 45982 /1303 10197 20102 39823 40144 57010;",
"02151099999","2010-07-02T18:00:00","4","66.4833333","20.1666666","275.0","JOKKMOKK FPL, SW","FM-12","99999","V020","140,1,N,0050,1","99999,9,9,N","050000,1,N,1","+0189,1","+0104,1","10145,1",,,,,"120,M,+0201,1","999,N,+0123,1","99999,9,09824,1","5,1,001,1,+999,9","SYN076AAXX  02181 02151 45984 /1405 10189 20104 39824 40145 55001 333 10201 20123;",
"02151099999","2010-07-02T21:00:00","4","66.4833333","20.1666666","275.0","JOKKMOKK FPL, SW","FM-12","99999","V020","140,1,N,0020,1","99999,9,9,N","050000,1,N,1","+0141,1","+0111,1","10153,1",,,,,,,"99999,9,09827,1","2,1,003,1,+999,9","SYN060AAXX  02211 02151 45984 /1402 10141 20111 39827 40153 52003;",
"02151099999","2010-07-03T00:00:00","4","66.4833333","20.1666666","275.0","JOKKMOKK FPL, SW","FM-12","99999","V020","140,1,N,0030,1","99999,9,9,N","045000,1,N,1","+0108,1","+0101,1","10153,1",,,,,,,"99999,9,09822,1","8,1,004,1,+999,9","SYN060AAXX  03001 02151 45983 /1403 10108 20101 39822 40153 58004;",
"02151099999","2010-07-03T03:00:00","4","66.4833333","20.1666666","275.0","JOKKMOKK FPL, SW","FM-12","99999","V020","110,1,N,0020,1","99999,9,9,N","045000,1,N,1","+0110,1","+0104,1","10143,1",,,"01,1,+06300,1,99,9",,,,"99999,9,09814,1","7,1,009,1,+999,9","SYN070AAXX  03031 02151 45983 /1102 10110 20104 39814 40143 57009 333 81/71;",
"02151099999","2010-07-03T06:00:00","4","66.4833333","20.1666666","275.0","JOKKMOKK FPL, SW","FM-12","99999","V020","130,1,N,0040,1","03300,1,C,N","045000,1,N,1","+0137,1","+0120,1","10133,1",,,"05,1,+03300,1,99,9",,"120,M,+0190,1","999,N,+0106,1","99999,9,09806,1","8,1,007,1,+999,9","SYN082AAXX  03061 02151 45983 /1304 10137 20120 39806 40133 58007 333 10190 20106 85/61;",
"02151099999","2010-07-03T09:00:00","4","66.4833333","20.1666666","275.0","JOKKMOKK FPL, SW","FM-12","99999","V020","140,1,N,0020,1","03000,1,C,N","050000,1,N,1","+0165,1","+0135,1","10133,1",,,"07,1,+03000,1,99,9",,,,"99999,9,09809,1","2,1,003,1,+999,9","SYN070AAXX  03091 02151 45984 /1402 10165 20135 39809 40133 52003 333 87/60;",
"02151099999","2010-07-03T12:00:00","4","66.4833333","20.1666666","275.0","JOKKMOKK FPL, SW","FM-12","99999","V020","150,1,N,0030,1","99999,9,9,N","040000,1,N,1","+0221,1","+0137,1","10120,1",,,,,,,"99999,9,09804,1","7,1,006,1,+999,9","SYN060AAXX  03121 02151 45982 /1503 10221 20137 39804 40120 57006;",
"02151099999","2010-07-03T15:00:00","4","66.4833333","20.1666666","275.0","JOKKMOKK FPL, SW","FM-12","99999","V020","170,1,N,0020,1","01500,1,C,N","027000,1,N,1","+0219,1","+0146,1","10119,1","61,1","6,1,03,1","05,1,+01500,1,99,9",,,,"99999,9,09802,1","5,1,001,1,+999,9","SYN082AAXX  03151 02151 47777 /1702 10219 20146 39802 40119 55001 76160 333 85/50 87/58;",
"02151099999","2010-07-03T18:00:00","4","66.4833333","20.1666666","275.0","JOKKMOKK FPL, SW","FM-12","99999","V020","220,1,N,0010,1","99999,9,9,N","050000,1,N,1","+0216,1","+0142,1","10121,1","00,1","8,1,06,1","02,1,+02100,1,99,9",,"120,M,+0245,1","999,N,+0135,1","99999,9,09803,1","2,1,002,1,+999,9","SYN094AAXX  03181 02151 47884 /2201 10216 20142 39803 40121 52002 70086 333 10245 20135 82/57 85/59;",
"02151099999","2010-07-03T21:00:00","4","66.4833333","20.1666666","275.0","JOKKMOKK FPL, SW","FM-12","99999","V020","320,1,N,0030,1","02100,1,C,N","050000,1,N,1","+0177,1","+0146,1","10141,1",,,"08,1,+02100,1,99,9",,,,"99999,9,09818,1","2,1,015,1,+999,9","SYN070AAXX  03211 02151 45884 /3203 10177 20146 39818 40141 52015 333 88/57;",
"02151099999","2010-07-04T00:00:00","4","66.4833333","20.1666666","275.0","JOKKMOKK FPL, SW","FM-12","99999","V020","999,9,C,0000,1","99999,9,9,N","035000,1,N,1","+0125,1","+0125,1","10149,1",,,"04,1,+03600,1,99,9",,,,"99999,9,09821,1","0,1,002,1,+999,9","SYN076AAXX  04001 02151 45981 /0000 10125 20125 39821 40149 50002 333 84/62 85/73;",
"02151099999","2010-07-04T03:00:00","4","66.4833333","20.1666666","275.0","JOKKMOKK FPL, SW","FM-12","99999","V020","330,1,N,0020,1","99999,9,9,N","019000,1,N,1","+0143,1","+0143,1","10137,1","61,1","8,1,03,1",,,,,"99999,9,09811,1","8,1,010,1,+999,9","SYN066AAXX  04031 02151 47969 /3302 10143 20143 39811 40137 58010 76186;",
"02151099999","2010-07-04T06:00:00","4","66.4833333","20.1666666","275.0","JOKKMOKK FPL, SW","FM-12","99999","V020","999,9,C,0000,1","00210,1,C,N","004400,1,N,1","+0146,1","+0146,1","10135,1","62,1","8,1,06,1","09,1,+00210,1,99,9",,"120,M,+0216,1","999,N,+0121,1","99999,9,09809,1","8,1,002,1,+999,9","SYN088AAXX  04061 02151 47/44 /0000 10146 20146 39809 40135 58002 76286 333 10216 20121 89/07;",
"02151099999","2010-07-04T09:00:00","4","66.4833333","20.1666666","275.0","JOKKMOKK FPL, SW","FM-12","99999","V020","120,1,N,0010,1","00270,1,C,N","030000,1,N,1","+0172,1","+0163,1","10131,1","00,1","6,1,03,1","05,1,+00270,1,99,9",,,,"99999,9,09809,1","5,1,001,1,+999,9","SYN082AAXX  04091 02151 47380 /1201 10172 20163 39809 40131 55001 70065 333 85/09 87/57;",
"02151099999","2010-07-04T12:00:00","4","66.4833333","20.1666666","275.0","JOKKMOKK FPL, SW","FM-12","99999","V020","150,1,N,0020,1","00660,1,C,N","045000,1,N,1","+0179,1","+0161,1","10131,1","00,1","6,1,06,1","04,1,+00480,1,99,9","07,1,+00660,1,99,9",,,"99999,9,09810,1","3,1,001,1,+999,9","SYN088AAXX  04121 02151 47483 /1502 10179 20161 39810 40131 53001 70065 333 84/16 87/22 88/27;",
"02151099999","2010-07-04T15:00:00","4","66.4833333","20.1666666","275.0","JOKKMOKK FPL, SW","FM-12","99999","V020","130,1,N,0020,1","99999,9,9,N","040000,1,N,1","+0190,1","+0166,1","10116,1",,,"04,1,+00510,1,99,9",,,,"99999,9,09796,1","5,1,014,1,+999,9","SYN070AAXX  04151 02151 45482 /1302 10190 20166 39796 40116 55014 333 84/17;",
"02151099999","2010-07-04T18:00:00","4","66.4833333","20.1666666","275.0","JOKKMOKK FPL, SW","FM-12","99999","V020","250,1,N,0010,1","99999,9,9,N","045000,1,N,1","+0162,1","+0159,1","10118,1","23,1","8,1,06,1","02,1,+01500,1,99,9",,"120,M,+0194,1","999,N,+0146,1","99999,9,09795,1","5,1,001,1,+999,9","SYN088AAXX  04181 02151 47783 /2501 10162 20159 39795 40118 55001 72386 333 10194 20146 82/50;",
"02151099999","2010-07-04T21:00:00","4","66.4833333","20.1666666","275.0","JOKKMOKK FPL, SW","FM-12","99999","V020","999,9,C,0000,1","99999,9,9,N","003200,1,N,1","+0146,1","+0146,1","10123,1","30,1","4,1,03,1","01,1,+02100,1,99,9",,,,"99999,9,09798,1","2,1,002,1,+999,9","SYN076AAXX  04211 02151 47832 /0000 10146 20146 39798 40123 52002 73032 333 81/57;",
"02151099999","2010-07-05T00:00:00","4","66.4833333","20.1666666","275.0","JOKKMOKK FPL, SW","FM-12","99999","V020","310,1,N,0010,1","00060,1,C,N","000200,1,N,1","+0144,1","+0144,1","10121,1","34,1","4,1,06,1","09,1,+00060,1,99,9",,,,"99999,9,09795,1","8,1,002,1,+999,9","SYN076AAXX  05001 02151 47/02 /3101 10144 20144 39795 40121 58002 73432 333 89/02;",
"02151099999","2010-07-05T03:00:00","4","66.4833333","20.1666666","275.0","JOKKMOKK FPL, SW","FM-12","99999","V020","999,9,C,0000,1","99999,9,9,N","029000,1,N,1","+0131,1","+0131,1","10114,1","00,1","4,1,03,1","04,1,+00240,1,99,9",,,,"99999,9,09788,1","8,1,008,1,+999,9","SYN082AAXX  05031 02151 47379 /0000 10131 20131 39788 40114 58008 70032 333 84/08 87/17;",
"02151099999","2010-07-05T06:00:00","4","66.4833333","20.1666666","275.0","JOKKMOKK FPL, SW","FM-12","99999","V020","110,1,N,0020,1","00030,1,C,N","000300,1,N,1","+0145,1","+0145,1","10093,1","34,1","2,1,06,1","09,1,+00030,1,99,9",,"120,M,+0166,1","999,N,+0123,1","99999,9,09769,1","7,1,019,1,+999,9","SYN088AAXX  05061 02151 47/03 /1102 10145 20145 39769 40093 57019 73413 333 10166 20123 89/01;",
"02151099999","2010-07-05T09:00:00","4","66.4833333","20.1666666","275.0","JOKKMOKK FPL, SW","FM-12","99999","V020","130,1,N,0040,1","00120,1,C,N","010000,1,N,1","+0168,1","+0168,1","10070,1","10,1","4,1,03,1","07,1,+00120,1,99,9",,,,"99999,9,09750,1","8,1,019,1,+999,9","SYN082AAXX  05091 02151 47260 /1304 10168 20168 39750 40070 58019 71032 333 87/04 88/10;",
"02151099999","2010-07-05T12:00:00","4","66.4833333","20.1666666","275.0","JOKKMOKK FPL, SW","FM-12","99999","V020","130,1,N,0070,1","99999,9,9,N","029000,1,N,1","+0205,1","+0180,1","10046,1","00,1","4,1,06,1","02,1,+00630,1,99,9",,,,"99999,9,09730,1","8,1,019,1,+999,9","SYN082AAXX  05121 02151 47579 /1307 10205 20180 39730 40046 58019 70032 333 82/21 84/66;",
"02151099999","2010-07-05T15:00:00","4","66.4833333","20.1666666","275.0","JOKKMOKK FPL, SW","FM-12","99999","V020","150,1,N,0060,1","99999,9,9,N","045000,1,N,1","+0220,1","+0181,1","10029,1",,,"04,1,+01500,1,99,9",,,,"99999,9,09715,1","7,1,016,1,+999,9","SYN076AAXX  05151 02151 45783 /1506 10220 20181 39715 40029 57016 333 84/50 85/56;",
"02151099999","2010-07-05T18:00:00","4","66.4833333","20.1666666","275.0","JOKKMOKK FPL, SW","FM-12","99999","V020","200,1,N,0030,1","99999,9,9,N","050000,1,N,1","+0224,1","+0138,1","10029,1",,,,,"120,M,+0240,1","999,N,+0145,1","99999,9,09715,1","5,1,001,1,+999,9","SYN076AAXX  05181 02151 45984 /2003 10224 20138 39715 40029 55001 333 10240 20145;",
"02151099999","2010-07-05T21:00:00","4","66.4833333","20.1666666","275.0","JOKKMOKK FPL, SW","FM-12","99999","V020","230,1,N,0020,1","99999,9,9,N","050000,1,N,1","+0181,1","+0116,1","10049,1",,,,,,,"99999,9,09730,1","3,1,015,1,+999,9","SYN060AAXX  05211 02151 45984 /2302 10181 20116 39730 40049 53015;",
"02151099999","2010-07-06T00:00:00","4","66.4833333","20.1666666","275.0","JOKKMOKK FPL, SW","FM-12","99999","V020","270,1,N,0020,1","99999,9,9,N","045000,1,N,1","+0140,1","+0134,1","10069,1",,,"02,1,+02700,1,99,9",,,,"99999,9,09745,1","2,1,015,1,+999,9","SYN070AAXX  06001 02151 45983 /2702 10140 20134 39745 40069 52015 333 82/59;",
"02151099999","2010-07-06T03:00:00","4","66.4833333","20.1666666","275.0","JOKKMOKK FPL, SW","FM-12","99999","V020","300,1,N,0020,1","02700,1,C,N","050000,1,N,1","+0153,1","+0122,1","10075,1",,,"06,1,+02700,1,99,9",,,,"99999,9,09752,1","2,1,007,1,+999,9","SYN070AAXX  06031 02151 45984 /3002 10153 20122 39752 40075 52007 333 86/59;",
"02151099999","2010-07-06T06:00:00","4","66.4833333","20.1666666","275.0","JOKKMOKK FPL, SW","FM-12","99999","V020","290,1,N,0020,1","99999,9,9,N","045000,1,N,1","+0166,1","+0099,1","10080,1",,,,,"120,M,+0231,1","999,N,+0115,1","99999,9,09759,1","2,1,007,1,+999,9","SYN076AAXX  06061 02151 45983 /2902 10166 20099 39759 40080 52007 333 10231 20115;",
"02151099999","2010-07-06T09:00:00","4","66.4833333","20.1666666","275.0","JOKKMOKK FPL, SW","FM-12","99999","V020","230,1,N,0030,1","99999,9,9,N","045000,1,N,1","+0197,1","+0102,1","10082,1",,,,,,,"99999,9,09764,1","2,1,005,1,+999,9","SYN060AAXX  06091 02151 45983 /2303 10197 20102 39764 40082 52005;",
"02151099999","2010-07-06T12:00:00","4","66.4833333","20.1666666","275.0","JOKKMOKK FPL, SW","FM-12","99999","V020","320,1,N,0050,1","99999,9,9,N","040000,1,N,1","+0206,1","+0082,1","10088,1",,,,,,,"99999,9,09770,1","2,1,006,1,+999,9","SYN060AAXX  06121 02151 45982 /3205 10206 20082 39770 40088 52006;",
"02151099999","2010-07-06T15:00:00","4","66.4833333","20.1666666","275.0","JOKKMOKK FPL, SW","FM-12","99999","V020","280,1,N,0030,1","99999,9,9,N","050000,1,N,1","+0207,1","+0068,1","10092,1",,,,,,,"99999,9,09775,1","2,1,005,1,+999,9","SYN060AAXX  06151 02151 45984 /2803 10207 20068 39775 40092 52005;",
"02151099999","2010-07-06T18:00:00","4","66.4833333","20.1666666","275.0","JOKKMOKK FPL, SW","FM-12","99999","V020","260,1,N,0030,1","99999,9,9,N","050000,1,N,1","+0193,1","+0068,1","10101,1",,,,,"120,M,+0217,1","999,N,+0164,1","99999,9,09781,1","2,1,007,1,+999,9","SYN076AAXX  06181 02151 45984 /2603 10193 20068 39781 40101 52007 333 10217 20164;",
"02151099999","2010-07-06T21:00:00","4","66.4833333","20.1666666","275.0","JOKKMOKK FPL, SW","FM-12","99999","V020","290,1,N,0020,1","99999,9,9,N","050000,1,N,1","+0148,1","+0062,1","10121,1",,,,,,,"99999,9,09796,1","2,1,015,1,+999,9","SYN060AAXX  06211 02151 45984 /2902 10148 20062 39796 40121 52015;",
"02151099999","2010-07-07T00:00:00","4","66.4833333","20.1666666","275.0","JOKKMOKK FPL, SW","FM-12","99999","V020","290,1,N,0030,1","05700,1,C,N","050000,1,N,1","+0120,1","+0063,1","10131,1",,,"05,1,+05700,1,99,9",,,,"99999,9,09803,1","2,1,006,1,+999,9","SYN070AAXX  07001 02151 45984 /2903 10120 20063 39803 40131 52006 333 85/69;",
"02151099999","2010-07-07T03:00:00","4","66.4833333","20.1666666","275.0","JOKKMOKK FPL, SW","FM-12","99999","V020","080,1,N,0010,1","99999,9,9,N","050000,1,N,1","+0107,1","+0071,1","10133,1",,,"03,1,+02100,1,99,9",,,,"99999,9,09804,1","4,1,000,1,+999,9","SYN070AAXX  07031 02151 45884 /0801 10107 20071 39804 40133 54001 333 83/57;",
"02151099999","2010-07-07T06:00:00","4","66.4833333","20.1666666","275.0","JOKKMOKK FPL, SW","FM-12","99999","V020","300,1,N,0020,1","02100,1,C,N","045000,1,N,1","+0120,1","+0087,1","10131,1","51,1","6,1,06,1","03,1,+01500,1,99,9","05,1,+02100,1,99,9","120,M,+0194,1","999,N,+0098,1","99999,9,09803,1","0,1,000,1,+999,9","SYN100AAXX  07061 02151 47783 /3002 10120 20087 39803 40131 50000 75165 333 10194 20098 83/50 85/57 87/58;",
"02151099999","2010-07-07T09:00:00","4","66.4833333","20.1666666","275.0","JOKKMOKK FPL, SW","FM-12","99999","V020","350,1,N,0010,1","99999,9,9,N","040000,1,N,1","+0144,1","+0079,1","10129,1","00,1","8,1,03,1","02,1,+03600,1,99,9",,,,"99999,9,09803,1","5,1,000,1,+999,9","SYN082AAXX  07091 02151 47982 /3501 10144 20079 39803 40129 55000 70086 333 82/62 83/69;",
"02151099999","2010-07-07T12:00:00","4","66.4833333","20.1666666","275.0","JOKKMOKK FPL, SW","FM-12","99999","V020","290,1,N,0020,1","04200,1,C,N","040000,1,N,1","+0170,1","+0080,1","10122,1","00,1","8,1,06,1","05,1,+04200,1,99,9",,,,"99999,9,09800,1","5,1,004,1,+999,9","SYN076AAXX  07121 02151 47982 /2902 10170 20080 39800 40122 55004 70082 333 85/64;",
"02151099999","2010-07-07T15:00:00","4","66.4833333","20.1666666","275.0","JOKKMOKK FPL, SW","FM-12","99999","V020","250,1,N,0020,1","99999,9,9,N","050000,1,N,1","+0195,1","+0058,1","10115,1",,,"02,1,+01800,1,99,9",,,,"99999,9,09796,1","7,1,004,1,+999,9","SYN070AAXX  07151 02151 45784 /2502 10195 20058 39796 40115 57004 333 82/56;",
"02151099999","2010-07-07T18:00:00","4","66.4833333","20.1666666","275.0","JOKKMOKK FPL, SW","FM-12","99999","V020","110,1,N,0010,1","99999,9,9,N","050000,1,N,1","+0196,1","+0062,1","10118,1",,,,,"120,M,+0209,1","999,N,+0119,1","99999,9,09799,1","3,1,003,1,+999,9","SYN076AAXX  07181 02151 45984 /1101 10196 20062 39799 40118 53003 333 10209 20119;",
"02151099999","2010-07-07T21:00:00","4","66.4833333","20.1666666","275.0","JOKKMOKK FPL, SW","FM-12","99999","V020","330,1,N,0010,1","99999,9,9,N","050000,1,N,1","+0125,1","+0108,1","10139,1",,,,,,,"99999,9,09811,1","2,1,012,1,+999,9","SYN060AAXX  07211 02151 45984 /3301 10125 20108 39811 40139 52012;",
"02151099999","2010-07-08T00:00:00","4","66.4833333","20.1666666","275.0","JOKKMOKK FPL, SW","FM-12","99999","V020","150,1,N,0020,1","99999,9,9,N","050000,1,N,1","+0095,1","+0090,1","10148,1",,,"04,1,+04500,1,99,9",,,,"99999,9,09816,1","3,1,005,1,+999,9","SYN070AAXX  08001 02151 45984 /1502 10095 20090 39816 40148 53005 333 84/65;",
"02151099999","2010-07-08T03:00:00","4","66.4833333","20.1666666","275.0","JOKKMOKK FPL, SW","FM-12","99999","V020","140,1,N,0020,1","03600,1,C,N","040000,1,N,1","+0127,1","+0106,1","10142,1",,,"07,1,+03600,1,99,9",,,,"99999,9,09814,1","8,1,002,1,+999,9","SYN070AAXX  08031 02151 45982 /1402 10127 20106 39814 40142 58002 333 87/62;",
"02151099999","2010-07-08T06:00:00","4","66.4833333","20.1666666","275.0","JOKKMOKK FPL, SW","FM-12","99999","V020","140,1,N,0030,1","02400,1,C,N","050000,1,N,1","+0160,1","+0116,1","10143,1",,,"05,1,+02400,1,99,9",,"120,M,+0197,1","999,N,+0090,1","99999,9,09818,1","3,1,004,1,+999,9","SYN088AAXX  08061 02151 45984 /1403 10160 20116 39818 40143 53004 333 10197 20090 85/58 87/60;",
"02151099999","2010-07-08T09:00:00","4","66.4833333","20.1666666","275.0","JOKKMOKK FPL, SW","FM-12","99999","V020","140,1,N,0060,1","02400,1,C,N","045000,1,N,1","+0191,1","+0131,1","10131,1","00,1","8,1,03,1","08,1,+02400,1,99,9",,,,"99999,9,09810,1","6,1,008,1,+999,9","SYN076AAXX  08091 02151 47983 /1406 10191 20131 39810 40131 56008 70086 333 88/58;",
"02151099999","2010-07-08T12:00:00","4","66.4833333","20.1666666","275.0","JOKKMOKK FPL, SW","FM-12","99999","V020","190,1,N,0020,1","99999,9,9,N","010000,1,N,1","+0158,1","+0149,1","10140,1","62,1","6,1,06,1","01,1,+00180,1,99,9",,,,"99999,9,09816,1","3,1,006,1,+999,9","SYN076AAXX  08121 02151 47360 /1902 10158 20149 39816 40140 53006 76262 333 81/06;",
"02151099999","2010-07-08T15:00:00","4","66.4833333","20.1666666","275.0","JOKKMOKK FPL, SW","FM-12","99999","V020","130,1,N,0050,1","99999,9,9,N","027000,1,N,1","+0153,1","+0150,1","10130,1","52,1","6,1,03,1","02,1,+00210,1,99,9",,,,"99999,9,09805,1","7,1,011,1,+999,9","SYN082AAXX  08151 02151 47377 /1305 10153 20150 39805 40130 57011 75265 333 82/07 83/21;",
"02151099999","2010-07-08T18:00:00","4","66.4833333","20.1666666","275.0","JOKKMOKK FPL, SW","FM-12","99999","V020","130,1,N,0020,1","99999,9,9,N","035000,1,N,1","+0151,1","+0149,1","10119,1","00,1","6,1,06,1","04,1,+00180,1,99,9",,"120,M,+0199,1","999,N,+0147,1","99999,9,09795,1","6,1,010,1,+999,9","SYN094AAXX  08181 02151 47281 /1302 10151 20149 39795 40119 56010 70065 333 10199 20147 84/06 88/56;",
"02151099999","2010-07-08T21:00:00","4","66.4833333","20.1666666","275.0","JOKKMOKK FPL, SW","FM-12","99999","V020","270,1,N,0010,1","00900,1,C,N","050000,1,N,1","+0140,1","+0132,1","10122,1",,,"02,1,+00690,1,99,9","06,1,+00900,1,99,9",,,"99999,9,09796,1","5,1,001,1,+999,9","SYN082AAXX  08211 02151 45584 /2701 10140 20132 39796 40122 55001 333 82/23 86/30 88/56;",
"02151099999","2010-07-09T00:00:00","4","66.4833333","20.1666666","275.0","JOKKMOKK FPL, SW","FM-12","99999","V020","310,1,N,0010,1","99999,9,9,N","045000,1,N,1","+0117,1","+0117,1","10118,1","61,1","6,1,06,1",,,,,"99999,9,09790,1","5,1,006,1,+999,9","SYN066AAXX  09001 02151 47983 /3101 10117 20117 39790 40118 55006 76165;",
"02151099999","2010-07-09T03:00:00","4","66.4833333","20.1666666","275.0","JOKKMOKK FPL, SW","FM-12","99999","V020","999,9,C,0000,1","00150,1,C,N","045000,1,N,1","+0117,1","+0117,1","10119,1","00,1","6,1,03,1","08,1,+00150,1,99,9",,,,"99999,9,09791,1","2,1,001,1,+999,9","SYN076AAXX  09031 02151 47283 /0000 10117 20117 39791 40119 52001 70062 333 88/05;",
"02151099999","2010-07-09T06:00:00","4","66.4833333","20.1666666","275.0","JOKKMOKK FPL, SW","FM-12","99999","V020","310,1,N,0020,1","99999,9,9,N","040000,1,N,1","+0154,1","+0124,1","10114,1","00,1","6,1,06,1",,,"120,M,+0155,1","999,N,+0112,1","99999,9,09790,1","4,1,000,1,+999,9","SYN082AAXX  09061 02151 47982 /3102 10154 20124 39790 40114 54000 70062 333 10155 20112;",
"02151099999","2010-07-09T09:00:00","4","66.4833333","20.1666666","275.0","JOKKMOKK FPL, SW","FM-12","99999","V020","310,1,N,0020,1","99999,9,9,N","045000,1,N,1","+0178,1","+0120,1","10113,1",,,"01,1,+00990,1,99,9",,,,"99999,9,09792,1","2,1,002,1,+999,9","SYN076AAXX  09091 02151 45583 /3102 10178 20120 39792 40113 52002 333 81/33 85/61;",
"02151099999","2010-07-09T12:00:00","4","66.4833333","20.1666666","275.0","JOKKMOKK FPL, SW","FM-12","99999","V020","050,1,N,0010,1","99999,9,9,N","035000,1,N,1","+0209,1","+0105,1","10107,1",,,"02,1,+03000,1,99,9",,,,"99999,9,09789,1","7,1,003,1,+999,9","SYN070AAXX  09121 02151 45981 /0501 10209 20105 39789 40107 57003 333 82/60;",
"02151099999","2010-07-09T15:00:00","4","66.4833333","20.1666666","275.0","JOKKMOKK FPL, SW","FM-12","99999","V020","350,1,N,0010,1","99999,9,9,N","040000,1,N,1","+0213,1","+0098,1","10104,1",,,"02,1,+03600,1,99,9",,,,"99999,9,09787,1","7,1,003,1,+999,9","SYN070AAXX  09151 02151 45982 /3501 10213 20098 39787 40104 57003 333 82/62;",
"02151099999","2010-07-09T18:00:00","4","66.4833333","20.1666666","275.0","JOKKMOKK FPL, SW","FM-12","99999","V020","340,1,N,0030,1","99999,9,9,N","050000,1,N,1","+0191,1","+0113,1","10118,1",,,"04,1,+02100,1,99,9",,"120,M,+0222,1","999,N,+0148,1","99999,9,09798,1","3,1,011,1,+999,9","SYN082AAXX  09181 02151 45884 /3403 10191 20113 39798 40118 53011 333 10222 20148 84/57;",
"02151099999","2010-07-09T21:00:00","4","66.4833333","20.1666666","275.0","JOKKMOKK FPL, SW","FM-12","99999","V020","290,1,N,0020,1","99999,9,9,N","050000,1,N,1","+0155,1","+0108,1","10140,1",,,,,,,"99999,9,09815,1","2,1,018,1,+999,9","SYN060AAXX  09211 02151 45984 /2902 10155 20108 39815 40140 52018;",
"02151099999","2010-07-10T00:00:00","4","66.4833333","20.1666666","275.0","JOKKMOKK FPL, SW","FM-12","99999","V020","290,1,N,0020,1","99999,9,9,N","050000,1,N,1","+0108,1","+0087,1","10151,1",,,,,,,"99999,9,09821,1","2,1,005,1,+999,9","SYN060AAXX  10001 02151 45984 /2902 10108 20087 39821 40151 52005;",
"02151099999","2010-07-10T03:00:00","4","66.4833333","20.1666666","275.0","JOKKMOKK FPL, SW","FM-12","99999","V020","050,1,N,0010,1","99999,9,9,N","045000,1,N,1","+0112,1","+0092,1","10150,1",,,,,,,"99999,9,09820,1","4,1,000,1,+999,9","SYN060AAXX  10031 02151 45983 /0501 10112 20092 39820 40150 54000;",
"02151099999","2010-07-10T06:00:00","4","66.4833333","20.1666666","275.0","JOKKMOKK FPL, SW","FM-12","99999","V020","140,1,N,0010,1","99999,9,9,N","040000,1,N,1","+0156,1","+0102,1","10138,1",,,,,"120,M,+0191,1","999,N,+0100,1","99999,9,09814,1","8,1,007,1,+999,9","SYN076AAXX  10061 02151 45982 /1401 10156 20102 39814 40138 58007 333 10191 20100;",
"02151099999","2010-07-10T09:00:00","4","66.4833333","20.1666666","275.0","JOKKMOKK FPL, SW","FM-12","99999","V020","130,1,N,0030,1","99999,9,9,N","050000,1,N,1","+0165,1","+0102,1","10121,1","61,1","6,1,03,1","04,1,+02100,1,99,9",,,,"99999,9,09798,1","6,1,016,1,+999,9","SYN082AAXX  10091 02151 47884 /1303 10165 20102 39798 40121 56016 76160 333 84/57 86/60;",
"02151099999","2010-07-10T12:00:00","4","66.4833333","20.1666666","275.0","JOKKMOKK FPL, SW","FM-12","99999","V020","150,1,N,0040,1","99999,9,9,N","023000,1,N,1","+0148,1","+0134,1","10117,1","81,1","8,1,06,1","01,1,+00810,1,99,9",,,,"99999,9,09792,1","8,1,006,1,+999,9","SYN082AAXX  10121 02151 47573 /1504 10148 20134 39792 40117 58006 78186 333 81/27 83/38;",
"02151099999","2010-07-10T15:00:00","4","66.4833333","20.1666666","275.0","JOKKMOKK FPL, SW","FM-12","99999","V020","250,1,N,0030,1","99999,9,9,N","040000,1,N,1","+0199,1","+0130,1","10103,1","00,1","8,1,03,1","02,1,+01290,1,99,9",,,,"99999,9,09785,1","8,1,008,1,+999,9","SYN076AAXX  10151 02151 47682 /2503 10199 20130 39785 40103 58008 70082 333 82/43;",
"02151099999","2010-07-10T18:00:00","4","66.4833333","20.1666666","275.0","JOKKMOKK FPL, SW","FM-12","99999","V020","260,1,N,0030,1","99999,9,9,N","050000,1,N,1","+0196,1","+0101,1","10111,1","00,1","8,1,06,1","02,1,+02100,1,99,9",,"120,M,+0205,1","999,N,+0144,1","99999,9,09791,1","3,1,007,1,+999,9","SYN088AAXX  10181 02151 47884 /2603 10196 20101 39791 40111 53007 70082 333 10205 20144 82/57;",
"02151099999","2010-07-10T21:00:00","4","66.4833333","20.1666666","275.0","JOKKMOKK FPL, SW","FM-12","99999","V020","280,1,N,0030,1","99999,9,9,N","050000,1,N,1","+0151,1","+0099,1","10136,1",,,"03,1,+06300,1,99,9",,,,"99999,9,09811,1","3,1,019,1,+999,9","SYN070AAXX  10211 02151 45984 /2803 10151 20099 39811 40136 53019 333 83/71;",
"02151099999","2010-07-11T00:00:00","4","66.4833333","20.1666666","275.0","JOKKMOKK FPL, SW","FM-12","99999","V020","290,1,N,0020,1","99999,9,9,N","050000,1,N,1","+0121,1","+0094,1","10159,1",,,,,,,"99999,9,09830,1","1,1,019,1,+999,9","SYN060AAXX  11001 02151 45984 /2902 10121 20094 39830 40159 51019;",
"02151099999","2010-07-11T03:00:00","4","66.4833333","20.1666666","275.0","JOKKMOKK FPL, SW","FM-12","99999","V020","300,1,N,0040,1","99999,9,9,N","045000,1,N,1","+0121,1","+0087,1","10175,1",,,,,,,"99999,9,09845,1","3,1,015,1,+999,9","SYN060AAXX  11031 02151 45983 /3004 10121 20087 39845 40175 53015;",
"02151099999","2010-07-11T06:00:00","4","66.4833333","20.1666666","275.0","JOKKMOKK FPL, SW","FM-12","99999","V020","330,1,N,0040,1","99999,9,9,N","040000,1,N,1","+0137,1","+0075,1","10188,1",,,,,"120,M,+0196,1","999,N,+0105,1","99999,9,09860,1","1,1,015,1,+999,9","SYN076AAXX  11061 02151 45982 /3304 10137 20075 39860 40188 51015 333 10196 20105;",
"02151099999","2010-07-11T09:00:00","4","66.4833333","20.1666666","275.0","JOKKMOKK FPL, SW","FM-12","99999","V020","310,1,N,0030,1","99999,9,9,N","045000,1,N,1","+0159,1","+0064,1","10195,1",,,"02,1,+01380,1,99,9",,,,"99999,9,09869,1","2,1,009,1,+999,9","SYN070AAXX  11091 02151 45683 /3103 10159 20064 39869 40195 52009 333 82/46;",
"02151099999","2010-07-11T12:00:00","4","66.4833333","20.1666666","275.0","JOKKMOKK FPL, SW","FM-12","99999","V020","180,1,N,0020,1","99999,9,9,N","040000,1,N,1","+0189,1","+0071,1","10187,1",,,,,,,"99999,9,09864,1","7,1,005,1,+999,9","SYN060AAXX  11121 02151 45982 /1802 10189 20071 39864 40187 57005;",
"02151099999","2010-07-11T15:00:00","4","66.4833333","20.1666666","275.0","JOKKMOKK FPL, SW","FM-12","99999","V020","160,1,N,0040,1","99999,9,9,N","045000,1,N,1","+0208,1","+0079,1","10177,1",,,,,,,"99999,9,09857,1","7,1,007,1,+999,9","SYN060AAXX  11151 02151 45983 /1604 10208 20079 39857 40177 57007;",
"02151099999","2010-07-11T18:00:00","4","66.4833333","20.1666666","275.0","JOKKMOKK FPL, SW","FM-12","99999","V020","160,1,N,0040,1","99999,9,9,N","050000,1,N,1","+0203,1","+0074,1","10168,1",,,"01,1,+02400,1,99,9",,"120,M,+0211,1","999,N,+0137,1","99999,9,09848,1","6,1,009,1,+999,9","SYN082AAXX  11181 02151 45984 /1604 10203 20074 39848 40168 56009 333 10211 20137 81/58;",
"02151099999","2010-07-11T21:00:00","4","66.4833333","20.1666666","275.0","JOKKMOKK FPL, SW","FM-12","99999","V020","140,1,N,0040,1","02400,1,C,N","050000,1,N,1","+0161,1","+0116,1","10162,1",,,"06,1,+02400,1,99,9",,,,"99999,9,09838,1","8,1,010,1,+999,9","SYN070AAXX  11211 02151 45984 /1404 10161 20116 39838 40162 58010 333 86/58;",
"02151099999","2010-07-12T00:00:00","4","66.4833333","20.1666666","275.0","JOKKMOKK FPL, SW","FM-12","99999","V020","140,1,N,0050,1","99999,9,9,N","050000,1,N,1","+0149,1","+0112,1","10149,1",,,"03,1,+01320,1,99,9",,,,"99999,9,09823,1","7,1,015,1,+999,9","SYN076AAXX  12001 02151 45684 /1405 10149 20112 39823 40149 57015 333 83/44 88/58;",
"02151099999","2010-07-12T03:00:00","4","66.4833333","20.1666666","275.0","JOKKMOKK FPL, SW","FM-12","99999","V020","140,1,N,0050,1","00180,1,C,N","004700,1,N,1","+0113,1","+0112,1","10138,1","52,1","8,1,03,1","09,1,+00180,1,99,9",,,,"99999,9,09809,1","8,1,014,1,+999,9","SYN076AAXX  12031 02151 47/47 /1405 10113 20112 39809 40138 58014 75286 333 89/06;",
"02151099999","2010-07-12T06:00:00","4","66.4833333","20.1666666","275.0","JOKKMOKK FPL, SW","FM-12","99999","V020","130,1,N,0020,1","99999,9,9,N","050000,1,N,1","+0125,1","+0122,1","10113,1","00,1","8,1,06,1","03,1,+00210,1,99,9",,"120,M,+0204,1","999,N,+0109,1","99999,9,09786,1","7,1,023,1,+999,9","SYN094AAXX  12061 02151 47384 /1302 10125 20122 39786 40113 57023 70086 333 10204 20109 83/07 88/33;",
"02151099999","2010-07-12T09:00:00","4","66.4833333","20.1666666","275.0","JOKKMOKK FPL, SW","FM-12","99999","V020","170,1,N,0040,1","01260,1,C,N","040000,1,N,1","+0181,1","+0155,1","10093,1",,,"01,1,+00570,1,99,9","05,1,+01260,1,99,9",,,"99999,9,09773,1","5,1,014,1,+999,9","SYN082AAXX  12091 02151 45482 /1704 10181 20155 39773 40093 55014 333 81/19 85/42 87/71;",
"02151099999","2010-07-12T12:00:00","4","66.4833333","20.1666666","275.0","JOKKMOKK FPL, SW","FM-12","99999","V020","260,1,N,0030,1","99999,9,9,N","045000,1,N,1","+0197,1","+0155,1","10092,1",,,"03,1,+00990,1,99,9",,,,"99999,9,09773,1","0,1,001,1,+999,9","SYN076AAXX  12121 02151 45583 /2603 10197 20155 39773 40092 50001 333 83/33 88/50;",
"02151099999","2010-07-12T15:00:00","4","66.4833333","20.1666666","275.0","JOKKMOKK FPL, SW","FM-12","99999","V020","200,1,N,0020,1","99999,9,9,N","045000,1,N,1","+0241,1","+0155,1","10075,1",,,"01,1,+01500,1,99,9",,,,"99999,9,09762,1","7,1,012,1,+999,9","SYN076AAXX  12151 02151 45783 /2002 10241 20155 39762 40075 57012 333 81/50 83/57;",
"02151099999","2010-07-12T18:00:00","4","66.4833333","20.1666666","275.0","JOKKMOKK FPL, SW","FM-12","99999","V020","300,1,N,0060,1","01800,1,C,N","040000,1,N,1","+0205,1","+0154,1","10086,1","61,1","6,1,06,1","06,1,+01800,1,99,9",,"120,M,+0249,1","999,N,+0125,1","99999,9,09768,1","3,1,007,1,+999,9","SYN094AAXX  12181 02151 47782 /3006 10205 20154 39768 40086 53007 76160 333 10249 20125 86/56 88/58;",
"02151099999","2010-07-12T21:00:00","4","66.4833333","20.1666666","275.0","JOKKMOKK FPL, SW","FM-12","99999","V020","260,1,N,0030,1","99999,9,9,N","050000,1,N,1","+0165,1","+0122,1","10113,1","00,1","8,1,03,1","01,1,+02700,1,99,9",,,,"99999,9,09791,1","1,1,022,1,+999,9","SYN076AAXX  12211 02151 47984 /2603 10165 20122 39791 40113 51022 70086 333 81/59;",
"02151099999","2010-07-13T00:00:00","4","66.4833333","20.1666666","275.0","JOKKMOKK FPL, SW","FM-12","99999","V020","240,1,N,0040,1","99999,9,9,N","050000,1,N,1","+0130,1","+0080,1","10134,1","00,1","8,1,06,1",,,,,"99999,9,09807,1","1,1,016,1,+999,9","SYN066AAXX  13001 02151 47984 /2404 10130 20080 39807 40134 51016 70086;",
"02151099999","2010-07-13T03:00:00","4","66.4833333","20.1666666","275.0","JOKKMOKK FPL, SW","FM-12","99999","V020","270,1,N,0050,1","99999,9,9,N","050000,1,N,1","+0123,1","+0073,1","10146,1",,,,,,,"99999,9,09818,1","1,1,011,1,+999,9","SYN060AAXX  13031 02151 45984 /2705 10123 20073 39818 40146 51011;",
"02151099999","2010-07-13T06:00:00","4","66.4833333","20.1666666","275.0","JOKKMOKK FPL, SW","FM-12","99999","V020","300,1,N,0040,1","99999,9,9,N","050000,1,N,1","+0139,1","+0068,1","10147,1",,,,,"120,M,+0205,1","999,N,+0114,1","99999,9,09821,1","0,1,003,1,+999,9","SYN076AAXX  13061 02151 45984 /3004 10139 20068 39821 40147 50003 333 10205 20114;",
"02151099999","2010-07-13T09:00:00","4","66.4833333","20.1666666","275.0","JOKKMOKK FPL, SW","FM-12","99999","V020","320,1,N,0020,1","02400,1,C,N","050000,1,N,1","+0145,1","+0065,1","10156,1",,,"08,1,+02400,1,99,9",,,,"99999,9,09829,1","0,1,009,1,+999,9","SYN070AAXX  13091 02151 45984 /3202 10145 20065 39829 40156 50009 333 88/58;",
"02151099999","2010-07-13T12:00:00","4","66.4833333","20.1666666","275.0","JOKKMOKK FPL, SW","FM-12","99999","V020","110,1,N,0020,1","01800,1,C,N","050000,1,N,1","+0153,1","+0080,1","10144,1",,,"08,1,+01800,1,99,9",,,,"99999,9,09819,1","8,1,010,1,+999,9","SYN070AAXX  13121 02151 45884 /1102 10153 20080 39819 40144 58010 333 88/56;",
"02151099999","2010-07-13T15:00:00","4","66.4833333","20.1666666","275.0","JOKKMOKK FPL, SW","FM-12","99999","V020","340,1,N,0020,1","01140,1,C,N","050000,1,N,1","+0147,1","+0100,1","10129,1","23,1","8,1,03,1","08,1,+01140,1,99,9",,,,"99999,9,09804,1","6,1,015,1,+999,9","SYN076AAXX  13151 02151 47684 /3402 10147 20100 39804 40129 56015 72386 333 88/38;",
"02151099999","2010-07-13T18:00:00","4","66.4833333","20.1666666","275.0","JOKKMOKK FPL, SW","FM-12","99999","V020","350,1,N,0010,1","99999,9,9,N","023000,1,N,1","+0119,1","+0116,1","10116,1","62,1","8,1,06,1","01,1,+00300,1,99,9",,"120,M,+0161,1","999,N,+0119,1","99999,9,09788,1","8,1,016,1,+999,9","SYN094AAXX  13181 02151 47473 /3501 10119 20116 39788 40116 58016 76286 333 10161 20119 81/10 85/29;",
"02151099999","2010-07-13T21:00:00","4","66.4833333","20.1666666","275.0","JOKKMOKK FPL, SW","FM-12","99999","V020","999,9,C,0000,1","00720,1,C,N","050000,1,N,1","+0118,1","+0118,1","10113,1","22,1","8,1,03,1","08,1,+00720,1,99,9",,,,"99999,9,09785,1","8,1,003,1,+999,9","SYN076AAXX  13211 02151 47584 /0000 10118 20118 39785 40113 58003 72286 333 88/24;",
"02151099999","2010-07-14T00:00:00","4","66.4833333","20.1666666","275.0","JOKKMOKK FPL, SW","FM-12","99999","V020","999,9,C,0000,1","99999,9,9,N","050000,1,N,1","+0115,1","+0115,1","10095,1","00,1","8,1,06,1","04,1,+01080,1,99,9",,,,"99999,9,09767,1","6,1,018,1,+999,9","SYN076AAXX  14001 02151 47684 /0000 10115 20115 39767 40095 56018 70086 333 84/36;",
"02151099999","2010-07-14T03:00:00","4","66.4833333","20.1666666","275.0","JOKKMOKK FPL, SW","FM-12","99999","V020","130,1,N,0020,1","99999,9,9,N","040000,1,N,1","+0132,1","+0128,1","10060,1",,,"04,1,+00420,1,99,9",,,,"99999,9,09736,1","8,1,031,1,+999,9","SYN070AAXX  14031 02151 45482 /1302 10132 20128 39736 40060 58031 333 84/14;",
"02151099999","2010-07-14T06:00:00","4","66.4833333","20.1666666","275.0","JOKKMOKK FPL, SW","FM-12","99999","V020","120,1,N,0010,1","99999,9,9,N","019000,1,N,1","+0152,1","+0152,1","10041,1","23,1","8,1,06,1","04,1,+00330,1,99,9",,"120,M,+0152,1","999,N,+0112,1","99999,9,09720,1","6,1,016,1,+999,9","SYN094AAXX  14061 02151 47469 /1201 10152 20152 39720 40041 56016 72386 333 10152 20112 84/11 85/14;",
"02151099999","2010-07-14T09:00:00","4","66.4833333","20.1666666","275.0","JOKKMOKK FPL, SW","FM-12","99999","V020","180,1,N,0030,1","99999,9,9,N","012000,1,N,1","+0185,1","+0179,1","10041,1","61,1","8,1,03,1","02,1,+00540,1,99,9",,,,"99999,9,09723,1","3,1,003,1,+999,9","SYN082AAXX  14091 02151 47462 /1803 10185 20179 39723 40041 53003 76186 333 82/18 83/30;",
"02151099999","2010-07-14T12:00:00","4","66.4833333","20.1666666","275.0","JOKKMOKK FPL, SW","FM-12","99999","V020","240,1,N,0040,1","99999,9,9,N","045000,1,N,1","+0210,1","+0158,1","10029,1","00,1","8,1,06,1","03,1,+01020,1,99,9",,,,"99999,9,09714,1","5,1,009,1,+999,9","SYN082AAXX  14121 02151 47683 /2404 10210 20158 39714 40029 55009 70086 333 83/34 86/56;",
"02151099999","2010-07-14T15:00:00","4","66.4833333","20.1666666","275.0","JOKKMOKK FPL, SW","FM-12","99999","V020","280,1,N,0040,1","99999,9,9,N","050000,1,N,1","+0207,1","+0150,1","10037,1",,,"03,1,+01470,1,99,9",,,,"99999,9,09721,1","3,1,007,1,+999,9","SYN076AAXX  14151 02151 45684 /2804 10207 20150 39721 40037 53007 333 83/49 86/59;",
"02151099999","2010-07-14T18:00:00","4","66.4833333","20.1666666","275.0","JOKKMOKK FPL, SW","FM-12","99999","V020","340,1,N,0040,1","00900,1,C,N","050000,1,N,1","+0156,1","+0116,1","10070,1",,,"07,1,+00900,1,99,9",,"120,M,+0233,1","999,N,+0152,1","99999,9,09748,1","3,1,026,1,+999,9","SYN088AAXX  14181 02151 45584 /3404 10156 20116 39748 40070 53026 333 10233 20152 87/30 88/50;",
"02151099999","2010-07-14T21:00:00","4","66.4833333","20.1666666","275.0","JOKKMOKK FPL, SW","FM-12","99999","V020","350,1,N,0030,1","00660,1,C,N","040000,1,N,1","+0113,1","+0098,1","10109,1",,,"08,1,+00660,1,99,9",,,,"99999,9,09780,1","3,1,032,1,+999,9","SYN070AAXX  14211 02151 45582 /3503 10113 20098 39780 40109 53032 333 88/22;",
"02151099999","2010-07-15T00:00:00","4","66.4833333","20.1666666","275.0","JOKKMOKK FPL, SW","FM-12","99999","V020","330,1,N,0020,1","01350,1,C,N","050000,1,N,1","+0106,1","+0080,1","10139,1","00,1","8,1,06,1","07,1,+01350,1,99,9",,,,"99999,9,09809,1","3,1,029,1,+999,9","SYN082AAXX  15001 02151 47684 /3302 10106 20080 39809 40139 53029 70086 333 87/45 88/50;",
"02151099999","2010-07-15T06:00:00","4","66.4833333","20.1666666","275.0","JOKKMOKK FPL, SW","FM-12","99999","V020","010,1,N,0020,1","99999,9,9,N","040000,1,N,1","+0123,1","+0052,1","10181,1",,,,,"120,M,+0156,1","999,N,+0093,1","99999,9,09852,1","3,1,017,1,+999,9","SYN076AAXX  15061 02151 45982 /0102 10123 20052 39852 40181 53017 333 10156 20093;",
"02151099999","2010-07-15T09:00:00","4","66.4833333","20.1666666","275.0","JOKKMOKK FPL, SW","FM-12","99999","V020","050,1,N,0020,1","99999,9,9,N","035000,1,N,1","+0143,1","+0053,1","10184,1",,,,,,,"99999,9,09857,1","2,1,005,1,+999,9","SYN060AAXX  15091 02151 45981 /0502 10143 20053 39857 40184 52005;",
"02151099999","2010-07-15T12:00:00","4","66.4833333","20.1666666","275.0","JOKKMOKK FPL, SW","FM-12","99999","V020","080,1,N,0020,1","99999,9,9,N","040000,1,N,1","+0157,1","+0062,1","10184,1",,,"01,1,+01500,1,99,9",,,,"99999,9,09858,1","2,1,001,1,+999,9","SYN070AAXX  15121 02151 45782 /0802 10157 20062 39858 40184 52001 333 81/50;",
"02151099999","2010-07-15T15:00:00","4","66.4833333","20.1666666","275.0","JOKKMOKK FPL, SW","FM-12","99999","V020","150,1,N,0030,1","01500,1,C,N","050000,1,N,1","+0171,1","+0077,1","10177,1",,,"08,1,+01500,1,99,9",,,,"99999,9,09853,1","7,1,005,1,+999,9","SYN070AAXX  15151 02151 45784 /1503 10171 20077 39853 40177 57005 333 88/50;",
"02151099999","2010-07-15T18:00:00","4","66.4833333","20.1666666","275.0","JOKKMOKK FPL, SW","FM-12","99999","V020","120,1,N,0020,1","01500,1,C,N","050000,1,N,1","+0163,1","+0082,1","10173,1",,,"08,1,+01500,1,99,9",,"120,M,+0178,1","999,N,+0117,1","99999,9,09849,1","7,1,004,1,+999,9","SYN082AAXX  15181 02151 45784 /1202 10163 20082 39849 40173 57004 333 10178 20117 88/50;",
"02151099999","2010-07-15T21:00:00","4","66.4833333","20.1666666","275.0","JOKKMOKK FPL, SW","FM-12","99999","V020","110,1,N,0020,1","01500,1,C,N","050000,1,N,1","+0142,1","+0087,1","10179,1",,,"08,1,+01500,1,99,9",,,,"99999,9,09852,1","2,1,003,1,+999,9","SYN070AAXX  15211 02151 45784 /1102 10142 20087 39852 40179 52003 333 88/50;",
"02151099999","2010-07-16T00:00:00","4","66.4833333","20.1666666","275.0","JOKKMOKK FPL, SW","FM-12","99999","V020","999,9,C,0000,1","01470,1,C,N","050000,1,N,1","+0117,1","+0090,1","10188,1",,,"08,1,+01470,1,99,9",,,,"99999,9,09858,1","2,1,006,1,+999,9","SYN070AAXX  16001 02151 45684 /0000 10117 20090 39858 40188 52006 333 88/49;",
"02151099999","2010-07-16T03:00:00","4","66.4833333","20.1666666","275.0","JOKKMOKK FPL, SW","FM-12","99999","V020","120,1,N,0010,1","99999,9,9,N","050000,1,N,1","+0115,1","+0086,1","10180,1",,,"01,1,+04500,1,99,9",,,,"99999,9,09850,1","5,1,008,1,+999,9","SYN070AAXX  16031 02151 45984 /1201 10115 20086 39850 40180 55008 333 81/65;",
"02151099999","2010-07-16T06:00:00","4","66.4833333","20.1666666","275.0","JOKKMOKK FPL, SW","FM-12","99999","V020","120,1,N,0030,1","05100,1,C,N","050000,1,N,1","+0141,1","+0097,1","10170,1",,,"05,1,+05100,1,99,9",,"120,M,+0164,1","999,N,+0109,1","99999,9,09843,1","6,1,007,1,+999,9","SYN082AAXX  16061 02151 45984 /1203 10141 20097 39843 40170 56007 333 10164 20109 85/67;",
"02151099999","2010-07-16T09:00:00","4","66.4833333","20.1666666","275.0","JOKKMOKK FPL, SW","FM-12","99999","V020","100,1,N,0020,1","99999,9,9,N","050000,1,N,1","+0166,1","+0098,1","10165,1",,,"04,1,+01230,1,99,9",,,,"99999,9,09841,1","7,1,002,1,+999,9","SYN076AAXX  16091 02151 45684 /1002 10166 20098 39841 40165 57002 333 84/41 88/61;",
"02151099999","2010-07-16T12:00:00","4","66.4833333","20.1666666","275.0","JOKKMOKK FPL, SW","FM-12","99999","V020","160,1,N,0010,1","99999,9,9,N","040000,1,N,1","+0167,1","+0117,1","10164,1","23,1","8,1,06,1","01,1,+03300,1,99,9",,,,"99999,9,09840,1","4,1,000,1,+999,9","SYN076AAXX  16121 02151 47982 /1601 10167 20117 39840 40164 54000 72386 333 81/61;",
"02151099999","2010-07-16T15:00:00","4","66.4833333","20.1666666","275.0","JOKKMOKK FPL, SW","FM-12","99999","V020","110,1,N,0010,1","99999,9,9,N","050000,1,N,1","+0178,1","+0127,1","10160,1","22,1","8,1,03,1","01,1,+02100,1,99,9",,,,"99999,9,09837,1","8,1,004,1,+999,9","SYN076AAXX  16151 02151 47884 /1101 10178 20127 39837 40160 58004 72286 333 81/57;",
"02151099999","2010-07-16T18:00:00","4","66.4833333","20.1666666","275.0","JOKKMOKK FPL, SW","FM-12","99999","V020","130,1,N,0020,1","01260,1,C,N","050000,1,N,1","+0177,1","+0134,1","10157,1","00,1","8,1,06,1","08,1,+01260,1,99,9",,"120,M,+0185,1","999,N,+0138,1","99999,9,09835,1","7,1,002,1,+999,9","SYN088AAXX  16181 02151 47684 /1302 10177 20134 39835 40157 57002 70086 333 10185 20138 88/42;",
"02151099999","2010-07-16T21:00:00","4","66.4833333","20.1666666","275.0","JOKKMOKK FPL, SW","FM-12","99999","V020","160,1,N,0010,1","99999,9,9,N","050000,1,N,1","+0163,1","+0145,1","10168,1",,,"01,1,+01140,1,99,9",,,,"99999,9,09844,1","3,1,009,1,+999,9","SYN076AAXX  16211 02151 45684 /1601 10163 20145 39844 40168 53009 333 81/38 88/56;",
"02151099999","2010-07-17T00:00:00","4","66.4833333","20.1666666","275.0","JOKKMOKK FPL, SW","FM-12","99999","V020","150,1,N,0010,1","99999,9,9,N","035000,1,N,1","+0134,1","+0132,1","10176,1",,,"02,1,+00930,1,99,9",,,,"99999,9,09848,1","2,1,004,1,+999,9","SYN076AAXX  17001 02151 45581 /1501 10134 20132 39848 40176 52004 333 82/31 88/50;",
"02151099999","2010-07-17T03:00:00","4","66.4833333","20.1666666","275.0","JOKKMOKK FPL, SW","FM-12","99999","V020","140,1,N,0020,1","00090,1,C,N","019000,1,N,1","+0135,1","+0134,1","10174,1",,,"07,1,+00090,1,99,9",,,,"99999,9,09846,1","7,1,001,1,+999,9","SYN076AAXX  17031 02151 45269 /1402 10135 20134 39846 40174 57001 333 87/03 88/14;",
"02151099999","2010-07-17T06:00:00","4","66.4833333","20.1666666","275.0","JOKKMOKK FPL, SW","FM-12","99999","V020","130,1,N,0040,1","00240,1,C,N","025000,1,N,1","+0152,1","+0144,1","10176,1",,,"08,1,+00240,1,99,9",,"120,M,+0177,1","999,N,+0131,1","99999,9,09850,1","2,1,004,1,+999,9","SYN082AAXX  17061 02151 45375 /1304 10152 20144 39850 40176 52004 333 10177 20131 88/08;",
"02151099999","2010-07-17T09:00:00","4","66.4833333","20.1666666","275.0","JOKKMOKK FPL, SW","FM-12","99999","V020","180,1,N,0050,1","00390,1,C,N","040000,1,N,1","+0177,1","+0156,1","10176,1",,,"07,1,+00390,1,99,9",,,,"99999,9,09853,1","2,1,002,1,+999,9","SYN076AAXX  17091 02151 45482 /1805 10177 20156 39853 40176 52002 333 87/13 88/16;",
"02151099999","2010-07-17T12:00:00","4","66.4833333","20.1666666","275.0","JOKKMOKK FPL, SW","FM-12","99999","V020","130,1,N,0060,1","22000,1,C,N","040000,1,N,1","+0196,1","+0164,1","10163,1",,,"02,1,+00750,1,99,9","03,1,+00960,1,99,9",,,"99999,9,09842,1","8,1,010,1,+999,9","SYN082AAXX  17121 02151 45582 /1306 10196 20164 39842 40163 58010 333 82/25 83/32 86/45;",
"02151099999","2010-07-17T15:00:00","4","66.4833333","20.1666666","275.0","JOKKMOKK FPL, SW","FM-12","99999","V020","140,1,N,0060,1","99999,9,9,N","040000,1,N,1","+0216,1","+0175,1","10154,1",,,"04,1,+01800,1,99,9",,,,"99999,9,09835,1","7,1,007,1,+999,9","SYN076AAXX  17151 02151 45782 /1406 10216 20175 39835 40154 57007 333 84/56 85/57;",
"02151099999","2010-07-17T18:00:00","4","66.4833333","20.1666666","275.0","JOKKMOKK FPL, SW","FM-12","99999","V020","140,1,N,0040,1","99999,9,9,N","045000,1,N,1","+0195,1","+0171,1","10154,1",,,"02,1,+01800,1,99,9",,"120,M,+0225,1","999,N,+0149,1","99999,9,09833,1","7,1,002,1,+999,9","SYN088AAXX  17181 02151 45783 /1404 10195 20171 39833 40154 57002 333 10225 20149 82/56 86/58;",
"02151099999","2010-07-17T21:00:00","4","66.4833333","20.1666666","275.0","JOKKMOKK FPL, SW","FM-12","99999","V020","140,1,N,0020,1","99999,9,9,N","035000,1,N,1","+0162,1","+0156,1","10160,1",,,,,,,"99999,9,09836,1","2,1,002,1,+999,9","SYN060AAXX  17211 02151 45981 /1402 10162 20156 39836 40160 52002;",
"02151099999","2010-07-18T00:00:00","4","66.4833333","20.1666666","275.0","JOKKMOKK FPL, SW","FM-12","99999","V020","130,1,N,0020,1","00120,1,C,N","012000,1,N,1","+0149,1","+0149,1","10158,1",,,"08,1,+00120,1,99,9",,,,"99999,9,09832,1","8,1,004,1,+999,9","SYN070AAXX  18001 02151 45262 /1302 10149 20149 39832 40158 58004 333 88/04;",
"02151099999","2010-07-18T03:00:00","4","66.4833333","20.1666666","275.0","JOKKMOKK FPL, SW","FM-12","99999","V020","130,1,N,0020,1","00090,1,C,N","007000,1,N,1","+0145,1","+0145,1","10149,1","52,1","8,1,03,1","07,1,+00090,1,99,9",,,,"99999,9,09823,1","7,1,009,1,+999,9","SYN076AAXX  18031 02151 47257 /1302 10145 20145 39823 40149 57009 75286 333 87/03;",
"02151099999","2010-07-18T06:00:00","4","66.4833333","20.1666666","275.0","JOKKMOKK FPL, SW","FM-12","99999","V020","120,1,N,0030,1","99999,9,9,N","011000,1,N,1","+0154,1","+0154,1","10121,1","51,1","8,1,06,1","01,1,+00150,1,99,9",,"120,M,+0195,1","999,N,+0145,1","99999,9,09797,1","8,1,026,1,+999,9","SYN088AAXX  18061 02151 47261 /1203 10154 20154 39797 40121 58026 75186 333 10195 20145 81/05;",
"02151099999","2010-07-18T09:00:00","4","66.4833333","20.1666666","275.0","JOKKMOKK FPL, SW","FM-12","99999","V020","140,1,N,0050,1","00270,1,C,N","005000,1,N,1","+0152,1","+0152,1","10097,1","81,1","8,1,03,1","09,1,+00270,1,99,9",,,,"99999,9,09773,1","6,1,024,1,+999,9","SYN076AAXX  18091 02151 47/50 /1405 10152 20152 39773 40097 56024 78186 333 89/09;",
"02151099999","2010-07-18T12:00:00","4","66.4833333","20.1666666","275.0","JOKKMOKK FPL, SW","FM-12","99999","V020","140,1,N,0030,1","99999,9,9,N","012000,1,N,1","+0165,1","+0164,1","10068,1","00,1","8,1,06,1","04,1,+00270,1,99,9",,,,"99999,9,09747,1","6,1,027,1,+999,9","SYN082AAXX  18121 02151 47362 /1403 10165 20164 39747 40068 56027 70086 333 84/09 88/14;",
"02151099999","2010-07-18T15:00:00","4","66.4833333","20.1666666","275.0","JOKKMOKK FPL, SW","FM-12","99999","V020","270,1,N,0030,1","22000,1,C,N","018000,1,N,1","+0139,1","+0129,1","10056,1","62,1","8,1,03,1","02,1,+00300,1,99,9","03,1,+00450,1,99,9",,,"99999,9,09733,1","5,1,014,1,+999,9","SYN088AAXX  18151 02151 47468 /2703 10139 20129 39733 40056 55014 76286 333 82/10 83/15 85/23;",
"02151099999","2010-07-18T18:00:00","4","66.4833333","20.1666666","275.0","JOKKMOKK FPL, SW","FM-12","99999","V020","280,1,N,0070,1","99999,9,9,N","050000,1,N,1","+0147,1","+0100,1","10083,1","00,1","8,1,06,1","02,1,+06600,1,99,9",,"120,M,+0184,1","999,N,+0138,1","99999,9,09759,1","1,1,026,1,+999,9","SYN088AAXX  18181 02151 47984 /2807 10147 20100 39759 40083 51026 70086 333 10184 20138 82/72;",
"02151099999","2010-07-18T21:00:00","4","66.4833333","20.1666666","275.0","JOKKMOKK FPL, SW","FM-12","99999","V020","260,1,N,0040,1","99999,9,9,N","050000,1,N,1","+0128,1","+0088,1","10113,1",,,,,,,"99999,9,09786,1","1,1,027,1,+999,9","SYN060AAXX  18211 02151 45984 /2604 10128 20088 39786 40113 51027;",
"02151099999","2010-07-19T00:00:00","4","66.4833333","20.1666666","275.0","JOKKMOKK FPL, SW","FM-12","99999","V020","280,1,N,0040,1","99999,9,9,N","045000,1,N,1","+0110,1","+0055,1","10123,1",,,,,,,"99999,9,09794,1","1,1,008,1,+999,9","SYN060AAXX  19001 02151 45983 /2804 10110 20055 39794 40123 51008;",
"02151099999","2010-07-19T03:00:00","4","66.4833333","20.1666666","275.0","JOKKMOKK FPL, SW","FM-12","99999","V020","250,1,N,0030,1","99999,9,9,N","045000,1,N,1","+0109,1","+0060,1","10121,1",,,,,,,"99999,9,09792,1","8,1,002,1,+999,9","SYN060AAXX  19031 02151 45983 /2503 10109 20060 39792 40121 58002;",
"02151099999","2010-07-19T06:00:00","4","66.4833333","20.1666666","275.0","JOKKMOKK FPL, SW","FM-12","99999","V020","270,1,N,0040,1","99999,9,9,N","035000,1,N,1","+0137,1","+0066,1","10117,1",,,,,"120,M,+0147,1","999,N,+0096,1","99999,9,09791,1","7,1,001,1,+999,9","SYN076AAXX  19061 02151 45981 /2704 10137 20066 39791 40117 57001 333 10147 20096;",
"02151099999","2010-07-19T09:00:00","4","66.4833333","20.1666666","275.0","JOKKMOKK FPL, SW","FM-12","99999","V020","260,1,N,0040,1","99999,9,9,N","040000,1,N,1","+0158,1","+0076,1","10116,1",,,"02,1,+02100,1,99,9",,,,"99999,9,09792,1","2,1,002,1,+999,9","SYN070AAXX  19091 02151 45882 /2604 10158 20076 39792 40116 52002 333 82/57;",
"02151099999","2010-07-19T12:00:00","4","66.4833333","20.1666666","275.0","JOKKMOKK FPL, SW","FM-12","99999","V020","210,1,N,0060,1","99999,9,9,N","040000,1,N,1","+0172,1","+0092,1","10099,1",,,"01,1,+01800,1,99,9",,,,"99999,9,09777,1","7,1,015,1,+999,9","SYN076AAXX  19121 02151 45882 /2106 10172 20092 39777 40099 57015 333 81/56 86/60;",
"02151099999","2010-07-19T15:00:00","4","66.4833333","20.1666666","275.0","JOKKMOKK FPL, SW","FM-12","99999","V020","220,1,N,0040,1","01800,1,C,N","050000,1,N,1","+0175,1","+0102,1","10083,1",,,"08,1,+01800,1,99,9",,,,"99999,9,09763,1","7,1,015,1,+999,9","SYN070AAXX  19151 02151 45884 /2204 10175 20102 39763 40083 57015 333 88/56;",
"02151099999","2010-07-19T18:00:00","4","66.4833333","20.1666666","275.0","JOKKMOKK FPL, SW","FM-12","99999","V020","260,1,N,0020,1","01500,1,C,N","045000,1,N,1","+0141,1","+0111,1","10087,1","81,1","8,1,06,1","07,1,+01500,1,99,9",,"120,M,+0193,1","999,N,+0137,1","99999,9,09762,1","5,1,000,1,+999,9","SYN088AAXX  19181 02151 47783 /2602 10141 20111 39762 40087 55000 78186 333 10193 20137 87/50;",
"02151099999","2010-07-19T21:00:00","4","66.4833333","20.1666666","275.0","JOKKMOKK FPL, SW","FM-12","99999","V020","150,1,N,0010,1","99999,9,9,N","050000,1,N,1","+0098,1","+0092,1","10097,1","00,1","8,1,03,1",,,,,"99999,9,09767,1","3,1,005,1,+999,9","SYN066AAXX  19211 02151 47984 /1501 10098 20092 39767 40097 53005 70086;",
"02151099999","2010-07-20T00:00:00","4","66.4833333","20.1666666","275.0","JOKKMOKK FPL, SW","FM-12","99999","V020","230,1,N,0010,1","99999,9,9,N","050000,1,N,1","+0103,1","+0078,1","10093,1","00,1","8,1,06,1",,,,,"99999,9,09764,1","7,1,003,1,+999,9","SYN066AAXX  20001 02151 47984 /2301 10103 20078 39764 40093 57003 70086;",
"02151099999","2010-07-20T03:00:00","4","66.4833333","20.1666666","275.0","JOKKMOKK FPL, SW","FM-12","99999","V020","100,1,N,0010,1","99999,9,9,N","050000,1,N,1","+0092,1","+0080,1","10098,1",,,,,,,"99999,9,09767,1","3,1,003,1,+999,9","SYN060AAXX  20031 02151 45984 /1001 10092 20080 39767 40098 53003;",
"02151099999","2010-07-20T06:00:00","4","66.4833333","20.1666666","275.0","JOKKMOKK FPL, SW","FM-12","99999","V020","250,1,N,0040,1","99999,9,9,N","045000,1,N,1","+0147,1","+0088,1","10090,1",,,"03,1,+05400,1,99,9",,"120,M,+0153,1","999,N,+0063,1","99999,9,09766,1","5,1,001,1,+999,9","SYN082AAXX  20061 02151 45983 /2504 10147 20088 39766 40090 55001 333 10153 20063 83/68;",
"02151099999","2010-07-20T09:00:00","4","66.4833333","20.1666666","275.0","JOKKMOKK FPL, SW","FM-12","99999","V020","270,1,N,0050,1","99999,9,9,N","035000,1,N,1","+0171,1","+0073,1","10089,1",,,"02,1,+01500,1,99,9",,,,"99999,9,09767,1","4,1,000,1,+999,9","SYN076AAXX  20091 02151 45781 /2705 10171 20073 39767 40089 54001 333 82/50 84/59;",
"02151099999","2010-07-20T12:00:00","4","66.4833333","20.1666666","275.0","JOKKMOKK FPL, SW","FM-12","99999","V020","250,1,N,0040,1","99999,9,9,N","050000,1,N,1","+0178,1","+0083,1","10084,1",,,"02,1,+01500,1,99,9",,,,"99999,9,09764,1","7,1,004,1,+999,9","SYN076AAXX  20121 02151 45784 /2504 10178 20083 39764 40084 57004 333 82/50 85/59;",
"02151099999","2010-07-20T15:00:00","4","66.4833333","20.1666666","275.0","JOKKMOKK FPL, SW","FM-12","99999","V020","250,1,N,0040,1","99999,9,9,N","040000,1,N,1","+0179,1","+0098,1","10083,1",,,,,,,"99999,9,09763,1","4,1,000,1,+999,9","SYN060AAXX  20151 02151 45982 /2504 10179 20098 39763 40083 54001;",
"02151099999","2010-07-20T18:00:00","4","66.4833333","20.1666666","275.0","JOKKMOKK FPL, SW","FM-12","99999","V020","270,1,N,0030,1","01800,1,C,N","050000,1,N,1","+0167,1","+0074,1","10086,1",,,"05,1,+01800,1,99,9",,"120,M,+0187,1","999,N,+0144,1","99999,9,09765,1","3,1,002,1,+999,9","SYN082AAXX  20181 02151 45784 /2703 10167 20074 39765 40086 53002 333 10187 20144 85/56;",
"02151099999","2010-07-20T21:00:00","4","66.4833333","20.1666666","275.0","JOKKMOKK FPL, SW","FM-12","99999","V020","280,1,N,0010,1","03600,1,C,N","050000,1,N,1","+0132,1","+0085,1","10095,1",,,"08,1,+03600,1,99,9",,,,"99999,9,09770,1","2,1,005,1,+999,9","SYN070AAXX  20211 02151 45984 /2801 10132 20085 39770 40095 52005 333 88/62;",
"02151099999","2010-07-21T00:00:00","4","66.4833333","20.1666666","275.0","JOKKMOKK FPL, SW","FM-12","99999","V020","999,9,C,0000,1","99999,9,9,N","050000,1,N,1","+0086,1","+0079,1","10099,1",,,"02,1,+01500,1,99,9",,,,"99999,9,09768,1","7,1,002,1,+999,9","SYN076AAXX  21001 02151 45784 /0000 10086 20079 39768 40099 57002 333 82/50 86/63;",
"02151099999","2010-07-21T03:00:00","4","66.4833333","20.1666666","275.0","JOKKMOKK FPL, SW","FM-12","99999","V020","999,9,C,0000,1","99999,9,9,N","050000,1,N,1","+0100,1","+0093,1","10095,1",,,"01,1,+01320,1,99,9",,,,"99999,9,09766,1","7,1,002,1,+999,9","SYN076AAXX  21031 02151 45684 /0000 10100 20093 39766 40095 57002 333 81/44 84/58;",
"02151099999","2010-07-21T06:00:00","4","66.4833333","20.1666666","275.0","JOKKMOKK FPL, SW","FM-12","99999","V020","999,9,C,0000,1","99999,9,9,N","035000,1,N,1","+0142,1","+0095,1","10090,1",,,"02,1,+01170,1,99,9",,"120,M,+0167,1","999,N,+0085,1","99999,9,09766,1","4,1,000,1,+999,9","SYN088AAXX  21061 02151 45681 /0000 10142 20095 39766 40090 54000 333 10167 20085 82/39 83/58;",
"02151099999","2010-07-21T09:00:00","4","66.4833333","20.1666666","275.0","JOKKMOKK FPL, SW","FM-12","99999","V020","140,1,N,0010,1","99999,9,9,N","050000,1,N,1","+0160,1","+0095,1","10084,1",,,"02,1,+01080,1,99,9",,,,"99999,9,09762,1","7,1,004,1,+999,9","SYN076AAXX  21091 02151 45684 /1401 10160 20095 39762 40084 57004 333 82/36 86/48;",
"02151099999","2010-07-21T12:00:00","4","66.4833333","20.1666666","275.0","JOKKMOKK FPL, SW","FM-12","99999","V020","120,1,N,0020,1","01500,1,C,N","050000,1,N,1","+0172,1","+0119,1","10078,1","81,1","8,1,06,1","08,1,+01500,1,99,9",,,,"99999,9,09758,1","7,1,004,1,+999,9","SYN076AAXX  21121 02151 47784 /1202 10172 20119 39758 40078 57004 78186 333 88/50;",
"02151099999","2010-07-21T15:00:00","4","66.4833333","20.1666666","275.0","JOKKMOKK FPL, SW","FM-12","99999","V020","120,1,N,0020,1","01260,1,C,N","050000,1,N,1","+0177,1","+0132,1","10065,1","00,1","8,1,03,1","05,1,+01260,1,99,9",,,,"99999,9,09745,1","7,1,013,1,+999,9","SYN082AAXX  21151 02151 47684 /1202 10177 20132 39745 40065 57013 70082 333 85/42 88/50;",
"02151099999","2010-07-21T18:00:00","4","66.4833333","20.1666666","275.0","JOKKMOKK FPL, SW","FM-12","99999","V020","140,1,N,0030,1","00210,1,C,N","023000,1,N,1","+0148,1","+0148,1","10059,1","61,1","8,1,06,1","07,1,+00210,1,99,9",,"120,M,+0187,1","999,N,+0135,1","99999,9,09736,1","6,1,009,1,+999,9","SYN094AAXX  21181 02151 47373 /1403 10148 20148 39736 40059 56009 76186 333 10187 20135 87/07 88/09;",
"02151099999","2010-07-21T21:00:00","4","66.4833333","20.1666666","275.0","JOKKMOKK FPL, SW","FM-12","99999","V020","160,1,N,0020,1","99999,9,9,N","050000,1,N,1","+0137,1","+0137,1","10049,1","22,1","8,1,03,1","01,1,+00240,1,99,9",,,,"99999,9,09725,1","6,1,011,1,+999,9","SYN082AAXX  21211 02151 47384 /1602 10137 20137 39725 40049 56011 72286 333 81/08 88/12;",
"02151099999","2010-07-22T00:00:00","4","66.4833333","20.1666666","275.0","JOKKMOKK FPL, SW","FM-12","99999","V020","150,1,N,0020,1","00150,1,C,N","050000,1,N,1","+0134,1","+0134,1","10039,1","00,1","8,1,06,1","08,1,+00150,1,99,9",,,,"99999,9,09715,1","7,1,010,1,+999,9","SYN076AAXX  22001 02151 47284 /1502 10134 20134 39715 40039 57010 70086 333 88/05;",
"02151099999","2010-07-22T03:00:00","4","66.4833333","20.1666666","275.0","JOKKMOKK FPL, SW","FM-12","99999","V020","140,1,N,0020,1","00570,1,C,N","006000,1,N,1","+0136,1","+0136,1","10023,1","82,1","8,1,03,1","09,1,+00570,1,99,9",,,,"99999,9,09700,1","5,1,015,1,+999,9","SYN076AAXX  22031 02151 47/56 /1402 10136 20136 39700 40023 55015 78286 333 89/19;",
"02151099999","2010-07-22T06:00:00","4","66.4833333","20.1666666","275.0","JOKKMOKK FPL, SW","FM-12","99999","V020","130,1,N,0030,1","99999,9,9,N","023000,1,N,1","+0158,1","+0158,1","10000,1","22,1","8,1,06,1","01,1,+02100,1,99,9",,"120,M,+0158,1","999,N,+0132,1","99999,9,09680,1","8,1,020,1,+999,9","SYN088AAXX  22061 02151 47873 /1303 10158 20158 39680 40000 58020 72286 333 10158 20132 81/57;",
"02151099999","2010-07-22T09:00:00","4","66.4833333","20.1666666","275.0","JOKKMOKK FPL, SW","FM-12","99999","V020","170,1,N,0050,1","99999,9,9,N","030000,1,N,1","+0214,1","+0179,1","09974,1",,,"01,1,+03900,1,99,9",,,,"99999,9,09661,1","8,1,019,1,+999,9","SYN070AAXX  22091 02151 45980 /1705 10214 20179 39661 49974 58019 333 81/63;",
"02151099999","2010-07-22T12:00:00","4","66.4833333","20.1666666","275.0","JOKKMOKK FPL, SW","FM-12","99999","V020","170,1,N,0060,1","99999,9,9,N","030000,1,N,1","+0230,1","+0167,1","09951,1",,,"01,1,+01380,1,99,9",,,,"99999,9,09640,1","8,1,021,1,+999,9","SYN076AAXX  22121 02151 45680 /1706 10230 20167 39640 49951 58021 333 81/46 83/70;",
"02151099999","2010-08-02T00:00:00","4","66.4833333","20.1666666","275.0","JOKKMOKK FPL, SW","FM-12","99999","V020","999,9,C,0000,1","99999,9,9,N","010000,1,N,1","+0156,1","+0156,1","10072,1","81,1","8,1,06,1","01,1,+00330,1,99,9",,,,"99999,9,09749,1","7,1,002,1,+999,9","SYN082AAXX  02001 02151 47460 /0000 10156 20156 39749 40072 57002 78186 333 81/11 83/27;",
"02151099999","2010-08-02T03:00:00","4","66.4833333","20.1666666","275.0","JOKKMOKK FPL, SW","FM-12","99999","V020","160,1,N,0020,1","99999,9,9,N","021000,1,N,1","+0145,1","+0145,1","10075,1","00,1","8,1,03,1","02,1,+00780,1,99,9",,,,"99999,9,09752,1","3,1,002,1,+999,9","SYN076AAXX  02031 02151 47571 /1602 10145 20145 39752 40075 53002 70082 333 82/26;",
"02151099999","2010-08-02T06:00:00","4","66.4833333","20.1666666","275.0","JOKKMOKK FPL, SW","FM-12","99999","V020","170,1,N,0020,1","00630,1,C,N","040000,1,N,1","+0159,1","+0152,1","10076,1","00,1","8,1,06,1","03,1,+00480,1,99,9","06,1,+00630,1,99,9","120,M,+0201,1","999,N,+0136,1","99999,9,09754,1","2,1,002,1,+999,9","SYN100AAXX  02061 02151 47482 /1702 10159 20152 39754 40076 52002 70082 333 10201 20136 83/16 86/21 88/37;",
"02151099999","2010-08-02T09:00:00","4","66.4833333","20.1666666","275.0","JOKKMOKK FPL, SW","FM-12","99999","V020","160,1,N,0030,1","01080,1,C,N","045000,1,N,1","+0182,1","+0145,1","10075,1",,,"07,1,+01080,1,99,9",,,,"99999,9,09755,1","2,1,002,1,+999,9","SYN070AAXX  02091 02151 45683 /1603 10182 20145 39755 40075 52002 333 87/36;",
"02151099999","2010-08-02T12:00:00","4","66.4833333","20.1666666","275.0","JOKKMOKK FPL, SW","FM-12","99999","V020","260,1,N,0020,1","99999,9,9,N","020000,1,N,1","+0148,1","+0141,1","10076,1","83,1","8,1,06,1","02,1,+00810,1,99,9",,,,"99999,9,09753,1","5,1,003,1,+999,9","SYN082AAXX  02121 02151 47570 /2602 10148 20141 39753 40076 55003 78386 333 82/27 85/40;",
"02151099999","2010-08-02T15:00:00","4","66.4833333","20.1666666","275.0","JOKKMOKK FPL, SW","FM-12","99999","V020","220,1,N,0040,1","02400,1,C,N","050000,1,N,1","+0197,1","+0126,1","10068,1","00,1","8,1,03,1","07,1,+02400,1,99,9",,,,"99999,9,09750,1","7,1,003,1,+999,9","SYN076AAXX  02151 02151 47984 /2204 10197 20126 39750 40068 57003 70082 333 87/58;",
"02151099999","2010-08-02T18:00:00","4","66.4833333","20.1666666","275.0","JOKKMOKK FPL, SW","FM-12","99999","V020","270,1,N,0020,1","99999,9,9,N","050000,1,N,1","+0193,1","+0105,1","10068,1","00,1","8,1,06,1","04,1,+03000,1,99,9",,"120,M,+0213,1","999,N,+0143,1","99999,9,09750,1","5,1,000,1,+999,9","SYN094AAXX  02181 02151 47984 /2702 10193 20105 39750 40068 55000 70082 333 10213 20143 84/60 86/65;",
"02151099999","2010-08-02T21:00:00","4","66.4833333","20.1666666","275.0","JOKKMOKK FPL, SW","FM-12","99999","V020","260,1,N,0010,1","99999,9,9,N","050000,1,N,1","+0122,1","+0090,1","10082,1",,,,,,,"99999,9,09755,1","2,1,005,1,+999,9","SYN060AAXX  02211 02151 45984 /2601 10122 20090 39755 40082 52005;",
"02151099999","2010-08-03T00:00:00","4","66.4833333","20.1666666","275.0","JOKKMOKK FPL, SW","FM-12","99999","V020","999,9,C,0000,1","99999,9,9,N","050000,1,N,1","+0086,1","+0081,1","10088,1",,,,,,,"99999,9,09757,1","2,1,002,1,+999,9","SYN060AAXX  03001 02151 45984 /0000 10086 20081 39757 40088 52002;",
"02151099999","2010-08-03T03:00:00","4","66.4833333","20.1666666","275.0","JOKKMOKK FPL, SW","FM-12","99999","V020","300,1,N,0010,1","02100,1,C,N","050000,1,N,1","+0108,1","+0097,1","10083,1",,,"08,1,+02100,1,99,9",,,,"99999,9,09755,1","7,1,002,1,+999,9","SYN070AAXX  03031 02151 45884 /3001 10108 20097 39755 40083 57002 333 88/57;",
"02151099999","2010-08-03T06:00:00","4","66.4833333","20.1666666","275.0","JOKKMOKK FPL, SW","FM-12","99999","V020","330,1,N,0020,1","99999,9,9,N","050000,1,N,1","+0151,1","+0099,1","10080,1",,,,,"120,M,+0194,1","999,N,+0074,1","99999,9,09757,1","2,1,002,1,+999,9","SYN076AAXX  03061 02151 45984 /3302 10151 20099 39757 40080 52002 333 10194 20074;",
"02151099999","2010-08-03T09:00:00","4","66.4833333","20.1666666","275.0","JOKKMOKK FPL, SW","FM-12","99999","V020","260,1,N,0020,1","99999,9,9,N","045000,1,N,1","+0174,1","+0071,1","10076,1",,,"01,1,+01500,1,99,9",,,,"99999,9,09756,1","7,1,001,1,+999,9","SYN070AAXX  03091 02151 45783 /2602 10174 20071 39756 40076 57001 333 81/50;",
"02151099999","2010-08-03T12:00:00","4","66.4833333","20.1666666","275.0","JOKKMOKK FPL, SW","FM-12","99999","V020","200,1,N,0020,1","02100,1,C,N","045000,1,N,1","+0182,1","+0074,1","10077,1",,,"08,1,+02100,1,99,9",,,,"99999,9,09757,1","2,1,001,1,+999,9","SYN070AAXX  03121 02151 45883 /2002 10182 20074 39757 40077 52001 333 88/57;",
"02151099999","2010-08-03T15:00:00","4","66.4833333","20.1666666","275.0","JOKKMOKK FPL, SW","FM-12","99999","V020","260,1,N,0010,1","02100,1,C,N","050000,1,N,1","+0177,1","+0084,1","10078,1",,,"08,1,+02100,1,99,9",,,,"99999,9,09758,1","4,1,000,1,+999,9","SYN070AAXX  03151 02151 45884 /2601 10177 20084 39758 40078 54001 333 88/57;",
"02151099999","2010-08-03T18:00:00","4","66.4833333","20.1666666","275.0","JOKKMOKK FPL, SW","FM-12","99999","V020","230,1,N,0010,1","99999,9,9,N","050000,1,N,1","+0145,1","+0107,1","10087,1",,,"02,1,+01500,1,99,9",,"120,M,+0192,1","999,N,+0146,1","99999,9,09763,1","2,1,005,1,+999,9","SYN082AAXX  03181 02151 45784 /2301 10145 20107 39763 40087 52005 333 10192 20146 82/50;",
"02151099999","2010-08-03T21:00:00","4","66.4833333","20.1666666","275.0","JOKKMOKK FPL, SW","FM-12","99999","V020","160,1,N,0010,1","99999,9,9,N","050000,1,N,1","+0088,1","+0087,1","10096,1",,,,,,,"99999,9,09765,1","0,1,002,1,+999,9","SYN060AAXX  03211 02151 45984 /1601 10088 20087 39765 40096 50002;",
"02151099999","2010-08-04T00:00:00","4","66.4833333","20.1666666","275.0","JOKKMOKK FPL, SW","FM-12","99999","V020","150,1,N,0010,1","99999,9,9,N","050000,1,N,1","+0060,1","+0060,1","10103,1",,,,,,,"99999,9,09769,1","2,1,004,1,+999,9","SYN060AAXX  04001 02151 45984 /1501 10060 20060 39769 40103 52004;",
"02151099999","2010-08-04T03:00:00","4","66.4833333","20.1666666","275.0","JOKKMOKK FPL, SW","FM-12","99999","V020","999,9,C,0000,1","99999,9,9,N","050000,1,N,1","+0071,1","+0070,1","10101,1",,,,,,,"99999,9,09768,1","4,1,000,1,+999,9","SYN060AAXX  04031 02151 45984 /0000 10071 20070 39768 40101 54001;",
"02151099999","2010-08-04T06:00:00","4","66.4833333","20.1666666","275.0","JOKKMOKK FPL, SW","FM-12","99999","V020","999,9,C,0000,1","99999,9,9,N","045000,1,N,1","+0138,1","+0108,1","10089,1",,,,,"120,M,+0160,1","999,N,+0049,1","99999,9,09764,1","8,1,004,1,+999,9","SYN076AAXX  04061 02151 45983 /0000 10138 20108 39764 40089 58004 333 10160 20049;",
"02151099999","2010-08-04T09:00:00","4","66.4833333","20.1666666","275.0","JOKKMOKK FPL, SW","FM-12","99999","V020","110,1,N,0030,1","99999,9,9,N","035000,1,N,1","+0185,1","+0127,1","10077,1",,,"01,1,+05400,1,99,9",,,,"99999,9,09758,1","7,1,006,1,+999,9","SYN070AAXX  04091 02151 45981 /1103 10185 20127 39758 40077 57006 333 81/68;",
"02151099999","2010-08-04T12:00:00","4","66.4833333","20.1666666","275.0","JOKKMOKK FPL, SW","FM-12","99999","V020","120,1,N,0030,1","99999,9,9,N","040000,1,N,1","+0188,1","+0125,1","10063,1",,,"02,1,+04500,1,99,9",,,,"99999,9,09744,1","7,1,014,1,+999,9","SYN076AAXX  04121 02151 45982 /1203 10188 20125 39744 40063 57014 333 82/65 83/71;",
"02151099999","2010-08-04T15:00:00","4","66.4833333","20.1666666","275.0","JOKKMOKK FPL, SW","FM-12","99999","V020","110,1,N,0020,1","99999,9,9,N","050000,1,N,1","+0176,1","+0127,1","10051,1",,,"01,1,+02100,1,99,9",,,,"99999,9,09731,1","8,1,013,1,+999,9","SYN076AAXX  04151 02151 45884 /1102 10176 20127 39731 40051 58013 333 81/57 83/61;",
"02151099999","2010-08-04T18:00:00","4","66.4833333","20.1666666","275.0","JOKKMOKK FPL, SW","FM-12","99999","V020","040,1,N,0010,1","99999,9,9,N","050000,1,N,1","+0145,1","+0137,1","10044,1","61,1","6,1,06,1",,,"120,M,+0203,1","999,N,+0138,1","99999,9,09722,1","7,1,009,1,+999,9","SYN082AAXX  04181 02151 47984 /0401 10145 20137 39722 40044 57009 76165 333 10203 20138;",
"02151099999","2010-08-04T21:00:00","4","66.4833333","20.1666666","275.0","JOKKMOKK FPL, SW","FM-12","99999","V020","360,1,N,0020,1","01500,1,C,N","050000,1,N,1","+0141,1","+0114,1","10023,1","00,1","6,1,03,1","05,1,+01500,1,99,9",,,,"99999,9,09700,1","8,1,021,1,+999,9","SYN082AAXX  04211 02151 47784 /3602 10141 20114 39700 40023 58021 70062 333 85/50 88/56;",
"02151099999","2010-08-05T00:00:00","4","66.4833333","20.1666666","275.0","JOKKMOKK FPL, SW","FM-12","99999","V020","340,1,N,0050,1","00930,1,C,N","008000,1,N,1","+0122,1","+0120,1","10008,1","63,1","6,1,06,1","09,1,+00930,1,99,9",,,,"99999,9,09684,1","6,1,017,1,+999,9","SYN076AAXX  05001 02151 47/58 /3405 10122 20120 39684 40008 56017 76362 333 89/31;",
"02151099999","2010-08-05T03:00:00","4","66.4833333","20.1666666","275.0","JOKKMOKK FPL, SW","FM-12","99999","V020","330,1,N,0060,1","00630,1,C,N","002000,1,N,1","+0121,1","+0120,1","10004,1","63,1","6,1,03,1","09,1,+00630,1,99,9",,,,"99999,9,09680,1","5,1,004,1,+999,9","SYN076AAXX  05031 02151 47/20 /3306 10121 20120 39680 40004 55004 76366 333 89/21;",
"02151099999","2010-08-05T06:00:00","4","66.4833333","20.1666666","275.0","JOKKMOKK FPL, SW","FM-12","99999","V020","310,1,N,0070,1","99999,9,9,N","020000,1,N,1","+0132,1","+0127,1","10021,1","52,1","6,1,06,1","03,1,+00390,1,99,9",,"120,M,+0147,1","999,N,+0120,1","99999,9,09697,1","3,1,018,1,+999,9","SYN094AAXX  05061 02151 47470 /3107 10132 20127 39697 40021 53018 75265 333 10147 20120 83/13 88/18;",
"02151099999","2010-08-05T09:00:00","4","66.4833333","20.1666666","275.0","JOKKMOKK FPL, SW","FM-12","99999","V020","300,1,N,0060,1","01800,1,C,N","045000,1,N,1","+0154,1","+0125,1","10059,1","00,1","8,1,03,1","08,1,+01800,1,99,9",,,,"99999,9,09737,1","1,1,039,1,+999,9","SYN076AAXX  05091 02151 47883 /3006 10154 20125 39737 40059 51039 70086 333 88/56;",
"02151099999","2010-08-05T12:00:00","4","66.4833333","20.1666666","275.0","JOKKMOKK FPL, SW","FM-12","99999","V020","310,1,N,0010,1","99999,9,9,N","040000,1,N,1","+0192,1","+0116,1","10085,1","00,1","5,1,06,1","02,1,+02100,1,99,9",,,,"99999,9,09766,1","1,1,029,1,+999,9","SYN076AAXX  05121 02151 47882 /3101 10192 20116 39766 40085 51029 70052 333 82/57;",
"02151099999","2010-08-05T15:00:00","4","66.4833333","20.1666666","275.0","JOKKMOKK FPL, SW","FM-12","99999","V020","180,1,N,0020,1","22000,1,C,N","050000,1,N,1","+0203,1","+0132,1","10095,1",,,"01,1,+00840,1,99,9","04,1,+01500,1,99,9",,,"99999,9,09777,1","3,1,012,1,+999,9","SYN082AAXX  05151 02151 45584 /1802 10203 20132 39777 40095 53012 333 81/28 84/50 85/58;",
"02151099999","2010-08-05T18:00:00","4","66.4833333","20.1666666","275.0","JOKKMOKK FPL, SW","FM-12","99999","V020","150,1,N,0020,1","02100,1,C,N","050000,1,N,1","+0191,1","+0141,1","10112,1",,,"05,1,+02100,1,99,9",,"120,M,+0211,1","999,N,+0130,1","99999,9,09792,1","3,1,015,1,+999,9","SYN088AAXX  05181 02151 45884 /1502 10191 20141 39792 40112 53015 333 10211 20130 85/57 87/60;",
"02151099999","2010-08-05T21:00:00","4","66.4833333","20.1666666","275.0","JOKKMOKK FPL, SW","FM-12","99999","V020","150,1,N,0030,1","01500,1,C,N","050000,1,N,1","+0163,1","+0134,1","10135,1",,,"05,1,+01500,1,99,9",,,,"99999,9,09811,1","2,1,019,1,+999,9","SYN076AAXX  05211 02151 45784 /1503 10163 20134 39811 40135 52019 333 85/50 88/60;",
"02151099999","2010-08-06T00:00:00","4","66.4833333","20.1666666","275.0","JOKKMOKK FPL, SW","FM-12","99999","V020","160,1,N,0020,1","03000,1,C,N","050000,1,N,1","+0140,1","+0133,1","10148,1","00,1","8,1,06,1","06,1,+03000,1,99,9",,,,"99999,9,09821,1","3,1,010,1,+999,9","SYN076AAXX  06001 02151 47984 /1602 10140 20133 39821 40148 53010 70086 333 86/60;",
"02151099999","2010-08-06T03:00:00","4","66.4833333","20.1666666","275.0","JOKKMOKK FPL, SW","FM-12","99999","V020","150,1,N,0010,1","99999,9,9,N","045000,1,N,1","+0124,1","+0124,1","10162,1",,,,,,,"99999,9,09833,1","2,1,012,1,+999,9","SYN060AAXX  06031 02151 45/83 /1501 10124 20124 39833 40162 52012;",
"02151099999","2010-08-06T06:00:00","4","66.4833333","20.1666666","275.0","JOKKMOKK FPL, SW","FM-12","99999","V020","120,1,N,0030,1","99999,9,9,N","040000,1,N,1","+0171,1","+0150,1","10171,1",,,,,"120,M,+0191,1","999,N,+0104,1","99999,9,09847,1","2,1,014,1,+999,9","SYN076AAXX  06061 02151 45982 /1203 10171 20150 39847 40171 52014 333 10191 20104;",
"02151099999","2010-08-06T09:00:00","4","66.4833333","20.1666666","275.0","JOKKMOKK FPL, SW","FM-12","99999","V020","130,1,N,0040,1","99999,9,9,N","035000,1,N,1","+0198,1","+0164,1","10176,1",,,"02,1,+00750,1,99,9",,,,"99999,9,09855,1","2,1,008,1,+999,9","SYN070AAXX  06091 02151 45581 /1304 10198 20164 39855 40176 52008 333 82/25;",
"02151099999","2010-08-06T12:00:00","4","66.4833333","20.1666666","275.0","JOKKMOKK FPL, SW","FM-12","99999","V020","130,1,N,0050,1","99999,9,9,N","045000,1,N,1","+0215,1","+0158,1","10177,1",,,"01,1,+01800,1,99,9",,,,"99999,9,09858,1","3,1,003,1,+999,9","SYN076AAXX  06121 02151 45783 /1305 10215 20158 39858 40177 53003 333 81/56 85/59;",
"02151099999","2010-08-06T15:00:00","4","66.4833333","20.1666666","275.0","JOKKMOKK FPL, SW","FM-12","99999","V020","140,1,N,0060,1","99999,9,9,N","050000,1,N,1","+0213,1","+0153,1","10179,1","00,1","8,1,03,1","02,1,+02700,1,99,9",,,,"99999,9,09860,1","0,1,002,1,+999,9","SYN076AAXX  06151 02151 47984 /1406 10213 20153 39860 40179 50002 70086 333 82/59;",
"02151099999","2010-08-06T18:00:00","4","66.4833333","20.1666666","275.0","JOKKMOKK FPL, SW","FM-12","99999","V020","130,1,N,0040,1","99999,9,9,N","050000,1,N,1","+0199,1","+0160,1","10186,1","00,1","8,1,06,1",,,"120,M,+0223,1","999,N,+0169,1","99999,9,09865,1","3,1,006,1,+999,9","SYN082AAXX  06181 02151 47984 /1304 10199 20160 39865 40186 53006 70082 333 10223 20169;",
"02151099999","2010-08-06T21:00:00","4","66.4833333","20.1666666","275.0","JOKKMOKK FPL, SW","FM-12","99999","V020","120,1,N,0020,1","99999,9,9,N","045000,1,N,1","+0155,1","+0146,1","10199,1",,,,,,,"99999,9,09873,1","2,1,007,1,+999,9","SYN060AAXX  06211 02151 45983 /1202 10155 20146 39873 40199 52007;",
"02151099999","2010-08-07T00:00:00","4","66.4833333","20.1666666","275.0","JOKKMOKK FPL, SW","FM-12","99999","V020","130,1,N,0020,1","99999,9,9,N","019000,1,N,1","+0129,1","+0128,1","10206,1",,,,,,,"99999,9,09876,1","2,1,004,1,+999,9","SYN060AAXX  07001 02151 45969 /1302 10129 20128 39876 40206 52004;",
"02151099999","2010-08-07T03:00:00","4","66.4833333","20.1666666","275.0","JOKKMOKK FPL, SW","FM-12","99999","V020","150,1,N,0030,1","00030,1,C,N","000200,1,N,1","+0117,1","+0117,1","10205,1","34,1","4,1,03,1","09,1,+00030,1,99,9",,,,"99999,9,09874,1","7,1,002,1,+999,9","SYN076AAXX  07031 02151 47/02 /1503 10117 20117 39874 40205 57002 73431 333 89/01;",
"02151099999","2010-08-07T06:00:00","4","66.4833333","20.1666666","275.0","JOKKMOKK FPL, SW","FM-12","99999","V020","130,1,N,0020,1","99999,9,9,N","040000,1,N,1","+0151,1","+0139,1","10200,1","00,1","4,1,06,1",,,"120,M,+0199,1","999,N,+0116,1","99999,9,09873,1","8,1,002,1,+999,9","SYN082AAXX  07061 02151 47982 /1302 10151 20139 39873 40200 58002 70032 333 10199 20116;",
"02151099999","2010-08-07T09:00:00","4","66.4833333","20.1666666","275.0","JOKKMOKK FPL, SW","FM-12","99999","V020","160,1,N,0030,1","99999,9,9,N","050000,1,N,1","+0185,1","+0136,1","10199,1",,,"04,1,+02100,1,99,9",,,,"99999,9,09875,1","0,1,002,1,+999,9","SYN076AAXX  07091 02151 45884 /1603 10185 20136 39875 40199 50002 333 84/57 85/62;",
"02151099999","2010-08-07T12:00:00","4","66.4833333","20.1666666","275.0","JOKKMOKK FPL, SW","FM-12","99999","V020","210,1,N,0020,1","01800,1,C,N","040000,1,N,1","+0211,1","+0137,1","10188,1",,,"06,1,+01800,1,99,9",,,,"99999,9,09868,1","8,1,007,1,+999,9","SYN070AAXX  07121 02151 45782 /2102 10211 20137 39868 40188 58007 333 86/56;",
"02151099999","2010-08-07T15:00:00","4","66.4833333","20.1666666","275.0","JOKKMOKK FPL, SW","FM-12","99999","V020","210,1,N,0020,1","99999,9,9,N","050000,1,N,1","+0226,1","+0127,1","10181,1",,,"03,1,+01800,1,99,9",,,,"99999,9,09863,1","7,1,006,1,+999,9","SYN070AAXX  07151 02151 45784 /2102 10226 20127 39863 40181 57006 333 83/56;",
"02151099999","2010-08-07T18:00:00","4","66.4833333","20.1666666","275.0","JOKKMOKK FPL, SW","FM-12","99999","V020","150,1,N,0010,1","01800,1,C,N","050000,1,N,1","+0199,1","+0163,1","10178,1",,,"08,1,+01800,1,99,9",,"120,M,+0233,1","999,N,+0149,1","99999,9,09857,1","6,1,006,1,+999,9","SYN082AAXX  07181 02151 45784 /1501 10199 20163 39857 40178 56006 333 10233 20149 88/56;",
"02151099999","2010-08-07T21:00:00","4","66.4833333","20.1666666","275.0","JOKKMOKK FPL, SW","FM-12","99999","V020","140,1,N,0010,1","99999,9,9,N","020000,1,N,1","+0136,1","+0136,1","10185,1",,,,,,,"99999,9,09857,1","0,1,000,1,+999,9","SYN060AAXX  07211 02151 45970 /1401 10136 20136 39857 40185 50000;",
"02151099999","2010-08-08T00:00:00","4","66.4833333","20.1666666","275.0","JOKKMOKK FPL, SW","FM-12","99999","V020","999,9,C,0000,1","99999,9,9,N","013000,1,N,1","+0123,1","+0123,1","10182,1",,,"04,1,+02700,1,99,9",,,,"99999,9,09852,1","7,1,005,1,+999,9","SYN070AAXX  08001 02151 45963 /0000 10123 20123 39852 40182 57005 333 84/59;",
"02151099999","2010-08-08T03:00:00","4","66.4833333","20.1666666","275.0","JOKKMOKK FPL, SW","FM-12","99999","V020","999,9,C,0000,1","99999,9,9,N","005000,1,N,1","+0101,1","+0101,1","10181,1","20,1","4,1,03,1",,,,,"99999,9,09849,1","8,1,003,1,+999,9","SYN066AAXX  08031 02151 47950 /0000 10101 20101 39849 40181 58003 72032;",
"02151099999","2010-08-08T06:00:00","4","66.4833333","20.1666666","275.0","JOKKMOKK FPL, SW","FM-12","99999","V020","310,1,N,0010,1","99999,9,9,N","035000,1,N,1","+0174,1","+0153,1","10168,1","00,1","4,1,06,1",,,"120,M,+0199,1","999,N,+0099,1","99999,9,09845,1","8,1,004,1,+999,9","SYN082AAXX  08061 02151 47981 /3101 10174 20153 39845 40168 58004 70032 333 10199 20099;",
"02151099999","2010-08-08T09:00:00","4","66.4833333","20.1666666","275.0","JOKKMOKK FPL, SW","FM-12","99999","V020","110,1,N,0010,1","99999,9,9,N","045000,1,N,1","+0203,1","+0165,1","10152,1",,,"01,1,+04800,1,99,9",,,,"99999,9,09832,1","7,1,013,1,+999,9","SYN070AAXX  08091 02151 45983 /1101 10203 20165 39832 40152 57013 333 81/66;",
"02151099999","2010-08-08T12:00:00","4","66.4833333","20.1666666","275.0","JOKKMOKK FPL, SW","FM-12","99999","V020","220,1,N,0010,1","99999,9,9,N","020000,1,N,1","+0170,1","+0164,1","10154,1","61,1","6,1,06,1",,,,,"99999,9,09831,1","0,1,001,1,+999,9","SYN066AAXX  08121 02151 47970 /2201 10170 20164 39831 40154 50001 76165;",
"02151099999","2010-08-08T15:00:00","4","66.4833333","20.1666666","275.0","JOKKMOKK FPL, SW","FM-12","99999","V020","250,1,N,0010,1","99999,9,9,N","050000,1,N,1","+0184,1","+0167,1","10142,1","00,1","6,1,03,1","02,1,+04500,1,99,9",,,,"99999,9,09820,1","6,1,011,1,+999,9","SYN076AAXX  08151 02151 47984 /2501 10184 20167 39820 40142 56011 70065 333 82/65;",
"02151099999","2010-08-08T18:00:00","4","66.4833333","20.1666666","275.0","JOKKMOKK FPL, SW","FM-12","99999","V020","999,9,C,0000,1","02100,1,C,N","027000,1,N,1","+0173,1","+0170,1","10136,1","61,1","6,1,06,1","08,1,+02100,1,99,9",,"120,M,+0207,1","999,N,+0170,1","99999,9,09814,1","5,1,007,1,+999,9","SYN088AAXX  08181 02151 47877 /0000 10173 20170 39814 40136 55007 76165 333 10207 20170 88/57;",
"02151099999","2010-08-08T21:00:00","4","66.4833333","20.1666666","275.0","JOKKMOKK FPL, SW","FM-12","99999","V020","999,9,C,0000,1","03300,1,C,N","008000,1,N,1","+0151,1","+0151,1","10130,1","10,1","8,1,03,1","06,1,+03300,1,99,9",,,,"99999,9,09805,1","8,1,008,1,+999,9","SYN082AAXX  08211 02151 47958 /0000 10151 20151 39805 40130 58008 71086 333 86/61 87/64;",
"02151099999","2010-08-09T00:00:00","4","66.4833333","20.1666666","275.0","JOKKMOKK FPL, SW","FM-12","99999","V020","300,1,N,0020,1","99999,9,9,N","030000,1,N,1","+0153,1","+0149,1","10124,1","61,1","8,1,06,1",,,,,"99999,9,09800,1","8,1,005,1,+999,9","SYN066AAXX  09001 02151 47980 /3002 10153 20149 39800 40124 58005 76186;",
"02151099999","2010-08-09T03:00:00","4","66.4833333","20.1666666","275.0","JOKKMOKK FPL, SW","FM-12","99999","V020","280,1,N,0020,1","99999,9,9,N","050000,1,N,1","+0143,1","+0131,1","10120,1","00,1","8,1,03,1","02,1,+02100,1,99,9",,,,"99999,9,09795,1","6,1,005,1,+999,9","SYN082AAXX  09031 02151 47884 /2802 10143 20131 39795 40120 56005 70082 333 82/57 84/63;",
"02151099999","2010-08-09T06:00:00","4","66.4833333","20.1666666","275.0","JOKKMOKK FPL, SW","FM-12","99999","V020","340,1,N,0040,1","00390,1,C,N","050000,1,N,1","+0147,1","+0134,1","10116,1","00,1","8,1,06,1","08,1,+00390,1,99,9",,"120,M,+0173,1","999,N,+0142,1","99999,9,09791,1","8,1,004,1,+999,9","SYN088AAXX  09061 02151 47484 /3404 10147 20134 39791 40116 58004 70082 333 10173 20142 88/13;",
"02151099999","2010-08-09T09:00:00","4","66.4833333","20.1666666","275.0","JOKKMOKK FPL, SW","FM-12","99999","V020","010,1,N,0030,1","00420,1,C,N","050000,1,N,1","+0146,1","+0131,1","10118,1",,,"08,1,+00420,1,99,9",,,,"99999,9,09793,1","2,1,002,1,+999,9","SYN070AAXX  09091 02151 45484 /0103 10146 20131 39793 40118 52002 333 88/14;",
"02151099999","2010-08-09T15:00:00","4","66.4833333","20.1666666","275.0","JOKKMOKK FPL, SW","FM-12","99999","V020","010,1,N,0030,1","00570,1,C,N","035000,1,N,1","+0158,1","+0132,1","10114,1",,,"08,1,+00570,1,99,9",,,,"99999,9,09790,1","6,1,004,1,+999,9","SYN070AAXX  09151 02151 45481 /0103 10158 20132 39790 40114 56004 333 88/19;",
"02151099999","2010-08-09T18:00:00","4","66.4833333","20.1666666","275.0","JOKKMOKK FPL, SW","FM-12","99999","V020","010,1,N,0020,1","00630,1,C,N","050000,1,N,1","+0154,1","+0130,1","10113,1",,,"08,1,+00630,1,99,9",,"120,M,+0161,1","999,N,+0144,1","99999,9,09789,1","7,1,002,1,+999,9","SYN082AAXX  09181 02151 45584 /0102 10154 20130 39789 40113 57002 333 10161 20144 88/21;",
"02151099999","2010-08-09T21:00:00","4","66.4833333","20.1666666","275.0","JOKKMOKK FPL, SW","FM-12","99999","V020","040,1,N,0020,1","00540,1,C,N","050000,1,N,1","+0140,1","+0121,1","10119,1",,,"08,1,+00540,1,99,9",,,,"99999,9,09793,1","3,1,004,1,+999,9","SYN070AAXX  09211 02151 45484 /0402 10140 20121 39793 40119 53004 333 88/18;",
"02151099999","2010-08-10T00:00:00","4","66.4833333","20.1666666","275.0","JOKKMOKK FPL, SW","FM-12","99999","V020","030,1,N,0020,1","00510,1,C,N","050000,1,N,1","+0125,1","+0107,1","10121,1",,,"08,1,+00510,1,99,9",,,,"99999,9,09794,1","2,1,001,1,+999,9","SYN070AAXX  10001 02151 45484 /0302 10125 20107 39794 40121 52001 333 88/17;",
"02151099999","2010-08-10T03:00:00","4","66.4833333","20.1666666","275.0","JOKKMOKK FPL, SW","FM-12","99999","V020","999,9,C,0000,1","99999,9,9,N","040000,1,N,1","+0089,1","+0087,1","10123,1",,,,,,,"99999,9,09792,1","7,1,003,1,+999,9","SYN060AAXX  10031 02151 45982 /0000 10089 20087 39792 40123 57003;",
"02151099999","2010-08-10T06:00:00","4","66.4833333","20.1666666","275.0","JOKKMOKK FPL, SW","FM-12","99999","V020","340,1,N,0020,1","99999,9,9,N","040000,1,N,1","+0136,1","+0106,1","10117,1",,,,,"120,M,+0154,1","999,N,+0084,1","99999,9,09791,1","4,1,000,1,+999,9","SYN076AAXX  10061 02151 45982 /3402 10136 20106 39791 40117 54000 333 10154 20084;",
"02151099999","2010-08-10T09:00:00","4","66.4833333","20.1666666","275.0","JOKKMOKK FPL, SW","FM-12","99999","V020","030,1,N,0020,1","99999,9,9,N","040000,1,N,1","+0163,1","+0102,1","10113,1",,,"02,1,+00960,1,99,9",,,,"99999,9,09790,1","7,1,001,1,+999,9","SYN070AAXX  10091 02151 45582 /0302 10163 20102 39790 40113 57001 333 82/32;",
"02151099999","2010-08-10T12:00:00","4","66.4833333","20.1666666","275.0","JOKKMOKK FPL, SW","FM-12","99999","V020","310,1,N,0020,1","99999,9,9,N","040000,1,N,1","+0181,1","+0109,1","10104,1",,,,,,,"99999,9,09783,1","7,1,007,1,+999,9","SYN060AAXX  10121 02151 45/82 /3102 10181 20109 39783 40104 57007;",
"02151099999","2010-08-10T15:00:00","4","66.4833333","20.1666666","275.0","JOKKMOKK FPL, SW","FM-12","99999","V020","330,1,N,0020,1","99999,9,9,N","045000,1,N,1","+0190,1","+0113,1","10101,1",,,,,,,"99999,9,09782,1","7,1,001,1,+999,9","SYN060AAXX  10151 02151 45983 /3302 10190 20113 39782 40101 57001;",
"02151099999","2010-08-10T18:00:00","4","66.4833333","20.1666666","275.0","JOKKMOKK FPL, SW","FM-12","99999","V020","110,1,N,0010,1","99999,9,9,N","050000,1,N,1","+0179,1","+0121,1","10099,1",,,,,"120,M,+0204,1","999,N,+0133,1","99999,9,09778,1","7,1,003,1,+999,9","SYN076AAXX  10181 02151 45984 /1101 10179 20121 39778 40099 57003 333 10204 20133;",
"02151099999","2010-08-10T21:00:00","4","66.4833333","20.1666666","275.0","JOKKMOKK FPL, SW","FM-12","99999","V020","140,1,N,0010,1","99999,9,9,N","045000,1,N,1","+0101,1","+0099,1","10113,1",,,,,,,"99999,9,09783,1","2,1,005,1,+999,9","SYN060AAXX  10211 02151 45983 /1401 10101 20099 39783 40113 52005;",
"02151099999","2010-08-11T00:00:00","4","66.4833333","20.1666666","275.0","JOKKMOKK FPL, SW","FM-12","99999","V020","999,9,C,0000,1","00060,1,C,N","000700,1,N,1","+0111,1","+0111,1","10112,1","34,1","4,1,06,1","09,1,+00060,1,99,9",,,,"99999,9,09783,1","4,1,000,1,+999,9","SYN076AAXX  11001 02151 47/07 /0000 10111 20111 39783 40112 54000 73431 333 89/02;",
"02151099999","2010-08-11T03:00:00","4","66.4833333","20.1666666","275.0","JOKKMOKK FPL, SW","FM-12","99999","V020","130,1,N,0030,1","00090,1,C,N","000300,1,N,1","+0110,1","+0110,1","10108,1","33,1","4,1,03,1","09,1,+00090,1,99,9",,,,"99999,9,09780,1","7,1,004,1,+999,9","SYN076AAXX  11031 02151 47/03 /1303 10110 20110 39780 40108 57004 73333 333 89/03;",
"02151099999","2010-08-11T06:00:00","4","66.4833333","20.1666666","275.0","JOKKMOKK FPL, SW","FM-12","99999","V020","120,1,N,0020,1","00060,1,C,N","001500,1,N,1","+0115,1","+0115,1","10107,1","20,1","4,1,06,1","08,1,+00060,1,99,9",,"120,M,+0179,1","999,N,+0095,1","99999,9,09779,1","4,1,000,1,+999,9","SYN088AAXX  11061 02151 47115 /1202 10115 20115 39779 40107 54001 72032 333 10179 20095 88/02;",
"02151099999","2010-08-11T09:00:00","4","66.4833333","20.1666666","275.0","JOKKMOKK FPL, SW","FM-12","99999","V020","140,1,N,0030,1","00120,1,C,N","035000,1,N,1","+0142,1","+0141,1","10104,1",,,"08,1,+00120,1,99,9",,,,"99999,9,09779,1","4,1,000,1,+999,9","SYN070AAXX  11091 02151 45281 /1403 10142 20141 39779 40104 54000 333 88/04;",
"02151099999","2010-08-11T12:00:00","4","66.4833333","20.1666666","275.0","JOKKMOKK FPL, SW","FM-12","99999","V020","100,1,N,0020,1","99999,9,9,N","030000,1,N,1","+0181,1","+0165,1","10094,1","81,1","8,1,06,1","02,1,+00600,1,99,9",,,,"99999,9,09774,1","5,1,005,1,+999,9","SYN082AAXX  11121 02151 47580 /1002 10181 20165 39774 40094 55005 78186 333 82/20 85/49;",
"02151099999","2010-08-11T15:00:00","4","66.4833333","20.1666666","275.0","JOKKMOKK FPL, SW","FM-12","99999","V020","140,1,N,0030,1","02400,1,C,N","050000,1,N,1","+0189,1","+0165,1","10100,1","00,1","8,1,03,1","07,1,+02400,1,99,9",,,,"99999,9,09781,1","3,1,007,1,+999,9","SYN076AAXX  11151 02151 47884 /1403 10189 20165 39781 40100 53007 70082 333 87/58;",
"02151099999","2010-08-11T18:00:00","4","66.4833333","20.1666666","275.0","JOKKMOKK FPL, SW","FM-12","99999","V020","150,1,N,0020,1","01470,1,C,N","050000,1,N,1","+0181,1","+0149,1","10110,1","00,1","8,1,06,1","06,1,+01470,1,99,9",,"120,M,+0204,1","999,N,+0114,1","99999,9,09789,1","3,1,008,1,+999,9","SYN088AAXX  11181 02151 47684 /1502 10181 20149 39789 40110 53008 70082 333 10204 20114 86/49;",
"02151099999","2010-08-11T21:00:00","4","66.4833333","20.1666666","275.0","JOKKMOKK FPL, SW","FM-12","99999","V020","010,1,N,0010,1","99999,9,9,N","027000,1,N,1","+0118,1","+0118,1","10143,1",,,,,,,"99999,9,09814,1","3,1,026,1,+999,9","SYN060AAXX  11211 02151 45977 /0101 10118 20118 39814 40143 53026;",
"02151099999","2010-08-12T00:00:00","4","66.4833333","20.1666666","275.0","JOKKMOKK FPL, SW","FM-12","99999","V020","040,1,N,0020,1","00480,1,C,N","050000,1,N,1","+0131,1","+0104,1","10166,1",,,"07,1,+00480,1,99,9",,,,"99999,9,09838,1","2,1,023,1,+999,9","SYN076AAXX  12001 02151 45484 /0402 10131 20104 39838 40166 52023 333 87/16 88/19;",
"02151099999","2010-08-12T03:00:00","4","66.4833333","20.1666666","275.0","JOKKMOKK FPL, SW","FM-12","99999","V020","070,1,N,0020,1","00630,1,C,N","050000,1,N,1","+0112,1","+0091,1","10189,1",,,"08,1,+00630,1,99,9",,,,"99999,9,09858,1","3,1,020,1,+999,9","SYN070AAXX  12031 02151 45584 /0702 10112 20091 39858 40189 53020 333 88/21;",
"02151099999","2010-08-12T06:00:00","4","66.4833333","20.1666666","275.0","JOKKMOKK FPL, SW","FM-12","99999","V020","050,1,N,0020,1","00450,1,C,N","050000,1,N,1","+0104,1","+0083,1","10203,1",,,"08,1,+00450,1,99,9",,"120,M,+0181,1","999,N,+0102,1","99999,9,09870,1","1,1,012,1,+999,9","SYN082AAXX  12061 02151 45484 /0502 10104 20083 39870 40203 51012 333 10181 20102 88/15;",
"02151099999","2010-08-12T09:00:00","4","66.4833333","20.1666666","275.0","JOKKMOKK FPL, SW","FM-12","99999","V020","350,1,N,0010,1","00420,1,C,N","050000,1,N,1","+0116,1","+0093,1","10211,1","22,1","8,1,03,1","08,1,+00420,1,99,9",,,,"99999,9,09880,1","2,1,010,1,+999,9","SYN076AAXX  12091 02151 47484 /3501 10116 20093 39880 40211 52010 72286 333 88/14;",
"02151099999","2010-08-12T12:00:00","4","66.4833333","20.1666666","275.0","JOKKMOKK FPL, SW","FM-12","99999","V020","150,1,N,0020,1","00360,1,C,N","050000,1,N,1","+0132,1","+0116,1","10211,1","00,1","8,1,06,1","08,1,+00360,1,99,9",,,,"99999,9,09882,1","2,1,002,1,+999,9","SYN076AAXX  12121 02151 47484 /1502 10132 20116 39882 40211 52002 70086 333 88/12;",
"02151099999","2010-08-12T15:00:00","4","66.4833333","20.1666666","275.0","JOKKMOKK FPL, SW","FM-12","99999","V020","130,1,N,0030,1","00480,1,C,N","045000,1,N,1","+0156,1","+0134,1","10206,1",,,"06,1,+00480,1,99,9",,,,"99999,9,09880,1","7,1,002,1,+999,9","SYN070AAXX  12151 02151 45483 /1303 10156 20134 39880 40206 57002 333 86/16;",
"02151099999","2010-08-12T18:00:00","4","66.4833333","20.1666666","275.0","JOKKMOKK FPL, SW","FM-12","99999","V020","130,1,N,0030,1","00360,1,C,N","050000,1,N,1","+0150,1","+0142,1","10207,1",,,"08,1,+00360,1,99,9",,"120,M,+0160,1","999,N,+0103,1","99999,9,09880,1","4,1,000,1,+999,9","SYN082AAXX  12181 02151 45484 /1303 10150 20142 39880 40207 54000 333 10160 20103 88/12;",
"02151099999","2010-08-12T21:00:00","4","66.4833333","20.1666666","275.0","JOKKMOKK FPL, SW","FM-12","99999","V020","140,1,N,0020,1","00240,1,C,N","030000,1,N,1","+0147,1","+0146,1","10214,1",,,"08,1,+00240,1,99,9",,,,"99999,9,09886,1","2,1,006,1,+999,9","SYN070AAXX  12211 02151 45380 /1402 10147 20146 39886 40214 52006 333 88/08;",
"02151099999","2010-08-13T00:00:00","4","66.4833333","20.1666666","275.0","JOKKMOKK FPL, SW","FM-12","99999","V020","150,1,N,0020,1","99999,9,9,N","012000,1,N,1","+0141,1","+0141,1","10214,1",,,"01,1,+00150,1,99,9",,,,"99999,9,09886,1","4,1,000,1,+999,9","SYN076AAXX  13001 02151 45262 /1502 10141 20141 39886 40214 54000 333 81/05 88/09;",
"02151099999","2010-08-13T03:00:00","4","66.4833333","20.1666666","275.0","JOKKMOKK FPL, SW","FM-12","99999","V020","150,1,N,0020,1","00030,1,C,N","000400,1,N,1","+0134,1","+0134,1","10218,1","32,1","4,1,03,1","08,1,+00030,1,99,9",,,,"99999,9,09888,1","3,1,002,1,+999,9","SYN076AAXX  13031 02151 47104 /1502 10134 20134 39888 40218 53002 73231 333 88/01;",
"02151099999","2010-08-13T06:00:00","4","66.4833333","20.1666666","275.0","JOKKMOKK FPL, SW","FM-12","99999","V020","170,1,N,0010,1","03600,1,C,N","035000,1,N,1","+0173,1","+0160,1","10213,1","00,1","4,1,06,1","05,1,+03600,1,99,9",,"120,M,+0173,1","999,N,+0132,1","99999,9,09888,1","0,1,000,1,+999,9","SYN088AAXX  13061 02151 47981 /1701 10173 20160 39888 40213 50000 70032 333 10173 20132 85/62;",
"02151099999","2010-08-13T09:00:00","4","66.4833333","20.1666666","275.0","JOKKMOKK FPL, SW","FM-12","99999","V020","200,1,N,0030,1","99999,9,9,N","045000,1,N,1","+0203,1","+0166,1","10212,1",,,"03,1,+00750,1,99,9",,,,"99999,9,09890,1","2,1,003,1,+999,9","SYN070AAXX  13091 02151 45583 /2003 10203 20166 39890 40212 52003 333 83/25;",
"02151099999","2010-08-13T12:00:00","4","66.4833333","20.1666666","275.0","JOKKMOKK FPL, SW","FM-12","99999","V020","230,1,N,0040,1","99999,9,9,N","040000,1,N,1","+0229,1","+0156,1","10206,1",,,"01,1,+01200,1,99,9",,,,"99999,9,09888,1","8,1,003,1,+999,9","SYN070AAXX  13121 02151 45682 /2304 10229 20156 39888 40206 58003 333 81/40;",
"02151099999","2010-08-13T18:00:00","4","66.4833333","20.1666666","275.0","JOKKMOKK FPL, SW","FM-12","99999","V020","190,1,N,0010,1","99999,9,9,N","050000,1,N,1","+0201,1","+0157,1","10205,1","00,1","8,1,06,1","02,1,+03300,1,99,9",,"120,M,+0243,1","999,N,+0171,1","99999,9,09883,1","4,1,000,1,+999,9","SYN088AAXX  13181 02151 47984 /1901 10201 20157 39883 40205 54001 70086 333 10243 20171 82/61;",
"02151099999","2010-08-13T21:00:00","4","66.4833333","20.1666666","275.0","JOKKMOKK FPL, SW","FM-12","99999","V020","190,1,N,0010,1","99999,9,9,N","040000,1,N,1","+0170,1","+0156,1","10209,1",,,,,,,"99999,9,09884,1","4,1,000,1,+999,9","SYN060AAXX  13211 02151 45982 /1901 10170 20156 39884 40209 54001;",
"02151099999","2010-08-14T00:00:00","4","66.4833333","20.1666666","275.0","JOKKMOKK FPL, SW","FM-12","99999","V020","190,1,N,0020,1","99999,9,9,N","016000,1,N,1","+0151,1","+0147,1","10206,1",,,,,,,"99999,9,09879,1","7,1,005,1,+999,9","SYN060AAXX  14001 02151 45966 /1902 10151 20147 39879 40206 57005;",
"02151099999","2010-08-14T03:00:00","4","66.4833333","20.1666666","275.0","JOKKMOKK FPL, SW","FM-12","99999","V020","150,1,N,0010,1","99999,9,9,N","006000,1,N,1","+0122,1","+0122,1","10204,1","10,1","2,1,03,1","04,1,+03000,1,99,9",,,,"99999,9,09873,1","7,1,005,1,+999,9","SYN076AAXX  14031 02151 47956 /1501 10122 20122 39873 40204 57005 71010 333 84/60;",
"02151099999","2010-08-14T06:00:00","4","66.4833333","20.1666666","275.0","JOKKMOKK FPL, SW","FM-12","99999","V020","150,1,N,0020,1","99999,9,9,N","029000,1,N,1","+0178,1","+0163,1","10179,1",,,"01,1,+03300,1,99,9",,"120,M,+0201,1","999,N,+0117,1","99999,9,09856,1","8,1,018,1,+999,9","SYN088AAXX  14061 02151 45979 /1502 10178 20163 39856 40179 58018 333 10201 20117 81/61 85/63;",
"02151099999","2010-08-14T09:00:00","4","66.4833333","20.1666666","275.0","JOKKMOKK FPL, SW","FM-12","99999","V020","180,1,N,0040,1","99999,9,9,N","030000,1,N,1","+0209,1","+0172,1","10157,1",,,"01,1,+00870,1,99,9",,,,"99999,9,09838,1","8,1,018,1,+999,9","SYN070AAXX  14091 02151 45580 /1804 10209 20172 39838 40157 58018 333 81/29;",
"02151099999","2010-08-14T12:00:00","4","66.4833333","20.1666666","275.0","JOKKMOKK FPL, SW","FM-12","99999","V020","190,1,N,0020,1","99999,9,9,N","007000,1,N,1","+0184,1","+0176,1","10136,1","82,1","8,1,06,1","01,1,+00210,1,99,9",,,,"99999,9,09815,1","8,1,023,1,+999,9","SYN076AAXX  14121 02151 47357 /1902 10184 20176 39815 40136 58023 78286 333 81/07;",
"02151099999","2010-08-14T15:00:00","4","66.4833333","20.1666666","275.0","JOKKMOKK FPL, SW","FM-12","99999","V020","230,1,N,0040,1","99999,9,9,N","040000,1,N,1","+0205,1","+0184,1","10109,1","22,1","8,1,03,1","02,1,+03000,1,99,9",,,,"99999,9,09791,1","8,1,024,1,+999,9","SYN076AAXX  14151 02151 47982 /2304 10205 20184 39791 40109 58024 72286 333 82/60;",
"02151099999","2010-08-14T18:00:00","4","66.4833333","20.1666666","275.0","JOKKMOKK FPL, SW","FM-12","99999","V020","290,1,N,0030,1","99999,9,9,N","050000,1,N,1","+0171,1","+0146,1","10107,1","22,1","8,1,06,1",,,"120,M,+0211,1","999,N,+0165,1","99999,9,09786,1","5,1,005,1,+999,9","SYN082AAXX  14181 02151 47984 /2903 10171 20146 39786 40107 55005 72286 333 10211 20165;",
"02151099999","2010-08-14T21:00:00","4","66.4833333","20.1666666","275.0","JOKKMOKK FPL, SW","FM-12","99999","V020","260,1,N,0040,1","99999,9,9,N","045000,1,N,1","+0144,1","+0111,1","10119,1","81,1","8,1,03,1","01,1,+02700,1,99,9",,,,"99999,9,09794,1","2,1,009,1,+999,9","SYN082AAXX  14211 02151 47983 /2604 10144 20111 39794 40119 52009 78182 333 81/59 84/64;",
"02151099999","2010-08-15T00:00:00","4","66.4833333","20.1666666","275.0","JOKKMOKK FPL, SW","FM-12","99999","V020","270,1,N,0050,1","99999,9,9,N","050000,1,N,1","+0127,1","+0083,1","10123,1","00,1","8,1,06,1",,,,,"99999,9,09796,1","2,1,002,1,+999,9","SYN066AAXX  15001 02151 47984 /2705 10127 20083 39796 40123 52002 70086;",
"02151099999","2010-08-15T03:00:00","4","66.4833333","20.1666666","275.0","JOKKMOKK FPL, SW","FM-12","99999","V020","270,1,N,0050,1","99999,9,9,N","050000,1,N,1","+0118,1","+0079,1","10122,1",,,,,,,"99999,9,09794,1","5,1,002,1,+999,9","SYN060AAXX  15031 02151 45984 /2705 10118 20079 39794 40122 55002;",
"02151099999","2010-08-15T06:00:00","4","66.4833333","20.1666666","275.0","JOKKMOKK FPL, SW","FM-12","99999","V020","300,1,N,0070,1","99999,9,9,N","045000,1,N,1","+0129,1","+0054,1","10147,1",,,,,"120,M,+0171,1","999,N,+0116,1","99999,9,09819,1","3,1,025,1,+999,9","SYN076AAXX  15061 02151 45983 /3007 10129 20054 39819 40147 53025 333 10171 20116;",
"02151099999","2010-08-15T09:00:00","4","66.4833333","20.1666666","275.0","JOKKMOKK FPL, SW","FM-12","99999","V020","300,1,N,0060,1","01500,1,C,N","050000,1,N,1","+0138,1","+0050,1","10179,1",,,"06,1,+01500,1,99,9",,,,"99999,9,09851,1","1,1,032,1,+999,9","SYN070AAXX  15091 02151 45784 /3006 10138 20050 39851 40179 51032 333 86/50;",
"02151099999","2010-08-15T12:00:00","4","66.4833333","20.1666666","275.0","JOKKMOKK FPL, SW","FM-12","99999","V020","320,1,N,0050,1","99999,9,9,N","050000,1,N,1","+0135,1","+0039,1","10200,1",,,"03,1,+01500,1,99,9",,,,"99999,9,09871,1","1,1,020,1,+999,9","SYN070AAXX  15121 02151 45784 /3205 10135 20039 39871 40200 51020 333 83/50;",
"02151099999","2010-08-15T15:00:00","4","66.4833333","20.1666666","275.0","JOKKMOKK FPL, SW","FM-12","99999","V020","310,1,N,0070,1","99999,9,9,N","050000,1,N,1","+0133,1","+0025,1","10212,1",,,,,,,"99999,9,09883,1","3,1,012,1,+999,9","SYN060AAXX  15151 02151 45984 /3107 10133 20025 39883 40212 53012;",
"02151099999","2010-08-15T18:00:00","4","66.4833333","20.1666666","275.0","JOKKMOKK FPL, SW","FM-12","99999","V020","280,1,N,0050,1","99999,9,9,N","050000,1,N,1","+0103,1","+0022,1","10226,1",,,,,"120,M,+0152,1","999,N,+0103,1","99999,9,09893,1","3,1,010,1,+999,9","SYN076AAXX  15181 02151 45984 /2805 10103 20022 39893 40226 53010 333 10152 20103;",
"02151099999","2010-08-15T21:00:00","4","66.4833333","20.1666666","275.0","JOKKMOKK FPL, SW","FM-12","99999","V020","290,1,N,0020,1","99999,9,9,N","050000,1,N,1","+0041,1","+0016,1","10252,1",,,,,,,"99999,9,09910,1","2,1,018,1,+999,9","SYN060AAXX  15211 02151 45984 /2902 10041 20016 39910 40252 52018;",
"02151099999","2010-08-16T00:00:00","4","66.4833333","20.1666666","275.0","JOKKMOKK FPL, SW","FM-12","99999","V020","280,1,N,0020,1","99999,9,9,N","050000,1,N,1","+0039,1","+0012,1","10252,1",,,,,,,"99999,9,09911,1","0,1,000,1,+999,9","SYN060AAXX  16001 02151 45984 /2802 10039 20012 39911 40252 50000;",
"02151099999","2010-08-16T03:00:00","4","66.4833333","20.1666666","275.0","JOKKMOKK FPL, SW","FM-12","99999","V020","999,9,C,0000,1","99999,9,9,N","050000,1,N,1","+0007,1","+0001,1","10261,1",,,,,,,"99999,9,09915,1","2,1,004,1,+999,9","SYN060AAXX  16031 02151 45984 /0000 10007 20001 39915 40261 52004;",
"02151099999","2010-08-16T06:00:00","4","66.4833333","20.1666666","275.0","JOKKMOKK FPL, SW","FM-12","99999","V020","300,1,N,0030,1","99999,9,9,N","040000,1,N,1","+0071,1","+0027,1","10267,1",,,,,"120,M,+0103,1","999,N,+0004,1","99999,9,09929,1","1,1,014,1,+999,9","SYN076AAXX  16061 02151 45982 /3003 10071 20027 39929 40267 51014 333 10103 20004;",
"02151099999","2010-08-16T09:00:00","4","66.4833333","20.1666666","275.0","JOKKMOKK FPL, SW","FM-12","99999","V020","300,1,N,0030,1","99999,9,9,N","045000,1,N,1","+0111,1","+0017,1","10260,1",,,,,,,"99999,9,09926,1","7,1,002,1,+999,9","SYN060AAXX  16091 02151 45983 /3003 10111 20017 39926 40260 57002;",
"02151099999","2010-08-16T12:00:00","4","66.4833333","20.1666666","275.0","JOKKMOKK FPL, SW","FM-12","99999","V020","290,1,N,0020,1","99999,9,9,N","035000,1,N,1","+0138,1","+0035,1","10242,1",,,,,,,"99999,9,09913,1","8,1,014,1,+999,9","SYN060AAXX  16121 02151 45981 /2902 10138 20035 39913 40242 58014;",
"02151099999","2010-08-16T18:00:00","4","66.4833333","20.1666666","275.0","JOKKMOKK FPL, SW","FM-12","99999","V020","170,1,N,0020,1","99999,9,9,N","050000,1,N,1","+0125,1","+0057,1","10213,1",,,,,"120,M,+0161,1","999,N,+0071,1","99999,9,09883,1","7,1,014,1,+999,9","SYN076AAXX  16181 02151 45984 /1702 10125 20057 39883 40213 57014 333 10161 20071;",
"02151099999","2010-08-16T21:00:00","4","66.4833333","20.1666666","275.0","JOKKMOKK FPL, SW","FM-12","99999","V020","200,1,N,0020,1","99999,9,9,N","050000,1,N,1","+0064,1","+0042,1","10214,1",,,,,,,"99999,9,09876,1","7,1,007,1,+999,9","SYN060AAXX  16211 02151 45984 /2002 10064 20042 39876 40214 57007;",
"02151099999","2010-08-17T00:00:00","4","66.4833333","20.1666666","275.0","JOKKMOKK FPL, SW","FM-12","99999","V020","160,1,N,0020,1","99999,9,9,N","050000,1,N,1","+0025,1","+0024,1","10205,1",,,,,,,"99999,9,09863,1","7,1,013,1,+999,9","SYN060AAXX  17001 02151 45984 /1602 10025 20024 39863 40205 57013;",
"02151099999","2010-08-17T03:00:00","4","66.4833333","20.1666666","275.0","JOKKMOKK FPL, SW","FM-12","99999","V020","190,1,N,0020,1","99999,9,9,N","050000,1,N,1","+0026,1","+0026,1","10189,1",,,,,,,"99999,9,09848,1","7,1,015,1,+999,9","SYN060AAXX  17031 02151 45984 /1902 10026 20026 39848 40189 57015;",
"02151099999","2010-08-17T06:00:00","4","66.4833333","20.1666666","275.0","JOKKMOKK FPL, SW","FM-12","99999","V020","110,1,N,0010,1","99999,9,9,N","050000,1,N,1","+0099,1","+0071,1","10165,1",,,,,"120,M,+0125,1","999,N,+0011,1","99999,9,09833,1","6,1,015,1,+999,9","SYN076AAXX  17061 02151 45984 /1101 10099 20071 39833 40165 56015 333 10125 20011;",
"02151099999","2010-08-17T09:00:00","4","66.4833333","20.1666666","275.0","JOKKMOKK FPL, SW","FM-12","99999","V020","340,1,N,0010,1","99999,9,9,N","040000,1,N,1","+0140,1","+0081,1","10153,1",,,,,,,"99999,9,09826,1","8,1,007,1,+999,9","SYN060AAXX  17091 02151 45982 /3401 10140 20081 39826 40153 58007;",
"02151099999","2010-08-17T12:00:00","4","66.4833333","20.1666666","275.0","JOKKMOKK FPL, SW","FM-12","99999","V020","140,1,N,0020,1","99999,9,9,N","040000,1,N,1","+0164,1","+0080,1","10135,1",,,,,,,"99999,9,09811,1","7,1,015,1,+999,9","SYN060AAXX  17121 02151 45982 /1402 10164 20080 39811 40135 57015;",
"02151099999","2010-08-17T15:00:00","4","66.4833333","20.1666666","275.0","JOKKMOKK FPL, SW","FM-12","99999","V020","080,1,N,0010,1","99999,9,9,N","040000,1,N,1","+0178,1","+0087,1","10122,1",,,,,,,"99999,9,09801,1","7,1,011,1,+999,9","SYN060AAXX  17151 02151 45982 /0801 10178 20087 39801 40122 57011;",
"02151099999","2010-08-17T18:00:00","4","66.4833333","20.1666666","275.0","JOKKMOKK FPL, SW","FM-12","99999","V020","080,1,N,0020,1","99999,9,9,N","050000,1,N,1","+0153,1","+0072,1","10123,1",,,,,"120,M,+0182,1","999,N,+0087,1","99999,9,09799,1","5,1,002,1,+999,9","SYN076AAXX  17181 02151 45984 /0802 10153 20072 39799 40123 55002 333 10182 20087;",
"02151099999","2010-08-17T21:00:00","4","66.4833333","20.1666666","275.0","JOKKMOKK FPL, SW","FM-12","99999","V020","999,9,C,0000,1","99999,9,9,N","050000,1,N,1","+0058,1","+0056,1","10139,1",,,,,,,"99999,9,09803,1","2,1,005,1,+999,9","SYN060AAXX  17211 02151 45984 /0000 10058 20056 39803 40139 52005;",
"02151099999","2010-08-18T00:00:00","4","66.4833333","20.1666666","275.0","JOKKMOKK FPL, SW","FM-12","99999","V020","340,1,N,0010,1","99999,9,9,N","050000,1,N,1","+0042,1","+0042,1","10153,1",,,,,,,"99999,9,09815,1","3,1,012,1,+999,9","SYN060AAXX  18001 02151 45984 /3401 10042 20042 39815 40153 53012;",
"02151099999","2010-08-18T03:00:00","4","66.4833333","20.1666666","275.0","JOKKMOKK FPL, SW","FM-12","99999","V020","070,1,N,0010,1","99999,9,9,N","050000,1,N,1","+0050,1","+0024,1","10170,1",,,,,,,"99999,9,09833,1","1,1,018,1,+999,9","SYN060AAXX  18031 02151 45984 /0701 10050 20024 39833 40170 51018;",
"02151099999","2010-08-18T06:00:00","4","66.4833333","20.1666666","275.0","JOKKMOKK FPL, SW","FM-12","99999","V020","060,1,N,0020,1","99999,9,9,N","045000,1,N,1","+0058,1","+0012,1","10176,1",,,,,"120,M,+0153,1","999,N,+0033,1","99999,9,09839,1","1,1,006,1,+999,9","SYN076AAXX  18061 02151 45983 /0602 10058 20012 39839 40176 51006 333 10153 20033;",
"02151099999","2010-08-18T09:00:00","4","66.4833333","20.1666666","275.0","JOKKMOKK FPL, SW","FM-12","99999","V020","070,1,N,0020,1","99999,9,9,N","035000,1,N,1","+0090,1","+0017,1","10164,1",,,,,,,"99999,9,09831,1","7,1,008,1,+999,9","SYN060AAXX  18091 02151 45981 /0702 10090 20017 39831 40164 57008;",
"02151099999","2010-08-18T12:00:00","4","66.4833333","20.1666666","275.0","JOKKMOKK FPL, SW","FM-12","99999","V020","350,1,N,0020,1","99999,9,9,N","045000,1,N,1","+0120,1","+0035,1","10139,1",,,,,,,"99999,9,09810,1","7,1,021,1,+999,9","SYN060AAXX  18121 02151 45983 /3502 10120 20035 39810 40139 57021;",
"02151099999","2010-08-18T15:00:00","4","66.4833333","20.1666666","275.0","JOKKMOKK FPL, SW","FM-12","99999","V020","060,1,N,0020,1","99999,9,9,N","050000,1,N,1","+0140,1","+0054,1","10118,1",,,,,,,"99999,9,09792,1","7,1,018,1,+999,9","SYN060AAXX  18151 02151 45984 /0602 10140 20054 39792 40118 57018;",
"02151099999","2010-08-18T18:00:00","4","66.4833333","20.1666666","275.0","JOKKMOKK FPL, SW","FM-12","99999","V020","140,1,N,0010,1","99999,9,9,N","050000,1,N,1","+0097,1","+0066,1","10113,1",,,,,"120,M,+0150,1","999,N,+0057,1","99999,9,09782,1","6,1,010,1,+999,9","SYN076AAXX  18181 02151 45984 /1401 10097 20066 39782 40113 56010 333 10150 20057;",
"02151099999","2010-08-18T21:00:00","4","66.4833333","20.1666666","275.0","JOKKMOKK FPL, SW","FM-12","99999","V020","999,9,C,0000,1","99999,9,9,N","050000,1,N,1","+0020,1","+0019,1","10126,1",,,,,,,"99999,9,09787,1","2,1,004,1,+999,9","SYN060AAXX  18211 02151 45984 /0000 10020 20019 39787 40126 52004;",
"02151099999","2010-08-19T00:00:00","4","66.4833333","20.1666666","275.0","JOKKMOKK FPL, SW","FM-12","99999","V020","160,1,N,0010,1","99999,9,9,N","050000,1,N,1","+0003,1","+0003,1","10134,1",,,,,,,"99999,9,09792,1","2,1,006,1,+999,9","SYN060AAXX  19001 02151 45984 /1601 10003 20003 39792 40134 52006;",
"02151099999","2010-08-19T03:00:00","4","66.4833333","20.1666666","275.0","JOKKMOKK FPL, SW","FM-12","99999","V020","999,9,C,0000,1","99999,9,9,N","050000,1,N,1","-0003,1","-0003,1","10137,1",,,,,,,"99999,9,09794,1","2,1,002,1,+999,9","SYN060AAXX  19031 02151 45984 /0000 11003 21003 39794 40137 52002;",
"02151099999","2010-08-19T06:00:00","4","66.4833333","20.1666666","275.0","JOKKMOKK FPL, SW","FM-12","99999","V020","060,1,N,0030,1","99999,9,9,N","045000,1,N,1","+0056,1","+0025,1","10135,1",,,"01,1,+00540,1,99,9",,"120,M,+0097,1","999,N,-0004,1","99999,9,09799,1","2,1,005,1,+999,9","SYN088AAXX  19061 02151 45483 /0603 10056 20025 39799 40135 52005 333 10097 21004 81/18 84/50;",
"02151099999","2010-08-19T09:00:00","4","66.4833333","20.1666666","275.0","JOKKMOKK FPL, SW","FM-12","99999","V020","050,1,N,0010,1","00780,1,C,N","045000,1,N,1","+0079,1","+0036,1","10129,1",,,"05,1,+00780,1,99,9",,,,"99999,9,09796,1","5,1,003,1,+999,9","SYN076AAXX  19091 02151 45583 /0501 10079 20036 39796 40129 55003 333 85/26 88/50;",
"02151099999","2010-08-19T12:00:00","4","66.4833333","20.1666666","275.0","JOKKMOKK FPL, SW","FM-12","99999","V020","030,1,N,0020,1","99999,9,9,N","035000,1,N,1","+0106,1","+0048,1","10118,1",,,,,,,"99999,9,09788,1","7,1,007,1,+999,9","SYN060AAXX  19121 02151 45981 /0302 10106 20048 39788 40118 57007;",
"02151099999","2010-08-19T15:00:00","4","66.4833333","20.1666666","275.0","JOKKMOKK FPL, SW","FM-12","99999","V020","100,1,N,0020,1","99999,9,9,N","045000,1,N,1","+0112,1","+0057,1","10116,1",,,"04,1,+00960,1,99,9",,,,"99999,9,09788,1","4,1,000,1,+999,9","SYN070AAXX  19151 02151 45583 /1002 10112 20057 39788 40116 54001 333 84/32;",
"02151099999","2010-08-19T18:00:00","4","66.4833333","20.1666666","275.0","JOKKMOKK FPL, SW","FM-12","99999","V020","140,1,N,0020,1","99999,9,9,N","050000,1,N,1","+0085,1","+0053,1","10122,1",,,,,"120,M,+0125,1","999,N,+0056,1","99999,9,09790,1","2,1,002,1,+999,9","SYN076AAXX  19181 02151 45984 /1402 10085 20053 39790 40122 52002 333 10125 20056;",
"02151099999","2010-08-19T21:00:00","4","66.4833333","20.1666666","275.0","JOKKMOKK FPL, SW","FM-12","99999","V020","180,1,N,0010,1","99999,9,9,N","050000,1,N,1","+0029,1","+0025,1","10142,1",,,,,,,"99999,9,09802,1","2,1,013,1,+999,9","SYN060AAXX  19211 02151 45984 /1801 10029 20025 39802 40142 52013;",
"02151099999","2010-08-20T00:00:00","4","66.4833333","20.1666666","275.0","JOKKMOKK FPL, SW","FM-12","99999","V020","999,9,C,0000,1","99999,9,9,N","050000,1,N,1","+0011,1","+0011,1","10146,1",,,,,,,"99999,9,09804,1","0,1,002,1,+999,9","SYN060AAXX  20001 02151 45984 /0000 10011 20011 39804 40146 50002;",
"02151099999","2010-08-20T03:00:00","4","66.4833333","20.1666666","275.0","JOKKMOKK FPL, SW","FM-12","99999","V020","150,1,N,0020,1","01410,1,C,N","050000,1,N,1","+0039,1","+0037,1","10143,1",,,"06,1,+01410,1,99,9",,,,"99999,9,09805,1","4,1,000,1,+999,9","SYN070AAXX  20031 02151 45684 /1502 10039 20037 39805 40143 54001 333 86/47;",
"02151099999","2010-08-20T06:00:00","4","66.4833333","20.1666666","275.0","JOKKMOKK FPL, SW","FM-12","99999","V020","130,1,N,0020,1","99999,9,9,N","050000,1,N,1","+0060,1","+0055,1","10141,1",,,,,"120,M,+0085,1","999,N,+0007,1","99999,9,09806,1","4,1,000,1,+999,9","SYN076AAXX  20061 02151 45984 /1302 10060 20055 39806 40141 54001 333 10085 20007;",
"02151099999","2010-08-20T09:00:00","4","66.4833333","20.1666666","275.0","JOKKMOKK FPL, SW","FM-12","99999","V020","140,1,N,0040,1","99999,9,9,N","035000,1,N,1","+0125,1","+0069,1","10129,1",,,,,,,"99999,9,09802,1","7,1,004,1,+999,9","SYN060AAXX  20091 02151 45981 /1404 10125 20069 39802 40129 57004;",
"02151099999","2010-08-20T12:00:00","4","66.4833333","20.1666666","275.0","JOKKMOKK FPL, SW","FM-12","99999","V020","160,1,N,0040,1","01500,1,C,N","026000,1,N,1","+0144,1","+0062,1","10123,1",,,"08,1,+01500,1,99,9",,,,"99999,9,09798,1","7,1,004,1,+999,9","SYN070AAXX  20121 02151 45776 /1604 10144 20062 39798 40123 57004 333 88/50;",
"02151099999","2010-08-20T15:00:00","4","66.4833333","20.1666666","275.0","JOKKMOKK FPL, SW","FM-12","99999","V020","150,1,N,0030,1","01500,1,C,N","050000,1,N,1","+0144,1","+0077,1","10117,1",,,"08,1,+01500,1,99,9",,,,"99999,9,09792,1","7,1,006,1,+999,9","SYN070AAXX  20151 02151 45784 /1503 10144 20077 39792 40117 57006 333 88/50;",
"02151099999","2010-08-20T18:00:00","4","66.4833333","20.1666666","275.0","JOKKMOKK FPL, SW","FM-12","99999","V020","170,1,N,0030,1","01440,1,C,N","050000,1,N,1","+0129,1","+0077,1","10114,1",,,"08,1,+01440,1,99,9",,"120,M,+0151,1","999,N,+0060,1","99999,9,09788,1","7,1,004,1,+999,9","SYN082AAXX  20181 02151 45684 /1703 10129 20077 39788 40114 57004 333 10151 20060 88/48;",
"02151099999","2010-08-20T21:00:00","4","66.4833333","20.1666666","275.0","JOKKMOKK FPL, SW","FM-12","99999","V020","120,1,N,0020,1","01260,1,C,N","020000,1,N,1","+0113,1","+0096,1","10117,1",,,"08,1,+01260,1,99,9",,,,"99999,9,09789,1","2,1,001,1,+999,9","SYN070AAXX  20211 02151 45670 /1202 10113 20096 39789 40117 52001 333 88/42;",
"02151099999","2010-08-21T00:00:00","4","66.4833333","20.1666666","275.0","JOKKMOKK FPL, SW","FM-12","99999","V020","120,1,N,0020,1","01140,1,C,N","013000,1,N,1","+0099,1","+0090,1","10112,1",,,"08,1,+01140,1,99,9",,,,"99999,9,09782,1","7,1,007,1,+999,9","SYN070AAXX  21001 02151 45663 /1202 10099 20090 39782 40112 57007 333 88/38;",
"02151099999","2010-08-21T03:00:00","4","66.4833333","20.1666666","275.0","JOKKMOKK FPL, SW","FM-12","99999","V020","110,1,N,0020,1","99999,9,9,N","012000,1,N,1","+0093,1","+0086,1","10105,1",,,"02,1,+01110,1,99,9",,,,"99999,9,09775,1","7,1,007,1,+999,9","SYN076AAXX  21031 02151 45662 /1102 10093 20086 39775 40105 57007 333 82/37 88/50;",
"02151099999","2010-08-21T06:00:00","4","66.4833333","20.1666666","275.0","JOKKMOKK FPL, SW","FM-12","99999","V020","120,1,N,0020,1","00990,1,C,N","013000,1,N,1","+0098,1","+0093,1","10099,1",,,"08,1,+00990,1,99,9",,"120,M,+0129,1","999,N,+0093,1","99999,9,09770,1","6,1,005,1,+999,9","SYN082AAXX  21061 02151 45563 /1202 10098 20093 39770 40099 56005 333 10129 20093 88/33;",
"02151099999","2010-08-21T09:00:00","4","66.4833333","20.1666666","275.0","JOKKMOKK FPL, SW","FM-12","99999","V020","120,1,N,0020,1","00750,1,C,N","013000,1,N,1","+0104,1","+0103,1","10093,1","22,1","6,1,03,1","08,1,+00750,1,99,9",,,,"99999,9,09764,1","7,1,005,1,+999,9","SYN076AAXX  21091 02151 47563 /1202 10104 20103 39764 40093 57005 72265 333 88/25;",
"02151099999","2010-08-21T12:00:00","4","66.4833333","20.1666666","275.0","JOKKMOKK FPL, SW","FM-12","99999","V020","130,1,N,0050,1","00270,1,C,N","007000,1,N,1","+0110,1","+0109,1","10084,1","62,1","6,1,06,1","09,1,+00270,1,99,9",,,,"99999,9,09756,1","7,1,008,1,+999,9","SYN076AAXX  21121 02151 47/57 /1305 10110 20109 39756 40084 57008 76265 333 89/09;",
"02151099999","2010-08-21T15:00:00","4","66.4833333","20.1666666","275.0","JOKKMOKK FPL, SW","FM-12","99999","V020","120,1,N,0020,1","00120,1,C,N","017000,1,N,1","+0108,1","+0108,1","10081,1","22,1","8,1,03,1","07,1,+00120,1,99,9",,,,"99999,9,09753,1","7,1,004,1,+999,9","SYN082AAXX  21151 02151 47267 /1202 10108 20108 39753 40081 57004 72286 333 87/04 88/05;",
"02151099999","2010-08-21T18:00:00","4","66.4833333","20.1666666","275.0","JOKKMOKK FPL, SW","FM-12","99999","V020","130,1,N,0020,1","00120,1,C,N","004600,1,N,1","+0100,1","+0100,1","10073,1","10,1","8,1,06,1","08,1,+00120,1,99,9",,"120,M,+0112,1","999,N,+0097,1","99999,9,09745,1","7,1,008,1,+999,9","SYN088AAXX  21181 02151 47246 /1302 10100 20100 39745 40073 57008 71086 333 10112 20097 88/04;",
"02151099999","2010-08-21T21:00:00","4","66.4833333","20.1666666","275.0","JOKKMOKK FPL, SW","FM-12","99999","V020","130,1,N,0020,1","00060,1,C,N","002400,1,N,1","+0095,1","+0095,1","10066,1","10,1","2,1,03,1","08,1,+00060,1,99,9",,,,"99999,9,09737,1","7,1,008,1,+999,9","SYN076AAXX  21211 02151 47124 /1302 10095 20095 39737 40066 57008 71010 333 88/02;",
"02151099999","2010-08-22T00:00:00","4","66.4833333","20.1666666","275.0","JOKKMOKK FPL, SW","FM-12","99999","V020","999,9,C,0000,1","00060,1,C,N","000300,1,N,1","+0093,1","+0093,1","10055,1","34,1","8,1,06,1","09,1,+00060,1,99,9",,,,"99999,9,09726,1","7,1,011,1,+999,9","SYN076AAXX  22001 02151 47/03 /0000 10093 20093 39726 40055 57011 73486 333 89/02;",
"02151099999","2010-08-22T03:00:00","4","66.4833333","20.1666666","275.0","JOKKMOKK FPL, SW","FM-12","99999","V020","999,9,C,0000,1","00600,1,C,N","007000,1,N,1","+0090,1","+0090,1","10039,1","10,1","4,1,03,1","08,1,+00600,1,99,9",,,,"99999,9,09711,1","8,1,015,1,+999,9","SYN076AAXX  22031 02151 47557 /0000 10090 20090 39711 40039 58015 71032 333 88/20;",
"02151099999","2010-08-22T06:00:00","4","66.4833333","20.1666666","275.0","JOKKMOKK FPL, SW","FM-12","99999","V020","999,9,C,0000,1","01080,1,C,N","020000,1,N,1","+0102,1","+0099,1","10025,1","00,1","4,1,06,1","06,1,+01080,1,99,9",,"120,M,+0102,1","999,N,+0090,1","99999,9,09698,1","7,1,012,1,+999,9","SYN094AAXX  22061 02151 47670 /0000 10102 20099 39698 40025 57012 70032 333 10102 20090 86/36 88/44;",
"02151099999","2010-08-22T09:00:00","4","66.4833333","20.1666666","275.0","JOKKMOKK FPL, SW","FM-12","99999","V020","030,1,N,0020,1","01800,1,C,N","013000,1,N,1","+0113,1","+0096,1","10014,1","81,1","8,1,03,1","06,1,+01800,1,99,9",,,,"99999,9,09688,1","8,1,010,1,+999,9","SYN082AAXX  22091 02151 47763 /0302 10113 20096 39688 40014 58010 78186 333 86/56 87/66;",
"02151099999","2010-08-22T12:00:00","4","66.4833333","20.1666666","275.0","JOKKMOKK FPL, SW","FM-12","99999","V020","060,1,N,0030,1","99999,9,9,N","026000,1,N,1","+0131,1","+0092,1","10003,1","00,1","8,1,06,1","03,1,+00810,1,99,9",,,,"99999,9,09680,1","7,1,009,1,+999,9","SYN082AAXX  22121 02151 47576 /0603 10131 20092 39680 40003 57009 70085 333 83/27 86/58;",
"02151099999","2010-08-22T15:00:00","4","66.4833333","20.1666666","275.0","JOKKMOKK FPL, SW","FM-12","99999","V020","060,1,N,0030,1","99999,9,9,N","035000,1,N,1","+0130,1","+0092,1","09993,1",,,"02,1,+00810,1,99,9",,,,"99999,9,09671,1","7,1,009,1,+999,9","SYN076AAXX  22151 02151 45581 /0603 10130 20092 39671 49993 57009 333 82/27 85/59;",
"02151099999","2010-08-22T18:00:00","4","66.4833333","20.1666666","275.0","JOKKMOKK FPL, SW","FM-12","99999","V020","010,1,N,0010,1","99999,9,9,N","029000,1,N,1","+0113,1","+0094,1","09988,1",,,"02,1,+00660,1,99,9",,"120,M,+0137,1","999,N,+0101,1","99999,9,09663,1","7,1,007,1,+999,9","SYN088AAXX  22181 02151 45579 /0101 10113 20094 39663 49988 57007 333 10137 20101 82/22 84/61;",
"02151099999","2010-08-22T21:00:00","4","66.4833333","20.1666666","275.0","JOKKMOKK FPL, SW","FM-12","99999","V020","999,9,C,0000,1","00330,1,C,N","009000,1,N,1","+0081,1","+0081,1","09988,1",,,"05,1,+00330,1,99,9",,,,"99999,9,09660,1","7,1,004,1,+999,9","SYN076AAXX  22211 02151 45459 /0000 10081 20081 39660 49988 57004 333 85/11 88/59;",
"02151099999","2010-08-23T00:00:00","4","66.4833333","20.1666666","275.0","JOKKMOKK FPL, SW","FM-12","99999","V020","020,1,N,0010,1","00240,1,C,N","050000,1,N,1","+0094,1","+0092,1","09980,1",,,"06,1,+00240,1,99,9",,,,"99999,9,09654,1","7,1,006,1,+999,9","SYN076AAXX  23001 02151 45384 /0201 10094 20092 39654 49980 57006 333 86/08 88/11;",
"02151099999","2010-08-23T03:00:00","4","66.4833333","20.1666666","275.0","JOKKMOKK FPL, SW","FM-12","99999","V020","040,1,N,0020,1","00180,1,C,N","007000,1,N,1","+0085,1","+0085,1","09985,1","81,1","8,1,03,1","09,1,+00180,1,99,9",,,,"99999,9,09658,1","2,1,004,1,+999,9","SYN076AAXX  23031 02151 47/57 /0402 10085 20085 39658 49985 52004 78186 333 89/06;",
"02151099999","2010-08-23T06:00:00","4","66.4833333","20.1666666","275.0","JOKKMOKK FPL, SW","FM-12","99999","V020","060,1,N,0020,1","00210,1,C,N","019000,1,N,1","+0078,1","+0077,1","09994,1","00,1","8,1,06,1","05,1,+00210,1,99,9",,"120,M,+0113,1","999,N,+0077,1","99999,9,09666,1","3,1,008,1,+999,9","SYN094AAXX  23061 02151 47369 /0602 10078 20077 39666 49994 53008 70086 333 10113 20077 85/07 88/10;",
"02151099999","2010-08-23T09:00:00","4","66.4833333","20.1666666","275.0","JOKKMOKK FPL, SW","FM-12","99999","V020","060,1,N,0030,1","00270,1,C,N","011000,1,N,1","+0072,1","+0069,1","10013,1","81,1","8,1,03,1","04,1,+00210,1,99,9","05,1,+00270,1,99,9",,,"99999,9,09683,1","2,1,018,1,+999,9","SYN088AAXX  23091 02151 47361 /0603 10072 20069 39683 40013 52018 78186 333 84/07 85/09 87/15;",
"02151099999","2010-08-23T12:00:00","4","66.4833333","20.1666666","275.0","JOKKMOKK FPL, SW","FM-12","99999","V020","100,1,N,0030,1","00510,1,C,N","003300,1,N,1","+0074,1","+0071,1","10028,1","22,1","8,1,06,1","09,1,+00510,1,99,9",,,,"99999,9,09698,1","2,1,015,1,+999,9","SYN076AAXX  23121 02151 47/33 /1003 10074 20071 39698 40028 52015 72286 333 89/17;",
"02151099999","2010-08-23T15:00:00","4","66.4833333","20.1666666","275.0","JOKKMOKK FPL, SW","FM-12","99999","V020","060,1,N,0010,1","01320,1,C,N","050000,1,N,1","+0089,1","+0063,1","10035,1","00,1","8,1,03,1","08,1,+01320,1,99,9",,,,"99999,9,09707,1","2,1,009,1,+999,9","SYN076AAXX  23151 02151 47684 /0601 10089 20063 39707 40035 52009 70086 333 88/44;",
"02151099999","2010-08-23T18:00:00","4","66.4833333","20.1666666","275.0","JOKKMOKK FPL, SW","FM-12","99999","V020","999,9,C,0000,1","99999,9,9,N","050000,1,N,1","+0083,1","+0071,1","10041,1","00,1","8,1,06,1","04,1,+00840,1,99,9",,"120,M,+0093,1","999,N,+0070,1","99999,9,09711,1","2,1,005,1,+999,9","SYN094AAXX  23181 02151 47584 /0000 10083 20071 39711 40041 52005 70086 333 10093 20070 84/28 88/43;",
"02151099999","2010-08-23T21:00:00","4","66.4833333","20.1666666","275.0","JOKKMOKK FPL, SW","FM-12","99999","V020","290,1,N,0010,1","01110,1,C,N","050000,1,N,1","+0074,1","+0068,1","10049,1",,,"06,1,+01110,1,99,9",,,,"99999,9,09718,1","2,1,007,1,+999,9","SYN076AAXX  23211 02151 45684 /2901 10074 20068 39718 40049 52007 333 86/37 88/50;",
"02151099999","2010-08-24T00:00:00","4","66.4833333","20.1666666","275.0","JOKKMOKK FPL, SW","FM-12","99999","V020","999,9,C,0000,1","99999,9,9,N","022000,1,N,1","+0057,1","+0057,1","10052,1",,,"02,1,+02100,1,99,9",,,,"99999,9,09719,1","4,1,000,1,+999,9","SYN076AAXX  24001 02151 45872 /0000 10057 20057 39719 40052 54001 333 82/57 88/60;",
"02151099999","2010-08-24T03:00:00","4","66.4833333","20.1666666","275.0","JOKKMOKK FPL, SW","FM-12","99999","V020","999,9,C,0000,1","01320,1,C,N","011000,1,N,1","+0054,1","+0054,1","10051,1","00,1","8,1,03,1","05,1,+01320,1,99,9",,,,"99999,9,09718,1","0,1,001,1,+999,9","SYN082AAXX  24031 02151 47661 /0000 10054 20054 39718 40051 50001 70086 333 85/44 88/61;",
"02151099999","2010-08-24T06:00:00","4","66.4833333","20.1666666","275.0","JOKKMOKK FPL, SW","FM-12","99999","V020","999,9,C,0000,1","01050,1,C,N","018000,1,N,1","+0073,1","+0061,1","10048,1","00,1","8,1,06,1","08,1,+01050,1,99,9",,"120,M,+0083,1","999,N,+0053,1","99999,9,09717,1","7,1,001,1,+999,9","SYN088AAXX  24061 02151 47668 /0000 10073 20061 39717 40048 57001 70086 333 10083 20053 88/35;",
"02151099999","2010-08-24T09:00:00","4","66.4833333","20.1666666","275.0","JOKKMOKK FPL, SW","FM-12","99999","V020","090,1,N,0020,1","99999,9,9,N","030000,1,N,1","+0093,1","+0053,1","10046,1",,,"01,1,+00720,1,99,9",,,,"99999,9,09717,1","4,1,000,1,+999,9","SYN076AAXX  24091 02151 45580 /0902 10093 20053 39717 40046 54000 333 81/24 88/45;",
"02151099999","2010-08-24T12:00:00","4","66.4833333","20.1666666","275.0","JOKKMOKK FPL, SW","FM-12","99999","V020","060,1,N,0030,1","01440,1,C,N","050000,1,N,1","+0107,1","+0038,1","10035,1",,,"08,1,+01440,1,99,9",,,,"99999,9,09708,1","7,1,009,1,+999,9","SYN070AAXX  24121 02151 45684 /0603 10107 20038 39708 40035 57009 333 88/48;",
"02151099999","2010-08-24T15:00:00","4","66.4833333","20.1666666","275.0","JOKKMOKK FPL, SW","FM-12","99999","V020","080,1,N,0030,1","99999,9,9,N","045000,1,N,1","+0097,1","+0038,1","10031,1",,,"01,1,+01140,1,99,9",,,,"99999,9,09704,1","7,1,005,1,+999,9","SYN076AAXX  24151 02151 45683 /0803 10097 20038 39704 40031 57005 333 81/38 83/48;",
"02151099999","2010-08-24T18:00:00","4","66.4833333","20.1666666","275.0","JOKKMOKK FPL, SW","FM-12","99999","V020","060,1,N,0010,1","99999,9,9,N","030000,1,N,1","+0068,1","+0033,1","10035,1",,,,,"120,M,+0119,1","999,N,+0069,1","99999,9,09704,1","4,1,000,1,+999,9","SYN076AAXX  24181 02151 45980 /0601 10068 20033 39704 40035 54000 333 10119 20069;",
"02151099999","2010-08-24T21:00:00","4","66.4833333","20.1666666","275.0","JOKKMOKK FPL, SW","FM-12","99999","V020","060,1,N,0010,1","01470,1,C,N","015000,1,N,1","+0045,1","+0025,1","10038,1",,,"08,1,+01470,1,99,9",,,,"99999,9,09704,1","4,1,000,1,+999,9","SYN070AAXX  24211 02151 45665 /0601 10045 20025 39704 40038 54000 333 88/49;",
"02151099999","2010-08-25T00:00:00","4","66.4833333","20.1666666","275.0","JOKKMOKK FPL, SW","FM-12","99999","V020","340,1,N,0010,1","01500,1,C,N","018000,1,N,1","+0039,1","+0025,1","10038,1",,,"08,1,+01500,1,99,9",,,,"99999,9,09703,1","7,1,001,1,+999,9","SYN070AAXX  25001 02151 45768 /3401 10039 20025 39703 40038 57001 333 88/50;",
"02151099999","2010-08-25T03:00:00","4","66.4833333","20.1666666","275.0","JOKKMOKK FPL, SW","FM-12","99999","V020","999,9,C,0000,1","01410,1,C,N","013000,1,N,1","+0030,1","+0027,1","10035,1",,,"08,1,+01410,1,99,9",,,,"99999,9,09699,1","6,1,004,1,+999,9","SYN070AAXX  25031 02151 45663 /0000 10030 20027 39699 40035 56004 333 88/47;",
"02151099999","2010-08-25T06:00:00","4","66.4833333","20.1666666","275.0","JOKKMOKK FPL, SW","FM-12","99999","V020","050,1,N,0030,1","00660,1,C,N","040000,1,N,1","+0057,1","+0027,1","10029,1",,,"07,1,+00660,1,99,9",,"120,M,+0068,1","999,N,+0028,1","99999,9,09697,1","7,1,002,1,+999,9","SYN088AAXX  25061 02151 45582 /0503 10057 20027 39697 40029 57002 333 10068 20028 87/22 88/37;",
"02151099999","2010-08-25T09:00:00","4","66.4833333","20.1666666","275.0","JOKKMOKK FPL, SW","FM-12","99999","V020","050,1,N,0040,1","00690,1,C,N","030000,1,N,1","+0063,1","+0029,1","10034,1",,,"07,1,+00690,1,99,9",,,,"99999,9,09702,1","3,1,005,1,+999,9","SYN070AAXX  25091 02151 45580 /0504 10063 20029 39702 40034 53005 333 87/23;",
"02151099999","2010-08-25T12:00:00","4","66.4833333","20.1666666","275.0","JOKKMOKK FPL, SW","FM-12","99999","V020","050,1,N,0040,1","01020,1,C,N","040000,1,N,1","+0076,1","+0026,1","10034,1",,,"08,1,+01020,1,99,9",,,,"99999,9,09704,1","2,1,002,1,+999,9","SYN070AAXX  25121 02151 45682 /0504 10076 20026 39704 40034 52002 333 88/34;",
"02151099999","2010-08-25T15:00:00","4","66.4833333","20.1666666","275.0","JOKKMOKK FPL, SW","FM-12","99999","V020","040,1,N,0020,1","01080,1,C,N","035000,1,N,1","+0072,1","+0020,1","10041,1",,,"08,1,+01080,1,99,9",,,,"99999,9,09710,1","2,1,006,1,+999,9","SYN070AAXX  25151 02151 45681 /0402 10072 20020 39710 40041 52006 333 88/36;",
"02151099999","2010-08-25T18:00:00","4","66.4833333","20.1666666","275.0","JOKKMOKK FPL, SW","FM-12","99999","V020","050,1,N,0020,1","01200,1,C,N","050000,1,N,1","+0066,1","+0019,1","10048,1",,,"08,1,+01200,1,99,9",,"120,M,+0077,1","999,N,+0057,1","99999,9,09716,1","2,1,006,1,+999,9","SYN082AAXX  25181 02151 45684 /0502 10066 20019 39716 40048 52006 333 10077 20057 88/40;",
"02151099999","2010-08-25T21:00:00","4","66.4833333","20.1666666","275.0","JOKKMOKK FPL, SW","FM-12","99999","V020","010,1,N,0020,1","01140,1,C,N","050000,1,N,1","+0057,1","+0037,1","10054,1",,,"08,1,+01140,1,99,9",,,,"99999,9,09721,1","2,1,005,1,+999,9","SYN070AAXX  25211 02151 45684 /0102 10057 20037 39721 40054 52005 333 88/38;",
"02151099999","2010-08-26T00:00:00","4","66.4833333","20.1666666","275.0","JOKKMOKK FPL, SW","FM-12","99999","V020","020,1,N,0020,1","00990,1,C,N","026000,1,N,1","+0053,1","+0028,1","10060,1","22,1","8,1,06,1","06,1,+00990,1,99,9",,,,"99999,9,09727,1","2,1,005,1,+999,9","SYN082AAXX  26001 02151 47576 /0202 10053 20028 39727 40060 52005 72286 333 86/33 88/46;",
"02151099999","2010-08-26T03:00:00","4","66.4833333","20.1666666","275.0","JOKKMOKK FPL, SW","FM-12","99999","V020","020,1,N,0020,1","01350,1,C,N","030000,1,N,1","+0048,1","+0031,1","10065,1","22,1","8,1,03,1","08,1,+01350,1,99,9",,,,"99999,9,09731,1","2,1,004,1,+999,9","SYN076AAXX  26031 02151 47680 /0202 10048 20031 39731 40065 52004 72286 333 88/45;",
"02151099999","2010-08-26T06:00:00","4","66.4833333","20.1666666","275.0","JOKKMOKK FPL, SW","FM-12","99999","V020","030,1,N,0020,1","01320,1,C,N","040000,1,N,1","+0052,1","+0033,1","10070,1","00,1","8,1,06,1","08,1,+01320,1,99,9",,"120,M,+0066,1","999,N,+0047,1","99999,9,09736,1","2,1,005,1,+999,9","SYN088AAXX  26061 02151 47682 /0302 10052 20033 39736 40070 52005 70082 333 10066 20047 88/44;",
"02151099999","2010-08-26T09:00:00","4","66.4833333","20.1666666","275.0","JOKKMOKK FPL, SW","FM-12","99999","V020","030,1,N,0030,1","99999,9,9,N","040000,1,N,1","+0069,1","+0026,1","10073,1",,,"01,1,+01140,1,99,9",,,,"99999,9,09741,1","2,1,005,1,+999,9","SYN076AAXX  26091 02151 45682 /0303 10069 20026 39741 40073 52005 333 81/38 88/48;",
"02151099999","2010-08-26T12:00:00","4","66.4833333","20.1666666","275.0","JOKKMOKK FPL, SW","FM-12","99999","V020","040,1,N,0030,1","01290,1,C,N","040000,1,N,1","+0075,1","+0013,1","10078,1","00,1","8,1,06,1","08,1,+01290,1,99,9",,,,"99999,9,09746,1","2,1,005,1,+999,9","SYN076AAXX  26121 02151 47682 /0403 10075 20013 39746 40078 52005 70086 333 88/43;",
"02151099999","2010-08-26T15:00:00","4","66.4833333","20.1666666","275.0","JOKKMOKK FPL, SW","FM-12","99999","V020","060,1,N,0030,1","01200,1,C,N","050000,1,N,1","+0069,1","+0018,1","10080,1",,,"07,1,+01200,1,99,9",,,,"99999,9,09748,1","2,1,002,1,+999,9","SYN070AAXX  26151 02151 45684 /0603 10069 20018 39748 40080 52002 333 87/40;",
"02151099999","2010-08-26T18:00:00","4","66.4833333","20.1666666","275.0","JOKKMOKK FPL, SW","FM-12","99999","V020","310,1,N,0010,1","01440,1,C,N","050000,1,N,1","+0061,1","+0033,1","10086,1",,,"08,1,+01440,1,99,9",,"120,M,+0080,1","999,N,+0051,1","99999,9,09753,1","2,1,004,1,+999,9","SYN082AAXX  26181 02151 45684 /3101 10061 20033 39753 40086 52004 333 10080 20051 88/48;",
"02151099999","2010-08-26T21:00:00","4","66.4833333","20.1666666","275.0","JOKKMOKK FPL, SW","FM-12","99999","V020","280,1,N,0010,1","01410,1,C,N","050000,1,N,1","+0049,1","+0033,1","10092,1","00,1","8,1,03,1","08,1,+01410,1,99,9",,,,"99999,9,09757,1","2,1,005,1,+999,9","SYN076AAXX  26211 02151 47684 /2801 10049 20033 39757 40092 52005 70086 333 88/47;",
"02151099999","2010-08-27T00:00:00","4","66.4833333","20.1666666","275.0","JOKKMOKK FPL, SW","FM-12","99999","V020","300,1,N,0010,1","01440,1,C,N","050000,1,N,1","+0048,1","+0029,1","10094,1","00,1","8,1,06,1","08,1,+01440,1,99,9",,,,"99999,9,09759,1","2,1,002,1,+999,9","SYN076AAXX  27001 02151 47684 /3001 10048 20029 39759 40094 52002 70085 333 88/48;",
"02151099999","2010-08-27T03:00:00","4","66.4833333","20.1666666","275.0","JOKKMOKK FPL, SW","FM-12","99999","V020","300,1,N,0010,1","01500,1,C,N","027000,1,N,1","+0025,1","+0018,1","10101,1",,,"08,1,+01500,1,99,9",,,,"99999,9,09762,1","2,1,004,1,+999,9","SYN070AAXX  27031 02151 45777 /3001 10025 20018 39762 40101 52004 333 88/50;",
"02151099999","2010-08-27T06:00:00","4","66.4833333","20.1666666","275.0","JOKKMOKK FPL, SW","FM-12","99999","V020","260,1,N,0010,1","01500,1,C,N","040000,1,N,1","+0056,1","+0031,1","10102,1",,,"08,1,+01500,1,99,9",,"120,M,+0061,1","999,N,+0015,1","99999,9,09767,1","2,1,004,1,+999,9","SYN082AAXX  27061 02151 45782 /2601 10056 20031 39767 40102 52004 333 10061 20015 88/50;",
"02151099999","2010-08-27T09:00:00","4","66.4833333","20.1666666","275.0","JOKKMOKK FPL, SW","FM-12","99999","V020","120,1,N,0020,1","99999,9,9,N","045000,1,N,1","+0067,1","+0035,1","10107,1",,,"01,1,+00690,1,99,9",,,,"99999,9,09774,1","2,1,007,1,+999,9","SYN076AAXX  27091 02151 45583 /1202 10067 20035 39774 40107 52007 333 81/23 88/46;",
"02151099999","2010-08-27T12:00:00","4","66.4833333","20.1666666","275.0","JOKKMOKK FPL, SW","FM-12","99999","V020","999,9,C,0000,1","01410,1,C,N","035000,1,N,1","+0076,1","+0026,1","10109,1",,,"08,1,+01410,1,99,9",,,,"99999,9,09777,1","2,1,003,1,+999,9","SYN070AAXX  27121 02151 45681 /0000 10076 20026 39777 40109 52003 333 88/47;",
"02151099999","2010-08-27T15:00:00","4","66.4833333","20.1666666","275.0","JOKKMOKK FPL, SW","FM-12","99999","V020","100,1,N,0010,1","01500,1,C,N","045000,1,N,1","+0073,1","+0017,1","10110,1",,,"08,1,+01500,1,99,9",,,,"99999,9,09777,1","4,1,000,1,+999,9","SYN070AAXX  27151 02151 45783 /1001 10073 20017 39777 40110 54000 333 88/50;",
"02151099999","2010-08-27T18:00:00","4","66.4833333","20.1666666","275.0","JOKKMOKK FPL, SW","FM-12","99999","V020","999,9,C,0000,1","01440,1,C,N","035000,1,N,1","+0058,1","+0046,1","10113,1",,,"08,1,+01440,1,99,9",,"120,M,+0080,1","999,N,+0056,1","99999,9,09778,1","4,1,000,1,+999,9","SYN082AAXX  27181 02151 45681 /0000 10058 20046 39778 40113 54001 333 10080 20056 88/48;",
"02151099999","2010-08-27T21:00:00","4","66.4833333","20.1666666","275.0","JOKKMOKK FPL, SW","FM-12","99999","V020","999,9,C,0000,1","01440,1,C,N","018000,1,N,1","+0039,1","+0035,1","10120,1",,,"08,1,+01440,1,99,9",,,,"99999,9,09783,1","2,1,005,1,+999,9","SYN070AAXX  27211 02151 45668 /0000 10039 20035 39783 40120 52005 333 88/48;",
"02151099999","2010-08-28T00:00:00","4","66.4833333","20.1666666","275.0","JOKKMOKK FPL, SW","FM-12","99999","V020","999,9,C,0000,1","01470,1,C,N","016000,1,N,1","+0035,1","+0031,1","10121,1",,,"08,1,+01470,1,99,9",,,,"99999,9,09784,1","4,1,000,1,+999,9","SYN070AAXX  28001 02151 45666 /0000 10035 20031 39784 40121 54001 333 88/49;",
"02151099999","2010-08-28T03:00:00","4","66.4833333","20.1666666","275.0","JOKKMOKK FPL, SW","FM-12","99999","V020","999,9,C,0000,1","01500,1,C,N","012000,1,N,1","+0033,1","+0032,1","10120,1",,,"08,1,+01500,1,99,9",,,,"99999,9,09782,1","7,1,002,1,+999,9","SYN070AAXX  28031 02151 45762 /0000 10033 20032 39782 40120 57002 333 88/50;",
"02151099999","2010-08-28T06:00:00","4","66.4833333","20.1666666","275.0","JOKKMOKK FPL, SW","FM-12","99999","V020","999,9,C,0000,1","01500,1,C,N","026000,1,N,1","+0055,1","+0045,1","10119,1",,,"08,1,+01500,1,99,9",,"120,M,+0058,1","999,N,+0030,1","99999,9,09783,1","2,1,002,1,+999,9","SYN082AAXX  28061 02151 45776 /0000 10055 20045 39783 40119 52002 333 10058 20030 88/50;",
"02151099999","2010-08-28T09:00:00","4","66.4833333","20.1666666","275.0","JOKKMOKK FPL, SW","FM-12","99999","V020","140,1,N,0030,1","01500,1,C,N","029000,1,N,1","+0086,1","+0034,1","10115,1",,,"02,1,+00750,1,99,9","04,1,+01500,1,99,9",,,"99999,9,09784,1","4,1,000,1,+999,9","SYN082AAXX  28091 02151 45579 /1403 10086 20034 39784 40115 54000 333 82/25 84/50 85/57;",
"02151099999","2010-08-28T12:00:00","4","66.4833333","20.1666666","275.0","JOKKMOKK FPL, SW","FM-12","99999","V020","050,1,N,0010,1","99999,9,9,N","013000,1,N,1","+0060,1","+0048,1","10124,1","81,1","8,1,06,1","02,1,+00510,1,99,9",,,,"99999,9,09789,1","2,1,005,1,+999,9","SYN082AAXX  28121 02151 47463 /0501 10060 20048 39789 40124 52005 78186 333 82/17 86/29;",
"02151099999","2010-08-28T15:00:00","4","66.4833333","20.1666666","275.0","JOKKMOKK FPL, SW","FM-12","99999","V020","100,1,N,0020,1","99999,9,9,N","018000,1,N,1","+0068,1","+0045,1","10119,1","61,1","8,1,03,1","01,1,+00390,1,99,9","03,1,+00480,1,99,9",,,"99999,9,09785,1","7,1,004,1,+999,9","SYN088AAXX  28151 02151 47468 /1002 10068 20045 39785 40119 57004 76186 333 81/13 83/16 85/41;",
"02151099999","2010-08-28T18:00:00","4","66.4833333","20.1666666","275.0","JOKKMOKK FPL, SW","FM-12","99999","V020","100,1,N,0010,1","02100,1,C,N","024000,1,N,1","+0059,1","+0053,1","10120,1","00,1","8,1,06,1","08,1,+02100,1,99,9",,"120,M,+0094,1","999,N,+0053,1","99999,9,09785,1","4,1,000,1,+999,9","SYN088AAXX  28181 02151 47874 /1001 10059 20053 39785 40120 54000 70086 333 10094 20053 88/57;",
"02151099999","2010-08-28T21:00:00","4","66.4833333","20.1666666","275.0","JOKKMOKK FPL, SW","FM-12","99999","V020","999,9,C,0000,1","01290,1,C,N","010000,1,N,1","+0044,1","+0044,1","10127,1",,,"07,1,+01290,1,99,9",,,,"99999,9,09790,1","2,1,005,1,+999,9","SYN076AAXX  28211 02151 45660 /0000 10044 20044 39790 40127 52005 333 87/43 88/57;",
"02151099999","2010-08-29T00:00:00","4","66.4833333","20.1666666","275.0","JOKKMOKK FPL, SW","FM-12","99999","V020","999,9,C,0000,1","01800,1,C,N","015000,1,N,1","+0040,1","+0038,1","10132,1","00,1","8,1,06,1","08,1,+01800,1,99,9",,,,"99999,9,09794,1","2,1,004,1,+999,9","SYN076AAXX  29001 02151 47865 /0000 10040 20038 39794 40132 52004 70086 333 88/56;",
"02151099999","2010-08-29T03:00:00","4","66.4833333","20.1666666","275.0","JOKKMOKK FPL, SW","FM-12","99999","V020","280,1,N,0010,1","99999,9,9,N","019000,1,N,1","+0032,1","+0032,1","10135,1",,,"03,1,+01500,1,99,9",,,,"99999,9,09797,1","2,1,003,1,+999,9","SYN076AAXX  29031 02151 45769 /2801 10032 20032 39797 40135 52003 333 83/50 88/58;",
"02151099999","2010-08-29T06:00:00","4","66.4833333","20.1666666","275.0","JOKKMOKK FPL, SW","FM-12","99999","V020","999,9,C,0000,1","99999,9,9,N","028000,1,N,1","+0058,1","+0051,1","10139,1",,,"02,1,+01500,1,99,9",,"120,M,+0060,1","999,N,+0027,1","99999,9,09803,1","2,1,006,1,+999,9","SYN088AAXX  29061 02151 45778 /0000 10058 20051 39803 40139 52006 333 10060 20027 82/50 86/58;",
"02151099999","2010-08-29T09:00:00","4","66.4833333","20.1666666","275.0","JOKKMOKK FPL, SW","FM-12","99999","V020","150,1,N,0020,1","99999,9,9,N","045000,1,N,1","+0093,1","+0035,1","10140,1",,,"01,1,+01050,1,99,9",,,,"99999,9,09809,1","2,1,006,1,+999,9","SYN070AAXX  29091 02151 45683 /1502 10093 20035 39809 40140 52006 333 81/35;",
"02151099999","2010-08-29T12:00:00","4","66.4833333","20.1666666","275.0","JOKKMOKK FPL, SW","FM-12","99999","V020","120,1,N,0020,1","99999,9,9,N","050000,1,N,1","+0099,1","+0037,1","10144,1",,,"04,1,+01500,1,99,9",,,,"99999,9,09813,1","2,1,004,1,+999,9","SYN076AAXX  29121 02151 45784 /1202 10099 20037 39813 40144 52004 333 84/50 86/57;",
"02151099999","2010-08-29T15:00:00","4","66.4833333","20.1666666","275.0","JOKKMOKK FPL, SW","FM-12","99999","V020","210,1,N,0010,1","99999,9,9,N","050000,1,N,1","+0097,1","+0037,1","10147,1",,,"01,1,+01800,1,99,9",,,,"99999,9,09815,1","2,1,002,1,+999,9","SYN076AAXX  29151 02151 45784 /2101 10097 20037 39815 40147 52002 333 81/56 83/58;",
"02151099999","2010-08-29T18:00:00","4","66.4833333","20.1666666","275.0","JOKKMOKK FPL, SW","FM-12","99999","V020","999,9,C,0000,1","99999,9,9,N","050000,1,N,1","+0055,1","+0040,1","10158,1",,,"01,1,+02700,1,99,9",,"120,M,+0108,1","999,N,+0058,1","99999,9,09821,1","2,1,006,1,+999,9","SYN082AAXX  29181 02151 45984 /0000 10055 20040 39821 40158 52006 333 10108 20058 81/59;",
"02151099999","2010-08-29T21:00:00","4","66.4833333","20.1666666","275.0","JOKKMOKK FPL, SW","FM-12","99999","V020","999,9,C,0000,1","02700,1,C,N","045000,1,N,1","+0036,1","+0034,1","10165,1",,,"08,1,+02700,1,99,9",,,,"99999,9,09826,1","2,1,005,1,+999,9","SYN070AAXX  29211 02151 45983 /0000 10036 20034 39826 40165 52005 333 88/59;",
"02151099999","2010-08-30T00:00:00","4","66.4833333","20.1666666","275.0","JOKKMOKK FPL, SW","FM-12","99999","V020","999,9,C,0000,1","02700,1,C,N","030000,1,N,1","+0034,1","+0034,1","10168,1",,,"08,1,+02700,1,99,9",,,,"99999,9,09828,1","2,1,002,1,+999,9","SYN070AAXX  30001 02151 45980 /0000 10034 20034 39828 40168 52002 333 88/59;",
"02151099999","2010-08-30T03:00:00","4","66.4833333","20.1666666","275.0","JOKKMOKK FPL, SW","FM-12","99999","V020","140,1,N,0010,1","02700,1,C,N","020000,1,N,1","+0035,1","+0035,1","10167,1",,,"08,1,+02700,1,99,9",,,,"99999,9,09827,1","4,1,000,1,+999,9","SYN070AAXX  30031 02151 45970 /1401 10035 20035 39827 40167 54001 333 88/59;",
"02151099999","2010-08-30T06:00:00","4","66.4833333","20.1666666","275.0","JOKKMOKK FPL, SW","FM-12","99999","V020","140,1,N,0020,1","02700,1,C,N","030000,1,N,1","+0060,1","+0054,1","10160,1",,,"08,1,+02700,1,99,9",,"120,M,+0059,1","999,N,+0031,1","99999,9,09824,1","7,1,003,1,+999,9","SYN082AAXX  30061 02151 45980 /1402 10060 20054 39824 40160 57003 333 10059 20031 88/59;",
"02151099999","2010-08-30T09:00:00","4","66.4833333","20.1666666","275.0","JOKKMOKK FPL, SW","FM-12","99999","V020","210,1,N,0010,1","02700,1,C,N","050000,1,N,1","+0109,1","+0059,1","10152,1",,,"08,1,+02700,1,99,9",,,,"99999,9,09822,1","7,1,002,1,+999,9","SYN070AAXX  30091 02151 45984 /2101 10109 20059 39822 40152 57002 333 88/59;",
"02151099999","2010-08-30T12:00:00","4","66.4833333","20.1666666","275.0","JOKKMOKK FPL, SW","FM-12","99999","V020","270,1,N,0030,1","00780,1,C,N","008000,1,N,1","+0083,1","+0066,1","10150,1","62,1","6,1,06,1","09,1,+00780,1,99,9",,,,"99999,9,09817,1","5,1,005,1,+999,9","SYN076AAXX  30121 02151 47/58 /2703 10083 20066 39817 40150 55005 76260 333 89/26;",
"02151099999","2010-08-30T15:00:00","4","66.4833333","20.1666666","275.0","JOKKMOKK FPL, SW","FM-12","99999","V020","250,1,N,0010,1","99999,9,9,N","045000,1,N,1","+0117,1","+0059,1","10132,1","81,1","8,1,03,1","01,1,+02100,1,99,9",,,,"99999,9,09803,1","8,1,014,1,+999,9","SYN076AAXX  30151 02151 47883 /2501 10117 20059 39803 40132 58014 78186 333 81/57;",
"02151099999","2010-08-30T18:00:00","4","66.4833333","20.1666666","275.0","JOKKMOKK FPL, SW","FM-12","99999","V020","150,1,N,0020,1","02700,1,C,N","050000,1,N,1","+0078,1","+0072,1","10130,1","00,1","8,1,06,1","08,1,+02700,1,99,9",,"120,M,+0139,1","999,N,+0060,1","99999,9,09797,1","7,1,006,1,+999,9","SYN088AAXX  30181 02151 47984 /1502 10078 20072 39797 40130 57006 70086 333 10139 20060 88/59;",
"02151099999","2010-08-30T21:00:00","4","66.4833333","20.1666666","275.0","JOKKMOKK FPL, SW","FM-12","99999","V020","150,1,N,0020,1","02700,1,C,N","026000,1,N,1","+0028,1","+0028,1","10129,1",,,"05,1,+02700,1,99,9",,,,"99999,9,09790,1","7,1,007,1,+999,9","SYN070AAXX  30211 02151 45976 /1502 10028 20028 39790 40129 57007 333 85/59;",
"02151099999","2010-08-31T00:00:00","4","66.4833333","20.1666666","275.0","JOKKMOKK FPL, SW","FM-12","99999","V020","180,1,N,0010,1","99999,9,9,N","050000,1,N,1","+0041,1","+0034,1","10118,1",,,,,,,"99999,9,09781,1","7,1,009,1,+999,9","SYN060AAXX  31001 02151 45984 /1801 10041 20034 39781 40118 57009;",
"02151099999","2010-08-31T03:00:00","4","66.4833333","20.1666666","275.0","JOKKMOKK FPL, SW","FM-12","99999","V020","999,9,C,0000,1","99999,9,9,N","035000,1,N,1","+0027,1","+0027,1","10108,1",,,,,,,"99999,9,09769,1","7,1,011,1,+999,9","SYN060AAXX  31031 02151 45981 /0000 10027 20027 39769 40108 57011;",
"02151099999","2010-08-31T06:00:00","4","66.4833333","20.1666666","275.0","JOKKMOKK FPL, SW","FM-12","99999","V020","150,1,N,0020,1","01800,1,C,N","050000,1,N,1","+0071,1","+0060,1","10090,1",,,"05,1,+01800,1,99,9",,"120,M,+0080,1","999,N,+0014,1","99999,9,09758,1","8,1,012,1,+999,9","SYN082AAXX  31061 02151 45784 /1502 10071 20060 39758 40090 58012 333 10080 20014 85/56;",
"02151099999","2010-08-31T09:00:00","4","66.4833333","20.1666666","275.0","JOKKMOKK FPL, SW","FM-12","99999","V020","170,1,N,0040,1","00930,1,C,N","050000,1,N,1","+0104,1","+0063,1","10070,1",,,"05,1,+00930,1,99,9",,,,"99999,9,09742,1","7,1,015,1,+999,9","SYN076AAXX  31091 02151 45584 /1704 10104 20063 39742 40070 57015 333 85/31 88/39;",
"02151099999","2010-08-31T12:00:00","4","66.4833333","20.1666666","275.0","JOKKMOKK FPL, SW","FM-12","99999","V020","200,1,N,0020,1","99999,9,9,N","023000,1,N,1","+0079,1","+0072,1","10067,1","61,1","6,1,06,1",,,,,"99999,9,09737,1","8,1,006,1,+999,9","SYN066AAXX  31121 02151 47973 /2002 10079 20072 39737 40067 58006 76165;",
"02151099999","2010-08-31T15:00:00","4","66.4833333","20.1666666","275.0","JOKKMOKK FPL, SW","FM-12","99999","V020","200,1,N,0040,1","01380,1,C,N","040000,1,N,1","+0104,1","+0074,1","10050,1","00,1","8,1,03,1","02,1,+00900,1,99,9","04,1,+01380,1,99,9",,,"99999,9,09722,1","7,1,014,1,+999,9","SYN088AAXX  31151 02151 47582 /2004 10104 20074 39722 40050 57014 70086 333 82/30 84/46 85/56;",
"02151099999","2010-08-31T18:00:00","4","66.4833333","20.1666666","275.0","JOKKMOKK FPL, SW","FM-12","99999","V020","240,1,N,0020,1","99999,9,9,N","050000,1,N,1","+0060,1","+0050,1","10058,1","00,1","8,1,06,1",,,"120,M,+0109,1","999,N,+0059,1","99999,9,09725,1","0,1,003,1,+999,9","SYN082AAXX  31181 02151 47984 /2402 10060 20050 39725 40058 50003 70086 333 10109 20059;",
"02151099999","2010-08-31T21:00:00","4","66.4833333","20.1666666","275.0","JOKKMOKK FPL, SW","FM-12","99999","V020","999,9,C,0000,1","99999,9,9,N","050000,1,N,1","+0014,1","+0011,1","10069,1",,,,,,,"99999,9,09730,1","2,1,005,1,+999,9","SYN060AAXX  31211 02151 45984 /0000 10014 20011 39730 40069 52005;",
"02151099999","2010-09-01T00:00:00","4","66.4833333","20.1666666","275.0","JOKKMOKK FPL, SW","FM-12","99999","V020","999,9,C,0000,1","99999,9,9,N","050000,1,N,1","-0007,1","-0007,1","10075,1",,,,,,,"99999,9,09734,1","2,1,004,1,+999,9","SYN060AAXX  01001 02151 45984 /0000 11007 21007 39734 40075 52004;",
"02151099999","2010-09-01T03:00:00","4","66.4833333","20.1666666","275.0","JOKKMOKK FPL, SW","FM-12","99999","V020","999,9,C,0000,1","99999,9,9,N","050000,1,N,1","-0026,1","-0026,1","10077,1",,,,,,,"99999,9,09734,1","4,1,000,1,+999,9","SYN060AAXX  01031 02151 45984 /0000 11026 21026 39734 40077 54000;",
"02151099999","2010-09-01T06:00:00","4","66.4833333","20.1666666","275.0","JOKKMOKK FPL, SW","FM-12","99999","V020","300,1,N,0040,1","99999,9,9,N","040000,1,N,1","+0042,1","+0030,1","10071,1","61,1","6,1,06,1","03,1,+01800,1,99,9",,"120,M,+0063,1","999,N,-0028,1","99999,9,09736,1","2,1,002,1,+999,9","SYN088AAXX  01061 02151 47782 /3004 10042 20030 39736 40071 52002 76160 333 10063 21028 83/56;",
"02151099999","2010-09-01T09:00:00","4","66.4833333","20.1666666","275.0","JOKKMOKK FPL, SW","FM-12","99999","V020","280,1,N,0040,1","22000,1,C,N","018000,1,N,1","+0062,1","+0047,1","10073,1","52,1","8,1,03,1","02,1,+00480,1,99,9","03,1,+00690,1,99,9",,,"99999,9,09740,1","3,1,004,1,+999,9","SYN088AAXX  01091 02151 47468 /2804 10062 20047 39740 40073 53004 75286 333 82/16 83/23 85/29;",
"02151099999","2010-09-01T12:00:00","4","66.4833333","20.1666666","275.0","JOKKMOKK FPL, SW","FM-12","99999","V020","310,1,N,0060,1","99999,9,9,N","013000,1,N,1","+0069,1","+0053,1","10086,1","81,1","8,1,06,1","02,1,+00600,1,99,9",,,,"99999,9,09754,1","2,1,014,1,+999,9","SYN082AAXX  01121 02151 47563 /3106 10069 20053 39754 40086 52014 78186 333 82/20 83/22;",
"02151099999","2010-09-01T15:00:00","4","66.4833333","20.1666666","275.0","JOKKMOKK FPL, SW","FM-12","99999","V020","320,1,N,0030,1","01800,1,C,N","050000,1,N,1","+0082,1","+0067,1","10098,1","23,1","8,1,03,1","05,1,+01800,1,99,9",,,,"99999,9,09767,1","2,1,013,1,+999,9","SYN076AAXX  01151 02151 47784 /3203 10082 20067 39767 40098 52013 72386 333 85/56;",
"02151099999","2010-09-01T18:00:00","4","66.4833333","20.1666666","275.0","JOKKMOKK FPL, SW","FM-12","99999","V020","310,1,N,0030,1","99999,9,9,N","050000,1,N,1","+0076,1","+0039,1","10121,1","00,1","8,1,06,1","04,1,+01800,1,99,9",,"120,M,+0085,1","999,N,+0040,1","99999,9,09788,1","3,1,022,1,+999,9","SYN094AAXX  01181 02151 47784 /3103 10076 20039 39788 40121 53022 70086 333 10085 20040 84/56 86/57;",
"02151099999","2010-09-01T21:00:00","4","66.4833333","20.1666666","275.0","JOKKMOKK FPL, SW","FM-12","99999","V020","310,1,N,0030,1","99999,9,9,N","050000,1,N,1","+0057,1","+0032,1","10144,1",,,"01,1,+01800,1,99,9",,,,"99999,9,09808,1","2,1,020,1,+999,9","SYN076AAXX  01211 02151 45784 /3103 10057 20032 39808 40144 52020 333 81/56 83/59;",
"02151099999","2010-09-02T03:00:00","4","66.4833333","20.1666666","275.0","JOKKMOKK FPL, SW","FM-12","99999","V020","999,9,C,0000,1","99999,9,9,N","050000,1,N,1","+0001,1","+0000,1","10187,1",,,,,,,"99999,9,09843,1","2,1,018,1,+999,9","SYN060AAXX  02031 02151 45984 /0000 10001 20000 39843 40187 52018;",
"02151099999","2010-09-02T06:00:00","4","66.4833333","20.1666666","275.0","JOKKMOKK FPL, SW","FM-12","99999","V020","310,1,N,0020,1","99999,9,9,N","050000,1,N,1","+0055,1","+0021,1","10195,1",,,,,"120,M,+0077,1","999,N,-0015,1","99999,9,09857,1","2,1,014,1,+999,9","SYN076AAXX  02061 02151 45984 /3102 10055 20021 39857 40195 52014 333 10077 21015;",
"02151099999","2010-09-02T09:00:00","4","66.4833333","20.1666666","275.0","JOKKMOKK FPL, SW","FM-12","99999","V020","350,1,N,0040,1","99999,9,9,N","040000,1,N,1","+0085,1","+0009,1","10201,1",,,"01,1,+01260,1,99,9",,,,"99999,9,09866,1","2,1,009,1,+999,9","SYN070AAXX  02091 02151 45682 /3504 10085 20009 39866 40201 52009 333 81/42;",
"02151099999","2010-09-02T18:00:00","4","66.4833333","20.1666666","275.0","JOKKMOKK FPL, SW","FM-12","99999","V020","999,9,C,0000,1","99999,9,9,N","050000,1,N,1","+0039,1","+0030,1","10213,1",,,"01,1,+02100,1,99,9",,"120,M,+0119,1","999,N,+0040,1","99999,9,09873,1","3,1,007,1,+999,9","SYN082AAXX  02181 02151 45884 /0000 10039 20030 39873 40213 53007 333 10119 20040 81/57;",
"02151099999","2010-09-02T21:00:00","4","66.4833333","20.1666666","275.0","JOKKMOKK FPL, SW","FM-12","99999","V020","999,9,C,0000,1","99999,9,9,N","050000,1,N,1","+0015,1","+0012,1","10223,1",,,,,,,"99999,9,09879,1","2,1,007,1,+999,9","SYN060AAXX  02211 02151 45984 /0000 10015 20012 39879 40223 52007;",
"02151099999","2010-09-03T00:00:00","4","66.4833333","20.1666666","275.0","JOKKMOKK FPL, SW","FM-12","99999","V020","320,1,N,0020,1","99999,9,9,N","050000,1,N,1","+0023,1","+0009,1","10224,1",,,,,,,"99999,9,09881,1","0,1,002,1,+999,9","SYN060AAXX  03001 02151 45984 /3202 10023 20009 39881 40224 50002;",
"02151099999","2010-09-03T03:00:00","4","66.4833333","20.1666666","275.0","JOKKMOKK FPL, SW","FM-12","99999","V020","290,1,N,0030,1","99999,9,9,N","050000,1,N,1","+0011,1","+0005,1","10226,1",,,,,,,"99999,9,09881,1","4,1,000,1,+999,9","SYN060AAXX  03031 02151 45984 /2903 10011 20005 39881 40226 54000;",
"02151099999","2010-09-03T06:00:00","4","66.4833333","20.1666666","275.0","JOKKMOKK FPL, SW","FM-12","99999","V020","320,1,N,0010,1","99999,9,9,N","050000,1,N,1","+0043,1","+0027,1","10228,1",,,,,"120,M,+0043,1","999,N,-0005,1","99999,9,09887,1","2,1,006,1,+999,9","SYN076AAXX  03061 02151 45984 /3201 10043 20027 39887 40228 52006 333 10043 21005;",
"02151099999","2010-09-03T09:00:00","4","66.4833333","20.1666666","275.0","JOKKMOKK FPL, SW","FM-12","99999","V020","010,1,N,0040,1","99999,9,9,N","045000,1,N,1","+0091,1","+0028,1","10210,1",,,"03,1,+01080,1,99,9",,,,"99999,9,09876,1","8,1,012,1,+999,9","SYN070AAXX  03091 02151 45683 /0104 10091 20028 39876 40210 58012 333 83/36;",
"02151099999","2010-09-03T12:00:00","4","66.4833333","20.1666666","275.0","JOKKMOKK FPL, SW","FM-12","99999","V020","020,1,N,0040,1","99999,9,9,N","050000,1,N,1","+0092,1","+0017,1","10198,1",,,"04,1,+01230,1,99,9",,,,"99999,9,09864,1","7,1,011,1,+999,9","SYN070AAXX  03121 02151 45684 /0204 10092 20017 39864 40198 57011 333 84/41;",
"02151099999","2010-09-03T15:00:00","4","66.4833333","20.1666666","275.0","JOKKMOKK FPL, SW","FM-12","99999","V020","350,1,N,0040,1","99999,9,9,N","050000,1,N,1","+0101,1","+0018,1","10188,1",,,,,,,"99999,9,09856,1","7,1,008,1,+999,9","SYN060AAXX  03151 02151 45984 /3504 10101 20018 39856 40188 57008;",
"02151099999","2010-09-03T18:00:00","4","66.4833333","20.1666666","275.0","JOKKMOKK FPL, SW","FM-12","99999","V020","320,1,N,0010,1","99999,9,9,N","050000,1,N,1","+0039,1","+0013,1","10195,1",,,,,"120,M,+0104,1","999,N,+0038,1","99999,9,09855,1","7,1,001,1,+999,9","SYN076AAXX  03181 02151 45984 /3201 10039 20013 39855 40195 57001 333 10104 20038;",
"02151099999","2010-09-03T21:00:00","4","66.4833333","20.1666666","275.0","JOKKMOKK FPL, SW","FM-12","99999","V020","999,9,C,0000,1","99999,9,9,N","050000,1,N,1","+0004,1","+0003,1","10198,1",,,,,,,"99999,9,09854,1","4,1,000,1,+999,9","SYN060AAXX  03211 02151 45984 /0000 10004 20003 39854 40198 54001;",
"02151099999","2010-09-04T00:00:00","4","66.4833333","20.1666666","275.0","JOKKMOKK FPL, SW","FM-12","99999","V020","999,9,C,0000,1","99999,9,9,N","050000,1,N,1","-0003,1","-0005,1","10201,1",,,,,,,"99999,9,09856,1","2,1,002,1,+999,9","SYN060AAXX  04001 02151 45984 /0000 11003 21005 39856 40201 52002;",
"02151099999","2010-09-04T03:00:00","4","66.4833333","20.1666666","275.0","JOKKMOKK FPL, SW","FM-12","99999","V020","999,9,C,0000,1","99999,9,9,N","050000,1,N,1","-0011,1","-0012,1","10195,1",,,,,,,"99999,9,09849,1","8,1,006,1,+999,9","SYN060AAXX  04031 02151 45984 /0000 11011 21012 39849 40195 58006;",
"02151099999","2010-09-04T06:00:00","4","66.4833333","20.1666666","275.0","JOKKMOKK FPL, SW","FM-12","99999","V020","320,1,N,0010,1","01500,1,C,N","050000,1,N,1","+0037,1","+0024,1","10189,1",,,"07,1,+01500,1,99,9",,"120,M,+0045,1","999,N,-0021,1","99999,9,09849,1","0,1,000,1,+999,9","SYN082AAXX  04061 02151 45784 /3201 10037 20024 39849 40189 50000 333 10045 21021 87/50;",
"02151099999","2010-09-04T09:00:00","4","66.4833333","20.1666666","275.0","JOKKMOKK FPL, SW","FM-12","99999","V020","310,1,N,0020,1","99999,9,9,N","050000,1,N,1","+0098,1","+0055,1","10176,1",,,,,,,"99999,9,09844,1","7,1,006,1,+999,9","SYN060AAXX  04091 02151 45984 /3102 10098 20055 39844 40176 57006;",
"02151099999","2010-09-04T12:00:00","4","66.4833333","20.1666666","275.0","JOKKMOKK FPL, SW","FM-12","99999","V020","310,1,N,0040,1","01410,1,C,N","050000,1,N,1","+0144,1","+0069,1","10165,1",,,"05,1,+01410,1,99,9",,,,"99999,9,09839,1","6,1,005,1,+999,9","SYN070AAXX  04121 02151 45684 /3104 10144 20069 39839 40165 56005 333 85/47;",
"02151099999","2010-09-04T15:00:00","4","66.4833333","20.1666666","275.0","JOKKMOKK FPL, SW","FM-12","99999","V020","350,1,N,0030,1","99999,9,9,N","050000,1,N,1","+0144,1","+0077,1","10166,1",,,"02,1,+01470,1,99,9",,,,"99999,9,09840,1","2,1,001,1,+999,9","SYN070AAXX  04151 02151 45684 /3503 10144 20077 39840 40166 52001 333 82/49;",
"02151099999","2010-09-04T18:00:00","4","66.4833333","20.1666666","275.0","JOKKMOKK FPL, SW","FM-12","99999","V020","300,1,N,0030,1","02700,1,C,N","050000,1,N,1","+0119,1","+0084,1","10177,1",,,"06,1,+02700,1,99,9","07,1,+03600,1,99,9","120,M,+0153,1","999,N,+0036,1","99999,9,09847,1","2,1,007,1,+999,9","SYN094AAXX  04181 02151 45984 /3003 10119 20084 39847 40177 52007 333 10153 20036 86/59 87/62 88/66;",
"02151099999","2010-09-04T21:00:00","4","66.4833333","20.1666666","275.0","JOKKMOKK FPL, SW","FM-12","99999","V020","230,1,N,0010,1","99999,9,9,N","050000,1,N,1","+0100,1","+0079,1","10188,1",,,"01,1,+03600,1,99,9",,,,"99999,9,09855,1","1,1,008,1,+999,9","SYN070AAXX  04211 02151 45984 /2301 10100 20079 39855 40188 51008 333 81/62;",
"02151099999","2010-09-05T00:00:00","4","66.4833333","20.1666666","275.0","JOKKMOKK FPL, SW","FM-12","99999","V020","300,1,N,0020,1","99999,9,9,N","026000,1,N,1","+0090,1","+0085,1","10195,1","61,1","6,1,06,1","01,1,+01800,1,99,9",,,,"99999,9,09861,1","2,1,005,1,+999,9","SYN076AAXX  05001 02151 47876 /3002 10090 20085 39861 40195 52005 76165 333 81/56;",
"02151099999","2010-09-05T03:00:00","4","66.4833333","20.1666666","275.0","JOKKMOKK FPL, SW","FM-12","99999","V020","300,1,N,0020,1","99999,9,9,N","018000,1,N,1","+0089,1","+0087,1","10202,1","61,1","6,1,03,1",,,,,"99999,9,09868,1","3,1,007,1,+999,9","SYN066AAXX  05031 02151 47968 /3002 10089 20087 39868 40202 53007 76165;",
"02151099999","2010-09-05T06:00:00","4","66.4833333","20.1666666","275.0","JOKKMOKK FPL, SW","FM-12","99999","V020","310,1,N,0010,1","99999,9,9,N","024000,1,N,1","+0099,1","+0096,1","10212,1","61,1","6,1,06,1","03,1,+01350,1,99,9",,"120,M,+0120,1","999,N,+0087,1","99999,9,09878,1","3,1,010,1,+999,9","SYN088AAXX  05061 02151 47674 /3101 10099 20096 39878 40212 53010 76165 333 10120 20087 83/45;",
"02151099999","2010-09-05T09:00:00","4","66.4833333","20.1666666","275.0","JOKKMOKK FPL, SW","FM-12","99999","V020","290,1,N,0020,1","01800,1,C,N","040000,1,N,1","+0122,1","+0113,1","10222,1","00,1","6,1,03,1","08,1,+01800,1,99,9",,,,"99999,9,09891,1","2,1,013,1,+999,9","SYN076AAXX  05091 02151 47782 /2902 10122 20113 39891 40222 52013 70065 333 88/56;",
"02151099999","2010-09-05T12:00:00","4","66.4833333","20.1666666","275.0","JOKKMOKK FPL, SW","FM-12","99999","V020","300,1,N,0030,1","01800,1,C,N","050000,1,N,1","+0142,1","+0105,1","10229,1","00,1","6,1,06,1","08,1,+01800,1,99,9",,,,"99999,9,09900,1","2,1,009,1,+999,9","SYN076AAXX  05121 02151 47784 /3003 10142 20105 39900 40229 52009 70065 333 88/56;",
"02151099999","2010-09-05T15:00:00","4","66.4833333","20.1666666","275.0","JOKKMOKK FPL, SW","FM-12","99999","V020","300,1,N,0030,1","02700,1,C,N","050000,1,N,1","+0150,1","+0105,1","10232,1",,,"05,1,+02700,1,99,9",,,,"99999,9,09904,1","2,1,004,1,+999,9","SYN070AAXX  05151 02151 45984 /3003 10150 20105 39904 40232 52004 333 85/59;",
"02151099999","2010-09-05T18:00:00","4","66.4833333","20.1666666","275.0","JOKKMOKK FPL, SW","FM-12","99999","V020","290,1,N,0030,1","99999,9,9,N","050000,1,N,1","+0124,1","+0083,1","10246,1",,,"03,1,+04200,1,99,9",,"120,M,+0152,1","999,N,+0099,1","99999,9,09915,1","3,1,011,1,+999,9","SYN088AAXX  05181 02151 45984 /2903 10124 20083 39915 40246 53011 333 10152 20099 83/64 87/68;",
"02151099999","2010-09-05T21:00:00","4","66.4833333","20.1666666","275.0","JOKKMOKK FPL, SW","FM-12","99999","V020","320,1,N,0020,1","03600,1,C,N","050000,1,N,1","+0099,1","+0076,1","10256,1",,,"04,1,+02700,1,99,9","07,1,+03600,1,99,9",,,"99999,9,09921,1","2,1,006,1,+999,9","SYN082AAXX  05211 02151 45984 /3202 10099 20076 39921 40256 52006 333 84/59 87/62 88/67;",
"02151099999","2010-09-06T00:00:00","4","66.4833333","20.1666666","275.0","JOKKMOKK FPL, SW","FM-12","99999","V020","999,9,C,0000,1","99999,9,9,N","035000,1,N,1","+0062,1","+0060,1","10268,1",,,"03,1,+03000,1,99,9",,,,"99999,9,09929,1","2,1,008,1,+999,9","SYN070AAXX  06001 02151 45981 /0000 10062 20060 39929 40268 52008 333 83/60;",
"02151099999","2010-09-06T03:00:00","4","66.4833333","20.1666666","275.0","JOKKMOKK FPL, SW","FM-12","99999","V020","280,1,N,0020,1","99999,9,9,N","050000,1,N,1","+0067,1","+0059,1","10269,1",,,,,,,"99999,9,09930,1","2,1,002,1,+999,9","SYN060AAXX  06031 02151 45984 /2802 10067 20059 39930 40269 52002;",
"02151099999","2010-09-06T06:00:00","4","66.4833333","20.1666666","275.0","JOKKMOKK FPL, SW","FM-12","99999","V020","290,1,N,0020,1","99999,9,9,N","045000,1,N,1","+0084,1","+0065,1","10279,1",,,"02,1,+04800,1,99,9",,"120,M,+0124,1","999,N,+0037,1","99999,9,09942,1","2,1,011,1,+999,9","SYN082AAXX  06061 02151 45983 /2902 10084 20065 39942 40279 52011 333 10124 20037 82/66;",
"02151099999","2010-09-06T09:00:00","4","66.4833333","20.1666666","275.0","JOKKMOKK FPL, SW","FM-12","99999","V020","310,1,N,0020,1","99999,9,9,N","040000,1,N,1","+0132,1","+0080,1","10275,1",,,,,,,"99999,9,09943,1","2,1,001,1,+999,9","SYN060AAXX  06091 02151 45982 /3102 10132 20080 39943 40275 52001;",
"02151099999","2010-09-06T12:00:00","4","66.4833333","20.1666666","275.0","JOKKMOKK FPL, SW","FM-12","99999","V020","300,1,N,0010,1","99999,9,9,N","045000,1,N,1","+0165,1","+0091,1","10264,1",,,,,,,"99999,9,09936,1","8,1,007,1,+999,9","SYN060AAXX  06121 02151 45983 /3001 10165 20091 39936 40264 58007;",
"02151099999","2010-09-06T15:00:00","4","66.4833333","20.1666666","275.0","JOKKMOKK FPL, SW","FM-12","99999","V020","320,1,N,0010,1","99999,9,9,N","045000,1,N,1","+0176,1","+0082,1","10256,1",,,,,,,"99999,9,09930,1","7,1,006,1,+999,9","SYN060AAXX  06151 02151 45983 /3201 10176 20082 39930 40256 57006;",
"02151099999","2010-09-06T18:00:00","4","66.4833333","20.1666666","275.0","JOKKMOKK FPL, SW","FM-12","99999","V020","160,1,N,0010,1","99999,9,9,N","045000,1,N,1","+0087,1","+0082,1","10261,1",,,,,"120,M,+0185,1","999,N,+0078,1","99999,9,09924,1","6,1,005,1,+999,9","SYN076AAXX  06181 02151 45983 /1601 10087 20082 39924 40261 56005 333 10185 20078;",
"02151099999","2010-09-06T21:00:00","4","66.4833333","20.1666666","275.0","JOKKMOKK FPL, SW","FM-12","99999","V020","130,1,N,0010,1","99999,9,9,N","023000,1,N,1","+0056,1","+0054,1","10263,1",,,,,,,"99999,9,09923,1","4,1,000,1,+999,9","SYN060AAXX  06211 02151 45973 /1301 10056 20054 39923 40263 54001;",
"02151099999","2010-09-07T00:00:00","4","66.4833333","20.1666666","275.0","JOKKMOKK FPL, SW","FM-12","99999","V020","999,9,C,0000,1","99999,9,9,N","013000,1,N,1","+0040,1","+0040,1","10266,1",,,,,,,"99999,9,09924,1","2,1,001,1,+999,9","SYN060AAXX  07001 02151 45963 /0000 10040 20040 39924 40266 52001;",
"02151099999","2010-09-07T03:00:00","4","66.4833333","20.1666666","275.0","JOKKMOKK FPL, SW","FM-12","99999","V020","220,1,N,0010,1","99999,9,9,N","016000,1,N,1","+0018,1","+0018,1","10262,1",,,,,,,"99999,9,09917,1","7,1,007,1,+999,9","SYN060AAXX  07031 02151 45966 /2201 10018 20018 39917 40262 57007;",
"02151099999","2010-09-07T06:00:00","4","66.4833333","20.1666666","275.0","JOKKMOKK FPL, SW","FM-12","99999","V020","999,9,C,0000,1","99999,9,9,N","045000,1,N,1","+0073,1","+0069,1","10255,1",,,,,"120,M,+0099,1","999,N,+0013,1","99999,9,09917,1","5,1,001,1,+999,9","SYN076AAXX  07061 02151 45983 /0000 10073 20069 39917 40255 55001 333 10099 20013;",
"02151099999","2010-09-07T09:00:00","4","66.4833333","20.1666666","275.0","JOKKMOKK FPL, SW","FM-12","99999","V020","320,1,N,0020,1","99999,9,9,N","045000,1,N,1","+0135,1","+0089,1","10243,1",,,,,,,"99999,9,09913,1","8,1,004,1,+999,9","SYN060AAXX  07091 02151 45983 /3202 10135 20089 39913 40243 58004;",
"02151099999","2010-09-07T12:00:00","4","66.4833333","20.1666666","275.0","JOKKMOKK FPL, SW","FM-12","99999","V020","330,1,N,0010,1","99999,9,9,N","040000,1,N,1","+0178,1","+0078,1","10230,1",,,,,,,"99999,9,09906,1","7,1,007,1,+999,9","SYN060AAXX  07121 02151 45982 /3301 10178 20078 39906 40230 57007;",
"02151099999","2010-09-07T15:00:00","4","66.4833333","20.1666666","275.0","JOKKMOKK FPL, SW","FM-12","99999","V020","360,1,N,0010,1","99999,9,9,N","050000,1,N,1","+0190,1","+0080,1","10223,1",,,,,,,"99999,9,09900,1","7,1,005,1,+999,9","SYN060AAXX  07151 02151 45984 /3601 10190 20080 39900 40223 57005;",
"02151099999","2010-09-07T18:00:00","4","66.4833333","20.1666666","275.0","JOKKMOKK FPL, SW","FM-12","99999","V020","150,1,N,0010,1","99999,9,9,N","050000,1,N,1","+0118,1","+0101,1","10239,1",,,,,"120,M,+0194,1","999,N,+0067,1","99999,9,09907,1","2,1,007,1,+999,9","SYN076AAXX  07181 02151 45984 /1501 10118 20101 39907 40239 52007 333 10194 20067;",
"02151099999","2010-09-07T21:00:00","4","66.4833333","20.1666666","275.0","JOKKMOKK FPL, SW","FM-12","99999","V020","999,9,C,0000,1","99999,9,9,N","014000,1,N,1","+0064,1","+0064,1","10255,1",,,,,,,"99999,9,09917,1","2,1,010,1,+999,9","SYN060AAXX  07211 02151 45964 /0000 10064 20064 39917 40255 52010;",
"02151099999","2010-09-08T00:00:00","4","66.4833333","20.1666666","275.0","JOKKMOKK FPL, SW","FM-12","99999","V020","999,9,C,0000,1","99999,9,9,N","020000,1,N,1","+0033,1","+0033,1","10261,1",,,,,,,"99999,9,09918,1","2,1,002,1,+999,9","SYN060AAXX  08001 02151 45970 /0000 10033 20033 39918 40261 52002;",
"02151099999","2010-09-08T03:00:00","4","66.4833333","20.1666666","275.0","JOKKMOKK FPL, SW","FM-12","99999","V020","999,9,C,0000,1","99999,9,9,N","002500,1,N,1","+0017,1","+0017,1","10266,1","20,1","4,1,03,1",,,,,"99999,9,09921,1","2,1,003,1,+999,9","SYN066AAXX  08031 02151 47925 /0000 10017 20017 39921 40266 52003 72032;",
"02151099999","2010-09-08T06:00:00","4","66.4833333","20.1666666","275.0","JOKKMOKK FPL, SW","FM-12","99999","V020","999,9,C,0000,1","99999,9,9,N","040000,1,N,1","+0068,1","+0068,1","10257,1","00,1","4,1,06,1",,,"120,M,+0118,1","999,N,+0012,1","99999,9,09919,1","7,1,002,1,+999,9","SYN082AAXX  08061 02151 47982 /0000 10068 20068 39919 40257 57002 70032 333 10118 20012;",
"02151099999","2010-09-08T09:00:00","4","66.4833333","20.1666666","275.0","JOKKMOKK FPL, SW","FM-12","99999","V020","130,1,N,0020,1","99999,9,9,N","045000,1,N,1","+0142,1","+0098,1","10245,1",,,,,,,"99999,9,09916,1","8,1,003,1,+999,9","SYN060AAXX  08091 02151 45983 /1302 10142 20098 39916 40245 58003;",
"02151099999","2010-09-08T12:00:00","4","66.4833333","20.1666666","275.0","JOKKMOKK FPL, SW","FM-12","99999","V020","140,1,N,0030,1","99999,9,9,N","045000,1,N,1","+0188,1","+0129,1","10233,1",,,,,,,"99999,9,09909,1","7,1,007,1,+999,9","SYN060AAXX  08121 02151 45983 /1403 10188 20129 39909 40233 57007;",
"02151099999","2010-09-08T15:00:00","4","66.4833333","20.1666666","275.0","JOKKMOKK FPL, SW","FM-12","99999","V020","200,1,N,0020,1","99999,9,9,N","045000,1,N,1","+0205,1","+0112,1","10224,1",,,,,,,"99999,9,09902,1","7,1,007,1,+999,9","SYN060AAXX  08151 02151 45983 /2002 10205 20112 39902 40224 57007;",
"02151099999","2010-09-08T18:00:00","4","66.4833333","20.1666666","275.0","JOKKMOKK FPL, SW","FM-12","99999","V020","150,1,N,0020,1","99999,9,9,N","050000,1,N,1","+0126,1","+0119,1","10236,1",,,,,"120,M,+0210,1","999,N,+0067,1","99999,9,09905,1","3,1,003,1,+999,9","SYN076AAXX  08181 02151 45984 /1502 10126 20119 39905 40236 53003 333 10210 20067;",
"02151099999","2010-09-08T21:00:00","4","66.4833333","20.1666666","275.0","JOKKMOKK FPL, SW","FM-12","99999","V020","999,9,C,0000,1","99999,9,9,N","005000,1,N,1","+0081,1","+0081,1","10247,1","10,1","2,1,03,1",,,,,"99999,9,09910,1","2,1,005,1,+999,9","SYN066AAXX  08211 02151 47950 /0000 10081 20081 39910 40247 52005 71010;",
"02151099999","2010-09-09T00:00:00","4","66.4833333","20.1666666","275.0","JOKKMOKK FPL, SW","FM-12","99999","V020","150,1,N,0010,1","00030,1,C,N","000300,1,N,1","+0049,1","+0049,1","10254,1","34,1","4,1,06,1","09,1,+00030,1,99,9",,,,"99999,9,09914,1","2,1,004,1,+999,9","SYN076AAXX  09001 02151 47/03 /1501 10049 20049 39914 40254 52004 73432 333 89/01;",
"02151099999","2010-09-09T03:00:00","4","66.4833333","20.1666666","275.0","JOKKMOKK FPL, SW","FM-12","99999","V020","150,1,N,0010,1","00030,1,C,N","001500,1,N,1","+0023,1","+0023,1","10255,1","20,1","4,1,03,1","09,1,+00030,1,99,9",,,,"99999,9,09911,1","7,1,003,1,+999,9","SYN076AAXX  09031 02151 47/15 /1501 10023 20023 39911 40255 57003 72032 333 89/01;",
"02151099999","2010-09-09T06:00:00","4","66.4833333","20.1666666","275.0","JOKKMOKK FPL, SW","FM-12","99999","V020","140,1,N,0020,1","99999,9,9,N","050000,1,N,1","+0063,1","+0063,1","10251,1","00,1","4,1,06,1",,,"120,M,+0138,1","999,N,+0016,1","99999,9,09912,1","4,1,000,1,+999,9","SYN082AAXX  09061 02151 47984 /1402 10063 20063 39912 40251 54001 70032 333 10138 20016;",
"02151099999","2010-09-09T09:00:00","4","66.4833333","20.1666666","275.0","JOKKMOKK FPL, SW","FM-12","99999","V020","050,1,N,0010,1","99999,9,9,N","040000,1,N,1","+0136,1","+0120,1","10243,1",,,,,,,"99999,9,09913,1","0,1,000,1,+999,9","SYN060AAXX  09091 02151 45982 /0501 10136 20120 39913 40243 50000;",
"02151099999","2010-09-09T12:00:00","4","66.4833333","20.1666666","275.0","JOKKMOKK FPL, SW","FM-12","99999","V020","100,1,N,0020,1","99999,9,9,N","045000,1,N,1","+0177,1","+0122,1","10233,1",,,,,,,"99999,9,09908,1","7,1,005,1,+999,9","SYN060AAXX  09121 02151 45983 /1002 10177 20122 39908 40233 57005;",
"02151099999","2010-09-09T15:00:00","4","66.4833333","20.1666666","275.0","JOKKMOKK FPL, SW","FM-12","99999","V020","190,1,N,0030,1","99999,9,9,N","050000,1,N,1","+0200,1","+0103,1","10222,1",,,,,,,"99999,9,09900,1","7,1,008,1,+999,9","SYN060AAXX  09151 02151 45984 /1903 10200 20103 39900 40222 57008;",
"02151099999","2010-09-09T18:00:00","4","66.4833333","20.1666666","275.0","JOKKMOKK FPL, SW","FM-12","99999","V020","200,1,N,0020,1","99999,9,9,N","050000,1,N,1","+0139,1","+0094,1","10230,1",,,,,"120,M,+0208,1","999,N,+0063,1","99999,9,09900,1","5,1,001,1,+999,9","SYN076AAXX  09181 02151 45984 /2002 10139 20094 39900 40230 55001 333 10208 20063;",
"02151099999","2010-09-09T21:00:00","4","66.4833333","20.1666666","275.0","JOKKMOKK FPL, SW","FM-12","99999","V020","240,1,N,0020,1","99999,9,9,N","050000,1,N,1","+0100,1","+0081,1","10237,1",,,,,,,"99999,9,09903,1","2,1,003,1,+999,9","SYN060AAXX  09211 02151 45984 /2402 10100 20081 39903 40237 52003;",
"02151099999","2010-09-10T00:00:00","4","66.4833333","20.1666666","275.0","JOKKMOKK FPL, SW","FM-12","99999","V020","190,1,N,0020,1","99999,9,9,N","050000,1,N,1","+0091,1","+0072,1","10240,1",,,,,,,"99999,9,09905,1","2,1,002,1,+999,9","SYN060AAXX  10001 02151 45984 /1902 10091 20072 39905 40240 52002;",
"02151099999","2010-09-10T03:00:00","4","66.4833333","20.1666666","275.0","JOKKMOKK FPL, SW","FM-12","99999","V020","999,9,C,0000,1","99999,9,9,N","019000,1,N,1","+0038,1","+0038,1","10241,1",,,,,,,"99999,9,09899,1","7,1,005,1,+999,9","SYN060AAXX  10031 02151 45969 /0000 10038 20038 39899 40241 57005;",
"02151099999","2010-09-10T06:00:00","4","66.4833333","20.1666666","275.0","JOKKMOKK FPL, SW","FM-12","99999","V020","120,1,N,0010,1","99999,9,9,N","045000,1,N,1","+0091,1","+0077,1","10231,1","00,1","4,1,06,1",,,"120,M,+0142,1","999,N,+0018,1","99999,9,09897,1","7,1,003,1,+999,9","SYN082AAXX  10061 02151 47983 /1201 10091 20077 39897 40231 57003 70032 333 10142 20018;",
"02151099999","2010-09-10T09:00:00","4","66.4833333","20.1666666","275.0","JOKKMOKK FPL, SW","FM-12","99999","V020","200,1,N,0040,1","99999,9,9,N","045000,1,N,1","+0147,1","+0075,1","10221,1",,,,,,,"99999,9,09893,1","7,1,004,1,+999,9","SYN060AAXX  10091 02151 45983 /2004 10147 20075 39893 40221 57004;",
"02151099999","2010-09-10T12:00:00","4","66.4833333","20.1666666","275.0","JOKKMOKK FPL, SW","FM-12","99999","V020","220,1,N,0050,1","99999,9,9,N","045000,1,N,1","+0160,1","+0072,1","10211,1",,,,,,,"99999,9,09885,1","7,1,008,1,+999,9","SYN060AAXX  10121 02151 45983 /2205 10160 20072 39885 40211 57008;",
"02151099999","2010-09-10T15:00:00","4","66.4833333","20.1666666","275.0","JOKKMOKK FPL, SW","FM-12","99999","V020","250,1,N,0020,1","01320,1,C,N","050000,1,N,1","+0145,1","+0078,1","10208,1",,,"05,1,+01320,1,99,9",,,,"99999,9,09880,1","7,1,005,1,+999,9","SYN070AAXX  10151 02151 45684 /2502 10145 20078 39880 40208 57005 333 85/44;",
"02151099999","2010-09-10T18:00:00","4","66.4833333","20.1666666","275.0","JOKKMOKK FPL, SW","FM-12","99999","V020","190,1,N,0010,1","01350,1,C,N","050000,1,N,1","+0082,1","+0069,1","10210,1",,,"08,1,+01350,1,99,9",,"120,M,+0167,1","999,N,+0082,1","99999,9,09875,1","7,1,005,1,+999,9","SYN082AAXX  10181 02151 45684 /1901 10082 20069 39875 40210 57005 333 10167 20082 88/45;",
"02151099999","2010-09-10T21:00:00","4","66.4833333","20.1666666","275.0","JOKKMOKK FPL, SW","FM-12","99999","V020","210,1,N,0020,1","99999,9,9,N","050000,1,N,1","+0074,1","+0054,1","10211,1",,,"01,1,+01380,1,99,9",,,,"99999,9,09874,1","4,1,000,1,+999,9","SYN070AAXX  10211 02151 45684 /2102 10074 20054 39874 40211 54001 333 81/46;",
"02151099999","2010-09-11T00:00:00","4","66.4833333","20.1666666","275.0","JOKKMOKK FPL, SW","FM-12","99999","V020","210,1,N,0020,1","01320,1,C,N","050000,1,N,1","+0075,1","+0060,1","10202,1",,,"08,1,+01320,1,99,9",,,,"99999,9,09866,1","7,1,008,1,+999,9","SYN070AAXX  11001 02151 45684 /2102 10075 20060 39866 40202 57008 333 88/44;",
"02151099999","2010-09-11T03:00:00","4","66.4833333","20.1666666","275.0","JOKKMOKK FPL, SW","FM-12","99999","V020","200,1,N,0020,1","01290,1,C,N","050000,1,N,1","+0060,1","+0052,1","10197,1",,,"06,1,+01290,1,99,9",,,,"99999,9,09860,1","7,1,006,1,+999,9","SYN070AAXX  11031 02151 45684 /2002 10060 20052 39860 40197 57006 333 86/43;",
"02151099999","2010-09-11T06:00:00","4","66.4833333","20.1666666","275.0","JOKKMOKK FPL, SW","FM-12","99999","V020","140,1,N,0010,1","01290,1,C,N","045000,1,N,1","+0065,1","+0061,1","10192,1",,,"08,1,+01290,1,99,9",,"120,M,+0097,1","999,N,+0037,1","99999,9,09855,1","7,1,005,1,+999,9","SYN082AAXX  11061 02151 45683 /1401 10065 20061 39855 40192 57005 333 10097 20037 88/43;",
"02151099999","2010-09-11T09:00:00","4","66.4833333","20.1666666","275.0","JOKKMOKK FPL, SW","FM-12","99999","V020","200,1,N,0030,1","01290,1,C,N","050000,1,N,1","+0123,1","+0067,1","10182,1",,,"08,1,+01290,1,99,9",,,,"99999,9,09853,1","7,1,002,1,+999,9","SYN070AAXX  11091 02151 45684 /2003 10123 20067 39853 40182 57002 333 88/43;",
"02151099999","2010-09-11T12:00:00","4","66.4833333","20.1666666","275.0","JOKKMOKK FPL, SW","FM-12","99999","V020","200,1,N,0020,1","01230,1,C,N","050000,1,N,1","+0127,1","+0068,1","10174,1",,,"08,1,+01230,1,99,9",,,,"99999,9,09845,1","7,1,008,1,+999,9","SYN070AAXX  11121 02151 45684 /2002 10127 20068 39845 40174 57008 333 88/41;",
"02151099999","2010-09-11T15:00:00","4","66.4833333","20.1666666","275.0","JOKKMOKK FPL, SW","FM-12","99999","V020","200,1,N,0020,1","01350,1,C,N","050000,1,N,1","+0130,1","+0080,1","10167,1",,,"08,1,+01350,1,99,9",,,,"99999,9,09838,1","8,1,007,1,+999,9","SYN070AAXX  11151 02151 45684 /2002 10130 20080 39838 40167 58007 333 88/45;",
"02151099999","2010-09-11T18:00:00","4","66.4833333","20.1666666","275.0","JOKKMOKK FPL, SW","FM-12","99999","V020","160,1,N,0020,1","01230,1,C,N","045000,1,N,1","+0079,1","+0071,1","10168,1",,,"07,1,+01230,1,99,9",,"120,M,+0131,1","999,N,+0064,1","99999,9,09834,1","7,1,004,1,+999,9","SYN082AAXX  11181 02151 45683 /1602 10079 20071 39834 40168 57004 333 10131 20064 87/41;",
"02151099999","2010-09-11T21:00:00","4","66.4833333","20.1666666","275.0","JOKKMOKK FPL, SW","FM-12","99999","V020","160,1,N,0020,1","99999,9,9,N","022000,1,N,1","+0036,1","+0034,1","10172,1",,,,,,,"99999,9,09832,1","7,1,002,1,+999,9","SYN060AAXX  11211 02151 45972 /1602 10036 20034 39832 40172 57002;",
"02151099999","2010-09-12T00:00:00","4","66.4833333","20.1666666","275.0","JOKKMOKK FPL, SW","FM-12","99999","V020","999,9,C,0000,1","99999,9,9,N","011000,1,N,1","+0025,1","+0025,1","10164,1",,,"03,1,+01320,1,99,9",,,,"99999,9,09823,1","7,1,009,1,+999,9","SYN070AAXX  12001 02151 45661 /0000 10025 20025 39823 40164 57009 333 83/44;",
"02151099999","2010-09-12T03:00:00","4","66.4833333","20.1666666","275.0","JOKKMOKK FPL, SW","FM-12","99999","V020","120,1,N,0020,1","00060,1,C,N","003900,1,N,1","+0058,1","+0058,1","10152,1","10,1","2,1,03,1","05,1,+00060,1,99,9",,,,"99999,9,09816,1","7,1,008,1,+999,9","SYN082AAXX  12031 02151 47139 /1202 10058 20058 39816 40152 57008 71010 333 85/02 88/42;",
"02151099999","2010-09-12T06:00:00","4","66.4833333","20.1666666","275.0","JOKKMOKK FPL, SW","FM-12","99999","V020","130,1,N,0020,1","00060,1,C,N","000400,1,N,1","+0053,1","+0053,1","10146,1","34,1","4,1,06,1","09,1,+00060,1,99,9",,"120,M,+0083,1","999,N,+0021,1","99999,9,09810,1","7,1,006,1,+999,9","SYN088AAXX  12061 02151 47/04 /1302 10053 20053 39810 40146 57006 73432 333 10083 20021 89/02;",
"02151099999","2010-09-12T09:00:00","4","66.4833333","20.1666666","275.0","JOKKMOKK FPL, SW","FM-12","99999","V020","140,1,N,0030,1","00120,1,C,N","013000,1,N,1","+0076,1","+0076,1","10137,1","61,1","6,1,03,1","08,1,+00120,1,99,9",,,,"99999,9,09804,1","7,1,006,1,+999,9","SYN076AAXX  12091 02151 47263 /1403 10076 20076 39804 40137 57006 76165 333 88/04;",
"02151099999","2010-09-12T12:00:00","4","66.4833333","20.1666666","275.0","JOKKMOKK FPL, SW","FM-12","99999","V020","120,1,N,0030,1","00210,1,C,N","005000,1,N,1","+0096,1","+0095,1","10119,1","81,1","8,1,06,1","06,1,+00210,1,99,9","07,1,+00300,1,99,9",,,"99999,9,09789,1","7,1,015,1,+999,9","SYN088AAXX  12121 02151 47350 /1203 10096 20095 39789 40119 57015 78186 333 86/07 87/10 88/13;",
"02151099999","2010-09-12T15:00:00","4","66.4833333","20.1666666","275.0","JOKKMOKK FPL, SW","FM-12","99999","V020","150,1,N,0040,1","00180,1,C,N","007000,1,N,1","+0104,1","+0104,1","10103,1","23,1","8,1,03,1","08,1,+00180,1,99,9",,,,"99999,9,09774,1","8,1,015,1,+999,9","SYN076AAXX  12151 02151 47257 /1504 10104 20104 39774 40103 58015 72386 333 88/06;",
"02151099999","2010-09-12T18:00:00","4","66.4833333","20.1666666","275.0","JOKKMOKK FPL, SW","FM-12","99999","V020","140,1,N,0020,1","00090,1,C,N","009000,1,N,1","+0105,1","+0105,1","10093,1","22,1","8,1,06,1","08,1,+00090,1,99,9",,"120,M,+0105,1","999,N,+0052,1","99999,9,09764,1","7,1,010,1,+999,9","SYN088AAXX  12181 02151 47259 /1402 10105 20105 39764 40093 57010 72286 333 10105 20052 88/03;",
"02151099999","2010-09-12T21:00:00","4","66.4833333","20.1666666","275.0","JOKKMOKK FPL, SW","FM-12","99999","V020","999,9,C,0000,1","00240,1,C,N","029000,1,N,1","+0105,1","+0105,1","10086,1",,,"02,1,+00030,1,99,9","05,1,+00240,1,99,9",,,"99999,9,09757,1","7,1,007,1,+999,9","SYN082AAXX  12211 02151 45079 /0000 10105 20105 39757 40086 57007 333 82/01 85/08 88/24;",
"02151099999","2010-09-13T00:00:00","4","66.4833333","20.1666666","275.0","JOKKMOKK FPL, SW","FM-12","99999","V020","999,9,C,0000,1","01080,1,C,N","026000,1,N,1","+0099,1","+0099,1","10083,1","00,1","4,1,06,1","08,1,+01080,1,99,9",,,,"99999,9,09754,1","7,1,003,1,+999,9","SYN076AAXX  13001 02151 47676 /0000 10099 20099 39754 40083 57003 70032 333 88/36;",
"02151099999","2010-09-13T03:00:00","4","66.4833333","20.1666666","275.0","JOKKMOKK FPL, SW","FM-12","99999","V020","999,9,C,0000,1","99999,9,9,N","045000,1,N,1","+0066,1","+0064,1","10088,1",,,,,,,"99999,9,09755,1","3,1,001,1,+999,9","SYN060AAXX  13031 02151 45983 /0000 10066 20064 39755 40088 53001;",
"02151099999","2010-09-13T06:00:00","4","66.4833333","20.1666666","275.0","JOKKMOKK FPL, SW","FM-12","99999","V020","270,1,N,0020,1","99999,9,9,N","050000,1,N,1","+0083,1","+0077,1","10090,1",,,,,"120,M,+0107,1","999,N,+0037,1","99999,9,09759,1","2,1,004,1,+999,9","SYN076AAXX  13061 02151 45984 /2702 10083 20077 39759 40090 52004 333 10107 20037;",
"02151099999","2010-09-13T09:00:00","4","66.4833333","20.1666666","275.0","JOKKMOKK FPL, SW","FM-12","99999","V020","270,1,N,0060,1","99999,9,9,N","035000,1,N,1","+0134,1","+0082,1","10091,1",,,,,,,"99999,9,09765,1","0,1,006,1,+999,9","SYN060AAXX  13091 02151 45981 /2706 10134 20082 39765 40091 50006;",
"02151099999","2010-09-13T12:00:00","4","66.4833333","20.1666666","275.0","JOKKMOKK FPL, SW","FM-12","99999","V020","280,1,N,0050,1","99999,9,9,N","045000,1,N,1","+0158,1","+0071,1","10093,1",,,"01,1,+01500,1,99,9",,,,"99999,9,09770,1","2,1,005,1,+999,9","SYN070AAXX  13121 02151 45783 /2805 10158 20071 39770 40093 52005 333 81/50;",
"02151099999","2010-09-13T15:00:00","4","66.4833333","20.1666666","275.0","JOKKMOKK FPL, SW","FM-12","99999","V020","300,1,N,0020,1","99999,9,9,N","050000,1,N,1","+0140,1","+0058,1","10097,1",,,"01,1,+01800,1,99,9",,,,"99999,9,09772,1","2,1,002,1,+999,9","SYN070AAXX  13151 02151 45784 /3002 10140 20058 39772 40097 52002 333 81/56;",
"02151099999","2010-09-13T18:00:00","4","66.4833333","20.1666666","275.0","JOKKMOKK FPL, SW","FM-12","99999","V020","999,9,C,0000,1","99999,9,9,N","050000,1,N,1","+0059,1","+0053,1","10105,1",,,,,"120,M,+0160,1","999,N,+0056,1","99999,9,09771,1","7,1,001,1,+999,9","SYN076AAXX  13181 02151 45984 /0000 10059 20053 39771 40105 57001 333 10160 20056;",
"02151099999","2010-09-13T21:00:00","4","66.4833333","20.1666666","275.0","JOKKMOKK FPL, SW","FM-12","99999","V020","999,9,C,0000,1","99999,9,9,N","050000,1,N,1","+0032,1","+0032,1","10105,1",,,,,,,"99999,9,09768,1","7,1,003,1,+999,9","SYN060AAXX  13211 02151 45984 /0000 10032 20032 39768 40105 57003;",
"02151099999","2010-09-14T00:00:00","4","66.4833333","20.1666666","275.0","JOKKMOKK FPL, SW","FM-12","99999","V020","999,9,C,0000,1","99999,9,9,N","050000,1,N,1","+0012,1","+0012,1","10102,1",,,"02,1,+01800,1,99,9",,,,"99999,9,09762,1","7,1,006,1,+999,9","SYN070AAXX  14001 02151 45884 /0000 10012 20012 39762 40102 57006 333 82/56;",
"02151099999","2010-09-14T03:00:00","4","66.4833333","20.1666666","275.0","JOKKMOKK FPL, SW","FM-12","99999","V020","120,1,N,0010,1","02100,1,C,N","040000,1,N,1","+0028,1","+0028,1","10079,1",,,"05,1,+02100,1,99,9",,,,"99999,9,09742,1","8,1,020,1,+999,9","SYN070AAXX  14031 02151 45882 /1201 10028 20028 39742 40079 58020 333 85/57;",
"02151099999","2010-09-14T06:00:00","4","66.4833333","20.1666666","275.0","JOKKMOKK FPL, SW","FM-12","99999","V020","150,1,N,0010,1","99999,9,9,N","050000,1,N,1","+0065,1","+0065,1","10060,1","81,1","8,1,06,1","04,1,+02100,1,99,9",,"120,M,+0096,1","999,N,+0007,1","99999,9,09728,1","7,1,014,1,+999,9","SYN088AAXX  14061 02151 47884 /1501 10065 20065 39728 40060 57014 78186 333 10096 20007 84/57;",
"02151099999","2010-09-14T09:00:00","4","66.4833333","20.1666666","275.0","JOKKMOKK FPL, SW","FM-12","99999","V020","130,1,N,0030,1","01800,1,C,N","050000,1,N,1","+0102,1","+0086,1","10038,1","00,1","8,1,03,1","08,1,+01800,1,99,9",,,,"99999,9,09710,1","7,1,018,1,+999,9","SYN076AAXX  14091 02151 47884 /1303 10102 20086 39710 40038 57018 70082 333 88/56;",
"02151099999","2010-09-14T12:00:00","4","66.4833333","20.1666666","275.0","JOKKMOKK FPL, SW","FM-12","99999","V020","130,1,N,0060,1","01050,1,C,N","050000,1,N,1","+0135,1","+0089,1","10010,1","00,1","8,1,06,1","06,1,+01050,1,99,9",,,,"99999,9,09687,1","8,1,024,1,+999,9","SYN082AAXX  14121 02151 47684 /1306 10135 20089 39687 40010 58024 70082 333 86/35 87/46;",
"02151099999","2010-09-14T15:00:00","4","66.4833333","20.1666666","275.0","JOKKMOKK FPL, SW","FM-12","99999","V020","140,1,N,0050,1","99999,9,9,N","050000,1,N,1","+0120,1","+0094,1","09999,1",,,"01,1,+00690,1,99,9",,,,"99999,9,09675,1","7,1,012,1,+999,9","SYN076AAXX  14151 02151 45584 /1405 10120 20094 39675 49999 57012 333 81/23 88/50;",
"02151099999","2010-09-14T18:00:00","4","66.4833333","20.1666666","275.0","JOKKMOKK FPL, SW","FM-12","99999","V020","130,1,N,0050,1","99999,9,9,N","013000,1,N,1","+0105,1","+0101,1","09982,1","81,1","8,1,06,1","01,1,+00180,1,99,9",,"120,M,+0140,1","999,N,+0065,1","99999,9,09657,1","7,1,018,1,+999,9","SYN094AAXX  14181 02151 47263 /1305 10105 20101 39657 49982 57018 78186 333 10140 20065 81/06 83/14;",
"02151099999","2010-09-14T21:00:00","4","66.4833333","20.1666666","275.0","JOKKMOKK FPL, SW","FM-12","99999","V020","140,1,N,0040,1","99999,9,9,N","006000,1,N,1","+0094,1","+0094,1","09977,1","52,1","8,1,03,1","04,1,+00180,1,99,9",,,,"99999,9,09651,1","8,1,007,1,+999,9","SYN082AAXX  14211 02151 47356 /1404 10094 20094 39651 49977 58007 75286 333 84/06 87/10;",
"02151099999","2010-09-15T00:00:00","4","66.4833333","20.1666666","275.0","JOKKMOKK FPL, SW","FM-12","99999","V020","120,1,N,0040,1","00210,1,C,N","016000,1,N,1","+0092,1","+0092,1","09958,1","81,1","8,1,06,1","07,1,+00210,1,99,9",,,,"99999,9,09632,1","8,1,018,1,+999,9","SYN082AAXX  15001 02151 47366 /1204 10092 20092 39632 49958 58018 78186 333 87/07 88/12;",
"02151099999","2010-09-15T03:00:00","4","66.4833333","20.1666666","275.0","JOKKMOKK FPL, SW","FM-12","99999","V020","120,1,N,0050,1","00150,1,C,N","006000,1,N,1","+0097,1","+0097,1","09932,1","62,1","8,1,03,1","09,1,+00150,1,99,9",,,,"99999,9,09608,1","7,1,025,1,+999,9","SYN076AAXX  15031 02151 47/56 /1205 10097 20097 39608 49932 57025 76286 333 89/05;",
"02151099999","2010-09-15T06:00:00","4","66.4833333","20.1666666","275.0","JOKKMOKK FPL, SW","FM-12","99999","V020","120,1,N,0040,1","00150,1,C,N","025000,1,N,1","+0101,1","+0101,1","09920,1","52,1","8,1,06,1","08,1,+00150,1,99,9",,"120,M,+0105,1","999,N,+0091,1","99999,9,09597,1","6,1,011,1,+999,9","SYN088AAXX  15061 02151 47275 /1204 10101 20101 39597 49920 56011 75286 333 10105 20091 88/05;",
"02151099999","2010-09-15T09:00:00","4","66.4833333","20.1666666","275.0","JOKKMOKK FPL, SW","FM-12","99999","V020","130,1,N,0040,1","00300,1,C,N","045000,1,N,1","+0114,1","+0113,1","09923,1","23,1","8,1,03,1","02,1,+00240,1,99,9","04,1,+00300,1,99,9",,,"99999,9,09600,1","0,1,004,1,+999,9","SYN088AAXX  15091 02151 47383 /1304 10114 20113 39600 49923 50004 72386 333 82/08 84/10 85/13;",
"02151099999","2010-09-15T12:00:00","4","66.4833333","20.1666666","275.0","JOKKMOKK FPL, SW","FM-12","99999","V020","120,1,N,0050,1","00360,1,C,N","040000,1,N,1","+0120,1","+0114,1","09918,1","00,1","8,1,06,1","06,1,+00360,1,99,9","07,1,+00510,1,99,9",,,"99999,9,09597,1","8,1,003,1,+999,9","SYN088AAXX  15121 02151 47482 /1205 10120 20114 39597 49918 58003 70086 333 86/12 87/17 88/49;",
"02151099999","2010-09-15T15:00:00","4","66.4833333","20.1666666","275.0","JOKKMOKK FPL, SW","FM-12","99999","V020","110,1,N,0040,1","00300,1,C,N","006000,1,N,1","+0109,1","+0107,1","09901,1","81,1","8,1,03,1","02,1,+00240,1,99,9","04,1,+00300,1,99,9",,,"99999,9,09579,1","8,1,018,1,+999,9","SYN088AAXX  15151 02151 47356 /1104 10109 20107 39579 49901 58018 78186 333 82/08 84/10 85/12;",
"02151099999","2010-09-15T18:00:00","4","66.4833333","20.1666666","275.0","JOKKMOKK FPL, SW","FM-12","99999","V020","120,1,N,0070,1","00210,1,C,N","004100,1,N,1","+0112,1","+0112,1","09879,1","62,1","8,1,06,1","09,1,+00210,1,99,9",,"120,M,+0124,1","999,N,+0101,1","99999,9,09558,1","6,1,022,1,+999,9","SYN088AAXX  15181 02151 47/41 /1207 10112 20112 39558 49879 56022 76286 333 10124 20101 89/07;",
"02151099999","2010-09-15T21:00:00","4","66.4833333","20.1666666","275.0","JOKKMOKK FPL, SW","FM-12","99999","V020","180,1,N,0020,1","00360,1,C,N","004500,1,N,1","+0090,1","+0090,1","09884,1","63,1","6,1,03,1","09,1,+00360,1,99,9",,,,"99999,9,09560,1","3,1,002,1,+999,9","SYN076AAXX  15211 02151 47/45 /1802 10090 20090 39560 49884 53002 76366 333 89/12;",
"02151099999","2010-09-16T00:00:00","4","66.4833333","20.1666666","275.0","JOKKMOKK FPL, SW","FM-12","99999","V020","140,1,N,0010,1","00270,1,C,N","006000,1,N,1","+0085,1","+0085,1","09896,1","62,1","8,1,06,1","09,1,+00270,1,99,9",,,,"99999,9,09571,1","2,1,011,1,+999,9","SYN076AAXX  16001 02151 47/56 /1401 10085 20085 39571 49896 52011 76286 333 89/09;",
"02151099999","2010-09-16T03:00:00","4","66.4833333","20.1666666","275.0","JOKKMOKK FPL, SW","FM-12","99999","V020","090,1,N,0010,1","99999,9,9,N","045000,1,N,1","+0068,1","+0068,1","09907,1","61,1","6,1,03,1",,,,,"99999,9,09580,1","0,1,009,1,+999,9","SYN066AAXX  16031 02151 47983 /0901 10068 20068 39580 49907 50009 76166;",
"02151099999","2010-09-16T06:00:00","4","66.4833333","20.1666666","275.0","JOKKMOKK FPL, SW","FM-12","99999","V020","130,1,N,0030,1","00120,1,C,N","030000,1,N,1","+0081,1","+0081,1","09920,1","00,1","6,1,06,1","08,1,+00120,1,99,9",,"120,M,+0112,1","999,N,+0065,1","99999,9,09594,1","2,1,014,1,+999,9","SYN088AAXX  16061 02151 47280 /1303 10081 20081 39594 49920 52014 70062 333 10112 20065 88/04;",
"02151099999","2010-09-16T09:00:00","4","66.4833333","20.1666666","275.0","JOKKMOKK FPL, SW","FM-12","99999","V020","140,1,N,0040,1","00540,1,C,N","040000,1,N,1","+0107,1","+0089,1","09942,1",,,"05,1,+00540,1,99,9",,,,"99999,9,09619,1","3,1,024,1,+999,9","SYN070AAXX  16091 02151 45482 /1404 10107 20089 39619 49942 53024 333 85/18;",
"02151099999","2010-09-16T12:00:00","4","66.4833333","20.1666666","275.0","JOKKMOKK FPL, SW","FM-12","99999","V020","130,1,N,0040,1","99999,9,9,N","045000,1,N,1","+0115,1","+0087,1","09957,1",,,"01,1,+00750,1,99,9",,,,"99999,9,09634,1","1,1,016,1,+999,9","SYN076AAXX  16121 02151 45583 /1304 10115 20087 39634 49957 51016 333 81/25 86/50;",
"02151099999","2010-09-16T15:00:00","4","66.4833333","20.1666666","275.0","JOKKMOKK FPL, SW","FM-12","99999","V020","130,1,N,0040,1","99999,9,9,N","050000,1,N,1","+0108,1","+0088,1","09969,1","00,1","8,1,03,1","01,1,+00630,1,99,9",,,,"99999,9,09644,1","2,1,010,1,+999,9","SYN076AAXX  16151 02151 47584 /1304 10108 20088 39644 49969 52010 70086 333 81/21;",
"02151099999","2010-09-16T18:00:00","4","66.4833333","20.1666666","275.0","JOKKMOKK FPL, SW","FM-12","99999","V020","110,1,N,0040,1","00390,1,C,N","050000,1,N,1","+0088,1","+0083,1","09986,1","23,1","8,1,06,1","05,1,+00390,1,99,9",,"120,M,+0123,1","999,N,+0081,1","99999,9,09659,1","1,1,014,1,+999,9","SYN094AAXX  16181 02151 47484 /1104 10088 20083 39659 49986 51014 72386 333 10123 20081 85/13 87/17;",
"02151099999","2010-09-16T21:00:00","4","66.4833333","20.1666666","275.0","JOKKMOKK FPL, SW","FM-12","99999","V020","110,1,N,0030,1","99999,9,9,N","050000,1,N,1","+0088,1","+0079,1","09988,1",,,"02,1,+00960,1,99,9",,,,"99999,9,09661,1","0,1,002,1,+999,9","SYN076AAXX  16211 02151 45584 /1103 10088 20079 39661 49988 50002 333 82/32 84/62;",
"02151099999","2010-09-17T00:00:00","4","66.4833333","20.1666666","275.0","JOKKMOKK FPL, SW","FM-12","99999","V020","100,1,N,0030,1","00390,1,C,N","050000,1,N,1","+0081,1","+0075,1","09986,1",,,"06,1,+00390,1,99,9",,,,"99999,9,09658,1","7,1,003,1,+999,9","SYN076AAXX  17001 02151 45484 /1003 10081 20075 39658 49986 57003 333 86/13 88/22;",
"02151099999","2010-09-17T03:00:00","4","66.4833333","20.1666666","275.0","JOKKMOKK FPL, SW","FM-12","99999","V020","100,1,N,0030,1","00270,1,C,N","050000,1,N,1","+0079,1","+0073,1","09982,1","00,1","8,1,03,1","08,1,+00270,1,99,9",,,,"99999,9,09654,1","7,1,004,1,+999,9","SYN076AAXX  17031 02151 47384 /1003 10079 20073 39654 49982 57004 70086 333 88/09;",
"02151099999","2010-09-17T06:00:00","4","66.4833333","20.1666666","275.0","JOKKMOKK FPL, SW","FM-12","99999","V020","080,1,N,0020,1","00240,1,C,N","045000,1,N,1","+0075,1","+0073,1","09981,1","00,1","8,1,06,1","08,1,+00240,1,99,9",,"120,M,+0090,1","999,N,+0072,1","99999,9,09652,1","7,1,001,1,+999,9","SYN088AAXX  17061 02151 47383 /0802 10075 20073 39652 49981 57001 70086 333 10090 20072 88/08;",
"02151099999","2010-09-17T09:00:00","4","66.4833333","20.1666666","275.0","JOKKMOKK FPL, SW","FM-12","99999","V020","110,1,N,0020,1","00330,1,C,N","035000,1,N,1","+0087,1","+0081,1","09980,1","23,1","8,1,03,1","07,1,+00330,1,99,9",,,,"99999,9,09653,1","4,1,000,1,+999,9","SYN082AAXX  17091 02151 47481 /1102 10087 20081 39653 49980 54001 72386 333 87/11 88/13;",
"02151099999","2010-09-17T12:00:00","4","66.4833333","20.1666666","275.0","JOKKMOKK FPL, SW","FM-12","99999","V020","100,1,N,0010,1","00480,1,C,N","007000,1,N,1","+0090,1","+0087,1","09980,1","62,1","8,1,06,1","02,1,+00210,1,99,9","04,1,+00480,1,99,9",,,"99999,9,09653,1","4,1,000,1,+999,9","SYN088AAXX  17121 02151 47357 /1001 10090 20087 39653 49980 54000 76286 333 82/07 84/16 86/22;",
"02151099999","2010-09-17T15:00:00","4","66.4833333","20.1666666","275.0","JOKKMOKK FPL, SW","FM-12","99999","V020","070,1,N,0010,1","99999,9,9,N","040000,1,N,1","+0097,1","+0093,1","09977,1","23,1","8,1,03,1","01,1,+00870,1,99,9",,,,"99999,9,09651,1","7,1,003,1,+999,9","SYN082AAXX  17151 02151 47582 /0701 10097 20093 39651 49977 57003 72386 333 81/29 85/56;",
"02151099999","2010-09-17T18:00:00","4","66.4833333","20.1666666","275.0","JOKKMOKK FPL, SW","FM-12","99999","V020","999,9,C,0000,1","99999,9,9,N","010000,1,N,1","+0085,1","+0085,1","09983,1","23,1","8,1,06,1","01,1,+00450,1,99,9",,"120,M,+0101,1","999,N,+0075,1","99999,9,09655,1","2,1,005,1,+999,9","SYN094AAXX  17181 02151 47460 /0000 10085 20085 39655 49983 52005 72386 333 10101 20075 81/15 88/31;",
"02151099999","2010-09-17T21:00:00","4","66.4833333","20.1666666","275.0","JOKKMOKK FPL, SW","FM-12","99999","V020","999,9,C,0000,1","00270,1,C,N","005000,1,N,1","+0084,1","+0084,1","09984,1","10,1","8,1,03,1","03,1,+00090,1,99,9","05,1,+00270,1,99,9",,,"99999,9,09656,1","4,1,000,1,+999,9","SYN088AAXX  17211 02151 47250 /0000 10084 20084 39656 49984 54001 71086 333 83/03 85/09 88/23;",
"02151099999","2010-09-18T00:00:00","4","66.4833333","20.1666666","275.0","JOKKMOKK FPL, SW","FM-12","99999","V020","999,9,C,0000,1","99999,9,9,N","007000,1,N,1","+0079,1","+0079,1","09981,1","10,1","8,1,06,1","01,1,+00210,1,99,9","03,1,+00420,1,99,9",,,"99999,9,09653,1","7,1,004,1,+999,9","SYN088AAXX  18001 02151 47357 /0000 10079 20079 39653 49981 57004 71086 333 81/07 83/14 86/20;",
"02151099999","2010-09-18T03:00:00","4","66.4833333","20.1666666","275.0","JOKKMOKK FPL, SW","FM-12","99999","V020","340,1,N,0010,1","00540,1,C,N","016000,1,N,1","+0073,1","+0073,1","09981,1","81,1","8,1,03,1","04,1,+00390,1,99,9","06,1,+00540,1,99,9",,,"99999,9,09653,1","4,1,000,1,+999,9","SYN088AAXX  18031 02151 47466 /3401 10073 20073 39653 49981 54000 78186 333 84/13 86/18 87/27;",
"02151099999","2010-09-18T06:00:00","4","66.4833333","20.1666666","275.0","JOKKMOKK FPL, SW","FM-12","99999","V020","999,9,C,0000,1","00330,1,C,N","030000,1,N,1","+0075,1","+0075,1","09981,1","00,1","8,1,06,1","08,1,+00330,1,99,9",,"120,M,+0086,1","999,N,+0071,1","99999,9,09653,1","4,1,000,1,+999,9","SYN088AAXX  18061 02151 47480 /0000 10075 20075 39653 49981 54000 70086 333 10086 20071 88/11;",
"02151099999","2010-09-18T09:00:00","4","66.4833333","20.1666666","275.0","JOKKMOKK FPL, SW","FM-12","99999","V020","010,1,N,0010,1","00210,1,C,N","045000,1,N,1","+0083,1","+0080,1","09984,1","22,1","8,1,03,1","07,1,+00210,1,99,9",,,,"99999,9,09656,1","2,1,004,1,+999,9","SYN082AAXX  18091 02151 47383 /0101 10083 20080 39656 49984 52004 72286 333 87/07 88/44;",
"02151099999","2010-09-18T12:00:00","4","66.4833333","20.1666666","275.0","JOKKMOKK FPL, SW","FM-12","99999","V020","350,1,N,0010,1","00360,1,C,N","017000,1,N,1","+0096,1","+0091,1","09982,1","61,1","8,1,06,1","08,1,+00360,1,99,9",,,,"99999,9,09655,1","4,1,000,1,+999,9","SYN076AAXX  18121 02151 47467 /3501 10096 20091 39655 49982 54001 76186 333 88/12;",
"02151099999","2010-09-18T15:00:00","4","66.4833333","20.1666666","275.0","JOKKMOKK FPL, SW","FM-12","99999","V020","999,9,C,0000,1","99999,9,9,N","040000,1,N,1","+0110,1","+0094,1","09975,1","00,1","8,1,03,1","02,1,+01410,1,99,9",,,,"99999,9,09650,1","7,1,005,1,+999,9","SYN076AAXX  18151 02151 47682 /0000 10110 20094 39650 49975 57005 70086 333 82/47;",
"02151099999","2010-09-18T18:00:00","4","66.4833333","20.1666666","275.0","JOKKMOKK FPL, SW","FM-12","99999","V020","999,9,C,0000,1","02100,1,C,N","007000,1,N,1","+0053,1","+0053,1","09985,1","10,1","8,1,06,1","06,1,+02100,1,99,9",,"120,M,+0111,1","999,N,+0053,1","99999,9,09654,1","2,1,003,1,+999,9","SYN088AAXX  18181 02151 47857 /0000 10053 20053 39654 49985 52003 71086 333 10111 20053 86/57;",
"02151099999","2010-09-18T21:00:00","4","66.4833333","20.1666666","275.0","JOKKMOKK FPL, SW","FM-12","99999","V020","999,9,C,0000,1","01410,1,C,N","004100,1,N,1","+0051,1","+0051,1","09985,1","20,1","4,1,03,1","06,1,+01410,1,99,9",,,,"99999,9,09653,1","4,1,000,1,+999,9","SYN082AAXX  18211 02151 47641 /0000 10051 20051 39653 49985 54000 72032 333 86/47 88/57;",
"02151099999","2010-09-19T00:00:00","4","66.4833333","20.1666666","275.0","JOKKMOKK FPL, SW","FM-12","99999","V020","999,9,C,0000,1","00090,1,C,N","007000,1,N,1","+0041,1","+0041,1","09983,1","10,1","4,1,06,1","06,1,+00090,1,99,9",,,,"99999,9,09650,1","7,1,003,1,+999,9","SYN082AAXX  19001 02151 47257 /0000 10041 20041 39650 49983 57003 71032 333 86/03 88/06;",
"02151099999","2010-09-19T03:00:00","4","66.4833333","20.1666666","275.0","JOKKMOKK FPL, SW","FM-12","99999","V020","999,9,C,0000,1","00060,1,C,N","009000,1,N,1","+0050,1","+0050,1","09979,1","20,1","4,1,03,1","08,1,+00060,1,99,9",,,,"99999,9,09647,1","7,1,003,1,+999,9","SYN076AAXX  19031 02151 47159 /0000 10050 20050 39647 49979 57003 72032 333 88/02;",
"02151099999","2010-09-19T06:00:00","4","66.4833333","20.1666666","275.0","JOKKMOKK FPL, SW","FM-12","99999","V020","999,9,C,0000,1","00060,1,C,N","003700,1,N,1","+0051,1","+0051,1","09978,1","20,1","4,1,06,1","08,1,+00060,1,99,9",,"120,M,+0061,1","999,N,+0038,1","99999,9,09647,1","4,1,000,1,+999,9","SYN088AAXX  19061 02151 47137 /0000 10051 20051 39647 49978 54000 72032 333 10061 20038 88/02;",
"02151099999","2010-09-19T09:00:00","4","66.4833333","20.1666666","275.0","JOKKMOKK FPL, SW","FM-12","99999","V020","999,9,C,0000,1","00090,1,C,N","040000,1,N,1","+0078,1","+0078,1","09979,1","00,1","2,1,03,1","08,1,+00090,1,99,9",,,,"99999,9,09651,1","2,1,004,1,+999,9","SYN076AAXX  19091 02151 47282 /0000 10078 20078 39651 49979 52004 70013 333 88/03;",
"02151099999","2010-09-19T12:00:00","4","66.4833333","20.1666666","275.0","JOKKMOKK FPL, SW","FM-12","99999","V020","999,9,C,0000,1","99999,9,9,N","045000,1,N,1","+0098,1","+0085,1","09978,1","00,1","4,1,06,1","02,1,+00330,1,99,9",,,,"99999,9,09653,1","0,1,001,1,+999,9","SYN082AAXX  19121 02151 47483 /0000 10098 20085 39653 49978 50001 70032 333 82/11 88/58;",
"02151099999","2010-09-19T15:00:00","4","66.4833333","20.1666666","275.0","JOKKMOKK FPL, SW","FM-12","99999","V020","330,1,N,0010,1","02400,1,C,N","050000,1,N,1","+0104,1","+0080,1","09978,1",,,"05,1,+02400,1,99,9",,,,"99999,9,09653,1","4,1,000,1,+999,9","SYN070AAXX  19151 02151 45984 /3301 10104 20080 39653 49978 54000 333 85/58;",
"02151099999","2010-09-19T18:00:00","4","66.4833333","20.1666666","275.0","JOKKMOKK FPL, SW","FM-12","99999","V020","160,1,N,0010,1","02400,1,C,N","017000,1,N,1","+0044,1","+0044,1","09992,1",,,"06,1,+02400,1,99,9",,"120,M,+0113,1","999,N,+0038,1","99999,9,09660,1","2,1,007,1,+999,9","SYN082AAXX  19181 02151 45967 /1601 10044 20044 39660 49992 52007 333 10113 20038 86/58;",
"02151099999","2010-09-19T21:00:00","4","66.4833333","20.1666666","275.0","JOKKMOKK FPL, SW","FM-12","99999","V020","999,9,C,0000,1","02400,1,C,N","010000,1,N,1","+0048,1","+0048,1","09998,1",,,"08,1,+02400,1,99,9",,,,"99999,9,09666,1","2,1,006,1,+999,9","SYN070AAXX  19211 02151 45860 /0000 10048 20048 39666 49998 52006 333 88/58;",
"02151099999","2010-09-20T00:00:00","4","66.4833333","20.1666666","275.0","JOKKMOKK FPL, SW","FM-12","99999","V020","999,9,C,0000,1","02400,1,C,N","010000,1,N,1","+0048,1","+0048,1","10001,1",,,"08,1,+02400,1,99,9",,,,"99999,9,09669,1","3,1,003,1,+999,9","SYN070AAXX  20001 02151 45860 /0000 10048 20048 39669 40001 53003 333 88/58;",
"02151099999","2010-09-20T03:00:00","4","66.4833333","20.1666666","275.0","JOKKMOKK FPL, SW","FM-12","99999","V020","999,9,C,0000,1","02400,1,C,N","011000,1,N,1","+0040,1","+0040,1","10010,1",,,"08,1,+02400,1,99,9",,,,"99999,9,09677,1","2,1,008,1,+999,9","SYN070AAXX  20031 02151 45961 /0000 10040 20040 39677 40010 52008 333 88/58;",
"02151099999","2010-09-20T06:00:00","4","66.4833333","20.1666666","275.0","JOKKMOKK FPL, SW","FM-12","99999","V020","999,9,C,0000,1","02400,1,C,N","029000,1,N,1","+0052,1","+0052,1","10019,1",,,"08,1,+02400,1,99,9",,"120,M,+0058,1","999,N,+0035,1","99999,9,09687,1","2,1,010,1,+999,9","SYN082AAXX  20061 02151 45979 /0000 10052 20052 39687 40019 52010 333 10058 20035 88/58;",
"02151099999","2010-09-20T09:00:00","4","66.4833333","20.1666666","275.0","JOKKMOKK FPL, SW","FM-12","99999","V020","010,1,N,0010,1","99999,9,9,N","040000,1,N,1","+0090,1","+0052,1","10027,1",,,,,,,"99999,9,09699,1","2,1,012,1,+999,9","SYN060AAXX  20091 02151 45982 /0101 10090 20052 39699 40027 52012;",
"02151099999","2010-09-20T12:00:00","4","66.4833333","20.1666666","275.0","JOKKMOKK FPL, SW","FM-12","99999","V020","260,1,N,0010,1","99999,9,9,N","045000,1,N,1","+0125,1","+0040,1","10031,1",,,,,,,"99999,9,09707,1","2,1,008,1,+999,9","SYN060AAXX  20121 02151 45983 /2601 10125 20040 39707 40031 52008;",
"02151099999","2010-09-20T15:00:00","4","66.4833333","20.1666666","275.0","JOKKMOKK FPL, SW","FM-12","99999","V020","150,1,N,0020,1","99999,9,9,N","045000,1,N,1","+0125,1","+0066,1","10037,1",,,"01,1,+01500,1,99,9",,,,"99999,9,09712,1","2,1,006,1,+999,9","SYN076AAXX  20151 02151 45783 /1502 10125 20066 39712 40037 52006 333 81/50 84/56;",
"02151099999","2010-09-20T18:00:00","4","66.4833333","20.1666666","275.0","JOKKMOKK FPL, SW","FM-12","99999","V020","210,1,N,0010,1","99999,9,9,N","050000,1,N,1","+0035,1","+0033,1","10061,1",,,,,"120,M,+0133,1","999,N,+0033,1","99999,9,09725,1","2,1,013,1,+999,9","SYN076AAXX  20181 02151 45984 /2101 10035 20033 39725 40061 52013 333 10133 20033;",
"02151099999","2010-09-20T21:00:00","4","66.4833333","20.1666666","275.0","JOKKMOKK FPL, SW","FM-12","99999","V020","999,9,C,0000,1","99999,9,9,N","050000,1,N,1","+0006,1","+0006,1","10078,1",,,,,,,"99999,9,09738,1","2,1,013,1,+999,9","SYN060AAXX  20211 02151 45984 /0000 10006 20006 39738 40078 52013;",
"02151099999","2010-09-21T00:00:00","4","66.4833333","20.1666666","275.0","JOKKMOKK FPL, SW","FM-12","99999","V020","999,9,C,0000,1","01500,1,C,N","050000,1,N,1","+0015,1","+0015,1","10086,1",,,"08,1,+01500,1,99,9",,,,"99999,9,09747,1","2,1,008,1,+999,9","SYN070AAXX  21001 02151 45784 /0000 10015 20015 39747 40086 52008 333 88/50;",
"02151099999","2010-09-21T03:00:00","4","66.4833333","20.1666666","275.0","JOKKMOKK FPL, SW","FM-12","99999","V020","999,9,C,0000,1","01800,1,C,N","050000,1,N,1","+0021,1","+0021,1","10094,1",,,"08,1,+01800,1,99,9",,,,"99999,9,09755,1","2,1,009,1,+999,9","SYN070AAXX  21031 02151 45784 /0000 10021 20021 39755 40094 52009 333 88/56;",
"02151099999","2010-09-21T06:00:00","4","66.4833333","20.1666666","275.0","JOKKMOKK FPL, SW","FM-12","99999","V020","999,9,C,0000,1","01800,1,C,N","050000,1,N,1","+0035,1","+0035,1","10105,1",,,"08,1,+01800,1,99,9",,"120,M,+0040,1","999,N,+0002,1","99999,9,09768,1","2,1,013,1,+999,9","SYN082AAXX  21061 02151 45784 /0000 10035 20035 39768 40105 52013 333 10040 20002 88/56;",
"02151099999","2010-09-21T09:00:00","4","66.4833333","20.1666666","275.0","JOKKMOKK FPL, SW","FM-12","99999","V020","999,9,C,0000,1","99999,9,9,N","050000,1,N,1","+0070,1","+0057,1","10110,1",,,,,,,"99999,9,09776,1","2,1,008,1,+999,9","SYN060AAXX  21091 02151 45984 /0000 10070 20057 39776 40110 52008;",
"02151099999","2010-09-21T12:00:00","4","66.4833333","20.1666666","275.0","JOKKMOKK FPL, SW","FM-12","99999","V020","120,1,N,0010,1","99999,9,9,N","050000,1,N,1","+0093,1","+0067,1","10116,1",,,"02,1,+02700,1,99,9",,,,"99999,9,09785,1","2,1,009,1,+999,9","SYN070AAXX  21121 02151 45984 /1201 10093 20067 39785 40116 52009 333 82/59;",
"02151099999","2010-09-21T15:00:00","4","66.4833333","20.1666666","275.0","JOKKMOKK FPL, SW","FM-12","99999","V020","110,1,N,0010,1","99999,9,9,N","050000,1,N,1","+0092,1","+0066,1","10121,1",,,"02,1,+02400,1,99,9",,,,"99999,9,09790,1","2,1,004,1,+999,9","SYN070AAXX  21151 02151 45984 /1101 10092 20066 39790 40121 52004 333 82/58;",
"02151099999","2010-09-21T18:00:00","4","66.4833333","20.1666666","275.0","JOKKMOKK FPL, SW","FM-12","99999","V020","999,9,C,0000,1","99999,9,9,N","050000,1,N,1","+0035,1","+0035,1","10131,1",,,"01,1,+02100,1,99,9",,"120,M,+0096,1","999,N,+0035,1","99999,9,09793,1","2,1,004,1,+999,9","SYN088AAXX  21181 02151 45884 /0000 10035 20035 39793 40131 52004 333 10096 20035 81/57 84/67;",
"02151099999","2010-09-21T21:00:00","4","66.4833333","20.1666666","275.0","JOKKMOKK FPL, SW","FM-12","99999","V020","999,9,C,0000,1","99999,9,9,N","050000,1,N,1","+0038,1","+0038,1","10137,1",,,"01,1,+00510,1,99,9",,,,"99999,9,09799,1","2,1,006,1,+999,9","SYN076AAXX  21211 02151 45484 /0000 10038 20038 39799 40137 52006 333 81/17 88/45;",
"02151099999","2010-09-22T00:00:00","4","66.4833333","20.1666666","275.0","JOKKMOKK FPL, SW","FM-12","99999","V020","280,1,N,0010,1","00330,1,C,N","000800,1,N,1","+0028,1","+0028,1","10142,1","34,1","4,1,06,1","01,1,+00060,1,99,9","06,1,+00330,1,99,9",,,"99999,9,09802,1","2,1,003,1,+999,9","SYN088AAXX  22001 02151 47108 /2801 10028 20028 39802 40142 52003 73431 333 81/02 86/11 87/22;",
"02151099999","2010-09-22T03:00:00","4","66.4833333","20.1666666","275.0","JOKKMOKK FPL, SW","FM-12","99999","V020","290,1,N,0020,1","00030,1,C,N","000300,1,N,1","+0041,1","+0041,1","10137,1","32,1","4,1,03,1","07,1,+00030,1,99,9",,,,"99999,9,09800,1","7,1,003,1,+999,9","SYN082AAXX  22031 02151 47103 /2902 10041 20041 39800 40137 57003 73232 333 87/01 88/03;",
"02151099999","2010-09-22T06:00:00","4","66.4833333","20.1666666","275.0","JOKKMOKK FPL, SW","FM-12","99999","V020","050,1,N,0010,1","00090,1,C,N","000300,1,N,1","+0044,1","+0044,1","10140,1","34,1","4,1,06,1","09,1,+00090,1,99,9",,"120,M,+0050,1","999,N,+0018,1","99999,9,09802,1","2,1,002,1,+999,9","SYN088AAXX  22061 02151 47/03 /0501 10044 20044 39802 40140 52002 73433 333 10050 20018 89/03;",
"02151099999","2010-09-22T09:00:00","4","66.4833333","20.1666666","275.0","JOKKMOKK FPL, SW","FM-12","99999","V020","300,1,N,0010,1","00120,1,C,N","050000,1,N,1","+0060,1","+0060,1","10138,1","00,1","4,1,03,1","08,1,+00120,1,99,9",,,,"99999,9,09802,1","4,1,000,1,+999,9","SYN076AAXX  22091 02151 47284 /3001 10060 20060 39802 40138 54000 70032 333 88/04;",
"02151099999","2010-09-22T12:00:00","4","66.4833333","20.1666666","275.0","JOKKMOKK FPL, SW","FM-12","99999","V020","350,1,N,0010,1","99999,9,9,N","045000,1,N,1","+0100,1","+0049,1","10125,1","00,1","4,1,06,1",,,,,"99999,9,09795,1","8,1,008,1,+999,9","SYN066AAXX  22121 02151 47983 /3501 10100 20049 39795 40125 58008 70032;",
"02151099999","2010-09-22T15:00:00","4","66.4833333","20.1666666","275.0","JOKKMOKK FPL, SW","FM-12","99999","V020","150,1,N,0020,1","99999,9,9,N","050000,1,N,1","+0097,1","+0067,1","10119,1",,,"02,1,+01200,1,99,9",,,,"99999,9,09789,1","7,1,006,1,+999,9","SYN070AAXX  22151 02151 45684 /1502 10097 20067 39789 40119 57006 333 82/40;",
"02151099999","2010-09-22T18:00:00","4","66.4833333","20.1666666","275.0","JOKKMOKK FPL, SW","FM-12","99999","V020","150,1,N,0010,1","01230,1,C,N","050000,1,N,1","+0040,1","+0040,1","10124,1",,,"08,1,+01230,1,99,9",,"120,M,+0114,1","999,N,+0038,1","99999,9,09786,1","7,1,002,1,+999,9","SYN082AAXX  22181 02151 45684 /1501 10040 20040 39786 40124 57002 333 10114 20038 88/41;",
"02151099999","2010-09-22T21:00:00","4","66.4833333","20.1666666","275.0","JOKKMOKK FPL, SW","FM-12","99999","V020","160,1,N,0010,1","99999,9,9,N","050000,1,N,1","+0027,1","+0027,1","10117,1",,,,,,,"99999,9,09778,1","7,1,009,1,+999,9","SYN060AAXX  22211 02151 45984 /1601 10027 20027 39778 40117 57009;",
"02151099999","2010-09-23T00:00:00","4","66.4833333","20.1666666","275.0","JOKKMOKK FPL, SW","FM-12","99999","V020","999,9,C,0000,1","03600,1,C,N","050000,1,N,1","+0017,1","+0017,1","10102,1",,,"07,1,+03600,1,99,9",,,,"99999,9,09763,1","7,1,015,1,+999,9","SYN070AAXX  23001 02151 45984 /0000 10017 20017 39763 40102 57015 333 87/62;",
"02151099999","2010-09-23T03:00:00","4","66.4833333","20.1666666","275.0","JOKKMOKK FPL, SW","FM-12","99999","V020","120,1,N,0010,1","99999,9,9,N","012000,1,N,1","+0031,1","+0031,1","10085,1",,,,,,,"99999,9,09747,1","8,1,016,1,+999,9","SYN060AAXX  23031 02151 45962 /1201 10031 20031 39747 40085 58016;",
"02151099999","2010-09-23T06:00:00","4","66.4833333","20.1666666","275.0","JOKKMOKK FPL, SW","FM-12","99999","V020","120,1,N,0010,1","00300,1,C,N","014000,1,N,1","+0038,1","+0038,1","10060,1","61,1","6,1,06,1","09,1,+00300,1,99,9",,"120,M,+0043,1","999,N,+0016,1","99999,9,09725,1","7,1,023,1,+999,9","SYN088AAXX  23061 02151 47/64 /1201 10038 20038 39725 40060 57023 76165 333 10043 20016 89/10;",
"02151099999","2010-09-23T09:00:00","4","66.4833333","20.1666666","275.0","JOKKMOKK FPL, SW","FM-12","99999","V020","090,1,N,0020,1","00180,1,C,N","012000,1,N,1","+0053,1","+0053,1","10028,1","62,1","6,1,03,1","09,1,+00180,1,99,9",,,,"99999,9,09695,1","8,1,029,1,+999,9","SYN076AAXX  23091 02151 47/62 /0902 10053 20053 39695 40028 58029 76266 333 89/06;",
"02151099999","2010-09-23T12:00:00","4","66.4833333","20.1666666","275.0","JOKKMOKK FPL, SW","FM-12","99999","V020","050,1,N,0010,1","00210,1,C,N","007000,1,N,1","+0062,1","+0062,1","10010,1","62,1","6,1,06,1","09,1,+00210,1,99,9",,,,"99999,9,09679,1","6,1,017,1,+999,9","SYN076AAXX  23121 02151 47/57 /0501 10062 20062 39679 40010 56017 76266 333 89/07;",
"02151099999","2010-09-23T15:00:00","4","66.4833333","20.1666666","275.0","JOKKMOKK FPL, SW","FM-12","99999","V020","320,1,N,0040,1","00210,1,C,N","017000,1,N,1","+0058,1","+0058,1","10007,1","51,1","6,1,03,1","08,1,+00210,1,99,9",,,,"99999,9,09675,1","7,1,003,1,+999,9","SYN076AAXX  23151 02151 47367 /3204 10058 20058 39675 40007 57003 75165 333 88/07;",
"02151099999","2010-09-23T18:00:00","4","66.4833333","20.1666666","275.0","JOKKMOKK FPL, SW","FM-12","99999","V020","310,1,N,0040,1","00210,1,C,N","011000,1,N,1","+0028,1","+0028,1","10027,1","21,1","6,1,06,1","08,1,+00210,1,99,9",,"120,M,+0065,1","999,N,+0028,1","99999,9,09691,1","2,1,016,1,+999,9","SYN088AAXX  23181 02151 47361 /3104 10028 20028 39691 40027 52016 72165 333 10065 20028 88/07;",
"02151099999","2010-09-23T21:00:00","4","66.4833333","20.1666666","275.0","JOKKMOKK FPL, SW","FM-12","99999","V020","310,1,N,0040,1","99999,9,9,N","013000,1,N,1","+0029,1","+0029,1","10042,1",,,,,,,"99999,9,09706,1","3,1,015,1,+999,9","SYN060AAXX  23211 02151 45/63 /3104 10029 20029 39706 40042 53015;",
"02151099999","2010-09-24T00:00:00","4","66.4833333","20.1666666","275.0","JOKKMOKK FPL, SW","FM-12","99999","V020","320,1,N,0030,1","99999,9,9,N","050000,1,N,1","+0028,1","+0024,1","10057,1",,,"03,1,+00390,1,99,9",,,,"99999,9,09720,1","1,1,014,1,+999,9","SYN076AAXX  24001 02151 45484 /3203 10028 20024 39720 40057 51014 333 83/13 88/33;",
"02151099999","2010-09-24T03:00:00","4","66.4833333","20.1666666","275.0","JOKKMOKK FPL, SW","FM-12","99999","V020","350,1,N,0010,1","01500,1,C,N","050000,1,N,1","+0001,1","+0001,1","10066,1",,,"06,1,+01500,1,99,9",,,,"99999,9,09726,1","2,1,006,1,+999,9","SYN070AAXX  24031 02151 45784 /3501 10001 20001 39726 40066 52006 333 86/50;",
"02151099999","2010-09-24T06:00:00","4","66.4833333","20.1666666","275.0","JOKKMOKK FPL, SW","FM-12","99999","V020","280,1,N,0010,1","99999,9,9,N","050000,1,N,1","+0010,1","+0010,1","10074,1",,,,,"120,M,+0031,1","999,N,-0012,1","99999,9,09735,1","2,1,009,1,+999,9","SYN076AAXX  24061 02151 45984 /2801 10010 20010 39735 40074 52009 333 10031 21012;",
"02151099999","2010-09-24T09:00:00","4","66.4833333","20.1666666","275.0","JOKKMOKK FPL, SW","FM-12","99999","V020","300,1,N,0020,1","99999,9,9,N","050000,1,N,1","+0053,1","+0041,1","10078,1",,,,,,,"99999,9,09744,1","3,1,009,1,+999,9","SYN060AAXX  24091 02151 45984 /3002 10053 20041 39744 40078 53009;",
"02151099999","2010-09-24T12:00:00","4","66.4833333","20.1666666","275.0","JOKKMOKK FPL, SW","FM-12","99999","V020","020,1,N,0020,1","99999,9,9,N","035000,1,N,1","+0073,1","+0033,1","10073,1",,,"03,1,+00780,1,99,9",,,,"99999,9,09741,1","7,1,002,1,+999,9","SYN076AAXX  24121 02151 45581 /0202 10073 20033 39741 40073 57002 333 83/26 88/41;",
"02151099999","2010-09-24T15:00:00","4","66.4833333","20.1666666","275.0","JOKKMOKK FPL, SW","FM-12","99999","V020","290,1,N,0010,1","99999,9,9,N","050000,1,N,1","+0063,1","+0045,1","10079,1","00,1","8,1,03,1",,,,,"99999,9,09746,1","1,1,005,1,+999,9","SYN066AAXX  24151 02151 47984 /2901 10063 20045 39746 40079 51005 70086;",
"02151099999","2010-09-24T18:00:00","4","66.4833333","20.1666666","275.0","JOKKMOKK FPL, SW","FM-12","99999","V020","999,9,C,0000,1","99999,9,9,N","050000,1,N,1","+0027,1","+0027,1","10090,1","00,1","8,1,06,1",,,"120,M,+0079,1","999,N,+0010,1","99999,9,09753,1","2,1,006,1,+999,9","SYN082AAXX  24181 02151 47984 /0000 10027 20027 39753 40090 52006 70086 333 10079 20010;",
"02151099999","2010-09-24T21:00:00","4","66.4833333","20.1666666","275.0","JOKKMOKK FPL, SW","FM-12","99999","V020","300,1,N,0010,1","99999,9,9,N","050000,1,N,1","+0026,1","+0026,1","10100,1",,,,,,,"99999,9,09762,1","2,1,009,1,+999,9","SYN060AAXX  24211 02151 45984 /3001 10026 20026 39762 40100 52009;",
"02151099999","2010-09-25T00:00:00","4","66.4833333","20.1666666","275.0","JOKKMOKK FPL, SW","FM-12","99999","V020","290,1,N,0030,1","99999,9,9,N","050000,1,N,1","+0024,1","+0012,1","10106,1",,,,,,,"99999,9,09767,1","0,1,005,1,+999,9","SYN060AAXX  25001 02151 45984 /2903 10024 20012 39767 40106 50005;",
"02151099999","2010-09-25T03:00:00","4","66.4833333","20.1666666","275.0","JOKKMOKK FPL, SW","FM-12","99999","V020","320,1,N,0020,1","99999,9,9,N","050000,1,N,1","+0014,1","+0007,1","10114,1",,,,,,,"99999,9,09774,1","2,1,007,1,+999,9","SYN060AAXX  25031 02151 45984 /3202 10014 20007 39774 40114 52007;",
"02151099999","2010-09-25T06:00:00","4","66.4833333","20.1666666","275.0","JOKKMOKK FPL, SW","FM-12","99999","V020","310,1,N,0010,1","99999,9,9,N","050000,1,N,1","-0001,1","-0001,1","10125,1",,,,,"120,M,+0028,1","999,N,-0013,1","99999,9,09783,1","2,1,009,1,+999,9","SYN076AAXX  25061 02151 45984 /3101 11001 21001 39783 40125 52009 333 10028 21013;",
"02151099999","2010-09-25T09:00:00","4","66.4833333","20.1666666","275.0","JOKKMOKK FPL, SW","FM-12","99999","V020","320,1,N,0040,1","99999,9,9,N","050000,1,N,1","+0062,1","+0025,1","10123,1",,,,,,,"99999,9,09789,1","2,1,005,1,+999,9","SYN060AAXX  25091 02151 45984 /3204 10062 20025 39789 40123 52005;",
"02151099999","2010-09-25T12:00:00","4","66.4833333","20.1666666","275.0","JOKKMOKK FPL, SW","FM-12","99999","V020","340,1,N,0040,1","99999,9,9,N","045000,1,N,1","+0090,1","+0012,1","10127,1",,,"01,1,+01410,1,99,9",,,,"99999,9,09796,1","3,1,007,1,+999,9","SYN076AAXX  25121 02151 45683 /3404 10090 20012 39796 40127 53007 333 81/47 84/56;",
"02151099999","2010-09-25T15:00:00","4","66.4833333","20.1666666","275.0","JOKKMOKK FPL, SW","FM-12","99999","V020","320,1,N,0040,1","01500,1,C,N","050000,1,N,1","+0079,1","+0023,1","10141,1",,,"08,1,+01500,1,99,9",,,,"99999,9,09807,1","3,1,012,1,+999,9","SYN070AAXX  25151 02151 45784 /3204 10079 20023 39807 40141 53012 333 88/50;",
"02151099999","2010-09-25T18:00:00","4","66.4833333","20.1666666","275.0","JOKKMOKK FPL, SW","FM-12","99999","V020","320,1,N,0030,1","99999,9,9,N","050000,1,N,1","+0042,1","+0021,1","10163,1",,,,,"120,M,+0096,1","999,N,-0005,1","99999,9,09824,1","3,1,017,1,+999,9","SYN076AAXX  25181 02151 45984 /3203 10042 20021 39824 40163 53017 333 10096 21005;",
"02151099999","2010-09-25T21:00:00","4","66.4833333","20.1666666","275.0","JOKKMOKK FPL, SW","FM-12","99999","V020","300,1,N,0030,1","99999,9,9,N","050000,1,N,1","+0024,1","+0002,1","10184,1",,,,,,,"99999,9,09843,1","2,1,018,1,+999,9","SYN060AAXX  25211 02151 45984 /3003 10024 20002 39843 40184 52018;",
"02151099999","2010-09-26T00:00:00","4","66.4833333","20.1666666","275.0","JOKKMOKK FPL, SW","FM-12","99999","V020","290,1,N,0010,1","99999,9,9,N","050000,1,N,1","-0009,1","-0020,1","10203,1",,,,,,,"99999,9,09857,1","1,1,015,1,+999,9","SYN060AAXX  26001 02151 45984 /2901 11009 21020 39857 40203 51015;",
"02151099999","2010-09-26T03:00:00","4","66.4833333","20.1666666","275.0","JOKKMOKK FPL, SW","FM-12","99999","V020","280,1,N,0010,1","99999,9,9,N","050000,1,N,1","-0008,1","-0016,1","10213,1",,,,,,,"99999,9,09867,1","2,1,010,1,+999,9","SYN060AAXX  26031 02151 45984 /2801 11008 21016 39867 40213 52010;",
"02151099999","2010-09-26T06:00:00","4","66.4833333","20.1666666","275.0","JOKKMOKK FPL, SW","FM-12","99999","V020","999,9,C,0000,1","99999,9,9,N","050000,1,N,1","-0007,1","-0014,1","10223,1",,,,,"120,M,+0042,1","999,N,-0023,1","99999,9,09877,1","2,1,010,1,+999,9","SYN076AAXX  26061 02151 45984 /0000 11007 21014 39877 40223 52010 333 10042 21023;",
"02151099999","2010-09-26T09:00:00","4","66.4833333","20.1666666","275.0","JOKKMOKK FPL, SW","FM-12","99999","V020","310,1,N,0020,1","99999,9,9,N","050000,1,N,1","+0049,1","+0011,1","10229,1",,,,,,,"99999,9,09890,1","2,1,013,1,+999,9","SYN060AAXX  26091 02151 45984 /3102 10049 20011 39890 40229 52013;",
"02151099999","2010-09-26T12:00:00","4","66.4833333","20.1666666","275.0","JOKKMOKK FPL, SW","FM-12","99999","V020","320,1,N,0020,1","99999,9,9,N","050000,1,N,1","+0076,1","-0002,1","10230,1",,,,,,,"99999,9,09894,1","2,1,004,1,+999,9","SYN060AAXX  26121 02151 45984 /3202 10076 21002 39894 40230 52004;",
"02151099999","2010-09-26T15:00:00","4","66.4833333","20.1666666","275.0","JOKKMOKK FPL, SW","FM-12","99999","V020","320,1,N,0020,1","99999,9,9,N","050000,1,N,1","+0077,1","-0002,1","10230,1",,,,,,,"99999,9,09894,1","5,1,000,1,+999,9","SYN060AAXX  26151 02151 45984 /3202 10077 21002 39894 40230 55000;",
"02151099999","2010-09-26T18:00:00","4","66.4833333","20.1666666","275.0","JOKKMOKK FPL, SW","FM-12","99999","V020","999,9,C,0000,1","99999,9,9,N","050000,1,N,1","-0013,1","-0017,1","10246,1",,,,,"120,M,+0090,1","999,N,-0015,1","99999,9,09898,1","2,1,004,1,+999,9","SYN076AAXX  26181 02151 45984 /0000 11013 21017 39898 40246 52004 333 10090 21015;",
"02151099999","2010-09-26T21:00:00","4","66.4833333","20.1666666","275.0","JOKKMOKK FPL, SW","FM-12","99999","V020","999,9,C,0000,1","99999,9,9,N","050000,1,N,1","-0024,1","-0024,1","10258,1",,,,,,,"99999,9,09908,1","2,1,010,1,+999,9","SYN060AAXX  26211 02151 45984 /0000 11024 21024 39908 40258 52010;",
"02151099999","2010-09-27T00:00:00","4","66.4833333","20.1666666","275.0","JOKKMOKK FPL, SW","FM-12","99999","V020","260,1,N,0010,1","99999,9,9,N","050000,1,N,1","-0023,1","-0025,1","10261,1",,,,,,,"99999,9,09912,1","0,1,004,1,+999,9","SYN060AAXX  27001 02151 45984 /2601 11023 21025 39912 40261 50004;",
"02151099999","2010-09-27T03:00:00","4","66.4833333","20.1666666","275.0","JOKKMOKK FPL, SW","FM-12","99999","V020","999,9,C,0000,1","05100,1,C,N","050000,1,N,1","-0014,1","-0014,1","10260,1",,,"07,1,+05100,1,99,9",,,,"99999,9,09911,1","4,1,000,1,+999,9","SYN070AAXX  27031 02151 45984 /0000 11014 21014 39911 40260 54001 333 87/67;",
"02151099999","2010-09-27T06:00:00","4","66.4833333","20.1666666","275.0","JOKKMOKK FPL, SW","FM-12","99999","V020","230,1,N,0010,1","04800,1,C,N","050000,1,N,1","-0017,1","-0017,1","10266,1",,,"07,1,+04800,1,99,9",,"120,M,-0002,1","999,N,-0034,1","99999,9,09917,1","2,1,006,1,+999,9","SYN082AAXX  27061 02151 45984 /2301 11017 21017 39917 40266 52006 333 11002 21034 87/66;",
"02151099999","2010-09-27T09:00:00","4","66.4833333","20.1666666","275.0","JOKKMOKK FPL, SW","FM-12","99999","V020","310,1,N,0020,1","99999,9,9,N","050000,1,N,1","+0061,1","+0027,1","10261,1",,,,,,,"99999,9,09922,1","2,1,005,1,+999,9","SYN060AAXX  27091 02151 45984 /3102 10061 20027 39922 40261 52005;",
"02151099999","2010-09-27T12:00:00","4","66.4833333","20.1666666","275.0","JOKKMOKK FPL, SW","FM-12","99999","V020","320,1,N,0030,1","99999,9,9,N","040000,1,N,1","+0088,1","+0016,1","10255,1",,,,,,,"99999,9,09920,1","7,1,003,1,+999,9","SYN060AAXX  27121 02151 45982 /3203 10088 20016 39920 40255 57003;",
"02151099999","2010-09-27T15:00:00","4","66.4833333","20.1666666","275.0","JOKKMOKK FPL, SW","FM-12","99999","V020","290,1,N,0020,1","99999,9,9,N","050000,1,N,1","+0093,1","+0026,1","10247,1",,,,,,,"99999,9,09912,1","7,1,007,1,+999,9","SYN060AAXX  27151 02151 45984 /2902 10093 20026 39912 40247 57007;",
"02151099999","2010-09-27T18:00:00","4","66.4833333","20.1666666","275.0","JOKKMOKK FPL, SW","FM-12","99999","V020","260,1,N,0010,1","99999,9,9,N","050000,1,N,1","+0012,1","+0008,1","10257,1",,,,,"120,M,+0098,1","999,N,-0017,1","99999,9,09912,1","5,1,000,1,+999,9","SYN076AAXX  27181 02151 45984 /2601 10012 20008 39912 40257 55000 333 10098 21017;",
"02151099999","2010-09-27T21:00:00","4","66.4833333","20.1666666","275.0","JOKKMOKK FPL, SW","FM-12","99999","V020","290,1,N,0020,1","99999,9,9,N","050000,1,N,1","+0016,1","+0005,1","10259,1",,,,,,,"99999,9,09914,1","2,1,002,1,+999,9","SYN060AAXX  27211 02151 45984 /2902 10016 20005 39914 40259 52002;",
"02151099999","2010-09-28T00:00:00","4","66.4833333","20.1666666","275.0","JOKKMOKK FPL, SW","FM-12","99999","V020","100,1,N,0010,1","02400,1,C,N","050000,1,N,1","+0009,1","+0009,1","10256,1",,,"08,1,+02400,1,99,9",,,,"99999,9,09910,1","7,1,004,1,+999,9","SYN070AAXX  28001 02151 45984 /1001 10009 20009 39910 40256 57004 333 88/58;",
"02151099999","2010-09-28T03:00:00","4","66.4833333","20.1666666","275.0","JOKKMOKK FPL, SW","FM-12","99999","V020","340,1,N,0010,1","02400,1,C,N","050000,1,N,1","+0024,1","+0019,1","10250,1",,,"08,1,+02400,1,99,9",,,,"99999,9,09907,1","5,1,003,1,+999,9","SYN070AAXX  28031 02151 45884 /3401 10024 20019 39907 40250 55003 333 88/58;",
"02151099999","2010-09-28T06:00:00","4","66.4833333","20.1666666","275.0","JOKKMOKK FPL, SW","FM-12","99999","V020","999,9,C,0000,1","02100,1,C,N","050000,1,N,1","+0037,1","+0030,1","10246,1",,,"08,1,+02100,1,99,9",,"120,M,+0043,1","999,N,-0012,1","99999,9,09904,1","5,1,003,1,+999,9","SYN082AAXX  28061 02151 45884 /0000 10037 20030 39904 40246 55003 333 10043 21012 88/57;",
"02151099999","2010-09-28T09:00:00","4","66.4833333","20.1666666","275.0","JOKKMOKK FPL, SW","FM-12","99999","V020","330,1,N,0020,1","99999,9,9,N","045000,1,N,1","+0085,1","+0040,1","10243,1",,,,,,,"99999,9,09907,1","2,1,003,1,+999,9","SYN060AAXX  28091 02151 45983 /3302 10085 20040 39907 40243 52003;",
"02151099999","2010-09-28T12:00:00","4","66.4833333","20.1666666","275.0","JOKKMOKK FPL, SW","FM-12","99999","V020","290,1,N,0010,1","99999,9,9,N","050000,1,N,1","+0111,1","+0044,1","10235,1",,,,,,,"99999,9,09902,1","7,1,005,1,+999,9","SYN060AAXX  28121 02151 45984 /2901 10111 20044 39902 40235 57005;",
"02151099999","2010-09-28T15:00:00","4","66.4833333","20.1666666","275.0","JOKKMOKK FPL, SW","FM-12","99999","V020","999,9,C,0000,1","99999,9,9,N","050000,1,N,1","+0104,1","+0046,1","10228,1",,,,,,,"99999,9,09894,1","7,1,008,1,+999,9","SYN060AAXX  28151 02151 45984 /0000 10104 20046 39894 40228 57008;",
"02151099999","2010-09-28T18:00:00","4","66.4833333","20.1666666","275.0","JOKKMOKK FPL, SW","FM-12","99999","V020","999,9,C,0000,1","99999,9,9,N","050000,1,N,1","+0030,1","+0026,1","10234,1",,,"03,1,+05700,1,99,9",,"120,M,+0127,1","999,N,+0031,1","99999,9,09892,1","7,1,002,1,+999,9","SYN082AAXX  28181 02151 45984 /0000 10030 20026 39892 40234 57002 333 10127 20031 83/69;",
"02151099999","2010-09-28T21:00:00","4","66.4833333","20.1666666","275.0","JOKKMOKK FPL, SW","FM-12","99999","V020","999,9,C,0000,1","99999,9,9,N","050000,1,N,1","+0025,1","+0024,1","10241,1",,,"03,1,+02700,1,99,9",,,,"99999,9,09898,1","2,1,005,1,+999,9","SYN070AAXX  28211 02151 45984 /0000 10025 20024 39898 40241 52005 333 83/59;",
"02151099999","2010-09-29T00:00:00","4","66.4833333","20.1666666","275.0","JOKKMOKK FPL, SW","FM-12","99999","V020","999,9,C,0000,1","02700,1,C,N","050000,1,N,1","+0016,1","+0016,1","10242,1",,,"07,1,+02700,1,99,9",,,,"99999,9,09898,1","0,1,001,1,+999,9","SYN070AAXX  29001 02151 45984 /0000 10016 20016 39898 40242 50001 333 87/59;",
"02151099999","2010-09-29T03:00:00","4","66.4833333","20.1666666","275.0","JOKKMOKK FPL, SW","FM-12","99999","V020","999,9,C,0000,1","99999,9,9,N","050000,1,N,1","+0003,1","+0003,1","10235,1",,,"02,1,+03000,1,99,9",,,,"99999,9,09890,1","7,1,008,1,+999,9","SYN076AAXX  29031 02151 45984 /0000 10003 20003 39890 40235 57008 333 82/60 88/63;",
"02151099999","2010-09-29T06:00:00","4","66.4833333","20.1666666","275.0","JOKKMOKK FPL, SW","FM-12","99999","V020","999,9,C,0000,1","99999,9,9,N","045000,1,N,1","-0010,1","-0010,1","10238,1",,,,,"120,M,+0038,1","999,N,-0015,1","99999,9,09891,1","5,1,001,1,+999,9","SYN076AAXX  29061 02151 45983 /0000 11010 21010 39891 40238 55001 333 10038 21015;",
"02151099999","2010-09-29T09:00:00","4","66.4833333","20.1666666","275.0","JOKKMOKK FPL, SW","FM-12","99999","V020","290,1,N,0020,1","99999,9,9,N","040000,1,N,1","+0069,1","+0038,1","10228,1",,,,,,,"99999,9,09891,1","4,1,000,1,+999,9","SYN060AAXX  29091 02151 45982 /2902 10069 20038 39891 40228 54001;",
"02151099999","2010-09-29T12:00:00","4","66.4833333","20.1666666","275.0","JOKKMOKK FPL, SW","FM-12","99999","V020","310,1,N,0010,1","99999,9,9,N","040000,1,N,1","+0108,1","+0047,1","10221,1",,,,,,,"99999,9,09888,1","8,1,003,1,+999,9","SYN060AAXX  29121 02151 45982 /3101 10108 20047 39888 40221 58003;",
"02151099999","2010-09-29T15:00:00","4","66.4833333","20.1666666","275.0","JOKKMOKK FPL, SW","FM-12","99999","V020","999,9,C,0000,1","99999,9,9,N","050000,1,N,1","+0094,1","+0054,1","10220,1",,,,,,,"99999,9,09886,1","7,1,002,1,+999,9","SYN060AAXX  29151 02151 45984 /0000 10094 20054 39886 40220 57002;",
"02151099999","2010-09-29T18:00:00","4","66.4833333","20.1666666","275.0","JOKKMOKK FPL, SW","FM-12","99999","V020","999,9,C,0000,1","99999,9,9,N","050000,1,N,1","+0023,1","+0021,1","10230,1",,,,,"120,M,+0132,1","999,N,-0010,1","99999,9,09887,1","3,1,001,1,+999,9","SYN076AAXX  29181 02151 45984 /0000 10023 20021 39887 40230 53001 333 10132 21010;",
"02151099999","2010-09-29T21:00:00","4","66.4833333","20.1666666","275.0","JOKKMOKK FPL, SW","FM-12","99999","V020","999,9,C,0000,1","99999,9,9,N","050000,1,N,1","-0005,1","-0005,1","10237,1",,,,,,,"99999,9,09890,1","2,1,003,1,+999,9","SYN060AAXX  29211 02151 45984 /0000 11005 21005 39890 40237 52003;",
"02151099999","2010-09-30T00:00:00","4","66.4833333","20.1666666","275.0","JOKKMOKK FPL, SW","FM-12","99999","V020","999,9,C,0000,1","99999,9,9,N","050000,1,N,1","-0011,1","-0011,1","10239,1",,,,,,,"99999,9,09891,1","4,1,000,1,+999,9","SYN060AAXX  30001 02151 45984 /0000 11011 21011 39891 40239 54001;",
"02151099999","2010-09-30T03:00:00","4","66.4833333","20.1666666","275.0","JOKKMOKK FPL, SW","FM-12","99999","V020","999,9,C,0000,1","99999,9,9,N","050000,1,N,1","-0018,1","-0018,1","10241,1",,,,,,,"99999,9,09893,1","2,1,002,1,+999,9","SYN060AAXX  30031 02151 45984 /0000 11018 21018 39893 40241 52002;",
"02151099999","2010-09-30T06:00:00","4","66.4833333","20.1666666","275.0","JOKKMOKK FPL, SW","FM-12","99999","V020","999,9,C,0000,1","99999,9,9,N","050000,1,N,1","-0002,1","-0002,1","10241,1",,,,,"120,M,+0024,1","999,N,-0019,1","99999,9,09895,1","2,1,002,1,+999,9","SYN076AAXX  30061 02151 45984 /0000 11002 21002 39895 40241 52002 333 10024 21019;",
"02151099999","2010-09-30T09:00:00","4","66.4833333","20.1666666","275.0","JOKKMOKK FPL, SW","FM-12","99999","V020","310,1,N,0020,1","99999,9,9,N","035000,1,N,1","+0063,1","+0032,1","10237,1",,,,,,,"99999,9,09898,1","2,1,004,1,+999,9","SYN060AAXX  30091 02151 45981 /3102 10063 20032 39898 40237 52004;",
"02151099999","2010-09-30T12:00:00","4","66.4833333","20.1666666","275.0","JOKKMOKK FPL, SW","FM-12","99999","V020","330,1,N,0010,1","99999,9,9,N","040000,1,N,1","+0104,1","+0041,1","10224,1",,,,,,,"99999,9,09891,1","7,1,008,1,+999,9","SYN060AAXX  30121 02151 45982 /3301 10104 20041 39891 40224 57008;",
"02151099999","2010-09-30T15:00:00","4","66.4833333","20.1666666","275.0","JOKKMOKK FPL, SW","FM-12","99999","V020","999,9,C,0000,1","99999,9,9,N","050000,1,N,1","+0080,1","+0048,1","10225,1",,,,,,,"99999,9,09889,1","7,1,001,1,+999,9","SYN060AAXX  30151 02151 45984 /0000 10080 20048 39889 40225 57001;",
"02151099999","2010-09-30T18:00:00","4","66.4833333","20.1666666","275.0","JOKKMOKK FPL, SW","FM-12","99999","V020","999,9,C,0000,1","99999,9,9,N","035000,1,N,1","+0020,1","+0020,1","10236,1",,,,,"120,M,+0119,1","999,N,-0002,1","99999,9,09892,1","2,1,003,1,+999,9","SYN076AAXX  30181 02151 45981 /0000 10020 20020 39892 40236 52003 333 10119 21002;",
"02151099999","2010-09-30T21:00:00","4","66.4833333","20.1666666","275.0","JOKKMOKK FPL, SW","FM-12","99999","V020","999,9,C,0000,1","99999,9,9,N","035000,1,N,1","+0005,1","+0005,1","10245,1",,,,,,,"99999,9,09900,1","2,1,008,1,+999,9","SYN060AAXX  30211 02151 45981 /0000 10005 20005 39900 40245 52008;",
"02151099999","2010-10-01T00:00:00","4","66.4833333","20.1666666","275.0","JOKKMOKK FPL, SW","FM-12","99999","V020","999,9,C,0000,1","99999,9,9,N","045000,1,N,1","-0023,1","-0023,1","10255,1",,,,,,,"99999,9,09906,1","2,1,006,1,+999,9","SYN060AAXX  01001 02151 45983 /0000 11023 21023 39906 40255 52006;",
"02151099999","2010-10-01T03:00:00","4","66.4833333","20.1666666","275.0","JOKKMOKK FPL, SW","FM-12","99999","V020","270,1,N,0010,1","06300,1,C,N","050000,1,N,1","-0018,1","-0018,1","10253,1","00,1","4,1,03,1","08,1,+06300,1,99,9",,,,"99999,9,09905,1","5,1,001,1,+999,9","SYN076AAXX  01031 02151 47984 /2701 11018 21018 39905 40253 55001 70032 333 88/71;",
"02151099999","2010-10-01T06:00:00","4","66.4833333","20.1666666","275.0","JOKKMOKK FPL, SW","FM-12","99999","V020","999,9,C,0000,1","99999,9,9,N","045000,1,N,1","-0021,1","-0021,1","10260,1","20,1","4,1,06,1",,,"120,M,+0020,1","999,N,-0037,1","99999,9,09911,1","2,1,006,1,+999,9","SYN082AAXX  01061 02151 47983 /0000 11021 21021 39911 40260 52006 72032 333 10020 21037;",
"02151099999","2010-10-01T09:00:00","4","66.4833333","20.1666666","275.0","JOKKMOKK FPL, SW","FM-12","99999","V020","999,9,C,0000,1","99999,9,9,N","045000,1,N,1","+0040,1","+0030,1","10255,1",,,,,,,"99999,9,09913,1","2,1,002,1,+999,9","SYN060AAXX  01091 02151 45983 /0000 10040 20030 39913 40255 52002;",
"02151099999","2010-10-01T12:00:00","4","66.4833333","20.1666666","275.0","JOKKMOKK FPL, SW","FM-12","99999","V020","100,1,N,0020,1","99999,9,9,N","050000,1,N,1","+0085,1","+0044,1","10244,1",,,,,,,"99999,9,09908,1","7,1,005,1,+999,9","SYN060AAXX  01121 02151 45984 /1002 10085 20044 39908 40244 57005;",
"02151099999","2010-10-01T15:00:00","4","66.4833333","20.1666666","275.0","JOKKMOKK FPL, SW","FM-12","99999","V020","150,1,N,0020,1","99999,9,9,N","050000,1,N,1","+0068,1","+0035,1","10243,1",,,,,,,"99999,9,09905,1","7,1,004,1,+999,9","SYN060AAXX  01151 02151 45984 /1502 10068 20035 39905 40243 57004;",
"02151099999","2010-10-01T18:00:00","4","66.4833333","20.1666666","275.0","JOKKMOKK FPL, SW","FM-12","99999","V020","140,1,N,0020,1","99999,9,9,N","050000,1,N,1","+0013,1","+0013,1","10251,1",,,,,"120,M,+0092,1","999,N,-0021,1","99999,9,09906,1","2,1,002,1,+999,9","SYN076AAXX  01181 02151 45984 /1402 10013 20013 39906 40251 52002 333 10092 21021;",
"02151099999","2010-10-01T21:00:00","4","66.4833333","20.1666666","275.0","JOKKMOKK FPL, SW","FM-12","99999","V020","150,1,N,0010,1","99999,9,9,N","027000,1,N,1","-0019,1","-0019,1","10260,1",,,,,,,"99999,9,09910,1","2,1,004,1,+999,9","SYN060AAXX  01211 02151 45977 /1501 11019 21019 39910 40260 52004;",
"02151099999","2010-10-02T00:00:00","4","66.4833333","20.1666666","275.0","JOKKMOKK FPL, SW","FM-12","99999","V020","150,1,N,0010,1","00240,1,C,N","013000,1,N,1","+0005,1","+0005,1","10253,1",,,"08,1,+00240,1,99,9",,,,"99999,9,09908,1","7,1,003,1,+999,9","SYN070AAXX  02001 02151 45363 /1501 10005 20005 39908 40253 57003 333 88/08;",
"02151099999","2010-10-02T03:00:00","4","66.4833333","20.1666666","275.0","JOKKMOKK FPL, SW","FM-12","99999","V020","180,1,N,0020,1","00120,1,C,N","028000,1,N,1","+0022,1","+0022,1","10246,1",,,"08,1,+00120,1,99,9",,,,"99999,9,09902,1","7,1,006,1,+999,9","SYN070AAXX  02031 02151 45278 /1802 10022 20022 39902 40246 57006 333 88/04;",
"02151099999","2010-10-02T06:00:00","4","66.4833333","20.1666666","275.0","JOKKMOKK FPL, SW","FM-12","99999","V020","190,1,N,0010,1","00150,1,C,N","018000,1,N,1","+0016,1","+0016,1","10245,1",,,"08,1,+00150,1,99,9",,"120,M,+0026,1","999,N,-0027,1","99999,9,09901,1","7,1,001,1,+999,9","SYN082AAXX  02061 02151 45268 /1901 10016 20016 39901 40245 57001 333 10026 21027 88/05;",
"02151099999","2010-10-02T09:00:00","4","66.4833333","20.1666666","275.0","JOKKMOKK FPL, SW","FM-12","99999","V020","170,1,N,0020,1","00240,1,C,N","045000,1,N,1","+0036,1","+0031,1","10243,1",,,"08,1,+00240,1,99,9",,,,"99999,9,09901,1","4,1,000,1,+999,9","SYN070AAXX  02091 02151 45383 /1702 10036 20031 39901 40243 54000 333 88/08;",
"02151099999","2010-10-02T12:00:00","4","66.4833333","20.1666666","275.0","JOKKMOKK FPL, SW","FM-12","99999","V020","170,1,N,0020,1","00360,1,C,N","050000,1,N,1","+0051,1","+0039,1","10236,1",,,"06,1,+00360,1,99,9",,,,"99999,9,09897,1","8,1,004,1,+999,9","SYN076AAXX  02121 02151 45484 /1702 10051 20039 39897 40236 58004 333 86/12 88/16;",
"02151099999","2010-10-02T15:00:00","4","66.4833333","20.1666666","275.0","JOKKMOKK FPL, SW","FM-12","99999","V020","130,1,N,0020,1","00810,1,C,N","050000,1,N,1","+0059,1","+0037,1","10229,1",,,"08,1,+00810,1,99,9",,,,"99999,9,09890,1","7,1,006,1,+999,9","SYN070AAXX  02151 02151 45584 /1302 10059 20037 39890 40229 57006 333 88/27;",
"02151099999","2010-10-02T18:00:00","4","66.4833333","20.1666666","275.0","JOKKMOKK FPL, SW","FM-12","99999","V020","140,1,N,0010,1","99999,9,9,N","024000,1,N,1","+0019,1","+0019,1","10231,1",,,,,"120,M,+0062,1","999,N,+0016,1","99999,9,09887,1","7,1,003,1,+999,9","SYN076AAXX  02181 02151 45974 /1401 10019 20019 39887 40231 57003 333 10062 20016;",
"02151099999","2010-10-02T21:00:00","4","66.4833333","20.1666666","275.0","JOKKMOKK FPL, SW","FM-12","99999","V020","150,1,N,0020,1","00060,1,C,N","006000,1,N,1","+0017,1","+0017,1","10226,1","10,1","2,1,03,1","07,1,+00060,1,99,9",,,,"99999,9,09883,1","8,1,005,1,+999,9","SYN082AAXX  02211 02151 47156 /1502 10017 20017 39883 40226 58005 71010 333 87/02 88/33;",
"02151099999","2010-10-03T00:00:00","4","66.4833333","20.1666666","275.0","JOKKMOKK FPL, SW","FM-12","99999","V020","150,1,N,0010,1","99999,9,9,N","011000,1,N,1","-0004,1","-0004,1","10223,1","10,1","2,1,06,1","03,1,+00870,1,99,9",,,,"99999,9,09877,1","7,1,006,1,+999,9","SYN076AAXX  03001 02151 47561 /1501 11004 21004 39877 40223 57006 71010 333 83/29;",
"02151099999","2010-10-03T03:00:00","4","66.4833333","20.1666666","275.0","JOKKMOKK FPL, SW","FM-12","99999","V020","999,9,C,0000,1","00810,1,C,N","011000,1,N,1","-0014,1","-0014,1","10222,1",,,"06,1,+00810,1,99,9",,,,"99999,9,09875,1","5,1,002,1,+999,9","SYN070AAXX  03031 02151 45561 /0000 11014 21014 39875 40222 55002 333 86/27;",
"02151099999","2010-10-03T06:00:00","4","66.4833333","20.1666666","275.0","JOKKMOKK FPL, SW","FM-12","99999","V020","150,1,N,0020,1","99999,9,9,N","029000,1,N,1","+0000,1","+0000,1","10222,1",,,,,"120,M,+0020,1","999,N,-0024,1","99999,9,09877,1","2,1,002,1,+999,9","SYN076AAXX  03061 02151 45979 /1502 10000 20000 39877 40222 52002 333 10020 21024;",
"02151099999","2010-10-03T09:00:00","4","66.4833333","20.1666666","275.0","JOKKMOKK FPL, SW","FM-12","99999","V020","140,1,N,0040,1","00810,1,C,N","045000,1,N,1","+0034,1","+0030,1","10219,1",,,"07,1,+00810,1,99,9",,,,"99999,9,09878,1","4,1,000,1,+999,9","SYN070AAXX  03091 02151 45583 /1404 10034 20030 39878 40219 54001 333 87/27;",
"02151099999","2010-10-03T12:00:00","4","66.4833333","20.1666666","275.0","JOKKMOKK FPL, SW","FM-12","99999","V020","190,1,N,0040,1","00780,1,C,N","045000,1,N,1","+0082,1","+0044,1","10206,1",,,"06,1,+00780,1,99,9",,,,"99999,9,09871,1","7,1,006,1,+999,9","SYN070AAXX  03121 02151 45583 /1904 10082 20044 39871 40206 57006 333 86/26;",
"02151099999","2010-10-03T15:00:00","4","66.4833333","20.1666666","275.0","JOKKMOKK FPL, SW","FM-12","99999","V020","150,1,N,0020,1","99999,9,9,N","050000,1,N,1","+0070,1","+0039,1","10193,1",,,,,,,"99999,9,09857,1","8,1,014,1,+999,9","SYN060AAXX  03151 02151 45984 /1502 10070 20039 39857 40193 58014;",
"02151099999","2010-10-03T18:00:00","4","66.4833333","20.1666666","275.0","JOKKMOKK FPL, SW","FM-12","99999","V020","160,1,N,0030,1","99999,9,9,N","050000,1,N,1","+0059,1","+0044,1","10187,1",,,,,"120,M,+0092,1","999,N,-0002,1","99999,9,09850,1","6,1,007,1,+999,9","SYN076AAXX  03181 02151 45984 /1603 10059 20044 39850 40187 56007 333 10092 21002;",
"02151099999","2010-10-03T21:00:00","4","66.4833333","20.1666666","275.0","JOKKMOKK FPL, SW","FM-12","99999","V020","150,1,N,0040,1","00990,1,C,N","050000,1,N,1","+0074,1","+0041,1","10178,1",,,"08,1,+00990,1,99,9",,,,"99999,9,09843,1","8,1,007,1,+999,9","SYN070AAXX  03211 02151 45584 /1504 10074 20041 39843 40178 58007 333 88/33;",
"02151099999","2010-10-04T00:00:00","4","66.4833333","20.1666666","275.0","JOKKMOKK FPL, SW","FM-12","99999","V020","150,1,N,0040,1","00780,1,C,N","050000,1,N,1","+0079,1","+0053,1","10160,1",,,"08,1,+00780,1,99,9",,,,"99999,9,09826,1","8,1,017,1,+999,9","SYN070AAXX  04001 02151 45584 /1504 10079 20053 39826 40160 58017 333 88/26;",
"02151099999","2010-10-04T03:00:00","4","66.4833333","20.1666666","275.0","JOKKMOKK FPL, SW","FM-12","99999","V020","130,1,N,0020,1","99999,9,9,N","045000,1,N,1","+0066,1","+0053,1","10148,1",,,"02,1,+00750,1,99,9",,,,"99999,9,09813,1","8,1,013,1,+999,9","SYN070AAXX  04031 02151 45583 /1302 10066 20053 39813 40148 58013 333 82/25;",
"02151099999","2010-10-04T06:00:00","4","66.4833333","20.1666666","275.0","JOKKMOKK FPL, SW","FM-12","99999","V020","170,1,N,0030,1","99999,9,9,N","050000,1,N,1","+0080,1","+0055,1","10139,1",,,"03,1,+00750,1,99,9",,"120,M,+0082,1","999,N,+0048,1","99999,9,09806,1","5,1,007,1,+999,9","SYN082AAXX  04061 02151 45584 /1703 10080 20055 39806 40139 55007 333 10082 20048 83/25;",
"02151099999","2010-10-04T09:00:00","4","66.4833333","20.1666666","275.0","JOKKMOKK FPL, SW","FM-12","99999","V020","180,1,N,0050,1","99999,9,9,N","050000,1,N,1","+0095,1","+0056,1","10136,1",,,"01,1,+00840,1,99,9",,,,"99999,9,09805,1","0,1,000,1,+999,9","SYN076AAXX  04091 02151 45584 /1805 10095 20056 39805 40136 50000 333 81/28 88/60;",
"02151099999","2010-10-04T12:00:00","4","66.4833333","20.1666666","275.0","JOKKMOKK FPL, SW","FM-12","99999","V020","180,1,N,0050,1","99999,9,9,N","045000,1,N,1","+0115,1","+0057,1","10128,1",,,,,,,"99999,9,09799,1","7,1,006,1,+999,9","SYN060AAXX  04121 02151 45983 /1805 10115 20057 39799 40128 57006;",
"02151099999","2010-10-04T15:00:00","4","66.4833333","20.1666666","275.0","JOKKMOKK FPL, SW","FM-12","99999","V020","170,1,N,0050,1","03000,1,C,N","050000,1,N,1","+0106,1","+0062,1","10121,1",,,"08,1,+03000,1,99,9",,,,"99999,9,09792,1","7,1,007,1,+999,9","SYN070AAXX  04151 02151 45984 /1705 10106 20062 39792 40121 57007 333 88/60;",
"02151099999","2010-10-04T18:00:00","4","66.4833333","20.1666666","275.0","JOKKMOKK FPL, SW","FM-12","99999","V020","160,1,N,0040,1","99999,9,9,N","045000,1,N,1","+0093,1","+0058,1","10129,1",,,"03,1,+00900,1,99,9",,"120,M,+0119,1","999,N,+0079,1","99999,9,09797,1","2,1,006,1,+999,9","SYN088AAXX  04181 02151 45583 /1604 10093 20058 39797 40129 52006 333 10119 20079 83/30 86/59;",
"02151099999","2010-10-04T21:00:00","4","66.4833333","20.1666666","275.0","JOKKMOKK FPL, SW","FM-12","99999","V020","160,1,N,0040,1","00780,1,C,N","050000,1,N,1","+0093,1","+0061,1","10129,1",,,"08,1,+00780,1,99,9",,,,"99999,9,09797,1","4,1,000,1,+999,9","SYN070AAXX  04211 02151 45584 /1604 10093 20061 39797 40129 54000 333 88/26;",
"02151099999","2010-10-05T00:00:00","4","66.4833333","20.1666666","275.0","JOKKMOKK FPL, SW","FM-12","99999","V020","160,1,N,0040,1","00630,1,C,N","045000,1,N,1","+0093,1","+0069,1","10121,1",,,"08,1,+00630,1,99,9",,,,"99999,9,09790,1","7,1,007,1,+999,9","SYN070AAXX  05001 02151 45583 /1604 10093 20069 39790 40121 57007 333 88/21;",
"02151099999","2010-10-05T03:00:00","4","66.4833333","20.1666666","275.0","JOKKMOKK FPL, SW","FM-12","99999","V020","150,1,N,0030,1","00600,1,C,N","045000,1,N,1","+0096,1","+0073,1","10122,1",,,"08,1,+00600,1,99,9",,,,"99999,9,09791,1","2,1,001,1,+999,9","SYN070AAXX  05031 02151 45583 /1503 10096 20073 39791 40122 52001 333 88/20;",
"02151099999","2010-10-05T06:00:00","4","66.4833333","20.1666666","275.0","JOKKMOKK FPL, SW","FM-12","99999","V020","140,1,N,0030,1","00600,1,C,N","030000,1,N,1","+0088,1","+0072,1","10123,1",,,"08,1,+00600,1,99,9",,"120,M,+0098,1","999,N,+0088,1","99999,9,09791,1","5,1,000,1,+999,9","SYN082AAXX  05061 02151 45580 /1403 10088 20072 39791 40123 55000 333 10098 20088 88/20;",
"02151099999","2010-10-05T09:00:00","4","66.4833333","20.1666666","275.0","JOKKMOKK FPL, SW","FM-12","99999","V020","150,1,N,0040,1","00510,1,C,N","027000,1,N,1","+0093,1","+0074,1","10131,1",,,"08,1,+00510,1,99,9",,,,"99999,9,09799,1","0,1,008,1,+999,9","SYN070AAXX  05091 02151 45477 /1504 10093 20074 39799 40131 50008 333 88/17;",
"02151099999","2010-10-05T12:00:00","4","66.4833333","20.1666666","275.0","JOKKMOKK FPL, SW","FM-12","99999","V020","170,1,N,0030,1","00570,1,C,N","030000,1,N,1","+0096,1","+0074,1","10135,1",,,"08,1,+00570,1,99,9",,,,"99999,9,09804,1","2,1,005,1,+999,9","SYN070AAXX  05121 02151 45480 /1703 10096 20074 39804 40135 52005 333 88/19;",
"02151099999","2010-10-05T15:00:00","4","66.4833333","20.1666666","275.0","JOKKMOKK FPL, SW","FM-12","99999","V020","170,1,N,0040,1","00660,1,C,N","024000,1,N,1","+0105,1","+0081,1","10138,1",,,"08,1,+00660,1,99,9",,,,"99999,9,09807,1","3,1,003,1,+999,9","SYN070AAXX  05151 02151 45574 /1704 10105 20081 39807 40138 53003 333 88/22;",
"02151099999","2010-10-05T18:00:00","4","66.4833333","20.1666666","275.0","JOKKMOKK FPL, SW","FM-12","99999","V020","160,1,N,0040,1","00630,1,C,N","025000,1,N,1","+0101,1","+0077,1","10145,1",,,"08,1,+00630,1,99,9",,"120,M,+0105,1","999,N,+0088,1","99999,9,09814,1","3,1,006,1,+999,9","SYN082AAXX  05181 02151 45575 /1604 10101 20077 39814 40145 53006 333 10105 20088 88/21;",
"02151099999","2010-10-05T21:00:00","4","66.4833333","20.1666666","275.0","JOKKMOKK FPL, SW","FM-12","99999","V020","170,1,N,0040,1","00540,1,C,N","019000,1,N,1","+0095,1","+0075,1","10152,1",,,"07,1,+00540,1,99,9",,,,"99999,9,09820,1","2,1,006,1,+999,9","SYN076AAXX  05211 02151 45469 /1704 10095 20075 39820 40152 52006 333 87/18 88/21;",
"02151099999","2010-10-06T00:00:00","4","66.4833333","20.1666666","275.0","JOKKMOKK FPL, SW","FM-12","99999","V020","180,1,N,0050,1","00600,1,C,N","035000,1,N,1","+0085,1","+0059,1","10156,1",,,"08,1,+00600,1,99,9",,,,"99999,9,09823,1","2,1,002,1,+999,9","SYN070AAXX  06001 02151 45581 /1805 10085 20059 39823 40156 52002 333 88/20;",
"02151099999","2010-10-06T03:00:00","4","66.4833333","20.1666666","275.0","JOKKMOKK FPL, SW","FM-12","99999","V020","180,1,N,0040,1","99999,9,9,N","045000,1,N,1","+0068,1","+0039,1","10163,1",,,"04,1,+00780,1,99,9",,,,"99999,9,09828,1","1,1,005,1,+999,9","SYN070AAXX  06031 02151 45583 /1804 10068 20039 39828 40163 51005 333 84/26;",
"02151099999","2010-10-06T06:00:00","4","66.4833333","20.1666666","275.0","JOKKMOKK FPL, SW","FM-12","99999","V020","150,1,N,0020,1","00600,1,C,N","035000,1,N,1","+0064,1","+0048,1","10165,1",,,"08,1,+00600,1,99,9",,"120,M,+0102,1","999,N,+0052,1","99999,9,09829,1","3,1,001,1,+999,9","SYN082AAXX  06061 02151 45581 /1502 10064 20048 39829 40165 53001 333 10102 20052 88/20;",
"02151099999","2010-10-06T09:00:00","4","66.4833333","20.1666666","275.0","JOKKMOKK FPL, SW","FM-12","99999","V020","160,1,N,0040,1","00540,1,C,N","040000,1,N,1","+0076,1","+0053,1","10168,1",,,"08,1,+00540,1,99,9",,,,"99999,9,09833,1","3,1,004,1,+999,9","SYN070AAXX  06091 02151 45482 /1604 10076 20053 39833 40168 53004 333 88/18;",
"02151099999","2010-10-06T12:00:00","4","66.4833333","20.1666666","275.0","JOKKMOKK FPL, SW","FM-12","99999","V020","170,1,N,0040,1","00540,1,C,N","035000,1,N,1","+0087,1","+0064,1","10172,1",,,"08,1,+00540,1,99,9",,,,"99999,9,09839,1","3,1,006,1,+999,9","SYN070AAXX  06121 02151 45481 /1704 10087 20064 39839 40172 53006 333 88/18;",
"02151099999","2010-10-06T15:00:00","4","66.4833333","20.1666666","275.0","JOKKMOKK FPL, SW","FM-12","99999","V020","180,1,N,0040,1","00450,1,C,N","030000,1,N,1","+0089,1","+0071,1","10174,1",,,"08,1,+00450,1,99,9",,,,"99999,9,09841,1","0,1,002,1,+999,9","SYN070AAXX  06151 02151 45480 /1804 10089 20071 39841 40174 50002 333 88/15;",
"02151099999","2010-10-06T18:00:00","4","66.4833333","20.1666666","275.0","JOKKMOKK FPL, SW","FM-12","99999","V020","170,1,N,0050,1","00390,1,C,N","022000,1,N,1","+0086,1","+0071,1","10179,1",,,"08,1,+00390,1,99,9",,"120,M,+0091,1","999,N,+0059,1","99999,9,09845,1","1,1,004,1,+999,9","SYN082AAXX  06181 02151 45472 /1705 10086 20071 39845 40179 51004 333 10091 20059 88/13;",
"02151099999","2010-10-06T21:00:00","4","66.4833333","20.1666666","275.0","JOKKMOKK FPL, SW","FM-12","99999","V020","160,1,N,0060,1","00420,1,C,N","035000,1,N,1","+0080,1","+0063,1","10171,1",,,"08,1,+00420,1,99,9",,,,"99999,9,09837,1","7,1,008,1,+999,9","SYN070AAXX  06211 02151 45481 /1606 10080 20063 39837 40171 57008 333 88/14;",
"02151099999","2010-10-07T00:00:00","4","66.4833333","20.1666666","275.0","JOKKMOKK FPL, SW","FM-12","99999","V020","160,1,N,0060,1","00540,1,C,N","040000,1,N,1","+0075,1","+0053,1","10160,1",,,"08,1,+00540,1,99,9",,,,"99999,9,09825,1","7,1,011,1,+999,9","SYN070AAXX  07001 02151 45482 /1606 10075 20053 39825 40160 57011 333 88/18;",
"02151099999","2010-10-07T03:00:00","4","66.4833333","20.1666666","275.0","JOKKMOKK FPL, SW","FM-12","99999","V020","160,1,N,0060,1","00390,1,C,N","018000,1,N,1","+0076,1","+0062,1","10144,1",,,"08,1,+00390,1,99,9",,,,"99999,9,09811,1","6,1,015,1,+999,9","SYN070AAXX  07031 02151 45468 /1606 10076 20062 39811 40144 56015 333 88/13;",
"02151099999","2010-10-07T06:00:00","4","66.4833333","20.1666666","275.0","JOKKMOKK FPL, SW","FM-12","99999","V020","170,1,N,0050,1","00330,1,C,N","018000,1,N,1","+0081,1","+0071,1","10136,1",,,"08,1,+00330,1,99,9",,"120,M,+0087,1","999,N,+0072,1","99999,9,09804,1","5,1,007,1,+999,9","SYN082AAXX  07061 02151 45468 /1705 10081 20071 39804 40136 55007 333 10087 20072 88/11;",
"02151099999","2010-10-07T09:00:00","4","66.4833333","20.1666666","275.0","JOKKMOKK FPL, SW","FM-12","99999","V020","180,1,N,0040,1","00450,1,C,N","029000,1,N,1","+0092,1","+0076,1","10152,1","00,1","8,1,03,1","08,1,+00450,1,99,9",,,,"99999,9,09820,1","2,1,016,1,+999,9","SYN076AAXX  07091 02151 47479 /1804 10092 20076 39820 40152 52016 70086 333 88/15;",
"02151099999","2010-10-07T12:00:00","4","66.4833333","20.1666666","275.0","JOKKMOKK FPL, SW","FM-12","99999","V020","230,1,N,0030,1","99999,9,9,N","040000,1,N,1","+0123,1","+0074,1","10162,1","00,1","8,1,06,1",,,,,"99999,9,09833,1","3,1,014,1,+999,9","SYN066AAXX  07121 02151 47982 /2303 10123 20074 39833 40162 53014 70085;",
"02151099999","2010-10-07T15:00:00","4","66.4833333","20.1666666","275.0","JOKKMOKK FPL, SW","FM-12","99999","V020","200,1,N,0030,1","99999,9,9,N","050000,1,N,1","+0118,1","+0075,1","10185,1",,,,,,,"99999,9,09855,1","3,1,021,1,+999,9","SYN060AAXX  07151 02151 45984 /2003 10118 20075 39855 40185 53021;",
"02151099999","2010-10-07T18:00:00","4","66.4833333","20.1666666","275.0","JOKKMOKK FPL, SW","FM-12","99999","V020","210,1,N,0030,1","99999,9,9,N","050000,1,N,1","+0094,1","+0060,1","10213,1",,,,,"120,M,+0132,1","999,N,+0081,1","99999,9,09879,1","3,1,024,1,+999,9","SYN076AAXX  07181 02151 45984 /2103 10094 20060 39879 40213 53024 333 10132 20081;",
"02151099999","2010-10-07T21:00:00","4","66.4833333","20.1666666","275.0","JOKKMOKK FPL, SW","FM-12","99999","V020","010,1,N,0010,1","99999,9,9,N","050000,1,N,1","+0074,1","+0048,1","10240,1",,,,,,,"99999,9,09902,1","3,1,024,1,+999,9","SYN060AAXX  07211 02151 45984 /0101 10074 20048 39902 40240 53024;",
"02151099999","2010-10-08T00:00:00","4","66.4833333","20.1666666","275.0","JOKKMOKK FPL, SW","FM-12","99999","V020","220,1,N,0020,1","99999,9,9,N","050000,1,N,1","+0062,1","+0043,1","10257,1",,,,,,,"99999,9,09918,1","1,1,015,1,+999,9","SYN060AAXX  08001 02151 45984 /2202 10062 20043 39918 40257 51015;",
"02151099999","2010-10-08T03:00:00","4","66.4833333","20.1666666","275.0","JOKKMOKK FPL, SW","FM-12","99999","V020","290,1,N,0020,1","99999,9,9,N","050000,1,N,1","+0063,1","+0043,1","10268,1",,,,,,,"99999,9,09929,1","2,1,011,1,+999,9","SYN060AAXX  08031 02151 45984 /2902 10063 20043 39929 40268 52011;",
"02151099999","2010-10-08T06:00:00","4","66.4833333","20.1666666","275.0","JOKKMOKK FPL, SW","FM-12","99999","V020","999,9,C,0000,1","99999,9,9,N","035000,1,N,1","+0041,1","+0037,1","10282,1",,,,,"120,M,+0099,1","999,N,+0010,1","99999,9,09939,1","2,1,011,1,+999,9","SYN076AAXX  08061 02151 45981 /0000 10041 20037 39939 40282 52011 333 10099 20010;",
"02151099999","2010-10-08T12:00:00","4","66.4833333","20.1666666","275.0","JOKKMOKK FPL, SW","FM-12","99999","V020","240,1,N,0040,1","99999,9,9,N","035000,1,N,1","+0133,1","+0064,1","10273,1",,,,,,,"99999,9,09942,1","7,1,003,1,+999,9","SYN060AAXX  08121 02151 45981 /2404 10133 20064 39942 40273 57003;",
"02151099999","2010-10-08T15:00:00","4","66.4833333","20.1666666","275.0","JOKKMOKK FPL, SW","FM-12","99999","V020","220,1,N,0020,1","99999,9,9,N","050000,1,N,1","+0115,1","+0060,1","10271,1",,,,,,,"99999,9,09938,1","6,1,004,1,+999,9","SYN060AAXX  08151 02151 45984 /2202 10115 20060 39938 40271 56004;",
"02151099999","2010-10-08T18:00:00","4","66.4833333","20.1666666","275.0","JOKKMOKK FPL, SW","FM-12","99999","V020","220,1,N,0030,1","99999,9,9,N","050000,1,N,1","+0097,1","+0062,1","10265,1",,,"01,1,+04800,1,99,9",,"120,M,+0137,1","999,N,+0030,1","99999,9,09930,1","5,1,007,1,+999,9","SYN082AAXX  08181 02151 45984 /2203 10097 20062 39930 40265 55007 333 10137 20030 81/66;",
"02151099999","2010-10-08T21:00:00","4","66.4833333","20.1666666","275.0","JOKKMOKK FPL, SW","FM-12","99999","V020","210,1,N,0020,1","99999,9,9,N","050000,1,N,1","+0094,1","+0060,1","10263,1",,,,,,,"99999,9,09927,1","8,1,003,1,+999,9","SYN060AAXX  08211 02151 45984 /2102 10094 20060 39927 40263 58003;",
"02151099999","2010-10-09T00:00:00","4","66.4833333","20.1666666","275.0","JOKKMOKK FPL, SW","FM-12","99999","V020","260,1,N,0040,1","99999,9,9,N","050000,1,N,1","+0110,1","+0070,1","10252,1",,,,,,,"99999,9,09919,1","8,1,009,1,+999,9","SYN060AAXX  09001 02151 45984 /2604 10110 20070 39919 40252 58009;",
"02151099999","2010-10-09T03:00:00","4","66.4833333","20.1666666","275.0","JOKKMOKK FPL, SW","FM-12","99999","V020","250,1,N,0020,1","99999,9,9,N","050000,1,N,1","+0108,1","+0072,1","10241,1",,,"02,1,+03300,1,99,9",,,,"99999,9,09907,1","8,1,011,1,+999,9","SYN070AAXX  09031 02151 45984 /2502 10108 20072 39907 40241 58011 333 82/61;",
"02151099999","2010-10-09T06:00:00","4","66.4833333","20.1666666","275.0","JOKKMOKK FPL, SW","FM-12","99999","V020","230,1,N,0040,1","99999,9,9,N","050000,1,N,1","+0100,1","+0059,1","10226,1",,,,,"120,M,+0112,1","999,N,+0093,1","99999,9,09893,1","6,1,015,1,+999,9","SYN076AAXX  09061 02151 45984 /2304 10100 20059 39893 40226 56015 333 10112 20093;",
"02151099999","2010-10-09T09:00:00","4","66.4833333","20.1666666","275.0","JOKKMOKK FPL, SW","FM-12","99999","V020","240,1,N,0030,1","99999,9,9,N","045000,1,N,1","+0105,1","+0053,1","10209,1",,,"01,1,+06300,1,99,9",,,,"99999,9,09877,1","8,1,016,1,+999,9","SYN070AAXX  09091 02151 45983 /2403 10105 20053 39877 40209 58016 333 81/71;",
"02151099999","2010-10-09T12:00:00","4","66.4833333","20.1666666","275.0","JOKKMOKK FPL, SW","FM-12","99999","V020","240,1,N,0020,1","04800,1,C,N","050000,1,N,1","+0118,1","+0054,1","10180,1",,,"07,1,+04800,1,99,9",,,,"99999,9,09850,1","8,1,026,1,+999,9","SYN070AAXX  09121 02151 45984 /2402 10118 20054 39850 40180 58026 333 87/66;",
"02151099999","2010-10-09T15:00:00","4","66.4833333","20.1666666","275.0","JOKKMOKK FPL, SW","FM-12","99999","V020","260,1,N,0030,1","99999,9,9,N","050000,1,N,1","+0110,1","+0052,1","10152,1",,,"01,1,+02100,1,99,9",,,,"99999,9,09822,1","8,1,028,1,+999,9","SYN070AAXX  09151 02151 45884 /2603 10110 20052 39822 40152 58028 333 81/57;",
"02151099999","2010-10-09T18:00:00","4","66.4833333","20.1666666","275.0","JOKKMOKK FPL, SW","FM-12","99999","V020","260,1,N,0040,1","99999,9,9,N","050000,1,N,1","+0092,1","+0051,1","10121,1",,,,,"120,M,+0131,1","999,N,+0086,1","99999,9,09790,1","8,1,032,1,+999,9","SYN076AAXX  09181 02151 45984 /2604 10092 20051 39790 40121 58032 333 10131 20086;",
"02151099999","2010-10-09T21:00:00","4","66.4833333","20.1666666","275.0","JOKKMOKK FPL, SW","FM-12","99999","V020","300,1,N,0050,1","99999,9,9,N","050000,1,N,1","+0076,1","+0020,1","10104,1",,,,,,,"99999,9,09772,1","8,1,018,1,+999,9","SYN060AAXX  09211 02151 45984 /3005 10076 20020 39772 40104 58018;",
"02151099999","2010-10-10T00:00:00","4","66.4833333","20.1666666","275.0","JOKKMOKK FPL, SW","FM-12","99999","V020","290,1,N,0050,1","99999,9,9,N","050000,1,N,1","+0045,1","-0017,1","10104,1",,,,,,,"99999,9,09768,1","5,1,003,1,+999,9","SYN060AAXX  10001 02151 45984 /2905 10045 21017 39768 40104 55003;",
"02151099999","2010-10-10T03:00:00","4","66.4833333","20.1666666","275.0","JOKKMOKK FPL, SW","FM-12","99999","V020","300,1,N,0060,1","99999,9,9,N","050000,1,N,1","+0013,1","-0027,1","10112,1","00,1","8,1,03,1","02,1,+01500,1,99,9",,,,"99999,9,09772,1","0,1,004,1,+999,9","SYN082AAXX  10031 02151 47784 /3006 10013 21027 39772 40112 50004 70087 333 82/50 84/56;",
"02151099999","2010-10-10T06:00:00","4","66.4833333","20.1666666","275.0","JOKKMOKK FPL, SW","FM-12","99999","V020","300,1,N,0070,1","99999,9,9,N","050000,1,N,1","+0013,1","-0046,1","10111,1","00,1","8,1,06,1",,,"120,M,+0092,1","999,N,+0006,1","99999,9,09770,1","7,1,001,1,+999,9","SYN082AAXX  10061 02151 47984 /3007 10013 21046 39770 40111 57001 70086 333 10092 20006;",
"02151099999","2010-10-10T09:00:00","4","66.4833333","20.1666666","275.0","JOKKMOKK FPL, SW","FM-12","99999","V020","320,1,N,0120,1","99999,9,9,N","045000,1,N,1","+0048,1","-0028,1","10111,1",,,,,,,"99999,9,09775,1","3,1,004,1,+999,9","SYN060AAXX  10091 02151 45983 /3212 10048 21028 39775 40111 53004;",
"02151099999","2010-10-10T12:00:00","4","66.4833333","20.1666666","275.0","JOKKMOKK FPL, SW","FM-12","99999","V020","320,1,N,0110,1","99999,9,9,N","045000,1,N,1","+0067,1","-0020,1","10117,1",,,,,,,"99999,9,09783,1","3,1,009,1,+999,9","SYN060AAXX  10121 02151 45983 /3211 10067 21020 39783 40117 53009;",
"02151099999","2010-10-10T15:00:00","4","66.4833333","20.1666666","275.0","JOKKMOKK FPL, SW","FM-12","99999","V020","320,1,N,0090,1","99999,9,9,N","050000,1,N,1","+0056,1","-0015,1","10133,1",,,,,,,"99999,9,09797,1","2,1,014,1,+999,9","SYN060AAXX  10151 02151 45984 /3209 10056 21015 39797 40133 52014;",
"02151099999","2010-10-10T18:00:00","4","66.4833333","20.1666666","275.0","JOKKMOKK FPL, SW","FM-12","99999","V020","310,1,N,0050,1","99999,9,9,N","050000,1,N,1","+0037,1","-0017,1","10147,1",,,,,"120,M,+0067,1","999,N,+0011,1","99999,9,09809,1","3,1,012,1,+999,9","SYN076AAXX  10181 02151 45984 /3105 10037 21017 39809 40147 53012 333 10067 20011;",
"02151099999","2010-10-10T21:00:00","4","66.4833333","20.1666666","275.0","JOKKMOKK FPL, SW","FM-12","99999","V020","310,1,N,0040,1","99999,9,9,N","050000,1,N,1","+0018,1","-0018,1","10150,1",,,,,,,"99999,9,09809,1","4,1,000,1,+999,9","SYN060AAXX  10211 02151 45984 /3104 10018 21018 39809 40150 54000;",
"02151099999","2010-10-11T00:00:00","4","66.4833333","20.1666666","275.0","JOKKMOKK FPL, SW","FM-12","99999","V020","300,1,N,0030,1","99999,9,9,N","050000,1,N,1","+0019,1","-0014,1","10140,1",,,,,,,"99999,9,09800,1","8,1,010,1,+999,9","SYN060AAXX  11001 02151 45984 /3003 10019 21014 39800 40140 58010;",
"02151099999","2010-10-11T03:00:00","4","66.4833333","20.1666666","275.0","JOKKMOKK FPL, SW","FM-12","99999","V020","320,1,N,0030,1","99999,9,9,N","050000,1,N,1","+0003,1","-0019,1","10134,1",,,,,,,"99999,9,09792,1","7,1,008,1,+999,9","SYN060AAXX  11031 02151 45984 /3203 10003 21019 39792 40134 57008;",
"02151099999","2010-10-11T06:00:00","4","66.4833333","20.1666666","275.0","JOKKMOKK FPL, SW","FM-12","99999","V020","280,1,N,0020,1","99999,9,9,N","050000,1,N,1","+0011,1","-0017,1","10119,1",,,,,"120,M,+0037,1","999,N,-0003,1","99999,9,09778,1","6,1,013,1,+999,9","SYN076AAXX  11061 02151 45984 /2802 10011 21017 39778 40119 56013 333 10037 21003;",
"02151099999","2010-10-11T09:00:00","4","66.4833333","20.1666666","275.0","JOKKMOKK FPL, SW","FM-12","99999","V020","300,1,N,0020,1","99999,9,9,N","050000,1,N,1","+0027,1","-0014,1","10101,1",,,"01,1,+02400,1,99,9",,,,"99999,9,09763,1","6,1,015,1,+999,9","SYN070AAXX  11091 02151 45984 /3002 10027 21014 39763 40101 56015 333 81/58;",
"02151099999","2010-10-11T12:00:00","4","66.4833333","20.1666666","275.0","JOKKMOKK FPL, SW","FM-12","99999","V020","290,1,N,0010,1","99999,9,9,N","050000,1,N,1","+0030,1","-0012,1","10079,1",,,"02,1,+01140,1,99,9",,,,"99999,9,09743,1","7,1,021,1,+999,9","SYN076AAXX  11121 02151 45684 /2901 10030 21012 39743 40079 57021 333 82/38 83/58;",
"02151099999","2010-10-11T15:00:00","4","66.4833333","20.1666666","275.0","JOKKMOKK FPL, SW","FM-12","99999","V020","280,1,N,0040,1","02100,1,C,N","050000,1,N,1","+0039,1","-0015,1","10041,1",,,"06,1,+02100,1,99,9",,,,"99999,9,09707,1","8,1,036,1,+999,9","SYN070AAXX  11151 02151 45884 /2804 10039 21015 39707 40041 58036 333 86/57;",
"02151099999","2010-10-11T18:00:00","4","66.4833333","20.1666666","275.0","JOKKMOKK FPL, SW","FM-12","99999","V020","320,1,N,0080,1","01350,1,C,N","050000,1,N,1","+0030,1","-0014,1","10021,1","21,1","8,1,06,1","07,1,+01350,1,99,9",,"120,M,+0044,1","999,N,+0003,1","99999,9,09686,1","6,1,020,1,+999,9","SYN088AAXX  11181 02151 47684 /3208 10030 21014 39686 40021 56020 72184 333 10044 20003 87/45;",
"02151099999","2010-10-11T21:00:00","4","66.4833333","20.1666666","275.0","JOKKMOKK FPL, SW","FM-12","99999","V020","330,1,N,0060,1","99999,9,9,N","050000,1,N,1","-0007,1","-0076,1","10050,1","24,1","8,1,03,1",,,,,"99999,9,09709,1","0,1,023,1,+999,9","SYN066AAXX  11211 02151 47984 /3306 11007 21076 39709 40050 50023 72487;",
"02151099999","2010-10-12T00:00:00","4","66.4833333","20.1666666","275.0","JOKKMOKK FPL, SW","FM-12","99999","V020","310,1,N,0080,1","99999,9,9,N","050000,1,N,1","+0002,1","-0043,1","10038,1","00,1","8,1,06,1",,,,,"99999,9,09699,1","8,1,011,1,+999,9","SYN066AAXX  12001 02151 47/84 /3108 10002 21043 39699 40038 58011 70087;",
"02151099999","2010-10-12T03:00:00","4","66.4833333","20.1666666","275.0","JOKKMOKK FPL, SW","FM-12","99999","V020","310,1,N,0040,1","99999,9,9,N","050000,1,N,1","-0017,1","-0060,1","10084,1",,,,,,,"99999,9,09741,1","1,1,043,1,+999,9","SYN060AAXX  12031 02151 45984 /3104 11017 21060 39741 40084 51043;",
"02151099999","2010-10-12T06:00:00","4","66.4833333","20.1666666","275.0","JOKKMOKK FPL, SW","FM-12","99999","V020","280,1,N,0030,1","99999,9,9,N","050000,1,N,1","-0015,1","-0043,1","10092,1",,,"03,1,+01800,1,99,9",,"120,M,+0030,1","999,N,-0034,1","99999,9,09749,1","3,1,007,1,+999,9","SYN082AAXX  12061 02151 45784 /2803 11015 21043 39749 40092 53007 333 10030 21034 83/56;",
"02151099999","2010-10-12T09:00:00","4","66.4833333","20.1666666","275.0","JOKKMOKK FPL, SW","FM-12","99999","V020","310,1,N,0060,1","99999,9,9,N","045000,1,N,1","+0039,1","-0024,1","10096,1",,,,,,,"99999,9,09760,1","2,1,011,1,+999,9","SYN060AAXX  12091 02151 45/83 /3106 10039 21024 39760 40096 52011;",
"02151099999","2010-10-12T12:00:00","4","66.4833333","20.1666666","275.0","JOKKMOKK FPL, SW","FM-12","99999","V020","320,1,N,0080,1","99999,9,9,N","050000,1,N,1","+0052,1","-0029,1","10095,1",,,,,,,"99999,9,09760,1","0,1,001,1,+999,9","SYN060AAXX  12121 02151 45984 /3208 10052 21029 39760 40095 50001;",
"02151099999","2010-10-12T15:00:00","4","66.4833333","20.1666666","275.0","JOKKMOKK FPL, SW","FM-12","99999","V020","320,1,N,0060,1","99999,9,9,N","050000,1,N,1","+0027,1","-0050,1","10103,1",,,,,,,"99999,9,09765,1","2,1,005,1,+999,9","SYN060AAXX  12151 02151 45984 /3206 10027 21050 39765 40103 52005;",
"02151099999","2010-10-12T18:00:00","4","66.4833333","20.1666666","275.0","JOKKMOKK FPL, SW","FM-12","99999","V020","310,1,N,0060,1","02700,1,C,N","050000,1,N,1","+0018,1","-0047,1","10099,1",,,"08,1,+02700,1,99,9",,"120,M,+0054,1","999,N,-0017,1","99999,9,09760,1","8,1,004,1,+999,9","SYN082AAXX  12181 02151 45984 /3106 10018 21047 39760 40099 58004 333 10054 21017 88/59;",
"02151099999","2010-10-12T21:00:00","4","66.4833333","20.1666666","275.0","JOKKMOKK FPL, SW","FM-12","99999","V020","300,1,N,0040,1","03300,1,C,N","050000,1,N,1","+0009,1","-0041,1","10099,1",,,"08,1,+03300,1,99,9",,,,"99999,9,09758,1","7,1,002,1,+999,9","SYN070AAXX  12211 02151 45984 /3004 10009 21041 39758 40099 57002 333 88/61;",
"02151099999","2010-10-13T00:00:00","4","66.4833333","20.1666666","275.0","JOKKMOKK FPL, SW","FM-12","99999","V020","290,1,N,0030,1","99999,9,9,N","050000,1,N,1","+0002,1","-0039,1","10099,1",,,,,,,"99999,9,09758,1","4,1,000,1,+999,9","SYN060AAXX  13001 02151 45/84 /2903 10002 21039 39758 40099 54001;",
"02151099999","2010-10-13T03:00:00","4","66.4833333","20.1666666","275.0","JOKKMOKK FPL, SW","FM-12","99999","V020","290,1,N,0020,1","99999,9,9,N","050000,1,N,1","-0021,1","-0046,1","10101,1",,,"01,1,+01500,1,99,9",,,,"99999,9,09757,1","4,1,000,1,+999,9","SYN070AAXX  13031 02151 45784 /2902 11021 21046 39757 40101 54000 333 81/50;",
"02151099999","2010-10-13T06:00:00","4","66.4833333","20.1666666","275.0","JOKKMOKK FPL, SW","FM-12","99999","V020","330,1,N,0010,1","99999,9,9,N","050000,1,N,1","-0035,1","-0050,1","10101,1",,,,,"120,M,+0020,1","999,N,-0045,1","99999,9,09755,1","7,1,002,1,+999,9","SYN076AAXX  13061 02151 45/84 /3301 11035 21050 39755 40101 57002 333 10020 21045;",
"02151099999","2010-10-13T09:00:00","4","66.4833333","20.1666666","275.0","JOKKMOKK FPL, SW","FM-12","99999","V020","310,1,N,0020,1","99999,9,9,N","050000,1,N,1","+0015,1","-0036,1","10087,1",,,,,,,"99999,9,09748,1","6,1,007,1,+999,9","SYN060AAXX  13091 02151 45984 /3102 10015 21036 39748 40087 56007;",
"02151099999","2010-10-13T12:00:00","4","66.4833333","20.1666666","275.0","JOKKMOKK FPL, SW","FM-12","99999","V020","290,1,N,0020,1","02100,1,C,N","050000,1,N,1","+0030,1","-0045,1","10073,1",,,"05,1,+02100,1,99,9",,,,"99999,9,09736,1","8,1,012,1,+999,9","SYN070AAXX  13121 02151 45884 /2902 10030 21045 39736 40073 58012 333 85/57;",
"02151099999","2010-10-13T15:00:00","4","66.4833333","20.1666666","275.0","JOKKMOKK FPL, SW","FM-12","99999","V020","999,9,C,0000,1","99999,9,9,N","050000,1,N,1","-0024,1","-0049,1","10058,1",,,,,,,"99999,9,09715,1","7,1,020,1,+999,9","SYN060AAXX  13151 02151 45984 /0000 11024 21049 39715 40058 57020;",
"02151099999","2010-10-13T18:00:00","4","66.4833333","20.1666666","275.0","JOKKMOKK FPL, SW","FM-12","99999","V020","150,1,N,0010,1","03300,1,C,N","050000,1,N,1","-0050,1","-0057,1","10027,1",,,"05,1,+03300,1,99,9",,"120,M,+0034,1","999,N,-0061,1","99999,9,09682,1","8,1,033,1,+999,9","SYN088AAXX  13181 02151 45984 /1501 11050 21057 39682 40027 58033 333 10034 21061 85/61 88/67;",
"02151099999","2010-10-13T21:00:00","4","66.4833333","20.1666666","275.0","JOKKMOKK FPL, SW","FM-12","99999","V020","140,1,N,0020,1","99999,9,9,N","050000,1,N,1","-0028,1","-0037,1","09996,1",,,,,,,"99999,9,09654,1","8,1,028,1,+999,9","SYN060AAXX  13211 02151 45984 /1402 11028 21037 39654 49996 58028;",
"02151099999","2010-10-14T00:00:00","4","66.4833333","20.1666666","275.0","JOKKMOKK FPL, SW","FM-12","99999","V020","040,1,N,0020,1","00330,1,C,N","001600,1,N,1","-0016,1","-0020,1","09974,1","71,1","7,1,06,1","09,1,+00330,1,99,9",,,,"99999,9,09635,1","6,1,020,1,+999,9","SYN076AAXX  14001 02151 47/16 /0402 11016 21020 39635 49974 56020 77174 333 89/11;",
"02151099999","2010-10-14T03:00:00","4","66.4833333","20.1666666","275.0","JOKKMOKK FPL, SW","FM-12","99999","V020","010,1,N,0020,1","00420,1,C,N","002500,1,N,1","-0018,1","-0018,1","09982,1","71,1","7,1,03,1","09,1,+00420,1,99,9",,,,"99999,9,09643,1","3,1,008,1,+999,9","SYN076AAXX  14031 02151 47/25 /0102 11018 21018 39643 49982 53008 77177 333 89/14;",
"02151099999","2010-10-14T06:00:00","4","66.4833333","20.1666666","275.0","JOKKMOKK FPL, SW","FM-12","99999","V020","360,1,N,0030,1","00420,1,C,N","050000,1,N,1","-0010,1","-0011,1","10004,1","24,1","8,1,06,1","08,1,+00420,1,99,9",,"120,M,-0009,1","999,N,-0059,1","99999,9,09665,1","3,1,022,1,+999,9","SYN088AAXX  14061 02151 47484 /3603 11010 21011 39665 40004 53022 72487 333 11009 21059 88/14;",
"02151099999","2010-10-14T09:00:00","4","66.4833333","20.1666666","275.0","JOKKMOKK FPL, SW","FM-12","99999","V020","330,1,N,0050,1","01140,1,C,N","050000,1,N,1","-0005,1","-0022,1","10031,1",,,"08,1,+01140,1,99,9",,,,"99999,9,09691,1","1,1,027,1,+999,9","SYN070AAXX  14091 02151 45684 /3305 11005 21022 39691 40031 51027 333 88/38;",
"02151099999","2010-10-14T12:00:00","4","66.4833333","20.1666666","275.0","JOKKMOKK FPL, SW","FM-12","99999","V020","330,1,N,0060,1","99999,9,9,N","050000,1,N,1","+0010,1","-0021,1","10034,1","00,1","8,1,06,1","03,1,+01020,1,99,9",,,,"99999,9,09697,1","0,1,005,1,+999,9","SYN082AAXX  14121 02151 47684 /3306 10010 21021 39697 40034 50005 70087 333 83/34 88/57;",
"02151099999","2010-10-14T15:00:00","4","66.4833333","20.1666666","275.0","JOKKMOKK FPL, SW","FM-12","99999","V020","330,1,N,0050,1","99999,9,9,N","050000,1,N,1","-0003,1","-0024,1","10046,1",,,,,,,"99999,9,09706,1","2,1,010,1,+999,9","SYN060AAXX  14151 02151 45984 /3305 11003 21024 39706 40046 52010;",
"02151099999","2010-10-14T18:00:00","4","66.4833333","20.1666666","275.0","JOKKMOKK FPL, SW","FM-12","99999","V020","310,1,N,0040,1","01500,1,C,N","050000,1,N,1","-0015,1","-0036,1","10050,1",,,"05,1,+01500,1,99,9",,"120,M,+0013,1","999,N,-0014,1","99999,9,09708,1","2,1,002,1,+999,9","SYN082AAXX  14181 02151 45784 /3104 11015 21036 39708 40050 52002 333 10013 21014 85/50;",
"02151099999","2010-10-14T21:00:00","4","66.4833333","20.1666666","275.0","JOKKMOKK FPL, SW","FM-12","99999","V020","320,1,N,0060,1","99999,9,9,N","050000,1,N,1","-0017,1","-0041,1","10048,1",,,,,,,"99999,9,09706,1","7,1,002,1,+999,9","SYN060AAXX  14211 02151 45984 /3206 11017 21041 39706 40048 57002;",
"02151099999","2010-10-15T00:00:00","4","66.4833333","20.1666666","275.0","JOKKMOKK FPL, SW","FM-12","99999","V020","310,1,N,0020,1","02700,1,C,N","050000,1,N,1","-0033,1","-0057,1","10050,1",,,"06,1,+02700,1,99,9",,,,"99999,9,09706,1","4,1,000,1,+999,9","SYN070AAXX  15001 02151 45984 /3102 11033 21057 39706 40050 54000 333 86/59;",
"02151099999","2010-10-15T03:00:00","4","66.4833333","20.1666666","275.0","JOKKMOKK FPL, SW","FM-12","99999","V020","300,1,N,0030,1","99999,9,9,N","050000,1,N,1","-0036,1","-0057,1","10050,1",,,,,,,"99999,9,09706,1","4,1,000,1,+999,9","SYN060AAXX  15031 02151 45984 /3003 11036 21057 39706 40050 54000;",
"02151099999","2010-10-15T06:00:00","4","66.4833333","20.1666666","275.0","JOKKMOKK FPL, SW","FM-12","99999","V020","300,1,N,0010,1","99999,9,9,N","050000,1,N,1","-0068,1","-0079,1","10058,1",,,,,"120,M,-0015,1","999,N,-0069,1","99999,9,09710,1","3,1,004,1,+999,9","SYN076AAXX  15061 02151 45984 /3001 11068 21079 39710 40058 53004 333 11015 21069;",
"02151099999","2010-10-15T09:00:00","4","66.4833333","20.1666666","275.0","JOKKMOKK FPL, SW","FM-12","99999","V020","310,1,N,0040,1","99999,9,9,N","040000,1,N,1","-0007,1","-0050,1","10062,1",,,,,,,"99999,9,09721,1","2,1,011,1,+999,9","SYN060AAXX  15091 02151 45982 /3104 11007 21050 39721 40062 52011;",
"02151099999","2010-10-15T12:00:00","4","66.4833333","20.1666666","275.0","JOKKMOKK FPL, SW","FM-12","99999","V020","350,1,N,0040,1","01500,1,C,N","050000,1,N,1","+0017,1","-0067,1","10068,1",,,"08,1,+01500,1,99,9",,,,"99999,9,09730,1","3,1,009,1,+999,9","SYN070AAXX  15121 02151 45784 /3504 10017 21067 39730 40068 53009 333 88/50;",
"02151099999","2010-10-15T15:00:00","4","66.4833333","20.1666666","275.0","JOKKMOKK FPL, SW","FM-12","99999","V020","320,1,N,0030,1","99999,9,9,N","050000,1,N,1","-0018,1","-0071,1","10081,1",,,,,,,"99999,9,09739,1","3,1,009,1,+999,9","SYN060AAXX  15151 02151 45984 /3203 11018 21071 39739 40081 53009;",
"02151099999","2010-10-15T18:00:00","4","66.4833333","20.1666666","275.0","JOKKMOKK FPL, SW","FM-12","99999","V020","280,1,N,0020,1","99999,9,9,N","050000,1,N,1","-0040,1","-0067,1","10094,1",,,,,"120,M,+0018,1","999,N,-0071,1","99999,9,09748,1","2,1,009,1,+999,9","SYN076AAXX  15181 02151 45984 /2802 11040 21067 39748 40094 52009 333 10018 21071;",
"02151099999","2010-10-15T21:00:00","4","66.4833333","20.1666666","275.0","JOKKMOKK FPL, SW","FM-12","99999","V020","340,1,N,0010,1","99999,9,9,N","050000,1,N,1","-0060,1","-0075,1","10105,1",,,,,,,"99999,9,09756,1","2,1,009,1,+999,9","SYN060AAXX  15211 02151 45/84 /3401 11060 21075 39756 40105 52009;",
"02151099999","2010-10-16T00:00:00","4","66.4833333","20.1666666","275.0","JOKKMOKK FPL, SW","FM-12","99999","V020","290,1,N,0020,1","99999,9,9,N","050000,1,N,1","-0039,1","-0061,1","10105,1",,,,,,,"99999,9,09759,1","2,1,002,1,+999,9","SYN060AAXX  16001 02151 45984 /2902 11039 21061 39759 40105 52002;",
"02151099999","2010-10-16T03:00:00","4","66.4833333","20.1666666","275.0","JOKKMOKK FPL, SW","FM-12","99999","V020","999,9,C,0000,1","99999,9,9,N","050000,1,N,1","-0069,1","-0073,1","10114,1",,,,,,,"99999,9,09763,1","2,1,005,1,+999,9","SYN060AAXX  16031 02151 45984 /0000 11069 21073 39763 40114 52005;",
"02151099999","2010-10-16T06:00:00","4","66.4833333","20.1666666","275.0","JOKKMOKK FPL, SW","FM-12","99999","V020","300,1,N,0020,1","99999,9,9,N","050000,1,N,1","-0086,1","-0091,1","10117,1",,,"01,1,+01800,1,99,9",,"120,M,-0031,1","999,N,-0102,1","99999,9,09764,1","4,1,000,1,+999,9","SYN082AAXX  16061 02151 45784 /3002 11086 21091 39764 40117 54001 333 11031 21102 81/56;",
"02151099999","2010-10-16T09:00:00","4","66.4833333","20.1666666","275.0","JOKKMOKK FPL, SW","FM-12","99999","V020","300,1,N,0020,1","01500,1,C,N","050000,1,N,1","-0006,1","-0039,1","10114,1",,,"07,1,+01500,1,99,9",,,,"99999,9,09772,1","2,1,008,1,+999,9","SYN070AAXX  16091 02151 45784 /3002 11006 21039 39772 40114 52008 333 87/50;",
"02151099999","2010-10-16T12:00:00","4","66.4833333","20.1666666","275.0","JOKKMOKK FPL, SW","FM-12","99999","V020","290,1,N,0030,1","99999,9,9,N","045000,1,N,1","+0029,1","-0037,1","10109,1",,,,,,,"99999,9,09771,1","4,1,000,1,+999,9","SYN060AAXX  16121 02151 45983 /2903 10029 21037 39771 40109 54001;",
"02151099999","2010-10-16T15:00:00","4","66.4833333","20.1666666","275.0","JOKKMOKK FPL, SW","FM-12","99999","V020","260,1,N,0020,1","99999,9,9,N","050000,1,N,1","+0016,1","-0042,1","10108,1",,,,,,,"99999,9,09768,1","8,1,003,1,+999,9","SYN060AAXX  16151 02151 45984 /2602 10016 21042 39768 40108 58003;",
"02151099999","2010-10-16T18:00:00","4","66.4833333","20.1666666","275.0","JOKKMOKK FPL, SW","FM-12","99999","V020","080,1,N,0010,1","04200,1,C,N","050000,1,N,1","-0015,1","-0045,1","10106,1",,,"08,1,+04200,1,99,9",,"120,M,+0029,1","999,N,-0088,1","99999,9,09763,1","7,1,005,1,+999,9","SYN082AAXX  16181 02151 45984 /0801 11015 21045 39763 40106 57005 333 10029 21088 88/64;",
"02151099999","2010-10-16T21:00:00","4","66.4833333","20.1666666","275.0","JOKKMOKK FPL, SW","FM-12","99999","V020","260,1,N,0020,1","99999,9,9,N","050000,1,N,1","+0026,1","-0013,1","10094,1",,,,,,,"99999,9,09756,1","7,1,007,1,+999,9","SYN060AAXX  16211 02151 45984 /2602 10026 21013 39756 40094 57007;",
"02151099999","2010-10-17T00:00:00","4","66.4833333","20.1666666","275.0","JOKKMOKK FPL, SW","FM-12","99999","V020","230,1,N,0040,1","99999,9,9,N","050000,1,N,1","+0027,1","-0007,1","10083,1",,,,,,,"99999,9,09746,1","8,1,010,1,+999,9","SYN060AAXX  17001 02151 45984 /2304 10027 21007 39746 40083 58010;",
"02151099999","2010-10-17T03:00:00","4","66.4833333","20.1666666","275.0","JOKKMOKK FPL, SW","FM-12","99999","V020","200,1,N,0010,1","99999,9,9,N","050000,1,N,1","+0031,1","+0005,1","10069,1","61,1","6,1,03,1",,,,,"99999,9,09732,1","8,1,013,1,+999,9","SYN066AAXX  17031 02151 47984 /2001 10031 20005 39732 40069 58013 76165;",
"02151099999","2010-10-17T06:00:00","4","66.4833333","20.1666666","275.0","JOKKMOKK FPL, SW","FM-12","99999","V020","250,1,N,0020,1","02700,1,C,N","050000,1,N,1","+0040,1","+0008,1","10057,1","00,1","8,1,06,1","06,1,+02700,1,99,9",,"120,M,+0042,1","999,N,-0029,1","99999,9,09722,1","7,1,010,1,+999,9","SYN088AAXX  17061 02151 47984 /2502 10040 20008 39722 40057 57010 70086 333 10042 21029 86/59;",
"02151099999","2010-10-17T09:00:00","4","66.4833333","20.1666666","275.0","JOKKMOKK FPL, SW","FM-12","99999","V020","280,1,N,0010,1","99999,9,9,N","050000,1,N,1","+0045,1","+0013,1","10051,1",,,"01,1,+02400,1,99,9",,,,"99999,9,09717,1","8,1,005,1,+999,9","SYN070AAXX  17091 02151 45984 /2801 10045 20013 39717 40051 58005 333 81/58;",
"02151099999","2010-10-17T12:00:00","4","66.4833333","20.1666666","275.0","JOKKMOKK FPL, SW","FM-12","99999","V020","230,1,N,0010,1","99999,9,9,N","050000,1,N,1","+0052,1","+0025,1","10045,1",,,"01,1,+01380,1,99,9",,,,"99999,9,09712,1","8,1,005,1,+999,9","SYN076AAXX  17121 02151 45684 /2301 10052 20025 39712 40045 58005 333 81/46 86/59;",
"02151099999","2010-10-17T15:00:00","4","66.4833333","20.1666666","275.0","JOKKMOKK FPL, SW","FM-12","99999","V020","260,1,N,0030,1","99999,9,9,N","050000,1,N,1","+0055,1","+0028,1","10039,1",,,,,,,"99999,9,09706,1","6,1,005,1,+999,9","SYN060AAXX  17151 02151 45984 /2603 10055 20028 39706 40039 56005;",
"02151099999","2010-10-17T18:00:00","4","66.4833333","20.1666666","275.0","JOKKMOKK FPL, SW","FM-12","99999","V020","999,9,C,0000,1","03600,1,C,N","050000,1,N,1","+0028,1","+0019,1","10040,1",,,"08,1,+03600,1,99,9",,"120,M,+0065,1","999,N,+0022,1","99999,9,09704,1","7,1,002,1,+999,9","SYN082AAXX  17181 02151 45984 /0000 10028 20019 39704 40040 57002 333 10065 20022 88/62;",
"02151099999","2010-10-17T21:00:00","4","66.4833333","20.1666666","275.0","JOKKMOKK FPL, SW","FM-12","99999","V020","220,1,N,0020,1","99999,9,9,N","050000,1,N,1","+0052,1","+0047,1","10028,1","81,1","8,1,03,1","01,1,+01230,1,99,9",,,,"99999,9,09696,1","6,1,009,1,+999,9","SYN076AAXX  17211 02151 47684 /2202 10052 20047 39696 40028 56009 78186 333 81/41;",
"02151099999","2010-10-18T00:00:00","4","66.4833333","20.1666666","275.0","JOKKMOKK FPL, SW","FM-12","99999","V020","140,1,N,0010,1","01800,1,C,N","050000,1,N,1","+0052,1","+0039,1","10013,1","00,1","8,1,06,1","05,1,+01800,1,99,9",,,,"99999,9,09681,1","7,1,014,1,+999,9","SYN076AAXX  18001 02151 47784 /1401 10052 20039 39681 40013 57014 70086 333 85/56;",
"02151099999","2010-10-18T03:00:00","4","66.4833333","20.1666666","275.0","JOKKMOKK FPL, SW","FM-12","99999","V020","180,1,N,0020,1","99999,9,9,N","050000,1,N,1","+0043,1","+0028,1","09992,1",,,,,,,"99999,9,09659,1","8,1,022,1,+999,9","SYN060AAXX  18031 02151 45984 /1802 10043 20028 39659 49992 58022;",
"02151099999","2010-10-18T06:00:00","4","66.4833333","20.1666666","275.0","JOKKMOKK FPL, SW","FM-12","99999","V020","200,1,N,0030,1","01800,1,C,N","050000,1,N,1","+0048,1","+0029,1","09972,1",,,"08,1,+01800,1,99,9",,"120,M,+0060,1","999,N,+0008,1","99999,9,09641,1","6,1,018,1,+999,9","SYN082AAXX  18061 02151 45784 /2003 10048 20029 39641 49972 56018 333 10060 20008 88/56;",
"02151099999","2010-10-18T09:00:00","4","66.4833333","20.1666666","275.0","JOKKMOKK FPL, SW","FM-12","99999","V020","180,1,N,0020,1","01800,1,C,N","050000,1,N,1","+0046,1","+0032,1","09950,1",,,"07,1,+01800,1,99,9",,,,"99999,9,09620,1","6,1,021,1,+999,9","SYN076AAXX  18091 02151 45784 /1802 10046 20032 39620 49950 56021 333 87/56 88/57;",
"02151099999","2010-10-18T12:00:00","4","66.4833333","20.1666666","275.0","JOKKMOKK FPL, SW","FM-12","99999","V020","210,1,N,0040,1","99999,9,9,N","050000,1,N,1","+0064,1","+0028,1","09937,1",,,,,,,"99999,9,09609,1","6,1,011,1,+999,9","SYN060AAXX  18121 02151 45984 /2104 10064 20028 39609 49937 56011;",
"02151099999","2010-10-18T15:00:00","4","66.4833333","20.1666666","275.0","JOKKMOKK FPL, SW","FM-12","99999","V020","160,1,N,0030,1","99999,9,9,N","050000,1,N,1","+0041,1","+0022,1","09926,1",,,,,,,"99999,9,09595,1","6,1,014,1,+999,9","SYN060AAXX  18151 02151 45984 /1603 10041 20022 39595 49926 56014;",
"02151099999","2010-10-18T18:00:00","4","66.4833333","20.1666666","275.0","JOKKMOKK FPL, SW","FM-12","99999","V020","200,1,N,0030,1","99999,9,9,N","050000,1,N,1","+0032,1","+0007,1","09917,1",,,"01,1,+02400,1,99,9",,"120,M,+0069,1","999,N,+0030,1","99999,9,09586,1","6,1,009,1,+999,9","SYN082AAXX  18181 02151 45884 /2003 10032 20007 39586 49917 56009 333 10069 20030 81/58;",
"02151099999","2010-10-18T21:00:00","4","66.4833333","20.1666666","275.0","JOKKMOKK FPL, SW","FM-12","99999","V020","200,1,N,0060,1","99999,9,9,N","050000,1,N,1","+0031,1","+0009,1","09911,1",,,,,,,"99999,9,09580,1","5,1,006,1,+999,9","SYN060AAXX  18211 02151 45984 /2006 10031 20009 39580 49911 55006;",
"02151099999","2010-10-19T00:00:00","4","66.4833333","20.1666666","275.0","JOKKMOKK FPL, SW","FM-12","99999","V020","160,1,N,0020,1","99999,9,9,N","050000,1,N,1","+0024,1","+0012,1","09905,1",,,,,,,"99999,9,09573,1","8,1,007,1,+999,9","SYN060AAXX  19001 02151 45984 /1602 10024 20012 39573 49905 58007;",
"02151099999","2010-10-19T03:00:00","4","66.4833333","20.1666666","275.0","JOKKMOKK FPL, SW","FM-12","99999","V020","190,1,N,0050,1","99999,9,9,N","050000,1,N,1","+0032,1","+0019,1","09899,1",,,"01,1,+01800,1,99,9",,,,"99999,9,09568,1","8,1,005,1,+999,9","SYN076AAXX  19031 02151 45784 /1905 10032 20019 39568 49899 58005 333 81/56 86/58;",
"02151099999","2010-10-19T06:00:00","4","66.4833333","20.1666666","275.0","JOKKMOKK FPL, SW","FM-12","99999","V020","190,1,N,0040,1","00570,1,C,N","050000,1,N,1","+0048,1","+0029,1","09898,1",,,"08,1,+00570,1,99,9",,"120,M,+0048,1","999,N,+0015,1","99999,9,09569,1","0,1,001,1,+999,9","SYN082AAXX  19061 02151 45484 /1904 10048 20029 39569 49898 50001 333 10048 20015 88/19;",
"02151099999","2010-10-19T09:00:00","4","66.4833333","20.1666666","275.0","JOKKMOKK FPL, SW","FM-12","99999","V020","180,1,N,0060,1","00690,1,C,N","050000,1,N,1","+0060,1","+0028,1","09901,1",,,"05,1,+00690,1,99,9",,,,"99999,9,09573,1","0,1,004,1,+999,9","SYN076AAXX  19091 02151 45584 /1806 10060 20028 39573 49901 50004 333 85/23 88/63;",
"02151099999","2010-10-19T12:00:00","4","66.4833333","20.1666666","275.0","JOKKMOKK FPL, SW","FM-12","99999","V020","190,1,N,0030,1","00780,1,C,N","050000,1,N,1","+0069,1","+0035,1","09908,1",,,"08,1,+00780,1,99,9",,,,"99999,9,09581,1","2,1,008,1,+999,9","SYN070AAXX  19121 02151 45584 /1903 10069 20035 39581 49908 52008 333 88/26;",
"02151099999","2010-10-19T15:00:00","4","66.4833333","20.1666666","275.0","JOKKMOKK FPL, SW","FM-12","99999","V020","170,1,N,0010,1","99999,9,9,N","050000,1,N,1","+0048,1","+0042,1","09920,1","22,1","8,1,03,1","02,1,+00810,1,99,9",,,,"99999,9,09590,1","3,1,009,1,+999,9","SYN082AAXX  19151 02151 47584 /1701 10048 20042 39590 49920 53009 72286 333 82/27 87/42;",
"02151099999","2010-10-19T18:00:00","4","66.4833333","20.1666666","275.0","JOKKMOKK FPL, SW","FM-12","99999","V020","320,1,N,0040,1","00240,1,C,N","045000,1,N,1","+0017,1","+0015,1","09945,1","23,1","8,1,06,1","06,1,+00240,1,99,9","07,1,+00330,1,99,9","120,M,+0072,1","999,N,+0017,1","99999,9,09611,1","3,1,021,1,+999,9","SYN100AAXX  19181 02151 47383 /3204 10017 20015 39611 49945 53021 72386 333 10072 20017 86/08 87/11 88/25;",
"02151099999","2010-10-19T21:00:00","4","66.4833333","20.1666666","275.0","JOKKMOKK FPL, SW","FM-12","99999","V020","320,1,N,0030,1","00180,1,C,N","002600,1,N,1","+0003,1","+0003,1","09963,1","71,1","8,1,03,1","06,1,+00180,1,99,9",,,,"99999,9,09626,1","2,1,016,1,+999,9","SYN082AAXX  19211 02151 47226 /3203 10003 20003 39626 49963 52016 77187 333 86/06 88/12;",
"02151099999","2010-10-20T00:00:00","4","66.4833333","20.1666666","275.0","JOKKMOKK FPL, SW","FM-12","99999","V020","320,1,N,0040,1","00390,1,C,N","001300,1,N,1","-0012,1","-0012,1","09964,1","71,1","8,1,06,1","09,1,+00390,1,99,9",,,,"99999,9,09626,1","4,1,000,1,+999,9","SYN076AAXX  20001 02151 47/13 /3204 11012 21012 39626 49964 54000 77187 333 89/13;",
"02151099999","2010-10-20T03:00:00","4","66.4833333","20.1666666","275.0","JOKKMOKK FPL, SW","FM-12","99999","V020","330,1,N,0040,1","00240,1,C,N","000500,1,N,1","-0020,1","-0020,1","09955,1","72,1","7,1,03,1","09,1,+00240,1,99,9",,,,"99999,9,09616,1","7,1,010,1,+999,9","SYN076AAXX  20031 02151 47/05 /3304 11020 21020 39616 49955 57010 77277 333 89/08;",
"02151099999","2010-10-20T06:00:00","4","66.4833333","20.1666666","275.0","JOKKMOKK FPL, SW","FM-12","99999","V020","320,1,N,0050,1","00420,1,C,N","001000,1,N,1","-0024,1","-0024,1","09949,1","71,1","7,1,06,1","09,1,+00420,1,99,9",,"120,M,+0017,1","999,N,-0024,1","99999,9,09610,1","7,1,006,1,+999,9","SYN088AAXX  20061 02151 47/10 /3205 11024 21024 39610 49949 57006 77177 333 10017 21024 89/14;",
"02151099999","2010-10-20T09:00:00","4","66.4833333","20.1666666","275.0","JOKKMOKK FPL, SW","FM-12","99999","V020","310,1,N,0040,1","00450,1,C,N","002000,1,N,1","-0022,1","-0022,1","09949,1","71,1","7,1,03,1","06,1,+00450,1,99,9",,,,"99999,9,09610,1","4,1,000,1,+999,9","SYN082AAXX  20091 02151 47420 /3104 11022 21022 39610 49949 54000 77177 333 86/15 88/21;",
"02151099999","2010-10-20T12:00:00","4","66.4833333","20.1666666","275.0","JOKKMOKK FPL, SW","FM-12","99999","V020","310,1,N,0050,1","00570,1,C,N","003600,1,N,1","-0021,1","-0022,1","09954,1","71,1","7,1,06,1","01,1,+00360,1,99,9","06,1,+00570,1,99,9",,,"99999,9,09615,1","2,1,005,1,+999,9","SYN088AAXX  20121 02151 47436 /3105 11021 21022 39615 49954 52005 77177 333 81/12 86/19 88/25;",
"02151099999","2010-10-20T15:00:00","4","66.4833333","20.1666666","275.0","JOKKMOKK FPL, SW","FM-12","99999","V020","300,1,N,0050,1","99999,9,9,N","050000,1,N,1","-0027,1","-0032,1","09969,1","24,1","7,1,03,1","04,1,+00570,1,99,9",,,,"99999,9,09629,1","3,1,014,1,+999,9","SYN082AAXX  20151 02151 47484 /3005 11027 21032 39629 49969 53014 72472 333 84/19 88/24;",
"02151099999","2010-10-20T18:00:00","4","66.4833333","20.1666666","275.0","JOKKMOKK FPL, SW","FM-12","99999","V020","290,1,N,0030,1","00870,1,C,N","050000,1,N,1","-0031,1","-0044,1","09979,1","00,1","7,1,06,1","08,1,+00870,1,99,9",,"120,M,-0020,1","999,N,-0032,1","99999,9,09638,1","3,1,009,1,+999,9","SYN088AAXX  20181 02151 47584 /2903 11031 21044 39638 49979 53009 70072 333 11020 21032 88/29;",
"02151099999","2010-10-20T21:00:00","4","66.4833333","20.1666666","275.0","JOKKMOKK FPL, SW","FM-12","99999","V020","290,1,N,0030,1","00810,1,C,N","050000,1,N,1","-0054,1","-0065,1","09986,1",,,"07,1,+00810,1,99,9",,,,"99999,9,09642,1","2,1,004,1,+999,9","SYN070AAXX  20211 02151 45584 /2903 11054 21065 39642 49986 52004 333 87/27;",
"02151099999","2010-10-21T00:00:00","4","66.4833333","20.1666666","275.0","JOKKMOKK FPL, SW","FM-12","99999","V020","290,1,N,0030,1","00810,1,C,N","050000,1,N,1","-0052,1","-0067,1","09984,1",,,"08,1,+00810,1,99,9",,,,"99999,9,09640,1","7,1,002,1,+999,9","SYN070AAXX  21001 02151 45584 /2903 11052 21067 39640 49984 57002 333 88/27;",
"02151099999","2010-10-21T03:00:00","4","66.4833333","20.1666666","275.0","JOKKMOKK FPL, SW","FM-12","99999","V020","290,1,N,0020,1","99999,9,9,N","050000,1,N,1","-0075,1","-0085,1","09979,1",,,,,,,"99999,9,09633,1","7,1,007,1,+999,9","SYN060AAXX  21031 02151 45984 /2902 11075 21085 39633 49979 57007;",
"02151099999","2010-10-21T06:00:00","4","66.4833333","20.1666666","275.0","JOKKMOKK FPL, SW","FM-12","99999","V020","310,1,N,0020,1","99999,9,9,N","050000,1,N,1","-0090,1","-0103,1","09973,1",,,"04,1,+01020,1,99,9",,"120,M,-0031,1","999,N,-0101,1","99999,9,09625,1","7,1,008,1,+999,9","SYN082AAXX  21061 02151 45684 /3102 11090 21103 39625 49973 57008 333 11031 21101 84/34;",
"02151099999","2010-10-21T09:00:00","4","66.4833333","20.1666666","275.0","JOKKMOKK FPL, SW","FM-12","99999","V020","300,1,N,0030,1","99999,9,9,N","050000,1,N,1","-0048,1","-0065,1","09959,1",,,"04,1,+01020,1,99,9",,,,"99999,9,09617,1","7,1,008,1,+999,9","SYN070AAXX  21091 02151 45684 /3003 11048 21065 39617 49959 57008 333 84/34;",
"02151099999","2010-10-21T12:00:00","4","66.4833333","20.1666666","275.0","JOKKMOKK FPL, SW","FM-12","99999","V020","300,1,N,0030,1","00990,1,C,N","050000,1,N,1","-0018,1","-0036,1","09945,1",,,"08,1,+00990,1,99,9",,,,"99999,9,09606,1","7,1,011,1,+999,9","SYN070AAXX  21121 02151 45584 /3003 11018 21036 39606 49945 57011 333 88/33;",
"02151099999","2010-10-21T15:00:00","4","66.4833333","20.1666666","275.0","JOKKMOKK FPL, SW","FM-12","99999","V020","290,1,N,0030,1","01080,1,C,N","050000,1,N,1","-0025,1","-0043,1","09935,1",,,"08,1,+01080,1,99,9",,,,"99999,9,09596,1","7,1,010,1,+999,9","SYN070AAXX  21151 02151 45684 /2903 11025 21043 39596 49935 57010 333 88/36;",
"02151099999","2010-10-21T18:00:00","4","66.4833333","20.1666666","275.0","JOKKMOKK FPL, SW","FM-12","99999","V020","280,1,N,0030,1","99999,9,9,N","050000,1,N,1","-0023,1","-0044,1","09923,1",,,"01,1,+00750,1,99,9",,"120,M,-0016,1","999,N,-0092,1","99999,9,09585,1","7,1,012,1,+999,9","SYN088AAXX  21181 02151 45584 /2803 11023 21044 39585 49923 57012 333 11016 21092 81/25 88/37;",
"02151099999","2010-10-21T21:00:00","4","66.4833333","20.1666666","275.0","JOKKMOKK FPL, SW","FM-12","99999","V020","320,1,N,0020,1","00450,1,C,N","050000,1,N,1","-0023,1","-0038,1","09910,1",,,"08,1,+00450,1,99,9",,,,"99999,9,09572,1","7,1,013,1,+999,9","SYN070AAXX  21211 02151 45484 /3202 11023 21038 39572 49910 57013 333 88/15;",
"02151099999","2010-10-22T00:00:00","4","66.4833333","20.1666666","275.0","JOKKMOKK FPL, SW","FM-12","99999","V020","150,1,N,0010,1","00420,1,C,N","003500,1,N,1","-0028,1","-0031,1","09899,1","71,1","7,1,06,1","09,1,+00420,1,99,9",,,,"99999,9,09561,1","7,1,011,1,+999,9","SYN076AAXX  22001 02151 47/35 /1501 11028 21031 39561 49899 57011 77174 333 89/14;",
"02151099999","2010-10-22T03:00:00","4","66.4833333","20.1666666","275.0","JOKKMOKK FPL, SW","FM-12","99999","V020","150,1,N,0010,1","00360,1,C,N","045000,1,N,1","-0033,1","-0033,1","09886,1","85,1","8,1,03,1","08,1,+00360,1,99,9",,,,"99999,9,09548,1","7,1,013,1,+999,9","SYN076AAXX  22031 02151 47483 /1501 11033 21033 39548 49886 57013 78587 333 88/12;",
"02151099999","2010-10-22T06:00:00","4","66.4833333","20.1666666","275.0","JOKKMOKK FPL, SW","FM-12","99999","V020","999,9,C,0000,1","00270,1,C,N","010000,1,N,1","-0031,1","-0031,1","09877,1","10,1","8,1,06,1","08,1,+00270,1,99,9",,"120,M,-0021,1","999,N,-0040,1","99999,9,09539,1","7,1,008,1,+999,9","SYN088AAXX  22061 02151 47360 /0000 11031 21031 39539 49877 57008 71087 333 11021 21040 88/09;",
"02151099999","2010-10-22T09:00:00","4","66.4833333","20.1666666","275.0","JOKKMOKK FPL, SW","FM-12","99999","V020","150,1,N,0020,1","00150,1,C,N","017000,1,N,1","-0024,1","-0026,1","09874,1","85,1","8,1,03,1","08,1,+00150,1,99,9",,,,"99999,9,09537,1","7,1,002,1,+999,9","SYN076AAXX  22091 02151 47267 /1502 11024 21026 39537 49874 57002 78587 333 88/05;",
"02151099999","2010-10-22T12:00:00","4","66.4833333","20.1666666","275.0","JOKKMOKK FPL, SW","FM-12","99999","V020","130,1,N,0010,1","99999,9,9,N","040000,1,N,1","-0012,1","-0014,1","09869,1","00,1","8,1,06,1","02,1,+00180,1,99,9",,,,"99999,9,09534,1","7,1,004,1,+999,9","SYN082AAXX  22121 02151 47282 /1301 11012 21014 39534 49869 57004 70087 333 82/06 88/17;",
"02151099999","2010-10-22T15:00:00","4","66.4833333","20.1666666","275.0","JOKKMOKK FPL, SW","FM-12","99999","V020","160,1,N,0010,1","99999,9,9,N","050000,1,N,1","-0021,1","-0021,1","09869,1",,,"04,1,+00120,1,99,9",,,,"99999,9,09533,1","4,1,000,1,+999,9","SYN076AAXX  22151 02151 45284 /1601 11021 21021 39533 49869 54001 333 84/04 88/38;",
"02151099999","2010-10-22T18:00:00","4","66.4833333","20.1666666","275.0","JOKKMOKK FPL, SW","FM-12","99999","V020","120,1,N,0010,1","00090,1,C,N","009000,1,N,1","-0028,1","-0028,1","09868,1",,,"08,1,+00090,1,99,9",,"120,M,-0012,1","999,N,-0033,1","99999,9,09531,1","7,1,002,1,+999,9","SYN082AAXX  22181 02151 45259 /1201 11028 21028 39531 49868 57002 333 11012 21033 88/03;",
"02151099999","2010-10-22T21:00:00","4","66.4833333","20.1666666","275.0","JOKKMOKK FPL, SW","FM-12","99999","V020","999,9,C,0000,1","01410,1,C,N","010000,1,N,1","-0036,1","-0036,1","09864,1",,,"07,1,+01410,1,99,9",,,,"99999,9,09526,1","7,1,005,1,+999,9","SYN070AAXX  22211 02151 45660 /0000 11036 21036 39526 49864 57005 333 87/47;",
"02151099999","2010-10-23T00:00:00","4","66.4833333","20.1666666","275.0","JOKKMOKK FPL, SW","FM-12","99999","V020","999,9,C,0000,1","01500,1,C,N","050000,1,N,1","-0061,1","-0062,1","09864,1","20,1","4,1,06,1","08,1,+01500,1,99,9",,,,"99999,9,09523,1","8,1,003,1,+999,9","SYN076AAXX  23001 02151 47784 /0000 11061 21062 39523 49864 58003 72032 333 88/50;",
"02151099999","2010-10-23T03:00:00","4","66.4833333","20.1666666","275.0","JOKKMOKK FPL, SW","FM-12","99999","V020","999,9,C,0000,1","01470,1,C,N","050000,1,N,1","-0036,1","-0036,1","09858,1",,,"06,1,+01470,1,99,9",,,,"99999,9,09521,1","7,1,003,1,+999,9","SYN076AAXX  23031 02151 45684 /0000 11036 21036 39521 49858 57003 333 86/49 88/56;",
"02151099999","2010-10-23T06:00:00","4","66.4833333","20.1666666","275.0","JOKKMOKK FPL, SW","FM-12","99999","V020","999,9,C,0000,1","01800,1,C,N","050000,1,N,1","-0033,1","-0033,1","09858,1",,,"08,1,+01800,1,99,9",,"120,M,-0028,1","999,N,-0070,1","99999,9,09521,1","4,1,000,1,+999,9","SYN082AAXX  23061 02151 45784 /0000 11033 21033 39521 49858 54000 333 11028 21070 88/56;",
"02151099999","2010-10-23T09:00:00","4","66.4833333","20.1666666","275.0","JOKKMOKK FPL, SW","FM-12","99999","V020","999,9,C,0000,1","01500,1,C,N","045000,1,N,1","-0013,1","-0013,1","09861,1","24,1","8,1,03,1","01,1,+01230,1,99,9","07,1,+01500,1,99,9",,,"99999,9,09526,1","2,1,005,1,+999,9","SYN088AAXX  23091 02151 47683 /0000 11013 21013 39526 49861 52005 72487 333 81/41 87/50 88/57;",
"02151099999","2010-10-23T12:00:00","4","66.4833333","20.1666666","275.0","JOKKMOKK FPL, SW","FM-12","99999","V020","999,9,C,0000,1","99999,9,9,N","040000,1,N,1","+0024,1","+0008,1","09860,1","00,1","8,1,06,1","03,1,+02100,1,99,9",,,,"99999,9,09529,1","2,1,003,1,+999,9","SYN076AAXX  23121 02151 47882 /0000 10024 20008 39529 49860 52003 70087 333 83/57;",
"02151099999","2010-10-23T15:00:00","4","66.4833333","20.1666666","275.0","JOKKMOKK FPL, SW","FM-12","99999","V020","280,1,N,0020,1","02400,1,C,N","050000,1,N,1","+0023,1","+0006,1","09866,1",,,"07,1,+02400,1,99,9",,,,"99999,9,09536,1","3,1,007,1,+999,9","SYN070AAXX  23151 02151 45884 /2802 10023 20006 39536 49866 53007 333 87/58;",
"02151099999","2010-10-23T18:00:00","4","66.4833333","20.1666666","275.0","JOKKMOKK FPL, SW","FM-12","99999","V020","290,1,N,0020,1","99999,9,9,N","050000,1,N,1","+0018,1","+0001,1","09872,1",,,"02,1,+01800,1,99,9",,"120,M,+0035,1","999,N,-0044,1","99999,9,09541,1","3,1,005,1,+999,9","SYN082AAXX  23181 02151 45884 /2902 10018 20001 39541 49872 53005 333 10035 21044 82/56;",
"02151099999","2010-10-23T21:00:00","4","66.4833333","20.1666666","275.0","JOKKMOKK FPL, SW","FM-12","99999","V020","270,1,N,0010,1","99999,9,9,N","050000,1,N,1","+0014,1","+0000,1","09883,1",,,"01,1,+01500,1,99,9",,,,"99999,9,09551,1","3,1,010,1,+999,9","SYN070AAXX  23211 02151 45784 /2701 10014 20000 39551 49883 53010 333 81/50;",
"02151099999","2010-10-24T00:00:00","4","66.4833333","20.1666666","275.0","JOKKMOKK FPL, SW","FM-12","99999","V020","280,1,N,0030,1","01800,1,C,N","050000,1,N,1","+0028,1","+0000,1","09888,1",,,"07,1,+01800,1,99,9",,,,"99999,9,09557,1","2,1,006,1,+999,9","SYN076AAXX  24001 02151 45784 /2803 10028 20000 39557 49888 52006 333 87/56 88/58;",
"02151099999","2010-10-24T03:00:00","4","66.4833333","20.1666666","275.0","JOKKMOKK FPL, SW","FM-12","99999","V020","290,1,N,0030,1","01500,1,C,N","050000,1,N,1","+0026,1","+0001,1","09901,1","00,1","8,1,03,1","06,1,+01500,1,99,9",,,,"99999,9,09569,1","2,1,012,1,+999,9","SYN082AAXX  24031 02151 47784 /2903 10026 20001 39569 49901 52012 70084 333 86/50 87/57;",
"02151099999","2010-10-24T06:00:00","4","66.4833333","20.1666666","275.0","JOKKMOKK FPL, SW","FM-12","99999","V020","310,1,N,0020,1","00870,1,C,N","025000,1,N,1","+0017,1","+0009,1","09915,1","52,1","8,1,06,1","05,1,+00870,1,99,9",,"120,M,+0029,1","999,N,+0002,1","99999,9,09582,1","3,1,013,1,+999,9","SYN088AAXX  24061 02151 47575 /3102 10017 20009 39582 49915 53013 75286 333 10029 20002 85/29;",
"02151099999","2010-10-24T09:00:00","4","66.4833333","20.1666666","275.0","JOKKMOKK FPL, SW","FM-12","99999","V020","010,1,N,0010,1","00810,1,C,N","035000,1,N,1","+0013,1","+0012,1","09932,1","00,1","6,1,03,1","09,1,+00810,1,99,9",,,,"99999,9,09597,1","3,1,016,1,+999,9","SYN076AAXX  24091 02151 47/81 /0101 10013 20012 39597 49932 53016 70065 333 89/27;",
"02151099999","2010-10-24T12:00:00","4","66.4833333","20.1666666","275.0","JOKKMOKK FPL, SW","FM-12","99999","V020","999,9,C,0000,1","01800,1,C,N","050000,1,N,1","+0023,1","+0015,1","09947,1","22,1","8,1,06,1","06,1,+01800,1,99,9",,,,"99999,9,09613,1","2,1,016,1,+999,9","SYN082AAXX  24121 02151 47784 /0000 10023 20015 39613 49947 52016 72286 333 86/56 88/58;",
"02151099999","2010-10-24T15:00:00","4","66.4833333","20.1666666","275.0","JOKKMOKK FPL, SW","FM-12","99999","V020","999,9,C,0000,1","01440,1,C,N","050000,1,N,1","+0007,1","+0007,1","09960,1",,,"08,1,+01440,1,99,9",,,,"99999,9,09625,1","2,1,011,1,+999,9","SYN070AAXX  24151 02151 45684 /0000 10007 20007 39625 49960 52011 333 88/48;",
"02151099999","2010-10-24T18:00:00","4","66.4833333","20.1666666","275.0","JOKKMOKK FPL, SW","FM-12","99999","V020","240,1,N,0010,1","00750,1,C,N","050000,1,N,1","-0010,1","-0010,1","09975,1",,,"05,1,+00750,1,99,9","07,1,+01500,1,99,9","120,M,+0026,1","999,N,-0018,1","99999,9,09637,1","2,1,012,1,+999,9","SYN094AAXX  24181 02151 45584 /2401 11010 21010 39637 49975 52012 333 10026 21018 85/25 87/50 88/64;",
"02151099999","2010-10-24T21:00:00","4","66.4833333","20.1666666","275.0","JOKKMOKK FPL, SW","FM-12","99999","V020","999,9,C,0000,1","00660,1,C,N","050000,1,N,1","-0017,1","-0017,1","09987,1","20,1","7,1,03,1","05,1,+00660,1,99,9","07,1,+02400,1,99,9",,,"99999,9,09647,1","3,1,010,1,+999,9","SYN088AAXX  24211 02151 47584 /0000 11017 21017 39647 49987 53010 72076 333 85/22 87/58 88/64;",
"02151099999","2010-10-25T00:00:00","4","66.4833333","20.1666666","275.0","JOKKMOKK FPL, SW","FM-12","99999","V020","999,9,C,0000,1","01380,1,C,N","003300,1,N,1","-0008,1","-0008,1","09995,1","10,1","8,1,06,1","08,1,+01380,1,99,9",,,,"99999,9,09656,1","2,1,009,1,+999,9","SYN076AAXX  25001 02151 47633 /0000 11008 21008 39656 49995 52009 71087 333 88/46;",
"02151099999","2010-10-25T03:00:00","4","66.4833333","20.1666666","275.0","JOKKMOKK FPL, SW","FM-12","99999","V020","999,9,C,0000,1","01500,1,C,N","050000,1,N,1","-0011,1","-0011,1","10007,1",,,"08,1,+01500,1,99,9",,,,"99999,9,09668,1","3,1,011,1,+999,9","SYN070AAXX  25031 02151 45784 /0000 11011 21011 39668 40007 53011 333 88/50;",
"02151099999","2010-10-25T06:00:00","4","66.4833333","20.1666666","275.0","JOKKMOKK FPL, SW","FM-12","99999","V020","999,9,C,0000,1","99999,9,9,N","045000,1,N,1","-0015,1","-0015,1","10022,1",,,"01,1,+00990,1,99,9",,"120,M,+0001,1","999,N,-0020,1","99999,9,09681,1","2,1,013,1,+999,9","SYN088AAXX  25061 02151 45583 /0000 11015 21015 39681 40022 52013 333 10001 21020 81/33 88/56;",
"02151099999","2010-10-25T09:00:00","4","66.4833333","20.1666666","275.0","JOKKMOKK FPL, SW","FM-12","99999","V020","330,1,N,0010,1","00720,1,C,N","030000,1,N,1","-0003,1","-0003,1","10039,1","85,1","8,1,03,1","02,1,+00540,1,99,9","05,1,+00720,1,99,9",,,"99999,9,09699,1","2,1,018,1,+999,9","SYN088AAXX  25091 02151 47480 /3301 11003 21003 39699 40039 52018 78587 333 82/18 85/24 87/29;",
"02151099999","2010-10-25T12:00:00","4","66.4833333","20.1666666","275.0","JOKKMOKK FPL, SW","FM-12","99999","V020","330,1,N,0020,1","01170,1,C,N","050000,1,N,1","-0001,1","-0006,1","10057,1","85,1","8,1,06,1","01,1,+00180,1,99,9","05,1,+01170,1,99,9",,,"99999,9,09717,1","2,1,017,1,+999,9","SYN088AAXX  25121 02151 47384 /3302 11001 21006 39717 40057 52017 78587 333 81/06 85/39 87/50;",
"02151099999","2010-10-25T15:00:00","4","66.4833333","20.1666666","275.0","JOKKMOKK FPL, SW","FM-12","99999","V020","300,1,N,0010,1","01230,1,C,N","006000,1,N,1","-0030,1","-0030,1","10080,1","10,1","8,1,03,1","06,1,+01230,1,99,9",,,,"99999,9,09736,1","2,1,019,1,+999,9","SYN082AAXX  25151 02151 47656 /3001 11030 21030 39736 40080 52019 71082 333 86/41 88/50;",
"02151099999","2010-10-25T18:00:00","4","66.4833333","20.1666666","275.0","JOKKMOKK FPL, SW","FM-12","99999","V020","999,9,C,0000,1","00570,1,C,N","050000,1,N,1","-0015,1","-0015,1","10096,1","00,1","8,1,06,1","06,1,+00570,1,99,9",,"120,M,+0007,1","999,N,-0031,1","99999,9,09753,1","3,1,017,1,+999,9","SYN094AAXX  25181 02151 47484 /0000 11015 21015 39753 40096 53017 70087 333 10007 21031 86/19 88/56;",
"02151099999","2010-10-25T21:00:00","4","66.4833333","20.1666666","275.0","JOKKMOKK FPL, SW","FM-12","99999","V020","999,9,C,0000,1","01800,1,C,N","050000,1,N,1","-0021,1","-0021,1","10113,1",,,"08,1,+01800,1,99,9",,,,"99999,9,09769,1","2,1,016,1,+999,9","SYN070AAXX  25211 02151 45784 /0000 11021 21021 39769 40113 52016 333 88/56;",
"02151099999","2010-10-26T00:00:00","4","66.4833333","20.1666666","275.0","JOKKMOKK FPL, SW","FM-12","99999","V020","999,9,C,0000,1","01800,1,C,N","050000,1,N,1","-0028,1","-0029,1","10125,1",,,"08,1,+01800,1,99,9",,,,"99999,9,09779,1","2,1,011,1,+999,9","SYN070AAXX  26001 02151 45784 /0000 11028 21029 39779 40125 52011 333 88/56;",
"02151099999","2010-10-26T03:00:00","4","66.4833333","20.1666666","275.0","JOKKMOKK FPL, SW","FM-12","99999","V020","999,9,C,0000,1","01800,1,C,N","050000,1,N,1","-0030,1","-0030,1","10132,1",,,"08,1,+01800,1,99,9",,,,"99999,9,09786,1","2,1,006,1,+999,9","SYN070AAXX  26031 02151 45784 /0000 11030 21030 39786 40132 52006 333 88/56;",
"02151099999","2010-10-26T06:00:00","4","66.4833333","20.1666666","275.0","JOKKMOKK FPL, SW","FM-12","99999","V020","999,9,C,0000,1","01800,1,C,N","050000,1,N,1","-0034,1","-0034,1","10138,1",,,"08,1,+01800,1,99,9",,"120,M,-0012,1","999,N,-0036,1","99999,9,09791,1","3,1,005,1,+999,9","SYN082AAXX  26061 02151 45784 /0000 11034 21034 39791 40138 53005 333 11012 21036 88/56;",
"02151099999","2010-10-26T09:00:00","4","66.4833333","20.1666666","275.0","JOKKMOKK FPL, SW","FM-12","99999","V020","999,9,C,0000,1","01500,1,C,N","045000,1,N,1","-0023,1","-0027,1","10144,1",,,"08,1,+01500,1,99,9",,,,"99999,9,09798,1","2,1,008,1,+999,9","SYN070AAXX  26091 02151 45783 /0000 11023 21027 39798 40144 52008 333 88/50;",
"02151099999","2010-10-26T12:00:00","4","66.4833333","20.1666666","275.0","JOKKMOKK FPL, SW","FM-12","99999","V020","300,1,N,0010,1","99999,9,9,N","045000,1,N,1","+0007,1","-0023,1","10144,1",,,,,,,"99999,9,09802,1","2,1,004,1,+999,9","SYN060AAXX  26121 02151 45983 /3001 10007 21023 39802 40144 52004;",
"02151099999","2010-10-26T15:00:00","4","66.4833333","20.1666666","275.0","JOKKMOKK FPL, SW","FM-12","99999","V020","999,9,C,0000,1","99999,9,9,N","050000,1,N,1","-0054,1","-0060,1","10163,1",,,,,,,"99999,9,09813,1","2,1,010,1,+999,9","SYN060AAXX  26151 02151 45984 /0000 11054 21060 39813 40163 52010;",
"02151099999","2010-10-26T18:00:00","4","66.4833333","20.1666666","275.0","JOKKMOKK FPL, SW","FM-12","99999","V020","999,9,C,0000,1","99999,9,9,N","050000,1,N,1","-0073,1","-0076,1","10171,1",,,,,"120,M,+0014,1","999,N,-0084,1","99999,9,09818,1","2,1,005,1,+999,9","SYN076AAXX  26181 02151 45984 /0000 11073 21076 39818 40171 52005 333 10014 21084;",
"02151099999","2010-10-26T21:00:00","4","66.4833333","20.1666666","275.0","JOKKMOKK FPL, SW","FM-12","99999","V020","250,1,N,0010,1","99999,9,9,N","050000,1,N,1","-0092,1","-0097,1","10173,1",,,,,,,"99999,9,09818,1","4,1,000,1,+999,9","SYN060AAXX  26211 02151 45984 /2501 11092 21097 39818 40173 54000;",
"02151099999","2010-10-27T00:00:00","4","66.4833333","20.1666666","275.0","JOKKMOKK FPL, SW","FM-12","99999","V020","999,9,C,0000,1","99999,9,9,N","050000,1,N,1","-0086,1","-0089,1","10163,1",,,,,,,"99999,9,09809,1","7,1,009,1,+999,9","SYN060AAXX  27001 02151 45984 /0000 11086 21089 39809 40163 57009;",
"02151099999","2010-10-27T03:00:00","4","66.4833333","20.1666666","275.0","JOKKMOKK FPL, SW","FM-12","99999","V020","150,1,N,0020,1","99999,9,9,N","050000,1,N,1","-0088,1","-0093,1","10154,1",,,,,,,"99999,9,09799,1","8,1,010,1,+999,9","SYN060AAXX  27031 02151 45984 /1502 11088 21093 39799 40154 58010;",
"02151099999","2010-10-27T06:00:00","4","66.4833333","20.1666666","275.0","JOKKMOKK FPL, SW","FM-12","99999","V020","150,1,N,0020,1","99999,9,9,N","050000,1,N,1","-0111,1","-0115,1","10143,1",,,,,"120,M,-0063,1","999,N,-0120,1","99999,9,09786,1","5,1,013,1,+999,9","SYN076AAXX  27061 02151 45984 /1502 11111 21115 39786 40143 55013 333 11063 21120;",
"02151099999","2010-10-27T09:00:00","4","66.4833333","20.1666666","275.0","JOKKMOKK FPL, SW","FM-12","99999","V020","140,1,N,0010,1","99999,9,9,N","050000,1,N,1","-0084,1","-0088,1","10130,1",,,"03,1,+03300,1,99,9",,,,"99999,9,09777,1","8,1,009,1,+999,9","SYN070AAXX  27091 02151 45984 /1401 11084 21088 39777 40130 58009 333 83/61;",
"02151099999","2010-10-27T12:00:00","4","66.4833333","20.1666666","275.0","JOKKMOKK FPL, SW","FM-12","99999","V020","110,1,N,0020,1","99999,9,9,N","050000,1,N,1","-0049,1","-0051,1","10103,1",,,,,,,"99999,9,09756,1","7,1,021,1,+999,9","SYN060AAXX  27121 02151 45984 /1102 11049 21051 39756 40103 57021;",
"02151099999","2010-10-27T15:00:00","4","66.4833333","20.1666666","275.0","JOKKMOKK FPL, SW","FM-12","99999","V020","140,1,N,0050,1","00120,1,C,N","050000,1,N,1","-0039,1","-0039,1","10067,1",,,"07,1,+00120,1,99,9",,,,"99999,9,09722,1","8,1,034,1,+999,9","SYN076AAXX  27151 02151 45284 /1405 11039 21039 39722 40067 58034 333 87/04 88/57;",
"02151099999","2010-10-27T18:00:00","4","66.4833333","20.1666666","275.0","JOKKMOKK FPL, SW","FM-12","99999","V020","130,1,N,0050,1","00180,1,C,N","001600,1,N,1","-0008,1","-0008,1","10021,1","71,1","7,1,06,1","09,1,+00180,1,99,9",,"120,M,-0009,1","999,N,-0122,1","99999,9,09681,1","8,1,041,1,+999,9","SYN088AAXX  27181 02151 47/16 /1305 11008 21008 39681 40021 58041 77174 333 11009 21122 89/06;",
"02151099999","2010-10-27T21:00:00","4","66.4833333","20.1666666","275.0","JOKKMOKK FPL, SW","FM-12","99999","V020","140,1,N,0070,1","00180,1,C,N","002300,1,N,1","+0002,1","+0002,1","09977,1","71,1","7,1,03,1","05,1,+00180,1,99,9","07,1,+00270,1,99,9",,,"99999,9,09640,1","8,1,041,1,+999,9","SYN088AAXX  27211 02151 47223 /1407 10002 20002 39640 49977 58041 77177 333 85/06 87/09 88/13;",
"02151099999","2010-10-28T06:00:00","4","66.4833333","20.1666666","275.0","JOKKMOKK FPL, SW","FM-12","99999","V020","150,1,N,0010,1","00210,1,C,N","001700,1,N,1","+0000,1","+0000,1","09898,1","71,1","7,1,06,1","09,1,+00210,1,99,9",,"120,M,+0004,1","999,N,-0009,1","99999,9,09564,1","6,1,015,1,+999,9","SYN088AAXX  28061 02151 47/17 /1501 10000 20000 39564 49898 56015 77177 333 10004 21009 89/07;",
"02151099999","2010-10-28T09:00:00","4","66.4833333","20.1666666","275.0","JOKKMOKK FPL, SW","FM-12","99999","V020","999,9,C,0000,1","99999,9,9,N","050000,1,N,1","+0006,1","+0006,1","09898,1","81,1","8,1,03,1","01,1,+00270,1,99,9",,,,"99999,9,09564,1","5,1,001,1,+999,9","SYN076AAXX  28091 02151 47384 /0000 10006 20006 39564 49898 55001 78187 333 81/09;",
"02151099999","2010-10-28T12:00:00","4","66.4833333","20.1666666","275.0","JOKKMOKK FPL, SW","FM-12","99999","V020","999,9,C,0000,1","99999,9,9,N","050000,1,N,1","+0017,1","+0016,1","09895,1","81,1","8,1,06,1",,,,,"99999,9,09563,1","8,1,002,1,+999,9","SYN066AAXX  28121 02151 47984 /0000 10017 20016 39563 49895 58002 78187;",
"02151099999","2010-10-28T15:00:00","4","66.4833333","20.1666666","275.0","JOKKMOKK FPL, SW","FM-12","99999","V020","210,1,N,0020,1","02700,1,C,N","050000,1,N,1","+0031,1","+0026,1","09891,1","00,1","8,1,03,1","08,1,+02700,1,99,9",,,,"99999,9,09561,1","7,1,002,1,+999,9","SYN076AAXX  28151 02151 47984 /2102 10031 20026 39561 49891 57002 70082 333 88/59;",
"02151099999","2010-10-28T18:00:00","4","66.4833333","20.1666666","275.0","JOKKMOKK FPL, SW","FM-12","99999","V020","180,1,N,0020,1","99999,9,9,N","050000,1,N,1","+0028,1","+0020,1","09891,1","00,1","8,1,06,1",,,"120,M,+0036,1","999,N,-0001,1","99999,9,09560,1","5,1,001,1,+999,9","SYN082AAXX  28181 02151 47984 /1802 10028 20020 39560 49891 55001 70082 333 10036 21001;",
"02151099999","2010-10-28T21:00:00","4","66.4833333","20.1666666","275.0","JOKKMOKK FPL, SW","FM-12","99999","V020","140,1,N,0020,1","01800,1,C,N","050000,1,N,1","+0011,1","+0007,1","09888,1",,,"06,1,+01800,1,99,9",,,,"99999,9,09555,1","7,1,004,1,+999,9","SYN076AAXX  28211 02151 45884 /1402 10011 20007 39555 49888 57004 333 86/56 87/61;",
"02151099999","2010-10-29T00:00:00","4","66.4833333","20.1666666","275.0","JOKKMOKK FPL, SW","FM-12","99999","V020","999,9,C,0000,1","99999,9,9,N","011000,1,N,1","+0007,1","+0007,1","09883,1","61,1","6,1,06,1","02,1,+00930,1,99,9",,,,"99999,9,09549,1","5,1,006,1,+999,9","SYN076AAXX  29001 02151 47561 /0000 10007 20007 39549 49883 55006 76165 333 82/31;",
"02151099999","2010-10-29T03:00:00","4","66.4833333","20.1666666","275.0","JOKKMOKK FPL, SW","FM-12","99999","V020","010,1,N,0040,1","00150,1,C,N","009000,1,N,1","+0006,1","+0005,1","09907,1","71,1","7,1,03,1","05,1,+00150,1,99,9",,,,"99999,9,09573,1","3,1,023,1,+999,9","SYN082AAXX  29031 02151 47259 /0104 10006 20005 39573 49907 53023 77176 333 85/05 88/08;",
"02151099999","2010-10-29T06:00:00","4","66.4833333","20.1666666","275.0","JOKKMOKK FPL, SW","FM-12","99999","V020","330,1,N,0050,1","99999,9,9,N","017000,1,N,1","-0010,1","-0012,1","09954,1","71,1","7,1,06,1","01,1,+00270,1,99,9",,"120,M,+0031,1","999,N,-0012,1","99999,9,09616,1","2,1,043,1,+999,9","SYN094AAXX  29061 02151 47367 /3305 11010 21012 39616 49954 52043 77176 333 10031 21012 81/09 88/14;",
"02151099999","2010-10-29T09:00:00","4","66.4833333","20.1666666","275.0","JOKKMOKK FPL, SW","FM-12","99999","V020","340,1,N,0060,1","00510,1,C,N","050000,1,N,1","-0007,1","-0015,1","10000,1","00,1","7,1,03,1","08,1,+00510,1,99,9",,,,"99999,9,09661,1","3,1,045,1,+999,9","SYN076AAXX  29091 02151 47484 /3406 11007 21015 39661 40000 53045 70072 333 88/17;",
"02151099999","2010-10-29T12:00:00","4","66.4833333","20.1666666","275.0","JOKKMOKK FPL, SW","FM-12","99999","V020","330,1,N,0040,1","00600,1,C,N","050000,1,N,1","-0006,1","-0022,1","10036,1","00,1","7,1,06,1","08,1,+00600,1,99,9",,,,"99999,9,09696,1","1,1,034,1,+999,9","SYN076AAXX  29121 02151 47584 /3304 11006 21022 39696 40036 51034 70072 333 88/20;",
"02151099999","2010-10-29T15:00:00","4","66.4833333","20.1666666","275.0","JOKKMOKK FPL, SW","FM-12","99999","V020","330,1,N,0040,1","99999,9,9,N","050000,1,N,1","-0035,1","-0047,1","10057,1",,,,,,,"99999,9,09712,1","2,1,017,1,+999,9","SYN060AAXX  29151 02151 45984 /3304 11035 21047 39712 40057 52017;",
"02151099999","2010-10-29T18:00:00","4","66.4833333","20.1666666","275.0","JOKKMOKK FPL, SW","FM-12","99999","V020","310,1,N,0020,1","99999,9,9,N","050000,1,N,1","-0062,1","-0071,1","10085,1",,,,,"120,M,-0004,1","999,N,-0063,1","99999,9,09736,1","1,1,024,1,+999,9","SYN076AAXX  29181 02151 45984 /3102 11062 21071 39736 40085 51024 333 11004 21063;",
"02151099999","2010-10-29T21:00:00","4","66.4833333","20.1666666","275.0","JOKKMOKK FPL, SW","FM-12","99999","V020","999,9,C,0000,1","99999,9,9,N","050000,1,N,1","-0083,1","-0083,1","10093,1",,,,,,,"99999,9,09741,1","3,1,005,1,+999,9","SYN060AAXX  29211 02151 45984 /0000 11083 21083 39741 40093 53005;",
"02151099999","2010-10-30T00:00:00","4","66.4833333","20.1666666","275.0","JOKKMOKK FPL, SW","FM-12","99999","V020","999,9,C,0000,1","99999,9,9,N","050000,1,N,1","-0102,1","-0107,1","10097,1",,,,,,,"99999,9,09743,1","0,1,002,1,+999,9","SYN060AAXX  30001 02151 45984 /0000 11102 21107 39743 40097 50002;",
"02151099999","2010-10-30T03:00:00","4","66.4833333","20.1666666","275.0","JOKKMOKK FPL, SW","FM-12","99999","V020","999,9,C,0000,1","99999,9,9,N","050000,1,N,1","-0121,1","-0127,1","10093,1",,,,,,,"99999,9,09736,1","8,1,006,1,+999,9","SYN060AAXX  30031 02151 45984 /0000 11121 21127 39736 40093 58006;",
"02151099999","2010-10-30T06:00:00","4","66.4833333","20.1666666","275.0","JOKKMOKK FPL, SW","FM-12","99999","V020","999,9,C,0000,1","99999,9,9,N","050000,1,N,1","-0098,1","-0101,1","10084,1",,,"04,1,+02100,1,99,9",,"120,M,-0059,1","999,N,-0133,1","99999,9,09731,1","8,1,006,1,+999,9","SYN088AAXX  30061 02151 45884 /0000 11098 21101 39731 40084 58006 333 11059 21133 84/57 85/61;",
"02151099999","2010-10-30T09:00:00","4","66.4833333","20.1666666","275.0","JOKKMOKK FPL, SW","FM-12","99999","V020","120,1,N,0010,1","00360,1,C,N","050000,1,N,1","-0079,1","-0082,1","10074,1",,,"07,1,+00360,1,99,9",,,,"99999,9,09723,1","8,1,008,1,+999,9","SYN070AAXX  30091 02151 45484 /1201 11079 21082 39723 40074 58008 333 87/12;",
"02151099999","2010-10-30T12:00:00","4","66.4833333","20.1666666","275.0","JOKKMOKK FPL, SW","FM-12","99999","V020","110,1,N,0010,1","00150,1,C,N","001200,1,N,1","-0052,1","-0054,1","10049,1","71,1","7,1,06,1","08,1,+00150,1,99,9",,,,"99999,9,09703,1","8,1,020,1,+999,9","SYN076AAXX  30121 02151 47212 /1101 11052 21054 39703 40049 58020 77170 333 88/05;",
"02151099999","2010-10-30T15:00:00","4","66.4833333","20.1666666","275.0","JOKKMOKK FPL, SW","FM-12","99999","V020","110,1,N,0030,1","00180,1,C,N","001200,1,N,1","-0044,1","-0045,1","10013,1","72,1","7,1,03,1","09,1,+00180,1,99,9",,,,"99999,9,09670,1","8,1,033,1,+999,9","SYN076AAXX  30151 02151 47/12 /1103 11044 21045 39670 40013 58033 77277 333 89/06;",
"02151099999","2010-10-30T18:00:00","4","66.4833333","20.1666666","275.0","JOKKMOKK FPL, SW","FM-12","99999","V020","110,1,N,0020,1","00330,1,C,N","000900,1,N,1","-0037,1","-0037,1","09977,1","72,1","7,1,06,1","09,1,+00330,1,99,9",,"120,M,-0037,1","999,N,-0100,1","99999,9,09635,1","8,1,034,1,+999,9","SYN088AAXX  30181 02151 47/09 /1102 11037 21037 39635 49977 58034 77277 333 11037 21100 89/11;",
"02151099999","2010-10-30T21:00:00","4","66.4833333","20.1666666","275.0","JOKKMOKK FPL, SW","FM-12","99999","V020","999,9,C,0000,1","00090,1,C,N","002800,1,N,1","-0032,1","-0032,1","09936,1","71,1","7,1,03,1","08,1,+00090,1,99,9",,,,"99999,9,09597,1","6,1,039,1,+999,9","SYN076AAXX  30211 02151 47128 /0000 11032 21032 39597 49936 56039 77177 333 88/03;",
"02151099999","2010-10-31T00:00:00","4","66.4833333","20.1666666","275.0","JOKKMOKK FPL, SW","FM-12","99999","V020","300,1,N,0020,1","99999,9,9,N","002700,1,N,1","-0032,1","-0032,1","09906,1","71,1","7,1,06,1","01,1,+00240,1,99,9",,,,"99999,9,09567,1","6,1,029,1,+999,9","SYN082AAXX  31001 02151 47327 /3002 11032 21032 39567 49906 56029 77177 333 81/08 88/12;",
"02151099999","2010-10-31T03:00:00","4","66.4833333","20.1666666","275.0","JOKKMOKK FPL, SW","FM-12","99999","V020","300,1,N,0010,1","99999,9,9,N","050000,1,N,1","-0047,1","-0048,1","09919,1","00,1","7,1,03,1",,,,,"99999,9,09578,1","3,1,011,1,+999,9","SYN066AAXX  31031 02151 47984 /3001 11047 21048 39578 49919 53011 70072;",
"02151099999","2010-10-31T06:00:00","4","66.4833333","20.1666666","275.0","JOKKMOKK FPL, SW","FM-12","99999","V020","320,1,N,0010,1","99999,9,9,N","050000,1,N,1","-0074,1","-0075,1","09942,1","00,1","7,1,06,1","02,1,+02700,1,99,9",,"120,M,-0028,1","999,N,-0101,1","99999,9,09597,1","3,1,019,1,+999,9","SYN088AAXX  31061 02151 47984 /3201 11074 21075 39597 49942 53019 70072 333 11028 21101 82/59;",
"02151099999","2010-10-31T09:00:00","4","66.4833333","20.1666666","275.0","JOKKMOKK FPL, SW","FM-12","99999","V020","999,9,C,0000,1","99999,9,9,N","045000,1,N,1","-0071,1","-0072,1","09963,1",,,,,,,"99999,9,09618,1","2,1,021,1,+999,9","SYN060AAXX  31091 02151 45983 /0000 11071 21072 39618 49963 52021;",
"02151099999","2010-10-31T12:00:00","4","66.4833333","20.1666666","275.0","JOKKMOKK FPL, SW","FM-12","99999","V020","150,1,N,0030,1","99999,9,9,N","035000,1,N,1","-0043,1","-0043,1","09958,1",,,,,,,"99999,9,09616,1","8,1,002,1,+999,9","SYN060AAXX  31121 02151 45981 /1503 11043 21043 39616 49958 58002;",
"02151099999","2010-10-31T15:00:00","4","66.4833333","20.1666666","275.0","JOKKMOKK FPL, SW","FM-12","99999","V020","150,1,N,0020,1","99999,9,9,N","050000,1,N,1","-0046,1","-0046,1","09949,1","20,1","4,1,03,1",,,,,"99999,9,09607,1","5,1,009,1,+999,9","SYN066AAXX  31151 02151 47984 /1502 11046 21046 39607 49949 55009 72032;",
"02151099999","2010-10-31T18:00:00","4","66.4833333","20.1666666","275.0","JOKKMOKK FPL, SW","FM-12","99999","V020","999,9,C,0000,1","00210,1,C,N","050000,1,N,1","-0031,1","-0031,1","09943,1","00,1","4,1,06,1","01,1,+00090,1,99,9","07,1,+00210,1,99,9","120,M,-0024,1","999,N,-0106,1","99999,9,09603,1","8,1,004,1,+999,9","SYN100AAXX  31181 02151 47184 /0000 11031 21031 39603 49943 58004 70032 333 11024 21106 81/03 87/07 88/11;",
"02151099999","2010-10-31T21:00:00","4","66.4833333","20.1666666","275.0","JOKKMOKK FPL, SW","FM-12","99999","V020","150,1,N,0010,1","99999,9,9,N","021000,1,N,1","-0018,1","-0018,1","09934,1",,,"03,1,+00360,1,99,9",,,,"99999,9,09596,1","8,1,008,1,+999,9","SYN070AAXX  31211 02151 45471 /1501 11018 21018 39596 49934 58008 333 83/12;",
"02151099999","2010-11-01T00:00:00","4","66.4833333","20.1666666","275.0","JOKKMOKK FPL, SW","FM-12","99999","V020","150,1,N,0020,1","99999,9,9,N","015000,1,N,1","-0024,1","-0024,1","09928,1","10,1","4,1,06,1","01,1,+00600,1,99,9",,,,"99999,9,09589,1","8,1,006,1,+999,9","SYN082AAXX  01001 02151 47565 /1502 11024 21024 39589 49928 58006 71032 333 81/20 84/63;",
"02151099999","2010-11-01T03:00:00","4","66.4833333","20.1666666","275.0","JOKKMOKK FPL, SW","FM-12","99999","V020","140,1,N,0020,1","99999,9,9,N","050000,1,N,1","-0009,1","-0009,1","09926,1","00,1","4,1,03,1",,,,,"99999,9,09589,1","4,1,000,1,+999,9","SYN066AAXX  01031 02151 47984 /1402 11009 21009 39589 49926 54000 70032;",
"02151099999","2010-11-01T06:00:00","4","66.4833333","20.1666666","275.0","JOKKMOKK FPL, SW","FM-12","99999","V020","180,1,N,0020,1","05100,1,C,N","050000,1,N,1","+0006,1","+0006,1","09920,1",,,"05,1,+05100,1,99,9",,"120,M,+0016,1","999,N,-0056,1","99999,9,09586,1","7,1,004,1,+999,9","SYN082AAXX  01061 02151 45984 /1802 10006 20006 39586 49920 57004 333 10016 21056 85/67;",
"02151099999","2010-11-01T09:00:00","4","66.4833333","20.1666666","275.0","JOKKMOKK FPL, SW","FM-12","99999","V020","240,1,N,0040,1","99999,9,9,N","050000,1,N,1","+0039,1","+0023,1","09932,1",,,,,,,"99999,9,09601,1","3,1,015,1,+999,9","SYN060AAXX  01091 02151 45984 /2404 10039 20023 39601 49932 53015;",
"02151099999","2010-11-01T12:00:00","4","66.4833333","20.1666666","275.0","JOKKMOKK FPL, SW","FM-12","99999","V020","260,1,N,0040,1","99999,9,9,N","050000,1,N,1","+0042,1","+0002,1","09953,1",,,,,,,"99999,9,09622,1","2,1,021,1,+999,9","SYN060AAXX  01121 02151 45984 /2604 10042 20002 39622 49953 52021;",
"02151099999","2010-11-01T15:00:00","4","66.4833333","20.1666666","275.0","JOKKMOKK FPL, SW","FM-12","99999","V020","260,1,N,0040,1","99999,9,9,N","050000,1,N,1","+0021,1","-0020,1","09976,1",,,,,,,"99999,9,09641,1","2,1,019,1,+999,9","SYN060AAXX  01151 02151 45984 /2604 10021 21020 39641 49976 52019;",
"02151099999","2010-11-01T18:00:00","4","66.4833333","20.1666666","275.0","JOKKMOKK FPL, SW","FM-12","99999","V020","270,1,N,0050,1","99999,9,9,N","050000,1,N,1","+0014,1","-0038,1","09985,1",,,,,"120,M,+0048,1","999,N,+0005,1","99999,9,09650,1","3,1,009,1,+999,9","SYN076AAXX  01181 02151 45984 /2705 10014 21038 39650 49985 53009 333 10048 20005;",
"02151099999","2010-11-01T21:00:00","4","66.4833333","20.1666666","275.0","JOKKMOKK FPL, SW","FM-12","99999","V020","270,1,N,0070,1","99999,9,9,N","050000,1,N,1","+0016,1","-0039,1","09995,1",,,,,,,"99999,9,09659,1","3,1,009,1,+999,9","SYN060AAXX  01211 02151 45984 /2707 10016 21039 39659 49995 53009;",
"02151099999","2010-11-02T00:00:00","4","66.4833333","20.1666666","275.0","JOKKMOKK FPL, SW","FM-12","99999","V020","280,1,N,0060,1","99999,9,9,N","050000,1,N,1","+0010,1","-0046,1","10016,1",,,,,,,"99999,9,09679,1","3,1,021,1,+999,9","SYN060AAXX  02001 02151 45984 /2806 10010 21046 39679 40016 53021;",
"02151099999","2010-11-02T03:00:00","4","66.4833333","20.1666666","275.0","JOKKMOKK FPL, SW","FM-12","99999","V020","300,1,N,0050,1","99999,9,9,N","050000,1,N,1","-0001,1","-0044,1","10022,1",,,,,,,"99999,9,09683,1","2,1,003,1,+999,9","SYN060AAXX  02031 02151 45984 /3005 11001 21044 39683 40022 52003;",
"02151099999","2010-11-02T06:00:00","4","66.4833333","20.1666666","275.0","JOKKMOKK FPL, SW","FM-12","99999","V020","240,1,N,0030,1","99999,9,9,N","050000,1,N,1","-0012,1","-0038,1","10036,1",,,,,"120,M,+0018,1","999,N,-0014,1","99999,9,09696,1","0,1,013,1,+999,9","SYN076AAXX  02061 02151 45984 /2403 11012 21038 39696 40036 50013 333 10018 21014;",
"02151099999","2010-11-02T09:00:00","4","66.4833333","20.1666666","275.0","JOKKMOKK FPL, SW","FM-12","99999","V020","240,1,N,0050,1","99999,9,9,N","040000,1,N,1","-0008,1","-0049,1","10039,1",,,,,,,"99999,9,09699,1","0,1,003,1,+999,9","SYN060AAXX  02091 02151 45982 /2405 11008 21049 39699 40039 50003;",
"02151099999","2010-11-02T12:00:00","4","66.4833333","20.1666666","275.0","JOKKMOKK FPL, SW","FM-12","99999","V020","140,1,N,0020,1","99999,9,9,N","045000,1,N,1","-0030,1","-0053,1","10031,1",,,,,,,"99999,9,09688,1","8,1,011,1,+999,9","SYN060AAXX  02121 02151 45983 /1402 11030 21053 39688 40031 58011;",
"02151099999","2010-11-02T15:00:00","4","66.4833333","20.1666666","275.0","JOKKMOKK FPL, SW","FM-12","99999","V020","140,1,N,0040,1","99999,9,9,N","050000,1,N,1","-0028,1","-0041,1","09996,1",,,"04,1,+01410,1,99,9",,,,"99999,9,09655,1","8,1,033,1,+999,9","SYN076AAXX  02151 02151 45684 /1404 11028 21041 39655 49996 58033 333 84/47 87/56;",
"02151099999","2010-11-02T18:00:00","4","66.4833333","20.1666666","275.0","JOKKMOKK FPL, SW","FM-12","99999","V020","140,1,N,0050,1","00600,1,C,N","006000,1,N,1","-0016,1","-0021,1","09958,1","71,1","7,1,06,1","04,1,+00450,1,99,9","05,1,+00600,1,99,9","120,M,-0006,1","999,N,-0046,1","99999,9,09619,1","8,1,036,1,+999,9","SYN100AAXX  02181 02151 47456 /1405 11016 21021 39619 49958 58036 77174 333 11006 21046 84/15 85/20 88/47;",
"02151099999","2010-11-02T21:00:00","4","66.4833333","20.1666666","275.0","JOKKMOKK FPL, SW","FM-12","99999","V020","140,1,N,0040,1","00210,1,C,N","003000,1,N,1","-0004,1","-0004,1","09921,1","71,1","7,1,03,1","09,1,+00210,1,99,9",,,,"99999,9,09585,1","8,1,035,1,+999,9","SYN076AAXX  02211 02151 47/30 /1404 11004 21004 39585 49921 58035 77177 333 89/07;",
"02151099999","2010-11-03T00:00:00","4","66.4833333","20.1666666","275.0","JOKKMOKK FPL, SW","FM-12","99999","V020","130,1,N,0030,1","00090,1,C,N","006000,1,N,1","+0004,1","+0004,1","09895,1","61,1","7,1,06,1","07,1,+00090,1,99,9",,,,"99999,9,09561,1","7,1,024,1,+999,9","SYN082AAXX  03001 02151 47156 /1303 10004 20004 39561 49895 57024 76176 333 87/03 88/06;",
"02151099999","2010-11-03T03:00:00","4","66.4833333","20.1666666","275.0","JOKKMOKK FPL, SW","FM-12","99999","V020","140,1,N,0010,1","00060,1,C,N","017000,1,N,1","+0004,1","+0004,1","09864,1","67,1","7,1,03,1","08,1,+00060,1,99,9",,,,"99999,9,09532,1","7,1,030,1,+999,9","SYN076AAXX  03031 02151 47167 /1401 10004 20004 39532 49864 57030 76776 333 88/02;",
"02151099999","2010-11-03T09:00:00","4","66.4833333","20.1666666","275.0","JOKKMOKK FPL, SW","FM-12","99999","V020","190,1,N,0010,1","99999,9,9,N","050000,1,N,1","+0011,1","+0011,1","09832,1","00,1","8,1,03,1","01,1,+00150,1,99,9",,,,"99999,9,09501,1","6,1,009,1,+999,9","SYN082AAXX  03091 02151 47284 /1901 10011 20011 39501 49832 56009 70086 333 81/05 88/39;",
"02151099999","2010-11-03T12:00:00","4","66.4833333","20.1666666","275.0","JOKKMOKK FPL, SW","FM-12","99999","V020","270,1,N,0010,1","00360,1,C,N","050000,1,N,1","+0017,1","+0017,1","09833,1",,,"08,1,+00360,1,99,9",,,,"99999,9,09503,1","2,1,001,1,+999,9","SYN070AAXX  03121 02151 45484 /2701 10017 20017 39503 49833 52001 333 88/12;",
"02151099999","2010-11-03T15:00:00","4","66.4833333","20.1666666","275.0","JOKKMOKK FPL, SW","FM-12","99999","V020","200,1,N,0010,1","00360,1,C,N","025000,1,N,1","+0008,1","+0008,1","09835,1","00,1","8,1,03,1","05,1,+00360,1,99,9",,,,"99999,9,09503,1","4,1,000,1,+999,9","SYN082AAXX  03151 02151 47475 /2001 10008 20008 39503 49835 54001 70085 333 85/12 88/15;",
"02151099999","2010-11-03T18:00:00","4","66.4833333","20.1666666","275.0","JOKKMOKK FPL, SW","FM-12","99999","V020","240,1,N,0010,1","00420,1,C,N","050000,1,N,1","+0006,1","+0000,1","09830,1","21,1","8,1,06,1","08,1,+00420,1,99,9",,"120,M,+0018,1","999,N,+0001,1","99999,9,09499,1","8,1,005,1,+999,9","SYN088AAXX  03181 02151 47484 /2401 10006 20000 39499 49830 58005 72186 333 10018 20001 88/14;",
"02151099999","2010-11-03T21:00:00","4","66.4833333","20.1666666","275.0","JOKKMOKK FPL, SW","FM-12","99999","V020","230,1,N,0010,1","00210,1,C,N","006000,1,N,1","-0005,1","-0005,1","09830,1","77,1","7,1,03,1","04,1,+00180,1,99,9","05,1,+00210,1,99,9",,,"99999,9,09498,1","8,1,001,1,+999,9","SYN088AAXX  03211 02151 47356 /2301 11005 21005 39498 49830 58001 77776 333 84/06 85/07 88/15;",
"02151099999","2010-11-04T00:00:00","4","66.4833333","20.1666666","275.0","JOKKMOKK FPL, SW","FM-12","99999","V020","280,1,N,0010,1","00150,1,C,N","003100,1,N,1","-0012,1","-0012,1","09832,1","67,1","7,1,06,1","07,1,+00150,1,99,9",,,,"99999,9,09499,1","5,1,001,1,+999,9","SYN082AAXX  04001 02151 47231 /2801 11012 21012 39499 49832 55001 76776 333 87/05 88/12;",
"02151099999","2010-11-04T03:00:00","4","66.4833333","20.1666666","275.0","JOKKMOKK FPL, SW","FM-12","99999","V020","330,1,N,0020,1","99999,9,9,N","050000,1,N,1","-0025,1","-0026,1","09834,1","24,1","8,1,03,1","02,1,+00210,1,99,9",,,,"99999,9,09499,1","4,1,000,1,+999,9","SYN082AAXX  04031 02151 47384 /3302 11025 21026 39499 49834 54000 72487 333 82/07 88/11;",
"02151099999","2010-11-04T06:00:00","4","66.4833333","20.1666666","275.0","JOKKMOKK FPL, SW","FM-12","99999","V020","320,1,N,0030,1","00210,1,C,N","018000,1,N,1","-0039,1","-0039,1","09846,1","00,1","8,1,06,1","08,1,+00210,1,99,9",,"120,M,+0008,1","999,N,-0039,1","99999,9,09509,1","2,1,010,1,+999,9","SYN088AAXX  04061 02151 47368 /3203 11039 21039 39509 49846 52010 70087 333 10008 21039 88/07;",
"02151099999","2010-11-04T09:00:00","4","66.4833333","20.1666666","275.0","JOKKMOKK FPL, SW","FM-12","99999","V020","330,1,N,0040,1","00270,1,C,N","050000,1,N,1","-0059,1","-0065,1","09867,1","00,1","7,1,03,1","08,1,+00270,1,99,9",,,,"99999,9,09527,1","3,1,018,1,+999,9","SYN076AAXX  04091 02151 47384 /3304 11059 21065 39527 49867 53018 70074 333 88/09;",
"02151099999","2010-11-04T12:00:00","4","66.4833333","20.1666666","275.0","JOKKMOKK FPL, SW","FM-12","99999","V020","310,1,N,0010,1","00480,1,C,N","050000,1,N,1","-0044,1","-0051,1","09876,1","00,1","7,1,06,1","08,1,+00480,1,99,9",,,,"99999,9,09537,1","1,1,010,1,+999,9","SYN076AAXX  04121 02151 47484 /3101 11044 21051 39537 49876 51010 70072 333 88/16;",
"02151099999","2010-11-04T15:00:00","4","66.4833333","20.1666666","275.0","JOKKMOKK FPL, SW","FM-12","99999","V020","330,1,N,0020,1","00420,1,C,N","050000,1,N,1","-0032,1","-0037,1","09886,1",,,"08,1,+00420,1,99,9",,,,"99999,9,09548,1","2,1,011,1,+999,9","SYN070AAXX  04151 02151 45484 /3302 11032 21037 39548 49886 52011 333 88/14;",
"02151099999","2010-11-04T18:00:00","4","66.4833333","20.1666666","275.0","JOKKMOKK FPL, SW","FM-12","99999","V020","999,9,C,0000,1","00480,1,C,N","050000,1,N,1","-0030,1","-0032,1","09900,1",,,"08,1,+00480,1,99,9",,"120,M,-0026,1","999,N,-0059,1","99999,9,09562,1","2,1,014,1,+999,9","SYN082AAXX  04181 02151 45484 /0000 11030 21032 39562 49900 52014 333 11026 21059 88/16;",
"02151099999","2010-11-04T21:00:00","4","66.4833333","20.1666666","275.0","JOKKMOKK FPL, SW","FM-12","99999","V020","310,1,N,0020,1","00390,1,C,N","050000,1,N,1","-0028,1","-0029,1","09915,1",,,"06,1,+00390,1,99,9","07,1,+00510,1,99,9",,,"99999,9,09576,1","2,1,014,1,+999,9","SYN082AAXX  04211 02151 45484 /3102 11028 21029 39576 49915 52014 333 86/13 87/17 88/57;",
"02151099999","2010-11-05T00:00:00","4","66.4833333","20.1666666","275.0","JOKKMOKK FPL, SW","FM-12","99999","V020","360,1,N,0020,1","01230,1,C,N","050000,1,N,1","-0024,1","-0029,1","09931,1","24,1","7,1,06,1","08,1,+01230,1,99,9",,,,"99999,9,09593,1","1,1,016,1,+999,9","SYN076AAXX  05001 02151 47684 /3602 11024 21029 39593 49931 51016 72474 333 88/41;",
"02151099999","2010-11-05T03:00:00","4","66.4833333","20.1666666","275.0","JOKKMOKK FPL, SW","FM-12","99999","V020","010,1,N,0010,1","00420,1,C,N","045000,1,N,1","-0030,1","-0038,1","09946,1","21,1","8,1,03,1","05,1,+00420,1,99,9",,,,"99999,9,09606,1","2,1,014,1,+999,9","SYN082AAXX  05031 02151 47483 /0101 11030 21038 39606 49946 52014 72187 333 85/14 88/46;",
"02151099999","2010-11-05T06:00:00","4","66.4833333","20.1666666","275.0","JOKKMOKK FPL, SW","FM-12","99999","V020","350,1,N,0010,1","00420,1,C,N","014000,1,N,1","-0035,1","-0040,1","09961,1","80,1","8,1,06,1","08,1,+00420,1,99,9",,"120,M,-0022,1","999,N,-0036,1","99999,9,09620,1","1,1,013,1,+999,9","SYN088AAXX  05061 02151 47464 /3501 11035 21040 39620 49961 51013 78087 333 11022 21036 88/14;",
"02151099999","2010-11-05T09:00:00","4","66.4833333","20.1666666","275.0","JOKKMOKK FPL, SW","FM-12","99999","V020","070,1,N,0010,1","99999,9,9,N","030000,1,N,1","-0042,1","-0060,1","09976,1","22,1","8,1,03,1","01,1,+00720,1,99,9",,,,"99999,9,09633,1","2,1,014,1,+999,9","SYN076AAXX  05091 02151 47580 /0701 11042 21060 39633 49976 52014 72287 333 81/24;",
"02151099999","2010-11-05T12:00:00","4","66.4833333","20.1666666","275.0","JOKKMOKK FPL, SW","FM-12","99999","V020","120,1,N,0020,1","99999,9,9,N","030000,1,N,1","-0045,1","-0071,1","09982,1","22,1","8,1,06,1","01,1,+01500,1,99,9",,,,"99999,9,09640,1","1,1,006,1,+999,9","SYN082AAXX  05121 02151 47780 /1202 11045 21071 39640 49982 51006 72287 333 81/50 88/58;",
"02151099999","2010-11-05T15:00:00","4","66.4833333","20.1666666","275.0","JOKKMOKK FPL, SW","FM-12","99999","V020","130,1,N,0020,1","00750,1,C,N","003700,1,N,1","-0055,1","-0061,1","09984,1","71,1","7,1,03,1","09,1,+00750,1,99,9",,,,"99999,9,09640,1","0,1,001,1,+999,9","SYN076AAXX  05151 02151 47/37 /1302 11055 21061 39640 49984 50001 77174 333 89/25;",
"02151099999","2010-11-05T18:00:00","4","66.4833333","20.1666666","275.0","JOKKMOKK FPL, SW","FM-12","99999","V020","130,1,N,0020,1","00360,1,C,N","007000,1,N,1","-0057,1","-0059,1","09982,1","71,1","7,1,06,1","03,1,+00150,1,99,9","06,1,+00360,1,99,9","120,M,-0035,1","999,N,-0057,1","99999,9,09638,1","7,1,002,1,+999,9","SYN100AAXX  05181 02151 47257 /1302 11057 21059 39638 49982 57002 77172 333 11035 21057 83/05 86/12 88/30;",
"02151099999","2010-11-05T21:00:00","4","66.4833333","20.1666666","275.0","JOKKMOKK FPL, SW","FM-12","99999","V020","130,1,N,0020,1","00210,1,C,N","009000,1,N,1","-0055,1","-0056,1","09976,1","78,1","7,1,03,1","08,1,+00210,1,99,9",,,,"99999,9,09632,1","7,1,006,1,+999,9","SYN076AAXX  05211 02151 47359 /1302 11055 21056 39632 49976 57006 77877 333 88/07;",
"02151099999","2010-11-06T00:00:00","4","66.4833333","20.1666666","275.0","JOKKMOKK FPL, SW","FM-12","99999","V020","110,1,N,0010,1","00120,1,C,N","011000,1,N,1","-0055,1","-0056,1","09962,1","00,1","7,1,06,1","08,1,+00120,1,99,9",,,,"99999,9,09619,1","7,1,013,1,+999,9","SYN076AAXX  06001 02151 47261 /1101 11055 21056 39619 49962 57013 70072 333 88/04;",
"02151099999","2010-11-06T03:00:00","4","66.4833333","20.1666666","275.0","JOKKMOKK FPL, SW","FM-12","99999","V020","130,1,N,0020,1","00090,1,C,N","014000,1,N,1","-0054,1","-0054,1","09948,1",,,"06,1,+00090,1,99,9",,,,"99999,9,09605,1","7,1,014,1,+999,9","SYN076AAXX  06031 02151 45164 /1302 11054 21054 39605 49948 57014 333 86/03 88/08;",
"02151099999","2010-11-06T06:00:00","4","66.4833333","20.1666666","275.0","JOKKMOKK FPL, SW","FM-12","99999","V020","130,1,N,0020,1","00090,1,C,N","007000,1,N,1","-0052,1","-0052,1","09934,1","78,1","7,1,06,1","08,1,+00090,1,99,9",,"120,M,-0052,1","999,N,-0057,1","99999,9,09592,1","8,1,013,1,+999,9","SYN088AAXX  06061 02151 47257 /1302 11052 21052 39592 49934 58013 77870 333 11052 21057 88/03;",
"02151099999","2010-11-06T09:00:00","4","66.4833333","20.1666666","275.0","JOKKMOKK FPL, SW","FM-12","99999","V020","130,1,N,0040,1","00150,1,C,N","010000,1,N,1","-0047,1","-0048,1","09924,1","71,1","7,1,03,1","08,1,+00150,1,99,9",,,,"99999,9,09582,1","8,1,009,1,+999,9","SYN076AAXX  06091 02151 47260 /1304 11047 21048 39582 49924 58009 77174 333 88/05;",
"02151099999","2010-11-06T12:00:00","4","66.4833333","20.1666666","275.0","JOKKMOKK FPL, SW","FM-12","99999","V020","130,1,N,0020,1","00330,1,C,N","002300,1,N,1","-0045,1","-0046,1","09914,1","71,1","7,1,06,1","09,1,+00330,1,99,9",,,,"99999,9,09574,1","7,1,009,1,+999,9","SYN076AAXX  06121 02151 47/23 /1302 11045 21046 39574 49914 57009 77172 333 89/11;",
"02151099999","2010-11-06T15:00:00","4","66.4833333","20.1666666","275.0","JOKKMOKK FPL, SW","FM-12","99999","V020","999,9,C,0000,1","00210,1,C,N","010000,1,N,1","-0048,1","-0048,1","09913,1","71,1","7,1,03,1","06,1,+00210,1,99,9","07,1,+00360,1,99,9",,,"99999,9,09572,1","7,1,002,1,+999,9","SYN088AAXX  06151 02151 47360 /0000 11048 21048 39572 49913 57002 77177 333 86/07 87/12 88/29;",
"02151099999","2010-11-06T18:00:00","4","66.4833333","20.1666666","275.0","JOKKMOKK FPL, SW","FM-12","99999","V020","330,1,N,0020,1","99999,9,9,N","020000,1,N,1","-0069,1","-0071,1","09917,1","85,1","8,1,06,1","01,1,+00300,1,99,9","03,1,+00570,1,99,9","120,M,-0044,1","999,N,-0070,1","99999,9,09573,1","2,1,001,1,+999,9","SYN100AAXX  06181 02151 47470 /3302 11069 21071 39573 49917 52001 78587 333 11044 21070 81/10 83/19 85/27;",
"02151099999","2010-11-06T21:00:00","4","66.4833333","20.1666666","275.0","JOKKMOKK FPL, SW","FM-12","99999","V020","280,1,N,0020,1","00360,1,C,N","035000,1,N,1","-0067,1","-0069,1","09923,1","00,1","8,1,03,1","06,1,+00360,1,99,9",,,,"99999,9,09579,1","2,1,006,1,+999,9","SYN082AAXX  06211 02151 47481 /2802 11067 21069 39579 49923 52006 70087 333 86/12 88/15;",
"02151099999","2010-11-07T00:00:00","4","66.4833333","20.1666666","275.0","JOKKMOKK FPL, SW","FM-12","99999","V020","270,1,N,0010,1","00420,1,C,N","045000,1,N,1","-0067,1","-0069,1","09917,1","00,1","8,1,06,1","08,1,+00420,1,99,9",,,,"99999,9,09574,1","8,1,005,1,+999,9","SYN076AAXX  07001 02151 47483 /2701 11067 21069 39574 49917 58005 70087 333 88/14;",
"02151099999","2010-11-07T03:00:00","4","66.4833333","20.1666666","275.0","JOKKMOKK FPL, SW","FM-12","99999","V020","999,9,C,0000,1","00390,1,C,N","050000,1,N,1","-0068,1","-0071,1","09917,1","00,1","8,1,03,1","08,1,+00390,1,99,9",,,,"99999,9,09573,1","4,1,000,1,+999,9","SYN076AAXX  07031 02151 47484 /0000 11068 21071 39573 49917 54001 70087 333 88/13;",
"02151099999","2010-11-07T06:00:00","4","66.4833333","20.1666666","275.0","JOKKMOKK FPL, SW","FM-12","99999","V020","340,1,N,0020,1","00510,1,C,N","045000,1,N,1","-0072,1","-0076,1","09918,1","00,1","8,1,06,1","08,1,+00510,1,99,9",,"120,M,-0064,1","999,N,-0073,1","99999,9,09574,1","5,1,001,1,+999,9","SYN088AAXX  07061 02151 47483 /3402 11072 21076 39574 49918 55001 70087 333 11064 21073 88/17;",
"02151099999","2010-11-07T09:00:00","4","66.4833333","20.1666666","275.0","JOKKMOKK FPL, SW","FM-12","99999","V020","320,1,N,0020,1","00990,1,C,N","045000,1,N,1","-0076,1","-0081,1","09930,1","71,1","7,1,03,1","08,1,+00990,1,99,9",,,,"99999,9,09585,1","2,1,011,1,+999,9","SYN076AAXX  07091 02151 47583 /3202 11076 21081 39585 49930 52011 77170 333 88/33;",
"02151099999","2010-11-07T12:00:00","4","66.4833333","20.1666666","275.0","JOKKMOKK FPL, SW","FM-12","99999","V020","310,1,N,0020,1","00330,1,C,N","035000,1,N,1","-0072,1","-0080,1","09931,1","71,1","8,1,06,1","06,1,+00330,1,99,9",,,,"99999,9,09586,1","4,1,000,1,+999,9","SYN082AAXX  07121 02151 47481 /3102 11072 21080 39586 49931 54001 77187 333 86/11 88/32;",
"02151099999","2010-11-07T15:00:00","4","66.4833333","20.1666666","275.0","JOKKMOKK FPL, SW","FM-12","99999","V020","340,1,N,0010,1","00870,1,C,N","050000,1,N,1","-0092,1","-0096,1","09940,1","00,1","7,1,03,1","08,1,+00870,1,99,9",,,,"99999,9,09593,1","2,1,007,1,+999,9","SYN076AAXX  07151 02151 47584 /3401 11092 21096 39593 49940 52007 70072 333 88/29;",
"02151099999","2010-11-07T18:00:00","4","66.4833333","20.1666666","275.0","JOKKMOKK FPL, SW","FM-12","99999","V020","300,1,N,0010,1","01500,1,C,N","050000,1,N,1","-0098,1","-0100,1","09948,1","00,1","7,1,06,1","04,1,+00300,1,99,9","06,1,+01500,1,99,9","120,M,-0072,1","999,N,-0113,1","99999,9,09600,1","3,1,007,1,+999,9","SYN100AAXX  07181 02151 47484 /3001 11098 21100 39600 49948 53007 70072 333 11072 21113 84/10 86/50 87/57;",
"02151099999","2010-11-07T21:00:00","4","66.4833333","20.1666666","275.0","JOKKMOKK FPL, SW","FM-12","99999","V020","280,1,N,0020,1","00120,1,C,N","050000,1,N,1","-0096,1","-0099,1","09956,1",,,"08,1,+00120,1,99,9",,,,"99999,9,09608,1","2,1,008,1,+999,9","SYN070AAXX  07211 02151 45284 /2802 11096 21099 39608 49956 52008 333 88/04;",
"02151099999","2010-11-08T00:00:00","4","66.4833333","20.1666666","275.0","JOKKMOKK FPL, SW","FM-12","99999","V020","290,1,N,0030,1","00060,1,C,N","017000,1,N,1","-0104,1","-0108,1","09969,1",,,"08,1,+00060,1,99,9",,,,"99999,9,09619,1","2,1,011,1,+999,9","SYN070AAXX  08001 02151 45167 /2903 11104 21108 39619 49969 52011 333 88/02;",
"02151099999","2010-11-08T03:00:00","4","66.4833333","20.1666666","275.0","JOKKMOKK FPL, SW","FM-12","99999","V020","310,1,N,0010,1","99999,9,9,N","050000,1,N,1","-0157,1","-0167,1","09986,1",,,,,,,"99999,9,09628,1","2,1,010,1,+999,9","SYN060AAXX  08031 02151 45984 /3101 11157 21167 39628 49986 52010;",
"02151099999","2010-11-08T06:00:00","4","66.4833333","20.1666666","275.0","JOKKMOKK FPL, SW","FM-12","99999","V020","280,1,N,0010,1","99999,9,9,N","040000,1,N,1","-0163,1","-0174,1","09996,1",,,,,"120,M,-0081,1","999,N,-0186,1","99999,9,09637,1","3,1,009,1,+999,9","SYN076AAXX  08061 02151 45982 /2801 11163 21174 39637 49996 53009 333 11081 21186;",
"02151099999","2010-11-08T09:00:00","4","66.4833333","20.1666666","275.0","JOKKMOKK FPL, SW","FM-12","99999","V020","999,9,C,0000,1","99999,9,9,N","035000,1,N,1","-0153,1","-0164,1","10009,1","00,1","8,1,03,1",,,,,"99999,9,09651,1","2,1,014,1,+999,9","SYN066AAXX  08091 02151 47981 /0000 11153 21164 39651 40009 52014 70087;",
"02151099999","2010-11-08T12:00:00","4","66.4833333","20.1666666","275.0","JOKKMOKK FPL, SW","FM-12","99999","V020","999,9,C,0000,1","99999,9,9,N","050000,1,N,1","-0119,1","-0126,1","10010,1","00,1","8,1,06,1",,,,,"99999,9,09657,1","2,1,005,1,+999,9","SYN066AAXX  08121 02151 47984 /0000 11119 21126 39657 40010 52005 70087;",
"02151099999","2010-11-08T15:00:00","4","66.4833333","20.1666666","275.0","JOKKMOKK FPL, SW","FM-12","99999","V020","310,1,N,0010,1","99999,9,9,N","050000,1,N,1","-0158,1","-0169,1","10031,1",,,,,,,"99999,9,09672,1","3,1,015,1,+999,9","SYN060AAXX  08151 02151 45984 /3101 11158 21169 39672 40031 53015;",
"02151099999","2010-11-08T18:00:00","4","66.4833333","20.1666666","275.0","JOKKMOKK FPL, SW","FM-12","99999","V020","999,9,C,0000,1","99999,9,9,N","050000,1,N,1","-0130,1","-0138,1","10049,1",,,,,"120,M,-0106,1","999,N,-0185,1","99999,9,09692,1","2,1,020,1,+999,9","SYN076AAXX  08181 02151 45984 /0000 11130 21138 39692 40049 52020 333 11106 21185;",
"02151099999","2010-11-08T21:00:00","4","66.4833333","20.1666666","275.0","JOKKMOKK FPL, SW","FM-12","99999","V020","290,1,N,0010,1","99999,9,9,N","050000,1,N,1","-0141,1","-0149,1","10070,1",,,"04,1,+01470,1,99,9",,,,"99999,9,09711,1","2,1,019,1,+999,9","SYN070AAXX  08211 02151 45684 /2901 11141 21149 39711 40070 52019 333 84/49;",
"02151099999","2010-11-09T00:00:00","4","66.4833333","20.1666666","275.0","JOKKMOKK FPL, SW","FM-12","99999","V020","280,1,N,0010,1","99999,9,9,N","050000,1,N,1","-0169,1","-0182,1","10089,1",,,,,,,"99999,9,09726,1","3,1,015,1,+999,9","SYN060AAXX  09001 02151 45984 /2801 11169 21182 39726 40089 53015;",
"02151099999","2010-11-09T03:00:00","4","66.4833333","20.1666666","275.0","JOKKMOKK FPL, SW","FM-12","99999","V020","999,9,C,0000,1","99999,9,9,N","050000,1,N,1","-0163,1","-0174,1","10098,1",,,,,,,"99999,9,09735,1","2,1,009,1,+999,9","SYN060AAXX  09031 02151 45984 /0000 11163 21174 39735 40098 52009;",
"02151099999","2010-11-09T06:00:00","4","66.4833333","20.1666666","275.0","JOKKMOKK FPL, SW","FM-12","99999","V020","999,9,C,0000,1","99999,9,9,N","050000,1,N,1","-0183,1","-0196,1","10112,1",,,,,"120,M,-0124,1","999,N,-0192,1","99999,9,09746,1","2,1,010,1,+999,9","SYN076AAXX  09061 02151 45984 /0000 11183 21196 39746 40112 52010 333 11124 21192;",
"02151099999","2010-11-09T09:00:00","4","66.4833333","20.1666666","275.0","JOKKMOKK FPL, SW","FM-12","99999","V020","270,1,N,0010,1","99999,9,9,N","050000,1,N,1","-0167,1","-0178,1","10120,1","00,1","8,1,03,1",,,,,"99999,9,09756,1","1,1,010,1,+999,9","SYN066AAXX  09091 02151 47984 /2701 11167 21178 39756 40120 51010 70087;",
"02151099999","2010-11-09T12:00:00","4","66.4833333","20.1666666","275.0","JOKKMOKK FPL, SW","FM-12","99999","V020","999,9,C,0000,1","99999,9,9,N","050000,1,N,1","-0154,1","-0166,1","10125,1","00,1","8,1,06,1",,,,,"99999,9,09763,1","0,1,007,1,+999,9","SYN066AAXX  09121 02151 47984 /0000 11154 21166 39763 40125 50007 70087;",
"02151099999","2010-11-09T15:00:00","4","66.4833333","20.1666666","275.0","JOKKMOKK FPL, SW","FM-12","99999","V020","999,9,C,0000,1","99999,9,9,N","050000,1,N,1","-0182,1","-0193,1","10132,1","00,1","8,1,03,1",,,,,"99999,9,09766,1","2,1,003,1,+999,9","SYN066AAXX  09151 02151 47984 /0000 11182 21193 39766 40132 52003 70087;",
"02151099999","2010-11-09T18:00:00","4","66.4833333","20.1666666","275.0","JOKKMOKK FPL, SW","FM-12","99999","V020","999,9,C,0000,1","99999,9,9,N","050000,1,N,1","-0213,1","-0228,1","10136,1","00,1","8,1,06,1",,,"120,M,-0145,1","999,N,-0224,1","99999,9,09765,1","7,1,001,1,+999,9","SYN082AAXX  09181 02151 47984 /0000 11213 21228 39765 40136 57001 70080 333 11145 21224;",
"02151099999","2010-11-09T21:00:00","4","66.4833333","20.1666666","275.0","JOKKMOKK FPL, SW","FM-12","99999","V020","230,1,N,0010,1","99999,9,9,N","050000,1,N,1","-0213,1","-0229,1","10139,1",,,,,,,"99999,9,09768,1","2,1,003,1,+999,9","SYN060AAXX  09211 02151 45984 /2301 11213 21229 39768 40139 52003;",
"02151099999","2010-11-10T00:00:00","4","66.4833333","20.1666666","275.0","JOKKMOKK FPL, SW","FM-12","99999","V020","999,9,C,0000,1","00150,1,C,N","017000,1,N,1","-0201,1","-0215,1","10126,1","71,1","7,1,06,1","08,1,+00150,1,99,9",,,,"99999,9,09757,1","8,1,011,1,+999,9","SYN076AAXX  10001 02151 47267 /0000 11201 21215 39757 40126 58011 77174 333 88/05;",
"02151099999","2010-11-10T03:00:00","4","66.4833333","20.1666666","275.0","JOKKMOKK FPL, SW","FM-12","99999","V020","320,1,N,0020,1","00090,1,C,N","012000,1,N,1","-0160,1","-0170,1","10107,1","71,1","7,1,03,1","08,1,+00090,1,99,9",,,,"99999,9,09744,1","7,1,012,1,+999,9","SYN076AAXX  10031 02151 47162 /3202 11160 21170 39744 40107 57012 77177 333 88/03;",
"02151099999","2010-11-10T06:00:00","4","66.4833333","20.1666666","275.0","JOKKMOKK FPL, SW","FM-12","99999","V020","310,1,N,0010,1","99999,9,9,N","014000,1,N,1","-0153,1","-0162,1","10092,1","71,1","7,1,06,1","03,1,+00120,1,99,9",,"120,M,-0153,1","999,N,-0226,1","99999,9,09732,1","7,1,013,1,+999,9","SYN094AAXX  10061 02151 47264 /3101 11153 21162 39732 40092 57013 77177 333 11153 21226 83/04 87/10;",
"02151099999","2010-11-10T09:00:00","4","66.4833333","20.1666666","275.0","JOKKMOKK FPL, SW","FM-12","99999","V020","999,9,C,0000,1","99999,9,9,N","030000,1,N,1","-0146,1","-0155,1","10087,1","85,1","8,1,03,1","01,1,+00060,1,99,9",,,,"99999,9,09727,1","7,1,005,1,+999,9","SYN076AAXX  10091 02151 47180 /0000 11146 21155 39727 40087 57005 78587 333 81/02;",
"02151099999","2010-11-10T12:00:00","4","66.4833333","20.1666666","275.0","JOKKMOKK FPL, SW","FM-12","99999","V020","330,1,N,0020,1","99999,9,9,N","050000,1,N,1","-0125,1","-0132,1","10066,1","00,1","8,1,06,1","02,1,+00150,1,99,9",,,,"99999,9,09710,1","8,1,017,1,+999,9","SYN082AAXX  10121 02151 47284 /3302 11125 21132 39710 40066 58017 70087 333 82/05 86/21;",
"02151099999","2010-11-10T15:00:00","4","66.4833333","20.1666666","275.0","JOKKMOKK FPL, SW","FM-12","99999","V020","010,1,N,0020,1","00420,1,C,N","001200,1,N,1","-0116,1","-0122,1","10041,1","72,1","7,1,03,1","09,1,+00420,1,99,9",,,,"99999,9,09687,1","7,1,023,1,+999,9","SYN076AAXX  10151 02151 47/12 /0102 11116 21122 39687 40041 57023 77270 333 89/14;",
"02151099999","2010-11-10T18:00:00","4","66.4833333","20.1666666","275.0","JOKKMOKK FPL, SW","FM-12","99999","V020","040,1,N,0010,1","00420,1,C,N","007000,1,N,1","-0094,1","-0098,1","10022,1","71,1","7,1,06,1","07,1,+00420,1,99,9",,"120,M,-0095,1","999,N,-0154,1","99999,9,09671,1","7,1,016,1,+999,9","SYN094AAXX  10181 02151 47457 /0401 11094 21098 39671 40022 57016 77170 333 11095 21154 87/14 88/24;",
"02151099999","2010-11-10T21:00:00","4","66.4833333","20.1666666","275.0","JOKKMOKK FPL, SW","FM-12","99999","V020","060,1,N,0040,1","00480,1,C,N","007000,1,N,1","-0076,1","-0082,1","10004,1","71,1","7,1,03,1","07,1,+00480,1,99,9",,,,"99999,9,09657,1","7,1,014,1,+999,9","SYN082AAXX  10211 02151 47457 /0604 11076 21082 39657 40004 57014 77177 333 87/16 88/21;",
"02151099999","2010-11-11T00:00:00","4","66.4833333","20.1666666","275.0","JOKKMOKK FPL, SW","FM-12","99999","V020","050,1,N,0030,1","00240,1,C,N","004400,1,N,1","-0069,1","-0073,1","09988,1","77,1","7,1,06,1","07,1,+00240,1,99,9",,,,"99999,9,09641,1","7,1,015,1,+999,9","SYN082AAXX  11001 02151 47344 /0503 11069 21073 39641 49988 57015 77777 333 87/08 88/10;",
"02151099999","2010-11-11T03:00:00","4","66.4833333","20.1666666","275.0","JOKKMOKK FPL, SW","FM-12","99999","V020","360,1,N,0010,1","00270,1,C,N","006000,1,N,1","-0066,1","-0070,1","09976,1","71,1","7,1,03,1","08,1,+00270,1,99,9",,,,"99999,9,09630,1","7,1,011,1,+999,9","SYN076AAXX  11031 02151 47356 /3601 11066 21070 39630 49976 57011 77177 333 88/09;",
"02151099999","2010-11-11T06:00:00","4","66.4833333","20.1666666","275.0","JOKKMOKK FPL, SW","FM-12","99999","V020","350,1,N,0010,1","00660,1,C,N","003600,1,N,1","-0069,1","-0071,1","09967,1","71,1","7,1,06,1","09,1,+00660,1,99,9",,"120,M,-0066,1","999,N,-0094,1","99999,9,09622,1","7,1,009,1,+999,9","SYN088AAXX  11061 02151 47/36 /3501 11069 21071 39622 49967 57009 77177 333 11066 21094 89/22;",
"02151099999","2010-11-11T09:00:00","4","66.4833333","20.1666666","275.0","JOKKMOKK FPL, SW","FM-12","99999","V020","360,1,N,0010,1","99999,9,9,N","007000,1,N,1","-0070,1","-0074,1","09959,1","71,1","7,1,03,1","01,1,+00240,1,99,9",,,,"99999,9,09613,1","8,1,008,1,+999,9","SYN082AAXX  11091 02151 47357 /3601 11070 21074 39613 49959 58008 77177 333 81/08 88/13;",
"02151099999","2010-11-11T12:00:00","4","66.4833333","20.1666666","275.0","JOKKMOKK FPL, SW","FM-12","99999","V020","340,1,N,0020,1","99999,9,9,N","002100,1,N,1","-0067,1","-0070,1","09946,1","71,1","7,1,06,1","01,1,+00390,1,99,9",,,,"99999,9,09602,1","7,1,012,1,+999,9","SYN082AAXX  11121 02151 47421 /3402 11067 21070 39602 49946 57012 77177 333 81/13 88/20;",
"02151099999","2010-11-11T15:00:00","4","66.4833333","20.1666666","275.0","JOKKMOKK FPL, SW","FM-12","99999","V020","330,1,N,0020,1","00330,1,C,N","005000,1,N,1","-0069,1","-0072,1","09936,1","71,1","7,1,03,1","08,1,+00330,1,99,9",,,,"99999,9,09591,1","7,1,010,1,+999,9","SYN076AAXX  11151 02151 47450 /3302 11069 21072 39591 49936 57010 77177 333 88/11;",
"02151099999","2010-11-11T18:00:00","4","66.4833333","20.1666666","275.0","JOKKMOKK FPL, SW","FM-12","99999","V020","300,1,N,0020,1","00480,1,C,N","002100,1,N,1","-0074,1","-0077,1","09920,1","71,1","7,1,06,1","09,1,+00480,1,99,9",,"120,M,-0067,1","999,N,-0075,1","99999,9,09575,1","8,1,016,1,+999,9","SYN088AAXX  11181 02151 47/21 /3002 11074 21077 39575 49920 58016 77177 333 11067 21075 89/16;",
"02151099999","2010-11-11T21:00:00","4","66.4833333","20.1666666","275.0","JOKKMOKK FPL, SW","FM-12","99999","V020","290,1,N,0020,1","22000,1,C,N","007000,1,N,1","-0075,1","-0079,1","09903,1","71,1","7,1,03,1","02,1,+00930,1,99,9","03,1,+01290,1,99,9",,,"99999,9,09559,1","7,1,016,1,+999,9","SYN088AAXX  11211 02151 47557 /2902 11075 21079 39559 49903 57016 77177 333 82/31 83/43 88/50;",
"02151099999","2010-11-12T00:00:00","4","66.4833333","20.1666666","275.0","JOKKMOKK FPL, SW","FM-12","99999","V020","300,1,N,0020,1","00360,1,C,N","030000,1,N,1","-0075,1","-0078,1","09889,1","71,1","7,1,06,1","07,1,+00360,1,99,9",,,,"99999,9,09546,1","8,1,013,1,+999,9","SYN082AAXX  12001 02151 47480 /3002 11075 21078 39546 49889 58013 77177 333 87/12 88/58;",
"02151099999","2010-11-12T03:00:00","4","66.4833333","20.1666666","275.0","JOKKMOKK FPL, SW","FM-12","99999","V020","320,1,N,0010,1","00690,1,C,N","020000,1,N,1","-0074,1","-0077,1","09878,1","71,1","7,1,03,1","07,1,+00690,1,99,9",,,,"99999,9,09535,1","7,1,010,1,+999,9","SYN082AAXX  12031 02151 47570 /3201 11074 21077 39535 49878 57010 77177 333 87/23 88/58;",
"02151099999","2010-11-12T06:00:00","4","66.4833333","20.1666666","275.0","JOKKMOKK FPL, SW","FM-12","99999","V020","999,9,C,0000,1","00570,1,C,N","018000,1,N,1","-0072,1","-0075,1","09869,1","77,1","7,1,06,1","08,1,+00570,1,99,9",,"120,M,-0071,1","999,N,-0078,1","99999,9,09527,1","7,1,009,1,+999,9","SYN088AAXX  12061 02151 47468 /0000 11072 21075 39527 49869 57009 77777 333 11071 21078 88/19;",
"02151099999","2010-11-12T09:00:00","4","66.4833333","20.1666666","275.0","JOKKMOKK FPL, SW","FM-12","99999","V020","290,1,N,0010,1","99999,9,9,N","017000,1,N,1","-0068,1","-0071,1","09867,1","71,1","8,1,03,1","01,1,+00210,1,99,9",,,,"99999,9,09525,1","7,1,002,1,+999,9","SYN082AAXX  12091 02151 47367 /2901 11068 21071 39525 49867 57002 77187 333 81/07 88/56;",
"02151099999","2010-11-12T12:00:00","4","66.4833333","20.1666666","275.0","JOKKMOKK FPL, SW","FM-12","99999","V020","310,1,N,0010,1","99999,9,9,N","026000,1,N,1","-0069,1","-0071,1","09867,1","71,1","8,1,06,1","01,1,+01500,1,99,9",,,,"99999,9,09525,1","4,1,000,1,+999,9","SYN082AAXX  12121 02151 47776 /3101 11069 21071 39525 49867 54000 77187 333 81/50 88/59;",
"02151099999","2010-11-12T15:00:00","4","66.4833333","20.1666666","275.0","JOKKMOKK FPL, SW","FM-12","99999","V020","999,9,C,0000,1","99999,9,9,N","050000,1,N,1","-0090,1","-0093,1","09870,1","00,1","7,1,03,1","01,1,+01800,1,99,9",,,,"99999,9,09525,1","4,1,000,1,+999,9","SYN082AAXX  12151 02151 47784 /0000 11090 21093 39525 49870 54000 70072 333 81/56 88/59;",
"02151099999","2010-11-12T18:00:00","4","66.4833333","20.1666666","275.0","JOKKMOKK FPL, SW","FM-12","99999","V020","160,1,N,0010,1","99999,9,9,N","050000,1,N,1","-0129,1","-0134,1","09870,1","00,1","7,1,06,1",,,"120,M,-0064,1","999,N,-0153,1","99999,9,09520,1","7,1,005,1,+999,9","SYN082AAXX  12181 02151 47984 /1601 11129 21134 39520 49870 57005 70072 333 11064 21153;",
"02151099999","2010-11-12T21:00:00","4","66.4833333","20.1666666","275.0","JOKKMOKK FPL, SW","FM-12","99999","V020","999,9,C,0000,1","99999,9,9,N","011000,1,N,1","-0158,1","-0168,1","09871,1","85,1","8,1,03,1",,,,,"99999,9,09517,1","7,1,002,1,+999,9","SYN066AAXX  12211 02151 47961 /0000 11158 21168 39517 49871 57002 78587;",
"02151099999","2010-11-13T00:00:00","4","66.4833333","20.1666666","275.0","JOKKMOKK FPL, SW","FM-12","99999","V020","999,9,C,0000,1","99999,9,9,N","030000,1,N,1","-0176,1","-0187,1","09868,1","85,1","8,1,06,1",,,,,"99999,9,09512,1","7,1,005,1,+999,9","SYN066AAXX  13001 02151 47980 /0000 11176 21187 39512 49868 57005 78587;",
"02151099999","2010-11-13T03:00:00","4","66.4833333","20.1666666","275.0","JOKKMOKK FPL, SW","FM-12","99999","V020","999,9,C,0000,1","99999,9,9,N","008000,1,N,1","-0190,1","-0203,1","09865,1","71,1","8,1,03,1","01,1,+00030,1,99,9","03,1,+00090,1,99,9",,,"99999,9,09507,1","7,1,005,1,+999,9","SYN088AAXX  13031 02151 47058 /0000 11190 21203 39507 49865 57005 77187 333 81/01 83/03 88/12;",
"02151099999","2010-11-13T06:00:00","4","66.4833333","20.1666666","275.0","JOKKMOKK FPL, SW","FM-12","99999","V020","999,9,C,0000,1","00090,1,C,N","002400,1,N,1","-0149,1","-0158,1","09853,1","71,1","8,1,06,1","08,1,+00090,1,99,9",,"120,M,-0129,1","999,N,-0195,1","99999,9,09502,1","7,1,005,1,+999,9","SYN088AAXX  13061 02151 47124 /0000 11149 21158 39502 49853 57005 77187 333 11129 21195 88/03;",
"02151099999","2010-11-13T09:00:00","4","66.4833333","20.1666666","275.0","JOKKMOKK FPL, SW","FM-12","99999","V020","999,9,C,0000,1","00090,1,C,N","004500,1,N,1","-0147,1","-0157,1","09852,1","71,1","7,1,03,1","07,1,+00090,1,99,9",,,,"99999,9,09500,1","7,1,002,1,+999,9","SYN082AAXX  13091 02151 47145 /0000 11147 21157 39500 49852 57002 77177 333 87/03 88/06;",
"02151099999","2010-11-13T12:00:00","4","66.4833333","20.1666666","275.0","JOKKMOKK FPL, SW","FM-12","99999","V020","999,9,C,0000,1","99999,9,9,N","040000,1,N,1","-0152,1","-0162,1","09852,1","00,1","7,1,06,1","01,1,+01800,1,99,9",,,,"99999,9,09499,1","4,1,000,1,+999,9","SYN076AAXX  13121 02151 47782 /0000 11152 21162 39499 49852 54001 70072 333 81/56;",
"02151099999","2010-11-13T15:00:00","4","66.4833333","20.1666666","275.0","JOKKMOKK FPL, SW","FM-12","99999","V020","999,9,C,0000,1","01500,1,C,N","045000,1,N,1","-0163,1","-0174,1","09854,1",,,"05,1,+01500,1,99,9",,,,"99999,9,09501,1","2,1,001,1,+999,9","SYN070AAXX  13151 02151 45783 /0000 11163 21174 39501 49854 52001 333 85/50;",
"02151099999","2010-11-13T18:00:00","4","66.4833333","20.1666666","275.0","JOKKMOKK FPL, SW","FM-12","99999","V020","999,9,C,0000,1","99999,9,9,N","050000,1,N,1","-0174,1","-0184,1","09858,1",,,,,"120,M,-0137,1","999,N,-0183,1","99999,9,09502,1","2,1,002,1,+999,9","SYN076AAXX  13181 02151 45984 /0000 11174 21184 39502 49858 52002 333 11137 21183;",
"02151099999","2010-11-13T21:00:00","4","66.4833333","20.1666666","275.0","JOKKMOKK FPL, SW","FM-12","99999","V020","999,9,C,0000,1","99999,9,9,N","050000,1,N,1","-0192,1","-0205,1","09869,1",,,"02,1,+02100,1,99,9",,,,"99999,9,09511,1","2,1,008,1,+999,9","SYN070AAXX  13211 02151 45884 /0000 11192 21205 39511 49869 52008 333 82/57;",
"02151099999","2010-11-14T00:00:00","4","66.4833333","20.1666666","275.0","JOKKMOKK FPL, SW","FM-12","99999","V020","999,9,C,0000,1","99999,9,9,N","050000,1,N,1","-0159,1","-0169,1","09873,1",,,"01,1,+01410,1,99,9",,,,"99999,9,09519,1","2,1,008,1,+999,9","SYN076AAXX  14001 02151 45684 /0000 11159 21169 39519 49873 52008 333 81/47 88/56;",
"02151099999","2010-11-14T03:00:00","4","66.4833333","20.1666666","275.0","JOKKMOKK FPL, SW","FM-12","99999","V020","999,9,C,0000,1","99999,9,9,N","050000,1,N,1","-0193,1","-0206,1","09891,1",,,,,,,"99999,9,09532,1","3,1,013,1,+999,9","SYN060AAXX  14031 02151 45984 /0000 11193 21206 39532 49891 53013;",
"02151099999","2010-11-14T06:00:00","4","66.4833333","20.1666666","275.0","JOKKMOKK FPL, SW","FM-12","99999","V020","999,9,C,0000,1","02100,1,C,N","050000,1,N,1","-0190,1","-0203,1","09906,1",,,"08,1,+02100,1,99,9",,"120,M,-0153,1","999,N,-0216,1","99999,9,09547,1","3,1,015,1,+999,9","SYN082AAXX  14061 02151 45884 /0000 11190 21203 39547 49906 53015 333 11153 21216 88/57;",
"02151099999","2010-11-14T09:00:00","4","66.4833333","20.1666666","275.0","JOKKMOKK FPL, SW","FM-12","99999","V020","999,9,C,0000,1","99999,9,9,N","050000,1,N,1","-0183,1","-0196,1","09928,1",,,,,,,"99999,9,09569,1","2,1,022,1,+999,9","SYN060AAXX  14091 02151 45984 /0000 11183 21196 39569 49928 52022;",
"02151099999","2010-11-14T12:00:00","4","66.4833333","20.1666666","275.0","JOKKMOKK FPL, SW","FM-12","99999","V020","999,9,C,0000,1","99999,9,9,N","050000,1,N,1","-0168,1","-0179,1","09946,1",,,,,,,"99999,9,09588,1","3,1,019,1,+999,9","SYN060AAXX  14121 02151 45984 /0000 11168 21179 39588 49946 53019;",
"02151099999","2010-11-14T15:00:00","4","66.4833333","20.1666666","275.0","JOKKMOKK FPL, SW","FM-12","99999","V020","999,9,C,0000,1","99999,9,9,N","050000,1,N,1","-0191,1","-0205,1","09971,1",,,,,,,"99999,9,09609,1","2,1,021,1,+999,9","SYN060AAXX  14151 02151 45984 /0000 11191 21205 39609 49971 52021;",
"02151099999","2010-11-14T18:00:00","4","66.4833333","20.1666666","275.0","JOKKMOKK FPL, SW","FM-12","99999","V020","999,9,C,0000,1","99999,9,9,N","050000,1,N,1","-0192,1","-0205,1","09985,1",,,,,"120,M,-0160,1","999,N,-0204,1","99999,9,09622,1","2,1,014,1,+999,9","SYN076AAXX  14181 02151 45984 /0000 11192 21205 39622 49985 52014 333 11160 21204;",
"02151099999","2010-11-14T21:00:00","4","66.4833333","20.1666666","275.0","JOKKMOKK FPL, SW","FM-12","99999","V020","999,9,C,0000,1","99999,9,9,N","050000,1,N,1","-0201,1","-0216,1","09999,1",,,,,,,"99999,9,09635,1","2,1,013,1,+999,9","SYN060AAXX  14211 02151 45984 /0000 11201 21216 39635 49999 52013;",
"02151099999","2010-11-15T00:00:00","4","66.4833333","20.1666666","275.0","JOKKMOKK FPL, SW","FM-12","99999","V020","999,9,C,0000,1","00210,1,C,N","050000,1,N,1","-0151,1","-0160,1","10004,1",,,"08,1,+00210,1,99,9",,,,"99999,9,09646,1","2,1,011,1,+999,9","SYN070AAXX  15001 02151 45384 /0000 11151 21160 39646 40004 52011 333 88/07;",
"02151099999","2010-11-15T03:00:00","4","66.4833333","20.1666666","275.0","JOKKMOKK FPL, SW","FM-12","99999","V020","999,9,C,0000,1","00120,1,C,N","050000,1,N,1","-0119,1","-0125,1","10005,1",,,"08,1,+00120,1,99,9",,,,"99999,9,09651,1","2,1,005,1,+999,9","SYN070AAXX  15031 02151 45284 /0000 11119 21125 39651 40005 52005 333 88/04;",
"02151099999","2010-11-15T06:00:00","4","66.4833333","20.1666666","275.0","JOKKMOKK FPL, SW","FM-12","99999","V020","999,9,C,0000,1","00120,1,C,N","026000,1,N,1","-0096,1","-0100,1","10012,1",,,"08,1,+00120,1,99,9",,"120,M,-0096,1","999,N,-0205,1","99999,9,09662,1","2,1,010,1,+999,9","SYN082AAXX  15061 02151 45276 /0000 11096 21100 39662 40012 52010 333 11096 21205 88/04;",
"02151099999","2010-11-15T09:00:00","4","66.4833333","20.1666666","275.0","JOKKMOKK FPL, SW","FM-12","99999","V020","999,9,C,0000,1","00090,1,C,N","014000,1,N,1","-0084,1","-0087,1","10031,1",,,"08,1,+00090,1,99,9",,,,"99999,9,09682,1","2,1,020,1,+999,9","SYN070AAXX  15091 02151 45164 /0000 11084 21087 39682 40031 52020 333 88/03;",
"02151099999","2010-11-15T12:00:00","4","66.4833333","20.1666666","275.0","JOKKMOKK FPL, SW","FM-12","99999","V020","999,9,C,0000,1","99999,9,9,N","026000,1,N,1","-0068,1","-0070,1","10040,1",,,"02,1,+00180,1,99,9",,,,"99999,9,09693,1","2,1,011,1,+999,9","SYN076AAXX  15121 02151 45376 /0000 11068 21070 39693 40040 52011 333 82/06 88/11;",
"02151099999","2010-11-15T15:00:00","4","66.4833333","20.1666666","275.0","JOKKMOKK FPL, SW","FM-12","99999","V020","999,9,C,0000,1","00420,1,C,N","050000,1,N,1","-0067,1","-0069,1","10050,1","00,1","8,1,03,1","08,1,+00420,1,99,9",,,,"99999,9,09702,1","3,1,010,1,+999,9","SYN076AAXX  15151 02151 47484 /0000 11067 21069 39702 40050 53010 70087 333 88/14;",
"02151099999","2010-11-15T18:00:00","4","66.4833333","20.1666666","275.0","JOKKMOKK FPL, SW","FM-12","99999","V020","310,1,N,0010,1","00630,1,C,N","050000,1,N,1","-0058,1","-0059,1","10062,1","00,1","8,1,06,1","08,1,+00630,1,99,9",,"120,M,-0058,1","999,N,-0097,1","99999,9,09715,1","2,1,013,1,+999,9","SYN088AAXX  15181 02151 47584 /3101 11058 21059 39715 40062 52013 70082 333 11058 21097 88/21;",
"02151099999","2010-11-15T21:00:00","4","66.4833333","20.1666666","275.0","JOKKMOKK FPL, SW","FM-12","99999","V020","300,1,N,0010,1","00480,1,C,N","050000,1,N,1","-0062,1","-0064,1","10083,1",,,"08,1,+00480,1,99,9",,,,"99999,9,09734,1","3,1,020,1,+999,9","SYN070AAXX  15211 02151 45484 /3001 11062 21064 39734 40083 53020 333 88/16;",
"02151099999","2010-11-16T00:00:00","4","66.4833333","20.1666666","275.0","JOKKMOKK FPL, SW","FM-12","99999","V020","320,1,N,0030,1","00210,1,C,N","050000,1,N,1","-0059,1","-0061,1","10106,1",,,"08,1,+00210,1,99,9",,,,"99999,9,09757,1","2,1,023,1,+999,9","SYN070AAXX  16001 02151 45384 /3203 11059 21061 39757 40106 52023 333 88/07;",
"02151099999","2010-11-16T03:00:00","4","66.4833333","20.1666666","275.0","JOKKMOKK FPL, SW","FM-12","99999","V020","310,1,N,0010,1","99999,9,9,N","050000,1,N,1","-0084,1","-0087,1","10133,1",,,"04,1,+00180,1,99,9",,,,"99999,9,09780,1","3,1,022,1,+999,9","SYN070AAXX  16031 02151 45284 /3101 11084 21087 39780 40133 53022 333 84/06;",
"02151099999","2010-11-16T06:00:00","4","66.4833333","20.1666666","275.0","JOKKMOKK FPL, SW","FM-12","99999","V020","040,1,N,0010,1","99999,9,9,N","050000,1,N,1","-0128,1","-0134,1","10165,1",,,,,"120,M,-0049,1","999,N,-0132,1","99999,9,09805,1","3,1,025,1,+999,9","SYN076AAXX  16061 02151 45984 /0401 11128 21134 39805 40165 53025 333 11049 21132;",
"02151099999","2010-11-16T09:00:00","4","66.4833333","20.1666666","275.0","JOKKMOKK FPL, SW","FM-12","99999","V020","250,1,N,0010,1","99999,9,9,N","050000,1,N,1","-0133,1","-0141,1","10197,1",,,,,,,"99999,9,09835,1","3,1,030,1,+999,9","SYN060AAXX  16091 02151 45984 /2501 11133 21141 39835 40197 53030;",
"02151099999","2010-11-16T12:00:00","4","66.4833333","20.1666666","275.0","JOKKMOKK FPL, SW","FM-12","99999","V020","270,1,N,0020,1","99999,9,9,N","050000,1,N,1","-0132,1","-0140,1","10220,1",,,,,,,"99999,9,09857,1","2,1,022,1,+999,9","SYN060AAXX  16121 02151 45984 /2702 11132 21140 39857 40220 52022;",
"02151099999","2010-11-16T15:00:00","4","66.4833333","20.1666666","275.0","JOKKMOKK FPL, SW","FM-12","99999","V020","280,1,N,0020,1","99999,9,9,N","050000,1,N,1","-0149,1","-0159,1","10240,1","00,1","7,1,03,1",,,,,"99999,9,09874,1","2,1,017,1,+999,9","SYN066AAXX  16151 02151 47984 /2802 11149 21159 39874 40240 52017 70073;",
"02151099999","2010-11-16T18:00:00","4","66.4833333","20.1666666","275.0","JOKKMOKK FPL, SW","FM-12","99999","V020","280,1,N,0020,1","99999,9,9,N","050000,1,N,1","-0159,1","-0169,1","10259,1","00,1","4,1,06,1",,,"120,M,-0118,1","999,N,-0185,1","99999,9,09891,1","3,1,017,1,+999,9","SYN082AAXX  16181 02151 47984 /2802 11159 21169 39891 40259 53017 70032 333 11118 21185;",
"02151099999","2010-11-16T21:00:00","4","66.4833333","20.1666666","275.0","JOKKMOKK FPL, SW","FM-12","99999","V020","290,1,N,0010,1","99999,9,9,N","050000,1,N,1","-0176,1","-0187,1","10279,1",,,,,,,"99999,9,09908,1","2,1,018,1,+999,9","SYN060AAXX  16211 02151 45984 /2901 11176 21187 39908 40279 52018;",
"02151099999","2010-11-17T00:00:00","4","66.4833333","20.1666666","275.0","JOKKMOKK FPL, SW","FM-12","99999","V020","999,9,C,0000,1","99999,9,9,N","050000,1,N,1","-0203,1","-0218,1","10299,1",,,,,,,"99999,9,09923,1","2,1,015,1,+999,9","SYN060AAXX  17001 02151 45984 /0000 11203 21218 39923 40299 52015;",
"02151099999","2010-11-17T03:00:00","4","66.4833333","20.1666666","275.0","JOKKMOKK FPL, SW","FM-12","99999","V020","999,9,C,0000,1","99999,9,9,N","050000,1,N,1","-0188,1","-0201,1","10307,1",,,,,,,"99999,9,09933,1","2,1,010,1,+999,9","SYN060AAXX  17031 02151 45984 /0000 11188 21201 39933 40307 52010;",
"02151099999","2010-11-17T06:00:00","4","66.4833333","20.1666666","275.0","JOKKMOKK FPL, SW","FM-12","99999","V020","999,9,C,0000,1","99999,9,9,N","050000,1,N,1","-0211,1","-0226,1","10317,1",,,,,"120,M,-0157,1","999,N,-0220,1","99999,9,09940,1","2,1,007,1,+999,9","SYN076AAXX  17061 02151 45984 /0000 11211 21226 39940 40317 52007 333 11157 21220;",
"02151099999","2010-11-17T09:00:00","4","66.4833333","20.1666666","275.0","JOKKMOKK FPL, SW","FM-12","99999","V020","270,1,N,0010,1","99999,9,9,N","050000,1,N,1","-0193,1","-0206,1","10334,1","22,1","8,1,03,1",,,,,"99999,9,09959,1","1,1,019,1,+999,9","SYN066AAXX  17091 02151 47984 /2701 11193 21206 39959 40334 51019 72287;",
"02151099999","2010-11-17T12:00:00","4","66.4833333","20.1666666","275.0","JOKKMOKK FPL, SW","FM-12","99999","V020","280,1,N,0010,1","99999,9,9,N","050000,1,N,1","-0184,1","-0197,1","10338,1","00,1","8,1,06,1",,,,,"99999,9,09964,1","3,1,004,1,+999,9","SYN066AAXX  17121 02151 47984 /2801 11184 21197 39964 40338 53004 70087;",
"02151099999","2010-11-17T15:00:00","4","66.4833333","20.1666666","275.0","JOKKMOKK FPL, SW","FM-12","99999","V020","999,9,C,0000,1","99999,9,9,N","050000,1,N,1","-0207,1","-0222,1","10340,1",,,,,,,"99999,9,09963,1","0,1,001,1,+999,9","SYN060AAXX  17151 02151 45984 /0000 11207 21222 39963 40340 50001;",
"02151099999","2010-11-17T18:00:00","4","66.4833333","20.1666666","275.0","JOKKMOKK FPL, SW","FM-12","99999","V020","999,9,C,0000,1","99999,9,9,N","050000,1,N,1","-0222,1","-0239,1","10347,1",,,,,"120,M,-0182,1","999,N,-0228,1","99999,9,09967,1","3,1,004,1,+999,9","SYN076AAXX  17181 02151 45984 /0000 11222 21239 39967 40347 53004 333 11182 21228;",
"02151099999","2010-11-17T21:00:00","4","66.4833333","20.1666666","275.0","JOKKMOKK FPL, SW","FM-12","99999","V020","999,9,C,0000,1","99999,9,9,N","050000,1,N,1","-0232,1","-0250,1","10351,1",,,,,,,"99999,9,09969,1","2,1,002,1,+999,9","SYN060AAXX  17211 02151 45984 /0000 11232 21250 39969 40351 52002;",
"02151099999","2010-11-18T00:00:00","4","66.4833333","20.1666666","275.0","JOKKMOKK FPL, SW","FM-12","99999","V020","999,9,C,0000,1","99999,9,9,N","050000,1,N,1","-0226,1","-0243,1","10348,1",,,,,,,"99999,9,09967,1","8,1,002,1,+999,9","SYN060AAXX  18001 02151 45984 /0000 11226 21243 39967 40348 58002;",
"02151099999","2010-11-18T03:00:00","4","66.4833333","20.1666666","275.0","JOKKMOKK FPL, SW","FM-12","99999","V020","240,1,N,0010,1","00060,1,C,N","050000,1,N,1","-0232,1","-0249,1","10343,1",,,"08,1,+00060,1,99,9",,,,"99999,9,09962,1","8,1,006,1,+999,9","SYN070AAXX  18031 02151 45184 /2401 11232 21249 39962 40343 58006 333 88/02;",
"02151099999","2010-11-18T06:00:00","4","66.4833333","20.1666666","275.0","JOKKMOKK FPL, SW","FM-12","99999","V020","999,9,C,0000,1","99999,9,9,N","050000,1,N,1","-0242,1","-0261,1","10338,1",,,,,"120,M,-0218,1","999,N,-0253,1","99999,9,09955,1","7,1,007,1,+999,9","SYN076AAXX  18061 02151 45984 /0000 11242 21261 39955 40338 57007 333 11218 21253;",
"02151099999","2010-11-18T09:00:00","4","66.4833333","20.1666666","275.0","JOKKMOKK FPL, SW","FM-12","99999","V020","999,9,C,0000,1","99999,9,9,N","035000,1,N,1","-0239,1","-0258,1","10331,1",,,,,,,"99999,9,09949,1","7,1,006,1,+999,9","SYN060AAXX  18091 02151 45981 /0000 11239 21258 39949 40331 57006;",
"02151099999","2010-11-18T12:00:00","4","66.4833333","20.1666666","275.0","JOKKMOKK FPL, SW","FM-12","99999","V020","999,9,C,0000,1","99999,9,9,N","050000,1,N,1","-0230,1","-0247,1","10314,1","00,1","8,1,06,1",,,,,"99999,9,09934,1","7,1,015,1,+999,9","SYN066AAXX  18121 02151 47984 /0000 11230 21247 39934 40314 57015 70087;",
"02151099999","2010-11-18T15:00:00","4","66.4833333","20.1666666","275.0","JOKKMOKK FPL, SW","FM-12","99999","V020","220,1,N,0010,1","99999,9,9,N","024000,1,N,1","-0223,1","-0240,1","10294,1",,,,,,,"99999,9,09916,1","6,1,018,1,+999,9","SYN060AAXX  18151 02151 45974 /2201 11223 21240 39916 40294 56018;",
"02151099999","2010-11-18T18:00:00","4","66.4833333","20.1666666","275.0","JOKKMOKK FPL, SW","FM-12","99999","V020","999,9,C,0000,1","99999,9,9,N","035000,1,N,1","-0225,1","-0241,1","10283,1","24,1","8,1,06,1",,,"120,M,-0208,1","999,N,-0256,1","99999,9,09905,1","7,1,010,1,+999,9","SYN082AAXX  18181 02151 47981 /0000 11225 21241 39905 40283 57010 72487 333 11208 21256;",
"02151099999","2010-11-18T21:00:00","4","66.4833333","20.1666666","275.0","JOKKMOKK FPL, SW","FM-12","99999","V020","999,9,C,0000,1","99999,9,9,N","050000,1,N,1","-0202,1","-0217,1","10275,1","00,1","8,1,03,1",,,,,"99999,9,09900,1","7,1,005,1,+999,9","SYN066AAXX  18211 02151 47984 /0000 11202 21217 39900 40275 57005 70082;",
"02151099999","2010-11-19T00:00:00","4","66.4833333","20.1666666","275.0","JOKKMOKK FPL, SW","FM-12","99999","V020","999,9,C,0000,1","99999,9,9,N","050000,1,N,1","-0179,1","-0191,1","10273,1","00,1","8,1,06,1",,,,,"99999,9,09902,1","3,1,001,1,+999,9","SYN066AAXX  19001 02151 47984 /0000 11179 21191 39902 40273 53001 70082;",
"02151099999","2010-11-19T03:00:00","4","66.4833333","20.1666666","275.0","JOKKMOKK FPL, SW","FM-12","99999","V020","270,1,N,0010,1","99999,9,9,N","050000,1,N,1","-0154,1","-0164,1","10272,1",,,,,,,"99999,9,09904,1","3,1,003,1,+999,9","SYN060AAXX  19031 02151 45984 /2701 11154 21164 39904 40272 53003;",
"02151099999","2010-11-19T06:00:00","4","66.4833333","20.1666666","275.0","JOKKMOKK FPL, SW","FM-12","99999","V020","260,1,N,0010,1","99999,9,9,N","050000,1,N,1","-0157,1","-0168,1","10284,1",,,,,"120,M,-0142,1","999,N,-0233,1","99999,9,09916,1","3,1,012,1,+999,9","SYN076AAXX  19061 02151 45984 /2601 11157 21168 39916 40284 53012 333 11142 21233;",
"02151099999","2010-11-19T09:00:00","4","66.4833333","20.1666666","275.0","JOKKMOKK FPL, SW","FM-12","99999","V020","280,1,N,0020,1","99999,9,9,N","050000,1,N,1","-0127,1","-0134,1","10303,1",,,"01,1,+01500,1,99,9",,,,"99999,9,09938,1","2,1,022,1,+999,9","SYN076AAXX  19091 02151 45784 /2802 11127 21134 39938 40303 52022 333 81/50 88/57;",
"02151099999","2010-11-19T12:00:00","4","66.4833333","20.1666666","275.0","JOKKMOKK FPL, SW","FM-12","99999","V020","280,1,N,0010,1","02100,1,C,N","050000,1,N,1","-0111,1","-0116,1","10317,1",,,"05,1,+02100,1,99,9",,,,"99999,9,09953,1","3,1,016,1,+999,9","SYN070AAXX  19121 02151 45884 /2801 11111 21116 39953 40317 53016 333 85/57;",
"02151099999","2010-11-19T15:00:00","4","66.4833333","20.1666666","275.0","JOKKMOKK FPL, SW","FM-12","99999","V020","260,1,N,0010,1","00240,1,C,N","050000,1,N,1","-0124,1","-0131,1","10337,1",,,"05,1,+00240,1,99,9","07,1,+00270,1,99,9",,,"99999,9,09971,1","3,1,018,1,+999,9","SYN082AAXX  19151 02151 45384 /2601 11124 21131 39971 40337 53018 333 85/08 87/09 88/59;",
"02151099999","2010-11-19T18:00:00","4","66.4833333","20.1666666","275.0","JOKKMOKK FPL, SW","FM-12","99999","V020","999,9,C,0000,1","00060,1,C,N","024000,1,N,1","-0094,1","-0098,1","10352,1",,,"07,1,+00060,1,99,9",,"120,M,-0092,1","999,N,-0157,1","99999,9,09990,1","2,1,019,1,+999,9","SYN088AAXX  19181 02151 45174 /0000 11094 21098 39990 40352 52019 333 11092 21157 87/02 88/06;",
"02151099999","2010-11-19T21:00:00","4","66.4833333","20.1666666","275.0","JOKKMOKK FPL, SW","FM-12","99999","V020","999,9,C,0000,1","00210,1,C,N","017000,1,N,1","-0080,1","-0083,1","10370,1",,,"08,1,+00210,1,99,9",,,,"99999,9,10009,1","2,1,019,1,+999,9","SYN070AAXX  19211 02151 45367 /0000 11080 21083 30009 40370 52019 333 88/07;",
"02151099999","2010-11-20T00:00:00","4","66.4833333","20.1666666","275.0","JOKKMOKK FPL, SW","FM-12","99999","V020","999,9,C,0000,1","00270,1,C,N","022000,1,N,1","-0075,1","-0077,1","10373,1","22,1","8,1,06,1","07,1,+00270,1,99,9",,,,"99999,9,10013,1","0,1,004,1,+999,9","SYN076AAXX  20001 02151 47372 /0000 11075 21077 30013 40373 50004 72287 333 87/09;",
"02151099999","2010-11-20T03:00:00","4","66.4833333","20.1666666","275.0","JOKKMOKK FPL, SW","FM-12","99999","V020","150,1,N,0010,1","99999,9,9,N","009000,1,N,1","-0079,1","-0082,1","10375,1","85,1","8,1,03,1","01,1,+00270,1,99,9",,,,"99999,9,10014,1","0,1,001,1,+999,9","SYN082AAXX  20031 02151 47359 /1501 11079 21082 30014 40375 50001 78587 333 81/09 88/15;",
"02151099999","2010-11-20T06:00:00","4","66.4833333","20.1666666","275.0","JOKKMOKK FPL, SW","FM-12","99999","V020","999,9,C,0000,1","00330,1,C,N","008000,1,N,1","-0087,1","-0090,1","10372,1","22,1","8,1,06,1","08,1,+00330,1,99,9",,"120,M,-0073,1","999,N,-0094,1","99999,9,10010,1","7,1,004,1,+999,9","SYN088AAXX  20061 02151 47458 /0000 11087 21090 30010 40372 57004 72287 333 11073 21094 88/11;",
"02151099999","2010-11-20T09:00:00","4","66.4833333","20.1666666","275.0","JOKKMOKK FPL, SW","FM-12","99999","V020","999,9,C,0000,1","00210,1,C,N","004400,1,N,1","-0091,1","-0095,1","10371,1","77,1","7,1,03,1","06,1,+00210,1,99,9",,,,"99999,9,10009,1","7,1,001,1,+999,9","SYN082AAXX  20091 02151 47344 /0000 11091 21095 30009 40371 57001 77772 333 86/07 88/12;",
"02151099999","2010-11-20T12:00:00","4","66.4833333","20.1666666","275.0","JOKKMOKK FPL, SW","FM-12","99999","V020","180,1,N,0010,1","99999,9,9,N","017000,1,N,1","-0111,1","-0112,1","10362,1","24,1","8,1,06,1",,,,,"99999,9,09997,1","8,1,012,1,+999,9","SYN066AAXX  20121 02151 47967 /1801 11111 21112 39997 40362 58012 72487;",
"02151099999","2010-11-20T15:00:00","4","66.4833333","20.1666666","275.0","JOKKMOKK FPL, SW","FM-12","99999","V020","999,9,C,0000,1","99999,9,9,N","022000,1,N,1","-0155,1","-0165,1","10356,1",,,,,,,"99999,9,09985,1","7,1,012,1,+999,9","SYN060AAXX  20151 02151 45972 /0000 11155 21165 39985 40356 57012;",
"02151099999","2010-11-20T18:00:00","4","66.4833333","20.1666666","275.0","JOKKMOKK FPL, SW","FM-12","99999","V020","999,9,C,0000,1","05400,1,C,N","023000,1,N,1","-0158,1","-0169,1","10351,1",,,"07,1,+05400,1,99,9",,"120,M,-0079,1","999,N,-0169,1","99999,9,09980,1","7,1,006,1,+999,9","SYN082AAXX  20181 02151 45973 /0000 11158 21169 39980 40351 57006 333 11079 21169 87/68;",
"02151099999","2010-11-20T21:00:00","4","66.4833333","20.1666666","275.0","JOKKMOKK FPL, SW","FM-12","99999","V020","999,9,C,0000,1","99999,9,9,N","050000,1,N,1","-0181,1","-0194,1","10347,1",,,,,,,"99999,9,09973,1","7,1,007,1,+999,9","SYN060AAXX  20211 02151 45984 /0000 11181 21194 39973 40347 57007;",
"02151099999","2010-11-21T00:00:00","4","66.4833333","20.1666666","275.0","JOKKMOKK FPL, SW","FM-12","99999","V020","290,1,N,0010,1","99999,9,9,N","050000,1,N,1","-0180,1","-0193,1","10334,1","24,1","8,1,06,1",,,,,"99999,9,09961,1","7,1,012,1,+999,9","SYN066AAXX  21001 02151 47984 /2901 11180 21193 39961 40334 57012 72487;",
"02151099999","2010-11-21T03:00:00","4","66.4833333","20.1666666","275.0","JOKKMOKK FPL, SW","FM-12","99999","V020","999,9,C,0000,1","99999,9,9,N","050000,1,N,1","-0182,1","-0194,1","10323,1","00,1","8,1,03,1",,,,,"99999,9,09950,1","7,1,011,1,+999,9","SYN066AAXX  21031 02151 47984 /0000 11182 21194 39950 40323 57011 70087;",
"02151099999","2010-11-21T06:00:00","4","66.4833333","20.1666666","275.0","JOKKMOKK FPL, SW","FM-12","99999","V020","999,9,C,0000,1","99999,9,9,N","050000,1,N,1","-0172,1","-0184,1","10319,1","00,1","8,1,06,1",,,"120,M,-0155,1","999,N,-0200,1","99999,9,09947,1","5,1,003,1,+999,9","SYN082AAXX  21061 02151 47984 /0000 11172 21184 39947 40319 55003 70087 333 11155 21200;",
"02151099999","2010-11-21T09:00:00","4","66.4833333","20.1666666","275.0","JOKKMOKK FPL, SW","FM-12","99999","V020","999,9,C,0000,1","01380,1,C,N","050000,1,N,1","-0139,1","-0147,1","10322,1",,,"08,1,+01380,1,99,9",,,,"99999,9,09955,1","2,1,008,1,+999,9","SYN070AAXX  21091 02151 45684 /0000 11139 21147 39955 40322 52008 333 88/46;",
"02151099999","2010-11-21T12:00:00","4","66.4833333","20.1666666","275.0","JOKKMOKK FPL, SW","FM-12","99999","V020","999,9,C,0000,1","01320,1,C,N","050000,1,N,1","-0110,1","-0115,1","10315,1",,,"08,1,+01320,1,99,9",,,,"99999,9,09952,1","7,1,003,1,+999,9","SYN070AAXX  21121 02151 45684 /0000 11110 21115 39952 40315 57003 333 88/44;",
"02151099999","2010-11-21T15:00:00","4","66.4833333","20.1666666","275.0","JOKKMOKK FPL, SW","FM-12","99999","V020","270,1,N,0010,1","01350,1,C,N","050000,1,N,1","-0102,1","-0106,1","10306,1",,,"08,1,+01350,1,99,9",,,,"99999,9,09944,1","8,1,008,1,+999,9","SYN070AAXX  21151 02151 45684 /2701 11102 21106 39944 40306 58008 333 88/45;",
"02151099999","2010-11-21T18:00:00","4","66.4833333","20.1666666","275.0","JOKKMOKK FPL, SW","FM-12","99999","V020","999,9,C,0000,1","01350,1,C,N","050000,1,N,1","-0092,1","-0095,1","10293,1",,,"08,1,+01350,1,99,9",,"120,M,-0091,1","999,N,-0172,1","99999,9,09933,1","7,1,011,1,+999,9","SYN082AAXX  21181 02151 45684 /0000 11092 21095 39933 40293 57011 333 11091 21172 88/45;",
"02151099999","2010-11-21T21:00:00","4","66.4833333","20.1666666","275.0","JOKKMOKK FPL, SW","FM-12","99999","V020","999,9,C,0000,1","01170,1,C,N","050000,1,N,1","-0081,1","-0084,1","10275,1",,,"08,1,+01170,1,99,9",,,,"99999,9,09918,1","8,1,016,1,+999,9","SYN070AAXX  21211 02151 45684 /0000 11081 21084 39918 40275 58016 333 88/39;",
"02151099999","2010-11-22T00:00:00","4","66.4833333","20.1666666","275.0","JOKKMOKK FPL, SW","FM-12","99999","V020","999,9,C,0000,1","01230,1,C,N","050000,1,N,1","-0073,1","-0076,1","10255,1",,,"08,1,+01230,1,99,9",,,,"99999,9,09898,1","8,1,019,1,+999,9","SYN070AAXX  22001 02151 45684 /0000 11073 21076 39898 40255 58019 333 88/41;",
"02151099999","2010-11-22T03:00:00","4","66.4833333","20.1666666","275.0","JOKKMOKK FPL, SW","FM-12","99999","V020","999,9,C,0000,1","99999,9,9,N","050000,1,N,1","-0114,1","-0118,1","10240,1",,,,,,,"99999,9,09879,1","7,1,019,1,+999,9","SYN060AAXX  22031 02151 45984 /0000 11114 21118 39879 40240 57019;",
"02151099999","2010-11-22T06:00:00","4","66.4833333","20.1666666","275.0","JOKKMOKK FPL, SW","FM-12","99999","V020","270,1,N,0010,1","99999,9,9,N","050000,1,N,1","-0156,1","-0168,1","10224,1",,,,,"120,M,-0072,1","999,N,-0159,1","99999,9,09858,1","6,1,022,1,+999,9","SYN076AAXX  22061 02151 45984 /2701 11156 21168 39858 40224 56022 333 11072 21159;",
"02151099999","2010-11-22T09:00:00","4","66.4833333","20.1666666","275.0","JOKKMOKK FPL, SW","FM-12","99999","V020","260,1,N,0010,1","99999,9,9,N","050000,1,N,1","-0142,1","-0151,1","10210,1","24,1","8,1,03,1",,,,,"99999,9,09846,1","7,1,012,1,+999,9","SYN066AAXX  22091 02151 47984 /2601 11142 21151 39846 40210 57012 72487;",
"02151099999","2010-11-22T12:00:00","4","66.4833333","20.1666666","275.0","JOKKMOKK FPL, SW","FM-12","99999","V020","999,9,C,0000,1","01500,1,C,N","050000,1,N,1","-0137,1","-0144,1","10201,1","00,1","8,1,06,1","07,1,+01500,1,99,9",,,,"99999,9,09838,1","5,1,008,1,+999,9","SYN076AAXX  22121 02151 47784 /0000 11137 21144 39838 40201 55008 70087 333 87/50;",
"02151099999","2010-11-22T15:00:00","4","66.4833333","20.1666666","275.0","JOKKMOKK FPL, SW","FM-12","99999","V020","280,1,N,0010,1","99999,9,9,N","008000,1,N,1","-0113,1","-0119,1","10202,1","71,1","7,1,03,1","02,1,+00450,1,99,9",,,,"99999,9,09843,1","3,1,005,1,+999,9","SYN082AAXX  22151 02151 47458 /2801 11113 21119 39843 40202 53005 77171 333 82/15 88/34;",
"02151099999","2010-11-22T18:00:00","4","66.4833333","20.1666666","275.0","JOKKMOKK FPL, SW","FM-12","99999","V020","070,1,N,0010,1","01200,1,C,N","040000,1,N,1","-0084,1","-0088,1","10213,1","77,1","7,1,06,1","09,1,+01200,1,99,9",,"120,M,-0083,1","999,N,-0167,1","99999,9,09857,1","3,1,014,1,+999,9","SYN088AAXX  22181 02151 47/82 /0701 11084 21088 39857 40213 53014 77771 333 11083 21167 89/40;",
"02151099999","2010-11-22T21:00:00","4","66.4833333","20.1666666","275.0","JOKKMOKK FPL, SW","FM-12","99999","V020","999,9,C,0000,1","01500,1,C,N","050000,1,N,1","-0094,1","-0100,1","10228,1","00,1","8,1,03,1","08,1,+01500,1,99,9",,,,"99999,9,09870,1","2,1,013,1,+999,9","SYN076AAXX  22211 02151 47784 /0000 11094 21100 39870 40228 52013 70087 333 88/50;",
"02151099999","2010-11-23T00:00:00","4","66.4833333","20.1666666","275.0","JOKKMOKK FPL, SW","FM-12","99999","V020","320,1,N,0020,1","01800,1,C,N","050000,1,N,1","-0108,1","-0118,1","10228,1","00,1","8,1,06,1","08,1,+01800,1,99,9",,,,"99999,9,09868,1","7,1,002,1,+999,9","SYN076AAXX  23001 02151 47784 /3202 11108 21118 39868 40228 57002 70087 333 88/56;",
"02151099999","2010-11-23T03:00:00","4","66.4833333","20.1666666","275.0","JOKKMOKK FPL, SW","FM-12","99999","V020","310,1,N,0020,1","99999,9,9,N","050000,1,N,1","-0139,1","-0151,1","10225,1",,,,,,,"99999,9,09861,1","8,1,007,1,+999,9","SYN060AAXX  23031 02151 45984 /3102 11139 21151 39861 40225 58007;",
"02151099999","2010-11-23T06:00:00","4","66.4833333","20.1666666","275.0","JOKKMOKK FPL, SW","FM-12","99999","V020","310,1,N,0020,1","00630,1,C,N","015000,1,N,1","-0136,1","-0148,1","10222,1","77,1","7,1,06,1","04,1,+00510,1,99,9","07,1,+00630,1,99,9","120,M,-0082,1","999,N,-0145,1","99999,9,09859,1","7,1,002,1,+999,9","SYN100AAXX  23061 02151 47465 /3102 11136 21148 39859 40222 57002 77770 333 11082 21145 84/17 87/21 88/32;",
"02151099999","2010-11-23T09:00:00","4","66.4833333","20.1666666","275.0","JOKKMOKK FPL, SW","FM-12","99999","V020","310,1,N,0010,1","99999,9,9,N","029000,1,N,1","-0115,1","-0121,1","10230,1","71,1","8,1,03,1","01,1,+00960,1,99,9",,,,"99999,9,09869,1","2,1,010,1,+999,9","SYN082AAXX  23091 02151 47579 /3101 11115 21121 39869 40230 52010 77187 333 81/32 88/42;",
"02151099999","2010-11-23T12:00:00","4","66.4833333","20.1666666","275.0","JOKKMOKK FPL, SW","FM-12","99999","V020","999,9,C,0000,1","99999,9,9,N","035000,1,N,1","-0166,1","-0178,1","10243,1","85,1","8,1,06,1",,,,,"99999,9,09874,1","2,1,006,1,+999,9","SYN066AAXX  23121 02151 47981 /0000 11166 21178 39874 40243 52006 78587;",
"02151099999","2010-11-23T15:00:00","4","66.4833333","20.1666666","275.0","JOKKMOKK FPL, SW","FM-12","99999","V020","999,9,C,0000,1","99999,9,9,N","002200,1,N,1","-0167,1","-0177,1","10251,1","71,1","8,1,03,1","01,1,+00030,1,99,9",,,,"99999,9,09882,1","2,1,008,1,+999,9","SYN076AAXX  23151 02151 47022 /0000 11167 21177 39882 40251 52008 77187 333 81/01;",
"02151099999","2010-11-23T18:00:00","4","66.4833333","20.1666666","275.0","JOKKMOKK FPL, SW","FM-12","99999","V020","999,9,C,0000,1","99999,9,9,N","027000,1,N,1","-0172,1","-0183,1","10262,1","85,1","8,1,06,1",,,"120,M,-0115,1","999,N,-0185,1","99999,9,09892,1","2,1,010,1,+999,9","SYN082AAXX  23181 02151 47977 /0000 11172 21183 39892 40262 52010 78587 333 11115 21185;",
"02151099999","2010-11-23T21:00:00","4","66.4833333","20.1666666","275.0","JOKKMOKK FPL, SW","FM-12","99999","V020","999,9,C,0000,1","99999,9,9,N","035000,1,N,1","-0174,1","-0186,1","10267,1","00,1","8,1,03,1",,,,,"99999,9,09897,1","2,1,005,1,+999,9","SYN066AAXX  23211 02151 47981 /0000 11174 21186 39897 40267 52005 70080;",
"02151099999","2010-11-24T00:00:00","4","66.4833333","20.1666666","275.0","JOKKMOKK FPL, SW","FM-12","99999","V020","999,9,C,0000,1","99999,9,9,N","030000,1,N,1","-0192,1","-0205,1","10270,1","00,1","8,1,06,1",,,,,"99999,9,09897,1","4,1,000,1,+999,9","SYN066AAXX  24001 02151 47980 /0000 11192 21205 39897 40270 54000 70080;",
"02151099999","2010-11-24T03:00:00","4","66.4833333","20.1666666","275.0","JOKKMOKK FPL, SW","FM-12","99999","V020","310,1,N,0010,1","99999,9,9,N","050000,1,N,1","-0213,1","-0228,1","10273,1",,,,,,,"99999,9,09897,1","4,1,000,1,+999,9","SYN060AAXX  24031 02151 45984 /3101 11213 21228 39897 40273 54000;",
"02151099999","2010-11-24T06:00:00","4","66.4833333","20.1666666","275.0","JOKKMOKK FPL, SW","FM-12","99999","V020","999,9,C,0000,1","99999,9,9,N","050000,1,N,1","-0201,1","-0215,1","10270,1",,,,,"120,M,-0148,1","999,N,-0216,1","99999,9,09896,1","5,1,002,1,+999,9","SYN076AAXX  24061 02151 45984 /0000 11201 21215 39896 40270 55002 333 11148 21216;",
"02151099999","2010-11-24T09:00:00","4","66.4833333","20.1666666","275.0","JOKKMOKK FPL, SW","FM-12","99999","V020","260,1,N,0010,1","99999,9,9,N","050000,1,N,1","-0218,1","-0236,1","10277,1",,,,,,,"99999,9,09900,1","2,1,005,1,+999,9","SYN060AAXX  24091 02151 45984 /2601 11218 21236 39900 40277 52005;",
"02151099999","2010-11-24T12:00:00","4","66.4833333","20.1666666","275.0","JOKKMOKK FPL, SW","FM-12","99999","V020","999,9,C,0000,1","99999,9,9,N","045000,1,N,1","-0219,1","-0237,1","10270,1",,,,,,,"99999,9,09893,1","8,1,007,1,+999,9","SYN060AAXX  24121 02151 45983 /0000 11219 21237 39893 40270 58007;",
"02151099999","2010-11-24T15:00:00","4","66.4833333","20.1666666","275.0","JOKKMOKK FPL, SW","FM-12","99999","V020","999,9,C,0000,1","99999,9,9,N","050000,1,N,1","-0234,1","-0252,1","10267,1",,,,,,,"99999,9,09888,1","7,1,005,1,+999,9","SYN060AAXX  24151 02151 45984 /0000 11234 21252 39888 40267 57005;",
"02151099999","2010-11-24T18:00:00","4","66.4833333","20.1666666","275.0","JOKKMOKK FPL, SW","FM-12","99999","V020","270,1,N,0010,1","99999,9,9,N","050000,1,N,1","-0247,1","-0265,1","10267,1",,,,,"120,M,-0194,1","999,N,-0258,1","99999,9,09886,1","8,1,002,1,+999,9","SYN076AAXX  24181 02151 45984 /2701 11247 21265 39886 40267 58002 333 11194 21258;",
"02151099999","2010-11-24T21:00:00","4","66.4833333","20.1666666","275.0","JOKKMOKK FPL, SW","FM-12","99999","V020","280,1,N,0010,1","99999,9,9,N","050000,1,N,1","-0253,1","-0273,1","10260,1",,,,,,,"99999,9,09878,1","7,1,007,1,+999,9","SYN060AAXX  24211 02151 45984 /2801 11253 21273 39878 40260 57007;",
"02151099999","2010-11-25T00:00:00","4","66.4833333","20.1666666","275.0","JOKKMOKK FPL, SW","FM-12","99999","V020","999,9,C,0000,1","99999,9,9,N","050000,1,N,1","-0266,1","-0288,1","10255,1",,,,,,,"99999,9,09872,1","8,1,007,1,+999,9","SYN060AAXX  25001 02151 45984 /0000 11266 21288 39872 40255 58007;",
"02151099999","2010-11-25T03:00:00","4","66.4833333","20.1666666","275.0","JOKKMOKK FPL, SW","FM-12","99999","V020","280,1,N,0010,1","99999,9,9,N","050000,1,N,1","-0278,1","-0301,1","10253,1",,,,,,,"99999,9,09868,1","7,1,004,1,+999,9","SYN060AAXX  25031 02151 45984 /2801 11278 21301 39868 40253 57004;",
"02151099999","2010-11-25T06:00:00","4","66.4833333","20.1666666","275.0","JOKKMOKK FPL, SW","FM-12","99999","V020","999,9,C,0000,1","99999,9,9,N","050000,1,N,1","-0283,1","-0306,1","10255,1",,,,,"120,M,-0243,1","999,N,-0282,1","99999,9,09869,1","3,1,002,1,+999,9","SYN076AAXX  25061 02151 45984 /0000 11283 21306 39869 40255 53002 333 11243 21282;",
"02151099999","2010-11-25T09:00:00","4","66.4833333","20.1666666","275.0","JOKKMOKK FPL, SW","FM-12","99999","V020","999,9,C,0000,1","00180,1,C,N","009000,1,N,1","-0255,1","-0276,1","10263,1","71,1","7,1,03,1","08,1,+00180,1,99,9",,,,"99999,9,09881,1","3,1,011,1,+999,9","SYN076AAXX  25091 02151 47259 /0000 11255 21276 39881 40263 53011 77170 333 88/06;",
"02151099999","2010-11-25T12:00:00","4","66.4833333","20.1666666","275.0","JOKKMOKK FPL, SW","FM-12","99999","V020","999,9,C,0000,1","99999,9,9,N","002200,1,N,1","-0231,1","-0249,1","10264,1","71,1","7,1,06,1","01,1,+00090,1,99,9",,,,"99999,9,09886,1","2,1,005,1,+999,9","SYN082AAXX  25121 02151 47122 /0000 11231 21249 39886 40264 52005 77170 333 81/03 88/38;",
"02151099999","2010-11-25T15:00:00","4","66.4833333","20.1666666","275.0","JOKKMOKK FPL, SW","FM-12","99999","V020","999,9,C,0000,1","99999,9,9,N","050000,1,N,1","-0245,1","-0266,1","10270,1","24,1","8,1,03,1",,,,,"99999,9,09889,1","3,1,003,1,+999,9","SYN066AAXX  25151 02151 47984 /0000 11245 21266 39889 40270 53003 72487;",
"02151099999","2010-11-25T18:00:00","4","66.4833333","20.1666666","275.0","JOKKMOKK FPL, SW","FM-12","99999","V020","999,9,C,0000,1","01410,1,C,N","050000,1,N,1","-0201,1","-0216,1","10269,1","85,1","8,1,06,1","08,1,+01410,1,99,9",,"120,M,-0195,1","999,N,-0290,1","99999,9,09895,1","2,1,005,1,+999,9","SYN088AAXX  25181 02151 47684 /0000 11201 21216 39895 40269 52005 78587 333 11195 21290 88/47;",
"02151099999","2010-11-25T21:00:00","4","66.4833333","20.1666666","275.0","JOKKMOKK FPL, SW","FM-12","99999","V020","999,9,C,0000,1","99999,9,9,N","050000,1,N,1","-0210,1","-0226,1","10272,1","00,1","8,1,03,1","03,1,+01350,1,99,9",,,,"99999,9,09896,1","2,1,002,1,+999,9","SYN076AAXX  25211 02151 47684 /0000 11210 21226 39896 40272 52002 70082 333 83/45;",
"02151099999","2010-11-26T00:00:00","4","66.4833333","20.1666666","275.0","JOKKMOKK FPL, SW","FM-12","99999","V020","999,9,C,0000,1","99999,9,9,N","020000,1,N,1","-0229,1","-0247,1","10276,1","85,1","8,1,06,1",,,,,"99999,9,09898,1","2,1,001,1,+999,9","SYN066AAXX  26001 02151 47970 /0000 11229 21247 39898 40276 52001 78587;",
"02151099999","2010-11-26T03:00:00","4","66.4833333","20.1666666","275.0","JOKKMOKK FPL, SW","FM-12","99999","V020","330,1,N,0010,1","99999,9,9,N","050000,1,N,1","-0229,1","-0247,1","10278,1","00,1","8,1,03,1",,,,,"99999,9,09899,1","2,1,002,1,+999,9","SYN066AAXX  26031 02151 47984 /3301 11229 21247 39899 40278 52002 70082;",
"02151099999","2010-11-26T06:00:00","4","66.4833333","20.1666666","275.0","JOKKMOKK FPL, SW","FM-12","99999","V020","310,1,N,0020,1","99999,9,9,N","050000,1,N,1","-0167,1","-0178,1","10269,1","24,1","8,1,06,1",,,"120,M,-0168,1","999,N,-0236,1","99999,9,09899,1","4,1,000,1,+999,9","SYN082AAXX  26061 02151 47984 /3102 11167 21178 39899 40269 54000 72487 333 11168 21236;",
"02151099999","2010-11-26T09:00:00","4","66.4833333","20.1666666","275.0","JOKKMOKK FPL, SW","FM-12","99999","V020","300,1,N,0010,1","99999,9,9,N","020000,1,N,1","-0167,1","-0178,1","10277,1","85,1","8,1,03,1","01,1,+01350,1,99,9",,,,"99999,9,09908,1","2,1,008,1,+999,9","SYN082AAXX  26091 02151 47670 /3001 11167 21178 39908 40277 52008 78587 333 81/45 88/56;",
"02151099999","2010-11-26T12:00:00","4","66.4833333","20.1666666","275.0","JOKKMOKK FPL, SW","FM-12","99999","V020","330,1,N,0020,1","01500,1,C,N","045000,1,N,1","-0142,1","-0150,1","10278,1","78,1","8,1,06,1","08,1,+01500,1,99,9",,,,"99999,9,09912,1","2,1,004,1,+999,9","SYN076AAXX  26121 02151 47783 /3302 11142 21150 39912 40278 52004 77887 333 88/50;",
"02151099999","2010-11-26T15:00:00","4","66.4833333","20.1666666","275.0","JOKKMOKK FPL, SW","FM-12","99999","V020","350,1,N,0020,1","01320,1,C,N","050000,1,N,1","-0127,1","-0135,1","10281,1","00,1","7,1,03,1","07,1,+01320,1,99,9",,,,"99999,9,09917,1","2,1,005,1,+999,9","SYN076AAXX  26151 02151 47684 /3502 11127 21135 39917 40281 52005 70072 333 87/44;",
"02151099999","2010-11-26T18:00:00","4","66.4833333","20.1666666","275.0","JOKKMOKK FPL, SW","FM-12","99999","V020","340,1,N,0030,1","00360,1,C,N","006000,1,N,1","-0125,1","-0133,1","10289,1","71,1","7,1,06,1","07,1,+00360,1,99,9",,"120,M,-0122,1","999,N,-0187,1","99999,9,09925,1","2,1,008,1,+999,9","SYN094AAXX  26181 02151 47456 /3403 11125 21133 39925 40289 52008 77172 333 11122 21187 87/12 88/17;",
"02151099999","2010-11-26T21:00:00","4","66.4833333","20.1666666","275.0","JOKKMOKK FPL, SW","FM-12","99999","V020","330,1,N,0030,1","00390,1,C,N","003300,1,N,1","-0124,1","-0133,1","10297,1","71,1","7,1,03,1","01,1,+00090,1,99,9","06,1,+00390,1,99,9",,,"99999,9,09933,1","2,1,008,1,+999,9","SYN088AAXX  26211 02151 47233 /3303 11124 21133 39933 40297 52008 77177 333 81/03 86/13 88/18;",
"02151099999","2010-11-27T03:00:00","4","66.4833333","20.1666666","275.0","JOKKMOKK FPL, SW","FM-12","99999","V020","310,1,N,0020,1","00330,1,C,N","011000,1,N,1","-0114,1","-0121,1","10302,1","71,1","8,1,03,1","08,1,+00330,1,99,9",,,,"99999,9,09939,1","2,1,001,1,+999,9","SYN076AAXX  27031 02151 47461 /3102 11114 21121 39939 40302 52001 77187 333 88/11;",
"02151099999","2010-11-27T06:00:00","4","66.4833333","20.1666666","275.0","JOKKMOKK FPL, SW","FM-12","99999","V020","310,1,N,0020,1","99999,9,9,N","050000,1,N,1","-0163,1","-0175,1","10308,1","00,1","8,1,06,1",,,"120,M,-0107,1","999,N,-0164,1","99999,9,09938,1","4,1,000,1,+999,9","SYN082AAXX  27061 02151 47984 /3102 11163 21175 39938 40308 54001 70087 333 11107 21164;",
"02151099999","2010-11-27T09:00:00","4","66.4833333","20.1666666","275.0","JOKKMOKK FPL, SW","FM-12","99999","V020","999,9,C,0000,1","99999,9,9,N","050000,1,N,1","-0171,1","-0183,1","10318,1",,,,,,,"99999,9,09946,1","2,1,009,1,+999,9","SYN060AAXX  27091 02151 45984 /0000 11171 21183 39946 40318 52009;",
"02151099999","2010-11-27T12:00:00","4","66.4833333","20.1666666","275.0","JOKKMOKK FPL, SW","FM-12","99999","V020","330,1,N,0010,1","00750,1,C,N","050000,1,N,1","-0162,1","-0171,1","10320,1",,,"04,1,+00540,1,99,9","05,1,+00750,1,99,9",,,"99999,9,09949,1","2,1,003,1,+999,9","SYN082AAXX  27121 02151 45484 /3301 11162 21171 39949 40320 52003 333 84/18 85/25 88/40;",
"02151099999","2010-11-27T15:00:00","4","66.4833333","20.1666666","275.0","JOKKMOKK FPL, SW","FM-12","99999","V020","300,1,N,0010,1","00330,1,C,N","001500,1,N,1","-0141,1","-0150,1","10326,1","71,1","8,1,03,1","09,1,+00330,1,99,9",,,,"99999,9,09958,1","2,1,008,1,+999,9","SYN076AAXX  27151 02151 47/15 /3001 11141 21150 39958 40326 52008 77187 333 89/11;",
"02151099999","2010-11-27T18:00:00","4","66.4833333","20.1666666","275.0","JOKKMOKK FPL, SW","FM-12","99999","V020","320,1,N,0020,1","00240,1,C,N","005000,1,N,1","-0125,1","-0135,1","10327,1","71,1","8,1,06,1","02,1,+00180,1,99,9","06,1,+00240,1,99,9","120,M,-0125,1","999,N,-0193,1","99999,9,09962,1","2,1,004,1,+999,9","SYN100AAXX  27181 02151 47250 /3202 11125 21135 39962 40327 52004 77187 333 11125 21193 82/06 86/08 88/10;",
"02151099999","2010-11-27T21:00:00","4","66.4833333","20.1666666","275.0","JOKKMOKK FPL, SW","FM-12","99999","V020","999,9,C,0000,1","00390,1,C,N","016000,1,N,1","-0143,1","-0151,1","10334,1","85,1","8,1,03,1","08,1,+00390,1,99,9",,,,"99999,9,09965,1","2,1,004,1,+999,9","SYN076AAXX  27211 02151 47466 /0000 11143 21151 39965 40334 52004 78587 333 88/13;",
"02151099999","2010-11-28T00:00:00","4","66.4833333","20.1666666","275.0","JOKKMOKK FPL, SW","FM-12","99999","V020","290,1,N,0030,1","99999,9,9,N","050000,1,N,1","-0114,1","-0123,1","10329,1","00,1","8,1,06,1","02,1,+00930,1,99,9",,,,"99999,9,09965,1","0,1,001,1,+999,9","SYN082AAXX  28001 02151 47584 /2903 11114 21123 39965 40329 50001 70087 333 82/31 88/50;",
"02151099999","2010-11-28T03:00:00","4","66.4833333","20.1666666","275.0","JOKKMOKK FPL, SW","FM-12","99999","V020","310,1,N,0030,1","22000,1,C,N","050000,1,N,1","-0114,1","-0124,1","10328,1",,,"02,1,+00930,1,99,9","03,1,+01290,1,99,9",,,"99999,9,09964,1","4,1,000,1,+999,9","SYN082AAXX  28031 02151 45584 /3103 11114 21124 39964 40328 54000 333 82/31 83/43 88/58;",
"02151099999","2010-11-28T06:00:00","4","66.4833333","20.1666666","275.0","JOKKMOKK FPL, SW","FM-12","99999","V020","290,1,N,0030,1","99999,9,9,N","050000,1,N,1","-0122,1","-0132,1","10333,1",,,,,"120,M,-0111,1","999,N,-0148,1","99999,9,09968,1","3,1,003,1,+999,9","SYN076AAXX  28061 02151 45984 /2903 11122 21132 39968 40333 53003 333 11111 21148;",
"02151099999","2010-11-28T09:00:00","4","66.4833333","20.1666666","275.0","JOKKMOKK FPL, SW","FM-12","99999","V020","310,1,N,0020,1","01800,1,C,N","050000,1,N,1","-0116,1","-0126,1","10339,1",,,"08,1,+01800,1,99,9",,,,"99999,9,09975,1","3,1,007,1,+999,9","SYN070AAXX  28091 02151 45884 /3102 11116 21126 39975 40339 53007 333 88/56;",
"02151099999","2010-11-28T12:00:00","4","66.4833333","20.1666666","275.0","JOKKMOKK FPL, SW","FM-12","99999","V020","310,1,N,0020,1","99999,9,9,N","050000,1,N,1","-0117,1","-0131,1","10342,1","24,1","8,1,06,1","04,1,+01500,1,99,9",,,,"99999,9,09977,1","0,1,002,1,+999,9","SYN082AAXX  28121 02151 47784 /3102 11117 21131 39977 40342 50002 72487 333 84/50 86/57;",
"02151099999","2010-11-28T15:00:00","4","66.4833333","20.1666666","275.0","JOKKMOKK FPL, SW","FM-12","99999","V020","290,1,N,0040,1","99999,9,9,N","050000,1,N,1","-0117,1","-0132,1","10341,1",,,"03,1,+00570,1,99,9",,,,"99999,9,09977,1","4,1,000,1,+999,9","SYN076AAXX  28151 02151 45484 /2904 11117 21132 39977 40341 54001 333 83/19 88/50;",
"02151099999","2010-11-28T18:00:00","4","66.4833333","20.1666666","275.0","JOKKMOKK FPL, SW","FM-12","99999","V020","300,1,N,0040,1","01290,1,C,N","008000,1,N,1","-0110,1","-0125,1","10346,1","71,1","8,1,06,1","09,1,+01290,1,99,9",,"120,M,-0110,1","999,N,-0132,1","99999,9,09982,1","2,1,005,1,+999,9","SYN088AAXX  28181 02151 47/58 /3004 11110 21125 39982 40346 52005 77187 333 11110 21132 89/43;",
"02151099999","2010-11-28T21:00:00","4","66.4833333","20.1666666","275.0","JOKKMOKK FPL, SW","FM-12","99999","V020","300,1,N,0020,1","99999,9,9,N","050000,1,N,1","-0115,1","-0123,1","10353,1","71,1","7,1,03,1","03,1,+02100,1,99,9",,,,"99999,9,09988,1","2,1,007,1,+999,9","SYN076AAXX  28211 02151 47884 /3002 11115 21123 39988 40353 52007 77177 333 83/57;",
"02151099999","2010-11-29T00:00:00","4","66.4833333","20.1666666","275.0","JOKKMOKK FPL, SW","FM-12","99999","V020","310,1,N,0020,1","99999,9,9,N","050000,1,N,1","-0148,1","-0162,1","10361,1","00,1","7,1,06,1",,,,,"99999,9,09991,1","0,1,003,1,+999,9","SYN066AAXX  29001 02151 47984 /3102 11148 21162 39991 40361 50003 70072;",
"02151099999","2010-11-29T03:00:00","4","66.4833333","20.1666666","275.0","JOKKMOKK FPL, SW","FM-12","99999","V020","320,1,N,0010,1","99999,9,9,N","050000,1,N,1","-0146,1","-0156,1","10364,1",,,,,,,"99999,9,09994,1","0,1,002,1,+999,9","SYN060AAXX  29031 02151 45984 /3201 11146 21156 39994 40364 50002;",
"02151099999","2010-11-29T06:00:00","4","66.4833333","20.1666666","275.0","JOKKMOKK FPL, SW","FM-12","99999","V020","030,1,N,0010,1","99999,9,9,N","050000,1,N,1","-0182,1","-0194,1","10367,1",,,,,"120,M,-0106,1","999,N,-0188,1","99999,9,09992,1","7,1,001,1,+999,9","SYN076AAXX  29061 02151 45984 /0301 11182 21194 39992 40367 57001 333 11106 21188;",
"02151099999","2010-11-29T09:00:00","4","66.4833333","20.1666666","275.0","JOKKMOKK FPL, SW","FM-12","99999","V020","999,9,C,0000,1","99999,9,9,N","050000,1,N,1","-0189,1","-0201,1","10371,1",,,,,,,"99999,9,09995,1","2,1,003,1,+999,9","SYN060AAXX  29091 02151 45984 /0000 11189 21201 39995 40371 52003;",
"02151099999","2010-11-29T12:00:00","4","66.4833333","20.1666666","275.0","JOKKMOKK FPL, SW","FM-12","99999","V020","999,9,C,0000,1","99999,9,9,N","045000,1,N,1","-0187,1","-0199,1","10368,1",,,,,,,"99999,9,09993,1","8,1,002,1,+999,9","SYN060AAXX  29121 02151 45983 /0000 11187 21199 39993 40368 58002;",
"02151099999","2010-11-29T15:00:00","4","66.4833333","20.1666666","275.0","JOKKMOKK FPL, SW","FM-12","99999","V020","999,9,C,0000,1","99999,9,9,N","050000,1,N,1","-0195,1","-0208,1","10355,1",,,,,,,"99999,9,09978,1","7,1,014,1,+999,9","SYN060AAXX  29151 02151 45984 /0000 11195 21208 39978 40355 57014;",
"02151099999","2010-11-29T18:00:00","4","66.4833333","20.1666666","275.0","JOKKMOKK FPL, SW","FM-12","99999","V020","280,1,N,0010,1","02100,1,C,N","050000,1,N,1","-0193,1","-0208,1","10344,1",,,"08,1,+02100,1,99,9",,"120,M,-0180,1","999,N,-0219,1","99999,9,09968,1","7,1,010,1,+999,9","SYN082AAXX  29181 02151 45884 /2801 11193 21208 39968 40344 57010 333 11180 21219 88/57;",
"02151099999","2010-11-29T21:00:00","4","66.4833333","20.1666666","275.0","JOKKMOKK FPL, SW","FM-12","99999","V020","260,1,N,0010,1","99999,9,9,N","050000,1,N,1","-0173,1","-0186,1","10330,1",,,,,,,"99999,9,09957,1","7,1,011,1,+999,9","SYN060AAXX  29211 02151 45984 /2601 11173 21186 39957 40330 57011;",
"02151099999","2010-11-30T00:00:00","4","66.4833333","20.1666666","275.0","JOKKMOKK FPL, SW","FM-12","99999","V020","280,1,N,0010,1","01350,1,C,N","050000,1,N,1","-0146,1","-0158,1","10313,1",,,"09,1,+01350,1,99,9",,,,"99999,9,09945,1","7,1,013,1,+999,9","SYN070AAXX  30001 02151 45/84 /2801 11146 21158 39945 40313 57013 333 89/45;",
"02151099999","2010-11-30T12:00:00","4","66.4833333","20.1666666","275.0","JOKKMOKK FPL, SW","FM-12","99999","V020","999,9,C,0000,1","99999,9,9,N","050000,1,N,1","-0138,1","-0142,1","10265,1",,,,,,,"99999,9,09900,1",,"SYN054AAXX  30121 02151 45984 /0000 11138 21142 39900 40265;",
"02151099999","2010-11-30T15:00:00","4","66.4833333","20.1666666","275.0","JOKKMOKK FPL, SW","FM-12","99999","V020","999,9,C,0000,1","99999,9,9,N","050000,1,N,1","-0122,1","-0127,1","10249,1",,,,,,,"99999,9,09886,1","7,1,014,1,+999,9","SYN060AAXX  30151 02151 45984 /0000 11122 21127 39886 40249 57014;",
"02151099999","2010-11-30T18:00:00","4","66.4833333","20.1666666","275.0","JOKKMOKK FPL, SW","FM-12","99999","V020","999,9,C,0000,1","99999,9,9,N","050000,1,N,1","-0118,1","-0125,1","10237,1",,,"02,1,+01410,1,99,9",,,,"99999,9,09875,1","7,1,011,1,+999,9","SYN076AAXX  30181 02151 45684 /0000 11118 21125 39875 40237 57011 333 82/47 88/56;",
"02151099999","2010-11-30T21:00:00","4","66.4833333","20.1666666","275.0","JOKKMOKK FPL, SW","FM-12","99999","V020","999,9,C,0000,1","99999,9,9,N","050000,1,N,1","-0076,1","-0078,1","10225,1",,,"03,1,+02100,1,99,9",,,,"99999,9,09870,1","8,1,006,1,+999,9","SYN076AAXX  30211 02151 45884 /0000 11076 21078 39870 40225 58006 333 83/57 87/58;",
"02151099999","2010-12-01T00:00:00","4","66.4833333","20.1666666","275.0","JOKKMOKK FPL, SW","FM-12","99999","V020","999,9,C,0000,1","03000,1,C,N","050000,1,N,1","-0073,1","-0075,1","10213,1",,,"08,1,+03000,1,99,9",,,,"99999,9,09858,1","7,1,012,1,+999,9","SYN070AAXX  01001 02151 45984 /0000 11073 21075 39858 40213 57012 333 88/60;",
"02151099999","2010-12-01T03:00:00","4","66.4833333","20.1666666","275.0","JOKKMOKK FPL, SW","FM-12","99999","V020","999,9,C,0000,1","99999,9,9,N","050000,1,N,1","-0067,1","-0069,1","10202,1",,,"01,1,+03000,1,99,9",,,,"99999,9,09849,1","7,1,010,1,+999,9","SYN070AAXX  01031 02151 45984 /0000 11067 21069 39849 40202 57010 333 81/60;",
"02151099999","2010-12-01T06:00:00","4","66.4833333","20.1666666","275.0","JOKKMOKK FPL, SW","FM-12","99999","V020","290,1,N,0020,1","99999,9,9,N","050000,1,N,1","-0030,1","-0031,1","10188,1",,,,,"120,M,-0030,1","999,N,-0120,1","99999,9,09840,1","7,1,008,1,+999,9","SYN076AAXX  01061 02151 45984 /2902 11030 21031 39840 40188 57008 333 11030 21120;",
"02151099999","2010-12-01T09:00:00","4","66.4833333","20.1666666","275.0","JOKKMOKK FPL, SW","FM-12","99999","V020","290,1,N,0020,1","99999,9,9,N","050000,1,N,1","-0038,1","-0055,1","10194,1",,,"01,1,+03000,1,99,9",,,,"99999,9,09845,1","3,1,004,1,+999,9","SYN070AAXX  01091 02151 45984 /2902 11038 21055 39845 40194 53004 333 81/60;",
"02151099999","2010-12-01T12:00:00","4","66.4833333","20.1666666","275.0","JOKKMOKK FPL, SW","FM-12","99999","V020","290,1,N,0010,1","99999,9,9,N","050000,1,N,1","-0060,1","-0077,1","10188,1",,,,,,,"99999,9,09836,1","8,1,009,1,+999,9","SYN060AAXX  01121 02151 45984 /2901 11060 21077 39836 40188 58009;",
"02151099999","2010-12-01T15:00:00","4","66.4833333","20.1666666","275.0","JOKKMOKK FPL, SW","FM-12","99999","V020","070,1,N,0010,1","99999,9,9,N","050000,1,N,1","-0094,1","-0097,1","10184,1",,,,,,,"99999,9,09827,1","7,1,008,1,+999,9","SYN060AAXX  01151 02151 45984 /0701 11094 21097 39827 40184 57008;",
"02151099999","2010-12-01T18:00:00","4","66.4833333","20.1666666","275.0","JOKKMOKK FPL, SW","FM-12","99999","V020","999,9,C,0000,1","99999,9,9,N","050000,1,N,1","-0090,1","-0095,1","10173,1",,,,,"120,M,-0021,1","999,N,-0123,1","99999,9,09817,1","7,1,010,1,+999,9","SYN076AAXX  01181 02151 45984 /0000 11090 21095 39817 40173 57010 333 11021 21123;",
"02151099999","2010-12-01T21:00:00","4","66.4833333","20.1666666","275.0","JOKKMOKK FPL, SW","FM-12","99999","V020","270,1,N,0020,1","99999,9,9,N","050000,1,N,1","-0047,1","-0063,1","10153,1",,,,,,,"99999,9,09804,1","7,1,013,1,+999,9","SYN060AAXX  01211 02151 45984 /2702 11047 21063 39804 40153 57013;",
"02151099999","2010-12-02T00:00:00","4","66.4833333","20.1666666","275.0","JOKKMOKK FPL, SW","FM-12","99999","V020","270,1,N,0040,1","99999,9,9,N","050000,1,N,1","-0023,1","-0047,1","10130,1",,,,,,,"99999,9,09785,1","8,1,020,1,+999,9","SYN060AAXX  02001 02151 45984 /2704 11023 21047 39785 40130 58020;",
"02151099999","2010-12-02T03:00:00","4","66.4833333","20.1666666","275.0","JOKKMOKK FPL, SW","FM-12","99999","V020","250,1,N,0050,1","99999,9,9,N","050000,1,N,1","-0020,1","-0045,1","10110,1",,,,,,,"99999,9,09766,1","7,1,018,1,+999,9","SYN060AAXX  02031 02151 45984 /2505 11020 21045 39766 40110 57018;",
"02151099999","2010-12-02T06:00:00","4","66.4833333","20.1666666","275.0","JOKKMOKK FPL, SW","FM-12","99999","V020","240,1,N,0040,1","99999,9,9,N","050000,1,N,1","-0028,1","-0048,1","10097,1",,,,,"120,M,-0013,1","999,N,-0106,1","99999,9,09752,1","6,1,015,1,+999,9","SYN076AAXX  02061 02151 45984 /2404 11028 21048 39752 40097 56015 333 11013 21106;",
"02151099999","2010-12-02T09:00:00","4","66.4833333","20.1666666","275.0","JOKKMOKK FPL, SW","FM-12","99999","V020","230,1,N,0010,1","99999,9,9,N","050000,1,N,1","-0024,1","-0043,1","10095,1",,,,,,,"99999,9,09751,1","8,1,001,1,+999,9","SYN060AAXX  02091 02151 45984 /2301 11024 21043 39751 40095 58001;",
"02151099999","2010-12-02T12:00:00","4","66.4833333","20.1666666","275.0","JOKKMOKK FPL, SW","FM-12","99999","V020","240,1,N,0050,1","99999,9,9,N","050000,1,N,1","-0014,1","-0034,1","10082,1",,,,,,,"99999,9,09739,1","8,1,011,1,+999,9","SYN060AAXX  02121 02151 45984 /2405 11014 21034 39739 40082 58011;",
"02151099999","2010-12-02T15:00:00","4","66.4833333","20.1666666","275.0","JOKKMOKK FPL, SW","FM-12","99999","V020","230,1,N,0030,1","99999,9,9,N","050000,1,N,1","-0022,1","-0044,1","10074,1",,,,,,,"99999,9,09731,1","7,1,008,1,+999,9","SYN060AAXX  02151 02151 45984 /2303 11022 21044 39731 40074 57008;",
"02151099999","2010-12-02T18:00:00","4","66.4833333","20.1666666","275.0","JOKKMOKK FPL, SW","FM-12","99999","V020","260,1,N,0030,1","99999,9,9,N","050000,1,N,1","-0025,1","-0049,1","10073,1",,,,,"120,M,-0010,1","999,N,-0043,1","99999,9,09729,1","7,1,002,1,+999,9","SYN076AAXX  02181 02151 45984 /2603 11025 21049 39729 40073 57002 333 11010 21043;",
"02151099999","2010-12-02T21:00:00","4","66.4833333","20.1666666","275.0","JOKKMOKK FPL, SW","FM-12","99999","V020","260,1,N,0020,1","99999,9,9,N","050000,1,N,1","-0033,1","-0057,1","10065,1",,,,,,,"99999,9,09720,1","8,1,009,1,+999,9","SYN060AAXX  02211 02151 45984 /2602 11033 21057 39720 40065 58009;",
"02151099999","2010-12-03T00:00:00","4","66.4833333","20.1666666","275.0","JOKKMOKK FPL, SW","FM-12","99999","V020","190,1,N,0030,1","99999,9,9,N","050000,1,N,1","-0040,1","-0062,1","10060,1",,,,,,,"99999,9,09715,1","8,1,005,1,+999,9","SYN060AAXX  03001 02151 45984 /1903 11040 21062 39715 40060 58005;",
"02151099999","2010-12-03T03:00:00","4","66.4833333","20.1666666","275.0","JOKKMOKK FPL, SW","FM-12","99999","V020","220,1,N,0020,1","99999,9,9,N","050000,1,N,1","-0074,1","-0082,1","10053,1",,,"01,1,+03600,1,99,9",,,,"99999,9,09703,1","8,1,012,1,+999,9","SYN070AAXX  03031 02151 45984 /2202 11074 21082 39703 40053 58012 333 81/62;",
"02151099999","2010-12-03T06:00:00","4","66.4833333","20.1666666","275.0","JOKKMOKK FPL, SW","FM-12","99999","V020","999,9,C,0000,1","03300,1,C,N","050000,1,N,1","-0112,1","-0117,1","10052,1",,,"08,1,+03300,1,99,9",,"120,M,-0022,1","999,N,-0115,1","99999,9,09698,1","7,1,005,1,+999,9","SYN082AAXX  03061 02151 45984 /0000 11112 21117 39698 40052 57005 333 11022 21115 88/61;",
"02151099999","2010-12-03T09:00:00","4","66.4833333","20.1666666","275.0","JOKKMOKK FPL, SW","FM-12","99999","V020","999,9,C,0000,1","99999,9,9,N","040000,1,N,1","-0135,1","-0140,1","10056,1","85,1","8,1,03,1",,,,,"99999,9,09698,1","5,1,000,1,+999,9","SYN066AAXX  03091 02151 47982 /0000 11135 21140 39698 40056 55000 78587;",
"02151099999","2010-12-03T12:00:00","4","66.4833333","20.1666666","275.0","JOKKMOKK FPL, SW","FM-12","99999","V020","999,9,C,0000,1","99999,9,9,N","029000,1,N,1","-0165,1","-0176,1","10057,1","00,1","8,1,06,1",,,,,"99999,9,09696,1","7,1,003,1,+999,9","SYN066AAXX  03121 02151 47979 /0000 11165 21176 39696 40057 57003 70087;",
"02151099999","2010-12-03T15:00:00","4","66.4833333","20.1666666","275.0","JOKKMOKK FPL, SW","FM-12","99999","V020","150,1,N,0010,1","99999,9,9,N","029000,1,N,1","-0173,1","-0187,1","10057,1","85,1","8,1,03,1","01,1,+05400,1,99,9",,,,"99999,9,09694,1","8,1,001,1,+999,9","SYN076AAXX  03151 02151 47979 /1501 11173 21187 39694 40057 58001 78587 333 81/68;",
"02151099999","2010-12-03T18:00:00","4","66.4833333","20.1666666","275.0","JOKKMOKK FPL, SW","FM-12","99999","V020","999,9,C,0000,1","99999,9,9,N","050000,1,N,1","-0185,1","-0198,1","10061,1","00,1","8,1,06,1",,,"120,M,-0105,1","999,N,-0190,1","99999,9,09696,1","2,1,002,1,+999,9","SYN082AAXX  03181 02151 47984 /0000 11185 21198 39696 40061 52002 70087 333 11105 21190;",
"02151099999","2010-12-03T21:00:00","4","66.4833333","20.1666666","275.0","JOKKMOKK FPL, SW","FM-12","99999","V020","130,1,N,0010,1","99999,9,9,N","029000,1,N,1","-0175,1","-0187,1","10065,1","85,1","8,1,03,1",,,,,"99999,9,09702,1","2,1,006,1,+999,9","SYN066AAXX  03211 02151 47979 /1301 11175 21187 39702 40065 52006 78587;",
"02151099999","2010-12-04T00:00:00","4","66.4833333","20.1666666","275.0","JOKKMOKK FPL, SW","FM-12","99999","V020","140,1,N,0010,1","99999,9,9,N","050000,1,N,1","-0165,1","-0177,1","10058,1","00,1","8,1,06,1",,,,,"99999,9,09696,1","7,1,006,1,+999,9","SYN066AAXX  04001 02151 47984 /1401 11165 21177 39696 40058 57006 70087;",
"02151099999","2010-12-04T03:00:00","4","66.4833333","20.1666666","275.0","JOKKMOKK FPL, SW","FM-12","99999","V020","140,1,N,0010,1","99999,9,9,N","050000,1,N,1","-0199,1","-0213,1","10050,1","24,1","8,1,03,1",,,,,"99999,9,09684,1","7,1,012,1,+999,9","SYN066AAXX  04031 02151 47984 /1401 11199 21213 39684 40050 57012 72487;",
"02151099999","2010-12-04T06:00:00","4","66.4833333","20.1666666","275.0","JOKKMOKK FPL, SW","FM-12","99999","V020","150,1,N,0010,1","99999,9,9,N","050000,1,N,1","-0213,1","-0230,1","10046,1","00,1","8,1,06,1",,,"120,M,-0145,1","999,N,-0213,1","99999,9,09678,1","7,1,006,1,+999,9","SYN082AAXX  04061 02151 47984 /1501 11213 21230 39678 40046 57006 70082 333 11145 21213;",
"02151099999","2010-12-04T09:00:00","4","66.4833333","20.1666666","275.0","JOKKMOKK FPL, SW","FM-12","99999","V020","999,9,C,0000,1","00060,1,C,N","004600,1,N,1","-0192,1","-0206,1","10034,1","71,1","7,1,03,1","06,1,+00060,1,99,9",,,,"99999,9,09670,1","8,1,008,1,+999,9","SYN082AAXX  04091 02151 47146 /0000 11192 21206 39670 40034 58008 77170 333 86/02 88/07;",
"02151099999","2010-12-04T12:00:00","4","66.4833333","20.1666666","275.0","JOKKMOKK FPL, SW","FM-12","99999","V020","999,9,C,0000,1","00450,1,C,N","050000,1,N,1","-0206,1","-0221,1","10021,1","22,1","8,1,06,1","01,1,+00390,1,99,9","05,1,+00450,1,99,9",,,"99999,9,09655,1","7,1,014,1,+999,9","SYN088AAXX  04121 02151 47484 /0000 11206 21221 39655 40021 57014 72287 333 81/13 85/15 87/20;",
"02151099999","2010-12-04T15:00:00","4","66.4833333","20.1666666","275.0","JOKKMOKK FPL, SW","FM-12","99999","V020","999,9,C,0000,1","00060,1,C,N","003200,1,N,1","-0175,1","-0187,1","10002,1","71,1","8,1,03,1","08,1,+00060,1,99,9",,,,"99999,9,09641,1","7,1,015,1,+999,9","SYN076AAXX  04151 02151 47132 /0000 11175 21187 39641 40002 57015 77187 333 88/02;",
"02151099999","2010-12-04T18:00:00","4","66.4833333","20.1666666","275.0","JOKKMOKK FPL, SW","FM-12","99999","V020","999,9,C,0000,1","00060,1,C,N","002900,1,N,1","-0172,1","-0184,1","09994,1","71,1","8,1,06,1","08,1,+00060,1,99,9",,"120,M,-0172,1","999,N,-0234,1","99999,9,09634,1","7,1,007,1,+999,9","SYN088AAXX  04181 02151 47129 /0000 11172 21184 39634 49994 57007 77187 333 11172 21234 88/02;",
"02151099999","2010-12-04T21:00:00","4","66.4833333","20.1666666","275.0","JOKKMOKK FPL, SW","FM-12","99999","V020","999,9,C,0000,1","99999,9,9,N","050000,1,N,1","-0218,1","-0236,1","09997,1","00,1","7,1,03,1",,,,,"99999,9,09630,1","8,1,004,1,+999,9","SYN066AAXX  04211 02151 47984 /0000 11218 21236 39630 49997 58004 70072;",
"02151099999","2010-12-05T00:00:00","4","66.4833333","20.1666666","275.0","JOKKMOKK FPL, SW","FM-12","99999","V020","999,9,C,0000,1","99999,9,9,N","050000,1,N,1","-0237,1","-0254,1","09990,1","00,1","7,1,06,1",,,,,"99999,9,09620,1","7,1,010,1,+999,9","SYN066AAXX  05001 02151 47984 /0000 11237 21254 39620 49990 57010 70072;",
"02151099999","2010-12-05T03:00:00","4","66.4833333","20.1666666","275.0","JOKKMOKK FPL, SW","FM-12","99999","V020","999,9,C,0000,1","99999,9,9,N","050000,1,N,1","-0263,1","-0283,1","09988,1",,,,,,,"99999,9,09615,1","7,1,005,1,+999,9","SYN060AAXX  05031 02151 45984 /0000 11263 21283 39615 49988 57005;",
"02151099999","2010-12-05T06:00:00","4","66.4833333","20.1666666","275.0","JOKKMOKK FPL, SW","FM-12","99999","V020","999,9,C,0000,1","99999,9,9,N","050000,1,N,1","-0265,1","-0286,1","09985,1",,,,,"120,M,-0168,1","999,N,-0273,1","99999,9,09612,1","5,1,003,1,+999,9","SYN076AAXX  05061 02151 45984 /0000 11265 21286 39612 49985 55003 333 11168 21273;",
"02151099999","2010-12-05T09:00:00","4","66.4833333","20.1666666","275.0","JOKKMOKK FPL, SW","FM-12","99999","V020","999,9,C,0000,1","99999,9,9,N","050000,1,N,1","-0264,1","-0285,1","09992,1",,,,,,,"99999,9,09618,1","3,1,006,1,+999,9","SYN060AAXX  05091 02151 45984 /0000 11264 21285 39618 49992 53006;",
"02151099999","2010-12-05T12:00:00","4","66.4833333","20.1666666","275.0","JOKKMOKK FPL, SW","FM-12","99999","V020","999,9,C,0000,1","00300,1,C,N","020000,1,N,1","-0252,1","-0272,1","09987,1","85,1","8,1,06,1","06,1,+00300,1,99,9",,,,"99999,9,09616,1","5,1,002,1,+999,9","SYN076AAXX  05121 02151 47470 /0000 11252 21272 39616 49987 55002 78587 333 86/10;",
"02151099999","2010-12-05T15:00:00","4","66.4833333","20.1666666","275.0","JOKKMOKK FPL, SW","FM-12","99999","V020","150,1,N,0010,1","00060,1,C,N","000500,1,N,1","-0160,1","-0167,1","09968,1","71,1","8,1,03,1","08,1,+00060,1,99,9",,,,"99999,9,09610,1","5,1,006,1,+999,9","SYN076AAXX  05151 02151 47105 /1501 11160 21167 39610 49968 55006 77187 333 88/02;",
"02151099999","2010-12-05T18:00:00","4","66.4833333","20.1666666","275.0","JOKKMOKK FPL, SW","FM-12","99999","V020","999,9,C,0000,1","00090,1,C,N","002100,1,N,1","-0151,1","-0161,1","09965,1","71,1","8,1,06,1","07,1,+00090,1,99,9",,"120,M,-0147,1","999,N,-0271,1","99999,9,09608,1","5,1,002,1,+999,9","SYN094AAXX  05181 02151 47121 /0000 11151 21161 39608 49965 55002 77187 333 11147 21271 87/03 88/06;",
"02151099999","2010-12-05T21:00:00","4","66.4833333","20.1666666","275.0","JOKKMOKK FPL, SW","FM-12","99999","V020","999,9,C,0000,1","01110,1,C,N","003400,1,N,1","-0139,1","-0148,1","09957,1","71,1","8,1,03,1","01,1,+00270,1,99,9","06,1,+01110,1,99,9",,,"99999,9,09603,1","7,1,005,1,+999,9","SYN088AAXX  05211 02151 47334 /0000 11139 21148 39603 49957 57005 77187 333 81/09 86/37 88/50;",
"02151099999","2010-12-06T00:00:00","4","66.4833333","20.1666666","275.0","JOKKMOKK FPL, SW","FM-12","99999","V020","999,9,C,0000,1","01350,1,C,N","002700,1,N,1","-0125,1","-0132,1","09946,1","71,1","8,1,06,1","09,1,+01350,1,99,9",,,,"99999,9,09594,1","7,1,009,1,+999,9","SYN076AAXX  06001 02151 47/27 /0000 11125 21132 39594 49946 57009 77187 333 89/45;",
"02151099999","2010-12-06T03:00:00","4","66.4833333","20.1666666","275.0","JOKKMOKK FPL, SW","FM-12","99999","V020","999,9,C,0000,1","00480,1,C,N","002500,1,N,1","-0121,1","-0128,1","09937,1","71,1","7,1,03,1","09,1,+00480,1,99,9",,,,"99999,9,09586,1","6,1,008,1,+999,9","SYN076AAXX  06031 02151 47/25 /0000 11121 21128 39586 49937 56008 77177 333 89/16;",
"02151099999","2010-12-06T06:00:00","4","66.4833333","20.1666666","275.0","JOKKMOKK FPL, SW","FM-12","99999","V020","999,9,C,0000,1","00360,1,C,N","045000,1,N,1","-0126,1","-0134,1","09938,1","00,1","7,1,06,1","08,1,+00360,1,99,9",,"120,M,-0119,1","999,N,-0159,1","99999,9,09586,1","0,1,000,1,+999,9","SYN088AAXX  06061 02151 47483 /0000 11126 21134 39586 49938 50000 70072 333 11119 21159 88/12;",
"02151099999","2010-12-06T09:00:00","4","66.4833333","20.1666666","275.0","JOKKMOKK FPL, SW","FM-12","99999","V020","999,9,C,0000,1","00300,1,C,N","030000,1,N,1","-0120,1","-0126,1","09942,1",,,"08,1,+00300,1,99,9",,,,"99999,9,09590,1","2,1,004,1,+999,9","SYN070AAXX  06091 02151 45480 /0000 11120 21126 39590 49942 52004 333 88/10;",
"02151099999","2010-12-06T12:00:00","4","66.4833333","20.1666666","275.0","JOKKMOKK FPL, SW","FM-12","99999","V020","999,9,C,0000,1","00300,1,C,N","035000,1,N,1","-0109,1","-0114,1","09939,1",,,"08,1,+00300,1,99,9",,,,"99999,9,09589,1","7,1,001,1,+999,9","SYN070AAXX  06121 02151 45481 /0000 11109 21114 39589 49939 57001 333 88/10;",
"02151099999","2010-12-06T15:00:00","4","66.4833333","20.1666666","275.0","JOKKMOKK FPL, SW","FM-12","99999","V020","999,9,C,0000,1","00210,1,C,N","050000,1,N,1","-0103,1","-0108,1","09933,1",,,"08,1,+00210,1,99,9",,,,"99999,9,09585,1","7,1,004,1,+999,9","SYN070AAXX  06151 02151 45384 /0000 11103 21108 39585 49933 57004 333 88/07;",
"02151099999","2010-12-06T18:00:00","4","66.4833333","20.1666666","275.0","JOKKMOKK FPL, SW","FM-12","99999","V020","999,9,C,0000,1","00240,1,C,N","045000,1,N,1","-0104,1","-0109,1","09933,1",,,"08,1,+00240,1,99,9",,"120,M,-0101,1","999,N,-0126,1","99999,9,09585,1","4,1,000,1,+999,9","SYN082AAXX  06181 02151 45383 /0000 11104 21109 39585 49933 54000 333 11101 21126 88/08;",
"02151099999","2010-12-06T21:00:00","4","66.4833333","20.1666666","275.0","JOKKMOKK FPL, SW","FM-12","99999","V020","999,9,C,0000,1","00150,1,C,N","040000,1,N,1","-0096,1","-0101,1","09933,1","71,1","7,1,03,1","08,1,+00150,1,99,9",,,,"99999,9,09585,1","4,1,000,1,+999,9","SYN076AAXX  06211 02151 47282 /0000 11096 21101 39585 49933 54000 77170 333 88/05;",
"02151099999","2010-12-07T00:00:00","4","66.4833333","20.1666666","275.0","JOKKMOKK FPL, SW","FM-12","99999","V020","250,1,N,0010,1","00180,1,C,N","020000,1,N,1","-0108,1","-0113,1","09936,1","71,1","8,1,06,1","08,1,+00180,1,99,9",,,,"99999,9,09586,1","2,1,001,1,+999,9","SYN076AAXX  07001 02151 47370 /2501 11108 21113 39586 49936 52001 77187 333 88/06;",
"02151099999","2010-12-07T03:00:00","4","66.4833333","20.1666666","275.0","JOKKMOKK FPL, SW","FM-12","99999","V020","250,1,N,0010,1","00180,1,C,N","007000,1,N,1","-0126,1","-0133,1","09939,1","71,1","7,1,03,1","08,1,+00180,1,99,9",,,,"99999,9,09587,1","2,1,001,1,+999,9","SYN076AAXX  07031 02151 47357 /2501 11126 21133 39587 49939 52001 77177 333 88/06;",
"02151099999","2010-12-07T06:00:00","4","66.4833333","20.1666666","275.0","JOKKMOKK FPL, SW","FM-12","99999","V020","999,9,C,0000,1","00060,1,C,N","002000,1,N,1","-0134,1","-0142,1","09943,1","71,1","7,1,06,1","06,1,+00060,1,99,9",,"120,M,-0093,1","999,N,-0134,1","99999,9,09590,1","3,1,003,1,+999,9","SYN094AAXX  07061 02151 47120 /0000 11134 21142 39590 49943 53003 77177 333 11093 21134 86/02 88/04;",
"02151099999","2010-12-07T09:00:00","4","66.4833333","20.1666666","275.0","JOKKMOKK FPL, SW","FM-12","99999","V020","999,9,C,0000,1","99999,9,9,N","003400,1,N,1","-0158,1","-0167,1","09951,1","71,1","7,1,03,1","04,1,+00060,1,99,9",,,,"99999,9,09595,1","2,1,005,1,+999,9","SYN082AAXX  07091 02151 47134 /0000 11158 21167 39595 49951 52005 77177 333 84/02 88/04;",
"02151099999","2010-12-07T12:00:00","4","66.4833333","20.1666666","275.0","JOKKMOKK FPL, SW","FM-12","99999","V020","999,9,C,0000,1","99999,9,9,N","005000,1,N,1","-0146,1","-0155,1","09952,1","71,1","7,1,06,1","02,1,+00060,1,99,9",,,,"99999,9,09597,1","2,1,002,1,+999,9","SYN082AAXX  07121 02151 47150 /0000 11146 21155 39597 49952 52002 77177 333 82/02 88/04;",
"02151099999","2010-12-07T15:00:00","4","66.4833333","20.1666666","275.0","JOKKMOKK FPL, SW","FM-12","99999","V020","999,9,C,0000,1","00060,1,C,N","001000,1,N,1","-0146,1","-0155,1","09954,1","71,1","7,1,03,1","08,1,+00060,1,99,9",,,,"99999,9,09599,1","2,1,001,1,+999,9","SYN076AAXX  07151 02151 47110 /0000 11146 21155 39599 49954 52001 77177 333 88/02;",
"02151099999","2010-12-07T18:00:00","4","66.4833333","20.1666666","275.0","JOKKMOKK FPL, SW","FM-12","99999","V020","999,9,C,0000,1","99999,9,9,N","013000,1,N,1","-0145,1","-0153,1","09963,1","71,1","7,1,06,1","02,1,+00060,1,99,9",,"120,M,-0134,1","999,N,-0177,1","99999,9,09608,1","3,1,009,1,+999,9","SYN094AAXX  07181 02151 47163 /0000 11145 21153 39608 49963 53009 77177 333 11134 21177 82/02 88/05;",
"02151099999","2010-12-07T21:00:00","4","66.4833333","20.1666666","275.0","JOKKMOKK FPL, SW","FM-12","99999","V020","310,1,N,0010,1","99999,9,9,N","008000,1,N,1","-0149,1","-0158,1","09969,1","71,1","7,1,03,1","02,1,+00090,1,99,9",,,,"99999,9,09613,1","2,1,005,1,+999,9","SYN082AAXX  07211 02151 47258 /3101 11149 21158 39613 49969 52005 77177 333 82/03 88/07;",
"02151099999","2010-12-08T00:00:00","4","66.4833333","20.1666666","275.0","JOKKMOKK FPL, SW","FM-12","99999","V020","340,1,N,0010,1","00150,1,C,N","035000,1,N,1","-0165,1","-0176,1","09978,1","78,1","7,1,06,1","08,1,+00150,1,99,9",,,,"99999,9,09620,1","2,1,007,1,+999,9","SYN076AAXX  08001 02151 47281 /3401 11165 21176 39620 49978 52007 77877 333 88/05;",
"02151099999","2010-12-08T03:00:00","4","66.4833333","20.1666666","275.0","JOKKMOKK FPL, SW","FM-12","99999","V020","300,1,N,0010,1","00210,1,C,N","050000,1,N,1","-0190,1","-0203,1","09991,1","24,1","8,1,03,1","08,1,+00210,1,99,9",,,,"99999,9,09629,1","3,1,009,1,+999,9","SYN076AAXX  08031 02151 47384 /3001 11190 21203 39629 49991 53009 72487 333 88/07;",
"02151099999","2010-12-08T06:00:00","4","66.4833333","20.1666666","275.0","JOKKMOKK FPL, SW","FM-12","99999","V020","290,1,N,0010,1","00150,1,C,N","050000,1,N,1","-0213,1","-0229,1","09999,1","00,1","8,1,06,1","08,1,+00150,1,99,9",,"120,M,-0143,1","999,N,-0218,1","99999,9,09633,1","2,1,004,1,+999,9","SYN088AAXX  08061 02151 47284 /2901 11213 21229 39633 49999 52004 70087 333 11143 21218 88/05;",
"02151099999","2010-12-08T09:00:00","4","66.4833333","20.1666666","275.0","JOKKMOKK FPL, SW","FM-12","99999","V020","999,9,C,0000,1","99999,9,9,N","050000,1,N,1","-0224,1","-0240,1","10016,1",,,,,,,"99999,9,09648,1","2,1,015,1,+999,9","SYN060AAXX  08091 02151 45984 /0000 11224 21240 39648 40016 52015;",
"02151099999","2010-12-08T12:00:00","4","66.4833333","20.1666666","275.0","JOKKMOKK FPL, SW","FM-12","99999","V020","999,9,C,0000,1","99999,9,9,N","050000,1,N,1","-0231,1","-0248,1","10026,1",,,,,,,"99999,9,09657,1","3,1,008,1,+999,9","SYN060AAXX  08121 02151 45984 /0000 11231 21248 39657 40026 53008;",
"02151099999","2010-12-08T15:00:00","4","66.4833333","20.1666666","275.0","JOKKMOKK FPL, SW","FM-12","99999","V020","999,9,C,0000,1","99999,9,9,N","050000,1,N,1","-0202,1","-0217,1","10031,1",,,,,,,"99999,9,09665,1","3,1,008,1,+999,9","SYN060AAXX  08151 02151 45984 /0000 11202 21217 39665 40031 53008;",
"02151099999","2010-12-08T18:00:00","4","66.4833333","20.1666666","275.0","JOKKMOKK FPL, SW","FM-12","99999","V020","999,9,C,0000,1","00210,1,C,N","004300,1,N,1","-0181,1","-0194,1","10038,1","71,1","7,1,06,1","05,1,+00210,1,99,9",,"120,M,-0181,1","999,N,-0236,1","99999,9,09675,1","2,1,010,1,+999,9","SYN088AAXX  08181 02151 47343 /0000 11181 21194 39675 40038 52010 77170 333 11181 21236 85/07;",
"02151099999","2010-12-08T21:00:00","4","66.4833333","20.1666666","275.0","JOKKMOKK FPL, SW","FM-12","99999","V020","999,9,C,0000,1","99999,9,9,N","045000,1,N,1","-0178,1","-0191,1","10054,1","78,1","7,1,03,1",,,,,"99999,9,09691,1","2,1,015,1,+999,9","SYN066AAXX  08211 02151 47983 /0000 11178 21191 39691 40054 52015 77877;",
"02151099999","2010-12-09T00:00:00","4","66.4833333","20.1666666","275.0","JOKKMOKK FPL, SW","FM-12","99999","V020","999,9,C,0000,1","00570,1,C,N","003900,1,N,1","-0152,1","-0162,1","10063,1","71,1","7,1,06,1","09,1,+00570,1,99,9",,,,"99999,9,09703,1","2,1,013,1,+999,9","SYN076AAXX  09001 02151 47/39 /0000 11152 21162 39703 40063 52013 77177 333 89/19;",
"02151099999","2010-12-09T03:00:00","4","66.4833333","20.1666666","275.0","JOKKMOKK FPL, SW","FM-12","99999","V020","999,9,C,0000,1","99999,9,9,N","050000,1,N,1","-0161,1","-0172,1","10075,1","71,1","7,1,03,1","01,1,+00180,1,99,9",,,,"99999,9,09713,1","2,1,010,1,+999,9","SYN076AAXX  09031 02151 47284 /0000 11161 21172 39713 40075 52010 77177 333 81/06;",
"02151099999","2010-12-09T06:00:00","4","66.4833333","20.1666666","275.0","JOKKMOKK FPL, SW","FM-12","99999","V020","340,1,N,0010,1","00840,1,C,N","003500,1,N,1","-0120,1","-0127,1","10090,1","71,1","7,1,06,1","09,1,+00840,1,99,9",,"120,M,-0117,1","999,N,-0181,1","99999,9,09734,1","3,1,020,1,+999,9","SYN088AAXX  09061 02151 47/35 /3401 11120 21127 39734 40090 53020 77174 333 11117 21181 89/28;",
"02151099999","2010-12-09T09:00:00","4","66.4833333","20.1666666","275.0","JOKKMOKK FPL, SW","FM-12","99999","V020","999,9,C,0000,1","00930,1,C,N","004500,1,N,1","-0108,1","-0114,1","10113,1","74,1","7,1,03,1","09,1,+00930,1,99,9",,,,"99999,9,09758,1","2,1,024,1,+999,9","SYN076AAXX  09091 02151 47/45 /0000 11108 21114 39758 40113 52024 77477 333 89/31;",
"02151099999","2010-12-09T12:00:00","4","66.4833333","20.1666666","275.0","JOKKMOKK FPL, SW","FM-12","99999","V020","999,9,C,0000,1","00540,1,C,N","002100,1,N,1","-0094,1","-0099,1","10128,1","71,1","7,1,06,1","09,1,+00540,1,99,9",,,,"99999,9,09774,1","2,1,016,1,+999,9","SYN076AAXX  09121 02151 47/21 /0000 11094 21099 39774 40128 52016 77177 333 89/18;",
"02151099999","2010-12-09T15:00:00","4","66.4833333","20.1666666","275.0","JOKKMOKK FPL, SW","FM-12","99999","V020","999,9,C,0000,1","00960,1,C,N","050000,1,N,1","-0107,1","-0112,1","10143,1","22,1","7,1,03,1","07,1,+00960,1,99,9",,,,"99999,9,09787,1","3,1,013,1,+999,9","SYN076AAXX  09151 02151 47584 /0000 11107 21112 39787 40143 53013 72272 333 87/32;",
"02151099999","2010-12-09T18:00:00","4","66.4833333","20.1666666","275.0","JOKKMOKK FPL, SW","FM-12","99999","V020","999,9,C,0000,1","99999,9,9,N","029000,1,N,1","-0149,1","-0157,1","10158,1","85,1","8,1,06,1",,,"120,M,-0091,1","999,N,-0165,1","99999,9,09795,1","2,1,009,1,+999,9","SYN082AAXX  09181 02151 47979 /0000 11149 21157 39795 40158 52009 78587 333 11091 21165;",
"02151099999","2010-12-09T21:00:00","4","66.4833333","20.1666666","275.0","JOKKMOKK FPL, SW","FM-12","99999","V020","999,9,C,0000,1","00060,1,C,N","000200,1,N,1","-0142,1","-0151,1","10157,1","85,1","8,1,03,1","09,1,+00060,1,99,9",,,,"99999,9,09795,1","0,1,000,1,+999,9","SYN076AAXX  09211 02151 47/02 /0000 11142 21151 39795 40157 50000 78587 333 89/02;",
"02151099999","2010-12-10T00:00:00","4","66.4833333","20.1666666","275.0","JOKKMOKK FPL, SW","FM-12","99999","V020","999,9,C,0000,1","99999,9,9,N","050000,1,N,1","-0193,1","-0206,1","10151,1","20,1","8,1,06,1",,,,,"99999,9,09783,1","8,1,013,1,+999,9","SYN066AAXX  10001 02151 47984 /0000 11193 21206 39783 40151 58013 72087;",
"02151099999","2010-12-10T03:00:00","4","66.4833333","20.1666666","275.0","JOKKMOKK FPL, SW","FM-12","99999","V020","999,9,C,0000,1","99999,9,9,N","050000,1,N,1","-0177,1","-0189,1","10129,1","00,1","8,1,03,1",,,,,"99999,9,09764,1","6,1,019,1,+999,9","SYN066AAXX  10031 02151 47984 /0000 11177 21189 39764 40129 56019 70087;",
"02151099999","2010-12-10T06:00:00","4","66.4833333","20.1666666","275.0","JOKKMOKK FPL, SW","FM-12","99999","V020","999,9,C,0000,1","99999,9,9,N","050000,1,N,1","-0166,1","-0177,1","10111,1","00,1","8,1,06,1",,,"120,M,-0139,1","999,N,-0209,1","99999,9,09747,1","6,1,017,1,+999,9","SYN082AAXX  10061 02151 47984 /0000 11166 21177 39747 40111 56017 70087 333 11139 21209;",
"02151099999","2010-12-10T09:00:00","4","66.4833333","20.1666666","275.0","JOKKMOKK FPL, SW","FM-12","99999","V020","999,9,C,0000,1","99999,9,9,N","050000,1,N,1","-0163,1","-0173,1","10098,1","00,1","8,1,03,1",,,,,"99999,9,09735,1","8,1,012,1,+999,9","SYN066AAXX  10091 02151 47984 /0000 11163 21173 39735 40098 58012 70087;",
"02151099999","2010-12-10T12:00:00","4","66.4833333","20.1666666","275.0","JOKKMOKK FPL, SW","FM-12","99999","V020","999,9,C,0000,1","99999,9,9,N","004000,1,N,1","-0204,1","-0218,1","10089,1","71,1","8,1,06,1",,,,,"99999,9,09721,1","8,1,014,1,+999,9","SYN066AAXX  10121 02151 47940 /0000 11204 21218 39721 40089 58014 77187;",
"02151099999","2010-12-10T15:00:00","4","66.4833333","20.1666666","275.0","JOKKMOKK FPL, SW","FM-12","99999","V020","999,9,C,0000,1","99999,9,9,N","050000,1,N,1","-0201,1","-0215,1","10072,1","24,1","8,1,03,1",,,,,"99999,9,09705,1","7,1,016,1,+999,9","SYN066AAXX  10151 02151 47984 /0000 11201 21215 39705 40072 57016 72487;",
"02151099999","2010-12-10T18:00:00","4","66.4833333","20.1666666","275.0","JOKKMOKK FPL, SW","FM-12","99999","V020","999,9,C,0000,1","99999,9,9,N","030000,1,N,1","-0213,1","-0228,1","10057,1","85,1","8,1,06,1",,,"120,M,-0161,1","999,N,-0222,1","99999,9,09689,1","7,1,016,1,+999,9","SYN082AAXX  10181 02151 47980 /0000 11213 21228 39689 40057 57016 78587 333 11161 21222;",
"02151099999","2010-12-10T21:00:00","4","66.4833333","20.1666666","275.0","JOKKMOKK FPL, SW","FM-12","99999","V020","999,9,C,0000,1","99999,9,9,N","030000,1,N,1","-0204,1","-0218,1","10041,1","85,1","8,1,03,1","03,1,+01320,1,99,9",,,,"99999,9,09675,1","7,1,014,1,+999,9","SYN076AAXX  10211 02151 47680 /0000 11204 21218 39675 40041 57014 78587 333 83/44;",
"02151099999","2010-12-11T00:00:00","4","66.4833333","20.1666666","275.0","JOKKMOKK FPL, SW","FM-12","99999","V020","999,9,C,0000,1","01500,1,C,N","050000,1,N,1","-0173,1","-0185,1","10025,1","00,1","8,1,06,1","08,1,+01500,1,99,9",,,,"99999,9,09664,1","7,1,011,1,+999,9","SYN076AAXX  11001 02151 47784 /0000 11173 21185 39664 40025 57011 70087 333 88/50;",
"02151099999","2010-12-11T03:00:00","4","66.4833333","20.1666666","275.0","JOKKMOKK FPL, SW","FM-12","99999","V020","999,9,C,0000,1","01800,1,C,N","050000,1,N,1","-0153,1","-0163,1","10017,1","00,1","8,1,03,1","08,1,+01800,1,99,9",,,,"99999,9,09659,1","7,1,005,1,+999,9","SYN076AAXX  11031 02151 47784 /0000 11153 21163 39659 40017 57005 70087 333 88/56;",
"02151099999","2010-12-11T06:00:00","4","66.4833333","20.1666666","275.0","JOKKMOKK FPL, SW","FM-12","99999","V020","999,9,C,0000,1","00960,1,C,N","045000,1,N,1","-0172,1","-0183,1","10021,1","00,1","8,1,06,1","07,1,+00960,1,99,9",,"120,M,-0150,1","999,N,-0219,1","99999,9,09660,1","2,1,002,1,+999,9","SYN088AAXX  11061 02151 47583 /0000 11172 21183 39660 40021 52002 70082 333 11150 21219 87/32;",
"02151099999","2010-12-11T09:00:00","4","66.4833333","20.1666666","275.0","JOKKMOKK FPL, SW","FM-12","99999","V020","999,9,C,0000,1","01050,1,C,N","050000,1,N,1","-0155,1","-0164,1","10025,1","77,1","8,1,03,1","08,1,+01050,1,99,9",,,,"99999,9,09666,1","2,1,006,1,+999,9","SYN076AAXX  11091 02151 47684 /0000 11155 21164 39666 40025 52006 77787 333 88/35;",
"02151099999","2010-12-11T12:00:00","4","66.4833333","20.1666666","275.0","JOKKMOKK FPL, SW","FM-12","99999","V020","999,9,C,0000,1","99999,9,9,N","050000,1,N,1","-0159,1","-0169,1","10034,1","00,1","8,1,06,1",,,,,"99999,9,09674,1","2,1,008,1,+999,9","SYN066AAXX  11121 02151 47984 /0000 11159 21169 39674 40034 52008 70087;",
"02151099999","2010-12-11T15:00:00","4","66.4833333","20.1666666","275.0","JOKKMOKK FPL, SW","FM-12","99999","V020","999,9,C,0000,1","99999,9,9,N","050000,1,N,1","-0204,1","-0218,1","10052,1",,,,,,,"99999,9,09685,1","2,1,011,1,+999,9","SYN060AAXX  11151 02151 45984 /0000 11204 21218 39685 40052 52011;",
"02151099999","2010-12-11T18:00:00","4","66.4833333","20.1666666","275.0","JOKKMOKK FPL, SW","FM-12","99999","V020","999,9,C,0000,1","99999,9,9,N","050000,1,N,1","-0209,1","-0225,1","10057,1",,,,,"120,M,-0151,1","999,N,-0215,1","99999,9,09689,1","3,1,005,1,+999,9","SYN076AAXX  11181 02151 45984 /0000 11209 21225 39689 40057 53005 333 11151 21215;",
"02151099999","2010-12-11T21:00:00","4","66.4833333","20.1666666","275.0","JOKKMOKK FPL, SW","FM-12","99999","V020","999,9,C,0000,1","99999,9,9,N","050000,1,N,1","-0187,1","-0200,1","10053,1",,,,,,,"99999,9,09689,1","0,1,000,1,+999,9","SYN060AAXX  11211 02151 45984 /0000 11187 21200 39689 40053 50000;",
"02151099999","2010-12-12T00:00:00","4","66.4833333","20.1666666","275.0","JOKKMOKK FPL, SW","FM-12","99999","V020","999,9,C,0000,1","99999,9,9,N","050000,1,N,1","-0159,1","-0170,1","10055,1",,,,,,,"99999,9,09694,1","2,1,005,1,+999,9","SYN060AAXX  12001 02151 45984 /0000 11159 21170 39694 40055 52005;",
"02151099999","2010-12-12T03:00:00","4","66.4833333","20.1666666","275.0","JOKKMOKK FPL, SW","FM-12","99999","V020","999,9,C,0000,1","99999,9,9,N","050000,1,N,1","-0162,1","-0172,1","10073,1",,,,,,,"99999,9,09711,1","3,1,017,1,+999,9","SYN060AAXX  12031 02151 45984 /0000 11162 21172 39711 40073 53017;",
"02151099999","2010-12-12T06:00:00","4","66.4833333","20.1666666","275.0","JOKKMOKK FPL, SW","FM-12","99999","V020","999,9,C,0000,1","99999,9,9,N","050000,1,N,1","-0144,1","-0153,1","10091,1",,,,,"120,M,-0116,1","999,N,-0212,1","99999,9,09731,1","3,1,020,1,+999,9","SYN076AAXX  12061 02151 45984 /0000 11144 21153 39731 40091 53020 333 11116 21212;",
"02151099999","2010-12-12T09:00:00","4","66.4833333","20.1666666","275.0","JOKKMOKK FPL, SW","FM-12","99999","V020","999,9,C,0000,1","99999,9,9,N","050000,1,N,1","-0139,1","-0147,1","10122,1",,,,,,,"99999,9,09762,1","2,1,031,1,+999,9","SYN060AAXX  12091 02151 45984 /0000 11139 21147 39762 40122 52031;",
"02151099999","2010-12-12T12:00:00","4","66.4833333","20.1666666","275.0","JOKKMOKK FPL, SW","FM-12","99999","V020","999,9,C,0000,1","99999,9,9,N","050000,1,N,1","-0142,1","-0151,1","10149,1",,,,,,,"99999,9,09787,1","2,1,025,1,+999,9","SYN060AAXX  12121 02151 45984 /0000 11142 21151 39787 40149 52025;",
"02151099999","2010-12-12T15:00:00","4","66.4833333","20.1666666","275.0","JOKKMOKK FPL, SW","FM-12","99999","V020","999,9,C,0000,1","99999,9,9,N","050000,1,N,1","-0145,1","-0154,1","10176,1","00,1","8,1,03,1",,,,,"99999,9,09813,1","3,1,026,1,+999,9","SYN066AAXX  12151 02151 47984 /0000 11145 21154 39813 40176 53026 70087;",
"02151099999","2010-12-12T18:00:00","4","66.4833333","20.1666666","275.0","JOKKMOKK FPL, SW","FM-12","99999","V020","999,9,C,0000,1","99999,9,9,N","050000,1,N,1","-0145,1","-0154,1","10202,1","00,1","7,1,06,1",,,"120,M,-0132,1","999,N,-0155,1","99999,9,09838,1","3,1,025,1,+999,9","SYN082AAXX  12181 02151 47984 /0000 11145 21154 39838 40202 53025 70072 333 11132 21155;",
"02151099999","2010-12-12T21:00:00","4","66.4833333","20.1666666","275.0","JOKKMOKK FPL, SW","FM-12","99999","V020","999,9,C,0000,1","99999,9,9,N","050000,1,N,1","-0180,1","-0193,1","10235,1",,,,,,,"99999,9,09866,1","2,1,028,1,+999,9","SYN060AAXX  12211 02151 45984 /0000 11180 21193 39866 40235 52028;",
"02151099999","2010-12-13T00:00:00","4","66.4833333","20.1666666","275.0","JOKKMOKK FPL, SW","FM-12","99999","V020","999,9,C,0000,1","99999,9,9,N","050000,1,N,1","-0182,1","-0195,1","10260,1",,,,,,,"99999,9,09889,1","2,1,024,1,+999,9","SYN060AAXX  13001 02151 45984 /0000 11182 21195 39889 40260 52024;",
"02151099999","2010-12-13T03:00:00","4","66.4833333","20.1666666","275.0","JOKKMOKK FPL, SW","FM-12","99999","V020","999,9,C,0000,1","99999,9,9,N","050000,1,N,1","-0200,1","-0215,1","10280,1",,,,,,,"99999,9,09905,1","2,1,016,1,+999,9","SYN060AAXX  13031 02151 45984 /0000 11200 21215 39905 40280 52016;",
"02151099999","2010-12-13T06:00:00","4","66.4833333","20.1666666","275.0","JOKKMOKK FPL, SW","FM-12","99999","V020","999,9,C,0000,1","99999,9,9,N","030000,1,N,1","-0234,1","-0252,1","10298,1",,,,,"120,M,-0139,1","999,N,-0233,1","99999,9,09917,1","2,1,012,1,+999,9","SYN076AAXX  13061 02151 45980 /0000 11234 21252 39917 40298 52012 333 11139 21233;",
"02151099999","2010-12-13T09:00:00","4","66.4833333","20.1666666","275.0","JOKKMOKK FPL, SW","FM-12","99999","V020","999,9,C,0000,1","99999,9,9,N","045000,1,N,1","-0231,1","-0248,1","10314,1","00,1","8,1,03,1",,,,,"99999,9,09934,1","1,1,016,1,+999,9","SYN066AAXX  13091 02151 47983 /0000 11231 21248 39934 40314 51016 70087;",
"02151099999","2010-12-13T12:00:00","4","66.4833333","20.1666666","275.0","JOKKMOKK FPL, SW","FM-12","99999","V020","999,9,C,0000,1","99999,9,9,N","040000,1,N,1","-0256,1","-0276,1","10322,1","00,1","8,1,06,1",,,,,"99999,9,09938,1","0,1,005,1,+999,9","SYN066AAXX  13121 02151 47982 /0000 11256 21276 39938 40322 50005 70087;",
"02151099999","2010-12-13T15:00:00","4","66.4833333","20.1666666","275.0","JOKKMOKK FPL, SW","FM-12","99999","V020","999,9,C,0000,1","99999,9,9,N","040000,1,N,1","-0261,1","-0282,1","10320,1",,,,,,,"99999,9,09935,1","7,1,004,1,+999,9","SYN060AAXX  13151 02151 45982 /0000 11261 21282 39935 40320 57004;",
"02151099999","2010-12-13T18:00:00","4","66.4833333","20.1666666","275.0","JOKKMOKK FPL, SW","FM-12","99999","V020","999,9,C,0000,1","99999,9,9,N","050000,1,N,1","-0284,1","-0307,1","10313,1","00,1","8,1,06,1",,,"120,M,-0214,1","999,N,-0288,1","99999,9,09925,1","8,1,009,1,+999,9","SYN082AAXX  13181 02151 47984 /0000 11284 21307 39925 40313 58009 70087 333 11214 21288;",
"02151099999","2010-12-13T21:00:00","4","66.4833333","20.1666666","275.0","JOKKMOKK FPL, SW","FM-12","99999","V020","999,9,C,0000,1","99999,9,9,N","050000,1,N,1","-0239,1","-0257,1","10300,1",,,,,,,"99999,9,09919,1","8,1,006,1,+999,9","SYN060AAXX  13211 02151 45984 /0000 11239 21257 39919 40300 58006;",
"02151099999","2010-12-14T00:00:00","4","66.4833333","20.1666666","275.0","JOKKMOKK FPL, SW","FM-12","99999","V020","999,9,C,0000,1","99999,9,9,N","050000,1,N,1","-0220,1","-0237,1","10285,1",,,"04,1,+02100,1,99,9",,,,"99999,9,09907,1","5,1,012,1,+999,9","SYN070AAXX  14001 02151 45884 /0000 11220 21237 39907 40285 55012 333 84/57;",
"02151099999","2010-12-14T03:00:00","4","66.4833333","20.1666666","275.0","JOKKMOKK FPL, SW","FM-12","99999","V020","999,9,C,0000,1","99999,9,9,N","050000,1,N,1","-0215,1","-0232,1","10282,1",,,,,,,"99999,9,09905,1","5,1,002,1,+999,9","SYN060AAXX  14031 02151 45984 /0000 11215 21232 39905 40282 55002;",
"02151099999","2010-12-14T06:00:00","4","66.4833333","20.1666666","275.0","JOKKMOKK FPL, SW","FM-12","99999","V020","999,9,C,0000,1","99999,9,9,N","050000,1,N,1","-0203,1","-0219,1","10288,1","00,1","8,1,06,1",,,"120,M,-0185,1","999,N,-0284,1","99999,9,09913,1","3,1,007,1,+999,9","SYN082AAXX  14061 02151 47984 /0000 11203 21219 39913 40288 53007 70087 333 11185 21284;",
"02151099999","2010-12-14T09:00:00","4","66.4833333","20.1666666","275.0","JOKKMOKK FPL, SW","FM-12","99999","V020","999,9,C,0000,1","01500,1,C,N","050000,1,N,1","-0197,1","-0211,1","10309,1",,,"06,1,+01500,1,99,9",,,,"99999,9,09934,1","3,1,021,1,+999,9","SYN070AAXX  14091 02151 45784 /0000 11197 21211 39934 40309 53021 333 86/50;",
"02151099999","2010-12-14T12:00:00","4","66.4833333","20.1666666","275.0","JOKKMOKK FPL, SW","FM-12","99999","V020","999,9,C,0000,1","01500,1,C,N","050000,1,N,1","-0137,1","-0145,1","10313,1",,,"08,1,+01500,1,99,9",,,,"99999,9,09947,1","3,1,013,1,+999,9","SYN070AAXX  14121 02151 45784 /0000 11137 21145 39947 40313 53013 333 88/50;",
"02151099999","2010-12-14T15:00:00","4","66.4833333","20.1666666","275.0","JOKKMOKK FPL, SW","FM-12","99999","V020","999,9,C,0000,1","01500,1,C,N","050000,1,N,1","-0118,1","-0124,1","10322,1","00,1","8,1,03,1","07,1,+01500,1,99,9",,,,"99999,9,09958,1","1,1,011,1,+999,9","SYN076AAXX  14151 02151 47784 /0000 11118 21124 39958 40322 51011 70087 333 87/50;",
"02151099999","2010-12-14T18:00:00","4","66.4833333","20.1666666","275.0","JOKKMOKK FPL, SW","FM-12","99999","V020","999,9,C,0000,1","01410,1,C,N","050000,1,N,1","-0115,1","-0121,1","10327,1","00,1","8,1,06,1","08,1,+01410,1,99,9",,"120,M,-0110,1","999,N,-0206,1","99999,9,09963,1","0,1,005,1,+999,9","SYN088AAXX  14181 02151 47684 /0000 11115 21121 39963 40327 50005 70087 333 11110 21206 88/47;",
"02151099999","2010-12-14T21:00:00","4","66.4833333","20.1666666","275.0","JOKKMOKK FPL, SW","FM-12","99999","V020","999,9,C,0000,1","99999,9,9,N","050000,1,N,1","-0137,1","-0145,1","10332,1",,,,,,,"99999,9,09964,1","0,1,001,1,+999,9","SYN060AAXX  14211 02151 45984 /0000 11137 21145 39964 40332 50001;",
"02151099999","2010-12-15T00:00:00","4","66.4833333","20.1666666","275.0","JOKKMOKK FPL, SW","FM-12","99999","V020","999,9,C,0000,1","99999,9,9,N","050000,1,N,1","-0159,1","-0168,1","10314,1",,,,,,,"99999,9,09945,1","8,1,020,1,+999,9","SYN060AAXX  15001 02151 45984 /0000 11159 21168 39945 40314 58020;",
"02151099999","2010-12-15T03:00:00","4","66.4833333","20.1666666","275.0","JOKKMOKK FPL, SW","FM-12","99999","V020","999,9,C,0000,1","99999,9,9,N","050000,1,N,1","-0196,1","-0211,1","10283,1","85,1","8,1,03,1",,,,,"99999,9,09909,1","8,1,035,1,+999,9","SYN066AAXX  15031 02151 47984 /0000 11196 21211 39909 40283 58035 78587;",
"02151099999","2010-12-15T06:00:00","4","66.4833333","20.1666666","275.0","JOKKMOKK FPL, SW","FM-12","99999","V020","999,9,C,0000,1","99999,9,9,N","040000,1,N,1","-0212,1","-0229,1","10238,1","24,1","8,1,06,1",,,"120,M,-0114,1","999,N,-0215,1","99999,9,09864,1","8,1,045,1,+999,9","SYN082AAXX  15061 02151 47982 /0000 11212 21229 39864 40238 58045 72487 333 11114 21215;",
"02151099999","2010-12-15T09:00:00","4","66.4833333","20.1666666","275.0","JOKKMOKK FPL, SW","FM-12","99999","V020","999,9,C,0000,1","99999,9,9,N","009000,1,N,1","-0170,1","-0182,1","10189,1","71,1","8,1,03,1",,,,,"99999,9,09822,1","8,1,042,1,+999,9","SYN066AAXX  15091 02151 47959 /0000 11170 21182 39822 40189 58042 77187;",
"02151099999","2010-12-15T12:00:00","4","66.4833333","20.1666666","275.0","JOKKMOKK FPL, SW","FM-12","99999","V020","999,9,C,0000,1","99999,9,9,N","050000,1,N,1","-0128,1","-0135,1","10119,1","00,1","8,1,06,1","01,1,+03600,1,99,9",,,,"99999,9,09761,1","8,1,061,1,+999,9","SYN076AAXX  15121 02151 47984 /0000 11128 21135 39761 40119 58061 70087 333 81/62;",
"02151099999","2010-12-15T15:00:00","4","66.4833333","20.1666666","275.0","JOKKMOKK FPL, SW","FM-12","99999","V020","999,9,C,0000,1","99999,9,9,N","050000,1,N,1","-0086,1","-0090,1","10048,1",,,"04,1,+03900,1,99,9",,,,"99999,9,09698,1","8,1,063,1,+999,9","SYN070AAXX  15151 02151 45984 /0000 11086 21090 39698 40048 58063 333 84/63;",
"02151099999","2010-12-15T18:00:00","4","66.4833333","20.1666666","275.0","JOKKMOKK FPL, SW","FM-12","99999","V020","999,9,C,0000,1","99999,9,9,N","050000,1,N,1","-0088,1","-0092,1","09993,1","00,1","8,1,06,1","04,1,+00480,1,99,9",,"120,M,-0066,1","999,N,-0212,1","99999,9,09644,1","8,1,053,1,+999,9","SYN094AAXX  15181 02151 47484 /0000 11088 21092 39644 49993 58053 70087 333 11066 21212 84/16 86/56;",
"02151099999","2010-12-15T21:00:00","4","66.4833333","20.1666666","275.0","JOKKMOKK FPL, SW","FM-12","99999","V020","120,1,N,0010,1","00420,1,C,N","012000,1,N,1","-0056,1","-0057,1","09937,1","71,1","8,1,03,1","08,1,+00420,1,99,9",,,,"99999,9,09594,1","7,1,050,1,+999,9","SYN076AAXX  15211 02151 47462 /1201 11056 21057 39594 49937 57050 77187 333 88/14;",
"02151099999","2010-12-16T00:00:00","4","66.4833333","20.1666666","275.0","JOKKMOKK FPL, SW","FM-12","99999","V020","999,9,C,0000,1","00120,1,C,N","019000,1,N,1","-0056,1","-0056,1","09896,1","78,1","8,1,06,1","07,1,+00120,1,99,9",,,,"99999,9,09555,1","8,1,040,1,+999,9","SYN082AAXX  16001 02151 47269 /0000 11056 21056 39555 49896 58040 77887 333 87/04 88/11;",
"02151099999","2010-12-16T03:00:00","4","66.4833333","20.1666666","275.0","JOKKMOKK FPL, SW","FM-12","99999","V020","999,9,C,0000,1","00360,1,C,N","001300,1,N,1","-0046,1","-0046,1","09871,1","71,1","7,1,03,1","09,1,+00360,1,99,9",,,,"99999,9,09532,1","8,1,023,1,+999,9","SYN076AAXX  16031 02151 47/13 /0000 11046 21046 39532 49871 58023 77177 333 89/12;",
"02151099999","2010-12-16T06:00:00","4","66.4833333","20.1666666","275.0","JOKKMOKK FPL, SW","FM-12","99999","V020","999,9,C,0000,1","00300,1,C,N","001400,1,N,1","-0046,1","-0046,1","09863,1","71,1","7,1,06,1","09,1,+00300,1,99,9",,"120,M,-0040,1","999,N,-0089,1","99999,9,09524,1","5,1,008,1,+999,9","SYN088AAXX  16061 02151 47/14 /0000 11046 21046 39524 49863 55008 77177 333 11040 21089 89/10;",
"02151099999","2010-12-16T09:00:00","4","66.4833333","20.1666666","275.0","JOKKMOKK FPL, SW","FM-12","99999","V020","130,1,N,0060,1","00360,1,C,N","001400,1,N,1","-0037,1","-0037,1","09868,1","71,1","7,1,03,1","09,1,+00360,1,99,9",,,,"99999,9,09530,1","2,1,006,1,+999,9","SYN076AAXX  16091 02151 47/14 /1306 11037 21037 39530 49868 52006 77177 333 89/12;",
"02151099999","2010-12-16T12:00:00","4","66.4833333","20.1666666","275.0","JOKKMOKK FPL, SW","FM-12","99999","V020","130,1,N,0070,1","00390,1,C,N","001500,1,N,1","-0053,1","-0053,1","09885,1","71,1","7,1,06,1","09,1,+00390,1,99,9",,,,"99999,9,09544,1","3,1,014,1,+999,9","SYN076AAXX  16121 02151 47/15 /1307 11053 21053 39544 49885 53014 77177 333 89/13;",
"02151099999","2010-12-16T15:00:00","4","66.4833333","20.1666666","275.0","JOKKMOKK FPL, SW","FM-12","99999","V020","110,1,N,0060,1","00180,1,C,N","000600,1,N,1","-0067,1","-0069,1","09915,1","72,1","7,1,03,1","09,1,+00180,1,99,9",,,,"99999,9,09571,1","2,1,027,1,+999,9","SYN076AAXX  16151 02151 47/06 /1106 11067 21069 39571 49915 52027 77277 333 89/06;",
"02151099999","2010-12-16T18:00:00","4","66.4833333","20.1666666","275.0","JOKKMOKK FPL, SW","FM-12","99999","V020","110,1,N,0070,1","00240,1,C,N","000900,1,N,1","-0079,1","-0083,1","09950,1","72,1","7,1,06,1","09,1,+00240,1,99,9",,"120,M,-0036,1","999,N,-0079,1","99999,9,09604,1","2,1,032,1,+999,9","SYN088AAXX  16181 02151 47/09 /1107 11079 21083 39604 49950 52032 77277 333 11036 21079 89/08;",
"02151099999","2010-12-16T21:00:00","4","66.4833333","20.1666666","275.0","JOKKMOKK FPL, SW","FM-12","99999","V020","110,1,N,0080,1","00240,1,C,N","004300,1,N,1","-0095,1","-0100,1","09995,1","71,1","7,1,03,1","08,1,+00240,1,99,9",,,,"99999,9,09645,1","2,1,041,1,+999,9","SYN076AAXX  16211 02151 47343 /1108 11095 21100 39645 49995 52041 77177 333 88/08;",
"02151099999","2010-12-17T00:00:00","4","66.4833333","20.1666666","275.0","JOKKMOKK FPL, SW","FM-12","99999","V020","110,1,N,0060,1","00210,1,C,N","010000,1,N,1","-0091,1","-0095,1","10036,1","77,1","7,1,06,1","08,1,+00210,1,99,9",,,,"99999,9,09686,1","3,1,041,1,+999,9","SYN076AAXX  17001 02151 47360 /1106 11091 21095 39686 40036 53041 77777 333 88/07;",
"02151099999","2010-12-17T03:00:00","4","66.4833333","20.1666666","275.0","JOKKMOKK FPL, SW","FM-12","99999","V020","120,1,N,0070,1","00240,1,C,N","009000,1,N,1","-0094,1","-0099,1","10081,1","71,1","7,1,03,1","08,1,+00240,1,99,9",,,,"99999,9,09728,1","3,1,043,1,+999,9","SYN076AAXX  17031 02151 47359 /1207 11094 21099 39728 40081 53043 77177 333 88/08;",
"02151099999","2010-12-17T06:00:00","4","66.4833333","20.1666666","275.0","JOKKMOKK FPL, SW","FM-12","99999","V020","110,1,N,0040,1","00150,1,C,N","002800,1,N,1","-0107,1","-0114,1","10128,1","71,1","7,1,06,1","01,1,+00090,1,99,9","06,1,+00150,1,99,9","120,M,-0079,1","999,N,-0107,1","99999,9,09772,1","3,1,043,1,+999,9","SYN100AAXX  17061 02151 47228 /1104 11107 21114 39772 40128 53043 77177 333 11079 21107 81/03 86/05 87/10;",
"02151099999","2010-12-17T09:00:00","4","66.4833333","20.1666666","275.0","JOKKMOKK FPL, SW","FM-12","99999","V020","100,1,N,0030,1","00480,1,C,N","001500,1,N,1","-0105,1","-0111,1","10175,1","71,1","7,1,03,1","09,1,+00480,1,99,9",,,,"99999,9,09817,1","3,1,046,1,+999,9","SYN076AAXX  17091 02151 47/15 /1003 11105 21111 39817 40175 53046 77177 333 89/16;",
"02151099999","2010-12-17T12:00:00","4","66.4833333","20.1666666","275.0","JOKKMOKK FPL, SW","FM-12","99999","V020","090,1,N,0030,1","00960,1,C,N","012000,1,N,1","-0108,1","-0116,1","10212,1","71,1","7,1,06,1","02,1,+00390,1,99,9","07,1,+00960,1,99,9",,,"99999,9,09853,1","3,1,035,1,+999,9","SYN088AAXX  17121 02151 47462 /0903 11108 21116 39853 40212 53035 77177 333 82/13 87/32 88/50;",
"02151099999","2010-12-17T15:00:00","4","66.4833333","20.1666666","275.0","JOKKMOKK FPL, SW","FM-12","99999","V020","090,1,N,0030,1","00480,1,C,N","002800,1,N,1","-0115,1","-0123,1","10253,1","71,1","8,1,03,1","09,1,+00480,1,99,9",,,,"99999,9,09891,1","3,1,039,1,+999,9","SYN076AAXX  17151 02151 47/28 /0903 11115 21123 39891 40253 53039 77187 333 89/16;",
"02151099999","2010-12-17T18:00:00","4","66.4833333","20.1666666","275.0","JOKKMOKK FPL, SW","FM-12","99999","V020","090,1,N,0030,1","99999,9,9,N","001600,1,N,1","-0118,1","-0125,1","10280,1","71,1","8,1,06,1","01,1,+00240,1,99,9","03,1,+00540,1,99,9","120,M,-0105,1","999,N,-0119,1","99999,9,09917,1","3,1,025,1,+999,9","SYN100AAXX  17181 02151 47316 /0903 11118 21125 39917 40280 53025 77187 333 11105 21119 81/08 83/18 87/25;",
"02151099999","2010-12-17T21:00:00","4","66.4833333","20.1666666","275.0","JOKKMOKK FPL, SW","FM-12","99999","V020","060,1,N,0030,1","00630,1,C,N","003600,1,N,1","-0114,1","-0121,1","10301,1","71,1","7,1,03,1","02,1,+00180,1,99,9","05,1,+00630,1,99,9",,,"99999,9,09938,1","2,1,021,1,+999,9","SYN088AAXX  17211 02151 47236 /0603 11114 21121 39938 40301 52021 77177 333 82/06 85/21 88/33;",
"02151099999","2010-12-18T00:00:00","4","66.4833333","20.1666666","275.0","JOKKMOKK FPL, SW","FM-12","99999","V020","060,1,N,0040,1","99999,9,9,N","007000,1,N,1","-0105,1","-0112,1","10316,1","71,1","7,1,06,1","03,1,+00510,1,99,9",,,,"99999,9,09953,1","2,1,015,1,+999,9","SYN082AAXX  18001 02151 47457 /0604 11105 21112 39953 40316 52015 77177 333 83/17 88/30;",
"02151099999","2010-12-18T03:00:00","4","66.4833333","20.1666666","275.0","JOKKMOKK FPL, SW","FM-12","99999","V020","060,1,N,0040,1","00810,1,C,N","006000,1,N,1","-0115,1","-0124,1","10329,1","71,1","7,1,03,1","09,1,+00810,1,99,9",,,,"99999,9,09964,1","1,1,011,1,+999,9","SYN076AAXX  18031 02151 47/56 /0604 11115 21124 39964 40329 51011 77177 333 89/27;",
"02151099999","2010-12-18T06:00:00","4","66.4833333","20.1666666","275.0","JOKKMOKK FPL, SW","FM-12","99999","V020","050,1,N,0020,1","22000,1,C,N","013000,1,N,1","-0132,1","-0142,1","10336,1","71,1","7,1,06,1","01,1,+00300,1,99,9","04,1,+00570,1,99,9","120,M,-0104,1","999,N,-0132,1","99999,9,09969,1","2,1,005,1,+999,9","SYN100AAXX  18061 02151 47463 /0502 11132 21142 39969 40336 52005 77177 333 11104 21132 81/10 84/19 88/29;",
"02151099999","2010-12-18T09:00:00","4","66.4833333","20.1666666","275.0","JOKKMOKK FPL, SW","FM-12","99999","V020","040,1,N,0030,1","99999,9,9,N","006000,1,N,1","-0137,1","-0148,1","10340,1","71,1","7,1,03,1","03,1,+00420,1,99,9",,,,"99999,9,09973,1","0,1,003,1,+999,9","SYN082AAXX  18091 02151 47456 /0403 11137 21148 39973 40340 50003 77177 333 83/14 88/27;",
"02151099999","2010-12-18T12:00:00","4","66.4833333","20.1666666","275.0","JOKKMOKK FPL, SW","FM-12","99999","V020","050,1,N,0020,1","00180,1,C,N","002800,1,N,1","-0140,1","-0150,1","10334,1","71,1","7,1,06,1","01,1,+00090,1,99,9","07,1,+00180,1,99,9",,,"99999,9,09966,1","8,1,006,1,+999,9","SYN088AAXX  18121 02151 47128 /0502 11140 21150 39966 40334 58006 77177 333 81/03 87/06 88/12;",
"02151099999","2010-12-18T15:00:00","4","66.4833333","20.1666666","275.0","JOKKMOKK FPL, SW","FM-12","99999","V020","060,1,N,0020,1","00150,1,C,N","002500,1,N,1","-0149,1","-0160,1","10339,1","71,1","7,1,03,1","02,1,+00090,1,99,9","06,1,+00150,1,99,9",,,"99999,9,09970,1","3,1,004,1,+999,9","SYN088AAXX  18151 02151 47225 /0602 11149 21160 39970 40339 53004 77177 333 82/03 86/05 88/07;",
"02151099999","2010-12-18T18:00:00","4","66.4833333","20.1666666","275.0","JOKKMOKK FPL, SW","FM-12","99999","V020","040,1,N,0010,1","00180,1,C,N","003200,1,N,1","-0153,1","-0164,1","10337,1","71,1","7,1,06,1","06,1,+00180,1,99,9","07,1,+00360,1,99,9","120,M,-0132,1","999,N,-0154,1","99999,9,09967,1","8,1,004,1,+999,9","SYN100AAXX  18181 02151 47332 /0401 11153 21164 39967 40337 58004 77177 333 11132 21154 86/06 87/12 88/35;",
"02151099999","2010-12-18T21:00:00","4","66.4833333","20.1666666","275.0","JOKKMOKK FPL, SW","FM-12","99999","V020","060,1,N,0020,1","00420,1,C,N","005000,1,N,1","-0151,1","-0161,1","10334,1","71,1","7,1,03,1","04,1,+00150,1,99,9","07,1,+00420,1,99,9",,,"99999,9,09965,1","8,1,002,1,+999,9","SYN088AAXX  18211 02151 47250 /0602 11151 21161 39965 40334 58002 77177 333 84/05 87/14 88/17;",
"02151099999","2010-12-19T00:00:00","4","66.4833333","20.1666666","275.0","JOKKMOKK FPL, SW","FM-12","99999","V020","010,1,N,0010,1","00450,1,C,N","001700,1,N,1","-0159,1","-0170,1","10325,1","71,1","7,1,06,1","02,1,+00180,1,99,9","06,1,+00450,1,99,9",,,"99999,9,09954,1","7,1,010,1,+999,9","SYN088AAXX  19001 02151 47217 /0101 11159 21170 39954 40325 57010 77177 333 82/06 86/15 88/21;",
"02151099999","2010-12-19T03:00:00","4","66.4833333","20.1666666","275.0","JOKKMOKK FPL, SW","FM-12","99999","V020","320,1,N,0010,1","99999,9,9,N","050000,1,N,1","-0212,1","-0228,1","10318,1","00,1","7,1,03,1",,,,,"99999,9,09941,1","8,1,014,1,+999,9","SYN066AAXX  19031 02151 47984 /3201 11212 21228 39941 40318 58014 70072;",
"02151099999","2010-12-19T06:00:00","4","66.4833333","20.1666666","275.0","JOKKMOKK FPL, SW","FM-12","99999","V020","300,1,N,0020,1","99999,9,9,N","045000,1,N,1","-0215,1","-0229,1","10307,1","00,1","8,1,06,1",,,"120,M,-0150,1","999,N,-0246,1","99999,9,09929,1","7,1,011,1,+999,9","SYN082AAXX  19061 02151 47983 /3002 11215 21229 39929 40307 57011 70087 333 11150 21246;",
"02151099999","2010-12-19T09:00:00","4","66.4833333","20.1666666","275.0","JOKKMOKK FPL, SW","FM-12","99999","V020","300,1,N,0010,1","99999,9,9,N","050000,1,N,1","-0244,1","-0263,1","10299,1",,,,,,,"99999,9,09917,1","8,1,013,1,+999,9","SYN060AAXX  19091 02151 45984 /3001 11244 21263 39917 40299 58013;",
"02151099999","2010-12-19T12:00:00","4","66.4833333","20.1666666","275.0","JOKKMOKK FPL, SW","FM-12","99999","V020","300,1,N,0010,1","99999,9,9,N","050000,1,N,1","-0257,1","-0277,1","10282,1","24,1","8,1,06,1",,,,,"99999,9,09899,1","8,1,017,1,+999,9","SYN066AAXX  19121 02151 47984 /3001 11257 21277 39899 40282 58017 72487;",
"02151099999","2010-12-19T15:00:00","4","66.4833333","20.1666666","275.0","JOKKMOKK FPL, SW","FM-12","99999","V020","999,9,C,0000,1","99999,9,9,N","040000,1,N,1","-0252,1","-0270,1","10268,1","00,1","8,1,03,1",,,,,"99999,9,09886,1","7,1,013,1,+999,9","SYN066AAXX  19151 02151 47982 /0000 11252 21270 39886 40268 57013 70082;",
"02151099999","2010-12-19T18:00:00","4","66.4833333","20.1666666","275.0","JOKKMOKK FPL, SW","FM-12","99999","V020","300,1,N,0020,1","99999,9,9,N","003400,1,N,1","-0204,1","-0219,1","10245,1","71,1","8,1,06,1","01,1,+00120,1,99,9",,"120,M,-0204,1","999,N,-0269,1","99999,9,09871,1","8,1,016,1,+999,9","SYN094AAXX  19181 02151 47234 /3002 11204 21219 39871 40245 58016 77187 333 11204 21269 81/04 88/18;",
"02151099999","2010-12-19T21:00:00","4","66.4833333","20.1666666","275.0","JOKKMOKK FPL, SW","FM-12","99999","V020","310,1,N,0020,1","99999,9,9,N","009000,1,N,1","-0191,1","-0204,1","10226,1","71,1","7,1,03,1","02,1,+00390,1,99,9",,,,"99999,9,09855,1","7,1,016,1,+999,9","SYN082AAXX  19211 02151 47459 /3102 11191 21204 39855 40226 57016 77177 333 82/13 88/17;",
"02151099999","2010-12-20T00:00:00","4","66.4833333","20.1666666","275.0","JOKKMOKK FPL, SW","FM-12","99999","V020","320,1,N,0030,1","99999,9,9,N","003300,1,N,1","-0188,1","-0202,1","10205,1","71,1","7,1,06,1","01,1,+00090,1,99,9",,,,"99999,9,09835,1","8,1,020,1,+999,9","SYN082AAXX  20001 02151 47133 /3203 11188 21202 39835 40205 58020 77177 333 81/03 88/15;",
"02151099999","2010-12-20T03:00:00","4","66.4833333","20.1666666","275.0","JOKKMOKK FPL, SW","FM-12","99999","V020","330,1,N,0030,1","00180,1,C,N","003600,1,N,1","-0189,1","-0203,1","10190,1","77,1","7,1,03,1","05,1,+00180,1,99,9",,,,"99999,9,09820,1","8,1,015,1,+999,9","SYN082AAXX  20031 02151 47336 /3303 11189 21203 39820 40190 58015 77777 333 85/06 88/11;",
"02151099999","2010-12-20T06:00:00","4","66.4833333","20.1666666","275.0","JOKKMOKK FPL, SW","FM-12","99999","V020","340,1,N,0030,1","00330,1,C,N","004800,1,N,1","-0190,1","-0205,1","10170,1","71,1","7,1,06,1","01,1,+00090,1,99,9","06,1,+00330,1,99,9","120,M,-0185,1","999,N,-0204,1","99999,9,09801,1","8,1,019,1,+999,9","SYN100AAXX  20061 02151 47248 /3403 11190 21205 39801 40170 58019 77177 333 11185 21204 81/03 86/11 88/15;",
"02151099999","2010-12-20T09:00:00","4","66.4833333","20.1666666","275.0","JOKKMOKK FPL, SW","FM-12","99999","V020","320,1,N,0020,1","01500,1,C,N","009000,1,N,1","-0189,1","-0203,1","10159,1","71,1","7,1,03,1","08,1,+01500,1,99,9",,,,"99999,9,09790,1","8,1,011,1,+999,9","SYN076AAXX  20091 02151 47759 /3202 11189 21203 39790 40159 58011 77177 333 88/50;",
"02151099999","2010-12-20T12:00:00","4","66.4833333","20.1666666","275.0","JOKKMOKK FPL, SW","FM-12","99999","V020","320,1,N,0030,1","00600,1,C,N","004400,1,N,1","-0190,1","-0204,1","10146,1","71,1","7,1,06,1","02,1,+00360,1,99,9","04,1,+00600,1,99,9",,,"99999,9,09778,1","8,1,012,1,+999,9","SYN088AAXX  20121 02151 47444 /3203 11190 21204 39778 40146 58012 77177 333 82/12 84/20 88/57;",
"02151099999","2010-12-20T15:00:00","4","66.4833333","20.1666666","275.0","JOKKMOKK FPL, SW","FM-12","99999","V020","320,1,N,0030,1","00390,1,C,N","005000,1,N,1","-0190,1","-0204,1","10132,1","71,1","7,1,03,1","03,1,+00150,1,99,9","07,1,+00390,1,99,9",,,"99999,9,09764,1","7,1,014,1,+999,9","SYN088AAXX  20151 02151 47250 /3203 11190 21204 39764 40132 57014 77177 333 83/05 87/13 88/44;",
"02151099999","2010-12-20T18:00:00","4","66.4833333","20.1666666","275.0","JOKKMOKK FPL, SW","FM-12","99999","V020","320,1,N,0030,1","00090,1,C,N","002000,1,N,1","-0178,1","-0191,1","10120,1","71,1","7,1,06,1","05,1,+00090,1,99,9",,"120,M,-0178,1","999,N,-0204,1","99999,9,09755,1","7,1,009,1,+999,9","SYN094AAXX  20181 02151 47220 /3203 11178 21191 39755 40120 57009 77177 333 11178 21204 85/03 88/20;",
"02151099999","2010-12-20T21:00:00","4","66.4833333","20.1666666","275.0","JOKKMOKK FPL, SW","FM-12","99999","V020","320,1,N,0030,1","00390,1,C,N","001800,1,N,1","-0168,1","-0180,1","10114,1","71,1","7,1,03,1","03,1,+00090,1,99,9","06,1,+00390,1,99,9",,,"99999,9,09750,1","5,1,005,1,+999,9","SYN088AAXX  20211 02151 47118 /3203 11168 21180 39750 40114 55005 77177 333 83/03 86/13 88/31;",
"02151099999","2010-12-21T00:00:00","4","66.4833333","20.1666666","275.0","JOKKMOKK FPL, SW","FM-12","99999","V020","320,1,N,0030,1","00060,1,C,N","002800,1,N,1","-0158,1","-0169,1","10110,1","71,1","7,1,06,1","08,1,+00060,1,99,9",,,,"99999,9,09747,1","8,1,003,1,+999,9","SYN076AAXX  21001 02151 47128 /3203 11158 21169 39747 40110 58003 77177 333 88/02;",
"02151099999","2010-12-21T03:00:00","4","66.4833333","20.1666666","275.0","JOKKMOKK FPL, SW","FM-12","99999","V020","320,1,N,0030,1","00390,1,C,N","001900,1,N,1","-0156,1","-0167,1","10105,1","71,1","7,1,03,1","01,1,+00150,1,99,9","07,1,+00390,1,99,9",,,"99999,9,09743,1","7,1,004,1,+999,9","SYN088AAXX  21031 02151 47219 /3203 11156 21167 39743 40105 57004 77177 333 81/05 87/13 88/37;",
"02151099999","2010-12-21T06:00:00","4","66.4833333","20.1666666","275.0","JOKKMOKK FPL, SW","FM-12","99999","V020","320,1,N,0030,1","00060,1,C,N","002300,1,N,1","-0155,1","-0166,1","10096,1","71,1","7,1,06,1","08,1,+00060,1,99,9",,"120,M,-0154,1","999,N,-0178,1","99999,9,09735,1","7,1,008,1,+999,9","SYN088AAXX  21061 02151 47123 /3203 11155 21166 39735 40096 57008 77177 333 11154 21178 88/02;",
"02151099999","2010-12-21T09:00:00","4","66.4833333","20.1666666","275.0","JOKKMOKK FPL, SW","FM-12","99999","V020","320,1,N,0030,1","00750,1,C,N","001000,1,N,1","-0139,1","-0148,1","10097,1","71,1","7,1,03,1","09,1,+00750,1,99,9",,,,"99999,9,09737,1","2,1,002,1,+999,9","SYN076AAXX  21091 02151 47/10 /3203 11139 21148 39737 40097 52002 77177 333 89/25;",
"02151099999","2010-12-21T12:00:00","4","66.4833333","20.1666666","275.0","JOKKMOKK FPL, SW","FM-12","99999","V020","320,1,N,0030,1","99999,9,9,N","019000,1,N,1","-0120,1","-0129,1","10094,1","71,1","7,1,06,1","01,1,+00330,1,99,9",,,,"99999,9,09737,1","4,1,000,1,+999,9","SYN082AAXX  21121 02151 47469 /3203 11120 21129 39737 40094 54000 77177 333 81/11 88/14;",
"02151099999","2010-12-21T15:00:00","4","66.4833333","20.1666666","275.0","JOKKMOKK FPL, SW","FM-12","99999","V020","320,1,N,0030,1","00720,1,C,N","002200,1,N,1","-0118,1","-0127,1","10101,1","71,1","7,1,03,1","09,1,+00720,1,99,9",,,,"99999,9,09744,1","2,1,007,1,+999,9","SYN076AAXX  21151 02151 47/22 /3203 11118 21127 39744 40101 52007 77177 333 89/24;",
"02151099999","2010-12-21T18:00:00","4","66.4833333","20.1666666","275.0","JOKKMOKK FPL, SW","FM-12","99999","V020","320,1,N,0030,1","00330,1,C,N","006000,1,N,1","-0121,1","-0131,1","10113,1","71,1","7,1,06,1","06,1,+00330,1,99,9","07,1,+00390,1,99,9","120,M,-0117,1","999,N,-0155,1","99999,9,09756,1","2,1,011,1,+999,9","SYN100AAXX  21181 02151 47456 /3203 11121 21131 39756 40113 52011 77177 333 11117 21155 86/11 87/13 88/18;",
"02151099999","2010-12-21T21:00:00","4","66.4833333","20.1666666","275.0","JOKKMOKK FPL, SW","FM-12","99999","V020","320,1,N,0030,1","00240,1,C,N","004700,1,N,1","-0127,1","-0139,1","10136,1","71,1","7,1,03,1","04,1,+00180,1,99,9","06,1,+00240,1,99,9",,,"99999,9,09777,1","3,1,022,1,+999,9","SYN088AAXX  21211 02151 47347 /3203 11127 21139 39777 40136 53022 77177 333 84/06 86/08 87/10;",
"02151099999","2010-12-22T00:00:00","4","66.4833333","20.1666666","275.0","JOKKMOKK FPL, SW","FM-12","99999","V020","320,1,N,0030,1","00330,1,C,N","004400,1,N,1","-0137,1","-0148,1","10157,1","71,1","8,1,06,1","02,1,+00150,1,99,9","05,1,+00330,1,99,9",,,"99999,9,09796,1","2,1,019,1,+999,9","SYN088AAXX  22001 02151 47244 /3203 11137 21148 39796 40157 52019 77187 333 82/05 85/11 87/28;",
"02151099999","2010-12-22T03:00:00","4","66.4833333","20.1666666","275.0","JOKKMOKK FPL, SW","FM-12","99999","V020","320,1,N,0030,1","00540,1,C,N","014000,1,N,1","-0146,1","-0160,1","10174,1","71,1","7,1,03,1","07,1,+00540,1,99,9",,,,"99999,9,09811,1","2,1,015,1,+999,9","SYN082AAXX  22031 02151 47464 /3203 11146 21160 39811 40174 52015 77177 333 87/18 88/40;",
"02151099999","2010-12-22T06:00:00","4","66.4833333","20.1666666","275.0","JOKKMOKK FPL, SW","FM-12","99999","V020","320,1,N,0030,1","00420,1,C,N","035000,1,N,1","-0192,1","-0205,1","10198,1","24,1","8,1,06,1","02,1,+00300,1,99,9","06,1,+00420,1,99,9","120,M,-0121,1","999,N,-0197,1","99999,9,09828,1","3,1,017,1,+999,9","SYN100AAXX  22061 02151 47481 /3203 11192 21205 39828 40198 53017 72487 333 11121 21197 82/10 86/14 87/16;",
"02151099999","2010-12-22T09:00:00","4","66.4833333","20.1666666","275.0","JOKKMOKK FPL, SW","FM-12","99999","V020","320,1,N,0030,1","99999,9,9,N","019000,1,N,1","-0192,1","-0206,1","10213,1","00,1","8,1,03,1",,,,,"99999,9,09842,1","2,1,014,1,+999,9","SYN066AAXX  22091 02151 47969 /3203 11192 21206 39842 40213 52014 70082;",
"02151099999","2010-12-22T12:00:00","4","66.4833333","20.1666666","275.0","JOKKMOKK FPL, SW","FM-12","99999","V020","320,1,N,0030,1","00090,1,C,N","001700,1,N,1","-0170,1","-0181,1","10215,1","71,1","8,1,06,1","07,1,+00090,1,99,9",,,,"99999,9,09848,1","0,1,006,1,+999,9","SYN082AAXX  22121 02151 47117 /3203 11170 21181 39848 40215 50006 77187 333 87/03 88/05;",
"02151099999","2010-12-22T15:00:00","4","66.4833333","20.1666666","275.0","JOKKMOKK FPL, SW","FM-12","99999","V020","320,1,N,0030,1","22000,1,C,N","001600,1,N,1","-0168,1","-0178,1","10224,1","71,1","7,1,03,1","02,1,+00090,1,99,9","03,1,+00210,1,99,9",,,"99999,9,09856,1","2,1,008,1,+999,9","SYN088AAXX  22151 02151 47116 /3203 11168 21178 39856 40224 52008 77177 333 82/03 83/07 86/15;",
"02151099999","2010-12-22T18:00:00","4","66.4833333","20.1666666","275.0","JOKKMOKK FPL, SW","FM-12","99999","V020","320,1,N,0030,1","99999,9,9,N","014000,1,N,1","-0141,1","-0150,1","10225,1","85,1","8,1,06,1","01,1,+00600,1,99,9",,"120,M,-0138,1","999,N,-0227,1","99999,9,09861,1","3,1,005,1,+999,9","SYN094AAXX  22181 02151 47564 /3203 11141 21150 39861 40225 53005 78587 333 11138 21227 81/20 88/47;",
"02151099999","2010-12-22T21:00:00","4","66.4833333","20.1666666","275.0","JOKKMOKK FPL, SW","FM-12","99999","V020","320,1,N,0030,1","00480,1,C,N","008000,1,N,1","-0112,1","-0119,1","10230,1","85,1","8,1,03,1","02,1,+00390,1,99,9","05,1,+00480,1,99,9",,,"99999,9,09870,1","3,1,009,1,+999,9","SYN088AAXX  22211 02151 47458 /3203 11112 21119 39870 40230 53009 78582 333 82/13 85/16 87/32;",
"02151099999","2010-12-23T00:00:00","4","66.4833333","20.1666666","275.0","JOKKMOKK FPL, SW","FM-12","99999","V020","320,1,N,0030,1","99999,9,9,N","013000,1,N,1","-0109,1","-0115,1","10241,1","77,1","8,1,06,1","02,1,+00510,1,99,9",,,,"99999,9,09881,1","1,1,011,1,+999,9","SYN082AAXX  23001 02151 47463 /3203 11109 21115 39881 40241 51011 77787 333 82/17 88/47;",
"02151099999","2010-12-23T03:00:00","4","66.4833333","20.1666666","275.0","JOKKMOKK FPL, SW","FM-12","99999","V020","320,1,N,0030,1","99999,9,9,N","027000,1,N,1","-0103,1","-0110,1","10243,1","24,1","8,1,03,1","01,1,+01230,1,99,9",,,,"99999,9,09884,1","2,1,003,1,+999,9","SYN082AAXX  23031 02151 47677 /3203 11103 21110 39884 40243 52003 72487 333 81/41 88/50;",
"02151099999","2010-12-23T06:00:00","4","66.4833333","20.1666666","275.0","JOKKMOKK FPL, SW","FM-12","99999","V020","320,1,N,0030,1","00810,1,C,N","004600,1,N,1","-0092,1","-0097,1","10244,1","71,1","8,1,06,1","02,1,+00600,1,99,9","04,1,+00810,1,99,9","120,M,-0092,1","999,N,-0141,1","99999,9,09886,1","2,1,002,1,+999,9","SYN100AAXX  23061 02151 47546 /3203 11092 21097 39886 40244 52002 77187 333 11092 21141 82/20 84/27 87/43;",
"02151099999","2010-12-23T09:00:00","4","66.4833333","20.1666666","275.0","JOKKMOKK FPL, SW","FM-12","99999","V020","320,1,N,0030,1","99999,9,9,N","040000,1,N,1","-0112,1","-0118,1","10258,1","00,1","7,1,03,1",,,,,"99999,9,09896,1","2,1,010,1,+999,9","SYN066AAXX  23091 02151 47982 /3203 11112 21118 39896 40258 52010 70072;",
"02151099999","2010-12-23T12:00:00","4","66.4833333","20.1666666","275.0","JOKKMOKK FPL, SW","FM-12","99999","V020","320,1,N,0030,1","99999,9,9,N","050000,1,N,1","-0151,1","-0162,1","10266,1","00,1","7,1,06,1","02,1,+00900,1,99,9",,,,"99999,9,09899,1","2,1,003,1,+999,9","SYN076AAXX  23121 02151 47584 /3203 11151 21162 39899 40266 52003 70072 333 82/30;",
"02151099999","2010-12-23T15:00:00","4","66.4833333","20.1666666","275.0","JOKKMOKK FPL, SW","FM-12","99999","V020","320,1,N,0030,1","99999,9,9,N","050000,1,N,1","-0168,1","-0180,1","10271,1",,,"02,1,+01800,1,99,9",,,,"99999,9,09901,1","3,1,002,1,+999,9","SYN070AAXX  23151 02151 45784 /3203 11168 21180 39901 40271 53002 333 82/56;",
"02151099999","2010-12-23T18:00:00","4","66.4833333","20.1666666","275.0","JOKKMOKK FPL, SW","FM-12","99999","V020","320,1,N,0030,1","99999,9,9,N","050000,1,N,1","-0203,1","-0218,1","10273,1",,,,,"120,M,-0091,1","999,N,-0205,1","99999,9,09899,1","7,1,002,1,+999,9","SYN076AAXX  23181 02151 45984 /3203 11203 21218 39899 40273 57002 333 11091 21205;",
"02151099999","2010-12-23T21:00:00","4","66.4833333","20.1666666","275.0","JOKKMOKK FPL, SW","FM-12","99999","V020","320,1,N,0030,1","99999,9,9,N","050000,1,N,1","-0200,1","-0214,1","10273,1",,,"02,1,+02400,1,99,9",,,,"99999,9,09899,1","5,1,000,1,+999,9","SYN070AAXX  23211 02151 45884 /3203 11200 21214 39899 40273 55000 333 82/58;",
"02151099999","2010-12-24T00:00:00","4","66.4833333","20.1666666","275.0","JOKKMOKK FPL, SW","FM-12","99999","V020","320,1,N,0030,1","99999,9,9,N","050000,1,N,1","-0192,1","-0206,1","10263,1",,,"03,1,+01080,1,99,9",,,,"99999,9,09891,1","7,1,008,1,+999,9","SYN076AAXX  24001 02151 45684 /3203 11192 21206 39891 40263 57008 333 83/36 86/50;",
"02151099999","2010-12-24T03:00:00","4","66.4833333","20.1666666","275.0","JOKKMOKK FPL, SW","FM-12","99999","V020","320,1,N,0030,1","99999,9,9,N","050000,1,N,1","-0191,1","-0203,1","10255,1",,,,,,,"99999,9,09882,1","7,1,008,1,+999,9","SYN060AAXX  24031 02151 45984 /3203 11191 21203 39882 40255 57008;",
"02151099999","2010-12-24T06:00:00","4","66.4833333","20.1666666","275.0","JOKKMOKK FPL, SW","FM-12","99999","V020","320,1,N,0030,1","99999,9,9,N","050000,1,N,1","-0184,1","-0197,1","10247,1",,,"01,1,+02100,1,99,9",,"120,M,-0166,1","999,N,-0217,1","99999,9,09876,1","7,1,006,1,+999,9","SYN082AAXX  24061 02151 45884 /3203 11184 21197 39876 40247 57006 333 11166 21217 81/57;",
"02151099999","2010-12-24T09:00:00","4","66.4833333","20.1666666","275.0","JOKKMOKK FPL, SW","FM-12","99999","V020","320,1,N,0030,1","01800,1,C,N","050000,1,N,1","-0170,1","-0181,1","10248,1",,,"07,1,+01800,1,99,9",,,,"99999,9,09879,1","3,1,003,1,+999,9","SYN076AAXX  24091 02151 45784 /3203 11170 21181 39879 40248 53003 333 87/56 88/59;",
"02151099999","2010-12-24T12:00:00","4","66.4833333","20.1666666","275.0","JOKKMOKK FPL, SW","FM-12","99999","V020","320,1,N,0030,1","01410,1,C,N","050000,1,N,1","-0136,1","-0144,1","10243,1",,,"08,1,+01410,1,99,9",,,,"99999,9,09879,1","0,1,000,1,+999,9","SYN070AAXX  24121 02151 45684 /3203 11136 21144 39879 40243 50000 333 88/47;",
"02151099999","2010-12-24T15:00:00","4","66.4833333","20.1666666","275.0","JOKKMOKK FPL, SW","FM-12","99999","V020","320,1,N,0030,1","01500,1,C,N","050000,1,N,1","-0106,1","-0111,1","10236,1",,,"08,1,+01500,1,99,9",,,,"99999,9,09876,1","7,1,003,1,+999,9","SYN070AAXX  24151 02151 45784 /3203 11106 21111 39876 40236 57003 333 88/50;",
"02151099999","2010-12-24T18:00:00","4","66.4833333","20.1666666","275.0","JOKKMOKK FPL, SW","FM-12","99999","V020","320,1,N,0030,1","01500,1,C,N","050000,1,N,1","-0098,1","-0107,1","10239,1","00,1","8,1,06,1","05,1,+01500,1,99,9",,"120,M,-0085,1","999,N,-0197,1","99999,9,09881,1","3,1,004,1,+999,9","SYN088AAXX  24181 02151 47784 /3203 11098 21107 39881 40239 53004 70087 333 11085 21197 85/50;",
"02151099999","2010-12-24T21:00:00","4","66.4833333","20.1666666","275.0","JOKKMOKK FPL, SW","FM-12","99999","V020","320,1,N,0030,1","99999,9,9,N","050000,1,N,1","-0131,1","-0137,1","10247,1",,,,,,,"99999,9,09883,1","2,1,003,1,+999,9","SYN060AAXX  24211 02151 45984 /3203 11131 21137 39883 40247 52003;",
"02151099999","2010-12-25T00:00:00","4","66.4833333","20.1666666","275.0","JOKKMOKK FPL, SW","FM-12","99999","V020","320,1,N,0030,1","03000,1,C,N","050000,1,N,1","-0114,1","-0120,1","10247,1",,,"08,1,+03000,1,99,9",,,,"99999,9,09886,1","2,1,002,1,+999,9","SYN070AAXX  25001 02151 45984 /3203 11114 21120 39886 40247 52002 333 88/60;",
"02151099999","2010-12-25T03:00:00","4","66.4833333","20.1666666","275.0","JOKKMOKK FPL, SW","FM-12","99999","V020","320,1,N,0030,1","99999,9,9,N","050000,1,N,1","-0111,1","-0116,1","10247,1",,,"01,1,+02400,1,99,9",,,,"99999,9,09886,1","4,1,000,1,+999,9","SYN070AAXX  25031 02151 45884 /3203 11111 21116 39886 40247 54000 333 81/58;",
"02151099999","2010-12-25T06:00:00","4","66.4833333","20.1666666","275.0","JOKKMOKK FPL, SW","FM-12","99999","V020","320,1,N,0030,1","99999,9,9,N","050000,1,N,1","-0116,1","-0121,1","10255,1",,,"01,1,+02100,1,99,9",,"120,M,-0096,1","999,N,-0134,1","99999,9,09894,1","2,1,007,1,+999,9","SYN082AAXX  25061 02151 45884 /3203 11116 21121 39894 40255 52007 333 11096 21134 81/57;",
"02151099999","2010-12-25T09:00:00","4","66.4833333","20.1666666","275.0","JOKKMOKK FPL, SW","FM-12","99999","V020","320,1,N,0030,1","02100,1,C,N","050000,1,N,1","-0113,1","-0118,1","10269,1",,,"06,1,+02100,1,99,9",,,,"99999,9,09907,1","2,1,014,1,+999,9","SYN070AAXX  25091 02151 45884 /3203 11113 21118 39907 40269 52014 333 86/57;",
"02151099999","2010-12-25T12:00:00","4","66.4833333","20.1666666","275.0","JOKKMOKK FPL, SW","FM-12","99999","V020","320,1,N,0030,1","99999,9,9,N","050000,1,N,1","-0124,1","-0129,1","10278,1",,,,,,,"99999,9,09915,1","2,1,007,1,+999,9","SYN060AAXX  25121 02151 45984 /3203 11124 21129 39915 40278 52007;",
"02151099999","2010-12-25T15:00:00","4","66.4833333","20.1666666","275.0","JOKKMOKK FPL, SW","FM-12","99999","V020","320,1,N,0030,1","99999,9,9,N","050000,1,N,1","-0116,1","-0120,1","10281,1",,,"01,1,+01440,1,99,9",,,,"99999,9,09919,1","2,1,004,1,+999,9","SYN076AAXX  25151 02151 45684 /3203 11116 21120 39919 40281 52004 333 81/48 88/58;",
"02151099999","2010-12-25T18:00:00","4","66.4833333","20.1666666","275.0","JOKKMOKK FPL, SW","FM-12","99999","V020","320,1,N,0030,1","01320,1,C,N","050000,1,N,1","-0101,1","-0105,1","10283,1",,,"08,1,+01320,1,99,9",,"120,M,-0101,1","999,N,-0146,1","99999,9,09922,1","1,1,003,1,+999,9","SYN082AAXX  25181 02151 45684 /3203 11101 21105 39922 40283 51003 333 11101 21146 88/44;",
"02151099999","2010-12-25T21:00:00","4","66.4833333","20.1666666","275.0","JOKKMOKK FPL, SW","FM-12","99999","V020","320,1,N,0030,1","01320,1,C,N","050000,1,N,1","-0092,1","-0096,1","10289,1",,,"08,1,+01320,1,99,9",,,,"99999,9,09929,1","2,1,007,1,+999,9","SYN070AAXX  25211 02151 45684 /3203 11092 21096 39929 40289 52007 333 88/44;",
"02151099999","2010-12-26T00:00:00","4","66.4833333","20.1666666","275.0","JOKKMOKK FPL, SW","FM-12","99999","V020","320,1,N,0030,1","01170,1,C,N","050000,1,N,1","-0078,1","-0081,1","10288,1",,,"08,1,+01170,1,99,9",,,,"99999,9,09931,1","2,1,002,1,+999,9","SYN070AAXX  26001 02151 45684 /3203 11078 21081 39931 40288 52002 333 88/39;",
"02151099999","2010-12-26T03:00:00","4","66.4833333","20.1666666","275.0","JOKKMOKK FPL, SW","FM-12","99999","V020","320,1,N,0030,1","01230,1,C,N","050000,1,N,1","-0075,1","-0081,1","10285,1","00,1","8,1,03,1","08,1,+01230,1,99,9",,,,"99999,9,09928,1","7,1,003,1,+999,9","SYN076AAXX  26031 02151 47684 /3203 11075 21081 39928 40285 57003 70087 333 88/41;",
"02151099999","2010-12-26T06:00:00","4","66.4833333","20.1666666","275.0","JOKKMOKK FPL, SW","FM-12","99999","V020","320,1,N,0030,1","22000,1,C,N","040000,1,N,1","-0078,1","-0082,1","10286,1","00,1","8,1,06,1","01,1,+00300,1,99,9","04,1,+00780,1,99,9","120,M,-0073,1","999,N,-0102,1","99999,9,09928,1","4,1,000,1,+999,9","SYN100AAXX  26061 02151 47482 /3203 11078 21082 39928 40286 54000 70087 333 11073 21102 81/10 84/26 88/37;",
"02151099999","2010-12-26T09:00:00","4","66.4833333","20.1666666","275.0","JOKKMOKK FPL, SW","FM-12","99999","V020","320,1,N,0030,1","00420,1,C,N","050000,1,N,1","-0076,1","-0081,1","10290,1","00,1","8,1,03,1","08,1,+00420,1,99,9",,,,"99999,9,09932,1","2,1,004,1,+999,9","SYN076AAXX  26091 02151 47484 /3203 11076 21081 39932 40290 52004 70087 333 88/14;",
"02151099999","2010-12-26T12:00:00","4","66.4833333","20.1666666","275.0","JOKKMOKK FPL, SW","FM-12","99999","V020","320,1,N,0030,1","00270,1,C,N","050000,1,N,1","-0076,1","-0080,1","10290,1","00,1","8,1,06,1","08,1,+00270,1,99,9",,,,"99999,9,09932,1","0,1,000,1,+999,9","SYN076AAXX  26121 02151 47384 /3203 11076 21080 39932 40290 50000 70087 333 88/09;",
"02151099999","2010-12-26T15:00:00","4","66.4833333","20.1666666","275.0","JOKKMOKK FPL, SW","FM-12","99999","V020","320,1,N,0030,1","00330,1,C,N","050000,1,N,1","-0076,1","-0080,1","10289,1",,,"03,1,+00210,1,99,9","05,1,+00330,1,99,9",,,"99999,9,09931,1","7,1,001,1,+999,9","SYN082AAXX  26151 02151 45384 /3203 11076 21080 39931 40289 57001 333 83/07 85/11 88/22;",
"02151099999","2010-12-26T18:00:00","4","66.4833333","20.1666666","275.0","JOKKMOKK FPL, SW","FM-12","99999","V020","320,1,N,0030,1","01200,1,C,N","050000,1,N,1","-0081,1","-0084,1","10292,1",,,"08,1,+01200,1,99,9",,"120,M,-0070,1","999,N,-0082,1","99999,9,09933,1","2,1,002,1,+999,9","SYN082AAXX  26181 02151 45684 /3203 11081 21084 39933 40292 52002 333 11070 21082 88/40;",
"02151099999","2010-12-26T21:00:00","4","66.4833333","20.1666666","275.0","JOKKMOKK FPL, SW","FM-12","99999","V020","320,1,N,0030,1","99999,9,9,N","050000,1,N,1","-0091,1","-0095,1","10294,1",,,,,,,"99999,9,09934,1","4,1,000,1,+999,9","SYN060AAXX  26211 02151 45984 /3203 11091 21095 39934 40294 54001;",
"02151099999","2010-12-27T00:00:00","4","66.4833333","20.1666666","275.0","JOKKMOKK FPL, SW","FM-12","99999","V020","320,1,N,0030,1","99999,9,9,N","050000,1,N,1","-0102,1","-0106,1","10292,1",,,"04,1,+02400,1,99,9",,,,"99999,9,09931,1","7,1,003,1,+999,9","SYN070AAXX  27001 02151 45984 /3203 11102 21106 39931 40292 57003 333 84/58;",
"02151099999","2010-12-27T03:00:00","4","66.4833333","20.1666666","275.0","JOKKMOKK FPL, SW","FM-12","99999","V020","320,1,N,0030,1","99999,9,9,N","050000,1,N,1","-0108,1","-0114,1","10293,1",,,"02,1,+02400,1,99,9",,,,"99999,9,09931,1","4,1,000,1,+999,9","SYN076AAXX  27031 02151 45884 /3203 11108 21114 39931 40293 54000 333 82/58 86/61;",
"02151099999","2010-12-27T06:00:00","4","66.4833333","20.1666666","275.0","JOKKMOKK FPL, SW","FM-12","99999","V020","320,1,N,0030,1","99999,9,9,N","050000,1,N,1","-0109,1","-0114,1","10296,1",,,,,"120,M,-0081,1","999,N,-0119,1","99999,9,09934,1","2,1,002,1,+999,9","SYN076AAXX  27061 02151 45984 /3203 11109 21114 39934 40296 52002 333 11081 21119;",
"02151099999","2010-12-27T09:00:00","4","66.4833333","20.1666666","275.0","JOKKMOKK FPL, SW","FM-12","99999","V020","320,1,N,0030,1","99999,9,9,N","050000,1,N,1","-0114,1","-0120,1","10300,1",,,,,,,"99999,9,09937,1","2,1,003,1,+999,9","SYN060AAXX  27091 02151 45984 /3203 11114 21120 39937 40300 52003;",
"02151099999","2010-12-27T12:00:00","4","66.4833333","20.1666666","275.0","JOKKMOKK FPL, SW","FM-12","99999","V020","320,1,N,0030,1","99999,9,9,N","050000,1,N,1","-0146,1","-0155,1","10316,1","22,1","8,1,06,1",,,,,"99999,9,09948,1","3,1,011,1,+999,9","SYN066AAXX  27121 02151 47984 /3203 11146 21155 39948 40316 53011 72287;",
"02151099999","2010-12-27T15:00:00","4","66.4833333","20.1666666","275.0","JOKKMOKK FPL, SW","FM-12","99999","V020","320,1,N,0030,1","99999,9,9,N","050000,1,N,1","-0173,1","-0183,1","10324,1","00,1","8,1,03,1",,,,,"99999,9,09952,1","3,1,005,1,+999,9","SYN066AAXX  27151 02151 47984 /3203 11173 21183 39952 40324 53005 70087;",
"02151099999","2010-12-27T18:00:00","4","66.4833333","20.1666666","275.0","JOKKMOKK FPL, SW","FM-12","99999","V020","320,1,N,0030,1","99999,9,9,N","050000,1,N,1","-0188,1","-0201,1","10339,1","00,1","8,1,06,1",,,"120,M,-0105,1","999,N,-0190,1","99999,9,09964,1","1,1,012,1,+999,9","SYN082AAXX  27181 02151 47984 /3203 11188 21201 39964 40339 51012 70087 333 11105 21190;",
"02151099999","2010-12-27T21:00:00","4","66.4833333","20.1666666","275.0","JOKKMOKK FPL, SW","FM-12","99999","V020","320,1,N,0030,1","99999,9,9,N","050000,1,N,1","-0196,1","-0209,1","10347,1","00,1","8,1,03,1",,,,,"99999,9,09971,1","2,1,006,1,+999,9","SYN066AAXX  27211 02151 47984 /3203 11196 21209 39971 40347 52006 70087;",
"02151099999","2010-12-28T00:00:00","4","66.4833333","20.1666666","275.0","JOKKMOKK FPL, SW","FM-12","99999","V020","320,1,N,0030,1","99999,9,9,N","050000,1,N,1","-0207,1","-0220,1","10353,1","00,1","8,1,06,1",,,,,"99999,9,09975,1","0,1,004,1,+999,9","SYN066AAXX  28001 02151 47984 /3203 11207 21220 39975 40353 50004 70087;",
"02151099999","2010-12-28T03:00:00","4","66.4833333","20.1666666","275.0","JOKKMOKK FPL, SW","FM-12","99999","V020","320,1,N,0030,1","99999,9,9,N","050000,1,N,1","-0218,1","-0234,1","10359,1","00,1","8,1,03,1",,,,,"99999,9,09979,1","0,1,004,1,+999,9","SYN066AAXX  28031 02151 47984 /3203 11218 21234 39979 40359 50004 70087;",
"02151099999","2010-12-28T06:00:00","4","66.4833333","20.1666666","275.0","JOKKMOKK FPL, SW","FM-12","99999","V020","320,1,N,0030,1","99999,9,9,N","050000,1,N,1","-0225,1","-0241,1","10360,1","00,1","8,1,06,1",,,"120,M,-0180,1","999,N,-0229,1","99999,9,09979,1","5,1,001,1,+999,9","SYN082AAXX  28061 02151 47984 /3203 11225 21241 39979 40360 55001 70080 333 11180 21229;",
"02151099999","2010-12-28T09:00:00","4","66.4833333","20.1666666","275.0","JOKKMOKK FPL, SW","FM-12","99999","V020","320,1,N,0030,1","99999,9,9,N","050000,1,N,1","-0241,1","-0260,1","10368,1",,,,,,,"99999,9,09984,1","2,1,005,1,+999,9","SYN060AAXX  28091 02151 45984 /3203 11241 21260 39984 40368 52005;",
"02151099999","2010-12-28T12:00:00","4","66.4833333","20.1666666","275.0","JOKKMOKK FPL, SW","FM-12","99999","V020","320,1,N,0030,1","99999,9,9,N","040000,1,N,1","-0246,1","-0266,1","10371,1",,,,,,,"99999,9,09987,1","2,1,002,1,+999,9","SYN060AAXX  28121 02151 45982 /3203 11246 21266 39987 40371 52002;",
"02151099999","2010-12-28T15:00:00","4","66.4833333","20.1666666","275.0","JOKKMOKK FPL, SW","FM-12","99999","V020","320,1,N,0030,1","99999,9,9,N","050000,1,N,1","-0261,1","-0282,1","10370,1","24,1","8,1,03,1",,,,,"99999,9,09983,1","5,1,004,1,+999,9","SYN066AAXX  28151 02151 47984 /3203 11261 21282 39983 40370 55004 72487;",
"02151099999","2010-12-28T18:00:00","4","66.4833333","20.1666666","275.0","JOKKMOKK FPL, SW","FM-12","99999","V020","320,1,N,0030,1","99999,9,9,N","050000,1,N,1","-0275,1","-0297,1","10372,1","00,1","8,1,06,1",,,"120,M,-0224,1","999,N,-0288,1","99999,9,09983,1","4,1,000,1,+999,9","SYN082AAXX  28181 02151 47984 /3203 11275 21297 39983 40372 54000 70087 333 11224 21288;",
"02151099999","2010-12-28T21:00:00","4","66.4833333","20.1666666","275.0","JOKKMOKK FPL, SW","FM-12","99999","V020","320,1,N,0030,1","99999,9,9,N","050000,1,N,1","-0291,1","-0315,1","10377,1",,,,,,,"99999,9,09985,1","2,1,003,1,+999,9","SYN060AAXX  28211 02151 45984 /3203 11291 21315 39985 40377 52003;",
"02151099999","2010-12-29T00:00:00","4","66.4833333","20.1666666","275.0","JOKKMOKK FPL, SW","FM-12","99999","V020","320,1,N,0030,1","99999,9,9,N","050000,1,N,1","-0295,1","-0319,1","10371,1",,,,,,,"99999,9,09979,1","7,1,006,1,+999,9","SYN060AAXX  29001 02151 45984 /3203 11295 21319 39979 40371 57006;",
"02151099999","2010-12-29T03:00:00","4","66.4833333","20.1666666","275.0","JOKKMOKK FPL, SW","FM-12","99999","V020","320,1,N,0030,1","99999,9,9,N","050000,1,N,1","-0299,1","-0324,1","10356,1",,,,,,,"99999,9,09963,1","7,1,015,1,+999,9","SYN060AAXX  29031 02151 45984 /3203 11299 21324 39963 40356 57015;",
"02151099999","2010-12-29T06:00:00","4","66.4833333","20.1666666","275.0","JOKKMOKK FPL, SW","FM-12","99999","V020","320,1,N,0030,1","99999,9,9,N","026000,1,N,1","-0295,1","-0318,1","10345,1",,,,,"120,M,-0274,1","999,N,-0309,1","99999,9,09953,1","7,1,010,1,+999,9","SYN076AAXX  29061 02151 45976 /3203 11295 21318 39953 40345 57010 333 11274 21309;",
"02151099999","2010-12-29T09:00:00","4","66.4833333","20.1666666","275.0","JOKKMOKK FPL, SW","FM-12","99999","V020","320,1,N,0030,1","99999,9,9,N","050000,1,N,1","-0301,1","-0325,1","10335,1",,,,,,,"99999,9,09943,1","8,1,011,1,+999,9","SYN060AAXX  29091 02151 45984 /3203 11301 21325 39943 40335 58011;",
"02151099999","2010-12-29T12:00:00","4","66.4833333","20.1666666","275.0","JOKKMOKK FPL, SW","FM-12","99999","V020","320,1,N,0030,1","99999,9,9,N","050000,1,N,1","-0308,1","-0332,1","10317,1",,,,,,,"99999,9,09924,1","7,1,018,1,+999,9","SYN060AAXX  29121 02151 45984 /3203 11308 21332 39924 40317 57018;",
"02151099999","2010-12-29T15:00:00","4","66.4833333","20.1666666","275.0","JOKKMOKK FPL, SW","FM-12","99999","V020","320,1,N,0030,1","00870,1,C,N","013000,1,N,1","-0258,1","-0278,1","10281,1","78,1","7,1,03,1","08,1,+00870,1,99,9",,,,"99999,9,09898,1","6,1,027,1,+999,9","SYN076AAXX  29151 02151 47563 /3203 11258 21278 39898 40281 56027 77870 333 88/29;",
"02151099999","2010-12-29T18:00:00","4","66.4833333","20.1666666","275.0","JOKKMOKK FPL, SW","FM-12","99999","V020","320,1,N,0030,1","00480,1,C,N","050000,1,N,1","-0218,1","-0234,1","10251,1","00,1","8,1,06,1","08,1,+00480,1,99,9",,"120,M,-0218,1","999,N,-0318,1","99999,9,09875,1","8,1,022,1,+999,9","SYN088AAXX  29181 02151 47484 /3203 11218 21234 39875 40251 58022 70087 333 11218 21318 88/16;",
"02151099999","2010-12-29T21:00:00","4","66.4833333","20.1666666","275.0","JOKKMOKK FPL, SW","FM-12","99999","V020","320,1,N,0030,1","00330,1,C,N","030000,1,N,1","-0204,1","-0219,1","10228,1","71,1","7,1,03,1","08,1,+00330,1,99,9",,,,"99999,9,09855,1","8,1,021,1,+999,9","SYN076AAXX  29211 02151 47480 /3203 11204 21219 39855 40228 58021 77170 333 88/11;",
"02151099999","2010-12-30T00:00:00","4","66.4833333","20.1666666","275.0","JOKKMOKK FPL, SW","FM-12","99999","V020","320,1,N,0030,1","00150,1,C,N","007000,1,N,1","-0175,1","-0187,1","10186,1","71,1","7,1,06,1","01,1,+00120,1,99,9","05,1,+00150,1,99,9",,,"99999,9,09819,1","8,1,037,1,+999,9","SYN088AAXX  30001 02151 47257 /3203 11175 21187 39819 40186 58037 77170 333 81/04 85/05 88/10;",
"02151099999","2010-12-30T03:00:00","4","66.4833333","20.1666666","275.0","JOKKMOKK FPL, SW","FM-12","99999","V020","320,1,N,0030,1","00240,1,C,N","001300,1,N,1","-0162,1","-0173,1","10147,1","71,1","7,1,03,1","09,1,+00240,1,99,9",,,,"99999,9,09783,1","8,1,036,1,+999,9","SYN076AAXX  30031 02151 47/13 /3203 11162 21173 39783 40147 58036 77177 333 89/08;",
"02151099999","2010-12-30T06:00:00","4","66.4833333","20.1666666","275.0","JOKKMOKK FPL, SW","FM-12","99999","V020","320,1,N,0030,1","00240,1,C,N","005000,1,N,1","-0148,1","-0157,1","10113,1","71,1","7,1,06,1","09,1,+00240,1,99,9",,"120,M,-0147,1","999,N,-0218,1","99999,9,09752,1","8,1,030,1,+999,9","SYN088AAXX  30061 02151 47/50 /3203 11148 21157 39752 40113 58030 77177 333 11147 21218 89/08;",
"02151099999","2010-12-30T09:00:00","4","66.4833333","20.1666666","275.0","JOKKMOKK FPL, SW","FM-12","99999","V020","320,1,N,0030,1","00060,1,C,N","007000,1,N,1","-0139,1","-0147,1","10091,1","71,1","7,1,03,1","07,1,+00060,1,99,9",,,,"99999,9,09732,1","8,1,021,1,+999,9","SYN082AAXX  30091 02151 47157 /3203 11139 21147 39732 40091 58021 77177 333 87/02 88/56;",
"02151099999","2010-12-30T12:00:00","4","66.4833333","20.1666666","275.0","JOKKMOKK FPL, SW","FM-12","99999","V020","320,1,N,0030,1","99999,9,9,N","018000,1,N,1","-0157,1","-0167,1","10067,1","85,1","8,1,06,1","01,1,+00030,1,99,9",,,,"99999,9,09706,1","6,1,025,1,+999,9","SYN076AAXX  30121 02151 47068 /3203 11157 21167 39706 40067 56025 78587 333 81/01;",
"02151099999","2010-12-30T15:00:00","4","66.4833333","20.1666666","275.0","JOKKMOKK FPL, SW","FM-12","99999","V020","320,1,N,0030,1","99999,9,9,N","045000,1,N,1","-0204,1","-0218,1","10053,1","21,1","8,1,03,1",,,,,"99999,9,09686,1","6,1,020,1,+999,9","SYN066AAXX  30151 02151 47983 /3203 11204 21218 39686 40053 56020 72187;",
"02151099999","2010-12-30T18:00:00","4","66.4833333","20.1666666","275.0","JOKKMOKK FPL, SW","FM-12","99999","V020","320,1,N,0030,1","99999,9,9,N","045000,1,N,1","-0225,1","-0241,1","10045,1","00,1","8,1,06,1",,,"120,M,-0137,1","999,N,-0227,1","99999,9,09675,1","7,1,011,1,+999,9","SYN082AAXX  30181 02151 47983 /3203 11225 21241 39675 40045 57011 70087 333 11137 21227;",
"02151099999","2010-12-30T21:00:00","4","66.4833333","20.1666666","275.0","JOKKMOKK FPL, SW","FM-12","99999","V020","320,1,N,0030,1","99999,9,9,N","025000,1,N,1","-0243,1","-0261,1","10032,1",,,,,,,"99999,9,09661,1","7,1,014,1,+999,9","SYN060AAXX  30211 02151 45975 /3203 11243 21261 39661 40032 57014;",
"02151099999","2010-12-31T00:00:00","4","66.4833333","20.1666666","275.0","JOKKMOKK FPL, SW","FM-12","99999","V020","320,1,N,0030,1","99999,9,9,N","050000,1,N,1","-0222,1","-0238,1","10012,1",,,,,,,"99999,9,09645,1","7,1,016,1,+999,9","SYN060AAXX  31001 02151 45984 /3203 11222 21238 39645 40012 57016;",
"02151099999","2010-12-31T03:00:00","4","66.4833333","20.1666666","275.0","JOKKMOKK FPL, SW","FM-12","99999","V020","320,1,N,0030,1","99999,9,9,N","050000,1,N,1","-0227,1","-0245,1","10001,1",,,"03,1,+03900,1,99,9",,,,"99999,9,09633,1","8,1,012,1,+999,9","SYN070AAXX  31031 02151 45984 /3203 11227 21245 39633 40001 58012 333 83/63;",
"02151099999","2010-12-31T06:00:00","4","66.4833333","20.1666666","275.0","JOKKMOKK FPL, SW","FM-12","99999","V020","320,1,N,0030,1","99999,9,9,N","050000,1,N,1","-0209,1","-0225,1","09995,1",,,,,"120,M,-0206,1","999,N,-0258,1","99999,9,09630,1","7,1,003,1,+999,9","SYN076AAXX  31061 02151 45984 /3203 11209 21225 39630 49995 57003 333 11206 21258;",
"02151099999","2010-12-31T09:00:00","4","66.4833333","20.1666666","275.0","JOKKMOKK FPL, SW","FM-12","99999","V020","320,1,N,0030,1","99999,9,9,N","050000,1,N,1","-0174,1","-0185,1","09986,1",,,,,,,"99999,9,09626,1","8,1,004,1,+999,9","SYN060AAXX  31091 02151 45984 /3203 11174 21185 39626 49986 58004;",
"02151099999","2010-12-31T12:00:00","4","66.4833333","20.1666666","275.0","JOKKMOKK FPL, SW","FM-12","99999","V020","320,1,N,0030,1","03600,1,C,N","050000,1,N,1","-0145,1","-0155,1","09964,1",,,"06,1,+03600,1,99,9",,,,"99999,9,09608,1","8,1,018,1,+999,9","SYN070AAXX  31121 02151 45984 /3203 11145 21155 39608 49964 58018 333 86/62;",
"02151099999","2010-12-31T15:00:00","4","66.4833333","20.1666666","275.0","JOKKMOKK FPL, SW","FM-12","99999","V020","320,1,N,0030,1","99999,9,9,N","050000,1,N,1","-0176,1","-0189,1","09951,1","00,1","8,1,03,1",,,,,"99999,9,09592,1","7,1,017,1,+999,9","SYN066AAXX  31151 02151 47984 /3203 11176 21189 39592 49951 57017 70087;",
"02151099999","2010-12-31T18:00:00","4","66.4833333","20.1666666","275.0","JOKKMOKK FPL, SW","FM-12","99999","V020","320,1,N,0030,1","00060,1,C,N","000400,1,N,1","-0201,1","-0214,1","09948,1","34,1","8,1,06,1","08,1,+00060,1,99,9",,"120,M,-0115,1","999,N,-0210,1","99999,9,09585,1","7,1,006,1,+999,9","SYN088AAXX  31181 02151 47104 /3203 11201 21214 39585 49948 57006 73487 333 11115 21210 88/02;",
"02151099999","2010-12-31T21:00:00","4","66.4833333","20.1666666","275.0","JOKKMOKK FPL, SW","FM-12","99999","V020","320,1,N,0030,1","99999,9,9,N","050000,1,N,1","-0185,1","-0199,1","09945,1","00,1","4,1,03,1","01,1,+00030,1,99,9",,,,"99999,9,09585,1","4,1,000,1,+999,9","SYN076AAXX  31211 02151 47084 /3203 11185 21199 39585 49945 54001 70032 333 81/01;",
