"STATION","DATE","SOURCE","LATITUDE","LONGITUDE","ELEVATION","NAME","REPORT_TYPE","CALL_SIGN","QUALITY_CONTROL","WND","CIG","VIS","TMP","DEW","SLP","AA1","AA2","AW1","AZ1","GA1","GA2","KA1","KA2","MA1","MD1","REM","EQD"
"02458099999","2010-01-01T00:00:00","4","59.897328","17.588581","20.72","UPPSALA, SW","FM-12","ESCM ","V020","330,1,N,0030,1","00870,1,C,N","008000,1,N,1","-0077,1","-0080,1","10035,1",,,"71,1","7,1,06,1","08,1,+00870,1,99,9",,,,"99999,9,10009,1","2,1,008,1,+999,9","SYN076AAXX  01001 02458 47558 /3303 11077 21080 30009 40035 52008 77177 333 88/29;",
"02458099999","2010-01-01T03:00:00","4","59.897328","17.588581","20.72","UPPSALA, SW","FM-12","ESCM ","V020","340,1,N,0020,1","00630,1,C,N","016000,1,N,1","-0074,1","-0077,1","10042,1",,,"71,1","7,1,03,1","08,1,+00630,1,99,9",,,,"99999,9,10015,1","3,1,007,1,+999,9","SYN076AAXX  01031 02458 47566 /3402 11074 21077 30015 40042 53007 77177 333 88/21;",
"02458099999","2010-01-01T06:00:00","4","59.897328","17.588581","20.72","UPPSALA, SW","FM-12","ESCM ","V020","350,1,N,0030,1","01110,1,C,N","010000,1,N,1","-0099,1","-0102,1","10045,1","12,0020,9,1","24,0025,9,1","71,1","7,1,06,1","09,1,+01110,1,99,9",,"120,M,-0072,1","999,N,-0098,1","99999,9,10018,1","3,1,003,1,+999,9","SYN106AAXX  01061 02458 07/60 /3503 11099 21102 30018 40045 53003 60022 77177 333 11072 21098 69915 70026 89/37;",
"02458099999","2010-01-01T09:00:00","4","59.897328","17.588581","20.72","UPPSALA, SW","FM-12","ESCM ","V020","999,9,C,0000,1","00330,1,C,N","001500,1,N,1","-0083,1","-0085,1","10063,1",,,"71,1","8,1,03,1","09,1,+00330,1,99,9",,,,"99999,9,10036,1","2,1,018,1,+999,9","SYN076AAXX  01091 02458 47/15 /0000 11083 21085 30036 40063 52018 77187 333 89/11;",
"02458099999","2010-01-01T12:00:00","4","59.897328","17.588581","20.72","UPPSALA, SW","FM-12","ESCM ","V020","010,1,N,0040,1","00930,1,C,N","007000,1,N,1","-0071,1","-0075,1","10076,1",,,"71,1","8,1,06,1","01,1,+00420,1,99,9","07,1,+00930,1,99,9",,,"99999,9,10049,1","2,1,013,1,+999,9","SYN088AAXX  01121 02458 47457 /0104 11071 21075 30049 40076 52013 77187 333 81/14 87/31 88/48;",
"02458099999","2010-01-01T15:00:00","4","59.897328","17.588581","20.72","UPPSALA, SW","FM-12","ESCM ","V020","010,1,N,0020,1","22000,1,C,N","005000,1,N,1","-0082,1","-0085,1","10096,1",,,"71,1","7,1,03,1","02,1,+00330,1,99,9","03,1,+00600,1,99,9",,,"99999,9,10070,1","3,1,021,1,+999,9","SYN088AAXX  01151 02458 47450 /0102 11082 21085 30070 40096 53021 77177 333 82/11 83/20 88/37;",
"02458099999","2010-01-01T18:00:00","4","59.897328","17.588581","20.72","UPPSALA, SW","FM-12","ESCM ","V020","020,1,N,0040,1","00450,1,C,N","002800,1,N,1","-0069,1","-0071,1","10117,1","12,0020,9,1",,"71,1","7,1,06,1","05,1,+00450,1,99,9","07,1,+00660,1,99,9","120,M,-0063,1","999,N,-0104,1","99999,9,10090,1","2,1,020,1,+999,9","SYN112AAXX  01181 02458 07428 /0204 11069 21071 30090 40117 52020 60022 77177 333 11063 21104 69935 85/15 87/22 88/32;",
"02458099999","2010-01-01T21:00:00","4","59.897328","17.588581","20.72","UPPSALA, SW","FM-12","ESCM ","V020","070,1,N,0070,1","00840,1,C,N","007000,1,N,1","-0067,1","-0080,1","10140,1",,,"71,1","7,1,03,1","07,1,+00840,1,99,9",,,,"99999,9,10113,1","2,1,023,1,+999,9","SYN082AAXX  01211 02458 47557 /0707 11067 21080 30113 40140 52023 77177 333 87/28 88/36;",
"02458099999","2010-01-02T00:00:00","4","59.897328","17.588581","20.72","UPPSALA, SW","FM-12","ESCM ","V020","360,1,N,0030,1","22000,1,C,N","011000,1,N,1","-0074,1","-0081,1","10153,1",,,"71,1","7,1,06,1","02,1,+00420,1,99,9","03,1,+00540,1,99,9",,,"99999,9,10126,1","1,1,013,1,+999,9","SYN088AAXX  02001 02458 47461 /3603 11074 21081 30126 40153 51013 77177 333 82/14 83/18 88/44;",
"02458099999","2010-01-02T03:00:00","4","59.897328","17.588581","20.72","UPPSALA, SW","FM-12","ESCM ","V020","350,1,N,0020,1","00810,1,C,N","007000,1,N,1","-0132,1","-0137,1","10168,1",,,"85,1","8,1,03,1","09,1,+00810,1,99,9",,,,"99999,9,10140,1","2,1,014,1,+999,9","SYN076AAXX  02031 02458 47/57 /3502 11132 21137 30140 40168 52014 78587 333 89/27;",
"02458099999","2010-01-02T06:00:00","4","59.897328","17.588581","20.72","UPPSALA, SW","FM-12","ESCM ","V020","010,1,N,0020,1","99999,9,9,N","017000,1,N,1","-0082,1","-0087,1","10178,1","12,0010,9,1","24,0033,9,1","71,1","8,1,06,1","03,1,+00810,1,99,9",,"120,M,-0064,1","999,N,-0150,1","99999,9,10151,1","2,1,011,1,+999,9","SYN112AAXX  02061 02458 07567 /0102 11082 21087 30151 40178 52011 60012 77187 333 11064 21150 69915 70033 83/27 88/34;",
"02458099999","2010-01-02T09:00:00","4","59.897328","17.588581","20.72","UPPSALA, SW","FM-12","ESCM ","V020","350,1,N,0020,1","00870,1,C,N","002700,1,N,1","-0083,1","-0087,1","10193,1",,,"71,1","7,1,03,1","09,1,+00870,1,99,9",,,,"99999,9,10166,1","2,1,015,1,+999,9","SYN076AAXX  02091 02458 47/27 /3502 11083 21087 30166 40193 52015 77177 333 89/29;",
"02458099999","2010-01-02T12:00:00","4","59.897328","17.588581","20.72","UPPSALA, SW","FM-12","ESCM ","V020","340,1,N,0020,1","00690,1,C,N","006000,1,N,1","-0121,1","-0126,1","10205,1",,,"71,1","7,1,06,1","05,1,+00690,1,99,9",,,,"99999,9,10177,1","2,1,011,1,+999,9","SYN082AAXX  02121 02458 47556 /3402 11121 21126 30177 40205 52011 77177 333 85/23 88/28;",
"02458099999","2010-01-02T15:00:00","4","59.897328","17.588581","20.72","UPPSALA, SW","FM-12","ESCM ","V020","330,1,N,0020,1","22000,1,C,N","006000,1,N,1","-0124,1","-0130,1","10208,1",,,"71,1","7,1,03,1","01,1,+00300,1,99,9","04,1,+00510,1,99,9",,,"99999,9,10181,1","2,1,004,1,+999,9","SYN088AAXX  02151 02458 47456 /3302 11124 21130 30181 40208 52004 77177 333 81/10 84/17 87/24;",
"02458099999","2010-01-02T18:00:00","4","59.897328","17.588581","20.72","UPPSALA, SW","FM-12","ESCM ","V020","320,1,N,0040,1","00870,1,C,N","006000,1,N,1","-0089,1","-0094,1","10212,1","12,0020,9,1",,"71,1","7,1,06,1","08,1,+00870,1,99,9",,"120,M,-0081,1","999,N,-0133,1","99999,9,10185,1","2,1,004,1,+999,9","SYN100AAXX  02181 02458 07556 /3204 11089 21094 30185 40212 52004 60022 77177 333 11081 21133 69915 88/29;",
"02458099999","2010-01-02T21:00:00","4","59.897328","17.588581","20.72","UPPSALA, SW","FM-12","ESCM ","V020","310,1,N,0020,1","00930,1,C,N","003800,1,N,1","-0099,1","-0106,1","10214,1",,,"71,1","7,1,03,1","08,1,+00930,1,99,9",,,,"99999,9,10187,1","2,1,002,1,+999,9","SYN076AAXX  02211 02458 47538 /3102 11099 21106 30187 40214 52002 77177 333 88/31;",
"02458099999","2010-01-03T00:00:00","4","59.897328","17.588581","20.72","UPPSALA, SW","FM-12","ESCM ","V020","290,1,N,0020,1","00900,1,C,N","050000,1,N,1","-0134,1","-0142,1","10203,1",,,"71,1","7,1,06,1","07,1,+00900,1,99,9",,,,"99999,9,10176,1","8,1,011,1,+999,9","SYN082AAXX  03001 02458 47584 /2902 11134 21142 30176 40203 58011 77177 333 87/30 88/37;",
"02458099999","2010-01-03T03:00:00","4","59.897328","17.588581","20.72","UPPSALA, SW","FM-12","ESCM ","V020","250,1,N,0010,1","99999,9,9,N","050000,1,N,1","-0156,1","-0164,1","10181,1",,,"00,1","7,1,03,1",,,,,"99999,9,10153,1","8,1,022,1,+999,9","SYN066AAXX  03031 02458 47984 /2501 11156 21164 30153 40181 58022 70073;",
"02458099999","2010-01-03T06:00:00","4","59.897328","17.588581","20.72","UPPSALA, SW","FM-12","ESCM ","V020","220,1,N,0030,1","01800,1,C,N","050000,1,N,1","-0145,1","-0160,1","10153,1","12,0005,9,1","24,0023,9,1","00,1","7,1,06,1","07,1,+01800,1,99,9",,"120,M,-0089,1","999,N,-0194,1","99999,9,10126,1","8,1,028,1,+999,9","SYN106AAXX  03061 02458 17784 /2203 11145 21160 30126 40153 58028 69962 70073 333 11089 21194 70024 87/56 88/57;",
"02458099999","2010-01-03T09:00:00","4","59.897328","17.588581","20.72","UPPSALA, SW","FM-12","ESCM ","V020","230,1,N,0030,1","00960,1,C,N","050000,1,N,1","-0142,1","-0158,1","10136,1",,,,,"08,1,+00960,1,99,9",,,,"99999,9,10109,1","7,1,017,1,+999,9","SYN070AAXX  03091 02458 45584 /2303 11142 21158 30109 40136 57017 333 88/32;",
"02458099999","2010-01-03T12:00:00","4","59.897328","17.588581","20.72","UPPSALA, SW","FM-12","ESCM ","V020","230,1,N,0040,1","03000,1,C,N","045000,1,N,1","-0122,1","-0136,1","10109,1",,,,,"08,1,+03000,1,99,9",,,,"99999,9,10082,1","8,1,027,1,+999,9","SYN070AAXX  03121 02458 45983 /2304 11122 21136 30082 40109 58027 333 88/60;",
"02458099999","2010-01-03T15:00:00","4","59.897328","17.588581","20.72","UPPSALA, SW","FM-12","ESCM ","V020","230,1,N,0040,1","00600,1,C,N","003500,1,N,1","-0105,1","-0112,1","10097,1",,,"71,1","7,1,03,1","02,1,+00210,1,99,9","04,1,+00600,1,99,9",,,"99999,9,10070,1","8,1,012,1,+999,9","SYN088AAXX  03151 02458 47335 /2304 11105 21112 30070 40097 58012 77170 333 82/07 84/20 85/25;",
"02458099999","2010-01-03T18:00:00","4","59.897328","17.588581","20.72","UPPSALA, SW","FM-12","ESCM ","V020","220,1,N,0030,1","01800,1,C,N","050000,1,N,1","-0090,1","-0099,1","10090,1","12,0005,9,1",,"00,1","7,1,06,1","07,1,+01800,1,99,9",,"120,M,-0088,1","999,N,-0146,1","99999,9,10063,1","7,1,007,1,+999,9","SYN094AAXX  03181 02458 17884 /2203 11090 21099 30063 40090 57007 69952 70072 333 11088 21146 87/56;",
"02458099999","2010-01-03T21:00:00","4","59.897328","17.588581","20.72","UPPSALA, SW","FM-12","ESCM ","V020","210,1,N,0010,1","99999,9,9,N","040000,1,N,1","-0107,1","-0111,1","10086,1",,,,,,,,,"99999,9,10059,1","7,1,004,1,+999,9","SYN060AAXX  03211 02458 45982 /2101 11107 21111 30059 40086 57004;",
"02458099999","2010-01-04T00:00:00","4","59.897328","17.588581","20.72","UPPSALA, SW","FM-12","ESCM ","V020","070,1,N,0010,1","99999,9,9,N","006000,1,N,1","-0124,1","-0129,1","10081,1",,,"24,1","8,1,06,1",,,,,"99999,9,10053,1","7,1,005,1,+999,9","SYN066AAXX  04001 02458 47956 /0701 11124 21129 30053 40081 57005 72487;",
"02458099999","2010-01-04T03:00:00","4","59.897328","17.588581","20.72","UPPSALA, SW","FM-12","ESCM ","V020","190,1,N,0020,1","99999,9,9,N","050000,1,N,1","-0143,1","-0150,1","10065,1",,,,,,,,,"99999,9,10037,1","6,1,016,1,+999,9","SYN060AAXX  04031 02458 45984 /1902 11143 21150 30037 40065 56016;",
"02458099999","2010-01-04T06:00:00","4","59.897328","17.588581","20.72","UPPSALA, SW","FM-12","ESCM ","V020","220,1,N,0010,1","99999,9,9,N","050000,1,N,1","-0123,1","-0130,1","10044,1","24,0005,9,1",,,,,,"120,M,-0090,1","999,N,-0150,1","99999,9,10016,1","7,1,021,1,+999,9","SYN082AAXX  04061 02458 35984 /2201 11123 21130 30016 40044 57021 333 11090 21150 70005;",
"02458099999","2010-01-04T09:00:00","4","59.897328","17.588581","20.72","UPPSALA, SW","FM-12","ESCM ","V020","220,1,N,0060,1","99999,9,9,N","050000,1,N,1","-0098,1","-0107,1","10024,1",,,,,,,,,"99999,9,09998,1","8,1,019,1,+999,9","SYN060AAXX  04091 02458 45984 /2206 11098 21107 39998 40024 58019;",
"02458099999","2010-01-04T12:00:00","4","59.897328","17.588581","20.72","UPPSALA, SW","FM-12","ESCM ","V020","230,1,N,0030,1","99999,9,9,N","040000,1,N,1","-0082,1","-0094,1","10011,1",,,,,,,,,"99999,9,09985,1","8,1,013,1,+999,9","SYN060AAXX  04121 02458 45982 /2303 11082 21094 39985 40011 58013;",
"02458099999","2010-01-04T15:00:00","4","59.897328","17.588581","20.72","UPPSALA, SW","FM-12","ESCM ","V020","230,1,N,0020,1","99999,9,9,N","040000,1,N,1","-0090,1","-0096,1","10006,1",,,,,"01,1,+03300,1,99,9",,,,"99999,9,09979,1","5,1,006,1,+999,9","SYN070AAXX  04151 02458 45982 /2302 11090 21096 39979 40006 55006 333 81/61;",
"02458099999","2010-01-04T18:00:00","4","59.897328","17.588581","20.72","UPPSALA, SW","FM-12","ESCM ","V020","310,1,N,0040,1","99999,9,9,N","009000,1,N,1","-0077,1","-0082,1","10015,1","12,9999,9,9",,"71,1","7,1,06,1","02,1,+00570,1,99,9",,"120,M,-0070,1","999,N,-0131,1","99999,9,09989,1","3,1,010,1,+999,9","SYN106AAXX  04181 02458 07459 /3104 11077 21082 39989 40015 53010 69912 77170 333 11070 21131 69915 82/19 83/50;","Q01  00002PRCP12Q02  00002PRCP12"
"02458099999","2010-01-04T21:00:00","4","59.897328","17.588581","20.72","UPPSALA, SW","FM-12","ESCM ","V020","320,1,N,0050,1","99999,9,9,N","045000,1,N,1","-0113,1","-0124,1","10046,1",,,"24,1","8,1,03,1",,,,,"99999,9,10019,1","3,1,030,1,+999,9","SYN066AAXX  04211 02458 47983 /3205 11113 21124 30019 40046 53030 72487;",
"02458099999","2010-01-05T00:00:00","4","59.897328","17.588581","20.72","UPPSALA, SW","FM-12","ESCM ","V020","330,1,N,0040,1","99999,9,9,N","050000,1,N,1","-0151,1","-0167,1","10064,1",,,"00,1","8,1,06,1",,,,,"99999,9,10036,1","2,1,017,1,+999,9","SYN066AAXX  05001 02458 47984 /3304 11151 21167 30036 40064 52017 70087;",
"02458099999","2010-01-05T03:00:00","4","59.897328","17.588581","20.72","UPPSALA, SW","FM-12","ESCM ","V020","300,1,N,0030,1","99999,9,9,N","050000,1,N,1","-0194,1","-0206,1","10077,1",,,,,,,,,"99999,9,10049,1","1,1,013,1,+999,9","SYN060AAXX  05031 02458 45984 /3003 11194 21206 30049 40077 51013;",
"02458099999","2010-01-05T06:00:00","4","59.897328","17.588581","20.72","UPPSALA, SW","FM-12","ESCM ","V020","310,1,N,0050,1","01050,1,C,N","050000,1,N,1","-0168,1","-0184,1","10083,1","24,0000,2,1",,,,"05,1,+01050,1,99,9",,"120,M,-0067,1","999,N,-0199,1","99999,9,10056,1","3,1,006,1,+999,9","SYN094AAXX  05061 02458 35684 /3105 11168 21184 30056 40083 53006 333 11067 21199 70001 85/35 88/43;",
"02458099999","2010-01-05T09:00:00","4","59.897328","17.588581","20.72","UPPSALA, SW","FM-12","ESCM ","V020","310,1,N,0030,1","99999,9,9,N","035000,1,N,1","-0192,1","-0210,1","10102,1",,,"00,1","8,1,03,1","02,1,+01470,1,99,9",,,,"99999,9,10074,1","2,1,019,1,+999,9","SYN076AAXX  05091 02458 47681 /3103 11192 21210 30074 40102 52019 70087 333 82/49;",
"02458099999","2010-01-05T12:00:00","4","59.897328","17.588581","20.72","UPPSALA, SW","FM-12","ESCM ","V020","310,1,N,0040,1","99999,9,9,N","050000,1,N,1","-0183,1","-0202,1","10111,1",,,"85,1","8,1,06,1",,,,,"99999,9,10083,1","2,1,009,1,+999,9","SYN066AAXX  05121 02458 47984 /3104 11183 21202 30083 40111 52009 78587;",
"02458099999","2010-01-05T15:00:00","4","59.897328","17.588581","20.72","UPPSALA, SW","FM-12","ESCM ","V020","300,1,N,0030,1","99999,9,9,N","050000,1,N,1","-0210,1","-0223,1","10120,1",,,"00,1","8,1,03,1",,,,,"99999,9,10091,1","3,1,009,1,+999,9","SYN066AAXX  05151 02458 47984 /3003 11210 21223 30091 40120 53009 70082;",
"02458099999","2010-01-05T18:00:00","4","59.897328","17.588581","20.72","UPPSALA, SW","FM-12","ESCM ","V020","310,1,N,0040,1","99999,9,9,N","050000,1,N,1","-0213,1","-0226,1","10124,1",,,"00,1","8,1,06,1",,,"120,M,-0163,1","999,N,-0227,1","99999,9,10095,1","2,1,004,1,+999,9","SYN082AAXX  05181 02458 37984 /3104 11213 21226 30095 40124 52004 70082 333 11163 21227;",
"02458099999","2010-01-05T21:00:00","4","59.897328","17.588581","20.72","UPPSALA, SW","FM-12","ESCM ","V020","280,1,N,0020,1","99999,9,9,N","050000,1,N,1","-0217,1","-0233,1","10134,1",,,,,,,,,"99999,9,10105,1","2,1,010,1,+999,9","SYN060AAXX  05211 02458 45984 /2802 11217 21233 30105 40134 52010;",
"02458099999","2010-01-06T00:00:00","4","59.897328","17.588581","20.72","UPPSALA, SW","FM-12","ESCM ","V020","310,1,N,0020,1","99999,9,9,N","050000,1,N,1","-0261,1","-0277,1","10136,1",,,,,,,,,"99999,9,10107,1","0,1,002,1,+999,9","SYN060AAXX  06001 02458 45984 /3102 11261 21277 30107 40136 50002;",
"02458099999","2010-01-06T03:00:00","4","59.897328","17.588581","20.72","UPPSALA, SW","FM-12","ESCM ","V020","999,9,C,0000,1","99999,9,9,N","009000,1,N,1","-0280,1","-0299,1","10140,1",,,"10,1","2,1,03,1",,,,,"99999,9,10111,1","2,1,004,1,+999,9","SYN066AAXX  06031 02458 47959 /0000 11280 21299 30111 40140 52004 71010;",
"02458099999","2010-01-06T06:00:00","4","59.897328","17.588581","20.72","UPPSALA, SW","FM-12","ESCM ","V020","310,1,N,0020,1","99999,9,9,N","050000,1,N,1","-0291,1","-0312,1","10146,1",,,,,,,"120,M,-0207,1","999,N,-0312,1","99999,9,10117,1","2,1,006,1,+999,9","SYN076AAXX  06061 02458 35984 /3102 11291 21312 30117 40146 52006 333 11207 21312;",
"02458099999","2010-01-06T09:00:00","4","59.897328","17.588581","20.72","UPPSALA, SW","FM-12","ESCM ","V020","310,1,N,0010,1","99999,9,9,N","050000,1,N,1","-0285,1","-0306,1","10158,1",,,,,,,,,"99999,9,10129,1","2,1,011,1,+999,9","SYN060AAXX  06091 02458 45984 /3101 11285 21306 30129 40158 52011;",
"02458099999","2010-01-06T12:00:00","4","59.897328","17.588581","20.72","UPPSALA, SW","FM-12","ESCM ","V020","330,1,N,0020,1","99999,9,9,N","050000,1,N,1","-0231,1","-0247,1","10157,1",,,,,,,,,"99999,9,10128,1","0,1,000,1,+999,9","SYN060AAXX  06121 02458 45984 /3302 11231 21247 30128 40157 50000;",
"02458099999","2010-01-06T15:00:00","4","59.897328","17.588581","20.72","UPPSALA, SW","FM-12","ESCM ","V020","340,1,N,0030,1","00690,1,C,N","050000,1,N,1","-0190,1","-0202,1","10158,1",,,"85,1","8,1,03,1","08,1,+00690,1,99,9",,,,"99999,9,10130,1","2,1,002,1,+999,9","SYN076AAXX  06151 02458 47584 /3403 11190 21202 30130 40158 52002 78587 333 88/23;",
"02458099999","2010-01-06T18:00:00","4","59.897328","17.588581","20.72","UPPSALA, SW","FM-12","ESCM ","V020","330,1,N,0030,1","02100,1,C,N","023000,1,N,1","-0197,1","-0209,1","10156,1",,,"85,1","8,1,06,1","05,1,+02100,1,99,9",,"120,M,-0183,1","999,N,-0315,1","99999,9,10128,1","7,1,003,1,+999,9","SYN088AAXX  06181 02458 37873 /3303 11197 21209 30128 40156 57003 78587 333 11183 21315 85/57;",
"02458099999","2010-01-06T21:00:00","4","59.897328","17.588581","20.72","UPPSALA, SW","FM-12","ESCM ","V020","340,1,N,0030,1","99999,9,9,N","029000,1,N,1","-0155,1","-0164,1","10155,1",,,"22,1","8,1,03,1","03,1,+01800,1,99,9",,,,"99999,9,10127,1","0,1,001,1,+999,9","SYN076AAXX  06211 02458 47779 /3403 11155 21164 30127 40155 50001 72287 333 83/56;",
"02458099999","2010-01-07T00:00:00","4","59.897328","17.588581","20.72","UPPSALA, SW","FM-12","ESCM ","V020","340,1,N,0020,1","99999,9,9,N","021000,1,N,1","-0159,1","-0168,1","10152,1",,,"00,1","8,1,06,1","01,1,+01500,1,99,9",,,,"99999,9,10124,1","7,1,003,1,+999,9","SYN082AAXX  07001 02458 47771 /3402 11159 21168 30124 40152 57003 70087 333 81/50 88/60;",
"02458099999","2010-01-07T03:00:00","4","59.897328","17.588581","20.72","UPPSALA, SW","FM-12","ESCM ","V020","340,1,N,0020,1","01500,1,C,N","011000,1,N,1","-0127,1","-0133,1","10146,1",,,"71,1","7,1,03,1","07,1,+01500,1,99,9",,,,"99999,9,10118,1","7,1,006,1,+999,9","SYN082AAXX  07031 02458 47761 /3402 11127 21133 30118 40146 57006 77170 333 87/50 88/56;",
"02458099999","2010-01-07T06:00:00","4","59.897328","17.588581","20.72","UPPSALA, SW","FM-12","ESCM ","V020","340,1,N,0050,1","00690,1,C,N","021000,1,N,1","-0122,1","-0127,1","10147,1","12,0000,2,1","24,0003,9,1","71,1","7,1,06,1","08,1,+00690,1,99,9",,"120,M,-0122,1","999,N,-0198,1","99999,9,10119,1","5,1,001,1,+999,9","SYN100AAXX  07061 02458 17571 /3405 11122 21127 30119 40147 55001 69922 77170 333 11122 21198 70002 88/23;",
"02458099999","2010-01-07T09:00:00","4","59.897328","17.588581","20.72","UPPSALA, SW","FM-12","ESCM ","V020","340,1,N,0040,1","00360,1,C,N","029000,1,N,1","-0131,1","-0137,1","10156,1",,,"71,1","7,1,03,1","09,1,+00360,1,99,9",,,,"99999,9,10129,1","2,1,010,1,+999,9","SYN076AAXX  07091 02458 47/79 /3404 11131 21137 30129 40156 52010 77177 333 89/12;",
"02458099999","2010-01-07T12:00:00","4","59.897328","17.588581","20.72","UPPSALA, SW","FM-12","ESCM ","V020","330,1,N,0050,1","99999,9,9,N","007000,1,N,1","-0108,1","-0115,1","10155,1",,,"71,1","8,1,06,1","01,1,+00330,1,99,9","03,1,+00690,1,99,9",,,"99999,9,10127,1","7,1,001,1,+999,9","SYN088AAXX  07121 02458 47457 /3305 11108 21115 30127 40155 57001 77187 333 81/11 83/23 85/29;",
"02458099999","2010-01-07T15:00:00","4","59.897328","17.588581","20.72","UPPSALA, SW","FM-12","ESCM ","V020","330,1,N,0060,1","00540,1,C,N","008000,1,N,1","-0111,1","-0119,1","10158,1",,,"71,1","7,1,03,1","09,1,+00540,1,99,9",,,,"99999,9,10131,1","2,1,003,1,+999,9","SYN076AAXX  07151 02458 47/58 /3306 11111 21119 30131 40158 52003 77177 333 89/18;",
"02458099999","2010-01-07T18:00:00","4","59.897328","17.588581","20.72","UPPSALA, SW","FM-12","ESCM ","V020","330,1,N,0060,1","99999,9,9,N","006000,1,N,1","-0105,1","-0115,1","10167,1","12,0020,9,1",,"71,1","7,1,06,1","01,1,+00810,1,99,9",,"120,M,-0101,1","999,N,-0131,1","99999,9,10140,1","1,1,010,1,+999,9","SYN106AAXX  07181 02458 07556 /3306 11105 21115 30140 40167 51010 60022 77177 333 11101 21131 69925 81/27 88/33;",
"02458099999","2010-01-07T21:00:00","4","59.897328","17.588581","20.72","UPPSALA, SW","FM-12","ESCM ","V020","330,1,N,0070,1","00960,1,C,N","008000,1,N,1","-0099,1","-0111,1","10181,1",,,"71,1","7,1,03,1","08,1,+00960,1,99,9",,,,"99999,9,10154,1","2,1,014,1,+999,9","SYN076AAXX  07211 02458 47558 /3307 11099 21111 30154 40181 52014 77177 333 88/32;",
"02458099999","2010-01-08T00:00:00","4","59.897328","17.588581","20.72","UPPSALA, SW","FM-12","ESCM ","V020","330,1,N,0060,1","99999,9,9,N","007000,1,N,1","-0107,1","-0119,1","10198,1",,,"71,1","7,1,06,1","01,1,+00780,1,99,9",,,,"99999,9,10171,1","2,1,016,1,+999,9","SYN082AAXX  08001 02458 47557 /3306 11107 21119 30171 40198 52016 77177 333 81/26 88/33;",
"02458099999","2010-01-08T03:00:00","4","59.897328","17.588581","20.72","UPPSALA, SW","FM-12","ESCM ","V020","320,1,N,0040,1","00780,1,C,N","007000,1,N,1","-0125,1","-0138,1","10222,1",,,"71,1","7,1,03,1","04,1,+00420,1,99,9","05,1,+00780,1,99,9",,,"99999,9,10194,1","3,1,024,1,+999,9","SYN088AAXX  08031 02458 47457 /3204 11125 21138 30194 40222 53024 77177 333 84/14 85/26 88/33;",
"02458099999","2010-01-08T06:00:00","4","59.897328","17.588581","20.72","UPPSALA, SW","FM-12","ESCM ","V020","310,1,N,0040,1","22000,1,C,N","017000,1,N,1","-0143,1","-0156,1","10240,1","12,0020,9,1","24,0033,9,1","71,1","7,1,06,1","02,1,+00330,1,99,9","03,1,+00720,1,99,9","120,M,-0097,1","999,N,-0144,1","99999,9,10212,1","3,1,018,1,+999,9","SYN118AAXX  08061 02458 07467 /3104 11143 21156 30212 40240 53018 60022 77177 333 11097 21144 69915 70033 82/11 83/24 87/32;",
"02458099999","2010-01-08T09:00:00","4","59.897328","17.588581","20.72","UPPSALA, SW","FM-12","ESCM ","V020","320,1,N,0040,1","22000,1,C,N","026000,1,N,1","-0130,1","-0143,1","10265,1",,,"71,1","7,1,03,1","01,1,+00480,1,99,9","04,1,+00720,1,99,9",,,"99999,9,10238,1","3,1,025,1,+999,9","SYN088AAXX  08091 02458 47476 /3204 11130 21143 30238 40265 53025 77177 333 81/16 84/24 88/31;",
"02458099999","2010-01-08T12:00:00","4","59.897328","17.588581","20.72","UPPSALA, SW","FM-12","ESCM ","V020","320,1,N,0040,1","99999,9,9,N","035000,1,N,1","-0139,1","-0157,1","10285,1",,,"71,1","7,1,06,1","01,1,+00570,1,99,9",,,,"99999,9,10257,1","3,1,020,1,+999,9","SYN082AAXX  08121 02458 47481 /3204 11139 21157 30257 40285 53020 77177 333 81/19 87/25;",
"02458099999","2010-01-08T15:00:00","4","59.897328","17.588581","20.72","UPPSALA, SW","FM-12","ESCM ","V020","320,1,N,0010,1","99999,9,9,N","050000,1,N,1","-0192,1","-0198,1","10305,1",,,"00,1","7,1,03,1",,,,,"99999,9,10277,1","3,1,020,1,+999,9","SYN066AAXX  08151 02458 47984 /3201 11192 21198 30277 40305 53020 70072;",
"02458099999","2010-01-08T18:00:00","4","59.897328","17.588581","20.72","UPPSALA, SW","FM-12","ESCM ","V020","240,1,N,0010,1","99999,9,9,N","050000,1,N,1","-0223,1","-0236,1","10319,1","12,0003,9,1",,"00,1","7,1,06,1",,,"120,M,-0122,1","999,N,-0249,1","99999,9,10290,1","2,1,013,1,+999,9","SYN088AAXX  08181 02458 17984 /2401 11223 21236 30290 40319 52013 69932 70072 333 11122 21249;",
"02458099999","2010-01-08T21:00:00","4","59.897328","17.588581","20.72","UPPSALA, SW","FM-12","ESCM ","V020","999,9,C,0000,1","99999,9,9,N","050000,1,N,1","-0191,1","-0203,1","10336,1",,,,,"04,1,+02700,1,99,9",,,,"99999,9,10308,1","3,1,018,1,+999,9","SYN076AAXX  08211 02458 45984 /0000 11191 21203 30308 40336 53018 333 84/59 87/62;",
"02458099999","2010-01-09T00:00:00","4","59.897328","17.588581","20.72","UPPSALA, SW","FM-12","ESCM ","V020","170,1,N,0010,1","99999,9,9,N","050000,1,N,1","-0235,1","-0253,1","10345,1",,,,,,,,,"99999,9,10316,1","2,1,008,1,+999,9","SYN060AAXX  09001 02458 45984 /1701 11235 21253 30316 40345 52008;",
"02458099999","2010-01-09T03:00:00","4","59.897328","17.588581","20.72","UPPSALA, SW","FM-12","ESCM ","V020","250,1,N,0010,1","99999,9,9,N","050000,1,N,1","-0242,1","-0261,1","10351,1",,,,,,,,,"99999,9,10322,1","3,1,006,1,+999,9","SYN060AAXX  09031 02458 45984 /2501 11242 21261 30322 40351 53006;",
"02458099999","2010-01-09T06:00:00","4","59.897328","17.588581","20.72","UPPSALA, SW","FM-12","ESCM ","V020","340,1,N,0020,1","99999,9,9,N","050000,1,N,1","-0259,1","-0277,1","10358,1","24,0003,9,1",,,,,,"120,M,-0182,1","999,N,-0271,1","99999,9,10329,1","2,1,007,1,+999,9","SYN082AAXX  09061 02458 35984 /3402 11259 21277 30329 40358 52007 333 11182 21271 70003;",
"02458099999","2010-01-09T09:00:00","4","59.897328","17.588581","20.72","UPPSALA, SW","FM-12","ESCM ","V020","999,9,C,0000,1","99999,9,9,N","050000,1,N,1","-0226,1","-0241,1","10376,1",,,,,,,,,"99999,9,10347,1","2,1,018,1,+999,9","SYN060AAXX  09091 02458 45984 /0000 11226 21241 30347 40376 52018;",
"02458099999","2010-01-09T12:00:00","4","59.897328","17.588581","20.72","UPPSALA, SW","FM-12","ESCM ","V020","310,1,N,0010,1","99999,9,9,N","050000,1,N,1","-0187,1","-0200,1","10381,1",,,,,,,,,"99999,9,10353,1","0,1,005,1,+999,9","SYN060AAXX  09121 02458 45984 /3101 11187 21200 30353 40381 50005;",
"02458099999","2010-01-09T15:00:00","4","59.897328","17.588581","20.72","UPPSALA, SW","FM-12","ESCM ","V020","999,9,C,0000,1","99999,9,9,N","050000,1,N,1","-0204,1","-0217,1","10384,1",,,,,,,,,"99999,9,10355,1","3,1,003,1,+999,9","SYN060AAXX  09151 02458 45984 /0000 11204 21217 30355 40384 53003;",
"02458099999","2010-01-09T18:00:00","4","59.897328","17.588581","20.72","UPPSALA, SW","FM-12","ESCM ","V020","320,1,N,0010,1","99999,9,9,N","050000,1,N,1","-0207,1","-0224,1","10386,1",,,,,,,"120,M,-0161,1","999,N,-0260,1","99999,9,10357,1","2,1,002,1,+999,9","SYN076AAXX  09181 02458 35984 /3201 11207 21224 30357 40386 52002 333 11161 21260;",
"02458099999","2010-01-09T21:00:00","4","59.897328","17.588581","20.72","UPPSALA, SW","FM-12","ESCM ","V020","310,1,N,0010,1","99999,9,9,N","050000,1,N,1","-0200,1","-0213,1","10388,1",,,,,,,,,"99999,9,10359,1","2,1,002,1,+999,9","SYN060AAXX  09211 02458 45984 /3101 11200 21213 30359 40388 52002;",
"02458099999","2010-01-10T00:00:00","4","59.897328","17.588581","20.72","UPPSALA, SW","FM-12","ESCM ","V020","300,1,N,0010,1","99999,9,9,N","050000,1,N,1","-0213,1","-0227,1","10384,1",,,,,,,,,"99999,9,10355,1","8,1,004,1,+999,9","SYN060AAXX  10001 02458 45984 /3001 11213 21227 30355 40384 58004;",
"02458099999","2010-01-10T03:00:00","4","59.897328","17.588581","20.72","UPPSALA, SW","FM-12","ESCM ","V020","320,1,N,0020,1","99999,9,9,N","050000,1,N,1","-0211,1","-0227,1","10382,1",,,,,,,,,"99999,9,10353,1","7,1,002,1,+999,9","SYN060AAXX  10031 02458 45984 /3202 11211 21227 30353 40382 57002;",
"02458099999","2010-01-10T06:00:00","4","59.897328","17.588581","20.72","UPPSALA, SW","FM-12","ESCM ","V020","320,1,N,0020,1","99999,9,9,N","050000,1,N,1","-0191,1","-0202,1","10377,1",,,,,,,"120,M,-0163,1","999,N,-0225,1","99999,9,10348,1","5,1,004,1,+999,9","SYN076AAXX  10061 02458 35984 /3202 11191 21202 30348 40377 55004 333 11163 21225;",
"02458099999","2010-01-10T09:00:00","4","59.897328","17.588581","20.72","UPPSALA, SW","FM-12","ESCM ","V020","310,1,N,0010,1","99999,9,9,N","050000,1,N,1","-0192,1","-0205,1","10380,1",,,,,,,,,"99999,9,10352,1","2,1,003,1,+999,9","SYN060AAXX  10091 02458 45984 /3101 11192 21205 30352 40380 52003;",
"02458099999","2010-01-10T12:00:00","4","59.897328","17.588581","20.72","UPPSALA, SW","FM-12","ESCM ","V020","310,1,N,0010,1","99999,9,9,N","050000,1,N,1","-0147,1","-0156,1","10378,1",,,,,,,,,"99999,9,10350,1","8,1,002,1,+999,9","SYN060AAXX  10121 02458 45984 /3101 11147 21156 30350 40378 58002;",
"02458099999","2010-01-10T15:00:00","4","59.897328","17.588581","20.72","UPPSALA, SW","FM-12","ESCM ","V020","320,1,N,0010,1","99999,9,9,N","050000,1,N,1","-0144,1","-0152,1","10367,1",,,,,,,,,"99999,9,10339,1","7,1,011,1,+999,9","SYN060AAXX  10151 02458 45984 /3201 11144 21152 30339 40367 57011;",
"02458099999","2010-01-10T18:00:00","4","59.897328","17.588581","20.72","UPPSALA, SW","FM-12","ESCM ","V020","320,1,N,0010,1","99999,9,9,N","050000,1,N,1","-0200,1","-0213,1","10363,1",,,,,,,"120,M,-0121,1","999,N,-0213,1","99999,9,10335,1","8,1,004,1,+999,9","SYN076AAXX  10181 02458 35984 /3201 11200 21213 30335 40363 58004 333 11121 21213;",
"02458099999","2010-01-10T21:00:00","4","59.897328","17.588581","20.72","UPPSALA, SW","FM-12","ESCM ","V020","999,9,C,0000,1","99999,9,9,N","050000,1,N,1","-0214,1","-0227,1","10358,1",,,,,,,,,"99999,9,10329,1","8,1,006,1,+999,9","SYN060AAXX  10211 02458 45984 /0000 11214 21227 30329 40358 58006;",
"02458099999","2010-01-11T00:00:00","4","59.897328","17.588581","20.72","UPPSALA, SW","FM-12","ESCM ","V020","340,1,N,0010,1","99999,9,9,N","050000,1,N,1","-0212,1","-0226,1","10349,1",,,,,,,,,"99999,9,10320,1","8,1,009,1,+999,9","SYN060AAXX  11001 02458 45984 /3401 11212 21226 30320 40349 58009;",
"02458099999","2010-01-11T03:00:00","4","59.897328","17.588581","20.72","UPPSALA, SW","FM-12","ESCM ","V020","999,9,C,0000,1","99999,9,9,N","050000,1,N,1","-0203,1","-0217,1","10333,1",,,,,,,,,"99999,9,10304,1","8,1,016,1,+999,9","SYN060AAXX  11031 02458 45984 /0000 11203 21217 30304 40333 58016;",
"02458099999","2010-01-11T06:00:00","4","59.897328","17.588581","20.72","UPPSALA, SW","FM-12","ESCM ","V020","999,9,C,0000,1","99999,9,9,N","030000,1,N,1","-0217,1","-0232,1","10328,1",,,,,,,"120,M,-0187,1","999,N,-0224,1","99999,9,10299,1","6,1,005,1,+999,9","SYN076AAXX  11061 02458 35980 /0000 11217 21232 30299 40328 56005 333 11187 21224;",
"02458099999","2010-01-11T09:00:00","4","59.897328","17.588581","20.72","UPPSALA, SW","FM-12","ESCM ","V020","999,9,C,0000,1","99999,9,9,N","019000,1,N,1","-0194,1","-0206,1","10326,1",,,,,,,,,"99999,9,10298,1","7,1,001,1,+999,9","SYN060AAXX  11091 02458 45969 /0000 11194 21206 30298 40326 57001;",
"02458099999","2010-01-11T12:00:00","4","59.897328","17.588581","20.72","UPPSALA, SW","FM-12","ESCM ","V020","999,9,C,0000,1","99999,9,9,N","027000,1,N,1","-0158,1","-0169,1","10315,1",,,"00,1","8,1,06,1",,,,,"99999,9,10287,1","8,1,011,1,+999,9","SYN066AAXX  11121 02458 47977 /0000 11158 21169 30287 40315 58011 70087;",
"02458099999","2010-01-11T15:00:00","4","59.897328","17.588581","20.72","UPPSALA, SW","FM-12","ESCM ","V020","999,9,C,0000,1","99999,9,9,N","035000,1,N,1","-0177,1","-0188,1","10306,1",,,,,,,,,"99999,9,10277,1","6,1,010,1,+999,9","SYN060AAXX  11151 02458 45981 /0000 11177 21188 30277 40306 56010;",
"02458099999","2010-01-11T18:00:00","4","59.897328","17.588581","20.72","UPPSALA, SW","FM-12","ESCM ","V020","999,9,C,0000,1","00120,1,C,N","029000,1,N,1","-0144,1","-0152,1","10305,1",,,,,"08,1,+00120,1,99,9",,"120,M,-0122,1","999,N,-0218,1","99999,9,10277,1","0,1,001,1,+999,9","SYN082AAXX  11181 02458 35279 /0000 11144 21152 30277 40305 50001 333 11122 21218 88/04;",
"02458099999","2010-01-11T21:00:00","4","59.897328","17.588581","20.72","UPPSALA, SW","FM-12","ESCM ","V020","999,9,C,0000,1","00060,1,C,N","000200,1,N,1","-0136,1","-0142,1","10303,1",,,"32,1","8,1,03,1","09,1,+00060,1,99,9",,,,"99999,9,10275,1","7,1,002,1,+999,9","SYN076AAXX  11211 02458 47/02 /0000 11136 21142 30275 40303 57002 73287 333 89/02;",
"02458099999","2010-01-12T00:00:00","4","59.897328","17.588581","20.72","UPPSALA, SW","FM-12","ESCM ","V020","999,9,C,0000,1","00120,1,C,N","045000,1,N,1","-0155,1","-0164,1","10299,1",,,"00,1","8,1,06,1","09,1,+00120,1,99,9",,,,"99999,9,10270,1","7,1,004,1,+999,9","SYN076AAXX  12001 02458 47/83 /0000 11155 21164 30270 40299 57004 70083 333 89/04;",
"02458099999","2010-01-12T03:00:00","4","59.897328","17.588581","20.72","UPPSALA, SW","FM-12","ESCM ","V020","999,9,C,0000,1","99999,9,9,N","050000,1,N,1","-0179,1","-0190,1","10289,1",,,,,,,,,"99999,9,10261,1","7,1,009,1,+999,9","SYN060AAXX  12031 02458 45984 /0000 11179 21190 30261 40289 57009;",
"02458099999","2010-01-12T06:00:00","4","59.897328","17.588581","20.72","UPPSALA, SW","FM-12","ESCM ","V020","999,9,C,0000,1","99999,9,9,N","050000,1,N,1","-0182,1","-0193,1","10286,1",,,,,"03,1,+00090,1,99,9",,"120,M,-0120,1","999,N,-0192,1","99999,9,10258,1","5,1,003,1,+999,9","SYN082AAXX  12061 02458 35284 /0000 11182 21193 30258 40286 55003 333 11120 21192 83/03;",
"02458099999","2010-01-12T09:00:00","4","59.897328","17.588581","20.72","UPPSALA, SW","FM-12","ESCM ","V020","999,9,C,0000,1","00120,1,C,N","050000,1,N,1","-0179,1","-0190,1","10283,1",,,,,"09,1,+00120,1,99,9",,,,"99999,9,10255,1","7,1,003,1,+999,9","SYN070AAXX  12091 02458 45/84 /0000 11179 21190 30255 40283 57003 333 89/04;",
"02458099999","2010-01-12T12:00:00","4","59.897328","17.588581","20.72","UPPSALA, SW","FM-12","ESCM ","V020","190,1,N,0010,1","99999,9,9,N","030000,1,N,1","-0126,1","-0133,1","10273,1",,,,,"02,1,+00120,1,99,9",,,,"99999,9,10245,1","8,1,010,1,+999,9","SYN070AAXX  12121 02458 45280 /1901 11126 21133 30245 40273 58010 333 82/04;",
"02458099999","2010-01-12T15:00:00","4","59.897328","17.588581","20.72","UPPSALA, SW","FM-12","ESCM ","V020","999,9,C,0000,1","99999,9,9,N","030000,1,N,1","-0155,1","-0164,1","10265,1",,,,,,,,,"99999,9,10237,1","7,1,008,1,+999,9","SYN060AAXX  12151 02458 45980 /0000 11155 21164 30237 40265 57008;",
"02458099999","2010-01-12T18:00:00","4","59.897328","17.588581","20.72","UPPSALA, SW","FM-12","ESCM ","V020","999,9,C,0000,1","99999,9,9,N","028000,1,N,1","-0175,1","-0186,1","10257,1",,,,,,,"120,M,-0124,1","999,N,-0188,1","99999,9,10229,1","7,1,008,1,+999,9","SYN076AAXX  12181 02458 35978 /0000 11175 21186 30229 40257 57008 333 11124 21188;",
"02458099999","2010-01-12T21:00:00","4","59.897328","17.588581","20.72","UPPSALA, SW","FM-12","ESCM ","V020","300,1,N,0010,1","99999,9,9,N","035000,1,N,1","-0178,1","-0189,1","10259,1",,,,,,,,,"99999,9,10230,1","0,1,001,1,+999,9","SYN060AAXX  12211 02458 45981 /3001 11178 21189 30230 40259 50001;",
"02458099999","2010-01-13T00:00:00","4","59.897328","17.588581","20.72","UPPSALA, SW","FM-12","ESCM ","V020","999,9,C,0000,1","99999,9,9,N","045000,1,N,1","-0189,1","-0201,1","10253,1",,,,,,,,,"99999,9,10225,1","7,1,005,1,+999,9","SYN060AAXX  13001 02458 45983 /0000 11189 21201 30225 40253 57005;",
"02458099999","2010-01-13T03:00:00","4","59.897328","17.588581","20.72","UPPSALA, SW","FM-12","ESCM ","V020","999,9,C,0000,1","99999,9,9,N","010000,1,N,1","-0190,1","-0202,1","10246,1",,,"71,1","7,1,03,1",,,,,"99999,9,10218,1","8,1,008,1,+999,9","SYN066AAXX  13031 02458 47960 /0000 11190 21202 30218 40246 58008 77171;",
"02458099999","2010-01-13T06:00:00","4","59.897328","17.588581","20.72","UPPSALA, SW","FM-12","ESCM ","V020","999,9,C,0000,1","00030,1,C,N","000100,1,N,1","-0162,1","-0170,1","10247,1",,,"30,1","8,1,06,1","09,1,+00030,1,99,9",,"120,M,-0162,1","999,N,-0197,1","99999,9,10219,1","2,1,002,1,+999,9","SYN088AAXX  13061 02458 37/01 /0000 11162 21170 30219 40247 52002 73087 333 11162 21197 89/01;",
"02458099999","2010-01-13T09:00:00","4","59.897328","17.588581","20.72","UPPSALA, SW","FM-12","ESCM ","V020","999,9,C,0000,1","00030,1,C,N","000100,1,N,1","-0149,1","-0157,1","10251,1",,,"87,1","8,1,03,1","09,1,+00030,1,99,9",,,,"99999,9,10223,1","3,1,004,1,+999,9","SYN076AAXX  13091 02458 47/01 /0000 11149 21157 30223 40251 53004 78787 333 89/01;",
"02458099999","2010-01-13T12:00:00","4","59.897328","17.588581","20.72","UPPSALA, SW","FM-12","ESCM ","V020","999,9,C,0000,1","00120,1,C,N","000400,1,N,1","-0130,1","-0137,1","10249,1",,,"33,1","8,1,06,1","09,1,+00120,1,99,9",,,,"99999,9,10221,1","7,1,002,1,+999,9","SYN076AAXX  13121 02458 47/04 /0000 11130 21137 30221 40249 57002 73387 333 89/04;",
"02458099999","2010-01-13T15:00:00","4","59.897328","17.588581","20.72","UPPSALA, SW","FM-12","ESCM ","V020","999,9,C,0000,1","00090,1,C,N","000300,1,N,1","-0122,1","-0128,1","10247,1",,,"30,1","8,1,03,1","09,1,+00090,1,99,9",,,,"99999,9,10219,1","5,1,002,1,+999,9","SYN076AAXX  13151 02458 47/03 /0000 11122 21128 30219 40247 55002 73087 333 89/03;",
"02458099999","2010-01-13T18:00:00","4","59.897328","17.588581","20.72","UPPSALA, SW","FM-12","ESCM ","V020","999,9,C,0000,1","00060,1,C,N","999999,9,N,1","-0115,1","-0120,1","10247,1",,,,,"09,1,+00060,1,99,9",,"120,M,-0110,1","999,N,-0163,1","99999,9,10219,1","4,1,000,1,+999,9","SYN088AAXX  13181 02458 46/// /0000 11115 21120 30219 40247 54000 7//87 333 11110 21163 89/02;",
"02458099999","2010-01-13T21:00:00","4","59.897328","17.588581","20.72","UPPSALA, SW","FM-12","ESCM ","V020","999,9,C,0000,1","00060,1,C,N","999999,9,N,1","-0126,1","-0131,1","10246,1",,,,,"09,1,+00060,1,99,9",,,,"99999,9,10219,1","4,1,000,1,+999,9","SYN070AAXX  13211 02458 46/// /0000 11126 21131 30219 40246 54000 333 89/02;",
"02458099999","2010-01-14T00:00:00","4","59.897328","17.588581","20.72","UPPSALA, SW","FM-12","ESCM ","V020","999,9,C,0000,1","00180,1,C,N","999999,9,N,1","-0131,1","-0138,1","10246,1",,,,,"09,1,+00180,1,99,9",,,,"99999,9,10219,1","4,1,000,1,+999,9","SYN070AAXX  14001 02458 46/// /0000 11131 21138 30219 40246 54000 333 89/06;",
"02458099999","2010-01-14T03:00:00","4","59.897328","17.588581","20.72","UPPSALA, SW","FM-12","ESCM ","V020","999,9,C,0000,1","00210,1,C,N","999999,9,N,1","-0138,1","-0145,1","10243,1",,,,,"09,1,+00210,1,99,9",,,,"99999,9,10215,1","7,1,003,1,+999,9","SYN070AAXX  14031 02458 46/// /0000 11138 21145 30215 40243 57003 333 89/07;",
"02458099999","2010-01-14T06:00:00","4","59.897328","17.588581","20.72","UPPSALA, SW","FM-12","ESCM ","V020","999,9,C,0000,1","00120,1,C,N","999999,9,N,1","-0124,1","-0130,1","10243,1",,,,,"09,1,+00120,1,99,9",,"120,M,-0115,1","999,N,-0147,1","99999,9,10215,1","5,1,000,1,+999,9","SYN082AAXX  14061 02458 46/// /0000 11124 21130 30215 40243 55000 333 11115 21147 89/04;",
"02458099999","2010-01-14T09:00:00","4","59.897328","17.588581","20.72","UPPSALA, SW","FM-12","ESCM ","V020","999,9,C,0000,1","00210,1,C,N","000100,1,N,1","-0105,1","-0109,1","10251,1",,,"85,1","8,1,03,1","09,1,+00210,1,99,9",,,,"99999,9,10223,1","2,1,008,1,+999,9","SYN076AAXX  14091 02458 47/01 /0000 11105 21109 30223 40251 52008 78587 333 89/07;",
"02458099999","2010-01-14T12:00:00","4","59.897328","17.588581","20.72","UPPSALA, SW","FM-12","ESCM ","V020","999,9,C,0000,1","00180,1,C,N","007000,1,N,1","-0097,1","-0100,1","10255,1",,,"20,1","8,1,06,1","09,1,+00180,1,99,9",,,,"99999,9,10228,1","0,1,004,1,+999,9","SYN076AAXX  14121 02458 47/57 /0000 11097 21100 30228 40255 50004 72087 333 89/06;",
"02458099999","2010-01-14T15:00:00","4","59.897328","17.588581","20.72","UPPSALA, SW","FM-12","ESCM ","V020","999,9,C,0000,1","00180,1,C,N","006000,1,N,1","-0080,1","-0082,1","10251,1",,,"10,1","8,1,03,1","09,1,+00180,1,99,9",,,,"99999,9,10224,1","7,1,003,1,+999,9","SYN076AAXX  14151 02458 47/56 /0000 11080 21082 30224 40251 57003 71087 333 89/06;",
"02458099999","2010-01-14T21:00:00","4","59.897328","17.588581","20.72","UPPSALA, SW","FM-12","ESCM ","V020","999,9,C,0000,1","00240,1,C,N","009000,1,N,1","-0063,1","-0064,1","10267,1",,,"77,1","7,1,03,1","08,1,+00240,1,99,9",,,,"99999,9,10240,1","3,1,008,1,+999,9","SYN076AAXX  14211 02458 47359 /0000 11063 21064 30240 40267 53008 77771 333 88/08;",
"02458099999","2010-01-15T00:00:00","4","59.897328","17.588581","20.72","UPPSALA, SW","FM-12","ESCM ","V020","999,9,C,0000,1","00330,1,C,N","011000,1,N,1","-0055,1","-0055,1","10274,1",,,"00,1","7,1,06,1","08,1,+00330,1,99,9",,,,"99999,9,10247,1","2,1,007,1,+999,9","SYN076AAXX  15001 02458 47461 /0000 11055 21055 30247 40274 52007 70072 333 88/11;",
"02458099999","2010-01-15T03:00:00","4","59.897328","17.588581","20.72","UPPSALA, SW","FM-12","ESCM ","V020","999,9,C,0000,1","00360,1,C,N","014000,1,N,1","-0049,1","-0049,1","10275,1",,,,,"08,1,+00360,1,99,9",,,,"99999,9,10248,1","4,1,000,1,+999,9","SYN070AAXX  15031 02458 45464 /0000 11049 21049 30248 40275 54001 333 88/12;",
"02458099999","2010-01-15T06:00:00","4","59.897328","17.588581","20.72","UPPSALA, SW","FM-12","ESCM ","V020","999,9,C,0000,1","00540,1,C,N","015000,1,N,1","-0046,1","-0046,1","10289,1",,,,,"08,1,+00540,1,99,9",,"120,M,-0045,1","999,N,-0067,1","99999,9,10262,1","2,1,014,1,+999,9","SYN082AAXX  15061 02458 35465 /0000 11046 21046 30262 40289 52014 333 11045 21067 88/18;",
"02458099999","2010-01-15T09:00:00","4","59.897328","17.588581","20.72","UPPSALA, SW","FM-12","ESCM ","V020","999,9,C,0000,1","99999,9,9,N","012000,1,N,1","-0045,1","-0045,1","10305,1",,,,,"01,1,+00240,1,99,9",,,,"99999,9,10278,1","1,1,016,1,+999,9","SYN076AAXX  15091 02458 45362 /0000 11045 21045 30278 40305 51016 333 81/08 88/21;",
"02458099999","2010-01-15T12:00:00","4","59.897328","17.588581","20.72","UPPSALA, SW","FM-12","ESCM ","V020","080,1,N,0010,1","00720,1,C,N","019000,1,N,1","-0042,1","-0042,1","10319,1",,,,,"08,1,+00720,1,99,9",,,,"99999,9,10292,1","3,1,013,1,+999,9","SYN070AAXX  15121 02458 45569 /0801 11042 21042 30292 40319 53013 333 88/24;",
"02458099999","2010-01-15T15:00:00","4","59.897328","17.588581","20.72","UPPSALA, SW","FM-12","ESCM ","V020","999,9,C,0000,1","00660,1,C,N","008000,1,N,1","-0043,1","-0043,1","10329,1",,,"10,1","2,1,03,1","08,1,+00660,1,99,9",,,,"99999,9,10302,1","3,1,011,1,+999,9","SYN076AAXX  15151 02458 47558 /0000 11043 21043 30302 40329 53011 71010 333 88/22;",
"02458099999","2010-01-15T18:00:00","4","59.897328","17.588581","20.72","UPPSALA, SW","FM-12","ESCM ","V020","999,9,C,0000,1","00690,1,C,N","007000,1,N,1","-0041,1","-0041,1","10341,1",,,"10,1","2,1,06,1","08,1,+00690,1,99,9",,"120,M,-0032,1","999,N,-0047,1","99999,9,10314,1","1,1,011,1,+999,9","SYN088AAXX  15181 02458 37557 /0000 11041 21041 30314 40341 51011 71010 333 11032 21047 88/23;",
"02458099999","2010-01-15T21:00:00","4","59.897328","17.588581","20.72","UPPSALA, SW","FM-12","ESCM ","V020","150,1,N,0010,1","00690,1,C,N","009000,1,N,1","-0033,1","-0033,1","10351,1",,,"10,1","2,1,03,1","08,1,+00690,1,99,9",,,,"99999,9,10324,1","2,1,011,1,+999,9","SYN076AAXX  15211 02458 47559 /1501 11033 21033 30324 40351 52011 71011 333 88/23;",
"02458099999","2010-01-16T00:00:00","4","59.897328","17.588581","20.72","UPPSALA, SW","FM-12","ESCM ","V020","180,1,N,0020,1","00780,1,C,N","015000,1,N,1","-0029,1","-0029,1","10359,1",,,,,"08,1,+00780,1,99,9",,,,"99999,9,10332,1","2,1,008,1,+999,9","SYN070AAXX  16001 02458 45565 /1802 11029 21029 30332 40359 52008 333 88/26;",
"02458099999","2010-01-16T03:00:00","4","59.897328","17.588581","20.72","UPPSALA, SW","FM-12","ESCM ","V020","200,1,N,0010,1","00720,1,C,N","007000,1,N,1","-0029,1","-0029,1","10361,1",,,"10,1","2,1,03,1","08,1,+00720,1,99,9",,,,"99999,9,10334,1","2,1,001,1,+999,9","SYN076AAXX  16031 02458 47557 /2001 11029 21029 30334 40361 52001 71010 333 88/24;",
"02458099999","2010-01-16T06:00:00","4","59.897328","17.588581","20.72","UPPSALA, SW","FM-12","ESCM ","V020","150,1,N,0020,1","00750,1,C,N","014000,1,N,1","-0028,1","-0028,1","10361,1",,,,,"08,1,+00750,1,99,9",,"120,M,-0027,1","999,N,-0041,1","99999,9,10334,1","4,1,000,1,+999,9","SYN082AAXX  16061 02458 35564 /1502 11028 21028 30334 40361 54000 333 11027 21041 88/25;",
"02458099999","2010-01-16T09:00:00","4","59.897328","17.588581","20.72","UPPSALA, SW","FM-12","ESCM ","V020","160,1,N,0020,1","99999,9,9,N","010000,1,N,1","-0026,1","-0026,1","10366,1",,,"77,1","7,1,03,1","02,1,+00420,1,99,9",,,,"99999,9,10339,1","2,1,005,1,+999,9","SYN082AAXX  16091 02458 47460 /1602 11026 21026 30339 40366 52005 77774 333 82/14 88/23;",
"02458099999","2010-01-16T12:00:00","4","59.897328","17.588581","20.72","UPPSALA, SW","FM-12","ESCM ","V020","170,1,N,0020,1","00600,1,C,N","040000,1,N,1","-0019,1","-0019,1","10359,1",,,"00,1","7,1,06,1","08,1,+00600,1,99,9",,,,"99999,9,10332,1","7,1,007,1,+999,9","SYN076AAXX  16121 02458 47582 /1702 11019 21019 30332 40359 57007 70074 333 88/20;",
"02458099999","2010-01-16T15:00:00","4","59.897328","17.588581","20.72","UPPSALA, SW","FM-12","ESCM ","V020","130,1,N,0030,1","00780,1,C,N","014000,1,N,1","-0021,1","-0021,1","10350,1",,,"24,1","7,1,03,1","06,1,+00780,1,99,9",,,,"99999,9,10323,1","8,1,009,1,+999,9","SYN076AAXX  16151 02458 47564 /1303 11021 21021 30323 40350 58009 72474 333 86/26;",
"02458099999","2010-01-16T18:00:00","4","59.897328","17.588581","20.72","UPPSALA, SW","FM-12","ESCM ","V020","130,1,N,0030,1","00630,1,C,N","021000,1,N,1","-0020,1","-0022,1","10345,1",,,"00,1","8,1,06,1","08,1,+00630,1,99,9",,"120,M,-0018,1","999,N,-0029,1","99999,9,10318,1","7,1,005,1,+999,9","SYN088AAXX  16181 02458 37571 /1303 11020 21022 30318 40345 57005 70087 333 11018 21029 88/21;",
"02458099999","2010-01-16T21:00:00","4","59.897328","17.588581","20.72","UPPSALA, SW","FM-12","ESCM ","V020","120,1,N,0040,1","99999,9,9,N","015000,1,N,1","-0020,1","-0023,1","10333,1",,,,,"01,1,+00510,1,99,9",,,,"99999,9,10306,1","8,1,012,1,+999,9","SYN076AAXX  16211 02458 45465 /1204 11020 21023 30306 40333 58012 333 81/17 88/27;",
"02458099999","2010-01-17T00:00:00","4","59.897328","17.588581","20.72","UPPSALA, SW","FM-12","ESCM ","V020","160,1,N,0030,1","00450,1,C,N","009000,1,N,1","-0022,1","-0026,1","10319,1",,,"77,1","7,1,06,1","06,1,+00450,1,99,9",,,,"99999,9,10292,1","6,1,014,1,+999,9","SYN082AAXX  17001 02458 47459 /1603 11022 21026 30292 40319 56014 77774 333 86/15 88/21;",
"02458099999","2010-01-17T03:00:00","4","59.897328","17.588581","20.72","UPPSALA, SW","FM-12","ESCM ","V020","150,1,N,0020,1","00690,1,C,N","050000,1,N,1","-0019,1","-0030,1","10312,1",,,"00,1","8,1,03,1","08,1,+00690,1,99,9",,,,"99999,9,10285,1","7,1,007,1,+999,9","SYN076AAXX  17031 02458 47584 /1502 11019 21030 30285 40312 57007 70087 333 88/23;",
"02458099999","2010-01-17T06:00:00","4","59.897328","17.588581","20.72","UPPSALA, SW","FM-12","ESCM ","V020","110,1,N,0040,1","00870,1,C,N","035000,1,N,1","-0015,1","-0024,1","10302,1",,,"00,1","8,1,06,1","08,1,+00870,1,99,9",,"120,M,-0016,1","999,N,-0024,1","99999,9,10275,1","7,1,010,1,+999,9","SYN088AAXX  17061 02458 37581 /1104 11015 21024 30275 40302 57010 70087 333 11016 21024 88/29;",
"02458099999","2010-01-17T09:00:00","4","59.897328","17.588581","20.72","UPPSALA, SW","FM-12","ESCM ","V020","130,1,N,0050,1","00900,1,C,N","017000,1,N,1","-0024,1","-0035,1","10303,1",,,"77,1","7,1,03,1","05,1,+00900,1,99,9",,,,"99999,9,10276,1","2,1,001,1,+999,9","SYN082AAXX  17091 02458 47567 /1305 11024 21035 30276 40303 52001 77774 333 85/30 87/46;",
"02458099999","2010-01-17T12:00:00","4","59.897328","17.588581","20.72","UPPSALA, SW","FM-12","ESCM ","V020","130,1,N,0060,1","00690,1,C,N","050000,1,N,1","-0026,1","-0047,1","10298,1",,,"24,1","8,1,06,1","08,1,+00690,1,99,9",,,,"99999,9,10271,1","8,1,005,1,+999,9","SYN076AAXX  17121 02458 47584 /1306 11026 21047 30271 40298 58005 72487 333 88/23;",
"02458099999","2010-01-17T15:00:00","4","59.897328","17.588581","20.72","UPPSALA, SW","FM-12","ESCM ","V020","120,1,N,0050,1","00510,1,C,N","045000,1,N,1","-0036,1","-0051,1","10295,1",,,"71,1","7,1,03,1","08,1,+00510,1,99,9",,,,"99999,9,10268,1","7,1,003,1,+999,9","SYN076AAXX  17151 02458 47483 /1205 11036 21051 30268 40295 57003 77174 333 88/17;",
"02458099999","2010-01-17T18:00:00","4","59.897328","17.588581","20.72","UPPSALA, SW","FM-12","ESCM ","V020","090,1,N,0040,1","00630,1,C,N","045000,1,N,1","-0036,1","-0047,1","10290,1","12,0000,2,1",,"00,1","8,1,06,1","08,1,+00630,1,99,9",,"120,M,-0009,1","999,N,-0040,1","99999,9,10263,1","7,1,005,1,+999,9","SYN094AAXX  17181 02458 17583 /0904 11036 21047 30263 40290 57005 69912 70087 333 11009 21040 88/21;",
"02458099999","2010-01-17T21:00:00","4","59.897328","17.588581","20.72","UPPSALA, SW","FM-12","ESCM ","V020","080,1,N,0040,1","00510,1,C,N","045000,1,N,1","-0034,1","-0042,1","10284,1",,,,,"08,1,+00510,1,99,9",,,,"99999,9,10257,1","7,1,006,1,+999,9","SYN070AAXX  17211 02458 45483 /0804 11034 21042 30257 40284 57006 333 88/17;",
"02458099999","2010-01-18T00:00:00","4","59.897328","17.588581","20.72","UPPSALA, SW","FM-12","ESCM ","V020","090,1,N,0030,1","00390,1,C,N","024000,1,N,1","-0026,1","-0030,1","10278,1",,,,,"07,1,+00390,1,99,9",,,,"99999,9,10251,1","8,1,006,1,+999,9","SYN076AAXX  18001 02458 45474 /0903 11026 21030 30251 40278 58006 333 87/13 88/16;",
"02458099999","2010-01-18T03:00:00","4","59.897328","17.588581","20.72","UPPSALA, SW","FM-12","ESCM ","V020","120,1,N,0050,1","99999,9,9,N","005000,1,N,1","-0019,1","-0023,1","10276,1",,,"41,1","6,1,03,1","03,1,+00240,1,99,9",,,,"99999,9,10249,1","5,1,002,1,+999,9","SYN082AAXX  18031 02458 47350 /1205 11019 21023 30249 40276 55002 74141 333 83/08 88/11;",
"02458099999","2010-01-18T06:00:00","4","59.897328","17.588581","20.72","UPPSALA, SW","FM-12","ESCM ","V020","130,1,N,0050,1","00240,1,C,N","009000,1,N,1","-0018,1","-0022,1","10276,1","12,0000,2,1","24,0003,9,1","10,1","5,1,06,1","08,1,+00240,1,99,9",,"120,M,-0018,1","999,N,-0037,1","99999,9,10249,1","4,1,000,1,+999,9","SYN100AAXX  18061 02458 17359 /1305 11018 21022 30249 40276 54000 69912 71054 333 11018 21037 70002 88/08;",
"02458099999","2010-01-18T09:00:00","4","59.897328","17.588581","20.72","UPPSALA, SW","FM-12","ESCM ","V020","110,1,N,0020,1","00510,1,C,N","012000,1,N,1","-0018,1","-0028,1","10283,1",,,"77,1","7,1,03,1","05,1,+00510,1,99,9",,,,"99999,9,10257,1","1,1,007,1,+999,9","SYN082AAXX  18091 02458 47462 /1102 11018 21028 30257 40283 51007 77774 333 85/17 88/22;",
"02458099999","2010-01-18T12:00:00","4","59.897328","17.588581","20.72","UPPSALA, SW","FM-12","ESCM ","V020","110,1,N,0040,1","99999,9,9,N","007000,1,N,1","-0020,1","-0023,1","10274,1",,,"71,1","7,1,06,1","01,1,+01110,1,99,9",,,,"99999,9,10247,1","7,1,009,1,+999,9","SYN076AAXX  18121 02458 47657 /1104 11020 21023 30247 40274 57009 77171 333 81/37;",
"02458099999","2010-01-18T15:00:00","4","59.897328","17.588581","20.72","UPPSALA, SW","FM-12","ESCM ","V020","100,1,N,0030,1","01020,1,C,N","015000,1,N,1","-0027,1","-0033,1","10273,1",,,"24,1","7,1,03,1","08,1,+01020,1,99,9",,,,"99999,9,10246,1","4,1,000,1,+999,9","SYN076AAXX  18151 02458 47665 /1003 11027 21033 30246 40273 54001 72472 333 88/34;",
"02458099999","2010-01-18T18:00:00","4","59.897328","17.588581","20.72","UPPSALA, SW","FM-12","ESCM ","V020","110,1,N,0020,1","00960,1,C,N","002500,1,N,1","-0032,1","-0032,1","10277,1","12,0020,9,1",,"71,1","8,1,06,1","09,1,+00960,1,99,9",,"120,M,-0016,1","999,N,-0032,1","99999,9,10250,1","2,1,004,1,+999,9","SYN100AAXX  18181 02458 07/25 /1102 11032 21032 30250 40277 52004 60022 77187 333 11016 21032 69965 89/32;",
"02458099999","2010-01-18T21:00:00","4","59.897328","17.588581","20.72","UPPSALA, SW","FM-12","ESCM ","V020","110,1,N,0020,1","99999,9,9,N","006000,1,N,1","-0032,1","-0032,1","10278,1",,,"71,1","7,1,03,1","01,1,+00960,1,99,9",,,,"99999,9,10251,1","2,1,001,1,+999,9","SYN082AAXX  18211 02458 47556 /1102 11032 21032 30251 40278 52001 77177 333 81/32 86/45;",
"02458099999","2010-01-19T00:00:00","4","59.897328","17.588581","20.72","UPPSALA, SW","FM-12","ESCM ","V020","110,1,N,0020,1","99999,9,9,N","006000,1,N,1","-0028,1","-0028,1","10282,1",,,"77,1","7,1,06,1","04,1,+00660,1,99,9",,,,"99999,9,10256,1","2,1,004,1,+999,9","SYN082AAXX  19001 02458 47556 /1102 11028 21028 30256 40282 52004 77777 333 84/22 88/50;",
"02458099999","2010-01-19T03:00:00","4","59.897328","17.588581","20.72","UPPSALA, SW","FM-12","ESCM ","V020","110,1,N,0020,1","00990,1,C,N","001700,1,N,1","-0027,1","-0027,1","10285,1",,,"71,1","7,1,03,1","09,1,+00990,1,99,9",,,,"99999,9,10259,1","3,1,003,1,+999,9","SYN076AAXX  19031 02458 47/17 /1102 11027 21027 30259 40285 53003 77177 333 89/33;",
"02458099999","2010-01-19T06:00:00","4","59.897328","17.588581","20.72","UPPSALA, SW","FM-12","ESCM ","V020","050,1,N,0010,1","00390,1,C,N","009000,1,N,1","-0037,1","-0037,1","10292,1","12,0030,9,1","24,0048,9,1","85,1","8,1,06,1","08,1,+00390,1,99,9",,"120,M,-0027,1","999,N,-0051,1","99999,9,10265,1","2,1,007,1,+999,9","SYN100AAXX  19061 02458 17459 /0501 11037 21037 30265 40292 52007 60032 78587 333 11027 21051 70047 88/13;",
"02458099999","2010-01-19T09:00:00","4","59.897328","17.588581","20.72","UPPSALA, SW","FM-12","ESCM ","V020","100,1,N,0030,1","00360,1,C,N","006000,1,N,1","-0023,1","-0023,1","10306,1",,,"71,1","8,1,03,1","09,1,+00360,1,99,9",,,,"99999,9,10279,1","2,1,014,1,+999,9","SYN076AAXX  19091 02458 47/56 /1003 11023 21023 30279 40306 52014 77187 333 89/12;",
"02458099999","2010-01-19T12:00:00","4","59.897328","17.588581","20.72","UPPSALA, SW","FM-12","ESCM ","V020","100,1,N,0020,1","00960,1,C,N","005000,1,N,1","-0020,1","-0020,1","10315,1",,,"77,1","8,1,06,1","08,1,+00960,1,99,9",,,,"99999,9,10288,1","2,1,009,1,+999,9","SYN076AAXX  19121 02458 47550 /1002 11020 21020 30288 40315 52009 77787 333 88/32;",
"02458099999","2010-01-19T15:00:00","4","59.897328","17.588581","20.72","UPPSALA, SW","FM-12","ESCM ","V020","080,1,N,0020,1","00660,1,C,N","009000,1,N,1","-0023,1","-0024,1","10325,1",,,"10,1","7,1,03,1","01,1,+00330,1,99,9","07,1,+00660,1,99,9",,,"99999,9,10298,1","3,1,010,1,+999,9","SYN088AAXX  19151 02458 47459 /0802 11023 21024 30298 40325 53010 71072 333 81/11 87/22 88/28;",
"02458099999","2010-01-19T18:00:00","4","59.897328","17.588581","20.72","UPPSALA, SW","FM-12","ESCM ","V020","070,1,N,0020,1","00420,1,C,N","009000,1,N,1","-0026,1","-0027,1","10335,1","12,0000,2,1",,"10,1","7,1,06,1","05,1,+00420,1,99,9",,"120,M,-0019,1","999,N,-0037,1","99999,9,10308,1","2,1,010,1,+999,9","SYN100AAXX  19181 02458 17459 /0702 11026 21027 30308 40335 52010 69912 71072 333 11019 21037 85/14 88/25;",
"02458099999","2010-01-19T21:00:00","4","59.897328","17.588581","20.72","UPPSALA, SW","FM-12","ESCM ","V020","060,1,N,0030,1","00510,1,C,N","009000,1,N,1","-0026,1","-0031,1","10343,1",,,"41,1","6,1,03,1","06,1,+00510,1,99,9",,,,"99999,9,10316,1","3,1,007,1,+999,9","SYN082AAXX  19211 02458 47459 /0603 11026 21031 30316 40343 53007 74141 333 86/17 88/20;",
"02458099999","2010-01-20T00:00:00","4","59.897328","17.588581","20.72","UPPSALA, SW","FM-12","ESCM ","V020","080,1,N,0040,1","00330,1,C,N","016000,1,N,1","-0031,1","-0035,1","10345,1",,,"24,1","8,1,06,1","02,1,+00240,1,99,9","04,1,+00330,1,99,9",,,"99999,9,10318,1","2,1,002,1,+999,9","SYN088AAXX  20001 02458 47366 /0804 11031 21035 30318 40345 52002 72487 333 82/08 84/11 88/15;",
"02458099999","2010-01-20T03:00:00","4","59.897328","17.588581","20.72","UPPSALA, SW","FM-12","ESCM ","V020","060,1,N,0040,1","00150,1,C,N","008000,1,N,1","-0030,1","-0030,1","10346,1",,,"10,1","3,1,03,1","08,1,+00150,1,99,9",,,,"99999,9,10319,1","4,1,000,1,+999,9","SYN076AAXX  20031 02458 47258 /0604 11030 21030 30319 40346 54001 71021 333 88/05;",
"02458099999","2010-01-20T06:00:00","4","59.897328","17.588581","20.72","UPPSALA, SW","FM-12","ESCM ","V020","070,1,N,0060,1","00270,1,C,N","025000,1,N,1","-0032,1","-0038,1","10347,1","12,0000,2,1","24,0003,9,1","71,1","8,1,06,1","06,1,+00270,1,99,9",,"120,M,-0025,1","999,N,-0033,1","99999,9,10320,1","4,1,000,1,+999,9","SYN106AAXX  20061 02458 17375 /0706 11032 21038 30320 40347 54000 69912 77187 333 11025 21033 70002 86/09 88/12;",
"02458099999","2010-01-20T09:00:00","4","59.897328","17.588581","20.72","UPPSALA, SW","FM-12","ESCM ","V020","050,1,N,0040,1","99999,9,9,N","035000,1,N,1","-0044,1","-0052,1","10354,1",,,"00,1","8,1,03,1","04,1,+00510,1,99,9",,,,"99999,9,10327,1","2,1,008,1,+999,9","SYN082AAXX  20091 02458 47481 /0504 11044 21052 30327 40354 52008 70087 333 84/17 85/57;",
"02458099999","2010-01-20T12:00:00","4","59.897328","17.588581","20.72","UPPSALA, SW","FM-12","ESCM ","V020","040,1,N,0040,1","99999,9,9,N","018000,1,N,1","-0044,1","-0050,1","10348,1",,,"00,1","8,1,06,1","04,1,+01500,1,99,9",,,,"99999,9,10321,1","8,1,006,1,+999,9","SYN082AAXX  20121 02458 47768 /0404 11044 21050 30321 40348 58006 70087 333 84/50 87/57;",
"02458099999","2010-01-20T15:00:00","4","59.897328","17.588581","20.72","UPPSALA, SW","FM-12","ESCM ","V020","040,1,N,0030,1","00510,1,C,N","030000,1,N,1","-0039,1","-0042,1","10349,1",,,,,"08,1,+00510,1,99,9",,,,"99999,9,10322,1","5,1,000,1,+999,9","SYN070AAXX  20151 02458 45480 /0403 11039 21042 30322 40349 55000 333 88/17;",
"02458099999","2010-01-20T18:00:00","4","59.897328","17.588581","20.72","UPPSALA, SW","FM-12","ESCM ","V020","060,1,N,0040,1","99999,9,9,N","045000,1,N,1","-0042,1","-0049,1","10353,1",,,,,"03,1,+02700,1,99,9",,"120,M,-0032,1","999,N,-0045,1","99999,9,10325,1","2,1,004,1,+999,9","SYN082AAXX  20181 02458 35983 /0604 11042 21049 30325 40353 52004 333 11032 21045 83/59;",
"02458099999","2010-01-20T21:00:00","4","59.897328","17.588581","20.72","UPPSALA, SW","FM-12","ESCM ","V020","070,1,N,0030,1","99999,9,9,N","045000,1,N,1","-0039,1","-0045,1","10361,1",,,,,"02,1,+02700,1,99,9",,,,"99999,9,10334,1","3,1,008,1,+999,9","SYN070AAXX  20211 02458 45983 /0703 11039 21045 30334 40361 53008 333 82/59;",
"02458099999","2010-01-21T00:00:00","4","59.897328","17.588581","20.72","UPPSALA, SW","FM-12","ESCM ","V020","090,1,N,0030,1","99999,9,9,N","050000,1,N,1","-0041,1","-0048,1","10369,1",,,,,,,,,"99999,9,10342,1","2,1,008,1,+999,9","SYN060AAXX  21001 02458 45984 /0903 11041 21048 30342 40369 52008;",
"02458099999","2010-01-21T03:00:00","4","59.897328","17.588581","20.72","UPPSALA, SW","FM-12","ESCM ","V020","070,1,N,0030,1","99999,9,9,N","040000,1,N,1","-0049,1","-0052,1","10374,1",,,,,"01,1,+02700,1,99,9",,,,"99999,9,10347,1","2,1,004,1,+999,9","SYN070AAXX  21031 02458 45982 /0703 11049 21052 30347 40374 52004 333 81/59;",
"02458099999","2010-01-21T06:00:00","4","59.897328","17.588581","20.72","UPPSALA, SW","FM-12","ESCM ","V020","080,1,N,0020,1","99999,9,9,N","050000,1,N,1","-0048,1","-0052,1","10383,1",,,,,"02,1,+00510,1,99,9",,"120,M,-0037,1","999,N,-0052,1","99999,9,10356,1","3,1,009,1,+999,9","SYN088AAXX  21061 02458 35484 /0802 11048 21052 30356 40383 53009 333 11037 21052 82/17 83/65;",
"02458099999","2010-01-21T09:00:00","4","59.897328","17.588581","20.72","UPPSALA, SW","FM-12","ESCM ","V020","080,1,N,0030,1","99999,9,9,N","040000,1,N,1","-0059,1","-0062,1","10400,1",,,,,"01,1,+00570,1,99,9",,,,"99999,9,10373,1","2,1,017,1,+999,9","SYN070AAXX  21091 02458 45482 /0803 11059 21062 30373 40400 52017 333 81/19;",
"02458099999","2010-01-21T12:00:00","4","59.897328","17.588581","20.72","UPPSALA, SW","FM-12","ESCM ","V020","090,1,N,0030,1","99999,9,9,N","045000,1,N,1","-0039,1","-0050,1","10401,1",,,,,,,,,"99999,9,10374,1","0,1,001,1,+999,9","SYN060AAXX  21121 02458 45983 /0903 11039 21050 30374 40401 50001;",
"02458099999","2010-01-21T15:00:00","4","59.897328","17.588581","20.72","UPPSALA, SW","FM-12","ESCM ","V020","110,1,N,0030,1","00480,1,C,N","050000,1,N,1","-0038,1","-0050,1","10407,1",,,,,"08,1,+00480,1,99,9",,,,"99999,9,10380,1","3,1,006,1,+999,9","SYN070AAXX  21151 02458 45484 /1103 11038 21050 30380 40407 53006 333 88/16;",
"02458099999","2010-01-21T18:00:00","4","59.897328","17.588581","20.72","UPPSALA, SW","FM-12","ESCM ","V020","080,1,N,0030,1","00600,1,C,N","035000,1,N,1","-0041,1","-0049,1","10407,1",,,,,"08,1,+00600,1,99,9",,"120,M,-0036,1","999,N,-0071,1","99999,9,10380,1","4,1,000,1,+999,9","SYN082AAXX  21181 02458 35581 /0803 11041 21049 30380 40407 54000 333 11036 21071 88/20;",
"02458099999","2010-01-21T21:00:00","4","59.897328","17.588581","20.72","UPPSALA, SW","FM-12","ESCM ","V020","100,1,N,0040,1","00480,1,C,N","050000,1,N,1","-0042,1","-0055,1","10410,1",,,,,"08,1,+00480,1,99,9",,,,"99999,9,10382,1","2,1,002,1,+999,9","SYN070AAXX  21211 02458 45484 /1004 11042 21055 30382 40410 52002 333 88/16;",
"02458099999","2010-01-22T00:00:00","4","59.897328","17.588581","20.72","UPPSALA, SW","FM-12","ESCM ","V020","130,1,N,0040,1","00330,1,C,N","050000,1,N,1","-0046,1","-0058,1","10412,1",,,,,"08,1,+00330,1,99,9",,,,"99999,9,10384,1","2,1,002,1,+999,9","SYN070AAXX  22001 02458 45484 /1304 11046 21058 30384 40412 52002 333 88/11;",
"02458099999","2010-01-22T03:00:00","4","59.897328","17.588581","20.72","UPPSALA, SW","FM-12","ESCM ","V020","100,1,N,0030,1","00450,1,C,N","050000,1,N,1","-0050,1","-0061,1","10409,1",,,,,"08,1,+00450,1,99,9",,,,"99999,9,10382,1","7,1,002,1,+999,9","SYN070AAXX  22031 02458 45484 /1003 11050 21061 30382 40409 57002 333 88/15;",
"02458099999","2010-01-22T06:00:00","4","59.897328","17.588581","20.72","UPPSALA, SW","FM-12","ESCM ","V020","080,1,N,0020,1","00600,1,C,N","040000,1,N,1","-0052,1","-0060,1","10405,1",,,,,"08,1,+00600,1,99,9",,"120,M,-0039,1","999,N,-0054,1","99999,9,10378,1","8,1,004,1,+999,9","SYN082AAXX  22061 02458 35582 /0802 11052 21060 30378 40405 58004 333 11039 21054 88/20;",
"02458099999","2010-01-22T09:00:00","4","59.897328","17.588581","20.72","UPPSALA, SW","FM-12","ESCM ","V020","090,1,N,0020,1","00690,1,C,N","029000,1,N,1","-0048,1","-0055,1","10411,1",,,,,"08,1,+00690,1,99,9",,,,"99999,9,10383,1","3,1,005,1,+999,9","SYN070AAXX  22091 02458 45579 /0902 11048 21055 30383 40411 53005 333 88/23;",
"02458099999","2010-01-22T12:00:00","4","59.897328","17.588581","20.72","UPPSALA, SW","FM-12","ESCM ","V020","120,1,N,0030,1","99999,9,9,N","030000,1,N,1","-0037,1","-0047,1","10407,1",,,,,"02,1,+05100,1,99,9",,,,"99999,9,10380,1","7,1,004,1,+999,9","SYN070AAXX  22121 02458 45980 /1203 11037 21047 30380 40407 57004 333 82/67;",
"02458099999","2010-01-25T09:00:00","4","59.897328","17.588581","20.72","UPPSALA, SW","FM-12","ESCM ","V020","190,1,N,0020,1","02100,1,C,N","027000,1,N,1","-0073,1","-0082,1","10401,1",,,,,"08,1,+02100,1,99,9",,,,"99999,9,10373,1",,"SYN064AAXX  25091 02458 45877 /1902 11073 21082 30373 40401 333 88/57;",
"02458099999","2010-01-25T12:00:00","4","59.897328","17.588581","20.72","UPPSALA, SW","FM-12","ESCM ","V020","190,1,N,0030,1","01800,1,C,N","030000,1,N,1","-0063,1","-0076,1","10399,1",,,,,"08,1,+01800,1,99,9",,,,"99999,9,10371,1","8,1,002,1,+999,9","SYN070AAXX  25121 02458 45780 /1903 11063 21076 30371 40399 58002 333 88/56;",
"02458099999","2010-01-25T15:00:00","4","59.897328","17.588581","20.72","UPPSALA, SW","FM-12","ESCM ","V020","180,1,N,0020,1","01500,1,C,N","035000,1,N,1","-0064,1","-0076,1","10397,1",,,,,"08,1,+01500,1,99,9",,,,"99999,9,10370,1","5,1,001,1,+999,9","SYN070AAXX  25151 02458 45781 /1802 11064 21076 30370 40397 55001 333 88/50;",
"02458099999","2010-01-25T21:00:00","4","59.897328","17.588581","20.72","UPPSALA, SW","FM-12","ESCM ","V020","220,1,N,0010,1","00420,1,C,N","020000,1,N,1","-0069,1","-0077,1","10411,1",,,"00,1","8,1,03,1","08,1,+00420,1,99,9",,,,"99999,9,10384,1","3,1,006,1,+999,9","SYN076AAXX  25211 02458 47470 /2201 11069 21077 30384 40411 53006 70087 333 88/14;",
"02458099999","2010-01-26T00:00:00","4","59.897328","17.588581","20.72","UPPSALA, SW","FM-12","ESCM ","V020","220,1,N,0010,1","00420,1,C,N","016000,1,N,1","-0072,1","-0080,1","10415,1",,,"00,1","8,1,06,1","08,1,+00420,1,99,9",,,,"99999,9,10387,1","0,1,003,1,+999,9","SYN076AAXX  26001 02458 47466 /2201 11072 21080 30387 40415 50003 70087 333 88/14;",
"02458099999","2010-01-26T03:00:00","4","59.897328","17.588581","20.72","UPPSALA, SW","FM-12","ESCM ","V020","250,1,N,0020,1","00360,1,C,N","027000,1,N,1","-0072,1","-0085,1","10422,1",,,,,"08,1,+00360,1,99,9",,,,"99999,9,10394,1","3,1,007,1,+999,9","SYN070AAXX  26031 02458 45477 /2502 11072 21085 30394 40422 53007 333 88/12;",
"02458099999","2010-01-26T06:00:00","4","59.897328","17.588581","20.72","UPPSALA, SW","FM-12","ESCM ","V020","090,1,N,0010,1","00360,1,C,N","018000,1,N,1","-0077,1","-0090,1","10423,1",,,"00,1","8,1,06,1","08,1,+00360,1,99,9",,"120,M,-0065,1","999,N,-0078,1","99999,9,10395,1","3,1,001,1,+999,9","SYN088AAXX  26061 02458 37468 /0901 11077 21090 30395 40423 53001 70084 333 11065 21078 88/12;",
"02458099999","2010-01-26T09:00:00","4","59.897328","17.588581","20.72","UPPSALA, SW","FM-12","ESCM ","V020","140,1,N,0020,1","00270,1,C,N","009000,1,N,1","-0082,1","-0092,1","10430,1",,,"71,1","7,1,03,1","08,1,+00270,1,99,9",,,,"99999,9,10402,1","0,1,007,1,+999,9","SYN076AAXX  26091 02458 47359 /1402 11082 21092 30402 40430 50007 77170 333 88/09;",
"02458099999","2010-01-26T12:00:00","4","59.897328","17.588581","20.72","UPPSALA, SW","FM-12","ESCM ","V020","110,1,N,0010,1","00270,1,C,N","010000,1,N,1","-0087,1","-0097,1","10428,1",,,"71,1","7,1,06,1","08,1,+00270,1,99,9",,,,"99999,9,10400,1","8,1,001,1,+999,9","SYN076AAXX  26121 02458 47360 /1101 11087 21097 30400 40428 58001 77170 333 88/09;",
"02458099999","2010-01-26T18:00:00","4","59.897328","17.588581","20.72","UPPSALA, SW","FM-12","ESCM ","V020","210,1,N,0010,1","00210,1,C,N","014000,1,N,1","-0097,1","-0102,1","10405,1","12,0005,9,1",,"85,1","8,1,06,1","08,1,+00210,1,99,9",,"120,M,-0077,1","999,N,-0097,1","99999,9,10377,1","8,1,006,1,+999,9","SYN094AAXX  26181 02458 17364 /2101 11097 21102 30377 40405 58006 69962 78587 333 11077 21097 88/07;",
"02458099999","2010-01-26T21:00:00","4","59.897328","17.588581","20.72","UPPSALA, SW","FM-12","ESCM ","V020","190,1,N,0040,1","00150,1,C,N","009000,1,N,1","-0096,1","-0098,1","10385,1",,,"71,1","8,1,03,1","08,1,+00150,1,99,9",,,,"99999,9,10357,1","8,1,020,1,+999,9","SYN076AAXX  26211 02458 47259 /1904 11096 21098 30357 40385 58020 77187 333 88/05;",
"02458099999","2010-01-27T00:00:00","4","59.897328","17.588581","20.72","UPPSALA, SW","FM-12","ESCM ","V020","200,1,N,0020,1","00210,1,C,N","016000,1,N,1","-0096,1","-0099,1","10343,1",,,"00,1","8,1,06,1","08,1,+00210,1,99,9",,,,"99999,9,10316,1","8,1,041,1,+999,9","SYN076AAXX  27001 02458 47366 /2002 11096 21099 30316 40343 58041 70087 333 88/07;",
"02458099999","2010-01-27T03:00:00","4","59.897328","17.588581","20.72","UPPSALA, SW","FM-12","ESCM ","V020","190,1,N,0050,1","00180,1,C,N","013000,1,N,1","-0096,1","-0099,1","10286,1",,,"77,1","7,1,03,1","08,1,+00180,1,99,9",,,,"99999,9,10259,1","8,1,057,2,+999,9","SYN076AAXX  27031 02458 47363 /1905 11096 21099 30259 40286 58057 77770 333 88/06;","Q01+000572APC3  "
"02458099999","2010-01-27T06:00:00","4","59.897328","17.588581","20.72","UPPSALA, SW","FM-12","ESCM ","V020","180,1,N,0050,1","00210,1,C,N","016000,1,N,1","-0096,1","-0100,1","10219,1","24,0005,9,1",,"00,1","7,1,06,1","08,1,+00210,1,99,9",,"120,M,-0093,1","999,N,-0101,1","99999,9,10192,1","8,1,067,1,+999,9","SYN094AAXX  27061 02458 37366 /1805 11096 21100 30192 40219 58067 70072 333 11093 21101 70006 88/07;",
"02458099999","2010-01-27T09:00:00","4","59.897328","17.588581","20.72","UPPSALA, SW","FM-12","ESCM ","V020","170,1,N,0060,1","00330,1,C,N","026000,1,N,1","-0079,1","-0087,1","10135,1",,,,,"08,1,+00330,1,99,9",,,,"99999,9,10108,1","8,1,084,1,+999,9","SYN070AAXX  27091 02458 45476 /1706 11079 21087 30108 40135 58084 333 88/11;",
"02458099999","2010-01-27T12:00:00","4","59.897328","17.588581","20.72","UPPSALA, SW","FM-12","ESCM ","V020","160,1,N,0060,1","00090,1,C,N","000500,1,N,1","-0049,1","-0050,1","10046,1",,,"72,1","7,1,06,1","09,1,+00090,1,99,9",,,,"99999,9,10020,1","8,1,088,1,+999,9","SYN076AAXX  27121 02458 47/05 /1606 11049 21050 30020 40046 58088 77271 333 89/03;",
"02458099999","2010-01-27T15:00:00","4","59.897328","17.588581","20.72","UPPSALA, SW","FM-12","ESCM ","V020","170,1,N,0060,1","00270,1,C,N","001200,1,N,1","-0039,1","-0040,1","09970,1",,,"71,1","7,1,03,1","09,1,+00270,1,99,9",,,,"99999,9,09944,1","8,1,076,1,+999,9","SYN076AAXX  27151 02458 47/12 /1706 11039 21040 39944 49970 58076 77177 333 89/09;",
"02458099999","2010-01-27T18:00:00","4","59.897328","17.588581","20.72","UPPSALA, SW","FM-12","ESCM ","V020","160,1,N,0030,1","00330,1,C,N","008000,1,N,1","-0027,1","-0027,1","09918,1","12,0071,9,1",,"71,1","7,1,06,1","07,1,+00330,1,99,9",,"120,M,-0027,1","999,N,-0096,1","99999,9,09892,1","6,1,052,1,+999,9","SYN106AAXX  27181 02458 07458 /1603 11027 21027 39892 49918 56052 60072 77177 333 11027 21096 69915 87/11 88/14;",
"02458099999","2010-01-27T21:00:00","4","59.897328","17.588581","20.72","UPPSALA, SW","FM-12","ESCM ","V020","070,1,N,0020,1","00210,1,C,N","001300,1,N,1","-0032,1","-0032,1","09887,1",,,"71,1","7,1,03,1","09,1,+00210,1,99,9",,,,"99999,9,09861,1","8,1,031,1,+999,9","SYN076AAXX  27211 02458 47/13 /0702 11032 21032 39861 49887 58031 77177 333 89/07;",
"02458099999","2010-01-28T00:00:00","4","59.897328","17.588581","20.72","UPPSALA, SW","FM-12","ESCM ","V020","100,1,N,0030,1","00270,1,C,N","001100,1,N,1","-0029,1","-0029,1","09866,1",,,"71,1","7,1,06,1","09,1,+00270,1,99,9",,,,"99999,9,09840,1","6,1,021,1,+999,9","SYN076AAXX  28001 02458 47/11 /1003 11029 21029 39840 49866 56021 77177 333 89/09;",
"02458099999","2010-01-28T03:00:00","4","59.897328","17.588581","20.72","UPPSALA, SW","FM-12","ESCM ","V020","110,1,N,0040,1","00450,1,C,N","001200,1,N,1","-0029,1","-0029,1","09855,1",,,"71,1","7,1,03,1","09,1,+00450,1,99,9",,,,"99999,9,09830,1","7,1,010,1,+999,9","SYN076AAXX  28031 02458 47/12 /1104 11029 21029 39830 49855 57010 77177 333 89/15;",
"02458099999","2010-01-28T06:00:00","4","59.897328","17.588581","20.72","UPPSALA, SW","FM-12","ESCM ","V020","120,1,N,0060,1","00390,1,C,N","003700,1,N,1","-0034,1","-0034,1","09856,1","12,0071,9,1","24,0132,9,1","77,1","7,1,06,1","09,1,+00390,1,99,9",,"120,M,-0026,1","999,N,-0034,1","99999,9,09831,1","4,1,000,1,+999,9","SYN106AAXX  28061 02458 07/37 /1206 11034 21034 39831 49856 54001 60072 77777 333 11026 21034 69935 70132 89/13;",
"02458099999","2010-01-28T09:00:00","4","59.897328","17.588581","20.72","UPPSALA, SW","FM-12","ESCM ","V020","110,1,N,0060,1","00840,1,C,N","005000,1,N,1","-0051,1","-0055,1","09876,1",,,"71,1","7,1,03,1","02,1,+00480,1,99,9","06,1,+00840,1,99,9",,,"99999,9,09850,1","1,1,020,1,+999,9","SYN088AAXX  28091 02458 47450 /1106 11051 21055 39850 49876 51020 77177 333 82/16 86/28 88/46;",
"02458099999","2010-01-28T12:00:00","4","59.897328","17.588581","20.72","UPPSALA, SW","FM-12","ESCM ","V020","090,1,N,0050,1","99999,9,9,N","006000,1,N,1","-0065,1","-0075,1","09883,1",,,"71,1","7,1,06,1","02,1,+00390,1,99,9",,,,"99999,9,09857,1","2,1,007,1,+999,9","SYN082AAXX  28121 02458 47456 /0905 11065 21075 39857 49883 52007 77177 333 82/13 83/17;",
"02458099999","2010-01-28T15:00:00","4","59.897328","17.588581","20.72","UPPSALA, SW","FM-12","ESCM ","V020","070,1,N,0040,1","00840,1,C,N","008000,1,N,1","-0082,1","-0092,1","09891,1",,,"71,1","8,1,03,1","07,1,+00840,1,99,9",,,,"99999,9,09865,1","3,1,008,1,+999,9","SYN082AAXX  28151 02458 47558 /0704 11082 21092 39865 49891 53008 77187 333 87/28 88/33;",
"02458099999","2010-01-28T18:00:00","4","59.897328","17.588581","20.72","UPPSALA, SW","FM-12","ESCM ","V020","030,1,N,0030,1","00690,1,C,N","009000,1,N,1","-0090,1","-0099,1","09897,1","12,0010,9,1",,"71,1","8,1,06,1","08,1,+00690,1,99,9",,"120,M,-0034,1","999,N,-0091,1","99999,9,09871,1","2,1,006,1,+999,9","SYN094AAXX  28181 02458 17559 /0303 11090 21099 39871 49897 52006 60012 77187 333 11034 21091 88/23;",
"02458099999","2010-01-28T21:00:00","4","59.897328","17.588581","20.72","UPPSALA, SW","FM-12","ESCM ","V020","040,1,N,0030,1","00690,1,C,N","006000,1,N,1","-0100,1","-0107,1","09899,1",,,"71,1","7,1,03,1","08,1,+00690,1,99,9",,,,"99999,9,09873,1","2,1,002,1,+999,9","SYN076AAXX  28211 02458 47556 /0403 11100 21107 39873 49899 52002 77177 333 88/23;",
"02458099999","2010-01-29T00:00:00","4","59.897328","17.588581","20.72","UPPSALA, SW","FM-12","ESCM ","V020","020,1,N,0030,1","99999,9,9,N","005000,1,N,1","-0107,1","-0117,1","09899,1",,,"71,1","7,1,06,1","01,1,+00390,1,99,9",,,,"99999,9,09873,1","4,1,000,1,+999,9","SYN082AAXX  29001 02458 47450 /0203 11107 21117 39873 49899 54000 77177 333 81/13 88/18;",
"02458099999","2010-01-29T03:00:00","4","59.897328","17.588581","20.72","UPPSALA, SW","FM-12","ESCM ","V020","360,1,N,0020,1","99999,9,9,N","005000,1,N,1","-0106,1","-0117,1","09896,1",,,"71,1","7,1,03,1","01,1,+00360,1,99,9",,,,"99999,9,09870,1","7,1,003,1,+999,9","SYN082AAXX  29031 02458 47450 /3602 11106 21117 39870 49896 57003 77177 333 81/12 88/20;",
"02458099999","2010-01-29T06:00:00","4","59.897328","17.588581","20.72","UPPSALA, SW","FM-12","ESCM ","V020","020,1,N,0030,1","99999,9,9,N","007000,1,N,1","-0108,1","-0124,1","09901,1","12,0005,9,1","24,0018,9,1","71,1","7,1,06,1","01,1,+00360,1,99,9",,"120,M,-0089,1","999,N,-0111,1","99999,9,09874,1","2,1,005,1,+999,9","SYN112AAXX  29061 02458 07457 /0203 11108 21124 39874 49901 52005 69962 77177 333 11089 21111 69915 70017 81/12 88/20;",
"02458099999","2010-01-29T09:00:00","4","59.897328","17.588581","20.72","UPPSALA, SW","FM-12","ESCM ","V020","340,1,N,0020,1","99999,9,9,N","004300,1,N,1","-0133,1","-0142,1","09902,1",,,"85,1","8,1,03,1","04,1,+00450,1,99,9",,,,"99999,9,09876,1","2,1,001,1,+999,9","SYN082AAXX  29091 02458 47443 /3402 11133 21142 39876 49902 52001 78587 333 84/15 88/23;",
"02458099999","2010-01-29T12:00:00","4","59.897328","17.588581","20.72","UPPSALA, SW","FM-12","ESCM ","V020","340,1,N,0030,1","00420,1,C,N","006000,1,N,1","-0140,1","-0150,1","09899,1",,,"71,1","8,1,06,1","02,1,+00210,1,99,9","05,1,+00420,1,99,9",,,"99999,9,09872,1","8,1,004,1,+999,9","SYN088AAXX  29121 02458 47356 /3403 11140 21150 39872 49899 58004 77187 333 82/07 85/14 88/20;",
"02458099999","2010-01-29T15:00:00","4","59.897328","17.588581","20.72","UPPSALA, SW","FM-12","ESCM ","V020","350,1,N,0020,1","00480,1,C,N","010000,1,N,1","-0129,1","-0140,1","09900,1",,,"85,1","8,1,03,1","04,1,+00210,1,99,9","06,1,+00480,1,99,9",,,"99999,9,09873,1","4,1,000,1,+999,9","SYN088AAXX  29151 02458 47360 /3502 11129 21140 39873 49900 54001 78587 333 84/07 86/16 87/23;",
"02458099999","2010-01-29T18:00:00","4","59.897328","17.588581","20.72","UPPSALA, SW","FM-12","ESCM ","V020","310,1,N,0020,1","00180,1,C,N","003900,1,N,1","-0117,1","-0123,1","09900,1","12,0008,9,1",,"71,1","8,1,06,1","06,1,+00180,1,99,9",,"120,M,-0108,1","999,N,-0147,1","99999,9,09874,1","4,1,000,1,+999,9","SYN106AAXX  29181 02458 07239 /3102 11117 21123 39874 49900 54001 69972 77187 333 11108 21147 69915 86/06 88/34;",
"02458099999","2010-01-29T21:00:00","4","59.897328","17.588581","20.72","UPPSALA, SW","FM-12","ESCM ","V020","310,1,N,0040,1","00210,1,C,N","003700,1,N,1","-0129,1","-0136,1","09905,1",,,"71,1","7,1,03,1","05,1,+00210,1,99,9",,,,"99999,9,09878,1","3,1,005,1,+999,9","SYN082AAXX  29211 02458 47337 /3104 11129 21136 39878 49905 53005 77177 333 85/07 88/24;",
"02458099999","2010-01-30T00:00:00","4","59.897328","17.588581","20.72","UPPSALA, SW","FM-12","ESCM ","V020","320,1,N,0020,1","00210,1,C,N","009000,1,N,1","-0148,1","-0158,1","09908,1",,,"71,1","7,1,06,1","08,1,+00210,1,99,9",,,,"99999,9,09881,1","3,1,003,1,+999,9","SYN076AAXX  30001 02458 47359 /3202 11148 21158 39881 49908 53003 77177 333 88/07;",
"02458099999","2010-01-30T03:00:00","4","59.897328","17.588581","20.72","UPPSALA, SW","FM-12","ESCM ","V020","320,1,N,0020,1","00810,1,C,N","004400,1,N,1","-0126,1","-0135,1","09909,1",,,"71,1","7,1,03,1","02,1,+00240,1,99,9","04,1,+00810,1,99,9",,,"99999,9,09883,1","2,1,002,1,+999,9","SYN088AAXX  30031 02458 47344 /3202 11126 21135 39883 49909 52002 77177 333 82/08 84/27 87/42;",
"02458099999","2010-01-30T06:00:00","4","59.897328","17.588581","20.72","UPPSALA, SW","FM-12","ESCM ","V020","310,1,N,0020,1","01110,1,C,N","014000,1,N,1","-0135,1","-0145,1","09914,1","12,0020,9,1","24,0028,9,1","71,1","7,1,06,1","05,1,+01110,1,99,9",,"120,M,-0115,1","999,N,-0158,1","99999,9,09887,1","3,1,004,1,+999,9","SYN106AAXX  30061 02458 17664 /3102 11135 21145 39887 49914 53004 60022 77177 333 11115 21158 70029 85/37 88/50;",
"02458099999","2010-01-30T09:00:00","4","59.897328","17.588581","20.72","UPPSALA, SW","FM-12","ESCM ","V020","320,1,N,0030,1","99999,9,9,N","014000,1,N,1","-0138,1","-0148,1","09922,1",,,"71,1","7,1,03,1","02,1,+00780,1,99,9",,,,"99999,9,09896,1","3,1,008,1,+999,9","SYN076AAXX  30091 02458 47564 /3203 11138 21148 39896 49922 53008 77177 333 82/26;",
"02458099999","2010-01-30T12:00:00","4","59.897328","17.588581","20.72","UPPSALA, SW","FM-12","ESCM ","V020","340,1,N,0040,1","00570,1,C,N","004400,1,N,1","-0113,1","-0124,1","09924,1",,,"71,1","8,1,06,1","02,1,+00480,1,99,9","04,1,+00570,1,99,9",,,"99999,9,09898,1","2,1,002,1,+999,9","SYN088AAXX  30121 02458 47444 /3404 11113 21124 39898 49924 52002 77187 333 82/16 84/19 88/25;",
"02458099999","2010-01-30T15:00:00","4","59.897328","17.588581","20.72","UPPSALA, SW","FM-12","ESCM ","V020","350,1,N,0020,1","99999,9,9,N","013000,1,N,1","-0129,1","-0137,1","09924,1",,,"71,1","7,1,03,1","01,1,+00450,1,99,9",,,,"99999,9,09898,1","5,1,000,1,+999,9","SYN082AAXX  30151 02458 47463 /3502 11129 21137 39898 49924 55000 77177 333 81/15 88/46;",
"02458099999","2010-01-30T18:00:00","4","59.897328","17.588581","20.72","UPPSALA, SW","FM-12","ESCM ","V020","340,1,N,0030,1","99999,9,9,N","006000,1,N,1","-0121,1","-0129,1","09928,1","12,0010,9,1",,"71,1","8,1,06,1","01,1,+00270,1,99,9",,"120,M,-0109,1","999,N,-0155,1","99999,9,09902,1","2,1,004,1,+999,9","SYN106AAXX  30181 02458 07356 /3403 11121 21129 39902 49928 52004 60012 77187 333 11109 21155 69915 81/09 88/14;",
"02458099999","2010-01-30T21:00:00","4","59.897328","17.588581","20.72","UPPSALA, SW","FM-12","ESCM ","V020","320,1,N,0020,1","99999,9,9,N","017000,1,N,1","-0122,1","-0129,1","09927,1",,,"21,1","8,1,03,1","01,1,+00540,1,99,9",,,,"99999,9,09900,1","8,1,002,1,+999,9","SYN082AAXX  30211 02458 47467 /3202 11122 21129 39900 49927 58002 72187 333 81/18 85/29;",
"02458099999","2010-01-31T00:00:00","4","59.897328","17.588581","20.72","UPPSALA, SW","FM-12","ESCM ","V020","320,1,N,0040,1","99999,9,9,N","017000,1,N,1","-0117,1","-0125,1","09924,1",,,"85,1","8,1,06,1","02,1,+00570,1,99,9",,,,"99999,9,09897,1","7,1,002,1,+999,9","SYN076AAXX  31001 02458 47467 /3204 11117 21125 39897 49924 57002 78587 333 82/19;",
"02458099999","2010-01-31T03:00:00","4","59.897328","17.588581","20.72","UPPSALA, SW","FM-12","ESCM ","V020","320,1,N,0050,1","99999,9,9,N","004200,1,N,1","-0101,1","-0109,1","09924,1",,,"71,1","8,1,03,1","03,1,+00600,1,99,9",,,,"99999,9,09897,1","5,1,000,1,+999,9","SYN076AAXX  31031 02458 47542 /3205 11101 21109 39897 49924 55000 77187 333 83/20;",
"02458099999","2010-01-31T06:00:00","4","59.897328","17.588581","20.72","UPPSALA, SW","FM-12","ESCM ","V020","320,1,N,0050,1","00660,1,C,N","010000,1,N,1","-0108,1","-0117,1","09932,1","12,0010,9,1","24,0023,9,1","71,1","8,1,06,1","07,1,+00660,1,99,9",,"120,M,-0100,1","999,N,-0161,1","99999,9,09905,1","3,1,008,1,+999,9","SYN106AAXX  31061 02458 07560 /3205 11108 21117 39905 49932 53008 60012 77187 333 11100 21161 69915 70022 87/22;",
"02458099999","2010-01-31T09:00:00","4","59.897328","17.588581","20.72","UPPSALA, SW","FM-12","ESCM ","V020","310,1,N,0040,1","01230,1,C,N","009000,1,N,1","-0111,1","-0122,1","09958,1",,,"71,1","7,1,03,1","09,1,+01230,1,99,9",,,,"99999,9,09931,1","3,1,026,1,+999,9","SYN076AAXX  31091 02458 47/59 /3104 11111 21122 39931 49958 53026 77177 333 89/41;",
"02458099999","2010-01-31T12:00:00","4","59.897328","17.588581","20.72","UPPSALA, SW","FM-12","ESCM ","V020","290,1,N,0040,1","00990,1,C,N","012000,1,N,1","-0108,1","-0122,1","09981,1",,,"71,1","7,1,06,1","08,1,+00990,1,99,9",,,,"99999,9,09954,1","2,1,023,1,+999,9","SYN076AAXX  31121 02458 47562 /2904 11108 21122 39954 49981 52023 77177 333 88/33;",
"02458099999","2010-01-31T15:00:00","4","59.897328","17.588581","20.72","UPPSALA, SW","FM-12","ESCM ","V020","280,1,N,0010,1","00840,1,C,N","011000,1,N,1","-0136,1","-0142,1","10005,1",,,"71,1","7,1,03,1","05,1,+00840,1,99,9",,,,"99999,9,09978,1","2,1,024,1,+999,9","SYN082AAXX  31151 02458 47561 /2801 11136 21142 39978 40005 52024 77177 333 85/28 88/45;",
"02458099999","2010-01-31T18:00:00","4","59.897328","17.588581","20.72","UPPSALA, SW","FM-12","ESCM ","V020","999,9,C,0000,1","99999,9,9,N","000100,1,N,1","-0216,1","-0227,1","10029,1","12,0010,9,1",,"33,1","8,1,06,1","01,1,+00870,1,99,9",,"120,M,-0099,1","999,N,-0231,1","99999,9,10001,1","2,1,023,1,+999,9","SYN094AAXX  31181 02458 17501 /0000 11216 21227 30001 40029 52023 60012 73387 333 11099 21231 81/29;",
"02458099999","2010-01-31T21:00:00","4","59.897328","17.588581","20.72","UPPSALA, SW","FM-12","ESCM ","V020","999,9,C,0000,1","99999,9,9,N","010000,1,N,1","-0228,1","-0244,1","10044,1",,,"24,1","8,1,03,1","01,1,+01500,1,99,9",,,,"99999,9,10016,1","1,1,015,1,+999,9","SYN076AAXX  31211 02458 47760 /0000 11228 21244 30016 40044 51015 72487 333 81/50;",
"02458099999","2010-02-01T00:00:00","4","59.897328","17.588581","20.72","UPPSALA, SW","FM-12","ESCM ","V020","350,1,N,0010,1","00990,1,C,N","004300,1,N,1","-0140,1","-0147,1","10044,1",,,"71,1","8,1,06,1","08,1,+00990,1,99,9",,,,"99999,9,10017,1","0,1,001,1,+999,9","SYN076AAXX  01001 02458 47543 /3501 11140 21147 30017 40044 50001 77187 333 88/33;",
"02458099999","2010-02-01T03:00:00","4","59.897328","17.588581","20.72","UPPSALA, SW","FM-12","ESCM ","V020","110,1,N,0030,1","00570,1,C,N","011000,1,N,1","-0082,1","-0085,1","10035,1",,,"77,1","7,1,03,1","08,1,+00570,1,99,9",,,,"99999,9,10009,1","7,1,009,1,+999,9","SYN076AAXX  01031 02458 47461 /1103 11082 21085 30009 40035 57009 77777 333 88/19;",
"02458099999","2010-02-01T06:00:00","4","59.897328","17.588581","20.72","UPPSALA, SW","FM-12","ESCM ","V020","100,1,N,0020,1","99999,9,9,N","014000,1,N,1","-0057,1","-0059,1","10037,1","12,0008,9,1","24,0018,9,1","24,1","7,1,06,1","03,1,+00990,1,99,9",,"120,M,-0049,1","999,N,-0236,1","99999,9,10011,1","3,1,002,1,+999,9","SYN106AAXX  01061 02458 17564 /1002 11057 21059 30011 40037 53002 69982 72472 333 11049 21236 70019 83/33 88/58;",
"02458099999","2010-02-01T09:00:00","4","59.897328","17.588581","20.72","UPPSALA, SW","FM-12","ESCM ","V020","130,1,N,0050,1","00840,1,C,N","019000,1,N,1","-0030,1","-0035,1","10045,1",,,"24,1","8,1,03,1","05,1,+00840,1,99,9",,,,"99999,9,10019,1","2,1,008,1,+999,9","SYN082AAXX  01091 02458 47569 /1305 11030 21035 30019 40045 52008 72487 333 85/28 88/37;",
"02458099999","2010-02-01T12:00:00","4","59.897328","17.588581","20.72","UPPSALA, SW","FM-12","ESCM ","V020","130,1,N,0050,1","00480,1,C,N","028000,1,N,1","-0018,1","-0030,1","10047,1",,,"00,1","8,1,06,1","08,1,+00480,1,99,9",,,,"99999,9,10021,1","2,1,003,1,+999,9","SYN076AAXX  01121 02458 47478 /1305 11018 21030 30021 40047 52003 70082 333 88/16;",
"02458099999","2010-02-01T15:00:00","4","59.897328","17.588581","20.72","UPPSALA, SW","FM-12","ESCM ","V020","120,1,N,0030,1","00840,1,C,N","040000,1,N,1","-0023,1","-0037,1","10052,1",,,,,"08,1,+00840,1,99,9",,,,"99999,9,10025,1","2,1,004,1,+999,9","SYN070AAXX  01151 02458 45582 /1203 11023 21037 30025 40052 52004 333 88/28;",
"02458099999","2010-02-01T18:00:00","4","59.897328","17.588581","20.72","UPPSALA, SW","FM-12","ESCM ","V020","080,1,N,0030,1","00810,1,C,N","025000,1,N,1","-0051,1","-0056,1","10050,1",,,,,"07,1,+00810,1,99,9",,"120,M,-0016,1","999,N,-0061,1","99999,9,10024,1","8,1,001,1,+999,9","SYN082AAXX  01181 02458 35575 /0803 11051 21056 30024 40050 58001 333 11016 21061 87/27;",
"02458099999","2010-02-01T21:00:00","4","59.897328","17.588581","20.72","UPPSALA, SW","FM-12","ESCM ","V020","300,1,N,0010,1","00630,1,C,N","014000,1,N,1","-0071,1","-0072,1","10042,1",,,,,"08,1,+00630,1,99,9",,,,"99999,9,10016,1","7,1,008,1,+999,9","SYN070AAXX  01211 02458 45564 /3001 11071 21072 30016 40042 57008 333 88/21;",
"02458099999","2010-02-02T00:00:00","4","59.897328","17.588581","20.72","UPPSALA, SW","FM-12","ESCM ","V020","310,1,N,0010,1","00630,1,C,N","005000,1,N,1","-0102,1","-0105,1","10032,1",,,"31,1","4,1,06,1","08,1,+00630,1,99,9",,,,"99999,9,10005,1","8,1,010,1,+999,9","SYN076AAXX  02001 02458 47550 /3101 11102 21105 30005 40032 58010 73131 333 88/21;",
"02458099999","2010-02-02T03:00:00","4","59.897328","17.588581","20.72","UPPSALA, SW","FM-12","ESCM ","V020","300,1,N,0030,1","00690,1,C,N","020000,1,N,1","-0079,1","-0082,1","10021,1",,,,,"08,1,+00690,1,99,9",,,,"99999,9,09995,1","7,1,011,1,+999,9","SYN070AAXX  02031 02458 45570 /3003 11079 21082 39995 40021 57011 333 88/23;",
"02458099999","2010-02-02T06:00:00","4","59.897328","17.588581","20.72","UPPSALA, SW","FM-12","ESCM ","V020","300,1,N,0030,1","00630,1,C,N","024000,1,N,1","-0055,1","-0063,1","10012,1",,,,,"08,1,+00630,1,99,9",,"120,M,-0050,1","999,N,-0132,1","99999,9,09986,1","6,1,009,1,+999,9","SYN082AAXX  02061 02458 35574 /3003 11055 21063 39986 40012 56009 333 11050 21132 88/21;",
"02458099999","2010-02-02T09:00:00","4","59.897328","17.588581","20.72","UPPSALA, SW","FM-12","ESCM ","V020","310,1,N,0030,1","00570,1,C,N","019000,1,N,1","-0052,1","-0061,1","10016,1",,,,,"08,1,+00570,1,99,9",,,,"99999,9,09990,1","3,1,004,1,+999,9","SYN070AAXX  02091 02458 45469 /3103 11052 21061 39990 40016 53004 333 88/19;",
"02458099999","2010-02-02T12:00:00","4","59.897328","17.588581","20.72","UPPSALA, SW","FM-12","ESCM ","V020","340,1,N,0020,1","00450,1,C,N","021000,1,N,1","-0056,1","-0073,1","10018,1",,,"00,1","8,1,06,1","08,1,+00450,1,99,9",,,,"99999,9,09992,1","2,1,002,1,+999,9","SYN076AAXX  02121 02458 47471 /3402 11056 21073 39992 40018 52002 70087 333 88/15;",
"02458099999","2010-02-02T15:00:00","4","59.897328","17.588581","20.72","UPPSALA, SW","FM-12","ESCM ","V020","080,1,N,0030,1","99999,9,9,N","011000,1,N,1","-0104,1","-0108,1","10021,1",,,,,,,,,"99999,9,09994,1","3,1,003,1,+999,9","SYN060AAXX  02151 02458 45961 /0803 11104 21108 39994 40021 53003;",
"02458099999","2010-02-02T18:00:00","4","59.897328","17.588581","20.72","UPPSALA, SW","FM-12","ESCM ","V020","080,1,N,0020,1","01170,1,C,N","015000,1,N,1","-0070,1","-0076,1","10019,1",,,"85,1","8,1,06,1","08,1,+01170,1,99,9",,"120,M,-0050,1","999,N,-0133,1","99999,9,09993,1","8,1,001,1,+999,9","SYN088AAXX  02181 02458 37665 /0802 11070 21076 39993 40019 58001 78587 333 11050 21133 88/39;",
"02458099999","2010-02-02T21:00:00","4","59.897328","17.588581","20.72","UPPSALA, SW","FM-12","ESCM ","V020","090,1,N,0040,1","00330,1,C,N","010000,1,N,1","-0053,1","-0056,1","10014,1",,,"71,1","8,1,03,1","08,1,+00330,1,99,9",,,,"99999,9,09988,1","5,1,005,1,+999,9","SYN076AAXX  02211 02458 47460 /0904 11053 21056 39988 40014 55005 77187 333 88/11;",
"02458099999","2010-02-03T00:00:00","4","59.897328","17.588581","20.72","UPPSALA, SW","FM-12","ESCM ","V020","090,1,N,0040,1","01140,1,C,N","014000,1,N,1","-0050,1","-0051,1","10010,1",,,"00,1","8,1,06,1","08,1,+01140,1,99,9",,,,"99999,9,09984,1","7,1,004,1,+999,9","SYN076AAXX  03001 02458 47664 /0904 11050 21051 39984 40010 57004 70087 333 88/38;",
"02458099999","2010-02-03T03:00:00","4","59.897328","17.588581","20.72","UPPSALA, SW","FM-12","ESCM ","V020","080,1,N,0050,1","00960,1,C,N","040000,1,N,1","-0036,1","-0042,1","10001,1",,,,,"05,1,+00960,1,99,9",,,,"99999,9,09975,1","8,1,009,1,+999,9","SYN070AAXX  03031 02458 45582 /0805 11036 21042 39975 40001 58009 333 85/32;",
"02458099999","2010-02-03T06:00:00","4","59.897328","17.588581","20.72","UPPSALA, SW","FM-12","ESCM ","V020","100,1,N,0080,1","00630,1,C,N","035000,1,N,1","-0020,1","-0035,1","09999,1","12,0000,2,1","24,0000,2,1",,,"08,1,+00630,1,99,9",,"120,M,-0016,1","999,N,-0087,1","99999,9,09973,1","5,1,003,1,+999,9","SYN094AAXX  03061 02458 15581 /1008 11020 21035 39973 49999 55003 69912 333 11016 21087 70001 88/21;",
"02458099999","2010-02-03T09:00:00","4","59.897328","17.588581","20.72","UPPSALA, SW","FM-12","ESCM ","V020","090,1,N,0070,1","00660,1,C,N","021000,1,N,1","-0020,1","-0036,1","10002,1",,,"00,1","8,1,03,1","08,1,+00660,1,99,9",,,,"99999,9,09976,1","0,1,003,1,+999,9","SYN076AAXX  03091 02458 47571 /0907 11020 21036 39976 40002 50003 70084 333 88/22;",
"02458099999","2010-02-03T12:00:00","4","59.897328","17.588581","20.72","UPPSALA, SW","FM-12","ESCM ","V020","090,1,N,0080,1","00630,1,C,N","017000,1,N,1","-0014,1","-0029,1","10011,1",,,"00,1","6,1,06,1","08,1,+00630,1,99,9",,,,"99999,9,09985,1","2,1,009,1,+999,9","SYN076AAXX  03121 02458 47567 /0908 11014 21029 39985 40011 52009 70040 333 88/21;",
"02458099999","2010-02-03T15:00:00","4","59.897328","17.588581","20.72","UPPSALA, SW","FM-12","ESCM ","V020","100,1,N,0070,1","00510,1,C,N","015000,1,N,1","-0012,1","-0026,1","10026,1",,,,,"08,1,+00510,1,99,9",,,,"99999,9,10000,1","3,1,015,1,+999,9","SYN070AAXX  03151 02458 45465 /1007 11012 21026 30000 40026 53015 333 88/17;",
"02458099999","2010-02-03T18:00:00","4","59.897328","17.588581","20.72","UPPSALA, SW","FM-12","ESCM ","V020","090,1,N,0050,1","00240,1,C,N","001500,1,N,1","-0017,1","-0017,1","10049,1","12,0008,9,1",,"71,1","7,1,06,1","09,1,+00240,1,99,9",,"120,M,-0009,1","999,N,-0023,1","99999,9,10022,1","2,1,022,1,+999,9","SYN100AAXX  03181 02458 07/15 /0905 11017 21017 30022 40049 52022 69972 77174 333 11009 21023 69955 89/08;",
"02458099999","2010-02-03T21:00:00","4","59.897328","17.588581","20.72","UPPSALA, SW","FM-12","ESCM ","V020","080,1,N,0060,1","99999,9,9,N","005000,1,N,1","-0018,1","-0018,1","10067,1",,,"71,1","7,1,03,1","04,1,+00420,1,99,9",,,,"99999,9,10040,1","3,1,018,1,+999,9","SYN076AAXX  03211 02458 47450 /0806 11018 21018 30040 40067 53018 77177 333 84/14;",
"02458099999","2010-02-04T00:00:00","4","59.897328","17.588581","20.72","UPPSALA, SW","FM-12","ESCM ","V020","090,1,N,0060,1","00360,1,C,N","011000,1,N,1","-0013,1","-0013,1","10087,1",,,"71,1","7,1,06,1","05,1,+00360,1,99,9",,,,"99999,9,10061,1","2,1,021,1,+999,9","SYN082AAXX  04001 02458 47461 /0906 11013 21013 30061 40087 52021 77177 333 85/12 88/32;",
"02458099999","2010-02-04T03:00:00","4","59.897328","17.588581","20.72","UPPSALA, SW","FM-12","ESCM ","V020","100,1,N,0070,1","99999,9,9,N","014000,1,N,1","-0009,1","-0017,1","10105,1",,,"22,1","8,1,03,1","01,1,+00450,1,99,9",,,,"99999,9,10079,1","3,1,017,1,+999,9","SYN082AAXX  04031 02458 47464 /1007 11009 21017 30079 40105 53017 72287 333 81/15 88/27;",
"02458099999","2010-02-04T06:00:00","4","59.897328","17.588581","20.72","UPPSALA, SW","FM-12","ESCM ","V020","090,1,N,0070,1","00450,1,C,N","006000,1,N,1","-0012,1","-0014,1","10116,1","12,0020,9,1","24,0025,9,1","71,1","8,1,06,1","04,1,+00360,1,99,9","06,1,+00450,1,99,9","120,M,-0006,1","999,N,-0020,1","99999,9,10090,1","1,1,011,1,+999,9","SYN118AAXX  04061 02458 07456 /0907 11012 21014 30090 40116 51011 60022 77187 333 11006 21020 69915 70026 84/12 86/15 87/20;",
"02458099999","2010-02-04T09:00:00","4","59.897328","17.588581","20.72","UPPSALA, SW","FM-12","ESCM ","V020","130,1,N,0050,1","00270,1,C,N","025000,1,N,1","-0007,1","-0008,1","10134,1",,,"24,1","7,1,03,1","06,1,+00270,1,99,9",,,,"99999,9,10108,1","3,1,018,1,+999,9","SYN082AAXX  04091 02458 47375 /1305 11007 21008 30108 40134 53018 72476 333 86/09 88/50;",
"02458099999","2010-02-04T12:00:00","4","59.897328","17.588581","20.72","UPPSALA, SW","FM-12","ESCM ","V020","110,1,N,0040,1","99999,9,9,N","030000,1,N,1","-0004,1","-0004,1","10150,1",,,"71,1","7,1,06,1","01,1,+00270,1,99,9",,,,"99999,9,10124,1","1,1,016,1,+999,9","SYN082AAXX  04121 02458 47380 /1104 11004 21004 30124 40150 51016 77176 333 81/09 84/36;",
"02458099999","2010-02-04T15:00:00","4","59.897328","17.588581","20.72","UPPSALA, SW","FM-12","ESCM ","V020","100,1,N,0030,1","01020,1,C,N","017000,1,N,1","-0011,1","-0011,1","10161,1",,,"80,1","8,1,03,1","07,1,+01020,1,99,9",,,,"99999,9,10135,1","2,1,011,1,+999,9","SYN082AAXX  04151 02458 47667 /1003 11011 21011 30135 40161 52011 78087 333 87/34 88/50;",
"02458099999","2010-02-04T18:00:00","4","59.897328","17.588581","20.72","UPPSALA, SW","FM-12","ESCM ","V020","120,1,N,0010,1","99999,9,9,N","011000,1,N,1","-0013,1","-0013,1","10175,1","12,0020,9,1",,"71,1","8,1,06,1","03,1,+00210,1,99,9",,"120,M,-0003,1","999,N,-0020,1","99999,9,10149,1","3,1,014,1,+999,9","SYN106AAXX  04181 02458 07361 /1201 11013 21013 30149 40175 53014 60022 77187 333 11003 21020 69915 83/07 88/10;",
"02458099999","2010-02-04T21:00:00","4","59.897328","17.588581","20.72","UPPSALA, SW","FM-12","ESCM ","V020","110,1,N,0010,1","00180,1,C,N","005000,1,N,1","-0019,1","-0019,1","10194,1",,,"77,1","7,1,03,1","08,1,+00180,1,99,9",,,,"99999,9,10167,1","2,1,018,1,+999,9","SYN076AAXX  04211 02458 47250 /1101 11019 21019 30167 40194 52018 77776 333 88/06;",
"02458099999","2010-02-05T00:00:00","4","59.897328","17.588581","20.72","UPPSALA, SW","FM-12","ESCM ","V020","230,1,N,0030,1","00150,1,C,N","013000,1,N,1","-0024,1","-0024,1","10216,1",,,"00,1","7,1,06,1","08,1,+00150,1,99,9",,,,"99999,9,10190,1","2,1,023,1,+999,9","SYN076AAXX  05001 02458 47263 /2303 11024 21024 30190 40216 52023 70076 333 88/05;",
"02458099999","2010-02-05T03:00:00","4","59.897328","17.588581","20.72","UPPSALA, SW","FM-12","ESCM ","V020","230,1,N,0030,1","00150,1,C,N","009000,1,N,1","-0026,1","-0026,1","10234,1",,,"10,1","2,1,03,1","08,1,+00150,1,99,9",,,,"99999,9,10208,1","1,1,018,1,+999,9","SYN076AAXX  05031 02458 47259 /2303 11026 21026 30208 40234 51018 71010 333 88/05;",
"02458099999","2010-02-05T06:00:00","4","59.897328","17.588581","20.72","UPPSALA, SW","FM-12","ESCM ","V020","220,1,N,0020,1","00060,1,C,N","001500,1,N,1","-0039,1","-0039,1","10251,1","12,0000,2,1","24,0018,9,1","10,1","2,1,06,1","09,1,+00060,1,99,9",,"120,M,-0012,1","999,N,-0041,1","99999,9,10225,1","3,1,017,1,+999,9","SYN100AAXX  05061 02458 17/15 /2202 11039 21039 30225 40251 53017 69912 71010 333 11012 21041 70017 89/02;",
"02458099999","2010-02-05T09:00:00","4","59.897328","17.588581","20.72","UPPSALA, SW","FM-12","ESCM ","V020","180,1,N,0030,1","00210,1,C,N","011000,1,N,1","-0033,1","-0034,1","10266,1",,,,,"08,1,+00210,1,99,9",,,,"99999,9,10239,1","3,1,015,1,+999,9","SYN070AAXX  05091 02458 45361 /1803 11033 21034 30239 40266 53015 333 88/07;",
"02458099999","2010-02-05T12:00:00","4","59.897328","17.588581","20.72","UPPSALA, SW","FM-12","ESCM ","V020","160,1,N,0020,1","00240,1,C,N","010000,1,N,1","-0025,1","-0028,1","10271,1",,,,,"05,1,+00240,1,99,9",,,,"99999,9,10244,1","3,1,005,1,+999,9","SYN076AAXX  05121 02458 45360 /1602 11025 21028 30244 40271 53005 333 85/08 88/18;",
"02458099999","2010-02-05T15:00:00","4","59.897328","17.588581","20.72","UPPSALA, SW","FM-12","ESCM ","V020","110,1,N,0010,1","99999,9,9,N","004200,1,N,1","-0055,1","-0057,1","10271,1",,,"10,1","2,1,03,1","02,1,+00540,1,99,9",,,,"99999,9,10244,1","4,1,000,1,+999,9","SYN076AAXX  05151 02458 47442 /1101 11055 21057 30244 40271 54000 71010 333 82/18;",
"02458099999","2010-02-05T18:00:00","4","59.897328","17.588581","20.72","UPPSALA, SW","FM-12","ESCM ","V020","130,1,N,0040,1","99999,9,9,N","010000,1,N,1","-0053,1","-0054,1","10268,1",,,,,,,"120,M,-0019,1","999,N,-0057,1","99999,9,10241,1","8,1,002,1,+999,9","SYN076AAXX  05181 02458 35960 /1304 11053 21054 30241 40268 58002 333 11019 21057;",
"02458099999","2010-02-05T21:00:00","4","59.897328","17.588581","20.72","UPPSALA, SW","FM-12","ESCM ","V020","130,1,N,0030,1","99999,9,9,N","005000,1,N,1","-0054,1","-0054,1","10272,1",,,"10,1","2,1,03,1",,,,,"99999,9,10245,1","2,1,004,1,+999,9","SYN066AAXX  05211 02458 47950 /1303 11054 21054 30245 40272 52004 71010;",
"02458099999","2010-02-06T00:00:00","4","59.897328","17.588581","20.72","UPPSALA, SW","FM-12","ESCM ","V020","150,1,N,0020,1","99999,9,9,N","005000,1,N,1","-0055,1","-0055,1","10273,1",,,"10,1","4,1,06,1",,,,,"99999,9,10246,1","0,1,001,1,+999,9","SYN066AAXX  06001 02458 47950 /1502 11055 21055 30246 40273 50001 71032;",
"02458099999","2010-02-06T03:00:00","4","59.897328","17.588581","20.72","UPPSALA, SW","FM-12","ESCM ","V020","160,1,N,0030,1","00510,1,C,N","015000,1,N,1","-0019,1","-0026,1","10269,1",,,,,"08,1,+00510,1,99,9",,,,"99999,9,10242,1","8,1,004,1,+999,9","SYN070AAXX  06031 02458 45465 /1603 11019 21026 30242 40269 58004 333 88/17;",
"02458099999","2010-02-06T06:00:00","4","59.897328","17.588581","20.72","UPPSALA, SW","FM-12","ESCM ","V020","180,1,N,0040,1","00480,1,C,N","019000,1,N,1","-0019,1","-0031,1","10267,1",,,,,"08,1,+00480,1,99,9",,"120,M,-0015,1","999,N,-0073,1","99999,9,10241,1","7,1,002,1,+999,9","SYN082AAXX  06061 02458 35469 /1804 11019 21031 30241 40267 57002 333 11015 21073 88/16;",
"02458099999","2010-02-06T09:00:00","4","59.897328","17.588581","20.72","UPPSALA, SW","FM-12","ESCM ","V020","180,1,N,0040,1","00510,1,C,N","021000,1,N,1","-0021,1","-0034,1","10271,1",,,,,"08,1,+00510,1,99,9",,,,"99999,9,10245,1","2,1,004,1,+999,9","SYN070AAXX  06091 02458 45471 /1804 11021 21034 30245 40271 52004 333 88/17;",
"02458099999","2010-02-06T12:00:00","4","59.897328","17.588581","20.72","UPPSALA, SW","FM-12","ESCM ","V020","220,1,N,0030,1","00480,1,C,N","028000,1,N,1","-0019,1","-0035,1","10273,1",,,,,"08,1,+00480,1,99,9",,,,"99999,9,10246,1","2,1,002,1,+999,9","SYN070AAXX  06121 02458 45478 /2203 11019 21035 30246 40273 52002 333 88/16;",
"02458099999","2010-02-06T15:00:00","4","59.897328","17.588581","20.72","UPPSALA, SW","FM-12","ESCM ","V020","230,1,N,0020,1","00510,1,C,N","023000,1,N,1","-0020,1","-0034,1","10266,1",,,,,"08,1,+00510,1,99,9",,,,"99999,9,10239,1","7,1,007,1,+999,9","SYN070AAXX  06151 02458 45473 /2302 11020 21034 30239 40266 57007 333 88/17;",
"02458099999","2010-02-06T18:00:00","4","59.897328","17.588581","20.72","UPPSALA, SW","FM-12","ESCM ","V020","270,1,N,0020,1","00390,1,C,N","017000,1,N,1","-0023,1","-0032,1","10268,1",,,,,"08,1,+00390,1,99,9",,"120,M,-0018,1","999,N,-0025,1","99999,9,10242,1","2,1,003,1,+999,9","SYN082AAXX  06181 02458 35467 /2702 11023 21032 30242 40268 52003 333 11018 21025 88/13;",
"02458099999","2010-02-06T21:00:00","4","59.897328","17.588581","20.72","UPPSALA, SW","FM-12","ESCM ","V020","250,1,N,0020,1","00450,1,C,N","014000,1,N,1","-0026,1","-0031,1","10270,1",,,,,"08,1,+00450,1,99,9",,,,"99999,9,10243,1","2,1,001,1,+999,9","SYN070AAXX  06211 02458 45464 /2502 11026 21031 30243 40270 52001 333 88/15;",
"02458099999","2010-02-07T00:00:00","4","59.897328","17.588581","20.72","UPPSALA, SW","FM-12","ESCM ","V020","240,1,N,0020,1","00360,1,C,N","019000,1,N,1","-0033,1","-0037,1","10269,1",,,,,"08,1,+00360,1,99,9",,,,"99999,9,10242,1","0,1,001,1,+999,9","SYN070AAXX  07001 02458 45469 /2402 11033 21037 30242 40269 50001 333 88/12;",
"02458099999","2010-02-07T03:00:00","4","59.897328","17.588581","20.72","UPPSALA, SW","FM-12","ESCM ","V020","300,1,N,0010,1","99999,9,9,N","000100,1,N,1","-0134,1","-0140,1","10263,1",,,"34,1","4,1,03,1",,,,,"99999,9,10235,1","7,1,006,1,+999,9","SYN066AAXX  07031 02458 47901 /3001 11134 21140 30235 40263 57006 73431;",
"02458099999","2010-02-07T06:00:00","4","59.897328","17.588581","20.72","UPPSALA, SW","FM-12","ESCM ","V020","190,1,N,0010,1","99999,9,9,N","001800,1,N,1","-0140,1","-0144,1","10254,1",,,"31,1","4,1,06,1",,,"120,M,-0022,1","999,N,-0170,1","99999,9,10226,1","8,1,010,1,+999,9","SYN082AAXX  07061 02458 37918 /1901 11140 21144 30226 40254 58010 73132 333 11022 21170;",
"02458099999","2010-02-07T09:00:00","4","59.897328","17.588581","20.72","UPPSALA, SW","FM-12","ESCM ","V020","220,1,N,0010,1","99999,9,9,N","025000,1,N,1","-0094,1","-0097,1","10248,1",,,"00,1","4,1,03,1",,,,,"99999,9,10221,1","5,1,005,1,+999,9","SYN066AAXX  07091 02458 47975 /2201 11094 21097 30221 40248 55005 70032;",
"02458099999","2010-02-07T12:00:00","4","59.897328","17.588581","20.72","UPPSALA, SW","FM-12","ESCM ","V020","210,1,N,0030,1","99999,9,9,N","035000,1,N,1","-0056,1","-0066,1","10234,1",,,"00,1","4,1,06,1",,,,,"99999,9,10207,1","7,1,014,1,+999,9","SYN066AAXX  07121 02458 47981 /2103 11056 21066 30207 40234 57014 70032;",
"02458099999","2010-02-07T15:00:00","4","59.897328","17.588581","20.72","UPPSALA, SW","FM-12","ESCM ","V020","210,1,N,0020,1","99999,9,9,N","035000,1,N,1","-0062,1","-0073,1","10221,1",,,,,,,,,"99999,9,10194,1","7,1,013,1,+999,9","SYN060AAXX  07151 02458 45981 /2102 11062 21073 30194 40221 57013;",
"02458099999","2010-02-07T18:00:00","4","59.897328","17.588581","20.72","UPPSALA, SW","FM-12","ESCM ","V020","230,1,N,0010,1","99999,9,9,N","013000,1,N,1","-0087,1","-0089,1","10210,1",,,,,,,"120,M,-0051,1","999,N,-0172,1","99999,9,10182,1","7,1,012,1,+999,9","SYN076AAXX  07181 02458 35963 /2301 11087 21089 30182 40210 57012 333 11051 21172;",
"02458099999","2010-02-07T21:00:00","4","59.897328","17.588581","20.72","UPPSALA, SW","FM-12","ESCM ","V020","190,1,N,0010,1","99999,9,9,N","006000,1,N,1","-0125,1","-0131,1","10198,1",,,"10,1","2,1,03,1",,,,,"99999,9,10170,1","7,1,012,1,+999,9","SYN066AAXX  07211 02458 47956 /1901 11125 21131 30170 40198 57012 71010;",
"02458099999","2010-02-08T00:00:00","4","59.897328","17.588581","20.72","UPPSALA, SW","FM-12","ESCM ","V020","999,9,C,0000,1","99999,9,9,N","021000,1,N,1","-0095,1","-0097,1","10180,1",,,,,,,,,"99999,9,10153,1","8,1,017,1,+999,9","SYN060AAXX  08001 02458 45971 /0000 11095 21097 30153 40180 58017;",
"02458099999","2010-02-08T03:00:00","4","59.897328","17.588581","20.72","UPPSALA, SW","FM-12","ESCM ","V020","240,1,N,0020,1","99999,9,9,N","030000,1,N,1","-0092,1","-0095,1","10160,1",,,,,"01,1,+05700,1,99,9",,,,"99999,9,10133,1","8,1,020,1,+999,9","SYN070AAXX  08031 02458 45980 /2402 11092 21095 30133 40160 58020 333 81/69;",
"02458099999","2010-02-08T06:00:00","4","59.897328","17.588581","20.72","UPPSALA, SW","FM-12","ESCM ","V020","999,9,C,0000,1","99999,9,9,N","029000,1,N,1","-0110,1","-0113,1","10142,1",,,,,,,"120,M,-0087,1","999,N,-0151,1","99999,9,10115,1","7,1,018,1,+999,9","SYN076AAXX  08061 02458 35979 /0000 11110 21113 30115 40142 57018 333 11087 21151;",
"02458099999","2010-02-08T09:00:00","4","59.897328","17.588581","20.72","UPPSALA, SW","FM-12","ESCM ","V020","230,1,N,0010,1","01200,1,C,N","030000,1,N,1","-0099,1","-0102,1","10132,1",,,"00,1","8,1,03,1","06,1,+01200,1,99,9",,,,"99999,9,10105,1","7,1,010,1,+999,9","SYN082AAXX  08091 02458 47680 /2301 11099 21102 30105 40132 57010 70087 333 86/40 88/56;",
"02458099999","2010-02-08T12:00:00","4","59.897328","17.588581","20.72","UPPSALA, SW","FM-12","ESCM ","V020","170,1,N,0010,1","99999,9,9,N","035000,1,N,1","-0096,1","-0100,1","10119,1",,,"00,1","8,1,06,1","03,1,+01410,1,99,9",,,,"99999,9,10092,1","7,1,013,1,+999,9","SYN076AAXX  08121 02458 47681 /1701 11096 21100 30092 40119 57013 70087 333 83/47;",
"02458099999","2010-02-08T15:00:00","4","59.897328","17.588581","20.72","UPPSALA, SW","FM-12","ESCM ","V020","170,1,N,0020,1","01260,1,C,N","040000,1,N,1","-0069,1","-0072,1","10109,1",,,,,"08,1,+01260,1,99,9",,,,"99999,9,10082,1","7,1,010,1,+999,9","SYN070AAXX  08151 02458 45682 /1702 11069 21072 30082 40109 57010 333 88/42;",
"02458099999","2010-02-08T18:00:00","4","59.897328","17.588581","20.72","UPPSALA, SW","FM-12","ESCM ","V020","140,1,N,0010,1","00960,1,C,N","029000,1,N,1","-0071,1","-0073,1","10105,1",,,,,"08,1,+00960,1,99,9",,"120,M,-0065,1","999,N,-0121,1","99999,9,10078,1","7,1,004,1,+999,9","SYN082AAXX  08181 02458 35579 /1401 11071 21073 30078 40105 57004 333 11065 21121 88/32;",
"02458099999","2010-02-08T21:00:00","4","59.897328","17.588581","20.72","UPPSALA, SW","FM-12","ESCM ","V020","200,1,N,0010,1","00900,1,C,N","018000,1,N,1","-0072,1","-0074,1","10100,1",,,,,"08,1,+00900,1,99,9",,,,"99999,9,10074,1","7,1,004,1,+999,9","SYN070AAXX  08211 02458 45568 /2001 11072 21074 30074 40100 57004 333 88/30;",
"02458099999","2010-02-09T00:00:00","4","59.897328","17.588581","20.72","UPPSALA, SW","FM-12","ESCM ","V020","140,1,N,0010,1","00960,1,C,N","014000,1,N,1","-0069,1","-0071,1","10097,1",,,,,"08,1,+00960,1,99,9",,,,"99999,9,10070,1","7,1,003,1,+999,9","SYN070AAXX  09001 02458 45564 /1401 11069 21071 30070 40097 57003 333 88/32;",
"02458099999","2010-02-09T03:00:00","4","59.897328","17.588581","20.72","UPPSALA, SW","FM-12","ESCM ","V020","999,9,C,0000,1","00870,1,C,N","012000,1,N,1","-0068,1","-0070,1","10095,1",,,,,"08,1,+00870,1,99,9",,,,"99999,9,10068,1","7,1,002,1,+999,9","SYN070AAXX  09031 02458 45562 /0000 11068 21070 30068 40095 57002 333 88/29;",
"02458099999","2010-02-09T06:00:00","4","59.897328","17.588581","20.72","UPPSALA, SW","FM-12","ESCM ","V020","030,1,N,0010,1","00930,1,C,N","012000,1,N,1","-0067,1","-0069,1","10100,1",,,,,"08,1,+00930,1,99,9",,"120,M,-0067,1","999,N,-0074,1","99999,9,10074,1","3,1,006,1,+999,9","SYN082AAXX  09061 02458 35562 /0301 11067 21069 30074 40100 53006 333 11067 21074 88/31;",
"02458099999","2010-02-09T09:00:00","4","59.897328","17.588581","20.72","UPPSALA, SW","FM-12","ESCM ","V020","310,1,N,0020,1","00930,1,C,N","013000,1,N,1","-0063,1","-0065,1","10116,1",,,,,"08,1,+00930,1,99,9",,,,"99999,9,10089,1","2,1,016,1,+999,9","SYN070AAXX  09090 02458 45563 /3102 11063 21065 30089 40116 52016 333 88/31;",
"02458099999","2010-02-09T12:00:00","4","59.897328","17.588581","20.72","UPPSALA, SW","FM-12","ESCM ","V020","999,9,C,0000,1","01140,1,C,N","024000,1,N,1","-0039,1","-0047,1","10122,1",,,,,"08,1,+01140,1,99,9",,,,"99999,9,10095,1","2,1,006,1,+999,9","SYN070AAXX  09121 02458 45674 /0000 11039 21047 30095 40122 52006 333 88/38;",
"02458099999","2010-02-09T15:00:00","4","59.897328","17.588581","20.72","UPPSALA, SW","FM-12","ESCM ","V020","350,1,N,0010,1","01260,1,C,N","050000,1,N,1","-0032,1","-0042,1","10131,1",,,"24,1","8,1,03,1","08,1,+01260,1,99,9",,,,"99999,9,10104,1","3,1,009,1,+999,9","SYN076AAXX  09151 02458 47684 /3501 11032 21042 30104 40131 53009 72487 333 88/42;",
"02458099999","2010-02-09T18:00:00","4","59.897328","17.588581","20.72","UPPSALA, SW","FM-12","ESCM ","V020","330,1,N,0020,1","01230,1,C,N","028000,1,N,1","-0037,1","-0039,1","10141,1",,,"71,1","7,1,06,1","08,1,+01230,1,99,9",,"120,M,-0026,1","999,N,-0067,1","99999,9,10115,1","2,1,010,1,+999,9","SYN088AAXX  09181 02458 37678 /3302 11037 21039 30115 40141 52010 77174 333 11026 21067 88/41;",
"02458099999","2010-02-09T21:00:00","4","59.897328","17.588581","20.72","UPPSALA, SW","FM-12","ESCM ","V020","310,1,N,0020,1","99999,9,9,N","019000,1,N,1","-0037,1","-0038,1","10153,1",,,"85,1","8,1,03,1","02,1,+00600,1,99,9",,,,"99999,9,10126,1","2,1,012,1,+999,9","SYN082AAXX  09211 02458 47569 /3102 11037 21038 30126 40153 52012 78587 333 82/20 88/48;",
"02458099999","2010-02-10T00:00:00","4","59.897328","17.588581","20.72","UPPSALA, SW","FM-12","ESCM ","V020","350,1,N,0040,1","00270,1,C,N","017000,1,N,1","-0032,1","-0034,1","10164,1",,,"77,1","8,1,06,1","06,1,+00270,1,99,9","07,1,+00540,1,99,9",,,"99999,9,10137,1","2,1,011,1,+999,9","SYN088AAXX  10001 02458 47367 /3504 11032 21034 30137 40164 52011 77787 333 86/09 87/18 88/57;",
"02458099999","2010-02-10T03:00:00","4","59.897328","17.588581","20.72","UPPSALA, SW","FM-12","ESCM ","V020","360,1,N,0020,1","00240,1,C,N","016000,1,N,1","-0036,1","-0039,1","10175,1",,,"71,1","8,1,03,1","08,1,+00240,1,99,9",,,,"99999,9,10149,1","2,1,011,1,+999,9","SYN076AAXX  10031 02458 47366 /3602 11036 21039 30149 40175 52011 77187 333 88/08;",
"02458099999","2010-02-10T06:00:00","4","59.897328","17.588581","20.72","UPPSALA, SW","FM-12","ESCM ","V020","020,1,N,0050,1","99999,9,9,N","018000,1,N,1","-0036,1","-0039,1","10188,1","12,0010,9,1","24,0010,9,1","71,1","8,1,06,1","01,1,+00300,1,99,9",,"120,M,-0029,1","999,N,-0045,1","99999,9,10161,1","2,1,013,1,+999,9","SYN106AAXX  10061 02458 17468 /0205 11036 21039 30161 40188 52013 69992 77187 333 11029 21045 70009 81/10 88/15;",
"02458099999","2010-02-10T09:00:00","4","59.897328","17.588581","20.72","UPPSALA, SW","FM-12","ESCM ","V020","010,1,N,0020,1","01200,1,C,N","007000,1,N,1","-0041,1","-0042,1","10206,1",,,"71,1","7,1,03,1","09,1,+01200,1,99,9",,,,"99999,9,10180,1","2,1,019,1,+999,9","SYN076AAXX  10091 02458 47/57 /0102 11041 21042 30180 40206 52019 77177 333 89/40;",
"02458099999","2010-02-10T12:00:00","4","59.897328","17.588581","20.72","UPPSALA, SW","FM-12","ESCM ","V020","360,1,N,0010,1","99999,9,9,N","024000,1,N,1","-0035,1","-0042,1","10216,1",,,"00,1","7,1,06,1","01,1,+00570,1,99,9",,,,"99999,9,10190,1","1,1,010,1,+999,9","SYN082AAXX  10121 02458 47474 /3601 11035 21042 30190 40216 51010 70072 333 81/19 87/26;",
"02458099999","2010-02-10T15:00:00","4","59.897328","17.588581","20.72","UPPSALA, SW","FM-12","ESCM ","V020","310,1,N,0010,1","00930,1,C,N","008000,1,N,1","-0076,1","-0080,1","10216,1",,,"10,1","8,1,03,1","07,1,+00930,1,99,9",,,,"99999,9,10189,1","4,1,000,1,+999,9","SYN076AAXX  10151 02458 47558 /3101 11076 21080 30189 40216 54001 71087 333 87/31;",
"02458099999","2010-02-10T18:00:00","4","59.897328","17.588581","20.72","UPPSALA, SW","FM-12","ESCM ","V020","310,1,N,0010,1","99999,9,9,N","000100,1,N,1","-0166,1","-0174,1","10220,1","12,0005,9,1",,"31,1","8,1,06,1","01,1,+00840,1,99,9",,"120,M,-0033,1","999,N,-0176,1","99999,9,10192,1","2,1,004,1,+999,9","SYN094AAXX  10181 02458 17501 /3101 11166 21174 30192 40220 52004 69962 73187 333 11033 21176 81/28;",
"02458099999","2010-02-10T21:00:00","4","59.897328","17.588581","20.72","UPPSALA, SW","FM-12","ESCM ","V020","999,9,C,0000,1","00030,1,C,N","000100,1,N,1","-0196,1","-0208,1","10223,1",,,"33,1","4,1,03,1","09,1,+00030,1,99,9",,,,"99999,9,10194,1","2,1,002,1,+999,9","SYN076AAXX  10211 02458 47/01 /0000 11196 21208 30194 40223 52002 73333 333 89/01;",
"02458099999","2010-02-11T00:00:00","4","59.897328","17.588581","20.72","UPPSALA, SW","FM-12","ESCM ","V020","150,1,N,0010,1","00510,1,C,N","011000,1,N,1","-0111,1","-0113,1","10217,1",,,"00,1","4,1,06,1","08,1,+00510,1,99,9",,,,"99999,9,10190,1","8,1,005,1,+999,9","SYN076AAXX  11001 02458 47461 /1501 11111 21113 30190 40217 58005 70032 333 88/17;",
"02458099999","2010-02-11T03:00:00","4","59.897328","17.588581","20.72","UPPSALA, SW","FM-12","ESCM ","V020","200,1,N,0020,1","99999,9,9,N","008000,1,N,1","-0113,1","-0117,1","10210,1",,,"10,1","2,1,03,1",,,,,"99999,9,10183,1","7,1,007,1,+999,9","SYN066AAXX  11031 02458 47958 /2002 11113 21117 30183 40210 57007 71010;",
"02458099999","2010-02-11T06:00:00","4","59.897328","17.588581","20.72","UPPSALA, SW","FM-12","ESCM ","V020","220,1,N,0040,1","00180,1,C,N","028000,1,N,1","-0081,1","-0083,1","10209,1","24,0005,9,1",,,,"08,1,+00180,1,99,9",,"120,M,-0081,1","999,N,-0211,1","99999,9,10182,1","5,1,001,1,+999,9","SYN088AAXX  11061 02458 35278 /2204 11081 21083 30182 40209 55001 333 11081 21211 70006 88/06;",
"02458099999","2010-02-11T09:00:00","4","59.897328","17.588581","20.72","UPPSALA, SW","FM-12","ESCM ","V020","210,1,N,0040,1","00210,1,C,N","030000,1,N,1","-0080,1","-0082,1","10212,1",,,,,"08,1,+00210,1,99,9",,,,"99999,9,10185,1","2,1,003,1,+999,9","SYN070AAXX  11091 02458 45380 /2104 11080 21082 30185 40212 52003 333 88/07;",
"02458099999","2010-02-11T12:00:00","4","59.897328","17.588581","20.72","UPPSALA, SW","FM-12","ESCM ","V020","210,1,N,0060,1","00270,1,C,N","035000,1,N,1","-0061,1","-0069,1","10207,1",,,,,"08,1,+00270,1,99,9",,,,"99999,9,10180,1","7,1,005,1,+999,9","SYN070AAXX  11121 02458 45381 /2106 11061 21069 30180 40207 57005 333 88/09;",
"02458099999","2010-02-11T15:00:00","4","59.897328","17.588581","20.72","UPPSALA, SW","FM-12","ESCM ","V020","210,1,N,0030,1","99999,9,9,N","040000,1,N,1","-0078,1","-0086,1","10199,1",,,,,"01,1,+00330,1,99,9",,,,"99999,9,10172,1","7,1,008,1,+999,9","SYN070AAXX  11151 02458 45482 /2103 11078 21086 30172 40199 57008 333 81/11;",
"02458099999","2010-02-11T18:00:00","4","59.897328","17.588581","20.72","UPPSALA, SW","FM-12","ESCM ","V020","200,1,N,0030,1","99999,9,9,N","023000,1,N,1","-0096,1","-0099,1","10207,1",,,,,,,"120,M,-0059,1","999,N,-0110,1","99999,9,10180,1","3,1,008,1,+999,9","SYN076AAXX  11181 02458 35973 /2003 11096 21099 30180 40207 53008 333 11059 21110;",
"02458099999","2010-02-11T21:00:00","4","59.897328","17.588581","20.72","UPPSALA, SW","FM-12","ESCM ","V020","250,1,N,0010,1","99999,9,9,N","021000,1,N,1","-0104,1","-0107,1","10214,1",,,,,,,,,"99999,9,10186,1","3,1,006,1,+999,9","SYN060AAXX  11211 02458 45971 /2501 11104 21107 30186 40214 53006;",
"02458099999","2010-02-12T00:00:00","4","59.897328","17.588581","20.72","UPPSALA, SW","FM-12","ESCM ","V020","180,1,N,0010,1","99999,9,9,N","000600,1,N,1","-0168,1","-0176,1","10222,1",,,"32,1","4,1,06,1",,,,,"99999,9,10193,1","3,1,007,1,+999,9","SYN066AAXX  12001 02458 47906 /1801 11168 21176 30193 40222 53007 73231;",
"02458099999","2010-02-12T03:00:00","4","59.897328","17.588581","20.72","UPPSALA, SW","FM-12","ESCM ","V020","330,1,N,0010,1","00180,1,C,N","006000,1,N,1","-0108,1","-0112,1","10234,1",,,"85,1","8,1,03,1","08,1,+00180,1,99,9",,,,"99999,9,10206,1","2,1,013,1,+999,9","SYN076AAXX  12031 02458 47256 /3301 11108 21112 30206 40234 52013 78587 333 88/06;",
"02458099999","2010-02-12T06:00:00","4","59.897328","17.588581","20.72","UPPSALA, SW","FM-12","ESCM ","V020","010,1,N,0050,1","00240,1,C,N","050000,1,N,1","-0034,1","-0036,1","10247,1",,,"00,1","8,1,06,1","08,1,+00240,1,99,9",,"120,M,-0034,1","999,N,-0192,1","99999,9,10220,1","2,1,014,1,+999,9","SYN088AAXX  12060 02458 37384 /0105 11034 21036 30220 40247 52014 70087 333 11034 21192 88/08;",
"02458099999","2010-02-12T09:00:00","4","59.897328","17.588581","20.72","UPPSALA, SW","FM-12","ESCM ","V020","020,1,N,0070,1","00390,1,C,N","017000,1,N,1","-0038,1","-0048,1","10267,1",,,,,"08,1,+00390,1,99,9",,,,"99999,9,10240,1","3,1,019,1,+999,9","SYN070AAXX  12091 02458 45467 /0207 11038 21048 30240 40267 53019 333 88/13;",
"02458099999","2010-02-12T12:00:00","4","59.897328","17.588581","20.72","UPPSALA, SW","FM-12","ESCM ","V020","360,1,N,0050,1","00390,1,C,N","035000,1,N,1","-0035,1","-0048,1","10268,1",,,,,"08,1,+00390,1,99,9",,,,"99999,9,10241,1","0,1,002,1,+999,9","SYN070AAXX  12121 02458 45481 /3605 11035 21048 30241 40268 50002 333 88/13;",
"02458099999","2010-02-12T15:00:00","4","59.897328","17.588581","20.72","UPPSALA, SW","FM-12","ESCM ","V020","010,1,N,0070,1","00450,1,C,N","050000,1,N,1","-0041,1","-0056,1","10273,1",,,,,"08,1,+00450,1,99,9",,,,"99999,9,10247,1","3,1,005,1,+999,9","SYN070AAXX  12151 02458 45484 /0107 11041 21056 30247 40273 53005 333 88/15;",
"02458099999","2010-02-12T18:00:00","4","59.897328","17.588581","20.72","UPPSALA, SW","FM-12","ESCM ","V020","030,1,N,0060,1","00510,1,C,N","050000,1,N,1","-0042,1","-0056,1","10273,1",,,,,"08,1,+00510,1,99,9",,"120,M,-0033,1","999,N,-0044,1","99999,9,10246,1","5,1,001,1,+999,9","SYN082AAXX  12181 02458 35484 /0306 11042 21056 30246 40273 55001 333 11033 21044 88/17;",
"02458099999","2010-02-12T21:00:00","4","59.897328","17.588581","20.72","UPPSALA, SW","FM-12","ESCM ","V020","360,1,N,0040,1","00450,1,C,N","050000,1,N,1","-0053,1","-0062,1","10263,1",,,,,"08,1,+00450,1,99,9",,,,"99999,9,10236,1","8,1,010,1,+999,9","SYN070AAXX  12211 02458 45484 /3604 11053 21062 30236 40263 58010 333 88/15;",
"02458099999","2010-02-13T00:00:00","4","59.897328","17.588581","20.72","UPPSALA, SW","FM-12","ESCM ","V020","030,1,N,0050,1","00330,1,C,N","045000,1,N,1","-0050,1","-0060,1","10250,1",,,,,"08,1,+00330,1,99,9",,,,"99999,9,10223,1","8,1,012,1,+999,9","SYN070AAXX  13001 02458 45483 /0305 11050 21060 30223 40250 58012 333 88/11;",
"02458099999","2010-02-13T03:00:00","4","59.897328","17.588581","20.72","UPPSALA, SW","FM-12","ESCM ","V020","030,1,N,0050,1","00270,1,C,N","050000,1,N,1","-0057,1","-0063,1","10232,1",,,,,"08,1,+00270,1,99,9",,,,"99999,9,10205,1","7,1,018,1,+999,9","SYN070AAXX  13031 02458 45384 /0305 11057 21063 30205 40232 57018 333 88/09;",
"02458099999","2010-02-13T06:00:00","4","59.897328","17.588581","20.72","UPPSALA, SW","FM-12","ESCM ","V020","030,1,N,0060,1","00240,1,C,N","050000,1,N,1","-0058,1","-0062,1","10223,1",,,,,"08,1,+00240,1,99,9",,"120,M,-0041,1","999,N,-0059,1","99999,9,10196,1","7,1,009,1,+999,9","SYN082AAXX  13061 02458 35384 /0306 11058 21062 30196 40223 57009 333 11041 21059 88/08;",
"02458099999","2010-02-13T09:00:00","4","59.897328","17.588581","20.72","UPPSALA, SW","FM-12","ESCM ","V020","030,1,N,0050,1","00210,1,C,N","017000,1,N,1","-0056,1","-0060,1","10215,1",,,,,"08,1,+00210,1,99,9",,,,"99999,9,10188,1","7,1,008,1,+999,9","SYN070AAXX  13091 02458 45367 /0305 11056 21060 30188 40215 57008 333 88/07;",
"02458099999","2010-02-13T12:00:00","4","59.897328","17.588581","20.72","UPPSALA, SW","FM-12","ESCM ","V020","020,1,N,0040,1","00240,1,C,N","013000,1,N,1","-0048,1","-0054,1","10203,1",,,,,"08,1,+00240,1,99,9",,,,"99999,9,10176,1","8,1,012,1,+999,9","SYN070AAXX  13120 02458 45363 /0204 11048 21054 30176 40203 58012 333 88/08;",
"02458099999","2010-02-13T15:00:00","4","59.897328","17.588581","20.72","UPPSALA, SW","FM-12","ESCM ","V020","360,1,N,0030,1","00240,1,C,N","030000,1,N,1","-0051,1","-0058,1","10193,1",,,,,"08,1,+00240,1,99,9",,,,"99999,9,10166,1","7,1,010,1,+999,9","SYN070AAXX  13151 02458 45380 /3603 11051 21058 30166 40193 57010 333 88/08;",
"02458099999","2010-02-13T18:00:00","4","59.897328","17.588581","20.72","UPPSALA, SW","FM-12","ESCM ","V020","360,1,N,0020,1","00210,1,C,N","024000,1,N,1","-0059,1","-0062,1","10192,1",,,,,"08,1,+00210,1,99,9",,"120,M,-0046,1","999,N,-0059,1","99999,9,10165,1","4,1,000,1,+999,9","SYN082AAXX  13181 02458 35374 /3602 11059 21062 30165 40192 54001 333 11046 21059 88/07;",
"02458099999","2010-02-13T21:00:00","4","59.897328","17.588581","20.72","UPPSALA, SW","FM-12","ESCM ","V020","290,1,N,0010,1","00120,1,C,N","012000,1,N,1","-0072,1","-0073,1","10189,1",,,,,"09,1,+00120,1,99,9",,,,"99999,9,10162,1","7,1,004,1,+999,9","SYN070AAXX  13211 02458 45/62 /2901 11072 21073 30162 40189 57004 333 89/04;",
"02458099999","2010-02-14T00:00:00","4","59.897328","17.588581","20.72","UPPSALA, SW","FM-12","ESCM ","V020","240,1,N,0010,1","00090,1,C,N","007000,1,N,1","-0084,1","-0086,1","10186,1",,,"10,1","2,1,06,1","09,1,+00090,1,99,9",,,,"99999,9,10159,1","5,1,003,1,+999,9","SYN076AAXX  14001 02458 47/57 /2401 11084 21086 30159 40186 55003 71010 333 89/03;",
"02458099999","2010-02-14T03:00:00","4","59.897328","17.588581","20.72","UPPSALA, SW","FM-12","ESCM ","V020","250,1,N,0010,1","01350,1,C,N","035000,1,N,1","-0087,1","-0090,1","10182,1",,,,,"08,1,+01350,1,99,9",,,,"99999,9,10155,1","7,1,004,1,+999,9","SYN070AAXX  14031 02458 45681 /2501 11087 21090 30155 40182 57004 333 88/45;",
"02458099999","2010-02-14T06:00:00","4","59.897328","17.588581","20.72","UPPSALA, SW","FM-12","ESCM ","V020","999,9,C,0000,1","99999,9,9,N","014000,1,N,1","-0107,1","-0111,1","10180,1",,,,,,,"120,M,-0059,1","999,N,-0108,1","99999,9,10153,1","7,1,002,1,+999,9","SYN076AAXX  14061 02458 35964 /0000 11107 21111 30153 40180 57002 333 11059 21108;",
"02458099999","2010-02-14T09:00:00","4","59.897328","17.588581","20.72","UPPSALA, SW","FM-12","ESCM ","V020","999,9,C,0000,1","99999,9,9,N","023000,1,N,1","-0107,1","-0115,1","10185,1",,,"00,1","4,1,03,1",,,,,"99999,9,10158,1","3,1,005,1,+999,9","SYN066AAXX  14091 02458 47973 /0000 11107 21115 30158 40185 53005 70032;",
"02458099999","2010-02-14T12:00:00","4","59.897328","17.588581","20.72","UPPSALA, SW","FM-12","ESCM ","V020","999,9,C,0000,1","99999,9,9,N","021000,1,N,1","-0052,1","-0059,1","10182,1",,,"00,1","4,1,06,1",,,,,"99999,9,10155,1","8,1,003,1,+999,9","SYN066AAXX  14121 02458 47971 /0000 11052 21059 30155 40182 58003 70032;",
"02458099999","2010-02-14T15:00:00","4","59.897328","17.588581","20.72","UPPSALA, SW","FM-12","ESCM ","V020","999,9,C,0000,1","99999,9,9,N","000300,1,N,1","-0066,1","-0073,1","10177,1",,,"34,1","4,1,03,1",,,,,"99999,9,10150,1","7,1,005,1,+999,9","SYN066AAXX  14151 02458 47903 /0000 11066 21073 30150 40177 57005 73431;",
"02458099999","2010-02-14T18:00:00","4","59.897328","17.588581","20.72","UPPSALA, SW","FM-12","ESCM ","V020","999,9,C,0000,1","99999,9,9,N","000100,1,N,1","-0147,1","-0154,1","10172,1",,,"30,1","4,1,06,1","02,1,+00030,1,99,9",,"120,M,-0009,1","999,N,-0151,1","99999,9,10144,1","8,1,005,1,+999,9","SYN088AAXX  14181 02458 37001 /0000 11147 21154 30144 40172 58005 73031 333 11009 21151 82/01;",
"02458099999","2010-02-14T21:00:00","4","59.897328","17.588581","20.72","UPPSALA, SW","FM-12","ESCM ","V020","330,1,N,0010,1","99999,9,9,N","000100,1,N,1","-0176,1","-0186,1","10166,1",,,"31,1","4,1,03,1",,,,,"99999,9,10138,1","8,1,007,1,+999,9","SYN066AAXX  14211 02458 47901 /3301 11176 21186 30138 40166 58007 73133;",
"02458099999","2010-02-15T00:00:00","4","59.897328","17.588581","20.72","UPPSALA, SW","FM-12","ESCM ","V020","190,1,N,0010,1","00090,1,C,N","009000,1,N,1","-0114,1","-0118,1","10160,1",,,"10,1","4,1,06,1","09,1,+00090,1,99,9",,,,"99999,9,10133,1","7,1,005,1,+999,9","SYN076AAXX  15001 02458 47/59 /1901 11114 21118 30133 40160 57005 71032 333 89/03;",
"02458099999","2010-02-15T03:00:00","4","59.897328","17.588581","20.72","UPPSALA, SW","FM-12","ESCM ","V020","999,9,C,0000,1","00090,1,C,N","008000,1,N,1","-0110,1","-0114,1","10147,1",,,"10,1","4,1,03,1","09,1,+00090,1,99,9",,,,"99999,9,10120,1","8,1,013,1,+999,9","SYN076AAXX  15031 02458 47/58 /0000 11110 21114 30120 40147 58013 71032 333 89/03;",
"02458099999","2010-02-15T06:00:00","4","59.897328","17.588581","20.72","UPPSALA, SW","FM-12","ESCM ","V020","230,1,N,0010,1","00090,1,C,N","005000,1,N,1","-0117,1","-0122,1","10138,1",,,"71,1","7,1,06,1","09,1,+00090,1,99,9",,"120,M,-0104,1","999,N,-0186,1","99999,9,10111,1","7,1,009,1,+999,9","SYN088AAXX  15061 02458 37/50 /2301 11117 21122 30111 40138 57009 77173 333 11104 21186 89/03;",
"02458099999","2010-02-15T09:00:00","4","59.897328","17.588581","20.72","UPPSALA, SW","FM-12","ESCM ","V020","200,1,N,0010,1","99999,9,9,N","020000,1,N,1","-0110,1","-0115,1","10135,1",,,"24,1","8,1,03,1","01,1,+00120,1,99,9",,,,"99999,9,10108,1","7,1,003,1,+999,9","SYN076AAXX  15091 02458 47270 /2001 11110 21115 30108 40135 57003 72487 333 81/04;",
"02458099999","2010-02-15T12:00:00","4","59.897328","17.588581","20.72","UPPSALA, SW","FM-12","ESCM ","V020","190,1,N,0020,1","99999,9,9,N","018000,1,N,1","-0088,1","-0091,1","10130,1",,,"00,1","8,1,06,1",,,,,"99999,9,10103,1","7,1,005,1,+999,9","SYN066AAXX  15121 02458 47968 /1902 11088 21091 30103 40130 57005 70087;",
"02458099999","2010-02-15T15:00:00","4","59.897328","17.588581","20.72","UPPSALA, SW","FM-12","ESCM ","V020","200,1,N,0020,1","99999,9,9,N","019000,1,N,1","-0101,1","-0105,1","10120,1",,,,,,,,,"99999,9,10093,1","7,1,010,1,+999,9","SYN060AAXX  15151 02458 45969 /2002 11101 21105 30093 40120 57010;",
"02458099999","2010-02-15T18:00:00","4","59.897328","17.588581","20.72","UPPSALA, SW","FM-12","ESCM ","V020","210,1,N,0020,1","99999,9,9,N","003800,1,N,1","-0104,1","-0107,1","10119,1",,,"10,1","2,1,06,1",,,"120,M,-0085,1","999,N,-0119,1","99999,9,10092,1","4,1,000,1,+999,9","SYN082AAXX  15181 02458 37/38 /2102 11104 21107 30092 40119 54001 71010 333 11085 21119;",
"02458099999","2010-02-15T21:00:00","4","59.897328","17.588581","20.72","UPPSALA, SW","FM-12","ESCM ","V020","220,1,N,0020,1","00090,1,C,N","005000,1,N,1","-0106,1","-0109,1","10116,1",,,"10,1","2,1,03,1","09,1,+00090,1,99,9",,,,"99999,9,10089,1","7,1,003,1,+999,9","SYN076AAXX  15211 02458 47/50 /2202 11106 21109 30089 40116 57003 71011 333 89/03;",
"02458099999","2010-02-16T00:00:00","4","59.897328","17.588581","20.72","UPPSALA, SW","FM-12","ESCM ","V020","220,1,N,0010,1","00120,1,C,N","006000,1,N,1","-0107,1","-0111,1","10115,1",,,"10,1","2,1,06,1","09,1,+00120,1,99,9",,,,"99999,9,10088,1","4,1,000,1,+999,9","SYN076AAXX  16001 02458 47/56 /2201 11107 21111 30088 40115 54001 71010 333 89/04;",
"02458099999","2010-02-16T03:00:00","4","59.897328","17.588581","20.72","UPPSALA, SW","FM-12","ESCM ","V020","210,1,N,0010,1","00540,1,C,N","013000,1,N,1","-0101,1","-0105,1","10109,1",,,,,"06,1,+00540,1,99,9",,,,"99999,9,10082,1","8,1,006,1,+999,9","SYN076AAXX  16031 02458 45463 /2101 11101 21105 30082 40109 58006 333 86/18 88/62;",
"02458099999","2010-02-16T06:00:00","4","59.897328","17.588581","20.72","UPPSALA, SW","FM-12","ESCM ","V020","160,1,N,0010,1","00450,1,C,N","010000,1,N,1","-0099,1","-0102,1","10107,1",,,,,"08,1,+00450,1,99,9",,"120,M,-0099,1","999,N,-0118,1","99999,9,10080,1","5,1,002,1,+999,9","SYN082AAXX  16061 02458 35460 /1601 11099 21102 30080 40107 55002 333 11099 21118 88/15;",
"02458099999","2010-02-16T09:00:00","4","59.897328","17.588581","20.72","UPPSALA, SW","FM-12","ESCM ","V020","190,1,N,0010,1","00420,1,C,N","010000,1,N,1","-0094,1","-0097,1","10111,1",,,"00,1","7,1,03,1","08,1,+00420,1,99,9",,,,"99999,9,10084,1","2,1,004,1,+999,9","SYN076AAXX  16091 02458 47460 /1901 11094 21097 30084 40111 52004 70071 333 88/14;",
"02458099999","2010-02-16T12:00:00","4","59.897328","17.588581","20.72","UPPSALA, SW","FM-12","ESCM ","V020","160,1,N,0010,1","99999,9,9,N","012000,1,N,1","-0065,1","-0066,1","10113,1",,,"00,1","7,1,06,1","02,1,+01260,1,99,9",,,,"99999,9,10087,1","2,1,002,1,+999,9","SYN076AAXX  16121 02458 47662 /1601 11065 21066 30087 40113 52002 70071 333 82/42;",
"02458099999","2010-02-16T15:00:00","4","59.897328","17.588581","20.72","UPPSALA, SW","FM-12","ESCM ","V020","180,1,N,0010,1","01260,1,C,N","010000,1,N,1","-0054,1","-0055,1","10111,1",,,,,"08,1,+01260,1,99,9",,,,"99999,9,10085,1","7,1,002,1,+999,9","SYN070AAXX  16151 02458 45660 /1801 11054 21055 30085 40111 57002 333 88/42;",
"02458099999","2010-02-16T18:00:00","4","59.897328","17.588581","20.72","UPPSALA, SW","FM-12","ESCM ","V020","140,1,N,0010,1","99999,9,9,N","009000,1,N,1","-0069,1","-0070,1","10115,1",,,"10,1","2,1,06,1","02,1,+00840,1,99,9",,"120,M,-0053,1","999,N,-0099,1","99999,9,10088,1","2,1,004,1,+999,9","SYN088AAXX  16181 02458 37559 /1401 11069 21070 30088 40115 52004 71010 333 11053 21099 82/28;",
"02458099999","2010-02-16T21:00:00","4","59.897328","17.588581","20.72","UPPSALA, SW","FM-12","ESCM ","V020","999,9,C,0000,1","00780,1,C,N","003900,1,N,1","-0079,1","-0081,1","10121,1",,,"71,1","7,1,03,1","09,1,+00780,1,99,9",,,,"99999,9,10095,1","2,1,006,1,+999,9","SYN076AAXX  16211 02458 47/39 /0000 11079 21081 30095 40121 52006 77171 333 89/26;",
"02458099999","2010-02-17T00:00:00","4","59.897328","17.588581","20.72","UPPSALA, SW","FM-12","ESCM ","V020","999,9,C,0000,1","01260,1,C,N","003900,1,N,1","-0087,1","-0090,1","10122,1",,,"71,1","7,1,06,1","09,1,+01260,1,99,9",,,,"99999,9,10095,1","2,1,001,1,+999,9","SYN076AAXX  17001 02458 47/39 /0000 11087 21090 30095 40122 52001 77171 333 89/42;",
"02458099999","2010-02-17T03:00:00","4","59.897328","17.588581","20.72","UPPSALA, SW","FM-12","ESCM ","V020","320,1,N,0010,1","99999,9,9,N","007000,1,N,1","-0089,1","-0091,1","10118,1",,,"71,1","7,1,03,1","02,1,+00690,1,99,9",,,,"99999,9,10091,1","7,1,005,1,+999,9","SYN082AAXX  17031 02458 47557 /3201 11089 21091 30091 40118 57005 77177 333 82/23 88/37;",
"02458099999","2010-02-17T06:00:00","4","59.897328","17.588581","20.72","UPPSALA, SW","FM-12","ESCM ","V020","999,9,C,0000,1","00510,1,C,N","006000,1,N,1","-0079,1","-0081,1","10115,1","12,0010,9,1","24,0010,9,1","71,1","8,1,06,1","06,1,+00510,1,99,9",,"120,M,-0068,1","999,N,-0092,1","99999,9,10089,1","7,1,002,1,+999,9","SYN106AAXX  17061 02458 17456 /0000 11079 21081 30089 40115 57002 60012 77187 333 11068 21092 70011 86/17 88/48;",
"02458099999","2010-02-17T09:00:00","4","59.897328","17.588581","20.72","UPPSALA, SW","FM-12","ESCM ","V020","999,9,C,0000,1","00540,1,C,N","009000,1,N,1","-0058,1","-0059,1","10114,1",,,"71,1","8,1,03,1","08,1,+00540,1,99,9",,,,"99999,9,10087,1","7,1,001,1,+999,9","SYN076AAXX  17091 02458 47459 /0000 11058 21059 30087 40114 57001 77187 333 88/18;",
"02458099999","2010-02-17T12:00:00","4","59.897328","17.588581","20.72","UPPSALA, SW","FM-12","ESCM ","V020","110,1,N,0020,1","00390,1,C,N","002300,1,N,1","-0043,1","-0043,1","10109,1",,,"71,1","8,1,06,1","04,1,+00240,1,99,9","05,1,+00390,1,99,9",,,"99999,9,10082,1","8,1,005,1,+999,9","SYN088AAXX  17121 02458 47323 /1102 11043 21043 30082 40109 58005 77187 333 84/08 85/13 87/17;",
"02458099999","2010-02-17T15:00:00","4","59.897328","17.588581","20.72","UPPSALA, SW","FM-12","ESCM ","V020","100,1,N,0030,1","00450,1,C,N","006000,1,N,1","-0052,1","-0052,1","10101,1",,,"71,1","7,1,03,1","04,1,+00330,1,99,9","06,1,+00450,1,99,9",,,"99999,9,10075,1","7,1,008,1,+999,9","SYN088AAXX  17151 02458 47456 /1003 11052 21052 30075 40101 57008 77177 333 84/11 86/15 88/20;",
"02458099999","2010-02-17T18:00:00","4","59.897328","17.588581","20.72","UPPSALA, SW","FM-12","ESCM ","V020","050,1,N,0010,1","00420,1,C,N","012000,1,N,1","-0082,1","-0085,1","10102,1","12,0020,9,1",,"77,1","7,1,06,1","01,1,+00300,1,99,9","07,1,+00420,1,99,9","120,M,-0041,1","999,N,-0083,1","99999,9,10075,1","4,1,000,1,+999,9","SYN106AAXX  17181 02458 17462 /0501 11082 21085 30075 40102 54000 60022 77777 333 11041 21083 81/10 87/14 88/43;",
"02458099999","2010-02-17T21:00:00","4","59.897328","17.588581","20.72","UPPSALA, SW","FM-12","ESCM ","V020","360,1,N,0010,1","01500,1,C,N","019000,1,N,1","-0087,1","-0089,1","10101,1",,,"24,1","8,1,03,1","04,1,+00690,1,99,9","07,1,+01500,1,99,9",,,"99999,9,10074,1","4,1,000,1,+999,9","SYN088AAXX  17211 02458 47569 /3601 11087 21089 30074 40101 54001 72487 333 84/23 87/50 88/56;",
"02458099999","2010-02-18T00:00:00","4","59.897328","17.588581","20.72","UPPSALA, SW","FM-12","ESCM ","V020","340,1,N,0020,1","01380,1,C,N","014000,1,N,1","-0122,1","-0126,1","10097,1",,,"00,1","8,1,06,1","08,1,+01380,1,99,9",,,,"99999,9,10069,1","7,1,005,1,+999,9","SYN076AAXX  18001 02458 47664 /3402 11122 21126 30069 40097 57005 70087 333 88/46;",
"02458099999","2010-02-18T03:00:00","4","59.897328","17.588581","20.72","UPPSALA, SW","FM-12","ESCM ","V020","320,1,N,0010,1","00540,1,C,N","011000,1,N,1","-0140,1","-0147,1","10091,1",,,"71,1","7,1,03,1","06,1,+00540,1,99,9",,,,"99999,9,10064,1","7,1,005,1,+999,9","SYN076AAXX  18031 02458 47461 /3201 11140 21147 30064 40091 57005 77171 333 86/18;",
"02458099999","2010-02-18T06:00:00","4","59.897328","17.588581","20.72","UPPSALA, SW","FM-12","ESCM ","V020","020,1,N,0020,1","00270,1,C,N","009000,1,N,1","-0075,1","-0076,1","10091,1","12,0000,2,1","24,0025,9,1","71,1","8,1,06,1","08,1,+00270,1,99,9",,"120,M,-0074,1","999,N,-0156,1","99999,9,10065,1","4,1,000,1,+999,9","SYN106AAXX  18061 02458 07359 /0202 11075 21076 30065 40091 54001 69922 77187 333 11074 21156 69915 70025 88/09;",
"02458099999","2010-02-18T09:00:00","4","59.897328","17.588581","20.72","UPPSALA, SW","FM-12","ESCM ","V020","340,1,N,0030,1","00330,1,C,N","009000,1,N,1","-0085,1","-0088,1","10096,1",,,"71,1","7,1,03,1","08,1,+00330,1,99,9",,,,"99999,9,10070,1","2,1,005,1,+999,9","SYN076AAXX  18091 02458 47459 /3403 11085 21088 30070 40096 52005 77177 333 88/11;",
"02458099999","2010-02-18T12:00:00","4","59.897328","17.588581","20.72","UPPSALA, SW","FM-12","ESCM ","V020","040,1,N,0040,1","00420,1,C,N","026000,1,N,1","-0059,1","-0070,1","10092,1",,,"00,1","7,1,06,1","08,1,+00420,1,99,9",,,,"99999,9,10066,1","7,1,004,1,+999,9","SYN076AAXX  18121 02458 47476 /0404 11059 21070 30066 40092 57004 70072 333 88/14;",
"02458099999","2010-02-18T15:00:00","4","59.897328","17.588581","20.72","UPPSALA, SW","FM-12","ESCM ","V020","060,1,N,0040,1","99999,9,9,N","010000,1,N,1","-0066,1","-0076,1","10085,1",,,"71,1","7,1,03,1","02,1,+00330,1,99,9",,,,"99999,9,10058,1","7,1,007,1,+999,9","SYN082AAXX  18151 02458 47460 /0604 11066 21076 30058 40085 57007 77170 333 82/11 88/16;",
"02458099999","2010-02-18T18:00:00","4","59.897328","17.588581","20.72","UPPSALA, SW","FM-12","ESCM ","V020","050,1,N,0040,1","00300,1,C,N","009000,1,N,1","-0068,1","-0075,1","10081,1",,,"71,1","7,1,06,1","08,1,+00300,1,99,9",,"120,M,-0057,1","999,N,-0085,1","99999,9,10055,1","7,1,004,1,+999,9","SYN088AAXX  18181 02458 37459 /0504 11068 21075 30055 40081 57004 77172 333 11057 21085 88/10;",
"02458099999","2010-02-18T21:00:00","4","59.897328","17.588581","20.72","UPPSALA, SW","FM-12","ESCM ","V020","070,1,N,0060,1","00240,1,C,N","013000,1,N,1","-0087,1","-0093,1","10078,1",,,"24,1","7,1,03,1","08,1,+00240,1,99,9",,,,"99999,9,10051,1","5,1,004,1,+999,9","SYN076AAXX  18211 02458 47363 /0706 11087 21093 30051 40078 55004 72472 333 88/08;",
"02458099999","2010-02-19T00:00:00","4","59.897328","17.588581","20.72","UPPSALA, SW","FM-12","ESCM ","V020","050,1,N,0070,1","00270,1,C,N","012000,1,N,1","-0099,1","-0107,1","10065,1",,,"71,1","8,1,06,1","08,1,+00270,1,99,9",,,,"99999,9,10038,1","8,1,013,1,+999,9","SYN076AAXX  19001 02458 47362 /0507 11099 21107 30038 40065 58013 77187 333 88/09;",
"02458099999","2010-02-19T03:00:00","4","59.897328","17.588581","20.72","UPPSALA, SW","FM-12","ESCM ","V020","040,1,N,0040,1","00360,1,C,N","003800,1,N,1","-0108,1","-0115,1","10048,1",,,"71,1","7,1,03,1","09,1,+00360,1,99,9",,,,"99999,9,10021,1","6,1,017,1,+999,9","SYN076AAXX  19031 02458 47/38 /0404 11108 21115 30021 40048 56017 77177 333 89/12;",
"02458099999","2010-02-19T06:00:00","4","59.897328","17.588581","20.72","UPPSALA, SW","FM-12","ESCM ","V020","020,1,N,0050,1","00480,1,C,N","001900,1,N,1","-0113,1","-0119,1","10037,1","12,0020,9,2","24,0015,9,2","71,1","7,1,06,1","09,1,+00480,1,99,9",,"120,M,-0068,1","999,N,-0113,1","99999,9,10010,1","8,1,011,1,+999,9","SYN106AAXX  19061 02458 07/19 /0205 11113 21119 30010 40037 58011 60022 77177 333 11068 21113 69945 70015 89/16;",
"02458099999","2010-02-19T09:00:00","4","59.897328","17.588581","20.72","UPPSALA, SW","FM-12","ESCM ","V020","040,1,N,0050,1","99999,9,9,N","005000,1,N,1","-0106,1","-0115,1","10031,1",,,"77,1","7,1,03,1","03,1,+00240,1,99,9",,,,"99999,9,10004,1","8,1,006,1,+999,9","SYN082AAXX  19091 02458 47350 /0405 11106 21115 30004 40031 58006 77777 333 83/08 88/13;",
"02458099999","2010-02-19T12:00:00","4","59.897328","17.588581","20.72","UPPSALA, SW","FM-12","ESCM ","V020","050,1,N,0050,1","00540,1,C,N","003000,1,N,1","-0093,1","-0106,1","10035,1",,,"71,1","7,1,06,1","09,1,+00540,1,99,9",,,,"99999,9,10008,1","3,1,004,1,+999,9","SYN076AAXX  19121 02458 47/30 /0505 11093 21106 30008 40035 53004 77177 333 89/18;",
"02458099999","2010-02-19T18:00:00","4","59.897328","17.588581","20.72","UPPSALA, SW","FM-12","ESCM ","V020","050,1,N,0030,1","00360,1,C,N","011000,1,N,1","-0097,1","-0104,1","10041,1","12,0010,9,1",,"71,1","7,1,06,1","08,1,+00360,1,99,9",,"120,M,-0091,1","999,N,-0115,1","99999,9,10014,1","3,1,004,1,+999,9","SYN094AAXX  19181 02458 17461 /0503 11097 21104 30014 40041 53004 60012 77177 333 11091 21115 88/12;",
"02458099999","2010-02-19T21:00:00","4","59.897328","17.588581","20.72","UPPSALA, SW","FM-12","ESCM ","V020","060,1,N,0060,1","99999,9,9,N","006000,1,N,1","-0102,1","-0115,1","10047,1",,,"71,1","7,1,03,1","01,1,+00360,1,99,9",,,,"99999,9,10020,1","2,1,006,1,+999,9","SYN082AAXX  19211 02458 47456 /0606 11102 21115 30020 40047 52006 77177 333 81/12 88/19;",
"02458099999","2010-02-20T00:00:00","4","59.897328","17.588581","20.72","UPPSALA, SW","FM-12","ESCM ","V020","040,1,N,0040,1","00510,1,C,N","005000,1,N,1","-0116,1","-0124,1","10049,1",,,"71,1","7,1,06,1","01,1,+00300,1,99,9","06,1,+00510,1,99,9",,,"99999,9,10022,1","0,1,002,1,+999,9","SYN088AAXX  20001 02458 47450 /0404 11116 21124 30022 40049 50002 77177 333 81/10 86/17 88/24;",
"02458099999","2010-02-20T03:00:00","4","59.897328","17.588581","20.72","UPPSALA, SW","FM-12","ESCM ","V020","050,1,N,0070,1","00570,1,C,N","008000,1,N,1","-0128,1","-0142,1","10045,1",,,"71,1","7,1,03,1","08,1,+00570,1,99,9",,,,"99999,9,10018,1","7,1,005,1,+999,9","SYN076AAXX  20031 02458 47458 /0507 11128 21142 30018 40045 57005 77177 333 88/19;",
"02458099999","2010-02-20T06:00:00","4","59.897328","17.588581","20.72","UPPSALA, SW","FM-12","ESCM ","V020","050,1,N,0070,1","00720,1,C,N","007000,1,N,1","-0140,1","-0156,1","10039,1","12,0020,9,1","24,0033,9,1","71,1","7,1,06,1","08,1,+00720,1,99,9",,"120,M,-0092,1","999,N,-0140,1","99999,9,10012,1","7,1,006,1,+999,9","SYN106AAXX  20061 02458 07557 /0507 11140 21156 30012 40039 57006 60022 77177 333 11092 21140 69915 70032 88/24;",
"02458099999","2010-02-20T09:00:00","4","59.897328","17.588581","20.72","UPPSALA, SW","FM-12","ESCM ","V020","040,1,N,0060,1","00510,1,C,N","040000,1,N,1","-0164,1","-0184,1","10040,1",,,"24,1","7,1,03,1","07,1,+00510,1,99,9",,,,"99999,9,10013,1","4,1,000,1,+999,9","SYN076AAXX  20091 02458 47482 /0406 11164 21184 30013 40040 54001 72472 333 87/17;",
"02458099999","2010-02-20T12:00:00","4","59.897328","17.588581","20.72","UPPSALA, SW","FM-12","ESCM ","V020","040,1,N,0060,1","00660,1,C,N","005000,1,N,1","-0157,1","-0176,1","10028,1",,,"71,1","8,1,06,1","09,1,+00660,1,99,9",,,,"99999,9,10001,1","8,1,011,1,+999,9","SYN076AAXX  20121 02458 47/50 /0406 11157 21176 30001 40028 58011 77187 333 89/22;",
"02458099999","2010-02-20T15:00:00","4","59.897328","17.588581","20.72","UPPSALA, SW","FM-12","ESCM ","V020","040,1,N,0060,1","00240,1,C,N","002600,1,N,1","-0146,1","-0157,1","10013,1",,,"71,1","7,1,03,1","09,1,+00240,1,99,9",,,,"99999,9,09986,1","5,1,015,1,+999,9","SYN076AAXX  20151 02458 47/26 /0406 11146 21157 39986 40013 55015 77177 333 89/08;",
"02458099999","2010-02-20T18:00:00","4","59.897328","17.588581","20.72","UPPSALA, SW","FM-12","ESCM ","V020","030,1,N,0060,1","00240,1,C,N","002900,1,N,1","-0136,1","-0146,1","10004,1","12,0020,9,1",,"71,1","7,1,06,1","09,1,+00240,1,99,9",,"120,M,-0136,1","999,N,-0165,1","99999,9,09977,1","7,1,009,1,+999,9","SYN100AAXX  20181 02458 07/29 /0306 11136 21146 39977 40004 57009 60022 77177 333 11136 21165 69945 89/08;",
"02458099999","2010-02-20T21:00:00","4","59.897328","17.588581","20.72","UPPSALA, SW","FM-12","ESCM ","V020","030,1,N,0070,1","00180,1,C,N","002400,1,N,1","-0140,1","-0150,1","10001,1",,,"71,1","7,1,03,1","09,1,+00180,1,99,9",,,,"99999,9,09974,1","7,1,003,1,+999,9","SYN076AAXX  20211 02458 47/24 /0307 11140 21150 39974 40001 57003 77177 333 89/06;",
"02458099999","2010-02-21T00:00:00","4","59.897328","17.588581","20.72","UPPSALA, SW","FM-12","ESCM ","V020","040,1,N,0060,1","00180,1,C,N","002000,1,N,1","-0145,1","-0155,1","09996,1",,,"71,1","7,1,06,1","09,1,+00180,1,99,9",,,,"99999,9,09969,1","7,1,006,1,+999,9","SYN076AAXX  21001 02458 47/20 /0406 11145 21155 39969 49996 57006 77177 333 89/06;",
"02458099999","2010-02-21T03:00:00","4","59.897328","17.588581","20.72","UPPSALA, SW","FM-12","ESCM ","V020","030,1,N,0050,1","00810,1,C,N","005000,1,N,1","-0154,1","-0165,1","09982,1",,,"71,1","7,1,03,1","09,1,+00810,1,99,9",,,,"99999,9,09954,1","8,1,014,1,+999,9","SYN076AAXX  21031 02458 47/50 /0305 11154 21165 39954 49982 58014 77177 333 89/27;",
"02458099999","2010-02-21T06:00:00","4","59.897328","17.588581","20.72","UPPSALA, SW","FM-12","ESCM ","V020","020,1,N,0020,1","00840,1,C,N","004000,1,N,1","-0160,1","-0170,1","09974,1","12,0041,9,1","24,0061,9,1","71,1","7,1,06,1","07,1,+00840,1,99,9",,"120,M,-0136,1","999,N,-0159,1","99999,9,09947,1","7,1,007,1,+999,9","SYN106AAXX  21061 02458 07540 /0202 11160 21170 39947 49974 57007 60042 77177 333 11136 21159 69915 70060 87/28;",
"02458099999","2010-02-21T09:00:00","4","59.897328","17.588581","20.72","UPPSALA, SW","FM-12","ESCM ","V020","020,1,N,0020,1","99999,9,9,N","006000,1,N,1","-0159,1","-0172,1","09973,1",,,"85,1","8,1,03,1",,,,,"99999,9,09946,1","7,1,001,1,+999,9","SYN066AAXX  21091 02458 47956 /0202 11159 21172 39946 49973 57001 78587;",
"02458099999","2010-02-21T12:00:00","4","59.897328","17.588581","20.72","UPPSALA, SW","FM-12","ESCM ","V020","340,1,N,0040,1","99999,9,9,N","035000,1,N,1","-0140,1","-0160,1","09974,1",,,"00,1","8,1,06,1",,,,,"99999,9,09947,1","4,1,000,1,+999,9","SYN066AAXX  21121 02458 47981 /3404 11140 21160 39947 49974 54001 70087;",
"02458099999","2010-02-21T15:00:00","4","59.897328","17.588581","20.72","UPPSALA, SW","FM-12","ESCM ","V020","350,1,N,0040,1","99999,9,9,N","010000,1,N,1","-0143,1","-0161,1","09981,1",,,"71,1","7,1,03,1","01,1,+00180,1,99,9","03,1,+00330,1,99,9",,,"99999,9,09954,1","2,1,007,1,+999,9","SYN088AAXX  21151 02458 47260 /3504 11143 21161 39954 49981 52007 77170 333 81/06 83/11 85/25;",
"02458099999","2010-02-21T18:00:00","4","59.897328","17.588581","20.72","UPPSALA, SW","FM-12","ESCM ","V020","350,1,N,0040,1","00510,1,C,N","035000,1,N,1","-0165,1","-0184,1","09993,1","12,0000,2,1",,"00,1","8,1,06,1","08,1,+00510,1,99,9",,"120,M,-0134,1","999,N,-0191,1","99999,9,09966,1","2,1,012,1,+999,9","SYN094AAXX  21181 02458 17481 /3504 11165 21184 39966 49993 52012 69912 70087 333 11134 21191 88/17;",
"02458099999","2010-02-21T21:00:00","4","59.897328","17.588581","20.72","UPPSALA, SW","FM-12","ESCM ","V020","320,1,N,0020,1","99999,9,9,N","040000,1,N,1","-0211,1","-0224,1","10000,1",,,,,,,,,"99999,9,09972,1","2,1,007,1,+999,9","SYN060AAXX  21211 02458 45982 /3202 11211 21224 39972 40000 52007;",
"02458099999","2010-02-22T00:00:00","4","59.897328","17.588581","20.72","UPPSALA, SW","FM-12","ESCM ","V020","300,1,N,0030,1","99999,9,9,N","040000,1,N,1","-0239,1","-0255,1","10011,1",,,,,,,,,"99999,9,09983,1","3,1,011,1,+999,9","SYN060AAXX  22001 02458 45982 /3003 11239 21255 39983 40011 53011;",
"02458099999","2010-02-22T03:00:00","4","59.897328","17.588581","20.72","UPPSALA, SW","FM-12","ESCM ","V020","999,9,C,0000,1","99999,9,9,N","022000,1,N,1","-0257,1","-0273,1","10013,1",,,,,,,,,"99999,9,09985,1","2,1,002,1,+999,9","SYN060AAXX  22031 02458 45972 /0000 11257 21273 39985 40013 52002;",
"02458099999","2010-02-22T06:00:00","4","59.897328","17.588581","20.72","UPPSALA, SW","FM-12","ESCM ","V020","200,1,N,0010,1","99999,9,9,N","035000,1,N,1","-0290,1","-0311,1","10017,1","24,0000,2,1",,,,,,"120,M,-0165,1","999,N,-0290,1","99999,9,09988,1","2,1,004,1,+999,9","SYN082AAXX  22061 02458 35981 /2001 11290 21311 39988 40017 52004 333 11165 21290 70001;",
"02458099999","2010-02-22T09:00:00","4","59.897328","17.588581","20.72","UPPSALA, SW","FM-12","ESCM ","V020","200,1,N,0010,1","99999,9,9,N","035000,1,N,1","-0242,1","-0262,1","10023,1",,,"20,1","8,1,03,1",,,,,"99999,9,09995,1","2,1,007,1,+999,9","SYN066AAXX  22091 02458 47981 /2001 11242 21262 39995 40023 52007 72087;",
"02458099999","2010-02-22T12:00:00","4","59.897328","17.588581","20.72","UPPSALA, SW","FM-12","ESCM ","V020","200,1,N,0030,1","99999,9,9,N","040000,1,N,1","-0162,1","-0191,1","10023,1",,,"00,1","8,1,06,1",,,,,"99999,9,09995,1","4,1,000,1,+999,9","SYN066AAXX  22121 02458 47982 /2003 11162 21191 39995 40023 54000 70084;",
"02458099999","2010-02-22T15:00:00","4","59.897328","17.588581","20.72","UPPSALA, SW","FM-12","ESCM ","V020","170,1,N,0020,1","00960,1,C,N","050000,1,N,1","-0156,1","-0196,1","10016,1",,,,,"08,1,+00960,1,99,9",,,,"99999,9,09989,1","7,1,007,1,+999,9","SYN070AAXX  22151 02458 45584 /1702 11156 21196 39989 40016 57007 333 88/32;",
"02458099999","2010-02-22T18:00:00","4","59.897328","17.588581","20.72","UPPSALA, SW","FM-12","ESCM ","V020","999,9,C,0000,1","99999,9,9,N","035000,1,N,1","-0214,1","-0229,1","10013,1",,,,,,,"120,M,-0155,1","999,N,-0298,1","99999,9,09985,1","6,1,003,1,+999,9","SYN076AAXX  22181 02458 35981 /0000 11214 21229 39985 40013 56003 333 11155 21298;",
"02458099999","2010-02-22T21:00:00","4","59.897328","17.588581","20.72","UPPSALA, SW","FM-12","ESCM ","V020","110,1,N,0010,1","99999,9,9,N","050000,1,N,1","-0206,1","-0229,1","10005,1",,,"00,1","8,1,03,1",,,,,"99999,9,09978,1","7,1,007,1,+999,9","SYN066AAXX  22211 02458 47984 /1101 11206 21229 39978 40005 57007 70087;",
"02458099999","2010-02-23T00:00:00","4","59.897328","17.588581","20.72","UPPSALA, SW","FM-12","ESCM ","V020","010,1,N,0020,1","99999,9,9,N","030000,1,N,1","-0173,1","-0190,1","09989,1",,,"00,1","8,1,06,1","04,1,+00210,1,99,9",,,,"99999,9,09962,1","8,1,016,1,+999,9","SYN082AAXX  23001 02458 47380 /0102 11173 21190 39962 49989 58016 70087 333 84/07 88/11;",
"02458099999","2010-02-23T03:00:00","4","59.897328","17.588581","20.72","UPPSALA, SW","FM-12","ESCM ","V020","050,1,N,0040,1","00330,1,C,N","024000,1,N,1","-0136,1","-0154,1","09973,1",,,"71,1","7,1,03,1","07,1,+00330,1,99,9",,,,"99999,9,09946,1","7,1,016,1,+999,9","SYN082AAXX  23031 02458 47474 /0504 11136 21154 39946 49973 57016 77170 333 87/11 88/14;",
"02458099999","2010-02-23T06:00:00","4","59.897328","17.588581","20.72","UPPSALA, SW","FM-12","ESCM ","V020","010,1,N,0030,1","00270,1,C,N","014000,1,N,1","-0128,1","-0139,1","09961,1","12,0003,9,1","24,0003,9,1","71,1","7,1,06,1","08,1,+00270,1,99,9",,"120,M,-0128,1","999,N,-0244,1","99999,9,09934,1","6,1,012,1,+999,9","SYN100AAXX  23061 02458 17364 /0103 11128 21139 39934 49961 56012 69932 77170 333 11128 21244 70003 88/09;",
"02458099999","2010-02-23T09:00:00","4","59.897328","17.588581","20.72","UPPSALA, SW","FM-12","ESCM ","V020","010,1,N,0040,1","01080,1,C,N","003900,1,N,1","-0111,1","-0122,1","09954,1",,,"71,1","7,1,03,1","09,1,+01080,1,99,9",,,,"99999,9,09927,1","7,1,007,1,+999,9","SYN076AAXX  23091 02458 47/39 /0104 11111 21122 39927 49954 57007 77177 333 89/36;",
"02458099999","2010-02-23T12:00:00","4","59.897328","17.588581","20.72","UPPSALA, SW","FM-12","ESCM ","V020","010,1,N,0050,1","00420,1,C,N","028000,1,N,1","-0098,1","-0114,1","09951,1",,,"00,1","7,1,06,1","06,1,+00420,1,99,9",,,,"99999,9,09925,1","5,1,002,1,+999,9","SYN082AAXX  23121 02458 47478 /0105 11098 21114 39925 49951 55002 70072 333 86/14 88/58;",
"02458099999","2010-02-23T15:00:00","4","59.897328","17.588581","20.72","UPPSALA, SW","FM-12","ESCM ","V020","340,1,N,0060,1","01320,1,C,N","026000,1,N,1","-0117,1","-0135,1","09966,1",,,"71,1","7,1,03,1","07,1,+01320,1,99,9",,,,"99999,9,09939,1","3,1,015,1,+999,9","SYN082AAXX  23151 02458 47676 /3406 11117 21135 39939 49966 53015 77170 333 87/44 88/50;",
"02458099999","2010-02-23T18:00:00","4","59.897328","17.588581","20.72","UPPSALA, SW","FM-12","ESCM ","V020","330,1,N,0020,1","00240,1,C,N","004300,1,N,1","-0158,1","-0166,1","09990,1","12,0008,9,1",,"71,1","8,1,06,1","07,1,+00240,1,99,9",,"120,M,-0091,1","999,N,-0179,1","99999,9,09962,1","3,1,023,1,+999,9","SYN094AAXX  23181 02458 17343 /3302 11158 21166 39962 49990 53023 69972 77187 333 11091 21179 87/08;",
"02458099999","2010-02-23T21:00:00","4","59.897328","17.588581","20.72","UPPSALA, SW","FM-12","ESCM ","V020","300,1,N,0010,1","99999,9,9,N","022000,1,N,1","-0185,1","-0194,1","10012,1",,,"85,1","8,1,03,1","02,1,+01800,1,99,9",,,,"99999,9,09985,1","3,1,023,1,+999,9","SYN076AAXX  23211 02458 47772 /3001 11185 21194 39985 40012 53023 78587 333 82/56;",
"02458099999","2010-02-24T00:00:00","4","59.897328","17.588581","20.72","UPPSALA, SW","FM-12","ESCM ","V020","999,9,C,0000,1","22000,1,C,N","001600,1,N,1","-0167,1","-0177,1","10028,1",,,"71,1","8,1,06,1","01,1,+00060,1,99,9","04,1,+00150,1,99,9",,,"99999,9,10001,1","2,1,016,1,+999,9","SYN088AAXX  24001 02458 47116 /0000 11167 21177 30001 40028 52016 77187 333 81/02 84/05 86/13;",
"02458099999","2010-02-24T03:00:00","4","59.897328","17.588581","20.72","UPPSALA, SW","FM-12","ESCM ","V020","140,1,N,0010,1","00390,1,C,N","002300,1,N,1","-0164,1","-0173,1","10038,1",,,"71,1","7,1,03,1","01,1,+00090,1,99,9","05,1,+00390,1,99,9",,,"99999,9,10010,1","2,1,010,1,+999,9","SYN088AAXX  24031 02458 47223 /1401 11164 21173 30010 40038 52010 77177 333 81/03 85/13 87/36;",
"02458099999","2010-02-24T06:00:00","4","59.897328","17.588581","20.72","UPPSALA, SW","FM-12","ESCM ","V020","999,9,C,0000,1","22000,1,C,N","004400,1,N,1","-0201,1","-0214,1","10047,1","12,0020,9,1","24,0030,9,1","85,1","8,1,06,1","02,1,+00360,1,99,9","03,1,+00540,1,99,9","120,M,-0152,1","999,N,-0223,1","99999,9,10019,1","3,1,009,1,+999,9","SYN118AAXX  24061 02458 07444 /0000 11201 21214 30019 40047 53009 60022 78587 333 11152 21223 69925 70031 82/12 83/18 88/36;",
"02458099999","2010-02-24T09:00:00","4","59.897328","17.588581","20.72","UPPSALA, SW","FM-12","ESCM ","V020","999,9,C,0000,1","99999,9,9,N","019000,1,N,1","-0166,1","-0181,1","10066,1",,,"22,1","8,1,03,1",,,,,"99999,9,10039,1","2,1,020,1,+999,9","SYN066AAXX  24091 02458 47969 /0000 11166 21181 30039 40066 52020 72287;",
"02458099999","2010-02-24T12:00:00","4","59.897328","17.588581","20.72","UPPSALA, SW","FM-12","ESCM ","V020","190,1,N,0020,1","99999,9,9,N","030000,1,N,1","-0091,1","-0103,1","10076,1",,,"00,1","8,1,06,1",,,,,"99999,9,10049,1","0,1,010,1,+999,9","SYN066AAXX  24121 02458 47980 /1902 11091 21103 30049 40076 50010 70087;",
"02458099999","2010-02-24T15:00:00","4","59.897328","17.588581","20.72","UPPSALA, SW","FM-12","ESCM ","V020","200,1,N,0030,1","99999,9,9,N","035000,1,N,1","-0078,1","-0104,1","10079,1",,,,,,,,,"99999,9,10052,1","2,1,003,1,+999,9","SYN060AAXX  24151 02458 45981 /2003 11078 21104 30052 40079 52003;",
"02458099999","2010-02-24T18:00:00","4","59.897328","17.588581","20.72","UPPSALA, SW","FM-12","ESCM ","V020","200,1,N,0030,1","99999,9,9,N","045000,1,N,1","-0115,1","-0127,1","10087,1","12,0000,2,1",,,,,,"120,M,-0077,1","999,N,-0206,1","99999,9,10060,1","2,1,008,1,+999,9","SYN082AAXX  24181 02458 15983 /2003 11115 21127 30060 40087 52008 69912 333 11077 21206;",
"02458099999","2010-02-24T21:00:00","4","59.897328","17.588581","20.72","UPPSALA, SW","FM-12","ESCM ","V020","210,1,N,0050,1","99999,9,9,N","035000,1,N,1","-0090,1","-0096,1","10093,1",,,,,,,,,"99999,9,10066,1","2,1,006,1,+999,9","SYN060AAXX  24211 02458 45981 /2105 11090 21096 30066 40093 52006;",
"02458099999","2010-02-25T00:00:00","4","59.897328","17.588581","20.72","UPPSALA, SW","FM-12","ESCM ","V020","999,9,C,0000,1","99999,9,9,N","029000,1,N,1","-0113,1","-0116,1","10105,1",,,,,"02,1,+04800,1,99,9",,,,"99999,9,10078,1","1,1,012,1,+999,9","SYN070AAXX  25001 02458 45979 /0000 11113 21116 30078 40105 51012 333 82/66;",
"02458099999","2010-02-25T03:00:00","4","59.897328","17.588581","20.72","UPPSALA, SW","FM-12","ESCM ","V020","150,1,N,0010,1","99999,9,9,N","013000,1,N,1","-0110,1","-0113,1","10106,1",,,"00,1","4,1,03,1",,,,,"99999,9,10079,1","2,1,001,1,+999,9","SYN066AAXX  25031 02458 47963 /1501 11110 21113 30079 40106 52001 70032;",
"02458099999","2010-02-25T06:00:00","4","59.897328","17.588581","20.72","UPPSALA, SW","FM-12","ESCM ","V020","999,9,C,0000,1","04200,1,C,N","005000,1,N,1","-0174,1","-0183,1","10104,1","24,0000,2,1",,"31,1","4,1,06,1","07,1,+04200,1,99,9",,"120,M,-0089,1","999,N,-0183,1","99999,9,10076,1","7,1,002,1,+999,9","SYN094AAXX  25061 02458 37950 /0000 11174 21183 30076 40104 57002 73132 333 11089 21183 70001 87/64;",
"02458099999","2010-02-25T09:00:00","4","59.897328","17.588581","20.72","UPPSALA, SW","FM-12","ESCM ","V020","999,9,C,0000,1","03000,1,C,N","012000,1,N,1","-0132,1","-0138,1","10106,1",,,"00,1","4,1,03,1","08,1,+03000,1,99,9",,,,"99999,9,10078,1","0,1,002,1,+999,9","SYN076AAXX  25091 02458 47962 /0000 11132 21138 30078 40106 50002 70032 333 88/60;",
"02458099999","2010-02-25T12:00:00","4","59.897328","17.588581","20.72","UPPSALA, SW","FM-12","ESCM ","V020","330,1,N,0010,1","02100,1,C,N","023000,1,N,1","-0082,1","-0086,1","10092,1",,,"00,1","4,1,06,1","07,1,+02100,1,99,9",,,,"99999,9,10065,1","8,1,014,1,+999,9","SYN076AAXX  25121 02458 47873 /3301 11082 21086 30065 40092 58014 70032 333 87/57;",
"02458099999","2010-02-25T15:00:00","4","59.897328","17.588581","20.72","UPPSALA, SW","FM-12","ESCM ","V020","120,1,N,0040,1","99999,9,9,N","050000,1,N,1","-0018,1","-0021,1","10072,1",,,,,"04,1,+02100,1,99,9",,,,"99999,9,10046,1","7,1,019,1,+999,9","SYN076AAXX  25151 02458 45884 /1204 11018 21021 30046 40072 57019 333 84/57 88/59;",
"02458099999","2010-02-25T18:00:00","4","59.897328","17.588581","20.72","UPPSALA, SW","FM-12","ESCM ","V020","110,1,N,0040,1","02700,1,C,N","050000,1,N,1","-0030,1","-0043,1","10062,1",,,,,"08,1,+02700,1,99,9",,"120,M,-0014,1","999,N,-0187,1","99999,9,10036,1","6,1,010,1,+999,9","SYN082AAXX  25181 02458 35984 /1104 11030 21043 30036 40062 56010 333 11014 21187 88/59;",
"02458099999","2010-02-25T21:00:00","4","59.897328","17.588581","20.72","UPPSALA, SW","FM-12","ESCM ","V020","110,1,N,0040,1","00210,1,C,N","026000,1,N,1","-0034,1","-0037,1","10043,1",,,,,"08,1,+00210,1,99,9",,,,"99999,9,10017,1","7,1,019,1,+999,9","SYN070AAXX  25211 02458 45376 /1104 11034 21037 30017 40043 57019 333 88/07;",
"02458099999","2010-02-26T00:00:00","4","59.897328","17.588581","20.72","UPPSALA, SW","FM-12","ESCM ","V020","080,1,N,0040,1","00240,1,C,N","002500,1,N,1","-0037,1","-0038,1","10028,1",,,"71,1","7,1,06,1","06,1,+00240,1,99,9",,,,"99999,9,10001,1","8,1,016,1,+999,9","SYN082AAXX  26001 02458 47325 /0804 11037 21038 30001 40028 58016 77174 333 86/08 88/11;",
"02458099999","2010-02-26T03:00:00","4","59.897328","17.588581","20.72","UPPSALA, SW","FM-12","ESCM ","V020","110,1,N,0030,1","00150,1,C,N","009000,1,N,1","-0022,1","-0022,1","10004,1",,,"71,1","7,1,03,1","08,1,+00150,1,99,9",,,,"99999,9,09978,1","7,1,023,1,+999,9","SYN076AAXX  26031 02458 47259 /1103 11022 21022 39978 40004 57023 77177 333 88/05;",
"02458099999","2010-02-26T06:00:00","4","59.897328","17.588581","20.72","UPPSALA, SW","FM-12","ESCM ","V020","130,1,N,0040,1","00150,1,C,N","004800,1,N,1","-0006,1","-0006,1","09990,1","12,0010,9,1","24,0013,9,1","67,1","7,1,06,1","09,1,+00150,1,99,9",,"120,M,-0006,1","999,N,-0039,1","99999,9,09964,1","6,1,015,1,+999,9","SYN100AAXX  26061 02458 17/48 /1304 11006 21006 39964 49990 56015 60012 76776 333 11006 21039 70013 89/05;",
"02458099999","2010-02-26T09:00:00","4","59.897328","17.588581","20.72","UPPSALA, SW","FM-12","ESCM ","V020","140,1,N,0040,1","00150,1,C,N","004500,1,N,1","+0004,1","+0004,1","09981,1",,,"10,1","6,1,03,1","09,1,+00150,1,99,9",,,,"99999,9,09956,1","7,1,008,1,+999,9","SYN076AAXX  26091 02458 47/45 /1404 10004 20004 39956 49981 57008 71065 333 89/05;",
"02458099999","2010-02-26T12:00:00","4","59.897328","17.588581","20.72","UPPSALA, SW","FM-12","ESCM ","V020","130,1,N,0030,1","00120,1,C,N","003500,1,N,1","+0009,1","+0009,1","09973,1",,,"10,1","6,1,06,1","09,1,+00120,1,99,9",,,,"99999,9,09948,1","8,1,008,1,+999,9","SYN076AAXX  26121 02458 47/35 /1303 10009 20009 39948 49973 58008 71065 333 89/04;",
"02458099999","2010-02-26T15:00:00","4","59.897328","17.588581","20.72","UPPSALA, SW","FM-12","ESCM ","V020","110,1,N,0030,1","00030,1,C,N","000600,1,N,1","+0010,1","+0010,1","09967,1",,,"51,1","5,1,03,1","09,1,+00030,1,99,9",,,,"99999,9,09941,1","8,1,006,1,+999,9","SYN076AAXX  26151 02458 47/06 /1103 10010 20010 39941 49967 58006 75154 333 89/01;",
"02458099999","2010-02-26T18:00:00","4","59.897328","17.588581","20.72","UPPSALA, SW","FM-12","ESCM ","V020","150,1,N,0020,1","00030,1,C,N","000200,1,N,1","+0006,1","+0006,1","09973,1","12,0003,9,1",,"33,1","8,1,06,1","09,1,+00030,1,99,9",,"120,M,+0013,1","999,N,-0006,1","99999,9,09947,1","2,1,006,1,+999,9","SYN094AAXX  26181 02458 17/02 /1502 10006 20006 39947 49973 52006 69932 73387 333 10013 21006 89/01;",
"02458099999","2010-02-26T21:00:00","4","59.897328","17.588581","20.72","UPPSALA, SW","FM-12","ESCM ","V020","170,1,N,0010,1","00030,1,C,N","000200,1,N,1","+0003,1","+0003,1","09974,1",,,"33,1","4,1,03,1","09,1,+00030,1,99,9",,,,"99999,9,09948,1","4,1,000,1,+999,9","SYN076AAXX  26211 02458 47/02 /1701 10003 20003 39948 49974 54001 73333 333 89/01;",
"02458099999","2010-02-27T00:00:00","4","59.897328","17.588581","20.72","UPPSALA, SW","FM-12","ESCM ","V020","140,1,N,0020,1","00030,1,C,N","000100,1,N,1","-0001,1","-0001,1","09973,1",,,"30,1","4,1,06,1","09,1,+00030,1,99,9",,,,"99999,9,09948,1","5,1,001,1,+999,9","SYN076AAXX  27001 02458 47/01 /1402 11001 21001 39948 49973 55001 73033 333 89/01;",
"02458099999","2010-02-27T03:00:00","4","59.897328","17.588581","20.72","UPPSALA, SW","FM-12","ESCM ","V020","150,1,N,0010,1","00030,1,C,N","000100,1,N,1","-0001,1","-0001,1","09973,1",,,"30,1","4,1,03,1","09,1,+00030,1,99,9",,,,"99999,9,09948,1","5,1,000,1,+999,9","SYN076AAXX  27031 02458 47/01 /1501 11001 21001 39948 49973 55000 73033 333 89/01;",
"02458099999","2010-02-27T06:00:00","4","59.897328","17.588581","20.72","UPPSALA, SW","FM-12","ESCM ","V020","140,1,N,0040,1","00060,1,C,N","000900,1,N,1","+0004,1","+0004,1","09971,1","24,0003,9,1",,"33,1","4,1,06,1","09,1,+00060,1,99,9",,"120,M,+0006,1","999,N,-0002,1","99999,9,09946,1","7,1,002,1,+999,9","SYN094AAXX  27061 02458 37/09 /1404 10004 20004 39946 49971 57002 73332 333 10006 21002 70003 89/02;",
"02458099999","2010-02-27T09:00:00","4","59.897328","17.588581","20.72","UPPSALA, SW","FM-12","ESCM ","V020","150,1,N,0030,1","00150,1,C,N","006000,1,N,1","+0009,1","+0009,1","09976,1",,,"10,1","4,1,03,1","08,1,+00150,1,99,9",,,,"99999,9,09950,1","2,1,004,1,+999,9","SYN076AAXX  27091 02458 47256 /1503 10009 20009 39950 49976 52004 71032 333 88/05;",
"02458099999","2010-02-27T12:00:00","4","59.897328","17.588581","20.72","UPPSALA, SW","FM-12","ESCM ","V020","110,1,N,0020,1","00120,1,C,N","001800,1,N,1","+0008,1","+0008,1","09970,1",,,"10,1","4,1,06,1","09,1,+00120,1,99,9",,,,"99999,9,09945,1","7,1,005,1,+999,9","SYN076AAXX  27121 02458 47/18 /1102 10008 20008 39945 49970 57005 71032 333 89/04;",
"02458099999","2010-02-27T15:00:00","4","59.897328","17.588581","20.72","UPPSALA, SW","FM-12","ESCM ","V020","080,1,N,0030,1","00090,1,C,N","002400,1,N,1","+0004,1","+0004,1","09962,1",,,"61,1","6,1,03,1","09,1,+00090,1,99,9",,,,"99999,9,09937,1","7,1,008,1,+999,9","SYN076AAXX  27151 02458 47/24 /0803 10004 20004 39937 49962 57008 76165 333 89/03;",
"02458099999","2010-02-27T18:00:00","4","59.897328","17.588581","20.72","UPPSALA, SW","FM-12","ESCM ","V020","060,1,N,0010,1","00090,1,C,N","000800,1,N,1","-0001,1","-0001,1","09952,1","12,0020,9,1",,"71,1","7,1,06,1","09,1,+00090,1,99,9",,"120,M,+0011,1","999,N,-0001,1","99999,9,09926,1","7,1,010,1,+999,9","SYN100AAXX  27180 02458 07/08 /0601 11001 21001 39926 49952 57010 60022 77176 333 10011 21001 69945 89/03;",
"02458099999","2010-02-27T21:00:00","4","59.897328","17.588581","20.72","UPPSALA, SW","FM-12","ESCM ","V020","170,1,N,0020,1","00150,1,C,N","009000,1,N,1","+0003,1","+0003,1","09948,1",,,"23,1","7,1,03,1","09,1,+00150,1,99,9",,,,"99999,9,09922,1","6,1,004,1,+999,9","SYN076AAXX  27211 02458 47/59 /1702 10003 20003 39922 49948 56004 72376 333 89/05;",
"02458099999","2010-02-28T00:00:00","4","59.897328","17.588581","20.72","UPPSALA, SW","FM-12","ESCM ","V020","130,1,N,0010,1","00120,1,C,N","003300,1,N,1","+0001,1","+0001,1","09944,1",,,"10,1","7,1,06,1","09,1,+00120,1,99,9",,,,"99999,9,09919,1","7,1,004,1,+999,9","SYN076AAXX  28001 02458 47/33 /1301 10001 20001 39919 49944 57004 71076 333 89/04;",
"02458099999","2010-02-28T03:00:00","4","59.897328","17.588581","20.72","UPPSALA, SW","FM-12","ESCM ","V020","160,1,N,0020,1","00120,1,C,N","001700,1,N,1","+0004,1","+0004,1","09937,1",,,"24,1","8,1,03,1","09,1,+00120,1,99,9",,,,"99999,9,09912,1","7,1,007,1,+999,9","SYN076AAXX  28031 02458 47/17 /1602 10004 20004 39912 49937 57007 72486 333 89/04;",
"02458099999","2010-02-28T06:00:00","4","59.897328","17.588581","20.72","UPPSALA, SW","FM-12","ESCM ","V020","170,1,N,0020,1","00150,1,C,N","003800,1,N,1","+0003,1","+0003,1","09937,1","12,0010,9,1","24,0028,9,1","74,1","8,1,06,1","09,1,+00150,1,99,9",,"120,M,+0006,1","999,N,-0001,1","99999,9,09912,1","4,1,000,1,+999,9","SYN106AAXX  28061 02458 07/38 /1702 10003 20003 39912 49937 54000 60012 77487 333 10006 21001 69915 70029 89/05;",
"02458099999","2010-02-28T09:00:00","4","59.897328","17.588581","20.72","UPPSALA, SW","FM-12","ESCM ","V020","340,1,N,0020,1","00120,1,C,N","005000,1,N,1","-0015,1","-0015,1","09942,1",,,"71,1","7,1,03,1","09,1,+00120,1,99,9",,,,"99999,9,09916,1","2,1,004,1,+999,9","SYN076AAXX  28091 02458 47/50 /3402 11015 21015 39916 49942 52004 77176 333 89/04;",
"02458099999","2010-02-28T12:00:00","4","59.897328","17.588581","20.72","UPPSALA, SW","FM-12","ESCM ","V020","340,1,N,0030,1","00150,1,C,N","014000,1,N,1","-0028,1","-0030,1","09950,1",,,"24,1","7,1,06,1","08,1,+00150,1,99,9",,,,"99999,9,09924,1","2,1,008,1,+999,9","SYN076AAXX  28121 02458 47264 /3403 11028 21030 39924 49950 52008 72476 333 88/05;",
"02458099999","2010-02-28T15:00:00","4","59.897328","17.588581","20.72","UPPSALA, SW","FM-12","ESCM ","V020","340,1,N,0020,1","00090,1,C,N","003900,1,N,1","-0031,1","-0031,1","09956,1",,,"10,1","3,1,03,1","09,1,+00090,1,99,9",,,,"99999,9,09930,1","3,1,006,1,+999,9","SYN076AAXX  28151 02458 47/39 /3402 11031 21031 39930 49956 53006 71021 333 89/03;",
"02458099999","2010-02-28T18:00:00","4","59.897328","17.588581","20.72","UPPSALA, SW","FM-12","ESCM ","V020","350,1,N,0020,1","00150,1,C,N","006000,1,N,1","-0034,1","-0034,1","09960,1","12,0003,9,1",,"10,1","3,1,06,1","09,1,+00150,1,99,9",,"120,M,+0007,1","999,N,-0034,1","99999,9,09934,1","2,1,004,1,+999,9","SYN094AAXX  28181 02458 17/56 /3502 11034 21034 39934 49960 52004 69932 71021 333 10007 21034 89/05;",
"02458099999","2010-02-28T21:00:00","4","59.897328","17.588581","20.72","UPPSALA, SW","FM-12","ESCM ","V020","010,1,N,0020,1","00150,1,C,N","003400,1,N,1","-0036,1","-0036,1","09956,1",,,"71,1","7,1,03,1","09,1,+00150,1,99,9",,,,"99999,9,09930,1","8,1,004,1,+999,9","SYN076AAXX  28211 02458 47/34 /0102 11036 21036 39930 49956 58004 77174 333 89/05;",
"02458099999","2010-03-01T00:00:00","4","59.897328","17.588581","20.72","UPPSALA, SW","FM-12","ESCM ","V020","040,1,N,0030,1","00210,1,C,N","020000,1,N,1","-0035,1","-0035,1","09935,1",,,"24,1","7,1,06,1","05,1,+00210,1,99,9",,,,"99999,9,09909,1","8,1,021,1,+999,9","SYN082AAXX  01001 02458 47370 /0403 11035 21035 39909 49935 58021 72472 333 85/07 88/11;",
"02458099999","2010-03-01T03:00:00","4","59.897328","17.588581","20.72","UPPSALA, SW","FM-12","ESCM ","V020","030,1,N,0050,1","00090,1,C,N","002300,1,N,1","-0034,1","-0034,1","09919,1",,,"10,1","3,1,03,1","09,1,+00090,1,99,9",,,,"99999,9,09893,1","8,1,016,1,+999,9","SYN076AAXX  01031 02458 47/23 /0305 11034 21034 39893 49919 58016 71021 333 89/03;",
"02458099999","2010-03-01T06:00:00","4","59.897328","17.588581","20.72","UPPSALA, SW","FM-12","ESCM ","V020","020,1,N,0060,1","00120,1,C,N","003700,1,N,1","-0033,1","-0033,1","09899,1","12,0005,9,1","24,0008,9,1","71,1","7,1,06,1","09,1,+00120,1,99,9",,"120,M,-0030,1","999,N,-0037,1","99999,9,09873,1","7,1,020,1,+999,9","SYN100AAXX  01061 02458 17/37 /0206 11033 21033 39873 49899 57020 69942 77174 333 11030 21037 70007 89/04;",
"02458099999","2010-03-01T09:00:00","4","59.897328","17.588581","20.72","UPPSALA, SW","FM-12","ESCM ","V020","360,1,N,0050,1","00360,1,C,N","002100,1,N,1","-0026,1","-0027,1","09891,1",,,"71,1","7,1,03,1","08,1,+00360,1,99,9",,,,"99999,9,09865,1","8,1,009,1,+999,9","SYN076AAXX  01091 02458 47421 /3605 11026 21027 39865 49891 58009 77177 333 88/12;",
"02458099999","2010-03-01T12:00:00","4","59.897328","17.588581","20.72","UPPSALA, SW","FM-12","ESCM ","V020","350,1,N,0080,1","00390,1,C,N","002400,1,N,1","-0037,1","-0038,1","09885,1",,,"71,1","7,1,06,1","09,1,+00390,1,99,9",,,,"99999,9,09859,1","7,1,005,1,+999,9","SYN076AAXX  01121 02458 47/24 /3508 11037 21038 39859 49885 57005 77177 333 89/13;",
"02458099999","2010-03-01T15:00:00","4","59.897328","17.588581","20.72","UPPSALA, SW","FM-12","ESCM ","V020","350,1,N,0090,1","99999,9,9,N","003300,1,N,1","-0045,1","-0048,1","09890,1",,,"71,1","7,1,03,1","01,1,+00210,1,99,9",,,,"99999,9,09864,1","3,1,005,1,+999,9","SYN082AAXX  01151 02458 47333 /3509 11045 21048 39864 49890 53005 77177 333 81/07 86/12;",
"02458099999","2010-03-01T18:00:00","4","59.897328","17.588581","20.72","UPPSALA, SW","FM-12","ESCM ","V020","350,1,N,0090,1","00390,1,C,N","002500,1,N,1","-0054,1","-0058,1","09910,1","12,0041,9,1",,"71,1","7,1,06,1","07,1,+00390,1,99,9",,"120,M,-0024,1","999,N,-0054,1","99999,9,09884,1","2,1,020,1,+999,9","SYN106AAXX  01181 02458 07425 /3509 11054 21058 39884 49910 52020 60042 77177 333 11024 21054 69915 87/13 88/19;",
"02458099999","2010-03-01T21:00:00","4","59.897328","17.588581","20.72","UPPSALA, SW","FM-12","ESCM ","V020","350,1,N,0080,1","00420,1,C,N","005000,1,N,1","-0052,1","-0060,1","09925,1",,,"71,1","7,1,03,1","08,1,+00420,1,99,9",,,,"99999,9,09898,1","3,1,015,1,+999,9","SYN076AAXX  01211 02458 47450 /3508 11052 21060 39898 49925 53015 77177 333 88/14;",
"02458099999","2010-03-02T00:00:00","4","59.897328","17.588581","20.72","UPPSALA, SW","FM-12","ESCM ","V020","340,1,N,0080,1","00870,1,C,N","002700,1,N,1","-0061,1","-0069,1","09948,1",,,"71,1","7,1,06,1","09,1,+00870,1,99,9",,,,"99999,9,09922,1","3,1,023,1,+999,9","SYN076AAXX  02001 02458 47/27 /3408 11061 21069 39922 49948 53023 77177 333 89/29;",
"02458099999","2010-03-02T03:00:00","4","59.897328","17.588581","20.72","UPPSALA, SW","FM-12","ESCM ","V020","320,1,N,0050,1","00540,1,C,N","013000,1,N,1","-0076,1","-0086,1","09961,1",,,"71,1","7,1,03,1","08,1,+00540,1,99,9",,,,"99999,9,09934,1","3,1,012,1,+999,9","SYN076AAXX  02031 02458 47463 /3205 11076 21086 39934 49961 53012 77177 333 88/18;",
"02458099999","2010-03-02T06:00:00","4","59.897328","17.588581","20.72","UPPSALA, SW","FM-12","ESCM ","V020","300,1,N,0050,1","99999,9,9,N","050000,1,N,1","-0088,1","-0103,1","09974,1","12,0020,9,1","24,0058,9,1","00,1","7,1,06,1",,,"120,M,-0051,1","999,N,-0090,1","99999,9,09947,1","2,1,013,1,+999,9","SYN094AAXX  02061 02458 17984 /3005 11088 21103 39947 49974 52013 60022 70072 333 11051 21090 70059;",
"02458099999","2010-03-02T09:00:00","4","59.897328","17.588581","20.72","UPPSALA, SW","FM-12","ESCM ","V020","300,1,N,0060,1","00510,1,C,N","016000,1,N,1","-0077,1","-0092,1","09988,1",,,"71,1","7,1,03,1","05,1,+00510,1,99,9",,,,"99999,9,09962,1","2,1,015,1,+999,9","SYN082AAXX  02091 02458 47466 /3006 11077 21092 39962 49988 52015 77170 333 85/17 88/25;",
"02458099999","2010-03-02T12:00:00","4","59.897328","17.588581","20.72","UPPSALA, SW","FM-12","ESCM ","V020","290,1,N,0050,1","01080,1,C,N","004300,1,N,1","-0056,1","-0071,1","10000,1",,,"71,1","7,1,06,1","09,1,+01080,1,99,9",,,,"99999,9,09974,1","2,1,012,1,+999,9","SYN076AAXX  02121 02458 47/43 /2905 11056 21071 39974 40000 52012 77174 333 89/36;",
"02458099999","2010-03-02T15:00:00","4","59.897328","17.588581","20.72","UPPSALA, SW","FM-12","ESCM ","V020","280,1,N,0030,1","99999,9,9,N","007000,1,N,1","-0046,1","-0059,1","10010,1",,,"71,1","7,1,03,1","03,1,+00720,1,99,9",,,,"99999,9,09984,1","2,1,010,1,+999,9","SYN082AAXX  02151 02458 47557 /2803 11046 21059 39984 40010 52010 77177 333 83/24 88/45;",
"02458099999","2010-03-02T18:00:00","4","59.897328","17.588581","20.72","UPPSALA, SW","FM-12","ESCM ","V020","280,1,N,0040,1","01380,1,C,N","050000,1,N,1","-0048,1","-0066,1","10018,1","12,0008,9,1",,"24,1","8,1,06,1","09,1,+01380,1,99,9",,"120,M,-0042,1","999,N,-0092,1","99999,9,09992,1","2,1,008,1,+999,9","SYN094AAXX  02181 02458 17/84 /2804 11048 21066 39992 40018 52008 69972 72487 333 11042 21092 89/46;",
"02458099999","2010-03-02T21:00:00","4","59.897328","17.588581","20.72","UPPSALA, SW","FM-12","ESCM ","V020","300,1,N,0060,1","00840,1,C,N","009000,1,N,1","-0044,1","-0062,1","10027,1",,,"71,1","7,1,03,1","09,1,+00840,1,99,9",,,,"99999,9,10001,1","3,1,009,1,+999,9","SYN076AAXX  02211 02458 47/59 /3006 11044 21062 30001 40027 53009 77172 333 89/28;",
"02458099999","2010-03-03T00:00:00","4","59.897328","17.588581","20.72","UPPSALA, SW","FM-12","ESCM ","V020","300,1,N,0060,1","01080,1,C,N","009000,1,N,1","-0053,1","-0065,1","10036,1",,,"71,1","7,1,06,1","09,1,+01080,1,99,9",,,,"99999,9,10010,1","2,1,009,1,+999,9","SYN076AAXX  03001 02458 47/59 /3006 11053 21065 30010 40036 52009 77172 333 89/36;",
"02458099999","2010-03-03T03:00:00","4","59.897328","17.588581","20.72","UPPSALA, SW","FM-12","ESCM ","V020","300,1,N,0050,1","99999,9,9,N","050000,1,N,1","-0071,1","-0101,1","10044,1",,,"00,1","7,1,03,1","01,1,+02100,1,99,9",,,,"99999,9,10017,1","2,1,008,1,+999,9","SYN076AAXX  03031 02458 47884 /3005 11071 21101 30017 40044 52008 70072 333 81/57;",
"02458099999","2010-03-03T06:00:00","4","59.897328","17.588581","20.72","UPPSALA, SW","FM-12","ESCM ","V020","300,1,N,0050,1","99999,9,9,N","050000,1,N,1","-0099,1","-0128,1","10054,1","12,0003,9,1","24,0010,9,1","00,1","7,1,06,1",,,"120,M,-0041,1","999,N,-0098,1","99999,9,10027,1","3,1,010,1,+999,9","SYN094AAXX  03061 02458 17984 /3005 11099 21128 30027 40054 53010 69932 70072 333 11041 21098 70010;",
"02458099999","2010-03-03T09:00:00","4","59.897328","17.588581","20.72","UPPSALA, SW","FM-12","ESCM ","V020","310,1,N,0060,1","00750,1,C,N","040000,1,N,1","-0075,1","-0116,1","10059,1",,,,,"06,1,+00750,1,99,9",,,,"99999,9,10032,1","3,1,006,1,+999,9","SYN076AAXX  03091 02458 45582 /3106 11075 21116 30032 40059 53006 333 86/25 87/31;",
"02458099999","2010-03-03T12:00:00","4","59.897328","17.588581","20.72","UPPSALA, SW","FM-12","ESCM ","V020","310,1,N,0070,1","00990,1,C,N","008000,1,N,1","-0059,1","-0083,1","10073,1",,,"71,1","7,1,06,1","09,1,+00990,1,99,9",,,,"99999,9,10046,1","2,1,014,1,+999,9","SYN076AAXX  03121 02458 47/58 /3107 11059 21083 30046 40073 52014 77174 333 89/33;",
"02458099999","2010-03-03T15:00:00","4","59.897328","17.588581","20.72","UPPSALA, SW","FM-12","ESCM ","V020","310,1,N,0060,1","00810,1,C,N","004600,1,N,1","-0058,1","-0069,1","10085,1",,,"71,1","8,1,03,1","09,1,+00810,1,99,9",,,,"99999,9,10058,1","2,1,012,1,+999,9","SYN076AAXX  03151 02458 47/46 /3106 11058 21069 30058 40085 52012 77187 333 89/27;",
"02458099999","2010-03-03T18:00:00","4","59.897328","17.588581","20.72","UPPSALA, SW","FM-12","ESCM ","V020","300,1,N,0050,1","99999,9,9,N","006000,1,N,1","-0059,1","-0067,1","10094,1","12,0005,9,1",,"71,1","8,1,06,1",,,"120,M,-0054,1","999,N,-0099,1","99999,9,10067,1","2,1,009,1,+999,9","SYN088AAXX  03181 02458 17956 /3005 11059 21067 30067 40094 52009 69962 77187 333 11054 21099;",
"02458099999","2010-03-03T21:00:00","4","59.897328","17.588581","20.72","UPPSALA, SW","FM-12","ESCM ","V020","320,1,N,0050,1","99999,9,9,N","050000,1,N,1","-0057,1","-0076,1","10098,1",,,"00,1","7,1,03,1",,,,,"99999,9,10071,1","3,1,004,1,+999,9","SYN066AAXX  03211 02458 47984 /3205 11057 21076 30071 40098 53004 70072;",
"02458099999","2010-03-04T00:00:00","4","59.897328","17.588581","20.72","UPPSALA, SW","FM-12","ESCM ","V020","310,1,N,0050,1","99999,9,9,N","019000,1,N,1","-0064,1","-0086,1","10104,1",,,"78,1","7,1,06,1","01,1,+00780,1,99,9",,,,"99999,9,10078,1","2,1,007,1,+999,9","SYN076AAXX  04001 02458 47569 /3105 11064 21086 30078 40104 52007 77872 333 81/26;",
"02458099999","2010-03-04T03:00:00","4","59.897328","17.588581","20.72","UPPSALA, SW","FM-12","ESCM ","V020","320,1,N,0060,1","00690,1,C,N","003400,1,N,1","-0072,1","-0082,1","10109,1",,,"71,1","7,1,03,1","09,1,+00690,1,99,9",,,,"99999,9,10083,1","2,1,005,1,+999,9","SYN076AAXX  04031 02458 47/34 /3206 11072 21082 30083 40109 52005 77177 333 89/23;",
"02458099999","2010-03-04T06:00:00","4","59.897328","17.588581","20.72","UPPSALA, SW","FM-12","ESCM ","V020","320,1,N,0060,1","00570,1,C,N","007000,1,N,1","-0081,1","-0094,1","10119,1","12,0008,9,1","24,0015,9,1","71,1","7,1,06,1","01,1,+00390,1,99,9","05,1,+00570,1,99,9","120,M,-0054,1","999,N,-0082,1","99999,9,10092,1","2,1,010,1,+999,9","SYN118AAXX  04061 02458 07457 /3206 11081 21094 30092 40119 52010 69982 77177 333 11054 21082 69915 70014 81/13 85/19 88/35;",
"02458099999","2010-03-04T09:00:00","4","59.897328","17.588581","20.72","UPPSALA, SW","FM-12","ESCM ","V020","340,1,N,0070,1","00780,1,C,N","035000,1,N,1","-0066,1","-0095,1","10132,1",,,"85,1","8,1,03,1","08,1,+00780,1,99,9",,,,"99999,9,10105,1","3,1,012,1,+999,9","SYN076AAXX  04091 02458 47581 /3407 11066 21095 30105 40132 53012 78587 333 88/26;",
"02458099999","2010-03-04T12:00:00","4","59.897328","17.588581","20.72","UPPSALA, SW","FM-12","ESCM ","V020","350,1,N,0090,1","00720,1,C,N","015000,1,N,1","-0060,1","-0087,1","10146,1",,,"71,1","8,1,06,1","08,1,+00720,1,99,9",,,,"99999,9,10119,1","2,1,015,1,+999,9","SYN076AAXX  04121 02458 47565 /3509 11060 21087 30119 40146 52015 77187 333 88/24;",
"02458099999","2010-03-04T15:00:00","4","59.897328","17.588581","20.72","UPPSALA, SW","FM-12","ESCM ","V020","340,1,N,0060,1","99999,9,9,N","007000,1,N,1","-0053,1","-0072,1","10155,1",,,"71,1","7,1,03,1","01,1,+06300,1,99,9",,,,"99999,9,10128,1","1,1,008,1,+999,9","SYN076AAXX  04151 02458 47957 /3406 11053 21072 30128 40155 51008 77177 333 81/71;",
"02458099999","2010-03-04T18:00:00","4","59.897328","17.588581","20.72","UPPSALA, SW","FM-12","ESCM ","V020","330,1,N,0060,1","99999,9,9,N","008000,1,N,1","-0052,1","-0057,1","10164,1","12,0010,9,1",,"71,1","7,1,06,1","01,1,+00450,1,99,9",,"120,M,-0052,1","999,N,-0082,1","99999,9,10137,1","2,1,009,1,+999,9","SYN100AAXX  04181 02458 07458 /3306 11052 21057 30137 40164 52009 60012 77177 333 11052 21082 69935 81/15;",
"02458099999","2010-03-04T21:00:00","4","59.897328","17.588581","20.72","UPPSALA, SW","FM-12","ESCM ","V020","350,1,N,0090,1","01020,1,C,N","002800,1,N,1","-0051,1","-0073,1","10168,1",,,"71,1","7,1,03,1","09,1,+01020,1,99,9",,,,"99999,9,10141,1","2,1,004,1,+999,9","SYN076AAXX  04211 02458 47/28 /3509 11051 21073 30141 40168 52004 77177 333 89/34;",
"02458099999","2010-03-05T00:00:00","4","59.897328","17.588581","20.72","UPPSALA, SW","FM-12","ESCM ","V020","340,1,N,0050,1","99999,9,9,N","050000,1,N,1","-0078,1","-0115,1","10175,1",,,"00,1","8,1,06,1","01,1,+00810,1,99,9",,,,"99999,9,10148,1","2,1,007,1,+999,9","SYN082AAXX  05001 02458 47584 /3405 11078 21115 30148 40175 52007 70087 333 81/27 84/34;",
"02458099999","2010-03-05T03:00:00","4","59.897328","17.588581","20.72","UPPSALA, SW","FM-12","ESCM ","V020","350,1,N,0030,1","99999,9,9,N","050000,1,N,1","-0106,1","-0140,1","10182,1",,,,,,,,,"99999,9,10155,1","2,1,008,1,+999,9","SYN060AAXX  05031 02458 45984 /3503 11106 21140 30155 40182 52008;",
"02458099999","2010-03-05T06:00:00","4","59.897328","17.588581","20.72","UPPSALA, SW","FM-12","ESCM ","V020","300,1,N,0020,1","99999,9,9,N","050000,1,N,1","-0153,1","-0181,1","10190,1","12,0000,2,1","24,0015,9,1",,,,,"120,M,-0043,1","999,N,-0164,1","99999,9,10162,1","3,1,007,1,+999,9","SYN088AAXX  05060 02458 15984 /3002 11153 21181 30162 40190 53007 69922 333 11043 21164 70014;",
"02458099999","2010-03-05T09:00:00","4","59.897328","17.588581","20.72","UPPSALA, SW","FM-12","ESCM ","V020","290,1,N,0010,1","99999,9,9,N","045000,1,N,1","-0111,1","-0150,1","10189,1",,,,,"02,1,+02700,1,99,9",,,,"99999,9,10162,1","4,1,000,1,+999,9","SYN070AAXX  05091 02458 45983 /2901 11111 21150 30162 40189 54001 333 82/59;",
"02458099999","2010-03-05T12:00:00","4","59.897328","17.588581","20.72","UPPSALA, SW","FM-12","ESCM ","V020","999,9,C,0000,1","99999,9,9,N","040000,1,N,1","-0042,1","-0131,1","10192,1",,,,,"01,1,+02400,1,99,9",,,,"99999,9,10165,1","0,1,003,1,+999,9","SYN070AAXX  05121 02458 45982 /0000 11042 21131 30165 40192 50003 333 81/58;",
"02458099999","2010-03-05T15:00:00","4","59.897328","17.588581","20.72","UPPSALA, SW","FM-12","ESCM ","V020","300,1,N,0020,1","99999,9,9,N","050000,1,N,1","-0037,1","-0123,1","10192,1",,,,,,,,,"99999,9,10166,1","4,1,000,1,+999,9","SYN060AAXX  05151 02458 45984 /3002 11037 21123 30166 40192 54001;",
"02458099999","2010-03-05T18:00:00","4","59.897328","17.588581","20.72","UPPSALA, SW","FM-12","ESCM ","V020","999,9,C,0000,1","99999,9,9,N","050000,1,N,1","-0125,1","-0150,1","10204,1",,,,,,,"120,M,+0010,1","999,N,-0158,1","99999,9,10177,1","3,1,011,1,+999,9","SYN076AAXX  05181 02458 35984 /0000 11125 21150 30177 40204 53011 333 10010 21158;",
"02458099999","2010-03-05T21:00:00","4","59.897328","17.588581","20.72","UPPSALA, SW","FM-12","ESCM ","V020","290,1,N,0010,1","99999,9,9,N","050000,1,N,1","-0173,1","-0182,1","10216,1",,,,,,,,,"99999,9,10188,1","2,1,011,1,+999,9","SYN060AAXX  05211 02458 45984 /2901 11173 21182 30188 40216 52011;",
"02458099999","2010-03-06T00:00:00","4","59.897328","17.588581","20.72","UPPSALA, SW","FM-12","ESCM ","V020","999,9,C,0000,1","99999,9,9,N","050000,1,N,1","-0202,1","-0213,1","10225,1",,,,,,,,,"99999,9,10197,1","2,1,009,1,+999,9","SYN060AAXX  06001 02458 45984 /0000 11202 21213 30197 40225 52009;",
"02458099999","2010-03-06T03:00:00","4","59.897328","17.588581","20.72","UPPSALA, SW","FM-12","ESCM ","V020","999,9,C,0000,1","99999,9,9,N","050000,1,N,1","-0206,1","-0218,1","10228,1",,,,,,,,,"99999,9,10200,1","2,1,003,1,+999,9","SYN060AAXX  06031 02458 45984 /0000 11206 21218 30200 40228 52003;",
"02458099999","2010-03-06T06:00:00","4","59.897328","17.588581","20.72","UPPSALA, SW","FM-12","ESCM ","V020","999,9,C,0000,1","99999,9,9,N","050000,1,N,1","-0212,1","-0225,1","10233,1",,,,,,,"120,M,-0125,1","999,N,-0230,1","99999,9,10205,1","2,1,005,1,+999,9","SYN076AAXX  06061 02458 35984 /0000 11212 21225 30205 40233 52005 333 11125 21230;",
"02458099999","2010-03-06T09:00:00","4","59.897328","17.588581","20.72","UPPSALA, SW","FM-12","ESCM ","V020","120,1,N,0010,1","99999,9,9,N","035000,1,N,1","-0123,1","-0137,1","10242,1",,,,,,,,,"99999,9,10214,1","2,1,009,1,+999,9","SYN060AAXX  06091 02458 45981 /1201 11123 21137 30214 40242 52009;",
"02458099999","2010-03-06T12:00:00","4","59.897328","17.588581","20.72","UPPSALA, SW","FM-12","ESCM ","V020","360,1,N,0010,1","99999,9,9,N","024000,1,N,1","-0049,1","-0111,1","10248,1",,,,,,,,,"99999,9,10222,1","2,1,007,1,+999,9","SYN060AAXX  06121 02458 45974 /3601 11049 21111 30222 40248 52007;",
"02458099999","2010-03-06T15:00:00","4","59.897328","17.588581","20.72","UPPSALA, SW","FM-12","ESCM ","V020","999,9,C,0000,1","99999,9,9,N","045000,1,N,1","-0038,1","-0103,1","10249,1",,,,,,,,,"99999,9,10222,1","4,1,000,1,+999,9","SYN060AAXX  06151 02458 45983 /0000 11038 21103 30222 40249 54001;",
"02458099999","2010-03-06T18:00:00","4","59.897328","17.588581","20.72","UPPSALA, SW","FM-12","ESCM ","V020","320,1,N,0010,1","99999,9,9,N","050000,1,N,1","-0146,1","-0158,1","10264,1",,,,,,,"120,M,+0020,1","999,N,-0224,1","99999,9,10236,1","3,1,014,1,+999,9","SYN076AAXX  06181 02458 35984 /3201 11146 21158 30236 40264 53014 333 10020 21224;",
"02458099999","2010-03-06T21:00:00","4","59.897328","17.588581","20.72","UPPSALA, SW","FM-12","ESCM ","V020","999,9,C,0000,1","99999,9,9,N","050000,1,N,1","-0181,1","-0190,1","10271,1",,,,,,,,,"99999,9,10242,1","1,1,006,1,+999,9","SYN060AAXX  06211 02458 45984 /0000 11181 21190 30242 40271 51006;",
"02458099999","2010-03-07T00:00:00","4","59.897328","17.588581","20.72","UPPSALA, SW","FM-12","ESCM ","V020","270,1,N,0010,1","99999,9,9,N","030000,1,N,1","-0198,1","-0209,1","10279,1",,,,,,,,,"99999,9,10251,1","2,1,008,1,+999,9","SYN060AAXX  07001 02458 45980 /2701 11198 21209 30251 40279 52008;",
"02458099999","2010-03-07T03:00:00","4","59.897328","17.588581","20.72","UPPSALA, SW","FM-12","ESCM ","V020","999,9,C,0000,1","99999,9,9,N","027000,1,N,1","-0208,1","-0221,1","10283,1",,,,,,,,,"99999,9,10255,1","2,1,004,1,+999,9","SYN060AAXX  07031 02458 45977 /0000 11208 21221 30255 40283 52004;",
"02458099999","2010-03-07T06:00:00","4","59.897328","17.588581","20.72","UPPSALA, SW","FM-12","ESCM ","V020","999,9,C,0000,1","99999,9,9,N","040000,1,N,1","-0199,1","-0211,1","10291,1",,,,,,,"120,M,-0138,1","999,N,-0223,1","99999,9,10262,1","2,1,008,1,+999,9","SYN076AAXX  07061 02458 35982 /0000 11199 21211 30262 40291 52008 333 11138 21223;",
"02458099999","2010-03-07T09:00:00","4","59.897328","17.588581","20.72","UPPSALA, SW","FM-12","ESCM ","V020","999,9,C,0000,1","99999,9,9,N","040000,1,N,1","-0141,1","-0150,1","10300,1",,,,,"01,1,+04500,1,99,9",,,,"99999,9,10272,1","1,1,010,1,+999,9","SYN070AAXX  07091 02458 45982 /0000 11141 21150 30272 40300 51010 333 81/65;",
"02458099999","2010-03-07T12:00:00","4","59.897328","17.588581","20.72","UPPSALA, SW","FM-12","ESCM ","V020","150,1,N,0010,1","99999,9,9,N","030000,1,N,1","-0043,1","-0084,1","10296,1",,,,,,,,,"99999,9,10269,1","7,1,003,1,+999,9","SYN060AAXX  07121 02458 45980 /1501 11043 21084 30269 40296 57003;",
"02458099999","2010-03-07T15:00:00","4","59.897328","17.588581","20.72","UPPSALA, SW","FM-12","ESCM ","V020","190,1,N,0020,1","99999,9,9,N","050000,1,N,1","-0025,1","-0074,1","10290,1",,,,,"03,1,+01500,1,99,9",,,,"99999,9,10263,1","5,1,006,1,+999,9","SYN076AAXX  07151 02458 45784 /1902 11025 21074 30263 40290 55006 333 83/50 88/59;",
"02458099999","2010-03-07T18:00:00","4","59.897328","17.588581","20.72","UPPSALA, SW","FM-12","ESCM ","V020","190,1,N,0020,1","99999,9,9,N","050000,1,N,1","-0030,1","-0069,1","10284,1",,,,,"04,1,+01410,1,99,9",,"120,M,-0019,1","999,N,-0199,1","99999,9,10257,1","5,1,006,1,+999,9","SYN088AAXX  07181 02458 35684 /1902 11030 21069 30257 40284 55006 333 11019 21199 84/47 88/56;",
"02458099999","2010-03-07T21:00:00","4","59.897328","17.588581","20.72","UPPSALA, SW","FM-12","ESCM ","V020","200,1,N,0030,1","99999,9,9,N","050000,1,N,1","-0030,1","-0065,1","10272,1",,,,,"02,1,+01500,1,99,9",,,,"99999,9,10245,1","8,1,012,1,+999,9","SYN076AAXX  07211 02458 45784 /2003 11030 21065 30245 40272 58012 333 82/50 88/61;",
"02458099999","2010-03-08T00:00:00","4","59.897328","17.588581","20.72","UPPSALA, SW","FM-12","ESCM ","V020","200,1,N,0030,1","01080,1,C,N","050000,1,N,1","-0028,1","-0056,1","10266,1",,,,,"08,1,+01080,1,99,9",,,,"99999,9,10240,1","8,1,006,1,+999,9","SYN070AAXX  08001 02458 45684 /2003 11028 21056 30240 40266 58006 333 88/36;",
"02458099999","2010-03-08T03:00:00","4","59.897328","17.588581","20.72","UPPSALA, SW","FM-12","ESCM ","V020","200,1,N,0010,1","99999,9,9,N","050000,1,N,1","-0043,1","-0067,1","10257,1",,,,,,,,,"99999,9,10230,1","8,1,009,1,+999,9","SYN060AAXX  08031 02458 45984 /2001 11043 21067 30230 40257 58009;",
"02458099999","2010-03-08T06:00:00","4","59.897328","17.588581","20.72","UPPSALA, SW","FM-12","ESCM ","V020","210,1,N,0020,1","99999,9,9,N","045000,1,N,1","-0064,1","-0082,1","10244,1",,,,,,,"120,M,-0026,1","999,N,-0064,1","99999,9,10217,1","6,1,013,1,+999,9","SYN076AAXX  08061 02458 35983 /2102 11064 21082 30217 40244 56013 333 11026 21064;",
"02458099999","2010-03-08T09:00:00","4","59.897328","17.588581","20.72","UPPSALA, SW","FM-12","ESCM ","V020","200,1,N,0020,1","99999,9,9,N","035000,1,N,1","-0027,1","-0060,1","10234,1",,,,,,,,,"99999,9,10208,1","8,1,009,1,+999,9","SYN060AAXX  08091 02458 45981 /2002 11027 21060 30208 40234 58009;",
"02458099999","2010-03-08T12:00:00","4","59.897328","17.588581","20.72","UPPSALA, SW","FM-12","ESCM ","V020","230,1,N,0040,1","99999,9,9,N","035000,1,N,1","+0019,1","-0034,1","10211,1",,,,,,,,,"99999,9,10185,1","8,1,023,1,+999,9","SYN060AAXX  08121 02458 45981 /2304 10019 21034 30185 40211 58023;",
"02458099999","2010-03-08T15:00:00","4","59.897328","17.588581","20.72","UPPSALA, SW","FM-12","ESCM ","V020","230,1,N,0050,1","99999,9,9,N","050000,1,N,1","+0041,1","-0015,1","10189,1",,,,,,,,,"99999,9,10164,1","7,1,021,1,+999,9","SYN060AAXX  08151 02458 45984 /2305 10041 21015 30164 40189 57021;",
"02458099999","2010-03-08T18:00:00","4","59.897328","17.588581","20.72","UPPSALA, SW","FM-12","ESCM ","V020","270,1,N,0040,1","02400,1,C,N","050000,1,N,1","+0035,1","-0006,1","10194,1",,,,,"08,1,+02400,1,99,9",,"120,M,+0044,1","999,N,-0069,1","99999,9,10168,1","3,1,005,1,+999,9","SYN082AAXX  08181 02458 35884 /2704 10035 21006 30168 40194 53005 333 10044 21069 88/58;",
"02458099999","2010-03-08T21:00:00","4","59.897328","17.588581","20.72","UPPSALA, SW","FM-12","ESCM ","V020","340,1,N,0070,1","99999,9,9,N","050000,1,N,1","+0014,1","-0050,1","10224,1",,,,,"02,1,+01500,1,99,9",,,,"99999,9,10197,1","1,1,029,1,+999,9","SYN070AAXX  08211 02458 45784 /3407 10014 21050 30197 40224 51029 333 82/50;",
"02458099999","2010-03-09T00:00:00","4","59.897328","17.588581","20.72","UPPSALA, SW","FM-12","ESCM ","V020","320,1,N,0030,1","99999,9,9,N","050000,1,N,1","-0043,1","-0082,1","10238,1",,,,,,,,,"99999,9,10211,1","2,1,014,1,+999,9","SYN060AAXX  09001 02458 45984 /3203 11043 21082 30211 40238 52014;",
"02458099999","2010-03-09T03:00:00","4","59.897328","17.588581","20.72","UPPSALA, SW","FM-12","ESCM ","V020","300,1,N,0040,1","99999,9,9,N","050000,1,N,1","-0071,1","-0102,1","10244,1",,,,,,,,,"99999,9,10217,1","2,1,006,1,+999,9","SYN060AAXX  09031 02458 45984 /3004 11071 21102 30217 40244 52006;",
"02458099999","2010-03-09T06:00:00","4","59.897328","17.588581","20.72","UPPSALA, SW","FM-12","ESCM ","V020","320,1,N,0020,1","99999,9,9,N","050000,1,N,1","-0097,1","-0117,1","10251,1",,,,,,,"120,M,+0041,1","999,N,-0100,1","99999,9,10224,1","3,1,007,1,+999,9","SYN076AAXX  09061 02458 35984 /3202 11097 21117 30224 40251 53007 333 10041 21100;",
"02458099999","2010-03-09T09:00:00","4","59.897328","17.588581","20.72","UPPSALA, SW","FM-12","ESCM ","V020","310,1,N,0040,1","99999,9,9,N","045000,1,N,1","-0010,1","-0060,1","10252,1",,,"00,1","8,1,03,1",,,,,"99999,9,10225,1","2,1,001,1,+999,9","SYN066AAXX  09091 02458 47983 /3104 11010 21060 30225 40252 52001 70081;",
"02458099999","2010-03-09T12:00:00","4","59.897328","17.588581","20.72","UPPSALA, SW","FM-12","ESCM ","V020","310,1,N,0040,1","99999,9,9,N","045000,1,N,1","+0017,1","-0046,1","10245,1",,,,,,,,,"99999,9,10219,1","8,1,006,1,+999,9","SYN060AAXX  09121 02458 45983 /3104 10017 21046 30219 40245 58006;",
"02458099999","2010-03-09T18:00:00","4","59.897328","17.588581","20.72","UPPSALA, SW","FM-12","ESCM ","V020","240,1,N,0040,1","01500,1,C,N","050000,1,N,1","+0009,1","-0058,1","10231,1",,,,,"03,1,+01290,1,99,9","05,1,+01500,1,99,9","120,M,+0033,1","999,N,-0097,1","99999,9,10205,1","6,1,005,1,+999,9","SYN094AAXX  09181 02458 35684 /2404 10009 21058 30205 40231 56005 333 10033 21097 83/43 85/50 88/58;",
"02458099999","2010-03-09T21:00:00","4","59.897328","17.588581","20.72","UPPSALA, SW","FM-12","ESCM ","V020","250,1,N,0050,1","02700,1,C,N","050000,1,N,1","+0009,1","-0051,1","10227,1",,,,,"02,1,+02100,1,99,9","04,1,+02700,1,99,9",,,"99999,9,10200,1","8,1,005,1,+999,9","SYN082AAXX  09211 02458 45884 /2505 10009 21051 30200 40227 58005 333 82/57 84/59 85/62;",
"02458099999","2010-03-10T00:00:00","4","59.897328","17.588581","20.72","UPPSALA, SW","FM-12","ESCM ","V020","250,1,N,0030,1","03300,1,C,N","050000,1,N,1","-0009,1","-0052,1","10211,1",,,,,"08,1,+03300,1,99,9",,,,"99999,9,10184,1","8,1,016,1,+999,9","SYN070AAXX  10001 02458 45984 /2503 11009 21052 30184 40211 58016 333 88/61;",
"02458099999","2010-03-10T03:00:00","4","59.897328","17.588581","20.72","UPPSALA, SW","FM-12","ESCM ","V020","250,1,N,0060,1","99999,9,9,N","050000,1,N,1","-0012,1","-0053,1","10199,1",,,,,,,,,"99999,9,10173,1","8,1,012,1,+999,9","SYN060AAXX  10031 02458 45984 /2506 11012 21053 30173 40199 58012;",
"02458099999","2010-03-10T06:00:00","4","59.897328","17.588581","20.72","UPPSALA, SW","FM-12","ESCM ","V020","250,1,N,0020,1","99999,9,9,N","050000,1,N,1","-0018,1","-0057,1","10197,1",,,,,,,"120,M,+0013,1","999,N,-0029,1","99999,9,10171,1","7,1,002,1,+999,9","SYN076AAXX  10061 02458 35984 /2502 11018 21057 30171 40197 57002 333 10013 21029;",
"02458099999","2010-03-10T09:00:00","4","59.897328","17.588581","20.72","UPPSALA, SW","FM-12","ESCM ","V020","230,1,N,0050,1","99999,9,9,N","040000,1,N,1","+0006,1","-0042,1","10202,1",,,,,,,,,"99999,9,10175,1","0,1,005,1,+999,9","SYN060AAXX  10091 02458 45982 /2305 10006 21042 30175 40202 50005;",
"02458099999","2010-03-10T12:00:00","4","59.897328","17.588581","20.72","UPPSALA, SW","FM-12","ESCM ","V020","230,1,N,0050,1","99999,9,9,N","045000,1,N,1","+0042,1","-0023,1","10198,1",,,,,,,,,"99999,9,10173,1","8,1,003,1,+999,9","SYN060AAXX  10121 02458 45983 /2305 10042 21023 30173 40198 58003;",
"02458099999","2010-03-10T15:00:00","4","59.897328","17.588581","20.72","UPPSALA, SW","FM-12","ESCM ","V020","220,1,N,0040,1","99999,9,9,N","050000,1,N,1","+0037,1","-0012,1","10191,1",,,,,,,,,"99999,9,10165,1","7,1,007,1,+999,9","SYN060AAXX  10151 02458 45984 /2204 10037 21012 30165 40191 57007;",
"02458099999","2010-03-10T18:00:00","4","59.897328","17.588581","20.72","UPPSALA, SW","FM-12","ESCM ","V020","220,1,N,0040,1","99999,9,9,N","050000,1,N,1","+0007,1","-0017,1","10188,1",,,,,,,"120,M,+0045,1","999,N,-0027,1","99999,9,10162,1","7,1,003,1,+999,9","SYN076AAXX  10181 02458 35984 /2204 10007 21017 30162 40188 57003 333 10045 21027;",
"02458099999","2010-03-10T21:00:00","4","59.897328","17.588581","20.72","UPPSALA, SW","FM-12","ESCM ","V020","210,1,N,0010,1","99999,9,9,N","050000,1,N,1","-0011,1","-0025,1","10180,1",,,,,,,,,"99999,9,10154,1","8,1,009,1,+999,9","SYN060AAXX  10211 02458 45984 /2101 11011 21025 30154 40180 58009;",
"02458099999","2010-03-11T00:00:00","4","59.897328","17.588581","20.72","UPPSALA, SW","FM-12","ESCM ","V020","230,1,N,0030,1","99999,9,9,N","029000,1,N,1","-0022,1","-0029,1","10167,1",,,,,,,,,"99999,9,10140,1","7,1,013,1,+999,9","SYN060AAXX  11001 02458 45979 /2303 11022 21029 30140 40167 57013;",
"02458099999","2010-03-11T03:00:00","4","59.897328","17.588581","20.72","UPPSALA, SW","FM-12","ESCM ","V020","220,1,N,0020,1","00180,1,C,N","012000,1,N,1","-0026,1","-0027,1","10149,1",,,,,"08,1,+00180,1,99,9",,,,"99999,9,10123,1","8,1,018,1,+999,9","SYN070AAXX  11031 02458 45262 /2202 11026 21027 30123 40149 58018 333 88/06;",
"02458099999","2010-03-11T06:00:00","4","59.897328","17.588581","20.72","UPPSALA, SW","FM-12","ESCM ","V020","230,1,N,0040,1","00150,1,C,N","013000,1,N,1","-0029,1","-0030,1","10129,1",,,,,"08,1,+00150,1,99,9",,"120,M,+0009,1","999,N,-0032,1","99999,9,10102,1","8,1,020,1,+999,9","SYN082AAXX  11061 02458 35263 /2304 11029 21030 30102 40129 58020 333 10009 21032 88/05;",
"02458099999","2010-03-11T09:00:00","4","59.897328","17.588581","20.72","UPPSALA, SW","FM-12","ESCM ","V020","240,1,N,0050,1","00210,1,C,N","017000,1,N,1","-0013,1","-0016,1","10113,1",,,,,"08,1,+00210,1,99,9",,,,"99999,9,10087,1","8,1,015,1,+999,9","SYN070AAXX  11091 02458 45367 /2405 11013 21016 30087 40113 58015 333 88/07;",
"02458099999","2010-03-11T12:00:00","4","59.897328","17.588581","20.72","UPPSALA, SW","FM-12","ESCM ","V020","220,1,N,0050,1","99999,9,9,N","030000,1,N,1","+0007,1","-0007,1","10088,1",,,,,"01,1,+00390,1,99,9",,,,"99999,9,10062,1","8,1,025,1,+999,9","SYN070AAXX  11121 02458 45480 /2205 10007 21007 30062 40088 58025 333 81/13;",
"02458099999","2010-03-11T15:00:00","4","59.897328","17.588581","20.72","UPPSALA, SW","FM-12","ESCM ","V020","220,1,N,0050,1","99999,9,9,N","035000,1,N,1","+0018,1","-0004,1","10065,1",,,,,,,,,"99999,9,10039,1","8,1,023,1,+999,9","SYN060AAXX  11151 02458 45981 /2205 10018 21004 30039 40065 58023;",
"02458099999","2010-03-11T18:00:00","4","59.897328","17.588581","20.72","UPPSALA, SW","FM-12","ESCM ","V020","240,1,N,0030,1","02400,1,C,N","030000,1,N,1","+0005,1","-0006,1","10055,1",,,,,"07,1,+02400,1,99,9",,"120,M,+0018,1","999,N,-0029,1","99999,9,10029,1","6,1,011,1,+999,9","SYN088AAXX  11181 02458 35980 /2403 10005 21006 30029 40055 56011 333 10018 21029 87/58 88/62;",
"02458099999","2010-03-11T21:00:00","4","59.897328","17.588581","20.72","UPPSALA, SW","FM-12","ESCM ","V020","260,1,N,0020,1","01500,1,C,N","021000,1,N,1","-0003,1","-0007,1","10045,1",,,"41,1","8,1,03,1","02,1,+01230,1,99,9","06,1,+01500,1,99,9",,,"99999,9,10019,1","6,1,009,1,+999,9","SYN088AAXX  11211 02458 47671 /2602 11003 21007 30019 40045 56009 74184 333 82/41 86/50 88/57;",
"02458099999","2010-03-12T00:00:00","4","59.897328","17.588581","20.72","UPPSALA, SW","FM-12","ESCM ","V020","320,1,N,0030,1","22000,1,C,N","015000,1,N,1","+0001,1","-0001,1","10040,1",,,"80,1","8,1,06,1","01,1,+01020,1,99,9","04,1,+01290,1,99,9",,,"99999,9,10014,1","5,1,005,1,+999,9","SYN088AAXX  12001 02458 47665 /3203 10001 21001 30014 40040 55005 78086 333 81/34 84/43 86/57;",
"02458099999","2010-03-12T03:00:00","4","59.897328","17.588581","20.72","UPPSALA, SW","FM-12","ESCM ","V020","350,1,N,0050,1","00330,1,C,N","029000,1,N,1","+0010,1","+0005,1","10054,1",,,"81,1","8,1,03,1","06,1,+00330,1,99,9",,,,"99999,9,10028,1","3,1,014,1,+999,9","SYN082AAXX  12031 02458 47479 /3505 10010 20005 30028 40054 53014 78186 333 86/11 87/15;",
"02458099999","2010-03-12T06:00:00","4","59.897328","17.588581","20.72","UPPSALA, SW","FM-12","ESCM ","V020","010,1,N,0040,1","00270,1,C,N","001100,1,N,1","-0006,1","-0006,1","10070,1","12,0008,9,1","24,0008,9,1","71,1","8,1,06,1","09,1,+00270,1,99,9",,"120,M,+0015,1","999,N,-0008,1","99999,9,10044,1","3,1,016,1,+999,9","SYN106AAXX  12061 02458 07/11 /0104 11006 21006 30044 40070 53016 69972 77187 333 10015 21008 69925 70007 89/09;",
"02458099999","2010-03-12T09:00:00","4","59.897328","17.588581","20.72","UPPSALA, SW","FM-12","ESCM ","V020","360,1,N,0050,1","99999,9,9,N","035000,1,N,1","-0004,1","-0038,1","10089,1",,,"00,1","8,1,03,1",,,,,"99999,9,10063,1","1,1,019,1,+999,9","SYN066AAXX  12091 02458 47981 /3605 11004 21038 30063 40089 51019 70087;",
"02458099999","2010-03-12T12:00:00","4","59.897328","17.588581","20.72","UPPSALA, SW","FM-12","ESCM ","V020","360,1,N,0030,1","99999,9,9,N","045000,1,N,1","+0001,1","-0067,1","10089,1",,,"00,1","8,1,06,1",,,,,"99999,9,10063,1","0,1,000,1,+999,9","SYN066AAXX  12121 02458 47983 /3603 10001 21067 30063 40089 50000 70087;",
"02458099999","2010-03-12T15:00:00","4","59.897328","17.588581","20.72","UPPSALA, SW","FM-12","ESCM ","V020","290,1,N,0020,1","99999,9,9,N","050000,1,N,1","+0004,1","-0079,1","10075,1",,,,,,,,,"99999,9,10049,1","7,1,014,1,+999,9","SYN060AAXX  12151 02458 45984 /2902 10004 21079 30049 40075 57014;",
"02458099999","2010-03-12T18:00:00","4","59.897328","17.588581","20.72","UPPSALA, SW","FM-12","ESCM ","V020","230,1,N,0030,1","99999,9,9,N","050000,1,N,1","-0031,1","-0088,1","10065,1","12,0000,2,1",,,,,,"120,M,+0013,1","999,N,-0033,1","99999,9,10038,1","7,1,010,1,+999,9","SYN082AAXX  12181 02458 15984 /2303 11031 21088 30038 40065 57010 69912 333 10013 21033;",
"02458099999","2010-03-12T21:00:00","4","59.897328","17.588581","20.72","UPPSALA, SW","FM-12","ESCM ","V020","270,1,N,0030,1","99999,9,9,N","050000,1,N,1","-0024,1","-0083,1","10056,1",,,,,,,,,"99999,9,10030,1","8,1,008,1,+999,9","SYN060AAXX  12211 02458 45984 /2703 11024 21083 30030 40056 58008;",
"02458099999","2010-03-13T00:00:00","4","59.897328","17.588581","20.72","UPPSALA, SW","FM-12","ESCM ","V020","270,1,N,0020,1","99999,9,9,N","050000,1,N,1","-0030,1","-0080,1","10040,1",,,,,"03,1,+01800,1,99,9",,,,"99999,9,10014,1","8,1,016,1,+999,9","SYN070AAXX  13001 02458 45784 /2702 11030 21080 30014 40040 58016 333 83/56;",
"02458099999","2010-03-13T03:00:00","4","59.897328","17.588581","20.72","UPPSALA, SW","FM-12","ESCM ","V020","280,1,N,0020,1","99999,9,9,N","050000,1,N,1","-0061,1","-0098,1","10031,1",,,,,,,,,"99999,9,10005,1","7,1,010,1,+999,9","SYN060AAXX  13031 02458 45984 /2802 11061 21098 30005 40031 57010;",
"02458099999","2010-03-13T06:00:00","4","59.897328","17.588581","20.72","UPPSALA, SW","FM-12","ESCM ","V020","280,1,N,0010,1","99999,9,9,N","050000,1,N,1","-0088,1","-0099,1","10026,1","24,0000,2,1",,,,,,"120,M,-0021,1","999,N,-0105,1","99999,9,09999,1","7,1,005,1,+999,9","SYN082AAXX  13061 02458 35984 /2801 11088 21099 39999 40026 57005 333 11021 21105 70001;",
"02458099999","2010-03-13T09:00:00","4","59.897328","17.588581","20.72","UPPSALA, SW","FM-12","ESCM ","V020","310,1,N,0040,1","99999,9,9,N","040000,1,N,1","-0017,1","-0054,1","10026,1",,,,,,,,,"99999,9,10000,1","4,1,000,1,+999,9","SYN060AAXX  13091 02458 45982 /3104 11017 21054 30000 40026 54000;",
"02458099999","2010-03-13T12:00:00","4","59.897328","17.588581","20.72","UPPSALA, SW","FM-12","ESCM ","V020","310,1,N,0050,1","01500,1,C,N","050000,1,N,1","+0018,1","-0057,1","10023,1",,,,,"05,1,+01500,1,99,9",,,,"99999,9,09997,1","7,1,003,1,+999,9","SYN070AAXX  13121 02458 45784 /3105 10018 21057 39997 40023 57003 333 85/50;",
"02458099999","2010-03-13T15:00:00","4","59.897328","17.588581","20.72","UPPSALA, SW","FM-12","ESCM ","V020","310,1,N,0040,1","99999,9,9,N","050000,1,N,1","+0008,1","-0068,1","10014,1",,,,,"01,1,+02100,1,99,9",,,,"99999,9,09989,1","7,1,008,1,+999,9","SYN070AAXX  13151 02458 45884 /3104 10008 21068 39989 40014 57008 333 81/57;",
"02458099999","2010-03-13T18:00:00","4","59.897328","17.588581","20.72","UPPSALA, SW","FM-12","ESCM ","V020","290,1,N,0020,1","99999,9,9,N","050000,1,N,1","-0033,1","-0096,1","10016,1",,,,,,,"120,M,+0020,1","999,N,-0090,1","99999,9,09989,1","4,1,000,1,+999,9","SYN076AAXX  13181 02458 35984 /2902 11033 21096 39989 40016 54001 333 10020 21090;",
"02458099999","2010-03-13T21:00:00","4","59.897328","17.588581","20.72","UPPSALA, SW","FM-12","ESCM ","V020","280,1,N,0020,1","99999,9,9,N","050000,1,N,1","-0053,1","-0106,1","10010,1",,,,,,,,,"99999,9,09984,1","7,1,006,1,+999,9","SYN060AAXX  13211 02458 45984 /2802 11053 21106 39984 40010 57006;",
"02458099999","2010-03-14T00:00:00","4","59.897328","17.588581","20.72","UPPSALA, SW","FM-12","ESCM ","V020","290,1,N,0040,1","99999,9,9,N","050000,1,N,1","-0066,1","-0110,1","10003,1",,,,,,,,,"99999,9,09977,1","6,1,007,1,+999,9","SYN060AAXX  14001 02458 45984 /2904 11066 21110 39977 40003 56007;",
"02458099999","2010-03-14T03:00:00","4","59.897328","17.588581","20.72","UPPSALA, SW","FM-12","ESCM ","V020","290,1,N,0050,1","99999,9,9,N","050000,1,N,1","-0050,1","-0088,1","09999,1",,,,,,,,,"99999,9,09973,1","7,1,004,1,+999,9","SYN060AAXX  14031 02458 45984 /2905 11050 21088 39973 49999 57004;",
"02458099999","2010-03-14T06:00:00","4","59.897328","17.588581","20.72","UPPSALA, SW","FM-12","ESCM ","V020","350,1,N,0060,1","00210,1,C,N","000800,1,N,1","-0046,1","-0052,1","10014,1","12,0003,9,1","24,0003,9,1","85,1","8,1,06,1","09,1,+00210,1,99,9",,"120,M,-0025,1","999,N,-0070,1","99999,9,09988,1","3,1,015,1,+999,9","SYN106AAXX  14061 02458 07/08 /3506 11046 21052 39988 40014 53015 69932 78587 333 11025 21070 69935 70003 89/07;",
"02458099999","2010-03-14T09:00:00","4","59.897328","17.588581","20.72","UPPSALA, SW","FM-12","ESCM ","V020","320,1,N,0040,1","99999,9,9,N","040000,1,N,1","-0034,1","-0100,1","10026,1",,,"00,1","8,1,03,1",,,,,"99999,9,10000,1","2,1,012,1,+999,9","SYN066AAXX  14091 02458 47982 /3204 11034 21100 30000 40026 52012 70082;",
"02458099999","2010-03-14T12:00:00","4","59.897328","17.588581","20.72","UPPSALA, SW","FM-12","ESCM ","V020","300,1,N,0040,1","99999,9,9,N","045000,1,N,1","-0017,1","-0111,1","10028,1",,,"00,1","8,1,06,1",,,,,"99999,9,10002,1","0,1,001,1,+999,9","SYN066AAXX  14121 02458 47983 /3004 11017 21111 30002 40028 50001 70082;",
"02458099999","2010-03-14T15:00:00","4","59.897328","17.588581","20.72","UPPSALA, SW","FM-12","ESCM ","V020","310,1,N,0060,1","99999,9,9,N","050000,1,N,1","-0010,1","-0094,1","10023,1",,,,,"02,1,+02100,1,99,9",,,,"99999,9,09997,1","5,1,005,1,+999,9","SYN070AAXX  14151 02458 45884 /3106 11010 21094 39997 40023 55005 333 82/57;",
"02458099999","2010-03-14T18:00:00","4","59.897328","17.588581","20.72","UPPSALA, SW","FM-12","ESCM ","V020","270,1,N,0020,1","99999,9,9,N","050000,1,N,1","-0038,1","-0108,1","10026,1","12,0000,2,1",,,,,,"120,M,+0002,1","999,N,-0057,1","99999,9,10000,1","2,1,003,1,+999,9","SYN082AAXX  14181 02458 15984 /2702 11038 21108 30000 40026 52003 69912 333 10002 21057;",
"02458099999","2010-03-14T21:00:00","4","59.897328","17.588581","20.72","UPPSALA, SW","FM-12","ESCM ","V020","300,1,N,0020,1","02100,1,C,N","050000,1,N,1","-0059,1","-0109,1","10027,1",,,,,"07,1,+02100,1,99,9",,,,"99999,9,10001,1","2,1,001,1,+999,9","SYN076AAXX  14211 02458 45884 /3002 11059 21109 30001 40027 52001 333 87/57 88/59;",
"02458099999","2010-03-15T00:00:00","4","59.897328","17.588581","20.72","UPPSALA, SW","FM-12","ESCM ","V020","290,1,N,0040,1","99999,9,9,N","050000,1,N,1","-0077,1","-0118,1","10029,1",,,,,"02,1,+01500,1,99,9",,,,"99999,9,10002,1","2,1,001,1,+999,9","SYN070AAXX  15001 02458 45784 /2904 11077 21118 30002 40029 52001 333 82/50;",
"02458099999","2010-03-15T03:00:00","4","59.897328","17.588581","20.72","UPPSALA, SW","FM-12","ESCM ","V020","310,1,N,0020,1","99999,9,9,N","050000,1,N,1","-0081,1","-0110,1","10032,1",,,,,"02,1,+01410,1,99,9",,,,"99999,9,10005,1","2,1,003,1,+999,9","SYN070AAXX  15031 02458 45684 /3102 11081 21110 30005 40032 52003 333 82/47;",
"02458099999","2010-03-15T06:00:00","4","59.897328","17.588581","20.72","UPPSALA, SW","FM-12","ESCM ","V020","290,1,N,0020,1","99999,9,9,N","050000,1,N,1","-0085,1","-0105,1","10040,1","24,0000,2,1",,,,,,"120,M,-0028,1","999,N,-0108,1","99999,9,10013,1","2,1,008,1,+999,9","SYN082AAXX  15061 02458 35984 /2902 11085 21105 30013 40040 52008 333 11028 21108 70001;",
"02458099999","2010-03-15T09:00:00","4","59.897328","17.588581","20.72","UPPSALA, SW","FM-12","ESCM ","V020","340,1,N,0010,1","99999,9,9,N","040000,1,N,1","-0032,1","-0076,1","10049,1",,,,,,,,,"99999,9,10023,1","2,1,009,1,+999,9","SYN060AAXX  15091 02458 45982 /3401 11032 21076 30023 40049 52009;",
"02458099999","2010-03-15T12:00:00","4","59.897328","17.588581","20.72","UPPSALA, SW","FM-12","ESCM ","V020","999,9,C,0000,1","99999,9,9,N","050000,1,N,1","+0014,1","-0057,1","10057,1",,,,,,,,,"99999,9,10032,1","2,1,009,1,+999,9","SYN060AAXX  15121 02458 45984 /0000 10014 21057 30032 40057 52009;",
"02458099999","2010-03-15T15:00:00","4","59.897328","17.588581","20.72","UPPSALA, SW","FM-12","ESCM ","V020","180,1,N,0010,1","01800,1,C,N","050000,1,N,1","-0011,1","-0068,1","10057,1",,,,,"06,1,+01800,1,99,9",,,,"99999,9,10031,1","4,1,000,1,+999,9","SYN070AAXX  15151 02458 45784 /1801 11011 21068 30031 40057 54000 333 86/56;",
"02458099999","2010-03-15T18:00:00","4","59.897328","17.588581","20.72","UPPSALA, SW","FM-12","ESCM ","V020","230,1,N,0010,1","99999,9,9,N","050000,1,N,1","-0040,1","-0098,1","10060,1",,,,,,,"120,M,+0040,1","999,N,-0089,1","99999,9,10034,1","2,1,003,1,+999,9","SYN076AAXX  15181 02458 35984 /2301 11040 21098 30034 40060 52003 333 10040 21089;",
"02458099999","2010-03-15T21:00:00","4","59.897328","17.588581","20.72","UPPSALA, SW","FM-12","ESCM ","V020","270,1,N,0020,1","99999,9,9,N","050000,1,N,1","-0063,1","-0108,1","10065,1",,,,,"01,1,+02100,1,99,9",,,,"99999,9,10038,1","3,1,004,1,+999,9","SYN070AAXX  15211 02458 45884 /2702 11063 21108 30038 40065 53004 333 81/57;",
"02458099999","2010-03-16T00:00:00","4","59.897328","17.588581","20.72","UPPSALA, SW","FM-12","ESCM ","V020","320,1,N,0010,1","99999,9,9,N","050000,1,N,1","-0136,1","-0152,1","10069,1",,,,,,,,,"99999,9,10041,1","2,1,004,1,+999,9","SYN060AAXX  16001 02458 45984 /3201 11136 21152 30041 40069 52004;",
"02458099999","2010-03-16T03:00:00","4","59.897328","17.588581","20.72","UPPSALA, SW","FM-12","ESCM ","V020","999,9,C,0000,1","99999,9,9,N","050000,1,N,1","-0130,1","-0141,1","10070,1",,,,,,,,,"99999,9,10042,1","4,1,000,1,+999,9","SYN060AAXX  16031 02458 45984 /0000 11130 21141 30042 40070 54001;",
"02458099999","2010-03-16T06:00:00","4","59.897328","17.588581","20.72","UPPSALA, SW","FM-12","ESCM ","V020","290,1,N,0020,1","99999,9,9,N","050000,1,N,1","-0106,1","-0128,1","10077,1",,,,,,,"120,M,-0029,1","999,N,-0141,1","99999,9,10051,1","2,1,008,1,+999,9","SYN076AAXX  16061 02458 35984 /2902 11106 21128 30051 40077 52008 333 11029 21141;",
"02458099999","2010-03-16T09:00:00","4","59.897328","17.588581","20.72","UPPSALA, SW","FM-12","ESCM ","V020","320,1,N,0040,1","99999,9,9,N","045000,1,N,1","-0022,1","-0071,1","10093,1",,,,,,,,,"99999,9,10067,1","2,1,016,1,+999,9","SYN060AAXX  16091 02458 45983 /3204 11022 21071 30067 40093 52016;",
"02458099999","2010-03-16T12:00:00","4","59.897328","17.588581","20.72","UPPSALA, SW","FM-12","ESCM ","V020","010,1,N,0040,1","99999,9,9,N","045000,1,N,1","-0011,1","-0068,1","10112,1",,,,,,,,,"99999,9,10086,1","3,1,019,1,+999,9","SYN060AAXX  16120 02458 45983 /0104 11011 21068 30086 40112 53019;",
"02458099999","2010-03-16T15:00:00","4","59.897328","17.588581","20.72","UPPSALA, SW","FM-12","ESCM ","V020","010,1,N,0040,1","99999,9,9,N","050000,1,N,1","-0032,1","-0081,1","10136,1",,,,,,,,,"99999,9,10110,1","1,1,024,1,+999,9","SYN060AAXX  16151 02458 45984 /0104 11032 21081 30110 40136 51024;",
"02458099999","2010-03-16T18:00:00","4","59.897328","17.588581","20.72","UPPSALA, SW","FM-12","ESCM ","V020","999,9,C,0000,1","99999,9,9,N","050000,1,N,1","-0103,1","-0132,1","10145,1",,,,,,,"120,M,-0009,1","999,N,-0108,1","99999,9,10118,1","0,1,008,1,+999,9","SYN076AAXX  16181 02458 35984 /0000 11103 21132 30118 40145 50008 333 11009 21108;",
"02458099999","2010-03-16T21:00:00","4","59.897328","17.588581","20.72","UPPSALA, SW","FM-12","ESCM ","V020","150,1,N,0010,1","02100,1,C,N","050000,1,N,1","-0097,1","-0112,1","10141,1",,,,,"06,1,+02100,1,99,9",,,,"99999,9,10114,1","7,1,004,1,+999,9","SYN070AAXX  16211 02458 45884 /1501 11097 21112 30114 40141 57004 333 86/57;",
"02458099999","2010-03-17T00:00:00","4","59.897328","17.588581","20.72","UPPSALA, SW","FM-12","ESCM ","V020","160,1,N,0010,1","99999,9,9,N","050000,1,N,1","-0093,1","-0113,1","10129,1",,,,,"03,1,+02100,1,99,9",,,,"99999,9,10102,1","8,1,011,1,+999,9","SYN070AAXX  17001 02458 45884 /1601 11093 21113 30102 40129 58011 333 83/57;",
"02458099999","2010-03-17T03:00:00","4","59.897328","17.588581","20.72","UPPSALA, SW","FM-12","ESCM ","V020","150,1,N,0020,1","99999,9,9,N","050000,1,N,1","-0077,1","-0102,1","10114,1",,,,,"03,1,+01410,1,99,9",,,,"99999,9,10087,1","7,1,015,1,+999,9","SYN076AAXX  17031 02458 45684 /1502 11077 21102 30087 40114 57015 333 83/47 88/58;",
"02458099999","2010-03-17T06:00:00","4","59.897328","17.588581","20.72","UPPSALA, SW","FM-12","ESCM ","V020","999,9,C,0000,1","01500,1,C,N","050000,1,N,1","-0068,1","-0090,1","10111,1",,,,,"02,1,+01230,1,99,9","04,1,+01500,1,99,9","120,M,-0061,1","999,N,-0129,1","99999,9,10084,1","5,1,003,1,+999,9","SYN094AAXX  17061 02458 35684 /0000 11068 21090 30084 40111 55003 333 11061 21129 82/41 84/50 88/57;",
"02458099999","2010-03-17T09:00:00","4","59.897328","17.588581","20.72","UPPSALA, SW","FM-12","ESCM ","V020","200,1,N,0010,1","99999,9,9,N","035000,1,N,1","-0019,1","-0045,1","10114,1",,,"00,1","8,1,03,1",,,,,"99999,9,10088,1","0,1,004,1,+999,9","SYN066AAXX  17091 02458 47981 /2001 11019 21045 30088 40114 50004 70087;",
"02458099999","2010-03-17T12:00:00","4","59.897328","17.588581","20.72","UPPSALA, SW","FM-12","ESCM ","V020","040,1,N,0010,1","99999,9,9,N","050000,1,N,1","+0014,1","-0026,1","10112,1",,,"00,1","8,1,06,1",,,,,"99999,9,10087,1","7,1,001,1,+999,9","SYN066AAXX  17121 02458 47984 /0401 10014 21026 30087 40112 57001 70087;",
"02458099999","2010-03-17T15:00:00","4","59.897328","17.588581","20.72","UPPSALA, SW","FM-12","ESCM ","V020","310,1,N,0020,1","99999,9,9,N","050000,1,N,1","+0003,1","-0052,1","10114,1",,,,,,,,,"99999,9,10088,1","3,1,001,1,+999,9","SYN060AAXX  17151 02458 45984 /3102 10003 21052 30088 40114 53001;",
"02458099999","2010-03-17T18:00:00","4","59.897328","17.588581","20.72","UPPSALA, SW","FM-12","ESCM ","V020","210,1,N,0020,1","02400,1,C,N","050000,1,N,1","-0022,1","-0057,1","10125,1",,,,,"05,1,+02400,1,99,9",,"120,M,+0067,1","999,N,-0074,1","99999,9,10099,1","2,1,011,1,+999,9","SYN082AAXX  17181 02458 35984 /2102 11022 21057 30099 40125 52011 333 10067 21074 85/58;",
"02458099999","2010-03-17T21:00:00","4","59.897328","17.588581","20.72","UPPSALA, SW","FM-12","ESCM ","V020","150,1,N,0010,1","01800,1,C,N","050000,1,N,1","-0012,1","-0035,1","10127,1",,,,,"08,1,+01800,1,99,9",,,,"99999,9,10101,1","2,1,002,1,+999,9","SYN070AAXX  17211 02458 45884 /1501 11012 21035 30101 40127 52002 333 88/56;",
"02458099999","2010-03-18T00:00:00","4","59.897328","17.588581","20.72","UPPSALA, SW","FM-12","ESCM ","V020","170,1,N,0010,1","99999,9,9,N","050000,1,N,1","-0011,1","-0027,1","10129,1",,,,,"01,1,+01320,1,99,9",,,,"99999,9,10103,1","2,1,001,1,+999,9","SYN070AAXX  18001 02458 45684 /1701 11011 21027 30103 40129 52001 333 81/44;",
"02458099999","2010-03-18T03:00:00","4","59.897328","17.588581","20.72","UPPSALA, SW","FM-12","ESCM ","V020","180,1,N,0030,1","00600,1,C,N","012000,1,N,1","-0011,1","-0012,1","10121,1",,,"67,1","7,1,03,1","09,1,+00600,1,99,9",,,,"99999,9,10095,1","7,1,008,1,+999,9","SYN076AAXX  18031 02458 47/62 /1803 11011 21012 30095 40121 57008 76776 333 89/20;",
"02458099999","2010-03-18T06:00:00","4","59.897328","17.588581","20.72","UPPSALA, SW","FM-12","ESCM ","V020","180,1,N,0030,1","00150,1,C,N","010000,1,N,1","+0003,1","+0003,1","10110,1","12,0000,2,1","24,0003,9,1","24,1","8,1,06,1","08,1,+00150,1,99,9",,"120,M,+0004,1","999,N,-0034,1","99999,9,10084,1","7,1,011,1,+999,9","SYN100AAXX  18061 02458 17260 /1803 10003 20003 30084 40110 57011 69922 72487 333 10004 21034 70002 88/05;",
"02458099999","2010-03-18T09:00:00","4","59.897328","17.588581","20.72","UPPSALA, SW","FM-12","ESCM ","V020","210,1,N,0050,1","00180,1,C,N","005000,1,N,1","+0017,1","+0014,1","10099,1",,,"10,1","3,1,03,1","08,1,+00180,1,99,9",,,,"99999,9,10073,1","8,1,011,1,+999,9","SYN076AAXX  18091 02458 47350 /2105 10017 20014 30073 40099 58011 71021 333 88/06;",
"02458099999","2010-03-18T12:00:00","4","59.897328","17.588581","20.72","UPPSALA, SW","FM-12","ESCM ","V020","210,1,N,0060,1","00300,1,C,N","006000,1,N,1","+0028,1","+0018,1","10083,1",,,"10,1","3,1,06,1","08,1,+00300,1,99,9",,,,"99999,9,10058,1","8,1,015,1,+999,9","SYN076AAXX  18121 02458 47456 /2106 10028 20018 30058 40083 58015 71021 333 88/10;",
"02458099999","2010-03-18T15:00:00","4","59.897328","17.588581","20.72","UPPSALA, SW","FM-12","ESCM ","V020","220,1,N,0060,1","00420,1,C,N","035000,1,N,1","+0038,1","+0025,1","10053,1",,,,,"08,1,+00420,1,99,9",,,,"99999,9,10027,1","8,1,031,1,+999,9","SYN070AAXX  18151 02458 45481 /2206 10038 20025 30027 40053 58031 333 88/14;",
"02458099999","2010-03-18T18:00:00","4","59.897328","17.588581","20.72","UPPSALA, SW","FM-12","ESCM ","V020","230,1,N,0070,1","00270,1,C,N","015000,1,N,1","+0033,1","+0029,1","10035,1",,,,,"08,1,+00270,1,99,9",,"120,M,+0040,1","999,N,+0003,1","99999,9,10009,1","6,1,018,1,+999,9","SYN082AAXX  18181 02458 35365 /2307 10033 20029 30009 40035 56018 333 10040 20003 88/09;",
"02458099999","2010-03-18T21:00:00","4","59.897328","17.588581","20.72","UPPSALA, SW","FM-12","ESCM ","V020","240,1,N,0040,1","00360,1,C,N","013000,1,N,1","+0036,1","+0032,1","10032,1",,,,,"08,1,+00360,1,99,9",,,,"99999,9,10006,1","5,1,003,1,+999,9","SYN070AAXX  18211 02458 45463 /2404 10036 20032 30006 40032 55003 333 88/12;",
"02458099999","2010-03-19T00:00:00","4","59.897328","17.588581","20.72","UPPSALA, SW","FM-12","ESCM ","V020","240,1,N,0020,1","99999,9,9,N","014000,1,N,1","+0031,1","+0026,1","10035,1",,,,,"01,1,+00360,1,99,9",,,,"99999,9,10010,1","0,1,003,1,+999,9","SYN076AAXX  19001 02458 45464 /2402 10031 20026 30010 40035 50003 333 81/12 84/58;",
"02458099999","2010-03-19T03:00:00","4","59.897328","17.588581","20.72","UPPSALA, SW","FM-12","ESCM ","V020","240,1,N,0010,1","99999,9,9,N","012000,1,N,1","+0019,1","+0017,1","10042,1",,,,,,,,,"99999,9,10017,1","1,1,007,1,+999,9","SYN060AAXX  19031 02458 45962 /2401 10019 20017 30017 40042 51007;",
"02458099999","2010-03-19T06:00:00","4","59.897328","17.588581","20.72","UPPSALA, SW","FM-12","ESCM ","V020","220,1,N,0030,1","00150,1,C,N","009000,1,N,1","+0024,1","+0024,1","10044,1",,,"10,1","2,1,06,1","08,1,+00150,1,99,9",,"120,M,+0038,1","999,N,+0001,1","99999,9,10018,1","2,1,001,1,+999,9","SYN088AAXX  19061 02458 37259 /2203 10024 20024 30018 40044 52001 71010 333 10038 20001 88/05;",
"02458099999","2010-03-19T09:00:00","4","59.897328","17.588581","20.72","UPPSALA, SW","FM-12","ESCM ","V020","240,1,N,0020,1","00180,1,C,N","007000,1,N,1","+0030,1","+0029,1","10036,1",,,"10,1","2,1,03,1","08,1,+00180,1,99,9",,,,"99999,9,10010,1","8,1,008,1,+999,9","SYN076AAXX  19091 02458 47257 /2402 10030 20029 30010 40036 58008 71011 333 88/06;",
"02458099999","2010-03-19T12:00:00","4","59.897328","17.588581","20.72","UPPSALA, SW","FM-12","ESCM ","V020","180,1,N,0020,1","99999,9,9,N","005000,1,N,1","+0039,1","+0028,1","10022,1",,,"61,1","6,1,06,1","01,1,+01500,1,99,9",,,,"99999,9,09997,1","8,1,014,1,+999,9","SYN076AAXX  19121 02458 47750 /1802 10039 20028 39997 40022 58014 76165 333 81/50;",
"02458099999","2010-03-19T15:00:00","4","59.897328","17.588581","20.72","UPPSALA, SW","FM-12","ESCM ","V020","160,1,N,0030,1","99999,9,9,N","005000,1,N,1","+0038,1","+0033,1","09993,1",,,"23,1","6,1,03,1","01,1,+00990,1,99,9",,,,"99999,9,09967,1","8,1,029,1,+999,9","SYN082AAXX  19151 02458 47550 /1603 10038 20033 39967 49993 58029 72365 333 81/33 88/43;",
"02458099999","2010-03-19T18:00:00","4","59.897328","17.588581","20.72","UPPSALA, SW","FM-12","ESCM ","V020","220,1,N,0060,1","00180,1,C,N","002100,1,N,1","+0042,1","+0042,1","09974,1","12,0003,9,1",,"10,1","8,1,06,1","08,1,+00180,1,99,9",,"120,M,+0048,1","999,N,+0024,1","99999,9,09949,1","6,1,018,1,+999,9","SYN094AAXX  19181 02458 17221 /2206 10042 20042 39949 49974 56018 69932 71086 333 10048 20024 88/06;",
"02458099999","2010-03-19T21:00:00","4","59.897328","17.588581","20.72","UPPSALA, SW","FM-12","ESCM ","V020","220,1,N,0060,1","00510,1,C,N","011000,1,N,1","+0044,1","+0036,1","09959,1",,,,,"08,1,+00510,1,99,9",,,,"99999,9,09934,1","8,1,015,1,+999,9","SYN070AAXX  19211 02458 45461 /2206 10044 20036 39934 49959 58015 333 88/17;",
"02458099999","2010-03-20T00:00:00","4","59.897328","17.588581","20.72","UPPSALA, SW","FM-12","ESCM ","V020","230,1,N,0060,1","00510,1,C,N","015000,1,N,1","+0036,1","+0024,1","09950,1",,,,,"08,1,+00510,1,99,9",,,,"99999,9,09925,1","7,1,009,1,+999,9","SYN070AAXX  20001 02458 45465 /2306 10036 20024 39925 49950 57009 333 88/17;",
"02458099999","2010-03-20T03:00:00","4","59.897328","17.588581","20.72","UPPSALA, SW","FM-12","ESCM ","V020","220,1,N,0050,1","00480,1,C,N","015000,1,N,1","+0036,1","+0025,1","09934,1",,,,,"08,1,+00480,1,99,9",,,,"99999,9,09908,1","7,1,017,1,+999,9","SYN070AAXX  20031 02458 45465 /2205 10036 20025 39908 49934 57017 333 88/16;",
"02458099999","2010-03-20T06:00:00","4","59.897328","17.588581","20.72","UPPSALA, SW","FM-12","ESCM ","V020","220,1,N,0060,1","00570,1,C,N","015000,1,N,1","+0035,1","+0022,1","09923,1","24,0003,9,1",,,,"08,1,+00570,1,99,9",,"120,M,+0046,1","999,N,+0031,1","99999,9,09898,1","7,1,010,1,+999,9","SYN088AAXX  20061 02458 35465 /2206 10035 20022 39898 49923 57010 333 10046 20031 70003 88/19;",
"02458099999","2010-03-20T09:00:00","4","59.897328","17.588581","20.72","UPPSALA, SW","FM-12","ESCM ","V020","240,1,N,0060,1","99999,9,9,N","021000,1,N,1","+0052,1","+0025,1","09927,1",,,,,,,,,"99999,9,09902,1","2,1,003,1,+999,9","SYN060AAXX  20091 02458 45971 /2406 10052 20025 39902 49927 52003;",
"02458099999","2010-03-20T12:00:00","4","59.897328","17.588581","20.72","UPPSALA, SW","FM-12","ESCM ","V020","230,1,N,0060,1","99999,9,9,N","025000,1,N,1","+0072,1","+0029,1","09929,1",,,,,,,,,"99999,9,09905,1","2,1,003,1,+999,9","SYN060AAXX  20121 02458 45975 /2306 10072 20029 39905 49929 52003;",
"02458099999","2010-03-20T15:00:00","4","59.897328","17.588581","20.72","UPPSALA, SW","FM-12","ESCM ","V020","230,1,N,0060,1","99999,9,9,N","025000,1,N,1","+0068,1","+0023,1","09936,1",,,,,,,,,"99999,9,09911,1","3,1,006,1,+999,9","SYN060AAXX  20151 02458 45975 /2306 10068 20023 39911 49936 53006;",
"02458099999","2010-03-20T18:00:00","4","59.897328","17.588581","20.72","UPPSALA, SW","FM-12","ESCM ","V020","240,1,N,0010,1","99999,9,9,N","022000,1,N,1","+0035,1","+0013,1","09944,1",,,,,,,"120,M,+0077,1","999,N,+0032,1","99999,9,09919,1","3,1,008,1,+999,9","SYN076AAXX  20181 02458 35972 /2401 10035 20013 39919 49944 53008 333 10077 20032;",
"02458099999","2010-03-20T21:00:00","4","59.897328","17.588581","20.72","UPPSALA, SW","FM-12","ESCM ","V020","160,1,N,0010,1","99999,9,9,N","022000,1,N,1","+0025,1","+0009,1","09951,1",,,,,,,,,"99999,9,09926,1","2,1,007,1,+999,9","SYN060AAXX  20211 02458 45972 /1601 10025 20009 39926 49951 52007;",
"02458099999","2010-03-21T00:00:00","4","59.897328","17.588581","20.72","UPPSALA, SW","FM-12","ESCM ","V020","190,1,N,0020,1","99999,9,9,N","020000,1,N,1","+0006,1","+0000,1","09960,1",,,,,,,,,"99999,9,09934,1","3,1,008,1,+999,9","SYN060AAXX  21001 02458 45970 /1902 10006 20000 39934 49960 53008;",
"02458099999","2010-03-21T03:00:00","4","59.897328","17.588581","20.72","UPPSALA, SW","FM-12","ESCM ","V020","280,1,N,0010,1","99999,9,9,N","016000,1,N,1","-0012,1","-0015,1","09963,1",,,,,,,,,"99999,9,09937,1","2,1,003,1,+999,9","SYN060AAXX  21031 02458 45966 /2801 11012 21015 39937 49963 52003;",
"02458099999","2010-03-21T06:00:00","4","59.897328","17.588581","20.72","UPPSALA, SW","FM-12","ESCM ","V020","010,1,N,0060,1","00210,1,C,N","030000,1,N,1","+0005,1","+0002,1","09975,1",,,,,"08,1,+00210,1,99,9",,"120,M,+0040,1","999,N,-0030,1","99999,9,09950,1","2,1,012,1,+999,9","SYN082AAXX  21061 02458 35380 /0106 10005 20002 39950 49975 52012 333 10040 21030 88/07;",
"02458099999","2010-03-21T09:00:00","4","59.897328","17.588581","20.72","UPPSALA, SW","FM-12","ESCM ","V020","040,1,N,0060,1","00360,1,C,N","029000,1,N,1","+0003,1","-0005,1","09982,1",,,"41,1","6,1,03,1","08,1,+00360,1,99,9",,,,"99999,9,09956,1","0,1,007,1,+999,9","SYN076AAXX  21091 02458 47479 /0406 10003 21005 39956 49982 50007 74140 333 88/12;",
"02458099999","2010-03-21T12:00:00","4","59.897328","17.588581","20.72","UPPSALA, SW","FM-12","ESCM ","V020","030,1,N,0050,1","00270,1,C,N","001800,1,N,1","-0012,1","-0012,1","09986,1",,,"71,1","7,1,06,1","09,1,+00270,1,99,9",,,,"99999,9,09960,1","0,1,004,1,+999,9","SYN076AAXX  21121 02458 47/18 /0305 11012 21012 39960 49986 50004 77174 333 89/09;",
"02458099999","2010-03-21T15:00:00","4","59.897328","17.588581","20.72","UPPSALA, SW","FM-12","ESCM ","V020","350,1,N,0070,1","00120,1,C,N","000700,1,N,1","-0030,1","-0030,1","10009,1",,,"72,1","7,1,03,1","09,1,+00120,1,99,9",,,,"99999,9,09983,1","3,1,023,1,+999,9","SYN076AAXX  21151 02458 47/07 /3507 11030 21030 39983 40009 53023 77277 333 89/04;",
"02458099999","2010-03-21T18:00:00","4","59.897328","17.588581","20.72","UPPSALA, SW","FM-12","ESCM ","V020","340,1,N,0070,1","99999,9,9,N","045000,1,N,1","-0029,1","-0032,1","10048,1","12,0079,9,1",,"71,1","7,1,06,1","01,1,+00510,1,99,9",,"120,M,+0005,1","999,N,-0034,1","99999,9,10021,1","3,1,038,1,+999,9","SYN106AAXX  21181 02458 07483 /3407 11029 21032 30021 40048 53038 60082 77177 333 10005 21034 69925 81/17 86/50;",
"02458099999","2010-03-21T21:00:00","4","59.897328","17.588581","20.72","UPPSALA, SW","FM-12","ESCM ","V020","310,1,N,0050,1","99999,9,9,N","050000,1,N,1","-0067,1","-0075,1","10084,1",,,"00,1","7,1,03,1",,,,,"99999,9,10057,1","3,1,036,1,+999,9","SYN066AAXX  21211 02458 47984 /3105 11067 21075 30057 40084 53036 70072;",
"02458099999","2010-03-22T00:00:00","4","59.897328","17.588581","20.72","UPPSALA, SW","FM-12","ESCM ","V020","290,1,N,0020,1","99999,9,9,N","050000,1,N,1","-0087,1","-0094,1","10115,1",,,,,,,,,"99999,9,10088,1","1,1,031,1,+999,9","SYN060AAXX  22001 02458 45984 /2902 11087 21094 30088 40115 51031;",
"02458099999","2010-03-22T03:00:00","4","59.897328","17.588581","20.72","UPPSALA, SW","FM-12","ESCM ","V020","310,1,N,0010,1","99999,9,9,N","050000,1,N,1","-0099,1","-0101,1","10137,1",,,,,,,,,"99999,9,10110,1","3,1,022,1,+999,9","SYN060AAXX  22031 02458 45984 /3101 11099 21101 30110 40137 53022;",
"02458099999","2010-03-22T06:00:00","4","59.897328","17.588581","20.72","UPPSALA, SW","FM-12","ESCM ","V020","999,9,C,0000,1","99999,9,9,N","030000,1,N,1","-0105,1","-0107,1","10159,1","24,0079,9,1",,"20,1","4,1,06,1",,,"120,M,-0026,1","999,N,-0131,1","99999,9,10132,1","2,1,022,1,+999,9","SYN088AAXX  22061 02458 37980 /0000 11105 21107 30132 40159 52022 72032 333 11026 21131 70078;",
"02458099999","2010-03-22T09:00:00","4","59.897328","17.588581","20.72","UPPSALA, SW","FM-12","ESCM ","V020","230,1,N,0020,1","99999,9,9,N","050000,1,N,1","-0018,1","-0042,1","10172,1",,,,,,,,,"99999,9,10146,1","2,1,014,1,+999,9","SYN060AAXX  22090 02458 45984 /2302 11018 21042 30146 40172 52014;",
"02458099999","2010-03-22T12:00:00","4","59.897328","17.588581","20.72","UPPSALA, SW","FM-12","ESCM ","V020","230,1,N,0040,1","99999,9,9,N","045000,1,N,1","+0021,1","-0026,1","10172,1",,,,,,,,,"99999,9,10146,1","4,1,000,1,+999,9","SYN060AAXX  22121 02458 45983 /2304 10021 21026 30146 40172 54000;",
"02458099999","2010-03-22T15:00:00","4","59.897328","17.588581","20.72","UPPSALA, SW","FM-12","ESCM ","V020","210,1,N,0030,1","02100,1,C,N","050000,1,N,1","+0017,1","-0011,1","10167,1",,,,,"08,1,+02100,1,99,9",,,,"99999,9,10141,1","7,1,005,1,+999,9","SYN070AAXX  22151 02458 45884 /2103 10017 21011 30141 40167 57005 333 88/57;",
"02458099999","2010-03-22T18:00:00","4","59.897328","17.588581","20.72","UPPSALA, SW","FM-12","ESCM ","V020","210,1,N,0020,1","01800,1,C,N","050000,1,N,1","+0006,1","-0021,1","10161,1",,,,,"08,1,+01800,1,99,9",,"120,M,+0043,1","999,N,-0125,1","99999,9,10135,1","6,1,005,1,+999,9","SYN082AAXX  22181 02458 35884 /2102 10006 21021 30135 40161 56005 333 10043 21125 88/56;",
"02458099999","2010-03-22T21:00:00","4","59.897328","17.588581","20.72","UPPSALA, SW","FM-12","ESCM ","V020","210,1,N,0020,1","01800,1,C,N","050000,1,N,1","-0001,1","-0019,1","10158,1",,,,,"08,1,+01800,1,99,9",,,,"99999,9,10131,1","7,1,004,1,+999,9","SYN070AAXX  22211 02458 45784 /2102 11001 21019 30131 40158 57004 333 88/56;",
"02458099999","2010-03-23T00:00:00","4","59.897328","17.588581","20.72","UPPSALA, SW","FM-12","ESCM ","V020","210,1,N,0020,1","01800,1,C,N","050000,1,N,1","-0014,1","-0034,1","10145,1",,,,,"08,1,+01800,1,99,9",,,,"99999,9,10119,1","8,1,012,1,+999,9","SYN070AAXX  23001 02458 45784 /2102 11014 21034 30119 40145 58012 333 88/56;",
"02458099999","2010-03-23T03:00:00","4","59.897328","17.588581","20.72","UPPSALA, SW","FM-12","ESCM ","V020","130,1,N,0010,1","00600,1,C,N","050000,1,N,1","-0023,1","-0029,1","10129,1",,,,,"08,1,+00600,1,99,9",,,,"99999,9,10103,1","8,1,016,1,+999,9","SYN070AAXX  23031 02458 45584 /1301 11023 21029 30103 40129 58016 333 88/20;",
"02458099999","2010-03-23T06:00:00","4","59.897328","17.588581","20.72","UPPSALA, SW","FM-12","ESCM ","V020","110,1,N,0010,1","00390,1,C,N","002500,1,N,1","-0012,1","-0012,1","10110,1","12,0005,9,1","24,0005,9,1","71,1","7,1,06,1","09,1,+00390,1,99,9",,"120,M,+0006,1","999,N,-0036,1","99999,9,10084,1","7,1,019,1,+999,9","SYN106AAXX  23061 02458 07/25 /1101 11012 21012 30084 40110 57019 69952 77174 333 10006 21036 69945 70005 89/13;",
"02458099999","2010-03-23T09:00:00","4","59.897328","17.588581","20.72","UPPSALA, SW","FM-12","ESCM ","V020","090,1,N,0030,1","00180,1,C,N","002800,1,N,1","+0002,1","+0002,1","10092,1",,,"71,1","7,1,03,1","09,1,+00180,1,99,9",,,,"99999,9,10066,1","8,1,018,1,+999,9","SYN076AAXX  23091 02458 47/28 /0903 10002 20002 30066 40092 58018 77177 333 89/06;",
"02458099999","2010-03-23T12:00:00","4","59.897328","17.588581","20.72","UPPSALA, SW","FM-12","ESCM ","V020","090,1,N,0020,1","00180,1,C,N","007000,1,N,1","+0006,1","+0006,1","10070,1",,,"71,1","7,1,06,1","09,1,+00180,1,99,9",,,,"99999,9,10044,1","8,1,022,1,+999,9","SYN076AAXX  23121 02458 47/57 /0902 10006 20006 30044 40070 58022 77177 333 89/06;",
"02458099999","2010-03-23T15:00:00","4","59.897328","17.588581","20.72","UPPSALA, SW","FM-12","ESCM ","V020","030,1,N,0030,1","00150,1,C,N","005000,1,N,1","+0005,1","+0005,1","10053,1",,,"61,1","8,1,03,1","09,1,+00150,1,99,9",,,,"99999,9,10027,1","6,1,016,1,+999,9","SYN076AAXX  23151 02458 47/50 /0303 10005 20005 30027 40053 56016 76187 333 89/05;",
"02458099999","2010-03-23T18:00:00","4","59.897328","17.588581","20.72","UPPSALA, SW","FM-12","ESCM ","V020","010,1,N,0040,1","00240,1,C,N","035000,1,N,1","+0004,1","+0002,1","10068,1","12,0030,9,1",,"67,1","8,1,06,1","08,1,+00240,1,99,9",,"120,M,+0009,1","999,N,-0012,1","99999,9,10042,1","3,1,015,1,+999,9","SYN094AAXX  23181 02458 17381 /0104 10004 20002 30042 40068 53015 60032 76787 333 10009 21012 88/08;",
"02458099999","2010-03-23T21:00:00","4","59.897328","17.588581","20.72","UPPSALA, SW","FM-12","ESCM ","V020","020,1,N,0050,1","00240,1,C,N","029000,1,N,1","-0003,1","-0006,1","10098,1",,,"22,1","8,1,03,1","08,1,+00240,1,99,9",,,,"99999,9,10072,1","3,1,030,1,+999,9","SYN076AAXX  23211 02458 47379 /0205 11003 21006 30072 40098 53030 72287 333 88/08;",
"02458099999","2010-03-24T00:00:00","4","59.897328","17.588581","20.72","UPPSALA, SW","FM-12","ESCM ","V020","350,1,N,0030,1","00900,1,C,N","050000,1,N,1","-0008,1","-0013,1","10129,1",,,"00,1","8,1,06,1","08,1,+00900,1,99,9",,,,"99999,9,10103,1","3,1,030,1,+999,9","SYN076AAXX  24001 02458 47584 /3503 11008 21013 30103 40129 53030 70087 333 88/30;",
"02458099999","2010-03-24T03:00:00","4","59.897328","17.588581","20.72","UPPSALA, SW","FM-12","ESCM ","V020","330,1,N,0020,1","01800,1,C,N","024000,1,N,1","-0021,1","-0026,1","10151,1",,,,,"08,1,+01800,1,99,9",,,,"99999,9,10124,1","3,1,022,1,+999,9","SYN070AAXX  24031 02458 45874 /3302 11021 21026 30124 40151 53022 333 88/56;",
"02458099999","2010-03-24T06:00:00","4","59.897328","17.588581","20.72","UPPSALA, SW","FM-12","ESCM ","V020","300,1,N,0030,1","00150,1,C,N","000700,1,N,1","-0065,1","-0066,1","10174,1","12,0000,2,1","24,0033,9,1","34,1","4,1,06,1","09,1,+00150,1,99,9",,"120,M,+0004,1","999,N,-0070,1","99999,9,10147,1","3,1,023,1,+999,9","SYN100AAXX  24061 02458 17/07 /3003 11065 21066 30147 40174 53023 69912 73431 333 10004 21070 70033 89/05;",
"02458099999","2010-03-24T09:00:00","4","59.897328","17.588581","20.72","UPPSALA, SW","FM-12","ESCM ","V020","080,1,N,0010,1","99999,9,9,N","012000,1,N,1","-0015,1","-0033,1","10192,1",,,"00,1","4,1,03,1",,,,,"99999,9,10165,1","2,1,018,1,+999,9","SYN066AAXX  24091 02458 47962 /0801 11015 21033 30165 40192 52018 70032;",
"02458099999","2010-03-24T12:00:00","4","59.897328","17.588581","20.72","UPPSALA, SW","FM-12","ESCM ","V020","070,1,N,0010,1","99999,9,9,N","035000,1,N,1","+0018,1","-0029,1","10192,1",,,"00,1","4,1,06,1",,,,,"99999,9,10166,1","0,1,001,1,+999,9","SYN066AAXX  24121 02458 47981 /0701 10018 21029 30166 40192 50001 70032;",
"02458099999","2010-03-24T15:00:00","4","59.897328","17.588581","20.72","UPPSALA, SW","FM-12","ESCM ","V020","210,1,N,0020,1","99999,9,9,N","045000,1,N,1","+0029,1","-0029,1","10194,1",,,,,,,,,"99999,9,10168,1","2,1,002,1,+999,9","SYN060AAXX  24151 02458 45983 /2102 10029 21029 30168 40194 52002;",
"02458099999","2010-03-24T18:00:00","4","59.897328","17.588581","20.72","UPPSALA, SW","FM-12","ESCM ","V020","210,1,N,0010,1","02400,1,C,N","050000,1,N,1","-0006,1","-0026,1","10199,1",,,,,"07,1,+02400,1,99,9",,"120,M,+0037,1","999,N,-0065,1","99999,9,10173,1","3,1,005,1,+999,9","SYN088AAXX  24181 02458 35884 /2101 11006 21026 30173 40199 53005 333 10037 21065 87/58 88/60;",
"02458099999","2010-03-24T21:00:00","4","59.897328","17.588581","20.72","UPPSALA, SW","FM-12","ESCM ","V020","999,9,C,0000,1","00510,1,C,N","040000,1,N,1","-0018,1","-0023,1","10208,1",,,,,"08,1,+00510,1,99,9",,,,"99999,9,10182,1","2,1,009,1,+999,9","SYN070AAXX  24211 02458 45482 /0000 11018 21023 30182 40208 52009 333 88/17;",
"02458099999","2010-03-25T00:00:00","4","59.897328","17.588581","20.72","UPPSALA, SW","FM-12","ESCM ","V020","150,1,N,0010,1","00210,1,C,N","045000,1,N,1","-0005,1","-0009,1","10210,1",,,,,"08,1,+00210,1,99,9",,,,"99999,9,10184,1","2,1,002,1,+999,9","SYN070AAXX  25001 02458 45383 /1501 11005 21009 30184 40210 52002 333 88/07;",
"02458099999","2010-03-25T03:00:00","4","59.897328","17.588581","20.72","UPPSALA, SW","FM-12","ESCM ","V020","150,1,N,0030,1","00150,1,C,N","017000,1,N,1","+0003,1","+0002,1","10204,1",,,,,"08,1,+00150,1,99,9",,,,"99999,9,10178,1","7,1,006,1,+999,9","SYN070AAXX  25031 02458 45267 /1503 10003 20002 30178 40204 57006 333 88/05;",
"02458099999","2010-03-25T06:00:00","4","59.897328","17.588581","20.72","UPPSALA, SW","FM-12","ESCM ","V020","150,1,N,0030,1","00150,1,C,N","011000,1,N,1","+0008,1","+0008,1","10206,1",,,,,"09,1,+00150,1,99,9",,"120,M,+0008,1","999,N,-0028,1","99999,9,10179,1","2,1,001,1,+999,9","SYN082AAXX  25061 02458 35/61 /1503 10008 20008 30179 40206 52001 333 10008 21028 89/05;",
"02458099999","2010-03-25T09:00:00","4","59.897328","17.588581","20.72","UPPSALA, SW","FM-12","ESCM ","V020","160,1,N,0040,1","00270,1,C,N","040000,1,N,1","+0012,1","+0005,1","10205,1",,,,,"08,1,+00270,1,99,9",,,,"99999,9,10179,1","4,1,000,1,+999,9","SYN070AAXX  25091 02458 45382 /1604 10012 20005 30179 40205 54000 333 88/09;",
"02458099999","2010-03-25T12:00:00","4","59.897328","17.588581","20.72","UPPSALA, SW","FM-12","ESCM ","V020","150,1,N,0040,1","00330,1,C,N","035000,1,N,1","+0018,1","+0007,1","10198,1",,,,,"08,1,+00330,1,99,9",,,,"99999,9,10172,1","8,1,007,1,+999,9","SYN070AAXX  25121 02458 45481 /1504 10018 20007 30172 40198 58007 333 88/11;",
"02458099999","2010-03-25T15:00:00","4","59.897328","17.588581","20.72","UPPSALA, SW","FM-12","ESCM ","V020","140,1,N,0040,1","00270,1,C,N","030000,1,N,1","+0016,1","+0009,1","10180,1",,,,,"08,1,+00270,1,99,9",,,,"99999,9,10154,1","7,1,018,1,+999,9","SYN070AAXX  25151 02458 45380 /1404 10016 20009 30154 40180 57018 333 88/09;",
"02458099999","2010-03-25T18:00:00","4","59.897328","17.588581","20.72","UPPSALA, SW","FM-12","ESCM ","V020","160,1,N,0040,1","00090,1,C,N","003400,1,N,1","+0004,1","+0004,1","10177,1",,,"10,1","2,1,06,1","09,1,+00090,1,99,9",,"120,M,+0022,1","999,N,+0004,1","99999,9,10151,1","7,1,004,1,+999,9","SYN088AAXX  25181 02458 37/34 /1604 10004 20004 30151 40177 57004 71010 333 10022 20004 89/03;",
"02458099999","2010-03-25T21:00:00","4","59.897328","17.588581","20.72","UPPSALA, SW","FM-12","ESCM ","V020","130,1,N,0030,1","00090,1,C,N","004100,1,N,1","+0005,1","+0005,1","10166,1",,,"10,1","2,1,03,1","09,1,+00090,1,99,9",,,,"99999,9,10140,1","8,1,011,1,+999,9","SYN076AAXX  25211 02458 47/41 /1303 10005 20005 30140 40166 58011 71011 333 89/03;",
"02458099999","2010-03-26T00:00:00","4","59.897328","17.588581","20.72","UPPSALA, SW","FM-12","ESCM ","V020","110,1,N,0010,1","99999,9,9,N","009000,1,N,1","-0006,1","-0006,1","10143,1",,,"10,1","2,1,06,1",,,,,"99999,9,10117,1","8,1,022,1,+999,9","SYN066AAXX  26001 02458 47959 /1101 11006 21006 30117 40143 58022 71010;",
"02458099999","2010-03-26T03:00:00","4","59.897328","17.588581","20.72","UPPSALA, SW","FM-12","ESCM ","V020","999,9,C,0000,1","99999,9,9,N","000200,1,N,1","-0034,1","-0034,1","10119,1",,,"31,1","4,1,03,1",,,,,"99999,9,10093,1","7,1,024,1,+999,9","SYN066AAXX  26031 02458 47902 /0000 11034 21034 30093 40119 57024 73131;",
"02458099999","2010-03-26T06:00:00","4","59.897328","17.588581","20.72","UPPSALA, SW","FM-12","ESCM ","V020","070,1,N,0010,1","00060,1,C,N","000900,1,N,1","-0002,1","-0002,1","10099,1",,,"34,1","4,1,06,1","09,1,+00060,1,99,9",,"120,M,+0007,1","999,N,-0035,1","99999,9,10073,1","6,1,020,1,+999,9","SYN088AAXX  26061 02458 37/09 /0701 11002 21002 30073 40099 56020 73432 333 10007 21035 89/02;",
"02458099999","2010-03-26T09:00:00","4","59.897328","17.588581","20.72","UPPSALA, SW","FM-12","ESCM ","V020","999,9,C,0000,1","99999,9,9,N","010000,1,N,1","+0024,1","+0018,1","10086,1",,,"00,1","4,1,03,1","01,1,+01500,1,99,9",,,,"99999,9,10061,1","7,1,013,1,+999,9","SYN082AAXX  26091 02458 47760 /0000 10024 20018 30061 40086 57013 70032 333 81/50 83/70;",
"02458099999","2010-03-26T12:00:00","4","59.897328","17.588581","20.72","UPPSALA, SW","FM-12","ESCM ","V020","030,1,N,0020,1","99999,9,9,N","018000,1,N,1","+0044,1","+0028,1","10063,1",,,"00,1","4,1,06,1",,,,,"99999,9,10037,1","6,1,024,1,+999,9","SYN066AAXX  26121 02458 47968 /0302 10044 20028 30037 40063 56024 70032;",
"02458099999","2010-03-26T15:00:00","4","59.897328","17.588581","20.72","UPPSALA, SW","FM-12","ESCM ","V020","999,9,C,0000,1","02100,1,C,N","018000,1,N,1","+0052,1","+0025,1","10041,1",,,,,"08,1,+02100,1,99,9",,,,"99999,9,10016,1","8,1,022,1,+999,9","SYN070AAXX  26151 02458 45868 /0000 10052 20025 30016 40041 58022 333 88/57;",
"02458099999","2010-03-26T18:00:00","4","59.897328","17.588581","20.72","UPPSALA, SW","FM-12","ESCM ","V020","210,1,N,0010,1","02700,1,C,N","013000,1,N,1","+0025,1","+0015,1","10039,1",,,,,"08,1,+02700,1,99,9",,"120,M,+0081,1","999,N,-0002,1","99999,9,10013,1","7,1,002,1,+999,9","SYN082AAXX  26181 02458 35963 /2101 10025 20015 30013 40039 57002 333 10081 21002 88/59;",
"02458099999","2010-03-26T21:00:00","4","59.897328","17.588581","20.72","UPPSALA, SW","FM-12","ESCM ","V020","250,1,N,0010,1","99999,9,9,N","008000,1,N,1","+0006,1","+0005,1","10031,1",,,"10,1","2,1,03,1","01,1,+02400,1,99,9",,,,"99999,9,10005,1","8,1,008,1,+999,9","SYN082AAXX  26211 02458 47858 /2501 10006 20005 30005 40031 58008 71010 333 81/58 87/62;",
"02458099999","2010-03-27T00:00:00","4","59.897328","17.588581","20.72","UPPSALA, SW","FM-12","ESCM ","V020","310,1,N,0010,1","02400,1,C,N","006000,1,N,1","+0002,1","+0002,1","10018,1",,,"10,1","2,1,06,1","05,1,+02400,1,99,9",,,,"99999,9,09993,1","7,1,012,1,+999,9","SYN076AAXX  27001 02458 47956 /3101 10002 20002 39993 40018 57012 71010 333 85/58;",
"02458099999","2010-03-27T03:00:00","4","59.897328","17.588581","20.72","UPPSALA, SW","FM-12","ESCM ","V020","310,1,N,0010,1","99999,9,9,N","004000,1,N,1","+0001,1","+0001,1","10005,1",,,"10,1","2,1,03,1","01,1,+03600,1,99,9",,,,"99999,9,09980,1","6,1,013,1,+999,9","SYN076AAXX  27031 02458 47940 /3101 10001 20001 39980 40005 56013 71011 333 81/62;",
"02458099999","2010-03-27T06:00:00","4","59.897328","17.588581","20.72","UPPSALA, SW","FM-12","ESCM ","V020","030,1,N,0030,1","00180,1,C,N","007000,1,N,1","+0013,1","+0013,1","09995,1",,,"10,1","8,1,06,1","08,1,+00180,1,99,9",,"120,M,+0028,1","999,N,-0001,1","99999,9,09970,1","7,1,010,1,+999,9","SYN088AAXX  27061 02458 37257 /0303 10013 20013 39970 49995 57010 71084 333 10028 21001 88/06;",
"02458099999","2010-03-27T09:00:00","4","59.897328","17.588581","20.72","UPPSALA, SW","FM-12","ESCM ","V020","360,1,N,0020,1","00330,1,C,N","009000,1,N,1","+0021,1","+0019,1","09987,1",,,"23,1","8,1,03,1","08,1,+00330,1,99,9",,,,"99999,9,09961,1","8,1,008,1,+999,9","SYN076AAXX  27091 02458 47459 /3602 10021 20019 39961 49987 58008 72386 333 88/11;",
"02458099999","2010-03-27T12:00:00","4","59.897328","17.588581","20.72","UPPSALA, SW","FM-12","ESCM ","V020","360,1,N,0020,1","00330,1,C,N","010000,1,N,1","+0018,1","+0012,1","09968,1",,,"52,1","8,1,06,1","08,1,+00330,1,99,9",,,,"99999,9,09943,1","7,1,019,1,+999,9","SYN076AAXX  27121 02458 47460 /3602 10018 20012 39943 49968 57019 75286 333 88/11;",
"02458099999","2010-03-27T15:00:00","4","59.897328","17.588581","20.72","UPPSALA, SW","FM-12","ESCM ","V020","010,1,N,0030,1","00210,1,C,N","006000,1,N,1","+0021,1","+0018,1","09955,1",,,"22,1","8,1,03,1","08,1,+00210,1,99,9",,,,"99999,9,09930,1","8,1,013,1,+999,9","SYN076AAXX  27151 02458 47356 /0103 10021 20018 39930 49955 58013 72285 333 88/07;",
"02458099999","2010-03-27T18:00:00","4","59.897328","17.588581","20.72","UPPSALA, SW","FM-12","ESCM ","V020","010,1,N,0020,1","00090,1,C,N","002800,1,N,1","+0008,1","+0008,1","09945,1","12,0000,2,1",,"10,1","8,1,06,1","09,1,+00090,1,99,9",,"120,M,+0028,1","999,N,+0008,1","99999,9,09919,1","5,1,011,1,+999,9","SYN094AAXX  27181 02458 17/28 /0102 10008 20008 39919 49945 55011 69922 71085 333 10028 20008 89/03;",
"02458099999","2010-03-27T21:00:00","4","59.897328","17.588581","20.72","UPPSALA, SW","FM-12","ESCM ","V020","350,1,N,0040,1","00060,1,C,N","000700,1,N,1","+0003,1","+0003,1","09928,1",,,"33,1","4,1,03,1","09,1,+00060,1,99,9",,,,"99999,9,09902,1","6,1,017,1,+999,9","SYN076AAXX  27211 02458 47/07 /3504 10003 20003 39902 49928 56017 73331 333 89/02;",
"02458099999","2010-03-28T00:00:00","4","59.897328","17.588581","20.72","UPPSALA, SW","FM-12","ESCM ","V020","350,1,N,0030,1","00150,1,C,N","010000,1,N,1","+0004,1","+0004,1","09911,1",,,"81,1","8,1,06,1","09,1,+00150,1,99,9",,,,"99999,9,09885,1","6,1,017,1,+999,9","SYN076AAXX  28001 02458 47/60 /3503 10004 20004 39885 49911 56017 78186 333 89/05;",
"02458099999","2010-03-28T03:00:00","4","59.897328","17.588581","20.72","UPPSALA, SW","FM-12","ESCM ","V020","340,1,N,0030,1","00180,1,C,N","010000,1,N,1","+0004,1","+0004,1","09906,1",,,"64,1","8,1,03,1","08,1,+00180,1,99,9",,,,"99999,9,09881,1","5,1,004,1,+999,9","SYN076AAXX  28031 02458 47360 /3403 10004 20004 39881 49906 55004 76487 333 88/06;",
"02458099999","2010-03-28T06:00:00","4","59.897328","17.588581","20.72","UPPSALA, SW","FM-12","ESCM ","V020","310,1,N,0040,1","00180,1,C,N","021000,1,N,1","+0003,1","+0003,1","09918,1","12,0109,9,2","24,0107,9,2","67,1","8,1,06,1","08,1,+00180,1,99,9",,"120,M,+0009,1","999,N,+0001,1","99999,9,09892,1","3,1,011,1,+999,9","SYN106AAXX  28061 02458 07371 /3104 10003 20003 39892 49918 53011 60112 76787 333 10009 20001 69935 70107 88/06;",
"02458099999","2010-03-28T09:00:00","4","59.897328","17.588581","20.72","UPPSALA, SW","FM-12","ESCM ","V020","310,1,N,0030,1","00270,1,C,N","027000,1,N,1","+0008,1","+0006,1","09936,1",,,"41,1","6,1,03,1","08,1,+00270,1,99,9",,,,"99999,9,09910,1","2,1,018,1,+999,9","SYN076AAXX  28091 02458 47377 /3103 10008 20006 39910 49936 52018 74165 333 88/09;",
"02458099999","2010-03-28T12:00:00","4","59.897328","17.588581","20.72","UPPSALA, SW","FM-12","ESCM ","V020","280,1,N,0020,1","00450,1,C,N","050000,1,N,1","+0017,1","+0008,1","09947,1",,,"00,1","6,1,06,1","08,1,+00450,1,99,9",,,,"99999,9,09922,1","2,1,011,1,+999,9","SYN076AAXX  28121 02458 47484 /2802 10017 20008 39922 49947 52011 70065 333 88/15;",
"02458099999","2010-03-28T15:00:00","4","59.897328","17.588581","20.72","UPPSALA, SW","FM-12","ESCM ","V020","290,1,N,0010,1","00600,1,C,N","035000,1,N,1","+0019,1","+0014,1","09961,1",,,,,"08,1,+00600,1,99,9",,,,"99999,9,09936,1","2,1,014,1,+999,9","SYN070AAXX  28151 02458 45581 /2901 10019 20014 39936 49961 52014 333 88/20;",
"02458099999","2010-03-28T18:00:00","4","59.897328","17.588581","20.72","UPPSALA, SW","FM-12","ESCM ","V020","310,1,N,0010,1","00420,1,C,N","014000,1,N,1","+0009,1","+0007,1","09975,1","12,0020,9,1",,"61,1","6,1,06,1","07,1,+00420,1,99,9",,"120,M,+0024,1","999,N,+0003,1","99999,9,09950,1","3,1,014,1,+999,9","SYN106AAXX  28181 02458 07464 /3101 10009 20007 39950 49975 53014 60022 76165 333 10024 20003 69925 87/14 88/21;",
"02458099999","2010-03-28T21:00:00","4","59.897328","17.588581","20.72","UPPSALA, SW","FM-12","ESCM ","V020","100,1,N,0010,1","00600,1,C,N","025000,1,N,1","+0006,1","+0006,1","09981,1",,,"00,1","6,1,03,1","08,1,+00600,1,99,9",,,,"99999,9,09955,1","1,1,006,1,+999,9","SYN076AAXX  28211 02458 47575 /1001 10006 20006 39955 49981 51006 70065 333 88/20;",
"02458099999","2010-03-29T00:00:00","4","59.897328","17.588581","20.72","UPPSALA, SW","FM-12","ESCM ","V020","110,1,N,0020,1","00420,1,C,N","050000,1,N,1","+0008,1","+0005,1","09980,1",,,"00,1","8,1,06,1","08,1,+00420,1,99,9",,,,"99999,9,09955,1","4,1,000,1,+999,9","SYN076AAXX  29001 02458 47484 /1102 10008 20005 39955 49980 54001 70086 333 88/14;",
"02458099999","2010-03-29T03:00:00","4","59.897328","17.588581","20.72","UPPSALA, SW","FM-12","ESCM ","V020","110,1,N,0020,1","00180,1,C,N","029000,1,N,1","+0007,1","+0007,1","09976,1",,,"00,1","8,1,03,1","07,1,+00180,1,99,9",,,,"99999,9,09950,1","7,1,005,1,+999,9","SYN082AAXX  29031 02458 47279 /1102 10007 20007 39950 49976 57005 70087 333 87/06 88/08;",
"02458099999","2010-03-29T06:00:00","4","59.897328","17.588581","20.72","UPPSALA, SW","FM-12","ESCM ","V020","120,1,N,0030,1","00120,1,C,N","002900,1,N,1","+0008,1","+0008,1","09974,1","12,0005,9,1","24,0023,9,1","51,1","8,1,06,1","09,1,+00120,1,99,9",,"120,M,+0011,1","999,N,+0004,1","99999,9,09948,1","7,1,002,1,+999,9","SYN106AAXX  29061 02458 07/29 /1203 10008 20008 39948 49974 57002 69952 75187 333 10011 20004 69915 70023 89/04;",
"02458099999","2010-03-29T09:00:00","4","59.897328","17.588581","20.72","UPPSALA, SW","FM-12","ESCM ","V020","200,1,N,0020,1","00150,1,C,N","007000,1,N,1","+0026,1","+0026,1","09978,1",,,"23,1","8,1,03,1","06,1,+00150,1,99,9",,,,"99999,9,09953,1","2,1,005,1,+999,9","SYN082AAXX  29091 02458 47257 /2002 10026 20026 39953 49978 52005 72386 333 86/05 88/07;",
"02458099999","2010-03-29T12:00:00","4","59.897328","17.588581","20.72","UPPSALA, SW","FM-12","ESCM ","V020","190,1,N,0010,1","00420,1,C,N","030000,1,N,1","+0048,1","+0033,1","09983,1",,,"00,1","6,1,06,1","08,1,+00420,1,99,9",,,,"99999,9,09958,1","2,1,005,1,+999,9","SYN076AAXX  29121 02458 47480 /1901 10048 20033 39958 49983 52005 70065 333 88/14;",
"02458099999","2010-03-29T15:00:00","4","59.897328","17.588581","20.72","UPPSALA, SW","FM-12","ESCM ","V020","090,1,N,0010,1","00840,1,C,N","030000,1,N,1","+0027,1","+0022,1","09985,1",,,"61,1","6,1,03,1","04,1,+00630,1,99,9","06,1,+00840,1,99,9",,,"99999,9,09959,1","3,1,001,1,+999,9","SYN088AAXX  29151 02458 47580 /0901 10027 20022 39959 49985 53001 76165 333 84/21 86/28 87/40;",
"02458099999","2010-03-29T18:00:00","4","59.897328","17.588581","20.72","UPPSALA, SW","FM-12","ESCM ","V020","320,1,N,0010,1","99999,9,9,N","009000,1,N,1","+0013,1","+0013,1","09991,1","12,0010,9,1",,"10,1","8,1,06,1","01,1,+00570,1,99,9",,"120,M,+0060,1","999,N,+0008,1","99999,9,09965,1","3,1,006,1,+999,9","SYN100AAXX  29181 02458 17459 /3201 10013 20013 39965 49991 53006 60012 71086 333 10060 20008 81/19 88/26;",
"02458099999","2010-03-29T21:00:00","4","59.897328","17.588581","20.72","UPPSALA, SW","FM-12","ESCM ","V020","040,1,N,0010,1","00030,1,C,N","000200,1,N,1","+0009,1","+0009,1","09996,1",,,"81,1","8,1,03,1","09,1,+00030,1,99,9",,,,"99999,9,09970,1","2,1,005,1,+999,9","SYN076AAXX  29211 02458 47/02 /0401 10009 20009 39970 49996 52005 78187 333 89/01;",
"02458099999","2010-03-30T00:00:00","4","59.897328","17.588581","20.72","UPPSALA, SW","FM-12","ESCM ","V020","210,1,N,0030,1","00180,1,C,N","007000,1,N,1","+0020,1","+0020,1","09998,1",,,"10,1","8,1,06,1","06,1,+00180,1,99,9",,,,"99999,9,09973,1","2,1,002,1,+999,9","SYN082AAXX  30001 02458 47257 /2103 10020 20020 39973 49998 52002 71087 333 86/06 88/44;",
"02458099999","2010-03-30T03:00:00","4","59.897328","17.588581","20.72","UPPSALA, SW","FM-12","ESCM ","V020","210,1,N,0020,1","00600,1,C,N","030000,1,N,1","+0018,1","+0017,1","10010,1",,,"00,1","8,1,03,1","08,1,+00600,1,99,9",,,,"99999,9,09984,1","3,1,011,1,+999,9","SYN076AAXX  30031 02458 47580 /2102 10018 20017 39984 40010 53011 70086 333 88/20;",
"02458099999","2010-03-30T06:00:00","4","59.897328","17.588581","20.72","UPPSALA, SW","FM-12","ESCM ","V020","230,1,N,0020,1","00540,1,C,N","050000,1,N,1","+0017,1","+0012,1","10031,1","12,0005,9,1","24,0018,9,1","00,1","6,1,06,1","08,1,+00540,1,99,9",,"120,M,+0023,1","999,N,+0006,1","99999,9,10005,1","2,1,021,1,+999,9","SYN100AAXX  30061 02458 17484 /2302 10017 20012 30005 40031 52021 69952 70062 333 10023 20006 70019 88/18;",
"02458099999","2010-03-30T09:00:00","4","59.897328","17.588581","20.72","UPPSALA, SW","FM-12","ESCM ","V020","200,1,N,0020,1","00570,1,C,N","040000,1,N,1","+0021,1","+0006,1","10053,1",,,,,"08,1,+00570,1,99,9",,,,"99999,9,10028,1","2,1,023,1,+999,9","SYN070AAXX  30091 02458 45482 /2002 10021 20006 30028 40053 52023 333 88/19;",
"02458099999","2010-03-30T12:00:00","4","59.897328","17.588581","20.72","UPPSALA, SW","FM-12","ESCM ","V020","210,1,N,0020,1","00720,1,C,N","045000,1,N,1","+0023,1","+0000,1","10070,1",,,,,"08,1,+00720,1,99,9",,,,"99999,9,10044,1","2,1,017,1,+999,9","SYN070AAXX  30121 02458 45583 /2102 10023 20000 30044 40070 52017 333 88/24;",
"02458099999","2010-03-30T15:00:00","4","59.897328","17.588581","20.72","UPPSALA, SW","FM-12","ESCM ","V020","050,1,N,0010,1","99999,9,9,N","040000,1,N,1","+0027,1","-0001,1","10073,1",,,,,,,,,"99999,9,10047,1","3,1,003,1,+999,9","SYN060AAXX  30151 02458 45982 /0501 10027 21001 30047 40073 53003;",
"02458099999","2010-03-30T18:00:00","4","59.897328","17.588581","20.72","UPPSALA, SW","FM-12","ESCM ","V020","080,1,N,0010,1","99999,9,9,N","045000,1,N,1","+0000,1","-0011,1","10077,1",,,,,,,"120,M,+0049,1","999,N,-0003,1","99999,9,10051,1","3,1,004,1,+999,9","SYN076AAXX  30181 02458 35983 /0801 10000 21011 30051 40077 53004 333 10049 21003;",
"02458099999","2010-03-30T21:00:00","4","59.897328","17.588581","20.72","UPPSALA, SW","FM-12","ESCM ","V020","110,1,N,0040,1","99999,9,9,N","035000,1,N,1","-0004,1","-0008,1","10080,1",,,,,,,,,"99999,9,10054,1","2,1,003,1,+999,9","SYN060AAXX  30211 02458 45981 /1104 11004 21008 30054 40080 52003;",
"02458099999","2010-03-31T00:00:00","4","59.897328","17.588581","20.72","UPPSALA, SW","FM-12","ESCM ","V020","100,1,N,0030,1","00090,1,C,N","004700,1,N,1","-0011,1","-0011,1","10082,1",,,"10,1","2,1,06,1","09,1,+00090,1,99,9",,,,"99999,9,10056,1","0,1,002,1,+999,9","SYN076AAXX  31001 02458 47/47 /1003 11011 21011 30056 40082 50002 71010 333 89/03;",
"02458099999","2010-03-31T03:00:00","4","59.897328","17.588581","20.72","UPPSALA, SW","FM-12","ESCM ","V020","070,1,N,0040,1","00120,1,C,N","010000,1,N,1","-0011,1","-0011,1","10075,1",,,,,"09,1,+00120,1,99,9",,,,"99999,9,10049,1","7,1,007,1,+999,9","SYN070AAXX  31031 02458 45/60 /0704 11011 21011 30049 40075 57007 333 89/04;",
"02458099999","2010-03-31T06:00:00","4","59.897328","17.588581","20.72","UPPSALA, SW","FM-12","ESCM ","V020","060,1,N,0040,1","00150,1,C,N","016000,1,N,1","-0006,1","-0006,1","10067,1",,,,,"08,1,+00150,1,99,9",,"120,M,+0017,1","999,N,-0015,1","99999,9,10041,1","7,1,008,1,+999,9","SYN082AAXX  31061 02458 35266 /0604 11006 21006 30041 40067 57008 333 10017 21015 88/05;",
"02458099999","2010-03-31T09:00:00","4","59.897328","17.588581","20.72","UPPSALA, SW","FM-12","ESCM ","V020","010,1,N,0030,1","01260,1,C,N","030000,1,N,1","+0022,1","+0013,1","10054,1",,,,,"08,1,+01260,1,99,9",,,,"99999,9,10029,1","8,1,013,1,+999,9","SYN070AAXX  31091 02458 45680 /0103 10022 20013 30029 40054 58013 333 88/42;",
"02458099999","2010-03-31T12:00:00","4","59.897328","17.588581","20.72","UPPSALA, SW","FM-12","ESCM ","V020","060,1,N,0040,1","00240,1,C,N","011000,1,N,1","+0026,1","+0023,1","10046,1",,,,,"08,1,+00240,1,99,9",,,,"99999,9,10020,1","7,1,008,1,+999,9","SYN070AAXX  31121 02458 45361 /0604 10026 20023 30020 40046 57008 333 88/08;",
"02458099999","2010-03-31T15:00:00","4","59.897328","17.588581","20.72","UPPSALA, SW","FM-12","ESCM ","V020","050,1,N,0030,1","00090,1,C,N","001100,1,N,1","+0021,1","+0021,1","10036,1",,,"10,1","2,1,03,1","09,1,+00090,1,99,9",,,,"99999,9,10010,1","8,1,010,1,+999,9","SYN076AAXX  31151 02458 47/11 /0503 10021 20021 30010 40036 58010 71010 333 89/03;",
"02458099999","2010-03-31T18:00:00","4","59.897328","17.588581","20.72","UPPSALA, SW","FM-12","ESCM ","V020","050,1,N,0030,1","00060,1,C,N","000300,1,N,1","+0015,1","+0015,1","10033,1",,,"33,1","4,1,06,1","09,1,+00060,1,99,9",,"120,M,+0035,1","999,N,-0006,1","99999,9,10008,1","5,1,003,1,+999,9","SYN088AAXX  31181 02458 37/03 /0503 10015 20015 30008 40033 55003 73331 333 10035 21006 89/02;",
"02458099999","2010-03-31T21:00:00","4","59.897328","17.588581","20.72","UPPSALA, SW","FM-12","ESCM ","V020","020,1,N,0020,1","00030,1,C,N","000200,1,N,1","+0009,1","+0009,1","10025,1",,,"77,1","7,1,03,1","09,1,+00030,1,99,9",,,,"99999,9,09999,1","7,1,008,1,+999,9","SYN076AAXX  31211 02458 47/02 /0202 10009 20009 39999 40025 57008 77776 333 89/01;",
"02458099999","2010-04-01T00:00:00","4","59.897328","17.588581","20.72","UPPSALA, SW","FM-12","ESCM ","V020","010,1,N,0020,1","00060,1,C,N","000300,1,N,1","+0009,1","+0009,1","10015,1",,,"33,1","7,1,06,1","09,1,+00060,1,99,9",,,,"99999,9,09990,1","8,1,010,1,+999,9","SYN076AAXX  01001 02458 47/03 /0102 10009 20009 39990 40015 58010 73376 333 89/02;",
"02458099999","2010-04-01T03:00:00","4","59.897328","17.588581","20.72","UPPSALA, SW","FM-12","ESCM ","V020","030,1,N,0020,1","02700,1,C,N","003400,1,N,1","+0010,1","+0010,1","10003,1",,,"10,1","4,1,03,1","07,1,+02700,1,99,9",,,,"99999,9,09977,1","8,1,013,1,+999,9","SYN076AAXX  01031 02458 47934 /0302 10010 20010 39977 40003 58013 71032 333 87/59;",
"02458099999","2010-04-01T06:00:00","4","59.897328","17.588581","20.72","UPPSALA, SW","FM-12","ESCM ","V020","040,1,N,0020,1","02100,1,C,N","004200,1,N,1","+0019,1","+0019,1","09992,1","12,0005,9,1","24,0005,9,1","10,1","8,1,06,1","05,1,+02100,1,99,9",,"120,M,+0021,1","999,N,+0007,1","99999,9,09967,1","6,1,010,1,+999,9","SYN100AAXX  01061 02458 17842 /0402 10019 20019 39967 49992 56010 69942 71085 333 10021 20007 70004 85/57;",
"02458099999","2010-04-01T09:00:00","4","59.897328","17.588581","20.72","UPPSALA, SW","FM-12","ESCM ","V020","110,1,N,0040,1","00180,1,C,N","002000,1,N,1","+0046,1","+0046,1","09992,1",,,"62,1","8,1,03,1","09,1,+00180,1,99,9",,,,"99999,9,09966,1","5,1,001,1,+999,9","SYN076AAXX  01091 02458 47/20 /1104 10046 20046 39966 49992 55001 76286 333 89/06;",
"02458099999","2010-04-01T12:00:00","4","59.897328","17.588581","20.72","UPPSALA, SW","FM-12","ESCM ","V020","180,1,N,0040,1","00150,1,C,N","002200,1,N,1","+0043,1","+0043,1","10012,1",,,"10,1","8,1,06,1","09,1,+00150,1,99,9",,,,"99999,9,09987,1","3,1,021,1,+999,9","SYN076AAXX  01121 02458 47/22 /1804 10043 20043 39987 40012 53021 71086 333 89/05;",
"02458099999","2010-04-01T15:00:00","4","59.897328","17.588581","20.72","UPPSALA, SW","FM-12","ESCM ","V020","210,1,N,0040,1","00420,1,C,N","050000,1,N,1","+0044,1","+0035,1","10051,1",,,,,"08,1,+00420,1,99,9",,,,"99999,9,10025,1","1,1,038,1,+999,9","SYN070AAXX  01151 02458 45484 /2104 10044 20035 30025 40051 51038 333 88/14;",
"02458099999","2010-04-01T18:00:00","4","59.897328","17.588581","20.72","UPPSALA, SW","FM-12","ESCM ","V020","100,1,N,0010,1","99999,9,9,N","050000,1,N,1","+0016,1","+0014,1","10073,1","12,0020,9,1",,,,,,"120,M,+0050,1","999,N,+0019,1","99999,9,10047,1","2,1,022,1,+999,9","SYN082AAXX  01181 02458 15984 /1001 10016 20014 30047 40073 52022 60022 333 10050 20019;",
"02458099999","2010-04-01T21:00:00","4","59.897328","17.588581","20.72","UPPSALA, SW","FM-12","ESCM ","V020","140,1,N,0020,1","99999,9,9,N","013000,1,N,1","+0004,1","+0004,1","10086,1",,,,,,,,,"99999,9,10060,1","1,1,013,1,+999,9","SYN060AAXX  01211 02458 45963 /1402 10004 20004 30060 40086 51013;",
"02458099999","2010-04-02T00:00:00","4","59.897328","17.588581","20.72","UPPSALA, SW","FM-12","ESCM ","V020","160,1,N,0020,1","99999,9,9,N","004800,1,N,1","-0005,1","-0005,1","10110,1",,,"10,1","2,1,06,1",,,,,"99999,9,10084,1","2,1,023,1,+999,9","SYN066AAXX  02001 02458 47948 /1602 11005 21005 30084 40110 52023 71010;",
"02458099999","2010-04-02T03:00:00","4","59.897328","17.588581","20.72","UPPSALA, SW","FM-12","ESCM ","V020","150,1,N,0020,1","99999,9,9,N","005000,1,N,1","-0009,1","-0009,1","10125,1",,,"10,1","2,1,03,1",,,,,"99999,9,10099,1","1,1,015,1,+999,9","SYN066AAXX  02031 02458 47950 /1502 11009 21009 30099 40125 51015 71011;",
"02458099999","2010-04-02T06:00:00","4","59.897328","17.588581","20.72","UPPSALA, SW","FM-12","ESCM ","V020","160,1,N,0030,1","99999,9,9,N","022000,1,N,1","+0003,1","+0001,1","10139,1","24,0020,9,1",,,,,,"120,M,+0023,1","999,N,-0023,1","99999,9,10113,1","3,1,014,1,+999,9","SYN082AAXX  02061 02458 35972 /1603 10003 20001 30113 40139 53014 333 10023 21023 70021;",
"02458099999","2010-04-02T09:00:00","4","59.897328","17.588581","20.72","UPPSALA, SW","FM-12","ESCM ","V020","170,1,N,0030,1","99999,9,9,N","030000,1,N,1","+0039,1","+0019,1","10152,1",,,,,,,,,"99999,9,10126,1","1,1,014,1,+999,9","SYN060AAXX  02091 02458 45980 /1703 10039 20019 30126 40152 51014;",
"02458099999","2010-04-02T12:00:00","4","59.897328","17.588581","20.72","UPPSALA, SW","FM-12","ESCM ","V020","210,1,N,0040,1","00810,1,C,N","040000,1,N,1","+0057,1","+0024,1","10159,1",,,,,"08,1,+00810,1,99,9",,,,"99999,9,10134,1","3,1,007,1,+999,9","SYN070AAXX  02121 02458 45582 /2104 10057 20024 30134 40159 53007 333 88/27;",
"02458099999","2010-04-02T15:00:00","4","59.897328","17.588581","20.72","UPPSALA, SW","FM-12","ESCM ","V020","170,1,N,0020,1","01200,1,C,N","045000,1,N,1","+0060,1","+0031,1","10163,1",,,,,"08,1,+01200,1,99,9",,,,"99999,9,10137,1","0,1,004,1,+999,9","SYN070AAXX  02151 02458 45683 /1702 10060 20031 30137 40163 50004 333 88/40;",
"02458099999","2010-04-02T18:00:00","4","59.897328","17.588581","20.72","UPPSALA, SW","FM-12","ESCM ","V020","999,9,C,0000,1","99999,9,9,N","050000,1,N,1","+0029,1","+0011,1","10170,1",,,,,,,"120,M,+0062,1","999,N,+0003,1","99999,9,10144,1","2,1,007,1,+999,9","SYN076AAXX  02181 02458 35984 /0000 10029 20011 30144 40170 52007 333 10062 20003;",
"02458099999","2010-04-02T21:00:00","4","59.897328","17.588581","20.72","UPPSALA, SW","FM-12","ESCM ","V020","140,1,N,0010,1","99999,9,9,N","030000,1,N,1","-0016,1","-0018,1","10176,1",,,,,,,,,"99999,9,10150,1","2,1,006,1,+999,9","SYN060AAXX  02211 02458 45980 /1401 11016 21018 30150 40176 52006;",
"02458099999","2010-04-03T00:00:00","4","59.897328","17.588581","20.72","UPPSALA, SW","FM-12","ESCM ","V020","999,9,C,0000,1","99999,9,9,N","011000,1,N,1","-0034,1","-0034,1","10181,1",,,,,,,,,"99999,9,10154,1","2,1,004,1,+999,9","SYN060AAXX  03001 02458 45961 /0000 11034 21034 30154 40181 52004;",
"02458099999","2010-04-03T03:00:00","4","59.897328","17.588581","20.72","UPPSALA, SW","FM-12","ESCM ","V020","999,9,C,0000,1","99999,9,9,N","008000,1,N,1","-0041,1","-0041,1","10181,1",,,"31,1","4,1,03,1",,,,,"99999,9,10154,1","4,1,000,1,+999,9","SYN066AAXX  03031 02458 47958 /0000 11041 21041 30154 40181 54001 73131;",
"02458099999","2010-04-03T06:00:00","4","59.897328","17.588581","20.72","UPPSALA, SW","FM-12","ESCM ","V020","999,9,C,0000,1","99999,9,9,N","011000,1,N,1","-0022,1","-0022,1","10188,1",,,"00,1","4,1,06,1",,,"120,M,+0031,1","999,N,-0045,1","99999,9,10161,1","3,1,007,1,+999,9","SYN082AAXX  03061 02458 37961 /0000 11022 21022 30161 40188 53007 70032 333 10031 21045;",
"02458099999","2010-04-03T09:00:00","4","59.897328","17.588581","20.72","UPPSALA, SW","FM-12","ESCM ","V020","999,9,C,0000,1","99999,9,9,N","030000,1,N,1","+0058,1","+0039,1","10190,1",,,,,,,,,"99999,9,10164,1","0,1,003,1,+999,9","SYN060AAXX  03091 02458 45980 /0000 10058 20039 30164 40190 50003;",
"02458099999","2010-04-03T12:00:00","4","59.897328","17.588581","20.72","UPPSALA, SW","FM-12","ESCM ","V020","200,1,N,0020,1","99999,9,9,N","035000,1,N,1","+0094,1","+0022,1","10188,1",,,,,,,,,"99999,9,10162,1","8,1,002,1,+999,9","SYN060AAXX  03121 02458 45981 /2002 10094 20022 30162 40188 58002;",
"02458099999","2010-04-03T15:00:00","4","59.897328","17.588581","20.72","UPPSALA, SW","FM-12","ESCM ","V020","999,9,C,0000,1","99999,9,9,N","045000,1,N,1","+0094,1","+0033,1","10185,1",,,,,,,,,"99999,9,10159,1","7,1,003,1,+999,9","SYN060AAXX  03151 02458 45983 /0000 10094 20033 30159 40185 57003;",
"02458099999","2010-04-03T18:00:00","4","59.897328","17.588581","20.72","UPPSALA, SW","FM-12","ESCM ","V020","999,9,C,0000,1","99999,9,9,N","050000,1,N,1","+0031,1","+0010,1","10188,1",,,,,,,"120,M,+0108,1","999,N,-0025,1","99999,9,10162,1","2,1,003,1,+999,9","SYN076AAXX  03181 02458 35984 /0000 10031 20010 30162 40188 52003 333 10108 21025;",
"02458099999","2010-04-03T21:00:00","4","59.897328","17.588581","20.72","UPPSALA, SW","FM-12","ESCM ","V020","310,1,N,0020,1","99999,9,9,N","045000,1,N,1","+0000,1","-0006,1","10194,1",,,,,,,,,"99999,9,10168,1","2,1,006,1,+999,9","SYN060AAXX  03211 02458 45983 /3102 10000 21006 30168 40194 52006;",
"02458099999","2010-04-04T00:00:00","4","59.897328","17.588581","20.72","UPPSALA, SW","FM-12","ESCM ","V020","310,1,N,0010,1","99999,9,9,N","025000,1,N,1","-0014,1","-0015,1","10195,1",,,,,,,,,"99999,9,10169,1","2,1,001,1,+999,9","SYN060AAXX  04001 02458 45975 /3101 11014 21015 30169 40195 52001;",
"02458099999","2010-04-04T03:00:00","4","59.897328","17.588581","20.72","UPPSALA, SW","FM-12","ESCM ","V020","310,1,N,0010,1","99999,9,9,N","035000,1,N,1","-0026,1","-0026,1","10198,1",,,,,,,,,"99999,9,10171,1","2,1,002,1,+999,9","SYN060AAXX  04031 02458 45981 /3101 11026 21026 30171 40198 52002;",
"02458099999","2010-04-04T06:00:00","4","59.897328","17.588581","20.72","UPPSALA, SW","FM-12","ESCM ","V020","340,1,N,0030,1","99999,9,9,N","011000,1,N,1","-0021,1","-0022,1","10199,1",,,,,"01,1,+07200,1,99,9",,"120,M,+0031,1","999,N,-0028,1","99999,9,10173,1","2,1,002,1,+999,9","SYN082AAXX  04061 02458 35961 /3403 11021 21022 30173 40199 52002 333 10031 21028 81/74;",
"02458099999","2010-04-04T09:00:00","4","59.897328","17.588581","20.72","UPPSALA, SW","FM-12","ESCM ","V020","330,1,N,0030,1","99999,9,9,N","030000,1,N,1","+0003,1","+0000,1","10200,1",,,,,,,,,"99999,9,10174,1","4,1,000,1,+999,9","SYN060AAXX  04091 02458 45980 /3303 10003 20000 30174 40200 54001;",
"02458099999","2010-04-04T12:00:00","4","59.897328","17.588581","20.72","UPPSALA, SW","FM-12","ESCM ","V020","340,1,N,0040,1","99999,9,9,N","050000,1,N,1","+0036,1","+0020,1","10196,1",,,,,"01,1,+03900,1,99,9",,,,"99999,9,10170,1","7,1,003,1,+999,9","SYN070AAXX  04121 02458 45984 /3404 10036 20020 30170 40196 57003 333 81/63;",
"02458099999","2010-04-04T15:00:00","4","59.897328","17.588581","20.72","UPPSALA, SW","FM-12","ESCM ","V020","330,1,N,0040,1","99999,9,9,N","045000,1,N,1","+0041,1","+0015,1","10191,1",,,,,,,,,"99999,9,10165,1","7,1,005,1,+999,9","SYN060AAXX  04151 02458 45983 /3304 10041 20015 30165 40191 57005;",
"02458099999","2010-04-04T18:00:00","4","59.897328","17.588581","20.72","UPPSALA, SW","FM-12","ESCM ","V020","020,1,N,0020,1","99999,9,9,N","045000,1,N,1","+0004,1","-0001,1","10190,1",,,,,,,"120,M,+0045,1","999,N,-0024,1","99999,9,10164,1","5,1,000,1,+999,9","SYN076AAXX  04181 02458 35983 /0202 10004 21001 30164 40190 55000 333 10045 21024;",
"02458099999","2010-04-04T21:00:00","4","59.897328","17.588581","20.72","UPPSALA, SW","FM-12","ESCM ","V020","020,1,N,0030,1","00030,1,C,N","000300,1,N,1","-0014,1","-0014,1","10196,1",,,"34,1","4,1,03,1","09,1,+00030,1,99,9",,,,"99999,9,10170,1","0,1,005,1,+999,9","SYN076AAXX  04211 02458 47/03 /0203 11014 21014 30170 40196 50005 73431 333 89/01;",
"02458099999","2010-04-05T00:00:00","4","59.897328","17.588581","20.72","UPPSALA, SW","FM-12","ESCM ","V020","360,1,N,0020,1","00150,1,C,N","018000,1,N,1","-0014,1","-0014,1","10195,1",,,"20,1","4,1,06,1","09,1,+00150,1,99,9",,,,"99999,9,10169,1","0,1,001,1,+999,9","SYN076AAXX  05001 02458 47/68 /3602 11014 21014 30169 40195 50001 72032 333 89/05;",
"02458099999","2010-04-05T03:00:00","4","59.897328","17.588581","20.72","UPPSALA, SW","FM-12","ESCM ","V020","010,1,N,0020,1","00150,1,C,N","012000,1,N,1","-0012,1","-0012,1","10194,1",,,,,"09,1,+00150,1,99,9",,,,"99999,9,10168,1","8,1,001,1,+999,9","SYN070AAXX  05031 02458 45/62 /0102 11012 21012 30168 40194 58001 333 89/05;",
"02458099999","2010-04-05T06:00:00","4","59.897328","17.588581","20.72","UPPSALA, SW","FM-12","ESCM ","V020","360,1,N,0010,1","00150,1,C,N","050000,1,N,1","-0008,1","-0008,1","10196,1",,,,,"08,1,+00150,1,99,9",,"120,M,+0005,1","999,N,-0015,1","99999,9,10169,1","3,1,001,1,+999,9","SYN082AAXX  05061 02458 35284 /3601 11008 21008 30169 40196 53001 333 10005 21015 88/05;",
"02458099999","2010-04-05T09:00:00","4","59.897328","17.588581","20.72","UPPSALA, SW","FM-12","ESCM ","V020","340,1,N,0020,1","99999,9,9,N","001700,1,N,1","-0004,1","-0004,1","10199,1",,,"71,1","7,1,03,1","04,1,+00150,1,99,9",,,,"99999,9,10173,1","2,1,004,1,+999,9","SYN076AAXX  05091 02458 47217 /3402 11004 21004 30173 40199 52004 77174 333 84/05;",
"02458099999","2010-04-05T12:00:00","4","59.897328","17.588581","20.72","UPPSALA, SW","FM-12","ESCM ","V020","350,1,N,0030,1","00240,1,C,N","016000,1,N,1","+0019,1","+0016,1","10199,1",,,"71,1","7,1,06,1","08,1,+00240,1,99,9",,,,"99999,9,10173,1","4,1,000,1,+999,9","SYN076AAXX  05121 02458 47366 /3503 10019 20016 30173 40199 54000 77174 333 88/08;",
"02458099999","2010-04-05T15:00:00","4","59.897328","17.588581","20.72","UPPSALA, SW","FM-12","ESCM ","V020","330,1,N,0030,1","00270,1,C,N","045000,1,N,1","+0023,1","+0017,1","10203,1",,,"00,1","7,1,03,1","08,1,+00270,1,99,9",,,,"99999,9,10177,1","2,1,004,1,+999,9","SYN076AAXX  05151 02458 47383 /3303 10023 20017 30177 40203 52004 70076 333 88/09;",
"02458099999","2010-04-05T18:00:00","4","59.897328","17.588581","20.72","UPPSALA, SW","FM-12","ESCM ","V020","300,1,N,0020,1","99999,9,9,N","045000,1,N,1","+0013,1","+0008,1","10215,1","12,0010,9,1",,"00,1","7,1,06,1","01,1,+00270,1,99,9",,"120,M,+0025,1","999,N,-0008,1","99999,9,10189,1","2,1,013,1,+999,9","SYN100AAXX  05181 02458 17383 /3002 10013 20008 30189 40215 52013 60012 70075 333 10025 21008 81/09 88/12;",
"02458099999","2010-04-05T21:00:00","4","59.897328","17.588581","20.72","UPPSALA, SW","FM-12","ESCM ","V020","220,1,N,0010,1","00510,1,C,N","050000,1,N,1","+0011,1","+0004,1","10225,1",,,,,"08,1,+00510,1,99,9",,,,"99999,9,10198,1","1,1,010,1,+999,9","SYN070AAXX  05211 02458 45484 /2201 10011 20004 30198 40225 51010 333 88/17;",
"02458099999","2010-04-06T00:00:00","4","59.897328","17.588581","20.72","UPPSALA, SW","FM-12","ESCM ","V020","999,9,C,0000,1","99999,9,9,N","050000,1,N,1","+0000,1","-0002,1","10231,1",,,,,"04,1,+00600,1,99,9",,,,"99999,9,10205,1","2,1,007,1,+999,9","SYN076AAXX  06001 02458 45584 /0000 10000 21002 30205 40231 52007 333 84/20 85/25;",
"02458099999","2010-04-06T03:00:00","4","59.897328","17.588581","20.72","UPPSALA, SW","FM-12","ESCM ","V020","260,1,N,0010,1","99999,9,9,N","017000,1,N,1","-0009,1","-0009,1","10240,1",,,,,,,,,"99999,9,10213,1","2,1,008,1,+999,9","SYN060AAXX  06031 02458 45967 /2601 11009 21009 30213 40240 52008;",
"02458099999","2010-04-06T06:00:00","4","59.897328","17.588581","20.72","UPPSALA, SW","FM-12","ESCM ","V020","290,1,N,0010,1","00030,1,C,N","000200,1,N,1","-0016,1","-0016,1","10251,1","24,0013,9,1",,"34,1","4,1,06,1","09,1,+00030,1,99,9",,"120,M,+0014,1","999,N,-0018,1","99999,9,10224,1","2,1,011,1,+999,9","SYN094AAXX  06061 02458 37/02 /2901 11016 21016 30224 40251 52011 73432 333 10014 21018 70013 89/01;",
"02458099999","2010-04-06T09:00:00","4","59.897328","17.588581","20.72","UPPSALA, SW","FM-12","ESCM ","V020","110,1,N,0010,1","99999,9,9,N","013000,1,N,1","+0024,1","+0024,1","10254,1",,,"20,1","4,1,03,1","04,1,+00090,1,99,9",,,,"99999,9,10228,1","0,1,004,1,+999,9","SYN082AAXX  06091 02458 47263 /1101 10024 20024 30228 40254 50004 72032 333 84/03 85/75;",
"02458099999","2010-04-06T12:00:00","4","59.897328","17.588581","20.72","UPPSALA, SW","FM-12","ESCM ","V020","230,1,N,0040,1","99999,9,9,N","045000,1,N,1","+0083,1","+0012,1","10248,1",,,"00,1","4,1,06,1",,,,,"99999,9,10222,1","7,1,006,1,+999,9","SYN066AAXX  06121 02458 47983 /2304 10083 20012 30222 40248 57006 70032;",
"02458099999","2010-04-06T15:00:00","4","59.897328","17.588581","20.72","UPPSALA, SW","FM-12","ESCM ","V020","240,1,N,0040,1","01500,1,C,N","050000,1,N,1","+0069,1","+0027,1","10250,1",,,,,"08,1,+01500,1,99,9",,,,"99999,9,10224,1","2,1,002,1,+999,9","SYN070AAXX  06151 02458 45784 /2404 10069 20027 30224 40250 52002 333 88/50;",
"02458099999","2010-04-06T18:00:00","4","59.897328","17.588581","20.72","UPPSALA, SW","FM-12","ESCM ","V020","210,1,N,0020,1","01500,1,C,N","050000,1,N,1","+0044,1","+0021,1","10255,1",,,,,"05,1,+01500,1,99,9",,"120,M,+0094,1","999,N,-0016,1","99999,9,10229,1","2,1,005,1,+999,9","SYN082AAXX  06181 02458 35784 /2102 10044 20021 30229 40255 52005 333 10094 21016 85/50;",
"02458099999","2010-04-06T21:00:00","4","59.897328","17.588581","20.72","UPPSALA, SW","FM-12","ESCM ","V020","170,1,N,0010,1","02100,1,C,N","035000,1,N,1","+0011,1","+0010,1","10259,1",,,,,"05,1,+02100,1,99,9",,,,"99999,9,10232,1","2,1,004,1,+999,9","SYN070AAXX  06211 02458 45881 /1701 10011 20010 30232 40259 52004 333 85/57;",
"02458099999","2010-04-07T00:00:00","4","59.897328","17.588581","20.72","UPPSALA, SW","FM-12","ESCM ","V020","160,1,N,0010,1","01140,1,C,N","019000,1,N,1","+0022,1","+0020,1","10261,1",,,,,"08,1,+01140,1,99,9",,,,"99999,9,10235,1","2,1,003,1,+999,9","SYN070AAXX  07001 02458 45669 /1601 10022 20020 30235 40261 52003 333 88/38;",
"02458099999","2010-04-07T03:00:00","4","59.897328","17.588581","20.72","UPPSALA, SW","FM-12","ESCM ","V020","140,1,N,0020,1","99999,9,9,N","009000,1,N,1","+0018,1","+0018,1","10258,1",,,"22,1","8,1,03,1","02,1,+01800,1,99,9",,,,"99999,9,10231,1","7,1,004,1,+999,9","SYN082AAXX  07031 02458 47759 /1402 10018 20018 30231 40258 57004 72285 333 82/56 83/57;",
"02458099999","2010-04-07T06:00:00","4","59.897328","17.588581","20.72","UPPSALA, SW","FM-12","ESCM ","V020","160,1,N,0020,1","99999,9,9,N","013000,1,N,1","+0030,1","+0027,1","10259,1","12,0000,2,1","24,0000,2,1","00,1","8,1,06,1","01,1,+00600,1,99,9",,"120,M,+0044,1","999,N,+0004,1","99999,9,10233,1","2,1,001,1,+999,9","SYN106AAXX  07061 02458 17563 /1602 10030 20027 30233 40259 52001 69912 70085 333 10044 20004 70001 81/20 88/27;",
"02458099999","2010-04-07T09:00:00","4","59.897328","17.588581","20.72","UPPSALA, SW","FM-12","ESCM ","V020","190,1,N,0020,1","00210,1,C,N","012000,1,N,1","+0047,1","+0043,1","10260,1",,,,,"08,1,+00210,1,99,9",,,,"99999,9,10234,1","2,1,001,1,+999,9","SYN070AAXX  07091 02458 45362 /1902 10047 20043 30234 40260 52001 333 88/07;",
"02458099999","2010-04-07T12:00:00","4","59.897328","17.588581","20.72","UPPSALA, SW","FM-12","ESCM ","V020","220,1,N,0030,1","00390,1,C,N","018000,1,N,1","+0076,1","+0060,1","10256,1",,,,,"07,1,+00390,1,99,9",,,,"99999,9,10230,1","7,1,004,1,+999,9","SYN076AAXX  07121 02458 45468 /2203 10076 20060 30230 40256 57004 333 87/13 88/56;",
"02458099999","2010-04-07T15:00:00","4","59.897328","17.588581","20.72","UPPSALA, SW","FM-12","ESCM ","V020","210,1,N,0030,1","01800,1,C,N","017000,1,N,1","+0096,1","+0071,1","10246,1",,,,,"01,1,+00600,1,99,9","07,1,+01800,1,99,9",,,"99999,9,10221,1","7,1,010,1,+999,9","SYN082AAXX  07151 02458 45567 /2103 10096 20071 30221 40246 57010 333 81/20 87/56 88/63;",
"02458099999","2010-04-07T18:00:00","4","59.897328","17.588581","20.72","UPPSALA, SW","FM-12","ESCM ","V020","180,1,N,0020,1","01500,1,C,N","019000,1,N,1","+0081,1","+0064,1","10246,1",,,,,"08,1,+01500,1,99,9",,"120,M,+0104,1","999,N,+0029,1","99999,9,10221,1","5,1,000,1,+999,9","SYN082AAXX  07181 02458 35769 /1802 10081 20064 30221 40246 55000 333 10104 20029 88/50;",
"02458099999","2010-04-07T21:00:00","4","59.897328","17.588581","20.72","UPPSALA, SW","FM-12","ESCM ","V020","210,1,N,0030,1","01800,1,C,N","026000,1,N,1","+0069,1","+0059,1","10249,1",,,,,"08,1,+01800,1,99,9",,,,"99999,9,10223,1","2,1,003,1,+999,9","SYN070AAXX  07211 02458 45776 /2103 10069 20059 30223 40249 52003 333 88/56;",
"02458099999","2010-04-08T00:00:00","4","59.897328","17.588581","20.72","UPPSALA, SW","FM-12","ESCM ","V020","210,1,N,0030,1","01800,1,C,N","028000,1,N,1","+0065,1","+0055,1","10244,1",,,,,"08,1,+01800,1,99,9",,,,"99999,9,10218,1","7,1,005,1,+999,9","SYN070AAXX  08001 02458 45778 /2103 10065 20055 30218 40244 57005 333 88/56;",
"02458099999","2010-04-08T03:00:00","4","59.897328","17.588581","20.72","UPPSALA, SW","FM-12","ESCM ","V020","170,1,N,0020,1","01800,1,C,N","040000,1,N,1","+0052,1","+0038,1","10243,1",,,,,"08,1,+01800,1,99,9",,,,"99999,9,10217,1","4,1,000,1,+999,9","SYN070AAXX  08031 02458 45782 /1702 10052 20038 30217 40243 54001 333 88/56;",
"02458099999","2010-04-08T06:00:00","4","59.897328","17.588581","20.72","UPPSALA, SW","FM-12","ESCM ","V020","160,1,N,0020,1","01800,1,C,N","040000,1,N,1","+0056,1","+0038,1","10243,1",,,,,"08,1,+01800,1,99,9",,"120,M,+0082,1","999,N,+0047,1","99999,9,10218,1","4,1,000,1,+999,9","SYN082AAXX  08061 02458 35782 /1602 10056 20038 30218 40243 54000 333 10082 20047 88/56;",
"02458099999","2010-04-08T09:00:00","4","59.897328","17.588581","20.72","UPPSALA, SW","FM-12","ESCM ","V020","200,1,N,0040,1","99999,9,9,N","999999,9,N,1","+0093,1","+0044,1","10240,1",,,,,,,,,"99999,9,10215,1","7,1,003,1,+999,9","SYN060AAXX  08091 02458 469// /2004 10093 20044 30215 40240 57003;",
"02458099999","2010-04-08T12:00:00","4","59.897328","17.588581","20.72","UPPSALA, SW","FM-12","ESCM ","V020","190,1,N,0050,1","99999,9,9,N","050000,1,N,1","+0103,1","+0034,1","10226,1",,,,,"04,1,+04500,1,99,9",,,,"99999,9,10201,1","8,1,014,1,+999,9","SYN070AAXX  08121 02458 45984 /1905 10103 20034 30201 40226 58014 333 84/65;",
"02458099999","2010-04-08T15:00:00","4","59.897328","17.588581","20.72","UPPSALA, SW","FM-12","ESCM ","V020","190,1,N,0040,1","99999,9,9,N","040000,1,N,1","+0091,1","+0041,1","10215,1",,,,,"01,1,+01290,1,99,9",,,,"99999,9,10189,1","5,1,011,1,+999,9","SYN070AAXX  08151 02458 45682 /1904 10091 20041 30189 40215 55011 333 81/43;",
"02458099999","2010-04-08T18:00:00","4","59.897328","17.588581","20.72","UPPSALA, SW","FM-12","ESCM ","V020","160,1,N,0030,1","00930,1,C,N","023000,1,N,1","+0058,1","+0050,1","10209,1","12,0005,9,1",,"61,1","6,1,06,1","07,1,+00930,1,99,9",,"120,M,+0110,1","999,N,+0056,1","99999,9,10184,1","8,1,006,1,+999,9","SYN094AAXX  08181 02458 17573 /1603 10058 20050 30184 40209 58006 69952 76165 333 10110 20056 87/31;",
"02458099999","2010-04-08T21:00:00","4","59.897328","17.588581","20.72","UPPSALA, SW","FM-12","ESCM ","V020","160,1,N,0030,1","00810,1,C,N","006000,1,N,1","+0044,1","+0044,1","10197,1",,,"51,1","6,1,03,1","08,1,+00810,1,99,9",,,,"99999,9,10172,1","8,1,012,1,+999,9","SYN076AAXX  08211 02458 47556 /1603 10044 20044 30172 40197 58012 75165 333 88/27;",
"02458099999","2010-04-09T00:00:00","4","59.897328","17.588581","20.72","UPPSALA, SW","FM-12","ESCM ","V020","170,1,N,0020,1","99999,9,9,N","004100,1,N,1","+0046,1","+0046,1","10184,1",,,"52,1","6,1,06,1","04,1,+00180,1,99,9",,,,"99999,9,10158,1","7,1,014,1,+999,9","SYN082AAXX  09001 02458 47341 /1702 10046 20046 30158 40184 57014 75265 333 84/06 85/45;",
"02458099999","2010-04-09T03:00:00","4","59.897328","17.588581","20.72","UPPSALA, SW","FM-12","ESCM ","V020","180,1,N,0020,1","00210,1,C,N","002400,1,N,1","+0042,1","+0042,1","10175,1",,,"52,1","6,1,03,1","09,1,+00210,1,99,9",,,,"99999,9,10149,1","7,1,009,1,+999,9","SYN076AAXX  09031 02458 47/24 /1802 10042 20042 30149 40175 57009 75265 333 89/07;",
"02458099999","2010-04-09T06:00:00","4","59.897328","17.588581","20.72","UPPSALA, SW","FM-12","ESCM ","V020","190,1,N,0020,1","00030,1,C,N","000500,1,N,1","+0038,1","+0038,1","10173,1","12,0030,9,1","24,0030,9,1","34,1","6,1,06,1","09,1,+00030,1,99,9",,"120,M,+0058,1","999,N,+0036,1","99999,9,10147,1","5,1,002,1,+999,9","SYN100AAXX  09061 02458 17/05 /1902 10038 20038 30147 40173 55002 60032 73465 333 10058 20036 70030 89/01;",
"02458099999","2010-04-09T09:00:00","4","59.897328","17.588581","20.72","UPPSALA, SW","FM-12","ESCM ","V020","300,1,N,0030,1","00120,1,C,N","003900,1,N,1","+0050,1","+0050,1","10178,1",,,"20,1","4,1,03,1","09,1,+00120,1,99,9",,,,"99999,9,10153,1","2,1,005,1,+999,9","SYN076AAXX  09091 02458 47/39 /3003 10050 20050 30153 40178 52005 72032 333 89/04;",
"02458099999","2010-04-09T12:00:00","4","59.897328","17.588581","20.72","UPPSALA, SW","FM-12","ESCM ","V020","320,1,N,0030,1","99999,9,9,N","045000,1,N,1","+0058,1","+0054,1","10185,1",,,"00,1","4,1,06,1","04,1,+00240,1,99,9",,,,"99999,9,10160,1","2,1,007,1,+999,9","SYN082AAXX  09121 02458 47383 /3203 10058 20054 30160 40185 52007 70032 333 84/08 88/12;",
"02458099999","2010-04-09T15:00:00","4","59.897328","17.588581","20.72","UPPSALA, SW","FM-12","ESCM ","V020","350,1,N,0040,1","00300,1,C,N","011000,1,N,1","+0053,1","+0050,1","10200,1",,,"61,1","6,1,03,1","02,1,+00240,1,99,9","04,1,+00300,1,99,9",,,"99999,9,10174,1","2,1,014,1,+999,9","SYN088AAXX  09151 02458 47361 /3504 10053 20050 30174 40200 52014 76165 333 82/08 84/10 86/14;",
"02458099999","2010-04-09T18:00:00","4","59.897328","17.588581","20.72","UPPSALA, SW","FM-12","ESCM ","V020","340,1,N,0040,1","99999,9,9,N","050000,1,N,1","+0046,1","+0042,1","10213,1","12,0030,9,1",,"00,1","6,1,06,1","04,1,+00720,1,99,9",,"120,M,+0063,1","999,N,+0038,1","99999,9,10187,1","2,1,013,1,+999,9","SYN100AAXX  09181 02458 17584 /3404 10046 20042 30187 40213 52013 60032 70065 333 10063 20038 84/24 88/39;",
"02458099999","2010-04-09T21:00:00","4","59.897328","17.588581","20.72","UPPSALA, SW","FM-12","ESCM ","V020","330,1,N,0040,1","00270,1,C,N","040000,1,N,1","+0036,1","+0035,1","10225,1",,,"52,1","5,1,03,1","05,1,+00270,1,99,9",,,,"99999,9,10199,1","2,1,012,1,+999,9","SYN082AAXX  09211 02458 47382 /3304 10036 20035 30199 40225 52012 75254 333 85/09 88/11;",
"02458099999","2010-04-10T00:00:00","4","59.897328","17.588581","20.72","UPPSALA, SW","FM-12","ESCM ","V020","350,1,N,0070,1","00240,1,C,N","010000,1,N,1","+0033,1","+0030,1","10230,1",,,"22,1","8,1,06,1","08,1,+00240,1,99,9",,,,"99999,9,10204,1","2,1,005,1,+999,9","SYN076AAXX  10001 02458 47360 /3507 10033 20030 30204 40230 52005 72285 333 88/08;",
"02458099999","2010-04-10T03:00:00","4","59.897328","17.588581","20.72","UPPSALA, SW","FM-12","ESCM ","V020","360,1,N,0050,1","00210,1,C,N","013000,1,N,1","+0014,1","+0012,1","10247,1",,,"67,1","8,1,03,1","08,1,+00210,1,99,9",,,,"99999,9,10220,1","3,1,016,1,+999,9","SYN076AAXX  10031 02458 47363 /3605 10014 20012 30220 40247 53016 76786 333 88/07;",
"02458099999","2010-04-10T06:00:00","4","59.897328","17.588581","20.72","UPPSALA, SW","FM-12","ESCM ","V020","350,1,N,0060,1","00180,1,C,N","018000,1,N,1","+0020,1","+0019,1","10266,1","12,0008,9,1","24,0033,9,1","61,1","8,1,06,1","08,1,+00180,1,99,9",,"120,M,+0046,1","999,N,+0011,1","99999,9,10240,1","2,1,020,1,+999,9","SYN100AAXX  10061 02458 17268 /3506 10020 20019 30240 40266 52020 69982 76187 333 10046 20011 70034 88/06;",
"02458099999","2010-04-10T09:00:00","4","59.897328","17.588581","20.72","UPPSALA, SW","FM-12","ESCM ","V020","350,1,N,0060,1","00150,1,C,N","011000,1,N,1","+0021,1","+0021,1","10289,1",,,"23,1","8,1,03,1","08,1,+00150,1,99,9",,,,"99999,9,10263,1","2,1,023,1,+999,9","SYN076AAXX  10091 02458 47261 /3506 10021 20021 30263 40289 52023 72386 333 88/05;",
"02458099999","2010-04-10T12:00:00","4","59.897328","17.588581","20.72","UPPSALA, SW","FM-12","ESCM ","V020","350,1,N,0060,1","00150,1,C,N","016000,1,N,1","+0024,1","+0023,1","10311,1",,,"00,1","8,1,06,1","08,1,+00150,1,99,9",,,,"99999,9,10285,1","2,1,022,1,+999,9","SYN076AAXX  10121 02458 47266 /3506 10024 20023 30285 40311 52022 70086 333 88/05;",
"02458099999","2010-04-10T15:00:00","4","59.897328","17.588581","20.72","UPPSALA, SW","FM-12","ESCM ","V020","010,1,N,0060,1","00270,1,C,N","050000,1,N,1","+0032,1","+0027,1","10324,1",,,,,"07,1,+00270,1,99,9",,,,"99999,9,10298,1","2,1,013,1,+999,9","SYN076AAXX  10151 02458 45384 /0106 10032 20027 30298 40324 52013 333 87/09 88/11;",
"02458099999","2010-04-10T18:00:00","4","59.897328","17.588581","20.72","UPPSALA, SW","FM-12","ESCM ","V020","020,1,N,0050,1","00270,1,C,N","050000,1,N,1","+0027,1","+0022,1","10338,1","12,0005,9,1",,,,"08,1,+00270,1,99,9",,"120,M,+0033,1","999,N,+0020,1","99999,9,10311,1","3,1,014,1,+999,9","SYN088AAXX  10180 02458 15384 /0205 10027 20022 30311 40338 53014 69942 333 10033 20020 88/09;",
"02458099999","2010-04-10T21:00:00","4","59.897328","17.588581","20.72","UPPSALA, SW","FM-12","ESCM ","V020","340,1,N,0030,1","99999,9,9,N","050000,1,N,1","+0003,1","+0003,1","10345,1",,,,,,,,,"99999,9,10318,1","2,1,007,1,+999,9","SYN060AAXX  10211 02458 45984 /3403 10003 20003 30318 40345 52007;",
"02458099999","2010-04-11T00:00:00","4","59.897328","17.588581","20.72","UPPSALA, SW","FM-12","ESCM ","V020","360,1,N,0040,1","00150,1,C,N","035000,1,N,1","+0008,1","+0008,1","10350,1",,,,,"08,1,+00150,1,99,9",,,,"99999,9,10324,1","3,1,006,1,+999,9","SYN070AAXX  11001 02458 45281 /3604 10008 20008 30324 40350 53006 333 88/05;",
"02458099999","2010-04-11T03:00:00","4","59.897328","17.588581","20.72","UPPSALA, SW","FM-12","ESCM ","V020","010,1,N,0030,1","00120,1,C,N","021000,1,N,1","+0008,1","+0008,1","10356,1",,,,,"09,1,+00120,1,99,9",,,,"99999,9,10329,1","2,1,005,1,+999,9","SYN070AAXX  11031 02458 45/71 /0103 10008 20008 30329 40356 52005 333 89/04;",
"02458099999","2010-04-11T06:00:00","4","59.897328","17.588581","20.72","UPPSALA, SW","FM-12","ESCM ","V020","010,1,N,0040,1","00180,1,C,N","050000,1,N,1","+0015,1","+0013,1","10363,1","24,0005,9,1",,,,"08,1,+00180,1,99,9",,"120,M,+0027,1","999,N,+0000,1","99999,9,10336,1","1,1,007,1,+999,9","SYN088AAXX  11061 02458 35284 /0104 10015 20013 30336 40363 51007 333 10027 20000 70004 88/06;",
"02458099999","2010-04-11T09:00:00","4","59.897328","17.588581","20.72","UPPSALA, SW","FM-12","ESCM ","V020","010,1,N,0040,1","99999,9,9,N","045000,1,N,1","+0049,1","+0038,1","10363,1",,,,,"03,1,+00360,1,99,9",,,,"99999,9,10337,1","4,1,000,1,+999,9","SYN076AAXX  11091 02458 45483 /0104 10049 20038 30337 40363 54000 333 83/12 85/17;",
"02458099999","2010-04-11T12:00:00","4","59.897328","17.588581","20.72","UPPSALA, SW","FM-12","ESCM ","V020","360,1,N,0040,1","00810,1,C,N","050000,1,N,1","+0079,1","+0041,1","10359,1",,,,,"06,1,+00810,1,99,9",,,,"99999,9,10333,1","7,1,004,1,+999,9","SYN070AAXX  11121 02458 45584 /3604 10079 20041 30333 40359 57004 333 86/27;",
"02458099999","2010-04-11T15:00:00","4","59.897328","17.588581","20.72","UPPSALA, SW","FM-12","ESCM ","V020","020,1,N,0040,1","99999,9,9,N","050000,1,N,1","+0086,1","+0045,1","10348,1",,,,,,,,,"99999,9,10322,1","8,1,011,1,+999,9","SYN060AAXX  11151 02458 45984 /0204 10086 20045 30322 40348 58011;",
"02458099999","2010-04-11T18:00:00","4","59.897328","17.588581","20.72","UPPSALA, SW","FM-12","ESCM ","V020","350,1,N,0040,1","99999,9,9,N","050000,1,N,1","+0045,1","+0021,1","10346,1",,,,,,,"120,M,+0092,1","999,N,+0015,1","99999,9,10320,1","7,1,002,1,+999,9","SYN076AAXX  11181 02458 35984 /3504 10045 20021 30320 40346 57002 333 10092 20015;",
"02458099999","2010-04-11T21:00:00","4","59.897328","17.588581","20.72","UPPSALA, SW","FM-12","ESCM ","V020","030,1,N,0030,1","00090,1,C,N","002600,1,N,1","+0005,1","+0005,1","10346,1",,,"10,1","2,1,03,1","09,1,+00090,1,99,9",,,,"99999,9,10320,1","0,1,000,1,+999,9","SYN076AAXX  11211 02458 47/26 /0303 10005 20005 30320 40346 50000 71010 333 89/03;",
"02458099999","2010-04-12T00:00:00","4","59.897328","17.588581","20.72","UPPSALA, SW","FM-12","ESCM ","V020","340,1,N,0040,1","00060,1,C,N","001100,1,N,1","+0002,1","+0002,1","10337,1",,,"20,1","4,1,06,1","09,1,+00060,1,99,9",,,,"99999,9,10310,1","7,1,010,1,+999,9","SYN076AAXX  12001 02458 47/11 /3404 10002 20002 30310 40337 57010 72032 333 89/02;",
"02458099999","2010-04-12T03:00:00","4","59.897328","17.588581","20.72","UPPSALA, SW","FM-12","ESCM ","V020","340,1,N,0020,1","00060,1,C,N","001100,1,N,1","-0005,1","-0005,1","10324,1",,,"32,1","4,1,03,1","09,1,+00060,1,99,9",,,,"99999,9,10297,1","8,1,013,1,+999,9","SYN076AAXX  12031 02458 47/11 /3402 11005 21005 30297 40324 58013 73232 333 89/02;",
"02458099999","2010-04-12T06:00:00","4","59.897328","17.588581","20.72","UPPSALA, SW","FM-12","ESCM ","V020","330,1,N,0020,1","99999,9,9,N","019000,1,N,1","+0006,1","+0006,1","10317,1",,,"00,1","4,1,06,1",,,"120,M,+0045,1","999,N,-0015,1","99999,9,10290,1","7,1,007,1,+999,9","SYN082AAXX  12061 02458 37969 /3302 10006 20006 30290 40317 57007 70032 333 10045 21015;",
"02458099999","2010-04-12T09:00:00","4","59.897328","17.588581","20.72","UPPSALA, SW","FM-12","ESCM ","V020","330,1,N,0020,1","99999,9,9,N","045000,1,N,1","+0077,1","+0048,1","10301,1",,,,,,,,,"99999,9,10275,1","8,1,016,1,+999,9","SYN060AAXX  12091 02458 45983 /3302 10077 20048 30275 40301 58016;",
"02458099999","2010-04-12T12:00:00","4","59.897328","17.588581","20.72","UPPSALA, SW","FM-12","ESCM ","V020","300,1,N,0010,1","99999,9,9,N","030000,1,N,1","+0127,1","+0058,1","10278,1",,,,,,,,,"99999,9,10253,1","7,1,022,1,+999,9","SYN060AAXX  12121 02458 45980 /3001 10127 20058 30253 40278 57022;",
"02458099999","2010-04-12T15:00:00","4","59.897328","17.588581","20.72","UPPSALA, SW","FM-12","ESCM ","V020","999,9,C,0000,1","99999,9,9,N","035000,1,N,1","+0132,1","+0045,1","10251,1",,,,,,,,,"99999,9,10226,1","7,1,027,1,+999,9","SYN060AAXX  12151 02458 45981 /0000 10132 20045 30226 40251 57027;",
"02458099999","2010-04-12T18:00:00","4","59.897328","17.588581","20.72","UPPSALA, SW","FM-12","ESCM ","V020","240,1,N,0020,1","99999,9,9,N","050000,1,N,1","+0091,1","+0049,1","10235,1",,,,,,,"120,M,+0137,1","999,N,+0006,1","99999,9,10210,1","6,1,015,1,+999,9","SYN076AAXX  12181 02458 35984 /2402 10091 20049 30210 40235 56015 333 10137 20006;",
"02458099999","2010-04-12T21:00:00","4","59.897328","17.588581","20.72","UPPSALA, SW","FM-12","ESCM ","V020","140,1,N,0020,1","99999,9,9,N","022000,1,N,1","+0034,1","+0019,1","10226,1",,,,,,,,,"99999,9,10200,1","7,1,010,1,+999,9","SYN060AAXX  12211 02458 45972 /1402 10034 20019 30200 40226 57010;",
"02458099999","2010-04-13T00:00:00","4","59.897328","17.588581","20.72","UPPSALA, SW","FM-12","ESCM ","V020","190,1,N,0010,1","99999,9,9,N","017000,1,N,1","+0021,1","+0013,1","10210,1",,,,,,,,,"99999,9,10184,1","7,1,016,1,+999,9","SYN060AAXX  13001 02458 45967 /1901 10021 20013 30184 40210 57016;",
"02458099999","2010-04-13T03:00:00","4","59.897328","17.588581","20.72","UPPSALA, SW","FM-12","ESCM ","V020","360,1,N,0030,1","03300,1,C,N","050000,1,N,1","+0049,1","+0024,1","10210,1",,,,,"08,1,+03300,1,99,9",,,,"99999,9,10184,1","5,1,000,1,+999,9","SYN070AAXX  13031 02458 45984 /3603 10049 20024 30184 40210 55000 333 88/61;",
"02458099999","2010-04-13T06:00:00","4","59.897328","17.588581","20.72","UPPSALA, SW","FM-12","ESCM ","V020","360,1,N,0050,1","02400,1,C,N","045000,1,N,1","+0052,1","+0019,1","10219,1",,,,,"06,1,+02400,1,99,9",,"120,M,+0091,1","999,N,+0002,1","99999,9,10193,1","3,1,009,1,+999,9","SYN082AAXX  13061 02458 35883 /3605 10052 20019 30193 40219 53009 333 10091 20002 86/58;",
"02458099999","2010-04-13T09:00:00","4","59.897328","17.588581","20.72","UPPSALA, SW","FM-12","ESCM ","V020","360,1,N,0060,1","99999,9,9,N","040000,1,N,1","+0084,1","+0030,1","10222,1",,,,,,,,,"99999,9,10196,1","2,1,003,1,+999,9","SYN060AAXX  13091 02458 45982 /3606 10084 20030 30196 40222 52003;",
"02458099999","2010-04-13T12:00:00","4","59.897328","17.588581","20.72","UPPSALA, SW","FM-12","ESCM ","V020","360,1,N,0060,1","99999,9,9,N","045000,1,N,1","+0101,1","+0027,1","10227,1",,,,,,,,,"99999,9,10202,1",,"SYN054AAXX  13121 02458 45983 /3606 10101 20027 30202 40227;",
"02458099999","2010-04-13T15:00:00","4","59.897328","17.588581","20.72","UPPSALA, SW","FM-12","ESCM ","V020","360,1,N,0050,1","99999,9,9,N","050000,1,N,1","+0101,1","+0017,1","10225,1",,,,,,,,,"99999,9,10199,1",,"SYN054AAXX  13151 02458 45984 /3605 10101 20017 30199 40225;",
"02458099999","2010-04-13T18:00:00","4","59.897328","17.588581","20.72","UPPSALA, SW","FM-12","ESCM ","V020","020,1,N,0010,1","99999,9,9,N","050000,1,N,1","+0062,1","+0028,1","10232,1",,,,,,,,,"99999,9,10206,1","3,1,007,1,+999,9","SYN060AAXX  13181 02458 35984 /0201 10062 20028 30206 40232 53007;",
"02458099999","2010-04-13T21:00:00","4","59.897328","17.588581","20.72","UPPSALA, SW","FM-12","ESCM ","V020","300,1,N,0020,1","99999,9,9,N","050000,1,N,1","+0019,1","+0003,1","10238,1",,,,,,,,,"99999,9,10212,1","2,1,006,1,+999,9","SYN060AAXX  13211 02458 45984 /3002 10019 20003 30212 40238 52006;",
"02458099999","2010-04-14T00:00:00","4","59.897328","17.588581","20.72","UPPSALA, SW","FM-12","ESCM ","V020","300,1,N,0010,1","99999,9,9,N","050000,1,N,1","+0012,1","-0004,1","10242,1",,,,,,,,,"99999,9,10216,1","3,1,004,1,+999,9","SYN060AAXX  14001 02458 45984 /3001 10012 21004 30216 40242 53004;",
"02458099999","2010-04-14T03:00:00","4","59.897328","17.588581","20.72","UPPSALA, SW","FM-12","ESCM ","V020","310,1,N,0020,1","01500,1,C,N","050000,1,N,1","+0016,1","-0003,1","10245,1",,,,,"07,1,+01500,1,99,9",,,,"99999,9,10219,1","2,1,002,1,+999,9","SYN070AAXX  14031 02458 45784 /3102 10016 21003 30219 40245 52002 333 87/50;",
"02458099999","2010-04-14T06:00:00","4","59.897328","17.588581","20.72","UPPSALA, SW","FM-12","ESCM ","V020","340,1,N,0050,1","99999,9,9,N","050000,1,N,1","+0033,1","+0005,1","10244,1",,,,,,,"120,M,+0066,1","999,N,+0003,1","99999,9,10218,1","4,1,000,1,+999,9","SYN076AAXX  14061 02458 35984 /3405 10033 20005 30218 40244 54000 333 10066 20003;",
"02458099999","2010-04-14T09:00:00","4","59.897328","17.588581","20.72","UPPSALA, SW","FM-12","ESCM ","V020","350,1,N,0020,1","99999,9,9,N","045000,1,N,1","+0070,1","+0007,1","10242,1",,,,,,,,,"99999,9,10217,1","8,1,002,1,+999,9","SYN060AAXX  14091 02458 45983 /3502 10070 20007 30217 40242 58002;",
"02458099999","2010-04-14T12:00:00","4","59.897328","17.588581","20.72","UPPSALA, SW","FM-12","ESCM ","V020","350,1,N,0040,1","99999,9,9,N","040000,1,N,1","+0094,1","+0002,1","10235,1",,,,,,,,,"99999,9,10209,1","7,1,008,1,+999,9","SYN060AAXX  14121 02458 45982 /3504 10094 20002 30209 40235 57008;",
"02458099999","2010-04-14T15:00:00","4","59.897328","17.588581","20.72","UPPSALA, SW","FM-12","ESCM ","V020","010,1,N,0030,1","99999,9,9,N","045000,1,N,1","+0103,1","+0009,1","10220,1",,,,,,,,,"99999,9,10195,1","7,1,014,1,+999,9","SYN060AAXX  14151 02458 45983 /0103 10103 20009 30195 40220 57014;",
"02458099999","2010-04-14T18:00:00","4","59.897328","17.588581","20.72","UPPSALA, SW","FM-12","ESCM ","V020","999,9,C,0000,1","05100,1,C,N","050000,1,N,1","+0085,1","+0013,1","10214,1",,,,,"08,1,+05100,1,99,9",,"120,M,+0112,1","999,N,+0032,1","99999,9,10189,1","5,1,006,1,+999,9","SYN082AAXX  14181 02458 35984 /0000 10085 20013 30189 40214 55006 333 10112 20032 88/67;",
"02458099999","2010-04-14T21:00:00","4","59.897328","17.588581","20.72","UPPSALA, SW","FM-12","ESCM ","V020","160,1,N,0010,1","99999,9,9,N","050000,1,N,1","+0061,1","+0017,1","10208,1",,,,,,,,,"99999,9,10183,1","8,1,006,1,+999,9","SYN060AAXX  14211 02458 45984 /1601 10061 20017 30183 40208 58006;",
"02458099999","2010-04-15T00:00:00","4","59.897328","17.588581","20.72","UPPSALA, SW","FM-12","ESCM ","V020","190,1,N,0020,1","99999,9,9,N","050000,1,N,1","+0049,1","+0013,1","10199,1",,,,,"03,1,+02700,1,99,9",,,,"99999,9,10174,1","7,1,009,1,+999,9","SYN070AAXX  15001 02458 45984 /1902 10049 20013 30174 40199 57009 333 83/59;",
"02458099999","2010-04-15T03:00:00","4","59.897328","17.588581","20.72","UPPSALA, SW","FM-12","ESCM ","V020","200,1,N,0020,1","02100,1,C,N","050000,1,N,1","+0045,1","+0015,1","10182,1",,,,,"08,1,+02100,1,99,9",,,,"99999,9,10157,1","7,1,017,1,+999,9","SYN070AAXX  15031 02458 45884 /2002 10045 20015 30157 40182 57017 333 88/57;",
"02458099999","2010-04-15T06:00:00","4","59.897328","17.588581","20.72","UPPSALA, SW","FM-12","ESCM ","V020","190,1,N,0010,1","02400,1,C,N","050000,1,N,1","+0056,1","+0021,1","10170,1",,,,,"08,1,+02400,1,99,9",,"120,M,+0089,1","999,N,+0043,1","99999,9,10144,1","7,1,012,1,+999,9","SYN082AAXX  15061 02458 35884 /1901 10056 20021 30144 40170 57012 333 10089 20043 88/58;",
"02458099999","2010-04-15T09:00:00","4","59.897328","17.588581","20.72","UPPSALA, SW","FM-12","ESCM ","V020","210,1,N,0030,1","03300,1,C,N","045000,1,N,1","+0110,1","+0037,1","10152,1",,,,,"08,1,+03300,1,99,9",,,,"99999,9,10127,1","8,1,017,1,+999,9","SYN070AAXX  15091 02458 45983 /2103 10110 20037 30127 40152 58017 333 88/61;",
"02458099999","2010-04-15T12:00:00","4","59.897328","17.588581","20.72","UPPSALA, SW","FM-12","ESCM ","V020","240,1,N,0060,1","02100,1,C,N","050000,1,N,1","+0134,1","+0033,1","10130,1",,,,,"08,1,+02100,1,99,9",,,,"99999,9,10105,1",,"SYN064AAXX  15121 02458 45884 /2406 10134 20033 30105 40130 333 88/57;",
"02458099999","2010-04-15T15:00:00","4","59.897328","17.588581","20.72","UPPSALA, SW","FM-12","ESCM ","V020","250,1,N,0050,1","99999,9,9,N","050000,1,N,1","+0119,1","+0026,1","10106,1",,,"22,1","8,1,03,1","02,1,+01500,1,99,9",,,,"99999,9,10081,1","8,1,024,1,+999,9","SYN076AAXX  15151 02458 47784 /2505 10119 20026 30081 40106 58024 72286 333 82/50;",
"02458099999","2010-04-15T18:00:00","4","59.897328","17.588581","20.72","UPPSALA, SW","FM-12","ESCM ","V020","240,1,N,0030,1","01500,1,C,N","050000,1,N,1","+0064,1","+0044,1","10095,1","12,0005,9,1",,"81,1","8,1,06,1","06,1,+01500,1,99,9",,,,"99999,9,10070,1","8,1,011,1,+999,9","SYN088AAXX  15181 02458 07784 /2403 10064 20044 30070 40095 58011 69952 78186 333 69925 86/50;",
"02458099999","2010-04-15T21:00:00","4","59.897328","17.588581","20.72","UPPSALA, SW","FM-12","ESCM ","V020","230,1,N,0020,1","01800,1,C,N","050000,1,N,1","+0057,1","+0038,1","10079,1",,,"00,1","8,1,03,1","06,1,+01800,1,99,9",,,,"99999,9,10054,1","7,1,016,1,+999,9","SYN082AAXX  15211 02458 47784 /2302 10057 20038 30054 40079 57016 70082 333 86/56 88/59;",
"02458099999","2010-04-16T00:00:00","4","59.897328","17.588581","20.72","UPPSALA, SW","FM-12","ESCM ","V020","260,1,N,0010,1","99999,9,9,N","045000,1,N,1","+0022,1","+0021,1","10066,1",,,"00,1","8,1,06,1",,,,,"99999,9,10040,1","7,1,014,1,+999,9","SYN066AAXX  16001 02458 47983 /2601 10022 20021 30040 40066 57014 70082;",
"02458099999","2010-04-16T03:00:00","4","59.897328","17.588581","20.72","UPPSALA, SW","FM-12","ESCM ","V020","340,1,N,0060,1","00780,1,C,N","040000,1,N,1","+0040,1","+0028,1","10065,1",,,"81,1","8,1,03,1","09,1,+00780,1,99,9",,,,"99999,9,10039,1","5,1,001,1,+999,9","SYN076AAXX  16031 02458 47/82 /3406 10040 20028 30039 40065 55001 78185 333 89/26;",
"02458099999","2010-04-16T06:00:00","4","59.897328","17.588581","20.72","UPPSALA, SW","FM-12","ESCM ","V020","010,1,N,0060,1","99999,9,9,N","014000,1,N,1","+0028,1","+0020,1","10076,1","12,0008,9,1","24,0013,9,1","81,1","8,1,06,1","01,1,+00390,1,99,9",,"120,M,+0064,1","999,N,+0014,1","99999,9,10051,1","3,1,012,1,+999,9","SYN106AAXX  16061 02458 07464 /0106 10028 20020 30051 40076 53012 69972 78186 333 10064 20014 69935 70012 81/13;",
"02458099999","2010-04-16T09:00:00","4","59.897328","17.588581","20.72","UPPSALA, SW","FM-12","ESCM ","V020","350,1,N,0060,1","99999,9,9,N","040000,1,N,1","+0070,1","+0012,1","10087,1",,,"00,1","8,1,03,1","04,1,+01200,1,99,9",,,,"99999,9,10062,1","2,1,011,1,+999,9","SYN076AAXX  16091 02458 47682 /3506 10070 20012 30062 40087 52011 70082 333 84/40;",
"02458099999","2010-04-16T12:00:00","4","59.897328","17.588581","20.72","UPPSALA, SW","FM-12","ESCM ","V020","330,1,N,0060,1","99999,9,9,N","045000,1,N,1","+0087,1","-0015,1","10093,1",,,"00,1","8,1,06,1","02,1,+02100,1,99,9",,,,"99999,9,10068,1","1,1,006,1,+999,9","SYN076AAXX  16120 02458 47883 /3306 10087 21015 30068 40093 51006 70082 333 82/57;",
"02458099999","2010-04-16T15:00:00","4","59.897328","17.588581","20.72","UPPSALA, SW","FM-12","ESCM ","V020","290,1,N,0060,1","01800,1,C,N","035000,1,N,1","+0087,1","-0024,1","10102,1",,,"00,1","8,1,03,1","05,1,+01800,1,99,9",,,,"99999,9,10077,1","3,1,009,1,+999,9","SYN082AAXX  16151 02458 47881 /2906 10087 21024 30077 40102 53009 70086 333 85/56 87/60;",
"02458099999","2010-04-16T18:00:00","4","59.897328","17.588581","20.72","UPPSALA, SW","FM-12","ESCM ","V020","310,1,N,0050,1","99999,9,9,N","050000,1,N,1","+0058,1","-0025,1","10112,1","12,0003,9,1",,"00,1","8,1,06,1",,,"120,M,+0101,1","999,N,+0028,1","99999,9,10087,1","3,1,010,1,+999,9","SYN088AAXX  16181 02458 17984 /3105 10058 21025 30087 40112 53010 69932 70086 333 10101 20028;",
"02458099999","2010-04-16T21:00:00","4","59.897328","17.588581","20.72","UPPSALA, SW","FM-12","ESCM ","V020","240,1,N,0020,1","99999,9,9,N","050000,1,N,1","+0006,1","-0043,1","10111,1",,,,,,,,,"99999,9,10085,1","8,1,001,1,+999,9","SYN060AAXX  16211 02458 45984 /2402 10006 21043 30085 40111 58001;",
"02458099999","2010-04-17T00:00:00","4","59.897328","17.588581","20.72","UPPSALA, SW","FM-12","ESCM ","V020","150,1,N,0020,1","99999,9,9,N","050000,1,N,1","-0009,1","-0042,1","10095,1",,,,,,,,,"99999,9,10069,1","8,1,017,1,+999,9","SYN060AAXX  17001 02458 45984 /1502 11009 21042 30069 40095 58017;",
"02458099999","2010-04-17T03:00:00","4","59.897328","17.588581","20.72","UPPSALA, SW","FM-12","ESCM ","V020","200,1,N,0030,1","99999,9,9,N","050000,1,N,1","+0012,1","-0023,1","10063,1",,,,,"01,1,+01800,1,99,9",,,,"99999,9,10038,1","8,1,031,1,+999,9","SYN070AAXX  17031 02458 45784 /2003 10012 21023 30038 40063 58031 333 81/56;",
"02458099999","2010-04-17T06:00:00","4","59.897328","17.588581","20.72","UPPSALA, SW","FM-12","ESCM ","V020","190,1,N,0050,1","01500,1,C,N","050000,1,N,1","+0028,1","+0001,1","10037,1","12,0000,9,1","24,0005,9,1","00,1","8,1,06,1","08,1,+01500,1,99,9",,"120,M,+0058,1","999,N,-0014,1","99999,9,10011,1","8,1,027,1,+999,9","SYN100AAXX  17061 02458 17784 /1905 10028 20001 30011 40037 58027 69912 70087 333 10058 21014 70004 88/50;","Q01  00002PRCP12"
"02458099999","2010-04-17T09:00:00","4","59.897328","17.588581","20.72","UPPSALA, SW","FM-12","ESCM ","V020","210,1,N,0060,1","99999,9,9,N","045000,1,N,1","+0071,1","+0040,1","10010,1",,,,,"02,1,+00690,1,99,9",,,,"99999,9,09985,1","6,1,026,1,+999,9","SYN076AAXX  17091 02458 45583 /2106 10071 20040 39985 40010 56026 333 82/23 83/58;",
"02458099999","2010-04-17T12:00:00","4","59.897328","17.588581","20.72","UPPSALA, SW","FM-12","ESCM ","V020","220,1,N,0070,1","99999,9,9,N","035000,1,N,1","+0088,1","+0049,1","09993,1",,,,,"01,1,+04200,1,99,9",,,,"99999,9,09968,1","7,1,017,1,+999,9","SYN070AAXX  17121 02458 45981 /2207 10088 20049 39968 49993 57017 333 81/64;",
"02458099999","2010-04-17T15:00:00","4","59.897328","17.588581","20.72","UPPSALA, SW","FM-12","ESCM ","V020","240,1,N,0060,1","99999,9,9,N","040000,1,N,1","+0103,1","+0051,1","09970,1",,,,,"01,1,+04800,1,99,9",,,,"99999,9,09945,1","8,1,022,1,+999,9","SYN070AAXX  17151 02458 45982 /2406 10103 20051 39945 49970 58022 333 81/66;",
"02458099999","2010-04-17T18:00:00","4","59.897328","17.588581","20.72","UPPSALA, SW","FM-12","ESCM ","V020","260,1,N,0040,1","01170,1,C,N","050000,1,N,1","+0080,1","+0052,1","09956,1",,,,,"08,1,+01170,1,99,9",,"120,M,+0111,1","999,N,+0028,1","99999,9,09931,1","6,1,014,1,+999,9","SYN082AAXX  17181 02458 35684 /2604 10080 20052 39931 49956 56014 333 10111 20028 88/39;",
"02458099999","2010-04-17T21:00:00","4","59.897328","17.588581","20.72","UPPSALA, SW","FM-12","ESCM ","V020","250,1,N,0060,1","99999,9,9,N","050000,1,N,1","+0056,1","+0044,1","09962,1",,,"23,1","8,1,03,1","04,1,+02700,1,99,9",,,,"99999,9,09937,1","0,1,006,1,+999,9","SYN076AAXX  17211 02458 47984 /2506 10056 20044 39937 49962 50006 72386 333 84/59;",
"02458099999","2010-04-18T00:00:00","4","59.897328","17.588581","20.72","UPPSALA, SW","FM-12","ESCM ","V020","280,1,N,0040,1","00660,1,C,N","035000,1,N,1","+0043,1","+0038,1","09975,1",,,"61,1","8,1,06,1","02,1,+00480,1,99,9","05,1,+00660,1,99,9",,,"99999,9,09949,1","3,1,012,1,+999,9","SYN088AAXX  18001 02458 47481 /2804 10043 20038 39949 49975 53012 76186 333 82/16 85/22 88/59;",
"02458099999","2010-04-18T03:00:00","4","59.897328","17.588581","20.72","UPPSALA, SW","FM-12","ESCM ","V020","280,1,N,0020,1","99999,9,9,N","050000,1,N,1","+0022,1","+0018,1","10003,1",,,"00,1","8,1,03,1","04,1,+00420,1,99,9",,,,"99999,9,09978,1","3,1,029,1,+999,9","SYN082AAXX  18031 02458 47484 /2802 10022 20018 39978 40003 53029 70086 333 84/14 85/22;",
"02458099999","2010-04-18T06:00:00","4","59.897328","17.588581","20.72","UPPSALA, SW","FM-12","ESCM ","V020","300,1,N,0040,1","99999,9,9,N","050000,1,N,1","+0024,1","-0018,1","10025,1","12,0041,9,1","24,0043,9,1","00,1","8,1,06,1",,,"120,M,+0097,1","999,N,+0011,1","99999,9,10000,1","2,1,022,1,+999,9","SYN094AAXX  18061 02458 17984 /3004 10024 21018 30000 40025 52022 60042 70086 333 10097 20011 70043;",
"02458099999","2010-04-18T09:00:00","4","59.897328","17.588581","20.72","UPPSALA, SW","FM-12","ESCM ","V020","240,1,N,0040,1","99999,9,9,N","045000,1,N,1","+0060,1","-0036,1","10037,1",,,,,,,,,"99999,9,10012,1","2,1,012,1,+999,9","SYN060AAXX  18091 02458 45983 /2404 10060 21036 30012 40037 52012;",
"02458099999","2010-04-18T12:00:00","4","59.897328","17.588581","20.72","UPPSALA, SW","FM-12","ESCM ","V020","240,1,N,0040,1","01500,1,C,N","050000,1,N,1","+0081,1","+0007,1","10040,1",,,,,"05,1,+01500,1,99,9",,,,"99999,9,10015,1","0,1,003,1,+999,9","SYN070AAXX  18121 02458 45784 /2404 10081 20007 30015 40040 50003 333 85/50;",
"02458099999","2010-04-18T15:00:00","4","59.897328","17.588581","20.72","UPPSALA, SW","FM-12","ESCM ","V020","280,1,N,0070,1","00510,1,C,N","011000,1,N,1","+0030,1","+0016,1","10050,1",,,"81,1","8,1,03,1","09,1,+00510,1,99,9",,,,"99999,9,10024,1","3,1,009,1,+999,9","SYN076AAXX  18151 02458 47/61 /2807 10030 20016 30024 40050 53009 78186 333 89/17;",
"02458099999","2010-04-18T18:00:00","4","59.897328","17.588581","20.72","UPPSALA, SW","FM-12","ESCM ","V020","200,1,N,0020,1","99999,9,9,N","050000,1,N,1","+0034,1","+0015,1","10046,1","12,0020,9,1",,"00,1","8,1,06,1",,,"120,M,+0088,1","999,N,+0024,1","99999,9,10020,1","6,1,004,1,+999,9","SYN088AAXX  18181 02458 17984 /2002 10034 20015 30020 40046 56004 60022 70086 333 10088 20024;",
"02458099999","2010-04-18T21:00:00","4","59.897328","17.588581","20.72","UPPSALA, SW","FM-12","ESCM ","V020","150,1,N,0010,1","99999,9,9,N","050000,1,N,1","+0008,1","+0002,1","10053,1",,,,,,,,,"99999,9,10027,1","2,1,007,1,+999,9","SYN060AAXX  18211 02458 45984 /1501 10008 20002 30027 40053 52007;",
"02458099999","2010-04-19T00:00:00","4","59.897328","17.588581","20.72","UPPSALA, SW","FM-12","ESCM ","V020","230,1,N,0020,1","99999,9,9,N","050000,1,N,1","-0008,1","-0008,1","10058,1",,,,,"03,1,+01800,1,99,9",,,,"99999,9,10032,1","2,1,005,1,+999,9","SYN070AAXX  19001 02458 45884 /2302 11008 21008 30032 40058 52005 333 83/56;",
"02458099999","2010-04-19T03:00:00","4","59.897328","17.588581","20.72","UPPSALA, SW","FM-12","ESCM ","V020","310,1,N,0020,1","99999,9,9,N","050000,1,N,1","-0009,1","-0012,1","10069,1",,,,,,,,,"99999,9,10043,1","3,1,011,1,+999,9","SYN060AAXX  19031 02458 45984 /3102 11009 21012 30043 40069 53011;",
"02458099999","2010-04-19T06:00:00","4","59.897328","17.588581","20.72","UPPSALA, SW","FM-12","ESCM ","V020","340,1,N,0030,1","99999,9,9,N","050000,1,N,1","+0018,1","-0017,1","10089,1","24,0018,9,1",,,,,,"120,M,+0036,1","999,N,-0018,1","99999,9,10063,1","3,1,020,1,+999,9","SYN082AAXX  19060 02458 35984 /3403 10018 21017 30063 40089 53020 333 10036 21018 70019;",
"02458099999","2010-04-19T09:00:00","4","59.897328","17.588581","20.72","UPPSALA, SW","FM-12","ESCM ","V020","350,1,N,0020,1","99999,9,9,N","040000,1,N,1","+0059,1","-0018,1","10106,1",,,,,,,,,"99999,9,10081,1","2,1,018,1,+999,9","SYN060AAXX  19091 02458 45982 /3502 10059 21018 30081 40106 52018;",
"02458099999","2010-04-19T12:00:00","4","59.897328","17.588581","20.72","UPPSALA, SW","FM-12","ESCM ","V020","290,1,N,0010,1","99999,9,9,N","045000,1,N,1","+0088,1","-0028,1","10115,1",,,,,,,,,"99999,9,10090,1","2,1,009,1,+999,9","SYN060AAXX  19121 02458 45983 /2901 10088 21028 30090 40115 52009;",
"02458099999","2010-04-19T15:00:00","4","59.897328","17.588581","20.72","UPPSALA, SW","FM-12","ESCM ","V020","180,1,N,0030,1","99999,9,9,N","050000,1,N,1","+0080,1","-0041,1","10118,1",,,,,"02,1,+03600,1,99,9",,,,"99999,9,10093,1","2,1,002,1,+999,9","SYN070AAXX  19151 02458 45984 /1803 10080 21041 30093 40118 52002 333 82/62;",
"02458099999","2010-04-19T18:00:00","4","59.897328","17.588581","20.72","UPPSALA, SW","FM-12","ESCM ","V020","210,1,N,0020,1","99999,9,9,N","050000,1,N,1","+0055,1","-0031,1","10122,1",,,,,"01,1,+02400,1,99,9",,"120,M,+0094,1","999,N,+0018,1","99999,9,10097,1","2,1,004,1,+999,9","SYN082AAXX  19181 02458 35984 /2102 10055 21031 30097 40122 52004 333 10094 20018 81/58;",
"02458099999","2010-04-19T21:00:00","4","59.897328","17.588581","20.72","UPPSALA, SW","FM-12","ESCM ","V020","160,1,N,0010,1","99999,9,9,N","050000,1,N,1","+0014,1","-0025,1","10127,1",,,,,,,,,"99999,9,10101,1","2,1,005,1,+999,9","SYN060AAXX  19211 02458 45984 /1601 10014 21025 30101 40127 52005;",
"02458099999","2010-04-20T00:00:00","4","59.897328","17.588581","20.72","UPPSALA, SW","FM-12","ESCM ","V020","140,1,N,0010,1","99999,9,9,N","050000,1,N,1","-0018,1","-0025,1","10129,1",,,,,,,,,"99999,9,10103,1","2,1,002,1,+999,9","SYN060AAXX  20001 02458 45984 /1401 11018 21025 30103 40129 52002;",
"02458099999","2010-04-20T03:00:00","4","59.897328","17.588581","20.72","UPPSALA, SW","FM-12","ESCM ","V020","999,9,C,0000,1","99999,9,9,N","050000,1,N,1","-0034,1","-0041,1","10131,1",,,,,,,,,"99999,9,10104,1","2,1,001,1,+999,9","SYN060AAXX  20031 02458 45984 /0000 11034 21041 30104 40131 52001;",
"02458099999","2010-04-20T06:00:00","4","59.897328","17.588581","20.72","UPPSALA, SW","FM-12","ESCM ","V020","999,9,C,0000,1","99999,9,9,N","035000,1,N,1","+0009,1","-0011,1","10133,1",,,,,,,"120,M,+0055,1","999,N,-0040,1","99999,9,10107,1","2,1,002,1,+999,9","SYN076AAXX  20061 02458 35981 /0000 10009 21011 30107 40133 52002 333 10055 21040;",
"02458099999","2010-04-20T09:00:00","4","59.897328","17.588581","20.72","UPPSALA, SW","FM-12","ESCM ","V020","180,1,N,0030,1","99999,9,9,N","030000,1,N,1","+0076,1","-0073,1","10132,1",,,,,,,,,"99999,9,10106,1",,"SYN054AAXX  20091 02458 45980 /1803 10076 21073 30106 40132;",
"02458099999","2010-04-20T12:00:00","4","59.897328","17.588581","20.72","UPPSALA, SW","FM-12","ESCM ","V020","200,1,N,0040,1","01800,1,C,N","050000,1,N,1","+0072,1","-0056,1","10123,1",,,"00,1","8,1,06,1","08,1,+01800,1,99,9",,,,"99999,9,10098,1","6,1,008,1,+999,9","SYN076AAXX  20121 02458 47784 /2004 10072 21056 30098 40123 56008 70086 333 88/56;",
"02458099999","2010-04-20T15:00:00","4","59.897328","17.588581","20.72","UPPSALA, SW","FM-12","ESCM ","V020","170,1,N,0040,1","99999,9,9,N","050000,1,N,1","+0079,1","-0063,1","10113,1",,,,,"04,1,+02400,1,99,9",,,,"99999,9,10088,1","8,1,010,1,+999,9","SYN070AAXX  20151 02458 45884 /1704 10079 21063 30088 40113 58010 333 84/58;",
"02458099999","2010-04-20T18:00:00","4","59.897328","17.588581","20.72","UPPSALA, SW","FM-12","ESCM ","V020","130,1,N,0050,1","99999,9,9,N","050000,1,N,1","+0054,1","-0100,1","10109,1","12,0000,9,1",,,,,,"120,M,+0095,1","999,N,+0053,1","99999,9,10083,1","5,1,004,1,+999,9","SYN082AAXX  20181 02458 15984 /1305 10054 21100 30083 40109 55004 69922 333 10095 20053;","Q01  00002PRCP12"
"02458099999","2010-04-20T21:00:00","4","59.897328","17.588581","20.72","UPPSALA, SW","FM-12","ESCM ","V020","120,1,N,0020,1","99999,9,9,N","050000,1,N,1","+0020,1","-0074,1","10107,1",,,,,,,,,"99999,9,10081,1","8,1,002,1,+999,9","SYN060AAXX  20211 02458 45984 /1202 10020 21074 30081 40107 58002;",
"02458099999","2010-04-21T00:00:00","4","59.897328","17.588581","20.72","UPPSALA, SW","FM-12","ESCM ","V020","080,1,N,0020,1","99999,9,9,N","050000,1,N,1","+0003,1","-0044,1","10099,1",,,,,"01,1,+02400,1,99,9",,,,"99999,9,10073,1","7,1,008,1,+999,9","SYN070AAXX  21001 02458 45884 /0802 10003 21044 30073 40099 57008 333 81/58;",
"02458099999","2010-04-21T03:00:00","4","59.897328","17.588581","20.72","UPPSALA, SW","FM-12","ESCM ","V020","030,1,N,0020,1","99999,9,9,N","050000,1,N,1","-0008,1","-0040,1","10084,1",,,,,,,,,"99999,9,10058,1","8,1,015,1,+999,9","SYN060AAXX  21031 02458 45984 /0302 11008 21040 30058 40084 58015;",
"02458099999","2010-04-21T06:00:00","4","59.897328","17.588581","20.72","UPPSALA, SW","FM-12","ESCM ","V020","020,1,N,0020,1","99999,9,9,N","050000,1,N,1","+0010,1","-0028,1","10075,1","24,0003,9,1",,,,"01,1,+06300,1,99,9",,"120,M,+0054,1","999,N,-0013,1","99999,9,10049,1","6,1,009,1,+999,9","SYN088AAXX  21061 02458 35984 /0202 10010 21028 30049 40075 56009 333 10054 21013 70002 81/71;",
"02458099999","2010-04-21T09:00:00","4","59.897328","17.588581","20.72","UPPSALA, SW","FM-12","ESCM ","V020","340,1,N,0020,1","99999,9,9,N","045000,1,N,1","+0041,1","-0025,1","10066,1",,,"21,1","8,1,03,1","02,1,+00840,1,99,9",,,,"99999,9,10041,1","6,1,008,1,+999,9","SYN082AAXX  21091 02458 47583 /3402 10041 21025 30041 40066 56008 72184 333 82/28 83/59;",
"02458099999","2010-04-21T12:00:00","4","59.897328","17.588581","20.72","UPPSALA, SW","FM-12","ESCM ","V020","050,1,N,0080,1","99999,9,9,N","035000,1,N,1","+0049,1","-0013,1","10061,1",,,"00,1","8,1,06,1","03,1,+00780,1,99,9",,,,"99999,9,10036,1","5,1,005,1,+999,9","SYN076AAXX  21121 02458 47581 /0508 10049 21013 30036 40061 55005 70082 333 83/26;",
"02458099999","2010-04-21T15:00:00","4","59.897328","17.588581","20.72","UPPSALA, SW","FM-12","ESCM ","V020","030,1,N,0060,1","00390,1,C,N","020000,1,N,1","+0028,1","+0010,1","10060,1",,,"67,1","6,1,03,1","05,1,+00390,1,99,9",,,,"99999,9,10034,1","8,1,002,1,+999,9","SYN082AAXX  21151 02458 47470 /0306 10028 20010 30034 40060 58002 76765 333 85/13 87/56;",
"02458099999","2010-04-21T18:00:00","4","59.897328","17.588581","20.72","UPPSALA, SW","FM-12","ESCM ","V020","020,1,N,0060,1","00270,1,C,N","013000,1,N,1","+0015,1","+0001,1","10053,1","12,0010,9,1",,"61,1","8,1,06,1","09,1,+00270,1,99,9",,"120,M,+0063,1","999,N,+0010,1","99999,9,10028,1","6,1,006,1,+999,9","SYN100AAXX  21181 02458 07/63 /0206 10015 20001 30028 40053 56006 60012 76186 333 10063 20010 69925 89/09;",
"02458099999","2010-04-21T21:00:00","4","59.897328","17.588581","20.72","UPPSALA, SW","FM-12","ESCM ","V020","360,1,N,0030,1","00150,1,C,N","002100,1,N,1","+0003,1","-0001,1","10044,1",,,"71,1","7,1,03,1","09,1,+00150,1,99,9",,,,"99999,9,10018,1","8,1,009,1,+999,9","SYN076AAXX  21211 02458 47/21 /3603 10003 21001 30018 40044 58009 77176 333 89/05;",
"02458099999","2010-04-22T00:00:00","4","59.897328","17.588581","20.72","UPPSALA, SW","FM-12","ESCM ","V020","340,1,N,0040,1","99999,9,9,N","007000,1,N,1","+0002,1","-0001,1","10033,1",,,"74,1","7,1,06,1","04,1,+00180,1,99,9",,,,"99999,9,10008,1","7,1,011,1,+999,9","SYN082AAXX  22001 02458 47357 /3404 10002 21001 30008 40033 57011 77476 333 84/06 88/10;",
"02458099999","2010-04-22T03:00:00","4","59.897328","17.588581","20.72","UPPSALA, SW","FM-12","ESCM ","V020","340,1,N,0040,1","00210,1,C,N","007000,1,N,1","+0002,1","-0001,1","10024,1",,,"71,1","8,1,03,1","06,1,+00210,1,99,9","07,1,+00300,1,99,9",,,"99999,9,09999,1","7,1,009,1,+999,9","SYN088AAXX  22031 02458 47357 /3404 10002 21001 39999 40024 57009 77187 333 86/07 87/10 88/12;",
"02458099999","2010-04-22T06:00:00","4","59.897328","17.588581","20.72","UPPSALA, SW","FM-12","ESCM ","V020","340,1,N,0070,1","00210,1,C,N","005000,1,N,1","+0006,1","+0001,1","10020,1","12,0030,9,1","24,0043,9,1","71,1","8,1,06,1","06,1,+00210,1,99,9",,"120,M,+0016,1","999,N,+0001,1","99999,9,09995,1","5,1,004,1,+999,9","SYN112AAXX  22061 02458 07350 /3407 10006 20001 39995 40020 55004 60032 77187 333 10016 20001 69925 70042 86/07 88/09;",
"02458099999","2010-04-22T09:00:00","4","59.897328","17.588581","20.72","UPPSALA, SW","FM-12","ESCM ","V020","330,1,N,0070,1","00330,1,C,N","024000,1,N,1","+0010,1","-0003,1","10024,1",,,"71,1","7,1,03,1","08,1,+00330,1,99,9",,,,"99999,9,09998,1","2,1,004,1,+999,9","SYN076AAXX  22091 02458 47474 /3307 10010 21003 39998 40024 52004 77174 333 88/11;",
"02458099999","2010-04-22T12:00:00","4","59.897328","17.588581","20.72","UPPSALA, SW","FM-12","ESCM ","V020","330,1,N,0060,1","99999,9,9,N","004100,1,N,1","+0009,1","+0002,1","10027,1",,,"71,1","7,1,06,1","02,1,+00210,1,99,9",,,,"99999,9,10002,1","3,1,003,1,+999,9","SYN082AAXX  22121 02458 47341 /3306 10009 20002 30002 40027 53003 77174 333 82/07 88/12;",
"02458099999","2010-04-22T15:00:00","4","59.897328","17.588581","20.72","UPPSALA, SW","FM-12","ESCM ","V020","330,1,N,0050,1","00240,1,C,N","001900,1,N,1","+0006,1","+0001,1","10036,1",,,"71,1","8,1,03,1","09,1,+00240,1,99,9",,,,"99999,9,10010,1","2,1,008,1,+999,9","SYN076AAXX  22151 02458 47/19 /3305 10006 20001 30010 40036 52008 77187 333 89/08;",
"02458099999","2010-04-22T18:00:00","4","59.897328","17.588581","20.72","UPPSALA, SW","FM-12","ESCM ","V020","330,1,N,0060,1","99999,9,9,N","009000,1,N,1","+0012,1","+0003,1","10045,1","12,0030,9,1",,"67,1","8,1,06,1","01,1,+00330,1,99,9",,"120,M,+0013,1","999,N,+0004,1","99999,9,10020,1","3,1,010,1,+999,9","SYN100AAXX  22180 02458 07459 /3306 10012 20003 30020 40045 53010 60032 76787 333 10013 20004 69935 81/11;",
"02458099999","2010-04-22T21:00:00","4","59.897328","17.588581","20.72","UPPSALA, SW","FM-12","ESCM ","V020","320,1,N,0030,1","99999,9,9,N","050000,1,N,1","+0017,1","-0010,1","10042,1",,,"00,1","6,1,03,1","04,1,+01800,1,99,9",,,,"99999,9,10016,1","5,1,004,1,+999,9","SYN082AAXX  22211 02458 47784 /3203 10017 21010 30016 40042 55004 70065 333 84/56 88/58;",
"02458099999","2010-04-23T00:00:00","4","59.897328","17.588581","20.72","UPPSALA, SW","FM-12","ESCM ","V020","300,1,N,0050,1","99999,9,9,N","050000,1,N,1","+0010,1","-0017,1","10042,1",,,"00,1","6,1,06,1","03,1,+02100,1,99,9",,,,"99999,9,10016,1","0,1,000,1,+999,9","SYN076AAXX  23001 02458 47884 /3005 10010 21017 30016 40042 50000 70065 333 83/57;",
"02458099999","2010-04-23T03:00:00","4","59.897328","17.588581","20.72","UPPSALA, SW","FM-12","ESCM ","V020","300,1,N,0040,1","99999,9,9,N","050000,1,N,1","-0002,1","-0021,1","10046,1",,,,,,,,,"99999,9,10020,1","2,1,004,1,+999,9","SYN060AAXX  23031 02458 45984 /3004 11002 21021 30020 40046 52004;",
"02458099999","2010-04-23T06:00:00","4","59.897328","17.588581","20.72","UPPSALA, SW","FM-12","ESCM ","V020","290,1,N,0040,1","99999,9,9,N","045000,1,N,1","+0018,1","-0014,1","10052,1","12,0000,2,1","24,0028,9,1",,,,,"120,M,+0020,1","999,N,-0006,1","99999,9,10027,1","2,1,007,1,+999,9","SYN088AAXX  23061 02458 15983 /2904 10018 21014 30027 40052 52007 69912 333 10020 21006 70028;",
"02458099999","2010-04-23T09:00:00","4","59.897328","17.588581","20.72","UPPSALA, SW","FM-12","ESCM ","V020","220,1,N,0010,1","99999,9,9,N","035000,1,N,1","+0069,1","-0028,1","10053,1",,,,,,,,,"99999,9,10028,1","2,1,001,1,+999,9","SYN060AAXX  23091 02458 45981 /2201 10069 21028 30028 40053 52001;",
"02458099999","2010-04-23T12:00:00","4","59.897328","17.588581","20.72","UPPSALA, SW","FM-12","ESCM ","V020","310,1,N,0010,1","01800,1,C,N","045000,1,N,1","+0093,1","-0039,1","10043,1",,,,,"05,1,+01800,1,99,9",,,,"99999,9,10018,1","8,1,010,1,+999,9","SYN070AAXX  23121 02458 45883 /3101 10093 21039 30018 40043 58010 333 85/56;",
"02458099999","2010-04-23T15:00:00","4","59.897328","17.588581","20.72","UPPSALA, SW","FM-12","ESCM ","V020","210,1,N,0020,1","99999,9,9,N","050000,1,N,1","+0089,1","-0039,1","10042,1",,,,,"01,1,+01800,1,99,9",,,,"99999,9,10017,1","8,1,001,1,+999,9","SYN070AAXX  23151 02458 45784 /2102 10089 21039 30017 40042 58001 333 81/56;",
"02458099999","2010-04-23T18:00:00","4","59.897328","17.588581","20.72","UPPSALA, SW","FM-12","ESCM ","V020","080,1,N,0020,1","01320,1,C,N","050000,1,N,1","+0052,1","-0003,1","10050,1",,,,,"05,1,+01320,1,99,9",,"120,M,+0102,1","999,N,+0018,1","99999,9,10025,1","3,1,008,1,+999,9","SYN088AAXX  23181 02458 35684 /0802 10052 21003 30025 40050 53008 333 10102 20018 85/44 88/50;",
"02458099999","2010-04-23T21:00:00","4","59.897328","17.588581","20.72","UPPSALA, SW","FM-12","ESCM ","V020","999,9,C,0000,1","99999,9,9,N","050000,1,N,1","+0023,1","+0007,1","10054,1",,,,,"01,1,+01440,1,99,9",,,,"99999,9,10028,1","2,1,004,1,+999,9","SYN076AAXX  23211 02458 45684 /0000 10023 20007 30028 40054 52004 333 81/48 85/56;",
"02458099999","2010-04-24T00:00:00","4","59.897328","17.588581","20.72","UPPSALA, SW","FM-12","ESCM ","V020","330,1,N,0010,1","99999,9,9,N","035000,1,N,1","+0002,1","-0005,1","10071,1",,,,,,,,,"99999,9,10045,1","3,1,017,1,+999,9","SYN060AAXX  24001 02458 45981 /3301 10002 21005 30045 40071 53017;",
"02458099999","2010-04-24T03:00:00","4","59.897328","17.588581","20.72","UPPSALA, SW","FM-12","ESCM ","V020","310,1,N,0020,1","99999,9,9,N","021000,1,N,1","-0014,1","-0019,1","10101,1",,,,,,,,,"99999,9,10075,1","3,1,030,1,+999,9","SYN060AAXX  24031 02458 45971 /3102 11014 21019 30075 40101 53030;",
"02458099999","2010-04-24T06:00:00","4","59.897328","17.588581","20.72","UPPSALA, SW","FM-12","ESCM ","V020","290,1,N,0020,1","99999,9,9,N","035000,1,N,1","+0018,1","-0003,1","10130,1",,,,,,,"120,M,+0056,1","999,N,-0014,1","99999,9,10104,1","2,1,029,1,+999,9","SYN076AAXX  24061 02458 35981 /2902 10018 21003 30104 40130 52029 333 10056 21014;",
"02458099999","2010-04-24T09:00:00","4","59.897328","17.588581","20.72","UPPSALA, SW","FM-12","ESCM ","V020","290,1,N,0040,1","99999,9,9,N","040000,1,N,1","+0085,1","-0023,1","10156,1",,,,,,,,,"99999,9,10130,1","2,1,026,1,+999,9","SYN060AAXX  24091 02458 45982 /2904 10085 21023 30130 40156 52026;",
"02458099999","2010-04-24T12:00:00","4","59.897328","17.588581","20.72","UPPSALA, SW","FM-12","ESCM ","V020","350,1,N,0020,1","99999,9,9,N","050000,1,N,1","+0100,1","-0063,1","10177,1",,,,,"04,1,+02400,1,99,9",,,,"99999,9,10152,1","3,1,022,1,+999,9","SYN070AAXX  24121 02458 45884 /3502 10100 21063 30152 40177 53022 333 84/58;",
"02458099999","2010-04-24T15:00:00","4","59.897328","17.588581","20.72","UPPSALA, SW","FM-12","ESCM ","V020","300,1,N,0020,1","99999,9,9,N","050000,1,N,1","+0116,1","-0063,1","10196,1",,,,,"04,1,+02400,1,99,9",,,,"99999,9,10170,1","2,1,018,1,+999,9","SYN070AAXX  24151 02458 45984 /3002 10116 21063 30170 40196 52018 333 84/58;",
"02458099999","2010-04-24T18:00:00","4","59.897328","17.588581","20.72","UPPSALA, SW","FM-12","ESCM ","V020","250,1,N,0020,1","99999,9,9,N","050000,1,N,1","+0088,1","-0054,1","10213,1",,,,,,,"120,M,+0118,1","999,N,+0018,1","99999,9,10188,1","2,1,017,1,+999,9","SYN076AAXX  24180 02458 35984 /2502 10088 21054 30188 40213 52017 333 10118 20018;",
"02458099999","2010-04-24T21:00:00","4","59.897328","17.588581","20.72","UPPSALA, SW","FM-12","ESCM ","V020","230,1,N,0040,1","99999,9,9,N","050000,1,N,1","+0045,1","-0019,1","10236,1",,,,,,,,,"99999,9,10210,1","2,1,023,1,+999,9","SYN060AAXX  24211 02458 45984 /2304 10045 21019 30210 40236 52023;",
"02458099999","2010-04-25T00:00:00","4","59.897328","17.588581","20.72","UPPSALA, SW","FM-12","ESCM ","V020","310,1,N,0010,1","99999,9,9,N","050000,1,N,1","+0026,1","-0023,1","10254,1",,,,,,,,,"99999,9,10228,1","2,1,018,1,+999,9","SYN060AAXX  25001 02458 45984 /3101 10026 21023 30228 40254 52018;",
"02458099999","2010-04-25T03:00:00","4","59.897328","17.588581","20.72","UPPSALA, SW","FM-12","ESCM ","V020","140,1,N,0010,1","99999,9,9,N","050000,1,N,1","+0008,1","-0026,1","10267,1",,,,,,,,,"99999,9,10241,1","2,1,013,1,+999,9","SYN060AAXX  25031 02458 45984 /1401 10008 21026 30241 40267 52013;",
"02458099999","2010-04-25T06:00:00","4","59.897328","17.588581","20.72","UPPSALA, SW","FM-12","ESCM ","V020","220,1,N,0020,1","99999,9,9,N","040000,1,N,1","+0053,1","-0003,1","10278,1",,,,,,,"120,M,+0088,1","999,N,-0001,1","99999,9,10252,1","2,1,011,1,+999,9","SYN076AAXX  25061 02458 35982 /2202 10053 21003 30252 40278 52011 333 10088 21001;",
"02458099999","2010-04-25T09:00:00","4","59.897328","17.588581","20.72","UPPSALA, SW","FM-12","ESCM ","V020","210,1,N,0050,1","99999,9,9,N","040000,1,N,1","+0112,1","-0017,1","10280,1",,,,,,,,,"99999,9,10254,1","2,1,002,1,+999,9","SYN060AAXX  25091 02458 45982 /2105 10112 21017 30254 40280 52002;",
"02458099999","2010-04-25T12:00:00","4","59.897328","17.588581","20.72","UPPSALA, SW","FM-12","ESCM ","V020","240,1,N,0050,1","03900,1,C,N","045000,1,N,1","+0118,1","-0039,1","10277,1",,,,,"06,1,+03900,1,99,9",,,,"99999,9,10252,1","7,1,003,1,+999,9","SYN070AAXX  25121 02458 45983 /2405 10118 21039 30252 40277 57003 333 86/63;",
"02458099999","2010-04-25T15:00:00","4","59.897328","17.588581","20.72","UPPSALA, SW","FM-12","ESCM ","V020","210,1,N,0040,1","03600,1,C,N","050000,1,N,1","+0116,1","-0022,1","10271,1",,,,,"07,1,+03600,1,99,9",,,,"99999,9,10245,1","7,1,007,1,+999,9","SYN070AAXX  25151 02458 45984 /2104 10116 21022 30245 40271 57007 333 87/62;",
"02458099999","2010-04-25T18:00:00","4","59.897328","17.588581","20.72","UPPSALA, SW","FM-12","ESCM ","V020","230,1,N,0030,1","99999,9,9,N","050000,1,N,1","+0089,1","-0026,1","10272,1",,,,,"03,1,+02100,1,99,9",,"120,M,+0130,1","999,N,+0053,1","99999,9,10246,1","4,1,000,1,+999,9","SYN082AAXX  25181 02458 35884 /2303 10089 21026 30246 40272 54001 333 10130 20053 83/57;",
"02458099999","2010-04-25T21:00:00","4","59.897328","17.588581","20.72","UPPSALA, SW","FM-12","ESCM ","V020","190,1,N,0010,1","99999,9,9,N","050000,1,N,1","+0055,1","-0009,1","10274,1",,,,,,,,,"99999,9,10248,1","2,1,002,1,+999,9","SYN060AAXX  25211 02458 45984 /1901 10055 21009 30248 40274 52002;",
"02458099999","2010-04-26T00:00:00","4","59.897328","17.588581","20.72","UPPSALA, SW","FM-12","ESCM ","V020","999,9,C,0000,1","01800,1,C,N","040000,1,N,1","+0016,1","+0003,1","10268,1",,,,,"07,1,+01800,1,99,9",,,,"99999,9,10242,1","7,1,006,1,+999,9","SYN070AAXX  26001 02458 45782 /0000 10016 20003 30242 40268 57006 333 87/56;",
"02458099999","2010-04-26T03:00:00","4","59.897328","17.588581","20.72","UPPSALA, SW","FM-12","ESCM ","V020","150,1,N,0010,1","01410,1,C,N","050000,1,N,1","+0041,1","+0009,1","10263,1",,,,,"08,1,+01410,1,99,9",,,,"99999,9,10237,1","7,1,005,1,+999,9","SYN070AAXX  26031 02458 45684 /1501 10041 20009 30237 40263 57005 333 88/47;",
"02458099999","2010-04-26T06:00:00","4","59.897328","17.588581","20.72","UPPSALA, SW","FM-12","ESCM ","V020","150,1,N,0020,1","01500,1,C,N","035000,1,N,1","+0065,1","+0020,1","10258,1",,,,,"06,1,+01500,1,99,9",,"120,M,+0089,1","999,N,+0009,1","99999,9,10233,1","7,1,004,1,+999,9","SYN082AAXX  26060 02458 35781 /1502 10065 20020 30233 40258 57004 333 10089 20009 86/50;",
"02458099999","2010-04-26T09:00:00","4","59.897328","17.588581","20.72","UPPSALA, SW","FM-12","ESCM ","V020","170,1,N,0050,1","99999,9,9,N","045000,1,N,1","+0120,1","-0001,1","10243,1",,,,,,,,,"99999,9,10218,1","8,1,015,1,+999,9","SYN060AAXX  26091 02458 45983 /1705 10120 21001 30218 40243 58015;",
"02458099999","2010-04-26T12:00:00","4","59.897328","17.588581","20.72","UPPSALA, SW","FM-12","ESCM ","V020","180,1,N,0060,1","99999,9,9,N","035000,1,N,1","+0147,1","-0024,1","10220,1",,,,,,,,,"99999,9,10195,1","8,1,023,1,+999,9","SYN060AAXX  26121 02458 45981 /1806 10147 21024 30195 40220 58023;",
"02458099999","2010-04-26T15:00:00","4","59.897328","17.588581","20.72","UPPSALA, SW","FM-12","ESCM ","V020","180,1,N,0090,1","02700,1,C,N","045000,1,N,1","+0139,1","-0005,1","10200,1",,,,,"07,1,+02700,1,99,9",,,,"99999,9,10175,1","7,1,020,1,+999,9","SYN070AAXX  26151 02458 45983 /1809 10139 21005 30175 40200 57020 333 87/59;",
"02458099999","2010-04-26T18:00:00","4","59.897328","17.588581","20.72","UPPSALA, SW","FM-12","ESCM ","V020","180,1,N,0070,1","99999,9,9,N","050000,1,N,1","+0110,1","-0042,1","10186,1",,,,,,,"120,M,+0155,1","999,N,+0065,1","99999,9,10161,1","7,1,014,1,+999,9","SYN076AAXX  26181 02458 35984 /1807 10110 21042 30161 40186 57014 333 10155 20065;",
"02458099999","2010-04-26T21:00:00","4","59.897328","17.588581","20.72","UPPSALA, SW","FM-12","ESCM ","V020","190,1,N,0060,1","02700,1,C,N","050000,1,N,1","+0088,1","-0033,1","10175,1",,,,,"07,1,+02700,1,99,9",,,,"99999,9,10149,1","8,1,011,1,+999,9","SYN070AAXX  26211 02458 45984 /1906 10088 21033 30149 40175 58011 333 87/59;",
"02458099999","2010-04-27T00:00:00","4","59.897328","17.588581","20.72","UPPSALA, SW","FM-12","ESCM ","V020","180,1,N,0050,1","02400,1,C,N","050000,1,N,1","+0078,1","-0018,1","10154,1",,,,,"08,1,+02400,1,99,9",,,,"99999,9,10129,1","8,1,021,1,+999,9","SYN070AAXX  27001 02458 45884 /1805 10078 21018 30129 40154 58021 333 88/58;",
"02458099999","2010-04-27T03:00:00","4","59.897328","17.588581","20.72","UPPSALA, SW","FM-12","ESCM ","V020","190,1,N,0040,1","99999,9,9,N","050000,1,N,1","+0069,1","-0008,1","10139,1",,,,,"01,1,+02100,1,99,9",,,,"99999,9,10113,1","7,1,015,1,+999,9","SYN076AAXX  27031 02458 45884 /1904 10069 21008 30113 40139 57015 333 81/57 88/62;",
"02458099999","2010-04-27T06:00:00","4","59.897328","17.588581","20.72","UPPSALA, SW","FM-12","ESCM ","V020","220,1,N,0030,1","02700,1,C,N","035000,1,N,1","+0089,1","+0033,1","10135,1",,,,,"08,1,+02700,1,99,9",,"120,M,+0111,1","999,N,+0067,1","99999,9,10110,1","6,1,004,1,+999,9","SYN082AAXX  27061 02458 35981 /2203 10089 20033 30110 40135 56004 333 10111 20067 88/59;",
"02458099999","2010-04-27T09:00:00","4","59.897328","17.588581","20.72","UPPSALA, SW","FM-12","ESCM ","V020","260,1,N,0050,1","99999,9,9,N","035000,1,N,1","+0150,1","+0047,1","10131,1",,,,,,,,,"99999,9,10106,1","5,1,003,1,+999,9","SYN060AAXX  27091 02458 45981 /2605 10150 20047 30106 40131 55003;",
"02458099999","2010-04-27T12:00:00","4","59.897328","17.588581","20.72","UPPSALA, SW","FM-12","ESCM ","V020","340,1,N,0040,1","01500,1,C,N","050000,1,N,1","+0153,1","+0039,1","10135,1",,,,,"07,1,+01500,1,99,9",,,,"99999,9,10110,1","2,1,004,1,+999,9","SYN076AAXX  27120 02458 45784 /3404 10153 20039 30110 40135 52004 333 87/50 88/57;",
"02458099999","2010-04-27T15:00:00","4","59.897328","17.588581","20.72","UPPSALA, SW","FM-12","ESCM ","V020","030,1,N,0070,1","02700,1,C,N","050000,1,N,1","+0094,1","+0006,1","10163,1",,,,,"07,1,+02700,1,99,9",,,,"99999,9,10138,1","1,1,028,1,+999,9","SYN070AAXX  27151 02458 45984 /0307 10094 20006 30138 40163 51028 333 87/59;",
"02458099999","2010-04-27T18:00:00","4","59.897328","17.588581","20.72","UPPSALA, SW","FM-12","ESCM ","V020","060,1,N,0040,1","01500,1,C,N","050000,1,N,1","+0065,1","-0008,1","10180,1",,,,,"05,1,+01500,1,99,9",,"120,M,+0165,1","999,N,+0065,1","99999,9,10155,1","3,1,017,1,+999,9","SYN088AAXX  27181 02458 35784 /0604 10065 21008 30155 40180 53017 333 10165 20065 85/50 88/63;",
"02458099999","2010-04-27T21:00:00","4","59.897328","17.588581","20.72","UPPSALA, SW","FM-12","ESCM ","V020","300,1,N,0010,1","99999,9,9,N","050000,1,N,1","+0048,1","-0007,1","10194,1",,,"22,1","8,1,03,1","04,1,+02100,1,99,9",,,,"99999,9,10168,1","1,1,013,1,+999,9","SYN082AAXX  27211 02458 47884 /3001 10048 21007 30168 40194 51013 72286 333 84/57 88/59;",
"02458099999","2010-04-28T00:00:00","4","59.897328","17.588581","20.72","UPPSALA, SW","FM-12","ESCM ","V020","290,1,N,0030,1","99999,9,9,N","050000,1,N,1","+0039,1","-0004,1","10204,1",,,"00,1","8,1,06,1","02,1,+01800,1,99,9",,,,"99999,9,10178,1","2,1,010,1,+999,9","SYN082AAXX  28001 02458 47884 /2903 10039 21004 30178 40204 52010 70082 333 82/56 87/59;",
"02458099999","2010-04-28T03:00:00","4","59.897328","17.588581","20.72","UPPSALA, SW","FM-12","ESCM ","V020","330,1,N,0020,1","99999,9,9,N","050000,1,N,1","+0013,1","-0025,1","10213,1",,,,,,,,,"99999,9,10187,1","3,1,010,1,+999,9","SYN060AAXX  28031 02458 45984 /3302 10013 21025 30187 40213 53010;",
"02458099999","2010-04-28T06:00:00","4","59.897328","17.588581","20.72","UPPSALA, SW","FM-12","ESCM ","V020","020,1,N,0020,1","99999,9,9,N","050000,1,N,1","+0041,1","-0041,1","10223,1",,,,,,,"120,M,+0065,1","999,N,+0001,1","99999,9,10197,1","2,1,009,1,+999,9","SYN076AAXX  28060 02458 35984 /0202 10041 21041 30197 40223 52009 333 10065 20001;",
"02458099999","2010-04-28T09:00:00","4","59.897328","17.588581","20.72","UPPSALA, SW","FM-12","ESCM ","V020","200,1,N,0010,1","99999,9,9,N","040000,1,N,1","+0081,1","-0057,1","10215,1",,,,,,,,,"99999,9,10190,1","7,1,007,1,+999,9","SYN060AAXX  28091 02458 45982 /2001 10081 21057 30190 40215 57007;",
"02458099999","2010-04-28T12:00:00","4","59.897328","17.588581","20.72","UPPSALA, SW","FM-12","ESCM ","V020","230,1,N,0040,1","99999,9,9,N","050000,1,N,1","+0097,1","-0047,1","10197,1",,,,,"01,1,+04500,1,99,9",,,,"99999,9,10172,1","8,1,018,1,+999,9","SYN070AAXX  28121 02458 45984 /2304 10097 21047 30172 40197 58018 333 81/65;",
"02458099999","2010-04-28T15:00:00","4","59.897328","17.588581","20.72","UPPSALA, SW","FM-12","ESCM ","V020","210,1,N,0060,1","99999,9,9,N","045000,1,N,1","+0108,1","-0002,1","10169,1",,,,,"04,1,+01800,1,99,9",,,,"99999,9,10144,1","8,1,028,1,+999,9","SYN076AAXX  28151 02458 45883 /2106 10108 21002 30144 40169 58028 333 84/56 85/60;",
"02458099999","2010-04-28T18:00:00","4","59.897328","17.588581","20.72","UPPSALA, SW","FM-12","ESCM ","V020","180,1,N,0040,1","00510,1,C,N","018000,1,N,1","+0062,1","+0042,1","10146,1","12,0005,9,1",,"52,1","6,1,06,1","08,1,+00510,1,99,9",,"120,M,+0110,1","999,N,+0040,1","99999,9,10120,1","7,1,024,1,+999,9","SYN100AAXX  28181 02458 07468 /1804 10062 20042 30120 40146 57024 69942 75265 333 10110 20040 69925 88/17;",
"02458099999","2010-04-28T21:00:00","4","59.897328","17.588581","20.72","UPPSALA, SW","FM-12","ESCM ","V020","180,1,N,0040,1","00210,1,C,N","022000,1,N,1","+0058,1","+0052,1","10115,1",,,"52,1","6,1,03,1","06,1,+00210,1,99,9","07,1,+00390,1,99,9",,,"99999,9,10089,1","8,1,030,1,+999,9","SYN088AAXX  28211 02458 47372 /1804 10058 20052 30089 40115 58030 75265 333 86/07 87/13 88/17;",
"02458099999","2010-04-29T00:00:00","4","59.897328","17.588581","20.72","UPPSALA, SW","FM-12","ESCM ","V020","200,1,N,0030,1","00180,1,C,N","006000,1,N,1","+0083,1","+0077,1","10085,1",,,"52,1","8,1,06,1","06,1,+00180,1,99,9","07,1,+00240,1,99,9",,,"99999,9,10060,1","6,1,030,1,+999,9","SYN088AAXX  29001 02458 47356 /2003 10083 20077 30060 40085 56030 75286 333 86/06 87/08 88/10;",
"02458099999","2010-04-29T03:00:00","4","59.897328","17.588581","20.72","UPPSALA, SW","FM-12","ESCM ","V020","240,1,N,0020,1","00330,1,C,N","008000,1,N,1","+0086,1","+0077,1","10063,1",,,"22,1","8,1,03,1","08,1,+00330,1,99,9",,,,"99999,9,10038,1","8,1,022,1,+999,9","SYN076AAXX  29031 02458 47458 /2402 10086 20077 30038 40063 58022 72285 333 88/11;",
"02458099999","2010-04-29T06:00:00","4","59.897328","17.588581","20.72","UPPSALA, SW","FM-12","ESCM ","V020","240,1,N,0050,1","00420,1,C,N","012000,1,N,1","+0091,1","+0075,1","10053,1","12,0020,9,2","24,0018,9,2","00,1","8,1,06,1","08,1,+00420,1,99,9",,"120,M,+0091,1","999,N,+0048,1","99999,9,10028,1","7,1,009,1,+999,9","SYN100AAXX  29061 02458 17462 /2405 10091 20075 30028 40053 57009 60022 70085 333 10091 20048 70019 88/14;",
"02458099999","2010-04-29T09:00:00","4","59.897328","17.588581","20.72","UPPSALA, SW","FM-12","ESCM ","V020","240,1,N,0040,1","99999,9,9,N","020000,1,N,1","+0107,1","+0086,1","10049,1",,,,,"02,1,+00480,1,99,9",,,,"99999,9,10024,1","7,1,005,1,+999,9","SYN076AAXX  29091 02458 45470 /2404 10107 20086 30024 40049 57005 333 82/16 88/23;",
"02458099999","2010-04-29T12:00:00","4","59.897328","17.588581","20.72","UPPSALA, SW","FM-12","ESCM ","V020","250,1,N,0060,1","00690,1,C,N","030000,1,N,1","+0129,1","+0077,1","10038,1",,,,,"07,1,+00690,1,99,9",,,,"99999,9,10013,1","8,1,011,1,+999,9","SYN070AAXX  29120 02458 45580 /2506 10129 20077 30013 40038 58011 333 87/23;",
"02458099999","2010-04-29T15:00:00","4","59.897328","17.588581","20.72","UPPSALA, SW","FM-12","ESCM ","V020","230,1,N,0070,1","99999,9,9,N","028000,1,N,1","+0169,1","+0080,1","10016,1",,,,,"03,1,+02700,1,99,9",,,,"99999,9,09992,1","7,1,021,1,+999,9","SYN070AAXX  29151 02458 45978 /2307 10169 20080 39992 40016 57021 333 83/59;",
"02458099999","2010-04-29T18:00:00","4","59.897328","17.588581","20.72","UPPSALA, SW","FM-12","ESCM ","V020","220,1,N,0040,1","01350,1,C,N","020000,1,N,1","+0152,1","+0092,1","10008,1",,,,,"05,1,+01350,1,99,9",,"120,M,+0175,1","999,N,+0090,1","99999,9,09983,1","8,1,009,1,+999,9","SYN082AAXX  29181 02458 35670 /2204 10152 20092 39983 40008 58009 333 10175 20090 85/45;",
"02458099999","2010-04-29T21:00:00","4","59.897328","17.588581","20.72","UPPSALA, SW","FM-12","ESCM ","V020","210,1,N,0040,1","99999,9,9,N","015000,1,N,1","+0112,1","+0085,1","10006,1",,,,,,,,,"99999,9,09981,1","7,1,002,1,+999,9","SYN060AAXX  29211 02458 45965 /2104 10112 20085 39981 40006 57002;",
"02458099999","2010-04-30T00:00:00","4","59.897328","17.588581","20.72","UPPSALA, SW","FM-12","ESCM ","V020","210,1,N,0040,1","99999,9,9,N","008000,1,N,1","+0093,1","+0072,1","09997,1",,,"10,1","2,1,06,1",,,,,"99999,9,09972,1","8,1,009,1,+999,9","SYN066AAXX  30001 02458 47958 /2104 10093 20072 39972 49997 58009 71010;",
"02458099999","2010-04-30T03:00:00","4","59.897328","17.588581","20.72","UPPSALA, SW","FM-12","ESCM ","V020","160,1,N,0020,1","99999,9,9,N","011000,1,N,1","+0075,1","+0063,1","09991,1",,,,,,,,,"99999,9,09966,1","7,1,006,1,+999,9","SYN060AAXX  30031 02458 45961 /1602 10075 20063 39966 49991 57006;",
"02458099999","2010-04-30T06:00:00","4","59.897328","17.588581","20.72","UPPSALA, SW","FM-12","ESCM ","V020","230,1,N,0020,1","00240,1,C,N","013000,1,N,1","+0096,1","+0080,1","09986,1",,,,,"05,1,+00240,1,99,9",,"120,M,+0152,1","999,N,+0074,1","99999,9,09961,1","7,1,005,1,+999,9","SYN082AAXX  30060 02458 35363 /2302 10096 20080 39961 49986 57005 333 10152 20074 85/08;",
"02458099999","2010-04-30T09:00:00","4","59.897328","17.588581","20.72","UPPSALA, SW","FM-12","ESCM ","V020","200,1,N,0030,1","99999,9,9,N","027000,1,N,1","+0137,1","+0085,1","09980,1",,,,,,,,,"99999,9,09956,1","8,1,005,1,+999,9","SYN060AAXX  30091 02458 45977 /2003 10137 20085 39956 49980 58005;",
"02458099999","2010-04-30T12:00:00","4","59.897328","17.588581","20.72","UPPSALA, SW","FM-12","ESCM ","V020","220,1,N,0050,1","04200,1,C,N","029000,1,N,1","+0164,1","+0076,1","09969,1",,,,,"08,1,+04200,1,99,9",,,,"99999,9,09945,1","7,1,011,1,+999,9","SYN070AAXX  30121 02458 45979 /2205 10164 20076 39945 49969 57011 333 88/64;",
"02458099999","2010-04-30T15:00:00","4","59.897328","17.588581","20.72","UPPSALA, SW","FM-12","ESCM ","V020","230,1,N,0050,1","02700,1,C,N","045000,1,N,1","+0162,1","+0062,1","09960,1",,,,,"07,1,+02700,1,99,9",,,,"99999,9,09936,1","7,1,009,1,+999,9","SYN070AAXX  30151 02458 45983 /2305 10162 20062 39936 49960 57009 333 87/59;",
"02458099999","2010-04-30T18:00:00","4","59.897328","17.588581","20.72","UPPSALA, SW","FM-12","ESCM ","V020","200,1,N,0030,1","01800,1,C,N","050000,1,N,1","+0142,1","+0079,1","09950,1",,,,,"08,1,+01800,1,99,9",,"120,M,+0170,1","999,N,+0095,1","99999,9,09925,1","6,1,011,1,+999,9","SYN082AAXX  30181 02458 35784 /2003 10142 20079 39925 49950 56011 333 10170 20095 88/56;",
"02458099999","2010-04-30T21:00:00","4","59.897328","17.588581","20.72","UPPSALA, SW","FM-12","ESCM ","V020","200,1,N,0040,1","01080,1,C,N","017000,1,N,1","+0110,1","+0096,1","09947,1",,,"81,1","8,1,03,1","08,1,+01080,1,99,9",,,,"99999,9,09922,1","7,1,003,1,+999,9","SYN076AAXX  30211 02458 47667 /2004 10110 20096 39922 49947 57003 78186 333 88/36;",
"02458099999","2010-05-01T00:00:00","4","59.897328","17.588581","20.72","UPPSALA, SW","FM-12","ESCM ","V020","210,1,N,0040,1","01230,1,C,N","025000,1,N,1","+0108,1","+0089,1","09939,1",,,"00,1","8,1,06,1","04,1,+00780,1,99,9","06,1,+01230,1,99,9",,,"99999,9,09915,1","7,1,007,1,+999,9","SYN088AAXX  01001 02458 47575 /2104 10108 20089 39915 49939 57007 70086 333 84/26 86/41 88/57;",
"02458099999","2010-05-01T03:00:00","4","59.897328","17.588581","20.72","UPPSALA, SW","FM-12","ESCM ","V020","220,1,N,0030,1","99999,9,9,N","050000,1,N,1","+0097,1","+0069,1","09937,1",,,,,"04,1,+00630,1,99,9",,,,"99999,9,09912,1","7,1,003,1,+999,9","SYN076AAXX  01031 02458 45584 /2203 10097 20069 39912 49937 57003 333 84/21 88/28;",
"02458099999","2010-05-01T06:00:00","4","59.897328","17.588581","20.72","UPPSALA, SW","FM-12","ESCM ","V020","230,1,N,0070,1","00660,1,C,N","045000,1,N,1","+0102,1","+0055,1","09946,1","12,0000,2,1","24,0000,2,1",,,"06,1,+00660,1,99,9",,"120,M,+0143,1","999,N,+0091,1","99999,9,09921,1","2,1,009,1,+999,9","SYN094AAXX  01061 02458 15583 /2307 10102 20055 39921 49946 52009 69912 333 10143 20091 70001 86/22;",
"02458099999","2010-05-01T09:00:00","4","59.897328","17.588581","20.72","UPPSALA, SW","FM-12","ESCM ","V020","230,1,N,0090,1","00840,1,C,N","045000,1,N,1","+0114,1","+0054,1","09955,1",,,,,"08,1,+00840,1,99,9",,,,"99999,9,09931,1","3,1,010,1,+999,9","SYN070AAXX  01091 02458 45583 /2309 10114 20054 39931 49955 53010 333 88/28;",
"02458099999","2010-05-01T12:00:00","4","59.897328","17.588581","20.72","UPPSALA, SW","FM-12","ESCM ","V020","220,1,N,0090,1","01170,1,C,N","050000,1,N,1","+0114,1","+0039,1","09972,1",,,,,"08,1,+01170,1,99,9",,,,"99999,9,09947,1","3,1,016,1,+999,9","SYN070AAXX  01121 02458 45684 /2209 10114 20039 39947 49972 53016 333 88/39;",
"02458099999","2010-05-01T15:00:00","4","59.897328","17.588581","20.72","UPPSALA, SW","FM-12","ESCM ","V020","230,1,N,0090,1","01500,1,C,N","050000,1,N,1","+0113,1","+0025,1","09982,1",,,,,"06,1,+01500,1,99,9",,,,"99999,9,09957,1","1,1,010,1,+999,9","SYN070AAXX  01151 02458 45784 /2309 10113 20025 39957 49982 51010 333 86/50;",
"02458099999","2010-05-01T18:00:00","4","59.897328","17.588581","20.72","UPPSALA, SW","FM-12","ESCM ","V020","210,1,N,0050,1","02100,1,C,N","050000,1,N,1","+0092,1","+0038,1","09982,1",,,"22,1","8,1,06,1","02,1,+01020,1,99,9","04,1,+02100,1,99,9","120,M,+0137,1","999,N,+0091,1","99999,9,09957,1","4,1,000,1,+999,9","SYN100AAXX  01181 02458 37684 /2105 10092 20038 39957 49982 54000 72286 333 10137 20091 82/34 84/57 87/61;",
"02458099999","2010-05-01T21:00:00","4","59.897328","17.588581","20.72","UPPSALA, SW","FM-12","ESCM ","V020","220,1,N,0040,1","99999,9,9,N","050000,1,N,1","+0068,1","+0030,1","09986,1",,,,,,,,,"99999,9,09961,1","3,1,004,1,+999,9","SYN060AAXX  01211 02458 45984 /2204 10068 20030 39961 49986 53004;",
"02458099999","2010-05-02T00:00:00","4","59.897328","17.588581","20.72","UPPSALA, SW","FM-12","ESCM ","V020","320,1,N,0040,1","00510,1,C,N","027000,1,N,1","+0043,1","+0029,1","10014,1",,,"80,1","8,1,06,1","04,1,+00360,1,99,9","05,1,+00510,1,99,9",,,"99999,9,09989,1","3,1,028,1,+999,9","SYN088AAXX  02001 02458 47477 /3204 10043 20029 39989 40014 53028 78086 333 84/12 85/17 88/50;",
"02458099999","2010-05-02T03:00:00","4","59.897328","17.588581","20.72","UPPSALA, SW","FM-12","ESCM ","V020","290,1,N,0030,1","99999,9,9,N","050000,1,N,1","+0018,1","-0003,1","10042,1",,,"00,1","8,1,03,1",,,,,"99999,9,10016,1","3,1,027,1,+999,9","SYN066AAXX  02031 02458 47984 /2903 10018 21003 30016 40042 53027 70082;",
"02458099999","2010-05-02T06:00:00","4","59.897328","17.588581","20.72","UPPSALA, SW","FM-12","ESCM ","V020","310,1,N,0060,1","99999,9,9,N","050000,1,N,1","+0042,1","-0020,1","10067,1","12,0010,9,1","24,0010,9,1","00,1","8,1,06,1",,,"120,M,+0092,1","999,N,+0016,1","99999,9,10041,1","3,1,025,1,+999,9","SYN094AAXX  02061 02458 17984 /3106 10042 21020 30041 40067 53025 69992 70082 333 10092 20016 70009;",
"02458099999","2010-05-02T09:00:00","4","59.897328","17.588581","20.72","UPPSALA, SW","FM-12","ESCM ","V020","310,1,N,0050,1","99999,9,9,N","040000,1,N,1","+0077,1","-0028,1","10090,1",,,,,"01,1,+01440,1,99,9",,,,"99999,9,10064,1","2,1,023,1,+999,9","SYN070AAXX  02091 02458 45682 /3105 10077 21028 30064 40090 52023 333 81/48;",
"02458099999","2010-05-02T12:00:00","4","59.897328","17.588581","20.72","UPPSALA, SW","FM-12","ESCM ","V020","300,1,N,0060,1","99999,9,9,N","040000,1,N,1","+0094,1","-0065,1","10103,1",,,,,"03,1,+02100,1,99,9",,,,"99999,9,10078,1","3,1,013,1,+999,9","SYN070AAXX  02121 02458 45882 /3006 10094 21065 30078 40103 53013 333 83/57;",
"02458099999","2010-05-02T15:00:00","4","59.897328","17.588581","20.72","UPPSALA, SW","FM-12","ESCM ","V020","310,1,N,0050,1","99999,9,9,N","050000,1,N,1","+0104,1","-0053,1","10116,1",,,,,,,,,"99999,9,10090,1","2,1,013,1,+999,9","SYN060AAXX  02151 02458 45984 /3105 10104 21053 30090 40116 52013;",
"02458099999","2010-05-02T18:00:00","4","59.897328","17.588581","20.72","UPPSALA, SW","FM-12","ESCM ","V020","320,1,N,0020,1","99999,9,9,N","050000,1,N,1","+0086,1","-0045,1","10129,1",,,,,,,"120,M,+0112,1","999,N,+0042,1","99999,9,10103,1","3,1,013,1,+999,9","SYN076AAXX  02181 02458 35984 /3202 10086 21045 30103 40129 53013 333 10112 20042;",
"02458099999","2010-05-02T21:00:00","4","59.897328","17.588581","20.72","UPPSALA, SW","FM-12","ESCM ","V020","999,9,C,0000,1","99999,9,9,N","050000,1,N,1","+0014,1","-0017,1","10150,1",,,,,,,,,"99999,9,10124,1","2,1,021,1,+999,9","SYN060AAXX  02211 02458 45984 /0000 10014 21017 30124 40150 52021;",
"02458099999","2010-05-03T00:00:00","4","59.897328","17.588581","20.72","UPPSALA, SW","FM-12","ESCM ","V020","999,9,C,0000,1","99999,9,9,N","050000,1,N,1","-0012,1","-0033,1","10166,1",,,,,,,,,"99999,9,10140,1","2,1,016,1,+999,9","SYN060AAXX  03001 02458 45984 /0000 11012 21033 30140 40166 52016;",
"02458099999","2010-05-03T03:00:00","4","59.897328","17.588581","20.72","UPPSALA, SW","FM-12","ESCM ","V020","999,9,C,0000,1","99999,9,9,N","050000,1,N,1","-0033,1","-0046,1","10176,1",,,,,,,,,"99999,9,10149,1","2,1,009,1,+999,9","SYN060AAXX  03031 02458 45984 /0000 11033 21046 30149 40176 52009;",
"02458099999","2010-05-03T06:00:00","4","59.897328","17.588581","20.72","UPPSALA, SW","FM-12","ESCM ","V020","999,9,C,0000,1","99999,9,9,N","045000,1,N,1","+0050,1","-0012,1","10185,1",,,,,,,"120,M,+0086,1","999,N,-0034,1","99999,9,10160,1","2,1,010,1,+999,9","SYN076AAXX  03060 02458 35983 /0000 10050 21012 30160 40185 52010 333 10086 21034;",
"02458099999","2010-05-03T09:00:00","4","59.897328","17.588581","20.72","UPPSALA, SW","FM-12","ESCM ","V020","090,1,N,0020,1","99999,9,9,N","045000,1,N,1","+0107,1","-0064,1","10184,1",,,,,,,,,"99999,9,10158,1","8,1,001,1,+999,9","SYN060AAXX  03091 02458 45983 /0902 10107 21064 30158 40184 58001;",
"02458099999","2010-05-03T12:00:00","4","59.897328","17.588581","20.72","UPPSALA, SW","FM-12","ESCM ","V020","110,1,N,0030,1","02700,1,C,N","045000,1,N,1","+0114,1","-0065,1","10173,1",,,,,"08,1,+02700,1,99,9",,,,"99999,9,10148,1","8,1,010,1,+999,9","SYN070AAXX  03121 02458 45983 /1103 10114 21065 30148 40173 58010 333 88/59;",
"02458099999","2010-05-03T15:00:00","4","59.897328","17.588581","20.72","UPPSALA, SW","FM-12","ESCM ","V020","120,1,N,0060,1","02400,1,C,N","050000,1,N,1","+0110,1","-0051,1","10164,1",,,,,"08,1,+02400,1,99,9",,,,"99999,9,10139,1","7,1,009,1,+999,9","SYN070AAXX  03151 02458 45884 /1206 10110 21051 30139 40164 57009 333 88/58;",
"02458099999","2010-05-03T18:00:00","4","59.897328","17.588581","20.72","UPPSALA, SW","FM-12","ESCM ","V020","140,1,N,0060,1","02400,1,C,N","050000,1,N,1","+0090,1","-0065,1","10158,1",,,,,"06,1,+02400,1,99,9",,"120,M,+0119,1","999,N,+0049,1","99999,9,10133,1","5,1,006,1,+999,9","SYN082AAXX  03180 02458 35984 /1406 10090 21065 30133 40158 55006 333 10119 20049 86/58;",
"02458099999","2010-05-03T21:00:00","4","59.897328","17.588581","20.72","UPPSALA, SW","FM-12","ESCM ","V020","110,1,N,0020,1","99999,9,9,N","050000,1,N,1","+0039,1","-0045,1","10157,1",,,,,,,,,"99999,9,10131,1","8,1,002,1,+999,9","SYN060AAXX  03211 02458 45984 /1102 10039 21045 30131 40157 58002;",
"02458099999","2010-05-04T00:00:00","4","59.897328","17.588581","20.72","UPPSALA, SW","FM-12","ESCM ","V020","300,1,N,0010,1","99999,9,9,N","050000,1,N,1","-0005,1","-0035,1","10147,1",,,,,,,,,"99999,9,10120,1","7,1,011,1,+999,9","SYN060AAXX  04001 02458 45984 /3001 11005 21035 30120 40147 57011;",
"02458099999","2010-05-04T03:00:00","4","59.897328","17.588581","20.72","UPPSALA, SW","FM-12","ESCM ","V020","999,9,C,0000,1","02400,1,C,N","050000,1,N,1","+0002,1","-0027,1","10147,1",,,,,"05,1,+02400,1,99,9",,,,"99999,9,10121,1","4,1,000,1,+999,9","SYN076AAXX  04031 02458 45984 /0000 10002 21027 30121 40147 54000 333 85/58 88/62;",
"02458099999","2010-05-04T06:00:00","4","59.897328","17.588581","20.72","UPPSALA, SW","FM-12","ESCM ","V020","320,1,N,0010,1","99999,9,9,N","045000,1,N,1","+0033,1","-0027,1","10143,1",,,,,,,"120,M,+0090,1","999,N,-0011,1","99999,9,10118,1","7,1,003,1,+999,9","SYN076AAXX  04061 02458 35983 /3201 10033 21027 30118 40143 57003 333 10090 21011;",
"02458099999","2010-05-04T09:00:00","4","59.897328","17.588581","20.72","UPPSALA, SW","FM-12","ESCM ","V020","020,1,N,0020,1","99999,9,9,N","050000,1,N,1","+0097,1","-0056,1","10148,1",,,,,,,,,"99999,9,10122,1","0,1,004,1,+999,9","SYN060AAXX  04091 02458 45984 /0202 10097 21056 30122 40148 50004;",
"02458099999","2010-05-04T12:00:00","4","59.897328","17.588581","20.72","UPPSALA, SW","FM-12","ESCM ","V020","030,1,N,0050,1","99999,9,9,N","050000,1,N,1","+0109,1","-0045,1","10153,1",,,,,"03,1,+02100,1,99,9",,,,"99999,9,10128,1","2,1,007,1,+999,9","SYN076AAXX  04121 02458 45884 /0305 10109 21045 30128 40153 52007 333 83/57 85/67;",
"02458099999","2010-05-04T15:00:00","4","59.897328","17.588581","20.72","UPPSALA, SW","FM-12","ESCM ","V020","050,1,N,0070,1","99999,9,9,N","045000,1,N,1","+0100,1","-0051,1","10164,1",,,,,,,,,"99999,9,10138,1","2,1,010,1,+999,9","SYN060AAXX  04151 02458 45983 /0507 10100 21051 30138 40164 52010;",
"02458099999","2010-05-04T18:00:00","4","59.897328","17.588581","20.72","UPPSALA, SW","FM-12","ESCM ","V020","060,1,N,0050,1","99999,9,9,N","050000,1,N,1","+0065,1","-0049,1","10179,1",,,,,,,"120,M,+0118,1","999,N,+0033,1","99999,9,10154,1","2,1,015,1,+999,9","SYN076AAXX  04181 02458 35984 /0605 10065 21049 30154 40179 52015 333 10118 20033;",
"02458099999","2010-05-04T21:00:00","4","59.897328","17.588581","20.72","UPPSALA, SW","FM-12","ESCM ","V020","010,1,N,0010,1","99999,9,9,N","050000,1,N,1","+0013,1","-0039,1","10190,1",,,,,,,,,"99999,9,10164,1","1,1,010,1,+999,9","SYN060AAXX  04211 02458 45984 /0101 10013 21039 30164 40190 51010;",
"02458099999","2010-05-05T00:00:00","4","59.897328","17.588581","20.72","UPPSALA, SW","FM-12","ESCM ","V020","340,1,N,0010,1","99999,9,9,N","045000,1,N,1","-0017,1","-0027,1","10191,1",,,,,,,,,"99999,9,10165,1","2,1,001,1,+999,9","SYN060AAXX  05001 02458 45983 /3401 11017 21027 30165 40191 52001;",
"02458099999","2010-05-05T03:00:00","4","59.897328","17.588581","20.72","UPPSALA, SW","FM-12","ESCM ","V020","320,1,N,0010,1","99999,9,9,N","019000,1,N,1","-0031,1","-0036,1","10194,1",,,,,,,,,"99999,9,10168,1","0,1,003,1,+999,9","SYN060AAXX  05031 02458 45969 /3201 11031 21036 30168 40194 50003;",
"02458099999","2010-05-05T06:00:00","4","59.897328","17.588581","20.72","UPPSALA, SW","FM-12","ESCM ","V020","020,1,N,0050,1","99999,9,9,N","045000,1,N,1","+0042,1","+0016,1","10196,1",,,,,,,"120,M,+0065,1","999,N,-0033,1","99999,9,10170,1","2,1,003,1,+999,9","SYN076AAXX  05061 02458 35983 /0205 10042 20016 30170 40196 52003 333 10065 21033;",
"02458099999","2010-05-05T09:00:00","4","59.897328","17.588581","20.72","UPPSALA, SW","FM-12","ESCM ","V020","020,1,N,0030,1","99999,9,9,N","035000,1,N,1","+0072,1","+0009,1","10200,1",,,,,"02,1,+00720,1,99,9",,,,"99999,9,10174,1","2,1,004,1,+999,9","SYN070AAXX  05091 02458 45581 /0203 10072 20009 30174 40200 52004 333 82/24;",
"02458099999","2010-05-05T12:00:00","4","59.897328","17.588581","20.72","UPPSALA, SW","FM-12","ESCM ","V020","260,1,N,0020,1","99999,9,9,N","045000,1,N,1","+0101,1","-0053,1","10193,1",,,,,,,,,"99999,9,10167,1","7,1,007,1,+999,9","SYN060AAXX  05121 02458 45983 /2602 10101 21053 30167 40193 57007;",
"02458099999","2010-05-05T15:00:00","4","59.897328","17.588581","20.72","UPPSALA, SW","FM-12","ESCM ","V020","050,1,N,0020,1","22000,1,C,N","050000,1,N,1","+0076,1","+0010,1","10200,1",,,"81,1","8,1,03,1","02,1,+00600,1,99,9","03,1,+01260,1,99,9",,,"99999,9,10175,1","3,1,008,1,+999,9","SYN088AAXX  05151 02458 47584 /0502 10076 20010 30175 40200 53008 78186 333 82/20 83/42 86/56;",
"02458099999","2010-05-05T18:00:00","4","59.897328","17.588581","20.72","UPPSALA, SW","FM-12","ESCM ","V020","090,1,N,0040,1","99999,9,9,N","050000,1,N,1","+0056,1","+0018,1","10203,1","12,0010,9,1",,"00,1","8,1,06,1","03,1,+01500,1,99,9",,"120,M,+0105,1","999,N,+0041,1","99999,9,10177,1","0,1,002,1,+999,9","SYN100AAXX  05181 02458 17784 /0904 10056 20018 30177 40203 50002 60012 70086 333 10105 20041 83/50 88/57;",
"02458099999","2010-05-05T21:00:00","4","59.897328","17.588581","20.72","UPPSALA, SW","FM-12","ESCM ","V020","160,1,N,0020,1","01800,1,C,N","050000,1,N,1","+0041,1","+0011,1","10207,1",,,,,"06,1,+01800,1,99,9",,,,"99999,9,10181,1","2,1,004,1,+999,9","SYN070AAXX  05211 02458 45784 /1602 10041 20011 30181 40207 52004 333 86/56;",
"02458099999","2010-05-06T00:00:00","4","59.897328","17.588581","20.72","UPPSALA, SW","FM-12","ESCM ","V020","160,1,N,0010,1","99999,9,9,N","050000,1,N,1","+0015,1","-0001,1","10209,1",,,,,"04,1,+03000,1,99,9",,,,"99999,9,10183,1","2,1,002,1,+999,9","SYN070AAXX  06001 02458 45984 /1601 10015 21001 30183 40209 52002 333 84/60;",
"02458099999","2010-05-06T03:00:00","4","59.897328","17.588581","20.72","UPPSALA, SW","FM-12","ESCM ","V020","180,1,N,0030,1","99999,9,9,N","050000,1,N,1","+0038,1","+0007,1","10212,1",,,,,"03,1,+01800,1,99,9",,,,"99999,9,10186,1","2,1,003,1,+999,9","SYN076AAXX  06031 02458 45784 /1803 10038 20007 30186 40212 52003 333 83/56 88/60;",
"02458099999","2010-05-06T06:00:00","4","59.897328","17.588581","20.72","UPPSALA, SW","FM-12","ESCM ","V020","200,1,N,0020,1","02100,1,C,N","050000,1,N,1","+0058,1","+0013,1","10220,1","24,0013,9,1",,,,"06,1,+02100,1,99,9",,"120,M,+0068,1","999,N,+0012,1","99999,9,10195,1","2,1,008,1,+999,9","SYN088AAXX  06061 02458 35884 /2002 10058 20013 30195 40220 52008 333 10068 20012 70012 86/57;",
"02458099999","2010-05-06T09:00:00","4","59.897328","17.588581","20.72","UPPSALA, SW","FM-12","ESCM ","V020","050,1,N,0010,1","99999,9,9,N","050000,1,N,1","+0100,1","-0006,1","10221,1",,,,,"03,1,+01470,1,99,9",,,,"99999,9,10196,1","2,1,001,1,+999,9","SYN076AAXX  06091 02458 45684 /0501 10100 21006 30196 40221 52001 333 83/49 87/57;",
"02458099999","2010-05-06T12:00:00","4","59.897328","17.588581","20.72","UPPSALA, SW","FM-12","ESCM ","V020","150,1,N,0050,1","01260,1,C,N","019000,1,N,1","+0081,1","+0029,1","10230,1",,,"81,1","8,1,06,1","02,1,+00480,1,99,9","04,1,+01260,1,99,9",,,"99999,9,10204,1","3,1,009,1,+999,9","SYN088AAXX  06120 02458 47469 /1505 10081 20029 30204 40230 53009 78182 333 82/16 84/42 85/69;",
"02458099999","2010-05-06T15:00:00","4","59.897328","17.588581","20.72","UPPSALA, SW","FM-12","ESCM ","V020","060,1,N,0050,1","02400,1,C,N","050000,1,N,1","+0099,1","+0020,1","10226,1",,,"00,1","8,1,03,1","08,1,+02400,1,99,9",,,,"99999,9,10201,1","7,1,004,1,+999,9","SYN076AAXX  06151 02458 47884 /0605 10099 20020 30201 40226 57004 70082 333 88/58;",
"02458099999","2010-05-06T18:00:00","4","59.897328","17.588581","20.72","UPPSALA, SW","FM-12","ESCM ","V020","080,1,N,0040,1","99999,9,9,N","050000,1,N,1","+0084,1","-0014,1","10231,1","12,0008,9,1",,"00,1","8,1,06,1","01,1,+02100,1,99,9",,"120,M,+0118,1","999,N,+0056,1","99999,9,10206,1","2,1,005,1,+999,9","SYN094AAXX  06181 02458 17884 /0804 10084 21014 30206 40231 52005 69982 70082 333 10118 20056 81/57;",
"02458099999","2010-05-06T21:00:00","4","59.897328","17.588581","20.72","UPPSALA, SW","FM-12","ESCM ","V020","050,1,N,0030,1","99999,9,9,N","050000,1,N,1","+0033,1","-0018,1","10240,1",,,,,,,,,"99999,9,10214,1","1,1,008,1,+999,9","SYN060AAXX  06211 02458 45984 /0503 10033 21018 30214 40240 51008;",
"02458099999","2010-05-07T00:00:00","4","59.897328","17.588581","20.72","UPPSALA, SW","FM-12","ESCM ","V020","020,1,N,0040,1","99999,9,9,N","050000,1,N,1","+0028,1","+0002,1","10240,1",,,,,"01,1,+06300,1,99,9",,,,"99999,9,10214,1","0,1,001,1,+999,9","SYN070AAXX  07001 02458 45984 /0204 10028 20002 30214 40240 50001 333 81/71;",
"02458099999","2010-05-07T03:00:00","4","59.897328","17.588581","20.72","UPPSALA, SW","FM-12","ESCM ","V020","020,1,N,0050,1","99999,9,9,N","050000,1,N,1","+0036,1","-0011,1","10229,1",,,,,,,,,"99999,9,10203,1","7,1,011,1,+999,9","SYN060AAXX  07031 02458 45984 /0205 10036 21011 30203 40229 57011;",
"02458099999","2010-05-07T06:00:00","4","59.897328","17.588581","20.72","UPPSALA, SW","FM-12","ESCM ","V020","040,1,N,0060,1","99999,9,9,N","045000,1,N,1","+0075,1","-0009,1","10222,1","24,0008,9,1",,,,,,"120,M,+0084,1","999,N,+0025,1","99999,9,10196,1","7,1,007,1,+999,9","SYN082AAXX  07061 02458 35983 /0406 10075 21009 30196 40222 57007 333 10084 20025 70008;",
"02458099999","2010-05-07T09:00:00","4","59.897328","17.588581","20.72","UPPSALA, SW","FM-12","ESCM ","V020","060,1,N,0100,1","99999,9,9,N","045000,1,N,1","+0113,1","-0026,1","10219,1",,,,,,,,,"99999,9,10194,1","7,1,003,1,+999,9","SYN060AAXX  07091 02458 45983 /0610 10113 21026 30194 40219 57003;",
"02458099999","2010-05-07T12:00:00","4","59.897328","17.588581","20.72","UPPSALA, SW","FM-12","ESCM ","V020","050,1,N,0090,1","99999,9,9,N","050000,1,N,1","+0113,1","-0029,1","10211,1",,,,,,,,,"99999,9,10186,1","7,1,007,1,+999,9","SYN060AAXX  07121 02458 45984 /0509 10113 21029 30186 40211 57007;",
"02458099999","2010-05-07T15:00:00","4","59.897328","17.588581","20.72","UPPSALA, SW","FM-12","ESCM ","V020","020,1,N,0110,1","99999,9,9,N","040000,1,N,1","+0101,1","-0023,1","10203,1",,,,,"01,1,+01500,1,99,9",,,,"99999,9,10177,1","7,1,009,1,+999,9","SYN070AAXX  07151 02458 45782 /0211 10101 21023 30177 40203 57009 333 81/50;",
"02458099999","2010-05-07T18:00:00","4","59.897328","17.588581","20.72","UPPSALA, SW","FM-12","ESCM ","V020","020,1,N,0070,1","02100,1,C,N","050000,1,N,1","+0069,1","-0025,1","10201,1",,,,,"06,1,+02100,1,99,9",,"120,M,+0121,1","999,N,+0069,1","99999,9,10175,1","7,1,002,1,+999,9","SYN082AAXX  07181 02458 35884 /0207 10069 21025 30175 40201 57002 333 10121 20069 86/57;",
"02458099999","2010-05-07T21:00:00","4","59.897328","17.588581","20.72","UPPSALA, SW","FM-12","ESCM ","V020","010,1,N,0040,1","01500,1,C,N","050000,1,N,1","+0047,1","-0009,1","10190,1",,,,,"08,1,+01500,1,99,9",,,,"99999,9,10164,1","7,1,011,1,+999,9","SYN070AAXX  07211 02458 45784 /0104 10047 21009 30164 40190 57011 333 88/50;",
"02458099999","2010-05-08T06:00:00","4","59.897328","17.588581","20.72","UPPSALA, SW","FM-12","ESCM ","V020","020,1,N,0060,1","02400,1,C,N","045000,1,N,1","+0049,1","+0014,1","10146,1",,,,,"08,1,+02400,1,99,9",,"120,M,+0069,1","999,N,+0010,1","99999,9,10120,1","5,1,011,1,+999,9","SYN082AAXX  08061 02458 35883 /0206 10049 20014 30120 40146 55011 333 10069 20010 88/58;",
"02458099999","2010-05-08T09:00:00","4","59.897328","17.588581","20.72","UPPSALA, SW","FM-12","ESCM ","V020","040,1,N,0100,1","22000,1,C,N","040000,1,N,1","+0098,1","+0004,1","10130,1",,,,,"02,1,+02100,1,99,9","03,1,+03600,1,99,9",,,"99999,9,10105,1","5,1,015,1,+999,9","SYN082AAXX  08091 02458 45882 /0410 10098 20004 30105 40130 55015 333 82/57 83/62 85/66;",
"02458099999","2010-05-08T12:00:00","4","59.897328","17.588581","20.72","UPPSALA, SW","FM-12","ESCM ","V020","040,1,N,0100,1","01800,1,C,N","045000,1,N,1","+0090,1","+0000,1","10120,1",,,,,"07,1,+01800,1,99,9",,,,"99999,9,10095,1","6,1,011,1,+999,9","SYN076AAXX  08121 02458 45883 /0410 10090 20000 30095 40120 56011 333 87/56 88/62;",
"02458099999","2010-05-08T15:00:00","4","59.897328","17.588581","20.72","UPPSALA, SW","FM-12","ESCM ","V020","030,1,N,0060,1","00870,1,C,N","021000,1,N,1","+0059,1","+0021,1","10113,1",,,"62,1","6,1,03,1","01,1,+00690,1,99,9","06,1,+00870,1,99,9",,,"99999,9,10087,1","5,1,007,1,+999,9","SYN088AAXX  08151 02458 47571 /0306 10059 20021 30087 40113 55007 76265 333 81/23 86/29 87/50;",
"02458099999","2010-05-08T18:00:00","4","59.897328","17.588581","20.72","UPPSALA, SW","FM-12","ESCM ","V020","010,1,N,0030,1","01500,1,C,N","050000,1,N,1","+0051,1","+0016,1","10099,1","12,0030,9,1",,"61,1","8,1,06,1","08,1,+01500,1,99,9",,"120,M,+0105,1","999,N,+0049,1","99999,9,10073,1","6,1,014,1,+999,9","SYN100AAXX  08181 02458 07784 /0103 10051 20016 30073 40099 56014 60032 76186 333 10105 20049 69955 88/50;",
"02458099999","2010-05-08T21:00:00","4","59.897328","17.588581","20.72","UPPSALA, SW","FM-12","ESCM ","V020","350,1,N,0030,1","01500,1,C,N","045000,1,N,1","+0049,1","+0011,1","10089,1",,,"61,1","8,1,03,1","08,1,+01500,1,99,9",,,,"99999,9,10064,1","7,1,010,1,+999,9","SYN076AAXX  08211 02458 47783 /3503 10049 20011 30064 40089 57010 76186 333 88/50;",
"02458099999","2010-05-09T00:00:00","4","59.897328","17.588581","20.72","UPPSALA, SW","FM-12","ESCM ","V020","320,1,N,0040,1","00870,1,C,N","015000,1,N,1","+0042,1","+0010,1","10079,1",,,"61,1","8,1,06,1","09,1,+00870,1,99,9",,,,"99999,9,10053,1","6,1,010,1,+999,9","SYN076AAXX  09001 02458 47/65 /3204 10042 20010 30053 40079 56010 76187 333 89/29;",
"02458099999","2010-05-09T03:00:00","4","59.897328","17.588581","20.72","UPPSALA, SW","FM-12","ESCM ","V020","330,1,N,0030,1","99999,9,9,N","013000,1,N,1","+0038,1","+0010,1","10072,1",,,"61,1","8,1,03,1","01,1,+00780,1,99,9",,,,"99999,9,10047,1","6,1,006,1,+999,9","SYN076AAXX  09031 02458 47563 /3303 10038 20010 30047 40072 56006 76186 333 81/26;",
"02458099999","2010-05-09T06:00:00","4","59.897328","17.588581","20.72","UPPSALA, SW","FM-12","ESCM ","V020","340,1,N,0040,1","99999,9,9,N","050000,1,N,1","+0056,1","+0000,1","10074,1","12,0030,9,1","24,0053,9,1","00,1","8,1,06,1","02,1,+01500,1,99,9",,"120,M,+0056,1","999,N,+0038,1","99999,9,10049,1","3,1,002,1,+999,9","SYN106AAXX  09061 02458 17784 /3404 10056 20000 30049 40074 53002 60032 70086 333 10056 20038 70054 82/50 88/56;",
"02458099999","2010-05-09T09:00:00","4","59.897328","17.588581","20.72","UPPSALA, SW","FM-12","ESCM ","V020","340,1,N,0050,1","02400,1,C,N","050000,1,N,1","+0073,1","+0009,1","10075,1",,,,,"08,1,+02400,1,99,9",,,,"99999,9,10049,1","4,1,000,1,+999,9","SYN070AAXX  09091 02458 45984 /3405 10073 20009 30049 40075 54000 333 88/58;",
"02458099999","2010-05-09T12:00:00","4","59.897328","17.588581","20.72","UPPSALA, SW","FM-12","ESCM ","V020","360,1,N,0010,1","02700,1,C,N","050000,1,N,1","+0090,1","+0007,1","10072,1",,,,,"08,1,+02700,1,99,9",,,,"99999,9,10047,1","7,1,002,1,+999,9","SYN070AAXX  09121 02458 45984 /3601 10090 20007 30047 40072 57002 333 88/59;",
"02458099999","2010-05-09T15:00:00","4","59.897328","17.588581","20.72","UPPSALA, SW","FM-12","ESCM ","V020","170,1,N,0020,1","03300,1,C,N","040000,1,N,1","+0109,1","+0009,1","10064,1",,,,,"05,1,+03300,1,99,9",,,,"99999,9,10040,1","7,1,008,1,+999,9","SYN070AAXX  09151 02458 45982 /1702 10109 20009 30040 40064 57008 333 85/61;",
"02458099999","2010-05-09T18:00:00","4","59.897328","17.588581","20.72","UPPSALA, SW","FM-12","ESCM ","V020","180,1,N,0040,1","02700,1,C,N","050000,1,N,1","+0098,1","+0019,1","10063,1",,,,,"08,1,+02700,1,99,9",,"120,M,+0116,1","999,N,+0056,1","99999,9,10038,1","7,1,001,1,+999,9","SYN082AAXX  09181 02458 35984 /1804 10098 20019 30038 40063 57001 333 10116 20056 88/59;",
"02458099999","2010-05-09T21:00:00","4","59.897328","17.588581","20.72","UPPSALA, SW","FM-12","ESCM ","V020","170,1,N,0030,1","02700,1,C,N","050000,1,N,1","+0075,1","+0028,1","10064,1",,,,,"08,1,+02700,1,99,9",,,,"99999,9,10039,1","2,1,001,1,+999,9","SYN070AAXX  09211 02458 45984 /1703 10075 20028 30039 40064 52001 333 88/59;",
"02458099999","2010-05-10T00:00:00","4","59.897328","17.588581","20.72","UPPSALA, SW","FM-12","ESCM ","V020","160,1,N,0020,1","02700,1,C,N","050000,1,N,1","+0060,1","+0020,1","10064,1",,,,,"08,1,+02700,1,99,9",,,,"99999,9,10039,1","4,1,000,1,+999,9","SYN070AAXX  10001 02458 45984 /1602 10060 20020 30039 40064 54000 333 88/59;",
"02458099999","2010-05-10T03:00:00","4","59.897328","17.588581","20.72","UPPSALA, SW","FM-12","ESCM ","V020","160,1,N,0020,1","02100,1,C,N","050000,1,N,1","+0053,1","+0029,1","10060,1",,,,,"08,1,+02100,1,99,9",,,,"99999,9,10035,1","7,1,005,1,+999,9","SYN070AAXX  10031 02458 45884 /1602 10053 20029 30035 40060 57005 333 88/57;",
"02458099999","2010-05-10T06:00:00","4","59.897328","17.588581","20.72","UPPSALA, SW","FM-12","ESCM ","V020","150,1,N,0050,1","00390,1,C,N","021000,1,N,1","+0055,1","+0031,1","10056,1",,,"23,1","6,1,06,1","05,1,+00390,1,99,9",,"120,M,+0098,1","999,N,+0052,1","99999,9,10031,1","7,1,004,1,+999,9","SYN094AAXX  10061 02458 37471 /1505 10055 20031 30031 40056 57004 72362 333 10098 20052 85/13 88/56;",
"02458099999","2010-05-10T09:00:00","4","59.897328","17.588581","20.72","UPPSALA, SW","FM-12","ESCM ","V020","150,1,N,0050,1","00420,1,C,N","026000,1,N,1","+0074,1","+0044,1","10050,1",,,"00,1","8,1,03,1","08,1,+00420,1,99,9",,,,"99999,9,10025,1","7,1,006,1,+999,9","SYN076AAXX  10091 02458 47476 /1505 10074 20044 30025 40050 57006 70086 333 88/14;",
"02458099999","2010-05-10T12:00:00","4","59.897328","17.588581","20.72","UPPSALA, SW","FM-12","ESCM ","V020","170,1,N,0050,1","00450,1,C,N","030000,1,N,1","+0073,1","+0042,1","10045,1",,,"00,1","8,1,06,1","08,1,+00450,1,99,9",,,,"99999,9,10020,1","7,1,004,1,+999,9","SYN076AAXX  10121 02458 47480 /1705 10073 20042 30020 40045 57004 70086 333 88/15;",
"02458099999","2010-05-10T15:00:00","4","59.897328","17.588581","20.72","UPPSALA, SW","FM-12","ESCM ","V020","160,1,N,0050,1","99999,9,9,N","027000,1,N,1","+0078,1","+0042,1","10045,1",,,,,"04,1,+00570,1,99,9",,,,"99999,9,10020,1","4,1,000,1,+999,9","SYN076AAXX  10151 02458 45477 /1605 10078 20042 30020 40045 54001 333 84/19 88/48;",
"02458099999","2010-05-10T18:00:00","4","59.897328","17.588581","20.72","UPPSALA, SW","FM-12","ESCM ","V020","150,1,N,0050,1","22000,1,C,N","021000,1,N,1","+0075,1","+0047,1","10047,1","12,0000,2,1",,"61,1","6,1,06,1","01,1,+00360,1,99,9","04,1,+00630,1,99,9","120,M,+0092,1","999,N,+0055,1","99999,9,10022,1","3,1,002,1,+999,9","SYN112AAXX  10181 02458 07471 /1505 10075 20047 30022 40047 53002 69912 76160 333 10092 20055 69915 81/12 84/21 85/28;",
"02458099999","2010-05-10T21:00:00","4","59.897328","17.588581","20.72","UPPSALA, SW","FM-12","ESCM ","V020","170,1,N,0030,1","02100,1,C,N","020000,1,N,1","+0061,1","+0043,1","10063,1",,,"00,1","8,1,03,1","08,1,+02100,1,99,9",,,,"99999,9,10037,1","2,1,016,1,+999,9","SYN076AAXX  10211 02458 47870 /1703 10061 20043 30037 40063 52016 70082 333 88/57;",
"02458099999","2010-05-11T00:00:00","4","59.897328","17.588581","20.72","UPPSALA, SW","FM-12","ESCM ","V020","190,1,N,0020,1","99999,9,9,N","040000,1,N,1","+0028,1","+0003,1","10079,1",,,"00,1","8,1,06,1",,,,,"99999,9,10054,1","2,1,016,1,+999,9","SYN066AAXX  11001 02458 47982 /1902 10028 20003 30054 40079 52016 70082;",
"02458099999","2010-05-11T03:00:00","4","59.897328","17.588581","20.72","UPPSALA, SW","FM-12","ESCM ","V020","170,1,N,0020,1","99999,9,9,N","050000,1,N,1","+0002,1","-0025,1","10098,1",,,,,,,,,"99999,9,10072,1","2,1,018,1,+999,9","SYN060AAXX  11031 02458 45984 /1702 10002 21025 30072 40098 52018;",
"02458099999","2010-05-11T06:00:00","4","59.897328","17.588581","20.72","UPPSALA, SW","FM-12","ESCM ","V020","200,1,N,0030,1","99999,9,9,N","030000,1,N,1","+0066,1","+0008,1","10110,1","24,0000,2,1",,,,,,"120,M,+0076,1","999,N,+0002,1","99999,9,10085,1","2,1,013,1,+999,9","SYN082AAXX  11061 02458 35980 /2003 10066 20008 30085 40110 52013 333 10076 20002 70001;",
"02458099999","2010-05-11T09:00:00","4","59.897328","17.588581","20.72","UPPSALA, SW","FM-12","ESCM ","V020","240,1,N,0030,1","99999,9,9,N","035000,1,N,1","+0100,1","-0056,1","10118,1",,,,,"01,1,+01800,1,99,9",,,,"99999,9,10093,1","1,1,008,1,+999,9","SYN070AAXX  11091 02458 45781 /2403 10100 21056 30093 40118 51008 333 81/56;",
"02458099999","2010-05-11T12:00:00","4","59.897328","17.588581","20.72","UPPSALA, SW","FM-12","ESCM ","V020","180,1,N,0030,1","99999,9,9,N","040000,1,N,1","+0122,1","-0053,1","10122,1",,,,,,,,,"99999,9,10097,1","3,1,004,1,+999,9","SYN060AAXX  11121 02458 45982 /1803 10122 21053 30097 40122 53004;",
"02458099999","2010-05-11T15:00:00","4","59.897328","17.588581","20.72","UPPSALA, SW","FM-12","ESCM ","V020","190,1,N,0040,1","99999,9,9,N","045000,1,N,1","+0132,1","-0040,1","10121,1",,,,,,,,,"99999,9,10097,1","4,1,000,1,+999,9","SYN060AAXX  11151 02458 45983 /1904 10132 21040 30097 40121 54001;",
"02458099999","2010-05-11T18:00:00","4","59.897328","17.588581","20.72","UPPSALA, SW","FM-12","ESCM ","V020","200,1,N,0020,1","99999,9,9,N","045000,1,N,1","+0114,1","-0043,1","10130,1",,,,,,,"120,M,+0134,1","999,N,+0064,1","99999,9,10105,1","3,1,008,1,+999,9","SYN076AAXX  11181 02458 35983 /2002 10114 21043 30105 40130 53008 333 10134 20064;",
"02458099999","2010-05-11T21:00:00","4","59.897328","17.588581","20.72","UPPSALA, SW","FM-12","ESCM ","V020","210,1,N,0020,1","99999,9,9,N","050000,1,N,1","+0061,1","-0043,1","10144,1",,,,,,,,,"99999,9,10118,1","1,1,014,1,+999,9","SYN060AAXX  11211 02458 45984 /2102 10061 21043 30118 40144 51014;",
"02458099999","2010-05-12T00:00:00","4","59.897328","17.588581","20.72","UPPSALA, SW","FM-12","ESCM ","V020","250,1,N,0010,1","99999,9,9,N","050000,1,N,1","+0010,1","-0029,1","10153,1",,,,,,,,,"99999,9,10127,1","3,1,008,1,+999,9","SYN060AAXX  12001 02458 45984 /2501 10010 21029 30127 40153 53008;",
"02458099999","2010-05-12T03:00:00","4","59.897328","17.588581","20.72","UPPSALA, SW","FM-12","ESCM ","V020","999,9,C,0000,1","99999,9,9,N","050000,1,N,1","-0013,1","-0036,1","10159,1",,,,,,,,,"99999,9,10133,1","3,1,006,1,+999,9","SYN060AAXX  12031 02458 45984 /0000 11013 21036 30133 40159 53006;",
"02458099999","2010-05-12T06:00:00","4","59.897328","17.588581","20.72","UPPSALA, SW","FM-12","ESCM ","V020","999,9,C,0000,1","99999,9,9,N","040000,1,N,1","+0087,1","-0016,1","10172,1",,,,,,,"120,M,+0118,1","999,N,-0013,1","99999,9,10146,1","1,1,013,1,+999,9","SYN076AAXX  12061 02458 35982 /0000 10087 21016 30146 40172 51013 333 10118 21013;",
"02458099999","2010-05-12T09:00:00","4","59.897328","17.588581","20.72","UPPSALA, SW","FM-12","ESCM ","V020","080,1,N,0010,1","99999,9,9,N","040000,1,N,1","+0134,1","-0040,1","10172,1",,,,,,,,,"99999,9,10147,1","0,1,001,1,+999,9","SYN060AAXX  12091 02458 45982 /0801 10134 21040 30147 40172 50001;",
"02458099999","2010-05-12T12:00:00","4","59.897328","17.588581","20.72","UPPSALA, SW","FM-12","ESCM ","V020","100,1,N,0030,1","04200,1,C,N","035000,1,N,1","+0156,1","-0012,1","10165,1",,,,,"06,1,+04200,1,99,9",,,,"99999,9,10140,1","8,1,007,1,+999,9","SYN070AAXX  12121 02458 45981 /1003 10156 21012 30140 40165 58007 333 86/64;",
"02458099999","2010-05-12T15:00:00","4","59.897328","17.588581","20.72","UPPSALA, SW","FM-12","ESCM ","V020","060,1,N,0080,1","99999,9,9,N","030000,1,N,1","+0152,1","-0016,1","10157,1",,,,,,,,,"99999,9,10132,1","7,1,009,1,+999,9","SYN060AAXX  12151 02458 45980 /0608 10152 21016 30132 40157 57009;",
"02458099999","2010-05-12T18:00:00","4","59.897328","17.588581","20.72","UPPSALA, SW","FM-12","ESCM ","V020","060,1,N,0070,1","99999,9,9,N","050000,1,N,1","+0115,1","-0003,1","10153,1",,,,,,,"120,M,+0166,1","999,N,+0087,1","99999,9,10128,1","7,1,004,1,+999,9","SYN076AAXX  12181 02458 35984 /0607 10115 21003 30128 40153 57004 333 10166 20087;",
"02458099999","2010-05-12T21:00:00","4","59.897328","17.588581","20.72","UPPSALA, SW","FM-12","ESCM ","V020","050,1,N,0060,1","99999,9,9,N","050000,1,N,1","+0079,1","+0015,1","10145,1",,,,,"01,1,+02100,1,99,9",,,,"99999,9,10119,1","8,1,008,1,+999,9","SYN076AAXX  12211 02458 45884 /0506 10079 20015 30119 40145 58008 333 81/57 87/62;",
"02458099999","2010-05-13T00:00:00","4","59.897328","17.588581","20.72","UPPSALA, SW","FM-12","ESCM ","V020","020,1,N,0030,1","99999,9,9,N","035000,1,N,1","+0063,1","+0038,1","10126,1",,,,,"04,1,+03300,1,99,9",,,,"99999,9,10100,1","6,1,019,1,+999,9","SYN070AAXX  13001 02458 45981 /0203 10063 20038 30100 40126 56019 333 84/61;",
"02458099999","2010-05-13T03:00:00","4","59.897328","17.588581","20.72","UPPSALA, SW","FM-12","ESCM ","V020","340,1,N,0030,1","99999,9,9,N","035000,1,N,1","+0056,1","+0037,1","10116,1",,,,,"02,1,+05700,1,99,9",,,,"99999,9,10090,1","8,1,010,1,+999,9","SYN070AAXX  13031 02458 45981 /3403 10056 20037 30090 40116 58010 333 82/69;",
"02458099999","2010-05-13T06:00:00","4","59.897328","17.588581","20.72","UPPSALA, SW","FM-12","ESCM ","V020","030,1,N,0030,1","02700,1,C,N","035000,1,N,1","+0093,1","+0063,1","10105,1",,,,,"07,1,+02700,1,99,9",,"120,M,+0115,1","999,N,+0055,1","99999,9,10080,1","6,1,010,1,+999,9","SYN082AAXX  13061 02458 35981 /0303 10093 20063 30080 40105 56010 333 10115 20055 87/59;",
"02458099999","2010-05-13T09:00:00","4","59.897328","17.588581","20.72","UPPSALA, SW","FM-12","ESCM ","V020","090,1,N,0040,1","02100,1,C,N","018000,1,N,1","+0166,1","+0109,1","10090,1",,,,,"02,1,+01500,1,99,9","06,1,+02100,1,99,9",,,"99999,9,10065,1","8,1,015,1,+999,9","SYN082AAXX  13091 02458 45768 /0904 10166 20109 30065 40090 58015 333 82/50 86/57 87/64;",
"02458099999","2010-05-13T12:00:00","4","59.897328","17.588581","20.72","UPPSALA, SW","FM-12","ESCM ","V020","130,1,N,0070,1","01440,1,C,N","027000,1,N,1","+0196,1","+0128,1","10085,1",,,,,"03,1,+00960,1,99,9","06,1,+01440,1,99,9",,,"99999,9,10061,1","7,1,005,1,+999,9","SYN082AAXX  13121 02458 45577 /1307 10196 20128 30061 40085 57005 333 83/32 86/48 87/71;",
"02458099999","2010-05-13T15:00:00","4","59.897328","17.588581","20.72","UPPSALA, SW","FM-12","ESCM ","V020","120,1,N,0030,1","00450,1,C,N","015000,1,N,1","+0158,1","+0134,1","10086,1",,,"23,1","8,1,03,1","08,1,+00450,1,99,9",,,,"99999,9,10062,1","2,1,001,1,+999,9","SYN076AAXX  13151 02458 47465 /1203 10158 20134 30062 40086 52001 72386 333 88/15;",
"02458099999","2010-05-13T18:00:00","4","59.897328","17.588581","20.72","UPPSALA, SW","FM-12","ESCM ","V020","110,1,N,0020,1","01500,1,C,N","013000,1,N,1","+0144,1","+0122,1","10092,1","12,0020,9,1",,"00,1","8,1,06,1","03,1,+01380,1,99,9","06,1,+01500,1,99,9","120,M,+0205,1","999,N,+0093,1","99999,9,10067,1","3,1,005,1,+999,9","SYN106AAXX  13181 02458 17663 /1102 10144 20122 30067 40092 53005 60022 70086 333 10205 20093 83/46 86/50 88/59;",
"02458099999","2010-05-13T21:00:00","4","59.897328","17.588581","20.72","UPPSALA, SW","FM-12","ESCM ","V020","080,1,N,0020,1","01020,1,C,N","004400,1,N,1","+0120,1","+0114,1","10095,1",,,"83,1","8,1,03,1","09,1,+01020,1,99,9",,,,"99999,9,10070,1","3,1,003,1,+999,9","SYN076AAXX  13211 02458 47/44 /0802 10120 20114 30070 40095 53003 78386 333 89/34;",
"02458099999","2010-05-14T00:00:00","4","59.897328","17.588581","20.72","UPPSALA, SW","FM-12","ESCM ","V020","040,1,N,0010,1","00090,1,C,N","002400,1,N,1","+0117,1","+0113,1","10085,1",,,"10,1","8,1,06,1","09,1,+00090,1,99,9",,,,"99999,9,10060,1","8,1,010,1,+999,9","SYN076AAXX  14001 02458 47/24 /0401 10117 20113 30060 40085 58010 71086 333 89/03;",
"02458099999","2010-05-14T03:00:00","4","59.897328","17.588581","20.72","UPPSALA, SW","FM-12","ESCM ","V020","060,1,N,0030,1","00150,1,C,N","006000,1,N,1","+0112,1","+0108,1","10081,1",,,"82,1","8,1,03,1","09,1,+00150,1,99,9",,,,"99999,9,10056,1","8,1,005,1,+999,9","SYN076AAXX  14031 02458 47/56 /0603 10112 20108 30056 40081 58005 78286 333 89/05;",
"02458099999","2010-05-14T06:00:00","4","59.897328","17.588581","20.72","UPPSALA, SW","FM-12","ESCM ","V020","070,1,N,0020,1","00120,1,C,N","004800,1,N,1","+0114,1","+0108,1","10079,1","12,0079,9,1","24,0094,9,1","23,1","8,1,06,1","09,1,+00120,1,99,9",,"120,M,+0145,1","999,N,+0108,1","99999,9,10054,1","5,1,002,1,+999,9","SYN106AAXX  14060 02458 07/48 /0702 10114 20108 30054 40079 55002 60082 72386 333 10145 20108 69915 70093 89/04;",
"02458099999","2010-05-14T09:00:00","4","59.897328","17.588581","20.72","UPPSALA, SW","FM-12","ESCM ","V020","080,1,N,0010,1","00180,1,C,N","007000,1,N,1","+0138,1","+0126,1","10082,1",,,"61,1","6,1,03,1","08,1,+00180,1,99,9",,,,"99999,9,10058,1","2,1,004,1,+999,9","SYN076AAXX  14091 02458 47357 /0801 10138 20126 30058 40082 52004 76165 333 88/06;",
"02458099999","2010-05-14T12:00:00","4","59.897328","17.588581","20.72","UPPSALA, SW","FM-12","ESCM ","V020","100,1,N,0010,1","99999,9,9,N","012000,1,N,1","+0174,1","+0149,1","10083,1",,,"23,1","8,1,06,1","01,1,+02400,1,99,9",,,,"99999,9,10058,1","4,1,000,1,+999,9","SYN076AAXX  14121 02458 47862 /1001 10174 20149 30058 40083 54000 72386 333 81/58;",
"02458099999","2010-05-14T15:00:00","4","59.897328","17.588581","20.72","UPPSALA, SW","FM-12","ESCM ","V020","120,1,N,0040,1","99999,9,9,N","030000,1,N,1","+0184,1","+0142,1","10088,1",,,,,"04,1,+00630,1,99,9",,,,"99999,9,10064,1","2,1,005,1,+999,9","SYN070AAXX  14151 02458 45580 /1204 10184 20142 30064 40088 52005 333 84/21;",
"02458099999","2010-05-14T18:00:00","4","59.897328","17.588581","20.72","UPPSALA, SW","FM-12","ESCM ","V020","110,1,N,0040,1","00390,1,C,N","015000,1,N,1","+0151,1","+0127,1","10098,1","12,0010,9,1",,,,"06,1,+00390,1,99,9",,"120,M,+0186,1","999,N,+0113,1","99999,9,10073,1","3,1,009,1,+999,9","SYN094AAXX  14181 02458 15465 /1104 10151 20127 30073 40098 53009 69992 333 10186 20113 86/13 87/62;",
"02458099999","2010-05-14T21:00:00","4","59.897328","17.588581","20.72","UPPSALA, SW","FM-12","ESCM ","V020","080,1,N,0020,1","00330,1,C,N","010000,1,N,1","+0141,1","+0130,1","10101,1",,,"81,1","8,1,03,1","08,1,+00330,1,99,9",,,,"99999,9,10076,1","0,1,003,1,+999,9","SYN076AAXX  14211 02458 47460 /0802 10141 20130 30076 40101 50003 78186 333 88/11;",
"02458099999","2010-05-15T00:00:00","4","59.897328","17.588581","20.72","UPPSALA, SW","FM-12","ESCM ","V020","070,1,N,0030,1","99999,9,9,N","005000,1,N,1","+0136,1","+0130,1","10107,1",,,"61,1","8,1,06,1","01,1,+00180,1,99,9",,,,"99999,9,10082,1","3,1,006,1,+999,9","SYN082AAXX  15001 02458 47250 /0703 10136 20130 30082 40107 53006 76186 333 81/06 88/09;",
"02458099999","2010-05-15T03:00:00","4","59.897328","17.588581","20.72","UPPSALA, SW","FM-12","ESCM ","V020","040,1,N,0040,1","99999,9,9,N","008000,1,N,1","+0123,1","+0119,1","10086,1",,,"23,1","6,1,03,1","02,1,+00150,1,99,9",,,,"99999,9,10061,1","6,1,021,1,+999,9","SYN082AAXX  15031 02458 47258 /0404 10123 20119 30061 40086 56021 72365 333 82/05 83/65;",
"02458099999","2010-05-15T06:00:00","4","59.897328","17.588581","20.72","UPPSALA, SW","FM-12","ESCM ","V020","020,1,N,0050,1","99999,9,9,N","018000,1,N,1","+0140,1","+0126,1","10081,1","12,0051,9,1","24,0061,9,1","00,1","6,1,06,1","03,1,+03300,1,99,9",,"120,M,+0151,1","999,N,+0122,1","99999,9,10056,1","6,1,005,1,+999,9","SYN100AAXX  15061 02458 17968 /0205 10140 20126 30056 40081 56005 60052 70065 333 10151 20122 70061 83/61;",
"02458099999","2010-05-15T09:00:00","4","59.897328","17.588581","20.72","UPPSALA, SW","FM-12","ESCM ","V020","070,1,N,0040,1","99999,9,9,N","030000,1,N,1","+0191,1","+0138,1","10074,1",,,,,,,,,"99999,9,10050,1","8,1,007,1,+999,9","SYN060AAXX  15091 02458 45980 /0704 10191 20138 30050 40074 58007;",
"02458099999","2010-05-15T12:00:00","4","59.897328","17.588581","20.72","UPPSALA, SW","FM-12","ESCM ","V020","090,1,N,0060,1","99999,9,9,N","030000,1,N,1","+0237,1","+0120,1","10067,1",,,,,,,,,"99999,9,10043,1","7,1,007,1,+999,9","SYN060AAXX  15121 02458 45980 /0906 10237 20120 30043 40067 57007;",
"02458099999","2010-05-15T15:00:00","4","59.897328","17.588581","20.72","UPPSALA, SW","FM-12","ESCM ","V020","090,1,N,0060,1","99999,9,9,N","027000,1,N,1","+0237,1","+0106,1","10062,1",,,,,,,,,"99999,9,10038,1","8,1,005,1,+999,9","SYN060AAXX  15151 02458 45977 /0906 10237 20106 30038 40062 58005;",
"02458099999","2010-05-15T18:00:00","4","59.897328","17.588581","20.72","UPPSALA, SW","FM-12","ESCM ","V020","080,1,N,0040,1","99999,9,9,N","030000,1,N,1","+0185,1","+0096,1","10064,1",,,,,,,"120,M,+0246,1","999,N,+0140,1","99999,9,10040,1","3,1,002,1,+999,9","SYN076AAXX  15181 02458 35980 /0804 10185 20096 30040 40064 53002 333 10246 20140;",
"02458099999","2010-05-15T21:00:00","4","59.897328","17.588581","20.72","UPPSALA, SW","FM-12","ESCM ","V020","010,1,N,0030,1","99999,9,9,N","030000,1,N,1","+0139,1","+0098,1","10058,1",,,,,,,,,"99999,9,10034,1","7,1,006,1,+999,9","SYN060AAXX  15211 02458 45980 /0103 10139 20098 30034 40058 57006;",
"02458099999","2010-05-16T00:00:00","4","59.897328","17.588581","20.72","UPPSALA, SW","FM-12","ESCM ","V020","050,1,N,0020,1","03600,1,C,N","027000,1,N,1","+0114,1","+0091,1","10052,1",,,,,"07,1,+03600,1,99,9",,,,"99999,9,10027,1","6,1,006,1,+999,9","SYN070AAXX  16001 02458 45977 /0502 10114 20091 30027 40052 56006 333 87/62;",
"02458099999","2010-05-16T03:00:00","4","59.897328","17.588581","20.72","UPPSALA, SW","FM-12","ESCM ","V020","070,1,N,0020,1","02400,1,C,N","023000,1,N,1","+0106,1","+0086,1","10052,1",,,,,"08,1,+02400,1,99,9",,,,"99999,9,10027,1","5,1,001,1,+999,9","SYN070AAXX  16031 02458 45973 /0702 10106 20086 30027 40052 55001 333 88/58;",
"02458099999","2010-05-16T06:00:00","4","59.897328","17.588581","20.72","UPPSALA, SW","FM-12","ESCM ","V020","120,1,N,0030,1","00180,1,C,N","010000,1,N,1","+0110,1","+0102,1","10062,1","12,0010,9,1","24,0010,9,1","00,1","8,1,06,1","07,1,+00180,1,99,9",,"120,M,+0186,1","999,N,+0101,1","99999,9,10037,1","3,1,010,1,+999,9","SYN106AAXX  16061 02458 17360 /1203 10110 20102 30037 40062 53010 60012 70086 333 10186 20101 70010 87/06 88/08;",
"02458099999","2010-05-16T09:00:00","4","59.897328","17.588581","20.72","UPPSALA, SW","FM-12","ESCM ","V020","140,1,N,0060,1","00810,1,C,N","040000,1,N,1","+0144,1","+0098,1","10075,1",,,,,"05,1,+00810,1,99,9",,,,"99999,9,10051,1","2,1,013,1,+999,9","SYN076AAXX  16091 02458 45582 /1406 10144 20098 30051 40075 52013 333 85/27 87/36;",
"02458099999","2010-05-16T12:00:00","4","59.897328","17.588581","20.72","UPPSALA, SW","FM-12","ESCM ","V020","170,1,N,0040,1","00930,1,C,N","045000,1,N,1","+0142,1","+0086,1","10090,1",,,,,"08,1,+00930,1,99,9",,,,"99999,9,10066,1","1,1,015,1,+999,9","SYN070AAXX  16121 02458 45583 /1704 10142 20086 30066 40090 51015 333 88/31;",
"02458099999","2010-05-16T15:00:00","4","59.897328","17.588581","20.72","UPPSALA, SW","FM-12","ESCM ","V020","180,1,N,0030,1","99999,9,9,N","045000,1,N,1","+0152,1","+0069,1","10089,1",,,,,,,,,"99999,9,10064,1","7,1,002,1,+999,9","SYN060AAXX  16151 02458 45983 /1803 10152 20069 30064 40089 57002;",
"02458099999","2010-05-16T18:00:00","4","59.897328","17.588581","20.72","UPPSALA, SW","FM-12","ESCM ","V020","220,1,N,0030,1","99999,9,9,N","050000,1,N,1","+0132,1","+0069,1","10094,1",,,,,,,"120,M,+0159,1","999,N,+0110,1","99999,9,10069,1","2,1,005,1,+999,9","SYN076AAXX  16181 02458 35984 /2203 10132 20069 30069 40094 52005 333 10159 20110;",
"02458099999","2010-05-16T21:00:00","4","59.897328","17.588581","20.72","UPPSALA, SW","FM-12","ESCM ","V020","999,9,C,0000,1","99999,9,9,N","030000,1,N,1","+0081,1","+0060,1","10101,1",,,,,,,,,"99999,9,10076,1","2,1,007,1,+999,9","SYN060AAXX  16211 02458 45980 /0000 10081 20060 30076 40101 52007;",
"02458099999","2010-05-17T00:00:00","4","59.897328","17.588581","20.72","UPPSALA, SW","FM-12","ESCM ","V020","999,9,C,0000,1","99999,9,9,N","008000,1,N,1","+0052,1","+0048,1","10107,1",,,"10,1","2,1,06,1",,,,,"99999,9,10081,1","2,1,005,1,+999,9","SYN066AAXX  17001 02458 47958 /0000 10052 20048 30081 40107 52005 71010;",
"02458099999","2010-05-17T03:00:00","4","59.897328","17.588581","20.72","UPPSALA, SW","FM-12","ESCM ","V020","020,1,N,0010,1","99999,9,9,N","010000,1,N,1","+0040,1","+0037,1","10111,1",,,,,,,,,"99999,9,10085,1","2,1,004,1,+999,9","SYN060AAXX  17031 02458 45960 /0201 10040 20037 30085 40111 52004;",
"02458099999","2010-05-17T06:00:00","4","59.897328","17.588581","20.72","UPPSALA, SW","FM-12","ESCM ","V020","310,1,N,0020,1","99999,9,9,N","029000,1,N,1","+0121,1","+0076,1","10111,1",,,,,,,"120,M,+0132,1","999,N,+0033,1","99999,9,10086,1","4,1,000,1,+999,9","SYN076AAXX  17061 02458 35979 /3102 10121 20076 30086 40111 54001 333 10132 20033;",
"02458099999","2010-05-17T09:00:00","4","59.897328","17.588581","20.72","UPPSALA, SW","FM-12","ESCM ","V020","350,1,N,0010,1","99999,9,9,N","030000,1,N,1","+0159,1","+0084,1","10114,1",,,,,,,,,"99999,9,10090,1","0,1,003,1,+999,9","SYN060AAXX  17091 02458 45980 /3501 10159 20084 30090 40114 50003;",
"02458099999","2010-05-17T12:00:00","4","59.897328","17.588581","20.72","UPPSALA, SW","FM-12","ESCM ","V020","060,1,N,0010,1","02400,1,C,N","045000,1,N,1","+0186,1","+0063,1","10113,1",,,,,"08,1,+02400,1,99,9",,,,"99999,9,10089,1","8,1,001,1,+999,9","SYN070AAXX  17121 02458 45883 /0601 10186 20063 30089 40113 58001 333 88/58;",
"02458099999","2010-05-17T15:00:00","4","59.897328","17.588581","20.72","UPPSALA, SW","FM-12","ESCM ","V020","120,1,N,0010,1","99999,9,9,N","045000,1,N,1","+0214,1","+0081,1","10108,1",,,,,,,,,"99999,9,10084,1","7,1,004,1,+999,9","SYN060AAXX  17151 02458 45983 /1201 10214 20081 30084 40108 57004;",
"02458099999","2010-05-17T18:00:00","4","59.897328","17.588581","20.72","UPPSALA, SW","FM-12","ESCM ","V020","070,1,N,0040,1","99999,9,9,N","045000,1,N,1","+0197,1","+0114,1","10117,1",,,,,,,"120,M,+0225,1","999,N,+0120,1","99999,9,10092,1","3,1,008,1,+999,9","SYN076AAXX  17181 02458 35983 /0704 10197 20114 30092 40117 53008 333 10225 20120;",
"02458099999","2010-05-17T21:00:00","4","59.897328","17.588581","20.72","UPPSALA, SW","FM-12","ESCM ","V020","040,1,N,0010,1","99999,9,9,N","050000,1,N,1","+0144,1","+0101,1","10131,1",,,,,,,,,"99999,9,10106,1","1,1,014,1,+999,9","SYN060AAXX  17211 02458 45984 /0401 10144 20101 30106 40131 51014;",
"02458099999","2010-05-18T00:00:00","4","59.897328","17.588581","20.72","UPPSALA, SW","FM-12","ESCM ","V020","340,1,N,0010,1","99999,9,9,N","035000,1,N,1","+0106,1","+0090,1","10141,1",,,,,,,,,"99999,9,10116,1","3,1,009,1,+999,9","SYN060AAXX  18001 02458 45981 /3401 10106 20090 30116 40141 53009;",
"02458099999","2010-05-18T03:00:00","4","59.897328","17.588581","20.72","UPPSALA, SW","FM-12","ESCM ","V020","350,1,N,0020,1","99999,9,9,N","024000,1,N,1","+0099,1","+0085,1","10148,1",,,,,,,,,"99999,9,10123,1","3,1,008,1,+999,9","SYN060AAXX  18031 02458 45974 /3502 10099 20085 30123 40148 53008;",
"02458099999","2010-05-18T06:00:00","4","59.897328","17.588581","20.72","UPPSALA, SW","FM-12","ESCM ","V020","010,1,N,0030,1","99999,9,9,N","027000,1,N,1","+0135,1","+0111,1","10160,1",,,,,"01,1,+03600,1,99,9",,"120,M,+0199,1","999,N,+0093,1","99999,9,10135,1","3,1,011,1,+999,9","SYN082AAXX  18060 02458 35977 /0103 10135 20111 30135 40160 53011 333 10199 20093 81/62;",
"02458099999","2010-05-18T09:00:00","4","59.897328","17.588581","20.72","UPPSALA, SW","FM-12","ESCM ","V020","020,1,N,0050,1","99999,9,9,N","026000,1,N,1","+0173,1","+0126,1","10169,1",,,,,"01,1,+03900,1,99,9",,,,"99999,9,10144,1","2,1,010,1,+999,9","SYN070AAXX  18091 02458 45976 /0205 10173 20126 30144 40169 52010 333 81/63;",
"02458099999","2010-05-18T12:00:00","4","59.897328","17.588581","20.72","UPPSALA, SW","FM-12","ESCM ","V020","350,1,N,0060,1","99999,9,9,N","030000,1,N,1","+0200,1","+0131,1","10173,1",,,,,"03,1,+02100,1,99,9",,,,"99999,9,10149,1","2,1,005,1,+999,9","SYN070AAXX  18121 02458 45880 /3506 10200 20131 30149 40173 52005 333 83/57;",
"02458099999","2010-05-18T15:00:00","4","59.897328","17.588581","20.72","UPPSALA, SW","FM-12","ESCM ","V020","360,1,N,0060,1","99999,9,9,N","024000,1,N,1","+0197,1","+0138,1","10178,1",,,,,,,,,"99999,9,10153,1","0,1,004,1,+999,9","SYN060AAXX  18151 02458 45974 /3606 10197 20138 30153 40178 50004;",
"02458099999","2010-05-18T18:00:00","4","59.897328","17.588581","20.72","UPPSALA, SW","FM-12","ESCM ","V020","010,1,N,0040,1","00630,1,C,N","024000,1,N,1","+0172,1","+0139,1","10193,1",,,,,"06,1,+00630,1,99,9","07,1,+00870,1,99,9","120,M,+0208,1","999,N,+0135,1","99999,9,10169,1","3,1,015,1,+999,9","SYN094AAXX  18181 02458 35574 /0104 10172 20139 30169 40193 53015 333 10208 20135 86/21 87/29 88/38;",
"02458099999","2010-05-18T21:00:00","4","59.897328","17.588581","20.72","UPPSALA, SW","FM-12","ESCM ","V020","350,1,N,0030,1","99999,9,9,N","022000,1,N,1","+0150,1","+0133,1","10199,1",,,"00,1","8,1,03,1","01,1,+01500,1,99,9",,,,"99999,9,10174,1","0,1,006,1,+999,9","SYN082AAXX  18211 02458 47772 /3503 10150 20133 30174 40199 50006 70086 333 81/50 88/57;",
"02458099999","2010-05-19T00:00:00","4","59.897328","17.588581","20.72","UPPSALA, SW","FM-12","ESCM ","V020","350,1,N,0030,1","99999,9,9,N","026000,1,N,1","+0135,1","+0115,1","10204,1",,,"00,1","8,1,06,1","02,1,+01500,1,99,9",,,,"99999,9,10179,1","2,1,005,1,+999,9","SYN082AAXX  19001 02458 47776 /3503 10135 20115 30179 40204 52005 70086 333 82/50 88/57;",
"02458099999","2010-05-19T03:00:00","4","59.897328","17.588581","20.72","UPPSALA, SW","FM-12","ESCM ","V020","350,1,N,0060,1","00120,1,C,N","009000,1,N,1","+0127,1","+0121,1","10202,1",,,"10,1","2,1,03,1","09,1,+00120,1,99,9",,,,"99999,9,10176,1","7,1,002,1,+999,9","SYN076AAXX  19031 02458 47/59 /3506 10127 20121 30176 40202 57002 71010 333 89/04;",
"02458099999","2010-05-19T06:00:00","4","59.897328","17.588581","20.72","UPPSALA, SW","FM-12","ESCM ","V020","340,1,N,0060,1","00120,1,C,N","014000,1,N,1","+0130,1","+0123,1","10209,1","12,0000,9,1","24,0003,9,1",,,"08,1,+00120,1,99,9",,"120,M,+0172,1","999,N,+0122,1","99999,9,10184,1","0,1,008,1,+999,9","SYN094AAXX  19061 02458 15264 /3406 10130 20123 30184 40209 50008 69922 333 10172 20122 70002 88/04;","Q01  00002PRCP12"
"02458099999","2010-05-19T09:00:00","4","59.897328","17.588581","20.72","UPPSALA, SW","FM-12","ESCM ","V020","360,1,N,0040,1","99999,9,9,N","025000,1,N,1","+0158,1","+0133,1","10220,1",,,,,"02,1,+00270,1,99,9",,,,"99999,9,10196,1","1,1,011,1,+999,9","SYN076AAXX  19091 02458 45375 /3604 10158 20133 30196 40220 51011 333 82/09 84/12;",
"02458099999","2010-05-19T12:00:00","4","59.897328","17.588581","20.72","UPPSALA, SW","FM-12","ESCM ","V020","340,1,N,0050,1","99999,9,9,N","027000,1,N,1","+0198,1","+0143,1","10219,1",,,,,,,,,"99999,9,10195,1","7,1,001,1,+999,9","SYN060AAXX  19121 02458 45977 /3405 10198 20143 30195 40219 57001;",
"02458099999","2010-05-19T15:00:00","4","59.897328","17.588581","20.72","UPPSALA, SW","FM-12","ESCM ","V020","360,1,N,0040,1","01050,1,C,N","030000,1,N,1","+0195,1","+0146,1","10227,1",,,,,"07,1,+01050,1,99,9",,,,"99999,9,10202,1","2,1,008,1,+999,9","SYN070AAXX  19151 02458 45680 /3604 10195 20146 30202 40227 52008 333 87/35;",
"02458099999","2010-05-19T18:00:00","4","59.897328","17.588581","20.72","UPPSALA, SW","FM-12","ESCM ","V020","010,1,N,0040,1","03600,1,C,N","022000,1,N,1","+0184,1","+0141,1","10235,1",,,,,"07,1,+03600,1,99,9",,"120,M,+0213,1","999,N,+0128,1","99999,9,10211,1","3,1,008,1,+999,9","SYN082AAXX  19181 02458 35972 /0104 10184 20141 30211 40235 53008 333 10213 20128 87/62;",
"02458099999","2010-05-19T21:00:00","4","59.897328","17.588581","20.72","UPPSALA, SW","FM-12","ESCM ","V020","040,1,N,0020,1","03300,1,C,N","030000,1,N,1","+0153,1","+0132,1","10249,1",,,,,"08,1,+03300,1,99,9",,,,"99999,9,10225,1","2,1,014,1,+999,9","SYN070AAXX  19211 02458 45980 /0402 10153 20132 30225 40249 52014 333 88/61;",
"02458099999","2010-05-20T00:00:00","4","59.897328","17.588581","20.72","UPPSALA, SW","FM-12","ESCM ","V020","340,1,N,0030,1","00090,1,C,N","004200,1,N,1","+0123,1","+0118,1","10252,1",,,"10,1","2,1,06,1","09,1,+00090,1,99,9",,,,"99999,9,10227,1","2,1,002,1,+999,9","SYN076AAXX  20001 02458 47/42 /3403 10123 20118 30227 40252 52002 71010 333 89/03;",
"02458099999","2010-05-20T03:00:00","4","59.897328","17.588581","20.72","UPPSALA, SW","FM-12","ESCM ","V020","330,1,N,0020,1","00060,1,C,N","001500,1,N,1","+0110,1","+0107,1","10252,1",,,"20,1","4,1,03,1","09,1,+00060,1,99,9",,,,"99999,9,10226,1","4,1,000,1,+999,9","SYN076AAXX  20031 02458 47/15 /3302 10110 20107 30226 40252 54000 72032 333 89/02;",
"02458099999","2010-05-20T06:00:00","4","59.897328","17.588581","20.72","UPPSALA, SW","FM-12","ESCM ","V020","010,1,N,0010,1","99999,9,9,N","019000,1,N,1","+0156,1","+0128,1","10255,1",,,"00,1","4,1,06,1",,,"120,M,+0184,1","999,N,+0108,1","99999,9,10230,1","2,1,004,1,+999,9","SYN082AAXX  20061 02458 37969 /0101 10156 20128 30230 40255 52004 70032 333 10184 20108;",
"02458099999","2010-05-20T09:00:00","4","59.897328","17.588581","20.72","UPPSALA, SW","FM-12","ESCM ","V020","010,1,N,0020,1","99999,9,9,N","022000,1,N,1","+0206,1","+0137,1","10255,1",,,,,,,,,"99999,9,10231,1","4,1,000,1,+999,9","SYN060AAXX  20091 02458 45972 /0102 10206 20137 30231 40255 54000;",
"02458099999","2010-05-20T12:00:00","4","59.897328","17.588581","20.72","UPPSALA, SW","FM-12","ESCM ","V020","080,1,N,0020,1","99999,9,9,N","025000,1,N,1","+0236,1","+0131,1","10246,1",,,,,"01,1,+01500,1,99,9",,,,"99999,9,10221,1","7,1,009,1,+999,9","SYN070AAXX  20120 02458 45775 /0802 10236 20131 30221 40246 57009 333 81/50;",
"02458099999","2010-05-20T15:00:00","4","59.897328","17.588581","20.72","UPPSALA, SW","FM-12","ESCM ","V020","060,1,N,0030,1","99999,9,9,N","025000,1,N,1","+0240,1","+0109,1","10236,1",,,,,"03,1,+02100,1,99,9",,,,"99999,9,10212,1","6,1,009,1,+999,9","SYN070AAXX  20151 02458 45875 /0603 10240 20109 30212 40236 56009 333 83/57;",
"02458099999","2010-05-20T18:00:00","4","59.897328","17.588581","20.72","UPPSALA, SW","FM-12","ESCM ","V020","060,1,N,0020,1","99999,9,9,N","025000,1,N,1","+0200,1","+0109,1","10236,1",,,,,"02,1,+01800,1,99,9",,"120,M,+0248,1","999,N,+0155,1","99999,9,10212,1","4,1,000,1,+999,9","SYN082AAXX  20181 02458 35775 /0602 10200 20109 30212 40236 54000 333 10248 20155 82/56;",
"02458099999","2010-05-20T21:00:00","4","59.897328","17.588581","20.72","UPPSALA, SW","FM-12","ESCM ","V020","999,9,C,0000,1","99999,9,9,N","016000,1,N,1","+0139,1","+0121,1","10246,1",,,,,"01,1,+01800,1,99,9",,,,"99999,9,10221,1","2,1,009,1,+999,9","SYN070AAXX  20211 02458 45866 /0000 10139 20121 30221 40246 52009 333 81/56;",
"02458099999","2010-05-21T00:00:00","4","59.897328","17.588581","20.72","UPPSALA, SW","FM-12","ESCM ","V020","030,1,N,0030,1","99999,9,9,N","016000,1,N,1","+0140,1","+0120,1","10249,1",,,,,"02,1,+01500,1,99,9",,,,"99999,9,10224,1","2,1,003,1,+999,9","SYN076AAXX  21001 02458 45766 /0303 10140 20120 30224 40249 52003 333 82/50 86/56;",
"02458099999","2010-05-21T03:00:00","4","59.897328","17.588581","20.72","UPPSALA, SW","FM-12","ESCM ","V020","310,1,N,0020,1","01500,1,C,N","015000,1,N,1","+0117,1","+0107,1","10254,1",,,,,"07,1,+01500,1,99,9",,,,"99999,9,10229,1","3,1,005,1,+999,9","SYN076AAXX  21031 02458 45765 /3102 10117 20107 30229 40254 53005 333 87/50 88/57;",
"02458099999","2010-05-21T06:00:00","4","59.897328","17.588581","20.72","UPPSALA, SW","FM-12","ESCM ","V020","030,1,N,0050,1","01500,1,C,N","030000,1,N,1","+0157,1","+0120,1","10253,1",,,,,"08,1,+01500,1,99,9",,"120,M,+0200,1","999,N,+0109,1","99999,9,10228,1","4,1,000,1,+999,9","SYN082AAXX  21061 02458 35780 /0305 10157 20120 30228 40253 54000 333 10200 20109 88/50;",
"02458099999","2010-05-21T09:00:00","4","59.897328","17.588581","20.72","UPPSALA, SW","FM-12","ESCM ","V020","030,1,N,0040,1","01800,1,C,N","030000,1,N,1","+0173,1","+0104,1","10259,1",,,,,"02,1,+01230,1,99,9","06,1,+01800,1,99,9",,,"99999,9,10235,1","2,1,006,1,+999,9","SYN082AAXX  21091 02458 45680 /0304 10173 20104 30235 40259 52006 333 82/41 86/56 87/58;",
"02458099999","2010-05-21T12:00:00","4","59.897328","17.588581","20.72","UPPSALA, SW","FM-12","ESCM ","V020","030,1,N,0040,1","02100,1,C,N","035000,1,N,1","+0190,1","+0109,1","10258,1",,,,,"06,1,+02100,1,99,9",,,,"99999,9,10233,1","5,1,002,1,+999,9","SYN070AAXX  21121 02458 45881 /0304 10190 20109 30233 40258 55002 333 86/57;",
"02458099999","2010-05-21T15:00:00","4","59.897328","17.588581","20.72","UPPSALA, SW","FM-12","ESCM ","V020","020,1,N,0050,1","99999,9,9,N","035000,1,N,1","+0187,1","+0101,1","10252,1",,,,,"01,1,+02100,1,99,9",,,,"99999,9,10228,1","7,1,005,1,+999,9","SYN070AAXX  21151 02458 45881 /0205 10187 20101 30228 40252 57005 333 81/57;",
"02458099999","2010-05-21T18:00:00","4","59.897328","17.588581","20.72","UPPSALA, SW","FM-12","ESCM ","V020","050,1,N,0040,1","99999,9,9,N","050000,1,N,1","+0156,1","+0084,1","10256,1",,,,,,,"120,M,+0199,1","999,N,+0155,1","99999,9,10231,1","3,1,003,1,+999,9","SYN076AAXX  21181 02458 35984 /0504 10156 20084 30231 40256 53003 333 10199 20155;",
"02458099999","2010-05-21T21:00:00","4","59.897328","17.588581","20.72","UPPSALA, SW","FM-12","ESCM ","V020","280,1,N,0010,1","99999,9,9,N","050000,1,N,1","+0111,1","+0078,1","10258,1",,,,,"02,1,+01800,1,99,9",,,,"99999,9,10232,1","0,1,002,1,+999,9","SYN076AAXX  21211 02458 45884 /2801 10111 20078 30232 40258 50002 333 82/56 86/58;",
"02458099999","2010-05-22T00:00:00","4","59.897328","17.588581","20.72","UPPSALA, SW","FM-12","ESCM ","V020","310,1,N,0010,1","02100,1,C,N","050000,1,N,1","+0113,1","+0079,1","10254,1",,,,,"07,1,+02100,1,99,9",,,,"99999,9,10229,1","7,1,003,1,+999,9","SYN076AAXX  22001 02458 45884 /3101 10113 20079 30229 40254 57003 333 87/57 88/59;",
"02458099999","2010-05-22T03:00:00","4","59.897328","17.588581","20.72","UPPSALA, SW","FM-12","ESCM ","V020","310,1,N,0020,1","99999,9,9,N","023000,1,N,1","+0116,1","+0094,1","10248,1",,,"61,1","6,1,03,1","02,1,+01500,1,99,9",,,,"99999,9,10222,1","8,1,007,1,+999,9","SYN082AAXX  22031 02458 47773 /3102 10116 20094 30222 40248 58007 76165 333 82/50 85/58;",
"02458099999","2010-05-22T06:00:00","4","59.897328","17.588581","20.72","UPPSALA, SW","FM-12","ESCM ","V020","310,1,N,0030,1","03000,1,C,N","035000,1,N,1","+0143,1","+0114,1","10244,1",,,"00,1","8,1,06,1","05,1,+03000,1,99,9",,"120,M,+0156,1","999,N,+0106,1","99999,9,10218,1","6,1,004,1,+999,9","SYN088AAXX  22060 02458 37981 /3103 10143 20114 30218 40244 56004 70086 333 10156 20106 85/60;",
"02458099999","2010-05-22T09:00:00","4","59.897328","17.588581","20.72","UPPSALA, SW","FM-12","ESCM ","V020","360,1,N,0030,1","99999,9,9,N","035000,1,N,1","+0194,1","+0060,1","10236,1",,,,,,,,,"99999,9,10211,1","7,1,008,1,+999,9","SYN060AAXX  22091 02458 45981 /3603 10194 20060 30211 40236 57008;",
"02458099999","2010-05-22T12:00:00","4","59.897328","17.588581","20.72","UPPSALA, SW","FM-12","ESCM ","V020","330,1,N,0040,1","99999,9,9,N","035000,1,N,1","+0214,1","+0057,1","10220,1",,,,,,,,,"99999,9,10196,1","7,1,016,1,+999,9","SYN060AAXX  22121 02458 45981 /3304 10214 20057 30196 40220 57016;",
"02458099999","2010-05-22T15:00:00","4","59.897328","17.588581","20.72","UPPSALA, SW","FM-12","ESCM ","V020","340,1,N,0020,1","99999,9,9,N","040000,1,N,1","+0218,1","+0059,1","10197,1",,,,,"02,1,+02100,1,99,9",,,,"99999,9,10173,1","7,1,023,1,+999,9","SYN076AAXX  22151 02458 45882 /3402 10218 20059 30173 40197 57023 333 82/57 83/70;",
"02458099999","2010-05-22T18:00:00","4","59.897328","17.588581","20.72","UPPSALA, SW","FM-12","ESCM ","V020","100,1,N,0020,1","99999,9,9,N","045000,1,N,1","+0186,1","+0070,1","10183,1",,,,,,,"120,M,+0232,1","999,N,+0143,1","99999,9,10158,1","7,1,014,1,+999,9","SYN076AAXX  22181 02458 35983 /1002 10186 20070 30158 40183 57014 333 10232 20143;",
"02458099999","2010-05-22T21:00:00","4","59.897328","17.588581","20.72","UPPSALA, SW","FM-12","ESCM ","V020","130,1,N,0030,1","99999,9,9,N","050000,1,N,1","+0156,1","+0062,1","10170,1",,,,,"02,1,+02100,1,99,9",,,,"99999,9,10146,1","8,1,013,1,+999,9","SYN076AAXX  22211 02458 45884 /1303 10156 20062 30146 40170 58013 333 82/57 85/63;",
"02458099999","2010-05-23T00:00:00","4","59.897328","17.588581","20.72","UPPSALA, SW","FM-12","ESCM ","V020","260,1,N,0020,1","02100,1,C,N","028000,1,N,1","+0118,1","+0097,1","10162,1",,,"23,1","8,1,06,1","06,1,+02100,1,99,9",,,,"99999,9,10137,1","5,1,009,1,+999,9","SYN076AAXX  23001 02458 47878 /2602 10118 20097 30137 40162 55009 72386 333 86/57;",
"02458099999","2010-05-23T03:00:00","4","59.897328","17.588581","20.72","UPPSALA, SW","FM-12","ESCM ","V020","080,1,N,0010,1","01500,1,C,N","014000,1,N,1","+0115,1","+0104,1","10136,1",,,"61,1","8,1,03,1","08,1,+01500,1,99,9",,,,"99999,9,10111,1","8,1,026,1,+999,9","SYN076AAXX  23031 02458 47764 /0801 10115 20104 30111 40136 58026 76186 333 88/50;",
"02458099999","2010-05-23T06:00:00","4","59.897328","17.588581","20.72","UPPSALA, SW","FM-12","ESCM ","V020","150,1,N,0020,1","01080,1,C,N","019000,1,N,1","+0112,1","+0100,1","10106,1","12,0030,9,2","24,0025,9,2","52,1","8,1,06,1","06,1,+01080,1,99,9",,"120,M,+0186,1","999,N,+0111,1","99999,9,10081,1","7,1,030,1,+999,9","SYN112AAXX  23061 02458 07669 /1502 10112 20100 30081 40106 57030 60032 75286 333 10186 20111 69935 70025 86/36 88/50;",
"02458099999","2010-05-23T09:00:00","4","59.897328","17.588581","20.72","UPPSALA, SW","FM-12","ESCM ","V020","110,1,N,0040,1","00210,1,C,N","004900,1,N,1","+0107,1","+0101,1","10067,1",,,"61,1","8,1,03,1","08,1,+00210,1,99,9",,,,"99999,9,10043,1","8,1,039,1,+999,9","SYN076AAXX  23091 02458 47349 /1104 10107 20101 30043 40067 58039 76186 333 88/07;",
"02458099999","2010-05-23T12:00:00","4","59.897328","17.588581","20.72","UPPSALA, SW","FM-12","ESCM ","V020","350,1,N,0050,1","00390,1,C,N","030000,1,N,1","+0104,1","+0097,1","10048,1",,,"61,1","8,1,06,1","03,1,+00240,1,99,9","05,1,+00390,1,99,9",,,"99999,9,10023,1","5,1,020,1,+999,9","SYN088AAXX  23121 02458 47380 /3505 10104 20097 30023 40048 55020 76186 333 83/08 85/13 88/24;",
"02458099999","2010-05-23T15:00:00","4","59.897328","17.588581","20.72","UPPSALA, SW","FM-12","ESCM ","V020","320,1,N,0070,1","00630,1,C,N","011000,1,N,1","+0090,1","+0076,1","10057,1",,,"62,1","8,1,03,1","03,1,+00420,1,99,9","07,1,+00630,1,99,9",,,"99999,9,10031,1","1,1,009,1,+999,9","SYN088AAXX  23151 02458 47461 /3207 10090 20076 30031 40057 51009 76286 333 83/14 87/21 88/30;",
"02458099999","2010-05-23T18:00:00","4","59.897328","17.588581","20.72","UPPSALA, SW","FM-12","ESCM ","V020","310,1,N,0050,1","00450,1,C,N","017000,1,N,1","+0087,1","+0074,1","10055,1","12,0119,9,1",,"22,1","8,1,06,1","02,1,+00330,1,99,9","06,1,+00450,1,99,9","120,M,+0115,1","999,N,+0082,1","99999,9,10030,1","8,1,002,1,+999,9","SYN112AAXX  23181 02458 07467 /3105 10087 20074 30030 40055 58002 60122 72286 333 10115 20082 69915 82/11 86/15 87/25;",
"02458099999","2010-05-23T21:00:00","4","59.897328","17.588581","20.72","UPPSALA, SW","FM-12","ESCM ","V020","310,1,N,0040,1","99999,9,9,N","026000,1,N,1","+0093,1","+0081,1","10045,1",,,"22,1","8,1,03,1","01,1,+01050,1,99,9",,,,"99999,9,10020,1","8,1,010,1,+999,9","SYN082AAXX  23211 02458 47676 /3104 10093 20081 30020 40045 58010 72286 333 81/35 88/57;",
"02458099999","2010-05-24T00:00:00","4","59.897328","17.588581","20.72","UPPSALA, SW","FM-12","ESCM ","V020","310,1,N,0040,1","99999,9,9,N","050000,1,N,1","+0084,1","+0055,1","10037,1",,,"00,1","8,1,06,1","01,1,+01500,1,99,9",,,,"99999,9,10012,1","7,1,008,1,+999,9","SYN082AAXX  24001 02458 47784 /3104 10084 20055 30012 40037 57008 70086 333 81/50 88/58;",
"02458099999","2010-05-24T03:00:00","4","59.897328","17.588581","20.72","UPPSALA, SW","FM-12","ESCM ","V020","290,1,N,0040,1","99999,9,9,N","050000,1,N,1","+0057,1","+0030,1","10029,1",,,,,,,,,"99999,9,10004,1","8,1,009,1,+999,9","SYN060AAXX  24031 02458 45984 /2904 10057 20030 30004 40029 58009;",
"02458099999","2010-05-24T06:00:00","4","59.897328","17.588581","20.72","UPPSALA, SW","FM-12","ESCM ","V020","310,1,N,0070,1","99999,9,9,N","050000,1,N,1","+0086,1","+0019,1","10021,1","12,0000,2,1","24,0122,9,1",,,,,"120,M,+0095,1","999,N,+0055,1","99999,9,09996,1","7,1,007,1,+999,9","SYN088AAXX  24061 02458 15984 /3107 10086 20019 39996 40021 57007 69912 333 10095 20055 70122;",
"02458099999","2010-05-24T09:00:00","4","59.897328","17.588581","20.72","UPPSALA, SW","FM-12","ESCM ","V020","290,1,N,0070,1","99999,9,9,N","035000,1,N,1","+0115,1","+0020,1","10011,1",,,,,,,,,"99999,9,09986,1","7,1,011,1,+999,9","SYN060AAXX  24091 02458 45981 /2907 10115 20020 39986 40011 57011;",
"02458099999","2010-05-24T12:00:00","4","59.897328","17.588581","20.72","UPPSALA, SW","FM-12","ESCM ","V020","330,1,N,0040,1","99999,9,9,N","035000,1,N,1","+0136,1","+0005,1","10002,1",,,,,,,,,"99999,9,09977,1","7,1,009,1,+999,9","SYN060AAXX  24121 02458 45981 /3304 10136 20005 39977 40002 57009;",
"02458099999","2010-05-24T15:00:00","4","59.897328","17.588581","20.72","UPPSALA, SW","FM-12","ESCM ","V020","290,1,N,0030,1","99999,9,9,N","040000,1,N,1","+0150,1","+0015,1","09988,1",,,,,,,,,"99999,9,09964,1","7,1,014,1,+999,9","SYN060AAXX  24151 02458 45982 /2903 10150 20015 39964 49988 57014;",
"02458099999","2010-05-24T18:00:00","4","59.897328","17.588581","20.72","UPPSALA, SW","FM-12","ESCM ","V020","260,1,N,0020,1","99999,9,9,N","050000,1,N,1","+0130,1","+0022,1","09979,1",,,,,"01,1,+02100,1,99,9",,"120,M,+0154,1","999,N,+0086,1","99999,9,09954,1","7,1,009,1,+999,9","SYN082AAXX  24181 02458 35884 /2602 10130 20022 39954 49979 57009 333 10154 20086 81/57;",
"02458099999","2010-05-24T21:00:00","4","59.897328","17.588581","20.72","UPPSALA, SW","FM-12","ESCM ","V020","130,1,N,0040,1","99999,9,9,N","050000,1,N,1","+0075,1","+0040,1","09973,1",,,,,,,,,"99999,9,09948,1","7,1,006,1,+999,9","SYN060AAXX  24211 02458 45984 /1304 10075 20040 39948 49973 57006;",
"02458099999","2010-05-25T00:00:00","4","59.897328","17.588581","20.72","UPPSALA, SW","FM-12","ESCM ","V020","050,1,N,0020,1","02400,1,C,N","035000,1,N,1","+0047,1","+0033,1","09963,1",,,,,"06,1,+02400,1,99,9",,,,"99999,9,09938,1","8,1,011,1,+999,9","SYN076AAXX  25001 02458 45981 /0502 10047 20033 39938 49963 58011 333 86/58 87/66;",
"02458099999","2010-05-25T03:00:00","4","59.897328","17.588581","20.72","UPPSALA, SW","FM-12","ESCM ","V020","010,1,N,0020,1","01500,1,C,N","030000,1,N,1","+0059,1","+0044,1","09950,1",,,"51,1","6,1,03,1","06,1,+01500,1,99,9",,,,"99999,9,09925,1","8,1,013,1,+999,9","SYN076AAXX  25031 02458 47780 /0102 10059 20044 39925 49950 58013 75165 333 86/50;",
"02458099999","2010-05-25T06:00:00","4","59.897328","17.588581","20.72","UPPSALA, SW","FM-12","ESCM ","V020","030,1,N,0040,1","99999,9,9,N","050000,1,N,1","+0083,1","+0040,1","09948,1",,,"00,1","8,1,06,1","03,1,+01500,1,99,9",,"120,M,+0134,1","999,N,+0035,1","99999,9,09924,1","5,1,001,1,+999,9","SYN094AAXX  25061 02458 37784 /0304 10083 20040 39924 49948 55001 70086 333 10134 20035 83/50 85/57;",
"02458099999","2010-05-25T09:00:00","4","59.897328","17.588581","20.72","UPPSALA, SW","FM-12","ESCM ","V020","030,1,N,0070,1","00990,1,C,N","029000,1,N,1","+0091,1","+0043,1","09956,1",,,"81,1","8,1,03,1","09,1,+00990,1,99,9",,,,"99999,9,09931,1","1,1,007,1,+999,9","SYN076AAXX  25091 02458 47/79 /0307 10091 20043 39931 49956 51007 78186 333 89/33;",
"02458099999","2010-05-25T12:00:00","4","59.897328","17.588581","20.72","UPPSALA, SW","FM-12","ESCM ","V020","030,1,N,0060,1","01800,1,C,N","045000,1,N,1","+0097,1","+0042,1","09967,1",,,"00,1","8,1,06,1","07,1,+01800,1,99,9",,,,"99999,9,09942,1","2,1,011,1,+999,9","SYN082AAXX  25120 02458 47783 /0306 10097 20042 39942 49967 52011 70086 333 87/56 88/57;",
"02458099999","2010-05-25T15:00:00","4","59.897328","17.588581","20.72","UPPSALA, SW","FM-12","ESCM ","V020","050,1,N,0080,1","99999,9,9,N","040000,1,N,1","+0130,1","+0029,1","09975,1",,,,,"04,1,+01800,1,99,9",,,,"99999,9,09951,1","2,1,009,1,+999,9","SYN070AAXX  25151 02458 45782 /0508 10130 20029 39951 49975 52009 333 84/56;",
"02458099999","2010-05-25T18:00:00","4","59.897328","17.588581","20.72","UPPSALA, SW","FM-12","ESCM ","V020","050,1,N,0020,1","02100,1,C,N","050000,1,N,1","+0107,1","+0016,1","09992,1","12,0005,9,1",,,,"08,1,+02100,1,99,9",,"120,M,+0134,1","999,N,+0083,1","99999,9,09967,1","2,1,016,1,+999,9","SYN088AAXX  25181 02458 15884 /0502 10107 20016 39967 49992 52016 69952 333 10134 20083 88/57;",
"02458099999","2010-05-25T21:00:00","4","59.897328","17.588581","20.72","UPPSALA, SW","FM-12","ESCM ","V020","320,1,N,0010,1","02100,1,C,N","050000,1,N,1","+0085,1","+0047,1","10003,1",,,,,"08,1,+02100,1,99,9",,,,"99999,9,09978,1","2,1,011,1,+999,9","SYN070AAXX  25211 02458 45884 /3201 10085 20047 39978 40003 52011 333 88/57;",
"02458099999","2010-05-26T00:00:00","4","59.897328","17.588581","20.72","UPPSALA, SW","FM-12","ESCM ","V020","300,1,N,0020,1","99999,9,9,N","050000,1,N,1","+0047,1","+0034,1","10012,1",,,,,,,,,"99999,9,09986,1","2,1,008,1,+999,9","SYN060AAXX  26001 02458 45984 /3002 10047 20034 39986 40012 52008;",
"02458099999","2010-05-26T03:00:00","4","59.897328","17.588581","20.72","UPPSALA, SW","FM-12","ESCM ","V020","310,1,N,0020,1","99999,9,9,N","045000,1,N,1","+0053,1","+0028,1","10023,1",,,,,,,,,"99999,9,09998,1","2,1,012,1,+999,9","SYN060AAXX  26031 02458 45983 /3102 10053 20028 39998 40023 52012;",
"02458099999","2010-05-26T06:00:00","4","59.897328","17.588581","20.72","UPPSALA, SW","FM-12","ESCM ","V020","350,1,N,0030,1","99999,9,9,N","045000,1,N,1","+0096,1","+0033,1","10038,1","24,0005,9,1",,,,,,"120,M,+0107,1","999,N,+0037,1","99999,9,10013,1","2,1,015,1,+999,9","SYN082AAXX  26061 02458 35983 /3503 10096 20033 30013 40038 52015 333 10107 20037 70005;",
"02458099999","2010-05-26T09:00:00","4","59.897328","17.588581","20.72","UPPSALA, SW","FM-12","ESCM ","V020","300,1,N,0040,1","99999,9,9,N","045000,1,N,1","+0127,1","+0013,1","10046,1",,,,,,,,,"99999,9,10021,1","2,1,008,1,+999,9","SYN060AAXX  26091 02458 45983 /3004 10127 20013 30021 40046 52008;",
"02458099999","2010-05-26T12:00:00","4","59.897328","17.588581","20.72","UPPSALA, SW","FM-12","ESCM ","V020","300,1,N,0050,1","99999,9,9,N","035000,1,N,1","+0144,1","-0011,1","10051,1",,,,,"01,1,+01800,1,99,9",,,,"99999,9,10027,1","2,1,005,1,+999,9","SYN070AAXX  26121 02458 45881 /3005 10144 21011 30027 40051 52005 333 81/56;",
"02458099999","2010-05-26T15:00:00","4","59.897328","17.588581","20.72","UPPSALA, SW","FM-12","ESCM ","V020","360,1,N,0040,1","99999,9,9,N","045000,1,N,1","+0149,1","+0011,1","10056,1",,,,,"03,1,+02100,1,99,9",,,,"99999,9,10032,1","2,1,005,1,+999,9","SYN070AAXX  26151 02458 45883 /3604 10149 20011 30032 40056 52005 333 83/57;",
"02458099999","2010-05-26T18:00:00","4","59.897328","17.588581","20.72","UPPSALA, SW","FM-12","ESCM ","V020","020,1,N,0030,1","99999,9,9,N","045000,1,N,1","+0135,1","+0030,1","10064,1",,,,,,,"120,M,+0164,1","999,N,+0095,1","99999,9,10039,1","2,1,007,1,+999,9","SYN076AAXX  26181 02458 35983 /0203 10135 20030 30039 40064 52007 333 10164 20095;",
"02458099999","2010-05-26T21:00:00","4","59.897328","17.588581","20.72","UPPSALA, SW","FM-12","ESCM ","V020","290,1,N,0010,1","99999,9,9,N","050000,1,N,1","+0068,1","+0043,1","10072,1",,,,,,,,,"99999,9,10046,1","2,1,008,1,+999,9","SYN060AAXX  26211 02458 45984 /2901 10068 20043 30046 40072 52008;",
"02458099999","2010-05-27T00:00:00","4","59.897328","17.588581","20.72","UPPSALA, SW","FM-12","ESCM ","V020","300,1,N,0010,1","99999,9,9,N","045000,1,N,1","+0040,1","+0029,1","10074,1",,,,,,,,,"99999,9,10049,1","0,1,002,1,+999,9","SYN060AAXX  27001 02458 45983 /3001 10040 20029 30049 40074 50002;",
"02458099999","2010-05-27T03:00:00","4","59.897328","17.588581","20.72","UPPSALA, SW","FM-12","ESCM ","V020","360,1,N,0030,1","00240,1,C,N","013000,1,N,1","+0068,1","+0057,1","10076,1",,,,,"08,1,+00240,1,99,9",,,,"99999,9,10051,1","0,1,002,1,+999,9","SYN070AAXX  27031 02458 45363 /3603 10068 20057 30051 40076 50002 333 88/08;",
"02458099999","2010-05-27T06:00:00","4","59.897328","17.588581","20.72","UPPSALA, SW","FM-12","ESCM ","V020","010,1,N,0040,1","00390,1,C,N","029000,1,N,1","+0092,1","+0065,1","10077,1",,,,,"08,1,+00390,1,99,9",,"120,M,+0135,1","999,N,+0034,1","99999,9,10052,1","2,1,001,1,+999,9","SYN082AAXX  27061 02458 35479 /0104 10092 20065 30052 40077 52001 333 10135 20034 88/13;",
"02458099999","2010-05-27T09:00:00","4","59.897328","17.588581","20.72","UPPSALA, SW","FM-12","ESCM ","V020","310,1,N,0020,1","99999,9,9,N","045000,1,N,1","+0136,1","+0073,1","10078,1",,,,,"03,1,+00930,1,99,9",,,,"99999,9,10053,1","4,1,000,1,+999,9","SYN076AAXX  27091 02458 45583 /3102 10136 20073 30053 40078 54001 333 83/31 86/44;",
"02458099999","2010-05-27T12:00:00","4","59.897328","17.588581","20.72","UPPSALA, SW","FM-12","ESCM ","V020","330,1,N,0010,1","02400,1,C,N","045000,1,N,1","+0159,1","+0046,1","10073,1",,,,,"07,1,+02400,1,99,9",,,,"99999,9,10048,1","7,1,005,1,+999,9","SYN070AAXX  27121 02458 45983 /3301 10159 20046 30048 40073 57005 333 87/58;",
"02458099999","2010-05-27T15:00:00","4","59.897328","17.588581","20.72","UPPSALA, SW","FM-12","ESCM ","V020","020,1,N,0040,1","02700,1,C,N","040000,1,N,1","+0140,1","+0059,1","10073,1",,,,,"07,1,+02700,1,99,9",,,,"99999,9,10049,1","4,1,000,1,+999,9","SYN070AAXX  27151 02458 45982 /0204 10140 20059 30049 40073 54001 333 87/59;",
"02458099999","2010-05-27T18:00:00","4","59.897328","17.588581","20.72","UPPSALA, SW","FM-12","ESCM ","V020","030,1,N,0040,1","03600,1,C,N","040000,1,N,1","+0120,1","+0064,1","10083,1",,,"00,1","8,1,06,1","01,1,+01200,1,99,9","07,1,+03600,1,99,9","120,M,+0166,1","999,N,+0090,1","99999,9,10059,1","3,1,010,1,+999,9","SYN100AAXX  27181 02458 37682 /0304 10120 20064 30059 40083 53010 70086 333 10166 20090 81/40 87/62 88/72;",
"02458099999","2010-05-27T21:00:00","4","59.897328","17.588581","20.72","UPPSALA, SW","FM-12","ESCM ","V020","310,1,N,0020,1","99999,9,9,N","022000,1,N,1","+0084,1","+0071,1","10094,1",,,"52,1","8,1,03,1",,,,,"99999,9,10068,1","0,1,010,1,+999,9","SYN066AAXX  27211 02458 47972 /3102 10084 20071 30068 40094 50010 75286;",
"02458099999","2010-05-28T00:00:00","4","59.897328","17.588581","20.72","UPPSALA, SW","FM-12","ESCM ","V020","120,1,N,0010,1","99999,9,9,N","015000,1,N,1","+0080,1","+0069,1","10094,1",,,"52,1","8,1,06,1","01,1,+02400,1,99,9",,,,"99999,9,10069,1","4,1,000,1,+999,9","SYN076AAXX  28001 02458 47865 /1201 10080 20069 30069 40094 54001 75286 333 81/58;",
"02458099999","2010-05-28T03:00:00","4","59.897328","17.588581","20.72","UPPSALA, SW","FM-12","ESCM ","V020","090,1,N,0010,1","99999,9,9,N","011000,1,N,1","+0079,1","+0074,1","10089,1",,,"52,1","6,1,03,1","01,1,+01290,1,99,9",,,,"99999,9,10064,1","7,1,005,1,+999,9","SYN076AAXX  28031 02458 47661 /0901 10079 20074 30064 40089 57005 75265 333 81/43;",
"02458099999","2010-05-28T06:00:00","4","59.897328","17.588581","20.72","UPPSALA, SW","FM-12","ESCM ","V020","170,1,N,0010,1","01260,1,C,N","018000,1,N,1","+0088,1","+0073,1","10095,1","12,0030,9,1","24,0033,9,1","61,1","6,1,06,1","08,1,+01260,1,99,9",,"120,M,+0120,1","999,N,+0075,1","99999,9,10070,1","3,1,006,1,+999,9","SYN106AAXX  28061 02458 07668 /1701 10088 20073 30070 40095 53006 60032 76165 333 10120 20075 69955 70034 88/42;",
"02458099999","2010-05-28T09:00:00","4","59.897328","17.588581","20.72","UPPSALA, SW","FM-12","ESCM ","V020","180,1,N,0030,1","00660,1,C,N","035000,1,N,1","+0124,1","+0082,1","10097,1",,,"00,1","6,1,03,1","06,1,+00660,1,99,9","07,1,+01500,1,99,9",,,"99999,9,10072,1","2,1,002,1,+999,9","SYN088AAXX  28091 02458 47581 /1803 10124 20082 30072 40097 52002 70065 333 86/22 87/50 88/56;",
"02458099999","2010-05-28T12:00:00","4","59.897328","17.588581","20.72","UPPSALA, SW","FM-12","ESCM ","V020","200,1,N,0040,1","99999,9,9,N","050000,1,N,1","+0130,1","+0036,1","10091,1",,,"00,1","6,1,06,1","03,1,+02700,1,99,9",,,,"99999,9,10066,1","7,1,006,1,+999,9","SYN076AAXX  28121 02458 47984 /2004 10130 20036 30066 40091 57006 70065 333 83/59;",
"02458099999","2010-05-28T15:00:00","4","59.897328","17.588581","20.72","UPPSALA, SW","FM-12","ESCM ","V020","360,1,N,0020,1","02100,1,C,N","040000,1,N,1","+0144,1","+0048,1","10085,1",,,,,"08,1,+02100,1,99,9",,,,"99999,9,10060,1","7,1,006,1,+999,9","SYN070AAXX  28151 02458 45882 /3602 10144 20048 30060 40085 57006 333 88/57;",
"02458099999","2010-05-28T18:00:00","4","59.897328","17.588581","20.72","UPPSALA, SW","FM-12","ESCM ","V020","170,1,N,0050,1","99999,9,9,N","045000,1,N,1","+0126,1","+0054,1","10086,1","12,0000,2,1",,,,"01,1,+06000,1,99,9",,"120,M,+0162,1","999,N,+0088,1","99999,9,10061,1","0,1,000,1,+999,9","SYN088AAXX  28180 02458 15983 /1705 10126 20054 30061 40086 50000 69912 333 10162 20088 81/70;",
"02458099999","2010-05-28T21:00:00","4","59.897328","17.588581","20.72","UPPSALA, SW","FM-12","ESCM ","V020","160,1,N,0020,1","99999,9,9,N","050000,1,N,1","+0097,1","+0060,1","10089,1",,,,,"02,1,+04200,1,99,9",,,,"99999,9,10064,1","0,1,004,1,+999,9","SYN070AAXX  28211 02458 45984 /1602 10097 20060 30064 40089 50004 333 82/64;",
"02458099999","2010-05-29T00:00:00","4","59.897328","17.588581","20.72","UPPSALA, SW","FM-12","ESCM ","V020","140,1,N,0020,1","99999,9,9,N","045000,1,N,1","+0093,1","+0068,1","10079,1",,,,,"03,1,+03600,1,99,9",,,,"99999,9,10054,1","8,1,010,1,+999,9","SYN070AAXX  29001 02458 45983 /1402 10093 20068 30054 40079 58010 333 83/62;",
"02458099999","2010-05-29T03:00:00","4","59.897328","17.588581","20.72","UPPSALA, SW","FM-12","ESCM ","V020","140,1,N,0020,1","01800,1,C,N","014000,1,N,1","+0085,1","+0076,1","10070,1",,,"81,1","8,1,03,1","02,1,+00330,1,99,9","04,1,+01800,1,99,9",,,"99999,9,10045,1","7,1,009,1,+999,9","SYN088AAXX  29031 02458 47464 /1402 10085 20076 30045 40070 57009 78186 333 82/11 84/56 88/58;",
"02458099999","2010-05-29T06:00:00","4","59.897328","17.588581","20.72","UPPSALA, SW","FM-12","ESCM ","V020","230,1,N,0030,1","00300,1,C,N","019000,1,N,1","+0090,1","+0071,1","10067,1","12,0030,9,1","24,0033,9,1","61,1","8,1,06,1","03,1,+00210,1,99,9","06,1,+00300,1,99,9","120,M,+0127,1","999,N,+0084,1","99999,9,10042,1","7,1,003,1,+999,9","SYN118AAXX  29061 02458 07369 /2303 10090 20071 30042 40067 57003 60032 76186 333 10127 20084 60035 70032 83/07 86/10 87/13;",
"02458099999","2010-05-29T09:00:00","4","59.897328","17.588581","20.72","UPPSALA, SW","FM-12","ESCM ","V020","260,1,N,0050,1","99999,9,9,N","040000,1,N,1","+0092,1","+0072,1","10074,1",,,"81,1","8,1,03,1","04,1,+00480,1,99,9",,,,"99999,9,10049,1","1,1,007,1,+999,9","SYN082AAXX  29091 02458 47482 /2605 10092 20072 30049 40074 51007 78186 333 84/16 88/27;",
"02458099999","2010-05-29T12:00:00","4","59.897328","17.588581","20.72","UPPSALA, SW","FM-12","ESCM ","V020","270,1,N,0040,1","00990,1,C,N","040000,1,N,1","+0121,1","+0069,1","10078,1",,,"00,1","8,1,06,1","04,1,+00780,1,99,9","05,1,+00990,1,99,9",,,"99999,9,10053,1","1,1,004,1,+999,9","SYN088AAXX  29121 02458 47582 /2704 10121 20069 30053 40078 51004 70086 333 84/26 85/33 87/65;",
"02458099999","2010-05-29T15:00:00","4","59.897328","17.588581","20.72","UPPSALA, SW","FM-12","ESCM ","V020","240,1,N,0020,1","22000,1,C,N","017000,1,N,1","+0111,1","+0074,1","10091,1",,,"82,1","8,1,03,1","01,1,+00780,1,99,9","04,1,+01410,1,99,9",,,"99999,9,10066,1","3,1,013,1,+999,9","SYN088AAXX  29151 02458 47567 /2402 10111 20074 30066 40091 53013 78286 333 81/26 84/47 85/62;",
"02458099999","2010-05-29T18:00:00","4","59.897328","17.588581","20.72","UPPSALA, SW","FM-12","ESCM ","V020","230,1,N,0020,1","99999,9,9,N","050000,1,N,1","+0093,1","+0077,1","10095,1","12,0191,9,1",,"23,1","8,1,06,1",,,"120,M,+0131,1","999,N,+0080,1","99999,9,10070,1","0,1,004,1,+999,9","SYN094AAXX  29181 02458 07984 /2302 10093 20077 30070 40095 50004 60192 72386 333 10131 20080 69955;",
"02458099999","2010-05-29T21:00:00","4","59.897328","17.588581","20.72","UPPSALA, SW","FM-12","ESCM ","V020","210,1,N,0030,1","99999,9,9,N","050000,1,N,1","+0078,1","+0066,1","10106,1",,,,,"01,1,+02700,1,99,9",,,,"99999,9,10081,1","2,1,011,1,+999,9","SYN070AAXX  29211 02458 45984 /2103 10078 20066 30081 40106 52011 333 81/59;",
"02458099999","2010-05-30T00:00:00","4","59.897328","17.588581","20.72","UPPSALA, SW","FM-12","ESCM ","V020","230,1,N,0030,1","99999,9,9,N","050000,1,N,1","+0075,1","+0062,1","10112,1",,,,,"03,1,+02100,1,99,9",,,,"99999,9,10087,1","2,1,007,1,+999,9","SYN070AAXX  30001 02458 45884 /2303 10075 20062 30087 40112 52007 333 83/57;",
"02458099999","2010-05-30T03:00:00","4","59.897328","17.588581","20.72","UPPSALA, SW","FM-12","ESCM ","V020","250,1,N,0020,1","99999,9,9,N","035000,1,N,1","+0062,1","+0054,1","10121,1",,,,,,,,,"99999,9,10096,1","2,1,009,1,+999,9","SYN060AAXX  30031 02458 45981 /2502 10062 20054 30096 40121 52009;",
"02458099999","2010-05-30T06:00:00","4","59.897328","17.588581","20.72","UPPSALA, SW","FM-12","ESCM ","V020","290,1,N,0020,1","99999,9,9,N","050000,1,N,1","+0111,1","+0073,1","10129,1","24,0188,9,1",,,,,,"120,M,+0111,1","999,N,+0059,1","99999,9,10104,1","2,1,008,1,+999,9","SYN082AAXX  30061 02458 35984 /2902 10111 20073 30104 40129 52008 333 10111 20059 70189;",
"02458099999","2010-05-30T09:00:00","4","59.897328","17.588581","20.72","UPPSALA, SW","FM-12","ESCM ","V020","250,1,N,0020,1","99999,9,9,N","040000,1,N,1","+0150,1","+0076,1","10133,1",,,,,"01,1,+00900,1,99,9",,,,"99999,9,10109,1","1,1,005,1,+999,9","SYN070AAXX  30091 02458 45582 /2502 10150 20076 30109 40133 51005 333 81/30;",
"02458099999","2010-05-30T12:00:00","4","59.897328","17.588581","20.72","UPPSALA, SW","FM-12","ESCM ","V020","240,1,N,0020,1","99999,9,9,N","050000,1,N,1","+0163,1","+0072,1","10127,1",,,,,"01,1,+02400,1,99,9",,,,"99999,9,10103,1","8,1,006,1,+999,9","SYN070AAXX  30121 02458 45984 /2402 10163 20072 30103 40127 58006 333 81/58;",
"02458099999","2010-05-30T15:00:00","4","59.897328","17.588581","20.72","UPPSALA, SW","FM-12","ESCM ","V020","330,1,N,0040,1","01500,1,C,N","030000,1,N,1","+0143,1","+0067,1","10125,1",,,"81,1","8,1,03,1","06,1,+01500,1,99,9",,,,"99999,9,10100,1","5,1,002,1,+999,9","SYN082AAXX  30151 02458 47780 /3304 10143 20067 30100 40125 55002 78180 333 86/50 87/57;",
"02458099999","2010-05-30T18:00:00","4","59.897328","17.588581","20.72","UPPSALA, SW","FM-12","ESCM ","V020","160,1,N,0010,1","99999,9,9,N","040000,1,N,1","+0155,1","+0071,1","10123,1","12,0008,9,1",,"00,1","8,1,06,1",,,"120,M,+0180,1","999,N,+0109,1","99999,9,10099,1","8,1,002,1,+999,9","SYN088AAXX  30180 02458 17982 /1601 10155 20071 30099 40123 58002 69972 70082 333 10180 20109;",
"02458099999","2010-05-30T21:00:00","4","59.897328","17.588581","20.72","UPPSALA, SW","FM-12","ESCM ","V020","999,9,C,0000,1","99999,9,9,N","050000,1,N,1","+0079,1","+0069,1","10134,1",,,,,,,,,"99999,9,10109,1","2,1,011,1,+999,9","SYN060AAXX  30211 02458 45984 /0000 10079 20069 30109 40134 52011;",
"02458099999","2010-05-31T00:00:00","4","59.897328","17.588581","20.72","UPPSALA, SW","FM-12","ESCM ","V020","999,9,C,0000,1","99999,9,9,N","030000,1,N,1","+0051,1","+0048,1","10140,1",,,,,,,,,"99999,9,10115,1","2,1,006,1,+999,9","SYN060AAXX  31001 02458 45980 /0000 10051 20048 30115 40140 52006;",
"02458099999","2010-05-31T03:00:00","4","59.897328","17.588581","20.72","UPPSALA, SW","FM-12","ESCM ","V020","320,1,N,0010,1","99999,9,9,N","007000,1,N,1","+0046,1","+0043,1","10145,1",,,"00,1","4,1,03,1",,,,,"99999,9,10120,1","2,1,005,1,+999,9","SYN066AAXX  31031 02458 47957 /3201 10046 20043 30120 40145 52005 70032;",
"02458099999","2010-05-31T06:00:00","4","59.897328","17.588581","20.72","UPPSALA, SW","FM-12","ESCM ","V020","010,1,N,0010,1","99999,9,9,N","045000,1,N,1","+0131,1","+0093,1","10154,1","24,0008,9,1",,"00,1","4,1,06,1",,,"120,M,+0155,1","999,N,+0035,1","99999,9,10129,1","2,1,009,1,+999,9","SYN088AAXX  31061 02458 37983 /0101 10131 20093 30129 40154 52009 70032 333 10155 20035 70007;",
"02458099999","2010-05-31T09:00:00","4","59.897328","17.588581","20.72","UPPSALA, SW","FM-12","ESCM ","V020","020,1,N,0040,1","99999,9,9,N","030000,1,N,1","+0164,1","+0087,1","10161,1",,,,,,,,,"99999,9,10137,1","1,1,008,1,+999,9","SYN060AAXX  31091 02458 45980 /0204 10164 20087 30137 40161 51008;",
"02458099999","2010-05-31T12:00:00","4","59.897328","17.588581","20.72","UPPSALA, SW","FM-12","ESCM ","V020","020,1,N,0040,1","99999,9,9,N","035000,1,N,1","+0174,1","+0081,1","10163,1",,,,,,,,,"99999,9,10139,1","2,1,002,1,+999,9","SYN060AAXX  31121 02458 45981 /0204 10174 20081 30139 40163 52002;",
"02458099999","2010-05-31T15:00:00","4","59.897328","17.588581","20.72","UPPSALA, SW","FM-12","ESCM ","V020","040,1,N,0050,1","99999,9,9,N","040000,1,N,1","+0174,1","+0057,1","10164,1",,,,,,,,,"99999,9,10139,1","4,1,000,1,+999,9","SYN060AAXX  31151 02458 45982 /0405 10174 20057 30139 40164 54000;",
"02458099999","2010-05-31T18:00:00","4","59.897328","17.588581","20.72","UPPSALA, SW","FM-12","ESCM ","V020","090,1,N,0040,1","99999,9,9,N","045000,1,N,1","+0157,1","+0049,1","10165,1",,,,,,,"120,M,+0181,1","999,N,+0131,1","99999,9,10140,1","4,1,000,1,+999,9","SYN076AAXX  31181 02458 35983 /0904 10157 20049 30140 40165 54001 333 10181 20131;",
"02458099999","2010-05-31T21:00:00","4","59.897328","17.588581","20.72","UPPSALA, SW","FM-12","ESCM ","V020","999,9,C,0000,1","99999,9,9,N","050000,1,N,1","+0091,1","+0067,1","10171,1",,,,,,,,,"99999,9,10146,1","2,1,006,1,+999,9","SYN060AAXX  31211 02458 45984 /0000 10091 20067 30146 40171 52006;",
"02458099999","2010-06-01T00:00:00","4","59.897328","17.588581","20.72","UPPSALA, SW","FM-12","ESCM ","V020","320,1,N,0010,1","99999,9,9,N","035000,1,N,1","+0055,1","+0044,1","10176,1",,,,,,,,,"99999,9,10151,1","3,1,005,1,+999,9","SYN060AAXX  01001 02458 45981 /3201 10055 20044 30151 40176 53005;",
"02458099999","2010-06-01T03:00:00","4","59.897328","17.588581","20.72","UPPSALA, SW","FM-12","ESCM ","V020","320,1,N,0010,1","99999,9,9,N","019000,1,N,1","+0049,1","+0040,1","10181,1",,,,,,,,,"99999,9,10155,1","2,1,004,1,+999,9","SYN060AAXX  01031 02458 45969 /3201 10049 20040 30155 40181 52004;",
"02458099999","2010-06-01T06:00:00","4","59.897328","17.588581","20.72","UPPSALA, SW","FM-12","ESCM ","V020","010,1,N,0030,1","99999,9,9,N","035000,1,N,1","+0128,1","+0072,1","10182,1",,,,,,,"120,M,+0157,1","999,N,+0038,1","99999,9,10157,1","2,1,002,1,+999,9","SYN076AAXX  01061 02458 35981 /0103 10128 20072 30157 40182 52002 333 10157 20038;",
"02458099999","2010-06-01T09:00:00","4","59.897328","17.588581","20.72","UPPSALA, SW","FM-12","ESCM ","V020","010,1,N,0040,1","99999,9,9,N","040000,1,N,1","+0159,1","+0066,1","10179,1",,,,,,,,,"99999,9,10155,1","8,1,003,1,+999,9","SYN060AAXX  01091 02458 45982 /0104 10159 20066 30155 40179 58003;",
"02458099999","2010-06-01T12:00:00","4","59.897328","17.588581","20.72","UPPSALA, SW","FM-12","ESCM ","V020","020,1,N,0050,1","99999,9,9,N","045000,1,N,1","+0170,1","+0064,1","10175,1",,,,,"01,1,+03300,1,99,9",,,,"99999,9,10150,1","5,1,005,1,+999,9","SYN076AAXX  01121 02458 45983 /0205 10170 20064 30150 40175 55005 333 81/61 85/66;",
"02458099999","2010-06-01T15:00:00","4","59.897328","17.588581","20.72","UPPSALA, SW","FM-12","ESCM ","V020","040,1,N,0040,1","99999,9,9,N","040000,1,N,1","+0172,1","+0054,1","10170,1",,,,,"03,1,+05700,1,99,9",,,,"99999,9,10146,1","7,1,004,1,+999,9","SYN070AAXX  01151 02458 45982 /0404 10172 20054 30146 40170 57004 333 83/69;",
"02458099999","2010-06-01T18:00:00","4","59.897328","17.588581","20.72","UPPSALA, SW","FM-12","ESCM ","V020","020,1,N,0040,1","99999,9,9,N","050000,1,N,1","+0146,1","+0044,1","10169,1",,,,,"03,1,+04500,1,99,9",,"120,M,+0190,1","999,N,+0128,1","99999,9,10144,1","7,1,002,1,+999,9","SYN082AAXX  01181 02458 35984 /0204 10146 20044 30144 40169 57002 333 10190 20128 83/65;",
"02458099999","2010-06-01T21:00:00","4","59.897328","17.588581","20.72","UPPSALA, SW","FM-12","ESCM ","V020","010,1,N,0020,1","99999,9,9,N","050000,1,N,1","+0076,1","+0037,1","10177,1",,,,,,,,,"99999,9,10152,1","2,1,008,1,+999,9","SYN060AAXX  01211 02458 45984 /0102 10076 20037 30152 40177 52008;",
"02458099999","2010-06-02T00:00:00","4","59.897328","17.588581","20.72","UPPSALA, SW","FM-12","ESCM ","V020","330,1,N,0020,1","99999,9,9,N","050000,1,N,1","+0054,1","+0027,1","10176,1",,,,,,,,,"99999,9,10151,1","0,1,001,1,+999,9","SYN060AAXX  02001 02458 45984 /3302 10054 20027 30151 40176 50001;",
"02458099999","2010-06-02T03:00:00","4","59.897328","17.588581","20.72","UPPSALA, SW","FM-12","ESCM ","V020","320,1,N,0010,1","99999,9,9,N","050000,1,N,1","+0057,1","+0036,1","10174,1",,,,,,,,,"99999,9,10148,1","7,1,003,1,+999,9","SYN060AAXX  02031 02458 45984 /3201 10057 20036 30148 40174 57003;",
"02458099999","2010-06-02T06:00:00","4","59.897328","17.588581","20.72","UPPSALA, SW","FM-12","ESCM ","V020","350,1,N,0020,1","99999,9,9,N","045000,1,N,1","+0123,1","+0052,1","10175,1",,,,,,,"120,M,+0147,1","999,N,+0042,1","99999,9,10150,1","2,1,002,1,+999,9","SYN076AAXX  02061 02458 35983 /3502 10123 20052 30150 40175 52002 333 10147 20042;",
"02458099999","2010-06-02T09:00:00","4","59.897328","17.588581","20.72","UPPSALA, SW","FM-12","ESCM ","V020","020,1,N,0030,1","99999,9,9,N","035000,1,N,1","+0176,1","+0073,1","10173,1",,,,,,,,,"99999,9,10148,1","7,1,002,1,+999,9","SYN060AAXX  02091 02458 45981 /0203 10176 20073 30148 40173 57002;",
"02458099999","2010-06-02T15:00:00","4","59.897328","17.588581","20.72","UPPSALA, SW","FM-12","ESCM ","V020","270,1,N,0010,1","99999,9,9,N","040000,1,N,1","+0220,1","+0050,1","10160,1",,,,,,,,,"99999,9,10135,1","7,1,009,1,+999,9","SYN060AAXX  02151 02458 45982 /2701 10220 20050 30135 40160 57009;",
"02458099999","2010-06-02T18:00:00","4","59.897328","17.588581","20.72","UPPSALA, SW","FM-12","ESCM ","V020","270,1,N,0010,1","99999,9,9,N","040000,1,N,1","+0213,1","+0060,1","10152,1",,,,,,,"120,M,+0232,1","999,N,+0122,1","99999,9,10128,1","5,1,008,1,+999,9","SYN076AAXX  02181 02458 35982 /2701 10213 20060 30128 40152 55008 333 10232 20122;",
"02458099999","2010-06-03T00:00:00","4","59.897328","17.588581","20.72","UPPSALA, SW","FM-12","ESCM ","V020","200,1,N,0020,1","99999,9,9,N","050000,1,N,1","+0125,1","+0074,1","10142,1",,,,,,,,,"99999,9,10117,1","7,1,008,1,+999,9","SYN060AAXX  03001 02458 45984 /2002 10125 20074 30117 40142 57008;",
"02458099999","2010-06-03T03:00:00","4","59.897328","17.588581","20.72","UPPSALA, SW","FM-12","ESCM ","V020","200,1,N,0030,1","99999,9,9,N","050000,1,N,1","+0118,1","+0070,1","10130,1",,,,,"02,1,+04500,1,99,9",,,,"99999,9,10105,1","7,1,012,1,+999,9","SYN070AAXX  03031 02458 45984 /2003 10118 20070 30105 40130 57012 333 82/65;",
"02458099999","2010-06-03T06:00:00","4","59.897328","17.588581","20.72","UPPSALA, SW","FM-12","ESCM ","V020","240,1,N,0040,1","99999,9,9,N","040000,1,N,1","+0159,1","+0077,1","10123,1",,,,,,,"120,M,+0215,1","999,N,+0113,1","99999,9,10099,1","7,1,006,1,+999,9","SYN076AAXX  03060 02458 35982 /2404 10159 20077 30099 40123 57006 333 10215 20113;",
"02458099999","2010-06-03T09:00:00","4","59.897328","17.588581","20.72","UPPSALA, SW","FM-12","ESCM ","V020","330,1,N,0030,1","99999,9,9,N","040000,1,N,1","+0194,1","+0068,1","10123,1",,,,,,,,,"99999,9,10099,1","5,1,000,1,+999,9","SYN060AAXX  03091 02458 45982 /3303 10194 20068 30099 40123 55000;",
"02458099999","2010-06-03T12:00:00","4","59.897328","17.588581","20.72","UPPSALA, SW","FM-12","ESCM ","V020","330,1,N,0040,1","99999,9,9,N","045000,1,N,1","+0205,1","+0055,1","10125,1",,,,,"02,1,+01800,1,99,9",,,,"99999,9,10100,1","2,1,001,1,+999,9","SYN076AAXX  03121 02458 45783 /3304 10205 20055 30100 40125 52001 333 82/56 83/59;",
"02458099999","2010-06-03T15:00:00","4","59.897328","17.588581","20.72","UPPSALA, SW","FM-12","ESCM ","V020","040,1,N,0020,1","99999,9,9,N","045000,1,N,1","+0207,1","+0091,1","10128,1",,,,,"04,1,+02400,1,99,9",,,,"99999,9,10104,1","3,1,004,1,+999,9","SYN076AAXX  03151 02458 45983 /0402 10207 20091 30104 40128 53004 333 84/58 85/61;",
"02458099999","2010-06-03T18:00:00","4","59.897328","17.588581","20.72","UPPSALA, SW","FM-12","ESCM ","V020","040,1,N,0040,1","99999,9,9,N","050000,1,N,1","+0173,1","+0080,1","10134,1",,,,,"03,1,+02400,1,99,9",,"120,M,+0222,1","999,N,+0159,1","99999,9,10110,1","3,1,006,1,+999,9","SYN088AAXX  03181 02458 35984 /0404 10173 20080 30110 40134 53006 333 10222 20159 83/58 88/62;",
"02458099999","2010-06-03T21:00:00","4","59.897328","17.588581","20.72","UPPSALA, SW","FM-12","ESCM ","V020","270,1,N,0010,1","99999,9,9,N","050000,1,N,1","+0116,1","+0073,1","10149,1",,,,,"02,1,+03900,1,99,9",,,,"99999,9,10124,1","2,1,015,1,+999,9","SYN070AAXX  03211 02458 45984 /2701 10116 20073 30124 40149 52015 333 82/63;",
"02458099999","2010-06-04T00:00:00","4","59.897328","17.588581","20.72","UPPSALA, SW","FM-12","ESCM ","V020","340,1,N,0020,1","99999,9,9,N","050000,1,N,1","+0096,1","+0056,1","10164,1",,,,,,,,,"99999,9,10139,1","3,1,015,1,+999,9","SYN060AAXX  04001 02458 45984 /3402 10096 20056 30139 40164 53015;",
"02458099999","2010-06-04T03:00:00","4","59.897328","17.588581","20.72","UPPSALA, SW","FM-12","ESCM ","V020","330,1,N,0060,1","99999,9,9,N","045000,1,N,1","+0093,1","+0024,1","10179,1",,,,,,,,,"99999,9,10153,1","2,1,014,1,+999,9","SYN060AAXX  04031 02458 45983 /3306 10093 20024 30153 40179 52014;",
"02458099999","2010-06-04T06:00:00","4","59.897328","17.588581","20.72","UPPSALA, SW","FM-12","ESCM ","V020","340,1,N,0070,1","99999,9,9,N","040000,1,N,1","+0116,1","+0024,1","10183,1",,,,,,,"120,M,+0173,1","999,N,+0075,1","99999,9,10158,1","2,1,005,1,+999,9","SYN076AAXX  04060 02458 35982 /3407 10116 20024 30158 40183 52005 333 10173 20075;",
"02458099999","2010-06-04T09:00:00","4","59.897328","17.588581","20.72","UPPSALA, SW","FM-12","ESCM ","V020","320,1,N,0040,1","99999,9,9,N","040000,1,N,1","+0145,1","+0022,1","10180,1",,,,,"04,1,+01500,1,99,9",,,,"99999,9,10155,1","7,1,003,1,+999,9","SYN070AAXX  04091 02458 45782 /3204 10145 20022 30155 40180 57003 333 84/50;",
"02458099999","2010-06-04T12:00:00","4","59.897328","17.588581","20.72","UPPSALA, SW","FM-12","ESCM ","V020","310,1,N,0070,1","99999,9,9,N","040000,1,N,1","+0165,1","+0024,1","10171,1",,,,,"02,1,+01800,1,99,9",,,,"99999,9,10147,1","7,1,008,1,+999,9","SYN076AAXX  04121 02458 45782 /3107 10165 20024 30147 40171 57008 333 82/56 83/71;",
"02458099999","2010-06-04T15:00:00","4","59.897328","17.588581","20.72","UPPSALA, SW","FM-12","ESCM ","V020","320,1,N,0060,1","02100,1,C,N","040000,1,N,1","+0177,1","+0032,1","10163,1",,,,,"06,1,+02100,1,99,9",,,,"99999,9,10138,1","7,1,008,1,+999,9","SYN070AAXX  04151 02458 45882 /3206 10177 20032 30138 40163 57008 333 86/57;",
"02458099999","2010-06-04T18:00:00","4","59.897328","17.588581","20.72","UPPSALA, SW","FM-12","ESCM ","V020","300,1,N,0020,1","99999,9,9,N","045000,1,N,1","+0166,1","+0032,1","10160,1",,,,,,,"120,M,+0184,1","999,N,+0115,1","99999,9,10135,1","7,1,003,1,+999,9","SYN076AAXX  04181 02458 35983 /3002 10166 20032 30135 40160 57003 333 10184 20115;",
"02458099999","2010-06-04T21:00:00","4","59.897328","17.588581","20.72","UPPSALA, SW","FM-12","ESCM ","V020","080,1,N,0020,1","99999,9,9,N","050000,1,N,1","+0103,1","+0019,1","10174,1",,,,,"02,1,+02400,1,99,9",,,,"99999,9,10149,1","3,1,014,1,+999,9","SYN070AAXX  04211 02458 45984 /0802 10103 20019 30149 40174 53014 333 82/58;",
"02458099999","2010-06-05T00:00:00","4","59.897328","17.588581","20.72","UPPSALA, SW","FM-12","ESCM ","V020","280,1,N,0010,1","99999,9,9,N","050000,1,N,1","+0042,1","+0026,1","10189,1",,,,,,,,,"99999,9,10163,1","2,1,014,1,+999,9","SYN060AAXX  05001 02458 45984 /2801 10042 20026 30163 40189 52014;",
"02458099999","2010-06-05T03:00:00","4","59.897328","17.588581","20.72","UPPSALA, SW","FM-12","ESCM ","V020","290,1,N,0020,1","99999,9,9,N","050000,1,N,1","+0057,1","+0022,1","10195,1",,,,,,,,,"99999,9,10169,1","2,1,006,1,+999,9","SYN060AAXX  05031 02458 45984 /2902 10057 20022 30169 40195 52006;",
"02458099999","2010-06-05T06:00:00","4","59.897328","17.588581","20.72","UPPSALA, SW","FM-12","ESCM ","V020","010,1,N,0020,1","99999,9,9,N","040000,1,N,1","+0105,1","+0017,1","10196,1",,,,,,,"120,M,+0166,1","999,N,+0040,1","99999,9,10170,1","4,1,000,1,+999,9","SYN076AAXX  05061 02458 35982 /0102 10105 20017 30170 40196 54001 333 10166 20040;",
"02458099999","2010-06-05T09:00:00","4","59.897328","17.588581","20.72","UPPSALA, SW","FM-12","ESCM ","V020","220,1,N,0010,1","99999,9,9,N","035000,1,N,1","+0139,1","+0021,1","10186,1",,,,,,,,,"99999,9,10161,1","8,1,010,1,+999,9","SYN060AAXX  05091 02458 45981 /2201 10139 20021 30161 40186 58010;",
"02458099999","2010-06-05T12:00:00","4","59.897328","17.588581","20.72","UPPSALA, SW","FM-12","ESCM ","V020","220,1,N,0040,1","02400,1,C,N","040000,1,N,1","+0166,1","+0040,1","10169,1",,,,,"07,1,+02400,1,99,9",,,,"99999,9,10144,1","7,1,017,1,+999,9","SYN070AAXX  05121 02458 45882 /2204 10166 20040 30144 40169 57017 333 87/58;",
"02458099999","2010-06-05T15:00:00","4","59.897328","17.588581","20.72","UPPSALA, SW","FM-12","ESCM ","V020","220,1,N,0030,1","99999,9,9,N","040000,1,N,1","+0178,1","+0039,1","10153,1",,,,,"04,1,+01800,1,99,9",,,,"99999,9,10129,1","7,1,015,1,+999,9","SYN070AAXX  05151 02458 45782 /2203 10178 20039 30129 40153 57015 333 84/56;",
"02458099999","2010-06-05T18:00:00","4","59.897328","17.588581","20.72","UPPSALA, SW","FM-12","ESCM ","V020","210,1,N,0010,1","99999,9,9,N","050000,1,N,1","+0159,1","+0050,1","10141,1",,,,,,,"120,M,+0188,1","999,N,+0103,1","99999,9,10116,1","7,1,013,1,+999,9","SYN076AAXX  05180 02458 35984 /2101 10159 20050 30116 40141 57013 333 10188 20103;",
"02458099999","2010-06-05T21:00:00","4","59.897328","17.588581","20.72","UPPSALA, SW","FM-12","ESCM ","V020","140,1,N,0040,1","99999,9,9,N","050000,1,N,1","+0115,1","+0047,1","10141,1",,,,,"02,1,+05100,1,99,9",,,,"99999,9,10116,1","4,1,000,1,+999,9","SYN070AAXX  05211 02458 45984 /1404 10115 20047 30116 40141 54000 333 82/67;",
"02458099999","2010-06-06T00:00:00","4","59.897328","17.588581","20.72","UPPSALA, SW","FM-12","ESCM ","V020","150,1,N,0030,1","04200,1,C,N","050000,1,N,1","+0084,1","+0053,1","10134,1",,,,,"08,1,+04200,1,99,9",,,,"99999,9,10109,1","8,1,007,1,+999,9","SYN070AAXX  06001 02458 45984 /1503 10084 20053 30109 40134 58007 333 88/64;",
"02458099999","2010-06-06T03:00:00","4","59.897328","17.588581","20.72","UPPSALA, SW","FM-12","ESCM ","V020","999,9,C,0000,1","99999,9,9,N","040000,1,N,1","+0077,1","+0065,1","10123,1",,,,,,,,,"99999,9,10098,1","7,1,011,1,+999,9","SYN060AAXX  06031 02458 45982 /0000 10077 20065 30098 40123 57011;",
"02458099999","2010-06-06T06:00:00","4","59.897328","17.588581","20.72","UPPSALA, SW","FM-12","ESCM ","V020","100,1,N,0010,1","99999,9,9,N","035000,1,N,1","+0131,1","+0083,1","10112,1",,,,,,,"120,M,+0159,1","999,N,+0060,1","99999,9,10087,1","7,1,010,1,+999,9","SYN076AAXX  06061 02458 35981 /1001 10131 20083 30087 40112 57010 333 10159 20060;",
"02458099999","2010-06-06T09:00:00","4","59.897328","17.588581","20.72","UPPSALA, SW","FM-12","ESCM ","V020","120,1,N,0020,1","99999,9,9,N","035000,1,N,1","+0180,1","+0072,1","10101,1",,,,,,,,,"99999,9,10077,1","8,1,011,1,+999,9","SYN060AAXX  06091 02458 45981 /1202 10180 20072 30077 40101 58011;",
"02458099999","2010-06-06T12:00:00","4","59.897328","17.588581","20.72","UPPSALA, SW","FM-12","ESCM ","V020","190,1,N,0010,1","99999,9,9,N","040000,1,N,1","+0203,1","+0068,1","10083,1",,,,,"01,1,+01800,1,99,9",,,,"99999,9,10059,1","7,1,017,1,+999,9","SYN070AAXX  06121 02458 45782 /1901 10203 20068 30059 40083 57017 333 81/56;",
"02458099999","2010-06-06T15:00:00","4","59.897328","17.588581","20.72","UPPSALA, SW","FM-12","ESCM ","V020","020,1,N,0020,1","01800,1,C,N","035000,1,N,1","+0167,1","+0106,1","10083,1",,,"23,1","8,1,03,1","05,1,+01800,1,99,9",,,,"99999,9,10058,1","5,1,001,1,+999,9","SYN076AAXX  06151 02458 47881 /0202 10167 20106 30058 40083 55001 72386 333 85/56;",
"02458099999","2010-06-06T18:00:00","4","59.897328","17.588581","20.72","UPPSALA, SW","FM-12","ESCM ","V020","040,1,N,0040,1","03300,1,C,N","030000,1,N,1","+0133,1","+0107,1","10090,1","12,0041,9,1",,"00,1","8,1,06,1","06,1,+03300,1,99,9",,"120,M,+0226,1","999,N,+0130,1","99999,9,10065,1","1,1,007,1,+999,9","SYN094AAXX  06181 02458 17980 /0404 10133 20107 30065 40090 51007 60042 70082 333 10226 20130 86/61;",
"02458099999","2010-06-06T21:00:00","4","59.897328","17.588581","20.72","UPPSALA, SW","FM-12","ESCM ","V020","360,1,N,0020,1","22000,1,C,N","014000,1,N,1","+0113,1","+0101,1","10096,1",,,,,"02,1,+00240,1,99,9","03,1,+02100,1,99,9",,,"99999,9,10071,1","3,1,005,1,+999,9","SYN082AAXX  06211 02458 45364 /3602 10113 20101 30071 40096 53005 333 82/08 83/57 88/63;",
"02458099999","2010-06-07T00:00:00","4","59.897328","17.588581","20.72","UPPSALA, SW","FM-12","ESCM ","V020","010,1,N,0010,1","99999,9,9,N","012000,1,N,1","+0096,1","+0090,1","10099,1",,,,,"04,1,+01800,1,99,9",,,,"99999,9,10073,1","3,1,003,1,+999,9","SYN070AAXX  07001 02458 45862 /0101 10096 20090 30073 40099 53003 333 84/56;",
"02458099999","2010-06-07T03:00:00","4","59.897328","17.588581","20.72","UPPSALA, SW","FM-12","ESCM ","V020","020,1,N,0040,1","00090,1,C,N","003000,1,N,1","+0080,1","+0076,1","10100,1",,,"10,1","2,1,03,1","09,1,+00090,1,99,9",,,,"99999,9,10075,1","3,1,002,1,+999,9","SYN076AAXX  07031 02458 47/30 /0204 10080 20076 30075 40100 53002 71010 333 89/03;",
"02458099999","2010-06-07T06:00:00","4","59.897328","17.588581","20.72","UPPSALA, SW","FM-12","ESCM ","V020","080,1,N,0020,1","99999,9,9,N","030000,1,N,1","+0122,1","+0088,1","10099,1","24,0041,9,1",,,,,,"120,M,+0133,1","999,N,+0079,1","99999,9,10074,1","8,1,001,1,+999,9","SYN082AAXX  07061 02458 35980 /0802 10122 20088 30074 40099 58001 333 10133 20079 70040;",
"02458099999","2010-06-07T09:00:00","4","59.897328","17.588581","20.72","UPPSALA, SW","FM-12","ESCM ","V020","090,1,N,0040,1","99999,9,9,N","030000,1,N,1","+0165,1","+0080,1","10094,1",,,,,,,,,"99999,9,10070,1","8,1,004,1,+999,9","SYN060AAXX  07091 02458 45980 /0904 10165 20080 30070 40094 58004;",
"02458099999","2010-06-07T12:00:00","4","59.897328","17.588581","20.72","UPPSALA, SW","FM-12","ESCM ","V020","100,1,N,0060,1","99999,9,9,N","029000,1,N,1","+0185,1","+0066,1","10083,1",,,,,"02,1,+01800,1,99,9",,,,"99999,9,10059,1","7,1,011,1,+999,9","SYN076AAXX  07121 02458 45779 /1006 10185 20066 30059 40083 57011 333 82/56 83/58;",
"02458099999","2010-06-07T15:00:00","4","59.897328","17.588581","20.72","UPPSALA, SW","FM-12","ESCM ","V020","090,1,N,0070,1","99999,9,9,N","045000,1,N,1","+0172,1","+0037,1","10078,1",,,,,"03,1,+02100,1,99,9",,,,"99999,9,10053,1","6,1,006,1,+999,9","SYN070AAXX  07151 02458 45883 /0907 10172 20037 30053 40078 56006 333 83/57;",
"02458099999","2010-06-07T18:00:00","4","59.897328","17.588581","20.72","UPPSALA, SW","FM-12","ESCM ","V020","040,1,N,0040,1","02100,1,C,N","050000,1,N,1","+0139,1","+0054,1","10074,1",,,,,"07,1,+02100,1,99,9",,"120,M,+0188,1","999,N,+0122,1","99999,9,10050,1","7,1,004,1,+999,9","SYN088AAXX  07181 02458 35884 /0404 10139 20054 30050 40074 57004 333 10188 20122 87/57 88/58;",
"02458099999","2010-06-07T21:00:00","4","59.897328","17.588581","20.72","UPPSALA, SW","FM-12","ESCM ","V020","030,1,N,0040,1","99999,9,9,N","050000,1,N,1","+0103,1","+0044,1","10074,1",,,,,,,,,"99999,9,10049,1","4,1,000,1,+999,9","SYN060AAXX  07211 02458 45984 /0304 10103 20044 30049 40074 54001;",
"02458099999","2010-06-08T00:00:00","4","59.897328","17.588581","20.72","UPPSALA, SW","FM-12","ESCM ","V020","360,1,N,0020,1","99999,9,9,N","050000,1,N,1","+0085,1","+0045,1","10075,1",,,,,,,,,"99999,9,10050,1","0,1,001,1,+999,9","SYN060AAXX  08001 02458 45984 /3602 10085 20045 30050 40075 50001;",
"02458099999","2010-06-08T03:00:00","4","59.897328","17.588581","20.72","UPPSALA, SW","FM-12","ESCM ","V020","320,1,N,0030,1","99999,9,9,N","045000,1,N,1","+0076,1","+0059,1","10081,1",,,,,,,,,"99999,9,10056,1","3,1,006,1,+999,9","SYN060AAXX  08031 02458 45983 /3203 10076 20059 30056 40081 53006;",
"02458099999","2010-06-08T06:00:00","4","59.897328","17.588581","20.72","UPPSALA, SW","FM-12","ESCM ","V020","010,1,N,0030,1","99999,9,9,N","050000,1,N,1","+0124,1","+0071,1","10089,1",,,,,,,"120,M,+0139,1","999,N,+0065,1","99999,9,10064,1","2,1,007,1,+999,9","SYN076AAXX  08061 02458 35984 /0103 10124 20071 30064 40089 52007 333 10139 20065;",
"02458099999","2010-06-08T09:00:00","4","59.897328","17.588581","20.72","UPPSALA, SW","FM-12","ESCM ","V020","040,1,N,0030,1","99999,9,9,N","040000,1,N,1","+0179,1","+0057,1","10101,1",,,,,,,,,"99999,9,10076,1","2,1,012,1,+999,9","SYN060AAXX  08091 02458 45982 /0403 10179 20057 30076 40101 52012;",
"02458099999","2010-06-08T12:00:00","4","59.897328","17.588581","20.72","UPPSALA, SW","FM-12","ESCM ","V020","110,1,N,0030,1","02100,1,C,N","035000,1,N,1","+0184,1","+0056,1","10104,1",,,,,"06,1,+02100,1,99,9",,,,"99999,9,10080,1","3,1,003,1,+999,9","SYN076AAXX  08120 02458 45881 /1103 10184 20056 30080 40104 53003 333 86/57 87/72;",
"02458099999","2010-06-08T15:00:00","4","59.897328","17.588581","20.72","UPPSALA, SW","FM-12","ESCM ","V020","130,1,N,0050,1","99999,9,9,N","045000,1,N,1","+0175,1","+0049,1","10111,1",,,,,,,,,"99999,9,10087,1","2,1,007,1,+999,9","SYN060AAXX  08151 02458 45983 /1305 10175 20049 30087 40111 52007;",
"02458099999","2010-06-08T18:00:00","4","59.897328","17.588581","20.72","UPPSALA, SW","FM-12","ESCM ","V020","150,1,N,0030,1","03900,1,C,N","050000,1,N,1","+0156,1","+0026,1","10118,1",,,,,"08,1,+03900,1,99,9",,"120,M,+0197,1","999,N,+0121,1","99999,9,10093,1","2,1,006,1,+999,9","SYN082AAXX  08181 02458 35984 /1503 10156 20026 30093 40118 52006 333 10197 20121 88/63;",
"02458099999","2010-06-08T21:00:00","4","59.897328","17.588581","20.72","UPPSALA, SW","FM-12","ESCM ","V020","999,9,C,0000,1","99999,9,9,N","040000,1,N,1","+0109,1","+0032,1","10132,1",,,,,,,,,"99999,9,10106,1","3,1,013,1,+999,9","SYN060AAXX  08211 02458 45982 /0000 10109 20032 30106 40132 53013;",
"02458099999","2010-06-09T00:00:00","4","59.897328","17.588581","20.72","UPPSALA, SW","FM-12","ESCM ","V020","999,9,C,0000,1","99999,9,9,N","050000,1,N,1","+0083,1","+0056,1","10136,1",,,,,"02,1,+04200,1,99,9",,,,"99999,9,10111,1","3,1,005,1,+999,9","SYN070AAXX  09001 02458 45984 /0000 10083 20056 30111 40136 53005 333 82/64;",
"02458099999","2010-06-09T03:00:00","4","59.897328","17.588581","20.72","UPPSALA, SW","FM-12","ESCM ","V020","999,9,C,0000,1","03300,1,C,N","045000,1,N,1","+0077,1","+0068,1","10139,1",,,,,"08,1,+03300,1,99,9",,,,"99999,9,10114,1","2,1,003,1,+999,9","SYN070AAXX  09031 02458 45983 /0000 10077 20068 30114 40139 52003 333 88/61;",
"02458099999","2010-06-09T06:00:00","4","59.897328","17.588581","20.72","UPPSALA, SW","FM-12","ESCM ","V020","110,1,N,0030,1","99999,9,9,N","035000,1,N,1","+0153,1","+0058,1","10144,1",,,,,,,"120,M,+0156,1","999,N,+0069,1","99999,9,10119,1","2,1,005,1,+999,9","SYN076AAXX  09061 02458 35981 /1103 10153 20058 30119 40144 52005 333 10156 20069;",
"02458099999","2010-06-09T09:00:00","4","59.897328","17.588581","20.72","UPPSALA, SW","FM-12","ESCM ","V020","140,1,N,0030,1","99999,9,9,N","035000,1,N,1","+0176,1","+0051,1","10145,1",,,,,,,,,"99999,9,10121,1","0,1,002,1,+999,9","SYN060AAXX  09091 02458 45981 /1403 10176 20051 30121 40145 50002;",
"02458099999","2010-06-09T12:00:00","4","59.897328","17.588581","20.72","UPPSALA, SW","FM-12","ESCM ","V020","130,1,N,0040,1","99999,9,9,N","040000,1,N,1","+0185,1","+0050,1","10143,1",,,,,"02,1,+01800,1,99,9",,,,"99999,9,10118,1","7,1,003,1,+999,9","SYN076AAXX  09121 02458 45782 /1304 10185 20050 30118 40143 57003 333 82/56 85/63;",
"02458099999","2010-06-09T15:00:00","4","59.897328","17.588581","20.72","UPPSALA, SW","FM-12","ESCM ","V020","100,1,N,0030,1","22000,1,C,N","045000,1,N,1","+0176,1","+0061,1","10141,1",,,,,"01,1,+01500,1,99,9","04,1,+05400,1,99,9",,,"99999,9,10117,1","7,1,001,1,+999,9","SYN082AAXX  09151 02458 45783 /1003 10176 20061 30117 40141 57001 333 81/50 84/68 85/72;",
"02458099999","2010-06-09T18:00:00","4","59.897328","17.588581","20.72","UPPSALA, SW","FM-12","ESCM ","V020","110,1,N,0030,1","99999,9,9,N","050000,1,N,1","+0151,1","+0078,1","10146,1",,,,,,,"120,M,+0191,1","999,N,+0149,1","99999,9,10121,1","2,1,005,1,+999,9","SYN076AAXX  09181 02458 35984 /1103 10151 20078 30121 40146 52005 333 10191 20149;",
"02458099999","2010-06-09T21:00:00","4","59.897328","17.588581","20.72","UPPSALA, SW","FM-12","ESCM ","V020","110,1,N,0010,1","04200,1,C,N","017000,1,N,1","+0120,1","+0092,1","10158,1",,,,,"07,1,+04200,1,99,9",,,,"99999,9,10133,1","2,1,012,1,+999,9","SYN070AAXX  09211 02458 45967 /1101 10120 20092 30133 40158 52012 333 87/64;",
"02458099999","2010-06-10T00:00:00","4","59.897328","17.588581","20.72","UPPSALA, SW","FM-12","ESCM ","V020","300,1,N,0010,1","99999,9,9,N","001200,1,N,1","+0069,1","+0065,1","10161,1",,,"10,1","2,1,06,1",,,,,"99999,9,10135,1","2,1,002,1,+999,9","SYN066AAXX  10001 02458 47912 /3001 10069 20065 30135 40161 52002 71010;",
"02458099999","2010-06-10T03:00:00","4","59.897328","17.588581","20.72","UPPSALA, SW","FM-12","ESCM ","V020","999,9,C,0000,1","00030,1,C,N","000100,1,N,1","+0091,1","+0088,1","10165,1",,,"34,1","4,1,03,1","09,1,+00030,1,99,9",,,,"99999,9,10139,1","2,1,004,1,+999,9","SYN076AAXX  10031 02458 47/01 /0000 10091 20088 30139 40165 52004 73432 333 89/01;",
"02458099999","2010-06-10T06:00:00","4","59.897328","17.588581","20.72","UPPSALA, SW","FM-12","ESCM ","V020","060,1,N,0010,1","00120,1,C,N","007000,1,N,1","+0104,1","+0101,1","10176,1",,,"20,1","4,1,06,1","08,1,+00120,1,99,9",,"120,M,+0151,1","999,N,+0054,1","99999,9,10151,1","3,1,011,1,+999,9","SYN088AAXX  10061 02458 37257 /0601 10104 20101 30151 40176 53011 72032 333 10151 20054 88/04;",
"02458099999","2010-06-10T09:00:00","4","59.897328","17.588581","20.72","UPPSALA, SW","FM-12","ESCM ","V020","070,1,N,0030,1","99999,9,9,N","030000,1,N,1","+0151,1","+0112,1","10184,1",,,,,"04,1,+00450,1,99,9",,,,"99999,9,10160,1","2,1,009,1,+999,9","SYN070AAXX  10091 02458 45480 /0703 10151 20112 30160 40184 52009 333 84/15;",
"02458099999","2010-06-10T12:00:00","4","59.897328","17.588581","20.72","UPPSALA, SW","FM-12","ESCM ","V020","080,1,N,0020,1","01380,1,C,N","030000,1,N,1","+0184,1","+0092,1","10170,1",,,,,"08,1,+01380,1,99,9",,,,"99999,9,10146,1","7,1,014,1,+999,9","SYN070AAXX  10121 02458 45680 /0802 10184 20092 30146 40170 57014 333 88/46;",
"02458099999","2010-06-10T15:00:00","4","59.897328","17.588581","20.72","UPPSALA, SW","FM-12","ESCM ","V020","080,1,N,0030,1","99999,9,9,N","045000,1,N,1","+0196,1","+0080,1","10161,1",,,,,"02,1,+01500,1,99,9",,,,"99999,9,10137,1","6,1,009,1,+999,9","SYN070AAXX  10151 02458 45783 /0803 10196 20080 30137 40161 56009 333 82/50;",
"02458099999","2010-06-10T18:00:00","4","59.897328","17.588581","20.72","UPPSALA, SW","FM-12","ESCM ","V020","090,1,N,0040,1","99999,9,9,N","050000,1,N,1","+0175,1","+0072,1","10152,1",,,,,,,"120,M,+0206,1","999,N,+0103,1","99999,9,10127,1","7,1,009,1,+999,9","SYN076AAXX  10180 02458 35984 /0904 10175 20072 30127 40152 57009 333 10206 20103;",
"02458099999","2010-06-10T21:00:00","4","59.897328","17.588581","20.72","UPPSALA, SW","FM-12","ESCM ","V020","060,1,N,0020,1","99999,9,9,N","050000,1,N,1","+0124,1","+0074,1","10148,1",,,,,,,,,"99999,9,10123,1","7,1,004,1,+999,9","SYN060AAXX  10211 02458 45984 /0602 10124 20074 30123 40148 57004;",
"02458099999","2010-06-11T00:00:00","4","59.897328","17.588581","20.72","UPPSALA, SW","FM-12","ESCM ","V020","080,1,N,0010,1","03900,1,C,N","050000,1,N,1","+0109,1","+0079,1","10127,1",,,,,"07,1,+03900,1,99,9",,,,"99999,9,10102,1","7,1,021,1,+999,9","SYN070AAXX  11001 02458 45984 /0801 10109 20079 30102 40127 57021 333 87/63;",
"02458099999","2010-06-11T03:00:00","4","59.897328","17.588581","20.72","UPPSALA, SW","FM-12","ESCM ","V020","010,1,N,0010,1","01410,1,C,N","027000,1,N,1","+0107,1","+0089,1","10103,1",,,"61,1","6,1,03,1","07,1,+01410,1,99,9",,,,"99999,9,10078,1","8,1,024,1,+999,9","SYN076AAXX  11031 02458 47677 /0101 10107 20089 30078 40103 58024 76165 333 87/47;",
"02458099999","2010-06-11T06:00:00","4","59.897328","17.588581","20.72","UPPSALA, SW","FM-12","ESCM ","V020","050,1,N,0020,1","99999,9,9,N","017000,1,N,1","+0111,1","+0099,1","10073,1","12,0030,9,2","24,0028,9,2","61,1","6,1,06,1","04,1,+00810,1,99,9",,"120,M,+0175,1","999,N,+0106,1","99999,9,10048,1","8,1,030,1,+999,9","SYN112AAXX  11061 02458 07567 /0502 10111 20099 30048 40073 58030 60032 76165 333 10175 20106 69995 70028 84/27 86/34;",
"02458099999","2010-06-11T09:00:00","4","59.897328","17.588581","20.72","UPPSALA, SW","FM-12","ESCM ","V020","040,1,N,0030,1","00180,1,C,N","021000,1,N,1","+0132,1","+0125,1","10043,1",,,"51,1","6,1,03,1","09,1,+00180,1,99,9",,,,"99999,9,10018,1","8,1,030,1,+999,9","SYN076AAXX  11091 02458 47/71 /0403 10132 20125 30018 40043 58030 75165 333 89/06;",
"02458099999","2010-06-11T12:00:00","4","59.897328","17.588581","20.72","UPPSALA, SW","FM-12","ESCM ","V020","090,1,N,0040,1","99999,9,9,N","040000,1,N,1","+0156,1","+0130,1","10010,1",,,"00,1","8,1,06,1","03,1,+00450,1,99,9",,,,"99999,9,09986,1","8,1,033,1,+999,9","SYN082AAXX  11121 02458 47482 /0904 10156 20130 39986 40010 58033 70086 333 83/15 88/26;",
"02458099999","2010-06-11T15:00:00","4","59.897328","17.588581","20.72","UPPSALA, SW","FM-12","ESCM ","V020","060,1,N,0050,1","00240,1,C,N","045000,1,N,1","+0140,1","+0125,1","09986,1",,,,,"08,1,+00240,1,99,9",,,,"99999,9,09962,1","8,1,024,1,+999,9","SYN070AAXX  11151 02458 45383 /0605 10140 20125 39962 49986 58024 333 88/08;",
"02458099999","2010-06-11T18:00:00","4","59.897328","17.588581","20.72","UPPSALA, SW","FM-12","ESCM ","V020","040,1,N,0030,1","00390,1,C,N","005000,1,N,1","+0132,1","+0127,1","09957,1","12,0030,9,1",,"10,1","2,1,06,1","09,1,+00390,1,99,9",,"120,M,+0164,1","999,N,+0110,1","99999,9,09933,1","8,1,029,1,+999,9","SYN094AAXX  11181 02458 17/50 /0403 10132 20127 39933 49957 58029 60032 71010 333 10164 20110 89/13;",
"02458099999","2010-06-11T21:00:00","4","59.897328","17.588581","20.72","UPPSALA, SW","FM-12","ESCM ","V020","040,1,N,0020,1","00150,1,C,N","010000,1,N,1","+0126,1","+0120,1","09934,1",,,"10,1","2,1,03,1","09,1,+00150,1,99,9",,,,"99999,9,09910,1","6,1,023,1,+999,9","SYN076AAXX  11211 02458 47/60 /0402 10126 20120 39910 49934 56023 71010 333 89/05;",
"02458099999","2010-06-12T00:00:00","4","59.897328","17.588581","20.72","UPPSALA, SW","FM-12","ESCM ","V020","060,1,N,0030,1","00150,1,C,N","005000,1,N,1","+0121,1","+0117,1","09895,1",,,"10,1","8,1,06,1","09,1,+00150,1,99,9",,,,"99999,9,09871,1","8,1,039,1,+999,9","SYN076AAXX  12001 02458 47/50 /0603 10121 20117 39871 49895 58039 71086 333 89/05;",
"02458099999","2010-06-12T03:00:00","4","59.897328","17.588581","20.72","UPPSALA, SW","FM-12","ESCM ","V020","210,1,N,0010,1","00240,1,C,N","003000,1,N,1","+0118,1","+0115,1","09867,1",,,"63,1","6,1,03,1","09,1,+00240,1,99,9",,,,"99999,9,09843,1","6,1,028,1,+999,9","SYN076AAXX  12031 02458 47/30 /2101 10118 20115 39843 49867 56028 76365 333 89/08;",
"02458099999","2010-06-12T06:00:00","4","59.897328","17.588581","20.72","UPPSALA, SW","FM-12","ESCM ","V020","230,1,N,0090,1","00330,1,C,N","003600,1,N,1","+0115,1","+0100,1","09862,1","12,0170,9,1","24,0201,9,1","82,1","8,1,06,1","02,1,+00240,1,99,9","04,1,+00330,1,99,9","120,M,+0134,1","999,N,+0115,1","99999,9,09837,1","5,1,005,1,+999,9","SYN118AAXX  12061 02458 07336 /2309 10115 20100 39837 49862 55005 60172 78286 333 10134 20115 60025 70200 82/08 84/11 87/16;",
"02458099999","2010-06-12T09:00:00","4","59.897328","17.588581","20.72","UPPSALA, SW","FM-12","ESCM ","V020","230,1,N,0080,1","01290,1,C,N","035000,1,N,1","+0122,1","+0080,1","09876,1",,,"00,1","8,1,03,1","08,1,+01290,1,99,9",,,,"99999,9,09851,1","3,1,014,1,+999,9","SYN076AAXX  12091 02458 47681 /2308 10122 20080 39851 49876 53014 70082 333 88/43;",
"02458099999","2010-06-12T12:00:00","4","59.897328","17.588581","20.72","UPPSALA, SW","FM-12","ESCM ","V020","220,1,N,0080,1","01140,1,C,N","035000,1,N,1","+0137,1","+0070,1","09884,1",,,"00,1","8,1,06,1","07,1,+01140,1,99,9",,,,"99999,9,09859,1","1,1,008,1,+999,9","SYN082AAXX  12121 02458 47681 /2208 10137 20070 39859 49884 51008 70082 333 87/38 88/56;",
"02458099999","2010-06-12T15:00:00","4","59.897328","17.588581","20.72","UPPSALA, SW","FM-12","ESCM ","V020","230,1,N,0080,1","01110,1,C,N","040000,1,N,1","+0129,1","+0068,1","09885,1",,,,,"08,1,+01110,1,99,9",,,,"99999,9,09861,1","2,1,002,1,+999,9","SYN070AAXX  12151 02458 45682 /2308 10129 20068 39861 49885 52002 333 88/37;",
"02458099999","2010-06-12T18:00:00","4","59.897328","17.588581","20.72","UPPSALA, SW","FM-12","ESCM ","V020","230,1,N,0070,1","00630,1,C,N","022000,1,N,1","+0115,1","+0091,1","09884,1","12,0005,9,1",,"52,1","8,1,06,1","08,1,+00630,1,99,9",,"120,M,+0143,1","999,N,+0111,1","99999,9,09859,1","7,1,003,1,+999,9","SYN100AAXX  12181 02458 07572 /2307 10115 20091 39859 49884 57003 69952 75286 333 10143 20111 69925 88/21;",
"02458099999","2010-06-12T21:00:00","4","59.897328","17.588581","20.72","UPPSALA, SW","FM-12","ESCM ","V020","260,1,N,0040,1","00510,1,C,N","021000,1,N,1","+0112,1","+0105,1","09892,1",,,"81,1","8,1,03,1","04,1,+00360,1,99,9","07,1,+00510,1,99,9",,,"99999,9,09868,1","2,1,009,1,+999,9","SYN088AAXX  12211 02458 47471 /2604 10112 20105 39868 49892 52009 78186 333 84/12 87/17 88/39;",
"02458099999","2010-06-13T00:00:00","4","59.897328","17.588581","20.72","UPPSALA, SW","FM-12","ESCM ","V020","330,1,N,0090,1","00510,1,C,N","050000,1,N,1","+0113,1","+0092,1","09913,1",,,"22,1","8,1,06,1","08,1,+00510,1,99,9",,,,"99999,9,09889,1","3,1,021,1,+999,9","SYN076AAXX  13001 02458 47484 /3309 10113 20092 39889 49913 53021 72286 333 88/17;",
"02458099999","2010-06-13T03:00:00","4","59.897328","17.588581","20.72","UPPSALA, SW","FM-12","ESCM ","V020","330,1,N,0040,1","22000,1,C,N","050000,1,N,1","+0107,1","+0089,1","09944,1",,,"00,1","8,1,03,1","02,1,+00510,1,99,9","03,1,+00750,1,99,9",,,"99999,9,09919,1","3,1,031,1,+999,9","SYN088AAXX  13031 02458 47484 /3304 10107 20089 39919 49944 53031 70086 333 82/17 83/25 88/41;",
"02458099999","2010-06-13T06:00:00","4","59.897328","17.588581","20.72","UPPSALA, SW","FM-12","ESCM ","V020","310,1,N,0060,1","01500,1,C,N","050000,1,N,1","+0131,1","+0107,1","09973,1","12,0020,9,1","24,0028,9,1","00,1","8,1,06,1","08,1,+01500,1,99,9",,"120,M,+0131,1","999,N,+0106,1","99999,9,09949,1","3,1,029,1,+999,9","SYN100AAXX  13061 02458 17784 /3106 10131 20107 39949 49973 53029 60022 70085 333 10131 20106 70027 88/50;",
"02458099999","2010-06-13T09:00:00","4","59.897328","17.588581","20.72","UPPSALA, SW","FM-12","ESCM ","V020","320,1,N,0060,1","99999,9,9,N","045000,1,N,1","+0171,1","+0101,1","10000,1",,,,,"01,1,+01500,1,99,9",,,,"99999,9,09976,1","2,1,027,1,+999,9","SYN070AAXX  13091 02458 45783 /3206 10171 20101 39976 40000 52027 333 81/50;",
"02458099999","2010-06-13T12:00:00","4","59.897328","17.588581","20.72","UPPSALA, SW","FM-12","ESCM ","V020","070,1,N,0040,1","04800,1,C,N","035000,1,N,1","+0179,1","+0106,1","10025,1",,,,,"04,1,+01500,1,99,9","05,1,+04800,1,99,9",,,"99999,9,10001,1","3,1,025,1,+999,9","SYN082AAXX  13121 02458 45781 /0704 10179 20106 30001 40025 53025 333 84/50 85/66 87/68;",
"02458099999","2010-06-13T15:00:00","4","59.897328","17.588581","20.72","UPPSALA, SW","FM-12","ESCM ","V020","080,1,N,0010,1","99999,9,9,N","050000,1,N,1","+0155,1","+0095,1","10042,1",,,"23,1","8,1,03,1","01,1,+04800,1,99,9",,,,"99999,9,10017,1","1,1,017,1,+999,9","SYN076AAXX  13151 02458 47984 /0801 10155 20095 30017 40042 51017 72386 333 81/66;",
"02458099999","2010-06-13T18:00:00","4","59.897328","17.588581","20.72","UPPSALA, SW","FM-12","ESCM ","V020","250,1,N,0010,1","02100,1,C,N","045000,1,N,1","+0134,1","+0121,1","10052,1","12,0089,9,1",,"00,1","8,1,06,1","06,1,+02100,1,99,9",,"120,M,+0199,1","999,N,+0126,1","99999,9,10028,1","1,1,010,1,+999,9","SYN100AAXX  13180 02458 17883 /2501 10134 20121 30028 40052 51010 60092 70086 333 10199 20126 86/57 88/58;",
"02458099999","2010-06-13T21:00:00","4","59.897328","17.588581","20.72","UPPSALA, SW","FM-12","ESCM ","V020","180,1,N,0010,1","99999,9,9,N","014000,1,N,1","+0124,1","+0119,1","10064,1",,,"62,1","8,1,03,1","01,1,+00810,1,99,9","03,1,+00990,1,99,9",,,"99999,9,10039,1","1,1,012,1,+999,9","SYN088AAXX  13211 02458 47564 /1801 10124 20119 30039 40064 51012 76286 333 81/27 83/33 88/50;",
"02458099999","2010-06-14T00:00:00","4","59.897328","17.588581","20.72","UPPSALA, SW","FM-12","ESCM ","V020","260,1,N,0010,1","99999,9,9,N","005000,1,N,1","+0113,1","+0110,1","10068,1",,,"10,1","8,1,06,1","03,1,+00390,1,99,9",,,,"99999,9,10043,1","2,1,004,1,+999,9","SYN082AAXX  14001 02458 47450 /2601 10113 20110 30043 40068 52004 71086 333 83/13 87/60;",
"02458099999","2010-06-14T03:00:00","4","59.897328","17.588581","20.72","UPPSALA, SW","FM-12","ESCM ","V020","290,1,N,0020,1","99999,9,9,N","040000,1,N,1","+0109,1","+0103,1","10081,1",,,"00,1","4,1,03,1","04,1,+00360,1,99,9",,,,"99999,9,10056,1","2,1,013,1,+999,9","SYN082AAXX  14031 02458 47482 /2902 10109 20103 30056 40081 52013 70032 333 84/12 88/56;",
"02458099999","2010-06-14T06:00:00","4","59.897328","17.588581","20.72","UPPSALA, SW","FM-12","ESCM ","V020","310,1,N,0050,1","99999,9,9,N","045000,1,N,1","+0116,1","+0099,1","10091,1","12,0041,9,1","24,0122,9,1","00,1","4,1,06,1","03,1,+00300,1,99,9",,"120,M,+0135,1","999,N,+0099,1","99999,9,10066,1","3,1,010,1,+999,9","SYN106AAXX  14061 02458 17483 /3105 10116 20099 30066 40091 53010 60042 70032 333 10135 20099 70123 83/10 88/19;",
"02458099999","2010-06-14T09:00:00","4","59.897328","17.588581","20.72","UPPSALA, SW","FM-12","ESCM ","V020","330,1,N,0040,1","00270,1,C,N","003900,1,N,1","+0106,1","+0096,1","10113,1",,,"52,1","6,1,03,1","09,1,+00270,1,99,9",,,,"99999,9,10088,1","3,1,021,1,+999,9","SYN076AAXX  14091 02458 47/39 /3304 10106 20096 30088 40113 53021 75265 333 89/09;",
"02458099999","2010-06-14T12:00:00","4","59.897328","17.588581","20.72","UPPSALA, SW","FM-12","ESCM ","V020","350,1,N,0040,1","01350,1,C,N","035000,1,N,1","+0120,1","+0093,1","10129,1",,,"00,1","8,1,06,1","03,1,+00360,1,99,9","05,1,+01350,1,99,9",,,"99999,9,10104,1","2,1,017,1,+999,9","SYN088AAXX  14121 02458 47481 /3504 10120 20093 30104 40129 52017 70086 333 83/12 85/45 87/56;",
"02458099999","2010-06-14T15:00:00","4","59.897328","17.588581","20.72","UPPSALA, SW","FM-12","ESCM ","V020","270,1,N,0010,1","99999,9,9,N","040000,1,N,1","+0135,1","+0075,1","10128,1",,,,,"02,1,+00660,1,99,9",,,,"99999,9,10103,1","7,1,001,1,+999,9","SYN076AAXX  14151 02458 45582 /2701 10135 20075 30103 40128 57001 333 82/22 88/56;",
"02458099999","2010-06-14T18:00:00","4","59.897328","17.588581","20.72","UPPSALA, SW","FM-12","ESCM ","V020","200,1,N,0010,1","99999,9,9,N","045000,1,N,1","+0128,1","+0093,1","10133,1","12,0010,9,1",,"81,1","8,1,06,1","03,1,+02700,1,99,9",,"120,M,+0145,1","999,N,+0099,1","99999,9,10108,1","2,1,005,1,+999,9","SYN100AAXX  14181 02458 07983 /2001 10128 20093 30108 40133 52005 60012 78186 333 10145 20099 69915 83/59;",
"02458099999","2010-06-14T21:00:00","4","59.897328","17.588581","20.72","UPPSALA, SW","FM-12","ESCM ","V020","200,1,N,0010,1","99999,9,9,N","050000,1,N,1","+0078,1","+0071,1","10145,1",,,"00,1","8,1,03,1","03,1,+01800,1,99,9",,,,"99999,9,10120,1","2,1,012,1,+999,9","SYN076AAXX  14211 02458 47784 /2001 10078 20071 30120 40145 52012 70082 333 83/56;",
"02458099999","2010-06-15T00:00:00","4","59.897328","17.588581","20.72","UPPSALA, SW","FM-12","ESCM ","V020","190,1,N,0010,1","99999,9,9,N","000200,1,N,1","+0056,1","+0052,1","10151,1",,,"34,1","8,1,06,1",,,,,"99999,9,10125,1","2,1,006,1,+999,9","SYN066AAXX  15001 02458 47902 /1901 10056 20052 30125 40151 52006 73483;",
"02458099999","2010-06-15T03:00:00","4","59.897328","17.588581","20.72","UPPSALA, SW","FM-12","ESCM ","V020","300,1,N,0020,1","99999,9,9,N","040000,1,N,1","+0060,1","+0051,1","10159,1",,,"00,1","4,1,03,1",,,,,"99999,9,10133,1","2,1,008,1,+999,9","SYN066AAXX  15031 02458 47982 /3002 10060 20051 30133 40159 52008 70032;",
"02458099999","2010-06-15T06:00:00","4","59.897328","17.588581","20.72","UPPSALA, SW","FM-12","ESCM ","V020","330,1,N,0040,1","03300,1,C,N","045000,1,N,1","+0106,1","+0064,1","10168,1","24,0013,9,1",,"00,1","4,1,06,1","08,1,+03300,1,99,9",,"120,M,+0133,1","999,N,+0043,1","99999,9,10143,1","2,1,009,1,+999,9","SYN094AAXX  15061 02458 37983 /3304 10106 20064 30143 40168 52009 70032 333 10133 20043 70013 88/61;",
"02458099999","2010-06-15T09:00:00","4","59.897328","17.588581","20.72","UPPSALA, SW","FM-12","ESCM ","V020","340,1,N,0050,1","00660,1,C,N","040000,1,N,1","+0101,1","+0063,1","10184,1",,,,,"08,1,+00660,1,99,9",,,,"99999,9,10158,1","3,1,016,1,+999,9","SYN070AAXX  15091 02458 45582 /3405 10101 20063 30158 40184 53016 333 88/22;",
"02458099999","2010-06-15T12:00:00","4","59.897328","17.588581","20.72","UPPSALA, SW","FM-12","ESCM ","V020","340,1,N,0040,1","00450,1,C,N","030000,1,N,1","+0102,1","+0073,1","10196,1",,,"00,1","8,1,06,1","06,1,+00450,1,99,9","07,1,+00630,1,99,9",,,"99999,9,10171,1","2,1,012,1,+999,9","SYN088AAXX  15121 02458 47480 /3404 10102 20073 30171 40196 52012 70086 333 86/15 87/21 88/30;",
"02458099999","2010-06-15T15:00:00","4","59.897328","17.588581","20.72","UPPSALA, SW","FM-12","ESCM ","V020","360,1,N,0040,1","00330,1,C,N","040000,1,N,1","+0107,1","+0083,1","10203,1",,,"00,1","8,1,03,1","07,1,+00330,1,99,9",,,,"99999,9,10178,1","2,1,007,1,+999,9","SYN082AAXX  15151 02458 47482 /3604 10107 20083 30178 40203 52007 70086 333 87/11 88/15;",
"02458099999","2010-06-15T18:00:00","4","59.897328","17.588581","20.72","UPPSALA, SW","FM-12","ESCM ","V020","340,1,N,0020,1","02100,1,C,N","045000,1,N,1","+0124,1","+0082,1","10203,1","12,0000,9,1",,"00,1","8,1,06,1","08,1,+02100,1,99,9",,"120,M,+0133,1","999,N,+0094,1","99999,9,10178,1","5,1,001,1,+999,9","SYN094AAXX  15181 02458 17883 /3402 10124 20082 30178 40203 55001 69912 70086 333 10133 20094 88/57;","Q01  00002PRCP12"
"02458099999","2010-06-15T21:00:00","4","59.897328","17.588581","20.72","UPPSALA, SW","FM-12","ESCM ","V020","999,9,C,0000,1","99999,9,9,N","035000,1,N,1","+0078,1","+0070,1","10212,1",,,,,,,,,"99999,9,10186,1","2,1,009,1,+999,9","SYN060AAXX  15211 02458 45981 /0000 10078 20070 30186 40212 52009;",
"02458099999","2010-06-16T00:00:00","4","59.897328","17.588581","20.72","UPPSALA, SW","FM-12","ESCM ","V020","280,1,N,0010,1","99999,9,9,N","018000,1,N,1","+0067,1","+0063,1","10213,1",,,,,,,,,"99999,9,10188,1","2,1,002,1,+999,9","SYN060AAXX  16001 02458 45968 /2801 10067 20063 30188 40213 52002;",
"02458099999","2010-06-16T03:00:00","4","59.897328","17.588581","20.72","UPPSALA, SW","FM-12","ESCM ","V020","300,1,N,0010,1","99999,9,9,N","045000,1,N,1","+0057,1","+0053,1","10216,1",,,,,,,,,"99999,9,10190,1","2,1,002,1,+999,9","SYN060AAXX  16031 02458 45983 /3001 10057 20053 30190 40216 52002;",
"02458099999","2010-06-16T06:00:00","4","59.897328","17.588581","20.72","UPPSALA, SW","FM-12","ESCM ","V020","340,1,N,0040,1","99999,9,9,N","035000,1,N,1","+0114,1","+0065,1","10219,1","24,0000,9,1",,,,,,"120,M,+0126,1","999,N,+0046,1","99999,9,10194,1","2,1,004,1,+999,9","SYN082AAXX  16061 02458 35981 /3404 10114 20065 30194 40219 52004 333 10126 20046 70001;","Q01  00002PRCP24"
"02458099999","2010-06-16T09:00:00","4","59.897328","17.588581","20.72","UPPSALA, SW","FM-12","ESCM ","V020","320,1,N,0030,1","99999,9,9,N","040000,1,N,1","+0150,1","+0061,1","10210,1",,,,,,,,,"99999,9,10185,1","8,1,010,1,+999,9","SYN060AAXX  16091 02458 45982 /3203 10150 20061 30185 40210 58010;",
"02458099999","2010-06-16T12:00:00","4","59.897328","17.588581","20.72","UPPSALA, SW","FM-12","ESCM ","V020","310,1,N,0040,1","99999,9,9,N","035000,1,N,1","+0176,1","+0059,1","10199,1",,,,,"02,1,+01800,1,99,9",,,,"99999,9,10174,1","7,1,010,1,+999,9","SYN070AAXX  16121 02458 45781 /3104 10176 20059 30174 40199 57010 333 82/56;",
"02458099999","2010-06-16T15:00:00","4","59.897328","17.588581","20.72","UPPSALA, SW","FM-12","ESCM ","V020","330,1,N,0040,1","99999,9,9,N","040000,1,N,1","+0192,1","+0056,1","10185,1",,,,,"03,1,+02100,1,99,9",,,,"99999,9,10161,1","7,1,014,1,+999,9","SYN070AAXX  16151 02458 45882 /3304 10192 20056 30161 40185 57014 333 83/57;",
"02458099999","2010-06-16T18:00:00","4","59.897328","17.588581","20.72","UPPSALA, SW","FM-12","ESCM ","V020","110,1,N,0040,1","99999,9,9,N","050000,1,N,1","+0156,1","+0062,1","10184,1",,,,,"01,1,+02400,1,99,9",,"120,M,+0201,1","999,N,+0114,1","99999,9,10159,1","5,1,001,1,+999,9","SYN082AAXX  16181 02458 35984 /1104 10156 20062 30159 40184 55001 333 10201 20114 81/58;",
"02458099999","2010-06-16T21:00:00","4","59.897328","17.588581","20.72","UPPSALA, SW","FM-12","ESCM ","V020","070,1,N,0020,1","99999,9,9,N","050000,1,N,1","+0096,1","+0064,1","10196,1",,,,,"01,1,+03300,1,99,9",,,,"99999,9,10170,1","2,1,011,1,+999,9","SYN070AAXX  16211 02458 45984 /0702 10096 20064 30170 40196 52011 333 81/61;",
"02458099999","2010-06-17T00:00:00","4","59.897328","17.588581","20.72","UPPSALA, SW","FM-12","ESCM ","V020","999,9,C,0000,1","03900,1,C,N","050000,1,N,1","+0078,1","+0067,1","10197,1",,,,,"08,1,+03900,1,99,9",,,,"99999,9,10171,1","0,1,001,1,+999,9","SYN070AAXX  17001 02458 45984 /0000 10078 20067 30171 40197 50001 333 88/63;",
"02458099999","2010-06-17T03:00:00","4","59.897328","17.588581","20.72","UPPSALA, SW","FM-12","ESCM ","V020","300,1,N,0010,1","04200,1,C,N","040000,1,N,1","+0087,1","+0075,1","10199,1",,,,,"08,1,+04200,1,99,9",,,,"99999,9,10173,1","2,1,002,1,+999,9","SYN070AAXX  17031 02458 45982 /3001 10087 20075 30173 40199 52002 333 88/64;",
"02458099999","2010-06-17T06:00:00","4","59.897328","17.588581","20.72","UPPSALA, SW","FM-12","ESCM ","V020","999,9,C,0000,1","99999,9,9,N","035000,1,N,1","+0147,1","+0084,1","10199,1",,,,,,,"120,M,+0156,1","999,N,+0074,1","99999,9,10174,1","0,1,000,1,+999,9","SYN076AAXX  17061 02458 35981 /0000 10147 20084 30174 40199 50000 333 10156 20074;",
"02458099999","2010-06-17T09:00:00","4","59.897328","17.588581","20.72","UPPSALA, SW","FM-12","ESCM ","V020","220,1,N,0020,1","99999,9,9,N","045000,1,N,1","+0184,1","+0061,1","10192,1",,,,,"01,1,+03000,1,99,9",,,,"99999,9,10167,1","8,1,007,1,+999,9","SYN070AAXX  17091 02458 45983 /2202 10184 20061 30167 40192 58007 333 81/60;",
"02458099999","2010-06-17T12:00:00","4","59.897328","17.588581","20.72","UPPSALA, SW","FM-12","ESCM ","V020","190,1,N,0030,1","99999,9,9,N","040000,1,N,1","+0199,1","+0071,1","10171,1",,,,,"01,1,+05100,1,99,9",,,,"99999,9,10147,1","8,1,020,1,+999,9","SYN070AAXX  17121 02458 45982 /1903 10199 20071 30147 40171 58020 333 81/67;",
"02458099999","2010-06-17T15:00:00","4","59.897328","17.588581","20.72","UPPSALA, SW","FM-12","ESCM ","V020","210,1,N,0040,1","99999,9,9,N","045000,1,N,1","+0205,1","+0084,1","10147,1",,,,,"02,1,+01800,1,99,9",,,,"99999,9,10123,1","7,1,023,1,+999,9","SYN076AAXX  17151 02458 45783 /2104 10205 20084 30123 40147 57023 333 82/56 84/60;",
"02458099999","2010-06-17T18:00:00","4","59.897328","17.588581","20.72","UPPSALA, SW","FM-12","ESCM ","V020","180,1,N,0050,1","99999,9,9,N","045000,1,N,1","+0191,1","+0112,1","10123,1",,,,,"03,1,+03900,1,99,9",,"120,M,+0220,1","999,N,+0147,1","99999,9,10098,1","7,1,025,1,+999,9","SYN088AAXX  17180 02458 35983 /1805 10191 20112 30098 40123 57025 333 10220 20147 83/63 85/67;",
"02458099999","2010-06-17T21:00:00","4","59.897328","17.588581","20.72","UPPSALA, SW","FM-12","ESCM ","V020","170,1,N,0030,1","04800,1,C,N","050000,1,N,1","+0154,1","+0101,1","10104,1",,,,,"06,1,+04800,1,99,9",,,,"99999,9,10079,1","8,1,019,1,+999,9","SYN070AAXX  17211 02458 45984 /1703 10154 20101 30079 40104 58019 333 86/66;",
"02458099999","2010-06-18T00:00:00","4","59.897328","17.588581","20.72","UPPSALA, SW","FM-12","ESCM ","V020","180,1,N,0040,1","04200,1,C,N","050000,1,N,1","+0144,1","+0080,1","10072,1",,,,,"06,1,+04200,1,99,9",,,,"99999,9,10047,1","8,1,032,1,+999,9","SYN076AAXX  18001 02458 45984 /1804 10144 20080 30047 40072 58032 333 86/64 87/66;",
"02458099999","2010-06-18T03:00:00","4","59.897328","17.588581","20.72","UPPSALA, SW","FM-12","ESCM ","V020","180,1,N,0030,1","99999,9,9,N","050000,1,N,1","+0138,1","+0090,1","10033,1",,,,,"04,1,+02700,1,99,9",,,,"99999,9,10008,1","8,1,039,1,+999,9","SYN076AAXX  18031 02458 45984 /1803 10138 20090 30008 40033 58039 333 84/59 86/62;",
"02458099999","2010-06-18T06:00:00","4","59.897328","17.588581","20.72","UPPSALA, SW","FM-12","ESCM ","V020","200,1,N,0040,1","99999,9,9,N","045000,1,N,1","+0141,1","+0099,1","10001,1","12,0000,9,1","24,0003,9,1","00,1","8,1,06,1","01,1,+00630,1,99,9",,"120,M,+0192,1","999,N,+0134,1","99999,9,09976,1","6,1,032,1,+999,9","SYN100AAXX  18060 02458 17583 /2004 10141 20099 39976 40001 56032 69922 70086 333 10192 20134 70002 81/21;","Q01  00002PRCP12"
"02458099999","2010-06-18T09:00:00","4","59.897328","17.588581","20.72","UPPSALA, SW","FM-12","ESCM ","V020","210,1,N,0050,1","00510,1,C,N","006000,1,N,1","+0123,1","+0103,1","09983,1",,,"10,1","2,1,03,1","07,1,+00510,1,99,9",,,,"99999,9,09959,1","6,1,018,1,+999,9","SYN082AAXX  18091 02458 47456 /2105 10123 20103 39959 49983 56018 71010 333 87/17 88/23;",
"02458099999","2010-06-18T12:00:00","4","59.897328","17.588581","20.72","UPPSALA, SW","FM-12","ESCM ","V020","190,1,N,0060,1","00480,1,C,N","035000,1,N,1","+0160,1","+0120,1","09969,1",,,"00,1","8,1,06,1","05,1,+00480,1,99,9",,,,"99999,9,09944,1","8,1,014,1,+999,9","SYN076AAXX  18121 02458 47481 /1906 10160 20120 39944 49969 58014 70086 333 85/16;",
"02458099999","2010-06-18T15:00:00","4","59.897328","17.588581","20.72","UPPSALA, SW","FM-12","ESCM ","V020","190,1,N,0020,1","99999,9,9,N","040000,1,N,1","+0142,1","+0087,1","09964,1",,,"00,1","8,1,03,1","03,1,+02400,1,99,9",,,,"99999,9,09940,1","8,1,005,1,+999,9","SYN076AAXX  18151 02458 47982 /1902 10142 20087 39940 49964 58005 70086 333 83/58;",
"02458099999","2010-06-18T18:00:00","4","59.897328","17.588581","20.72","UPPSALA, SW","FM-12","ESCM ","V020","180,1,N,0030,1","99999,9,9,N","050000,1,N,1","+0134,1","+0073,1","09958,1","12,0030,9,1",,"00,1","8,1,06,1",,,"120,M,+0160,1","999,N,+0112,1","99999,9,09934,1","6,1,006,1,+999,9","SYN088AAXX  18181 02458 17984 /1803 10134 20073 39934 49958 56006 60032 70086 333 10160 20112;",
"02458099999","2010-06-18T21:00:00","4","59.897328","17.588581","20.72","UPPSALA, SW","FM-12","ESCM ","V020","140,1,N,0030,1","99999,9,9,N","050000,1,N,1","+0112,1","+0094,1","09958,1",,,,,"02,1,+01500,1,99,9",,,,"99999,9,09934,1","4,1,000,1,+999,9","SYN076AAXX  18211 02458 45784 /1403 10112 20094 39934 49958 54000 333 82/50 87/62;",
"02458099999","2010-06-19T00:00:00","4","59.897328","17.588581","20.72","UPPSALA, SW","FM-12","ESCM ","V020","090,1,N,0010,1","99999,9,9,N","050000,1,N,1","+0094,1","+0087,1","09957,1",,,"22,1","8,1,06,1","04,1,+01320,1,99,9",,,,"99999,9,09933,1","0,1,001,1,+999,9","SYN082AAXX  19001 02458 47684 /0901 10094 20087 39933 49957 50001 72286 333 84/44 85/50;",
"02458099999","2010-06-19T03:00:00","4","59.897328","17.588581","20.72","UPPSALA, SW","FM-12","ESCM ","V020","999,9,C,0000,1","01020,1,C,N","035000,1,N,1","+0081,1","+0077,1","09961,1",,,,,"08,1,+01020,1,99,9",,,,"99999,9,09936,1","3,1,004,1,+999,9","SYN070AAXX  19031 02458 45681 /0000 10081 20077 39936 49961 53004 333 88/34;",
"02458099999","2010-06-19T06:00:00","4","59.897328","17.588581","20.72","UPPSALA, SW","FM-12","ESCM ","V020","170,1,N,0020,1","99999,9,9,N","040000,1,N,1","+0121,1","+0064,1","09973,1","12,0005,9,1","24,0030,9,1",,,,,"120,M,+0138,1","999,N,+0071,1","99999,9,09949,1","2,1,012,1,+999,9","SYN088AAXX  19061 02458 15982 /1702 10121 20064 39949 49973 52012 69952 333 10138 20071 70030;",
"02458099999","2010-06-19T09:00:00","4","59.897328","17.588581","20.72","UPPSALA, SW","FM-12","ESCM ","V020","180,1,N,0010,1","01320,1,C,N","040000,1,N,1","+0144,1","+0045,1","09987,1",,,,,"07,1,+01320,1,99,9",,,,"99999,9,09962,1","2,1,014,1,+999,9","SYN076AAXX  19091 02458 45682 /1801 10144 20045 39962 49987 52014 333 87/44 88/71;",
"02458099999","2010-06-19T12:00:00","4","59.897328","17.588581","20.72","UPPSALA, SW","FM-12","ESCM ","V020","310,1,N,0010,1","99999,9,9,N","035000,1,N,1","+0163,1","+0052,1","09991,1",,,,,,,,,"99999,9,09967,1","2,1,004,1,+999,9","SYN060AAXX  19121 02458 45981 /3101 10163 20052 39967 49991 52004;",
"02458099999","2010-06-19T15:00:00","4","59.897328","17.588581","20.72","UPPSALA, SW","FM-12","ESCM ","V020","150,1,N,0010,1","99999,9,9,N","045000,1,N,1","+0183,1","+0056,1","09992,1",,,,,"03,1,+02400,1,99,9",,,,"99999,9,09968,1","2,1,001,1,+999,9","SYN070AAXX  19151 02458 45883 /1501 10183 20056 39968 49992 52001 333 83/58;",
"02458099999","2010-06-19T18:00:00","4","59.897328","17.588581","20.72","UPPSALA, SW","FM-12","ESCM ","V020","250,1,N,0020,1","99999,9,9,N","050000,1,N,1","+0153,1","+0048,1","09993,1",,,,,,,"120,M,+0190,1","999,N,+0121,1","99999,9,09969,1","5,1,001,1,+999,9","SYN076AAXX  19181 02458 35984 /2502 10153 20048 39969 49993 55001 333 10190 20121;",
"02458099999","2010-06-19T21:00:00","4","59.897328","17.588581","20.72","UPPSALA, SW","FM-12","ESCM ","V020","220,1,N,0020,1","99999,9,9,N","050000,1,N,1","+0112,1","+0062,1","10008,1",,,,,,,,,"99999,9,09983,1","2,1,014,1,+999,9","SYN060AAXX  19211 02458 45984 /2202 10112 20062 39983 40008 52014;",
"02458099999","2010-06-20T00:00:00","4","59.897328","17.588581","20.72","UPPSALA, SW","FM-12","ESCM ","V020","360,1,N,0010,1","99999,9,9,N","050000,1,N,1","+0090,1","+0069,1","10019,1",,,,,"02,1,+02400,1,99,9",,,,"99999,9,09994,1","1,1,012,1,+999,9","SYN070AAXX  20001 02458 45984 /3601 10090 20069 39994 40019 51012 333 82/58;",
"02458099999","2010-06-20T03:00:00","4","59.897328","17.588581","20.72","UPPSALA, SW","FM-12","ESCM ","V020","999,9,C,0000,1","99999,9,9,N","050000,1,N,1","+0085,1","+0059,1","10034,1",,,,,,,,,"99999,9,10009,1","3,1,015,1,+999,9","SYN060AAXX  20031 02458 45984 /0000 10085 20059 30009 40034 53015;",
"02458099999","2010-06-20T06:00:00","4","59.897328","17.588581","20.72","UPPSALA, SW","FM-12","ESCM ","V020","999,9,C,0000,1","99999,9,9,N","045000,1,N,1","+0138,1","+0090,1","10051,1",,,,,,,"120,M,+0154,1","999,N,+0064,1","99999,9,10027,1","3,1,017,1,+999,9","SYN076AAXX  20061 02458 35983 /0000 10138 20090 30027 40051 53017 333 10154 20064;",
"02458099999","2010-06-20T09:00:00","4","59.897328","17.588581","20.72","UPPSALA, SW","FM-12","ESCM ","V020","250,1,N,0020,1","99999,9,9,N","045000,1,N,1","+0149,1","+0082,1","10067,1",,,,,"01,1,+00960,1,99,9",,,,"99999,9,10042,1","1,1,016,1,+999,9","SYN076AAXX  20091 02458 45583 /2502 10149 20082 30042 40067 51016 333 81/32 88/58;",
"02458099999","2010-06-20T12:00:00","4","59.897328","17.588581","20.72","UPPSALA, SW","FM-12","ESCM ","V020","330,1,N,0030,1","01290,1,C,N","012000,1,N,1","+0132,1","+0105,1","10085,1",,,"82,1","8,1,06,1","03,1,+01050,1,99,9","06,1,+01290,1,99,9",,,"99999,9,10060,1","1,1,018,1,+999,9","SYN088AAXX  20121 02458 47662 /3303 10132 20105 30060 40085 51018 78286 333 83/35 86/43 88/50;",
"02458099999","2010-06-20T15:00:00","4","59.897328","17.588581","20.72","UPPSALA, SW","FM-12","ESCM ","V020","360,1,N,0020,1","01500,1,C,N","040000,1,N,1","+0129,1","+0103,1","10105,1",,,"00,1","8,1,03,1","08,1,+01500,1,99,9",,,,"99999,9,10080,1","3,1,021,1,+999,9","SYN076AAXX  20151 02458 47782 /3602 10129 20103 30080 40105 53021 70082 333 88/50;",
"02458099999","2010-06-20T18:00:00","4","59.897328","17.588581","20.72","UPPSALA, SW","FM-12","ESCM ","V020","070,1,N,0020,1","99999,9,9,N","050000,1,N,1","+0125,1","+0099,1","10116,1","12,0079,9,1",,"00,1","8,1,06,1",,,"120,M,+0166,1","999,N,+0113,1","99999,9,10091,1","1,1,011,1,+999,9","SYN088AAXX  20181 02458 17984 /0702 10125 20099 30091 40116 51011 60082 70082 333 10166 20113;",
"02458099999","2010-06-20T21:00:00","4","59.897328","17.588581","20.72","UPPSALA, SW","FM-12","ESCM ","V020","050,1,N,0020,1","01500,1,C,N","050000,1,N,1","+0107,1","+0094,1","10142,1",,,,,"02,1,+01260,1,99,9","05,1,+01500,1,99,9",,,"99999,9,10116,1","2,1,025,1,+999,9","SYN082AAXX  20211 02458 45684 /0502 10107 20094 30116 40142 52025 333 82/42 85/50 88/56;",
"02458099999","2010-06-21T00:00:00","4","59.897328","17.588581","20.72","UPPSALA, SW","FM-12","ESCM ","V020","360,1,N,0010,1","01500,1,C,N","050000,1,N,1","+0100,1","+0084,1","10149,1",,,,,"07,1,+01500,1,99,9",,,,"99999,9,10124,1","1,1,007,1,+999,9","SYN076AAXX  21001 02458 45784 /3601 10100 20084 30124 40149 51007 333 87/50 88/56;",
"02458099999","2010-06-21T03:00:00","4","59.897328","17.588581","20.72","UPPSALA, SW","FM-12","ESCM ","V020","350,1,N,0030,1","01800,1,C,N","050000,1,N,1","+0096,1","+0082,1","10161,1",,,,,"08,1,+01800,1,99,9",,,,"99999,9,10136,1","3,1,012,1,+999,9","SYN070AAXX  21031 02458 45884 /3503 10096 20082 30136 40161 53012 333 88/56;",
"02458099999","2010-06-21T06:00:00","4","59.897328","17.588581","20.72","UPPSALA, SW","FM-12","ESCM ","V020","010,1,N,0050,1","02100,1,C,N","050000,1,N,1","+0108,1","+0066,1","10176,1","24,0079,9,1",,,,"08,1,+02100,1,99,9",,"120,M,+0131,1","999,N,+0093,1","99999,9,10151,1","2,1,016,1,+999,9","SYN088AAXX  21061 02458 35884 /0105 10108 20066 30151 40176 52016 333 10131 20093 70080 88/57;",
"02458099999","2010-06-21T09:00:00","4","59.897328","17.588581","20.72","UPPSALA, SW","FM-12","ESCM ","V020","020,1,N,0020,1","99999,9,9,N","040000,1,N,1","+0129,1","+0064,1","10184,1",,,,,"03,1,+05100,1,99,9",,,,"99999,9,10159,1","2,1,008,1,+999,9","SYN070AAXX  21091 02458 45982 /0202 10129 20064 30159 40184 52008 333 83/67;",
"02458099999","2010-06-21T12:00:00","4","59.897328","17.588581","20.72","UPPSALA, SW","FM-12","ESCM ","V020","340,1,N,0030,1","99999,9,9,N","035000,1,N,1","+0151,1","+0051,1","10183,1",,,,,"04,1,+05400,1,99,9",,,,"99999,9,10158,1","4,1,000,1,+999,9","SYN070AAXX  21121 02458 45981 /3403 10151 20051 30158 40183 54001 333 84/68;",
"02458099999","2010-06-21T15:00:00","4","59.897328","17.588581","20.72","UPPSALA, SW","FM-12","ESCM ","V020","070,1,N,0010,1","99999,9,9,N","045000,1,N,1","+0161,1","+0030,1","10180,1",,,,,,,,,"99999,9,10156,1","7,1,003,1,+999,9","SYN060AAXX  21151 02458 45983 /0701 10161 20030 30156 40180 57003;",
"02458099999","2010-06-21T18:00:00","4","59.897328","17.588581","20.72","UPPSALA, SW","FM-12","ESCM ","V020","030,1,N,0020,1","99999,9,9,N","050000,1,N,1","+0162,1","+0055,1","10178,1",,,,,,,"120,M,+0172,1","999,N,+0108,1","99999,9,10154,1","7,1,002,1,+999,9","SYN076AAXX  21181 02458 35984 /0302 10162 20055 30154 40178 57002 333 10172 20108;",
"02458099999","2010-06-21T21:00:00","4","59.897328","17.588581","20.72","UPPSALA, SW","FM-12","ESCM ","V020","120,1,N,0010,1","04500,1,C,N","050000,1,N,1","+0113,1","+0062,1","10185,1",,,,,"07,1,+04500,1,99,9",,,,"99999,9,10160,1","2,1,007,1,+999,9","SYN070AAXX  21211 02458 45984 /1201 10113 20062 30160 40185 52007 333 87/65;",
"02458099999","2010-06-22T00:00:00","4","59.897328","17.588581","20.72","UPPSALA, SW","FM-12","ESCM ","V020","999,9,C,0000,1","99999,9,9,N","050000,1,N,1","+0077,1","+0070,1","10185,1",,,,,,,,,"99999,9,10159,1","4,1,000,1,+999,9","SYN060AAXX  22001 02458 45984 /0000 10077 20070 30159 40185 54001;",
"02458099999","2010-06-22T03:00:00","4","59.897328","17.588581","20.72","UPPSALA, SW","FM-12","ESCM ","V020","999,9,C,0000,1","99999,9,9,N","035000,1,N,1","+0079,1","+0074,1","10183,1",,,,,,,,,"99999,9,10157,1","7,1,002,1,+999,9","SYN060AAXX  22031 02458 45981 /0000 10079 20074 30157 40183 57002;",
"02458099999","2010-06-22T06:00:00","4","59.897328","17.588581","20.72","UPPSALA, SW","FM-12","ESCM ","V020","190,1,N,0010,1","99999,9,9,N","030000,1,N,1","+0154,1","+0099,1","10184,1",,,,,"02,1,+02100,1,99,9",,"120,M,+0162,1","999,N,+0056,1","99999,9,10159,1","2,1,002,1,+999,9","SYN082AAXX  22060 02458 35880 /1901 10154 20099 30159 40184 52002 333 10162 20056 82/57;",
"02458099999","2010-06-22T09:00:00","4","59.897328","17.588581","20.72","UPPSALA, SW","FM-12","ESCM ","V020","190,1,N,0010,1","99999,9,9,N","040000,1,N,1","+0202,1","+0068,1","10177,1",,,,,,,,,"99999,9,10153,1","7,1,006,1,+999,9","SYN060AAXX  22091 02458 45982 /1901 10202 20068 30153 40177 57006;",
"02458099999","2010-06-22T12:00:00","4","59.897328","17.588581","20.72","UPPSALA, SW","FM-12","ESCM ","V020","250,1,N,0020,1","99999,9,9,N","045000,1,N,1","+0222,1","+0061,1","10165,1",,,,,"02,1,+02100,1,99,9",,,,"99999,9,10141,1","7,1,012,1,+999,9","SYN070AAXX  22120 02458 45883 /2502 10222 20061 30141 40165 57012 333 82/57;",
"02458099999","2010-06-22T15:00:00","4","59.897328","17.588581","20.72","UPPSALA, SW","FM-12","ESCM ","V020","240,1,N,0020,1","99999,9,9,N","045000,1,N,1","+0204,1","+0077,1","10159,1",,,,,"03,1,+02400,1,99,9",,,,"99999,9,10135,1","7,1,006,1,+999,9","SYN076AAXX  22151 02458 45983 /2402 10204 20077 30135 40159 57006 333 83/58 88/60;",
"02458099999","2010-06-22T18:00:00","4","59.897328","17.588581","20.72","UPPSALA, SW","FM-12","ESCM ","V020","220,1,N,0020,1","99999,9,9,N","045000,1,N,1","+0197,1","+0073,1","10156,1",,,,,,,"120,M,+0230,1","999,N,+0154,1","99999,9,10132,1","7,1,003,1,+999,9","SYN076AAXX  22181 02458 35983 /2202 10197 20073 30132 40156 57003 333 10230 20154;",
"02458099999","2010-06-22T21:00:00","4","59.897328","17.588581","20.72","UPPSALA, SW","FM-12","ESCM ","V020","230,1,N,0020,1","99999,9,9,N","009000,1,N,1","+0146,1","+0054,1","10167,1",,,"10,1","2,1,03,1",,,,,"99999,9,10143,1","2,1,011,1,+999,9","SYN066AAXX  22211 02458 47959 /2302 10146 20054 30143 40167 52011 71010;",
"02458099999","2010-06-23T00:00:00","4","59.897328","17.588581","20.72","UPPSALA, SW","FM-12","ESCM ","V020","250,1,N,0010,1","03300,1,C,N","050000,1,N,1","+0097,1","+0066,1","10179,1",,,,,"07,1,+03300,1,99,9",,,,"99999,9,10154,1","3,1,011,1,+999,9","SYN070AAXX  23001 02458 45984 /2501 10097 20066 30154 40179 53011 333 87/61;",
"02458099999","2010-06-23T03:00:00","4","59.897328","17.588581","20.72","UPPSALA, SW","FM-12","ESCM ","V020","290,1,N,0020,1","99999,9,9,N","045000,1,N,1","+0088,1","+0076,1","10185,1",,,,,,,,,"99999,9,10159,1","2,1,005,1,+999,9","SYN060AAXX  23031 02458 45983 /2902 10088 20076 30159 40185 52005;",
"02458099999","2010-06-23T06:00:00","4","59.897328","17.588581","20.72","UPPSALA, SW","FM-12","ESCM ","V020","010,1,N,0020,1","99999,9,9,N","050000,1,N,1","+0151,1","+0090,1","10197,1",,,,,,,"120,M,+0198,1","999,N,+0081,1","99999,9,10172,1","2,1,012,1,+999,9","SYN076AAXX  23060 02458 35984 /0102 10151 20090 30172 40197 52012 333 10198 20081;",
"02458099999","2010-06-23T09:00:00","4","59.897328","17.588581","20.72","UPPSALA, SW","FM-12","ESCM ","V020","080,1,N,0020,1","99999,9,9,N","040000,1,N,1","+0192,1","+0104,1","10196,1",,,,,,,,,"99999,9,10172,1","4,1,000,1,+999,9","SYN060AAXX  23091 02458 45982 /0802 10192 20104 30172 40196 54000;",
"02458099999","2010-06-23T12:00:00","4","59.897328","17.588581","20.72","UPPSALA, SW","FM-12","ESCM ","V020","020,1,N,0020,1","99999,9,9,N","035000,1,N,1","+0208,1","+0094,1","10192,1",,,,,"01,1,+01410,1,99,9",,,,"99999,9,10168,1","8,1,004,1,+999,9","SYN070AAXX  23121 02458 45681 /0202 10208 20094 30168 40192 58004 333 81/47;",
"02458099999","2010-06-23T15:00:00","4","59.897328","17.588581","20.72","UPPSALA, SW","FM-12","ESCM ","V020","050,1,N,0010,1","99999,9,9,N","040000,1,N,1","+0224,1","+0103,1","10184,1",,,,,,,,,"99999,9,10159,1","7,1,009,1,+999,9","SYN060AAXX  23151 02458 45982 /0501 10224 20103 30159 40184 57009;",
"02458099999","2010-06-23T18:00:00","4","59.897328","17.588581","20.72","UPPSALA, SW","FM-12","ESCM ","V020","090,1,N,0050,1","99999,9,9,N","050000,1,N,1","+0194,1","+0104,1","10178,1",,,,,,,"120,M,+0232,1","999,N,+0150,1","99999,9,10154,1","5,1,005,1,+999,9","SYN076AAXX  23180 02458 35984 /0905 10194 20104 30154 40178 55005 333 10232 20150;",
"02458099999","2010-06-23T21:00:00","4","59.897328","17.588581","20.72","UPPSALA, SW","FM-12","ESCM ","V020","120,1,N,0020,1","99999,9,9,N","050000,1,N,1","+0141,1","+0080,1","10187,1",,,,,,,,,"99999,9,10162,1","1,1,008,1,+999,9","SYN060AAXX  23211 02458 45984 /1202 10141 20080 30162 40187 51008;",
"02458099999","2010-06-24T00:00:00","4","59.897328","17.588581","20.72","UPPSALA, SW","FM-12","ESCM ","V020","170,1,N,0010,1","99999,9,9,N","050000,1,N,1","+0105,1","+0077,1","10185,1",,,,,,,,,"99999,9,10160,1","7,1,002,1,+999,9","SYN060AAXX  24001 02458 45984 /1701 10105 20077 30160 40185 57002;",
"02458099999","2010-06-24T03:00:00","4","59.897328","17.588581","20.72","UPPSALA, SW","FM-12","ESCM ","V020","999,9,C,0000,1","99999,9,9,N","050000,1,N,1","+0096,1","+0085,1","10183,1",,,,,,,,,"99999,9,10157,1","7,1,003,1,+999,9","SYN060AAXX  24031 02458 45984 /0000 10096 20085 30157 40183 57003;",
"02458099999","2010-06-24T06:00:00","4","59.897328","17.588581","20.72","UPPSALA, SW","FM-12","ESCM ","V020","200,1,N,0020,1","99999,9,9,N","035000,1,N,1","+0161,1","+0082,1","10175,1",,,,,,,"120,M,+0194,1","999,N,+0080,1","99999,9,10150,1","8,1,008,1,+999,9","SYN076AAXX  24061 02458 35981 /2002 10161 20082 30150 40175 58008 333 10194 20080;",
"02458099999","2010-06-24T09:00:00","4","59.897328","17.588581","20.72","UPPSALA, SW","FM-12","ESCM ","V020","170,1,N,0010,1","99999,9,9,N","035000,1,N,1","+0212,1","+0103,1","10166,1",,,,,,,,,"99999,9,10141,1","8,1,009,1,+999,9","SYN060AAXX  24091 02458 45981 /1701 10212 20103 30141 40166 58009;",
"02458099999","2010-06-24T12:00:00","4","59.897328","17.588581","20.72","UPPSALA, SW","FM-12","ESCM ","V020","140,1,N,0010,1","99999,9,9,N","050000,1,N,1","+0237,1","+0113,1","10153,1",,,,,"02,1,+01500,1,99,9",,,,"99999,9,10129,1","7,1,013,1,+999,9","SYN070AAXX  24121 02458 45784 /1401 10237 20113 30129 40153 57013 333 82/50;",
"02458099999","2010-06-24T15:00:00","4","59.897328","17.588581","20.72","UPPSALA, SW","FM-12","ESCM ","V020","240,1,N,0030,1","99999,9,9,N","045000,1,N,1","+0227,1","+0086,1","10139,1",,,,,,,,,"99999,9,10115,1","7,1,014,1,+999,9","SYN060AAXX  24151 02458 45983 /2403 10227 20086 30115 40139 57014;",
"02458099999","2010-06-24T18:00:00","4","59.897328","17.588581","20.72","UPPSALA, SW","FM-12","ESCM ","V020","180,1,N,0030,1","99999,9,9,N","045000,1,N,1","+0218,1","+0089,1","10127,1",,,,,,,"120,M,+0243,1","999,N,+0161,1","99999,9,10103,1","7,1,012,1,+999,9","SYN076AAXX  24181 02458 35983 /1803 10218 20089 30103 40127 57012 333 10243 20161;",
"02458099999","2010-06-24T21:00:00","4","59.897328","17.588581","20.72","UPPSALA, SW","FM-12","ESCM ","V020","150,1,N,0020,1","99999,9,9,N","050000,1,N,1","+0159,1","+0092,1","10131,1",,,,,,,,,"99999,9,10106,1","2,1,003,1,+999,9","SYN060AAXX  24211 02458 45984 /1502 10159 20092 30106 40131 52003;",
"02458099999","2010-06-25T00:00:00","4","59.897328","17.588581","20.72","UPPSALA, SW","FM-12","ESCM ","V020","160,1,N,0020,1","99999,9,9,N","050000,1,N,1","+0115,1","+0082,1","10123,1",,,,,,,,,"99999,9,10098,1","7,1,007,1,+999,9","SYN060AAXX  25001 02458 45984 /1602 10115 20082 30098 40123 57007;",
"02458099999","2010-06-25T03:00:00","4","59.897328","17.588581","20.72","UPPSALA, SW","FM-12","ESCM ","V020","999,9,C,0000,1","99999,9,9,N","050000,1,N,1","+0123,1","+0095,1","10113,1",,,,,,,,,"99999,9,10088,1","7,1,011,1,+999,9","SYN060AAXX  25031 02458 45984 /0000 10123 20095 30088 40113 57011;",
"02458099999","2010-06-25T06:00:00","4","59.897328","17.588581","20.72","UPPSALA, SW","FM-12","ESCM ","V020","220,1,N,0020,1","99999,9,9,N","045000,1,N,1","+0174,1","+0115,1","10101,1",,,,,"03,1,+02400,1,99,9",,"120,M,+0218,1","999,N,+0091,1","99999,9,10077,1","7,1,011,1,+999,9","SYN082AAXX  25061 02458 35983 /2202 10174 20115 30077 40101 57011 333 10218 20091 83/58;",
"02458099999","2010-06-25T09:00:00","4","59.897328","17.588581","20.72","UPPSALA, SW","FM-12","ESCM ","V020","240,1,N,0040,1","22000,1,C,N","030000,1,N,1","+0199,1","+0133,1","10096,1",,,,,"02,1,+01200,1,99,9","03,1,+02100,1,99,9",,,"99999,9,10072,1","8,1,005,1,+999,9","SYN082AAXX  25091 02458 45680 /2404 10199 20133 30072 40096 58005 333 82/40 83/57 86/59;",
"02458099999","2010-06-25T12:00:00","4","59.897328","17.588581","20.72","UPPSALA, SW","FM-12","ESCM ","V020","210,1,N,0040,1","99999,9,9,N","029000,1,N,1","+0215,1","+0111,1","10086,1",,,,,"03,1,+01410,1,99,9",,,,"99999,9,10061,1","8,1,011,1,+999,9","SYN070AAXX  25121 02458 45679 /2104 10215 20111 30061 40086 58011 333 83/47;",
"02458099999","2010-06-25T15:00:00","4","59.897328","17.588581","20.72","UPPSALA, SW","FM-12","ESCM ","V020","210,1,N,0040,1","99999,9,9,N","035000,1,N,1","+0225,1","+0113,1","10074,1",,,,,"01,1,+01500,1,99,9",,,,"99999,9,10050,1","8,1,012,1,+999,9","SYN070AAXX  25151 02458 45781 /2104 10225 20113 30050 40074 58012 333 81/50;",
"02458099999","2010-06-25T18:00:00","4","59.897328","17.588581","20.72","UPPSALA, SW","FM-12","ESCM ","V020","230,1,N,0040,1","99999,9,9,N","050000,1,N,1","+0202,1","+0070,1","10068,1",,,,,,,"120,M,+0232,1","999,N,+0169,1","99999,9,10044,1","5,1,006,1,+999,9","SYN076AAXX  25181 02458 35984 /2304 10202 20070 30044 40068 55006 333 10232 20169;",
"02458099999","2010-06-25T21:00:00","4","59.897328","17.588581","20.72","UPPSALA, SW","FM-12","ESCM ","V020","220,1,N,0020,1","99999,9,9,N","050000,1,N,1","+0160,1","+0095,1","10073,1",,,,,"03,1,+01800,1,99,9",,,,"99999,9,10049,1","2,1,005,1,+999,9","SYN070AAXX  25211 02458 45784 /2202 10160 20095 30049 40073 52005 333 83/56;",
"02458099999","2010-06-26T00:00:00","4","59.897328","17.588581","20.72","UPPSALA, SW","FM-12","ESCM ","V020","210,1,N,0030,1","99999,9,9,N","050000,1,N,1","+0126,1","+0085,1","10073,1",,,,,,,,,"99999,9,10048,1","4,1,000,1,+999,9","SYN060AAXX  26001 02458 45984 /2103 10126 20085 30048 40073 54000;",
"02458099999","2010-06-26T03:00:00","4","59.897328","17.588581","20.72","UPPSALA, SW","FM-12","ESCM ","V020","230,1,N,0030,1","99999,9,9,N","040000,1,N,1","+0116,1","+0092,1","10070,1",,,,,,,,,"99999,9,10045,1","5,1,004,1,+999,9","SYN060AAXX  26031 02458 45982 /2303 10116 20092 30045 40070 55004;",
"02458099999","2010-06-26T06:00:00","4","59.897328","17.588581","20.72","UPPSALA, SW","FM-12","ESCM ","V020","280,1,N,0030,1","00510,1,C,N","040000,1,N,1","+0142,1","+0110,1","10076,1","12,0000,9,1","24,0000,9,1","00,1","8,1,06,1","08,1,+00510,1,99,9",,"120,M,+0203,1","999,N,+0108,1","99999,9,10052,1","3,1,007,1,+999,9","SYN100AAXX  26060 02458 17482 /2803 10142 20110 30052 40076 53007 69912 70086 333 10203 20108 70001 88/17;","Q01  00002PRCP24Q02  00002PRCP12"
"02458099999","2010-06-26T09:00:00","4","59.897328","17.588581","20.72","UPPSALA, SW","FM-12","ESCM ","V020","330,1,N,0050,1","02700,1,C,N","045000,1,N,1","+0156,1","+0106,1","10094,1",,,"00,1","8,1,03,1","01,1,+00690,1,99,9","06,1,+02700,1,99,9",,,"99999,9,10070,1","2,1,018,1,+999,9","SYN088AAXX  26091 02458 47583 /3305 10156 20106 30070 40094 52018 70086 333 81/23 86/59 87/69;",
"02458099999","2010-06-26T12:00:00","4","59.897328","17.588581","20.72","UPPSALA, SW","FM-12","ESCM ","V020","320,1,N,0040,1","99999,9,9,N","050000,1,N,1","+0191,1","+0079,1","10105,1",,,"00,1","8,1,06,1","01,1,+01500,1,99,9",,,,"99999,9,10081,1","2,1,011,1,+999,9","SYN076AAXX  26121 02458 47784 /3204 10191 20079 30081 40105 52011 70086 333 81/50;",
"02458099999","2010-06-26T15:00:00","4","59.897328","17.588581","20.72","UPPSALA, SW","FM-12","ESCM ","V020","290,1,N,0060,1","01800,1,C,N","040000,1,N,1","+0218,1","+0087,1","10116,1",,,,,"05,1,+01800,1,99,9",,,,"99999,9,10092,1","2,1,011,1,+999,9","SYN070AAXX  26151 02458 45782 /2906 10218 20087 30092 40116 52011 333 85/56;",
"02458099999","2010-06-26T18:00:00","4","59.897328","17.588581","20.72","UPPSALA, SW","FM-12","ESCM ","V020","230,1,N,0010,1","99999,9,9,N","050000,1,N,1","+0175,1","+0099,1","10132,1","12,0005,9,1",,"00,1","8,1,06,1","04,1,+02100,1,99,9",,"120,M,+0218,1","999,N,+0133,1","99999,9,10108,1","3,1,016,1,+999,9","SYN094AAXX  26181 02458 17884 /2301 10175 20099 30108 40132 53016 69942 70086 333 10218 20133 84/57;",
"02458099999","2010-06-26T21:00:00","4","59.897328","17.588581","20.72","UPPSALA, SW","FM-12","ESCM ","V020","999,9,C,0000,1","99999,9,9,N","050000,1,N,1","+0124,1","+0107,1","10155,1",,,"00,1","8,1,03,1",,,,,"99999,9,10130,1","3,1,022,1,+999,9","SYN066AAXX  26211 02458 47984 /0000 10124 20107 30130 40155 53022 70082;",
"02458099999","2010-06-27T00:00:00","4","59.897328","17.588581","20.72","UPPSALA, SW","FM-12","ESCM ","V020","310,1,N,0010,1","99999,9,9,N","002100,1,N,1","+0084,1","+0079,1","10173,1",,,"10,1","8,1,06,1",,,,,"99999,9,10148,1","2,1,018,1,+999,9","SYN066AAXX  27001 02458 47921 /3101 10084 20079 30148 40173 52018 71082;",
"02458099999","2010-06-27T03:00:00","4","59.897328","17.588581","20.72","UPPSALA, SW","FM-12","ESCM ","V020","330,1,N,0010,1","99999,9,9,N","045000,1,N,1","+0086,1","+0074,1","10193,1",,,,,,,,,"99999,9,10168,1","3,1,020,1,+999,9","SYN060AAXX  27031 02458 45983 /3301 10086 20074 30168 40193 53020;",
"02458099999","2010-06-27T06:00:00","4","59.897328","17.588581","20.72","UPPSALA, SW","FM-12","ESCM ","V020","010,1,N,0020,1","99999,9,9,N","045000,1,N,1","+0131,1","+0057,1","10207,1","12,0000,9,1","24,0005,9,1",,,"02,1,+01800,1,99,9",,"120,M,+0189,1","999,N,+0064,1","99999,9,10182,1","1,1,014,1,+999,9","SYN100AAXX  27061 02458 15783 /0102 10131 20057 30182 40207 51014 69922 333 10189 20064 70006 82/56 83/75;","Q01  00002PRCP12"
"02458099999","2010-06-27T09:00:00","4","59.897328","17.588581","20.72","UPPSALA, SW","FM-12","ESCM ","V020","120,1,N,0020,1","99999,9,9,N","040000,1,N,1","+0172,1","+0063,1","10211,1",,,,,,,,,"99999,9,10186,1","0,1,004,1,+999,9","SYN060AAXX  27091 02458 45982 /1202 10172 20063 30186 40211 50004;",
"02458099999","2010-06-27T12:00:00","4","59.897328","17.588581","20.72","UPPSALA, SW","FM-12","ESCM ","V020","220,1,N,0030,1","99999,9,9,N","040000,1,N,1","+0219,1","+0089,1","10203,1",,,,,,,,,"99999,9,10179,1","8,1,008,1,+999,9","SYN060AAXX  27121 02458 45982 /2203 10219 20089 30179 40203 58008;",
"02458099999","2010-06-27T15:00:00","4","59.897328","17.588581","20.72","UPPSALA, SW","FM-12","ESCM ","V020","240,1,N,0040,1","99999,9,9,N","045000,1,N,1","+0240,1","+0077,1","10193,1",,,,,,,,,"99999,9,10169,1","7,1,010,1,+999,9","SYN060AAXX  27151 02458 45983 /2404 10240 20077 30169 40193 57010;",
"02458099999","2010-06-27T18:00:00","4","59.897328","17.588581","20.72","UPPSALA, SW","FM-12","ESCM ","V020","230,1,N,0040,1","99999,9,9,N","050000,1,N,1","+0222,1","+0065,1","10190,1",,,,,,,"120,M,+0245,1","999,N,+0129,1","99999,9,10166,1","7,1,003,1,+999,9","SYN076AAXX  27181 02458 35984 /2304 10222 20065 30166 40190 57003 333 10245 20129;",
"02458099999","2010-06-27T21:00:00","4","59.897328","17.588581","20.72","UPPSALA, SW","FM-12","ESCM ","V020","190,1,N,0030,1","99999,9,9,N","050000,1,N,1","+0169,1","+0099,1","10194,1",,,,,,,,,"99999,9,10169,1","2,1,003,1,+999,9","SYN060AAXX  27211 02458 45984 /1903 10169 20099 30169 40194 52003;",
"02458099999","2010-06-28T00:00:00","4","59.897328","17.588581","20.72","UPPSALA, SW","FM-12","ESCM ","V020","999,9,C,0000,1","99999,9,9,N","050000,1,N,1","+0135,1","+0096,1","10197,1",,,,,,,,,"99999,9,10172,1","2,1,003,1,+999,9","SYN060AAXX  28001 02458 45984 /0000 10135 20096 30172 40197 52003;",
"02458099999","2010-06-28T03:00:00","4","59.897328","17.588581","20.72","UPPSALA, SW","FM-12","ESCM ","V020","230,1,N,0010,1","99999,9,9,N","050000,1,N,1","+0133,1","+0088,1","10199,1",,,,,,,,,"99999,9,10174,1","3,1,002,1,+999,9","SYN060AAXX  28031 02458 45984 /2301 10133 20088 30174 40199 53002;",
"02458099999","2010-06-28T06:00:00","4","59.897328","17.588581","20.72","UPPSALA, SW","FM-12","ESCM ","V020","270,1,N,0010,1","99999,9,9,N","045000,1,N,1","+0180,1","+0116,1","10203,1",,,,,,,"120,M,+0225,1","999,N,+0112,1","99999,9,10179,1","3,1,004,1,+999,9","SYN076AAXX  28061 02458 35983 /2701 10180 20116 30179 40203 53004 333 10225 20112;",
"02458099999","2010-06-28T09:00:00","4","59.897328","17.588581","20.72","UPPSALA, SW","FM-12","ESCM ","V020","230,1,N,0020,1","99999,9,9,N","999999,9,N,1","+0221,1","+0116,1","10202,1",,,,,,,,,"99999,9,10178,1","0,1,001,1,+999,9","SYN060AAXX  28091 02458 469// /2302 10221 20116 30178 40202 50001;",
"02458099999","2010-06-28T12:00:00","4","59.897328","17.588581","20.72","UPPSALA, SW","FM-12","ESCM ","V020","190,1,N,0030,1","99999,9,9,N","035000,1,N,1","+0238,1","+0091,1","10199,1",,,,,"01,1,+06300,1,99,9",,,,"99999,9,10175,1","7,1,003,1,+999,9","SYN070AAXX  28121 02458 45981 /1903 10238 20091 30175 40199 57003 333 81/71;",
"02458099999","2010-06-28T15:00:00","4","59.897328","17.588581","20.72","UPPSALA, SW","FM-12","ESCM ","V020","200,1,N,0030,1","99999,9,9,N","050000,1,N,1","+0238,1","+0062,1","10194,1",,,,,,,,,"99999,9,10170,1","7,1,005,1,+999,9","SYN060AAXX  28151 02458 45984 /2003 10238 20062 30170 40194 57005;",
"02458099999","2010-06-28T18:00:00","4","59.897328","17.588581","20.72","UPPSALA, SW","FM-12","ESCM ","V020","220,1,N,0020,1","99999,9,9,N","050000,1,N,1","+0218,1","+0108,1","10186,1",,,,,,,"120,M,+0245,1","999,N,+0179,1","99999,9,10161,1","7,1,009,1,+999,9","SYN076AAXX  28181 02458 35984 /2202 10218 20108 30161 40186 57009 333 10245 20179;",
"02458099999","2010-06-28T21:00:00","4","59.897328","17.588581","20.72","UPPSALA, SW","FM-12","ESCM ","V020","170,1,N,0030,1","99999,9,9,N","050000,1,N,1","+0178,1","+0119,1","10188,1",,,,,,,,,"99999,9,10163,1","3,1,002,1,+999,9","SYN060AAXX  28211 02458 45984 /1703 10178 20119 30163 40188 53002;",
"02458099999","2010-06-29T00:00:00","4","59.897328","17.588581","20.72","UPPSALA, SW","FM-12","ESCM ","V020","180,1,N,0010,1","99999,9,9,N","050000,1,N,1","+0134,1","+0108,1","10185,1",,,,,,,,,"99999,9,10160,1","7,1,003,1,+999,9","SYN060AAXX  29001 02458 45984 /1801 10134 20108 30160 40185 57003;",
"02458099999","2010-06-29T03:00:00","4","59.897328","17.588581","20.72","UPPSALA, SW","FM-12","ESCM ","V020","999,9,C,0000,1","99999,9,9,N","040000,1,N,1","+0120,1","+0110,1","10182,1",,,,,,,,,"99999,9,10157,1","7,1,003,1,+999,9","SYN060AAXX  29031 02458 45982 /0000 10120 20110 30157 40182 57003;",
"02458099999","2010-06-29T06:00:00","4","59.897328","17.588581","20.72","UPPSALA, SW","FM-12","ESCM ","V020","190,1,N,0010,1","99999,9,9,N","030000,1,N,1","+0194,1","+0145,1","10184,1",,,,,,,"120,M,+0219,1","999,N,+0107,1","99999,9,10159,1","0,1,002,1,+999,9","SYN076AAXX  29061 02458 35980 /1901 10194 20145 30159 40184 50002 333 10219 20107;",
"02458099999","2010-06-29T09:00:00","4","59.897328","17.588581","20.72","UPPSALA, SW","FM-12","ESCM ","V020","220,1,N,0030,1","99999,9,9,N","029000,1,N,1","+0236,1","+0119,1","10177,1",,,,,,,,,"99999,9,10153,1","7,1,006,1,+999,9","SYN060AAXX  29091 02458 45979 /2203 10236 20119 30153 40177 57006;",
"02458099999","2010-06-29T12:00:00","4","59.897328","17.588581","20.72","UPPSALA, SW","FM-12","ESCM ","V020","210,1,N,0030,1","99999,9,9,N","040000,1,N,1","+0260,1","+0113,1","10167,1",,,,,"02,1,+01800,1,99,9",,,,"99999,9,10143,1","7,1,011,1,+999,9","SYN070AAXX  29121 02458 45782 /2103 10260 20113 30143 40167 57011 333 82/56;",
"02458099999","2010-06-29T15:00:00","4","59.897328","17.588581","20.72","UPPSALA, SW","FM-12","ESCM ","V020","220,1,N,0030,1","99999,9,9,N","050000,1,N,1","+0249,1","+0122,1","10157,1",,,,,"01,1,+02400,1,99,9",,,,"99999,9,10133,1","7,1,010,1,+999,9","SYN070AAXX  29151 02458 45884 /2203 10249 20122 30133 40157 57010 333 81/58;",
"02458099999","2010-06-29T18:00:00","4","59.897328","17.588581","20.72","UPPSALA, SW","FM-12","ESCM ","V020","160,1,N,0040,1","99999,9,9,N","050000,1,N,1","+0225,1","+0135,1","10148,1",,,,,,,"120,M,+0267,1","999,N,+0192,1","99999,9,10124,1","6,1,008,1,+999,9","SYN076AAXX  29181 02458 35984 /1604 10225 20135 30124 40148 56008 333 10267 20192;",
"02458099999","2010-06-29T21:00:00","4","59.897328","17.588581","20.72","UPPSALA, SW","FM-12","ESCM ","V020","160,1,N,0020,1","99999,9,9,N","050000,1,N,1","+0174,1","+0118,1","10149,1",,,,,,,,,"99999,9,10124,1","4,1,000,1,+999,9","SYN060AAXX  29211 02458 45984 /1602 10174 20118 30124 40149 54000;",
"02458099999","2010-06-30T00:00:00","4","59.897328","17.588581","20.72","UPPSALA, SW","FM-12","ESCM ","V020","130,1,N,0020,1","99999,9,9,N","050000,1,N,1","+0149,1","+0110,1","10141,1",,,,,,,,,"99999,9,10117,1","7,1,008,1,+999,9","SYN060AAXX  30001 02458 45984 /1302 10149 20110 30117 40141 57008;",
"02458099999","2010-06-30T03:00:00","4","59.897328","17.588581","20.72","UPPSALA, SW","FM-12","ESCM ","V020","140,1,N,0030,1","99999,9,9,N","026000,1,N,1","+0151,1","+0132,1","10128,1",,,,,,,,,"99999,9,10104,1","7,1,013,1,+999,9","SYN060AAXX  30031 02458 45976 /1403 10151 20132 30104 40128 57013;",
"02458099999","2010-06-30T06:00:00","4","59.897328","17.588581","20.72","UPPSALA, SW","FM-12","ESCM ","V020","170,1,N,0040,1","05400,1,C,N","045000,1,N,1","+0187,1","+0141,1","10115,1",,,,,"05,1,+05400,1,99,9",,"120,M,+0225,1","999,N,+0133,1","99999,9,10091,1","8,1,013,1,+999,9","SYN082AAXX  30061 02458 35983 /1704 10187 20141 30091 40115 58013 333 10225 20133 85/68;",
"02458099999","2010-06-30T09:00:00","4","59.897328","17.588581","20.72","UPPSALA, SW","FM-12","ESCM ","V020","230,1,N,0040,1","03900,1,C,N","045000,1,N,1","+0209,1","+0145,1","10110,1",,,,,"05,1,+03900,1,99,9",,,,"99999,9,10086,1","8,1,005,1,+999,9","SYN070AAXX  30091 02458 45983 /2304 10209 20145 30086 40110 58005 333 85/63;",
"02458099999","2010-06-30T12:00:00","4","59.897328","17.588581","20.72","UPPSALA, SW","FM-12","ESCM ","V020","180,1,N,0040,1","01020,1,C,N","011000,1,N,1","+0192,1","+0159,1","10100,1",,,"83,1","8,1,06,1","09,1,+01020,1,99,9",,,,"99999,9,10076,1","7,1,010,1,+999,9","SYN076AAXX  30121 02458 47/61 /1804 10192 20159 30076 40100 57010 78386 333 89/34;",
"02458099999","2010-06-30T15:00:00","4","59.897328","17.588581","20.72","UPPSALA, SW","FM-12","ESCM ","V020","220,1,N,0050,1","01500,1,C,N","040000,1,N,1","+0228,1","+0129,1","10088,1",,,"00,1","8,1,03,1","06,1,+01500,1,99,9",,,,"99999,9,10064,1","7,1,012,1,+999,9","SYN082AAXX  30151 02458 47782 /2205 10228 20129 30064 40088 57012 70082 333 86/50 87/58;",
"02458099999","2010-06-30T18:00:00","4","59.897328","17.588581","20.72","UPPSALA, SW","FM-12","ESCM ","V020","240,1,N,0050,1","99999,9,9,N","050000,1,N,1","+0205,1","+0119,1","10089,1","12,0041,9,1",,"00,1","8,1,06,1","02,1,+02400,1,99,9",,"120,M,+0241,1","999,N,+0185,1","99999,9,10065,1","3,1,001,1,+999,9","SYN094AAXX  30181 02458 17984 /2405 10205 20119 30065 40089 53001 60042 70082 333 10241 20185 82/58;",
"02458099999","2010-06-30T21:00:00","4","59.897328","17.588581","20.72","UPPSALA, SW","FM-12","ESCM ","V020","210,1,N,0030,1","99999,9,9,N","050000,1,N,1","+0164,1","+0104,1","10092,1",,,,,,,,,"99999,9,10067,1","2,1,002,1,+999,9","SYN060AAXX  30211 02458 45984 /2103 10164 20104 30067 40092 52002;",
"02458099999","2010-07-01T00:00:00","4","59.897328","17.588581","20.72","UPPSALA, SW","FM-12","ESCM ","V020","230,1,N,0030,1","99999,9,9,N","050000,1,N,1","+0150,1","+0113,1","10091,1",,,,,,,,,"99999,9,10066,1","4,1,000,1,+999,9","SYN060AAXX  01001 02458 45984 /2303 10150 20113 30066 40091 54001;",
"02458099999","2010-07-01T03:00:00","4","59.897328","17.588581","20.72","UPPSALA, SW","FM-12","ESCM ","V020","220,1,N,0040,1","99999,9,9,N","035000,1,N,1","+0137,1","+0112,1","10090,1",,,,,,,,,"99999,9,10066,1","4,1,000,1,+999,9","SYN060AAXX  01031 02458 45981 /2204 10137 20112 30066 40090 54001;",
"02458099999","2010-07-01T06:00:00","4","59.897328","17.588581","20.72","UPPSALA, SW","FM-12","ESCM ","V020","240,1,N,0040,1","99999,9,9,N","050000,1,N,1","+0143,1","+0112,1","10095,1","24,0038,9,1",,,,,,"120,M,+0207,1","999,N,+0132,1","99999,9,10070,1","2,1,005,1,+999,9","SYN082AAXX  01061 02458 35/84 /2404 10143 20112 30070 40095 52005 333 10207 20132 70038;",
"02458099999","2010-07-01T09:00:00","4","59.897328","17.588581","20.72","UPPSALA, SW","FM-12","ESCM ","V020","310,1,N,0060,1","00960,1,C,N","045000,1,N,1","+0167,1","+0111,1","10107,1",,,,,"08,1,+00960,1,99,9",,,,"99999,9,10083,1","3,1,013,1,+999,9","SYN070AAXX  01091 02458 45583 /3106 10167 20111 30083 40107 53013 333 88/32;",
"02458099999","2010-07-01T12:00:00","4","59.897328","17.588581","20.72","UPPSALA, SW","FM-12","ESCM ","V020","310,1,N,0050,1","99999,9,9,N","045000,1,N,1","+0173,1","+0102,1","10119,1",,,,,"03,1,+00990,1,99,9",,,,"99999,9,10095,1","2,1,012,1,+999,9","SYN076AAXX  01121 02458 45583 /3105 10173 20102 30095 40119 52012 333 83/33 88/56;",
"02458099999","2010-07-01T15:00:00","4","59.897328","17.588581","20.72","UPPSALA, SW","FM-12","ESCM ","V020","100,1,N,0010,1","99999,9,9,N","035000,1,N,1","+0196,1","+0114,1","10128,1",,,,,"04,1,+02100,1,99,9",,,,"99999,9,10104,1","2,1,009,1,+999,9","SYN070AAXX  01151 02458 45881 /1001 10196 20114 30104 40128 52009 333 84/57;",
"02458099999","2010-07-01T18:00:00","4","59.897328","17.588581","20.72","UPPSALA, SW","FM-12","ESCM ","V020","150,1,N,0020,1","99999,9,9,N","050000,1,N,1","+0189,1","+0118,1","10126,1",,,,,,,"120,M,+0209,1","999,N,+0142,1","99999,9,10102,1","5,1,002,1,+999,9","SYN076AAXX  01181 02458 35984 /1502 10189 20118 30102 40126 55002 333 10209 20142;",
"02458099999","2010-07-01T21:00:00","4","59.897328","17.588581","20.72","UPPSALA, SW","FM-12","ESCM ","V020","999,9,C,0000,1","99999,9,9,N","050000,1,N,1","+0137,1","+0112,1","10137,1",,,,,,,,,"99999,9,10113,1","2,1,011,1,+999,9","SYN060AAXX  01211 02458 45984 /0000 10137 20112 30113 40137 52011;",
"02458099999","2010-07-02T00:00:00","4","59.897328","17.588581","20.72","UPPSALA, SW","FM-12","ESCM ","V020","310,1,N,0010,1","99999,9,9,N","017000,1,N,1","+0095,1","+0090,1","10150,1",,,,,"03,1,+02100,1,99,9",,,,"99999,9,10125,1","3,1,013,1,+999,9","SYN070AAXX  02001 02458 45867 /3101 10095 20090 30125 40150 53013 333 83/57;",
"02458099999","2010-07-02T03:00:00","4","59.897328","17.588581","20.72","UPPSALA, SW","FM-12","ESCM ","V020","320,1,N,0010,1","99999,9,9,N","018000,1,N,1","+0103,1","+0093,1","10165,1",,,,,,,,,"99999,9,10140,1","2,1,014,1,+999,9","SYN060AAXX  02031 02458 45968 /3201 10103 20093 30140 40165 52014;",
"02458099999","2010-07-02T06:00:00","4","59.897328","17.588581","20.72","UPPSALA, SW","FM-12","ESCM ","V020","360,1,N,0020,1","99999,9,9,N","040000,1,N,1","+0174,1","+0113,1","10175,1",,,,,,,"120,M,+0198,1","999,N,+0082,1","99999,9,10151,1","2,1,011,1,+999,9","SYN076AAXX  02061 02458 35982 /3602 10174 20113 30151 40175 52011 333 10198 20082;",
"02458099999","2010-07-02T09:00:00","4","59.897328","17.588581","20.72","UPPSALA, SW","FM-12","ESCM ","V020","350,1,N,0010,1","99999,9,9,N","045000,1,N,1","+0216,1","+0102,1","10181,1",,,,,,,,,"99999,9,10156,1","2,1,006,1,+999,9","SYN060AAXX  02091 02458 45983 /3501 10216 20102 30156 40181 52006;",
"02458099999","2010-07-02T12:00:00","4","59.897328","17.588581","20.72","UPPSALA, SW","FM-12","ESCM ","V020","350,1,N,0020,1","99999,9,9,N","035000,1,N,1","+0241,1","+0089,1","10179,1",,,,,,,,,"99999,9,10155,1","7,1,001,1,+999,9","SYN060AAXX  02121 02458 45981 /3502 10241 20089 30155 40179 57001;",
"02458099999","2010-07-02T15:00:00","4","59.897328","17.588581","20.72","UPPSALA, SW","FM-12","ESCM ","V020","110,1,N,0020,1","99999,9,9,N","040000,1,N,1","+0253,1","+0083,1","10172,1",,,,,,,,,"99999,9,10148,1","7,1,008,1,+999,9","SYN060AAXX  02151 02458 45982 /1102 10253 20083 30148 40172 57008;",
"02458099999","2010-07-02T18:00:00","4","59.897328","17.588581","20.72","UPPSALA, SW","FM-12","ESCM ","V020","210,1,N,0030,1","99999,9,9,N","050000,1,N,1","+0236,1","+0097,1","10172,1",,,,,,,"120,M,+0263,1","999,N,+0172,1","99999,9,10148,1","5,1,000,1,+999,9","SYN076AAXX  02181 02458 35984 /2103 10236 20097 30148 40172 55000 333 10263 20172;",
"02458099999","2010-07-02T21:00:00","4","59.897328","17.588581","20.72","UPPSALA, SW","FM-12","ESCM ","V020","190,1,N,0030,1","99999,9,9,N","050000,1,N,1","+0179,1","+0104,1","10182,1",,,,,,,,,"99999,9,10157,1","3,1,010,1,+999,9","SYN060AAXX  02211 02458 45984 /1903 10179 20104 30157 40182 53010;",
"02458099999","2010-07-03T00:00:00","4","59.897328","17.588581","20.72","UPPSALA, SW","FM-12","ESCM ","V020","180,1,N,0030,1","99999,9,9,N","050000,1,N,1","+0165,1","+0096,1","10192,1",,,,,,,,,"99999,9,10167,1","2,1,010,1,+999,9","SYN060AAXX  03001 02458 45984 /1803 10165 20096 30167 40192 52010;",
"02458099999","2010-07-03T03:00:00","4","59.897328","17.588581","20.72","UPPSALA, SW","FM-12","ESCM ","V020","150,1,N,0020,1","99999,9,9,N","050000,1,N,1","+0154,1","+0121,1","10191,1",,,,,,,,,"99999,9,10167,1","4,1,000,1,+999,9","SYN060AAXX  03031 02458 45984 /1502 10154 20121 30167 40191 54001;",
"02458099999","2010-07-03T06:00:00","4","59.897328","17.588581","20.72","UPPSALA, SW","FM-12","ESCM ","V020","190,1,N,0040,1","99999,9,9,N","045000,1,N,1","+0212,1","+0133,1","10190,1",,,,,,,"120,M,+0238,1","999,N,+0147,1","99999,9,10166,1","4,1,000,1,+999,9","SYN076AAXX  03061 02458 35983 /1904 10212 20133 30166 40190 54001 333 10238 20147;",
"02458099999","2010-07-03T09:00:00","4","59.897328","17.588581","20.72","UPPSALA, SW","FM-12","ESCM ","V020","190,1,N,0040,1","99999,9,9,N","035000,1,N,1","+0254,1","+0151,1","10191,1",,,,,,,,,"99999,9,10167,1","4,1,000,1,+999,9","SYN060AAXX  03091 02458 45981 /1904 10254 20151 30167 40191 54001;",
"02458099999","2010-07-03T12:00:00","4","59.897328","17.588581","20.72","UPPSALA, SW","FM-12","ESCM ","V020","210,1,N,0050,1","99999,9,9,N","029000,1,N,1","+0280,1","+0153,1","10185,1",,,,,,,,,"99999,9,10161,1","7,1,006,1,+999,9","SYN060AAXX  03120 02458 45979 /2105 10280 20153 30161 40185 57006;",
"02458099999","2010-07-03T15:00:00","4","59.897328","17.588581","20.72","UPPSALA, SW","FM-12","ESCM ","V020","180,1,N,0060,1","99999,9,9,N","035000,1,N,1","+0275,1","+0143,1","10179,1",,,,,,,,,"99999,9,10155,1","7,1,006,1,+999,9","SYN060AAXX  03151 02458 45981 /1806 10275 20143 30155 40179 57006;",
"02458099999","2010-07-03T18:00:00","4","59.897328","17.588581","20.72","UPPSALA, SW","FM-12","ESCM ","V020","170,1,N,0040,1","99999,9,9,N","050000,1,N,1","+0246,1","+0123,1","10179,1",,,,,,,"120,M,+0289,1","999,N,+0211,1","99999,9,10155,1","4,1,000,1,+999,9","SYN076AAXX  03181 02458 35984 /1704 10246 20123 30155 40179 54000 333 10289 20211;",
"02458099999","2010-07-03T21:00:00","4","59.897328","17.588581","20.72","UPPSALA, SW","FM-12","ESCM ","V020","160,1,N,0020,1","99999,9,9,N","050000,1,N,1","+0198,1","+0110,1","10183,1",,,,,,,,,"99999,9,10159,1","2,1,004,1,+999,9","SYN060AAXX  03211 02458 45984 /1602 10198 20110 30159 40183 52004;",
"02458099999","2010-07-04T00:00:00","4","59.897328","17.588581","20.72","UPPSALA, SW","FM-12","ESCM ","V020","160,1,N,0030,1","99999,9,9,N","050000,1,N,1","+0184,1","+0109,1","10182,1",,,,,,,,,"99999,9,10158,1","8,1,001,1,+999,9","SYN060AAXX  04001 02458 45984 /1603 10184 20109 30158 40182 58001;",
"02458099999","2010-07-04T03:00:00","4","59.897328","17.588581","20.72","UPPSALA, SW","FM-12","ESCM ","V020","160,1,N,0010,1","99999,9,9,N","050000,1,N,1","+0174,1","+0122,1","10179,1",,,,,,,,,"99999,9,10154,1","7,1,004,1,+999,9","SYN060AAXX  04031 02458 45984 /1601 10174 20122 30154 40179 57004;",
"02458099999","2010-07-04T06:00:00","4","59.897328","17.588581","20.72","UPPSALA, SW","FM-12","ESCM ","V020","180,1,N,0020,1","99999,9,9,N","030000,1,N,1","+0218,1","+0148,1","10178,1",,,,,,,"120,M,+0246,1","999,N,+0167,1","99999,9,10154,1","4,1,000,1,+999,9","SYN076AAXX  04061 02458 35980 /1802 10218 20148 30154 40178 54000 333 10246 20167;",
"02458099999","2010-07-04T09:00:00","4","59.897328","17.588581","20.72","UPPSALA, SW","FM-12","ESCM ","V020","200,1,N,0020,1","99999,9,9,N","029000,1,N,1","+0260,1","+0166,1","10176,1",,,,,,,,,"99999,9,10152,1","7,1,002,1,+999,9","SYN060AAXX  04091 02458 45979 /2002 10260 20166 30152 40176 57002;",
"02458099999","2010-07-04T12:00:00","4","59.897328","17.588581","20.72","UPPSALA, SW","FM-12","ESCM ","V020","200,1,N,0040,1","99999,9,9,N","035000,1,N,1","+0282,1","+0166,1","10165,1",,,,,"01,1,+02100,1,99,9",,,,"99999,9,10142,1","7,1,010,1,+999,9","SYN076AAXX  04121 02458 45881 /2004 10282 20166 30142 40165 57010 333 81/57 83/68;",
"02458099999","2010-07-04T15:00:00","4","59.897328","17.588581","20.72","UPPSALA, SW","FM-12","ESCM ","V020","150,1,N,0060,1","99999,9,9,N","035000,1,N,1","+0276,1","+0123,1","10151,1",,,,,,,,,"99999,9,10127,1","7,1,014,1,+999,9","SYN060AAXX  04151 02458 45981 /1506 10276 20123 30127 40151 57014;",
"02458099999","2010-07-04T18:00:00","4","59.897328","17.588581","20.72","UPPSALA, SW","FM-12","ESCM ","V020","160,1,N,0040,1","99999,9,9,N","050000,1,N,1","+0236,1","+0057,1","10146,1",,,,,,,"120,M,+0288,1","999,N,+0216,1","99999,9,10122,1","7,1,005,1,+999,9","SYN076AAXX  04180 02458 35984 /1604 10236 20057 30122 40146 57005 333 10288 20216;",
"02458099999","2010-07-04T21:00:00","4","59.897328","17.588581","20.72","UPPSALA, SW","FM-12","ESCM ","V020","150,1,N,0020,1","99999,9,9,N","050000,1,N,1","+0182,1","+0108,1","10143,1",,,,,,,,,"99999,9,10118,1","7,1,004,1,+999,9","SYN060AAXX  04211 02458 45984 /1502 10182 20108 30118 40143 57004;",
"02458099999","2010-07-05T00:00:00","4","59.897328","17.588581","20.72","UPPSALA, SW","FM-12","ESCM ","V020","160,1,N,0020,1","99999,9,9,N","050000,1,N,1","+0166,1","+0138,1","10141,1",,,,,,,,,"99999,9,10116,1","7,1,002,1,+999,9","SYN060AAXX  05001 02458 45984 /1602 10166 20138 30116 40141 57002;",
"02458099999","2010-07-05T03:00:00","4","59.897328","17.588581","20.72","UPPSALA, SW","FM-12","ESCM ","V020","160,1,N,0010,1","99999,9,9,N","035000,1,N,1","+0156,1","+0139,1","10135,1",,,,,,,,,"99999,9,10110,1","5,1,006,1,+999,9","SYN060AAXX  05031 02458 45981 /1601 10156 20139 30110 40135 55006;",
"02458099999","2010-07-05T06:00:00","4","59.897328","17.588581","20.72","UPPSALA, SW","FM-12","ESCM ","V020","240,1,N,0040,1","99999,9,9,N","050000,1,N,1","+0182,1","+0131,1","10137,1",,,,,"04,1,+01500,1,99,9",,"120,M,+0236,1","999,N,+0147,1","99999,9,10112,1","2,1,002,1,+999,9","SYN088AAXX  05061 02458 35784 /2404 10182 20131 30112 40137 52002 333 10236 20147 84/50 87/56;",
"02458099999","2010-07-05T09:00:00","4","59.897328","17.588581","20.72","UPPSALA, SW","FM-12","ESCM ","V020","160,1,N,0030,1","99999,9,9,N","035000,1,N,1","+0206,1","+0123,1","10137,1",,,,,"01,1,+01800,1,99,9",,,,"99999,9,10113,1","0,1,001,1,+999,9","SYN070AAXX  05091 02458 45781 /1603 10206 20123 30113 40137 50001 333 81/56;",
"02458099999","2010-07-05T12:00:00","4","59.897328","17.588581","20.72","UPPSALA, SW","FM-12","ESCM ","V020","240,1,N,0040,1","99999,9,9,N","035000,1,N,1","+0245,1","+0094,1","10130,1",,,,,"01,1,+06300,1,99,9",,,,"99999,9,10106,1","7,1,007,1,+999,9","SYN070AAXX  05121 02458 45981 /2404 10245 20094 30106 40130 57007 333 81/71;",
"02458099999","2010-07-05T15:00:00","4","59.897328","17.588581","20.72","UPPSALA, SW","FM-12","ESCM ","V020","210,1,N,0040,1","99999,9,9,N","045000,1,N,1","+0241,1","+0095,1","10122,1",,,,,,,,,"99999,9,10098,1","7,1,008,1,+999,9","SYN060AAXX  05151 02458 45983 /2104 10241 20095 30098 40122 57008;",
"02458099999","2010-07-05T18:00:00","4","59.897328","17.588581","20.72","UPPSALA, SW","FM-12","ESCM ","V020","250,1,N,0030,1","99999,9,9,N","050000,1,N,1","+0229,1","+0101,1","10118,1",,,,,,,"120,M,+0255,1","999,N,+0181,1","99999,9,10094,1","5,1,004,1,+999,9","SYN076AAXX  05181 02458 35984 /2503 10229 20101 30094 40118 55004 333 10255 20181;",
"02458099999","2010-07-05T21:00:00","4","59.897328","17.588581","20.72","UPPSALA, SW","FM-12","ESCM ","V020","210,1,N,0020,1","99999,9,9,N","045000,1,N,1","+0181,1","+0113,1","10122,1",,,,,"02,1,+02400,1,99,9",,,,"99999,9,10097,1","2,1,003,1,+999,9","SYN070AAXX  05211 02458 45983 /2102 10181 20113 30097 40122 52003 333 82/58;",
"02458099999","2010-07-06T00:00:00","4","59.897328","17.588581","20.72","UPPSALA, SW","FM-12","ESCM ","V020","210,1,N,0010,1","99999,9,9,N","050000,1,N,1","+0178,1","+0122,1","10124,1",,,,,"03,1,+02100,1,99,9",,,,"99999,9,10100,1","0,1,003,1,+999,9","SYN076AAXX  06001 02458 45884 /2101 10178 20122 30100 40124 50003 333 83/57 88/58;",
"02458099999","2010-07-06T03:00:00","4","59.897328","17.588581","20.72","UPPSALA, SW","FM-12","ESCM ","V020","999,9,C,0000,1","99999,9,9,N","040000,1,N,1","+0164,1","+0112,1","10123,1",,,,,"01,1,+01800,1,99,9",,,,"99999,9,10098,1","7,1,002,1,+999,9","SYN070AAXX  06031 02458 45882 /0000 10164 20112 30098 40123 57002 333 81/56;",
"02458099999","2010-07-06T06:00:00","4","59.897328","17.588581","20.72","UPPSALA, SW","FM-12","ESCM ","V020","210,1,N,0010,1","01800,1,C,N","026000,1,N,1","+0168,1","+0115,1","10121,1",,,"61,1","6,1,06,1","05,1,+01800,1,99,9",,"120,M,+0229,1","999,N,+0157,1","99999,9,10096,1","7,1,002,1,+999,9","SYN094AAXX  06060 02458 37776 /2101 10168 20115 30096 40121 57002 76160 333 10229 20157 85/56 87/57;",
"02458099999","2010-07-06T09:00:00","4","59.897328","17.588581","20.72","UPPSALA, SW","FM-12","ESCM ","V020","230,1,N,0030,1","02100,1,C,N","030000,1,N,1","+0176,1","+0114,1","10125,1",,,"00,1","8,1,03,1","08,1,+02100,1,99,9",,,,"99999,9,10100,1","2,1,004,1,+999,9","SYN076AAXX  06091 02458 47880 /2303 10176 20114 30100 40125 52004 70086 333 88/57;",
"02458099999","2010-07-06T12:00:00","4","59.897328","17.588581","20.72","UPPSALA, SW","FM-12","ESCM ","V020","200,1,N,0020,1","02100,1,C,N","035000,1,N,1","+0173,1","+0122,1","10122,1",,,"00,1","6,1,06,1","08,1,+02100,1,99,9",,,,"99999,9,10098,1","7,1,003,1,+999,9","SYN076AAXX  06120 02458 47881 /2002 10173 20122 30098 40122 57003 70062 333 88/57;",
"02458099999","2010-07-06T15:00:00","4","59.897328","17.588581","20.72","UPPSALA, SW","FM-12","ESCM ","V020","170,1,N,0010,1","02700,1,C,N","050000,1,N,1","+0182,1","+0121,1","10116,1",,,,,"08,1,+02700,1,99,9",,,,"99999,9,10092,1","7,1,006,1,+999,9","SYN070AAXX  06151 02458 45984 /1701 10182 20121 30092 40116 57006 333 88/59;",
"02458099999","2010-07-06T18:00:00","4","59.897328","17.588581","20.72","UPPSALA, SW","FM-12","ESCM ","V020","140,1,N,0010,1","99999,9,9,N","027000,1,N,1","+0170,1","+0149,1","10113,1","12,0005,9,1",,"61,1","6,1,06,1","01,1,+02700,1,99,9",,"120,M,+0184,1","999,N,+0166,1","99999,9,10088,1","6,1,003,1,+999,9","SYN100AAXX  06180 02458 07977 /1401 10170 20149 30088 40113 56003 69942 76160 333 10184 20166 69945 81/59;",
"02458099999","2010-07-06T21:00:00","4","59.897328","17.588581","20.72","UPPSALA, SW","FM-12","ESCM ","V020","210,1,N,0020,1","03000,1,C,N","029000,1,N,1","+0161,1","+0142,1","10115,1",,,"81,1","8,1,03,1","07,1,+03000,1,99,9",,,,"99999,9,10091,1","2,1,002,1,+999,9","SYN076AAXX  06211 02458 47979 /2102 10161 20142 30091 40115 52002 78186 333 87/60;",
"02458099999","2010-07-07T00:00:00","4","59.897328","17.588581","20.72","UPPSALA, SW","FM-12","ESCM ","V020","250,1,N,0010,1","99999,9,9,N","040000,1,N,1","+0148,1","+0134,1","10116,1",,,"00,1","8,1,06,1","04,1,+02700,1,99,9",,,,"99999,9,10092,1","4,1,000,1,+999,9","SYN076AAXX  07001 02458 47982 /2501 10148 20134 30092 40116 54001 70086 333 84/59;",
"02458099999","2010-07-07T03:00:00","4","59.897328","17.588581","20.72","UPPSALA, SW","FM-12","ESCM ","V020","999,9,C,0000,1","99999,9,9,N","008000,1,N,1","+0107,1","+0103,1","10117,1",,,"20,1","4,1,03,1",,,,,"99999,9,10092,1","5,1,000,1,+999,9","SYN066AAXX  07031 02458 47958 /0000 10107 20103 30092 40117 55000 72032;",
"02458099999","2010-07-07T06:00:00","4","59.897328","17.588581","20.72","UPPSALA, SW","FM-12","ESCM ","V020","340,1,N,0030,1","99999,9,9,N","027000,1,N,1","+0173,1","+0143,1","10125,1","12,0003,9,1","24,0008,9,1","00,1","4,1,06,1",,,"120,M,+0173,1","999,N,+0093,1","99999,9,10101,1","2,1,008,1,+999,9","SYN094AAXX  07061 02458 17977 /3403 10173 20143 30101 40125 52008 69932 70032 333 10173 20093 70007;",
"02458099999","2010-07-07T09:00:00","4","59.897328","17.588581","20.72","UPPSALA, SW","FM-12","ESCM ","V020","020,1,N,0020,1","99999,9,9,N","030000,1,N,1","+0213,1","+0158,1","10136,1",,,,,,,,,"99999,9,10112,1","2,1,012,1,+999,9","SYN060AAXX  07091 02458 45980 /0202 10213 20158 30112 40136 52012;",
"02458099999","2010-07-07T12:00:00","4","59.897328","17.588581","20.72","UPPSALA, SW","FM-12","ESCM ","V020","340,1,N,0030,1","99999,9,9,N","035000,1,N,1","+0227,1","+0124,1","10143,1",,,,,"03,1,+01500,1,99,9",,,,"99999,9,10119,1","2,1,007,1,+999,9","SYN076AAXX  07121 02458 45781 /3403 10227 20124 30119 40143 52007 333 83/50 85/58;",
"02458099999","2010-07-07T15:00:00","4","59.897328","17.588581","20.72","UPPSALA, SW","FM-12","ESCM ","V020","360,1,N,0010,1","99999,9,9,N","045000,1,N,1","+0257,1","+0095,1","10140,1",,,,,,,,,"99999,9,10116,1","7,1,003,1,+999,9","SYN060AAXX  07151 02458 45983 /3601 10257 20095 30116 40140 57003;",
"02458099999","2010-07-07T18:00:00","4","59.897328","17.588581","20.72","UPPSALA, SW","FM-12","ESCM ","V020","240,1,N,0010,1","02700,1,C,N","045000,1,N,1","+0233,1","+0111,1","10145,1",,,,,"07,1,+02700,1,99,9",,"120,M,+0269,1","999,N,+0171,1","99999,9,10121,1","2,1,005,1,+999,9","SYN082AAXX  07181 02458 35983 /2401 10233 20111 30121 40145 52005 333 10269 20171 87/59;",
"02458099999","2010-07-07T21:00:00","4","59.897328","17.588581","20.72","UPPSALA, SW","FM-12","ESCM ","V020","180,1,N,0020,1","99999,9,9,N","050000,1,N,1","+0181,1","+0084,1","10162,1",,,,,,,,,"99999,9,10137,1","3,1,017,1,+999,9","SYN060AAXX  07211 02458 45984 /1802 10181 20084 30137 40162 53017;",
"02458099999","2010-07-08T00:00:00","4","59.897328","17.588581","20.72","UPPSALA, SW","FM-12","ESCM ","V020","200,1,N,0010,1","99999,9,9,N","050000,1,N,1","+0130,1","+0078,1","10171,1",,,,,,,,,"99999,9,10146,1","0,1,009,1,+999,9","SYN060AAXX  08001 02458 45984 /2001 10130 20078 30146 40171 50009;",
"02458099999","2010-07-08T03:00:00","4","59.897328","17.588581","20.72","UPPSALA, SW","FM-12","ESCM ","V020","230,1,N,0030,1","99999,9,9,N","045000,1,N,1","+0128,1","+0092,1","10173,1",,,,,,,,,"99999,9,10148,1","2,1,002,1,+999,9","SYN060AAXX  08031 02458 45983 /2303 10128 20092 30148 40173 52002;",
"02458099999","2010-07-08T06:00:00","4","59.897328","17.588581","20.72","UPPSALA, SW","FM-12","ESCM ","V020","250,1,N,0040,1","99999,9,9,N","030000,1,N,1","+0188,1","+0111,1","10172,1",,,,,,,"120,M,+0236,1","999,N,+0118,1","99999,9,10148,1","0,1,001,1,+999,9","SYN076AAXX  08061 02458 35980 /2504 10188 20111 30148 40172 50001 333 10236 20118;",
"02458099999","2010-07-08T09:00:00","4","59.897328","17.588581","20.72","UPPSALA, SW","FM-12","ESCM ","V020","250,1,N,0040,1","99999,9,9,N","040000,1,N,1","+0222,1","+0108,1","10167,1",,,,,,,,,"99999,9,10142,1","8,1,005,1,+999,9","SYN060AAXX  08091 02458 45982 /2504 10222 20108 30142 40167 58005;",
"02458099999","2010-07-08T12:00:00","4","59.897328","17.588581","20.72","UPPSALA, SW","FM-12","ESCM ","V020","240,1,N,0050,1","99999,9,9,N","030000,1,N,1","+0241,1","+0130,1","10162,1",,,,,"01,1,+01470,1,99,9",,,,"99999,9,10138,1","7,1,004,1,+999,9","SYN070AAXX  08120 02458 45680 /2405 10241 20130 30138 40162 57004 333 81/49;",
"02458099999","2010-07-08T15:00:00","4","59.897328","17.588581","20.72","UPPSALA, SW","FM-12","ESCM ","V020","240,1,N,0040,1","99999,9,9,N","040000,1,N,1","+0249,1","+0137,1","10157,1",,,,,"04,1,+01440,1,99,9",,,,"99999,9,10133,1","7,1,005,1,+999,9","SYN070AAXX  08151 02458 45682 /2404 10249 20137 30133 40157 57005 333 84/48;",
"02458099999","2010-07-08T18:00:00","4","59.897328","17.588581","20.72","UPPSALA, SW","FM-12","ESCM ","V020","220,1,N,0030,1","99999,9,9,N","045000,1,N,1","+0222,1","+0135,1","10159,1",,,,,"02,1,+01440,1,99,9",,"120,M,+0255,1","999,N,+0187,1","99999,9,10135,1","2,1,002,1,+999,9","SYN088AAXX  08180 02458 35683 /2203 10222 20135 30135 40159 52002 333 10255 20187 82/48 87/56;",
"02458099999","2010-07-08T21:00:00","4","59.897328","17.588581","20.72","UPPSALA, SW","FM-12","ESCM ","V020","220,1,N,0030,1","99999,9,9,N","050000,1,N,1","+0201,1","+0135,1","10161,1",,,,,"01,1,+04200,1,99,9",,,,"99999,9,10137,1","2,1,002,1,+999,9","SYN076AAXX  08211 02458 45984 /2203 10201 20135 30137 40161 52002 333 81/64 83/67;",
"02458099999","2010-07-09T00:00:00","4","59.897328","17.588581","20.72","UPPSALA, SW","FM-12","ESCM ","V020","210,1,N,0020,1","99999,9,9,N","045000,1,N,1","+0174,1","+0138,1","10161,1",,,,,"04,1,+01110,1,99,9",,,,"99999,9,10137,1","4,1,000,1,+999,9","SYN070AAXX  09001 02458 45683 /2102 10174 20138 30137 40161 54000 333 84/37;",
"02458099999","2010-07-09T03:00:00","4","59.897328","17.588581","20.72","UPPSALA, SW","FM-12","ESCM ","V020","230,1,N,0020,1","99999,9,9,N","050000,1,N,1","+0166,1","+0136,1","10165,1",,,,,"01,1,+00690,1,99,9",,,,"99999,9,10140,1","3,1,003,1,+999,9","SYN070AAXX  09031 02458 45584 /2302 10166 20136 30140 40165 53003 333 81/23;",
"02458099999","2010-07-09T06:00:00","4","59.897328","17.588581","20.72","UPPSALA, SW","FM-12","ESCM ","V020","250,1,N,0050,1","99999,9,9,N","035000,1,N,1","+0181,1","+0121,1","10170,1",,,,,"01,1,+05700,1,99,9",,"120,M,+0222,1","999,N,+0162,1","99999,9,10145,1","2,1,005,1,+999,9","SYN082AAXX  09061 02458 35981 /2505 10181 20121 30145 40170 52005 333 10222 20162 81/69;",
"02458099999","2010-07-09T09:00:00","4","59.897328","17.588581","20.72","UPPSALA, SW","FM-12","ESCM ","V020","230,1,N,0060,1","99999,9,9,N","040000,1,N,1","+0219,1","+0129,1","10169,1",,,,,,,,,"99999,9,10145,1","4,1,000,1,+999,9","SYN060AAXX  09091 02458 45982 /2306 10219 20129 30145 40169 54000;",
"02458099999","2010-07-09T12:00:00","4","59.897328","17.588581","20.72","UPPSALA, SW","FM-12","ESCM ","V020","250,1,N,0050,1","99999,9,9,N","040000,1,N,1","+0235,1","+0121,1","10168,1",,,,,"02,1,+01500,1,99,9",,,,"99999,9,10144,1","5,1,001,1,+999,9","SYN076AAXX  09121 02458 45782 /2505 10235 20121 30144 40168 55001 333 82/50 85/56;",
"02458099999","2010-07-09T15:00:00","4","59.897328","17.588581","20.72","UPPSALA, SW","FM-12","ESCM ","V020","240,1,N,0060,1","99999,9,9,N","035000,1,N,1","+0234,1","+0102,1","10167,1",,,,,"01,1,+01500,1,99,9",,,,"99999,9,10143,1","4,1,000,1,+999,9","SYN070AAXX  09151 02458 45781 /2406 10234 20102 30143 40167 54001 333 81/50;",
"02458099999","2010-07-09T18:00:00","4","59.897328","17.588581","20.72","UPPSALA, SW","FM-12","ESCM ","V020","240,1,N,0040,1","99999,9,9,N","050000,1,N,1","+0232,1","+0098,1","10169,1",,,,,,,"120,M,+0254,1","999,N,+0179,1","99999,9,10145,1","2,1,002,1,+999,9","SYN076AAXX  09181 02458 35984 /2404 10232 20098 30145 40169 52002 333 10254 20179;",
"02458099999","2010-07-09T21:00:00","4","59.897328","17.588581","20.72","UPPSALA, SW","FM-12","ESCM ","V020","220,1,N,0020,1","99999,9,9,N","050000,1,N,1","+0181,1","+0084,1","10178,1",,,,,,,,,"99999,9,10153,1","2,1,008,1,+999,9","SYN060AAXX  09211 02458 45984 /2202 10181 20084 30153 40178 52008;",
"02458099999","2010-07-10T00:00:00","4","59.897328","17.588581","20.72","UPPSALA, SW","FM-12","ESCM ","V020","210,1,N,0020,1","99999,9,9,N","050000,1,N,1","+0139,1","+0087,1","10180,1",,,,,,,,,"99999,9,10155,1","2,1,002,1,+999,9","SYN060AAXX  10001 02458 45984 /2102 10139 20087 30155 40180 52002;",
"02458099999","2010-07-10T03:00:00","4","59.897328","17.588581","20.72","UPPSALA, SW","FM-12","ESCM ","V020","210,1,N,0020,1","99999,9,9,N","045000,1,N,1","+0137,1","+0094,1","10182,1",,,,,,,,,"99999,9,10157,1","2,1,002,1,+999,9","SYN060AAXX  10031 02458 45983 /2102 10137 20094 30157 40182 52002;",
"02458099999","2010-07-10T06:00:00","4","59.897328","17.588581","20.72","UPPSALA, SW","FM-12","ESCM ","V020","240,1,N,0040,1","99999,9,9,N","045000,1,N,1","+0194,1","+0099,1","10189,1",,,,,,,"120,M,+0232,1","999,N,+0126,1","99999,9,10165,1","1,1,007,1,+999,9","SYN076AAXX  10060 02458 35983 /2404 10194 20099 30165 40189 51007 333 10232 20126;",
"02458099999","2010-07-10T09:00:00","4","59.897328","17.588581","20.72","UPPSALA, SW","FM-12","ESCM ","V020","190,1,N,0030,1","99999,9,9,N","040000,1,N,1","+0246,1","+0105,1","10180,1",,,,,,,,,"99999,9,10156,1","8,1,009,1,+999,9","SYN060AAXX  10091 02458 45982 /1903 10246 20105 30156 40180 58009;",
"02458099999","2010-07-10T12:00:00","4","59.897328","17.588581","20.72","UPPSALA, SW","FM-12","ESCM ","V020","170,1,N,0040,1","99999,9,9,N","040000,1,N,1","+0264,1","+0122,1","10168,1",,,,,"01,1,+04200,1,99,9",,,,"99999,9,10144,1","8,1,012,1,+999,9","SYN076AAXX  10121 02458 45982 /1704 10264 20122 30144 40168 58012 333 81/64 86/68;",
"02458099999","2010-07-10T15:00:00","4","59.897328","17.588581","20.72","UPPSALA, SW","FM-12","ESCM ","V020","180,1,N,0050,1","99999,9,9,N","035000,1,N,1","+0283,1","+0140,1","10154,1",,,,,,,,,"99999,9,10131,1","7,1,014,1,+999,9","SYN060AAXX  10151 02458 45981 /1805 10283 20140 30131 40154 57014;",
"02458099999","2010-07-10T18:00:00","4","59.897328","17.588581","20.72","UPPSALA, SW","FM-12","ESCM ","V020","200,1,N,0040,1","99999,9,9,N","050000,1,N,1","+0278,1","+0161,1","10157,1",,,,,,,"120,M,+0292,1","999,N,+0194,1","99999,9,10133,1","3,1,003,1,+999,9","SYN076AAXX  10181 02458 35984 /2004 10278 20161 30133 40157 53003 333 10292 20194;",
"02458099999","2010-07-10T21:00:00","4","59.897328","17.588581","20.72","UPPSALA, SW","FM-12","ESCM ","V020","260,1,N,0030,1","99999,9,9,N","045000,1,N,1","+0217,1","+0140,1","10174,1",,,,,,,,,"99999,9,10150,1","3,1,017,1,+999,9","SYN060AAXX  10211 02458 45983 /2603 10217 20140 30150 40174 53017;",
"02458099999","2010-07-11T00:00:00","4","59.897328","17.588581","20.72","UPPSALA, SW","FM-12","ESCM ","V020","999,9,C,0000,1","99999,9,9,N","045000,1,N,1","+0165,1","+0139,1","10184,1",,,,,,,,,"99999,9,10160,1","2,1,010,1,+999,9","SYN060AAXX  11001 02458 45983 /0000 10165 20139 30160 40184 52010;",
"02458099999","2010-07-11T03:00:00","4","59.897328","17.588581","20.72","UPPSALA, SW","FM-12","ESCM ","V020","300,1,N,0010,1","99999,9,9,N","020000,1,N,1","+0139,1","+0129,1","10194,1",,,,,,,,,"99999,9,10169,1","2,1,009,1,+999,9","SYN060AAXX  11031 02458 45970 /3001 10139 20129 30169 40194 52009;",
"02458099999","2010-07-11T06:00:00","4","59.897328","17.588581","20.72","UPPSALA, SW","FM-12","ESCM ","V020","030,1,N,0030,1","99999,9,9,N","035000,1,N,1","+0209,1","+0167,1","10199,1",,,,,,,"120,M,+0282,1","999,N,+0124,1","99999,9,10175,1","0,1,006,1,+999,9","SYN076AAXX  11061 02458 35981 /0303 10209 20167 30175 40199 50006 333 10282 20124;",
"02458099999","2010-07-11T09:00:00","4","59.897328","17.588581","20.72","UPPSALA, SW","FM-12","ESCM ","V020","110,1,N,0020,1","99999,9,9,N","030000,1,N,1","+0268,1","+0163,1","10196,1",,,,,,,,,"99999,9,10172,1","8,1,003,1,+999,9","SYN060AAXX  11091 02458 45980 /1102 10268 20163 30172 40196 58003;",
"02458099999","2010-07-11T12:00:00","4","59.897328","17.588581","20.72","UPPSALA, SW","FM-12","ESCM ","V020","170,1,N,0040,1","99999,9,9,N","030000,1,N,1","+0309,1","+0151,1","10175,1",,,,,,,,,"99999,9,10151,1","8,1,021,1,+999,9","SYN060AAXX  11120 02458 45980 /1704 10309 20151 30151 40175 58021;",
"02458099999","2010-07-11T15:00:00","4","59.897328","17.588581","20.72","UPPSALA, SW","FM-12","ESCM ","V020","170,1,N,0060,1","99999,9,9,N","030000,1,N,1","+0300,1","+0151,1","10157,1",,,,,"01,1,+06600,1,99,9",,,,"99999,9,10133,1","7,1,018,1,+999,9","SYN070AAXX  11151 02458 45980 /1706 10300 20151 30133 40157 57018 333 81/72;",
"02458099999","2010-07-11T18:00:00","4","59.897328","17.588581","20.72","UPPSALA, SW","FM-12","ESCM ","V020","170,1,N,0060,1","99999,9,9,N","040000,1,N,1","+0277,1","+0138,1","10149,1",,,,,,,"120,M,+0324,1","999,N,+0208,1","99999,9,10125,1","5,1,008,1,+999,9","SYN076AAXX  11181 02458 35982 /1706 10277 20138 30125 40149 55008 333 10324 20208;",
"02458099999","2010-07-11T21:00:00","4","59.897328","17.588581","20.72","UPPSALA, SW","FM-12","ESCM ","V020","180,1,N,0040,1","99999,9,9,N","045000,1,N,1","+0240,1","+0147,1","10156,1",,,,,,,,,"99999,9,10132,1","3,1,007,1,+999,9","SYN060AAXX  11211 02458 45983 /1804 10240 20147 30132 40156 53007;",
"02458099999","2010-07-12T00:00:00","4","59.897328","17.588581","20.72","UPPSALA, SW","FM-12","ESCM ","V020","200,1,N,0030,1","99999,9,9,N","050000,1,N,1","+0219,1","+0158,1","10163,1",,,,,"03,1,+02700,1,99,9",,,,"99999,9,10139,1","2,1,007,1,+999,9","SYN070AAXX  12001 02458 45984 /2003 10219 20158 30139 40163 52007 333 83/59;",
"02458099999","2010-07-12T03:00:00","4","59.897328","17.588581","20.72","UPPSALA, SW","FM-12","ESCM ","V020","160,1,N,0010,1","99999,9,9,N","035000,1,N,1","+0193,1","+0164,1","10168,1",,,,,"02,1,+03000,1,99,9",,,,"99999,9,10143,1","2,1,005,1,+999,9","SYN070AAXX  12031 02458 45981 /1601 10193 20164 30143 40168 52005 333 82/60;",
"02458099999","2010-07-12T06:00:00","4","59.897328","17.588581","20.72","UPPSALA, SW","FM-12","ESCM ","V020","220,1,N,0010,1","99999,9,9,N","027000,1,N,1","+0234,1","+0186,1","10169,1",,,,,,,"120,M,+0277,1","999,N,+0181,1","99999,9,10145,1","0,1,001,1,+999,9","SYN076AAXX  12061 02458 35977 /2201 10234 20186 30145 40169 50001 333 10277 20181;",
"02458099999","2010-07-12T09:00:00","4","59.897328","17.588581","20.72","UPPSALA, SW","FM-12","ESCM ","V020","210,1,N,0040,1","99999,9,9,N","035000,1,N,1","+0267,1","+0186,1","10170,1",,,,,"01,1,+03000,1,99,9",,,,"99999,9,10146,1","4,1,000,1,+999,9","SYN070AAXX  12091 02458 45981 /2104 10267 20186 30146 40170 54001 333 81/60;",
"02458099999","2010-07-12T12:00:00","4","59.897328","17.588581","20.72","UPPSALA, SW","FM-12","ESCM ","V020","210,1,N,0030,1","99999,9,9,N","030000,1,N,1","+0288,1","+0170,1","10161,1",,,,,"02,1,+01470,1,99,9",,,,"99999,9,10138,1","8,1,008,1,+999,9","SYN076AAXX  12121 02458 45680 /2103 10288 20170 30138 40161 58008 333 82/49 84/70;",
"02458099999","2010-07-12T15:00:00","4","59.897328","17.588581","20.72","UPPSALA, SW","FM-12","ESCM ","V020","170,1,N,0030,1","99999,9,9,N","035000,1,N,1","+0293,1","+0178,1","10154,1",,,,,"02,1,+01500,1,99,9",,,,"99999,9,10130,1","7,1,008,1,+999,9","SYN070AAXX  12151 02458 45781 /1703 10293 20178 30130 40154 57008 333 82/50;",
"02458099999","2010-07-12T18:00:00","4","59.897328","17.588581","20.72","UPPSALA, SW","FM-12","ESCM ","V020","170,1,N,0020,1","99999,9,9,N","045000,1,N,1","+0274,1","+0170,1","10145,1",,,,,,,"120,M,+0305,1","999,N,+0233,1","99999,9,10121,1","7,1,009,1,+999,9","SYN076AAXX  12181 02458 35983 /1702 10274 20170 30121 40145 57009 333 10305 20233;",
"02458099999","2010-07-12T21:00:00","4","59.897328","17.588581","20.72","UPPSALA, SW","FM-12","ESCM ","V020","140,1,N,0010,1","99999,9,9,N","050000,1,N,1","+0231,1","+0165,1","10142,1",,,,,"01,1,+05100,1,99,9",,,,"99999,9,10118,1","8,1,003,1,+999,9","SYN070AAXX  12211 02458 45984 /1401 10231 20165 30118 40142 58003 333 81/67;",
"02458099999","2010-07-13T00:00:00","4","59.897328","17.588581","20.72","UPPSALA, SW","FM-12","ESCM ","V020","130,1,N,0030,1","99999,9,9,N","025000,1,N,1","+0200,1","+0171,1","10141,1",,,,,,,,,"99999,9,10117,1","4,1,000,1,+999,9","SYN060AAXX  13001 02458 45975 /1303 10200 20171 30117 40141 54000;",
"02458099999","2010-07-13T03:00:00","4","59.897328","17.588581","20.72","UPPSALA, SW","FM-12","ESCM ","V020","150,1,N,0030,1","99999,9,9,N","021000,1,N,1","+0199,1","+0176,1","10132,1",,,,,,,,,"99999,9,10108,1","6,1,009,1,+999,9","SYN060AAXX  13031 02458 45971 /1503 10199 20176 30108 40132 56009;",
"02458099999","2010-07-13T06:00:00","4","59.897328","17.588581","20.72","UPPSALA, SW","FM-12","ESCM ","V020","170,1,N,0030,1","99999,9,9,N","035000,1,N,1","+0247,1","+0176,1","10118,1",,,,,,,"120,M,+0274,1","999,N,+0182,1","99999,9,10095,1","6,1,013,1,+999,9","SYN076AAXX  13061 02458 35981 /1703 10247 20176 30095 40118 56013 333 10274 20182;",
"02458099999","2010-07-13T09:00:00","4","59.897328","17.588581","20.72","UPPSALA, SW","FM-12","ESCM ","V020","170,1,N,0070,1","99999,9,9,N","030000,1,N,1","+0297,1","+0166,1","10106,1",,,,,,,,,"99999,9,10082,1","7,1,013,1,+999,9","SYN060AAXX  13091 02458 45980 /1707 10297 20166 30082 40106 57013;",
"02458099999","2010-07-13T12:00:00","4","59.897328","17.588581","20.72","UPPSALA, SW","FM-12","ESCM ","V020","170,1,N,0080,1","99999,9,9,N","030000,1,N,1","+0310,1","+0159,1","10091,1",,,,,"02,1,+01800,1,99,9",,,,"99999,9,10067,1","7,1,014,1,+999,9","SYN070AAXX  13121 02458 45780 /1708 10310 20159 30067 40091 57014 333 82/56;",
"02458099999","2010-07-13T15:00:00","4","59.897328","17.588581","20.72","UPPSALA, SW","FM-12","ESCM ","V020","170,1,N,0070,1","99999,9,9,N","030000,1,N,1","+0297,1","+0163,1","10071,1",,,,,"01,1,+01800,1,99,9",,,,"99999,9,10047,1","6,1,020,1,+999,9","SYN070AAXX  13151 02458 45780 /1707 10297 20163 30047 40071 56020 333 81/56;",
"02458099999","2010-07-13T18:00:00","4","59.897328","17.588581","20.72","UPPSALA, SW","FM-12","ESCM ","V020","170,1,N,0060,1","99999,9,9,N","045000,1,N,1","+0279,1","+0165,1","10072,1",,,,,"04,1,+02100,1,99,9",,"120,M,+0321,1","999,N,+0247,1","99999,9,10049,1","3,1,001,1,+999,9","SYN082AAXX  13181 02458 35883 /1706 10279 20165 30049 40072 53001 333 10321 20247 84/57;",
"02458099999","2010-07-13T21:00:00","4","59.897328","17.588581","20.72","UPPSALA, SW","FM-12","ESCM ","V020","220,1,N,0010,1","99999,9,9,N","040000,1,N,1","+0198,1","+0161,1","10078,1",,,,,,,,,"99999,9,10054,1","0,1,005,1,+999,9","SYN060AAXX  13211 02458 45982 /2201 10198 20161 30054 40078 50005;",
"02458099999","2010-07-14T00:00:00","4","59.897328","17.588581","20.72","UPPSALA, SW","FM-12","ESCM ","V020","260,1,N,0020,1","99999,9,9,N","030000,1,N,1","+0191,1","+0165,1","10082,1",,,,,,,,,"99999,9,10058,1","3,1,004,1,+999,9","SYN060AAXX  14001 02458 45980 /2602 10191 20165 30058 40082 53004;",
"02458099999","2010-07-14T03:00:00","4","59.897328","17.588581","20.72","UPPSALA, SW","FM-12","ESCM ","V020","210,1,N,0010,1","99999,9,9,N","020000,1,N,1","+0183,1","+0172,1","10090,1",,,,,"02,1,+01380,1,99,9",,,,"99999,9,10066,1","3,1,008,1,+999,9","SYN076AAXX  14031 02458 45670 /2101 10183 20172 30066 40090 53008 333 82/46 84/62;",
"02458099999","2010-07-14T06:00:00","4","59.897328","17.588581","20.72","UPPSALA, SW","FM-12","ESCM ","V020","250,1,N,0050,1","99999,9,9,N","027000,1,N,1","+0204,1","+0168,1","10096,1",,,,,"01,1,+00450,1,99,9",,"120,M,+0279,1","999,N,+0181,1","99999,9,10072,1","2,1,006,1,+999,9","SYN082AAXX  14061 02458 35477 /2505 10204 20168 30072 40096 52006 333 10279 20181 81/15;",
"02458099999","2010-07-14T09:00:00","4","59.897328","17.588581","20.72","UPPSALA, SW","FM-12","ESCM ","V020","200,1,N,0040,1","99999,9,9,N","030000,1,N,1","+0224,1","+0159,1","10110,1",,,,,"03,1,+00810,1,99,9",,,,"99999,9,10086,1","2,1,014,1,+999,9","SYN070AAXX  14091 02458 45580 /2004 10224 20159 30086 40110 52014 333 83/27;",
"02458099999","2010-07-14T12:00:00","4","59.897328","17.588581","20.72","UPPSALA, SW","FM-12","ESCM ","V020","230,1,N,0040,1","99999,9,9,N","035000,1,N,1","+0259,1","+0132,1","10114,1",,,,,,,,,"99999,9,10090,1","2,1,004,1,+999,9","SYN060AAXX  14121 02458 45981 /2304 10259 20132 30090 40114 52004;",
"02458099999","2010-07-14T15:00:00","4","59.897328","17.588581","20.72","UPPSALA, SW","FM-12","ESCM ","V020","250,1,N,0040,1","99999,9,9,N","045000,1,N,1","+0264,1","+0111,1","10113,1",,,,,,,,,"99999,9,10089,1","4,1,000,1,+999,9","SYN060AAXX  14151 02458 45983 /2504 10264 20111 30089 40113 54001;",
"02458099999","2010-07-14T18:00:00","4","59.897328","17.588581","20.72","UPPSALA, SW","FM-12","ESCM ","V020","230,1,N,0030,1","99999,9,9,N","050000,1,N,1","+0244,1","+0101,1","10114,1",,,,,,,"120,M,+0270,1","999,N,+0201,1","99999,9,10090,1","4,1,000,1,+999,9","SYN076AAXX  14181 02458 35984 /2303 10244 20101 30090 40114 54001 333 10270 20201;",
"02458099999","2010-07-14T21:00:00","4","59.897328","17.588581","20.72","UPPSALA, SW","FM-12","ESCM ","V020","999,9,C,0000,1","99999,9,9,N","027000,1,N,1","+0182,1","+0107,1","10131,1",,,,,,,,,"99999,9,10106,1","2,1,016,1,+999,9","SYN060AAXX  14211 02458 45977 /0000 10182 20107 30106 40131 52016;",
"02458099999","2010-07-15T00:00:00","4","59.897328","17.588581","20.72","UPPSALA, SW","FM-12","ESCM ","V020","999,9,C,0000,1","99999,9,9,N","050000,1,N,1","+0143,1","+0112,1","10141,1",,,,,,,,,"99999,9,10116,1","1,1,010,1,+999,9","SYN060AAXX  15001 02458 45984 /0000 10143 20112 30116 40141 51010;",
"02458099999","2010-07-15T03:00:00","4","59.897328","17.588581","20.72","UPPSALA, SW","FM-12","ESCM ","V020","260,1,N,0010,1","99999,9,9,N","045000,1,N,1","+0122,1","+0105,1","10141,1",,,,,,,,,"99999,9,10116,1","0,1,000,1,+999,9","SYN060AAXX  15031 02458 45983 /2601 10122 20105 30116 40141 50000;",
"02458099999","2010-07-15T06:00:00","4","59.897328","17.588581","20.72","UPPSALA, SW","FM-12","ESCM ","V020","050,1,N,0020,1","99999,9,9,N","029000,1,N,1","+0217,1","+0129,1","10140,1",,,,,,,"120,M,+0246,1","999,N,+0116,1","99999,9,10115,1","8,1,001,1,+999,9","SYN076AAXX  15061 02458 35979 /0502 10217 20129 30115 40140 58001 333 10246 20116;",
"02458099999","2010-07-15T09:00:00","4","59.897328","17.588581","20.72","UPPSALA, SW","FM-12","ESCM ","V020","100,1,N,0040,1","99999,9,9,N","040000,1,N,1","+0266,1","+0126,1","10129,1",,,,,,,,,"99999,9,10105,1","7,1,010,1,+999,9","SYN060AAXX  15091 02458 45982 /1004 10266 20126 30105 40129 57010;",
"02458099999","2010-07-15T12:00:00","4","59.897328","17.588581","20.72","UPPSALA, SW","FM-12","ESCM ","V020","120,1,N,0050,1","99999,9,9,N","040000,1,N,1","+0299,1","+0117,1","10115,1",,,,,,,,,"99999,9,10092,1","8,1,014,1,+999,9","SYN060AAXX  15121 02458 45982 /1205 10299 20117 30092 40115 58014;",
"02458099999","2010-07-15T15:00:00","4","59.897328","17.588581","20.72","UPPSALA, SW","FM-12","ESCM ","V020","120,1,N,0050,1","99999,9,9,N","040000,1,N,1","+0283,1","+0128,1","10107,1",,,,,,,,,"99999,9,10084,1","5,1,008,1,+999,9","SYN060AAXX  15151 02458 45982 /1205 10283 20128 30084 40107 55008;",
"02458099999","2010-07-15T18:00:00","4","59.897328","17.588581","20.72","UPPSALA, SW","FM-12","ESCM ","V020","170,1,N,0040,1","99999,9,9,N","050000,1,N,1","+0250,1","+0116,1","10103,1",,,,,"04,1,+05100,1,99,9",,"120,M,+0305,1","999,N,+0217,1","99999,9,10079,1","5,1,005,1,+999,9","SYN082AAXX  15181 02458 35984 /1704 10250 20116 30079 40103 55005 333 10305 20217 84/67;",
"02458099999","2010-07-15T21:00:00","4","59.897328","17.588581","20.72","UPPSALA, SW","FM-12","ESCM ","V020","170,1,N,0020,1","99999,9,9,N","050000,1,N,1","+0219,1","+0164,1","10118,1",,,,,"01,1,+02400,1,99,9",,,,"99999,9,10094,1","1,1,015,1,+999,9","SYN076AAXX  15211 02458 45884 /1702 10219 20164 30094 40118 51015 333 81/58 88/64;",
"02458099999","2010-07-16T00:00:00","4","59.897328","17.588581","20.72","UPPSALA, SW","FM-12","ESCM ","V020","230,1,N,0020,1","00690,1,C,N","040000,1,N,1","+0203,1","+0174,1","10124,1",,,,,"05,1,+00690,1,99,9",,,,"99999,9,10100,1","2,1,005,1,+999,9","SYN076AAXX  16001 02458 45582 /2302 10203 20174 30100 40124 52005 333 85/23 87/34;",
"02458099999","2010-07-16T03:00:00","4","59.897328","17.588581","20.72","UPPSALA, SW","FM-12","ESCM ","V020","260,1,N,0040,1","99999,9,9,N","035000,1,N,1","+0187,1","+0167,1","10141,1",,,,,"04,1,+00390,1,99,9",,,,"99999,9,10116,1","3,1,017,1,+999,9","SYN076AAXX  16031 02458 45481 /2604 10187 20167 30116 40141 53017 333 84/13 85/21;",
"02458099999","2010-07-16T06:00:00","4","59.897328","17.588581","20.72","UPPSALA, SW","FM-12","ESCM ","V020","280,1,N,0050,1","99999,9,9,N","040000,1,N,1","+0209,1","+0134,1","10164,1",,,,,,,"120,M,+0250,1","999,N,+0184,1","99999,9,10140,1","1,1,023,1,+999,9","SYN076AAXX  16061 02458 35982 /2805 10209 20134 30140 40164 51023 333 10250 20184;",
"02458099999","2010-07-16T09:00:00","4","59.897328","17.588581","20.72","UPPSALA, SW","FM-12","ESCM ","V020","240,1,N,0040,1","99999,9,9,N","035000,1,N,1","+0239,1","+0134,1","10179,1",,,,,"01,1,+01500,1,99,9",,,,"99999,9,10155,1","3,1,015,1,+999,9","SYN070AAXX  16091 02458 45781 /2404 10239 20134 30155 40179 53015 333 81/50;",
"02458099999","2010-07-16T12:00:00","4","59.897328","17.588581","20.72","UPPSALA, SW","FM-12","ESCM ","V020","260,1,N,0040,1","99999,9,9,N","040000,1,N,1","+0240,1","+0112,1","10178,1",,,,,"03,1,+01500,1,99,9",,,,"99999,9,10154,1","7,1,001,1,+999,9","SYN070AAXX  16121 02458 45782 /2604 10240 20112 30154 40178 57001 333 83/50;",
"02458099999","2010-07-16T15:00:00","4","59.897328","17.588581","20.72","UPPSALA, SW","FM-12","ESCM ","V020","240,1,N,0030,1","99999,9,9,N","050000,1,N,1","+0265,1","+0097,1","10174,1",,,,,"02,1,+02100,1,99,9",,,,"99999,9,10150,1","7,1,004,1,+999,9","SYN070AAXX  16151 02458 45884 /2403 10265 20097 30150 40174 57004 333 82/57;",
"02458099999","2010-07-16T18:00:00","4","59.897328","17.588581","20.72","UPPSALA, SW","FM-12","ESCM ","V020","240,1,N,0020,1","99999,9,9,N","050000,1,N,1","+0241,1","+0100,1","10174,1",,,,,,,"120,M,+0267,1","999,N,+0208,1","99999,9,10150,1","4,1,000,1,+999,9","SYN076AAXX  16181 02458 35984 /2402 10241 20100 30150 40174 54000 333 10267 20208;",
"02458099999","2010-07-16T21:00:00","4","59.897328","17.588581","20.72","UPPSALA, SW","FM-12","ESCM ","V020","190,1,N,0020,1","99999,9,9,N","050000,1,N,1","+0200,1","+0114,1","10188,1",,,,,,,,,"99999,9,10164,1","2,1,014,1,+999,9","SYN060AAXX  16211 02458 45984 /1902 10200 20114 30164 40188 52014;",
"02458099999","2010-07-17T00:00:00","4","59.897328","17.588581","20.72","UPPSALA, SW","FM-12","ESCM ","V020","150,1,N,0040,1","99999,9,9,N","050000,1,N,1","+0195,1","+0117,1","10188,1",,,,,"04,1,+02400,1,99,9",,,,"99999,9,10163,1","0,1,001,1,+999,9","SYN070AAXX  17001 02458 45984 /1504 10195 20117 30163 40188 50001 333 84/58;",
"02458099999","2010-07-17T03:00:00","4","59.897328","17.588581","20.72","UPPSALA, SW","FM-12","ESCM ","V020","999,9,C,0000,1","99999,9,9,N","045000,1,N,1","+0150,1","+0128,1","10192,1",,,,,,,,,"99999,9,10168,1","3,1,005,1,+999,9","SYN060AAXX  17031 02458 45983 /0000 10150 20128 30168 40192 53005;",
"02458099999","2010-07-17T06:00:00","4","59.897328","17.588581","20.72","UPPSALA, SW","FM-12","ESCM ","V020","150,1,N,0030,1","99999,9,9,N","030000,1,N,1","+0221,1","+0174,1","10190,1",,,,,,,"120,M,+0244,1","999,N,+0145,1","99999,9,10166,1","8,1,002,1,+999,9","SYN076AAXX  17061 02458 35980 /1503 10221 20174 30166 40190 58002 333 10244 20145;",
"02458099999","2010-07-17T09:00:00","4","59.897328","17.588581","20.72","UPPSALA, SW","FM-12","ESCM ","V020","170,1,N,0030,1","99999,9,9,N","030000,1,N,1","+0262,1","+0140,1","10182,1",,,,,,,,,"99999,9,10158,1","8,1,008,1,+999,9","SYN060AAXX  17091 02458 45980 /1703 10262 20140 30158 40182 58008;",
"02458099999","2010-07-17T12:00:00","4","59.897328","17.588581","20.72","UPPSALA, SW","FM-12","ESCM ","V020","150,1,N,0040,1","99999,9,9,N","045000,1,N,1","+0263,1","+0113,1","10180,1",,,,,"01,1,+04500,1,99,9",,,,"99999,9,10156,1","8,1,002,1,+999,9","SYN076AAXX  17121 02458 45983 /1504 10263 20113 30156 40180 58002 333 81/65 84/69;",
"02458099999","2010-07-17T15:00:00","4","59.897328","17.588581","20.72","UPPSALA, SW","FM-12","ESCM ","V020","140,1,N,0060,1","03000,1,C,N","045000,1,N,1","+0252,1","+0167,1","10159,1",,,,,"06,1,+03000,1,99,9",,,,"99999,9,10135,1","7,1,021,1,+999,9","SYN076AAXX  17151 02458 45983 /1406 10252 20167 30135 40159 57021 333 86/60 87/68;",
"02458099999","2010-07-17T18:00:00","4","59.897328","17.588581","20.72","UPPSALA, SW","FM-12","ESCM ","V020","150,1,N,0050,1","01470,1,C,N","045000,1,N,1","+0230,1","+0159,1","10155,1",,,"81,1","8,1,06,1","07,1,+01470,1,99,9",,"120,M,+0270,1","999,N,+0221,1","99999,9,10131,1","5,1,004,1,+999,9","SYN088AAXX  17181 02458 37683 /1505 10230 20159 30131 40155 55004 78186 333 10270 20221 87/49;",
"02458099999","2010-07-17T21:00:00","4","59.897328","17.588581","20.72","UPPSALA, SW","FM-12","ESCM ","V020","140,1,N,0040,1","02100,1,C,N","027000,1,N,1","+0201,1","+0184,1","10156,1",,,"22,1","8,1,03,1","02,1,+01500,1,99,9","06,1,+02100,1,99,9",,,"99999,9,10132,1","5,1,001,1,+999,9","SYN088AAXX  17211 02458 47777 /1404 10201 20184 30132 40156 55001 72286 333 82/50 86/57 87/60;",
"02458099999","2010-07-18T00:00:00","4","59.897328","17.588581","20.72","UPPSALA, SW","FM-12","ESCM ","V020","200,1,N,0040,1","00390,1,C,N","018000,1,N,1","+0198,1","+0185,1","10156,1",,,"00,1","8,1,06,1","02,1,+00330,1,99,9","04,1,+00390,1,99,9",,,"99999,9,10131,1","5,1,000,1,+999,9","SYN088AAXX  18001 02458 47468 /2004 10198 20185 30131 40156 55000 70086 333 82/11 84/13 85/19;",
"02458099999","2010-07-18T03:00:00","4","59.897328","17.588581","20.72","UPPSALA, SW","FM-12","ESCM ","V020","230,1,N,0030,1","00270,1,C,N","018000,1,N,1","+0174,1","+0165,1","10156,1",,,,,"06,1,+00270,1,99,9",,,,"99999,9,10131,1","0,1,000,1,+999,9","SYN070AAXX  18031 02458 45368 /2303 10174 20165 30131 40156 50000 333 86/09;",
"02458099999","2010-07-18T06:00:00","4","59.897328","17.588581","20.72","UPPSALA, SW","FM-12","ESCM ","V020","220,1,N,0030,1","99999,9,9,N","026000,1,N,1","+0180,1","+0159,1","10170,1","12,0010,9,1","24,0010,9,1",,,,,"120,M,+0231,1","999,N,+0173,1","99999,9,10145,1","2,1,014,1,+999,9","SYN088AAXX  18061 02458 15976 /2203 10180 20159 30145 40170 52014 69992 333 10231 20173 70009;",
"02458099999","2010-07-18T09:00:00","4","59.897328","17.588581","20.72","UPPSALA, SW","FM-12","ESCM ","V020","210,1,N,0060,1","99999,9,9,N","040000,1,N,1","+0207,1","+0124,1","10172,1",,,,,"01,1,+00840,1,99,9",,,,"99999,9,10148,1","2,1,002,1,+999,9","SYN076AAXX  18091 02458 45582 /2106 10207 20124 30148 40172 52002 333 81/28 83/67;",
"02458099999","2010-07-18T12:00:00","4","59.897328","17.588581","20.72","UPPSALA, SW","FM-12","ESCM ","V020","230,1,N,0060,1","99999,9,9,N","035000,1,N,1","+0226,1","+0115,1","10176,1",,,,,,,,,"99999,9,10152,1","0,1,005,1,+999,9","SYN060AAXX  18121 02458 45981 /2306 10226 20115 30152 40176 50005;",
"02458099999","2010-07-18T15:00:00","4","59.897328","17.588581","20.72","UPPSALA, SW","FM-12","ESCM ","V020","240,1,N,0060,1","99999,9,9,N","050000,1,N,1","+0239,1","+0094,1","10174,1",,,,,,,,,"99999,9,10150,1","8,1,003,1,+999,9","SYN060AAXX  18151 02458 45984 /2406 10239 20094 30150 40174 58003;",
"02458099999","2010-07-18T18:00:00","4","59.897328","17.588581","20.72","UPPSALA, SW","FM-12","ESCM ","V020","250,1,N,0050,1","99999,9,9,N","050000,1,N,1","+0213,1","+0093,1","10179,1",,,,,,,"120,M,+0245,1","999,N,+0180,1","99999,9,10154,1","3,1,005,1,+999,9","SYN076AAXX  18181 02458 35984 /2505 10213 20093 30154 40179 53005 333 10245 20180;",
"02458099999","2010-07-18T21:00:00","4","59.897328","17.588581","20.72","UPPSALA, SW","FM-12","ESCM ","V020","240,1,N,0030,1","99999,9,9,N","050000,1,N,1","+0161,1","+0099,1","10191,1",,,,,,,,,"99999,9,10167,1","2,1,012,1,+999,9","SYN060AAXX  18211 02458 45984 /2403 10161 20099 30167 40191 52012;",
"02458099999","2010-07-19T00:00:00","4","59.897328","17.588581","20.72","UPPSALA, SW","FM-12","ESCM ","V020","230,1,N,0030,1","99999,9,9,N","050000,1,N,1","+0137,1","+0104,1","10194,1",,,,,,,,,"99999,9,10169,1","0,1,003,1,+999,9","SYN060AAXX  19001 02458 45984 /2303 10137 20104 30169 40194 50003;",
"02458099999","2010-07-19T03:00:00","4","59.897328","17.588581","20.72","UPPSALA, SW","FM-12","ESCM ","V020","240,1,N,0030,1","99999,9,9,N","027000,1,N,1","+0126,1","+0108,1","10193,1",,,,,,,,,"99999,9,10168,1","7,1,001,1,+999,9","SYN060AAXX  19031 02458 45977 /2403 10126 20108 30168 40193 57001;",
"02458099999","2010-07-19T06:00:00","4","59.897328","17.588581","20.72","UPPSALA, SW","FM-12","ESCM ","V020","230,1,N,0040,1","99999,9,9,N","030000,1,N,1","+0166,1","+0122,1","10191,1",,,,,,,"120,M,+0213,1","999,N,+0121,1","99999,9,10166,1","8,1,002,1,+999,9","SYN076AAXX  19061 02458 35980 /2304 10166 20122 30166 40191 58002 333 10213 20121;",
"02458099999","2010-07-19T09:00:00","4","59.897328","17.588581","20.72","UPPSALA, SW","FM-12","ESCM ","V020","230,1,N,0050,1","99999,9,9,N","035000,1,N,1","+0224,1","+0110,1","10188,1",,,,,,,,,"99999,9,10164,1","7,1,002,1,+999,9","SYN060AAXX  19091 02458 45981 /2305 10224 20110 30164 40188 57002;",
"02458099999","2010-07-19T12:00:00","4","59.897328","17.588581","20.72","UPPSALA, SW","FM-12","ESCM ","V020","220,1,N,0060,1","99999,9,9,N","045000,1,N,1","+0243,1","+0095,1","10180,1",,,,,,,,,"99999,9,10156,1","7,1,008,1,+999,9","SYN060AAXX  19121 02458 45983 /2206 10243 20095 30156 40180 57008;",
"02458099999","2010-07-19T15:00:00","4","59.897328","17.588581","20.72","UPPSALA, SW","FM-12","ESCM ","V020","240,1,N,0080,1","99999,9,9,N","040000,1,N,1","+0237,1","+0113,1","10171,1",,,,,"03,1,+01500,1,99,9",,,,"99999,9,10146,1","7,1,009,1,+999,9","SYN070AAXX  19151 02458 45782 /2408 10237 20113 30146 40171 57009 333 83/50;",
"02458099999","2010-07-19T18:00:00","4","59.897328","17.588581","20.72","UPPSALA, SW","FM-12","ESCM ","V020","230,1,N,0060,1","99999,9,9,N","050000,1,N,1","+0214,1","+0119,1","10171,1",,,,,"02,1,+01500,1,99,9",,"120,M,+0249,1","999,N,+0165,1","99999,9,10147,1","4,1,000,1,+999,9","SYN082AAXX  19181 02458 35784 /2306 10214 20119 30147 40171 54000 333 10249 20165 82/50;",
"02458099999","2010-07-19T21:00:00","4","59.897328","17.588581","20.72","UPPSALA, SW","FM-12","ESCM ","V020","220,1,N,0040,1","01170,1,C,N","050000,1,N,1","+0196,1","+0144,1","10175,1",,,,,"08,1,+01170,1,99,9",,,,"99999,9,10150,1","2,1,004,1,+999,9","SYN070AAXX  19211 02458 45684 /2204 10196 20144 30150 40175 52004 333 88/39;",
"02458099999","2010-07-20T00:00:00","4","59.897328","17.588581","20.72","UPPSALA, SW","FM-12","ESCM ","V020","200,1,N,0040,1","01140,1,C,N","050000,1,N,1","+0186,1","+0151,1","10166,1",,,,,"08,1,+01140,1,99,9",,,,"99999,9,10141,1","7,1,009,1,+999,9","SYN070AAXX  20001 02458 45684 /2004 10186 20151 30141 40166 57009 333 88/38;",
"02458099999","2010-07-20T03:00:00","4","59.897328","17.588581","20.72","UPPSALA, SW","FM-12","ESCM ","V020","230,1,N,0040,1","00960,1,C,N","045000,1,N,1","+0187,1","+0148,1","10165,1",,,,,"08,1,+00960,1,99,9",,,,"99999,9,10141,1","4,1,000,1,+999,9","SYN070AAXX  20031 02458 45583 /2304 10187 20148 30141 40165 54001 333 88/32;",
"02458099999","2010-07-20T06:00:00","4","59.897328","17.588581","20.72","UPPSALA, SW","FM-12","ESCM ","V020","230,1,N,0060,1","00780,1,C,N","035000,1,N,1","+0202,1","+0146,1","10167,1",,,,,"05,1,+00780,1,99,9",,"120,M,+0214,1","999,N,+0181,1","99999,9,10143,1","2,1,002,1,+999,9","SYN082AAXX  20061 02458 35581 /2306 10202 20146 30143 40167 52002 333 10214 20181 85/26;",
"02458099999","2010-07-20T09:00:00","4","59.897328","17.588581","20.72","UPPSALA, SW","FM-12","ESCM ","V020","220,1,N,0060,1","01170,1,C,N","040000,1,N,1","+0218,1","+0133,1","10173,1",,,,,"08,1,+01170,1,99,9",,,,"99999,9,10149,1","2,1,006,1,+999,9","SYN070AAXX  20091 02458 45682 /2206 10218 20133 30149 40173 52006 333 88/39;",
"02458099999","2010-07-20T12:00:00","4","59.897328","17.588581","20.72","UPPSALA, SW","FM-12","ESCM ","V020","230,1,N,0050,1","99999,9,9,N","035000,1,N,1","+0243,1","+0147,1","10166,1",,,,,"03,1,+01230,1,99,9",,,,"99999,9,10142,1","7,1,007,1,+999,9","SYN076AAXX  20121 02458 45681 /2305 10243 20147 30142 40166 57007 333 83/41 88/57;",
"02458099999","2010-07-20T15:00:00","4","59.897328","17.588581","20.72","UPPSALA, SW","FM-12","ESCM ","V020","230,1,N,0050,1","99999,9,9,N","045000,1,N,1","+0255,1","+0132,1","10156,1",,,,,"01,1,+01500,1,99,9",,,,"99999,9,10132,1","6,1,010,1,+999,9","SYN070AAXX  20151 02458 45783 /2305 10255 20132 30132 40156 56010 333 81/50;",
"02458099999","2010-07-20T18:00:00","4","59.897328","17.588581","20.72","UPPSALA, SW","FM-12","ESCM ","V020","210,1,N,0050,1","99999,9,9,N","050000,1,N,1","+0246,1","+0125,1","10149,1",,,,,,,"120,M,+0262,1","999,N,+0200,1","99999,9,10125,1","7,1,007,1,+999,9","SYN076AAXX  20181 02458 35984 /2105 10246 20125 30125 40149 57007 333 10262 20200;",
"02458099999","2010-07-20T21:00:00","4","59.897328","17.588581","20.72","UPPSALA, SW","FM-12","ESCM ","V020","190,1,N,0020,1","99999,9,9,N","019000,1,N,1","+0176,1","+0132,1","10153,1",,,,,,,,,"99999,9,10128,1","2,1,003,1,+999,9","SYN060AAXX  20211 02458 45969 /1902 10176 20132 30128 40153 52003;",
"02458099999","2010-07-21T00:00:00","4","59.897328","17.588581","20.72","UPPSALA, SW","FM-12","ESCM ","V020","180,1,N,0020,1","03000,1,C,N","018000,1,N,1","+0188,1","+0155,1","10147,1",,,,,"07,1,+03000,1,99,9",,,,"99999,9,10123,1","7,1,006,1,+999,9","SYN076AAXX  21001 02458 45968 /1802 10188 20155 30123 40147 57006 333 87/60 88/63;",
"02458099999","2010-07-21T03:00:00","4","59.897328","17.588581","20.72","UPPSALA, SW","FM-12","ESCM ","V020","170,1,N,0020,1","99999,9,9,N","050000,1,N,1","+0182,1","+0159,1","10141,1",,,"00,1","8,1,03,1","01,1,+02700,1,99,9",,,,"99999,9,10117,1","7,1,006,1,+999,9","SYN082AAXX  21031 02458 47984 /1702 10182 20159 30117 40141 57006 70086 333 81/59 88/63;",
"02458099999","2010-07-21T06:00:00","4","59.897328","17.588581","20.72","UPPSALA, SW","FM-12","ESCM ","V020","180,1,N,0020,1","04500,1,C,N","025000,1,N,1","+0217,1","+0161,1","10138,1",,,"00,1","8,1,06,1","05,1,+04500,1,99,9",,"120,M,+0246,1","999,N,+0173,1","99999,9,10114,1","7,1,002,1,+999,9","SYN088AAXX  21061 02458 37975 /1802 10217 20161 30114 40138 57002 70082 333 10246 20173 85/65;",
"02458099999","2010-07-21T09:00:00","4","59.897328","17.588581","20.72","UPPSALA, SW","FM-12","ESCM ","V020","210,1,N,0040,1","99999,9,9,N","040000,1,N,1","+0253,1","+0141,1","10134,1",,,,,"02,1,+04500,1,99,9",,,,"99999,9,10110,1","7,1,004,1,+999,9","SYN076AAXX  21091 02458 45982 /2104 10253 20141 30110 40134 57004 333 82/65 83/72;",
"02458099999","2010-07-21T12:00:00","4","59.897328","17.588581","20.72","UPPSALA, SW","FM-12","ESCM ","V020","190,1,N,0030,1","99999,9,9,N","040000,1,N,1","+0269,1","+0143,1","10122,1",,,,,"01,1,+05400,1,99,9",,,,"99999,9,10098,1","7,1,012,1,+999,9","SYN070AAXX  21121 02458 45982 /1903 10269 20143 30098 40122 57012 333 81/68;",
"02458099999","2010-07-21T15:00:00","4","59.897328","17.588581","20.72","UPPSALA, SW","FM-12","ESCM ","V020","170,1,N,0060,1","99999,9,9,N","040000,1,N,1","+0255,1","+0117,1","10114,1",,,,,"01,1,+06300,1,99,9",,,,"99999,9,10090,1","8,1,008,1,+999,9","SYN070AAXX  21151 02458 45982 /1706 10255 20117 30090 40114 58008 333 81/71;",
"02458099999","2010-07-21T18:00:00","4","59.897328","17.588581","20.72","UPPSALA, SW","FM-12","ESCM ","V020","170,1,N,0050,1","99999,9,9,N","045000,1,N,1","+0233,1","+0140,1","10105,1",,,,,,,"120,M,+0281,1","999,N,+0214,1","99999,9,10081,1","7,1,009,1,+999,9","SYN076AAXX  21181 02458 35983 /1705 10233 20140 30081 40105 57009 333 10281 20214;",
"02458099999","2010-07-21T21:00:00","4","59.897328","17.588581","20.72","UPPSALA, SW","FM-12","ESCM ","V020","170,1,N,0040,1","99999,9,9,N","050000,1,N,1","+0201,1","+0150,1","10098,1",,,,,,,,,"99999,9,10074,1","7,1,007,1,+999,9","SYN060AAXX  21211 02458 45984 /1704 10201 20150 30074 40098 57007;",
"02458099999","2010-07-22T00:00:00","4","59.897328","17.588581","20.72","UPPSALA, SW","FM-12","ESCM ","V020","170,1,N,0040,1","99999,9,9,N","045000,1,N,1","+0199,1","+0150,1","10094,1",,,,,"01,1,+01290,1,99,9",,,,"99999,9,10070,1","7,1,004,1,+999,9","SYN076AAXX  22001 02458 45683 /1704 10199 20150 30070 40094 57004 333 81/43 86/71;",
"02458099999","2010-07-22T03:00:00","4","59.897328","17.588581","20.72","UPPSALA, SW","FM-12","ESCM ","V020","160,1,N,0030,1","99999,9,9,N","050000,1,N,1","+0191,1","+0158,1","10081,1",,,,,"03,1,+01500,1,99,9",,,,"99999,9,10057,1","7,1,013,1,+999,9","SYN070AAXX  22031 02458 45784 /1603 10191 20158 30057 40081 57013 333 83/50;",
"02458099999","2010-07-22T06:00:00","4","59.897328","17.588581","20.72","UPPSALA, SW","FM-12","ESCM ","V020","170,1,N,0050,1","99999,9,9,N","035000,1,N,1","+0223,1","+0177,1","10067,1",,,,,,,"120,M,+0233,1","999,N,+0189,1","99999,9,10043,1","8,1,014,1,+999,9","SYN076AAXX  22061 02458 35981 /1705 10223 20177 30043 40067 58014 333 10233 20189;",
"02458099999","2010-07-22T09:00:00","4","59.897328","17.588581","20.72","UPPSALA, SW","FM-12","ESCM ","V020","200,1,N,0050,1","99999,9,9,N","030000,1,N,1","+0262,1","+0181,1","10063,1",,,,,"01,1,+01020,1,99,9",,,,"99999,9,10039,1","5,1,004,1,+999,9","SYN076AAXX  22091 02458 45680 /2005 10262 20181 30039 40063 55004 333 81/34 85/66;",
"02458099999","2010-07-22T12:00:00","4","59.897328","17.588581","20.72","UPPSALA, SW","FM-12","ESCM ","V020","220,1,N,0030,1","99999,9,9,N","013000,1,N,1","+0210,1","+0187,1","10071,1",,,"81,1","8,1,06,1","01,1,+01800,1,99,9",,,,"99999,9,10047,1","3,1,008,1,+999,9","SYN076AAXX  22121 02458 47763 /2203 10210 20187 30047 40071 53008 78186 333 81/56;",
"02458099999","2010-07-22T15:00:00","4","59.897328","17.588581","20.72","UPPSALA, SW","FM-12","ESCM ","V020","210,1,N,0070,1","99999,9,9,N","030000,1,N,1","+0241,1","+0180,1","10062,1",,,"00,1","8,1,03,1","01,1,+00840,1,99,9",,,,"99999,9,10038,1","7,1,009,1,+999,9","SYN076AAXX  22151 02458 47580 /2107 10241 20180 30038 40062 57009 70082 333 81/28;",
"02458099999","2010-07-22T18:00:00","4","59.897328","17.588581","20.72","UPPSALA, SW","FM-12","ESCM ","V020","230,1,N,0070,1","99999,9,9,N","050000,1,N,1","+0232,1","+0116,1","10069,1","12,0020,9,1",,"00,1","8,1,06,1",,,"120,M,+0276,1","999,N,+0204,1","99999,9,10045,1","3,1,007,1,+999,9","SYN088AAXX  22181 02458 17984 /2307 10232 20116 30045 40069 53007 60022 70082 333 10276 20204;",
"02458099999","2010-07-22T21:00:00","4","59.897328","17.588581","20.72","UPPSALA, SW","FM-12","ESCM ","V020","230,1,N,0030,1","99999,9,9,N","050000,1,N,1","+0180,1","+0102,1","10094,1",,,,,,,,,"99999,9,10069,1","2,1,025,1,+999,9","SYN060AAXX  22211 02458 45984 /2303 10180 20102 30069 40094 52025;",
"02458099999","2010-07-23T00:00:00","4","59.897328","17.588581","20.72","UPPSALA, SW","FM-12","ESCM ","V020","300,1,N,0040,1","06000,1,C,N","050000,1,N,1","+0156,1","+0111,1","10124,1",,,,,"06,1,+06000,1,99,9",,,,"99999,9,10099,1","2,1,030,1,+999,9","SYN070AAXX  23001 02458 45984 /3004 10156 20111 30099 40124 52030 333 86/70;",
"02458099999","2010-07-23T03:00:00","4","59.897328","17.588581","20.72","UPPSALA, SW","FM-12","ESCM ","V020","350,1,N,0040,1","99999,9,9,N","050000,1,N,1","+0126,1","+0070,1","10163,1",,,,,"01,1,+05700,1,99,9",,,,"99999,9,10138,1","2,1,039,1,+999,9","SYN070AAXX  23031 02458 45984 /3504 10126 20070 30138 40163 52039 333 81/69;",
"02458099999","2010-07-23T06:00:00","4","59.897328","17.588581","20.72","UPPSALA, SW","FM-12","ESCM ","V020","010,1,N,0050,1","06000,1,C,N","045000,1,N,1","+0126,1","+0046,1","10188,1","24,0023,9,1",,,,"07,1,+06000,1,99,9",,"120,M,+0232,1","999,N,+0118,1","99999,9,10163,1","3,1,025,1,+999,9","SYN088AAXX  23061 02458 35983 /0105 10126 20046 30163 40188 53025 333 10232 20118 70022 87/70;",
"02458099999","2010-07-23T09:00:00","4","59.897328","17.588581","20.72","UPPSALA, SW","FM-12","ESCM ","V020","030,1,N,0060,1","99999,9,9,N","045000,1,N,1","+0152,1","+0056,1","10200,1",,,,,"02,1,+06300,1,99,9",,,,"99999,9,10175,1","1,1,012,1,+999,9","SYN070AAXX  23091 02458 45983 /0306 10152 20056 30175 40200 51012 333 82/71;",
"02458099999","2010-07-23T12:00:00","4","59.897328","17.588581","20.72","UPPSALA, SW","FM-12","ESCM ","V020","020,1,N,0040,1","99999,9,9,N","045000,1,N,1","+0160,1","+0059,1","10206,1",,,,,"01,1,+04800,1,99,9",,,,"99999,9,10182,1","1,1,007,1,+999,9","SYN076AAXX  23121 02458 45983 /0204 10160 20059 30182 40206 51007 333 81/66 83/70;",
"02458099999","2010-07-23T15:00:00","4","59.897328","17.588581","20.72","UPPSALA, SW","FM-12","ESCM ","V020","030,1,N,0040,1","99999,9,9,N","045000,1,N,1","+0163,1","+0056,1","10201,1",,,,,"01,1,+05700,1,99,9",,,,"99999,9,10176,1","7,1,006,1,+999,9","SYN070AAXX  23151 02458 45983 /0304 10163 20056 30176 40201 57006 333 81/69;",
"02458099999","2010-07-23T18:00:00","4","59.897328","17.588581","20.72","UPPSALA, SW","FM-12","ESCM ","V020","030,1,N,0040,1","99999,9,9,N","050000,1,N,1","+0145,1","+0052,1","10201,1",,,,,"04,1,+04500,1,99,9",,"120,M,+0170,1","999,N,+0126,1","99999,9,10176,1","0,1,000,1,+999,9","SYN082AAXX  23181 02458 35984 /0304 10145 20052 30176 40201 50000 333 10170 20126 84/65;",
"02458099999","2010-07-23T21:00:00","4","59.897328","17.588581","20.72","UPPSALA, SW","FM-12","ESCM ","V020","320,1,N,0020,1","99999,9,9,N","050000,1,N,1","+0097,1","+0071,1","10203,1",,,,,"01,1,+03600,1,99,9",,,,"99999,9,10178,1","0,1,002,1,+999,9","SYN070AAXX  23211 02458 45984 /3202 10097 20071 30178 40203 50002 333 81/62;",
"02458099999","2010-07-24T00:00:00","4","59.897328","17.588581","20.72","UPPSALA, SW","FM-12","ESCM ","V020","310,1,N,0010,1","99999,9,9,N","050000,1,N,1","+0066,1","+0054,1","10196,1",,,,,,,,,"99999,9,10170,1","8,1,007,1,+999,9","SYN060AAXX  24001 02458 45984 /3101 10066 20054 30170 40196 58007;",
"02458099999","2010-07-24T03:00:00","4","59.897328","17.588581","20.72","UPPSALA, SW","FM-12","ESCM ","V020","320,1,N,0020,1","99999,9,9,N","050000,1,N,1","+0083,1","+0076,1","10187,1",,,,,,,,,"99999,9,10161,1","8,1,009,1,+999,9","SYN060AAXX  24031 02458 45984 /3202 10083 20076 30161 40187 58009;",
"02458099999","2010-07-24T06:00:00","4","59.897328","17.588581","20.72","UPPSALA, SW","FM-12","ESCM ","V020","340,1,N,0050,1","99999,9,9,N","045000,1,N,1","+0144,1","+0106,1","10184,1",,,,,,,"120,M,+0146,1","999,N,+0062,1","99999,9,10159,1","5,1,002,1,+999,9","SYN076AAXX  24061 02458 35983 /3405 10144 20106 30159 40184 55002 333 10146 20062;",
"02458099999","2010-07-24T09:00:00","4","59.897328","17.588581","20.72","UPPSALA, SW","FM-12","ESCM ","V020","030,1,N,0070,1","99999,9,9,N","045000,1,N,1","+0202,1","+0077,1","10169,1",,,,,,,,,"99999,9,10145,1","6,1,014,1,+999,9","SYN060AAXX  24091 02458 45983 /0307 10202 20077 30145 40169 56014;",
"02458099999","2010-07-24T12:00:00","4","59.897328","17.588581","20.72","UPPSALA, SW","FM-12","ESCM ","V020","010,1,N,0060,1","05100,1,C,N","040000,1,N,1","+0185,1","+0081,1","10165,1",,,,,"06,1,+05100,1,99,9",,,,"99999,9,10141,1","7,1,005,1,+999,9","SYN076AAXX  24121 02458 45982 /0106 10185 20081 30141 40165 57005 333 86/67 87/71;",
"02458099999","2010-07-24T15:00:00","4","59.897328","17.588581","20.72","UPPSALA, SW","FM-12","ESCM ","V020","010,1,N,0060,1","02400,1,C,N","045000,1,N,1","+0159,1","+0088,1","10158,1",,,"61,1","6,1,03,1","06,1,+02400,1,99,9",,,,"99999,9,10133,1","7,1,007,1,+999,9","SYN076AAXX  24151 02458 47883 /0106 10159 20088 30133 40158 57007 76160 333 86/58;",
"02458099999","2010-07-24T18:00:00","4","59.897328","17.588581","20.72","UPPSALA, SW","FM-12","ESCM ","V020","350,1,N,0040,1","02100,1,C,N","030000,1,N,1","+0132,1","+0105,1","10148,1","12,0010,9,1",,"61,1","8,1,06,1","06,1,+02100,1,99,9",,"120,M,+0207,1","999,N,+0131,1","99999,9,10124,1","6,1,010,1,+999,9","SYN100AAXX  24181 02458 07880 /3504 10132 20105 30124 40148 56010 60012 76186 333 10207 20131 69995 86/57;",
"02458099999","2010-07-24T21:00:00","4","59.897328","17.588581","20.72","UPPSALA, SW","FM-12","ESCM ","V020","340,1,N,0060,1","99999,9,9,N","018000,1,N,1","+0127,1","+0118,1","10129,1",,,"61,1","6,1,03,1","03,1,+01380,1,99,9",,,,"99999,9,10104,1","8,1,020,1,+999,9","SYN082AAXX  24211 02458 47668 /3406 10127 20118 30104 40129 58020 76166 333 83/46 88/50;",
"02458099999","2010-07-25T00:00:00","4","59.897328","17.588581","20.72","UPPSALA, SW","FM-12","ESCM ","V020","360,1,N,0050,1","00240,1,C,N","018000,1,N,1","+0125,1","+0117,1","10100,1",,,"62,1","6,1,06,1","06,1,+00240,1,99,9",,,,"99999,9,10075,1","8,1,028,1,+999,9","SYN082AAXX  25001 02458 47368 /3605 10125 20117 30075 40100 58028 76266 333 86/08 88/12;",
"02458099999","2010-07-25T03:00:00","4","59.897328","17.588581","20.72","UPPSALA, SW","FM-12","ESCM ","V020","360,1,N,0040,1","00270,1,C,N","007000,1,N,1","+0135,1","+0128,1","10077,1",,,"63,1","6,1,03,1","09,1,+00270,1,99,9",,,,"99999,9,10052,1","6,1,024,1,+999,9","SYN076AAXX  25031 02458 47/57 /3604 10135 20128 30052 40077 56024 76366 333 89/09;",
"02458099999","2010-07-25T06:00:00","4","59.897328","17.588581","20.72","UPPSALA, SW","FM-12","ESCM ","V020","350,1,N,0040,1","00210,1,C,N","040000,1,N,1","+0140,1","+0134,1","10066,1","12,0711,9,1","24,0719,9,1","23,1","6,1,06,1","07,1,+00210,1,99,9",,"120,M,+0142,1","999,N,+0125,1","99999,9,10041,1","8,1,011,1,+999,9","SYN112AAXX  25061 02458 07382 /3504 10140 20134 30041 40066 58011 60712 72362 333 10142 20125 60045 70719 87/07 88/09;",
"02458099999","2010-07-25T09:00:00","4","59.897328","17.588581","20.72","UPPSALA, SW","FM-12","ESCM ","V020","360,1,N,0050,1","00150,1,C,N","004100,1,N,1","+0150,1","+0144,1","10059,1",,,"52,1","6,1,03,1","09,1,+00150,1,99,9",,,,"99999,9,10035,1","8,1,007,1,+999,9","SYN076AAXX  25091 02458 47/41 /3605 10150 20144 30035 40059 58007 75265 333 89/05;",
"02458099999","2010-07-25T12:00:00","4","59.897328","17.588581","20.72","UPPSALA, SW","FM-12","ESCM ","V020","010,1,N,0030,1","99999,9,9,N","008000,1,N,1","+0164,1","+0159,1","10056,1",,,"10,1","5,1,06,1","02,1,+00150,1,99,9",,,,"99999,9,10032,1","8,1,003,1,+999,9","SYN076AAXX  25121 02458 47258 /0103 10164 20159 30032 40056 58003 71052 333 82/05;",
"02458099999","2010-07-25T15:00:00","4","59.897328","17.588581","20.72","UPPSALA, SW","FM-12","ESCM ","V020","030,1,N,0040,1","00150,1,C,N","004800,1,N,1","+0180,1","+0174,1","10058,1",,,"80,1","8,1,03,1","09,1,+00150,1,99,9",,,,"99999,9,10033,1","0,1,001,1,+999,9","SYN076AAXX  25151 02458 47/48 /0304 10180 20174 30033 40058 50001 78086 333 89/05;",
"02458099999","2010-07-25T18:00:00","4","59.897328","17.588581","20.72","UPPSALA, SW","FM-12","ESCM ","V020","030,1,N,0020,1","00150,1,C,N","005000,1,N,1","+0178,1","+0172,1","10059,1","12,0010,9,1",,"81,1","8,1,06,1","09,1,+00150,1,99,9",,"120,M,+0181,1","999,N,+0140,1","99999,9,10035,1","3,1,002,1,+999,9","SYN100AAXX  25181 02458 07/50 /0302 10178 20172 30035 40059 53002 60012 78182 333 10181 20140 69945 89/05;",
"02458099999","2010-07-25T21:00:00","4","59.897328","17.588581","20.72","UPPSALA, SW","FM-12","ESCM ","V020","120,1,N,0030,1","00630,1,C,N","045000,1,N,1","+0177,1","+0159,1","10064,1",,,"00,1","8,1,03,1","07,1,+00630,1,99,9",,,,"99999,9,10040,1","3,1,004,1,+999,9","SYN082AAXX  25211 02458 47583 /1203 10177 20159 30040 40064 53004 70082 333 87/21 88/26;",
"02458099999","2010-07-26T00:00:00","4","59.897328","17.588581","20.72","UPPSALA, SW","FM-12","ESCM ","V020","120,1,N,0040,1","00570,1,C,N","029000,1,N,1","+0167,1","+0144,1","10069,1",,,"00,1","8,1,06,1","06,1,+00570,1,99,9",,,,"99999,9,10044,1","3,1,005,1,+999,9","SYN082AAXX  26001 02458 47479 /1204 10167 20144 30044 40069 53005 70082 333 86/19 88/29;",
"02458099999","2010-07-26T03:00:00","4","59.897328","17.588581","20.72","UPPSALA, SW","FM-12","ESCM ","V020","130,1,N,0040,1","00330,1,C,N","005000,1,N,1","+0155,1","+0148,1","10071,1",,,"52,1","8,1,03,1","03,1,+00210,1,99,9","07,1,+00330,1,99,9",,,"99999,9,10046,1","3,1,002,1,+999,9","SYN088AAXX  26031 02458 47350 /1304 10155 20148 30046 40071 53002 75286 333 83/07 87/11 88/15;",
"02458099999","2010-07-26T06:00:00","4","59.897328","17.588581","20.72","UPPSALA, SW","FM-12","ESCM ","V020","130,1,N,0040,1","00690,1,C,N","050000,1,N,1","+0162,1","+0145,1","10076,1","12,0010,9,1","24,0020,9,1","00,1","8,1,06,1","08,1,+00690,1,99,9",,"120,M,+0187,1","999,N,+0155,1","99999,9,10051,1","2,1,005,1,+999,9","SYN100AAXX  26061 02458 17584 /1304 10162 20145 30051 40076 52005 60012 70086 333 10187 20155 70021 88/23;",
"02458099999","2010-07-26T09:00:00","4","59.897328","17.588581","20.72","UPPSALA, SW","FM-12","ESCM ","V020","160,1,N,0030,1","00660,1,C,N","045000,1,N,1","+0169,1","+0138,1","10094,1",,,,,"08,1,+00660,1,99,9",,,,"99999,9,10069,1","2,1,018,1,+999,9","SYN070AAXX  26091 02458 45583 /1603 10169 20138 30069 40094 52018 333 88/22;",
"02458099999","2010-07-26T12:00:00","4","59.897328","17.588581","20.72","UPPSALA, SW","FM-12","ESCM ","V020","150,1,N,0050,1","00810,1,C,N","035000,1,N,1","+0188,1","+0132,1","10098,1",,,,,"08,1,+00810,1,99,9",,,,"99999,9,10074,1","2,1,004,1,+999,9","SYN070AAXX  26121 02458 45581 /1505 10188 20132 30074 40098 52004 333 88/27;",
"02458099999","2010-07-26T15:00:00","4","59.897328","17.588581","20.72","UPPSALA, SW","FM-12","ESCM ","V020","190,1,N,0040,1","00960,1,C,N","050000,1,N,1","+0195,1","+0137,1","10106,1",,,,,"05,1,+00960,1,99,9",,,,"99999,9,10081,1","2,1,007,1,+999,9","SYN076AAXX  26151 02458 45584 /1904 10195 20137 30081 40106 52007 333 85/32 87/56;",
"02458099999","2010-07-26T18:00:00","4","59.897328","17.588581","20.72","UPPSALA, SW","FM-12","ESCM ","V020","190,1,N,0020,1","00840,1,C,N","050000,1,N,1","+0171,1","+0126,1","10110,1",,,,,"07,1,+00840,1,99,9",,"120,M,+0203,1","999,N,+0162,1","99999,9,10085,1","2,1,004,1,+999,9","SYN082AAXX  26181 02458 35584 /1902 10171 20126 30085 40110 52004 333 10203 20162 87/28;",
"02458099999","2010-07-26T21:00:00","4","59.897328","17.588581","20.72","UPPSALA, SW","FM-12","ESCM ","V020","210,1,N,0010,1","00750,1,C,N","050000,1,N,1","+0162,1","+0126,1","10113,1",,,,,"08,1,+00750,1,99,9",,,,"99999,9,10089,1","3,1,004,1,+999,9","SYN070AAXX  26211 02458 45584 /2101 10162 20126 30089 40113 53004 333 88/25;",
"02458099999","2010-07-27T00:00:00","4","59.897328","17.588581","20.72","UPPSALA, SW","FM-12","ESCM ","V020","230,1,N,0010,1","00660,1,C,N","050000,1,N,1","+0153,1","+0136,1","10115,1",,,,,"08,1,+00660,1,99,9",,,,"99999,9,10091,1","0,1,002,1,+999,9","SYN070AAXX  27001 02458 45584 /2301 10153 20136 30091 40115 50002 333 88/22;",
"02458099999","2010-07-27T03:00:00","4","59.897328","17.588581","20.72","UPPSALA, SW","FM-12","ESCM ","V020","170,1,N,0010,1","00960,1,C,N","050000,1,N,1","+0150,1","+0138,1","10115,1",,,,,"08,1,+00960,1,99,9",,,,"99999,9,10091,1","4,1,000,1,+999,9","SYN070AAXX  27031 02458 45584 /1701 10150 20138 30091 40115 54000 333 88/32;",
"02458099999","2010-07-27T06:00:00","4","59.897328","17.588581","20.72","UPPSALA, SW","FM-12","ESCM ","V020","210,1,N,0030,1","99999,9,9,N","040000,1,N,1","+0165,1","+0140,1","10120,1",,,,,"01,1,+00360,1,99,9","03,1,+00630,1,99,9","120,M,+0173,1","999,N,+0149,1","99999,9,10095,1","2,1,004,1,+999,9","SYN094AAXX  27061 02458 35482 /2103 10165 20140 30095 40120 52004 333 10173 20149 81/12 83/21 88/37;",
"02458099999","2010-07-27T09:00:00","4","59.897328","17.588581","20.72","UPPSALA, SW","FM-12","ESCM ","V020","240,1,N,0040,1","00630,1,C,N","040000,1,N,1","+0181,1","+0139,1","10128,1",,,,,"08,1,+00630,1,99,9",,,,"99999,9,10103,1","2,1,008,1,+999,9","SYN070AAXX  27091 02458 45582 /2404 10181 20139 30103 40128 52008 333 88/21;",
"02458099999","2010-07-27T12:00:00","4","59.897328","17.588581","20.72","UPPSALA, SW","FM-12","ESCM ","V020","230,1,N,0030,1","01200,1,C,N","035000,1,N,1","+0210,1","+0145,1","10131,1",,,,,"07,1,+01200,1,99,9",,,,"99999,9,10107,1","0,1,003,1,+999,9","SYN076AAXX  27121 02458 45681 /2303 10210 20145 30107 40131 50003 333 87/40 88/50;",
"02458099999","2010-07-27T15:00:00","4","59.897328","17.588581","20.72","UPPSALA, SW","FM-12","ESCM ","V020","250,1,N,0020,1","99999,9,9,N","050000,1,N,1","+0229,1","+0137,1","10128,1",,,,,"01,1,+01500,1,99,9",,,,"99999,9,10104,1","7,1,003,1,+999,9","SYN070AAXX  27151 02458 45784 /2502 10229 20137 30104 40128 57003 333 81/50;",
"02458099999","2010-07-27T18:00:00","4","59.897328","17.588581","20.72","UPPSALA, SW","FM-12","ESCM ","V020","220,1,N,0020,1","99999,9,9,N","050000,1,N,1","+0225,1","+0126,1","10127,1",,,,,,,"120,M,+0243,1","999,N,+0164,1","99999,9,10103,1","4,1,000,1,+999,9","SYN076AAXX  27181 02458 35984 /2202 10225 20126 30103 40127 54001 333 10243 20164;",
"02458099999","2010-07-27T21:00:00","4","59.897328","17.588581","20.72","UPPSALA, SW","FM-12","ESCM ","V020","150,1,N,0020,1","99999,9,9,N","050000,1,N,1","+0165,1","+0136,1","10131,1",,,,,,,,,"99999,9,10106,1","3,1,003,1,+999,9","SYN060AAXX  27211 02458 45984 /1502 10165 20136 30106 40131 53003;",
"02458099999","2010-07-28T00:00:00","4","59.897328","17.588581","20.72","UPPSALA, SW","FM-12","ESCM ","V020","999,9,C,0000,1","04800,1,C,N","040000,1,N,1","+0139,1","+0133,1","10127,1",,,,,"08,1,+04800,1,99,9",,,,"99999,9,10102,1","8,1,004,1,+999,9","SYN070AAXX  28001 02458 45982 /0000 10139 20133 30102 40127 58004 333 88/66;",
"02458099999","2010-07-28T03:00:00","4","59.897328","17.588581","20.72","UPPSALA, SW","FM-12","ESCM ","V020","290,1,N,0010,1","99999,9,9,N","005000,1,N,1","+0123,1","+0119,1","10120,1",,,"10,1","4,1,03,1",,,,,"99999,9,10095,1","7,1,007,1,+999,9","SYN066AAXX  28031 02458 47950 /2901 10123 20119 30095 40120 57007 71032;",
"02458099999","2010-07-28T06:00:00","4","59.897328","17.588581","20.72","UPPSALA, SW","FM-12","ESCM ","V020","300,1,N,0020,1","99999,9,9,N","045000,1,N,1","+0188,1","+0151,1","10116,1",,,"00,1","4,1,06,1",,,"120,M,+0227,1","999,N,+0116,1","99999,9,10091,1","7,1,004,1,+999,9","SYN082AAXX  28061 02458 37983 /3002 10188 20151 30091 40116 57004 70032 333 10227 20116;",
"02458099999","2010-07-28T09:00:00","4","59.897328","17.588581","20.72","UPPSALA, SW","FM-12","ESCM ","V020","060,1,N,0010,1","04200,1,C,N","035000,1,N,1","+0204,1","+0140,1","10108,1",,,,,"06,1,+04200,1,99,9",,,,"99999,9,10084,1","8,1,008,1,+999,9","SYN076AAXX  28091 02458 45981 /0601 10204 20140 30084 40108 58008 333 86/64 87/66;",
"02458099999","2010-07-28T12:00:00","4","59.897328","17.588581","20.72","UPPSALA, SW","FM-12","ESCM ","V020","070,1,N,0020,1","03300,1,C,N","040000,1,N,1","+0230,1","+0135,1","10100,1",,,,,"05,1,+03300,1,99,9",,,,"99999,9,10076,1","7,1,008,1,+999,9","SYN070AAXX  28121 02458 45982 /0702 10230 20135 30076 40100 57008 333 85/61;",
"02458099999","2010-07-28T15:00:00","4","59.897328","17.588581","20.72","UPPSALA, SW","FM-12","ESCM ","V020","070,1,N,0030,1","04200,1,C,N","050000,1,N,1","+0228,1","+0137,1","10086,1",,,,,"06,1,+04200,1,99,9",,,,"99999,9,10062,1","8,1,014,1,+999,9","SYN070AAXX  28151 02458 45984 /0703 10228 20137 30062 40086 58014 333 86/64;",
"02458099999","2010-07-28T18:00:00","4","59.897328","17.588581","20.72","UPPSALA, SW","FM-12","ESCM ","V020","020,1,N,0030,1","99999,9,9,N","050000,1,N,1","+0198,1","+0142,1","10080,1",,,"00,1","8,1,06,1","04,1,+04200,1,99,9",,"120,M,+0244,1","999,N,+0187,1","99999,9,10056,1","5,1,005,1,+999,9","SYN094AAXX  28181 02458 37984 /0203 10198 20142 30056 40080 55005 70086 333 10244 20187 84/64 85/66;",
"02458099999","2010-07-28T21:00:00","4","59.897328","17.588581","20.72","UPPSALA, SW","FM-12","ESCM ","V020","010,1,N,0020,1","99999,9,9,N","050000,1,N,1","+0160,1","+0141,1","10070,1",,,,,"02,1,+01800,1,99,9",,,,"99999,9,10045,1","8,1,011,1,+999,9","SYN070AAXX  28211 02458 45884 /0102 10160 20141 30045 40070 58011 333 82/56;",
"02458099999","2010-07-29T00:00:00","4","59.897328","17.588581","20.72","UPPSALA, SW","FM-12","ESCM ","V020","340,1,N,0030,1","00360,1,C,N","050000,1,N,1","+0159,1","+0149,1","10051,1",,,"23,1","8,1,06,1","08,1,+00360,1,99,9",,,,"99999,9,10026,1","8,1,019,1,+999,9","SYN076AAXX  29001 02458 47484 /3403 10159 20149 30026 40051 58019 72386 333 88/12;",
"02458099999","2010-07-29T03:00:00","4","59.897328","17.588581","20.72","UPPSALA, SW","FM-12","ESCM ","V020","010,1,N,0030,1","00210,1,C,N","006000,1,N,1","+0159,1","+0153,1","10028,1",,,"63,1","6,1,03,1","08,1,+00210,1,99,9",,,,"99999,9,10003,1","6,1,023,1,+999,9","SYN076AAXX  29031 02458 47356 /0103 10159 20153 30003 40028 56023 76362 333 88/07;",
"02458099999","2010-07-29T06:00:00","4","59.897328","17.588581","20.72","UPPSALA, SW","FM-12","ESCM ","V020","010,1,N,0040,1","00120,1,C,N","008000,1,N,1","+0165,1","+0160,1","10012,1","12,0071,9,1","24,0071,9,1","10,1","8,1,06,1","09,1,+00120,1,99,9",,"120,M,+0198,1","999,N,+0152,1","99999,9,09988,1","5,1,015,1,+999,9","SYN100AAXX  29061 02458 17/58 /0104 10165 20160 39988 40012 55015 60072 71086 333 10198 20152 70071 89/04;",
"02458099999","2010-07-29T09:00:00","4","59.897328","17.588581","20.72","UPPSALA, SW","FM-12","ESCM ","V020","360,1,N,0030,1","00180,1,C,N","010000,1,N,1","+0178,1","+0169,1","09993,1",,,"00,1","8,1,03,1","08,1,+00180,1,99,9",,,,"99999,9,09968,1","6,1,020,1,+999,9","SYN076AAXX  29091 02458 47260 /3603 10178 20169 39968 49993 56020 70086 333 88/06;",
"02458099999","2010-07-29T12:00:00","4","59.897328","17.588581","20.72","UPPSALA, SW","FM-12","ESCM ","V020","010,1,N,0040,1","00180,1,C,N","010000,1,N,1","+0172,1","+0166,1","09977,1",,,"62,1","8,1,06,1","09,1,+00180,1,99,9",,,,"99999,9,09953,1","8,1,015,1,+999,9","SYN076AAXX  29121 02458 47/60 /0104 10172 20166 39953 49977 58015 76286 333 89/06;",
"02458099999","2010-07-29T15:00:00","4","59.897328","17.588581","20.72","UPPSALA, SW","FM-12","ESCM ","V020","010,1,N,0030,1","00120,1,C,N","010000,1,N,1","+0173,1","+0168,1","09959,1",,,"82,1","8,1,03,1","09,1,+00120,1,99,9",,,,"99999,9,09935,1","8,1,019,1,+999,9","SYN076AAXX  29151 02458 47/60 /0103 10173 20168 39935 49959 58019 78286 333 89/04;",
"02458099999","2010-07-29T18:00:00","4","59.897328","17.588581","20.72","UPPSALA, SW","FM-12","ESCM ","V020","130,1,N,0060,1","00300,1,C,N","050000,1,N,1","+0184,1","+0172,1","09969,1","12,0140,9,1",,"00,1","8,1,06,1","07,1,+00300,1,99,9",,"120,M,+0193,1","999,N,+0165,1","99999,9,09945,1","3,1,010,1,+999,9","SYN094AAXX  29181 02458 17484 /1306 10184 20172 39945 49969 53010 60142 70086 333 10193 20165 87/10;",
"02458099999","2010-07-29T21:00:00","4","59.897328","17.588581","20.72","UPPSALA, SW","FM-12","ESCM ","V020","120,1,N,0040,1","00360,1,C,N","024000,1,N,1","+0180,1","+0170,1","09982,1",,,,,"06,1,+00360,1,99,9","07,1,+00450,1,99,9",,,"99999,9,09958,1","1,1,014,1,+999,9","SYN082AAXX  29211 02458 45474 /1204 10180 20170 39958 49982 51014 333 86/12 87/15 88/20;",
"02458099999","2010-07-30T00:00:00","4","59.897328","17.588581","20.72","UPPSALA, SW","FM-12","ESCM ","V020","120,1,N,0050,1","00360,1,C,N","050000,1,N,1","+0173,1","+0158,1","09991,1",,,,,"06,1,+00360,1,99,9",,,,"99999,9,09967,1","3,1,009,1,+999,9","SYN076AAXX  30001 02458 45484 /1205 10173 20158 39967 49991 53009 333 86/12 88/15;",
"02458099999","2010-07-30T03:00:00","4","59.897328","17.588581","20.72","UPPSALA, SW","FM-12","ESCM ","V020","130,1,N,0040,1","99999,9,9,N","040000,1,N,1","+0172,1","+0157,1","09999,1",,,,,"03,1,+00360,1,99,9",,,,"99999,9,09975,1","2,1,008,1,+999,9","SYN076AAXX  30031 02458 45482 /1304 10172 20157 39975 49999 52008 333 83/12 88/22;",
"02458099999","2010-07-30T06:00:00","4","59.897328","17.588581","20.72","UPPSALA, SW","FM-12","ESCM ","V020","160,1,N,0040,1","00420,1,C,N","045000,1,N,1","+0175,1","+0154,1","10014,1","24,0142,9,1",,,,"08,1,+00420,1,99,9",,"120,M,+0184,1","999,N,+0170,1","99999,9,09990,1","3,1,015,1,+999,9","SYN088AAXX  30061 02458 35483 /1604 10175 20154 39990 40014 53015 333 10184 20170 70141 88/14;",
"02458099999","2010-07-30T09:00:00","4","59.897328","17.588581","20.72","UPPSALA, SW","FM-12","ESCM ","V020","170,1,N,0060,1","99999,9,9,N","035000,1,N,1","+0204,1","+0151,1","10031,1",,,,,"03,1,+00870,1,99,9",,,,"99999,9,10007,1","1,1,017,1,+999,9","SYN070AAXX  30091 02458 45581 /1706 10204 20151 30007 40031 51017 333 83/29;",
"02458099999","2010-07-30T12:00:00","4","59.897328","17.588581","20.72","UPPSALA, SW","FM-12","ESCM ","V020","170,1,N,0080,1","99999,9,9,N","040000,1,N,1","+0202,1","+0136,1","10039,1",,,,,"01,1,+01020,1,99,9",,,,"99999,9,10015,1","2,1,008,1,+999,9","SYN076AAXX  30121 02458 45682 /1708 10202 20136 30015 40039 52008 333 81/34 88/47;",
"02458099999","2010-07-30T15:00:00","4","59.897328","17.588581","20.72","UPPSALA, SW","FM-12","ESCM ","V020","160,1,N,0080,1","99999,9,9,N","045000,1,N,1","+0206,1","+0140,1","10040,1",,,,,"03,1,+01200,1,99,9",,,,"99999,9,10016,1","5,1,001,1,+999,9","SYN076AAXX  30151 02458 45683 /1608 10206 20140 30016 40040 55001 333 83/40 87/59;",
"02458099999","2010-07-30T18:00:00","4","59.897328","17.588581","20.72","UPPSALA, SW","FM-12","ESCM ","V020","160,1,N,0060,1","99999,9,9,N","045000,1,N,1","+0185,1","+0141,1","10045,1",,,,,"01,1,+02400,1,99,9",,"120,M,+0219,1","999,N,+0175,1","99999,9,10021,1","2,1,004,1,+999,9","SYN088AAXX  30181 02458 35883 /1606 10185 20141 30021 40045 52004 333 10219 20175 81/58 88/60;",
"02458099999","2010-07-30T21:00:00","4","59.897328","17.588581","20.72","UPPSALA, SW","FM-12","ESCM ","V020","160,1,N,0050,1","99999,9,9,N","050000,1,N,1","+0167,1","+0132,1","10046,1",,,,,"03,1,+01200,1,99,9",,,,"99999,9,10021,1","4,1,000,1,+999,9","SYN070AAXX  30211 02458 45684 /1605 10167 20132 30021 40046 54001 333 83/40;",
"02458099999","2010-07-31T00:00:00","4","59.897328","17.588581","20.72","UPPSALA, SW","FM-12","ESCM ","V020","180,1,N,0060,1","00630,1,C,N","009000,1,N,1","+0153,1","+0137,1","10050,1",,,"81,1","8,1,06,1","04,1,+00480,1,99,9","06,1,+00630,1,99,9",,,"99999,9,10025,1","3,1,004,1,+999,9","SYN088AAXX  31001 02458 47459 /1806 10153 20137 30025 40050 53004 78185 333 84/16 86/21 87/33;",
"02458099999","2010-07-31T03:00:00","4","59.897328","17.588581","20.72","UPPSALA, SW","FM-12","ESCM ","V020","190,1,N,0060,1","00240,1,C,N","013000,1,N,1","+0149,1","+0140,1","10054,1",,,"23,1","8,1,03,1","05,1,+00240,1,99,9",,,,"99999,9,10029,1","3,1,004,1,+999,9","SYN082AAXX  31031 02458 47363 /1906 10149 20140 30029 40054 53004 72385 333 85/08 88/12;",
"02458099999","2010-07-31T06:00:00","4","59.897328","17.588581","20.72","UPPSALA, SW","FM-12","ESCM ","V020","200,1,N,0050,1","00390,1,C,N","030000,1,N,1","+0153,1","+0136,1","10068,1","12,0010,9,1","24,0010,9,1","00,1","8,1,06,1","08,1,+00390,1,99,9",,"120,M,+0185,1","999,N,+0148,1","99999,9,10044,1","3,1,014,1,+999,9","SYN100AAXX  31061 02458 17480 /2005 10153 20136 30044 40068 53014 60012 70085 333 10185 20148 70010 88/13;",
"02458099999","2010-07-31T09:00:00","4","59.897328","17.588581","20.72","UPPSALA, SW","FM-12","ESCM ","V020","210,1,N,0050,1","00540,1,C,N","027000,1,N,1","+0157,1","+0137,1","10087,1",,,"22,1","8,1,03,1","02,1,+00360,1,99,9","06,1,+00540,1,99,9",,,"99999,9,10062,1","2,1,019,1,+999,9","SYN088AAXX  31091 02458 47477 /2105 10157 20137 30062 40087 52019 72286 333 82/12 86/18 88/23;",
"02458099999","2010-07-31T12:00:00","4","59.897328","17.588581","20.72","UPPSALA, SW","FM-12","ESCM ","V020","220,1,N,0070,1","01110,1,C,N","030000,1,N,1","+0184,1","+0121,1","10100,1",,,"00,1","8,1,06,1","08,1,+01110,1,99,9",,,,"99999,9,10076,1","0,1,013,1,+999,9","SYN076AAXX  31121 02458 47680 /2207 10184 20121 30076 40100 50013 70086 333 88/37;",
"02458099999","2010-07-31T15:00:00","4","59.897328","17.588581","20.72","UPPSALA, SW","FM-12","ESCM ","V020","220,1,N,0050,1","01380,1,C,N","035000,1,N,1","+0203,1","+0126,1","10107,1",,,,,"08,1,+01380,1,99,9",,,,"99999,9,10083,1","2,1,007,1,+999,9","SYN070AAXX  31151 02458 45681 /2205 10203 20126 30083 40107 52007 333 88/46;",
"02458099999","2010-07-31T18:00:00","4","59.897328","17.588581","20.72","UPPSALA, SW","FM-12","ESCM ","V020","220,1,N,0040,1","99999,9,9,N","040000,1,N,1","+0195,1","+0118,1","10112,1","12,0000,2,1",,,,,,"120,M,+0214,1","999,N,+0144,1","99999,9,10088,1","3,1,005,1,+999,9","SYN082AAXX  31181 02458 15982 /2204 10195 20118 30088 40112 53005 69912 333 10214 20144;",
"02458099999","2010-07-31T21:00:00","4","59.897328","17.588581","20.72","UPPSALA, SW","FM-12","ESCM ","V020","170,1,N,0020,1","99999,9,9,N","045000,1,N,1","+0150,1","+0114,1","10122,1",,,,,,,,,"99999,9,10097,1","1,1,010,1,+999,9","SYN060AAXX  31211 02458 45983 /1702 10150 20114 30097 40122 51010;",
"02458099999","2010-08-01T00:00:00","4","59.897328","17.588581","20.72","UPPSALA, SW","FM-12","ESCM ","V020","170,1,N,0020,1","01410,1,C,N","035000,1,N,1","+0159,1","+0132,1","10124,1",,,,,"05,1,+01410,1,99,9",,,,"99999,9,10099,1","0,1,002,1,+999,9","SYN076AAXX  01001 02458 45681 /1702 10159 20132 30099 40124 50002 333 85/47 88/57;",
"02458099999","2010-08-01T03:00:00","4","59.897328","17.588581","20.72","UPPSALA, SW","FM-12","ESCM ","V020","170,1,N,0020,1","01800,1,C,N","040000,1,N,1","+0169,1","+0135,1","10122,1",,,,,"07,1,+01800,1,99,9",,,,"99999,9,10098,1","8,1,001,1,+999,9","SYN070AAXX  01031 02458 45782 /1702 10169 20135 30098 40122 58001 333 87/56;",
"02458099999","2010-08-01T06:00:00","4","59.897328","17.588581","20.72","UPPSALA, SW","FM-12","ESCM ","V020","160,1,N,0040,1","01800,1,C,N","040000,1,N,1","+0171,1","+0132,1","10123,1","24,0000,2,1",,,,"08,1,+01800,1,99,9",,"120,M,+0195,1","999,N,+0135,1","99999,9,10098,1","5,1,000,1,+999,9","SYN088AAXX  01060 02458 35882 /1604 10171 20132 30098 40123 55000 333 10195 20135 70001 88/56;",
"02458099999","2010-08-01T09:00:00","4","59.897328","17.588581","20.72","UPPSALA, SW","FM-12","ESCM ","V020","160,1,N,0070,1","99999,9,9,N","035000,1,N,1","+0223,1","+0127,1","10121,1",,,,,,,,,"99999,9,10097,1","8,1,002,1,+999,9","SYN060AAXX  01091 02458 45981 /1607 10223 20127 30097 40121 58002;",
"02458099999","2010-08-01T12:00:00","4","59.897328","17.588581","20.72","UPPSALA, SW","FM-12","ESCM ","V020","180,1,N,0090,1","99999,9,9,N","035000,1,N,1","+0241,1","+0128,1","10115,1",,,,,"01,1,+01500,1,99,9",,,,"99999,9,10091,1","7,1,006,1,+999,9","SYN070AAXX  01121 02458 45781 /1809 10241 20128 30091 40115 57006 333 81/50;",
"02458099999","2010-08-01T15:00:00","4","59.897328","17.588581","20.72","UPPSALA, SW","FM-12","ESCM ","V020","210,1,N,0050,1","01500,1,C,N","040000,1,N,1","+0210,1","+0149,1","10117,1",,,,,"06,1,+01500,1,99,9",,,,"99999,9,10093,1","2,1,002,1,+999,9","SYN076AAXX  01151 02458 45782 /2105 10210 20149 30093 40117 52002 333 86/50 87/57;",
"02458099999","2010-08-01T18:00:00","4","59.897328","17.588581","20.72","UPPSALA, SW","FM-12","ESCM ","V020","170,1,N,0030,1","99999,9,9,N","050000,1,N,1","+0201,1","+0151,1","10113,1",,,,,"01,1,+01350,1,99,9",,"120,M,+0249,1","999,N,+0171,1","99999,9,10089,1","7,1,004,1,+999,9","SYN088AAXX  01181 02458 35684 /1703 10201 20151 30089 40113 57004 333 10249 20171 81/45 84/50;",
"02458099999","2010-08-01T21:00:00","4","59.897328","17.588581","20.72","UPPSALA, SW","FM-12","ESCM ","V020","200,1,N,0020,1","99999,9,9,N","020000,1,N,1","+0173,1","+0158,1","10120,1",,,"22,1","8,1,03,1","04,1,+00660,1,99,9",,,,"99999,9,10095,1","0,1,006,1,+999,9","SYN076AAXX  01211 02458 47570 /2002 10173 20158 30095 40120 50006 72286 333 84/22;",
"02458099999","2010-08-02T00:00:00","4","59.897328","17.588581","20.72","UPPSALA, SW","FM-12","ESCM ","V020","200,1,N,0010,1","99999,9,9,N","010000,1,N,1","+0152,1","+0146,1","10129,1",,,"00,1","8,1,06,1",,,,,"99999,9,10104,1","1,1,009,1,+999,9","SYN066AAXX  02001 02458 47960 /2001 10152 20146 30104 40129 51009 70086;",
"02458099999","2010-08-02T03:00:00","4","59.897328","17.588581","20.72","UPPSALA, SW","FM-12","ESCM ","V020","200,1,N,0020,1","00030,1,C,N","000200,1,N,1","+0139,1","+0135,1","10132,1",,,"34,1","4,1,03,1","09,1,+00030,1,99,9",,,,"99999,9,10107,1","2,1,003,1,+999,9","SYN076AAXX  02031 02458 47/02 /2002 10139 20135 30107 40132 52003 73432 333 89/01;",
"02458099999","2010-08-02T06:00:00","4","59.897328","17.588581","20.72","UPPSALA, SW","FM-12","ESCM ","V020","999,9,C,0000,1","00060,1,C,N","001400,1,N,1","+0147,1","+0143,1","10134,1","12,0000,2,1","24,0003,9,1","31,1","4,1,06,1","09,1,+00060,1,99,9",,"120,M,+0201,1","999,N,+0130,1","99999,9,10109,1","0,1,002,1,+999,9","SYN100AAXX  02060 02458 17/14 /0000 10147 20143 30109 40134 50002 69922 73132 333 10201 20130 70002 89/02;",
"02458099999","2010-08-02T09:00:00","4","59.897328","17.588581","20.72","UPPSALA, SW","FM-12","ESCM ","V020","250,1,N,0010,1","99999,9,9,N","021000,1,N,1","+0171,1","+0156,1","10134,1",,,"61,1","6,1,03,1",,,,,"99999,9,10109,1","5,1,000,1,+999,9","SYN066AAXX  02091 02458 47971 /2501 10171 20156 30109 40134 55000 76165;",
"02458099999","2010-08-02T12:00:00","4","59.897328","17.588581","20.72","UPPSALA, SW","FM-12","ESCM ","V020","080,1,N,0010,1","99999,9,9,N","021000,1,N,1","+0160,1","+0132,1","10126,1",,,"61,1","6,1,06,1",,,,,"99999,9,10101,1","8,1,008,1,+999,9","SYN066AAXX  02121 02458 47971 /0801 10160 20132 30101 40126 58008 76165;",
"02458099999","2010-08-02T15:00:00","4","59.897328","17.588581","20.72","UPPSALA, SW","FM-12","ESCM ","V020","999,9,C,0000,1","00630,1,C,N","040000,1,N,1","+0177,1","+0151,1","10119,1",,,"23,1","6,1,03,1","01,1,+00330,1,99,9","06,1,+00630,1,99,9",,,"99999,9,10095,1","8,1,007,1,+999,9","SYN088AAXX  02151 02458 47482 /0000 10177 20151 30095 40119 58007 72362 333 81/11 86/21 87/74;",
"02458099999","2010-08-02T18:00:00","4","59.897328","17.588581","20.72","UPPSALA, SW","FM-12","ESCM ","V020","200,1,N,0010,1","99999,9,9,N","050000,1,N,1","+0168,1","+0153,1","10113,1","12,0079,9,1",,"00,1","6,1,06,1","01,1,+00420,1,99,9",,"120,M,+0180,1","999,N,+0145,1","99999,9,10089,1","5,1,006,1,+999,9","SYN100AAXX  02181 02458 17484 /2001 10168 20153 30089 40113 55006 60082 70062 333 10180 20145 81/14 87/68;",
"02458099999","2010-08-02T21:00:00","4","59.897328","17.588581","20.72","UPPSALA, SW","FM-12","ESCM ","V020","190,1,N,0010,1","99999,9,9,N","003200,1,N,1","+0139,1","+0135,1","10118,1",,,"10,1","2,1,03,1",,,,,"99999,9,10093,1","3,1,004,1,+999,9","SYN066AAXX  02211 02458 47932 /1901 10139 20135 30093 40118 53004 71010;",
"02458099999","2010-08-03T00:00:00","4","59.897328","17.588581","20.72","UPPSALA, SW","FM-12","ESCM ","V020","999,9,C,0000,1","00030,1,C,N","000100,1,N,1","+0139,1","+0136,1","10115,1",,,"34,1","4,1,06,1","09,1,+00030,1,99,9",,,,"99999,9,10091,1","7,1,002,1,+999,9","SYN076AAXX  03001 02458 47/01 /0000 10139 20136 30091 40115 57002 73432 333 89/01;",
"02458099999","2010-08-03T03:00:00","4","59.897328","17.588581","20.72","UPPSALA, SW","FM-12","ESCM ","V020","230,1,N,0010,1","00060,1,C,N","001200,1,N,1","+0138,1","+0135,1","10111,1",,,"20,1","4,1,03,1","09,1,+00060,1,99,9",,,,"99999,9,10087,1","7,1,004,1,+999,9","SYN076AAXX  03031 02458 47/12 /2301 10138 20135 30087 40111 57004 72032 333 89/02;",
"02458099999","2010-08-03T06:00:00","4","59.897328","17.588581","20.72","UPPSALA, SW","FM-12","ESCM ","V020","200,1,N,0010,1","00150,1,C,N","015000,1,N,1","+0145,1","+0142,1","10120,1","24,0084,9,1",,"00,1","4,1,06,1","08,1,+00150,1,99,9",,"120,M,+0168,1","999,N,+0128,1","99999,9,10095,1","1,1,009,1,+999,9","SYN094AAXX  03061 02458 37265 /2001 10145 20142 30095 40120 51009 70032 333 10168 20128 70083 88/05;",
"02458099999","2010-08-03T09:00:00","4","59.897328","17.588581","20.72","UPPSALA, SW","FM-12","ESCM ","V020","200,1,N,0020,1","99999,9,9,N","023000,1,N,1","+0179,1","+0151,1","10113,1",,,,,"01,1,+00330,1,99,9",,,,"99999,9,10089,1","8,1,007,1,+999,9","SYN076AAXX  03091 02458 45473 /2002 10179 20151 30089 40113 58007 333 81/11 84/70;",
"02458099999","2010-08-03T12:00:00","4","59.897328","17.588581","20.72","UPPSALA, SW","FM-12","ESCM ","V020","160,1,N,0020,1","03900,1,C,N","040000,1,N,1","+0207,1","+0142,1","10103,1",,,,,"01,1,+00930,1,99,9","07,1,+03900,1,99,9",,,"99999,9,10079,1","7,1,010,1,+999,9","SYN082AAXX  03121 02458 45582 /1602 10207 20142 30079 40103 57010 333 81/31 87/63 88/68;",
"02458099999","2010-08-03T15:00:00","4","59.897328","17.588581","20.72","UPPSALA, SW","FM-12","ESCM ","V020","200,1,N,0020,1","02700,1,C,N","045000,1,N,1","+0204,1","+0135,1","10093,1",,,,,"08,1,+02700,1,99,9",,,,"99999,9,10069,1","7,1,010,1,+999,9","SYN070AAXX  03151 02458 45983 /2002 10204 20135 30069 40093 57010 333 88/59;",
"02458099999","2010-08-03T18:00:00","4","59.897328","17.588581","20.72","UPPSALA, SW","FM-12","ESCM ","V020","350,1,N,0010,1","01110,1,C,N","040000,1,N,1","+0197,1","+0140,1","10082,1",,,,,"05,1,+01110,1,99,9","07,1,+02700,1,99,9","120,M,+0215,1","999,N,+0145,1","99999,9,10058,1","7,1,011,1,+999,9","SYN094AAXX  03181 02458 35682 /3501 10197 20140 30058 40082 57011 333 10215 20145 85/37 87/59 88/61;",
"02458099999","2010-08-03T21:00:00","4","59.897328","17.588581","20.72","UPPSALA, SW","FM-12","ESCM ","V020","100,1,N,0020,1","02400,1,C,N","035000,1,N,1","+0166,1","+0156,1","10071,1",,,"81,1","8,1,03,1","06,1,+02400,1,99,9",,,,"99999,9,10046,1","8,1,012,1,+999,9","SYN076AAXX  03211 02458 47881 /1002 10166 20156 30046 40071 58012 78186 333 86/58;",
"02458099999","2010-08-04T00:00:00","4","59.897328","17.588581","20.72","UPPSALA, SW","FM-12","ESCM ","V020","999,9,C,0000,1","99999,9,9,N","006000,1,N,1","+0154,1","+0149,1","10058,1",,,"61,1","8,1,06,1","04,1,+02700,1,99,9",,,,"99999,9,10033,1","8,1,013,1,+999,9","SYN076AAXX  04001 02458 47956 /0000 10154 20149 30033 40058 58013 76186 333 84/59;",
"02458099999","2010-08-04T03:00:00","4","59.897328","17.588581","20.72","UPPSALA, SW","FM-12","ESCM ","V020","340,1,N,0010,1","99999,9,9,N","005000,1,N,1","+0147,1","+0144,1","10039,1",,,"61,1","8,1,03,1","01,1,+02700,1,99,9",,,,"99999,9,10014,1","7,1,019,1,+999,9","SYN076AAXX  04031 02458 47950 /3401 10147 20144 30014 40039 57019 76186 333 81/59;",
"02458099999","2010-08-04T06:00:00","4","59.897328","17.588581","20.72","UPPSALA, SW","FM-12","ESCM ","V020","300,1,N,0030,1","99999,9,9,N","011000,1,N,1","+0148,1","+0143,1","10031,1","12,0119,9,2","24,0114,9,2","62,1","8,1,06,1","01,1,+01410,1,99,9",,"120,M,+0197,1","999,N,+0144,1","99999,9,10006,1","8,1,008,1,+999,9","SYN106AAXX  04061 02458 07661 /3003 10148 20143 30006 40031 58008 60122 76286 333 10197 20144 60045 70115 81/47;",
"02458099999","2010-08-04T09:00:00","4","59.897328","17.588581","20.72","UPPSALA, SW","FM-12","ESCM ","V020","280,1,N,0040,1","99999,9,9,N","014000,1,N,1","+0160,1","+0152,1","10031,1",,,"61,1","6,1,03,1","04,1,+00270,1,99,9",,,,"99999,9,10007,1","5,1,001,1,+999,9","SYN082AAXX  04091 02458 47364 /2804 10160 20152 30007 40031 55001 76166 333 84/09 87/12;",
"02458099999","2010-08-04T12:00:00","4","59.897328","17.588581","20.72","UPPSALA, SW","FM-12","ESCM ","V020","230,1,N,0030,1","22000,1,C,N","020000,1,N,1","+0162,1","+0150,1","10041,1",,,"61,1","6,1,06,1","02,1,+00270,1,99,9","03,1,+00480,1,99,9",,,"99999,9,10017,1","3,1,010,1,+999,9","SYN088AAXX  04121 02458 47370 /2303 10162 20150 30017 40041 53010 76165 333 82/09 83/16 86/26;",
"02458099999","2010-08-04T15:00:00","4","59.897328","17.588581","20.72","UPPSALA, SW","FM-12","ESCM ","V020","210,1,N,0030,1","00600,1,C,N","028000,1,N,1","+0184,1","+0163,1","10050,1",,,"23,1","8,1,03,1","04,1,+00360,1,99,9","05,1,+00600,1,99,9",,,"99999,9,10026,1","2,1,009,1,+999,9","SYN088AAXX  04151 02458 47478 /2103 10184 20163 30026 40050 52009 72386 333 84/12 85/20 87/56;",
"02458099999","2010-08-04T18:00:00","4","59.897328","17.588581","20.72","UPPSALA, SW","FM-12","ESCM ","V020","190,1,N,0020,1","99999,9,9,N","050000,1,N,1","+0176,1","+0123,1","10058,1","12,0051,9,1",,"00,1","8,1,06,1",,,"120,M,+0196,1","999,N,+0148,1","99999,9,10033,1","2,1,007,1,+999,9","SYN088AAXX  04181 02458 17984 /1902 10176 20123 30033 40058 52007 60052 70086 333 10196 20148;",
"02458099999","2010-08-04T21:00:00","4","59.897328","17.588581","20.72","UPPSALA, SW","FM-12","ESCM ","V020","190,1,N,0030,1","99999,9,9,N","050000,1,N,1","+0142,1","+0122,1","10073,1",,,,,,,,,"99999,9,10048,1","2,1,015,1,+999,9","SYN060AAXX  04211 02458 45984 /1903 10142 20122 30048 40073 52015;",
"02458099999","2010-08-05T00:00:00","4","59.897328","17.588581","20.72","UPPSALA, SW","FM-12","ESCM ","V020","220,1,N,0020,1","99999,9,9,N","030000,1,N,1","+0130,1","+0118,1","10086,1",,,,,,,,,"99999,9,10062,1","3,1,013,1,+999,9","SYN060AAXX  05001 02458 45980 /2202 10130 20118 30062 40086 53013;",
"02458099999","2010-08-05T03:00:00","4","59.897328","17.588581","20.72","UPPSALA, SW","FM-12","ESCM ","V020","140,1,N,0010,1","99999,9,9,N","019000,1,N,1","+0108,1","+0103,1","10101,1",,,,,,,,,"99999,9,10076,1","3,1,015,1,+999,9","SYN060AAXX  05031 02458 45969 /1401 10108 20103 30076 40101 53015;",
"02458099999","2010-08-05T06:00:00","4","59.897328","17.588581","20.72","UPPSALA, SW","FM-12","ESCM ","V020","170,1,N,0010,1","99999,9,9,N","035000,1,N,1","+0166,1","+0143,1","10109,1","24,0053,9,1",,,,,,"120,M,+0177,1","999,N,+0106,1","99999,9,10084,1","3,1,008,1,+999,9","SYN082AAXX  05061 02458 35981 /1701 10166 20143 30084 40109 53008 333 10177 20106 70053;",
"02458099999","2010-08-05T09:00:00","4","59.897328","17.588581","20.72","UPPSALA, SW","FM-12","ESCM ","V020","150,1,N,0040,1","99999,9,9,N","040000,1,N,1","+0204,1","+0119,1","10118,1",,,,,,,,,"99999,9,10093,1","0,1,009,1,+999,9","SYN060AAXX  05091 02458 45982 /1504 10204 20119 30093 40118 50009;",
"02458099999","2010-08-05T12:00:00","4","59.897328","17.588581","20.72","UPPSALA, SW","FM-12","ESCM ","V020","160,1,N,0040,1","99999,9,9,N","050000,1,N,1","+0223,1","+0128,1","10122,1",,,,,,,,,"99999,9,10098,1","2,1,005,1,+999,9","SYN060AAXX  05121 02458 45984 /1604 10223 20128 30098 40122 52005;",
"02458099999","2010-08-05T15:00:00","4","59.897328","17.588581","20.72","UPPSALA, SW","FM-12","ESCM ","V020","160,1,N,0040,1","01800,1,C,N","050000,1,N,1","+0230,1","+0095,1","10126,1",,,,,"06,1,+01800,1,99,9",,,,"99999,9,10102,1","2,1,003,1,+999,9","SYN076AAXX  05151 02458 45784 /1604 10230 20095 30102 40126 52003 333 86/56 88/58;",
"02458099999","2010-08-05T18:00:00","4","59.897328","17.588581","20.72","UPPSALA, SW","FM-12","ESCM ","V020","190,1,N,0020,1","99999,9,9,N","050000,1,N,1","+0197,1","+0098,1","10137,1",,,,,,,"120,M,+0234,1","999,N,+0166,1","99999,9,10113,1","3,1,011,1,+999,9","SYN076AAXX  05181 02458 35984 /1902 10197 20098 30113 40137 53011 333 10234 20166;",
"02458099999","2010-08-05T21:00:00","4","59.897328","17.588581","20.72","UPPSALA, SW","FM-12","ESCM ","V020","130,1,N,0020,1","99999,9,9,N","050000,1,N,1","+0141,1","+0111,1","10153,1",,,,,,,,,"99999,9,10128,1","1,1,015,1,+999,9","SYN060AAXX  05211 02458 45984 /1302 10141 20111 30128 40153 51015;",
"02458099999","2010-08-06T00:00:00","4","59.897328","17.588581","20.72","UPPSALA, SW","FM-12","ESCM ","V020","999,9,C,0000,1","99999,9,9,N","050000,1,N,1","+0116,1","+0105,1","10164,1",,,,,,,,,"99999,9,10139,1","2,1,011,1,+999,9","SYN060AAXX  06001 02458 45984 /0000 10116 20105 30139 40164 52011;",
"02458099999","2010-08-06T03:00:00","4","59.897328","17.588581","20.72","UPPSALA, SW","FM-12","ESCM ","V020","090,1,N,0010,1","99999,9,9,N","018000,1,N,1","+0105,1","+0100,1","10171,1",,,,,,,,,"99999,9,10146,1","3,1,007,1,+999,9","SYN060AAXX  06031 02458 45968 /0901 10105 20100 30146 40171 53007;",
"02458099999","2010-08-06T06:00:00","4","59.897328","17.588581","20.72","UPPSALA, SW","FM-12","ESCM ","V020","130,1,N,0030,1","99999,9,9,N","030000,1,N,1","+0173,1","+0147,1","10180,1",,,,,"01,1,+05700,1,99,9",,"120,M,+0197,1","999,N,+0104,1","99999,9,10155,1","1,1,010,1,+999,9","SYN082AAXX  06061 02458 35980 /1303 10173 20147 30155 40180 51010 333 10197 20104 81/69;",
"02458099999","2010-08-06T09:00:00","4","59.897328","17.588581","20.72","UPPSALA, SW","FM-12","ESCM ","V020","130,1,N,0030,1","99999,9,9,N","035000,1,N,1","+0217,1","+0115,1","10185,1",,,,,,,,,"99999,9,10160,1","0,1,005,1,+999,9","SYN060AAXX  06091 02458 45981 /1303 10217 20115 30160 40185 50005;",
"02458099999","2010-08-06T12:00:00","4","59.897328","17.588581","20.72","UPPSALA, SW","FM-12","ESCM ","V020","150,1,N,0030,1","99999,9,9,N","045000,1,N,1","+0226,1","+0118,1","10181,1",,,,,"04,1,+01500,1,99,9",,,,"99999,9,10157,1","5,1,004,1,+999,9","SYN070AAXX  06121 02458 45783 /1503 10226 20118 30157 40181 55004 333 84/50;",
"02458099999","2010-08-06T15:00:00","4","59.897328","17.588581","20.72","UPPSALA, SW","FM-12","ESCM ","V020","160,1,N,0020,1","99999,9,9,N","050000,1,N,1","+0222,1","+0112,1","10181,1",,,,,"02,1,+01500,1,99,9",,,,"99999,9,10156,1","4,1,000,1,+999,9","SYN070AAXX  06151 02458 45784 /1602 10222 20112 30156 40181 54001 333 82/50;",
"02458099999","2010-08-06T18:00:00","4","59.897328","17.588581","20.72","UPPSALA, SW","FM-12","ESCM ","V020","160,1,N,0020,1","99999,9,9,N","050000,1,N,1","+0204,1","+0137,1","10186,1",,,,,,,"120,M,+0240,1","999,N,+0171,1","99999,9,10161,1","3,1,005,1,+999,9","SYN076AAXX  06181 02458 35984 /1602 10204 20137 30161 40186 53005 333 10240 20171;",
"02458099999","2010-08-06T21:00:00","4","59.897328","17.588581","20.72","UPPSALA, SW","FM-12","ESCM ","V020","130,1,N,0010,1","99999,9,9,N","050000,1,N,1","+0157,1","+0133,1","10198,1",,,,,,,,,"99999,9,10173,1","3,1,012,1,+999,9","SYN060AAXX  06211 02458 45984 /1301 10157 20133 30173 40198 53012;",
"02458099999","2010-08-07T00:00:00","4","59.897328","17.588581","20.72","UPPSALA, SW","FM-12","ESCM ","V020","999,9,C,0000,1","06300,1,C,N","030000,1,N,1","+0124,1","+0119,1","10201,1",,,,,"08,1,+06300,1,99,9",,,,"99999,9,10176,1","2,1,003,1,+999,9","SYN070AAXX  07001 02458 45980 /0000 10124 20119 30176 40201 52003 333 88/71;",
"02458099999","2010-08-07T03:00:00","4","59.897328","17.588581","20.72","UPPSALA, SW","FM-12","ESCM ","V020","999,9,C,0000,1","04200,1,C,N","009000,1,N,1","+0126,1","+0121,1","10196,1",,,"10,1","2,1,03,1","07,1,+04200,1,99,9",,,,"99999,9,10171,1","8,1,005,1,+999,9","SYN082AAXX  07031 02458 47959 /0000 10126 20121 30171 40196 58005 71010 333 87/64 88/66;",
"02458099999","2010-08-07T06:00:00","4","59.897328","17.588581","20.72","UPPSALA, SW","FM-12","ESCM ","V020","040,1,N,0010,1","99999,9,9,N","035000,1,N,1","+0163,1","+0150,1","10195,1",,,,,"01,1,+05100,1,99,9",,"120,M,+0207,1","999,N,+0119,1","99999,9,10170,1","0,1,001,1,+999,9","SYN082AAXX  07061 02458 35981 /0401 10163 20150 30170 40195 50001 333 10207 20119 81/67;",
"02458099999","2010-08-07T09:00:00","4","59.897328","17.588581","20.72","UPPSALA, SW","FM-12","ESCM ","V020","040,1,N,0030,1","99999,9,9,N","040000,1,N,1","+0207,1","+0142,1","10190,1",,,,,"02,1,+03900,1,99,9",,,,"99999,9,10166,1","8,1,005,1,+999,9","SYN076AAXX  07091 02458 45982 /0403 10207 20142 30166 40190 58005 333 82/63 83/71;",
"02458099999","2010-08-07T12:00:00","4","59.897328","17.588581","20.72","UPPSALA, SW","FM-12","ESCM ","V020","020,1,N,0020,1","99999,9,9,N","024000,1,N,1","+0197,1","+0162,1","10183,1",,,"81,1","8,1,06,1","01,1,+02100,1,99,9",,,,"99999,9,10159,1","8,1,007,1,+999,9","SYN076AAXX  07120 02458 47874 /0202 10197 20162 30159 40183 58007 78186 333 81/57;",
"02458099999","2010-08-07T15:00:00","4","59.897328","17.588581","20.72","UPPSALA, SW","FM-12","ESCM ","V020","050,1,N,0060,1","02400,1,C,N","045000,1,N,1","+0212,1","+0147,1","10173,1",,,"00,1","8,1,03,1","07,1,+02400,1,99,9",,,,"99999,9,10149,1","7,1,010,1,+999,9","SYN076AAXX  07151 02458 47983 /0506 10212 20147 30149 40173 57010 70086 333 87/58;",
"02458099999","2010-08-07T18:00:00","4","59.897328","17.588581","20.72","UPPSALA, SW","FM-12","ESCM ","V020","360,1,N,0010,1","99999,9,9,N","015000,1,N,1","+0172,1","+0154,1","10172,1","12,0010,9,1",,"61,1","8,1,06,1",,,"120,M,+0217,1","999,N,+0163,1","99999,9,10147,1","5,1,002,1,+999,9","SYN094AAXX  07181 02458 07965 /3601 10172 20154 30147 40172 55002 60012 76186 333 10217 20163 69985;",
"02458099999","2010-08-07T21:00:00","4","59.897328","17.588581","20.72","UPPSALA, SW","FM-12","ESCM ","V020","010,1,N,0020,1","01320,1,C,N","035000,1,N,1","+0159,1","+0143,1","10158,1",,,"00,1","6,1,03,1","05,1,+01320,1,99,9",,,,"99999,9,10133,1","6,1,014,1,+999,9","SYN082AAXX  07211 02458 47681 /0102 10159 20143 30133 40158 56014 70062 333 85/44 87/50;",
"02458099999","2010-08-08T00:00:00","4","59.897328","17.588581","20.72","UPPSALA, SW","FM-12","ESCM ","V020","340,1,N,0050,1","99999,9,9,N","019000,1,N,1","+0149,1","+0142,1","10124,1",,,"61,1","6,1,06,1","02,1,+03300,1,99,9",,,,"99999,9,10100,1","8,1,034,1,+999,9","SYN076AAXX  08001 02458 47969 /3405 10149 20142 30100 40124 58034 76162 333 82/61;",
"02458099999","2010-08-08T03:00:00","4","59.897328","17.588581","20.72","UPPSALA, SW","FM-12","ESCM ","V020","350,1,N,0020,1","00210,1,C,N","015000,1,N,1","+0149,1","+0143,1","10135,1",,,"23,1","8,1,03,1","07,1,+00210,1,99,9",,,,"99999,9,10111,1","1,1,011,1,+999,9","SYN082AAXX  08031 02458 47365 /3502 10149 20143 30111 40135 51011 72386 333 87/07 88/47;",
"02458099999","2010-08-08T06:00:00","4","59.897328","17.588581","20.72","UPPSALA, SW","FM-12","ESCM ","V020","360,1,N,0030,1","99999,9,9,N","029000,1,N,1","+0161,1","+0147,1","10123,1","12,0099,9,1","24,0109,9,1","00,1","8,1,06,1","03,1,+00240,1,99,9",,"120,M,+0173,1","999,N,+0147,1","99999,9,10099,1","8,1,012,1,+999,9","SYN106AAXX  08061 02458 17379 /3603 10161 20147 30099 40123 58012 60102 70086 333 10173 20147 70110 83/08 87/13;",
"02458099999","2010-08-08T09:00:00","4","59.897328","17.588581","20.72","UPPSALA, SW","FM-12","ESCM ","V020","360,1,N,0030,1","00270,1,C,N","035000,1,N,1","+0180,1","+0164,1","10115,1",,,,,"07,1,+00270,1,99,9",,,,"99999,9,10091,1","8,1,008,1,+999,9","SYN076AAXX  08091 02458 45381 /3603 10180 20164 30091 40115 58008 333 87/09 88/11;",
"02458099999","2010-08-08T12:00:00","4","59.897328","17.588581","20.72","UPPSALA, SW","FM-12","ESCM ","V020","020,1,N,0040,1","00270,1,C,N","030000,1,N,1","+0181,1","+0164,1","10113,1",,,,,"08,1,+00270,1,99,9",,,,"99999,9,10088,1","5,1,003,1,+999,9","SYN070AAXX  08121 02458 45380 /0204 10181 20164 30088 40113 55003 333 88/09;",
"02458099999","2010-08-08T15:00:00","4","59.897328","17.588581","20.72","UPPSALA, SW","FM-12","ESCM ","V020","350,1,N,0040,1","00360,1,C,N","035000,1,N,1","+0190,1","+0168,1","10103,1",,,,,"06,1,+00360,1,99,9",,,,"99999,9,10079,1","8,1,009,1,+999,9","SYN076AAXX  08151 02458 45481 /3504 10190 20168 30079 40103 58009 333 86/12 88/24;",
"02458099999","2010-08-08T18:00:00","4","59.897328","17.588581","20.72","UPPSALA, SW","FM-12","ESCM ","V020","360,1,N,0020,1","00210,1,C,N","018000,1,N,1","+0180,1","+0169,1","10096,1",,,,,"08,1,+00210,1,99,9",,"120,M,+0192,1","999,N,+0160,1","99999,9,10072,1","5,1,007,1,+999,9","SYN082AAXX  08181 02458 35368 /3602 10180 20169 30072 40096 55007 333 10192 20160 88/07;",
"02458099999","2010-08-08T21:00:00","4","59.897328","17.588581","20.72","UPPSALA, SW","FM-12","ESCM ","V020","360,1,N,0020,1","00030,1,C,N","000500,1,N,1","+0168,1","+0165,1","10091,1",,,"34,1","4,1,03,1","09,1,+00030,1,99,9",,,,"99999,9,10067,1","8,1,005,1,+999,9","SYN076AAXX  08211 02458 47/05 /3602 10168 20165 30067 40091 58005 73431 333 89/01;",
"02458099999","2010-08-09T00:00:00","4","59.897328","17.588581","20.72","UPPSALA, SW","FM-12","ESCM ","V020","360,1,N,0010,1","00150,1,C,N","007000,1,N,1","+0163,1","+0160,1","10085,1",,,"22,1","8,1,06,1","09,1,+00150,1,99,9",,,,"99999,9,10061,1","8,1,006,1,+999,9","SYN076AAXX  09001 02458 47/57 /3601 10163 20160 30061 40085 58006 72286 333 89/05;",
"02458099999","2010-08-09T03:00:00","4","59.897328","17.588581","20.72","UPPSALA, SW","FM-12","ESCM ","V020","060,1,N,0010,1","00030,1,C,N","000200,1,N,1","+0165,1","+0162,1","10080,1",,,"34,1","4,1,03,1","09,1,+00030,1,99,9",,,,"99999,9,10056,1","8,1,005,1,+999,9","SYN076AAXX  09031 02458 47/02 /0601 10165 20162 30056 40080 58005 73432 333 89/01;",
"02458099999","2010-08-09T06:00:00","4","59.897328","17.588581","20.72","UPPSALA, SW","FM-12","ESCM ","V020","060,1,N,0010,1","00120,1,C,N","005000,1,N,1","+0177,1","+0174,1","10074,1","12,0003,9,1","24,0003,9,1","20,1","4,1,06,1","09,1,+00120,1,99,9",,"120,M,+0180,1","999,N,+0163,1","99999,9,10050,1","5,1,006,1,+999,9","SYN100AAXX  09061 02458 17/50 /0601 10177 20174 30050 40074 55006 69932 72032 333 10180 20163 70003 89/04;",
"02458099999","2010-08-09T09:00:00","4","59.897328","17.588581","20.72","UPPSALA, SW","FM-12","ESCM ","V020","340,1,N,0020,1","00120,1,C,N","003800,1,N,1","+0183,1","+0180,1","10073,1",,,"52,1","6,1,03,1","09,1,+00120,1,99,9",,,,"99999,9,10049,1","8,1,001,1,+999,9","SYN076AAXX  09091 02458 47/38 /3402 10183 20180 30049 40073 58001 75265 333 89/04;",
"02458099999","2010-08-09T12:00:00","4","59.897328","17.588581","20.72","UPPSALA, SW","FM-12","ESCM ","V020","999,9,C,0000,1","00690,1,C,N","003300,1,N,1","+0167,1","+0163,1","10075,1",,,"63,1","8,1,06,1","04,1,+00480,1,99,9","06,1,+00690,1,99,9",,,"99999,9,10051,1","3,1,002,1,+999,9","SYN088AAXX  09120 02458 47433 /0000 10167 20163 30051 40075 53002 76386 333 84/16 86/23 87/31;",
"02458099999","2010-08-09T15:00:00","4","59.897328","17.588581","20.72","UPPSALA, SW","FM-12","ESCM ","V020","330,1,N,0010,1","99999,9,9,N","035000,1,N,1","+0189,1","+0180,1","10072,1",,,"00,1","6,1,03,1","02,1,+00180,1,99,9",,,,"99999,9,10047,1","5,1,003,1,+999,9","SYN082AAXX  09151 02458 47281 /3301 10189 20180 30047 40072 55003 70065 333 82/06 83/21;",
"02458099999","2010-08-09T18:00:00","4","59.897328","17.588581","20.72","UPPSALA, SW","FM-12","ESCM ","V020","150,1,N,0010,1","00390,1,C,N","025000,1,N,1","+0187,1","+0180,1","10073,1","12,0249,9,1",,"81,1","8,1,06,1","06,1,+00390,1,99,9",,"120,M,+0203,1","999,N,+0165,1","99999,9,10048,1","2,1,001,1,+999,9","SYN106AAXX  09181 02458 07475 /1501 10187 20180 30048 40073 52001 60252 78186 333 10203 20165 69915 86/13 87/61;",
"02458099999","2010-08-09T21:00:00","4","59.897328","17.588581","20.72","UPPSALA, SW","FM-12","ESCM ","V020","210,1,N,0020,1","01050,1,C,N","005000,1,N,1","+0173,1","+0170,1","10079,1",,,"10,1","8,1,03,1","03,1,+00720,1,99,9","06,1,+01050,1,99,9",,,"99999,9,10055,1","2,1,006,1,+999,9","SYN088AAXX  09211 02458 47550 /2102 10173 20170 30055 40079 52006 71082 333 83/24 86/35 87/47;",
"02458099999","2010-08-10T00:00:00","4","59.897328","17.588581","20.72","UPPSALA, SW","FM-12","ESCM ","V020","180,1,N,0020,1","00630,1,C,N","009000,1,N,1","+0167,1","+0163,1","10083,1",,,"10,1","8,1,06,1","04,1,+00120,1,99,9","06,1,+00630,1,99,9",,,"99999,9,10058,1","3,1,003,1,+999,9","SYN088AAXX  10001 02458 47259 /1802 10167 20163 30058 40083 53003 71082 333 84/04 86/21 87/56;",
"02458099999","2010-08-10T03:00:00","4","59.897328","17.588581","20.72","UPPSALA, SW","FM-12","ESCM ","V020","240,1,N,0030,1","99999,9,9,N","028000,1,N,1","+0169,1","+0163,1","10087,1",,,,,"04,1,+00180,1,99,9",,,,"99999,9,10062,1","2,1,004,1,+999,9","SYN076AAXX  10031 02458 45278 /2403 10169 20163 30062 40087 52004 333 84/06 88/08;",
"02458099999","2010-08-10T06:00:00","4","59.897328","17.588581","20.72","UPPSALA, SW","FM-12","ESCM ","V020","210,1,N,0040,1","00150,1,C,N","007000,1,N,1","+0162,1","+0157,1","10099,1","12,0005,9,1","24,0259,9,1","10,1","2,1,06,1","09,1,+00150,1,99,9",,"120,M,+0187,1","999,N,+0162,1","99999,9,10075,1","3,1,013,1,+999,9","SYN100AAXX  10061 02458 17/57 /2104 10162 20157 30075 40099 53013 69962 71010 333 10187 20162 70258 89/05;",
"02458099999","2010-08-10T09:00:00","4","59.897328","17.588581","20.72","UPPSALA, SW","FM-12","ESCM ","V020","230,1,N,0030,1","00240,1,C,N","020000,1,N,1","+0170,1","+0159,1","10113,1",,,,,"07,1,+00240,1,99,9",,,,"99999,9,10088,1","2,1,013,1,+999,9","SYN076AAXX  10091 02458 45370 /2303 10170 20159 30088 40113 52013 333 87/08 88/16;",
"02458099999","2010-08-10T12:00:00","4","59.897328","17.588581","20.72","UPPSALA, SW","FM-12","ESCM ","V020","230,1,N,0040,1","00360,1,C,N","028000,1,N,1","+0170,1","+0150,1","10121,1",,,,,"07,1,+00360,1,99,9",,,,"99999,9,10097,1","2,1,009,1,+999,9","SYN076AAXX  10121 02458 45478 /2304 10170 20150 30097 40121 52009 333 87/12 88/17;",
"02458099999","2010-08-10T15:00:00","4","59.897328","17.588581","20.72","UPPSALA, SW","FM-12","ESCM ","V020","260,1,N,0040,1","00750,1,C,N","030000,1,N,1","+0186,1","+0148,1","10124,1",,,,,"07,1,+00750,1,99,9",,,,"99999,9,10100,1","0,1,003,1,+999,9","SYN070AAXX  10151 02458 45580 /2604 10186 20148 30100 40124 50003 333 87/25;",
"02458099999","2010-08-10T18:00:00","4","59.897328","17.588581","20.72","UPPSALA, SW","FM-12","ESCM ","V020","210,1,N,0020,1","99999,9,9,N","035000,1,N,1","+0185,1","+0147,1","10123,1",,,,,,,"120,M,+0200,1","999,N,+0160,1","99999,9,10099,1","7,1,001,1,+999,9","SYN076AAXX  10181 02458 35981 /2102 10185 20147 30099 40123 57001 333 10200 20160;",
"02458099999","2010-08-10T21:00:00","4","59.897328","17.588581","20.72","UPPSALA, SW","FM-12","ESCM ","V020","200,1,N,0020,1","99999,9,9,N","019000,1,N,1","+0155,1","+0138,1","10132,1",,,,,,,,,"99999,9,10107,1","2,1,008,1,+999,9","SYN060AAXX  10211 02458 45969 /2002 10155 20138 30107 40132 52008;",
"02458099999","2010-08-11T00:00:00","4","59.897328","17.588581","20.72","UPPSALA, SW","FM-12","ESCM ","V020","220,1,N,0030,1","99999,9,9,N","020000,1,N,1","+0133,1","+0122,1","10137,1",,,,,,,,,"99999,9,10112,1","2,1,005,1,+999,9","SYN060AAXX  11001 02458 45970 /2203 10133 20122 30112 40137 52005;",
"02458099999","2010-08-11T03:00:00","4","59.897328","17.588581","20.72","UPPSALA, SW","FM-12","ESCM ","V020","140,1,N,0010,1","99999,9,9,N","015000,1,N,1","+0121,1","+0116,1","10141,1",,,,,,,,,"99999,9,10116,1","2,1,004,1,+999,9","SYN060AAXX  11031 02458 45965 /1401 10121 20116 30116 40141 52004;",
"02458099999","2010-08-11T06:00:00","4","59.897328","17.588581","20.72","UPPSALA, SW","FM-12","ESCM ","V020","200,1,N,0010,1","99999,9,9,N","026000,1,N,1","+0168,1","+0140,1","10144,1",,,,,,,"120,M,+0185,1","999,N,+0115,1","99999,9,10120,1","2,1,003,1,+999,9","SYN076AAXX  11061 02458 35976 /2001 10168 20140 30120 40144 52003 333 10185 20115;",
"02458099999","2010-08-11T09:00:00","4","59.897328","17.588581","20.72","UPPSALA, SW","FM-12","ESCM ","V020","160,1,N,0040,1","99999,9,9,N","030000,1,N,1","+0210,1","+0129,1","10145,1",,,,,,,,,"99999,9,10121,1","2,1,001,1,+999,9","SYN060AAXX  11091 02458 45980 /1604 10210 20129 30121 40145 52001;",
"02458099999","2010-08-11T12:00:00","4","59.897328","17.588581","20.72","UPPSALA, SW","FM-12","ESCM ","V020","150,1,N,0040,1","99999,9,9,N","030000,1,N,1","+0225,1","+0125,1","10142,1",,,,,,,,,"99999,9,10118,1","7,1,003,1,+999,9","SYN060AAXX  11121 02458 45980 /1504 10225 20125 30118 40142 57003;",
"02458099999","2010-08-11T15:00:00","4","59.897328","17.588581","20.72","UPPSALA, SW","FM-12","ESCM ","V020","170,1,N,0050,1","99999,9,9,N","045000,1,N,1","+0216,1","+0145,1","10145,1",,,,,"01,1,+01500,1,99,9",,,,"99999,9,10121,1","3,1,003,1,+999,9","SYN070AAXX  11151 02458 45783 /1705 10216 20145 30121 40145 53003 333 81/50;",
"02458099999","2010-08-11T18:00:00","4","59.897328","17.588581","20.72","UPPSALA, SW","FM-12","ESCM ","V020","160,1,N,0030,1","99999,9,9,N","050000,1,N,1","+0204,1","+0155,1","10147,1",,,,,"01,1,+05400,1,99,9",,"120,M,+0235,1","999,N,+0168,1","99999,9,10123,1","2,1,002,1,+999,9","SYN082AAXX  11181 02458 35984 /1603 10204 20155 30123 40147 52002 333 10235 20168 81/68;",
"02458099999","2010-08-11T21:00:00","4","59.897328","17.588581","20.72","UPPSALA, SW","FM-12","ESCM ","V020","150,1,N,0020,1","99999,9,9,N","050000,1,N,1","+0177,1","+0153,1","10155,1",,,,,"04,1,+02700,1,99,9",,,,"99999,9,10130,1","2,1,008,1,+999,9","SYN070AAXX  11211 02458 45984 /1502 10177 20153 30130 40155 52008 333 84/59;",
"02458099999","2010-08-12T00:00:00","4","59.897328","17.588581","20.72","UPPSALA, SW","FM-12","ESCM ","V020","110,1,N,0020,1","99999,9,9,N","015000,1,N,1","+0153,1","+0143,1","10162,1",,,,,,,,,"99999,9,10137,1","1,1,007,1,+999,9","SYN060AAXX  12001 02458 45965 /1102 10153 20143 30137 40162 51007;",
"02458099999","2010-08-12T03:00:00","4","59.897328","17.588581","20.72","UPPSALA, SW","FM-12","ESCM ","V020","130,1,N,0020,1","00120,1,C,N","008000,1,N,1","+0162,1","+0157,1","10165,1",,,"10,1","2,1,03,1","08,1,+00120,1,99,9",,,,"99999,9,10141,1","2,1,003,1,+999,9","SYN076AAXX  12031 02458 47258 /1302 10162 20157 30141 40165 52003 71010 333 88/04;",
"02458099999","2010-08-12T06:00:00","4","59.897328","17.588581","20.72","UPPSALA, SW","FM-12","ESCM ","V020","110,1,N,0020,1","00210,1,C,N","016000,1,N,1","+0177,1","+0163,1","10172,1",,,,,"08,1,+00210,1,99,9",,"120,M,+0204,1","999,N,+0144,1","99999,9,10147,1","2,1,007,1,+999,9","SYN082AAXX  12061 02458 35366 /1102 10177 20163 30147 40172 52007 333 10204 20144 88/07;",
"02458099999","2010-08-12T09:00:00","4","59.897328","17.588581","20.72","UPPSALA, SW","FM-12","ESCM ","V020","110,1,N,0030,1","03000,1,C,N","030000,1,N,1","+0220,1","+0166,1","10180,1",,,,,"06,1,+03000,1,99,9",,,,"99999,9,10155,1","2,1,008,1,+999,9","SYN070AAXX  12091 02458 45980 /1103 10220 20166 30155 40180 52008 333 86/60;",
"02458099999","2010-08-12T12:00:00","4","59.897328","17.588581","20.72","UPPSALA, SW","FM-12","ESCM ","V020","110,1,N,0030,1","99999,9,9,N","040000,1,N,1","+0245,1","+0144,1","10182,1",,,,,"01,1,+01260,1,99,9",,,,"99999,9,10158,1","2,1,003,1,+999,9","SYN070AAXX  12121 02458 45682 /1103 10245 20144 30158 40182 52003 333 81/42;",
"02458099999","2010-08-12T15:00:00","4","59.897328","17.588581","20.72","UPPSALA, SW","FM-12","ESCM ","V020","130,1,N,0050,1","99999,9,9,N","045000,1,N,1","+0238,1","+0170,1","10185,1",,,,,"01,1,+02400,1,99,9",,,,"99999,9,10161,1","3,1,003,1,+999,9","SYN076AAXX  12151 02458 45983 /1305 10238 20170 30161 40185 53003 333 81/58 85/62;",
"02458099999","2010-08-12T18:00:00","4","59.897328","17.588581","20.72","UPPSALA, SW","FM-12","ESCM ","V020","120,1,N,0030,1","99999,9,9,N","045000,1,N,1","+0221,1","+0172,1","10189,1",,,,,,,"120,M,+0254,1","999,N,+0177,1","99999,9,10165,1","3,1,004,1,+999,9","SYN076AAXX  12181 02458 35983 /1203 10221 20172 30165 40189 53004 333 10254 20177;",
"02458099999","2010-08-12T21:00:00","4","59.897328","17.588581","20.72","UPPSALA, SW","FM-12","ESCM ","V020","060,1,N,0020,1","99999,9,9,N","030000,1,N,1","+0176,1","+0158,1","10200,1",,,,,,,,,"99999,9,10176,1","1,1,011,1,+999,9","SYN060AAXX  12211 02458 45980 /0602 10176 20158 30176 40200 51011;",
"02458099999","2010-08-13T00:00:00","4","59.897328","17.588581","20.72","UPPSALA, SW","FM-12","ESCM ","V020","090,1,N,0020,1","00090,1,C,N","004100,1,N,1","+0176,1","+0171,1","10204,1",,,"10,1","2,1,06,1","09,1,+00090,1,99,9",,,,"99999,9,10179,1","0,1,004,1,+999,9","SYN076AAXX  13001 02458 47/41 /0902 10176 20171 30179 40204 50004 71010 333 89/03;",
"02458099999","2010-08-13T03:00:00","4","59.897328","17.588581","20.72","UPPSALA, SW","FM-12","ESCM ","V020","080,1,N,0020,1","00060,1,C,N","000900,1,N,1","+0174,1","+0171,1","10204,1",,,"34,1","4,1,03,1","09,1,+00060,1,99,9",,,,"99999,9,10179,1","4,1,000,1,+999,9","SYN076AAXX  13031 02458 47/09 /0802 10174 20171 30179 40204 54000 73432 333 89/02;",
"02458099999","2010-08-13T06:00:00","4","59.897328","17.588581","20.72","UPPSALA, SW","FM-12","ESCM ","V020","060,1,N,0020,1","99999,9,9,N","015000,1,N,1","+0194,1","+0181,1","10203,1",,,"00,1","4,1,06,1","01,1,+00150,1,99,9",,"120,M,+0222,1","999,N,+0162,1","99999,9,10178,1","4,1,000,1,+999,9","SYN088AAXX  13061 02458 37265 /0602 10194 20181 30178 40203 54001 70032 333 10222 20162 81/05;",
"02458099999","2010-08-13T09:00:00","4","59.897328","17.588581","20.72","UPPSALA, SW","FM-12","ESCM ","V020","090,1,N,0050,1","99999,9,9,N","035000,1,N,1","+0240,1","+0191,1","10206,1",,,,,,,,,"99999,9,10182,1","2,1,003,1,+999,9","SYN060AAXX  13091 02458 45981 /0905 10240 20191 30182 40206 52003;",
"02458099999","2010-08-13T12:00:00","4","59.897328","17.588581","20.72","UPPSALA, SW","FM-12","ESCM ","V020","130,1,N,0050,1","99999,9,9,N","045000,1,N,1","+0262,1","+0176,1","10203,1",,,,,"03,1,+01110,1,99,9",,,,"99999,9,10179,1","7,1,002,1,+999,9","SYN070AAXX  13121 02458 45683 /1305 10262 20176 30179 40203 57002 333 83/37;",
"02458099999","2010-08-13T18:00:00","4","59.897328","17.588581","20.72","UPPSALA, SW","FM-12","ESCM ","V020","110,1,N,0030,1","99999,9,9,N","045000,1,N,1","+0224,1","+0177,1","10200,1",,,,,,,"120,M,+0268,1","999,N,+0193,1","99999,9,10176,1","3,1,001,1,+999,9","SYN076AAXX  13181 02458 35983 /1103 10224 20177 30176 40200 53001 333 10268 20193;",
"02458099999","2010-08-13T21:00:00","4","59.897328","17.588581","20.72","UPPSALA, SW","FM-12","ESCM ","V020","080,1,N,0020,1","99999,9,9,N","029000,1,N,1","+0184,1","+0171,1","10204,1",,,,,,,,,"99999,9,10180,1","2,1,004,1,+999,9","SYN060AAXX  13211 02458 45979 /0802 10184 20171 30180 40204 52004;",
"02458099999","2010-08-14T00:00:00","4","59.897328","17.588581","20.72","UPPSALA, SW","FM-12","ESCM ","V020","999,9,C,0000,1","99999,9,9,N","001500,1,N,1","+0154,1","+0149,1","10201,1",,,"10,1","2,1,06,1",,,,,"99999,9,10176,1","7,1,003,1,+999,9","SYN066AAXX  14001 02458 47915 /0000 10154 20149 30176 40201 57003 71010;",
"02458099999","2010-08-14T03:00:00","4","59.897328","17.588581","20.72","UPPSALA, SW","FM-12","ESCM ","V020","310,1,N,0010,1","99999,9,9,N","000300,1,N,1","+0148,1","+0144,1","10197,1",,,"33,1","4,1,03,1",,,,,"99999,9,10172,1","5,1,004,1,+999,9","SYN066AAXX  14031 02458 47903 /3101 10148 20144 30172 40197 55004 73332;",
"02458099999","2010-08-14T06:00:00","4","59.897328","17.588581","20.72","UPPSALA, SW","FM-12","ESCM ","V020","030,1,N,0010,1","99999,9,9,N","013000,1,N,1","+0197,1","+0193,1","10193,1",,,"00,1","4,1,06,1",,,"120,M,+0225,1","999,N,+0146,1","99999,9,10168,1","8,1,004,1,+999,9","SYN082AAXX  14061 02458 37963 /0301 10197 20193 30168 40193 58004 70032 333 10225 20146;",
"02458099999","2010-08-14T09:00:00","4","59.897328","17.588581","20.72","UPPSALA, SW","FM-12","ESCM ","V020","999,9,C,0000,1","99999,9,9,N","040000,1,N,1","+0263,1","+0186,1","10183,1",,,,,,,,,"99999,9,10159,1","7,1,009,1,+999,9","SYN060AAXX  14091 02458 45982 /0000 10263 20186 30159 40183 57009;",
"02458099999","2010-08-14T12:00:00","4","59.897328","17.588581","20.72","UPPSALA, SW","FM-12","ESCM ","V020","999,9,C,0000,1","99999,9,9,N","040000,1,N,1","+0278,1","+0180,1","10179,1",,,,,,,,,"99999,9,10155,1","7,1,004,1,+999,9","SYN060AAXX  14121 02458 45982 /0000 10278 20180 30155 40179 57004;",
"02458099999","2010-08-14T15:00:00","4","59.897328","17.588581","20.72","UPPSALA, SW","FM-12","ESCM ","V020","230,1,N,0010,1","99999,9,9,N","035000,1,N,1","+0285,1","+0176,1","10167,1",,,,,"01,1,+01500,1,99,9",,,,"99999,9,10143,1","8,1,012,1,+999,9","SYN070AAXX  14151 02458 45781 /2301 10285 20176 30143 40167 58012 333 81/50;",
"02458099999","2010-08-14T18:00:00","4","59.897328","17.588581","20.72","UPPSALA, SW","FM-12","ESCM ","V020","220,1,N,0010,1","99999,9,9,N","023000,1,N,1","+0243,1","+0193,1","10163,1",,,,,,,"120,M,+0298,1","999,N,+0196,1","99999,9,10139,1","7,1,004,1,+999,9","SYN076AAXX  14181 02458 35973 /2201 10243 20193 30139 40163 57004 333 10298 20196;",
"02458099999","2010-08-14T21:00:00","4","59.897328","17.588581","20.72","UPPSALA, SW","FM-12","ESCM ","V020","190,1,N,0010,1","99999,9,9,N","017000,1,N,1","+0192,1","+0175,1","10174,1",,,,,,,,,"99999,9,10150,1","3,1,010,1,+999,9","SYN060AAXX  14211 02458 45967 /1901 10192 20175 30150 40174 53010;",
"02458099999","2010-08-15T00:00:00","4","59.897328","17.588581","20.72","UPPSALA, SW","FM-12","ESCM ","V020","999,9,C,0000,1","99999,9,9,N","005000,1,N,1","+0170,1","+0164,1","10173,1",,,"10,1","2,1,06,1","04,1,+04800,1,99,9",,,,"99999,9,10148,1","8,1,001,1,+999,9","SYN076AAXX  15001 02458 47950 /0000 10170 20164 30148 40173 58001 71010 333 84/66;",
"02458099999","2010-08-15T03:00:00","4","59.897328","17.588581","20.72","UPPSALA, SW","FM-12","ESCM ","V020","330,1,N,0020,1","99999,9,9,N","001900,1,N,1","+0169,1","+0165,1","10175,1",,,"31,1","4,1,03,1",,,,,"99999,9,10150,1","2,1,002,1,+999,9","SYN066AAXX  15031 02458 47919 /3302 10169 20165 30150 40175 52002 73132;",
"02458099999","2010-08-15T06:00:00","4","59.897328","17.588581","20.72","UPPSALA, SW","FM-12","ESCM ","V020","020,1,N,0060,1","00480,1,C,N","030000,1,N,1","+0194,1","+0161,1","10192,1",,,"00,1","4,1,06,1","06,1,+00480,1,99,9",,"120,M,+0243,1","999,N,+0159,1","99999,9,10168,1","3,1,018,1,+999,9","SYN094AAXX  15060 02458 37480 /0206 10194 20161 30168 40192 53018 70032 333 10243 20159 86/16 87/61;",
"02458099999","2010-08-15T09:00:00","4","59.897328","17.588581","20.72","UPPSALA, SW","FM-12","ESCM ","V020","030,1,N,0070,1","99999,9,9,N","040000,1,N,1","+0200,1","+0150,1","10205,1",,,,,"02,1,+01020,1,99,9",,,,"99999,9,10180,1","1,1,012,1,+999,9","SYN076AAXX  15091 02458 45682 /0307 10200 20150 30180 40205 51012 333 82/34 88/40;",
"02458099999","2010-08-15T12:00:00","4","59.897328","17.588581","20.72","UPPSALA, SW","FM-12","ESCM ","V020","020,1,N,0070,1","01350,1,C,N","040000,1,N,1","+0192,1","+0134,1","10211,1",,,,,"06,1,+01350,1,99,9","07,1,+01800,1,99,9",,,"99999,9,10187,1","1,1,007,1,+999,9","SYN082AAXX  15121 02458 45682 /0207 10192 20134 30187 40211 51007 333 86/45 87/56 88/71;",
"02458099999","2010-08-15T15:00:00","4","59.897328","17.588581","20.72","UPPSALA, SW","FM-12","ESCM ","V020","040,1,N,0070,1","01500,1,C,N","040000,1,N,1","+0194,1","+0107,1","10214,1",,,,,"05,1,+01500,1,99,9",,,,"99999,9,10189,1","2,1,002,1,+999,9","SYN070AAXX  15151 02458 45782 /0407 10194 20107 30189 40214 52002 333 85/50;",
"02458099999","2010-08-15T18:00:00","4","59.897328","17.588581","20.72","UPPSALA, SW","FM-12","ESCM ","V020","030,1,N,0030,1","99999,9,9,N","050000,1,N,1","+0177,1","+0102,1","10216,1",,,,,"03,1,+01500,1,99,9",,"120,M,+0213,1","999,N,+0177,1","99999,9,10191,1","1,1,003,1,+999,9","SYN088AAXX  15180 02458 35784 /0303 10177 20102 30191 40216 51003 333 10213 20177 83/50 88/57;",
"02458099999","2010-08-15T21:00:00","4","59.897328","17.588581","20.72","UPPSALA, SW","FM-12","ESCM ","V020","010,1,N,0010,1","99999,9,9,N","029000,1,N,1","+0142,1","+0111,1","10221,1",,,,,,,,,"99999,9,10196,1","2,1,005,1,+999,9","SYN060AAXX  15211 02458 45979 /0101 10142 20111 30196 40221 52005;",
"02458099999","2010-08-16T00:00:00","4","59.897328","17.588581","20.72","UPPSALA, SW","FM-12","ESCM ","V020","340,1,N,0030,1","99999,9,9,N","050000,1,N,1","+0127,1","+0112,1","10224,1",,,,,"01,1,+02100,1,99,9",,,,"99999,9,10199,1","0,1,003,1,+999,9","SYN070AAXX  16001 02458 45884 /3403 10127 20112 30199 40224 50003 333 81/57;",
"02458099999","2010-08-16T03:00:00","4","59.897328","17.588581","20.72","UPPSALA, SW","FM-12","ESCM ","V020","010,1,N,0020,1","99999,9,9,N","050000,1,N,1","+0130,1","+0119,1","10215,1",,,,,,,,,"99999,9,10190,1","8,1,009,1,+999,9","SYN060AAXX  16031 02458 45984 /0102 10130 20119 30190 40215 58009;",
"02458099999","2010-08-16T06:00:00","4","59.897328","17.588581","20.72","UPPSALA, SW","FM-12","ESCM ","V020","030,1,N,0050,1","99999,9,9,N","045000,1,N,1","+0173,1","+0127,1","10214,1",,,,,,,"120,M,+0177,1","999,N,+0113,1","99999,9,10189,1","5,1,001,1,+999,9","SYN076AAXX  16061 02458 35983 /0305 10173 20127 30189 40214 55001 333 10177 20113;",
"02458099999","2010-08-16T09:00:00","4","59.897328","17.588581","20.72","UPPSALA, SW","FM-12","ESCM ","V020","060,1,N,0060,1","99999,9,9,N","045000,1,N,1","+0206,1","+0097,1","10217,1",,,,,,,,,"99999,9,10192,1","3,1,003,1,+999,9","SYN060AAXX  16091 02458 45983 /0606 10206 20097 30192 40217 53003;",
"02458099999","2010-08-16T12:00:00","4","59.897328","17.588581","20.72","UPPSALA, SW","FM-12","ESCM ","V020","040,1,N,0070,1","99999,9,9,N","040000,1,N,1","+0214,1","+0099,1","10209,1",,,,,,,,,"99999,9,10185,1","8,1,007,1,+999,9","SYN060AAXX  16121 02458 45982 /0407 10214 20099 30185 40209 58007;",
"02458099999","2010-08-16T18:00:00","4","59.897328","17.588581","20.72","UPPSALA, SW","FM-12","ESCM ","V020","040,1,N,0050,1","99999,9,9,N","050000,1,N,1","+0169,1","+0102,1","10192,1",,,,,,,"120,M,+0221,1","999,N,+0169,1","99999,9,10167,1","8,1,011,1,+999,9","SYN076AAXX  16181 02458 35984 /0405 10169 20102 30167 40192 58011 333 10221 20169;",
"02458099999","2010-08-16T21:00:00","4","59.897328","17.588581","20.72","UPPSALA, SW","FM-12","ESCM ","V020","360,1,N,0020,1","04200,1,C,N","050000,1,N,1","+0148,1","+0116,1","10191,1",,,,,"08,1,+04200,1,99,9",,,,"99999,9,10166,1","5,1,001,1,+999,9","SYN070AAXX  16211 02458 45984 /3602 10148 20116 30166 40191 55001 333 88/64;",
"02458099999","2010-08-17T00:00:00","4","59.897328","17.588581","20.72","UPPSALA, SW","FM-12","ESCM ","V020","010,1,N,0030,1","02400,1,C,N","050000,1,N,1","+0147,1","+0129,1","10165,1",,,,,"07,1,+02400,1,99,9",,,,"99999,9,10140,1","8,1,026,1,+999,9","SYN076AAXX  17001 02458 45984 /0103 10147 20129 30140 40165 58026 333 87/58 88/64;",
"02458099999","2010-08-17T03:00:00","4","59.897328","17.588581","20.72","UPPSALA, SW","FM-12","ESCM ","V020","010,1,N,0030,1","03900,1,C,N","050000,1,N,1","+0152,1","+0134,1","10141,1",,,,,"08,1,+03900,1,99,9",,,,"99999,9,10116,1","7,1,024,1,+999,9","SYN070AAXX  17031 02458 45984 /0103 10152 20134 30116 40141 57024 333 88/63;",
"02458099999","2010-08-17T06:00:00","4","59.897328","17.588581","20.72","UPPSALA, SW","FM-12","ESCM ","V020","010,1,N,0030,1","99999,9,9,N","050000,1,N,1","+0162,1","+0143,1","10126,1","12,0010,9,1","24,0010,9,1","00,1","8,1,06,1","01,1,+02400,1,99,9",,"120,M,+0169,1","999,N,+0144,1","99999,9,10102,1","5,1,015,1,+999,9","SYN106AAXX  17061 02458 17984 /0103 10162 20143 30102 40126 55015 69992 70086 333 10169 20144 70009 81/58 85/69;",
"02458099999","2010-08-17T09:00:00","4","59.897328","17.588581","20.72","UPPSALA, SW","FM-12","ESCM ","V020","040,1,N,0050,1","00630,1,C,N","050000,1,N,1","+0188,1","+0144,1","10109,1",,,,,"08,1,+00630,1,99,9",,,,"99999,9,10085,1","6,1,017,1,+999,9","SYN070AAXX  17091 02458 45584 /0405 10188 20144 30085 40109 56017 333 88/21;",
"02458099999","2010-08-17T12:00:00","4","59.897328","17.588581","20.72","UPPSALA, SW","FM-12","ESCM ","V020","050,1,N,0070,1","99999,9,9,N","050000,1,N,1","+0201,1","+0154,1","10084,1",,,,,"03,1,+00630,1,99,9",,,,"99999,9,10060,1","8,1,025,1,+999,9","SYN076AAXX  17121 02458 45584 /0507 10201 20154 30060 40084 58025 333 83/21 85/67;",
"02458099999","2010-08-17T15:00:00","4","59.897328","17.588581","20.72","UPPSALA, SW","FM-12","ESCM ","V020","050,1,N,0060,1","99999,9,9,N","050000,1,N,1","+0188,1","+0151,1","10071,1",,,"00,1","8,1,03,1","03,1,+00630,1,99,9",,,,"99999,9,10047,1","7,1,013,1,+999,9","SYN082AAXX  17151 02458 47584 /0506 10188 20151 30047 40071 57013 70086 333 83/21 88/35;",
"02458099999","2010-08-17T18:00:00","4","59.897328","17.588581","20.72","UPPSALA, SW","FM-12","ESCM ","V020","020,1,N,0040,1","99999,9,9,N","008000,1,N,1","+0167,1","+0160,1","10053,1","12,0020,9,1",,"81,1","8,1,06,1","02,1,+00390,1,99,9",,"120,M,+0206,1","999,N,+0161,1","99999,9,10028,1","7,1,019,1,+999,9","SYN100AAXX  17180 02458 17458 /0204 10167 20160 30028 40053 57019 60022 78186 333 10206 20161 82/13 83/20;",
"02458099999","2010-08-17T21:00:00","4","59.897328","17.588581","20.72","UPPSALA, SW","FM-12","ESCM ","V020","060,1,N,0040,1","00090,1,C,N","003000,1,N,1","+0174,1","+0169,1","10042,1",,,"10,1","8,1,03,1","09,1,+00090,1,99,9",,,,"99999,9,10018,1","6,1,010,1,+999,9","SYN076AAXX  17211 02458 47/30 /0604 10174 20169 30018 40042 56010 71082 333 89/03;",
"02458099999","2010-08-18T00:00:00","4","59.897328","17.588581","20.72","UPPSALA, SW","FM-12","ESCM ","V020","090,1,N,0020,1","99999,9,9,N","004000,1,N,1","+0169,1","+0164,1","10038,1",,,"10,1","8,1,06,1","03,1,+01170,1,99,9",,,,"99999,9,10014,1","7,1,004,1,+999,9","SYN076AAXX  18001 02458 47640 /0902 10169 20164 30014 40038 57004 71082 333 83/39;",
"02458099999","2010-08-18T03:00:00","4","59.897328","17.588581","20.72","UPPSALA, SW","FM-12","ESCM ","V020","120,1,N,0020,1","00180,1,C,N","008000,1,N,1","+0170,1","+0166,1","10029,1",,,"10,1","2,1,03,1","01,1,+00120,1,99,9","07,1,+00180,1,99,9",,,"99999,9,10005,1","7,1,009,1,+999,9","SYN088AAXX  18031 02458 47258 /1202 10170 20166 30005 40029 57009 71011 333 81/04 87/06 88/08;",
"02458099999","2010-08-18T06:00:00","4","59.897328","17.588581","20.72","UPPSALA, SW","FM-12","ESCM ","V020","070,1,N,0010,1","00390,1,C,N","008000,1,N,1","+0171,1","+0166,1","10032,1","12,0000,2,1","24,0025,9,1","10,1","2,1,06,1","07,1,+00390,1,99,9",,"120,M,+0181,1","999,N,+0156,1","99999,9,10008,1","2,1,003,1,+999,9","SYN106AAXX  18061 02458 17458 /0701 10171 20166 30008 40032 52003 69922 71011 333 10181 20156 70025 87/13 88/17;",
"02458099999","2010-08-18T09:00:00","4","59.897328","17.588581","20.72","UPPSALA, SW","FM-12","ESCM ","V020","030,1,N,0030,1","00210,1,C,N","010000,1,N,1","+0168,1","+0162,1","10032,1",,,"62,1","8,1,03,1","09,1,+00210,1,99,9",,,,"99999,9,10007,1","5,1,001,1,+999,9","SYN076AAXX  18091 02458 47/60 /0303 10168 20162 30007 40032 55001 76286 333 89/07;",
"02458099999","2010-08-18T12:00:00","4","59.897328","17.588581","20.72","UPPSALA, SW","FM-12","ESCM ","V020","050,1,N,0010,1","99999,9,9,N","040000,1,N,1","+0178,1","+0161,1","10027,1",,,"23,1","8,1,06,1","02,1,+00240,1,99,9",,,,"99999,9,10003,1","8,1,005,1,+999,9","SYN076AAXX  18121 02458 47382 /0501 10178 20161 30003 40027 58005 72386 333 82/08;",
"02458099999","2010-08-18T15:00:00","4","59.897328","17.588581","20.72","UPPSALA, SW","FM-12","ESCM ","V020","040,1,N,0020,1","99999,9,9,N","026000,1,N,1","+0179,1","+0166,1","10023,1",,,"00,1","6,1,03,1","02,1,+00270,1,99,9",,,,"99999,9,09998,1","5,1,004,1,+999,9","SYN082AAXX  18151 02458 47376 /0402 10179 20166 39998 40023 55004 70064 333 82/09 83/58;",
"02458099999","2010-08-18T18:00:00","4","59.897328","17.588581","20.72","UPPSALA, SW","FM-12","ESCM ","V020","020,1,N,0050,1","00150,1,C,N","017000,1,N,1","+0160,1","+0154,1","10020,1","12,0099,9,1",,"00,1","6,1,06,1","08,1,+00150,1,99,9",,"120,M,+0181,1","999,N,+0159,1","99999,9,09995,1","7,1,003,1,+999,9","SYN094AAXX  18181 02458 17267 /0205 10160 20154 39995 40020 57003 60102 70064 333 10181 20159 88/05;",
"02458099999","2010-08-18T21:00:00","4","59.897328","17.588581","20.72","UPPSALA, SW","FM-12","ESCM ","V020","340,1,N,0020,1","99999,9,9,N","002400,1,N,1","+0155,1","+0151,1","10020,1",,,"10,1","2,1,03,1","03,1,+00150,1,99,9",,,,"99999,9,09995,1","0,1,000,1,+999,9","SYN076AAXX  18211 02458 47224 /3402 10155 20151 39995 40020 50000 71010 333 83/05;",
"02458099999","2010-08-19T00:00:00","4","59.897328","17.588581","20.72","UPPSALA, SW","FM-12","ESCM ","V020","040,1,N,0040,1","00270,1,C,N","020000,1,N,1","+0156,1","+0150,1","10017,1",,,"61,1","6,1,06,1","02,1,+00180,1,99,9","06,1,+00270,1,99,9",,,"99999,9,09992,1","7,1,003,1,+999,9","SYN088AAXX  19001 02458 47270 /0404 10156 20150 39992 40017 57003 76165 333 82/06 86/09 88/11;",
"02458099999","2010-08-19T03:00:00","4","59.897328","17.588581","20.72","UPPSALA, SW","FM-12","ESCM ","V020","020,1,N,0020,1","00180,1,C,N","011000,1,N,1","+0140,1","+0135,1","10024,1",,,"62,1","6,1,03,1","09,1,+00180,1,99,9",,,,"99999,9,10000,1","2,1,007,1,+999,9","SYN076AAXX  19031 02458 47/61 /0202 10140 20135 30000 40024 52007 76265 333 89/06;",
"02458099999","2010-08-19T06:00:00","4","59.897328","17.588581","20.72","UPPSALA, SW","FM-12","ESCM ","V020","010,1,N,0020,1","00150,1,C,N","027000,1,N,1","+0154,1","+0147,1","10028,1","12,0061,9,1","24,0150,9,1","00,1","6,1,06,1","07,1,+00150,1,99,9",,"120,M,+0160,1","999,N,+0139,1","99999,9,10004,1","2,1,004,1,+999,9","SYN106AAXX  19061 02458 17277 /0102 10154 20147 30004 40028 52004 60062 70065 333 10160 20139 70151 87/05 88/61;",
"02458099999","2010-08-19T09:00:00","4","59.897328","17.588581","20.72","UPPSALA, SW","FM-12","ESCM ","V020","350,1,N,0040,1","99999,9,9,N","050000,1,N,1","+0183,1","+0157,1","10040,1",,,,,"01,1,+00750,1,99,9",,,,"99999,9,10016,1","2,1,012,1,+999,9","SYN076AAXX  19091 02458 45584 /3504 10183 20157 30016 40040 52012 333 81/25 85/56;",
"02458099999","2010-08-19T12:00:00","4","59.897328","17.588581","20.72","UPPSALA, SW","FM-12","ESCM ","V020","350,1,N,0060,1","99999,9,9,N","045000,1,N,1","+0196,1","+0144,1","10053,1",,,,,"03,1,+00810,1,99,9",,,,"99999,9,10029,1","2,1,013,1,+999,9","SYN076AAXX  19121 02458 45583 /3506 10196 20144 30029 40053 52013 333 83/27 87/50;",
"02458099999","2010-08-19T15:00:00","4","59.897328","17.588581","20.72","UPPSALA, SW","FM-12","ESCM ","V020","010,1,N,0050,1","00840,1,C,N","050000,1,N,1","+0174,1","+0129,1","10073,1",,,,,"05,1,+00840,1,99,9",,,,"99999,9,10048,1","2,1,019,1,+999,9","SYN070AAXX  19151 02458 45584 /0105 10174 20129 30048 40073 52019 333 85/28;",
"02458099999","2010-08-19T18:00:00","4","59.897328","17.588581","20.72","UPPSALA, SW","FM-12","ESCM ","V020","360,1,N,0020,1","99999,9,9,N","050000,1,N,1","+0148,1","+0107,1","10094,1",,,,,,,"120,M,+0198,1","999,N,+0148,1","99999,9,10069,1","3,1,021,1,+999,9","SYN076AAXX  19181 02458 35984 /3602 10148 20107 30069 40094 53021 333 10198 20148;",
"02458099999","2010-08-19T21:00:00","4","59.897328","17.588581","20.72","UPPSALA, SW","FM-12","ESCM ","V020","340,1,N,0020,1","99999,9,9,N","050000,1,N,1","+0109,1","+0094,1","10116,1",,,,,,,,,"99999,9,10091,1","2,1,022,1,+999,9","SYN060AAXX  19211 02458 45984 /3402 10109 20094 30091 40116 52022;",
"02458099999","2010-08-20T00:00:00","4","59.897328","17.588581","20.72","UPPSALA, SW","FM-12","ESCM ","V020","300,1,N,0010,1","99999,9,9,N","045000,1,N,1","+0081,1","+0077,1","10125,1",,,,,,,,,"99999,9,10100,1","2,1,009,1,+999,9","SYN060AAXX  20001 02458 45983 /3001 10081 20077 30100 40125 52009;",
"02458099999","2010-08-20T03:00:00","4","59.897328","17.588581","20.72","UPPSALA, SW","FM-12","ESCM ","V020","240,1,N,0010,1","99999,9,9,N","024000,1,N,1","+0067,1","+0063,1","10134,1",,,,,,,,,"99999,9,10109,1","3,1,009,1,+999,9","SYN060AAXX  20031 02458 45974 /2401 10067 20063 30109 40134 53009;",
"02458099999","2010-08-20T06:00:00","4","59.897328","17.588581","20.72","UPPSALA, SW","FM-12","ESCM ","V020","999,9,C,0000,1","99999,9,9,N","035000,1,N,1","+0125,1","+0099,1","10142,1",,,,,,,"120,M,+0148,1","999,N,+0066,1","99999,9,10117,1","1,1,008,1,+999,9","SYN076AAXX  20061 02458 35981 /0000 10125 20099 30117 40142 51008 333 10148 20066;",
"02458099999","2010-08-20T09:00:00","4","59.897328","17.588581","20.72","UPPSALA, SW","FM-12","ESCM ","V020","210,1,N,0020,1","01380,1,C,N","050000,1,N,1","+0153,1","+0102,1","10150,1",,,,,"06,1,+01380,1,99,9",,,,"99999,9,10125,1","2,1,008,1,+999,9","SYN076AAXX  20091 02458 45684 /2102 10153 20102 30125 40150 52008 333 86/46 88/56;",
"02458099999","2010-08-20T12:00:00","4","59.897328","17.588581","20.72","UPPSALA, SW","FM-12","ESCM ","V020","200,1,N,0030,1","00870,1,C,N","050000,1,N,1","+0181,1","+0131,1","10149,1",,,,,"06,1,+00870,1,99,9",,,,"99999,9,10124,1","8,1,001,1,+999,9","SYN076AAXX  20121 02458 45584 /2003 10181 20131 30124 40149 58001 333 86/29 88/42;",
"02458099999","2010-08-20T15:00:00","4","59.897328","17.588581","20.72","UPPSALA, SW","FM-12","ESCM ","V020","230,1,N,0030,1","01200,1,C,N","050000,1,N,1","+0172,1","+0140,1","10148,1",,,,,"08,1,+01200,1,99,9",,,,"99999,9,10124,1","0,1,001,1,+999,9","SYN070AAXX  20151 02458 45684 /2303 10172 20140 30124 40148 50001 333 88/40;",
"02458099999","2010-08-20T18:00:00","4","59.897328","17.588581","20.72","UPPSALA, SW","FM-12","ESCM ","V020","200,1,N,0020,1","99999,9,9,N","050000,1,N,1","+0163,1","+0118,1","10146,1",,,,,,,"120,M,+0194,1","999,N,+0123,1","99999,9,10122,1","7,1,002,1,+999,9","SYN076AAXX  20181 02458 35984 /2002 10163 20118 30122 40146 57002 333 10194 20123;",
"02458099999","2010-08-20T21:00:00","4","59.897328","17.588581","20.72","UPPSALA, SW","FM-12","ESCM ","V020","220,1,N,0030,1","04500,1,C,N","050000,1,N,1","+0144,1","+0110,1","10150,1",,,,,"07,1,+04500,1,99,9",,,,"99999,9,10126,1","2,1,004,1,+999,9","SYN070AAXX  20211 02458 45984 /2203 10144 20110 30126 40150 52004 333 87/65;",
"02458099999","2010-08-21T00:00:00","4","59.897328","17.588581","20.72","UPPSALA, SW","FM-12","ESCM ","V020","220,1,N,0030,1","99999,9,9,N","040000,1,N,1","+0128,1","+0107,1","10151,1",,,,,,,,,"99999,9,10126,1","4,1,000,1,+999,9","SYN060AAXX  21001 02458 45982 /2203 10128 20107 30126 40151 54000;",
"02458099999","2010-08-21T03:00:00","4","59.897328","17.588581","20.72","UPPSALA, SW","FM-12","ESCM ","V020","180,1,N,0020,1","02400,1,C,N","045000,1,N,1","+0138,1","+0121,1","10138,1",,,,,"07,1,+02400,1,99,9",,,,"99999,9,10113,1","8,1,013,1,+999,9","SYN076AAXX  21031 02458 45883 /1802 10138 20121 30113 40138 58013 333 87/58 88/60;",
"02458099999","2010-08-21T06:00:00","4","59.897328","17.588581","20.72","UPPSALA, SW","FM-12","ESCM ","V020","210,1,N,0040,1","99999,9,9,N","040000,1,N,1","+0160,1","+0137,1","10130,1",,,,,"04,1,+00390,1,99,9",,"120,M,+0165,1","999,N,+0128,1","99999,9,10106,1","7,1,007,1,+999,9","SYN088AAXX  21061 02458 35482 /2104 10160 20137 30106 40130 57007 333 10165 20128 84/13 88/20;",
"02458099999","2010-08-21T09:00:00","4","59.897328","17.588581","20.72","UPPSALA, SW","FM-12","ESCM ","V020","210,1,N,0040,1","00420,1,C,N","045000,1,N,1","+0182,1","+0155,1","10123,1",,,,,"06,1,+00420,1,99,9","07,1,+00510,1,99,9",,,"99999,9,10098,1","7,1,008,1,+999,9","SYN082AAXX  21091 02458 45483 /2104 10182 20155 30098 40123 57008 333 86/14 87/17 88/22;",
"02458099999","2010-08-21T12:00:00","4","59.897328","17.588581","20.72","UPPSALA, SW","FM-12","ESCM ","V020","210,1,N,0050,1","00480,1,C,N","050000,1,N,1","+0193,1","+0167,1","10107,1",,,"81,1","8,1,06,1","07,1,+00480,1,99,9",,,,"99999,9,10083,1","6,1,015,1,+999,9","SYN082AAXX  21121 02458 47484 /2105 10193 20167 30083 40107 56015 78186 333 87/16 88/21;",
"02458099999","2010-08-21T15:00:00","4","59.897328","17.588581","20.72","UPPSALA, SW","FM-12","ESCM ","V020","220,1,N,0020,1","99999,9,9,N","050000,1,N,1","+0207,1","+0184,1","10092,1",,,"22,1","8,1,03,1","04,1,+00750,1,99,9",,,,"99999,9,10068,1","8,1,016,1,+999,9","SYN082AAXX  21151 02458 47584 /2202 10207 20184 30068 40092 58016 72285 333 84/25 88/39;",
"02458099999","2010-08-21T18:00:00","4","59.897328","17.588581","20.72","UPPSALA, SW","FM-12","ESCM ","V020","230,1,N,0060,1","99999,9,9,N","050000,1,N,1","+0189,1","+0145,1","10080,1","12,0003,9,1",,"00,1","8,1,06,1",,,"120,M,+0207,1","999,N,+0160,1","99999,9,10056,1","7,1,012,1,+999,9","SYN088AAXX  21181 02458 17984 /2306 10189 20145 30056 40080 57012 69932 70086 333 10207 20160;",
"02458099999","2010-08-21T21:00:00","4","59.897328","17.588581","20.72","UPPSALA, SW","FM-12","ESCM ","V020","220,1,N,0060,1","99999,9,9,N","035000,1,N,1","+0162,1","+0125,1","10080,1",,,,,,,,,"99999,9,10056,1","4,1,000,1,+999,9","SYN060AAXX  21211 02458 45981 /2206 10162 20125 30056 40080 54000;",
"02458099999","2010-08-22T00:00:00","4","59.897328","17.588581","20.72","UPPSALA, SW","FM-12","ESCM ","V020","220,1,N,0050,1","99999,9,9,N","035000,1,N,1","+0142,1","+0118,1","10071,1",,,,,,,,,"99999,9,10046,1","8,1,009,1,+999,9","SYN060AAXX  22001 02458 45981 /2205 10142 20118 30046 40071 58009;",
"02458099999","2010-08-22T03:00:00","4","59.897328","17.588581","20.72","UPPSALA, SW","FM-12","ESCM ","V020","220,1,N,0060,1","99999,9,9,N","035000,1,N,1","+0134,1","+0115,1","10060,1",,,,,,,,,"99999,9,10036,1","8,1,011,1,+999,9","SYN060AAXX  22031 02458 45981 /2206 10134 20115 30036 40060 58011;",
"02458099999","2010-08-22T06:00:00","4","59.897328","17.588581","20.72","UPPSALA, SW","FM-12","ESCM ","V020","240,1,N,0060,1","99999,9,9,N","035000,1,N,1","+0153,1","+0125,1","10056,1","24,0003,9,1",,,,,,"120,M,+0189,1","999,N,+0132,1","99999,9,10031,1","5,1,004,1,+999,9","SYN082AAXX  22061 02458 35981 /2406 10153 20125 30031 40056 55004 333 10189 20132 70003;",
"02458099999","2010-08-22T09:00:00","4","59.897328","17.588581","20.72","UPPSALA, SW","FM-12","ESCM ","V020","240,1,N,0060,1","99999,9,9,N","035000,1,N,1","+0179,1","+0121,1","10044,1",,,,,"02,1,+00900,1,99,9",,,,"99999,9,10020,1","7,1,011,1,+999,9","SYN076AAXX  22091 02458 45581 /2406 10179 20121 30020 40044 57011 333 82/30 85/65;",
"02458099999","2010-08-22T12:00:00","4","59.897328","17.588581","20.72","UPPSALA, SW","FM-12","ESCM ","V020","240,1,N,0070,1","99999,9,9,N","035000,1,N,1","+0198,1","+0113,1","10032,1",,,,,"02,1,+01800,1,99,9",,,,"99999,9,10008,1","7,1,012,1,+999,9","SYN070AAXX  22121 02458 45781 /2407 10198 20113 30008 40032 57012 333 82/56;",
"02458099999","2010-08-22T15:00:00","4","59.897328","17.588581","20.72","UPPSALA, SW","FM-12","ESCM ","V020","240,1,N,0060,1","99999,9,9,N","013000,1,N,1","+0198,1","+0112,1","10019,1",,,,,"03,1,+01350,1,99,9",,,,"99999,9,09995,1","7,1,013,1,+999,9","SYN070AAXX  22151 02458 45663 /2406 10198 20112 39995 40019 57013 333 83/45;",
"02458099999","2010-08-22T18:00:00","4","59.897328","17.588581","20.72","UPPSALA, SW","FM-12","ESCM ","V020","230,1,N,0040,1","99999,9,9,N","045000,1,N,1","+0169,1","+0115,1","10012,1",,,,,"02,1,+07200,1,99,9",,"120,M,+0210,1","999,N,+0153,1","99999,9,09988,1","7,1,006,1,+999,9","SYN082AAXX  22181 02458 35983 /2304 10169 20115 39988 40012 57006 333 10210 20153 82/74;",
"02458099999","2010-08-22T21:00:00","4","59.897328","17.588581","20.72","UPPSALA, SW","FM-12","ESCM ","V020","230,1,N,0040,1","99999,9,9,N","050000,1,N,1","+0143,1","+0110,1","10012,1",,,,,"04,1,+05700,1,99,9",,,,"99999,9,09988,1","4,1,000,1,+999,9","SYN070AAXX  22211 02458 45984 /2304 10143 20110 39988 40012 54000 333 84/69;",
"02458099999","2010-08-23T00:00:00","4","59.897328","17.588581","20.72","UPPSALA, SW","FM-12","ESCM ","V020","240,1,N,0060,1","99999,9,9,N","035000,1,N,1","+0144,1","+0121,1","10011,1",,,"81,1","8,1,06,1","02,1,+01500,1,99,9",,,,"99999,9,09986,1","7,1,001,1,+999,9","SYN082AAXX  23001 02458 47781 /2406 10144 20121 39986 40011 57001 78186 333 82/50 87/57;",
"02458099999","2010-08-23T03:00:00","4","59.897328","17.588581","20.72","UPPSALA, SW","FM-12","ESCM ","V020","230,1,N,0040,1","99999,9,9,N","028000,1,N,1","+0128,1","+0118,1","10010,1",,,"00,1","8,1,03,1",,,,,"99999,9,09985,1","5,1,001,1,+999,9","SYN066AAXX  23031 02458 47978 /2304 10128 20118 39985 40010 55001 70082;",
"02458099999","2010-08-23T06:00:00","4","59.897328","17.588581","20.72","UPPSALA, SW","FM-12","ESCM ","V020","250,1,N,0030,1","99999,9,9,N","035000,1,N,1","+0139,1","+0120,1","10014,1","12,0000,2,1","24,0000,2,1","00,1","8,1,06,1",,,"120,M,+0169,1","999,N,+0120,1","99999,9,09989,1","2,1,004,1,+999,9","SYN094AAXX  23061 02458 17981 /2503 10139 20120 39989 40014 52004 69912 70082 333 10169 20120 70001;",
"02458099999","2010-08-23T09:00:00","4","59.897328","17.588581","20.72","UPPSALA, SW","FM-12","ESCM ","V020","220,1,N,0020,1","99999,9,9,N","040000,1,N,1","+0184,1","+0127,1","10018,1",,,,,,,,,"99999,9,09994,1","2,1,004,1,+999,9","SYN060AAXX  23091 02458 45982 /2202 10184 20127 39994 40018 52004;",
"02458099999","2010-08-23T12:00:00","4","59.897328","17.588581","20.72","UPPSALA, SW","FM-12","ESCM ","V020","230,1,N,0030,1","99999,9,9,N","040000,1,N,1","+0219,1","+0110,1","10015,1",,,,,,,,,"99999,9,09992,1","7,1,002,1,+999,9","SYN060AAXX  23120 02458 45982 /2303 10219 20110 39992 40015 57002;",
"02458099999","2010-08-23T15:00:00","4","59.897328","17.588581","20.72","UPPSALA, SW","FM-12","ESCM ","V020","200,1,N,0030,1","01500,1,C,N","040000,1,N,1","+0216,1","+0105,1","10008,1",,,,,"06,1,+01500,1,99,9",,,,"99999,9,09984,1","7,1,007,1,+999,9","SYN070AAXX  23151 02458 45782 /2003 10216 20105 39984 40008 57007 333 86/50;",
"02458099999","2010-08-23T18:00:00","4","59.897328","17.588581","20.72","UPPSALA, SW","FM-12","ESCM ","V020","080,1,N,0020,1","99999,9,9,N","050000,1,N,1","+0163,1","+0113,1","10000,1",,,,,,,"120,M,+0219,1","999,N,+0139,1","99999,9,09976,1","7,1,009,1,+999,9","SYN076AAXX  23181 02458 35984 /0802 10163 20113 39976 40000 57009 333 10219 20139;",
"02458099999","2010-08-23T21:00:00","4","59.897328","17.588581","20.72","UPPSALA, SW","FM-12","ESCM ","V020","100,1,N,0030,1","99999,9,9,N","045000,1,N,1","+0141,1","+0131,1","09989,1",,,,,,,,,"99999,9,09965,1","8,1,011,1,+999,9","SYN060AAXX  23211 02458 45983 /1003 10141 20131 39965 49989 58011;",
"02458099999","2010-08-24T00:00:00","4","59.897328","17.588581","20.72","UPPSALA, SW","FM-12","ESCM ","V020","090,1,N,0040,1","99999,9,9,N","030000,1,N,1","+0141,1","+0133,1","09968,1",,,,,,,,,"99999,9,09944,1","8,1,021,1,+999,9","SYN060AAXX  24001 02458 45980 /0904 10141 20133 39944 49968 58021;",
"02458099999","2010-08-24T03:00:00","4","59.897328","17.588581","20.72","UPPSALA, SW","FM-12","ESCM ","V020","080,1,N,0040,1","02100,1,C,N","040000,1,N,1","+0145,1","+0137,1","09940,1",,,"23,1","8,1,03,1","08,1,+02100,1,99,9",,,,"99999,9,09916,1","8,1,028,1,+999,9","SYN076AAXX  24031 02458 47882 /0804 10145 20137 39916 49940 58028 72386 333 88/57;",
"02458099999","2010-08-24T06:00:00","4","59.897328","17.588581","20.72","UPPSALA, SW","FM-12","ESCM ","V020","090,1,N,0050,1","00900,1,C,N","011000,1,N,1","+0139,1","+0126,1","09917,1","12,0010,9,1","24,0013,9,1","81,1","8,1,06,1","01,1,+00420,1,99,9","05,1,+00900,1,99,9","120,M,+0167,1","999,N,+0135,1","99999,9,09892,1","6,1,024,1,+999,9","SYN118AAXX  24061 02458 07461 /0905 10139 20126 39892 49917 56024 60012 78186 333 10167 20135 69915 70012 81/14 85/30 87/36;",
"02458099999","2010-08-24T09:00:00","4","59.897328","17.588581","20.72","UPPSALA, SW","FM-12","ESCM ","V020","110,1,N,0040,1","00270,1,C,N","012000,1,N,1","+0145,1","+0137,1","09910,1",,,"81,1","8,1,03,1","08,1,+00270,1,99,9",,,,"99999,9,09885,1","5,1,007,1,+999,9","SYN076AAXX  24091 02458 47362 /1104 10145 20137 39885 49910 55007 78186 333 88/09;",
"02458099999","2010-08-24T12:00:00","4","59.897328","17.588581","20.72","UPPSALA, SW","FM-12","ESCM ","V020","270,1,N,0040,1","99999,9,9,N","040000,1,N,1","+0171,1","+0146,1","09907,1",,,"00,1","8,1,06,1","04,1,+00660,1,99,9",,,,"99999,9,09883,1","7,1,002,1,+999,9","SYN082AAXX  24121 02458 47582 /2704 10171 20146 39883 49907 57002 70086 333 84/22 85/31;",
"02458099999","2010-08-24T15:00:00","4","59.897328","17.588581","20.72","UPPSALA, SW","FM-12","ESCM ","V020","220,1,N,0060,1","99999,9,9,N","045000,1,N,1","+0159,1","+0125,1","09917,1",,,"00,1","8,1,03,1","02,1,+00690,1,99,9",,,,"99999,9,09893,1","3,1,010,1,+999,9","SYN082AAXX  24151 02458 47583 /2206 10159 20125 39893 49917 53010 70086 333 82/23 83/29;",
"02458099999","2010-08-24T18:00:00","4","59.897328","17.588581","20.72","UPPSALA, SW","FM-12","ESCM ","V020","190,1,N,0040,1","99999,9,9,N","050000,1,N,1","+0152,1","+0115,1","09921,1","12,0010,9,1",,"00,1","8,1,06,1","02,1,+01110,1,99,9",,"120,M,+0199,1","999,N,+0138,1","99999,9,09897,1","3,1,003,1,+999,9","SYN100AAXX  24181 02458 17684 /1904 10152 20115 39897 49921 53003 60012 70086 333 10199 20138 82/37 84/50;",
"02458099999","2010-08-24T21:00:00","4","59.897328","17.588581","20.72","UPPSALA, SW","FM-12","ESCM ","V020","170,1,N,0040,1","99999,9,9,N","050000,1,N,1","+0129,1","+0103,1","09923,1",,,"00,1","8,1,03,1",,,,,"99999,9,09899,1","0,1,002,1,+999,9","SYN066AAXX  24211 02458 47984 /1704 10129 20103 39899 49923 50002 70082;",
"02458099999","2010-08-25T00:00:00","4","59.897328","17.588581","20.72","UPPSALA, SW","FM-12","ESCM ","V020","180,1,N,0040,1","99999,9,9,N","050000,1,N,1","+0125,1","+0104,1","09922,1",,,"00,1","8,1,06,1",,,,,"99999,9,09898,1","8,1,001,1,+999,9","SYN066AAXX  25001 02458 47984 /1804 10125 20104 39898 49922 58001 70082;",
"02458099999","2010-08-25T03:00:00","4","59.897328","17.588581","20.72","UPPSALA, SW","FM-12","ESCM ","V020","180,1,N,0040,1","99999,9,9,N","040000,1,N,1","+0124,1","+0098,1","09916,1",,,,,,,,,"99999,9,09891,1","6,1,006,1,+999,9","SYN060AAXX  25031 02458 45982 /1804 10124 20098 39891 49916 56006;",
"02458099999","2010-08-25T06:00:00","4","59.897328","17.588581","20.72","UPPSALA, SW","FM-12","ESCM ","V020","170,1,N,0050,1","99999,9,9,N","035000,1,N,1","+0141,1","+0105,1","09907,1","12,0000,9,1","24,0015,9,1",,,"01,1,+00690,1,99,9",,"120,M,+0152,1","999,N,+0117,1","99999,9,09882,1","8,1,009,1,+999,9","SYN100AAXX  25060 02458 15581 /1705 10141 20105 39882 49907 58009 69912 333 10152 20117 70014 81/23 83/57;","Q01  00002PRCP12"
"02458099999","2010-08-25T09:00:00","4","59.897328","17.588581","20.72","UPPSALA, SW","FM-12","ESCM ","V020","180,1,N,0020,1","99999,9,9,N","030000,1,N,1","+0142,1","+0107,1","09908,1",,,"81,1","8,1,03,1","04,1,+00840,1,99,9",,,,"99999,9,09884,1","3,1,002,1,+999,9","SYN082AAXX  25091 02458 47580 /1802 10142 20107 39884 49908 53002 78186 333 84/28 85/42;",
"02458099999","2010-08-25T12:00:00","4","59.897328","17.588581","20.72","UPPSALA, SW","FM-12","ESCM ","V020","070,1,N,0030,1","99999,9,9,N","035000,1,N,1","+0140,1","+0119,1","09913,1",,,"51,1","8,1,06,1","04,1,+00330,1,99,9",,,,"99999,9,09888,1","2,1,004,1,+999,9","SYN082AAXX  25121 02458 47481 /0703 10140 20119 39888 49913 52004 75186 333 84/11 85/28;",
"02458099999","2010-08-25T15:00:00","4","59.897328","17.588581","20.72","UPPSALA, SW","FM-12","ESCM ","V020","050,1,N,0020,1","99999,9,9,N","045000,1,N,1","+0153,1","+0114,1","09925,1",,,"23,1","8,1,03,1","02,1,+00630,1,99,9",,,,"99999,9,09900,1","3,1,012,1,+999,9","SYN082AAXX  25151 02458 47583 /0502 10153 20114 39900 49925 53012 72386 333 82/21 88/56;",
"02458099999","2010-08-25T18:00:00","4","59.897328","17.588581","20.72","UPPSALA, SW","FM-12","ESCM ","V020","300,1,N,0020,1","99999,9,9,N","050000,1,N,1","+0121,1","+0105,1","09945,1","12,0020,9,1",,"00,1","8,1,06,1",,,"120,M,+0160,1","999,N,+0120,1","99999,9,09920,1","3,1,020,1,+999,9","SYN088AAXX  25181 02458 17984 /3002 10121 20105 39920 49945 53020 60022 70086 333 10160 20120;",
"02458099999","2010-08-25T21:00:00","4","59.897328","17.588581","20.72","UPPSALA, SW","FM-12","ESCM ","V020","300,1,N,0020,1","99999,9,9,N","045000,1,N,1","+0098,1","+0093,1","09966,1",,,,,,,,,"99999,9,09941,1","2,1,021,1,+999,9","SYN060AAXX  25211 02458 45983 /3002 10098 20093 39941 49966 52021;",
"02458099999","2010-08-26T00:00:00","4","59.897328","17.588581","20.72","UPPSALA, SW","FM-12","ESCM ","V020","300,1,N,0040,1","99999,9,9,N","021000,1,N,1","+0100,1","+0095,1","09984,1",,,,,"01,1,+00600,1,99,9",,,,"99999,9,09960,1","1,1,018,1,+999,9","SYN070AAXX  26001 02458 45571 /3004 10100 20095 39960 49984 51018 333 81/20;",
"02458099999","2010-08-26T03:00:00","4","59.897328","17.588581","20.72","UPPSALA, SW","FM-12","ESCM ","V020","310,1,N,0030,1","00270,1,C,N","050000,1,N,1","+0114,1","+0108,1","09995,1",,,,,"05,1,+00270,1,99,9",,,,"99999,9,09971,1","1,1,011,1,+999,9","SYN076AAXX  26031 02458 45384 /3103 10114 20108 39971 49995 51011 333 85/09 88/26;",
"02458099999","2010-08-26T06:00:00","4","59.897328","17.588581","20.72","UPPSALA, SW","FM-12","ESCM ","V020","330,1,N,0040,1","00480,1,C,N","050000,1,N,1","+0126,1","+0113,1","10008,1","24,0015,9,1",,,,"04,1,+00330,1,99,9","05,1,+00480,1,99,9","120,M,+0127,1","999,N,+0089,1","99999,9,09984,1","2,1,013,1,+999,9","SYN100AAXX  26061 02458 35484 /3304 10126 20113 39984 40008 52013 333 10127 20089 70015 84/11 85/16 88/58;",
"02458099999","2010-08-26T09:00:00","4","59.897328","17.588581","20.72","UPPSALA, SW","FM-12","ESCM ","V020","350,1,N,0030,1","00300,1,C,N","025000,1,N,1","+0126,1","+0110,1","10022,1",,,,,"07,1,+00300,1,99,9",,,,"99999,9,09998,1","2,1,014,1,+999,9","SYN076AAXX  26091 02458 45475 /3503 10126 20110 39998 40022 52014 333 87/10 88/14;",
"02458099999","2010-08-26T12:00:00","4","59.897328","17.588581","20.72","UPPSALA, SW","FM-12","ESCM ","V020","350,1,N,0040,1","00720,1,C,N","050000,1,N,1","+0134,1","+0106,1","10033,1",,,,,"03,1,+00480,1,99,9","05,1,+00720,1,99,9",,,"99999,9,10008,1","2,1,010,1,+999,9","SYN082AAXX  26121 02458 45484 /3504 10134 20106 30008 40033 52010 333 83/16 85/24 88/30;",
"02458099999","2010-08-26T15:00:00","4","59.897328","17.588581","20.72","UPPSALA, SW","FM-12","ESCM ","V020","360,1,N,0030,1","01260,1,C,N","050000,1,N,1","+0127,1","+0104,1","10040,1",,,"81,1","8,1,03,1","08,1,+01260,1,99,9",,,,"99999,9,10016,1","2,1,008,1,+999,9","SYN076AAXX  26151 02458 47684 /3603 10127 20104 30016 40040 52008 78186 333 88/42;",
"02458099999","2010-08-26T18:00:00","4","59.897328","17.588581","20.72","UPPSALA, SW","FM-12","ESCM ","V020","360,1,N,0020,1","99999,9,9,N","050000,1,N,1","+0117,1","+0098,1","10048,1","12,0000,2,1",,"00,1","8,1,06,1","01,1,+00420,1,99,9",,"120,M,+0139,1","999,N,+0116,1","99999,9,10023,1","2,1,008,1,+999,9","SYN100AAXX  26180 02458 17484 /3602 10117 20098 30023 40048 52008 69912 70082 333 10139 20116 81/14 88/50;",
"02458099999","2010-08-26T21:00:00","4","59.897328","17.588581","20.72","UPPSALA, SW","FM-12","ESCM ","V020","350,1,N,0020,1","99999,9,9,N","050000,1,N,1","+0106,1","+0095,1","10053,1",,,,,,,,,"99999,9,10028,1","2,1,005,1,+999,9","SYN060AAXX  26211 02458 45/84 /3502 10106 20095 30028 40053 52005;",
"02458099999","2010-08-27T00:00:00","4","59.897328","17.588581","20.72","UPPSALA, SW","FM-12","ESCM ","V020","310,1,N,0020,1","99999,9,9,N","050000,1,N,1","+0083,1","+0078,1","10058,1",,,,,,,,,"99999,9,10033,1","2,1,005,1,+999,9","SYN060AAXX  27001 02458 45984 /3102 10083 20078 30033 40058 52005;",
"02458099999","2010-08-27T03:00:00","4","59.897328","17.588581","20.72","UPPSALA, SW","FM-12","ESCM ","V020","310,1,N,0010,1","00060,1,C,N","000800,1,N,1","+0085,1","+0082,1","10059,1",,,"34,1","4,1,03,1","09,1,+00060,1,99,9",,,,"99999,9,10034,1","2,1,001,1,+999,9","SYN076AAXX  27031 02458 47/08 /3101 10085 20082 30034 40059 52001 73431 333 89/02;",
"02458099999","2010-08-27T06:00:00","4","59.897328","17.588581","20.72","UPPSALA, SW","FM-12","ESCM ","V020","360,1,N,0020,1","99999,9,9,N","045000,1,N,1","+0112,1","+0097,1","10062,1","24,0000,2,1",,"00,1","4,1,06,1",,,"120,M,+0117,1","999,N,+0072,1","99999,9,10037,1","2,1,003,1,+999,9","SYN088AAXX  27060 02458 37983 /3602 10112 20097 30037 40062 52003 70032 333 10117 20072 70001;",
"02458099999","2010-08-27T09:00:00","4","59.897328","17.588581","20.72","UPPSALA, SW","FM-12","ESCM ","V020","070,1,N,0040,1","99999,9,9,N","050000,1,N,1","+0137,1","+0076,1","10067,1",,,,,"01,1,+01020,1,99,9",,,,"99999,9,10042,1","0,1,006,1,+999,9","SYN070AAXX  27091 02458 45684 /0704 10137 20076 30042 40067 50006 333 81/34;",
"02458099999","2010-08-27T12:00:00","4","59.897328","17.588581","20.72","UPPSALA, SW","FM-12","ESCM ","V020","030,1,N,0050,1","01500,1,C,N","045000,1,N,1","+0145,1","+0054,1","10068,1",,,,,"06,1,+01500,1,99,9",,,,"99999,9,10043,1","2,1,001,1,+999,9","SYN070AAXX  27121 02458 45783 /0305 10145 20054 30043 40068 52001 333 86/50;",
"02458099999","2010-08-27T15:00:00","4","59.897328","17.588581","20.72","UPPSALA, SW","FM-12","ESCM ","V020","030,1,N,0060,1","01380,1,C,N","040000,1,N,1","+0141,1","+0060,1","10071,1",,,,,"06,1,+01380,1,99,9",,,,"99999,9,10046,1","3,1,003,1,+999,9","SYN070AAXX  27151 02458 45682 /0306 10141 20060 30046 40071 53003 333 86/46;",
"02458099999","2010-08-27T18:00:00","4","59.897328","17.588581","20.72","UPPSALA, SW","FM-12","ESCM ","V020","030,1,N,0030,1","99999,9,9,N","050000,1,N,1","+0105,1","+0055,1","10075,1",,,,,,,"120,M,+0162,1","999,N,+0106,1","99999,9,10050,1","2,1,004,1,+999,9","SYN076AAXX  27181 02458 35984 /0303 10105 20055 30050 40075 52004 333 10162 20106;",
"02458099999","2010-08-27T21:00:00","4","59.897328","17.588581","20.72","UPPSALA, SW","FM-12","ESCM ","V020","320,1,N,0010,1","99999,9,9,N","050000,1,N,1","+0062,1","+0053,1","10075,1",,,,,,,,,"99999,9,10050,1","4,1,000,1,+999,9","SYN060AAXX  27211 02458 45984 /3201 10062 20053 30050 40075 54000;",
"02458099999","2010-08-28T00:00:00","4","59.897328","17.588581","20.72","UPPSALA, SW","FM-12","ESCM ","V020","310,1,N,0010,1","99999,9,9,N","005000,1,N,1","+0050,1","+0047,1","10072,1",,,"10,1","2,1,06,1",,,,,"99999,9,10047,1","7,1,003,1,+999,9","SYN066AAXX  28001 02458 47950 /3101 10050 20047 30047 40072 57003 71010;",
"02458099999","2010-08-28T03:00:00","4","59.897328","17.588581","20.72","UPPSALA, SW","FM-12","ESCM ","V020","320,1,N,0010,1","99999,9,9,N","015000,1,N,1","+0041,1","+0038,1","10069,1",,,,,,,,,"99999,9,10044,1","7,1,003,1,+999,9","SYN060AAXX  28031 02458 45965 /3201 10041 20038 30044 40069 57003;",
"02458099999","2010-08-28T06:00:00","4","59.897328","17.588581","20.72","UPPSALA, SW","FM-12","ESCM ","V020","350,1,N,0020,1","99999,9,9,N","045000,1,N,1","+0097,1","+0082,1","10066,1",,,,,"03,1,+00840,1,99,9",,"120,M,+0105,1","999,N,+0039,1","99999,9,10041,1","7,1,003,1,+999,9","SYN082AAXX  28061 02458 35583 /3502 10097 20082 30041 40066 57003 333 10105 20039 83/28;",
"02458099999","2010-08-28T09:00:00","4","59.897328","17.588581","20.72","UPPSALA, SW","FM-12","ESCM ","V020","010,1,N,0030,1","99999,9,9,N","045000,1,N,1","+0136,1","+0077,1","10066,1",,,,,"02,1,+01350,1,99,9",,,,"99999,9,10041,1","4,1,000,1,+999,9","SYN070AAXX  28091 02458 45683 /0103 10136 20077 30041 40066 54000 333 82/45;",
"02458099999","2010-08-28T12:00:00","4","59.897328","17.588581","20.72","UPPSALA, SW","FM-12","ESCM ","V020","010,1,N,0040,1","99999,9,9,N","050000,1,N,1","+0153,1","+0072,1","10067,1",,,,,"01,1,+01200,1,99,9",,,,"99999,9,10042,1","3,1,001,1,+999,9","SYN076AAXX  28121 02458 45684 /0104 10153 20072 30042 40067 53001 333 81/40 84/50;",
"02458099999","2010-08-28T15:00:00","4","59.897328","17.588581","20.72","UPPSALA, SW","FM-12","ESCM ","V020","020,1,N,0050,1","99999,9,9,N","050000,1,N,1","+0142,1","+0069,1","10064,1",,,,,,,,,"99999,9,10039,1","7,1,003,1,+999,9","SYN060AAXX  28151 02458 45984 /0205 10142 20069 30039 40064 57003;",
"02458099999","2010-08-28T18:00:00","4","59.897328","17.588581","20.72","UPPSALA, SW","FM-12","ESCM ","V020","050,1,N,0030,1","99999,9,9,N","050000,1,N,1","+0106,1","+0067,1","10066,1",,,,,,,"120,M,+0167,1","999,N,+0097,1","99999,9,10041,1","2,1,002,1,+999,9","SYN076AAXX  28181 02458 35984 /0503 10106 20067 30041 40066 52002 333 10167 20097;",
"02458099999","2010-08-28T21:00:00","4","59.897328","17.588581","20.72","UPPSALA, SW","FM-12","ESCM ","V020","300,1,N,0010,1","99999,9,9,N","030000,1,N,1","+0061,1","+0054,1","10069,1",,,,,,,,,"99999,9,10044,1","0,1,003,1,+999,9","SYN060AAXX  28211 02458 45980 /3001 10061 20054 30044 40069 50003;",
"02458099999","2010-08-29T00:00:00","4","59.897328","17.588581","20.72","UPPSALA, SW","FM-12","ESCM ","V020","999,9,C,0000,1","99999,9,9,N","000200,1,N,1","+0037,1","+0034,1","10066,1",,,"34,1","4,1,06,1",,,,,"99999,9,10040,1","7,1,004,1,+999,9","SYN066AAXX  29001 02458 47902 /0000 10037 20034 30040 40066 57004 73431;",
"02458099999","2010-08-29T03:00:00","4","59.897328","17.588581","20.72","UPPSALA, SW","FM-12","ESCM ","V020","999,9,C,0000,1","04200,1,C,N","010000,1,N,1","+0029,1","+0027,1","10063,1",,,"20,1","4,1,03,1","05,1,+04200,1,99,9",,,,"99999,9,10037,1","7,1,003,1,+999,9","SYN076AAXX  29031 02458 47960 /0000 10029 20027 30037 40063 57003 72032 333 85/64;",
"02458099999","2010-08-29T06:00:00","4","59.897328","17.588581","20.72","UPPSALA, SW","FM-12","ESCM ","V020","310,1,N,0010,1","99999,9,9,N","040000,1,N,1","+0080,1","+0075,1","10064,1",,,"00,1","4,1,06,1","02,1,+03300,1,99,9",,"120,M,+0106,1","999,N,+0022,1","99999,9,10039,1","2,1,001,1,+999,9","SYN088AAXX  29061 02458 37982 /3101 10080 20075 30039 40064 52001 70032 333 10106 20022 82/61;",
"02458099999","2010-08-29T09:00:00","4","59.897328","17.588581","20.72","UPPSALA, SW","FM-12","ESCM ","V020","050,1,N,0020,1","99999,9,9,N","040000,1,N,1","+0142,1","+0073,1","10067,1",,,,,"01,1,+03600,1,99,9",,,,"99999,9,10042,1","2,1,003,1,+999,9","SYN070AAXX  29091 02458 45982 /0502 10142 20073 30042 40067 52003 333 81/62;",
"02458099999","2010-08-29T12:00:00","4","59.897328","17.588581","20.72","UPPSALA, SW","FM-12","ESCM ","V020","030,1,N,0030,1","99999,9,9,N","040000,1,N,1","+0152,1","+0070,1","10072,1",,,,,"04,1,+01290,1,99,9",,,,"99999,9,10047,1","2,1,005,1,+999,9","SYN070AAXX  29121 02458 45682 /0303 10152 20070 30047 40072 52005 333 84/43;",
"02458099999","2010-08-29T15:00:00","4","59.897328","17.588581","20.72","UPPSALA, SW","FM-12","ESCM ","V020","010,1,N,0020,1","01500,1,C,N","050000,1,N,1","+0137,1","+0094,1","10079,1",,,"23,1","8,1,03,1","07,1,+01500,1,99,9",,,,"99999,9,10055,1","2,1,007,1,+999,9","SYN076AAXX  29151 02458 47784 /0102 10137 20094 30055 40079 52007 72386 333 87/50;",
"02458099999","2010-08-29T18:00:00","4","59.897328","17.588581","20.72","UPPSALA, SW","FM-12","ESCM ","V020","020,1,N,0020,1","03600,1,C,N","050000,1,N,1","+0106,1","+0080,1","10093,1","12,0010,9,1",,"00,1","8,1,06,1","07,1,+03600,1,99,9",,"120,M,+0164,1","999,N,+0080,1","99999,9,10068,1","2,1,013,1,+999,9","SYN094AAXX  29181 02458 17984 /0202 10106 20080 30068 40093 52013 60012 70086 333 10164 20080 87/62;",
"02458099999","2010-08-29T21:00:00","4","59.897328","17.588581","20.72","UPPSALA, SW","FM-12","ESCM ","V020","310,1,N,0020,1","03600,1,C,N","050000,1,N,1","+0086,1","+0077,1","10103,1",,,,,"05,1,+03600,1,99,9",,,,"99999,9,10077,1","2,1,010,1,+999,9","SYN070AAXX  29211 02458 45984 /3102 10086 20077 30077 40103 52010 333 85/62;",
"02458099999","2010-08-30T00:00:00","4","59.897328","17.588581","20.72","UPPSALA, SW","FM-12","ESCM ","V020","340,1,N,0020,1","99999,9,9,N","045000,1,N,1","+0086,1","+0079,1","10107,1",,,,,,,,,"99999,9,10082,1","3,1,005,1,+999,9","SYN060AAXX  30001 02458 45983 /3402 10086 20079 30082 40107 53005;",
"02458099999","2010-08-30T03:00:00","4","59.897328","17.588581","20.72","UPPSALA, SW","FM-12","ESCM ","V020","330,1,N,0020,1","00120,1,C,N","011000,1,N,1","+0091,1","+0087,1","10116,1",,,,,"09,1,+00120,1,99,9",,,,"99999,9,10091,1","2,1,009,1,+999,9","SYN070AAXX  30031 02458 45/61 /3302 10091 20087 30091 40116 52009 333 89/04;",
"02458099999","2010-08-30T06:00:00","4","59.897328","17.588581","20.72","UPPSALA, SW","FM-12","ESCM ","V020","340,1,N,0040,1","00180,1,C,N","016000,1,N,1","+0103,1","+0097,1","10126,1","24,0013,9,1",,"61,1","6,1,06,1","08,1,+00180,1,99,9",,"120,M,+0109,1","999,N,+0065,1","99999,9,10101,1","3,1,010,1,+999,9","SYN094AAXX  30061 02458 37266 /3404 10103 20097 30101 40126 53010 76160 333 10109 20065 70012 88/06;",
"02458099999","2010-08-30T09:00:00","4","59.897328","17.588581","20.72","UPPSALA, SW","FM-12","ESCM ","V020","020,1,N,0030,1","99999,9,9,N","040000,1,N,1","+0132,1","+0108,1","10140,1",,,"00,1","8,1,03,1","01,1,+00330,1,99,9","03,1,+00870,1,99,9",,,"99999,9,10115,1","2,1,014,1,+999,9","SYN088AAXX  30091 02458 47482 /0203 10132 20108 30115 40140 52014 70086 333 81/11 83/29 88/56;",
"02458099999","2010-08-30T12:00:00","4","59.897328","17.588581","20.72","UPPSALA, SW","FM-12","ESCM ","V020","280,1,N,0010,1","01500,1,C,N","045000,1,N,1","+0129,1","+0101,1","10150,1",,,"00,1","8,1,06,1","07,1,+01500,1,99,9",,,,"99999,9,10125,1","3,1,010,1,+999,9","SYN082AAXX  30121 02458 47783 /2801 10129 20101 30125 40150 53010 70086 333 87/50 88/56;",
"02458099999","2010-08-30T15:00:00","4","59.897328","17.588581","20.72","UPPSALA, SW","FM-12","ESCM ","V020","060,1,N,0030,1","99999,9,9,N","050000,1,N,1","+0153,1","+0060,1","10152,1",,,,,"04,1,+01500,1,99,9",,,,"99999,9,10127,1","2,1,002,1,+999,9","SYN070AAXX  30151 02458 45784 /0603 10153 20060 30127 40152 52002 333 84/50;",
"02458099999","2010-08-30T18:00:00","4","59.897328","17.588581","20.72","UPPSALA, SW","FM-12","ESCM ","V020","050,1,N,0020,1","99999,9,9,N","050000,1,N,1","+0104,1","+0065,1","10161,1","12,0005,9,1",,,,,,"120,M,+0166,1","999,N,+0103,1","99999,9,10136,1","2,1,009,1,+999,9","SYN082AAXX  30181 02458 15984 /0502 10104 20065 30136 40161 52009 69962 333 10166 20103;",
"02458099999","2010-08-30T21:00:00","4","59.897328","17.588581","20.72","UPPSALA, SW","FM-12","ESCM ","V020","290,1,N,0010,1","99999,9,9,N","030000,1,N,1","+0068,1","+0059,1","10168,1",,,,,,,,,"99999,9,10142,1","2,1,007,1,+999,9","SYN060AAXX  30211 02458 45980 /2901 10068 20059 30142 40168 52007;",
"02458099999","2010-08-31T00:00:00","4","59.897328","17.588581","20.72","UPPSALA, SW","FM-12","ESCM ","V020","999,9,C,0000,1","02100,1,C,N","021000,1,N,1","+0053,1","+0049,1","10171,1",,,,,"08,1,+02100,1,99,9",,,,"99999,9,10145,1","2,1,003,1,+999,9","SYN070AAXX  31001 02458 45871 /0000 10053 20049 30145 40171 52003 333 88/57;",
"02458099999","2010-08-31T03:00:00","4","59.897328","17.588581","20.72","UPPSALA, SW","FM-12","ESCM ","V020","300,1,N,0010,1","99999,9,9,N","002000,1,N,1","+0049,1","+0046,1","10167,1",,,"10,1","2,1,03,1","04,1,+02100,1,99,9",,,,"99999,9,10141,1","7,1,004,1,+999,9","SYN076AAXX  31031 02458 47820 /3001 10049 20046 30141 40167 57004 71010 333 84/57;",
"02458099999","2010-08-31T06:00:00","4","59.897328","17.588581","20.72","UPPSALA, SW","FM-12","ESCM ","V020","999,9,C,0000,1","01500,1,C,N","030000,1,N,1","+0093,1","+0086,1","10168,1","24,0005,9,1",,"00,1","4,1,06,1","02,1,+00960,1,99,9","05,1,+01500,1,99,9","120,M,+0107,1","999,N,+0040,1","99999,9,10143,1","2,1,001,1,+999,9","SYN106AAXX  31060 02458 37580 /0000 10093 20086 30143 40168 52001 70032 333 10107 20040 70006 82/32 85/50 88/56;",
"02458099999","2010-08-31T09:00:00","4","59.897328","17.588581","20.72","UPPSALA, SW","FM-12","ESCM ","V020","200,1,N,0020,1","02400,1,C,N","045000,1,N,1","+0140,1","+0088,1","10166,1",,,,,"08,1,+02400,1,99,9",,,,"99999,9,10141,1","7,1,002,1,+999,9","SYN070AAXX  31091 02458 45883 /2002 10140 20088 30141 40166 57002 333 88/58;",
"02458099999","2010-08-31T12:00:00","4","59.897328","17.588581","20.72","UPPSALA, SW","FM-12","ESCM ","V020","240,1,N,0030,1","99999,9,9,N","045000,1,N,1","+0154,1","+0087,1","10157,1",,,,,"04,1,+02100,1,99,9",,,,"99999,9,10132,1","7,1,009,1,+999,9","SYN070AAXX  31121 02458 45883 /2403 10154 20087 30132 40157 57009 333 84/57;",
"02458099999","2010-08-31T15:00:00","4","59.897328","17.588581","20.72","UPPSALA, SW","FM-12","ESCM ","V020","230,1,N,0040,1","99999,9,9,N","040000,1,N,1","+0169,1","+0067,1","10143,1",,,,,"01,1,+01500,1,99,9",,,,"99999,9,10119,1","7,1,013,1,+999,9","SYN070AAXX  31151 02458 45782 /2304 10169 20067 30119 40143 57013 333 81/50;",
"02458099999","2010-08-31T18:00:00","4","59.897328","17.588581","20.72","UPPSALA, SW","FM-12","ESCM ","V020","230,1,N,0020,1","99999,9,9,N","050000,1,N,1","+0139,1","+0085,1","10141,1",,,,,"01,1,+01500,1,99,9",,"120,M,+0176,1","999,N,+0092,1","99999,9,10116,1","7,1,002,1,+999,9","SYN088AAXX  31181 02458 35784 /2302 10139 20085 30116 40141 57002 333 10176 20092 81/50 88/57;",
"02458099999","2010-08-31T21:00:00","4","59.897328","17.588581","20.72","UPPSALA, SW","FM-12","ESCM ","V020","200,1,N,0010,1","01500,1,C,N","050000,1,N,1","+0117,1","+0096,1","10143,1",,,"00,1","8,1,03,1","08,1,+01500,1,99,9",,,,"99999,9,10118,1","2,1,002,1,+999,9","SYN076AAXX  31211 02458 47784 /2001 10117 20096 30118 40143 52002 70086 333 88/50;",
"02458099999","2010-09-01T00:00:00","4","59.897328","17.588581","20.72","UPPSALA, SW","FM-12","ESCM ","V020","999,9,C,0000,1","99999,9,9,N","050000,1,N,1","+0092,1","+0082,1","10140,1",,,"00,1","8,1,06,1",,,,,"99999,9,10115,1","8,1,004,1,+999,9","SYN066AAXX  01001 02458 47984 /0000 10092 20082 30115 40140 58004 70085;",
"02458099999","2010-09-01T03:00:00","4","59.897328","17.588581","20.72","UPPSALA, SW","FM-12","ESCM ","V020","999,9,C,0000,1","99999,9,9,N","003400,1,N,1","+0072,1","+0067,1","10138,1",,,"10,1","2,1,03,1","02,1,+04800,1,99,9",,,,"99999,9,10113,1","7,1,002,1,+999,9","SYN076AAXX  01031 02458 47934 /0000 10072 20067 30113 40138 57002 71010 333 82/66;",
"02458099999","2010-09-01T06:00:00","4","59.897328","17.588581","20.72","UPPSALA, SW","FM-12","ESCM ","V020","330,1,N,0030,1","03900,1,C,N","045000,1,N,1","+0103,1","+0091,1","10146,1",,,,,"05,1,+03900,1,99,9",,"120,M,+0139,1","999,N,+0063,1","99999,9,10121,1","3,1,008,1,+999,9","SYN082AAXX  01061 02458 35983 /3303 10103 20091 30121 40146 53008 333 10139 20063 85/63;",
"02458099999","2010-09-01T09:00:00","4","59.897328","17.588581","20.72","UPPSALA, SW","FM-12","ESCM ","V020","010,1,N,0050,1","22000,1,C,N","014000,1,N,1","+0119,1","+0097,1","10156,1",,,"62,1","6,1,03,1","01,1,+00030,1,99,9","04,1,+00840,1,99,9",,,"99999,9,10131,1","3,1,011,1,+999,9","SYN088AAXX  01091 02458 47064 /0105 10119 20097 30131 40156 53011 76260 333 81/01 84/28 86/45;",
"02458099999","2010-09-01T12:00:00","4","59.897328","17.588581","20.72","UPPSALA, SW","FM-12","ESCM ","V020","350,1,N,0030,1","99999,9,9,N","045000,1,N,1","+0136,1","+0086,1","10159,1",,,"00,1","8,1,06,1","03,1,+00870,1,99,9",,,,"99999,9,10134,1","2,1,003,1,+999,9","SYN082AAXX  01121 02458 47583 /3503 10136 20086 30134 40159 52003 70086 333 83/29 88/50;",
"02458099999","2010-09-01T15:00:00","4","59.897328","17.588581","20.72","UPPSALA, SW","FM-12","ESCM ","V020","350,1,N,0030,1","99999,9,9,N","045000,1,N,1","+0137,1","+0058,1","10158,1",,,"23,1","8,1,03,1","01,1,+01050,1,99,9",,,,"99999,9,10133,1","7,1,001,1,+999,9","SYN082AAXX  01151 02458 47683 /3503 10137 20058 30133 40158 57001 72386 333 81/35 84/59;",
"02458099999","2010-09-01T18:00:00","4","59.897328","17.588581","20.72","UPPSALA, SW","FM-12","ESCM ","V020","050,1,N,0010,1","03600,1,C,N","050000,1,N,1","+0102,1","+0043,1","10165,1","12,0010,9,1",,"00,1","8,1,06,1","07,1,+03600,1,99,9",,"120,M,+0142,1","999,N,+0103,1","99999,9,10140,1","2,1,007,1,+999,9","SYN094AAXX  01181 02458 17984 /0501 10102 20043 30140 40165 52007 60012 70086 333 10142 20103 87/62;",
"02458099999","2010-09-01T21:00:00","4","59.897328","17.588581","20.72","UPPSALA, SW","FM-12","ESCM ","V020","300,1,N,0010,1","99999,9,9,N","050000,1,N,1","+0044,1","+0039,1","10172,1",,,,,,,,,"99999,9,10146,1","2,1,007,1,+999,9","SYN060AAXX  01211 02458 45984 /3001 10044 20039 30146 40172 52007;",
"02458099999","2010-09-02T03:00:00","4","59.897328","17.588581","20.72","UPPSALA, SW","FM-12","ESCM ","V020","310,1,N,0030,1","02100,1,C,N","050000,1,N,1","+0046,1","+0040,1","10170,1",,,,,"07,1,+02100,1,99,9",,,,"99999,9,10144,1","4,1,000,1,+999,9","SYN070AAXX  02031 02458 45884 /3103 10046 20040 30144 40170 54001 333 87/57;",
"02458099999","2010-09-02T06:00:00","4","59.897328","17.588581","20.72","UPPSALA, SW","FM-12","ESCM ","V020","330,1,N,0040,1","99999,9,9,N","050000,1,N,1","+0079,1","+0058,1","10171,1","24,0013,9,1",,,,,,"120,M,+0102,1","999,N,+0015,1","99999,9,10146,1","2,1,001,1,+999,9","SYN082AAXX  02061 02458 35984 /3304 10079 20058 30146 40171 52001 333 10102 20015 70013;",
"02458099999","2010-09-02T09:00:00","4","59.897328","17.588581","20.72","UPPSALA, SW","FM-12","ESCM ","V020","350,1,N,0060,1","99999,9,9,N","045000,1,N,1","+0127,1","+0074,1","10171,1",,,,,"03,1,+00780,1,99,9",,,,"99999,9,10146,1","4,1,000,1,+999,9","SYN070AAXX  02091 02458 45583 /3506 10127 20074 30146 40171 54000 333 83/26;",
"02458099999","2010-09-02T18:00:00","4","59.897328","17.588581","20.72","UPPSALA, SW","FM-12","ESCM ","V020","360,1,N,0040,1","99999,9,9,N","050000,1,N,1","+0102,1","+0051,1","10173,1","12,0000,9,1",,,,"01,1,+00990,1,99,9",,"120,M,+0143,1","999,N,+0079,1","99999,9,10147,1","3,1,006,1,+999,9","SYN088AAXX  02180 02458 15584 /3604 10102 20051 30147 40173 53006 69912 333 10143 20079 81/33;","Q01  00002PRCP12"
"02458099999","2010-09-02T21:00:00","4","59.897328","17.588581","20.72","UPPSALA, SW","FM-12","ESCM ","V020","310,1,N,0040,1","99999,9,9,N","050000,1,N,1","+0062,1","+0047,1","10161,1",,,,,,,,,"99999,9,10135,1","7,1,012,1,+999,9","SYN060AAXX  02211 02458 45984 /3104 10062 20047 30135 40161 57012;",
"02458099999","2010-09-03T00:00:00","4","59.897328","17.588581","20.72","UPPSALA, SW","FM-12","ESCM ","V020","310,1,N,0040,1","99999,9,9,N","050000,1,N,1","+0070,1","+0052,1","10150,1",,,,,,,,,"99999,9,10125,1","7,1,011,1,+999,9","SYN060AAXX  03001 02458 45984 /3104 10070 20052 30125 40150 57011;",
"02458099999","2010-09-03T03:00:00","4","59.897328","17.588581","20.72","UPPSALA, SW","FM-12","ESCM ","V020","320,1,N,0060,1","99999,9,9,N","050000,1,N,1","+0069,1","+0054,1","10143,1",,,,,"02,1,+01410,1,99,9",,,,"99999,9,10118,1","7,1,007,1,+999,9","SYN070AAXX  03031 02458 45684 /3206 10069 20054 30118 40143 57007 333 82/47;",
"02458099999","2010-09-03T06:00:00","4","59.897328","17.588581","20.72","UPPSALA, SW","FM-12","ESCM ","V020","330,1,N,0050,1","99999,9,9,N","050000,1,N,1","+0082,1","+0059,1","10143,1","24,0000,9,1",,"00,1","8,1,06,1","01,1,+01350,1,99,9",,"120,M,+0102,1","999,N,+0055,1","99999,9,10118,1","4,1,000,1,+999,9","SYN094AAXX  03061 02458 37684 /3305 10082 20059 30118 40143 54000 70086 333 10102 20055 70001 81/45;","Q01  00002PRCP24"
"02458099999","2010-09-03T09:00:00","4","59.897328","17.588581","20.72","UPPSALA, SW","FM-12","ESCM ","V020","330,1,N,0080,1","99999,9,9,N","050000,1,N,1","+0104,1","+0070,1","10147,1",,,"23,1","8,1,03,1","04,1,+00510,1,99,9",,,,"99999,9,10122,1","2,1,004,1,+999,9","SYN082AAXX  03091 02458 47484 /3308 10104 20070 30122 40147 52004 72386 333 84/17 85/29;",
"02458099999","2010-09-03T12:00:00","4","59.897328","17.588581","20.72","UPPSALA, SW","FM-12","ESCM ","V020","360,1,N,0060,1","99999,9,9,N","040000,1,N,1","+0101,1","+0065,1","10160,1",,,"81,1","8,1,06,1","01,1,+00600,1,99,9","03,1,+00840,1,99,9",,,"99999,9,10135,1","3,1,013,1,+999,9","SYN088AAXX  03121 02458 47582 /3606 10101 20065 30135 40160 53013 78186 333 81/20 83/28 87/37;",
"02458099999","2010-09-03T15:00:00","4","59.897328","17.588581","20.72","UPPSALA, SW","FM-12","ESCM ","V020","350,1,N,0060,1","01080,1,C,N","040000,1,N,1","+0100,1","+0049,1","10171,1",,,"00,1","8,1,03,1","07,1,+01080,1,99,9",,,,"99999,9,10146,1","3,1,011,1,+999,9","SYN082AAXX  03151 02458 47682 /3506 10100 20049 30146 40171 53011 70082 333 87/36 88/50;",
"02458099999","2010-09-03T18:00:00","4","59.897328","17.588581","20.72","UPPSALA, SW","FM-12","ESCM ","V020","310,1,N,0020,1","99999,9,9,N","050000,1,N,1","+0065,1","+0043,1","10178,1","12,0003,9,1",,"00,1","8,1,06,1",,,"120,M,+0121,1","999,N,+0065,1","99999,9,10153,1","3,1,007,1,+999,9","SYN088AAXX  03181 02458 17984 /3102 10065 20043 30153 40178 53007 69932 70086 333 10121 20065;",
"02458099999","2010-09-03T21:00:00","4","59.897328","17.588581","20.72","UPPSALA, SW","FM-12","ESCM ","V020","300,1,N,0030,1","99999,9,9,N","050000,1,N,1","+0045,1","+0034,1","10187,1",,,,,,,,,"99999,9,10162,1","2,1,009,1,+999,9","SYN060AAXX  03211 02458 45984 /3003 10045 20034 30162 40187 52009;",
"02458099999","2010-09-04T00:00:00","4","59.897328","17.588581","20.72","UPPSALA, SW","FM-12","ESCM ","V020","300,1,N,0020,1","04200,1,C,N","050000,1,N,1","+0047,1","+0036,1","10193,1",,,,,"07,1,+04200,1,99,9",,,,"99999,9,10168,1","2,1,006,1,+999,9","SYN070AAXX  04001 02458 45984 /3002 10047 20036 30168 40193 52006 333 87/64;",
"02458099999","2010-09-04T03:00:00","4","59.897328","17.588581","20.72","UPPSALA, SW","FM-12","ESCM ","V020","310,1,N,0020,1","01500,1,C,N","050000,1,N,1","+0033,1","+0025,1","10200,1",,,,,"06,1,+01500,1,99,9",,,,"99999,9,10174,1","3,1,007,1,+999,9","SYN070AAXX  04031 02458 45784 /3102 10033 20025 30174 40200 53007 333 86/50;",
"02458099999","2010-09-04T06:00:00","4","59.897328","17.588581","20.72","UPPSALA, SW","FM-12","ESCM ","V020","300,1,N,0030,1","99999,9,9,N","050000,1,N,1","+0052,1","+0032,1","10212,1","24,0003,9,1",,,,,,"120,M,+0065,1","999,N,+0030,1","99999,9,10186,1","1,1,012,1,+999,9","SYN082AAXX  04061 02458 35984 /3003 10052 20032 30186 40212 51012 333 10065 20030 70003;",
"02458099999","2010-09-04T09:00:00","4","59.897328","17.588581","20.72","UPPSALA, SW","FM-12","ESCM ","V020","340,1,N,0020,1","99999,9,9,N","035000,1,N,1","+0117,1","+0047,1","10221,1",,,,,"01,1,+06300,1,99,9",,,,"99999,9,10195,1","1,1,009,1,+999,9","SYN070AAXX  04091 02458 45981 /3402 10117 20047 30195 40221 51009 333 81/71;",
"02458099999","2010-09-04T12:00:00","4","59.897328","17.588581","20.72","UPPSALA, SW","FM-12","ESCM ","V020","350,1,N,0030,1","99999,9,9,N","045000,1,N,1","+0130,1","+0037,1","10228,1",,,,,"03,1,+06600,1,99,9",,,,"99999,9,10203,1","2,1,008,1,+999,9","SYN070AAXX  04121 02458 45983 /3503 10130 20037 30203 40228 52008 333 83/72;",
"02458099999","2010-09-04T15:00:00","4","59.897328","17.588581","20.72","UPPSALA, SW","FM-12","ESCM ","V020","330,1,N,0030,1","99999,9,9,N","050000,1,N,1","+0152,1","+0034,1","10225,1",,,,,"01,1,+01800,1,99,9",,,,"99999,9,10200,1","7,1,004,1,+999,9","SYN070AAXX  04151 02458 45784 /3303 10152 20034 30200 40225 57004 333 81/56;",
"02458099999","2010-09-04T18:00:00","4","59.897328","17.588581","20.72","UPPSALA, SW","FM-12","ESCM ","V020","170,1,N,0010,1","99999,9,9,N","025000,1,N,1","+0088,1","+0049,1","10234,1",,,,,,,"120,M,+0157,1","999,N,+0052,1","99999,9,10209,1","3,1,010,1,+999,9","SYN076AAXX  04181 02458 35975 /1701 10088 20049 30209 40234 53010 333 10157 20052;",
"02458099999","2010-09-04T21:00:00","4","59.897328","17.588581","20.72","UPPSALA, SW","FM-12","ESCM ","V020","290,1,N,0010,1","99999,9,9,N","045000,1,N,1","+0040,1","+0034,1","10243,1",,,,,"01,1,+07200,1,99,9",,,,"99999,9,10217,1","2,1,008,1,+999,9","SYN070AAXX  04211 02458 45983 /2901 10040 20034 30217 40243 52008 333 81/74;",
"02458099999","2010-09-05T00:00:00","4","59.897328","17.588581","20.72","UPPSALA, SW","FM-12","ESCM ","V020","999,9,C,0000,1","99999,9,9,N","030000,1,N,1","+0021,1","+0018,1","10244,1",,,"00,1","4,1,06,1",,,,,"99999,9,10218,1","4,1,000,1,+999,9","SYN066AAXX  05001 02458 47980 /0000 10021 20018 30218 40244 54000 70032;",
"02458099999","2010-09-05T03:00:00","4","59.897328","17.588581","20.72","UPPSALA, SW","FM-12","ESCM ","V020","999,9,C,0000,1","99999,9,9,N","004000,1,N,1","+0010,1","+0007,1","10246,1",,,"10,1","2,1,03,1",,,,,"99999,9,10220,1","2,1,002,1,+999,9","SYN066AAXX  05031 02458 47940 /0000 10010 20007 30220 40246 52002 71010;",
"02458099999","2010-09-05T06:00:00","4","59.897328","17.588581","20.72","UPPSALA, SW","FM-12","ESCM ","V020","290,1,N,0010,1","99999,9,9,N","050000,1,N,1","+0055,1","+0052,1","10251,1",,,,,"01,1,+05700,1,99,9",,"120,M,+0088,1","999,N,+0002,1","99999,9,10225,1","0,1,005,1,+999,9","SYN082AAXX  05061 02458 35984 /2901 10055 20052 30225 40251 50005 333 10088 20002 81/69;",
"02458099999","2010-09-05T09:00:00","4","59.897328","17.588581","20.72","UPPSALA, SW","FM-12","ESCM ","V020","350,1,N,0010,1","04800,1,C,N","040000,1,N,1","+0131,1","+0082,1","10257,1",,,,,"06,1,+04800,1,99,9",,,,"99999,9,10232,1","2,1,006,1,+999,9","SYN070AAXX  05091 02458 45982 /3501 10131 20082 30232 40257 52006 333 86/66;",
"02458099999","2010-09-05T12:00:00","4","59.897328","17.588581","20.72","UPPSALA, SW","FM-12","ESCM ","V020","310,1,N,0020,1","99999,9,9,N","040000,1,N,1","+0144,1","+0086,1","10258,1",,,,,"04,1,+02700,1,99,9",,,,"99999,9,10233,1","2,1,001,1,+999,9","SYN076AAXX  05121 02458 45982 /3102 10144 20086 30233 40258 52001 333 84/59 85/62;",
"02458099999","2010-09-05T15:00:00","4","59.897328","17.588581","20.72","UPPSALA, SW","FM-12","ESCM ","V020","340,1,N,0020,1","02100,1,C,N","050000,1,N,1","+0140,1","+0093,1","10259,1",,,"00,1","8,1,03,1","08,1,+02100,1,99,9",,,,"99999,9,10234,1","4,1,000,1,+999,9","SYN076AAXX  05151 02458 47884 /3402 10140 20093 30234 40259 54001 70086 333 88/57;",
"02458099999","2010-09-05T18:00:00","4","59.897328","17.588581","20.72","UPPSALA, SW","FM-12","ESCM ","V020","290,1,N,0010,1","99999,9,9,N","050000,1,N,1","+0118,1","+0103,1","10267,1",,,"00,1","8,1,06,1","03,1,+01110,1,99,9",,"120,M,+0147,1","999,N,+0055,1","99999,9,10241,1","2,1,008,1,+999,9","SYN094AAXX  05181 02458 37684 /2901 10118 20103 30241 40267 52008 70086 333 10147 20055 83/37 88/56;",
"02458099999","2010-09-05T21:00:00","4","59.897328","17.588581","20.72","UPPSALA, SW","FM-12","ESCM ","V020","320,1,N,0010,1","99999,9,9,N","000500,1,N,1","+0087,1","+0082,1","10273,1",,,"34,1","4,1,03,1",,,,,"99999,9,10247,1","3,1,006,1,+999,9","SYN066AAXX  05211 02458 47905 /3201 10087 20082 30247 40273 53006 73431;",
"02458099999","2010-09-06T00:00:00","4","59.897328","17.588581","20.72","UPPSALA, SW","FM-12","ESCM ","V020","999,9,C,0000,1","99999,9,9,N","000100,1,N,1","+0049,1","+0046,1","10274,1",,,"33,1","4,1,06,1",,,,,"99999,9,10248,1","2,1,001,1,+999,9","SYN066AAXX  06001 02458 47901 /0000 10049 20046 30248 40274 52001 73331;",
"02458099999","2010-09-06T03:00:00","4","59.897328","17.588581","20.72","UPPSALA, SW","FM-12","ESCM ","V020","999,9,C,0000,1","02100,1,C,N","021000,1,N,1","+0066,1","+0063,1","10276,1",,,"00,1","8,1,03,1","08,1,+02100,1,99,9",,,,"99999,9,10250,1","2,1,002,1,+999,9","SYN076AAXX  06031 02458 47871 /0000 10066 20063 30250 40276 52002 70086 333 88/57;",
"02458099999","2010-09-06T06:00:00","4","59.897328","17.588581","20.72","UPPSALA, SW","FM-12","ESCM ","V020","320,1,N,0010,1","99999,9,9,N","024000,1,N,1","+0099,1","+0095,1","10283,1","12,0020,9,2","24,0018,9,2","20,1","8,1,06,1",,,"120,M,+0119,1","999,N,+0045,1","99999,9,10258,1","2,1,007,1,+999,9","SYN094AAXX  06061 02458 17974 /3201 10099 20095 30258 40283 52007 60022 72086 333 10119 20045 70017;",
"02458099999","2010-09-06T09:00:00","4","59.897328","17.588581","20.72","UPPSALA, SW","FM-12","ESCM ","V020","070,1,N,0020,1","99999,9,9,N","050000,1,N,1","+0146,1","+0108,1","10286,1",,,,,"01,1,+00660,1,99,9",,,,"99999,9,10261,1","2,1,003,1,+999,9","SYN070AAXX  06091 02458 45584 /0702 10146 20108 30261 40286 52003 333 81/22;",
"02458099999","2010-09-06T12:00:00","4","59.897328","17.588581","20.72","UPPSALA, SW","FM-12","ESCM ","V020","110,1,N,0010,1","99999,9,9,N","050000,1,N,1","+0171,1","+0099,1","10279,1",,,,,,,,,"99999,9,10254,1","7,1,008,1,+999,9","SYN060AAXX  06121 02458 45984 /1101 10171 20099 30254 40279 57008;",
"02458099999","2010-09-06T15:00:00","4","59.897328","17.588581","20.72","UPPSALA, SW","FM-12","ESCM ","V020","070,1,N,0030,1","01500,1,C,N","050000,1,N,1","+0169,1","+0099,1","10271,1",,,,,"08,1,+01500,1,99,9",,,,"99999,9,10247,1","7,1,007,1,+999,9","SYN070AAXX  06151 02458 45784 /0703 10169 20099 30247 40271 57007 333 88/50;",
"02458099999","2010-09-06T18:00:00","4","59.897328","17.588581","20.72","UPPSALA, SW","FM-12","ESCM ","V020","100,1,N,0020,1","99999,9,9,N","050000,1,N,1","+0129,1","+0104,1","10273,1",,,,,,,"120,M,+0189,1","999,N,+0099,1","99999,9,10248,1","2,1,002,1,+999,9","SYN076AAXX  06181 02458 35984 /1002 10129 20104 30248 40273 52002 333 10189 20099;",
"02458099999","2010-09-06T21:00:00","4","59.897328","17.588581","20.72","UPPSALA, SW","FM-12","ESCM ","V020","999,9,C,0000,1","99999,9,9,N","024000,1,N,1","+0094,1","+0089,1","10276,1",,,,,,,,,"99999,9,10250,1","2,1,002,1,+999,9","SYN060AAXX  06211 02458 45974 /0000 10094 20089 30250 40276 52002;",
"02458099999","2010-09-07T00:00:00","4","59.897328","17.588581","20.72","UPPSALA, SW","FM-12","ESCM ","V020","999,9,C,0000,1","99999,9,9,N","000400,1,N,1","+0056,1","+0053,1","10276,1",,,"31,1","4,1,06,1",,,,,"99999,9,10250,1","0,1,000,1,+999,9","SYN066AAXX  07001 02458 47904 /0000 10056 20053 30250 40276 50000 73132;",
"02458099999","2010-09-07T03:00:00","4","59.897328","17.588581","20.72","UPPSALA, SW","FM-12","ESCM ","V020","999,9,C,0000,1","00030,1,C,N","000100,1,N,1","+0043,1","+0040,1","10278,1",,,"33,1","4,1,03,1","09,1,+00030,1,99,9",,,,"99999,9,10252,1","2,1,002,1,+999,9","SYN076AAXX  07031 02458 47/01 /0000 10043 20040 30252 40278 52002 73333 333 89/01;",
"02458099999","2010-09-07T06:00:00","4","59.897328","17.588581","20.72","UPPSALA, SW","FM-12","ESCM ","V020","999,9,C,0000,1","00030,1,C,N","001900,1,N,1","+0074,1","+0071,1","10278,1",,,"20,1","4,1,06,1","09,1,+00030,1,99,9",,"120,M,+0129,1","999,N,+0041,1","99999,9,10252,1","4,1,000,1,+999,9","SYN088AAXX  07061 02458 37/19 /0000 10074 20071 30252 40278 54000 72032 333 10129 20041 89/01;",
"02458099999","2010-09-07T09:00:00","4","59.897328","17.588581","20.72","UPPSALA, SW","FM-12","ESCM ","V020","100,1,N,0010,1","99999,9,9,N","045000,1,N,1","+0161,1","+0088,1","10271,1",,,"00,1","4,1,03,1",,,,,"99999,9,10246,1","8,1,006,1,+999,9","SYN066AAXX  07091 02458 47983 /1001 10161 20088 30246 40271 58006 70032;",
"02458099999","2010-09-07T12:00:00","4","59.897328","17.588581","20.72","UPPSALA, SW","FM-12","ESCM ","V020","170,1,N,0020,1","01500,1,C,N","045000,1,N,1","+0165,1","+0081,1","10265,1",,,"00,1","4,1,06,1","06,1,+01500,1,99,9",,,,"99999,9,10240,1","8,1,006,1,+999,9","SYN082AAXX  07121 02458 47783 /1702 10165 20081 30240 40265 58006 70032 333 86/50 87/56;",
"02458099999","2010-09-07T15:00:00","4","59.897328","17.588581","20.72","UPPSALA, SW","FM-12","ESCM ","V020","140,1,N,0020,1","99999,9,9,N","045000,1,N,1","+0170,1","+0089,1","10258,1",,,,,"02,1,+01230,1,99,9",,,,"99999,9,10233,1","7,1,007,1,+999,9","SYN076AAXX  07151 02458 45683 /1402 10170 20089 30233 40258 57007 333 82/41 88/56;",
"02458099999","2010-09-07T18:00:00","4","59.897328","17.588581","20.72","UPPSALA, SW","FM-12","ESCM ","V020","120,1,N,0010,1","99999,9,9,N","050000,1,N,1","+0133,1","+0096,1","10260,1",,,,,"01,1,+01170,1,99,9",,"120,M,+0184,1","999,N,+0073,1","99999,9,10235,1","3,1,002,1,+999,9","SYN088AAXX  07181 02458 35684 /1201 10133 20096 30235 40260 53002 333 10184 20073 81/39 83/50;",
"02458099999","2010-09-07T21:00:00","4","59.897328","17.588581","20.72","UPPSALA, SW","FM-12","ESCM ","V020","999,9,C,0000,1","99999,9,9,N","040000,1,N,1","+0069,1","+0064,1","10267,1",,,,,,,,,"99999,9,10241,1","2,1,006,1,+999,9","SYN060AAXX  07211 02458 45982 /0000 10069 20064 30241 40267 52006;",
"02458099999","2010-09-08T00:00:00","4","59.897328","17.588581","20.72","UPPSALA, SW","FM-12","ESCM ","V020","999,9,C,0000,1","00030,1,C,N","000300,1,N,1","+0049,1","+0046,1","10269,1",,,"32,1","4,1,06,1","09,1,+00030,1,99,9",,,,"99999,9,10243,1","0,1,002,1,+999,9","SYN076AAXX  08001 02458 47/03 /0000 10049 20046 30243 40269 50002 73232 333 89/01;",
"02458099999","2010-09-08T03:00:00","4","59.897328","17.588581","20.72","UPPSALA, SW","FM-12","ESCM ","V020","030,1,N,0010,1","00030,1,C,N","000100,1,N,1","+0073,1","+0071,1","10266,1",,,"33,1","4,1,03,1","09,1,+00030,1,99,9",,,,"99999,9,10241,1","8,1,002,1,+999,9","SYN076AAXX  08031 02458 47/01 /0301 10073 20071 30241 40266 58002 73333 333 89/01;",
"02458099999","2010-09-08T06:00:00","4","59.897328","17.588581","20.72","UPPSALA, SW","FM-12","ESCM ","V020","030,1,N,0010,1","00030,1,C,N","000200,1,N,1","+0081,1","+0078,1","10273,1",,,"30,1","4,1,06,1","09,1,+00030,1,99,9",,"120,M,+0133,1","999,N,+0046,1","99999,9,10247,1","2,1,006,1,+999,9","SYN088AAXX  08061 02458 37/02 /0301 10081 20078 30247 40273 52006 73033 333 10133 20046 89/01;",
"02458099999","2010-09-08T09:00:00","4","59.897328","17.588581","20.72","UPPSALA, SW","FM-12","ESCM ","V020","100,1,N,0020,1","99999,9,9,N","045000,1,N,1","+0157,1","+0145,1","10271,1",,,"00,1","4,1,03,1","02,1,+00330,1,99,9",,,,"99999,9,10246,1","0,1,001,1,+999,9","SYN076AAXX  08091 02458 47483 /1002 10157 20145 30246 40271 50001 70032 333 82/11;",
"02458099999","2010-09-08T12:00:00","4","59.897328","17.588581","20.72","UPPSALA, SW","FM-12","ESCM ","V020","100,1,N,0040,1","01500,1,C,N","045000,1,N,1","+0170,1","+0100,1","10268,1",,,"00,1","4,1,06,1","08,1,+01500,1,99,9",,,,"99999,9,10243,1","8,1,003,1,+999,9","SYN076AAXX  08121 02458 47783 /1004 10170 20100 30243 40268 58003 70032 333 88/50;",
"02458099999","2010-09-08T15:00:00","4","59.897328","17.588581","20.72","UPPSALA, SW","FM-12","ESCM ","V020","090,1,N,0050,1","01500,1,C,N","050000,1,N,1","+0167,1","+0107,1","10261,1",,,,,"08,1,+01500,1,99,9",,,,"99999,9,10236,1","7,1,008,1,+999,9","SYN070AAXX  08151 02458 45784 /0905 10167 20107 30236 40261 57008 333 88/50;",
"02458099999","2010-09-08T18:00:00","4","59.897328","17.588581","20.72","UPPSALA, SW","FM-12","ESCM ","V020","100,1,N,0030,1","99999,9,9,N","050000,1,N,1","+0120,1","+0094,1","10269,1",,,,,,,"120,M,+0185,1","999,N,+0080,1","99999,9,10244,1","3,1,008,1,+999,9","SYN076AAXX  08180 02458 35984 /1003 10120 20094 30244 40269 53008 333 10185 20080;",
"02458099999","2010-09-08T21:00:00","4","59.897328","17.588581","20.72","UPPSALA, SW","FM-12","ESCM ","V020","999,9,C,0000,1","99999,9,9,N","009000,1,N,1","+0082,1","+0076,1","10276,1",,,,,,,,,"99999,9,10250,1","2,1,006,1,+999,9","SYN060AAXX  08211 02458 45959 /0000 10082 20076 30250 40276 52006;",
"02458099999","2010-09-09T00:00:00","4","59.897328","17.588581","20.72","UPPSALA, SW","FM-12","ESCM ","V020","999,9,C,0000,1","01500,1,C,N","011000,1,N,1","+0087,1","+0084,1","10280,1",,,"20,1","4,1,06,1","08,1,+01500,1,99,9",,,,"99999,9,10254,1","2,1,004,1,+999,9","SYN076AAXX  09001 02458 47761 /0000 10087 20084 30254 40280 52004 72032 333 88/50;",
"02458099999","2010-09-09T03:00:00","4","59.897328","17.588581","20.72","UPPSALA, SW","FM-12","ESCM ","V020","090,1,N,0030,1","01500,1,C,N","035000,1,N,1","+0115,1","+0109,1","10278,1",,,,,"08,1,+01500,1,99,9",,,,"99999,9,10253,1","7,1,002,1,+999,9","SYN070AAXX  09031 02458 45781 /0903 10115 20109 30253 40278 57002 333 88/50;",
"02458099999","2010-09-09T06:00:00","4","59.897328","17.588581","20.72","UPPSALA, SW","FM-12","ESCM ","V020","100,1,N,0020,1","99999,9,9,N","035000,1,N,1","+0131,1","+0119,1","10281,1",,,,,,,"120,M,+0130,1","999,N,+0059,1","99999,9,10255,1","2,1,003,1,+999,9","SYN076AAXX  09060 02458 35981 /1002 10131 20119 30255 40281 52003 333 10130 20059;",
"02458099999","2010-09-09T09:00:00","4","59.897328","17.588581","20.72","UPPSALA, SW","FM-12","ESCM ","V020","110,1,N,0050,1","99999,9,9,N","050000,1,N,1","+0168,1","+0109,1","10280,1",,,,,"04,1,+00930,1,99,9",,,,"99999,9,10255,1","4,1,000,1,+999,9","SYN076AAXX  09091 02458 45584 /1105 10168 20109 30255 40280 54000 333 84/31 85/56;",
"02458099999","2010-09-09T12:00:00","4","59.897328","17.588581","20.72","UPPSALA, SW","FM-12","ESCM ","V020","110,1,N,0040,1","99999,9,9,N","045000,1,N,1","+0163,1","+0083,1","10276,1",,,,,"04,1,+01260,1,99,9",,,,"99999,9,10251,1","8,1,004,1,+999,9","SYN076AAXX  09121 02458 45683 /1104 10163 20083 30251 40276 58004 333 84/42 88/50;",
"02458099999","2010-09-09T15:00:00","4","59.897328","17.588581","20.72","UPPSALA, SW","FM-12","ESCM ","V020","120,1,N,0040,1","01500,1,C,N","050000,1,N,1","+0165,1","+0082,1","10265,1",,,,,"05,1,+01500,1,99,9",,,,"99999,9,10240,1","7,1,011,1,+999,9","SYN070AAXX  09151 02458 45784 /1204 10165 20082 30240 40265 57011 333 85/50;",
"02458099999","2010-09-09T18:00:00","4","59.897328","17.588581","20.72","UPPSALA, SW","FM-12","ESCM ","V020","100,1,N,0030,1","99999,9,9,N","050000,1,N,1","+0113,1","+0086,1","10264,1",,,,,,,"120,M,+0177,1","999,N,+0113,1","99999,9,10238,1","5,1,001,1,+999,9","SYN076AAXX  09181 02458 35984 /1003 10113 20086 30238 40264 55001 333 10177 20113;",
"02458099999","2010-09-09T21:00:00","4","59.897328","17.588581","20.72","UPPSALA, SW","FM-12","ESCM ","V020","110,1,N,0010,1","99999,9,9,N","011000,1,N,1","+0082,1","+0076,1","10268,1",,,,,,,,,"99999,9,10242,1","0,1,004,1,+999,9","SYN060AAXX  09211 02458 45961 /1101 10082 20076 30242 40268 50004;",
"02458099999","2010-09-10T00:00:00","4","59.897328","17.588581","20.72","UPPSALA, SW","FM-12","ESCM ","V020","999,9,C,0000,1","99999,9,9,N","000100,1,N,1","+0057,1","+0054,1","10258,1",,,"30,1","4,1,06,1","02,1,+00930,1,99,9",,,,"99999,9,10232,1","7,1,010,1,+999,9","SYN082AAXX  10001 02458 47501 /0000 10057 20054 30232 40258 57010 73031 333 82/31 83/44;",
"02458099999","2010-09-10T03:00:00","4","59.897328","17.588581","20.72","UPPSALA, SW","FM-12","ESCM ","V020","999,9,C,0000,1","01410,1,C,N","009000,1,N,1","+0071,1","+0068,1","10245,1",,,"20,1","4,1,03,1","08,1,+01410,1,99,9",,,,"99999,9,10220,1","8,1,012,1,+999,9","SYN076AAXX  10031 02458 47659 /0000 10071 20068 30220 40245 58012 72032 333 88/47;",
"02458099999","2010-09-10T06:00:00","4","59.897328","17.588581","20.72","UPPSALA, SW","FM-12","ESCM ","V020","999,9,C,0000,1","99999,9,9,N","022000,1,N,1","+0105,1","+0102,1","10240,1",,,"00,1","4,1,06,1",,,"120,M,+0121,1","999,N,+0044,1","99999,9,10215,1","7,1,005,1,+999,9","SYN082AAXX  10061 02458 37972 /0000 10105 20102 30215 40240 57005 70032 333 10121 20044;",
"02458099999","2010-09-10T09:00:00","4","59.897328","17.588581","20.72","UPPSALA, SW","FM-12","ESCM ","V020","090,1,N,0060,1","99999,9,9,N","040000,1,N,1","+0168,1","+0111,1","10230,1",,,,,"02,1,+00780,1,99,9",,,,"99999,9,10205,1","7,1,010,1,+999,9","SYN070AAXX  10091 02458 45582 /0906 10168 20111 30205 40230 57010 333 82/26;",
"02458099999","2010-09-10T12:00:00","4","59.897328","17.588581","20.72","UPPSALA, SW","FM-12","ESCM ","V020","100,1,N,0060,1","99999,9,9,N","040000,1,N,1","+0167,1","+0099,1","10217,1",,,,,"03,1,+01140,1,99,9",,,,"99999,9,10192,1","7,1,013,1,+999,9","SYN070AAXX  10121 02458 45682 /1006 10167 20099 30192 40217 57013 333 83/38;",
"02458099999","2010-09-10T15:00:00","4","59.897328","17.588581","20.72","UPPSALA, SW","FM-12","ESCM ","V020","100,1,N,0050,1","01500,1,C,N","040000,1,N,1","+0157,1","+0097,1","10206,1",,,,,"01,1,+00960,1,99,9","06,1,+01500,1,99,9",,,"99999,9,10181,1","7,1,011,1,+999,9","SYN082AAXX  10151 02458 45582 /1005 10157 20097 30181 40206 57011 333 81/32 86/50 87/67;",
"02458099999","2010-09-10T18:00:00","4","59.897328","17.588581","20.72","UPPSALA, SW","FM-12","ESCM ","V020","080,1,N,0030,1","99999,9,9,N","035000,1,N,1","+0116,1","+0099,1","10201,1",,,,,,,"120,M,+0180,1","999,N,+0105,1","99999,9,10175,1","7,1,006,1,+999,9","SYN076AAXX  10180 02458 35981 /0803 10116 20099 30175 40201 57006 333 10180 20105;",
"02458099999","2010-09-10T21:00:00","4","59.897328","17.588581","20.72","UPPSALA, SW","FM-12","ESCM ","V020","060,1,N,0030,1","01800,1,C,N","025000,1,N,1","+0116,1","+0106,1","10194,1",,,,,"08,1,+01800,1,99,9",,,,"99999,9,10169,1","7,1,007,1,+999,9","SYN070AAXX  10211 02458 45775 /0603 10116 20106 30169 40194 57007 333 88/56;",
"02458099999","2010-09-11T00:00:00","4","59.897328","17.588581","20.72","UPPSALA, SW","FM-12","ESCM ","V020","060,1,N,0020,1","99999,9,9,N","024000,1,N,1","+0117,1","+0109,1","10183,1",,,,,"01,1,+00300,1,99,9",,,,"99999,9,10158,1","7,1,011,1,+999,9","SYN076AAXX  11001 02458 45474 /0602 10117 20109 30158 40183 57011 333 81/10 88/29;",
"02458099999","2010-09-11T03:00:00","4","59.897328","17.588581","20.72","UPPSALA, SW","FM-12","ESCM ","V020","010,1,N,0010,1","99999,9,9,N","013000,1,N,1","+0113,1","+0109,1","10178,1",,,"00,1","8,1,03,1","01,1,+00480,1,99,9",,,,"99999,9,10152,1","7,1,006,1,+999,9","SYN082AAXX  11031 02458 47463 /0101 10113 20109 30152 40178 57006 70085 333 81/16 88/23;",
"02458099999","2010-09-11T06:00:00","4","59.897328","17.588581","20.72","UPPSALA, SW","FM-12","ESCM ","V020","050,1,N,0010,1","00150,1,C,N","021000,1,N,1","+0123,1","+0118,1","10171,1",,,"00,1","8,1,06,1","09,1,+00150,1,99,9",,"120,M,+0123,1","999,N,+0107,1","99999,9,10146,1","7,1,007,1,+999,9","SYN088AAXX  11061 02458 37/71 /0501 10123 20118 30146 40171 57007 70085 333 10123 20107 89/05;",
"02458099999","2010-09-11T09:00:00","4","59.897328","17.588581","20.72","UPPSALA, SW","FM-12","ESCM ","V020","070,1,N,0010,1","00240,1,C,N","035000,1,N,1","+0145,1","+0129,1","10175,1",,,,,"07,1,+00240,1,99,9",,,,"99999,9,10150,1","0,1,004,1,+999,9","SYN076AAXX  11091 02458 45381 /0701 10145 20129 30150 40175 50004 333 87/08 88/50;",
"02458099999","2010-09-11T12:00:00","4","59.897328","17.588581","20.72","UPPSALA, SW","FM-12","ESCM ","V020","200,1,N,0020,1","99999,9,9,N","040000,1,N,1","+0158,1","+0134,1","10175,1",,,,,"03,1,+00480,1,99,9",,,,"99999,9,10150,1","4,1,000,1,+999,9","SYN076AAXX  11121 02458 45482 /2002 10158 20134 30150 40175 54000 333 83/16 88/24;",
"02458099999","2010-09-11T15:00:00","4","59.897328","17.588581","20.72","UPPSALA, SW","FM-12","ESCM ","V020","170,1,N,0020,1","22000,1,C,N","045000,1,N,1","+0164,1","+0134,1","10172,1",,,,,"02,1,+00510,1,99,9","03,1,+00750,1,99,9",,,"99999,9,10147,1","7,1,003,1,+999,9","SYN082AAXX  11151 02458 45483 /1702 10164 20134 30147 40172 57003 333 82/17 83/25 88/56;",
"02458099999","2010-09-11T18:00:00","4","59.897328","17.588581","20.72","UPPSALA, SW","FM-12","ESCM ","V020","140,1,N,0010,1","01800,1,C,N","040000,1,N,1","+0145,1","+0130,1","10172,1",,,,,"08,1,+01800,1,99,9",,"120,M,+0166,1","999,N,+0123,1","99999,9,10148,1","4,1,000,1,+999,9","SYN082AAXX  11180 02458 35782 /1401 10145 20130 30148 40172 54000 333 10166 20123 88/56;",
"02458099999","2010-09-11T21:00:00","4","59.897328","17.588581","20.72","UPPSALA, SW","FM-12","ESCM ","V020","170,1,N,0020,1","04500,1,C,N","025000,1,N,1","+0130,1","+0126,1","10172,1",,,,,"08,1,+04500,1,99,9",,,,"99999,9,10147,1","4,1,000,1,+999,9","SYN070AAXX  11211 02458 45975 /1702 10130 20126 30147 40172 54000 333 88/65;",
"02458099999","2010-09-12T00:00:00","4","59.897328","17.588581","20.72","UPPSALA, SW","FM-12","ESCM ","V020","160,1,N,0020,1","99999,9,9,N","013000,1,N,1","+0129,1","+0125,1","10164,1",,,,,"01,1,+04500,1,99,9",,,,"99999,9,10139,1","7,1,008,1,+999,9","SYN070AAXX  12001 02458 45963 /1602 10129 20125 30139 40164 57008 333 81/65;",
"02458099999","2010-09-12T03:00:00","4","59.897328","17.588581","20.72","UPPSALA, SW","FM-12","ESCM ","V020","180,1,N,0030,1","00180,1,C,N","009000,1,N,1","+0140,1","+0135,1","10156,1",,,"10,1","2,1,03,1","07,1,+00180,1,99,9",,,,"99999,9,10131,1","7,1,009,1,+999,9","SYN082AAXX  12031 02458 47359 /1803 10140 20135 30131 40156 57009 71010 333 87/06 88/10;",
"02458099999","2010-09-12T06:00:00","4","59.897328","17.588581","20.72","UPPSALA, SW","FM-12","ESCM ","V020","180,1,N,0030,1","00240,1,C,N","011000,1,N,1","+0150,1","+0142,1","10150,1",,,,,"08,1,+00240,1,99,9",,"120,M,+0150,1","999,N,+0113,1","99999,9,10125,1","7,1,006,1,+999,9","SYN082AAXX  12061 02458 35361 /1803 10150 20142 30125 40150 57006 333 10150 20113 88/08;",
"02458099999","2010-09-12T09:00:00","4","59.897328","17.588581","20.72","UPPSALA, SW","FM-12","ESCM ","V020","180,1,N,0040,1","00420,1,C,N","021000,1,N,1","+0168,1","+0148,1","10151,1",,,,,"08,1,+00420,1,99,9",,,,"99999,9,10126,1","2,1,001,1,+999,9","SYN070AAXX  12091 02458 45471 /1804 10168 20148 30126 40151 52001 333 88/14;",
"02458099999","2010-09-12T12:00:00","4","59.897328","17.588581","20.72","UPPSALA, SW","FM-12","ESCM ","V020","210,1,N,0040,1","00780,1,C,N","030000,1,N,1","+0185,1","+0150,1","10152,1",,,,,"04,1,+00570,1,99,9","05,1,+00780,1,99,9",,,"99999,9,10128,1","2,1,002,1,+999,9","SYN082AAXX  12121 02458 45480 /2104 10185 20150 30128 40152 52002 333 84/19 85/26 88/59;",
"02458099999","2010-09-12T15:00:00","4","59.897328","17.588581","20.72","UPPSALA, SW","FM-12","ESCM ","V020","210,1,N,0040,1","99999,9,9,N","045000,1,N,1","+0195,1","+0142,1","10149,1",,,,,"03,1,+00930,1,99,9",,,,"99999,9,10125,1","7,1,003,1,+999,9","SYN070AAXX  12151 02458 45583 /2104 10195 20142 30125 40149 57003 333 83/31;",
"02458099999","2010-09-12T18:00:00","4","59.897328","17.588581","20.72","UPPSALA, SW","FM-12","ESCM ","V020","190,1,N,0030,1","02700,1,C,N","040000,1,N,1","+0170,1","+0150,1","10151,1",,,,,"06,1,+02700,1,99,9",,"120,M,+0197,1","999,N,+0150,1","99999,9,10126,1","2,1,002,1,+999,9","SYN082AAXX  12181 02458 35982 /1903 10170 20150 30126 40151 52002 333 10197 20150 86/59;",
"02458099999","2010-09-12T21:00:00","4","59.897328","17.588581","20.72","UPPSALA, SW","FM-12","ESCM ","V020","180,1,N,0030,1","99999,9,9,N","022000,1,N,1","+0158,1","+0148,1","10156,1",,,,,"02,1,+00450,1,99,9",,,,"99999,9,10131,1","2,1,005,1,+999,9","SYN076AAXX  12211 02458 45472 /1803 10158 20148 30131 40156 52005 333 82/15 88/61;",
"02458099999","2010-09-13T00:00:00","4","59.897328","17.588581","20.72","UPPSALA, SW","FM-12","ESCM ","V020","200,1,N,0020,1","99999,9,9,N","022000,1,N,1","+0149,1","+0141,1","10157,1",,,,,"01,1,+04500,1,99,9",,,,"99999,9,10132,1","4,1,000,1,+999,9","SYN070AAXX  13001 02458 45972 /2002 10149 20141 30132 40157 54001 333 81/65;",
"02458099999","2010-09-13T03:00:00","4","59.897328","17.588581","20.72","UPPSALA, SW","FM-12","ESCM ","V020","210,1,N,0020,1","99999,9,9,N","025000,1,N,1","+0133,1","+0124,1","10158,1",,,,,"03,1,+03000,1,99,9",,,,"99999,9,10133,1","2,1,002,1,+999,9","SYN076AAXX  13031 02458 45975 /2102 10133 20124 30133 40158 52002 333 83/60 86/68;",
"02458099999","2010-09-13T06:00:00","4","59.897328","17.588581","20.72","UPPSALA, SW","FM-12","ESCM ","V020","220,1,N,0020,1","02700,1,C,N","030000,1,N,1","+0133,1","+0124,1","10160,1",,,,,"05,1,+02700,1,99,9",,"120,M,+0172,1","999,N,+0127,1","99999,9,10135,1","2,1,001,1,+999,9","SYN082AAXX  13060 02458 35980 /2202 10133 20124 30135 40160 52001 333 10172 20127 85/59;",
"02458099999","2010-09-13T09:00:00","4","59.897328","17.588581","20.72","UPPSALA, SW","FM-12","ESCM ","V020","180,1,N,0020,1","99999,9,9,N","026000,1,N,1","+0138,1","+0128,1","10163,1",,,"52,1","6,1,03,1","02,1,+00240,1,99,9",,,,"99999,9,10138,1","0,1,003,1,+999,9","SYN082AAXX  13091 02458 47376 /1802 10138 20128 30138 40163 50003 75265 333 82/08 87/57;",
"02458099999","2010-09-13T12:00:00","4","59.897328","17.588581","20.72","UPPSALA, SW","FM-12","ESCM ","V020","210,1,N,0020,1","99999,9,9,N","040000,1,N,1","+0153,1","+0122,1","10155,1",,,"00,1","6,1,06,1","02,1,+00540,1,99,9",,,,"99999,9,10130,1","7,1,008,1,+999,9","SYN082AAXX  13121 02458 47482 /2102 10153 20122 30130 40155 57008 70065 333 82/18 84/58;",
"02458099999","2010-09-13T15:00:00","4","59.897328","17.588581","20.72","UPPSALA, SW","FM-12","ESCM ","V020","180,1,N,0030,1","99999,9,9,N","030000,1,N,1","+0146,1","+0133,1","10149,1",,,"23,1","8,1,03,1","02,1,+00210,1,99,9",,,,"99999,9,10124,1","8,1,006,1,+999,9","SYN076AAXX  13151 02458 47380 /1803 10146 20133 30124 40149 58006 72386 333 82/07;",
"02458099999","2010-09-13T18:00:00","4","59.897328","17.588581","20.72","UPPSALA, SW","FM-12","ESCM ","V020","170,1,N,0020,1","01200,1,C,N","017000,1,N,1","+0127,1","+0122,1","10144,1","12,0010,9,1",,"00,1","8,1,06,1","02,1,+00180,1,99,9","04,1,+01200,1,99,9","120,M,+0154,1","999,N,+0125,1","99999,9,10119,1","7,1,005,1,+999,9","SYN106AAXX  13181 02458 17367 /1702 10127 20122 30119 40144 57005 60012 70086 333 10154 20125 82/06 84/40 87/50;",
"02458099999","2010-09-13T21:00:00","4","59.897328","17.588581","20.72","UPPSALA, SW","FM-12","ESCM ","V020","210,1,N,0030,1","99999,9,9,N","010000,1,N,1","+0118,1","+0113,1","10139,1",,,,,"04,1,+00120,1,99,9",,,,"99999,9,10114,1","7,1,005,1,+999,9","SYN070AAXX  13211 02458 45260 /2103 10118 20113 30114 40139 57005 333 84/04;",
"02458099999","2010-09-14T00:00:00","4","59.897328","17.588581","20.72","UPPSALA, SW","FM-12","ESCM ","V020","210,1,N,0040,1","99999,9,9,N","021000,1,N,1","+0107,1","+0101,1","10125,1",,,,,,,,,"99999,9,10100,1","8,1,014,1,+999,9","SYN060AAXX  14001 02458 45971 /2104 10107 20101 30100 40125 58014;",
"02458099999","2010-09-14T03:00:00","4","59.897328","17.588581","20.72","UPPSALA, SW","FM-12","ESCM ","V020","210,1,N,0020,1","99999,9,9,N","999999,9,N,1","+0089,1","+0084,1","10111,1",,,,,,,,,"99999,9,10086,1","8,1,014,1,+999,9","SYN060AAXX  14031 02458 469// /2102 10089 20084 30086 40111 58014;",
"02458099999","2010-09-14T06:00:00","4","59.897328","17.588581","20.72","UPPSALA, SW","FM-12","ESCM ","V020","160,1,N,0030,1","99999,9,9,N","999999,9,N,1","+0103,1","+0096,1","10092,1",,,,,,,"120,M,+0128,1","999,N,+0071,1","99999,9,10067,1","8,1,019,1,+999,9","SYN076AAXX  14061 02458 469// /1603 10103 20096 30067 40092 58019 333 10128 20071;",
"02458099999","2010-09-14T09:00:00","4","59.897328","17.588581","20.72","UPPSALA, SW","FM-12","ESCM ","V020","180,1,N,0070,1","99999,9,9,N","040000,1,N,1","+0153,1","+0114,1","10070,1",,,,,"03,1,+00600,1,99,9",,,,"99999,9,10045,1","8,1,022,1,+999,9","SYN076AAXX  14091 02458 45582 /1807 10153 20114 30045 40070 58022 333 83/20 86/67;",
"02458099999","2010-09-14T12:00:00","4","59.897328","17.588581","20.72","UPPSALA, SW","FM-12","ESCM ","V020","170,1,N,0060,1","00930,1,C,N","040000,1,N,1","+0152,1","+0104,1","10041,1",,,,,"08,1,+00930,1,99,9",,,,"99999,9,10017,1","8,1,028,1,+999,9","SYN070AAXX  14121 02458 45582 /1706 10152 20104 30017 40041 58028 333 88/31;",
"02458099999","2010-09-14T15:00:00","4","59.897328","17.588581","20.72","UPPSALA, SW","FM-12","ESCM ","V020","170,1,N,0050,1","00600,1,C,N","007000,1,N,1","+0132,1","+0124,1","10015,1",,,"52,1","6,1,03,1","03,1,+00270,1,99,9","06,1,+00600,1,99,9",,,"99999,9,09991,1","7,1,026,1,+999,9","SYN088AAXX  14151 02458 47357 /1705 10132 20124 39991 40015 57026 75265 333 83/09 86/20 88/26;",
"02458099999","2010-09-14T18:00:00","4","59.897328","17.588581","20.72","UPPSALA, SW","FM-12","ESCM ","V020","180,1,N,0060,1","00240,1,C,N","045000,1,N,1","+0130,1","+0121,1","09991,1","01,0000,2,1",,"22,1","8,1,06,1","07,1,+00240,1,99,9",,"120,M,+0168,1","999,N,+0103,1","99999,9,09967,1","7,1,024,1,+999,9","SYN100AAXX  14181 02458 27383 /1806 10130 20121 39967 49991 57024 72286 333 10168 20103 69915 87/08 88/11;",
"02458099999","2010-09-14T21:00:00","4","59.897328","17.588581","20.72","UPPSALA, SW","FM-12","ESCM ","V020","180,1,N,0050,1","00300,1,C,N","050000,1,N,1","+0129,1","+0119,1","09976,1",,,,,"07,1,+00300,1,99,9",,,,"99999,9,09952,1","8,1,015,1,+999,9","SYN070AAXX  14211 02458 45484 /1805 10129 20119 39952 49976 58015 333 87/10;",
"02458099999","2010-09-15T00:00:00","4","59.897328","17.588581","20.72","UPPSALA, SW","FM-12","ESCM ","V020","170,1,N,0050,1","00360,1,C,N","045000,1,N,1","+0133,1","+0123,1","09953,1",,,,,"08,1,+00360,1,99,9",,,,"99999,9,09928,1","8,1,024,1,+999,9","SYN070AAXX  15001 02458 45483 /1705 10133 20123 39928 49953 58024 333 88/12;",
"02458099999","2010-09-15T03:00:00","4","59.897328","17.588581","20.72","UPPSALA, SW","FM-12","ESCM ","V020","180,1,N,0040,1","22000,1,C,N","028000,1,N,1","+0137,1","+0130,1","09930,1",,,"81,1","8,1,03,1","02,1,+00330,1,99,9","03,1,+00630,1,99,9",,,"99999,9,09906,1","8,1,022,1,+999,9","SYN088AAXX  15031 02458 47478 /1804 10137 20130 39906 49930 58022 78186 333 82/11 83/21 85/39;",
"02458099999","2010-09-15T06:00:00","4","59.897328","17.588581","20.72","UPPSALA, SW","FM-12","ESCM ","V020","220,1,N,0030,1","99999,9,9,N","030000,1,N,1","+0114,1","+0103,1","09921,1","12,0020,9,1",,"00,1","8,1,06,1",,,"120,M,+0140,1","999,N,+0113,1","99999,9,09897,1","6,1,009,1,+999,9","SYN088AAXX  15061 02458 17980 /2203 10114 20103 39897 49921 56009 60022 70085 333 10140 20113;",
"02458099999","2010-09-15T09:00:00","4","59.897328","17.588581","20.72","UPPSALA, SW","FM-12","ESCM ","V020","220,1,N,0040,1","00330,1,C,N","026000,1,N,1","+0127,1","+0112,1","09922,1",,,"00,1","8,1,03,1","06,1,+00330,1,99,9",,,,"99999,9,09897,1","5,1,000,1,+999,9","SYN082AAXX  15091 02458 47476 /2204 10127 20112 39897 49922 55000 70086 333 86/11 87/19;",
"02458099999","2010-09-15T12:00:00","4","59.897328","17.588581","20.72","UPPSALA, SW","FM-12","ESCM ","V020","220,1,N,0040,1","99999,9,9,N","040000,1,N,1","+0131,1","+0089,1","09923,1",,,"00,1","6,1,06,1","04,1,+00690,1,99,9",,,,"99999,9,09899,1","2,1,002,1,+999,9","SYN076AAXX  15121 02458 47582 /2204 10131 20089 39899 49923 52002 70065 333 84/23;",
"02458099999","2010-09-15T15:00:00","4","59.897328","17.588581","20.72","UPPSALA, SW","FM-12","ESCM ","V020","210,1,N,0060,1","99999,9,9,N","045000,1,N,1","+0136,1","+0074,1","09921,1",,,,,,,,,"99999,9,09896,1","8,1,003,1,+999,9","SYN060AAXX  15151 02458 45983 /2106 10136 20074 39896 49921 58003;",
"02458099999","2010-09-15T18:00:00","4","59.897328","17.588581","20.72","UPPSALA, SW","FM-12","ESCM ","V020","200,1,N,0030,1","99999,9,9,N","050000,1,N,1","+0105,1","+0072,1","09932,1","12,0005,9,1",,,,,,"120,M,+0142,1","999,N,+0100,1","99999,9,09908,1","2,1,012,1,+999,9","SYN082AAXX  15181 02458 15984 /2003 10105 20072 39908 49932 52012 69952 333 10142 20100;",
"02458099999","2010-09-15T21:00:00","4","59.897328","17.588581","20.72","UPPSALA, SW","FM-12","ESCM ","V020","180,1,N,0030,1","99999,9,9,N","050000,1,N,1","+0085,1","+0060,1","09939,1",,,,,,,,,"99999,9,09915,1","2,1,007,1,+999,9","SYN060AAXX  15211 02458 45984 /1803 10085 20060 39915 49939 52007;",
"02458099999","2010-09-16T00:00:00","4","59.897328","17.588581","20.72","UPPSALA, SW","FM-12","ESCM ","V020","130,1,N,0030,1","99999,9,9,N","050000,1,N,1","+0080,1","+0068,1","09928,1",,,,,"03,1,+02400,1,99,9",,,,"99999,9,09903,1","8,1,012,1,+999,9","SYN070AAXX  16001 02458 45984 /1303 10080 20068 39903 49928 58012 333 83/58;",
"02458099999","2010-09-16T03:00:00","4","59.897328","17.588581","20.72","UPPSALA, SW","FM-12","ESCM ","V020","120,1,N,0050,1","01140,1,C,N","040000,1,N,1","+0095,1","+0085,1","09899,1",,,"61,1","8,1,03,1","05,1,+01140,1,99,9",,,,"99999,9,09874,1","8,1,029,1,+999,9","SYN082AAXX  16031 02458 47682 /1205 10095 20085 39874 49899 58029 76186 333 85/38 87/56;",
"02458099999","2010-09-16T06:00:00","4","59.897328","17.588581","20.72","UPPSALA, SW","FM-12","ESCM ","V020","150,1,N,0050,1","99999,9,9,N","029000,1,N,1","+0106,1","+0089,1","09876,1","12,0041,9,1","24,0048,9,1","81,1","8,1,06,1","04,1,+00990,1,99,9",,"120,M,+0106,1","999,N,+0064,1","99999,9,09851,1","7,1,023,1,+999,9","SYN112AAXX  16061 02458 07579 /1505 10106 20089 39851 49876 57023 60042 78186 333 10106 20064 69915 70047 84/33 85/45;",
"02458099999","2010-09-16T09:00:00","4","59.897328","17.588581","20.72","UPPSALA, SW","FM-12","ESCM ","V020","170,1,N,0060,1","01140,1,C,N","045000,1,N,1","+0130,1","+0093,1","09871,1",,,"00,1","8,1,03,1","01,1,+00690,1,99,9","07,1,+01140,1,99,9",,,"99999,9,09847,1","7,1,004,1,+999,9","SYN088AAXX  16091 02458 47583 /1706 10130 20093 39847 49871 57004 70082 333 81/23 87/38 88/50;",
"02458099999","2010-09-16T12:00:00","4","59.897328","17.588581","20.72","UPPSALA, SW","FM-12","ESCM ","V020","170,1,N,0050,1","01470,1,C,N","050000,1,N,1","+0133,1","+0088,1","09875,1",,,"00,1","8,1,06,1","02,1,+00870,1,99,9","04,1,+01470,1,99,9",,,"99999,9,09851,1","2,1,004,1,+999,9","SYN088AAXX  16121 02458 47584 /1705 10133 20088 39851 49875 52004 70086 333 82/29 84/49 85/68;",
"02458099999","2010-09-16T15:00:00","4","59.897328","17.588581","20.72","UPPSALA, SW","FM-12","ESCM ","V020","210,1,N,0020,1","99999,9,9,N","050000,1,N,1","+0122,1","+0107,1","09891,1",,,"00,1","8,1,03,1","03,1,+00450,1,99,9",,,,"99999,9,09867,1","3,1,015,1,+999,9","SYN082AAXX  16151 02458 47484 /2102 10122 20107 39867 49891 53015 70086 333 83/15 86/56;",
"02458099999","2010-09-16T18:00:00","4","59.897328","17.588581","20.72","UPPSALA, SW","FM-12","ESCM ","V020","180,1,N,0030,1","99999,9,9,N","050000,1,N,1","+0095,1","+0082,1","09913,1","12,0030,9,1",,"00,1","8,1,06,1",,,"120,M,+0145,1","999,N,+0094,1","99999,9,09888,1","2,1,022,1,+999,9","SYN088AAXX  16181 02458 17984 /1803 10095 20082 39888 49913 52022 60032 70086 333 10145 20094;",
"02458099999","2010-09-16T21:00:00","4","59.897328","17.588581","20.72","UPPSALA, SW","FM-12","ESCM ","V020","190,1,N,0040,1","99999,9,9,N","050000,1,N,1","+0102,1","+0082,1","09919,1",,,,,"02,1,+01800,1,99,9",,,,"99999,9,09895,1","2,1,006,1,+999,9","SYN070AAXX  16211 02458 45884 /1904 10102 20082 39895 49919 52006 333 82/56;",
"02458099999","2010-09-17T00:00:00","4","59.897328","17.588581","20.72","UPPSALA, SW","FM-12","ESCM ","V020","170,1,N,0040,1","02100,1,C,N","045000,1,N,1","+0110,1","+0090,1","09921,1",,,,,"08,1,+02100,1,99,9",,,,"99999,9,09897,1","2,1,002,1,+999,9","SYN070AAXX  17001 02458 45883 /1704 10110 20090 39897 49921 52002 333 88/57;",
"02458099999","2010-09-17T03:00:00","4","59.897328","17.588581","20.72","UPPSALA, SW","FM-12","ESCM ","V020","160,1,N,0040,1","01410,1,C,N","050000,1,N,1","+0107,1","+0091,1","09921,1",,,,,"08,1,+01410,1,99,9",,,,"99999,9,09897,1","4,1,000,1,+999,9","SYN070AAXX  17031 02458 45684 /1604 10107 20091 39897 49921 54000 333 88/47;",
"02458099999","2010-09-17T06:00:00","4","59.897328","17.588581","20.72","UPPSALA, SW","FM-12","ESCM ","V020","200,1,N,0040,1","99999,9,9,N","040000,1,N,1","+0109,1","+0087,1","09926,1","24,0030,9,1",,,,"04,1,+03600,1,99,9",,"120,M,+0112,1","999,N,+0088,1","99999,9,09901,1","2,1,005,1,+999,9","SYN088AAXX  17061 02458 35982 /2004 10109 20087 39901 49926 52005 333 10112 20088 70031 84/62;",
"02458099999","2010-09-17T09:00:00","4","59.897328","17.588581","20.72","UPPSALA, SW","FM-12","ESCM ","V020","210,1,N,0060,1","99999,9,9,N","040000,1,N,1","+0126,1","+0080,1","09931,1",,,,,"02,1,+00810,1,99,9",,,,"99999,9,09907,1","2,1,006,1,+999,9","SYN070AAXX  17091 02458 45582 /2106 10126 20080 39907 49931 52006 333 82/27;",
"02458099999","2010-09-17T12:00:00","4","59.897328","17.588581","20.72","UPPSALA, SW","FM-12","ESCM ","V020","180,1,N,0060,1","99999,9,9,N","040000,1,N,1","+0145,1","+0081,1","09931,1",,,,,"01,1,+01110,1,99,9",,,,"99999,9,09907,1","0,1,000,1,+999,9","SYN076AAXX  17121 02458 45682 /1806 10145 20081 39907 49931 50000 333 81/37 85/50;",
"02458099999","2010-09-17T15:00:00","4","59.897328","17.588581","20.72","UPPSALA, SW","FM-12","ESCM ","V020","180,1,N,0010,1","01500,1,C,N","035000,1,N,1","+0112,1","+0095,1","09932,1",,,"23,1","8,1,03,1","05,1,+01500,1,99,9",,,,"99999,9,09907,1","0,1,001,1,+999,9","SYN076AAXX  17151 02458 47781 /1801 10112 20095 39907 49932 50001 72386 333 85/50;",
"02458099999","2010-09-17T18:00:00","4","59.897328","17.588581","20.72","UPPSALA, SW","FM-12","ESCM ","V020","160,1,N,0030,1","99999,9,9,N","050000,1,N,1","+0098,1","+0087,1","09934,1","12,0041,9,1",,"00,1","8,1,06,1",,,"120,M,+0146,1","999,N,+0097,1","99999,9,09910,1","2,1,002,1,+999,9","SYN088AAXX  17181 02458 17984 /1603 10098 20087 39910 49934 52002 60042 70086 333 10146 20097;",
"02458099999","2010-09-17T21:00:00","4","59.897328","17.588581","20.72","UPPSALA, SW","FM-12","ESCM ","V020","170,1,N,0020,1","99999,9,9,N","050000,1,N,1","+0081,1","+0075,1","09937,1",,,,,"04,1,+01800,1,99,9",,,,"99999,9,09912,1","2,1,002,1,+999,9","SYN070AAXX  17211 02458 45784 /1702 10081 20075 39912 49937 52002 333 84/56;",
"02458099999","2010-09-18T00:00:00","4","59.897328","17.588581","20.72","UPPSALA, SW","FM-12","ESCM ","V020","190,1,N,0020,1","01800,1,C,N","050000,1,N,1","+0096,1","+0089,1","09933,1",,,,,"08,1,+01800,1,99,9",,,,"99999,9,09908,1","7,1,004,1,+999,9","SYN070AAXX  18001 02458 45784 /1902 10096 20089 39908 49933 57004 333 88/56;",
"02458099999","2010-09-18T03:00:00","4","59.897328","17.588581","20.72","UPPSALA, SW","FM-12","ESCM ","V020","140,1,N,0020,1","00360,1,C,N","030000,1,N,1","+0097,1","+0092,1","09933,1",,,"81,1","8,1,03,1","08,1,+00360,1,99,9",,,,"99999,9,09909,1","0,1,001,1,+999,9","SYN076AAXX  18031 02458 47480 /1402 10097 20092 39909 49933 50001 78186 333 88/12;",
"02458099999","2010-09-18T06:00:00","4","59.897328","17.588581","20.72","UPPSALA, SW","FM-12","ESCM ","V020","150,1,N,0010,1","99999,9,9,N","024000,1,N,1","+0103,1","+0097,1","09933,1","12,0000,2,1","24,0041,9,1","00,1","8,1,06,1","03,1,+00330,1,99,9",,"120,M,+0104,1","999,N,+0079,1","99999,9,09908,1","4,1,000,1,+999,9","SYN106AAXX  18061 02458 17474 /1501 10103 20097 39908 49933 54001 69912 70086 333 10104 20079 70040 83/11 88/56;",
"02458099999","2010-09-18T09:00:00","4","59.897328","17.588581","20.72","UPPSALA, SW","FM-12","ESCM ","V020","200,1,N,0020,1","00540,1,C,N","045000,1,N,1","+0117,1","+0093,1","09935,1",,,,,"04,1,+00450,1,99,9","06,1,+00540,1,99,9",,,"99999,9,09910,1","2,1,002,1,+999,9","SYN082AAXX  18091 02458 45483 /2002 10117 20093 39910 49935 52002 333 84/15 86/18 88/56;",
"02458099999","2010-09-18T12:00:00","4","59.897328","17.588581","20.72","UPPSALA, SW","FM-12","ESCM ","V020","290,1,N,0040,1","99999,9,9,N","025000,1,N,1","+0103,1","+0091,1","09932,1",,,"81,1","8,1,06,1","04,1,+00750,1,99,9",,,,"99999,9,09907,1","7,1,003,1,+999,9","SYN082AAXX  18121 02458 47575 /2904 10103 20091 39907 49932 57003 78186 333 84/25 85/37;",
"02458099999","2010-09-18T15:00:00","4","59.897328","17.588581","20.72","UPPSALA, SW","FM-12","ESCM ","V020","360,1,N,0020,1","01500,1,C,N","050000,1,N,1","+0105,1","+0094,1","09938,1",,,"22,1","8,1,03,1","08,1,+01500,1,99,9",,,,"99999,9,09914,1","3,1,007,1,+999,9","SYN076AAXX  18151 02458 47784 /3602 10105 20094 39914 49938 53007 72286 333 88/50;",
"02458099999","2010-09-18T18:00:00","4","59.897328","17.588581","20.72","UPPSALA, SW","FM-12","ESCM ","V020","290,1,N,0030,1","99999,9,9,N","019000,1,N,1","+0097,1","+0092,1","09951,1","12,0320,9,1",,"00,1","8,1,06,1","02,1,+01290,1,99,9",,"120,M,+0124,1","999,N,+0093,1","99999,9,09926,1","3,1,012,1,+999,9","SYN100AAXX  18181 02458 17669 /2903 10097 20092 39926 49951 53012 60322 70086 333 10124 20093 82/43 86/60;",
"02458099999","2010-09-18T21:00:00","4","59.897328","17.588581","20.72","UPPSALA, SW","FM-12","ESCM ","V020","250,1,N,0010,1","99999,9,9,N","030000,1,N,1","+0078,1","+0073,1","09966,1",,,,,"03,1,+03300,1,99,9",,,,"99999,9,09941,1","2,1,015,1,+999,9","SYN070AAXX  18211 02458 45980 /2501 10078 20073 39941 49966 52015 333 83/61;",
"02458099999","2010-09-19T00:00:00","4","59.897328","17.588581","20.72","UPPSALA, SW","FM-12","ESCM ","V020","240,1,N,0020,1","02100,1,C,N","045000,1,N,1","+0076,1","+0073,1","09968,1",,,"00,1","4,1,06,1","08,1,+02100,1,99,9",,,,"99999,9,09943,1","2,1,003,1,+999,9","SYN076AAXX  19001 02458 47883 /2402 10076 20073 39943 49968 52003 70032 333 88/57;",
"02458099999","2010-09-19T03:00:00","4","59.897328","17.588581","20.72","UPPSALA, SW","FM-12","ESCM ","V020","200,1,N,0010,1","02100,1,C,N","028000,1,N,1","+0072,1","+0068,1","09976,1",,,"23,1","8,1,03,1","08,1,+02100,1,99,9",,,,"99999,9,09951,1","2,1,008,1,+999,9","SYN076AAXX  19031 02458 47878 /2001 10072 20068 39951 49976 52008 72386 333 88/57;",
"02458099999","2010-09-19T06:00:00","4","59.897328","17.588581","20.72","UPPSALA, SW","FM-12","ESCM ","V020","230,1,N,0010,1","02100,1,C,N","040000,1,N,1","+0079,1","+0075,1","09986,1","12,0000,2,1","24,0315,9,1","00,1","8,1,06,1","08,1,+02100,1,99,9",,"120,M,+0097,1","999,N,+0054,1","99999,9,09961,1","2,1,010,1,+999,9","SYN100AAXX  19061 02458 17882 /2301 10079 20075 39961 49986 52010 69912 70082 333 10097 20054 70316 88/57;",
"02458099999","2010-09-19T09:00:00","4","59.897328","17.588581","20.72","UPPSALA, SW","FM-12","ESCM ","V020","260,1,N,0020,1","99999,9,9,N","050000,1,N,1","+0109,1","+0093,1","10003,1",,,,,"03,1,+00240,1,99,9",,,,"99999,9,09978,1","2,1,018,1,+999,9","SYN076AAXX  19091 02458 45384 /2602 10109 20093 39978 40003 52018 333 83/08 88/57;",
"02458099999","2010-09-19T12:00:00","4","59.897328","17.588581","20.72","UPPSALA, SW","FM-12","ESCM ","V020","260,1,N,0020,1","01050,1,C,N","040000,1,N,1","+0137,1","+0090,1","10011,1",,,,,"02,1,+00720,1,99,9","04,1,+01050,1,99,9",,,"99999,9,09987,1","2,1,008,1,+999,9","SYN082AAXX  19121 02458 45582 /2602 10137 20090 39987 40011 52008 333 82/24 84/35 88/57;",
"02458099999","2010-09-19T15:00:00","4","59.897328","17.588581","20.72","UPPSALA, SW","FM-12","ESCM ","V020","220,1,N,0020,1","99999,9,9,N","030000,1,N,1","+0113,1","+0095,1","10020,1",,,"62,1","8,1,03,1","03,1,+01800,1,99,9",,,,"99999,9,09995,1","1,1,008,1,+999,9","SYN082AAXX  19151 02458 47780 /2202 10113 20095 39995 40020 51008 76286 333 83/56 85/57;",
"02458099999","2010-09-19T18:00:00","4","59.897328","17.588581","20.72","UPPSALA, SW","FM-12","ESCM ","V020","170,1,N,0010,1","99999,9,9,N","045000,1,N,1","+0086,1","+0079,1","10032,1","12,0020,9,1",,"00,1","8,1,06,1",,,"120,M,+0142,1","999,N,+0079,1","99999,9,10007,1","2,1,012,1,+999,9","SYN088AAXX  19181 02458 17983 /1701 10086 20079 30007 40032 52012 60022 70086 333 10142 20079;",
"02458099999","2010-09-19T21:00:00","4","59.897328","17.588581","20.72","UPPSALA, SW","FM-12","ESCM ","V020","240,1,N,0010,1","99999,9,9,N","004900,1,N,1","+0056,1","+0052,1","10043,1",,,"20,1","4,1,03,1","03,1,+02100,1,99,9",,,,"99999,9,10018,1","2,1,011,1,+999,9","SYN076AAXX  19211 02458 47849 /2401 10056 20052 30018 40043 52011 72032 333 83/57;",
"02458099999","2010-09-20T00:00:00","4","59.897328","17.588581","20.72","UPPSALA, SW","FM-12","ESCM ","V020","160,1,N,0010,1","99999,9,9,N","000400,1,N,1","+0048,1","+0045,1","10050,1",,,"34,1","4,1,06,1",,,,,"99999,9,10025,1","3,1,007,1,+999,9","SYN066AAXX  20001 02458 47904 /1601 10048 20045 30025 40050 53007 73432;",
"02458099999","2010-09-20T03:00:00","4","59.897328","17.588581","20.72","UPPSALA, SW","FM-12","ESCM ","V020","180,1,N,0010,1","99999,9,9,N","000300,1,N,1","+0046,1","+0043,1","10060,1",,,"33,1","4,1,03,1",,,,,"99999,9,10034,1","2,1,010,1,+999,9","SYN066AAXX  20031 02458 47903 /1801 10046 20043 30034 40060 52010 73332;",
"02458099999","2010-09-20T06:00:00","4","59.897328","17.588581","20.72","UPPSALA, SW","FM-12","ESCM ","V020","220,1,N,0020,1","00060,1,C,N","000300,1,N,1","+0067,1","+0064,1","10072,1","24,0023,9,1",,"32,1","4,1,06,1","09,1,+00060,1,99,9",,"120,M,+0088,1","999,N,+0029,1","99999,9,10047,1","2,1,012,1,+999,9","SYN094AAXX  20061 02458 37/03 /2202 10067 20064 30047 40072 52012 73232 333 10088 20029 70024 89/02;",
"02458099999","2010-09-20T09:00:00","4","59.897328","17.588581","20.72","UPPSALA, SW","FM-12","ESCM ","V020","210,1,N,0020,1","00150,1,C,N","045000,1,N,1","+0091,1","+0087,1","10084,1",,,"00,1","4,1,03,1","08,1,+00150,1,99,9",,,,"99999,9,10059,1","2,1,012,1,+999,9","SYN076AAXX  20091 02458 47283 /2102 10091 20087 30059 40084 52012 70032 333 88/05;",
"02458099999","2010-09-20T12:00:00","4","59.897328","17.588581","20.72","UPPSALA, SW","FM-12","ESCM ","V020","190,1,N,0020,1","00390,1,C,N","050000,1,N,1","+0114,1","+0094,1","10088,1",,,"00,1","4,1,06,1","08,1,+00390,1,99,9",,,,"99999,9,10063,1","0,1,004,1,+999,9","SYN076AAXX  20121 02458 47484 /1902 10114 20094 30063 40088 50004 70032 333 88/13;",
"02458099999","2010-09-20T15:00:00","4","59.897328","17.588581","20.72","UPPSALA, SW","FM-12","ESCM ","V020","150,1,N,0020,1","99999,9,9,N","045000,1,N,1","+0126,1","+0091,1","10078,1",,,,,"01,1,+00930,1,99,9",,,,"99999,9,10053,1","8,1,010,1,+999,9","SYN076AAXX  20151 02458 45583 /1502 10126 20091 30053 40078 58010 333 81/31 83/56;",
"02458099999","2010-09-20T18:00:00","4","59.897328","17.588581","20.72","UPPSALA, SW","FM-12","ESCM ","V020","120,1,N,0030,1","99999,9,9,N","028000,1,N,1","+0090,1","+0080,1","10071,1",,,,,,,"120,M,+0129,1","999,N,+0067,1","99999,9,10046,1","7,1,007,1,+999,9","SYN076AAXX  20181 02458 35978 /1203 10090 20080 30046 40071 57007 333 10129 20067;",
"02458099999","2010-09-20T21:00:00","4","59.897328","17.588581","20.72","UPPSALA, SW","FM-12","ESCM ","V020","120,1,N,0030,1","99999,9,9,N","035000,1,N,1","+0094,1","+0083,1","10055,1",,,,,,,,,"99999,9,10030,1","8,1,017,1,+999,9","SYN060AAXX  20211 02458 45981 /1203 10094 20083 30030 40055 58017;",
"02458099999","2010-09-21T00:00:00","4","59.897328","17.588581","20.72","UPPSALA, SW","FM-12","ESCM ","V020","100,1,N,0050,1","00240,1,C,N","009000,1,N,1","+0106,1","+0101,1","10018,1",,,"62,1","6,1,06,1","09,1,+00240,1,99,9",,,,"99999,9,09994,1","8,1,036,1,+999,9","SYN076AAXX  21001 02458 47/59 /1005 10106 20101 39994 40018 58036 76265 333 89/08;",
"02458099999","2010-09-21T03:00:00","4","59.897328","17.588581","20.72","UPPSALA, SW","FM-12","ESCM ","V020","180,1,N,0030,1","99999,9,9,N","035000,1,N,1","+0115,1","+0110,1","10011,1",,,"00,1","6,1,03,1","01,1,+00240,1,99,9",,,,"99999,9,09986,1","7,1,007,1,+999,9","SYN082AAXX  21031 02458 47381 /1803 10115 20110 39986 40011 57007 70065 333 81/08 83/24;",
"02458099999","2010-09-21T06:00:00","4","59.897328","17.588581","20.72","UPPSALA, SW","FM-12","ESCM ","V020","130,1,N,0010,1","99999,9,9,N","007000,1,N,1","+0120,1","+0116,1","10014,1","12,0051,9,1","24,0053,9,1","61,1","6,1,06,1","02,1,+00300,1,99,9",,"120,M,+0123,1","999,N,+0084,1","99999,9,09989,1","2,1,003,1,+999,9","SYN112AAXX  21061 02458 07457 /1301 10120 20116 39989 40014 52003 60052 76165 333 10123 20084 60015 70054 82/10 87/14;",
"02458099999","2010-09-21T09:00:00","4","59.897328","17.588581","20.72","UPPSALA, SW","FM-12","ESCM ","V020","330,1,N,0020,1","00210,1,C,N","005000,1,N,1","+0128,1","+0124,1","10026,1",,,"81,1","8,1,03,1","05,1,+00210,1,99,9",,,,"99999,9,10001,1","3,1,012,1,+999,9","SYN082AAXX  21091 02458 47350 /3302 10128 20124 30001 40026 53012 78186 333 85/07 88/11;",
"02458099999","2010-09-21T12:00:00","4","59.897328","17.588581","20.72","UPPSALA, SW","FM-12","ESCM ","V020","340,1,N,0070,1","00270,1,C,N","020000,1,N,1","+0109,1","+0098,1","10057,1",,,"81,1","8,1,06,1","06,1,+00270,1,99,9",,,,"99999,9,10032,1","3,1,031,1,+999,9","SYN082AAXX  21121 02458 47370 /3407 10109 20098 30032 40057 53031 78186 333 86/09 88/12;",
"02458099999","2010-09-21T15:00:00","4","59.897328","17.588581","20.72","UPPSALA, SW","FM-12","ESCM ","V020","320,1,N,0060,1","00600,1,C,N","050000,1,N,1","+0112,1","+0092,1","10094,1",,,"00,1","8,1,03,1","02,1,+00420,1,99,9","04,1,+00600,1,99,9",,,"99999,9,10069,1","2,1,037,1,+999,9","SYN088AAXX  21151 02458 47484 /3206 10112 20092 30069 40094 52037 70085 333 82/14 84/20 85/36;",
"02458099999","2010-09-21T18:00:00","4","59.897328","17.588581","20.72","UPPSALA, SW","FM-12","ESCM ","V020","290,1,N,0050,1","01380,1,C,N","050000,1,N,1","+0101,1","+0082,1","10122,1","12,0071,9,1",,"00,1","8,1,06,1","08,1,+01380,1,99,9",,"120,M,+0130,1","999,N,+0101,1","99999,9,10097,1","3,1,028,1,+999,9","SYN094AAXX  21181 02458 17684 /2905 10101 20082 30097 40122 53028 60072 70085 333 10130 20101 88/46;",
"02458099999","2010-09-21T21:00:00","4","59.897328","17.588581","20.72","UPPSALA, SW","FM-12","ESCM ","V020","300,1,N,0040,1","99999,9,9,N","050000,1,N,1","+0082,1","+0062,1","10149,1",,,,,,,,,"99999,9,10124,1","2,1,027,1,+999,9","SYN060AAXX  21211 02458 45984 /3004 10082 20062 30124 40149 52027;",
"02458099999","2010-09-22T00:00:00","4","59.897328","17.588581","20.72","UPPSALA, SW","FM-12","ESCM ","V020","300,1,N,0050,1","99999,9,9,N","050000,1,N,1","+0068,1","+0047,1","10167,1",,,,,,,,,"99999,9,10141,1","2,1,017,1,+999,9","SYN060AAXX  22001 02458 45984 /3005 10068 20047 30141 40167 52017;",
"02458099999","2010-09-22T03:00:00","4","59.897328","17.588581","20.72","UPPSALA, SW","FM-12","ESCM ","V020","290,1,N,0030,1","99999,9,9,N","050000,1,N,1","+0053,1","+0037,1","10184,1",,,,,,,,,"99999,9,10158,1","2,1,017,1,+999,9","SYN060AAXX  22031 02458 45984 /2903 10053 20037 30158 40184 52017;",
"02458099999","2010-09-22T06:00:00","4","59.897328","17.588581","20.72","UPPSALA, SW","FM-12","ESCM ","V020","300,1,N,0030,1","99999,9,9,N","050000,1,N,1","+0058,1","+0041,1","10195,1","24,0069,9,1",,,,,,"120,M,+0101,1","999,N,+0038,1","99999,9,10169,1","2,1,011,1,+999,9","SYN082AAXX  22061 02458 35984 /3003 10058 20041 30169 40195 52011 333 10101 20038 70069;",
"02458099999","2010-09-22T09:00:00","4","59.897328","17.588581","20.72","UPPSALA, SW","FM-12","ESCM ","V020","300,1,N,0010,1","99999,9,9,N","040000,1,N,1","+0112,1","+0058,1","10205,1",,,,,,,,,"99999,9,10180,1","1,1,011,1,+999,9","SYN060AAXX  22091 02458 45982 /3001 10112 20058 30180 40205 51011;",
"02458099999","2010-09-22T12:00:00","4","59.897328","17.588581","20.72","UPPSALA, SW","FM-12","ESCM ","V020","220,1,N,0040,1","99999,9,9,N","045000,1,N,1","+0145,1","+0075,1","10198,1",,,,,,,,,"99999,9,10173,1","7,1,007,1,+999,9","SYN060AAXX  22121 02458 45983 /2204 10145 20075 30173 40198 57007;",
"02458099999","2010-09-22T15:00:00","4","59.897328","17.588581","20.72","UPPSALA, SW","FM-12","ESCM ","V020","200,1,N,0020,1","99999,9,9,N","050000,1,N,1","+0137,1","+0071,1","10190,1",,,,,"01,1,+06000,1,99,9",,,,"99999,9,10165,1","7,1,008,1,+999,9","SYN070AAXX  22151 02458 45984 /2002 10137 20071 30165 40190 57008 333 81/70;",
"02458099999","2010-09-22T18:00:00","4","59.897328","17.588581","20.72","UPPSALA, SW","FM-12","ESCM ","V020","180,1,N,0030,1","99999,9,9,N","050000,1,N,1","+0106,1","+0071,1","10181,1",,,,,,,"120,M,+0150,1","999,N,+0058,1","99999,9,10156,1","7,1,009,1,+999,9","SYN076AAXX  22181 02458 35984 /1803 10106 20071 30156 40181 57009 333 10150 20058;",
"02458099999","2010-09-22T21:00:00","4","59.897328","17.588581","20.72","UPPSALA, SW","FM-12","ESCM ","V020","200,1,N,0030,1","99999,9,9,N","050000,1,N,1","+0110,1","+0081,1","10170,1",,,,,,,,,"99999,9,10145,1","7,1,012,1,+999,9","SYN060AAXX  22211 02458 45984 /2003 10110 20081 30145 40170 57012;",
"02458099999","2010-09-23T00:00:00","4","59.897328","17.588581","20.72","UPPSALA, SW","FM-12","ESCM ","V020","180,1,N,0030,1","99999,9,9,N","050000,1,N,1","+0091,1","+0075,1","10157,1",,,,,,,,,"99999,9,10132,1","8,1,013,1,+999,9","SYN060AAXX  23001 02458 45984 /1803 10091 20075 30132 40157 58013;",
"02458099999","2010-09-23T03:00:00","4","59.897328","17.588581","20.72","UPPSALA, SW","FM-12","ESCM ","V020","200,1,N,0040,1","00930,1,C,N","050000,1,N,1","+0092,1","+0077,1","10141,1",,,,,"06,1,+00930,1,99,9",,,,"99999,9,10116,1","8,1,016,1,+999,9","SYN076AAXX  23031 02458 45584 /2004 10092 20077 30116 40141 58016 333 86/31 87/58;",
"02458099999","2010-09-23T06:00:00","4","59.897328","17.588581","20.72","UPPSALA, SW","FM-12","ESCM ","V020","200,1,N,0050,1","99999,9,9,N","040000,1,N,1","+0094,1","+0079,1","10129,1",,,,,"04,1,+02400,1,99,9",,"120,M,+0114,1","999,N,+0087,1","99999,9,10104,1","6,1,012,1,+999,9","SYN082AAXX  23061 02458 35982 /2005 10094 20079 30104 40129 56012 333 10114 20087 84/58;",
"02458099999","2010-09-23T09:00:00","4","59.897328","17.588581","20.72","UPPSALA, SW","FM-12","ESCM ","V020","200,1,N,0050,1","99999,9,9,N","035000,1,N,1","+0128,1","+0096,1","10117,1",,,,,,,,,"99999,9,10092,1","7,1,012,1,+999,9","SYN060AAXX  23091 02458 45981 /2005 10128 20096 30092 40117 57012;",
"02458099999","2010-09-23T12:00:00","4","59.897328","17.588581","20.72","UPPSALA, SW","FM-12","ESCM ","V020","190,1,N,0050,1","99999,9,9,N","040000,1,N,1","+0153,1","+0099,1","10103,1",,,,,,,,,"99999,9,10078,1","7,1,014,1,+999,9","SYN060AAXX  23121 02458 45982 /1905 10153 20099 30078 40103 57014;",
"02458099999","2010-09-23T15:00:00","4","59.897328","17.588581","20.72","UPPSALA, SW","FM-12","ESCM ","V020","200,1,N,0040,1","99999,9,9,N","035000,1,N,1","+0155,1","+0117,1","10094,1",,,,,,,,,"99999,9,10070,1","7,1,009,1,+999,9","SYN060AAXX  23151 02458 45981 /2004 10155 20117 30070 40094 57009;",
"02458099999","2010-09-23T18:00:00","4","59.897328","17.588581","20.72","UPPSALA, SW","FM-12","ESCM ","V020","160,1,N,0020,1","99999,9,9,N","029000,1,N,1","+0127,1","+0115,1","10088,1",,,,,"03,1,+03000,1,99,9",,"120,M,+0161,1","999,N,+0094,1","99999,9,10064,1","7,1,006,1,+999,9","SYN082AAXX  23181 02458 35979 /1602 10127 20115 30064 40088 57006 333 10161 20094 83/60;",
"02458099999","2010-09-23T21:00:00","4","59.897328","17.588581","20.72","UPPSALA, SW","FM-12","ESCM ","V020","160,1,N,0020,1","99999,9,9,N","015000,1,N,1","+0120,1","+0111,1","10080,1",,,,,"01,1,+02700,1,99,9",,,,"99999,9,10055,1","7,1,008,1,+999,9","SYN070AAXX  23211 02458 45965 /1602 10120 20111 30055 40080 57008 333 81/59;",
"02458099999","2010-09-24T00:00:00","4","59.897328","17.588581","20.72","UPPSALA, SW","FM-12","ESCM ","V020","160,1,N,0020,1","99999,9,9,N","009000,1,N,1","+0123,1","+0117,1","10065,1",,,"82,1","8,1,06,1","01,1,+01500,1,99,9",,,,"99999,9,10040,1","7,1,015,1,+999,9","SYN082AAXX  24001 02458 47759 /1602 10123 20117 30040 40065 57015 78286 333 81/50 84/57;",
"02458099999","2010-09-24T03:00:00","4","59.897328","17.588581","20.72","UPPSALA, SW","FM-12","ESCM ","V020","180,1,N,0030,1","99999,9,9,N","009000,1,N,1","+0123,1","+0116,1","10044,1",,,"10,1","8,1,03,1",,,,,"99999,9,10019,1","6,1,021,1,+999,9","SYN066AAXX  24031 02458 47959 /1803 10123 20116 30019 40044 56021 71082;",
"02458099999","2010-09-24T06:00:00","4","59.897328","17.588581","20.72","UPPSALA, SW","FM-12","ESCM ","V020","160,1,N,0020,1","00150,1,C,N","004900,1,N,1","+0125,1","+0120,1","10037,1","12,0005,9,1","24,0005,9,1","10,1","8,1,06,1","09,1,+00150,1,99,9",,"120,M,+0128,1","999,N,+0110,1","99999,9,10013,1","6,1,007,1,+999,9","SYN100AAXX  24061 02458 17/49 /1602 10125 20120 30013 40037 56007 69942 71082 333 10128 20110 70004 89/05;",
"02458099999","2010-09-24T09:00:00","4","59.897328","17.588581","20.72","UPPSALA, SW","FM-12","ESCM ","V020","150,1,N,0040,1","00150,1,C,N","002700,1,N,1","+0134,1","+0129,1","10030,1",,,"10,1","2,1,03,1","09,1,+00150,1,99,9",,,,"99999,9,10005,1","7,1,008,1,+999,9","SYN076AAXX  24091 02458 47/27 /1504 10134 20129 30005 40030 57008 71011 333 89/05;",
"02458099999","2010-09-24T12:00:00","4","59.897328","17.588581","20.72","UPPSALA, SW","FM-12","ESCM ","V020","170,1,N,0050,1","99999,9,9,N","021000,1,N,1","+0181,1","+0134,1","10008,1",,,,,"04,1,+05700,1,99,9",,,,"99999,9,09984,1","8,1,022,1,+999,9","SYN070AAXX  24121 02458 45971 /1705 10181 20134 39984 40008 58022 333 84/69;",
"02458099999","2010-09-24T15:00:00","4","59.897328","17.588581","20.72","UPPSALA, SW","FM-12","ESCM ","V020","170,1,N,0030,1","99999,9,9,N","024000,1,N,1","+0170,1","+0130,1","09996,1",,,,,,,,,"99999,9,09972,1","7,1,011,1,+999,9","SYN060AAXX  24151 02458 45974 /1703 10170 20130 39972 49996 57011;",
"02458099999","2010-09-24T18:00:00","4","59.897328","17.588581","20.72","UPPSALA, SW","FM-12","ESCM ","V020","150,1,N,0030,1","00330,1,C,N","008000,1,N,1","+0135,1","+0121,1","09998,1",,,"10,1","2,1,06,1","08,1,+00330,1,99,9",,"120,M,+0186,1","999,N,+0125,1","99999,9,09973,1","2,1,001,1,+999,9","SYN088AAXX  24181 02458 37458 /1503 10135 20121 39973 49998 52001 71010 333 10186 20125 88/11;",
"02458099999","2010-09-24T21:00:00","4","59.897328","17.588581","20.72","UPPSALA, SW","FM-12","ESCM ","V020","140,1,N,0020,1","00210,1,C,N","006000,1,N,1","+0132,1","+0122,1","09998,1",,,"10,1","2,1,03,1","08,1,+00210,1,99,9",,,,"99999,9,09974,1","0,1,000,1,+999,9","SYN076AAXX  24211 02458 47356 /1402 10132 20122 39974 49998 50000 71011 333 88/07;",
"02458099999","2010-09-25T00:00:00","4","59.897328","17.588581","20.72","UPPSALA, SW","FM-12","ESCM ","V020","100,1,N,0020,1","00180,1,C,N","003700,1,N,1","+0132,1","+0125,1","10000,1",,,"10,1","2,1,06,1","08,1,+00180,1,99,9",,,,"99999,9,09976,1","0,1,002,1,+999,9","SYN076AAXX  25001 02458 47337 /1002 10132 20125 39976 40000 50002 71011 333 88/06;",
"02458099999","2010-09-25T03:00:00","4","59.897328","17.588581","20.72","UPPSALA, SW","FM-12","ESCM ","V020","150,1,N,0020,1","00150,1,C,N","002800,1,N,1","+0133,1","+0128,1","10004,1",,,"22,1","8,1,03,1","09,1,+00150,1,99,9",,,,"99999,9,09979,1","2,1,004,1,+999,9","SYN076AAXX  25031 02458 47/28 /1502 10133 20128 39979 40004 52004 72286 333 89/05;",
"02458099999","2010-09-25T06:00:00","4","59.897328","17.588581","20.72","UPPSALA, SW","FM-12","ESCM ","V020","040,1,N,0020,1","00030,1,C,N","000300,1,N,1","+0131,1","+0128,1","10011,1","12,0003,9,1","24,0003,9,1","61,1","8,1,06,1","09,1,+00030,1,99,9",,"120,M,+0136,1","999,N,+0131,1","99999,9,09987,1","0,1,007,1,+999,9","SYN106AAXX  25060 02458 07/03 /0402 10131 20128 39987 40011 50007 69932 76186 333 10136 20131 69925 70003 89/01;",
"02458099999","2010-09-25T09:00:00","4","59.897328","17.588581","20.72","UPPSALA, SW","FM-12","ESCM ","V020","010,1,N,0050,1","00210,1,C,N","040000,1,N,1","+0117,1","+0108,1","10045,1",,,"00,1","6,1,03,1","08,1,+00210,1,99,9",,,,"99999,9,10020,1","1,1,033,1,+999,9","SYN076AAXX  25091 02458 47382 /0105 10117 20108 30020 40045 51033 70065 333 88/07;",
"02458099999","2010-09-25T12:00:00","4","59.897328","17.588581","20.72","UPPSALA, SW","FM-12","ESCM ","V020","020,1,N,0060,1","00270,1,C,N","045000,1,N,1","+0114,1","+0098,1","10069,1",,,"00,1","6,1,06,1","08,1,+00270,1,99,9",,,,"99999,9,10044,1","3,1,024,1,+999,9","SYN076AAXX  25121 02458 47383 /0206 10114 20098 30044 40069 53024 70065 333 88/09;",
"02458099999","2010-09-25T15:00:00","4","59.897328","17.588581","20.72","UPPSALA, SW","FM-12","ESCM ","V020","020,1,N,0070,1","00360,1,C,N","050000,1,N,1","+0106,1","+0084,1","10090,1",,,,,"08,1,+00360,1,99,9",,,,"99999,9,10065,1","3,1,021,1,+999,9","SYN070AAXX  25151 02458 45484 /0207 10106 20084 30065 40090 53021 333 88/12;",
"02458099999","2010-09-25T18:00:00","4","59.897328","17.588581","20.72","UPPSALA, SW","FM-12","ESCM ","V020","020,1,N,0060,1","00510,1,C,N","050000,1,N,1","+0099,1","+0072,1","10115,1","12,0010,9,1",,,,"08,1,+00510,1,99,9",,"120,M,+0132,1","999,N,+0098,1","99999,9,10090,1","1,1,025,1,+999,9","SYN088AAXX  25181 02458 15484 /0206 10099 20072 30090 40115 51025 60012 333 10132 20098 88/17;",
"02458099999","2010-09-25T21:00:00","4","59.897328","17.588581","20.72","UPPSALA, SW","FM-12","ESCM ","V020","020,1,N,0060,1","99999,9,9,N","050000,1,N,1","+0096,1","+0058,1","10131,1",,,,,"03,1,+00720,1,99,9",,,,"99999,9,10106,1","3,1,016,1,+999,9","SYN076AAXX  25211 02458 45584 /0206 10096 20058 30106 40131 53016 333 83/24 88/45;",
"02458099999","2010-09-26T00:00:00","4","59.897328","17.588581","20.72","UPPSALA, SW","FM-12","ESCM ","V020","030,1,N,0070,1","01410,1,C,N","050000,1,N,1","+0093,1","+0049,1","10144,1",,,,,"08,1,+01410,1,99,9",,,,"99999,9,10119,1","2,1,014,1,+999,9","SYN070AAXX  26001 02458 45684 /0307 10093 20049 30119 40144 52014 333 88/47;",
"02458099999","2010-09-26T03:00:00","4","59.897328","17.588581","20.72","UPPSALA, SW","FM-12","ESCM ","V020","020,1,N,0060,1","01500,1,C,N","050000,1,N,1","+0088,1","+0052,1","10156,1",,,,,"08,1,+01500,1,99,9",,,,"99999,9,10131,1","3,1,012,1,+999,9","SYN070AAXX  26031 02458 45784 /0206 10088 20052 30131 40156 53012 333 88/50;",
"02458099999","2010-09-26T06:00:00","4","59.897328","17.588581","20.72","UPPSALA, SW","FM-12","ESCM ","V020","020,1,N,0050,1","03000,1,C,N","050000,1,N,1","+0089,1","+0054,1","10169,1","24,0010,9,1",,,,"08,1,+03000,1,99,9",,"120,M,+0099,1","999,N,+0080,1","99999,9,10144,1","2,1,013,1,+999,9","SYN088AAXX  26061 02458 35984 /0205 10089 20054 30144 40169 52013 333 10099 20080 70011 88/60;",
"02458099999","2010-09-26T09:00:00","4","59.897328","17.588581","20.72","UPPSALA, SW","FM-12","ESCM ","V020","040,1,N,0070,1","02700,1,C,N","050000,1,N,1","+0113,1","+0055,1","10179,1",,,,,"07,1,+02700,1,99,9",,,,"99999,9,10154,1","1,1,010,1,+999,9","SYN070AAXX  26091 02458 45984 /0407 10113 20055 30154 40179 51010 333 87/59;",
"02458099999","2010-09-26T12:00:00","4","59.897328","17.588581","20.72","UPPSALA, SW","FM-12","ESCM ","V020","030,1,N,0090,1","03000,1,C,N","045000,1,N,1","+0126,1","+0043,1","10186,1",,,,,"08,1,+03000,1,99,9",,,,"99999,9,10161,1","1,1,008,1,+999,9","SYN070AAXX  26121 02458 45983 /0309 10126 20043 30161 40186 51008 333 88/60;",
"02458099999","2010-09-26T15:00:00","4","59.897328","17.588581","20.72","UPPSALA, SW","FM-12","ESCM ","V020","030,1,N,0070,1","99999,9,9,N","050000,1,N,1","+0106,1","+0047,1","10193,1",,,,,"04,1,+03300,1,99,9",,,,"99999,9,10168,1","2,1,007,1,+999,9","SYN070AAXX  26151 02458 45984 /0307 10106 20047 30168 40193 52007 333 84/61;",
"02458099999","2010-09-26T18:00:00","4","59.897328","17.588581","20.72","UPPSALA, SW","FM-12","ESCM ","V020","010,1,N,0030,1","03300,1,C,N","050000,1,N,1","+0086,1","+0056,1","10201,1",,,,,"08,1,+03300,1,99,9",,"120,M,+0134,1","999,N,+0085,1","99999,9,10176,1","2,1,008,1,+999,9","SYN082AAXX  26181 02458 35984 /0103 10086 20056 30176 40201 52008 333 10134 20085 88/61;",
"02458099999","2010-09-26T21:00:00","4","59.897328","17.588581","20.72","UPPSALA, SW","FM-12","ESCM ","V020","360,1,N,0030,1","03300,1,C,N","050000,1,N,1","+0089,1","+0066,1","10202,1",,,,,"08,1,+03300,1,99,9",,,,"99999,9,10176,1","0,1,000,1,+999,9","SYN070AAXX  26211 02458 45984 /3603 10089 20066 30176 40202 50000 333 88/61;",
"02458099999","2010-09-27T00:00:00","4","59.897328","17.588581","20.72","UPPSALA, SW","FM-12","ESCM ","V020","020,1,N,0040,1","03600,1,C,N","050000,1,N,1","+0088,1","+0063,1","10200,1",,,,,"08,1,+03600,1,99,9",,,,"99999,9,10174,1","8,1,002,1,+999,9","SYN070AAXX  27001 02458 45984 /0204 10088 20063 30174 40200 58002 333 88/62;",
"02458099999","2010-09-27T03:00:00","4","59.897328","17.588581","20.72","UPPSALA, SW","FM-12","ESCM ","V020","020,1,N,0040,1","03900,1,C,N","050000,1,N,1","+0086,1","+0058,1","10197,1",,,,,"08,1,+03900,1,99,9",,,,"99999,9,10171,1","7,1,003,1,+999,9","SYN070AAXX  27031 02458 45984 /0204 10086 20058 30171 40197 57003 333 88/63;",
"02458099999","2010-09-27T06:00:00","4","59.897328","17.588581","20.72","UPPSALA, SW","FM-12","ESCM ","V020","020,1,N,0050,1","03000,1,C,N","050000,1,N,1","+0090,1","+0058,1","10200,1",,,,,"06,1,+03000,1,99,9",,"120,M,+0091,1","999,N,+0084,1","99999,9,10174,1","2,1,003,1,+999,9","SYN088AAXX  27061 02458 35984 /0205 10090 20058 30174 40200 52003 333 10091 20084 86/60 88/64;",
"02458099999","2010-09-27T09:00:00","4","59.897328","17.588581","20.72","UPPSALA, SW","FM-12","ESCM ","V020","040,1,N,0070,1","99999,9,9,N","050000,1,N,1","+0102,1","+0048,1","10204,1",,,,,"04,1,+00840,1,99,9",,,,"99999,9,10179,1","2,1,004,1,+999,9","SYN076AAXX  27091 02458 45584 /0407 10102 20048 30179 40204 52004 333 84/28 88/64;",
"02458099999","2010-09-27T12:00:00","4","59.897328","17.588581","20.72","UPPSALA, SW","FM-12","ESCM ","V020","030,1,N,0080,1","99999,9,9,N","045000,1,N,1","+0112,1","+0034,1","10203,1",,,,,"01,1,+01110,1,99,9",,,,"99999,9,10178,1","7,1,001,1,+999,9","SYN070AAXX  27121 02458 45683 /0308 10112 20034 30178 40203 57001 333 81/37;",
"02458099999","2010-09-27T15:00:00","4","59.897328","17.588581","20.72","UPPSALA, SW","FM-12","ESCM ","V020","020,1,N,0080,1","99999,9,9,N","050000,1,N,1","+0099,1","+0026,1","10199,1",,,,,,,,,"99999,9,10173,1","7,1,004,1,+999,9","SYN060AAXX  27151 02458 45984 /0208 10099 20026 30173 40199 57004;",
"02458099999","2010-09-27T18:00:00","4","59.897328","17.588581","20.72","UPPSALA, SW","FM-12","ESCM ","V020","360,1,N,0040,1","99999,9,9,N","050000,1,N,1","+0063,1","+0028,1","10200,1",,,,,,,"120,M,+0121,1","999,N,+0062,1","99999,9,10174,1","0,1,001,1,+999,9","SYN076AAXX  27181 02458 35984 /3604 10063 20028 30174 40200 50001 333 10121 20062;",
"02458099999","2010-09-27T21:00:00","4","59.897328","17.588581","20.72","UPPSALA, SW","FM-12","ESCM ","V020","360,1,N,0030,1","01290,1,C,N","050000,1,N,1","+0062,1","+0032,1","10194,1",,,,,"06,1,+01290,1,99,9",,,,"99999,9,10169,1","7,1,006,1,+999,9","SYN070AAXX  27211 02458 45684 /3603 10062 20032 30169 40194 57006 333 86/43;",
"02458099999","2010-09-28T00:00:00","4","59.897328","17.588581","20.72","UPPSALA, SW","FM-12","ESCM ","V020","360,1,N,0020,1","99999,9,9,N","050000,1,N,1","+0060,1","+0028,1","10192,1",,,,,"01,1,+01140,1,99,9",,,,"99999,9,10166,1","7,1,003,1,+999,9","SYN070AAXX  28001 02458 45684 /3602 10060 20028 30166 40192 57003 333 81/38;",
"02458099999","2010-09-28T03:00:00","4","59.897328","17.588581","20.72","UPPSALA, SW","FM-12","ESCM ","V020","360,1,N,0020,1","99999,9,9,N","050000,1,N,1","+0051,1","+0029,1","10189,1",,,,,,,,,"99999,9,10163,1","7,1,003,1,+999,9","SYN060AAXX  28031 02458 45984 /3602 10051 20029 30163 40189 57003;",
"02458099999","2010-09-28T06:00:00","4","59.897328","17.588581","20.72","UPPSALA, SW","FM-12","ESCM ","V020","360,1,N,0030,1","99999,9,9,N","050000,1,N,1","+0062,1","+0031,1","10192,1",,,,,,,"120,M,+0063,1","999,N,+0047,1","99999,9,10166,1","2,1,003,1,+999,9","SYN076AAXX  28061 02458 35984 /3603 10062 20031 30166 40192 52003 333 10063 20047;",
"02458099999","2010-09-28T09:00:00","4","59.897328","17.588581","20.72","UPPSALA, SW","FM-12","ESCM ","V020","030,1,N,0100,1","99999,9,9,N","040000,1,N,1","+0101,1","+0026,1","10197,1",,,,,"02,1,+01290,1,99,9",,,,"99999,9,10172,1","2,1,006,1,+999,9","SYN070AAXX  28091 02458 45682 /0310 10101 20026 30172 40197 52006 333 82/43;",
"02458099999","2010-09-28T12:00:00","4","59.897328","17.588581","20.72","UPPSALA, SW","FM-12","ESCM ","V020","040,1,N,0080,1","99999,9,9,N","040000,1,N,1","+0112,1","+0017,1","10204,1",,,,,"01,1,+01290,1,99,9",,,,"99999,9,10178,1","2,1,006,1,+999,9","SYN070AAXX  28121 02458 45682 /0408 10112 20017 30178 40204 52006 333 81/43;",
"02458099999","2010-09-28T15:00:00","4","59.897328","17.588581","20.72","UPPSALA, SW","FM-12","ESCM ","V020","020,1,N,0090,1","99999,9,9,N","050000,1,N,1","+0102,1","+0022,1","10208,1",,,,,,,,,"99999,9,10182,1","2,1,004,1,+999,9","SYN060AAXX  28151 02458 45984 /0209 10102 20022 30182 40208 52004;",
"02458099999","2010-09-28T18:00:00","4","59.897328","17.588581","20.72","UPPSALA, SW","FM-12","ESCM ","V020","010,1,N,0030,1","99999,9,9,N","050000,1,N,1","+0072,1","+0046,1","10218,1",,,,,,,"120,M,+0115,1","999,N,+0062,1","99999,9,10192,1","2,1,010,1,+999,9","SYN076AAXX  28180 02458 35984 /0103 10072 20046 30192 40218 52010 333 10115 20062;",
"02458099999","2010-09-28T21:00:00","4","59.897328","17.588581","20.72","UPPSALA, SW","FM-12","ESCM ","V020","340,1,N,0020,1","99999,9,9,N","050000,1,N,1","+0055,1","+0042,1","10223,1",,,,,,,,,"99999,9,10198,1","0,1,006,1,+999,9","SYN060AAXX  28211 02458 45984 /3402 10055 20042 30198 40223 50006;",
"02458099999","2010-09-29T00:00:00","4","59.897328","17.588581","20.72","UPPSALA, SW","FM-12","ESCM ","V020","340,1,N,0020,1","99999,9,9,N","050000,1,N,1","+0044,1","+0039,1","10231,1",,,,,,,,,"99999,9,10205,1","2,1,007,1,+999,9","SYN060AAXX  29001 02458 45984 /3402 10044 20039 30205 40231 52007;",
"02458099999","2010-09-29T03:00:00","4","59.897328","17.588581","20.72","UPPSALA, SW","FM-12","ESCM ","V020","310,1,N,0020,1","99999,9,9,N","040000,1,N,1","+0023,1","+0020,1","10229,1",,,,,,,,,"99999,9,10203,1","7,1,001,1,+999,9","SYN060AAXX  29031 02458 45982 /3102 10023 20020 30203 40229 57001;",
"02458099999","2010-09-29T06:00:00","4","59.897328","17.588581","20.72","UPPSALA, SW","FM-12","ESCM ","V020","320,1,N,0020,1","99999,9,9,N","028000,1,N,1","+0039,1","+0036,1","10238,1",,,,,"02,1,+00720,1,99,9",,"120,M,+0073,1","999,N,+0020,1","99999,9,10212,1","2,1,009,1,+999,9","SYN082AAXX  29061 02458 35578 /3202 10039 20036 30212 40238 52009 333 10073 20020 82/24;",
"02458099999","2010-09-29T09:00:00","4","59.897328","17.588581","20.72","UPPSALA, SW","FM-12","ESCM ","V020","030,1,N,0040,1","99999,9,9,N","040000,1,N,1","+0104,1","+0061,1","10246,1",,,,,"04,1,+00720,1,99,9",,,,"99999,9,10221,1","2,1,009,1,+999,9","SYN076AAXX  29091 02458 45582 /0304 10104 20061 30221 40246 52009 333 84/24 85/30;",
"02458099999","2010-09-29T12:00:00","4","59.897328","17.588581","20.72","UPPSALA, SW","FM-12","ESCM ","V020","020,1,N,0050,1","99999,9,9,N","045000,1,N,1","+0122,1","+0044,1","10245,1",,,,,"02,1,+01080,1,99,9",,,,"99999,9,10220,1","8,1,001,1,+999,9","SYN070AAXX  29121 02458 45683 /0205 10122 20044 30220 40245 58001 333 82/36;",
"02458099999","2010-09-29T15:00:00","4","59.897328","17.588581","20.72","UPPSALA, SW","FM-12","ESCM ","V020","020,1,N,0040,1","99999,9,9,N","050000,1,N,1","+0115,1","+0047,1","10242,1",,,,,,,,,"99999,9,10217,1","7,1,003,1,+999,9","SYN060AAXX  29151 02458 45984 /0204 10115 20047 30217 40242 57003;",
"02458099999","2010-09-29T18:00:00","4","59.897328","17.588581","20.72","UPPSALA, SW","FM-12","ESCM ","V020","999,9,C,0000,1","99999,9,9,N","050000,1,N,1","+0052,1","+0039,1","10248,1",,,,,,,"120,M,+0127,1","999,N,+0039,1","99999,9,10222,1","2,1,006,1,+999,9","SYN076AAXX  29181 02458 35984 /0000 10052 20039 30222 40248 52006 333 10127 20039;",
"02458099999","2010-09-29T21:00:00","4","59.897328","17.588581","20.72","UPPSALA, SW","FM-12","ESCM ","V020","280,1,N,0010,1","99999,9,9,N","999999,9,N,1","+0014,1","+0011,1","10254,1",,,,,,,,,"99999,9,10228,1","2,1,005,1,+999,9","SYN060AAXX  29211 02458 469// /2801 10014 20011 30228 40254 52005;",
"02458099999","2010-09-30T00:00:00","4","59.897328","17.588581","20.72","UPPSALA, SW","FM-12","ESCM ","V020","999,9,C,0000,1","99999,9,9,N","017000,1,N,1","-0004,1","-0007,1","10255,1",,,"00,1","4,1,06,1",,,,,"99999,9,10229,1","0,1,001,1,+999,9","SYN066AAXX  30001 02458 47967 /0000 11004 21007 30229 40255 50001 70032;",
"02458099999","2010-09-30T03:00:00","4","59.897328","17.588581","20.72","UPPSALA, SW","FM-12","ESCM ","V020","999,9,C,0000,1","99999,9,9,N","045000,1,N,1","-0017,1","-0020,1","10253,1",,,,,,,,,"99999,9,10226,1","7,1,003,1,+999,9","SYN060AAXX  30031 02458 45983 /0000 11017 21020 30226 40253 57003;",
"02458099999","2010-09-30T06:00:00","4","59.897328","17.588581","20.72","UPPSALA, SW","FM-12","ESCM ","V020","999,9,C,0000,1","99999,9,9,N","050000,1,N,1","-0006,1","-0008,1","10257,1",,,,,,,"120,M,+0052,1","999,N,-0020,1","99999,9,10230,1","2,1,004,1,+999,9","SYN076AAXX  30061 02458 35984 /0000 11006 21008 30230 40257 52004 333 10052 21020;",
"02458099999","2010-09-30T09:00:00","4","59.897328","17.588581","20.72","UPPSALA, SW","FM-12","ESCM ","V020","190,1,N,0010,1","99999,9,9,N","045000,1,N,1","+0094,1","+0058,1","10257,1",,,,,,,,,"99999,9,10231,1","4,1,000,1,+999,9","SYN060AAXX  30091 02458 45983 /1901 10094 20058 30231 40257 54001;",
"02458099999","2010-09-30T12:00:00","4","59.897328","17.588581","20.72","UPPSALA, SW","FM-12","ESCM ","V020","190,1,N,0010,1","99999,9,9,N","035000,1,N,1","+0129,1","+0055,1","10245,1",,,,,,,,,"99999,9,10220,1","7,1,012,1,+999,9","SYN060AAXX  30121 02458 45981 /1901 10129 20055 30220 40245 57012;",
"02458099999","2010-09-30T15:00:00","4","59.897328","17.588581","20.72","UPPSALA, SW","FM-12","ESCM ","V020","170,1,N,0020,1","99999,9,9,N","050000,1,N,1","+0122,1","+0040,1","10237,1",,,,,,,,,"99999,9,10212,1","8,1,007,1,+999,9","SYN060AAXX  30151 02458 45984 /1702 10122 20040 30212 40237 58007;",
"02458099999","2010-09-30T18:00:00","4","59.897328","17.588581","20.72","UPPSALA, SW","FM-12","ESCM ","V020","170,1,N,0010,1","99999,9,9,N","050000,1,N,1","+0046,1","+0029,1","10238,1",,,,,,,"120,M,+0140,1","999,N,-0008,1","99999,9,10213,1","4,1,000,1,+999,9","SYN076AAXX  30181 02458 35984 /1701 10046 20029 30213 40238 54001 333 10140 21008;",
"02458099999","2010-09-30T21:00:00","4","59.897328","17.588581","20.72","UPPSALA, SW","FM-12","ESCM ","V020","999,9,C,0000,1","99999,9,9,N","050000,1,N,1","+0018,1","+0014,1","10244,1",,,,,,,,,"99999,9,10217,1","2,1,005,1,+999,9","SYN060AAXX  30211 02458 45984 /0000 10018 20014 30217 40244 52005;",
"02458099999","2010-10-01T00:00:00","4","59.897328","17.588581","20.72","UPPSALA, SW","FM-12","ESCM ","V020","999,9,C,0000,1","99999,9,9,N","035000,1,N,1","+0001,1","-0002,1","10245,1",,,,,,,,,"99999,9,10218,1","2,1,001,1,+999,9","SYN060AAXX  01001 02458 45981 /0000 10001 21002 30218 40245 52001;",
"02458099999","2010-10-01T03:00:00","4","59.897328","17.588581","20.72","UPPSALA, SW","FM-12","ESCM ","V020","999,9,C,0000,1","99999,9,9,N","040000,1,N,1","-0010,1","-0012,1","10241,1",,,,,,,,,"99999,9,10215,1","7,1,003,1,+999,9","SYN060AAXX  01031 02458 45982 /0000 11010 21012 30215 40241 57003;",
"02458099999","2010-10-01T06:00:00","4","59.897328","17.588581","20.72","UPPSALA, SW","FM-12","ESCM ","V020","999,9,C,0000,1","99999,9,9,N","017000,1,N,1","-0008,1","-0011,1","10247,1",,,,,,,"120,M,+0057,1","999,N,-0015,1","99999,9,10220,1","3,1,005,1,+999,9","SYN076AAXX  01060 02458 35967 /0000 11008 21011 30220 40247 53005 333 10057 21015;",
"02458099999","2010-10-01T09:00:00","4","59.897328","17.588581","20.72","UPPSALA, SW","FM-12","ESCM ","V020","210,1,N,0010,1","99999,9,9,N","035000,1,N,1","+0099,1","+0063,1","10248,1",,,,,,,,,"99999,9,10222,1","2,1,002,1,+999,9","SYN060AAXX  01091 02458 45981 /2101 10099 20063 30222 40248 52002;",
"02458099999","2010-10-01T12:00:00","4","59.897328","17.588581","20.72","UPPSALA, SW","FM-12","ESCM ","V020","210,1,N,0020,1","99999,9,9,N","045000,1,N,1","+0129,1","+0037,1","10245,1",,,,,,,,,"99999,9,10219,1","7,1,003,1,+999,9","SYN060AAXX  01121 02458 45983 /2102 10129 20037 30219 40245 57003;",
"02458099999","2010-10-01T15:00:00","4","59.897328","17.588581","20.72","UPPSALA, SW","FM-12","ESCM ","V020","240,1,N,0020,1","99999,9,9,N","045000,1,N,1","+0124,1","+0033,1","10240,1",,,,,"02,1,+01320,1,99,9",,,,"99999,9,10215,1","7,1,005,1,+999,9","SYN070AAXX  01151 02458 45683 /2402 10124 20033 30215 40240 57005 333 82/44;",
"02458099999","2010-10-01T18:00:00","4","59.897328","17.588581","20.72","UPPSALA, SW","FM-12","ESCM ","V020","150,1,N,0010,1","99999,9,9,N","050000,1,N,1","+0040,1","+0028,1","10248,1",,,,,,,"120,M,+0141,1","999,N,-0008,1","99999,9,10222,1","3,1,007,1,+999,9","SYN076AAXX  01181 02458 35984 /1501 10040 20028 30222 40248 53007 333 10141 21008;",
"02458099999","2010-10-01T21:00:00","4","59.897328","17.588581","20.72","UPPSALA, SW","FM-12","ESCM ","V020","999,9,C,0000,1","99999,9,9,N","012000,1,N,1","+0010,1","+0006,1","10254,1",,,,,"01,1,+01170,1,99,9",,,,"99999,9,10228,1","2,1,006,1,+999,9","SYN070AAXX  01211 02458 45662 /0000 10010 20006 30228 40254 52006 333 81/39;",
"02458099999","2010-10-02T00:00:00","4","59.897328","17.588581","20.72","UPPSALA, SW","FM-12","ESCM ","V020","290,1,N,0010,1","99999,9,9,N","006000,1,N,1","-0006,1","-0009,1","10256,1",,,"31,1","4,1,06,1",,,,,"99999,9,10230,1","2,1,002,1,+999,9","SYN066AAXX  02001 02458 47956 /2901 11006 21009 30230 40256 52002 73132;",
"02458099999","2010-10-02T03:00:00","4","59.897328","17.588581","20.72","UPPSALA, SW","FM-12","ESCM ","V020","999,9,C,0000,1","00030,1,C,N","000200,1,N,1","-0010,1","-0012,1","10257,1",,,"33,1","4,1,03,1","09,1,+00030,1,99,9",,,,"99999,9,10231,1","2,1,001,1,+999,9","SYN076AAXX  02031 02458 47/02 /0000 11010 21012 30231 40257 52001 73331 333 89/01;",
"02458099999","2010-10-02T06:00:00","4","59.897328","17.588581","20.72","UPPSALA, SW","FM-12","ESCM ","V020","999,9,C,0000,1","00030,1,C,N","000200,1,N,1","-0008,1","-0010,1","10258,1",,,"30,1","4,1,06,1","09,1,+00030,1,99,9",,"120,M,+0042,1","999,N,-0014,1","99999,9,10232,1","4,1,000,1,+999,9","SYN088AAXX  02061 02458 37/02 /0000 11008 21010 30232 40258 54001 73031 333 10042 21014 89/01;",
"02458099999","2010-10-02T09:00:00","4","59.897328","17.588581","20.72","UPPSALA, SW","FM-12","ESCM ","V020","130,1,N,0020,1","99999,9,9,N","030000,1,N,1","+0097,1","+0069,1","10263,1",,,"00,1","4,1,03,1",,,,,"99999,9,10237,1","2,1,005,1,+999,9","SYN066AAXX  02091 02458 47980 /1302 10097 20069 30237 40263 52005 70032;",
"02458099999","2010-10-02T12:00:00","4","59.897328","17.588581","20.72","UPPSALA, SW","FM-12","ESCM ","V020","170,1,N,0040,1","00960,1,C,N","045000,1,N,1","+0128,1","+0063,1","10254,1",,,"00,1","4,1,06,1","05,1,+00960,1,99,9",,,,"99999,9,10229,1","8,1,008,1,+999,9","SYN076AAXX  02121 02458 47583 /1704 10128 20063 30229 40254 58008 70032 333 85/32;",
"02458099999","2010-10-02T15:00:00","4","59.897328","17.588581","20.72","UPPSALA, SW","FM-12","ESCM ","V020","180,1,N,0040,1","99999,9,9,N","050000,1,N,1","+0114,1","+0046,1","10251,1",,,,,,,,,"99999,9,10226,1","7,1,003,1,+999,9","SYN060AAXX  02151 02458 45984 /1804 10114 20046 30226 40251 57003;",
"02458099999","2010-10-02T18:00:00","4","59.897328","17.588581","20.72","UPPSALA, SW","FM-12","ESCM ","V020","150,1,N,0020,1","99999,9,9,N","050000,1,N,1","+0046,1","+0026,1","10262,1",,,,,,,"120,M,+0133,1","999,N,-0008,1","99999,9,10236,1","3,1,011,1,+999,9","SYN076AAXX  02181 02458 35984 /1502 10046 20026 30236 40262 53011 333 10133 21008;",
"02458099999","2010-10-02T21:00:00","4","59.897328","17.588581","20.72","UPPSALA, SW","FM-12","ESCM ","V020","120,1,N,0020,1","99999,9,9,N","030000,1,N,1","+0031,1","+0024,1","10262,1",,,,,,,,,"99999,9,10236,1","4,1,000,1,+999,9","SYN060AAXX  02211 02458 45980 /1202 10031 20024 30236 40262 54000;",
"02458099999","2010-10-03T00:00:00","4","59.897328","17.588581","20.72","UPPSALA, SW","FM-12","ESCM ","V020","140,1,N,0020,1","99999,9,9,N","009000,1,N,1","+0018,1","+0015,1","10263,1",,,"10,1","2,1,06,1",,,,,"99999,9,10237,1","4,1,000,1,+999,9","SYN066AAXX  03001 02458 47959 /1402 10018 20015 30237 40263 54001 71010;",
"02458099999","2010-10-03T03:00:00","4","59.897328","17.588581","20.72","UPPSALA, SW","FM-12","ESCM ","V020","999,9,C,0000,1","99999,9,9,N","006000,1,N,1","+0004,1","+0001,1","10258,1",,,"10,1","2,1,03,1",,,,,"99999,9,10231,1","7,1,005,1,+999,9","SYN066AAXX  03031 02458 47956 /0000 10004 20001 30231 40258 57005 71010;",
"02458099999","2010-10-03T06:00:00","4","59.897328","17.588581","20.72","UPPSALA, SW","FM-12","ESCM ","V020","120,1,N,0020,1","01080,1,C,N","008000,1,N,1","+0035,1","+0032,1","10257,1",,,"10,1","4,1,06,1","05,1,+01080,1,99,9",,"120,M,+0056,1","999,N,-0008,1","99999,9,10231,1","4,1,000,1,+999,9","SYN088AAXX  03060 02458 37658 /1202 10035 20032 30231 40257 54001 71032 333 10056 21008 85/36;",
"02458099999","2010-10-03T09:00:00","4","59.897328","17.588581","20.72","UPPSALA, SW","FM-12","ESCM ","V020","150,1,N,0060,1","99999,9,9,N","040000,1,N,1","+0117,1","+0081,1","10255,1",,,,,"03,1,+00630,1,99,9",,,,"99999,9,10229,1","8,1,001,1,+999,9","SYN070AAXX  03091 02458 45582 /1506 10117 20081 30229 40255 58001 333 83/21;",
"02458099999","2010-10-03T12:00:00","4","59.897328","17.588581","20.72","UPPSALA, SW","FM-12","ESCM ","V020","160,1,N,0070,1","01110,1,C,N","040000,1,N,1","+0127,1","+0056,1","10242,1",,,,,"08,1,+01110,1,99,9",,,,"99999,9,10217,1","7,1,013,1,+999,9","SYN070AAXX  03121 02458 45682 /1607 10127 20056 30217 40242 57013 333 88/37;",
"02458099999","2010-10-03T15:00:00","4","59.897328","17.588581","20.72","UPPSALA, SW","FM-12","ESCM ","V020","160,1,N,0060,1","99999,9,9,N","045000,1,N,1","+0115,1","+0054,1","10234,1",,,,,"04,1,+01110,1,99,9",,,,"99999,9,10209,1","8,1,008,1,+999,9","SYN070AAXX  03151 02458 45683 /1606 10115 20054 30209 40234 58008 333 84/37;",
"02458099999","2010-10-03T18:00:00","4","59.897328","17.588581","20.72","UPPSALA, SW","FM-12","ESCM ","V020","140,1,N,0040,1","99999,9,9,N","050000,1,N,1","+0088,1","+0059,1","10234,1",,,,,"01,1,+01110,1,99,9",,"120,M,+0135,1","999,N,+0035,1","99999,9,10209,1","5,1,000,1,+999,9","SYN082AAXX  03181 02458 35684 /1404 10088 20059 30209 40234 55000 333 10135 20035 81/37;",
"02458099999","2010-10-03T21:00:00","4","59.897328","17.588581","20.72","UPPSALA, SW","FM-12","ESCM ","V020","160,1,N,0040,1","99999,9,9,N","050000,1,N,1","+0091,1","+0043,1","10229,1",,,,,,,,,"99999,9,10204,1","7,1,005,1,+999,9","SYN060AAXX  03211 02458 45984 /1604 10091 20043 30204 40229 57005;",
"02458099999","2010-10-04T00:00:00","4","59.897328","17.588581","20.72","UPPSALA, SW","FM-12","ESCM ","V020","130,1,N,0030,1","99999,9,9,N","050000,1,N,1","+0060,1","+0041,1","10221,1",,,,,,,,,"99999,9,10195,1","8,1,008,1,+999,9","SYN060AAXX  04001 02458 45984 /1303 10060 20041 30195 40221 58008;",
"02458099999","2010-10-04T03:00:00","4","59.897328","17.588581","20.72","UPPSALA, SW","FM-12","ESCM ","V020","130,1,N,0040,1","99999,9,9,N","045000,1,N,1","+0068,1","+0056,1","10207,1",,,,,"04,1,+06000,1,99,9",,,,"99999,9,10181,1","7,1,014,1,+999,9","SYN070AAXX  04031 02458 45983 /1304 10068 20056 30181 40207 57014 333 84/70;",
"02458099999","2010-10-04T06:00:00","4","59.897328","17.588581","20.72","UPPSALA, SW","FM-12","ESCM ","V020","140,1,N,0040,1","99999,9,9,N","035000,1,N,1","+0092,1","+0077,1","10210,1",,,,,"02,1,+00630,1,99,9",,"120,M,+0098,1","999,N,+0057,1","99999,9,10185,1","3,1,004,1,+999,9","SYN088AAXX  04061 02458 35581 /1404 10092 20077 30185 40210 53004 333 10098 20057 82/21 86/70;",
"02458099999","2010-10-04T09:00:00","4","59.897328","17.588581","20.72","UPPSALA, SW","FM-12","ESCM ","V020","160,1,N,0060,1","99999,9,9,N","035000,1,N,1","+0120,1","+0078,1","10202,1",,,,,"02,1,+00720,1,99,9",,,,"99999,9,10177,1","7,1,008,1,+999,9","SYN070AAXX  04091 02458 45581 /1606 10120 20078 30177 40202 57008 333 82/24;",
"02458099999","2010-10-04T12:00:00","4","59.897328","17.588581","20.72","UPPSALA, SW","FM-12","ESCM ","V020","170,1,N,0070,1","99999,9,9,N","040000,1,N,1","+0138,1","+0067,1","10194,1",,,,,"01,1,+01050,1,99,9",,,,"99999,9,10169,1","6,1,008,1,+999,9","SYN070AAXX  04121 02458 45682 /1707 10138 20067 30169 40194 56008 333 81/35;",
"02458099999","2010-10-04T15:00:00","4","59.897328","17.588581","20.72","UPPSALA, SW","FM-12","ESCM ","V020","150,1,N,0070,1","99999,9,9,N","050000,1,N,1","+0129,1","+0058,1","10186,1",,,,,,,,,"99999,9,10161,1","6,1,009,1,+999,9","SYN060AAXX  04151 02458 45984 /1507 10129 20058 30161 40186 56009;",
"02458099999","2010-10-04T18:00:00","4","59.897328","17.588581","20.72","UPPSALA, SW","FM-12","ESCM ","V020","150,1,N,0060,1","00720,1,C,N","040000,1,N,1","+0105,1","+0068,1","10196,1",,,,,"08,1,+00720,1,99,9",,"120,M,+0144,1","999,N,+0092,1","99999,9,10171,1","2,1,010,1,+999,9","SYN082AAXX  04181 02458 35582 /1506 10105 20068 30171 40196 52010 333 10144 20092 88/24;",
"02458099999","2010-10-04T21:00:00","4","59.897328","17.588581","20.72","UPPSALA, SW","FM-12","ESCM ","V020","160,1,N,0050,1","99999,9,9,N","045000,1,N,1","+0091,1","+0056,1","10200,1",,,,,,,,,"99999,9,10174,1","0,1,004,1,+999,9","SYN060AAXX  04211 02458 45983 /1605 10091 20056 30174 40200 50004;",
"02458099999","2010-10-05T00:00:00","4","59.897328","17.588581","20.72","UPPSALA, SW","FM-12","ESCM ","V020","150,1,N,0030,1","99999,9,9,N","045000,1,N,1","+0073,1","+0049,1","10198,1",,,,,,,,,"99999,9,10173,1","7,1,001,1,+999,9","SYN060AAXX  05001 02458 45983 /1503 10073 20049 30173 40198 57001;",
"02458099999","2010-10-05T03:00:00","4","59.897328","17.588581","20.72","UPPSALA, SW","FM-12","ESCM ","V020","130,1,N,0040,1","00720,1,C,N","030000,1,N,1","+0069,1","+0056,1","10200,1",,,,,"08,1,+00720,1,99,9",,,,"99999,9,10175,1","2,1,002,1,+999,9","SYN070AAXX  05031 02458 45580 /1304 10069 20056 30175 40200 52002 333 88/24;",
"02458099999","2010-10-05T06:00:00","4","59.897328","17.588581","20.72","UPPSALA, SW","FM-12","ESCM ","V020","150,1,N,0040,1","00750,1,C,N","030000,1,N,1","+0093,1","+0068,1","10204,1",,,,,"08,1,+00750,1,99,9",,"120,M,+0106,1","999,N,+0041,1","99999,9,10179,1","3,1,004,1,+999,9","SYN082AAXX  05061 02458 35580 /1504 10093 20068 30179 40204 53004 333 10106 20041 88/25;",
"02458099999","2010-10-05T09:00:00","4","59.897328","17.588581","20.72","UPPSALA, SW","FM-12","ESCM ","V020","160,1,N,0060,1","99999,9,9,N","035000,1,N,1","+0111,1","+0067,1","10211,1",,,,,"03,1,+00720,1,99,9",,,,"99999,9,10185,1","0,1,007,1,+999,9","SYN070AAXX  05091 02458 45581 /1606 10111 20067 30185 40211 50007 333 83/24;",
"02458099999","2010-10-05T12:00:00","4","59.897328","17.588581","20.72","UPPSALA, SW","FM-12","ESCM ","V020","150,1,N,0070,1","99999,9,9,N","035000,1,N,1","+0120,1","+0055,1","10208,1",,,,,"01,1,+06900,1,99,9",,,,"99999,9,10183,1","7,1,002,1,+999,9","SYN070AAXX  05120 02458 45981 /1507 10120 20055 30183 40208 57002 333 81/73;",
"02458099999","2010-10-05T15:00:00","4","59.897328","17.588581","20.72","UPPSALA, SW","FM-12","ESCM ","V020","140,1,N,0070,1","99999,9,9,N","035000,1,N,1","+0105,1","+0057,1","10206,1",,,,,,,,,"99999,9,10180,1","7,1,003,1,+999,9","SYN060AAXX  05151 02458 45981 /1407 10105 20057 30180 40206 57003;",
"02458099999","2010-10-05T18:00:00","4","59.897328","17.588581","20.72","UPPSALA, SW","FM-12","ESCM ","V020","140,1,N,0040,1","00780,1,C,N","030000,1,N,1","+0083,1","+0050,1","10221,1",,,,,"05,1,+00780,1,99,9",,"120,M,+0122,1","999,N,+0080,1","99999,9,10196,1","2,1,016,1,+999,9","SYN082AAXX  05181 02458 35580 /1404 10083 20050 30196 40221 52016 333 10122 20080 85/26;",
"02458099999","2010-10-05T21:00:00","4","59.897328","17.588581","20.72","UPPSALA, SW","FM-12","ESCM ","V020","160,1,N,0050,1","99999,9,9,N","035000,1,N,1","+0095,1","+0052,1","10224,1",,,,,"04,1,+00900,1,99,9",,,,"99999,9,10198,1","2,1,002,1,+999,9","SYN070AAXX  05211 02458 45581 /1605 10095 20052 30198 40224 52002 333 84/30;",
"02458099999","2010-10-06T00:00:00","4","59.897328","17.588581","20.72","UPPSALA, SW","FM-12","ESCM ","V020","160,1,N,0060,1","00840,1,C,N","035000,1,N,1","+0102,1","+0057,1","10219,1",,,,,"08,1,+00840,1,99,9",,,,"99999,9,10194,1","6,1,005,1,+999,9","SYN070AAXX  06001 02458 45581 /1606 10102 20057 30194 40219 56005 333 88/28;",
"02458099999","2010-10-06T03:00:00","4","59.897328","17.588581","20.72","UPPSALA, SW","FM-12","ESCM ","V020","160,1,N,0060,1","00750,1,C,N","040000,1,N,1","+0102,1","+0057,1","10218,1",,,,,"08,1,+00750,1,99,9",,,,"99999,9,10193,1","4,1,000,1,+999,9","SYN070AAXX  06031 02458 45582 /1606 10102 20057 30193 40218 54001 333 88/25;",
"02458099999","2010-10-06T06:00:00","4","59.897328","17.588581","20.72","UPPSALA, SW","FM-12","ESCM ","V020","160,1,N,0070,1","00780,1,C,N","035000,1,N,1","+0101,1","+0054,1","10226,1",,,,,"08,1,+00780,1,99,9",,"120,M,+0105,1","999,N,+0082,1","99999,9,10201,1","3,1,008,1,+999,9","SYN082AAXX  06061 02458 35581 /1607 10101 20054 30201 40226 53008 333 10105 20082 88/26;",
"02458099999","2010-10-06T09:00:00","4","59.897328","17.588581","20.72","UPPSALA, SW","FM-12","ESCM ","V020","160,1,N,0070,1","00870,1,C,N","999999,9,N,1","+0102,1","+0051,1","10235,1",,,,,"08,1,+00870,1,99,9",,,,"99999,9,10209,1","0,1,008,1,+999,9","SYN070AAXX  06091 02458 465// /1607 10102 20051 30209 40235 50008 333 88/29;",
"02458099999","2010-10-06T12:00:00","4","59.897328","17.588581","20.72","UPPSALA, SW","FM-12","ESCM ","V020","170,1,N,0080,1","00900,1,C,N","028000,1,N,1","+0107,1","+0050,1","10235,1",,,,,"08,1,+00900,1,99,9",,,,"99999,9,10209,1","4,1,000,1,+999,9","SYN070AAXX  06121 02458 45578 /1708 10107 20050 30209 40235 54000 333 88/30;",
"02458099999","2010-10-06T15:00:00","4","59.897328","17.588581","20.72","UPPSALA, SW","FM-12","ESCM ","V020","150,1,N,0060,1","00900,1,C,N","030000,1,N,1","+0110,1","+0055,1","10231,1",,,,,"08,1,+00900,1,99,9",,,,"99999,9,10205,1","7,1,004,1,+999,9","SYN070AAXX  06151 02458 45580 /1506 10110 20055 30205 40231 57004 333 88/30;",
"02458099999","2010-10-06T18:00:00","4","59.897328","17.588581","20.72","UPPSALA, SW","FM-12","ESCM ","V020","160,1,N,0080,1","00810,1,C,N","030000,1,N,1","+0103,1","+0050,1","10231,1",,,,,"08,1,+00810,1,99,9",,"120,M,+0111,1","999,N,+0100,1","99999,9,10205,1","0,1,000,1,+999,9","SYN082AAXX  06181 02458 35580 /1608 10103 20050 30205 40231 50000 333 10111 20100 88/27;",
"02458099999","2010-10-06T21:00:00","4","59.897328","17.588581","20.72","UPPSALA, SW","FM-12","ESCM ","V020","160,1,N,0060,1","99999,9,9,N","028000,1,N,1","+0093,1","+0054,1","10230,1",,,,,,,,,"99999,9,10204,1","8,1,001,1,+999,9","SYN060AAXX  06211 02458 45978 /1606 10093 20054 30204 40230 58001;",
"02458099999","2010-10-07T00:00:00","4","59.897328","17.588581","20.72","UPPSALA, SW","FM-12","ESCM ","V020","160,1,N,0060,1","01380,1,C,N","030000,1,N,1","+0098,1","+0062,1","10224,1",,,,,"07,1,+01380,1,99,9",,,,"99999,9,10198,1","7,1,006,1,+999,9","SYN070AAXX  07001 02458 45680 /1606 10098 20062 30198 40224 57006 333 87/46;",
"02458099999","2010-10-07T03:00:00","4","59.897328","17.588581","20.72","UPPSALA, SW","FM-12","ESCM ","V020","150,1,N,0070,1","99999,9,9,N","023000,1,N,1","+0106,1","+0070,1","10224,1",,,,,"01,1,+00630,1,99,9",,,,"99999,9,10199,1","4,1,000,1,+999,9","SYN076AAXX  07031 02458 45573 /1507 10106 20070 30199 40224 54000 333 81/21 88/45;",
"02458099999","2010-10-07T06:00:00","4","59.897328","17.588581","20.72","UPPSALA, SW","FM-12","ESCM ","V020","170,1,N,0060,1","00540,1,C,N","009000,1,N,1","+0101,1","+0079,1","10238,1","12,0005,9,1","24,0005,9,1","81,1","8,1,06,1","07,1,+00540,1,99,9",,"120,M,+0108,1","999,N,+0089,1","99999,9,10212,1","3,1,014,1,+999,9","SYN112AAXX  07061 02458 07459 /1706 10101 20079 30212 40238 53014 69942 78186 333 10108 20089 69945 70004 87/18 88/42;",
"02458099999","2010-10-07T09:00:00","4","59.897328","17.588581","20.72","UPPSALA, SW","FM-12","ESCM ","V020","180,1,N,0060,1","00270,1,C,N","010000,1,N,1","+0097,1","+0087,1","10259,1",,,"61,1","8,1,03,1","08,1,+00270,1,99,9",,,,"99999,9,10233,1","1,1,021,1,+999,9","SYN076AAXX  07091 02458 47360 /1806 10097 20087 30233 40259 51021 76186 333 88/09;",
"02458099999","2010-10-07T12:00:00","4","59.897328","17.588581","20.72","UPPSALA, SW","FM-12","ESCM ","V020","180,1,N,0040,1","00240,1,C,N","012000,1,N,1","+0097,1","+0089,1","10275,1",,,"62,1","8,1,06,1","07,1,+00240,1,99,9",,,,"99999,9,10250,1","3,1,016,1,+999,9","SYN082AAXX  07121 02458 47362 /1804 10097 20089 30250 40275 53016 76286 333 87/08 88/11;",
"02458099999","2010-10-07T15:00:00","4","59.897328","17.588581","20.72","UPPSALA, SW","FM-12","ESCM ","V020","170,1,N,0040,1","00270,1,C,N","013000,1,N,1","+0095,1","+0088,1","10288,1",,,"61,1","6,1,03,1","07,1,+00270,1,99,9",,,,"99999,9,10262,1","3,1,012,1,+999,9","SYN082AAXX  07151 02458 47363 /1704 10095 20088 30262 40288 53012 76166 333 87/09 88/12;",
"02458099999","2010-10-07T18:00:00","4","59.897328","17.588581","20.72","UPPSALA, SW","FM-12","ESCM ","V020","180,1,N,0030,1","00210,1,C,N","017000,1,N,1","+0091,1","+0083,1","10298,1","12,0140,9,1",,"00,1","6,1,06,1","08,1,+00210,1,99,9",,"120,M,+0101,1","999,N,+0091,1","99999,9,10272,1","3,1,010,1,+999,9","SYN094AAXX  07180 02458 17367 /1803 10091 20083 30272 40298 53010 60142 70065 333 10101 20091 88/07;",
"02458099999","2010-10-07T21:00:00","4","59.897328","17.588581","20.72","UPPSALA, SW","FM-12","ESCM ","V020","210,1,N,0010,1","00210,1,C,N","004300,1,N,1","+0088,1","+0083,1","10314,1",,,"10,1","2,1,03,1","08,1,+00210,1,99,9",,,,"99999,9,10288,1","2,1,016,1,+999,9","SYN076AAXX  07211 02458 47343 /2101 10088 20083 30288 40314 52016 71010 333 88/07;",
"02458099999","2010-10-08T00:00:00","4","59.897328","17.588581","20.72","UPPSALA, SW","FM-12","ESCM ","V020","170,1,N,0010,1","00150,1,C,N","007000,1,N,1","+0086,1","+0082,1","10320,1",,,"10,1","2,1,06,1","07,1,+00150,1,99,9",,,,"99999,9,10294,1","3,1,006,1,+999,9","SYN082AAXX  08001 02458 47257 /1701 10086 20082 30294 40320 53006 71010 333 87/05 88/08;",
"02458099999","2010-10-08T03:00:00","4","59.897328","17.588581","20.72","UPPSALA, SW","FM-12","ESCM ","V020","160,1,N,0010,1","00120,1,C,N","003400,1,N,1","+0086,1","+0082,1","10322,1",,,"10,1","2,1,03,1","09,1,+00120,1,99,9",,,,"99999,9,10296,1","2,1,002,1,+999,9","SYN076AAXX  08031 02458 47/34 /1601 10086 20082 30296 40322 52002 71011 333 89/04;",
"02458099999","2010-10-08T06:00:00","4","59.897328","17.588581","20.72","UPPSALA, SW","FM-12","ESCM ","V020","170,1,N,0010,1","99999,9,9,N","004200,1,N,1","+0087,1","+0083,1","10330,1","24,0142,9,1",,"10,1","2,1,06,1","01,1,+00150,1,99,9",,"120,M,+0091,1","999,N,+0085,1","99999,9,10304,1","2,1,008,1,+999,9","SYN100AAXX  08061 02458 37242 /1701 10087 20083 30304 40330 52008 71011 333 10091 20085 70143 81/05 88/09;",
"02458099999","2010-10-08T12:00:00","4","59.897328","17.588581","20.72","UPPSALA, SW","FM-12","ESCM ","V020","999,9,C,0000,1","00240,1,C,N","009000,1,N,1","+0105,1","+0088,1","10341,1",,,"10,1","2,1,06,1","05,1,+00240,1,99,9",,,,"99999,9,10315,1","8,1,001,1,+999,9","SYN082AAXX  08121 02458 47359 /0000 10105 20088 30315 40341 58001 71010 333 85/08 88/16;",
"02458099999","2010-10-08T15:00:00","4","59.897328","17.588581","20.72","UPPSALA, SW","FM-12","ESCM ","V020","999,9,C,0000,1","00540,1,C,N","010000,1,N,1","+0114,1","+0096,1","10341,1",,,,,"06,1,+00540,1,99,9",,,,"99999,9,10315,1","5,1,000,1,+999,9","SYN076AAXX  08151 02458 45460 /0000 10114 20096 30315 40341 55000 333 86/18 88/23;",
"02458099999","2010-10-08T18:00:00","4","59.897328","17.588581","20.72","UPPSALA, SW","FM-12","ESCM ","V020","999,9,C,0000,1","99999,9,9,N","000400,1,N,1","+0078,1","+0074,1","10347,1",,,"34,1","4,1,06,1","02,1,+00660,1,99,9",,"120,M,+0114,1","999,N,+0079,1","99999,9,10321,1","2,1,006,1,+999,9","SYN088AAXX  08181 02458 37504 /0000 10078 20074 30321 40347 52006 73431 333 10114 20079 82/22;",
"02458099999","2010-10-08T21:00:00","4","59.897328","17.588581","20.72","UPPSALA, SW","FM-12","ESCM ","V020","160,1,N,0010,1","00090,1,C,N","000400,1,N,1","+0067,1","+0065,1","10355,1",,,"32,1","4,1,03,1","09,1,+00090,1,99,9",,,,"99999,9,10329,1","3,1,008,1,+999,9","SYN076AAXX  08211 02458 47/04 /1601 10067 20065 30329 40355 53008 73233 333 89/03;",
"02458099999","2010-10-09T00:00:00","4","59.897328","17.588581","20.72","UPPSALA, SW","FM-12","ESCM ","V020","140,1,N,0010,1","00450,1,C,N","002500,1,N,1","+0079,1","+0076,1","10349,1",,,"10,1","4,1,06,1","08,1,+00450,1,99,9",,,,"99999,9,10323,1","7,1,006,1,+999,9","SYN076AAXX  09001 02458 47425 /1401 10079 20076 30323 40349 57006 71032 333 88/15;",
"02458099999","2010-10-09T03:00:00","4","59.897328","17.588581","20.72","UPPSALA, SW","FM-12","ESCM ","V020","160,1,N,0010,1","99999,9,9,N","004200,1,N,1","+0081,1","+0077,1","10345,1",,,"10,1","2,1,03,1","01,1,+00480,1,99,9",,,,"99999,9,10319,1","8,1,005,1,+999,9","SYN082AAXX  09031 02458 47442 /1601 10081 20077 30319 40345 58005 71011 333 81/16 88/24;",
"02458099999","2010-10-09T06:00:00","4","59.897328","17.588581","20.72","UPPSALA, SW","FM-12","ESCM ","V020","130,1,N,0010,1","00600,1,C,N","004200,1,N,1","+0076,1","+0070,1","10338,1",,,"10,1","2,1,06,1","08,1,+00600,1,99,9",,"120,M,+0085,1","999,N,+0059,1","99999,9,10312,1","7,1,007,1,+999,9","SYN088AAXX  09061 02458 37542 /1301 10076 20070 30312 40338 57007 71011 333 10085 20059 88/20;",
"02458099999","2010-10-09T09:00:00","4","59.897328","17.588581","20.72","UPPSALA, SW","FM-12","ESCM ","V020","230,1,N,0030,1","00540,1,C,N","008000,1,N,1","+0087,1","+0068,1","10335,1",,,"10,1","2,1,03,1","08,1,+00540,1,99,9",,,,"99999,9,10310,1","7,1,002,1,+999,9","SYN076AAXX  09091 02458 47458 /2303 10087 20068 30310 40335 57002 71011 333 88/18;",
"02458099999","2010-10-09T12:00:00","4","59.897328","17.588581","20.72","UPPSALA, SW","FM-12","ESCM ","V020","240,1,N,0040,1","00540,1,C,N","015000,1,N,1","+0095,1","+0063,1","10309,1",,,,,"06,1,+00540,1,99,9",,,,"99999,9,10283,1","8,1,026,1,+999,9","SYN076AAXX  09121 02458 45465 /2404 10095 20063 30283 40309 58026 333 86/18 87/74;",
"02458099999","2010-10-09T15:00:00","4","59.897328","17.588581","20.72","UPPSALA, SW","FM-12","ESCM ","V020","250,1,N,0020,1","99999,9,9,N","013000,1,N,1","+0080,1","+0055,1","10287,1",,,,,,,,,"99999,9,10261,1","8,1,022,1,+999,9","SYN060AAXX  09151 02458 45963 /2502 10080 20055 30261 40287 58022;",
"02458099999","2010-10-09T18:00:00","4","59.897328","17.588581","20.72","UPPSALA, SW","FM-12","ESCM ","V020","250,1,N,0030,1","00300,1,C,N","008000,1,N,1","+0071,1","+0057,1","10272,1",,,"10,1","2,1,06,1","08,1,+00300,1,99,9",,"120,M,+0107,1","999,N,+0056,1","99999,9,10246,1","8,1,016,1,+999,9","SYN088AAXX  09180 02458 37458 /2503 10071 20057 30246 40272 58016 71010 333 10107 20056 88/10;",
"02458099999","2010-10-09T21:00:00","4","59.897328","17.588581","20.72","UPPSALA, SW","FM-12","ESCM ","V020","270,1,N,0030,1","00240,1,C,N","013000,1,N,1","+0074,1","+0063,1","10253,1",,,,,"08,1,+00240,1,99,9",,,,"99999,9,10228,1","6,1,018,1,+999,9","SYN070AAXX  09211 02458 45363 /2703 10074 20063 30228 40253 56018 333 88/08;",
"02458099999","2010-10-10T00:00:00","4","59.897328","17.588581","20.72","UPPSALA, SW","FM-12","ESCM ","V020","240,1,N,0020,1","00210,1,C,N","016000,1,N,1","+0062,1","+0055,1","10228,1",,,,,"08,1,+00210,1,99,9",,,,"99999,9,10203,1","8,1,025,1,+999,9","SYN070AAXX  10001 02458 45366 /2402 10062 20055 30203 40228 58025 333 88/07;",
"02458099999","2010-10-10T03:00:00","4","59.897328","17.588581","20.72","UPPSALA, SW","FM-12","ESCM ","V020","250,1,N,0020,1","00120,1,C,N","015000,1,N,1","+0053,1","+0048,1","10213,1",,,,,"09,1,+00120,1,99,9",,,,"99999,9,10187,1","8,1,016,1,+999,9","SYN070AAXX  10031 02458 45/65 /2502 10053 20048 30187 40213 58016 333 89/04;",
"02458099999","2010-10-10T06:00:00","4","59.897328","17.588581","20.72","UPPSALA, SW","FM-12","ESCM ","V020","260,1,N,0020,1","99999,9,9,N","050000,1,N,1","+0056,1","+0049,1","10195,1",,,,,"04,1,+01800,1,99,9",,"120,M,+0074,1","999,N,+0052,1","99999,9,10170,1","8,1,017,1,+999,9","SYN088AAXX  10060 02458 35784 /2602 10056 20049 30170 40195 58017 333 10074 20052 84/56 88/59;",
"02458099999","2010-10-10T09:00:00","4","59.897328","17.588581","20.72","UPPSALA, SW","FM-12","ESCM ","V020","310,1,N,0030,1","99999,9,9,N","050000,1,N,1","+0086,1","+0059,1","10198,1",,,,,"01,1,+01470,1,99,9",,,,"99999,9,10173,1","2,1,003,1,+999,9","SYN070AAXX  10091 02458 45684 /3103 10086 20059 30173 40198 52003 333 81/49;",
"02458099999","2010-10-10T12:00:00","4","59.897328","17.588581","20.72","UPPSALA, SW","FM-12","ESCM ","V020","350,1,N,0050,1","99999,9,9,N","040000,1,N,1","+0096,1","+0031,1","10197,1",,,,,"03,1,+06300,1,99,9",,,,"99999,9,10172,1","4,1,000,1,+999,9","SYN070AAXX  10121 02458 45982 /3505 10096 20031 30172 40197 54001 333 83/71;",
"02458099999","2010-10-10T15:00:00","4","59.897328","17.588581","20.72","UPPSALA, SW","FM-12","ESCM ","V020","010,1,N,0020,1","99999,9,9,N","050000,1,N,1","+0077,1","+0011,1","10201,1",,,,,,,,,"99999,9,10176,1","2,1,004,1,+999,9","SYN060AAXX  10151 02458 45984 /0102 10077 20011 30176 40201 52004;",
"02458099999","2010-10-10T18:00:00","4","59.897328","17.588581","20.72","UPPSALA, SW","FM-12","ESCM ","V020","300,1,N,0020,1","99999,9,9,N","050000,1,N,1","+0029,1","+0004,1","10206,1",,,,,,,"120,M,+0100,1","999,N,+0028,1","99999,9,10180,1","0,1,004,1,+999,9","SYN076AAXX  10181 02458 35984 /3002 10029 20004 30180 40206 50004 333 10100 20028;",
"02458099999","2010-10-10T21:00:00","4","59.897328","17.588581","20.72","UPPSALA, SW","FM-12","ESCM ","V020","300,1,N,0040,1","99999,9,9,N","050000,1,N,1","+0022,1","-0006,1","10207,1",,,,,,,,,"99999,9,10181,1","2,1,002,1,+999,9","SYN060AAXX  10211 02458 45984 /3004 10022 21006 30181 40207 52002;",
"02458099999","2010-10-11T00:00:00","4","59.897328","17.588581","20.72","UPPSALA, SW","FM-12","ESCM ","V020","300,1,N,0040,1","99999,9,9,N","050000,1,N,1","+0017,1","-0012,1","10204,1",,,,,,,,,"99999,9,10178,1","7,1,004,1,+999,9","SYN060AAXX  11001 02458 45984 /3004 10017 21012 30178 40204 57004;",
"02458099999","2010-10-11T03:00:00","4","59.897328","17.588581","20.72","UPPSALA, SW","FM-12","ESCM ","V020","300,1,N,0040,1","99999,9,9,N","050000,1,N,1","+0004,1","-0014,1","10198,1",,,,,,,,,"99999,9,10172,1","7,1,006,1,+999,9","SYN060AAXX  11031 02458 45984 /3004 10004 21014 30172 40198 57006;",
"02458099999","2010-10-11T06:00:00","4","59.897328","17.588581","20.72","UPPSALA, SW","FM-12","ESCM ","V020","310,1,N,0040,1","99999,9,9,N","050000,1,N,1","+0001,1","-0013,1","10189,1",,,,,,,"120,M,+0037,1","999,N,-0006,1","99999,9,10163,1","8,1,009,1,+999,9","SYN076AAXX  11061 02458 35984 /3104 10001 21013 30163 40189 58009 333 10037 21006;",
"02458099999","2010-10-11T09:00:00","4","59.897328","17.588581","20.72","UPPSALA, SW","FM-12","ESCM ","V020","320,1,N,0050,1","99999,9,9,N","040000,1,N,1","+0054,1","+0007,1","10185,1",,,,,,,,,"99999,9,10159,1","8,1,005,1,+999,9","SYN060AAXX  11091 02458 45982 /3205 10054 20007 30159 40185 58005;",
"02458099999","2010-10-11T12:00:00","4","59.897328","17.588581","20.72","UPPSALA, SW","FM-12","ESCM ","V020","300,1,N,0060,1","99999,9,9,N","040000,1,N,1","+0080,1","-0001,1","10168,1",,,,,"01,1,+01140,1,99,9",,,,"99999,9,10143,1","8,1,016,1,+999,9","SYN070AAXX  11121 02458 45682 /3006 10080 21001 30143 40168 58016 333 81/38;",
"02458099999","2010-10-11T15:00:00","4","59.897328","17.588581","20.72","UPPSALA, SW","FM-12","ESCM ","V020","290,1,N,0040,1","99999,9,9,N","050000,1,N,1","+0072,1","+0003,1","10156,1",,,,,,,,,"99999,9,10130,1","7,1,013,1,+999,9","SYN060AAXX  11151 02458 45984 /2904 10072 20003 30130 40156 57013;",
"02458099999","2010-10-11T18:00:00","4","59.897328","17.588581","20.72","UPPSALA, SW","FM-12","ESCM ","V020","260,1,N,0040,1","99999,9,9,N","050000,1,N,1","+0044,1","+0003,1","10145,1",,,,,,,"120,M,+0084,1","999,N,+0001,1","99999,9,10120,1","8,1,010,1,+999,9","SYN076AAXX  11181 02458 35984 /2604 10044 20003 30120 40145 58010 333 10084 20001;",
"02458099999","2010-10-11T21:00:00","4","59.897328","17.588581","20.72","UPPSALA, SW","FM-12","ESCM ","V020","280,1,N,0040,1","99999,9,9,N","050000,1,N,1","+0039,1","-0011,1","10128,1",,,,,,,,,"99999,9,10102,1","6,1,018,1,+999,9","SYN060AAXX  11211 02458 45984 /2804 10039 21011 30102 40128 56018;",
"02458099999","2010-10-12T00:00:00","4","59.897328","17.588581","20.72","UPPSALA, SW","FM-12","ESCM ","V020","300,1,N,0050,1","99999,9,9,N","050000,1,N,1","+0046,1","+0000,1","10110,1",,,,,,,,,"99999,9,10085,1","6,1,018,1,+999,9","SYN060AAXX  12001 02458 45984 /3005 10046 20000 30085 40110 56018;",
"02458099999","2010-10-12T03:00:00","4","59.897328","17.588581","20.72","UPPSALA, SW","FM-12","ESCM ","V020","290,1,N,0040,1","06300,1,C,N","050000,1,N,1","+0049,1","+0009,1","10116,1",,,,,"08,1,+06300,1,99,9",,,,"99999,9,10090,1","3,1,006,1,+999,9","SYN070AAXX  12031 02458 45984 /2904 10049 20009 30090 40116 53006 333 88/71;",
"02458099999","2010-10-12T06:00:00","4","59.897328","17.588581","20.72","UPPSALA, SW","FM-12","ESCM ","V020","330,1,N,0060,1","99999,9,9,N","050000,1,N,1","+0049,1","-0011,1","10135,1",,,,,,,"120,M,+0062,1","999,N,+0037,1","99999,9,10109,1","2,1,019,1,+999,9","SYN076AAXX  12061 02458 35984 /3306 10049 21011 30109 40135 52019 333 10062 20037;",
"02458099999","2010-10-12T09:00:00","4","59.897328","17.588581","20.72","UPPSALA, SW","FM-12","ESCM ","V020","340,1,N,0070,1","04200,1,C,N","050000,1,N,1","+0056,1","-0031,1","10153,1",,,,,"05,1,+04200,1,99,9",,,,"99999,9,10127,1","2,1,018,1,+999,9","SYN070AAXX  12091 02458 45984 /3407 10056 21031 30127 40153 52018 333 85/64;",
"02458099999","2010-10-12T12:00:00","4","59.897328","17.588581","20.72","UPPSALA, SW","FM-12","ESCM ","V020","350,1,N,0060,1","99999,9,9,N","050000,1,N,1","+0075,1","-0027,1","10166,1",,,,,"01,1,+01500,1,99,9",,,,"99999,9,10141,1","3,1,014,1,+999,9","SYN070AAXX  12121 02458 45784 /3506 10075 21027 30141 40166 53014 333 81/50;",
"02458099999","2010-10-12T15:00:00","4","59.897328","17.588581","20.72","UPPSALA, SW","FM-12","ESCM ","V020","310,1,N,0030,1","99999,9,9,N","050000,1,N,1","+0060,1","-0024,1","10173,1",,,,,,,,,"99999,9,10147,1","2,1,006,1,+999,9","SYN060AAXX  12151 02458 45984 /3103 10060 21024 30147 40173 52006;",
"02458099999","2010-10-12T18:00:00","4","59.897328","17.588581","20.72","UPPSALA, SW","FM-12","ESCM ","V020","260,1,N,0010,1","99999,9,9,N","050000,1,N,1","+0015,1","-0028,1","10175,1",,,,,,,"120,M,+0078,1","999,N,+0015,1","99999,9,10149,1","0,1,003,1,+999,9","SYN076AAXX  12181 02458 35984 /2601 10015 21028 30149 40175 50003 333 10078 20015;",
"02458099999","2010-10-12T21:00:00","4","59.897328","17.588581","20.72","UPPSALA, SW","FM-12","ESCM ","V020","290,1,N,0020,1","03600,1,C,N","050000,1,N,1","+0025,1","-0017,1","10169,1",,,,,"08,1,+03600,1,99,9",,,,"99999,9,10143,1","7,1,006,1,+999,9","SYN070AAXX  12211 02458 45984 /2902 10025 21017 30143 40169 57006 333 88/62;",
"02458099999","2010-10-13T00:00:00","4","59.897328","17.588581","20.72","UPPSALA, SW","FM-12","ESCM ","V020","280,1,N,0030,1","99999,9,9,N","050000,1,N,1","+0015,1","-0023,1","10162,1",,,,,,,,,"99999,9,10136,1","7,1,007,1,+999,9","SYN060AAXX  13001 02458 45984 /2803 10015 21023 30136 40162 57007;",
"02458099999","2010-10-13T03:00:00","4","59.897328","17.588581","20.72","UPPSALA, SW","FM-12","ESCM ","V020","290,1,N,0040,1","02100,1,C,N","050000,1,N,1","+0027,1","-0014,1","10153,1",,,,,"08,1,+02100,1,99,9",,,,"99999,9,10127,1","8,1,009,1,+999,9","SYN070AAXX  13031 02458 45884 /2904 10027 21014 30127 40153 58009 333 88/57;",
"02458099999","2010-10-13T06:00:00","4","59.897328","17.588581","20.72","UPPSALA, SW","FM-12","ESCM ","V020","290,1,N,0040,1","99999,9,9,N","050000,1,N,1","+0035,1","-0005,1","10149,1",,,,,,,"120,M,+0035,1","999,N,+0007,1","99999,9,10123,1","5,1,004,1,+999,9","SYN076AAXX  13060 02458 35984 /2904 10035 21005 30123 40149 55004 333 10035 20007;",
"02458099999","2010-10-13T09:00:00","4","59.897328","17.588581","20.72","UPPSALA, SW","FM-12","ESCM ","V020","310,1,N,0060,1","99999,9,9,N","045000,1,N,1","+0068,1","+0003,1","10145,1",,,,,,,,,"99999,9,10120,1","8,1,003,1,+999,9","SYN060AAXX  13091 02458 45983 /3106 10068 20003 30120 40145 58003;",
"02458099999","2010-10-13T12:00:00","4","59.897328","17.588581","20.72","UPPSALA, SW","FM-12","ESCM ","V020","300,1,N,0050,1","01230,1,C,N","050000,1,N,1","+0078,1","+0000,1","10137,1",,,,,"05,1,+01230,1,99,9",,,,"99999,9,10112,1","7,1,008,1,+999,9","SYN076AAXX  13121 02458 45684 /3005 10078 20000 30112 40137 57008 333 85/41 88/59;",
"02458099999","2010-10-13T15:00:00","4","59.897328","17.588581","20.72","UPPSALA, SW","FM-12","ESCM ","V020","270,1,N,0030,1","02700,1,C,N","050000,1,N,1","+0069,1","+0013,1","10126,1",,,,,"06,1,+02700,1,99,9","07,1,+03900,1,99,9",,,"99999,9,10101,1","7,1,011,1,+999,9","SYN082AAXX  13151 02458 45984 /2703 10069 20013 30101 40126 57011 333 86/59 87/63 88/65;",
"02458099999","2010-10-13T18:00:00","4","59.897328","17.588581","20.72","UPPSALA, SW","FM-12","ESCM ","V020","250,1,N,0010,1","99999,9,9,N","050000,1,N,1","+0034,1","+0009,1","10113,1",,,,,"03,1,+03600,1,99,9",,"120,M,+0082,1","999,N,+0034,1","99999,9,10087,1","8,1,014,1,+999,9","SYN082AAXX  13181 02458 35984 /2501 10034 20009 30087 40113 58014 333 10082 20034 83/62;",
"02458099999","2010-10-13T21:00:00","4","59.897328","17.588581","20.72","UPPSALA, SW","FM-12","ESCM ","V020","220,1,N,0020,1","99999,9,9,N","050000,1,N,1","+0019,1","+0004,1","10093,1",,,,,,,,,"99999,9,10067,1","8,1,020,1,+999,9","SYN060AAXX  13211 02458 45984 /2202 10019 20004 30067 40093 58020;",
"02458099999","2010-10-14T00:00:00","4","59.897328","17.588581","20.72","UPPSALA, SW","FM-12","ESCM ","V020","220,1,N,0030,1","99999,9,9,N","050000,1,N,1","+0026,1","+0010,1","10057,1",,,,,"01,1,+03600,1,99,9",,,,"99999,9,10032,1","8,1,035,1,+999,9","SYN070AAXX  14001 02458 45984 /2203 10026 20010 30032 40057 58035 333 81/62;",
"02458099999","2010-10-14T03:00:00","4","59.897328","17.588581","20.72","UPPSALA, SW","FM-12","ESCM ","V020","250,1,N,0040,1","99999,9,9,N","020000,1,N,1","+0044,1","+0031,1","10027,1",,,"52,1","5,1,03,1","03,1,+00900,1,99,9",,,,"99999,9,10002,1","6,1,030,1,+999,9","SYN082AAXX  14031 02458 47570 /2504 10044 20031 30002 40027 56030 75254 333 83/30 85/48;",
"02458099999","2010-10-14T06:00:00","4","59.897328","17.588581","20.72","UPPSALA, SW","FM-12","ESCM ","V020","270,1,N,0040,1","99999,9,9,N","050000,1,N,1","+0055,1","+0039,1","10010,1","12,0010,9,1","24,0010,9,1","81,1","8,1,06,1","04,1,+02100,1,99,9",,"120,M,+0055,1","999,N,+0019,1","99999,9,09985,1","6,1,017,1,+999,9","SYN112AAXX  14061 02458 07884 /2704 10055 20039 39985 40010 56017 69992 78186 333 10055 20019 69925 70009 84/57 85/61;",
"02458099999","2010-10-14T09:00:00","4","59.897328","17.588581","20.72","UPPSALA, SW","FM-12","ESCM ","V020","310,1,N,0090,1","99999,9,9,N","040000,1,N,1","+0071,1","-0011,1","10005,1",,,"00,1","8,1,03,1",,,,,"99999,9,09980,1","7,1,004,1,+999,9","SYN066AAXX  14091 02458 47982 /3109 10071 21011 39980 40005 57004 70082;",
"02458099999","2010-10-14T12:00:00","4","59.897328","17.588581","20.72","UPPSALA, SW","FM-12","ESCM ","V020","310,1,N,0100,1","99999,9,9,N","040000,1,N,1","+0082,1","-0029,1","10004,1",,,"81,1","8,1,06,1","04,1,+01500,1,99,9",,,,"99999,9,09979,1","7,1,001,1,+999,9","SYN082AAXX  14121 02458 47782 /3110 10082 21029 39979 40004 57001 78186 333 84/50 85/71;",
"02458099999","2010-10-14T15:00:00","4","59.897328","17.588581","20.72","UPPSALA, SW","FM-12","ESCM ","V020","330,1,N,0090,1","99999,9,9,N","050000,1,N,1","+0071,1","-0057,1","10019,1",,,"00,1","8,1,03,1","03,1,+02400,1,99,9",,,,"99999,9,09994,1","3,1,015,1,+999,9","SYN076AAXX  14151 02458 47884 /3309 10071 21057 39994 40019 53015 70082 333 83/58;",
"02458099999","2010-10-14T18:00:00","4","59.897328","17.588581","20.72","UPPSALA, SW","FM-12","ESCM ","V020","310,1,N,0070,1","99999,9,9,N","050000,1,N,1","+0042,1","-0051,1","10039,1",,,"00,1","8,1,06,1",,,"120,M,+0089,1","999,N,+0041,1","99999,9,10014,1","2,1,020,1,+999,9","SYN082AAXX  14181 02458 37984 /3107 10042 21051 30014 40039 52020 70082 333 10089 20041;",
"02458099999","2010-10-14T21:00:00","4","59.897328","17.588581","20.72","UPPSALA, SW","FM-12","ESCM ","V020","330,1,N,0050,1","99999,9,9,N","050000,1,N,1","+0024,1","-0055,1","10056,1",,,,,,,,,"99999,9,10031,1","3,1,017,1,+999,9","SYN060AAXX  14211 02458 45984 /3305 10024 21055 30031 40056 53017;",
"02458099999","2010-10-15T00:00:00","4","59.897328","17.588581","20.72","UPPSALA, SW","FM-12","ESCM ","V020","300,1,N,0040,1","99999,9,9,N","050000,1,N,1","+0001,1","-0048,1","10062,1",,,,,,,,,"99999,9,10036,1","2,1,005,1,+999,9","SYN060AAXX  15001 02458 45984 /3004 10001 21048 30036 40062 52005;",
"02458099999","2010-10-15T03:00:00","4","59.897328","17.588581","20.72","UPPSALA, SW","FM-12","ESCM ","V020","300,1,N,0040,1","99999,9,9,N","050000,1,N,1","-0005,1","-0033,1","10068,1",,,,,,,,,"99999,9,10042,1","2,1,007,1,+999,9","SYN060AAXX  15031 02458 45984 /3004 11005 21033 30042 40068 52007;",
"02458099999","2010-10-15T06:00:00","4","59.897328","17.588581","20.72","UPPSALA, SW","FM-12","ESCM ","V020","300,1,N,0030,1","99999,9,9,N","050000,1,N,1","-0012,1","-0036,1","10073,1",,,,,,,"120,M,+0046,1","999,N,-0013,1","99999,9,10047,1","2,1,004,1,+999,9","SYN076AAXX  15061 02458 35984 /3003 11012 21036 30047 40073 52004 333 10046 21013;",
"02458099999","2010-10-15T09:00:00","4","59.897328","17.588581","20.72","UPPSALA, SW","FM-12","ESCM ","V020","310,1,N,0060,1","99999,9,9,N","045000,1,N,1","+0032,1","-0025,1","10076,1",,,,,,,,,"99999,9,10050,1","0,1,004,1,+999,9","SYN060AAXX  15091 02458 45983 /3106 10032 21025 30050 40076 50004;",
"02458099999","2010-10-15T12:00:00","4","59.897328","17.588581","20.72","UPPSALA, SW","FM-12","ESCM ","V020","330,1,N,0050,1","01320,1,C,N","050000,1,N,1","+0050,1","-0033,1","10083,1",,,,,"06,1,+01320,1,99,9",,,,"99999,9,10057,1","2,1,007,1,+999,9","SYN070AAXX  15121 02458 45684 /3305 10050 21033 30057 40083 52007 333 86/44;",
"02458099999","2010-10-15T15:00:00","4","59.897328","17.588581","20.72","UPPSALA, SW","FM-12","ESCM ","V020","290,1,N,0030,1","99999,9,9,N","050000,1,N,1","+0025,1","-0022,1","10092,1",,,"00,1","8,1,03,1",,,,,"99999,9,10066,1","3,1,009,1,+999,9","SYN066AAXX  15151 02458 47984 /2903 10025 21022 30066 40092 53009 70086;",
"02458099999","2010-10-15T18:00:00","4","59.897328","17.588581","20.72","UPPSALA, SW","FM-12","ESCM ","V020","260,1,N,0010,1","99999,9,9,N","050000,1,N,1","-0007,1","-0022,1","10110,1",,,"00,1","8,1,06,1","01,1,+01500,1,99,9",,"120,M,+0056,1","999,N,-0013,1","99999,9,10084,1","2,1,018,1,+999,9","SYN094AAXX  15181 02458 37784 /2601 11007 21022 30084 40110 52018 70086 333 10056 21013 81/50 86/56;",
"02458099999","2010-10-15T21:00:00","4","59.897328","17.588581","20.72","UPPSALA, SW","FM-12","ESCM ","V020","290,1,N,0040,1","01800,1,C,N","050000,1,N,1","-0009,1","-0025,1","10126,1",,,,,"08,1,+01800,1,99,9",,,,"99999,9,10100,1","2,1,015,1,+999,9","SYN070AAXX  15211 02458 45784 /2904 11009 21025 30100 40126 52015 333 88/56;",
"02458099999","2010-10-16T00:00:00","4","59.897328","17.588581","20.72","UPPSALA, SW","FM-12","ESCM ","V020","300,1,N,0020,1","99999,9,9,N","050000,1,N,1","-0025,1","-0039,1","10142,1",,,,,,,,,"99999,9,10116,1","2,1,016,1,+999,9","SYN060AAXX  16001 02458 45984 /3002 11025 21039 30116 40142 52016;",
"02458099999","2010-10-16T03:00:00","4","59.897328","17.588581","20.72","UPPSALA, SW","FM-12","ESCM ","V020","310,1,N,0020,1","99999,9,9,N","050000,1,N,1","-0031,1","-0049,1","10154,1",,,,,,,,,"99999,9,10128,1","2,1,012,1,+999,9","SYN060AAXX  16031 02458 45984 /3102 11031 21049 30128 40154 52012;",
"02458099999","2010-10-16T06:00:00","4","59.897328","17.588581","20.72","UPPSALA, SW","FM-12","ESCM ","V020","300,1,N,0030,1","99999,9,9,N","050000,1,N,1","-0031,1","-0051,1","10167,1",,,,,"02,1,+01500,1,99,9",,"120,M,-0005,1","999,N,-0038,1","99999,9,10140,1","2,1,013,1,+999,9","SYN082AAXX  16061 02458 35784 /3003 11031 21051 30140 40167 52013 333 11005 21038 82/50;",
"02458099999","2010-10-16T09:00:00","4","59.897328","17.588581","20.72","UPPSALA, SW","FM-12","ESCM ","V020","310,1,N,0040,1","99999,9,9,N","045000,1,N,1","+0028,1","-0036,1","10180,1",,,,,,,,,"99999,9,10154,1","2,1,014,1,+999,9","SYN060AAXX  16091 02458 45983 /3104 10028 21036 30154 40180 52014;",
"02458099999","2010-10-16T12:00:00","4","59.897328","17.588581","20.72","UPPSALA, SW","FM-12","ESCM ","V020","350,1,N,0030,1","99999,9,9,N","050000,1,N,1","+0054,1","-0043,1","10182,1",,,,,,,,,"99999,9,10157,1","2,1,002,1,+999,9","SYN060AAXX  16121 02458 45984 /3503 10054 21043 30157 40182 52002;",
"02458099999","2010-10-16T15:00:00","4","59.897328","17.588581","20.72","UPPSALA, SW","FM-12","ESCM ","V020","320,1,N,0010,1","99999,9,9,N","050000,1,N,1","+0032,1","-0046,1","10189,1",,,,,,,,,"99999,9,10163,1","2,1,006,1,+999,9","SYN060AAXX  16151 02458 45984 /3201 10032 21046 30163 40189 52006;",
"02458099999","2010-10-16T18:00:00","4","59.897328","17.588581","20.72","UPPSALA, SW","FM-12","ESCM ","V020","999,9,C,0000,1","99999,9,9,N","050000,1,N,1","-0017,1","-0045,1","10196,1",,,,,,,"120,M,+0055,1","999,N,-0032,1","99999,9,10170,1","3,1,007,1,+999,9","SYN076AAXX  16181 02458 35984 /0000 11017 21045 30170 40196 53007 333 10055 21032;",
"02458099999","2010-10-16T21:00:00","4","59.897328","17.588581","20.72","UPPSALA, SW","FM-12","ESCM ","V020","270,1,N,0010,1","99999,9,9,N","050000,1,N,1","-0005,1","-0046,1","10197,1",,,,,"01,1,+01500,1,99,9",,,,"99999,9,10171,1","4,1,000,1,+999,9","SYN070AAXX  16211 02458 45784 /2701 11005 21046 30171 40197 54001 333 81/50;",
"02458099999","2010-10-17T00:00:00","4","59.897328","17.588581","20.72","UPPSALA, SW","FM-12","ESCM ","V020","190,1,N,0010,1","02400,1,C,N","050000,1,N,1","-0010,1","-0036,1","10194,1",,,,,"05,1,+02400,1,99,9",,,,"99999,9,10167,1","7,1,003,1,+999,9","SYN070AAXX  17001 02458 45984 /1901 11010 21036 30167 40194 57003 333 85/58;",
"02458099999","2010-10-17T03:00:00","4","59.897328","17.588581","20.72","UPPSALA, SW","FM-12","ESCM ","V020","220,1,N,0010,1","01470,1,C,N","050000,1,N,1","-0020,1","-0036,1","10194,1",,,,,"07,1,+01470,1,99,9",,,,"99999,9,10168,1","0,1,001,1,+999,9","SYN070AAXX  17031 02458 45684 /2201 11020 21036 30168 40194 50001 333 87/49;",
"02458099999","2010-10-17T06:00:00","4","59.897328","17.588581","20.72","UPPSALA, SW","FM-12","ESCM ","V020","210,1,N,0010,1","99999,9,9,N","050000,1,N,1","-0036,1","-0047,1","10195,1",,,,,,,"120,M,-0001,1","999,N,-0043,1","99999,9,10168,1","5,1,000,1,+999,9","SYN076AAXX  17061 02458 35984 /2101 11036 21047 30168 40195 55000 333 11001 21043;",
"02458099999","2010-10-17T09:00:00","4","59.897328","17.588581","20.72","UPPSALA, SW","FM-12","ESCM ","V020","250,1,N,0020,1","99999,9,9,N","045000,1,N,1","+0044,1","+0003,1","10196,1",,,,,,,,,"99999,9,10170,1","0,1,001,1,+999,9","SYN060AAXX  17091 02458 45983 /2502 10044 20003 30170 40196 50001;",
"02458099999","2010-10-17T12:00:00","4","59.897328","17.588581","20.72","UPPSALA, SW","FM-12","ESCM ","V020","240,1,N,0040,1","99999,9,9,N","050000,1,N,1","+0086,1","+0012,1","10188,1",,,,,,,,,"99999,9,10163,1","8,1,007,1,+999,9","SYN060AAXX  17121 02458 45984 /2404 10086 20012 30163 40188 58007;",
"02458099999","2010-10-17T15:00:00","4","59.897328","17.588581","20.72","UPPSALA, SW","FM-12","ESCM ","V020","210,1,N,0030,1","99999,9,9,N","050000,1,N,1","+0074,1","+0009,1","10182,1",,,,,,,,,"99999,9,10157,1","6,1,006,1,+999,9","SYN060AAXX  17151 02458 45984 /2103 10074 20009 30157 40182 56006;",
"02458099999","2010-10-17T18:00:00","4","59.897328","17.588581","20.72","UPPSALA, SW","FM-12","ESCM ","V020","210,1,N,0040,1","99999,9,9,N","050000,1,N,1","+0045,1","-0008,1","10180,1",,,,,,,"120,M,+0094,1","999,N,-0038,1","99999,9,10155,1","7,1,002,1,+999,9","SYN076AAXX  17181 02458 35984 /2104 10045 21008 30155 40180 57002 333 10094 21038;",
"02458099999","2010-10-17T21:00:00","4","59.897328","17.588581","20.72","UPPSALA, SW","FM-12","ESCM ","V020","220,1,N,0040,1","99999,9,9,N","050000,1,N,1","+0032,1","+0007,1","10174,1",,,,,,,,,"99999,9,10148,1","7,1,007,1,+999,9","SYN060AAXX  17211 02458 45984 /2204 10032 20007 30148 40174 57007;",
"02458099999","2010-10-18T00:00:00","4","59.897328","17.588581","20.72","UPPSALA, SW","FM-12","ESCM ","V020","210,1,N,0030,1","99999,9,9,N","050000,1,N,1","+0022,1","+0008,1","10167,1",,,,,,,,,"99999,9,10142,1","7,1,006,1,+999,9","SYN060AAXX  18001 02458 45984 /2103 10022 20008 30142 40167 57006;",
"02458099999","2010-10-18T03:00:00","4","59.897328","17.588581","20.72","UPPSALA, SW","FM-12","ESCM ","V020","170,1,N,0040,1","99999,9,9,N","050000,1,N,1","+0014,1","+0003,1","10150,1",,,,,,,,,"99999,9,10124,1","8,1,017,1,+999,9","SYN060AAXX  18031 02458 45984 /1704 10014 20003 30124 40150 58017;",
"02458099999","2010-10-18T06:00:00","4","59.897328","17.588581","20.72","UPPSALA, SW","FM-12","ESCM ","V020","200,1,N,0050,1","00390,1,C,N","045000,1,N,1","+0029,1","+0017,1","10140,1",,,,,"08,1,+00390,1,99,9",,"120,M,+0047,1","999,N,+0010,1","99999,9,10114,1","7,1,011,1,+999,9","SYN082AAXX  18061 02458 35483 /2005 10029 20017 30114 40140 57011 333 10047 20010 88/13;",
"02458099999","2010-10-18T09:00:00","4","59.897328","17.588581","20.72","UPPSALA, SW","FM-12","ESCM ","V020","180,1,N,0060,1","00390,1,C,N","040000,1,N,1","+0052,1","+0033,1","10126,1",,,,,"07,1,+00390,1,99,9",,,,"99999,9,10101,1","8,1,013,1,+999,9","SYN070AAXX  18091 02458 45482 /1806 10052 20033 30101 40126 58013 333 87/13;",
"02458099999","2010-10-18T12:00:00","4","59.897328","17.588581","20.72","UPPSALA, SW","FM-12","ESCM ","V020","190,1,N,0060,1","02100,1,C,N","050000,1,N,1","+0074,1","+0031,1","10107,1",,,,,"08,1,+02100,1,99,9",,,,"99999,9,10082,1","8,1,019,1,+999,9","SYN070AAXX  18121 02458 45884 /1906 10074 20031 30082 40107 58019 333 88/57;",
"02458099999","2010-10-18T15:00:00","4","59.897328","17.588581","20.72","UPPSALA, SW","FM-12","ESCM ","V020","180,1,N,0070,1","01800,1,C,N","050000,1,N,1","+0072,1","+0024,1","10084,1",,,,,"08,1,+01800,1,99,9",,,,"99999,9,10059,1","7,1,023,1,+999,9","SYN070AAXX  18151 02458 45784 /1807 10072 20024 30059 40084 57023 333 88/56;",
"02458099999","2010-10-18T18:00:00","4","59.897328","17.588581","20.72","UPPSALA, SW","FM-12","ESCM ","V020","190,1,N,0070,1","01140,1,C,N","050000,1,N,1","+0068,1","+0012,1","10069,1",,,"23,1","8,1,06,1","06,1,+01140,1,99,9",,"120,M,+0078,1","999,N,+0028,1","99999,9,10044,1","7,1,015,1,+999,9","SYN094AAXX  18181 02458 37684 /1907 10068 20012 30044 40069 57015 72386 333 10078 20028 86/38 88/46;",
"02458099999","2010-10-18T21:00:00","4","59.897328","17.588581","20.72","UPPSALA, SW","FM-12","ESCM ","V020","180,1,N,0060,1","00990,1,C,N","050000,1,N,1","+0066,1","+0014,1","10051,1",,,"00,1","8,1,03,1","07,1,+00990,1,99,9",,,,"99999,9,10026,1","8,1,018,1,+999,9","SYN082AAXX  18211 02458 47584 /1806 10066 20014 30026 40051 58018 70086 333 87/33 88/56;",
"02458099999","2010-10-19T00:00:00","4","59.897328","17.588581","20.72","UPPSALA, SW","FM-12","ESCM ","V020","170,1,N,0060,1","99999,9,9,N","021000,1,N,1","+0058,1","+0039,1","10033,1",,,"61,1","8,1,06,1","03,1,+00720,1,99,9",,,,"99999,9,10007,1","7,1,018,1,+999,9","SYN082AAXX  19001 02458 47571 /1706 10058 20039 30007 40033 57018 76186 333 83/24 88/33;",
"02458099999","2010-10-19T03:00:00","4","59.897328","17.588581","20.72","UPPSALA, SW","FM-12","ESCM ","V020","170,1,N,0040,1","00510,1,C,N","013000,1,N,1","+0057,1","+0045,1","10016,1",,,"61,1","6,1,03,1","08,1,+00510,1,99,9",,,,"99999,9,09991,1","8,1,017,1,+999,9","SYN076AAXX  19031 02458 47463 /1704 10057 20045 39991 40016 58017 76166 333 88/17;",
"02458099999","2010-10-19T06:00:00","4","59.897328","17.588581","20.72","UPPSALA, SW","FM-12","ESCM ","V020","170,1,N,0040,1","00390,1,C,N","006000,1,N,1","+0064,1","+0055,1","10000,1","12,0061,9,2","24,0058,9,2","61,1","6,1,06,1","02,1,+00270,1,99,9","07,1,+00390,1,99,9","120,M,+0070,1","999,N,+0056,1","99999,9,09975,1","7,1,016,1,+999,9","SYN118AAXX  19061 02458 07356 /1704 10064 20055 39975 40000 57016 60062 76166 333 10070 20056 60015 70059 82/09 87/13 88/23;",
"02458099999","2010-10-19T09:00:00","4","59.897328","17.588581","20.72","UPPSALA, SW","FM-12","ESCM ","V020","160,1,N,0040,1","00330,1,C,N","007000,1,N,1","+0065,1","+0056,1","09987,1",,,"61,1","6,1,03,1","05,1,+00330,1,99,9",,,,"99999,9,09962,1",,"SYN076AAXX  19091 02458 47457 /1604 10065 20056 39962 49987 76165 333 85/11 88/15;",
"02458099999","2010-10-19T12:00:00","4","59.897328","17.588581","20.72","UPPSALA, SW","FM-12","ESCM ","V020","160,1,N,0040,1","00240,1,C,N","011000,1,N,1","+0071,1","+0062,1","09965,1",,,"61,1","6,1,06,1","08,1,+00240,1,99,9",,,,"99999,9,09940,1","7,1,021,1,+999,9","SYN076AAXX  19121 02458 47361 /1604 10071 20062 39940 49965 57021 76165 333 88/08;",
"02458099999","2010-10-19T15:00:00","4","59.897328","17.588581","20.72","UPPSALA, SW","FM-12","ESCM ","V020","160,1,N,0040,1","00240,1,C,N","012000,1,N,1","+0071,1","+0063,1","09944,1",,,"52,1","6,1,03,1","05,1,+00240,1,99,9","07,1,+00360,1,99,9",,,"99999,9,09919,1","7,1,021,1,+999,9","SYN088AAXX  19151 02458 47362 /1604 10071 20063 39919 49944 57021 75265 333 85/08 87/12 88/34;",
"02458099999","2010-10-19T18:00:00","4","59.897328","17.588581","20.72","UPPSALA, SW","FM-12","ESCM ","V020","170,1,N,0030,1","00300,1,C,N","017000,1,N,1","+0071,1","+0064,1","09942,1","12,0079,9,1",,"22,1","6,1,06,1","02,1,+00240,1,99,9","05,1,+00300,1,99,9","120,M,+0072,1","999,N,+0065,1","99999,9,09917,1","5,1,002,1,+999,9","SYN106AAXX  19181 02458 17367 /1703 10071 20064 39917 49942 55002 60082 72265 333 10072 20065 82/08 85/10 87/14;",
"02458099999","2010-10-19T21:00:00","4","59.897328","17.588581","20.72","UPPSALA, SW","FM-12","ESCM ","V020","160,1,N,0020,1","00390,1,C,N","016000,1,N,1","+0062,1","+0056,1","09941,1",,,,,"08,1,+00390,1,99,9",,,,"99999,9,09916,1","7,1,001,1,+999,9","SYN070AAXX  19211 02458 45466 /1602 10062 20056 39916 49941 57001 333 88/13;",
"02458099999","2010-10-20T00:00:00","4","59.897328","17.588581","20.72","UPPSALA, SW","FM-12","ESCM ","V020","180,1,N,0020,1","99999,9,9,N","035000,1,N,1","+0063,1","+0056,1","09937,1",,,"23,1","6,1,06,1","01,1,+00240,1,99,9","03,1,+00330,1,99,9",,,"99999,9,09912,1","7,1,004,1,+999,9","SYN088AAXX  20001 02458 47381 /1802 10063 20056 39912 49937 57004 72365 333 81/08 83/11 88/15;",
"02458099999","2010-10-20T03:00:00","4","59.897328","17.588581","20.72","UPPSALA, SW","FM-12","ESCM ","V020","170,1,N,0030,1","00360,1,C,N","045000,1,N,1","+0057,1","+0050,1","09939,1",,,,,"08,1,+00360,1,99,9",,,,"99999,9,09914,1","2,1,002,1,+999,9","SYN070AAXX  20031 02458 45483 /1703 10057 20050 39914 49939 52002 333 88/12;",
"02458099999","2010-10-20T06:00:00","4","59.897328","17.588581","20.72","UPPSALA, SW","FM-12","ESCM ","V020","270,1,N,0030,1","00270,1,C,N","045000,1,N,1","+0053,1","+0039,1","09956,1","12,0005,9,1","24,0084,9,1",,,"06,1,+00270,1,99,9","07,1,+00420,1,99,9","120,M,+0073,1","999,N,+0053,1","99999,9,09931,1","3,1,017,1,+999,9","SYN106AAXX  20061 02458 15383 /2703 10053 20039 39931 49956 53017 69942 333 10073 20053 70085 86/09 87/14 88/22;",
"02458099999","2010-10-20T09:00:00","4","59.897328","17.588581","20.72","UPPSALA, SW","FM-12","ESCM ","V020","330,1,N,0040,1","00210,1,C,N","024000,1,N,1","+0022,1","+0014,1","09981,1",,,"00,1","8,1,03,1","07,1,+00210,1,99,9",,,,"99999,9,09956,1","2,1,025,1,+999,9","SYN082AAXX  20091 02458 47374 /3304 10022 20014 39956 49981 52025 70086 333 87/07 88/11;",
"02458099999","2010-10-20T12:00:00","4","59.897328","17.588581","20.72","UPPSALA, SW","FM-12","ESCM ","V020","350,1,N,0060,1","00330,1,C,N","045000,1,N,1","+0020,1","+0003,1","09995,1",,,"00,1","8,1,06,1","07,1,+00330,1,99,9",,,,"99999,9,09969,1","2,1,014,1,+999,9","SYN082AAXX  20121 02458 47483 /3506 10020 20003 39969 49995 52014 70086 333 87/11 88/13;",
"02458099999","2010-10-20T15:00:00","4","59.897328","17.588581","20.72","UPPSALA, SW","FM-12","ESCM ","V020","340,1,N,0050,1","01260,1,C,N","050000,1,N,1","+0017,1","-0009,1","10005,1",,,,,"08,1,+01260,1,99,9",,,,"99999,9,09979,1","2,1,010,1,+999,9","SYN070AAXX  20151 02458 45684 /3405 10017 21009 39979 40005 52010 333 88/42;",
"02458099999","2010-10-20T18:00:00","4","59.897328","17.588581","20.72","UPPSALA, SW","FM-12","ESCM ","V020","330,1,N,0060,1","01050,1,C,N","050000,1,N,1","+0007,1","-0032,1","10014,1","12,0005,9,1",,,,"08,1,+01050,1,99,9",,"120,M,+0053,1","999,N,+0006,1","99999,9,09989,1","1,1,009,1,+999,9","SYN088AAXX  20181 02458 15684 /3306 10007 21032 39989 40014 51009 69952 333 10053 20006 88/35;",
"02458099999","2010-10-20T21:00:00","4","59.897328","17.588581","20.72","UPPSALA, SW","FM-12","ESCM ","V020","320,1,N,0040,1","99999,9,9,N","050000,1,N,1","-0007,1","-0043,1","10019,1",,,,,,,,,"99999,9,09993,1","2,1,004,1,+999,9","SYN060AAXX  20211 02458 45984 /3204 11007 21043 39993 40019 52004;",
"02458099999","2010-10-21T00:00:00","4","59.897328","17.588581","20.72","UPPSALA, SW","FM-12","ESCM ","V020","320,1,N,0040,1","03600,1,C,N","050000,1,N,1","-0007,1","-0042,1","10024,1",,,,,"07,1,+03600,1,99,9",,,,"99999,9,09998,1","2,1,005,1,+999,9","SYN070AAXX  21001 02458 45984 /3204 11007 21042 39998 40024 52005 333 87/62;",
"02458099999","2010-10-21T03:00:00","4","59.897328","17.588581","20.72","UPPSALA, SW","FM-12","ESCM ","V020","310,1,N,0040,1","03000,1,C,N","050000,1,N,1","-0018,1","-0045,1","10032,1",,,,,"05,1,+03000,1,99,9",,,,"99999,9,10006,1","3,1,008,1,+999,9","SYN070AAXX  21031 02458 45984 /3104 11018 21045 30006 40032 53008 333 85/60;",
"02458099999","2010-10-21T06:00:00","4","59.897328","17.588581","20.72","UPPSALA, SW","FM-12","ESCM ","V020","300,1,N,0040,1","99999,9,9,N","050000,1,N,1","-0029,1","-0057,1","10041,1","24,0005,9,1",,,,"04,1,+04200,1,99,9",,"120,M,+0008,1","999,N,-0029,1","99999,9,10015,1","2,1,009,1,+999,9","SYN088AAXX  21061 02458 35984 /3004 11029 21057 30015 40041 52009 333 10008 21029 70005 84/64;",
"02458099999","2010-10-21T09:00:00","4","59.897328","17.588581","20.72","UPPSALA, SW","FM-12","ESCM ","V020","999,9,9,9999,9","99999,9,9,N","040000,1,N,1","-0009,1","-0059,1","10049,1",,,,,,,,,"99999,9,10023,1","2,1,008,1,+999,9","SYN060AAXX  21091 02458 45982 ///// 11009 21059 30023 40049 52008;",
"02458099999","2010-10-21T12:00:00","4","59.897328","17.588581","20.72","UPPSALA, SW","FM-12","ESCM ","V020","270,1,N,0040,1","99999,9,9,N","045000,1,N,1","+0021,1","-0064,1","10047,1",,,,,,,,,"99999,9,10021,1","7,1,002,1,+999,9","SYN060AAXX  21121 02458 45983 /2704 10021 21064 30021 40047 57002;",
"02458099999","2010-10-21T15:00:00","4","59.897328","17.588581","20.72","UPPSALA, SW","FM-12","ESCM ","V020","260,1,N,0020,1","99999,9,9,N","050000,1,N,1","+0009,1","-0067,1","10040,1",,,,,,,,,"99999,9,10014,1","7,1,007,1,+999,9","SYN060AAXX  21151 02458 45984 /2602 10009 21067 30014 40040 57007;",
"02458099999","2010-10-21T18:00:00","4","59.897328","17.588581","20.72","UPPSALA, SW","FM-12","ESCM ","V020","180,1,N,0020,1","99999,9,9,N","050000,1,N,1","-0014,1","-0056,1","10023,1",,,,,,,"120,M,+0024,1","999,N,-0030,1","99999,9,09997,1","8,1,017,1,+999,9","SYN076AAXX  21181 02458 35984 /1802 11014 21056 39997 40023 58017 333 10024 21030;",
"02458099999","2010-10-21T21:00:00","4","59.897328","17.588581","20.72","UPPSALA, SW","FM-12","ESCM ","V020","140,1,N,0010,1","99999,9,9,N","050000,1,N,1","-0033,1","-0051,1","09998,1",,,,,,,,,"99999,9,09972,1","8,1,025,1,+999,9","SYN060AAXX  21211 02458 45984 /1401 11033 21051 39972 49998 58025;",
"02458099999","2010-10-22T00:00:00","4","59.897328","17.588581","20.72","UPPSALA, SW","FM-12","ESCM ","V020","060,1,N,0020,1","99999,9,9,N","050000,1,N,1","-0028,1","-0045,1","09966,1",,,,,,,,,"99999,9,09940,1","8,1,032,1,+999,9","SYN060AAXX  22001 02458 45984 /0602 11028 21045 39940 49966 58032;",
"02458099999","2010-10-22T03:00:00","4","59.897328","17.588581","20.72","UPPSALA, SW","FM-12","ESCM ","V020","330,1,N,0010,1","99999,9,9,N","050000,1,N,1","-0023,1","-0039,1","09947,1",,,,,,,,,"99999,9,09921,1","6,1,019,1,+999,9","SYN060AAXX  22031 02458 45984 /3301 11023 21039 39921 49947 56019;",
"02458099999","2010-10-22T06:00:00","4","59.897328","17.588581","20.72","UPPSALA, SW","FM-12","ESCM ","V020","310,1,N,0040,1","99999,9,9,N","050000,1,N,1","-0017,1","-0036,1","09955,1",,,,,,,"120,M,-0012,1","999,N,-0044,1","99999,9,09929,1","3,1,008,1,+999,9","SYN076AAXX  22061 02458 35984 /3104 11017 21036 39929 49955 53008 333 11012 21044;",
"02458099999","2010-10-22T09:00:00","4","59.897328","17.588581","20.72","UPPSALA, SW","FM-12","ESCM ","V020","300,1,N,0040,1","99999,9,9,N","050000,1,N,1","-0007,1","-0025,1","09976,1",,,,,,,,,"99999,9,09950,1","2,1,021,1,+999,9","SYN060AAXX  22091 02458 45984 /3004 11007 21025 39950 49976 52021;",
"02458099999","2010-10-22T12:00:00","4","59.897328","17.588581","20.72","UPPSALA, SW","FM-12","ESCM ","V020","240,1,N,0030,1","99999,9,9,N","040000,1,N,1","+0032,1","-0041,1","09994,1",,,,,,,,,"99999,9,09969,1","1,1,019,1,+999,9","SYN060AAXX  22121 02458 45982 /2403 10032 21041 39969 49994 51019;",
"02458099999","2010-10-22T15:00:00","4","59.897328","17.588581","20.72","UPPSALA, SW","FM-12","ESCM ","V020","230,1,N,0020,1","99999,9,9,N","050000,1,N,1","+0023,1","-0045,1","10007,1",,,,,,,,,"99999,9,09981,1","3,1,012,1,+999,9","SYN060AAXX  22151 02458 45984 /2302 10023 21045 39981 40007 53012;",
"02458099999","2010-10-22T18:00:00","4","59.897328","17.588581","20.72","UPPSALA, SW","FM-12","ESCM ","V020","230,1,N,0040,1","99999,9,9,N","050000,1,N,1","+0001,1","-0037,1","10021,1",,,,,,,"120,M,+0038,1","999,N,-0017,1","99999,9,09995,1","1,1,014,1,+999,9","SYN076AAXX  22181 02458 35984 /2304 10001 21037 39995 40021 51014 333 10038 21017;",
"02458099999","2010-10-22T21:00:00","4","59.897328","17.588581","20.72","UPPSALA, SW","FM-12","ESCM ","V020","210,1,N,0030,1","99999,9,9,N","050000,1,N,1","-0014,1","-0035,1","10021,1",,,,,,,,,"99999,9,09995,1","0,1,000,1,+999,9","SYN060AAXX  22211 02458 45984 /2103 11014 21035 39995 40021 50000;",
"02458099999","2010-10-23T00:00:00","4","59.897328","17.588581","20.72","UPPSALA, SW","FM-12","ESCM ","V020","220,1,N,0040,1","99999,9,9,N","045000,1,N,1","-0015,1","-0022,1","10014,1",,,,,,,,,"99999,9,09989,1","7,1,007,1,+999,9","SYN060AAXX  23001 02458 45983 /2204 11015 21022 39989 40014 57007;",
"02458099999","2010-10-23T03:00:00","4","59.897328","17.588581","20.72","UPPSALA, SW","FM-12","ESCM ","V020","230,1,N,0020,1","00060,1,C,N","000600,1,N,1","-0005,1","-0008,1","10011,1",,,"34,1","4,1,03,1","09,1,+00060,1,99,9",,,,"99999,9,09985,1","7,1,004,1,+999,9","SYN076AAXX  23031 02458 47/06 /2302 11005 21008 39985 40011 57004 73431 333 89/02;",
"02458099999","2010-10-23T06:00:00","4","59.897328","17.588581","20.72","UPPSALA, SW","FM-12","ESCM ","V020","220,1,N,0020,1","00060,1,C,N","000500,1,N,1","+0005,1","+0002,1","10009,1",,,"34,1","4,1,06,1","09,1,+00060,1,99,9",,"120,M,+0005,1","999,N,-0021,1","99999,9,09983,1","7,1,002,1,+999,9","SYN088AAXX  23061 02458 37/05 /2202 10005 20002 39983 40009 57002 73432 333 10005 21021 89/02;",
"02458099999","2010-10-23T09:00:00","4","59.897328","17.588581","20.72","UPPSALA, SW","FM-12","ESCM ","V020","240,1,N,0040,1","00120,1,C,N","008000,1,N,1","+0018,1","+0015,1","10012,1",,,"10,1","4,1,03,1","09,1,+00120,1,99,9",,,,"99999,9,09986,1","2,1,003,1,+999,9","SYN076AAXX  23091 02458 47/58 /2404 10018 20015 39986 40012 52003 71032 333 89/04;",
"02458099999","2010-10-23T12:00:00","4","59.897328","17.588581","20.72","UPPSALA, SW","FM-12","ESCM ","V020","230,1,N,0040,1","99999,9,9,N","035000,1,N,1","+0035,1","+0020,1","10012,1",,,"00,1","4,1,06,1","03,1,+00300,1,99,9",,,,"99999,9,09986,1","0,1,000,1,+999,9","SYN076AAXX  23121 02458 47481 /2304 10035 20020 39986 40012 50000 70032 333 83/10;",
"02458099999","2010-10-23T15:00:00","4","59.897328","17.588581","20.72","UPPSALA, SW","FM-12","ESCM ","V020","220,1,N,0010,1","99999,9,9,N","040000,1,N,1","+0028,1","+0015,1","10010,1",,,,,,,,,"99999,9,09984,1","7,1,002,1,+999,9","SYN060AAXX  23151 02458 45982 /2201 10028 20015 39984 40010 57002;",
"02458099999","2010-10-23T18:00:00","4","59.897328","17.588581","20.72","UPPSALA, SW","FM-12","ESCM ","V020","230,1,N,0010,1","99999,9,9,N","006000,1,N,1","-0001,1","-0005,1","10017,1",,,"10,1","2,1,06,1",,,"120,M,+0039,1","999,N,+0000,1","99999,9,09991,1","2,1,007,1,+999,9","SYN082AAXX  23181 02458 37956 /2301 11001 21005 39991 40017 52007 71010 333 10039 20000;",
"02458099999","2010-10-23T21:00:00","4","59.897328","17.588581","20.72","UPPSALA, SW","FM-12","ESCM ","V020","220,1,N,0010,1","99999,9,9,N","001200,1,N,1","-0011,1","-0015,1","10016,1",,,"10,1","2,1,03,1",,,,,"99999,9,09990,1","5,1,001,1,+999,9","SYN066AAXX  23211 02458 47912 /2201 11011 21015 39990 40016 55001 71010;",
"02458099999","2010-10-24T00:00:00","4","59.897328","17.588581","20.72","UPPSALA, SW","FM-12","ESCM ","V020","999,9,C,0000,1","99999,9,9,N","000200,1,N,1","-0035,1","-0038,1","10014,1",,,"34,1","4,1,06,1",,,,,"99999,9,09988,1","7,1,002,1,+999,9","SYN066AAXX  24001 02458 47902 /0000 11035 21038 39988 40014 57002 73432;",
"02458099999","2010-10-24T03:00:00","4","59.897328","17.588581","20.72","UPPSALA, SW","FM-12","ESCM ","V020","999,9,C,0000,1","99999,9,9,N","015000,1,N,1","-0029,1","-0033,1","10006,1",,,"20,1","4,1,03,1","01,1,+02400,1,99,9",,,,"99999,9,09980,1","8,1,007,1,+999,9","SYN076AAXX  24031 02458 47965 /0000 11029 21033 39980 40006 58007 72032 333 81/58;",
"02458099999","2010-10-24T06:00:00","4","59.897328","17.588581","20.72","UPPSALA, SW","FM-12","ESCM ","V020","320,1,N,0010,1","01800,1,C,N","050000,1,N,1","-0023,1","-0026,1","09998,1",,,"00,1","4,1,06,1","06,1,+01800,1,99,9",,"120,M,+0011,1","999,N,-0040,1","99999,9,09972,1","6,1,008,1,+999,9","SYN094AAXX  24061 02458 37784 /3201 11023 21026 39972 49998 56008 70032 333 10011 21040 86/56 87/59;",
"02458099999","2010-10-24T09:00:00","4","59.897328","17.588581","20.72","UPPSALA, SW","FM-12","ESCM ","V020","320,1,N,0010,1","99999,9,9,N","035000,1,N,1","-0002,1","-0007,1","09992,1",,,,,"02,1,+01320,1,99,9",,,,"99999,9,09966,1","8,1,006,1,+999,9","SYN070AAXX  24091 02458 45681 /3201 11002 21007 39966 49992 58006 333 82/44;",
"02458099999","2010-10-24T12:00:00","4","59.897328","17.588581","20.72","UPPSALA, SW","FM-12","ESCM ","V020","340,1,N,0030,1","99999,9,9,N","011000,1,N,1","+0017,1","+0013,1","09980,1",,,"61,1","6,1,06,1","02,1,+00270,1,99,9",,,,"99999,9,09955,1","8,1,012,1,+999,9","SYN082AAXX  24121 02458 47361 /3403 10017 20013 39955 49980 58012 76165 333 82/09 83/18;",
"02458099999","2010-10-24T15:00:00","4","59.897328","17.588581","20.72","UPPSALA, SW","FM-12","ESCM ","V020","350,1,N,0030,1","99999,9,9,N","012000,1,N,1","+0030,1","+0025,1","09984,1",,,"52,1","6,1,03,1","01,1,+00330,1,99,9",,,,"99999,9,09959,1","3,1,004,1,+999,9","SYN076AAXX  24151 02458 47462 /3503 10030 20025 39959 49984 53004 75265 333 81/11;",
"02458099999","2010-10-24T18:00:00","4","59.897328","17.588581","20.72","UPPSALA, SW","FM-12","ESCM ","V020","320,1,N,0030,1","02100,1,C,N","050000,1,N,1","+0015,1","+0006,1","09996,1","12,0030,9,1",,"00,1","6,1,06,1","08,1,+02100,1,99,9",,"120,M,+0031,1","999,N,-0023,1","99999,9,09970,1","2,1,012,1,+999,9","SYN094AAXX  24181 02458 17884 /3203 10015 20006 39970 49996 52012 60032 70065 333 10031 21023 88/57;",
"02458099999","2010-10-24T21:00:00","4","59.897328","17.588581","20.72","UPPSALA, SW","FM-12","ESCM ","V020","310,1,N,0020,1","99999,9,9,N","050000,1,N,1","-0002,1","-0012,1","10009,1",,,,,,,,,"99999,9,09983,1","2,1,013,1,+999,9","SYN060AAXX  24211 02458 45984 /3102 11002 21012 39983 40009 52013;",
"02458099999","2010-10-25T00:00:00","4","59.897328","17.588581","20.72","UPPSALA, SW","FM-12","ESCM ","V020","300,1,N,0020,1","99999,9,9,N","050000,1,N,1","-0008,1","-0018,1","10022,1",,,,,,,,,"99999,9,09996,1","2,1,013,1,+999,9","SYN060AAXX  25001 02458 45984 /3002 11008 21018 39996 40022 52013;",
"02458099999","2010-10-25T03:00:00","4","59.897328","17.588581","20.72","UPPSALA, SW","FM-12","ESCM ","V020","300,1,N,0020,1","99999,9,9,N","050000,1,N,1","-0015,1","-0023,1","10039,1",,,,,,,,,"99999,9,10013,1","2,1,017,1,+999,9","SYN060AAXX  25031 02458 45984 /3002 11015 21023 30013 40039 52017;",
"02458099999","2010-10-25T06:00:00","4","59.897328","17.588581","20.72","UPPSALA, SW","FM-12","ESCM ","V020","300,1,N,0010,1","99999,9,9,N","050000,1,N,1","-0029,1","-0035,1","10054,1","24,0030,9,1",,,,,,"120,M,+0015,1","999,N,-0029,1","99999,9,10027,1","3,1,015,1,+999,9","SYN082AAXX  25061 02458 35984 /3001 11029 21035 30027 40054 53015 333 10015 21029 70030;",
"02458099999","2010-10-25T09:00:00","4","59.897328","17.588581","20.72","UPPSALA, SW","FM-12","ESCM ","V020","290,1,N,0010,1","99999,9,9,N","050000,1,N,1","+0010,1","-0010,1","10070,1",,,,,,,,,"99999,9,10045,1","2,1,017,1,+999,9","SYN060AAXX  25091 02458 45984 /2901 10010 21010 30045 40070 52017;",
"02458099999","2010-10-25T12:00:00","4","59.897328","17.588581","20.72","UPPSALA, SW","FM-12","ESCM ","V020","230,1,N,0020,1","99999,9,9,N","045000,1,N,1","+0050,1","+0013,1","10079,1",,,,,,,,,"99999,9,10053,1","2,1,009,1,+999,9","SYN060AAXX  25121 02458 45983 /2302 10050 20013 30053 40079 52009;",
"02458099999","2010-10-25T15:00:00","4","59.897328","17.588581","20.72","UPPSALA, SW","FM-12","ESCM ","V020","210,1,N,0010,1","99999,9,9,N","050000,1,N,1","+0029,1","-0006,1","10091,1",,,,,,,,,"99999,9,10066,1","3,1,012,1,+999,9","SYN060AAXX  25151 02458 45984 /2101 10029 21006 30066 40091 53012;",
"02458099999","2010-10-25T18:00:00","4","59.897328","17.588581","20.72","UPPSALA, SW","FM-12","ESCM ","V020","230,1,N,0010,1","99999,9,9,N","050000,1,N,1","-0014,1","-0029,1","10109,1",,,,,,,"120,M,+0051,1","999,N,-0035,1","99999,9,10082,1","2,1,017,1,+999,9","SYN076AAXX  25181 02458 35984 /2301 11014 21029 30082 40109 52017 333 10051 21035;",
"02458099999","2010-10-25T21:00:00","4","59.897328","17.588581","20.72","UPPSALA, SW","FM-12","ESCM ","V020","999,9,C,0000,1","99999,9,9,N","050000,1,N,1","-0019,1","-0024,1","10123,1",,,,,"03,1,+01350,1,99,9",,,,"99999,9,10097,1","2,1,014,1,+999,9","SYN070AAXX  25211 02458 45684 /0000 11019 21024 30097 40123 52014 333 83/45;",
"02458099999","2010-10-26T00:00:00","4","59.897328","17.588581","20.72","UPPSALA, SW","FM-12","ESCM ","V020","999,9,C,0000,1","99999,9,9,N","050000,1,N,1","-0020,1","-0034,1","10133,1",,,,,,,,,"99999,9,10106,1","2,1,010,1,+999,9","SYN060AAXX  26001 02458 45984 /0000 11020 21034 30106 40133 52010;",
"02458099999","2010-10-26T03:00:00","4","59.897328","17.588581","20.72","UPPSALA, SW","FM-12","ESCM ","V020","999,9,C,0000,1","99999,9,9,N","050000,1,N,1","-0034,1","-0039,1","10147,1",,,,,,,,,"99999,9,10120,1","2,1,014,1,+999,9","SYN060AAXX  26031 02458 45984 /0000 11034 21039 30120 40147 52014;",
"02458099999","2010-10-26T06:00:00","4","59.897328","17.588581","20.72","UPPSALA, SW","FM-12","ESCM ","V020","240,1,N,0010,1","99999,9,9,N","050000,1,N,1","-0045,1","-0049,1","10161,1",,,,,,,"120,M,-0004,1","999,N,-0049,1","99999,9,10135,1","2,1,015,1,+999,9","SYN076AAXX  26061 02458 35984 /2401 11045 21049 30135 40161 52015 333 11004 21049;",
"02458099999","2010-10-26T09:00:00","4","59.897328","17.588581","20.72","UPPSALA, SW","FM-12","ESCM ","V020","300,1,N,0020,1","99999,9,9,N","050000,1,N,1","+0014,1","-0009,1","10176,1",,,,,,,,,"99999,9,10150,1","2,1,015,1,+999,9","SYN060AAXX  26091 02458 45984 /3002 10014 21009 30150 40176 52015;",
"02458099999","2010-10-26T12:00:00","4","59.897328","17.588581","20.72","UPPSALA, SW","FM-12","ESCM ","V020","300,1,N,0030,1","00660,1,C,N","050000,1,N,1","+0032,1","+0011,1","10192,1",,,,,"08,1,+00660,1,99,9",,,,"99999,9,10166,1","2,1,016,1,+999,9","SYN070AAXX  26121 02458 45584 /3003 10032 20011 30166 40192 52016 333 88/22;",
"02458099999","2010-10-26T15:00:00","4","59.897328","17.588581","20.72","UPPSALA, SW","FM-12","ESCM ","V020","290,1,N,0030,1","00630,1,C,N","050000,1,N,1","+0024,1","-0002,1","10207,1",,,,,"08,1,+00630,1,99,9",,,,"99999,9,10181,1","2,1,015,1,+999,9","SYN070AAXX  26151 02458 45584 /2903 10024 21002 30181 40207 52015 333 88/21;",
"02458099999","2010-10-26T18:00:00","4","59.897328","17.588581","20.72","UPPSALA, SW","FM-12","ESCM ","V020","260,1,N,0010,1","00780,1,C,N","050000,1,N,1","+0013,1","-0007,1","10218,1",,,,,"08,1,+00780,1,99,9",,"120,M,+0035,1","999,N,-0046,1","99999,9,10192,1","2,1,011,1,+999,9","SYN082AAXX  26181 02458 35584 /2601 10013 21007 30192 40218 52011 333 10035 21046 88/26;",
"02458099999","2010-10-26T21:00:00","4","59.897328","17.588581","20.72","UPPSALA, SW","FM-12","ESCM ","V020","190,1,N,0010,1","99999,9,9,N","040000,1,N,1","-0017,1","-0021,1","10222,1",,,,,,,,,"99999,9,10195,1","2,1,004,1,+999,9","SYN060AAXX  26211 02458 45982 /1901 11017 21021 30195 40222 52004;",
"02458099999","2010-10-27T00:00:00","4","59.897328","17.588581","20.72","UPPSALA, SW","FM-12","ESCM ","V020","999,9,C,0000,1","99999,9,9,N","040000,1,N,1","-0032,1","-0035,1","10219,1",,,,,,,,,"99999,9,10192,1","8,1,003,1,+999,9","SYN060AAXX  27001 02458 45982 /0000 11032 21035 30192 40219 58003;",
"02458099999","2010-10-27T03:00:00","4","59.897328","17.588581","20.72","UPPSALA, SW","FM-12","ESCM ","V020","160,1,N,0010,1","99999,9,9,N","040000,1,N,1","-0028,1","-0031,1","10208,1",,,,,,,,,"99999,9,10182,1","8,1,010,1,+999,9","SYN060AAXX  27031 02458 45982 /1601 11028 21031 30182 40208 58010;",
"02458099999","2010-10-27T06:00:00","4","59.897328","17.588581","20.72","UPPSALA, SW","FM-12","ESCM ","V020","140,1,N,0020,1","99999,9,9,N","018000,1,N,1","-0020,1","-0023,1","10195,1",,,,,"02,1,+00090,1,99,9",,"120,M,+0020,1","999,N,-0046,1","99999,9,10169,1","6,1,013,1,+999,9","SYN082AAXX  27060 02458 35268 /1402 11020 21023 30169 40195 56013 333 10020 21046 82/03;",
"02458099999","2010-10-27T09:00:00","4","59.897328","17.588581","20.72","UPPSALA, SW","FM-12","ESCM ","V020","160,1,N,0030,1","99999,9,9,N","035000,1,N,1","+0023,1","+0016,1","10182,1",,,,,"03,1,+03000,1,99,9",,,,"99999,9,10156,1","7,1,012,1,+999,9","SYN070AAXX  27091 02458 45981 /1603 10023 20016 30156 40182 57012 333 83/60;",
"02458099999","2010-10-27T12:00:00","4","59.897328","17.588581","20.72","UPPSALA, SW","FM-12","ESCM ","V020","160,1,N,0050,1","99999,9,9,N","035000,1,N,1","+0055,1","+0031,1","10151,1",,,,,"03,1,+04200,1,99,9",,,,"99999,9,10125,1","8,1,032,1,+999,9","SYN070AAXX  27121 02458 45981 /1605 10055 20031 30125 40151 58032 333 83/64;",
"02458099999","2010-10-27T15:00:00","4","59.897328","17.588581","20.72","UPPSALA, SW","FM-12","ESCM ","V020","170,1,N,0060,1","99999,9,9,N","045000,1,N,1","+0062,1","+0033,1","10116,1",,,,,,,,,"99999,9,10091,1","7,1,034,1,+999,9","SYN060AAXX  27151 02458 45983 /1706 10062 20033 30091 40116 57034;",
"02458099999","2010-10-27T18:00:00","4","59.897328","17.588581","20.72","UPPSALA, SW","FM-12","ESCM ","V020","170,1,N,0060,1","00270,1,C,N","010000,1,N,1","+0058,1","+0049,1","10082,1","12,0020,9,1",,"52,1","6,1,06,1","07,1,+00270,1,99,9",,"120,M,+0064,1","999,N,-0020,1","99999,9,10057,1","8,1,034,1,+999,9","SYN100AAXX  27181 02458 17360 /1706 10058 20049 30057 40082 58034 60022 75265 333 10064 21020 87/09 88/13;",
"02458099999","2010-10-27T21:00:00","4","59.897328","17.588581","20.72","UPPSALA, SW","FM-12","ESCM ","V020","190,1,N,0060,1","00210,1,C,N","004300,1,N,1","+0061,1","+0054,1","10058,1",,,"22,1","6,1,03,1","08,1,+00210,1,99,9",,,,"99999,9,10033,1","6,1,024,1,+999,9","SYN076AAXX  27211 02458 47343 /1906 10061 20054 30033 40058 56024 72265 333 88/07;",
"02458099999","2010-10-28T06:00:00","4","59.897328","17.588581","20.72","UPPSALA, SW","FM-12","ESCM ","V020","210,1,N,0070,1","99999,9,9,N","019000,1,N,1","+0077,1","+0062,1","10027,1","12,0010,9,1","24,0028,9,1",,,,,"120,M,+0079,1","999,N,+0057,1","99999,9,10002,1","5,1,009,1,+999,9","SYN088AAXX  28061 02458 15/69 /2107 10077 20062 30002 40027 55009 60012 333 10079 20057 70027;",
"02458099999","2010-10-28T09:00:00","4","59.897328","17.588581","20.72","UPPSALA, SW","FM-12","ESCM ","V020","210,1,N,0040,1","99999,9,9,N","018000,1,N,1","+0090,1","+0069,1","10033,1",,,,,,,,,"99999,9,10008,1",,"SYN054AAXX  28091 02458 45/68 /2104 10090 20069 30008 40033;",
"02458099999","2010-10-28T12:00:00","4","59.897328","17.588581","20.72","UPPSALA, SW","FM-12","ESCM ","V020","230,1,N,0050,1","99999,9,9,N","021000,1,N,1","+0095,1","+0066,1","10028,1",,,,,"01,1,+00690,1,99,9",,,,"99999,9,10003,1","7,1,005,1,+999,9","SYN076AAXX  28121 02458 45571 /2305 10095 20066 30003 40028 57005 333 81/23 88/35;",
"02458099999","2010-10-28T15:00:00","4","59.897328","17.588581","20.72","UPPSALA, SW","FM-12","ESCM ","V020","200,1,N,0040,1","99999,9,9,N","021000,1,N,1","+0081,1","+0058,1","10016,1",,,,,,,,,"99999,9,09991,1","7,1,013,1,+999,9","SYN060AAXX  28151 02458 45971 /2004 10081 20058 39991 40016 57013;",
"02458099999","2010-10-28T18:00:00","4","59.897328","17.588581","20.72","UPPSALA, SW","FM-12","ESCM ","V020","190,1,N,0040,1","01230,1,C,N","020000,1,N,1","+0081,1","+0065,1","10004,1",,,"00,1","8,1,06,1","01,1,+00840,1,99,9","05,1,+01230,1,99,9","120,M,+0104,1","999,N,+0072,1","99999,9,09979,1","6,1,012,1,+999,9","SYN100AAXX  28181 02458 37570 /1904 10081 20065 39979 40004 56012 70086 333 10104 20072 81/28 85/41 87/50;",
"02458099999","2010-10-28T21:00:00","4","59.897328","17.588581","20.72","UPPSALA, SW","FM-12","ESCM ","V020","210,1,N,0040,1","01170,1,C,N","045000,1,N,1","+0082,1","+0068,1","09999,1",,,"00,1","8,1,03,1","03,1,+00420,1,99,9","07,1,+01170,1,99,9",,,"99999,9,09974,1","7,1,005,1,+999,9","SYN088AAXX  28211 02458 47483 /2104 10082 20068 39974 49999 57005 70086 333 83/14 87/39 88/50;",
"02458099999","2010-10-29T00:00:00","4","59.897328","17.588581","20.72","UPPSALA, SW","FM-12","ESCM ","V020","260,1,N,0070,1","00960,1,C,N","050000,1,N,1","+0084,1","+0044,1","10007,1",,,"00,1","8,1,06,1","08,1,+00960,1,99,9",,,,"99999,9,09982,1","2,1,008,1,+999,9","SYN076AAXX  29001 02458 47584 /2607 10084 20044 39982 40007 52008 70082 333 88/32;",
"02458099999","2010-10-29T03:00:00","4","59.897328","17.588581","20.72","UPPSALA, SW","FM-12","ESCM ","V020","250,1,N,0050,1","99999,9,9,N","050000,1,N,1","+0066,1","+0040,1","10015,1",,,,,,,,,"99999,9,09990,1","3,1,008,1,+999,9","SYN060AAXX  29031 02458 45984 /2505 10066 20040 39990 40015 53008;",
"02458099999","2010-10-29T06:00:00","4","59.897328","17.588581","20.72","UPPSALA, SW","FM-12","ESCM ","V020","250,1,N,0020,1","99999,9,9,N","050000,1,N,1","+0039,1","+0027,1","10040,1","12,0000,9,1","24,0000,9,1",,,,,"120,M,+0085,1","999,N,+0038,1","99999,9,10015,1","3,1,025,1,+999,9","SYN088AAXX  29061 02458 15984 /2502 10039 20027 30015 40040 53025 69912 333 10085 20038 70001;","Q01  00002PRCP24Q02  00002PRCP12"
"02458099999","2010-10-29T09:00:00","4","59.897328","17.588581","20.72","UPPSALA, SW","FM-12","ESCM ","V020","250,1,N,0030,1","99999,9,9,N","045000,1,N,1","+0064,1","+0036,1","10061,1",,,,,,,,,"99999,9,10035,1","2,1,021,1,+999,9","SYN060AAXX  29091 02458 45983 /2503 10064 20036 30035 40061 52021;",
"02458099999","2010-10-29T12:00:00","4","59.897328","17.588581","20.72","UPPSALA, SW","FM-12","ESCM ","V020","200,1,N,0030,1","99999,9,9,N","040000,1,N,1","+0090,1","+0041,1","10069,1",,,,,,,,,"99999,9,10044,1","1,1,008,1,+999,9","SYN060AAXX  29121 02458 45982 /2003 10090 20041 30044 40069 51008;",
"02458099999","2010-10-29T15:00:00","4","59.897328","17.588581","20.72","UPPSALA, SW","FM-12","ESCM ","V020","200,1,N,0020,1","03900,1,C,N","045000,1,N,1","+0083,1","+0051,1","10067,1",,,,,"08,1,+03900,1,99,9",,,,"99999,9,10042,1","5,1,002,1,+999,9","SYN070AAXX  29151 02458 45983 /2002 10083 20051 30042 40067 55002 333 88/63;",
"02458099999","2010-10-29T18:00:00","4","59.897328","17.588581","20.72","UPPSALA, SW","FM-12","ESCM ","V020","170,1,N,0040,1","00480,1,C,N","014000,1,N,1","+0080,1","+0064,1","10062,1","12,0003,9,1",,"81,1","8,1,06,1","07,1,+00480,1,99,9",,"120,M,+0095,1","999,N,+0036,1","99999,9,10037,1","8,1,005,1,+999,9","SYN100AAXX  29181 02458 07464 /1704 10080 20064 30037 40062 58005 69932 78186 333 10095 20036 69935 87/16;",
"02458099999","2010-10-29T21:00:00","4","59.897328","17.588581","20.72","UPPSALA, SW","FM-12","ESCM ","V020","170,1,N,0040,1","99999,9,9,N","014000,1,N,1","+0086,1","+0074,1","10058,1",,,"61,1","8,1,03,1","02,1,+00450,1,99,9",,,,"99999,9,10033,1","5,1,004,1,+999,9","SYN082AAXX  29211 02458 47464 /1704 10086 20074 30033 40058 55004 76186 333 82/15 83/20;",
"02458099999","2010-10-30T00:00:00","4","59.897328","17.588581","20.72","UPPSALA, SW","FM-12","ESCM ","V020","200,1,N,0050,1","00810,1,C,N","026000,1,N,1","+0087,1","+0072,1","10051,1",,,"00,1","8,1,06,1","08,1,+00810,1,99,9",,,,"99999,9,10026,1","7,1,007,1,+999,9","SYN076AAXX  30001 02458 47576 /2005 10087 20072 30026 40051 57007 70086 333 88/27;",
"02458099999","2010-10-30T03:00:00","4","59.897328","17.588581","20.72","UPPSALA, SW","FM-12","ESCM ","V020","190,1,N,0040,1","00600,1,C,N","035000,1,N,1","+0087,1","+0067,1","10038,1",,,,,"06,1,+00600,1,99,9",,,,"99999,9,10013,1","8,1,013,1,+999,9","SYN070AAXX  30031 02458 45581 /1904 10087 20067 30013 40038 58013 333 86/20;",
"02458099999","2010-10-30T06:00:00","4","59.897328","17.588581","20.72","UPPSALA, SW","FM-12","ESCM ","V020","150,1,N,0060,1","00270,1,C,N","008000,1,N,1","+0080,1","+0068,1","10022,1","12,0010,9,1","24,0013,9,1","10,1","2,1,06,1","08,1,+00270,1,99,9",,"120,M,+0092,1","999,N,+0076,1","99999,9,09997,1","8,1,015,1,+999,9","SYN100AAXX  30061 02458 17358 /1506 10080 20068 39997 40022 58015 60012 71010 333 10092 20076 70013 88/09;",
"02458099999","2010-10-30T09:00:00","4","59.897328","17.588581","20.72","UPPSALA, SW","FM-12","ESCM ","V020","160,1,N,0050,1","99999,9,9,N","010000,1,N,1","+0089,1","+0070,1","10014,1",,,,,,,,,"99999,9,09989,1","8,1,008,1,+999,9","SYN060AAXX  30091 02458 45960 /1605 10089 20070 39989 40014 58008;",
"02458099999","2010-10-30T12:00:00","4","59.897328","17.588581","20.72","UPPSALA, SW","FM-12","ESCM ","V020","170,1,N,0050,1","99999,9,9,N","015000,1,N,1","+0108,1","+0073,1","10001,1",,,,,,,,,"99999,9,09976,1","8,1,013,1,+999,9","SYN060AAXX  30121 02458 45965 /1705 10108 20073 39976 40001 58013;",
"02458099999","2010-10-30T15:00:00","4","59.897328","17.588581","20.72","UPPSALA, SW","FM-12","ESCM ","V020","160,1,N,0050,1","06000,1,C,N","011000,1,N,1","+0086,1","+0065,1","09989,1",,,,,"08,1,+06000,1,99,9",,,,"99999,9,09964,1","8,1,012,1,+999,9","SYN070AAXX  30151 02458 45961 /1605 10086 20065 39964 49989 58012 333 88/70;",
"02458099999","2010-10-30T18:00:00","4","59.897328","17.588581","20.72","UPPSALA, SW","FM-12","ESCM ","V020","180,1,N,0050,1","99999,9,9,N","010000,1,N,1","+0080,1","+0065,1","10002,1",,,,,"04,1,+06000,1,99,9",,"120,M,+0108,1","999,N,+0077,1","99999,9,09977,1","2,1,012,1,+999,9","SYN088AAXX  30181 02458 35960 /1805 10080 20065 39977 40002 52012 333 10108 20077 84/70 85/74;",
"02458099999","2010-10-30T21:00:00","4","59.897328","17.588581","20.72","UPPSALA, SW","FM-12","ESCM ","V020","190,1,N,0050,1","00570,1,C,N","015000,1,N,1","+0092,1","+0072,1","10015,1",,,,,"08,1,+00570,1,99,9",,,,"99999,9,09990,1","3,1,013,1,+999,9","SYN070AAXX  30211 02458 45465 /1905 10092 20072 39990 40015 53013 333 88/19;",
"02458099999","2010-10-31T00:00:00","4","59.897328","17.588581","20.72","UPPSALA, SW","FM-12","ESCM ","V020","190,1,N,0040,1","00390,1,C,N","014000,1,N,1","+0091,1","+0075,1","10025,1",,,,,"08,1,+00390,1,99,9",,,,"99999,9,10000,1","3,1,010,1,+999,9","SYN070AAXX  31001 02458 45464 /1904 10091 20075 30000 40025 53010 333 88/13;",
"02458099999","2010-10-31T03:00:00","4","59.897328","17.588581","20.72","UPPSALA, SW","FM-12","ESCM ","V020","180,1,N,0030,1","01800,1,C,N","009000,1,N,1","+0081,1","+0074,1","10027,1",,,"61,1","6,1,03,1","08,1,+01800,1,99,9",,,,"99999,9,10002,1","2,1,003,1,+999,9","SYN076AAXX  31031 02458 47859 /1803 10081 20074 30002 40027 52003 76165 333 88/56;",
"02458099999","2010-10-31T06:00:00","4","59.897328","17.588581","20.72","UPPSALA, SW","FM-12","ESCM ","V020","160,1,N,0020,1","00120,1,C,N","003200,1,N,1","+0083,1","+0079,1","10029,1","12,0030,9,1","24,0033,9,1","62,1","6,1,06,1","09,1,+00120,1,99,9",,"120,M,+0094,1","999,N,+0077,1","99999,9,10004,1","0,1,002,1,+999,9","SYN106AAXX  31061 02458 07/32 /1602 10083 20079 30004 40029 50002 60032 76265 333 10094 20077 60025 70032 89/04;",
"02458099999","2010-10-31T09:00:00","4","59.897328","17.588581","20.72","UPPSALA, SW","FM-12","ESCM ","V020","220,1,N,0020,1","00120,1,C,N","004100,1,N,1","+0087,1","+0083,1","10037,1",,,"61,1","6,1,03,1","09,1,+00120,1,99,9",,,,"99999,9,10012,1","3,1,008,1,+999,9","SYN076AAXX  31091 02458 47/41 /2202 10087 20083 30012 40037 53008 76165 333 89/04;",
"02458099999","2010-10-31T12:00:00","4","59.897328","17.588581","20.72","UPPSALA, SW","FM-12","ESCM ","V020","220,1,N,0030,1","00150,1,C,N","002800,1,N,1","+0093,1","+0088,1","10039,1",,,"10,1","8,1,06,1","09,1,+00150,1,99,9",,,,"99999,9,10014,1","2,1,002,1,+999,9","SYN076AAXX  31121 02458 47/28 /2203 10093 20088 30014 40039 52002 71086 333 89/05;",
"02458099999","2010-10-31T15:00:00","4","59.897328","17.588581","20.72","UPPSALA, SW","FM-12","ESCM ","V020","200,1,N,0030,1","99999,9,9,N","011000,1,N,1","+0086,1","+0078,1","10046,1",,,,,,,,,"99999,9,10021,1","3,1,007,1,+999,9","SYN060AAXX  31151 02458 45961 /2003 10086 20078 30021 40046 53007;",
"02458099999","2010-10-31T18:00:00","4","59.897328","17.588581","20.72","UPPSALA, SW","FM-12","ESCM ","V020","220,1,N,0040,1","99999,9,9,N","030000,1,N,1","+0073,1","+0058,1","10060,1","12,0020,9,1",,,,,,"120,M,+0099,1","999,N,+0073,1","99999,9,10035,1","2,1,014,1,+999,9","SYN082AAXX  31181 02458 15980 /2204 10073 20058 30035 40060 52014 60022 333 10099 20073;",
"02458099999","2010-10-31T21:00:00","4","59.897328","17.588581","20.72","UPPSALA, SW","FM-12","ESCM ","V020","220,1,N,0030,1","99999,9,9,N","022000,1,N,1","+0062,1","+0050,1","10067,1",,,,,,,,,"99999,9,10042,1","0,1,007,1,+999,9","SYN060AAXX  31211 02458 45972 /2203 10062 20050 30042 40067 50007;",
"02458099999","2010-11-01T00:00:00","4","59.897328","17.588581","20.72","UPPSALA, SW","FM-12","ESCM ","V020","220,1,N,0040,1","99999,9,9,N","021000,1,N,1","+0065,1","+0053,1","10071,1",,,,,,,,,"99999,9,10045,1","3,1,003,1,+999,9","SYN060AAXX  01001 02458 45971 /2204 10065 20053 30045 40071 53003;",
"02458099999","2010-11-01T03:00:00","4","59.897328","17.588581","20.72","UPPSALA, SW","FM-12","ESCM ","V020","200,1,N,0030,1","99999,9,9,N","011000,1,N,1","+0052,1","+0045,1","10068,1",,,,,"01,1,+00330,1,99,9",,,,"99999,9,10042,1","7,1,004,1,+999,9","SYN070AAXX  01031 02458 45461 /2003 10052 20045 30042 40068 57004 333 81/11;",
"02458099999","2010-11-01T06:00:00","4","59.897328","17.588581","20.72","UPPSALA, SW","FM-12","ESCM ","V020","190,1,N,0040,1","99999,9,9,N","011000,1,N,1","+0060,1","+0054,1","10065,1","24,0018,9,1",,,,,,"120,M,+0075,1","999,N,+0052,1","99999,9,10040,1","8,1,002,1,+999,9","SYN082AAXX  01061 02458 35961 /1904 10060 20054 30040 40065 58002 333 10075 20052 70019;",
"02458099999","2010-11-01T09:00:00","4","59.897328","17.588581","20.72","UPPSALA, SW","FM-12","ESCM ","V020","210,1,N,0040,1","00240,1,C,N","011000,1,N,1","+0073,1","+0065,1","10073,1",,,,,"02,1,+00210,1,99,9","05,1,+00240,1,99,9",,,"99999,9,10048,1","1,1,008,1,+999,9","SYN082AAXX  01091 02458 45361 /2104 10073 20065 30048 40073 51008 333 82/07 85/08 87/11;",
"02458099999","2010-11-01T12:00:00","4","59.897328","17.588581","20.72","UPPSALA, SW","FM-12","ESCM ","V020","230,1,N,0040,1","00480,1,C,N","025000,1,N,1","+0093,1","+0066,1","10070,1",,,"00,1","8,1,06,1","06,1,+00480,1,99,9",,,,"99999,9,10045,1","5,1,003,1,+999,9","SYN082AAXX  01121 02458 47475 /2304 10093 20066 30045 40070 55003 70086 333 86/16 87/20;",
"02458099999","2010-11-01T15:00:00","4","59.897328","17.588581","20.72","UPPSALA, SW","FM-12","ESCM ","V020","250,1,N,0010,1","00930,1,C,N","040000,1,N,1","+0077,1","+0059,1","10080,1",,,,,"08,1,+00930,1,99,9",,,,"99999,9,10055,1","3,1,010,1,+999,9","SYN070AAXX  01151 02458 45582 /2501 10077 20059 30055 40080 53010 333 88/31;",
"02458099999","2010-11-01T18:00:00","4","59.897328","17.588581","20.72","UPPSALA, SW","FM-12","ESCM ","V020","360,1,N,0010,1","03300,1,C,N","028000,1,N,1","+0052,1","+0045,1","10100,1",,,,,"08,1,+03300,1,99,9",,"120,M,+0098,1","999,N,+0051,1","99999,9,10074,1","2,1,019,1,+999,9","SYN082AAXX  01181 02458 35978 /3601 10052 20045 30074 40100 52019 333 10098 20051 88/61;",
"02458099999","2010-11-01T21:00:00","4","59.897328","17.588581","20.72","UPPSALA, SW","FM-12","ESCM ","V020","310,1,N,0010,1","99999,9,9,N","045000,1,N,1","+0023,1","+0016,1","10112,1",,,,,"04,1,+05700,1,99,9",,,,"99999,9,10086,1","1,1,012,1,+999,9","SYN070AAXX  01211 02458 45983 /3101 10023 20016 30086 40112 51012 333 84/69;",
"02458099999","2010-11-02T00:00:00","4","59.897328","17.588581","20.72","UPPSALA, SW","FM-12","ESCM ","V020","300,1,N,0020,1","99999,9,9,N","021000,1,N,1","-0006,1","-0010,1","10120,1",,,,,,,,,"99999,9,10094,1","1,1,008,1,+999,9","SYN060AAXX  02001 02458 45971 /3002 11006 21010 30094 40120 51008;",
"02458099999","2010-11-02T03:00:00","4","59.897328","17.588581","20.72","UPPSALA, SW","FM-12","ESCM ","V020","999,9,C,0000,1","99999,9,9,N","011000,1,N,1","-0016,1","-0019,1","10114,1",,,"00,1","4,1,03,1",,,,,"99999,9,10088,1","5,1,006,1,+999,9","SYN066AAXX  02031 02458 47961 /0000 11016 21019 30088 40114 55006 70032;",
"02458099999","2010-11-02T06:00:00","4","59.897328","17.588581","20.72","UPPSALA, SW","FM-12","ESCM ","V020","999,9,C,0000,1","99999,9,9,N","000400,1,N,1","-0028,1","-0031,1","10115,1",,,"30,1","4,1,06,1",,,"120,M,+0052,1","999,N,-0029,1","99999,9,10089,1","2,1,002,1,+999,9","SYN082AAXX  02061 02458 37904 /0000 11028 21031 30089 40115 52002 73032 333 10052 21029;",
"02458099999","2010-11-02T09:00:00","4","59.897328","17.588581","20.72","UPPSALA, SW","FM-12","ESCM ","V020","150,1,N,0020,1","01080,1,C,N","019000,1,N,1","+0028,1","+0024,1","10103,1",,,"00,1","4,1,03,1","05,1,+01080,1,99,9",,,,"99999,9,10078,1","8,1,012,1,+999,9","SYN076AAXX  02091 02458 47669 /1502 10028 20024 30078 40103 58012 70032 333 85/36;",
"02458099999","2010-11-02T12:00:00","4","59.897328","17.588581","20.72","UPPSALA, SW","FM-12","ESCM ","V020","170,1,N,0030,1","99999,9,9,N","040000,1,N,1","+0063,1","+0041,1","10078,1",,,"00,1","4,1,06,1","01,1,+00330,1,99,9",,,,"99999,9,10052,1","8,1,026,1,+999,9","SYN076AAXX  02121 02458 47482 /1703 10063 20041 30052 40078 58026 70032 333 81/11;",
"02458099999","2010-11-02T15:00:00","4","59.897328","17.588581","20.72","UPPSALA, SW","FM-12","ESCM ","V020","170,1,N,0050,1","00510,1,C,N","045000,1,N,1","+0068,1","+0048,1","10047,1",,,,,"05,1,+00510,1,99,9","07,1,+00780,1,99,9",,,"99999,9,10021,1","8,1,031,1,+999,9","SYN082AAXX  02151 02458 45483 /1705 10068 20048 30021 40047 58031 333 85/17 87/26 88/50;",
"02458099999","2010-11-02T18:00:00","4","59.897328","17.588581","20.72","UPPSALA, SW","FM-12","ESCM ","V020","180,1,N,0060,1","00300,1,C,N","017000,1,N,1","+0068,1","+0057,1","10015,1","12,0005,9,1",,"52,1","6,1,06,1","08,1,+00300,1,99,9",,"120,M,+0075,1","999,N,-0032,1","99999,9,09990,1","8,1,031,1,+999,9","SYN100AAXX  02181 02458 07467 /1806 10068 20057 39990 40015 58031 69942 75265 333 10075 21032 69935 88/10;",
"02458099999","2010-11-02T21:00:00","4","59.897328","17.588581","20.72","UPPSALA, SW","FM-12","ESCM ","V020","170,1,N,0070,1","00510,1,C,N","015000,1,N,1","+0068,1","+0059,1","09976,1",,,"62,1","6,1,03,1","03,1,+00270,1,99,9","05,1,+00510,1,99,9",,,"99999,9,09950,1","7,1,040,1,+999,9","SYN088AAXX  02211 02458 47365 /1707 10068 20059 39950 49976 57040 76265 333 83/09 85/17 87/25;",
"02458099999","2010-11-03T00:00:00","4","59.897328","17.588581","20.72","UPPSALA, SW","FM-12","ESCM ","V020","200,1,N,0060,1","00330,1,C,N","050000,1,N,1","+0077,1","+0066,1","09950,1",,,"00,1","6,1,06,1","07,1,+00330,1,99,9",,,,"99999,9,09925,1","6,1,026,1,+999,9","SYN082AAXX  03001 02458 47484 /2006 10077 20066 39925 49950 56026 70065 333 87/11 88/15;",
"02458099999","2010-11-03T03:00:00","4","59.897328","17.588581","20.72","UPPSALA, SW","FM-12","ESCM ","V020","210,1,N,0060,1","00510,1,C,N","028000,1,N,1","+0077,1","+0061,1","09945,1",,,,,"02,1,+00390,1,99,9","04,1,+00510,1,99,9",,,"99999,9,09920,1","5,1,005,1,+999,9","SYN082AAXX  03031 02458 45478 /2106 10077 20061 39920 49945 55005 333 82/13 84/17 88/38;",
"02458099999","2010-11-03T09:00:00","4","59.897328","17.588581","20.72","UPPSALA, SW","FM-12","ESCM ","V020","150,1,N,0050,1","00330,1,C,N","010000,1,N,1","+0079,1","+0068,1","09895,1",,,"61,1","6,1,03,1","06,1,+00330,1,99,9","07,1,+00420,1,99,9",,,"99999,9,09870,1","8,1,037,1,+999,9","SYN088AAXX  03091 02458 47460 /1505 10079 20068 39870 49895 58037 76165 333 86/11 87/14 88/45;",
"02458099999","2010-11-03T12:00:00","4","59.897328","17.588581","20.72","UPPSALA, SW","FM-12","ESCM ","V020","180,1,N,0090,1","99999,9,9,N","005000,1,N,1","+0089,1","+0078,1","09836,1",,,"81,1","8,1,06,1",,,,,"99999,9,09811,1","6,1,059,1,+999,9","SYN066AAXX  03121 02458 47/50 /1809 10089 20078 39811 49836 56059 78186;",
"02458099999","2010-11-03T15:00:00","4","59.897328","17.588581","20.72","UPPSALA, SW","FM-12","ESCM ","V020","240,1,N,0090,1","99999,9,9,N","015000,1,N,1","+0069,1","+0052,1","09844,1",,,"52,1","8,1,03,1",,,,,"99999,9,09819,1","3,1,008,1,+999,9","SYN066AAXX  03151 02458 47/65 /2409 10069 20052 39819 49844 53008 75286;",
"02458099999","2010-11-03T18:00:00","4","59.897328","17.588581","20.72","UPPSALA, SW","FM-12","ESCM ","V020","230,1,N,0050,1","99999,9,9,N","050000,1,N,1","+0068,1","+0056,1","09868,1","12,0041,9,1",,"22,1","6,1,06,1",,,"120,M,+0091,1","999,N,+0061,1","99999,9,09843,1","1,1,024,1,+999,9","SYN088AAXX  03181 02458 17/84 /2305 10068 20056 39843 49868 51024 60042 72265 333 10091 20061;",
"02458099999","2010-11-03T21:00:00","4","59.897328","17.588581","20.72","UPPSALA, SW","FM-12","ESCM ","V020","240,1,N,0060,1","99999,9,9,N","050000,1,N,1","+0073,1","+0044,1","09875,1",,,,,,,,,"99999,9,09850,1","3,1,007,1,+999,9","SYN060AAXX  03211 02458 45/84 /2406 10073 20044 39850 49875 53007;",
"02458099999","2010-11-04T00:00:00","4","59.897328","17.588581","20.72","UPPSALA, SW","FM-12","ESCM ","V020","240,1,N,0070,1","99999,9,9,N","045000,1,N,1","+0063,1","+0041,1","09887,1",,,,,,,,,"99999,9,09862,1","3,1,012,1,+999,9","SYN060AAXX  04001 02458 45/83 /2407 10063 20041 39862 49887 53012;",
"02458099999","2010-11-04T03:00:00","4","59.897328","17.588581","20.72","UPPSALA, SW","FM-12","ESCM ","V020","240,1,N,0060,1","99999,9,9,N","050000,1,N,1","+0047,1","+0030,1","09903,1",,,,,,,,,"99999,9,09878,1","3,1,015,1,+999,9","SYN060AAXX  04031 02458 45/84 /2406 10047 20030 39878 49903 53015;",
"02458099999","2010-11-04T06:00:00","4","59.897328","17.588581","20.72","UPPSALA, SW","FM-12","ESCM ","V020","240,1,N,0060,1","99999,9,9,N","050000,1,N,1","+0041,1","+0012,1","09917,1","24,0043,9,1",,,,,,"120,M,+0076,1","999,N,+0040,1","99999,9,09892,1","3,1,014,1,+999,9","SYN082AAXX  04060 02458 35/84 /2406 10041 20012 39892 49917 53014 333 10076 20040 70044;",
"02458099999","2010-11-04T09:00:00","4","59.897328","17.588581","20.72","UPPSALA, SW","FM-12","ESCM ","V020","250,1,N,0060,1","99999,9,9,N","050000,1,N,1","+0045,1","+0004,1","09931,1",,,,,,,,,"99999,9,09905,1","2,1,013,1,+999,9","SYN060AAXX  04091 02458 45/84 /2506 10045 20004 39905 49931 52013;",
"02458099999","2010-11-04T12:00:00","4","59.897328","17.588581","20.72","UPPSALA, SW","FM-12","ESCM ","V020","260,1,N,0050,1","99999,9,9,N","040000,1,N,1","+0067,1","+0010,1","09943,1",,,,,,,,,"99999,9,09918,1","2,1,013,1,+999,9","SYN060AAXX  04121 02458 45/82 /2605 10067 20010 39918 49943 52013;",
"02458099999","2010-11-04T15:00:00","4","59.897328","17.588581","20.72","UPPSALA, SW","FM-12","ESCM ","V020","250,1,N,0040,1","99999,9,9,N","050000,1,N,1","+0056,1","+0001,1","09957,1",,,,,,,,,"99999,9,09931,1","3,1,013,1,+999,9","SYN060AAXX  04151 02458 45/84 /2504 10056 20001 39931 49957 53013;",
"02458099999","2010-11-04T18:00:00","4","59.897328","17.588581","20.72","UPPSALA, SW","FM-12","ESCM ","V020","240,1,N,0060,1","99999,9,9,N","050000,1,N,1","+0036,1","-0004,1","09966,1",,,,,,,"120,M,+0074,1","999,N,+0031,1","99999,9,09941,1","2,1,010,1,+999,9","SYN076AAXX  04181 02458 35984 /2406 10036 21004 39941 49966 52010 333 10074 20031;",
"02458099999","2010-11-04T21:00:00","4","59.897328","17.588581","20.72","UPPSALA, SW","FM-12","ESCM ","V020","270,1,N,0020,1","99999,9,9,N","050000,1,N,1","+0023,1","-0012,1","09975,1",,,,,,,,,"99999,9,09950,1","2,1,009,1,+999,9","SYN060AAXX  04211 02458 45984 /2702 10023 21012 39950 49975 52009;",
"02458099999","2010-11-05T00:00:00","4","59.897328","17.588581","20.72","UPPSALA, SW","FM-12","ESCM ","V020","240,1,N,0020,1","99999,9,9,N","050000,1,N,1","+0005,1","-0015,1","09976,1",,,,,,,,,"99999,9,09950,1","4,1,000,1,+999,9","SYN060AAXX  05001 02458 45984 /2402 10005 21015 39950 49976 54000;",
"02458099999","2010-11-05T03:00:00","4","59.897328","17.588581","20.72","UPPSALA, SW","FM-12","ESCM ","V020","220,1,N,0040,1","99999,9,9,N","050000,1,N,1","+0000,1","-0011,1","09968,1",,,,,,,,,"99999,9,09942,1","7,1,008,1,+999,9","SYN060AAXX  05031 02458 45984 /2204 10000 21011 39942 49968 57008;",
"02458099999","2010-11-05T06:00:00","4","59.897328","17.588581","20.72","UPPSALA, SW","FM-12","ESCM ","V020","240,1,N,0020,1","99999,9,9,N","050000,1,N,1","-0013,1","-0026,1","09967,1",,,,,,,"120,M,+0038,1","999,N,-0013,1","99999,9,09941,1","7,1,001,1,+999,9","SYN076AAXX  05061 02458 35984 /2402 11013 21026 39941 49967 57001 333 10038 21013;",
"02458099999","2010-11-05T09:00:00","4","59.897328","17.588581","20.72","UPPSALA, SW","FM-12","ESCM ","V020","240,1,N,0010,1","99999,9,9,N","050000,1,N,1","+0016,1","-0012,1","09971,1",,,,,,,,,"99999,9,09946,1","2,1,005,1,+999,9","SYN060AAXX  05091 02458 45984 /2401 10016 21012 39946 49971 52005;",
"02458099999","2010-11-05T12:00:00","4","59.897328","17.588581","20.72","UPPSALA, SW","FM-12","ESCM ","V020","260,1,N,0010,1","99999,9,9,N","050000,1,N,1","+0054,1","-0007,1","09982,1",,,,,,,,,"99999,9,09957,1","3,1,011,1,+999,9","SYN060AAXX  05121 02458 45984 /2601 10054 21007 39957 49982 53011;",
"02458099999","2010-11-05T15:00:00","4","59.897328","17.588581","20.72","UPPSALA, SW","FM-12","ESCM ","V020","240,1,N,0020,1","99999,9,9,N","050000,1,N,1","+0020,1","-0013,1","09997,1",,,,,,,,,"99999,9,09971,1","2,1,014,1,+999,9","SYN060AAXX  05151 02458 45984 /2402 10020 21013 39971 49997 52014;",
"02458099999","2010-11-05T18:00:00","4","59.897328","17.588581","20.72","UPPSALA, SW","FM-12","ESCM ","V020","260,1,N,0020,1","99999,9,9,N","050000,1,N,1","+0009,1","-0017,1","10009,1",,,,,,,"120,M,+0055,1","999,N,-0020,1","99999,9,09983,1","3,1,012,1,+999,9","SYN076AAXX  05181 02458 35984 /2602 10009 21017 39983 40009 53012 333 10055 21020;",
"02458099999","2010-11-05T21:00:00","4","59.897328","17.588581","20.72","UPPSALA, SW","FM-12","ESCM ","V020","260,1,N,0020,1","99999,9,9,N","050000,1,N,1","+0003,1","-0019,1","10015,1",,,,,,,,,"99999,9,09989,1","3,1,006,1,+999,9","SYN060AAXX  05211 02458 45984 /2602 10003 21019 39989 40015 53006;",
"02458099999","2010-11-06T00:00:00","4","59.897328","17.588581","20.72","UPPSALA, SW","FM-12","ESCM ","V020","280,1,N,0010,1","01500,1,C,N","050000,1,N,1","-0012,1","-0026,1","10016,1",,,,,"07,1,+01500,1,99,9",,,,"99999,9,09990,1","4,1,000,1,+999,9","SYN070AAXX  06001 02458 45784 /2801 11012 21026 39990 40016 54000 333 87/50;",
"02458099999","2010-11-06T03:00:00","4","59.897328","17.588581","20.72","UPPSALA, SW","FM-12","ESCM ","V020","290,1,N,0020,1","01380,1,C,N","050000,1,N,1","+0008,1","-0010,1","10015,1",,,,,"07,1,+01380,1,99,9",,,,"99999,9,09989,1","0,1,000,1,+999,9","SYN076AAXX  06031 02458 45684 /2902 10008 21010 39989 40015 50000 333 87/46 88/56;",
"02458099999","2010-11-06T06:00:00","4","59.897328","17.588581","20.72","UPPSALA, SW","FM-12","ESCM ","V020","300,1,N,0010,1","99999,9,9,N","050000,1,N,1","-0015,1","-0023,1","10016,1",,,,,,,"120,M,+0018,1","999,N,-0017,1","99999,9,09991,1","2,1,001,1,+999,9","SYN076AAXX  06061 02458 35984 /3001 11015 21023 39991 40016 52001 333 10018 21017;",
"02458099999","2010-11-06T09:00:00","4","59.897328","17.588581","20.72","UPPSALA, SW","FM-12","ESCM ","V020","310,1,N,0040,1","99999,9,9,N","050000,1,N,1","+0013,1","-0017,1","10020,1",,,,,,,,,"99999,9,09994,1","2,1,004,1,+999,9","SYN060AAXX  06091 02458 45984 /3104 10013 21017 39994 40020 52004;",
"02458099999","2010-11-06T12:00:00","4","59.897328","17.588581","20.72","UPPSALA, SW","FM-12","ESCM ","V020","290,1,N,0030,1","99999,9,9,N","045000,1,N,1","+0033,1","-0020,1","10015,1",,,,,,,,,"99999,9,09989,1","7,1,005,1,+999,9","SYN060AAXX  06121 02458 45983 /2903 10033 21020 39989 40015 57005;",
"02458099999","2010-11-06T15:00:00","4","59.897328","17.588581","20.72","UPPSALA, SW","FM-12","ESCM ","V020","280,1,N,0030,1","99999,9,9,N","050000,1,N,1","+0007,1","-0035,1","10014,1",,,,,,,,,"99999,9,09988,1","4,1,000,1,+999,9","SYN060AAXX  06151 02458 45984 /2803 10007 21035 39988 40014 54001;",
"02458099999","2010-11-06T18:00:00","4","59.897328","17.588581","20.72","UPPSALA, SW","FM-12","ESCM ","V020","270,1,N,0040,1","99999,9,9,N","050000,1,N,1","+0002,1","-0048,1","10015,1",,,,,,,"120,M,+0035,1","999,N,-0016,1","99999,9,09990,1","2,1,001,1,+999,9","SYN076AAXX  06181 02458 35984 /2704 10002 21048 39990 40015 52001 333 10035 21016;",
"02458099999","2010-11-06T21:00:00","4","59.897328","17.588581","20.72","UPPSALA, SW","FM-12","ESCM ","V020","280,1,N,0030,1","99999,9,9,N","050000,1,N,1","-0017,1","-0056,1","10016,1",,,,,,,,,"99999,9,09990,1","2,1,001,1,+999,9","SYN060AAXX  06211 02458 45984 /2803 11017 21056 39990 40016 52001;",
"02458099999","2010-11-07T00:00:00","4","59.897328","17.588581","20.72","UPPSALA, SW","FM-12","ESCM ","V020","240,1,N,0020,1","99999,9,9,N","050000,1,N,1","-0025,1","-0061,1","10014,1",,,,,,,,,"99999,9,09988,1","5,1,002,1,+999,9","SYN060AAXX  07001 02458 45984 /2402 11025 21061 39988 40014 55002;",
"02458099999","2010-11-07T03:00:00","4","59.897328","17.588581","20.72","UPPSALA, SW","FM-12","ESCM ","V020","260,1,N,0030,1","99999,9,9,N","050000,1,N,1","-0025,1","-0062,1","10007,1",,,,,,,,,"99999,9,09981,1","7,1,007,1,+999,9","SYN060AAXX  07031 02458 45984 /2603 11025 21062 39981 40007 57007;",
"02458099999","2010-11-07T06:00:00","4","59.897328","17.588581","20.72","UPPSALA, SW","FM-12","ESCM ","V020","210,1,N,0020,1","99999,9,9,N","050000,1,N,1","-0045,1","-0071,1","10009,1",,,,,,,"120,M,+0004,1","999,N,-0045,1","99999,9,09982,1","4,1,000,1,+999,9","SYN076AAXX  07061 02458 35984 /2102 11045 21071 39982 40009 54001 333 10004 21045;",
"02458099999","2010-11-07T09:00:00","4","59.897328","17.588581","20.72","UPPSALA, SW","FM-12","ESCM ","V020","240,1,N,0030,1","99999,9,9,N","050000,1,N,1","-0013,1","-0056,1","10011,1",,,,,,,,,"99999,9,09985,1","2,1,003,1,+999,9","SYN060AAXX  07091 02458 45984 /2403 11013 21056 39985 40011 52003;",
"02458099999","2010-11-07T12:00:00","4","59.897328","17.588581","20.72","UPPSALA, SW","FM-12","ESCM ","V020","230,1,N,0040,1","99999,9,9,N","050000,1,N,1","+0014,1","-0046,1","10011,1",,,,,,,,,"99999,9,09985,1","0,1,000,1,+999,9","SYN060AAXX  07121 02458 45984 /2304 10014 21046 39985 40011 50000;",
"02458099999","2010-11-07T15:00:00","4","59.897328","17.588581","20.72","UPPSALA, SW","FM-12","ESCM ","V020","250,1,N,0020,1","99999,9,9,N","050000,1,N,1","-0012,1","-0053,1","10005,1",,,,,,,,,"99999,9,09980,1","5,1,006,1,+999,9","SYN060AAXX  07151 02458 45984 /2502 11012 21053 39980 40005 55006;",
"02458099999","2010-11-07T18:00:00","4","59.897328","17.588581","20.72","UPPSALA, SW","FM-12","ESCM ","V020","270,1,N,0050,1","99999,9,9,N","050000,1,N,1","-0007,1","-0073,1","10011,1",,,,,,,"120,M,+0014,1","999,N,-0045,1","99999,9,09985,1","2,1,006,1,+999,9","SYN076AAXX  07181 02458 35984 /2705 11007 21073 39985 40011 52006 333 10014 21045;",
"02458099999","2010-11-07T21:00:00","4","59.897328","17.588581","20.72","UPPSALA, SW","FM-12","ESCM ","V020","220,1,N,0010,1","99999,9,9,N","050000,1,N,1","-0044,1","-0077,1","10019,1",,,,,,,,,"99999,9,09993,1","2,1,008,1,+999,9","SYN060AAXX  07211 02458 45984 /2201 11044 21077 39993 40019 52008;",
"02458099999","2010-11-08T00:00:00","4","59.897328","17.588581","20.72","UPPSALA, SW","FM-12","ESCM ","V020","120,1,N,0010,1","99999,9,9,N","050000,1,N,1","-0060,1","-0082,1","10021,1",,,,,,,,,"99999,9,09995,1","2,1,002,1,+999,9","SYN060AAXX  08001 02458 45984 /1201 11060 21082 39995 40021 52002;",
"02458099999","2010-11-08T03:00:00","4","59.897328","17.588581","20.72","UPPSALA, SW","FM-12","ESCM ","V020","180,1,N,0010,1","99999,9,9,N","050000,1,N,1","-0084,1","-0092,1","10023,1",,,,,,,,,"99999,9,09996,1","2,1,001,1,+999,9","SYN060AAXX  08031 02458 45984 /1801 11084 21092 39996 40023 52001;",
"02458099999","2010-11-08T06:00:00","4","59.897328","17.588581","20.72","UPPSALA, SW","FM-12","ESCM ","V020","290,1,N,0010,1","99999,9,9,N","050000,1,N,1","-0090,1","-0099,1","10031,1",,,,,,,"120,M,-0004,1","999,N,-0095,1","99999,9,10004,1","3,1,008,1,+999,9","SYN076AAXX  08061 02458 35984 /2901 11090 21099 30004 40031 53008 333 11004 21095;",
"02458099999","2010-11-08T09:00:00","4","59.897328","17.588581","20.72","UPPSALA, SW","FM-12","ESCM ","V020","290,1,N,0020,1","99999,9,9,N","045000,1,N,1","-0057,1","-0075,1","10040,1",,,,,,,,,"99999,9,10013,1","0,1,009,1,+999,9","SYN060AAXX  08091 02458 45983 /2902 11057 21075 30013 40040 50009;",
"02458099999","2010-11-08T12:00:00","4","59.897328","17.588581","20.72","UPPSALA, SW","FM-12","ESCM ","V020","360,1,N,0010,1","99999,9,9,N","045000,1,N,1","-0005,1","-0041,1","10033,1",,,,,,,,,"99999,9,10007,1","7,1,006,1,+999,9","SYN060AAXX  08121 02458 45983 /3601 11005 21041 30007 40033 57006;",
"02458099999","2010-11-08T15:00:00","4","59.897328","17.588581","20.72","UPPSALA, SW","FM-12","ESCM ","V020","040,1,N,0030,1","99999,9,9,N","050000,1,N,1","-0019,1","-0043,1","10030,1",,,,,,,,,"99999,9,10004,1","7,1,004,1,+999,9","SYN060AAXX  08151 02458 45984 /0403 11019 21043 30004 40030 57004;",
"02458099999","2010-11-08T18:00:00","4","59.897328","17.588581","20.72","UPPSALA, SW","FM-12","ESCM ","V020","020,1,N,0030,1","99999,9,9,N","050000,1,N,1","-0040,1","-0053,1","10028,1",,,,,"01,1,+00960,1,99,9",,"120,M,+0001,1","999,N,-0096,1","99999,9,10002,1","7,1,002,1,+999,9","SYN082AAXX  08180 02458 35584 /0203 11040 21053 30002 40028 57002 333 10001 21096 81/32;",
"02458099999","2010-11-08T21:00:00","4","59.897328","17.588581","20.72","UPPSALA, SW","FM-12","ESCM ","V020","020,1,N,0030,1","99999,9,9,N","050000,1,N,1","-0048,1","-0062,1","10026,1",,,,,,,,,"99999,9,10000,1","8,1,001,1,+999,9","SYN060AAXX  08211 02458 45984 /0203 11048 21062 30000 40026 58001;",
"02458099999","2010-11-09T00:00:00","4","59.897328","17.588581","20.72","UPPSALA, SW","FM-12","ESCM ","V020","030,1,N,0040,1","99999,9,9,N","050000,1,N,1","-0037,1","-0057,1","10013,1",,,,,,,,,"99999,9,09986,1","8,1,014,1,+999,9","SYN060AAXX  09001 02458 45984 /0304 11037 21057 39986 40013 58014;",
"02458099999","2010-11-09T03:00:00","4","59.897328","17.588581","20.72","UPPSALA, SW","FM-12","ESCM ","V020","030,1,N,0060,1","99999,9,9,N","050000,1,N,1","-0016,1","-0044,1","09991,1",,,,,"01,1,+05400,1,99,9",,,,"99999,9,09965,1","7,1,021,1,+999,9","SYN070AAXX  09031 02458 45984 /0306 11016 21044 39965 49991 57021 333 81/68;",
"02458099999","2010-11-09T06:00:00","4","59.897328","17.588581","20.72","UPPSALA, SW","FM-12","ESCM ","V020","030,1,N,0070,1","99999,9,9,N","050000,1,N,1","+0002,1","-0036,1","09976,1",,,,,"01,1,+02700,1,99,9",,"120,M,+0003,1","999,N,-0067,1","99999,9,09950,1","8,1,015,1,+999,9","SYN082AAXX  09061 02458 35984 /0307 10002 21036 39950 49976 58015 333 10003 21067 81/59;",
"02458099999","2010-11-09T09:00:00","4","59.897328","17.588581","20.72","UPPSALA, SW","FM-12","ESCM ","V020","040,1,N,0090,1","99999,9,9,N","050000,1,N,1","+0012,1","-0033,1","09961,1",,,,,"01,1,+02100,1,99,9",,,,"99999,9,09936,1","8,1,014,1,+999,9","SYN070AAXX  09091 02458 45884 /0409 10012 21033 39936 49961 58014 333 81/57;",
"02458099999","2010-11-09T12:00:00","4","59.897328","17.588581","20.72","UPPSALA, SW","FM-12","ESCM ","V020","040,1,N,0100,1","00330,1,C,N","002900,1,N,1","-0002,1","-0007,1","09937,1",,,"71,1","7,1,06,1","09,1,+00330,1,99,9",,,,"99999,9,09911,1","8,1,025,1,+999,9","SYN076AAXX  09121 02458 47/29 /0410 11002 21007 39911 49937 58025 77174 333 89/11;",
"02458099999","2010-11-09T15:00:00","4","59.897328","17.588581","20.72","UPPSALA, SW","FM-12","ESCM ","V020","040,1,N,0090,1","00180,1,C,N","001400,1,N,1","-0002,1","-0005,1","09908,1",,,"71,1","7,1,03,1","09,1,+00180,1,99,9",,,,"99999,9,09882,1","6,1,029,1,+999,9","SYN076AAXX  09151 02458 47/14 /0409 11002 21005 39882 49908 56029 77177 333 89/06;",
"02458099999","2010-11-09T18:00:00","4","59.897328","17.588581","20.72","UPPSALA, SW","FM-12","ESCM ","V020","040,1,N,0080,1","00180,1,C,N","001500,1,N,1","-0002,1","-0005,1","09885,1","12,0061,9,1",,"71,1","7,1,06,1","09,1,+00180,1,99,9",,"120,M,+0016,1","999,N,-0003,1","99999,9,09860,1","8,1,022,1,+999,9","SYN100AAXX  09181 02458 07/15 /0408 11002 21005 39860 49885 58022 60062 77177 333 10016 21003 69995 89/06;",
"02458099999","2010-11-09T21:00:00","4","59.897328","17.588581","20.72","UPPSALA, SW","FM-12","ESCM ","V020","030,1,N,0090,1","00210,1,C,N","001100,1,N,1","-0001,1","-0004,1","09861,1",,,"71,1","7,1,03,1","09,1,+00210,1,99,9",,,,"99999,9,09835,1","8,1,024,1,+999,9","SYN076AAXX  09211 02458 47/11 /0309 11001 21004 39835 49861 58024 77177 333 89/07;",
"02458099999","2010-11-10T00:00:00","4","59.897328","17.588581","20.72","UPPSALA, SW","FM-12","ESCM ","V020","020,1,N,0060,1","99999,9,9,N","001000,1,N,1","-0001,1","-0004,1","09840,1",,,"71,1","7,1,06,1","04,1,+00210,1,99,9",,,,"99999,9,09815,1","7,1,020,1,+999,9","SYN076AAXX  10001 02458 47310 /0206 11001 21004 39815 49840 57020 77177 333 84/07;",
"02458099999","2010-11-10T03:00:00","4","59.897328","17.588581","20.72","UPPSALA, SW","FM-12","ESCM ","V020","360,1,N,0040,1","99999,9,9,N","018000,1,N,1","+0002,1","-0001,1","09830,1",,,"67,1","7,1,03,1","02,1,+00240,1,99,9",,,,"99999,9,09804,1","7,1,011,1,+999,9","SYN082AAXX  10031 02458 47368 /3604 10002 21001 39804 49830 57011 76776 333 82/08 88/12;",
"02458099999","2010-11-10T06:00:00","4","59.897328","17.588581","20.72","UPPSALA, SW","FM-12","ESCM ","V020","310,1,N,0020,1","00150,1,C,N","002000,1,N,1","+0005,1","+0002,1","09840,1","12,0071,9,1","24,0130,9,1","67,1","8,1,06,1","06,1,+00150,1,99,9",,"120,M,+0006,1","999,N,-0002,1","99999,9,09815,1","3,1,010,1,+999,9","SYN106AAXX  10061 02458 07220 /3102 10005 20002 39815 49840 53010 60072 76787 333 10006 21002 69925 70130 86/05;",
"02458099999","2010-11-10T09:00:00","4","59.897328","17.588581","20.72","UPPSALA, SW","FM-12","ESCM ","V020","210,1,N,0030,1","00240,1,C,N","001800,1,N,1","+0005,1","+0002,1","09866,1",,,"77,1","7,1,03,1","09,1,+00240,1,99,9",,,,"99999,9,09840,1","1,1,026,1,+999,9","SYN076AAXX  10091 02458 47/18 /2103 10005 20002 39840 49866 51026 77776 333 89/08;",
"02458099999","2010-11-10T12:00:00","4","59.897328","17.588581","20.72","UPPSALA, SW","FM-12","ESCM ","V020","200,1,N,0020,1","00180,1,C,N","003600,1,N,1","+0006,1","+0002,1","09883,1",,,"10,1","7,1,06,1","06,1,+00180,1,99,9",,,,"99999,9,09858,1","3,1,018,1,+999,9","SYN082AAXX  10120 02458 47236 /2002 10006 20002 39858 49883 53018 71076 333 86/06 88/08;",
"02458099999","2010-11-10T15:00:00","4","59.897328","17.588581","20.72","UPPSALA, SW","FM-12","ESCM ","V020","220,1,N,0020,1","00330,1,C,N","009000,1,N,1","+0003,1","-0001,1","09897,1",,,"71,1","8,1,03,1","01,1,+00210,1,99,9","07,1,+00330,1,99,9",,,"99999,9,09871,1","2,1,013,1,+999,9","SYN088AAXX  10151 02458 47359 /2202 10003 21001 39871 49897 52013 77187 333 81/07 87/11 88/15;",
"02458099999","2010-11-10T18:00:00","4","59.897328","17.588581","20.72","UPPSALA, SW","FM-12","ESCM ","V020","220,1,N,0020,1","00210,1,C,N","045000,1,N,1","+0002,1","-0003,1","09910,1","12,0005,9,1",,"00,1","8,1,06,1","06,1,+00210,1,99,9","07,1,+00240,1,99,9","120,M,+0006,1","999,N,+0001,1","99999,9,09885,1","3,1,014,1,+999,9","SYN106AAXX  10181 02458 17383 /2202 10002 21003 39885 49910 53014 69942 70087 333 10006 20001 86/07 87/08 88/11;",
"02458099999","2010-11-10T21:00:00","4","59.897328","17.588581","20.72","UPPSALA, SW","FM-12","ESCM ","V020","220,1,N,0020,1","99999,9,9,N","011000,1,N,1","+0001,1","-0005,1","09923,1",,,"71,1","7,1,03,1","04,1,+00240,1,99,9",,,,"99999,9,09898,1","2,1,013,1,+999,9","SYN082AAXX  10211 02458 47361 /2202 10001 21005 39898 49923 52013 77174 333 84/08 88/25;",
"02458099999","2010-11-11T00:00:00","4","59.897328","17.588581","20.72","UPPSALA, SW","FM-12","ESCM ","V020","200,1,N,0010,1","00390,1,C,N","015000,1,N,1","-0002,1","-0006,1","09927,1",,,"71,1","7,1,06,1","04,1,+00270,1,99,9","05,1,+00390,1,99,9",,,"99999,9,09902,1","2,1,004,1,+999,9","SYN088AAXX  11001 02458 47365 /2001 11002 21006 39902 49927 52004 77174 333 84/09 85/13 87/22;",
"02458099999","2010-11-11T03:00:00","4","59.897328","17.588581","20.72","UPPSALA, SW","FM-12","ESCM ","V020","190,1,N,0010,1","99999,9,9,N","002600,1,N,1","-0002,1","-0006,1","09930,1",,,"71,1","8,1,03,1","04,1,+00210,1,99,9",,,,"99999,9,09904,1","0,1,002,1,+999,9","SYN082AAXX  11031 02458 47326 /1901 11002 21006 39904 49930 50002 77187 333 84/07 88/13;",
"02458099999","2010-11-11T06:00:00","4","59.897328","17.588581","20.72","UPPSALA, SW","FM-12","ESCM ","V020","200,1,N,0040,1","00540,1,C,N","005000,1,N,1","+0000,1","-0005,1","09932,1","12,0000,2,1","24,0005,9,1","85,1","8,1,06,1","03,1,+00420,1,99,9","05,1,+00540,1,99,9","120,M,+0003,1","999,N,-0003,1","99999,9,09906,1","2,1,002,1,+999,9","SYN112AAXX  11061 02458 17450 /2004 10000 21005 39906 49932 52002 69912 78587 333 10003 21003 70005 83/14 85/18 88/26;",
"02458099999","2010-11-11T09:00:00","4","59.897328","17.588581","20.72","UPPSALA, SW","FM-12","ESCM ","V020","230,1,N,0030,1","01290,1,C,N","050000,1,N,1","-0005,1","-0024,1","09938,1",,,"00,1","8,1,03,1","08,1,+01290,1,99,9",,,,"99999,9,09913,1","2,1,007,1,+999,9","SYN076AAXX  11091 02458 47684 /2303 11005 21024 39913 49938 52007 70082 333 88/43;",
"02458099999","2010-11-11T12:00:00","4","59.897328","17.588581","20.72","UPPSALA, SW","FM-12","ESCM ","V020","230,1,N,0040,1","99999,9,9,N","050000,1,N,1","-0012,1","-0046,1","09938,1",,,"00,1","8,1,06,1",,,,,"99999,9,09913,1","0,1,000,1,+999,9","SYN066AAXX  11121 02458 47984 /2304 11012 21046 39913 49938 50000 70082;",
"02458099999","2010-11-11T15:00:00","4","59.897328","17.588581","20.72","UPPSALA, SW","FM-12","ESCM ","V020","190,1,N,0020,1","99999,9,9,N","045000,1,N,1","-0008,1","-0021,1","09934,1",,,,,"03,1,+00780,1,99,9",,,,"99999,9,09908,1","7,1,004,1,+999,9","SYN076AAXX  11151 02458 45583 /1902 11008 21021 39908 49934 57004 333 83/26 88/33;",
"02458099999","2010-11-11T18:00:00","4","59.897328","17.588581","20.72","UPPSALA, SW","FM-12","ESCM ","V020","190,1,N,0040,1","99999,9,9,N","035000,1,N,1","-0014,1","-0023,1","09926,1",,,"00,1","8,1,06,1","02,1,+00270,1,99,9",,"120,M,+0002,1","999,N,-0015,1","99999,9,09901,1","7,1,008,1,+999,9","SYN094AAXX  11181 02458 37381 /1904 11014 21023 39901 49926 57008 70087 333 10002 21015 82/09 83/22;",
"02458099999","2010-11-11T21:00:00","4","59.897328","17.588581","20.72","UPPSALA, SW","FM-12","ESCM ","V020","180,1,N,0030,1","01500,1,C,N","045000,1,N,1","+0003,1","-0006,1","09907,1",,,,,"08,1,+01500,1,99,9",,,,"99999,9,09881,1","8,1,019,1,+999,9","SYN070AAXX  11211 02458 45783 /1803 10003 21006 39881 49907 58019 333 88/50;",
"02458099999","2010-11-12T00:00:00","4","59.897328","17.588581","20.72","UPPSALA, SW","FM-12","ESCM ","V020","130,1,N,0020,1","01500,1,C,N","050000,1,N,1","-0003,1","-0009,1","09880,1",,,,,"08,1,+01500,1,99,9",,,,"99999,9,09855,1","8,1,027,1,+999,9","SYN070AAXX  12001 02458 45784 /1302 11003 21009 39855 49880 58027 333 88/50;",
"02458099999","2010-11-12T03:00:00","4","59.897328","17.588581","20.72","UPPSALA, SW","FM-12","ESCM ","V020","100,1,N,0040,1","01500,1,C,N","040000,1,N,1","+0012,1","+0007,1","09847,1",,,,,"07,1,+01500,1,99,9",,,,"99999,9,09822,1","7,1,032,1,+999,9","SYN070AAXX  12031 02458 45782 /1004 10012 20007 39822 49847 57032 333 87/50;",
"02458099999","2010-11-12T06:00:00","4","59.897328","17.588581","20.72","UPPSALA, SW","FM-12","ESCM ","V020","090,1,N,0050,1","03000,1,C,N","045000,1,N,1","+0018,1","+0010,1","09812,1",,,,,"08,1,+03000,1,99,9",,"120,M,+0022,1","999,N,-0024,1","99999,9,09787,1","8,1,035,1,+999,9","SYN082AAXX  12061 02458 35983 /0905 10018 20010 39787 49812 58035 333 10022 21024 88/60;",
"02458099999","2010-11-12T09:00:00","4","59.897328","17.588581","20.72","UPPSALA, SW","FM-12","ESCM ","V020","100,1,N,0040,1","00570,1,C,N","013000,1,N,1","+0025,1","+0015,1","09791,1",,,"61,1","6,1,03,1","02,1,+00420,1,99,9","04,1,+00570,1,99,9",,,"99999,9,09766,1","7,1,021,1,+999,9","SYN088AAXX  12091 02458 47463 /1004 10025 20015 39766 49791 57021 76165 333 82/14 84/19 85/29;",
"02458099999","2010-11-12T12:00:00","4","59.897328","17.588581","20.72","UPPSALA, SW","FM-12","ESCM ","V020","110,1,N,0050,1","00390,1,C,N","015000,1,N,1","+0031,1","+0023,1","09768,1",,,"61,1","6,1,06,1","02,1,+00300,1,99,9","04,1,+00390,1,99,9",,,"99999,9,09743,1","7,1,023,1,+999,9","SYN088AAXX  12120 02458 47465 /1105 10031 20023 39743 49768 57023 76165 333 82/10 84/13 86/18;",
"02458099999","2010-11-12T15:00:00","4","59.897328","17.588581","20.72","UPPSALA, SW","FM-12","ESCM ","V020","090,1,N,0040,1","00240,1,C,N","011000,1,N,1","+0022,1","+0019,1","09756,1",,,"61,1","6,1,03,1","07,1,+00240,1,99,9",,,,"99999,9,09731,1","7,1,012,1,+999,9","SYN082AAXX  12151 02458 47361 /0904 10022 20019 39731 49756 57012 76165 333 87/08 88/12;",
"02458099999","2010-11-12T18:00:00","4","59.897328","17.588581","20.72","UPPSALA, SW","FM-12","ESCM ","V020","070,1,N,0030,1","00270,1,C,N","007000,1,N,1","+0019,1","+0016,1","09747,1","12,0020,9,1",,"51,1","6,1,06,1","09,1,+00270,1,99,9",,"120,M,+0033,1","999,N,+0016,1","99999,9,09722,1","7,1,009,1,+999,9","SYN100AAXX  12181 02458 07/57 /0703 10019 20016 39722 49747 57009 60022 75165 333 10033 20016 69915 89/09;",
"02458099999","2010-11-12T21:00:00","4","59.897328","17.588581","20.72","UPPSALA, SW","FM-12","ESCM ","V020","020,1,N,0020,1","00120,1,C,N","006000,1,N,1","+0018,1","+0015,1","09742,1",,,"10,1","5,1,03,1","09,1,+00120,1,99,9",,,,"99999,9,09718,1","5,1,005,1,+999,9","SYN076AAXX  12211 02458 47/56 /0202 10018 20015 39718 49742 55005 71054 333 89/04;",
"02458099999","2010-11-13T00:00:00","4","59.897328","17.588581","20.72","UPPSALA, SW","FM-12","ESCM ","V020","340,1,N,0030,1","00060,1,C,N","000500,1,N,1","+0016,1","+0013,1","09741,1",,,"34,1","5,1,06,1","09,1,+00060,1,99,9",,,,"99999,9,09716,1","5,1,002,1,+999,9","SYN076AAXX  13001 02458 47/05 /3403 10016 20013 39716 49741 55002 73454 333 89/02;",
"02458099999","2010-11-13T03:00:00","4","59.897328","17.588581","20.72","UPPSALA, SW","FM-12","ESCM ","V020","310,1,N,0030,1","00060,1,C,N","001900,1,N,1","+0012,1","+0010,1","09752,1",,,"10,1","4,1,03,1","09,1,+00060,1,99,9",,,,"99999,9,09727,1","3,1,011,1,+999,9","SYN076AAXX  13031 02458 47/19 /3103 10012 20010 39727 49752 53011 71032 333 89/02;",
"02458099999","2010-11-13T06:00:00","4","59.897328","17.588581","20.72","UPPSALA, SW","FM-12","ESCM ","V020","290,1,N,0030,1","00360,1,C,N","010000,1,N,1","+0014,1","+0012,1","09763,1","12,0000,2,1","24,0020,9,1","22,1","8,1,06,1","02,1,+00180,1,99,9","04,1,+00360,1,99,9","120,M,+0021,1","999,N,+0009,1","99999,9,09738,1","2,1,011,1,+999,9","SYN118AAXX  13061 02458 07260 /2903 10014 20012 39738 49763 52011 69912 72285 333 10021 20009 69915 70021 82/06 84/12 85/17;",
"02458099999","2010-11-13T09:00:00","4","59.897328","17.588581","20.72","UPPSALA, SW","FM-12","ESCM ","V020","290,1,N,0030,1","00180,1,C,N","018000,1,N,1","+0017,1","+0015,1","09775,1",,,,,"05,1,+00180,1,99,9",,,,"99999,9,09750,1","2,1,012,1,+999,9","SYN076AAXX  13091 02458 45268 /2903 10017 20015 39750 49775 52012 333 85/06 88/24;",
"02458099999","2010-11-13T12:00:00","4","59.897328","17.588581","20.72","UPPSALA, SW","FM-12","ESCM ","V020","290,1,N,0040,1","00660,1,C,N","040000,1,N,1","+0020,1","+0013,1","09787,1",,,,,"07,1,+00660,1,99,9",,,,"99999,9,09762,1","2,1,012,1,+999,9","SYN076AAXX  13121 02458 45582 /2904 10020 20013 39762 49787 52012 333 87/22 88/66;",
"02458099999","2010-11-13T15:00:00","4","59.897328","17.588581","20.72","UPPSALA, SW","FM-12","ESCM ","V020","320,1,N,0020,1","22000,1,C,N","030000,1,N,1","+0014,1","+0009,1","09810,1",,,,,"02,1,+00210,1,99,9","03,1,+00420,1,99,9",,,"99999,9,09785,1","3,1,023,1,+999,9","SYN082AAXX  13151 02458 45380 /3202 10014 20009 39785 49810 53023 333 82/07 83/14 86/17;",
"02458099999","2010-11-13T18:00:00","4","59.897328","17.588581","20.72","UPPSALA, SW","FM-12","ESCM ","V020","310,1,N,0020,1","00390,1,C,N","045000,1,N,1","+0010,1","+0005,1","09838,1",,,,,"08,1,+00390,1,99,9",,"120,M,+0022,1","999,N,+0010,1","99999,9,09813,1","3,1,028,1,+999,9","SYN082AAXX  13180 02458 35483 /3102 10010 20005 39813 49838 53028 333 10022 20010 88/13;",
"02458099999","2010-11-13T21:00:00","4","59.897328","17.588581","20.72","UPPSALA, SW","FM-12","ESCM ","V020","250,1,N,0010,1","00360,1,C,N","050000,1,N,1","+0007,1","-0004,1","09870,1",,,,,"08,1,+00360,1,99,9",,,,"99999,9,09844,1","3,1,032,1,+999,9","SYN070AAXX  13211 02458 45484 /2501 10007 21004 39844 49870 53032 333 88/12;",
"02458099999","2010-11-14T00:00:00","4","59.897328","17.588581","20.72","UPPSALA, SW","FM-12","ESCM ","V020","160,1,N,0010,1","22000,1,C,N","040000,1,N,1","-0006,1","-0011,1","09890,1",,,,,"01,1,+00840,1,99,9","04,1,+01800,1,99,9",,,"99999,9,09865,1","2,1,020,1,+999,9","SYN082AAXX  14001 02458 45582 /1601 11006 21011 39865 49890 52020 333 81/28 84/56 85/58;",
"02458099999","2010-11-14T03:00:00","4","59.897328","17.588581","20.72","UPPSALA, SW","FM-12","ESCM ","V020","100,1,N,0010,1","00420,1,C,N","016000,1,N,1","+0003,1","-0001,1","09906,1",,,,,"08,1,+00420,1,99,9",,,,"99999,9,09880,1","2,1,016,1,+999,9","SYN070AAXX  14031 02458 45466 /1001 10003 21001 39880 49906 52016 333 88/14;",
"02458099999","2010-11-14T06:00:00","4","59.897328","17.588581","20.72","UPPSALA, SW","FM-12","ESCM ","V020","130,1,N,0020,1","00180,1,C,N","011000,1,N,1","+0006,1","+0003,1","09920,1",,,"22,1","8,1,06,1","08,1,+00180,1,99,9",,"120,M,+0014,1","999,N,-0008,1","99999,9,09895,1","3,1,015,1,+999,9","SYN088AAXX  14061 02458 37261 /1302 10006 20003 39895 49920 53015 72285 333 10014 21008 88/06;",
"02458099999","2010-11-14T09:00:00","4","59.897328","17.588581","20.72","UPPSALA, SW","FM-12","ESCM ","V020","160,1,N,0030,1","00270,1,C,N","016000,1,N,1","+0033,1","+0030,1","09935,1",,,"23,1","8,1,03,1","05,1,+00270,1,99,9",,,,"99999,9,09910,1","2,1,015,1,+999,9","SYN082AAXX  14091 02458 47366 /1603 10033 20030 39910 49935 52015 72386 333 85/09 88/17;",
"02458099999","2010-11-14T12:00:00","4","59.897328","17.588581","20.72","UPPSALA, SW","FM-12","ESCM ","V020","200,1,N,0040,1","99999,9,9,N","028000,1,N,1","+0044,1","+0036,1","09952,1",,,"00,1","8,1,06,1","02,1,+00300,1,99,9",,,,"99999,9,09927,1","2,1,017,1,+999,9","SYN082AAXX  14121 02458 47478 /2004 10044 20036 39927 49952 52017 70086 333 82/10 88/13;",
"02458099999","2010-11-14T15:00:00","4","59.897328","17.588581","20.72","UPPSALA, SW","FM-12","ESCM ","V020","200,1,N,0020,1","00360,1,C,N","014000,1,N,1","+0039,1","+0034,1","09964,1",,,"00,1","8,1,03,1","03,1,+00210,1,99,9","06,1,+00360,1,99,9",,,"99999,9,09939,1","3,1,012,1,+999,9","SYN088AAXX  14151 02458 47364 /2002 10039 20034 39939 49964 53012 70086 333 83/07 86/12 87/15;",
"02458099999","2010-11-14T18:00:00","4","59.897328","17.588581","20.72","UPPSALA, SW","FM-12","ESCM ","V020","200,1,N,0020,1","99999,9,9,N","018000,1,N,1","+0041,1","+0036,1","09978,1","12,0008,9,1",,"00,1","6,1,06,1","03,1,+00630,1,99,9",,"120,M,+0047,1","999,N,+0006,1","99999,9,09952,1","2,1,013,1,+999,9","SYN100AAXX  14181 02458 17568 /2002 10041 20036 39952 49978 52013 69982 70062 333 10047 20006 83/21 87/36;",
"02458099999","2010-11-14T21:00:00","4","59.897328","17.588581","20.72","UPPSALA, SW","FM-12","ESCM ","V020","200,1,N,0020,1","22000,1,C,N","016000,1,N,1","+0039,1","+0034,1","09982,1",,,,,"02,1,+01290,1,99,9","03,1,+01500,1,99,9",,,"99999,9,09957,1","3,1,004,1,+999,9","SYN082AAXX  14211 02458 45666 /2002 10039 20034 39957 49982 53004 333 82/43 83/50 85/68;",
"02458099999","2010-11-15T00:00:00","4","59.897328","17.588581","20.72","UPPSALA, SW","FM-12","ESCM ","V020","160,1,N,0020,1","99999,9,9,N","012000,1,N,1","+0018,1","+0015,1","09994,1",,,"00,1","4,1,06,1","04,1,+00660,1,99,9",,,,"99999,9,09969,1","1,1,012,1,+999,9","SYN076AAXX  15001 02458 47562 /1602 10018 20015 39969 49994 51012 70032 333 84/22;",
"02458099999","2010-11-15T03:00:00","4","59.897328","17.588581","20.72","UPPSALA, SW","FM-12","ESCM ","V020","150,1,N,0010,1","00150,1,C,N","000200,1,N,1","+0011,1","+0009,1","09999,1",,,"34,1","4,1,03,1","09,1,+00150,1,99,9",,,,"99999,9,09973,1","0,1,005,1,+999,9","SYN076AAXX  15031 02458 47/02 /1501 10011 20009 39973 49999 50005 73432 333 89/05;",
"02458099999","2010-11-15T06:00:00","4","59.897328","17.588581","20.72","UPPSALA, SW","FM-12","ESCM ","V020","070,1,N,0020,1","00120,1,C,N","000300,1,N,1","+0011,1","+0008,1","10000,1","24,0008,9,1",,"33,1","4,1,06,1","09,1,+00120,1,99,9",,"120,M,+0044,1","999,N,+0008,1","99999,9,09974,1","3,1,001,1,+999,9","SYN094AAXX  15061 02458 37/03 /0702 10011 20008 39974 40000 53001 73332 333 10044 20008 70008 89/04;",
"02458099999","2010-11-15T09:00:00","4","59.897328","17.588581","20.72","UPPSALA, SW","FM-12","ESCM ","V020","999,9,C,0000,1","99999,9,9,N","001300,1,N,1","+0018,1","+0015,1","09995,1",,,"62,1","7,1,03,1","02,1,+00060,1,99,9",,,,"99999,9,09970,1","5,1,005,1,+999,9","SYN082AAXX  15091 02458 47113 /0000 10018 20015 39970 49995 55005 76276 333 82/02 84/17;",
"02458099999","2010-11-15T12:00:00","4","59.897328","17.588581","20.72","UPPSALA, SW","FM-12","ESCM ","V020","350,1,N,0050,1","99999,9,9,N","004800,1,N,1","+0019,1","+0016,1","09986,1",,,"67,1","7,1,06,1","01,1,+00180,1,99,9",,,,"99999,9,09961,1","5,1,009,1,+999,9","SYN076AAXX  15121 02458 47348 /3505 10019 20016 39961 49986 55009 76776 333 81/06;",
"02458099999","2010-11-15T15:00:00","4","59.897328","17.588581","20.72","UPPSALA, SW","FM-12","ESCM ","V020","300,1,N,0040,1","99999,9,9,N","011000,1,N,1","+0007,1","+0003,1","10033,1",,,"71,1","7,1,03,1","02,1,+00180,1,99,9",,,,"99999,9,10007,1","3,1,046,1,+999,9","SYN076AAXX  15151 02458 47361 /3004 10007 20003 30007 40033 53046 77176 333 82/06;",
"02458099999","2010-11-15T18:00:00","4","59.897328","17.588581","20.72","UPPSALA, SW","FM-12","ESCM ","V020","240,1,N,0010,1","99999,9,9,N","003900,1,N,1","+0002,1","-0001,1","10067,1","12,0170,9,1",,"71,1","7,1,06,1","01,1,+00450,1,99,9",,"120,M,+0021,1","999,N,+0002,1","99999,9,10041,1","2,1,034,1,+999,9","SYN100AAXX  15181 02458 07439 /2401 10002 21001 30041 40067 52034 60172 77176 333 10021 20002 69935 81/15;",
"02458099999","2010-11-15T21:00:00","4","59.897328","17.588581","20.72","UPPSALA, SW","FM-12","ESCM ","V020","220,1,N,0020,1","00150,1,C,N","011000,1,N,1","+0004,1","+0001,1","10096,1",,,"41,1","7,1,03,1","09,1,+00150,1,99,9",,,,"99999,9,10070,1","3,1,029,1,+999,9","SYN076AAXX  15211 02458 47/61 /2202 10004 20001 30070 40096 53029 74176 333 89/05;",
"02458099999","2010-11-16T00:00:00","4","59.897328","17.588581","20.72","UPPSALA, SW","FM-12","ESCM ","V020","280,1,N,0040,1","00450,1,C,N","050000,1,N,1","+0008,1","-0003,1","10130,1",,,"00,1","8,1,06,1","06,1,+00450,1,99,9",,,,"99999,9,10104,1","2,1,034,1,+999,9","SYN082AAXX  16001 02458 47484 /2804 10008 21003 30104 40130 52034 70087 333 86/15 88/20;",
"02458099999","2010-11-16T03:00:00","4","59.897328","17.588581","20.72","UPPSALA, SW","FM-12","ESCM ","V020","280,1,N,0030,1","99999,9,9,N","050000,1,N,1","-0010,1","-0016,1","10165,1",,,,,,,,,"99999,9,10138,1","2,1,035,1,+999,9","SYN060AAXX  16031 02458 45984 /2803 11010 21016 30138 40165 52035;",
"02458099999","2010-11-16T06:00:00","4","59.897328","17.588581","20.72","UPPSALA, SW","FM-12","ESCM ","V020","240,1,N,0020,1","99999,9,9,N","035000,1,N,1","-0020,1","-0023,1","10192,1","12,0005,9,1","24,0173,9,1",,,,,"120,M,+0009,1","999,N,-0020,1","99999,9,10165,1","2,1,027,1,+999,9","SYN088AAXX  16061 02458 15981 /2402 11020 21023 30165 40192 52027 69962 333 10009 21020 70173;",
"02458099999","2010-11-16T09:00:00","4","59.897328","17.588581","20.72","UPPSALA, SW","FM-12","ESCM ","V020","260,1,N,0010,1","99999,9,9,N","035000,1,N,1","-0011,1","-0019,1","10225,1",,,,,,,,,"99999,9,10199,1","2,1,034,1,+999,9","SYN060AAXX  16091 02458 45981 /2601 11011 21019 30199 40225 52034;",
"02458099999","2010-11-16T12:00:00","4","59.897328","17.588581","20.72","UPPSALA, SW","FM-12","ESCM ","V020","240,1,N,0020,1","99999,9,9,N","045000,1,N,1","+0004,1","-0009,1","10248,1",,,,,,,,,"99999,9,10222,1","3,1,023,1,+999,9","SYN060AAXX  16121 02458 45983 /2402 10004 21009 30222 40248 53023;",
"02458099999","2010-11-16T15:00:00","4","59.897328","17.588581","20.72","UPPSALA, SW","FM-12","ESCM ","V020","220,1,N,0010,1","99999,9,9,N","000400,1,N,1","-0032,1","-0035,1","10263,1",,,"34,1","4,1,03,1",,,,,"99999,9,10236,1","3,1,015,1,+999,9","SYN066AAXX  16151 02458 47904 /2201 11032 21035 30236 40263 53015 73432;",
"02458099999","2010-11-16T18:00:00","4","59.897328","17.588581","20.72","UPPSALA, SW","FM-12","ESCM ","V020","999,9,C,0000,1","99999,9,9,N","000300,1,N,1","-0056,1","-0060,1","10284,1",,,"34,1","4,1,06,1",,,"120,M,+0009,1","999,N,-0057,1","99999,9,10257,1","3,1,020,1,+999,9","SYN082AAXX  16181 02458 37903 /0000 11056 21060 30257 40284 53020 73432 333 10009 21057;",
"02458099999","2010-11-16T21:00:00","4","59.897328","17.588581","20.72","UPPSALA, SW","FM-12","ESCM ","V020","999,9,C,0000,1","00030,1,C,N","000100,1,N,1","-0066,1","-0072,1","10296,1",,,"33,1","4,1,03,1","09,1,+00030,1,99,9",,,,"99999,9,10269,1","3,1,013,1,+999,9","SYN076AAXX  16211 02458 47/01 /0000 11066 21072 30269 40296 53013 73333 333 89/01;",
"02458099999","2010-11-17T00:00:00","4","59.897328","17.588581","20.72","UPPSALA, SW","FM-12","ESCM ","V020","999,9,C,0000,1","00030,1,C,N","000100,1,N,1","-0051,1","-0056,1","10307,1",,,"32,1","4,1,06,1","09,1,+00030,1,99,9",,,,"99999,9,10280,1","2,1,010,1,+999,9","SYN076AAXX  17001 02458 47/01 /0000 11051 21056 30280 40307 52010 73233 333 89/01;",
"02458099999","2010-11-17T03:00:00","4","59.897328","17.588581","20.72","UPPSALA, SW","FM-12","ESCM ","V020","999,9,C,0000,1","00030,1,C,N","000200,1,N,1","-0059,1","-0065,1","10310,1",,,"33,1","4,1,03,1","09,1,+00030,1,99,9",,,,"99999,9,10283,1","2,1,003,1,+999,9","SYN076AAXX  17031 02458 47/02 /0000 11059 21065 30283 40310 52003 73333 333 89/01;",
"02458099999","2010-11-17T06:00:00","4","59.897328","17.588581","20.72","UPPSALA, SW","FM-12","ESCM ","V020","999,9,C,0000,1","00030,1,C,N","000200,1,N,1","-0066,1","-0072,1","10316,1",,,"34,1","4,1,06,1","09,1,+00030,1,99,9",,"120,M,-0048,1","999,N,-0068,1","99999,9,10288,1","2,1,006,1,+999,9","SYN088AAXX  17061 02458 37/02 /0000 11066 21072 30288 40316 52006 73432 333 11048 21068 89/01;",
"02458099999","2010-11-17T09:00:00","4","59.897328","17.588581","20.72","UPPSALA, SW","FM-12","ESCM ","V020","999,9,C,0000,1","00150,1,C,N","015000,1,N,1","-0061,1","-0067,1","10327,1",,,"20,1","4,1,03,1","09,1,+00150,1,99,9",,,,"99999,9,10300,1","2,1,011,1,+999,9","SYN076AAXX  17091 02458 47/65 /0000 11061 21067 30300 40327 52011 72032 333 89/05;",
"02458099999","2010-11-17T12:00:00","4","59.897328","17.588581","20.72","UPPSALA, SW","FM-12","ESCM ","V020","999,9,C,0000,1","00060,1,C,N","000400,1,N,1","-0050,1","-0055,1","10324,1",,,"77,1","7,1,06,1","09,1,+00060,1,99,9",,,,"99999,9,10297,1","8,1,003,1,+999,9","SYN076AAXX  17121 02458 47/04 /0000 11050 21055 30297 40324 58003 77774 333 89/02;",
"02458099999","2010-11-17T15:00:00","4","59.897328","17.588581","20.72","UPPSALA, SW","FM-12","ESCM ","V020","330,1,N,0020,1","00690,1,C,N","030000,1,N,1","-0039,1","-0043,1","10316,1",,,"00,1","8,1,03,1","08,1,+00690,1,99,9",,,,"99999,9,10289,1","7,1,007,1,+999,9","SYN076AAXX  17151 02458 47580 /3302 11039 21043 30289 40316 57007 70087 333 88/23;",
"02458099999","2010-11-17T18:00:00","4","59.897328","17.588581","20.72","UPPSALA, SW","FM-12","ESCM ","V020","010,1,N,0010,1","00720,1,C,N","035000,1,N,1","-0025,1","-0029,1","10306,1",,,"00,1","8,1,06,1","08,1,+00720,1,99,9",,"120,M,-0025,1","999,N,-0071,1","99999,9,10279,1","8,1,010,1,+999,9","SYN088AAXX  17181 02458 37581 /0101 11025 21029 30279 40306 58010 70087 333 11025 21071 88/24;",
"02458099999","2010-11-17T21:00:00","4","59.897328","17.588581","20.72","UPPSALA, SW","FM-12","ESCM ","V020","040,1,N,0030,1","00630,1,C,N","050000,1,N,1","-0014,1","-0017,1","10300,1",,,,,"08,1,+00630,1,99,9",,,,"99999,9,10273,1","7,1,006,1,+999,9","SYN070AAXX  17211 02458 45584 /0403 11014 21017 30273 40300 57006 333 88/21;",
"02458099999","2010-11-18T00:00:00","4","59.897328","17.588581","20.72","UPPSALA, SW","FM-12","ESCM ","V020","020,1,N,0040,1","00570,1,C,N","050000,1,N,1","-0017,1","-0027,1","10279,1",,,"00,1","8,1,06,1","05,1,+00570,1,99,9",,,,"99999,9,10253,1","8,1,021,1,+999,9","SYN082AAXX  18001 02458 47484 /0204 11017 21027 30253 40279 58021 70087 333 85/19 88/25;",
"02458099999","2010-11-18T03:00:00","4","59.897328","17.588581","20.72","UPPSALA, SW","FM-12","ESCM ","V020","010,1,N,0040,1","99999,9,9,N","011000,1,N,1","-0008,1","-0015,1","10252,1",,,"71,1","7,1,03,1","04,1,+00240,1,99,9",,,,"99999,9,10226,1","8,1,027,1,+999,9","SYN082AAXX  18031 02458 47361 /0104 11008 21015 30226 40252 58027 77174 333 84/08 88/12;",
"02458099999","2010-11-18T06:00:00","4","59.897328","17.588581","20.72","UPPSALA, SW","FM-12","ESCM ","V020","020,1,N,0030,1","00180,1,C,N","013000,1,N,1","-0001,1","-0005,1","10234,1",,,"71,1","8,1,06,1","07,1,+00180,1,99,9",,"120,M,+0000,1","999,N,-0026,1","99999,9,10207,1","7,1,018,1,+999,9","SYN094AAXX  18061 02458 37363 /0203 11001 21005 30207 40234 57018 77187 333 10000 21026 87/06 88/11;",
"02458099999","2010-11-18T09:00:00","4","59.897328","17.588581","20.72","UPPSALA, SW","FM-12","ESCM ","V020","010,1,N,0040,1","00270,1,C,N","045000,1,N,1","+0004,1","-0006,1","10226,1",,,"22,1","7,1,03,1","08,1,+00270,1,99,9",,,,"99999,9,10200,1","7,1,008,1,+999,9","SYN076AAXX  18091 02458 47383 /0104 10004 21006 30200 40226 57008 72272 333 88/09;",
"02458099999","2010-11-18T12:00:00","4","59.897328","17.588581","20.72","UPPSALA, SW","FM-12","ESCM ","V020","360,1,N,0030,1","99999,9,9,N","030000,1,N,1","+0002,1","-0008,1","10218,1",,,"00,1","7,1,06,1",,,,,"99999,9,10192,1","5,1,008,1,+999,9","SYN066AAXX  18121 02458 47/80 /3603 10002 21008 30192 40218 55008 70072;",
"02458099999","2010-11-18T15:00:00","4","59.897328","17.588581","20.72","UPPSALA, SW","FM-12","ESCM ","V020","350,1,N,0040,1","99999,9,9,N","004000,1,N,1","-0003,1","-0008,1","10220,1",,,"71,1","8,1,03,1","02,1,+00270,1,99,9",,,,"99999,9,10194,1","3,1,001,1,+999,9","SYN082AAXX  18151 02458 47340 /3504 11003 21008 30194 40220 53001 77187 333 82/09 88/14;",
"02458099999","2010-11-18T18:00:00","4","59.897328","17.588581","20.72","UPPSALA, SW","FM-12","ESCM ","V020","330,1,N,0040,1","00300,1,C,N","012000,1,N,1","-0013,1","-0019,1","10230,1","12,0005,9,1",,"85,1","8,1,06,1","06,1,+00300,1,99,9",,"120,M,+0006,1","999,N,-0014,1","99999,9,10203,1","3,1,010,1,+999,9","SYN100AAXX  18181 02458 17462 /3304 11013 21019 30203 40230 53010 69952 78587 333 10006 21014 86/10 88/13;",
"02458099999","2010-11-18T21:00:00","4","59.897328","17.588581","20.72","UPPSALA, SW","FM-12","ESCM ","V020","360,1,N,0030,1","00360,1,C,N","050000,1,N,1","-0005,1","-0018,1","10240,1",,,"00,1","8,1,03,1","07,1,+00360,1,99,9",,,,"99999,9,10214,1","3,1,010,1,+999,9","SYN082AAXX  18211 02458 47484 /3603 11005 21018 30214 40240 53010 70087 333 87/12 88/25;",
"02458099999","2010-11-19T00:00:00","4","59.897328","17.588581","20.72","UPPSALA, SW","FM-12","ESCM ","V020","350,1,N,0030,1","00420,1,C,N","050000,1,N,1","-0009,1","-0015,1","10241,1",,,"24,1","8,1,06,1","04,1,+00300,1,99,9","07,1,+00420,1,99,9",,,"99999,9,10214,1","5,1,001,1,+999,9","SYN088AAXX  19001 02458 47484 /3503 11009 21015 30214 40241 55001 72487 333 84/10 87/14 88/30;",
"02458099999","2010-11-19T03:00:00","4","59.897328","17.588581","20.72","UPPSALA, SW","FM-12","ESCM ","V020","020,1,N,0050,1","99999,9,9,N","021000,1,N,1","-0004,1","-0014,1","10240,1",,,"85,1","8,1,03,1","01,1,+00360,1,99,9",,,,"99999,9,10214,1","4,1,000,1,+999,9","SYN082AAXX  19031 02458 47471 /0205 11004 21014 30214 40240 54001 78587 333 81/12 88/28;",
"02458099999","2010-11-19T06:00:00","4","59.897328","17.588581","20.72","UPPSALA, SW","FM-12","ESCM ","V020","020,1,N,0040,1","99999,9,9,N","050000,1,N,1","-0010,1","-0026,1","10247,1","12,0000,2,1","24,0005,9,1","00,1","8,1,06,1","01,1,+00900,1,99,9",,"120,M,-0002,1","999,N,-0016,1","99999,9,10221,1","1,1,007,1,+999,9","SYN100AAXX  19061 02458 17584 /0204 11010 21026 30221 40247 51007 69912 70087 333 11002 21016 70006 81/30;",
"02458099999","2010-11-19T09:00:00","4","59.897328","17.588581","20.72","UPPSALA, SW","FM-12","ESCM ","V020","020,1,N,0040,1","99999,9,9,N","050000,1,N,1","-0009,1","-0029,1","10252,1",,,,,,,,,"99999,9,10226,1","0,1,005,1,+999,9","SYN060AAXX  19091 02458 45984 /0204 11009 21029 30226 40252 50005;",
"02458099999","2010-11-19T12:00:00","4","59.897328","17.588581","20.72","UPPSALA, SW","FM-12","ESCM ","V020","040,1,N,0060,1","99999,9,9,N","045000,1,N,1","+0001,1","-0024,1","10250,1",,,,,,,,,"99999,9,10224,1","8,1,002,1,+999,9","SYN060AAXX  19121 02458 45983 /0406 10001 21024 30224 40250 58002;",
"02458099999","2010-11-19T15:00:00","4","59.897328","17.588581","20.72","UPPSALA, SW","FM-12","ESCM ","V020","010,1,N,0050,1","00690,1,C,N","050000,1,N,1","-0010,1","-0029,1","10249,1",,,,,"08,1,+00690,1,99,9",,,,"99999,9,10222,1","5,1,002,1,+999,9","SYN070AAXX  19151 02458 45584 /0105 11010 21029 30222 40249 55002 333 88/23;",
"02458099999","2010-11-19T18:00:00","4","59.897328","17.588581","20.72","UPPSALA, SW","FM-12","ESCM ","V020","010,1,N,0040,1","00600,1,C,N","050000,1,N,1","-0010,1","-0027,1","10245,1",,,,,"08,1,+00600,1,99,9",,"120,M,+0003,1","999,N,-0015,1","99999,9,10219,1","5,1,003,1,+999,9","SYN082AAXX  19181 02458 35584 /0104 11010 21027 30219 40245 55003 333 10003 21015 88/20;",
"02458099999","2010-11-19T21:00:00","4","59.897328","17.588581","20.72","UPPSALA, SW","FM-12","ESCM ","V020","020,1,N,0050,1","99999,9,9,N","050000,1,N,1","-0010,1","-0026,1","10241,1",,,,,"01,1,+00540,1,99,9",,,,"99999,9,10214,1","7,1,004,1,+999,9","SYN076AAXX  19211 02458 45484 /0205 11010 21026 30214 40241 57004 333 81/18 87/69;",
"02458099999","2010-11-20T00:00:00","4","59.897328","17.588581","20.72","UPPSALA, SW","FM-12","ESCM ","V020","040,1,N,0060,1","00360,1,C,N","050000,1,N,1","-0002,1","-0019,1","10235,1",,,,,"08,1,+00360,1,99,9",,,,"99999,9,10208,1","7,1,006,1,+999,9","SYN070AAXX  20001 02458 45484 /0406 11002 21019 30208 40235 57006 333 88/12;",
"02458099999","2010-11-20T03:00:00","4","59.897328","17.588581","20.72","UPPSALA, SW","FM-12","ESCM ","V020","070,1,N,0040,1","00210,1,C,N","025000,1,N,1","-0009,1","-0018,1","10235,1",,,,,"08,1,+00210,1,99,9",,,,"99999,9,10209,1","4,1,000,1,+999,9","SYN070AAXX  20031 02458 45375 /0704 11009 21018 30209 40235 54000 333 88/07;",
"02458099999","2010-11-20T06:00:00","4","59.897328","17.588581","20.72","UPPSALA, SW","FM-12","ESCM ","V020","020,1,N,0030,1","99999,9,9,N","005000,1,N,1","-0015,1","-0019,1","10236,1","12,0005,9,1","24,0005,9,1","71,1","7,1,06,1","01,1,+00210,1,99,9",,"120,M,-0001,1","999,N,-0017,1","99999,9,10210,1","2,1,001,1,+999,9","SYN106AAXX  20061 02458 07350 /0203 11015 21019 30210 40236 52001 69942 77174 333 11001 21017 69915 70004 81/07;",
"02458099999","2010-11-20T09:00:00","4","59.897328","17.588581","20.72","UPPSALA, SW","FM-12","ESCM ","V020","040,1,N,0040,1","00240,1,C,N","006000,1,N,1","-0006,1","-0010,1","10243,1",,,"71,1","7,1,03,1","05,1,+00240,1,99,9",,,,"99999,9,10217,1","2,1,007,1,+999,9","SYN082AAXX  20091 02458 47356 /0404 11006 21010 30217 40243 52007 77177 333 85/08 88/24;",
"02458099999","2010-11-20T12:00:00","4","59.897328","17.588581","20.72","UPPSALA, SW","FM-12","ESCM ","V020","040,1,N,0040,1","00240,1,C,N","023000,1,N,1","-0004,1","-0009,1","10240,1",,,"71,1","7,1,06,1","08,1,+00240,1,99,9",,,,"99999,9,10213,1","7,1,004,1,+999,9","SYN076AAXX  20121 02458 47373 /0404 11004 21009 30213 40240 57004 77177 333 88/08;",
"02458099999","2010-11-20T15:00:00","4","59.897328","17.588581","20.72","UPPSALA, SW","FM-12","ESCM ","V020","030,1,N,0040,1","00210,1,C,N","045000,1,N,1","+0001,1","-0007,1","10237,1",,,"00,1","8,1,03,1","08,1,+00210,1,99,9",,,,"99999,9,10211,1","7,1,002,1,+999,9","SYN076AAXX  20151 02458 47383 /0304 10001 21007 30211 40237 57002 70087 333 88/07;",
"02458099999","2010-11-20T18:00:00","4","59.897328","17.588581","20.72","UPPSALA, SW","FM-12","ESCM ","V020","030,1,N,0040,1","00210,1,C,N","050000,1,N,1","+0003,1","-0004,1","10241,1","12,0000,2,1",,"00,1","8,1,06,1","08,1,+00210,1,99,9",,"120,M,+0004,1","999,N,-0016,1","99999,9,10215,1","2,1,004,1,+999,9","SYN094AAXX  20181 02458 17384 /0304 10003 21004 30215 40241 52004 69922 70087 333 10004 21016 88/07;",
"02458099999","2010-11-20T21:00:00","4","59.897328","17.588581","20.72","UPPSALA, SW","FM-12","ESCM ","V020","030,1,N,0050,1","00150,1,C,N","017000,1,N,1","+0002,1","-0003,1","10243,1",,,,,"08,1,+00150,1,99,9",,,,"99999,9,10217,1","2,1,002,1,+999,9","SYN070AAXX  20211 02458 45267 /0305 10002 21003 30217 40243 52002 333 88/05;",
"02458099999","2010-11-21T00:00:00","4","59.897328","17.588581","20.72","UPPSALA, SW","FM-12","ESCM ","V020","020,1,N,0040,1","00180,1,C,N","004800,1,N,1","+0004,1","+0001,1","10239,1",,,"24,1","7,1,06,1","09,1,+00180,1,99,9",,,,"99999,9,10213,1","8,1,004,1,+999,9","SYN076AAXX  21001 02458 47/48 /0204 10004 20001 30213 40239 58004 72476 333 89/06;",
"02458099999","2010-11-21T03:00:00","4","59.897328","17.588581","20.72","UPPSALA, SW","FM-12","ESCM ","V020","020,1,N,0040,1","00120,1,C,N","002000,1,N,1","+0005,1","+0003,1","10234,1",,,"10,1","3,1,03,1","09,1,+00120,1,99,9",,,,"99999,9,10207,1","7,1,005,1,+999,9","SYN076AAXX  21031 02458 47/20 /0204 10005 20003 30207 40234 57005 71021 333 89/04;",
"02458099999","2010-11-21T06:00:00","4","59.897328","17.588581","20.72","UPPSALA, SW","FM-12","ESCM ","V020","020,1,N,0050,1","00150,1,C,N","040000,1,N,1","+0009,1","+0006,1","10232,1","12,0000,2,1","24,0003,9,1","00,1","4,1,06,1","09,1,+00150,1,99,9",,"120,M,+0010,1","999,N,+0001,1","99999,9,10205,1","7,1,002,1,+999,9","SYN100AAXX  21061 02458 17/82 /0205 10009 20006 30205 40232 57002 69912 70032 333 10010 20001 70003 89/05;",
"02458099999","2010-11-21T09:00:00","4","59.897328","17.588581","20.72","UPPSALA, SW","FM-12","ESCM ","V020","020,1,N,0040,1","00180,1,C,N","019000,1,N,1","+0011,1","+0006,1","10240,1",,,"23,1","8,1,03,1","08,1,+00180,1,99,9",,,,"99999,9,10214,1","2,1,009,1,+999,9","SYN076AAXX  21091 02458 47369 /0204 10011 20006 30214 40240 52009 72386 333 88/06;",
"02458099999","2010-11-21T12:00:00","4","59.897328","17.588581","20.72","UPPSALA, SW","FM-12","ESCM ","V020","030,1,N,0050,1","00240,1,C,N","021000,1,N,1","+0011,1","+0004,1","10240,1",,,"00,1","8,1,06,1","08,1,+00240,1,99,9",,,,"99999,9,10214,1","4,1,000,1,+999,9","SYN076AAXX  21121 02458 47371 /0305 10011 20004 30214 40240 54001 70086 333 88/08;",
"02458099999","2010-11-21T15:00:00","4","59.897328","17.588581","20.72","UPPSALA, SW","FM-12","ESCM ","V020","010,1,N,0050,1","00300,1,C,N","017000,1,N,1","+0003,1","-0008,1","10240,1",,,"85,1","8,1,03,1","06,1,+00300,1,99,9","07,1,+00450,1,99,9",,,"99999,9,10214,1","4,1,000,1,+999,9","SYN088AAXX  21151 02458 47467 /0105 10003 21008 30214 40240 54000 78587 333 86/10 87/15 88/21;",
"02458099999","2010-11-21T18:00:00","4","59.897328","17.588581","20.72","UPPSALA, SW","FM-12","ESCM ","V020","020,1,N,0070,1","00300,1,C,N","012000,1,N,1","+0004,1","-0006,1","10236,1","12,0000,2,1",,"85,1","8,1,06,1","08,1,+00300,1,99,9",,"120,M,+0014,1","999,N,+0002,1","99999,9,10210,1","7,1,004,1,+999,9","SYN100AAXX  21181 02458 07462 /0207 10004 21006 30210 40236 57004 69922 78587 333 10014 20002 69915 88/10;",
"02458099999","2010-11-21T21:00:00","4","59.897328","17.588581","20.72","UPPSALA, SW","FM-12","ESCM ","V020","010,1,N,0040,1","00330,1,C,N","009000,1,N,1","-0005,1","-0010,1","10236,1",,,"71,1","8,1,03,1","03,1,+00240,1,99,9","06,1,+00330,1,99,9",,,"99999,9,10210,1","4,1,000,1,+999,9","SYN088AAXX  21211 02458 47359 /0104 11005 21010 30210 40236 54000 77187 333 83/08 86/11 87/16;",
"02458099999","2010-11-22T00:00:00","4","59.897328","17.588581","20.72","UPPSALA, SW","FM-12","ESCM ","V020","010,1,N,0040,1","01140,1,C,N","050000,1,N,1","-0011,1","-0029,1","10231,1",,,"00,1","8,1,06,1","08,1,+01140,1,99,9",,,,"99999,9,10204,1","7,1,006,1,+999,9","SYN076AAXX  22001 02458 47684 /0104 11011 21029 30204 40231 57006 70087 333 88/38;",
"02458099999","2010-11-22T03:00:00","4","59.897328","17.588581","20.72","UPPSALA, SW","FM-12","ESCM ","V020","020,1,N,0040,1","01170,1,C,N","050000,1,N,1","-0019,1","-0039,1","10219,1",,,,,"08,1,+01170,1,99,9",,,,"99999,9,10192,1","7,1,012,1,+999,9","SYN070AAXX  22031 02458 45684 /0204 11019 21039 30192 40219 57012 333 88/39;",
"02458099999","2010-11-22T06:00:00","4","59.897328","17.588581","20.72","UPPSALA, SW","FM-12","ESCM ","V020","010,1,N,0040,1","00180,1,C,N","040000,1,N,1","-0016,1","-0025,1","10203,1","12,0000,2,1","24,0005,9,1",,,"08,1,+00180,1,99,9",,"120,M,+0004,1","999,N,-0020,1","99999,9,10176,1","8,1,016,1,+999,9","SYN094AAXX  22061 02458 15282 /0104 11016 21025 30176 40203 58016 69922 333 10004 21020 70004 88/06;",
"02458099999","2010-11-22T09:00:00","4","59.897328","17.588581","20.72","UPPSALA, SW","FM-12","ESCM ","V020","030,1,N,0050,1","00300,1,C,N","020000,1,N,1","-0007,1","-0021,1","10195,1",,,"77,1","7,1,03,1","05,1,+00300,1,99,9",,,,"99999,9,10169,1","7,1,008,1,+999,9","SYN082AAXX  22091 02458 47470 /0305 11007 21021 30169 40195 57008 77774 333 85/10 88/13;",
"02458099999","2010-11-22T12:00:00","4","59.897328","17.588581","20.72","UPPSALA, SW","FM-12","ESCM ","V020","010,1,N,0030,1","00420,1,C,N","050000,1,N,1","-0005,1","-0025,1","10179,1",,,"00,1","7,1,06,1","06,1,+00420,1,99,9",,,,"99999,9,10153,1","7,1,016,1,+999,9","SYN082AAXX  22121 02458 47484 /0103 11005 21025 30153 40179 57016 70074 333 86/14 88/19;",
"02458099999","2010-11-22T15:00:00","4","59.897328","17.588581","20.72","UPPSALA, SW","FM-12","ESCM ","V020","010,1,N,0040,1","99999,9,9,N","009000,1,N,1","-0009,1","-0023,1","10161,1",,,"71,1","7,1,03,1","01,1,+00300,1,99,9",,,,"99999,9,10135,1","7,1,018,1,+999,9","SYN082AAXX  22151 02458 47459 /0104 11009 21023 30135 40161 57018 77174 333 81/10 83/48;",
"02458099999","2010-11-22T18:00:00","4","59.897328","17.588581","20.72","UPPSALA, SW","FM-12","ESCM ","V020","010,1,N,0060,1","00390,1,C,N","005000,1,N,1","-0008,1","-0020,1","10144,1","12,0003,9,1",,"71,1","7,1,06,1","09,1,+00390,1,99,9",,"120,M,-0004,1","999,N,-0016,1","99999,9,10118,1","8,1,017,1,+999,9","SYN100AAXX  22181 02458 07/50 /0106 11008 21020 30118 40144 58017 69932 77170 333 11004 21016 69915 89/13;",
"02458099999","2010-11-22T21:00:00","4","59.897328","17.588581","20.72","UPPSALA, SW","FM-12","ESCM ","V020","010,1,N,0050,1","00390,1,C,N","002300,1,N,1","-0008,1","-0017,1","10133,1",,,"71,1","7,1,03,1","04,1,+00300,1,99,9","06,1,+00390,1,99,9",,,"99999,9,10107,1","7,1,011,1,+999,9","SYN088AAXX  22211 02458 47423 /0105 11008 21017 30107 40133 57011 77177 333 84/10 86/13 88/16;",
"02458099999","2010-11-23T00:00:00","4","59.897328","17.588581","20.72","UPPSALA, SW","FM-12","ESCM ","V020","020,1,N,0060,1","00240,1,C,N","010000,1,N,1","-0004,1","-0010,1","10116,1",,,"71,1","7,1,06,1","08,1,+00240,1,99,9",,,,"99999,9,10090,1","8,1,018,1,+999,9","SYN076AAXX  23001 02458 47360 /0206 11004 21010 30090 40116 58018 77177 333 88/08;",
"02458099999","2010-11-23T03:00:00","4","59.897328","17.588581","20.72","UPPSALA, SW","FM-12","ESCM ","V020","030,1,N,0070,1","00720,1,C,N","050000,1,N,1","+0000,1","-0022,1","10101,1",,,"00,1","7,1,03,1","08,1,+00720,1,99,9",,,,"99999,9,10075,1","7,1,015,1,+999,9","SYN076AAXX  23031 02458 47584 /0307 10000 21022 30075 40101 57015 70072 333 88/24;",
"02458099999","2010-11-23T06:00:00","4","59.897328","17.588581","20.72","UPPSALA, SW","FM-12","ESCM ","V020","030,1,N,0070,1","99999,9,9,N","050000,1,N,1","-0011,1","-0041,1","10091,1","12,0000,2,1","24,0005,9,1","00,1","7,1,06,1","03,1,+02400,1,99,9",,"120,M,+0000,1","999,N,-0012,1","99999,9,10065,1","7,1,010,1,+999,9","SYN100AAXX  23061 02458 17984 /0307 11011 21041 30065 40091 57010 69922 70072 333 10000 21012 70005 83/58;",
"02458099999","2010-11-23T09:00:00","4","59.897328","17.588581","20.72","UPPSALA, SW","FM-12","ESCM ","V020","050,1,N,0090,1","99999,9,9,N","040000,1,N,1","-0008,1","-0048,1","10080,1",,,,,"02,1,+00750,1,99,9",,,,"99999,9,10054,1","7,1,011,1,+999,9","SYN070AAXX  23091 02458 45582 /0509 11008 21048 30054 40080 57011 333 82/25;",
"02458099999","2010-11-23T12:00:00","4","59.897328","17.588581","20.72","UPPSALA, SW","FM-12","ESCM ","V020","040,1,N,0090,1","99999,9,9,N","050000,1,N,1","-0011,1","-0062,1","10070,1",,,,,"04,1,+00900,1,99,9",,,,"99999,9,10044,1","7,1,010,1,+999,9","SYN070AAXX  23121 02458 45584 /0409 11011 21062 30044 40070 57010 333 84/30;",
"02458099999","2010-11-23T15:00:00","4","59.897328","17.588581","20.72","UPPSALA, SW","FM-12","ESCM ","V020","030,1,N,0120,1","99999,9,9,N","050000,1,N,1","-0024,1","-0084,1","10060,1",,,,,"01,1,+02100,1,99,9",,,,"99999,9,10033,1","8,1,011,1,+999,9","SYN070AAXX  23151 02458 45884 /0312 11024 21084 30033 40060 58011 333 81/57;",
"02458099999","2010-11-23T18:00:00","4","59.897328","17.588581","20.72","UPPSALA, SW","FM-12","ESCM ","V020","020,1,N,0100,1","99999,9,9,N","050000,1,N,1","-0025,1","-0081,1","10048,1",,,,,,,"120,M,-0004,1","999,N,-0030,1","99999,9,10022,1","8,1,011,1,+999,9","SYN076AAXX  23181 02458 35984 /0210 11025 21081 30022 40048 58011 333 11004 21030;",
"02458099999","2010-11-23T21:00:00","4","59.897328","17.588581","20.72","UPPSALA, SW","FM-12","ESCM ","V020","010,1,N,0090,1","99999,9,9,N","050000,1,N,1","-0023,1","-0073,1","10033,1",,,,,,,,,"99999,9,10007,1","7,1,015,1,+999,9","SYN060AAXX  23211 02458 45984 /0109 11023 21073 30007 40033 57015;",
"02458099999","2010-11-24T00:00:00","4","59.897328","17.588581","20.72","UPPSALA, SW","FM-12","ESCM ","V020","030,1,N,0100,1","00600,1,C,N","050000,1,N,1","-0015,1","-0050,1","10016,1",,,,,"08,1,+00600,1,99,9",,,,"99999,9,09990,1","7,1,017,1,+999,9","SYN070AAXX  24001 02458 45584 /0310 11015 21050 39990 40016 57017 333 88/20;",
"02458099999","2010-11-24T03:00:00","4","59.897328","17.588581","20.72","UPPSALA, SW","FM-12","ESCM ","V020","030,1,N,0110,1","00840,1,C,N","015000,1,N,1","-0019,1","-0054,1","10013,1",,,"77,1","8,1,03,1","07,1,+00840,1,99,9",,,,"99999,9,09987,1","7,1,004,1,+999,9","SYN076AAXX  24031 02458 47565 /0311 11019 21054 39987 40013 57004 77787 333 87/28;",
"02458099999","2010-11-24T06:00:00","4","59.897328","17.588581","20.72","UPPSALA, SW","FM-12","ESCM ","V020","020,1,N,0090,1","00450,1,C,N","009000,1,N,1","-0023,1","-0042,1","10010,1","12,0000,2,1","24,0000,2,1","77,1","8,1,06,1","07,1,+00450,1,99,9",,"120,M,-0010,1","999,N,-0026,1","99999,9,09984,1","5,1,002,1,+999,9","SYN106AAXX  24061 02458 17459 /0209 11023 21042 39984 40010 55002 69912 77787 333 11010 21026 70001 87/15 88/18;",
"02458099999","2010-11-24T09:00:00","4","59.897328","17.588581","20.72","UPPSALA, SW","FM-12","ESCM ","V020","020,1,N,0090,1","00450,1,C,N","008000,1,N,1","-0021,1","-0044,1","10010,1",,,"71,1","7,1,03,1","06,1,+00450,1,99,9",,,,"99999,9,09985,1","4,1,000,1,+999,9","SYN082AAXX  24091 02458 47458 /0209 11021 21044 39985 40010 54000 77177 333 86/15 88/21;",
"02458099999","2010-11-24T12:00:00","4","59.897328","17.588581","20.72","UPPSALA, SW","FM-12","ESCM ","V020","030,1,N,0090,1","00570,1,C,N","007000,1,N,1","-0020,1","-0040,1","10005,1",,,"71,1","7,1,06,1","03,1,+00450,1,99,9","06,1,+00570,1,99,9",,,"99999,9,09979,1","7,1,006,1,+999,9","SYN088AAXX  24121 02458 47457 /0309 11020 21040 39979 40005 57006 77177 333 83/15 86/19 87/26;",
"02458099999","2010-11-24T15:00:00","4","59.897328","17.588581","20.72","UPPSALA, SW","FM-12","ESCM ","V020","020,1,N,0090,1","00420,1,C,N","005000,1,N,1","-0023,1","-0040,1","10010,1",,,"71,1","7,1,03,1","05,1,+00420,1,99,9",,,,"99999,9,09984,1","2,1,004,1,+999,9","SYN082AAXX  24151 02458 47450 /0209 11023 21040 39984 40010 52004 77177 333 85/14 88/20;",
"02458099999","2010-11-24T18:00:00","4","59.897328","17.588581","20.72","UPPSALA, SW","FM-12","ESCM ","V020","030,1,N,0090,1","00480,1,C,N","004300,1,N,1","-0026,1","-0034,1","10020,1","12,0020,9,1",,"71,1","7,1,06,1","06,1,+00480,1,99,9",,"120,M,-0019,1","999,N,-0026,1","99999,9,09994,1","3,1,011,1,+999,9","SYN106AAXX  24181 02458 07443 /0309 11026 21034 39994 40020 53011 60022 77177 333 11019 21026 69925 86/16 88/21;",
"02458099999","2010-11-24T21:00:00","4","59.897328","17.588581","20.72","UPPSALA, SW","FM-12","ESCM ","V020","030,1,N,0090,1","00240,1,C,N","005000,1,N,1","-0030,1","-0041,1","10033,1",,,"71,1","7,1,03,1","09,1,+00240,1,99,9",,,,"99999,9,10007,1","2,1,012,1,+999,9","SYN076AAXX  24211 02458 47/50 /0309 11030 21041 30007 40033 52012 77177 333 89/08;",
"02458099999","2010-11-25T00:00:00","4","59.897328","17.588581","20.72","UPPSALA, SW","FM-12","ESCM ","V020","030,1,N,0080,1","00390,1,C,N","002600,1,N,1","-0033,1","-0044,1","10038,1",,,"71,1","7,1,06,1","09,1,+00390,1,99,9",,,,"99999,9,10012,1","2,1,006,1,+999,9","SYN076AAXX  25001 02458 47/26 /0308 11033 21044 30012 40038 52006 77177 333 89/13;",
"02458099999","2010-11-25T03:00:00","4","59.897328","17.588581","20.72","UPPSALA, SW","FM-12","ESCM ","V020","020,1,N,0060,1","00960,1,C,N","005000,1,N,1","-0036,1","-0052,1","10041,1",,,"71,1","7,1,03,1","09,1,+00960,1,99,9",,,,"99999,9,10015,1","2,1,003,1,+999,9","SYN076AAXX  25031 02458 47/50 /0206 11036 21052 30015 40041 52003 77177 333 89/32;",
"02458099999","2010-11-25T06:00:00","4","59.897328","17.588581","20.72","UPPSALA, SW","FM-12","ESCM ","V020","010,1,N,0060,1","00600,1,C,N","002500,1,N,1","-0034,1","-0049,1","10043,1","12,0051,9,1","24,0064,9,1","71,1","7,1,06,1","09,1,+00600,1,99,9",,"120,M,-0026,1","999,N,-0037,1","99999,9,10017,1","2,1,002,1,+999,9","SYN106AAXX  25061 02458 07/25 /0106 11034 21049 30017 40043 52002 60052 77177 333 11026 21037 69975 70064 89/20;",
"02458099999","2010-11-25T09:00:00","4","59.897328","17.588581","20.72","UPPSALA, SW","FM-12","ESCM ","V020","010,1,N,0060,1","01140,1,C,N","009000,1,N,1","-0036,1","-0058,1","10050,1",,,"71,1","7,1,03,1","09,1,+01140,1,99,9",,,,"99999,9,10024,1","2,1,006,1,+999,9","SYN076AAXX  25091 02458 47/59 /0106 11036 21058 30024 40050 52006 77177 333 89/38;",
"02458099999","2010-11-25T12:00:00","4","59.897328","17.588581","20.72","UPPSALA, SW","FM-12","ESCM ","V020","010,1,N,0060,1","00960,1,C,N","004400,1,N,1","-0041,1","-0068,1","10054,1",,,"71,1","7,1,06,1","09,1,+00960,1,99,9",,,,"99999,9,10027,1","2,1,004,1,+999,9","SYN076AAXX  25121 02458 47/44 /0106 11041 21068 30027 40054 52004 77177 333 89/32;",
"02458099999","2010-11-25T15:00:00","4","59.897328","17.588581","20.72","UPPSALA, SW","FM-12","ESCM ","V020","010,1,N,0050,1","00870,1,C,N","014000,1,N,1","-0045,1","-0074,1","10056,1",,,"71,1","7,1,03,1","08,1,+00870,1,99,9",,,,"99999,9,10030,1","3,1,003,1,+999,9","SYN076AAXX  25151 02458 47564 /0105 11045 21074 30030 40056 53003 77177 333 88/29;",
"02458099999","2010-11-25T18:00:00","4","59.897328","17.588581","20.72","UPPSALA, SW","FM-12","ESCM ","V020","010,1,N,0060,1","00810,1,C,N","011000,1,N,1","-0048,1","-0082,1","10061,1","12,0010,9,1",,"71,1","7,1,06,1","08,1,+00810,1,99,9",,"120,M,-0033,1","999,N,-0048,1","99999,9,10034,1","2,1,004,1,+999,9","SYN100AAXX  25180 02458 07561 /0106 11048 21082 30034 40061 52004 60012 77177 333 11033 21048 69915 88/27;",
"02458099999","2010-11-25T21:00:00","4","59.897328","17.588581","20.72","UPPSALA, SW","FM-12","ESCM ","V020","350,1,N,0060,1","00690,1,C,N","009000,1,N,1","-0055,1","-0080,1","10067,1",,,"71,1","7,1,03,1","07,1,+00690,1,99,9",,,,"99999,9,10040,1","2,1,006,1,+999,9","SYN082AAXX  25211 02458 47559 /3506 11055 21080 30040 40067 52006 77177 333 87/23 88/32;",
"02458099999","2010-11-26T00:00:00","4","59.897328","17.588581","20.72","UPPSALA, SW","FM-12","ESCM ","V020","360,1,N,0040,1","00570,1,C,N","006000,1,N,1","-0060,1","-0082,1","10072,1",,,"71,1","7,1,06,1","06,1,+00570,1,99,9",,,,"99999,9,10045,1","2,1,005,1,+999,9","SYN082AAXX  26001 02458 47456 /3604 11060 21082 30045 40072 52005 77177 333 86/19 88/27;",
"02458099999","2010-11-26T03:00:00","4","59.897328","17.588581","20.72","UPPSALA, SW","FM-12","ESCM ","V020","360,1,N,0030,1","00930,1,C,N","006000,1,N,1","-0061,1","-0075,1","10077,1",,,"71,1","7,1,03,1","09,1,+00930,1,99,9",,,,"99999,9,10050,1","2,1,005,1,+999,9","SYN076AAXX  26031 02458 47/56 /3603 11061 21075 30050 40077 52005 77177 333 89/31;",
"02458099999","2010-11-26T06:00:00","4","59.897328","17.588581","20.72","UPPSALA, SW","FM-12","ESCM ","V020","360,1,N,0030,1","00960,1,C,N","005000,1,N,1","-0067,1","-0081,1","10082,1","12,0010,9,1","24,0023,9,1","71,1","7,1,06,1","09,1,+00960,1,99,9",,"120,M,-0048,1","999,N,-0071,1","99999,9,10056,1","3,1,005,1,+999,9","SYN106AAXX  26061 02458 07/50 /3603 11067 21081 30056 40082 53005 60012 77177 333 11048 21071 69915 70024 89/32;",
"02458099999","2010-11-26T09:00:00","4","59.897328","17.588581","20.72","UPPSALA, SW","FM-12","ESCM ","V020","340,1,N,0020,1","22000,1,C,N","022000,1,N,1","-0086,1","-0099,1","10096,1",,,"71,1","7,1,03,1","01,1,+00420,1,99,9","04,1,+00960,1,99,9",,,"99999,9,10069,1","3,1,013,1,+999,9","SYN088AAXX  26091 02458 47472 /3402 11086 21099 30069 40096 53013 77177 333 81/14 84/32 85/58;",
"02458099999","2010-11-26T12:00:00","4","59.897328","17.588581","20.72","UPPSALA, SW","FM-12","ESCM ","V020","020,1,N,0030,1","00630,1,C,N","011000,1,N,1","-0063,1","-0081,1","10101,1",,,"85,1","8,1,06,1","09,1,+00630,1,99,9",,,,"99999,9,10074,1","2,1,005,1,+999,9","SYN076AAXX  26120 02458 47/61 /0203 11063 21081 30074 40101 52005 78587 333 89/21;",
"02458099999","2010-11-26T15:00:00","4","59.897328","17.588581","20.72","UPPSALA, SW","FM-12","ESCM ","V020","340,1,N,0020,1","99999,9,9,N","012000,1,N,1","-0103,1","-0113,1","10108,1",,,"71,1","8,1,03,1","01,1,+00150,1,99,9","03,1,+00240,1,99,9",,,"99999,9,10081,1","2,1,006,1,+999,9","SYN088AAXX  26151 02458 47262 /3402 11103 21113 30081 40108 52006 77187 333 81/05 83/08 85/13;",
"02458099999","2010-11-26T18:00:00","4","59.897328","17.588581","20.72","UPPSALA, SW","FM-12","ESCM ","V020","020,1,N,0020,1","00300,1,C,N","003700,1,N,1","-0102,1","-0114,1","10117,1","12,0005,9,1",,"71,1","8,1,06,1","04,1,+00210,1,99,9","06,1,+00300,1,99,9","120,M,-0061,1","999,N,-0114,1","99999,9,10090,1","2,1,010,1,+999,9","SYN112AAXX  26181 02458 07337 /0202 11102 21114 30090 40117 52010 69952 77187 333 11061 21114 69925 84/07 86/10 87/15;",
"02458099999","2010-11-26T21:00:00","4","59.897328","17.588581","20.72","UPPSALA, SW","FM-12","ESCM ","V020","999,9,C,0000,1","00600,1,C,N","003700,1,N,1","-0100,1","-0110,1","10127,1",,,"71,1","7,1,03,1","03,1,+00210,1,99,9","05,1,+00600,1,99,9",,,"99999,9,10100,1","2,1,009,1,+999,9","SYN088AAXX  26211 02458 47337 /0000 11100 21110 30100 40127 52009 77177 333 83/07 85/20 88/29;",
"02458099999","2010-11-27T03:00:00","4","59.897328","17.588581","20.72","UPPSALA, SW","FM-12","ESCM ","V020","999,9,C,0000,1","00540,1,C,N","003000,1,N,1","-0081,1","-0091,1","10135,1",,,"71,1","7,1,03,1","03,1,+00210,1,99,9","06,1,+00540,1,99,9",,,"99999,9,10108,1","2,1,005,1,+999,9","SYN088AAXX  27031 02458 47330 /0000 11081 21091 30108 40135 52005 77177 333 83/07 86/18 87/50;",
"02458099999","2010-11-27T06:00:00","4","59.897328","17.588581","20.72","UPPSALA, SW","FM-12","ESCM ","V020","360,1,N,0010,1","00780,1,C,N","002000,1,N,1","-0074,1","-0083,1","10138,1","12,0020,9,1","24,0028,9,1","71,1","7,1,06,1","02,1,+00300,1,99,9","04,1,+00780,1,99,9","120,M,-0069,1","999,N,-0119,1","99999,9,10111,1","2,1,003,1,+999,9","SYN118AAXX  27061 02458 07420 /3601 11074 21083 30111 40138 52003 60022 77177 333 11069 21119 69935 70028 82/10 84/26 87/34;",
"02458099999","2010-11-27T09:00:00","4","59.897328","17.588581","20.72","UPPSALA, SW","FM-12","ESCM ","V020","999,9,C,0000,1","00360,1,C,N","003100,1,N,1","-0072,1","-0082,1","10149,1",,,"71,1","7,1,03,1","04,1,+00270,1,99,9","06,1,+00360,1,99,9",,,"99999,9,10122,1","3,1,011,1,+999,9","SYN088AAXX  27091 02458 47331 /0000 11072 21082 30122 40149 53011 77177 333 84/09 86/12 88/16;",
"02458099999","2010-11-27T12:00:00","4","59.897328","17.588581","20.72","UPPSALA, SW","FM-12","ESCM ","V020","070,1,N,0010,1","99999,9,9,N","001900,1,N,1","-0073,1","-0083,1","10157,1",,,"71,1","7,1,06,1","01,1,+00030,1,99,9",,,,"99999,9,10130,1","2,1,008,1,+999,9","SYN082AAXX  27121 02458 47019 /0701 11073 21083 30130 40157 52008 77177 333 81/01 83/23;",
"02458099999","2010-11-27T15:00:00","4","59.897328","17.588581","20.72","UPPSALA, SW","FM-12","ESCM ","V020","050,1,N,0020,1","00720,1,C,N","015000,1,N,1","-0086,1","-0100,1","10165,1",,,"71,1","7,1,03,1","02,1,+00420,1,99,9","04,1,+00720,1,99,9",,,"99999,9,10138,1","2,1,008,1,+999,9","SYN088AAXX  27151 02458 47465 /0502 11086 21100 30138 40165 52008 77177 333 82/14 84/24 86/30;",
"02458099999","2010-11-27T18:00:00","4","59.897328","17.588581","20.72","UPPSALA, SW","FM-12","ESCM ","V020","010,1,N,0020,1","00510,1,C,N","008000,1,N,1","-0085,1","-0097,1","10173,1","12,0041,9,1",,"71,1","7,1,06,1","02,1,+00330,1,99,9","04,1,+00510,1,99,9","120,M,-0068,1","999,N,-0090,1","99999,9,10146,1","2,1,008,1,+999,9","SYN112AAXX  27181 02458 07458 /0102 11085 21097 30146 40173 52008 60042 77177 333 11068 21090 69915 82/11 84/17 87/25;",
"02458099999","2010-11-27T21:00:00","4","59.897328","17.588581","20.72","UPPSALA, SW","FM-12","ESCM ","V020","010,1,N,0020,1","99999,9,9,N","006000,1,N,1","-0083,1","-0094,1","10185,1",,,"77,1","8,1,03,1","04,1,+01080,1,99,9",,,,"99999,9,10158,1","2,1,012,1,+999,9","SYN082AAXX  27211 02458 47656 /0102 11083 21094 30158 40185 52012 77787 333 84/36 86/50;",
"02458099999","2010-11-28T00:00:00","4","59.897328","17.588581","20.72","UPPSALA, SW","FM-12","ESCM ","V020","040,1,N,0050,1","99999,9,9,N","013000,1,N,1","-0071,1","-0086,1","10195,1",,,"77,1","8,1,06,1","02,1,+01350,1,99,9",,,,"99999,9,10168,1","2,1,010,1,+999,9","SYN076AAXX  28001 02458 47663 /0405 11071 21086 30168 40195 52010 77787 333 82/45;",
"02458099999","2010-11-28T03:00:00","4","59.897328","17.588581","20.72","UPPSALA, SW","FM-12","ESCM ","V020","050,1,N,0070,1","99999,9,9,N","005000,1,N,1","-0074,1","-0094,1","10211,1",,,"71,1","7,1,03,1",,,,,"99999,9,10184,1","2,1,015,1,+999,9","SYN066AAXX  28031 02458 47950 /0507 11074 21094 30184 40211 52015 77177;",
"02458099999","2010-11-28T06:00:00","4","59.897328","17.588581","20.72","UPPSALA, SW","FM-12","ESCM ","V020","060,1,N,0060,1","99999,9,9,N","008000,1,N,1","-0081,1","-0103,1","10230,1","12,0005,9,1","24,0048,9,1","71,1","7,1,06,1","03,1,+01170,1,99,9",,"120,M,-0071,1","999,N,-0090,1","99999,9,10202,1","3,1,019,1,+999,9","SYN100AAXX  28061 02458 17658 /0606 11081 21103 30202 40230 53019 69952 77177 333 11071 21090 70047 83/39;",
"02458099999","2010-11-28T09:00:00","4","59.897328","17.588581","20.72","UPPSALA, SW","FM-12","ESCM ","V020","040,1,N,0070,1","00390,1,C,N","021000,1,N,1","-0084,1","-0112,1","10255,1",,,"71,1","7,1,03,1","05,1,+00390,1,99,9",,,,"99999,9,10228,1","2,1,025,1,+999,9","SYN082AAXX  28091 02458 47471 /0407 11084 21112 30228 40255 52025 77177 333 85/13 88/20;",
"02458099999","2010-11-28T12:00:00","4","59.897328","17.588581","20.72","UPPSALA, SW","FM-12","ESCM ","V020","060,1,N,0060,1","99999,9,9,N","050000,1,N,1","-0092,1","-0123,1","10271,1",,,"00,1","8,1,06,1","01,1,+02400,1,99,9",,,,"99999,9,10244,1","2,1,016,1,+999,9","SYN076AAXX  28121 02458 47984 /0606 11092 21123 30244 40271 52016 70087 333 81/58;",
"02458099999","2010-11-28T15:00:00","4","59.897328","17.588581","20.72","UPPSALA, SW","FM-12","ESCM ","V020","010,1,N,0010,1","99999,9,9,N","050000,1,N,1","-0172,1","-0190,1","10286,1",,,,,,,,,"99999,9,10258,1","2,1,015,1,+999,9","SYN060AAXX  28151 02458 45984 /0101 11172 21190 30258 40286 52015;",
"02458099999","2010-11-28T18:00:00","4","59.897328","17.588581","20.72","UPPSALA, SW","FM-12","ESCM ","V020","350,1,N,0010,1","99999,9,9,N","050000,1,N,1","-0180,1","-0201,1","10300,1","12,0000,2,1",,,,,,"120,M,-0081,1","999,N,-0198,1","99999,9,10272,1","2,1,014,1,+999,9","SYN082AAXX  28181 02458 15984 /3501 11180 21201 30272 40300 52014 69922 333 11081 21198;",
"02458099999","2010-11-28T21:00:00","4","59.897328","17.588581","20.72","UPPSALA, SW","FM-12","ESCM ","V020","320,1,N,0010,1","99999,9,9,N","050000,1,N,1","-0177,1","-0198,1","10309,1",,,,,,,,,"99999,9,10281,1","2,1,009,1,+999,9","SYN060AAXX  28211 02458 45984 /3201 11177 21198 30281 40309 52009;",
"02458099999","2010-11-29T00:00:00","4","59.897328","17.588581","20.72","UPPSALA, SW","FM-12","ESCM ","V020","320,1,N,0020,1","99999,9,9,N","040000,1,N,1","-0207,1","-0232,1","10307,1",,,,,"01,1,+00630,1,99,9",,,,"99999,9,10278,1","8,1,002,1,+999,9","SYN070AAXX  29001 02458 45582 /3202 11207 21232 30278 40307 58002 333 81/21;",
"02458099999","2010-11-29T03:00:00","4","59.897328","17.588581","20.72","UPPSALA, SW","FM-12","ESCM ","V020","320,1,N,0010,1","99999,9,9,N","019000,1,N,1","-0146,1","-0164,1","10295,1",,,"71,1","8,1,03,1","02,1,+00420,1,99,9",,,,"99999,9,10267,1","7,1,012,1,+999,9","SYN076AAXX  29031 02458 47469 /3201 11146 21164 30267 40295 57012 77187 333 82/14;",
"02458099999","2010-11-29T06:00:00","4","59.897328","17.588581","20.72","UPPSALA, SW","FM-12","ESCM ","V020","320,1,N,0020,1","99999,9,9,N","050000,1,N,1","-0148,1","-0166,1","10293,1","12,0000,2,1","24,0003,9,1","00,1","8,1,06,1",,,"120,M,-0120,1","999,N,-0224,1","99999,9,10265,1","5,1,002,1,+999,9","SYN094AAXX  29061 02458 17984 /3202 11148 21166 30265 40293 55002 69912 70087 333 11120 21224 70003;",
"02458099999","2010-11-29T09:00:00","4","59.897328","17.588581","20.72","UPPSALA, SW","FM-12","ESCM ","V020","320,1,N,0010,1","99999,9,9,N","040000,1,N,1","-0149,1","-0167,1","10302,1",,,"00,1","8,1,03,1",,,,,"99999,9,10274,1","2,1,009,1,+999,9","SYN066AAXX  29091 02458 47982 /3201 11149 21167 30274 40302 52009 70087;",
"02458099999","2010-11-29T12:00:00","4","59.897328","17.588581","20.72","UPPSALA, SW","FM-12","ESCM ","V020","010,1,N,0020,1","99999,9,9,N","035000,1,N,1","-0100,1","-0112,1","10300,1",,,"24,1","8,1,06,1",,,,,"99999,9,10272,1","8,1,002,1,+999,9","SYN066AAXX  29121 02458 47981 /0102 11100 21112 30272 40300 58002 72487;",
"02458099999","2010-11-29T15:00:00","4","59.897328","17.588581","20.72","UPPSALA, SW","FM-12","ESCM ","V020","010,1,N,0040,1","99999,9,9,N","050000,1,N,1","-0107,1","-0136,1","10302,1",,,"00,1","8,1,03,1",,,,,"99999,9,10274,1","3,1,002,1,+999,9","SYN066AAXX  29151 02458 47984 /0104 11107 21136 30274 40302 53002 70087;",
"02458099999","2010-11-29T18:00:00","4","59.897328","17.588581","20.72","UPPSALA, SW","FM-12","ESCM ","V020","310,1,N,0020,1","22000,1,C,N","040000,1,N,1","-0174,1","-0195,1","10301,1",,,"00,1","8,1,06,1","01,1,+00750,1,99,9","04,1,+00990,1,99,9","120,M,-0089,1","999,N,-0170,1","99999,9,10272,1","7,1,001,1,+999,9","SYN100AAXX  29181 02458 37582 /3102 11174 21195 30272 40301 57001 70087 333 11089 21170 81/25 84/33 85/45;",
"02458099999","2010-11-29T21:00:00","4","59.897328","17.588581","20.72","UPPSALA, SW","FM-12","ESCM ","V020","320,1,N,0010,1","99999,9,9,N","035000,1,N,1","-0151,1","-0168,1","10298,1",,,"85,1","8,1,03,1","03,1,+00840,1,99,9",,,,"99999,9,10270,1","8,1,002,1,+999,9","SYN082AAXX  29211 02458 47581 /3201 11151 21168 30270 40298 58002 78587 333 83/28 85/35;",
"02458099999","2010-11-30T00:00:00","4","59.897328","17.588581","20.72","UPPSALA, SW","FM-12","ESCM ","V020","320,1,N,0010,1","99999,9,9,N","001700,1,N,1","-0150,1","-0166,1","10299,1",,,"24,1","8,1,06,1",,,,,"99999,9,10271,1","4,1,000,1,+999,9","SYN066AAXX  30001 02458 47917 /3201 11150 21166 30271 40299 54001 72487;",
"02458099999","2010-11-30T03:00:00","4","59.897328","17.588581","20.72","UPPSALA, SW","FM-12","ESCM ","V020","310,1,N,0010,1","99999,9,9,N","000700,1,N,1","-0166,1","-0184,1","10297,1",,,"33,1","8,1,03,1",,,,,"99999,9,10269,1","7,1,002,1,+999,9","SYN066AAXX  30031 02458 47907 /3101 11166 21184 30269 40297 57002 73387;",
"02458099999","2010-11-30T06:00:00","4","59.897328","17.588581","20.72","UPPSALA, SW","FM-12","ESCM ","V020","310,1,N,0020,1","22000,1,C,N","009000,1,N,1","-0120,1","-0134,1","10293,1","12,0005,9,1","24,0005,9,1","85,1","8,1,06,1","01,1,+00300,1,99,9","04,1,+00720,1,99,9","120,M,-0116,1","999,N,-0183,1","99999,9,10265,1","5,1,004,1,+999,9","SYN118AAXX  30061 02458 07459 /3102 11120 21134 30265 40293 55004 69942 78587 333 11116 21183 69915 70004 81/10 84/24 85/34;",
"02458099999","2010-11-30T09:00:00","4","59.897328","17.588581","20.72","UPPSALA, SW","FM-12","ESCM ","V020","290,1,N,0010,1","99999,9,9,N","008000,1,N,1","-0129,1","-0144,1","10297,1",,,"71,1","8,1,03,1","04,1,+00870,1,99,9",,,,"99999,9,10269,1","2,1,004,1,+999,9","SYN082AAXX  30091 02458 47558 /2901 11129 21144 30269 40297 52004 77187 333 84/29 85/57;",
"02458099999","2010-11-30T12:00:00","4","59.897328","17.588581","20.72","UPPSALA, SW","FM-12","ESCM ","V020","320,1,N,0020,1","99999,9,9,N","016000,1,N,1","-0103,1","-0116,1","10298,1",,,"85,1","8,1,06,1","03,1,+00840,1,99,9",,,,"99999,9,10270,1","2,1,001,1,+999,9","SYN076AAXX  30121 02458 47566 /3202 11103 21116 30270 40298 52001 78587 333 83/28;",
"02458099999","2010-11-30T15:00:00","4","59.897328","17.588581","20.72","UPPSALA, SW","FM-12","ESCM ","V020","290,1,N,0010,1","01800,1,C,N","050000,1,N,1","-0109,1","-0122,1","10291,1",,,"24,1","8,1,03,1","08,1,+01800,1,99,9",,,,"99999,9,10263,1","6,1,007,1,+999,9","SYN076AAXX  30151 02458 47884 /2901 11109 21122 30263 40291 56007 72487 333 88/56;",
"02458099999","2010-11-30T18:00:00","4","59.897328","17.588581","20.72","UPPSALA, SW","FM-12","ESCM ","V020","290,1,N,0010,1","99999,9,9,N","003400,1,N,1","-0156,1","-0174,1","10288,1","12,0010,9,1",,"10,1","8,1,06,1",,,"120,M,-0082,1","999,N,-0155,1","99999,9,10260,1","7,1,003,1,+999,9","SYN088AAXX  30181 02458 17934 /2901 11156 21174 30260 40288 57003 60012 71087 333 11082 21155;",
"02458099999","2010-11-30T21:00:00","4","59.897328","17.588581","20.72","UPPSALA, SW","FM-12","ESCM ","V020","310,1,N,0010,1","99999,9,9,N","000600,1,N,1","-0238,1","-0265,1","10290,1",,,"33,1","4,1,03,1",,,,,"99999,9,10261,1","2,1,001,1,+999,9","SYN066AAXX  30211 02458 47906 /3101 11238 21265 30261 40290 52001 73332;",
"02458099999","2010-12-01T00:00:00","4","59.897328","17.588581","20.72","UPPSALA, SW","FM-12","ESCM ","V020","999,9,C,0000,1","99999,9,9,N","050000,1,N,1","-0245,1","-0272,1","10283,1",,,"00,1","4,1,06,1",,,,,"99999,9,10254,1","7,1,007,1,+999,9","SYN066AAXX  01001 02458 47984 /0000 11245 21272 30254 40283 57007 70032;",
"02458099999","2010-12-01T03:00:00","4","59.897328","17.588581","20.72","UPPSALA, SW","FM-12","ESCM ","V020","999,9,C,0000,1","00150,1,C,N","040000,1,N,1","-0252,1","-0282,1","10279,1",,,,,"08,1,+00150,1,99,9",,,,"99999,9,10249,1","7,1,004,1,+999,9","SYN070AAXX  01031 02458 45282 /0000 11252 21282 30249 40279 57004 333 88/05;",
"02458099999","2010-12-01T06:00:00","4","59.897328","17.588581","20.72","UPPSALA, SW","FM-12","ESCM ","V020","999,9,C,0000,1","99999,9,9,N","050000,1,N,1","-0258,1","-0289,1","10271,1","24,0013,9,1",,"00,1","8,1,06,1",,,"120,M,-0146,1","999,N,-0264,1","99999,9,10242,1","7,1,007,1,+999,9","SYN088AAXX  01061 02458 37984 /0000 11258 21289 30242 40271 57007 70087 333 11146 21264 70012;",
"02458099999","2010-12-01T09:00:00","4","59.897328","17.588581","20.72","UPPSALA, SW","FM-12","ESCM ","V020","150,1,N,0010,1","99999,9,9,N","008000,1,N,1","-0228,1","-0255,1","10275,1",,,,,,,,,"99999,9,10246,1","0,1,004,1,+999,9","SYN060AAXX  01091 02458 45958 /1501 11228 21255 30246 40275 50004;",
"02458099999","2010-12-01T12:00:00","4","59.897328","17.588581","20.72","UPPSALA, SW","FM-12","ESCM ","V020","999,9,C,0000,1","99999,9,9,N","021000,1,N,1","-0183,1","-0207,1","10275,1",,,,,,,,,"99999,9,10246,1","0,1,000,1,+999,9","SYN060AAXX  01121 02458 45971 /0000 11183 21207 30246 40275 50000;",
"02458099999","2010-12-01T15:00:00","4","59.897328","17.588581","20.72","UPPSALA, SW","FM-12","ESCM ","V020","999,9,C,0000,1","99999,9,9,N","030000,1,N,1","-0226,1","-0254,1","10272,1",,,"85,1","8,1,03,1",,,,,"99999,9,10243,1","7,1,003,1,+999,9","SYN066AAXX  01151 02458 47980 /0000 11226 21254 30243 40272 57003 78587;",
"02458099999","2010-12-01T18:00:00","4","59.897328","17.588581","20.72","UPPSALA, SW","FM-12","ESCM ","V020","999,9,C,0000,1","00060,1,C,N","006000,1,N,1","-0171,1","-0191,1","10275,1",,,"77,1","8,1,06,1","09,1,+00060,1,99,9",,"120,M,-0158,1","999,N,-0262,1","99999,9,10247,1","0,1,004,1,+999,9","SYN088AAXX  01181 02458 37/56 /0000 11171 21191 30247 40275 50004 77787 333 11158 21262 89/02;",
"02458099999","2010-12-01T21:00:00","4","59.897328","17.588581","20.72","UPPSALA, SW","FM-12","ESCM ","V020","999,9,C,0000,1","00060,1,C,N","000200,1,N,1","-0157,1","-0176,1","10283,1",,,"85,1","8,1,03,1","09,1,+00060,1,99,9",,,,"99999,9,10255,1","1,1,008,1,+999,9","SYN076AAXX  01211 02458 47/02 /0000 11157 21176 30255 40283 51008 78587 333 89/02;",
"02458099999","2010-12-02T00:00:00","4","59.897328","17.588581","20.72","UPPSALA, SW","FM-12","ESCM ","V020","999,9,C,0000,1","00090,1,C,N","000500,1,N,1","-0142,1","-0159,1","10269,1",,,"85,1","8,1,06,1","09,1,+00090,1,99,9",,,,"99999,9,10242,1","8,1,014,1,+999,9","SYN076AAXX  02001 02458 47/05 /0000 11142 21159 30242 40269 58014 78587 333 89/03;",
"02458099999","2010-12-02T03:00:00","4","59.897328","17.588581","20.72","UPPSALA, SW","FM-12","ESCM ","V020","999,9,C,0000,1","00030,1,C,N","000200,1,N,1","-0126,1","-0140,1","10264,1",,,"71,1","8,1,03,1","09,1,+00030,1,99,9",,,,"99999,9,10236,1","7,1,006,1,+999,9","SYN076AAXX  02031 02458 47/02 /0000 11126 21140 30236 40264 57006 77187 333 89/01;",
"02458099999","2010-12-02T06:00:00","4","59.897328","17.588581","20.72","UPPSALA, SW","FM-12","ESCM ","V020","999,9,C,0000,1","00030,1,C,N","000300,1,N,1","-0143,1","-0159,1","10255,1","12,0000,2,1","24,0003,9,1","71,1","8,1,06,1","09,1,+00030,1,99,9",,"120,M,-0123,1","999,N,-0171,1","99999,9,10227,1","7,1,009,1,+999,9","SYN100AAXX  02061 02458 17/03 /0000 11143 21159 30227 40255 57009 69922 77187 333 11123 21171 70002 89/01;",
"02458099999","2010-12-02T09:00:00","4","59.897328","17.588581","20.72","UPPSALA, SW","FM-12","ESCM ","V020","999,9,C,0000,1","00060,1,C,N","000400,1,N,1","-0131,1","-0147,1","10244,1",,,"85,1","8,1,03,1","09,1,+00060,1,99,9",,,,"99999,9,10216,1","8,1,010,1,+999,9","SYN076AAXX  02091 02458 47/04 /0000 11131 21147 30216 40244 58010 78587 333 89/02;",
"02458099999","2010-12-02T12:00:00","4","59.897328","17.588581","20.72","UPPSALA, SW","FM-12","ESCM ","V020","999,9,C,0000,1","00120,1,C,N","001400,1,N,1","-0119,1","-0132,1","10224,1",,,"71,1","8,1,06,1","09,1,+00120,1,99,9",,,,"99999,9,10196,1","8,1,020,1,+999,9","SYN076AAXX  02120 02458 47/14 /0000 11119 21132 30196 40224 58020 77187 333 89/04;",
"02458099999","2010-12-02T15:00:00","4","59.897328","17.588581","20.72","UPPSALA, SW","FM-12","ESCM ","V020","999,9,C,0000,1","00030,1,C,N","999999,9,N,1","-0123,1","-0137,1","10193,1",,,,,"09,1,+00030,1,99,9",,,,"99999,9,10166,1","8,1,031,1,+999,9","SYN076AAXX  02151 02458 46/// /0000 11123 21137 30166 40193 58031 7//73 333 89/01;",
"02458099999","2010-12-02T18:00:00","4","59.897328","17.588581","20.72","UPPSALA, SW","FM-12","ESCM ","V020","340,1,N,0010,1","00810,1,C,N","999999,9,N,1","-0103,1","-0115,1","10165,1",,,,,"08,1,+00810,1,99,9",,"120,M,-0104,1","999,N,-0147,1","99999,9,10138,1","8,1,028,1,+999,9","SYN088AAXX  02181 02458 465// /3401 11103 21115 30138 40165 58028 7//73 333 11104 21147 88/27;",
"02458099999","2010-12-02T21:00:00","4","59.897328","17.588581","20.72","UPPSALA, SW","FM-12","ESCM ","V020","330,1,N,0010,1","22000,1,C,N","999999,9,N,1","-0078,1","-0087,1","10136,1",,,,,"01,1,+00270,1,99,9","04,1,+00810,1,99,9",,,"99999,9,10109,1","8,1,029,1,+999,9","SYN082AAXX  02211 02458 463// /3301 11078 21087 30109 40136 58029 333 81/09 84/27 88/40;",
"02458099999","2010-12-03T00:00:00","4","59.897328","17.588581","20.72","UPPSALA, SW","FM-12","ESCM ","V020","320,1,N,0010,1","99999,9,9,N","999999,9,N,1","-0105,1","-0116,1","10107,1",,,,,,,,,"99999,9,10080,1","7,1,029,1,+999,9","SYN060AAXX  03001 02458 469// /3201 11105 21116 30080 40107 57029;",
"02458099999","2010-12-03T03:00:00","4","59.897328","17.588581","20.72","UPPSALA, SW","FM-12","ESCM ","V020","050,1,N,0020,1","00390,1,C,N","999999,9,N,1","-0059,1","-0066,1","10078,1",,,,,"09,1,+00390,1,99,9",,,,"99999,9,10052,1","7,1,028,1,+999,9","SYN070AAXX  03031 02458 46/// /0502 11059 21066 30052 40078 57028 333 89/13;",
"02458099999","2010-12-03T06:00:00","4","59.897328","17.588581","20.72","UPPSALA, SW","FM-12","ESCM ","V020","030,1,N,0010,1","00540,1,C,N","002200,1,N,1","-0057,1","-0063,1","10059,1","01,0000,2,1","24,0013,9,1","71,1","7,1,06,1","09,1,+00540,1,99,9",,"120,M,-0057,1","999,N,-0109,1","99999,9,10032,1","7,1,019,1,+999,9","SYN100AAXX  03061 02458 27/22 /0301 11057 21063 30032 40059 57019 77177 333 11057 21109 69915 70013 89/18;",
"02458099999","2010-12-03T09:00:00","4","59.897328","17.588581","20.72","UPPSALA, SW","FM-12","ESCM ","V020","060,1,N,0020,1","99999,9,9,N","012000,1,N,1","-0061,1","-0068,1","10053,1",,,"24,1","7,1,03,1","01,1,+01410,1,99,9",,,,"99999,9,10027,1","7,1,006,1,+999,9","SYN082AAXX  03091 02458 47662 /0602 11061 21068 30027 40053 57006 72472 333 81/47 88/56;",
"02458099999","2010-12-03T12:00:00","4","59.897328","17.588581","20.72","UPPSALA, SW","FM-12","ESCM ","V020","020,1,N,0020,1","01080,1,C,N","011000,1,N,1","-0057,1","-0063,1","10036,1",,,"00,1","8,1,06,1","09,1,+01080,1,99,9",,,,"99999,9,10010,1","8,1,017,1,+999,9","SYN076AAXX  03120 02458 47/61 /0202 11057 21063 30010 40036 58017 70087 333 89/36;",
"02458099999","2010-12-03T15:00:00","4","59.897328","17.588581","20.72","UPPSALA, SW","FM-12","ESCM ","V020","360,1,N,0010,1","99999,9,9,N","011000,1,N,1","-0067,1","-0074,1","10027,1",,,"00,1","7,1,03,1","02,1,+00300,1,99,9",,,,"99999,9,10000,1","5,1,009,1,+999,9","SYN082AAXX  03151 02458 47461 /3601 11067 21074 30000 40027 55009 70072 333 82/10 83/57;",
"02458099999","2010-12-03T18:00:00","4","59.897328","17.588581","20.72","UPPSALA, SW","FM-12","ESCM ","V020","999,9,C,0000,1","00120,1,C,N","999999,9,N,1","-0072,1","-0080,1","10021,1",,,,,"09,1,+00120,1,99,9",,"120,M,-0052,1","999,N,-0080,1","99999,9,09995,1","6,1,006,1,+999,9","SYN088AAXX  03181 02458 46/// /0000 11072 21080 39995 40021 56006 7//72 333 11052 21080 89/04;",
"02458099999","2010-12-03T21:00:00","4","59.897328","17.588581","20.72","UPPSALA, SW","FM-12","ESCM ","V020","290,1,N,0010,1","00060,1,C,N","999999,9,N,1","-0061,1","-0068,1","10017,1",,,,,"09,1,+00060,1,99,9",,,,"99999,9,09991,1","8,1,004,1,+999,9","SYN070AAXX  03211 02458 46/// /2901 11061 21068 39991 40017 58004 333 89/02;",
"02458099999","2010-12-04T00:00:00","4","59.897328","17.588581","20.72","UPPSALA, SW","FM-12","ESCM ","V020","260,1,N,0010,1","00150,1,C,N","999999,9,N,1","-0064,1","-0071,1","10007,1",,,,,"09,1,+00150,1,99,9",,,,"99999,9,09981,1","8,1,010,1,+999,9","SYN070AAXX  04001 02458 46/// /2601 11064 21071 39981 40007 58010 333 89/05;",
"02458099999","2010-12-04T03:00:00","4","59.897328","17.588581","20.72","UPPSALA, SW","FM-12","ESCM ","V020","250,1,N,0020,1","00210,1,C,N","999999,9,N,1","-0069,1","-0077,1","10000,1",,,,,"08,1,+00210,1,99,9",,,,"99999,9,09974,1","8,1,007,1,+999,9","SYN070AAXX  04031 02458 463// /2502 11069 21077 39974 40000 58007 333 88/07;",
"02458099999","2010-12-04T06:00:00","4","59.897328","17.588581","20.72","UPPSALA, SW","FM-12","ESCM ","V020","240,1,N,0020,1","99999,9,9,N","999999,9,N,1","-0069,1","-0076,1","10003,1",,,,,"01,1,+00150,1,99,9",,"120,M,-0061,1","999,N,-0078,1","99999,9,09977,1","2,1,003,1,+999,9","SYN088AAXX  04061 02458 462// /2402 11069 21076 39977 40003 52003 333 11061 21078 81/05 83/15;",
"02458099999","2010-12-04T09:00:00","4","59.897328","17.588581","20.72","UPPSALA, SW","FM-12","ESCM ","V020","260,1,N,0030,1","99999,9,9,N","999999,9,N,1","-0083,1","-0092,1","10018,1",,,,,"01,1,+01200,1,99,9",,,,"99999,9,09991,1","3,1,015,1,+999,9","SYN076AAXX  04091 02458 466// /2603 11083 21092 39991 40018 53015 333 81/40 83/59;",
"02458099999","2010-12-04T12:00:00","4","59.897328","17.588581","20.72","UPPSALA, SW","FM-12","ESCM ","V020","250,1,N,0030,1","99999,9,9,N","016000,1,N,1","-0088,1","-0097,1","10029,1",,,,,,,,,"99999,9,10003,1","3,1,012,1,+999,9","SYN060AAXX  04121 02458 45966 /2503 11088 21097 30003 40029 53012;",
"02458099999","2010-12-04T15:00:00","4","59.897328","17.588581","20.72","UPPSALA, SW","FM-12","ESCM ","V020","250,1,N,0010,1","99999,9,9,N","019000,1,N,1","-0114,1","-0126,1","10048,1",,,,,,,,,"99999,9,10021,1","3,1,018,1,+999,9","SYN060AAXX  04151 02458 45969 /2501 11114 21126 30021 40048 53018;",
"02458099999","2010-12-04T21:00:00","4","59.897328","17.588581","20.72","UPPSALA, SW","FM-12","ESCM ","V020","210,1,N,0020,1","00300,1,C,N","013000,1,N,1","-0085,1","-0094,1","10056,1",,,"71,1","8,1,03,1","07,1,+00300,1,99,9",,,,"99999,9,10029,1","8,1,002,1,+999,9","SYN082AAXX  04211 02458 47463 /2102 11085 21094 30029 40056 58002 77187 333 87/10 88/12;",
"02458099999","2010-12-05T00:00:00","4","59.897328","17.588581","20.72","UPPSALA, SW","FM-12","ESCM ","V020","190,1,N,0010,1","00240,1,C,N","014000,1,N,1","-0064,1","-0071,1","10048,1",,,"77,1","8,1,06,1","08,1,+00240,1,99,9",,,,"99999,9,10022,1","8,1,008,1,+999,9","SYN076AAXX  05001 02458 47364 /1901 11064 21071 30022 40048 58008 77787 333 88/08;",
"02458099999","2010-12-05T03:00:00","4","59.897328","17.588581","20.72","UPPSALA, SW","FM-12","ESCM ","V020","200,1,N,0040,1","00690,1,C,N","008000,1,N,1","-0024,1","-0028,1","10043,1",,,"10,1","7,1,03,1","08,1,+00690,1,99,9",,,,"99999,9,10017,1","7,1,005,1,+999,9","SYN076AAXX  05031 02458 47558 /2004 11024 21028 30017 40043 57005 71072 333 88/23;",
"02458099999","2010-12-05T06:00:00","4","59.897328","17.588581","20.72","UPPSALA, SW","FM-12","ESCM ","V020","180,1,N,0040,1","99999,9,9,N","008000,1,N,1","-0038,1","-0047,1","10035,1","12,0000,2,1",,"10,1","8,1,06,1","03,1,+00330,1,99,9",,"120,M,-0023,1","999,N,-0148,1","99999,9,10008,1","7,1,008,1,+999,9","SYN100AAXX  05061 02458 17458 /1804 11038 21047 30008 40035 57008 69912 71087 333 11023 21148 83/11 86/26;",
"02458099999","2010-12-05T09:00:00","4","59.897328","17.588581","20.72","UPPSALA, SW","FM-12","ESCM ","V020","180,1,N,0040,1","99999,9,9,N","007000,1,N,1","-0029,1","-0040,1","10022,1",,,"85,1","8,1,03,1","02,1,+00420,1,99,9",,,,"99999,9,09996,1","7,1,012,1,+999,9","SYN082AAXX  05091 02458 47457 /1804 11029 21040 39996 40022 57012 78587 333 82/14 85/50;",
"02458099999","2010-12-05T12:00:00","4","59.897328","17.588581","20.72","UPPSALA, SW","FM-12","ESCM ","V020","180,1,N,0040,1","99999,9,9,N","012000,1,N,1","-0022,1","-0037,1","09999,1",,,"00,1","8,1,06,1","01,1,+00450,1,99,9",,,,"99999,9,09973,1","8,1,024,1,+999,9","SYN082AAXX  05121 02458 47462 /1804 11022 21037 39973 49999 58024 70087 333 81/15 88/50;",
"02458099999","2010-12-05T15:00:00","4","59.897328","17.588581","20.72","UPPSALA, SW","FM-12","ESCM ","V020","130,1,N,0020,1","00300,1,C,N","010000,1,N,1","-0021,1","-0031,1","09981,1",,,"24,1","8,1,03,1","08,1,+00300,1,99,9",,,,"99999,9,09955,1","7,1,018,1,+999,9","SYN076AAXX  05151 02458 47460 /1302 11021 21031 39955 49981 57018 72487 333 88/10;",
"02458099999","2010-12-05T18:00:00","4","59.897328","17.588581","20.72","UPPSALA, SW","FM-12","ESCM ","V020","100,1,N,0020,1","00210,1,C,N","001500,1,N,1","-0014,1","-0018,1","09961,1","12,0000,2,1",,"71,1","8,1,06,1","09,1,+00210,1,99,9",,"120,M,-0013,1","999,N,-0039,1","99999,9,09935,1","8,1,020,1,+999,9","SYN100AAXX  05181 02458 07/15 /1002 11014 21018 39935 49961 58020 69912 77187 333 11013 21039 69915 89/07;",
"02458099999","2010-12-05T21:00:00","4","59.897328","17.588581","20.72","UPPSALA, SW","FM-12","ESCM ","V020","060,1,N,0020,1","99999,9,9,N","001500,1,N,1","-0012,1","-0015,1","09941,1",,,"71,1","7,1,03,1","02,1,+00210,1,99,9",,,,"99999,9,09915,1","7,1,020,1,+999,9","SYN076AAXX  05211 02458 47315 /0602 11012 21015 39915 49941 57020 77177 333 82/07;",
"02458099999","2010-12-06T00:00:00","4","59.897328","17.588581","20.72","UPPSALA, SW","FM-12","ESCM ","V020","040,1,N,0020,1","22000,1,C,N","009000,1,N,1","-0026,1","-0029,1","09920,1",,,"71,1","7,1,06,1","01,1,+00180,1,99,9","04,1,+00900,1,99,9",,,"99999,9,09894,1","7,1,021,1,+999,9","SYN088AAXX  06001 02458 47359 /0402 11026 21029 39894 49920 57021 77177 333 81/06 84/30 85/41;",
"02458099999","2010-12-06T03:00:00","4","59.897328","17.588581","20.72","UPPSALA, SW","FM-12","ESCM ","V020","340,1,N,0020,1","00180,1,C,N","008000,1,N,1","-0023,1","-0027,1","09907,1",,,"71,1","7,1,03,1","09,1,+00180,1,99,9",,,,"99999,9,09881,1","7,1,013,1,+999,9","SYN076AAXX  06031 02458 47/58 /3402 11023 21027 39881 49907 57013 77174 333 89/06;",
"02458099999","2010-12-06T06:00:00","4","59.897328","17.588581","20.72","UPPSALA, SW","FM-12","ESCM ","V020","330,1,N,0040,1","00180,1,C,N","007000,1,N,1","-0015,1","-0018,1","09904,1","12,0010,9,1","24,0015,9,1","71,1","7,1,06,1","07,1,+00180,1,99,9",,"120,M,-0010,1","999,N,-0032,1","99999,9,09879,1","7,1,003,1,+999,9","SYN112AAXX  06061 02458 07357 /3304 11015 21018 39879 49904 57003 60012 77174 333 11010 21032 69915 70014 87/06 88/50;",
"02458099999","2010-12-06T09:00:00","4","59.897328","17.588581","20.72","UPPSALA, SW","FM-12","ESCM ","V020","310,1,N,0040,1","00660,1,C,N","007000,1,N,1","-0019,1","-0023,1","09910,1",,,"71,1","7,1,03,1","05,1,+00660,1,99,9",,,,"99999,9,09885,1","3,1,006,1,+999,9","SYN082AAXX  06091 02458 47557 /3104 11019 21023 39885 49910 53006 77177 333 85/22 87/30;",
"02458099999","2010-12-06T12:00:00","4","59.897328","17.588581","20.72","UPPSALA, SW","FM-12","ESCM ","V020","310,1,N,0040,1","01230,1,C,N","011000,1,N,1","-0031,1","-0037,1","09924,1",,,"71,1","7,1,06,1","04,1,+00810,1,99,9","05,1,+01230,1,99,9",,,"99999,9,09898,1","2,1,013,1,+999,9","SYN088AAXX  06121 02458 47561 /3104 11031 21037 39898 49924 52013 77177 333 84/27 85/41 88/50;",
"02458099999","2010-12-06T15:00:00","4","59.897328","17.588581","20.72","UPPSALA, SW","FM-12","ESCM ","V020","320,1,N,0020,1","00150,1,C,N","008000,1,N,1","-0026,1","-0031,1","09939,1",,,"10,1","7,1,03,1","08,1,+00150,1,99,9",,,,"99999,9,09913,1","2,1,015,1,+999,9","SYN076AAXX  06151 02458 47258 /3202 11026 21031 39913 49939 52015 71072 333 88/05;",
"02458099999","2010-12-06T18:00:00","4","59.897328","17.588581","20.72","UPPSALA, SW","FM-12","ESCM ","V020","240,1,N,0010,1","00180,1,C,N","011000,1,N,1","-0024,1","-0029,1","09956,1","12,0003,9,1",,"00,1","7,1,06,1","08,1,+00180,1,99,9",,"120,M,-0015,1","999,N,-0039,1","99999,9,09930,1","2,1,017,1,+999,9","SYN094AAXX  06181 02458 17261 /2401 11024 21029 39930 49956 52017 69932 70072 333 11015 21039 88/06;",
"02458099999","2010-12-06T21:00:00","4","59.897328","17.588581","20.72","UPPSALA, SW","FM-12","ESCM ","V020","180,1,N,0020,1","99999,9,9,N","006000,1,N,1","-0034,1","-0040,1","09965,1",,,"24,1","8,1,03,1","04,1,+01020,1,99,9",,,,"99999,9,09939,1","3,1,009,1,+999,9","SYN082AAXX  06211 02458 47656 /1802 11034 21040 39939 49965 53009 72487 333 84/34 88/42;",
"02458099999","2010-12-07T00:00:00","4","59.897328","17.588581","20.72","UPPSALA, SW","FM-12","ESCM ","V020","230,1,N,0050,1","00300,1,C,N","030000,1,N,1","-0041,1","-0057,1","09971,1",,,"00,1","8,1,06,1","08,1,+00300,1,99,9",,,,"99999,9,09945,1","2,1,006,1,+999,9","SYN076AAXX  07001 02458 47480 /2305 11041 21057 39945 49971 52006 70087 333 88/10;",
"02458099999","2010-12-07T03:00:00","4","59.897328","17.588581","20.72","UPPSALA, SW","FM-12","ESCM ","V020","220,1,N,0030,1","00270,1,C,N","029000,1,N,1","-0050,1","-0063,1","09978,1",,,,,"08,1,+00270,1,99,9",,,,"99999,9,09952,1","2,1,007,1,+999,9","SYN070AAXX  07031 02458 45379 /2203 11050 21063 39952 49978 52007 333 88/09;",
"02458099999","2010-12-07T06:00:00","4","59.897328","17.588581","20.72","UPPSALA, SW","FM-12","ESCM ","V020","210,1,N,0030,1","00210,1,C,N","018000,1,N,1","-0072,1","-0082,1","09985,1","24,0003,9,1",,"00,1","8,1,06,1","08,1,+00210,1,99,9",,"120,M,-0024,1","999,N,-0081,1","99999,9,09959,1","2,1,007,1,+999,9","SYN094AAXX  07061 02458 37368 /2103 11072 21082 39959 49985 52007 70087 333 11024 21081 70003 88/07;",
"02458099999","2010-12-07T09:00:00","4","59.897328","17.588581","20.72","UPPSALA, SW","FM-12","ESCM ","V020","220,1,N,0020,1","99999,9,9,N","009000,1,N,1","-0101,1","-0110,1","10000,1",,,"20,1","8,1,03,1","04,1,+00120,1,99,9",,,,"99999,9,09974,1","3,1,015,1,+999,9","SYN076AAXX  07091 02458 47259 /2202 11101 21110 39974 40000 53015 72087 333 84/04;",
"02458099999","2010-12-07T12:00:00","4","59.897328","17.588581","20.72","UPPSALA, SW","FM-12","ESCM ","V020","230,1,N,0010,1","00150,1,C,N","007000,1,N,1","-0108,1","-0119,1","09999,1",,,"10,1","8,1,06,1","09,1,+00150,1,99,9",,,,"99999,9,09973,1","8,1,001,1,+999,9","SYN076AAXX  07121 02458 47/57 /2301 11108 21119 39973 49999 58001 71087 333 89/05;",
"02458099999","2010-12-07T15:00:00","4","59.897328","17.588581","20.72","UPPSALA, SW","FM-12","ESCM ","V020","220,1,N,0020,1","00120,1,C,N","016000,1,N,1","-0111,1","-0122,1","10013,1",,,,,"09,1,+00120,1,99,9",,,,"99999,9,09986,1","3,1,014,1,+999,9","SYN070AAXX  07151 02458 45/66 /2202 11111 21122 39986 40013 53014 333 89/04;",
"02458099999","2010-12-07T18:00:00","4","59.897328","17.588581","20.72","UPPSALA, SW","FM-12","ESCM ","V020","190,1,N,0010,1","99999,9,9,N","035000,1,N,1","-0159,1","-0178,1","10025,1",,,,,,,"120,M,-0072,1","999,N,-0154,1","99999,9,09998,1","3,1,012,1,+999,9","SYN076AAXX  07181 02458 35981 /1901 11159 21178 39998 40025 53012 333 11072 21154;",
"02458099999","2010-12-07T21:00:00","4","59.897328","17.588581","20.72","UPPSALA, SW","FM-12","ESCM ","V020","240,1,N,0010,1","99999,9,9,N","040000,1,N,1","-0135,1","-0151,1","10039,1",,,,,,,,,"99999,9,10012,1","2,1,014,1,+999,9","SYN060AAXX  07211 02458 45982 /2401 11135 21151 30012 40039 52014;",
"02458099999","2010-12-08T00:00:00","4","59.897328","17.588581","20.72","UPPSALA, SW","FM-12","ESCM ","V020","200,1,N,0020,1","99999,9,9,N","050000,1,N,1","-0147,1","-0163,1","10051,1",,,,,,,,,"99999,9,10023,1","1,1,011,1,+999,9","SYN060AAXX  08001 02458 45984 /2002 11147 21163 30023 40051 51011;",
"02458099999","2010-12-08T03:00:00","4","59.897328","17.588581","20.72","UPPSALA, SW","FM-12","ESCM ","V020","210,1,N,0010,1","99999,9,9,N","050000,1,N,1","-0135,1","-0149,1","10058,1",,,,,,,,,"99999,9,10031,1","2,1,008,1,+999,9","SYN060AAXX  08031 02458 45984 /2101 11135 21149 30031 40058 52008;",
"02458099999","2010-12-08T06:00:00","4","59.897328","17.588581","20.72","UPPSALA, SW","FM-12","ESCM ","V020","999,9,C,0000,1","99999,9,9,N","040000,1,N,1","-0144,1","-0157,1","10068,1",,,"85,1","8,1,06,1",,,"120,M,-0123,1","999,N,-0182,1","99999,9,10041,1","2,1,010,1,+999,9","SYN082AAXX  08061 02458 37982 /0000 11144 21157 30041 40068 52010 78587 333 11123 21182;",
"02458099999","2010-12-08T09:00:00","4","59.897328","17.588581","20.72","UPPSALA, SW","FM-12","ESCM ","V020","240,1,N,0020,1","99999,9,9,N","045000,1,N,1","-0123,1","-0138,1","10079,1",,,,,,,,,"99999,9,10052,1","2,1,010,1,+999,9","SYN060AAXX  08091 02458 45983 /2402 11123 21138 30052 40079 52010;",
"02458099999","2010-12-08T12:00:00","4","59.897328","17.588581","20.72","UPPSALA, SW","FM-12","ESCM ","V020","220,1,N,0020,1","99999,9,9,N","026000,1,N,1","-0107,1","-0120,1","10080,1",,,,,,,,,"99999,9,10053,1","2,1,001,1,+999,9","SYN060AAXX  08121 02458 45976 /2202 11107 21120 30053 40080 52001;",
"02458099999","2010-12-08T15:00:00","4","59.897328","17.588581","20.72","UPPSALA, SW","FM-12","ESCM ","V020","200,1,N,0020,1","00150,1,C,N","011000,1,N,1","-0073,1","-0081,1","10076,1",,,"00,1","8,1,03,1","09,1,+00150,1,99,9",,,,"99999,9,10049,1","8,1,004,1,+999,9","SYN076AAXX  08151 02458 47/61 /2002 11073 21081 30049 40076 58004 70087 333 89/05;",
"02458099999","2010-12-08T18:00:00","4","59.897328","17.588581","20.72","UPPSALA, SW","FM-12","ESCM ","V020","170,1,N,0020,1","00120,1,C,N","006000,1,N,1","-0063,1","-0069,1","10067,1",,,"10,1","8,1,06,1","09,1,+00120,1,99,9",,"120,M,-0062,1","999,N,-0144,1","99999,9,10041,1","8,1,008,1,+999,9","SYN088AAXX  08181 02458 37/56 /1702 11063 21069 30041 40067 58008 71087 333 11062 21144 89/04;",
"02458099999","2010-12-08T21:00:00","4","59.897328","17.588581","20.72","UPPSALA, SW","FM-12","ESCM ","V020","150,1,N,0020,1","00150,1,C,N","007000,1,N,1","-0067,1","-0074,1","10060,1",,,"24,1","8,1,03,1","09,1,+00150,1,99,9",,,,"99999,9,10034,1","8,1,007,1,+999,9","SYN076AAXX  08211 02458 47/57 /1502 11067 21074 30034 40060 58007 72487 333 89/05;",
"02458099999","2010-12-09T00:00:00","4","59.897328","17.588581","20.72","UPPSALA, SW","FM-12","ESCM ","V020","170,1,N,0020,1","00150,1,C,N","010000,1,N,1","-0058,1","-0063,1","10044,1",,,"71,1","8,1,06,1","08,1,+00150,1,99,9",,,,"99999,9,10018,1","6,1,016,1,+999,9","SYN076AAXX  09001 02458 47260 /1702 11058 21063 30018 40044 56016 77187 333 88/05;",
"02458099999","2010-12-09T03:00:00","4","59.897328","17.588581","20.72","UPPSALA, SW","FM-12","ESCM ","V020","120,1,N,0010,1","00120,1,C,N","008000,1,N,1","-0062,1","-0068,1","10030,1",,,"10,1","8,1,03,1","09,1,+00120,1,99,9",,,,"99999,9,10003,1","7,1,015,1,+999,9","SYN076AAXX  09031 02458 47/58 /1201 11062 21068 30003 40030 57015 71087 333 89/04;",
"02458099999","2010-12-09T06:00:00","4","59.897328","17.588581","20.72","UPPSALA, SW","FM-12","ESCM ","V020","040,1,N,0010,1","00180,1,C,N","003400,1,N,1","-0064,1","-0070,1","10026,1","12,0000,2,1","24,0000,2,1","85,1","8,1,06,1","09,1,+00180,1,99,9",,"120,M,-0057,1","999,N,-0071,1","99999,9,10000,1","5,1,003,1,+999,9","SYN106AAXX  09061 02458 07/34 /0401 11064 21070 30000 40026 55003 69912 78587 333 11057 21071 69915 70001 89/06;",
"02458099999","2010-12-09T09:00:00","4","59.897328","17.588581","20.72","UPPSALA, SW","FM-12","ESCM ","V020","350,1,N,0020,1","00150,1,C,N","005000,1,N,1","-0056,1","-0061,1","10033,1",,,"85,1","8,1,03,1","09,1,+00150,1,99,9",,,,"99999,9,10007,1","2,1,007,1,+999,9","SYN076AAXX  09091 02458 47/50 /3502 11056 21061 30007 40033 52007 78587 333 89/05;",
"02458099999","2010-12-09T12:00:00","4","59.897328","17.588581","20.72","UPPSALA, SW","FM-12","ESCM ","V020","330,1,N,0040,1","00180,1,C,N","014000,1,N,1","-0054,1","-0061,1","10044,1",,,"71,1","8,1,06,1","08,1,+00180,1,99,9",,,,"99999,9,10017,1","2,1,010,1,+999,9","SYN076AAXX  09121 02458 47264 /3304 11054 21061 30017 40044 52010 77187 333 88/06;",
"02458099999","2010-12-09T15:00:00","4","59.897328","17.588581","20.72","UPPSALA, SW","FM-12","ESCM ","V020","340,1,N,0060,1","00210,1,C,N","029000,1,N,1","-0075,1","-0084,1","10061,1",,,"24,1","8,1,03,1","08,1,+00210,1,99,9",,,,"99999,9,10034,1","3,1,017,1,+999,9","SYN076AAXX  09151 02458 47379 /3406 11075 21084 30034 40061 53017 72487 333 88/07;",
"02458099999","2010-12-09T18:00:00","4","59.897328","17.588581","20.72","UPPSALA, SW","FM-12","ESCM ","V020","330,1,N,0060,1","00780,1,C,N","003100,1,N,1","-0053,1","-0061,1","10074,1","12,0000,2,1",,"71,1","8,1,06,1","03,1,+00540,1,99,9","05,1,+00780,1,99,9","120,M,-0051,1","999,N,-0080,1","99999,9,10048,1","3,1,014,1,+999,9","SYN112AAXX  09181 02458 07431 /3306 11053 21061 30048 40074 53014 69912 77187 333 11051 21080 69915 83/18 85/26 87/31;",
"02458099999","2010-12-09T21:00:00","4","59.897328","17.588581","20.72","UPPSALA, SW","FM-12","ESCM ","V020","350,1,N,0080,1","99999,9,9,N","018000,1,N,1","-0024,1","-0041,1","10095,1",,,"85,1","8,1,03,1","01,1,+00270,1,99,9",,,,"99999,9,10069,1","3,1,021,1,+999,9","SYN082AAXX  09211 02458 47368 /3508 11024 21041 30069 40095 53021 78587 333 81/09 88/15;",
"02458099999","2010-12-10T00:00:00","4","59.897328","17.588581","20.72","UPPSALA, SW","FM-12","ESCM ","V020","340,1,N,0090,1","00270,1,C,N","014000,1,N,1","-0044,1","-0059,1","10117,1",,,"71,1","8,1,06,1","08,1,+00270,1,99,9",,,,"99999,9,10090,1","1,1,021,1,+999,9","SYN076AAXX  10001 02458 47364 /3409 11044 21059 30090 40117 51021 77187 333 88/09;",
"02458099999","2010-12-10T03:00:00","4","59.897328","17.588581","20.72","UPPSALA, SW","FM-12","ESCM ","V020","320,1,N,0060,1","00360,1,C,N","045000,1,N,1","-0067,1","-0086,1","10128,1",,,"00,1","8,1,03,1","08,1,+00360,1,99,9",,,,"99999,9,10101,1","1,1,011,1,+999,9","SYN076AAXX  10031 02458 47483 /3206 11067 21086 30101 40128 51011 70087 333 88/12;",
"02458099999","2010-12-10T06:00:00","4","59.897328","17.588581","20.72","UPPSALA, SW","FM-12","ESCM ","V020","320,1,N,0060,1","00570,1,C,N","050000,1,N,1","-0070,1","-0089,1","10133,1","12,0000,2,1","24,0003,9,1","00,1","8,1,06,1","08,1,+00570,1,99,9",,"120,M,-0023,1","999,N,-0072,1","99999,9,10106,1","3,1,005,1,+999,9","SYN100AAXX  10061 02458 17484 /3206 11070 21089 30106 40133 53005 69912 70087 333 11023 21072 70002 88/19;",
"02458099999","2010-12-10T09:00:00","4","59.897328","17.588581","20.72","UPPSALA, SW","FM-12","ESCM ","V020","290,1,N,0070,1","00330,1,C,N","050000,1,N,1","-0095,1","-0119,1","10138,1",,,,,"02,1,+00210,1,99,9","05,1,+00330,1,99,9",,,"99999,9,10111,1","0,1,005,1,+999,9","SYN082AAXX  10091 02458 45384 /2907 11095 21119 30111 40138 50005 333 82/07 85/11 88/15;",
"02458099999","2010-12-10T12:00:00","4","59.897328","17.588581","20.72","UPPSALA, SW","FM-12","ESCM ","V020","280,1,N,0010,1","99999,9,9,N","050000,1,N,1","-0107,1","-0136,1","10134,1",,,,,,,,,"99999,9,10107,1","8,1,004,1,+999,9","SYN060AAXX  10121 02458 45984 /2801 11107 21136 30107 40134 58004;",
"02458099999","2010-12-10T15:00:00","4","59.897328","17.588581","20.72","UPPSALA, SW","FM-12","ESCM ","V020","180,1,N,0010,1","99999,9,9,N","050000,1,N,1","-0141,1","-0154,1","10118,1",,,,,,,,,"99999,9,10090,1","8,1,017,1,+999,9","SYN060AAXX  10151 02458 45984 /1801 11141 21154 30090 40118 58017;",
"02458099999","2010-12-10T18:00:00","4","59.897328","17.588581","20.72","UPPSALA, SW","FM-12","ESCM ","V020","200,1,N,0010,1","99999,9,9,N","050000,1,N,1","-0128,1","-0142,1","10086,1",,,"24,1","8,1,06,1",,,"120,M,-0070,1","999,N,-0151,1","99999,9,10059,1","8,1,031,1,+999,9","SYN082AAXX  10180 02458 37984 /2001 11128 21142 30059 40086 58031 72487 333 11070 21151;",
"02458099999","2010-12-10T21:00:00","4","59.897328","17.588581","20.72","UPPSALA, SW","FM-12","ESCM ","V020","180,1,N,0020,1","99999,9,9,N","009000,1,N,1","-0117,1","-0130,1","10048,1",,,"85,1","8,1,03,1","03,1,+00120,1,99,9",,,,"99999,9,10021,1","8,1,038,1,+999,9","SYN082AAXX  10211 02458 47259 /1802 11117 21130 30021 40048 58038 78587 333 83/04 88/64;",
"02458099999","2010-12-11T00:00:00","4","59.897328","17.588581","20.72","UPPSALA, SW","FM-12","ESCM ","V020","180,1,N,0020,1","00090,1,C,N","003300,1,N,1","-0091,1","-0101,1","10007,1",,,"10,1","8,1,06,1","09,1,+00090,1,99,9",,,,"99999,9,09981,1","8,1,040,1,+999,9","SYN076AAXX  11001 02458 47/33 /1802 11091 21101 39981 40007 58040 71087 333 89/03;",
"02458099999","2010-12-11T03:00:00","4","59.897328","17.588581","20.72","UPPSALA, SW","FM-12","ESCM ","V020","140,1,N,0010,1","00150,1,C,N","020000,1,N,1","-0055,1","-0062,1","09963,1",,,"24,1","7,1,03,1","09,1,+00150,1,99,9",,,,"99999,9,09937,1","6,1,044,1,+999,9","SYN076AAXX  11031 02458 47/70 /1401 11055 21062 39937 49963 56044 72472 333 89/05;",
"02458099999","2010-12-11T06:00:00","4","59.897328","17.588581","20.72","UPPSALA, SW","FM-12","ESCM ","V020","999,9,C,0000,1","99999,9,9,N","005000,1,N,1","-0053,1","-0059,1","09937,1","12,0008,9,1","24,0008,9,1","71,1","7,1,06,1","02,1,+00240,1,99,9",,"120,M,-0046,1","999,N,-0137,1","99999,9,09911,1","6,1,025,1,+999,9","SYN112AAXX  11061 02458 07350 /0000 11053 21059 39911 49937 56025 69982 77172 333 11046 21137 69935 70008 82/08 85/34;",
"02458099999","2010-12-11T09:00:00","4","59.897328","17.588581","20.72","UPPSALA, SW","FM-12","ESCM ","V020","360,1,N,0010,1","00180,1,C,N","016000,1,N,1","-0056,1","-0062,1","09936,1",,,"24,1","8,1,03,1","09,1,+00180,1,99,9",,,,"99999,9,09910,1","5,1,001,1,+999,9","SYN076AAXX  11091 02458 47/66 /3601 11056 21062 39910 49936 55001 72487 333 89/06;",
"02458099999","2010-12-11T12:00:00","4","59.897328","17.588581","20.72","UPPSALA, SW","FM-12","ESCM ","V020","340,1,N,0040,1","99999,9,9,N","018000,1,N,1","-0069,1","-0078,1","09952,1",,,"00,1","8,1,06,1","01,1,+00240,1,99,9",,,,"99999,9,09926,1","1,1,016,1,+999,9","SYN082AAXX  11121 02458 47368 /3404 11069 21078 39926 49952 51016 70087 333 81/08 88/14;",
"02458099999","2010-12-11T15:00:00","4","59.897328","17.588581","20.72","UPPSALA, SW","FM-12","ESCM ","V020","340,1,N,0020,1","00360,1,C,N","011000,1,N,1","-0057,1","-0064,1","09973,1",,,"24,1","8,1,03,1","02,1,+00180,1,99,9","07,1,+00360,1,99,9",,,"99999,9,09946,1","2,1,020,1,+999,9","SYN088AAXX  11151 02458 47261 /3402 11057 21064 39946 49973 52020 72487 333 82/06 87/12 88/21;",
"02458099999","2010-12-11T18:00:00","4","59.897328","17.588581","20.72","UPPSALA, SW","FM-12","ESCM ","V020","010,1,N,0050,1","01260,1,C,N","050000,1,N,1","-0021,1","-0043,1","10011,1",,,"00,1","8,1,06,1","06,1,+01260,1,99,9",,"120,M,-0019,1","999,N,-0070,1","99999,9,09985,1","3,1,039,1,+999,9","SYN088AAXX  11181 02458 37684 /0105 11021 21043 39985 40011 53039 70087 333 11019 21070 86/42;",
"02458099999","2010-12-11T21:00:00","4","59.897328","17.588581","20.72","UPPSALA, SW","FM-12","ESCM ","V020","020,1,N,0060,1","99999,9,9,N","050000,1,N,1","-0042,1","-0080,1","10051,1",,,,,,,,,"99999,9,10025,1","3,1,040,1,+999,9","SYN060AAXX  11211 02458 45984 /0206 11042 21080 30025 40051 53040;",
"02458099999","2010-12-12T00:00:00","4","59.897328","17.588581","20.72","UPPSALA, SW","FM-12","ESCM ","V020","340,1,N,0060,1","01260,1,C,N","030000,1,N,1","-0066,1","-0080,1","10083,1",,,"85,1","8,1,06,1","09,1,+01260,1,99,9",,,,"99999,9,10057,1","2,1,032,1,+999,9","SYN076AAXX  12001 02458 47/80 /3406 11066 21080 30057 40083 52032 78587 333 89/42;",
"02458099999","2010-12-12T03:00:00","4","59.897328","17.588581","20.72","UPPSALA, SW","FM-12","ESCM ","V020","330,1,N,0040,1","00450,1,C,N","004600,1,N,1","-0069,1","-0083,1","10112,1",,,"71,1","8,1,03,1","09,1,+00450,1,99,9",,,,"99999,9,10085,1","2,1,028,1,+999,9","SYN076AAXX  12031 02458 47/46 /3304 11069 21083 30085 40112 52028 77187 333 89/15;",
"02458099999","2010-12-12T06:00:00","4","59.897328","17.588581","20.72","UPPSALA, SW","FM-12","ESCM ","V020","330,1,N,0040,1","99999,9,9,N","050000,1,N,1","-0104,1","-0119,1","10137,1","12,0020,9,2","24,0018,9,2","24,1","8,1,06,1",,,"120,M,-0020,1","999,N,-0106,1","99999,9,10110,1","3,1,025,1,+999,9","SYN094AAXX  12061 02458 17984 /3304 11104 21119 30110 40137 53025 60022 72487 333 11020 21106 70019;",
"02458099999","2010-12-12T09:00:00","4","59.897328","17.588581","20.72","UPPSALA, SW","FM-12","ESCM ","V020","330,1,N,0040,1","00930,1,C,N","050000,1,N,1","-0104,1","-0119,1","10163,1",,,,,"05,1,+00930,1,99,9",,,,"99999,9,10136,1","3,1,026,1,+999,9","SYN070AAXX  12091 02458 45584 /3304 11104 21119 30136 40163 53026 333 85/31;",
"02458099999","2010-12-12T12:00:00","4","59.897328","17.588581","20.72","UPPSALA, SW","FM-12","ESCM ","V020","310,1,N,0020,1","99999,9,9,N","050000,1,N,1","-0121,1","-0147,1","10166,1",,,,,,,,,"99999,9,10139,1","2,1,003,1,+999,9","SYN060AAXX  12121 02458 45984 /3102 11121 21147 30139 40166 52003;",
"02458099999","2010-12-12T15:00:00","4","59.897328","17.588581","20.72","UPPSALA, SW","FM-12","ESCM ","V020","999,9,C,0000,1","99999,9,9,N","050000,1,N,1","-0170,1","-0186,1","10176,1",,,,,,,,,"99999,9,10148,1","3,1,009,1,+999,9","SYN060AAXX  12151 02458 45984 /0000 11170 21186 30148 40176 53009;",
"02458099999","2010-12-12T18:00:00","4","59.897328","17.588581","20.72","UPPSALA, SW","FM-12","ESCM ","V020","030,1,N,0010,1","00420,1,C,N","050000,1,N,1","-0118,1","-0133,1","10188,1",,,,,"08,1,+00420,1,99,9",,"120,M,-0099,1","999,N,-0200,1","99999,9,10161,1","2,1,012,1,+999,9","SYN082AAXX  12181 02458 35484 /0301 11118 21133 30161 40188 52012 333 11099 21200 88/14;",
"02458099999","2010-12-12T21:00:00","4","59.897328","17.588581","20.72","UPPSALA, SW","FM-12","ESCM ","V020","330,1,N,0040,1","00750,1,C,N","050000,1,N,1","-0074,1","-0090,1","10196,1",,,,,"08,1,+00750,1,99,9",,,,"99999,9,10169,1","3,1,009,1,+999,9","SYN070AAXX  12211 02458 45584 /3304 11074 21090 30169 40196 53009 333 88/25;",
"02458099999","2010-12-13T00:00:00","4","59.897328","17.588581","20.72","UPPSALA, SW","FM-12","ESCM ","V020","330,1,N,0040,1","00960,1,C,N","050000,1,N,1","-0059,1","-0074,1","10205,1",,,,,"08,1,+00960,1,99,9",,,,"99999,9,10178,1","2,1,009,1,+999,9","SYN070AAXX  13001 02458 45584 /3304 11059 21074 30178 40205 52009 333 88/32;",
"02458099999","2010-12-13T03:00:00","4","59.897328","17.588581","20.72","UPPSALA, SW","FM-12","ESCM ","V020","330,1,N,0030,1","99999,9,9,N","030000,1,N,1","-0103,1","-0113,1","10218,1",,,,,"01,1,+00870,1,99,9",,,,"99999,9,10191,1","3,1,012,1,+999,9","SYN070AAXX  13031 02458 45580 /3303 11103 21113 30191 40218 53012 333 81/29;",
"02458099999","2010-12-13T06:00:00","4","59.897328","17.588581","20.72","UPPSALA, SW","FM-12","ESCM ","V020","350,1,N,0040,1","99999,9,9,N","010000,1,N,1","-0108,1","-0120,1","10232,1",,,"10,1","2,1,06,1",,,"120,M,-0059,1","999,N,-0118,1","99999,9,10205,1","2,1,014,1,+999,9","SYN082AAXX  13061 02458 37960 /3504 11108 21120 30205 40232 52014 71010 333 11059 21118;",
"02458099999","2010-12-13T09:00:00","4","59.897328","17.588581","20.72","UPPSALA, SW","FM-12","ESCM ","V020","340,1,N,0020,1","99999,9,9,N","050000,1,N,1","-0094,1","-0103,1","10252,1",,,,,,,,,"99999,9,10224,1","2,1,020,1,+999,9","SYN060AAXX  13091 02458 45984 /3402 11094 21103 30224 40252 52020;",
"02458099999","2010-12-13T12:00:00","4","59.897328","17.588581","20.72","UPPSALA, SW","FM-12","ESCM ","V020","360,1,N,0030,1","99999,9,9,N","050000,1,N,1","-0074,1","-0093,1","10261,1",,,,,,,,,"99999,9,10234,1","2,1,010,1,+999,9","SYN060AAXX  13121 02458 45984 /3603 11074 21093 30234 40261 52010;",
"02458099999","2010-12-13T15:00:00","4","59.897328","17.588581","20.72","UPPSALA, SW","FM-12","ESCM ","V020","010,1,N,0020,1","99999,9,9,N","050000,1,N,1","-0085,1","-0096,1","10276,1",,,,,,,,,"99999,9,10249,1","3,1,015,1,+999,9","SYN060AAXX  13151 02458 45984 /0102 11085 21096 30249 40276 53015;",
"02458099999","2010-12-13T18:00:00","4","59.897328","17.588581","20.72","UPPSALA, SW","FM-12","ESCM ","V020","340,1,N,0010,1","99999,9,9,N","050000,1,N,1","-0106,1","-0118,1","10288,1",,,"00,1","4,1,06,1",,,"120,M,-0063,1","999,N,-0131,1","99999,9,10260,1","1,1,011,1,+999,9","SYN082AAXX  13181 02458 37984 /3401 11106 21118 30260 40288 51011 70032 333 11063 21131;",
"02458099999","2010-12-13T21:00:00","4","59.897328","17.588581","20.72","UPPSALA, SW","FM-12","ESCM ","V020","360,1,N,0010,1","99999,9,9,N","045000,1,N,1","-0120,1","-0133,1","10296,1",,,,,,,,,"99999,9,10269,1","2,1,009,1,+999,9","SYN060AAXX  13211 02458 45983 /3601 11120 21133 30269 40296 52009;",
"02458099999","2010-12-14T00:00:00","4","59.897328","17.588581","20.72","UPPSALA, SW","FM-12","ESCM ","V020","350,1,N,0040,1","00720,1,C,N","050000,1,N,1","-0055,1","-0063,1","10291,1",,,"00,1","4,1,06,1","05,1,+00720,1,99,9",,,,"99999,9,10264,1","7,1,005,1,+999,9","SYN076AAXX  14001 02458 47584 /3504 11055 21063 30264 40291 57005 70032 333 85/24;",
"02458099999","2010-12-14T03:00:00","4","59.897328","17.588581","20.72","UPPSALA, SW","FM-12","ESCM ","V020","360,1,N,0040,1","00750,1,C,N","050000,1,N,1","-0037,1","-0066,1","10287,1",,,,,"08,1,+00750,1,99,9",,,,"99999,9,10260,1","8,1,004,1,+999,9","SYN070AAXX  14031 02458 45584 /3604 11037 21066 30260 40287 58004 333 88/25;",
"02458099999","2010-12-14T06:00:00","4","59.897328","17.588581","20.72","UPPSALA, SW","FM-12","ESCM ","V020","350,1,N,0020,1","00810,1,C,N","030000,1,N,1","-0054,1","-0065,1","10289,1",,,,,"07,1,+00810,1,99,9",,"120,M,-0031,1","999,N,-0144,1","99999,9,10262,1","2,1,002,1,+999,9","SYN082AAXX  14061 02458 35580 /3502 11054 21065 30262 40289 52002 333 11031 21144 87/27;",
"02458099999","2010-12-14T09:00:00","4","59.897328","17.588581","20.72","UPPSALA, SW","FM-12","ESCM ","V020","340,1,N,0050,1","00810,1,C,N","002900,1,N,1","-0053,1","-0069,1","10293,1",,,"71,1","7,1,03,1","08,1,+00810,1,99,9",,,,"99999,9,10266,1","2,1,003,1,+999,9","SYN076AAXX  14091 02458 47529 /3405 11053 21069 30266 40293 52003 77170 333 88/27;",
"02458099999","2010-12-14T12:00:00","4","59.897328","17.588581","20.72","UPPSALA, SW","FM-12","ESCM ","V020","360,1,N,0040,1","00510,1,C,N","050000,1,N,1","-0038,1","-0061,1","10290,1",,,"00,1","7,1,06,1","08,1,+00510,1,99,9",,,,"99999,9,10263,1","7,1,003,1,+999,9","SYN076AAXX  14121 02458 47484 /3604 11038 21061 30263 40290 57003 70071 333 88/17;",
"02458099999","2010-12-14T15:00:00","4","59.897328","17.588581","20.72","UPPSALA, SW","FM-12","ESCM ","V020","340,1,N,0050,1","99999,9,9,N","050000,1,N,1","-0061,1","-0076,1","10292,1",,,,,"02,1,+00330,1,99,9",,,,"99999,9,10265,1","2,1,002,1,+999,9","SYN076AAXX  14151 02458 45484 /3405 11061 21076 30265 40292 52002 333 82/11 88/16;",
"02458099999","2010-12-14T18:00:00","4","59.897328","17.588581","20.72","UPPSALA, SW","FM-12","ESCM ","V020","340,1,N,0060,1","00690,1,C,N","050000,1,N,1","-0063,1","-0080,1","10292,1",,,,,"08,1,+00690,1,99,9",,"120,M,-0037,1","999,N,-0066,1","99999,9,10265,1","0,1,000,1,+999,9","SYN082AAXX  14181 02458 35584 /3406 11063 21080 30265 40292 50000 333 11037 21066 88/23;",
"02458099999","2010-12-14T21:00:00","4","59.897328","17.588581","20.72","UPPSALA, SW","FM-12","ESCM ","V020","340,1,N,0030,1","00660,1,C,N","035000,1,N,1","-0077,1","-0090,1","10295,1",,,,,"06,1,+00660,1,99,9",,,,"99999,9,10268,1","2,1,003,1,+999,9","SYN070AAXX  14211 02458 45581 /3403 11077 21090 30268 40295 52003 333 86/22;",
"02458099999","2010-12-15T00:00:00","4","59.897328","17.588581","20.72","UPPSALA, SW","FM-12","ESCM ","V020","330,1,N,0040,1","99999,9,9,N","045000,1,N,1","-0074,1","-0086,1","10292,1",,,,,"04,1,+00600,1,99,9",,,,"99999,9,10265,1","7,1,002,1,+999,9","SYN070AAXX  15001 02458 45583 /3304 11074 21086 30265 40292 57002 333 84/20;",
"02458099999","2010-12-15T03:00:00","4","59.897328","17.588581","20.72","UPPSALA, SW","FM-12","ESCM ","V020","340,1,N,0040,1","00570,1,C,N","050000,1,N,1","-0072,1","-0085,1","10287,1",,,,,"08,1,+00570,1,99,9",,,,"99999,9,10260,1","7,1,005,1,+999,9","SYN070AAXX  15031 02458 45484 /3404 11072 21085 30260 40287 57005 333 88/19;",
"02458099999","2010-12-15T06:00:00","4","59.897328","17.588581","20.72","UPPSALA, SW","FM-12","ESCM ","V020","330,1,N,0050,1","00570,1,C,N","050000,1,N,1","-0062,1","-0078,1","10281,1",,,,,"08,1,+00570,1,99,9",,"120,M,-0060,1","999,N,-0085,1","99999,9,10254,1","7,1,006,1,+999,9","SYN082AAXX  15061 02458 35484 /3305 11062 21078 30254 40281 57006 333 11060 21085 88/19;",
"02458099999","2010-12-15T09:00:00","4","59.897328","17.588581","20.72","UPPSALA, SW","FM-12","ESCM ","V020","320,1,N,0020,1","99999,9,9,N","035000,1,N,1","-0100,1","-0113,1","10275,1",,,,,,,,,"99999,9,10248,1","8,1,006,1,+999,9","SYN060AAXX  15091 02458 45981 /3202 11100 21113 30248 40275 58006;",
"02458099999","2010-12-15T12:00:00","4","59.897328","17.588581","20.72","UPPSALA, SW","FM-12","ESCM ","V020","300,1,N,0030,1","99999,9,9,N","040000,1,N,1","-0089,1","-0102,1","10249,1",,,,,,,,,"99999,9,10221,1","8,1,026,1,+999,9","SYN060AAXX  15121 02458 45982 /3003 11089 21102 30221 40249 58026;",
"02458099999","2010-12-15T15:00:00","4","59.897328","17.588581","20.72","UPPSALA, SW","FM-12","ESCM ","V020","280,1,N,0020,1","00210,1,C,N","050000,1,N,1","-0082,1","-0090,1","10222,1",,,"00,1","4,1,03,1","08,1,+00210,1,99,9",,,,"99999,9,10195,1","8,1,027,1,+999,9","SYN076AAXX  15151 02458 47384 /2802 11082 21090 30195 40222 58027 70032 333 88/07;",
"02458099999","2010-12-15T18:00:00","4","59.897328","17.588581","20.72","UPPSALA, SW","FM-12","ESCM ","V020","210,1,N,0030,1","00120,1,C,N","012000,1,N,1","-0086,1","-0094,1","10182,1",,,"00,1","4,1,06,1","09,1,+00120,1,99,9",,"120,M,-0062,1","999,N,-0114,1","99999,9,10155,1","8,1,039,1,+999,9","SYN088AAXX  15181 02458 37/62 /2103 11086 21094 30155 40182 58039 70032 333 11062 21114 89/04;",
"02458099999","2010-12-15T21:00:00","4","59.897328","17.588581","20.72","UPPSALA, SW","FM-12","ESCM ","V020","210,1,N,0040,1","00120,1,C,N","014000,1,N,1","-0099,1","-0110,1","10138,1",,,"00,1","8,1,03,1","09,1,+00120,1,99,9",,,,"99999,9,10111,1","8,1,045,1,+999,9","SYN076AAXX  15211 02458 47/64 /2104 11099 21110 30111 40138 58045 70087 333 89/04;",
"02458099999","2010-12-16T00:00:00","4","59.897328","17.588581","20.72","UPPSALA, SW","FM-12","ESCM ","V020","190,1,N,0050,1","00150,1,C,N","040000,1,N,1","-0102,1","-0114,1","99999,9",,,"00,1","8,1,06,1","08,1,+00150,1,99,9",,,,,"8,1,065,1,+999,9","SYN076AAXX  16001 02458 47282 /1905 11102 21114 30045 40072 58065 70087 333 88/05;","Q01+100453APOSP "
"02458099999","2010-12-16T03:00:00","4","59.897328","17.588581","20.72","UPPSALA, SW","FM-12","ESCM ","V020","170,1,N,0040,1","00600,1,C,N","050000,1,N,1","-0104,1","-0117,1","10011,1",,,,,"08,1,+00600,1,99,9",,,,"99999,9,09985,1","8,1,061,2,+999,9","SYN070AAXX  16031 02458 45584 /1704 11104 21117 39985 40011 58061 333 88/20;","Q01+000612APC3  "
"02458099999","2010-12-16T06:00:00","4","59.897328","17.588581","20.72","UPPSALA, SW","FM-12","ESCM ","V020","180,1,N,0040,1","00450,1,C,N","003300,1,N,1","-0057,1","-0063,1","09945,1","12,9999,9,9","24,9999,9,9","71,1","7,1,06,1","09,1,+00450,1,99,9",,"120,M,-0057,1","999,N,-0118,1","99999,9,09918,1","6,1,066,1,+999,9","SYN106AAXX  16061 02458 07/33 /1804 11057 21063 39918 49945 56066 69912 77171 333 11057 21118 69915 70001 89/15;","Q01  00002PRCP24Q02  00002PRCP12Q03  00002PRCP12Q04  00002PRCP24"
"02458099999","2010-12-16T09:00:00","4","59.897328","17.588581","20.72","UPPSALA, SW","FM-12","ESCM ","V020","180,1,N,0060,1","99999,9,9,N","006000,1,N,1","-0027,1","-0033,1","09906,1",,,"71,1","7,1,03,1","04,1,+00240,1,99,9",,,,"99999,9,09881,1","6,1,038,1,+999,9","SYN082AAXX  16091 02458 47356 /1806 11027 21033 39881 49906 56038 77177 333 84/08 88/12;",
"02458099999","2010-12-16T12:00:00","4","59.897328","17.588581","20.72","UPPSALA, SW","FM-12","ESCM ","V020","170,1,N,0070,1","00300,1,C,N","001500,1,N,1","-0023,1","-0028,1","09875,1",,,"71,1","7,1,06,1","09,1,+00300,1,99,9",,,,"99999,9,09849,1","6,1,031,1,+999,9","SYN076AAXX  16121 02458 47/15 /1707 11023 21028 39849 49875 56031 77177 333 89/10;",
"02458099999","2010-12-16T15:00:00","4","59.897328","17.588581","20.72","UPPSALA, SW","FM-12","ESCM ","V020","170,1,N,0070,1","00240,1,C,N","001500,1,N,1","-0019,1","-0024,1","09867,1",,,"71,1","7,1,03,1","09,1,+00240,1,99,9",,,,"99999,9,09842,1","7,1,008,1,+999,9","SYN076AAXX  16151 02458 47/15 /1707 11019 21024 39842 49867 57008 77177 333 89/08;",
"02458099999","2010-12-16T18:00:00","4","59.897328","17.588581","20.72","UPPSALA, SW","FM-12","ESCM ","V020","170,1,N,0060,1","00300,1,C,N","004500,1,N,1","-0008,1","-0013,1","09878,1","12,0051,9,1",,"71,1","7,1,06,1","05,1,+00300,1,99,9",,"120,M,-0007,1","999,N,-0057,1","99999,9,09853,1","2,1,011,1,+999,9","SYN106AAXX  16181 02458 07445 /1706 11008 21013 39853 49878 52011 60052 77177 333 11007 21057 69915 85/10 88/16;",
"02458099999","2010-12-16T21:00:00","4","59.897328","17.588581","20.72","UPPSALA, SW","FM-12","ESCM ","V020","160,1,N,0050,1","00360,1,C,N","015000,1,N,1","-0008,1","-0015,1","09899,1",,,"24,1","7,1,03,1","06,1,+00360,1,99,9",,,,"99999,9,09874,1","3,1,022,1,+999,9","SYN076AAXX  16211 02458 47465 /1605 11008 21015 39874 49899 53022 72472 333 86/12;",
"02458099999","2010-12-17T00:00:00","4","59.897328","17.588581","20.72","UPPSALA, SW","FM-12","ESCM ","V020","140,1,N,0030,1","99999,9,9,N","004200,1,N,1","-0012,1","-0016,1","09920,1",,,"71,1","8,1,06,1","03,1,+00270,1,99,9",,,,"99999,9,09895,1","1,1,021,1,+999,9","SYN082AAXX  17001 02458 47342 /1403 11012 21016 39895 49920 51021 77187 333 83/09 86/16;",
"02458099999","2010-12-17T03:00:00","4","59.897328","17.588581","20.72","UPPSALA, SW","FM-12","ESCM ","V020","130,1,N,0040,1","00270,1,C,N","009000,1,N,1","-0004,1","-0007,1","09939,1",,,"71,1","7,1,03,1","07,1,+00270,1,99,9",,,,"99999,9,09913,1","3,1,019,1,+999,9","SYN082AAXX  17031 02458 47359 /1304 11004 21007 39913 49939 53019 77177 333 87/09 88/12;",
"02458099999","2010-12-17T06:00:00","4","59.897328","17.588581","20.72","UPPSALA, SW","FM-12","ESCM ","V020","130,1,N,0060,1","99999,9,9,N","028000,1,N,1","-0005,1","-0019,1","09964,1","12,0010,9,1","24,0061,9,1","71,1","7,1,06,1","01,1,+00480,1,99,9",,"120,M,+0002,1","999,N,-0014,1","99999,9,09938,1","3,1,024,1,+999,9","SYN106AAXX  17061 02458 17478 /1306 11005 21019 39938 49964 53024 60012 77177 333 10002 21014 70062 81/16 88/38;",
"02458099999","2010-12-17T09:00:00","4","59.897328","17.588581","20.72","UPPSALA, SW","FM-12","ESCM ","V020","110,1,N,0050,1","00270,1,C,N","005000,1,N,1","-0004,1","-0008,1","09994,1",,,"71,1","7,1,03,1","05,1,+00270,1,99,9",,,,"99999,9,09969,1","2,1,031,1,+999,9","SYN082AAXX  17091 02458 47350 /1105 11004 21008 39969 49994 52031 77177 333 85/09 88/13;",
"02458099999","2010-12-17T12:00:00","4","59.897328","17.588581","20.72","UPPSALA, SW","FM-12","ESCM ","V020","110,1,N,0070,1","00270,1,C,N","006000,1,N,1","-0008,1","-0013,1","10020,1",,,"71,1","7,1,06,1","08,1,+00270,1,99,9",,,,"99999,9,09994,1","3,1,025,1,+999,9","SYN076AAXX  17121 02458 47356 /1107 11008 21013 39994 40020 53025 77177 333 88/09;",
"02458099999","2010-12-17T15:00:00","4","59.897328","17.588581","20.72","UPPSALA, SW","FM-12","ESCM ","V020","110,1,N,0060,1","99999,9,9,N","012000,1,N,1","-0021,1","-0042,1","10051,1",,,"24,1","7,1,03,1","03,1,+00450,1,99,9",,,,"99999,9,10025,1","3,1,031,1,+999,9","SYN082AAXX  17151 02458 47462 /1106 11021 21042 30025 40051 53031 72472 333 83/15 88/26;",
"02458099999","2010-12-17T18:00:00","4","59.897328","17.588581","20.72","UPPSALA, SW","FM-12","ESCM ","V020","080,1,N,0040,1","00720,1,C,N","012000,1,N,1","-0031,1","-0052,1","10077,1","12,0010,9,1",,"00,1","7,1,06,1","08,1,+00720,1,99,9",,"120,M,-0003,1","999,N,-0032,1","99999,9,10051,1","2,1,025,1,+999,9","SYN094AAXX  17181 02458 17562 /0804 11031 21052 30051 40077 52025 60012 70072 333 11003 21032 88/24;",
"02458099999","2010-12-17T21:00:00","4","59.897328","17.588581","20.72","UPPSALA, SW","FM-12","ESCM ","V020","050,1,N,0060,1","99999,9,9,N","010000,1,N,1","-0030,1","-0052,1","10100,1",,,,,"03,1,+00750,1,99,9",,,,"99999,9,10073,1","3,1,022,1,+999,9","SYN076AAXX  17211 02458 45560 /0506 11030 21052 30073 40100 53022 333 83/25 88/32;",
"02458099999","2010-12-18T00:00:00","4","59.897328","17.588581","20.72","UPPSALA, SW","FM-12","ESCM ","V020","070,1,N,0070,1","00450,1,C,N","010000,1,N,1","-0024,1","-0045,1","10111,1",,,,,"06,1,+00450,1,99,9","07,1,+00720,1,99,9",,,"99999,9,10084,1","2,1,011,1,+999,9","SYN082AAXX  18001 02458 45460 /0707 11024 21045 30084 40111 52011 333 86/15 87/24 88/28;",
"02458099999","2010-12-18T03:00:00","4","59.897328","17.588581","20.72","UPPSALA, SW","FM-12","ESCM ","V020","070,1,N,0070,1","00420,1,C,N","009000,1,N,1","-0031,1","-0052,1","10128,1",,,"10,1","2,1,03,1","08,1,+00420,1,99,9",,,,"99999,9,10102,1","1,1,017,1,+999,9","SYN076AAXX  18031 02458 47459 /0707 11031 21052 30102 40128 51017 71010 333 88/14;",
"02458099999","2010-12-18T06:00:00","4","59.897328","17.588581","20.72","UPPSALA, SW","FM-12","ESCM ","V020","050,1,N,0040,1","00570,1,C,N","006000,1,N,1","-0038,1","-0059,1","10140,1","12,9999,9,9","24,0015,9,1","71,1","7,1,06,1","05,1,+00570,1,99,9",,"120,M,-0024,1","999,N,-0038,1","99999,9,10113,1","1,1,011,1,+999,9","SYN112AAXX  18061 02458 07456 /0504 11038 21059 30113 40140 51011 69912 77174 333 11024 21038 69915 70014 85/19 88/25;","Q01  00002PRCP12Q02  00002PRCP12"
"02458099999","2010-12-18T09:00:00","4","59.897328","17.588581","20.72","UPPSALA, SW","FM-12","ESCM ","V020","040,1,N,0070,1","00750,1,C,N","003700,1,N,1","-0045,1","-0062,1","10147,1",,,"71,1","7,1,03,1","09,1,+00750,1,99,9",,,,"99999,9,10121,1","3,1,008,1,+999,9","SYN076AAXX  18091 02458 47/37 /0407 11045 21062 30121 40147 53008 77177 333 89/25;",
"02458099999","2010-12-18T12:00:00","4","59.897328","17.588581","20.72","UPPSALA, SW","FM-12","ESCM ","V020","040,1,N,0050,1","99999,9,9,N","023000,1,N,1","-0064,1","-0086,1","10144,1",,,"00,1","7,1,06,1","02,1,+00480,1,99,9",,,,"99999,9,10118,1","8,1,003,1,+999,9","SYN082AAXX  18121 02458 47473 /0405 11064 21086 30118 40144 58003 70072 333 82/16 83/63;",
"02458099999","2010-12-18T15:00:00","4","59.897328","17.588581","20.72","UPPSALA, SW","FM-12","ESCM ","V020","020,1,N,0050,1","99999,9,9,N","014000,1,N,1","-0072,1","-0089,1","10145,1",,,"71,1","7,1,03,1","04,1,+00480,1,99,9",,,,"99999,9,10118,1","0,1,000,1,+999,9","SYN082AAXX  18151 02458 47464 /0205 11072 21089 30118 40145 50000 77170 333 84/16 85/24;",
"02458099999","2010-12-18T18:00:00","4","59.897328","17.588581","20.72","UPPSALA, SW","FM-12","ESCM ","V020","040,1,N,0060,1","00330,1,C,N","022000,1,N,1","-0059,1","-0077,1","10136,1","12,0005,9,1",,"00,1","7,1,06,1","08,1,+00330,1,99,9",,"120,M,-0038,1","999,N,-0075,1","99999,9,10109,1","7,1,009,1,+999,9","SYN094AAXX  18181 02458 17472 /0406 11059 21077 30109 40136 57009 69942 70072 333 11038 21075 88/11;",
"02458099999","2010-12-18T21:00:00","4","59.897328","17.588581","20.72","UPPSALA, SW","FM-12","ESCM ","V020","030,1,N,0090,1","00390,1,C,N","005000,1,N,1","-0070,1","-0091,1","10117,1",,,"85,1","8,1,03,1","08,1,+00390,1,99,9",,,,"99999,9,10090,1","8,1,019,1,+999,9","SYN076AAXX  18211 02458 47450 /0309 11070 21091 30090 40117 58019 78587 333 88/13;",
"02458099999","2010-12-19T00:00:00","4","59.897328","17.588581","20.72","UPPSALA, SW","FM-12","ESCM ","V020","030,1,N,0070,1","00480,1,C,N","007000,1,N,1","-0074,1","-0092,1","10099,1",,,"71,1","8,1,06,1","08,1,+00480,1,99,9",,,,"99999,9,10072,1","8,1,018,1,+999,9","SYN076AAXX  19001 02458 47457 /0307 11074 21092 30072 40099 58018 77187 333 88/16;",
"02458099999","2010-12-19T03:00:00","4","59.897328","17.588581","20.72","UPPSALA, SW","FM-12","ESCM ","V020","020,1,N,0060,1","00420,1,C,N","003500,1,N,1","-0077,1","-0091,1","10072,1",,,"71,1","7,1,03,1","07,1,+00420,1,99,9",,,,"99999,9,10045,1","8,1,027,1,+999,9","SYN082AAXX  19031 02458 47435 /0206 11077 21091 30045 40072 58027 77177 333 87/14 88/18;",
"02458099999","2010-12-19T06:00:00","4","59.897328","17.588581","20.72","UPPSALA, SW","FM-12","ESCM ","V020","030,1,N,0050,1","00660,1,C,N","004900,1,N,1","-0082,1","-0093,1","10058,1","12,0010,9,1","24,0015,9,1","71,1","7,1,06,1","09,1,+00660,1,99,9",,"120,M,-0058,1","999,N,-0082,1","99999,9,10031,1","8,1,014,1,+999,9","SYN106AAXX  19061 02458 07/49 /0305 11082 21093 30031 40058 58014 60012 77177 333 11058 21082 69925 70016 89/22;",
"02458099999","2010-12-19T09:00:00","4","59.897328","17.588581","20.72","UPPSALA, SW","FM-12","ESCM ","V020","030,1,N,0060,1","99999,9,9,N","040000,1,N,1","-0087,1","-0108,1","10052,1",,,"78,1","8,1,03,1","02,1,+01260,1,99,9",,,,"99999,9,10026,1","6,1,005,1,+999,9","SYN082AAXX  19091 02458 47682 /0306 11087 21108 30026 40052 56005 77887 333 82/42 88/56;",
"02458099999","2010-12-19T12:00:00","4","59.897328","17.588581","20.72","UPPSALA, SW","FM-12","ESCM ","V020","030,1,N,0050,1","99999,9,9,N","011000,1,N,1","-0079,1","-0094,1","10031,1",,,"78,1","8,1,06,1","02,1,+00990,1,99,9",,,,"99999,9,10005,1","6,1,021,1,+999,9","SYN076AAXX  19121 02458 47561 /0305 11079 21094 30005 40031 56021 77887 333 82/33;",
"02458099999","2010-12-19T15:00:00","4","59.897328","17.588581","20.72","UPPSALA, SW","FM-12","ESCM ","V020","040,1,N,0050,1","01260,1,C,N","004200,1,N,1","-0078,1","-0091,1","10029,1",,,"71,1","7,1,03,1","09,1,+01260,1,99,9",,,,"99999,9,10002,1","7,1,003,1,+999,9","SYN076AAXX  19151 02458 47/42 /0405 11078 21091 30002 40029 57003 77177 333 89/42;",
"02458099999","2010-12-19T18:00:00","4","59.897328","17.588581","20.72","UPPSALA, SW","FM-12","ESCM ","V020","040,1,N,0060,1","00600,1,C,N","006000,1,N,1","-0078,1","-0092,1","10022,1","12,0010,9,1",,"77,1","7,1,06,1","09,1,+00600,1,99,9",,"120,M,-0077,1","999,N,-0093,1","99999,9,09995,1","6,1,007,1,+999,9","SYN094AAXX  19181 02458 17/56 /0406 11078 21092 39995 40022 56007 69992 77777 333 11077 21093 89/20;",
"02458099999","2010-12-19T21:00:00","4","59.897328","17.588581","20.72","UPPSALA, SW","FM-12","ESCM ","V020","050,1,N,0050,1","99999,9,9,N","004500,1,N,1","-0062,1","-0074,1","10026,1",,,"71,1","7,1,03,1","01,1,+00390,1,99,9","03,1,+00750,1,99,9",,,"99999,9,10000,1","2,1,005,1,+999,9","SYN088AAXX  19211 02458 47445 /0505 11062 21074 30000 40026 52005 77177 333 81/13 83/25 87/41;",
"02458099999","2010-12-20T00:00:00","4","59.897328","17.588581","20.72","UPPSALA, SW","FM-12","ESCM ","V020","050,1,N,0050,1","01320,1,C,N","018000,1,N,1","-0066,1","-0086,1","10025,1",,,"24,1","8,1,06,1","08,1,+01320,1,99,9",,,,"99999,9,09999,1","8,1,001,1,+999,9","SYN076AAXX  20001 02458 47668 /0505 11066 21086 39999 40025 58001 72487 333 88/44;",
"02458099999","2010-12-20T03:00:00","4","59.897328","17.588581","20.72","UPPSALA, SW","FM-12","ESCM ","V020","020,1,N,0040,1","99999,9,9,N","008000,1,N,1","-0073,1","-0085,1","10016,1",,,"71,1","8,1,03,1","02,1,+00390,1,99,9",,,,"99999,9,09990,1","8,1,009,1,+999,9","SYN082AAXX  20031 02458 47458 /0204 11073 21085 39990 40016 58009 77187 333 82/13 83/22;",
"02458099999","2010-12-20T06:00:00","4","59.897328","17.588581","20.72","UPPSALA, SW","FM-12","ESCM ","V020","030,1,N,0030,1","00840,1,C,N","005000,1,N,1","-0075,1","-0087,1","10009,1","12,0010,9,1","24,0023,9,1","71,1","8,1,06,1","02,1,+00630,1,99,9","04,1,+00840,1,99,9","120,M,-0059,1","999,N,-0078,1","99999,9,09983,1","7,1,007,1,+999,9","SYN118AAXX  20061 02458 07550 /0303 11075 21087 39983 40009 57007 60012 77187 333 11059 21078 69925 70022 82/21 84/28 85/36;",
"02458099999","2010-12-20T09:00:00","4","59.897328","17.588581","20.72","UPPSALA, SW","FM-12","ESCM ","V020","020,1,N,0040,1","01080,1,C,N","009000,1,N,1","-0079,1","-0095,1","10009,1",,,"78,1","7,1,03,1","06,1,+01080,1,99,9",,,,"99999,9,09983,1","4,1,000,1,+999,9","SYN082AAXX  20091 02458 47659 /0204 11079 21095 39983 40009 54000 77877 333 86/36 88/56;",
"02458099999","2010-12-20T12:00:00","4","59.897328","17.588581","20.72","UPPSALA, SW","FM-12","ESCM ","V020","350,1,N,0020,1","03000,1,C,N","013000,1,N,1","-0102,1","-0117,1","09999,1",,,"00,1","7,1,06,1","07,1,+03000,1,99,9",,,,"99999,9,09973,1","7,1,010,1,+999,9","SYN076AAXX  20121 02458 47963 /3502 11102 21117 39973 49999 57010 70072 333 87/60;",
"02458099999","2010-12-20T15:00:00","4","59.897328","17.588581","20.72","UPPSALA, SW","FM-12","ESCM ","V020","330,1,N,0040,1","22000,1,C,N","024000,1,N,1","-0088,1","-0104,1","09998,1",,,"24,1","7,1,03,1","02,1,+00780,1,99,9","03,1,+01800,1,99,9",,,"99999,9,09972,1","5,1,001,1,+999,9","SYN088AAXX  20151 02458 47574 /3304 11088 21104 39972 49998 55001 72472 333 82/26 83/56 88/60;",
"02458099999","2010-12-20T18:00:00","4","59.897328","17.588581","20.72","UPPSALA, SW","FM-12","ESCM ","V020","330,1,N,0050,1","00810,1,C,N","040000,1,N,1","-0097,1","-0117,1","09998,1","12,0000,2,1",,"24,1","8,1,06,1","08,1,+00810,1,99,9",,"120,M,-0074,1","999,N,-0109,1","99999,9,09971,1","5,1,001,1,+999,9","SYN094AAXX  20181 02458 17582 /3305 11097 21117 39971 49998 55001 69912 72487 333 11074 21109 88/27;",
"02458099999","2010-12-20T21:00:00","4","59.897328","17.588581","20.72","UPPSALA, SW","FM-12","ESCM ","V020","320,1,N,0040,1","00450,1,C,N","029000,1,N,1","-0105,1","-0126,1","10005,1",,,"78,1","8,1,03,1","08,1,+00450,1,99,9",,,,"99999,9,09978,1","2,1,007,1,+999,9","SYN076AAXX  20211 02458 47479 /3204 11105 21126 39978 40005 52007 77887 333 88/15;",
"02458099999","2010-12-21T00:00:00","4","59.897328","17.588581","20.72","UPPSALA, SW","FM-12","ESCM ","V020","310,1,N,0040,1","01500,1,C,N","008000,1,N,1","-0110,1","-0132,1","10010,1",,,"71,1","8,1,06,1","07,1,+01500,1,99,9",,,,"99999,9,09983,1","2,1,005,1,+999,9","SYN076AAXX  21001 02458 47758 /3104 11110 21132 39983 40010 52005 77187 333 87/50;",
"02458099999","2010-12-21T03:00:00","4","59.897328","17.588581","20.72","UPPSALA, SW","FM-12","ESCM ","V020","290,1,N,0020,1","99999,9,9,N","008000,1,N,1","-0119,1","-0136,1","10017,1",,,"71,1","7,1,03,1","01,1,+00390,1,99,9",,,,"99999,9,09990,1","0,1,007,1,+999,9","SYN082AAXX  21031 02458 47458 /2902 11119 21136 39990 40017 50007 77172 333 81/13 84/33;",
"02458099999","2010-12-21T06:00:00","4","59.897328","17.588581","20.72","UPPSALA, SW","FM-12","ESCM ","V020","290,1,N,0040,1","00450,1,C,N","021000,1,N,1","-0106,1","-0129,1","10025,1","12,0000,2,1","24,0003,9,1","71,1","8,1,06,1","08,1,+00450,1,99,9",,"120,M,-0097,1","999,N,-0133,1","99999,9,09998,1","2,1,008,1,+999,9","SYN100AAXX  21061 02458 17471 /2904 11106 21129 39998 40025 52008 69912 77187 333 11097 21133 70002 88/15;",
"02458099999","2010-12-21T09:00:00","4","59.897328","17.588581","20.72","UPPSALA, SW","FM-12","ESCM ","V020","280,1,N,0030,1","00390,1,C,N","029000,1,N,1","-0131,1","-0154,1","10042,1",,,"71,1","7,1,03,1","05,1,+00390,1,99,9",,,,"99999,9,10015,1","3,1,017,1,+999,9","SYN076AAXX  21091 02458 47479 /2803 11131 21154 30015 40042 53017 77177 333 85/13;",
"02458099999","2010-12-21T12:00:00","4","59.897328","17.588581","20.72","UPPSALA, SW","FM-12","ESCM ","V020","290,1,N,0020,1","99999,9,9,N","040000,1,N,1","-0154,1","-0175,1","10055,1",,,"24,1","7,1,06,1",,,,,"99999,9,10028,1","2,1,013,1,+999,9","SYN066AAXX  21121 02458 47982 /2902 11154 21175 30028 40055 52013 72472;",
"02458099999","2010-12-21T15:00:00","4","59.897328","17.588581","20.72","UPPSALA, SW","FM-12","ESCM ","V020","240,1,N,0020,1","99999,9,9,N","040000,1,N,1","-0169,1","-0188,1","10070,1",,,,,,,,,"99999,9,10042,1","2,1,014,1,+999,9","SYN060AAXX  21151 02458 45982 /2402 11169 21188 30042 40070 52014;",
"02458099999","2010-12-21T18:00:00","4","59.897328","17.588581","20.72","UPPSALA, SW","FM-12","ESCM ","V020","250,1,N,0010,1","99999,9,9,N","050000,1,N,1","-0175,1","-0197,1","10083,1","12,0000,2,1",,,,"04,1,+04200,1,99,9",,"120,M,-0106,1","999,N,-0181,1","99999,9,10055,1","3,1,013,1,+999,9","SYN088AAXX  21181 02458 15984 /2501 11175 21197 30055 40083 53013 69912 333 11106 21181 84/64;",
"02458099999","2010-12-21T21:00:00","4","59.897328","17.588581","20.72","UPPSALA, SW","FM-12","ESCM ","V020","230,1,N,0020,1","99999,9,9,N","029000,1,N,1","-0197,1","-0218,1","10100,1",,,,,,,,,"99999,9,10072,1","3,1,017,1,+999,9","SYN060AAXX  21211 02458 45979 /2302 11197 21218 30072 40100 53017;",
"02458099999","2010-12-22T00:00:00","4","59.897328","17.588581","20.72","UPPSALA, SW","FM-12","ESCM ","V020","230,1,N,0010,1","99999,9,9,N","040000,1,N,1","-0210,1","-0234,1","10116,1",,,,,,,,,"99999,9,10088,1","2,1,015,1,+999,9","SYN060AAXX  22001 02458 45982 /2301 11210 21234 30088 40116 52015;",
"02458099999","2010-12-22T03:00:00","4","59.897328","17.588581","20.72","UPPSALA, SW","FM-12","ESCM ","V020","200,1,N,0010,1","99999,9,9,N","050000,1,N,1","-0224,1","-0251,1","10128,1",,,"00,1","8,1,03,1",,,,,"99999,9,10099,1","3,1,012,1,+999,9","SYN066AAXX  22031 02458 47984 /2001 11224 21251 30099 40128 53012 70087;",
"02458099999","2010-12-22T06:00:00","4","59.897328","17.588581","20.72","UPPSALA, SW","FM-12","ESCM ","V020","999,9,C,0000,1","99999,9,9,N","045000,1,N,1","-0237,1","-0264,1","10136,1","24,0000,2,1",,"00,1","8,1,06,1",,,"120,M,-0175,1","999,N,-0256,1","99999,9,10108,1","2,1,008,1,+999,9","SYN088AAXX  22061 02458 37983 /0000 11237 21264 30108 40136 52008 70087 333 11175 21256 70001;",
"02458099999","2010-12-22T09:00:00","4","59.897328","17.588581","20.72","UPPSALA, SW","FM-12","ESCM ","V020","310,1,N,0010,1","99999,9,9,N","012000,1,N,1","-0279,1","-0312,1","10156,1",,,,,,,,,"99999,9,10127,1","2,1,019,1,+999,9","SYN060AAXX  22091 02458 45962 /3101 11279 21312 30127 40156 52019;",
"02458099999","2010-12-22T12:00:00","4","59.897328","17.588581","20.72","UPPSALA, SW","FM-12","ESCM ","V020","230,1,N,0010,1","99999,9,9,N","035000,1,N,1","-0259,1","-0291,1","10167,1",,,,,,,,,"99999,9,10138,1","2,1,011,1,+999,9","SYN060AAXX  22121 02458 45981 /2301 11259 21291 30138 40167 52011;",
"02458099999","2010-12-22T15:00:00","4","59.897328","17.588581","20.72","UPPSALA, SW","FM-12","ESCM ","V020","160,1,N,0010,1","99999,9,9,N","027000,1,N,1","-0257,1","-0286,1","10180,1",,,,,,,,,"99999,9,10151,1","2,1,013,1,+999,9","SYN060AAXX  22151 02458 45977 /1601 11257 21286 30151 40180 52013;",
"02458099999","2010-12-22T18:00:00","4","59.897328","17.588581","20.72","UPPSALA, SW","FM-12","ESCM ","V020","999,9,C,0000,1","99999,9,9,N","021000,1,N,1","-0287,1","-0322,1","10193,1",,,"00,1","8,1,06,1",,,"120,M,-0233,1","999,N,-0292,1","99999,9,10163,1","1,1,013,1,+999,9","SYN082AAXX  22181 02458 37971 /0000 11287 21322 30163 40193 51013 70087 333 11233 21292;",
"02458099999","2010-12-22T21:00:00","4","59.897328","17.588581","20.72","UPPSALA, SW","FM-12","ESCM ","V020","999,9,C,0000,1","00030,1,C,N","000400,1,N,1","-0268,1","-0301,1","10211,1",,,"85,1","8,1,03,1","09,1,+00030,1,99,9",,,,"99999,9,10182,1","3,1,019,1,+999,9","SYN076AAXX  22211 02458 47/04 /0000 11268 21301 30182 40211 53019 78587 333 89/01;",
"02458099999","2010-12-23T00:00:00","4","59.897328","17.588581","20.72","UPPSALA, SW","FM-12","ESCM ","V020","999,9,C,0000,1","00780,1,C,N","006000,1,N,1","-0271,1","-0304,1","10219,1",,,"20,1","8,1,06,1","09,1,+00780,1,99,9",,,,"99999,9,10190,1","0,1,008,1,+999,9","SYN076AAXX  23001 02458 47/56 /0000 11271 21304 30190 40219 50008 72087 333 89/26;",
"02458099999","2010-12-23T03:00:00","4","59.897328","17.588581","20.72","UPPSALA, SW","FM-12","ESCM ","V020","999,9,C,0000,1","00390,1,C,N","001900,1,N,1","-0212,1","-0237,1","10220,1",,,"71,1","7,1,03,1","05,1,+00390,1,99,9",,,,"99999,9,10192,1","2,1,001,1,+999,9","SYN082AAXX  23031 02458 47419 /0000 11212 21237 30192 40220 52001 77172 333 85/13 88/32;",
"02458099999","2010-12-23T06:00:00","4","59.897328","17.588581","20.72","UPPSALA, SW","FM-12","ESCM ","V020","999,9,C,0000,1","00870,1,C,N","003400,1,N,1","-0162,1","-0181,1","10225,1","12,0130,9,1","24,0132,9,1","71,1","7,1,06,1","08,1,+00870,1,99,9",,"120,M,-0162,1","999,N,-0299,1","99999,9,10197,1","0,1,006,1,+999,9","SYN106AAXX  23061 02458 07534 /0000 11162 21181 30197 40225 50006 60132 77172 333 11162 21299 69925 70131 88/29;",
"02458099999","2010-12-23T09:00:00","4","59.897328","17.588581","20.72","UPPSALA, SW","FM-12","ESCM ","V020","999,9,C,0000,1","00240,1,C,N","001900,1,N,1","-0181,1","-0202,1","10237,1",,,"85,1","8,1,03,1","05,1,+00240,1,99,9",,,,"99999,9,10209,1","3,1,011,1,+999,9","SYN076AAXX  23091 02458 47319 /0000 11181 21202 30209 40237 53011 78587 333 85/08;",
"02458099999","2010-12-23T12:00:00","4","59.897328","17.588581","20.72","UPPSALA, SW","FM-12","ESCM ","V020","999,9,C,0000,1","99999,9,9,N","002200,1,N,1","-0157,1","-0176,1","10237,1",,,"85,1","8,1,06,1","01,1,+00240,1,99,9",,,,"99999,9,10209,1","4,1,000,1,+999,9","SYN076AAXX  23121 02458 47322 /0000 11157 21176 30209 40237 54001 78587 333 81/08;",
"02458099999","2010-12-23T15:00:00","4","59.897328","17.588581","20.72","UPPSALA, SW","FM-12","ESCM ","V020","340,1,N,0020,1","00270,1,C,N","010000,1,N,1","-0155,1","-0172,1","10235,1",,,"71,1","8,1,03,1","01,1,+00210,1,99,9","05,1,+00270,1,99,9",,,"99999,9,10207,1","7,1,002,1,+999,9","SYN088AAXX  23151 02458 47360 /3402 11155 21172 30207 40235 57002 77187 333 81/07 85/09 88/17;",
"02458099999","2010-12-23T18:00:00","4","59.897328","17.588581","20.72","UPPSALA, SW","FM-12","ESCM ","V020","330,1,N,0010,1","00240,1,C,N","004000,1,N,1","-0171,1","-0190,1","10240,1","12,0020,9,1",,"71,1","8,1,06,1","02,1,+00150,1,99,9","05,1,+00240,1,99,9","120,M,-0124,1","999,N,-0203,1","99999,9,10212,1","2,1,004,1,+999,9","SYN112AAXX  23181 02458 07240 /3301 11171 21190 30212 40240 52004 60022 77187 333 11124 21203 69935 82/05 85/08 87/16;",
"02458099999","2010-12-23T21:00:00","4","59.897328","17.588581","20.72","UPPSALA, SW","FM-12","ESCM ","V020","330,1,N,0030,1","00180,1,C,N","005000,1,N,1","-0162,1","-0180,1","10239,1",,,"71,1","8,1,03,1","06,1,+00180,1,99,9","07,1,+00540,1,99,9",,,"99999,9,10211,1","4,1,000,1,+999,9","SYN088AAXX  23211 02458 47250 /3303 11162 21180 30211 40239 54001 77187 333 86/06 87/18 88/23;",
"02458099999","2010-12-24T00:00:00","4","59.897328","17.588581","20.72","UPPSALA, SW","FM-12","ESCM ","V020","320,1,N,0010,1","99999,9,9,N","010000,1,N,1","-0207,1","-0232,1","10235,1",,,"71,1","8,1,06,1","02,1,+00180,1,99,9",,,,"99999,9,10207,1","7,1,004,1,+999,9","SYN082AAXX  24001 02458 47360 /3201 11207 21232 30207 40235 57004 77187 333 82/06 83/14;",
"02458099999","2010-12-24T03:00:00","4","59.897328","17.588581","20.72","UPPSALA, SW","FM-12","ESCM ","V020","999,9,C,0000,1","00210,1,C,N","005000,1,N,1","-0196,1","-0218,1","10222,1",,,"71,1","8,1,03,1","06,1,+00210,1,99,9",,,,"99999,9,10194,1","8,1,013,1,+999,9","SYN082AAXX  24031 02458 47350 /0000 11196 21218 30194 40222 58013 77187 333 86/07 88/18;",
"02458099999","2010-12-24T06:00:00","4","59.897328","17.588581","20.72","UPPSALA, SW","FM-12","ESCM ","V020","999,9,C,0000,1","99999,9,9,N","003700,1,N,1","-0255,1","-0289,1","10216,1","12,0010,9,1","24,0036,9,1","71,1","8,1,06,1","01,1,+00270,1,99,9",,"120,M,-0160,1","999,N,-0255,1","99999,9,10187,1","7,1,007,1,+999,9","SYN106AAXX  24061 02458 07337 /0000 11255 21289 30187 40216 57007 60012 77187 333 11160 21255 69915 70035 81/09;",
"02458099999","2010-12-24T09:00:00","4","59.897328","17.588581","20.72","UPPSALA, SW","FM-12","ESCM ","V020","340,1,N,0020,1","99999,9,9,N","016000,1,N,1","-0166,1","-0185,1","10212,1",,,"00,1","8,1,03,1","04,1,+04200,1,99,9",,,,"99999,9,10184,1","7,1,003,1,+999,9","SYN076AAXX  24091 02458 47966 /3402 11166 21185 30184 40212 57003 70087 333 84/64;",
"02458099999","2010-12-24T12:00:00","4","59.897328","17.588581","20.72","UPPSALA, SW","FM-12","ESCM ","V020","340,1,N,0020,1","04200,1,C,N","027000,1,N,1","-0141,1","-0157,1","10200,1",,,"00,1","8,1,06,1","08,1,+04200,1,99,9",,,,"99999,9,10173,1","8,1,011,1,+999,9","SYN076AAXX  24120 02458 47977 /3402 11141 21157 30173 40200 58011 70087 333 88/64;",
"02458099999","2010-12-24T15:00:00","4","59.897328","17.588581","20.72","UPPSALA, SW","FM-12","ESCM ","V020","010,1,N,0020,1","04200,1,C,N","023000,1,N,1","-0107,1","-0118,1","10191,1",,,"24,1","8,1,03,1","08,1,+04200,1,99,9",,,,"99999,9,10164,1","7,1,009,1,+999,9","SYN076AAXX  24151 02458 47973 /0102 11107 21118 30164 40191 57009 72487 333 88/64;",
"02458099999","2010-12-24T18:00:00","4","59.897328","17.588581","20.72","UPPSALA, SW","FM-12","ESCM ","V020","020,1,N,0060,1","00450,1,C,N","012000,1,N,1","-0089,1","-0108,1","10188,1","12,0000,2,1",,"71,1","8,1,06,1","06,1,+00450,1,99,9",,"120,M,-0088,1","999,N,-0260,1","99999,9,10161,1","5,1,003,1,+999,9","SYN106AAXX  24181 02458 07462 /0206 11089 21108 30161 40188 55003 69922 77187 333 11088 21260 69915 86/15 87/21;",
"02458099999","2010-12-24T21:00:00","4","59.897328","17.588581","20.72","UPPSALA, SW","FM-12","ESCM ","V020","020,1,N,0070,1","00540,1,C,N","016000,1,N,1","-0081,1","-0105,1","10184,1",,,"71,1","7,1,03,1","08,1,+00540,1,99,9",,,,"99999,9,10157,1","8,1,004,1,+999,9","SYN076AAXX  24211 02458 47466 /0207 11081 21105 30157 40184 58004 77177 333 88/18;",
"02458099999","2010-12-25T00:00:00","4","59.897328","17.588581","20.72","UPPSALA, SW","FM-12","ESCM ","V020","020,1,N,0070,1","00600,1,C,N","020000,1,N,1","-0075,1","-0101,1","10181,1",,,"71,1","7,1,06,1","08,1,+00600,1,99,9",,,,"99999,9,10154,1","7,1,002,1,+999,9","SYN076AAXX  25001 02458 47570 /0207 11075 21101 30154 40181 57002 77177 333 88/20;",
"02458099999","2010-12-25T03:00:00","4","59.897328","17.588581","20.72","UPPSALA, SW","FM-12","ESCM ","V020","020,1,N,0070,1","99999,9,9,N","022000,1,N,1","-0072,1","-0095,1","10176,1",,,"78,1","7,1,03,1","03,1,+00480,1,99,9",,,,"99999,9,10149,1","7,1,005,1,+999,9","SYN082AAXX  25031 02458 47472 /0207 11072 21095 30149 40176 57005 77877 333 83/16 85/58;",
"02458099999","2010-12-25T06:00:00","4","59.897328","17.588581","20.72","UPPSALA, SW","FM-12","ESCM ","V020","010,1,N,0060,1","99999,9,9,N","050000,1,N,1","-0065,1","-0104,1","10174,1","12,0000,2,1","24,0003,9,1","00,1","7,1,06,1","01,1,+02400,1,99,9",,"120,M,-0064,1","999,N,-0089,1","99999,9,10148,1","7,1,002,1,+999,9","SYN106AAXX  25061 02458 17884 /0106 11065 21104 30148 40174 57002 69912 70072 333 11064 21089 70003 81/58 88/61;",
"02458099999","2010-12-25T09:00:00","4","59.897328","17.588581","20.72","UPPSALA, SW","FM-12","ESCM ","V020","020,1,N,0070,1","02100,1,C,N","050000,1,N,1","-0058,1","-0100,1","10177,1",,,,,"08,1,+02100,1,99,9",,,,"99999,9,10150,1","2,1,002,1,+999,9","SYN070AAXX  25091 02458 45884 /0207 11058 21100 30150 40177 52002 333 88/57;",
"02458099999","2010-12-25T12:00:00","4","59.897328","17.588581","20.72","UPPSALA, SW","FM-12","ESCM ","V020","010,1,N,0070,1","02400,1,C,N","045000,1,N,1","-0050,1","-0098,1","10173,1",,,,,"08,1,+02400,1,99,9",,,,"99999,9,10146,1","8,1,004,1,+999,9","SYN070AAXX  25120 02458 45983 /0107 11050 21098 30146 40173 58004 333 88/58;",
"02458099999","2010-12-25T15:00:00","4","59.897328","17.588581","20.72","UPPSALA, SW","FM-12","ESCM ","V020","340,1,N,0060,1","99999,9,9,N","050000,1,N,1","-0065,1","-0088,1","10166,1",,,,,"04,1,+02400,1,99,9",,,,"99999,9,10139,1","7,1,007,1,+999,9","SYN070AAXX  25151 02458 45884 /3406 11065 21088 30139 40166 57007 333 84/58;",
"02458099999","2010-12-25T18:00:00","4","59.897328","17.588581","20.72","UPPSALA, SW","FM-12","ESCM ","V020","350,1,N,0050,1","01800,1,C,N","050000,1,N,1","-0056,1","-0077,1","10157,1",,,,,"08,1,+01800,1,99,9",,"120,M,-0047,1","999,N,-0068,1","99999,9,10130,1","8,1,009,1,+999,9","SYN082AAXX  25181 02458 35884 /3505 11056 21077 30130 40157 58009 333 11047 21068 88/56;",
"02458099999","2010-12-25T21:00:00","4","59.897328","17.588581","20.72","UPPSALA, SW","FM-12","ESCM ","V020","010,1,N,0060,1","00630,1,C,N","050000,1,N,1","-0037,1","-0067,1","10142,1",,,,,"06,1,+00630,1,99,9",,,,"99999,9,10115,1","7,1,015,1,+999,9","SYN076AAXX  25211 02458 45584 /0106 11037 21067 30115 40142 57015 333 86/21 88/56;",
"02458099999","2010-12-26T00:00:00","4","59.897328","17.588581","20.72","UPPSALA, SW","FM-12","ESCM ","V020","010,1,N,0060,1","00420,1,C,N","001500,1,N,1","-0039,1","-0065,1","10123,1",,,"71,1","7,1,06,1","09,1,+00420,1,99,9",,,,"99999,9,10097,1","7,1,018,1,+999,9","SYN076AAXX  26001 02458 47/15 /0106 11039 21065 30097 40123 57018 77174 333 89/14;",
"02458099999","2010-12-26T03:00:00","4","59.897328","17.588581","20.72","UPPSALA, SW","FM-12","ESCM ","V020","350,1,N,0060,1","00210,1,C,N","001300,1,N,1","-0048,1","-0057,1","10105,1",,,"71,1","7,1,03,1","09,1,+00210,1,99,9",,,,"99999,9,10079,1","8,1,018,1,+999,9","SYN076AAXX  26031 02458 47/13 /3506 11048 21057 30079 40105 58018 77177 333 89/07;",
"02458099999","2010-12-26T06:00:00","4","59.897328","17.588581","20.72","UPPSALA, SW","FM-12","ESCM ","V020","020,1,N,0030,1","00810,1,C,N","005000,1,N,1","-0061,1","-0071,1","10097,1","12,0041,9,2","24,0038,9,2","71,1","7,1,06,1","09,1,+00810,1,99,9",,"120,M,-0034,1","999,N,-0062,1","99999,9,10071,1","7,1,008,1,+999,9","SYN106AAXX  26061 02458 07/50 /0203 11061 21071 30071 40097 57008 60042 77177 333 11034 21062 69925 70038 89/27;",
"02458099999","2010-12-26T09:00:00","4","59.897328","17.588581","20.72","UPPSALA, SW","FM-12","ESCM ","V020","340,1,N,0040,1","00780,1,C,N","007000,1,N,1","-0063,1","-0075,1","10099,1",,,"71,1","7,1,03,1","09,1,+00780,1,99,9",,,,"99999,9,10073,1","2,1,002,1,+999,9","SYN076AAXX  26091 02458 47/57 /3404 11063 21075 30073 40099 52002 77177 333 89/26;",
"02458099999","2010-12-26T12:00:00","4","59.897328","17.588581","20.72","UPPSALA, SW","FM-12","ESCM ","V020","340,1,N,0040,1","00420,1,C,N","030000,1,N,1","-0063,1","-0075,1","10099,1",,,"71,1","7,1,06,1","05,1,+00420,1,99,9",,,,"99999,9,10073,1","4,1,000,1,+999,9","SYN082AAXX  26121 02458 47480 /3404 11063 21075 30073 40099 54000 77177 333 85/14 88/58;",
"02458099999","2010-12-26T15:00:00","4","59.897328","17.588581","20.72","UPPSALA, SW","FM-12","ESCM ","V020","340,1,N,0030,1","99999,9,9,N","019000,1,N,1","-0060,1","-0072,1","10105,1",,,"71,1","7,1,03,1","01,1,+00870,1,99,9","03,1,+00990,1,99,9",,,"99999,9,10079,1","2,1,006,1,+999,9","SYN088AAXX  26151 02458 47569 /3403 11060 21072 30079 40105 52006 77177 333 81/29 83/33 88/42;",
"02458099999","2010-12-26T18:00:00","4","59.897328","17.588581","20.72","UPPSALA, SW","FM-12","ESCM ","V020","010,1,N,0010,1","01410,1,C,N","001900,1,N,1","-0061,1","-0074,1","10117,1","12,0005,9,1",,"71,1","8,1,06,1","09,1,+01410,1,99,9",,"120,M,-0058,1","999,N,-0066,1","99999,9,10090,1","2,1,011,1,+999,9","SYN100AAXX  26181 02458 07/19 /0101 11061 21074 30090 40117 52011 69942 77187 333 11058 21066 69915 89/47;",
"02458099999","2010-12-26T21:00:00","4","59.897328","17.588581","20.72","UPPSALA, SW","FM-12","ESCM ","V020","340,1,N,0020,1","01350,1,C,N","002700,1,N,1","-0065,1","-0073,1","10128,1",,,"71,1","7,1,03,1","09,1,+01350,1,99,9",,,,"99999,9,10102,1","2,1,012,1,+999,9","SYN076AAXX  26211 02458 47/27 /3402 11065 21073 30102 40128 52012 77177 333 89/45;",
"02458099999","2010-12-27T00:00:00","4","59.897328","17.588581","20.72","UPPSALA, SW","FM-12","ESCM ","V020","340,1,N,0010,1","01500,1,C,N","020000,1,N,1","-0067,1","-0077,1","10139,1",,,"00,1","7,1,06,1","08,1,+01500,1,99,9",,,,"99999,9,10112,1","2,1,010,1,+999,9","SYN076AAXX  27001 02458 47770 /3401 11067 21077 30112 40139 52010 70072 333 88/50;",
"02458099999","2010-12-27T03:00:00","4","59.897328","17.588581","20.72","UPPSALA, SW","FM-12","ESCM ","V020","320,1,N,0010,1","01500,1,C,N","012000,1,N,1","-0073,1","-0081,1","10151,1",,,"71,1","7,1,03,1","08,1,+01500,1,99,9",,,,"99999,9,10124,1","2,1,012,1,+999,9","SYN076AAXX  27031 02458 47762 /3201 11073 21081 30124 40151 52012 77170 333 88/50;",
"02458099999","2010-12-27T06:00:00","4","59.897328","17.588581","20.72","UPPSALA, SW","FM-12","ESCM ","V020","310,1,N,0010,1","01500,1,C,N","009000,1,N,1","-0078,1","-0086,1","10166,1","12,0010,9,1","24,0013,9,1","71,1","7,1,06,1","08,1,+01500,1,99,9",,"120,M,-0061,1","999,N,-0079,1","99999,9,10139,1","2,1,014,1,+999,9","SYN100AAXX  27061 02458 17759 /3101 11078 21086 30139 40166 52014 69992 77170 333 11061 21079 70013 88/50;",
"02458099999","2010-12-27T09:00:00","4","59.897328","17.588581","20.72","UPPSALA, SW","FM-12","ESCM ","V020","300,1,N,0010,1","99999,9,9,N","006000,1,N,1","-0072,1","-0080,1","10190,1",,,"85,1","8,1,03,1","01,1,+01440,1,99,9",,,,"99999,9,10163,1","3,1,025,1,+999,9","SYN076AAXX  27091 02458 47656 /3001 11072 21080 30163 40190 53025 78587 333 81/48;",
"02458099999","2010-12-27T12:00:00","4","59.897328","17.588581","20.72","UPPSALA, SW","FM-12","ESCM ","V020","999,9,C,0000,1","00360,1,C,N","000100,1,N,1","-0129,1","-0140,1","10205,1",,,"34,1","8,1,06,1","08,1,+00360,1,99,9",,,,"99999,9,10177,1","3,1,014,1,+999,9","SYN076AAXX  27120 02458 47401 /0000 11129 21140 30177 40205 53014 73487 333 88/12;",
"02458099999","2010-12-27T15:00:00","4","59.897328","17.588581","20.72","UPPSALA, SW","FM-12","ESCM ","V020","150,1,N,0010,1","00420,1,C,N","012000,1,N,1","-0077,1","-0086,1","10220,1",,,"00,1","4,1,03,1","08,1,+00420,1,99,9",,,,"99999,9,10193,1","3,1,016,1,+999,9","SYN076AAXX  27151 02458 47462 /1501 11077 21086 30193 40220 53016 70032 333 88/14;",
"02458099999","2010-12-27T18:00:00","4","59.897328","17.588581","20.72","UPPSALA, SW","FM-12","ESCM ","V020","300,1,N,0020,1","00750,1,C,N","015000,1,N,1","-0065,1","-0072,1","10238,1","12,0005,9,1",,"00,1","4,1,06,1","02,1,+00180,1,99,9","07,1,+00750,1,99,9","120,M,-0061,1","999,N,-0140,1","99999,9,10212,1","3,1,018,1,+999,9","SYN106AAXX  27181 02458 17265 /3002 11065 21072 30212 40238 53018 69942 70032 333 11061 21140 82/06 87/25 88/30;",
"02458099999","2010-12-27T21:00:00","4","59.897328","17.588581","20.72","UPPSALA, SW","FM-12","ESCM ","V020","320,1,N,0020,1","00300,1,C,N","013000,1,N,1","-0063,1","-0070,1","10250,1",,,"71,1","8,1,03,1","08,1,+00300,1,99,9",,,,"99999,9,10223,1","2,1,012,1,+999,9","SYN076AAXX  27211 02458 47463 /3202 11063 21070 30223 40250 52012 77187 333 88/10;",
"02458099999","2010-12-28T00:00:00","4","59.897328","17.588581","20.72","UPPSALA, SW","FM-12","ESCM ","V020","320,1,N,0020,1","01050,1,C,N","012000,1,N,1","-0059,1","-0069,1","10261,1",,,"71,1","8,1,06,1","08,1,+01050,1,99,9",,,,"99999,9,10234,1","2,1,011,1,+999,9","SYN076AAXX  28001 02458 47662 /3202 11059 21069 30234 40261 52011 77187 333 88/35;",
"02458099999","2010-12-28T03:00:00","4","59.897328","17.588581","20.72","UPPSALA, SW","FM-12","ESCM ","V020","310,1,N,0030,1","01080,1,C,N","011000,1,N,1","-0073,1","-0084,1","10267,1",,,"71,1","7,1,03,1","01,1,+00270,1,99,9","06,1,+01080,1,99,9",,,"99999,9,10240,1","2,1,007,1,+999,9","SYN088AAXX  28031 02458 47361 /3103 11073 21084 30240 40267 52007 77177 333 81/09 86/36 88/50;",
"02458099999","2010-12-28T06:00:00","4","59.897328","17.588581","20.72","UPPSALA, SW","FM-12","ESCM ","V020","320,1,N,0020,1","00270,1,C,N","035000,1,N,1","-0070,1","-0083,1","10274,1","12,0005,9,1","24,0008,9,1","71,1","7,1,06,1","08,1,+00270,1,99,9",,"120,M,-0055,1","999,N,-0073,1","99999,9,10247,1","2,1,007,1,+999,9","SYN100AAXX  28061 02458 17381 /3202 11070 21083 30247 40274 52007 69942 77177 333 11055 21073 70008 88/09;",
"02458099999","2010-12-28T09:00:00","4","59.897328","17.588581","20.72","UPPSALA, SW","FM-12","ESCM ","V020","300,1,N,0040,1","00210,1,C,N","029000,1,N,1","-0070,1","-0083,1","10279,1",,,"00,1","7,1,03,1","08,1,+00210,1,99,9",,,,"99999,9,10252,1","2,1,005,1,+999,9","SYN076AAXX  28091 02458 47379 /3004 11070 21083 30252 40279 52005 70072 333 88/07;",
"02458099999","2010-12-28T12:00:00","4","59.897328","17.588581","20.72","UPPSALA, SW","FM-12","ESCM ","V020","300,1,N,0050,1","00210,1,C,N","016000,1,N,1","-0066,1","-0076,1","10278,1",,,"00,1","7,1,06,1","08,1,+00210,1,99,9",,,,"99999,9,10251,1","7,1,001,1,+999,9","SYN076AAXX  28121 02458 47366 /3005 11066 21076 30251 40278 57001 70072 333 88/07;",
"02458099999","2010-12-28T15:00:00","4","59.897328","17.588581","20.72","UPPSALA, SW","FM-12","ESCM ","V020","310,1,N,0050,1","00270,1,C,N","016000,1,N,1","-0060,1","-0073,1","10275,1",,,"78,1","7,1,03,1","08,1,+00270,1,99,9",,,,"99999,9,10248,1","5,1,003,1,+999,9","SYN076AAXX  28151 02458 47366 /3105 11060 21073 30248 40275 55003 77870 333 88/09;",
"02458099999","2010-12-28T18:00:00","4","59.897328","17.588581","20.72","UPPSALA, SW","FM-12","ESCM ","V020","320,1,N,0030,1","00180,1,C,N","012000,1,N,1","-0058,1","-0069,1","10279,1","12,0000,2,1",,"71,1","8,1,06,1","08,1,+00180,1,99,9",,"120,M,-0056,1","999,N,-0073,1","99999,9,10252,1","2,1,004,1,+999,9","SYN100AAXX  28181 02458 07362 /3203 11058 21069 30252 40279 52004 69912 77187 333 11056 21073 69915 88/06;",
"02458099999","2010-12-28T21:00:00","4","59.897328","17.588581","20.72","UPPSALA, SW","FM-12","ESCM ","V020","330,1,N,0040,1","00210,1,C,N","012000,1,N,1","-0058,1","-0068,1","10282,1",,,"71,1","7,1,03,1","08,1,+00210,1,99,9",,,,"99999,9,10255,1","3,1,003,1,+999,9","SYN076AAXX  28211 02458 47362 /3304 11058 21068 30255 40282 53003 77177 333 88/07;",
"02458099999","2010-12-29T00:00:00","4","59.897328","17.588581","20.72","UPPSALA, SW","FM-12","ESCM ","V020","330,1,N,0040,1","00180,1,C,N","008000,1,N,1","-0059,1","-0067,1","10278,1",,,"77,1","8,1,06,1","08,1,+00180,1,99,9",,,,"99999,9,10251,1","8,1,004,1,+999,9","SYN076AAXX  29001 02458 47258 /3304 11059 21067 30251 40278 58004 77787 333 88/06;",
"02458099999","2010-12-29T03:00:00","4","59.897328","17.588581","20.72","UPPSALA, SW","FM-12","ESCM ","V020","330,1,N,0040,1","00150,1,C,N","006000,1,N,1","-0060,1","-0067,1","10281,1",,,"10,1","7,1,03,1","08,1,+00150,1,99,9",,,,"99999,9,10254,1","2,1,004,1,+999,9","SYN076AAXX  29031 02458 47256 /3304 11060 21067 30254 40281 52004 71072 333 88/05;",
"02458099999","2010-12-29T06:00:00","4","59.897328","17.588581","20.72","UPPSALA, SW","FM-12","ESCM ","V020","350,1,N,0020,1","00150,1,C,N","006000,1,N,1","-0060,1","-0066,1","10280,1","24,0000,2,1",,"10,1","7,1,06,1","09,1,+00150,1,99,9",,"120,M,-0057,1","999,N,-0060,1","99999,9,10253,1","8,1,001,1,+999,9","SYN094AAXX  29061 02458 37/56 /3502 11060 21066 30253 40280 58001 71072 333 11057 21060 70001 89/05;",
"02458099999","2010-12-29T09:00:00","4","59.897328","17.588581","20.72","UPPSALA, SW","FM-12","ESCM ","V020","330,1,N,0020,1","00180,1,C,N","003600,1,N,1","-0058,1","-0064,1","10285,1",,,"10,1","2,1,03,1","09,1,+00180,1,99,9",,,,"99999,9,10258,1","2,1,005,1,+999,9","SYN076AAXX  29091 02458 47/36 /3302 11058 21064 30258 40285 52005 71011 333 89/06;",
"02458099999","2010-12-29T12:00:00","4","59.897328","17.588581","20.72","UPPSALA, SW","FM-12","ESCM ","V020","350,1,N,0020,1","00150,1,C,N","006000,1,N,1","-0056,1","-0063,1","10276,1",,,"10,1","2,1,06,1","08,1,+00150,1,99,9",,,,"99999,9,10249,1","7,1,009,1,+999,9","SYN076AAXX  29121 02458 47256 /3502 11056 21063 30249 40276 57009 71011 333 88/05;",
"02458099999","2010-12-29T15:00:00","4","59.897328","17.588581","20.72","UPPSALA, SW","FM-12","ESCM ","V020","310,1,N,0020,1","00150,1,C,N","001900,1,N,1","-0055,1","-0060,1","10266,1",,,"10,1","2,1,03,1","09,1,+00150,1,99,9",,,,"99999,9,10239,1","7,1,010,1,+999,9","SYN076AAXX  29151 02458 47/19 /3102 11055 21060 30239 40266 57010 71011 333 89/05;",
"02458099999","2010-12-29T18:00:00","4","59.897328","17.588581","20.72","UPPSALA, SW","FM-12","ESCM ","V020","310,1,N,0030,1","99999,9,9,N","011000,1,N,1","-0058,1","-0065,1","10258,1",,,,,"03,1,+00210,1,99,9",,"120,M,-0054,1","999,N,-0060,1","99999,9,10231,1","6,1,009,1,+999,9","SYN088AAXX  29181 02458 35361 /3103 11058 21065 30231 40258 56009 333 11054 21060 83/07 88/14;",
"02458099999","2010-12-29T21:00:00","4","59.897328","17.588581","20.72","UPPSALA, SW","FM-12","ESCM ","V020","320,1,N,0020,1","99999,9,9,N","012000,1,N,1","-0059,1","-0067,1","10242,1",,,"78,1","7,1,03,1","01,1,+00300,1,99,9",,,,"99999,9,10215,1","8,1,015,1,+999,9","SYN082AAXX  29211 02458 47462 /3202 11059 21067 30215 40242 58015 77870 333 81/10 88/12;",
"02458099999","2010-12-30T00:00:00","4","59.897328","17.588581","20.72","UPPSALA, SW","FM-12","ESCM ","V020","300,1,N,0020,1","00360,1,C,N","012000,1,N,1","-0060,1","-0069,1","10220,1",,,"77,1","7,1,06,1","08,1,+00360,1,99,9",,,,"99999,9,10194,1","8,1,022,1,+999,9","SYN076AAXX  30001 02458 47462 /3002 11060 21069 30194 40220 58022 77770 333 88/12;",
"02458099999","2010-12-30T03:00:00","4","59.897328","17.588581","20.72","UPPSALA, SW","FM-12","ESCM ","V020","290,1,N,0040,1","00150,1,C,N","005000,1,N,1","-0058,1","-0064,1","10196,1",,,"10,1","7,1,03,1","08,1,+00150,1,99,9",,,,"99999,9,10170,1","8,1,024,1,+999,9","SYN076AAXX  30031 02458 47250 /2904 11058 21064 30170 40196 58024 71072 333 88/05;",
"02458099999","2010-12-30T06:00:00","4","59.897328","17.588581","20.72","UPPSALA, SW","FM-12","ESCM ","V020","300,1,N,0020,1","00180,1,C,N","009000,1,N,1","-0066,1","-0074,1","10177,1",,,"00,1","7,1,06,1","08,1,+00180,1,99,9",,"120,M,-0058,1","999,N,-0066,1","99999,9,10150,1","7,1,019,1,+999,9","SYN088AAXX  30061 02458 37259 /3002 11066 21074 30150 40177 57019 70072 333 11058 21066 88/06;",
"02458099999","2010-12-30T09:00:00","4","59.897328","17.588581","20.72","UPPSALA, SW","FM-12","ESCM ","V020","260,1,N,0020,1","00210,1,C,N","026000,1,N,1","-0073,1","-0084,1","10155,1",,,,,"08,1,+00210,1,99,9",,,,"99999,9,10129,1","7,1,022,1,+999,9","SYN070AAXX  30091 02458 45376 /2602 11073 21084 30129 40155 57022 333 88/07;",
"02458099999","2010-12-30T12:00:00","4","59.897328","17.588581","20.72","UPPSALA, SW","FM-12","ESCM ","V020","240,1,N,0020,1","00240,1,C,N","045000,1,N,1","-0081,1","-0093,1","10130,1",,,,,"08,1,+00240,1,99,9",,,,"99999,9,10103,1","6,1,026,1,+999,9","SYN070AAXX  30121 02458 45383 /2402 11081 21093 30103 40130 56026 333 88/08;",
"02458099999","2010-12-30T15:00:00","4","59.897328","17.588581","20.72","UPPSALA, SW","FM-12","ESCM ","V020","200,1,N,0030,1","01500,1,C,N","013000,1,N,1","-0097,1","-0111,1","10102,1",,,"71,1","8,1,03,1","08,1,+01500,1,99,9",,,,"99999,9,10075,1","8,1,027,1,+999,9","SYN076AAXX  30151 02458 47763 /2003 11097 21111 30075 40102 58027 77187 333 88/50;",
"02458099999","2010-12-30T18:00:00","4","59.897328","17.588581","20.72","UPPSALA, SW","FM-12","ESCM ","V020","230,1,N,0020,1","02700,1,C,N","050000,1,N,1","-0092,1","-0105,1","10083,1","12,0005,9,1",,"24,1","8,1,06,1","07,1,+02700,1,99,9",,"120,M,-0066,1","999,N,-0099,1","99999,9,10057,1","8,1,019,1,+999,9","SYN094AAXX  30181 02458 17984 /2302 11092 21105 30057 40083 58019 69942 72487 333 11066 21099 87/59;",
"02458099999","2010-12-30T21:00:00","4","59.897328","17.588581","20.72","UPPSALA, SW","FM-12","ESCM ","V020","999,9,C,0000,1","99999,9,9,N","050000,1,N,1","-0092,1","-0104,1","10081,1",,,"24,1","8,1,03,1","02,1,+01800,1,99,9",,,,"99999,9,10054,1","5,1,002,1,+999,9","SYN082AAXX  30211 02458 47884 /0000 11092 21104 30054 40081 55002 72487 333 82/56 87/61;",
"02458099999","2010-12-31T00:00:00","4","59.897328","17.588581","20.72","UPPSALA, SW","FM-12","ESCM ","V020","290,1,N,0050,1","99999,9,9,N","050000,1,N,1","-0068,1","-0084,1","10077,1",,,"00,1","8,1,06,1",,,,,"99999,9,10050,1","5,1,004,1,+999,9","SYN066AAXX  31001 02458 47984 /2905 11068 21084 30050 40077 55004 70087;",
"02458099999","2010-12-31T03:00:00","4","59.897328","17.588581","20.72","UPPSALA, SW","FM-12","ESCM ","V020","290,1,N,0050,1","99999,9,9,N","050000,1,N,1","-0062,1","-0084,1","10083,1",,,,,,,,,"99999,9,10057,1","0,1,006,1,+999,9","SYN060AAXX  31031 02458 45984 /2905 11062 21084 30057 40083 50006;",
"02458099999","2010-12-31T06:00:00","4","59.897328","17.588581","20.72","UPPSALA, SW","FM-12","ESCM ","V020","330,1,N,0020,1","99999,9,9,N","050000,1,N,1","-0083,1","-0103,1","10085,1","24,0005,9,1",,,,,,"120,M,-0056,1","999,N,-0107,1","99999,9,10058,1","3,1,001,1,+999,9","SYN082AAXX  31061 02458 35984 /3302 11083 21103 30058 40085 53001 333 11056 21107 70004;",
"02458099999","2010-12-31T09:00:00","4","59.897328","17.588581","20.72","UPPSALA, SW","FM-12","ESCM ","V020","300,1,N,0040,1","99999,9,9,N","050000,1,N,1","-0074,1","-0093,1","10085,1",,,,,,,,,"99999,9,10058,1","0,1,000,1,+999,9","SYN060AAXX  31091 02458 45984 /3004 11074 21093 30058 40085 50000;",
"02458099999","2010-12-31T12:00:00","4","59.897328","17.588581","20.72","UPPSALA, SW","FM-12","ESCM ","V020","220,1,N,0020,1","99999,9,9,N","050000,1,N,1","-0054,1","-0080,1","10066,1",,,,,,,,,"99999,9,10040,1","6,1,018,1,+999,9","SYN060AAXX  31121 02458 45984 /2202 11054 21080 30040 40066 56018;",
"02458099999","2010-12-31T15:00:00","4","59.897328","17.588581","20.72","UPPSALA, SW","FM-12","ESCM ","V020","210,1,N,0050,1","99999,9,9,N","050000,1,N,1","-0072,1","-0086,1","10035,1",,,,,,,,,"99999,9,10009,1","8,1,031,1,+999,9","SYN060AAXX  31151 02458 45984 /2105 11072 21086 30009 40035 58031;",
"02458099999","2010-12-31T18:00:00","4","59.897328","17.588581","20.72","UPPSALA, SW","FM-12","ESCM ","V020","200,1,N,0040,1","01350,1,C,N","035000,1,N,1","-0059,1","-0073,1","09979,1",,,,,"07,1,+01350,1,99,9",,"120,M,-0034,1","999,N,-0107,1","99999,9,09952,1","8,1,056,1,+999,9","SYN088AAXX  31181 02458 35681 /2004 11059 21073 39952 49979 58056 333 11034 21107 87/45 88/50;",
"02458099999","2010-12-31T21:00:00","4","59.897328","17.588581","20.72","UPPSALA, SW","FM-12","ESCM ","V020","160,1,N,0040,1","00180,1,C,N","000700,1,N,1","-0037,1","-0042,1","09891,2",,,"72,1","7,1,03,1","09,1,+00180,1,99,9",,,,"99999,9,09865,2","8,1,087,1,+999,9","SYN076AAXX  31211 02458 47/07 /1604 11037 21042 39865 49891 58087 77277 333 89/06;",
