"STATION","DATE","SOURCE","LATITUDE","LONGITUDE","ELEVATION","NAME","REPORT_TYPE","CALL_SIGN","QUALITY_CONTROL","WND","CIG","VIS","TMP","DEW","SLP","AW1","AZ1","GA1","GF1","MA1","MD1","SA1","REM","EQD"
"02795099999","2010-01-01T00:00:00","4","60.1","24.9833333","6.4","HELSINKI HARMAJA, FI","FM-12","99999","V020","040,1,N,0060,1","22000,1,9,N","008000,1,N,1","-0090,1","-0104,1","10022,1","64,1","8,1,06,1",,"03,99,1,03,1,99,9,00250,1,99,9,99,9","99999,9,10014,1","2,1,008,1,+999,9","-002,9","SYN106AAXX  01001 02795 47358 30406 11090 21104 30014 40022 52008 76486 83/// 92339 222// 01002 555 789// 0/207;",
"02795099999","2010-01-01T03:00:00","4","60.1","24.9833333","6.4","HELSINKI HARMAJA, FI","FM-12","99999","V020","040,1,N,0070,1","22000,1,9,N","010000,1,N,1","-0089,1","-0103,1","10033,1","64,1","7,1,03,1",,"01,99,1,01,1,99,9,00450,1,99,9,99,9","99999,9,10024,1","2,1,010,1,+999,9","-001,9","SYN106AAXX  01031 02795 47460 10407 11089 21103 30024 40033 52010 76476 81/// 90239 222// 01001 555 790// 0/408;",
"02795099999","2010-01-01T09:00:00","4","60.1","24.9833333","6.4","HELSINKI HARMAJA, FI","FM-12","99999","V020","050,1,N,0080,1","22000,1,9,N","011000,1,N,1","-0105,1","-0119,1","10066,1","00,1","6,1,03,1","00,1,+99999,9,99,9","00,99,1,00,1,00,1,99999,9,00,1,00,1","99999,9,10058,1","2,1,022,1,+999,9","-002,9","SYN100AAXX  01091 02795 47961 00508 11105 21119 30058 40066 52022 70060 90839 222// 01002 555 789// 0/309;",
"02795099999","2010-01-01T12:00:00","4","60.1","24.9833333","6.4","HELSINKI HARMAJA, FI","FM-12","99999","V020","030,1,N,0090,1","22000,1,9,N","028000,1,N,1","-0112,1","-0131,1","10081,1","00,1","8,1,06,1","00,1,+99999,9,99,9","00,99,1,00,1,00,1,99999,9,00,1,00,1","99999,9,10073,1","2,1,015,1,+999,9","-002,9","SYN100AAXX  01121 02795 47978 00309 11112 21131 30073 40081 52015 70086 91139 222// 01002 555 786// 0/009;",
"02795099999","2010-01-01T15:00:00","4","60.1","24.9833333","6.4","HELSINKI HARMAJA, FI","FM-12","99999","V020","040,1,N,0080,1","22000,1,9,N","029000,1,N,1","-0122,1","-0141,1","10100,1","00,1","0,1,03,1","00,1,+99999,9,99,9","00,99,1,00,1,00,1,99999,9,00,1,00,1","99999,9,10092,1","2,1,019,1,+999,9","-002,9","SYN100AAXX  01151 02795 47979 00408 11122 21141 30092 40100 52019 70000 91439 222// 01002 555 786// 0/309;",
"02795099999","2010-01-01T21:00:00","4","60.1","24.9833333","6.4","HELSINKI HARMAJA, FI","FM-12","99999","V020","020,1,N,0080,1","22000,1,9,N","003900,1,N,1","-0151,1","-0171,1","10133,1","10,1","5,1,03,1","00,1,+99999,9,99,9","00,99,1,00,1,00,1,99999,9,00,1,00,1","99999,9,10124,1","2,1,016,1,+999,9","-002,9","SYN100AAXX  01211 02795 47939 00208 11151 21171 30124 40133 52016 71054 92039 222// 01002 555 785// 0/609;",
"02795099999","2010-01-02T00:00:00","4","60.1","24.9833333","6.4","HELSINKI HARMAJA, FI","FM-12","99999","V020","020,1,N,0060,1","22000,1,9,N","001900,1,N,1","-0163,1","-0184,1","10140,1","10,1",,"00,1,+99999,9,99,9","00,99,1,00,1,00,1,99999,9,00,1,00,1","99999,9,10132,1","2,1,008,1,+999,9","-001,9","SYN100AAXX  02001 02795 47919 00206 11163 21184 30132 40140 52008 710// 92339 222// 01001 555 783// 0/608;",
"02795099999","2010-01-02T03:00:00","4","60.1","24.9833333","6.4","HELSINKI HARMAJA, FI","FM-12","99999","V020","030,1,N,0060,1","99999,9,9,N","006000,1,N,1","-0160,1","-0181,1","10144,1","10,1",,,"05,99,1,05,1,99,9,00800,1,99,9,99,9","99999,9,10136,1","2,1,004,1,+999,9","-002,9","SYN106AAXX  02031 02795 47556 50306 11160 21181 30136 40144 52004 710// 85/// 90239 222// 01002 555 784// 0/407;",
"02795099999","2010-01-02T09:00:00","4","60.1","24.9833333","6.4","HELSINKI HARMAJA, FI","FM-12","99999","V020","030,1,N,0080,1","22000,1,9,N","002500,1,N,1","-0147,1","-0166,1","10167,1","10,1",,"00,1,+99999,9,99,9","00,99,1,00,1,00,1,99999,9,00,1,00,1","99999,9,10158,1","2,1,013,1,+999,9","-002,9","SYN100AAXX  02091 02795 47925 00308 11147 21166 30158 40167 52013 710// 90839 222// 01002 555 785// 0/009;",
"02795099999","2010-01-02T12:00:00","4","60.1","24.9833333","6.4","HELSINKI HARMAJA, FI","FM-12","99999","V020","020,1,N,0070,1","22000,1,9,N","027000,1,N,1","-0143,1","-0162,1","10171,1","00,1",,"00,1,+99999,9,99,9","00,99,1,00,1,00,1,99999,9,00,1,00,1","99999,9,10163,1","2,1,004,1,+999,9","-002,9","SYN100AAXX  02121 02795 47977 00207 11143 21162 30163 40171 52004 700// 91139 222// 01002 555 785// 0/608;",
"02795099999","2010-01-02T15:00:00","4","60.1","24.9833333","6.4","HELSINKI HARMAJA, FI","FM-12","99999","V020","010,1,N,0060,1","22000,1,9,N","026000,1,N,1","-0145,1","-0163,1","10174,1","00,1","0,1,03,1","00,1,+99999,9,99,9","00,99,1,00,1,00,1,99999,9,00,1,00,1","99999,9,10165,1","2,1,002,1,+999,9","-002,9","SYN100AAXX  02151 02795 47976 00106 11145 21163 30165 40174 52002 70000 91439 222// 01002 555 786// 0/608;",
"02795099999","2010-01-02T21:00:00","4","60.1","24.9833333","6.4","HELSINKI HARMAJA, FI","FM-12","99999","V020","360,1,N,0060,1","22000,1,9,N","022000,1,N,1","-0164,1","-0186,1","10179,1","00,1",,"00,1,+99999,9,99,9","00,99,1,00,1,00,1,99999,9,00,1,00,1","99999,9,10170,1","2,1,003,1,+999,9","-002,9","SYN100AAXX  02211 02795 47972 03606 11164 21186 30170 40179 52003 700// 92039 222// 01002 555 783// 0/006;",
"02795099999","2010-01-03T00:00:00","4","60.1","24.9833333","6.4","HELSINKI HARMAJA, FI","FM-12","99999","V020","360,1,N,0050,1","22000,1,9,N","017000,1,N,1","-0173,1","-0196,1","10170,1","25,1",,"00,1,+99999,9,99,9","00,99,1,00,1,00,1,99999,9,00,1,00,1","99999,9,10161,1","7,1,009,1,+999,9","-002,9","SYN100AAXX  03001 02795 47967 03605 11173 21196 30161 40170 57009 725// 92339 222// 01002 555 782// 0/306;",
"02795099999","2010-01-03T03:00:00","4","60.1","24.9833333","6.4","HELSINKI HARMAJA, FI","FM-12","99999","V020","360,1,N,0030,1","22000,1,9,N","999999,9,N,1","-0170,1","-0192,1","10160,1",,,,"03,99,1,03,1,99,9,00800,1,99,9,99,9","99999,9,10152,1","7,1,010,1,+999,9","-002,9","SYN100AAXX  03031 02795 465// 33603 11170 21192 30152 40160 57010 83/// 90239 222// 01002 555 783// 0/605;",
"02795099999","2010-01-03T09:00:00","4","60.1","24.9833333","6.4","HELSINKI HARMAJA, FI","FM-12","99999","V020","250,1,N,0010,1","22000,1,9,N","040000,1,N,1","-0140,1","-0159,1","10137,1","00,1",,"00,1,+99999,9,99,9","00,99,1,00,1,00,1,99999,9,00,1,00,1","99999,9,10128,1","7,1,009,1,+999,9","-002,9","SYN100AAXX  03091 02795 47982 02501 11140 21159 30128 40137 57009 700// 90839 222// 01002 555 785// 0/502;",
"02795099999","2010-01-03T12:00:00","4","60.1","24.9833333","6.4","HELSINKI HARMAJA, FI","FM-12","99999","V020","210,1,N,0040,1","22000,1,9,N","006000,1,N,1","-0092,1","-0105,1","10106,1","64,1",,,"03,99,1,03,1,99,9,00075,1,99,9,99,9","99999,9,10097,1","7,1,031,1,+999,9","-002,9","SYN106AAXX  03121 02795 47156 32104 11092 21105 30097 40106 57031 764// 83/// 91139 222// 01002 555 790// 0/304;",
"02795099999","2010-01-03T15:00:00","4","60.1","24.9833333","6.4","HELSINKI HARMAJA, FI","FM-12","99999","V020","220,1,N,0120,1","99999,9,9,N","000900,1,N,1","-0044,1","-0052,1","10074,1","71,1","7,1,03,1",,"07,99,1,07,1,99,9,00250,1,99,9,99,9","99999,9,10066,1","7,1,032,1,+999,9","-002,9","SYN106AAXX  03151 02795 47309 72212 11044 21052 30066 40074 57032 77176 87/// 91439 222// 01002 555 795// 0/012;",
"02795099999","2010-01-03T21:00:00","4","60.1","24.9833333","6.4","HELSINKI HARMAJA, FI","FM-12","99999","V020","250,1,N,0080,1","99999,9,9,N","014000,1,N,1","-0019,1","-0025,1","10025,1","64,1","7,1,03,1",,"05,99,1,05,1,99,9,00250,1,99,9,99,9","99999,9,10017,1","7,1,020,1,+999,9","-002,9","SYN106AAXX  03211 02795 47364 52508 11019 21025 30017 40025 57020 76476 85/// 92039 222// 01002 555 796// 0/309;",
"02795099999","2010-01-04T00:00:00","4","60.1","24.9833333","6.4","HELSINKI HARMAJA, FI","FM-12","99999","V020","300,1,N,0060,1","99999,9,9,N","035000,1,N,1","-0029,1","-0035,1","10025,1","54,1","7,1,06,1",,"07,99,1,07,1,99,9,00250,1,99,9,99,9","99999,9,10017,1","4,1,000,1,+999,9","-003,9","SYN106AAXX  04001 02795 47381 73006 11029 21035 30017 40025 54000 75476 87/// 92339 222// 01003 555 795// 0/608;",
"02795099999","2010-01-04T03:00:00","4","60.1","24.9833333","6.4","HELSINKI HARMAJA, FI","FM-12","99999","V020","260,1,N,0050,1","99999,9,9,N","035000,1,N,1","-0042,1","-0050,1","10026,1","00,1","8,1,03,1",,"05,99,1,05,1,99,9,00150,1,99,9,99,9","99999,9,10018,1","4,1,000,1,+999,9","-002,9","SYN106AAXX  04031 02795 47281 52605 11042 21050 30018 40026 54001 70085 85/// 90239 222// 01002 555 794// 0/606;",
"02795099999","2010-01-04T09:00:00","4","60.1","24.9833333","6.4","HELSINKI HARMAJA, FI","FM-12","99999","V020","240,1,N,0070,1","22000,1,9,N","050000,1,N,1","-0023,1","-0036,1","10021,1","00,1","0,1,03,1","00,1,+99999,9,99,9","00,99,1,00,1,00,1,99999,9,00,1,00,1","99999,9,10013,1","4,1,000,1,+999,9","-003,9","SYN100AAXX  04091 02795 47999 02407 11023 21036 30013 40021 54002 70000 90839 222// 01003 555 791// 0/007;",
"02795099999","2010-01-04T12:00:00","4","60.1","24.9833333","6.4","HELSINKI HARMAJA, FI","FM-12","99999","V020","240,1,N,0050,1","22000,1,9,N","050000,1,N,1","-0010,1","-0038,1","10010,1","00,1","0,1,06,1","00,1,+99999,9,99,9","00,99,1,00,1,00,1,99999,9,00,1,00,1","99999,9,10002,1","7,1,011,1,+999,9","-002,9","SYN100AAXX  04121 02795 47999 02405 11010 21038 30002 40010 57011 70000 91139 222// 01002 555 781// 0/607;",
"02795099999","2010-01-04T15:00:00","4","60.1","24.9833333","6.4","HELSINKI HARMAJA, FI","FM-12","99999","V020","240,1,N,0060,1","22000,1,9,N","050000,1,N,1","-0008,1","-0042,1","10005,1","00,1","0,1,03,1","00,1,+99999,9,99,9","00,99,1,00,1,00,1,99999,9,00,1,00,1","99999,9,09997,1","7,1,004,1,+999,9","-002,9","SYN100AAXX  04151 02795 47999 02406 11008 21042 39997 40005 57004 70000 91439 222// 01002 555 778// 0/307;",
"02795099999","2010-01-04T21:00:00","4","60.1","24.9833333","6.4","HELSINKI HARMAJA, FI","FM-12","99999","V020","190,1,N,0090,1","99999,9,9,N","011000,1,N,1","-0008,1","-0017,1","09993,1","41,1","7,1,03,1",,"05,99,1,05,1,99,9,00250,1,99,9,99,9","99999,9,09985,1","7,1,006,1,+999,9","+000,9","SYN106AAXX  04211 02795 47361 51909 11008 21017 39985 49993 57006 74176 85/// 92039 222// 00000 555 794// 0/412;",
"02795099999","2010-01-05T00:00:00","4","60.1","24.9833333","6.4","HELSINKI HARMAJA, FI","FM-12","99999","V020","250,1,N,0040,1","99999,9,9,N","014000,1,N,1","-0016,1","-0023,1","09989,1","41,1","8,1,06,1",,"07,99,1,07,1,99,9,00150,1,99,9,99,9","99999,9,09981,1","7,1,004,1,+999,9","-002,9","SYN106AAXX  05001 02795 47264 72504 11016 21023 39981 49989 57004 74187 87/// 92339 222// 01002 555 795// 0/609;",
"02795099999","2010-01-05T03:00:00","4","60.1","24.9833333","6.4","HELSINKI HARMAJA, FI","FM-12","99999","V020","260,1,N,0070,1","22000,1,9,N","019000,1,N,1","-0028,1","-0041,1","09989,1","54,1","8,1,03,1",,"01,99,1,01,1,99,9,00450,1,99,9,99,9","99999,9,09981,1","4,1,000,1,+999,9","-002,9","SYN106AAXX  05031 02795 47469 12607 11028 21041 39981 49989 54000 75486 81/// 90239 222// 01002 555 791// 0/009;",
"02795099999","2010-01-05T09:00:00","4","60.1","24.9833333","6.4","HELSINKI HARMAJA, FI","FM-12","99999","V020","270,1,N,0090,1","22000,1,9,N","015000,1,N,1","-0077,1","-0102,1","10024,1","64,1","8,1,03,1","00,1,+99999,9,99,9","00,99,1,00,1,00,1,99999,9,00,1,00,1","99999,9,10015,1","2,1,018,1,+999,9","-002,9","SYN100AAXX  05091 02795 47965 02709 11077 21102 30015 40024 52018 76486 90839 222// 01002 555 782// 0/010;",
"02795099999","2010-01-05T12:00:00","4","60.1","24.9833333","6.4","HELSINKI HARMAJA, FI","FM-12","99999","V020","280,1,N,0060,1","22000,1,9,N","040000,1,N,1","-0104,1","-0133,1","10047,1","00,1","8,1,06,1",,"01,99,1,01,1,99,9,00450,1,99,9,99,9","99999,9,10038,1","2,1,023,1,+999,9","-003,9","SYN106AAXX  05121 02795 47482 12806 11104 21133 30038 40047 52023 70086 81/// 91139 222// 01003 555 779// 0/310;",
"02795099999","2010-01-05T15:00:00","4","60.1","24.9833333","6.4","HELSINKI HARMAJA, FI","FM-12","99999","V020","280,1,N,0080,1","22000,1,9,N","035000,1,N,1","-0118,1","-0146,1","10072,1","00,1","0,1,03,1","00,1,+99999,9,99,9","00,99,1,00,1,00,1,99999,9,00,1,00,1","99999,9,10064,1","2,1,026,1,+999,9","-003,9","SYN100AAXX  05151 02795 47981 02808 11118 21146 30064 40072 52026 70000 91439 222// 01003 555 779// 0/109;",
"02795099999","2010-01-05T21:00:00","4","60.1","24.9833333","6.4","HELSINKI HARMAJA, FI","FM-12","99999","V020","250,1,N,0030,1","22000,1,9,N","050000,1,N,1","-0103,1","-0143,1","10108,1","00,1","0,1,03,1","00,1,+99999,9,99,9","00,99,1,00,1,00,1,99999,9,00,1,00,1","99999,9,10099,1","2,1,019,1,+999,9","-003,9","SYN100AAXX  05211 02795 47999 02503 11103 21143 30099 40108 52019 70000 92039 222// 01003 555 772// 0/506;",
"02795099999","2010-01-06T00:00:00","4","60.1","24.9833333","6.4","HELSINKI HARMAJA, FI","FM-12","99999","V020","020,1,N,0020,1","22000,1,9,N","050000,1,N,1","-0106,1","-0140,1","10118,1","00,1","0,1,06,1","00,1,+99999,9,99,9","00,99,1,00,1,00,1,99999,9,00,1,00,1","99999,9,10109,1","2,1,010,1,+999,9","-003,9","SYN100AAXX  06001 02795 47999 00202 11106 21140 30109 40118 52010 70000 92339 222// 01003 555 776// 0/403;",
"02795099999","2010-01-06T03:00:00","4","60.1","24.9833333","6.4","HELSINKI HARMAJA, FI","FM-12","99999","V020","030,1,N,0040,1","22000,1,9,N","050000,1,N,1","-0104,1","-0131,1","10120,1","00,1","0,1,03,1",,"01,99,1,01,1,99,9,00800,1,99,9,99,9","99999,9,10111,1","4,1,000,1,+999,9","-002,9","SYN106AAXX  06031 02795 47599 10304 11104 21131 30111 40120 54002 70000 81/// 90239 222// 01002 555 780// 0/004;",
"02795099999","2010-01-06T09:00:00","4","60.1","24.9833333","6.4","HELSINKI HARMAJA, FI","FM-12","99999","V020","030,1,N,0040,1","99999,9,9,N","045000,1,N,1","-0084,1","-0101,1","10146,1","54,1","7,1,03,1",,"05,99,1,05,1,99,9,00450,1,99,9,99,9","99999,9,10137,1","2,1,020,1,+999,9","-002,9","SYN106AAXX  06091 02795 47483 50304 11084 21101 30137 40146 52020 75476 85/// 90839 222// 01002 555 788// 0/505;",
"02795099999","2010-01-06T12:00:00","4","60.1","24.9833333","6.4","HELSINKI HARMAJA, FI","FM-12","99999","V020","030,1,N,0030,1","22000,1,9,N","024000,1,N,1","-0077,1","-0095,1","10155,1","54,1","8,1,06,1",,"01,99,1,01,1,99,9,00250,1,99,9,99,9","99999,9,10147,1","2,1,010,1,+999,9","-002,9","SYN106AAXX  06121 02795 47374 10303 11077 21095 30147 40155 52010 75487 81/// 91139 222// 01002 555 787// 0/603;",
"02795099999","2010-01-06T15:00:00","4","60.1","24.9833333","6.4","HELSINKI HARMAJA, FI","FM-12","99999","V020","060,1,N,0030,1","99999,9,9,N","018000,1,N,1","-0082,1","-0095,1","10164,1","64,1","8,1,03,1",,"07,99,1,07,1,99,9,00250,1,99,9,99,9","99999,9,10156,1","2,1,008,1,+999,9","-002,9","SYN106AAXX  06151 02795 47368 70603 11082 21095 30156 40164 52008 76486 87/// 91439 222// 01002 555 790// 0/103;",
"02795099999","2010-01-06T21:00:00","4","60.1","24.9833333","6.4","HELSINKI HARMAJA, FI","FM-12","99999","V020","060,1,N,0070,1","99999,9,9,N","016000,1,N,1","-0080,1","-0093,1","10163,1","54,1","6,1,03,1",,"07,99,1,07,1,99,9,00450,1,99,9,99,9","99999,9,10154,1","4,1,000,1,+999,9","-002,9","SYN106AAXX  06211 02795 47466 70607 11080 21093 30154 40163 54000 75465 87/// 92039 222// 01002 555 791// 0/207;",
"02795099999","2010-01-07T00:00:00","4","60.1","24.9833333","6.4","HELSINKI HARMAJA, FI","FM-12","99999","V020","060,1,N,0060,1","99999,9,9,N","014000,1,N,1","-0069,1","-0081,1","10150,1","00,1","6,1,06,1",,"08,99,1,08,1,99,9,00250,1,99,9,99,9","99999,9,10142,1","7,1,012,1,+999,9","-002,9","SYN106AAXX  07001 02795 47364 80606 11069 21081 30142 40150 57012 70065 88/// 92339 222// 01002 555 792// 0/607;",
"02795099999","2010-01-07T03:00:00","4","60.1","24.9833333","6.4","HELSINKI HARMAJA, FI","FM-12","99999","V020","050,1,N,0070,1","99999,9,9,N","009000,1,N,1","-0060,1","-0074,1","10133,1","54,1","5,1,03,1",,"07,99,1,07,1,99,9,00450,1,99,9,99,9","99999,9,10125,1","7,1,017,1,+999,9","-002,9","SYN106AAXX  07031 02795 47459 70507 11060 21074 30125 40133 57017 75454 87/// 90239 222// 01002 555 790// 0/008;",
"02795099999","2010-01-07T09:00:00","4","60.1","24.9833333","6.4","HELSINKI HARMAJA, FI","FM-12","99999","V020","040,1,N,0090,1","99999,9,9,N","002500,1,N,1","-0081,1","-0098,1","10097,1","67,1","6,1,03,1",,"07,99,1,07,1,99,9,00150,1,99,9,99,9","99999,9,10088,1","7,1,014,1,+999,9","-002,9","SYN106AAXX  07091 02795 47225 70409 11081 21098 30088 40097 57014 76765 87/// 90839 222// 01002 555 788// 0/310;",
"02795099999","2010-01-07T12:00:00","4","60.1","24.9833333","6.4","HELSINKI HARMAJA, FI","FM-12","99999","V020","030,1,N,0090,1","99999,9,9,N","001900,1,N,1","-0072,1","-0086,1","10079,1","67,1","7,1,06,1",,"07,99,1,07,1,99,9,00250,1,99,9,99,9","99999,9,10070,1","7,1,018,1,+999,9","-003,9","SYN106AAXX  07121 02795 47319 70309 11072 21086 30070 40079 57018 76776 87/// 91139 222// 01003 555 790// 0/510;",
"02795099999","2010-01-07T15:00:00","4","60.1","24.9833333","6.4","HELSINKI HARMAJA, FI","FM-12","99999","V020","020,1,N,0090,1","99999,9,9,N","006000,1,N,1","-0067,1","-0083,1","10073,1","64,1","6,1,03,1",,"05,99,1,05,1,99,9,00150,1,99,9,99,9","99999,9,10065,1","7,1,005,1,+999,9","-003,9","SYN106AAXX  07151 02795 47256 50209 11067 21083 30065 40073 57005 76465 85/// 91439 222// 01003 555 788// 0/610;",
"02795099999","2010-01-07T21:00:00","4","60.1","24.9833333","6.4","HELSINKI HARMAJA, FI","FM-12","99999","V020","010,1,N,0090,1","22000,1,9,N","018000,1,N,1","-0092,1","-0113,1","10098,1","25,1","6,1,03,1","00,1,+99999,9,99,9","00,99,1,00,1,00,1,99999,9,00,1,00,1","99999,9,10090,1","2,1,017,1,+999,9","-002,9","SYN100AAXX  07211 02795 47968 00109 11092 21113 30090 40098 52017 72565 92039 222// 01002 555 785// 0/309;",
"02795099999","2010-01-08T00:00:00","4","60.1","24.9833333","6.4","HELSINKI HARMAJA, FI","FM-12","99999","V020","360,1,N,0080,1","22000,1,9,N","019000,1,N,1","-0107,1","-0127,1","10119,1","00,1","6,1,06,1","00,1,+99999,9,99,9","00,99,1,00,1,00,1,99999,9,00,1,00,1","99999,9,10110,1","2,1,020,1,+999,9","-002,9","SYN100AAXX  08001 02795 47969 03608 11107 21127 30110 40119 52020 70065 92339 222// 01002 555 785// 0/509;",
"02795099999","2010-01-08T03:00:00","4","60.1","24.9833333","6.4","HELSINKI HARMAJA, FI","FM-12","99999","V020","360,1,N,0080,1","22000,1,9,N","026000,1,N,1","-0122,1","-0145,1","10141,1","00,1","0,1,03,1","00,1,+99999,9,99,9","00,99,1,00,1,00,1,99999,9,00,1,00,1","99999,9,10133,1","2,1,023,1,+999,9","-003,9","SYN100AAXX  08031 02795 47976 03608 11122 21145 30133 40141 52023 70000 90239 222// 01003 555 783// 0/409;",
"02795099999","2010-01-08T09:00:00","4","60.1","24.9833333","6.4","HELSINKI HARMAJA, FI","FM-12","99999","V020","350,1,N,0080,1","22000,1,9,N","027000,1,N,1","-0140,1","-0165,1","10192,1","00,1","0,1,03,1","00,1,+99999,9,99,9","00,99,1,00,1,00,1,99999,9,00,1,00,1","99999,9,10184,1","2,1,027,1,+999,9","-003,9","SYN100AAXX  08091 02795 47977 03508 11140 21165 30184 40192 52027 70000 90839 222// 01003 555 782// 0/008;",
"02795099999","2010-01-08T12:00:00","4","60.1","24.9833333","6.4","HELSINKI HARMAJA, FI","FM-12","99999","V020","330,1,N,0050,1","22000,1,9,N","030000,1,N,1","-0143,1","-0169,1","10218,1","00,1","0,1,06,1","00,1,+99999,9,99,9","00,99,1,00,1,00,1,99999,9,00,1,00,1","99999,9,10209,1","2,1,025,1,+999,9","-003,9","SYN100AAXX  08121 02795 47980 03305 11143 21169 30209 40218 52025 70000 91139 222// 01003 555 781// 0/408;",
"02795099999","2010-01-08T15:00:00","4","60.1","24.9833333","6.4","HELSINKI HARMAJA, FI","FM-12","99999","V020","320,1,N,0050,1","22000,1,9,N","024000,1,N,1","-0153,1","-0177,1","10247,1","00,1","0,1,03,1","00,1,+99999,9,99,9","00,99,1,00,1,00,1,99999,9,00,1,00,1","99999,9,10239,1","2,1,030,1,+999,9","-003,9","SYN100AAXX  08151 02795 47974 03205 11153 21177 30239 40247 52030 70000 91439 222// 01003 555 781// 0/406;",
"02795099999","2010-01-08T21:00:00","4","60.1","24.9833333","6.4","HELSINKI HARMAJA, FI","FM-12","99999","V020","260,1,N,0030,1","22000,1,9,N","014000,1,N,1","-0130,1","-0148,1","10289,1","00,1","0,1,03,1",,"01,99,1,01,1,99,9,00075,1,99,9,99,9","99999,9,10280,1","2,1,016,1,+999,9","-003,9","SYN106AAXX  08211 02795 47164 12603 11130 21148 30280 40289 52016 70000 81/// 92039 222// 01003 555 786// 0/504;",
"02795099999","2010-01-09T00:00:00","4","60.1","24.9833333","6.4","HELSINKI HARMAJA, FI","FM-12","99999","V020","280,1,N,0060,1","22000,1,9,N","027000,1,N,1","-0112,1","-0130,1","10295,1","00,1","0,1,06,1",,"01,99,1,01,1,99,9,99999,9,99,9,99,9","99999,9,10286,1","2,1,006,1,+999,9","-003,9","SYN106AAXX  09001 02795 47977 12806 11112 21130 30286 40295 52006 70000 81/// 92339 222// 01003 555 787// 0/006;",
"02795099999","2010-01-09T03:00:00","4","60.1","24.9833333","6.4","HELSINKI HARMAJA, FI","FM-12","99999","V020","300,1,N,0040,1","22000,1,9,N","020000,1,N,1","-0115,1","-0131,1","10307,1","00,1","0,1,03,1","00,1,+99999,9,99,9","00,99,1,00,1,00,1,99999,9,00,1,00,1","99999,9,10298,1","2,1,012,1,+999,9","-003,9","SYN100AAXX  09031 02795 47970 03004 11115 21131 30298 40307 52012 70000 90239 222// 01003 555 788// 0/606;",
"02795099999","2010-01-09T09:00:00","4","60.1","24.9833333","6.4","HELSINKI HARMAJA, FI","FM-12","99999","V020","340,1,N,0020,1","22000,1,9,N","027000,1,N,1","-0108,1","-0127,1","10340,1","00,1","0,1,03,1","00,1,+99999,9,99,9","00,99,1,00,1,00,1,99999,9,00,1,00,1","99999,9,10331,1","2,1,020,1,+999,9","-003,9","SYN100AAXX  09091 02795 47977 03402 11108 21127 30331 40340 52020 70000 90839 222// 01003 555 786// 0/604;",
"02795099999","2010-01-09T12:00:00","4","60.1","24.9833333","6.4","HELSINKI HARMAJA, FI","FM-12","99999","V020","360,1,N,0040,1","22000,1,9,N","026000,1,N,1","-0100,1","-0120,1","10348,1","00,1","0,1,06,1","00,1,+99999,9,99,9","00,99,1,00,1,00,1,99999,9,00,1,00,1","99999,9,10339,1","2,1,008,1,+999,9","-003,9","SYN100AAXX  09121 02795 47976 03604 11100 21120 30339 40348 52008 70000 91139 222// 01003 555 785// 0/204;",
"02795099999","2010-01-09T15:00:00","4","60.1","24.9833333","6.4","HELSINKI HARMAJA, FI","FM-12","99999","V020","020,1,N,0020,1","22000,1,9,N","024000,1,N,1","-0111,1","-0133,1","10361,1","00,1","0,1,03,1","00,1,+99999,9,99,9","00,99,1,00,1,00,1,99999,9,00,1,00,1","99999,9,10352,1","2,1,013,1,+999,9","-003,9","SYN100AAXX  09151 02795 47974 00202 11111 21133 30352 40361 52013 70000 91439 222// 01003 555 783// 0/504;",
"02795099999","2010-01-09T21:00:00","4","60.1","24.9833333","6.4","HELSINKI HARMAJA, FI","FM-12","99999","V020","090,1,N,0030,1","99999,9,9,N","002000,1,N,1","-0107,1","-0123,1","10376,1","10,1","5,1,03,1",,"05,99,1,05,1,99,9,00025,1,99,9,99,9","99999,9,10367,1","2,1,007,1,+999,9","-002,9","SYN106AAXX  09211 02795 47020 50903 11107 21123 30367 40376 52007 71054 85/// 92039 222// 01002 555 788// 0/303;",
"02795099999","2010-01-10T00:00:00","4","60.1","24.9833333","6.4","HELSINKI HARMAJA, FI","FM-12","99999","V020","020,1,N,0010,1","99999,9,9,N","000500,1,N,1","-0103,1","-0119,1","10378,1","33,1","5,1,06,1",,"08,99,1,08,1,99,9,00075,1,99,9,99,9","99999,9,10369,1","4,1,000,1,+999,9","-003,9","SYN106AAXX  10001 02795 47105 80201 11103 21119 30369 40378 54002 73354 88/// 92339 222// 01003 555 788// 0/603;",
"02795099999","2010-01-10T03:00:00","4","60.1","24.9833333","6.4","HELSINKI HARMAJA, FI","FM-12","99999","V020","340,1,N,0010,1","99999,9,9,N","000200,1,N,1","-0103,1","-0119,1","10375,1","30,1","5,1,03,1",,"08,99,1,08,1,99,9,00075,1,99,9,99,9","99999,9,10366,1","7,1,003,1,+999,9","-003,9","SYN106AAXX  10031 02795 47102 83401 11103 21119 30366 40375 57003 73054 88/// 90239 222// 01003 555 788// 0/402;",
"02795099999","2010-01-10T09:00:00","4","60.1","24.9833333","6.4","HELSINKI HARMAJA, FI","FM-12","99999","V020","360,1,N,0010,1","99999,9,9,N","000300,1,N,1","-0101,1","-0116,1","10376,1","30,1",,,"08,99,1,08,1,99,9,00075,1,99,9,99,9","99999,9,10367,1","2,1,005,1,+999,9","-003,9","SYN106AAXX  10091 02795 47103 83601 11101 21116 30367 40376 52005 730// 88/// 90839 222// 01003 555 789// 0/502;",
"02795099999","2010-01-10T12:00:00","4","60.1","24.9833333","6.4","HELSINKI HARMAJA, FI","FM-12","99999","V020","330,1,N,0010,1","99999,9,9,N","999999,9,N,1","-0096,1","-0111,1","10372,1",,,,"08,99,1,08,1,99,9,00075,1,99,9,99,9","99999,9,10364,1","7,1,004,1,+999,9","-003,9","SYN100AAXX  10121 02795 461// 83301 11096 21111 30364 40372 57004 88/// 91139 222// 01003 555 789// 0/502;",
"02795099999","2010-01-10T15:00:00","4","60.1","24.9833333","6.4","HELSINKI HARMAJA, FI","FM-12","99999","V020","999,9,C,0000,1","99999,9,9,N","999999,9,N,1","-0096,1","-0111,1","10365,1",,,,"08,99,1,08,1,99,9,00075,1,99,9,99,9","99999,9,10357,1","7,1,007,1,+999,9","-003,9","SYN100AAXX  10151 02795 461// 80000 11096 21111 30357 40365 57007 88/// 91439 222// 01003 555 789// 0/601;",
"02795099999","2010-01-10T21:00:00","4","60.1","24.9833333","6.4","HELSINKI HARMAJA, FI","FM-12","99999","V020","999,9,C,0000,1","99999,9,9,N","999999,9,N,1","-0085,1","-0099,1","10346,1",,,,"08,99,1,08,1,99,9,00075,1,99,9,99,9","99999,9,10338,1","7,1,012,1,+999,9","-003,9","SYN100AAXX  10211 02795 461// 80000 11085 21099 30338 40346 57012 88/// 92039 222// 01003 555 790// 0/301;",
"02795099999","2010-01-11T00:00:00","4","60.1","24.9833333","6.4","HELSINKI HARMAJA, FI","FM-12","99999","V020","300,1,N,0010,1","99999,9,9,N","999999,9,N,1","-0092,1","-0106,1","10336,1",,,,"07,99,1,07,1,99,9,00025,1,99,9,99,9","99999,9,10328,1","7,1,010,1,+999,9","-003,9","SYN100AAXX  11001 02795 460// 73001 11092 21106 30328 40336 57010 87/// 92339 222// 01003 555 789// 0/201;",
"02795099999","2010-01-11T03:00:00","4","60.1","24.9833333","6.4","HELSINKI HARMAJA, FI","FM-12","99999","V020","999,9,C,0000,1","22000,1,9,N","999999,9,N,1","-0098,1","-0113,1","10322,1",,,,"03,99,1,03,1,99,9,00075,1,99,9,99,9","99999,9,10313,1","7,1,014,1,+999,9","-003,9","SYN100AAXX  11031 02795 461// 30000 11098 21113 30313 40322 57014 83/// 90239 222// 01003 555 789// 0/601;",
"02795099999","2010-01-11T09:00:00","4","60.1","24.9833333","6.4","HELSINKI HARMAJA, FI","FM-12","99999","V020","290,1,N,0010,1","22000,1,9,N","999999,9,N,1","-0110,1","-0126,1","10312,1",,,,"01,99,1,01,1,99,9,00075,1,99,9,99,9","99999,9,10303,1","4,1,000,1,+999,9","-003,9","SYN100AAXX  11091 02795 461// 12901 11110 21126 30303 40312 54001 81/// 90839 222// 01003 555 788// 0/101;",
"02795099999","2010-01-11T12:00:00","4","60.1","24.9833333","6.4","HELSINKI HARMAJA, FI","FM-12","99999","V020","270,1,N,0010,1","99999,9,9,N","999999,9,N,1","-0089,1","-0103,1","10300,1",,,,"07,99,1,07,1,99,9,00075,1,99,9,99,9","99999,9,10291,1","7,1,012,1,+999,9","-003,9","SYN100AAXX  11121 02795 461// 72701 11089 21103 30291 40300 57012 87/// 91139 222// 01003 555 790// 0/001;",
"02795099999","2010-01-11T15:00:00","4","60.1","24.9833333","6.4","HELSINKI HARMAJA, FI","FM-12","99999","V020","999,9,C,0000,1","99999,9,9,N","999999,9,N,1","-0079,1","-0091,1","10289,1",,,,"08,99,1,08,1,99,9,00075,1,99,9,99,9","99999,9,10281,1","7,1,010,1,+999,9","-003,9","SYN100AAXX  11151 02795 461// 80000 11079 21091 30281 40289 57010 88/// 91439 222// 01003 555 791// 0/601;",
"02795099999","2010-01-11T21:00:00","4","60.1","24.9833333","6.4","HELSINKI HARMAJA, FI","FM-12","99999","V020","290,1,N,0010,1","99999,9,9,N","999999,9,N,1","-0050,1","-0059,1","10279,1",,,,"08,99,1,08,1,99,9,00075,1,99,9,99,9","99999,9,10270,1","7,1,002,1,+999,9","-003,9","SYN100AAXX  11211 02795 461// 82901 11050 21059 30270 40279 57002 88/// 92039 222// 01003 555 794// 0/301;",
"02795099999","2010-01-12T00:00:00","4","60.1","24.9833333","6.4","HELSINKI HARMAJA, FI","FM-12","99999","V020","270,1,N,0010,1","99999,9,9,N","999999,9,N,1","-0039,1","-0046,1","10273,1",,,,"08,99,1,08,1,99,9,00075,1,99,9,99,9","99999,9,10265,1","7,1,006,1,+999,9","-003,9","SYN100AAXX  12001 02795 461// 82701 11039 21046 30265 40273 57006 88/// 92339 222// 01003 555 795// 0/201;",
"02795099999","2010-01-12T03:00:00","4","60.1","24.9833333","6.4","HELSINKI HARMAJA, FI","FM-12","99999","V020","280,1,N,0010,1","99999,9,9,N","999999,9,N,1","-0036,1","-0043,1","10262,1",,,,"08,99,1,08,1,99,9,00075,1,99,9,99,9","99999,9,10253,1","7,1,012,1,+999,9","-003,9","SYN100AAXX  12031 02795 461// 82801 11036 21043 30253 40262 57012 88/// 90239 222// 01003 555 795// 0/201;",
"02795099999","2010-01-12T09:00:00","4","60.1","24.9833333","6.4","HELSINKI HARMAJA, FI","FM-12","99999","V020","290,1,N,0010,1","99999,9,9,N","003500,1,N,1","-0031,1","-0037,1","10249,1","10,1","2,1,03,1",,"08,99,1,08,1,99,9,00075,1,99,9,99,9","99999,9,10241,1","7,1,003,1,+999,9","-003,9","SYN106AAXX  12091 02795 47135 82901 11031 21037 30241 40249 57003 71010 88/// 90839 222// 01003 555 796// 0/501;",
"02795099999","2010-01-12T12:00:00","4","60.1","24.9833333","6.4","HELSINKI HARMAJA, FI","FM-12","99999","V020","270,1,N,0010,1","99999,9,9,N","004200,1,N,1","-0027,1","-0033,1","10237,1","10,1","2,1,06,1",,"08,99,1,08,1,99,9,00075,1,99,9,99,9","99999,9,10228,1","7,1,013,1,+999,9","-002,9","SYN106AAXX  12121 02795 47142 82701 11027 21033 30228 40237 57013 71010 88/// 91139 222// 01002 555 796// 0/001;",
"02795099999","2010-01-12T15:00:00","4","60.1","24.9833333","6.4","HELSINKI HARMAJA, FI","FM-12","99999","V020","280,1,N,0010,1","99999,9,9,N","002800,1,N,1","-0027,1","-0032,1","10228,1","10,1","2,1,03,1",,"08,99,1,08,1,99,9,00075,1,99,9,99,9","99999,9,10219,1","7,1,009,1,+999,9","-002,9","SYN106AAXX  12151 02795 47128 82801 11027 21032 30219 40228 57009 71010 88/// 91439 222// 01002 555 796// 0/101;",
"02795099999","2010-01-12T21:00:00","4","60.1","24.9833333","6.4","HELSINKI HARMAJA, FI","FM-12","99999","V020","999,9,C,0000,1","99999,9,9,N","002700,1,N,1","-0028,1","-0034,1","10227,1","10,1","2,1,03,1",,"08,99,1,08,1,99,9,00075,1,99,9,99,9","99999,9,10218,1","2,1,002,1,+999,9","-003,9","SYN106AAXX  12211 02795 47127 80000 11028 21034 30218 40227 52002 71010 88/// 92039 222// 01003 555 796// 0/600;",
"02795099999","2010-01-13T00:00:00","4","60.1","24.9833333","6.4","HELSINKI HARMAJA, FI","FM-12","99999","V020","999,9,C,0000,1","99999,9,9,N","009000,1,N,1","-0028,1","-0034,1","10229,1","54,1","6,1,06,1",,"07,99,1,07,1,99,9,00075,1,99,9,99,9","99999,9,10220,1","4,1,000,1,+999,9","-003,9","SYN106AAXX  13001 02795 47159 70000 11028 21034 30220 40229 54002 75465 87/// 92339 222// 01003 555 796// 0/000;",
"02795099999","2010-01-13T03:00:00","4","60.1","24.9833333","6.4","HELSINKI HARMAJA, FI","FM-12","99999","V020","999,9,C,0000,1","99999,9,9,N","002800,1,N,1","-0032,1","-0038,1","10223,1","54,1","5,1,03,1",,"07,99,1,07,1,99,9,00075,1,99,9,99,9","99999,9,10215,1","7,1,006,1,+999,9","-003,9","SYN106AAXX  13031 02795 47128 70000 11032 21038 30215 40223 57006 75454 87/// 90239 222// 01003 555 796// 0/400;",
"02795099999","2010-01-13T09:00:00","4","60.1","24.9833333","6.4","HELSINKI HARMAJA, FI","FM-12","99999","V020","999,9,C,0000,1","99999,9,9,N","006000,1,N,1","-0036,1","-0042,1","10234,1","10,1","8,1,03,1",,"07,99,1,07,1,99,9,00075,1,99,9,99,9","99999,9,10226,1","2,1,008,1,+999,9","-003,9","SYN106AAXX  13091 02795 47156 70000 11036 21042 30226 40234 52008 71085 87/// 90839 222// 01003 555 795// 0/000;",
"02795099999","2010-01-13T12:00:00","4","60.1","24.9833333","6.4","HELSINKI HARMAJA, FI","FM-12","99999","V020","999,9,C,0000,1","99999,9,9,N","000600,1,N,1","-0037,1","-0043,1","10236,1","34,1","8,1,06,1",,"07,99,1,07,1,99,9,00075,1,99,9,99,9","99999,9,10228,1","2,1,002,1,+999,9","-003,9","SYN106AAXX  13121 02795 47106 70000 11037 21043 30228 40236 52002 73485 87/// 91139 222// 01003 555 795// 0/000;",
"02795099999","2010-01-13T15:00:00","4","60.1","24.9833333","6.4","HELSINKI HARMAJA, FI","FM-12","99999","V020","999,9,C,0000,1","99999,9,9,N","003300,1,N,1","-0042,1","-0049,1","10239,1","54,1","8,1,03,1",,"07,99,1,07,1,99,9,00075,1,99,9,99,9","99999,9,10230,1","2,1,003,1,+999,9","-003,9","SYN106AAXX  13151 02795 47133 70000 11042 21049 30230 40239 52003 75485 87/// 91439 222// 01003 555 795// 0/000;",
"02795099999","2010-01-13T21:00:00","4","60.1","24.9833333","6.4","HELSINKI HARMAJA, FI","FM-12","99999","V020","999,9,C,0000,1","99999,9,9,N","005000,1,N,1","-0046,1","-0054,1","10246,1","54,1","8,1,03,1",,"07,99,1,07,1,99,9,00075,1,99,9,99,9","99999,9,10237,1","2,1,003,1,+999,9","-003,9","SYN106AAXX  13211 02795 47150 70000 11046 21054 30237 40246 52003 75485 87/// 92039 222// 01003 555 794// 0/000;",
"02795099999","2010-01-14T00:00:00","4","60.1","24.9833333","6.4","HELSINKI HARMAJA, FI","FM-12","99999","V020","999,9,C,0000,1","99999,9,9,N","001300,1,N,1","-0043,1","-0050,1","10246,1","20,1","8,1,06,1",,"07,99,1,07,1,99,9,00075,1,99,9,99,9","99999,9,10237,1","4,1,000,1,+999,9","-003,9","SYN106AAXX  14001 02795 47113 70000 11043 21050 30237 40246 54000 72085 87/// 92339 222// 01003 555 795// 0/000;",
"02795099999","2010-01-14T03:00:00","4","60.1","24.9833333","6.4","HELSINKI HARMAJA, FI","FM-12","99999","V020","999,9,C,0000,1","99999,9,9,N","003600,1,N,1","-0044,1","-0052,1","10245,1","54,1","5,1,03,1",,"07,99,1,07,1,99,9,00075,1,99,9,99,9","99999,9,10237,1","4,1,000,1,+999,9","-003,9","SYN106AAXX  14031 02795 47136 70000 11044 21052 30237 40245 54000 75454 87/// 90239 222// 01003 555 794// 0/000;",
"02795099999","2010-01-14T09:00:00","4","60.1","24.9833333","6.4","HELSINKI HARMAJA, FI","FM-12","99999","V020","999,9,C,0000,1","99999,9,9,N","008000,1,N,1","-0039,1","-0046,1","10251,1","54,1","8,1,03,1",,"07,99,1,07,1,99,9,00075,1,99,9,99,9","99999,9,10243,1","2,1,007,1,+999,9","-003,9","SYN106AAXX  14091 02795 47158 70000 11039 21046 30243 40251 52007 75485 87/// 90839 222// 01003 555 795// 0/000;",
"02795099999","2010-01-14T12:00:00","4","60.1","24.9833333","6.4","HELSINKI HARMAJA, FI","FM-12","99999","V020","250,1,N,0040,1","99999,9,9,N","020000,1,N,1","-0035,1","-0041,1","10253,1","54,1","8,1,06,1",,"08,99,1,08,1,99,9,00150,1,99,9,99,9","99999,9,10244,1","4,1,000,1,+999,9","-003,9","SYN106AAXX  14121 02795 47270 82504 11035 21041 30244 40253 54002 75486 88/// 91139 222// 01003 555 796// 0/004;",
"02795099999","2010-01-14T15:00:00","4","60.1","24.9833333","6.4","HELSINKI HARMAJA, FI","FM-12","99999","V020","240,1,N,0050,1","99999,9,9,N","013000,1,N,1","-0044,1","-0051,1","10255,1","25,1","5,1,03,1",,"08,99,1,08,1,99,9,00075,1,99,9,99,9","99999,9,10247,1","2,1,003,1,+999,9","-003,9","SYN106AAXX  14151 02795 47163 82405 11044 21051 30247 40255 52003 72552 88/// 91439 222// 01003 555 795// 0/206;",
"02795099999","2010-01-14T21:00:00","4","60.1","24.9833333","6.4","HELSINKI HARMAJA, FI","FM-12","99999","V020","270,1,N,0050,1","99999,9,9,N","035000,1,N,1","-0040,1","-0046,1","10262,1","54,1","8,1,03,1",,"08,99,1,08,1,99,9,00150,1,99,9,99,9","99999,9,10254,1","2,1,004,1,+999,9","-003,9","SYN106AAXX  14211 02795 47281 82705 11040 21046 30254 40262 52004 75485 88/// 92039 222// 01003 555 795// 0/106;",
"02795099999","2010-01-15T00:00:00","4","60.1","24.9833333","6.4","HELSINKI HARMAJA, FI","FM-12","99999","V020","310,1,N,0030,1","99999,9,9,N","045000,1,N,1","-0036,1","-0042,1","10271,1","54,1","8,1,06,1",,"08,99,1,08,1,99,9,00250,1,99,9,99,9","99999,9,10263,1","2,1,009,1,+999,9","-003,9","SYN106AAXX  15001 02795 47383 83103 11036 21042 30263 40271 52009 75486 88/// 92339 222// 01003 555 795// 0/605;",
"02795099999","2010-01-15T03:00:00","4","60.1","24.9833333","6.4","HELSINKI HARMAJA, FI","FM-12","99999","V020","280,1,N,0030,1","99999,9,9,N","050000,1,N,1","-0032,1","-0038,1","10274,1","00,1","5,1,03,1",,"08,99,1,08,1,99,9,00450,1,99,9,99,9","99999,9,10266,1","2,1,003,1,+999,9","-003,9","SYN106AAXX  15031 02795 47499 82803 11032 21038 30266 40274 52003 70054 88/// 90239 222// 01003 555 796// 0/503;",
"02795099999","2010-01-15T09:00:00","4","60.1","24.9833333","6.4","HELSINKI HARMAJA, FI","FM-12","99999","V020","050,1,N,0020,1","99999,9,9,N","050000,1,N,1","-0034,1","-0040,1","10307,1","00,1","3,1,03,1",,"08,99,1,08,1,99,9,00450,1,99,9,99,9","99999,9,10299,1","2,1,021,1,+999,9","-003,9","SYN106AAXX  15091 02795 47499 80502 11034 21040 30299 40307 52021 70020 88/// 90839 222// 01003 555 796// 0/402;",
"02795099999","2010-01-15T12:00:00","4","60.1","24.9833333","6.4","HELSINKI HARMAJA, FI","FM-12","99999","V020","060,1,N,0030,1","99999,9,9,N","029000,1,N,1","-0036,1","-0048,1","10321,1","54,1","8,1,06,1",,"05,99,1,05,1,99,9,00450,1,99,9,99,9","99999,9,10313,1","2,1,014,1,+999,9","-003,9","SYN106AAXX  15121 02795 47479 50603 11036 21048 30313 40321 52014 75486 85/// 91139 222// 01003 555 791// 0/405;",
"02795099999","2010-01-15T15:00:00","4","60.1","24.9833333","6.4","HELSINKI HARMAJA, FI","FM-12","99999","V020","060,1,N,0050,1","99999,9,9,N","022000,1,N,1","-0039,1","-0049,1","10339,1","54,1","6,1,03,1",,"05,99,1,05,1,99,9,00450,1,99,9,99,9","99999,9,10330,1","2,1,018,1,+999,9","-003,9","SYN106AAXX  15151 02795 47472 50605 11039 21049 30330 40339 52018 75465 85/// 91439 222// 01003 555 793// 0/205;",
"02795099999","2010-01-15T21:00:00","4","60.1","24.9833333","6.4","HELSINKI HARMAJA, FI","FM-12","99999","V020","170,1,N,0020,1","99999,9,9,N","050000,1,N,1","-0026,1","-0053,1","10368,1","00,1","6,1,03,1",,"08,99,1,08,1,99,9,00450,1,99,9,99,9","99999,9,10360,1","2,1,012,1,+999,9","-003,9","SYN106AAXX  15211 02795 47499 81702 11026 21053 30360 40368 52012 70065 88/// 92039 222// 01003 555 782// 0/606;",
"02795099999","2010-01-16T00:00:00","4","60.1","24.9833333","6.4","HELSINKI HARMAJA, FI","FM-12","99999","V020","130,1,N,0040,1","99999,9,9,N","050000,1,N,1","-0029,1","-0054,1","10382,1","00,1","6,1,06,1",,"08,99,1,08,1,99,9,00450,1,99,9,99,9","99999,9,10374,1","2,1,014,1,+999,9","-003,9","SYN106AAXX  16001 02795 47499 81304 11029 21054 30374 40382 52014 70065 88/// 92339 222// 01003 555 782// 0/104;",
"02795099999","2010-01-16T03:00:00","4","60.1","24.9833333","6.4","HELSINKI HARMAJA, FI","FM-12","99999","V020","150,1,N,0040,1","99999,9,9,N","050000,1,N,1","-0030,1","-0058,1","10388,1","25,1","5,1,03,1",,"08,99,1,08,1,99,9,00450,1,99,9,99,9","99999,9,10380,1","2,1,006,1,+999,9","-003,9","SYN106AAXX  16031 02795 47499 81504 11030 21058 30380 40388 52006 72554 88/// 90239 222// 01003 555 781// 0/505;",
"02795099999","2010-01-16T09:00:00","4","60.1","24.9833333","6.4","HELSINKI HARMAJA, FI","FM-12","99999","V020","160,1,N,0030,1","99999,9,9,N","027000,1,N,1","-0030,1","-0054,1","10407,1","00,1","0,1,03,1",,"08,99,1,08,1,99,9,00450,1,99,9,99,9","99999,9,10398,1","2,1,013,1,+999,9","-003,9","SYN106AAXX  16091 02795 47477 81603 11030 21054 30398 40407 52013 70000 88/// 90839 222// 01003 555 784// 0/003;",
"02795099999","2010-01-16T12:00:00","4","60.1","24.9833333","6.4","HELSINKI HARMAJA, FI","FM-12","99999","V020","160,1,N,0030,1","99999,9,9,N","017000,1,N,1","-0035,1","-0056,1","10406,1","54,1","6,1,06,1",,"08,99,1,08,1,99,9,00450,1,99,9,99,9","99999,9,10398,1","4,1,000,1,+999,9","-003,9","SYN106AAXX  16121 02795 47467 81603 11035 21056 30398 40406 54001 75465 88/// 91139 222// 01003 555 785// 0/205;",
"02795099999","2010-01-16T15:00:00","4","60.1","24.9833333","6.4","HELSINKI HARMAJA, FI","FM-12","99999","V020","170,1,N,0040,1","99999,9,9,N","021000,1,N,1","-0041,1","-0060,1","10406,1","54,1","8,1,03,1",,"08,99,1,08,1,99,9,00450,1,99,9,99,9","99999,9,10397,1","4,1,000,1,+999,9","-002,9","SYN106AAXX  16151 02795 47471 81704 11041 21060 30397 40406 54000 75485 88/// 91439 222// 01002 555 786// 0/005;",
"02795099999","2010-01-16T21:00:00","4","60.1","24.9833333","6.4","HELSINKI HARMAJA, FI","FM-12","99999","V020","160,1,N,0030,1","22000,1,9,N","012000,1,N,1","-0061,1","-0086,1","10410,1","64,1","6,1,03,1",,"03,99,1,03,1,99,9,00150,1,99,9,99,9","99999,9,10402,1","4,1,000,1,+999,9","-003,9","SYN106AAXX  16211 02795 47262 31603 11061 21086 30402 40410 54001 76465 83/// 92039 222// 01003 555 783// 0/205;",
"02795099999","2010-01-17T00:00:00","4","60.1","24.9833333","6.4","HELSINKI HARMAJA, FI","FM-12","99999","V020","150,1,N,0030,1","99999,9,9,N","021000,1,N,1","-0068,1","-0090,1","10406,1","64,1","6,1,06,1",,"07,99,1,07,1,99,9,00450,1,99,9,99,9","99999,9,10397,1","7,1,004,1,+999,9","-003,9","SYN106AAXX  17001 02795 47471 71503 11068 21090 30397 40406 57004 76465 87/// 92339 222// 01003 555 784// 0/604;",
"02795099999","2010-01-17T03:00:00","4","60.1","24.9833333","6.4","HELSINKI HARMAJA, FI","FM-12","99999","V020","180,1,N,0020,1","99999,9,9,N","045000,1,N,1","-0064,1","-0082,1","10402,1","00,1","6,1,03,1",,"08,99,1,08,1,99,9,00250,1,99,9,99,9","99999,9,10393,1","7,1,004,1,+999,9","-003,9","SYN106AAXX  17031 02795 47383 81802 11064 21082 30393 40402 57004 70065 88/// 90239 222// 01003 555 787// 0/303;",
"02795099999","2010-01-17T09:00:00","4","60.1","24.9833333","6.4","HELSINKI HARMAJA, FI","FM-12","99999","V020","120,1,N,0060,1","99999,9,9,N","021000,1,N,1","-0083,1","-0093,1","10400,1","54,1",,,"08,99,1,08,1,99,9,00150,1,99,9,99,9","99999,9,10391,1","2,1,002,1,+999,9","-003,9","SYN100AAXX  17091 02795 47271 81206 11083 21093 30391 40400 52002 754// 88/// 90839 222// 01003 555 792//;",
"02795099999","2010-01-17T12:00:00","4","60.1","24.9833333","6.4","HELSINKI HARMAJA, FI","FM-12","99999","V020","140,1,N,0070,1","99999,9,9,N","030000,1,N,1","-0065,1","-0075,1","10388,1","54,1","8,1,06,1",,"08,99,1,08,1,99,9,00250,1,99,9,99,9","99999,9,10379,1","7,1,012,1,+999,9","-002,9","SYN106AAXX  17121 02795 47380 81407 11065 21075 30379 40388 57012 75485 88/// 91139 222// 01002 555 792// 0/008;",
"02795099999","2010-01-17T15:00:00","4","60.1","24.9833333","6.4","HELSINKI HARMAJA, FI","FM-12","99999","V020","130,1,N,0070,1","99999,9,9,N","045000,1,N,1","-0054,1","-0070,1","10382,1","25,1","5,1,03,1",,"08,99,1,08,1,99,9,00250,1,99,9,99,9","99999,9,10373,1","7,1,006,1,+999,9","-003,9","SYN106AAXX  17151 02795 47383 81307 11054 21070 30373 40382 57006 72554 88/// 91439 222// 01003 555 788// 0/208;",
"02795099999","2010-01-17T21:00:00","4","60.1","24.9833333","6.4","HELSINKI HARMAJA, FI","FM-12","99999","V020","120,1,N,0070,1","22000,1,9,N","050000,1,N,1","-0059,1","-0090,1","10371,1","00,1","0,1,03,1","00,1,+99999,9,99,9","00,99,1,00,1,00,1,99999,9,00,1,00,1","99999,9,10362,1","7,1,005,1,+999,9","-003,9","SYN100AAXX  17211 02795 47999 01207 11059 21090 30362 40371 57005 70000 92039 222// 01003 555 779// 0/407;",
"02795099999","2010-01-18T00:00:00","4","60.1","24.9833333","6.4","HELSINKI HARMAJA, FI","FM-12","99999","V020","130,1,N,0060,1","99999,9,9,N","045000,1,N,1","-0080,1","-0099,1","10370,1","00,1","0,1,06,1",,"08,99,1,08,1,99,9,00250,1,99,9,99,9","99999,9,10361,1","4,1,000,1,+999,9","-003,9","SYN106AAXX  18001 02795 47383 81306 11080 21099 30361 40370 54001 70000 88/// 92339 222// 01003 555 786// 0/207;",
"02795099999","2010-01-18T03:00:00","4","60.1","24.9833333","6.4","HELSINKI HARMAJA, FI","FM-12","99999","V020","130,1,N,0050,1","99999,9,9,N","013000,1,N,1","-0070,1","-0080,1","10367,1","00,1","2,1,03,1",,"07,99,1,07,1,99,9,00075,1,99,9,99,9","99999,9,10359,1","7,1,002,1,+999,9","-003,9","SYN106AAXX  18031 02795 47163 71305 11070 21080 30359 40367 57002 70010 87/// 90239 222// 01003 555 793// 0/306;",
"02795099999","2010-01-18T09:00:00","4","60.1","24.9833333","6.4","HELSINKI HARMAJA, FI","FM-12","99999","V020","110,1,N,0060,1","99999,9,9,N","030000,1,N,1","-0056,1","-0064,1","10367,1","00,1","0,1,03,1",,"07,99,1,07,1,99,9,00250,1,99,9,99,9","99999,9,10358,1","4,1,000,1,+999,9","-003,9","SYN106AAXX  18091 02795 47380 71106 11056 21064 30358 40367 54000 70000 87/// 90839 222// 01003 555 794// 0/006;",
"02795099999","2010-01-18T12:00:00","4","60.1","24.9833333","6.4","HELSINKI HARMAJA, FI","FM-12","99999","V020","110,1,N,0070,1","22000,1,9,N","040000,1,N,1","-0061,1","-0087,1","10358,1","00,1","0,1,06,1","00,1,+99999,9,99,9","00,99,1,00,1,00,1,99999,9,00,1,00,1","99999,9,10350,1","7,1,008,1,+999,9","-002,9","SYN100AAXX  18121 02795 47982 01107 11061 21087 30350 40358 57008 70000 91139 222// 01002 555 782// 0/208;",
"02795099999","2010-01-18T15:00:00","4","60.1","24.9833333","6.4","HELSINKI HARMAJA, FI","FM-12","99999","V020","120,1,N,0060,1","22000,1,9,N","050000,1,N,1","-0070,1","-0104,1","10357,1","00,1","0,1,03,1","00,1,+99999,9,99,9","00,99,1,00,1,00,1,99999,9,00,1,00,1","99999,9,10348,1","4,1,000,1,+999,9","-002,9","SYN100AAXX  18151 02795 47999 01206 11070 21104 30348 40357 54002 70000 91439 222// 01002 555 777// 0/608;",
"02795099999","2010-01-18T21:00:00","4","60.1","24.9833333","6.4","HELSINKI HARMAJA, FI","FM-12","99999","V020","130,1,N,0050,1","99999,9,9,N","030000,1,N,1","-0088,1","-0107,1","10356,1","00,1","0,1,03,1",,"05,99,1,05,1,99,9,00250,1,99,9,99,9","99999,9,10348,1","7,1,003,1,+999,9","-003,9","SYN106AAXX  18211 02795 47380 51305 11088 21107 30348 40356 57003 70000 85/// 92039 222// 01003 555 786// 0/606;",
"02795099999","2010-01-19T00:00:00","4","60.1","24.9833333","6.4","HELSINKI HARMAJA, FI","FM-12","99999","V020","120,1,N,0050,1","99999,9,9,N","040000,1,N,1","-0074,1","-0093,1","10353,1","00,1","5,1,06,1",,"07,99,1,07,1,99,9,00450,1,99,9,99,9","99999,9,10345,1","7,1,003,1,+999,9","-003,9","SYN106AAXX  19001 02795 47482 71205 11074 21093 30345 40353 57003 70054 87/// 92339 222// 01003 555 786// 0/506;",
"02795099999","2010-01-19T03:00:00","4","60.1","24.9833333","6.4","HELSINKI HARMAJA, FI","FM-12","99999","V020","140,1,N,0050,1","99999,9,9,N","016000,1,N,1","-0089,1","-0101,1","10357,1","64,1","6,1,03,1",,"07,99,1,07,1,99,9,00075,1,99,9,99,9","99999,9,10348,1","2,1,004,1,+999,9","-003,9","SYN106AAXX  19031 02795 47166 71405 11089 21101 30348 40357 52004 76465 87/// 90239 222// 01003 555 791// 0/407;",
"02795099999","2010-01-19T09:00:00","4","60.1","24.9833333","6.4","HELSINKI HARMAJA, FI","FM-12","99999","V020","130,1,N,0050,1","99999,9,9,N","030000,1,N,1","-0074,1","-0091,1","10364,1","00,1","5,1,03,1",,"07,99,1,07,1,99,9,00250,1,99,9,99,9","99999,9,10355,1","2,1,008,1,+999,9","-002,9","SYN106AAXX  19091 02795 47380 71305 11074 21091 30355 40364 52008 70054 87/// 90839 222// 01002 555 788// 0/005;",
"02795099999","2010-01-19T12:00:00","4","60.1","24.9833333","6.4","HELSINKI HARMAJA, FI","FM-12","99999","V020","130,1,N,0030,1","22000,1,9,N","050000,1,N,1","-0071,1","-0100,1","10366,1","00,1","5,1,06,1","00,1,+99999,9,99,9","00,99,1,00,1,00,1,99999,9,00,1,00,1","99999,9,10357,1","4,1,000,1,+999,9","-002,9","SYN100AAXX  19121 02795 47999 01303 11071 21100 30357 40366 54002 70054 91139 222// 01002 555 780// 0/405;",
"02795099999","2010-01-19T15:00:00","4","60.1","24.9833333","6.4","HELSINKI HARMAJA, FI","FM-12","99999","V020","100,1,N,0050,1","22000,1,9,N","050000,1,N,1","-0061,1","-0093,1","10369,1","00,1","0,1,03,1",,"01,99,1,01,1,99,9,01750,1,99,9,99,9","99999,9,10360,1","2,1,003,1,+999,9","-002,9","SYN106AAXX  19151 02795 47799 11005 11061 21093 30360 40369 52003 70000 81/// 91439 222// 01002 555 778// 0/005;",
"02795099999","2010-01-19T21:00:00","4","60.1","24.9833333","6.4","HELSINKI HARMAJA, FI","FM-12","99999","V020","120,1,N,0040,1","22000,1,9,N","050000,1,N,1","-0079,1","-0104,1","10386,1","00,1","0,1,03,1","00,1,+99999,9,99,9","00,99,1,00,1,00,1,99999,9,00,1,00,1","99999,9,10377,1","2,1,012,1,+999,9","-003,9","SYN100AAXX  19211 02795 47999 01204 11079 21104 30377 40386 52012 70000 92039 222// 01003 555 782// 0/606;",
"02795099999","2010-01-20T00:00:00","4","60.1","24.9833333","6.4","HELSINKI HARMAJA, FI","FM-12","99999","V020","120,1,N,0050,1","22000,1,9,N","050000,1,N,1","-0080,1","-0109,1","10386,1","00,1","0,1,06,1","00,1,+99999,9,99,9","00,99,1,00,1,00,1,99999,9,00,1,00,1","99999,9,10378,1","4,1,000,1,+999,9","-003,9","SYN100AAXX  20001 02795 47999 01205 11080 21109 30378 40386 54000 70000 92339 222// 01003 555 780// 0/506;",
"02795099999","2010-01-20T03:00:00","4","60.1","24.9833333","6.4","HELSINKI HARMAJA, FI","FM-12","99999","V020","110,1,N,0050,1","22000,1,9,N","050000,1,N,1","-0078,1","-0104,1","10386,1","00,1","0,1,03,1","00,1,+99999,9,99,9","00,99,1,00,1,00,1,99999,9,00,1,00,1","99999,9,10377,1","4,1,000,1,+999,9","-003,9","SYN100AAXX  20031 02795 47999 01105 11078 21104 30377 40386 54000 70000 90239 222// 01003 555 782// 0/606;",
"02795099999","2010-01-20T09:00:00","4","60.1","24.9833333","6.4","HELSINKI HARMAJA, FI","FM-12","99999","V020","110,1,N,0030,1","22000,1,9,N","045000,1,N,1","-0070,1","-0100,1","10407,1","00,1","0,1,03,1","00,1,+99999,9,99,9","00,99,1,00,1,00,1,99999,9,00,1,00,1","99999,9,10398,1","2,1,012,1,+999,9","-003,9","SYN100AAXX  20091 02795 47983 01103 11070 21100 30398 40407 52012 70000 90839 222// 01003 555 779// 0/605;",
"02795099999","2010-01-20T12:00:00","4","60.1","24.9833333","6.4","HELSINKI HARMAJA, FI","FM-12","99999","V020","070,1,N,0040,1","22000,1,9,N","035000,1,N,1","-0078,1","-0095,1","10411,1","00,1","0,1,06,1","00,1,+99999,9,99,9","00,99,1,00,1,00,1,99999,9,00,1,00,1","99999,9,10402,1","2,1,004,1,+999,9","-002,9","SYN100AAXX  20121 02795 47981 00704 11078 21095 30402 40411 52004 70000 91139 222// 01002 555 787// 0/504;",
"02795099999","2010-01-20T15:00:00","4","60.1","24.9833333","6.4","HELSINKI HARMAJA, FI","FM-12","99999","V020","060,1,N,0050,1","22000,1,9,N","035000,1,N,1","-0087,1","-0104,1","10414,1","00,1","0,1,03,1","00,1,+99999,9,99,9","00,99,1,00,1,00,1,99999,9,00,1,00,1","99999,9,10405,1","2,1,003,1,+999,9","-002,9","SYN100AAXX  20151 02795 47981 00605 11087 21104 30405 40414 52003 70000 91439 222// 01002 555 787// 0/106;",
"02795099999","2010-01-20T21:00:00","4","60.1","24.9833333","6.4","HELSINKI HARMAJA, FI","FM-12","99999","V020","060,1,N,0040,1","22000,1,9,N","022000,1,N,1","-0117,1","-0133,1","10437,1","00,1","0,1,03,1","00,1,+99999,9,99,9","00,99,1,00,1,00,1,99999,9,00,1,00,1","99999,9,10428,1","2,1,012,1,+999,9","-002,9","SYN100AAXX  20211 02795 47972 00604 11117 21133 30428 40437 52012 70000 92039 222// 01002 555 788// 0/606;",
"02795099999","2010-01-21T00:00:00","4","60.1","24.9833333","6.4","HELSINKI HARMAJA, FI","FM-12","99999","V020","060,1,N,0050,1","22000,1,9,N","017000,1,N,1","-0126,1","-0144,1","10444,1","00,1","0,1,06,1","00,1,+99999,9,99,9","00,99,1,00,1,00,1,99999,9,00,1,00,1","99999,9,10435,1","2,1,007,1,+999,9","-003,9","SYN100AAXX  21001 02795 47967 00605 11126 21144 30435 40444 52007 70000 92339 222// 01003 555 787// 0/005;",
"02795099999","2010-01-21T03:00:00","4","60.1","24.9833333","6.4","HELSINKI HARMAJA, FI","FM-12","99999","V020","060,1,N,0060,1","22000,1,9,N","012000,1,N,1","-0134,1","-0153,1","10445,1","00,1","0,1,03,1","00,1,+99999,9,99,9","00,99,1,00,1,00,1,99999,9,00,1,00,1","99999,9,10437,1","4,1,000,1,+999,9","-002,9","SYN100AAXX  21031 02795 47962 00606 11134 21153 30437 40445 54002 70000 90239 222// 01002 555 786// 0/007;",
"02795099999","2010-01-21T09:00:00","4","60.1","24.9833333","6.4","HELSINKI HARMAJA, FI","FM-12","99999","V020","060,1,N,0060,1","99999,9,9,N","007000,1,N,1","-0160,1","-0180,1","10464,1","71,1","6,1,03,1",,"05,99,1,05,1,99,9,00075,1,99,9,99,9","99999,9,10455,1","2,1,013,1,+999,9","-003,9","SYN106AAXX  21091 02795 47157 50606 11160 21180 30455 40464 52013 77164 85/// 90839 222// 01003 555 784// 0/307;",
"02795099999","2010-01-21T12:00:00","4","60.1","24.9833333","6.4","HELSINKI HARMAJA, FI","FM-12","99999","V020","999,9,9,9999,9","22000,1,9,N","012000,1,N,1","-0145,1","-0164,1","10470,1","00,1","6,1,06,1","00,1,+99999,9,99,9","00,99,1,00,1,00,1,99999,9,00,1,00,1","99999,9,10462,1","2,1,006,1,+999,9","-002,9","SYN100AAXX  21121 02795 47962 000// 11145 21164 30462 40470 52006 70064 91139 222// 01002 555 786// 0/507;",
"02795099999","2010-01-21T15:00:00","4","60.1","24.9833333","6.4","HELSINKI HARMAJA, FI","FM-12","99999","V020","060,1,N,0040,1","99999,9,9,N","016000,1,N,1","-0141,1","-0160,1","10473,1","00,1","0,1,03,1",,"05,99,1,05,1,99,9,00800,1,99,9,99,9","99999,9,10464,1","2,1,002,1,+999,9","-003,9","SYN106AAXX  21151 02795 47566 50604 11141 21160 30464 40473 52002 70000 85/// 91439 222// 01003 555 786// 0/606;",
"02795099999","2010-01-21T21:00:00","4","60.1","24.9833333","6.4","HELSINKI HARMAJA, FI","FM-12","99999","V020","070,1,N,0070,1","22000,1,9,N","012000,1,N,1","-0128,1","-0145,1","10474,1","71,1","6,1,03,1",,"01,99,1,01,1,99,9,00450,1,99,9,99,9","99999,9,10466,1","4,1,000,1,+999,9","-002,9","SYN106AAXX  21211 02795 47462 10707 11128 21145 30466 40474 54001 77165 81/// 92039 222// 01002 555 787// 0/209;",
"02795099999","2010-01-22T00:00:00","4","60.1","24.9833333","6.4","HELSINKI HARMAJA, FI","FM-12","99999","V020","120,1,N,0080,1","99999,9,9,N","030000,1,N,1","-0082,1","-0115,1","10473,1","64,1","6,1,06,1",,"07,99,1,07,1,99,9,00450,1,99,9,99,9","99999,9,10464,1","4,1,000,1,+999,9","-003,9","SYN106AAXX  22001 02795 47480 71208 11082 21115 30464 40473 54001 76465 87/// 92339 222// 01003 555 777// 0/008;",
"02795099999","2010-01-22T03:00:00","4","60.1","24.9833333","6.4","HELSINKI HARMAJA, FI","FM-12","99999","V020","130,1,N,0060,1","22000,1,9,N","025000,1,N,1","-0093,1","-0115,1","10470,1","64,1","6,1,03,1",,"03,99,1,03,1,99,9,00450,1,99,9,99,9","99999,9,10462,1","7,1,003,1,+999,9","-003,9","SYN106AAXX  22031 02795 47475 31306 11093 21115 30462 40470 57003 76465 83/// 90239 222// 01003 555 784// 0/409;",
"02795099999","2010-01-22T09:00:00","4","60.1","24.9833333","6.4","HELSINKI HARMAJA, FI","FM-12","99999","V020","120,1,N,0060,1","99999,9,9,N","004300,1,N,1","-0099,1","-0117,1","10476,1","67,1","6,1,03,1",,"07,99,1,07,1,99,9,00250,1,99,9,99,9","99999,9,10467,1","2,1,007,1,+999,9","-002,9","SYN106AAXX  22091 02795 47343 71206 11099 21117 30467 40476 52007 76765 87/// 90839 222// 01002 555 786// 0/506;",
"02795099999","2010-01-22T12:00:00","4","60.1","24.9833333","6.4","HELSINKI HARMAJA, FI","FM-12","99999","V020","130,1,N,0050,1","99999,9,9,N","021000,1,N,1","-0102,1","-0124,1","10471,1","71,1","6,1,06,1",,"07,99,1,07,1,99,9,00450,1,99,9,99,9","99999,9,10462,1","7,1,005,1,+999,9","-003,9","SYN106AAXX  22121 02795 47471 71305 11102 21124 30462 40471 57005 77165 87/// 91139 222// 01003 555 784// 0/607;",
"02795099999","2010-01-22T15:00:00","4","60.1","24.9833333","6.4","HELSINKI HARMAJA, FI","FM-12","99999","V020","130,1,N,0040,1","22000,1,9,N","030000,1,N,1","-0112,1","-0139,1","10468,1","00,1","6,1,03,1","00,1,+99999,9,99,9","00,99,1,00,1,00,1,99999,9,00,1,00,1","99999,9,10459,1","7,1,002,1,+999,9","-003,9","SYN100AAXX  22151 02795 47980 01304 11112 21139 30459 40468 57002 70065 91439 222// 01003 555 781// 0/506;",
"02795099999","2010-01-22T21:00:00","4","60.1","24.9833333","6.4","HELSINKI HARMAJA, FI","FM-12","99999","V020","140,1,N,0050,1","22000,1,9,N","040000,1,N,1","-0111,1","-0137,1","10466,1","00,1","0,1,03,1","00,1,+99999,9,99,9","00,99,1,00,1,00,1,99999,9,00,1,00,1","99999,9,10457,1","4,1,000,1,+999,9","-002,9","SYN100AAXX  22211 02795 47982 01405 11111 21137 30457 40466 54002 70000 92039 222// 01002 555 781// 0/005;",
"02795099999","2010-01-23T00:00:00","4","60.1","24.9833333","6.4","HELSINKI HARMAJA, FI","FM-12","99999","V020","110,1,N,0040,1","22000,1,9,N","045000,1,N,1","-0112,1","-0140,1","10466,1","00,1","0,1,06,1","00,1,+99999,9,99,9","00,99,1,00,1,00,1,99999,9,00,1,00,1","99999,9,10457,1","4,1,000,1,+999,9","-003,9","SYN100AAXX  23001 02795 47983 01104 11112 21140 30457 40466 54000 70000 92339 222// 01003 555 779// 0/505;",
"02795099999","2010-01-23T03:00:00","4","60.1","24.9833333","6.4","HELSINKI HARMAJA, FI","FM-12","99999","V020","060,1,N,0030,1","22000,1,9,N","019000,1,N,1","-0136,1","-0153,1","10460,1","00,1","0,1,03,1","00,1,+99999,9,99,9","00,99,1,00,1,00,1,99999,9,00,1,00,1","99999,9,10451,1","7,1,006,1,+999,9","-002,9","SYN100AAXX  23031 02795 47969 00603 11136 21153 30451 40460 57006 70000 90239 222// 01002 555 787// 0/404;",
"02795099999","2010-01-23T09:00:00","4","60.1","24.9833333","6.4","HELSINKI HARMAJA, FI","FM-12","99999","V020","070,1,N,0040,1","22000,1,9,N","015000,1,N,1","-0150,1","-0170,1","10461,1","00,1","0,1,03,1","00,1,+99999,9,99,9","00,99,1,00,1,00,1,99999,9,00,1,00,1","99999,9,10452,1","2,1,006,1,+999,9","-003,9","SYN100AAXX  23091 02795 47965 00704 11150 21170 30452 40461 52006 70000 90839 222// 01003 555 785// 0/604;",
"02795099999","2010-01-23T12:00:00","4","60.1","24.9833333","6.4","HELSINKI HARMAJA, FI","FM-12","99999","V020","070,1,N,0040,1","22000,1,9,N","017000,1,N,1","-0132,1","-0150,1","10456,1","00,1","0,1,06,1","00,1,+99999,9,99,9","00,99,1,00,1,00,1,99999,9,00,1,00,1","99999,9,10448,1","7,1,004,1,+999,9","-003,9","SYN100AAXX  23121 02795 47967 00704 11132 21150 30448 40456 57004 70000 91139 222// 01003 555 786// 0/104;",
"02795099999","2010-01-23T15:00:00","4","60.1","24.9833333","6.4","HELSINKI HARMAJA, FI","FM-12","99999","V020","070,1,N,0040,1","22000,1,9,N","019000,1,N,1","-0133,1","-0151,1","10457,1","00,1","0,1,03,1","00,1,+99999,9,99,9","00,99,1,00,1,00,1,99999,9,00,1,00,1","99999,9,10448,1","4,1,000,1,+999,9","-002,9","SYN100AAXX  23151 02795 47969 00704 11133 21151 30448 40457 54000 70000 91439 222// 01002 555 786// 0/105;",
"02795099999","2010-01-23T21:00:00","4","60.1","24.9833333","6.4","HELSINKI HARMAJA, FI","FM-12","99999","V020","050,1,N,0020,1","22000,1,9,N","015000,1,N,1","-0161,1","-0181,1","10456,1","00,1","0,1,03,1","00,1,+99999,9,99,9","00,99,1,00,1,00,1,99999,9,00,1,00,1","99999,9,10448,1","4,1,000,1,+999,9","-003,9","SYN100AAXX  23211 02795 47965 00502 11161 21181 30448 40456 54001 70000 92039 222// 01003 555 784// 0/504;",
"02795099999","2010-01-24T00:00:00","4","60.1","24.9833333","6.4","HELSINKI HARMAJA, FI","FM-12","99999","V020","050,1,N,0020,1","22000,1,9,N","013000,1,N,1","-0173,1","-0195,1","10454,1","00,1","0,1,06,1","00,1,+99999,9,99,9","00,99,1,00,1,00,1,99999,9,00,1,00,1","99999,9,10445,1","7,1,002,1,+999,9","-002,9","SYN100AAXX  24001 02795 47963 00502 11173 21195 30445 40454 57002 70000 92339 222// 01002 555 783// 0/602;",
"02795099999","2010-01-24T03:00:00","4","60.1","24.9833333","6.4","HELSINKI HARMAJA, FI","FM-12","99999","V020","050,1,N,0010,1","22000,1,9,N","012000,1,N,1","-0190,1","-0214,1","10448,1","00,1","0,1,03,1","00,1,+99999,9,99,9","00,99,1,00,1,00,1,99999,9,00,1,00,1","99999,9,10439,1","7,1,006,1,+999,9","-003,9","SYN100AAXX  24031 02795 47962 00501 11190 21214 30439 40448 57006 70000 90239 222// 01003 555 781// 0/503;",
"02795099999","2010-01-24T09:00:00","4","60.1","24.9833333","6.4","HELSINKI HARMAJA, FI","FM-12","99999","V020","040,1,N,0010,1","99999,9,9,N","009000,1,N,1","-0182,1","-0205,1","10449,1","71,1","7,1,03,1",,"08,99,1,08,1,99,9,00250,1,99,9,99,9","99999,9,10440,1","2,1,003,1,+999,9","-003,9","SYN106AAXX  24091 02795 47359 80401 11182 21205 30440 40449 52003 77176 88/// 90839 222// 01003 555 782// 0/501;",
"02795099999","2010-01-24T12:00:00","4","60.1","24.9833333","6.4","HELSINKI HARMAJA, FI","FM-12","99999","V020","080,1,N,0010,1","99999,9,9,N","009000,1,N,1","-0163,1","-0184,1","10440,1","71,1","7,1,06,1",,"07,99,1,07,1,99,9,00150,1,99,9,99,9","99999,9,10431,1","7,1,009,1,+999,9","-003,9","SYN106AAXX  24121 02795 47259 70801 11163 21184 30431 40440 57009 77176 87/// 91139 222// 01003 555 784// 0/101;",
"02795099999","2010-01-24T15:00:00","4","60.1","24.9833333","6.4","HELSINKI HARMAJA, FI","FM-12","99999","V020","999,9,C,0000,1","22000,1,9,N","016000,1,N,1","-0147,1","-0166,1","10433,1","71,1","6,1,03,1",,"03,99,1,03,1,99,9,00450,1,99,9,99,9","99999,9,10424,1","7,1,007,1,+999,9","-002,9","SYN106AAXX  24151 02795 47466 30000 11147 21166 30424 40433 57007 77165 83/// 91439 222// 01002 555 785// 0/601;",
"02795099999","2010-01-24T21:00:00","4","60.1","24.9833333","6.4","HELSINKI HARMAJA, FI","FM-12","99999","V020","240,1,N,0030,1","22000,1,9,N","019000,1,N,1","-0097,1","-0111,1","10424,1","64,1","6,1,03,1",,"03,99,1,03,1,99,9,00250,1,99,9,99,9","99999,9,10415,1","7,1,003,1,+999,9","-003,9","SYN106AAXX  24211 02795 47369 32403 11097 21111 30415 40424 57003 76465 83/// 92039 222// 01003 555 790// 0/003;",
"02795099999","2010-01-25T00:00:00","4","60.1","24.9833333","6.4","HELSINKI HARMAJA, FI","FM-12","99999","V020","250,1,N,0040,1","22000,1,9,N","014000,1,N,1","-0092,1","-0106,1","10423,1","64,1","7,1,06,1",,"03,99,1,03,1,99,9,01250,1,99,9,99,9","99999,9,10414,1","4,1,000,1,+999,9","-002,9","SYN106AAXX  25001 02795 47664 32504 11092 21106 30414 40423 54001 76476 83/// 92339 222// 01002 555 789// 0/204;",
"02795099999","2010-01-25T03:00:00","4","60.1","24.9833333","6.4","HELSINKI HARMAJA, FI","FM-12","99999","V020","290,1,N,0010,1","22000,1,9,N","018000,1,N,1","-0087,1","-0100,1","10417,1","64,1","7,1,03,1",,"03,99,1,03,1,99,9,00250,1,99,9,99,9","99999,9,10408,1","7,1,006,1,+999,9","-003,9","SYN106AAXX  25031 02795 47368 32901 11087 21100 30408 40417 57006 76476 83/// 90239 222// 01003 555 791// 0/604;",
"02795099999","2010-01-25T09:00:00","4","60.1","24.9833333","6.4","HELSINKI HARMAJA, FI","FM-12","99999","V020","280,1,N,0010,1","22000,1,9,N","021000,1,N,1","-0093,1","-0105,1","10419,1","25,1","8,1,03,1",,"01,99,1,01,1,99,9,00450,1,99,9,99,9","99999,9,10410,1","2,1,006,1,+999,9","-003,9","SYN106AAXX  25091 02795 47471 12801 11093 21105 30410 40419 52006 72586 81/// 90839 222// 01003 555 790// 0/502;",
"02795099999","2010-01-25T12:00:00","4","60.1","24.9833333","6.4","HELSINKI HARMAJA, FI","FM-12","99999","V020","090,1,N,0010,1","22000,1,9,N","021000,1,N,1","-0101,1","-0115,1","10417,1","71,1","8,1,06,1",,"03,99,1,03,1,99,9,00250,1,99,9,99,9","99999,9,10408,1","4,1,000,1,+999,9","-002,9","SYN106AAXX  25121 02795 47371 30901 11101 21115 30408 40417 54002 77186 83/// 91139 222// 01002 555 789// 0/302;",
"02795099999","2010-01-25T15:00:00","4","60.1","24.9833333","6.4","HELSINKI HARMAJA, FI","FM-12","99999","V020","340,1,N,0010,1","22000,1,9,N","011000,1,N,1","-0106,1","-0119,1","10416,1","00,1","6,1,03,1","00,1,+99999,9,99,9","00,99,1,00,1,00,1,99999,9,00,1,00,1","99999,9,10408,1","4,1,000,1,+999,9","-003,9","SYN100AAXX  25151 02795 47961 03401 11106 21119 30408 40416 54001 70062 91439 222// 01003 555 790// 0/601;",
"02795099999","2010-01-25T21:00:00","4","60.1","24.9833333","6.4","HELSINKI HARMAJA, FI","FM-12","99999","V020","040,1,N,0030,1","22000,1,9,N","009000,1,N,1","-0095,1","-0110,1","10421,1","64,1","6,1,03,1",,"03,99,1,03,1,99,9,00450,1,99,9,99,9","99999,9,10413,1","2,1,003,1,+999,9","-002,9","SYN106AAXX  25211 02795 47459 30403 11095 21110 30413 40421 52003 76465 83/// 92039 222// 01002 555 789// 0/604;",
"02795099999","2010-01-26T00:00:00","4","60.1","24.9833333","6.4","HELSINKI HARMAJA, FI","FM-12","99999","V020","050,1,N,0040,1","99999,9,9,N","007000,1,N,1","-0114,1","-0132,1","10428,1","71,1","7,1,06,1",,"07,99,1,07,1,99,9,00250,1,99,9,99,9","99999,9,10419,1","2,1,007,1,+999,9","-003,9","SYN106AAXX  26001 02795 47357 70504 11114 21132 30419 40428 52007 77176 87/// 92339 222// 01003 555 787// 0/004;",
"02795099999","2010-01-26T03:00:00","4","60.1","24.9833333","6.4","HELSINKI HARMAJA, FI","FM-12","99999","V020","050,1,N,0030,1","22000,1,9,N","045000,1,N,1","-0157,1","-0178,1","10434,1","00,1","6,1,03,1","00,1,+99999,9,99,9","00,99,1,00,1,00,1,99999,9,00,1,00,1","99999,9,10425,1","2,1,006,1,+999,9","-002,9","SYN100AAXX  26031 02795 47983 00503 11157 21178 30425 40434 52006 70065 90239 222// 01002 555 784// 0/205;",
"02795099999","2010-01-26T09:00:00","4","60.1","24.9833333","6.4","HELSINKI HARMAJA, FI","FM-12","99999","V020","030,1,N,0020,1","99999,9,9,N","024000,1,N,1","-0167,1","-0189,1","10452,1","71,1","6,1,03,1",,"07,99,1,07,1,99,9,00075,1,99,9,99,9","99999,9,10443,1","2,1,008,1,+999,9","-003,9","SYN106AAXX  26091 02795 47174 70302 11167 21189 30443 40452 52008 77165 87/// 90839 222// 01003 555 783// 0/604;",
"02795099999","2010-01-26T12:00:00","4","60.1","24.9833333","6.4","HELSINKI HARMAJA, FI","FM-12","99999","V020","050,1,N,0040,1","22000,1,9,N","026000,1,N,1","-0166,1","-0189,1","10447,1","25,1","6,1,06,1","00,1,+99999,9,99,9","00,99,1,00,1,00,1,99999,9,00,1,00,1","99999,9,10438,1","7,1,004,1,+999,9","-002,9","SYN100AAXX  26121 02795 47976 00504 11166 21189 30438 40447 57004 72565 91139 222// 01002 555 782// 0/104;",
"02795099999","2010-01-26T15:00:00","4","60.1","24.9833333","6.4","HELSINKI HARMAJA, FI","FM-12","99999","V020","030,1,N,0030,1","22000,1,9,N","030000,1,N,1","-0172,1","-0193,1","10444,1","25,1","6,1,03,1","00,1,+99999,9,99,9","00,99,1,00,1,00,1,99999,9,00,1,00,1","99999,9,10435,1","7,1,004,1,+999,9","-003,9","SYN100AAXX  26151 02795 47980 00303 11172 21193 30435 40444 57004 72565 91439 222// 01003 555 783// 0/604;",
"02795099999","2010-01-26T21:00:00","4","60.1","24.9833333","6.4","HELSINKI HARMAJA, FI","FM-12","99999","V020","050,1,N,0030,1","22000,1,9,N","035000,1,N,1","-0191,1","-0215,1","10414,1","00,1","0,1,03,1","00,1,+99999,9,99,9","00,99,1,00,1,00,1,99999,9,00,1,00,1","99999,9,10405,1","7,1,020,1,+999,9","-003,9","SYN100AAXX  26211 02795 47981 00503 11191 21215 30405 40414 57020 70000 92039 222// 01003 555 781// 0/604;",
"02795099999","2010-01-27T00:00:00","4","60.1","24.9833333","6.4","HELSINKI HARMAJA, FI","FM-12","99999","V020","070,1,N,0020,1","22000,1,9,N","026000,1,N,1","-0201,1","-0226,1","10387,1","00,1","5,1,06,1","00,1,+99999,9,99,9","00,99,1,00,1,00,1,99999,9,00,1,00,1","99999,9,10378,1","7,1,027,1,+999,9","-002,9","SYN100AAXX  27001 02795 47976 00702 11201 21226 30378 40387 57027 70054 92339 222// 01002 555 780// 0/603;",
"02795099999","2010-01-27T03:00:00","4","60.1","24.9833333","6.4","HELSINKI HARMAJA, FI","FM-12","99999","V020","060,1,N,0030,1","99999,9,9,N","016000,1,N,1","-0200,1","-0225,1","10348,1","71,1","7,1,03,1",,"08,99,1,08,1,99,9,00250,1,99,9,99,9","99999,9,10339,1","7,1,039,1,+999,9","-003,9","SYN106AAXX  27031 02795 47366 80603 11200 21225 30339 40348 57039 77170 88/// 90239 222// 01003 555 780// 0/003;",
"02795099999","2010-01-27T09:00:00","4","60.1","24.9833333","6.4","HELSINKI HARMAJA, FI","FM-12","99999","V020","160,1,N,0050,1","22000,1,9,N","026000,1,N,1","-0163,1","-0186,1","10256,1","00,1","6,1,03,1","00,1,+99999,9,99,9","00,99,1,00,1,00,1,99999,9,00,1,00,1","99999,9,10247,1","7,1,046,1,+999,9","-002,9","SYN100AAXX  27091 02795 47976 01605 11163 21186 30247 40256 57046 70062 90839 222// 01002 555 782// 0/105;",
"02795099999","2010-01-27T12:00:00","4","60.1","24.9833333","6.4","HELSINKI HARMAJA, FI","FM-12","99999","V020","170,1,N,0060,1","22000,1,9,N","012000,1,N,1","-0160,1","-0185,1","10207,1","71,1","8,1,06,1",,"03,99,1,03,1,99,9,00075,1,99,9,99,9","99999,9,10199,1","7,1,048,1,+999,9","-003,9","SYN106AAXX  27121 02795 47162 31706 11160 21185 30199 40207 57048 77186 83/// 91139 222// 01003 555 781// 0/207;",
"02795099999","2010-01-27T15:00:00","4","60.1","24.9833333","6.4","HELSINKI HARMAJA, FI","FM-12","99999","V020","170,1,N,0090,1","99999,9,9,N","006000,1,N,1","-0159,1","-0184,1","10161,1","71,1","6,1,03,1",,"05,99,1,05,1,99,9,00075,1,99,9,99,9","99999,9,10153,1","7,1,046,1,+999,9","-002,9","SYN106AAXX  27151 02795 47156 51709 11159 21184 30153 40161 57046 77160 85/// 91439 222// 01002 555 781// 0/010;",
"02795099999","2010-01-27T21:00:00","4","60.1","24.9833333","6.4","HELSINKI HARMAJA, FI","FM-12","99999","V020","140,1,N,0110,1","99999,9,9,N","004000,1,N,1","-0169,1","-0194,1","10095,1","71,1","6,1,03,1",,"07,99,1,07,1,99,9,00075,1,99,9,99,9","99999,9,10086,1","7,1,028,1,+999,9","-003,9","SYN106AAXX  27211 02795 47140 71411 11169 21194 30086 40095 57028 77165 87/// 92039 222// 01003 555 781// 0/511;",
"02795099999","2010-01-28T00:00:00","4","60.1","24.9833333","6.4","HELSINKI HARMAJA, FI","FM-12","99999","V020","130,1,N,0110,1","99999,9,9,N","004800,1,N,1","-0178,1","-0202,1","10058,1","71,1",,,"07,99,1,07,1,99,9,00150,1,99,9,99,9","99999,9,10049,1","7,1,037,1,+999,9","-003,9","SYN106AAXX  28001 02795 47248 71311 11178 21202 30049 40058 57037 771// 87/// 92339 222// 01003 555 781// 0/512;",
"02795099999","2010-01-28T03:00:00","4","60.1","24.9833333","6.4","HELSINKI HARMAJA, FI","FM-12","99999","V020","120,1,N,0090,1","99999,9,9,N","005000,1,N,1","-0174,1","-0199,1","10023,1","71,1","6,1,03,1",,"07,99,1,07,1,99,9,00075,1,99,9,99,9","99999,9,10015,1","7,1,035,1,+999,9","-003,9","SYN106AAXX  28031 02795 47150 71209 11174 21199 30015 40023 57035 77160 87/// 90239 222// 01003 555 780// 0/611;",
"02795099999","2010-01-28T09:00:00","4","60.1","24.9833333","6.4","HELSINKI HARMAJA, FI","FM-12","99999","V020","110,1,N,0100,1","99999,9,9,N","999999,9,N,1","-0158,1","-0180,1","09985,1",,,,"07,99,1,07,1,99,9,00150,1,99,9,99,9","99999,9,09977,1","7,1,010,1,+999,9","-003,9","SYN100AAXX  28091 02795 462// 71110 11158 21180 39977 49985 57010 87/// 90839 222// 01003 555 783// 0/612;",
"02795099999","2010-01-28T12:00:00","4","60.1","24.9833333","6.4","HELSINKI HARMAJA, FI","FM-12","99999","V020","090,1,N,0100,1","00240,1,9,N","002500,1,N,1","-0145,1","-0166,1","09964,1","71,1",,"09,1,+99999,9,99,9","09,99,1,09,1,99,9,99999,9,99,9,99,9","99999,9,09955,1","7,1,021,1,+999,9","-003,9","SYN100AAXX  28121 02795 47425 90910 11145 21166 39955 49964 57021 771// 91139 222// 01003 555 784// 0/011;",
"02795099999","2010-01-28T15:00:00","4","60.1","24.9833333","6.4","HELSINKI HARMAJA, FI","FM-12","99999","V020","100,1,N,0110,1","00240,1,9,N","002600,1,N,1","-0129,1","-0149,1","09946,1","71,1","6,1,03,1","09,1,+99999,9,99,9","09,99,1,09,1,99,9,99999,9,99,9,99,9","99999,9,09937,1","7,1,018,1,+999,9","-003,9","SYN100AAXX  28151 02795 47426 91011 11129 21149 39937 49946 57018 77160 91439 222// 01003 555 785// 0/212;",
"02795099999","2010-01-28T21:00:00","4","60.1","24.9833333","6.4","HELSINKI HARMAJA, FI","FM-12","99999","V020","110,1,N,0070,1","99999,9,9,N","001700,1,N,1","-0112,1","-0129,1","09914,1","71,1","7,1,03,1",,"07,99,1,07,1,99,9,00450,1,99,9,99,9","99999,9,09906,1","7,1,015,1,+999,9","-002,9","SYN106AAXX  28211 02795 47417 71107 11112 21129 39906 49914 57015 77176 87/// 92039 222// 01002 555 787// 0/613;",
"02795099999","2010-01-29T00:00:00","4","60.1","24.9833333","6.4","HELSINKI HARMAJA, FI","FM-12","99999","V020","120,1,N,0060,1","99999,9,9,N","001000,1,N,1","-0112,1","-0127,1","09904,1","71,1","7,1,06,1",,"07,99,1,07,1,99,9,00250,1,99,9,99,9","99999,9,09896,1","7,1,010,1,+999,9","-002,9","SYN106AAXX  29001 02795 47310 71206 11112 21127 39896 49904 57010 77176 87/// 92339 222// 01002 555 788// 0/608;",
"02795099999","2010-01-29T03:00:00","4","60.1","24.9833333","6.4","HELSINKI HARMAJA, FI","FM-12","99999","V020","100,1,N,0060,1","00240,1,9,N","005000,1,N,1","-0109,1","-0125,1","09895,1","71,1","7,1,03,1","09,1,+99999,9,99,9","09,99,1,09,1,99,9,99999,9,99,9,99,9","99999,9,09887,1","7,1,008,1,+999,9","-002,9","SYN100AAXX  29031 02795 47450 91006 11109 21125 39887 49895 57008 77176 90239 222// 01002 555 789// 0/507;",
"02795099999","2010-01-29T09:00:00","4","60.1","24.9833333","6.4","HELSINKI HARMAJA, FI","FM-12","99999","V020","060,1,N,0090,1","99999,9,9,N","001900,1,N,1","-0130,1","-0147,1","09892,1","74,1","7,1,03,1",,"08,99,1,08,1,99,9,00250,1,99,9,99,9","99999,9,09883,1","2,1,004,1,+999,9","-003,9","SYN106AAXX  29091 02795 47319 80609 11130 21147 39883 49892 52004 77470 88/// 90839 222// 01003 555 787// 0/613;",
"02795099999","2010-01-29T12:00:00","4","60.1","24.9833333","6.4","HELSINKI HARMAJA, FI","FM-12","99999","V020","060,1,N,0090,1","99999,9,9,N","002800,1,N,1","-0125,1","-0142,1","09883,1","71,1","7,1,06,1",,"07,99,1,07,1,99,9,00250,1,99,9,99,9","99999,9,09875,1","7,1,009,1,+999,9","-003,9","SYN106AAXX  29121 02795 47328 70609 11125 21142 39875 49883 57009 77176 87/// 91139 222// 01003 555 787// 0/510;",
"02795099999","2010-01-29T15:00:00","4","60.1","24.9833333","6.4","HELSINKI HARMAJA, FI","FM-12","99999","V020","060,1,N,0080,1","99999,9,9,N","004100,1,N,1","-0110,1","-0127,1","09880,1","71,1","7,1,03,1",,"07,99,1,07,1,99,9,00250,1,99,9,99,9","99999,9,09872,1","7,1,003,1,+999,9","-003,9","SYN106AAXX  29151 02795 47341 70608 11110 21127 39872 49880 57003 77176 87/// 91439 222// 01003 555 787// 0/510;",
"02795099999","2010-01-29T21:00:00","4","60.1","24.9833333","6.4","HELSINKI HARMAJA, FI","FM-12","99999","V020","070,1,N,0100,1","99999,9,9,N","001300,1,N,1","-0083,1","-0095,1","09880,1","71,1","7,1,03,1",,"08,99,1,08,1,99,9,00250,1,99,9,99,9","99999,9,09871,1","2,1,003,1,+999,9","-002,9","SYN106AAXX  29211 02795 47313 80710 11083 21095 39871 49880 52003 77176 88/// 92039 222// 01002 555 791// 0/512;",
"02795099999","2010-01-30T00:00:00","4","60.1","24.9833333","6.4","HELSINKI HARMAJA, FI","FM-12","99999","V020","070,1,N,0080,1","99999,9,9,N","002300,1,N,1","-0077,1","-0088,1","09880,1","71,1","7,1,06,1",,"07,99,1,07,1,99,9,00250,1,99,9,99,9","99999,9,09872,1","4,1,000,1,+999,9","-002,9","SYN106AAXX  30001 02795 47323 70708 11077 21088 39872 49880 54001 77176 87/// 92339 222// 01002 555 792// 0/411;",
"02795099999","2010-01-30T03:00:00","4","60.1","24.9833333","6.4","HELSINKI HARMAJA, FI","FM-12","99999","V020","140,1,N,0040,1","99999,9,9,N","004300,1,N,1","-0070,1","-0080,1","09891,1","64,1","7,1,03,1",,"07,99,1,07,1,99,9,00250,1,99,9,99,9","99999,9,09882,1","2,1,010,1,+999,9","-002,9","SYN106AAXX  30031 02795 47343 71404 11070 21080 39882 49891 52010 76476 87/// 90239 222// 01002 555 793// 0/608;",
"02795099999","2010-01-30T09:00:00","4","60.1","24.9833333","6.4","HELSINKI HARMAJA, FI","FM-12","99999","V020","160,1,N,0060,1","99999,9,9,N","012000,1,N,1","-0096,1","-0112,1","09935,1","64,1","6,1,03,1",,"07,99,1,07,1,99,9,00150,1,99,9,99,9","99999,9,09926,1","2,1,025,1,+999,9","-003,9","SYN106AAXX  30091 02795 47262 71606 11096 21112 39926 49935 52025 76465 87/// 90839 222// 01003 555 788// 0/006;",
"02795099999","2010-01-30T12:00:00","4","60.1","24.9833333","6.4","HELSINKI HARMAJA, FI","FM-12","99999","V020","160,1,N,0020,1","99999,9,9,N","012000,1,N,1","-0094,1","-0108,1","09946,1","85,1","8,1,06,1",,"05,99,1,05,1,99,9,00250,1,99,9,99,9","99999,9,09938,1","2,1,012,1,+999,9","-002,9","SYN106AAXX  30121 02795 47362 51602 11094 21108 39938 49946 52012 78587 85/// 91139 222// 01002 555 789// 0/606;",
"02795099999","2010-01-30T15:00:00","4","60.1","24.9833333","6.4","HELSINKI HARMAJA, FI","FM-12","99999","V020","080,1,N,0040,1","99999,9,9,N","007000,1,N,1","-0086,1","-0099,1","09952,1","71,1","7,1,03,1",,"07,99,1,07,1,99,9,00150,1,99,9,99,9","99999,9,09944,1","2,1,006,1,+999,9","-002,9","SYN106AAXX  30151 02795 47257 70804 11086 21099 39944 49952 52006 77176 87/// 91439 222// 01002 555 791// 0/004;",
"02795099999","2010-01-30T21:00:00","4","60.1","24.9833333","6.4","HELSINKI HARMAJA, FI","FM-12","99999","V020","090,1,N,0080,1","99999,9,9,N","001000,1,N,1","-0041,1","-0047,1","09921,1","71,1","7,1,03,1",,"08,99,1,08,1,99,9,00150,1,99,9,99,9","99999,9,09913,1","7,1,019,1,+999,9","-002,9","SYN106AAXX  30211 02795 47210 80908 11041 21047 39913 49921 57019 77176 88/// 92039 222// 01002 555 795// 0/211;",
"02795099999","2010-01-31T00:00:00","4","60.1","24.9833333","6.4","HELSINKI HARMAJA, FI","FM-12","99999","V020","110,1,N,0090,1","99999,9,9,N","000800,1,N,1","-0037,1","-0043,1","09907,1","72,1","7,1,06,1",,"08,99,1,08,1,99,9,00150,1,99,9,99,9","99999,9,09899,1","7,1,014,1,+999,9","-003,9","SYN106AAXX  31001 02795 47208 81109 11037 21043 39899 49907 57014 77276 88/// 92339 222// 01003 555 796// 0/510;",
"02795099999","2010-01-31T03:00:00","4","60.1","24.9833333","6.4","HELSINKI HARMAJA, FI","FM-12","99999","V020","140,1,N,0090,1","99999,9,9,N","999999,9,N,1","-0031,1","-0037,1","09903,1",,,,"08,99,1,08,1,99,9,00250,1,99,9,99,9","99999,9,09895,1","7,1,004,1,+999,9","-002,9","SYN100AAXX  31031 02795 463// 81409 11031 21037 39895 49903 57004 88/// 90239 222// 01002 555 796// 0/409;",
"02795099999","2010-01-31T09:00:00","4","60.1","24.9833333","6.4","HELSINKI HARMAJA, FI","FM-12","99999","V020","150,1,N,0090,1","99999,9,9,N","999999,9,N,1","-0032,1","-0037,1","09926,1",,,,"07,99,1,07,1,99,9,00250,1,99,9,99,9","99999,9,09918,1","2,1,014,1,+999,9","-003,9","SYN100AAXX  31091 02795 463// 71509 11032 21037 39918 49926 52014 87/// 90839 222// 01003 555 796// 0/210;",
"02795099999","2010-01-31T12:00:00","4","60.1","24.9833333","6.4","HELSINKI HARMAJA, FI","FM-12","99999","V020","160,1,N,0070,1","99999,9,9,N","999999,9,N,1","-0019,1","-0024,1","09945,1",,,,"05,99,1,05,1,99,9,00450,1,99,9,99,9","99999,9,09937,1","2,1,019,1,+999,9","-002,9","SYN100AAXX  31121 02795 464// 51607 11019 21024 39937 49945 52019 85/// 91139 222// 01002 555 796// 0/609;",
"02795099999","2010-01-31T15:00:00","4","60.1","24.9833333","6.4","HELSINKI HARMAJA, FI","FM-12","99999","V020","190,1,N,0090,1","22000,1,9,N","999999,9,N,1","-0018,1","-0024,1","09971,1",,,,"03,99,1,03,1,99,9,00250,1,99,9,99,9","99999,9,09963,1","2,1,026,1,+999,9","-003,9","SYN100AAXX  31151 02795 463// 31909 11018 21024 39963 49971 52026 83/// 91439 222// 01003 555 796// 0/010;",
"02795099999","2010-01-31T21:00:00","4","60.1","24.9833333","6.4","HELSINKI HARMAJA, FI","FM-12","99999","V020","200,1,N,0080,1","22000,1,9,N","999999,9,N,1","-0036,1","-0046,1","10060,1",,,,"01,99,1,01,1,99,9,00250,1,99,9,99,9","99999,9,10052,1","2,1,034,1,+999,9","-003,9","SYN100AAXX  31211 02795 463// 12008 11036 21046 30052 40060 52034 81/// 92039 222// 01003 555 793// 0/008;",
"02795099999","2010-02-01T00:00:00","4","60.1","24.9833333","6.4","HELSINKI HARMAJA, FI","FM-12","99999","V020","190,1,N,0050,1","22000,1,9,N","040000,1,N,1","-0041,1","-0061,1","10086,1","54,1",,,"01,99,1,01,1,99,9,01250,1,99,9,99,9","99999,9,10078,1","2,1,026,1,+999,9","-003,9","SYN106AAXX  01001 02795 47682 11905 11041 21061 30078 40086 52026 754// 81/// 92339 222// 01003 555 786// 0/608;",
"02795099999","2010-02-01T03:00:00","4","60.1","24.9833333","6.4","HELSINKI HARMAJA, FI","FM-12","99999","V020","140,1,N,0020,1","22000,1,9,N","008000,1,N,1","-0074,1","-0086,1","10096,1","10,1","5,1,03,1","00,1,+99999,9,99,9","00,99,1,00,1,00,1,99999,9,00,1,00,1","99999,9,10088,1","2,1,010,1,+999,9","-002,9","SYN100AAXX  01031 02795 47958 01402 11074 21086 30088 40096 52010 71052 90239 222// 01002 555 791// 0/605;",
"02795099999","2010-02-01T09:00:00","4","60.1","24.9833333","6.4","HELSINKI HARMAJA, FI","FM-12","99999","V020","050,1,N,0040,1","22000,1,9,N","015000,1,N,1","-0067,1","-0077,1","10099,1","00,1","3,1,03,1","00,1,+99999,9,99,9","00,99,1,00,1,00,1,99999,9,00,1,00,1","99999,9,10091,1","7,1,003,1,+999,9","-003,9","SYN100AAXX  01091 02795 47965 00504 11067 21077 30091 40099 57003 70020 90839 222// 01003 555 793// 0/004;",
"02795099999","2010-02-01T12:00:00","4","60.1","24.9833333","6.4","HELSINKI HARMAJA, FI","FM-12","99999","V020","040,1,N,0050,1","22000,1,9,N","018000,1,N,1","-0049,1","-0068,1","10075,1","00,1","3,1,06,1","00,1,+99999,9,99,9","00,99,1,00,1,00,1,99999,9,00,1,00,1","99999,9,10067,1","7,1,024,1,+999,9","-003,9","SYN100AAXX  01121 02795 47968 00405 11049 21068 30067 40075 57024 70020 91139 222// 01003 555 787// 0/206;",
"02795099999","2010-02-01T15:00:00","4","60.1","24.9833333","6.4","HELSINKI HARMAJA, FI","FM-12","99999","V020","010,1,N,0080,1","22000,1,9,N","004000,1,N,1","-0050,1","-0070,1","10045,1","64,1","6,1,03,1",,"03,99,1,03,1,99,9,00250,1,99,9,99,9","99999,9,10036,1","7,1,031,1,+999,9","-003,9","SYN106AAXX  01151 02795 47340 30108 11050 21070 30036 40045 57031 76465 83/// 91439 222// 01003 555 786// 0/008;",
"02795099999","2010-02-01T21:00:00","4","60.1","24.9833333","6.4","HELSINKI HARMAJA, FI","FM-12","99999","V020","040,1,N,0050,1","99999,9,9,N","008000,1,N,1","-0057,1","-0070,1","09983,1","64,1","7,1,03,1",,"07,99,1,07,1,99,9,00250,1,99,9,99,9","99999,9,09975,1","7,1,030,1,+999,9","-003,9","SYN106AAXX  01211 02795 47358 70405 11057 21070 39975 49983 57030 76476 87/// 92039 222// 01003 555 790// 0/508;",
"02795099999","2010-02-02T00:00:00","4","60.1","24.9833333","6.4","HELSINKI HARMAJA, FI","FM-12","99999","V020","030,1,N,0040,1","22000,1,9,N","008000,1,N,1","-0062,1","-0079,1","09956,1","64,1","7,1,06,1",,"01,99,1,01,1,99,9,00450,1,99,9,99,9","99999,9,09948,1","7,1,027,1,+999,9","-003,9","SYN106AAXX  02001 02795 47458 10304 11062 21079 39948 49956 57027 76476 81/// 92339 222// 01003 555 788// 0/305;",
"02795099999","2010-02-02T03:00:00","4","60.1","24.9833333","6.4","HELSINKI HARMAJA, FI","FM-12","99999","V020","350,1,N,0050,1","99999,9,9,N","007000,1,N,1","-0068,1","-0079,1","09936,1","67,1","7,1,03,1",,"07,99,1,07,1,99,9,00150,1,99,9,99,9","99999,9,09928,1","7,1,020,1,+999,9","-002,9","SYN106AAXX  02031 02795 47257 73505 11068 21079 39928 49936 57020 76776 87/// 90239 222// 01002 555 791// 0/005;",
"02795099999","2010-02-02T09:00:00","4","60.1","24.9833333","6.4","HELSINKI HARMAJA, FI","FM-12","99999","V020","210,1,N,0050,1","99999,9,9,N","004200,1,N,1","-0074,1","-0084,1","09964,1","64,1","7,1,03,1",,"07,99,1,07,1,99,9,00250,1,99,9,99,9","99999,9,09955,1","2,1,032,1,+999,9","-002,9","SYN106AAXX  02091 02795 47342 72105 11074 21084 39955 49964 52032 76476 87/// 90839 222// 01002 555 792// 0/205;",
"02795099999","2010-02-02T12:00:00","4","60.1","24.9833333","6.4","HELSINKI HARMAJA, FI","FM-12","99999","V020","220,1,N,0040,1","99999,9,9,N","014000,1,N,1","-0084,1","-0096,1","10006,1","64,1","7,1,06,1",,"05,99,1,05,1,99,9,00150,1,99,9,99,9","99999,9,09997,1","2,1,042,1,+999,9","-002,9","SYN106AAXX  02121 02795 47264 52204 11084 21096 39997 40006 52042 76476 85/// 91139 222// 01002 555 792// 0/306;",
"02795099999","2010-02-02T15:00:00","4","60.1","24.9833333","6.4","HELSINKI HARMAJA, FI","FM-12","99999","V020","240,1,N,0040,1","99999,9,9,N","020000,1,N,1","-0088,1","-0101,1","10047,1","00,1","8,1,03,1",,"05,99,1,05,1,99,9,00800,1,99,9,99,9","99999,9,10038,1","2,1,041,1,+999,9","-002,9","SYN106AAXX  02151 02795 47570 52404 11088 21101 30038 40047 52041 70086 85/// 91439 222// 01002 555 791// 0/407;",
"02795099999","2010-02-02T21:00:00","4","60.1","24.9833333","6.4","HELSINKI HARMAJA, FI","FM-12","99999","V020","170,1,N,0040,1","99999,9,9,N","050000,1,N,1","-0028,1","-0053,1","10089,1","00,1","8,1,03,1",,"07,99,1,07,1,99,9,00800,1,99,9,99,9","99999,9,10081,1","2,1,015,1,+999,9","-002,9","SYN106AAXX  02211 02795 47599 71704 11028 21053 30081 40089 52015 70085 87/// 92039 222// 01002 555 782// 0/206;",
"02795099999","2010-02-03T00:00:00","4","60.1","24.9833333","6.4","HELSINKI HARMAJA, FI","FM-12","99999","V020","130,1,N,0040,1","99999,9,9,N","045000,1,N,1","-0048,1","-0068,1","10097,1","00,1","8,1,06,1",,"07,99,1,07,1,99,9,00800,1,99,9,99,9","99999,9,10088,1","2,1,007,1,+999,9","-002,9","SYN106AAXX  03001 02795 47583 71304 11048 21068 30088 40097 52007 70085 87/// 92339 222// 01002 555 786// 0/505;",
"02795099999","2010-02-03T03:00:00","4","60.1","24.9833333","6.4","HELSINKI HARMAJA, FI","FM-12","99999","V020","110,1,N,0040,1","99999,9,9,N","050000,1,N,1","-0038,1","-0060,1","10097,1","00,1","0,1,03,1",,"05,99,1,05,1,99,9,00800,1,99,9,99,9","99999,9,10089,1","4,1,000,1,+999,9","-002,9","SYN106AAXX  03031 02795 47599 51104 11038 21060 30089 40097 54000 70000 85/// 90239 222// 01002 555 785// 0/405;",
"02795099999","2010-02-03T09:00:00","4","60.1","24.9833333","6.4","HELSINKI HARMAJA, FI","FM-12","99999","V020","130,1,N,0030,1","22000,1,9,N","045000,1,N,1","-0042,1","-0066,1","10109,1","00,1","0,1,03,1",,"03,99,1,03,1,99,9,00800,1,99,9,99,9","99999,9,10101,1","2,1,010,1,+999,9","-002,9","SYN106AAXX  03091 02795 47583 31303 11042 21066 30101 40109 52010 70000 83/// 90839 222// 01002 555 783// 0/605;",
"02795099999","2010-02-03T12:00:00","4","60.1","24.9833333","6.4","HELSINKI HARMAJA, FI","FM-12","99999","V020","110,1,N,0060,1","22000,1,9,N","030000,1,N,1","-0053,1","-0083,1","10123,1","00,1","0,1,06,1","00,1,+99999,9,99,9","00,99,1,00,1,00,1,99999,9,00,1,00,1","99999,9,10115,1","2,1,014,1,+999,9","-002,9","SYN100AAXX  03121 02795 47980 01106 11053 21083 30115 40123 52014 70000 91139 222// 01002 555 779// 0/006;",
"02795099999","2010-02-03T15:00:00","4","60.1","24.9833333","6.4","HELSINKI HARMAJA, FI","FM-12","99999","V020","090,1,N,0060,1","22000,1,9,N","035000,1,N,1","-0094,1","-0111,1","10135,1","00,1","0,1,03,1","00,1,+99999,9,99,9","00,99,1,00,1,00,1,99999,9,00,1,00,1","99999,9,10127,1","2,1,012,1,+999,9","-002,9","SYN100AAXX  03151 02795 47981 00906 11094 21111 30127 40135 52012 70000 91439 222// 01002 555 788// 0/207;",
"02795099999","2010-02-03T21:00:00","4","60.1","24.9833333","6.4","HELSINKI HARMAJA, FI","FM-12","99999","V020","110,1,N,0070,1","22000,1,9,N","008000,1,N,1","-0062,1","-0077,1","10185,1","54,1","6,1,03,1",,"01,99,1,01,1,99,9,00450,1,99,9,99,9","99999,9,10176,1","2,1,022,1,+999,9","-003,9","SYN106AAXX  03211 02795 47458 11107 11062 21077 30176 40185 52022 75465 81/// 92039 222// 01003 555 789// 0/507;",
"02795099999","2010-02-04T00:00:00","4","60.1","24.9833333","6.4","HELSINKI HARMAJA, FI","FM-12","99999","V020","110,1,N,0060,1","99999,9,9,N","011000,1,N,1","-0055,1","-0073,1","10209,1","54,1","6,1,06,1",,"05,99,1,05,1,99,9,00800,1,99,9,99,9","99999,9,10201,1","2,1,024,1,+999,9","-003,9","SYN106AAXX  04001 02795 47561 51106 11055 21073 30201 40209 52024 75465 85/// 92339 222// 01003 555 787// 0/308;",
"02795099999","2010-02-04T03:00:00","4","60.1","24.9833333","6.4","HELSINKI HARMAJA, FI","FM-12","99999","V020","110,1,N,0080,1","22000,1,9,N","005000,1,N,1","-0043,1","-0058,1","10221,1","64,1","6,1,03,1","00,1,+99999,9,99,9","00,99,1,00,1,00,1,99999,9,00,1,00,1","99999,9,10212,1","2,1,012,1,+999,9","-002,9","SYN100AAXX  04031 02795 47950 01108 11043 21058 30212 40221 52012 76465 90239 222// 01002 555 789// 0/008;",
"02795099999","2010-02-04T09:00:00","4","60.1","24.9833333","6.4","HELSINKI HARMAJA, FI","FM-12","99999","V020","080,1,N,0070,1","99999,9,9,N","011000,1,N,1","-0045,1","-0054,1","10230,1","25,1","5,1,03,1",,"07,99,1,07,1,99,9,00150,1,99,9,99,9","99999,9,10222,1","2,1,004,1,+999,9","-003,9","SYN106AAXX  04091 02795 47261 70807 11045 21054 30222 40230 52004 72554 87/// 90839 222// 01003 555 793// 0/108;",
"02795099999","2010-02-04T12:00:00","4","60.1","24.9833333","6.4","HELSINKI HARMAJA, FI","FM-12","99999","V020","080,1,N,0070,1","99999,9,9,N","008000,1,N,1","-0043,1","-0052,1","10235,1","54,1","8,1,06,1",,"08,99,1,08,1,99,9,00150,1,99,9,99,9","99999,9,10226,1","2,1,004,1,+999,9","-003,9","SYN106AAXX  04121 02795 47258 80807 11043 21052 30226 40235 52004 75486 88/// 91139 222// 01003 555 794// 0/409;",
"02795099999","2010-02-04T15:00:00","4","60.1","24.9833333","6.4","HELSINKI HARMAJA, FI","FM-12","99999","V020","090,1,N,0050,1","99999,9,9,N","011000,1,N,1","-0046,1","-0054,1","10236,1","00,1","8,1,03,1",,"08,99,1,08,1,99,9,00450,1,99,9,99,9","99999,9,10227,1","4,1,000,1,+999,9","-002,9","SYN106AAXX  04151 02795 47461 80905 11046 21054 30227 40236 54001 70085 88/// 91439 222// 01002 555 794// 0/607;",
"02795099999","2010-02-04T21:00:00","4","60.1","24.9833333","6.4","HELSINKI HARMAJA, FI","FM-12","99999","V020","160,1,N,0040,1","99999,9,9,N","021000,1,N,1","-0034,1","-0051,1","10257,1","54,1","5,1,03,1",,"08,99,1,08,1,99,9,00450,1,99,9,99,9","99999,9,10249,1","2,1,014,1,+999,9","-003,9","SYN106AAXX  04211 02795 47471 81604 11034 21051 30249 40257 52014 75454 88/// 92039 222// 01003 555 788// 0/506;",
"02795099999","2010-02-05T00:00:00","4","60.1","24.9833333","6.4","HELSINKI HARMAJA, FI","FM-12","99999","V020","170,1,N,0050,1","99999,9,9,N","015000,1,N,1","-0036,1","-0054,1","10264,1","00,1","8,1,06,1",,"08,99,1,08,1,99,9,00450,1,99,9,99,9","99999,9,10256,1","2,1,007,1,+999,9","-003,9","SYN106AAXX  05001 02795 47465 81705 11036 21054 30256 40264 52007 70086 88/// 92339 222// 01003 555 787// 0/005;",
"02795099999","2010-02-05T03:00:00","4","60.1","24.9833333","6.4","HELSINKI HARMAJA, FI","FM-12","99999","V020","170,1,N,0050,1","99999,9,9,N","005000,1,N,1","-0038,1","-0045,1","10272,1","41,1","7,1,03,1",,"07,99,1,07,1,99,9,00250,1,99,9,99,9","99999,9,10264,1","2,1,008,1,+999,9","-003,9","SYN106AAXX  05031 02795 47350 71705 11038 21045 30264 40272 52008 74176 87/// 90239 222// 01003 555 794// 0/605;",
"02795099999","2010-02-05T09:00:00","4","60.1","24.9833333","6.4","HELSINKI HARMAJA, FI","FM-12","99999","V020","210,1,N,0050,1","99999,9,9,N","006000,1,N,1","-0033,1","-0041,1","10300,1","25,1","8,1,03,1",,"08,99,1,08,1,99,9,00150,1,99,9,99,9","99999,9,10292,1","2,1,016,1,+999,9","-002,9","SYN106AAXX  05091 02795 47256 82105 11033 21041 30292 40300 52016 72585 88/// 90839 222// 01002 555 794// 0/305;",
"02795099999","2010-02-05T12:00:00","4","60.1","24.9833333","6.4","HELSINKI HARMAJA, FI","FM-12","99999","V020","190,1,N,0040,1","99999,9,9,N","007000,1,N,1","-0028,1","-0038,1","10313,1","10,1","8,1,06,1",,"08,99,1,08,1,99,9,00150,1,99,9,99,9","99999,9,10304,1","2,1,013,1,+999,9","-003,9","SYN106AAXX  05121 02795 47257 81904 11028 21038 30304 40313 52013 71086 88/// 91139 222// 01003 555 792// 0/606;",
"02795099999","2010-02-05T15:00:00","4","60.1","24.9833333","6.4","HELSINKI HARMAJA, FI","FM-12","99999","V020","180,1,N,0030,1","99999,9,9,N","007000,1,N,1","-0030,1","-0041,1","10325,1","10,1","2,1,03,1",,"08,99,1,08,1,99,9,00150,1,99,9,99,9","99999,9,10317,1","2,1,012,1,+999,9","-003,9","SYN106AAXX  05151 02795 47257 81803 11030 21041 30317 40325 52012 71010 88/// 91439 222// 01003 555 792// 0/604;",
"02795099999","2010-02-05T21:00:00","4","60.1","24.9833333","6.4","HELSINKI HARMAJA, FI","FM-12","99999","V020","200,1,N,0030,1","99999,9,9,N","009000,1,N,1","-0041,1","-0054,1","10335,1","10,1","2,1,03,1",,"08,99,1,08,1,99,9,00250,1,99,9,99,9","99999,9,10327,1","2,1,004,1,+999,9","-003,9","SYN106AAXX  05211 02795 47359 82003 11041 21054 30327 40335 52004 71010 88/// 92039 222// 01003 555 790// 0/405;",
"02795099999","2010-02-06T00:00:00","4","60.1","24.9833333","6.4","HELSINKI HARMAJA, FI","FM-12","99999","V020","150,1,N,0020,1","22000,1,9,N","000200,1,N,1","-0078,1","-0087,1","10335,1","34,1","4,1,06,1",,"01,99,1,01,1,99,9,00250,1,99,9,99,9","99999,9,10326,1","4,1,000,1,+999,9","-003,9","SYN106AAXX  06001 02795 47302 11502 11078 21087 30326 40335 54000 73431 81/// 92339 222// 01003 555 793// 0/603;",
"02795099999","2010-02-06T03:00:00","4","60.1","24.9833333","6.4","HELSINKI HARMAJA, FI","FM-12","99999","V020","130,1,N,0020,1","99999,9,9,N","005000,1,N,1","-0083,1","-0094,1","10331,1","54,1","5,1,03,1",,"08,99,1,08,1,99,9,00250,1,99,9,99,9","99999,9,10322,1","7,1,004,1,+999,9","-003,9","SYN106AAXX  06031 02795 47350 81302 11083 21094 30322 40331 57004 75454 88/// 90239 222// 01003 555 792// 0/203;",
"02795099999","2010-02-06T09:00:00","4","60.1","24.9833333","6.4","HELSINKI HARMAJA, FI","FM-12","99999","V020","180,1,N,0050,1","99999,9,9,N","005000,1,N,1","-0065,1","-0074,1","10319,1","25,1","5,1,03,1",,"08,99,1,08,1,99,9,00075,1,99,9,99,9","99999,9,10310,1","7,1,008,1,+999,9","-002,9","SYN106AAXX  06091 02795 47150 81805 11065 21074 30310 40319 57008 72554 88/// 90839 222// 01002 555 793// 0/005;",
"02795099999","2010-02-06T12:00:00","4","60.1","24.9833333","6.4","HELSINKI HARMAJA, FI","FM-12","99999","V020","200,1,N,0040,1","99999,9,9,N","008000,1,N,1","-0067,1","-0076,1","10307,1","10,1","5,1,06,1",,"08,99,1,08,1,99,9,00150,1,99,9,99,9","99999,9,10298,1","7,1,012,1,+999,9","-002,9","SYN106AAXX  06121 02795 47258 82004 11067 21076 30298 40307 57012 71054 88/// 91139 222// 01002 555 793// 0/605;",
"02795099999","2010-02-06T15:00:00","4","60.1","24.9833333","6.4","HELSINKI HARMAJA, FI","FM-12","99999","V020","200,1,N,0020,1","99999,9,9,N","008000,1,N,1","-0072,1","-0082,1","10299,1","54,1","7,1,03,1",,"07,99,1,07,1,99,9,00250,1,99,9,99,9","99999,9,10291,1","7,1,008,1,+999,9","-002,9","SYN106AAXX  06151 02795 47358 72002 11072 21082 30291 40299 57008 75475 87/// 91439 222// 01002 555 792// 0/604;",
"02795099999","2010-02-06T21:00:00","4","60.1","24.9833333","6.4","HELSINKI HARMAJA, FI","FM-12","99999","V020","190,1,N,0040,1","99999,9,9,N","007000,1,N,1","-0072,1","-0085,1","10278,1","64,1","7,1,03,1",,"07,99,1,07,1,99,9,00150,1,99,9,99,9","99999,9,10269,1","7,1,012,1,+999,9","-002,9","SYN106AAXX  06211 02795 47257 71904 11072 21085 30269 40278 57012 76476 87/// 92039 222// 01002 555 791// 0/205;",
"02795099999","2010-02-07T00:00:00","4","60.1","24.9833333","6.4","HELSINKI HARMAJA, FI","FM-12","99999","V020","210,1,N,0030,1","99999,9,9,N","015000,1,N,1","-0064,1","-0077,1","10269,1","00,1","8,1,06,1",,"07,99,1,07,1,99,9,00450,1,99,9,99,9","99999,9,10261,1","7,1,009,1,+999,9","-003,9","SYN106AAXX  07001 02795 47465 72103 11064 21077 30261 40269 57009 70087 87/// 92339 222// 01003 555 790// 0/604;",
"02795099999","2010-02-07T03:00:00","4","60.1","24.9833333","6.4","HELSINKI HARMAJA, FI","FM-12","99999","V020","220,1,N,0050,1","99999,9,9,N","009000,1,N,1","-0056,1","-0067,1","10257,1","64,1","7,1,03,1",,"08,99,1,08,1,99,9,00250,1,99,9,99,9","99999,9,10248,1","7,1,012,1,+999,9","-003,9","SYN106AAXX  07031 02795 47359 82205 11056 21067 30248 40257 57012 76476 88/// 90239 222// 01003 555 792// 0/006;",
"02795099999","2010-02-07T09:00:00","4","60.1","24.9833333","6.4","HELSINKI HARMAJA, FI","FM-12","99999","V020","200,1,N,0060,1","99999,9,9,N","006000,1,N,1","-0048,1","-0055,1","10237,1","67,1","6,1,03,1",,"07,99,1,07,1,99,9,00250,1,99,9,99,9","99999,9,10229,1","7,1,007,1,+999,9","-003,9","SYN106AAXX  07091 02795 47356 72006 11048 21055 30229 40237 57007 76765 87/// 90839 222// 01003 555 795// 0/307;",
"02795099999","2010-02-07T12:00:00","4","60.1","24.9833333","6.4","HELSINKI HARMAJA, FI","FM-12","99999","V020","220,1,N,0070,1","99999,9,9,N","011000,1,N,1","-0040,1","-0047,1","10226,1","10,1","6,1,06,1",,"05,99,1,05,1,99,9,00250,1,99,9,99,9","99999,9,10218,1","7,1,011,1,+999,9","-002,9","SYN106AAXX  07121 02795 47361 52207 11040 21047 30218 40226 57011 71065 85/// 91139 222// 01002 555 795// 0/208;",
"02795099999","2010-02-07T15:00:00","4","60.1","24.9833333","6.4","HELSINKI HARMAJA, FI","FM-12","99999","V020","210,1,N,0080,1","99999,9,9,N","001700,1,N,1","-0037,1","-0043,1","10212,1","67,1","7,1,03,1",,"07,99,1,07,1,99,9,00250,1,99,9,99,9","99999,9,10204,1","7,1,014,1,+999,9","-002,9","SYN106AAXX  07151 02795 47317 72108 11037 21043 30204 40212 57014 76776 87/// 91439 222// 01002 555 796// 0/209;",
"02795099999","2010-02-07T21:00:00","4","60.1","24.9833333","6.4","HELSINKI HARMAJA, FI","FM-12","99999","V020","210,1,N,0080,1","99999,9,9,N","001000,1,N,1","-0038,1","-0044,1","10188,1","71,1","7,1,03,1",,"07,99,1,07,1,99,9,00150,1,99,9,99,9","99999,9,10180,1","7,1,012,1,+999,9","-002,9","SYN106AAXX  07211 02795 47210 72108 11038 21044 30180 40188 57012 77176 87/// 92039 222// 01002 555 796// 0/409;",
"02795099999","2010-02-08T00:00:00","4","60.1","24.9833333","6.4","HELSINKI HARMAJA, FI","FM-12","99999","V020","210,1,N,0090,1","99999,9,9,N","004400,1,N,1","-0038,1","-0044,1","10173,1","54,1","7,1,06,1",,"07,99,1,07,1,99,9,00150,1,99,9,99,9","99999,9,10165,1","7,1,015,1,+999,9","-003,9","SYN106AAXX  08001 02795 47244 72109 11038 21044 30165 40173 57015 75476 87/// 92339 222// 01003 555 795// 0/210;",
"02795099999","2010-02-08T03:00:00","4","60.1","24.9833333","6.4","HELSINKI HARMAJA, FI","FM-12","99999","V020","200,1,N,0080,1","99999,9,9,N","002700,1,N,1","-0037,1","-0043,1","10158,1","74,1","7,1,03,1",,"07,99,1,07,1,99,9,00250,1,99,9,99,9","99999,9,10150,1","7,1,015,1,+999,9","-003,9","SYN106AAXX  08031 02795 47327 72008 11037 21043 30150 40158 57015 77476 87/// 90239 222// 01003 555 796// 0/410;",
"02795099999","2010-02-08T09:00:00","4","60.1","24.9833333","6.4","HELSINKI HARMAJA, FI","FM-12","99999","V020","200,1,N,0080,1","99999,9,9,N","005000,1,N,1","-0023,1","-0028,1","10141,1","54,1","7,1,03,1",,"07,99,1,07,1,99,9,00150,1,99,9,99,9","99999,9,10133,1","7,1,002,1,+999,9","-003,9","SYN106AAXX  08091 02795 47250 72008 11023 21028 30133 40141 57002 75476 87/// 90839 222// 01003 555 796// 0/408;",
"02795099999","2010-02-08T12:00:00","4","60.1","24.9833333","6.4","HELSINKI HARMAJA, FI","FM-12","99999","V020","200,1,N,0100,1","22000,1,9,N","002700,1,N,1","-0024,1","-0030,1","10134,1","67,1","8,1,06,1",,"03,99,1,03,1,99,9,00150,1,99,9,99,9","99999,9,10125,1","7,1,008,1,+999,9","-002,9","SYN106AAXX  08121 02795 47227 32010 11024 21030 30125 40134 57008 76787 83/// 91139 222// 01002 555 796// 0/210;",
"02795099999","2010-02-08T15:00:00","4","60.1","24.9833333","6.4","HELSINKI HARMAJA, FI","FM-12","99999","V020","190,1,N,0080,1","99999,9,9,N","006000,1,N,1","-0029,1","-0035,1","10130,1","41,1","7,1,03,1",,"07,99,1,07,1,99,9,00450,1,99,9,99,9","99999,9,10122,1","7,1,003,1,+999,9","-003,9","SYN106AAXX  08151 02795 47456 71908 11029 21035 30122 40130 57003 74176 87/// 91439 222// 01003 555 796// 0/610;",
"02795099999","2010-02-08T21:00:00","4","60.1","24.9833333","6.4","HELSINKI HARMAJA, FI","FM-12","99999","V020","170,1,N,0060,1","99999,9,9,N","007000,1,N,1","-0061,1","-0071,1","10138,1","64,1","7,1,03,1",,"07,99,1,07,1,99,9,00250,1,99,9,99,9","99999,9,10130,1","2,1,004,1,+999,9","-003,9","SYN106AAXX  08211 02795 47357 71706 11061 21071 30130 40138 52004 76476 87/// 92039 222// 01003 555 793// 0/510;",
"02795099999","2010-02-09T00:00:00","4","60.1","24.9833333","6.4","HELSINKI HARMAJA, FI","FM-12","99999","V020","160,1,N,0030,1","99999,9,9,N","005000,1,N,1","-0067,1","-0077,1","10142,1","64,1","7,1,06,1",,"07,99,1,07,1,99,9,00250,1,99,9,99,9","99999,9,10133,1","2,1,004,1,+999,9","-003,9","SYN106AAXX  09001 02795 47350 71603 11067 21077 30133 40142 52004 76476 87/// 92339 222// 01003 555 793// 0/606;",
"02795099999","2010-02-09T03:00:00","4","60.1","24.9833333","6.4","HELSINKI HARMAJA, FI","FM-12","99999","V020","120,1,N,0040,1","22000,1,9,N","005000,1,N,1","-0090,1","-0104,1","10141,1","64,1","6,1,03,1",,"01,99,1,01,1,99,9,00250,1,99,9,99,9","99999,9,10133,1","4,1,000,1,+999,9","-003,9","SYN106AAXX  09031 02795 47350 11204 11090 21104 30133 40141 54000 76465 81/// 90239 222// 01003 555 790// 0/204;",
"02795099999","2010-02-09T09:00:00","4","60.1","24.9833333","6.4","HELSINKI HARMAJA, FI","FM-12","99999","V020","130,1,N,0040,1","99999,9,9,N","009000,1,N,1","-0075,1","-0087,1","10155,1","64,1","6,1,03,1",,"07,99,1,07,1,99,9,00250,1,99,9,99,9","99999,9,10147,1","2,1,010,1,+999,9","-003,9","SYN106AAXX  09091 02795 47359 71304 11075 21087 30147 40155 52010 76465 87/// 90839 222// 01003 555 791// 0/005;",
"02795099999","2010-02-09T12:00:00","4","60.1","24.9833333","6.4","HELSINKI HARMAJA, FI","FM-12","99999","V020","100,1,N,0050,1","99999,9,9,N","003800,1,N,1","-0078,1","-0090,1","10160,1","64,1","6,1,06,1",,"07,99,1,07,1,99,9,00150,1,99,9,99,9","99999,9,10152,1","2,1,005,1,+999,9","-003,9","SYN106AAXX  09121 02795 47238 71005 11078 21090 30152 40160 52005 76465 87/// 91139 222// 01003 555 791// 0/305;",
"02795099999","2010-02-09T15:00:00","4","60.1","24.9833333","6.4","HELSINKI HARMAJA, FI","FM-12","99999","V020","070,1,N,0070,1","99999,9,9,N","009000,1,N,1","-0091,1","-0103,1","10162,1","54,1","8,1,03,1",,"07,99,1,07,1,99,9,00075,1,99,9,99,9","99999,9,10153,1","4,1,000,1,+999,9","-002,9","SYN106AAXX  09151 02795 47159 70707 11091 21103 30153 40162 54002 75486 87/// 91439 222// 01002 555 791// 0/007;",
"02795099999","2010-02-09T21:00:00","4","60.1","24.9833333","6.4","HELSINKI HARMAJA, FI","FM-12","99999","V020","070,1,N,0050,1","99999,9,9,N","004200,1,N,1","-0108,1","-0122,1","10176,1","74,1","7,1,03,1",,"07,99,1,07,1,99,9,00250,1,99,9,99,9","99999,9,10168,1","2,1,008,1,+999,9","-002,9","SYN106AAXX  09211 02795 47342 70705 11108 21122 30168 40176 52008 77476 87/// 92039 222// 01002 555 789// 0/407;",
"02795099999","2010-02-10T00:00:00","4","60.1","24.9833333","6.4","HELSINKI HARMAJA, FI","FM-12","99999","V020","060,1,N,0050,1","99999,9,9,N","011000,1,N,1","-0117,1","-0132,1","10179,1","71,1","7,1,06,1",,"05,99,1,05,1,99,9,00150,1,99,9,99,9","99999,9,10170,1","2,1,003,1,+999,9","-003,9","SYN106AAXX  10001 02795 47261 50605 11117 21132 30170 40179 52003 77176 85/// 92339 222// 01003 555 788// 0/206;",
"02795099999","2010-02-10T03:00:00","4","60.1","24.9833333","6.4","HELSINKI HARMAJA, FI","FM-12","99999","V020","060,1,N,0040,1","99999,9,9,N","005000,1,N,1","-0118,1","-0135,1","10188,1","71,1","6,1,03,1",,"07,99,1,07,1,99,9,00250,1,99,9,99,9","99999,9,10180,1","2,1,009,1,+999,9","-003,9","SYN106AAXX  10031 02795 47350 70604 11118 21135 30180 40188 52009 77165 87/// 90239 222// 01003 555 787// 0/305;",
"02795099999","2010-02-10T09:00:00","4","60.1","24.9833333","6.4","HELSINKI HARMAJA, FI","FM-12","99999","V020","050,1,N,0030,1","99999,9,9,N","006000,1,N,1","-0134,1","-0151,1","10205,1","71,1","6,1,03,1",,"08,99,1,08,1,99,9,00150,1,99,9,99,9","99999,9,10196,1","2,1,011,1,+999,9","-003,9","SYN106AAXX  10091 02795 47256 80503 11134 21151 30196 40205 52011 77165 88/// 90839 222// 01003 555 787// 0/604;",
"02795099999","2010-02-10T12:00:00","4","60.1","24.9833333","6.4","HELSINKI HARMAJA, FI","FM-12","99999","V020","060,1,N,0030,1","22000,1,9,N","010000,1,N,1","-0133,1","-0150,1","10213,1","00,1","6,1,06,1","00,1,+99999,9,99,9","00,99,1,00,1,00,1,99999,9,00,1,00,1","99999,9,10204,1","2,1,008,1,+999,9","-003,9","SYN100AAXX  10121 02795 47960 00603 11133 21150 30204 40213 52008 70065 91139 222// 01003 555 787// 0/103;",
"02795099999","2010-02-10T15:00:00","4","60.1","24.9833333","6.4","HELSINKI HARMAJA, FI","FM-12","99999","V020","100,1,N,0030,1","22000,1,9,N","010000,1,N,1","-0151,1","-0170,1","10220,1","10,1","2,1,03,1","00,1,+99999,9,99,9","00,99,1,00,1,00,1,99999,9,00,1,00,1","99999,9,10211,1","2,1,007,1,+999,9","-003,9","SYN100AAXX  10151 02795 47960 01003 11151 21170 30211 40220 52007 71010 91439 222// 01003 555 785// 0/204;",
"02795099999","2010-02-10T21:00:00","4","60.1","24.9833333","6.4","HELSINKI HARMAJA, FI","FM-12","99999","V020","070,1,N,0030,1","22000,1,9,N","007000,1,N,1","-0148,1","-0167,1","10230,1","25,1","8,1,03,1","00,1,+99999,9,99,9","00,99,1,00,1,00,1,99999,9,00,1,00,1","99999,9,10222,1","2,1,004,1,+999,9","-002,9","SYN100AAXX  10211 02795 47957 00703 11148 21167 30222 40230 52004 72586 92039 222// 01002 555 785// 0/603;",
"02795099999","2010-02-11T00:00:00","4","60.1","24.9833333","6.4","HELSINKI HARMAJA, FI","FM-12","99999","V020","060,1,N,0020,1","99999,9,9,N","009000,1,N,1","-0130,1","-0146,1","10233,1","71,1","8,1,06,1",,"05,99,1,05,1,99,9,00450,1,99,9,99,9","99999,9,10225,1","2,1,003,1,+999,9","-003,9","SYN106AAXX  11001 02795 47459 50602 11130 21146 30225 40233 52003 77186 85/// 92339 222// 01003 555 787// 0/603;",
"02795099999","2010-02-11T03:00:00","4","60.1","24.9833333","6.4","HELSINKI HARMAJA, FI","FM-12","99999","V020","070,1,N,0030,1","99999,9,9,N","010000,1,N,1","-0125,1","-0141,1","10229,1","71,1","6,1,03,1",,"05,99,1,05,1,99,9,00250,1,99,9,99,9","99999,9,10220,1","7,1,005,1,+999,9","-003,9","SYN106AAXX  11031 02795 47360 50703 11125 21141 30220 40229 57005 77165 85/// 90239 222// 01003 555 788// 0/104;",
"02795099999","2010-02-11T09:00:00","4","60.1","24.9833333","6.4","HELSINKI HARMAJA, FI","FM-12","99999","V020","080,1,N,0030,1","99999,9,9,N","010000,1,N,1","-0113,1","-0128,1","10238,1","25,1","6,1,03,1",,"08,99,1,08,1,99,9,00250,1,99,9,99,9","99999,9,10229,1","2,1,005,1,+999,9","-002,9","SYN106AAXX  11091 02795 47360 80803 11113 21128 30229 40238 52005 72565 88/// 90839 222// 01002 555 788// 0/504;",
"02795099999","2010-02-11T12:00:00","4","60.1","24.9833333","6.4","HELSINKI HARMAJA, FI","FM-12","99999","V020","070,1,N,0040,1","22000,1,9,N","010000,1,N,1","-0125,1","-0142,1","10233,1","00,1","6,1,06,1","00,1,+99999,9,99,9","00,99,1,00,1,00,1,99999,9,00,1,00,1","99999,9,10225,1","7,1,005,1,+999,9","-002,9","SYN100AAXX  11121 02795 47960 00704 11125 21142 30225 40233 57005 70065 91139 222// 01002 555 787// 0/104;",
"02795099999","2010-02-11T15:00:00","4","60.1","24.9833333","6.4","HELSINKI HARMAJA, FI","FM-12","99999","V020","070,1,N,0030,1","22000,1,9,N","008000,1,N,1","-0142,1","-0161,1","10231,1","10,1","2,1,03,1","00,1,+99999,9,99,9","00,99,1,00,1,00,1,99999,9,00,1,00,1","99999,9,10223,1","4,1,000,1,+999,9","-003,9","SYN100AAXX  11151 02795 47958 00703 11142 21161 30223 40231 54002 71010 91439 222// 01003 555 786// 0/505;",
"02795099999","2010-02-11T21:00:00","4","60.1","24.9833333","6.4","HELSINKI HARMAJA, FI","FM-12","99999","V020","080,1,N,0010,1","99999,9,9,N","000100,1,N,1","-0132,1","-0149,1","10237,1","71,1","8,1,03,1",,"08,99,1,08,1,99,9,00075,1,99,9,99,9","99999,9,10228,1","2,1,004,1,+999,9","-003,9","SYN106AAXX  11211 02795 47101 80801 11132 21149 30228 40237 52004 77186 88/// 92039 222// 01003 555 787// 0/602;",
"02795099999","2010-02-12T00:00:00","4","60.1","24.9833333","6.4","HELSINKI HARMAJA, FI","FM-12","99999","V020","050,1,N,0010,1","99999,9,9,N","003300,1,N,1","-0120,1","-0136,1","10238,1","71,1","8,1,06,1",,"08,99,1,08,1,99,9,00075,1,99,9,99,9","99999,9,10229,1","4,1,000,1,+999,9","-003,9","SYN106AAXX  12001 02795 47133 80501 11120 21136 30229 40238 54001 77186 88/// 92339 222// 01003 555 788// 0/401;",
"02795099999","2010-02-12T03:00:00","4","60.1","24.9833333","6.4","HELSINKI HARMAJA, FI","FM-12","99999","V020","050,1,N,0020,1","99999,9,9,N","001000,1,N,1","-0094,1","-0107,1","10242,1","54,1","8,1,03,1",,"08,99,1,08,1,99,9,00075,1,99,9,99,9","99999,9,10234,1","2,1,004,1,+999,9","-003,9","SYN106AAXX  12031 02795 47110 80502 11094 21107 30234 40242 52004 75486 88/// 90239 222// 01003 555 790// 0/102;",
"02795099999","2010-02-12T09:00:00","4","60.1","24.9833333","6.4","HELSINKI HARMAJA, FI","FM-12","99999","V020","030,1,N,0020,1","99999,9,9,N","008000,1,N,1","-0088,1","-0100,1","10257,1","10,1","8,1,03,1",,"07,99,1,07,1,99,9,00450,1,99,9,99,9","99999,9,10248,1","2,1,009,1,+999,9","-003,9","SYN106AAXX  12091 02795 47458 70302 11088 21100 30248 40257 52009 71085 87/// 90839 222// 01003 555 791// 0/303;",
"02795099999","2010-02-12T12:00:00","4","60.1","24.9833333","6.4","HELSINKI HARMAJA, FI","FM-12","99999","V020","020,1,N,0040,1","22000,1,9,N","009000,1,N,1","-0086,1","-0097,1","10257,1","25,1","8,1,06,1","00,1,+99999,9,99,9","00,99,1,00,1,00,1,99999,9,00,1,00,1","99999,9,10248,1","4,1,000,1,+999,9","-003,9","SYN100AAXX  12121 02795 47959 00204 11086 21097 30248 40257 54000 72586 91139 222// 01003 555 791// 0/004;",
"02795099999","2010-02-12T15:00:00","4","60.1","24.9833333","6.4","HELSINKI HARMAJA, FI","FM-12","99999","V020","020,1,N,0060,1","22000,1,9,N","012000,1,N,1","-0079,1","-0090,1","10255,1","25,1","8,1,03,1","00,1,+99999,9,99,9","00,99,1,00,1,00,1,99999,9,00,1,00,1","99999,9,10246,1","7,1,002,1,+999,9","-003,9","SYN100AAXX  12151 02795 47962 00206 11079 21090 30246 40255 57002 72586 91439 222// 01003 555 792// 0/207;",
"02795099999","2010-02-12T21:00:00","4","60.1","24.9833333","6.4","HELSINKI HARMAJA, FI","FM-12","99999","V020","050,1,N,0060,1","22000,1,9,N","011000,1,N,1","-0074,1","-0091,1","10259,1","54,1","6,1,03,1",,"01,99,1,01,1,99,9,01250,1,99,9,99,9","99999,9,10251,1","4,1,000,1,+999,9","-003,9","SYN106AAXX  12211 02795 47661 10506 11074 21091 30251 40259 54000 75465 81/// 92039 222// 01003 555 788// 0/607;",
"02795099999","2010-02-13T00:00:00","4","60.1","24.9833333","6.4","HELSINKI HARMAJA, FI","FM-12","99999","V020","050,1,N,0060,1","99999,9,9,N","008000,1,N,1","-0076,1","-0092,1","10249,1","64,1","6,1,06,1",,"07,99,1,07,1,99,9,00450,1,99,9,99,9","99999,9,10241,1","7,1,010,1,+999,9","-003,9","SYN106AAXX  13001 02795 47458 70506 11076 21092 30241 40249 57010 76465 87/// 92339 222// 01003 555 789// 0/406;",
"02795099999","2010-02-13T03:00:00","4","60.1","24.9833333","6.4","HELSINKI HARMAJA, FI","FM-12","99999","V020","050,1,N,0060,1","99999,9,9,N","005000,1,N,1","-0084,1","-0099,1","10237,1","54,1","7,1,03,1",,"07,99,1,07,1,99,9,00250,1,99,9,99,9","99999,9,10229,1","7,1,012,1,+999,9","-003,9","SYN106AAXX  13031 02795 47350 70506 11084 21099 30229 40237 57012 75476 87/// 90239 222// 01003 555 789// 0/306;",
"02795099999","2010-02-13T09:00:00","4","60.1","24.9833333","6.4","HELSINKI HARMAJA, FI","FM-12","99999","V020","060,1,N,0060,1","99999,9,9,N","016000,1,N,1","-0087,1","-0104,1","10212,1","00,1","6,1,03,1",,"07,99,1,07,1,99,9,00250,1,99,9,99,9","99999,9,10204,1","7,1,015,1,+999,9","-003,9","SYN106AAXX  13091 02795 47366 70606 11087 21104 30204 40212 57015 70065 87/// 90839 222// 01003 555 787// 0/406;",
"02795099999","2010-02-13T12:00:00","4","60.1","24.9833333","6.4","HELSINKI HARMAJA, FI","FM-12","99999","V020","080,1,N,0060,1","22000,1,9,N","030000,1,N,1","-0082,1","-0105,1","10203,1","00,1","6,1,06,1","00,1,+99999,9,99,9","00,99,1,00,1,00,1,99999,9,00,1,00,1","99999,9,10194,1","7,1,009,1,+999,9","-003,9","SYN100AAXX  13121 02795 47980 00806 11082 21105 30194 40203 57009 70065 91139 222// 01003 555 784// 0/207;",
"02795099999","2010-02-13T15:00:00","4","60.1","24.9833333","6.4","HELSINKI HARMAJA, FI","FM-12","99999","V020","090,1,N,0040,1","22000,1,9,N","035000,1,N,1","-0084,1","-0104,1","10191,1","00,1","0,1,03,1","00,1,+99999,9,99,9","00,99,1,00,1,00,1,99999,9,00,1,00,1","99999,9,10183,1","7,1,012,1,+999,9","-002,9","SYN100AAXX  13151 02795 47981 00904 11084 21104 30183 40191 57012 70000 91439 222// 01002 555 786// 0/406;",
"02795099999","2010-02-13T21:00:00","4","60.1","24.9833333","6.4","HELSINKI HARMAJA, FI","FM-12","99999","V020","040,1,N,0020,1","22000,1,9,N","040000,1,N,1","-0099,1","-0120,1","10175,1","00,1","0,1,03,1","00,1,+99999,9,99,9","00,99,1,00,1,00,1,99999,9,00,1,00,1","99999,9,10167,1","7,1,007,1,+999,9","-003,9","SYN100AAXX  13211 02795 47982 00402 11099 21120 30167 40175 57007 70000 92039 222// 01003 555 785// 0/603;",
"02795099999","2010-02-14T00:00:00","4","60.1","24.9833333","6.4","HELSINKI HARMAJA, FI","FM-12","99999","V020","010,1,N,0030,1","22000,1,9,N","021000,1,N,1","-0120,1","-0136,1","10174,1","00,1","0,1,06,1","00,1,+99999,9,99,9","00,99,1,00,1,00,1,99999,9,00,1,00,1","99999,9,10165,1","4,1,000,1,+999,9","-002,9","SYN100AAXX  14001 02795 47971 00103 11120 21136 30165 40174 54002 70000 92339 222// 01002 555 788// 0/503;",
"02795099999","2010-02-14T03:00:00","4","60.1","24.9833333","6.4","HELSINKI HARMAJA, FI","FM-12","99999","V020","020,1,N,0020,1","22000,1,9,N","009000,1,N,1","-0116,1","-0131,1","10170,1","00,1","0,1,03,1","00,1,+99999,9,99,9","00,99,1,00,1,00,1,99999,9,00,1,00,1","99999,9,10162,1","7,1,004,1,+999,9","-003,9","SYN100AAXX  14031 02795 47959 00202 11116 21131 30162 40170 57004 70000 90239 222// 01003 555 789// 0/303;",
"02795099999","2010-02-14T09:00:00","4","60.1","24.9833333","6.4","HELSINKI HARMAJA, FI","FM-12","99999","V020","999,9,C,0000,1","22000,1,9,N","003700,1,N,1","-0146,1","-0165,1","10179,1","20,1","4,1,03,1","00,1,+99999,9,99,9","00,99,1,00,1,00,1,99999,9,00,1,00,1","99999,9,10170,1","2,1,008,1,+999,9","-002,9","SYN100AAXX  14091 02795 47937 00000 11146 21165 30170 40179 52008 72032 90839 222// 01002 555 785// 0/402;",
"02795099999","2010-02-14T12:00:00","4","60.1","24.9833333","6.4","HELSINKI HARMAJA, FI","FM-12","99999","V020","260,1,N,0010,1","22000,1,9,N","010000,1,N,1","-0099,1","-0113,1","10168,1","10,1","4,1,06,1",,"01,99,1,01,1,99,9,00800,1,99,9,99,9","99999,9,10160,1","7,1,011,1,+999,9","-003,9","SYN106AAXX  14121 02795 47560 12601 11099 21113 30160 40168 57011 71032 81/// 91139 222// 01003 555 789// 0/501;",
"02795099999","2010-02-14T15:00:00","4","60.1","24.9833333","6.4","HELSINKI HARMAJA, FI","FM-12","99999","V020","999,9,C,0000,1","99999,9,9,N","012000,1,N,1","-0088,1","-0103,1","10163,1","00,1","2,1,03,1",,"08,99,1,08,1,99,9,00150,1,99,9,99,9","99999,9,10155,1","7,1,005,1,+999,9","-003,9","SYN106AAXX  14151 02795 47262 80000 11088 21103 30155 40163 57005 70010 88/// 91439 222// 01003 555 789// 0/302;",
"02795099999","2010-02-14T21:00:00","4","60.1","24.9833333","6.4","HELSINKI HARMAJA, FI","FM-12","99999","V020","999,9,C,0000,1","99999,9,9,N","004900,1,N,1","-0074,1","-0085,1","10153,1","10,1","2,1,03,1",,"08,99,1,08,1,99,9,00075,1,99,9,99,9","99999,9,10145,1","7,1,005,1,+999,9","-003,9","SYN106AAXX  14211 02795 47149 80000 11074 21085 30145 40153 57005 71010 88/// 92039 222// 01003 555 792// 0/602;",
"02795099999","2010-02-15T00:00:00","4","60.1","24.9833333","6.4","HELSINKI HARMAJA, FI","FM-12","99999","V020","300,1,N,0020,1","99999,9,9,N","006000,1,N,1","-0080,1","-0090,1","10145,1","10,1","2,1,06,1",,"08,99,1,08,1,99,9,00075,1,99,9,99,9","99999,9,10136,1","7,1,008,1,+999,9","-003,9","SYN106AAXX  15001 02795 47156 83002 11080 21090 30136 40145 57008 71010 88/// 92339 222// 01003 555 792// 0/002;",
"02795099999","2010-02-15T03:00:00","4","60.1","24.9833333","6.4","HELSINKI HARMAJA, FI","FM-12","99999","V020","310,1,N,0020,1","99999,9,9,N","002100,1,N,1","-0105,1","-0120,1","10132,1","10,1","4,1,03,1",,"08,99,1,08,1,99,9,00075,1,99,9,99,9","99999,9,10124,1","7,1,012,1,+999,9","-003,9","SYN106AAXX  15031 02795 47121 83102 11105 21120 30124 40132 57012 71032 88/// 90239 222// 01003 555 789// 0/603;",
"02795099999","2010-02-15T09:00:00","4","60.1","24.9833333","6.4","HELSINKI HARMAJA, FI","FM-12","99999","V020","280,1,N,0020,1","22000,1,9,N","016000,1,N,1","-0144,1","-0162,1","10130,1","25,1","5,1,03,1",,"01,99,1,01,1,99,9,00250,1,99,9,99,9","99999,9,10121,1","2,1,003,1,+999,9","-002,9","SYN106AAXX  15091 02795 47366 12802 11144 21162 30121 40130 52003 72554 81/// 90839 222// 01002 555 786// 0/202;",
"02795099999","2010-02-15T12:00:00","4","60.1","24.9833333","6.4","HELSINKI HARMAJA, FI","FM-12","99999","V020","240,1,N,0030,1","99999,9,9,N","011000,1,N,1","-0117,1","-0133,1","10123,1","71,1","6,1,06,1",,"05,99,1,05,1,99,9,00075,1,99,9,99,9","99999,9,10114,1","7,1,007,1,+999,9","-003,9","SYN106AAXX  15121 02795 47161 52403 11117 21133 30114 40123 57007 77165 85/// 91139 222// 01003 555 788// 0/004;",
"02795099999","2010-02-15T15:00:00","4","60.1","24.9833333","6.4","HELSINKI HARMAJA, FI","FM-12","99999","V020","250,1,N,0030,1","99999,9,9,N","003900,1,N,1","-0087,1","-0099,1","10113,1","10,1","8,1,03,1",,"08,99,1,08,1,99,9,00075,1,99,9,99,9","99999,9,10105,1","7,1,009,1,+999,9","-002,9","SYN106AAXX  15151 02795 47139 82503 11087 21099 30105 40113 57009 71086 88/// 91439 222// 01002 555 791// 0/204;",
"02795099999","2010-02-15T21:00:00","4","60.1","24.9833333","6.4","HELSINKI HARMAJA, FI","FM-12","99999","V020","300,1,N,0020,1","99999,9,9,N","003900,1,N,1","-0087,1","-0099,1","10112,1","10,1","2,1,03,1",,"08,99,1,08,1,99,9,00075,1,99,9,99,9","99999,9,10104,1","4,1,000,1,+999,9","-003,9","SYN106AAXX  15211 02795 47139 83002 11087 21099 30104 40112 54001 71010 88/// 92039 222// 01003 555 791// 0/503;",
"02795099999","2010-02-16T00:00:00","4","60.1","24.9833333","6.4","HELSINKI HARMAJA, FI","FM-12","99999","V020","300,1,N,0010,1","99999,9,9,N","009000,1,N,1","-0088,1","-0100,1","10114,1","10,1","2,1,06,1",,"08,99,1,08,1,99,9,00075,1,99,9,99,9","99999,9,10105,1","4,1,000,1,+999,9","-003,9","SYN106AAXX  16001 02795 47159 83001 11088 21100 30105 40114 54002 71010 88/// 92339 222// 01003 555 791// 0/602;",
"02795099999","2010-02-16T03:00:00","4","60.1","24.9833333","6.4","HELSINKI HARMAJA, FI","FM-12","99999","V020","999,9,C,0000,1","99999,9,9,N","006000,1,N,1","-0090,1","-0103,1","10114,1","10,1","2,1,03,1",,"08,99,1,08,1,99,9,00075,1,99,9,99,9","99999,9,10105,1","4,1,000,1,+999,9","-003,9","SYN106AAXX  16031 02795 47156 80000 11090 21103 30105 40114 54000 71010 88/// 90239 222// 01003 555 791// 0/401;",
"02795099999","2010-02-16T09:00:00","4","60.1","24.9833333","6.4","HELSINKI HARMAJA, FI","FM-12","99999","V020","340,1,N,0010,1","99999,9,9,N","008000,1,N,1","-0085,1","-0097,1","10116,1","10,1","2,1,03,1",,"08,99,1,08,1,99,9,00150,1,99,9,99,9","99999,9,10108,1","2,1,004,1,+999,9","-003,9","SYN106AAXX  16091 02795 47258 83401 11085 21097 30108 40116 52004 71010 88/// 90839 222// 01003 555 791// 0/301;",
"02795099999","2010-02-16T12:00:00","4","60.1","24.9833333","6.4","HELSINKI HARMAJA, FI","FM-12","99999","V020","999,9,C,0000,1","99999,9,9,N","012000,1,N,1","-0081,1","-0092,1","10121,1","00,1","2,1,06,1",,"08,99,1,08,1,99,9,00150,1,99,9,99,9","99999,9,10112,1","2,1,004,1,+999,9","-003,9","SYN106AAXX  16121 02795 47262 80000 11081 21092 30112 40121 52004 70010 88/// 91139 222// 01003 555 791// 0/401;",
"02795099999","2010-02-16T15:00:00","4","60.1","24.9833333","6.4","HELSINKI HARMAJA, FI","FM-12","99999","V020","030,1,N,0010,1","99999,9,9,N","007000,1,N,1","-0077,1","-0088,1","10125,1","10,1","2,1,03,1",,"08,99,1,08,1,99,9,00150,1,99,9,99,9","99999,9,10117,1","2,1,004,1,+999,9","-003,9","SYN106AAXX  16151 02795 47257 80301 11077 21088 30117 40125 52004 71010 88/// 91439 222// 01003 555 792// 0/001;",
"02795099999","2010-02-16T21:00:00","4","60.1","24.9833333","6.4","HELSINKI HARMAJA, FI","FM-12","99999","V020","090,1,N,0010,1","99999,9,9,N","007000,1,N,1","-0077,1","-0088,1","10145,1","10,1","2,1,03,1",,"08,99,1,08,1,99,9,00150,1,99,9,99,9","99999,9,10137,1","2,1,014,1,+999,9","-003,9","SYN106AAXX  16211 02795 47257 80901 11077 21088 30137 40145 52014 71010 88/// 92039 222// 01003 555 792// 0/503;",
"02795099999","2010-02-17T00:00:00","4","60.1","24.9833333","6.4","HELSINKI HARMAJA, FI","FM-12","99999","V020","080,1,N,0030,1","99999,9,9,N","017000,1,N,1","-0068,1","-0078,1","10149,1","54,1","5,1,06,1",,"08,99,1,08,1,99,9,00075,1,99,9,99,9","99999,9,10141,1","2,1,004,1,+999,9","-003,9","SYN106AAXX  17001 02795 47167 80803 11068 21078 30141 40149 52004 75454 88/// 92339 222// 01003 555 793// 0/003;",
"02795099999","2010-02-17T03:00:00","4","60.1","24.9833333","6.4","HELSINKI HARMAJA, FI","FM-12","99999","V020","080,1,N,0040,1","99999,9,9,N","010000,1,N,1","-0064,1","-0073,1","10148,1","64,1","6,1,03,1",,"08,99,1,08,1,99,9,00150,1,99,9,99,9","99999,9,10140,1","4,1,000,1,+999,9","-003,9","SYN106AAXX  17031 02795 47260 80804 11064 21073 30140 40148 54001 76465 88/// 90239 222// 01003 555 793// 0/104;",
"02795099999","2010-02-17T09:00:00","4","60.1","24.9833333","6.4","HELSINKI HARMAJA, FI","FM-12","99999","V020","080,1,N,0060,1","99999,9,9,N","003100,1,N,1","-0092,1","-0104,1","10158,1","74,1","7,1,03,1",,"07,99,1,07,1,99,9,00250,1,99,9,99,9","99999,9,10149,1","4,1,000,1,+999,9","-003,9","SYN106AAXX  17091 02795 47331 70806 11092 21104 30149 40158 54002 77476 87/// 90839 222// 01003 555 791// 0/207;",
"02795099999","2010-02-17T12:00:00","4","60.1","24.9833333","6.4","HELSINKI HARMAJA, FI","FM-12","99999","V020","080,1,N,0080,1","00240,1,9,N","003900,1,N,1","-0104,1","-0118,1","10155,1","71,1","7,1,06,1","09,1,+99999,9,99,9","09,99,1,09,1,99,9,99999,9,99,9,99,9","99999,9,10147,1","7,1,003,1,+999,9","-003,9","SYN100AAXX  17121 02795 47439 90808 11104 21118 30147 40155 57003 77176 91139 222// 01003 555 790// 0/008;",
"02795099999","2010-02-17T15:00:00","4","60.1","24.9833333","6.4","HELSINKI HARMAJA, FI","FM-12","99999","V020","080,1,N,0060,1","99999,9,9,N","010000,1,N,1","-0115,1","-0131,1","10146,1","71,1","8,1,03,1",,"07,99,1,07,1,99,9,00075,1,99,9,99,9","99999,9,10138,1","7,1,009,1,+999,9","-003,9","SYN106AAXX  17151 02795 47160 70806 11115 21131 30138 40146 57009 77186 87/// 91439 222// 01003 555 788// 0/608;",
"02795099999","2010-02-17T21:00:00","4","60.1","24.9833333","6.4","HELSINKI HARMAJA, FI","FM-12","99999","V020","070,1,N,0060,1","99999,9,9,N","001300,1,N,1","-0121,1","-0137,1","10136,1","71,1","7,1,03,1",,"07,99,1,07,1,99,9,00250,1,99,9,99,9","99999,9,10128,1","7,1,006,1,+999,9","-003,9","SYN106AAXX  17211 02795 47313 70706 11121 21137 30128 40136 57006 77176 87/// 92039 222// 01003 555 788// 0/509;",
"02795099999","2010-02-18T00:00:00","4","60.1","24.9833333","6.4","HELSINKI HARMAJA, FI","FM-12","99999","V020","070,1,N,0050,1","99999,9,9,N","009000,1,N,1","-0117,1","-0132,1","10125,1","71,1","7,1,06,1",,"05,99,1,05,1,99,9,00250,1,99,9,99,9","99999,9,10117,1","7,1,011,1,+999,9","-003,9","SYN106AAXX  18001 02795 47359 50705 11117 21132 30117 40125 57011 77176 85/// 92339 222// 01003 555 788// 0/306;",
"02795099999","2010-02-18T03:00:00","4","60.1","24.9833333","6.4","HELSINKI HARMAJA, FI","FM-12","99999","V020","060,1,N,0050,1","22000,1,9,N","013000,1,N,1","-0121,1","-0137,1","10115,1","71,1","6,1,03,1",,"03,99,1,03,1,99,9,00250,1,99,9,99,9","99999,9,10107,1","7,1,010,1,+999,9","-003,9","SYN106AAXX  18031 02795 47363 30605 11121 21137 30107 40115 57010 77160 83/// 90239 222// 01003 555 788// 0/507;",
"02795099999","2010-02-18T09:00:00","4","60.1","24.9833333","6.4","HELSINKI HARMAJA, FI","FM-12","99999","V020","070,1,N,0040,1","99999,9,9,N","011000,1,N,1","-0135,1","-0154,1","10115,1","71,1","6,1,03,1",,"07,99,1,07,1,99,9,00250,1,99,9,99,9","99999,9,10107,1","2,1,004,1,+999,9","-003,9","SYN106AAXX  18091 02795 47361 70704 11135 21154 30107 40115 52004 77160 87/// 90839 222// 01003 555 786// 0/605;",
"02795099999","2010-02-18T12:00:00","4","60.1","24.9833333","6.4","HELSINKI HARMAJA, FI","FM-12","99999","V020","100,1,N,0030,1","22000,1,9,N","028000,1,N,1","-0131,1","-0151,1","10115,1","00,1","6,1,06,1","00,1,+99999,9,99,9","00,99,1,00,1,00,1,99999,9,00,1,00,1","99999,9,10106,1","4,1,000,1,+999,9","-003,9","SYN100AAXX  18121 02795 47978 01003 11131 21151 30106 40115 54001 70065 91139 222// 01003 555 785// 0/504;",
"02795099999","2010-02-18T15:00:00","4","60.1","24.9833333","6.4","HELSINKI HARMAJA, FI","FM-12","99999","V020","070,1,N,0030,1","22000,1,9,N","025000,1,N,1","-0154,1","-0175,1","10111,1","00,1","0,1,03,1","00,1,+99999,9,99,9","00,99,1,00,1,00,1,99999,9,00,1,00,1","99999,9,10102,1","7,1,004,1,+999,9","-003,9","SYN100AAXX  18151 02795 47975 00703 11154 21175 30102 40111 57004 70000 91439 222// 01003 555 784// 0/403;",
"02795099999","2010-02-18T21:00:00","4","60.1","24.9833333","6.4","HELSINKI HARMAJA, FI","FM-12","99999","V020","060,1,N,0030,1","22000,1,9,N","011000,1,N,1","-0173,1","-0195,1","10111,1","71,1","8,1,03,1","00,1,+99999,9,99,9","00,99,1,00,1,00,1,99999,9,00,1,00,1","99999,9,10103,1","7,1,003,1,+999,9","-003,9","SYN100AAXX  18211 02795 47961 00603 11173 21195 30103 40111 57003 77186 92039 222// 01003 555 783// 0/304;",
"02795099999","2010-02-19T00:00:00","4","60.1","24.9833333","6.4","HELSINKI HARMAJA, FI","FM-12","99999","V020","060,1,N,0040,1","22000,1,9,N","022000,1,N,1","-0173,1","-0195,1","10110,1","00,1","8,1,06,1","00,1,+99999,9,99,9","00,99,1,00,1,00,1,99999,9,00,1,00,1","99999,9,10101,1","4,1,000,1,+999,9","-003,9","SYN100AAXX  19001 02795 47972 00604 11173 21195 30101 40110 54002 70086 92339 222// 01003 555 783// 0/205;",
"02795099999","2010-02-19T09:00:00","4","60.1","24.9833333","6.4","HELSINKI HARMAJA, FI","FM-12","99999","V020","070,1,N,0120,1","99999,9,9,N","001800,1,N,1","-0149,1","-0169,1","10069,1","74,1","7,1,03,1",,"07,99,1,07,1,99,9,00150,1,99,9,99,9","99999,9,10060,1","7,1,013,1,+999,9","-003,9","SYN106AAXX  19091 02795 47218 70712 11149 21169 30060 40069 57013 77476 87/// 90839 222// 01003 555 785// 0/013;",
"02795099999","2010-02-19T12:00:00","4","60.1","24.9833333","6.4","HELSINKI HARMAJA, FI","FM-12","99999","V020","070,1,N,0120,1","99999,9,9,N","000700,1,N,1","-0139,1","-0158,1","10064,1","74,1","7,1,06,1",,"08,99,1,08,1,99,9,00250,1,99,9,99,9","99999,9,10055,1","7,1,005,1,+999,9","-003,9","SYN106AAXX  19121 02795 47307 80712 11139 21158 30055 40064 57005 77476 88/// 91139 222// 01003 555 786// 0/613;",
"02795099999","2010-02-19T15:00:00","4","60.1","24.9833333","6.4","HELSINKI HARMAJA, FI","FM-12","99999","V020","070,1,N,0130,1","99999,9,9,N","000700,1,N,1","-0135,1","-0154,1","10062,1","74,1","7,1,03,1",,"08,99,1,08,1,99,9,00150,1,99,9,99,9","99999,9,10054,1","4,1,000,1,+999,9","-003,9","SYN106AAXX  19151 02795 47207 80713 11135 21154 30054 40062 54002 77476 88/// 91439 222// 01003 555 786// 0/314;",
"02795099999","2010-02-19T21:00:00","4","60.1","24.9833333","6.4","HELSINKI HARMAJA, FI","FM-12","99999","V020","060,1,N,0080,1","22000,1,9,N","020000,1,N,1","-0163,1","-0189,1","10090,1","71,1","6,1,03,1",,"01,99,1,01,1,99,9,00250,1,99,9,99,9","99999,9,10081,1","2,1,016,1,+999,9","-003,9","SYN106AAXX  19211 02795 47370 10608 11163 21189 30081 40090 52016 77165 81/// 92039 222// 01003 555 780// 0/611;",
"02795099999","2010-02-20T00:00:00","4","60.1","24.9833333","6.4","HELSINKI HARMAJA, FI","FM-12","99999","V020","070,1,N,0090,1","22000,1,9,N","027000,1,N,1","-0183,1","-0215,1","10098,1","00,1","6,1,06,1","00,1,+99999,9,99,9","00,99,1,00,1,00,1,99999,9,00,1,00,1","99999,9,10089,1","2,1,008,1,+999,9","-003,9","SYN100AAXX  20001 02795 47977 00709 11183 21215 30089 40098 52008 70065 92339 222// 01003 555 776// 0/009;",
"02795099999","2010-02-20T03:00:00","4","60.1","24.9833333","6.4","HELSINKI HARMAJA, FI","FM-12","99999","V020","070,1,N,0120,1","22000,1,9,N","003600,1,N,1","-0201,1","-0230,1","10099,1","71,1","7,1,03,1","00,1,+99999,9,99,9","00,99,1,00,1,00,1,99999,9,00,1,00,1","99999,9,10090,1","4,1,000,1,+999,9","-003,9","SYN100AAXX  20031 02795 47936 00712 11201 21230 30090 40099 54001 77175 90239 222// 01003 555 777// 0/214;",
"02795099999","2010-02-20T09:00:00","4","60.1","24.9833333","6.4","HELSINKI HARMAJA, FI","FM-12","99999","V020","070,1,N,0140,1","22000,1,9,N","000800,1,N,1","-0215,1","-0244,1","10092,1","71,1","7,1,03,1","00,1,+99999,9,99,9","00,99,1,00,1,00,1,99999,9,00,1,00,1","99999,9,10083,1","7,1,005,1,+999,9","-003,9","SYN100AAXX  20091 02795 47908 00714 11215 21244 30083 40092 57005 77176 90839 222// 01003 555 777// 0/216;",
"02795099999","2010-02-20T12:00:00","4","60.1","24.9833333","6.4","HELSINKI HARMAJA, FI","FM-12","99999","V020","080,1,N,0120,1","22000,1,9,N","004300,1,N,1","-0189,1","-0217,1","10084,1","10,1","7,1,06,1","00,1,+99999,9,99,9","00,99,1,00,1,00,1,99999,9,00,1,00,1","99999,9,10075,1","7,1,008,1,+999,9","-003,9","SYN100AAXX  20121 02795 47943 00812 11189 21217 30075 40084 57008 71076 91139 222// 01003 555 778// 0/614;",
"02795099999","2010-02-20T15:00:00","4","60.1","24.9833333","6.4","HELSINKI HARMAJA, FI","FM-12","99999","V020","070,1,N,0120,1","22000,1,9,N","009000,1,N,1","-0162,1","-0193,1","10066,1","00,1","2,1,03,1","00,1,+99999,9,99,9","00,99,1,00,1,00,1,99999,9,00,1,00,1","99999,9,10058,1","7,1,017,1,+999,9","-003,9","SYN100AAXX  20151 02795 47959 00712 11162 21193 30058 40066 57017 70010 91439 222// 01003 555 777// 0/613;",
"02795099999","2010-02-20T21:00:00","4","60.1","24.9833333","6.4","HELSINKI HARMAJA, FI","FM-12","99999","V020","070,1,N,0150,1","99999,9,9,N","000200,1,N,1","-0184,1","-0208,1","10035,1","73,1","7,1,03,1",,"07,99,1,07,1,99,9,00150,1,99,9,99,9","99999,9,10026,1","7,1,020,1,+999,9","-003,9","SYN106AAXX  20211 02795 47202 70715 11184 21208 30026 40035 57020 77376 87/// 92039 222// 01003 555 781// 0/517;",
"02795099999","2010-02-21T00:00:00","4","60.1","24.9833333","6.4","HELSINKI HARMAJA, FI","FM-12","99999","V020","070,1,N,0150,1","99999,9,9,N","000200,1,N,1","-0184,1","-0208,1","10022,1","73,1","7,1,06,1",,"07,99,1,07,1,99,9,00150,1,99,9,99,9","99999,9,10014,1","7,1,012,1,+999,9","-003,9","SYN106AAXX  21001 02795 47202 70715 11184 21208 30014 40022 57012 77376 87/// 92339 222// 01003 555 781// 0/216;",
"02795099999","2010-02-21T03:00:00","4","60.1","24.9833333","6.4","HELSINKI HARMAJA, FI","FM-12","99999","V020","070,1,N,0150,1","99999,9,9,N","000200,1,N,1","-0192,1","-0217,1","10003,1","73,1","7,1,03,1",,"07,99,1,07,1,99,9,00150,1,99,9,99,9","99999,9,09994,1","7,1,019,1,+999,9","-003,9","SYN106AAXX  21031 02795 47202 70715 11192 21217 39994 40003 57019 77370 87/// 90239 222// 01003 555 780// 0/616;",
"02795099999","2010-02-21T09:00:00","4","60.1","24.9833333","6.4","HELSINKI HARMAJA, FI","FM-12","99999","V020","060,1,N,0120,1","99999,9,9,N","001000,1,N,1","-0179,1","-0203,1","09993,1","71,1","7,1,03,1",,"07,99,1,07,1,99,9,00250,1,99,9,99,9","99999,9,09985,1","4,1,000,1,+999,9","-003,9","SYN106AAXX  21091 02795 47310 70612 11179 21203 39985 49993 54002 77176 87/// 90839 222// 01003 555 781// 0/613;",
"02795099999","2010-02-21T12:00:00","4","60.1","24.9833333","6.4","HELSINKI HARMAJA, FI","FM-12","99999","V020","070,1,N,0110,1","99999,9,9,N","002400,1,N,1","-0159,1","-0182,1","09996,1","71,1","7,1,06,1",,"05,99,1,05,1,99,9,00250,1,99,9,99,9","99999,9,09987,1","2,1,003,1,+999,9","-003,9","SYN106AAXX  21121 02795 47324 50711 11159 21182 39987 49996 52003 77176 85/// 91139 222// 01003 555 783// 0/213;",
"02795099999","2010-02-21T15:00:00","4","60.1","24.9833333","6.4","HELSINKI HARMAJA, FI","FM-12","99999","V020","060,1,N,0100,1","99999,9,9,N","003300,1,N,1","-0155,1","-0177,1","09998,1","71,1","6,1,03,1",,"07,99,1,07,1,99,9,00250,1,99,9,99,9","99999,9,09989,1","2,1,002,1,+999,9","-003,9","SYN106AAXX  21151 02795 47333 70610 11155 21177 39989 49998 52002 77160 87/// 91439 222// 01003 555 783// 0/511;",
"02795099999","2010-02-21T21:00:00","4","60.1","24.9833333","6.4","HELSINKI HARMAJA, FI","FM-12","99999","V020","070,1,N,0100,1","99999,9,9,N","005000,1,N,1","-0141,1","-0161,1","09992,1","71,1","7,1,03,1",,"05,99,1,05,1,99,9,00150,1,99,9,99,9","99999,9,09984,1","7,1,010,1,+999,9","-003,9","SYN106AAXX  21211 02795 47250 50710 11141 21161 39984 49992 57010 77176 85/// 92039 222// 01003 555 785// 0/010;",
"02795099999","2010-02-22T00:00:00","4","60.1","24.9833333","6.4","HELSINKI HARMAJA, FI","FM-12","99999","V020","080,1,N,0100,1","22000,1,9,N","005000,1,N,1","-0129,1","-0148,1","09985,1","71,1","7,1,06,1",,"01,99,1,01,1,99,9,00450,1,99,9,99,9","99999,9,09977,1","7,1,007,1,+999,9","-003,9","SYN106AAXX  22001 02795 47450 10810 11129 21148 39977 49985 57007 77176 81/// 92339 222// 01003 555 786// 0/310;",
"02795099999","2010-02-22T03:00:00","4","60.1","24.9833333","6.4","HELSINKI HARMAJA, FI","FM-12","99999","V020","060,1,N,0070,1","99999,9,9,N","007000,1,N,1","-0114,1","-0130,1","09976,1","71,1","6,1,03,1",,"05,99,1,05,1,99,9,00250,1,99,9,99,9","99999,9,09967,1","7,1,010,1,+999,9","-003,9","SYN106AAXX  22031 02795 47357 50607 11114 21130 39967 49976 57010 77165 85/// 90239 222// 01003 555 788// 0/310;",
"02795099999","2010-02-22T09:00:00","4","60.1","24.9833333","6.4","HELSINKI HARMAJA, FI","FM-12","99999","V020","070,1,N,0090,1","99999,9,9,N","001300,1,N,1","-0100,1","-0114,1","09973,1","74,1","8,1,03,1",,"07,99,1,07,1,99,9,00250,1,99,9,99,9","99999,9,09965,1","4,1,000,1,+999,9","-003,9","SYN106AAXX  22091 02795 47313 70709 11100 21114 39965 49973 54001 77487 87/// 90839 222// 01003 555 789// 0/009;",
"02795099999","2010-02-22T12:00:00","4","60.1","24.9833333","6.4","HELSINKI HARMAJA, FI","FM-12","99999","V020","260,1,N,0080,1","22000,1,9,N","002300,1,N,1","-0075,1","-0086,1","09981,1","64,1","8,1,06,1",,"01,99,1,01,1,99,9,00250,1,99,9,99,9","99999,9,09973,1","2,1,008,1,+999,9","-003,9","SYN106AAXX  22121 02795 47323 12608 11075 21086 39973 49981 52008 76487 81/// 91139 222// 01003 555 792// 0/111;",
"02795099999","2010-02-22T15:00:00","4","60.1","24.9833333","6.4","HELSINKI HARMAJA, FI","FM-12","99999","V020","260,1,N,0060,1","22000,1,9,N","023000,1,N,1","-0102,1","-0118,1","10006,1","25,1","6,1,03,1",,"01,99,1,01,1,99,9,00450,1,99,9,99,9","99999,9,09998,1","2,1,025,1,+999,9","-003,9","SYN106AAXX  22151 02795 47473 12606 11102 21118 39998 40006 52025 72562 81/// 91439 222// 01003 555 788// 0/609;",
"02795099999","2010-02-22T21:00:00","4","60.1","24.9833333","6.4","HELSINKI HARMAJA, FI","FM-12","99999","V020","260,1,N,0040,1","22000,1,9,N","025000,1,N,1","-0153,1","-0173,1","10031,1","00,1","0,1,03,1","00,1,+99999,9,99,9","00,99,1,00,1,00,1,99999,9,00,1,00,1","99999,9,10022,1","2,1,008,1,+999,9","-003,9","SYN100AAXX  22211 02795 47975 02604 11153 21173 30022 40031 52008 70000 92039 222// 01003 555 785// 0/606;",
"02795099999","2010-02-23T00:00:00","4","60.1","24.9833333","6.4","HELSINKI HARMAJA, FI","FM-12","99999","V020","110,1,N,0010,1","99999,9,9,N","022000,1,N,1","-0147,1","-0166,1","10033,1","71,1","6,1,06,1",,"07,99,1,07,1,99,9,00450,1,99,9,99,9","99999,9,10024,1","2,1,002,1,+999,9","-003,9","SYN106AAXX  23001 02795 47472 71101 11147 21166 30024 40033 52002 77165 87/// 92339 222// 01003 555 785// 0/604;",
"02795099999","2010-02-23T03:00:00","4","60.1","24.9833333","6.4","HELSINKI HARMAJA, FI","FM-12","99999","V020","060,1,N,0040,1","99999,9,9,N","022000,1,N,1","-0137,1","-0156,1","10019,1","71,1","6,1,03,1",,"07,99,1,07,1,99,9,00450,1,99,9,99,9","99999,9,10010,1","7,1,014,1,+999,9","-003,9","SYN106AAXX  23031 02795 47472 70604 11137 21156 30010 40019 57014 77165 87/// 90239 222// 01003 555 786// 0/004;",
"02795099999","2010-02-23T09:00:00","4","60.1","24.9833333","6.4","HELSINKI HARMAJA, FI","FM-12","99999","V020","060,1,N,0090,1","99999,9,9,N","001900,1,N,1","-0095,1","-0108,1","09952,1","64,1","7,1,03,1",,"07,99,1,07,1,99,9,00250,1,99,9,99,9","99999,9,09944,1","7,1,046,1,+999,9","-003,9","SYN106AAXX  23091 02795 47319 70609 11095 21108 39944 49952 57046 76476 87/// 90839 222// 01003 555 790// 0/009;",
"02795099999","2010-02-23T12:00:00","4","60.1","24.9833333","6.4","HELSINKI HARMAJA, FI","FM-12","99999","V020","060,1,N,0100,1","99999,9,9,N","001500,1,N,1","-0075,1","-0086,1","09906,1","74,1","7,1,06,1",,"07,99,1,07,1,99,9,00150,1,99,9,99,9","99999,9,09898,1","7,1,046,1,+999,9","-003,9","SYN106AAXX  23121 02795 47215 70610 11075 21086 39898 49906 57046 77476 87/// 91139 222// 01003 555 792// 0/313;",
"02795099999","2010-02-23T15:00:00","4","60.1","24.9833333","6.4","HELSINKI HARMAJA, FI","FM-12","99999","V020","060,1,N,0070,1","99999,9,9,N","002300,1,N,1","-0060,1","-0069,1","09863,1","74,1","7,1,03,1",,"08,99,1,08,1,99,9,00150,1,99,9,99,9","99999,9,09855,1","7,1,043,1,+999,9","-003,9","SYN106AAXX  23151 02795 47223 80607 11060 21069 39855 49863 57043 77476 88/// 91439 222// 01003 555 793// 0/611;",
"02795099999","2010-02-23T21:00:00","4","60.1","24.9833333","6.4","HELSINKI HARMAJA, FI","FM-12","99999","V020","300,1,N,0090,1","22000,1,9,N","999999,9,N,1","-0095,1","-0107,1","09876,1",,,,"01,99,1,01,1,99,9,00450,1,99,9,99,9","99999,9,09868,1","2,1,034,1,+999,9","-003,9","SYN100AAXX  23211 02795 464// 13009 11095 21107 39868 49876 52034 81/// 92039 222// 01003 555 790// 0/210;",
"02795099999","2010-02-24T00:00:00","4","60.1","24.9833333","6.4","HELSINKI HARMAJA, FI","FM-12","99999","V020","280,1,N,0100,1","22000,1,9,N","999999,9,N,1","-0109,1","-0124,1","99999,9",,,"00,1,+99999,9,99,9","00,99,1,00,1,00,1,99999,9,00,1,00,1",,"2,1,062,1,+999,9","-003,9","SYN094AAXX  24001 02795 469// 02810 11109 21124 39930 49938 52062 92339 222// 01003 555 789// 0/211;","Q01+099303APOSP "
"02795099999","2010-02-24T03:00:00","4","60.1","24.9833333","6.4","HELSINKI HARMAJA, FI","FM-12","99999","V020","280,1,N,0080,1","22000,1,9,N","999999,9,N,1","-0127,1","-0144,1","09985,1",,,"00,1,+99999,9,99,9","00,99,1,00,1,00,1,99999,9,00,1,00,1","99999,9,09976,1","2,1,047,1,+999,9","-003,9","SYN094AAXX  24031 02795 469// 02808 11127 21144 39976 49985 52047 90239 222// 01003 555 787// 0/510;",
"02795099999","2010-02-24T09:00:00","4","60.1","24.9833333","6.4","HELSINKI HARMAJA, FI","FM-12","99999","V020","270,1,N,0050,1","99999,9,9,N","999999,9,N,1","-0136,1","-0154,1","10065,1",,,,"05,99,1,05,1,99,9,00150,1,99,9,99,9","99999,9,10057,1","2,1,034,1,+999,9","-003,9","SYN100AAXX  24091 02795 462// 52705 11136 21154 30057 40065 52034 85/// 90839 222// 01003 555 786// 0/308;",
"02795099999","2010-02-24T12:00:00","4","60.1","24.9833333","6.4","HELSINKI HARMAJA, FI","FM-12","99999","V020","260,1,N,0030,1","22000,1,9,N","999999,9,N,1","-0109,1","-0126,1","10081,1",,,"00,1,+99999,9,99,9","00,99,1,00,1,00,1,99999,9,00,1,00,1","99999,9,10073,1","2,1,016,1,+999,9","-003,9","SYN094AAXX  24121 02795 469// 02603 11109 21126 30073 40081 52016 91139 222// 01003 555 787// 0/606;",
"02795099999","2010-02-24T15:00:00","4","60.1","24.9833333","6.4","HELSINKI HARMAJA, FI","FM-12","99999","V020","240,1,N,0020,1","99999,9,9,N","999999,9,N,1","-0098,1","-0116,1","10090,1",,,,"05,99,1,05,1,99,9,00250,1,99,9,99,9","99999,9,10082,1","2,1,010,1,+999,9","-003,9","SYN100AAXX  24151 02795 463// 52402 11098 21116 30082 40090 52010 85/// 91439 222// 01003 555 786// 0/603;",
"02795099999","2010-02-24T21:00:00","4","60.1","24.9833333","6.4","HELSINKI HARMAJA, FI","FM-12","99999","V020","250,1,N,0060,1","99999,9,9,N","030000,1,N,1","-0080,1","-0094,1","10109,1","54,1",,,"08,99,1,08,1,99,9,00450,1,99,9,99,9","99999,9,10101,1","2,1,010,1,+999,9","-002,9","SYN106AAXX  24211 02795 47480 82506 11080 21094 30101 40109 52010 754// 88/// 92039 222// 01002 555 789// 0/206;",
"02795099999","2010-02-25T00:00:00","4","60.1","24.9833333","6.4","HELSINKI HARMAJA, FI","FM-12","99999","V020","220,1,N,0030,1","22000,1,9,N","021000,1,N,1","-0081,1","-0092,1","10115,1","00,1",,,"01,99,1,01,1,99,9,00150,1,99,9,99,9","99999,9,10107,1","2,1,006,1,+999,9","-002,9","SYN106AAXX  25001 02795 47271 12203 11081 21092 30107 40115 52006 700// 81/// 92339 222// 01002 555 791// 0/606;",
"02795099999","2010-02-25T03:00:00","4","60.1","24.9833333","6.4","HELSINKI HARMAJA, FI","FM-12","99999","V020","220,1,N,0080,1","99999,9,9,N","011000,1,N,1","-0056,1","-0065,1","10113,1","64,1","6,1,03,1",,"05,99,1,05,1,99,9,00075,1,99,9,99,9","99999,9,10105,1","7,1,002,1,+999,9","-002,9","SYN106AAXX  25031 02795 47161 52208 11056 21065 30105 40113 57002 76465 85/// 90239 222// 01002 555 793// 0/009;",
"02795099999","2010-02-25T09:00:00","4","60.1","24.9833333","6.4","HELSINKI HARMAJA, FI","FM-12","99999","V020","230,1,N,0060,1","99999,9,9,N","015000,1,N,1","-0044,1","-0051,1","10136,1","25,1","8,1,03,1",,"08,99,1,08,1,99,9,00075,1,99,9,99,9","99999,9,10128,1","2,1,018,1,+999,9","-001,9","SYN106AAXX  25091 02795 47165 82306 11044 21051 30128 40136 52018 72586 88/// 90839 222// 01001 555 795// 0/608;",
"02795099999","2010-02-25T12:00:00","4","60.1","24.9833333","6.4","HELSINKI HARMAJA, FI","FM-12","99999","V020","220,1,N,0050,1","22000,1,9,N","030000,1,N,1","-0041,1","-0048,1","10141,1","00,1","8,1,06,1",,"01,99,1,01,1,99,9,00250,1,99,9,99,9","99999,9,10133,1","2,1,005,1,+999,9","+000,9","SYN106AAXX  25121 02795 47380 12205 11041 21048 30133 40141 52005 70086 81/// 91139 222// 00000 555 795// 0/607;",
"02795099999","2010-02-25T15:00:00","4","60.1","24.9833333","6.4","HELSINKI HARMAJA, FI","FM-12","99999","V020","220,1,N,0030,1","22000,1,9,N","011000,1,N,1","-0040,1","-0056,1","10139,1","00,1","0,1,03,1","00,1,+99999,9,99,9","00,99,1,00,1,00,1,99999,9,00,1,00,1","99999,9,10131,1","7,1,002,1,+999,9","-001,9","SYN100AAXX  25151 02795 47961 02203 11040 21056 30131 40139 57002 70000 91439 222// 01001 555 788// 0/605;",
"02795099999","2010-02-25T21:00:00","4","60.1","24.9833333","6.4","HELSINKI HARMAJA, FI","FM-12","99999","V020","080,1,N,0050,1","22000,1,9,N","012000,1,N,1","-0083,1","-0094,1","10118,1","00,1","0,1,03,1","00,1,+99999,9,99,9","00,99,1,00,1,00,1,99999,9,00,1,00,1","99999,9,10110,1","7,1,013,1,+999,9","-001,9","SYN100AAXX  25211 02795 47962 00805 11083 21094 30110 40118 57013 70000 92039 222// 01001 555 792// 0/205;",
"02795099999","2010-02-26T00:00:00","4","60.1","24.9833333","6.4","HELSINKI HARMAJA, FI","FM-12","99999","V020","070,1,N,0040,1","22000,1,9,N","015000,1,N,1","-0089,1","-0101,1","10102,1","00,1","0,1,06,1","00,1,+99999,9,99,9","00,99,1,00,1,00,1,99999,9,00,1,00,1","99999,9,10093,1","7,1,016,1,+999,9","-002,9","SYN100AAXX  26001 02795 47965 00704 11089 21101 30093 40102 57016 70000 92339 222// 01002 555 791// 0/205;",
"02795099999","2010-02-26T03:00:00","4","60.1","24.9833333","6.4","HELSINKI HARMAJA, FI","FM-12","99999","V020","080,1,N,0040,1","22000,1,9,N","028000,1,N,1","-0057,1","-0065,1","10079,1","00,1","0,1,03,1",,"01,99,1,01,1,99,9,00800,1,99,9,99,9","99999,9,10071,1","7,1,022,1,+999,9","-002,9","SYN106AAXX  26031 02795 47578 10804 11057 21065 30071 40079 57022 70000 81/// 90239 222// 01002 555 794// 0/305;",
"02795099999","2010-02-26T09:00:00","4","60.1","24.9833333","6.4","HELSINKI HARMAJA, FI","FM-12","99999","V020","110,1,N,0040,1","99999,9,9,N","029000,1,N,1","-0023,1","-0034,1","10055,1","00,1","0,1,03,1",,"08,99,1,08,1,99,9,00250,1,99,9,99,9","99999,9,10047,1","7,1,007,1,+999,9","-003,9","SYN106AAXX  26091 02795 47379 81104 11023 21034 30047 40055 57007 70000 88/// 90839 222// 01003 555 792// 0/505;",
"02795099999","2010-02-26T12:00:00","4","60.1","24.9833333","6.4","HELSINKI HARMAJA, FI","FM-12","99999","V020","110,1,N,0040,1","99999,9,9,N","014000,1,N,1","-0018,1","-0027,1","10043,1","00,1","2,1,06,1",,"08,99,1,08,1,99,9,00150,1,99,9,99,9","99999,9,10035,1","7,1,012,1,+999,9","-002,9","SYN106AAXX  26121 02795 47264 81104 11018 21027 30035 40043 57012 70010 88/// 91139 222// 01002 555 794// 0/605;",
"02795099999","2010-02-26T15:00:00","4","60.1","24.9833333","6.4","HELSINKI HARMAJA, FI","FM-12","99999","V020","100,1,N,0050,1","99999,9,9,N","007000,1,N,1","-0012,1","-0019,1","10032,1","64,1","8,1,03,1",,"08,99,1,08,1,99,9,00075,1,99,9,99,9","99999,9,10024,1","7,1,010,1,+999,9","-002,9","SYN106AAXX  26151 02795 47157 81005 11012 21019 30024 40032 57010 76486 88/// 91439 222// 01002 555 796// 0/205;",
"02795099999","2010-02-26T21:00:00","4","60.1","24.9833333","6.4","HELSINKI HARMAJA, FI","FM-12","99999","V020","110,1,N,0030,1","99999,9,9,N","006000,1,N,1","-0004,1","-0009,1","10026,1","10,1","8,1,03,1",,"08,99,1,08,1,99,9,00150,1,99,9,99,9","99999,9,10018,1","7,1,003,1,+999,9","-002,9","SYN106AAXX  26211 02795 47256 81103 11004 21009 30018 40026 57003 71086 88/// 92039 222// 01002 555 796// 0/404;",
"02795099999","2010-02-27T00:00:00","4","60.1","24.9833333","6.4","HELSINKI HARMAJA, FI","FM-12","99999","V020","120,1,N,0030,1","99999,9,9,N","003900,1,N,1","+0000,1","-0005,1","10026,1","10,1","8,1,06,1",,"08,99,1,08,1,99,9,00150,1,99,9,99,9","99999,9,10018,1","4,1,000,1,+999,9","-001,9","SYN106AAXX  27001 02795 47239 81203 10000 21005 30018 40026 54000 71086 88/// 92339 222// 01001 555 797// 0/003;",
"02795099999","2010-02-27T03:00:00","4","60.1","24.9833333","6.4","HELSINKI HARMAJA, FI","FM-12","99999","V020","150,1,N,0020,1","99999,9,9,N","000500,1,N,1","+0001,1","-0003,1","10022,1","34,1","4,1,03,1",,"08,99,1,08,1,99,9,00075,1,99,9,99,9","99999,9,10014,1","7,1,004,1,+999,9","-001,9","SYN106AAXX  27031 02795 47105 81502 10001 21003 30014 40022 57004 73431 88/// 90239 222// 01001 555 797// 0/504;",
"02795099999","2010-02-27T09:00:00","4","60.1","24.9833333","6.4","HELSINKI HARMAJA, FI","FM-12","99999","V020","150,1,N,0020,1","99999,9,9,N","003500,1,N,1","-0001,1","-0004,1","10033,1","20,1","5,1,03,1",,"07,99,1,07,1,99,9,00075,1,99,9,99,9","99999,9,10025,1","2,1,009,1,+999,9","-002,9","SYN106AAXX  27091 02795 47135 71502 11001 21004 30025 40033 52009 72053 87/// 90839 222// 01002 555 798// 0/603;",
"02795099999","2010-02-27T12:00:00","4","60.1","24.9833333","6.4","HELSINKI HARMAJA, FI","FM-12","99999","V020","120,1,N,0030,1","99999,9,9,N","002400,1,N,1","-0002,1","-0006,1","10033,1","10,1","5,1,06,1",,"07,99,1,07,1,99,9,00075,1,99,9,99,9","99999,9,10025,1","4,1,000,1,+999,9","-002,9","SYN106AAXX  27121 02795 47124 71203 11002 21006 30025 40033 54000 71053 87/// 91139 222// 01002 555 798// 0/204;",
"02795099999","2010-02-27T15:00:00","4","60.1","24.9833333","6.4","HELSINKI HARMAJA, FI","FM-12","99999","V020","090,1,N,0040,1","99999,9,9,N","001500,1,N,1","-0001,1","-0004,1","10028,1","20,1","4,1,03,1",,"07,99,1,07,1,99,9,00075,1,99,9,99,9","99999,9,10020,1","7,1,006,1,+999,9","-001,9","SYN106AAXX  27151 02795 47115 70904 11001 21004 30020 40028 57006 72032 87/// 91439 222// 01001 555 798// 0/105;",
"02795099999","2010-02-27T21:00:00","4","60.1","24.9833333","6.4","HELSINKI HARMAJA, FI","FM-12","99999","V020","120,1,N,0040,1","99999,9,9,N","000700,1,N,1","+0002,1","-0001,1","10014,1","32,1","8,1,03,1",,"07,99,1,07,1,99,9,00075,1,99,9,99,9","99999,9,10006,1","7,1,008,1,+999,9","-002,9","SYN106AAXX  27211 02795 47107 71204 10002 21001 30006 40014 57008 73286 87/// 92039 222// 01002 555 798// 0/505;",
"02795099999","2010-02-28T00:00:00","4","60.1","24.9833333","6.4","HELSINKI HARMAJA, FI","FM-12","99999","V020","150,1,N,0040,1","99999,9,9,N","000500,1,N,1","+0005,1","+0002,1","10009,1","61,1","8,1,06,1",,"07,99,1,07,1,99,9,00075,1,99,9,99,9","99999,9,10002,1","7,1,004,1,+999,9","-002,9","SYN106AAXX  28001 02795 47105 71504 10005 20002 30002 40009 57004 76186 87/// 92339 222// 01002 555 798// 0/604;",
"02795099999","2010-02-28T03:00:00","4","60.1","24.9833333","6.4","HELSINKI HARMAJA, FI","FM-12","99999","V020","210,1,N,0050,1","99999,9,9,N","003300,1,N,1","+0006,1","+0003,1","10007,1","23,1","7,1,03,1",,"07,99,1,07,1,99,9,00075,1,99,9,99,9","99999,9,09999,1","7,1,002,1,+999,9","-001,9","SYN106AAXX  28031 02795 47133 72105 10006 20003 39999 40007 57002 72376 87/// 90239 222// 01001 555 798// 0/005;",
"02795099999","2010-02-28T09:00:00","4","60.1","24.9833333","6.4","HELSINKI HARMAJA, FI","FM-12","99999","V020","170,1,N,0060,1","99999,9,9,N","004100,1,N,1","+0006,1","+0002,1","10010,1","10,1","2,1,03,1",,"07,99,1,07,1,99,9,00075,1,99,9,99,9","99999,9,10002,1","4,1,000,1,+999,9","-002,9","SYN106AAXX  28091 02795 47141 71706 10006 20002 30002 40010 54001 71010 87/// 90839 222// 01002 555 797// 0/407;",
"02795099999","2010-02-28T12:00:00","4","60.1","24.9833333","6.4","HELSINKI HARMAJA, FI","FM-12","99999","V020","160,1,N,0050,1","99999,9,9,N","003500,1,N,1","+0007,1","+0002,1","10007,1","81,1","8,1,06,1",,"07,99,1,07,1,99,9,00250,1,99,9,99,9","99999,9,09999,1","7,1,003,1,+999,9","-002,9","SYN106AAXX  28121 02795 47335 71605 10007 20002 39999 40007 57003 78185 87/// 91139 222// 01002 555 797// 0/606;",
"02795099999","2010-02-28T15:00:00","4","60.1","24.9833333","6.4","HELSINKI HARMAJA, FI","FM-12","99999","V020","170,1,N,0060,1","99999,9,9,N","008000,1,N,1","+0007,1","+0002,1","10000,1","81,1","8,1,03,1",,"05,99,1,05,1,99,9,00250,1,99,9,99,9","99999,9,09992,1","7,1,008,1,+999,9","-001,9","SYN106AAXX  28151 02795 47358 51706 10007 20002 39992 40000 57008 78186 85/// 91439 222// 01001 555 796// 0/107;",
"02795099999","2010-02-28T21:00:00","4","60.1","24.9833333","6.4","HELSINKI HARMAJA, FI","FM-12","99999","V020","180,1,N,0050,1","99999,9,9,N","006000,1,N,1","+0009,1","+0003,1","10000,1","10,1","6,1,03,1",,"08,99,1,08,1,99,9,00450,1,99,9,99,9","99999,9,09992,1","4,1,000,1,+999,9","-002,9","SYN106AAXX  28211 02795 47456 81805 10009 20003 39992 40000 54001 71065 88/// 92039 222// 01002 555 796// 0/106;",
"02795099999","2010-03-01T03:00:00","4","60.1","24.9833333","6.4","HELSINKI HARMAJA, FI","FM-12","99999","V020","140,1,N,0060,1","22000,1,9,N","014000,1,N,1","+0006,1","-0001,1","09977,1","00,1","3,1,03,1","00,1,+99999,9,99,9","00,99,1,00,1,00,1,99999,9,00,1,00,1","99999,9,09969,1","7,1,016,1,+999,9","-002,9","SYN100AAXX  01031 02795 47964 01406 10006 21001 39969 49977 57016 70020 90239 222// 01002 555 795// 0/006;",
"02795099999","2010-03-01T09:00:00","4","60.1","24.9833333","6.4","HELSINKI HARMAJA, FI","FM-12","99999","V020","110,1,N,0070,1","99999,9,9,N","005000,1,N,1","-0001,1","-0005,1","09950,1","67,1","6,1,03,1",,"07,99,1,07,1,99,9,00150,1,99,9,99,9","99999,9,09942,1","7,1,017,1,+999,9","-002,9","SYN106AAXX  01091 02795 47250 71107 11001 21005 39942 49950 57017 76764 87/// 90839 222// 01002 555 797// 0/007;",
"02795099999","2010-03-01T12:00:00","4","60.1","24.9833333","6.4","HELSINKI HARMAJA, FI","FM-12","99999","V020","110,1,N,0070,1","99999,9,9,N","003000,1,N,1","+0001,1","-0002,1","09931,1","74,1","7,1,06,1",,"07,99,1,07,1,99,9,00075,1,99,9,99,9","99999,9,09923,1","7,1,020,1,+999,9","-002,9","SYN106AAXX  01121 02795 47130 71107 10001 21002 39923 49931 57020 77476 87/// 91139 222// 01002 555 798// 0/407;",
"02795099999","2010-03-01T15:00:00","4","60.1","24.9833333","6.4","HELSINKI HARMAJA, FI","FM-12","99999","V020","110,1,N,0070,1","99999,9,9,N","002900,1,N,1","+0001,1","-0002,1","09913,1","67,1","7,1,03,1",,"07,99,1,07,1,99,9,00075,1,99,9,99,9","99999,9,09905,1","7,1,017,1,+999,9","-002,9","SYN106AAXX  01151 02795 47129 71107 10001 21002 39905 49913 57017 76776 87/// 91439 222// 01002 555 798// 0/308;",
"02795099999","2010-03-01T21:00:00","4","60.1","24.9833333","6.4","HELSINKI HARMAJA, FI","FM-12","99999","V020","120,1,N,0050,1","99999,9,9,N","003500,1,N,1","+0000,1","-0003,1","09892,1","67,1","7,1,03,1",,"08,99,1,08,1,99,9,00075,1,99,9,99,9","99999,9,09884,1","7,1,012,1,+999,9","-002,9","SYN106AAXX  01211 02795 47135 81205 10000 21003 39884 49892 57012 76776 88/// 92039 222// 01002 555 798// 0/606;",
"02795099999","2010-03-02T00:00:00","4","60.1","24.9833333","6.4","HELSINKI HARMAJA, FI","FM-12","99999","V020","110,1,N,0030,1","99999,9,9,N","006000,1,N,1","-0001,1","-0004,1","09885,1","54,1","7,1,06,1",,"08,99,1,08,1,99,9,00075,1,99,9,99,9","99999,9,09877,1","7,1,007,1,+999,9","-002,9","SYN106AAXX  02001 02795 47156 81103 11001 21004 39877 49885 57007 75476 88/// 92339 222// 01002 555 798// 0/605;",
"02795099999","2010-03-02T03:00:00","4","60.1","24.9833333","6.4","HELSINKI HARMAJA, FI","FM-12","99999","V020","070,1,N,0020,1","99999,9,9,N","001000,1,N,1","-0001,1","-0004,1","09876,1","10,1","5,1,03,1",,"08,99,1,08,1,99,9,00075,1,99,9,99,9","99999,9,09868,1","7,1,009,1,+999,9","-002,9","SYN106AAXX  02031 02795 47110 80702 11001 21004 39868 49876 57009 71052 88/// 90239 222// 01002 555 798// 0/602;",
"02795099999","2010-03-02T09:00:00","4","60.1","24.9833333","6.4","HELSINKI HARMAJA, FI","FM-12","99999","V020","999,9,C,0000,1","99999,9,9,N","002800,1,N,1","+0000,1","-0003,1","09881,1","61,1","6,1,03,1",,"07,99,1,07,1,99,9,00075,1,99,9,99,9","99999,9,09873,1","2,1,007,1,+999,9","-002,9","SYN106AAXX  02091 02795 47128 70000 10000 21003 39873 49881 52007 76164 87/// 90839 222// 01002 555 798// 0/602;",
"02795099999","2010-03-02T12:00:00","4","60.1","24.9833333","6.4","HELSINKI HARMAJA, FI","FM-12","99999","V020","280,1,N,0030,1","99999,9,9,N","010000,1,N,1","+0005,1","+0002,1","09892,1","51,1","6,1,06,1",,"05,99,1,05,1,99,9,00250,1,99,9,99,9","99999,9,09884,1","2,1,011,1,+999,9","-002,9","SYN106AAXX  02121 02795 47360 52803 10005 20002 39884 49892 52011 75165 85/// 91139 222// 01002 555 798// 0/003;",
"02795099999","2010-03-02T15:00:00","4","60.1","24.9833333","6.4","HELSINKI HARMAJA, FI","FM-12","99999","V020","280,1,N,0040,1","99999,9,9,N","035000,1,N,1","+0008,1","+0005,1","09905,1","00,1","6,1,03,1",,"07,99,1,07,1,99,9,00450,1,99,9,99,9","99999,9,09897,1","2,1,013,1,+999,9","-002,9","SYN106AAXX  02151 02795 47481 72804 10008 20005 39897 49905 52013 70065 87/// 91439 222// 01002 555 798// 0/004;",
"02795099999","2010-03-02T21:00:00","4","60.1","24.9833333","6.4","HELSINKI HARMAJA, FI","FM-12","99999","V020","270,1,N,0070,1","99999,9,9,N","007000,1,N,1","-0020,1","-0032,1","09936,1","71,1","7,1,03,1",,"05,99,1,05,1,99,9,00150,1,99,9,99,9","99999,9,09928,1","2,1,013,1,+999,9","-002,9","SYN106AAXX  02211 02795 47257 52707 11020 21032 39928 49936 52013 77176 85/// 92039 222// 01002 555 792// 0/308;",
"02795099999","2010-03-03T00:00:00","4","60.1","24.9833333","6.4","HELSINKI HARMAJA, FI","FM-12","99999","V020","240,1,N,0070,1","99999,9,9,N","009000,1,N,1","-0032,1","-0043,1","09944,1","67,1","7,1,06,1",,"07,99,1,07,1,99,9,00250,1,99,9,99,9","99999,9,09936,1","2,1,009,1,+999,9","-002,9","SYN106AAXX  03001 02795 47359 72407 11032 21043 39936 49944 52009 76776 87/// 92339 222// 01002 555 792// 0/508;",
"02795099999","2010-03-03T03:00:00","4","60.1","24.9833333","6.4","HELSINKI HARMAJA, FI","FM-12","99999","V020","260,1,N,0050,1","22000,1,9,N","045000,1,N,1","-0042,1","-0056,1","09948,1","54,1","7,1,03,1",,"03,99,1,03,1,99,9,00800,1,99,9,99,9","99999,9,09940,1","2,1,003,1,+999,9","-002,9","SYN106AAXX  03031 02795 47583 32605 11042 21056 39940 49948 52003 75476 83/// 90239 222// 01002 555 790// 0/607;",
"02795099999","2010-03-03T09:00:00","4","60.1","24.9833333","6.4","HELSINKI HARMAJA, FI","FM-12","99999","V020","260,1,N,0050,1","22000,1,9,N","012000,1,N,1","-0043,1","-0059,1","09958,1","71,1","7,1,03,1",,"01,99,1,01,1,99,9,00450,1,99,9,99,9","99999,9,09950,1","2,1,007,1,+999,9","-002,9","SYN106AAXX  03091 02795 47462 12605 11043 21059 39950 49958 52007 77170 81/// 90839 222// 01002 555 789// 0/606;",
"02795099999","2010-03-03T12:00:00","4","60.1","24.9833333","6.4","HELSINKI HARMAJA, FI","FM-12","99999","V020","260,1,N,0050,1","22000,1,9,N","035000,1,N,1","-0034,1","-0062,1","09968,1","77,1","7,1,06,1",,"03,99,1,03,1,99,9,00450,1,99,9,99,9","99999,9,09960,1","2,1,010,1,+999,9","-002,9","SYN106AAXX  03121 02795 47481 32605 11034 21062 39960 49968 52010 77774 83/// 91139 222// 01002 555 781// 0/306;",
"02795099999","2010-03-03T15:00:00","4","60.1","24.9833333","6.4","HELSINKI HARMAJA, FI","FM-12","99999","V020","270,1,N,0050,1","99999,9,9,N","008000,1,N,1","-0035,1","-0056,1","09979,1","71,1","8,1,03,1",,"05,99,1,05,1,99,9,00150,1,99,9,99,9","99999,9,09971,1","2,1,011,1,+999,9","-001,9","SYN106AAXX  03151 02795 47258 52705 11035 21056 39971 49979 52011 77187 85/// 91439 222// 01001 555 785// 0/505;",
"02795099999","2010-03-03T21:00:00","4","60.1","24.9833333","6.4","HELSINKI HARMAJA, FI","FM-12","99999","V020","290,1,N,0040,1","99999,9,9,N","006000,1,N,1","-0045,1","-0055,1","09988,1","64,1","6,1,03,1",,"07,99,1,07,1,99,9,00250,1,99,9,99,9","99999,9,09980,1","4,1,000,1,+999,9","-002,9","SYN106AAXX  03211 02795 47356 72904 11045 21055 39980 49988 54002 76465 87/// 92039 222// 01002 555 793// 0/506;",
"02795099999","2010-03-04T00:00:00","4","60.1","24.9833333","6.4","HELSINKI HARMAJA, FI","FM-12","99999","V020","290,1,N,0030,1","99999,9,9,N","005000,1,N,1","-0050,1","-0059,1","09991,1","54,1","6,1,06,1",,"05,99,1,05,1,99,9,00150,1,99,9,99,9","99999,9,09983,1","2,1,003,1,+999,9","-002,9","SYN106AAXX  04001 02795 47250 52903 11050 21059 39983 49991 52003 75465 85/// 92339 222// 01002 555 794// 0/604;",
"02795099999","2010-03-04T03:00:00","4","60.1","24.9833333","6.4","HELSINKI HARMAJA, FI","FM-12","99999","V020","310,1,N,0030,1","22000,1,9,N","017000,1,N,1","-0039,1","-0049,1","09994,1","64,1","6,1,03,1",,"03,99,1,03,1,99,9,00250,1,99,9,99,9","99999,9,09986,1","2,1,003,1,+999,9","-002,9","SYN106AAXX  04031 02795 47367 33103 11039 21049 39986 49994 52003 76465 83/// 90239 222// 01002 555 793// 0/003;",
"02795099999","2010-03-04T09:00:00","4","60.1","24.9833333","6.4","HELSINKI HARMAJA, FI","FM-12","99999","V020","350,1,N,0050,1","99999,9,9,N","013000,1,N,1","-0020,1","-0036,1","10015,1","67,1","8,1,03,1",,"05,99,1,05,1,99,9,00150,1,99,9,99,9","99999,9,10007,1","2,1,015,1,+999,9","-002,9","SYN106AAXX  04091 02795 47263 53505 11020 21036 30007 40015 52015 76787 85/// 90839 222// 01002 555 789// 0/605;",
"02795099999","2010-03-04T12:00:00","4","60.1","24.9833333","6.4","HELSINKI HARMAJA, FI","FM-12","99999","V020","050,1,N,0040,1","22000,1,9,N","035000,1,N,1","-0017,1","-0051,1","10036,1","00,1","8,1,06,1",,"03,99,1,03,1,99,9,00800,1,99,9,99,9","99999,9,10028,1","2,1,021,1,+999,9","-001,9","SYN106AAXX  04121 02795 47581 30504 11017 21051 30028 40036 52021 70087 83/// 91139 222// 01001 555 778// 0/605;",
"02795099999","2010-03-04T15:00:00","4","60.1","24.9833333","6.4","HELSINKI HARMAJA, FI","FM-12","99999","V020","020,1,N,0060,1","99999,9,9,N","045000,1,N,1","-0028,1","-0062,1","10060,1","00,1","0,1,03,1",,"05,99,1,05,1,99,9,00800,1,99,9,99,9","99999,9,10052,1","2,1,023,1,+999,9","-001,9","SYN106AAXX  04151 02795 47583 50206 11028 21062 30052 40060 52023 70000 85/// 91439 222// 01001 555 777// 0/307;",
"02795099999","2010-03-04T21:00:00","4","60.1","24.9833333","6.4","HELSINKI HARMAJA, FI","FM-12","99999","V020","360,1,N,0060,1","22000,1,9,N","015000,1,N,1","-0038,1","-0053,1","10089,1","54,1","5,1,03,1","00,1,+99999,9,99,9","00,99,1,00,1,00,1,99999,9,00,1,00,1","99999,9,10081,1","2,1,012,1,+999,9","-001,9","SYN100AAXX  04211 02795 47965 03606 11038 21053 30081 40089 52012 75454 92039 222// 01001 555 789// 0/206;",
"02795099999","2010-03-05T00:00:00","4","60.1","24.9833333","6.4","HELSINKI HARMAJA, FI","FM-12","99999","V020","010,1,N,0070,1","22000,1,9,N","035000,1,N,1","-0043,1","-0062,1","10104,1","54,1","6,1,06,1","00,1,+99999,9,99,9","00,99,1,00,1,00,1,99999,9,00,1,00,1","99999,9,10095,1","2,1,014,1,+999,9","+000,9","SYN100AAXX  05001 02795 47981 00107 11043 21062 30095 40104 52014 75465 92339 222// 00000 555 786// 0/007;",
"02795099999","2010-03-05T03:00:00","4","60.1","24.9833333","6.4","HELSINKI HARMAJA, FI","FM-12","99999","V020","010,1,N,0060,1","99999,9,9,N","019000,1,N,1","-0049,1","-0070,1","10117,1","54,1","8,1,03,1",,"05,99,1,05,1,99,9,00250,1,99,9,99,9","99999,9,10108,1","2,1,013,1,+999,9","-001,9","SYN106AAXX  05031 02795 47369 50106 11049 21070 30108 40117 52013 75485 85/// 90239 222// 01001 555 785// 0/608;",
"02795099999","2010-03-05T09:00:00","4","60.1","24.9833333","6.4","HELSINKI HARMAJA, FI","FM-12","99999","V020","350,1,N,0060,1","22000,1,9,N","040000,1,N,1","-0064,1","-0102,1","10127,1","00,1","0,1,03,1","00,1,+99999,9,99,9","00,99,1,00,1,00,1,99999,9,00,1,00,1","99999,9,10119,1","2,1,006,1,+999,9","-002,9","SYN100AAXX  05091 02795 47982 03506 11064 21102 30119 40127 52006 70000 90839 222// 01002 555 774// 0/307;",
"02795099999","2010-03-05T12:00:00","4","60.1","24.9833333","6.4","HELSINKI HARMAJA, FI","FM-12","99999","V020","350,1,N,0060,1","22000,1,9,N","035000,1,N,1","-0045,1","-0095,1","10140,1","00,1","0,1,06,1","00,1,+99999,9,99,9","00,99,1,00,1,00,1,99999,9,00,1,00,1","99999,9,10131,1","2,1,013,1,+999,9","-001,9","SYN100AAXX  05121 02795 47981 03506 11045 21095 30131 40140 52013 70000 91139 222// 01001 555 768// 0/406;",
"02795099999","2010-03-05T15:00:00","4","60.1","24.9833333","6.4","HELSINKI HARMAJA, FI","FM-12","99999","V020","340,1,N,0050,1","22000,1,9,N","045000,1,N,1","-0040,1","-0086,1","10153,1","00,1","0,1,03,1","00,1,+99999,9,99,9","00,99,1,00,1,00,1,99999,9,00,1,00,1","99999,9,10144,1","2,1,013,1,+999,9","-001,9","SYN100AAXX  05151 02795 47983 03405 11040 21086 30144 40153 52013 70000 91439 222// 01001 555 770// 0/307;",
"02795099999","2010-03-05T21:00:00","4","60.1","24.9833333","6.4","HELSINKI HARMAJA, FI","FM-12","99999","V020","350,1,N,0060,1","22000,1,9,N","050000,1,N,1","-0056,1","-0087,1","10180,1","00,1","0,1,03,1","00,1,+99999,9,99,9","00,99,1,00,1,00,1,99999,9,00,1,00,1","99999,9,10172,1","2,1,013,1,+999,9","-001,9","SYN100AAXX  05211 02795 47999 03506 11056 21087 30172 40180 52013 70000 92039 222// 01001 555 779// 0/407;",
"02795099999","2010-03-06T00:00:00","4","60.1","24.9833333","6.4","HELSINKI HARMAJA, FI","FM-12","99999","V020","310,1,N,0030,1","22000,1,9,N","050000,1,N,1","-0066,1","-0097,1","10192,1","00,1","0,1,06,1","00,1,+99999,9,99,9","00,99,1,00,1,00,1,99999,9,00,1,00,1","99999,9,10183,1","2,1,012,1,+999,9","+000,9","SYN100AAXX  06001 02795 47999 03103 11066 21097 30183 40192 52012 70000 92339 222// 00000 555 779// 0/506;",
"02795099999","2010-03-06T03:00:00","4","60.1","24.9833333","6.4","HELSINKI HARMAJA, FI","FM-12","99999","V020","270,1,N,0030,1","22000,1,9,N","050000,1,N,1","-0070,1","-0095,1","10195,1","00,1","0,1,03,1","00,1,+99999,9,99,9","00,99,1,00,1,00,1,99999,9,00,1,00,1","99999,9,10186,1","2,1,003,1,+999,9","-001,9","SYN100AAXX  06031 02795 47999 02703 11070 21095 30186 40195 52003 70000 90239 222// 01001 555 783// 0/404;",
"02795099999","2010-03-06T09:00:00","4","60.1","24.9833333","6.4","HELSINKI HARMAJA, FI","FM-12","99999","V020","270,1,N,0050,1","22000,1,9,N","035000,1,N,1","-0071,1","-0096,1","10200,1","00,1","0,1,03,1","00,1,+99999,9,99,9","00,99,1,00,1,00,1,99999,9,00,1,00,1","99999,9,10192,1","2,1,003,1,+999,9","-001,9","SYN100AAXX  06091 02795 47981 02705 11071 21096 30192 40200 52003 70000 90839 222// 01001 555 782// 0/206;",
"02795099999","2010-03-06T12:00:00","4","60.1","24.9833333","6.4","HELSINKI HARMAJA, FI","FM-12","99999","V020","280,1,N,0040,1","22000,1,9,N","020000,1,N,1","-0025,1","-0081,1","10196,1","71,1","7,1,06,1",,"01,99,1,01,1,99,9,00250,1,99,9,99,9","99999,9,10188,1","7,1,004,1,+999,9","+000,9","SYN106AAXX  06121 02795 47370 12804 11025 21081 30188 40196 57004 77174 81/// 91139 222// 00000 555 765// 0/507;",
"02795099999","2010-03-06T15:00:00","4","60.1","24.9833333","6.4","HELSINKI HARMAJA, FI","FM-12","99999","V020","010,1,N,0040,1","22000,1,9,N","050000,1,N,1","-0016,1","-0051,1","10206,1","00,1","8,1,03,1",,"03,99,1,03,1,99,9,00800,1,99,9,99,9","99999,9,10198,1","2,1,010,1,+999,9","+000,9","SYN106AAXX  06151 02795 47599 30104 11016 21051 30198 40206 52010 70087 83/// 91439 222// 00000 555 777// 0/605;",
"02795099999","2010-03-06T21:00:00","4","60.1","24.9833333","6.4","HELSINKI HARMAJA, FI","FM-12","99999","V020","050,1,N,0050,1","22000,1,9,N","045000,1,N,1","-0045,1","-0079,1","10251,1","54,1","6,1,03,1",,"03,99,1,03,1,99,9,00450,1,99,9,99,9","99999,9,10243,1","2,1,022,1,+999,9","-001,9","SYN106AAXX  06211 02795 47483 30505 11045 21079 30243 40251 52022 75465 83/// 92039 222// 01001 555 777// 0/307;",
"02795099999","2010-03-07T00:00:00","4","60.1","24.9833333","6.4","HELSINKI HARMAJA, FI","FM-12","99999","V020","060,1,N,0060,1","99999,9,9,N","050000,1,N,1","-0054,1","-0090,1","10268,1","54,1","6,1,06,1",,"05,99,1,05,1,99,9,00800,1,99,9,99,9","99999,9,10259,1","2,1,016,1,+999,9","+000,9","SYN106AAXX  07001 02795 47599 50606 11054 21090 30259 40268 52016 75465 85/// 92339 222// 00000 555 775// 0/106;",
"02795099999","2010-03-07T03:00:00","4","60.1","24.9833333","6.4","HELSINKI HARMAJA, FI","FM-12","99999","V020","060,1,N,0050,1","22000,1,9,N","014000,1,N,1","-0062,1","-0087,1","10280,1","64,1","6,1,03,1",,"03,99,1,03,1,99,9,00450,1,99,9,99,9","99999,9,10271,1","2,1,012,1,+999,9","+000,9","SYN106AAXX  07031 02795 47464 30605 11062 21087 30271 40280 52012 76465 83/// 90239 222// 00000 555 782// 0/605;",
"02795099999","2010-03-07T09:00:00","4","60.1","24.9833333","6.4","HELSINKI HARMAJA, FI","FM-12","99999","V020","050,1,N,0020,1","22000,1,9,N","045000,1,N,1","-0068,1","-0103,1","10306,1","00,1","6,1,03,1",,"01,99,1,01,1,99,9,00800,1,99,9,99,9","99999,9,10298,1","2,1,014,1,+999,9","-001,9","SYN106AAXX  07091 02795 47583 10502 11068 21103 30298 40306 52014 70065 81/// 90839 222// 01001 555 776// 0/605;",
"02795099999","2010-03-07T12:00:00","4","60.1","24.9833333","6.4","HELSINKI HARMAJA, FI","FM-12","99999","V020","030,1,N,0010,1","22000,1,9,N","050000,1,N,1","-0063,1","-0114,1","10310,1","21,1","8,1,06,1",,"03,99,1,03,1,99,9,00450,1,99,9,99,9","99999,9,10301,1","2,1,003,1,+999,9","-002,9","SYN106AAXX  07121 02795 47499 30301 11063 21114 30301 40310 52003 72186 83/// 91139 222// 01002 555 767// 0/402;",
"02795099999","2010-03-07T15:00:00","4","60.1","24.9833333","6.4","HELSINKI HARMAJA, FI","FM-12","99999","V020","160,1,N,0020,1","99999,9,9,N","050000,1,N,1","-0062,1","-0107,1","10307,1","00,1","3,1,03,1",,"05,99,1,05,1,99,9,00800,1,99,9,99,9","99999,9,10299,1","7,1,002,1,+999,9","-001,9","SYN106AAXX  07151 02795 47599 51602 11062 21107 30299 40307 57002 70020 85/// 91439 222// 01001 555 770// 0/602;",
"02795099999","2010-03-07T21:00:00","4","60.1","24.9833333","6.4","HELSINKI HARMAJA, FI","FM-12","99999","V020","230,1,N,0030,1","22000,1,9,N","050000,1,N,1","-0065,1","-0096,1","10302,1","00,1","0,1,03,1",,"01,99,1,01,1,99,9,00450,1,99,9,99,9","99999,9,10293,1","7,1,006,1,+999,9","-002,9","SYN106AAXX  07211 02795 47499 12303 11065 21096 30293 40302 57006 70000 81/// 92039 222// 01002 555 779// 0/205;",
"02795099999","2010-03-08T00:00:00","4","60.1","24.9833333","6.4","HELSINKI HARMAJA, FI","FM-12","99999","V020","230,1,N,0070,1","22000,1,9,N","050000,1,N,1","-0063,1","-0093,1","10293,1","00,1","0,1,06,1","00,1,+99999,9,99,9","00,99,1,00,1,00,1,99999,9,00,1,00,1","99999,9,10284,1","7,1,009,1,+999,9","-003,9","SYN100AAXX  08001 02795 47999 02307 11063 21093 30284 40293 57009 70000 92339 222// 01003 555 779// 0/007;",
"02795099999","2010-03-08T03:00:00","4","60.1","24.9833333","6.4","HELSINKI HARMAJA, FI","FM-12","99999","V020","220,1,N,0080,1","22000,1,9,N","050000,1,N,1","-0056,1","-0080,1","10274,1","00,1","0,1,03,1",,"01,99,1,01,1,99,9,00450,1,99,9,99,9","99999,9,10265,1","7,1,019,1,+999,9","-003,9","SYN106AAXX  08031 02795 47499 12208 11056 21080 30265 40274 57019 70000 81/// 90239 222// 01003 555 783// 0/008;",
"02795099999","2010-03-08T09:00:00","4","60.1","24.9833333","6.4","HELSINKI HARMAJA, FI","FM-12","99999","V020","230,1,N,0130,1","99999,9,9,N","019000,1,N,1","-0032,1","-0045,1","10224,1","54,1","6,1,03,1",,"08,99,1,08,1,99,9,00250,1,99,9,99,9","99999,9,10216,1","7,1,023,1,+999,9","-003,9","SYN106AAXX  08091 02795 47369 82313 11032 21045 30216 40224 57023 75465 88/// 90839 222// 01003 555 791// 0/114;",
"02795099999","2010-03-08T12:00:00","4","60.1","24.9833333","6.4","HELSINKI HARMAJA, FI","FM-12","99999","V020","230,1,N,0140,1","99999,9,9,N","017000,1,N,1","-0018,1","-0029,1","10199,1","54,1","8,1,06,1",,"08,99,1,08,1,99,9,00150,1,99,9,99,9","99999,9,10190,1","7,1,026,1,+999,9","-003,9","SYN106AAXX  08121 02795 47267 82314 11018 21029 30190 40199 57026 75486 88/// 91139 222// 01003 555 793// 0/215;",
"02795099999","2010-03-08T15:00:00","4","60.1","24.9833333","6.4","HELSINKI HARMAJA, FI","FM-12","99999","V020","230,1,N,0160,1","99999,9,9,N","012000,1,N,1","-0008,1","-0021,1","10162,1","40,1","8,1,03,1",,"08,99,1,08,1,99,9,00250,1,99,9,99,9","99999,9,10154,1","7,1,036,1,+999,9","-002,9","SYN106AAXX  08151 02795 47362 82316 11008 21021 30154 40162 57036 74085 88/// 91439 222// 01002 555 791// 0/016;",
"02795099999","2010-03-08T21:00:00","4","60.1","24.9833333","6.4","HELSINKI HARMAJA, FI","FM-12","99999","V020","260,1,N,0060,1","22000,1,9,N","050000,1,N,1","-0004,1","-0021,1","10142,1","00,1","6,1,03,1","00,1,+99999,9,99,9","00,99,1,00,1,00,1,99999,9,00,1,00,1","99999,9,10134,1","4,1,000,1,+999,9","-001,9","SYN100AAXX  08211 02795 47999 02606 11004 21021 30134 40142 54002 70065 92039 222// 01001 555 788// 0/516;",
"02795099999","2010-03-09T00:00:00","4","60.1","24.9833333","6.4","HELSINKI HARMAJA, FI","FM-12","99999","V020","300,1,N,0060,1","22000,1,9,N","050000,1,N,1","-0014,1","-0050,1","10163,1","00,1","6,1,06,1","00,1,+99999,9,99,9","00,99,1,00,1,00,1,99999,9,00,1,00,1","99999,9,10154,1","2,1,021,1,+999,9","-001,9","SYN100AAXX  09001 02795 47999 03006 11014 21050 30154 40163 52021 70065 92339 222// 01001 555 777// 0/206;",
"02795099999","2010-03-09T03:00:00","4","60.1","24.9833333","6.4","HELSINKI HARMAJA, FI","FM-12","99999","V020","290,1,N,0050,1","22000,1,9,N","050000,1,N,1","-0030,1","-0071,1","10178,1","00,1","0,1,03,1","00,1,+99999,9,99,9","00,99,1,00,1,00,1,99999,9,00,1,00,1","99999,9,10169,1","2,1,015,1,+999,9","-002,9","SYN100AAXX  09031 02795 47999 02905 11030 21071 30169 40178 52015 70000 90239 222// 01002 555 773// 0/508;",
"02795099999","2010-03-09T09:00:00","4","60.1","24.9833333","6.4","HELSINKI HARMAJA, FI","FM-12","99999","V020","270,1,N,0060,1","22000,1,9,N","035000,1,N,1","-0025,1","-0063,1","10192,1","00,1","0,1,03,1","00,1,+99999,9,99,9","00,99,1,00,1,00,1,99999,9,00,1,00,1","99999,9,10183,1","2,1,005,1,+999,9","-002,9","SYN100AAXX  09091 02795 47981 02706 11025 21063 30183 40192 52005 70000 90839 222// 01002 555 775// 0/607;",
"02795099999","2010-03-09T12:00:00","4","60.1","24.9833333","6.4","HELSINKI HARMAJA, FI","FM-12","99999","V020","260,1,N,0060,1","22000,1,9,N","040000,1,N,1","+0006,1","-0051,1","10188,1","00,1","0,1,06,1","00,1,+99999,9,99,9","00,99,1,00,1,00,1,99999,9,00,1,00,1","99999,9,10180,1","7,1,003,1,+999,9","+000,9","SYN100AAXX  09121 02795 47982 02606 10006 21051 30180 40188 57003 70000 91139 222// 00000 555 766// 0/006;",
"02795099999","2010-03-09T15:00:00","4","60.1","24.9833333","6.4","HELSINKI HARMAJA, FI","FM-12","99999","V020","280,1,N,0070,1","22000,1,9,N","045000,1,N,1","+0002,1","-0049,1","10185,1","00,1","0,1,03,1","00,1,+99999,9,99,9","00,99,1,00,1,00,1,99999,9,00,1,00,1","99999,9,10177,1","7,1,003,1,+999,9","+000,9","SYN100AAXX  09151 02795 47983 02807 10002 21049 30177 40185 57003 70000 91439 222// 00000 555 769// 0/208;",
"02795099999","2010-03-09T21:00:00","4","60.1","24.9833333","6.4","HELSINKI HARMAJA, FI","FM-12","99999","V020","270,1,N,0090,1","22000,1,9,N","050000,1,N,1","-0015,1","-0042,1","10184,1","00,1","0,1,03,1","00,1,+99999,9,99,9","00,99,1,00,1,00,1,99999,9,00,1,00,1","99999,9,10176,1","4,1,000,1,+999,9","+000,9","SYN100AAXX  09211 02795 47999 02709 11015 21042 30176 40184 54002 70000 92039 222// 00000 555 782// 0/209;",
"02795099999","2010-03-10T00:00:00","4","60.1","24.9833333","6.4","HELSINKI HARMAJA, FI","FM-12","99999","V020","250,1,N,0060,1","22000,1,9,N","050000,1,N,1","-0012,1","-0044,1","10164,1","00,1","0,1,06,1",,"01,99,1,01,1,99,9,01250,1,99,9,99,9","99999,9,10156,1","7,1,020,1,+999,9","+000,9","SYN106AAXX  10001 02795 47699 12506 11012 21044 30156 40164 57020 70000 81/// 92339 222// 00000 555 779// 0/609;",
"02795099999","2010-03-10T03:00:00","4","60.1","24.9833333","6.4","HELSINKI HARMAJA, FI","FM-12","99999","V020","240,1,N,0080,1","22000,1,9,N","050000,1,N,1","-0004,1","-0028,1","10132,1","00,1","0,1,03,1",,"01,99,1,01,1,99,9,01250,1,99,9,99,9","99999,9,10124,1","7,1,032,1,+999,9","+000,9","SYN106AAXX  10031 02795 47699 12408 11004 21028 30124 40132 57032 70000 81/// 90239 222// 00000 555 784// 0/211;",
"02795099999","2010-03-10T09:00:00","4","60.1","24.9833333","6.4","HELSINKI HARMAJA, FI","FM-12","99999","V020","250,1,N,0080,1","22000,1,9,N","045000,1,N,1","+0017,1","-0019,1","10112,1","00,1","0,1,03,1","00,1,+99999,9,99,9","00,99,1,00,1,00,1,99999,9,00,1,00,1","99999,9,10104,1","7,1,005,1,+999,9","-001,9","SYN100AAXX  10091 02795 47983 02508 10017 21019 30104 40112 57005 70000 90839 222// 01001 555 777// 0/411;",
"02795099999","2010-03-10T12:00:00","4","60.1","24.9833333","6.4","HELSINKI HARMAJA, FI","FM-12","99999","V020","260,1,N,0080,1","22000,1,9,N","045000,1,N,1","+0035,1","-0010,1","10122,1","00,1","0,1,06,1","00,1,+99999,9,99,9","00,99,1,00,1,00,1,99999,9,00,1,00,1","99999,9,10114,1","2,1,011,1,+999,9","+000,9","SYN100AAXX  10121 02795 47983 02608 10035 21010 30114 40122 52011 70000 91139 222// 00000 555 772// 0/310;",
"02795099999","2010-03-10T15:00:00","4","60.1","24.9833333","6.4","HELSINKI HARMAJA, FI","FM-12","99999","V020","280,1,N,0080,1","22000,1,9,N","050000,1,N,1","+0037,1","-0004,1","10134,1","00,1","0,1,03,1","00,1,+99999,9,99,9","00,99,1,00,1,00,1,99999,9,00,1,00,1","99999,9,10126,1","2,1,012,1,+999,9","+001,9","SYN100AAXX  10151 02795 47999 02808 10037 21004 30126 40134 52012 70000 91439 222// 00001 555 775// 0/109;",
"02795099999","2010-03-10T21:00:00","4","60.1","24.9833333","6.4","HELSINKI HARMAJA, FI","FM-12","99999","V020","230,1,N,0080,1","22000,1,9,N","050000,1,N,1","+0005,1","-0011,1","10142,1","00,1","0,1,03,1","00,1,+99999,9,99,9","00,99,1,00,1,00,1,99999,9,00,1,00,1","99999,9,10134,1","7,1,004,1,+999,9","+001,9","SYN100AAXX  10211 02795 47999 02308 10005 21011 30134 40142 57004 70000 92039 222// 00001 555 789// 0/309;",
"02795099999","2010-03-11T00:00:00","4","60.1","24.9833333","6.4","HELSINKI HARMAJA, FI","FM-12","99999","V020","240,1,N,0080,1","22000,1,9,N","050000,1,N,1","+0004,1","-0014,1","10131,1","00,1","0,1,06,1",,"01,99,1,01,1,99,9,01250,1,99,9,99,9","99999,9,10123,1","7,1,011,1,+999,9","+000,9","SYN106AAXX  11001 02795 47699 12408 10004 21014 30123 40131 57011 70000 81/// 92339 222// 00000 555 788// 0/209;",
"02795099999","2010-03-11T03:00:00","4","60.1","24.9833333","6.4","HELSINKI HARMAJA, FI","FM-12","99999","V020","230,1,N,0110,1","22000,1,9,N","026000,1,N,1","+0002,1","-0009,1","10115,1","00,1","0,1,03,1","00,1,+99999,9,99,9","00,99,1,00,1,00,1,99999,9,00,1,00,1","99999,9,10107,1","7,1,017,1,+999,9","+000,9","SYN100AAXX  11031 02795 47976 02311 10002 21009 30107 40115 57017 70000 90239 222// 00000 555 792// 0/212;",
"02795099999","2010-03-11T09:00:00","4","60.1","24.9833333","6.4","HELSINKI HARMAJA, FI","FM-12","99999","V020","240,1,N,0150,1","99999,9,9,N","009000,1,N,1","+0000,1","-0011,1","10083,1","00,1","0,1,03,1",,"08,99,1,08,1,99,9,00150,1,99,9,99,9","99999,9,10075,1","7,1,014,1,+999,9","+000,9","SYN106AAXX  11091 02795 47259 82415 10000 21011 30075 40083 57014 70000 88/// 90839 222// 00000 555 793// 0/015;",
"02795099999","2010-03-11T12:00:00","4","60.1","24.9833333","6.4","HELSINKI HARMAJA, FI","FM-12","99999","V020","230,1,N,0170,1","99999,9,9,N","010000,1,N,1","-0001,1","-0010,1","10062,1","00,1","0,1,06,1",,"08,99,1,08,1,99,9,00150,1,99,9,99,9","99999,9,10054,1","7,1,021,1,+999,9","+001,9","SYN106AAXX  11121 02795 47260 82317 11001 21010 30054 40062 57021 70000 88/// 91139 222// 00001 555 793// 0/118;",
"02795099999","2010-03-11T15:00:00","4","60.1","24.9833333","6.4","HELSINKI HARMAJA, FI","FM-12","99999","V020","240,1,N,0170,1","99999,9,9,N","007000,1,N,1","-0005,1","-0012,1","10045,1","10,1","2,1,03,1",,"08,99,1,08,1,99,9,00075,1,99,9,99,9","99999,9,10037,1","7,1,017,1,+999,9","+001,9","SYN106AAXX  11151 02795 47157 82417 11005 21012 30037 40045 57017 71010 88/// 91439 222// 00001 555 795// 0/419;",
"02795099999","2010-03-11T21:00:00","4","60.1","24.9833333","6.4","HELSINKI HARMAJA, FI","FM-12","99999","V020","240,1,N,0140,1","99999,9,9,N","011000,1,N,1","-0006,1","-0013,1","10023,1","54,1","5,1,03,1",,"08,99,1,08,1,99,9,00150,1,99,9,99,9","99999,9,10015,1","7,1,012,1,+999,9","+003,9","SYN106AAXX  11211 02795 47261 82414 11006 21013 30015 40023 57012 75454 88/// 92039 222// 00003 555 795// 0/316;",
"02795099999","2010-03-12T00:00:00","4","60.1","24.9833333","6.4","HELSINKI HARMAJA, FI","FM-12","99999","V020","240,1,N,0120,1","99999,9,9,N","012000,1,N,1","+0003,1","-0006,1","10011,1","00,1","5,1,06,1",,"08,99,1,08,1,99,9,00150,1,99,9,99,9","99999,9,10003,1","7,1,012,1,+999,9","+004,9","SYN106AAXX  12001 02795 47262 82412 10003 21006 30003 40011 57012 70054 88/// 92339 222// 00004 555 794// 0/615;",
"02795099999","2010-03-12T03:00:00","4","60.1","24.9833333","6.4","HELSINKI HARMAJA, FI","FM-12","99999","V020","250,1,N,0050,1","99999,9,9,N","001000,1,N,1","-0002,1","-0007,1","10008,1","71,1","7,1,03,1",,"08,99,1,08,1,99,9,00150,1,99,9,99,9","99999,9,10000,1","7,1,003,1,+999,9","+003,9","SYN106AAXX  12031 02795 47210 82505 11002 21007 30000 40008 57003 77176 88/// 90239 222// 00003 555 797// 0/612;",
"02795099999","2010-03-12T15:00:00","4","60.1","24.9833333","6.4","HELSINKI HARMAJA, FI","FM-12","99999","V020","020,1,N,0030,1","22000,1,9,N","050000,1,N,1","-0004,1","-0091,1","10036,1","00,1","0,1,03,1","00,1,+99999,9,99,9","00,99,1,00,1,00,1,99999,9,00,1,00,1","99999,9,10028,1","7,1,003,1,+999,9","+001,9","SYN100AAXX  12151 02795 47999 00203 11004 21091 30028 40036 57003 70000 91439 222// 00001 555 752// 0/606;",
"02795099999","2010-03-12T21:00:00","4","60.1","24.9833333","6.4","HELSINKI HARMAJA, FI","FM-12","99999","V020","300,1,N,0050,1","22000,1,9,N","050000,1,N,1","-0030,1","-0080,1","10029,1","00,1","0,1,03,1","00,1,+99999,9,99,9","00,99,1,00,1,00,1,99999,9,00,1,00,1","99999,9,10021,1","7,1,005,1,+999,9","-001,9","SYN100AAXX  12211 02795 47999 03005 11030 21080 30021 40029 57005 70000 92039 222// 01001 555 769// 0/006;",
"02795099999","2010-03-13T00:00:00","4","60.1","24.9833333","6.4","HELSINKI HARMAJA, FI","FM-12","99999","V020","290,1,N,0050,1","22000,1,9,N","050000,1,N,1","-0043,1","-0078,1","10017,1","00,1","0,1,06,1","00,1,+99999,9,99,9","00,99,1,00,1,00,1,99999,9,00,1,00,1","99999,9,10009,1","7,1,012,1,+999,9","-001,9","SYN100AAXX  13001 02795 47999 02905 11043 21078 30009 40017 57012 70000 92339 222// 01001 555 777// 0/606;",
"02795099999","2010-03-13T03:00:00","4","60.1","24.9833333","6.4","HELSINKI HARMAJA, FI","FM-12","99999","V020","260,1,N,0030,1","22000,1,9,N","050000,1,N,1","-0047,1","-0069,1","10006,1","00,1","0,1,03,1","00,1,+99999,9,99,9","00,99,1,00,1,00,1,99999,9,00,1,00,1","99999,9,09998,1","7,1,011,1,+999,9","-001,9","SYN100AAXX  13031 02795 47999 02603 11047 21069 39998 40006 57011 70000 90239 222// 01001 555 785// 0/605;",
"02795099999","2010-03-13T09:00:00","4","60.1","24.9833333","6.4","HELSINKI HARMAJA, FI","FM-12","99999","V020","260,1,N,0030,1","22000,1,9,N","035000,1,N,1","-0035,1","-0057,1","09985,1","00,1","8,1,03,1","00,1,+99999,9,99,9","00,99,1,00,1,00,1,99999,9,00,1,00,1","99999,9,09977,1","7,1,005,1,+999,9","-002,9","SYN100AAXX  13091 02795 47981 02603 11035 21057 39977 49985 57005 70087 90839 222// 01002 555 784// 0/605;",
"02795099999","2010-03-13T12:00:00","4","60.1","24.9833333","6.4","HELSINKI HARMAJA, FI","FM-12","99999","V020","220,1,N,0040,1","22000,1,9,N","035000,1,N,1","-0011,1","-0039,1","09975,1","41,1","8,1,06,1","00,1,+99999,9,99,9","00,99,1,00,1,00,1,99999,9,00,1,00,1","99999,9,09967,1","7,1,010,1,+999,9","+000,9","SYN100AAXX  13121 02795 47981 02204 11011 21039 39967 49975 57010 74187 91139 222// 00000 555 781// 0/205;",
"02795099999","2010-03-13T15:00:00","4","60.1","24.9833333","6.4","HELSINKI HARMAJA, FI","FM-12","99999","V020","240,1,N,0060,1","22000,1,9,N","040000,1,N,1","+0000,1","-0035,1","09966,1","00,1","8,1,03,1","00,1,+99999,9,99,9","00,99,1,00,1,00,1,99999,9,00,1,00,1","99999,9,09958,1","7,1,009,1,+999,9","+001,9","SYN100AAXX  13151 02795 47982 02406 10000 21035 39958 49966 57009 70084 91439 222// 00001 555 777// 0/508;",
"02795099999","2010-03-13T21:00:00","4","60.1","24.9833333","6.4","HELSINKI HARMAJA, FI","FM-12","99999","V020","300,1,N,0060,1","22000,1,9,N","050000,1,N,1","-0034,1","-0060,1","09963,1","00,1","0,1,03,1","00,1,+99999,9,99,9","00,99,1,00,1,00,1,99999,9,00,1,00,1","99999,9,09955,1","7,1,005,1,+999,9","+001,9","SYN100AAXX  13211 02795 47999 03006 11034 21060 39955 49963 57005 70000 92039 222// 00001 555 782// 0/608;",
"02795099999","2010-03-14T00:00:00","4","60.1","24.9833333","6.4","HELSINKI HARMAJA, FI","FM-12","99999","V020","280,1,N,0070,1","22000,1,9,N","050000,1,N,1","-0048,1","-0067,1","09957,1","00,1","0,1,06,1","00,1,+99999,9,99,9","00,99,1,00,1,00,1,99999,9,00,1,00,1","99999,9,09949,1","7,1,006,1,+999,9","+000,9","SYN100AAXX  14001 02795 47999 02807 11048 21067 39949 49957 57006 70000 92339 222// 00000 555 786// 0/007;",
"02795099999","2010-03-14T03:00:00","4","60.1","24.9833333","6.4","HELSINKI HARMAJA, FI","FM-12","99999","V020","240,1,N,0030,1","22000,1,9,N","050000,1,N,1","-0043,1","-0053,1","09938,1","00,1","0,1,03,1",,"03,99,1,03,1,99,9,00800,1,99,9,99,9","99999,9,09930,1","7,1,019,1,+999,9","-001,9","SYN106AAXX  14031 02795 47599 32403 11043 21053 39930 49938 57019 70000 83/// 90239 222// 01001 555 792// 0/607;",
"02795099999","2010-03-14T09:00:00","4","60.1","24.9833333","6.4","HELSINKI HARMAJA, FI","FM-12","99999","V020","320,1,N,0070,1","99999,9,9,N","030000,1,N,1","-0055,1","-0078,1","09928,1","00,1","8,1,03,1",,"07,99,1,07,1,99,9,00450,1,99,9,99,9","99999,9,09920,1","2,1,003,1,+999,9","-001,9","SYN106AAXX  14091 02795 47480 73207 11055 21078 39920 49928 52003 70087 87/// 90839 222// 01001 555 784// 0/208;",
"02795099999","2010-03-14T12:00:00","4","60.1","24.9833333","6.4","HELSINKI HARMAJA, FI","FM-12","99999","V020","320,1,N,0060,1","22000,1,9,N","030000,1,N,1","-0044,1","-0086,1","09936,1","85,1","8,1,06,1",,"01,99,1,01,1,99,9,00800,1,99,9,99,9","99999,9,09928,1","2,1,009,1,+999,9","-001,9","SYN106AAXX  14121 02795 47580 13206 11044 21086 39928 49936 52009 78587 81/// 91139 222// 01001 555 773// 0/607;",
"02795099999","2010-03-14T15:00:00","4","60.1","24.9833333","6.4","HELSINKI HARMAJA, FI","FM-12","99999","V020","350,1,N,0070,1","99999,9,9,N","005000,1,N,1","-0033,1","-0055,1","09947,1","71,1","8,1,03,1",,"05,99,1,05,1,99,9,00150,1,99,9,99,9","99999,9,09938,1","2,1,010,1,+999,9","-001,9","SYN106AAXX  14151 02795 47250 53507 11033 21055 39938 49947 52010 77187 85/// 91439 222// 01001 555 784// 0/007;",
"02795099999","2010-03-14T21:00:00","4","60.1","24.9833333","6.4","HELSINKI HARMAJA, FI","FM-12","99999","V020","340,1,N,0050,1","22000,1,9,N","050000,1,N,1","-0049,1","-0097,1","09972,1","00,1","0,1,03,1","00,1,+99999,9,99,9","00,99,1,00,1,00,1,99999,9,00,1,00,1","99999,9,09964,1","2,1,009,1,+999,9","-001,9","SYN100AAXX  14211 02795 47999 03405 11049 21097 39964 49972 52009 70000 92039 222// 01001 555 769// 0/407;",
"02795099999","2010-03-15T00:00:00","4","60.1","24.9833333","6.4","HELSINKI HARMAJA, FI","FM-12","99999","V020","310,1,N,0060,1","22000,1,9,N","004800,1,N,1","-0066,1","-0097,1","09977,1","71,1","7,1,06,1",,"03,99,1,03,1,99,9,00450,1,99,9,99,9","99999,9,09969,1","2,1,005,1,+999,9","-002,9","SYN106AAXX  15001 02795 47448 33106 11066 21097 39969 49977 52005 77170 83/// 92339 222// 01002 555 778// 0/006;",
"02795099999","2010-03-15T03:00:00","4","60.1","24.9833333","6.4","HELSINKI HARMAJA, FI","FM-12","99999","V020","330,1,N,0060,1","22000,1,9,N","050000,1,N,1","-0075,1","-0100,1","09988,1","00,1","7,1,03,1","00,1,+99999,9,99,9","00,99,1,00,1,00,1,99999,9,00,1,00,1","99999,9,09979,1","2,1,010,1,+999,9","-002,9","SYN100AAXX  15031 02795 47999 03306 11075 21100 39979 49988 52010 70072 90239 222// 01002 555 782// 0/207;",
"02795099999","2010-03-15T09:00:00","4","60.1","24.9833333","6.4","HELSINKI HARMAJA, FI","FM-12","99999","V020","350,1,N,0030,1","22000,1,9,N","035000,1,N,1","-0074,1","-0107,1","10012,1","00,1","0,1,03,1","00,1,+99999,9,99,9","00,99,1,00,1,00,1,99999,9,00,1,00,1","99999,9,10003,1","2,1,011,1,+999,9","-002,9","SYN100AAXX  15091 02795 47981 03503 11074 21107 30003 40012 52011 70000 90839 222// 01002 555 777// 0/605;",
"02795099999","2010-03-15T12:00:00","4","60.1","24.9833333","6.4","HELSINKI HARMAJA, FI","FM-12","99999","V020","320,1,N,0040,1","22000,1,9,N","040000,1,N,1","-0045,1","-0099,1","10026,1","00,1","0,1,06,1","00,1,+99999,9,99,9","00,99,1,00,1,00,1,99999,9,00,1,00,1","99999,9,10018,1","2,1,014,1,+999,9","-001,9","SYN100AAXX  15121 02795 47982 03204 11045 21099 30018 40026 52014 70000 91139 222// 01001 555 766// 0/004;",
"02795099999","2010-03-15T15:00:00","4","60.1","24.9833333","6.4","HELSINKI HARMAJA, FI","FM-12","99999","V020","310,1,N,0050,1","22000,1,9,N","045000,1,N,1","-0035,1","-0117,1","10032,1","00,1","0,1,03,1","00,1,+99999,9,99,9","00,99,1,00,1,00,1,99999,9,00,1,00,1","99999,9,10023,1","2,1,006,1,+999,9","-002,9","SYN100AAXX  15151 02795 47983 03105 11035 21117 30023 40032 52006 70000 91439 222// 01002 555 753// 0/406;",
"02795099999","2010-03-15T21:00:00","4","60.1","24.9833333","6.4","HELSINKI HARMAJA, FI","FM-12","99999","V020","300,1,N,0040,1","22000,1,9,N","050000,1,N,1","-0053,1","-0106,1","10043,1","00,1","0,1,03,1","00,1,+99999,9,99,9","00,99,1,00,1,00,1,99999,9,00,1,00,1","99999,9,10035,1","2,1,004,1,+999,9","-001,9","SYN100AAXX  15211 02795 47999 03004 11053 21106 30035 40043 52004 70000 92039 222// 01001 555 766// 0/606;",
"02795099999","2010-03-16T00:00:00","4","60.1","24.9833333","6.4","HELSINKI HARMAJA, FI","FM-12","99999","V020","310,1,N,0030,1","22000,1,9,N","050000,1,N,1","-0058,1","-0097,1","10044,1","00,1","0,1,06,1","00,1,+99999,9,99,9","00,99,1,00,1,00,1,99999,9,00,1,00,1","99999,9,10035,1","4,1,000,1,+999,9","-001,9","SYN100AAXX  16001 02795 47999 03103 11058 21097 30035 40044 54000 70000 92339 222// 01001 555 774// 0/604;",
"02795099999","2010-03-16T03:00:00","4","60.1","24.9833333","6.4","HELSINKI HARMAJA, FI","FM-12","99999","V020","010,1,N,0020,1","22000,1,9,N","050000,1,N,1","-0068,1","-0097,1","10050,1","00,1","0,1,03,1","00,1,+99999,9,99,9","00,99,1,00,1,00,1,99999,9,00,1,00,1","99999,9,10042,1","2,1,007,1,+999,9","-002,9","SYN100AAXX  16031 02795 47999 00102 11068 21097 30042 40050 52007 70000 90239 222// 01002 555 779// 0/304;",
"02795099999","2010-03-16T09:00:00","4","60.1","24.9833333","6.4","HELSINKI HARMAJA, FI","FM-12","99999","V020","070,1,N,0030,1","22000,1,9,N","035000,1,N,1","-0067,1","-0088,1","10076,1","00,1","0,1,03,1","00,1,+99999,9,99,9","00,99,1,00,1,00,1,99999,9,00,1,00,1","99999,9,10067,1","2,1,016,1,+999,9","-002,9","SYN100AAXX  16091 02795 47981 00703 11067 21088 30067 40076 52016 70000 90839 222// 01002 555 785// 0/104;",
"02795099999","2010-03-16T12:00:00","4","60.1","24.9833333","6.4","HELSINKI HARMAJA, FI","FM-12","99999","V020","100,1,N,0040,1","22000,1,9,N","045000,1,N,1","-0054,1","-0086,1","10085,1","00,1","0,1,06,1",,"01,99,1,01,1,99,9,00450,1,99,9,99,9","99999,9,10076,1","2,1,009,1,+999,9","-002,9","SYN106AAXX  16121 02795 47483 11004 11054 21086 30076 40085 52009 70000 81/// 91139 222// 01002 555 778// 0/304;",
"02795099999","2010-03-16T15:00:00","4","60.1","24.9833333","6.4","HELSINKI HARMAJA, FI","FM-12","99999","V020","110,1,N,0040,1","22000,1,9,N","045000,1,N,1","-0050,1","-0088,1","10094,1","00,1","0,1,03,1","00,1,+99999,9,99,9","00,99,1,00,1,00,1,99999,9,00,1,00,1","99999,9,10086,1","2,1,010,1,+999,9","-001,9","SYN100AAXX  16151 02795 47983 01104 11050 21088 30086 40094 52010 70000 91439 222// 01001 555 775// 0/305;",
"02795099999","2010-03-16T21:00:00","4","60.1","24.9833333","6.4","HELSINKI HARMAJA, FI","FM-12","99999","V020","060,1,N,0030,1","22000,1,9,N","030000,1,N,1","-0054,1","-0088,1","10119,1","54,1","8,1,03,1",,"01,99,1,01,1,99,9,00450,1,99,9,99,9","99999,9,10111,1","2,1,011,1,+999,9","-002,9","SYN106AAXX  16211 02795 47480 10603 11054 21088 30111 40119 52011 75486 81/// 92039 222// 01002 555 777// 0/605;",
"02795099999","2010-03-17T00:00:00","4","60.1","24.9833333","6.4","HELSINKI HARMAJA, FI","FM-12","99999","V020","030,1,N,0030,1","22000,1,9,N","050000,1,N,1","-0064,1","-0103,1","10129,1","00,1","8,1,06,1","00,1,+99999,9,99,9","00,99,1,00,1,00,1,99999,9,00,1,00,1","99999,9,10121,1","2,1,010,1,+999,9","-002,9","SYN100AAXX  17001 02795 47999 00303 11064 21103 30121 40129 52010 70086 92339 222// 01002 555 774// 0/003;",
"02795099999","2010-03-17T03:00:00","4","60.1","24.9833333","6.4","HELSINKI HARMAJA, FI","FM-12","99999","V020","060,1,N,0010,1","22000,1,9,N","035000,1,N,1","-0072,1","-0092,1","10131,1","00,1","0,1,03,1","00,1,+99999,9,99,9","00,99,1,00,1,00,1,99999,9,00,1,00,1","99999,9,10123,1","4,1,000,1,+999,9","-002,9","SYN100AAXX  17031 02795 47981 00601 11072 21092 30123 40131 54002 70000 90239 222// 01002 555 785// 0/503;",
"02795099999","2010-03-17T09:00:00","4","60.1","24.9833333","6.4","HELSINKI HARMAJA, FI","FM-12","99999","V020","270,1,N,0030,1","99999,9,9,N","040000,1,N,1","-0060,1","-0090,1","10132,1","00,1","0,1,03,1",,"07,99,1,07,1,99,9,00450,1,99,9,99,9","99999,9,10124,1","2,1,005,1,+999,9","-002,9","SYN106AAXX  17091 02795 47482 72703 11060 21090 30124 40132 52005 70000 87/// 90839 222// 01002 555 779// 0/203;",
"02795099999","2010-03-17T12:00:00","4","60.1","24.9833333","6.4","HELSINKI HARMAJA, FI","FM-12","99999","V020","240,1,N,0040,1","22000,1,9,N","045000,1,N,1","-0043,1","-0081,1","10125,1","00,1","0,1,06,1",,"01,99,1,01,1,99,9,00450,1,99,9,99,9","99999,9,10117,1","7,1,006,1,+999,9","+000,9","SYN106AAXX  17121 02795 47483 12404 11043 21081 30117 40125 57006 70000 81/// 91139 222// 00000 555 775// 0/004;",
"02795099999","2010-03-17T15:00:00","4","60.1","24.9833333","6.4","HELSINKI HARMAJA, FI","FM-12","99999","V020","230,1,N,0050,1","22000,1,9,N","009000,1,N,1","-0040,1","-0060,1","10122,1","54,1","6,1,03,1",,"03,99,1,03,1,99,9,00250,1,99,9,99,9","99999,9,10114,1","7,1,003,1,+999,9","+001,9","SYN106AAXX  17151 02795 47359 32305 11040 21060 30114 40122 57003 75465 83/// 91439 222// 00001 555 786// 0/506;",
"02795099999","2010-03-17T21:00:00","4","60.1","24.9833333","6.4","HELSINKI HARMAJA, FI","FM-12","99999","V020","270,1,N,0040,1","99999,9,9,N","050000,1,N,1","-0030,1","-0043,1","10128,1","25,1","8,1,03,1",,"07,99,1,07,1,99,9,00250,1,99,9,99,9","99999,9,10120,1","2,1,003,1,+999,9","-001,9","SYN106AAXX  17211 02795 47399 72704 11030 21043 30120 40128 52003 72586 87/// 92039 222// 01001 555 791// 0/407;",
"02795099999","2010-03-18T00:00:00","4","60.1","24.9833333","6.4","HELSINKI HARMAJA, FI","FM-12","99999","V020","210,1,N,0030,1","22000,1,9,N","050000,1,N,1","-0025,1","-0049,1","10129,1","00,1","8,1,06,1",,"01,99,1,01,1,99,9,01250,1,99,9,99,9","99999,9,10120,1","4,1,000,1,+999,9","-001,9","SYN106AAXX  18001 02795 47699 12103 11025 21049 30120 40129 54001 70086 81/// 92339 222// 01001 555 784// 0/604;",
"02795099999","2010-03-18T03:00:00","4","60.1","24.9833333","6.4","HELSINKI HARMAJA, FI","FM-12","99999","V020","330,1,N,0050,1","99999,9,9,N","050000,1,N,1","-0039,1","-0052,1","10141,1","00,1","0,1,03,1",,"08,99,1,08,1,99,9,00250,1,99,9,99,9","99999,9,10133,1","2,1,012,1,+999,9","-002,9","SYN106AAXX  18031 02795 47399 83305 11039 21052 30133 40141 52012 70000 88/// 90239 222// 01002 555 791// 0/406;",
"02795099999","2010-03-18T09:00:00","4","60.1","24.9833333","6.4","HELSINKI HARMAJA, FI","FM-12","99999","V020","160,1,N,0020,1","22000,1,9,N","035000,1,N,1","-0035,1","-0060,1","10163,1","00,1","0,1,03,1","00,1,+99999,9,99,9","00,99,1,00,1,00,1,99999,9,00,1,00,1","99999,9,10155,1","2,1,009,1,+999,9","-001,9","SYN100AAXX  18091 02795 47981 01602 11035 21060 30155 40163 52009 70000 90839 222// 01001 555 783// 0/603;",
"02795099999","2010-03-18T12:00:00","4","60.1","24.9833333","6.4","HELSINKI HARMAJA, FI","FM-12","99999","V020","200,1,N,0040,1","99999,9,9,N","027000,1,N,1","-0042,1","-0052,1","10161,1","00,1","0,1,06,1",,"07,99,1,07,1,99,9,00075,1,99,9,99,9","99999,9,10153,1","7,1,002,1,+999,9","+000,9","SYN106AAXX  18121 02795 47177 72004 11042 21052 30153 40161 57002 70000 87/// 91139 222// 00000 555 793// 0/104;",
"02795099999","2010-03-18T15:00:00","4","60.1","24.9833333","6.4","HELSINKI HARMAJA, FI","FM-12","99999","V020","150,1,N,0070,1","22000,1,9,N","018000,1,N,1","-0014,1","-0022,1","10129,1","54,1","7,1,03,1","00,1,+99999,9,99,9","00,99,1,00,1,00,1,99999,9,00,1,00,1","99999,9,10121,1","7,1,032,1,+999,9","+001,9","SYN100AAXX  18151 02795 47968 01507 11014 21022 30121 40129 57032 75476 91439 222// 00001 555 794// 0/007;",
"02795099999","2010-03-18T21:00:00","4","60.1","24.9833333","6.4","HELSINKI HARMAJA, FI","FM-12","99999","V020","190,1,N,0110,1","99999,9,9,N","001800,1,N,1","-0005,1","-0008,1","10033,1","74,1",,,"08,99,1,08,1,99,9,00075,1,99,9,99,9","99999,9,10025,1","7,1,054,2,+999,9","+000,9","SYN106AAXX  18211 02795 47118 81911 11005 21008 30025 40033 57054 774// 88/// 92039 222// 00000 555 797// 0/212;","Q01+000542APC3  "
"02795099999","2010-03-19T00:00:00","4","60.1","24.9833333","6.4","HELSINKI HARMAJA, FI","FM-12","99999","V020","240,1,N,0070,1","99999,9,9,N","001500,1,N,1","+0002,1","-0001,1","10005,1","71,1",,,"08,99,1,08,1,99,9,00025,1,99,9,99,9","99999,9,09997,1","7,1,028,1,+999,9","-001,9","SYN106AAXX  19001 02795 47015 82407 10002 21001 39997 40005 57028 771// 88/// 92339 222// 01001 555 798// 0/611;",
"02795099999","2010-03-19T03:00:00","4","60.1","24.9833333","6.4","HELSINKI HARMAJA, FI","FM-12","99999","V020","270,1,N,0040,1","99999,9,9,N","006000,1,N,1","+0004,1","+0001,1","10011,1","51,1","7,1,03,1",,"08,99,1,08,1,99,9,00075,1,99,9,99,9","99999,9,10003,1","2,1,006,1,+999,9","+000,9","SYN106AAXX  19031 02795 47156 82704 10004 20001 30003 40011 52006 75176 88/// 90239 222// 00000 555 798// 0/607;",
"02795099999","2010-03-19T09:00:00","4","60.1","24.9833333","6.4","HELSINKI HARMAJA, FI","FM-12","99999","V020","220,1,N,0020,1","99999,9,9,N","004000,1,N,1","+0005,1","+0002,1","10043,1","10,1","3,1,03,1",,"05,99,1,05,1,99,9,00800,1,99,9,99,9","99999,9,10035,1","2,1,018,1,+999,9","-001,9","SYN106AAXX  19091 02795 47540 52202 10005 20002 30035 40043 52018 71021 85/// 90839 222// 01001 555 798// 0/604;",
"02795099999","2010-03-19T12:00:00","4","60.1","24.9833333","6.4","HELSINKI HARMAJA, FI","FM-12","99999","V020","220,1,N,0050,1","99999,9,9,N","006000,1,N,1","+0008,1","+0005,1","10048,1","10,1","3,1,06,1",,"05,99,1,05,1,99,9,00800,1,99,9,99,9","99999,9,10040,1","2,1,005,1,+999,9","+001,9","SYN106AAXX  19121 02795 47556 52205 10008 20005 30040 40048 52005 71021 85/// 91139 222// 00001 555 798// 0/005;",
"02795099999","2010-03-19T15:00:00","4","60.1","24.9833333","6.4","HELSINKI HARMAJA, FI","FM-12","99999","V020","260,1,N,0030,1","99999,9,9,N","026000,1,N,1","+0005,1","+0000,1","10048,1","00,1","2,1,03,1",,"07,99,1,07,1,99,9,00450,1,99,9,99,9","99999,9,10040,1","4,1,000,1,+999,9","+001,9","SYN106AAXX  19151 02795 47476 72603 10005 20000 30040 40048 54000 70010 87/// 91439 222// 00001 555 797// 0/407;",
"02795099999","2010-03-19T21:00:00","4","60.1","24.9833333","6.4","HELSINKI HARMAJA, FI","FM-12","99999","V020","150,1,N,0050,1","99999,9,9,N","000700,1,N,1","+0006,1","+0003,1","10005,1","61,1","6,1,03,1",,"07,99,1,07,1,99,9,00075,1,99,9,99,9","99999,9,09997,1","7,1,030,1,+999,9","+000,9","SYN106AAXX  19211 02795 47107 71505 10006 20003 39997 40005 57030 76165 87/// 92039 222// 00000 555 798// 0/305;",
"02795099999","2010-03-20T00:00:00","4","60.1","24.9833333","6.4","HELSINKI HARMAJA, FI","FM-12","99999","V020","200,1,N,0070,1","99999,9,9,N","000700,1,N,1","+0010,1","+0007,1","09969,1","71,1","7,1,06,1",,"07,99,1,07,1,99,9,00075,1,99,9,99,9","99999,9,09961,1","7,1,036,1,+999,9","-001,9","SYN106AAXX  20001 02795 47107 72007 10010 20007 39961 49969 57036 77176 87/// 92339 222// 01001 555 798// 0/007;",
"02795099999","2010-03-20T03:00:00","4","60.1","24.9833333","6.4","HELSINKI HARMAJA, FI","FM-12","99999","V020","220,1,N,0080,1","99999,9,9,N","002900,1,N,1","+0008,1","+0005,1","09950,1","22,1","8,1,03,1",,"07,99,1,07,1,99,9,00075,1,99,9,99,9","99999,9,09942,1","7,1,019,1,+999,9","-001,9","SYN106AAXX  20031 02795 47129 72208 10008 20005 39942 49950 57019 72287 87/// 90239 222// 01001 555 798// 0/510;",
"02795099999","2010-03-20T09:00:00","4","60.1","24.9833333","6.4","HELSINKI HARMAJA, FI","FM-12","99999","V020","220,1,N,0090,1","99999,9,9,N","003100,1,N,1","+0007,1","+0002,1","09935,1","22,1","8,1,03,1",,"07,99,1,07,1,99,9,00150,1,99,9,99,9","99999,9,09927,1","7,1,005,1,+999,9","-001,9","SYN106AAXX  20091 02795 47231 72209 10007 20002 39927 49935 57005 72285 87/// 90839 222// 01001 555 797// 0/610;",
"02795099999","2010-03-20T12:00:00","4","60.1","24.9833333","6.4","HELSINKI HARMAJA, FI","FM-12","99999","V020","230,1,N,0090,1","99999,9,9,N","009000,1,N,1","+0008,1","+0002,1","09931,1","10,1","8,1,06,1",,"07,99,1,07,1,99,9,00150,1,99,9,99,9","99999,9,09923,1","7,1,004,1,+999,9","+000,9","SYN106AAXX  20121 02795 47259 72309 10008 20002 39923 49931 57004 71085 87/// 91139 222// 00000 555 796// 0/210;",
"02795099999","2010-03-20T15:00:00","4","60.1","24.9833333","6.4","HELSINKI HARMAJA, FI","FM-12","99999","V020","230,1,N,0090,1","99999,9,9,N","010000,1,N,1","+0008,1","+0002,1","09933,1","10,1","2,1,03,1",,"07,99,1,07,1,99,9,00150,1,99,9,99,9","99999,9,09925,1","4,1,000,1,+999,9","+000,9","SYN106AAXX  20151 02795 47260 72309 10008 20002 39925 49933 54002 71010 87/// 91439 222// 00000 555 796// 0/510;",
"02795099999","2010-03-20T21:00:00","4","60.1","24.9833333","6.4","HELSINKI HARMAJA, FI","FM-12","99999","V020","240,1,N,0040,1","22000,1,9,N","008000,1,N,1","+0000,1","-0005,1","09948,1","10,1","2,1,03,1","00,1,+99999,9,99,9","00,99,1,00,1,00,1,99999,9,00,1,00,1","99999,9,09940,1","2,1,006,1,+999,9","+000,9","SYN100AAXX  20211 02795 47958 02404 10000 21005 39940 49948 52006 71010 92039 222// 00000 555 797// 0/606;",
"02795099999","2010-03-21T00:00:00","4","60.1","24.9833333","6.4","HELSINKI HARMAJA, FI","FM-12","99999","V020","260,1,N,0030,1","99999,9,9,N","009000,1,N,1","-0002,1","-0006,1","09962,1","10,1","2,1,06,1",,"05,99,1,05,1,99,9,00150,1,99,9,99,9","99999,9,09954,1","2,1,014,1,+999,9","-002,9","SYN106AAXX  21001 02795 47259 52603 11002 21006 39954 49962 52014 71010 85/// 92339 222// 01002 555 797// 0/505;",
"02795099999","2010-03-21T03:00:00","4","60.1","24.9833333","6.4","HELSINKI HARMAJA, FI","FM-12","99999","V020","280,1,N,0010,1","99999,9,9,N","002700,1,N,1","+0000,1","-0003,1","09970,1","20,1","4,1,03,1",,"08,99,1,08,1,99,9,00075,1,99,9,99,9","99999,9,09962,1","2,1,008,1,+999,9","-002,9","SYN106AAXX  21031 02795 47127 82801 10000 21003 39962 49970 52008 72032 88/// 90239 222// 01002 555 797// 0/603;",
"02795099999","2010-03-21T09:00:00","4","60.1","24.9833333","6.4","HELSINKI HARMAJA, FI","FM-12","99999","V020","060,1,N,0020,1","99999,9,9,N","010000,1,N,1","-0001,1","-0006,1","10000,1","00,1","2,1,03,1",,"08,99,1,08,1,99,9,00075,1,99,9,99,9","99999,9,09992,1","2,1,014,1,+999,9","-002,9","SYN106AAXX  21091 02795 47160 80602 11001 21006 39992 40000 52014 70010 88/// 90839 222// 01002 555 797// 0/303;",
"02795099999","2010-03-21T12:00:00","4","60.1","24.9833333","6.4","HELSINKI HARMAJA, FI","FM-12","99999","V020","100,1,N,0040,1","99999,9,9,N","022000,1,N,1","+0003,1","-0004,1","10004,1","00,1","2,1,06,1",,"08,99,1,08,1,99,9,00075,1,99,9,99,9","99999,9,09996,1","2,1,005,1,+999,9","+000,9","SYN106AAXX  21121 02795 47172 81004 10003 21004 39996 40004 52005 70010 88/// 91139 222// 00000 555 796// 0/204;",
"02795099999","2010-03-21T15:00:00","4","60.1","24.9833333","6.4","HELSINKI HARMAJA, FI","FM-12","99999","V020","090,1,N,0060,1","99999,9,9,N","040000,1,N,1","+0002,1","-0007,1","09996,1","00,1","0,1,03,1",,"07,99,1,07,1,99,9,00450,1,99,9,99,9","99999,9,09988,1","7,1,008,1,+999,9","+000,9","SYN106AAXX  21151 02795 47482 70906 10002 21007 39988 49996 57008 70000 87/// 91439 222// 00000 555 793// 0/108;",
"02795099999","2010-03-21T21:00:00","4","60.1","24.9833333","6.4","HELSINKI HARMAJA, FI","FM-12","99999","V020","030,1,N,0060,1","99999,9,9,N","001200,1,N,1","-0008,1","-0011,1","09988,1","71,1","7,1,03,1",,"08,99,1,08,1,99,9,00075,1,99,9,99,9","99999,9,09980,1","4,1,000,1,+999,9","-001,9","SYN106AAXX  21211 02795 47112 80306 11008 21011 39980 49988 54001 77170 88/// 92039 222// 01001 555 797// 0/609;",
"02795099999","2010-03-22T00:00:00","4","60.1","24.9833333","6.4","HELSINKI HARMAJA, FI","FM-12","99999","V020","010,1,N,0090,1","99999,9,9,N","002500,1,N,1","-0015,1","-0020,1","10005,1","71,1","7,1,06,1",,"07,99,1,07,1,99,9,00250,1,99,9,99,9","99999,9,09997,1","2,1,017,1,+999,9","-002,9","SYN106AAXX  22001 02795 47325 70109 11015 21020 39997 40005 52017 77176 87/// 92339 222// 01002 555 796// 0/009;",
"02795099999","2010-03-22T03:00:00","4","60.1","24.9833333","6.4","HELSINKI HARMAJA, FI","FM-12","99999","V020","330,1,N,0070,1","22000,1,9,N","050000,1,N,1","-0022,1","-0037,1","10042,1","00,1","7,1,03,1","00,1,+99999,9,99,9","00,99,1,00,1,00,1,99999,9,00,1,00,1","99999,9,10033,1","2,1,036,1,+999,9","-002,9","SYN100AAXX  22031 02795 47999 03307 11022 21037 30033 40042 52036 70076 90239 222// 01002 555 789// 0/410;",
"02795099999","2010-03-22T09:00:00","4","60.1","24.9833333","6.4","HELSINKI HARMAJA, FI","FM-12","99999","V020","290,1,N,0060,1","22000,1,9,N","035000,1,N,1","-0019,1","-0060,1","10098,1","00,1","0,1,03,1","00,1,+99999,9,99,9","00,99,1,00,1,00,1,99999,9,00,1,00,1","99999,9,10090,1","2,1,022,1,+999,9","-002,9","SYN100AAXX  22091 02795 47981 02906 11019 21060 30090 40098 52022 70000 90839 222// 01002 555 773// 0/507;",
"02795099999","2010-03-22T12:00:00","4","60.1","24.9833333","6.4","HELSINKI HARMAJA, FI","FM-12","99999","V020","280,1,N,0080,1","22000,1,9,N","040000,1,N,1","+0002,1","-0040,1","10115,1","00,1","0,1,06,1","00,1,+99999,9,99,9","00,99,1,00,1,00,1,99999,9,00,1,00,1","99999,9,10107,1","2,1,017,1,+999,9","-001,9","SYN100AAXX  22121 02795 47982 02808 10002 21040 30107 40115 52017 70000 91139 222// 01001 555 773// 0/108;",
"02795099999","2010-03-22T15:00:00","4","60.1","24.9833333","6.4","HELSINKI HARMAJA, FI","FM-12","99999","V020","270,1,N,0070,1","22000,1,9,N","040000,1,N,1","+0007,1","-0029,1","10121,1","00,1","0,1,03,1","00,1,+99999,9,99,9","00,99,1,00,1,00,1,99999,9,00,1,00,1","99999,9,10113,1","2,1,006,1,+999,9","+000,9","SYN100AAXX  22151 02795 47982 02707 10007 21029 30113 40121 52006 70000 91439 222// 00000 555 776// 0/309;",
"02795099999","2010-03-22T21:00:00","4","60.1","24.9833333","6.4","HELSINKI HARMAJA, FI","FM-12","99999","V020","260,1,N,0080,1","22000,1,9,N","050000,1,N,1","-0025,1","-0047,1","10139,1","00,1","0,1,03,1","00,1,+99999,9,99,9","00,99,1,00,1,00,1,99999,9,00,1,00,1","99999,9,10131,1","2,1,007,1,+999,9","-002,9","SYN100AAXX  22211 02795 47999 02608 11025 21047 30131 40139 52007 70000 92039 222// 01002 555 785// 0/008;",
"02795099999","2010-03-23T00:00:00","4","60.1","24.9833333","6.4","HELSINKI HARMAJA, FI","FM-12","99999","V020","270,1,N,0080,1","22000,1,9,N","050000,1,N,1","-0029,1","-0054,1","10136,1","00,1","0,1,06,1","00,1,+99999,9,99,9","00,99,1,00,1,00,1,99999,9,00,1,00,1","99999,9,10128,1","7,1,003,1,+999,9","-002,9","SYN100AAXX  23001 02795 47999 02708 11029 21054 30128 40136 57003 70000 92339 222// 01002 555 783// 0/509;",
"02795099999","2010-03-23T03:00:00","4","60.1","24.9833333","6.4","HELSINKI HARMAJA, FI","FM-12","99999","V020","280,1,N,0060,1","22000,1,9,N","050000,1,N,1","-0036,1","-0050,1","10132,1","00,1","0,1,03,1","00,1,+99999,9,99,9","00,99,1,00,1,00,1,99999,9,00,1,00,1","99999,9,10124,1","7,1,004,1,+999,9","-003,9","SYN100AAXX  23031 02795 47999 02806 11036 21050 30124 40132 57004 70000 90239 222// 01003 555 790// 0/508;",
"02795099999","2010-03-23T09:00:00","4","60.1","24.9833333","6.4","HELSINKI HARMAJA, FI","FM-12","99999","V020","240,1,N,0040,1","22000,1,9,N","035000,1,N,1","-0007,1","-0022,1","10129,1","00,1","0,1,03,1","00,1,+99999,9,99,9","00,99,1,00,1,00,1,99999,9,00,1,00,1","99999,9,10121,1","4,1,000,1,+999,9","-003,9","SYN100AAXX  23091 02795 47981 02404 11007 21022 30121 40129 54000 70000 90839 222// 01003 555 790// 0/406;",
"02795099999","2010-03-23T12:00:00","4","60.1","24.9833333","6.4","HELSINKI HARMAJA, FI","FM-12","99999","V020","220,1,N,0060,1","99999,9,9,N","030000,1,N,1","+0003,1","-0016,1","10121,1","00,1","2,1,06,1",,"05,99,1,05,1,99,9,00150,1,99,9,99,9","99999,9,10113,1","7,1,008,1,+999,9","-001,9","SYN106AAXX  23121 02795 47280 52206 10003 21016 30113 40121 57008 70010 85/// 91139 222// 01001 555 787// 0/208;",
"02795099999","2010-03-23T15:00:00","4","60.1","24.9833333","6.4","HELSINKI HARMAJA, FI","FM-12","99999","V020","200,1,N,0020,1","22000,1,9,N","029000,1,N,1","-0001,1","-0011,1","10101,1","00,1","0,1,03,1",,"01,99,1,01,1,99,9,01750,1,99,9,99,9","99999,9,10093,1","7,1,020,1,+999,9","+000,9","SYN106AAXX  23151 02795 47779 12002 11001 21011 30093 40101 57020 70000 81/// 91439 222// 00000 555 794// 0/607;",
"02795099999","2010-03-23T21:00:00","4","60.1","24.9833333","6.4","HELSINKI HARMAJA, FI","FM-12","99999","V020","070,1,N,0040,1","99999,9,9,N","004700,1,N,1","-0002,1","-0005,1","10080,1","64,1","6,1,03,1",,"08,99,1,08,1,99,9,00075,1,99,9,99,9","99999,9,10072,1","7,1,006,1,+999,9","+000,9","SYN106AAXX  23211 02795 47147 80704 11002 21005 30072 40080 57006 76464 88/// 92039 222// 00000 555 798// 0/004;",
"02795099999","2010-03-24T00:00:00","4","60.1","24.9833333","6.4","HELSINKI HARMAJA, FI","FM-12","99999","V020","050,1,N,0040,1","99999,9,9,N","010000,1,N,1","-0007,1","-0011,1","10091,1","25,1","7,1,06,1",,"08,99,1,08,1,99,9,00075,1,99,9,99,9","99999,9,10083,1","2,1,011,1,+999,9","-001,9","SYN106AAXX  24001 02795 47160 80504 11007 21011 30083 40091 52011 72576 88/// 92339 222// 01001 555 797// 0/205;",
"02795099999","2010-03-24T03:00:00","4","60.1","24.9833333","6.4","HELSINKI HARMAJA, FI","FM-12","99999","V020","030,1,N,0030,1","22000,1,9,N","009000,1,N,1","-0026,1","-0031,1","10108,1","20,1","5,1,03,1",,"01,99,1,01,1,99,9,00075,1,99,9,99,9","99999,9,10100,1","2,1,017,1,+999,9","-002,9","SYN106AAXX  24031 02795 47159 10303 11026 21031 30100 40108 52017 72054 81/// 90239 222// 01002 555 797// 0/604;",
"02795099999","2010-03-24T09:00:00","4","60.1","24.9833333","6.4","HELSINKI HARMAJA, FI","FM-12","99999","V020","360,1,N,0030,1","22000,1,9,N","030000,1,N,1","-0012,1","-0057,1","10169,1","00,1","0,1,03,1","00,1,+99999,9,99,9","00,99,1,00,1,00,1,99999,9,00,1,00,1","99999,9,10161,1","2,1,032,1,+999,9","-002,9","SYN100AAXX  24091 02795 47980 03603 11012 21057 30161 40169 52032 70000 90839 222// 01002 555 771// 0/604;",
"02795099999","2010-03-24T12:00:00","4","60.1","24.9833333","6.4","HELSINKI HARMAJA, FI","FM-12","99999","V020","190,1,N,0030,1","22000,1,9,N","027000,1,N,1","+0004,1","-0039,1","10187,1","00,1","0,1,06,1","00,1,+99999,9,99,9","00,99,1,00,1,00,1,99999,9,00,1,00,1","99999,9,10179,1","2,1,018,1,+999,9","-002,9","SYN100AAXX  24121 02795 47977 01903 10004 21039 30179 40187 52018 70000 91139 222// 01002 555 773// 0/603;",
"02795099999","2010-03-24T15:00:00","4","60.1","24.9833333","6.4","HELSINKI HARMAJA, FI","FM-12","99999","V020","220,1,N,0040,1","22000,1,9,N","040000,1,N,1","-0001,1","-0036,1","10194,1","00,1","0,1,03,1","00,1,+99999,9,99,9","00,99,1,00,1,00,1,99999,9,00,1,00,1","99999,9,10186,1","2,1,007,1,+999,9","+001,9","SYN100AAXX  24151 02795 47982 02204 11001 21036 30186 40194 52007 70000 91439 222// 00001 555 777// 0/305;",
"02795099999","2010-03-24T21:00:00","4","60.1","24.9833333","6.4","HELSINKI HARMAJA, FI","FM-12","99999","V020","260,1,N,0040,1","22000,1,9,N","050000,1,N,1","-0011,1","-0033,1","10222,1","00,1","0,1,03,1","00,1,+99999,9,99,9","00,99,1,00,1,00,1,99999,9,00,1,00,1","99999,9,10214,1","2,1,015,1,+999,9","+000,9","SYN100AAXX  24211 02795 47999 02604 11011 21033 30214 40222 52015 70000 92039 222// 00000 555 785// 0/205;",
"02795099999","2010-03-25T00:00:00","4","60.1","24.9833333","6.4","HELSINKI HARMAJA, FI","FM-12","99999","V020","260,1,N,0020,1","22000,1,9,N","050000,1,N,1","-0012,1","-0033,1","10233,1","00,1","0,1,06,1",,"01,99,1,01,1,99,9,02250,1,99,9,99,9","99999,9,10225,1","2,1,011,1,+999,9","-001,9","SYN106AAXX  25001 02795 47899 12602 11012 21033 30225 40233 52011 70000 81/// 92339 222// 01001 555 785// 0/604;",
"02795099999","2010-03-25T03:00:00","4","60.1","24.9833333","6.4","HELSINKI HARMAJA, FI","FM-12","99999","V020","250,1,N,0030,1","22000,1,9,N","050000,1,N,1","-0007,1","-0032,1","10241,1","00,1","0,1,03,1","00,1,+99999,9,99,9","00,99,1,00,1,00,1,99999,9,00,1,00,1","99999,9,10233,1","2,1,008,1,+999,9","-001,9","SYN100AAXX  25031 02795 47999 02503 11007 21032 30233 40241 52008 70000 90239 222// 01001 555 783// 0/003;",
"02795099999","2010-03-25T09:00:00","4","60.1","24.9833333","6.4","HELSINKI HARMAJA, FI","FM-12","99999","V020","180,1,N,0030,1","99999,9,9,N","021000,1,N,1","-0007,1","-0012,1","10260,1","20,1","4,1,03,1",,"07,99,1,07,1,99,9,00075,1,99,9,99,9","99999,9,10252,1","2,1,010,1,+999,9","+000,9","SYN106AAXX  25091 02795 47171 71803 11007 21012 30252 40260 52010 72032 87/// 90839 222// 00000 555 796// 0/103;",
"02795099999","2010-03-25T12:00:00","4","60.1","24.9833333","6.4","HELSINKI HARMAJA, FI","FM-12","99999","V020","210,1,N,0020,1","22000,1,9,N","040000,1,N,1","+0001,1","-0021,1","10261,1","00,1","4,1,06,1","00,1,+99999,9,99,9","00,99,1,00,1,00,1,99999,9,00,1,00,1","99999,9,10252,1","4,1,000,1,+999,9","+001,9","SYN100AAXX  25121 02795 47982 02102 10001 21021 30252 40261 54001 70032 91139 222// 00001 555 785// 0/503;",
"02795099999","2010-03-25T15:00:00","4","60.1","24.9833333","6.4","HELSINKI HARMAJA, FI","FM-12","99999","V020","080,1,N,0030,1","22000,1,9,N","024000,1,N,1","-0001,1","-0016,1","10244,1","00,1","0,1,03,1","00,1,+99999,9,99,9","00,99,1,00,1,00,1,99999,9,00,1,00,1","99999,9,10236,1","7,1,016,1,+999,9","+002,9","SYN100AAXX  25151 02795 47974 00803 11001 21016 30236 40244 57016 70000 91439 222// 00002 555 789// 0/003;",
"02795099999","2010-03-25T21:00:00","4","60.1","24.9833333","6.4","HELSINKI HARMAJA, FI","FM-12","99999","V020","160,1,N,0050,1","22000,1,9,N","045000,1,N,1","+0009,1","-0009,1","10229,1","00,1","0,1,03,1","00,1,+99999,9,99,9","00,99,1,00,1,00,1,99999,9,00,1,00,1","99999,9,10221,1","7,1,005,1,+999,9","+002,9","SYN100AAXX  25211 02795 47983 01605 10009 21009 30221 40229 57005 70000 92039 222// 00002 555 788// 0/406;",
"02795099999","2010-03-26T00:00:00","4","60.1","24.9833333","6.4","HELSINKI HARMAJA, FI","FM-12","99999","V020","150,1,N,0050,1","22000,1,9,N","050000,1,N,1","+0003,1","-0011,1","10211,1","00,1","0,1,06,1","00,1,+99999,9,99,9","00,99,1,00,1,00,1,99999,9,00,1,00,1","99999,9,10203,1","7,1,018,1,+999,9","+002,9","SYN100AAXX  26001 02795 47999 01505 10003 21011 30203 40211 57018 70000 92339 222// 00002 555 790// 0/206;",
"02795099999","2010-03-26T03:00:00","4","60.1","24.9833333","6.4","HELSINKI HARMAJA, FI","FM-12","99999","V020","130,1,N,0050,1","22000,1,9,N","045000,1,N,1","-0003,1","-0014,1","10189,1","00,1","0,1,03,1","00,1,+99999,9,99,9","00,99,1,00,1,00,1,99999,9,00,1,00,1","99999,9,10181,1","7,1,023,1,+999,9","+001,9","SYN100AAXX  26031 02795 47983 01305 11003 21014 30181 40189 57023 70000 90239 222// 00001 555 792// 0/606;",
"02795099999","2010-03-26T09:00:00","4","60.1","24.9833333","6.4","HELSINKI HARMAJA, FI","FM-12","99999","V020","110,1,N,0030,1","22000,1,9,N","022000,1,N,1","+0003,1","-0010,1","10150,1","00,1","0,1,03,1","00,1,+99999,9,99,9","00,99,1,00,1,00,1,99999,9,00,1,00,1","99999,9,10142,1","7,1,019,1,+999,9","+001,9","SYN100AAXX  26091 02795 47972 01103 10003 21010 30142 40150 57019 70000 90839 222// 00001 555 791// 0/605;",
"02795099999","2010-03-26T12:00:00","4","60.1","24.9833333","6.4","HELSINKI HARMAJA, FI","FM-12","99999","V020","080,1,N,0050,1","22000,1,9,N","018000,1,N,1","+0004,1","-0005,1","10119,1","00,1","0,1,06,1","00,1,+99999,9,99,9","00,99,1,00,1,00,1,99999,9,00,1,00,1","99999,9,10111,1","7,1,031,1,+999,9","+005,9","SYN100AAXX  26121 02795 47968 00805 10004 21005 30111 40119 57031 70000 91139 222// 00005 555 794// 0/106;",
"02795099999","2010-03-26T15:00:00","4","60.1","24.9833333","6.4","HELSINKI HARMAJA, FI","FM-12","99999","V020","070,1,N,0040,1","22000,1,9,N","014000,1,N,1","+0007,1","-0001,1","10089,1","51,1","5,1,03,1","00,1,+99999,9,99,9","00,99,1,00,1,00,1,99999,9,00,1,00,1","99999,9,10081,1","7,1,030,1,+999,9","+006,9","SYN100AAXX  26151 02795 47964 00704 10007 21001 30081 40089 57030 75154 91439 222// 00006 555 794// 0/605;",
"02795099999","2010-03-26T21:00:00","4","60.1","24.9833333","6.4","HELSINKI HARMAJA, FI","FM-12","99999","V020","160,1,N,0030,1","22000,1,9,N","005000,1,N,1","+0012,1","+0007,1","10058,1","10,1","6,1,03,1",,"03,99,1,03,1,99,9,00800,1,99,9,99,9","99999,9,10050,1","7,1,014,1,+999,9","+005,9","SYN106AAXX  26211 02795 47550 31603 10012 20007 30050 40058 57014 71065 83/// 92039 222// 00005 555 797// 0/304;",
"02795099999","2010-03-27T00:00:00","4","60.1","24.9833333","6.4","HELSINKI HARMAJA, FI","FM-12","99999","V020","160,1,N,0030,1","99999,9,9,N","004300,1,N,1","+0009,1","+0004,1","10043,1","10,1","6,1,06,1",,"07,99,1,07,1,99,9,00450,1,99,9,99,9","99999,9,10035,1","7,1,015,1,+999,9","+005,9","SYN106AAXX  27001 02795 47443 71603 10009 20004 30035 40043 57015 71065 87/// 92339 222// 00005 555 797// 0/304;",
"02795099999","2010-03-27T03:00:00","4","60.1","24.9833333","6.4","HELSINKI HARMAJA, FI","FM-12","99999","V020","100,1,N,0020,1","99999,9,9,N","001200,1,N,1","+0008,1","+0005,1","10031,1","20,1","4,1,03,1",,"08,99,1,08,1,99,9,00025,1,99,9,99,9","99999,9,10023,1","7,1,012,1,+999,9","+005,9","SYN106AAXX  27031 02795 47012 81002 10008 20005 30023 40031 57012 72032 88/// 90239 222// 00005 555 797// 0/603;",
"02795099999","2010-03-27T09:00:00","4","60.1","24.9833333","6.4","HELSINKI HARMAJA, FI","FM-12","99999","V020","080,1,N,0020,1","00030,1,9,N","000200,1,N,1","+0009,1","+0006,1","10028,1","32,1","8,1,03,1","09,1,+99999,9,99,9","09,99,1,09,1,99,9,99999,9,99,9,99,9","99999,9,10020,1","7,1,005,1,+999,9","+006,9","SYN100AAXX  27091 02795 47/02 90802 10009 20006 30020 40028 57005 73285 90839 222// 00006 555 798// 0/403;",
"02795099999","2010-03-27T12:00:00","4","60.1","24.9833333","6.4","HELSINKI HARMAJA, FI","FM-12","99999","V020","070,1,N,0050,1","00030,1,9,N","000200,1,N,1","+0010,1","+0007,1","10017,1","51,1","8,1,06,1","09,1,+99999,9,99,9","09,99,1,09,1,99,9,99999,9,99,9,99,9","99999,9,10010,1","7,1,011,1,+999,9","+007,9","SYN100AAXX  27121 02795 47/02 90705 10010 20007 30010 40017 57011 75185 91139 222// 00007 555 798// 0/005;",
"02795099999","2010-03-27T15:00:00","4","60.1","24.9833333","6.4","HELSINKI HARMAJA, FI","FM-12","99999","V020","070,1,N,0080,1","00030,1,9,N","000300,1,N,1","+0014,1","+0011,1","09998,1","33,1","8,1,03,1","09,1,+99999,9,99,9","09,99,1,09,1,99,9,99999,9,99,9,99,9","99999,9,09990,1","7,1,019,1,+999,9","+008,9","SYN100AAXX  27151 02795 47/03 90708 10014 20011 39990 49998 57019 73385 91439 222// 00008 555 798// 0/208;",
"02795099999","2010-03-27T21:00:00","4","60.1","24.9833333","6.4","HELSINKI HARMAJA, FI","FM-12","99999","V020","080,1,N,0070,1","99999,9,9,N","002400,1,N,1","+0013,1","+0010,1","09968,1","61,1","8,1,03,1",,"07,99,1,07,1,99,9,00150,1,99,9,99,9","99999,9,09960,1","7,1,018,1,+999,9","+007,9","SYN106AAXX  27211 02795 47224 70807 10013 20010 39960 49968 57018 76187 87/// 92039 222// 00007 555 798// 0/609;",
"02795099999","2010-03-28T00:00:00","4","60.1","24.9833333","6.4","HELSINKI HARMAJA, FI","FM-12","99999","V020","100,1,N,0070,1","00120,1,9,N","001200,1,N,1","+0016,1","+0013,1","09942,1","67,1","8,1,06,1","09,1,+99999,9,99,9","09,99,1,09,1,99,9,99999,9,99,9,99,9","99999,9,09934,1","7,1,026,1,+999,9","+007,9","SYN100AAXX  28001 02795 47112 91007 10016 20013 39934 49942 57026 76787 92339 222// 00007 555 798// 0/408;",
"02795099999","2010-03-28T03:00:00","4","60.1","24.9833333","6.4","HELSINKI HARMAJA, FI","FM-12","99999","V020","120,1,N,0060,1","22000,1,9,N","003100,1,N,1","+0018,1","+0016,1","09922,1","10,1","6,1,03,1",,"03,99,1,03,1,99,9,00450,1,99,9,99,9","99999,9,09914,1","7,1,020,1,+999,9","+007,9","SYN106AAXX  28031 02795 47431 31206 10018 20016 39914 49922 57020 71065 83/// 90239 222// 00007 555 798// 0/607;",
"02795099999","2010-03-28T09:00:00","4","60.1","24.9833333","6.4","HELSINKI HARMAJA, FI","FM-12","99999","V020","200,1,N,0040,1","99999,9,9,N","020000,1,N,1","+0018,1","+0011,1","09903,1","51,1","8,1,03,1",,"07,99,1,07,1,99,9,00450,1,99,9,99,9","99999,9,09895,1","4,1,000,1,+999,9","+007,9","SYN106AAXX  28091 02795 47470 72004 10018 20011 39895 49903 54001 75186 87/// 90839 222// 00007 555 795// 0/506;",
"02795099999","2010-03-28T12:00:00","4","60.1","24.9833333","6.4","HELSINKI HARMAJA, FI","FM-12","99999","V020","220,1,N,0080,1","00120,1,9,N","001600,1,N,1","+0010,1","+0007,1","09927,1","61,1","8,1,06,1","09,1,+99999,9,99,9","09,99,1,09,1,99,9,99999,9,99,9,99,9","99999,9,09919,1","2,1,024,1,+999,9","+008,9","SYN100AAXX  28121 02795 47116 92208 10010 20007 39919 49927 52024 76186 91139 222// 00008 555 798// 0/208;",
"02795099999","2010-03-28T15:00:00","4","60.1","24.9833333","6.4","HELSINKI HARMAJA, FI","FM-12","99999","V020","220,1,N,0090,1","99999,9,9,N","007000,1,N,1","+0010,1","+0006,1","09946,1","52,1","6,1,03,1",,"07,99,1,07,1,99,9,00075,1,99,9,99,9","99999,9,09938,1","2,1,019,1,+999,9","+007,9","SYN106AAXX  28151 02795 47157 72209 10010 20006 39938 49946 52019 75265 87/// 91439 222// 00007 555 797// 0/209;",
"02795099999","2010-03-28T21:00:00","4","60.1","24.9833333","6.4","HELSINKI HARMAJA, FI","FM-12","99999","V020","230,1,N,0100,1","99999,9,9,N","002700,1,N,1","+0001,1","-0002,1","09978,1","71,1","8,1,03,1",,"08,99,1,08,1,99,9,00075,1,99,9,99,9","99999,9,09970,1","2,1,013,1,+999,9","+006,9","SYN106AAXX  28211 02795 47127 82310 10001 21002 39970 49978 52013 77187 88/// 92039 222// 00006 555 798// 0/211;",
"02795099999","2010-03-29T00:00:00","4","60.1","24.9833333","6.4","HELSINKI HARMAJA, FI","FM-12","99999","V020","240,1,N,0080,1","99999,9,9,N","030000,1,N,1","+0002,1","-0003,1","09994,1","00,1","8,1,06,1",,"07,99,1,07,1,99,9,00250,1,99,9,99,9","99999,9,09986,1","2,1,016,1,+999,9","+006,9","SYN106AAXX  29001 02795 47380 72408 10002 21003 39986 49994 52016 70087 87/// 92339 222// 00006 555 796// 0/610;",
"02795099999","2010-03-29T03:00:00","4","60.1","24.9833333","6.4","HELSINKI HARMAJA, FI","FM-12","99999","V020","240,1,N,0040,1","99999,9,9,N","004000,1,N,1","+0001,1","-0004,1","10004,1","85,1","8,1,03,1",,"05,99,1,05,1,99,9,00250,1,99,9,99,9","99999,9,09996,1","2,1,010,1,+999,9","+006,9","SYN106AAXX  29031 02795 47340 52404 10001 21004 39996 40004 52010 78586 85/// 90239 222// 00006 555 796// 0/408;",
"02795099999","2010-03-29T09:00:00","4","60.1","24.9833333","6.4","HELSINKI HARMAJA, FI","FM-12","99999","V020","210,1,N,0040,1","00030,1,9,N","000300,1,N,1","+0008,1","+0005,1","10023,1","51,1","8,1,03,1","09,1,+99999,9,99,9","09,99,1,09,1,99,9,99999,9,99,9,99,9","99999,9,10015,1","2,1,012,1,+999,9","+006,9","SYN100AAXX  29091 02795 47/03 92104 10008 20005 30015 40023 52012 75187 90839 222// 00006 555 798// 0/305;",
"02795099999","2010-03-29T12:00:00","4","60.1","24.9833333","6.4","HELSINKI HARMAJA, FI","FM-12","99999","V020","190,1,N,0030,1","00030,1,9,N","000300,1,N,1","+0009,1","+0006,1","10032,1","34,1","8,1,06,1","09,1,+99999,9,99,9","09,99,1,09,1,99,9,99999,9,99,9,99,9","99999,9,10024,1","2,1,009,1,+999,9","+007,9","SYN100AAXX  29121 02795 47103 91903 10009 20006 30024 40032 52009 73487 91139 222// 00007 555 798// 0/605;",
"02795099999","2010-03-29T15:00:00","4","60.1","24.9833333","6.4","HELSINKI HARMAJA, FI","FM-12","99999","V020","160,1,N,0030,1","99999,9,9,N","002600,1,N,1","+0012,1","+0009,1","10035,1","22,1","8,1,03,1",,"05,99,1,05,1,99,9,00150,1,99,9,99,9","99999,9,10027,1","2,1,004,1,+999,9","+006,9","SYN106AAXX  29151 02795 47226 51603 10012 20009 30027 40035 52004 72286 85/// 91439 222// 00006 555 798// 0/404;",
"02795099999","2010-03-29T21:00:00","4","60.1","24.9833333","6.4","HELSINKI HARMAJA, FI","FM-12","99999","V020","170,1,N,0050,1","99999,9,9,N","004400,1,N,1","+0013,1","+0008,1","10032,1","61,1","6,1,03,1",,"07,99,1,07,1,99,9,00250,1,99,9,99,9","99999,9,10024,1","7,1,005,1,+999,9","+006,9","SYN106AAXX  29211 02795 47344 71705 10013 20008 30024 40032 57005 76165 87/// 92039 222// 00006 555 797// 0/106;",
"02795099999","2010-03-30T00:00:00","4","60.1","24.9833333","6.4","HELSINKI HARMAJA, FI","FM-12","99999","V020","170,1,N,0060,1","99999,9,9,N","004800,1,N,1","+0011,1","+0007,1","10026,1","52,1","6,1,06,1",,"07,99,1,07,1,99,9,00150,1,99,9,99,9","99999,9,10018,1","7,1,006,1,+999,9","+006,9","SYN106AAXX  30001 02795 47248 71706 10011 20007 30018 40026 57006 75265 87/// 92339 222// 00006 555 797// 0/007;",
"02795099999","2010-03-30T03:00:00","4","60.1","24.9833333","6.4","HELSINKI HARMAJA, FI","FM-12","99999","V020","200,1,N,0050,1","00030,1,9,N","000500,1,N,1","+0010,1","+0007,1","10026,1","51,1","6,1,03,1","09,1,+99999,9,99,9","09,99,1,09,1,99,9,99999,9,99,9,99,9","99999,9,10018,1","4,1,000,1,+999,9","+005,9","SYN100AAXX  30031 02795 47105 92005 10010 20007 30018 40026 54000 75165 90239 222// 00005 555 798// 0/407;",
"02795099999","2010-03-30T09:00:00","4","60.1","24.9833333","6.4","HELSINKI HARMAJA, FI","FM-12","99999","V020","230,1,N,0070,1","99999,9,9,N","006000,1,N,1","+0011,1","+0008,1","10054,1","22,1","8,1,03,1",,"07,99,1,07,1,99,9,00075,1,99,9,99,9","99999,9,10046,1","2,1,020,1,+999,9","+006,9","SYN106AAXX  30091 02795 47156 72307 10011 20008 30046 40054 52020 72286 87/// 90839 222// 00006 555 798// 0/208;",
"02795099999","2010-03-30T12:00:00","4","60.1","24.9833333","6.4","HELSINKI HARMAJA, FI","FM-12","99999","V020","230,1,N,0070,1","99999,9,9,N","019000,1,N,1","+0012,1","+0006,1","10077,1","00,1","8,1,06,1",,"07,99,1,07,1,99,9,00075,1,99,9,99,9","99999,9,10069,1","2,1,023,1,+999,9","+007,9","SYN106AAXX  30121 02795 47169 72307 10012 20006 30069 40077 52023 70086 87/// 91139 222// 00007 555 796// 0/508;",
"02795099999","2010-03-30T15:00:00","4","60.1","24.9833333","6.4","HELSINKI HARMAJA, FI","FM-12","99999","V020","220,1,N,0060,1","99999,9,9,N","014000,1,N,1","+0006,1","+0001,1","10099,1","00,1","0,1,03,1",,"05,99,1,05,1,99,9,00800,1,99,9,99,9","99999,9,10091,1","2,1,022,1,+999,9","+007,9","SYN106AAXX  30151 02795 47564 52206 10006 20001 30091 40099 52022 70000 85/// 91439 222// 00007 555 796// 0/608;",
"02795099999","2010-03-30T21:00:00","4","60.1","24.9833333","6.4","HELSINKI HARMAJA, FI","FM-12","99999","V020","130,1,N,0030,1","22000,1,9,N","009000,1,N,1","-0003,1","-0007,1","10128,1","10,1","2,1,03,1","00,1,+99999,9,99,9","00,99,1,00,1,00,1,99999,9,00,1,00,1","99999,9,10120,1","2,1,013,1,+999,9","+007,9","SYN100AAXX  30211 02795 47959 01303 11003 21007 30120 40128 52013 71010 92039 222// 00007 555 797// 0/003;",
"02795099999","2010-03-31T00:00:00","4","60.1","24.9833333","6.4","HELSINKI HARMAJA, FI","FM-12","99999","V020","090,1,N,0040,1","22000,1,9,N","025000,1,N,1","+0004,1","-0002,1","10128,1","00,1","2,1,06,1","00,1,+99999,9,99,9","00,99,1,00,1,00,1,99999,9,00,1,00,1","99999,9,10120,1","4,1,000,1,+999,9","+007,9","SYN100AAXX  31001 02795 47975 00904 10004 21002 30120 40128 54000 70010 92339 222// 00007 555 796// 0/204;",
"02795099999","2010-03-31T03:00:00","4","60.1","24.9833333","6.4","HELSINKI HARMAJA, FI","FM-12","99999","V020","070,1,N,0080,1","22000,1,9,N","035000,1,N,1","+0010,1","+0001,1","10123,1","00,1","0,1,03,1",,"01,99,1,01,1,99,9,01250,1,99,9,99,9","99999,9,10115,1","7,1,006,1,+999,9","+005,9","SYN106AAXX  31031 02795 47681 10708 10010 20001 30115 40123 57006 70000 81/// 90239 222// 00005 555 794// 0/008;",
"02795099999","2010-03-31T09:00:00","4","60.1","24.9833333","6.4","HELSINKI HARMAJA, FI","FM-12","99999","V020","070,1,N,0100,1","99999,9,9,N","008000,1,N,1","+0012,1","+0005,1","10112,1","10,1","2,1,03,1",,"07,99,1,07,1,99,9,00250,1,99,9,99,9","99999,9,10104,1","7,1,007,1,+999,9","+005,9","SYN106AAXX  31091 02795 47358 70710 10012 20005 30104 40112 57007 71010 87/// 90839 222// 00005 555 795// 0/411;",
"02795099999","2010-03-31T12:00:00","4","60.1","24.9833333","6.4","HELSINKI HARMAJA, FI","FM-12","99999","V020","070,1,N,0110,1","99999,9,9,N","003500,1,N,1","+0015,1","+0011,1","10103,1","61,1","8,1,06,1",,"08,99,1,08,1,99,9,00075,1,99,9,99,9","99999,9,10095,1","7,1,010,1,+999,9","+004,9","SYN106AAXX  31121 02795 47135 80711 10015 20011 30095 40103 57010 76186 88/// 91139 222// 00004 555 797// 0/011;",
"02795099999","2010-03-31T15:00:00","4","60.1","24.9833333","6.4","HELSINKI HARMAJA, FI","FM-12","99999","V020","070,1,N,0100,1","22000,1,9,N","004200,1,N,1","+0019,1","+0014,1","10092,1","10,1","6,1,03,1",,"01,99,1,01,1,99,9,00075,1,99,9,99,9","99999,9,10084,1","7,1,011,1,+999,9","+004,9","SYN106AAXX  31151 02795 47142 10710 10019 20014 30084 40092 57011 71065 81/// 91439 222// 00004 555 796// 0/313;",
"02795099999","2010-03-31T21:00:00","4","60.1","24.9833333","6.4","HELSINKI HARMAJA, FI","FM-12","99999","V020","060,1,N,0070,1","22000,1,9,N","012000,1,N,1","+0024,1","+0013,1","10094,1","23,1","8,1,03,1",,"01,99,1,01,1,99,9,00250,1,99,9,99,9","99999,9,10086,1","2,1,006,1,+999,9","+005,9","SYN106AAXX  31211 02795 47362 10607 10024 20013 30086 40094 52006 72386 81/// 92039 222// 00005 555 793// 0/609;",
"02795099999","2010-04-01T00:00:00","4","60.1","24.9833333","6.4","HELSINKI HARMAJA, FI","FM-12","99999","V020","080,1,N,0090,1","22000,1,9,N","017000,1,N,1","+0025,1","+0009,1","10092,1","00,1","8,1,06,1","00,1,+99999,9,99,9","00,99,1,00,1,00,1,99999,9,00,1,00,1","99999,9,10084,1","4,1,000,1,+999,9","+005,9","SYN100AAXX  01001 02795 47967 00809 10025 20009 30084 40092 54001 70086 92339 222// 00005 555 789// 0/009;",
"02795099999","2010-04-01T03:00:00","4","60.1","24.9833333","6.4","HELSINKI HARMAJA, FI","FM-12","99999","V020","080,1,N,0070,1","22000,1,9,N","016000,1,N,1","+0020,1","+0008,1","10092,1","00,1","0,1,03,1","00,1,+99999,9,99,9","00,99,1,00,1,00,1,99999,9,00,1,00,1","99999,9,10084,1","4,1,000,1,+999,9","+005,9","SYN100AAXX  01031 02795 47966 00807 10020 20008 30084 40092 54000 70000 90239 222// 00005 555 791// 0/609;",
"02795099999","2010-04-01T09:00:00","4","60.1","24.9833333","6.4","HELSINKI HARMAJA, FI","FM-12","99999","V020","070,1,N,0070,1","22000,1,9,N","006000,1,N,1","+0016,1","+0009,1","10094,1","10,1","2,1,03,1","00,1,+99999,9,99,9","00,99,1,00,1,00,1,99999,9,00,1,00,1","99999,9,10086,1","2,1,005,1,+999,9","+005,9","SYN100AAXX  01091 02795 47956 00707 10016 20009 30086 40094 52005 71010 90839 222// 00005 555 795// 0/409;",
"02795099999","2010-04-01T12:00:00","4","60.1","24.9833333","6.4","HELSINKI HARMAJA, FI","FM-12","99999","V020","070,1,N,0080,1","22000,1,9,N","007000,1,N,1","+0020,1","+0012,1","10099,1","10,1","2,1,06,1","00,1,+99999,9,99,9","00,99,1,00,1,00,1,99999,9,00,1,00,1","99999,9,10091,1","2,1,005,1,+999,9","+005,9","SYN100AAXX  01121 02795 47957 00708 10020 20012 30091 40099 52005 71010 91139 222// 00005 555 794// 0/309;",
"02795099999","2010-04-01T15:00:00","4","60.1","24.9833333","6.4","HELSINKI HARMAJA, FI","FM-12","99999","V020","100,1,N,0070,1","22000,1,9,N","010000,1,N,1","+0035,1","+0018,1","10099,1","00,1","2,1,03,1","00,1,+99999,9,99,9","00,99,1,00,1,00,1,99999,9,00,1,00,1","99999,9,10091,1","4,1,000,1,+999,9","+006,9","SYN100AAXX  01151 02795 47960 01007 10035 20018 30091 40099 54000 70010 91439 222// 00006 555 788// 0/508;",
"02795099999","2010-04-01T21:00:00","4","60.1","24.9833333","6.4","HELSINKI HARMAJA, FI","FM-12","99999","V020","220,1,N,0040,1","22000,1,9,N","001900,1,N,1","+0018,1","+0013,1","10128,1","10,1","2,1,03,1",,"03,99,1,03,1,99,9,00150,1,99,9,99,9","99999,9,10120,1","2,1,016,1,+999,9","+006,9","SYN106AAXX  01211 02795 47219 32204 10018 20013 30120 40128 52016 71010 83/// 92039 222// 00006 555 796// 0/605;",
"02795099999","2010-04-02T00:00:00","4","60.1","24.9833333","6.4","HELSINKI HARMAJA, FI","FM-12","99999","V020","240,1,N,0050,1","99999,9,9,N","004700,1,N,1","+0014,1","+0009,1","10145,1","10,1","2,1,06,1",,"07,99,1,07,1,99,9,00800,1,99,9,99,9","99999,9,10137,1","2,1,017,1,+999,9","+005,9","SYN106AAXX  02001 02795 47547 72405 10014 20009 30137 40145 52017 71010 87/// 92339 222// 00005 555 797// 0/206;",
"02795099999","2010-04-02T03:00:00","4","60.1","24.9833333","6.4","HELSINKI HARMAJA, FI","FM-12","99999","V020","250,1,N,0020,1","22000,1,9,N","002800,1,N,1","+0012,1","+0008,1","10156,1","22,1","5,1,03,1","00,1,+99999,9,99,9","00,99,1,00,1,00,1,99999,9,00,1,00,1","99999,9,10148,1","2,1,011,1,+999,9","+006,9","SYN100AAXX  02031 02795 47928 02502 10012 20008 30148 40156 52011 72254 90239 222// 00006 555 797// 0/605;",
"02795099999","2010-04-02T09:00:00","4","60.1","24.9833333","6.4","HELSINKI HARMAJA, FI","FM-12","99999","V020","180,1,N,0020,1","99999,9,9,N","000600,1,N,1","+0009,1","+0005,1","10180,1","33,1","4,1,03,1",,"08,99,1,08,1,99,9,00075,1,99,9,99,9","99999,9,10172,1","2,1,012,1,+999,9","+007,9","SYN106AAXX  02091 02795 47106 81802 10009 20005 30172 40180 52012 73330 88/// 90839 222// 00007 555 797// 0/602;",
"02795099999","2010-04-02T12:00:00","4","60.1","24.9833333","6.4","HELSINKI HARMAJA, FI","FM-12","99999","V020","220,1,N,0030,1","22000,1,9,N","010000,1,N,1","+0014,1","+0009,1","10185,1","20,1","4,1,06,1","00,1,+99999,9,99,9","00,99,1,00,1,00,1,99999,9,00,1,00,1","99999,9,10177,1","2,1,005,1,+999,9","+008,9","SYN100AAXX  02121 02795 47960 02203 10014 20009 30177 40185 52005 72032 91139 222// 00008 555 796// 0/204;",
"02795099999","2010-04-02T15:00:00","4","60.1","24.9833333","6.4","HELSINKI HARMAJA, FI","FM-12","99999","V020","160,1,N,0010,1","22000,1,9,N","009000,1,N,1","+0014,1","+0006,1","10180,1","10,1","3,1,03,1",,"01,99,1,01,1,99,9,01250,1,99,9,99,9","99999,9,10172,1","7,1,005,1,+999,9","+008,9","SYN106AAXX  02151 02795 47659 11601 10014 20006 30172 40180 57005 71021 81/// 91439 222// 00008 555 794// 0/603;",
"02795099999","2010-04-02T21:00:00","4","60.1","24.9833333","6.4","HELSINKI HARMAJA, FI","FM-12","99999","V020","300,1,N,0020,1","99999,9,9,N","002600,1,N,1","+0014,1","+0009,1","10175,1","61,1","8,1,03,1",,"08,99,1,08,1,99,9,00450,1,99,9,99,9","99999,9,10167,1","7,1,006,1,+999,9","+008,9","SYN106AAXX  02211 02795 47426 83002 10014 20009 30167 40175 57006 76186 88/// 92039 222// 00008 555 796// 0/003;",
"02795099999","2010-04-03T00:00:00","4","60.1","24.9833333","6.4","HELSINKI HARMAJA, FI","FM-12","99999","V020","330,1,N,0020,1","99999,9,9,N","000600,1,N,1","+0022,1","+0018,1","10167,1","52,1","8,1,06,1",,"08,99,1,08,1,99,9,00450,1,99,9,99,9","99999,9,10159,1","7,1,008,1,+999,9","+008,9","SYN106AAXX  03001 02795 47406 83302 10022 20018 30159 40167 57008 75286 88/// 92339 222// 00008 555 797// 0/504;",
"02795099999","2010-04-03T03:00:00","4","60.1","24.9833333","6.4","HELSINKI HARMAJA, FI","FM-12","99999","V020","360,1,N,0030,1","99999,9,9,N","004600,1,N,1","+0021,1","+0016,1","10160,1","52,1","6,1,03,1",,"08,99,1,08,1,99,9,00150,1,99,9,99,9","99999,9,10152,1","7,1,007,1,+999,9","+008,9","SYN106AAXX  03031 02795 47246 83603 10021 20016 30152 40160 57007 75265 88/// 90239 222// 00008 555 797// 0/304;",
"02795099999","2010-04-03T09:00:00","4","60.1","24.9833333","6.4","HELSINKI HARMAJA, FI","FM-12","99999","V020","020,1,N,0020,1","99999,9,9,N","000500,1,N,1","+0017,1","+0013,1","10165,1","61,1","6,1,03,1",,"08,99,1,08,1,99,9,00150,1,99,9,99,9","99999,9,10157,1","2,1,004,1,+999,9","+008,9","SYN106AAXX  03091 02795 47205 80202 10017 20013 30157 40165 52004 76165 88/// 90839 222// 00008 555 797// 0/303;",
"02795099999","2010-04-03T12:00:00","4","60.1","24.9833333","6.4","HELSINKI HARMAJA, FI","FM-12","99999","V020","060,1,N,0030,1","00060,1,9,N","000600,1,N,1","+0015,1","+0011,1","10168,1","52,1","6,1,06,1","09,1,+99999,9,99,9","09,99,1,09,1,99,9,99999,9,99,9,99,9","99999,9,10160,1","2,1,003,1,+999,9","+008,9","SYN100AAXX  03121 02795 47206 90603 10015 20011 30160 40168 52003 75265 91139 222// 00008 555 798// 0/103;",
"02795099999","2010-04-03T15:00:00","4","60.1","24.9833333","6.4","HELSINKI HARMAJA, FI","FM-12","99999","V020","050,1,N,0020,1","99999,9,9,N","000500,1,N,1","+0027,1","+0024,1","10167,1","61,1","6,1,03,1",,"08,99,1,08,1,99,9,00075,1,99,9,99,9","99999,9,10159,1","4,1,000,1,+999,9","+008,9","SYN106AAXX  03151 02795 47105 80502 10027 20024 30159 40167 54001 76165 88/// 91439 222// 00008 555 798// 0/503;",
"02795099999","2010-04-03T21:00:00","4","60.1","24.9833333","6.4","HELSINKI HARMAJA, FI","FM-12","99999","V020","040,1,N,0020,1","99999,9,9,N","001000,1,N,1","+0034,1","+0031,1","10165,1","51,1","6,1,03,1",,"07,99,1,07,1,99,9,00450,1,99,9,99,9","99999,9,10157,1","7,1,002,1,+999,9","+008,9","SYN106AAXX  03211 02795 47410 70402 10034 20031 30157 40165 57002 75165 87/// 92039 222// 00008 555 798// 0/403;",
"02795099999","2010-04-04T00:00:00","4","60.1","24.9833333","6.4","HELSINKI HARMAJA, FI","FM-12","99999","V020","070,1,N,0050,1","99999,9,9,N","002600,1,N,1","+0018,1","+0016,1","10163,1","22,1","8,1,06,1",,"07,99,1,07,1,99,9,00250,1,99,9,99,9","99999,9,10155,1","4,1,000,1,+999,9","+008,9","SYN106AAXX  04001 02795 47326 70705 10018 20016 30155 40163 54002 72286 87/// 92339 222// 00008 555 798// 0/005;",
"02795099999","2010-04-04T03:00:00","4","60.1","24.9833333","6.4","HELSINKI HARMAJA, FI","FM-12","99999","V020","070,1,N,0040,1","00240,1,9,N","002800,1,N,1","+0016,1","+0013,1","10162,1","51,1","8,1,03,1","09,1,+99999,9,99,9","09,99,1,09,1,99,9,99999,9,99,9,99,9","99999,9,10154,1","4,1,000,1,+999,9","+007,9","SYN100AAXX  04031 02795 47128 90704 10016 20013 30154 40162 54001 75185 90239 222// 00007 555 798// 0/605;",
"02795099999","2010-04-04T09:00:00","4","60.1","24.9833333","6.4","HELSINKI HARMAJA, FI","FM-12","99999","V020","210,1,N,0020,1","99999,9,9,N","000800,1,N,1","+0020,1","+0017,1","10173,1","32,1","7,1,03,1",,"07,99,1,07,1,99,9,00150,1,99,9,99,9","99999,9,10165,1","2,1,008,1,+999,9","+007,9","SYN106AAXX  04091 02795 47208 72102 10020 20017 30165 40173 52008 73276 87/// 90839 222// 00007 555 798// 0/603;",
"02795099999","2010-04-04T12:00:00","4","60.1","24.9833333","6.4","HELSINKI HARMAJA, FI","FM-12","99999","V020","220,1,N,0020,1","99999,9,9,N","001100,1,N,1","+0021,1","+0019,1","10183,1","10,1","8,1,06,1",,"07,99,1,07,1,99,9,00150,1,99,9,99,9","99999,9,10175,1","2,1,010,1,+999,9","+008,9","SYN106AAXX  04121 02795 47211 72202 10021 20019 30175 40183 52010 71087 87/// 91139 222// 00008 555 799// 0/303;",
"02795099999","2010-04-04T15:00:00","4","60.1","24.9833333","6.4","HELSINKI HARMAJA, FI","FM-12","99999","V020","120,1,N,0030,1","99999,9,9,N","011000,1,N,1","+0018,1","+0016,1","10189,1","00,1","2,1,03,1",,"07,99,1,07,1,99,9,00250,1,99,9,99,9","99999,9,10180,1","2,1,005,1,+999,9","+008,9","SYN106AAXX  04151 02795 47361 71203 10018 20016 30180 40189 52005 70010 87/// 91439 222// 00008 555 799// 0/003;",
"02795099999","2010-04-04T21:00:00","4","60.1","24.9833333","6.4","HELSINKI HARMAJA, FI","FM-12","99999","V020","150,1,N,0050,1","99999,9,9,N","012000,1,N,1","+0019,1","+0017,1","10196,1","51,1","8,1,03,1",,"08,99,1,08,1,99,9,00250,1,99,9,99,9","99999,9,10188,1","2,1,004,1,+999,9","+008,9","SYN106AAXX  04211 02795 47362 81505 10019 20017 30188 40196 52004 75185 88/// 92039 222// 00008 555 798// 0/005;",
"02795099999","2010-04-05T00:00:00","4","60.1","24.9833333","6.4","HELSINKI HARMAJA, FI","FM-12","99999","V020","200,1,N,0030,1","00030,1,9,N","000500,1,N,1","+0013,1","+0010,1","10207,1","52,1","8,1,06,1","09,1,+99999,9,99,9","09,99,1,09,1,99,9,99999,9,99,9,99,9","99999,9,10199,1","2,1,011,1,+999,9","+008,9","SYN100AAXX  05001 02795 47105 92003 10013 20010 30199 40207 52011 75285 92339 222// 00008 555 798// 0/605;",
"02795099999","2010-04-05T03:00:00","4","60.1","24.9833333","6.4","HELSINKI HARMAJA, FI","FM-12","99999","V020","210,1,N,0020,1","99999,9,9,N","008000,1,N,1","+0013,1","+0010,1","10212,1","10,1","6,1,03,1",,"08,99,1,08,1,99,9,00450,1,99,9,99,9","99999,9,10204,1","2,1,005,1,+999,9","+009,9","SYN106AAXX  05031 02795 47458 82102 10013 20010 30204 40212 52005 71065 88/// 90239 222// 00009 555 798// 0/603;",
"02795099999","2010-04-05T09:00:00","4","60.1","24.9833333","6.4","HELSINKI HARMAJA, FI","FM-12","99999","V020","060,1,N,0030,1","00030,1,9,N","000300,1,N,1","+0010,1","+0008,1","10219,1","51,1","5,1,03,1","09,1,+99999,9,99,9","09,99,1,09,1,99,9,99999,9,99,9,99,9","99999,9,10210,1","2,1,004,1,+999,9","+010,9","SYN100AAXX  05091 02795 47/03 90603 10010 20008 30210 40219 52004 75154 90839 222// 00010 555 798// 0/103;",
"02795099999","2010-04-05T12:00:00","4","60.1","24.9833333","6.4","HELSINKI HARMAJA, FI","FM-12","99999","V020","080,1,N,0050,1","22000,1,9,N","027000,1,N,1","+0014,1","+0012,1","10218,1","00,1","5,1,06,1","00,1,+99999,9,99,9","00,99,1,00,1,00,1,99999,9,00,1,00,1","99999,9,10210,1","4,1,000,1,+999,9","+011,9","SYN100AAXX  05121 02795 47977 00805 10014 20012 30210 40218 54000 70054 91139 222// 00011 555 798// 0/105;",
"02795099999","2010-04-05T15:00:00","4","60.1","24.9833333","6.4","HELSINKI HARMAJA, FI","FM-12","99999","V020","060,1,N,0070,1","22000,1,9,N","016000,1,N,1","+0022,1","+0014,1","10205,1","21,1","8,1,03,1",,"01,99,1,01,1,99,9,00250,1,99,9,99,9","99999,9,10197,1","7,1,013,1,+999,9","+011,9","SYN106AAXX  05151 02795 47366 10607 10022 20014 30197 40205 57013 72186 81/// 91439 222// 00011 555 794// 0/207;",
"02795099999","2010-04-05T21:00:00","4","60.1","24.9833333","6.4","HELSINKI HARMAJA, FI","FM-12","99999","V020","190,1,N,0020,1","22000,1,9,N","021000,1,N,1","+0023,1","+0013,1","10216,1","00,1","0,1,03,1","00,1,+99999,9,99,9","00,99,1,00,1,00,1,99999,9,00,1,00,1","99999,9,10208,1","2,1,010,1,+999,9","+010,9","SYN100AAXX  05211 02795 47971 01902 10023 20013 30208 40216 52010 70000 92039 222// 00010 555 793// 0/606;",
"02795099999","2010-04-06T00:00:00","4","60.1","24.9833333","6.4","HELSINKI HARMAJA, FI","FM-12","99999","V020","090,1,N,0030,1","22000,1,9,N","008000,1,N,1","+0014,1","+0008,1","10221,1","10,1","2,1,06,1",,"01,99,1,01,1,99,9,01250,1,99,9,99,9","99999,9,10213,1","2,1,005,1,+999,9","+010,9","SYN106AAXX  06001 02795 47658 10903 10014 20008 30213 40221 52005 71010 81/// 92339 222// 00010 555 795// 0/403;",
"02795099999","2010-04-06T03:00:00","4","60.1","24.9833333","6.4","HELSINKI HARMAJA, FI","FM-12","99999","V020","060,1,N,0020,1","22000,1,9,N","007000,1,N,1","+0013,1","+0008,1","10226,1","61,1","6,1,03,1",,"01,99,1,01,1,99,9,00450,1,99,9,99,9","99999,9,10218,1","2,1,004,1,+999,9","+008,9","SYN106AAXX  06031 02795 47457 10602 10013 20008 30218 40226 52004 76165 81/// 90239 222// 00008 555 796// 0/603;",
"02795099999","2010-04-06T09:00:00","4","60.1","24.9833333","6.4","HELSINKI HARMAJA, FI","FM-12","99999","V020","280,1,N,0020,1","99999,9,9,N","007000,1,N,1","+0023,1","+0019,1","10238,1","21,1","8,1,03,1",,"07,99,1,07,1,99,9,00150,1,99,9,99,9","99999,9,10230,1","2,1,008,1,+999,9","+009,9","SYN106AAXX  06091 02795 47257 72802 10023 20019 30230 40238 52008 72186 87/// 90839 222// 00009 555 797// 0/403;",
"02795099999","2010-04-06T12:00:00","4","60.1","24.9833333","6.4","HELSINKI HARMAJA, FI","FM-12","99999","V020","210,1,N,0040,1","00015,1,9,N","000100,1,N,1","+0021,1","+0018,1","10242,1","34,1","8,1,06,1","09,1,+99999,9,99,9","09,99,1,09,1,99,9,99999,9,99,9,99,9","99999,9,10234,1","2,1,004,1,+999,9","+009,9","SYN100AAXX  06121 02795 47/01 92104 10021 20018 30234 40242 52004 73486 91139 222// 00009 555 798// 0/004;",
"02795099999","2010-04-06T15:00:00","4","60.1","24.9833333","6.4","HELSINKI HARMAJA, FI","FM-12","99999","V020","240,1,N,0050,1","99999,9,9,N","005000,1,N,1","+0021,1","+0018,1","10246,1","10,1","4,1,03,1",,"08,99,1,08,1,99,9,00450,1,99,9,99,9","99999,9,10238,1","2,1,004,1,+999,9","+009,9","SYN106AAXX  06151 02795 47450 82405 10021 20018 30238 40246 52004 71032 88/// 91439 222// 00009 555 798// 0/106;",
"02795099999","2010-04-06T21:00:00","4","60.1","24.9833333","6.4","HELSINKI HARMAJA, FI","FM-12","99999","V020","280,1,N,0040,1","99999,9,9,N","050000,1,N,1","+0021,1","+0008,1","10257,1","00,1","0,1,03,1",,"08,99,1,08,1,99,9,00450,1,99,9,99,9","99999,9,10249,1","2,1,003,1,+999,9","+014,9","SYN106AAXX  06211 02795 47499 82804 10021 20008 30249 40257 52003 70000 88/// 92039 222// 00014 555 791// 0/605;",
"02795099999","2010-04-07T00:00:00","4","60.1","24.9833333","6.4","HELSINKI HARMAJA, FI","FM-12","99999","V020","260,1,N,0050,1","99999,9,9,N","045000,1,N,1","+0013,1","+0003,1","10263,1","00,1","0,1,06,1",,"08,99,1,08,1,99,9,00450,1,99,9,99,9","99999,9,10255,1","2,1,005,1,+999,9","+015,9","SYN106AAXX  07001 02795 47483 82605 10013 20003 30255 40263 52005 70000 88/// 92339 222// 00015 555 793// 0/605;",
"02795099999","2010-04-07T03:00:00","4","60.1","24.9833333","6.4","HELSINKI HARMAJA, FI","FM-12","99999","V020","280,1,N,0030,1","99999,9,9,N","040000,1,N,1","+0006,1","-0005,1","10265,1","00,1","0,1,03,1",,"08,99,1,08,1,99,9,00250,1,99,9,99,9","99999,9,10257,1","2,1,003,1,+999,9","+012,9","SYN106AAXX  07031 02795 47382 82803 10006 21005 30257 40265 52003 70000 88/// 90239 222// 00012 555 792// 0/505;",
"02795099999","2010-04-07T09:00:00","4","60.1","24.9833333","6.4","HELSINKI HARMAJA, FI","FM-12","99999","V020","240,1,N,0030,1","99999,9,9,N","016000,1,N,1","+0007,1","-0001,1","10272,1","71,1","7,1,03,1",,"08,99,1,08,1,99,9,00150,1,99,9,99,9","99999,9,10264,1","2,1,003,1,+999,9","+011,9","SYN106AAXX  07091 02795 47266 82403 10007 21001 30264 40272 52003 77174 88/// 90839 222// 00011 555 794// 0/606;",
"02795099999","2010-04-07T12:00:00","4","60.1","24.9833333","6.4","HELSINKI HARMAJA, FI","FM-12","99999","V020","240,1,N,0030,1","99999,9,9,N","014000,1,N,1","+0014,1","+0007,1","10270,1","00,1","7,1,06,1",,"07,99,1,07,1,99,9,00075,1,99,9,99,9","99999,9,10262,1","7,1,002,1,+999,9","+011,9","SYN106AAXX  07121 02795 47164 72403 10014 20007 30262 40270 57002 70074 87/// 91139 222// 00011 555 795// 0/504;",
"02795099999","2010-04-07T15:00:00","4","60.1","24.9833333","6.4","HELSINKI HARMAJA, FI","FM-12","99999","V020","230,1,N,0080,1","00030,1,9,N","000400,1,N,1","+0000,1","-0004,1","10268,1","33,1","4,1,03,1","09,1,+99999,9,99,9","09,99,1,09,1,99,9,99999,9,99,9,99,9","99999,9,10259,1","7,1,002,1,+999,9","+011,9","SYN100AAXX  07151 02795 47/04 92308 10000 21004 30259 40268 57002 73331 91439 222// 00011 555 797// 0/108;",
"02795099999","2010-04-07T21:00:00","4","60.1","24.9833333","6.4","HELSINKI HARMAJA, FI","FM-12","99999","V020","240,1,N,0050,1","99999,9,9,N","020000,1,N,1","+0006,1","+0003,1","10270,1","21,1","5,1,03,1",,"08,99,1,08,1,99,9,00075,1,99,9,99,9","99999,9,10262,1","2,1,002,1,+999,9","+009,9","SYN106AAXX  07211 02795 47170 82405 10006 20003 30262 40270 52002 72152 88/// 92039 222// 00009 555 798// 0/608;",
"02795099999","2010-04-08T00:00:00","4","60.1","24.9833333","6.4","HELSINKI HARMAJA, FI","FM-12","99999","V020","230,1,N,0050,1","00060,1,9,N","001000,1,N,1","+0008,1","+0005,1","10270,1","23,1","8,1,06,1","09,1,+99999,9,99,9","09,99,1,09,1,99,9,99999,9,99,9,99,9","99999,9,10262,1","4,1,000,1,+999,9","+009,9","SYN100AAXX  08001 02795 47110 92305 10008 20005 30262 40270 54000 72386 92339 222// 00009 555 798// 0/406;",
"02795099999","2010-04-08T03:00:00","4","60.1","24.9833333","6.4","HELSINKI HARMAJA, FI","FM-12","99999","V020","220,1,N,0060,1","00030,1,9,N","000400,1,N,1","+0008,1","+0005,1","10265,1","67,1","6,1,03,1","09,1,+99999,9,99,9","09,99,1,09,1,99,9,99999,9,99,9,99,9","99999,9,10257,1","7,1,005,1,+999,9","+009,9","SYN100AAXX  08031 02795 47/04 92206 10008 20005 30257 40265 57005 76765 90239 222// 00009 555 798// 0/407;",
"02795099999","2010-04-08T09:00:00","4","60.1","24.9833333","6.4","HELSINKI HARMAJA, FI","FM-12","99999","V020","230,1,N,0070,1","22000,1,9,N","017000,1,N,1","+0017,1","+0011,1","10266,1","00,1","8,1,03,1",,"01,99,1,01,1,99,9,01750,1,99,9,99,9","99999,9,10257,1","4,1,000,1,+999,9","+010,9","SYN106AAXX  08091 02795 47767 12307 10017 20011 30257 40266 54002 70082 81/// 90839 222// 00010 555 795// 0/007;",
"02795099999","2010-04-08T12:00:00","4","60.1","24.9833333","6.4","HELSINKI HARMAJA, FI","FM-12","99999","V020","230,1,N,0090,1","22000,1,9,N","023000,1,N,1","+0019,1","+0008,1","10266,1","00,1","8,1,06,1",,"01,99,1,01,1,99,9,01750,1,99,9,99,9","99999,9,10258,1","4,1,000,1,+999,9","+010,9","SYN106AAXX  08121 02795 47773 12309 10019 20008 30258 40266 54000 70082 81/// 91139 222// 00010 555 793// 0/009;",
"02795099999","2010-04-08T15:00:00","4","60.1","24.9833333","6.4","HELSINKI HARMAJA, FI","FM-12","99999","V020","240,1,N,0060,1","22000,1,9,N","040000,1,N,1","+0023,1","+0007,1","10265,1","00,1","0,1,03,1",,"01,99,1,01,1,99,9,02250,1,99,9,99,9","99999,9,10257,1","4,1,000,1,+999,9","+010,9","SYN106AAXX  08151 02795 47882 12406 10023 20007 30257 40265 54001 70000 81/// 91439 222// 00010 555 789// 0/609;",
"02795099999","2010-04-08T21:00:00","4","60.1","24.9833333","6.4","HELSINKI HARMAJA, FI","FM-12","99999","V020","180,1,N,0030,1","22000,1,9,N","035000,1,N,1","+0017,1","+0008,1","10257,1","00,1","0,1,03,1",,"03,99,1,03,1,99,9,01250,1,99,9,99,9","99999,9,10249,1","7,1,006,1,+999,9","+010,9","SYN106AAXX  08211 02795 47681 31803 10017 20008 30249 40257 57006 70000 83/// 92039 222// 00010 555 793// 0/204;",
"02795099999","2010-04-09T00:00:00","4","60.1","24.9833333","6.4","HELSINKI HARMAJA, FI","FM-12","99999","V020","160,1,N,0040,1","99999,9,9,N","013000,1,N,1","+0020,1","+0011,1","10250,1","00,1","0,1,06,1",,"07,99,1,05,1,99,9,01250,1,99,9,99,9","99999,9,10241,1","7,1,008,1,+999,9","+010,9","SYN106AAXX  09001 02795 47663 71604 10020 20011 30241 40250 57008 70000 85/// 92339 222// 00010 555 794// 0/004;",
"02795099999","2010-04-09T03:00:00","4","60.1","24.9833333","6.4","HELSINKI HARMAJA, FI","FM-12","99999","V020","170,1,N,0050,1","22000,1,9,N","017000,1,N,1","+0022,1","+0012,1","10241,1","40,1","6,1,03,1",,"03,99,1,03,1,99,9,01250,1,99,9,99,9","99999,9,10233,1","7,1,008,1,+999,9","+010,9","SYN106AAXX  09031 02795 47667 31705 10022 20012 30233 40241 57008 74040 83/// 90239 222// 00010 555 793// 0/305;",
"02795099999","2010-04-09T09:00:00","4","60.1","24.9833333","6.4","HELSINKI HARMAJA, FI","FM-12","99999","V020","130,1,N,0040,1","22000,1,9,N","030000,1,N,1","+0026,1","+0013,1","10236,1","00,1","8,1,03,1",,"01,99,1,01,1,99,9,02250,1,99,9,99,9","99999,9,10228,1","4,1,000,1,+999,9","+011,9","SYN106AAXX  09091 02795 47880 11304 10026 20013 30228 40236 54002 70082 81/// 90839 222// 00011 555 791// 0/306;",
"02795099999","2010-04-09T12:00:00","4","60.1","24.9833333","6.4","HELSINKI HARMAJA, FI","FM-12","99999","V020","110,1,N,0050,1","22000,1,9,N","035000,1,N,1","+0028,1","+0012,1","10227,1","00,1","8,1,06,1",,"01,99,1,01,1,99,9,02250,1,99,9,99,9","99999,9,10219,1","7,1,009,1,+999,9","+012,9","SYN106AAXX  09121 02795 47881 11105 10028 20012 30219 40227 57009 70082 81/// 91139 222// 00012 555 790// 0/306;",
"02795099999","2010-04-09T15:00:00","4","60.1","24.9833333","6.4","HELSINKI HARMAJA, FI","FM-12","99999","V020","110,1,N,0050,1","22000,1,9,N","014000,1,N,1","+0025,1","+0010,1","10219,1","00,1","0,1,03,1","00,1,+99999,9,99,9","00,99,1,00,1,00,1,99999,9,00,1,00,1","99999,9,10211,1","7,1,008,1,+999,9","+012,9","SYN100AAXX  09151 02795 47964 01105 10025 20010 30211 40219 57008 70000 91439 222// 00012 555 789// 0/406;",
"02795099999","2010-04-09T21:00:00","4","60.1","24.9833333","6.4","HELSINKI HARMAJA, FI","FM-12","99999","V020","080,1,N,0050,1","99999,9,9,N","025000,1,N,1","+0020,1","+0008,1","10220,1","00,1","8,1,03,1",,"07,99,1,07,1,99,9,01250,1,99,9,99,9","99999,9,10212,1","4,1,000,1,+999,9","+012,9","SYN106AAXX  09211 02795 47675 70805 10020 20008 30212 40220 54000 70085 87/// 92039 222// 00012 555 792// 0/506;",
"02795099999","2010-04-10T00:00:00","4","60.1","24.9833333","6.4","HELSINKI HARMAJA, FI","FM-12","99999","V020","070,1,N,0050,1","99999,9,9,N","025000,1,N,1","+0016,1","+0007,1","10223,1","00,1","8,1,06,1",,"07,99,1,07,1,99,9,01750,1,99,9,99,9","99999,9,10215,1","2,1,004,1,+999,9","+012,9","SYN106AAXX  10001 02795 47775 70705 10016 20007 30215 40223 52004 70085 87/// 92339 222// 00012 555 794// 0/605;",
"02795099999","2010-04-10T03:00:00","4","60.1","24.9833333","6.4","HELSINKI HARMAJA, FI","FM-12","99999","V020","060,1,N,0050,1","99999,9,9,N","023000,1,N,1","+0014,1","+0005,1","10231,1","00,1","0,1,03,1",,"07,99,1,07,1,99,9,02250,1,99,9,99,9","99999,9,10223,1","2,1,008,1,+999,9","+012,9","SYN106AAXX  10031 02795 47873 70605 10014 20005 30223 40231 52008 70000 87/// 90239 222// 00012 555 794// 0/406;",
"02795099999","2010-04-10T09:00:00","4","60.1","24.9833333","6.4","HELSINKI HARMAJA, FI","FM-12","99999","V020","070,1,N,0040,1","22000,1,9,N","026000,1,N,1","+0027,1","+0013,1","10261,1","00,1","0,1,03,1","00,1,+99999,9,99,9","00,99,1,00,1,00,1,99999,9,00,1,00,1","99999,9,10252,1","2,1,016,1,+999,9","+013,9","SYN100AAXX  10091 02795 47976 00704 10027 20013 30252 40261 52016 70000 90839 222// 00013 555 790// 0/605;",
"02795099999","2010-04-10T12:00:00","4","60.1","24.9833333","6.4","HELSINKI HARMAJA, FI","FM-12","99999","V020","090,1,N,0030,1","22000,1,9,N","019000,1,N,1","+0046,1","+0025,1","10271,1","00,1","0,1,06,1","00,1,+99999,9,99,9","00,99,1,00,1,00,1,99999,9,00,1,00,1","99999,9,10263,1","2,1,011,1,+999,9","+016,9","SYN100AAXX  10121 02795 47969 00903 10046 20025 30263 40271 52011 70000 91139 222// 00016 555 786// 0/305;",
"02795099999","2010-04-10T15:00:00","4","60.1","24.9833333","6.4","HELSINKI HARMAJA, FI","FM-12","99999","V020","100,1,N,0030,1","22000,1,9,N","014000,1,N,1","+0037,1","+0022,1","10279,1","00,1","0,1,03,1","00,1,+99999,9,99,9","00,99,1,00,1,00,1,99999,9,00,1,00,1","99999,9,10271,1","2,1,008,1,+999,9","+019,9","SYN100AAXX  10151 02795 47964 01003 10037 20022 30271 40279 52008 70000 91439 222// 00019 555 790// 0/605;",
"02795099999","2010-04-10T21:00:00","4","60.1","24.9833333","6.4","HELSINKI HARMAJA, FI","FM-12","99999","V020","290,1,N,0020,1","22000,1,9,N","007000,1,N,1","+0021,1","+0013,1","10296,1","10,1","2,1,03,1","00,1,+99999,9,99,9","00,99,1,00,1,00,1,99999,9,00,1,00,1","99999,9,10288,1","2,1,006,1,+999,9","+016,9","SYN100AAXX  10211 02795 47957 02902 10021 20013 30288 40296 52006 71010 92039 222// 00016 555 794// 0/202;",
"02795099999","2010-04-11T00:00:00","4","60.1","24.9833333","6.4","HELSINKI HARMAJA, FI","FM-12","99999","V020","320,1,N,0030,1","22000,1,9,N","015000,1,N,1","+0019,1","+0008,1","10301,1","00,1","2,1,06,1","00,1,+99999,9,99,9","00,99,1,00,1,00,1,99999,9,00,1,00,1","99999,9,10293,1","2,1,005,1,+999,9","+015,9","SYN100AAXX  11001 02795 47965 03203 10019 20008 30293 40301 52005 70010 92339 222// 00015 555 792// 0/104;",
"02795099999","2010-04-11T03:00:00","4","60.1","24.9833333","6.4","HELSINKI HARMAJA, FI","FM-12","99999","V020","340,1,N,0040,1","99999,9,9,N","023000,1,N,1","+0027,1","+0013,1","10305,1","00,1","0,1,03,1",,"07,99,1,07,1,99,9,01250,1,99,9,99,9","99999,9,10297,1","2,1,004,1,+999,9","+011,9","SYN106AAXX  11031 02795 47673 73404 10027 20013 30297 40305 52004 70000 87/// 90239 222// 00011 555 791// 0/104;",
"02795099999","2010-04-11T09:00:00","4","60.1","24.9833333","6.4","HELSINKI HARMAJA, FI","FM-12","99999","V020","360,1,N,0050,1","22000,1,9,N","030000,1,N,1","+0048,1","+0021,1","10311,1","00,1","0,1,03,1","00,1,+99999,9,99,9","00,99,1,00,1,00,1,99999,9,00,1,00,1","99999,9,10303,1","2,1,002,1,+999,9","+014,9","SYN100AAXX  11091 02795 47980 03605 10048 20021 30303 40311 52002 70000 90839 222// 00014 555 783// 0/006;",
"02795099999","2010-04-11T12:00:00","4","60.1","24.9833333","6.4","HELSINKI HARMAJA, FI","FM-12","99999","V020","070,1,N,0020,1","99999,9,9,N","035000,1,N,1","+0059,1","+0023,1","10315,1","00,1","0,1,06,1",,"07,99,1,07,1,99,9,00800,1,99,9,99,9","99999,9,10307,1","2,1,004,1,+999,9","+018,9","SYN106AAXX  11121 02795 47581 70702 10059 20023 30307 40315 52004 70000 87/// 91139 222// 00018 555 777// 0/406;",
"02795099999","2010-04-11T15:00:00","4","60.1","24.9833333","6.4","HELSINKI HARMAJA, FI","FM-12","99999","V020","110,1,N,0020,1","22000,1,9,N","030000,1,N,1","+0064,1","+0023,1","10310,1","00,1","0,1,03,1",,"03,99,1,03,1,99,9,01750,1,99,9,99,9","99999,9,10302,1","7,1,005,1,+999,9","+022,9","SYN106AAXX  11151 02795 47780 31102 10064 20023 30302 40310 57005 70000 83/// 91439 222// 00022 555 775// 0/505;",
"02795099999","2010-04-11T21:00:00","4","60.1","24.9833333","6.4","HELSINKI HARMAJA, FI","FM-12","99999","V020","050,1,N,0060,1","22000,1,9,N","045000,1,N,1","+0047,1","+0018,1","10309,1","00,1","0,1,03,1",,"03,99,1,03,1,99,9,01750,1,99,9,99,9","99999,9,10301,1","4,1,000,1,+999,9","+018,9","SYN106AAXX  11211 02795 47783 30506 10047 20018 30301 40309 54001 70000 83/// 92039 222// 00018 555 782// 0/006;",
"02795099999","2010-04-12T00:00:00","4","60.1","24.9833333","6.4","HELSINKI HARMAJA, FI","FM-12","99999","V020","060,1,N,0050,1","22000,1,9,N","050000,1,N,1","+0038,1","+0013,1","10307,1","00,1","0,1,06,1","00,1,+99999,9,99,9","00,99,1,00,1,00,1,99999,9,00,1,00,1","99999,9,10299,1","4,1,000,1,+999,9","+016,9","SYN100AAXX  12001 02795 47999 00605 10038 20013 30299 40307 54002 70000 92339 222// 00016 555 784// 0/206;",
"02795099999","2010-04-12T03:00:00","4","60.1","24.9833333","6.4","HELSINKI HARMAJA, FI","FM-12","99999","V020","060,1,N,0050,1","22000,1,9,N","050000,1,N,1","+0034,1","+0009,1","10302,1","00,1","0,1,03,1","00,1,+99999,9,99,9","00,99,1,00,1,00,1,99999,9,00,1,00,1","99999,9,10294,1","7,1,005,1,+999,9","+015,9","SYN100AAXX  12031 02795 47999 00605 10034 20009 30294 40302 57005 70000 90239 222// 00015 555 784// 0/506;",
"02795099999","2010-04-12T09:00:00","4","60.1","24.9833333","6.4","HELSINKI HARMAJA, FI","FM-12","99999","V020","080,1,N,0070,1","22000,1,9,N","045000,1,N,1","+0036,1","+0006,1","10299,1","00,1","0,1,03,1","00,1,+99999,9,99,9","00,99,1,00,1,00,1,99999,9,00,1,00,1","99999,9,10291,1","4,1,000,1,+999,9","+015,9","SYN100AAXX  12091 02795 47983 00807 10036 20006 30291 40299 54000 70000 90839 222// 00015 555 780// 0/108;",
"02795099999","2010-04-12T12:00:00","4","60.1","24.9833333","6.4","HELSINKI HARMAJA, FI","FM-12","99999","V020","080,1,N,0070,1","22000,1,9,N","045000,1,N,1","+0032,1","+0003,1","10287,1","00,1","0,1,06,1","00,1,+99999,9,99,9","00,99,1,00,1,00,1,99999,9,00,1,00,1","99999,9,10279,1","7,1,012,1,+999,9","+016,9","SYN100AAXX  12121 02795 47983 00807 10032 20003 30279 40287 57012 70000 91139 222// 00016 555 781// 0/409;",
"02795099999","2010-04-12T15:00:00","4","60.1","24.9833333","6.4","HELSINKI HARMAJA, FI","FM-12","99999","V020","070,1,N,0050,1","22000,1,9,N","030000,1,N,1","+0025,1","+0003,1","10267,1","00,1","0,1,03,1","00,1,+99999,9,99,9","00,99,1,00,1,00,1,99999,9,00,1,00,1","99999,9,10259,1","7,1,020,1,+999,9","+018,9","SYN100AAXX  12151 02795 47980 00705 10025 20003 30259 40267 57020 70000 91439 222// 00018 555 786// 0/607;",
"02795099999","2010-04-12T21:00:00","4","60.1","24.9833333","6.4","HELSINKI HARMAJA, FI","FM-12","99999","V020","100,1,N,0030,1","22000,1,9,N","020000,1,N,1","+0025,1","+0005,1","10240,1","00,1","0,1,03,1","00,1,+99999,9,99,9","00,99,1,00,1,00,1,99999,9,00,1,00,1","99999,9,10232,1","7,1,011,1,+999,9","+017,9","SYN100AAXX  12211 02795 47970 01003 10025 20005 30232 40240 57011 70000 92039 222// 00017 555 787// 0/604;",
"02795099999","2010-04-13T00:00:00","4","60.1","24.9833333","6.4","HELSINKI HARMAJA, FI","FM-12","99999","V020","090,1,N,0020,1","22000,1,9,N","022000,1,N,1","+0023,1","+0005,1","10223,1","00,1","0,1,06,1",,"01,99,1,01,1,99,9,01750,1,99,9,99,9","99999,9,10215,1","7,1,017,1,+999,9","+017,9","SYN106AAXX  13001 02795 47772 10902 10023 20005 30215 40223 57017 70000 81/// 92339 222// 00017 555 788// 0/404;",
"02795099999","2010-04-13T03:00:00","4","60.1","24.9833333","6.4","HELSINKI HARMAJA, FI","FM-12","99999","V020","150,1,N,0010,1","99999,9,9,N","020000,1,N,1","+0026,1","+0009,1","10208,1","00,1","0,1,03,1",,"05,99,1,05,1,99,9,02250,1,99,9,99,9","99999,9,10200,1","7,1,015,1,+999,9","+016,9","SYN106AAXX  13031 02795 47870 51501 10026 20009 30200 40208 57015 70000 85/// 90239 222// 00016 555 789// 0/603;",
"02795099999","2010-04-13T09:00:00","4","60.1","24.9833333","6.4","HELSINKI HARMAJA, FI","FM-12","99999","V020","200,1,N,0030,1","99999,9,9,N","016000,1,N,1","+0030,1","+0013,1","10197,1","00,1","0,1,03,1",,"05,99,1,05,1,99,9,99999,9,99,9,99,9","99999,9,10189,1","7,1,003,1,+999,9","+019,9","SYN106AAXX  13091 02795 47966 52003 10030 20013 30189 40197 57003 70000 85/// 90839 222// 00019 555 789// 0/303;",
"02795099999","2010-04-13T12:00:00","4","60.1","24.9833333","6.4","HELSINKI HARMAJA, FI","FM-12","99999","V020","230,1,N,0020,1","22000,1,9,N","023000,1,N,1","+0042,1","+0014,1","10192,1","00,1","0,1,06,1",,"01,99,1,01,1,99,9,99999,9,99,9,99,9","99999,9,10183,1","7,1,006,1,+999,9","+020,9","SYN106AAXX  13121 02795 47973 12302 10042 20014 30183 40192 57006 70000 81/// 91139 222// 00020 555 782// 0/505;",
"02795099999","2010-04-13T15:00:00","4","60.1","24.9833333","6.4","HELSINKI HARMAJA, FI","FM-12","99999","V020","220,1,N,0040,1","22000,1,9,N","021000,1,N,1","+0044,1","+0020,1","10183,1","81,1","8,1,03,1",,"03,99,1,01,1,99,9,01750,1,99,9,99,9","99999,9,10175,1","7,1,008,1,+999,9","+021,9","SYN106AAXX  13151 02795 47771 32204 10044 20020 30175 40183 57008 78185 81/// 91439 222// 00021 555 784// 0/004;",
"02795099999","2010-04-13T21:00:00","4","60.1","24.9833333","6.4","HELSINKI HARMAJA, FI","FM-12","99999","V020","290,1,N,0020,1","22000,1,9,N","019000,1,N,1","+0055,1","+0022,1","10183,1","00,1","0,1,03,1","00,1,+99999,9,99,9","00,99,1,00,1,00,1,99999,9,00,1,00,1","99999,9,10175,1","4,1,000,1,+999,9","+018,9","SYN100AAXX  13211 02795 47969 02902 10055 20022 30175 40183 54001 70000 92039 222// 00018 555 779// 0/605;",
"02795099999","2010-04-14T00:00:00","4","60.1","24.9833333","6.4","HELSINKI HARMAJA, FI","FM-12","99999","V020","340,1,N,0040,1","22000,1,9,N","050000,1,N,1","+0036,1","+0007,1","10184,1","00,1","0,1,06,1","00,1,+99999,9,99,9","00,99,1,00,1,00,1,99999,9,00,1,00,1","99999,9,10176,1","4,1,000,1,+999,9","+019,9","SYN100AAXX  14001 02795 47999 03404 10036 20007 30176 40184 54001 70000 92339 222// 00019 555 781// 0/205;",
"02795099999","2010-04-14T03:00:00","4","60.1","24.9833333","6.4","HELSINKI HARMAJA, FI","FM-12","99999","V020","350,1,N,0030,1","99999,9,9,N","050000,1,N,1","+0029,1","+0002,1","10185,1","00,1","0,1,03,1",,"05,99,1,05,1,99,9,02250,1,99,9,99,9","99999,9,10177,1","4,1,000,1,+999,9","+018,9","SYN106AAXX  14031 02795 47899 53503 10029 20002 30177 40185 54001 70000 85/// 90239 222// 00018 555 782// 0/604;",
"02795099999","2010-04-14T09:00:00","4","60.1","24.9833333","6.4","HELSINKI HARMAJA, FI","FM-12","99999","V020","010,1,N,0030,1","22000,1,9,N","040000,1,N,1","+0067,1","+0005,1","10193,1","00,1","0,1,03,1","00,1,+99999,9,99,9","00,99,1,00,1,00,1,99999,9,00,1,00,1","99999,9,10185,1","2,1,002,1,+999,9","+018,9","SYN100AAXX  14091 02795 47982 00103 10067 20005 30185 40193 52002 70000 90839 222// 00018 555 765// 0/604;",
"02795099999","2010-04-14T12:00:00","4","60.1","24.9833333","6.4","HELSINKI HARMAJA, FI","FM-12","99999","V020","210,1,N,0030,1","22000,1,9,N","040000,1,N,1","+0067,1","+0003,1","10191,1","00,1","0,1,06,1",,"03,99,1,03,1,99,9,01750,1,99,9,99,9","99999,9,10183,1","7,1,002,1,+999,9","+019,9","SYN106AAXX  14121 02795 47782 32103 10067 20003 30183 40191 57002 70000 83/// 91139 222// 00019 555 764// 0/504;",
"02795099999","2010-04-14T15:00:00","4","60.1","24.9833333","6.4","HELSINKI HARMAJA, FI","FM-12","99999","V020","230,1,N,0040,1","99999,9,9,N","045000,1,N,1","+0054,1","+0010,1","10187,1","00,1","0,1,03,1",,"07,99,1,07,1,99,9,01750,1,99,9,99,9","99999,9,10179,1","7,1,004,1,+999,9","+021,9","SYN106AAXX  14151 02795 47783 72304 10054 20010 30179 40187 57004 70000 87/// 91439 222// 00021 555 773// 0/206;",
"02795099999","2010-04-14T21:00:00","4","60.1","24.9833333","6.4","HELSINKI HARMAJA, FI","FM-12","99999","V020","999,9,C,0000,1","22000,1,9,N","050000,1,N,1","+0018,1","-0002,1","10191,1","00,1","0,1,03,1","00,1,+99999,9,99,9","00,99,1,00,1,00,1,99999,9,00,1,00,1","99999,9,10183,1","2,1,004,1,+999,9","+025,9","SYN100AAXX  14211 02795 47999 00000 10018 21002 30183 40191 52004 70000 92039 222// 00025 555 787// 0/502;",
"02795099999","2010-04-15T00:00:00","4","60.1","24.9833333","6.4","HELSINKI HARMAJA, FI","FM-12","99999","V020","280,1,N,0030,1","22000,1,9,N","035000,1,N,1","+0011,1","-0001,1","10188,1","00,1","0,1,06,1","00,1,+99999,9,99,9","00,99,1,00,1,00,1,99999,9,00,1,00,1","99999,9,10180,1","7,1,003,1,+999,9","+025,9","SYN100AAXX  15001 02795 47981 02803 10011 21001 30180 40188 57003 70000 92339 222// 00025 555 792// 0/004;",
"02795099999","2010-04-15T03:00:00","4","60.1","24.9833333","6.4","HELSINKI HARMAJA, FI","FM-12","99999","V020","340,1,N,0010,1","22000,1,9,N","035000,1,N,1","+0004,1","-0008,1","10180,1","00,1","0,1,03,1","00,1,+99999,9,99,9","00,99,1,00,1,00,1,99999,9,00,1,00,1","99999,9,10172,1","7,1,008,1,+999,9","+024,9","SYN100AAXX  15031 02795 47981 03401 10004 21008 30172 40180 57008 70000 90239 222// 00024 555 792// 0/603;",
"02795099999","2010-04-15T09:00:00","4","60.1","24.9833333","6.4","HELSINKI HARMAJA, FI","FM-12","99999","V020","210,1,N,0030,1","22000,1,9,N","045000,1,N,1","+0040,1","+0005,1","10166,1","00,1","0,1,03,1","00,1,+99999,9,99,9","00,99,1,00,1,00,1,99999,9,00,1,00,1","99999,9,10158,1","7,1,007,1,+999,9","+020,9","SYN100AAXX  15091 02795 47983 02103 10040 20005 30158 40166 57007 70000 90839 222// 00020 555 778// 0/003;",
"02795099999","2010-04-15T12:00:00","4","60.1","24.9833333","6.4","HELSINKI HARMAJA, FI","FM-12","99999","V020","220,1,N,0070,1","22000,1,9,N","035000,1,N,1","+0032,1","+0011,1","10155,1","51,1","5,1,06,1",,"01,99,1,01,1,99,9,00450,1,99,9,99,9","99999,9,10147,1","7,1,010,1,+999,9","+020,9","SYN106AAXX  15121 02795 47481 12207 10032 20011 30147 40155 57010 75154 81/// 91139 222// 00020 555 786// 0/208;",
"02795099999","2010-04-15T15:00:00","4","60.1","24.9833333","6.4","HELSINKI HARMAJA, FI","FM-12","99999","V020","230,1,N,0080,1","22000,1,9,N","050000,1,N,1","+0036,1","+0004,1","10137,1","00,1","8,1,03,1",,"01,99,1,01,1,99,9,01750,1,99,9,99,9","99999,9,10129,1","7,1,018,1,+999,9","+026,9","SYN106AAXX  15151 02795 47799 12308 10036 20004 30129 40137 57018 70085 81/// 91439 222// 00026 555 779// 0/008;",
"02795099999","2010-04-15T21:00:00","4","60.1","24.9833333","6.4","HELSINKI HARMAJA, FI","FM-12","99999","V020","230,1,N,0040,1","22000,1,9,N","050000,1,N,1","+0027,1","+0012,1","10101,1","00,1","0,1,03,1",,"01,99,1,01,1,99,9,02250,1,99,9,99,9","99999,9,10093,1","7,1,018,1,+999,9","+021,9","SYN106AAXX  15211 02795 47899 12304 10027 20012 30093 40101 57018 70000 81/// 92039 222// 00021 555 790// 0/607;",
"02795099999","2010-04-16T00:00:00","4","60.1","24.9833333","6.4","HELSINKI HARMAJA, FI","FM-12","99999","V020","210,1,N,0040,1","22000,1,9,N","050000,1,N,1","+0027,1","+0013,1","10087,1","22,1","8,1,06,1",,"01,99,1,01,1,99,9,01750,1,99,9,99,9","99999,9,10079,1","7,1,015,1,+999,9","+021,9","SYN106AAXX  16001 02795 47799 12104 10027 20013 30079 40087 57015 72285 81/// 92339 222// 00021 555 791// 0/205;",
"02795099999","2010-04-16T03:00:00","4","60.1","24.9833333","6.4","HELSINKI HARMAJA, FI","FM-12","99999","V020","200,1,N,0050,1","99999,9,9,N","020000,1,N,1","+0027,1","+0005,1","10066,1","52,1","6,1,03,1",,"05,99,1,05,1,99,9,00450,1,99,9,99,9","99999,9,10058,1","7,1,021,1,+999,9","+021,9","SYN106AAXX  16031 02795 47470 52005 10027 20005 30058 40066 57021 75265 85/// 90239 222// 00021 555 785// 0/006;",
"02795099999","2010-04-16T09:00:00","4","60.1","24.9833333","6.4","HELSINKI HARMAJA, FI","FM-12","99999","V020","250,1,N,0030,1","22000,1,9,N","040000,1,N,1","+0035,1","+0014,1","10050,1","00,1","3,1,03,1","00,1,+99999,9,99,9","00,99,1,00,1,00,1,99999,9,00,1,00,1","99999,9,10042,1","7,1,005,1,+999,9","+022,9","SYN100AAXX  16091 02795 47982 02503 10035 20014 30042 40050 57005 70020 90839 222// 00022 555 786// 0/003;",
"02795099999","2010-04-16T12:00:00","4","60.1","24.9833333","6.4","HELSINKI HARMAJA, FI","FM-12","99999","V020","060,1,N,0020,1","99999,9,9,N","014000,1,N,1","+0033,1","+0016,1","10052,1","61,1","6,1,06,1",,"08,99,1,08,1,99,9,00800,1,99,9,99,9","99999,9,10044,1","2,1,003,1,+999,9","+023,9","SYN106AAXX  16121 02795 47564 80602 10033 20016 30044 40052 52003 76165 88/// 91139 222// 00023 555 789// 0/604;",
"02795099999","2010-04-16T15:00:00","4","60.1","24.9833333","6.4","HELSINKI HARMAJA, FI","FM-12","99999","V020","010,1,N,0010,1","99999,9,9,N","015000,1,N,1","+0033,1","+0012,1","10050,1","52,1","8,1,03,1",,"07,99,1,07,1,99,9,01250,1,99,9,99,9","99999,9,10042,1","7,1,003,1,+999,9","+024,9","SYN106AAXX  16151 02795 47665 70101 10033 20012 30042 40050 57003 75286 87/// 91439 222// 00024 555 786// 0/302;",
"02795099999","2010-04-16T21:00:00","4","60.1","24.9833333","6.4","HELSINKI HARMAJA, FI","FM-12","99999","V020","300,1,N,0070,1","22000,1,9,N","050000,1,N,1","+0032,1","-0010,1","10063,1","00,1","5,1,03,1","00,1,+99999,9,99,9","00,99,1,00,1,00,1,99999,9,00,1,00,1","99999,9,10055,1","2,1,005,1,+999,9","+024,9","SYN100AAXX  16211 02795 47999 03007 10032 21010 30055 40063 52005 70052 92039 222// 00024 555 774// 0/007;",
"02795099999","2010-04-17T00:00:00","4","60.1","24.9833333","6.4","HELSINKI HARMAJA, FI","FM-12","99999","V020","300,1,N,0060,1","22000,1,9,N","050000,1,N,1","+0014,1","-0029,1","10071,1","00,1","5,1,06,1","00,1,+99999,9,99,9","00,99,1,00,1,00,1,99999,9,00,1,00,1","99999,9,10063,1","2,1,008,1,+999,9","+023,9","SYN100AAXX  17001 02795 47999 03006 10014 21029 30063 40071 52008 70052 92339 222// 00023 555 773// 0/507;",
"02795099999","2010-04-17T03:00:00","4","60.1","24.9833333","6.4","HELSINKI HARMAJA, FI","FM-12","99999","V020","290,1,N,0050,1","22000,1,9,N","050000,1,N,1","+0004,1","-0038,1","10078,1","00,1","0,1,03,1","00,1,+99999,9,99,9","00,99,1,00,1,00,1,99999,9,00,1,00,1","99999,9,10070,1","2,1,007,1,+999,9","+021,9","SYN100AAXX  17031 02795 47999 02905 10004 21038 30070 40078 52007 70000 90239 222// 00021 555 773// 0/507;",
"02795099999","2010-04-17T09:00:00","4","60.1","24.9833333","6.4","HELSINKI HARMAJA, FI","FM-12","99999","V020","210,1,N,0070,1","22000,1,9,N","030000,1,N,1","+9999,9","+9999,9","99999,9","00,1","0,1,03,1","00,1,+99999,9,99,9","00,99,1,00,1,00,1,99999,9,00,1,00,1","99999,9,10065,1","7,1,007,1,+999,9","+019,9","SYN094AAXX  17091 02795 47980 02107 1//// 2//// 30065 57007 70000 90839 222// 00019 555 781// 0/007;",
"02795099999","2010-04-17T12:00:00","4","60.1","24.9833333","6.4","HELSINKI HARMAJA, FI","FM-12","99999","V020","200,1,N,0060,1","22000,1,9,N","045000,1,N,1","+0043,1","-0015,1","10051,1","00,1","0,1,06,1","00,1,+99999,9,99,9","00,99,1,00,1,00,1,99999,9,00,1,00,1","99999,9,10043,1","7,1,022,1,+999,9","+025,9","SYN100AAXX  17121 02795 47983 02006 10043 21015 30043 40051 57022 70000 91139 222// 00025 555 766// 0/607;",
"02795099999","2010-04-17T15:00:00","4","60.1","24.9833333","6.4","HELSINKI HARMAJA, FI","FM-12","99999","V020","230,1,N,0100,1","22000,1,9,N","050000,1,N,1","+0046,1","-0021,1","10026,1","00,1","0,1,03,1","00,1,+99999,9,99,9","00,99,1,00,1,00,1,99999,9,00,1,00,1","99999,9,10018,1","7,1,025,1,+999,9","+026,9","SYN100AAXX  17151 02795 47999 02310 10046 21021 30018 40026 57025 70000 91439 222// 00026 555 762// 0/010;",
"02795099999","2010-04-17T21:00:00","4","60.1","24.9833333","6.4","HELSINKI HARMAJA, FI","FM-12","99999","V020","200,1,N,0090,1","99999,9,9,N","008000,1,N,1","+0034,1","+0007,1","09971,1","81,1","8,1,03,1",,"07,99,1,07,1,99,9,00800,1,99,9,99,9","99999,9,09963,1","7,1,025,1,+999,9","+022,9","SYN106AAXX  17211 02795 47558 72009 10034 20007 39963 49971 57025 78186 87/// 92039 222// 00022 555 783// 0/212;",
"02795099999","2010-04-18T00:00:00","4","60.1","24.9833333","6.4","HELSINKI HARMAJA, FI","FM-12","99999","V020","220,1,N,0110,1","99999,9,9,N","007000,1,N,1","+0033,1","+0008,1","09938,1","61,1","8,1,06,1",,"07,99,1,07,1,99,9,00450,1,99,9,99,9","99999,9,09930,1","7,1,033,1,+999,9","+022,9","SYN106AAXX  18001 02795 47457 72211 10033 20008 39930 49938 57033 76186 87/// 92339 222// 00022 555 784// 0/213;",
"02795099999","2010-04-18T03:00:00","4","60.1","24.9833333","6.4","HELSINKI HARMAJA, FI","FM-12","99999","V020","240,1,N,0090,1","99999,9,9,N","006000,1,N,1","+0023,1","+0002,1","09935,1","81,1","8,1,03,1",,"08,99,1,08,1,99,9,00150,1,99,9,99,9","99999,9,09927,1","7,1,003,1,+999,9","+022,9","SYN106AAXX  18031 02795 47256 82409 10023 20002 39927 49935 57003 78186 88/// 90239 222// 00022 555 786// 0/613;",
"02795099999","2010-04-18T09:00:00","4","60.1","24.9833333","6.4","HELSINKI HARMAJA, FI","FM-12","99999","V020","260,1,N,0100,1","22000,1,9,N","045000,1,N,1","+0037,1","-0025,1","09982,1","00,1","0,1,03,1",,"03,99,1,03,1,99,9,00800,1,99,9,99,9","99999,9,09975,1","2,1,033,1,+999,9","+023,9","SYN106AAXX  18091 02795 47583 32610 10037 21025 39975 49982 52033 70000 83/// 90839 222// 00023 555 764// 0/512;",
"02795099999","2010-04-18T12:00:00","4","60.1","24.9833333","6.4","HELSINKI HARMAJA, FI","FM-12","99999","V020","240,1,N,0100,1","22000,1,9,N","035000,1,N,1","+0036,1","-0023,1","10013,1","00,1","0,1,06,1",,"01,99,1,01,1,99,9,01250,1,99,9,99,9","99999,9,10005,1","2,1,031,1,+999,9","+024,9","SYN106AAXX  18121 02795 47681 12410 10036 21023 30005 40013 52031 70000 81/// 91139 222// 00024 555 765// 0/211;",
"02795099999","2010-04-18T15:00:00","4","60.1","24.9833333","6.4","HELSINKI HARMAJA, FI","FM-12","99999","V020","240,1,N,0100,1","22000,1,9,N","040000,1,N,1","+0036,1","-0027,1","10036,1","00,1","0,1,03,1","00,1,+99999,9,99,9","00,99,1,00,1,00,1,99999,9,00,1,00,1","99999,9,10028,1","2,1,022,1,+999,9","+023,9","SYN100AAXX  18151 02795 47982 02410 10036 21027 30028 40036 52022 70000 91439 222// 00023 555 763// 0/313;",
"02795099999","2010-04-18T21:00:00","4","60.1","24.9833333","6.4","HELSINKI HARMAJA, FI","FM-12","99999","V020","240,1,N,0050,1","22000,1,9,N","050000,1,N,1","+0017,1","-0024,1","10059,1","00,1","0,1,03,1","00,1,+99999,9,99,9","00,99,1,00,1,00,1,99999,9,00,1,00,1","99999,9,10051,1","2,1,009,1,+999,9","+021,9","SYN100AAXX  18211 02795 47999 02405 10017 21024 30051 40059 52009 70000 92039 222// 00021 555 774// 0/608;",
"02795099999","2010-04-19T00:00:00","4","60.1","24.9833333","6.4","HELSINKI HARMAJA, FI","FM-12","99999","V020","240,1,N,0040,1","22000,1,9,N","050000,1,N,1","+0012,1","-0022,1","10060,1","00,1","0,1,06,1","00,1,+99999,9,99,9","00,99,1,00,1,00,1,99999,9,00,1,00,1","99999,9,10052,1","4,1,000,1,+999,9","+019,9","SYN100AAXX  19001 02795 47999 02404 10012 21022 30052 40060 54001 70000 92339 222// 00019 555 778// 0/607;",
"02795099999","2010-04-19T03:00:00","4","60.1","24.9833333","6.4","HELSINKI HARMAJA, FI","FM-12","99999","V020","270,1,N,0020,1","22000,1,9,N","050000,1,N,1","+0012,1","-0021,1","10059,1","00,1","0,1,03,1","00,1,+99999,9,99,9","00,99,1,00,1,00,1,99999,9,00,1,00,1","99999,9,10051,1","4,1,000,1,+999,9","+019,9","SYN100AAXX  19031 02795 47999 02702 10012 21021 30051 40059 54001 70000 90239 222// 00019 555 779// 0/604;",
"02795099999","2010-04-19T09:00:00","4","60.1","24.9833333","6.4","HELSINKI HARMAJA, FI","FM-12","99999","V020","210,1,N,0020,1","99999,9,9,N","010000,1,N,1","+0031,1","+0004,1","10077,1","00,1","8,1,03,1",,"05,99,1,05,1,99,9,00075,1,99,9,99,9","99999,9,10069,1","2,1,013,1,+999,9","+021,9","SYN106AAXX  19091 02795 47160 52102 10031 20004 30069 40077 52013 70085 85/// 90839 222// 00021 555 783// 0/103;",
"02795099999","2010-04-19T12:00:00","4","60.1","24.9833333","6.4","HELSINKI HARMAJA, FI","FM-12","99999","V020","220,1,N,0060,1","00060,1,9,N","000700,1,N,1","+0010,1","-0011,1","10084,1","34,1","8,1,06,1","09,1,+99999,9,99,9","09,99,1,09,1,99,9,99999,9,99,9,99,9","99999,9,10076,1","2,1,008,1,+999,9","+022,9","SYN100AAXX  19121 02795 47/07 92206 10010 21011 30076 40084 52008 73485 91139 222// 00022 555 786// 0/006;",
"02795099999","2010-04-19T15:00:00","4","60.1","24.9833333","6.4","HELSINKI HARMAJA, FI","FM-12","99999","V020","220,1,N,0060,1","22000,1,9,N","045000,1,N,1","+0045,1","-0026,1","10085,1","00,1","4,1,03,1","00,1,+99999,9,99,9","00,99,1,00,1,00,1,99999,9,00,1,00,1","99999,9,10077,1","4,1,000,1,+999,9","+024,9","SYN100AAXX  19151 02795 47983 02206 10045 21026 30077 40085 54000 70032 91439 222// 00024 555 760// 0/509;",
"02795099999","2010-04-19T21:00:00","4","60.1","24.9833333","6.4","HELSINKI HARMAJA, FI","FM-12","99999","V020","270,1,N,0040,1","22000,1,9,N","050000,1,N,1","+0030,1","-0021,1","10113,1","00,1","0,1,03,1","00,1,+99999,9,99,9","00,99,1,00,1,00,1,99999,9,00,1,00,1","99999,9,10105,1","2,1,017,1,+999,9","+021,9","SYN100AAXX  19211 02795 47999 02704 10030 21021 30105 40113 52017 70000 92039 222// 00021 555 769// 0/607;",
"02795099999","2010-04-20T00:00:00","4","60.1","24.9833333","6.4","HELSINKI HARMAJA, FI","FM-12","99999","V020","300,1,N,0060,1","22000,1,9,N","050000,1,N,1","+0018,1","-0047,1","10121,1","00,1","0,1,06,1","00,1,+99999,9,99,9","00,99,1,00,1,00,1,99999,9,00,1,00,1","99999,9,10113,1","2,1,009,1,+999,9","+025,9","SYN100AAXX  20001 02795 47999 03006 10018 21047 30113 40121 52009 70000 92339 222// 00025 555 762// 0/107;",
"02795099999","2010-04-20T03:00:00","4","60.1","24.9833333","6.4","HELSINKI HARMAJA, FI","FM-12","99999","V020","300,1,N,0030,1","22000,1,9,N","050000,1,N,1","+0005,1","-0064,1","10129,1","00,1","0,1,03,1",,"01,99,1,01,1,99,9,99999,9,99,9,99,9","99999,9,10121,1","2,1,008,1,+999,9","+022,9","SYN106AAXX  20031 02795 47999 13003 10005 21064 30121 40129 52008 70000 81/// 90239 222// 00022 555 760// 0/606;",
"02795099999","2010-04-20T09:00:00","4","60.1","24.9833333","6.4","HELSINKI HARMAJA, FI","FM-12","99999","V020","210,1,N,0040,1","22000,1,9,N","050000,1,N,1","+0037,1","-0021,1","10146,1","00,1","0,1,03,1","00,1,+99999,9,99,9","00,99,1,00,1,00,1,99999,9,00,1,00,1","99999,9,10138,1","2,1,007,1,+999,9","+021,9","SYN100AAXX  20091 02795 47999 02104 10037 21021 30138 40146 52007 70000 90839 222// 00021 555 766// 0/004;",
"02795099999","2010-04-20T12:00:00","4","60.1","24.9833333","6.4","HELSINKI HARMAJA, FI","FM-12","99999","V020","220,1,N,0070,1","22000,1,9,N","040000,1,N,1","+0044,1","-0033,1","10146,1","00,1","0,1,06,1","00,1,+99999,9,99,9","00,99,1,00,1,00,1,99999,9,00,1,00,1","99999,9,10138,1","4,1,000,1,+999,9","+027,9","SYN100AAXX  20121 02795 47982 02207 10044 21033 30138 40146 54000 70000 91139 222// 00027 555 757// 0/007;",
"02795099999","2010-04-20T15:00:00","4","60.1","24.9833333","6.4","HELSINKI HARMAJA, FI","FM-12","99999","V020","220,1,N,0060,1","22000,1,9,N","050000,1,N,1","+0049,1","-0043,1","10140,1","00,1","0,1,03,1","00,1,+99999,9,99,9","00,99,1,00,1,00,1,99999,9,00,1,00,1","99999,9,10132,1","7,1,006,1,+999,9","+027,9","SYN100AAXX  20151 02795 47999 02206 10049 21043 30132 40140 57006 70000 91439 222// 00027 555 751// 0/507;",
"02795099999","2010-04-20T21:00:00","4","60.1","24.9833333","6.4","HELSINKI HARMAJA, FI","FM-12","99999","V020","040,1,N,0010,1","22000,1,9,N","050000,1,N,1","+0014,1","-0021,1","10137,1","00,1","0,1,03,1","00,1,+99999,9,99,9","00,99,1,00,1,00,1,99999,9,00,1,00,1","99999,9,10129,1","4,1,000,1,+999,9","+023,9","SYN100AAXX  20211 02795 47999 00401 10014 21021 30129 40137 54001 70000 92039 222// 00023 555 777// 0/604;",
"02795099999","2010-04-21T00:00:00","4","60.1","24.9833333","6.4","HELSINKI HARMAJA, FI","FM-12","99999","V020","070,1,N,0020,1","22000,1,9,N","050000,1,N,1","+0017,1","-0012,1","10133,1","00,1","0,1,06,1","00,1,+99999,9,99,9","00,99,1,00,1,00,1,99999,9,00,1,00,1","99999,9,10125,1","7,1,005,1,+999,9","+023,9","SYN100AAXX  21001 02795 47999 00702 10017 21012 30125 40133 57005 70000 92339 222// 00023 555 781// 0/303;",
"02795099999","2010-04-21T03:00:00","4","60.1","24.9833333","6.4","HELSINKI HARMAJA, FI","FM-12","99999","V020","070,1,N,0030,1","22000,1,9,N","050000,1,N,1","+0011,1","-0027,1","10121,1","00,1","0,1,03,1","00,1,+99999,9,99,9","00,99,1,00,1,00,1,99999,9,00,1,00,1","99999,9,10113,1","7,1,012,1,+999,9","+021,9","SYN100AAXX  21031 02795 47999 00703 10011 21027 30113 40121 57012 70000 90239 222// 00021 555 776// 0/003;",
"02795099999","2010-04-21T09:00:00","4","60.1","24.9833333","6.4","HELSINKI HARMAJA, FI","FM-12","99999","V020","080,1,N,0100,1","99999,9,9,N","030000,1,N,1","+0034,1","-0033,1","10092,1","00,1","0,1,03,1",,"05,99,1,05,1,99,9,02250,1,99,9,99,9","99999,9,10084,1","7,1,014,1,+999,9","+024,9","SYN106AAXX  21091 02795 47880 50810 10034 21033 30084 40092 57014 70000 85/// 90839 222// 00024 555 762// 0/010;",
"02795099999","2010-04-21T12:00:00","4","60.1","24.9833333","6.4","HELSINKI HARMAJA, FI","FM-12","99999","V020","080,1,N,0100,1","22000,1,9,N","029000,1,N,1","+0042,1","-0031,1","10077,1","00,1","0,1,06,1","00,1,+99999,9,99,9","00,99,1,00,1,00,1,99999,9,00,1,00,1","99999,9,10069,1","7,1,014,1,+999,9","+027,9","SYN100AAXX  21121 02795 47979 00810 10042 21031 30069 40077 57014 70000 91139 222// 00027 555 759// 0/511;",
"02795099999","2010-04-21T15:00:00","4","60.1","24.9833333","6.4","HELSINKI HARMAJA, FI","FM-12","99999","V020","080,1,N,0090,1","22000,1,9,N","030000,1,N,1","+0039,1","-0019,1","10057,1","00,1","0,1,03,1",,"01,99,1,01,1,99,9,02250,1,99,9,99,9","99999,9,10049,1","7,1,020,1,+999,9","+027,9","SYN106AAXX  21151 02795 47880 10809 10039 21019 30049 40057 57020 70000 81/// 91439 222// 00027 555 766// 0/611;",
"02795099999","2010-04-21T21:00:00","4","60.1","24.9833333","6.4","HELSINKI HARMAJA, FI","FM-12","99999","V020","100,1,N,0090,1","99999,9,9,N","011000,1,N,1","+0036,1","-0019,1","10040,1","81,1","8,1,03,1",,"07,99,1,07,1,99,9,00800,1,99,9,99,9","99999,9,10032,1","7,1,008,1,+999,9","+023,9","SYN106AAXX  21211 02795 47561 71009 10036 21019 30032 40040 57008 78185 87/// 92039 222// 00023 555 767// 0/510;",
"02795099999","2010-04-22T00:00:00","4","60.1","24.9833333","6.4","HELSINKI HARMAJA, FI","FM-12","99999","V020","080,1,N,0020,1","99999,9,9,N","040000,1,N,1","+0025,1","-0009,1","10024,1","23,1","8,1,06,1",,"08,99,1,08,1,99,9,00450,1,99,9,99,9","99999,9,10016,1","7,1,016,1,+999,9","+022,9","SYN106AAXX  22001 02795 47482 80802 10025 21009 30016 40024 57016 72386 88/// 92339 222// 00022 555 778// 0/609;",
"02795099999","2010-04-22T03:00:00","4","60.1","24.9833333","6.4","HELSINKI HARMAJA, FI","FM-12","99999","V020","060,1,N,0040,1","99999,9,9,N","011000,1,N,1","+0023,1","-0012,1","10006,1","61,1","6,1,03,1",,"07,99,1,07,1,99,9,00450,1,99,9,99,9","99999,9,09998,1","7,1,018,1,+999,9","+021,9","SYN106AAXX  22031 02795 47461 70604 10023 21012 39998 40006 57018 76165 87/// 90239 222// 00021 555 778// 0/405;",
"02795099999","2010-04-22T09:00:00","4","60.1","24.9833333","6.4","HELSINKI HARMAJA, FI","FM-12","99999","V020","140,1,N,0020,1","99999,9,9,N","012000,1,N,1","+0014,1","-0013,1","10002,1","67,1","7,1,03,1",,"07,99,1,07,1,99,9,00150,1,99,9,99,9","99999,9,09994,1","4,1,000,1,+999,9","+022,9","SYN106AAXX  22091 02795 47262 71402 10014 21013 39994 40002 54002 76776 87/// 90839 222// 00022 555 782// 0/203;",
"02795099999","2010-04-22T12:00:00","4","60.1","24.9833333","6.4","HELSINKI HARMAJA, FI","FM-12","99999","V020","270,1,N,0040,1","99999,9,9,N","012000,1,N,1","+0014,1","-0013,1","10005,1","81,1","8,1,06,1",,"08,99,1,08,1,99,9,00800,1,99,9,99,9","99999,9,09997,1","2,1,003,1,+999,9","+022,9","SYN106AAXX  22121 02795 47562 82704 10014 21013 39997 40005 52003 78187 88/// 91139 222// 00022 555 782// 0/005;",
"02795099999","2010-04-22T15:00:00","4","60.1","24.9833333","6.4","HELSINKI HARMAJA, FI","FM-12","99999","V020","330,1,N,0020,1","99999,9,9,N","010000,1,N,1","+0021,1","-0006,1","10009,1","52,1","8,1,03,1",,"08,99,1,08,1,99,9,00250,1,99,9,99,9","99999,9,10001,1","2,1,004,1,+999,9","+022,9","SYN106AAXX  22151 02795 47360 83302 10021 21006 30001 40009 52004 75286 88/// 91439 222// 00022 555 783// 0/604;",
"02795099999","2010-04-22T21:00:00","4","60.1","24.9833333","6.4","HELSINKI HARMAJA, FI","FM-12","99999","V020","240,1,N,0030,1","99999,9,9,N","001900,1,N,1","+0017,1","-0006,1","10001,1","22,1","8,1,03,1",,"07,99,1,07,1,99,9,00025,1,99,9,99,9","99999,9,09993,1","7,1,008,1,+999,9","+022,9","SYN106AAXX  22211 02795 47019 72403 10017 21006 39993 40001 57008 72285 87/// 92039 222// 00022 555 785// 0/604;",
"02795099999","2010-04-23T00:00:00","4","60.1","24.9833333","6.4","HELSINKI HARMAJA, FI","FM-12","99999","V020","250,1,N,0030,1","00120,1,9,N","001400,1,N,1","+0016,1","-0005,1","09997,1","22,1","8,1,06,1","09,1,+99999,9,99,9","09,99,1,09,1,99,9,99999,9,99,9,99,9","99999,9,09989,1","7,1,004,1,+999,9","+022,9","SYN100AAXX  23001 02795 47114 92503 10016 21005 39989 49997 57004 72285 92339 222// 00022 555 786// 0/405;",
"02795099999","2010-04-23T03:00:00","4","60.1","24.9833333","6.4","HELSINKI HARMAJA, FI","FM-12","99999","V020","280,1,N,0050,1","99999,9,9,N","040000,1,N,1","+0020,1","-0006,1","09991,1","81,1","8,1,03,1",,"08,99,1,08,1,99,9,00150,1,99,9,99,9","99999,9,09983,1","7,1,006,1,+999,9","+022,9","SYN106AAXX  23031 02795 47282 82805 10020 21006 39983 49991 57006 78184 88/// 90239 222// 00022 555 783// 0/005;",
"02795099999","2010-04-23T09:00:00","4","60.1","24.9833333","6.4","HELSINKI HARMAJA, FI","FM-12","99999","V020","250,1,N,0020,1","22000,1,9,N","035000,1,N,1","+0027,1","-0002,1","10010,1","23,1","8,1,03,1",,"01,99,1,01,1,99,9,00150,1,99,9,99,9","99999,9,10002,1","2,1,014,1,+999,9","+026,9","SYN106AAXX  23091 02795 47281 12502 10027 21002 30002 40010 52014 72386 81/// 90839 222// 00026 555 781// 0/205;",
"02795099999","2010-04-23T12:00:00","4","60.1","24.9833333","6.4","HELSINKI HARMAJA, FI","FM-12","99999","V020","260,1,N,0060,1","22000,1,9,N","050000,1,N,1","+0043,1","-0006,1","10021,1","23,1","8,1,06,1","00,1,+99999,9,99,9","00,99,1,00,1,00,1,99999,9,00,1,00,1","99999,9,10014,1","2,1,011,1,+999,9","+026,9","SYN100AAXX  23121 02795 47999 02606 10043 21006 30014 40021 52011 72386 91139 222// 00026 555 770// 0/408;",
"02795099999","2010-04-23T15:00:00","4","60.1","24.9833333","6.4","HELSINKI HARMAJA, FI","FM-12","99999","V020","220,1,N,0060,1","22000,1,9,N","045000,1,N,1","+0039,1","-0005,1","10032,1","00,1","8,1,03,1","00,1,+99999,9,99,9","00,99,1,00,1,00,1,99999,9,00,1,00,1","99999,9,10024,1","2,1,010,1,+999,9","+027,9","SYN100AAXX  23151 02795 47983 02206 10039 21005 30024 40032 52010 70085 91439 222// 00027 555 773// 0/507;",
"02795099999","2010-04-23T21:00:00","4","60.1","24.9833333","6.4","HELSINKI HARMAJA, FI","FM-12","99999","V020","260,1,N,0060,1","99999,9,9,N","030000,1,N,1","+0019,1","-0011,1","10052,1","81,1","8,1,03,1",,"05,99,1,05,1,99,9,00800,1,99,9,99,9","99999,9,10044,1","2,1,006,1,+999,9","+026,9","SYN106AAXX  23211 02795 47580 52606 10019 21011 30044 40052 52006 78182 85/// 92039 222// 00026 555 781// 0/207;",
"02795099999","2010-04-24T00:00:00","4","60.1","24.9833333","6.4","HELSINKI HARMAJA, FI","FM-12","99999","V020","270,1,N,0050,1","22000,1,9,N","050000,1,N,1","+0013,1","-0021,1","10057,1","00,1","8,1,06,1","00,1,+99999,9,99,9","00,99,1,00,1,00,1,99999,9,00,1,00,1","99999,9,10049,1","2,1,005,1,+999,9","+025,9","SYN100AAXX  24001 02795 47999 02705 10013 21021 30049 40057 52005 70082 92339 222// 00025 555 778// 0/306;",
"02795099999","2010-04-24T03:00:00","4","60.1","24.9833333","6.4","HELSINKI HARMAJA, FI","FM-12","99999","V020","280,1,N,0030,1","22000,1,9,N","045000,1,N,1","+0005,1","-0025,1","10067,1","00,1","0,1,03,1","00,1,+99999,9,99,9","00,99,1,00,1,00,1,99999,9,00,1,00,1","99999,9,10058,1","2,1,010,1,+999,9","+024,9","SYN100AAXX  24031 02795 47983 02803 10005 21025 30058 40067 52010 70000 90239 222// 00024 555 780// 0/605;",
"02795099999","2010-04-24T09:00:00","4","60.1","24.9833333","6.4","HELSINKI HARMAJA, FI","FM-12","99999","V020","220,1,N,0040,1","22000,1,9,N","040000,1,N,1","+0033,1","-0013,1","10097,1","00,1","0,1,03,1",,"03,99,1,03,1,99,9,01250,1,99,9,99,9","99999,9,10089,1","2,1,015,1,+999,9","+027,9","SYN106AAXX  24091 02795 47682 32204 10033 21013 30089 40097 52015 70000 83/// 90839 222// 00027 555 772// 0/504;",
"02795099999","2010-04-24T12:00:00","4","60.1","24.9833333","6.4","HELSINKI HARMAJA, FI","FM-12","99999","V020","270,1,N,0050,1","99999,9,9,N","045000,1,N,1","+0050,1","-0031,1","10109,1","21,1","8,1,06,1",,"05,99,1,03,1,99,9,00800,1,99,9,99,9","99999,9,10102,1","2,1,013,1,+999,9","+025,9","SYN106AAXX  24121 02795 47583 52705 10050 21031 30102 40109 52013 72184 83/// 91139 222// 00025 555 756// 0/210;",
"02795099999","2010-04-24T15:00:00","4","60.1","24.9833333","6.4","HELSINKI HARMAJA, FI","FM-12","99999","V020","300,1,N,0080,1","22000,1,9,N","050000,1,N,1","+0062,1","-0045,1","10131,1","00,1","8,1,03,1",,"03,99,1,01,1,99,9,01250,1,99,9,99,9","99999,9,10123,1","2,1,022,1,+999,9","+026,9","SYN106AAXX  24151 02795 47699 33008 10062 21045 30123 40131 52022 70086 81/// 91439 222// 00026 555 746// 0/510;",
"02795099999","2010-04-24T21:00:00","4","60.1","24.9833333","6.4","HELSINKI HARMAJA, FI","FM-12","99999","V020","290,1,N,0050,1","22000,1,9,N","050000,1,N,1","+0028,1","-0051,1","10204,1","00,1","0,1,03,1","00,1,+99999,9,99,9","00,99,1,00,1,00,1,99999,9,00,1,00,1","99999,9,10196,1","2,1,033,1,+999,9","+025,9","SYN100AAXX  24211 02795 47999 02905 10028 21051 30196 40204 52033 70000 92039 222// 00025 555 756// 0/610;",
"02795099999","2010-04-25T00:00:00","4","60.1","24.9833333","6.4","HELSINKI HARMAJA, FI","FM-12","99999","V020","290,1,N,0060,1","22000,1,9,N","050000,1,N,1","+0019,1","-0047,1","10228,1","00,1","0,1,06,1",,"01,99,1,01,1,99,9,02250,1,99,9,99,9","99999,9,10220,1","2,1,024,1,+999,9","+024,9","SYN106AAXX  25001 02795 47899 12906 10019 21047 30220 40228 52024 70000 81/// 92339 222// 00024 555 761// 0/107;",
"02795099999","2010-04-25T03:00:00","4","60.1","24.9833333","6.4","HELSINKI HARMAJA, FI","FM-12","99999","V020","280,1,N,0060,1","22000,1,9,N","050000,1,N,1","+0013,1","-0053,1","10248,1","00,1","0,1,03,1","00,1,+99999,9,99,9","00,99,1,00,1,00,1,99999,9,00,1,00,1","99999,9,10240,1","2,1,019,1,+999,9","+022,9","SYN100AAXX  25031 02795 47999 02806 10013 21053 30240 40248 52019 70000 90239 222// 00022 555 761// 0/207;",
"02795099999","2010-04-25T09:00:00","4","60.1","24.9833333","6.4","HELSINKI HARMAJA, FI","FM-12","99999","V020","210,1,N,0050,1","22000,1,9,N","040000,1,N,1","+0038,1","-0003,1","10274,1","00,1","0,1,03,1","00,1,+99999,9,99,9","00,99,1,00,1,00,1,99999,9,00,1,00,1","99999,9,10266,1","2,1,009,1,+999,9","+025,9","SYN100AAXX  25091 02795 47982 02105 10038 21003 30266 40274 52009 70000 90839 222// 00025 555 774// 0/005;",
"02795099999","2010-04-25T12:00:00","4","60.1","24.9833333","6.4","HELSINKI HARMAJA, FI","FM-12","99999","V020","230,1,N,0100,1","22000,1,9,N","045000,1,N,1","+0081,1","-0038,1","10272,1","00,1","0,1,06,1","00,1,+99999,9,99,9","00,99,1,00,1,00,1,99999,9,00,1,00,1","99999,9,10264,1","4,1,000,1,+999,9","+029,9","SYN100AAXX  25121 02795 47983 02310 10081 21038 30264 40272 54002 70000 91139 222// 00029 555 743// 0/010;",
"02795099999","2010-04-25T15:00:00","4","60.1","24.9833333","6.4","HELSINKI HARMAJA, FI","FM-12","99999","V020","230,1,N,0100,1","22000,1,9,N","035000,1,N,1","+0043,1","-0007,1","10276,1","00,1","0,1,03,1",,"01,99,1,01,1,99,9,02250,1,99,9,99,9","99999,9,10268,1","2,1,003,1,+999,9","+029,9","SYN106AAXX  25151 02795 47881 12310 10043 21007 30268 40276 52003 70000 81/// 91439 222// 00029 555 770// 0/611;",
"02795099999","2010-04-25T21:00:00","4","60.1","24.9833333","6.4","HELSINKI HARMAJA, FI","FM-12","99999","V020","250,1,N,0050,1","22000,1,9,N","045000,1,N,1","+0033,1","-0008,1","10285,1","00,1","0,1,03,1","00,1,+99999,9,99,9","00,99,1,00,1,00,1,99999,9,00,1,00,1","99999,9,10277,1","2,1,009,1,+999,9","+026,9","SYN100AAXX  25211 02795 47983 02505 10033 21008 30277 40285 52009 70000 92039 222// 00026 555 774// 0/408;",
"02795099999","2010-04-26T00:00:00","4","60.1","24.9833333","6.4","HELSINKI HARMAJA, FI","FM-12","99999","V020","240,1,N,0040,1","22000,1,9,N","030000,1,N,1","+0025,1","-0008,1","10290,1","00,1","0,1,06,1","00,1,+99999,9,99,9","00,99,1,00,1,00,1,99999,9,00,1,00,1","99999,9,10282,1","2,1,005,1,+999,9","+026,9","SYN100AAXX  26001 02795 47980 02404 10025 21008 30282 40290 52005 70000 92339 222// 00026 555 779// 0/305;",
"02795099999","2010-04-26T03:00:00","4","60.1","24.9833333","6.4","HELSINKI HARMAJA, FI","FM-12","99999","V020","230,1,N,0020,1","99999,9,9,N","000700,1,N,1","+0010,1","-0012,1","10292,1","51,1","5,1,03,1",,"07,99,1,07,1,99,9,00025,1,99,9,99,9","99999,9,10284,1","2,1,002,1,+999,9","+025,9","SYN106AAXX  26031 02795 47007 72302 10010 21012 30284 40292 52002 75154 87/// 90239 222// 00025 555 785// 0/304;",
"02795099999","2010-04-26T09:00:00","4","60.1","24.9833333","6.4","HELSINKI HARMAJA, FI","FM-12","99999","V020","210,1,N,0050,1","22000,1,9,N","028000,1,N,1","+0039,1","+0006,1","10297,1","00,1","6,1,03,1","00,1,+99999,9,99,9","00,99,1,00,1,00,1,99999,9,00,1,00,1","99999,9,10289,1","4,1,000,1,+999,9","+027,9","SYN100AAXX  26091 02795 47978 02105 10039 20006 30289 40297 54001 70043 90839 222// 00027 555 779// 0/006;",
"02795099999","2010-04-26T12:00:00","4","60.1","24.9833333","6.4","HELSINKI HARMAJA, FI","FM-12","99999","V020","220,1,N,0050,1","22000,1,9,N","035000,1,N,1","+0053,1","-0007,1","10288,1","00,1","6,1,06,1","00,1,+99999,9,99,9","00,99,1,00,1,00,1,99999,9,00,1,00,1","99999,9,10280,1","7,1,008,1,+999,9","+030,9","SYN100AAXX  26121 02795 47981 02205 10053 21007 30280 40288 57008 70043 91139 222// 00030 555 765// 0/206;",
"02795099999","2010-04-26T15:00:00","4","60.1","24.9833333","6.4","HELSINKI HARMAJA, FI","FM-12","99999","V020","240,1,N,0040,1","22000,1,9,N","050000,1,N,1","+0077,1","-0035,1","10266,1","00,1","0,1,03,1","00,1,+99999,9,99,9","00,99,1,00,1,00,1,99999,9,00,1,00,1","99999,9,10258,1","7,1,022,1,+999,9","+033,9","SYN100AAXX  26151 02795 47999 02404 10077 21035 30258 40266 57022 70000 91439 222// 00033 555 745// 0/605;",
"02795099999","2010-04-26T21:00:00","4","60.1","24.9833333","6.4","HELSINKI HARMAJA, FI","FM-12","99999","V020","150,1,N,0060,1","99999,9,9,N","050000,1,N,1","+0047,1","-0008,1","10234,1","00,1","0,1,03,1",,"07,99,1,07,1,99,9,99999,9,99,9,99,9","99999,9,10225,1","7,1,015,1,+999,9","+030,9","SYN106AAXX  26211 02795 47999 71506 10047 21008 30225 40234 57015 70000 87/// 92039 222// 00030 555 768// 0/006;",
"02795099999","2010-04-27T00:00:00","4","60.1","24.9833333","6.4","HELSINKI HARMAJA, FI","FM-12","99999","V020","160,1,N,0050,1","22000,1,9,N","040000,1,N,1","+0045,1","-0013,1","10211,1","00,1","0,1,06,1",,"03,99,1,03,1,99,9,99999,9,99,9,99,9","99999,9,10203,1","7,1,023,1,+999,9","+029,9","SYN106AAXX  27001 02795 47982 31605 10045 21013 30203 40211 57023 70000 83/// 92339 222// 00029 555 766// 0/607;",
"02795099999","2010-04-27T03:00:00","4","60.1","24.9833333","6.4","HELSINKI HARMAJA, FI","FM-12","99999","V020","170,1,N,0080,1","22000,1,9,N","050000,1,N,1","+0051,1","-0015,1","10185,1","00,1","0,1,03,1",,"01,99,1,01,1,99,9,99999,9,99,9,99,9","99999,9,10177,1","7,1,026,1,+999,9","+028,9","SYN106AAXX  27031 02795 47999 11708 10051 21015 30177 40185 57026 70000 81/// 90239 222// 00028 555 762// 0/309;",
"02795099999","2010-04-27T09:00:00","4","60.1","24.9833333","6.4","HELSINKI HARMAJA, FI","FM-12","99999","V020","230,1,N,0030,1","99999,9,9,N","029000,1,N,1","+0059,1","+0001,1","10158,1","00,1","0,1,03,1",,"05,99,1,05,1,99,9,99999,9,99,9,99,9","99999,9,10150,1","7,1,011,1,+999,9","+032,9","SYN106AAXX  27091 02795 47979 52303 10059 20001 30150 40158 57011 70000 85/// 90839 222// 00032 555 766// 0/607;",
"02795099999","2010-04-27T12:00:00","4","60.1","24.9833333","6.4","HELSINKI HARMAJA, FI","FM-12","99999","V020","240,1,N,0070,1","22000,1,9,N","030000,1,N,1","+0070,1","-0002,1","10145,1","00,1","0,1,06,1",,"01,99,1,01,1,99,9,99999,9,99,9,99,9","99999,9,10137,1","7,1,013,1,+999,9","+034,9","SYN106AAXX  27121 02795 47980 12407 10070 21002 30137 40145 57013 70000 81/// 91139 222// 00034 555 760// 0/208;",
"02795099999","2010-04-27T15:00:00","4","60.1","24.9833333","6.4","HELSINKI HARMAJA, FI","FM-12","99999","V020","250,1,N,0050,1","22000,1,9,N","035000,1,N,1","+0066,1","-0002,1","10131,1","00,1","0,1,03,1",,"03,99,1,03,1,99,9,02250,1,99,9,99,9","99999,9,10123,1","7,1,014,1,+999,9","+034,9","SYN106AAXX  27151 02795 47881 32505 10066 21002 30123 40131 57014 70000 83/// 91439 222// 00034 555 762// 0/208;",
"02795099999","2010-04-27T21:00:00","4","60.1","24.9833333","6.4","HELSINKI HARMAJA, FI","FM-12","99999","V020","260,1,N,0060,1","99999,9,9,N","017000,1,N,1","+0047,1","+0012,1","10130,1","00,1","3,1,03,1",,"07,99,1,07,1,99,9,99999,9,99,9,99,9","99999,9,10122,1","2,1,006,1,+999,9","+033,9","SYN106AAXX  27211 02795 47967 72606 10047 20012 30122 40130 52006 70020 87/// 92039 222// 00033 555 778// 0/507;",
"02795099999","2010-04-28T00:00:00","4","60.1","24.9833333","6.4","HELSINKI HARMAJA, FI","FM-12","99999","V020","340,1,N,0090,1","22000,1,9,N","050000,1,N,1","+0038,1","-0015,1","10145,1","00,1","3,1,06,1",,"01,99,1,01,1,99,9,99999,9,99,9,99,9","99999,9,10137,1","2,1,015,1,+999,9","+032,9","SYN106AAXX  28001 02795 47999 13409 10038 21015 30137 40145 52015 70020 81/// 92339 222// 00032 555 768// 0/010;",
"02795099999","2010-04-28T03:00:00","4","60.1","24.9833333","6.4","HELSINKI HARMAJA, FI","FM-12","99999","V020","330,1,N,0050,1","22000,1,9,N","050000,1,N,1","+0023,1","-0029,1","10164,1","00,1","0,1,03,1","00,1,+99999,9,99,9","00,99,1,00,1,00,1,99999,9,00,1,00,1","99999,9,10156,1","2,1,019,1,+999,9","+033,9","SYN100AAXX  28031 02795 47999 03305 10023 21029 30156 40164 52019 70000 90239 222// 00033 555 768// 0/609;",
"02795099999","2010-04-28T09:00:00","4","60.1","24.9833333","6.4","HELSINKI HARMAJA, FI","FM-12","99999","V020","280,1,N,0050,1","22000,1,9,N","045000,1,N,1","+0070,1","-0075,1","10180,1","00,1","0,1,03,1","00,1,+99999,9,99,9","00,99,1,00,1,00,1,99999,9,00,1,00,1","99999,9,10172,1","2,1,005,1,+999,9","+035,9","SYN100AAXX  28091 02795 47983 02805 10070 21075 30172 40180 52005 70000 90839 222// 00035 555 735// 0/106;",
"02795099999","2010-04-28T12:00:00","4","60.1","24.9833333","6.4","HELSINKI HARMAJA, FI","FM-12","99999","V020","260,1,N,0050,1","22000,1,9,N","045000,1,N,1","+0086,1","-0067,1","10178,1","00,1","0,1,06,1","00,1,+99999,9,99,9","00,99,1,00,1,00,1,99999,9,00,1,00,1","99999,9,10170,1","4,1,000,1,+999,9","+043,9","SYN100AAXX  28121 02795 47983 02605 10086 21067 30170 40178 54001 70000 91139 222// 00043 555 733// 0/506;",
"02795099999","2010-04-28T15:00:00","4","60.1","24.9833333","6.4","HELSINKI HARMAJA, FI","FM-12","99999","V020","230,1,N,0090,1","22000,1,9,N","040000,1,N,1","+0057,1","-0019,1","10170,1","00,1","0,1,03,1","00,1,+99999,9,99,9","00,99,1,00,1,00,1,99999,9,00,1,00,1","99999,9,10162,1","7,1,008,1,+999,9","+042,9","SYN100AAXX  28151 02795 47982 02309 10057 21019 30162 40170 57008 70000 91439 222// 00042 555 758// 0/209;",
"02795099999","2010-04-28T21:00:00","4","60.1","24.9833333","6.4","HELSINKI HARMAJA, FI","FM-12","99999","V020","260,1,N,0070,1","99999,9,9,N","050000,1,N,1","+0043,1","-0039,1","10160,1","00,1","0,1,03,1",,"07,99,1,07,1,99,9,99999,9,99,9,99,9","99999,9,10152,1","4,1,000,1,+999,9","+033,9","SYN106AAXX  28211 02795 47999 72607 10043 21039 30152 40160 54002 70000 87/// 92039 222// 00033 555 755// 0/608;",
"02795099999","2010-04-29T00:00:00","4","60.1","24.9833333","6.4","HELSINKI HARMAJA, FI","FM-12","99999","V020","240,1,N,0100,1","22000,1,9,N","050000,1,N,1","+0033,1","-0012,1","10147,1","00,1","0,1,06,1",,"03,99,1,03,1,99,9,01250,1,99,9,99,9","99999,9,10139,1","7,1,013,1,+999,9","+033,9","SYN106AAXX  29001 02795 47699 32410 10033 21012 30139 40147 57013 70000 83/// 92339 222// 00033 555 772// 0/010;",
"02795099999","2010-04-29T03:00:00","4","60.1","24.9833333","6.4","HELSINKI HARMAJA, FI","FM-12","99999","V020","190,1,N,0080,1","99999,9,9,N","014000,1,N,1","+0022,1","-0006,1","10121,1","61,1","6,1,03,1",,"07,99,1,07,1,99,9,00150,1,99,9,99,9","99999,9,10113,1","7,1,026,1,+999,9","+030,9","SYN106AAXX  29031 02795 47264 71908 10022 21006 30113 40121 57026 76165 87/// 90239 222// 00030 555 782// 0/610;",
"02795099999","2010-04-29T09:00:00","4","60.1","24.9833333","6.4","HELSINKI HARMAJA, FI","FM-12","99999","V020","190,1,N,0100,1","99999,9,9,N","009000,1,N,1","+0035,1","+0013,1","10064,1","61,1","8,1,03,1",,"07,99,1,07,1,99,9,00075,1,99,9,99,9","99999,9,10057,1","7,1,024,1,+999,9","+030,9","SYN106AAXX  29091 02795 47159 71910 10035 20013 30057 40064 57024 76186 87/// 90839 222// 00030 555 785// 0/410;",
"02795099999","2010-04-29T12:00:00","4","60.1","24.9833333","6.4","HELSINKI HARMAJA, FI","FM-12","99999","V020","220,1,N,0070,1","00240,1,9,N","002600,1,N,1","+0041,1","+0016,1","10051,1","51,1","8,1,06,1","09,1,+99999,9,99,9","09,99,1,09,1,99,9,99999,9,99,9,99,9","99999,9,10043,1","7,1,013,1,+999,9","+030,9","SYN100AAXX  29121 02795 47126 92207 10041 20016 30043 40051 57013 75186 91139 222// 00030 555 784// 0/610;",
"02795099999","2010-04-29T15:00:00","4","60.1","24.9833333","6.4","HELSINKI HARMAJA, FI","FM-12","99999","V020","240,1,N,0050,1","00120,1,9,N","001700,1,N,1","+0036,1","+0013,1","10044,1","10,1","8,1,03,1","09,1,+99999,9,99,9","09,99,1,09,1,99,9,99999,9,99,9,99,9","99999,9,10036,1","7,1,007,1,+999,9","+029,9","SYN100AAXX  29151 02795 47117 92405 10036 20013 30036 40044 57007 71085 91439 222// 00029 555 785// 0/607;",
"02795099999","2010-04-29T21:00:00","4","60.1","24.9833333","6.4","HELSINKI HARMAJA, FI","FM-12","99999","V020","230,1,N,0070,1","99999,9,9,N","002100,1,N,1","+0036,1","+0021,1","10038,1","10,1","4,1,03,1",,"07,99,1,07,1,99,9,00025,1,99,9,99,9","99999,9,10030,1","7,1,004,1,+999,9","+029,9","SYN106AAXX  29211 02795 47021 72307 10036 20021 30030 40038 57004 71032 87/// 92039 222// 00029 555 790// 0/608;",
"02795099999","2010-04-30T00:00:00","4","60.1","24.9833333","6.4","HELSINKI HARMAJA, FI","FM-12","99999","V020","200,1,N,0020,1","99999,9,9,N","001300,1,N,1","+0033,1","+0019,1","10031,1","10,1","4,1,06,1",,"05,99,1,05,1,99,9,00075,1,99,9,99,9","99999,9,10023,1","7,1,008,1,+999,9","+030,9","SYN106AAXX  30001 02795 47113 52002 10033 20019 30023 40031 57008 71032 85/// 92339 222// 00030 555 790// 0/607;",
"02795099999","2010-04-30T03:00:00","4","60.1","24.9833333","6.4","HELSINKI HARMAJA, FI","FM-12","99999","V020","150,1,N,0020,1","00030,1,9,N","000300,1,N,1","+0041,1","+0028,1","10021,1","34,1","8,1,03,1","09,1,+99999,9,99,9","09,99,1,09,1,99,9,99999,9,99,9,99,9","99999,9,10013,1","7,1,010,1,+999,9","+030,9","SYN100AAXX  30031 02795 47/03 91502 10041 20028 30013 40021 57010 73486 90239 222// 00030 555 792// 0/504;",
"02795099999","2010-04-30T09:00:00","4","60.1","24.9833333","6.4","HELSINKI HARMAJA, FI","FM-12","99999","V020","180,1,N,0050,1","22000,1,9,N","004000,1,N,1","+0058,1","+0045,1","10018,1","10,1","4,1,03,1",,"01,99,1,01,1,99,9,99999,9,99,9,99,9","99999,9,10010,1","4,1,000,1,+999,9","+033,9","SYN106AAXX  30091 02795 47940 11805 10058 20045 30010 40018 54001 71032 81/// 90839 222// 00033 555 791// 0/005;",
"02795099999","2010-04-30T12:00:00","4","60.1","24.9833333","6.4","HELSINKI HARMAJA, FI","FM-12","99999","V020","170,1,N,0030,1","22000,1,9,N","004900,1,N,1","+0063,1","+0038,1","10016,1","10,1","4,1,06,1","00,1,+99999,9,99,9","00,99,1,00,1,00,1,99999,9,00,1,00,1","99999,9,10008,1","4,1,000,1,+999,9","+034,9","SYN100AAXX  30121 02795 47949 01703 10063 20038 30008 40016 54002 71032 91139 222// 00034 555 784// 0/605;",
"02795099999","2010-04-30T15:00:00","4","60.1","24.9833333","6.4","HELSINKI HARMAJA, FI","FM-12","99999","V020","160,1,N,0030,1","22000,1,9,N","005000,1,N,1","+0058,1","+0039,1","10011,1","10,1","2,1,03,1",,"01,99,1,01,1,99,9,01750,1,99,9,99,9","99999,9,10003,1","7,1,005,1,+999,9","+035,9","SYN106AAXX  30151 02795 47750 11603 10058 20039 30003 40011 57005 71010 81/// 91439 222// 00035 555 788// 0/404;",
"02795099999","2010-04-30T21:00:00","4","60.1","24.9833333","6.4","HELSINKI HARMAJA, FI","FM-12","99999","V020","130,1,N,0050,1","99999,9,9,N","000200,1,N,1","+0053,1","+0041,1","09983,1","51,1","6,1,03,1",,"08,99,1,08,1,99,9,00075,1,99,9,99,9","99999,9,09975,1","7,1,019,1,+999,9","+037,9","SYN106AAXX  30211 02795 47102 81305 10053 20041 39975 49983 57019 75165 88/// 92039 222// 00037 555 792// 0/105;",
"02795099999","2010-05-01T00:00:00","4","60.1","24.9833333","6.4","HELSINKI HARMAJA, FI","FM-12","99999","V020","120,1,N,0050,1","22000,1,9,N","000700,1,N,1","+0055,1","+0046,1","09965,1","51,1","8,1,06,1",,"01,99,1,01,1,99,9,00075,1,99,9,99,9","99999,9,09957,1","7,1,018,1,+999,9","+037,9","SYN106AAXX  01001 02795 47107 11205 10055 20046 39957 49965 57018 75186 81/// 92339 222// 00037 555 793// 0/505;",
"02795099999","2010-05-01T03:00:00","4","60.1","24.9833333","6.4","HELSINKI HARMAJA, FI","FM-12","99999","V020","150,1,N,0030,1","99999,9,9,N","000400,1,N,1","+0058,1","+0050,1","09948,1","34,1","6,1,03,1",,"07,99,1,07,1,99,9,00075,1,99,9,99,9","99999,9,09940,1","7,1,017,1,+999,9","+038,9","SYN106AAXX  01031 02795 47104 71503 10058 20050 39940 49948 57017 73465 87/// 90239 222// 00038 555 794// 0/605;",
"02795099999","2010-05-01T09:00:00","4","60.1","24.9833333","6.4","HELSINKI HARMAJA, FI","FM-12","99999","V020","220,1,N,0090,1","00030,1,9,N","000200,1,N,1","+0046,1","+0039,1","09970,1","34,1","8,1,03,1","09,1,+99999,9,99,9","09,99,1,09,1,99,9,99999,9,99,9,99,9","99999,9,09962,1","2,1,015,1,+999,9","+035,9","SYN100AAXX  01091 02795 47/02 92209 10046 20039 39962 49970 52015 73485 90839 222// 00035 555 795// 0/611;",
"02795099999","2010-05-01T12:00:00","4","60.1","24.9833333","6.4","HELSINKI HARMAJA, FI","FM-12","99999","V020","220,1,N,0100,1","22000,1,9,N","013000,1,N,1","+0048,1","+0035,1","09990,1","00,1","8,1,06,1",,"03,99,1,03,1,99,9,00150,1,99,9,99,9","99999,9,09983,1","2,1,020,1,+999,9","+035,9","SYN106AAXX  01121 02795 47263 32210 10048 20035 39983 49990 52020 70085 83/// 91139 222// 00035 555 791// 0/410;",
"02795099999","2010-05-01T15:00:00","4","60.1","24.9833333","6.4","HELSINKI HARMAJA, FI","FM-12","99999","V020","230,1,N,0100,1","22000,1,9,N","028000,1,N,1","+0052,1","+0034,1","10007,1","00,1","0,1,03,1","00,1,+99999,9,99,9","00,99,1,00,1,00,1,99999,9,00,1,00,1","99999,9,09999,1","2,1,016,1,+999,9","+033,9","SYN100AAXX  01151 02795 47978 02310 10052 20034 39999 40007 52016 70000 91439 222// 00033 555 788// 0/512;",
"02795099999","2010-05-01T21:00:00","4","60.1","24.9833333","6.4","HELSINKI HARMAJA, FI","FM-12","99999","V020","230,1,N,0060,1","99999,9,9,N","026000,1,N,1","+0043,1","+0028,1","10026,1","00,1","0,1,03,1",,"05,99,1,05,1,99,9,01250,1,99,9,99,9","99999,9,10018,1","2,1,011,1,+999,9","+031,9","SYN106AAXX  01211 02795 47676 52306 10043 20028 30018 40026 52011 70000 85/// 92039 222// 00031 555 790// 0/509;",
"02795099999","2010-05-02T00:00:00","4","60.1","24.9833333","6.4","HELSINKI HARMAJA, FI","FM-12","99999","V020","200,1,N,0030,1","22000,1,9,N","013000,1,N,1","+0035,1","+0027,1","10022,1","00,1","0,1,06,1",,"01,99,1,01,1,99,9,02250,1,99,9,99,9","99999,9,10014,1","7,1,004,1,+999,9","+029,9","SYN106AAXX  02001 02795 47863 12003 10035 20027 30014 40022 57004 70000 81/// 92339 222// 00029 555 794// 0/507;",
"02795099999","2010-05-02T03:00:00","4","60.1","24.9833333","6.4","HELSINKI HARMAJA, FI","FM-12","99999","V020","190,1,N,0090,1","99999,9,9,N","008000,1,N,1","+0047,1","+0037,1","10010,1","81,1","8,1,03,1",,"07,99,1,07,1,99,9,00450,1,99,9,99,9","99999,9,10002,1","7,1,012,1,+999,9","+029,9","SYN106AAXX  02031 02795 47458 71909 10047 20037 30002 40010 57012 78185 87/// 90239 222// 00029 555 794// 0/009;",
"02795099999","2010-05-02T09:00:00","4","60.1","24.9833333","6.4","HELSINKI HARMAJA, FI","FM-12","99999","V020","220,1,N,0110,1","00120,1,9,N","001200,1,N,1","+0031,1","+0027,1","10045,1","20,1","4,1,03,1","09,1,+99999,9,99,9","09,99,1,09,1,99,9,99999,9,99,9,99,9","99999,9,10037,1","2,1,025,1,+999,9","+031,9","SYN100AAXX  02091 02795 47112 92211 10031 20027 30037 40045 52025 72032 90839 222// 00031 555 797// 0/011;",
"02795099999","2010-05-02T12:00:00","4","60.1","24.9833333","6.4","HELSINKI HARMAJA, FI","FM-12","99999","V020","230,1,N,0100,1","22000,1,9,N","028000,1,N,1","+0049,1","+0021,1","10068,1","00,1","4,1,06,1","00,1,+99999,9,99,9","00,99,1,00,1,00,1,99999,9,00,1,00,1","99999,9,10060,1","2,1,023,1,+999,9","+033,9","SYN100AAXX  02121 02795 47978 02310 10049 20021 30060 40068 52023 70032 91139 222// 00033 555 782// 0/611;",
"02795099999","2010-05-02T15:00:00","4","60.1","24.9833333","6.4","HELSINKI HARMAJA, FI","FM-12","99999","V020","270,1,N,0070,1","22000,1,9,N","050000,1,N,1","+0075,1","-0004,1","10092,1","00,1","0,1,03,1","00,1,+99999,9,99,9","00,99,1,00,1,00,1,99999,9,00,1,00,1","99999,9,10084,1","2,1,023,1,+999,9","+034,9","SYN100AAXX  02151 02795 47999 02707 10075 21004 30084 40092 52023 70000 91439 222// 00034 555 757// 0/610;",
"02795099999","2010-05-02T21:00:00","4","60.1","24.9833333","6.4","HELSINKI HARMAJA, FI","FM-12","99999","V020","250,1,N,0040,1","22000,1,9,N","050000,1,N,1","+0040,1","+0000,1","10136,1","00,1","0,1,03,1","00,1,+99999,9,99,9","00,99,1,00,1,00,1,99999,9,00,1,00,1","99999,9,10128,1","2,1,024,1,+999,9","+032,9","SYN100AAXX  02211 02795 47999 02504 10040 20000 30128 40136 52024 70000 92039 222// 00032 555 775// 0/607;",
"02795099999","2010-05-03T00:00:00","4","60.1","24.9833333","6.4","HELSINKI HARMAJA, FI","FM-12","99999","V020","280,1,N,0060,1","22000,1,9,N","050000,1,N,1","+0034,1","-0004,1","10153,1","00,1","0,1,06,1","00,1,+99999,9,99,9","00,99,1,00,1,00,1,99999,9,00,1,00,1","99999,9,10145,1","2,1,017,1,+999,9","+032,9","SYN100AAXX  03001 02795 47999 02806 10034 21004 30145 40153 52017 70000 92339 222// 00032 555 776// 0/306;",
"02795099999","2010-05-03T03:00:00","4","60.1","24.9833333","6.4","HELSINKI HARMAJA, FI","FM-12","99999","V020","270,1,N,0030,1","22000,1,9,N","050000,1,N,1","+0026,1","-0002,1","10166,1","00,1","0,1,03,1","00,1,+99999,9,99,9","00,99,1,00,1,00,1,99999,9,00,1,00,1","99999,9,10158,1","2,1,013,1,+999,9","+030,9","SYN100AAXX  03031 02795 47999 02703 10026 21002 30158 40166 52013 70000 90239 222// 00030 555 782// 0/606;",
"02795099999","2010-05-03T09:00:00","4","60.1","24.9833333","6.4","HELSINKI HARMAJA, FI","FM-12","99999","V020","220,1,N,0060,1","22000,1,9,N","045000,1,N,1","+0041,1","+0027,1","10189,1","00,1","0,1,03,1","00,1,+99999,9,99,9","00,99,1,00,1,00,1,99999,9,00,1,00,1","99999,9,10181,1","2,1,009,1,+999,9","+035,9","SYN100AAXX  03091 02795 47983 02206 10041 20027 30181 40189 52009 70000 90839 222// 00035 555 790// 0/006;",
"02795099999","2010-05-03T12:00:00","4","60.1","24.9833333","6.4","HELSINKI HARMAJA, FI","FM-12","99999","V020","220,1,N,0070,1","22000,1,9,N","040000,1,N,1","+0054,1","+0020,1","10185,1","00,1","0,1,06,1","00,1,+99999,9,99,9","00,99,1,00,1,00,1,99999,9,00,1,00,1","99999,9,10178,1","7,1,004,1,+999,9","+035,9","SYN100AAXX  03121 02795 47982 02207 10054 20020 30178 40185 57004 70000 91139 222// 00035 555 778// 0/307;",
"02795099999","2010-05-03T15:00:00","4","60.1","24.9833333","6.4","HELSINKI HARMAJA, FI","FM-12","99999","V020","210,1,N,0060,1","22000,1,9,N","045000,1,N,1","+0049,1","+0017,1","10180,1","00,1","0,1,03,1","00,1,+99999,9,99,9","00,99,1,00,1,00,1,99999,9,00,1,00,1","99999,9,10172,1","7,1,006,1,+999,9","+034,9","SYN100AAXX  03151 02795 47983 02106 10049 20017 30172 40180 57006 70000 91439 222// 00034 555 780// 0/607;",
"02795099999","2010-05-03T21:00:00","4","60.1","24.9833333","6.4","HELSINKI HARMAJA, FI","FM-12","99999","V020","070,1,N,0030,1","22000,1,9,N","050000,1,N,1","+0046,1","+0020,1","10161,1","00,1","0,1,03,1","00,1,+99999,9,99,9","00,99,1,00,1,00,1,99999,9,00,1,00,1","99999,9,10153,1","7,1,011,1,+999,9","+036,9","SYN100AAXX  03211 02795 47999 00703 10046 20020 30153 40161 57011 70000 92039 222// 00036 555 783// 0/203;",
"02795099999","2010-05-04T00:00:00","4","60.1","24.9833333","6.4","HELSINKI HARMAJA, FI","FM-12","99999","V020","100,1,N,0050,1","22000,1,9,N","050000,1,N,1","+0046,1","+0012,1","10143,1","00,1","0,1,06,1",,"03,99,1,03,1,99,9,00800,1,99,9,99,9","99999,9,10135,1","7,1,018,1,+999,9","+036,9","SYN106AAXX  04001 02795 47599 31005 10046 20012 30135 40143 57018 70000 83/// 92339 222// 00036 555 778// 0/005;",
"02795099999","2010-05-04T09:00:00","4","60.1","24.9833333","6.4","HELSINKI HARMAJA, FI","FM-12","99999","V020","020,1,N,0090,1","00240,1,9,N","005000,1,N,1","+0023,1","+0016,1","10107,1","67,1","7,1,03,1","09,1,+99999,9,99,9","09,99,1,09,1,99,9,99999,9,99,9,99,9","99999,9,10099,1","2,1,002,1,+999,9","+034,9","SYN100AAXX  04091 02795 47450 90209 10023 20016 30099 40107 52002 76776 90839 222// 00034 555 795// 0/009;",
"02795099999","2010-05-05T12:00:00","4","60.1","24.9833333","6.4","HELSINKI HARMAJA, FI","FM-12","99999","V020","240,1,N,0060,1","22000,1,9,N","050000,1,N,1","+0065,1","+0011,1","10176,1","00,1","0,1,06,1",,"01,99,1,01,1,99,9,02250,1,99,9,99,9","99999,9,10168,1","4,1,000,1,+999,9","+036,9","SYN106AAXX  05121 02795 47899 12406 10065 20011 30168 40176 54001 70000 81/// 91139 222// 00036 555 768// 0/407;",
"02795099999","2010-05-06T00:00:00","4","60.1","24.9833333","6.4","HELSINKI HARMAJA, FI","FM-12","99999","V020","240,1,N,0040,1","22000,1,9,N","050000,1,N,1","+0034,1","+0021,1","10207,1","00,1","0,1,06,1","00,1,+99999,9,99,9","00,99,1,00,1,00,1,99999,9,00,1,00,1","99999,9,10199,1","2,1,008,1,+999,9","+036,9","SYN100AAXX  06001 02795 47999 02404 10034 20021 30199 40207 52008 70000 92339 222// 00036 555 791// 0/204;",
"02795099999","2010-05-06T09:00:00","4","60.1","24.9833333","6.4","HELSINKI HARMAJA, FI","FM-12","99999","V020","190,1,N,0030,1","22000,1,9,N","045000,1,N,1","+0049,1","+0015,1","10249,1","00,1","0,1,03,1","00,1,+99999,9,99,9","00,99,1,00,1,00,1,99999,9,00,1,00,1","99999,9,10241,1","2,1,009,1,+999,9","+038,9","SYN100AAXX  06091 02795 47983 01903 10049 20015 30241 40249 52009 70000 90839 222// 00038 555 778// 0/003;",
"02795099999","2010-05-06T12:00:00","4","60.1","24.9833333","6.4","HELSINKI HARMAJA, FI","FM-12","99999","V020","200,1,N,0040,1","22000,1,9,N","045000,1,N,1","+0056,1","+0018,1","10254,1","00,1","0,1,06,1","00,1,+99999,9,99,9","00,99,1,00,1,00,1,99999,9,00,1,00,1","99999,9,10246,1","2,1,005,1,+999,9","+036,9","SYN100AAXX  06121 02795 47983 02004 10056 20018 30246 40254 52005 70000 91139 222// 00036 555 777// 0/004;",
"02795099999","2010-05-06T21:00:00","4","60.1","24.9833333","6.4","HELSINKI HARMAJA, FI","FM-12","99999","V020","040,1,N,0030,1","22000,1,9,N","050000,1,N,1","+0052,1","-0013,1","10246,1","00,1","0,1,03,1","00,1,+99999,9,99,9","00,99,1,00,1,00,1,99999,9,00,1,00,1","99999,9,10238,1","2,1,003,1,+999,9","+047,9","SYN100AAXX  06211 02795 47999 00403 10052 21013 30238 40246 52003 70000 92039 222// 00047 555 763// 0/104;",
"02795099999","2010-05-07T03:00:00","4","60.1","24.9833333","6.4","HELSINKI HARMAJA, FI","FM-12","99999","V020","050,1,N,0080,1","22000,1,9,N","050000,1,N,1","+0056,1","-0004,1","10231,1","00,1","0,1,03,1",,"01,99,1,01,1,99,9,99999,9,99,9,99,9","99999,9,10223,1","7,1,008,1,+999,9","+041,9","SYN106AAXX  07031 02795 47999 10508 10056 21004 30223 40231 57008 70000 81/// 90239 222// 00041 555 765// 0/008;",
"02795099999","2010-05-07T12:00:00","4","60.1","24.9833333","6.4","HELSINKI HARMAJA, FI","FM-12","99999","V020","050,1,N,0090,1","00240,1,9,N","009000,1,N,1","+0042,1","+0028,1","10211,1","61,1","6,1,06,1","09,1,+99999,9,99,9","09,99,1,09,1,99,9,99999,9,99,9,99,9","99999,9,10203,1","7,1,011,1,+999,9","+035,9","SYN100AAXX  07121 02795 47459 90509 10042 20028 30203 40211 57011 76165 91139 222// 00035 555 791// 0/610;",
"02795099999","2010-05-08T00:00:00","4","60.1","24.9833333","6.4","HELSINKI HARMAJA, FI","FM-12","99999","V020","040,1,N,0080,1","99999,9,9,N","026000,1,N,1","+0046,1","+0036,1","10145,1","23,1","8,1,06,1",,"08,99,1,08,1,99,9,00250,1,99,9,99,9","99999,9,10137,1","7,1,018,1,+999,9","+034,9","SYN106AAXX  08001 02795 47376 80408 10046 20036 30137 40145 57018 72386 88/// 92339 222// 00034 555 793// 0/609;",
"02795099999","2010-05-08T09:00:00","4","60.1","24.9833333","6.4","HELSINKI HARMAJA, FI","FM-12","99999","V020","050,1,N,0060,1","99999,9,9,N","026000,1,N,1","+0057,1","+0045,1","10110,1","00,1","0,1,03,1",,"07,99,1,07,1,99,9,00450,1,99,9,99,9","99999,9,10102,1","7,1,007,1,+999,9","+037,9","SYN106AAXX  08091 02795 47476 70506 10057 20045 30102 40110 57007 70000 87/// 90839 222// 00037 555 792// 0/607;",
"02795099999","2010-05-08T12:00:00","4","60.1","24.9833333","6.4","HELSINKI HARMAJA, FI","FM-12","99999","V020","070,1,N,0040,1","22000,1,9,N","030000,1,N,1","+0060,1","+0049,1","10101,1","00,1","0,1,06,1",,"01,99,1,01,1,99,9,00450,1,99,9,99,9","99999,9,10093,1","7,1,009,1,+999,9","+038,9","SYN106AAXX  08121 02795 47480 10704 10060 20049 30093 40101 57009 70000 81/// 91139 222// 00038 555 793// 0/606;",
"02795099999","2010-05-08T15:00:00","4","60.1","24.9833333","6.4","HELSINKI HARMAJA, FI","FM-12","99999","V020","010,1,N,0030,1","99999,9,9,N","008000,1,N,1","+0065,1","+0058,1","10090,1","61,1","8,1,03,1",,"07,99,1,07,1,99,9,00800,1,99,9,99,9","99999,9,10082,1","7,1,011,1,+999,9","+041,9","SYN106AAXX  08151 02795 47558 70103 10065 20058 30082 40090 57011 76186 87/// 91439 222// 00041 555 795// 0/605;",
"02795099999","2010-05-09T00:00:00","4","60.1","24.9833333","6.4","HELSINKI HARMAJA, FI","FM-12","99999","V020","210,1,N,0050,1","99999,9,9,N","004800,1,N,1","+0049,1","+0045,1","10060,1","10,1","8,1,06,1",,"07,99,1,07,1,99,9,00075,1,99,9,99,9","99999,9,10052,1","7,1,003,1,+999,9","+039,9","SYN106AAXX  09001 02795 47148 72105 10049 20045 30052 40060 57003 71085 87/// 92339 222// 00039 555 797// 0/005;",
"02795099999","2010-05-09T03:00:00","4","60.1","24.9833333","6.4","HELSINKI HARMAJA, FI","FM-12","99999","V020","240,1,N,0050,1","99999,9,9,N","003100,1,N,1","+0046,1","+0042,1","10057,1","10,1","8,1,03,1",,"07,99,1,07,1,99,9,00075,1,99,9,99,9","99999,9,10049,1","7,1,003,1,+999,9","+038,9","SYN106AAXX  09031 02795 47131 72405 10046 20042 30049 40057 57003 71085 87/// 90239 222// 00038 555 797// 0/507;",
"02795099999","2010-05-09T12:00:00","4","60.1","24.9833333","6.4","HELSINKI HARMAJA, FI","FM-12","99999","V020","180,1,N,0030,1","99999,9,9,N","002500,1,N,1","+0046,1","+0042,1","10062,1","10,1","2,1,06,1",,"07,99,1,07,1,99,9,00075,1,99,9,99,9","99999,9,10055,1","2,1,005,1,+999,9","+041,9","SYN106AAXX  09121 02795 47125 71803 10046 20042 30055 40062 52005 71010 87/// 91139 222// 00041 555 798// 0/303;",
"02795099999","2010-05-10T00:00:00","4","60.1","24.9833333","6.4","HELSINKI HARMAJA, FI","FM-12","99999","V020","220,1,N,0050,1","99999,9,9,N","002500,1,N,1","+0037,1","+0032,1","10078,1","10,1","2,1,06,1",,"07,99,1,07,1,99,9,00075,1,99,9,99,9","99999,9,10070,1","4,1,000,1,+999,9","+039,9","SYN106AAXX  10001 02795 47125 72205 10037 20032 30070 40078 54000 71010 87/// 92339 222// 00039 555 797// 0/607;",
"02795099999","2010-05-10T09:00:00","4","60.1","24.9833333","6.4","HELSINKI HARMAJA, FI","FM-12","99999","V020","180,1,N,0020,1","99999,9,9,N","011000,1,N,1","+0041,1","+0038,1","10089,1","00,1","5,1,03,1",,"07,99,1,07,1,99,9,00450,1,99,9,99,9","99999,9,10081,1","2,1,006,1,+999,9","+041,9","SYN106AAXX  10091 02795 47461 71802 10041 20038 30081 40089 52006 70054 87/// 90839 222// 00041 555 798// 0/504;",
"02795099999","2010-05-10T21:00:00","4","60.1","24.9833333","6.4","HELSINKI HARMAJA, FI","FM-12","99999","V020","190,1,N,0030,1","99999,9,9,N","024000,1,N,1","+0042,1","+0036,1","10119,1","00,1","0,1,03,1",,"08,99,1,08,1,99,9,00450,1,99,9,99,9","99999,9,10112,1","2,1,011,1,+999,9","+042,9","SYN106AAXX  10211 02795 47474 81903 10042 20036 30112 40119 52011 70000 88/// 92039 222// 00042 555 796// 0/304;",
"02795099999","2010-05-11T00:00:00","4","60.1","24.9833333","6.4","HELSINKI HARMAJA, FI","FM-12","99999","V020","140,1,N,0040,1","99999,9,9,N","025000,1,N,1","+0046,1","+0039,1","10128,1","00,1","0,1,06,1",,"07,99,1,07,1,99,9,02250,1,99,9,99,9","99999,9,10120,1","2,1,008,1,+999,9","+042,9","SYN106AAXX  11001 02795 47875 71404 10046 20039 30120 40128 52008 70000 87/// 92339 222// 00042 555 796// 0/004;",
"02795099999","2010-05-11T09:00:00","4","60.1","24.9833333","6.4","HELSINKI HARMAJA, FI","FM-12","99999","V020","090,1,N,0040,1","99999,9,9,N","030000,1,N,1","+0048,1","+0040,1","10155,1","00,1","0,1,03,1",,"07,99,1,07,1,99,9,01750,1,99,9,99,9","99999,9,10147,1","2,1,011,1,+999,9","+043,9","SYN106AAXX  11091 02795 47780 70904 10048 20040 30147 40155 52011 70000 87/// 90839 222// 00043 555 794// 0/405;",
"02795099999","2010-05-11T12:00:00","4","60.1","24.9833333","6.4","HELSINKI HARMAJA, FI","FM-12","99999","V020","080,1,N,0070,1","99999,9,9,N","030000,1,N,1","+0053,1","+0045,1","10160,1","00,1","0,1,06,1",,"07,99,1,07,1,99,9,01750,1,99,9,99,9","99999,9,10152,1","2,1,005,1,+999,9","+045,9","SYN106AAXX  11121 02795 47780 70807 10053 20045 30152 40160 52005 70000 87/// 91139 222// 00045 555 795// 0/007;",
"02795099999","2010-05-11T21:00:00","4","60.1","24.9833333","6.4","HELSINKI HARMAJA, FI","FM-12","99999","V020","080,1,N,0060,1","22000,1,9,N","026000,1,N,1","+0051,1","+0040,1","10158,1","00,1","0,1,03,1",,"01,99,1,01,1,99,9,99999,9,99,9,99,9","99999,9,10150,1","4,1,000,1,+999,9","+043,9","SYN106AAXX  11211 02795 47976 10806 10051 20040 30150 40158 54001 70000 81/// 92039 222// 00043 555 793// 0/306;",
"02795099999","2010-05-12T00:00:00","4","60.1","24.9833333","6.4","HELSINKI HARMAJA, FI","FM-12","99999","V020","080,1,N,0050,1","22000,1,9,N","012000,1,N,1","+0059,1","+0045,1","10160,1","00,1","0,1,06,1",,"03,99,1,03,1,99,9,01750,1,99,9,99,9","99999,9,10152,1","2,1,002,1,+999,9","+043,9","SYN106AAXX  12001 02795 47762 30805 10059 20045 30152 40160 52002 70000 83/// 92339 222// 00043 555 791// 0/006;",
"02795099999","2010-05-12T03:00:00","4","60.1","24.9833333","6.4","HELSINKI HARMAJA, FI","FM-12","99999","V020","070,1,N,0040,1","22000,1,9,N","004700,1,N,1","+0048,1","+0042,1","10165,1","10,1","2,1,03,1",,"03,99,1,03,1,99,9,01750,1,99,9,99,9","99999,9,10157,1","2,1,005,1,+999,9","+043,9","SYN106AAXX  12031 02795 47747 30704 10048 20042 30157 40165 52005 71010 83/// 90239 222// 00043 555 796// 0/605;",
"02795099999","2010-05-12T09:00:00","4","60.1","24.9833333","6.4","HELSINKI HARMAJA, FI","FM-12","99999","V020","120,1,N,0040,1","22000,1,9,N","024000,1,N,1","+0070,1","+0053,1","10191,1","00,1","2,1,03,1","00,1,+99999,9,99,9","00,99,1,00,1,00,1,99999,9,00,1,00,1","99999,9,10183,1","2,1,014,1,+999,9","+046,9","SYN100AAXX  12091 02795 47974 01204 10070 20053 30183 40191 52014 70010 90839 222// 00046 555 789// 0/304;",
"02795099999","2010-05-12T12:00:00","4","60.1","24.9833333","6.4","HELSINKI HARMAJA, FI","FM-12","99999","V020","060,1,N,0040,1","22000,1,9,N","030000,1,N,1","+0067,1","+0055,1","10191,1","00,1","2,1,06,1","00,1,+99999,9,99,9","00,99,1,00,1,00,1,99999,9,00,1,00,1","99999,9,10183,1","4,1,000,1,+999,9","+049,9","SYN100AAXX  12121 02795 47980 00604 10067 20055 30183 40191 54000 70010 91139 222// 00049 555 792// 0/004;",
"02795099999","2010-05-12T15:00:00","4","60.1","24.9833333","6.4","HELSINKI HARMAJA, FI","FM-12","99999","V020","060,1,N,0050,1","22000,1,9,N","014000,1,N,1","+0073,1","+0062,1","10185,1","00,1","0,1,03,1","00,1,+99999,9,99,9","00,99,1,00,1,00,1,99999,9,00,1,00,1","99999,9,10177,1","7,1,006,1,+999,9","+051,9","SYN100AAXX  12151 02795 47964 00605 10073 20062 30177 40185 57006 70000 91439 222// 00051 555 792// 0/306;",
"02795099999","2010-05-12T21:00:00","4","60.1","24.9833333","6.4","HELSINKI HARMAJA, FI","FM-12","99999","V020","070,1,N,0070,1","22000,1,9,N","018000,1,N,1","+0068,1","+0050,1","10172,1","00,1","0,1,03,1","00,1,+99999,9,99,9","00,99,1,00,1,00,1,99999,9,00,1,00,1","99999,9,10164,1","7,1,003,1,+999,9","+051,9","SYN100AAXX  12211 02795 47968 00707 10068 20050 30164 40172 57003 70000 92039 222// 00051 555 788// 0/508;",
"02795099999","2010-05-13T00:00:00","4","60.1","24.9833333","6.4","HELSINKI HARMAJA, FI","FM-12","99999","V020","060,1,N,0080,1","22000,1,9,N","005000,1,N,1","+0077,1","+0069,1","10161,1","10,1","2,1,06,1","00,1,+99999,9,99,9","00,99,1,00,1,00,1,99999,9,00,1,00,1","99999,9,10153,1","7,1,011,1,+999,9","+049,9","SYN100AAXX  13001 02795 47950 00608 10077 20069 30153 40161 57011 71010 92339 222// 00049 555 795// 0/208;",
"02795099999","2010-05-13T03:00:00","4","60.1","24.9833333","6.4","HELSINKI HARMAJA, FI","FM-12","99999","V020","070,1,N,0080,1","00060,1,9,N","000700,1,N,1","+0066,1","+0063,1","10159,1","81,1","8,1,03,1","09,1,+99999,9,99,9","09,99,1,09,1,99,9,99999,9,99,9,99,9","99999,9,10151,1","4,1,000,1,+999,9","+049,9","SYN100AAXX  13031 02795 47107 90708 10066 20063 30151 40159 54002 78185 90239 222// 00049 555 798// 0/608;",
"02795099999","2010-05-13T09:00:00","4","60.1","24.9833333","6.4","HELSINKI HARMAJA, FI","FM-12","99999","V020","070,1,N,0080,1","00030,1,9,N","000300,1,N,1","+0074,1","+0071,1","10149,1","61,1","7,1,03,1","09,1,+99999,9,99,9","09,99,1,09,1,99,9,99999,9,99,9,99,9","99999,9,10142,1","7,1,004,1,+999,9","+050,9","SYN100AAXX  13091 02795 47/03 90708 10074 20071 30142 40149 57004 76176 90839 222// 00050 555 798// 0/410;",
"02795099999","2010-05-13T12:00:00","4","60.1","24.9833333","6.4","HELSINKI HARMAJA, FI","FM-12","99999","V020","070,1,N,0080,1","22000,1,9,N","006000,1,N,1","+0085,1","+0082,1","10138,1","10,1","7,1,06,1",,"01,99,1,01,1,99,9,99999,9,99,9,99,9","99999,9,10131,1","7,1,011,1,+999,9","+050,9","SYN106AAXX  13121 02795 47956 10708 10085 20082 30131 40138 57011 71076 81/// 91139 222// 00050 555 798// 0/109;",
"02795099999","2010-05-13T15:00:00","4","60.1","24.9833333","6.4","HELSINKI HARMAJA, FI","FM-12","99999","V020","060,1,N,0080,1","22000,1,9,N","012000,1,N,1","+0092,1","+0082,1","10128,1","00,1","2,1,03,1",,"01,99,1,01,1,99,9,99999,9,99,9,99,9","99999,9,10120,1","7,1,010,1,+999,9","+050,9","SYN106AAXX  13151 02795 47962 10608 10092 20082 30120 40128 57010 70010 81/// 91439 222// 00050 555 793// 0/608;",
"02795099999","2010-05-13T21:00:00","4","60.1","24.9833333","6.4","HELSINKI HARMAJA, FI","FM-12","99999","V020","070,1,N,0080,1","22000,1,9,N","019000,1,N,1","+0087,1","+0075,1","10128,1","00,1","2,1,03,1",,"01,99,1,01,1,99,9,99999,9,99,9,99,9","99999,9,10120,1","4,1,000,1,+999,9","+051,9","SYN106AAXX  13211 02795 47969 10708 10087 20075 30120 40128 54001 70010 81/// 92039 222// 00051 555 792// 0/008;",
"02795099999","2010-05-14T00:00:00","4","60.1","24.9833333","6.4","HELSINKI HARMAJA, FI","FM-12","99999","V020","080,1,N,0070,1","22000,1,9,N","022000,1,N,1","+0083,1","+0070,1","10126,1","00,1","2,1,06,1",,"01,99,1,01,1,99,9,99999,9,99,9,99,9","99999,9,10118,1","4,1,000,1,+999,9","+050,9","SYN106AAXX  14001 02795 47972 10807 10083 20070 30118 40126 54002 70010 81/// 92339 222// 00050 555 791// 0/608;",
"02795099999","2010-05-14T03:00:00","4","60.1","24.9833333","6.4","HELSINKI HARMAJA, FI","FM-12","99999","V020","070,1,N,0070,1","22000,1,9,N","016000,1,N,1","+0082,1","+0073,1","10127,1","00,1","0,1,03,1","00,1,+99999,9,99,9","00,99,1,00,1,00,1,99999,9,00,1,00,1","99999,9,10120,1","4,1,000,1,+999,9","+049,9","SYN100AAXX  14031 02795 47966 00707 10082 20073 30120 40127 54001 70000 90239 222// 00049 555 794// 0/508;",
"02795099999","2010-05-14T09:00:00","4","60.1","24.9833333","6.4","HELSINKI HARMAJA, FI","FM-12","99999","V020","070,1,N,0080,1","22000,1,9,N","019000,1,N,1","+0089,1","+0072,1","10134,1","00,1","0,1,03,1","00,1,+99999,9,99,9","00,99,1,00,1,00,1,99999,9,00,1,00,1","99999,9,10126,1","2,1,004,1,+999,9","+052,9","SYN100AAXX  14091 02795 47969 00708 10089 20072 30126 40134 52004 70000 90839 222// 00052 555 789// 0/209;",
"02795099999","2010-05-14T12:00:00","4","60.1","24.9833333","6.4","HELSINKI HARMAJA, FI","FM-12","99999","V020","070,1,N,0080,1","22000,1,9,N","020000,1,N,1","+0099,1","+0071,1","10128,1","00,1","0,1,06,1","00,1,+99999,9,99,9","00,99,1,00,1,00,1,99999,9,00,1,00,1","99999,9,10121,1","7,1,005,1,+999,9","+057,9","SYN100AAXX  14121 02795 47970 00708 10099 20071 30121 40128 57005 70000 91139 222// 00057 555 782// 0/309;",
"02795099999","2010-05-14T15:00:00","4","60.1","24.9833333","6.4","HELSINKI HARMAJA, FI","FM-12","99999","V020","070,1,N,0070,1","22000,1,9,N","029000,1,N,1","+0097,1","+0066,1","10120,1","00,1","0,1,03,1","00,1,+99999,9,99,9","00,99,1,00,1,00,1,99999,9,00,1,00,1","99999,9,10112,1","7,1,008,1,+999,9","+053,9","SYN100AAXX  14151 02795 47979 00707 10097 20066 30112 40120 57008 70000 91439 222// 00053 555 781// 0/608;",
"02795099999","2010-05-14T21:00:00","4","60.1","24.9833333","6.4","HELSINKI HARMAJA, FI","FM-12","99999","V020","070,1,N,0070,1","22000,1,9,N","030000,1,N,1","+0101,1","+0069,1","10118,1","00,1","0,1,03,1","00,1,+99999,9,99,9","00,99,1,00,1,00,1,99999,9,00,1,00,1","99999,9,10110,1","4,1,000,1,+999,9","+052,9","SYN100AAXX  14211 02795 47980 00707 10101 20069 30110 40118 54001 70000 92039 222// 00052 555 780// 0/209;",
"02795099999","2010-05-15T00:00:00","4","60.1","24.9833333","6.4","HELSINKI HARMAJA, FI","FM-12","99999","V020","070,1,N,0080,1","22000,1,9,N","040000,1,N,1","+0097,1","+0065,1","10115,1","00,1","0,1,06,1","00,1,+99999,9,99,9","00,99,1,00,1,00,1,99999,9,00,1,00,1","99999,9,10107,1","7,1,003,1,+999,9","+053,9","SYN100AAXX  15001 02795 47982 00708 10097 20065 30107 40115 57003 70000 92339 222// 00053 555 780// 0/208;",
"02795099999","2010-05-15T03:00:00","4","60.1","24.9833333","6.4","HELSINKI HARMAJA, FI","FM-12","99999","V020","070,1,N,0070,1","22000,1,9,N","025000,1,N,1","+0090,1","+0066,1","10108,1","00,1","0,1,03,1","00,1,+99999,9,99,9","00,99,1,00,1,00,1,99999,9,00,1,00,1","99999,9,10100,1","7,1,007,1,+999,9","+052,9","SYN100AAXX  15031 02795 47975 00707 10090 20066 30100 40108 57007 70000 90239 222// 00052 555 785// 0/308;",
"02795099999","2010-05-15T09:00:00","4","60.1","24.9833333","6.4","HELSINKI HARMAJA, FI","FM-12","99999","V020","060,1,N,0070,1","22000,1,9,N","023000,1,N,1","+0097,1","+0068,1","10103,1","00,1","0,1,03,1","00,1,+99999,9,99,9","00,99,1,00,1,00,1,99999,9,00,1,00,1","99999,9,10096,1","7,1,004,1,+999,9","+057,9","SYN100AAXX  15091 02795 47973 00607 10097 20068 30096 40103 57004 70000 90839 222// 00057 555 782// 0/408;",
"02795099999","2010-05-15T12:00:00","4","60.1","24.9833333","6.4","HELSINKI HARMAJA, FI","FM-12","99999","V020","070,1,N,0080,1","22000,1,9,N","030000,1,N,1","+0101,1","+0077,1","10101,1","00,1","0,1,06,1","00,1,+99999,9,99,9","00,99,1,00,1,00,1,99999,9,00,1,00,1","99999,9,10093,1","7,1,002,1,+999,9","+056,9","SYN100AAXX  15121 02795 47980 00708 10101 20077 30093 40101 57002 70000 91139 222// 00056 555 785// 0/508;",
"02795099999","2010-05-15T15:00:00","4","60.1","24.9833333","6.4","HELSINKI HARMAJA, FI","FM-12","99999","V020","070,1,N,0080,1","22000,1,9,N","026000,1,N,1","+0088,1","+0067,1","10093,1","00,1","0,1,03,1","00,1,+99999,9,99,9","00,99,1,00,1,00,1,99999,9,00,1,00,1","99999,9,10085,1","7,1,008,1,+999,9","+056,9","SYN100AAXX  15151 02795 47976 00708 10088 20067 30085 40093 57008 70000 91439 222// 00056 555 787// 0/008;",
"02795099999","2010-05-15T21:00:00","4","60.1","24.9833333","6.4","HELSINKI HARMAJA, FI","FM-12","99999","V020","060,1,N,0060,1","22000,1,9,N","035000,1,N,1","+0083,1","+0069,1","10091,1","00,1","0,1,03,1",,"01,99,1,01,1,99,9,99999,9,99,9,99,9","99999,9,10083,1","7,1,002,1,+999,9","+056,9","SYN106AAXX  15211 02795 47981 10606 10083 20069 30083 40091 57002 70000 81/// 92039 222// 00056 555 791// 0/308;",
"02795099999","2010-05-16T00:00:00","4","60.1","24.9833333","6.4","HELSINKI HARMAJA, FI","FM-12","99999","V020","100,1,N,0080,1","99999,9,9,N","040000,1,N,1","+0124,1","+0100,1","10091,1","51,1","8,1,06,1",,"05,99,1,05,1,99,9,01750,1,99,9,99,9","99999,9,10083,1","4,1,000,1,+999,9","+056,9","SYN106AAXX  16001 02795 47782 51008 10124 20100 30083 40091 54001 75186 85/// 92339 222// 00056 555 785// 0/010;",
"02795099999","2010-05-16T03:00:00","4","60.1","24.9833333","6.4","HELSINKI HARMAJA, FI","FM-12","99999","V020","060,1,N,0070,1","22000,1,9,N","025000,1,N,1","+0095,1","+0078,1","10089,1","00,1","8,1,03,1",,"03,99,1,03,1,99,9,99999,9,99,9,99,9","99999,9,10082,1","4,1,000,1,+999,9","+057,9","SYN106AAXX  16031 02795 47975 30607 10095 20078 30082 40089 54002 70085 83/// 90239 222// 00057 555 790// 0/608;",
"02795099999","2010-05-16T09:00:00","4","60.1","24.9833333","6.4","HELSINKI HARMAJA, FI","FM-12","99999","V020","080,1,N,0070,1","22000,1,9,N","027000,1,N,1","+0096,1","+0071,1","10093,1","00,1","0,1,03,1",,"03,99,1,03,1,99,9,99999,9,99,9,99,9","99999,9,10085,1","2,1,003,1,+999,9","+060,9","SYN106AAXX  16091 02795 47977 30807 10096 20071 30085 40093 52003 70000 83/// 90839 222// 00060 555 784// 0/108;",
"02795099999","2010-05-16T12:00:00","4","60.1","24.9833333","6.4","HELSINKI HARMAJA, FI","FM-12","99999","V020","080,1,N,0060,1","22000,1,9,N","021000,1,N,1","+0101,1","+0076,1","10091,1","00,1","0,1,06,1","00,1,+99999,9,99,9","00,99,1,00,1,00,1,99999,9,00,1,00,1","99999,9,10083,1","7,1,002,1,+999,9","+065,9","SYN100AAXX  16121 02795 47971 00806 10101 20076 30083 40091 57002 70000 91139 222// 00065 555 784// 0/208;",
"02795099999","2010-05-16T15:00:00","4","60.1","24.9833333","6.4","HELSINKI HARMAJA, FI","FM-12","99999","V020","080,1,N,0070,1","22000,1,9,N","020000,1,N,1","+0113,1","+0085,1","10087,1","00,1","0,1,03,1","00,1,+99999,9,99,9","00,99,1,00,1,00,1,99999,9,00,1,00,1","99999,9,10079,1","7,1,004,1,+999,9","+062,9","SYN100AAXX  16151 02795 47970 00807 10113 20085 30079 40087 57004 70000 91439 222// 00062 555 783// 0/008;",
"02795099999","2010-05-16T21:00:00","4","60.1","24.9833333","6.4","HELSINKI HARMAJA, FI","FM-12","99999","V020","070,1,N,0050,1","99999,9,9,N","010000,1,N,1","+0100,1","+0093,1","10090,1","00,1","0,1,03,1",,"05,99,1,05,1,99,9,02250,1,99,9,99,9","99999,9,10082,1","4,1,000,1,+999,9","+063,9","SYN106AAXX  16211 02795 47860 50705 10100 20093 30082 40090 54000 70000 85/// 92039 222// 00063 555 795// 0/207;",
"02795099999","2010-05-17T00:00:00","4","60.1","24.9833333","6.4","HELSINKI HARMAJA, FI","FM-12","99999","V020","050,1,N,0040,1","99999,9,9,N","001900,1,N,1","+0108,1","+0105,1","10094,1","61,1","8,1,06,1",,"07,99,1,07,1,99,9,01250,1,99,9,99,9","99999,9,10086,1","2,1,004,1,+999,9","+064,9","SYN106AAXX  17001 02795 47619 70504 10108 20105 30086 40094 52004 76186 87/// 92339 222// 00064 555 798// 0/208;",
"02795099999","2010-05-17T03:00:00","4","60.1","24.9833333","6.4","HELSINKI HARMAJA, FI","FM-12","99999","V020","030,1,N,0020,1","99999,9,9,N","000400,1,N,1","+0125,1","+0122,1","10094,1","81,1","8,1,03,1",,"07,99,1,07,1,99,9,01250,1,99,9,99,9","99999,9,10086,1","4,1,000,1,+999,9","+063,9","SYN106AAXX  17031 02795 47604 70302 10125 20122 30086 40094 54000 78186 87/// 90239 222// 00063 555 798// 0/305;",
"02795099999","2010-05-17T09:00:00","4","60.1","24.9833333","6.4","HELSINKI HARMAJA, FI","FM-12","99999","V020","060,1,N,0030,1","22000,1,9,N","017000,1,N,1","+0120,1","+0105,1","10105,1","00,1","0,1,03,1","00,1,+99999,9,99,9","00,99,1,00,1,00,1,99999,9,00,1,00,1","99999,9,10097,1","2,1,006,1,+999,9","+065,9","SYN100AAXX  17091 02795 47967 00603 10120 20105 30097 40105 52006 70000 90839 222// 00065 555 791// 0/507;",
"02795099999","2010-05-17T12:00:00","4","60.1","24.9833333","6.4","HELSINKI HARMAJA, FI","FM-12","99999","V020","070,1,N,0060,1","22000,1,9,N","018000,1,N,1","+0122,1","+0105,1","10105,1","00,1","0,1,06,1","00,1,+99999,9,99,9","00,99,1,00,1,00,1,99999,9,00,1,00,1","99999,9,10097,1","4,1,000,1,+999,9","+069,9","SYN100AAXX  17121 02795 47968 00706 10122 20105 30097 40105 54000 70000 91139 222// 00069 555 790// 0/507;",
"02795099999","2010-05-17T15:00:00","4","60.1","24.9833333","6.4","HELSINKI HARMAJA, FI","FM-12","99999","V020","080,1,N,0080,1","22000,1,9,N","019000,1,N,1","+0121,1","+0102,1","10105,1","00,1","0,1,03,1","00,1,+99999,9,99,9","00,99,1,00,1,00,1,99999,9,00,1,00,1","99999,9,10097,1","4,1,000,1,+999,9","+074,9","SYN100AAXX  17151 02795 47969 00808 10121 20102 30097 40105 54000 70000 91439 222// 00074 555 788// 0/308;",
"02795099999","2010-05-17T21:00:00","4","60.1","24.9833333","6.4","HELSINKI HARMAJA, FI","FM-12","99999","V020","060,1,N,0050,1","22000,1,9,N","013000,1,N,1","+0106,1","+0097,1","10119,1","00,1","0,1,03,1","00,1,+99999,9,99,9","00,99,1,00,1,00,1,99999,9,00,1,00,1","99999,9,10111,1","2,1,006,1,+999,9","+071,9","SYN100AAXX  17211 02795 47963 00605 10106 20097 30111 40119 52006 70000 92039 222// 00071 555 794// 0/307;",
"02795099999","2010-05-18T00:00:00","4","60.1","24.9833333","6.4","HELSINKI HARMAJA, FI","FM-12","99999","V020","020,1,N,0040,1","99999,9,9,N","016000,1,N,1","+0129,1","+0121,1","10122,1","00,1","0,1,06,1",,"07,99,1,01,1,99,9,00450,1,99,9,99,9","99999,9,10115,1","2,1,003,1,+999,9","+070,9","SYN106AAXX  18001 02795 47466 70204 10129 20121 30115 40122 52003 70000 81/// 92339 222// 00070 555 795// 0/606;",
"02795099999","2010-05-18T03:00:00","4","60.1","24.9833333","6.4","HELSINKI HARMAJA, FI","FM-12","99999","V020","070,1,N,0050,1","99999,9,9,N","000300,1,N,1","+0097,1","+0094,1","10133,1","52,1","6,1,03,1",,"08,99,1,08,1,99,9,00075,1,99,9,99,9","99999,9,10126,1","2,1,011,1,+999,9","+070,9","SYN106AAXX  18031 02795 47103 80705 10097 20094 30126 40133 52011 75265 88/// 90239 222// 00070 555 798// 0/607;",
"02795099999","2010-05-18T09:00:00","4","60.1","24.9833333","6.4","HELSINKI HARMAJA, FI","FM-12","99999","V020","060,1,N,0050,1","99999,9,9,N","009000,1,N,1","+0114,1","+0111,1","10158,1","22,1","5,1,03,1",,"07,99,1,07,1,99,9,00150,1,99,9,99,9","99999,9,10150,1","2,1,015,1,+999,9","+074,9","SYN106AAXX  18091 02795 47259 70605 10114 20111 30150 40158 52015 72252 87/// 90839 222// 00074 555 799// 0/506;",
"02795099999","2010-05-18T12:00:00","4","60.1","24.9833333","6.4","HELSINKI HARMAJA, FI","FM-12","99999","V020","060,1,N,0070,1","99999,9,9,N","007000,1,N,1","+0125,1","+0119,1","10164,1","10,1","5,1,06,1",,"07,99,1,07,1,99,9,00250,1,99,9,99,9","99999,9,10156,1","2,1,005,1,+999,9","+079,9","SYN106AAXX  18121 02795 47357 70607 10125 20119 30156 40164 52005 71052 87/// 91139 222// 00079 555 796// 0/007;",
"02795099999","2010-05-18T15:00:00","4","60.1","24.9833333","6.4","HELSINKI HARMAJA, FI","FM-12","99999","V020","070,1,N,0060,1","22000,1,9,N","014000,1,N,1","+0122,1","+0110,1","10166,1","00,1","2,1,03,1","00,1,+99999,9,99,9","00,99,1,00,1,00,1,99999,9,00,1,00,1","99999,9,10158,1","2,1,002,1,+999,9","+080,9","SYN100AAXX  18151 02795 47964 00706 10122 20110 30158 40166 52002 70010 91439 222// 00080 555 792// 0/507;",
"02795099999","2010-05-18T21:00:00","4","60.1","24.9833333","6.4","HELSINKI HARMAJA, FI","FM-12","99999","V020","060,1,N,0070,1","22000,1,9,N","011000,1,N,1","+0134,1","+0118,1","10183,1","00,1","0,1,03,1",,"01,99,1,01,1,99,9,01750,1,99,9,99,9","99999,9,10175,1","2,1,013,1,+999,9","+076,9","SYN106AAXX  18211 02795 47761 10607 10134 20118 30175 40183 52013 70000 81/// 92039 222// 00076 555 790// 0/007;",
"02795099999","2010-05-19T00:00:00","4","60.1","24.9833333","6.4","HELSINKI HARMAJA, FI","FM-12","99999","V020","060,1,N,0070,1","22000,1,9,N","040000,1,N,1","+0121,1","+0085,1","10190,1","00,1","0,1,06,1",,"01,99,1,01,1,99,9,99999,9,99,9,99,9","99999,9,10182,1","2,1,006,1,+999,9","+074,9","SYN106AAXX  19001 02795 47982 10607 10121 20085 30182 40190 52006 70000 81/// 92339 222// 00074 555 779// 0/607;",
"02795099999","2010-05-19T03:00:00","4","60.1","24.9833333","6.4","HELSINKI HARMAJA, FI","FM-12","99999","V020","070,1,N,0060,1","22000,1,9,N","035000,1,N,1","+0103,1","+0082,1","10195,1","00,1","0,1,03,1","00,1,+99999,9,99,9","00,99,1,00,1,00,1,99999,9,00,1,00,1","99999,9,10187,1","2,1,005,1,+999,9","+073,9","SYN100AAXX  19031 02795 47981 00706 10103 20082 30187 40195 52005 70000 90239 222// 00073 555 787// 0/207;",
"02795099999","2010-05-19T09:00:00","4","60.1","24.9833333","6.4","HELSINKI HARMAJA, FI","FM-12","99999","V020","080,1,N,0060,1","22000,1,9,N","026000,1,N,1","+0104,1","+0082,1","10226,1","00,1","0,1,03,1","00,1,+99999,9,99,9","00,99,1,00,1,00,1,99999,9,00,1,00,1","99999,9,10218,1","2,1,016,1,+999,9","+072,9","SYN100AAXX  19091 02795 47976 00806 10104 20082 30218 40226 52016 70000 90839 222// 00072 555 786// 0/308;",
"02795099999","2010-05-19T12:00:00","4","60.1","24.9833333","6.4","HELSINKI HARMAJA, FI","FM-12","99999","V020","080,1,N,0080,1","22000,1,9,N","030000,1,N,1","+0113,1","+0080,1","10233,1","00,1","0,1,06,1","00,1,+99999,9,99,9","00,99,1,00,1,00,1,99999,9,00,1,00,1","99999,9,10225,1","2,1,007,1,+999,9","+071,9","SYN100AAXX  19121 02795 47980 00808 10113 20080 30225 40233 52007 70000 91139 222// 00071 555 780// 0/108;",
"02795099999","2010-05-19T15:00:00","4","60.1","24.9833333","6.4","HELSINKI HARMAJA, FI","FM-12","99999","V020","060,1,N,0060,1","22000,1,9,N","035000,1,N,1","+0113,1","+0077,1","10234,1","00,1","0,1,03,1","00,1,+99999,9,99,9","00,99,1,00,1,00,1,99999,9,00,1,00,1","99999,9,10226,1","4,1,000,1,+999,9","+073,9","SYN100AAXX  19151 02795 47981 00606 10113 20077 30226 40234 54000 70000 91439 222// 00073 555 778// 0/408;",
"02795099999","2010-05-19T21:00:00","4","60.1","24.9833333","6.4","HELSINKI HARMAJA, FI","FM-12","99999","V020","060,1,N,0070,1","22000,1,9,N","050000,1,N,1","+0123,1","+0077,1","10244,1","00,1","0,1,03,1","00,1,+99999,9,99,9","00,99,1,00,1,00,1,99999,9,00,1,00,1","99999,9,10236,1","2,1,009,1,+999,9","+071,9","SYN100AAXX  19211 02795 47999 00607 10123 20077 30236 40244 52009 70000 92039 222// 00071 555 774// 0/007;",
"02795099999","2010-05-20T00:00:00","4","60.1","24.9833333","6.4","HELSINKI HARMAJA, FI","FM-12","99999","V020","070,1,N,0070,1","22000,1,9,N","050000,1,N,1","+0108,1","+0069,1","10249,1","00,1","0,1,06,1","00,1,+99999,9,99,9","00,99,1,00,1,00,1,99999,9,00,1,00,1","99999,9,10241,1","2,1,005,1,+999,9","+070,9","SYN100AAXX  20001 02795 47999 00707 10108 20069 30241 40249 52005 70000 92339 222// 00070 555 777// 0/007;",
"02795099999","2010-05-20T03:00:00","4","60.1","24.9833333","6.4","HELSINKI HARMAJA, FI","FM-12","99999","V020","070,1,N,0050,1","22000,1,9,N","035000,1,N,1","+0093,1","+0070,1","10254,1","00,1","0,1,03,1","00,1,+99999,9,99,9","00,99,1,00,1,00,1,99999,9,00,1,00,1","99999,9,10246,1","2,1,005,1,+999,9","+071,9","SYN100AAXX  20031 02795 47981 00705 10093 20070 30246 40254 52005 70000 90239 222// 00071 555 786// 0/508;",
"02795099999","2010-05-20T09:00:00","4","60.1","24.9833333","6.4","HELSINKI HARMAJA, FI","FM-12","99999","V020","090,1,N,0030,1","22000,1,9,N","030000,1,N,1","+0102,1","+0074,1","10263,1","00,1","0,1,03,1","00,1,+99999,9,99,9","00,99,1,00,1,00,1,99999,9,00,1,00,1","99999,9,10255,1","2,1,004,1,+999,9","+072,9","SYN100AAXX  20091 02795 47980 00903 10102 20074 30255 40263 52004 70000 90839 222// 00072 555 783// 0/206;",
"02795099999","2010-05-20T12:00:00","4","60.1","24.9833333","6.4","HELSINKI HARMAJA, FI","FM-12","99999","V020","080,1,N,0050,1","22000,1,9,N","035000,1,N,1","+0114,1","+0080,1","10258,1","00,1","0,1,06,1","00,1,+99999,9,99,9","00,99,1,00,1,00,1,99999,9,00,1,00,1","99999,9,10250,1","7,1,005,1,+999,9","+073,9","SYN100AAXX  20121 02795 47981 00805 10114 20080 30250 40258 57005 70000 91139 222// 00073 555 779// 0/205;",
"02795099999","2010-05-20T15:00:00","4","60.1","24.9833333","6.4","HELSINKI HARMAJA, FI","FM-12","99999","V020","080,1,N,0040,1","22000,1,9,N","040000,1,N,1","+0128,1","+0083,1","10248,1","00,1","0,1,03,1","00,1,+99999,9,99,9","00,99,1,00,1,00,1,99999,9,00,1,00,1","99999,9,10240,1","7,1,009,1,+999,9","+076,9","SYN100AAXX  20151 02795 47982 00804 10128 20083 30240 40248 57009 70000 91439 222// 00076 555 774// 0/605;",
"02795099999","2010-05-20T21:00:00","4","60.1","24.9833333","6.4","HELSINKI HARMAJA, FI","FM-12","99999","V020","999,9,C,0000,1","22000,1,9,N","050000,1,N,1","+0118,1","+0070,1","10243,1","00,1","0,1,03,1","00,1,+99999,9,99,9","00,99,1,00,1,00,1,99999,9,00,1,00,1","99999,9,10235,1","2,1,004,1,+999,9","+081,9","SYN100AAXX  20211 02795 47999 00000 10118 20070 30235 40243 52004 70000 92039 222// 00081 555 772// 0/602;",
"02795099999","2010-05-21T00:00:00","4","60.1","24.9833333","6.4","HELSINKI HARMAJA, FI","FM-12","99999","V020","260,1,N,0010,1","22000,1,9,N","050000,1,N,1","+0160,1","+0021,1","10242,1","00,1","0,1,06,1","00,1,+99999,9,99,9","00,99,1,00,1,00,1,99999,9,00,1,00,1","99999,9,10234,1","4,1,000,1,+999,9","+087,9","SYN100AAXX  21001 02795 47999 02601 10160 20021 30234 40242 54001 70000 92339 222// 00087 555 739// 0/204;",
"02795099999","2010-05-21T03:00:00","4","60.1","24.9833333","6.4","HELSINKI HARMAJA, FI","FM-12","99999","V020","290,1,N,0010,1","22000,1,9,N","045000,1,N,1","+0142,1","+0079,1","10238,1","00,1","0,1,03,1","00,1,+99999,9,99,9","00,99,1,00,1,00,1,99999,9,00,1,00,1","99999,9,10230,1","7,1,004,1,+999,9","+092,9","SYN100AAXX  21031 02795 47983 02901 10142 20079 30230 40238 57004 70000 90239 222// 00092 555 766// 0/502;",
"02795099999","2010-05-21T09:00:00","4","60.1","24.9833333","6.4","HELSINKI HARMAJA, FI","FM-12","99999","V020","220,1,N,0030,1","22000,1,9,N","035000,1,N,1","+0136,1","+0073,1","10237,1","00,1","0,1,03,1","00,1,+99999,9,99,9","00,99,1,00,1,00,1,99999,9,00,1,00,1","99999,9,10230,1","4,1,000,1,+999,9","+106,9","SYN100AAXX  21091 02795 47981 02203 10136 20073 30230 40237 54001 70000 90839 222// 00106 555 766// 0/504;",
"02795099999","2010-05-21T12:00:00","4","60.1","24.9833333","6.4","HELSINKI HARMAJA, FI","FM-12","99999","V020","220,1,N,0070,1","22000,1,9,N","035000,1,N,1","+0144,1","+0102,1","10230,1","00,1","0,1,06,1","00,1,+99999,9,99,9","00,99,1,00,1,00,1,99999,9,00,1,00,1","99999,9,10222,1","7,1,008,1,+999,9","+101,9","SYN100AAXX  21121 02795 47981 02207 10144 20102 30222 40230 57008 70000 91139 222// 00101 555 776// 0/007;",
"02795099999","2010-05-21T15:00:00","4","60.1","24.9833333","6.4","HELSINKI HARMAJA, FI","FM-12","99999","V020","230,1,N,0070,1","22000,1,9,N","045000,1,N,1","+0148,1","+0092,1","10216,1","00,1","0,1,03,1","00,1,+99999,9,99,9","00,99,1,00,1,00,1,99999,9,00,1,00,1","99999,9,10208,1","7,1,014,1,+999,9","+095,9","SYN100AAXX  21151 02795 47983 02307 10148 20092 30208 40216 57014 70000 91439 222// 00095 555 769// 0/508;",
"02795099999","2010-05-21T21:00:00","4","60.1","24.9833333","6.4","HELSINKI HARMAJA, FI","FM-12","99999","V020","260,1,N,0070,1","22000,1,9,N","040000,1,N,1","+0156,1","+0100,1","10203,1","00,1","0,1,03,1",,"03,99,1,03,1,99,9,02250,1,99,9,99,9","99999,9,10196,1","7,1,002,1,+999,9","+114,9","SYN106AAXX  21211 02795 47882 32607 10156 20100 30196 40203 57002 70000 83/// 92039 222// 00114 555 769// 0/608;",
"02795099999","2010-05-22T00:00:00","4","60.1","24.9833333","6.4","HELSINKI HARMAJA, FI","FM-12","99999","V020","290,1,N,0050,1","99999,9,9,N","028000,1,N,1","+0141,1","+0114,1","10196,1","00,1","0,1,06,1",,"05,99,1,05,1,99,9,99999,9,99,9,99,9","99999,9,10188,1","7,1,008,1,+999,9","+114,9","SYN106AAXX  22001 02795 47978 52905 10141 20114 30188 40196 57008 70000 85/// 92339 222// 00114 555 784// 0/607;",
"02795099999","2010-05-22T03:00:00","4","60.1","24.9833333","6.4","HELSINKI HARMAJA, FI","FM-12","99999","V020","310,1,N,0020,1","22000,1,9,N","027000,1,N,1","+0135,1","+0113,1","10194,1","00,1","0,1,03,1",,"01,99,1,01,1,99,9,02250,1,99,9,99,9","99999,9,10186,1","7,1,002,1,+999,9","+113,9","SYN106AAXX  22031 02795 47877 13102 10135 20113 30186 40194 57002 70000 81/// 90239 222// 00113 555 787// 0/605;",
"02795099999","2010-05-22T09:00:00","4","60.1","24.9833333","6.4","HELSINKI HARMAJA, FI","FM-12","99999","V020","140,1,N,0020,1","22000,1,9,N","035000,1,N,1","+0167,1","+0129,1","10197,1","00,1","0,1,03,1","00,1,+99999,9,99,9","00,99,1,00,1,00,1,99999,9,00,1,00,1","99999,9,10189,1","2,1,004,1,+999,9","+087,9","SYN100AAXX  22091 02795 47981 01402 10167 20129 30189 40197 52004 70000 90839 222// 00087 555 779// 0/603;",
"02795099999","2010-05-22T12:00:00","4","60.1","24.9833333","6.4","HELSINKI HARMAJA, FI","FM-12","99999","V020","140,1,N,0040,1","22000,1,9,N","027000,1,N,1","+0175,1","+0120,1","10186,1","00,1","0,1,06,1","00,1,+99999,9,99,9","00,99,1,00,1,00,1,99999,9,00,1,00,1","99999,9,10178,1","7,1,011,1,+999,9","+102,9","SYN100AAXX  22121 02795 47977 01404 10175 20120 30178 40186 57011 70000 91139 222// 00102 555 770// 0/406;",
"02795099999","2010-05-22T15:00:00","4","60.1","24.9833333","6.4","HELSINKI HARMAJA, FI","FM-12","99999","V020","060,1,N,0030,1","22000,1,9,N","024000,1,N,1","+0147,1","+0124,1","10181,1","23,1","8,1,03,1","00,1,+99999,9,99,9","00,99,1,00,1,00,1,99999,9,00,1,00,1","99999,9,10173,1","7,1,005,1,+999,9","+105,9","SYN100AAXX  22151 02795 47974 00603 10147 20124 30173 40181 57005 72386 91439 222// 00105 555 786// 0/605;",
"02795099999","2010-05-22T21:00:00","4","60.1","24.9833333","6.4","HELSINKI HARMAJA, FI","FM-12","99999","V020","080,1,N,0020,1","99999,9,9,N","019000,1,N,1","+0140,1","+0126,1","10161,1","22,1","6,1,03,1",,"05,99,1,05,1,99,9,02250,1,99,9,99,9","99999,9,10153,1","7,1,011,1,+999,9","+108,9","SYN106AAXX  22211 02795 47869 50802 10140 20126 30153 40161 57011 72265 85/// 92039 222// 00108 555 791// 0/205;",
"02795099999","2010-05-23T00:00:00","4","60.1","24.9833333","6.4","HELSINKI HARMAJA, FI","FM-12","99999","V020","070,1,N,0040,1","99999,9,9,N","013000,1,N,1","+0125,1","+0118,1","10149,1","00,1","8,1,06,1",,"05,99,1,05,1,99,9,02250,1,99,9,99,9","99999,9,10142,1","7,1,012,1,+999,9","+113,9","SYN106AAXX  23001 02795 47863 50704 10125 20118 30142 40149 57012 70086 85/// 92339 222// 00113 555 795// 0/505;",
"02795099999","2010-05-23T03:00:00","4","60.1","24.9833333","6.4","HELSINKI HARMAJA, FI","FM-12","99999","V020","080,1,N,0050,1","99999,9,9,N","010000,1,N,1","+0120,1","+0114,1","10132,1","22,1","8,1,03,1",,"05,99,1,05,1,99,9,02250,1,99,9,99,9","99999,9,10124,1","7,1,017,1,+999,9","+113,9","SYN106AAXX  23031 02795 47860 50805 10120 20114 30124 40132 57017 72286 85/// 90239 222// 00113 555 796// 0/305;",
"02795099999","2010-05-23T09:00:00","4","60.1","24.9833333","6.4","HELSINKI HARMAJA, FI","FM-12","99999","V020","100,1,N,0050,1","99999,9,9,N","023000,1,N,1","+0120,1","+0103,1","10097,1","00,1","0,1,03,1",,"07,99,1,07,1,99,9,02250,1,99,9,99,9","99999,9,10089,1","7,1,021,1,+999,9","+123,9","SYN106AAXX  23091 02795 47873 71005 10120 20103 30089 40097 57021 70000 87/// 90839 222// 00123 555 789// 0/506;",
"02795099999","2010-05-23T12:00:00","4","60.1","24.9833333","6.4","HELSINKI HARMAJA, FI","FM-12","99999","V020","070,1,N,0060,1","22000,1,9,N","023000,1,N,1","+0115,1","+0106,1","10068,1","00,1","0,1,06,1",,"01,99,1,01,1,99,9,01750,1,99,9,99,9","99999,9,10060,1","7,1,029,1,+999,9","+115,9","SYN106AAXX  23121 02795 47773 10706 10115 20106 30060 40068 57029 70000 81/// 91139 222// 00115 555 794// 0/307;",
"02795099999","2010-05-23T15:00:00","4","60.1","24.9833333","6.4","HELSINKI HARMAJA, FI","FM-12","99999","V020","150,1,N,0020,1","99999,9,9,N","025000,1,N,1","+0129,1","+0108,1","10044,1","00,1","8,1,03,1",,"05,99,1,05,1,99,9,00800,1,99,9,99,9","99999,9,10036,1","7,1,024,1,+999,9","+107,9","SYN106AAXX  23151 02795 47575 51502 10129 20108 30036 40044 57024 70086 85/// 91439 222// 00107 555 787// 0/606;",
"02795099999","2010-05-23T21:00:00","4","60.1","24.9833333","6.4","HELSINKI HARMAJA, FI","FM-12","99999","V020","130,1,N,0050,1","99999,9,9,N","004600,1,N,1","+0104,1","+0099,1","09991,1","61,1","8,1,03,1",,"07,99,1,07,1,99,9,00450,1,99,9,99,9","99999,9,09983,1","7,1,028,1,+999,9","+106,9","SYN106AAXX  23211 02795 47446 71305 10104 20099 39983 49991 57028 76186 87/// 92039 222// 00106 555 797// 0/106;",
"02795099999","2010-05-24T00:00:00","4","60.1","24.9833333","6.4","HELSINKI HARMAJA, FI","FM-12","99999","V020","130,1,N,0050,1","99999,9,9,N","008000,1,N,1","+0108,1","+0104,1","09958,1","81,1","8,1,06,1",,"07,99,1,07,1,99,9,00450,1,99,9,99,9","99999,9,09950,1","7,1,033,1,+999,9","+099,9","SYN106AAXX  24001 02795 47458 71305 10108 20104 39950 49958 57033 78186 87/// 92339 222// 00099 555 797// 0/307;",
"02795099999","2010-05-24T03:00:00","4","60.1","24.9833333","6.4","HELSINKI HARMAJA, FI","FM-12","99999","V020","230,1,N,0070,1","99999,9,9,N","020000,1,N,1","+0090,1","+0085,1","09937,1","81,1","8,1,03,1",,"07,99,1,07,1,99,9,00150,1,99,9,99,9","99999,9,09929,1","7,1,021,1,+999,9","+104,9","SYN106AAXX  24031 02795 47270 72307 10090 20085 39929 49937 57021 78186 87/// 90239 222// 00104 555 797// 0/007;",
"02795099999","2010-05-24T09:00:00","4","60.1","24.9833333","6.4","HELSINKI HARMAJA, FI","FM-12","99999","V020","210,1,N,0020,1","99999,9,9,N","045000,1,N,1","+0094,1","+0081,1","09924,1","00,1","0,1,03,1",,"07,99,1,07,1,99,9,00150,1,99,9,99,9","99999,9,09917,1","7,1,003,1,+999,9","+106,9","SYN106AAXX  24091 02795 47283 72102 10094 20081 39917 49924 57003 70000 87/// 90839 222// 00106 555 792// 0/605;",
"02795099999","2010-05-24T12:00:00","4","60.1","24.9833333","6.4","HELSINKI HARMAJA, FI","FM-12","99999","V020","220,1,N,0040,1","99999,9,9,N","030000,1,N,1","+0094,1","+0081,1","09927,1","00,1","0,1,06,1",,"07,99,1,07,1,99,9,00150,1,99,9,99,9","99999,9,09919,1","2,1,003,1,+999,9","+106,9","SYN106AAXX  24121 02795 47280 72204 10094 20081 39919 49927 52003 70000 87/// 91139 222// 00106 555 791// 0/004;",
"02795099999","2010-05-24T15:00:00","4","60.1","24.9833333","6.4","HELSINKI HARMAJA, FI","FM-12","99999","V020","240,1,N,0090,1","99999,9,9,N","045000,1,N,1","+0105,1","+0095,1","09926,1","81,1","8,1,03,1",,"07,99,1,07,1,99,9,00450,1,99,9,99,9","99999,9,09919,1","4,1,000,1,+999,9","+110,9","SYN106AAXX  24151 02795 47483 72409 10105 20095 39919 49926 54000 78186 87/// 91439 222// 00110 555 794// 0/009;",
"02795099999","2010-05-24T21:00:00","4","60.1","24.9833333","6.4","HELSINKI HARMAJA, FI","FM-12","99999","V020","280,1,N,0120,1","99999,9,9,N","026000,1,N,1","+0088,1","+0074,1","09936,1","22,1","8,1,03,1",,"07,99,1,07,1,99,9,00450,1,99,9,99,9","99999,9,09928,1","2,1,006,1,+999,9","+108,9","SYN106AAXX  24211 02795 47476 72812 10088 20074 39928 49936 52006 72286 87/// 92039 222// 00108 555 791// 0/212;",
"02795099999","2010-05-25T00:00:00","4","60.1","24.9833333","6.4","HELSINKI HARMAJA, FI","FM-12","99999","V020","250,1,N,0090,1","99999,9,9,N","045000,1,N,1","+0085,1","+0067,1","09949,1","00,1","8,1,06,1",,"05,99,1,05,1,99,9,01750,1,99,9,99,9","99999,9,09942,1","2,1,013,1,+999,9","+101,9","SYN106AAXX  25001 02795 47783 52509 10085 20067 39942 49949 52013 70086 85/// 92339 222// 00101 555 789// 0/512;",
"02795099999","2010-05-25T03:00:00","4","60.1","24.9833333","6.4","HELSINKI HARMAJA, FI","FM-12","99999","V020","250,1,N,0080,1","99999,9,9,N","040000,1,N,1","+0083,1","+0059,1","09961,1","00,1","0,1,03,1",,"05,99,1,05,1,99,9,01250,1,99,9,99,9","99999,9,09953,1","2,1,011,1,+999,9","+098,9","SYN106AAXX  25031 02795 47682 52508 10083 20059 39953 49961 52011 70000 85/// 90239 222// 00098 555 785// 0/211;",
"02795099999","2010-05-25T09:00:00","4","60.1","24.9833333","6.4","HELSINKI HARMAJA, FI","FM-12","99999","V020","210,1,N,0050,1","99999,9,9,N","035000,1,N,1","+0088,1","+0067,1","09972,1","00,1","0,1,03,1",,"05,99,1,05,1,99,9,02250,1,99,9,99,9","99999,9,09964,1","2,1,009,1,+999,9","+101,9","SYN106AAXX  25091 02795 47881 52105 10088 20067 39964 49972 52009 70000 85/// 90839 222// 00101 555 787// 0/607;",
"02795099999","2010-05-25T12:00:00","4","60.1","24.9833333","6.4","HELSINKI HARMAJA, FI","FM-12","99999","V020","200,1,N,0030,1","22000,1,9,N","035000,1,N,1","+0104,1","+0060,1","09976,1","00,1","0,1,06,1","00,1,+99999,9,99,9","00,99,1,00,1,00,1,99999,9,00,1,00,1","99999,9,09969,1","2,1,005,1,+999,9","+102,9","SYN100AAXX  25121 02795 47981 02003 10104 20060 39969 49976 52005 70000 91139 222// 00102 555 774// 0/506;",
"02795099999","2010-05-25T15:00:00","4","60.1","24.9833333","6.4","HELSINKI HARMAJA, FI","FM-12","99999","V020","130,1,N,0030,1","22000,1,9,N","035000,1,N,1","+0117,1","+0069,1","09979,1","00,1","0,1,03,1","00,1,+99999,9,99,9","00,99,1,00,1,00,1,99999,9,00,1,00,1","99999,9,09972,1","2,1,003,1,+999,9","+105,9","SYN100AAXX  25151 02795 47981 01303 10117 20069 39972 49979 52003 70000 91439 222// 00105 555 773// 0/603;",
"02795099999","2010-05-25T21:00:00","4","60.1","24.9833333","6.4","HELSINKI HARMAJA, FI","FM-12","99999","V020","030,1,N,0010,1","22000,1,9,N","050000,1,N,1","+0104,1","+0075,1","09982,1","00,1","0,1,03,1",,"03,99,1,03,1,99,9,02250,1,99,9,99,9","99999,9,09975,1","2,1,003,1,+999,9","+106,9","SYN106AAXX  25211 02795 47899 30301 10104 20075 39975 49982 52003 70000 83/// 92039 222// 00106 555 783// 0/402;",
"02795099999","2010-05-26T00:00:00","4","60.1","24.9833333","6.4","HELSINKI HARMAJA, FI","FM-12","99999","V020","360,1,N,0030,1","22000,1,9,N","030000,1,N,1","+0103,1","+0081,1","09980,1","00,1","0,1,06,1","00,1,+99999,9,99,9","00,99,1,00,1,00,1,99999,9,00,1,00,1","99999,9,09973,1","4,1,000,1,+999,9","+105,9","SYN100AAXX  26001 02795 47980 03603 10103 20081 39973 49980 54002 70000 92339 222// 00105 555 786// 0/003;",
"02795099999","2010-05-26T03:00:00","4","60.1","24.9833333","6.4","HELSINKI HARMAJA, FI","FM-12","99999","V020","360,1,N,0050,1","22000,1,9,N","019000,1,N,1","+0092,1","+0075,1","09980,1","00,1","0,1,03,1","00,1,+99999,9,99,9","00,99,1,00,1,00,1,99999,9,00,1,00,1","99999,9,09972,1","4,1,000,1,+999,9","+104,9","SYN100AAXX  26031 02795 47969 03605 10092 20075 39972 49980 54001 70000 90239 222// 00104 555 789// 0/005;",
"02795099999","2010-05-26T09:00:00","4","60.1","24.9833333","6.4","HELSINKI HARMAJA, FI","FM-12","99999","V020","320,1,N,0050,1","22000,1,9,N","035000,1,N,1","+0140,1","+0071,1","09985,1","00,1","0,1,03,1",,"03,99,1,03,1,99,9,01250,1,99,9,99,9","99999,9,09977,1","2,1,002,1,+999,9","+106,9","SYN106AAXX  26091 02795 47681 33205 10140 20071 39977 49985 52002 70000 83/// 90839 222// 00106 555 763// 0/105;",
"02795099999","2010-05-26T12:00:00","4","60.1","24.9833333","6.4","HELSINKI HARMAJA, FI","FM-12","99999","V020","320,1,N,0080,1","22000,1,9,N","035000,1,N,1","+0144,1","+0062,1","09983,1","00,1","0,1,06,1","00,1,+99999,9,99,9","00,99,1,00,1,00,1,99999,9,00,1,00,1","99999,9,09975,1","4,1,000,1,+999,9","+107,9","SYN100AAXX  26121 02795 47981 03208 10144 20062 39975 49983 54002 70000 91139 222// 00107 555 758// 0/009;",
"02795099999","2010-05-26T15:00:00","4","60.1","24.9833333","6.4","HELSINKI HARMAJA, FI","FM-12","99999","V020","320,1,N,0090,1","99999,9,9,N","026000,1,N,1","+0141,1","+0072,1","09989,1","61,1","6,1,03,1",,"07,99,1,07,1,99,9,01250,1,99,9,99,9","99999,9,09981,1","2,1,006,1,+999,9","+108,9","SYN106AAXX  26151 02795 47676 73209 10141 20072 39981 49989 52006 76160 87/// 91439 222// 00108 555 763// 0/510;",
"02795099999","2010-05-26T21:00:00","4","60.1","24.9833333","6.4","HELSINKI HARMAJA, FI","FM-12","99999","V020","320,1,N,0070,1","99999,9,9,N","018000,1,N,1","+0109,1","+0098,1","09998,1","22,1","6,1,03,1",,"07,99,1,07,1,99,9,00450,1,99,9,99,9","99999,9,09990,1","2,1,008,1,+999,9","+108,9","SYN106AAXX  26211 02795 47468 73207 10109 20098 39990 49998 52008 72265 87/// 92039 222// 00108 555 793// 0/609;",
"02795099999","2010-05-27T00:00:00","4","60.1","24.9833333","6.4","HELSINKI HARMAJA, FI","FM-12","99999","V020","330,1,N,0060,1","99999,9,9,N","030000,1,N,1","+0105,1","+0093,1","10007,1","00,1","8,1,06,1",,"08,99,1,08,1,99,9,00450,1,99,9,99,9","99999,9,09999,1","2,1,009,1,+999,9","+107,9","SYN106AAXX  27001 02795 47480 83306 10105 20093 39999 40007 52009 70086 88/// 92339 222// 00107 555 793// 0/607;",
"02795099999","2010-05-27T03:00:00","4","60.1","24.9833333","6.4","HELSINKI HARMAJA, FI","FM-12","99999","V020","320,1,N,0040,1","99999,9,9,N","003900,1,N,1","+0096,1","+0093,1","10019,1","51,1","6,1,03,1",,"08,99,1,08,1,99,9,00150,1,99,9,99,9","99999,9,10012,1","2,1,012,1,+999,9","+099,9","SYN106AAXX  27031 02795 47239 83204 10096 20093 30012 40019 52012 75165 88/// 90239 222// 00099 555 798// 0/606;",
"02795099999","2010-05-27T09:00:00","4","60.1","24.9833333","6.4","HELSINKI HARMAJA, FI","FM-12","99999","V020","999,9,C,0000,1","99999,9,9,N","025000,1,N,1","+0113,1","+0103,1","10047,1","00,1","2,1,03,1",,"08,99,1,08,1,99,9,00250,1,99,9,99,9","99999,9,10039,1","2,1,015,1,+999,9","+099,9","SYN106AAXX  27091 02795 47375 80000 10113 20103 30039 40047 52015 70010 88/// 90839 222// 00099 555 793// 0/602;",
"02795099999","2010-05-27T12:00:00","4","60.1","24.9833333","6.4","HELSINKI HARMAJA, FI","FM-12","99999","V020","210,1,N,0010,1","99999,9,9,N","004700,1,N,1","+0103,1","+0099,1","10061,1","10,1","8,1,06,1",,"08,99,1,08,1,99,9,00025,1,99,9,99,9","99999,9,10053,1","2,1,015,1,+999,9","+098,9","SYN106AAXX  27121 02795 47047 82101 10103 20099 30053 40061 52015 71086 88/// 91139 222// 00098 555 798// 0/302;",
"02795099999","2010-05-27T15:00:00","4","60.1","24.9833333","6.4","HELSINKI HARMAJA, FI","FM-12","99999","V020","230,1,N,0040,1","99999,9,9,N","003900,1,N,1","+0096,1","+0092,1","10070,1","22,1","8,1,03,1",,"08,99,1,08,1,99,9,00025,1,99,9,99,9","99999,9,10063,1","2,1,009,1,+999,9","+101,9","SYN106AAXX  27151 02795 47039 82304 10096 20092 30063 40070 52009 72286 88/// 91439 222// 00101 555 798// 0/004;",
"02795099999","2010-05-27T21:00:00","4","60.1","24.9833333","6.4","HELSINKI HARMAJA, FI","FM-12","99999","V020","230,1,N,0050,1","99999,9,9,N","005000,1,N,1","+0084,1","+0080,1","10083,1","10,1","2,1,03,1",,"08,99,1,08,1,99,9,00025,1,99,9,99,9","99999,9,10075,1","2,1,006,1,+999,9","+099,9","SYN106AAXX  27211 02795 47050 82305 10084 20080 30075 40083 52006 71010 88/// 92039 222// 00099 555 798// 0/205;",
"02795099999","2010-05-28T00:00:00","4","60.1","24.9833333","6.4","HELSINKI HARMAJA, FI","FM-12","99999","V020","220,1,N,0040,1","99999,9,9,N","003700,1,N,1","+0081,1","+0078,1","10083,1","10,1","2,1,06,1",,"08,99,1,08,1,99,9,00025,1,99,9,99,9","99999,9,10075,1","4,1,000,1,+999,9","+099,9","SYN106AAXX  28001 02795 47037 82204 10081 20078 30075 40083 54000 71010 88/// 92339 222// 00099 555 797// 0/406;",
"02795099999","2010-05-28T03:00:00","4","60.1","24.9833333","6.4","HELSINKI HARMAJA, FI","FM-12","99999","V020","230,1,N,0050,1","99999,9,9,N","003700,1,N,1","+0087,1","+0083,1","10083,1","10,1","2,1,03,1",,"08,99,1,08,1,99,9,00025,1,99,9,99,9","99999,9,10075,1","4,1,000,1,+999,9","+098,9","SYN106AAXX  28031 02795 47037 82305 10087 20083 30075 40083 54000 71010 88/// 90239 222// 00098 555 798// 0/106;",
"02795099999","2010-05-28T09:00:00","4","60.1","24.9833333","6.4","HELSINKI HARMAJA, FI","FM-12","99999","V020","250,1,N,0050,1","99999,9,9,N","009000,1,N,1","+0100,1","+0092,1","10096,1","10,1","2,1,03,1",,"07,99,1,07,1,99,9,00025,1,99,9,99,9","99999,9,10088,1","2,1,008,1,+999,9","+100,9","SYN106AAXX  28091 02795 47059 72505 10100 20092 30088 40096 52008 71010 87/// 90839 222// 00100 555 795// 0/308;",
"02795099999","2010-05-28T12:00:00","4","60.1","24.9833333","6.4","HELSINKI HARMAJA, FI","FM-12","99999","V020","220,1,N,0070,1","99999,9,9,N","013000,1,N,1","+0094,1","+0085,1","10106,1","00,1","2,1,06,1",,"07,99,1,07,1,99,9,00075,1,99,9,99,9","99999,9,10098,1","2,1,010,1,+999,9","+100,9","SYN106AAXX  28121 02795 47163 72207 10094 20085 30098 40106 52010 70010 87/// 91139 222// 00100 555 794// 0/208;",
"02795099999","2010-05-28T15:00:00","4","60.1","24.9833333","6.4","HELSINKI HARMAJA, FI","FM-12","99999","V020","230,1,N,0090,1","99999,9,9,N","014000,1,N,1","+0079,1","+0072,1","10111,1","00,1","0,1,03,1",,"08,99,1,08,1,99,9,00075,1,99,9,99,9","99999,9,10103,1","2,1,005,1,+999,9","+100,9","SYN106AAXX  28151 02795 47164 82309 10079 20072 30103 40111 52005 70000 88/// 91439 222// 00100 555 795// 0/210;",
"02795099999","2010-05-28T21:00:00","4","60.1","24.9833333","6.4","HELSINKI HARMAJA, FI","FM-12","99999","V020","240,1,N,0050,1","22000,1,9,N","045000,1,N,1","+0089,1","+0078,1","10125,1","00,1","0,1,03,1",,"01,99,1,01,1,99,9,01750,1,99,9,99,9","99999,9,10117,1","2,1,010,1,+999,9","+098,9","SYN106AAXX  28211 02795 47783 12405 10089 20078 30117 40125 52010 70000 81/// 92039 222// 00098 555 793// 0/607;",
"02795099999","2010-05-29T00:00:00","4","60.1","24.9833333","6.4","HELSINKI HARMAJA, FI","FM-12","99999","V020","230,1,N,0040,1","22000,1,9,N","045000,1,N,1","+0086,1","+0074,1","10132,1","00,1","0,1,06,1","00,1,+99999,9,99,9","00,99,1,00,1,00,1,99999,9,00,1,00,1","99999,9,10124,1","2,1,007,1,+999,9","+096,9","SYN100AAXX  29001 02795 47983 02304 10086 20074 30124 40132 52007 70000 92339 222// 00096 555 793// 0/506;",
"02795099999","2010-05-29T03:00:00","4","60.1","24.9833333","6.4","HELSINKI HARMAJA, FI","FM-12","99999","V020","210,1,N,0030,1","22000,1,9,N","030000,1,N,1","+0086,1","+0074,1","10129,1","00,1","0,1,03,1","00,1,+99999,9,99,9","00,99,1,00,1,00,1,99999,9,00,1,00,1","99999,9,10122,1","7,1,003,1,+999,9","+096,9","SYN100AAXX  29031 02795 47980 02103 10086 20074 30122 40129 57003 70000 90239 222// 00096 555 792// 0/604;",
"02795099999","2010-05-29T09:00:00","4","60.1","24.9833333","6.4","HELSINKI HARMAJA, FI","FM-12","99999","V020","180,1,N,0050,1","99999,9,9,N","010000,1,N,1","+0089,1","+0080,1","10127,1","61,1","6,1,03,1",,"07,99,1,07,1,99,9,00800,1,99,9,99,9","99999,9,10119,1","4,1,000,1,+999,9","+097,9","SYN106AAXX  29091 02795 47560 71805 10089 20080 30119 40127 54000 76160 87/// 90839 222// 00097 555 794// 0/005;",
"02795099999","2010-05-29T12:00:00","4","60.1","24.9833333","6.4","HELSINKI HARMAJA, FI","FM-12","99999","V020","120,1,N,0030,1","99999,9,9,N","030000,1,N,1","+0099,1","+0089,1","10113,1","81,1","8,1,06,1",,"07,99,1,07,1,99,9,00450,1,99,9,99,9","99999,9,10105,1","7,1,014,1,+999,9","+098,9","SYN106AAXX  29121 02795 47480 71203 10099 20089 30105 40113 57014 78186 87/// 91139 222// 00098 555 793// 0/605;",
"02795099999","2010-05-29T15:00:00","4","60.1","24.9833333","6.4","HELSINKI HARMAJA, FI","FM-12","99999","V020","230,1,N,0080,1","99999,9,9,N","030000,1,N,1","+0098,1","+0072,1","10114,1","00,1","8,1,03,1",,"07,99,1,07,1,99,9,01750,1,99,9,99,9","99999,9,10106,1","4,1,000,1,+999,9","+098,9","SYN106AAXX  29151 02795 47780 72308 10098 20072 30106 40114 54001 70086 87/// 91439 222// 00098 555 784// 0/008;",
"02795099999","2010-05-29T21:00:00","4","60.1","24.9833333","6.4","HELSINKI HARMAJA, FI","FM-12","99999","V020","220,1,N,0090,1","99999,9,9,N","024000,1,N,1","+0089,1","+0073,1","10109,1","61,1","6,1,03,1",,"07,99,1,07,1,99,9,00800,1,99,9,99,9","99999,9,10101,1","7,1,003,1,+999,9","+094,9","SYN106AAXX  29211 02795 47574 72209 10089 20073 30101 40109 57003 76165 87/// 92039 222// 00094 555 790// 0/011;",
"02795099999","2010-05-30T00:00:00","4","60.1","24.9833333","6.4","HELSINKI HARMAJA, FI","FM-12","99999","V020","240,1,N,0080,1","99999,9,9,N","019000,1,N,1","+0081,1","+0073,1","10105,1","23,1","8,1,06,1",,"07,99,1,07,1,99,9,00250,1,99,9,99,9","99999,9,10097,1","7,1,004,1,+999,9","+090,9","SYN106AAXX  30001 02795 47369 72408 10081 20073 30097 40105 57004 72386 87/// 92339 222// 00090 555 795// 0/511;",
"02795099999","2010-05-30T03:00:00","4","60.1","24.9833333","6.4","HELSINKI HARMAJA, FI","FM-12","99999","V020","240,1,N,0050,1","22000,1,9,N","022000,1,N,1","+0079,1","+0072,1","10112,1","00,1","3,1,03,1",,"03,99,1,03,1,99,9,02250,1,99,9,99,9","99999,9,10104,1","2,1,007,1,+999,9","+087,9","SYN106AAXX  30031 02795 47872 32405 10079 20072 30104 40112 52007 70020 83/// 90239 222// 00087 555 795// 0/608;",
"02795099999","2010-05-30T09:00:00","4","60.1","24.9833333","6.4","HELSINKI HARMAJA, FI","FM-12","99999","V020","210,1,N,0070,1","99999,9,9,N","030000,1,N,1","+0085,1","+0075,1","10138,1","00,1","2,1,03,1",,"07,99,1,07,1,99,9,00800,1,99,9,99,9","99999,9,10130,1","2,1,015,1,+999,9","+088,9","SYN106AAXX  30091 02795 47580 72107 10085 20075 30130 40138 52015 70010 87/// 90839 222// 00088 555 794// 0/107;",
"02795099999","2010-05-30T12:00:00","4","60.1","24.9833333","6.4","HELSINKI HARMAJA, FI","FM-12","99999","V020","220,1,N,0080,1","22000,1,9,N","030000,1,N,1","+0095,1","+0079,1","10141,1","00,1","2,1,06,1","00,1,+99999,9,99,9","00,99,1,00,1,00,1,99999,9,00,1,00,1","99999,9,10133,1","2,1,003,1,+999,9","+090,9","SYN100AAXX  30121 02795 47980 02208 10095 20079 30133 40141 52003 70010 91139 222// 00090 555 790// 0/008;",
"02795099999","2010-05-30T15:00:00","4","60.1","24.9833333","6.4","HELSINKI HARMAJA, FI","FM-12","99999","V020","220,1,N,0090,1","22000,1,9,N","028000,1,N,1","+0094,1","+0077,1","10138,1","00,1","0,1,03,1","00,1,+99999,9,99,9","00,99,1,00,1,00,1,99999,9,00,1,00,1","99999,9,10130,1","7,1,003,1,+999,9","+091,9","SYN100AAXX  30151 02795 47978 02209 10094 20077 30130 40138 57003 70000 91439 222// 00091 555 789// 0/210;",
"02795099999","2010-05-30T21:00:00","4","60.1","24.9833333","6.4","HELSINKI HARMAJA, FI","FM-12","99999","V020","250,1,N,0050,1","22000,1,9,N","022000,1,N,1","+0083,1","+0075,1","10142,1","00,1","0,1,03,1","00,1,+99999,9,99,9","00,99,1,00,1,00,1,99999,9,00,1,00,1","99999,9,10134,1","2,1,005,1,+999,9","+085,9","SYN100AAXX  30211 02795 47972 02505 10083 20075 30134 40142 52005 70000 92039 222// 00085 555 795// 0/508;",
"02795099999","2010-05-31T00:00:00","4","60.1","24.9833333","6.4","HELSINKI HARMAJA, FI","FM-12","99999","V020","270,1,N,0030,1","22000,1,9,N","045000,1,N,1","+0085,1","+0076,1","10149,1","00,1","0,1,06,1","00,1,+99999,9,99,9","00,99,1,00,1,00,1,99999,9,00,1,00,1","99999,9,10142,1","2,1,007,1,+999,9","+083,9","SYN100AAXX  31001 02795 47983 02703 10085 20076 30142 40149 52007 70000 92339 222// 00083 555 794// 0/605;",
"02795099999","2010-05-31T03:00:00","4","60.1","24.9833333","6.4","HELSINKI HARMAJA, FI","FM-12","99999","V020","360,1,N,0010,1","22000,1,9,N","035000,1,N,1","+0090,1","+0079,1","10152,1","00,1","0,1,03,1","00,1,+99999,9,99,9","00,99,1,00,1,00,1,99999,9,00,1,00,1","99999,9,10144,1","2,1,002,1,+999,9","+083,9","SYN100AAXX  31031 02795 47981 03601 10090 20079 30144 40152 52002 70000 90239 222// 00083 555 793// 0/603;",
"02795099999","2010-05-31T09:00:00","4","60.1","24.9833333","6.4","HELSINKI HARMAJA, FI","FM-12","99999","V020","170,1,N,0030,1","22000,1,9,N","035000,1,N,1","+0103,1","+0090,1","10162,1","00,1","0,1,03,1","00,1,+99999,9,99,9","00,99,1,00,1,00,1,99999,9,00,1,00,1","99999,9,10154,1","2,1,005,1,+999,9","+083,9","SYN100AAXX  31091 02795 47981 01703 10103 20090 30154 40162 52005 70000 90839 222// 00083 555 792// 0/003;",
"02795099999","2010-05-31T12:00:00","4","60.1","24.9833333","6.4","HELSINKI HARMAJA, FI","FM-12","99999","V020","160,1,N,0030,1","22000,1,9,N","045000,1,N,1","+0113,1","+0088,1","10159,1","00,1","0,1,06,1","00,1,+99999,9,99,9","00,99,1,00,1,00,1,99999,9,00,1,00,1","99999,9,10151,1","7,1,003,1,+999,9","+083,9","SYN100AAXX  31121 02795 47983 01603 10113 20088 30151 40159 57003 70000 91139 222// 00083 555 785// 0/004;",
"02795099999","2010-05-31T15:00:00","4","60.1","24.9833333","6.4","HELSINKI HARMAJA, FI","FM-12","99999","V020","230,1,N,0020,1","22000,1,9,N","050000,1,N,1","+0121,1","+0076,1","10157,1","00,1","0,1,03,1","00,1,+99999,9,99,9","00,99,1,00,1,00,1,99999,9,00,1,00,1","99999,9,10149,1","4,1,000,1,+999,9","+094,9","SYN100AAXX  31151 02795 47999 02302 10121 20076 30149 40157 54002 70000 91439 222// 00094 555 774// 0/604;",
"02795099999","2010-05-31T21:00:00","4","60.1","24.9833333","6.4","HELSINKI HARMAJA, FI","FM-12","99999","V020","300,1,N,0010,1","22000,1,9,N","050000,1,N,1","+0108,1","+0075,1","10156,1","00,1","0,1,03,1","00,1,+99999,9,99,9","00,99,1,00,1,00,1,99999,9,00,1,00,1","99999,9,10148,1","2,1,004,1,+999,9","+091,9","SYN100AAXX  31211 02795 47999 03001 10108 20075 30148 40156 52004 70000 92039 222// 00091 555 780// 0/001;",
"02795099999","2010-06-01T00:00:00","4","60.1","24.9833333","6.4","HELSINKI HARMAJA, FI","FM-12","99999","V020","360,1,N,0040,1","22000,1,9,N","028000,1,N,1","+0105,1","+0093,1","10152,1","00,1","0,1,06,1","00,1,+99999,9,99,9","00,99,1,00,1,00,1,99999,9,00,1,00,1","99999,9,10144,1","7,1,004,1,+999,9","+093,9","SYN100AAXX  01001 02795 47978 03604 10105 20093 30144 40152 57004 70000 92339 222// 00093 555 792// 0/004;",
"02795099999","2010-06-01T03:00:00","4","60.1","24.9833333","6.4","HELSINKI HARMAJA, FI","FM-12","99999","V020","020,1,N,0040,1","22000,1,9,N","030000,1,N,1","+0106,1","+0086,1","10153,1","00,1","0,1,03,1","00,1,+99999,9,99,9","00,99,1,00,1,00,1,99999,9,00,1,00,1","99999,9,10145,1","4,1,000,1,+999,9","+093,9","SYN100AAXX  01031 02795 47980 00204 10106 20086 30145 40153 54001 70000 90239 222// 00093 555 788// 0/205;",
"02795099999","2010-06-01T09:00:00","4","60.1","24.9833333","6.4","HELSINKI HARMAJA, FI","FM-12","99999","V020","090,1,N,0040,1","22000,1,9,N","040000,1,N,1","+0138,1","+0098,1","10155,1","00,1","0,1,03,1","00,1,+99999,9,99,9","00,99,1,00,1,00,1,99999,9,00,1,00,1","99999,9,10147,1","4,1,000,1,+999,9","+100,9","SYN100AAXX  01091 02795 47982 00904 10138 20098 30147 40155 54001 70000 90839 222// 00100 555 777// 0/405;",
"02795099999","2010-06-01T12:00:00","4","60.1","24.9833333","6.4","HELSINKI HARMAJA, FI","FM-12","99999","V020","100,1,N,0050,1","22000,1,9,N","035000,1,N,1","+0156,1","+0063,1","10148,1","00,1","0,1,06,1","00,1,+99999,9,99,9","00,99,1,00,1,00,1,99999,9,00,1,00,1","99999,9,10140,1","7,1,007,1,+999,9","+089,9","SYN100AAXX  01121 02795 47981 01005 10156 20063 30140 40148 57007 70000 91139 222// 00089 555 754// 0/307;",
"02795099999","2010-06-01T15:00:00","4","60.1","24.9833333","6.4","HELSINKI HARMAJA, FI","FM-12","99999","V020","070,1,N,0020,1","22000,1,9,N","050000,1,N,1","+0144,1","+0083,1","10139,1","00,1","0,1,03,1","00,1,+99999,9,99,9","00,99,1,00,1,00,1,99999,9,00,1,00,1","99999,9,10131,1","7,1,009,1,+999,9","+088,9","SYN100AAXX  01151 02795 47999 00702 10144 20083 30131 40139 57009 70000 91439 222// 00088 555 767// 0/606;",
"02795099999","2010-06-01T21:00:00","4","60.1","24.9833333","6.4","HELSINKI HARMAJA, FI","FM-12","99999","V020","020,1,N,0030,1","22000,1,9,N","050000,1,N,1","+0148,1","+0082,1","10138,1","00,1","0,1,03,1",,"01,99,1,01,1,99,9,99999,9,99,9,99,9","99999,9,10130,1","2,1,004,1,+999,9","+094,9","SYN106AAXX  01211 02795 47999 10203 10148 20082 30130 40138 52004 70000 81/// 92039 222// 00094 555 765// 0/003;",
"02795099999","2010-06-02T00:00:00","4","60.1","24.9833333","6.4","HELSINKI HARMAJA, FI","FM-12","99999","V020","020,1,N,0040,1","99999,9,9,N","050000,1,N,1","+0135,1","+0086,1","10138,1","00,1","0,1,06,1",,"07,99,1,05,1,99,9,01750,1,99,9,99,9","99999,9,10130,1","4,1,000,1,+999,9","+097,9","SYN106AAXX  02001 02795 47799 70204 10135 20086 30130 40138 54000 70000 85/// 92339 222// 00097 555 772// 0/305;",
"02795099999","2010-06-02T03:00:00","4","60.1","24.9833333","6.4","HELSINKI HARMAJA, FI","FM-12","99999","V020","010,1,N,0060,1","99999,9,9,N","050000,1,N,1","+0131,1","+0074,1","10133,1","00,1","0,1,03,1",,"05,99,1,01,1,99,9,01750,1,99,9,99,9","99999,9,10126,1","7,1,005,1,+999,9","+098,9","SYN106AAXX  02031 02795 47799 50106 10131 20074 30126 40133 57005 70000 81/// 90239 222// 00098 555 768// 0/006;",
"02795099999","2010-06-02T09:00:00","4","60.1","24.9833333","6.4","HELSINKI HARMAJA, FI","FM-12","99999","V020","070,1,N,0050,1","99999,9,9,N","040000,1,N,1","+0125,1","+0089,1","10147,1","00,1","0,1,03,1",,"05,99,1,03,1,99,9,00450,1,99,9,99,9","99999,9,10139,1","2,1,011,1,+999,9","+096,9","SYN106AAXX  02091 02795 47482 50705 10125 20089 30139 40147 52011 70000 83/// 90839 222// 00096 555 779// 0/106;",
"02795099999","2010-06-02T12:00:00","4","60.1","24.9833333","6.4","HELSINKI HARMAJA, FI","FM-12","99999","V020","130,1,N,0010,1","22000,1,9,N","035000,1,N,1","+0165,1","+0111,1","10152,1","00,1","0,1,06,1","00,1,+99999,9,99,9","00,99,1,00,1,00,1,99999,9,00,1,00,1","99999,9,10144,1","2,1,005,1,+999,9","+098,9","SYN100AAXX  02121 02795 47981 01301 10165 20111 30144 40152 52005 70000 91139 222// 00098 555 770// 0/605;",
"02795099999","2010-06-02T15:00:00","4","60.1","24.9833333","6.4","HELSINKI HARMAJA, FI","FM-12","99999","V020","170,1,N,0040,1","22000,1,9,N","035000,1,N,1","+0130,1","+0109,1","10151,1","00,1","0,1,03,1","00,1,+99999,9,99,9","00,99,1,00,1,00,1,99999,9,00,1,00,1","99999,9,10143,1","4,1,000,1,+999,9","+096,9","SYN100AAXX  02151 02795 47981 01704 10130 20109 30143 40151 54001 70000 91439 222// 00096 555 787// 0/206;",
"02795099999","2010-06-02T21:00:00","4","60.1","24.9833333","6.4","HELSINKI HARMAJA, FI","FM-12","99999","V020","130,1,N,0020,1","22000,1,9,N","022000,1,N,1","+0111,1","+0103,1","10161,1","00,1","0,1,03,1","00,1,+99999,9,99,9","00,99,1,00,1,00,1,99999,9,00,1,00,1","99999,9,10154,1","2,1,006,1,+999,9","+104,9","SYN100AAXX  02211 02795 47972 01302 10111 20103 30154 40161 52006 70000 92039 222// 00104 555 795// 0/002;",
"02795099999","2010-06-03T00:00:00","4","60.1","24.9833333","6.4","HELSINKI HARMAJA, FI","FM-12","99999","V020","110,1,N,0020,1","22000,1,9,N","022000,1,N,1","+0105,1","+0099,1","10157,1","00,1","0,1,06,1","00,1,+99999,9,99,9","00,99,1,00,1,00,1,99999,9,00,1,00,1","99999,9,10149,1","7,1,004,1,+999,9","+104,9","SYN100AAXX  03001 02795 47972 01102 10105 20099 30149 40157 57004 70000 92339 222// 00104 555 796// 0/602;",
"02795099999","2010-06-03T03:00:00","4","60.1","24.9833333","6.4","HELSINKI HARMAJA, FI","FM-12","99999","V020","160,1,N,0030,1","99999,9,9,N","008000,1,N,1","+0098,1","+0093,1","10150,1","10,1","2,1,03,1",,"08,99,1,08,1,99,9,00075,1,99,9,99,9","99999,9,10142,1","7,1,007,1,+999,9","+104,9","SYN106AAXX  03031 02795 47158 81603 10098 20093 30142 40150 57007 71010 88/// 90239 222// 00104 555 797// 0/104;",
"02795099999","2010-06-03T09:00:00","4","60.1","24.9833333","6.4","HELSINKI HARMAJA, FI","FM-12","99999","V020","150,1,N,0020,1","00120,1,9,N","001800,1,N,1","+0105,1","+0098,1","10142,1","10,1","3,1,03,1","09,1,+99999,9,99,9","09,99,1,09,1,99,9,99999,9,99,9,99,9","99999,9,10134,1","4,1,000,1,+999,9","+103,9","SYN100AAXX  03091 02795 47/18 91502 10105 20098 30134 40142 54000 71021 90839 222// 00103 555 796// 0/604;",
"02795099999","2010-06-03T12:00:00","4","60.1","24.9833333","6.4","HELSINKI HARMAJA, FI","FM-12","99999","V020","140,1,N,0030,1","99999,9,9,N","002500,1,N,1","+0120,1","+0106,1","10125,1","10,1","4,1,06,1",,"05,99,1,05,1,99,9,00025,1,99,9,99,9","99999,9,10117,1","7,1,017,1,+999,9","+104,9","SYN106AAXX  03121 02795 47025 51403 10120 20106 30117 40125 57017 71032 85/// 91139 222// 00104 555 791// 0/103;",
"02795099999","2010-06-03T15:00:00","4","60.1","24.9833333","6.4","HELSINKI HARMAJA, FI","FM-12","99999","V020","220,1,N,0060,1","22000,1,9,N","026000,1,N,1","+0134,1","+0109,1","10106,1","00,1","2,1,03,1","00,1,+99999,9,99,9","00,99,1,00,1,00,1,99999,9,00,1,00,1","99999,9,10098,1","7,1,019,1,+999,9","+107,9","SYN100AAXX  03151 02795 47976 02206 10134 20109 30098 40106 57019 70010 91439 222// 00107 555 785// 0/007;",
"02795099999","2010-06-03T21:00:00","4","60.1","24.9833333","6.4","HELSINKI HARMAJA, FI","FM-12","99999","V020","310,1,N,0090,1","22000,1,9,N","050000,1,N,1","+0142,1","+0073,1","10103,1","00,1","0,1,03,1","00,1,+99999,9,99,9","00,99,1,00,1,00,1,99999,9,00,1,00,1","99999,9,10095,1","2,1,010,1,+999,9","+105,9","SYN100AAXX  03211 02795 47999 03109 10142 20073 30095 40103 52010 70000 92039 222// 00105 555 763// 0/009;",
"02795099999","2010-06-04T00:00:00","4","60.1","24.9833333","6.4","HELSINKI HARMAJA, FI","FM-12","99999","V020","300,1,N,0070,1","22000,1,9,N","050000,1,N,1","+0119,1","+0078,1","10106,1","00,1","0,1,06,1","00,1,+99999,9,99,9","00,99,1,00,1,00,1,99999,9,00,1,00,1","99999,9,10098,1","2,1,003,1,+999,9","+105,9","SYN100AAXX  04001 02795 47999 03007 10119 20078 30098 40106 52003 70000 92339 222// 00105 555 776// 0/609;",
"02795099999","2010-06-04T03:00:00","4","60.1","24.9833333","6.4","HELSINKI HARMAJA, FI","FM-12","99999","V020","290,1,N,0060,1","22000,1,9,N","050000,1,N,1","+0110,1","+0073,1","10105,1","00,1","0,1,03,1","00,1,+99999,9,99,9","00,99,1,00,1,00,1,99999,9,00,1,00,1","99999,9,10097,1","4,1,000,1,+999,9","+105,9","SYN100AAXX  04031 02795 47999 02906 10110 20073 30097 40105 54001 70000 90239 222// 00105 555 778// 0/507;",
"02795099999","2010-06-04T09:00:00","4","60.1","24.9833333","6.4","HELSINKI HARMAJA, FI","FM-12","99999","V020","290,1,N,0050,1","22000,1,9,N","040000,1,N,1","+0145,1","+0078,1","10103,1","00,1","0,1,03,1",,"01,99,1,01,1,99,9,01250,1,99,9,99,9","99999,9,10096,1","4,1,000,1,+999,9","+114,9","SYN106AAXX  04091 02795 47682 12905 10145 20078 30096 40103 54000 70000 81/// 90839 222// 00114 555 764// 0/209;",
"02795099999","2010-06-04T12:00:00","4","60.1","24.9833333","6.4","HELSINKI HARMAJA, FI","FM-12","99999","V020","300,1,N,0060,1","22000,1,9,N","035000,1,N,1","+0158,1","+0079,1","10097,1","00,1","0,1,06,1",,"03,99,1,03,1,99,9,01750,1,99,9,99,9","99999,9,10089,1","7,1,007,1,+999,9","+119,9","SYN106AAXX  04121 02795 47781 33006 10158 20079 30089 40097 57007 70000 83/// 91139 222// 00119 555 759// 0/108;",
"02795099999","2010-06-04T15:00:00","4","60.1","24.9833333","6.4","HELSINKI HARMAJA, FI","FM-12","99999","V020","290,1,N,0060,1","22000,1,9,N","035000,1,N,1","+0160,1","+0058,1","10095,1","00,1","0,1,03,1","00,1,+99999,9,99,9","00,99,1,00,1,00,1,99999,9,00,1,00,1","99999,9,10088,1","4,1,000,1,+999,9","+121,9","SYN100AAXX  04151 02795 47981 02906 10160 20058 30088 40095 54002 70000 91439 222// 00121 555 750// 0/208;",
"02795099999","2010-06-04T21:00:00","4","60.1","24.9833333","6.4","HELSINKI HARMAJA, FI","FM-12","99999","V020","290,1,N,0080,1","22000,1,9,N","050000,1,N,1","+0121,1","+0050,1","10118,1","00,1","0,1,03,1","00,1,+99999,9,99,9","00,99,1,00,1,00,1,99999,9,00,1,00,1","99999,9,10110,1","2,1,013,1,+999,9","+115,9","SYN100AAXX  04211 02795 47999 02908 10121 20050 30110 40118 52013 70000 92039 222// 00115 555 762// 0/008;",
"02795099999","2010-06-05T00:00:00","4","60.1","24.9833333","6.4","HELSINKI HARMAJA, FI","FM-12","99999","V020","290,1,N,0070,1","22000,1,9,N","050000,1,N,1","+0099,1","+0046,1","10126,1","00,1","0,1,06,1","00,1,+99999,9,99,9","00,99,1,00,1,00,1,99999,9,00,1,00,1","99999,9,10118,1","2,1,008,1,+999,9","+107,9","SYN100AAXX  05001 02795 47999 02907 10099 20046 30118 40126 52008 70000 92339 222// 00107 555 769// 0/509;",
"02795099999","2010-06-05T03:00:00","4","60.1","24.9833333","6.4","HELSINKI HARMAJA, FI","FM-12","99999","V020","290,1,N,0070,1","22000,1,9,N","050000,1,N,1","+0088,1","+0045,1","10130,1","00,1","0,1,03,1",,"03,99,1,03,1,99,9,02250,1,99,9,99,9","99999,9,10122,1","2,1,004,1,+999,9","+106,9","SYN106AAXX  05031 02795 47899 32907 10088 20045 30122 40130 52004 70000 83/// 90239 222// 00106 555 775// 0/307;",
"02795099999","2010-06-05T09:00:00","4","60.1","24.9833333","6.4","HELSINKI HARMAJA, FI","FM-12","99999","V020","270,1,N,0080,1","22000,1,9,N","035000,1,N,1","+0122,1","+0034,1","10137,1","00,1","0,1,03,1",,"01,99,1,01,1,99,9,01750,1,99,9,99,9","99999,9,10129,1","4,1,000,1,+999,9","+107,9","SYN106AAXX  05091 02795 47781 12708 10122 20034 30129 40137 54000 70000 81/// 90839 222// 00107 555 755// 0/309;",
"02795099999","2010-06-05T12:00:00","4","60.1","24.9833333","6.4","HELSINKI HARMAJA, FI","FM-12","99999","V020","270,1,N,0090,1","22000,1,9,N","030000,1,N,1","+0140,1","+0034,1","10131,1","00,1","0,1,06,1",,"01,99,1,01,1,99,9,01750,1,99,9,99,9","99999,9,10124,1","7,1,006,1,+999,9","+108,9","SYN106AAXX  05121 02795 47780 12709 10140 20034 30124 40131 57006 70000 81/// 91139 222// 00108 555 749// 0/409;",
"02795099999","2010-06-05T15:00:00","4","60.1","24.9833333","6.4","HELSINKI HARMAJA, FI","FM-12","99999","V020","290,1,N,0090,1","22000,1,9,N","040000,1,N,1","+0133,1","+0024,1","10135,1","00,1","0,1,03,1","00,1,+99999,9,99,9","00,99,1,00,1,00,1,99999,9,00,1,00,1","99999,9,10128,1","2,1,004,1,+999,9","+107,9","SYN100AAXX  05151 02795 47982 02909 10133 20024 30128 40135 52004 70000 91439 222// 00107 555 748// 0/212;",
"02795099999","2010-06-05T21:00:00","4","60.1","24.9833333","6.4","HELSINKI HARMAJA, FI","FM-12","99999","V020","280,1,N,0060,1","22000,1,9,N","050000,1,N,1","+0096,1","+0026,1","10154,1","00,1","0,1,03,1","00,1,+99999,9,99,9","00,99,1,00,1,00,1,99999,9,00,1,00,1","99999,9,10146,1","2,1,013,1,+999,9","+100,9","SYN100AAXX  05211 02795 47999 02806 10096 20026 30146 40154 52013 70000 92039 222// 00100 555 761// 0/608;",
"02795099999","2010-06-06T00:00:00","4","60.1","24.9833333","6.4","HELSINKI HARMAJA, FI","FM-12","99999","V020","290,1,N,0030,1","22000,1,9,N","050000,1,N,1","+0077,1","+0018,1","10160,1","00,1","0,1,06,1","00,1,+99999,9,99,9","00,99,1,00,1,00,1,99999,9,00,1,00,1","99999,9,10152,1","2,1,006,1,+999,9","+095,9","SYN100AAXX  06001 02795 47999 02903 10077 20018 30152 40160 52006 70000 92339 222// 00095 555 766// 0/606;",
"02795099999","2010-06-06T03:00:00","4","60.1","24.9833333","6.4","HELSINKI HARMAJA, FI","FM-12","99999","V020","300,1,N,0030,1","22000,1,9,N","050000,1,N,1","+0075,1","+0033,1","10161,1","00,1","0,1,03,1","00,1,+99999,9,99,9","00,99,1,00,1,00,1,99999,9,00,1,00,1","99999,9,10153,1","4,1,000,1,+999,9","+093,9","SYN100AAXX  06031 02795 47999 03003 10075 20033 30153 40161 54001 70000 90239 222// 00093 555 775// 0/505;",
"02795099999","2010-06-06T09:00:00","4","60.1","24.9833333","6.4","HELSINKI HARMAJA, FI","FM-12","99999","V020","170,1,N,0030,1","22000,1,9,N","045000,1,N,1","+0103,1","+0052,1","10159,1","00,1","0,1,03,1","00,1,+99999,9,99,9","00,99,1,00,1,00,1,99999,9,00,1,00,1","99999,9,10151,1","7,1,003,1,+999,9","+093,9","SYN100AAXX  06091 02795 47983 01703 10103 20052 30151 40159 57003 70000 90839 222// 00093 555 771// 0/204;",
"02795099999","2010-06-06T12:00:00","4","60.1","24.9833333","6.4","HELSINKI HARMAJA, FI","FM-12","99999","V020","120,1,N,0020,1","22000,1,9,N","040000,1,N,1","+0129,1","+0074,1","10144,1","00,1","0,1,06,1","00,1,+99999,9,99,9","00,99,1,00,1,00,1,99999,9,00,1,00,1","99999,9,10136,1","7,1,015,1,+999,9","+103,9","SYN100AAXX  06121 02795 47982 01202 10129 20074 30136 40144 57015 70000 91139 222// 00103 555 769// 0/603;",
"02795099999","2010-06-06T15:00:00","4","60.1","24.9833333","6.4","HELSINKI HARMAJA, FI","FM-12","99999","V020","120,1,N,0040,1","99999,9,9,N","050000,1,N,1","+0120,1","+0083,1","10128,1","00,1","0,1,03,1",,"07,99,1,07,1,99,9,02250,1,99,9,99,9","99999,9,10121,1","7,1,016,1,+999,9","+102,9","SYN106AAXX  06151 02795 47899 71204 10120 20083 30121 40128 57016 70000 87/// 91439 222// 00102 555 778// 0/304;",
"02795099999","2010-06-06T21:00:00","4","60.1","24.9833333","6.4","HELSINKI HARMAJA, FI","FM-12","99999","V020","070,1,N,0020,1","99999,9,9,N","045000,1,N,1","+0110,1","+0099,1","10097,1","00,1","0,1,03,1",,"07,99,1,07,1,99,9,01250,1,99,9,99,9","99999,9,10089,1","7,1,011,1,+999,9","+099,9","SYN106AAXX  06211 02795 47683 70702 10110 20099 30089 40097 57011 70000 87/// 92039 222// 00099 555 793// 0/603;",
"02795099999","2010-06-07T00:00:00","4","60.1","24.9833333","6.4","HELSINKI HARMAJA, FI","FM-12","99999","V020","110,1,N,0020,1","22000,1,9,N","050000,1,N,1","+0111,1","+0090,1","10086,1","00,1","0,1,06,1",,"01,99,1,01,1,99,9,01750,1,99,9,99,9","99999,9,10079,1","7,1,010,1,+999,9","+103,9","SYN106AAXX  07001 02795 47799 11102 10111 20090 30079 40086 57010 70000 81/// 92339 222// 00103 555 787// 0/302;",
"02795099999","2010-06-07T03:00:00","4","60.1","24.9833333","6.4","HELSINKI HARMAJA, FI","FM-12","99999","V020","999,9,C,0000,1","22000,1,9,N","040000,1,N,1","+0108,1","+0092,1","10082,1","00,1","0,1,03,1","00,1,+99999,9,99,9","00,99,1,00,1,00,1,99999,9,00,1,00,1","99999,9,10074,1","7,1,004,1,+999,9","+104,9","SYN100AAXX  07031 02795 47982 00000 10108 20092 30074 40082 57004 70000 90239 222// 00104 555 790// 0/402;",
"02795099999","2010-06-07T09:00:00","4","60.1","24.9833333","6.4","HELSINKI HARMAJA, FI","FM-12","99999","V020","190,1,N,0020,1","22000,1,9,N","035000,1,N,1","+0131,1","+0099,1","10102,1","00,1","0,1,03,1","00,1,+99999,9,99,9","00,99,1,00,1,00,1,99999,9,00,1,00,1","99999,9,10094,1","2,1,016,1,+999,9","+106,9","SYN100AAXX  07091 02795 47981 01902 10131 20099 30094 40102 52016 70000 90839 222// 00106 555 781// 0/605;",
"02795099999","2010-06-07T12:00:00","4","60.1","24.9833333","6.4","HELSINKI HARMAJA, FI","FM-12","99999","V020","170,1,N,0030,1","22000,1,9,N","040000,1,N,1","+0136,1","+0100,1","10100,1","00,1","0,1,06,1","00,1,+99999,9,99,9","00,99,1,00,1,00,1,99999,9,00,1,00,1","99999,9,10093,1","4,1,000,1,+999,9","+108,9","SYN100AAXX  07121 02795 47982 01703 10136 20100 30093 40100 54002 70000 91139 222// 00108 555 779// 0/003;",
"02795099999","2010-06-07T15:00:00","4","60.1","24.9833333","6.4","HELSINKI HARMAJA, FI","FM-12","99999","V020","150,1,N,0020,1","22000,1,9,N","030000,1,N,1","+0141,1","+0099,1","10098,1","00,1","0,1,03,1","00,1,+99999,9,99,9","00,99,1,00,1,00,1,99999,9,00,1,00,1","99999,9,10091,1","7,1,002,1,+999,9","+110,9","SYN100AAXX  07151 02795 47980 01502 10141 20099 30091 40098 57002 70000 91439 222// 00110 555 776// 0/304;",
"02795099999","2010-06-07T21:00:00","4","60.1","24.9833333","6.4","HELSINKI HARMAJA, FI","FM-12","99999","V020","060,1,N,0050,1","22000,1,9,N","050000,1,N,1","+0123,1","+0104,1","10087,1","00,1","0,1,03,1","00,1,+99999,9,99,9","00,99,1,00,1,00,1,99999,9,00,1,00,1","99999,9,10079,1","7,1,005,1,+999,9","+121,9","SYN100AAXX  07211 02795 47999 00605 10123 20104 30079 40087 57005 70000 92039 222// 00121 555 788// 0/005;",
"02795099999","2010-06-08T00:00:00","4","60.1","24.9833333","6.4","HELSINKI HARMAJA, FI","FM-12","99999","V020","080,1,N,0110,1","22000,1,9,N","030000,1,N,1","+0123,1","+0097,1","10076,1","00,1","0,1,06,1","00,1,+99999,9,99,9","00,99,1,00,1,00,1,99999,9,00,1,00,1","99999,9,10069,1","7,1,011,1,+999,9","+120,9","SYN100AAXX  08001 02795 47980 00811 10123 20097 30069 40076 57011 70000 92339 222// 00120 555 784// 0/112;",
"02795099999","2010-06-08T03:00:00","4","60.1","24.9833333","6.4","HELSINKI HARMAJA, FI","FM-12","99999","V020","080,1,N,0090,1","99999,9,9,N","035000,1,N,1","+0113,1","+0079,1","10079,1","00,1","0,1,03,1",,"07,99,1,07,1,99,9,01250,1,99,9,99,9","99999,9,10071,1","2,1,002,1,+999,9","+111,9","SYN106AAXX  08031 02795 47681 70809 10113 20079 30071 40079 52002 70000 87/// 90239 222// 00111 555 779// 0/612;",
"02795099999","2010-06-08T09:00:00","4","60.1","24.9833333","6.4","HELSINKI HARMAJA, FI","FM-12","99999","V020","040,1,N,0060,1","99999,9,9,N","035000,1,N,1","+0122,1","+0034,1","10092,1","00,1","0,1,03,1",,"07,99,1,07,1,99,9,99999,9,99,9,99,9","99999,9,10084,1","2,1,012,1,+999,9","+108,9","SYN106AAXX  08091 02795 47981 70406 10122 20034 30084 40092 52012 70000 87/// 90839 222// 00108 555 755// 0/608;",
"02795099999","2010-06-08T12:00:00","4","60.1","24.9833333","6.4","HELSINKI HARMAJA, FI","FM-12","99999","V020","110,1,N,0070,1","22000,1,9,N","035000,1,N,1","+0127,1","+0079,1","10102,1","00,1","0,1,06,1","00,1,+99999,9,99,9","00,99,1,00,1,00,1,99999,9,00,1,00,1","99999,9,10094,1","2,1,010,1,+999,9","+107,9","SYN100AAXX  08121 02795 47981 01107 10127 20079 30094 40102 52010 70000 91139 222// 00107 555 772// 0/508;",
"02795099999","2010-06-08T15:00:00","4","60.1","24.9833333","6.4","HELSINKI HARMAJA, FI","FM-12","99999","V020","120,1,N,0050,1","22000,1,9,N","035000,1,N,1","+0124,1","+0072,1","10110,1","00,1","0,1,03,1","00,1,+99999,9,99,9","00,99,1,00,1,00,1,99999,9,00,1,00,1","99999,9,10102,1","2,1,008,1,+999,9","+106,9","SYN100AAXX  08151 02795 47981 01205 10124 20072 30102 40110 52008 70000 91439 222// 00106 555 771// 0/507;",
"02795099999","2010-06-08T21:00:00","4","60.1","24.9833333","6.4","HELSINKI HARMAJA, FI","FM-12","99999","V020","340,1,N,0010,1","22000,1,9,N","050000,1,N,1","+0104,1","+0079,1","10135,1","00,1","0,1,03,1","00,1,+99999,9,99,9","00,99,1,00,1,00,1,99999,9,00,1,00,1","99999,9,10127,1","2,1,014,1,+999,9","+106,9","SYN100AAXX  08211 02795 47999 03401 10104 20079 30127 40135 52014 70000 92039 222// 00106 555 784// 0/001;",
"02795099999","2010-06-09T00:00:00","4","60.1","24.9833333","6.4","HELSINKI HARMAJA, FI","FM-12","99999","V020","020,1,N,0020,1","22000,1,9,N","050000,1,N,1","+0103,1","+0075,1","10143,1","00,1","0,1,06,1","00,1,+99999,9,99,9","00,99,1,00,1,00,1,99999,9,00,1,00,1","99999,9,10135,1","2,1,007,1,+999,9","+105,9","SYN100AAXX  09001 02795 47999 00202 10103 20075 30135 40143 52007 70000 92339 222// 00105 555 782// 0/002;",
"02795099999","2010-06-09T03:00:00","4","60.1","24.9833333","6.4","HELSINKI HARMAJA, FI","FM-12","99999","V020","010,1,N,0020,1","22000,1,9,N","035000,1,N,1","+0103,1","+0080,1","10151,1","00,1","0,1,03,1",,"01,99,1,01,1,99,9,99999,9,99,9,99,9","99999,9,10144,1","2,1,009,1,+999,9","+105,9","SYN106AAXX  09031 02795 47981 10102 10103 20080 30144 40151 52009 70000 81/// 90239 222// 00105 555 786// 0/502;",
"02795099999","2010-06-09T09:00:00","4","60.1","24.9833333","6.4","HELSINKI HARMAJA, FI","FM-12","99999","V020","120,1,N,0020,1","22000,1,9,N","040000,1,N,1","+0134,1","+0088,1","10170,1","00,1","0,1,03,1",,"01,99,1,01,1,99,9,99999,9,99,9,99,9","99999,9,10162,1","2,1,009,1,+999,9","+108,9","SYN106AAXX  09091 02795 47982 11202 10134 20088 30162 40170 52009 70000 81/// 90839 222// 00108 555 774// 0/103;",
"02795099999","2010-06-09T12:00:00","4","60.1","24.9833333","6.4","HELSINKI HARMAJA, FI","FM-12","99999","V020","130,1,N,0030,1","22000,1,9,N","035000,1,N,1","+0146,1","+0090,1","10173,1","00,1","0,1,06,1",,"01,99,1,01,1,99,9,99999,9,99,9,99,9","99999,9,10166,1","2,1,003,1,+999,9","+109,9","SYN106AAXX  09121 02795 47981 11303 10146 20090 30166 40173 52003 70000 81/// 91139 222// 00109 555 769// 0/403;",
"02795099999","2010-06-09T15:00:00","4","60.1","24.9833333","6.4","HELSINKI HARMAJA, FI","FM-12","99999","V020","120,1,N,0040,1","22000,1,9,N","040000,1,N,1","+0138,1","+0079,1","10170,1","00,1","0,1,03,1",,"01,99,1,01,1,99,9,99999,9,99,9,99,9","99999,9,10162,1","7,1,004,1,+999,9","+108,9","SYN106AAXX  09151 02795 47982 11204 10138 20079 30162 40170 57004 70000 81/// 91439 222// 00108 555 768// 0/404;",
"02795099999","2010-06-09T21:00:00","4","60.1","24.9833333","6.4","HELSINKI HARMAJA, FI","FM-12","99999","V020","090,1,N,0020,1","22000,1,9,N","050000,1,N,1","+0120,1","+0090,1","10165,1","00,1","0,1,03,1",,"03,99,1,03,1,99,9,99999,9,99,9,99,9","99999,9,10158,1","2,1,003,1,+999,9","+113,9","SYN106AAXX  09211 02795 47999 30902 10120 20090 30158 40165 52003 70000 83/// 92039 222// 00113 555 782// 0/504;",
"02795099999","2010-06-10T00:00:00","4","60.1","24.9833333","6.4","HELSINKI HARMAJA, FI","FM-12","99999","V020","090,1,N,0030,1","99999,9,9,N","050000,1,N,1","+0119,1","+0092,1","10161,1","00,1","0,1,06,1",,"07,99,1,07,1,99,9,99999,9,99,9,99,9","99999,9,10154,1","7,1,004,1,+999,9","+112,9","SYN106AAXX  10001 02795 47999 70903 10119 20092 30154 40161 57004 70000 87/// 92339 222// 00112 555 784// 0/203;",
"02795099999","2010-06-10T03:00:00","4","60.1","24.9833333","6.4","HELSINKI HARMAJA, FI","FM-12","99999","V020","020,1,N,0020,1","99999,9,9,N","045000,1,N,1","+0117,1","+0097,1","10160,1","00,1","0,1,03,1",,"05,99,1,01,1,99,9,01750,1,99,9,99,9","99999,9,10152,1","4,1,000,1,+999,9","+112,9","SYN106AAXX  10031 02795 47783 50202 10117 20097 30152 40160 54002 70000 81/// 90239 222// 00112 555 788// 0/603;",
"02795099999","2010-06-10T09:00:00","4","60.1","24.9833333","6.4","HELSINKI HARMAJA, FI","FM-12","99999","V020","140,1,N,0020,1","22000,1,9,N","035000,1,N,1","+0142,1","+0105,1","10165,1","00,1","0,1,03,1","00,1,+99999,9,99,9","00,99,1,00,1,00,1,99999,9,00,1,00,1","99999,9,10158,1","2,1,003,1,+999,9","+116,9","SYN100AAXX  10091 02795 47981 01402 10142 20105 30158 40165 52003 70000 90839 222// 00116 555 778// 0/002;",
"02795099999","2010-06-10T12:00:00","4","60.1","24.9833333","6.4","HELSINKI HARMAJA, FI","FM-12","99999","V020","190,1,N,0020,1","22000,1,9,N","029000,1,N,1","+0143,1","+0102,1","10165,1","00,1","0,1,06,1","00,1,+99999,9,99,9","00,99,1,00,1,00,1,99999,9,00,1,00,1","99999,9,10157,1","4,1,000,1,+999,9","+118,9","SYN100AAXX  10121 02795 47979 01902 10143 20102 30157 40165 54001 70000 91139 222// 00118 555 776// 0/303;",
"02795099999","2010-06-10T15:00:00","4","60.1","24.9833333","6.4","HELSINKI HARMAJA, FI","FM-12","99999","V020","210,1,N,0020,1","22000,1,9,N","040000,1,N,1","+0157,1","+0117,1","10160,1","00,1","0,1,03,1","00,1,+99999,9,99,9","00,99,1,00,1,00,1,99999,9,00,1,00,1","99999,9,10152,1","7,1,005,1,+999,9","+126,9","SYN100AAXX  10151 02795 47982 02102 10157 20117 30152 40160 57005 70000 91439 222// 00126 555 777// 0/602;",
"02795099999","2010-06-10T21:00:00","4","60.1","24.9833333","6.4","HELSINKI HARMAJA, FI","FM-12","99999","V020","999,9,C,0000,1","22000,1,9,N","050000,1,N,1","+0140,1","+0111,1","10155,1","00,1","0,1,03,1","00,1,+99999,9,99,9","00,99,1,00,1,00,1,99999,9,00,1,00,1","99999,9,10148,1","4,1,000,1,+999,9","+129,9","SYN100AAXX  10211 02795 47999 00000 10140 20111 30148 40155 54000 70000 92039 222// 00129 555 783// 0/601;",
"02795099999","2010-06-11T00:00:00","4","60.1","24.9833333","6.4","HELSINKI HARMAJA, FI","FM-12","99999","V020","100,1,N,0020,1","22000,1,9,N","030000,1,N,1","+0129,1","+0120,1","10147,1","00,1","0,1,06,1","00,1,+99999,9,99,9","00,99,1,00,1,00,1,99999,9,00,1,00,1","99999,9,10140,1","7,1,008,1,+999,9","+124,9","SYN100AAXX  11001 02795 47980 01002 10129 20120 30140 40147 57008 70000 92339 222// 00124 555 794// 0/002;",
"02795099999","2010-06-11T03:00:00","4","60.1","24.9833333","6.4","HELSINKI HARMAJA, FI","FM-12","99999","V020","090,1,N,0040,1","22000,1,9,N","045000,1,N,1","+0137,1","+0114,1","10134,1","00,1","0,1,03,1","00,1,+99999,9,99,9","00,99,1,00,1,00,1,99999,9,00,1,00,1","99999,9,10126,1","7,1,013,1,+999,9","+123,9","SYN100AAXX  11031 02795 47983 00904 10137 20114 30126 40134 57013 70000 90239 222// 00123 555 786// 0/104;",
"02795099999","2010-06-11T09:00:00","4","60.1","24.9833333","6.4","HELSINKI HARMAJA, FI","FM-12","99999","V020","100,1,N,0060,1","22000,1,9,N","040000,1,N,1","+0143,1","+0114,1","10095,1","00,1","0,1,03,1","00,1,+99999,9,99,9","00,99,1,00,1,00,1,99999,9,00,1,00,1","99999,9,10087,1","7,1,021,1,+999,9","+117,9","SYN100AAXX  11091 02795 47982 01006 10143 20114 30087 40095 57021 70000 90839 222// 00117 555 783// 0/607;",
"02795099999","2010-06-11T12:00:00","4","60.1","24.9833333","6.4","HELSINKI HARMAJA, FI","FM-12","99999","V020","090,1,N,0100,1","99999,9,9,N","008000,1,N,1","+0138,1","+0115,1","10058,1","62,1","6,1,06,1",,"07,99,1,05,1,99,9,01250,1,99,9,99,9","99999,9,10050,1","7,1,037,1,+999,9","+118,9","SYN106AAXX  11121 02795 47658 70910 10138 20115 30050 40058 57037 76265 85/// 91139 222// 00118 555 786// 0/010;",
"02795099999","2010-06-11T15:00:00","4","60.1","24.9833333","6.4","HELSINKI HARMAJA, FI","FM-12","99999","V020","090,1,N,0090,1","99999,9,9,N","004600,1,N,1","+0125,1","+0116,1","10026,1","63,1","8,1,03,1",,"08,99,1,08,1,99,9,00800,1,99,9,99,9","99999,9,10019,1","7,1,032,1,+999,9","+119,9","SYN106AAXX  11151 02795 47546 80909 10125 20116 30019 40026 57032 76386 88/// 91439 222// 00119 555 794// 0/610;",
"02795099999","2010-06-11T21:00:00","4","60.1","24.9833333","6.4","HELSINKI HARMAJA, FI","FM-12","99999","V020","110,1,N,0050,1","99999,9,9,N","004000,1,N,1","+0124,1","+0118,1","09951,1","10,1","6,1,03,1",,"08,99,1,08,1,99,9,00075,1,99,9,99,9","99999,9,09944,1","7,1,030,1,+999,9","+122,9","SYN106AAXX  11211 02795 47140 81105 10124 20118 39944 49951 57030 71065 88/// 92039 222// 00122 555 796// 0/510;",
"02795099999","2010-06-12T00:00:00","4","60.1","24.9833333","6.4","HELSINKI HARMAJA, FI","FM-12","99999","V020","230,1,N,0050,1","00060,1,9,N","000700,1,N,1","+0122,1","+0116,1","09932,1","34,1","6,1,06,1","09,1,+99999,9,99,9","09,99,1,09,1,99,9,99999,9,99,9,99,9","99999,9,09924,1","7,1,019,1,+999,9","+118,9","SYN100AAXX  12001 02795 47107 92305 10122 20116 39924 49932 57019 73465 92339 222// 00118 555 796// 0/306;",
"02795099999","2010-06-12T03:00:00","4","60.1","24.9833333","6.4","HELSINKI HARMAJA, FI","FM-12","99999","V020","220,1,N,0060,1","00030,1,9,N","000500,1,N,1","+0116,1","+0111,1","09912,1","81,1","8,1,03,1","09,1,+99999,9,99,9","09,99,1,09,1,99,9,99999,9,99,9,99,9","99999,9,09905,1","7,1,020,1,+999,9","+118,9","SYN100AAXX  12031 02795 47/05 92206 10116 20111 39905 49912 57020 78186 90239 222// 00118 555 796// 0/207;",
"02795099999","2010-06-12T09:00:00","4","60.1","24.9833333","6.4","HELSINKI HARMAJA, FI","FM-12","99999","V020","220,1,N,0130,1","99999,9,9,N","020000,1,N,1","+0125,1","+0115,1","09904,1","81,1","8,1,03,1",,"08,99,1,08,1,99,9,00150,1,99,9,99,9","99999,9,09896,1","2,1,003,1,+999,9","+119,9","SYN106AAXX  12091 02795 47270 82213 10125 20115 39896 49904 52003 78186 88/// 90839 222// 00119 555 794// 0/114;",
"02795099999","2010-06-12T12:00:00","4","60.1","24.9833333","6.4","HELSINKI HARMAJA, FI","FM-12","99999","V020","230,1,N,0170,1","22000,1,9,N","021000,1,N,1","+0117,1","+0084,1","09938,1","00,1","8,1,06,1","00,1,+99999,9,99,9","00,99,1,00,1,00,1,99999,9,00,1,00,1","99999,9,09930,1","2,1,034,1,+999,9","+120,9","SYN100AAXX  12121 02795 47971 02317 10117 20084 39930 49938 52034 70086 91139 222// 00120 555 780// 0/319;",
"02795099999","2010-06-12T15:00:00","4","60.1","24.9833333","6.4","HELSINKI HARMAJA, FI","FM-12","99999","V020","220,1,N,0150,1","22000,1,9,N","030000,1,N,1","+0122,1","+0085,1","09951,1","00,1","0,1,03,1","00,1,+99999,9,99,9","00,99,1,00,1,00,1,99999,9,00,1,00,1","99999,9,09943,1","2,1,013,1,+999,9","+119,9","SYN100AAXX  12151 02795 47980 02215 10122 20085 39943 49951 52013 70000 91439 222// 00119 555 778// 0/519;",
"02795099999","2010-06-12T21:00:00","4","60.1","24.9833333","6.4","HELSINKI HARMAJA, FI","FM-12","99999","V020","190,1,N,0130,1","22000,1,9,N","014000,1,N,1","+0109,1","+0095,1","09932,1","81,1","8,1,03,1",,"01,99,1,01,1,99,9,01750,1,99,9,99,9","99999,9,09925,1","7,1,015,1,+999,9","+113,9","SYN106AAXX  12211 02795 47764 11913 10109 20095 39925 49932 57015 78186 81/// 92039 222// 00113 555 791// 0/013;",
"02795099999","2010-06-13T00:00:00","4","60.1","24.9833333","6.4","HELSINKI HARMAJA, FI","FM-12","99999","V020","190,1,N,0100,1","99999,9,9,N","012000,1,N,1","+0105,1","+0094,1","09919,1","51,1","8,1,06,1",,"07,99,1,07,1,99,9,00800,1,99,9,99,9","99999,9,09911,1","7,1,014,1,+999,9","+111,9","SYN106AAXX  13001 02795 47562 71910 10105 20094 39911 49919 57014 75186 87/// 92339 222// 00111 555 793// 0/613;",
"02795099999","2010-06-13T03:00:00","4","60.1","24.9833333","6.4","HELSINKI HARMAJA, FI","FM-12","99999","V020","190,1,N,0090,1","99999,9,9,N","009000,1,N,1","+0103,1","+0092,1","09905,1","61,1","6,1,03,1",,"07,99,1,07,1,99,9,00800,1,99,9,99,9","99999,9,09897,1","7,1,014,1,+999,9","+111,9","SYN106AAXX  13031 02795 47559 71909 10103 20092 39897 49905 57014 76165 87/// 90239 222// 00111 555 793// 0/311;",
"02795099999","2010-06-13T09:00:00","4","60.1","24.9833333","6.4","HELSINKI HARMAJA, FI","FM-12","99999","V020","220,1,N,0060,1","99999,9,9,N","002400,1,N,1","+0095,1","+0088,1","09916,1","10,1","5,1,03,1",,"07,99,1,07,1,99,9,00075,1,99,9,99,9","99999,9,09909,1","2,1,018,1,+999,9","+111,9","SYN106AAXX  13091 02795 47124 72206 10095 20088 39909 49916 52018 71052 87/// 90839 222// 00111 555 795// 0/609;",
"02795099999","2010-06-13T12:00:00","4","60.1","24.9833333","6.4","HELSINKI HARMAJA, FI","FM-12","99999","V020","260,1,N,0020,1","22000,1,9,N","035000,1,N,1","+0140,1","+0113,1","09948,1","00,1","5,1,06,1",,"03,99,1,03,1,99,9,00450,1,99,9,99,9","99999,9,09941,1","2,1,032,1,+999,9","+113,9","SYN106AAXX  13121 02795 47481 32602 10140 20113 39941 49948 52032 70052 83/// 91139 222// 00113 555 784// 0/507;",
"02795099999","2010-06-13T15:00:00","4","60.1","24.9833333","6.4","HELSINKI HARMAJA, FI","FM-12","99999","V020","240,1,N,0030,1","99999,9,9,N","040000,1,N,1","+0130,1","+0109,1","09984,1","00,1","0,1,03,1",,"07,99,1,07,1,99,9,00800,1,99,9,99,9","99999,9,09976,1","2,1,035,1,+999,9","+114,9","SYN106AAXX  13151 02795 47582 72403 10130 20109 39976 49984 52035 70000 87/// 91439 222// 00114 555 787// 0/406;",
"02795099999","2010-06-13T21:00:00","4","60.1","24.9833333","6.4","HELSINKI HARMAJA, FI","FM-12","99999","V020","240,1,N,0040,1","99999,9,9,N","045000,1,N,1","+0118,1","+0105,1","10041,1","81,1","8,1,03,1",,"07,99,1,07,1,99,9,01250,1,99,9,99,9","99999,9,10033,1","2,1,029,1,+999,9","+114,9","SYN106AAXX  13211 02795 47683 72404 10118 20105 30033 40041 52029 78186 87/// 92039 222// 00114 555 792// 0/606;",
"02795099999","2010-06-14T00:00:00","4","60.1","24.9833333","6.4","HELSINKI HARMAJA, FI","FM-12","99999","V020","270,1,N,0030,1","99999,9,9,N","040000,1,N,1","+0121,1","+0110,1","10059,1","22,1","8,1,06,1",,"07,99,1,07,1,99,9,01250,1,99,9,99,9","99999,9,10052,1","2,1,018,1,+999,9","+114,9","SYN106AAXX  14001 02795 47682 72703 10121 20110 30052 40059 52018 72286 87/// 92339 222// 00114 555 793// 0/605;",
"02795099999","2010-06-14T03:00:00","4","60.1","24.9833333","6.4","HELSINKI HARMAJA, FI","FM-12","99999","V020","290,1,N,0040,1","22000,1,9,N","050000,1,N,1","+0118,1","+0103,1","10078,1","00,1","3,1,03,1",,"03,99,1,03,1,99,9,00450,1,99,9,99,9","99999,9,10070,1","2,1,018,1,+999,9","+115,9","SYN106AAXX  14031 02795 47499 32904 10118 20103 30070 40078 52018 70020 83/// 90239 222// 00115 555 790// 0/306;",
"02795099999","2010-06-14T09:00:00","4","60.1","24.9833333","6.4","HELSINKI HARMAJA, FI","FM-12","99999","V020","220,1,N,0060,1","99999,9,9,N","040000,1,N,1","+0111,1","+0094,1","10109,1","00,1","0,1,03,1",,"05,99,1,05,1,99,9,01750,1,99,9,99,9","99999,9,10101,1","2,1,018,1,+999,9","+117,9","SYN106AAXX  14091 02795 47782 52206 10111 20094 30101 40109 52018 70000 85/// 90839 222// 00117 555 790// 0/006;",
"02795099999","2010-06-14T12:00:00","4","60.1","24.9833333","6.4","HELSINKI HARMAJA, FI","FM-12","99999","V020","230,1,N,0040,1","22000,1,9,N","030000,1,N,1","+0119,1","+0103,1","10120,1","81,1","8,1,06,1",,"03,99,1,03,1,99,9,01250,1,99,9,99,9","99999,9,10112,1","2,1,011,1,+999,9","+118,9","SYN106AAXX  14121 02795 47680 32304 10119 20103 30112 40120 52011 78186 83/// 91139 222// 00118 555 790// 0/606;",
"02795099999","2010-06-14T15:00:00","4","60.1","24.9833333","6.4","HELSINKI HARMAJA, FI","FM-12","99999","V020","170,1,N,0020,1","99999,9,9,N","006000,1,N,1","+0110,1","+0104,1","10121,1","23,1","8,1,03,1",,"07,99,1,07,1,99,9,00075,1,99,9,99,9","99999,9,10113,1","4,1,000,1,+999,9","+120,9","SYN106AAXX  14151 02795 47156 71702 10110 20104 30113 40121 54001 72386 87/// 91439 222// 00120 555 796// 0/604;",
"02795099999","2010-06-14T21:00:00","4","60.1","24.9833333","6.4","HELSINKI HARMAJA, FI","FM-12","99999","V020","210,1,N,0060,1","00060,1,9,N","000700,1,N,1","+0099,1","+0093,1","10126,1","34,1","4,1,03,1","09,1,+99999,9,99,9","09,99,1,09,1,99,9,99999,9,99,9,99,9","99999,9,10118,1","2,1,005,1,+999,9","+119,9","SYN100AAXX  14211 02795 47/07 92106 10099 20093 30118 40126 52005 73432 92039 222// 00119 555 796// 0/406;",
"02795099999","2010-06-15T00:00:00","4","60.1","24.9833333","6.4","HELSINKI HARMAJA, FI","FM-12","99999","V020","210,1,N,0050,1","00030,1,9,N","000500,1,N,1","+0091,1","+0086,1","10123,1","52,1","8,1,06,1","09,1,+99999,9,99,9","09,99,1,09,1,99,9,99999,9,99,9,99,9","99999,9,10115,1","7,1,003,1,+999,9","+118,9","SYN100AAXX  15001 02795 47/05 92105 10091 20086 30115 40123 57003 75286 92339 222// 00118 555 797// 0/507;",
"02795099999","2010-06-15T03:00:00","4","60.1","24.9833333","6.4","HELSINKI HARMAJA, FI","FM-12","99999","V020","230,1,N,0040,1","99999,9,9,N","004100,1,N,1","+0103,1","+0099,1","10126,1","22,1","8,1,03,1",,"08,99,1,08,1,99,9,00150,1,99,9,99,9","99999,9,10118,1","2,1,002,1,+999,9","+118,9","SYN106AAXX  15031 02795 47241 82304 10103 20099 30118 40126 52002 72286 88/// 90239 222// 00118 555 797// 0/105;",
"02795099999","2010-06-15T09:00:00","4","60.1","24.9833333","6.4","HELSINKI HARMAJA, FI","FM-12","99999","V020","240,1,N,0030,1","99999,9,9,N","035000,1,N,1","+0121,1","+0092,1","10136,1","00,1","0,1,03,1",,"08,99,1,08,1,99,9,00450,1,99,9,99,9","99999,9,10128,1","2,1,007,1,+999,9","+119,9","SYN106AAXX  15091 02795 47481 82403 10121 20092 30128 40136 52007 70000 88/// 90839 222// 00119 555 782// 0/506;",
"02795099999","2010-06-15T12:00:00","4","60.1","24.9833333","6.4","HELSINKI HARMAJA, FI","FM-12","99999","V020","220,1,N,0090,1","22000,1,9,N","030000,1,N,1","+0122,1","+0093,1","10138,1","00,1","0,1,06,1",,"01,99,1,01,1,99,9,01750,1,99,9,99,9","99999,9,10130,1","2,1,002,1,+999,9","+120,9","SYN106AAXX  15121 02795 47780 12209 10122 20093 30130 40138 52002 70000 81/// 91139 222// 00120 555 783// 0/009;",
"02795099999","2010-06-15T15:00:00","4","60.1","24.9833333","6.4","HELSINKI HARMAJA, FI","FM-12","99999","V020","230,1,N,0090,1","22000,1,9,N","035000,1,N,1","+0133,1","+0091,1","10133,1","00,1","0,1,03,1",,"01,99,1,01,1,99,9,02250,1,99,9,99,9","99999,9,10125,1","7,1,005,1,+999,9","+119,9","SYN106AAXX  15151 02795 47881 12309 10133 20091 30125 40133 57005 70000 81/// 91439 222// 00119 555 776// 0/410;",
"02795099999","2010-06-15T21:00:00","4","60.1","24.9833333","6.4","HELSINKI HARMAJA, FI","FM-12","99999","V020","280,1,N,0050,1","99999,9,9,N","050000,1,N,1","+0123,1","+0104,1","10135,1","00,1","8,1,03,1",,"07,99,1,07,1,99,9,00800,1,99,9,99,9","99999,9,10127,1","4,1,000,1,+999,9","+116,9","SYN106AAXX  15211 02795 47599 72805 10123 20104 30127 40135 54001 70086 87/// 92039 222// 00116 555 788// 0/206;",
"02795099999","2010-06-16T00:00:00","4","60.1","24.9833333","6.4","HELSINKI HARMAJA, FI","FM-12","99999","V020","340,1,N,0090,1","99999,9,9,N","050000,1,N,1","+0118,1","+0091,1","10138,1","00,1","8,1,06,1",,"07,99,1,05,1,99,9,00450,1,99,9,99,9","99999,9,10130,1","2,1,003,1,+999,9","+116,9","SYN106AAXX  16001 02795 47499 73409 10118 20091 30130 40138 52003 70086 85/// 92339 222// 00116 555 783// 0/009;",
"02795099999","2010-06-16T03:00:00","4","60.1","24.9833333","6.4","HELSINKI HARMAJA, FI","FM-12","99999","V020","340,1,N,0080,1","99999,9,9,N","050000,1,N,1","+0106,1","+0075,1","10146,1","00,1","0,1,03,1",,"07,99,1,01,1,99,9,00800,1,99,9,99,9","99999,9,10138,1","2,1,008,1,+999,9","+115,9","SYN106AAXX  16031 02795 47599 73408 10106 20075 30138 40146 52008 70000 81/// 90239 222// 00115 555 781// 0/510;",
"02795099999","2010-06-16T09:00:00","4","60.1","24.9833333","6.4","HELSINKI HARMAJA, FI","FM-12","99999","V020","320,1,N,0100,1","22000,1,9,N","035000,1,N,1","+0129,1","+0050,1","10152,1","00,1","0,1,03,1",,"03,99,1,03,1,99,9,01250,1,99,9,99,9","99999,9,10144,1","2,1,002,1,+999,9","+118,9","SYN106AAXX  16091 02795 47681 33210 10129 20050 30144 40152 52002 70000 83/// 90839 222// 00118 555 758// 0/211;",
"02795099999","2010-06-16T12:00:00","4","60.1","24.9833333","6.4","HELSINKI HARMAJA, FI","FM-12","99999","V020","330,1,N,0080,1","22000,1,9,N","045000,1,N,1","+0144,1","+0042,1","10156,1","00,1","0,1,06,1",,"03,99,1,03,1,99,9,01750,1,99,9,99,9","99999,9,10148,1","2,1,004,1,+999,9","+120,9","SYN106AAXX  16121 02795 47783 33308 10144 20042 30148 40156 52004 70000 83/// 91139 222// 00120 555 750// 0/511;",
"02795099999","2010-06-16T15:00:00","4","60.1","24.9833333","6.4","HELSINKI HARMAJA, FI","FM-12","99999","V020","350,1,N,0060,1","22000,1,9,N","050000,1,N,1","+0147,1","+0059,1","10154,1","00,1","0,1,03,1",,"01,99,1,01,1,99,9,02250,1,99,9,99,9","99999,9,10146,1","7,1,002,1,+999,9","+122,9","SYN106AAXX  16151 02795 47899 13506 10147 20059 30146 40154 57002 70000 81/// 91439 222// 00122 555 755// 0/509;",
"02795099999","2010-06-16T21:00:00","4","60.1","24.9833333","6.4","HELSINKI HARMAJA, FI","FM-12","99999","V020","300,1,N,0050,1","22000,1,9,N","050000,1,N,1","+0130,1","+0077,1","10159,1","00,1","0,1,03,1",,"03,99,1,03,1,99,9,99999,9,99,9,99,9","99999,9,10151,1","2,1,007,1,+999,9","+120,9","SYN106AAXX  16211 02795 47999 33005 10130 20077 30151 40159 52007 70000 83/// 92039 222// 00120 555 770// 0/507;",
"02795099999","2010-06-17T00:00:00","4","60.1","24.9833333","6.4","HELSINKI HARMAJA, FI","FM-12","99999","V020","330,1,N,0060,1","22000,1,9,N","050000,1,N,1","+0113,1","+0071,1","10164,1","00,1","0,1,06,1","00,1,+99999,9,99,9","00,99,1,00,1,00,1,99999,9,00,1,00,1","99999,9,10156,1","2,1,005,1,+999,9","+118,9","SYN100AAXX  17001 02795 47999 03306 10113 20071 30156 40164 52005 70000 92339 222// 00118 555 775// 0/306;",
"02795099999","2010-06-17T03:00:00","4","60.1","24.9833333","6.4","HELSINKI HARMAJA, FI","FM-12","99999","V020","320,1,N,0060,1","22000,1,9,N","045000,1,N,1","+0098,1","+0062,1","10166,1","00,1","0,1,03,1","00,1,+99999,9,99,9","00,99,1,00,1,00,1,99999,9,00,1,00,1","99999,9,10159,1","2,1,002,1,+999,9","+117,9","SYN100AAXX  17031 02795 47983 03206 10098 20062 30159 40166 52002 70000 90239 222// 00117 555 778// 0/507;",
"02795099999","2010-06-17T12:00:00","4","60.1","24.9833333","6.4","HELSINKI HARMAJA, FI","FM-12","99999","V020","230,1,N,0090,1","99999,9,9,N","040000,1,N,1","+0131,1","+0080,1","10161,1","00,1",,,"07,99,1,07,1,99,9,02250,1,99,9,99,9","99999,9,10153,1",,"+119,9","SYN094AAXX  17121 02795 47882 72309 10131 20080 30153 40161 700// 87/// 91139 222// 00119 555 771//;",
"02795099999","2010-06-17T15:00:00","4","60.1","24.9833333","6.4","HELSINKI HARMAJA, FI","FM-12","99999","V020","230,1,N,0070,1","22000,1,9,N","030000,1,N,1","+0136,1","+0098,1","10148,1","00,1","0,1,03,1",,"03,99,1,03,1,99,9,02250,1,99,9,99,9","99999,9,10140,1","7,1,013,1,+999,9","+119,9","SYN106AAXX  17151 02795 47880 32307 10136 20098 30140 40148 57013 70000 83/// 91439 222// 00119 555 778// 0/609;",
"02795099999","2010-06-17T21:00:00","4","60.1","24.9833333","6.4","HELSINKI HARMAJA, FI","FM-12","99999","V020","250,1,N,0060,1","22000,1,9,N","050000,1,N,1","+0130,1","+0089,1","10134,1","00,1","0,1,03,1",,"01,99,1,01,1,99,9,02250,1,99,9,99,9","99999,9,10126,1","7,1,005,1,+999,9","+118,9","SYN106AAXX  17211 02795 47899 12506 10130 20089 30126 40134 57005 70000 81/// 92039 222// 00118 555 776// 0/307;",
"02795099999","2010-06-18T00:00:00","4","60.1","24.9833333","6.4","HELSINKI HARMAJA, FI","FM-12","99999","V020","220,1,N,0070,1","22000,1,9,N","050000,1,N,1","+0112,1","+0089,1","10123,1","00,1","0,1,06,1","00,1,+99999,9,99,9","00,99,1,00,1,00,1,99999,9,00,1,00,1","99999,9,10115,1","7,1,011,1,+999,9","+118,9","SYN100AAXX  18001 02795 47999 02207 10112 20089 30115 40123 57011 70000 92339 222// 00118 555 785// 0/007;",
"02795099999","2010-06-18T03:00:00","4","60.1","24.9833333","6.4","HELSINKI HARMAJA, FI","FM-12","99999","V020","190,1,N,0040,1","22000,1,9,N","050000,1,N,1","+0107,1","+0086,1","10111,1","00,1","0,1,03,1",,"01,99,1,01,1,99,9,01750,1,99,9,99,9","99999,9,10104,1","7,1,012,1,+999,9","+117,9","SYN106AAXX  18031 02795 47799 11904 10107 20086 30104 40111 57012 70000 81/// 90239 222// 00117 555 787// 0/607;",
"02795099999","2010-06-18T09:00:00","4","60.1","24.9833333","6.4","HELSINKI HARMAJA, FI","FM-12","99999","V020","170,1,N,0050,1","22000,1,9,N","040000,1,N,1","+0128,1","+0096,1","10084,1","00,1","0,1,03,1",,"01,99,1,01,1,99,9,01750,1,99,9,99,9","99999,9,10076,1","7,1,010,1,+999,9","+117,9","SYN106AAXX  18091 02795 47782 11705 10128 20096 30076 40084 57010 70000 81/// 90839 222// 00117 555 781// 0/606;",
"02795099999","2010-06-18T12:00:00","4","60.1","24.9833333","6.4","HELSINKI HARMAJA, FI","FM-12","99999","V020","150,1,N,0040,1","22000,1,9,N","040000,1,N,1","+0136,1","+0105,1","10071,1","00,1","0,1,06,1",,"01,99,1,01,1,99,9,01250,1,99,9,99,9","99999,9,10063,1","7,1,013,1,+999,9","+117,9","SYN106AAXX  18121 02795 47682 11504 10136 20105 30063 40071 57013 70000 81/// 91139 222// 00117 555 781// 0/605;",
"02795099999","2010-06-18T15:00:00","4","60.1","24.9833333","6.4","HELSINKI HARMAJA, FI","FM-12","99999","V020","110,1,N,0050,1","22000,1,9,N","035000,1,N,1","+0137,1","+0104,1","10055,1","00,1","0,1,03,1","00,1,+99999,9,99,9","00,99,1,00,1,00,1,99999,9,00,1,00,1","99999,9,10047,1","7,1,016,1,+999,9","+118,9","SYN100AAXX  18151 02795 47981 01105 10137 20104 30047 40055 57016 70000 91439 222// 00118 555 781// 0/006;",
"02795099999","2010-06-18T21:00:00","4","60.1","24.9833333","6.4","HELSINKI HARMAJA, FI","FM-12","99999","V020","140,1,N,0090,1","22000,1,9,N","050000,1,N,1","+0140,1","+0099,1","10037,1","00,1","0,1,03,1",,"01,99,1,01,1,99,9,01750,1,99,9,99,9","99999,9,10030,1","7,1,004,1,+999,9","+119,9","SYN106AAXX  18211 02795 47799 11409 10140 20099 30030 40037 57004 70000 81/// 92039 222// 00119 555 776// 0/009;",
"02795099999","2010-06-19T00:00:00","4","60.1","24.9833333","6.4","HELSINKI HARMAJA, FI","FM-12","99999","V020","120,1,N,0060,1","99999,9,9,N","030000,1,N,1","+0124,1","+0105,1","10032,1","23,1","8,1,06,1",,"05,99,1,05,1,99,9,02250,1,99,9,99,9","99999,9,10025,1","7,1,005,1,+999,9","+118,9","SYN106AAXX  19001 02795 47880 51206 10124 20105 30025 40032 57005 72386 85/// 92339 222// 00118 555 788// 0/311;",
"02795099999","2010-06-19T03:00:00","4","60.1","24.9833333","6.4","HELSINKI HARMAJA, FI","FM-12","99999","V020","120,1,N,0090,1","99999,9,9,N","040000,1,N,1","+0125,1","+0100,1","10028,1","00,1","3,1,03,1",,"05,99,1,05,1,99,9,99999,9,99,9,99,9","99999,9,10021,1","7,1,004,1,+999,9","+117,9","SYN106AAXX  19031 02795 47982 51209 10125 20100 30021 40028 57004 70020 85/// 90239 222// 00117 555 785// 0/009;",
"02795099999","2010-06-19T09:00:00","4","60.1","24.9833333","6.4","HELSINKI HARMAJA, FI","FM-12","99999","V020","110,1,N,0090,1","22000,1,9,N","030000,1,N,1","+0136,1","+0109,1","10027,1","00,1","0,1,03,1",,"01,99,1,01,1,99,9,02250,1,99,9,99,9","99999,9,10019,1","4,1,000,1,+999,9","+117,9","SYN106AAXX  19091 02795 47880 11109 10136 20109 30019 40027 54001 70000 81/// 90839 222// 00117 555 784// 0/009;",
"02795099999","2010-06-19T12:00:00","4","60.1","24.9833333","6.4","HELSINKI HARMAJA, FI","FM-12","99999","V020","110,1,N,0100,1","22000,1,9,N","025000,1,N,1","+0135,1","+0107,1","10021,1","00,1","0,1,06,1","00,1,+99999,9,99,9","00,99,1,00,1,00,1,99999,9,00,1,00,1","99999,9,10014,1","7,1,006,1,+999,9","+117,9","SYN100AAXX  19121 02795 47975 01110 10135 20107 30014 40021 57006 70000 91139 222// 00117 555 783// 0/111;",
"02795099999","2010-06-19T15:00:00","4","60.1","24.9833333","6.4","HELSINKI HARMAJA, FI","FM-12","99999","V020","140,1,N,0080,1","22000,1,9,N","030000,1,N,1","+0137,1","+0110,1","10028,1","81,1","8,1,03,1","00,1,+99999,9,99,9","00,99,1,00,1,00,1,99999,9,00,1,00,1","99999,9,10020,1","2,1,007,1,+999,9","+117,9","SYN100AAXX  19151 02795 47980 01408 10137 20110 30020 40028 52007 78186 91439 222// 00117 555 784// 0/610;",
"02795099999","2010-06-19T21:00:00","4","60.1","24.9833333","6.4","HELSINKI HARMAJA, FI","FM-12","99999","V020","140,1,N,0080,1","99999,9,9,N","010000,1,N,1","+0125,1","+0118,1","10021,1","61,1","8,1,03,1",,"05,99,1,05,1,99,9,00250,1,99,9,99,9","99999,9,10014,1","2,1,003,1,+999,9","+116,9","SYN106AAXX  19211 02795 47360 51408 10125 20118 30014 40021 52003 76186 85/// 92039 222// 00116 555 795// 0/612;",
"02795099999","2010-06-20T00:00:00","4","60.1","24.9833333","6.4","HELSINKI HARMAJA, FI","FM-12","99999","V020","230,1,N,0040,1","99999,9,9,N","010000,1,N,1","+0111,1","+0105,1","10034,1","23,1","8,1,06,1",,"07,99,1,07,1,99,9,00800,1,99,9,99,9","99999,9,10026,1","2,1,012,1,+999,9","+116,9","SYN106AAXX  20001 02795 47560 72304 10111 20105 30026 40034 52012 72386 87/// 92339 222// 00116 555 796// 0/608;",
"02795099999","2010-06-20T03:00:00","4","60.1","24.9833333","6.4","HELSINKI HARMAJA, FI","FM-12","99999","V020","240,1,N,0070,1","99999,9,9,N","022000,1,N,1","+0110,1","+0098,1","10053,1","00,1","8,1,03,1",,"05,99,1,05,1,99,9,00450,1,99,9,99,9","99999,9,10045,1","2,1,019,1,+999,9","+115,9","SYN106AAXX  20031 02795 47472 52407 10110 20098 30045 40053 52019 70082 85/// 90239 222// 00115 555 792// 0/208;",
"02795099999","2010-06-20T09:00:00","4","60.1","24.9833333","6.4","HELSINKI HARMAJA, FI","FM-12","99999","V020","230,1,N,0080,1","22000,1,9,N","027000,1,N,1","+0113,1","+0085,1","10104,1","00,1","0,1,03,1","00,1,+99999,9,99,9","00,99,1,00,1,00,1,99999,9,00,1,00,1","99999,9,10096,1","2,1,026,1,+999,9","+118,9","SYN100AAXX  20091 02795 47977 02308 10113 20085 30096 40104 52026 70000 90839 222// 00118 555 783// 0/608;",
"02795099999","2010-06-20T12:00:00","4","60.1","24.9833333","6.4","HELSINKI HARMAJA, FI","FM-12","99999","V020","230,1,N,0060,1","22000,1,9,N","022000,1,N,1","+0133,1","+0099,1","10128,1","00,1","0,1,06,1","00,1,+99999,9,99,9","00,99,1,00,1,00,1,99999,9,00,1,00,1","99999,9,10120,1","2,1,025,1,+999,9","+120,9","SYN100AAXX  20121 02795 47972 02306 10133 20099 30120 40128 52025 70000 91139 222// 00120 555 780// 0/409;",
"02795099999","2010-06-20T15:00:00","4","60.1","24.9833333","6.4","HELSINKI HARMAJA, FI","FM-12","99999","V020","230,1,N,0050,1","22000,1,9,N","019000,1,N,1","+0137,1","+0098,1","10136,1","00,1","0,1,03,1","00,1,+99999,9,99,9","00,99,1,00,1,00,1,99999,9,00,1,00,1","99999,9,10128,1","2,1,008,1,+999,9","+123,9","SYN100AAXX  20151 02795 47969 02305 10137 20098 30128 40136 52008 70000 91439 222// 00123 555 777// 0/307;",
"02795099999","2010-06-20T21:00:00","4","60.1","24.9833333","6.4","HELSINKI HARMAJA, FI","FM-12","99999","V020","190,1,N,0040,1","22000,1,9,N","035000,1,N,1","+0119,1","+0096,1","10152,1","00,1","0,1,03,1","00,1,+99999,9,99,9","00,99,1,00,1,00,1,99999,9,00,1,00,1","99999,9,10145,1","2,1,011,1,+999,9","+120,9","SYN100AAXX  20211 02795 47981 01904 10119 20096 30145 40152 52011 70000 92039 222// 00120 555 785// 0/605;",
"02795099999","2010-06-21T00:00:00","4","60.1","24.9833333","6.4","HELSINKI HARMAJA, FI","FM-12","99999","V020","280,1,N,0020,1","22000,1,9,N","028000,1,N,1","+0117,1","+0100,1","10154,1","00,1","0,1,06,1","00,1,+99999,9,99,9","00,99,1,00,1,00,1,99999,9,00,1,00,1","99999,9,10146,1","4,1,000,1,+999,9","+120,9","SYN100AAXX  21001 02795 47978 02802 10117 20100 30146 40154 54002 70000 92339 222// 00120 555 789// 0/604;",
"02795099999","2010-06-21T03:00:00","4","60.1","24.9833333","6.4","HELSINKI HARMAJA, FI","FM-12","99999","V020","110,1,N,0010,1","22000,1,9,N","020000,1,N,1","+0116,1","+0103,1","10148,1","52,1","6,1,03,1","00,1,+99999,9,99,9","00,99,1,00,1,00,1,99999,9,00,1,00,1","99999,9,10140,1","7,1,006,1,+999,9","+120,9","SYN100AAXX  21031 02795 47970 01101 10116 20103 30140 40148 57006 75265 90239 222// 00120 555 792// 0/603;",
"02795099999","2010-06-21T09:00:00","4","60.1","24.9833333","6.4","HELSINKI HARMAJA, FI","FM-12","99999","V020","999,9,C,0000,1","22000,1,9,N","026000,1,N,1","+0128,1","+0103,1","10158,1","23,1","6,1,03,1",,"03,99,1,03,1,99,9,01750,1,99,9,99,9","99999,9,10150,1","2,1,007,1,+999,9","+120,9","SYN106AAXX  21091 02795 47776 30000 10128 20103 30150 40158 52007 72365 83/// 90839 222// 00120 555 785// 0/301;",
"02795099999","2010-06-21T12:00:00","4","60.1","24.9833333","6.4","HELSINKI HARMAJA, FI","FM-12","99999","V020","160,1,N,0030,1","99999,9,9,N","030000,1,N,1","+0123,1","+0100,1","10157,1","00,1","8,1,06,1",,"05,99,1,05,1,99,9,01750,1,99,9,99,9","99999,9,10150,1","4,1,000,1,+999,9","+120,9","SYN106AAXX  21121 02795 47780 51603 10123 20100 30150 40157 54001 70086 85/// 91139 222// 00120 555 786// 0/003;",
"02795099999","2010-06-21T15:00:00","4","60.1","24.9833333","6.4","HELSINKI HARMAJA, FI","FM-12","99999","V020","190,1,N,0030,1","22000,1,9,N","040000,1,N,1","+0124,1","+0089,1","10155,1","00,1","0,1,03,1","00,1,+99999,9,99,9","00,99,1,00,1,00,1,99999,9,00,1,00,1","99999,9,10147,1","7,1,002,1,+999,9","+119,9","SYN100AAXX  21151 02795 47982 01903 10124 20089 30147 40155 57002 70000 91439 222// 00119 555 779// 0/604;",
"02795099999","2010-06-21T21:00:00","4","60.1","24.9833333","6.4","HELSINKI HARMAJA, FI","FM-12","99999","V020","210,1,N,0030,1","22000,1,9,N","050000,1,N,1","+0119,1","+0096,1","10151,1","00,1","0,1,03,1","00,1,+99999,9,99,9","00,99,1,00,1,00,1,99999,9,00,1,00,1","99999,9,10144,1","4,1,000,1,+999,9","+122,9","SYN100AAXX  21211 02795 47999 02103 10119 20096 30144 40151 54001 70000 92039 222// 00122 555 785// 0/404;",
"02795099999","2010-06-22T00:00:00","4","60.1","24.9833333","6.4","HELSINKI HARMAJA, FI","FM-12","99999","V020","350,1,N,0060,1","22000,1,9,N","050000,1,N,1","+0127,1","+0073,1","10150,1","00,1","0,1,06,1",,"01,99,1,00,1,99,9,99999,9,99,9,99,9","99999,9,10143,1","4,1,000,1,+999,9","+122,9","SYN106AAXX  22001 02795 47999 13506 10127 20073 30143 40150 54001 70000 80/// 92339 222// 00122 555 770// 0/006;",
"02795099999","2010-06-22T03:00:00","4","60.1","24.9833333","6.4","HELSINKI HARMAJA, FI","FM-12","99999","V020","010,1,N,0060,1","22000,1,9,N","050000,1,N,1","+0116,1","+0069,1","10153,1","00,1","0,1,03,1","00,1,+99999,9,99,9","00,99,1,00,1,00,1,99999,9,00,1,00,1","99999,9,10146,1","2,1,003,1,+999,9","+121,9","SYN100AAXX  22031 02795 47999 00106 10116 20069 30146 40153 52003 70000 90239 222// 00121 555 773// 0/307;",
"02795099999","2010-06-22T09:00:00","4","60.1","24.9833333","6.4","HELSINKI HARMAJA, FI","FM-12","99999","V020","360,1,N,0020,1","22000,1,9,N","035000,1,N,1","+0149,1","+0104,1","10162,1","00,1","0,1,03,1",,"01,99,1,01,1,99,9,99999,9,99,9,99,9","99999,9,10154,1","2,1,004,1,+999,9","+123,9","SYN106AAXX  22091 02795 47981 13602 10149 20104 30154 40162 52004 70000 81/// 90839 222// 00123 555 775// 0/104;",
"02795099999","2010-06-22T12:00:00","4","60.1","24.9833333","6.4","HELSINKI HARMAJA, FI","FM-12","99999","V020","170,1,N,0020,1","22000,1,9,N","035000,1,N,1","+0157,1","+0096,1","10161,1","00,1","0,1,06,1",,"01,99,1,01,1,99,9,99999,9,99,9,99,9","99999,9,10153,1","4,1,000,1,+999,9","+125,9","SYN106AAXX  22121 02795 47981 11702 10157 20096 30153 40161 54001 70000 81/// 91139 222// 00125 555 767// 0/603;",
"02795099999","2010-06-22T15:00:00","4","60.1","24.9833333","6.4","HELSINKI HARMAJA, FI","FM-12","99999","V020","230,1,N,0040,1","22000,1,9,N","040000,1,N,1","+0153,1","+0106,1","10156,1","00,1","0,1,03,1",,"03,99,1,03,1,99,9,99999,9,99,9,99,9","99999,9,10148,1","7,1,005,1,+999,9","+123,9","SYN106AAXX  22151 02795 47982 32304 10153 20106 30148 40156 57005 70000 83/// 91439 222// 00123 555 774// 0/004;",
"02795099999","2010-06-22T21:00:00","4","60.1","24.9833333","6.4","HELSINKI HARMAJA, FI","FM-12","99999","V020","260,1,N,0030,1","22000,1,9,N","050000,1,N,1","+0142,1","+0083,1","10158,1","00,1","0,1,03,1","00,1,+99999,9,99,9","00,99,1,00,1,00,1,99999,9,00,1,00,1","99999,9,10150,1","2,1,004,1,+999,9","+128,9","SYN100AAXX  22211 02795 47999 02603 10142 20083 30150 40158 52004 70000 92039 222// 00128 555 767// 0/103;",
"02795099999","2010-06-23T00:00:00","4","60.1","24.9833333","6.4","HELSINKI HARMAJA, FI","FM-12","99999","V020","330,1,N,0050,1","22000,1,9,N","050000,1,N,1","+0137,1","+0089,1","10159,1","00,1","0,1,06,1","00,1,+99999,9,99,9","00,99,1,00,1,00,1,99999,9,00,1,00,1","99999,9,10151,1","4,1,000,1,+999,9","+127,9","SYN100AAXX  23001 02795 47999 03305 10137 20089 30151 40159 54001 70000 92339 222// 00127 555 773// 0/005;",
"02795099999","2010-06-23T03:00:00","4","60.1","24.9833333","6.4","HELSINKI HARMAJA, FI","FM-12","99999","V020","360,1,N,0050,1","22000,1,9,N","050000,1,N,1","+0128,1","+0075,1","10166,1","00,1","0,1,03,1","00,1,+99999,9,99,9","00,99,1,00,1,00,1,99999,9,00,1,00,1","99999,9,10158,1","2,1,007,1,+999,9","+125,9","SYN100AAXX  23031 02795 47999 03605 10128 20075 30158 40166 52007 70000 90239 222// 00125 555 770// 0/206;",
"02795099999","2010-06-23T09:00:00","4","60.1","24.9833333","6.4","HELSINKI HARMAJA, FI","FM-12","99999","V020","360,1,N,0040,1","22000,1,9,N","045000,1,N,1","+0170,1","+0087,1","10176,1","00,1","0,1,03,1","00,1,+99999,9,99,9","00,99,1,00,1,00,1,99999,9,00,1,00,1","99999,9,10168,1","2,1,002,1,+999,9","+130,9","SYN100AAXX  23091 02795 47983 03604 10170 20087 30168 40176 52002 70000 90839 222// 00130 555 758// 0/605;",
"02795099999","2010-06-23T12:00:00","4","60.1","24.9833333","6.4","HELSINKI HARMAJA, FI","FM-12","99999","V020","240,1,N,0060,1","22000,1,9,N","040000,1,N,1","+0168,1","+0100,1","10173,1","00,1","0,1,06,1",,"01,99,1,01,1,99,9,01750,1,99,9,99,9","99999,9,10165,1","7,1,004,1,+999,9","+133,9","SYN106AAXX  23121 02795 47782 12406 10168 20100 30165 40173 57004 70000 81/// 91139 222// 00133 555 764// 0/006;",
"02795099999","2010-06-23T15:00:00","4","60.1","24.9833333","6.4","HELSINKI HARMAJA, FI","FM-12","99999","V020","230,1,N,0060,1","22000,1,9,N","040000,1,N,1","+0158,1","+0103,1","10169,1","00,1","0,1,03,1","00,1,+99999,9,99,9","00,99,1,00,1,00,1,99999,9,00,1,00,1","99999,9,10161,1","7,1,004,1,+999,9","+132,9","SYN100AAXX  23151 02795 47982 02306 10158 20103 30161 40169 57004 70000 91439 222// 00132 555 770// 0/207;",
"02795099999","2010-06-23T21:00:00","4","60.1","24.9833333","6.4","HELSINKI HARMAJA, FI","FM-12","99999","V020","230,1,N,0020,1","22000,1,9,N","050000,1,N,1","+0139,1","+0117,1","10168,1","00,1","0,1,03,1",,"03,99,1,03,1,99,9,02250,1,99,9,99,9","99999,9,10161,1","2,1,005,1,+999,9","+132,9","SYN106AAXX  23211 02795 47899 32302 10139 20117 30161 40168 52005 70000 83/// 92039 222// 00132 555 787// 0/604;",
"02795099999","2010-06-24T00:00:00","4","60.1","24.9833333","6.4","HELSINKI HARMAJA, FI","FM-12","99999","V020","340,1,N,0050,1","22000,1,9,N","050000,1,N,1","+0141,1","+0095,1","10169,1","00,1","0,1,06,1","00,1,+99999,9,99,9","00,99,1,00,1,00,1,99999,9,00,1,00,1","99999,9,10161,1","4,1,000,1,+999,9","+131,9","SYN100AAXX  24001 02795 47999 03405 10141 20095 30161 40169 54001 70000 92339 222// 00131 555 774// 0/206;",
"02795099999","2010-06-24T03:00:00","4","60.1","24.9833333","6.4","HELSINKI HARMAJA, FI","FM-12","99999","V020","020,1,N,0030,1","22000,1,9,N","050000,1,N,1","+0136,1","+0095,1","10167,1","00,1","0,1,03,1","00,1,+99999,9,99,9","00,99,1,00,1,00,1,99999,9,00,1,00,1","99999,9,10159,1","7,1,003,1,+999,9","+131,9","SYN100AAXX  24031 02795 47999 00203 10136 20095 30159 40167 57003 70000 90239 222// 00131 555 776// 0/605;",
"02795099999","2010-06-24T09:00:00","4","60.1","24.9833333","6.4","HELSINKI HARMAJA, FI","FM-12","99999","V020","090,1,N,0020,1","22000,1,9,N","030000,1,N,1","+0158,1","+0127,1","10166,1","00,1","0,1,03,1","00,1,+99999,9,99,9","00,99,1,00,1,00,1,99999,9,00,1,00,1","99999,9,10158,1","2,1,002,1,+999,9","+134,9","SYN100AAXX  24091 02795 47980 00902 10158 20127 30158 40166 52002 70000 90839 222// 00134 555 782// 0/404;",
"02795099999","2010-06-24T12:00:00","4","60.1","24.9833333","6.4","HELSINKI HARMAJA, FI","FM-12","99999","V020","120,1,N,0020,1","22000,1,9,N","035000,1,N,1","+0178,1","+0130,1","10162,1","00,1","0,1,06,1","00,1,+99999,9,99,9","00,99,1,00,1,00,1,99999,9,00,1,00,1","99999,9,10154,1","7,1,004,1,+999,9","+134,9","SYN100AAXX  24121 02795 47981 01202 10178 20130 30154 40162 57004 70000 91139 222// 00134 555 773// 0/404;",
"02795099999","2010-06-24T15:00:00","4","60.1","24.9833333","6.4","HELSINKI HARMAJA, FI","FM-12","99999","V020","280,1,N,0010,1","22000,1,9,N","045000,1,N,1","+0198,1","+0116,1","10151,1","00,1","0,1,03,1","00,1,+99999,9,99,9","00,99,1,00,1,00,1,99999,9,00,1,00,1","99999,9,10143,1","7,1,011,1,+999,9","+135,9","SYN100AAXX  24151 02795 47983 02801 10198 20116 30143 40151 57011 70000 91439 222// 00135 555 759// 0/602;",
"02795099999","2010-06-24T21:00:00","4","60.1","24.9833333","6.4","HELSINKI HARMAJA, FI","FM-12","99999","V020","999,9,C,0000,1","22000,1,9,N","050000,1,N,1","+0167,1","+0021,1","10136,1","00,1","0,1,03,1","00,1,+99999,9,99,9","00,99,1,00,1,00,1,99999,9,00,1,00,1","99999,9,10128,1","7,1,003,1,+999,9","+148,9","SYN100AAXX  24211 02795 47999 00000 10167 20021 30128 40136 57003 70000 92039 222// 00148 555 738// 0/202;",
"02795099999","2010-06-25T00:00:00","4","60.1","24.9833333","6.4","HELSINKI HARMAJA, FI","FM-12","99999","V020","010,1,N,0040,1","99999,9,9,N","050000,1,N,1","+0155,1","+0110,1","10131,1","00,1","0,1,06,1",,"07,99,1,07,1,99,9,99999,9,99,9,99,9","99999,9,10123,1","7,1,005,1,+999,9","+148,9","SYN106AAXX  25001 02795 47999 70104 10155 20110 30123 40131 57005 70000 87/// 92339 222// 00148 555 775// 0/004;",
"02795099999","2010-06-25T03:00:00","4","60.1","24.9833333","6.4","HELSINKI HARMAJA, FI","FM-12","99999","V020","050,1,N,0020,1","22000,1,9,N","050000,1,N,1","+0161,1","+0109,1","10121,1","00,1","0,1,03,1",,"01,99,1,01,1,99,9,99999,9,99,9,99,9","99999,9,10113,1","7,1,010,1,+999,9","+147,9","SYN106AAXX  25031 02795 47999 10502 10161 20109 30113 40121 57010 70000 81/// 90239 222// 00147 555 771// 0/604;",
"02795099999","2010-06-25T09:00:00","4","60.1","24.9833333","6.4","HELSINKI HARMAJA, FI","FM-12","99999","V020","360,1,N,0020,1","99999,9,9,N","028000,1,N,1","+0158,1","+0143,1","10114,1","22,1","8,1,03,1",,"07,99,1,07,1,99,9,01750,1,99,9,99,9","99999,9,10107,1","4,1,000,1,+999,9","+146,9","SYN106AAXX  25091 02795 47778 73602 10158 20143 30107 40114 54001 72286 87/// 90839 222// 00146 555 791// 0/605;",
"02795099999","2010-06-25T12:00:00","4","60.1","24.9833333","6.4","HELSINKI HARMAJA, FI","FM-12","99999","V020","080,1,N,0040,1","99999,9,9,N","029000,1,N,1","+0165,1","+0145,1","10102,1","00,1","8,1,06,1",,"05,99,1,05,1,99,9,01250,1,99,9,99,9","99999,9,10095,1","7,1,012,1,+999,9","+149,9","SYN106AAXX  25121 02795 47679 50804 10165 20145 30095 40102 57012 70086 85/// 91139 222// 00149 555 788// 0/004;",
"02795099999","2010-06-25T15:00:00","4","60.1","24.9833333","6.4","HELSINKI HARMAJA, FI","FM-12","99999","V020","090,1,N,0030,1","99999,9,9,N","011000,1,N,1","+0154,1","+0144,1","10090,1","81,1","8,1,03,1",,"07,99,1,07,1,99,9,00450,1,99,9,99,9","99999,9,10083,1","7,1,012,1,+999,9","+145,9","SYN106AAXX  25151 02795 47461 70903 10154 20144 30083 40090 57012 78186 87/// 91439 222// 00145 555 793// 0/406;",
"02795099999","2010-06-25T21:00:00","4","60.1","24.9833333","6.4","HELSINKI HARMAJA, FI","FM-12","99999","V020","260,1,N,0030,1","99999,9,9,N","022000,1,N,1","+0147,1","+0137,1","10092,1","00,1","3,1,03,1",,"08,99,1,08,1,99,9,00450,1,99,9,99,9","99999,9,10085,1","2,1,011,1,+999,9","+145,9","SYN106AAXX  25211 02795 47472 82603 10147 20137 30085 40092 52011 70020 88/// 92039 222// 00145 555 794// 0/205;",
"02795099999","2010-06-26T00:00:00","4","60.1","24.9833333","6.4","HELSINKI HARMAJA, FI","FM-12","99999","V020","240,1,N,0050,1","99999,9,9,N","021000,1,N,1","+0141,1","+0131,1","10093,1","00,1","3,1,06,1",,"08,99,1,08,1,99,9,00450,1,99,9,99,9","99999,9,10086,1","4,1,000,1,+999,9","+145,9","SYN106AAXX  26001 02795 47471 82405 10141 20131 30086 40093 54001 70021 88/// 92339 222// 00145 555 793// 0/005;",
"02795099999","2010-06-26T03:00:00","4","60.1","24.9833333","6.4","HELSINKI HARMAJA, FI","FM-12","99999","V020","210,1,N,0050,1","99999,9,9,N","045000,1,N,1","+0137,1","+0124,1","10091,1","00,1","0,1,03,1",,"05,99,1,01,1,99,9,00150,1,99,9,99,9","99999,9,10083,1","7,1,002,1,+999,9","+144,9","SYN106AAXX  26031 02795 47283 52105 10137 20124 30083 40091 57002 70000 81/// 90239 222// 00144 555 792// 0/506;",
"02795099999","2010-06-26T09:00:00","4","60.1","24.9833333","6.4","HELSINKI HARMAJA, FI","FM-12","99999","V020","220,1,N,0030,1","22000,1,9,N","025000,1,N,1","+0156,1","+0128,1","10093,1","00,1","2,1,03,1",,"01,99,1,01,1,99,9,99999,9,99,9,99,9","99999,9,10086,1","2,1,003,1,+999,9","+146,9","SYN106AAXX  26091 02795 47975 12203 10156 20128 30086 40093 52003 70010 81/// 90839 222// 00146 555 783// 0/505;",
"02795099999","2010-06-26T12:00:00","4","60.1","24.9833333","6.4","HELSINKI HARMAJA, FI","FM-12","99999","V020","190,1,N,0020,1","22000,1,9,N","029000,1,N,1","+0169,1","+0137,1","10096,1","00,1","2,1,06,1","00,1,+99999,9,99,9","00,99,1,00,1,00,1,99999,9,00,1,00,1","99999,9,10089,1","2,1,003,1,+999,9","+154,9","SYN100AAXX  26121 02795 47979 01902 10169 20137 30089 40096 52003 70010 91139 222// 00154 555 782// 0/504;",
"02795099999","2010-06-26T15:00:00","4","60.1","24.9833333","6.4","HELSINKI HARMAJA, FI","FM-12","99999","V020","210,1,N,0070,1","22000,1,9,N","011000,1,N,1","+0149,1","+0131,1","10094,1","00,1","0,1,03,1",,"01,99,1,01,1,99,9,99999,9,99,9,99,9","99999,9,10086,1","7,1,003,1,+999,9","+151,9","SYN106AAXX  26151 02795 47961 12107 10149 20131 30086 40094 57003 70000 81/// 91439 222// 00151 555 789// 0/208;",
"02795099999","2010-06-26T21:00:00","4","60.1","24.9833333","6.4","HELSINKI HARMAJA, FI","FM-12","99999","V020","250,1,N,0050,1","22000,1,9,N","023000,1,N,1","+0138,1","+0126,1","10107,1","00,1","0,1,03,1","00,1,+99999,9,99,9","00,99,1,00,1,00,1,99999,9,00,1,00,1","99999,9,10099,1","2,1,007,1,+999,9","+144,9","SYN100AAXX  26211 02795 47973 02505 10138 20126 30099 40107 52007 70000 92039 222// 00144 555 792// 0/408;",
"02795099999","2010-06-27T00:00:00","4","60.1","24.9833333","6.4","HELSINKI HARMAJA, FI","FM-12","99999","V020","300,1,N,0080,1","22000,1,9,N","050000,1,N,1","+0137,1","+0093,1","10127,1","00,1","8,1,06,1","00,1,+99999,9,99,9","00,99,1,00,1,00,1,99999,9,00,1,00,1","99999,9,10120,1","2,1,021,1,+999,9","+141,9","SYN100AAXX  27001 02795 47999 03008 10137 20093 30120 40127 52021 70086 92339 222// 00141 555 775// 0/310;",
"02795099999","2010-06-27T03:00:00","4","60.1","24.9833333","6.4","HELSINKI HARMAJA, FI","FM-12","99999","V020","280,1,N,0080,1","22000,1,9,N","050000,1,N,1","+0127,1","+0081,1","10147,1","00,1","0,1,03,1","00,1,+99999,9,99,9","00,99,1,00,1,00,1,99999,9,00,1,00,1","99999,9,10139,1","2,1,019,1,+999,9","+141,9","SYN100AAXX  27031 02795 47999 02808 10127 20081 30139 40147 52019 70000 90239 222// 00141 555 774// 0/509;",
"02795099999","2010-06-27T09:00:00","4","60.1","24.9833333","6.4","HELSINKI HARMAJA, FI","FM-12","99999","V020","270,1,N,0070,1","22000,1,9,N","040000,1,N,1","+0156,1","+0076,1","10178,1","00,1","0,1,03,1","00,1,+99999,9,99,9","00,99,1,00,1,00,1,99999,9,00,1,00,1","99999,9,10170,1","2,1,017,1,+999,9","+140,9","SYN100AAXX  27091 02795 47982 02707 10156 20076 30170 40178 52017 70000 90839 222// 00140 555 759// 0/409;",
"02795099999","2010-06-27T12:00:00","4","60.1","24.9833333","6.4","HELSINKI HARMAJA, FI","FM-12","99999","V020","270,1,N,0080,1","22000,1,9,N","040000,1,N,1","+0177,1","+0067,1","10190,1","00,1","0,1,06,1","00,1,+99999,9,99,9","00,99,1,00,1,00,1,99999,9,00,1,00,1","99999,9,10183,1","2,1,013,1,+999,9","+142,9","SYN100AAXX  27121 02795 47982 02708 10177 20067 30183 40190 52013 70000 91139 222// 00142 555 749// 0/309;",
"02795099999","2010-06-27T15:00:00","4","60.1","24.9833333","6.4","HELSINKI HARMAJA, FI","FM-12","99999","V020","280,1,N,0070,1","22000,1,9,N","045000,1,N,1","+0185,1","+0069,1","10195,1","00,1","0,1,03,1","00,1,+99999,9,99,9","00,99,1,00,1,00,1,99999,9,00,1,00,1","99999,9,10187,1","2,1,004,1,+999,9","+145,9","SYN100AAXX  27151 02795 47983 02807 10185 20069 30187 40195 52004 70000 91439 222// 00145 555 747// 0/608;",
"02795099999","2010-06-27T21:00:00","4","60.1","24.9833333","6.4","HELSINKI HARMAJA, FI","FM-12","99999","V020","270,1,N,0060,1","22000,1,9,N","050000,1,N,1","+0149,1","+0085,1","10211,1","00,1","0,1,03,1","00,1,+99999,9,99,9","00,99,1,00,1,00,1,99999,9,00,1,00,1","99999,9,10203,1","2,1,011,1,+999,9","+142,9","SYN100AAXX  27211 02795 47999 02706 10149 20085 30203 40211 52011 70000 92039 222// 00142 555 765// 0/507;",
"02795099999","2010-06-28T00:00:00","4","60.1","24.9833333","6.4","HELSINKI HARMAJA, FI","FM-12","99999","V020","250,1,N,0050,1","22000,1,9,N","050000,1,N,1","+0133,1","+0064,1","10218,1","00,1","0,1,06,1",,"01,99,1,01,1,99,9,01750,1,99,9,99,9","99999,9,10211,1","2,1,007,1,+999,9","+141,9","SYN106AAXX  28001 02795 47799 12505 10133 20064 30211 40218 52007 70000 81/// 92339 222// 00141 555 763// 0/306;",
"02795099999","2010-06-28T03:00:00","4","60.1","24.9833333","6.4","HELSINKI HARMAJA, FI","FM-12","99999","V020","230,1,N,0040,1","22000,1,9,N","050000,1,N,1","+0133,1","+0112,1","10213,1","00,1","0,1,03,1",,"01,99,1,01,1,99,9,02250,1,99,9,99,9","99999,9,10205,1","7,1,005,1,+999,9","+140,9","SYN106AAXX  28031 02795 47899 12304 10133 20112 30205 40213 57005 70000 81/// 90239 222// 00140 555 787// 0/505;",
"02795099999","2010-06-28T09:00:00","4","60.1","24.9833333","6.4","HELSINKI HARMAJA, FI","FM-12","99999","V020","230,1,N,0090,1","22000,1,9,N","040000,1,N,1","+0159,1","+0118,1","10203,1","00,1","0,1,03,1","00,1,+99999,9,99,9","00,99,1,00,1,00,1,99999,9,00,1,00,1","99999,9,10195,1","7,1,003,1,+999,9","+142,9","SYN100AAXX  28091 02795 47982 02309 10159 20118 30195 40203 57003 70000 90839 222// 00142 555 777// 0/510;",
"02795099999","2010-06-28T12:00:00","4","60.1","24.9833333","6.4","HELSINKI HARMAJA, FI","FM-12","99999","V020","220,1,N,0090,1","22000,1,9,N","035000,1,N,1","+0157,1","+0121,1","10199,1","00,1","0,1,06,1","00,1,+99999,9,99,9","00,99,1,00,1,00,1,99999,9,00,1,00,1","99999,9,10191,1","7,1,004,1,+999,9","+143,9","SYN100AAXX  28121 02795 47981 02209 10157 20121 30191 40199 57004 70000 91139 222// 00143 555 779// 0/310;",
"02795099999","2010-06-28T15:00:00","4","60.1","24.9833333","6.4","HELSINKI HARMAJA, FI","FM-12","99999","V020","220,1,N,0100,1","22000,1,9,N","027000,1,N,1","+0147,1","+0126,1","10191,1","00,1","0,1,03,1","00,1,+99999,9,99,9","00,99,1,00,1,00,1,99999,9,00,1,00,1","99999,9,10183,1","7,1,008,1,+999,9","+140,9","SYN100AAXX  28151 02795 47977 02210 10147 20126 30183 40191 57008 70000 91439 222// 00140 555 787// 0/510;",
"02795099999","2010-06-28T21:00:00","4","60.1","24.9833333","6.4","HELSINKI HARMAJA, FI","FM-12","99999","V020","230,1,N,0060,1","22000,1,9,N","027000,1,N,1","+0133,1","+0119,1","10192,1","00,1","0,1,03,1","00,1,+99999,9,99,9","00,99,1,00,1,00,1,99999,9,00,1,00,1","99999,9,10185,1","2,1,009,1,+999,9","+130,9","SYN100AAXX  28211 02795 47977 02306 10133 20119 30185 40192 52009 70000 92039 222// 00130 555 791// 0/609;",
"02795099999","2010-06-29T00:00:00","4","60.1","24.9833333","6.4","HELSINKI HARMAJA, FI","FM-12","99999","V020","300,1,N,0030,1","22000,1,9,N","050000,1,N,1","+0137,1","+0112,1","10200,1","00,1","0,1,06,1","00,1,+99999,9,99,9","00,99,1,00,1,00,1,99999,9,00,1,00,1","99999,9,10192,1","2,1,008,1,+999,9","+130,9","SYN100AAXX  29001 02795 47999 03003 10137 20112 30192 40200 52008 70000 92339 222// 00130 555 785// 0/606;",
"02795099999","2010-06-29T03:00:00","4","60.1","24.9833333","6.4","HELSINKI HARMAJA, FI","FM-12","99999","V020","250,1,N,0030,1","22000,1,9,N","040000,1,N,1","+0132,1","+0109,1","10204,1","00,1","0,1,03,1","00,1,+99999,9,99,9","00,99,1,00,1,00,1,99999,9,00,1,00,1","99999,9,10197,1","2,1,005,1,+999,9","+131,9","SYN100AAXX  29031 02795 47982 02503 10132 20109 30197 40204 52005 70000 90239 222// 00131 555 786// 0/604;",
"02795099999","2010-06-29T09:00:00","4","60.1","24.9833333","6.4","HELSINKI HARMAJA, FI","FM-12","99999","V020","210,1,N,0040,1","22000,1,9,N","035000,1,N,1","+0156,1","+0124,1","10215,1","00,1","0,1,03,1","00,1,+99999,9,99,9","00,99,1,00,1,00,1,99999,9,00,1,00,1","99999,9,10207,1","2,1,004,1,+999,9","+134,9","SYN100AAXX  29091 02795 47981 02104 10156 20124 30207 40215 52004 70000 90839 222// 00134 555 781// 0/004;",
"02795099999","2010-06-29T12:00:00","4","60.1","24.9833333","6.4","HELSINKI HARMAJA, FI","FM-12","99999","V020","210,1,N,0050,1","22000,1,9,N","030000,1,N,1","+0160,1","+0124,1","10213,1","00,1","0,1,06,1","00,1,+99999,9,99,9","00,99,1,00,1,00,1,99999,9,00,1,00,1","99999,9,10205,1","4,1,000,1,+999,9","+137,9","SYN100AAXX  29121 02795 47980 02105 10160 20124 30205 40213 54001 70000 91139 222// 00137 555 779// 0/306;",
"02795099999","2010-06-29T15:00:00","4","60.1","24.9833333","6.4","HELSINKI HARMAJA, FI","FM-12","99999","V020","220,1,N,0050,1","22000,1,9,N","040000,1,N,1","+0173,1","+0116,1","10205,1","00,1","0,1,03,1","00,1,+99999,9,99,9","00,99,1,00,1,00,1,99999,9,00,1,00,1","99999,9,10197,1","7,1,008,1,+999,9","+141,9","SYN100AAXX  29151 02795 47982 02205 10173 20116 30197 40205 57008 70000 91439 222// 00141 555 769// 0/506;",
"02795099999","2010-06-29T21:00:00","4","60.1","24.9833333","6.4","HELSINKI HARMAJA, FI","FM-12","99999","V020","210,1,N,0030,1","22000,1,9,N","050000,1,N,1","+0146,1","+0117,1","10195,1","00,1","0,1,03,1","00,1,+99999,9,99,9","00,99,1,00,1,00,1,99999,9,00,1,00,1","99999,9,10187,1","7,1,002,1,+999,9","+141,9","SYN100AAXX  29211 02795 47999 02103 10146 20117 30187 40195 57002 70000 92039 222// 00141 555 783// 0/606;",
"02795099999","2010-06-30T00:00:00","4","60.1","24.9833333","6.4","HELSINKI HARMAJA, FI","FM-12","99999","V020","170,1,N,0010,1","22000,1,9,N","050000,1,N,1","+0141,1","+0118,1","10193,1","00,1","0,1,06,1","00,1,+99999,9,99,9","00,99,1,00,1,00,1,99999,9,00,1,00,1","99999,9,10185,1","4,1,000,1,+999,9","+139,9","SYN100AAXX  30001 02795 47999 01701 10141 20118 30185 40193 54002 70000 92339 222// 00139 555 786// 0/404;",
"02795099999","2010-06-30T03:00:00","4","60.1","24.9833333","6.4","HELSINKI HARMAJA, FI","FM-12","99999","V020","130,1,N,0020,1","22000,1,9,N","045000,1,N,1","+0147,1","+0122,1","10188,1","00,1","0,1,03,1","00,1,+99999,9,99,9","00,99,1,00,1,00,1,99999,9,00,1,00,1","99999,9,10180,1","7,1,005,1,+999,9","+139,9","SYN100AAXX  30031 02795 47983 01302 10147 20122 30180 40188 57005 70000 90239 222// 00139 555 785// 0/203;",
"02795099999","2010-06-30T09:00:00","4","60.1","24.9833333","6.4","HELSINKI HARMAJA, FI","FM-12","99999","V020","070,1,N,0050,1","22000,1,9,N","030000,1,N,1","+0159,1","+0134,1","10171,1","00,1","0,1,03,1",,"01,99,1,01,1,99,9,99999,9,99,9,99,9","99999,9,10163,1","7,1,008,1,+999,9","+141,9","SYN106AAXX  30091 02795 47980 10705 10159 20134 30163 40171 57008 70000 81/// 90839 222// 00141 555 785// 0/005;",
"02795099999","2010-06-30T12:00:00","4","60.1","24.9833333","6.4","HELSINKI HARMAJA, FI","FM-12","99999","V020","110,1,N,0060,1","22000,1,9,N","030000,1,N,1","+0182,1","+0142,1","10158,1","00,1","0,1,06,1",,"01,99,1,01,1,99,9,99999,9,99,9,99,9","99999,9,10150,1","7,1,013,1,+999,9","+148,9","SYN106AAXX  30121 02795 47980 11106 10182 20142 30150 40158 57013 70000 81/// 91139 222// 00148 555 777// 0/006;",
"02795099999","2010-06-30T15:00:00","4","60.1","24.9833333","6.4","HELSINKI HARMAJA, FI","FM-12","99999","V020","140,1,N,0030,1","22000,1,9,N","035000,1,N,1","+0185,1","+0144,1","10148,1","00,1","0,1,03,1",,"01,99,1,01,1,99,9,02250,1,99,9,99,9","99999,9,10141,1","7,1,010,1,+999,9","+138,9","SYN106AAXX  30151 02795 47881 11403 10185 20144 30141 40148 57010 70000 81/// 91439 222// 00138 555 777// 0/606;",
"02795099999","2010-06-30T21:00:00","4","60.1","24.9833333","6.4","HELSINKI HARMAJA, FI","FM-12","99999","V020","150,1,N,0030,1","99999,9,9,N","050000,1,N,1","+0175,1","+0132,1","10127,1","00,1","0,1,03,1",,,"99999,9,10119,1","7,1,010,1,+999,9","+147,9","SYN100AAXX  30211 02795 47/99 /1503 10175 20132 30119 40127 57010 70000 92039 222// 00147 555 776// 0/403;",
"02795099999","2010-07-01T00:00:00","4","60.1","24.9833333","6.4","HELSINKI HARMAJA, FI","FM-12","99999","V020","140,1,N,0060,1","99999,9,9,N","050000,1,N,1","+0169,1","+0140,1","10114,1","00,1","0,1,06,1",,,"99999,9,10107,1","7,1,013,1,+999,9","+145,9","SYN100AAXX  01001 02795 47/99 /1406 10169 20140 30107 40114 57013 70000 92339 222// 00145 555 783// 0/206;",
"02795099999","2010-07-01T03:00:00","4","60.1","24.9833333","6.4","HELSINKI HARMAJA, FI","FM-12","99999","V020","200,1,N,0050,1","99999,9,9,N","035000,1,N,1","+0157,1","+0137,1","10108,1","00,1","0,1,03,1",,,"99999,9,10101,1","7,1,006,1,+999,9","+143,9","SYN100AAXX  01031 02795 47/81 /2005 10157 20137 30101 40108 57006 70000 90239 222// 00143 555 788// 0/506;",
"02795099999","2010-07-01T09:00:00","4","60.1","24.9833333","6.4","HELSINKI HARMAJA, FI","FM-12","99999","V020","220,1,N,0060,1","99999,9,9,N","018000,1,N,1","+0160,1","+0142,1","10111,1","00,1","0,1,03,1",,,"99999,9,10104,1","2,1,004,1,+999,9","+142,9","SYN100AAXX  01091 02795 47/68 /2206 10160 20142 30104 40111 52004 70000 90839 222// 00142 555 789// 0/507;",
"02795099999","2010-07-01T12:00:00","4","60.1","24.9833333","6.4","HELSINKI HARMAJA, FI","FM-12","99999","V020","230,1,N,0050,1","99999,9,9,N","030000,1,N,1","+0174,1","+0143,1","10114,1","00,1","0,1,06,1",,,"99999,9,10106,1","2,1,002,1,+999,9","+146,9","SYN100AAXX  01121 02795 47/80 /2305 10174 20143 30106 40114 52002 70000 91139 222// 00146 555 782// 0/407;",
"02795099999","2010-07-01T15:00:00","4","60.1","24.9833333","6.4","HELSINKI HARMAJA, FI","FM-12","99999","V020","230,1,N,0070,1","99999,9,9,N","028000,1,N,1","+0160,1","+0135,1","10115,1","00,1","0,1,03,1",,,"99999,9,10107,1","4,1,000,1,+999,9","+148,9","SYN100AAXX  01151 02795 47/78 /2307 10160 20135 30107 40115 54001 70000 91439 222// 00148 555 785// 0/308;",
"02795099999","2010-07-01T21:00:00","4","60.1","24.9833333","6.4","HELSINKI HARMAJA, FI","FM-12","99999","V020","230,1,N,0050,1","99999,9,9,N","045000,1,N,1","+0143,1","+0128,1","10119,1","00,1","0,1,03,1",,,"99999,9,10111,1","2,1,006,1,+999,9","+141,9","SYN100AAXX  01211 02795 47/83 /2305 10143 20128 30111 40119 52006 70000 92039 222// 00141 555 791// 0/409;",
"02795099999","2010-07-02T00:00:00","4","60.1","24.9833333","6.4","HELSINKI HARMAJA, FI","FM-12","99999","V020","240,1,N,0050,1","99999,9,9,N","050000,1,N,1","+0144,1","+0132,1","10124,1","00,1","0,1,06,1",,,"99999,9,10117,1","2,1,005,1,+999,9","+140,9","SYN100AAXX  02001 02795 47/99 /2405 10144 20132 30117 40124 52005 70000 92339 222// 00140 555 792// 0/206;",
"02795099999","2010-07-02T03:00:00","4","60.1","24.9833333","6.4","HELSINKI HARMAJA, FI","FM-12","99999","V020","270,1,N,0040,1","99999,9,9,N","050000,1,N,1","+0147,1","+0128,1","10132,1","00,1","0,1,03,1",,,"99999,9,10125,1","2,1,008,1,+999,9","+140,9","SYN100AAXX  02031 02795 47/99 /2704 10147 20128 30125 40132 52008 70000 90239 222// 00140 555 788// 0/505;",
"02795099999","2010-07-02T09:00:00","4","60.1","24.9833333","6.4","HELSINKI HARMAJA, FI","FM-12","99999","V020","220,1,N,0050,1","99999,9,9,N","040000,1,N,1","+0158,1","+0134,1","10149,1","00,1","0,1,03,1",,,"99999,9,10141,1","2,1,011,1,+999,9","+143,9","SYN100AAXX  02091 02795 47/82 /2205 10158 20134 30141 40149 52011 70000 90839 222// 00143 555 786// 0/005;",
"02795099999","2010-07-02T12:00:00","4","60.1","24.9833333","6.4","HELSINKI HARMAJA, FI","FM-12","99999","V020","230,1,N,0050,1","99999,9,9,N","040000,1,N,1","+0173,1","+0133,1","10159,1","00,1","0,1,06,1",,,"99999,9,10151,1","2,1,010,1,+999,9","+146,9","SYN100AAXX  02121 02795 47/82 /2305 10173 20133 30151 40159 52010 70000 91139 222// 00146 555 777// 0/205;",
"02795099999","2010-07-02T15:00:00","4","60.1","24.9833333","6.4","HELSINKI HARMAJA, FI","FM-12","99999","V020","220,1,N,0050,1","99999,9,9,N","045000,1,N,1","+0176,1","+0141,1","10158,1","00,1","0,1,03,1",,,"99999,9,10150,1","4,1,000,1,+999,9","+150,9","SYN100AAXX  02151 02795 47/83 /2205 10176 20141 30150 40158 54000 70000 91439 222// 00150 555 780// 0/506;",
"02795099999","2010-07-02T21:00:00","4","60.1","24.9833333","6.4","HELSINKI HARMAJA, FI","FM-12","99999","V020","260,1,N,0040,1","99999,9,9,N","050000,1,N,1","+0159,1","+0137,1","10176,1","00,1","0,1,03,1",,,"99999,9,10169,1","2,1,011,1,+999,9","+153,9","SYN100AAXX  02211 02795 47/99 /2604 10159 20137 30169 40176 52011 70000 92039 222// 00153 555 787// 0/606;",
"02795099999","2010-07-03T00:00:00","4","60.1","24.9833333","6.4","HELSINKI HARMAJA, FI","FM-12","99999","V020","340,1,N,0030,1","99999,9,9,N","050000,1,N,1","+0155,1","+0131,1","10188,1","00,1","8,1,06,1",,,"99999,9,10180,1","2,1,012,1,+999,9","+152,9","SYN100AAXX  03001 02795 47/99 /3403 10155 20131 30180 40188 52012 70086 92339 222// 00152 555 785// 0/604;",
"02795099999","2010-07-03T03:00:00","4","60.1","24.9833333","6.4","HELSINKI HARMAJA, FI","FM-12","99999","V020","010,1,N,0050,1","99999,9,9,N","050000,1,N,1","+0157,1","+0114,1","10199,1","00,1","0,1,03,1",,,"99999,9,10191,1","2,1,011,1,+999,9","+151,9","SYN100AAXX  03031 02795 47/99 /0105 10157 20114 30191 40199 52011 70000 90239 222// 00151 555 776// 0/005;",
"02795099999","2010-07-03T09:00:00","4","60.1","24.9833333","6.4","HELSINKI HARMAJA, FI","FM-12","99999","V020","100,1,N,0040,1","99999,9,9,N","030000,1,N,1","+0173,1","+0141,1","10223,1","00,1","0,1,03,1",,,"99999,9,10215,1","2,1,011,1,+999,9","+149,9","SYN100AAXX  03091 02795 47/80 /1004 10173 20141 30215 40223 52011 70000 90839 222// 00149 555 782// 0/104;",
"02795099999","2010-07-03T12:00:00","4","60.1","24.9833333","6.4","HELSINKI HARMAJA, FI","FM-12","99999","V020","140,1,N,0030,1","99999,9,9,N","040000,1,N,1","+0184,1","+0151,1","10225,1","00,1","0,1,06,1",,,"99999,9,10217,1","2,1,002,1,+999,9","+149,9","SYN100AAXX  03121 02795 47/82 /1403 10184 20151 30217 40225 52002 70000 91139 222// 00149 555 781// 0/605;",
"02795099999","2010-07-03T15:00:00","4","60.1","24.9833333","6.4","HELSINKI HARMAJA, FI","FM-12","99999","V020","190,1,N,0030,1","99999,9,9,N","035000,1,N,1","+0177,1","+0156,1","10218,1","00,1","0,1,03,1",,,"99999,9,10211,1","7,1,006,1,+999,9","+155,9","SYN100AAXX  03151 02795 47/81 /1903 10177 20156 30211 40218 57006 70000 91439 222// 00155 555 787// 0/104;",
"02795099999","2010-07-03T21:00:00","4","60.1","24.9833333","6.4","HELSINKI HARMAJA, FI","FM-12","99999","V020","190,1,N,0040,1","99999,9,9,N","050000,1,N,1","+0170,1","+0143,1","10215,1","00,1","0,1,03,1",,,"99999,9,10208,1","2,1,004,1,+999,9","+160,9","SYN100AAXX  03211 02795 47/99 /1904 10170 20143 30208 40215 52004 70000 92039 222// 00160 555 784// 0/305;",
"02795099999","2010-07-04T00:00:00","4","60.1","24.9833333","6.4","HELSINKI HARMAJA, FI","FM-12","99999","V020","200,1,N,0030,1","99999,9,9,N","050000,1,N,1","+0164,1","+0148,1","10221,1","00,1","0,1,06,1",,,"99999,9,10214,1","2,1,006,1,+999,9","+155,9","SYN100AAXX  04001 02795 47/99 /2003 10164 20148 30214 40221 52006 70000 92339 222// 00155 555 790// 0/604;",
"02795099999","2010-07-04T03:00:00","4","60.1","24.9833333","6.4","HELSINKI HARMAJA, FI","FM-12","99999","V020","210,1,N,0030,1","99999,9,9,N","040000,1,N,1","+0163,1","+0150,1","10221,1","00,1","8,1,03,1",,,"99999,9,10213,1","4,1,000,1,+999,9","+155,9","SYN100AAXX  04031 02795 47/82 /2103 10163 20150 30213 40221 54000 70086 90239 222// 00155 555 792// 0/504;",
"02795099999","2010-07-04T09:00:00","4","60.1","24.9833333","6.4","HELSINKI HARMAJA, FI","FM-12","99999","V020","150,1,N,0020,1","99999,9,9,N","030000,1,N,1","+0184,1","+0157,1","10224,1","00,1","0,1,03,1",,,"99999,9,10216,1","2,1,002,1,+999,9","+160,9","SYN100AAXX  04091 02795 47/80 /1502 10184 20157 30216 40224 52002 70000 90839 222// 00160 555 784// 0/203;",
"02795099999","2010-07-04T12:00:00","4","60.1","24.9833333","6.4","HELSINKI HARMAJA, FI","FM-12","99999","V020","999,9,C,0000,1","99999,9,9,N","040000,1,N,1","+0211,1","+0136,1","10220,1","00,1","0,1,06,1",,,"99999,9,10213,1","7,1,003,1,+999,9","+160,9","SYN100AAXX  04121 02795 47/82 /0000 10211 20136 30213 40220 57003 70000 91139 222// 00160 555 762// 0/602;",
"02795099999","2010-07-04T15:00:00","4","60.1","24.9833333","6.4","HELSINKI HARMAJA, FI","FM-12","99999","V020","120,1,N,0030,1","99999,9,9,N","040000,1,N,1","+0212,1","+0151,1","10204,1","00,1","0,1,03,1",,,"99999,9,10197,1","7,1,016,1,+999,9","+162,9","SYN100AAXX  04151 02795 47/82 /1203 10212 20151 30197 40204 57016 70000 91439 222// 00162 555 769// 0/003;",
"02795099999","2010-07-04T21:00:00","4","60.1","24.9833333","6.4","HELSINKI HARMAJA, FI","FM-12","99999","V020","160,1,N,0010,1","99999,9,9,N","050000,1,N,1","+0183,1","+0152,1","10187,1","00,1","8,1,03,1",,,"99999,9,10180,1","7,1,004,1,+999,9","+164,9","SYN100AAXX  04211 02795 47/99 /1601 10183 20152 30180 40187 57004 70086 92039 222// 00164 555 782// 0/604;",
"02795099999","2010-07-05T00:00:00","4","60.1","24.9833333","6.4","HELSINKI HARMAJA, FI","FM-12","99999","V020","100,1,N,0010,1","99999,9,9,N","050000,1,N,1","+0174,1","+0159,1","10185,1","00,1","8,1,06,1",,,"99999,9,10177,1","7,1,003,1,+999,9","+173,9","SYN100AAXX  05001 02795 47/99 /1001 10174 20159 30177 40185 57003 70086 92339 222// 00173 555 791// 0/203;",
"02795099999","2010-07-05T03:00:00","4","60.1","24.9833333","6.4","HELSINKI HARMAJA, FI","FM-12","99999","V020","130,1,N,0040,1","99999,9,9,N","045000,1,N,1","+0176,1","+0154,1","10174,1","00,1","0,1,03,1",,,"99999,9,10166,1","7,1,011,1,+999,9","+172,9","SYN100AAXX  05031 02795 47/83 /1304 10176 20154 30166 40174 57011 70000 90239 222// 00172 555 787// 0/104;",
"02795099999","2010-07-05T09:00:00","4","60.1","24.9833333","6.4","HELSINKI HARMAJA, FI","FM-12","99999","V020","160,1,N,0020,1","99999,9,9,N","035000,1,N,1","+0197,1","+0158,1","10170,1","00,1","0,1,03,1",,,"99999,9,10162,1","7,1,002,1,+999,9","+163,9","SYN100AAXX  05091 02795 47/81 /1602 10197 20158 30162 40170 57002 70000 90839 222// 00163 555 778// 0/503;",
"02795099999","2010-07-05T12:00:00","4","60.1","24.9833333","6.4","HELSINKI HARMAJA, FI","FM-12","99999","V020","130,1,N,0020,1","99999,9,9,N","035000,1,N,1","+0220,1","+0175,1","10162,1","00,1","0,1,06,1",,,"99999,9,10155,1","7,1,008,1,+999,9","+168,9","SYN100AAXX  05121 02795 47/81 /1302 10220 20175 30155 40162 57008 70000 91139 222// 00168 555 775// 0/303;",
"02795099999","2010-07-05T15:00:00","4","60.1","24.9833333","6.4","HELSINKI HARMAJA, FI","FM-12","99999","V020","140,1,N,0030,1","99999,9,9,N","035000,1,N,1","+0221,1","+0183,1","10152,1","00,1","0,1,03,1",,,"99999,9,10145,1","7,1,010,1,+999,9","+171,9","SYN100AAXX  05151 02795 47/81 /1403 10221 20183 30145 40152 57010 70000 91439 222// 00171 555 779// 0/503;",
"02795099999","2010-07-05T21:00:00","4","60.1","24.9833333","6.4","HELSINKI HARMAJA, FI","FM-12","99999","V020","160,1,N,0040,1","99999,9,9,N","050000,1,N,1","+0203,1","+0167,1","10141,1","00,1","0,1,03,1",,,"99999,9,10133,1","7,1,002,1,+999,9","+177,9","SYN100AAXX  05211 02795 47/99 /1604 10203 20167 30133 40141 57002 70000 92039 222// 00177 555 780// 0/604;",
"02795099999","2010-07-06T00:00:00","4","60.1","24.9833333","6.4","HELSINKI HARMAJA, FI","FM-12","99999","V020","999,9,C,0000,1","99999,9,9,N","050000,1,N,1","+0192,1","+0176,1","10140,1","00,1","0,1,06,1",,,"99999,9,10133,1","4,1,000,1,+999,9","+185,9","SYN100AAXX  06001 02795 47/99 /0000 10192 20176 30133 40140 54000 70000 92339 222// 00185 555 790// 0/604;",
"02795099999","2010-07-06T03:00:00","4","60.1","24.9833333","6.4","HELSINKI HARMAJA, FI","FM-12","99999","V020","030,1,N,0010,1","99999,9,9,N","035000,1,N,1","+0189,1","+0172,1","10135,1","00,1","0,1,03,1",,,"99999,9,10127,1","7,1,006,1,+999,9","+188,9","SYN100AAXX  06031 02795 47/81 /0301 10189 20172 30127 40135 57006 70000 90239 222// 00188 555 790// 0/202;",
"02795099999","2010-07-06T09:00:00","4","60.1","24.9833333","6.4","HELSINKI HARMAJA, FI","FM-12","99999","V020","070,1,N,0040,1","99999,9,9,N","021000,1,N,1","+0203,1","+0167,1","10124,1","81,1","8,1,03,1",,,"99999,9,10116,1","7,1,003,1,+999,9","+178,9","SYN100AAXX  06091 02795 47/71 /0704 10203 20167 30116 40124 57003 78186 90839 222// 00178 555 780// 0/404;",
"02795099999","2010-07-06T12:00:00","4","60.1","24.9833333","6.4","HELSINKI HARMAJA, FI","FM-12","99999","V020","060,1,N,0050,1","99999,9,9,N","025000,1,N,1","+0197,1","+0175,1","10112,1","23,1","8,1,06,1",,,"99999,9,10105,1","7,1,011,1,+999,9","+176,9","SYN100AAXX  06121 02795 47/75 /0605 10197 20175 30105 40112 57011 72386 91139 222// 00176 555 788// 0/306;",
"02795099999","2010-07-06T15:00:00","4","60.1","24.9833333","6.4","HELSINKI HARMAJA, FI","FM-12","99999","V020","100,1,N,0040,1","99999,9,9,N","016000,1,N,1","+0196,1","+0169,1","10110,1","61,1","6,1,03,1",,,"99999,9,10102,1","7,1,002,1,+999,9","+177,9","SYN100AAXX  06151 02795 47/66 /1004 10196 20169 30102 40110 57002 76165 91439 222// 00177 555 784// 0/006;",
"02795099999","2010-07-06T21:00:00","4","60.1","24.9833333","6.4","HELSINKI HARMAJA, FI","FM-12","99999","V020","010,1,N,0020,1","99999,9,9,N","022000,1,N,1","+0194,1","+0173,1","10095,1","00,1","0,1,03,1",,,"99999,9,10088,1","4,1,000,1,+999,9","+182,9","SYN100AAXX  06211 02795 47/72 /0102 10194 20173 30088 40095 54000 70000 92039 222// 00182 555 788// 0/605;",
"02795099999","2010-07-07T00:00:00","4","60.1","24.9833333","6.4","HELSINKI HARMAJA, FI","FM-12","99999","V020","090,1,N,0020,1","99999,9,9,N","030000,1,N,1","+0201,1","+0170,1","10091,1","61,1","6,1,06,1",,,"99999,9,10083,1","7,1,004,1,+999,9","+181,9","SYN100AAXX  07001 02795 47/80 /0902 10201 20170 30083 40091 57004 76160 92339 222// 00181 555 782// 0/504;",
"02795099999","2010-07-07T03:00:00","4","60.1","24.9833333","6.4","HELSINKI HARMAJA, FI","FM-12","99999","V020","340,1,N,0050,1","99999,9,9,N","013000,1,N,1","+0190,1","+0177,1","10084,1","23,1","8,1,03,1",,,"99999,9,10076,1","7,1,007,1,+999,9","+182,9","SYN100AAXX  07031 02795 47/63 /3405 10190 20177 30076 40084 57007 72386 90239 222// 00182 555 793// 0/005;",
"02795099999","2010-07-07T09:00:00","4","60.1","24.9833333","6.4","HELSINKI HARMAJA, FI","FM-12","99999","V020","220,1,N,0030,1","99999,9,9,N","014000,1,N,1","+0203,1","+0185,1","10103,1","00,1","8,1,03,1",,,"99999,9,10096,1","2,1,011,1,+999,9","+183,9","SYN100AAXX  07091 02795 47/64 /2203 10203 20185 30096 40103 52011 70085 90839 222// 00183 555 789// 0/203;",
"02795099999","2010-07-07T12:00:00","4","60.1","24.9833333","6.4","HELSINKI HARMAJA, FI","FM-12","99999","V020","200,1,N,0010,1","99999,9,9,N","022000,1,N,1","+0210,1","+0181,1","10113,1","00,1","8,1,06,1",,,"99999,9,10106,1","2,1,010,1,+999,9","+190,9","SYN100AAXX  07121 02795 47/72 /2001 10210 20181 30106 40113 52010 70085 91139 222// 00190 555 783// 0/203;",
"02795099999","2010-07-07T15:00:00","4","60.1","24.9833333","6.4","HELSINKI HARMAJA, FI","FM-12","99999","V020","210,1,N,0020,1","99999,9,9,N","021000,1,N,1","+0215,1","+0184,1","10113,1","00,1","0,1,03,1",,,"99999,9,10106,1","4,1,000,1,+999,9","+190,9","SYN100AAXX  07151 02795 47/71 /2102 10215 20184 30106 40113 54000 70000 91439 222// 00190 555 783// 0/003;",
"02795099999","2010-07-07T21:00:00","4","60.1","24.9833333","6.4","HELSINKI HARMAJA, FI","FM-12","99999","V020","290,1,N,0020,1","99999,9,9,N","007000,1,N,1","+0198,1","+0187,1","10131,1","10,1","2,1,03,1",,,"99999,9,10123,1","2,1,010,1,+999,9","+196,9","SYN100AAXX  07211 02795 47/57 /2902 10198 20187 30123 40131 52010 71010 92039 222// 00196 555 793// 0/503;",
"02795099999","2010-07-08T00:00:00","4","60.1","24.9833333","6.4","HELSINKI HARMAJA, FI","FM-12","99999","V020","360,1,N,0020,1","99999,9,9,N","017000,1,N,1","+0205,1","+0184,1","10137,1","00,1","2,1,06,1",,,"99999,9,10130,1","2,1,006,1,+999,9","+200,9","SYN100AAXX  08001 02795 47/67 /3602 10205 20184 30130 40137 52006 70010 92339 222// 00200 555 788// 0/203;",
"02795099999","2010-07-08T03:00:00","4","60.1","24.9833333","6.4","HELSINKI HARMAJA, FI","FM-12","99999","V020","340,1,N,0030,1","99999,9,9,N","014000,1,N,1","+0201,1","+0182,1","10135,1","00,1","0,1,03,1",,,"99999,9,10127,1","7,1,002,1,+999,9","+198,9","SYN100AAXX  08031 02795 47/64 /3403 10201 20182 30127 40135 57002 70000 90239 222// 00198 555 788// 0/304;",
"02795099999","2010-07-08T09:00:00","4","60.1","24.9833333","6.4","HELSINKI HARMAJA, FI","FM-12","99999","V020","300,1,N,0010,1","99999,9,9,N","021000,1,N,1","+0248,1","+0184,1","10143,1","00,1","0,1,03,1",,,"99999,9,10136,1","2,1,002,1,+999,9","+201,9","SYN100AAXX  08091 02795 47/71 /3001 10248 20184 30136 40143 52002 70000 90839 222// 00201 555 767// 0/503;",
"02795099999","2010-07-08T12:00:00","4","60.1","24.9833333","6.4","HELSINKI HARMAJA, FI","FM-12","99999","V020","230,1,N,0050,1","99999,9,9,N","030000,1,N,1","+0242,1","+0192,1","10142,1","00,1","0,1,06,1",,,"99999,9,10135,1","4,1,000,1,+999,9","+201,9","SYN100AAXX  08121 02795 47/80 /2305 10242 20192 30135 40142 54001 70000 91139 222// 00201 555 774// 0/105;",
"02795099999","2010-07-08T15:00:00","4","60.1","24.9833333","6.4","HELSINKI HARMAJA, FI","FM-12","99999","V020","260,1,N,0040,1","99999,9,9,N","030000,1,N,1","+0252,1","+0185,1","10138,1","00,1","0,1,03,1",,,"99999,9,10131,1","7,1,004,1,+999,9","+208,9","SYN100AAXX  08151 02795 47/80 /2604 10252 20185 30131 40138 57004 70000 91439 222// 00208 555 766// 0/305;",
"02795099999","2010-07-08T21:00:00","4","60.1","24.9833333","6.4","HELSINKI HARMAJA, FI","FM-12","99999","V020","310,1,N,0030,1","99999,9,9,N","040000,1,N,1","+0223,1","+0169,1","10151,1","00,1","3,1,03,1",,,"99999,9,10143,1","2,1,007,1,+999,9","+206,9","SYN100AAXX  08211 02795 47/82 /3103 10223 20169 30143 40151 52007 70020 92039 222// 00206 555 771// 0/604;",
"02795099999","2010-07-09T00:00:00","4","60.1","24.9833333","6.4","HELSINKI HARMAJA, FI","FM-12","99999","V020","300,1,N,0040,1","99999,9,9,N","050000,1,N,1","+0206,1","+0138,1","10152,1","00,1","3,1,06,1",,,"99999,9,10145,1","4,1,000,1,+999,9","+207,9","SYN100AAXX  09001 02795 47/99 /3004 10206 20138 30145 40152 54002 70020 92339 222// 00207 555 765// 0/605;",
"02795099999","2010-07-09T03:00:00","4","60.1","24.9833333","6.4","HELSINKI HARMAJA, FI","FM-12","99999","V020","290,1,N,0040,1","99999,9,9,N","050000,1,N,1","+0193,1","+0136,1","10158,1","22,1","8,1,03,1",,,"99999,9,10151,1","2,1,006,1,+999,9","+206,9","SYN100AAXX  09031 02795 47/99 /2904 10193 20136 30151 40158 52006 72286 90239 222// 00206 555 769// 0/606;",
"02795099999","2010-07-09T09:00:00","4","60.1","24.9833333","6.4","HELSINKI HARMAJA, FI","FM-12","99999","V020","210,1,N,0060,1","99999,9,9,N","035000,1,N,1","+0209,1","+0169,1","10168,1","00,1","0,1,03,1",,,"99999,9,10161,1","2,1,008,1,+999,9","+196,9","SYN100AAXX  09091 02795 47/81 /2106 10209 20169 30161 40168 52008 70000 90839 222// 00196 555 778// 0/006;",
"02795099999","2010-07-09T12:00:00","4","60.1","24.9833333","6.4","HELSINKI HARMAJA, FI","FM-12","99999","V020","220,1,N,0080,1","99999,9,9,N","035000,1,N,1","+0217,1","+0171,1","10168,1","00,1","0,1,06,1",,,"99999,9,10160,1","4,1,000,1,+999,9","+196,9","SYN100AAXX  09121 02795 47/81 /2208 10217 20171 30160 40168 54001 70000 91139 222// 00196 555 775// 0/309;",
"02795099999","2010-07-09T15:00:00","4","60.1","24.9833333","6.4","HELSINKI HARMAJA, FI","FM-12","99999","V020","230,1,N,0100,1","99999,9,9,N","030000,1,N,1","+0202,1","+0162,1","10166,1","00,1","0,1,03,1",,,"99999,9,10158,1","4,1,000,1,+999,9","+193,9","SYN100AAXX  09151 02795 47/80 /2310 10202 20162 30158 40166 54002 70000 91439 222// 00193 555 778// 0/411;",
"02795099999","2010-07-09T21:00:00","4","60.1","24.9833333","6.4","HELSINKI HARMAJA, FI","FM-12","99999","V020","240,1,N,0050,1","99999,9,9,N","045000,1,N,1","+0179,1","+0151,1","10189,1","00,1","0,1,03,1",,,"99999,9,10181,1","2,1,014,1,+999,9","+173,9","SYN100AAXX  09211 02795 47/83 /2405 10179 20151 30181 40189 52014 70000 92039 222// 00173 555 784// 0/609;",
"02795099999","2010-07-10T00:00:00","4","60.1","24.9833333","6.4","HELSINKI HARMAJA, FI","FM-12","99999","V020","250,1,N,0030,1","99999,9,9,N","030000,1,N,1","+0176,1","+0155,1","10195,1","00,1","0,1,06,1",,,"99999,9,10188,1","2,1,007,1,+999,9","+173,9","SYN100AAXX  10001 02795 47/80 /2503 10176 20155 30188 40195 52007 70000 92339 222// 00173 555 788// 0/605;",
"02795099999","2010-07-10T03:00:00","4","60.1","24.9833333","6.4","HELSINKI HARMAJA, FI","FM-12","99999","V020","220,1,N,0010,1","99999,9,9,N","002400,1,N,1","+0172,1","+0159,1","10197,1","10,1","2,1,03,1",,,"99999,9,10190,1","2,1,002,1,+999,9","+174,9","SYN100AAXX  10031 02795 47/24 /2201 10172 20159 30190 40197 52002 71010 90239 222// 00174 555 792// 0/603;",
"02795099999","2010-07-10T09:00:00","4","60.1","24.9833333","6.4","HELSINKI HARMAJA, FI","FM-12","99999","V020","190,1,N,0030,1","99999,9,9,N","022000,1,N,1","+0189,1","+0166,1","10206,1","00,1","3,1,03,1",,,"99999,9,10198,1","2,1,002,1,+999,9","+178,9","SYN100AAXX  10091 02795 47/72 /1903 10189 20166 30198 40206 52002 70020 90839 222// 00178 555 787// 0/403;",
"02795099999","2010-07-10T12:00:00","4","60.1","24.9833333","6.4","HELSINKI HARMAJA, FI","FM-12","99999","V020","220,1,N,0040,1","99999,9,9,N","028000,1,N,1","+0209,1","+0167,1","10205,1","00,1","3,1,06,1",,,"99999,9,10198,1","4,1,000,1,+999,9","+178,9","SYN100AAXX  10121 02795 47/78 /2204 10209 20167 30198 40205 54000 70020 91139 222// 00178 555 777// 0/004;",
"02795099999","2010-07-10T15:00:00","4","60.1","24.9833333","6.4","HELSINKI HARMAJA, FI","FM-12","99999","V020","210,1,N,0070,1","99999,9,9,N","040000,1,N,1","+0203,1","+0166,1","10195,1","00,1","0,1,03,1",,,"99999,9,10188,1","7,1,010,1,+999,9","+183,9","SYN100AAXX  10151 02795 47/82 /2107 10203 20166 30188 40195 57010 70000 91439 222// 00183 555 779// 0/107;",
"02795099999","2010-07-10T21:00:00","4","60.1","24.9833333","6.4","HELSINKI HARMAJA, FI","FM-12","99999","V020","230,1,N,0050,1","99999,9,9,N","030000,1,N,1","+0185,1","+0156,1","10201,1","00,1","0,1,03,1",,,"99999,9,10194,1","2,1,010,1,+999,9","+180,9","SYN100AAXX  10211 02795 47/80 /2305 10185 20156 30194 40201 52010 70000 92039 222// 00180 555 783// 0/507;",
"02795099999","2010-07-11T00:00:00","4","60.1","24.9833333","6.4","HELSINKI HARMAJA, FI","FM-12","99999","V020","190,1,N,0050,1","99999,9,9,N","035000,1,N,1","+0189,1","+0159,1","10200,1","00,1","8,1,06,1",,,"99999,9,10193,1","4,1,000,1,+999,9","+181,9","SYN100AAXX  11001 02795 47/81 /1905 10189 20159 30193 40200 54001 70086 92339 222// 00181 555 783// 0/605;",
"02795099999","2010-07-11T03:00:00","4","60.1","24.9833333","6.4","HELSINKI HARMAJA, FI","FM-12","99999","V020","220,1,N,0040,1","99999,9,9,N","040000,1,N,1","+0189,1","+0158,1","10194,1","00,1","0,1,03,1",,,"99999,9,10187,1","7,1,006,1,+999,9","+173,9","SYN100AAXX  11031 02795 47/82 /2204 10189 20158 30187 40194 57006 70000 90239 222// 00173 555 782// 0/106;",
"02795099999","2010-07-11T09:00:00","4","60.1","24.9833333","6.4","HELSINKI HARMAJA, FI","FM-12","99999","V020","220,1,N,0060,1","99999,9,9,N","024000,1,N,1","+0203,1","+0170,1","10206,1","00,1","0,1,03,1",,,"99999,9,10198,1","2,1,006,1,+999,9","+182,9","SYN100AAXX  11091 02795 47/74 /2206 10203 20170 30198 40206 52006 70000 90839 222// 00182 555 781// 0/006;",
"02795099999","2010-07-11T12:00:00","4","60.1","24.9833333","6.4","HELSINKI HARMAJA, FI","FM-12","99999","V020","220,1,N,0070,1","99999,9,9,N","027000,1,N,1","+0208,1","+0176,1","10209,1","00,1","2,1,06,1",,,"99999,9,10201,1","2,1,003,1,+999,9","+183,9","SYN100AAXX  11121 02795 47/77 /2207 10208 20176 30201 40209 52003 70010 91139 222// 00183 555 782// 0/007;",
"02795099999","2010-07-11T15:00:00","4","60.1","24.9833333","6.4","HELSINKI HARMAJA, FI","FM-12","99999","V020","220,1,N,0060,1","99999,9,9,N","030000,1,N,1","+0211,1","+0168,1","10204,1","00,1","0,1,03,1",,,"99999,9,10197,1","7,1,005,1,+999,9","+184,9","SYN100AAXX  11151 02795 47/80 /2206 10211 20168 30197 40204 57005 70000 91439 222// 00184 555 777// 0/309;",
"02795099999","2010-07-11T21:00:00","4","60.1","24.9833333","6.4","HELSINKI HARMAJA, FI","FM-12","99999","V020","240,1,N,0050,1","99999,9,9,N","023000,1,N,1","+0193,1","+0168,1","10209,1","00,1","0,1,03,1",,,"99999,9,10202,1","2,1,007,1,+999,9","+182,9","SYN100AAXX  11211 02795 47/73 /2405 10193 20168 30202 40209 52007 70000 92039 222// 00182 555 785// 0/607;",
"02795099999","2010-07-12T00:00:00","4","60.1","24.9833333","6.4","HELSINKI HARMAJA, FI","FM-12","99999","V020","220,1,N,0030,1","99999,9,9,N","011000,1,N,1","+0187,1","+0169,1","10213,1","00,1","0,1,06,1",,,"99999,9,10205,1","2,1,004,1,+999,9","+183,9","SYN100AAXX  12001 02795 47/61 /2203 10187 20169 30205 40213 52004 70000 92339 222// 00183 555 789// 0/505;",
"02795099999","2010-07-12T03:00:00","4","60.1","24.9833333","6.4","HELSINKI HARMAJA, FI","FM-12","99999","V020","170,1,N,0030,1","99999,9,9,N","023000,1,N,1","+0195,1","+0170,1","10209,1","00,1","0,1,03,1",,,"99999,9,10202,1","7,1,004,1,+999,9","+183,9","SYN100AAXX  12031 02795 47/73 /1703 10195 20170 30202 40209 57004 70000 90239 222// 00183 555 785// 0/003;",
"02795099999","2010-07-12T09:00:00","4","60.1","24.9833333","6.4","HELSINKI HARMAJA, FI","FM-12","99999","V020","170,1,N,0030,1","99999,9,9,N","019000,1,N,1","+0220,1","+0181,1","10209,1","00,1","0,1,03,1",,,"99999,9,10201,1","7,1,002,1,+999,9","+177,9","SYN100AAXX  12091 02795 47/69 /1703 10220 20181 30201 40209 57002 70000 90839 222// 00177 555 778// 0/003;",
"02795099999","2010-07-12T12:00:00","4","60.1","24.9833333","6.4","HELSINKI HARMAJA, FI","FM-12","99999","V020","200,1,N,0030,1","99999,9,9,N","028000,1,N,1","+0240,1","+0191,1","10208,1","00,1","0,1,06,1",,,"99999,9,10201,1","4,1,000,1,+999,9","+181,9","SYN100AAXX  12121 02795 47/78 /2003 10240 20191 30201 40208 54001 70000 91139 222// 00181 555 774// 0/504;",
"02795099999","2010-07-12T15:00:00","4","60.1","24.9833333","6.4","HELSINKI HARMAJA, FI","FM-12","99999","V020","190,1,N,0040,1","99999,9,9,N","030000,1,N,1","+0243,1","+0192,1","10194,1","00,1","0,1,03,1",,,"99999,9,10187,1","7,1,014,1,+999,9","+182,9","SYN100AAXX  12151 02795 47/80 /1904 10243 20192 30187 40194 57014 70000 91439 222// 00182 555 773// 0/205;",
"02795099999","2010-07-12T21:00:00","4","60.1","24.9833333","6.4","HELSINKI HARMAJA, FI","FM-12","99999","V020","160,1,N,0040,1","99999,9,9,N","030000,1,N,1","+0229,1","+0192,1","10184,1","00,1","0,1,03,1",,,"99999,9,10176,1","4,1,000,1,+999,9","+184,9","SYN100AAXX  12211 02795 47/80 /1604 10229 20192 30176 40184 54002 70000 92039 222// 00184 555 780// 0/405;",
"02795099999","2010-07-13T00:00:00","4","60.1","24.9833333","6.4","HELSINKI HARMAJA, FI","FM-12","99999","V020","110,1,N,0010,1","99999,9,9,N","030000,1,N,1","+0214,1","+0175,1","10183,1","00,1","8,1,06,1",,,"99999,9,10175,1","4,1,000,1,+999,9","+190,9","SYN100AAXX  13001 02795 47/80 /1101 10214 20175 30175 40183 54001 70086 92339 222// 00190 555 778// 0/604;",
"02795099999","2010-07-13T03:00:00","4","60.1","24.9833333","6.4","HELSINKI HARMAJA, FI","FM-12","99999","V020","080,1,N,0030,1","99999,9,9,N","024000,1,N,1","+0207,1","+0179,1","10180,1","00,1","0,1,03,1",,,"99999,9,10172,1","7,1,003,1,+999,9","+196,9","SYN100AAXX  13031 02795 47/74 /0803 10207 20179 30172 40180 57003 70000 90239 222// 00196 555 784// 0/003;",
"02795099999","2010-07-13T09:00:00","4","60.1","24.9833333","6.4","HELSINKI HARMAJA, FI","FM-12","99999","V020","110,1,N,0040,1","99999,9,9,N","028000,1,N,1","+0237,1","+0188,1","10171,1","00,1","0,1,03,1",,,"99999,9,10163,1","4,1,000,1,+999,9","+186,9","SYN100AAXX  13091 02795 47/78 /1104 10237 20188 30163 40171 54002 70000 90839 222// 00186 555 774// 0/505;",
"02795099999","2010-07-13T12:00:00","4","60.1","24.9833333","6.4","HELSINKI HARMAJA, FI","FM-12","99999","V020","070,1,N,0050,1","99999,9,9,N","017000,1,N,1","+0234,1","+0199,1","10159,1","00,1","0,1,06,1",,,"99999,9,10152,1","7,1,012,1,+999,9","+185,9","SYN100AAXX  13121 02795 47/67 /0705 10234 20199 30152 40159 57012 70000 91139 222// 00185 555 781// 0/405;",
"02795099999","2010-07-13T15:00:00","4","60.1","24.9833333","6.4","HELSINKI HARMAJA, FI","FM-12","99999","V020","100,1,N,0080,1","99999,9,9,N","027000,1,N,1","+0257,1","+0181,1","10138,1","00,1","0,1,03,1",,,"99999,9,10130,1","7,1,021,1,+999,9","+179,9","SYN100AAXX  13151 02795 47/77 /1008 10257 20181 30130 40138 57021 70000 91439 222// 00179 555 763// 0/108;",
"02795099999","2010-07-13T21:00:00","4","60.1","24.9833333","6.4","HELSINKI HARMAJA, FI","FM-12","99999","V020","120,1,N,0070,1","99999,9,9,N","020000,1,N,1","+0222,1","+0195,1","10124,1","00,1","0,1,03,1",,,"99999,9,10117,1","4,1,000,1,+999,9","+192,9","SYN100AAXX  13211 02795 47/70 /1207 10222 20195 30117 40124 54001 70000 92039 222// 00192 555 785// 0/508;",
"02795099999","2010-07-14T00:00:00","4","60.1","24.9833333","6.4","HELSINKI HARMAJA, FI","FM-12","99999","V020","140,1,N,0060,1","99999,9,9,N","025000,1,N,1","+0221,1","+0184,1","10119,1","00,1","0,1,06,1",,,"99999,9,10111,1","7,1,005,1,+999,9","+199,9","SYN100AAXX  14001 02795 47/75 /1406 10221 20184 30111 40119 57005 70000 92339 222// 00199 555 780// 0/607;",
"02795099999","2010-07-14T03:00:00","4","60.1","24.9833333","6.4","HELSINKI HARMAJA, FI","FM-12","99999","V020","140,1,N,0060,1","99999,9,9,N","023000,1,N,1","+0214,1","+0184,1","10116,1","00,1","0,1,03,1",,,"99999,9,10108,1","7,1,003,1,+999,9","+200,9","SYN100AAXX  14031 02795 47/73 /1406 10214 20184 30108 40116 57003 70000 90239 222// 00200 555 783// 0/306;",
"02795099999","2010-07-14T09:00:00","4","60.1","24.9833333","6.4","HELSINKI HARMAJA, FI","FM-12","99999","V020","170,1,N,0020,1","99999,9,9,N","025000,1,N,1","+0234,1","+0186,1","10123,1","00,1","0,1,03,1",,,"99999,9,10116,1","2,1,004,1,+999,9","+205,9","SYN100AAXX  14091 02795 47/75 /1702 10234 20186 30116 40123 52004 70000 90839 222// 00205 555 775// 0/605;",
"02795099999","2010-07-14T12:00:00","4","60.1","24.9833333","6.4","HELSINKI HARMAJA, FI","FM-12","99999","V020","120,1,N,0050,1","99999,9,9,N","030000,1,N,1","+0249,1","+0193,1","10118,1","00,1","0,1,06,1",,,"99999,9,10110,1","7,1,005,1,+999,9","+206,9","SYN100AAXX  14121 02795 47/80 /1205 10249 20193 30110 40118 57005 70000 91139 222// 00206 555 771// 0/205;",
"02795099999","2010-07-14T15:00:00","4","60.1","24.9833333","6.4","HELSINKI HARMAJA, FI","FM-12","99999","V020","210,1,N,0030,1","99999,9,9,N","030000,1,N,1","+0245,1","+0192,1","10122,1","00,1","0,1,03,1",,,"99999,9,10114,1","2,1,004,1,+999,9","+207,9","SYN100AAXX  14151 02795 47/80 /2103 10245 20192 30114 40122 52004 70000 91439 222// 00207 555 773// 0/406;",
"02795099999","2010-07-14T21:00:00","4","60.1","24.9833333","6.4","HELSINKI HARMAJA, FI","FM-12","99999","V020","210,1,N,0030,1","99999,9,9,N","027000,1,N,1","+0217,1","+0195,1","10131,1","00,1","0,1,03,1",,,"99999,9,10123,1","2,1,007,1,+999,9","+212,9","SYN100AAXX  14211 02795 47/77 /2103 10217 20195 30123 40131 52007 70000 92039 222// 00212 555 787// 0/606;",
"02795099999","2010-07-15T00:00:00","4","60.1","24.9833333","6.4","HELSINKI HARMAJA, FI","FM-12","99999","V020","240,1,N,0020,1","99999,9,9,N","009000,1,N,1","+0210,1","+0194,1","10136,1","00,1","0,1,06,1",,,"99999,9,10129,1","2,1,005,1,+999,9","+210,9","SYN100AAXX  15001 02795 47/59 /2402 10210 20194 30129 40136 52005 70000 92339 222// 00210 555 791// 0/504;",
"02795099999","2010-07-15T03:00:00","4","60.1","24.9833333","6.4","HELSINKI HARMAJA, FI","FM-12","99999","V020","020,1,N,0010,1","99999,9,9,N","017000,1,N,1","+0218,1","+0192,1","10143,1","00,1","2,1,03,1",,,"99999,9,10135,1","2,1,007,1,+999,9","+210,9","SYN100AAXX  15031 02795 47/67 /0201 10218 20192 30135 40143 52007 70010 90239 222// 00210 555 785// 0/602;",
"02795099999","2010-07-15T09:00:00","4","60.1","24.9833333","6.4","HELSINKI HARMAJA, FI","FM-12","99999","V020","060,1,N,0030,1","22000,1,9,N","023000,1,N,1","+0241,1","+0203,1","10141,1","00,1","0,1,03,1","00,1,+99999,9,99,9","00,99,1,00,1,00,1,99999,9,00,1,00,1","99999,9,10133,1","4,1,000,1,+999,9","+218,9","SYN100AAXX  15091 02795 47973 00603 10241 20203 30133 40141 54002 70000 90839 222// 00218 555 780// 0/403;",
"02795099999","2010-07-15T12:00:00","4","60.1","24.9833333","6.4","HELSINKI HARMAJA, FI","FM-12","99999","V020","070,1,N,0050,1","22000,1,9,N","022000,1,N,1","+0231,1","+0205,1","10135,1","00,1","0,1,06,1","00,1,+99999,9,99,9","00,99,1,00,1,00,1,99999,9,00,1,00,1","99999,9,10128,1","7,1,005,1,+999,9","+222,9","SYN100AAXX  15121 02795 47972 00705 10231 20205 30128 40135 57005 70000 91139 222// 00222 555 786// 0/005;",
"02795099999","2010-07-15T15:00:00","4","60.1","24.9833333","6.4","HELSINKI HARMAJA, FI","FM-12","99999","V020","110,1,N,0070,1","99999,9,9,N","011000,1,N,1","+0218,1","+0196,1","10134,1","61,1","6,1,03,1",,"07,99,1,05,1,99,9,00450,1,99,9,99,9","99999,9,10127,1","4,1,000,1,+999,9","+215,9","SYN106AAXX  15151 02795 47461 71107 10218 20196 30127 40134 54001 76160 85/// 91439 222// 00215 555 787// 0/108;",
"02795099999","2010-07-15T21:00:00","4","60.1","24.9833333","6.4","HELSINKI HARMAJA, FI","FM-12","99999","V020","150,1,N,0030,1","22000,1,9,N","020000,1,N,1","+0216,1","+0200,1","10133,1","22,1","8,1,03,1","00,1,+99999,9,99,9","00,99,1,00,1,00,1,99999,9,00,1,00,1","99999,9,10126,1","2,1,003,1,+999,9","+214,9","SYN100AAXX  15211 02795 47970 01503 10216 20200 30126 40133 52003 72286 92039 222// 00214 555 791// 0/613;",
"02795099999","2010-07-16T00:00:00","4","60.1","24.9833333","6.4","HELSINKI HARMAJA, FI","FM-12","99999","V020","220,1,N,0030,1","22000,1,9,N","012000,1,N,1","+0214,1","+0202,1","10133,1","00,1","8,1,06,1","00,1,+99999,9,99,9","00,99,1,00,1,00,1,99999,9,00,1,00,1","99999,9,10125,1","4,1,000,1,+999,9","+214,9","SYN100AAXX  16001 02795 47962 02203 10214 20202 30125 40133 54001 70086 92339 222// 00214 555 793// 0/003;",
"02795099999","2010-07-16T03:00:00","4","60.1","24.9833333","6.4","HELSINKI HARMAJA, FI","FM-12","99999","V020","220,1,N,0050,1","22000,1,9,N","003300,1,N,1","+0216,1","+0206,1","10143,1","10,1","2,1,03,1","00,1,+99999,9,99,9","00,99,1,00,1,00,1,99999,9,00,1,00,1","99999,9,10135,1","2,1,010,1,+999,9","+214,9","SYN100AAXX  16031 02795 47933 02205 10216 20206 30135 40143 52010 71010 90239 222// 00214 555 794// 0/206;",
"02795099999","2010-07-16T09:00:00","4","60.1","24.9833333","6.4","HELSINKI HARMAJA, FI","FM-12","99999","V020","210,1,N,0060,1","22000,1,9,N","011000,1,N,1","+0227,1","+0210,1","10163,1","00,1","2,1,03,1","00,1,+99999,9,99,9","00,99,1,00,1,00,1,99999,9,00,1,00,1","99999,9,10155,1","2,1,010,1,+999,9","+210,9","SYN100AAXX  16091 02795 47961 02106 10227 20210 30155 40163 52010 70010 90839 222// 00210 555 790// 0/006;",
"02795099999","2010-07-16T12:00:00","4","60.1","24.9833333","6.4","HELSINKI HARMAJA, FI","FM-12","99999","V020","220,1,N,0080,1","22000,1,9,N","027000,1,N,1","+0236,1","+0206,1","10166,1","00,1","2,1,06,1","00,1,+99999,9,99,9","00,99,1,00,1,00,1,99999,9,00,1,00,1","99999,9,10159,1","2,1,003,1,+999,9","+218,9","SYN100AAXX  16121 02795 47977 02208 10236 20206 30159 40166 52003 70010 91139 222// 00218 555 783// 0/008;",
"02795099999","2010-07-16T15:00:00","4","60.1","24.9833333","6.4","HELSINKI HARMAJA, FI","FM-12","99999","V020","220,1,N,0090,1","22000,1,9,N","030000,1,N,1","+0227,1","+0198,1","10162,1","00,1","0,1,03,1","00,1,+99999,9,99,9","00,99,1,00,1,00,1,99999,9,00,1,00,1","99999,9,10154,1","7,1,004,1,+999,9","+219,9","SYN100AAXX  16151 02795 47980 02209 10227 20198 30154 40162 57004 70000 91439 222// 00219 555 784// 0/209;",
"02795099999","2010-07-16T21:00:00","4","60.1","24.9833333","6.4","HELSINKI HARMAJA, FI","FM-12","99999","V020","290,1,N,0060,1","22000,1,9,N","050000,1,N,1","+0220,1","+0155,1","10185,1","00,1","0,1,03,1","00,1,+99999,9,99,9","00,99,1,00,1,00,1,99999,9,00,1,00,1","99999,9,10178,1","2,1,021,1,+999,9","+210,9","SYN100AAXX  16211 02795 47999 02906 10220 20155 30178 40185 52021 70000 92039 222// 00210 555 767// 0/208;",
"02795099999","2010-07-17T00:00:00","4","60.1","24.9833333","6.4","HELSINKI HARMAJA, FI","FM-12","99999","V020","280,1,N,0070,1","22000,1,9,N","050000,1,N,1","+0201,1","+0149,1","10196,1","00,1","0,1,06,1","00,1,+99999,9,99,9","00,99,1,00,1,00,1,99999,9,00,1,00,1","99999,9,10189,1","2,1,011,1,+999,9","+212,9","SYN100AAXX  17001 02795 47999 02807 10201 20149 30189 40196 52011 70000 92339 222// 00212 555 772// 0/107;",
"02795099999","2010-07-17T03:00:00","4","60.1","24.9833333","6.4","HELSINKI HARMAJA, FI","FM-12","99999","V020","300,1,N,0040,1","22000,1,9,N","050000,1,N,1","+0190,1","+0151,1","10205,1","00,1","0,1,03,1","00,1,+99999,9,99,9","00,99,1,00,1,00,1,99999,9,00,1,00,1","99999,9,10197,1","2,1,009,1,+999,9","+210,9","SYN100AAXX  17031 02795 47999 03004 10190 20151 30197 40205 52009 70000 90239 222// 00210 555 778// 0/607;",
"02795099999","2010-07-17T09:00:00","4","60.1","24.9833333","6.4","HELSINKI HARMAJA, FI","FM-12","99999","V020","220,1,N,0060,1","22000,1,9,N","040000,1,N,1","+0221,1","+0184,1","10213,1","00,1","0,1,03,1","00,1,+99999,9,99,9","00,99,1,00,1,00,1,99999,9,00,1,00,1","99999,9,10205,1","4,1,000,1,+999,9","+213,9","SYN100AAXX  17091 02795 47982 02206 10221 20184 30205 40213 54001 70000 90839 222// 00213 555 780// 0/006;",
"02795099999","2010-07-17T12:00:00","4","60.1","24.9833333","6.4","HELSINKI HARMAJA, FI","FM-12","99999","V020","220,1,N,0070,1","22000,1,9,N","040000,1,N,1","+0228,1","+0190,1","10211,1","00,1","0,1,06,1","00,1,+99999,9,99,9","00,99,1,00,1,00,1,99999,9,00,1,00,1","99999,9,10203,1","4,1,000,1,+999,9","+207,9","SYN100AAXX  17121 02795 47982 02207 10228 20190 30203 40211 54002 70000 91139 222// 00207 555 779// 0/507;",
"02795099999","2010-07-17T15:00:00","4","60.1","24.9833333","6.4","HELSINKI HARMAJA, FI","FM-12","99999","V020","220,1,N,0060,1","22000,1,9,N","040000,1,N,1","+0226,1","+0177,1","10203,1","00,1","0,1,03,1","00,1,+99999,9,99,9","00,99,1,00,1,00,1,99999,9,00,1,00,1","99999,9,10195,1","7,1,008,1,+999,9","+205,9","SYN100AAXX  17151 02795 47982 02206 10226 20177 30195 40203 57008 70000 91439 222// 00205 555 774// 0/507;",
"02795099999","2010-07-17T21:00:00","4","60.1","24.9833333","6.4","HELSINKI HARMAJA, FI","FM-12","99999","V020","290,1,N,0010,1","22000,1,9,N","050000,1,N,1","+0220,1","+0156,1","10196,1","00,1","0,1,03,1","00,1,+99999,9,99,9","00,99,1,00,1,00,1,99999,9,00,1,00,1","99999,9,10188,1","4,1,000,1,+999,9","+206,9","SYN100AAXX  17211 02795 47999 02901 10220 20156 30188 40196 54000 70000 92039 222// 00206 555 767// 0/603;",
"02795099999","2010-07-18T00:00:00","4","60.1","24.9833333","6.4","HELSINKI HARMAJA, FI","FM-12","99999","V020","080,1,N,0020,1","22000,1,9,N","022000,1,N,1","+0199,1","+0179,1","10195,1","00,1","0,1,06,1","00,1,+99999,9,99,9","00,99,1,00,1,00,1,99999,9,00,1,00,1","99999,9,10188,1","4,1,000,1,+999,9","+203,9","SYN100AAXX  18001 02795 47972 00802 10199 20179 30188 40195 54000 70000 92339 222// 00203 555 788// 0/002;",
"02795099999","2010-07-18T03:00:00","4","60.1","24.9833333","6.4","HELSINKI HARMAJA, FI","FM-12","99999","V020","140,1,N,0050,1","22000,1,9,N","045000,1,N,1","+0210,1","+0176,1","10190,1","00,1","0,1,03,1","00,1,+99999,9,99,9","00,99,1,00,1,00,1,99999,9,00,1,00,1","99999,9,10183,1","7,1,005,1,+999,9","+202,9","SYN100AAXX  18031 02795 47983 01405 10210 20176 30183 40190 57005 70000 90239 222// 00202 555 781// 0/005;",
"02795099999","2010-07-18T09:00:00","4","60.1","24.9833333","6.4","HELSINKI HARMAJA, FI","FM-12","99999","V020","120,1,N,0040,1","22000,1,9,N","040000,1,N,1","+0226,1","+0187,1","10183,1","00,1","0,1,03,1","00,1,+99999,9,99,9","00,99,1,00,1,00,1,99999,9,00,1,00,1","99999,9,10175,1","7,1,003,1,+999,9","+204,9","SYN100AAXX  18091 02795 47982 01204 10226 20187 30175 40183 57003 70000 90839 222// 00204 555 779// 0/605;",
"02795099999","2010-07-18T12:00:00","4","60.1","24.9833333","6.4","HELSINKI HARMAJA, FI","FM-12","99999","V020","170,1,N,0030,1","22000,1,9,N","035000,1,N,1","+0231,1","+0194,1","10179,1","00,1","0,1,06,1",,"01,99,1,01,1,99,9,01250,1,99,9,99,9","99999,9,10172,1","7,1,004,1,+999,9","+204,9","SYN106AAXX  18121 02795 47681 11703 10231 20194 30172 40179 57004 70000 81/// 91139 222// 00204 555 779// 0/605;",
"02795099999","2010-07-18T15:00:00","4","60.1","24.9833333","6.4","HELSINKI HARMAJA, FI","FM-12","99999","V020","110,1,N,0040,1","22000,1,9,N","030000,1,N,1","+0230,1","+0196,1","10167,1","00,1","0,1,03,1",,"01,99,1,01,1,99,9,01750,1,99,9,99,9","99999,9,10160,1","7,1,012,1,+999,9","+208,9","SYN106AAXX  18151 02795 47780 11104 10230 20196 30160 40167 57012 70000 81/// 91439 222// 00208 555 781// 0/004;",
"02795099999","2010-07-18T21:00:00","4","60.1","24.9833333","6.4","HELSINKI HARMAJA, FI","FM-12","99999","V020","260,1,N,0030,1","99999,9,9,N","006000,1,N,1","+0211,1","+0201,1","10164,1","61,1","6,1,03,1",,"07,99,1,07,1,99,9,00800,1,99,9,99,9","99999,9,10156,1","7,1,003,1,+999,9","+209,9","SYN106AAXX  18211 02795 47556 72603 10211 20201 30156 40164 57003 76165 87/// 92039 222// 00209 555 794// 0/404;",
"02795099999","2010-07-19T00:00:00","4","60.1","24.9833333","6.4","HELSINKI HARMAJA, FI","FM-12","99999","V020","340,1,N,0070,1","99999,9,9,N","035000,1,N,1","+0196,1","+0160,1","10167,1","52,1","6,1,06,1",,"07,99,1,01,1,99,9,00800,1,99,9,99,9","99999,9,10159,1","2,1,003,1,+999,9","+211,9","SYN106AAXX  19001 02795 47581 73407 10196 20160 30159 40167 52003 75265 81/// 92339 222// 00211 555 780// 0/208;",
"02795099999","2010-07-19T03:00:00","4","60.1","24.9833333","6.4","HELSINKI HARMAJA, FI","FM-12","99999","V020","320,1,N,0040,1","22000,1,9,N","050000,1,N,1","+0190,1","+0156,1","10169,1","81,1","8,1,03,1",,"03,99,1,03,1,99,9,99999,9,99,9,99,9","99999,9,10162,1","2,1,003,1,+999,9","+209,9","SYN106AAXX  19031 02795 47999 33204 10190 20156 30162 40169 52003 78185 83/// 90239 222// 00209 555 780// 0/507;",
"02795099999","2010-07-19T09:00:00","4","60.1","24.9833333","6.4","HELSINKI HARMAJA, FI","FM-12","99999","V020","250,1,N,0020,1","22000,1,9,N","045000,1,N,1","+0228,1","+0133,1","10178,1","00,1","0,1,03,1","00,1,+99999,9,99,9","00,99,1,00,1,00,1,99999,9,00,1,00,1","99999,9,10171,1","2,1,007,1,+999,9","+207,9","SYN100AAXX  19091 02795 47983 02502 10228 20133 30171 40178 52007 70000 90839 222// 00207 555 755// 0/606;",
"02795099999","2010-07-19T12:00:00","4","60.1","24.9833333","6.4","HELSINKI HARMAJA, FI","FM-12","99999","V020","230,1,N,0110,1","22000,1,9,N","035000,1,N,1","+0219,1","+0164,1","10174,1","00,1","0,1,06,1","00,1,+99999,9,99,9","00,99,1,00,1,00,1,99999,9,00,1,00,1","99999,9,10166,1","7,1,005,1,+999,9","+209,9","SYN100AAXX  19121 02795 47981 02311 10219 20164 30166 40174 57005 70000 91139 222// 00209 555 771// 0/011;",
"02795099999","2010-07-19T15:00:00","4","60.1","24.9833333","6.4","HELSINKI HARMAJA, FI","FM-12","99999","V020","230,1,N,0120,1","22000,1,9,N","045000,1,N,1","+0210,1","+0153,1","10170,1","00,1","0,1,03,1","00,1,+99999,9,99,9","00,99,1,00,1,00,1,99999,9,00,1,00,1","99999,9,10163,1","7,1,004,1,+999,9","+199,9","SYN100AAXX  19151 02795 47983 02312 10210 20153 30163 40170 57004 70000 91439 222// 00199 555 770// 0/212;",
"02795099999","2010-07-19T21:00:00","4","60.1","24.9833333","6.4","HELSINKI HARMAJA, FI","FM-12","99999","V020","240,1,N,0070,1","22000,1,9,N","045000,1,N,1","+0183,1","+0153,1","10174,1","00,1","0,1,03,1","00,1,+99999,9,99,9","00,99,1,00,1,00,1,99999,9,00,1,00,1","99999,9,10167,1","2,1,008,1,+999,9","+184,9","SYN100AAXX  19211 02795 47983 02407 10183 20153 30167 40174 52008 70000 92039 222// 00184 555 783// 0/611;",
"02795099999","2010-07-20T00:00:00","4","60.1","24.9833333","6.4","HELSINKI HARMAJA, FI","FM-12","99999","V020","240,1,N,0040,1","22000,1,9,N","040000,1,N,1","+0181,1","+0156,1","10175,1","00,1","0,1,06,1","00,1,+99999,9,99,9","00,99,1,00,1,00,1,99999,9,00,1,00,1","99999,9,10167,1","4,1,000,1,+999,9","+187,9","SYN100AAXX  20001 02795 47982 02404 10181 20156 30167 40175 54001 70000 92339 222// 00187 555 785// 0/606;",
"02795099999","2010-07-20T03:00:00","4","60.1","24.9833333","6.4","HELSINKI HARMAJA, FI","FM-12","99999","V020","220,1,N,0040,1","22000,1,9,N","030000,1,N,1","+0184,1","+0165,1","10173,1","00,1","0,1,03,1","00,1,+99999,9,99,9","00,99,1,00,1,00,1,99999,9,00,1,00,1","99999,9,10166,1","4,1,000,1,+999,9","+189,9","SYN100AAXX  20031 02795 47980 02204 10184 20165 30166 40173 54002 70000 90239 222// 00189 555 789// 0/004;",
"02795099999","2010-07-20T09:00:00","4","60.1","24.9833333","6.4","HELSINKI HARMAJA, FI","FM-12","99999","V020","220,1,N,0090,1","22000,1,9,N","040000,1,N,1","+0202,1","+0167,1","10181,1","00,1","0,1,03,1","00,1,+99999,9,99,9","00,99,1,00,1,00,1,99999,9,00,1,00,1","99999,9,10173,1","2,1,006,1,+999,9","+189,9","SYN100AAXX  20091 02795 47982 02209 10202 20167 30173 40181 52006 70000 90839 222// 00189 555 780// 0/009;",
"02795099999","2010-07-20T12:00:00","4","60.1","24.9833333","6.4","HELSINKI HARMAJA, FI","FM-12","99999","V020","220,1,N,0100,1","22000,1,9,N","040000,1,N,1","+0204,1","+0158,1","10178,1","00,1","0,1,06,1","00,1,+99999,9,99,9","00,99,1,00,1,00,1,99999,9,00,1,00,1","99999,9,10171,1","7,1,002,1,+999,9","+185,9","SYN100AAXX  20121 02795 47982 02210 10204 20158 30171 40178 57002 70000 91139 222// 00185 555 775// 0/110;",
"02795099999","2010-07-20T15:00:00","4","60.1","24.9833333","6.4","HELSINKI HARMAJA, FI","FM-12","99999","V020","220,1,N,0090,1","22000,1,9,N","029000,1,N,1","+0197,1","+0155,1","10173,1","00,1","0,1,03,1","00,1,+99999,9,99,9","00,99,1,00,1,00,1,99999,9,00,1,00,1","99999,9,10166,1","7,1,005,1,+999,9","+177,9","SYN100AAXX  20151 02795 47979 02209 10197 20155 30166 40173 57005 70000 91439 222// 00177 555 777// 0/311;",
"02795099999","2010-07-20T21:00:00","4","60.1","24.9833333","6.4","HELSINKI HARMAJA, FI","FM-12","99999","V020","240,1,N,0060,1","22000,1,9,N","023000,1,N,1","+0172,1","+0144,1","10173,1","00,1","0,1,03,1","00,1,+99999,9,99,9","00,99,1,00,1,00,1,99999,9,00,1,00,1","99999,9,10165,1","2,1,004,1,+999,9","+168,9","SYN100AAXX  20211 02795 47973 02406 10172 20144 30165 40173 52004 70000 92039 222// 00168 555 784// 0/609;",
"02795099999","2010-07-21T00:00:00","4","60.1","24.9833333","6.4","HELSINKI HARMAJA, FI","FM-12","99999","V020","220,1,N,0050,1","22000,1,9,N","011000,1,N,1","+0174,1","+0151,1","10174,1","00,1","0,1,06,1","00,1,+99999,9,99,9","00,99,1,00,1,00,1,99999,9,00,1,00,1","99999,9,10167,1","4,1,000,1,+999,9","+168,9","SYN100AAXX  21001 02795 47961 02205 10174 20151 30167 40174 54001 70000 92339 222// 00168 555 786// 0/606;",
"02795099999","2010-07-21T03:00:00","4","60.1","24.9833333","6.4","HELSINKI HARMAJA, FI","FM-12","99999","V020","220,1,N,0050,1","22000,1,9,N","009000,1,N,1","+0177,1","+0155,1","10173,1","10,1","2,1,03,1","00,1,+99999,9,99,9","00,99,1,00,1,00,1,99999,9,00,1,00,1","99999,9,10165,1","4,1,000,1,+999,9","+171,9","SYN100AAXX  21031 02795 47959 02205 10177 20155 30165 40173 54001 71010 90239 222// 00171 555 787// 0/106;",
"02795099999","2010-07-21T09:00:00","4","60.1","24.9833333","6.4","HELSINKI HARMAJA, FI","FM-12","99999","V020","200,1,N,0050,1","22000,1,9,N","030000,1,N,1","+0197,1","+0163,1","10176,1","00,1","0,1,03,1","00,1,+99999,9,99,9","00,99,1,00,1,00,1,99999,9,00,1,00,1","99999,9,10168,1","4,1,000,1,+999,9","+173,9","SYN100AAXX  21091 02795 47980 02005 10197 20163 30168 40176 54000 70000 90839 222// 00173 555 781// 0/506;",
"02795099999","2010-07-21T12:00:00","4","60.1","24.9833333","6.4","HELSINKI HARMAJA, FI","FM-12","99999","V020","220,1,N,0030,1","22000,1,9,N","035000,1,N,1","+0217,1","+0156,1","10174,1","00,1","0,1,06,1","00,1,+99999,9,99,9","00,99,1,00,1,00,1,99999,9,00,1,00,1","99999,9,10167,1","4,1,000,1,+999,9","+176,9","SYN100AAXX  21121 02795 47981 02203 10217 20156 30167 40174 54002 70000 91139 222// 00176 555 768// 0/505;",
"02795099999","2010-07-21T15:00:00","4","60.1","24.9833333","6.4","HELSINKI HARMAJA, FI","FM-12","99999","V020","170,1,N,0040,1","22000,1,9,N","040000,1,N,1","+0218,1","+0149,1","10162,1","00,1","0,1,03,1","00,1,+99999,9,99,9","00,99,1,00,1,00,1,99999,9,00,1,00,1","99999,9,10154,1","7,1,013,1,+999,9","+184,9","SYN100AAXX  21151 02795 47982 01704 10218 20149 30154 40162 57013 70000 91439 222// 00184 555 765// 0/004;",
"02795099999","2010-07-21T21:00:00","4","60.1","24.9833333","6.4","HELSINKI HARMAJA, FI","FM-12","99999","V020","130,1,N,0030,1","22000,1,9,N","050000,1,N,1","+0198,1","+0159,1","10150,1","00,1","0,1,03,1","00,1,+99999,9,99,9","00,99,1,00,1,00,1,99999,9,00,1,00,1","99999,9,10142,1","7,1,004,1,+999,9","+185,9","SYN100AAXX  21211 02795 47999 01303 10198 20159 30142 40150 57004 70000 92039 222// 00185 555 778// 0/605;",
"02795099999","2010-07-22T00:00:00","4","60.1","24.9833333","6.4","HELSINKI HARMAJA, FI","FM-12","99999","V020","100,1,N,0030,1","22000,1,9,N","035000,1,N,1","+0188,1","+0157,1","10140,1","00,1","0,1,06,1","00,1,+99999,9,99,9","00,99,1,00,1,00,1,99999,9,00,1,00,1","99999,9,10133,1","7,1,009,1,+999,9","+185,9","SYN100AAXX  22001 02795 47981 01003 10188 20157 30133 40140 57009 70000 92339 222// 00185 555 782// 0/204;",
"02795099999","2010-07-22T03:00:00","4","60.1","24.9833333","6.4","HELSINKI HARMAJA, FI","FM-12","99999","V020","180,1,N,0040,1","22000,1,9,N","035000,1,N,1","+0191,1","+0159,1","10137,1","00,1","0,1,03,1","00,1,+99999,9,99,9","00,99,1,00,1,00,1,99999,9,00,1,00,1","99999,9,10129,1","7,1,004,1,+999,9","+186,9","SYN100AAXX  22031 02795 47981 01804 10191 20159 30129 40137 57004 70000 90239 222// 00186 555 782// 0/405;",
"02795099999","2010-07-22T09:00:00","4","60.1","24.9833333","6.4","HELSINKI HARMAJA, FI","FM-12","99999","V020","160,1,N,0060,1","22000,1,9,N","030000,1,N,1","+0209,1","+0166,1","10128,1","00,1","0,1,03,1","00,1,+99999,9,99,9","00,99,1,00,1,00,1,99999,9,00,1,00,1","99999,9,10120,1","7,1,003,1,+999,9","+179,9","SYN100AAXX  22091 02795 47980 01606 10209 20166 30120 40128 57003 70000 90839 222// 00179 555 776// 0/007;",
"02795099999","2010-07-22T12:00:00","4","60.1","24.9833333","6.4","HELSINKI HARMAJA, FI","FM-12","99999","V020","150,1,N,0050,1","22000,1,9,N","035000,1,N,1","+0233,1","+0172,1","10121,1","00,1","0,1,06,1","00,1,+99999,9,99,9","00,99,1,00,1,00,1,99999,9,00,1,00,1","99999,9,10113,1","7,1,007,1,+999,9","+186,9","SYN100AAXX  22121 02795 47981 01505 10233 20172 30113 40121 57007 70000 91139 222// 00186 555 768// 0/606;",
"02795099999","2010-07-22T15:00:00","4","60.1","24.9833333","6.4","HELSINKI HARMAJA, FI","FM-12","99999","V020","160,1,N,0040,1","22000,1,9,N","030000,1,N,1","+0228,1","+0176,1","10106,1","00,1","0,1,03,1","00,1,+99999,9,99,9","00,99,1,00,1,00,1,99999,9,00,1,00,1","99999,9,10099,1","7,1,015,1,+999,9","+194,9","SYN100AAXX  22151 02795 47980 01604 10228 20176 30099 40106 57015 70000 91439 222// 00194 555 773// 0/605;",
"02795099999","2010-07-22T21:00:00","4","60.1","24.9833333","6.4","HELSINKI HARMAJA, FI","FM-12","99999","V020","240,1,N,0040,1","22000,1,9,N","017000,1,N,1","+0207,1","+0171,1","10097,1","00,1","0,1,03,1","00,1,+99999,9,99,9","00,99,1,00,1,00,1,99999,9,00,1,00,1","99999,9,10090,1","2,1,006,1,+999,9","+169,9","SYN100AAXX  22211 02795 47967 02404 10207 20171 30090 40097 52006 70000 92039 222// 00169 555 780// 0/507;",
"02795099999","2010-07-23T00:00:00","4","60.1","24.9833333","6.4","HELSINKI HARMAJA, FI","FM-12","99999","V020","220,1,N,0070,1","22000,1,9,N","017000,1,N,1","+0209,1","+0171,1","10097,1","00,1","0,1,06,1","00,1,+99999,9,99,9","00,99,1,00,1,00,1,99999,9,00,1,00,1","99999,9,10089,1","4,1,000,1,+999,9","+182,9","SYN100AAXX  23001 02795 47967 02207 10209 20171 30089 40097 54001 70000 92339 222// 00182 555 779// 0/007;",
"02795099999","2010-07-23T03:00:00","4","60.1","24.9833333","6.4","HELSINKI HARMAJA, FI","FM-12","99999","V020","230,1,N,0050,1","22000,1,9,N","003300,1,N,1","+0193,1","+0168,1","10105,1","10,1","2,1,03,1","00,1,+99999,9,99,9","00,99,1,00,1,00,1,99999,9,00,1,00,1","99999,9,10097,1","2,1,008,1,+999,9","+190,9","SYN100AAXX  23031 02795 47933 02305 10193 20168 30097 40105 52008 71010 90239 222// 00190 555 785// 0/408;",
"02795099999","2010-07-23T09:00:00","4","60.1","24.9833333","6.4","HELSINKI HARMAJA, FI","FM-12","99999","V020","310,1,N,0060,1","22000,1,9,N","050000,1,N,1","+0228,1","+0098,1","10153,1","00,1","0,1,03,1","00,1,+99999,9,99,9","00,99,1,00,1,00,1,99999,9,00,1,00,1","99999,9,10146,1","2,1,025,1,+999,9","+195,9","SYN100AAXX  23091 02795 47999 03106 10228 20098 30146 40153 52025 70000 90839 222// 00195 555 744// 0/406;",
"02795099999","2010-07-23T12:00:00","4","60.1","24.9833333","6.4","HELSINKI HARMAJA, FI","FM-12","99999","V020","320,1,N,0030,1","22000,1,9,N","050000,1,N,1","+0247,1","+0088,1","10158,1","00,1","0,1,06,1","00,1,+99999,9,99,9","00,99,1,00,1,00,1,99999,9,00,1,00,1","99999,9,10151,1","2,1,005,1,+999,9","+193,9","SYN100AAXX  23121 02795 47999 03203 10247 20088 30151 40158 52005 70000 91139 222// 00193 555 736// 0/606;",
"02795099999","2010-07-23T15:00:00","4","60.1","24.9833333","6.4","HELSINKI HARMAJA, FI","FM-12","99999","V020","010,1,N,0050,1","22000,1,9,N","045000,1,N,1","+0217,1","+0072,1","10160,1","00,1","0,1,03,1","00,1,+99999,9,99,9","00,99,1,00,1,00,1,99999,9,00,1,00,1","99999,9,10152,1","4,1,000,1,+999,9","+191,9","SYN100AAXX  23151 02795 47983 00105 10217 20072 30152 40160 54002 70000 91439 222// 00191 555 739// 0/205;",
"02795099999","2010-07-23T21:00:00","4","60.1","24.9833333","6.4","HELSINKI HARMAJA, FI","FM-12","99999","V020","030,1,N,0060,1","22000,1,9,N","050000,1,N,1","+0193,1","+0064,1","10165,1","00,1","0,1,03,1",,"03,99,1,03,1,99,9,02250,1,99,9,99,9","99999,9,10158,1","4,1,000,1,+999,9","+187,9","SYN106AAXX  23211 02795 47899 30306 10193 20064 30158 40165 54002 70000 83/// 92039 222// 00187 555 743// 0/408;",
"02795099999","2010-07-24T00:00:00","4","60.1","24.9833333","6.4","HELSINKI HARMAJA, FI","FM-12","99999","V020","030,1,N,0070,1","22000,1,9,N","030000,1,N,1","+0164,1","+0089,1","10171,1","52,1","8,1,06,1",,"03,99,1,03,1,99,9,00450,1,99,9,99,9","99999,9,10163,1","2,1,005,1,+999,9","+184,9","SYN106AAXX  24001 02795 47480 30307 10164 20089 30163 40171 52005 75286 83/// 92339 222// 00184 555 761// 0/007;",
"02795099999","2010-07-24T03:00:00","4","60.1","24.9833333","6.4","HELSINKI HARMAJA, FI","FM-12","99999","V020","050,1,N,0070,1","99999,9,9,N","028000,1,N,1","+0148,1","+0107,1","10165,1","61,1","6,1,03,1",,"07,99,1,07,1,99,9,00450,1,99,9,99,9","99999,9,10157,1","7,1,006,1,+999,9","+178,9","SYN106AAXX  24031 02795 47478 70507 10148 20107 30157 40165 57006 76165 87/// 90239 222// 00178 555 777// 0/109;",
"02795099999","2010-07-24T09:00:00","4","60.1","24.9833333","6.4","HELSINKI HARMAJA, FI","FM-12","99999","V020","030,1,N,0070,1","99999,9,9,N","050000,1,N,1","+0153,1","+0105,1","10158,1","00,1","3,1,03,1",,"07,99,1,07,1,99,9,00450,1,99,9,99,9","99999,9,10150,1","4,1,000,1,+999,9","+172,9","SYN106AAXX  24091 02795 47499 70307 10153 20105 30150 40158 54001 70020 87/// 90839 222// 00172 555 773// 0/208;",
"02795099999","2010-07-24T12:00:00","4","60.1","24.9833333","6.4","HELSINKI HARMAJA, FI","FM-12","99999","V020","050,1,N,0080,1","99999,9,9,N","025000,1,N,1","+0155,1","+0109,1","10152,1","51,1","6,1,06,1",,"07,99,1,07,1,99,9,00450,1,99,9,99,9","99999,9,10144,1","7,1,006,1,+999,9","+176,9","SYN106AAXX  24121 02795 47475 70508 10155 20109 30144 40152 57006 75165 87/// 91139 222// 00176 555 774// 0/209;",
"02795099999","2010-07-24T15:00:00","4","60.1","24.9833333","6.4","HELSINKI HARMAJA, FI","FM-12","99999","V020","050,1,N,0070,1","99999,9,9,N","030000,1,N,1","+0164,1","+0114,1","10143,1","00,1","8,1,03,1",,"07,99,1,07,1,99,9,00450,1,99,9,99,9","99999,9,10136,1","7,1,009,1,+999,9","+175,9","SYN106AAXX  24151 02795 47480 70507 10164 20114 30136 40143 57009 70085 87/// 91439 222// 00175 555 772// 0/408;",
"02795099999","2010-07-24T21:00:00","4","60.1","24.9833333","6.4","HELSINKI HARMAJA, FI","FM-12","99999","V020","060,1,N,0090,1","99999,9,9,N","025000,1,N,1","+0156,1","+0120,1","10126,1","00,1","0,1,03,1",,"08,99,1,08,1,99,9,00150,1,99,9,99,9","99999,9,10119,1","7,1,010,1,+999,9","+173,9","SYN106AAXX  24211 02795 47275 80609 10156 20120 30119 40126 57010 70000 88/// 92039 222// 00173 555 779// 0/209;",
"02795099999","2010-07-25T00:00:00","4","60.1","24.9833333","6.4","HELSINKI HARMAJA, FI","FM-12","99999","V020","060,1,N,0110,1","99999,9,9,N","007000,1,N,1","+0159,1","+0128,1","10110,1","61,1","6,1,06,1",,"08,99,1,08,1,99,9,00075,1,99,9,99,9","99999,9,10103,1","7,1,016,1,+999,9","+175,9","SYN106AAXX  25001 02795 47157 80611 10159 20128 30103 40110 57016 76161 88/// 92339 222// 00175 555 782// 0/312;",
"02795099999","2010-07-25T03:00:00","4","60.1","24.9833333","6.4","HELSINKI HARMAJA, FI","FM-12","99999","V020","060,1,N,0090,1","99999,9,9,N","004800,1,N,1","+0167,1","+0138,1","10103,1","51,1","8,1,03,1",,"08,99,1,08,1,99,9,00025,1,99,9,99,9","99999,9,10095,1","7,1,007,1,+999,9","+176,9","SYN106AAXX  25031 02795 47048 80609 10167 20138 30095 40103 57007 75186 88/// 90239 222// 00176 555 783// 0/511;",
"02795099999","2010-07-25T09:00:00","4","60.1","24.9833333","6.4","HELSINKI HARMAJA, FI","FM-12","99999","V020","080,1,N,0100,1","22000,1,9,N","007000,1,N,1","+0199,1","+0168,1","10098,1","10,1","3,1,03,1",,"01,99,1,01,1,99,9,00150,1,99,9,99,9","99999,9,10090,1","2,1,004,1,+999,9","+186,9","SYN106AAXX  25091 02795 47257 10810 10199 20168 30090 40098 52004 71021 81/// 90839 222// 00186 555 782// 0/612;",
"02795099999","2010-07-25T12:00:00","4","60.1","24.9833333","6.4","HELSINKI HARMAJA, FI","FM-12","99999","V020","080,1,N,0090,1","22000,1,9,N","011000,1,N,1","+0205,1","+0158,1","10104,1","00,1","3,1,06,1","00,1,+99999,9,99,9","00,99,1,00,1,00,1,99999,9,00,1,00,1","99999,9,10097,1","2,1,007,1,+999,9","+189,9","SYN100AAXX  25121 02795 47961 00809 10205 20158 30097 40104 52007 70021 91139 222// 00189 555 775// 0/610;",
"02795099999","2010-07-25T15:00:00","4","60.1","24.9833333","6.4","HELSINKI HARMAJA, FI","FM-12","99999","V020","090,1,N,0090,1","22000,1,9,N","010000,1,N,1","+0218,1","+0154,1","10106,1","81,1","8,1,03,1","00,1,+99999,9,99,9","00,99,1,00,1,00,1,99999,9,00,1,00,1","99999,9,10098,1","4,1,000,1,+999,9","+193,9","SYN100AAXX  25151 02795 47960 00909 10218 20154 30098 40106 54001 78186 91439 222// 00193 555 767// 0/310;",
"02795099999","2010-07-25T21:00:00","4","60.1","24.9833333","6.4","HELSINKI HARMAJA, FI","FM-12","99999","V020","100,1,N,0070,1","22000,1,9,N","021000,1,N,1","+0215,1","+0148,1","10105,1","00,1","0,1,03,1","00,1,+99999,9,99,9","00,99,1,00,1,00,1,99999,9,00,1,00,1","99999,9,10098,1","2,1,007,1,+999,9","+195,9","SYN100AAXX  25211 02795 47971 01007 10215 20148 30098 40105 52007 70000 92039 222// 00195 555 765// 0/610;",
"02795099999","2010-07-26T00:00:00","4","60.1","24.9833333","6.4","HELSINKI HARMAJA, FI","FM-12","99999","V020","080,1,N,0040,1","22000,1,9,N","017000,1,N,1","+0206,1","+0145,1","10108,1","00,1","0,1,06,1","00,1,+99999,9,99,9","00,99,1,00,1,00,1,99999,9,00,1,00,1","99999,9,10101,1","2,1,003,1,+999,9","+196,9","SYN100AAXX  26001 02795 47967 00804 10206 20145 30101 40108 52003 70000 92339 222// 00196 555 768// 0/607;",
"02795099999","2010-07-26T03:00:00","4","60.1","24.9833333","6.4","HELSINKI HARMAJA, FI","FM-12","99999","V020","050,1,N,0040,1","22000,1,9,N","018000,1,N,1","+0208,1","+0140,1","10105,1","00,1","0,1,03,1","00,1,+99999,9,99,9","00,99,1,00,1,00,1,99999,9,00,1,00,1","99999,9,10098,1","7,1,003,1,+999,9","+198,9","SYN100AAXX  26031 02795 47968 00504 10208 20140 30098 40105 57003 70000 90239 222// 00198 555 765// 0/406;",
"02795099999","2010-07-26T09:00:00","4","60.1","24.9833333","6.4","HELSINKI HARMAJA, FI","FM-12","99999","V020","160,1,N,0030,1","22000,1,9,N","025000,1,N,1","+0220,1","+0116,1","10132,1","00,1","6,1,03,1","00,1,+99999,9,99,9","00,99,1,00,1,00,1,99999,9,00,1,00,1","99999,9,10125,1","2,1,023,1,+999,9","+201,9","SYN100AAXX  26091 02795 47975 01603 10220 20116 30125 40132 52023 70062 90839 222// 00201 555 752// 0/606;",
"02795099999","2010-07-26T12:00:00","4","60.1","24.9833333","6.4","HELSINKI HARMAJA, FI","FM-12","99999","V020","070,1,N,0020,1","22000,1,9,N","021000,1,N,1","+0235,1","+0127,1","10127,1","00,1","6,1,06,1","00,1,+99999,9,99,9","00,99,1,00,1,00,1,99999,9,00,1,00,1","99999,9,10119,1","7,1,005,1,+999,9","+203,9","SYN100AAXX  26121 02795 47971 00702 10235 20127 30119 40127 57005 70062 91139 222// 00203 555 751// 0/603;",
"02795099999","2010-07-26T15:00:00","4","60.1","24.9833333","6.4","HELSINKI HARMAJA, FI","FM-12","99999","V020","060,1,N,0040,1","22000,1,9,N","013000,1,N,1","+0221,1","+0155,1","10116,1","00,1","0,1,03,1","00,1,+99999,9,99,9","00,99,1,00,1,00,1,99999,9,00,1,00,1","99999,9,10108,1","7,1,011,1,+999,9","+205,9","SYN100AAXX  26151 02795 47963 00604 10221 20155 30108 40116 57011 70000 91439 222// 00205 555 766// 0/006;",
"02795099999","2010-07-26T21:00:00","4","60.1","24.9833333","6.4","HELSINKI HARMAJA, FI","FM-12","99999","V020","130,1,N,0080,1","22000,1,9,N","029000,1,N,1","+0217,1","+0125,1","10099,1","00,1","8,1,03,1",,"01,99,1,01,1,99,9,02250,1,99,9,99,9","99999,9,10092,1","4,1,000,1,+999,9","+203,9","SYN106AAXX  26211 02795 47879 11308 10217 20125 30092 40099 54002 70086 81/// 92039 222// 00203 555 756// 0/309;",
"02795099999","2010-07-27T00:00:00","4","60.1","24.9833333","6.4","HELSINKI HARMAJA, FI","FM-12","99999","V020","170,1,N,0070,1","00120,1,9,N","002000,1,N,1","+0195,1","+0136,1","10113,1","10,1","8,1,06,1","09,1,+99999,9,99,9","09,99,1,09,1,99,9,99999,9,99,9,99,9","99999,9,10106,1","2,1,014,1,+999,9","+203,9","SYN100AAXX  27001 02795 47120 91707 10195 20136 30106 40113 52014 71086 92339 222// 00203 555 769// 0/308;",
"02795099999","2010-07-27T03:00:00","4","60.1","24.9833333","6.4","HELSINKI HARMAJA, FI","FM-12","99999","V020","220,1,N,0040,1","22000,1,9,N","013000,1,N,1","+0197,1","+0144,1","10124,1","00,1","2,1,03,1","00,1,+99999,9,99,9","00,99,1,00,1,00,1,99999,9,00,1,00,1","99999,9,10117,1","2,1,011,1,+999,9","+201,9","SYN100AAXX  27031 02795 47963 02204 10197 20144 30117 40124 52011 70010 90239 222// 00201 555 771// 0/508;",
"02795099999","2010-07-27T09:00:00","4","60.1","24.9833333","6.4","HELSINKI HARMAJA, FI","FM-12","99999","V020","210,1,N,0030,1","22000,1,9,N","022000,1,N,1","+0212,1","+0145,1","10144,1","00,1","0,1,03,1","00,1,+99999,9,99,9","00,99,1,00,1,00,1,99999,9,00,1,00,1","99999,9,10136,1","2,1,011,1,+999,9","+204,9","SYN100AAXX  27091 02795 47972 02103 10212 20145 30136 40144 52011 70000 90839 222// 00204 555 766// 0/404;",
"02795099999","2010-07-27T12:00:00","4","60.1","24.9833333","6.4","HELSINKI HARMAJA, FI","FM-12","99999","V020","210,1,N,0030,1","22000,1,9,N","025000,1,N,1","+0226,1","+0144,1","10146,1","00,1","0,1,06,1","00,1,+99999,9,99,9","00,99,1,00,1,00,1,99999,9,00,1,00,1","99999,9,10139,1","2,1,002,1,+999,9","+206,9","SYN100AAXX  27121 02795 47975 02103 10226 20144 30139 40146 52002 70000 91139 222// 00206 555 760// 0/603;",
"02795099999","2010-07-27T15:00:00","4","60.1","24.9833333","6.4","HELSINKI HARMAJA, FI","FM-12","99999","V020","230,1,N,0030,1","22000,1,9,N","018000,1,N,1","+0222,1","+0154,1","10140,1","00,1","0,1,03,1","00,1,+99999,9,99,9","00,99,1,00,1,00,1,99999,9,00,1,00,1","99999,9,10133,1","7,1,006,1,+999,9","+214,9","SYN100AAXX  27151 02795 47968 02303 10222 20154 30133 40140 57006 70000 91439 222// 00214 555 765// 0/504;",
"02795099999","2010-07-27T21:00:00","4","60.1","24.9833333","6.4","HELSINKI HARMAJA, FI","FM-12","99999","V020","300,1,N,0020,1","22000,1,9,N","026000,1,N,1","+0209,1","+0147,1","10133,1","00,1","0,1,03,1","00,1,+99999,9,99,9","00,99,1,00,1,00,1,99999,9,00,1,00,1","99999,9,10126,1","4,1,000,1,+999,9","+210,9","SYN100AAXX  27211 02795 47976 03002 10209 20147 30126 40133 54002 70000 92039 222// 00210 555 768// 0/504;",
"02795099999","2010-07-28T00:00:00","4","60.1","24.9833333","6.4","HELSINKI HARMAJA, FI","FM-12","99999","V020","030,1,N,0020,1","22000,1,9,N","022000,1,N,1","+0208,1","+0132,1","10127,1","00,1","2,1,06,1","00,1,+99999,9,99,9","00,99,1,00,1,00,1,99999,9,00,1,00,1","99999,9,10119,1","7,1,006,1,+999,9","+210,9","SYN100AAXX  28001 02795 47972 00302 10208 20132 30119 40127 57006 70010 92339 222// 00210 555 762// 0/202;",
"02795099999","2010-07-28T03:00:00","4","60.1","24.9833333","6.4","HELSINKI HARMAJA, FI","FM-12","99999","V020","340,1,N,0050,1","22000,1,9,N","035000,1,N,1","+0202,1","+0126,1","10117,1","00,1","8,1,03,1",,"01,99,1,01,1,99,9,01250,1,99,9,99,9","99999,9,10110,1","7,1,010,1,+999,9","+209,9","SYN106AAXX  28031 02795 47681 13405 10202 20126 30110 40117 57010 70086 81/// 90239 222// 00209 555 761// 0/005;",
"02795099999","2010-07-28T09:00:00","4","60.1","24.9833333","6.4","HELSINKI HARMAJA, FI","FM-12","99999","V020","080,1,N,0060,1","22000,1,9,N","022000,1,N,1","+0234,1","+0118,1","10082,1","00,1","0,1,03,1","00,1,+99999,9,99,9","00,99,1,00,1,00,1,99999,9,00,1,00,1","99999,9,10075,1","7,1,014,1,+999,9","+211,9","SYN100AAXX  28091 02795 47972 00806 10234 20118 30075 40082 57014 70000 90839 222// 00211 555 748// 0/006;",
"02795099999","2010-07-28T12:00:00","4","60.1","24.9833333","6.4","HELSINKI HARMAJA, FI","FM-12","99999","V020","080,1,N,0080,1","22000,1,9,N","014000,1,N,1","+0227,1","+0136,1","10071,1","00,1","0,1,06,1","00,1,+99999,9,99,9","00,99,1,00,1,00,1,99999,9,00,1,00,1","99999,9,10064,1","7,1,011,1,+999,9","+212,9","SYN100AAXX  28121 02795 47964 00808 10227 20136 30064 40071 57011 70000 91139 222// 00212 555 757// 0/209;",
"02795099999","2010-07-28T15:00:00","4","60.1","24.9833333","6.4","HELSINKI HARMAJA, FI","FM-12","99999","V020","070,1,N,0070,1","22000,1,9,N","020000,1,N,1","+0235,1","+0148,1","10055,1","00,1","0,1,03,1","00,1,+99999,9,99,9","00,99,1,00,1,00,1,99999,9,00,1,00,1","99999,9,10048,1","7,1,016,1,+999,9","+205,9","SYN100AAXX  28151 02795 47970 00707 10235 20148 30048 40055 57016 70000 91439 222// 00205 555 758// 0/608;",
"02795099999","2010-07-28T21:00:00","4","60.1","24.9833333","6.4","HELSINKI HARMAJA, FI","FM-12","99999","V020","120,1,N,0040,1","22000,1,9,N","029000,1,N,1","+0225,1","+0142,1","10059,1","00,1","8,1,03,1","00,1,+99999,9,99,9","00,99,1,00,1,00,1,99999,9,00,1,00,1","99999,9,10051,1","2,1,005,1,+999,9","+210,9","SYN100AAXX  28211 02795 47979 01204 10225 20142 30051 40059 52005 70086 92039 222// 00210 555 760// 0/306;",
"02795099999","2010-07-29T00:00:00","4","60.1","24.9833333","6.4","HELSINKI HARMAJA, FI","FM-12","99999","V020","120,1,N,0050,1","22000,1,9,N","030000,1,N,1","+0227,1","+0140,1","10055,1","00,1","8,1,06,1","00,1,+99999,9,99,9","00,99,1,00,1,00,1,99999,9,00,1,00,1","99999,9,10048,1","7,1,004,1,+999,9","+209,9","SYN100AAXX  29001 02795 47980 01205 10227 20140 30048 40055 57004 70086 92339 222// 00209 555 758// 0/406;",
"02795099999","2010-07-29T03:00:00","4","60.1","24.9833333","6.4","HELSINKI HARMAJA, FI","FM-12","99999","V020","020,1,N,0040,1","22000,1,9,N","030000,1,N,1","+0218,1","+0135,1","10033,1","00,1","0,1,03,1","00,1,+99999,9,99,9","00,99,1,00,1,00,1,99999,9,00,1,00,1","99999,9,10025,1","7,1,023,1,+999,9","+210,9","SYN100AAXX  29031 02795 47980 00204 10218 20135 30025 40033 57023 70000 90239 222// 00210 555 759// 0/605;",
"02795099999","2010-07-29T09:00:00","4","60.1","24.9833333","6.4","HELSINKI HARMAJA, FI","FM-12","99999","V020","100,1,N,0100,1","22000,1,9,N","011000,1,N,1","+0227,1","+0144,1","10009,1","00,1","8,1,03,1","00,1,+99999,9,99,9","00,99,1,00,1,00,1,99999,9,00,1,00,1","99999,9,10002,1","4,1,000,1,+999,9","+213,9","SYN100AAXX  29091 02795 47961 01010 10227 20144 30002 40009 54002 70086 90839 222// 00213 555 759// 0/011;",
"02795099999","2010-07-29T12:00:00","4","60.1","24.9833333","6.4","HELSINKI HARMAJA, FI","FM-12","99999","V020","100,1,N,0050,1","22000,1,9,N","029000,1,N,1","+0243,1","+0134,1","10019,1","00,1","8,1,06,1","00,1,+99999,9,99,9","00,99,1,00,1,00,1,99999,9,00,1,00,1","99999,9,10012,1","2,1,010,1,+999,9","+213,9","SYN100AAXX  29121 02795 47979 01005 10243 20134 30012 40019 52010 70086 91139 222// 00213 555 751// 0/610;",
"02795099999","2010-07-29T15:00:00","4","60.1","24.9833333","6.4","HELSINKI HARMAJA, FI","FM-12","99999","V020","110,1,N,0050,1","22000,1,9,N","040000,1,N,1","+0234,1","+0135,1","10026,1","00,1","0,1,03,1","00,1,+99999,9,99,9","00,99,1,00,1,00,1,99999,9,00,1,00,1","99999,9,10019,1","2,1,007,1,+999,9","+216,9","SYN100AAXX  29151 02795 47982 01105 10234 20135 30019 40026 52007 70000 91439 222// 00216 555 754// 0/507;",
"02795099999","2010-07-29T21:00:00","4","60.1","24.9833333","6.4","HELSINKI HARMAJA, FI","FM-12","99999","V020","090,1,N,0020,1","22000,1,9,N","035000,1,N,1","+0205,1","+0099,1","10040,1","00,1","8,1,03,1","00,1,+99999,9,99,9","00,99,1,00,1,00,1,99999,9,00,1,00,1","99999,9,10032,1","2,1,007,1,+999,9","+214,9","SYN100AAXX  29211 02795 47981 00902 10205 20099 30032 40040 52007 70086 92039 222// 00214 555 751// 0/609;",
"02795099999","2010-07-30T00:00:00","4","60.1","24.9833333","6.4","HELSINKI HARMAJA, FI","FM-12","99999","V020","160,1,N,0050,1","22000,1,9,N","030000,1,N,1","+0199,1","+0140,1","10048,1","00,1","8,1,06,1",,"01,99,1,01,1,99,9,01250,1,99,9,99,9","99999,9,10040,1","2,1,008,1,+999,9","+213,9","SYN106AAXX  30001 02795 47680 11605 10199 20140 30040 40048 52008 70086 81/// 92339 222// 00213 555 769// 0/106;",
"02795099999","2010-07-30T03:00:00","4","60.1","24.9833333","6.4","HELSINKI HARMAJA, FI","FM-12","99999","V020","170,1,N,0050,1","22000,1,9,N","028000,1,N,1","+0198,1","+0120,1","10059,1","00,1","0,1,03,1","00,1,+99999,9,99,9","00,99,1,00,1,00,1,99999,9,00,1,00,1","99999,9,10052,1","2,1,011,1,+999,9","+213,9","SYN100AAXX  30031 02795 47978 01705 10198 20120 30052 40059 52011 70000 90239 222// 00213 555 761// 0/206;",
"02795099999","2010-07-30T09:00:00","4","60.1","24.9833333","6.4","HELSINKI HARMAJA, FI","FM-12","99999","V020","210,1,N,0080,1","22000,1,9,N","045000,1,N,1","+0206,1","+0110,1","10113,1","00,1","0,1,03,1",,"01,99,1,01,1,99,9,00450,1,99,9,99,9","99999,9,10106,1","2,1,031,1,+999,9","+214,9","SYN106AAXX  30091 02795 47483 12108 10206 20110 30106 40113 52031 70000 81/// 90839 222// 00214 555 754// 0/210;",
"02795099999","2010-07-30T12:00:00","4","60.1","24.9833333","6.4","HELSINKI HARMAJA, FI","FM-12","99999","V020","220,1,N,0030,1","22000,1,9,N","045000,1,N,1","+0216,1","+0095,1","10128,1","00,1","0,1,06,1","00,1,+99999,9,99,9","00,99,1,00,1,00,1,99999,9,00,1,00,1","99999,9,10120,1","2,1,015,1,+999,9","+214,9","SYN100AAXX  30121 02795 47983 02203 10216 20095 30120 40128 52015 70000 91139 222// 00214 555 746// 0/608;",
"02795099999","2010-07-30T15:00:00","4","60.1","24.9833333","6.4","HELSINKI HARMAJA, FI","FM-12","99999","V020","220,1,N,0040,1","22000,1,9,N","045000,1,N,1","+0221,1","+0100,1","10138,1","00,1","0,1,03,1",,"01,99,1,01,1,99,9,01250,1,99,9,99,9","99999,9,10130,1","2,1,010,1,+999,9","+216,9","SYN106AAXX  30151 02795 47683 12204 10221 20100 30130 40138 52010 70000 81/// 91439 222// 00216 555 746// 0/405;",
"02795099999","2010-07-30T21:00:00","4","60.1","24.9833333","6.4","HELSINKI HARMAJA, FI","FM-12","99999","V020","150,1,N,0070,1","22000,1,9,N","050000,1,N,1","+0217,1","+0102,1","10138,1","00,1","0,1,03,1",,"01,99,1,01,1,99,9,01750,1,99,9,99,9","99999,9,10130,1","7,1,004,1,+999,9","+215,9","SYN106AAXX  30211 02795 47799 11507 10217 20102 30130 40138 57004 70000 81/// 92039 222// 00215 555 748// 0/008;",
"02795099999","2010-07-31T00:00:00","4","60.1","24.9833333","6.4","HELSINKI HARMAJA, FI","FM-12","99999","V020","170,1,N,0110,1","22000,1,9,N","050000,1,N,1","+0215,1","+0077,1","10131,1","00,1","0,1,06,1",,"01,99,1,01,1,99,9,02250,1,99,9,99,9","99999,9,10123,1","7,1,007,1,+999,9","+213,9","SYN106AAXX  31001 02795 47899 11711 10215 20077 30123 40131 57007 70000 81/// 92339 222// 00213 555 741// 0/011;",
"02795099999","2010-07-31T03:00:00","4","60.1","24.9833333","6.4","HELSINKI HARMAJA, FI","FM-12","99999","V020","220,1,N,0100,1","22000,1,9,N","045000,1,N,1","+0191,1","+0090,1","10134,1","00,1","8,1,03,1",,"01,99,1,01,1,99,9,02250,1,99,9,99,9","99999,9,10126,1","2,1,003,1,+999,9","+212,9","SYN106AAXX  31031 02795 47883 12210 10191 20090 30126 40134 52003 70086 81/// 90239 222// 00212 555 752// 0/611;",
"02795099999","2010-07-31T09:00:00","4","60.1","24.9833333","6.4","HELSINKI HARMAJA, FI","FM-12","99999","V020","210,1,N,0100,1","99999,9,9,N","045000,1,N,1","+0194,1","+0091,1","10151,1","00,1","0,1,03,1",,"05,99,1,05,1,99,9,00450,1,99,9,99,9","99999,9,10144,1","2,1,010,1,+999,9","+210,9","SYN106AAXX  31091 02795 47483 52110 10194 20091 30144 40151 52010 70000 85/// 90839 222// 00210 555 751// 0/610;",
"02795099999","2010-07-31T12:00:00","4","60.1","24.9833333","6.4","HELSINKI HARMAJA, FI","FM-12","99999","V020","210,1,N,0080,1","22000,1,9,N","040000,1,N,1","+0205,1","+0101,1","10155,1","00,1","0,1,06,1",,"01,99,1,01,1,99,9,01250,1,99,9,99,9","99999,9,10148,1","2,1,004,1,+999,9","+211,9","SYN106AAXX  31121 02795 47682 12108 10205 20101 30148 40155 52004 70000 81/// 91139 222// 00211 555 751// 0/410;",
"02795099999","2010-07-31T15:00:00","4","60.1","24.9833333","6.4","HELSINKI HARMAJA, FI","FM-12","99999","V020","230,1,N,0090,1","22000,1,9,N","040000,1,N,1","+0206,1","+0117,1","10153,1","00,1","0,1,03,1","00,1,+99999,9,99,9","00,99,1,00,1,00,1,99999,9,00,1,00,1","99999,9,10145,1","7,1,002,1,+999,9","+211,9","SYN100AAXX  31151 02795 47982 02309 10206 20117 30145 40153 57002 70000 91439 222// 00211 555 757// 0/110;",
"02795099999","2010-07-31T21:00:00","4","60.1","24.9833333","6.4","HELSINKI HARMAJA, FI","FM-12","99999","V020","240,1,N,0080,1","22000,1,9,N","045000,1,N,1","+0186,1","+0100,1","10160,1","00,1","0,1,03,1",,"01,99,1,01,1,99,9,00800,1,99,9,99,9","99999,9,10153,1","2,1,003,1,+999,9","+207,9","SYN106AAXX  31211 02795 47583 12408 10186 20100 30153 40160 52003 70000 81/// 92039 222// 00207 555 757// 0/611;",
"02795099999","2010-08-01T00:00:00","4","60.1","24.9833333","6.4","HELSINKI HARMAJA, FI","FM-12","99999","V020","230,1,N,0090,1","99999,9,9,N","050000,1,N,1","+0186,1","+0082,1","10162,1","00,1","0,1,06,1",,"05,99,1,05,1,99,9,00800,1,99,9,99,9","99999,9,10154,1","4,1,000,1,+999,9","+205,9","SYN106AAXX  01001 02795 47599 52309 10186 20082 30154 40162 54002 70000 85/// 92339 222// 00205 555 751// 0/310;",
"02795099999","2010-08-01T03:00:00","4","60.1","24.9833333","6.4","HELSINKI HARMAJA, FI","FM-12","99999","V020","230,1,N,0060,1","99999,9,9,N","045000,1,N,1","+0185,1","+0099,1","10166,1","00,1","0,1,03,1",,"07,99,1,07,1,99,9,00450,1,99,9,99,9","99999,9,10158,1","2,1,004,1,+999,9","+205,9","SYN106AAXX  01031 02795 47483 72306 10185 20099 30158 40166 52004 70000 87/// 90239 222// 00205 555 757// 0/609;",
"02795099999","2010-08-01T09:00:00","4","60.1","24.9833333","6.4","HELSINKI HARMAJA, FI","FM-12","99999","V020","220,1,N,0060,1","22000,1,9,N","030000,1,N,1","+0195,1","+0093,1","10180,1","00,1","0,1,03,1",,"01,99,1,01,1,99,9,00450,1,99,9,99,9","99999,9,10173,1","2,1,007,1,+999,9","+206,9","SYN106AAXX  01091 02795 47480 12206 10195 20093 30173 40180 52007 70000 81/// 90839 222// 00206 555 752// 0/206;",
"02795099999","2010-08-01T12:00:00","4","60.1","24.9833333","6.4","HELSINKI HARMAJA, FI","FM-12","99999","V020","220,1,N,0060,1","22000,1,9,N","030000,1,N,1","+0205,1","+0089,1","10179,1","00,1","0,1,06,1","00,1,+99999,9,99,9","00,99,1,00,1,00,1,99999,9,00,1,00,1","99999,9,10172,1","4,1,000,1,+999,9","+207,9","SYN100AAXX  01121 02795 47980 02206 10205 20089 30172 40179 54001 70000 91139 222// 00207 555 747// 0/306;",
"02795099999","2010-08-01T15:00:00","4","60.1","24.9833333","6.4","HELSINKI HARMAJA, FI","FM-12","99999","V020","220,1,N,0040,1","22000,1,9,N","035000,1,N,1","+0203,1","+0084,1","10170,1","00,1","0,1,03,1","00,1,+99999,9,99,9","00,99,1,00,1,00,1,99999,9,00,1,00,1","99999,9,10162,1","7,1,009,1,+999,9","+208,9","SYN100AAXX  01151 02795 47981 02204 10203 20084 30162 40170 57009 70000 91439 222// 00208 555 746// 0/606;",
"02795099999","2010-08-01T21:00:00","4","60.1","24.9833333","6.4","HELSINKI HARMAJA, FI","FM-12","99999","V020","200,1,N,0040,1","22000,1,9,N","045000,1,N,1","+0196,1","+0117,1","10165,1","00,1","0,1,03,1","00,1,+99999,9,99,9","00,99,1,00,1,00,1,99999,9,00,1,00,1","99999,9,10158,1","4,1,000,1,+999,9","+206,9","SYN100AAXX  01211 02795 47983 02004 10196 20117 30158 40165 54001 70000 92039 222// 00206 555 760// 0/304;",
"02795099999","2010-08-02T00:00:00","4","60.1","24.9833333","6.4","HELSINKI HARMAJA, FI","FM-12","99999","V020","180,1,N,0020,1","22000,1,9,N","050000,1,N,1","+0196,1","+0110,1","10165,1","00,1","0,1,06,1","00,1,+99999,9,99,9","00,99,1,00,1,00,1,99999,9,00,1,00,1","99999,9,10157,1","4,1,000,1,+999,9","+205,9","SYN100AAXX  02001 02795 47999 01802 10196 20110 30157 40165 54001 70000 92339 222// 00205 555 758// 0/604;",
"02795099999","2010-08-02T03:00:00","4","60.1","24.9833333","6.4","HELSINKI HARMAJA, FI","FM-12","99999","V020","160,1,N,0030,1","22000,1,9,N","045000,1,N,1","+0198,1","+0122,1","10165,1","00,1","0,1,03,1","00,1,+99999,9,99,9","00,99,1,00,1,00,1,99999,9,00,1,00,1","99999,9,10157,1","4,1,000,1,+999,9","+205,9","SYN100AAXX  02031 02795 47983 01603 10198 20122 30157 40165 54000 70000 90239 222// 00205 555 762// 0/003;",
"02795099999","2010-08-02T09:00:00","4","60.1","24.9833333","6.4","HELSINKI HARMAJA, FI","FM-12","99999","V020","150,1,N,0010,1","22000,1,9,N","030000,1,N,1","+0219,1","+0140,1","10164,1","00,1","0,1,03,1","00,1,+99999,9,99,9","00,99,1,00,1,00,1,99999,9,00,1,00,1","99999,9,10156,1","2,1,003,1,+999,9","+206,9","SYN100AAXX  02091 02795 47980 01501 10219 20140 30156 40164 52003 70000 90839 222// 00206 555 761// 0/601;",
"02795099999","2010-08-02T12:00:00","4","60.1","24.9833333","6.4","HELSINKI HARMAJA, FI","FM-12","99999","V020","160,1,N,0030,1","22000,1,9,N","040000,1,N,1","+0228,1","+0114,1","10156,1","00,1","0,1,06,1","00,1,+99999,9,99,9","00,99,1,00,1,00,1,99999,9,00,1,00,1","99999,9,10149,1","7,1,007,1,+999,9","+207,9","SYN100AAXX  02121 02795 47982 01603 10228 20114 30149 40156 57007 70000 91139 222// 00207 555 749// 0/103;",
"02795099999","2010-08-02T15:00:00","4","60.1","24.9833333","6.4","HELSINKI HARMAJA, FI","FM-12","99999","V020","160,1,N,0020,1","22000,1,9,N","045000,1,N,1","+0230,1","+0120,1","10143,1","00,1","0,1,03,1","00,1,+99999,9,99,9","00,99,1,00,1,00,1,99999,9,00,1,00,1","99999,9,10136,1","7,1,013,1,+999,9","+210,9","SYN100AAXX  02151 02795 47983 01602 10230 20120 30136 40143 57013 70000 91439 222// 00210 555 750// 0/203;",
"02795099999","2010-08-02T21:00:00","4","60.1","24.9833333","6.4","HELSINKI HARMAJA, FI","FM-12","99999","V020","170,1,N,0030,1","22000,1,9,N","050000,1,N,1","+0213,1","+0140,1","10129,1","00,1","0,1,03,1","00,1,+99999,9,99,9","00,99,1,00,1,00,1,99999,9,00,1,00,1","99999,9,10121,1","7,1,005,1,+999,9","+211,9","SYN100AAXX  02211 02795 47999 01703 10213 20140 30121 40129 57005 70000 92039 222// 00211 555 763// 0/003;",
"02795099999","2010-08-03T00:00:00","4","60.1","24.9833333","6.4","HELSINKI HARMAJA, FI","FM-12","99999","V020","170,1,N,0050,1","22000,1,9,N","045000,1,N,1","+0214,1","+0126,1","10123,1","00,1","0,1,06,1",,"01,99,1,01,1,99,9,99999,9,99,9,99,9","99999,9,10115,1","7,1,006,1,+999,9","+212,9","SYN106AAXX  03001 02795 47983 11705 10214 20126 30115 40123 57006 70000 81/// 92339 222// 00212 555 757// 0/305;",
"02795099999","2010-08-03T03:00:00","4","60.1","24.9833333","6.4","HELSINKI HARMAJA, FI","FM-12","99999","V020","220,1,N,0060,1","22000,1,9,N","040000,1,N,1","+0205,1","+0144,1","10117,1","00,1","0,1,03,1","00,1,+99999,9,99,9","00,99,1,00,1,00,1,99999,9,00,1,00,1","99999,9,10110,1","7,1,006,1,+999,9","+207,9","SYN100AAXX  03031 02795 47982 02206 10205 20144 30110 40117 57006 70000 90239 222// 00207 555 768// 0/206;",
"02795099999","2010-08-03T09:00:00","4","60.1","24.9833333","6.4","HELSINKI HARMAJA, FI","FM-12","99999","V020","220,1,N,0050,1","22000,1,9,N","035000,1,N,1","+0199,1","+0124,1","10130,1","00,1","0,1,03,1",,"01,99,1,01,1,99,9,01750,1,99,9,99,9","99999,9,10122,1","2,1,008,1,+999,9","+209,9","SYN106AAXX  03091 02795 47781 12205 10199 20124 30122 40130 52008 70000 81/// 90839 222// 00209 555 762// 0/606;",
"02795099999","2010-08-03T12:00:00","4","60.1","24.9833333","6.4","HELSINKI HARMAJA, FI","FM-12","99999","V020","210,1,N,0010,1","22000,1,9,N","030000,1,N,1","+0200,1","+0131,1","10122,1","51,1","8,1,06,1",,"01,99,1,01,1,99,9,00450,1,99,9,99,9","99999,9,10115,1","7,1,008,1,+999,9","+209,9","SYN106AAXX  03121 02795 47480 12101 10200 20131 30115 40122 57008 75186 81/// 91139 222// 00209 555 765// 0/605;",
"02795099999","2010-08-03T15:00:00","4","60.1","24.9833333","6.4","HELSINKI HARMAJA, FI","FM-12","99999","V020","999,9,C,0000,1","22000,1,9,N","035000,1,N,1","+0207,1","+0133,1","10114,1","00,1","8,1,03,1",,"01,99,1,01,1,99,9,02250,1,99,9,99,9","99999,9,10107,1","7,1,008,1,+999,9","+210,9","SYN106AAXX  03151 02795 47881 10000 10207 20133 30107 40114 57008 70085 81/// 91439 222// 00210 555 762// 0/503;",
"02795099999","2010-08-03T21:00:00","4","60.1","24.9833333","6.4","HELSINKI HARMAJA, FI","FM-12","99999","V020","080,1,N,0080,1","22000,1,9,N","017000,1,N,1","+0210,1","+0175,1","10079,1","00,1","0,1,03,1",,"01,99,1,01,1,99,9,99999,9,99,9,99,9","99999,9,10071,1","7,1,024,1,+999,9","+209,9","SYN106AAXX  03211 02795 47967 10808 10210 20175 30071 40079 57024 70000 81/// 92039 222// 00209 555 781// 0/108;",
"02795099999","2010-08-04T00:00:00","4","60.1","24.9833333","6.4","HELSINKI HARMAJA, FI","FM-12","99999","V020","250,1,N,0070,1","99999,9,9,N","029000,1,N,1","+0196,1","+0151,1","10070,1","00,1","8,1,06,1",,"05,99,1,05,1,99,9,00450,1,99,9,99,9","99999,9,10063,1","7,1,008,1,+999,9","+208,9","SYN106AAXX  04001 02795 47479 52507 10196 20151 30063 40070 57008 70086 85/// 92339 222// 00208 555 775// 0/210;",
"02795099999","2010-08-04T03:00:00","4","60.1","24.9833333","6.4","HELSINKI HARMAJA, FI","FM-12","99999","V020","060,1,N,0030,1","99999,9,9,N","004900,1,N,1","+0201,1","+0161,1","10047,1","52,1","8,1,03,1",,"07,99,1,07,1,99,9,02250,1,99,9,99,9","99999,9,10039,1","7,1,024,1,+999,9","+206,9","SYN106AAXX  04031 02795 47849 70603 10201 20161 30039 40047 57024 75286 87/// 90239 222// 00206 555 778// 0/607;",
"02795099999","2010-08-04T09:00:00","4","60.1","24.9833333","6.4","HELSINKI HARMAJA, FI","FM-12","99999","V020","140,1,N,0080,1","99999,9,9,N","025000,1,N,1","+0229,1","+0174,1","10021,1","00,1","0,1,03,1",,"05,99,1,05,1,99,9,01750,1,99,9,99,9","99999,9,10014,1","7,1,013,1,+999,9","+206,9","SYN106AAXX  04091 02795 47775 51408 10229 20174 30014 40021 57013 70000 85/// 90839 222// 00206 555 771// 0/008;",
"02795099999","2010-08-04T12:00:00","4","60.1","24.9833333","6.4","HELSINKI HARMAJA, FI","FM-12","99999","V020","200,1,N,0110,1","22000,1,9,N","035000,1,N,1","+0230,1","+0154,1","10032,1","00,1",,,"01,99,1,01,1,99,9,01250,1,99,9,99,9","99999,9,10025,1","2,1,010,1,+999,9","+207,9","SYN106AAXX  04121 02795 47681 12011 10230 20154 30025 40032 52010 700// 81/// 91139 222// 00207 555 762// 0/012;",
"02795099999","2010-08-04T15:00:00","4","60.1","24.9833333","6.4","HELSINKI HARMAJA, FI","FM-12","99999","V020","230,1,N,0140,1","99999,9,9,N","040000,1,N,1","+0197,1","+0130,1","10057,1","00,1","0,1,03,1",,"07,99,1,07,1,99,9,00450,1,99,9,99,9","99999,9,10049,1","2,1,025,1,+999,9","+208,9","SYN106AAXX  04151 02795 47482 72314 10197 20130 30049 40057 52025 70000 87/// 91439 222// 00208 555 765// 0/217;",
"02795099999","2010-08-04T21:00:00","4","60.1","24.9833333","6.4","HELSINKI HARMAJA, FI","FM-12","99999","V020","250,1,N,0070,1","22000,1,9,N","050000,1,N,1","+0184,1","+0120,1","10097,1","00,1","0,1,03,1",,"03,99,1,03,1,99,9,00450,1,99,9,99,9","99999,9,10089,1","2,1,018,1,+999,9","+202,9","SYN106AAXX  04211 02795 47499 32507 10184 20120 30089 40097 52018 70000 83/// 92039 222// 00202 555 766// 0/612;",
"02795099999","2010-08-05T00:00:00","4","60.1","24.9833333","6.4","HELSINKI HARMAJA, FI","FM-12","99999","V020","260,1,N,0030,1","22000,1,9,N","050000,1,N,1","+0177,1","+0106,1","10107,1","00,1","0,1,06,1","00,1,+99999,9,99,9","00,99,1,00,1,00,1,99999,9,00,1,00,1","99999,9,10100,1","2,1,011,1,+999,9","+201,9","SYN100AAXX  05001 02795 47999 02603 10177 20106 30100 40107 52011 70000 92339 222// 00201 555 763// 0/607;",
"02795099999","2010-08-05T03:00:00","4","60.1","24.9833333","6.4","HELSINKI HARMAJA, FI","FM-12","99999","V020","210,1,N,0020,1","99999,9,9,N","050000,1,N,1","+0180,1","+0115,1","10121,1","00,1","0,1,03,1",,"05,99,1,05,1,99,9,00450,1,99,9,99,9","99999,9,10114,1","2,1,014,1,+999,9","+200,9","SYN106AAXX  05031 02795 47499 52102 10180 20115 30114 40121 52014 70000 85/// 90239 222// 00200 555 766// 0/304;",
"02795099999","2010-08-05T09:00:00","4","60.1","24.9833333","6.4","HELSINKI HARMAJA, FI","FM-12","99999","V020","310,1,N,0020,1","99999,9,9,N","025000,1,N,1","+0179,1","+0117,1","10137,1","61,1","6,1,03,1",,"05,99,1,05,1,99,9,00250,1,99,9,99,9","99999,9,10129,1","2,1,004,1,+999,9","+203,9","SYN106AAXX  05091 02795 47375 53102 10179 20117 30129 40137 52004 76165 85/// 90839 222// 00203 555 767// 0/502;",
"02795099999","2010-08-05T12:00:00","4","60.1","24.9833333","6.4","HELSINKI HARMAJA, FI","FM-12","99999","V020","999,9,C,0000,1","22000,1,9,N","035000,1,N,1","+0181,1","+0118,1","10148,1","51,1","6,1,06,1",,"01,99,1,01,1,99,9,00250,1,99,9,99,9","99999,9,10141,1","2,1,012,1,+999,9","+203,9","SYN106AAXX  05121 02795 47381 10000 10181 20118 30141 40148 52012 75165 81/// 91139 222// 00203 555 767// 0/403;",
"02795099999","2010-08-05T15:00:00","4","60.1","24.9833333","6.4","HELSINKI HARMAJA, FI","FM-12","99999","V020","230,1,N,0010,1","22000,1,9,N","045000,1,N,1","+0198,1","+0076,1","10152,1","00,1","6,1,03,1",,"01,99,1,01,1,99,9,01750,1,99,9,99,9","99999,9,10144,1","2,1,003,1,+999,9","+204,9","SYN106AAXX  05151 02795 47783 12301 10198 20076 30144 40152 52003 70065 81/// 91439 222// 00204 555 745// 0/201;",
"02795099999","2010-08-05T21:00:00","4","60.1","24.9833333","6.4","HELSINKI HARMAJA, FI","FM-12","99999","V020","250,1,N,0020,1","22000,1,9,N","050000,1,N,1","+0183,1","+0092,1","10167,1","00,1","0,1,03,1","00,1,+99999,9,99,9","00,99,1,00,1,00,1,99999,9,00,1,00,1","99999,9,10160,1","2,1,013,1,+999,9","+202,9","SYN100AAXX  05211 02795 47999 02502 10183 20092 30160 40167 52013 70000 92039 222// 00202 555 755// 0/002;",
"02795099999","2010-08-06T00:00:00","4","60.1","24.9833333","6.4","HELSINKI HARMAJA, FI","FM-12","99999","V020","300,1,N,0030,1","22000,1,9,N","050000,1,N,1","+0175,1","+0118,1","10173,1","00,1","0,1,06,1","00,1,+99999,9,99,9","00,99,1,00,1,00,1,99999,9,00,1,00,1","99999,9,10166,1","2,1,006,1,+999,9","+202,9","SYN100AAXX  06001 02795 47999 03003 10175 20118 30166 40173 52006 70000 92339 222// 00202 555 769// 0/204;",
"02795099999","2010-08-06T03:00:00","4","60.1","24.9833333","6.4","HELSINKI HARMAJA, FI","FM-12","99999","V020","010,1,N,0030,1","22000,1,9,N","030000,1,N,1","+0167,1","+0123,1","10183,1","00,1","0,1,03,1","00,1,+99999,9,99,9","00,99,1,00,1,00,1,99999,9,00,1,00,1","99999,9,10175,1","2,1,009,1,+999,9","+200,9","SYN100AAXX  06031 02795 47980 00103 10167 20123 30175 40183 52009 70000 90239 222// 00200 555 775// 0/104;",
"02795099999","2010-08-06T09:00:00","4","60.1","24.9833333","6.4","HELSINKI HARMAJA, FI","FM-12","99999","V020","080,1,N,0030,1","22000,1,9,N","040000,1,N,1","+0202,1","+0097,1","10199,1","00,1","0,1,03,1","00,1,+99999,9,99,9","00,99,1,00,1,00,1,99999,9,00,1,00,1","99999,9,10192,1","2,1,005,1,+999,9","+204,9","SYN100AAXX  06091 02795 47982 00803 10202 20097 30192 40199 52005 70000 90839 222// 00204 555 751// 0/404;",
"02795099999","2010-08-06T12:00:00","4","60.1","24.9833333","6.4","HELSINKI HARMAJA, FI","FM-12","99999","V020","080,1,N,0020,1","22000,1,9,N","045000,1,N,1","+0217,1","+0107,1","10198,1","00,1","0,1,06,1","00,1,+99999,9,99,9","00,99,1,00,1,00,1,99999,9,00,1,00,1","99999,9,10191,1","4,1,000,1,+999,9","+205,9","SYN100AAXX  06121 02795 47983 00802 10217 20107 30191 40198 54001 70000 91139 222// 00205 555 750// 0/504;",
"02795099999","2010-08-06T15:00:00","4","60.1","24.9833333","6.4","HELSINKI HARMAJA, FI","FM-12","99999","V020","130,1,N,0030,1","22000,1,9,N","050000,1,N,1","+0225,1","+0131,1","10195,1","00,1","0,1,03,1","00,1,+99999,9,99,9","00,99,1,00,1,00,1,99999,9,00,1,00,1","99999,9,10188,1","7,1,003,1,+999,9","+203,9","SYN100AAXX  06151 02795 47999 01303 10225 20131 30188 40195 57003 70000 91439 222// 00203 555 755// 0/104;",
"02795099999","2010-08-06T21:00:00","4","60.1","24.9833333","6.4","HELSINKI HARMAJA, FI","FM-12","99999","V020","030,1,N,0010,1","22000,1,9,N","050000,1,N,1","+0205,1","+0138,1","10192,1","00,1","0,1,03,1","00,1,+99999,9,99,9","00,99,1,00,1,00,1,99999,9,00,1,00,1","99999,9,10185,1","4,1,000,1,+999,9","+208,9","SYN100AAXX  06211 02795 47999 00301 10205 20138 30185 40192 54001 70000 92039 222// 00208 555 766// 0/602;",
"02795099999","2010-08-07T00:00:00","4","60.1","24.9833333","6.4","HELSINKI HARMAJA, FI","FM-12","99999","V020","010,1,N,0020,1","22000,1,9,N","050000,1,N,1","+0201,1","+0133,1","10189,1","00,1","0,1,06,1","00,1,+99999,9,99,9","00,99,1,00,1,00,1,99999,9,00,1,00,1","99999,9,10181,1","7,1,003,1,+999,9","+208,9","SYN100AAXX  07001 02795 47999 00102 10201 20133 30181 40189 57003 70000 92339 222// 00208 555 765// 0/303;",
"02795099999","2010-08-07T03:00:00","4","60.1","24.9833333","6.4","HELSINKI HARMAJA, FI","FM-12","99999","V020","010,1,N,0050,1","22000,1,9,N","030000,1,N,1","+0197,1","+0130,1","10184,1","00,1","0,1,03,1","00,1,+99999,9,99,9","00,99,1,00,1,00,1,99999,9,00,1,00,1","99999,9,10177,1","7,1,004,1,+999,9","+207,9","SYN100AAXX  07031 02795 47980 00105 10197 20130 30177 40184 57004 70000 90239 222// 00207 555 765// 0/505;",
"02795099999","2010-08-07T09:00:00","4","60.1","24.9833333","6.4","HELSINKI HARMAJA, FI","FM-12","99999","V020","090,1,N,0030,1","22000,1,9,N","028000,1,N,1","+0228,1","+0130,1","10172,1","00,1","2,1,03,1","00,1,+99999,9,99,9","00,99,1,00,1,00,1,99999,9,00,1,00,1","99999,9,10165,1","7,1,007,1,+999,9","+207,9","SYN100AAXX  07091 02795 47978 00903 10228 20130 30165 40172 57007 70010 90839 222// 00207 555 754// 0/104;",
"02795099999","2010-08-07T12:00:00","4","60.1","24.9833333","6.4","HELSINKI HARMAJA, FI","FM-12","99999","V020","110,1,N,0040,1","22000,1,9,N","026000,1,N,1","+0227,1","+0145,1","10168,1","00,1","2,1,06,1","00,1,+99999,9,99,9","00,99,1,00,1,00,1,99999,9,00,1,00,1","99999,9,10161,1","7,1,004,1,+999,9","+204,9","SYN100AAXX  07121 02795 47976 01104 10227 20145 30161 40168 57004 70010 91139 222// 00204 555 760// 0/105;",
"02795099999","2010-08-07T15:00:00","4","60.1","24.9833333","6.4","HELSINKI HARMAJA, FI","FM-12","99999","V020","080,1,N,0040,1","22000,1,9,N","013000,1,N,1","+0218,1","+0160,1","10164,1","00,1","0,1,03,1","00,1,+99999,9,99,9","00,99,1,00,1,00,1,99999,9,00,1,00,1","99999,9,10157,1","7,1,004,1,+999,9","+214,9","SYN100AAXX  07151 02795 47963 00804 10218 20160 30157 40164 57004 70000 91439 222// 00214 555 769// 0/205;",
"02795099999","2010-08-07T21:00:00","4","60.1","24.9833333","6.4","HELSINKI HARMAJA, FI","FM-12","99999","V020","090,1,N,0050,1","22000,1,9,N","015000,1,N,1","+0232,1","+0153,1","10143,1","00,1","0,1,03,1","00,1,+99999,9,99,9","00,99,1,00,1,00,1,99999,9,00,1,00,1","99999,9,10136,1","7,1,007,1,+999,9","+215,9","SYN100AAXX  07211 02795 47965 00905 10232 20153 30136 40143 57007 70000 92039 222// 00215 555 761// 0/105;",
"02795099999","2010-08-08T00:00:00","4","60.1","24.9833333","6.4","HELSINKI HARMAJA, FI","FM-12","99999","V020","110,1,N,0040,1","22000,1,9,N","009000,1,N,1","+0234,1","+0181,1","10137,1","00,1","0,1,06,1","00,1,+99999,9,99,9","00,99,1,00,1,00,1,99999,9,00,1,00,1","99999,9,10130,1","7,1,006,1,+999,9","+209,9","SYN100AAXX  08001 02795 47959 01104 10234 20181 30130 40137 57006 70000 92339 222// 00209 555 772// 0/605;",
"02795099999","2010-08-08T03:00:00","4","60.1","24.9833333","6.4","HELSINKI HARMAJA, FI","FM-12","99999","V020","140,1,N,0030,1","22000,1,9,N","007000,1,N,1","+0225,1","+0178,1","10132,1","10,1","2,1,03,1","00,1,+99999,9,99,9","00,99,1,00,1,00,1,99999,9,00,1,00,1","99999,9,10124,1","7,1,006,1,+999,9","+212,9","SYN100AAXX  08031 02795 47957 01403 10225 20178 30124 40132 57006 71010 90239 222// 00212 555 774// 0/304;",
"02795099999","2010-08-08T09:00:00","4","60.1","24.9833333","6.4","HELSINKI HARMAJA, FI","FM-12","99999","V020","330,1,N,0010,1","22000,1,9,N","006000,1,N,1","+0238,1","+0182,1","10128,1","10,1","2,1,03,1","00,1,+99999,9,99,9","00,99,1,00,1,00,1,99999,9,00,1,00,1","99999,9,10120,1","2,1,005,1,+999,9","+216,9","SYN100AAXX  08091 02795 47956 03301 10238 20182 30120 40128 52005 71010 90839 222// 00216 555 771// 0/407;",
"02795099999","2010-08-08T12:00:00","4","60.1","24.9833333","6.4","HELSINKI HARMAJA, FI","FM-12","99999","V020","110,1,N,0040,1","22000,1,9,N","006000,1,N,1","+0247,1","+0185,1","10117,1","10,1","2,1,06,1","00,1,+99999,9,99,9","00,99,1,00,1,00,1,99999,9,00,1,00,1","99999,9,10110,1","7,1,011,1,+999,9","+217,9","SYN100AAXX  08121 02795 47956 01104 10247 20185 30110 40117 57011 71010 91139 222// 00217 555 769// 0/106;",
"02795099999","2010-08-08T15:00:00","4","60.1","24.9833333","6.4","HELSINKI HARMAJA, FI","FM-12","99999","V020","250,1,N,0020,1","22000,1,9,N","007000,1,N,1","+0247,1","+0177,1","10113,1","10,1","2,1,03,1","00,1,+99999,9,99,9","00,99,1,00,1,00,1,99999,9,00,1,00,1","99999,9,10105,1","7,1,004,1,+999,9","+220,9","SYN100AAXX  08151 02795 47957 02502 10247 20177 30105 40113 57004 71010 91439 222// 00220 555 765// 0/604;",
"02795099999","2010-08-08T21:00:00","4","60.1","24.9833333","6.4","HELSINKI HARMAJA, FI","FM-12","99999","V020","190,1,N,0060,1","22000,1,9,N","029000,1,N,1","+0205,1","+0175,1","10100,1","23,1","8,1,03,1","00,1,+99999,9,99,9","00,99,1,00,1,00,1,99999,9,00,1,00,1","99999,9,10093,1","4,1,000,1,+999,9","+217,9","SYN100AAXX  08211 02795 47979 01906 10205 20175 30093 40100 54000 72386 92039 222// 00217 555 783// 0/519;",
"02795099999","2010-08-09T00:00:00","4","60.1","24.9833333","6.4","HELSINKI HARMAJA, FI","FM-12","99999","V020","190,1,N,0050,1","22000,1,9,N","029000,1,N,1","+0200,1","+0137,1","10102,1","00,1","8,1,06,1","00,1,+99999,9,99,9","00,99,1,00,1,00,1,99999,9,00,1,00,1","99999,9,10094,1","4,1,000,1,+999,9","+215,9","SYN100AAXX  09001 02795 47979 01905 10200 20137 30094 40102 54002 70086 92339 222// 00215 555 767// 0/308;",
"02795099999","2010-08-09T03:00:00","4","60.1","24.9833333","6.4","HELSINKI HARMAJA, FI","FM-12","99999","V020","250,1,N,0030,1","22000,1,9,N","012000,1,N,1","+0201,1","+0152,1","10095,1","23,1","8,1,03,1",,"01,99,1,01,1,99,9,00075,1,99,9,99,9","99999,9,10087,1","7,1,007,1,+999,9","+214,9","SYN106AAXX  09031 02795 47162 12503 10201 20152 30087 40095 57007 72386 81/// 90239 222// 00214 555 773// 0/606;",
"02795099999","2010-08-09T09:00:00","4","60.1","24.9833333","6.4","HELSINKI HARMAJA, FI","FM-12","99999","V020","210,1,N,0080,1","99999,9,9,N","016000,1,N,1","+0209,1","+0200,1","10115,1","00,1","2,1,03,1",,"07,99,1,07,1,99,9,00250,1,99,9,99,9","99999,9,10107,1","2,1,011,1,+999,9","+214,9","SYN106AAXX  09091 02795 47366 72108 10209 20200 30107 40115 52011 70010 87/// 90839 222// 00214 555 794// 0/108;",
"02795099999","2010-08-09T12:00:00","4","60.1","24.9833333","6.4","HELSINKI HARMAJA, FI","FM-12","99999","V020","180,1,N,0050,1","22000,1,9,N","016000,1,N,1","+0215,1","+0197,1","10119,1","00,1","2,1,06,1",,"01,99,1,01,1,99,9,00450,1,99,9,99,9","99999,9,10111,1","2,1,004,1,+999,9","+215,9","SYN106AAXX  09121 02795 47466 11805 10215 20197 30111 40119 52004 70010 81/// 91139 222// 00215 555 789// 0/608;",
"02795099999","2010-08-09T15:00:00","4","60.1","24.9833333","6.4","HELSINKI HARMAJA, FI","FM-12","99999","V020","220,1,N,0050,1","22000,1,9,N","050000,1,N,1","+0219,1","+0148,1","10121,1","00,1","0,1,03,1",,"01,99,1,01,1,99,9,01750,1,99,9,99,9","99999,9,10113,1","2,1,003,1,+999,9","+218,9","SYN106AAXX  09151 02795 47799 12205 10219 20148 30113 40121 52003 70000 81/// 91439 222// 00218 555 764// 0/106;",
"02795099999","2010-08-09T21:00:00","4","60.1","24.9833333","6.4","HELSINKI HARMAJA, FI","FM-12","99999","V020","200,1,N,0090,1","99999,9,9,N","050000,1,N,1","+0207,1","+0144,1","10119,1","00,1","8,1,03,1",,"05,99,1,05,1,99,9,00800,1,99,9,99,9","99999,9,10111,1","7,1,002,1,+999,9","+214,9","SYN106AAXX  09211 02795 47599 52009 10207 20144 30111 40119 57002 70086 85/// 92039 222// 00214 555 767// 0/512;",
"02795099999","2010-08-10T00:00:00","4","60.1","24.9833333","6.4","HELSINKI HARMAJA, FI","FM-12","99999","V020","200,1,N,0100,1","99999,9,9,N","050000,1,N,1","+0196,1","+0148,1","10116,1","00,1","8,1,06,1",,"05,99,1,05,1,99,9,00450,1,99,9,99,9","99999,9,10108,1","7,1,003,1,+999,9","+211,9","SYN106AAXX  10001 02795 47499 52010 10196 20148 30108 40116 57003 70086 85/// 92339 222// 00211 555 774// 0/611;",
"02795099999","2010-08-10T03:00:00","4","60.1","24.9833333","6.4","HELSINKI HARMAJA, FI","FM-12","99999","V020","210,1,N,0100,1","99999,9,9,N","008000,1,N,1","+0190,1","+0148,1","10115,1","61,1","8,1,03,1",,"07,99,1,07,1,99,9,00150,1,99,9,99,9","99999,9,10108,1","4,1,000,1,+999,9","+208,9","SYN106AAXX  10031 02795 47258 72110 10190 20148 30108 40115 54000 76186 87/// 90239 222// 00208 555 777// 0/611;",
"02795099999","2010-08-10T09:00:00","4","60.1","24.9833333","6.4","HELSINKI HARMAJA, FI","FM-12","99999","V020","230,1,N,0100,1","22000,1,9,N","030000,1,N,1","+0201,1","+0137,1","10127,1","00,1","8,1,03,1",,"01,99,1,01,1,99,9,01250,1,99,9,99,9","99999,9,10120,1","2,1,010,1,+999,9","+207,9","SYN106AAXX  10091 02795 47680 12310 10201 20137 30120 40127 52010 70086 81/// 90839 222// 00207 555 767// 0/411;",
"02795099999","2010-08-10T12:00:00","4","60.1","24.9833333","6.4","HELSINKI HARMAJA, FI","FM-12","99999","V020","240,1,N,0110,1","22000,1,9,N","035000,1,N,1","+0192,1","+0134,1","10137,1","00,1","8,1,06,1",,"01,99,1,01,1,99,9,00800,1,99,9,99,9","99999,9,10130,1","2,1,010,1,+999,9","+207,9","SYN106AAXX  10121 02795 47581 12411 10192 20134 30130 40137 52010 70086 81/// 91139 222// 00207 555 769// 0/011;",
"02795099999","2010-08-10T15:00:00","4","60.1","24.9833333","6.4","HELSINKI HARMAJA, FI","FM-12","99999","V020","230,1,N,0090,1","22000,1,9,N","040000,1,N,1","+0196,1","+0134,1","10138,1","00,1","0,1,03,1",,"01,99,1,01,1,99,9,01750,1,99,9,99,9","99999,9,10130,1","4,1,000,1,+999,9","+206,9","SYN106AAXX  10151 02795 47782 12309 10196 20134 30130 40138 54001 70000 81/// 91439 222// 00206 555 768// 0/411;",
"02795099999","2010-08-10T21:00:00","4","60.1","24.9833333","6.4","HELSINKI HARMAJA, FI","FM-12","99999","V020","240,1,N,0060,1","99999,9,9,N","035000,1,N,1","+0187,1","+0124,1","10144,1","00,1","0,1,03,1",,"07,99,1,07,1,99,9,01750,1,99,9,99,9","99999,9,10137,1","2,1,006,1,+999,9","+202,9","SYN106AAXX  10211 02795 47781 72406 10187 20124 30137 40144 52006 70000 87/// 92039 222// 00202 555 766// 0/610;",
"02795099999","2010-08-11T00:00:00","4","60.1","24.9833333","6.4","HELSINKI HARMAJA, FI","FM-12","99999","V020","240,1,N,0070,1","99999,9,9,N","045000,1,N,1","+0185,1","+0120,1","10146,1","00,1","0,1,06,1",,"05,99,1,05,1,99,9,01750,1,99,9,99,9","99999,9,10138,1","4,1,000,1,+999,9","+201,9","SYN106AAXX  11001 02795 47783 52407 10185 20120 30138 40146 54002 70000 85/// 92339 222// 00201 555 766// 0/408;",
"02795099999","2010-08-11T03:00:00","4","60.1","24.9833333","6.4","HELSINKI HARMAJA, FI","FM-12","99999","V020","250,1,N,0080,1","99999,9,9,N","035000,1,N,1","+0186,1","+0117,1","10148,1","00,1","0,1,03,1",,"07,99,1,07,1,99,9,01250,1,99,9,99,9","99999,9,10140,1","2,1,002,1,+999,9","+200,9","SYN106AAXX  11031 02795 47681 72508 10186 20117 30140 40148 52002 70000 87/// 90239 222// 00200 555 765// 0/208;",
"02795099999","2010-08-11T09:00:00","4","60.1","24.9833333","6.4","HELSINKI HARMAJA, FI","FM-12","99999","V020","230,1,N,0070,1","22000,1,9,N","030000,1,N,1","+0194,1","+0125,1","10167,1","00,1","3,1,03,1",,"01,99,1,01,1,99,9,01750,1,99,9,99,9","99999,9,10160,1","2,1,009,1,+999,9","+201,9","SYN106AAXX  11091 02795 47780 12307 10194 20125 30160 40167 52009 70020 81/// 90839 222// 00201 555 764// 0/107;",
"02795099999","2010-08-11T12:00:00","4","60.1","24.9833333","6.4","HELSINKI HARMAJA, FI","FM-12","99999","V020","230,1,N,0090,1","22000,1,9,N","025000,1,N,1","+0201,1","+0123,1","10172,1","00,1","3,1,06,1","00,1,+99999,9,99,9","00,99,1,00,1,00,1,99999,9,00,1,00,1","99999,9,10164,1","2,1,005,1,+999,9","+202,9","SYN100AAXX  11121 02795 47975 02309 10201 20123 30164 40172 52005 70020 91139 222// 00202 555 761// 0/109;",
"02795099999","2010-08-11T15:00:00","4","60.1","24.9833333","6.4","HELSINKI HARMAJA, FI","FM-12","99999","V020","240,1,N,0070,1","22000,1,9,N","035000,1,N,1","+0205,1","+0113,1","10176,1","00,1","0,1,03,1","00,1,+99999,9,99,9","00,99,1,00,1,00,1,99999,9,00,1,00,1","99999,9,10168,1","2,1,004,1,+999,9","+201,9","SYN100AAXX  11151 02795 47981 02407 10205 20113 30168 40176 52004 70000 91439 222// 00201 555 756// 0/309;",
"02795099999","2010-08-11T21:00:00","4","60.1","24.9833333","6.4","HELSINKI HARMAJA, FI","FM-12","99999","V020","240,1,N,0030,1","22000,1,9,N","050000,1,N,1","+0190,1","+0156,1","10188,1","00,1","8,1,03,1","00,1,+99999,9,99,9","00,99,1,00,1,00,1,99999,9,00,1,00,1","99999,9,10181,1","2,1,009,1,+999,9","+197,9","SYN100AAXX  11211 02795 47999 02403 10190 20156 30181 40188 52009 70086 92039 222// 00197 555 781// 0/604;",
"02795099999","2010-08-12T00:00:00","4","60.1","24.9833333","6.4","HELSINKI HARMAJA, FI","FM-12","99999","V020","200,1,N,0020,1","22000,1,9,N","050000,1,N,1","+0190,1","+0161,1","10196,1","00,1","8,1,06,1","00,1,+99999,9,99,9","00,99,1,00,1,00,1,99999,9,00,1,00,1","99999,9,10189,1","2,1,008,1,+999,9","+196,9","SYN100AAXX  12001 02795 47999 02002 10190 20161 30189 40196 52008 70086 92339 222// 00196 555 783// 0/203;",
"02795099999","2010-08-12T03:00:00","4","60.1","24.9833333","6.4","HELSINKI HARMAJA, FI","FM-12","99999","V020","080,1,N,0010,1","22000,1,9,N","040000,1,N,1","+0190,1","+0171,1","10202,1","00,1","0,1,03,1",,"01,99,1,01,1,99,9,01750,1,99,9,99,9","99999,9,10194,1","2,1,006,1,+999,9","+195,9","SYN106AAXX  12031 02795 47782 10801 10190 20171 30194 40202 52006 70000 81/// 90239 222// 00195 555 789// 0/402;",
"02795099999","2010-08-12T09:00:00","4","60.1","24.9833333","6.4","HELSINKI HARMAJA, FI","FM-12","99999","V020","090,1,N,0050,1","22000,1,9,N","028000,1,N,1","+0197,1","+0181,1","10216,1","00,1","0,1,03,1",,"03,99,1,03,1,99,9,00450,1,99,9,99,9","99999,9,10208,1","2,1,011,1,+999,9","+197,9","SYN106AAXX  12091 02795 47478 30905 10197 20181 30208 40216 52011 70000 83/// 90839 222// 00197 555 790// 0/106;",
"02795099999","2010-08-12T12:00:00","4","60.1","24.9833333","6.4","HELSINKI HARMAJA, FI","FM-12","99999","V020","090,1,N,0030,1","22000,1,9,N","030000,1,N,1","+0211,1","+0184,1","10218,1","00,1","0,1,06,1","00,1,+99999,9,99,9","00,99,1,00,1,00,1,99999,9,00,1,00,1","99999,9,10211,1","2,1,003,1,+999,9","+196,9","SYN100AAXX  12121 02795 47980 00903 10211 20184 30211 40218 52003 70000 91139 222// 00196 555 785// 0/604;",
"02795099999","2010-08-12T15:00:00","4","60.1","24.9833333","6.4","HELSINKI HARMAJA, FI","FM-12","99999","V020","070,1,N,0040,1","22000,1,9,N","023000,1,N,1","+0204,1","+0186,1","10220,1","00,1","0,1,03,1","00,1,+99999,9,99,9","00,99,1,00,1,00,1,99999,9,00,1,00,1","99999,9,10212,1","4,1,000,1,+999,9","+195,9","SYN100AAXX  12151 02795 47973 00704 10204 20186 30212 40220 54001 70000 91439 222// 00195 555 790// 0/405;",
"02795099999","2010-08-12T21:00:00","4","60.1","24.9833333","6.4","HELSINKI HARMAJA, FI","FM-12","99999","V020","050,1,N,0020,1","22000,1,9,N","020000,1,N,1","+0201,1","+0188,1","10227,1","00,1","8,1,03,1","00,1,+99999,9,99,9","00,99,1,00,1,00,1,99999,9,00,1,00,1","99999,9,10220,1","2,1,003,1,+999,9","+195,9","SYN100AAXX  12211 02795 47970 00502 10201 20188 30220 40227 52003 70086 92039 222// 00195 555 792// 0/606;",
"02795099999","2010-08-13T00:00:00","4","60.1","24.9833333","6.4","HELSINKI HARMAJA, FI","FM-12","99999","V020","070,1,N,0040,1","22000,1,9,N","010000,1,N,1","+0202,1","+0191,1","10231,1","00,1","8,1,06,1",,"01,99,1,01,1,99,9,01750,1,99,9,99,9","99999,9,10223,1","2,1,004,1,+999,9","+197,9","SYN106AAXX  13001 02795 47760 10704 10202 20191 30223 40231 52004 70086 81/// 92339 222// 00197 555 793// 0/305;",
"02795099999","2010-08-13T03:00:00","4","60.1","24.9833333","6.4","HELSINKI HARMAJA, FI","FM-12","99999","V020","050,1,N,0020,1","99999,9,9,N","014000,1,N,1","+0201,1","+0190,1","10232,1","00,1","0,1,03,1",,"05,99,1,05,1,99,9,01750,1,99,9,99,9","99999,9,10224,1","4,1,000,1,+999,9","+197,9","SYN106AAXX  13031 02795 47764 50502 10201 20190 30224 40232 54001 70000 85/// 90239 222// 00197 555 793// 0/405;",
"02795099999","2010-08-13T09:00:00","4","60.1","24.9833333","6.4","HELSINKI HARMAJA, FI","FM-12","99999","V020","090,1,N,0050,1","22000,1,9,N","030000,1,N,1","+0217,1","+0188,1","10242,1","00,1","0,1,03,1","00,1,+99999,9,99,9","00,99,1,00,1,00,1,99999,9,00,1,00,1","99999,9,10234,1","2,1,008,1,+999,9","+200,9","SYN100AAXX  13091 02795 47980 00905 10217 20188 30234 40242 52008 70000 90839 222// 00200 555 784// 0/106;",
"02795099999","2010-08-13T12:00:00","4","60.1","24.9833333","6.4","HELSINKI HARMAJA, FI","FM-12","99999","V020","080,1,N,0070,1","22000,1,9,N","030000,1,N,1","+0220,1","+0191,1","10241,1","00,1","0,1,06,1","00,1,+99999,9,99,9","00,99,1,00,1,00,1,99999,9,00,1,00,1","99999,9,10233,1","4,1,000,1,+999,9","+208,9","SYN100AAXX  13121 02795 47980 00807 10220 20191 30233 40241 54001 70000 91139 222// 00208 555 784// 0/108;",
"02795099999","2010-08-13T15:00:00","4","60.1","24.9833333","6.4","HELSINKI HARMAJA, FI","FM-12","99999","V020","070,1,N,0070,1","22000,1,9,N","024000,1,N,1","+0219,1","+0194,1","10231,1","00,1","0,1,03,1","00,1,+99999,9,99,9","00,99,1,00,1,00,1,99999,9,00,1,00,1","99999,9,10224,1","7,1,010,1,+999,9","+211,9","SYN100AAXX  13151 02795 47974 00707 10219 20194 30224 40231 57010 70000 91439 222// 00211 555 786// 0/208;",
"02795099999","2010-08-13T21:00:00","4","60.1","24.9833333","6.4","HELSINKI HARMAJA, FI","FM-12","99999","V020","110,1,N,0060,1","22000,1,9,N","025000,1,N,1","+0224,1","+0199,1","10228,1","00,1","8,1,03,1","00,1,+99999,9,99,9","00,99,1,00,1,00,1,99999,9,00,1,00,1","99999,9,10221,1","4,1,000,1,+999,9","+212,9","SYN100AAXX  13211 02795 47975 01106 10224 20199 30221 40228 54000 70086 92039 222// 00212 555 786// 0/307;",
"02795099999","2010-08-14T00:00:00","4","60.1","24.9833333","6.4","HELSINKI HARMAJA, FI","FM-12","99999","V020","120,1,N,0040,1","22000,1,9,N","023000,1,N,1","+0219,1","+0202,1","10228,1","00,1","8,1,06,1","00,1,+99999,9,99,9","00,99,1,00,1,00,1,99999,9,00,1,00,1","99999,9,10220,1","4,1,000,1,+999,9","+213,9","SYN100AAXX  14001 02795 47973 01204 10219 20202 30220 40228 54000 70086 92339 222// 00213 555 790// 0/507;",
"02795099999","2010-08-14T03:00:00","4","60.1","24.9833333","6.4","HELSINKI HARMAJA, FI","FM-12","99999","V020","120,1,N,0060,1","22000,1,9,N","035000,1,N,1","+0217,1","+0193,1","10222,1","00,1","0,1,03,1","00,1,+99999,9,99,9","00,99,1,00,1,00,1,99999,9,00,1,00,1","99999,9,10214,1","7,1,006,1,+999,9","+212,9","SYN100AAXX  14031 02795 47981 01206 10217 20193 30214 40222 57006 70000 90239 222// 00212 555 786// 0/006;",
"02795099999","2010-08-14T09:00:00","4","60.1","24.9833333","6.4","HELSINKI HARMAJA, FI","FM-12","99999","V020","090,1,N,0020,1","22000,1,9,N","021000,1,N,1","+0215,1","+0197,1","10226,1","00,1","8,1,03,1","00,1,+99999,9,99,9","00,99,1,00,1,00,1,99999,9,00,1,00,1","99999,9,10218,1","4,1,000,1,+999,9","+212,9","SYN100AAXX  14091 02795 47971 00902 10215 20197 30218 40226 54001 70086 90839 222// 00212 555 790// 0/606;",
"02795099999","2010-08-14T12:00:00","4","60.1","24.9833333","6.4","HELSINKI HARMAJA, FI","FM-12","99999","V020","080,1,N,0070,1","22000,1,9,N","014000,1,N,1","+0219,1","+0203,1","10217,1","00,1","8,1,06,1","00,1,+99999,9,99,9","00,99,1,00,1,00,1,99999,9,00,1,00,1","99999,9,10210,1","7,1,009,1,+999,9","+215,9","SYN100AAXX  14121 02795 47964 00807 10219 20203 30210 40217 57009 70086 91139 222// 00215 555 791// 0/007;",
"02795099999","2010-08-14T15:00:00","4","60.1","24.9833333","6.4","HELSINKI HARMAJA, FI","FM-12","99999","V020","080,1,N,0060,1","22000,1,9,N","022000,1,N,1","+0222,1","+0197,1","10198,1","00,1","8,1,03,1","00,1,+99999,9,99,9","00,99,1,00,1,00,1,99999,9,00,1,00,1","99999,9,10190,1","7,1,019,1,+999,9","+215,9","SYN100AAXX  14151 02795 47972 00806 10222 20197 30190 40198 57019 70086 91439 222// 00215 555 786// 0/408;",
"02795099999","2010-08-14T21:00:00","4","60.1","24.9833333","6.4","HELSINKI HARMAJA, FI","FM-12","99999","V020","999,9,C,0000,1","22000,1,9,N","011000,1,N,1","+0210,1","+0196,1","10181,1","00,1","0,1,03,1","00,1,+99999,9,99,9","00,99,1,00,1,00,1,99999,9,00,1,00,1","99999,9,10174,1","4,1,000,1,+999,9","+213,9","SYN100AAXX  14211 02795 47961 00000 10210 20196 30174 40181 54001 70000 92039 222// 00213 555 792// 0/603;",
"02795099999","2010-08-15T00:00:00","4","60.1","24.9833333","6.4","HELSINKI HARMAJA, FI","FM-12","99999","V020","220,1,N,0010,1","22000,1,9,N","008000,1,N,1","+0211,1","+0201,1","10180,1","10,1","2,1,06,1","00,1,+99999,9,99,9","00,99,1,00,1,00,1,99999,9,00,1,00,1","99999,9,10172,1","4,1,000,1,+999,9","+213,9","SYN100AAXX  15001 02795 47958 02201 10211 20201 30172 40180 54002 71010 92339 222// 00213 555 794// 0/302;",
"02795099999","2010-08-15T03:00:00","4","60.1","24.9833333","6.4","HELSINKI HARMAJA, FI","FM-12","99999","V020","999,9,C,0000,1","22000,1,9,N","003300,1,N,1","+0202,1","+0193,1","10174,1","10,1","2,1,03,1","00,1,+99999,9,99,9","00,99,1,00,1,00,1,99999,9,00,1,00,1","99999,9,10167,1","7,1,005,1,+999,9","+212,9","SYN100AAXX  15031 02795 47933 00000 10202 20193 30167 40174 57005 71010 90239 222// 00212 555 795// 0/402;",
"02795099999","2010-08-15T09:00:00","4","60.1","24.9833333","6.4","HELSINKI HARMAJA, FI","FM-12","99999","V020","280,1,N,0020,1","22000,1,9,N","016000,1,N,1","+0228,1","+0199,1","10174,1","00,1","2,1,03,1","00,1,+99999,9,99,9","00,99,1,00,1,00,1,99999,9,00,1,00,1","99999,9,10167,1","4,1,000,1,+999,9","+212,9","SYN100AAXX  15091 02795 47966 02802 10228 20199 30167 40174 54000 70010 90839 222// 00212 555 784// 0/206;",
"02795099999","2010-08-15T12:00:00","4","60.1","24.9833333","6.4","HELSINKI HARMAJA, FI","FM-12","99999","V020","170,1,N,0030,1","22000,1,9,N","018000,1,N,1","+0232,1","+0197,1","10173,1","00,1","2,1,06,1","00,1,+99999,9,99,9","00,99,1,00,1,00,1,99999,9,00,1,00,1","99999,9,10166,1","4,1,000,1,+999,9","+215,9","SYN100AAXX  15121 02795 47968 01703 10232 20197 30166 40173 54001 70010 91139 222// 00215 555 781// 0/104;",
"02795099999","2010-08-15T15:00:00","4","60.1","24.9833333","6.4","HELSINKI HARMAJA, FI","FM-12","99999","V020","250,1,N,0020,1","22000,1,9,N","021000,1,N,1","+0234,1","+0194,1","10172,1","00,1","0,1,03,1",,"03,99,1,03,1,99,9,00800,1,99,9,99,9","99999,9,10164,1","4,1,000,1,+999,9","+217,9","SYN106AAXX  15151 02795 47571 32502 10234 20194 30164 40172 54002 70000 83/// 91439 222// 00217 555 778// 0/304;",
"02795099999","2010-08-15T21:00:00","4","60.1","24.9833333","6.4","HELSINKI HARMAJA, FI","FM-12","99999","V020","020,1,N,0060,1","22000,1,9,N","050000,1,N,1","+0220,1","+0158,1","10187,1","00,1","0,1,03,1","00,1,+99999,9,99,9","00,99,1,00,1,00,1,99999,9,00,1,00,1","99999,9,10180,1","2,1,012,1,+999,9","+219,9","SYN100AAXX  15211 02795 47999 00206 10220 20158 30180 40187 52012 70000 92039 222// 00219 555 768// 0/006;",
"02795099999","2010-08-16T00:00:00","4","60.1","24.9833333","6.4","HELSINKI HARMAJA, FI","FM-12","99999","V020","040,1,N,0060,1","22000,1,9,N","050000,1,N,1","+0194,1","+0131,1","10200,1","00,1","0,1,06,1","00,1,+99999,9,99,9","00,99,1,00,1,00,1,99999,9,00,1,00,1","99999,9,10192,1","2,1,013,1,+999,9","+214,9","SYN100AAXX  16001 02795 47999 00406 10194 20131 30192 40200 52013 70000 92339 222// 00214 555 767// 0/607;",
"02795099999","2010-08-16T03:00:00","4","60.1","24.9833333","6.4","HELSINKI HARMAJA, FI","FM-12","99999","V020","040,1,N,0060,1","22000,1,9,N","050000,1,N,1","+0171,1","+0115,1","10208,1","00,1","0,1,03,1","00,1,+99999,9,99,9","00,99,1,00,1,00,1,99999,9,00,1,00,1","99999,9,10200,1","2,1,008,1,+999,9","+212,9","SYN100AAXX  16031 02795 47999 00406 10171 20115 30200 40208 52008 70000 90239 222// 00212 555 769// 0/207;",
"02795099999","2010-08-16T09:00:00","4","60.1","24.9833333","6.4","HELSINKI HARMAJA, FI","FM-12","99999","V020","060,1,N,0050,1","22000,1,9,N","050000,1,N,1","+0199,1","+0107,1","10214,1","00,1","0,1,03,1","00,1,+99999,9,99,9","00,99,1,00,1,00,1,99999,9,00,1,00,1","99999,9,10206,1","2,1,002,1,+999,9","+212,9","SYN100AAXX  16091 02795 47999 00605 10199 20107 30206 40214 52002 70000 90839 222// 00212 555 756// 0/606;",
"02795099999","2010-08-16T12:00:00","4","60.1","24.9833333","6.4","HELSINKI HARMAJA, FI","FM-12","99999","V020","110,1,N,0050,1","22000,1,9,N","040000,1,N,1","+0212,1","+0124,1","10214,1","00,1","0,1,06,1","00,1,+99999,9,99,9","00,99,1,00,1,00,1,99999,9,00,1,00,1","99999,9,10206,1","4,1,000,1,+999,9","+214,9","SYN100AAXX  16121 02795 47982 01105 10212 20124 30206 40214 54000 70000 91139 222// 00214 555 757// 0/406;",
"02795099999","2010-08-16T15:00:00","4","60.1","24.9833333","6.4","HELSINKI HARMAJA, FI","FM-12","99999","V020","110,1,N,0060,1","22000,1,9,N","045000,1,N,1","+0210,1","+0122,1","10204,1","00,1","0,1,03,1","00,1,+99999,9,99,9","00,99,1,00,1,00,1,99999,9,00,1,00,1","99999,9,10197,1","7,1,010,1,+999,9","+214,9","SYN100AAXX  16151 02795 47983 01106 10210 20122 30197 40204 57010 70000 91439 222// 00214 555 757// 0/406;",
"02795099999","2010-08-16T21:00:00","4","60.1","24.9833333","6.4","HELSINKI HARMAJA, FI","FM-12","99999","V020","070,1,N,0080,1","22000,1,9,N","050000,1,N,1","+0202,1","+0111,1","10199,1","00,1","0,1,03,1","00,1,+99999,9,99,9","00,99,1,00,1,00,1,99999,9,00,1,00,1","99999,9,10192,1","4,1,000,1,+999,9","+211,9","SYN100AAXX  16211 02795 47999 00708 10202 20111 30192 40199 54000 70000 92039 222// 00211 555 756// 0/209;",
"02795099999","2010-08-17T00:00:00","4","60.1","24.9833333","6.4","HELSINKI HARMAJA, FI","FM-12","99999","V020","110,1,N,0090,1","22000,1,9,N","050000,1,N,1","+0199,1","+0137,1","10185,1","00,1","0,1,06,1",,"01,99,1,01,1,99,9,00800,1,99,9,99,9","99999,9,10178,1","7,1,014,1,+999,9","+208,9","SYN106AAXX  17001 02795 47599 11109 10199 20137 30178 40185 57014 70000 81/// 92339 222// 00208 555 767// 0/009;",
"02795099999","2010-08-17T03:00:00","4","60.1","24.9833333","6.4","HELSINKI HARMAJA, FI","FM-12","99999","V020","100,1,N,0100,1","99999,9,9,N","030000,1,N,1","+0190,1","+0124,1","10175,1","00,1","0,1,03,1",,"05,99,1,05,1,99,9,01250,1,99,9,99,9","99999,9,10167,1","7,1,011,1,+999,9","+207,9","SYN106AAXX  17031 02795 47680 51010 10190 20124 30167 40175 57011 70000 85/// 90239 222// 00207 555 765// 0/411;",
"02795099999","2010-08-17T09:00:00","4","60.1","24.9833333","6.4","HELSINKI HARMAJA, FI","FM-12","99999","V020","080,1,N,0110,1","22000,1,9,N","028000,1,N,1","+0197,1","+0136,1","10141,1","00,1","0,1,03,1","00,1,+99999,9,99,9","00,99,1,00,1,00,1,99999,9,00,1,00,1","99999,9,10134,1","7,1,014,1,+999,9","+206,9","SYN100AAXX  17091 02795 47978 00811 10197 20136 30134 40141 57014 70000 90839 222// 00206 555 768// 0/213;",
"02795099999","2010-08-17T12:00:00","4","60.1","24.9833333","6.4","HELSINKI HARMAJA, FI","FM-12","99999","V020","080,1,N,0120,1","99999,9,9,N","007000,1,N,1","+0190,1","+0158,1","10109,1","62,1","6,1,06,1",,"07,99,1,07,1,99,9,00250,1,99,9,99,9","99999,9,10102,1","7,1,032,1,+999,9","+207,9","SYN106AAXX  17121 02795 47357 70812 10190 20158 30102 40109 57032 76265 87/// 91139 222// 00207 555 781// 0/012;",
"02795099999","2010-08-17T15:00:00","4","60.1","24.9833333","6.4","HELSINKI HARMAJA, FI","FM-12","99999","V020","070,1,N,0090,1","22000,1,9,N","040000,1,N,1","+0196,1","+0143,1","10106,1","00,1","6,1,03,1","00,1,+99999,9,99,9","00,99,1,00,1,00,1,99999,9,00,1,00,1","99999,9,10098,1","7,1,003,1,+999,9","+208,9","SYN100AAXX  17151 02795 47982 00709 10196 20143 30098 40106 57003 70065 91439 222// 00208 555 772// 0/613;",
"02795099999","2010-08-17T21:00:00","4","60.1","24.9833333","6.4","HELSINKI HARMAJA, FI","FM-12","99999","V020","090,1,N,0080,1","99999,9,9,N","026000,1,N,1","+0203,1","+0175,1","10070,1","00,1","0,1,03,1",,"05,99,1,05,1,99,9,00800,1,99,9,99,9","99999,9,10063,1","7,1,009,1,+999,9","+207,9","SYN106AAXX  17211 02795 47576 50908 10203 20175 30063 40070 57009 70000 85/// 92039 222// 00207 555 784// 0/411;",
"02795099999","2010-08-18T00:00:00","4","60.1","24.9833333","6.4","HELSINKI HARMAJA, FI","FM-12","99999","V020","060,1,N,0070,1","99999,9,9,N","018000,1,N,1","+0200,1","+0183,1","10055,1","00,1","8,1,06,1",,"07,99,1,07,1,99,9,00250,1,99,9,99,9","99999,9,10048,1","7,1,015,1,+999,9","+206,9","SYN106AAXX  18001 02795 47368 70607 10200 20183 30048 40055 57015 70086 87/// 92339 222// 00206 555 790// 0/409;",
"02795099999","2010-08-18T03:00:00","4","60.1","24.9833333","6.4","HELSINKI HARMAJA, FI","FM-12","99999","V020","090,1,N,0060,1","99999,9,9,N","018000,1,N,1","+0199,1","+0186,1","10042,1","22,1","8,1,03,1",,"07,99,1,07,1,99,9,00250,1,99,9,99,9","99999,9,10034,1","7,1,013,1,+999,9","+206,9","SYN106AAXX  18031 02795 47368 70906 10199 20186 30034 40042 57013 72286 87/// 90239 222// 00206 555 792// 0/309;",
"02795099999","2010-08-18T09:00:00","4","60.1","24.9833333","6.4","HELSINKI HARMAJA, FI","FM-12","99999","V020","060,1,N,0090,1","99999,9,9,N","007000,1,N,1","+0178,1","+0165,1","10042,1","61,1","6,1,03,1",,"07,99,1,07,1,99,9,00150,1,99,9,99,9","99999,9,10034,1","4,1,000,1,+999,9","+205,9","SYN106AAXX  18091 02795 47257 70609 10178 20165 30034 40042 54001 76165 87/// 90839 222// 00205 555 792// 0/209;",
"02795099999","2010-08-18T12:00:00","4","60.1","24.9833333","6.4","HELSINKI HARMAJA, FI","FM-12","99999","V020","080,1,N,0100,1","22000,1,9,N","040000,1,N,1","+0195,1","+0154,1","10037,1","00,1","8,1,06,1",,"03,99,1,03,1,99,9,00800,1,99,9,99,9","99999,9,10030,1","7,1,005,1,+999,9","+205,9","SYN106AAXX  18121 02795 47582 30810 10195 20154 30030 40037 57005 70086 83/// 91139 222// 00205 555 778// 0/311;",
"02795099999","2010-08-18T15:00:00","4","60.1","24.9833333","6.4","HELSINKI HARMAJA, FI","FM-12","99999","V020","080,1,N,0110,1","22000,1,9,N","035000,1,N,1","+0197,1","+0127,1","10031,1","00,1","0,1,03,1",,"01,99,1,01,1,99,9,01750,1,99,9,99,9","99999,9,10023,1","7,1,006,1,+999,9","+204,9","SYN106AAXX  18151 02795 47781 10811 10197 20127 30023 40031 57006 70000 81/// 91439 222// 00204 555 764// 0/212;",
"02795099999","2010-08-18T21:00:00","4","60.1","24.9833333","6.4","HELSINKI HARMAJA, FI","FM-12","99999","V020","090,1,N,0070,1","22000,1,9,N","050000,1,N,1","+0197,1","+0129,1","10021,1","00,1","0,1,03,1","00,1,+99999,9,99,9","00,99,1,00,1,00,1,99999,9,00,1,00,1","99999,9,10014,1","7,1,003,1,+999,9","+203,9","SYN100AAXX  18211 02795 47999 00907 10197 20129 30014 40021 57003 70000 92039 222// 00203 555 765// 0/508;",
"02795099999","2010-08-19T00:00:00","4","60.1","24.9833333","6.4","HELSINKI HARMAJA, FI","FM-12","99999","V020","040,1,N,0060,1","22000,1,9,N","050000,1,N,1","+0166,1","+0108,1","10018,1","00,1","0,1,06,1","00,1,+99999,9,99,9","00,99,1,00,1,00,1,99999,9,00,1,00,1","99999,9,10011,1","7,1,003,1,+999,9","+200,9","SYN100AAXX  19001 02795 47999 00406 10166 20108 30011 40018 57003 70000 92339 222// 00200 555 769// 0/511;",
"02795099999","2010-08-19T03:00:00","4","60.1","24.9833333","6.4","HELSINKI HARMAJA, FI","FM-12","99999","V020","040,1,N,0060,1","22000,1,9,N","045000,1,N,1","+0147,1","+0108,1","10014,1","00,1","0,1,03,1","00,1,+99999,9,99,9","00,99,1,00,1,00,1,99999,9,00,1,00,1","99999,9,10006,1","7,1,005,1,+999,9","+198,9","SYN100AAXX  19031 02795 47983 00406 10147 20108 30006 40014 57005 70000 90239 222// 00198 555 777// 0/207;",
"02795099999","2010-08-19T09:00:00","4","60.1","24.9833333","6.4","HELSINKI HARMAJA, FI","FM-12","99999","V020","050,1,N,0070,1","22000,1,9,N","035000,1,N,1","+0170,1","+0080,1","10024,1","00,1","0,1,03,1","00,1,+99999,9,99,9","00,99,1,00,1,00,1,99999,9,00,1,00,1","99999,9,10016,1","2,1,007,1,+999,9","+201,9","SYN100AAXX  19091 02795 47981 00507 10170 20080 30016 40024 52007 70000 90839 222// 00201 555 756// 0/310;",
"02795099999","2010-08-19T12:00:00","4","60.1","24.9833333","6.4","HELSINKI HARMAJA, FI","FM-12","99999","V020","070,1,N,0060,1","22000,1,9,N","040000,1,N,1","+0186,1","+0092,1","10030,1","00,1","0,1,06,1","00,1,+99999,9,99,9","00,99,1,00,1,00,1,99999,9,00,1,00,1","99999,9,10023,1","2,1,006,1,+999,9","+202,9","SYN100AAXX  19121 02795 47982 00706 10186 20092 30023 40030 52006 70000 91139 222// 00202 555 754// 0/408;",
"02795099999","2010-08-19T15:00:00","4","60.1","24.9833333","6.4","HELSINKI HARMAJA, FI","FM-12","99999","V020","110,1,N,0060,1","22000,1,9,N","040000,1,N,1","+0191,1","+0107,1","10037,1","00,1","0,1,03,1","00,1,+99999,9,99,9","00,99,1,00,1,00,1,99999,9,00,1,00,1","99999,9,10029,1","2,1,007,1,+999,9","+204,9","SYN100AAXX  19151 02795 47982 01106 10191 20107 30029 40037 52007 70000 91439 222// 00204 555 758// 0/207;",
"02795099999","2010-08-19T21:00:00","4","60.1","24.9833333","6.4","HELSINKI HARMAJA, FI","FM-12","99999","V020","060,1,N,0040,1","22000,1,9,N","050000,1,N,1","+0184,1","+0073,1","10076,1","00,1","0,1,03,1","00,1,+99999,9,99,9","00,99,1,00,1,00,1,99999,9,00,1,00,1","99999,9,10068,1","2,1,022,1,+999,9","+202,9","SYN100AAXX  19211 02795 47999 00604 10184 20073 30068 40076 52022 70000 92039 222// 00202 555 748// 0/606;",
"02795099999","2010-08-20T00:00:00","4","60.1","24.9833333","6.4","HELSINKI HARMAJA, FI","FM-12","99999","V020","040,1,N,0030,1","22000,1,9,N","045000,1,N,1","+0159,1","+0087,1","10093,1","00,1","0,1,06,1","00,1,+99999,9,99,9","00,99,1,00,1,00,1,99999,9,00,1,00,1","99999,9,10085,1","2,1,017,1,+999,9","+200,9","SYN100AAXX  20001 02795 47983 00403 10159 20087 30085 40093 52017 70000 92339 222// 00200 555 762// 0/304;",
"02795099999","2010-08-20T03:00:00","4","60.1","24.9833333","6.4","HELSINKI HARMAJA, FI","FM-12","99999","V020","060,1,N,0030,1","22000,1,9,N","045000,1,N,1","+0155,1","+0111,1","10109,1","00,1","0,1,03,1","00,1,+99999,9,99,9","00,99,1,00,1,00,1,99999,9,00,1,00,1","99999,9,10101,1","2,1,015,1,+999,9","+199,9","SYN100AAXX  20031 02795 47983 00603 10155 20111 30101 40109 52015 70000 90239 222// 00199 555 775// 0/304;",
"02795099999","2010-08-20T09:00:00","4","60.1","24.9833333","6.4","HELSINKI HARMAJA, FI","FM-12","99999","V020","170,1,N,0070,1","22000,1,9,N","045000,1,N,1","+0178,1","+0122,1","10139,1","00,1","8,1,03,1","00,1,+99999,9,99,9","00,99,1,00,1,00,1,99999,9,00,1,00,1","99999,9,10132,1","2,1,015,1,+999,9","+203,9","SYN100AAXX  20091 02795 47983 01707 10178 20122 30132 40139 52015 70082 90839 222// 00203 555 770// 0/008;",
"02795099999","2010-08-20T12:00:00","4","60.1","24.9833333","6.4","HELSINKI HARMAJA, FI","FM-12","99999","V020","180,1,N,0050,1","22000,1,9,N","045000,1,N,1","+0179,1","+0108,1","10151,1","00,1","8,1,06,1","00,1,+99999,9,99,9","00,99,1,00,1,00,1,99999,9,00,1,00,1","99999,9,10144,1","2,1,012,1,+999,9","+203,9","SYN100AAXX  20121 02795 47983 01805 10179 20108 30144 40151 52012 70082 91139 222// 00203 555 763// 0/608;",
"02795099999","2010-08-20T15:00:00","4","60.1","24.9833333","6.4","HELSINKI HARMAJA, FI","FM-12","99999","V020","190,1,N,0060,1","22000,1,9,N","040000,1,N,1","+0187,1","+0123,1","10146,1","00,1","0,1,03,1","00,1,+99999,9,99,9","00,99,1,00,1,00,1,99999,9,00,1,00,1","99999,9,10139,1","7,1,005,1,+999,9","+204,9","SYN100AAXX  20151 02795 47982 01906 10187 20123 30139 40146 57005 70000 91439 222// 00204 555 766// 0/006;",
"02795099999","2010-08-20T21:00:00","4","60.1","24.9833333","6.4","HELSINKI HARMAJA, FI","FM-12","99999","V020","260,1,N,0070,1","22000,1,9,N","050000,1,N,1","+0177,1","+0126,1","10153,1","00,1","0,1,03,1","00,1,+99999,9,99,9","00,99,1,00,1,00,1,99999,9,00,1,00,1","99999,9,10145,1","2,1,007,1,+999,9","+201,9","SYN100AAXX  20211 02795 47999 02607 10177 20126 30145 40153 52007 70000 92039 222// 00201 555 772// 0/008;",
"02795099999","2010-08-21T00:00:00","4","60.1","24.9833333","6.4","HELSINKI HARMAJA, FI","FM-12","99999","V020","280,1,N,0040,1","22000,1,9,N","050000,1,N,1","+0158,1","+0114,1","10156,1","00,1","0,1,06,1","00,1,+99999,9,99,9","00,99,1,00,1,00,1,99999,9,00,1,00,1","99999,9,10149,1","2,1,004,1,+999,9","+200,9","SYN100AAXX  21001 02795 47999 02804 10158 20114 30149 40156 52004 70000 92339 222// 00200 555 775// 0/607;",
"02795099999","2010-08-21T03:00:00","4","60.1","24.9833333","6.4","HELSINKI HARMAJA, FI","FM-12","99999","V020","250,1,N,0030,1","22000,1,9,N","050000,1,N,1","+0163,1","+0122,1","10153,1","00,1","0,1,03,1","00,1,+99999,9,99,9","00,99,1,00,1,00,1,99999,9,00,1,00,1","99999,9,10145,1","7,1,003,1,+999,9","+199,9","SYN100AAXX  21031 02795 47999 02503 10163 20122 30145 40153 57003 70000 90239 222// 00199 555 777// 0/505;",
"02795099999","2010-08-21T09:00:00","4","60.1","24.9833333","6.4","HELSINKI HARMAJA, FI","FM-12","99999","V020","230,1,N,0070,1","22000,1,9,N","040000,1,N,1","+0200,1","+0142,1","10147,1","00,1","0,1,03,1","00,1,+99999,9,99,9","00,99,1,00,1,00,1,99999,9,00,1,00,1","99999,9,10139,1","7,1,002,1,+999,9","+201,9","SYN100AAXX  21091 02795 47982 02307 10200 20142 30139 40147 57002 70000 90839 222// 00201 555 769// 0/008;",
"02795099999","2010-08-21T12:00:00","4","60.1","24.9833333","6.4","HELSINKI HARMAJA, FI","FM-12","99999","V020","230,1,N,0090,1","22000,1,9,N","040000,1,N,1","+0196,1","+0153,1","10139,1","00,1","0,1,06,1",,"01,99,1,01,1,99,9,00800,1,99,9,99,9","99999,9,10132,1","7,1,008,1,+999,9","+202,9","SYN106AAXX  21121 02795 47582 12309 10196 20153 30132 40139 57008 70000 81/// 91139 222// 00202 555 776// 0/309;",
"02795099999","2010-08-21T15:00:00","4","60.1","24.9833333","6.4","HELSINKI HARMAJA, FI","FM-12","99999","V020","230,1,N,0090,1","22000,1,9,N","014000,1,N,1","+0185,1","+0163,1","10127,1","00,1","0,1,03,1",,"03,99,1,03,1,99,9,00250,1,99,9,99,9","99999,9,10119,1","7,1,012,1,+999,9","+202,9","SYN106AAXX  21151 02795 47364 32309 10185 20163 30119 40127 57012 70000 83/// 91439 222// 00202 555 787// 0/010;",
"02795099999","2010-08-21T21:00:00","4","60.1","24.9833333","6.4","HELSINKI HARMAJA, FI","FM-12","99999","V020","220,1,N,0090,1","99999,9,9,N","007000,1,N,1","+0188,1","+0180,1","10083,1","81,1","8,1,03,1",,"07,99,1,07,1,99,9,00150,1,99,9,99,9","99999,9,10075,1","7,1,023,1,+999,9","+200,9","SYN106AAXX  21211 02795 47257 72209 10188 20180 30075 40083 57023 78186 87/// 92039 222// 00200 555 795// 0/409;",
"02795099999","2010-08-22T00:00:00","4","60.1","24.9833333","6.4","HELSINKI HARMAJA, FI","FM-12","99999","V020","240,1,N,0100,1","99999,9,9,N","009000,1,N,1","+0195,1","+0187,1","10057,1","23,1","8,1,06,1",,"05,99,1,05,1,99,9,00150,1,99,9,99,9","99999,9,10050,1","7,1,025,1,+999,9","+200,9","SYN106AAXX  22001 02795 47259 52410 10195 20187 30050 40057 57025 72386 85/// 92339 222// 00200 555 795// 0/212;",
"02795099999","2010-08-22T03:00:00","4","60.1","24.9833333","6.4","HELSINKI HARMAJA, FI","FM-12","99999","V020","250,1,N,0090,1","22000,1,9,N","045000,1,N,1","+0191,1","+0172,1","10046,1","00,1","3,1,03,1",,"01,99,1,01,1,99,9,00450,1,99,9,99,9","99999,9,10038,1","7,1,011,1,+999,9","+200,9","SYN106AAXX  22031 02795 47483 12509 10191 20172 30038 40046 57011 70021 81/// 90239 222// 00200 555 788// 0/610;",
"02795099999","2010-08-22T09:00:00","4","60.1","24.9833333","6.4","HELSINKI HARMAJA, FI","FM-12","99999","V020","240,1,N,0100,1","22000,1,9,N","029000,1,N,1","+0195,1","+0157,1","10043,1","00,1","0,1,03,1","00,1,+99999,9,99,9","00,99,1,00,1,00,1,99999,9,00,1,00,1","99999,9,10035,1","7,1,002,1,+999,9","+200,9","SYN100AAXX  22091 02795 47979 02410 10195 20157 30035 40043 57002 70000 90839 222// 00200 555 778// 0/010;",
"02795099999","2010-08-22T12:00:00","4","60.1","24.9833333","6.4","HELSINKI HARMAJA, FI","FM-12","99999","V020","240,1,N,0120,1","22000,1,9,N","040000,1,N,1","+0190,1","+0147,1","10037,1","00,1","0,1,06,1","00,1,+99999,9,99,9","00,99,1,00,1,00,1,99999,9,00,1,00,1","99999,9,10029,1","7,1,006,1,+999,9","+201,9","SYN100AAXX  22121 02795 47982 02412 10190 20147 30029 40037 57006 70000 91139 222// 00201 555 776// 0/413;",
"02795099999","2010-08-22T15:00:00","4","60.1","24.9833333","6.4","HELSINKI HARMAJA, FI","FM-12","99999","V020","240,1,N,0110,1","22000,1,9,N","035000,1,N,1","+0189,1","+0139,1","10025,1","00,1","0,1,03,1","00,1,+99999,9,99,9","00,99,1,00,1,00,1,99999,9,00,1,00,1","99999,9,10018,1","7,1,011,1,+999,9","+200,9","SYN100AAXX  22151 02795 47981 02411 10189 20139 30018 40025 57011 70000 91439 222// 00200 555 773// 0/313;",
"02795099999","2010-08-22T21:00:00","4","60.1","24.9833333","6.4","HELSINKI HARMAJA, FI","FM-12","99999","V020","250,1,N,0070,1","22000,1,9,N","050000,1,N,1","+0178,1","+0147,1","10003,1","00,1","0,1,03,1","00,1,+99999,9,99,9","00,99,1,00,1,00,1,99999,9,00,1,00,1","99999,9,09996,1","7,1,009,1,+999,9","+197,9","SYN100AAXX  22211 02795 47999 02507 10178 20147 39996 40003 57009 70000 92039 222// 00197 555 782// 0/609;",
"02795099999","2010-08-23T00:00:00","4","60.1","24.9833333","6.4","HELSINKI HARMAJA, FI","FM-12","99999","V020","250,1,N,0080,1","22000,1,9,N","050000,1,N,1","+0181,1","+0139,1","09992,1","00,1","0,1,06,1","00,1,+99999,9,99,9","00,99,1,00,1,00,1,99999,9,00,1,00,1","99999,9,09985,1","7,1,011,1,+999,9","+196,9","SYN100AAXX  23001 02795 47999 02508 10181 20139 39985 49992 57011 70000 92339 222// 00196 555 776// 0/009;",
"02795099999","2010-08-23T03:00:00","4","60.1","24.9833333","6.4","HELSINKI HARMAJA, FI","FM-12","99999","V020","260,1,N,0090,1","22000,1,9,N","050000,1,N,1","+0172,1","+0134,1","09982,1","00,1","0,1,03,1","00,1,+99999,9,99,9","00,99,1,00,1,00,1,99999,9,00,1,00,1","99999,9,09975,1","7,1,010,1,+999,9","+195,9","SYN100AAXX  23031 02795 47999 02609 10172 20134 39975 49982 57010 70000 90239 222// 00195 555 778// 0/209;",
"02795099999","2010-08-23T09:00:00","4","60.1","24.9833333","6.4","HELSINKI HARMAJA, FI","FM-12","99999","V020","260,1,N,0090,1","22000,1,9,N","040000,1,N,1","+0189,1","+0109,1","09987,1","00,1","6,1,03,1",,"01,99,1,01,1,99,9,00800,1,99,9,99,9","99999,9,09980,1","2,1,007,1,+999,9","+193,9","SYN106AAXX  23091 02795 47582 12609 10189 20109 39980 49987 52007 70062 81/// 90839 222// 00193 555 759// 0/611;",
"02795099999","2010-08-23T12:00:00","4","60.1","24.9833333","6.4","HELSINKI HARMAJA, FI","FM-12","99999","V020","260,1,N,0080,1","22000,1,9,N","045000,1,N,1","+0196,1","+0117,1","09998,1","00,1",,"00,1,+99999,9,99,9","00,99,1,00,1,00,1,99999,9,00,1,00,1","99999,9,09991,1","2,1,011,1,+999,9","+194,9","SYN100AAXX  23121 02795 47983 02608 10196 20117 39991 49998 52011 700// 91139 222// 00194 555 760// 0/311;",
"02795099999","2010-08-23T15:00:00","4","60.1","24.9833333","6.4","HELSINKI HARMAJA, FI","FM-12","99999","V020","290,1,N,0080,1","22000,1,9,N","045000,1,N,1","+0197,1","+0111,1","10005,1","00,1","8,1,03,1",,"01,99,1,01,1,99,9,00450,1,99,9,99,9","99999,9,09997,1","2,1,007,1,+999,9","+194,9","SYN106AAXX  23151 02795 47483 12908 10197 20111 39997 40005 52007 70086 81/// 91439 222// 00194 555 758// 0/110;",
"02795099999","2010-08-23T21:00:00","4","60.1","24.9833333","6.4","HELSINKI HARMAJA, FI","FM-12","99999","V020","270,1,N,0060,1","22000,1,9,N","050000,1,N,1","+0171,1","+0110,1","10014,1","00,1","0,1,03,1","00,1,+99999,9,99,9","00,99,1,00,1,00,1,99999,9,00,1,00,1","99999,9,10007,1","2,1,003,1,+999,9","+192,9","SYN100AAXX  23211 02795 47999 02706 10171 20110 30007 40014 52003 70000 92039 222// 00192 555 767// 0/508;",
"02795099999","2010-08-24T00:00:00","4","60.1","24.9833333","6.4","HELSINKI HARMAJA, FI","FM-12","99999","V020","290,1,N,0020,1","22000,1,9,N","050000,1,N,1","+0156,1","+0107,1","10016,1","00,1","0,1,06,1","00,1,+99999,9,99,9","00,99,1,00,1,00,1,99999,9,00,1,00,1","99999,9,10009,1","2,1,002,1,+999,9","+190,9","SYN100AAXX  24001 02795 47999 02902 10156 20107 30009 40016 52002 70000 92339 222// 00190 555 773// 0/606;",
"02795099999","2010-08-24T03:00:00","4","60.1","24.9833333","6.4","HELSINKI HARMAJA, FI","FM-12","99999","V020","040,1,N,0030,1","22000,1,9,N","050000,1,N,1","+0148,1","+0101,1","10002,1","00,1","0,1,03,1","00,1,+99999,9,99,9","00,99,1,00,1,00,1,99999,9,00,1,00,1","99999,9,09994,1","7,1,015,1,+999,9","+190,9","SYN100AAXX  24031 02795 47999 00403 10148 20101 39994 40002 57015 70000 90239 222// 00190 555 773// 0/003;",
"02795099999","2010-08-24T09:00:00","4","60.1","24.9833333","6.4","HELSINKI HARMAJA, FI","FM-12","99999","V020","130,1,N,0070,1","99999,9,9,N","021000,1,N,1","+0163,1","+0126,1","09975,1","61,1","6,1,03,1",,"05,99,1,05,1,99,9,00150,1,99,9,99,9","99999,9,09968,1","7,1,013,1,+999,9","+188,9","SYN106AAXX  24091 02795 47271 51307 10163 20126 39968 49975 57013 76165 85/// 90839 222// 00188 555 779// 0/108;",
"02795099999","2010-08-24T12:00:00","4","60.1","24.9833333","6.4","HELSINKI HARMAJA, FI","FM-12","99999","V020","120,1,N,0080,1","22000,1,9,N","040000,1,N,1","+0165,1","+0124,1","09967,1","00,1","6,1,06,1",,"01,99,1,01,1,99,9,00450,1,99,9,99,9","99999,9,09960,1","7,1,008,1,+999,9","+188,9","SYN106AAXX  24121 02795 47482 11208 10165 20124 39960 49967 57008 70065 81/// 91139 222// 00188 555 776// 0/410;",
"02795099999","2010-08-24T15:00:00","4","60.1","24.9833333","6.4","HELSINKI HARMAJA, FI","FM-12","99999","V020","120,1,N,0080,1","99999,9,9,N","035000,1,N,1","+0166,1","+0132,1","09957,1","22,1","8,1,03,1",,"07,99,1,07,1,99,9,00450,1,99,9,99,9","99999,9,09950,1","7,1,010,1,+999,9","+186,9","SYN106AAXX  24151 02795 47481 71208 10166 20132 39950 49957 57010 72286 87/// 91439 222// 00186 555 780// 0/210;",
"02795099999","2010-08-24T21:00:00","4","60.1","24.9833333","6.4","HELSINKI HARMAJA, FI","FM-12","99999","V020","250,1,N,0080,1","22000,1,9,N","035000,1,N,1","+0174,1","+0142,1","09957,1","23,1","8,1,03,1","00,1,+99999,9,99,9","00,99,1,00,1,00,1,99999,9,00,1,00,1","99999,9,09949,1","2,1,006,1,+999,9","+185,9","SYN100AAXX  24211 02795 47981 02508 10174 20142 39949 49957 52006 72386 92039 222// 00185 555 781// 0/310;",
"02795099999","2010-08-25T00:00:00","4","60.1","24.9833333","6.4","HELSINKI HARMAJA, FI","FM-12","99999","V020","250,1,N,0070,1","22000,1,9,N","040000,1,N,1","+0178,1","+0139,1","09959,1","23,1","8,1,06,1",,"01,99,1,01,1,99,9,00250,1,99,9,99,9","99999,9,09952,1","2,1,003,1,+999,9","+184,9","SYN106AAXX  25001 02795 47382 12507 10178 20139 39952 49959 52003 72386 81/// 92339 222// 00184 555 778// 0/209;",
"02795099999","2010-08-25T03:00:00","4","60.1","24.9833333","6.4","HELSINKI HARMAJA, FI","FM-12","99999","V020","210,1,N,0080,1","99999,9,9,N","007000,1,N,1","+0165,1","+0126,1","09955,1","82,1","8,1,03,1",,"07,99,1,07,1,99,9,00150,1,99,9,99,9","99999,9,09947,1","7,1,005,1,+999,9","+183,9","SYN106AAXX  25031 02795 47257 72108 10165 20126 39947 49955 57005 78286 87/// 90239 222// 00183 555 777// 0/008;",
"02795099999","2010-08-25T09:00:00","4","60.1","24.9833333","6.4","HELSINKI HARMAJA, FI","FM-12","99999","V020","200,1,N,0040,1","99999,9,9,N","035000,1,N,1","+0158,1","+0108,1","09959,1","81,1","8,1,03,1",,"05,99,1,05,1,99,9,00150,1,99,9,99,9","99999,9,09951,1","4,1,000,1,+999,9","+182,9","SYN106AAXX  25091 02795 47281 52004 10158 20108 39951 49959 54001 78182 85/// 90839 222// 00182 555 772// 0/608;",
"02795099999","2010-08-25T12:00:00","4","60.1","24.9833333","6.4","HELSINKI HARMAJA, FI","FM-12","99999","V020","220,1,N,0070,1","22000,1,9,N","030000,1,N,1","+0178,1","+0108,1","09952,1","00,1","8,1,06,1","00,1,+99999,9,99,9","00,99,1,00,1,00,1,99999,9,00,1,00,1","99999,9,09944,1","7,1,007,1,+999,9","+183,9","SYN100AAXX  25121 02795 47980 02207 10178 20108 39944 49952 57007 70086 91139 222// 00183 555 764// 0/409;",
"02795099999","2010-08-25T15:00:00","4","60.1","24.9833333","6.4","HELSINKI HARMAJA, FI","FM-12","99999","V020","230,1,N,0090,1","22000,1,9,N","003100,1,N,1","+0150,1","+0087,1","09944,1","63,1","6,1,03,1",,"01,99,1,01,1,99,9,00450,1,99,9,99,9","99999,9,09937,1","7,1,007,1,+999,9","+184,9","SYN106AAXX  25151 02795 47431 12309 10150 20087 39937 49944 57007 76360 81/// 91439 222// 00184 555 766// 0/010;",
"02795099999","2010-08-25T21:00:00","4","60.1","24.9833333","6.4","HELSINKI HARMAJA, FI","FM-12","99999","V020","120,1,N,0020,1","22000,1,9,N","050000,1,N,1","+0155,1","+0107,1","09923,1","00,1","0,1,03,1",,"01,99,1,01,1,99,9,01750,1,99,9,99,9","99999,9,09915,1","7,1,011,1,+999,9","+182,9","SYN106AAXX  25211 02795 47799 11202 10155 20107 39915 49923 57011 70000 81/// 92039 222// 00182 555 773// 0/605;",
"02795099999","2010-08-26T00:00:00","4","60.1","24.9833333","6.4","HELSINKI HARMAJA, FI","FM-12","99999","V020","020,1,N,0050,1","22000,1,9,N","050000,1,N,1","+0139,1","+0108,1","09922,1","00,1","0,1,06,1",,"01,99,1,01,1,99,9,00800,1,99,9,99,9","99999,9,09914,1","4,1,000,1,+999,9","+181,9","SYN106AAXX  26001 02795 47599 10205 10139 20108 39914 49922 54001 70000 81/// 92339 222// 00181 555 781// 0/105;",
"02795099999","2010-08-26T03:00:00","4","60.1","24.9833333","6.4","HELSINKI HARMAJA, FI","FM-12","99999","V020","360,1,N,0050,1","22000,1,9,N","045000,1,N,1","+0128,1","+0105,1","09927,1","00,1","0,1,03,1","00,1,+99999,9,99,9","00,99,1,00,1,00,1,99999,9,00,1,00,1","99999,9,09920,1","2,1,005,1,+999,9","+178,9","SYN100AAXX  26031 02795 47983 03605 10128 20105 39920 49927 52005 70000 90239 222// 00178 555 786// 0/505;",
"02795099999","2010-08-26T09:00:00","4","60.1","24.9833333","6.4","HELSINKI HARMAJA, FI","FM-12","99999","V020","340,1,N,0050,1","99999,9,9,N","050000,1,N,1","+0145,1","+0110,1","09963,1","00,1","0,1,03,1",,"07,99,1,07,1,99,9,00450,1,99,9,99,9","99999,9,09955,1","2,1,022,1,+999,9","+179,9","SYN106AAXX  26091 02795 47499 73405 10145 20110 39955 49963 52022 70000 87/// 90839 222// 00179 555 779// 0/506;",
"02795099999","2010-08-26T12:00:00","4","60.1","24.9833333","6.4","HELSINKI HARMAJA, FI","FM-12","99999","V020","300,1,N,0050,1","22000,1,9,N","040000,1,N,1","+0160,1","+0125,1","09975,1","81,1","8,1,06,1",,"03,99,1,03,1,99,9,00150,1,99,9,99,9","99999,9,09968,1","2,1,012,1,+999,9","+181,9","SYN106AAXX  26121 02795 47282 33005 10160 20125 39968 49975 52012 78186 83/// 91139 222// 00181 555 780// 0/108;",
"02795099999","2010-08-26T15:00:00","4","60.1","24.9833333","6.4","HELSINKI HARMAJA, FI","FM-12","99999","V020","260,1,N,0020,1","22000,1,9,N","050000,1,N,1","+0157,1","+0116,1","09988,1","81,1","8,1,03,1",,"01,99,1,01,1,99,9,00250,1,99,9,99,9","99999,9,09980,1","2,1,013,1,+999,9","+181,9","SYN106AAXX  26151 02795 47399 12602 10157 20116 39980 49988 52013 78182 81/// 91439 222// 00181 555 777// 0/608;",
"02795099999","2010-08-26T21:00:00","4","60.1","24.9833333","6.4","HELSINKI HARMAJA, FI","FM-12","99999","V020","020,1,N,0040,1","22000,1,9,N","050000,1,N,1","+0131,1","+0093,1","10009,1","00,1","8,1,03,1","00,1,+99999,9,99,9","00,99,1,00,1,00,1,99999,9,00,1,00,1","99999,9,10001,1","2,1,008,1,+999,9","+178,9","SYN100AAXX  26211 02795 47999 00204 10131 20093 30001 40009 52008 70086 92039 222// 00178 555 778// 0/605;",
"02795099999","2010-08-27T00:00:00","4","60.1","24.9833333","6.4","HELSINKI HARMAJA, FI","FM-12","99999","V020","020,1,N,0040,1","22000,1,9,N","050000,1,N,1","+0128,1","+0079,1","10015,1","00,1","8,1,06,1",,"01,99,1,01,1,99,9,01750,1,99,9,99,9","99999,9,10007,1","2,1,006,1,+999,9","+177,9","SYN106AAXX  27001 02795 47799 10204 10128 20079 30007 40015 52006 70086 81/// 92339 222// 00177 555 772// 0/205;",
"02795099999","2010-08-27T03:00:00","4","60.1","24.9833333","6.4","HELSINKI HARMAJA, FI","FM-12","99999","V020","010,1,N,0050,1","22000,1,9,N","050000,1,N,1","+0119,1","+0093,1","10020,1","00,1","0,1,03,1",,"01,99,1,01,1,99,9,01750,1,99,9,99,9","99999,9,10013,1","2,1,006,1,+999,9","+175,9","SYN106AAXX  27031 02795 47799 10105 10119 20093 30013 40020 52006 70000 81/// 90239 222// 00175 555 784// 0/005;",
"02795099999","2010-08-27T09:00:00","4","60.1","24.9833333","6.4","HELSINKI HARMAJA, FI","FM-12","99999","V020","040,1,N,0030,1","99999,9,9,N","045000,1,N,1","+0140,1","+0090,1","10043,1","00,1","0,1,03,1",,"05,99,1,05,1,99,9,00450,1,99,9,99,9","99999,9,10036,1","2,1,015,1,+999,9","+177,9","SYN106AAXX  27091 02795 47483 50403 10140 20090 30036 40043 52015 70000 85/// 90839 222// 00177 555 772// 0/404;",
"02795099999","2010-08-27T12:00:00","4","60.1","24.9833333","6.4","HELSINKI HARMAJA, FI","FM-12","99999","V020","070,1,N,0030,1","99999,9,9,N","050000,1,N,1","+0143,1","+0089,1","10049,1","00,1","0,1,06,1",,"05,99,1,05,1,99,9,00800,1,99,9,99,9","99999,9,10042,1","2,1,006,1,+999,9","+178,9","SYN106AAXX  27121 02795 47599 50703 10143 20089 30042 40049 52006 70000 85/// 91139 222// 00178 555 770// 0/003;",
"02795099999","2010-08-27T15:00:00","4","60.1","24.9833333","6.4","HELSINKI HARMAJA, FI","FM-12","99999","V020","050,1,N,0040,1","22000,1,9,N","050000,1,N,1","+0140,1","+0091,1","10052,1","00,1","0,1,03,1",,"03,99,1,03,1,99,9,00800,1,99,9,99,9","99999,9,10045,1","2,1,003,1,+999,9","+177,9","SYN106AAXX  27151 02795 47599 30504 10140 20091 30045 40052 52003 70000 83/// 91439 222// 00177 555 773// 0/204;",
"02795099999","2010-08-27T21:00:00","4","60.1","24.9833333","6.4","HELSINKI HARMAJA, FI","FM-12","99999","V020","040,1,N,0050,1","22000,1,9,N","050000,1,N,1","+0127,1","+0094,1","10055,1","00,1","0,1,03,1",,"03,99,1,03,1,99,9,00450,1,99,9,99,9","99999,9,10047,1","7,1,004,1,+999,9","+175,9","SYN106AAXX  27211 02795 47499 30405 10127 20094 30047 40055 57004 70000 83/// 92039 222// 00175 555 781// 0/106;",
"02795099999","2010-08-28T00:00:00","4","60.1","24.9833333","6.4","HELSINKI HARMAJA, FI","FM-12","99999","V020","030,1,N,0060,1","22000,1,9,N","050000,1,N,1","+0105,1","+0082,1","10052,1","00,1","0,1,06,1",,"01,99,1,01,1,99,9,00250,1,99,9,99,9","99999,9,10045,1","7,1,003,1,+999,9","+175,9","SYN106AAXX  28001 02795 47399 10306 10105 20082 30045 40052 57003 70000 81/// 92339 222// 00175 555 786// 0/407;",
"02795099999","2010-08-28T03:00:00","4","60.1","24.9833333","6.4","HELSINKI HARMAJA, FI","FM-12","99999","V020","030,1,N,0070,1","99999,9,9,N","050000,1,N,1","+0102,1","+0080,1","10045,1","00,1","0,1,03,1",,"07,99,1,07,1,99,9,00250,1,99,9,99,9","99999,9,10038,1","7,1,007,1,+999,9","+173,9","SYN106AAXX  28031 02795 47399 70307 10102 20080 30038 40045 57007 70000 87/// 90239 222// 00173 555 786// 0/308;",
"02795099999","2010-08-28T09:00:00","4","60.1","24.9833333","6.4","HELSINKI HARMAJA, FI","FM-12","99999","V020","020,1,N,0040,1","99999,9,9,N","050000,1,N,1","+0129,1","+0090,1","10037,1","00,1","0,1,03,1",,"07,99,1,07,1,99,9,00450,1,99,9,99,9","99999,9,10029,1","7,1,003,1,+999,9","+173,9","SYN106AAXX  28091 02795 47499 70204 10129 20090 30029 40037 57003 70000 87/// 90839 222// 00173 555 777// 0/607;",
"02795099999","2010-08-28T12:00:00","4","60.1","24.9833333","6.4","HELSINKI HARMAJA, FI","FM-12","99999","V020","999,9,C,0000,1","22000,1,9,N","040000,1,N,1","+0158,1","+0088,1","10035,1","00,1","0,1,06,1",,"03,99,1,03,1,99,9,00800,1,99,9,99,9","99999,9,10028,1","4,1,000,1,+999,9","+175,9","SYN106AAXX  28121 02795 47582 30000 10158 20088 30028 40035 54002 70000 83/// 91139 222// 00175 555 763// 0/405;",
"02795099999","2010-08-28T15:00:00","4","60.1","24.9833333","6.4","HELSINKI HARMAJA, FI","FM-12","99999","V020","060,1,N,0070,1","22000,1,9,N","050000,1,N,1","+0141,1","+0102,1","10035,1","00,1","0,1,03,1","00,1,+99999,9,99,9","00,99,1,00,1,00,1,99999,9,00,1,00,1","99999,9,10027,1","4,1,000,1,+999,9","+177,9","SYN100AAXX  28151 02795 47999 00607 10141 20102 30027 40035 54000 70000 91439 222// 00177 555 777// 0/208;",
"02795099999","2010-08-28T21:00:00","4","60.1","24.9833333","6.4","HELSINKI HARMAJA, FI","FM-12","99999","V020","040,1,N,0060,1","99999,9,9,N","045000,1,N,1","+0112,1","+0088,1","10040,1","22,1","8,1,03,1",,"07,99,1,07,1,99,9,00450,1,99,9,99,9","99999,9,10032,1","4,1,000,1,+999,9","+172,9","SYN106AAXX  28211 02795 47483 70406 10112 20088 30032 40040 54001 72286 87/// 92039 222// 00172 555 785// 0/508;",
"02795099999","2010-08-29T00:00:00","4","60.1","24.9833333","6.4","HELSINKI HARMAJA, FI","FM-12","99999","V020","040,1,N,0070,1","99999,9,9,N","029000,1,N,1","+0118,1","+0097,1","10038,1","81,1","8,1,06,1",,"05,99,1,05,1,99,9,00150,1,99,9,99,9","99999,9,10030,1","7,1,002,1,+999,9","+170,9","SYN106AAXX  29001 02795 47279 50407 10118 20097 30030 40038 57002 78186 85/// 92339 222// 00170 555 787// 0/007;",
"02795099999","2010-08-29T03:00:00","4","60.1","24.9833333","6.4","HELSINKI HARMAJA, FI","FM-12","99999","V020","040,1,N,0060,1","99999,9,9,N","008000,1,N,1","+0121,1","+0108,1","10036,1","61,1","8,1,03,1",,"07,99,1,07,1,99,9,00075,1,99,9,99,9","99999,9,10028,1","4,1,000,1,+999,9","+169,9","SYN106AAXX  29031 02795 47158 70406 10121 20108 30028 40036 54002 76186 87/// 90239 222// 00169 555 792// 0/608;",
"02795099999","2010-08-29T09:00:00","4","60.1","24.9833333","6.4","HELSINKI HARMAJA, FI","FM-12","99999","V020","110,1,N,0090,1","99999,9,9,N","030000,1,N,1","+0132,1","+0075,1","10064,1","00,1","8,1,03,1",,"07,99,1,07,1,99,9,00800,1,99,9,99,9","99999,9,10056,1","2,1,010,1,+999,9","+170,9","SYN106AAXX  29091 02795 47580 71109 10132 20075 30056 40064 52010 70086 87/// 90839 222// 00170 555 768// 0/009;",
"02795099999","2010-08-29T12:00:00","4","60.1","24.9833333","6.4","HELSINKI HARMAJA, FI","FM-12","99999","V020","080,1,N,0100,1","99999,9,9,N","035000,1,N,1","+0132,1","+0066,1","10078,1","00,1","8,1,06,1",,"07,99,1,07,1,99,9,00800,1,99,9,99,9","99999,9,10070,1","2,1,014,1,+999,9","+169,9","SYN106AAXX  29121 02795 47581 70810 10132 20066 30070 40078 52014 70086 87/// 91139 222// 00169 555 764// 0/412;",
"02795099999","2010-08-29T15:00:00","4","60.1","24.9833333","6.4","HELSINKI HARMAJA, FI","FM-12","99999","V020","080,1,N,0080,1","22000,1,9,N","050000,1,N,1","+0130,1","+0046,1","10086,1","00,1","0,1,03,1",,"03,99,1,03,1,99,9,00800,1,99,9,99,9","99999,9,10078,1","2,1,008,1,+999,9","+169,9","SYN106AAXX  29151 02795 47599 30808 10130 20046 30078 40086 52008 70000 83/// 91439 222// 00169 555 757// 0/610;",
"02795099999","2010-08-29T21:00:00","4","60.1","24.9833333","6.4","HELSINKI HARMAJA, FI","FM-12","99999","V020","030,1,N,0060,1","99999,9,9,N","050000,1,N,1","+0125,1","+0055,1","10101,1","00,1","0,1,03,1",,"05,99,1,05,1,99,9,01750,1,99,9,99,9","99999,9,10094,1","2,1,008,1,+999,9","+165,9","SYN106AAXX  29211 02795 47799 50306 10125 20055 30094 40101 52008 70000 85/// 92039 222// 00165 555 763// 0/508;",
"02795099999","2010-08-30T00:00:00","4","60.1","24.9833333","6.4","HELSINKI HARMAJA, FI","FM-12","99999","V020","050,1,N,0060,1","22000,1,9,N","050000,1,N,1","+0121,1","+0058,1","10105,1","00,1","0,1,06,1",,"03,99,1,03,1,99,9,01750,1,99,9,99,9","99999,9,10098,1","2,1,004,1,+999,9","+164,9","SYN106AAXX  30001 02795 47799 30506 10121 20058 30098 40105 52004 70000 83/// 92339 222// 00164 555 765// 0/506;",
"02795099999","2010-08-30T03:00:00","4","60.1","24.9833333","6.4","HELSINKI HARMAJA, FI","FM-12","99999","V020","050,1,N,0060,1","22000,1,9,N","050000,1,N,1","+0116,1","+0053,1","10113,1","00,1","0,1,03,1",,"01,99,1,01,1,99,9,01750,1,99,9,99,9","99999,9,10106,1","2,1,008,1,+999,9","+164,9","SYN106AAXX  30031 02795 47799 10506 10116 20053 30106 40113 52008 70000 81/// 90239 222// 00164 555 765// 0/208;",
"02795099999","2010-08-30T09:00:00","4","60.1","24.9833333","6.4","HELSINKI HARMAJA, FI","FM-12","99999","V020","070,1,N,0060,1","22000,1,9,N","035000,1,N,1","+0132,1","+0035,1","10141,1","00,1","0,1,03,1","00,1,+99999,9,99,9","00,99,1,00,1,00,1,99999,9,00,1,00,1","99999,9,10133,1","2,1,017,1,+999,9","+165,9","SYN100AAXX  30091 02795 47981 00706 10132 20035 30133 40141 52017 70000 90839 222// 00165 555 752// 0/307;",
"02795099999","2010-08-30T12:00:00","4","60.1","24.9833333","6.4","HELSINKI HARMAJA, FI","FM-12","99999","V020","090,1,N,0020,1","22000,1,9,N","040000,1,N,1","+0143,1","+0029,1","10152,1","00,1","0,1,06,1","00,1,+99999,9,99,9","00,99,1,00,1,00,1,99999,9,00,1,00,1","99999,9,10144,1","2,1,011,1,+999,9","+167,9","SYN100AAXX  30121 02795 47982 00902 10143 20029 30144 40152 52011 70000 91139 222// 00167 555 746// 0/606;",
"02795099999","2010-08-30T15:00:00","4","60.1","24.9833333","6.4","HELSINKI HARMAJA, FI","FM-12","99999","V020","130,1,N,0010,1","22000,1,9,N","050000,1,N,1","+0138,1","+0026,1","10157,1","00,1","0,1,03,1",,"01,99,1,01,1,99,9,01250,1,99,9,99,9","99999,9,10149,1","2,1,005,1,+999,9","+168,9","SYN106AAXX  30151 02795 47699 11301 10138 20026 30149 40157 52005 70000 81/// 91439 222// 00168 555 747// 0/603;",
"02795099999","2010-08-30T21:00:00","4","60.1","24.9833333","6.4","HELSINKI HARMAJA, FI","FM-12","99999","V020","140,1,N,0030,1","99999,9,9,N","050000,1,N,1","+0134,1","+0051,1","10168,1","00,1","0,1,03,1",,"07,99,1,07,1,99,9,00800,1,99,9,99,9","99999,9,10161,1","2,1,005,1,+999,9","+169,9","SYN106AAXX  30211 02795 47599 71403 10134 20051 30161 40168 52005 70000 87/// 92039 222// 00169 555 757// 0/003;",
"02795099999","2010-08-31T00:00:00","4","60.1","24.9833333","6.4","HELSINKI HARMAJA, FI","FM-12","99999","V020","310,1,N,0010,1","99999,9,9,N","050000,1,N,1","+0125,1","+0056,1","10178,1","81,1","8,1,06,1",,"05,99,1,05,1,99,9,00150,1,99,9,99,9","99999,9,10170,1","2,1,009,1,+999,9","+169,9","SYN106AAXX  31001 02795 47299 53101 10125 20056 30170 40178 52009 78186 85/// 92339 222// 00169 555 763// 0/404;",
"02795099999","2010-08-31T03:00:00","4","60.1","24.9833333","6.4","HELSINKI HARMAJA, FI","FM-12","99999","V020","070,1,N,0040,1","99999,9,9,N","035000,1,N,1","+0116,1","+0078,1","10178,1","81,1","8,1,03,1",,"07,99,1,07,1,99,9,01250,1,99,9,99,9","99999,9,10170,1","4,1,000,1,+999,9","+167,9","SYN106AAXX  31031 02795 47681 70704 10116 20078 30170 40178 54000 78186 87/// 90239 222// 00167 555 777// 0/205;",
"02795099999","2010-08-31T09:00:00","4","60.1","24.9833333","6.4","HELSINKI HARMAJA, FI","FM-12","99999","V020","130,1,N,0020,1","22000,1,9,N","045000,1,N,1","+0131,1","+0061,1","10188,1","23,1","8,1,03,1",,"01,99,1,01,1,99,9,01750,1,99,9,99,9","99999,9,10180,1","2,1,004,1,+999,9","+167,9","SYN106AAXX  31091 02795 47783 11302 10131 20061 30180 40188 52004 72386 81/// 90839 222// 00167 555 763// 0/604;",
"02795099999","2010-08-31T12:00:00","4","60.1","24.9833333","6.4","HELSINKI HARMAJA, FI","FM-12","99999","V020","120,1,N,0040,1","22000,1,9,N","035000,1,N,1","+0148,1","+0058,1","10185,1","00,1","8,1,06,1","00,1,+99999,9,99,9","00,99,1,00,1,00,1,99999,9,00,1,00,1","99999,9,10178,1","7,1,003,1,+999,9","+169,9","SYN100AAXX  31121 02795 47981 01204 10148 20058 30178 40185 57003 70086 91139 222// 00169 555 755// 0/004;",
"02795099999","2010-08-31T15:00:00","4","60.1","24.9833333","6.4","HELSINKI HARMAJA, FI","FM-12","99999","V020","130,1,N,0030,1","22000,1,9,N","045000,1,N,1","+0150,1","+0054,1","10172,1","00,1","0,1,03,1","00,1,+99999,9,99,9","00,99,1,00,1,00,1,99999,9,00,1,00,1","99999,9,10165,1","7,1,013,1,+999,9","+169,9","SYN100AAXX  31151 02795 47983 01303 10150 20054 30165 40172 57013 70000 91439 222// 00169 555 753// 0/505;",
"02795099999","2010-08-31T21:00:00","4","60.1","24.9833333","6.4","HELSINKI HARMAJA, FI","FM-12","99999","V020","180,1,N,0070,1","22000,1,9,N","050000,1,N,1","+0147,1","+0073,1","10162,1","00,1","0,1,03,1",,"01,99,1,01,1,99,9,01750,1,99,9,99,9","99999,9,10154,1","7,1,007,1,+999,9","+167,9","SYN106AAXX  31211 02795 47799 11807 10147 20073 30154 40162 57007 70000 81/// 92039 222// 00167 555 762// 0/007;",
"02795099999","2010-09-01T00:00:00","4","60.1","24.9833333","6.4","HELSINKI HARMAJA, FI","FM-12","99999","V020","180,1,N,0070,1","22000,1,9,N","050000,1,N,1","+0146,1","+0080,1","10153,1","00,1","0,1,06,1",,"01,99,1,01,1,99,9,01750,1,99,9,99,9","99999,9,10145,1","7,1,009,1,+999,9","+165,9","SYN106AAXX  01001 02795 47799 11807 10146 20080 30145 40153 57009 70000 81/// 92339 222// 00165 555 765// 0/108;",
"02795099999","2010-09-01T03:00:00","4","60.1","24.9833333","6.4","HELSINKI HARMAJA, FI","FM-12","99999","V020","190,1,N,0070,1","22000,1,9,N","050000,1,N,1","+0142,1","+0097,1","10143,1","00,1","0,1,03,1",,"03,99,1,03,1,99,9,01250,1,99,9,99,9","99999,9,10135,1","7,1,010,1,+999,9","+165,9","SYN106AAXX  01031 02795 47699 31907 10142 20097 30135 40143 57010 70000 83/// 90239 222// 00165 555 775// 0/608;",
"02795099999","2010-09-01T09:00:00","4","60.1","24.9833333","6.4","HELSINKI HARMAJA, FI","FM-12","99999","V020","220,1,N,0060,1","22000,1,9,N","045000,1,N,1","+0158,1","+0111,1","10137,1","00,1","8,1,03,1","00,1,+99999,9,99,9","00,99,1,00,1,00,1,99999,9,00,1,00,1","99999,9,10130,1","4,1,000,1,+999,9","+166,9","SYN100AAXX  01091 02795 47983 02206 10158 20111 30130 40137 54000 70086 90839 222// 00166 555 774// 0/608;",
"02795099999","2010-09-01T12:00:00","4","60.1","24.9833333","6.4","HELSINKI HARMAJA, FI","FM-12","99999","V020","220,1,N,0040,1","22000,1,9,N","050000,1,N,1","+0165,1","+0083,1","10133,1","00,1","8,1,06,1","00,1,+99999,9,99,9","00,99,1,00,1,00,1,99999,9,00,1,00,1","99999,9,10125,1","7,1,005,1,+999,9","+169,9","SYN100AAXX  01121 02795 47999 02204 10165 20083 30125 40133 57005 70086 91139 222// 00169 555 758// 0/606;",
"02795099999","2010-09-01T15:00:00","4","60.1","24.9833333","6.4","HELSINKI HARMAJA, FI","FM-12","99999","V020","230,1,N,0040,1","22000,1,9,N","050000,1,N,1","+0162,1","+0093,1","10127,1","00,1","8,1,03,1","00,1,+99999,9,99,9","00,99,1,00,1,00,1,99999,9,00,1,00,1","99999,9,10119,1","7,1,006,1,+999,9","+169,9","SYN100AAXX  01151 02795 47999 02304 10162 20093 30119 40127 57006 70086 91439 222// 00169 555 764// 0/507;",
"02795099999","2010-09-01T21:00:00","4","60.1","24.9833333","6.4","HELSINKI HARMAJA, FI","FM-12","99999","V020","010,1,N,0050,1","22000,1,9,N","050000,1,N,1","+0133,1","+0093,1","10127,1","00,1","0,1,03,1","00,1,+99999,9,99,9","00,99,1,00,1,00,1,99999,9,00,1,00,1","99999,9,10120,1","7,1,003,1,+999,9","+166,9","SYN100AAXX  01211 02795 47999 00105 10133 20093 30120 40127 57003 70000 92039 222// 00166 555 777// 0/205;",
"02795099999","2010-09-02T00:00:00","4","60.1","24.9833333","6.4","HELSINKI HARMAJA, FI","FM-12","99999","V020","010,1,N,0060,1","22000,1,9,N","050000,1,N,1","+0127,1","+0096,1","10122,1","00,1","0,1,06,1",,"01,99,1,01,1,99,9,02250,1,99,9,99,9","99999,9,10114,1","7,1,006,1,+999,9","+165,9","SYN106AAXX  02001 02795 47899 10106 10127 20096 30114 40122 57006 70000 81/// 92339 222// 00165 555 781// 0/006;",
"02795099999","2010-09-02T03:00:00","4","60.1","24.9833333","6.4","HELSINKI HARMAJA, FI","FM-12","99999","V020","010,1,N,0070,1","99999,9,9,N","050000,1,N,1","+0114,1","+0087,1","10113,1","00,1","0,1,03,1",,"05,99,1,05,1,99,9,00250,1,99,9,99,9","99999,9,10106,1","7,1,008,1,+999,9","+164,9","SYN106AAXX  02031 02795 47399 50107 10114 20087 30106 40113 57008 70000 85/// 90239 222// 00164 555 783// 0/207;",
"02795099999","2010-09-02T09:00:00","4","60.1","24.9833333","6.4","HELSINKI HARMAJA, FI","FM-12","99999","V020","020,1,N,0100,1","22000,1,9,N","045000,1,N,1","+0128,1","+0057,1","10109,1","00,1","0,1,03,1","00,1,+99999,9,99,9","00,99,1,00,1,00,1,99999,9,00,1,00,1","99999,9,10101,1","4,1,000,1,+999,9","+164,9","SYN100AAXX  02091 02795 47983 00210 10128 20057 30101 40109 54001 70000 90839 222// 00164 555 762// 0/010;",
"02795099999","2010-09-02T12:00:00","4","60.1","24.9833333","6.4","HELSINKI HARMAJA, FI","FM-12","99999","V020","010,1,N,0110,1","22000,1,9,N","050000,1,N,1","+0135,1","+0037,1","10092,1","00,1","0,1,06,1","00,1,+99999,9,99,9","00,99,1,00,1,00,1,99999,9,00,1,00,1","99999,9,10085,1","7,1,016,1,+999,9","+164,9","SYN100AAXX  02121 02795 47999 00111 10135 20037 30085 40092 57016 70000 91139 222// 00164 555 751// 0/112;",
"02795099999","2010-09-02T15:00:00","4","60.1","24.9833333","6.4","HELSINKI HARMAJA, FI","FM-12","99999","V020","360,1,N,0110,1","22000,1,9,N","050000,1,N,1","+0137,1","+0056,1","10081,1","00,1","0,1,03,1","00,1,+99999,9,99,9","00,99,1,00,1,00,1,99999,9,00,1,00,1","99999,9,10074,1","7,1,011,1,+999,9","+164,9","SYN100AAXX  02151 02795 47999 03611 10137 20056 30074 40081 57011 70000 91439 222// 00164 555 758// 0/312;",
"02795099999","2010-09-02T21:00:00","4","60.1","24.9833333","6.4","HELSINKI HARMAJA, FI","FM-12","99999","V020","360,1,N,0100,1","99999,9,9,N","011000,1,N,1","+0105,1","+0071,1","10060,1","61,1","6,1,03,1",,"07,99,1,07,1,99,9,00150,1,99,9,99,9","99999,9,10052,1","7,1,017,1,+999,9","+159,9","SYN106AAXX  02211 02795 47261 73610 10105 20071 30052 40060 57017 76165 87/// 92039 222// 00159 555 779// 0/313;",
"02795099999","2010-09-03T00:00:00","4","60.1","24.9833333","6.4","HELSINKI HARMAJA, FI","FM-12","99999","V020","350,1,N,0120,1","00240,1,9,N","008000,1,N,1","+0098,1","+0077,1","10042,1","61,1","6,1,06,1","09,1,+99999,9,99,9","09,99,1,09,1,99,9,99999,9,99,9,99,9","99999,9,10034,1","7,1,018,1,+999,9","+158,9","SYN100AAXX  03001 02795 47458 93512 10098 20077 30034 40042 57018 76165 92339 222// 00158 555 787// 0/113;",
"02795099999","2010-09-03T03:00:00","4","60.1","24.9833333","6.4","HELSINKI HARMAJA, FI","FM-12","99999","V020","340,1,N,0130,1","99999,9,9,N","007000,1,N,1","+0096,1","+0073,1","10022,1","61,1","6,1,03,1",,"07,99,1,07,1,99,9,00150,1,99,9,99,9","99999,9,10015,1","7,1,019,1,+999,9","+158,9","SYN106AAXX  03031 02795 47257 73413 10096 20073 30015 40022 57019 76165 87/// 90239 222// 00158 555 785// 0/215;",
"02795099999","2010-09-03T09:00:00","4","60.1","24.9833333","6.4","HELSINKI HARMAJA, FI","FM-12","99999","V020","340,1,N,0120,1","99999,9,9,N","016000,1,N,1","+0093,1","+0064,1","10021,1","51,1",,,"07,99,1,07,1,99,9,00075,1,99,9,99,9","99999,9,10013,1","2,1,005,1,+999,9","+159,9","SYN106AAXX  03091 02795 47166 73412 10093 20064 30013 40021 52005 751// 87/// 90839 222// 00159 555 782// 0/314;",
"02795099999","2010-09-03T12:00:00","4","60.1","24.9833333","6.4","HELSINKI HARMAJA, FI","FM-12","99999","V020","340,1,N,0110,1","99999,9,9,N","026000,1,N,1","+0095,1","+0067,1","10033,1","00,1",,,"05,99,1,05,1,99,9,00075,1,99,9,99,9","99999,9,10025,1","2,1,012,1,+999,9","+158,9","SYN106AAXX  03121 02795 47176 53411 10095 20067 30025 40033 52012 700// 85/// 91139 222// 00158 555 783// 0/413;",
"02795099999","2010-09-03T15:00:00","4","60.1","24.9833333","6.4","HELSINKI HARMAJA, FI","FM-12","99999","V020","340,1,N,0110,1","99999,9,9,N","019000,1,N,1","+0095,1","+0068,1","10051,1","51,1",,,"05,99,1,05,1,99,9,00025,1,99,9,99,9","99999,9,10043,1","2,1,018,1,+999,9","+156,9","SYN106AAXX  03151 02795 47069 53411 10095 20068 30043 40051 52018 751// 85/// 91439 222// 00156 555 783// 0/212;",
"02795099999","2010-09-03T21:00:00","4","60.1","24.9833333","6.4","HELSINKI HARMAJA, FI","FM-12","99999","V020","340,1,N,0100,1","99999,9,9,N","030000,1,N,1","+0090,1","+0065,1","10095,1","51,1","8,1,03,1",,"05,99,1,05,1,99,9,00150,1,99,9,99,9","99999,9,10088,1","2,1,023,1,+999,9","+154,9","SYN106AAXX  03211 02795 47280 53410 10090 20065 30088 40095 52023 75185 85/// 92039 222// 00154 555 784// 0/111;",
"02795099999","2010-09-04T00:00:00","4","60.1","24.9833333","6.4","HELSINKI HARMAJA, FI","FM-12","99999","V020","340,1,N,0090,1","22000,1,9,N","050000,1,N,1","+0089,1","+0052,1","10113,1","00,1","8,1,06,1",,"01,99,1,01,1,99,9,01250,1,99,9,99,9","99999,9,10105,1","2,1,017,1,+999,9","+153,9","SYN106AAXX  04001 02795 47699 13409 10089 20052 30105 40113 52017 70086 81/// 92339 222// 00153 555 777// 0/610;",
"02795099999","2010-09-04T03:00:00","4","60.1","24.9833333","6.4","HELSINKI HARMAJA, FI","FM-12","99999","V020","330,1,N,0090,1","99999,9,9,N","050000,1,N,1","+0091,1","+0059,1","10128,1","00,1","0,1,03,1",,"05,99,1,05,1,99,9,01250,1,99,9,99,9","99999,9,10120,1","2,1,015,1,+999,9","+154,9","SYN106AAXX  04031 02795 47699 53309 10091 20059 30120 40128 52015 70000 85/// 90239 222// 00154 555 781// 0/510;",
"02795099999","2010-09-04T09:00:00","4","60.1","24.9833333","6.4","HELSINKI HARMAJA, FI","FM-12","99999","V020","320,1,N,0060,1","22000,1,9,N","040000,1,N,1","+0102,1","+0051,1","10160,1","00,1","0,1,03,1","00,1,+99999,9,99,9","00,99,1,00,1,00,1,99999,9,00,1,00,1","99999,9,10152,1","2,1,011,1,+999,9","+153,9","SYN100AAXX  04091 02795 47982 03206 10102 20051 30152 40160 52011 70000 90839 222// 00153 555 770// 0/608;",
"02795099999","2010-09-04T15:00:00","4","60.1","24.9833333","6.4","HELSINKI HARMAJA, FI","FM-12","99999","V020","320,1,N,0040,1","22000,1,9,N","045000,1,N,1","+0109,1","+0041,1","10193,1","00,1","0,1,03,1",,"03,99,1,03,1,99,9,01250,1,99,9,99,9","99999,9,10185,1","2,1,013,1,+999,9","+153,9","SYN106AAXX  04151 02795 47683 33204 10109 20041 30185 40193 52013 70000 83/// 91439 222// 00153 555 763// 0/606;",
"02795099999","2010-09-04T21:00:00","4","60.1","24.9833333","6.4","HELSINKI HARMAJA, FI","FM-12","99999","V020","320,1,N,0050,1","22000,1,9,N","050000,1,N,1","+0110,1","+0046,1","10214,1","00,1","0,1,03,1","00,1,+99999,9,99,9","00,99,1,00,1,00,1,99999,9,00,1,00,1","99999,9,10206,1","2,1,012,1,+999,9","+152,9","SYN100AAXX  04211 02795 47999 03205 10110 20046 30206 40214 52012 70000 92039 222// 00152 555 765// 0/005;",
"02795099999","2010-09-05T00:00:00","4","60.1","24.9833333","6.4","HELSINKI HARMAJA, FI","FM-12","99999","V020","310,1,N,0030,1","22000,1,9,N","050000,1,N,1","+0104,1","+0050,1","10221,1","00,1","0,1,06,1",,"01,99,1,01,1,99,9,01750,1,99,9,99,9","99999,9,10213,1","2,1,007,1,+999,9","+151,9","SYN106AAXX  05001 02795 47799 13103 10104 20050 30213 40221 52007 70000 81/// 92339 222// 00151 555 769// 0/605;",
"02795099999","2010-09-05T03:00:00","4","60.1","24.9833333","6.4","HELSINKI HARMAJA, FI","FM-12","99999","V020","290,1,N,0040,1","22000,1,9,N","050000,1,N,1","+0097,1","+0055,1","10222,1","00,1","0,1,03,1","00,1,+99999,9,99,9","00,99,1,00,1,00,1,99999,9,00,1,00,1","99999,9,10214,1","4,1,000,1,+999,9","+152,9","SYN100AAXX  05031 02795 47999 02904 10097 20055 30214 40222 54001 70000 90239 222// 00152 555 775// 0/405;",
"02795099999","2010-09-05T09:00:00","4","60.1","24.9833333","6.4","HELSINKI HARMAJA, FI","FM-12","99999","V020","280,1,N,0030,1","22000,1,9,N","045000,1,N,1","+0123,1","+0051,1","10241,1","00,1","0,1,03,1","00,1,+99999,9,99,9","00,99,1,00,1,00,1,99999,9,00,1,00,1","99999,9,10233,1","2,1,010,1,+999,9","+152,9","SYN100AAXX  05091 02795 47983 02803 10123 20051 30233 40241 52010 70000 90839 222// 00152 555 762// 0/504;",
"02795099999","2010-09-05T12:00:00","4","60.1","24.9833333","6.4","HELSINKI HARMAJA, FI","FM-12","99999","V020","270,1,N,0030,1","22000,1,9,N","050000,1,N,1","+0133,1","+0032,1","10243,1","00,1","0,1,06,1",,"01,99,1,01,1,99,9,01750,1,99,9,99,9","99999,9,10235,1","2,1,002,1,+999,9","+154,9","SYN106AAXX  05121 02795 47799 12703 10133 20032 30235 40243 52002 70000 81/// 91139 222// 00154 555 750// 0/404;",
"02795099999","2010-09-05T15:00:00","4","60.1","24.9833333","6.4","HELSINKI HARMAJA, FI","FM-12","99999","V020","240,1,N,0040,1","22000,1,9,N","050000,1,N,1","+0139,1","+0056,1","10241,1","61,1","6,1,03,1",,"01,99,1,01,1,99,9,00150,1,99,9,99,9","99999,9,10233,1","4,1,000,1,+999,9","+153,9","SYN106AAXX  05151 02795 47299 12404 10139 20056 30233 40241 54002 76165 81/// 91439 222// 00153 555 758// 0/004;",
"02795099999","2010-09-05T21:00:00","4","60.1","24.9833333","6.4","HELSINKI HARMAJA, FI","FM-12","99999","V020","290,1,N,0040,1","22000,1,9,N","050000,1,N,1","+0131,1","+0092,1","10254,1","00,1","3,1,03,1",,"01,99,1,01,1,99,9,99999,9,99,9,99,9","99999,9,10246,1","2,1,006,1,+999,9","+152,9","SYN106AAXX  05211 02795 47999 12904 10131 20092 30246 40254 52006 70020 81/// 92039 222// 00152 555 777// 0/406;",
"02795099999","2010-09-06T00:00:00","4","60.1","24.9833333","6.4","HELSINKI HARMAJA, FI","FM-12","99999","V020","300,1,N,0030,1","22000,1,9,N","050000,1,N,1","+0129,1","+0097,1","10259,1","00,1","3,1,06,1",,"01,99,1,01,1,99,9,02250,1,99,9,99,9","99999,9,10251,1","2,1,005,1,+999,9","+152,9","SYN106AAXX  06001 02795 47899 13003 10129 20097 30251 40259 52005 70020 81/// 92339 222// 00152 555 781// 0/605;",
"02795099999","2010-09-06T03:00:00","4","60.1","24.9833333","6.4","HELSINKI HARMAJA, FI","FM-12","99999","V020","360,1,N,0020,1","22000,1,9,N","050000,1,N,1","+0127,1","+0099,1","10260,1","00,1","0,1,03,1",,"01,99,1,01,1,99,9,02250,1,99,9,99,9","99999,9,10252,1","4,1,000,1,+999,9","+151,9","SYN106AAXX  06031 02795 47899 13602 10127 20099 30252 40260 54001 70000 81/// 90239 222// 00151 555 783// 0/603;",
"02795099999","2010-09-06T09:00:00","4","60.1","24.9833333","6.4","HELSINKI HARMAJA, FI","FM-12","99999","V020","999,9,C,0000,1","22000,1,9,N","045000,1,N,1","+0147,1","+0111,1","10278,1","00,1","0,1,03,1","00,1,+99999,9,99,9","00,99,1,00,1,00,1,99999,9,00,1,00,1","99999,9,10270,1","2,1,011,1,+999,9","+151,9","SYN100AAXX  06091 02795 47983 00000 10147 20111 30270 40278 52011 70000 90839 222// 00151 555 779// 0/502;",
"02795099999","2010-09-06T12:00:00","4","60.1","24.9833333","6.4","HELSINKI HARMAJA, FI","FM-12","99999","V020","170,1,N,0010,1","22000,1,9,N","045000,1,N,1","+0152,1","+0104,1","10276,1","00,1","0,1,06,1",,"01,99,1,01,1,99,9,01750,1,99,9,99,9","99999,9,10268,1","4,1,000,1,+999,9","+153,9","SYN106AAXX  06121 02795 47783 11701 10152 20104 30268 40276 54002 70000 81/// 91139 222// 00153 555 773// 0/401;",
"02795099999","2010-09-06T15:00:00","4","60.1","24.9833333","6.4","HELSINKI HARMAJA, FI","FM-12","99999","V020","210,1,N,0020,1","22000,1,9,N","050000,1,N,1","+0151,1","+0107,1","10272,1","00,1","0,1,03,1",,"01,99,1,01,1,99,9,01750,1,99,9,99,9","99999,9,10264,1","7,1,004,1,+999,9","+153,9","SYN106AAXX  06151 02795 47799 12102 10151 20107 30264 40272 57004 70000 81/// 91439 222// 00153 555 775// 0/202;",
"02795099999","2010-09-06T21:00:00","4","60.1","24.9833333","6.4","HELSINKI HARMAJA, FI","FM-12","99999","V020","350,1,N,0010,1","99999,9,9,N","050000,1,N,1","+0144,1","+0121,1","10275,1","00,1","0,1,03,1",,"05,99,1,05,1,99,9,01750,1,99,9,99,9","99999,9,10268,1","2,1,002,1,+999,9","+153,9","SYN106AAXX  06211 02795 47799 53501 10144 20121 30268 40275 52002 70000 85/// 92039 222// 00153 555 786// 0/603;",
"02795099999","2010-09-07T00:00:00","4","60.1","24.9833333","6.4","HELSINKI HARMAJA, FI","FM-12","99999","V020","060,1,N,0010,1","22000,1,9,N","050000,1,N,1","+0142,1","+0113,1","10279,1","00,1","0,1,06,1",,"01,99,1,01,1,99,9,99999,9,99,9,99,9","99999,9,10271,1","2,1,003,1,+999,9","+152,9","SYN106AAXX  07001 02795 47999 10601 10142 20113 30271 40279 52003 70000 81/// 92339 222// 00152 555 783// 0/001;",
"02795099999","2010-09-07T03:00:00","4","60.1","24.9833333","6.4","HELSINKI HARMAJA, FI","FM-12","99999","V020","070,1,N,0010,1","22000,1,9,N","040000,1,N,1","+0141,1","+0123,1","10279,1","00,1","0,1,03,1","00,1,+99999,9,99,9","00,99,1,00,1,00,1,99999,9,00,1,00,1","99999,9,10271,1","4,1,000,1,+999,9","+152,9","SYN100AAXX  07031 02795 47982 00701 10141 20123 30271 40279 54000 70000 90239 222// 00152 555 789// 0/001;",
"02795099999","2010-09-07T12:00:00","4","60.1","24.9833333","6.4","HELSINKI HARMAJA, FI","FM-12","99999","V020","130,1,N,0030,1","22000,1,9,N","045000,1,N,1","+0157,1","+0116,1","10281,1","00,1","2,1,06,1","00,1,+99999,9,99,9","00,99,1,00,1,00,1,99999,9,00,1,00,1","99999,9,10273,1","7,1,003,1,+999,9","+153,9","SYN100AAXX  07121 02795 47983 01303 10157 20116 30273 40281 57003 70010 91139 222// 00153 555 777// 0/003;",
"02795099999","2010-09-07T15:00:00","4","60.1","24.9833333","6.4","HELSINKI HARMAJA, FI","FM-12","99999","V020","120,1,N,0020,1","22000,1,9,N","050000,1,N,1","+0161,1","+0092,1","10273,1","00,1","0,1,03,1",,"03,99,1,03,1,99,9,01750,1,99,9,99,9","99999,9,10265,1","7,1,008,1,+999,9","+153,9","SYN106AAXX  07151 02795 47799 31202 10161 20092 30265 40273 57008 70000 83/// 91439 222// 00153 555 764// 0/603;",
"02795099999","2010-09-07T21:00:00","4","60.1","24.9833333","6.4","HELSINKI HARMAJA, FI","FM-12","99999","V020","120,1,N,0020,1","99999,9,9,N","050000,1,N,1","+0152,1","+0096,1","10279,1","00,1","0,1,03,1",,"05,99,1,05,1,99,9,01750,1,99,9,99,9","99999,9,10271,1","2,1,006,1,+999,9","+157,9","SYN106AAXX  07211 02795 47799 51202 10152 20096 30271 40279 52006 70000 85/// 92039 222// 00157 555 769// 0/002;",
"02795099999","2010-09-08T00:00:00","4","60.1","24.9833333","6.4","HELSINKI HARMAJA, FI","FM-12","99999","V020","080,1,N,0010,1","99999,9,9,N","050000,1,N,1","+0149,1","+0105,1","10281,1","00,1","0,1,06,1",,"05,99,1,05,1,99,9,01750,1,99,9,99,9","99999,9,10274,1","2,1,003,1,+999,9","+156,9","SYN106AAXX  08001 02795 47799 50801 10149 20105 30274 40281 52003 70000 85/// 92339 222// 00156 555 775// 0/403;",
"02795099999","2010-09-08T03:00:00","4","60.1","24.9833333","6.4","HELSINKI HARMAJA, FI","FM-12","99999","V020","040,1,N,0010,1","99999,9,9,N","050000,1,N,1","+0145,1","+0108,1","10280,1","00,1","0,1,03,1",,"05,99,1,05,1,99,9,01250,1,99,9,99,9","99999,9,10273,1","4,1,000,1,+999,9","+156,9","SYN106AAXX  08031 02795 47699 50401 10145 20108 30273 40280 54001 70000 85/// 90239 222// 00156 555 779// 0/601;",
"02795099999","2010-09-08T09:00:00","4","60.1","24.9833333","6.4","HELSINKI HARMAJA, FI","FM-12","99999","V020","100,1,N,0010,1","22000,1,9,N","050000,1,N,1","+0152,1","+0114,1","10289,1","00,1","0,1,03,1",,"01,99,1,01,1,99,9,01750,1,99,9,99,9","99999,9,10281,1","2,1,006,1,+999,9","+155,9","SYN106AAXX  08091 02795 47799 11001 10152 20114 30281 40289 52006 70000 81/// 90839 222// 00155 555 778// 0/202;",
"02795099999","2010-09-08T12:00:00","4","60.1","24.9833333","6.4","HELSINKI HARMAJA, FI","FM-12","99999","V020","999,9,C,0000,1","22000,1,9,N","040000,1,N,1","+0171,1","+0111,1","10290,1","00,1","0,1,06,1",,"01,99,1,01,1,99,9,01750,1,99,9,99,9","99999,9,10282,1","4,1,000,1,+999,9","+157,9","SYN106AAXX  08121 02795 47782 10000 10171 20111 30282 40290 54001 70000 81/// 91139 222// 00157 555 768// 0/202;",
"02795099999","2010-09-08T15:00:00","4","60.1","24.9833333","6.4","HELSINKI HARMAJA, FI","FM-12","99999","V020","240,1,N,0020,1","22000,1,9,N","050000,1,N,1","+0168,1","+0098,1","10285,1","00,1","0,1,03,1",,"01,99,1,01,1,99,9,01750,1,99,9,99,9","99999,9,10277,1","7,1,005,1,+999,9","+161,9","SYN106AAXX  08151 02795 47799 12402 10168 20098 30277 40285 57005 70000 81/// 91439 222// 00161 555 763// 0/002;",
"02795099999","2010-09-08T21:00:00","4","60.1","24.9833333","6.4","HELSINKI HARMAJA, FI","FM-12","99999","V020","300,1,N,0020,1","99999,9,9,N","050000,1,N,1","+0152,1","+0111,1","10290,1","00,1","0,1,03,1",,"05,99,1,05,1,99,9,01750,1,99,9,99,9","99999,9,10282,1","2,1,002,1,+999,9","+159,9","SYN106AAXX  08211 02795 47799 53002 10152 20111 30282 40290 52002 70000 85/// 92039 222// 00159 555 776// 0/603;",
"02795099999","2010-09-09T00:00:00","4","60.1","24.9833333","6.4","HELSINKI HARMAJA, FI","FM-12","99999","V020","330,1,N,0010,1","99999,9,9,N","050000,1,N,1","+0149,1","+0114,1","10296,1","00,1","0,1,06,1",,"05,99,1,05,1,99,9,01750,1,99,9,99,9","99999,9,10288,1","2,1,006,1,+999,9","+157,9","SYN106AAXX  09001 02795 47799 53301 10149 20114 30288 40296 52006 70000 85/// 92339 222// 00157 555 780// 0/502;",
"02795099999","2010-09-09T03:00:00","4","60.1","24.9833333","6.4","HELSINKI HARMAJA, FI","FM-12","99999","V020","040,1,N,0020,1","22000,1,9,N","050000,1,N,1","+0148,1","+0118,1","10300,1","00,1","0,1,03,1",,"01,99,1,01,1,99,9,01750,1,99,9,99,9","99999,9,10292,1","2,1,004,1,+999,9","+157,9","SYN106AAXX  09031 02795 47799 10402 10148 20118 30292 40300 52004 70000 81/// 90239 222// 00157 555 783// 0/102;",
"02795099999","2010-09-09T09:00:00","4","60.1","24.9833333","6.4","HELSINKI HARMAJA, FI","FM-12","99999","V020","999,9,C,0000,1","22000,1,9,N","040000,1,N,1","+0163,1","+0128,1","10311,1","00,1","0,1,03,1",,"01,99,1,01,1,99,9,02250,1,99,9,99,9","99999,9,10303,1","2,1,007,1,+999,9","+157,9","SYN106AAXX  09091 02795 47882 10000 10163 20128 30303 40311 52007 70000 81/// 90839 222// 00157 555 780// 0/402;",
"02795099999","2010-09-09T12:00:00","4","60.1","24.9833333","6.4","HELSINKI HARMAJA, FI","FM-12","99999","V020","999,9,C,0000,1","99999,9,9,N","040000,1,N,1","+0172,1","+0102,1","10307,1","00,1",,,"08,99,1,08,1,99,9,01750,1,99,9,99,9","99999,9,10299,1","7,1,004,1,+999,9","+157,9","SYN106AAXX  09121 02795 47782 80000 10172 20102 30299 40307 57004 700// 88/// 91139 222// 00157 555 763// 0/501;",
"02795099999","2010-09-09T15:00:00","4","60.1","24.9833333","6.4","HELSINKI HARMAJA, FI","FM-12","99999","V020","110,1,N,0010,1","99999,9,9,N","050000,1,N,1","+0169,1","+0123,1","10298,1","00,1","0,1,03,1",,"07,99,1,07,1,99,9,01750,1,99,9,99,9","99999,9,10291,1","7,1,009,1,+999,9","+160,9","SYN106AAXX  09151 02795 47799 71101 10169 20123 30291 40298 57009 70000 87/// 91439 222// 00160 555 774// 0/002;",
"02795099999","2010-09-09T21:00:00","4","60.1","24.9833333","6.4","HELSINKI HARMAJA, FI","FM-12","99999","V020","130,1,N,0050,1","22000,1,9,N","050000,1,N,1","+0157,1","+0124,1","10292,1","00,1","0,1,03,1","00,1,+99999,9,99,9","00,99,1,00,1,00,1,99999,9,00,1,00,1","99999,9,10285,1","4,1,000,1,+999,9","+159,9","SYN100AAXX  09211 02795 47999 01305 10157 20124 30285 40292 54002 70000 92039 222// 00159 555 781// 0/505;",
"02795099999","2010-09-10T00:00:00","4","60.1","24.9833333","6.4","HELSINKI HARMAJA, FI","FM-12","99999","V020","160,1,N,0050,1","22000,1,9,N","050000,1,N,1","+0151,1","+0117,1","10294,1","00,1","0,1,06,1","00,1,+99999,9,99,9","00,99,1,00,1,00,1,99999,9,00,1,00,1","99999,9,10286,1","4,1,000,1,+999,9","+158,9","SYN100AAXX  10001 02795 47999 01605 10151 20117 30286 40294 54002 70000 92339 222// 00158 555 780// 0/305;",
"02795099999","2010-09-10T03:00:00","4","60.1","24.9833333","6.4","HELSINKI HARMAJA, FI","FM-12","99999","V020","160,1,N,0030,1","22000,1,9,N","045000,1,N,1","+0146,1","+0110,1","10288,1","00,1","0,1,03,1","00,1,+99999,9,99,9","00,99,1,00,1,00,1,99999,9,00,1,00,1","99999,9,10280,1","7,1,007,1,+999,9","+158,9","SYN100AAXX  10031 02795 47983 01603 10146 20110 30280 40288 57007 70000 90239 222// 00158 555 779// 0/506;",
"02795099999","2010-09-10T09:00:00","4","60.1","24.9833333","6.4","HELSINKI HARMAJA, FI","FM-12","99999","V020","110,1,N,0050,1","22000,1,9,N","035000,1,N,1","+0157,1","+0116,1","10282,1","00,1","0,1,03,1",,"01,99,1,01,1,99,9,01250,1,99,9,99,9","99999,9,10274,1","4,1,000,1,+999,9","+159,9","SYN106AAXX  10091 02795 47681 11105 10157 20116 30274 40282 54002 70000 81/// 90839 222// 00159 555 777// 0/005;",
"02795099999","2010-09-10T12:00:00","4","60.1","24.9833333","6.4","HELSINKI HARMAJA, FI","FM-12","99999","V020","120,1,N,0030,1","22000,1,9,N","040000,1,N,1","+0160,1","+0108,1","10271,1","00,1","0,1,06,1",,"01,99,1,00,1,99,9,99999,9,99,9,99,9","99999,9,10263,1","7,1,011,1,+999,9","+160,9","SYN106AAXX  10121 02795 47982 11203 10160 20108 30263 40271 57011 70000 80/// 91139 222// 00160 555 771// 0/405;",
"02795099999","2010-09-10T15:00:00","4","60.1","24.9833333","6.4","HELSINKI HARMAJA, FI","FM-12","99999","V020","110,1,N,0050,1","99999,9,9,N","045000,1,N,1","+0158,1","+0117,1","10255,1","00,1","0,1,03,1",,"07,99,1,07,1,99,9,99999,9,99,9,99,9","99999,9,10248,1","7,1,015,1,+999,9","+159,9","SYN106AAXX  10151 02795 47983 71105 10158 20117 30248 40255 57015 70000 87/// 91439 222// 00159 555 777// 0/005;",
"02795099999","2010-09-10T21:00:00","4","60.1","24.9833333","6.4","HELSINKI HARMAJA, FI","FM-12","99999","V020","140,1,N,0050,1","99999,9,9,N","045000,1,N,1","+0150,1","+0100,1","10239,1","81,1","8,1,03,1",,"08,99,1,05,1,99,9,01250,1,99,9,99,9","99999,9,10232,1","7,1,007,1,+999,9","+158,9","SYN106AAXX  10211 02795 47683 81405 10150 20100 30232 40239 57007 78186 85/// 92039 222// 00158 555 772// 0/309;",
"02795099999","2010-09-11T00:00:00","4","60.1","24.9833333","6.4","HELSINKI HARMAJA, FI","FM-12","99999","V020","160,1,N,0070,1","99999,9,9,N","035000,1,N,1","+0140,1","+0102,1","10227,1","22,1","8,1,06,1",,"08,99,1,08,1,99,9,01750,1,99,9,99,9","99999,9,10219,1","7,1,012,1,+999,9","+158,9","SYN106AAXX  11001 02795 47781 81607 10140 20102 30219 40227 57012 72286 88/// 92339 222// 00158 555 778// 0/108;",
"02795099999","2010-09-11T03:00:00","4","60.1","24.9833333","6.4","HELSINKI HARMAJA, FI","FM-12","99999","V020","150,1,N,0080,1","99999,9,9,N","008000,1,N,1","+0128,1","+0113,1","10216,1","61,1","6,1,03,1",,"07,99,1,07,1,99,9,00250,1,99,9,99,9","99999,9,10208,1","7,1,012,1,+999,9","+157,9","SYN106AAXX  11031 02795 47358 71508 10128 20113 30208 40216 57012 76165 87/// 90239 222// 00157 555 791// 0/008;",
"02795099999","2010-09-11T09:00:00","4","60.1","24.9833333","6.4","HELSINKI HARMAJA, FI","FM-12","99999","V020","200,1,N,0060,1","99999,9,9,N","010000,1,N,1","+0135,1","+0115,1","10211,1","10,1","5,1,03,1",,"07,99,1,07,1,99,9,00075,1,99,9,99,9","99999,9,10203,1","4,1,000,1,+999,9","+156,9","SYN106AAXX  11091 02795 47160 72006 10135 20115 30203 40211 54001 71052 87/// 90839 222// 00156 555 787// 0/506;",
"02795099999","2010-09-11T12:00:00","4","60.1","24.9833333","6.4","HELSINKI HARMAJA, FI","FM-12","99999","V020","190,1,N,0060,1","99999,9,9,N","009000,1,N,1","+0141,1","+0115,1","10208,1","81,1","8,1,06,1",,"07,99,1,07,1,99,9,00150,1,99,9,99,9","99999,9,10200,1","7,1,003,1,+999,9","+156,9","SYN106AAXX  11121 02795 47259 71906 10141 20115 30200 40208 57003 78186 87/// 91139 222// 00156 555 784// 0/606;",
"02795099999","2010-09-11T15:00:00","4","60.1","24.9833333","6.4","HELSINKI HARMAJA, FI","FM-12","99999","V020","200,1,N,0050,1","99999,9,9,N","007000,1,N,1","+0150,1","+0134,1","10206,1","10,1","8,1,03,1",,"08,99,1,08,1,99,9,00150,1,99,9,99,9","99999,9,10198,1","7,1,002,1,+999,9","+156,9","SYN106AAXX  11151 02795 47257 82005 10150 20134 30198 40206 57002 71082 88/// 91439 222// 00156 555 790// 0/506;",
"02795099999","2010-09-11T21:00:00","4","60.1","24.9833333","6.4","HELSINKI HARMAJA, FI","FM-12","99999","V020","200,1,N,0050,1","99999,9,9,N","007000,1,N,1","+0150,1","+0133,1","10204,1","10,1","2,1,03,1",,"07,99,1,07,1,99,9,00150,1,99,9,99,9","99999,9,10197,1","4,1,000,1,+999,9","+156,9","SYN106AAXX  11211 02795 47257 72005 10150 20133 30197 40204 54000 71010 87/// 92039 222// 00156 555 790// 0/607;",
"02795099999","2010-09-12T00:00:00","4","60.1","24.9833333","6.4","HELSINKI HARMAJA, FI","FM-12","99999","V020","210,1,N,0060,1","22000,1,9,N","009000,1,N,1","+0149,1","+0122,1","10207,1","10,1","8,1,06,1",,"03,99,1,03,1,99,9,00150,1,99,9,99,9","99999,9,10199,1","2,1,002,1,+999,9","+156,9","SYN106AAXX  12001 02795 47259 32106 10149 20122 30199 40207 52002 71086 83/// 92339 222// 00156 555 784// 0/507;",
"02795099999","2010-09-12T03:00:00","4","60.1","24.9833333","6.4","HELSINKI HARMAJA, FI","FM-12","99999","V020","200,1,N,0070,1","99999,9,9,N","010000,1,N,1","+0145,1","+0125,1","10204,1","10,1","2,1,03,1",,"07,99,1,07,1,99,9,00150,1,99,9,99,9","99999,9,10196,1","7,1,003,1,+999,9","+155,9","SYN106AAXX  12031 02795 47260 72007 10145 20125 30196 40204 57003 71010 87/// 90239 222// 00155 555 787// 0/108;",
"02795099999","2010-09-12T09:00:00","4","60.1","24.9833333","6.4","HELSINKI HARMAJA, FI","FM-12","99999","V020","200,1,N,0060,1","99999,9,9,N","009000,1,N,1","+0149,1","+0130,1","10207,1","10,1","2,1,03,1",,"07,99,1,07,1,99,9,00150,1,99,9,99,9","99999,9,10199,1","2,1,004,1,+999,9","+155,9","SYN106AAXX  12091 02795 47259 72006 10149 20130 30199 40207 52004 71010 87/// 90839 222// 00155 555 788// 0/408;",
"02795099999","2010-09-12T12:00:00","4","60.1","24.9833333","6.4","HELSINKI HARMAJA, FI","FM-12","99999","V020","190,1,N,0040,1","99999,9,9,N","009000,1,N,1","+0160,1","+0126,1","10206,1","10,1","2,1,06,1",,"07,99,1,05,1,99,9,99999,9,99,9,99,9","99999,9,10198,1","4,1,000,1,+999,9","+157,9","SYN106AAXX  12121 02795 47959 71904 10160 20126 30198 40206 54001 71010 85/// 91139 222// 00157 555 780// 0/206;",
"02795099999","2010-09-12T15:00:00","4","60.1","24.9833333","6.4","HELSINKI HARMAJA, FI","FM-12","99999","V020","210,1,N,0060,1","99999,9,9,N","011000,1,N,1","+0159,1","+0125,1","10200,1","00,1","2,1,03,1",,"07,99,1,07,1,99,9,00800,1,99,9,99,9","99999,9,10193,1","7,1,006,1,+999,9","+157,9","SYN106AAXX  12151 02795 47561 72106 10159 20125 30193 40200 57006 70010 87/// 91439 222// 00157 555 781// 0/006;",
"02795099999","2010-09-12T21:00:00","4","60.1","24.9833333","6.4","HELSINKI HARMAJA, FI","FM-12","99999","V020","190,1,N,0080,1","99999,9,9,N","006000,1,N,1","+0151,1","+0134,1","10197,1","10,1","8,1,03,1",,"07,99,1,07,1,99,9,00150,1,99,9,99,9","99999,9,10189,1","4,1,000,1,+999,9","+156,9","SYN106AAXX  12211 02795 47256 71908 10151 20134 30189 40197 54002 71082 87/// 92039 222// 00156 555 789// 0/509;",
"02795099999","2010-09-13T00:00:00","4","60.1","24.9833333","6.4","HELSINKI HARMAJA, FI","FM-12","99999","V020","200,1,N,0070,1","99999,9,9,N","008000,1,N,1","+0153,1","+0124,1","10195,1","10,1","8,1,06,1",,"07,99,1,07,1,99,9,99999,9,99,9,99,9","99999,9,10187,1","7,1,002,1,+999,9","+156,9","SYN106AAXX  13001 02795 47958 72007 10153 20124 30187 40195 57002 71082 87/// 92339 222// 00156 555 782// 0/608;",
"02795099999","2010-09-13T03:00:00","4","60.1","24.9833333","6.4","HELSINKI HARMAJA, FI","FM-12","99999","V020","210,1,N,0070,1","22000,1,9,N","010000,1,N,1","+0153,1","+0128,1","10190,1","10,1","2,1,03,1","00,1,+99999,9,99,9","00,99,1,00,1,00,1,99999,9,00,1,00,1","99999,9,10182,1","7,1,005,1,+999,9","+155,9","SYN100AAXX  13031 02795 47960 02107 10153 20128 30182 40190 57005 71010 90239 222// 00155 555 785// 0/607;",
"02795099999","2010-09-13T09:00:00","4","60.1","24.9833333","6.4","HELSINKI HARMAJA, FI","FM-12","99999","V020","210,1,N,0070,1","22000,1,9,N","013000,1,N,1","+0160,1","+0120,1","10191,1","00,1","2,1,03,1","00,1,+99999,9,99,9","00,99,1,00,1,00,1,99999,9,00,1,00,1","99999,9,10183,1","2,1,004,1,+999,9","+156,9","SYN100AAXX  13091 02795 47963 02107 10160 20120 30183 40191 52004 70010 90839 222// 00156 555 777// 0/608;",
"02795099999","2010-09-13T12:00:00","4","60.1","24.9833333","6.4","HELSINKI HARMAJA, FI","FM-12","99999","V020","200,1,N,0060,1","99999,9,9,N","020000,1,N,1","+0165,1","+0120,1","10187,1","00,1","2,1,06,1",,"07,99,1,07,1,99,9,99999,9,99,9,99,9","99999,9,10180,1","7,1,004,1,+999,9","+157,9","SYN106AAXX  13121 02795 47970 72006 10165 20120 30180 40187 57004 70010 87/// 91139 222// 00157 555 775// 0/607;",
"02795099999","2010-09-13T15:00:00","4","60.1","24.9833333","6.4","HELSINKI HARMAJA, FI","FM-12","99999","V020","200,1,N,0040,1","22000,1,9,N","023000,1,N,1","+0163,1","+0117,1","10177,1","00,1","0,1,03,1",,"03,99,1,03,1,99,9,99999,9,99,9,99,9","99999,9,10170,1","7,1,010,1,+999,9","+157,9","SYN106AAXX  13151 02795 47973 32004 10163 20117 30170 40177 57010 70000 83/// 91439 222// 00157 555 774// 0/606;",
"02795099999","2010-09-13T21:00:00","4","60.1","24.9833333","6.4","HELSINKI HARMAJA, FI","FM-12","99999","V020","210,1,N,0040,1","22000,1,9,N","017000,1,N,1","+0155,1","+0114,1","10160,1","00,1","0,1,03,1",,"01,99,1,00,1,99,9,99999,9,99,9,99,9","99999,9,10152,1","7,1,009,1,+999,9","+156,9","SYN106AAXX  13211 02795 47967 12104 10155 20114 30152 40160 57009 70000 80/// 92039 222// 00156 555 776// 0/206;",
"02795099999","2010-09-14T00:00:00","4","60.1","24.9833333","6.4","HELSINKI HARMAJA, FI","FM-12","99999","V020","200,1,N,0070,1","99999,9,9,N","017000,1,N,1","+0153,1","+0107,1","10146,1","00,1","0,1,06,1",,"07,99,1,01,1,99,9,01750,1,99,9,99,9","99999,9,10138,1","7,1,014,1,+999,9","+155,9","SYN106AAXX  14001 02795 47767 72007 10153 20107 30138 40146 57014 70000 81/// 92339 222// 00155 555 774// 0/007;",
"02795099999","2010-09-14T03:00:00","4","60.1","24.9833333","6.4","HELSINKI HARMAJA, FI","FM-12","99999","V020","220,1,N,0060,1","99999,9,9,N","012000,1,N,1","+0150,1","+0132,1","10133,1","00,1","0,1,03,1",,"07,99,1,07,1,99,9,00250,1,99,9,99,9","99999,9,10125,1","7,1,013,1,+999,9","+155,9","SYN106AAXX  14031 02795 47362 72206 10150 20132 30125 40133 57013 70000 87/// 90239 222// 00155 555 789// 0/607;",
"02795099999","2010-09-14T09:00:00","4","60.1","24.9833333","6.4","HELSINKI HARMAJA, FI","FM-12","99999","V020","200,1,N,0080,1","99999,9,9,N","012000,1,N,1","+0152,1","+0119,1","10116,1","81,1","8,1,03,1",,"05,99,1,05,1,99,9,00450,1,99,9,99,9","99999,9,10108,1","7,1,007,1,+999,9","+155,9","SYN106AAXX  14091 02795 47462 52008 10152 20119 30108 40116 57007 78186 85/// 90839 222// 00155 555 781// 0/009;",
"02795099999","2010-09-14T12:00:00","4","60.1","24.9833333","6.4","HELSINKI HARMAJA, FI","FM-12","99999","V020","240,1,N,0060,1","99999,9,9,N","012000,1,N,1","+0146,1","+0119,1","10109,1","81,1","8,1,06,1",,"07,99,1,07,1,99,9,00150,1,99,9,99,9","99999,9,10101,1","7,1,007,1,+999,9","+155,9","SYN106AAXX  14121 02795 47262 72406 10146 20119 30101 40109 57007 78186 87/// 91139 222// 00155 555 784// 0/608;",
"02795099999","2010-09-14T15:00:00","4","60.1","24.9833333","6.4","HELSINKI HARMAJA, FI","FM-12","99999","V020","230,1,N,0080,1","99999,9,9,N","030000,1,N,1","+0145,1","+0110,1","10103,1","81,1","8,1,03,1",,"07,99,1,07,1,99,9,00250,1,99,9,99,9","99999,9,10096,1","7,1,005,1,+999,9","+155,9","SYN106AAXX  14151 02795 47380 72308 10145 20110 30096 40103 57005 78186 87/// 91439 222// 00155 555 780// 0/008;",
"02795099999","2010-09-14T21:00:00","4","60.1","24.9833333","6.4","HELSINKI HARMAJA, FI","FM-12","99999","V020","190,1,N,0090,1","22000,1,9,N","045000,1,N,1","+0147,1","+0106,1","10073,1","00,1","0,1,03,1","00,1,+99999,9,99,9","00,99,1,00,1,00,1,99999,9,00,1,00,1","99999,9,10065,1","7,1,013,1,+999,9","+153,9","SYN100AAXX  14211 02795 47983 01909 10147 20106 30065 40073 57013 70000 92039 222// 00153 555 776// 0/310;",
"02795099999","2010-09-15T00:00:00","4","60.1","24.9833333","6.4","HELSINKI HARMAJA, FI","FM-12","99999","V020","180,1,N,0110,1","22000,1,9,N","028000,1,N,1","+0143,1","+0104,1","10053,1","00,1","0,1,06,1",,"01,99,1,01,1,99,9,02250,1,99,9,99,9","99999,9,10046,1","7,1,020,1,+999,9","+153,9","SYN106AAXX  15001 02795 47878 11811 10143 20104 30046 40053 57020 70000 81/// 92339 222// 00153 555 777// 0/011;",
"02795099999","2010-09-15T03:00:00","4","60.1","24.9833333","6.4","HELSINKI HARMAJA, FI","FM-12","99999","V020","170,1,N,0120,1","99999,9,9,N","020000,1,N,1","+0139,1","+0105,1","10030,1","00,1","0,1,03,1",,"08,99,1,08,1,99,9,01250,1,99,9,99,9","99999,9,10022,1","7,1,023,1,+999,9","+153,9","SYN106AAXX  15031 02795 47670 81712 10139 20105 30022 40030 57023 70000 88/// 90239 222// 00153 555 780// 0/012;",
"02795099999","2010-09-15T09:00:00","4","60.1","24.9833333","6.4","HELSINKI HARMAJA, FI","FM-12","99999","V020","170,1,N,0120,1","99999,9,9,N","019000,1,N,1","+0142,1","+0104,1","09994,1","00,1","8,1,03,1",,"07,99,1,07,1,99,9,00450,1,99,9,99,9","99999,9,09987,1","7,1,017,1,+999,9","+152,9","SYN106AAXX  15091 02795 47469 71712 10142 20104 39987 49994 57017 70086 87/// 90839 222// 00152 555 778// 0/513;",
"02795099999","2010-09-15T12:00:00","4","60.1","24.9833333","6.4","HELSINKI HARMAJA, FI","FM-12","99999","V020","150,1,N,0110,1","99999,9,9,N","028000,1,N,1","+0143,1","+0105,1","09978,1","00,1","8,1,06,1",,"08,99,1,08,1,99,9,00450,1,99,9,99,9","99999,9,09970,1","7,1,016,1,+999,9","+152,9","SYN106AAXX  15121 02795 47478 81511 10143 20105 39970 49978 57016 70086 88/// 91139 222// 00152 555 778// 0/612;",
"02795099999","2010-09-15T15:00:00","4","60.1","24.9833333","6.4","HELSINKI HARMAJA, FI","FM-12","99999","V020","150,1,N,0110,1","99999,9,9,N","018000,1,N,1","+0143,1","+0106,1","09948,1","61,1","8,1,03,1",,"08,99,1,08,1,99,9,00800,1,99,9,99,9","99999,9,09941,1","7,1,029,1,+999,9","+152,9","SYN106AAXX  15151 02795 47568 81511 10143 20106 39941 49948 57029 76186 88/// 91439 222// 00152 555 778// 0/211;",
"02795099999","2010-09-15T21:00:00","4","60.1","24.9833333","6.4","HELSINKI HARMAJA, FI","FM-12","99999","V020","230,1,N,0050,1","22000,1,9,N","045000,1,N,1","+0131,1","+0096,1","09977,1","23,1","8,1,03,1",,"01,99,1,01,1,99,9,01250,1,99,9,99,9","99999,9,09970,1","2,1,026,1,+999,9","+150,9","SYN106AAXX  15211 02795 47683 12305 10131 20096 39970 49977 52026 72386 81/// 92039 222// 00150 555 779// 0/509;",
"02795099999","2010-09-16T00:00:00","4","60.1","24.9833333","6.4","HELSINKI HARMAJA, FI","FM-12","99999","V020","210,1,N,0090,1","99999,9,9,N","030000,1,N,1","+0136,1","+0089,1","09991,1","00,1","8,1,06,1",,"05,99,1,05,1,99,9,00800,1,99,9,99,9","99999,9,09983,1","2,1,014,1,+999,9","+149,9","SYN106AAXX  16001 02795 47580 52109 10136 20089 39983 49991 52014 70086 85/// 92339 222// 00149 555 773// 0/009;",
"02795099999","2010-09-16T03:00:00","4","60.1","24.9833333","6.4","HELSINKI HARMAJA, FI","FM-12","99999","V020","190,1,N,0090,1","22000,1,9,N","035000,1,N,1","+0128,1","+0089,1","09998,1","00,1","0,1,03,1","00,1,+99999,9,99,9","00,99,1,00,1,00,1,99999,9,00,1,00,1","99999,9,09990,1","2,1,007,1,+999,9","+149,9","SYN100AAXX  16031 02795 47981 01909 10128 20089 39990 49998 52007 70000 90239 222// 00149 555 777// 0/610;",
"02795099999","2010-09-16T09:00:00","4","60.1","24.9833333","6.4","HELSINKI HARMAJA, FI","FM-12","99999","V020","170,1,N,0090,1","99999,9,9,N","029000,1,N,1","+0130,1","+0087,1","10005,1","00,1","0,1,03,1",,"05,99,1,05,1,99,9,00450,1,99,9,99,9","99999,9,09998,1","2,1,006,1,+999,9","+149,9","SYN106AAXX  16091 02795 47479 51709 10130 20087 39998 40005 52006 70000 85/// 90839 222// 00149 555 775// 0/611;",
"02795099999","2010-09-16T12:00:00","4","60.1","24.9833333","6.4","HELSINKI HARMAJA, FI","FM-12","99999","V020","150,1,N,0100,1","22000,1,9,N","035000,1,N,1","+0147,1","+0082,1","09994,1","00,1","0,1,06,1","00,1,+99999,9,99,9","00,99,1,00,1,00,1,99999,9,00,1,00,1","99999,9,09987,1","7,1,011,1,+999,9","+150,9","SYN100AAXX  16121 02795 47981 01510 10147 20082 39987 49994 57011 70000 91139 222// 00150 555 765// 0/010;",
"02795099999","2010-09-16T15:00:00","4","60.1","24.9833333","6.4","HELSINKI HARMAJA, FI","FM-12","99999","V020","150,1,N,0090,1","99999,9,9,N","035000,1,N,1","+0152,1","+0084,1","09983,1","00,1","0,1,03,1",,"07,99,1,07,1,99,9,02250,1,99,9,99,9","99999,9,09976,1","7,1,011,1,+999,9","+150,9","SYN106AAXX  16151 02795 47881 71509 10152 20084 39976 49983 57011 70000 87/// 91439 222// 00150 555 764// 0/611;",
"02795099999","2010-09-16T21:00:00","4","60.1","24.9833333","6.4","HELSINKI HARMAJA, FI","FM-12","99999","V020","200,1,N,0090,1","99999,9,9,N","050000,1,N,1","+0133,1","+0073,1","09979,1","81,1","8,1,03,1",,"08,99,1,08,1,99,9,01750,1,99,9,99,9","99999,9,09971,1","7,1,005,1,+999,9","+148,9","SYN106AAXX  16211 02795 47799 82009 10133 20073 39971 49979 57005 78186 88/// 92039 222// 00148 555 767// 0/511;",
"02795099999","2010-09-17T00:00:00","4","60.1","24.9833333","6.4","HELSINKI HARMAJA, FI","FM-12","99999","V020","200,1,N,0090,1","99999,9,9,N","035000,1,N,1","+0128,1","+0092,1","09978,1","00,1","8,1,06,1",,"07,99,1,03,1,99,9,00250,1,99,9,99,9","99999,9,09970,1","4,1,000,1,+999,9","+147,9","SYN106AAXX  17001 02795 47381 72009 10128 20092 39970 49978 54001 70086 83/// 92339 222// 00147 555 779// 0/209;",
"02795099999","2010-09-17T03:00:00","4","60.1","24.9833333","6.4","HELSINKI HARMAJA, FI","FM-12","99999","V020","210,1,N,0080,1","99999,9,9,N","028000,1,N,1","+0131,1","+0101,1","09978,1","00,1","8,1,03,1",,"07,99,1,05,1,99,9,00250,1,99,9,99,9","99999,9,09971,1","4,1,000,1,+999,9","+147,9","SYN106AAXX  17031 02795 47378 72108 10131 20101 39971 49978 54001 70086 85/// 90239 222// 00147 555 782// 0/609;",
"02795099999","2010-09-17T09:00:00","4","60.1","24.9833333","6.4","HELSINKI HARMAJA, FI","FM-12","99999","V020","190,1,N,0080,1","99999,9,9,N","030000,1,N,1","+0133,1","+0092,1","09987,1","00,1","0,1,03,1",,"07,99,1,07,1,99,9,00450,1,99,9,99,9","99999,9,09979,1","2,1,004,1,+999,9","+148,9","SYN106AAXX  17091 02795 47480 71908 10133 20092 39979 49987 52004 70000 87/// 90839 222// 00148 555 776// 0/510;",
"02795099999","2010-09-17T12:00:00","4","60.1","24.9833333","6.4","HELSINKI HARMAJA, FI","FM-12","99999","V020","240,1,N,0070,1","99999,9,9,N","030000,1,N,1","+0130,1","+0077,1","09991,1","81,1","8,1,06,1",,"07,99,1,07,1,99,9,00800,1,99,9,99,9","99999,9,09983,1","2,1,004,1,+999,9","+148,9","SYN106AAXX  17121 02795 47580 72407 10130 20077 39983 49991 52004 78186 87/// 91139 222// 00148 555 770// 0/311;",
"02795099999","2010-09-17T15:00:00","4","60.1","24.9833333","6.4","HELSINKI HARMAJA, FI","FM-12","99999","V020","190,1,N,0080,1","22000,1,9,N","030000,1,N,1","+0132,1","+0081,1","09995,1","00,1","8,1,03,1",,"03,99,1,03,1,99,9,99999,9,99,9,99,9","99999,9,09987,1","2,1,004,1,+999,9","+148,9","SYN106AAXX  17151 02795 47980 31908 10132 20081 39987 49995 52004 70086 83/// 91439 222// 00148 555 771// 0/511;",
"02795099999","2010-09-17T21:00:00","4","60.1","24.9833333","6.4","HELSINKI HARMAJA, FI","FM-12","99999","V020","200,1,N,0100,1","22000,1,9,N","040000,1,N,1","+0130,1","+0082,1","09998,1","00,1","0,1,03,1",,"01,99,1,01,1,99,9,00450,1,99,9,99,9","99999,9,09990,1","4,1,000,1,+999,9","+145,9","SYN106AAXX  17211 02795 47482 12010 10130 20082 39990 49998 54001 70000 81/// 92039 222// 00145 555 773// 0/211;",
"02795099999","2010-09-18T00:00:00","4","60.1","24.9833333","6.4","HELSINKI HARMAJA, FI","FM-12","99999","V020","190,1,N,0100,1","22000,1,9,N","030000,1,N,1","+0126,1","+0081,1","09991,1","00,1","0,1,06,1",,"01,99,1,01,1,99,9,00450,1,99,9,99,9","99999,9,09983,1","7,1,007,1,+999,9","+144,9","SYN106AAXX  18001 02795 47480 11910 10126 20081 39983 49991 57007 70000 81/// 92339 222// 00144 555 774// 0/611;",
"02795099999","2010-09-18T03:00:00","4","60.1","24.9833333","6.4","HELSINKI HARMAJA, FI","FM-12","99999","V020","180,1,N,0100,1","99999,9,9,N","028000,1,N,1","+0117,1","+0081,1","09986,1","00,1","0,1,03,1",,"05,99,1,05,1,99,9,00250,1,99,9,99,9","99999,9,09978,1","7,1,005,1,+999,9","+144,9","SYN106AAXX  18031 02795 47378 51810 10117 20081 39978 49986 57005 70000 85/// 90239 222// 00144 555 779// 0/010;",
"02795099999","2010-09-18T09:00:00","4","60.1","24.9833333","6.4","HELSINKI HARMAJA, FI","FM-12","99999","V020","160,1,N,0080,1","99999,9,9,N","013000,1,N,1","+0116,1","+0078,1","09978,1","61,1","6,1,03,1",,"07,99,1,07,1,99,9,00450,1,99,9,99,9","99999,9,09971,1","4,1,000,1,+999,9","+143,9","SYN106AAXX  18091 02795 47463 71608 10116 20078 39971 49978 54001 76165 87/// 90839 222// 00143 555 777// 0/610;",
"02795099999","2010-09-18T12:00:00","4","60.1","24.9833333","6.4","HELSINKI HARMAJA, FI","FM-12","99999","V020","160,1,N,0070,1","99999,9,9,N","045000,1,N,1","+0128,1","+0069,1","09975,1","00,1","8,1,06,1",,"05,99,1,05,1,99,9,00450,1,99,9,99,9","99999,9,09967,1","7,1,003,1,+999,9","+144,9","SYN106AAXX  18121 02795 47483 51607 10128 20069 39967 49975 57003 70086 85/// 91139 222// 00144 555 767// 0/309;",
"02795099999","2010-09-18T15:00:00","4","60.1","24.9833333","6.4","HELSINKI HARMAJA, FI","FM-12","99999","V020","190,1,N,0080,1","99999,9,9,N","050000,1,N,1","+0134,1","+0082,1","09966,1","23,1","8,1,03,1",,"07,99,1,05,1,99,9,00450,1,99,9,99,9","99999,9,09958,1","7,1,009,1,+999,9","+144,9","SYN106AAXX  18151 02795 47499 71908 10134 20082 39958 49966 57009 72386 85/// 91439 222// 00144 555 771// 0/208;",
"02795099999","2010-09-18T21:00:00","4","60.1","24.9833333","6.4","HELSINKI HARMAJA, FI","FM-12","99999","V020","190,1,N,0110,1","22000,1,9,N","028000,1,N,1","+0116,1","+0060,1","09968,1","00,1","8,1,03,1",,"01,99,1,01,1,99,9,00800,1,99,9,99,9","99999,9,09961,1","7,1,003,1,+999,9","+141,9","SYN106AAXX  18211 02795 47578 11911 10116 20060 39961 49968 57003 70082 81/// 92039 222// 00141 555 768// 0/213;",
"02795099999","2010-09-19T00:00:00","4","60.1","24.9833333","6.4","HELSINKI HARMAJA, FI","FM-12","99999","V020","180,1,N,0060,1","99999,9,9,N","050000,1,N,1","+0103,1","+0054,1","09955,1","22,1","8,1,06,1",,"07,99,1,07,1,99,9,00450,1,99,9,99,9","99999,9,09947,1","7,1,013,1,+999,9","+140,9","SYN106AAXX  19001 02795 47499 71806 10103 20054 39947 49955 57013 72286 87/// 92339 222// 00140 555 772// 0/412;",
"02795099999","2010-09-19T03:00:00","4","60.1","24.9833333","6.4","HELSINKI HARMAJA, FI","FM-12","99999","V020","270,1,N,0050,1","22000,1,9,N","050000,1,N,1","+0096,1","+0061,1","09951,1","23,1","8,1,03,1",,"01,99,1,01,1,99,9,00450,1,99,9,99,9","99999,9,09943,1","7,1,005,1,+999,9","+139,9","SYN106AAXX  19031 02795 47499 12705 10096 20061 39943 49951 57005 72386 81/// 90239 222// 00139 555 779// 0/409;",
"02795099999","2010-09-19T09:00:00","4","60.1","24.9833333","6.4","HELSINKI HARMAJA, FI","FM-12","99999","V020","270,1,N,0070,1","99999,9,9,N","050000,1,N,1","+0120,1","+0066,1","09975,1","00,1","0,1,03,1",,"07,99,1,07,1,99,9,01250,1,99,9,99,9","99999,9,09968,1","2,1,018,1,+999,9","+139,9","SYN106AAXX  19091 02795 47699 72707 10120 20066 39968 49975 52018 70000 87/// 90839 222// 00139 555 769// 0/007;",
"02795099999","2010-09-19T12:00:00","4","60.1","24.9833333","6.4","HELSINKI HARMAJA, FI","FM-12","99999","V020","220,1,N,0070,1","99999,9,9,N","040000,1,N,1","+0133,1","+0076,1","09993,1","00,1","0,1,06,1",,"07,99,1,07,1,99,9,00450,1,99,9,99,9","99999,9,09986,1","2,1,018,1,+999,9","+140,9","SYN106AAXX  19121 02795 47482 72207 10133 20076 39986 49993 52018 70000 87/// 91139 222// 00140 555 768// 0/607;",
"02795099999","2010-09-19T15:00:00","4","60.1","24.9833333","6.4","HELSINKI HARMAJA, FI","FM-12","99999","V020","230,1,N,0080,1","22000,1,9,N","050000,1,N,1","+0132,1","+0064,1","10006,1","00,1","8,1,03,1",,"01,99,1,01,1,99,9,01750,1,99,9,99,9","99999,9,09998,1","2,1,013,1,+999,9","+141,9","SYN106AAXX  19151 02795 47799 12308 10132 20064 39998 40006 52013 70086 81/// 91439 222// 00141 555 763// 0/508;",
"02795099999","2010-09-19T21:00:00","4","60.1","24.9833333","6.4","HELSINKI HARMAJA, FI","FM-12","99999","V020","260,1,N,0070,1","99999,9,9,N","050000,1,N,1","+0121,1","+0064,1","10034,1","00,1","0,1,03,1",,"08,99,1,08,1,99,9,01750,1,99,9,99,9","99999,9,10026,1","2,1,014,1,+999,9","+140,9","SYN106AAXX  19211 02795 47799 82607 10121 20064 30026 40034 52014 70000 88/// 92039 222// 00140 555 768// 0/508;",
"02795099999","2010-09-20T00:00:00","4","60.1","24.9833333","6.4","HELSINKI HARMAJA, FI","FM-12","99999","V020","280,1,N,0060,1","22000,1,9,N","050000,1,N,1","+0110,1","+0069,1","10045,1","00,1","0,1,06,1",,"03,99,1,03,1,99,9,01750,1,99,9,99,9","99999,9,10037,1","2,1,011,1,+999,9","+140,9","SYN106AAXX  20001 02795 47799 32806 10110 20069 30037 40045 52011 70000 83/// 92339 222// 00140 555 776// 0/607;",
"02795099999","2010-09-20T03:00:00","4","60.1","24.9833333","6.4","HELSINKI HARMAJA, FI","FM-12","99999","V020","270,1,N,0040,1","22000,1,9,N","050000,1,N,1","+0110,1","+0075,1","10061,1","00,1","0,1,03,1",,"01,99,1,01,1,99,9,01750,1,99,9,99,9","99999,9,10053,1","2,1,016,1,+999,9","+139,9","SYN106AAXX  20031 02795 47799 12704 10110 20075 30053 40061 52016 70000 81/// 90239 222// 00139 555 779// 0/606;",
"02795099999","2010-09-20T09:00:00","4","60.1","24.9833333","6.4","HELSINKI HARMAJA, FI","FM-12","99999","V020","230,1,N,0060,1","99999,9,9,N","040000,1,N,1","+0134,1","+0080,1","10092,1","00,1","0,1,03,1",,"08,99,1,08,1,99,9,01750,1,99,9,99,9","99999,9,10084,1","2,1,016,1,+999,9","+140,9","SYN106AAXX  20091 02795 47782 82306 10134 20080 30084 40092 52016 70000 88/// 90839 222// 00140 555 770// 0/006;",
"02795099999","2010-09-20T12:00:00","4","60.1","24.9833333","6.4","HELSINKI HARMAJA, FI","FM-12","99999","V020","220,1,N,0050,1","99999,9,9,N","040000,1,N,1","+0144,1","+0060,1","10105,1","00,1","0,1,06,1",,"05,99,1,05,1,99,9,01750,1,99,9,99,9","99999,9,10097,1","2,1,013,1,+999,9","+141,9","SYN106AAXX  20121 02795 47782 52205 10144 20060 30097 40105 52013 70000 85/// 91139 222// 00141 555 757// 0/207;",
"02795099999","2010-09-20T15:00:00","4","60.1","24.9833333","6.4","HELSINKI HARMAJA, FI","FM-12","99999","V020","220,1,N,0050,1","22000,1,9,N","050000,1,N,1","+0137,1","+0088,1","10109,1","00,1","0,1,03,1","00,1,+99999,9,99,9","00,99,1,00,1,00,1,99999,9,00,1,00,1","99999,9,10101,1","2,1,004,1,+999,9","+140,9","SYN100AAXX  20151 02795 47999 02205 10137 20088 30101 40109 52004 70000 91439 222// 00140 555 772// 0/307;",
"02795099999","2010-09-20T21:00:00","4","60.1","24.9833333","6.4","HELSINKI HARMAJA, FI","FM-12","99999","V020","190,1,N,0060,1","99999,9,9,N","050000,1,N,1","+0131,1","+0088,1","10124,1","00,1","0,1,03,1",,"07,99,1,07,1,99,9,00800,1,99,9,99,9","99999,9,10117,1","2,1,005,1,+999,9","+139,9","SYN106AAXX  20211 02795 47599 71906 10131 20088 30117 40124 52005 70000 87/// 92039 222// 00139 555 775// 0/107;",
"02795099999","2010-09-21T00:00:00","4","60.1","24.9833333","6.4","HELSINKI HARMAJA, FI","FM-12","99999","V020","170,1,N,0060,1","22000,1,9,N","045000,1,N,1","+0125,1","+0080,1","10121,1","00,1","0,1,06,1","00,1,+99999,9,99,9","00,99,1,00,1,00,1,99999,9,00,1,00,1","99999,9,10113,1","7,1,003,1,+999,9","+138,9","SYN100AAXX  21001 02795 47983 01706 10125 20080 30113 40121 57003 70000 92339 222// 00138 555 774// 0/307;",
"02795099999","2010-09-21T03:00:00","4","60.1","24.9833333","6.4","HELSINKI HARMAJA, FI","FM-12","99999","V020","160,1,N,0090,1","99999,9,9,N","027000,1,N,1","+0119,1","+0085,1","10110,1","00,1","0,1,03,1",,"07,99,1,07,1,99,9,00075,1,99,9,99,9","99999,9,10103,1","7,1,011,1,+999,9","+138,9","SYN106AAXX  21031 02795 47177 71609 10119 20085 30103 40110 57011 70000 87/// 90239 222// 00138 555 780// 0/009;",
"02795099999","2010-09-21T09:00:00","4","60.1","24.9833333","6.4","HELSINKI HARMAJA, FI","FM-12","99999","V020","170,1,N,0110,1","99999,9,9,N","010000,1,N,1","+0126,1","+0090,1","10094,1","61,1","6,1,03,1",,"07,99,1,07,1,99,9,00250,1,99,9,99,9","99999,9,10086,1","4,1,000,1,+999,9","+137,9","SYN106AAXX  21091 02795 47360 71711 10126 20090 30086 40094 54002 76160 87/// 90839 222// 00137 555 778// 0/512;",
"02795099999","2010-09-21T12:00:00","4","60.1","24.9833333","6.4","HELSINKI HARMAJA, FI","FM-12","99999","V020","170,1,N,0120,1","99999,9,9,N","014000,1,N,1","+0129,1","+0083,1","10089,1","61,1","6,1,06,1",,"08,99,1,08,1,99,9,00450,1,99,9,99,9","99999,9,10082,1","7,1,004,1,+999,9","+136,9","SYN106AAXX  21121 02795 47464 81712 10129 20083 30082 40089 57004 76165 88/// 91139 222// 00136 555 774// 0/012;",
"02795099999","2010-09-21T15:00:00","4","60.1","24.9833333","6.4","HELSINKI HARMAJA, FI","FM-12","99999","V020","170,1,N,0120,1","99999,9,9,N","007000,1,N,1","+0126,1","+0074,1","10086,1","61,1","6,1,03,1",,"08,99,1,08,1,99,9,00450,1,99,9,99,9","99999,9,10078,1","7,1,003,1,+999,9","+136,9","SYN106AAXX  21151 02795 47457 81712 10126 20074 30078 40086 57003 76165 88/// 91439 222// 00136 555 771// 0/013;",
"02795099999","2010-09-21T21:00:00","4","60.1","24.9833333","6.4","HELSINKI HARMAJA, FI","FM-12","99999","V020","180,1,N,0090,1","99999,9,9,N","019000,1,N,1","+0127,1","+0073,1","10089,1","22,1","8,1,03,1",,"08,99,1,05,1,99,9,00250,1,99,9,99,9","99999,9,10081,1","2,1,004,1,+999,9","+133,9","SYN106AAXX  21211 02795 47369 81809 10127 20073 30081 40089 52004 72286 85/// 92039 222// 00133 555 770// 0/611;",
"02795099999","2010-09-22T00:00:00","4","60.1","24.9833333","6.4","HELSINKI HARMAJA, FI","FM-12","99999","V020","190,1,N,0060,1","99999,9,9,N","023000,1,N,1","+0127,1","+0105,1","10091,1","00,1","8,1,06,1",,"07,99,1,07,1,99,9,00150,1,99,9,99,9","99999,9,10083,1","2,1,003,1,+999,9","+133,9","SYN106AAXX  22001 02795 47273 71906 10127 20105 30083 40091 52003 70086 87/// 92339 222// 00133 555 787// 0/609;",
"02795099999","2010-09-22T03:00:00","4","60.1","24.9833333","6.4","HELSINKI HARMAJA, FI","FM-12","99999","V020","210,1,N,0030,1","99999,9,9,N","050000,1,N,1","+0126,1","+0068,1","10099,1","00,1","0,1,03,1",,"07,99,1,03,1,99,9,01250,1,99,9,99,9","99999,9,10091,1","2,1,008,1,+999,9","+133,9","SYN106AAXX  22031 02795 47699 72103 10126 20068 30091 40099 52008 70000 83/// 90239 222// 00133 555 768// 0/507;",
"02795099999","2010-09-22T09:00:00","4","60.1","24.9833333","6.4","HELSINKI HARMAJA, FI","FM-12","99999","V020","330,1,N,0040,1","99999,9,9,N","006000,1,N,1","+0119,1","+0060,1","10140,1","62,1","6,1,03,1",,"07,99,1,07,1,99,9,00150,1,99,9,99,9","99999,9,10132,1","2,1,023,1,+999,9","+134,9","SYN106AAXX  22091 02795 47256 73304 10119 20060 30132 40140 52023 76265 87/// 90839 222// 00134 555 768// 0/006;",
"02795099999","2010-09-22T12:00:00","4","60.1","24.9833333","6.4","HELSINKI HARMAJA, FI","FM-12","99999","V020","330,1,N,0070,1","99999,9,9,N","050000,1,N,1","+0125,1","+0080,1","10159,1","00,1","8,1,06,1",,"07,99,1,07,1,99,9,00450,1,99,9,99,9","99999,9,10151,1","2,1,020,1,+999,9","+135,9","SYN106AAXX  22121 02795 47499 73307 10125 20080 30151 40159 52020 70086 87/// 91139 222// 00135 555 774// 0/009;",
"02795099999","2010-09-22T15:00:00","4","60.1","24.9833333","6.4","HELSINKI HARMAJA, FI","FM-12","99999","V020","320,1,N,0040,1","99999,9,9,N","050000,1,N,1","+0126,1","+0074,1","10172,1","00,1","0,1,03,1",,"07,99,1,07,1,99,9,00800,1,99,9,99,9","99999,9,10165,1","2,1,013,1,+999,9","+134,9","SYN106AAXX  22151 02795 47599 73204 10126 20074 30165 40172 52013 70000 87/// 91439 222// 00134 555 770// 0/409;",
"02795099999","2010-09-22T21:00:00","4","60.1","24.9833333","6.4","HELSINKI HARMAJA, FI","FM-12","99999","V020","270,1,N,0040,1","99999,9,9,N","050000,1,N,1","+0118,1","+0064,1","10188,1","00,1","0,1,03,1",,"07,99,1,07,1,99,9,01250,1,99,9,99,9","99999,9,10180,1","2,1,006,1,+999,9","+133,9","SYN106AAXX  22211 02795 47699 72704 10118 20064 30180 40188 52006 70000 87/// 92039 222// 00133 555 769// 0/604;",
"02795099999","2010-09-23T00:00:00","4","60.1","24.9833333","6.4","HELSINKI HARMAJA, FI","FM-12","99999","V020","290,1,N,0020,1","22000,1,9,N","050000,1,N,1","+0102,1","+0059,1","10184,1","00,1","0,1,06,1","00,1,+99999,9,99,9","00,99,1,00,1,00,1,99999,9,00,1,00,1","99999,9,10176,1","7,1,004,1,+999,9","+132,9","SYN100AAXX  23001 02795 47999 02902 10102 20059 30176 40184 57004 70000 92339 222// 00132 555 774// 0/405;",
"02795099999","2010-09-23T03:00:00","4","60.1","24.9833333","6.4","HELSINKI HARMAJA, FI","FM-12","99999","V020","220,1,N,0030,1","22000,1,9,N","050000,1,N,1","+0111,1","+0067,1","10178,1","00,1","0,1,03,1","00,1,+99999,9,99,9","00,99,1,00,1,00,1,99999,9,00,1,00,1","99999,9,10170,1","7,1,006,1,+999,9","+131,9","SYN100AAXX  23031 02795 47999 02203 10111 20067 30170 40178 57006 70000 90239 222// 00131 555 775// 0/604;",
"02795099999","2010-09-23T09:00:00","4","60.1","24.9833333","6.4","HELSINKI HARMAJA, FI","FM-12","99999","V020","210,1,N,0100,1","22000,1,9,N","045000,1,N,1","+0124,1","+0081,1","10159,1","00,1","0,1,03,1",,"01,99,1,00,1,99,9,99999,9,99,9,99,9","99999,9,10151,1","7,1,011,1,+999,9","+132,9","SYN106AAXX  23091 02795 47983 12110 10124 20081 30151 40159 57011 70000 80/// 90839 222// 00132 555 775// 0/010;",
"02795099999","2010-09-23T12:00:00","4","60.1","24.9833333","6.4","HELSINKI HARMAJA, FI","FM-12","99999","V020","220,1,N,0110,1","99999,9,9,N","040000,1,N,1","+0131,1","+0078,1","10146,1","00,1","0,1,06,1",,"05,99,1,03,1,99,9,00800,1,99,9,99,9","99999,9,10138,1","7,1,012,1,+999,9","+134,9","SYN106AAXX  23121 02795 47582 52211 10131 20078 30138 40146 57012 70000 83/// 91139 222// 00134 555 770// 0/212;",
"02795099999","2010-09-23T15:00:00","4","60.1","24.9833333","6.4","HELSINKI HARMAJA, FI","FM-12","99999","V020","230,1,N,0080,1","99999,9,9,N","035000,1,N,1","+0133,1","+0079,1","10136,1","00,1","0,1,03,1",,"07,99,1,00,1,99,9,99999,9,99,9,99,9","99999,9,10128,1","7,1,010,1,+999,9","+133,9","SYN106AAXX  23151 02795 47981 72308 10133 20079 30128 40136 57010 70000 80/// 91439 222// 00133 555 770// 0/612;",
"02795099999","2010-09-23T21:00:00","4","60.1","24.9833333","6.4","HELSINKI HARMAJA, FI","FM-12","99999","V020","220,1,N,0080,1","99999,9,9,N","020000,1,N,1","+0132,1","+0071,1","10122,1","00,1","0,1,03,1",,"07,99,1,07,1,99,9,00450,1,99,9,99,9","99999,9,10115,1","7,1,004,1,+999,9","+132,9","SYN106AAXX  23211 02795 47470 72208 10132 20071 30115 40122 57004 70000 87/// 92039 222// 00132 555 767// 0/310;",
"02795099999","2010-09-24T00:00:00","4","60.1","24.9833333","6.4","HELSINKI HARMAJA, FI","FM-12","99999","V020","220,1,N,0080,1","99999,9,9,N","015000,1,N,1","+0132,1","+0101,1","10114,1","00,1","0,1,06,1",,"08,99,1,08,1,99,9,00450,1,99,9,99,9","99999,9,10106,1","7,1,008,1,+999,9","+132,9","SYN106AAXX  24001 02795 47465 82208 10132 20101 30106 40114 57008 70000 88/// 92339 222// 00132 555 782// 0/309;",
"02795099999","2010-09-24T03:00:00","4","60.1","24.9833333","6.4","HELSINKI HARMAJA, FI","FM-12","99999","V020","210,1,N,0070,1","99999,9,9,N","015000,1,N,1","+0128,1","+0092,1","10103,1","00,1","0,1,03,1",,"08,99,1,08,1,99,9,00450,1,99,9,99,9","99999,9,10095,1","7,1,011,1,+999,9","+131,9","SYN106AAXX  24031 02795 47465 82107 10128 20092 30095 40103 57011 70000 88/// 90239 222// 00131 555 779// 0/208;",
"02795099999","2010-09-24T09:00:00","4","60.1","24.9833333","6.4","HELSINKI HARMAJA, FI","FM-12","99999","V020","180,1,N,0050,1","99999,9,9,N","015000,1,N,1","+0123,1","+0087,1","10091,1","00,1","0,1,03,1",,"07,99,1,07,1,99,9,00150,1,99,9,99,9","99999,9,10083,1","7,1,004,1,+999,9","+132,9","SYN106AAXX  24091 02795 47265 71805 10123 20087 30083 40091 57004 70000 87/// 90839 222// 00132 555 779// 0/508;",
"02795099999","2010-09-24T12:00:00","4","60.1","24.9833333","6.4","HELSINKI HARMAJA, FI","FM-12","99999","V020","220,1,N,0020,1","99999,9,9,N","018000,1,N,1","+0140,1","+0092,1","10078,1","00,1","0,1,06,1",,"07,99,1,07,1,99,9,01250,1,99,9,99,9","99999,9,10070,1","7,1,013,1,+999,9","+132,9","SYN106AAXX  24121 02795 47668 72202 10140 20092 30070 40078 57013 70000 87/// 91139 222// 00132 555 773// 0/506;",
"02795099999","2010-09-24T15:00:00","4","60.1","24.9833333","6.4","HELSINKI HARMAJA, FI","FM-12","99999","V020","130,1,N,0020,1","22000,1,9,N","019000,1,N,1","+0145,1","+0098,1","10065,1","00,1","0,1,03,1",,"03,99,1,03,1,99,9,01250,1,99,9,99,9","99999,9,10057,1","7,1,013,1,+999,9","+133,9","SYN106AAXX  24151 02795 47669 31302 10145 20098 30057 40065 57013 70000 83/// 91439 222// 00133 555 774// 0/003;",
"02795099999","2010-09-24T21:00:00","4","60.1","24.9833333","6.4","HELSINKI HARMAJA, FI","FM-12","99999","V020","180,1,N,0060,1","22000,1,9,N","014000,1,N,1","+0139,1","+0094,1","10052,1","00,1","0,1,03,1",,"03,99,1,03,1,99,9,01750,1,99,9,99,9","99999,9,10045,1","7,1,007,1,+999,9","+132,9","SYN106AAXX  24211 02795 47764 31806 10139 20094 30045 40052 57007 70000 83/// 92039 222// 00132 555 774// 0/607;",
"02795099999","2010-09-25T00:00:00","4","60.1","24.9833333","6.4","HELSINKI HARMAJA, FI","FM-12","99999","V020","180,1,N,0070,1","99999,9,9,N","011000,1,N,1","+0139,1","+0101,1","10052,1","00,1","0,1,06,1",,"05,99,1,05,1,99,9,01250,1,99,9,99,9","99999,9,10045,1","4,1,000,1,+999,9","+131,9","SYN106AAXX  25001 02795 47661 51807 10139 20101 30045 40052 54000 70000 85/// 92339 222// 00131 555 778// 0/507;",
"02795099999","2010-09-25T03:00:00","4","60.1","24.9833333","6.4","HELSINKI HARMAJA, FI","FM-12","99999","V020","180,1,N,0070,1","22000,1,9,N","008000,1,N,1","+0134,1","+0096,1","10054,1","10,1","2,1,03,1","00,1,+99999,9,99,9","00,99,1,00,1,00,1,99999,9,00,1,00,1","99999,9,10047,1","4,1,000,1,+999,9","+131,9","SYN100AAXX  25031 02795 47958 01807 10134 20096 30047 40054 54002 71010 90239 222// 00131 555 778// 0/208;",
"02795099999","2010-09-25T09:00:00","4","60.1","24.9833333","6.4","HELSINKI HARMAJA, FI","FM-12","99999","V020","200,1,N,0030,1","22000,1,9,N","010000,1,N,1","+0140,1","+0105,1","10069,1","10,1","2,1,03,1","00,1,+99999,9,99,9","00,99,1,00,1,00,1,99999,9,00,1,00,1","99999,9,10061,1","2,1,010,1,+999,9","+132,9","SYN100AAXX  25091 02795 47960 02003 10140 20105 30061 40069 52010 71010 90839 222// 00132 555 779// 0/406;",
"02795099999","2010-09-25T12:00:00","4","60.1","24.9833333","6.4","HELSINKI HARMAJA, FI","FM-12","99999","V020","160,1,N,0020,1","22000,1,9,N","011000,1,N,1","+0146,1","+0101,1","10071,1","00,1","2,1,06,1","00,1,+99999,9,99,9","00,99,1,00,1,00,1,99999,9,00,1,00,1","99999,9,10064,1","2,1,002,1,+999,9","+132,9","SYN100AAXX  25121 02795 47961 01602 10146 20101 30064 40071 52002 70010 91139 222// 00132 555 775// 0/405;",
"02795099999","2010-09-25T15:00:00","4","60.1","24.9833333","6.4","HELSINKI HARMAJA, FI","FM-12","99999","V020","110,1,N,0010,1","22000,1,9,N","009000,1,N,1","+0144,1","+0101,1","10075,1","10,1","2,1,03,1","00,1,+99999,9,99,9","00,99,1,00,1,00,1,99999,9,00,1,00,1","99999,9,10067,1","2,1,004,1,+999,9","+132,9","SYN100AAXX  25151 02795 47959 01101 10144 20101 30067 40075 52004 71010 91439 222// 00132 555 775// 0/602;",
"02795099999","2010-09-25T21:00:00","4","60.1","24.9833333","6.4","HELSINKI HARMAJA, FI","FM-12","99999","V020","300,1,N,0020,1","99999,9,9,N","006000,1,N,1","+0129,1","+0089,1","10093,1","10,1","2,1,03,1",,"05,99,1,00,1,99,9,99999,9,99,9,99,9","99999,9,10085,1","2,1,009,1,+999,9","+133,9","SYN106AAXX  25211 02795 47956 53002 10129 20089 30085 40093 52009 71010 80/// 92039 222// 00133 555 777// 0/303;",
"02795099999","2010-09-26T00:00:00","4","60.1","24.9833333","6.4","HELSINKI HARMAJA, FI","FM-12","99999","V020","999,9,C,0000,1","99999,9,9,N","004700,1,N,1","+0128,1","+0090,1","10098,1","10,1","2,1,06,1",,"07,99,1,07,1,99,9,00450,1,99,9,99,9","99999,9,10090,1","2,1,005,1,+999,9","+133,9","SYN106AAXX  26001 02795 47447 70000 10128 20090 30090 40098 52005 71010 87/// 92339 222// 00133 555 778// 0/602;",
"02795099999","2010-09-26T03:00:00","4","60.1","24.9833333","6.4","HELSINKI HARMAJA, FI","FM-12","99999","V020","020,1,N,0070,1","99999,9,9,N","021000,1,N,1","+0105,1","+0057,1","10120,1","00,1","2,1,03,1",,"08,99,1,08,1,99,9,00250,1,99,9,99,9","99999,9,10112,1","2,1,021,1,+999,9","+131,9","SYN106AAXX  26031 02795 47371 80207 10105 20057 30112 40120 52021 70010 88/// 90239 222// 00131 555 772// 0/310;",
"02795099999","2010-09-26T09:00:00","4","60.1","24.9833333","6.4","HELSINKI HARMAJA, FI","FM-12","99999","V020","030,1,N,0060,1","99999,9,9,N","050000,1,N,1","+0092,1","+0024,1","10162,1","00,1","0,1,03,1",,"08,99,1,08,1,99,9,00450,1,99,9,99,9","99999,9,10154,1","2,1,021,1,+999,9","+129,9","SYN106AAXX  26091 02795 47499 80306 10092 20024 30154 40162 52021 70000 88/// 90839 222// 00129 555 763// 0/508;",
"02795099999","2010-09-26T12:00:00","4","60.1","24.9833333","6.4","HELSINKI HARMAJA, FI","FM-12","99999","V020","040,1,N,0050,1","99999,9,9,N","050000,1,N,1","+0103,1","+0022,1","10174,1","00,1","0,1,06,1",,"08,99,1,08,1,99,9,00800,1,99,9,99,9","99999,9,10166,1","2,1,012,1,+999,9","+129,9","SYN106AAXX  26121 02795 47599 80405 10103 20022 30166 40174 52012 70000 88/// 91139 222// 00129 555 757// 0/607;",
"02795099999","2010-09-26T15:00:00","4","60.1","24.9833333","6.4","HELSINKI HARMAJA, FI","FM-12","99999","V020","040,1,N,0050,1","99999,9,9,N","050000,1,N,1","+0113,1","+0017,1","10182,1","00,1","0,1,03,1",,"08,99,1,08,1,99,9,01250,1,99,9,99,9","99999,9,10174,1","2,1,008,1,+999,9","+129,9","SYN106AAXX  26151 02795 47699 80405 10113 20017 30174 40182 52008 70000 88/// 91439 222// 00129 555 751// 0/006;",
"02795099999","2010-09-26T21:00:00","4","60.1","24.9833333","6.4","HELSINKI HARMAJA, FI","FM-12","99999","V020","060,1,N,0080,1","99999,9,9,N","050000,1,N,1","+0111,1","+0011,1","10194,1","00,1","0,1,03,1",,"08,99,1,03,1,99,9,01750,1,99,9,99,9","99999,9,10186,1","2,1,004,1,+999,9","+127,9","SYN106AAXX  26211 02795 47799 80608 10111 20011 30186 40194 52004 70000 83/// 92039 222// 00127 555 750// 0/109;",
"02795099999","2010-09-27T00:00:00","4","60.1","24.9833333","6.4","HELSINKI HARMAJA, FI","FM-12","99999","V020","040,1,N,0050,1","99999,9,9,N","050000,1,N,1","+0094,1","+0015,1","10194,1","00,1","0,1,06,1",,"07,99,1,07,1,99,9,02250,1,99,9,99,9","99999,9,10186,1","4,1,000,1,+999,9","+127,9","SYN106AAXX  27001 02795 47899 70405 10094 20015 30186 40194 54000 70000 87/// 92339 222// 00127 555 758// 0/608;",
"02795099999","2010-09-27T03:00:00","4","60.1","24.9833333","6.4","HELSINKI HARMAJA, FI","FM-12","99999","V020","040,1,N,0060,1","99999,9,9,N","050000,1,N,1","+0085,1","+0011,1","10190,1","00,1","0,1,03,1",,"07,99,1,07,1,99,9,02250,1,99,9,99,9","99999,9,10182,1","7,1,003,1,+999,9","+126,9","SYN106AAXX  27031 02795 47899 70406 10085 20011 30182 40190 57003 70000 87/// 90239 222// 00126 555 760// 0/207;",
"02795099999","2010-09-27T09:00:00","4","60.1","24.9833333","6.4","HELSINKI HARMAJA, FI","FM-12","99999","V020","060,1,N,0090,1","99999,9,9,N","035000,1,N,1","+0103,1","+0007,1","10190,1","00,1","0,1,03,1",,"05,99,1,05,1,99,9,99999,9,99,9,99,9","99999,9,10182,1","4,1,000,1,+999,9","+127,9","SYN106AAXX  27091 02795 47981 50609 10103 20007 30182 40190 54002 70000 85/// 90839 222// 00127 555 751// 0/009;",
"02795099999","2010-09-27T12:00:00","4","60.1","24.9833333","6.4","HELSINKI HARMAJA, FI","FM-12","99999","V020","060,1,N,0090,1","99999,9,9,N","045000,1,N,1","+0112,1","-0004,1","10186,1","00,1","0,1,06,1",,"07,99,1,07,1,99,9,99999,9,99,9,99,9","99999,9,10178,1","7,1,004,1,+999,9","+128,9","SYN106AAXX  27121 02795 47983 70609 10112 21004 30178 40186 57004 70000 87/// 91139 222// 00128 555 745// 0/411;",
"02795099999","2010-09-27T15:00:00","4","60.1","24.9833333","6.4","HELSINKI HARMAJA, FI","FM-12","99999","V020","040,1,N,0070,1","99999,9,9,N","050000,1,N,1","+0113,1","-0005,1","10181,1","00,1","0,1,03,1",,"07,99,1,07,1,99,9,99999,9,99,9,99,9","99999,9,10173,1","7,1,005,1,+999,9","+127,9","SYN106AAXX  27151 02795 47999 70407 10113 21005 30173 40181 57005 70000 87/// 91439 222// 00127 555 744// 0/609;",
"02795099999","2010-09-27T21:00:00","4","60.1","24.9833333","6.4","HELSINKI HARMAJA, FI","FM-12","99999","V020","040,1,N,0080,1","22000,1,9,N","050000,1,N,1","+0087,1","-0002,1","10174,1","00,1","0,1,03,1",,"01,99,1,00,1,99,9,99999,9,99,9,99,9","99999,9,10166,1","7,1,005,1,+999,9","+124,9","SYN106AAXX  27211 02795 47999 10408 10087 21002 30166 40174 57005 70000 80/// 92039 222// 00124 555 754// 0/610;",
"02795099999","2010-09-28T00:00:00","4","60.1","24.9833333","6.4","HELSINKI HARMAJA, FI","FM-12","99999","V020","030,1,N,0080,1","99999,9,9,N","050000,1,N,1","+0072,1","-0003,1","10165,1","00,1","0,1,06,1",,"05,99,1,00,1,99,9,99999,9,99,9,99,9","99999,9,10158,1","7,1,008,1,+999,9","+123,9","SYN106AAXX  28001 02795 47999 50308 10072 21003 30158 40165 57008 70000 80/// 92339 222// 00123 555 759// 0/509;",
"02795099999","2010-09-28T03:00:00","4","60.1","24.9833333","6.4","HELSINKI HARMAJA, FI","FM-12","99999","V020","030,1,N,0080,1","22000,1,9,N","045000,1,N,1","+0062,1","-0001,1","10159,1","00,1","0,1,03,1",,"03,99,1,00,1,99,9,99999,9,99,9,99,9","99999,9,10151,1","7,1,007,1,+999,9","+123,9","SYN106AAXX  28031 02795 47983 30308 10062 21001 30151 40159 57007 70000 80/// 90239 222// 00123 555 764// 0/410;",
"02795099999","2010-09-28T09:00:00","4","60.1","24.9833333","6.4","HELSINKI HARMAJA, FI","FM-12","99999","V020","050,1,N,0110,1","99999,9,9,N","035000,1,N,1","+0089,1","+0002,1","10155,1","00,1","0,1,03,1",,"05,99,1,05,1,99,9,00800,1,99,9,99,9","99999,9,10147,1","4,1,000,1,+999,9","+122,9","SYN106AAXX  28091 02795 47581 50511 10089 20002 30147 40155 54001 70000 85/// 90839 222// 00122 555 754// 0/011;",
"02795099999","2010-09-28T12:00:00","4","60.1","24.9833333","6.4","HELSINKI HARMAJA, FI","FM-12","99999","V020","020,1,N,0110,1","99999,9,9,N","035000,1,N,1","+0100,1","+0000,1","10159,1","00,1","0,1,06,1",,"07,99,1,07,1,99,9,01250,1,99,9,99,9","99999,9,10151,1","2,1,004,1,+999,9","+123,9","SYN106AAXX  28121 02795 47681 70211 10100 20000 30151 40159 52004 70000 87/// 91139 222// 00123 555 750// 0/612;",
"02795099999","2010-09-28T15:00:00","4","60.1","24.9833333","6.4","HELSINKI HARMAJA, FI","FM-12","99999","V020","030,1,N,0090,1","22000,1,9,N","050000,1,N,1","+0101,1","-0018,1","10163,1","00,1","0,1,03,1","00,1,+99999,9,99,9","00,99,1,00,1,00,1,99999,9,00,1,00,1","99999,9,10155,1","2,1,004,1,+999,9","+123,9","SYN100AAXX  28151 02795 47999 00309 10101 21018 30155 40163 52004 70000 91439 222// 00123 555 743// 0/611;",
"02795099999","2010-09-28T21:00:00","4","60.1","24.9833333","6.4","HELSINKI HARMAJA, FI","FM-12","99999","V020","020,1,N,0060,1","22000,1,9,N","050000,1,N,1","+0069,1","-0006,1","10183,1","00,1","0,1,03,1","00,1,+99999,9,99,9","00,99,1,00,1,00,1,99999,9,00,1,00,1","99999,9,10175,1","2,1,008,1,+999,9","+122,9","SYN100AAXX  28211 02795 47999 00206 10069 21006 30175 40183 52008 70000 92039 222// 00122 555 759// 0/208;",
"02795099999","2010-09-29T00:00:00","4","60.1","24.9833333","6.4","HELSINKI HARMAJA, FI","FM-12","99999","V020","020,1,N,0070,1","22000,1,9,N","050000,1,N,1","+0061,1","-0007,1","10184,1","00,1","0,1,06,1","00,1,+99999,9,99,9","00,99,1,00,1,00,1,99999,9,00,1,00,1","99999,9,10176,1","4,1,000,1,+999,9","+120,9","SYN100AAXX  29001 02795 47999 00207 10061 21007 30176 40184 54001 70000 92339 222// 00120 555 762// 0/208;",
"02795099999","2010-09-29T03:00:00","4","60.1","24.9833333","6.4","HELSINKI HARMAJA, FI","FM-12","99999","V020","020,1,N,0060,1","22000,1,9,N","050000,1,N,1","+0058,1","-0002,1","10190,1","00,1","0,1,03,1","00,1,+99999,9,99,9","00,99,1,00,1,00,1,99999,9,00,1,00,1","99999,9,10182,1","2,1,006,1,+999,9","+120,9","SYN100AAXX  29031 02795 47999 00206 10058 21002 30182 40190 52006 70000 90239 222// 00120 555 766// 0/607;",
"02795099999","2010-09-29T09:00:00","4","60.1","24.9833333","6.4","HELSINKI HARMAJA, FI","FM-12","99999","V020","040,1,N,0040,1","22000,1,9,N","045000,1,N,1","+0085,1","-0005,1","10217,1","00,1","0,1,03,1","00,1,+99999,9,99,9","00,99,1,00,1,00,1,99999,9,00,1,00,1","99999,9,10209,1","2,1,013,1,+999,9","+122,9","SYN100AAXX  29091 02795 47983 00404 10085 21005 30209 40217 52013 70000 90839 222// 00122 555 753// 0/507;",
"02795099999","2010-09-29T12:00:00","4","60.1","24.9833333","6.4","HELSINKI HARMAJA, FI","FM-12","99999","V020","040,1,N,0040,1","22000,1,9,N","050000,1,N,1","+0096,1","-0023,1","10219,1","00,1","0,1,06,1",,"03,99,1,03,1,99,9,01250,1,99,9,99,9","99999,9,10212,1","2,1,003,1,+999,9","+124,9","SYN106AAXX  29121 02795 47699 30404 10096 21023 30212 40219 52003 70000 83/// 91139 222// 00124 555 743// 0/406;",
"02795099999","2010-09-29T15:00:00","4","60.1","24.9833333","6.4","HELSINKI HARMAJA, FI","FM-12","99999","V020","360,1,N,0050,1","22000,1,9,N","050000,1,N,1","+0104,1","-0019,1","10219,1","00,1","0,1,03,1","00,1,+99999,9,99,9","00,99,1,00,1,00,1,99999,9,00,1,00,1","99999,9,10211,1","4,1,000,1,+999,9","+124,9","SYN100AAXX  29151 02795 47999 03605 10104 21019 30211 40219 54001 70000 91439 222// 00124 555 742// 0/105;",
"02795099999","2010-09-29T21:00:00","4","60.1","24.9833333","6.4","HELSINKI HARMAJA, FI","FM-12","99999","V020","360,1,N,0040,1","99999,9,9,N","050000,1,N,1","+0087,1","+0011,1","10236,1","00,1","0,1,03,1",,"08,99,1,08,1,99,9,01750,1,99,9,99,9","99999,9,10228,1","2,1,008,1,+999,9","+121,9","SYN106AAXX  29211 02795 47799 83604 10087 20011 30228 40236 52008 70000 88/// 92039 222// 00121 555 759// 0/306;",
"02795099999","2010-09-30T00:00:00","4","60.1","24.9833333","6.4","HELSINKI HARMAJA, FI","FM-12","99999","V020","330,1,N,0040,1","99999,9,9,N","050000,1,N,1","+0092,1","+0015,1","10237,1","00,1","0,1,06,1",,"08,99,1,08,1,99,9,01250,1,99,9,99,9","99999,9,10229,1","4,1,000,1,+999,9","+122,9","SYN106AAXX  30001 02795 47699 83304 10092 20015 30229 40237 54001 70000 88/// 92339 222// 00122 555 758// 0/005;",
"02795099999","2010-09-30T03:00:00","4","60.1","24.9833333","6.4","HELSINKI HARMAJA, FI","FM-12","99999","V020","010,1,N,0050,1","99999,9,9,N","050000,1,N,1","+0087,1","+0018,1","10234,1","00,1","0,1,03,1",,"08,99,1,08,1,99,9,01750,1,99,9,99,9","99999,9,10226,1","7,1,003,1,+999,9","+122,9","SYN106AAXX  30031 02795 47799 80105 10087 20018 30226 40234 57003 70000 88/// 90239 222// 00122 555 762// 0/105;",
"02795099999","2010-09-30T09:00:00","4","60.1","24.9833333","6.4","HELSINKI HARMAJA, FI","FM-12","99999","V020","999,9,C,0000,1","22000,1,9,N","045000,1,N,1","+0102,1","+0019,1","10247,1","00,1","0,1,03,1",,"01,99,1,01,1,99,9,01250,1,99,9,99,9","99999,9,10239,1","2,1,006,1,+999,9","+123,9","SYN106AAXX  30091 02795 47683 10000 10102 20019 30239 40247 52006 70000 81/// 90839 222// 00123 555 756// 0/604;",
"02795099999","2010-09-30T12:00:00","4","60.1","24.9833333","6.4","HELSINKI HARMAJA, FI","FM-12","99999","V020","190,1,N,0020,1","22000,1,9,N","050000,1,N,1","+0116,1","-0007,1","10240,1","00,1",,"00,1,+99999,9,99,9","00,99,1,00,1,00,1,99999,9,00,1,00,1","99999,9,10232,1","7,1,007,1,+999,9","+128,9","SYN100AAXX  30121 02795 47999 01902 10116 21007 30232 40240 57007 700// 91139 222// 00128 555 743// 0/102;",
"02795099999","2010-09-30T15:00:00","4","60.1","24.9833333","6.4","HELSINKI HARMAJA, FI","FM-12","99999","V020","230,1,N,0030,1","22000,1,9,N","050000,1,N,1","+0113,1","+0025,1","10234,1","00,1","0,1,03,1","00,1,+99999,9,99,9","00,99,1,00,1,00,1,99999,9,00,1,00,1","99999,9,10227,1","7,1,006,1,+999,9","+126,9","SYN100AAXX  30151 02795 47999 02303 10113 20025 30227 40234 57006 70000 91439 222// 00126 555 755// 0/003;",
"02795099999","2010-09-30T21:00:00","4","60.1","24.9833333","6.4","HELSINKI HARMAJA, FI","FM-12","99999","V020","300,1,N,0030,1","22000,1,9,N","050000,1,N,1","+0095,1","+0043,1","10238,1","00,1","0,1,03,1","00,1,+99999,9,99,9","00,99,1,00,1,00,1,99999,9,00,1,00,1","99999,9,10230,1","2,1,005,1,+999,9","+125,9","SYN100AAXX  30211 02795 47999 03003 10095 20043 30230 40238 52005 70000 92039 222// 00125 555 770// 0/204;",
"02795099999","2010-10-01T00:00:00","4","60.1","24.9833333","6.4","HELSINKI HARMAJA, FI","FM-12","99999","V020","330,1,N,0020,1","22000,1,9,N","050000,1,N,1","+0087,1","+0031,1","10240,1","00,1","0,1,06,1","00,1,+99999,9,99,9","00,99,1,00,1,00,1,99999,9,00,1,00,1","99999,9,10232,1","4,1,000,1,+999,9","+126,9","SYN100AAXX  01001 02795 47999 03302 10087 20031 30232 40240 54002 70000 92339 222// 00126 555 768// 0/603;",
"02795099999","2010-10-01T03:00:00","4","60.1","24.9833333","6.4","HELSINKI HARMAJA, FI","FM-12","99999","V020","350,1,N,0030,1","22000,1,9,N","050000,1,N,1","+0077,1","+0028,1","10236,1","00,1","0,1,03,1","00,1,+99999,9,99,9","00,99,1,00,1,00,1,99999,9,00,1,00,1","99999,9,10228,1","7,1,005,1,+999,9","+125,9","SYN100AAXX  01031 02795 47999 03503 10077 20028 30228 40236 57005 70000 90239 222// 00125 555 771// 0/003;",
"02795099999","2010-10-01T09:00:00","4","60.1","24.9833333","6.4","HELSINKI HARMAJA, FI","FM-12","99999","V020","280,1,N,0020,1","22000,1,9,N","040000,1,N,1","+0099,1","+0034,1","10244,1","00,1","0,1,03,1","00,1,+99999,9,99,9","00,99,1,00,1,00,1,99999,9,00,1,00,1","99999,9,10236,1","2,1,004,1,+999,9","+126,9","SYN100AAXX  01091 02795 47982 02802 10099 20034 30236 40244 52004 70000 90839 222// 00126 555 764// 0/002;",
"02795099999","2010-10-01T12:00:00","4","60.1","24.9833333","6.4","HELSINKI HARMAJA, FI","FM-12","99999","V020","300,1,N,0030,1","22000,1,9,N","045000,1,N,1","+0133,1","+0010,1","10238,1","00,1","0,1,06,1","00,1,+99999,9,99,9","00,99,1,00,1,00,1,99999,9,00,1,00,1","99999,9,10230,1","7,1,006,1,+999,9","+128,9","SYN100AAXX  01121 02795 47983 03003 10133 20010 30230 40238 57006 70000 91139 222// 00128 555 743// 0/003;",
"02795099999","2010-10-01T15:00:00","4","60.1","24.9833333","6.4","HELSINKI HARMAJA, FI","FM-12","99999","V020","360,1,N,0020,1","22000,1,9,N","045000,1,N,1","+0129,1","+0029,1","10235,1","00,1","0,1,03,1","00,1,+99999,9,99,9","00,99,1,00,1,00,1,99999,9,00,1,00,1","99999,9,10228,1","7,1,003,1,+999,9","+128,9","SYN100AAXX  01151 02795 47983 03602 10129 20029 30228 40235 57003 70000 91439 222// 00128 555 751// 0/603;",
"02795099999","2010-10-01T21:00:00","4","60.1","24.9833333","6.4","HELSINKI HARMAJA, FI","FM-12","99999","V020","010,1,N,0040,1","22000,1,9,N","050000,1,N,1","+0090,1","+0022,1","10250,1","00,1","0,1,03,1","00,1,+99999,9,99,9","00,99,1,00,1,00,1,99999,9,00,1,00,1","99999,9,10242,1","2,1,008,1,+999,9","+125,9","SYN100AAXX  01211 02795 47999 00104 10090 20022 30242 40250 52008 70000 92039 222// 00125 555 763// 0/305;",
"02795099999","2010-10-02T00:00:00","4","60.1","24.9833333","6.4","HELSINKI HARMAJA, FI","FM-12","99999","V020","010,1,N,0030,1","22000,1,9,N","050000,1,N,1","+0075,1","+0028,1","10254,1","00,1","0,1,06,1","00,1,+99999,9,99,9","00,99,1,00,1,00,1,99999,9,00,1,00,1","99999,9,10246,1","2,1,003,1,+999,9","+124,9","SYN100AAXX  02001 02795 47999 00103 10075 20028 30246 40254 52003 70000 92339 222// 00124 555 772// 0/604;",
"02795099999","2010-10-02T03:00:00","4","60.1","24.9833333","6.4","HELSINKI HARMAJA, FI","FM-12","99999","V020","360,1,N,0030,1","22000,1,9,N","025000,1,N,1","+0063,1","+0022,1","10258,1","00,1","0,1,03,1","00,1,+99999,9,99,9","00,99,1,00,1,00,1,99999,9,00,1,00,1","99999,9,10250,1","2,1,004,1,+999,9","+123,9","SYN100AAXX  02031 02795 47975 03603 10063 20022 30250 40258 52004 70000 90239 222// 00123 555 775// 0/103;",
"02795099999","2010-10-02T09:00:00","4","60.1","24.9833333","6.4","HELSINKI HARMAJA, FI","FM-12","99999","V020","340,1,N,0020,1","22000,1,9,N","014000,1,N,1","+0062,1","+0007,1","10273,1","00,1","4,1,03,1","00,1,+99999,9,99,9","00,99,1,00,1,00,1,99999,9,00,1,00,1","99999,9,10265,1","2,1,009,1,+999,9","+124,9","SYN100AAXX  02091 02795 47964 03402 10062 20007 30265 40273 52009 70032 90839 222// 00124 555 768// 0/503;",
"02795099999","2010-10-02T12:00:00","4","60.1","24.9833333","6.4","HELSINKI HARMAJA, FI","FM-12","99999","V020","220,1,N,0010,1","22000,1,9,N","028000,1,N,1","+0102,1","+0031,1","10278,1","00,1","4,1,06,1","00,1,+99999,9,99,9","00,99,1,00,1,00,1,99999,9,00,1,00,1","99999,9,10270,1","2,1,005,1,+999,9","+124,9","SYN100AAXX  02121 02795 47978 02201 10102 20031 30270 40278 52005 70032 91139 222// 00124 555 762// 0/502;",
"02795099999","2010-10-02T15:00:00","4","60.1","24.9833333","6.4","HELSINKI HARMAJA, FI","FM-12","99999","V020","120,1,N,0020,1","22000,1,9,N","027000,1,N,1","+0089,1","+0041,1","10280,1","00,1","0,1,03,1",,"01,99,1,01,1,99,9,00075,1,99,9,99,9","99999,9,10272,1","4,1,000,1,+999,9","+126,9","SYN106AAXX  02151 02795 47177 11202 10089 20041 30272 40280 54002 70000 81/// 91439 222// 00126 555 772// 0/102;",
"02795099999","2010-10-02T21:00:00","4","60.1","24.9833333","6.4","HELSINKI HARMAJA, FI","FM-12","99999","V020","240,1,N,0010,1","22000,1,9,N","012000,1,N,1","+0089,1","+0052,1","10293,1","00,1","4,1,03,1",,"03,99,1,03,1,99,9,00025,1,99,9,99,9","99999,9,10285,1","2,1,008,1,+999,9","+126,9","SYN106AAXX  02211 02795 47062 32401 10089 20052 30285 40293 52008 70032 83/// 92039 222// 00126 555 778// 0/303;",
"02795099999","2010-10-03T00:00:00","4","60.1","24.9833333","6.4","HELSINKI HARMAJA, FI","FM-12","99999","V020","020,1,N,0020,1","99999,9,9,N","003800,1,N,1","+0093,1","+0057,1","10296,1","10,1","4,1,06,1",,"07,99,1,07,1,99,9,00075,1,99,9,99,9","99999,9,10288,1","2,1,003,1,+999,9","+126,9","SYN106AAXX  03001 02795 47138 70202 10093 20057 30288 40296 52003 71032 87/// 92339 222// 00126 555 778// 0/002;",
"02795099999","2010-10-03T03:00:00","4","60.1","24.9833333","6.4","HELSINKI HARMAJA, FI","FM-12","99999","V020","040,1,N,0010,1","00030,1,9,N","000300,1,N,1","+0085,1","+0051,1","10295,1","33,1","4,1,03,1","09,1,+99999,9,99,9","09,99,1,09,1,99,9,99999,9,99,9,99,9","99999,9,10288,1","4,1,000,1,+999,9","+125,9","SYN100AAXX  03031 02795 47/03 90401 10085 20051 30288 40295 54000 73332 90239 222// 00125 555 779// 0/602;",
"02795099999","2010-10-03T09:00:00","4","60.1","24.9833333","6.4","HELSINKI HARMAJA, FI","FM-12","99999","V020","150,1,N,0050,1","99999,9,9,N","020000,1,N,1","+0098,1","+0058,1","10313,1","00,1","0,1,03,1",,"07,99,1,07,1,99,9,01250,1,99,9,99,9","99999,9,10305,1","2,1,007,1,+999,9","+125,9","SYN106AAXX  03091 02795 47670 71505 10098 20058 30305 40313 52007 70000 87/// 90839 222// 00125 555 776// 0/205;",
"02795099999","2010-10-03T12:00:00","4","60.1","24.9833333","6.4","HELSINKI HARMAJA, FI","FM-12","99999","V020","110,1,N,0020,1","22000,1,9,N","030000,1,N,1","+0101,1","+0056,1","10312,1","00,1","0,1,06,1",,"01,99,1,01,1,99,9,01250,1,99,9,99,9","99999,9,10304,1","4,1,000,1,+999,9","+125,9","SYN106AAXX  03121 02795 47680 11102 10101 20056 30304 40312 54000 70000 81/// 91139 222// 00125 555 774// 0/605;",
"02795099999","2010-10-03T15:00:00","4","60.1","24.9833333","6.4","HELSINKI HARMAJA, FI","FM-12","99999","V020","140,1,N,0010,1","99999,9,9,N","050000,1,N,1","+0111,1","+0049,1","10307,1","00,1","0,1,03,1",,"08,99,1,08,1,99,9,01250,1,99,9,99,9","99999,9,10299,1","7,1,005,1,+999,9","+126,9","SYN106AAXX  03151 02795 47699 81401 10111 20049 30299 40307 57005 70000 88/// 91439 222// 00126 555 766// 0/603;",
"02795099999","2010-10-03T21:00:00","4","60.1","24.9833333","6.4","HELSINKI HARMAJA, FI","FM-12","99999","V020","180,1,N,0080,1","22000,1,9,N","040000,1,N,1","+0112,1","+0048,1","10302,1","00,1","0,1,03,1","00,1,+99999,9,99,9","00,99,1,00,1,00,1,99999,9,00,1,00,1","99999,9,10294,1","4,1,000,1,+999,9","+125,9","SYN100AAXX  03211 02795 47982 01808 10112 20048 30294 40302 54001 70000 92039 222// 00125 555 765// 0/008;",
"02795099999","2010-10-04T00:00:00","4","60.1","24.9833333","6.4","HELSINKI HARMAJA, FI","FM-12","99999","V020","180,1,N,0070,1","22000,1,9,N","035000,1,N,1","+0107,1","+0047,1","10304,1","00,1","0,1,06,1","00,1,+99999,9,99,9","00,99,1,00,1,00,1,99999,9,00,1,00,1","99999,9,10296,1","4,1,000,1,+999,9","+124,9","SYN100AAXX  04001 02795 47981 01807 10107 20047 30296 40304 54002 70000 92339 222// 00124 555 766// 0/608;",
"02795099999","2010-10-04T03:00:00","4","60.1","24.9833333","6.4","HELSINKI HARMAJA, FI","FM-12","99999","V020","180,1,N,0080,1","22000,1,9,N","050000,1,N,1","+0107,1","+0027,1","10299,1","00,1","0,1,03,1","00,1,+99999,9,99,9","00,99,1,00,1,00,1,99999,9,00,1,00,1","99999,9,10291,1","7,1,005,1,+999,9","+123,9","SYN100AAXX  04031 02795 47999 01808 10107 20027 30291 40299 57005 70000 90239 222// 00123 555 758// 0/008;",
"02795099999","2010-10-04T09:00:00","4","60.1","24.9833333","6.4","HELSINKI HARMAJA, FI","FM-12","99999","V020","180,1,N,0090,1","22000,1,9,N","035000,1,N,1","+0109,1","+0019,1","10301,1","00,1","0,1,03,1","00,1,+99999,9,99,9","00,99,1,00,1,00,1,99999,9,00,1,00,1","99999,9,10293,1","2,1,006,1,+999,9","+123,9","SYN100AAXX  04091 02795 47981 01809 10109 20019 30293 40301 52006 70000 90839 222// 00123 555 754// 0/310;",
"02795099999","2010-10-04T12:00:00","4","60.1","24.9833333","6.4","HELSINKI HARMAJA, FI","FM-12","99999","V020","180,1,N,0080,1","22000,1,9,N","035000,1,N,1","+0118,1","+0002,1","10295,1","00,1","0,1,06,1",,"01,99,1,00,1,99,9,99999,9,99,9,99,9","99999,9,10287,1","7,1,006,1,+999,9","+124,9","SYN106AAXX  04121 02795 47981 11808 10118 20002 30287 40295 57006 70000 80/// 91139 222// 00124 555 745// 0/309;",
"02795099999","2010-10-04T15:00:00","4","60.1","24.9833333","6.4","HELSINKI HARMAJA, FI","FM-12","99999","V020","190,1,N,0060,1","22000,1,9,N","050000,1,N,1","+0121,1","+0028,1","10281,1","00,1","0,1,03,1","00,1,+99999,9,99,9","00,99,1,00,1,00,1,99999,9,00,1,00,1","99999,9,10274,1","7,1,014,1,+999,9","+124,9","SYN100AAXX  04151 02795 47999 01906 10121 20028 30274 40281 57014 70000 91439 222// 00124 555 753// 0/608;",
"02795099999","2010-10-04T21:00:00","4","60.1","24.9833333","6.4","HELSINKI HARMAJA, FI","FM-12","99999","V020","190,1,N,0090,1","22000,1,9,N","050000,1,N,1","+0111,1","+0029,1","10280,1","00,1","0,1,03,1",,"01,99,1,00,1,99,9,99999,9,99,9,99,9","99999,9,10272,1","4,1,000,1,+999,9","+121,9","SYN106AAXX  04211 02795 47999 11909 10111 20029 30272 40280 54000 70000 80/// 92039 222// 00121 555 757// 0/111;",
"02795099999","2010-10-05T00:00:00","4","60.1","24.9833333","6.4","HELSINKI HARMAJA, FI","FM-12","99999","V020","190,1,N,0090,1","22000,1,9,N","045000,1,N,1","+0102,1","+0025,1","10280,1","00,1","0,1,06,1","00,1,+99999,9,99,9","00,99,1,00,1,00,1,99999,9,00,1,00,1","99999,9,10272,1","4,1,000,1,+999,9","+120,9","SYN100AAXX  05001 02795 47983 01909 10102 20025 30272 40280 54000 70000 92339 222// 00120 555 759// 0/209;",
"02795099999","2010-10-05T03:00:00","4","60.1","24.9833333","6.4","HELSINKI HARMAJA, FI","FM-12","99999","V020","180,1,N,0090,1","22000,1,9,N","045000,1,N,1","+0095,1","+0020,1","10282,1","00,1","0,1,03,1",,"03,99,1,00,1,99,9,99999,9,99,9,99,9","99999,9,10274,1","4,1,000,1,+999,9","+119,9","SYN106AAXX  05031 02795 47983 31809 10095 20020 30274 40282 54002 70000 80/// 90239 222// 00119 555 759// 0/209;",
"02795099999","2010-10-05T09:00:00","4","60.1","24.9833333","6.4","HELSINKI HARMAJA, FI","FM-12","99999","V020","180,1,N,0080,1","22000,1,9,N","029000,1,N,1","+0092,1","+0028,1","10300,1","00,1","0,1,03,1",,"03,99,1,00,1,99,9,99999,9,99,9,99,9","99999,9,10292,1","2,1,009,1,+999,9","+119,9","SYN106AAXX  05091 02795 47979 31808 10092 20028 30292 40300 52009 70000 80/// 90839 222// 00119 555 764// 0/610;",
"02795099999","2010-10-05T12:00:00","4","60.1","24.9833333","6.4","HELSINKI HARMAJA, FI","FM-12","99999","V020","190,1,N,0080,1","22000,1,9,N","035000,1,N,1","+0103,1","-0021,1","10304,1","00,1","0,1,06,1",,"01,99,1,00,1,99,9,99999,9,99,9,99,9","99999,9,10296,1","2,1,005,1,+999,9","+119,9","SYN106AAXX  05121 02795 47981 11908 10103 21021 30296 40304 52005 70000 80/// 91139 222// 00119 555 742// 0/608;",
"02795099999","2010-10-05T15:00:00","4","60.1","24.9833333","6.4","HELSINKI HARMAJA, FI","FM-12","99999","V020","170,1,N,0060,1","22000,1,9,N","050000,1,N,1","+0109,1","-0026,1","10297,1","00,1","0,1,03,1","00,1,+99999,9,99,9","00,99,1,00,1,00,1,99999,9,00,1,00,1","99999,9,10289,1","7,1,007,1,+999,9","+120,9","SYN100AAXX  05151 02795 47999 01706 10109 21026 30289 40297 57007 70000 91439 222// 00120 555 739// 0/608;",
"02795099999","2010-10-05T21:00:00","4","60.1","24.9833333","6.4","HELSINKI HARMAJA, FI","FM-12","99999","V020","180,1,N,0100,1","22000,1,9,N","045000,1,N,1","+0099,1","-0009,1","10305,1","00,1","0,1,03,1","00,1,+99999,9,99,9","00,99,1,00,1,00,1,99999,9,00,1,00,1","99999,9,10297,1","2,1,007,1,+999,9","+117,9","SYN100AAXX  05211 02795 47983 01810 10099 21009 30297 40305 52007 70000 92039 222// 00117 555 747// 0/011;",
"02795099999","2010-10-06T00:00:00","4","60.1","24.9833333","6.4","HELSINKI HARMAJA, FI","FM-12","99999","V020","200,1,N,0090,1","22000,1,9,N","050000,1,N,1","+0094,1","-0006,1","10309,1","00,1","0,1,06,1","00,1,+99999,9,99,9","00,99,1,00,1,00,1,99999,9,00,1,00,1","99999,9,10301,1","2,1,004,1,+999,9","+117,9","SYN100AAXX  06001 02795 47999 02009 10094 21006 30301 40309 52004 70000 92339 222// 00117 555 750// 0/511;",
"02795099999","2010-10-06T03:00:00","4","60.1","24.9833333","6.4","HELSINKI HARMAJA, FI","FM-12","99999","V020","180,1,N,0080,1","22000,1,9,N","040000,1,N,1","+0079,1","+0009,1","10310,1","00,1","0,1,03,1","00,1,+99999,9,99,9","00,99,1,00,1,00,1,99999,9,00,1,00,1","99999,9,10302,1","4,1,000,1,+999,9","+115,9","SYN100AAXX  06031 02795 47982 01808 10079 20009 30302 40310 54001 70000 90239 222// 00115 555 761// 0/509;",
"02795099999","2010-10-06T09:00:00","4","60.1","24.9833333","6.4","HELSINKI HARMAJA, FI","FM-12","99999","V020","180,1,N,0070,1","22000,1,9,N","027000,1,N,1","+0084,1","+0018,1","10331,1","00,1","0,1,03,1","00,1,+99999,9,99,9","00,99,1,00,1,00,1,99999,9,00,1,00,1","99999,9,10323,1","2,1,013,1,+999,9","+115,9","SYN100AAXX  06091 02795 47977 01807 10084 20018 30323 40331 52013 70000 90839 222// 00115 555 763// 0/609;",
"02795099999","2010-10-06T12:00:00","4","60.1","24.9833333","6.4","HELSINKI HARMAJA, FI","FM-12","99999","V020","160,1,N,0050,1","22000,1,9,N","040000,1,N,1","+0097,1","-0012,1","10340,1","00,1","0,1,06,1","00,1,+99999,9,99,9","00,99,1,00,1,00,1,99999,9,00,1,00,1","99999,9,10332,1","2,1,008,1,+999,9","+116,9","SYN100AAXX  06121 02795 47982 01605 10097 21012 30332 40340 52008 70000 91139 222// 00116 555 747// 0/607;",
"02795099999","2010-10-06T15:00:00","4","60.1","24.9833333","6.4","HELSINKI HARMAJA, FI","FM-12","99999","V020","160,1,N,0060,1","22000,1,9,N","040000,1,N,1","+0110,1","-0010,1","10335,1","00,1","0,1,03,1","00,1,+99999,9,99,9","00,99,1,00,1,00,1,99999,9,00,1,00,1","99999,9,10327,1","7,1,005,1,+999,9","+118,9","SYN100AAXX  06151 02795 47982 01606 10110 21010 30327 40335 57005 70000 91439 222// 00118 555 743// 0/006;",
"02795099999","2010-10-06T21:00:00","4","60.1","24.9833333","6.4","HELSINKI HARMAJA, FI","FM-12","99999","V020","180,1,N,0130,1","22000,1,9,N","028000,1,N,1","+0103,1","+0002,1","10333,1","00,1","0,1,03,1","00,1,+99999,9,99,9","00,99,1,00,1,00,1,99999,9,00,1,00,1","99999,9,10325,1","2,1,005,1,+999,9","+115,9","SYN100AAXX  06211 02795 47978 01813 10103 20002 30325 40333 52005 70000 92039 222// 00115 555 750// 0/013;",
"02795099999","2010-10-07T00:00:00","4","60.1","24.9833333","6.4","HELSINKI HARMAJA, FI","FM-12","99999","V020","190,1,N,0110,1","22000,1,9,N","027000,1,N,1","+0095,1","+0006,1","10333,1","00,1","0,1,06,1","00,1,+99999,9,99,9","00,99,1,00,1,00,1,99999,9,00,1,00,1","99999,9,10325,1","4,1,000,1,+999,9","+116,9","SYN100AAXX  07001 02795 47977 01911 10095 20006 30325 40333 54001 70000 92339 222// 00116 555 754// 0/513;",
"02795099999","2010-10-07T03:00:00","4","60.1","24.9833333","6.4","HELSINKI HARMAJA, FI","FM-12","99999","V020","200,1,N,0100,1","22000,1,9,N","027000,1,N,1","+0087,1","+0007,1","10335,1","00,1","0,1,03,1","00,1,+99999,9,99,9","00,99,1,00,1,00,1,99999,9,00,1,00,1","99999,9,10327,1","2,1,002,1,+999,9","+114,9","SYN100AAXX  07031 02795 47977 02010 10087 20007 30327 40335 52002 70000 90239 222// 00114 555 757// 0/512;",
"02795099999","2010-10-07T12:00:00","4","60.1","24.9833333","6.4","HELSINKI HARMAJA, FI","FM-12","99999","V020","180,1,N,0060,1","22000,1,9,N","028000,1,N,1","+0091,1","+0039,1","10352,1","00,1",,"00,1,+99999,9,99,9","00,99,1,00,1,00,1,99999,9,00,1,00,1","99999,9,10344,1",,"+115,9","SYN088AAXX  07121 02795 47978 01806 10091 20039 30344 40352 700// 91139 222// 00115 555 770//;",
"02795099999","2010-10-07T15:00:00","4","60.1","24.9833333","6.4","HELSINKI HARMAJA, FI","FM-12","99999","V020","190,1,N,0060,1","22000,1,9,N","030000,1,N,1","+0107,1","+0041,1","10345,1","00,1","0,1,03,1","00,1,+99999,9,99,9","00,99,1,00,1,00,1,99999,9,00,1,00,1","99999,9,10337,1","7,1,007,1,+999,9","+115,9","SYN100AAXX  07151 02795 47980 01906 10107 20041 30337 40345 57007 70000 91439 222// 00115 555 764// 0/408;",
"02795099999","2010-10-07T21:00:00","4","60.1","24.9833333","6.4","HELSINKI HARMAJA, FI","FM-12","99999","V020","220,1,N,0110,1","22000,1,9,N","025000,1,N,1","+0094,1","+0045,1","10354,1","00,1","0,1,03,1","00,1,+99999,9,99,9","00,99,1,00,1,00,1,99999,9,00,1,00,1","99999,9,10346,1","2,1,007,1,+999,9","+113,9","SYN100AAXX  07211 02795 47975 02211 10094 20045 30346 40354 52007 70000 92039 222// 00113 555 772// 0/011;",
"02795099999","2010-10-08T00:00:00","4","60.1","24.9833333","6.4","HELSINKI HARMAJA, FI","FM-12","99999","V020","220,1,N,0070,1","99999,9,9,N","016000,1,N,1","+0092,1","+0062,1","10354,1","00,1","0,1,06,1",,"07,99,1,07,1,99,9,00450,1,99,9,99,9","99999,9,10346,1","4,1,000,1,+999,9","+112,9","SYN106AAXX  08001 02795 47466 72207 10092 20062 30346 40354 54001 70000 87/// 92339 222// 00112 555 782// 0/611;",
"02795099999","2010-10-08T03:00:00","4","60.1","24.9833333","6.4","HELSINKI HARMAJA, FI","FM-12","99999","V020","200,1,N,0070,1","99999,9,9,N","015000,1,N,1","+0083,1","+0057,1","10356,1","00,1","0,1,03,1",,"07,99,1,07,1,99,9,00450,1,99,9,99,9","99999,9,10348,1","4,1,000,1,+999,9","+112,9","SYN106AAXX  08031 02795 47465 72007 10083 20057 30348 40356 54001 70000 87/// 90239 222// 00112 555 784// 0/607;",
"02795099999","2010-10-08T09:00:00","4","60.1","24.9833333","6.4","HELSINKI HARMAJA, FI","FM-12","99999","V020","190,1,N,0030,1","99999,9,9,N","013000,1,N,1","+0083,1","+0059,1","10366,1","00,1","0,1,03,1",,"07,99,1,07,1,99,9,00450,1,99,9,99,9","99999,9,10358,1","2,1,007,1,+999,9","+113,9","SYN106AAXX  08091 02795 47463 71903 10083 20059 30358 40366 52007 70000 87/// 90839 222// 00113 555 785// 0/505;",
"02795099999","2010-10-08T12:00:00","4","60.1","24.9833333","6.4","HELSINKI HARMAJA, FI","FM-12","99999","V020","220,1,N,0030,1","99999,9,9,N","014000,1,N,1","+0091,1","+0062,1","10368,1","00,1","0,1,06,1",,"07,99,1,05,1,99,9,00450,1,99,9,99,9","99999,9,10359,1","4,1,000,1,+999,9","+114,9","SYN106AAXX  08121 02795 47464 72203 10091 20062 30359 40368 54002 70000 85/// 91139 222// 00114 555 782// 0/405;",
"02795099999","2010-10-08T15:00:00","4","60.1","24.9833333","6.4","HELSINKI HARMAJA, FI","FM-12","99999","V020","230,1,N,0040,1","99999,9,9,N","013000,1,N,1","+0095,1","+0072,1","10363,1","00,1","0,1,03,1",,"07,99,1,03,1,99,9,00450,1,99,9,99,9","99999,9,10355,1","7,1,005,1,+999,9","+113,9","SYN106AAXX  08151 02795 47463 72304 10095 20072 30355 40363 57005 70000 83/// 91439 222// 00113 555 785// 0/204;",
"02795099999","2010-10-08T21:00:00","4","60.1","24.9833333","6.4","HELSINKI HARMAJA, FI","FM-12","99999","V020","290,1,N,0030,1","22000,1,9,N","009000,1,N,1","+0086,1","+0072,1","10364,1","00,1","0,1,03,1","00,1,+99999,9,99,9","00,99,1,00,1,00,1,99999,9,00,1,00,1","99999,9,10356,1","2,1,002,1,+999,9","+112,9","SYN100AAXX  08211 02795 47959 02903 10086 20072 30356 40364 52002 70000 92039 222// 00112 555 791// 0/205;",
"02795099999","2010-10-09T00:00:00","4","60.1","24.9833333","6.4","HELSINKI HARMAJA, FI","FM-12","99999","V020","290,1,N,0030,1","99999,9,9,N","009000,1,N,1","+0090,1","+0075,1","10356,1","00,1","2,1,06,1",,"08,99,1,08,1,99,9,00800,1,99,9,99,9","99999,9,10348,1","7,1,007,1,+999,9","+112,9","SYN106AAXX  09001 02795 47559 82903 10090 20075 30348 40356 57007 70010 88/// 92339 222// 00112 555 790// 0/003;",
"02795099999","2010-10-09T03:00:00","4","60.1","24.9833333","6.4","HELSINKI HARMAJA, FI","FM-12","99999","V020","270,1,N,0030,1","99999,9,9,N","013000,1,N,1","+0096,1","+0070,1","10350,1","00,1","0,1,03,1",,"07,99,1,07,1,99,9,00800,1,99,9,99,9","99999,9,10342,1","7,1,006,1,+999,9","+112,9","SYN106AAXX  09031 02795 47563 72703 10096 20070 30342 40350 57006 70000 87/// 90239 222// 00112 555 784// 0/204;",
"02795099999","2010-10-09T09:00:00","4","60.1","24.9833333","6.4","HELSINKI HARMAJA, FI","FM-12","99999","V020","260,1,N,0040,1","99999,9,9,N","012000,1,N,1","+0099,1","+0075,1","10335,1","00,1","0,1,03,1",,"08,99,1,08,1,99,9,00450,1,99,9,99,9","99999,9,10327,1","7,1,008,1,+999,9","+112,9","SYN106AAXX  09091 02795 47462 82604 10099 20075 30327 40335 57008 70000 88/// 90839 222// 00112 555 785// 0/104;",
"02795099999","2010-10-09T12:00:00","4","60.1","24.9833333","6.4","HELSINKI HARMAJA, FI","FM-12","99999","V020","260,1,N,0050,1","99999,9,9,N","015000,1,N,1","+0098,1","+0072,1","10316,1","00,1","0,1,06,1",,"08,99,1,08,1,99,9,00450,1,99,9,99,9","99999,9,10308,1","7,1,019,1,+999,9","+112,9","SYN106AAXX  09121 02795 47465 82605 10098 20072 30308 40316 57019 70000 88/// 91139 222// 00112 555 784// 0/305;",
"02795099999","2010-10-09T15:00:00","4","60.1","24.9833333","6.4","HELSINKI HARMAJA, FI","FM-12","99999","V020","260,1,N,0050,1","99999,9,9,N","018000,1,N,1","+0099,1","+0069,1","10292,1","00,1","0,1,03,1",,"08,99,1,08,1,99,9,00450,1,99,9,99,9","99999,9,10284,1","7,1,025,1,+999,9","+112,9","SYN106AAXX  09151 02795 47468 82605 10099 20069 30284 40292 57025 70000 88/// 91439 222// 00112 555 782// 0/006;",
"02795099999","2010-10-09T21:00:00","4","60.1","24.9833333","6.4","HELSINKI HARMAJA, FI","FM-12","99999","V020","260,1,N,0080,1","99999,9,9,N","040000,1,N,1","+0086,1","+0048,1","10240,1","00,1","0,1,03,1",,"08,99,1,08,1,99,9,00450,1,99,9,99,9","99999,9,10232,1","7,1,027,1,+999,9","+112,9","SYN106AAXX  09211 02795 47482 82608 10086 20048 30232 40240 57027 70000 88/// 92039 222// 00112 555 777// 0/508;",
"02795099999","2010-10-10T00:00:00","4","60.1","24.9833333","6.4","HELSINKI HARMAJA, FI","FM-12","99999","V020","260,1,N,0080,1","99999,9,9,N","024000,1,N,1","+0091,1","+0059,1","10208,1","00,1","0,1,06,1",,"07,99,1,07,1,99,9,00450,1,99,9,99,9","99999,9,10200,1","7,1,032,1,+999,9","+111,9","SYN106AAXX  10001 02795 47474 72608 10091 20059 30200 40208 57032 70000 87/// 92339 222// 00111 555 781// 0/208;",
"02795099999","2010-10-10T03:00:00","4","60.1","24.9833333","6.4","HELSINKI HARMAJA, FI","FM-12","99999","V020","250,1,N,0080,1","99999,9,9,N","021000,1,N,1","+0099,1","+0072,1","10173,1","00,1","0,1,03,1",,"08,99,1,08,1,99,9,00450,1,99,9,99,9","99999,9,10165,1","7,1,035,1,+999,9","+112,9","SYN106AAXX  10031 02795 47471 82508 10099 20072 30165 40173 57035 70000 88/// 90239 222// 00112 555 783// 0/309;",
"02795099999","2010-10-10T09:00:00","4","60.1","24.9833333","6.4","HELSINKI HARMAJA, FI","FM-12","99999","V020","270,1,N,0080,1","99999,9,9,N","035000,1,N,1","+0102,1","+0074,1","10124,1","00,1","0,1,03,1",,"07,99,1,07,1,99,9,00450,1,99,9,99,9","99999,9,10116,1","7,1,020,1,+999,9","+112,9","SYN106AAXX  10091 02795 47481 72708 10102 20074 30116 40124 57020 70000 87/// 90839 222// 00112 555 783// 0/508;",
"02795099999","2010-10-10T12:00:00","4","60.1","24.9833333","6.4","HELSINKI HARMAJA, FI","FM-12","99999","V020","310,1,N,0110,1","99999,9,9,N","050000,1,N,1","+0104,1","+0046,1","10109,1","23,1","8,1,06,1",,"07,99,1,07,1,99,9,00800,1,99,9,99,9","99999,9,10101,1","7,1,015,1,+999,9","+112,9","SYN106AAXX  10121 02795 47599 73111 10104 20046 30101 40109 57015 72386 87/// 91139 222// 00112 555 768// 0/011;",
"02795099999","2010-10-10T15:00:00","4","60.1","24.9833333","6.4","HELSINKI HARMAJA, FI","FM-12","99999","V020","310,1,N,0080,1","22000,1,9,N","050000,1,N,1","+0087,1","+0010,1","10112,1","00,1","3,1,03,1","00,1,+99999,9,99,9","00,99,1,00,1,00,1,99999,9,00,1,00,1","99999,9,10104,1","2,1,003,1,+999,9","+111,9","SYN100AAXX  10151 02795 47999 03108 10087 20010 30104 40112 52003 70020 91439 222// 00111 555 758// 0/613;",
"02795099999","2010-10-10T21:00:00","4","60.1","24.9833333","6.4","HELSINKI HARMAJA, FI","FM-12","99999","V020","290,1,N,0100,1","22000,1,9,N","050000,1,N,1","+0059,1","+0007,1","10111,1","00,1","0,1,03,1","00,1,+99999,9,99,9","00,99,1,00,1,00,1,99999,9,00,1,00,1","99999,9,10103,1","7,1,014,1,+999,9","+108,9","SYN100AAXX  10211 02795 47999 02910 10059 20007 30103 40111 57014 70000 92039 222// 00108 555 769// 0/510;",
"02795099999","2010-10-11T00:00:00","4","60.1","24.9833333","6.4","HELSINKI HARMAJA, FI","FM-12","99999","V020","290,1,N,0100,1","22000,1,9,N","050000,1,N,1","+0058,1","+0011,1","10100,1","00,1","0,1,06,1","00,1,+99999,9,99,9","00,99,1,00,1,00,1,99999,9,00,1,00,1","99999,9,10092,1","7,1,011,1,+999,9","+107,9","SYN100AAXX  11001 02795 47999 02910 10058 20011 30092 40100 57011 70000 92339 222// 00107 555 772// 0/411;",
"02795099999","2010-10-11T03:00:00","4","60.1","24.9833333","6.4","HELSINKI HARMAJA, FI","FM-12","99999","V020","300,1,N,0090,1","22000,1,9,N","050000,1,N,1","+0055,1","+0012,1","10095,1","00,1","0,1,03,1","00,1,+99999,9,99,9","00,99,1,00,1,00,1,99999,9,00,1,00,1","99999,9,10087,1","7,1,005,1,+999,9","+106,9","SYN100AAXX  11031 02795 47999 03009 10055 20012 30087 40095 57005 70000 90239 222// 00106 555 774// 0/410;",
"02795099999","2010-10-11T09:00:00","4","60.1","24.9833333","6.4","HELSINKI HARMAJA, FI","FM-12","99999","V020","320,1,N,0080,1","22000,1,9,N","045000,1,N,1","+0070,1","+0025,1","10099,1","00,1","0,1,03,1","00,1,+99999,9,99,9","00,99,1,00,1,00,1,99999,9,00,1,00,1","99999,9,10091,1","4,1,000,1,+999,9","+104,9","SYN100AAXX  11091 02795 47983 03208 10070 20025 30091 40099 54001 70000 90839 222// 00104 555 773// 0/211;",
"02795099999","2010-10-11T12:00:00","4","60.1","24.9833333","6.4","HELSINKI HARMAJA, FI","FM-12","99999","V020","290,1,N,0110,1","99999,9,9,N","045000,1,N,1","+0091,1","+0030,1","10092,1","00,1","0,1,06,1",,"05,99,1,00,1,99,9,99999,9,99,9,99,9","99999,9,10084,1","7,1,007,1,+999,9","+105,9","SYN106AAXX  11121 02795 47983 52911 10091 20030 30084 40092 57007 70000 80/// 91139 222// 00105 555 766// 0/011;",
"02795099999","2010-10-11T15:00:00","4","60.1","24.9833333","6.4","HELSINKI HARMAJA, FI","FM-12","99999","V020","300,1,N,0080,1","99999,9,9,N","050000,1,N,1","+0094,1","+0023,1","10078,1","00,1","0,1,03,1",,"05,99,1,00,1,99,9,99999,9,99,9,99,9","99999,9,10070,1","7,1,014,1,+999,9","+104,9","SYN106AAXX  11151 02795 47999 53008 10094 20023 30070 40078 57014 70000 80/// 91439 222// 00104 555 761// 0/611;",
"02795099999","2010-10-11T21:00:00","4","60.1","24.9833333","6.4","HELSINKI HARMAJA, FI","FM-12","99999","V020","280,1,N,0110,1","99999,9,9,N","050000,1,N,1","+0066,1","+0022,1","10038,1","00,1","0,1,03,1",,"08,99,1,01,1,99,9,01750,1,99,9,99,9","99999,9,10030,1","7,1,026,1,+999,9","+103,9","SYN106AAXX  11211 02795 47799 82811 10066 20022 30030 40038 57026 70000 81/// 92039 222// 00103 555 774// 0/011;",
"02795099999","2010-10-12T00:00:00","4","60.1","24.9833333","6.4","HELSINKI HARMAJA, FI","FM-12","99999","V020","290,1,N,0100,1","99999,9,9,N","050000,1,N,1","+0059,1","+0035,1","10016,1","23,1","8,1,06,1",,"08,99,1,08,1,99,9,99999,9,99,9,99,9","99999,9,10008,1","7,1,022,1,+999,9","+102,9","SYN106AAXX  12001 02795 47999 82910 10059 20035 30008 40016 57022 72385 88/// 92339 222// 00102 555 785// 0/612;",
"02795099999","2010-10-12T03:00:00","4","60.1","24.9833333","6.4","HELSINKI HARMAJA, FI","FM-12","99999","V020","280,1,N,0100,1","99999,9,9,N","050000,1,N,1","+0062,1","+0035,1","09989,1","81,1","8,1,03,1",,"07,99,1,05,1,99,9,00800,1,99,9,99,9","99999,9,09981,1","7,1,026,1,+999,9","+101,9","SYN106AAXX  12031 02795 47599 72810 10062 20035 39981 49989 57026 78185 85/// 90239 222// 00101 555 783// 0/011;",
"02795099999","2010-10-12T09:00:00","4","60.1","24.9833333","6.4","HELSINKI HARMAJA, FI","FM-12","99999","V020","330,1,N,0130,1","22000,1,9,N","045000,1,N,1","+0044,1","-0011,1","10029,1","00,1","8,1,03,1","00,1,+99999,9,99,9","00,99,1,00,1,00,1,99999,9,00,1,00,1","99999,9,10021,1","2,1,023,1,+999,9","+096,9","SYN100AAXX  12091 02795 47983 03313 10044 21011 30021 40029 52023 70085 90839 222// 00096 555 768// 0/216;",
"02795099999","2010-10-12T12:00:00","4","60.1","24.9833333","6.4","HELSINKI HARMAJA, FI","FM-12","99999","V020","330,1,N,0130,1","99999,9,9,N","050000,1,N,1","+0049,1","-0013,1","10056,1","00,1","8,1,06,1",,"07,99,1,07,1,99,9,01250,1,99,9,99,9","99999,9,10048,1","2,1,027,1,+999,9","+094,9","SYN106AAXX  12121 02795 47699 73313 10049 21013 30048 40056 52027 70085 87/// 91139 222// 00094 555 764// 0/616;",
"02795099999","2010-10-12T15:00:00","4","60.1","24.9833333","6.4","HELSINKI HARMAJA, FI","FM-12","99999","V020","340,1,N,0110,1","22000,1,9,N","050000,1,N,1","+0047,1","-0016,1","10084,1","00,1","0,1,03,1","00,1,+99999,9,99,9","00,99,1,00,1,00,1,99999,9,00,1,00,1","99999,9,10076,1","2,1,028,1,+999,9","+088,9","SYN100AAXX  12151 02795 47999 03411 10047 21016 30076 40084 52028 70000 91439 222// 00088 555 764// 0/413;",
"02795099999","2010-10-12T21:00:00","4","60.1","24.9833333","6.4","HELSINKI HARMAJA, FI","FM-12","99999","V020","310,1,N,0090,1","22000,1,9,N","050000,1,N,1","+0036,1","-0014,1","10102,1","00,1","0,1,03,1",,"01,99,1,01,1,99,9,01750,1,99,9,99,9","99999,9,10094,1","2,1,003,1,+999,9","+087,9","SYN106AAXX  12211 02795 47799 13109 10036 21014 30094 40102 52003 70000 81/// 92039 222// 00087 555 770// 0/210;",
"02795099999","2010-10-13T00:00:00","4","60.1","24.9833333","6.4","HELSINKI HARMAJA, FI","FM-12","99999","V020","290,1,N,0090,1","22000,1,9,N","050000,1,N,1","+0035,1","-0003,1","10094,1","00,1","0,1,06,1",,"01,99,1,01,1,99,9,02250,1,99,9,99,9","99999,9,10087,1","7,1,007,1,+999,9","+087,9","SYN106AAXX  13001 02795 47899 12909 10035 21003 30087 40094 57007 70000 81/// 92339 222// 00087 555 776// 0/310;",
"02795099999","2010-10-13T03:00:00","4","60.1","24.9833333","6.4","HELSINKI HARMAJA, FI","FM-12","99999","V020","300,1,N,0080,1","99999,9,9,N","050000,1,N,1","+0036,1","+0011,1","10086,1","00,1","0,1,03,1",,"05,99,1,00,1,99,9,99999,9,99,9,99,9","99999,9,10078,1","7,1,009,1,+999,9","+087,9","SYN106AAXX  13031 02795 47999 53008 10036 20011 30078 40086 57009 70000 80/// 90239 222// 00087 555 784// 0/609;",
"02795099999","2010-10-13T09:00:00","4","60.1","24.9833333","6.4","HELSINKI HARMAJA, FI","FM-12","99999","V020","320,1,N,0090,1","22000,1,9,N","045000,1,N,1","+0050,1","+0009,1","10078,1","00,1","0,1,03,1","00,1,+99999,9,99,9","00,99,1,00,1,00,1,99999,9,00,1,00,1","99999,9,10070,1","4,1,000,1,+999,9","+083,9","SYN100AAXX  13091 02795 47983 03209 10050 20009 30070 40078 54001 70000 90839 222// 00083 555 775// 0/609;",
"02795099999","2010-10-13T12:00:00","4","60.1","24.9833333","6.4","HELSINKI HARMAJA, FI","FM-12","99999","V020","310,1,N,0080,1","22000,1,9,N","045000,1,N,1","+0072,1","+0001,1","10076,1","00,1","0,1,06,1","00,1,+99999,9,99,9","00,99,1,00,1,00,1,99999,9,00,1,00,1","99999,9,10068,1","7,1,003,1,+999,9","+084,9","SYN100AAXX  13121 02795 47983 03108 10072 20001 30068 40076 57003 70000 91139 222// 00084 555 760// 0/509;",
"02795099999","2010-10-13T15:00:00","4","60.1","24.9833333","6.4","HELSINKI HARMAJA, FI","FM-12","99999","V020","310,1,N,0070,1","22000,1,9,N","050000,1,N,1","+0071,1","+0009,1","10076,1","00,1","0,1,03,1","00,1,+99999,9,99,9","00,99,1,00,1,00,1,99999,9,00,1,00,1","99999,9,10068,1","4,1,000,1,+999,9","+084,9","SYN100AAXX  13151 02795 47999 03107 10071 20009 30068 40076 54001 70000 91439 222// 00084 555 765// 0/409;",
"02795099999","2010-10-13T21:00:00","4","60.1","24.9833333","6.4","HELSINKI HARMAJA, FI","FM-12","99999","V020","300,1,N,0060,1","22000,1,9,N","050000,1,N,1","+0043,1","+0010,1","10068,1","00,1","0,1,03,1","00,1,+99999,9,99,9","00,99,1,00,1,00,1,99999,9,00,1,00,1","99999,9,10060,1","7,1,011,1,+999,9","+083,9","SYN100AAXX  13211 02795 47999 03006 10043 20010 30060 40068 57011 70000 92039 222// 00083 555 780// 0/207;",
"02795099999","2010-10-14T00:00:00","4","60.1","24.9833333","6.4","HELSINKI HARMAJA, FI","FM-12","99999","V020","280,1,N,0060,1","22000,1,9,N","050000,1,N,1","+0035,1","+0013,1","10050,1","00,1","0,1,06,1","00,1,+99999,9,99,9","00,99,1,00,1,00,1,99999,9,00,1,00,1","99999,9,10042,1","7,1,018,1,+999,9","+082,9","SYN100AAXX  14001 02795 47999 02806 10035 20013 30042 40050 57018 70000 92339 222// 00082 555 785// 0/007;",
"02795099999","2010-10-14T03:00:00","4","60.1","24.9833333","6.4","HELSINKI HARMAJA, FI","FM-12","99999","V020","250,1,N,0070,1","22000,1,9,N","050000,1,N,1","+0055,1","+0016,1","10020,1","00,1","0,1,03,1",,"03,99,1,01,1,99,9,99999,9,99,9,99,9","99999,9,10012,1","7,1,030,1,+999,9","+082,9","SYN106AAXX  14031 02795 47999 32507 10055 20016 30012 40020 57030 70000 81/// 90239 222// 00082 555 776// 0/007;",
"02795099999","2010-10-14T09:00:00","4","60.1","24.9833333","6.4","HELSINKI HARMAJA, FI","FM-12","99999","V020","250,1,N,0110,1","99999,9,9,N","009000,1,N,1","+0068,1","+0051,1","09928,1","61,1","8,1,03,1",,"08,99,1,08,1,99,9,00450,1,99,9,99,9","99999,9,09920,1","7,1,045,1,+999,9","+084,9","SYN106AAXX  14091 02795 47459 82511 10068 20051 39920 49928 57045 76186 88/// 90839 222// 00084 555 789// 0/112;",
"02795099999","2010-10-14T12:00:00","4","60.1","24.9833333","6.4","HELSINKI HARMAJA, FI","FM-12","99999","V020","270,1,N,0090,1","99999,9,9,N","050000,1,N,1","+0064,1","+0033,1","09906,1","00,1",,,"07,99,1,01,1,99,9,01250,1,99,9,99,9","99999,9,09898,1","7,1,022,1,+999,9","+084,9","SYN106AAXX  14121 02795 47699 72709 10064 20033 39898 49906 57022 700// 81/// 91139 222// 00084 555 781// 0/612;",
"02795099999","2010-10-14T15:00:00","4","60.1","24.9833333","6.4","HELSINKI HARMAJA, FI","FM-12","99999","V020","250,1,N,0100,1","22000,1,9,N","050000,1,N,1","+0059,1","+0011,1","09874,1","00,1","8,1,03,1","00,1,+99999,9,99,9","00,99,1,00,1,00,1,99999,9,00,1,00,1","99999,9,09866,1","7,1,032,1,+999,9","+083,9","SYN100AAXX  14151 02795 47999 02510 10059 20011 39866 49874 57032 70086 91439 222// 00083 555 771// 0/312;",
"02795099999","2010-10-14T21:00:00","4","60.1","24.9833333","6.4","HELSINKI HARMAJA, FI","FM-12","99999","V020","330,1,N,0120,1","99999,9,9,N","050000,1,N,1","+0032,1","+0015,1","09871,1","22,1","8,1,03,1",,"07,99,1,07,1,99,9,00450,1,99,9,99,9","99999,9,09863,1","2,1,026,1,+999,9","+078,9","SYN106AAXX  14211 02795 47499 73312 10032 20015 39863 49871 52026 72286 87/// 92039 222// 00078 555 789// 0/213;",
"02795099999","2010-10-15T00:00:00","4","60.1","24.9833333","6.4","HELSINKI HARMAJA, FI","FM-12","99999","V020","330,1,N,0140,1","99999,9,9,N","016000,1,N,1","+0025,1","+0012,1","09891,1","52,1","8,1,06,1",,"08,99,1,08,1,99,9,00450,1,99,9,99,9","99999,9,09883,1","2,1,020,1,+999,9","+076,9","SYN106AAXX  15001 02795 47466 83314 10025 20012 39883 49891 52020 75286 88/// 92339 222// 00076 555 791// 0/115;",
"02795099999","2010-10-15T03:00:00","4","60.1","24.9833333","6.4","HELSINKI HARMAJA, FI","FM-12","99999","V020","330,1,N,0150,1","99999,9,9,N","050000,1,N,1","+0024,1","-0007,1","09920,1","21,1","8,1,03,1",,"07,99,1,03,1,99,9,00800,1,99,9,99,9","99999,9,09912,1","2,1,029,1,+999,9","+075,9","SYN106AAXX  15031 02795 47599 73315 10024 21007 39912 49920 52029 72187 83/// 90239 222// 00075 555 780// 0/216;",
"02795099999","2010-10-15T09:00:00","4","60.1","24.9833333","6.4","HELSINKI HARMAJA, FI","FM-12","99999","V020","340,1,N,0090,1","99999,9,9,N","050000,1,N,1","+0027,1","-0030,1","09977,1","00,1","8,1,03,1",,"08,99,1,08,1,99,9,00800,1,99,9,99,9","99999,9,09970,1","2,1,029,1,+999,9","+070,9","SYN106AAXX  15091 02795 47599 83409 10027 21030 39970 49977 52029 70084 88/// 90839 222// 00070 555 766// 0/515;",
"02795099999","2010-10-15T12:00:00","4","60.1","24.9833333","6.4","HELSINKI HARMAJA, FI","FM-12","99999","V020","310,1,N,0100,1","99999,9,9,N","050000,1,N,1","+0026,1","-0003,1","09996,1","81,1","8,1,06,1",,"05,99,1,05,1,99,9,00800,1,99,9,99,9","99999,9,09988,1","2,1,019,1,+999,9","+067,9","SYN106AAXX  15121 02795 47599 53110 10026 21003 39988 49996 52019 78187 85/// 91139 222// 00067 555 781// 0/311;",
"02795099999","2010-10-15T15:00:00","4","60.1","24.9833333","6.4","HELSINKI HARMAJA, FI","FM-12","99999","V020","310,1,N,0090,1","99999,9,9,N","050000,1,N,1","+0035,1","-0005,1","10014,1","00,1","8,1,03,1",,"05,99,1,05,1,99,9,01250,1,99,9,99,9","99999,9,10006,1","2,1,018,1,+999,9","+069,9","SYN106AAXX  15151 02795 47699 53109 10035 21005 30006 40014 52018 70082 85/// 91439 222// 00069 555 775// 0/411;",
"02795099999","2010-10-15T21:00:00","4","60.1","24.9833333","6.4","HELSINKI HARMAJA, FI","FM-12","99999","V020","310,1,N,0080,1","99999,9,9,N","050000,1,N,1","+0027,1","-0003,1","10050,1","00,1","0,1,03,1",,"08,99,1,08,1,99,9,01250,1,99,9,99,9","99999,9,10042,1","2,1,017,1,+999,9","+068,9","SYN106AAXX  15211 02795 47699 83108 10027 21003 30042 40050 52017 70000 88/// 92039 222// 00068 555 781// 0/008;",
"02795099999","2010-10-16T00:00:00","4","60.1","24.9833333","6.4","HELSINKI HARMAJA, FI","FM-12","99999","V020","310,1,N,0070,1","99999,9,9,N","050000,1,N,1","+0023,1","-0005,1","10066,1","00,1","0,1,06,1",,"07,99,1,07,1,99,9,00450,1,99,9,99,9","99999,9,10058,1","2,1,017,1,+999,9","+068,9","SYN106AAXX  16001 02795 47499 73107 10023 21005 30058 40066 52017 70000 87/// 92339 222// 00068 555 782// 0/208;",
"02795099999","2010-10-16T03:00:00","4","60.1","24.9833333","6.4","HELSINKI HARMAJA, FI","FM-12","99999","V020","310,1,N,0080,1","99999,9,9,N","050000,1,N,1","+0020,1","-0003,1","10083,1","00,1","0,1,03,1",,"08,99,1,01,1,99,9,01750,1,99,9,99,9","99999,9,10075,1","2,1,016,1,+999,9","+068,9","SYN106AAXX  16031 02795 47799 83108 10020 21003 30075 40083 52016 70000 81/// 90239 222// 00068 555 785// 0/308;",
"02795099999","2010-10-16T09:00:00","4","60.1","24.9833333","6.4","HELSINKI HARMAJA, FI","FM-12","99999","V020","320,1,N,0070,1","99999,9,9,N","050000,1,N,1","+0026,1","-0018,1","10126,1","21,1","8,1,03,1",,"07,99,1,07,1,99,9,01250,1,99,9,99,9","99999,9,10118,1","2,1,025,1,+999,9","+068,9","SYN106AAXX  16091 02795 47699 73207 10026 21018 30118 40126 52025 72184 87/// 90839 222// 00068 555 772// 0/508;",
"02795099999","2010-10-16T12:00:00","4","60.1","24.9833333","6.4","HELSINKI HARMAJA, FI","FM-12","99999","V020","320,1,N,0040,1","99999,9,9,N","050000,1,N,1","+0037,1","-0024,1","10137,1","00,1","8,1,06,1",,"08,99,1,08,1,99,9,01250,1,99,9,99,9","99999,9,10129,1","2,1,011,1,+999,9","+068,9","SYN106AAXX  16121 02795 47699 83204 10037 21024 30129 40137 52011 70084 88/// 91139 222// 00068 555 764// 0/508;",
"02795099999","2010-10-16T15:00:00","4","60.1","24.9833333","6.4","HELSINKI HARMAJA, FI","FM-12","99999","V020","320,1,N,0040,1","99999,9,9,N","050000,1,N,1","+0038,1","-0025,1","10150,1","21,1","8,1,03,1",,"07,99,1,07,1,99,9,01250,1,99,9,99,9","99999,9,10142,1","2,1,012,1,+999,9","+068,9","SYN106AAXX  16151 02795 47699 73204 10038 21025 30142 40150 52012 72187 87/// 91439 222// 00068 555 764// 0/507;",
"02795099999","2010-10-16T21:00:00","4","60.1","24.9833333","6.4","HELSINKI HARMAJA, FI","FM-12","99999","V020","290,1,N,0050,1","99999,9,9,N","050000,1,N,1","+0029,1","-0010,1","10177,1","21,1","8,1,03,1",,"07,99,1,07,1,99,9,00450,1,99,9,99,9","99999,9,10169,1","2,1,012,1,+999,9","+067,9","SYN106AAXX  16211 02795 47499 72905 10029 21010 30169 40177 52012 72187 87/// 92039 222// 00067 555 776// 0/108;",
"02795099999","2010-10-17T00:00:00","4","60.1","24.9833333","6.4","HELSINKI HARMAJA, FI","FM-12","99999","V020","290,1,N,0050,1","99999,9,9,N","050000,1,N,1","+0027,1","-0004,1","10181,1","00,1","8,1,06,1",,"07,99,1,07,1,99,9,02250,1,99,9,99,9","99999,9,10173,1","2,1,004,1,+999,9","+065,9","SYN106AAXX  17001 02795 47899 72905 10027 21004 30173 40181 52004 70087 87/// 92339 222// 00065 555 780// 0/006;",
"02795099999","2010-10-17T03:00:00","4","60.1","24.9833333","6.4","HELSINKI HARMAJA, FI","FM-12","99999","V020","250,1,N,0060,1","99999,9,9,N","050000,1,N,1","+0035,1","+0001,1","10182,1","00,1","0,1,03,1",,"05,99,1,05,1,99,9,01750,1,99,9,99,9","99999,9,10174,1","4,1,000,1,+999,9","+065,9","SYN106AAXX  17031 02795 47799 52506 10035 20001 30174 40182 54001 70000 85/// 90239 222// 00065 555 778// 0/007;",
"02795099999","2010-10-17T09:00:00","4","60.1","24.9833333","6.4","HELSINKI HARMAJA, FI","FM-12","99999","V020","260,1,N,0050,1","99999,9,9,N","050000,1,N,1","+0057,1","-0001,1","10191,1","00,1","0,1,03,1",,"07,99,1,07,1,99,9,02250,1,99,9,99,9","99999,9,10183,1","2,1,004,1,+999,9","+063,9","SYN106AAXX  17091 02795 47899 72605 10057 21001 30183 40191 52004 70000 87/// 90839 222// 00063 555 767// 0/106;",
"02795099999","2010-10-17T12:00:00","4","60.1","24.9833333","6.4","HELSINKI HARMAJA, FI","FM-12","99999","V020","240,1,N,0070,1","99999,9,9,N","045000,1,N,1","+0070,1","+0000,1","10191,1","00,1","0,1,06,1",,"07,99,1,07,1,99,9,02250,1,99,9,99,9","99999,9,10183,1","4,1,000,1,+999,9","+064,9","SYN106AAXX  17121 02795 47883 72407 10070 20000 30183 40191 54000 70000 87/// 91139 222// 00064 555 761// 0/008;",
"02795099999","2010-10-17T15:00:00","4","60.1","24.9833333","6.4","HELSINKI HARMAJA, FI","FM-12","99999","V020","240,1,N,0100,1","99999,9,9,N","050000,1,N,1","+0072,1","+0004,1","10183,1","00,1","0,1,03,1",,"05,99,1,05,1,99,9,01750,1,99,9,99,9","99999,9,10175,1","7,1,008,1,+999,9","+066,9","SYN106AAXX  17151 02795 47799 52410 10072 20004 30175 40183 57008 70000 85/// 91439 222// 00066 555 762// 0/110;",
"02795099999","2010-10-17T21:00:00","4","60.1","24.9833333","6.4","HELSINKI HARMAJA, FI","FM-12","99999","V020","250,1,N,0080,1","99999,9,9,N","014000,1,N,1","+0063,1","+0041,1","10182,1","81,1","8,1,03,1",,"07,99,1,07,1,99,9,00450,1,99,9,99,9","99999,9,10174,1","7,1,005,1,+999,9","+067,9","SYN106AAXX  17211 02795 47464 72508 10063 20041 30174 40182 57005 78186 87/// 92039 222// 00067 555 785// 0/512;",
"02795099999","2010-10-18T00:00:00","4","60.1","24.9833333","6.4","HELSINKI HARMAJA, FI","FM-12","99999","V020","240,1,N,0070,1","22000,1,9,N","050000,1,N,1","+0071,1","+0032,1","10176,1","00,1","8,1,06,1","00,1,+99999,9,99,9","00,99,1,00,1,00,1,99999,9,00,1,00,1","99999,9,10168,1","7,1,005,1,+999,9","+070,9","SYN100AAXX  18001 02795 47999 02407 10071 20032 30168 40176 57005 70086 92339 222// 00070 555 776// 0/510;",
"02795099999","2010-10-18T03:00:00","4","60.1","24.9833333","6.4","HELSINKI HARMAJA, FI","FM-12","99999","V020","220,1,N,0100,1","22000,1,9,N","045000,1,N,1","+0074,1","+0057,1","10166,1","00,1","0,1,03,1",,"03,99,1,03,1,99,9,00450,1,99,9,99,9","99999,9,10158,1","7,1,010,1,+999,9","+070,9","SYN106AAXX  18031 02795 47483 32210 10074 20057 30158 40166 57010 70000 83/// 90239 222// 00070 555 789// 0/111;",
"02795099999","2010-10-18T09:00:00","4","60.1","24.9833333","6.4","HELSINKI HARMAJA, FI","FM-12","99999","V020","240,1,N,0090,1","22000,1,9,N","040000,1,N,1","+0088,1","+0051,1","10170,1","00,1","0,1,03,1","00,1,+99999,9,99,9","00,99,1,00,1,00,1,99999,9,00,1,00,1","99999,9,10163,1","2,1,005,1,+999,9","+074,9","SYN100AAXX  18091 02795 47982 02409 10088 20051 30163 40170 52005 70000 90839 222// 00074 555 778// 0/510;",
"02795099999","2010-10-18T12:00:00","4","60.1","24.9833333","6.4","HELSINKI HARMAJA, FI","FM-12","99999","V020","230,1,N,0130,1","22000,1,9,N","040000,1,N,1","+0086,1","+0037,1","10166,1","00,1","0,1,06,1","00,1,+99999,9,99,9","00,99,1,00,1,00,1,99999,9,00,1,00,1","99999,9,10158,1","7,1,004,1,+999,9","+076,9","SYN100AAXX  18121 02795 47982 02313 10086 20037 30158 40166 57004 70000 91139 222// 00076 555 771// 0/014;",
"02795099999","2010-10-18T15:00:00","4","60.1","24.9833333","6.4","HELSINKI HARMAJA, FI","FM-12","99999","V020","210,1,N,0120,1","99999,9,9,N","035000,1,N,1","+0078,1","+0035,1","10154,1","81,1","8,1,03,1",,"07,99,1,07,1,99,9,00800,1,99,9,99,9","99999,9,10146,1","7,1,012,1,+999,9","+077,9","SYN106AAXX  18151 02795 47581 72112 10078 20035 30146 40154 57012 78186 87/// 91439 222// 00077 555 774// 0/015;",
"02795099999","2010-10-19T12:00:00","4","60.1","24.9833333","6.4","HELSINKI HARMAJA, FI","FM-12","99999","V020","180,1,N,0100,1","99999,9,9,N","015000,1,N,1","+0047,1","+0017,1","10086,1","00,1","0,1,06,1",,"05,99,1,01,1,99,9,00450,1,99,9,99,9","99999,9,10078,1","7,1,011,1,+999,9","+072,9","SYN106AAXX  19121 02795 47465 51810 10047 20017 30078 40086 57011 70000 81/// 91139 222// 00072 555 780// 0/613;",
"02795099999","2010-10-19T15:00:00","4","60.1","24.9833333","6.4","HELSINKI HARMAJA, FI","FM-12","99999","V020","180,1,N,0090,1","99999,9,9,N","009000,1,N,1","+0053,1","+0033,1","10065,1","61,1","6,1,03,1",,"08,99,1,08,1,99,9,00450,1,99,9,99,9","99999,9,10058,1","7,1,021,1,+999,9","+071,9","SYN106AAXX  19151 02795 47459 81809 10053 20033 30058 40065 57021 76165 88/// 91439 222// 00071 555 787// 0/511;",
"02795099999","2010-10-19T21:00:00","4","60.1","24.9833333","6.4","HELSINKI HARMAJA, FI","FM-12","99999","V020","180,1,N,0090,1","99999,9,9,N","012000,1,N,1","+0063,1","+0047,1","10040,1","00,1","0,1,03,1",,"07,99,1,07,1,99,9,00250,1,99,9,99,9","99999,9,10032,1","7,1,012,1,+999,9","+070,9","SYN106AAXX  19211 02795 47362 71809 10063 20047 30032 40040 57012 70000 87/// 92039 222// 00070 555 790// 0/311;",
"02795099999","2010-10-20T00:00:00","4","60.1","24.9833333","6.4","HELSINKI HARMAJA, FI","FM-12","99999","V020","180,1,N,0100,1","99999,9,9,N","015000,1,N,1","+0067,1","+0050,1","10027,1","00,1","0,1,06,1",,"07,99,1,07,1,99,9,00450,1,99,9,99,9","99999,9,10019,1","7,1,013,1,+999,9","+070,9","SYN106AAXX  20001 02795 47465 71810 10067 20050 30019 40027 57013 70000 87/// 92339 222// 00070 555 789// 0/310;",
"02795099999","2010-10-20T03:00:00","4","60.1","24.9833333","6.4","HELSINKI HARMAJA, FI","FM-12","99999","V020","170,1,N,0090,1","99999,9,9,N","019000,1,N,1","+0070,1","+0053,1","10017,1","00,1","0,1,03,1",,"07,99,1,01,1,99,9,00450,1,99,9,99,9","99999,9,10009,1","7,1,010,1,+999,9","+070,9","SYN106AAXX  20031 02795 47469 71709 10070 20053 30009 40017 57010 70000 81/// 90239 222// 00070 555 789// 0/511;",
"02795099999","2010-10-20T09:00:00","4","60.1","24.9833333","6.4","HELSINKI HARMAJA, FI","FM-12","99999","V020","180,1,N,0080,1","99999,9,9,N","013000,1,N,1","+0071,1","+0060,1","10008,1","22,1","8,1,03,1",,"08,99,1,08,1,99,9,00250,1,99,9,99,9","99999,9,10000,1","7,1,003,1,+999,9","+070,9","SYN106AAXX  20091 02795 47363 81808 10071 20060 30000 40008 57003 72285 88/// 90839 222// 00070 555 793// 0/510;",
"02795099999","2010-10-20T12:00:00","4","60.1","24.9833333","6.4","HELSINKI HARMAJA, FI","FM-12","99999","V020","170,1,N,0060,1","99999,9,9,N","015000,1,N,1","+0068,1","+0057,1","09996,1","52,1","8,1,06,1",,"07,99,1,07,1,99,9,00250,1,99,9,99,9","99999,9,09988,1","7,1,012,1,+999,9","+070,9","SYN106AAXX  20121 02795 47365 71706 10068 20057 39988 49996 57012 75285 87/// 91139 222// 00070 555 793// 0/608;",
"02795099999","2010-10-20T15:00:00","4","60.1","24.9833333","6.4","HELSINKI HARMAJA, FI","FM-12","99999","V020","160,1,N,0040,1","99999,9,9,N","018000,1,N,1","+0066,1","+0055,1","09985,1","61,1","6,1,03,1",,"07,99,1,07,1,99,9,00250,1,99,9,99,9","99999,9,09977,1","7,1,011,1,+999,9","+070,9","SYN106AAXX  20151 02795 47368 71604 10066 20055 39977 49985 57011 76165 87/// 91439 222// 00070 555 793// 0/606;",
"02795099999","2010-10-20T21:00:00","4","60.1","24.9833333","6.4","HELSINKI HARMAJA, FI","FM-12","99999","V020","320,1,N,0020,1","99999,9,9,N","010000,1,N,1","+0062,1","+0056,1","09966,1","61,1","6,1,03,1",,"07,99,1,07,1,99,9,00075,1,99,9,99,9","99999,9,09958,1","7,1,008,1,+999,9","+070,9","SYN106AAXX  20211 02795 47160 73202 10062 20056 39958 49966 57008 76165 87/// 92039 222// 00070 555 796// 0/202;",
"02795099999","2010-10-21T00:00:00","4","60.1","24.9833333","6.4","HELSINKI HARMAJA, FI","FM-12","99999","V020","999,9,9,9999,9","99999,9,9,N","011000,1,N,1","+0055,1","+0045,1","09961,1","61,1","6,1,06,1",,"08,99,1,08,1,99,9,00800,1,99,9,99,9","99999,9,09953,1","7,1,005,1,+999,9","+070,9","SYN100AAXX  21001 02795 47561 800// 10055 20045 39953 49961 57005 76165 88/// 92339 222// 00070 555 793//;",
"02795099999","2010-10-21T03:00:00","4","60.1","24.9833333","6.4","HELSINKI HARMAJA, FI","FM-12","99999","V020","160,1,N,0020,1","99999,9,9,N","011000,1,N,1","+0056,1","+0047,1","09955,1","61,1","6,1,03,1",,"08,99,1,08,1,99,9,00450,1,99,9,99,9","99999,9,09947,1","7,1,006,1,+999,9","+069,9","SYN100AAXX  21031 02795 47461 81602 10056 20047 39947 49955 57006 76165 88/// 90239 222// 00069 555 794//;",
"02795099999","2010-10-21T09:00:00","4","60.1","24.9833333","6.4","HELSINKI HARMAJA, FI","FM-12","99999","V020","340,1,N,0060,1","99999,9,9,N","045000,1,N,1","+0050,1","+0040,1","09963,1","22,1","7,1,03,1",,"07,99,1,07,1,99,9,00150,1,99,9,99,9","99999,9,09955,1","2,1,008,1,+999,9","+069,9","SYN106AAXX  21091 02795 47283 73406 10050 20040 39955 49963 52008 72276 87/// 90839 222// 00069 555 793// 0/308;",
"02795099999","2010-10-21T12:00:00","4","60.1","24.9833333","6.4","HELSINKI HARMAJA, FI","FM-12","99999","V020","320,1,N,0070,1","99999,9,9,N","030000,1,N,1","+0037,1","+0028,1","09972,1","22,1","8,1,06,1",,"08,99,1,08,1,99,9,00150,1,99,9,99,9","99999,9,09964,1","2,1,009,1,+999,9","+069,9","SYN106AAXX  21121 02795 47280 83207 10037 20028 39964 49972 52009 72287 88/// 91139 222// 00069 555 794// 0/207;",
"02795099999","2010-10-21T15:00:00","4","60.1","24.9833333","6.4","HELSINKI HARMAJA, FI","FM-12","99999","V020","330,1,N,0100,1","99999,9,9,N","050000,1,N,1","+0023,1","+0003,1","09987,1","41,1","8,1,03,1",,"08,99,1,08,1,99,9,00450,1,99,9,99,9","99999,9,09979,1","2,1,014,1,+999,9","+069,9","SYN106AAXX  21151 02795 47499 83310 10023 20003 39979 49987 52014 74186 88/// 91439 222// 00069 555 787// 0/010;",
"02795099999","2010-10-21T21:00:00","4","60.1","24.9833333","6.4","HELSINKI HARMAJA, FI","FM-12","99999","V020","290,1,N,0080,1","22000,1,9,N","050000,1,N,1","+0019,1","-0011,1","10007,1","00,1","0,1,03,1",,"01,99,1,01,1,99,9,99999,9,99,9,99,9","99999,9,09999,1","2,1,010,1,+999,9","+066,9","SYN106AAXX  21211 02795 47999 12908 10019 21011 39999 40007 52010 70000 81/// 92039 222// 00066 555 780// 0/509;",
"02795099999","2010-10-22T00:00:00","4","60.1","24.9833333","6.4","HELSINKI HARMAJA, FI","FM-12","99999","V020","270,1,N,0070,1","22000,1,9,N","050000,1,N,1","+0016,1","-0022,1","10008,1","00,1","0,1,06,1",,"01,99,1,01,1,99,9,99999,9,99,9,99,9","99999,9,10000,1","4,1,000,1,+999,9","+066,9","SYN106AAXX  22001 02795 47999 12707 10016 21022 30000 40008 54001 70000 81/// 92339 222// 00066 555 776// 0/408;",
"02795099999","2010-10-22T03:00:00","4","60.1","24.9833333","6.4","HELSINKI HARMAJA, FI","FM-12","99999","V020","300,1,N,0010,1","22000,1,9,N","050000,1,N,1","+0012,1","-0029,1","09993,1","00,1","0,1,03,1",,"01,99,1,00,1,99,9,99999,9,99,9,99,9","99999,9,09985,1","7,1,015,1,+999,9","+065,9","SYN106AAXX  22031 02795 47999 13001 10012 21029 39985 49993 57015 70000 80/// 90239 222// 00065 555 774// 0/507;",
"02795099999","2010-10-22T09:00:00","4","60.1","24.9833333","6.4","HELSINKI HARMAJA, FI","FM-12","99999","V020","140,1,N,0100,1","99999,9,9,N","050000,1,N,1","+0037,1","-0010,1","09953,1","00,1","3,1,03,1",,"07,99,1,07,1,99,9,02250,1,99,9,99,9","99999,9,09945,1","7,1,018,1,+999,9","+066,9","SYN106AAXX  22091 02795 47899 71410 10037 21010 39945 49953 57018 70020 87/// 90839 222// 00066 555 771// 0/011;",
"02795099999","2010-10-22T12:00:00","4","60.1","24.9833333","6.4","HELSINKI HARMAJA, FI","FM-12","99999","V020","090,1,N,0100,1","99999,9,9,N","007000,1,N,1","+0026,1","+0011,1","09929,1","40,1","7,1,06,1",,"07,99,1,07,1,99,9,00250,1,99,9,99,9","99999,9,09922,1","7,1,023,1,+999,9","+065,9","SYN106AAXX  22121 02795 47357 70910 10026 20011 39922 49929 57023 74076 87/// 91139 222// 00065 555 790// 0/411;",
"02795099999","2010-10-22T15:00:00","4","60.1","24.9833333","6.4","HELSINKI HARMAJA, FI","FM-12","99999","V020","020,1,N,0070,1","99999,9,9,N","026000,1,N,1","+0022,1","+0009,1","09941,1","51,1","8,1,03,1",,"07,99,1,07,1,99,9,00800,1,99,9,99,9","99999,9,09933,1","2,1,012,1,+999,9","+065,9","SYN106AAXX  22151 02795 47576 70207 10022 20009 39933 49941 52012 75187 87/// 91439 222// 00065 555 791// 0/512;",
"02795099999","2010-10-22T21:00:00","4","60.1","24.9833333","6.4","HELSINKI HARMAJA, FI","FM-12","99999","V020","270,1,N,0050,1","99999,9,9,N","050000,1,N,1","+0019,1","-0009,1","10002,1","00,1","0,1,03,1",,"07,99,1,01,1,99,9,01250,1,99,9,99,9","99999,9,09994,1","2,1,020,1,+999,9","+074,9","SYN106AAXX  22211 02795 47699 72705 10019 21009 39994 40002 52020 70000 81/// 92039 222// 00074 555 782// 0/608;",
"02795099999","2010-10-23T00:00:00","4","60.1","24.9833333","6.4","HELSINKI HARMAJA, FI","FM-12","99999","V020","260,1,N,0080,1","22000,1,9,N","050000,1,N,1","+0033,1","-0015,1","10002,1","00,1","0,1,06,1","00,1,+99999,9,99,9","00,99,1,00,1,00,1,99999,9,00,1,00,1","99999,9,09994,1","4,1,000,1,+999,9","+073,9","SYN100AAXX  23001 02795 47999 02608 10033 21015 39994 40002 54000 70000 92339 222// 00073 555 771// 0/209;",
"02795099999","2010-10-23T03:00:00","4","60.1","24.9833333","6.4","HELSINKI HARMAJA, FI","FM-12","99999","V020","250,1,N,0120,1","99999,9,9,N","050000,1,N,1","+0042,1","-0006,1","09997,1","00,1","0,1,03,1",,"07,99,1,00,1,99,9,99999,9,99,9,99,9","99999,9,09990,1","7,1,004,1,+999,9","+073,9","SYN106AAXX  23031 02795 47999 72512 10042 21006 39990 49997 57004 70000 80/// 90239 222// 00073 555 771// 0/012;",
"02795099999","2010-10-23T09:00:00","4","60.1","24.9833333","6.4","HELSINKI HARMAJA, FI","FM-12","99999","V020","250,1,N,0110,1","22000,1,9,N","035000,1,N,1","+0064,1","+0024,1","09999,1","00,1","0,1,03,1","00,1,+99999,9,99,9","00,99,1,00,1,00,1,99999,9,00,1,00,1","99999,9,09992,1","2,1,004,1,+999,9","+071,9","SYN100AAXX  23091 02795 47981 02511 10064 20024 39992 49999 52004 70000 90839 222// 00071 555 775// 0/412;",
"02795099999","2010-10-23T12:00:00","4","60.1","24.9833333","6.4","HELSINKI HARMAJA, FI","FM-12","99999","V020","250,1,N,0110,1","22000,1,9,N","035000,1,N,1","+0070,1","+0022,1","10006,1","00,1","0,1,06,1","00,1,+99999,9,99,9","00,99,1,00,1,00,1,99999,9,00,1,00,1","99999,9,09998,1","2,1,006,1,+999,9","+071,9","SYN100AAXX  23121 02795 47981 02511 10070 20022 39998 40006 52006 70000 91139 222// 00071 555 771// 0/212;",
"02795099999","2010-10-23T15:00:00","4","60.1","24.9833333","6.4","HELSINKI HARMAJA, FI","FM-12","99999","V020","250,1,N,0080,1","22000,1,9,N","050000,1,N,1","+0063,1","+0031,1","10012,1","00,1","0,1,03,1","00,1,+99999,9,99,9","00,99,1,00,1,00,1,99999,9,00,1,00,1","99999,9,10004,1","2,1,006,1,+999,9","+069,9","SYN100AAXX  23151 02795 47999 02508 10063 20031 30004 40012 52006 70000 91439 222// 00069 555 780// 0/611;",
"02795099999","2010-10-23T21:00:00","4","60.1","24.9833333","6.4","HELSINKI HARMAJA, FI","FM-12","99999","V020","230,1,N,0050,1","99999,9,9,N","050000,1,N,1","+0064,1","+0042,1","10023,1","00,1","0,1,03,1",,"07,99,1,07,1,99,9,99999,9,99,9,99,9","99999,9,10015,1","2,1,004,1,+999,9","+068,9","SYN106AAXX  23211 02795 47999 72305 10064 20042 30015 40023 52004 70000 87/// 92039 222// 00068 555 786// 0/606;",
"02795099999","2010-10-24T00:00:00","4","60.1","24.9833333","6.4","HELSINKI HARMAJA, FI","FM-12","99999","V020","230,1,N,0060,1","99999,9,9,N","018000,1,N,1","+0060,1","+0047,1","10021,1","81,1","8,1,06,1",,"08,99,1,08,1,99,9,00450,1,99,9,99,9","99999,9,10013,1","4,1,000,1,+999,9","+067,9","SYN106AAXX  24001 02795 47468 82306 10060 20047 30013 40021 54002 78185 88/// 92339 222// 00067 555 791// 0/107;",
"02795099999","2010-10-24T03:00:00","4","60.1","24.9833333","6.4","HELSINKI HARMAJA, FI","FM-12","99999","V020","220,1,N,0040,1","99999,9,9,N","050000,1,N,1","+0064,1","+0050,1","10019,1","51,1","8,1,03,1",,"07,99,1,07,1,99,9,00450,1,99,9,99,9","99999,9,10011,1","7,1,002,1,+999,9","+067,9","SYN106AAXX  24031 02795 47499 72204 10064 20050 30011 40019 57002 75186 87/// 90239 222// 00067 555 791// 0/606;",
"02795099999","2010-10-24T09:00:00","4","60.1","24.9833333","6.4","HELSINKI HARMAJA, FI","FM-12","99999","V020","120,1,N,0030,1","99999,9,9,N","004400,1,N,1","+0063,1","+0056,1","10014,1","81,1","8,1,03,1",,"07,99,1,07,1,99,9,00150,1,99,9,99,9","99999,9,10006,1","7,1,003,1,+999,9","+066,9","SYN106AAXX  24091 02795 47244 71203 10063 20056 30006 40014 57003 78186 87/// 90839 222// 00066 555 795// 0/104;",
"02795099999","2010-10-24T12:00:00","4","60.1","24.9833333","6.4","HELSINKI HARMAJA, FI","FM-12","99999","V020","180,1,N,0040,1","99999,9,9,N","009000,1,N,1","+0066,1","+0053,1","10001,1","00,1","8,1,06,1",,"07,99,1,05,1,99,9,00250,1,99,9,99,9","99999,9,09993,1","7,1,012,1,+999,9","+066,9","SYN106AAXX  24121 02795 47359 71804 10066 20053 39993 40001 57012 70086 85/// 91139 222// 00066 555 791// 0/408;",
"02795099999","2010-10-24T15:00:00","4","60.1","24.9833333","6.4","HELSINKI HARMAJA, FI","FM-12","99999","V020","190,1,N,0060,1","99999,9,9,N","005000,1,N,1","+0057,1","+0045,1","09993,1","61,1","6,1,03,1",,"08,99,1,08,1,99,9,00250,1,99,9,99,9","99999,9,09985,1","7,1,009,1,+999,9","+067,9","SYN106AAXX  24151 02795 47350 81906 10057 20045 39985 49993 57009 76165 88/// 91439 222// 00067 555 792// 0/208;",
"02795099999","2010-10-24T21:00:00","4","60.1","24.9833333","6.4","HELSINKI HARMAJA, FI","FM-12","99999","V020","200,1,N,0090,1","99999,9,9,N","012000,1,N,1","+0072,1","+0059,1","09976,1","81,1","8,1,03,1",,"07,99,1,07,1,99,9,00250,1,99,9,99,9","99999,9,09968,1","7,1,006,1,+999,9","+067,9","SYN106AAXX  24211 02795 47362 72009 10072 20059 39968 49976 57006 78186 87/// 92039 222// 00067 555 791// 0/010;",
"02795099999","2010-10-25T00:00:00","4","60.1","24.9833333","6.4","HELSINKI HARMAJA, FI","FM-12","99999","V020","210,1,N,0090,1","99999,9,9,N","021000,1,N,1","+0073,1","+0059,1","09977,1","00,1","8,1,06,1",,"07,99,1,07,1,99,9,00450,1,99,9,99,9","99999,9,09969,1","4,1,000,1,+999,9","+066,9","SYN106AAXX  25001 02795 47471 72109 10073 20059 39969 49977 54001 70086 87/// 92339 222// 00066 555 791// 0/210;",
"02795099999","2010-10-25T03:00:00","4","60.1","24.9833333","6.4","HELSINKI HARMAJA, FI","FM-12","99999","V020","240,1,N,0060,1","99999,9,9,N","999999,9,N,1","+0063,1","+0053,1","09981,1",,,,"07,99,1,07,1,99,9,00800,1,99,9,99,9","99999,9,09973,1","2,1,004,1,+999,9","+065,9","SYN100AAXX  25031 02795 465// 72406 10063 20053 39973 49981 52004 87/// 90239 222// 00065 555 794// 0/510;",
"02795099999","2010-10-25T09:00:00","4","60.1","24.9833333","6.4","HELSINKI HARMAJA, FI","FM-12","99999","V020","300,1,N,0050,1","99999,9,9,N","999999,9,N,1","+0046,1","+0032,1","10021,1",,,,"08,99,1,08,1,99,9,00150,1,99,9,99,9","99999,9,10013,1","2,1,025,1,+999,9","+065,9","SYN100AAXX  25091 02795 462// 83005 10046 20032 30013 40021 52025 88/// 90839 222// 00065 555 791// 0/608;",
"02795099999","2010-10-25T12:00:00","4","60.1","24.9833333","6.4","HELSINKI HARMAJA, FI","FM-12","99999","V020","310,1,N,0040,1","99999,9,9,N","999999,9,N,1","+0043,1","+0025,1","10044,1",,,,"08,99,1,08,1,99,9,00250,1,99,9,99,9","99999,9,10036,1","2,1,023,1,+999,9","+067,9","SYN100AAXX  25121 02795 463// 83104 10043 20025 30036 40044 52023 88/// 91139 222// 00067 555 788// 0/305;",
"02795099999","2010-10-25T21:00:00","4","60.1","24.9833333","6.4","HELSINKI HARMAJA, FI","FM-12","99999","V020","330,1,N,0030,1","22000,1,9,N","999999,9,N,1","+0017,1","+0001,1","10100,1",,,,"01,99,1,01,1,99,9,00250,1,99,9,99,9","99999,9,10092,1","2,1,021,1,+999,9","+068,9","SYN100AAXX  25211 02795 463// 13303 10017 20001 30092 40100 52021 81/// 92039 222// 00068 555 790// 0/406;",
"02795099999","2010-10-26T00:00:00","4","60.1","24.9833333","6.4","HELSINKI HARMAJA, FI","FM-12","99999","V020","999,9,9,9999,9","99999,9,9,N","999999,9,N,1","+0026,1","+0009,1","10111,1",,,,"08,99,1,08,1,99,9,00800,1,99,9,99,9","99999,9,10103,1","2,1,011,1,+999,9","+067,9","SYN100AAXX  26001 02795 465// 800// 10026 20009 30103 40111 52011 88/// 92339 222// 00067 555 789// 0/604;",
"02795099999","2010-10-26T03:00:00","4","60.1","24.9833333","6.4","HELSINKI HARMAJA, FI","FM-12","99999","V020","280,1,N,0040,1","99999,9,9,N","999999,9,N,1","+0036,1","+0013,1","10122,1",,,,"07,99,1,07,1,99,9,00450,1,99,9,99,9","99999,9,10114,1","2,1,011,1,+999,9","+067,9","SYN100AAXX  26031 02795 464// 72804 10036 20013 30114 40122 52011 87/// 90239 222// 00067 555 785// 0/304;",
"02795099999","2010-10-26T09:00:00","4","60.1","24.9833333","6.4","HELSINKI HARMAJA, FI","FM-12","99999","V020","270,1,N,0020,1","99999,9,9,N","050000,1,N,1","+0047,1","+0021,1","10144,1","00,1",,,"07,99,1,07,1,99,9,01250,1,99,9,99,9","99999,9,10137,1","2,1,011,1,+999,9","+068,9","SYN106AAXX  26091 02795 47699 72702 10047 20021 30137 40144 52011 700// 87/// 90839 222// 00068 555 784// 0/503;",
"02795099999","2010-10-26T12:00:00","4","60.1","24.9833333","6.4","HELSINKI HARMAJA, FI","FM-12","99999","V020","280,1,N,0020,1","99999,9,9,N","050000,1,N,1","+0054,1","+0026,1","10152,1","00,1",,,"08,99,1,08,1,99,9,01250,1,99,9,99,9","99999,9,10144,1","2,1,008,1,+999,9","+069,9","SYN106AAXX  26121 02795 47699 82802 10054 20026 30144 40152 52008 700// 88/// 91139 222// 00069 555 782// 0/603;",
"02795099999","2010-10-26T15:00:00","4","60.1","24.9833333","6.4","HELSINKI HARMAJA, FI","FM-12","99999","V020","020,1,N,0040,1","99999,9,9,N","050000,1,N,1","+0036,1","+0018,1","10167,1","22,1","6,1,03,1",,"07,99,1,07,1,99,9,00800,1,99,9,99,9","99999,9,10159,1","2,1,015,1,+999,9","+069,9","SYN106AAXX  26151 02795 47599 70204 10036 20018 30159 40167 52015 72265 87/// 91439 222// 00069 555 788// 0/005;",
"02795099999","2010-10-26T21:00:00","4","60.1","24.9833333","6.4","HELSINKI HARMAJA, FI","FM-12","99999","V020","020,1,N,0050,1","99999,9,9,N","050000,1,N,1","+0018,1","-0005,1","10197,1","00,1","0,1,03,1",,"08,99,1,08,1,99,9,00450,1,99,9,99,9","99999,9,10189,1","2,1,015,1,+999,9","+067,9","SYN106AAXX  26211 02795 47499 80205 10018 21005 30189 40197 52015 70000 88/// 92039 222// 00067 555 785// 0/306;",
"02795099999","2010-10-27T00:00:00","4","60.1","24.9833333","6.4","HELSINKI HARMAJA, FI","FM-12","99999","V020","020,1,N,0040,1","99999,9,9,N","050000,1,N,1","+0007,1","-0017,1","10209,1","00,1","0,1,06,1",,"08,99,1,08,1,99,9,00450,1,99,9,99,9","99999,9,10201,1","2,1,012,1,+999,9","+067,9","SYN106AAXX  27001 02795 47499 80204 10007 21017 30201 40209 52012 70000 88/// 92339 222// 00067 555 784// 0/505;",
"02795099999","2010-10-27T03:00:00","4","60.1","24.9833333","6.4","HELSINKI HARMAJA, FI","FM-12","99999","V020","010,1,N,0030,1","99999,9,9,N","050000,1,N,1","+0008,1","-0026,1","10213,1","00,1","0,1,03,1",,"08,99,1,08,1,99,9,00450,1,99,9,99,9","99999,9,10205,1","2,1,004,1,+999,9","+072,9","SYN106AAXX  27031 02795 47499 80103 10008 21026 30205 40213 52004 70000 88/// 90239 222// 00072 555 778// 0/204;",
"02795099999","2010-10-27T09:00:00","4","60.1","24.9833333","6.4","HELSINKI HARMAJA, FI","FM-12","99999","V020","140,1,N,0010,1","22000,1,9,N","050000,1,N,1","+0021,1","-0017,1","10226,1","00,1","0,1,03,1",,"01,99,1,01,1,99,9,00450,1,99,9,99,9","99999,9,10218,1","2,1,006,1,+999,9","+078,9","SYN100AAXX  27091 02795 47499 11401 10021 21017 30218 40226 52006 70000 81/// 90839 222// 00078 555 776//;",
"02795099999","2010-10-27T12:00:00","4","60.1","24.9833333","6.4","HELSINKI HARMAJA, FI","FM-12","99999","V020","240,1,N,0020,1","22000,1,9,N","026000,1,N,1","+0035,1","-0015,1","10220,1","00,1","0,1,06,1","00,1,+99999,9,99,9","00,99,1,00,1,00,1,99999,9,00,1,00,1","99999,9,10212,1","7,1,006,1,+999,9","+081,9","SYN100AAXX  27121 02795 47976 02402 10035 21015 30212 40220 57006 70000 91139 222// 00081 555 770// 0/002;",
"02795099999","2010-10-27T15:00:00","4","60.1","24.9833333","6.4","HELSINKI HARMAJA, FI","FM-12","99999","V020","170,1,N,0030,1","22000,1,9,N","050000,1,N,1","+0032,1","-0008,1","10208,1","00,1","0,1,03,1",,"01,99,1,01,1,99,9,00800,1,99,9,99,9","99999,9,10200,1","7,1,011,1,+999,9","+080,9","SYN106AAXX  27151 02795 47599 11703 10032 21008 30200 40208 57011 70000 81/// 91439 222// 00080 555 775// 0/004;",
"02795099999","2010-10-27T21:00:00","4","60.1","24.9833333","6.4","HELSINKI HARMAJA, FI","FM-12","99999","V020","180,1,N,0110,1","99999,9,9,N","045000,1,N,1","+0052,1","+0024,1","10164,1","00,1","0,1,03,1",,"07,99,1,07,1,99,9,00800,1,99,9,99,9","99999,9,10156,1","7,1,025,1,+999,9","+077,9","SYN106AAXX  27211 02795 47583 71811 10052 20024 30156 40164 57025 70000 87/// 92039 222// 00077 555 782// 0/012;",
"02795099999","2010-10-28T03:00:00","4","60.1","24.9833333","6.4","HELSINKI HARMAJA, FI","FM-12","99999","V020","190,1,N,0130,1","99999,9,9,N","011000,1,N,1","+0058,1","+0043,1","10101,1","81,1","8,1,03,1",,"07,99,1,07,1,99,9,00450,1,99,9,99,9","99999,9,10093,1","7,1,033,1,+999,9","+076,9","SYN106AAXX  28031 02795 47461 71913 10058 20043 30093 40101 57033 78186 87/// 90239 222// 00076 555 790// 0/014;",
"02795099999","2010-10-28T09:00:00","4","60.1","24.9833333","6.4","HELSINKI HARMAJA, FI","FM-12","99999","V020","210,1,N,0110,1","99999,9,9,N","008000,1,N,1","+0071,1","+0065,1","10072,1","22,1","8,1,03,1",,"07,99,1,07,1,99,9,00075,1,99,9,99,9","99999,9,10064,1","7,1,005,1,+999,9","+074,9","SYN106AAXX  28091 02795 47158 72111 10071 20065 30064 40072 57005 72286 87/// 90839 222// 00074 555 796// 0/414;",
"02795099999","2010-10-28T12:00:00","4","60.1","24.9833333","6.4","HELSINKI HARMAJA, FI","FM-12","99999","V020","210,1,N,0110,1","99999,9,9,N","013000,1,N,1","+0077,1","+0070,1","10061,1","80,1","8,1,06,1",,"07,99,1,07,1,99,9,00150,1,99,9,99,9","99999,9,10053,1","7,1,011,1,+999,9","+074,9","SYN106AAXX  28121 02795 47263 72111 10077 20070 30053 40061 57011 78086 87/// 91139 222// 00074 555 795// 0/612;",
"02795099999","2010-10-28T15:00:00","4","60.1","24.9833333","6.4","HELSINKI HARMAJA, FI","FM-12","99999","V020","210,1,N,0090,1","99999,9,9,N","015000,1,N,1","+0080,1","+0070,1","10047,1","81,1","8,1,03,1",,"07,99,1,07,1,99,9,00450,1,99,9,99,9","99999,9,10040,1","7,1,013,1,+999,9","+074,9","SYN106AAXX  28151 02795 47465 72109 10080 20070 30040 40047 57013 78185 87/// 91439 222// 00074 555 794// 0/611;",
"02795099999","2010-10-28T21:00:00","4","60.1","24.9833333","6.4","HELSINKI HARMAJA, FI","FM-12","99999","V020","230,1,N,0080,1","99999,9,9,N","010000,1,N,1","+0078,1","+0071,1","10027,1","00,1","0,1,03,1",,"07,99,1,07,1,99,9,00150,1,99,9,99,9","99999,9,10019,1","7,1,011,1,+999,9","+073,9","SYN106AAXX  28211 02795 47260 72308 10078 20071 30019 40027 57011 70000 87/// 92039 222// 00073 555 795// 0/510;",
"02795099999","2010-10-29T00:00:00","4","60.1","24.9833333","6.4","HELSINKI HARMAJA, FI","FM-12","99999","V020","220,1,N,0080,1","99999,9,9,N","008000,1,N,1","+0077,1","+0070,1","10018,1","22,1","8,1,06,1",,"07,99,1,05,1,99,9,00450,1,99,9,99,9","99999,9,10011,1","7,1,008,1,+999,9","+073,9","SYN106AAXX  29001 02795 47458 72208 10077 20070 30011 40018 57008 72285 85/// 92339 222// 00073 555 795// 0/510;",
"02795099999","2010-10-29T03:00:00","4","60.1","24.9833333","6.4","HELSINKI HARMAJA, FI","FM-12","99999","V020","210,1,N,0070,1","99999,9,9,N","006000,1,N,1","+0076,1","+0070,1","10008,1","10,1","3,1,03,1",,"07,99,1,07,1,99,9,00250,1,99,9,99,9","99999,9,10000,1","7,1,011,1,+999,9","+072,9","SYN106AAXX  29031 02795 47356 72107 10076 20070 30000 40008 57011 71021 87/// 90239 222// 00072 555 796// 0/408;",
"02795099999","2010-10-29T09:00:00","4","60.1","24.9833333","6.4","HELSINKI HARMAJA, FI","FM-12","99999","V020","250,1,N,0050,1","22000,1,9,N","030000,1,N,1","+0077,1","+0068,1","10016,1","00,1",,"00,1,+99999,9,99,9","00,99,1,00,1,00,1,99999,9,00,1,00,1","99999,9,10008,1","2,1,013,1,+999,9","+072,9","SYN100AAXX  29091 02795 47980 02505 10077 20068 30008 40016 52013 700// 90839 222// 00072 555 794// 0/507;",
"02795099999","2010-10-29T12:00:00","4","60.1","24.9833333","6.4","HELSINKI HARMAJA, FI","FM-12","99999","V020","270,1,N,0060,1","99999,9,9,N","050000,1,N,1","+0081,1","+0066,1","10039,1","00,1",,,"08,99,1,08,1,99,9,00450,1,99,9,99,9","99999,9,10031,1","2,1,023,1,+999,9","+073,9","SYN106AAXX  29121 02795 47499 82706 10081 20066 30031 40039 52023 700// 88/// 91139 222// 00073 555 790// 0/507;",
"02795099999","2010-10-29T15:00:00","4","60.1","24.9833333","6.4","HELSINKI HARMAJA, FI","FM-12","99999","V020","230,1,N,0060,1","22000,1,9,N","035000,1,N,1","+0072,1","+0059,1","10056,1","00,1","0,1,03,1","00,1,+99999,9,99,9","00,99,1,00,1,00,1,99999,9,00,1,00,1","99999,9,10048,1","2,1,017,1,+999,9","+072,9","SYN100AAXX  29151 02795 47981 02306 10072 20059 30048 40056 52017 70000 91439 222// 00072 555 791// 0/006;",
"02795099999","2010-10-29T21:00:00","4","60.1","24.9833333","6.4","HELSINKI HARMAJA, FI","FM-12","99999","V020","250,1,N,0060,1","22000,1,9,N","030000,1,N,1","+0066,1","+0059,1","10090,1","00,1","0,1,03,1","00,1,+99999,9,99,9","00,99,1,00,1,00,1,99999,9,00,1,00,1","99999,9,10082,1","2,1,015,1,+999,9","+071,9","SYN100AAXX  29211 02795 47980 02506 10066 20059 30082 40090 52015 70000 92039 222// 00071 555 795// 0/507;",
"02795099999","2010-10-30T00:00:00","4","60.1","24.9833333","6.4","HELSINKI HARMAJA, FI","FM-12","99999","V020","220,1,N,0080,1","99999,9,9,N","016000,1,N,1","+0075,1","+0067,1","10087,1","00,1","0,1,06,1",,"07,99,1,05,1,99,9,00250,1,99,9,99,9","99999,9,10079,1","7,1,003,1,+999,9","+071,9","SYN106AAXX  30001 02795 47366 72208 10075 20067 30079 40087 57003 70000 85/// 92339 222// 00071 555 794// 0/008;",
"02795099999","2010-10-30T03:00:00","4","60.1","24.9833333","6.4","HELSINKI HARMAJA, FI","FM-12","99999","V020","220,1,N,0090,1","99999,9,9,N","011000,1,N,1","+0075,1","+0069,1","10084,1","23,1","6,1,03,1",,"08,99,1,08,1,99,9,00150,1,99,9,99,9","99999,9,10076,1","7,1,003,1,+999,9","+071,9","SYN106AAXX  30031 02795 47261 82209 10075 20069 30076 40084 57003 72365 88/// 90239 222// 00071 555 796// 0/009;",
"02795099999","2010-10-30T09:00:00","4","60.1","24.9833333","6.4","HELSINKI HARMAJA, FI","FM-12","99999","V020","230,1,N,0070,1","99999,9,9,N","005000,1,N,1","+0077,1","+0073,1","10097,1","10,1","8,1,03,1",,"08,99,1,08,1,99,9,00075,1,99,9,99,9","99999,9,10089,1","2,1,013,1,+999,9","+071,9","SYN106AAXX  30091 02795 47150 82307 10077 20073 30089 40097 52013 71086 88/// 90839 222// 00071 555 797// 0/411;",
"02795099999","2010-10-30T12:00:00","4","60.1","24.9833333","6.4","HELSINKI HARMAJA, FI","FM-12","99999","V020","220,1,N,0070,1","99999,9,9,N","008000,1,N,1","+0080,1","+0073,1","10098,1","10,1","8,1,06,1",,"08,99,1,08,1,99,9,00250,1,99,9,99,9","99999,9,10090,1","4,1,000,1,+999,9","+071,9","SYN106AAXX  30121 02795 47358 82207 10080 20073 30090 40098 54000 71086 88/// 91139 222// 00071 555 795// 0/310;",
"02795099999","2010-10-30T15:00:00","4","60.1","24.9833333","6.4","HELSINKI HARMAJA, FI","FM-12","99999","V020","190,1,N,0080,1","99999,9,9,N","008000,1,N,1","+0075,1","+0066,1","10094,1","10,1","2,1,03,1",,"08,99,1,08,1,99,9,00150,1,99,9,99,9","99999,9,10086,1","7,1,004,1,+999,9","+071,9","SYN106AAXX  30151 02795 47258 81908 10075 20066 30086 40094 57004 71010 88/// 91439 222// 00071 555 794// 0/309;",
"02795099999","2010-10-30T21:00:00","4","60.1","24.9833333","6.4","HELSINKI HARMAJA, FI","FM-12","99999","V020","190,1,N,0080,1","99999,9,9,N","008000,1,N,1","+0081,1","+0066,1","10081,1","10,1","2,1,03,1",,"07,99,1,00,1,99,9,99999,9,99,9,99,9","99999,9,10074,1","7,1,002,1,+999,9","+070,9","SYN106AAXX  30211 02795 47958 71908 10081 20066 30074 40081 57002 71010 80/// 92039 222// 00070 555 790// 0/409;",
"02795099999","2010-10-31T00:00:00","4","60.1","24.9833333","6.4","HELSINKI HARMAJA, FI","FM-12","99999","V020","200,1,N,0100,1","99999,9,9,N","007000,1,N,1","+0081,1","+0065,1","10075,1","10,1","2,1,06,1",,"07,99,1,00,1,99,9,99999,9,99,9,99,9","99999,9,10067,1","7,1,007,1,+999,9","+070,9","SYN106AAXX  31001 02795 47957 72010 10081 20065 30067 40075 57007 71010 80/// 92339 222// 00070 555 790// 0/111;",
"02795099999","2010-10-31T03:00:00","4","60.1","24.9833333","6.4","HELSINKI HARMAJA, FI","FM-12","99999","V020","200,1,N,0090,1","99999,9,9,N","008000,1,N,1","+0079,1","+0062,1","10074,1","10,1","2,1,03,1",,"08,99,1,08,1,99,9,00450,1,99,9,99,9","99999,9,10066,1","4,1,000,1,+999,9","+070,9","SYN106AAXX  31031 02795 47458 82009 10079 20062 30066 40074 54001 71010 88/// 90239 222// 00070 555 789// 0/610;",
"02795099999","2010-10-31T09:00:00","4","60.1","24.9833333","6.4","HELSINKI HARMAJA, FI","FM-12","99999","V020","200,1,N,0090,1","99999,9,9,N","009000,1,N,1","+0073,1","+0057,1","10081,1","10,1","2,1,03,1",,"07,99,1,07,1,99,9,99999,9,99,9,99,9","99999,9,10073,1","2,1,003,1,+999,9","+070,9","SYN106AAXX  31091 02795 47959 72009 10073 20057 30073 40081 52003 71010 87/// 90839 222// 00070 555 789// 0/409;",
"02795099999","2010-10-31T12:00:00","4","60.1","24.9833333","6.4","HELSINKI HARMAJA, FI","FM-12","99999","V020","200,1,N,0070,1","99999,9,9,N","009000,1,N,1","+0071,1","+0057,1","10073,1","10,1","2,1,06,1",,"07,99,1,07,1,99,9,00450,1,99,9,99,9","99999,9,10065,1","7,1,008,1,+999,9","+070,9","SYN106AAXX  31121 02795 47459 72007 10071 20057 30065 40073 57008 71010 87/// 91139 222// 00070 555 790// 0/609;",
"02795099999","2010-10-31T15:00:00","4","60.1","24.9833333","6.4","HELSINKI HARMAJA, FI","FM-12","99999","V020","210,1,N,0060,1","99999,9,9,N","009000,1,N,1","+0075,1","+0062,1","10069,1","10,1","2,1,03,1",,"07,99,1,05,1,99,9,00450,1,99,9,99,9","99999,9,10062,1","7,1,004,1,+999,9","+069,9","SYN106AAXX  31151 02795 47459 72106 10075 20062 30062 40069 57004 71010 85/// 91439 222// 00069 555 792// 0/208;",
"02795099999","2010-10-31T21:00:00","4","60.1","24.9833333","6.4","HELSINKI HARMAJA, FI","FM-12","99999","V020","230,1,N,0090,1","99999,9,9,N","003700,1,N,1","+0076,1","+0068,1","10082,1","10,1","2,1,03,1",,"08,99,1,08,1,99,9,00150,1,99,9,99,9","99999,9,10075,1","2,1,003,1,+999,9","+070,9","SYN106AAXX  31211 02795 47237 82309 10076 20068 30075 40082 52003 71010 88/// 92039 222// 00070 555 795// 0/410;",
"02795099999","2010-11-01T00:00:00","4","60.1","24.9833333","6.4","HELSINKI HARMAJA, FI","FM-12","99999","V020","230,1,N,0070,1","99999,9,9,N","007000,1,N,1","+0074,1","+0071,1","10085,1","10,1","2,1,06,1",,"08,99,1,08,1,99,9,00250,1,99,9,99,9","99999,9,10077,1","2,1,002,1,+999,9","+070,9","SYN106AAXX  01001 02795 47357 82307 10074 20071 30077 40085 52002 71010 88/// 92339 222// 00070 555 798// 0/409;",
"02795099999","2010-11-01T03:00:00","4","60.1","24.9833333","6.4","HELSINKI HARMAJA, FI","FM-12","99999","V020","250,1,N,0040,1","00060,1,9,N","000800,1,N,1","+0071,1","+0068,1","10086,1","34,1","4,1,03,1","09,1,+99999,9,99,9","09,99,1,09,1,99,9,99999,9,99,9,99,9","99999,9,10078,1","4,1,000,1,+999,9","+070,9","SYN100AAXX  01031 02795 47108 92504 10071 20068 30078 40086 54001 73432 90239 222// 00070 555 798// 0/607;",
"02795099999","2010-11-01T09:00:00","4","60.1","24.9833333","6.4","HELSINKI HARMAJA, FI","FM-12","99999","V020","220,1,N,0060,1","99999,9,9,N","006000,1,N,1","+0076,1","+0071,1","10088,1","10,1","8,1,03,1",,"07,99,1,07,1,99,9,00150,1,99,9,99,9","99999,9,10080,1","4,1,000,1,+999,9","+070,9","SYN106AAXX  01091 02795 47256 72206 10076 20071 30080 40088 54002 71085 87/// 90839 222// 00070 555 797// 0/207;",
"02795099999","2010-11-01T12:00:00","4","60.1","24.9833333","6.4","HELSINKI HARMAJA, FI","FM-12","99999","V020","240,1,N,0050,1","99999,9,9,N","006000,1,N,1","+0075,1","+0069,1","10082,1","10,1","8,1,06,1",,"08,99,1,08,1,99,9,00150,1,99,9,99,9","99999,9,10074,1","7,1,005,1,+999,9","+070,9","SYN106AAXX  01121 02795 47256 82405 10075 20069 30074 40082 57005 71085 88/// 91139 222// 00070 555 797// 0/507;",
"02795099999","2010-11-01T15:00:00","4","60.1","24.9833333","6.4","HELSINKI HARMAJA, FI","FM-12","99999","V020","240,1,N,0060,1","99999,9,9,N","008000,1,N,1","+0074,1","+0070,1","10078,1","10,1","2,1,03,1",,"07,99,1,07,1,99,9,00150,1,99,9,99,9","99999,9,10070,1","7,1,004,1,+999,9","+070,9","SYN106AAXX  01151 02795 47258 72406 10074 20070 30070 40078 57004 71010 87/// 91439 222// 00070 555 797// 0/407;",
"02795099999","2010-11-01T21:00:00","4","60.1","24.9833333","6.4","HELSINKI HARMAJA, FI","FM-12","99999","V020","240,1,N,0050,1","99999,9,9,N","014000,1,N,1","+0073,1","+0068,1","10086,1","00,1","2,1,03,1",,"07,99,1,07,1,99,9,00800,1,99,9,99,9","99999,9,10078,1","2,1,004,1,+999,9","+070,9","SYN106AAXX  01211 02795 47564 72405 10073 20068 30078 40086 52004 70010 87/// 92039 222// 00070 555 797// 0/606;",
"02795099999","2010-11-02T00:00:00","4","60.1","24.9833333","6.4","HELSINKI HARMAJA, FI","FM-12","99999","V020","280,1,N,0020,1","99999,9,9,N","017000,1,N,1","+0069,1","+0062,1","10088,1","00,1","2,1,06,1",,"07,99,1,07,1,99,9,00800,1,99,9,99,9","99999,9,10080,1","2,1,003,1,+999,9","+070,9","SYN106AAXX  02001 02795 47567 72802 10069 20062 30080 40088 52003 70010 87/// 92339 222// 00070 555 795// 0/605;",
"02795099999","2010-11-02T03:00:00","4","60.1","24.9833333","6.4","HELSINKI HARMAJA, FI","FM-12","99999","V020","340,1,N,0040,1","99999,9,9,N","028000,1,N,1","+0066,1","+0053,1","10097,1","00,1","0,1,03,1",,"07,99,1,03,1,99,9,01750,1,99,9,99,9","99999,9,10089,1","2,1,008,1,+999,9","+070,9","SYN106AAXX  02031 02795 47778 73404 10066 20053 30089 40097 52008 70000 83/// 90239 222// 00070 555 791// 0/204;",
"02795099999","2010-11-02T09:00:00","4","60.1","24.9833333","6.4","HELSINKI HARMAJA, FI","FM-12","99999","V020","110,1,N,0010,1","99999,9,9,N","016000,1,N,1","+0039,1","+0035,1","10126,1","00,1","2,1,03,1",,"07,99,1,07,1,99,9,00075,1,99,9,99,9","99999,9,10118,1","2,1,018,1,+999,9","+069,9","SYN106AAXX  02091 02795 47166 71101 10039 20035 30118 40126 52018 70010 87/// 90839 222// 00069 555 797// 0/604;",
"02795099999","2010-11-02T12:00:00","4","60.1","24.9833333","6.4","HELSINKI HARMAJA, FI","FM-12","99999","V020","190,1,N,0010,1","99999,9,9,N","025000,1,N,1","+0049,1","+0040,1","10124,1","00,1","2,1,06,1",,"07,99,1,07,1,99,9,00150,1,99,9,99,9","99999,9,10116,1","7,1,003,1,+999,9","+070,9","SYN100AAXX  02121 02795 47275 71901 10049 20040 30116 40124 57003 70010 87/// 91139 222// 00070 555 794//;",
"02795099999","2010-11-02T15:00:00","4","60.1","24.9833333","6.4","HELSINKI HARMAJA, FI","FM-12","99999","V020","190,1,N,0030,1","99999,9,9,N","040000,1,N,1","+0068,1","+0052,1","10117,1","00,1","0,1,03,1",,"07,99,1,07,1,99,9,00450,1,99,9,99,9","99999,9,10110,1","7,1,006,1,+999,9","+070,9","SYN100AAXX  02151 02795 47482 71903 10068 20052 30110 40117 57006 70000 87/// 91439 222// 00070 555 789//;",
"02795099999","2010-11-02T21:00:00","4","60.1","24.9833333","6.4","HELSINKI HARMAJA, FI","FM-12","99999","V020","180,1,N,0090,1","99999,9,9,N","050000,1,N,1","+0074,1","+0050,1","10078,1","00,1","0,1,03,1",,"08,99,1,08,1,99,9,00800,1,99,9,99,9","99999,9,10070,1","7,1,024,1,+999,9","+071,9","SYN106AAXX  02211 02795 47599 81809 10074 20050 30070 40078 57024 70000 88/// 92039 222// 00071 555 785// 0/009;",
"02795099999","2010-11-03T00:00:00","4","60.1","24.9833333","6.4","HELSINKI HARMAJA, FI","FM-12","99999","V020","170,1,N,0100,1","99999,9,9,N","013000,1,N,1","+0069,1","+0055,1","10040,1","61,1","6,1,06,1",,"08,99,1,08,1,99,9,00450,1,99,9,99,9","99999,9,10033,1","7,1,038,1,+999,9","+071,9","SYN106AAXX  03001 02795 47463 81710 10069 20055 30033 40040 57038 76164 88/// 92339 222// 00071 555 791// 0/011;",
"02795099999","2010-11-03T03:00:00","4","60.1","24.9833333","6.4","HELSINKI HARMAJA, FI","FM-12","99999","V020","200,1,N,0120,1","99999,9,9,N","007000,1,N,1","+0064,1","+0058,1","10000,1","61,1","6,1,03,1",,"08,99,1,08,1,99,9,00150,1,99,9,99,9","99999,9,09992,1","7,1,040,1,+999,9","+071,9","SYN106AAXX  03031 02795 47257 82012 10064 20058 39992 40000 57040 76165 88/// 90239 222// 00071 555 796// 0/114;",
"02795099999","2010-11-03T09:00:00","4","60.1","24.9833333","6.4","HELSINKI HARMAJA, FI","FM-12","99999","V020","210,1,N,0100,1","99999,9,9,N","009000,1,N,1","+0082,1","+0073,1","09985,1","00,1","8,1,03,1",,"07,99,1,07,1,99,9,00800,1,99,9,99,9","99999,9,09977,1","7,1,003,1,+999,9","+071,9","SYN106AAXX  03091 02795 47559 72110 10082 20073 39977 49985 57003 70085 87/// 90839 222// 00071 555 795// 0/613;",
"02795099999","2010-11-03T12:00:00","4","60.1","24.9833333","6.4","HELSINKI HARMAJA, FI","FM-12","99999","V020","210,1,N,0100,1","99999,9,9,N","007000,1,N,1","+0084,1","+0075,1","09964,1","61,1","8,1,06,1",,"07,99,1,07,1,99,9,00250,1,99,9,99,9","99999,9,09956,1","7,1,021,1,+999,9","+072,9","SYN106AAXX  03121 02795 47357 72110 10084 20075 39956 49964 57021 76186 87/// 91139 222// 00072 555 794// 0/612;",
"02795099999","2010-11-03T21:00:00","4","60.1","24.9833333","6.4","HELSINKI HARMAJA, FI","FM-12","99999","V020","230,1,N,0130,1","99999,9,9,N","012000,1,N,1","+0083,1","+0075,1","09883,1","81,1","8,1,03,1",,"07,99,1,07,1,99,9,00450,1,99,9,99,9","99999,9,09876,1","7,1,012,1,+999,9","+072,9","SYN106AAXX  03211 02795 47462 72313 10083 20075 39876 49883 57012 78186 87/// 92039 222// 00072 555 794// 0/114;",
"02795099999","2010-11-04T03:00:00","4","60.1","24.9833333","6.4","HELSINKI HARMAJA, FI","FM-12","99999","V020","230,1,N,0150,1","99999,9,9,N","015000,1,N,1","+0079,1","+0061,1","09871,1","23,1","8,1,03,1",,"07,99,1,07,1,99,9,01250,1,99,9,99,9","99999,9,09863,1","7,1,011,1,+999,9","+069,9","SYN106AAXX  04031 02795 47665 72315 10079 20061 39863 49871 57011 72386 87/// 90239 222// 00069 555 789// 0/215;",
"02795099999","2010-11-04T09:00:00","4","60.1","24.9833333","6.4","HELSINKI HARMAJA, FI","FM-12","99999","V020","260,1,N,0090,1","99999,9,9,N","040000,1,N,1","+0074,1","+0042,1","09889,1","00,1","0,1,03,1",,"07,99,1,07,1,99,9,00800,1,99,9,99,9","99999,9,09881,1","2,1,015,1,+999,9","+069,9","SYN106AAXX  04091 02795 47582 72609 10074 20042 39881 49889 52015 70000 87/// 90839 222// 00069 555 780// 0/613;",
"02795099999","2010-11-04T21:00:00","4","60.1","24.9833333","6.4","HELSINKI HARMAJA, FI","FM-12","99999","V020","260,1,N,0080,1","99999,9,9,N","050000,1,N,1","+0060,1","+0036,1","09934,1","00,1","0,1,03,1",,"07,99,1,05,1,99,9,00450,1,99,9,99,9","99999,9,09927,1","2,1,008,1,+999,9","+068,9","SYN106AAXX  04211 02795 47499 72608 10060 20036 39927 49934 52008 70000 85/// 92039 222// 00068 555 785// 0/108;",
"02795099999","2010-11-05T00:00:00","4","60.1","24.9833333","6.4","HELSINKI HARMAJA, FI","FM-12","99999","V020","260,1,N,0080,1","22000,1,9,N","050000,1,N,1","+0056,1","+0041,1","09939,1","00,1","0,1,06,1",,"03,99,1,03,1,99,9,00450,1,99,9,99,9","99999,9,09931,1","2,1,005,1,+999,9","+067,9","SYN106AAXX  05001 02795 47499 32608 10056 20041 39931 49939 52005 70000 83/// 92339 222// 00067 555 790// 0/509;",
"02795099999","2010-11-05T03:00:00","4","60.1","24.9833333","6.4","HELSINKI HARMAJA, FI","FM-12","99999","V020","270,1,N,0070,1","99999,9,9,N","050000,1,N,1","+0048,1","+0032,1","09940,1","00,1","0,1,03,1",,"05,99,1,05,1,99,9,00250,1,99,9,99,9","99999,9,09932,1","4,1,000,1,+999,9","+067,9","SYN106AAXX  05031 02795 47399 52707 10048 20032 39932 49940 54001 70000 85/// 90239 222// 00067 555 789// 0/510;",
"02795099999","2010-11-05T09:00:00","4","60.1","24.9833333","6.4","HELSINKI HARMAJA, FI","FM-12","99999","V020","280,1,N,0060,1","22000,1,9,N","045000,1,N,1","+0045,1","+0030,1","09941,1","00,1","0,1,03,1",,"03,99,1,03,1,99,9,00150,1,99,9,99,9","99999,9,09934,1","2,1,005,1,+999,9","+066,9","SYN106AAXX  05091 02795 47283 32806 10045 20030 39934 49941 52005 70000 83/// 90839 222// 00066 555 790// 0/609;",
"02795099999","2010-11-05T12:00:00","4","60.1","24.9833333","6.4","HELSINKI HARMAJA, FI","FM-12","99999","V020","250,1,N,0050,1","99999,9,9,N","045000,1,N,1","+0058,1","+0028,1","09946,1","00,1","0,1,06,1",,"07,99,1,07,1,99,9,99999,9,99,9,99,9","99999,9,09938,1","2,1,005,1,+999,9","+066,9","SYN106AAXX  05121 02795 47983 72505 10058 20028 39938 49946 52005 70000 87/// 91139 222// 00066 555 781// 0/606;",
"02795099999","2010-11-05T15:00:00","4","60.1","24.9833333","6.4","HELSINKI HARMAJA, FI","FM-12","99999","V020","270,1,N,0060,1","22000,1,9,N","050000,1,N,1","+0057,1","+0029,1","09959,1","00,1","0,1,03,1",,"01,99,1,01,1,99,9,00800,1,99,9,99,9","99999,9,09951,1","2,1,012,1,+999,9","+066,9","SYN106AAXX  05151 02795 47599 12706 10057 20029 39951 49959 52012 70000 81/// 91439 222// 00066 555 782// 0/207;",
"02795099999","2010-11-05T21:00:00","4","60.1","24.9833333","6.4","HELSINKI HARMAJA, FI","FM-12","99999","V020","280,1,N,0050,1","99999,9,9,N","050000,1,N,1","+0053,1","+0034,1","09975,1","00,1","0,1,03,1",,"08,99,1,08,1,99,9,00800,1,99,9,99,9","99999,9,09968,1","2,1,008,1,+999,9","+067,9","SYN106AAXX  05211 02795 47599 82805 10053 20034 39968 49975 52008 70000 88/// 92039 222// 00067 555 788// 0/606;",
"02795099999","2010-11-06T00:00:00","4","60.1","24.9833333","6.4","HELSINKI HARMAJA, FI","FM-12","99999","V020","280,1,N,0050,1","99999,9,9,N","007000,1,N,1","+0044,1","+0035,1","09974,1","81,1","8,1,06,1",,"07,99,1,07,1,99,9,00450,1,99,9,99,9","99999,9,09966,1","4,1,000,1,+999,9","+066,9","SYN106AAXX  06001 02795 47457 72805 10044 20035 39966 49974 54001 78185 87/// 92339 222// 00066 555 793// 0/106;",
"02795099999","2010-11-06T03:00:00","4","60.1","24.9833333","6.4","HELSINKI HARMAJA, FI","FM-12","99999","V020","320,1,N,0030,1","99999,9,9,N","045000,1,N,1","+0043,1","+0031,1","09968,1","22,1","8,1,03,1",,"07,99,1,05,1,99,9,00450,1,99,9,99,9","99999,9,09960,1","7,1,006,1,+999,9","+066,9","SYN106AAXX  06031 02795 47483 73203 10043 20031 39960 49968 57006 72285 85/// 90239 222// 00066 555 792// 0/605;",
"02795099999","2010-11-06T09:00:00","4","60.1","24.9833333","6.4","HELSINKI HARMAJA, FI","FM-12","99999","V020","300,1,N,0060,1","99999,9,9,N","050000,1,N,1","+0025,1","+0011,1","09969,1","00,1","8,1,03,1",,"08,99,1,08,1,99,9,00250,1,99,9,99,9","99999,9,09961,1","2,1,005,1,+999,9","+066,9","SYN106AAXX  06091 02795 47399 83006 10025 20011 39961 49969 52005 70085 88/// 90839 222// 00066 555 790// 0/307;",
"02795099999","2010-11-06T12:00:00","4","60.1","24.9833333","6.4","HELSINKI HARMAJA, FI","FM-12","99999","V020","310,1,N,0050,1","99999,9,9,N","045000,1,N,1","+0028,1","+0004,1","09967,1","00,1","8,1,06,1",,"07,99,1,07,1,99,9,00450,1,99,9,99,9","99999,9,09959,1","4,1,000,1,+999,9","+066,9","SYN106AAXX  06121 02795 47483 73105 10028 20004 39959 49967 54001 70085 87/// 91139 222// 00066 555 784// 0/407;",
"02795099999","2010-11-06T15:00:00","4","60.1","24.9833333","6.4","HELSINKI HARMAJA, FI","FM-12","99999","V020","320,1,N,0040,1","22000,1,9,N","050000,1,N,1","+0026,1","+0000,1","09969,1","00,1","0,1,03,1","00,1,+99999,9,99,9","00,99,1,00,1,00,1,99999,9,00,1,00,1","99999,9,09961,1","4,1,000,1,+999,9","+065,9","SYN100AAXX  06151 02795 47999 03204 10026 20000 39961 49969 54002 70000 91439 222// 00065 555 783// 0/307;",
"02795099999","2010-11-06T21:00:00","4","60.1","24.9833333","6.4","HELSINKI HARMAJA, FI","FM-12","99999","V020","280,1,N,0080,1","99999,9,9,N","040000,1,N,1","+0029,1","+0003,1","09973,1","00,1","0,1,03,1",,"07,99,1,07,1,99,9,00800,1,99,9,99,9","99999,9,09965,1","4,1,000,1,+999,9","+064,9","SYN106AAXX  06211 02795 47582 72808 10029 20003 39965 49973 54001 70000 87/// 92039 222// 00064 555 783// 0/308;",
"02795099999","2010-11-07T00:00:00","4","60.1","24.9833333","6.4","HELSINKI HARMAJA, FI","FM-12","99999","V020","270,1,N,0060,1","99999,9,9,N","050000,1,N,1","+0033,1","-0007,1","09970,1","00,1","8,1,06,1",,"07,99,1,07,1,99,9,01250,1,99,9,99,9","99999,9,09963,1","7,1,002,1,+999,9","+064,9","SYN106AAXX  07001 02795 47699 72706 10033 21007 39963 49970 57002 70085 87/// 92339 222// 00064 555 775// 0/608;",
"02795099999","2010-11-07T03:00:00","4","60.1","24.9833333","6.4","HELSINKI HARMAJA, FI","FM-12","99999","V020","260,1,N,0070,1","99999,9,9,N","050000,1,N,1","+0036,1","-0001,1","09965,1","00,1","0,1,03,1",,"07,99,1,07,1,99,9,01750,1,99,9,99,9","99999,9,09957,1","7,1,005,1,+999,9","+063,9","SYN106AAXX  07031 02795 47799 72607 10036 21001 39957 49965 57005 70000 87/// 90239 222// 00063 555 777// 0/408;",
"02795099999","2010-11-07T09:00:00","4","60.1","24.9833333","6.4","HELSINKI HARMAJA, FI","FM-12","99999","V020","270,1,N,0080,1","22000,1,9,N","050000,1,N,1","+0035,1","-0005,1","09976,1","00,1","0,1,03,1","00,1,+99999,9,99,9","00,99,1,00,1,00,1,99999,9,00,1,00,1","99999,9,09968,1","2,1,007,1,+999,9","+063,9","SYN100AAXX  07091 02795 47999 02708 10035 21005 39968 49976 52007 70000 90839 222// 00063 555 775// 0/009;",
"02795099999","2010-11-07T12:00:00","4","60.1","24.9833333","6.4","HELSINKI HARMAJA, FI","FM-12","99999","V020","250,1,N,0060,1","22000,1,9,N","045000,1,N,1","+0041,1","-0008,1","09978,1","22,1","8,1,06,1",,"01,99,1,01,1,99,9,00800,1,99,9,99,9","99999,9,09970,1","4,1,000,1,+999,9","+064,9","SYN106AAXX  07121 02795 47583 12506 10041 21008 39970 49978 54002 72285 81/// 91139 222// 00064 555 771// 0/210;",
"02795099999","2010-11-07T15:00:00","4","60.1","24.9833333","6.4","HELSINKI HARMAJA, FI","FM-12","99999","V020","280,1,N,0060,1","22000,1,9,N","050000,1,N,1","+0035,1","-0008,1","09976,1","00,1","3,1,03,1",,"01,99,1,01,1,99,9,00800,1,99,9,99,9","99999,9,09968,1","7,1,002,1,+999,9","+064,9","SYN106AAXX  07151 02795 47599 12806 10035 21008 39968 49976 57002 70020 81/// 91439 222// 00064 555 774// 0/109;",
"02795099999","2010-11-07T21:00:00","4","60.1","24.9833333","6.4","HELSINKI HARMAJA, FI","FM-12","99999","V020","270,1,N,0080,1","22000,1,9,N","050000,1,N,1","+0026,1","-0012,1","09996,1","00,1","0,1,03,1","00,1,+99999,9,99,9","00,99,1,00,1,00,1,99999,9,00,1,00,1","99999,9,09988,1","2,1,012,1,+999,9","+062,9","SYN100AAXX  07211 02795 47999 02708 10026 21012 39988 49996 52012 70000 92039 222// 00062 555 776// 0/409;",
"02795099999","2010-11-08T00:00:00","4","60.1","24.9833333","6.4","HELSINKI HARMAJA, FI","FM-12","99999","V020","260,1,N,0060,1","22000,1,9,N","050000,1,N,1","+0027,1","-0014,1","10000,1","00,1","0,1,06,1","00,1,+99999,9,99,9","00,99,1,00,1,00,1,99999,9,00,1,00,1","99999,9,09992,1","2,1,004,1,+999,9","+061,9","SYN100AAXX  08001 02795 47999 02606 10027 21014 39992 40000 52004 70000 92339 222// 00061 555 774// 0/609;",
"02795099999","2010-11-08T03:00:00","4","60.1","24.9833333","6.4","HELSINKI HARMAJA, FI","FM-12","99999","V020","270,1,N,0070,1","22000,1,9,N","050000,1,N,1","+0029,1","-0018,1","10007,1","00,1","0,1,03,1","00,1,+99999,9,99,9","00,99,1,00,1,00,1,99999,9,00,1,00,1","99999,9,09999,1","2,1,007,1,+999,9","+060,9","SYN100AAXX  08031 02795 47999 02707 10029 21018 39999 40007 52007 70000 90239 222// 00060 555 771// 0/108;",
"02795099999","2010-11-08T09:00:00","4","60.1","24.9833333","6.4","HELSINKI HARMAJA, FI","FM-12","99999","V020","300,1,N,0030,1","22000,1,9,N","050000,1,N,1","+0020,1","-0015,1","10034,1","00,1",,"00,1,+99999,9,99,9","00,99,1,00,1,00,1,99999,9,00,1,00,1","99999,9,10026,1",,"+059,9","SYN088AAXX  08091 02795 47999 03003 10020 21015 30026 40034 700// 90839 222// 00059 555 777//;",
"02795099999","2010-11-08T12:00:00","4","60.1","24.9833333","6.4","HELSINKI HARMAJA, FI","FM-12","99999","V020","020,1,N,0020,1","22000,1,9,N","050000,1,N,1","+0026,1","-0042,1","10037,1","00,1","0,1,06,1","00,1,+99999,9,99,9","00,99,1,00,1,00,1,99999,9,00,1,00,1","99999,9,10029,1","2,1,003,1,+999,9","+061,9","SYN100AAXX  08121 02795 47999 00202 10026 21042 30029 40037 52003 70000 91139 222// 00061 555 761// 0/604;",
"02795099999","2010-11-08T15:00:00","4","60.1","24.9833333","6.4","HELSINKI HARMAJA, FI","FM-12","99999","V020","030,1,N,0040,1","22000,1,9,N","050000,1,N,1","+0022,1","-0033,1","10042,1","00,1","0,1,03,1","00,1,+99999,9,99,9","00,99,1,00,1,00,1,99999,9,00,1,00,1","99999,9,10034,1","2,1,004,1,+999,9","+059,9","SYN100AAXX  08151 02795 47999 00304 10022 21033 30034 40042 52004 70000 91439 222// 00059 555 767// 0/004;",
"02795099999","2010-11-08T21:00:00","4","60.1","24.9833333","6.4","HELSINKI HARMAJA, FI","FM-12","99999","V020","050,1,N,0060,1","22000,1,9,N","050000,1,N,1","+0015,1","-0023,1","10043,1","00,1","0,1,03,1",,"03,99,1,00,1,99,9,99999,9,99,9,99,9","99999,9,10035,1","4,1,000,1,+999,9","+058,9","SYN106AAXX  08211 02795 47999 30506 10015 21023 30035 40043 54001 70000 80/// 92039 222// 00058 555 776// 0/207;",
"02795099999","2010-11-09T00:00:00","4","60.1","24.9833333","6.4","HELSINKI HARMAJA, FI","FM-12","99999","V020","050,1,N,0090,1","99999,9,9,N","045000,1,N,1","+0014,1","-0014,1","10029,1","00,1","0,1,06,1",,"07,99,1,01,1,99,9,00800,1,99,9,99,9","99999,9,10021,1","7,1,014,1,+999,9","+059,9","SYN106AAXX  09001 02795 47583 70509 10014 21014 30021 40029 57014 70000 81/// 92339 222// 00059 555 782// 0/009;",
"02795099999","2010-11-09T03:00:00","4","60.1","24.9833333","6.4","HELSINKI HARMAJA, FI","FM-12","99999","V020","060,1,N,0100,1","99999,9,9,N","024000,1,N,1","+0014,1","-0010,1","10014,1","00,1","0,1,03,1",,"07,99,1,01,1,99,9,00450,1,99,9,99,9","99999,9,10007,1","7,1,014,1,+999,9","+060,9","SYN106AAXX  09031 02795 47474 70610 10014 21010 30007 40014 57014 70000 81/// 90239 222// 00060 555 784// 0/311;",
"02795099999","2010-11-09T09:00:00","4","60.1","24.9833333","6.4","HELSINKI HARMAJA, FI","FM-12","99999","V020","060,1,N,0120,1","99999,9,9,N","012000,1,N,1","+0021,1","+0002,1","09994,1","40,1","8,1,03,1",,"08,99,1,05,1,99,9,00450,1,99,9,99,9","99999,9,09986,1","7,1,010,1,+999,9","+060,9","SYN106AAXX  09091 02795 47462 80612 10021 20002 39986 49994 57010 74085 85/// 90839 222// 00060 555 787// 0/012;",
"02795099999","2010-11-09T12:00:00","4","60.1","24.9833333","6.4","HELSINKI HARMAJA, FI","FM-12","99999","V020","070,1,N,0160,1","99999,9,9,N","004400,1,N,1","+0023,1","+0007,1","09972,1","61,1","8,1,06,1",,"08,99,1,08,1,99,9,00450,1,99,9,99,9","99999,9,09964,1","7,1,022,1,+999,9","+061,9","SYN106AAXX  09121 02795 47444 80716 10023 20007 39964 49972 57022 76186 88/// 91139 222// 00061 555 789// 0/016;",
"02795099999","2010-11-09T15:00:00","4","60.1","24.9833333","6.4","HELSINKI HARMAJA, FI","FM-12","99999","V020","070,1,N,0150,1","99999,9,9,N","002900,1,N,1","+0021,1","+0017,1","09948,1","61,1","6,1,03,1",,"08,99,1,08,1,99,9,00150,1,99,9,99,9","99999,9,09940,1","7,1,023,1,+999,9","+060,9","SYN106AAXX  09151 02795 47229 80715 10021 20017 39940 49948 57023 76160 88/// 91439 222// 00060 555 797// 0/616;",
"02795099999","2010-11-09T21:00:00","4","60.1","24.9833333","6.4","HELSINKI HARMAJA, FI","FM-12","99999","V020","100,1,N,0130,1","99999,9,9,N","002500,1,N,1","+0041,1","+0037,1","09907,1","40,1","6,1,03,1",,"07,99,1,07,1,99,9,00250,1,99,9,99,9","99999,9,09899,1","7,1,012,1,+999,9","+061,9","SYN106AAXX  09211 02795 47325 71013 10041 20037 39899 49907 57012 74060 87/// 92039 222// 00061 555 797// 0/619;",
"02795099999","2010-11-10T00:00:00","4","60.1","24.9833333","6.4","HELSINKI HARMAJA, FI","FM-12","99999","V020","120,1,N,0080,1","99999,9,9,N","010000,1,N,1","+0049,1","+0043,1","09894,1","61,1","6,1,06,1",,"07,99,1,07,1,99,9,00150,1,99,9,99,9","99999,9,09886,1","7,1,013,1,+999,9","+061,9","SYN106AAXX  10001 02795 47260 71208 10049 20043 39886 49894 57013 76160 87/// 92339 222// 00061 555 796// 0/614;",
"02795099999","2010-11-10T03:00:00","4","60.1","24.9833333","6.4","HELSINKI HARMAJA, FI","FM-12","99999","V020","180,1,N,0080,1","99999,9,9,N","013000,1,N,1","+0065,1","+0058,1","09903,1","81,1","8,1,03,1",,"07,99,1,07,1,99,9,00250,1,99,9,99,9","99999,9,09895,1","2,1,009,1,+999,9","+062,9","SYN106AAXX  10031 02795 47363 71808 10065 20058 39895 49903 52009 78186 87/// 90239 222// 00062 555 795// 0/309;",
"02795099999","2010-11-10T09:00:00","4","60.1","24.9833333","6.4","HELSINKI HARMAJA, FI","FM-12","99999","V020","180,1,N,0070,1","99999,9,9,N","024000,1,N,1","+0061,1","+0045,1","09925,1","00,1","0,1,03,1",,"08,99,1,08,1,99,9,00250,1,99,9,99,9","99999,9,09918,1","2,1,016,1,+999,9","+062,9","SYN106AAXX  10091 02795 47374 81807 10061 20045 39918 49925 52016 70000 88/// 90839 222// 00062 555 789// 0/308;",
"02795099999","2010-11-10T12:00:00","4","60.1","24.9833333","6.4","HELSINKI HARMAJA, FI","FM-12","99999","V020","170,1,N,0050,1","99999,9,9,N","017000,1,N,1","+0061,1","+0046,1","09924,1","00,1","0,1,06,1",,"08,99,1,08,1,99,9,00800,1,99,9,99,9","99999,9,09916,1","4,1,000,1,+999,9","+062,9","SYN106AAXX  10121 02795 47567 81705 10061 20046 39916 49924 54002 70000 88/// 91139 222// 00062 555 790// 0/607;",
"02795099999","2010-11-10T15:00:00","4","60.1","24.9833333","6.4","HELSINKI HARMAJA, FI","FM-12","99999","V020","030,1,N,0010,1","99999,9,9,N","015000,1,N,1","+0059,1","+0046,1","09916,1","00,1","0,1,03,1",,"08,99,1,08,1,99,9,00800,1,99,9,99,9","99999,9,09908,1","7,1,008,1,+999,9","+063,9","SYN106AAXX  10151 02795 47565 80301 10059 20046 39908 49916 57008 70000 88/// 91439 222// 00063 555 792// 0/605;",
"02795099999","2010-11-10T21:00:00","4","60.1","24.9833333","6.4","HELSINKI HARMAJA, FI","FM-12","99999","V020","030,1,N,0020,1","99999,9,9,N","007000,1,N,1","+0051,1","+0043,1","09912,1","10,1","2,1,03,1",,"08,99,1,08,1,99,9,00800,1,99,9,99,9","99999,9,09904,1","7,1,003,1,+999,9","+064,9","SYN106AAXX  10211 02795 47557 80302 10051 20043 39904 49912 57003 71010 88/// 92039 222// 00064 555 795// 0/603;",
"02795099999","2010-11-11T00:00:00","4","60.1","24.9833333","6.4","HELSINKI HARMAJA, FI","FM-12","99999","V020","290,1,N,0030,1","99999,9,9,N","010000,1,N,1","+0049,1","+0041,1","09918,1","22,1","8,1,06,1",,"08,99,1,08,1,99,9,01250,1,99,9,99,9","99999,9,09910,1","2,1,007,1,+999,9","+063,9","SYN106AAXX  11001 02795 47660 82903 10049 20041 39910 49918 52007 72285 88/// 92339 222// 00063 555 795// 0/305;",
"02795099999","2010-11-11T03:00:00","4","60.1","24.9833333","6.4","HELSINKI HARMAJA, FI","FM-12","99999","V020","280,1,N,0070,1","99999,9,9,N","050000,1,N,1","+0049,1","+0029,1","09930,1","00,1","3,1,03,1",,"08,99,1,07,1,99,9,00800,1,99,9,99,9","99999,9,09922,1","2,1,011,1,+999,9","+063,9","SYN106AAXX  11031 02795 47599 82807 10049 20029 39922 49930 52011 70021 87/// 90239 222// 00063 555 787// 0/007;",
"02795099999","2010-11-11T09:00:00","4","60.1","24.9833333","6.4","HELSINKI HARMAJA, FI","FM-12","99999","V020","240,1,N,0040,1","99999,9,9,N","050000,1,N,1","+0051,1","+0029,1","09949,1","00,1",,,"08,99,1,08,1,99,9,00450,1,99,9,99,9","99999,9,09941,1",,"+062,9","SYN094AAXX  11091 02795 47499 82404 10051 20029 39941 49949 700// 88/// 90839 222// 00062 555 785//;",
"02795099999","2010-11-11T12:00:00","4","60.1","24.9833333","6.4","HELSINKI HARMAJA, FI","FM-12","99999","V020","200,1,N,0090,1","99999,9,9,N","019000,1,N,1","+0061,1","+0046,1","09938,1","51,1",,,"08,99,1,08,1,99,9,00450,1,99,9,99,9","99999,9,09931,1",,"+063,9","SYN094AAXX  11121 02795 47469 82009 10061 20046 39931 49938 751// 88/// 91139 222// 00063 555 791//;",
"02795099999","2010-11-11T15:00:00","4","60.1","24.9833333","6.4","HELSINKI HARMAJA, FI","FM-12","99999","V020","250,1,N,0070,1","99999,9,9,N","008000,1,N,1","+0055,1","+0043,1","09931,1","61,1","8,1,03,1",,"07,99,1,07,1,99,9,00150,1,99,9,99,9","99999,9,09923,1","7,1,007,1,+999,9","+063,9","SYN106AAXX  11151 02795 47258 72507 10055 20043 39923 49931 57007 76186 87/// 91439 222// 00063 555 792// 0/010;",
"02795099999","2010-11-11T21:00:00","4","60.1","24.9833333","6.4","HELSINKI HARMAJA, FI","FM-12","99999","V020","240,1,N,0070,1","99999,9,9,N","050000,1,N,1","+0040,1","-0004,1","09941,1","00,1","3,1,03,1",,"07,99,1,07,1,99,9,01250,1,99,9,99,9","99999,9,09934,1","4,1,000,1,+999,9","+062,9","SYN106AAXX  11211 02795 47699 72407 10040 21004 39934 49941 54002 70020 87/// 92039 222// 00062 555 773// 0/510;",
"02795099999","2010-11-12T00:00:00","4","60.1","24.9833333","6.4","HELSINKI HARMAJA, FI","FM-12","99999","V020","270,1,N,0050,1","99999,9,9,N","024000,1,N,1","+0035,1","+0022,1","09932,1","81,1","8,1,06,1",,"07,99,1,07,1,99,9,00450,1,99,9,99,9","99999,9,09924,1","7,1,010,1,+999,9","+061,9","SYN106AAXX  12001 02795 47474 72705 10035 20022 39924 49932 57010 78185 87/// 92339 222// 00061 555 791// 0/509;",
"02795099999","2010-11-12T03:00:00","4","60.1","24.9833333","6.4","HELSINKI HARMAJA, FI","FM-12","99999","V020","240,1,N,0060,1","99999,9,9,N","045000,1,N,1","+0037,1","+0023,1","09923,1","81,1","8,1,03,1",,"07,99,1,07,1,99,9,00450,1,99,9,99,9","99999,9,09915,1","7,1,008,1,+999,9","+061,9","SYN106AAXX  12031 02795 47483 72406 10037 20023 39915 49923 57008 78186 87/// 90239 222// 00061 555 790// 0/107;",
"02795099999","2010-11-12T09:00:00","4","60.1","24.9833333","6.4","HELSINKI HARMAJA, FI","FM-12","99999","V020","160,1,N,0090,1","99999,9,9,N","045000,1,N,1","+0051,1","+0019,1","09894,1","00,1","0,1,03,1",,"07,99,1,07,1,99,9,01250,1,99,9,99,9","99999,9,09886,1","7,1,018,1,+999,9","+061,9","SYN106AAXX  12091 02795 47683 71609 10051 20019 39886 49894 57018 70000 87/// 90839 222// 00061 555 780// 0/210;",
"02795099999","2010-11-12T12:00:00","4","60.1","24.9833333","6.4","HELSINKI HARMAJA, FI","FM-12","99999","V020","150,1,N,0100,1","99999,9,9,N","035000,1,N,1","+0046,1","+0021,1","09868,1","00,1","0,1,06,1",,"05,99,1,03,1,99,9,00450,1,99,9,99,9","99999,9,09860,1","7,1,026,1,+999,9","+061,9","SYN106AAXX  12121 02795 47481 51510 10046 20021 39860 49868 57026 70000 83/// 91139 222// 00061 555 784// 0/211;",
"02795099999","2010-11-12T15:00:00","4","60.1","24.9833333","6.4","HELSINKI HARMAJA, FI","FM-12","99999","V020","120,1,N,0100,1","99999,9,9,N","027000,1,N,1","+0048,1","+0027,1","09836,1","00,1","0,1,03,1",,"07,99,1,01,1,99,9,00450,1,99,9,99,9","99999,9,09829,1","7,1,032,1,+999,9","+060,9","SYN106AAXX  12151 02795 47477 71210 10048 20027 39829 49836 57032 70000 81/// 91439 222// 00060 555 787// 0/110;",
"02795099999","2010-11-12T21:00:00","4","60.1","24.9833333","6.4","HELSINKI HARMAJA, FI","FM-12","99999","V020","160,1,N,0070,1","99999,9,9,N","050000,1,N,1","+0047,1","+0025,1","09787,1","22,1","6,1,03,1",,"07,99,1,07,1,99,9,00450,1,99,9,99,9","99999,9,09779,1","7,1,023,1,+999,9","+061,9","SYN106AAXX  12211 02795 47499 71607 10047 20025 39779 49787 57023 72265 87/// 92039 222// 00061 555 786// 0/611;",
"02795099999","2010-11-13T00:00:00","4","60.1","24.9833333","6.4","HELSINKI HARMAJA, FI","FM-12","99999","V020","130,1,N,0080,1","99999,9,9,N","013000,1,N,1","+0047,1","+0039,1","09759,1","61,1","6,1,06,1",,"08,99,1,08,1,99,9,00150,1,99,9,99,9","99999,9,09752,1","7,1,028,1,+999,9","+060,9","SYN106AAXX  13001 02795 47263 81308 10047 20039 39752 49759 57028 76165 88/// 92339 222// 00060 555 794// 0/209;",
"02795099999","2010-11-13T03:00:00","4","60.1","24.9833333","6.4","HELSINKI HARMAJA, FI","FM-12","99999","V020","140,1,N,0070,1","99999,9,9,N","005000,1,N,1","+0055,1","+0050,1","09738,1","61,1","6,1,03,1",,"08,99,1,08,1,99,9,00150,1,99,9,99,9","99999,9,09730,1","7,1,021,1,+999,9","+061,9","SYN106AAXX  13031 02795 47250 81407 10055 20050 39730 49738 57021 76165 88/// 90239 222// 00061 555 797// 0/608;",
"02795099999","2010-11-13T09:00:00","4","60.1","24.9833333","6.4","HELSINKI HARMAJA, FI","FM-12","99999","V020","180,1,N,0060,1","99999,9,9,N","018000,1,N,1","+0065,1","+0058,1","09730,1","51,1","8,1,03,1",,"08,99,1,08,1,99,9,00250,1,99,9,99,9","99999,9,09722,1","2,1,002,1,+999,9","+061,9","SYN106AAXX  13091 02795 47368 81806 10065 20058 39722 49730 52002 75185 88/// 90839 222// 00061 555 795// 0/307;",
"02795099999","2010-11-13T12:00:00","4","60.1","24.9833333","6.4","HELSINKI HARMAJA, FI","FM-12","99999","V020","210,1,N,0050,1","99999,9,9,N","015000,1,N,1","+0068,1","+0063,1","09736,1","81,1","8,1,06,1",,"07,99,1,07,1,99,9,00075,1,99,9,99,9","99999,9,09728,1","2,1,006,1,+999,9","+062,9","SYN106AAXX  13121 02795 47165 72105 10068 20063 39728 49736 52006 78185 87/// 91139 222// 00062 555 797// 0/606;",
"02795099999","2010-11-13T15:00:00","4","60.1","24.9833333","6.4","HELSINKI HARMAJA, FI","FM-12","99999","V020","250,1,N,0110,1","99999,9,9,N","050000,1,N,1","+0051,1","+0028,1","09763,1","00,1","8,1,03,1",,"08,99,1,08,1,99,9,00450,1,99,9,99,9","99999,9,09755,1","2,1,027,1,+999,9","+061,9","SYN106AAXX  13151 02795 47499 82511 10051 20028 39755 49763 52027 70082 88/// 91439 222// 00061 555 785// 0/212;",
"02795099999","2010-11-13T21:00:00","4","60.1","24.9833333","6.4","HELSINKI HARMAJA, FI","FM-12","99999","V020","260,1,N,0100,1","99999,9,9,N","050000,1,N,1","+0044,1","+0022,1","09803,1","00,1","0,1,03,1",,"07,99,1,05,1,99,9,00450,1,99,9,99,9","99999,9,09796,1","2,1,020,1,+999,9","+061,9","SYN106AAXX  13211 02795 47499 72610 10044 20022 39796 49803 52020 70000 85/// 92039 222// 00061 555 786// 0/010;",
"02795099999","2010-11-14T00:00:00","4","60.1","24.9833333","6.4","HELSINKI HARMAJA, FI","FM-12","99999","V020","270,1,N,0100,1","99999,9,9,N","050000,1,N,1","+0040,1","+0018,1","09833,1","00,1","0,1,06,1",,"08,99,1,08,1,99,9,00450,1,99,9,99,9","99999,9,09825,1","2,1,029,1,+999,9","+060,9","SYN106AAXX  14001 02795 47499 82710 10040 20018 39825 49833 52029 70000 88/// 92339 222// 00060 555 785// 0/511;",
"02795099999","2010-11-14T03:00:00","4","60.1","24.9833333","6.4","HELSINKI HARMAJA, FI","FM-12","99999","V020","280,1,N,0080,1","99999,9,9,N","050000,1,N,1","+0037,1","+0016,1","09873,1","00,1","0,1,03,1",,"07,99,1,07,1,99,9,00450,1,99,9,99,9","99999,9,09865,1","2,1,040,1,+999,9","+059,9","SYN106AAXX  14031 02795 47499 72808 10037 20016 39865 49873 52040 70000 87/// 90239 222// 00059 555 786// 0/610;",
"02795099999","2010-11-14T09:00:00","4","60.1","24.9833333","6.4","HELSINKI HARMAJA, FI","FM-12","99999","V020","260,1,N,0090,1","99999,9,9,N","045000,1,N,1","+0042,1","+0017,1","09953,1","00,1","0,1,03,1",,"05,99,1,05,1,99,9,00450,1,99,9,99,9","99999,9,09945,1","2,1,044,1,+999,9","+060,9","SYN106AAXX  14091 02795 47483 52609 10042 20017 39945 49953 52044 70000 85/// 90839 222// 00060 555 784// 0/610;",
"02795099999","2010-11-14T12:00:00","4","60.1","24.9833333","6.4","HELSINKI HARMAJA, FI","FM-12","99999","V020","280,1,N,0040,1","22000,1,9,N","050000,1,N,1","+0044,1","+0014,1","09984,1","00,1","0,1,06,1",,"01,99,1,01,1,99,9,00800,1,99,9,99,9","99999,9,09976,1","2,1,032,1,+999,9","+060,9","SYN106AAXX  14121 02795 47599 12804 10044 20014 39976 49984 52032 70000 81/// 91139 222// 00060 555 780// 0/610;",
"02795099999","2010-11-14T15:00:00","4","60.1","24.9833333","6.4","HELSINKI HARMAJA, FI","FM-12","99999","V020","999,9,C,0000,1","99999,9,9,N","045000,1,N,1","+0046,1","+0029,1","10004,1","81,1","8,1,03,1",,"07,99,1,07,1,99,9,00450,1,99,9,99,9","99999,9,09997,1","2,1,020,1,+999,9","+061,9","SYN106AAXX  14151 02795 47483 70000 10046 20029 39997 40004 52020 78186 87/// 91439 222// 00061 555 789// 0/604;",
"02795099999","2010-11-14T21:00:00","4","60.1","24.9833333","6.4","HELSINKI HARMAJA, FI","FM-12","99999","V020","210,1,N,0080,1","99999,9,9,N","016000,1,N,1","+0066,1","+0055,1","10018,1","00,1","6,1,03,1",,"07,99,1,01,1,99,9,01250,1,99,9,99,9","99999,9,10010,1","2,1,006,1,+999,9","+062,9","SYN106AAXX  14211 02795 47666 72108 10066 20055 30010 40018 52006 70065 81/// 92039 222// 00062 555 792// 0/410;",
"02795099999","2010-11-15T00:00:00","4","60.1","24.9833333","6.4","HELSINKI HARMAJA, FI","FM-12","99999","V020","210,1,N,0070,1","99999,9,9,N","014000,1,N,1","+0066,1","+0053,1","10022,1","61,1","6,1,06,1",,"08,99,1,08,1,99,9,00800,1,99,9,99,9","99999,9,10014,1","2,1,004,1,+999,9","+062,9","SYN106AAXX  15001 02795 47564 82107 10066 20053 30014 40022 52004 76165 88/// 92339 222// 00062 555 792// 0/308;",
"02795099999","2010-11-15T03:00:00","4","60.1","24.9833333","6.4","HELSINKI HARMAJA, FI","FM-12","99999","V020","160,1,N,0030,1","99999,9,9,N","015000,1,N,1","+0063,1","+0056,1","10018,1","00,1","7,1,03,1",,"08,99,1,08,1,99,9,01750,1,99,9,99,9","99999,9,10010,1","7,1,004,1,+999,9","+063,9","SYN106AAXX  15031 02795 47765 81603 10063 20056 30010 40018 57004 70076 88/// 90239 222// 00063 555 795// 0/608;",
"02795099999","2010-11-15T09:00:00","4","60.1","24.9833333","6.4","HELSINKI HARMAJA, FI","FM-12","99999","V020","120,1,N,0020,1","99999,9,9,N","029000,1,N,1","+0062,1","+0053,1","10022,1","51,1","5,1,03,1",,"08,99,1,08,1,99,9,02250,1,99,9,99,9","99999,9,10014,1","2,1,005,1,+999,9","+062,9","SYN106AAXX  15091 02795 47879 81202 10062 20053 30014 40022 52005 75154 88/// 90839 222// 00062 555 794// 0/103;",
"02795099999","2010-11-15T12:00:00","4","60.1","24.9833333","6.4","HELSINKI HARMAJA, FI","FM-12","99999","V020","090,1,N,0050,1","99999,9,9,N","009000,1,N,1","+0061,1","+0056,1","10012,1","81,1","8,1,06,1",,"08,99,1,08,1,99,9,00075,1,99,9,99,9","99999,9,10004,1","7,1,010,1,+999,9","+062,9","SYN106AAXX  15121 02795 47159 80905 10061 20056 30004 40012 57010 78186 88/// 91139 222// 00062 555 797// 0/005;",
"02795099999","2010-11-15T15:00:00","4","60.1","24.9833333","6.4","HELSINKI HARMAJA, FI","FM-12","99999","V020","120,1,N,0060,1","99999,9,9,N","004200,1,N,1","+0063,1","+0059,1","09986,1","61,1","8,1,03,1",,"07,99,1,07,1,99,9,00025,1,99,9,99,9","99999,9,09978,1","7,1,025,1,+999,9","+062,9","SYN106AAXX  15151 02795 47042 71206 10063 20059 39978 49986 57025 76186 87/// 91439 222// 00062 555 798// 0/306;",
"02795099999","2010-11-15T21:00:00","4","60.1","24.9833333","6.4","HELSINKI HARMAJA, FI","FM-12","99999","V020","220,1,N,0110,1","99999,9,9,N","016000,1,N,1","+0071,1","+0062,1","09993,1","23,1","8,1,03,1",,"08,99,1,08,1,99,9,00250,1,99,9,99,9","99999,9,09985,1","2,1,012,1,+999,9","+062,9","SYN106AAXX  15211 02795 47366 82211 10071 20062 39985 49993 52012 72386 88/// 92039 222// 00062 555 794// 0/516;",
"02795099999","2010-11-16T00:00:00","4","60.1","24.9833333","6.4","HELSINKI HARMAJA, FI","FM-12","99999","V020","280,1,N,0100,1","99999,9,9,N","050000,1,N,1","+0041,1","+0028,1","99999,9","00,1","8,1,06,1",,"08,99,1,08,1,99,9,00250,1,99,9,99,9",,"2,1,089,1,+999,9","+061,9","SYN106AAXX  16001 02795 47399 82810 10041 20028 30074 40082 52089 70086 88/// 92339 222// 00061 555 791// 0/516;","Q01+100743APOSP "
"02795099999","2010-11-16T03:00:00","4","60.1","24.9833333","6.4","HELSINKI HARMAJA, FI","FM-12","99999","V020","260,1,N,0070,1","99999,9,9,N","045000,1,N,1","+0044,1","+0028,1","10115,1","00,1","0,1,03,1",,"08,99,1,07,1,99,9,00250,1,99,9,99,9","99999,9,10107,1","2,1,033,1,+999,9","+061,9","SYN106AAXX  16031 02795 47383 82607 10044 20028 30107 40115 52033 70000 87/// 90239 222// 00061 555 789// 0/510;",
"02795099999","2010-11-16T09:00:00","4","60.1","24.9833333","6.4","HELSINKI HARMAJA, FI","FM-12","99999","V020","300,1,N,0050,1","99999,9,9,N","050000,1,N,1","+0040,1","+0023,1","10170,1","00,1","3,1,03,1",,"08,99,1,08,1,99,9,00450,1,99,9,99,9","99999,9,10162,1","2,1,033,1,+999,9","+060,9","SYN106AAXX  16091 02795 47499 83005 10040 20023 30162 40170 52033 70020 88/// 90839 222// 00060 555 789// 0/506;",
"02795099999","2010-11-16T12:00:00","4","60.1","24.9833333","6.4","HELSINKI HARMAJA, FI","FM-12","99999","V020","320,1,N,0050,1","22000,1,9,N","050000,1,N,1","+0035,1","+0009,1","10200,1","00,1","8,1,06,1","00,1,+99999,9,99,9","00,99,1,00,1,00,1,99999,9,00,1,00,1","99999,9,10192,1","2,1,031,1,+999,9","+059,9","SYN100AAXX  16121 02795 47999 03205 10035 20009 30192 40200 52031 70085 91139 222// 00059 555 783// 0/407;",
"02795099999","2010-11-16T15:00:00","4","60.1","24.9833333","6.4","HELSINKI HARMAJA, FI","FM-12","99999","V020","330,1,N,0090,1","99999,9,9,N","018000,1,N,1","+0021,1","+0005,1","10227,1","51,1","8,1,03,1",,"07,99,1,07,1,99,9,00450,1,99,9,99,9","99999,9,10219,1","2,1,026,1,+999,9","+059,9","SYN106AAXX  16151 02795 47468 73309 10021 20005 30219 40227 52026 75185 87/// 91439 222// 00059 555 789// 0/009;",
"02795099999","2010-11-16T21:00:00","4","60.1","24.9833333","6.4","HELSINKI HARMAJA, FI","FM-12","99999","V020","010,1,N,0040,1","99999,9,9,N","045000,1,N,1","+0013,1","-0011,1","10274,1","00,1","8,1,03,1",,"07,99,1,07,1,99,9,00450,1,99,9,99,9","99999,9,10266,1","2,1,022,1,+999,9","+058,9","SYN106AAXX  16211 02795 47483 70104 10013 21011 30266 40274 52022 70082 87/// 92039 222// 00058 555 784// 0/606;",
"02795099999","2010-11-17T00:00:00","4","60.1","24.9833333","6.4","HELSINKI HARMAJA, FI","FM-12","99999","V020","340,1,N,0040,1","99999,9,9,N","050000,1,N,1","+0004,1","-0031,1","10298,1","00,1","8,1,06,1",,"07,99,1,07,1,99,9,00450,1,99,9,99,9","99999,9,10289,1","2,1,023,1,+999,9","+058,9","SYN106AAXX  17001 02795 47499 73404 10004 21031 30289 40298 52023 70082 87/// 92339 222// 00058 555 777// 0/206;",
"02795099999","2010-11-17T03:00:00","4","60.1","24.9833333","6.4","HELSINKI HARMAJA, FI","FM-12","99999","V020","350,1,N,0040,1","99999,9,9,N","050000,1,N,1","-0001,1","-0027,1","10312,1","00,1","8,1,03,1",,"07,99,1,07,1,99,9,00450,1,99,9,99,9","99999,9,10304,1","2,1,015,1,+999,9","+058,9","SYN106AAXX  17031 02795 47499 73504 11001 21027 30304 40312 52015 70085 87/// 90239 222// 00058 555 783// 0/405;",
"02795099999","2010-11-17T09:00:00","4","60.1","24.9833333","6.4","HELSINKI HARMAJA, FI","FM-12","99999","V020","060,1,N,0040,1","99999,9,9,N","050000,1,N,1","-0002,1","-0031,1","10339,1","00,1","0,1,03,1",,"07,99,1,07,1,99,9,00450,1,99,9,99,9","99999,9,10331,1","2,1,016,1,+999,9","+055,9","SYN106AAXX  17091 02795 47499 70604 11002 21031 30331 40339 52016 70000 87/// 90839 222// 00055 555 781// 0/205;",
"02795099999","2010-11-17T12:00:00","4","60.1","24.9833333","6.4","HELSINKI HARMAJA, FI","FM-12","99999","V020","050,1,N,0050,1","99999,9,9,N","050000,1,N,1","-0004,1","-0039,1","10340,1","00,1","0,1,06,1",,"07,99,1,07,1,99,9,00450,1,99,9,99,9","99999,9,10332,1","4,1,000,1,+999,9","+055,9","SYN106AAXX  17121 02795 47499 70505 11004 21039 30332 40340 54001 70000 87/// 91139 222// 00055 555 778// 0/107;",
"02795099999","2010-11-17T15:00:00","4","60.1","24.9833333","6.4","HELSINKI HARMAJA, FI","FM-12","99999","V020","030,1,N,0070,1","99999,9,9,N","050000,1,N,1","-0004,1","-0031,1","10334,1","00,1","0,1,03,1",,"07,99,1,07,1,99,9,00800,1,99,9,99,9","99999,9,10326,1","7,1,006,1,+999,9","+056,9","SYN106AAXX  17151 02795 47599 70307 11004 21031 30326 40334 57006 70000 87/// 91439 222// 00056 555 782// 0/007;",
"02795099999","2010-11-17T21:00:00","4","60.1","24.9833333","6.4","HELSINKI HARMAJA, FI","FM-12","99999","V020","060,1,N,0100,1","99999,9,9,N","003000,1,N,1","+0004,1","-0002,1","10310,1","67,1","8,1,03,1",,"07,99,1,07,1,99,9,00150,1,99,9,99,9","99999,9,10301,1","7,1,017,1,+999,9","+056,9","SYN106AAXX  17211 02795 47230 70610 10004 21002 30301 40310 57017 76786 87/// 92039 222// 00056 555 795// 0/310;",
"02795099999","2010-11-18T00:00:00","4","60.1","24.9833333","6.4","HELSINKI HARMAJA, FI","FM-12","99999","V020","090,1,N,0120,1","99999,9,9,N","001900,1,N,1","+0018,1","+0010,1","10290,1","40,1","8,1,06,1",,"07,99,1,07,1,99,9,00150,1,99,9,99,9","99999,9,10282,1","7,1,019,1,+999,9","+055,9","SYN106AAXX  18001 02795 47219 70912 10018 20010 30282 40290 57019 74087 87/// 92339 222// 00055 555 795// 0/213;",
"02795099999","2010-11-18T03:00:00","4","60.1","24.9833333","6.4","HELSINKI HARMAJA, FI","FM-12","99999","V020","090,1,N,0150,1","00120,1,9,N","001100,1,N,1","+0015,1","+0010,1","10257,1","71,1","7,1,03,1","09,1,+99999,9,99,9","09,99,1,09,1,99,9,99999,9,99,9,99,9","99999,9,10249,1","7,1,033,1,+999,9","+055,9","SYN100AAXX  18031 02795 47211 90915 10015 20010 30249 40257 57033 77176 90239 222// 00055 555 797// 0/115;",
"02795099999","2010-11-18T09:00:00","4","60.1","24.9833333","6.4","HELSINKI HARMAJA, FI","FM-12","99999","V020","110,1,N,0120,1","99999,9,9,N","003100,1,N,1","+0020,1","+0017,1","10197,1","40,1","7,1,03,1",,"08,99,1,08,1,99,9,00150,1,99,9,99,9","99999,9,10189,1","7,1,025,1,+999,9","+055,9","SYN106AAXX  18091 02795 47231 81112 10020 20017 30189 40197 57025 74076 88/// 90839 222// 00055 555 797// 0/414;",
"02795099999","2010-11-18T12:00:00","4","60.1","24.9833333","6.4","HELSINKI HARMAJA, FI","FM-12","99999","V020","120,1,N,0050,1","99999,9,9,N","012000,1,N,1","+0024,1","+0018,1","10176,1","61,1","7,1,06,1",,"08,99,1,08,1,99,9,00150,1,99,9,99,9","99999,9,10168,1","7,1,021,1,+999,9","+056,9","SYN106AAXX  18121 02795 47262 81205 10024 20018 30168 40176 57021 76176 88/// 91139 222// 00056 555 796// 0/612;",
"02795099999","2010-11-18T15:00:00","4","60.1","24.9833333","6.4","HELSINKI HARMAJA, FI","FM-12","99999","V020","020,1,N,0030,1","99999,9,9,N","005000,1,N,1","+0024,1","+0020,1","10170,1","52,1","8,1,03,1",,"08,99,1,08,1,99,9,00150,1,99,9,99,9","99999,9,10162,1","7,1,006,1,+999,9","+056,9","SYN106AAXX  18151 02795 47250 80203 10024 20020 30162 40170 57006 75286 88/// 91439 222// 00056 555 797// 0/605;",
"02795099999","2010-11-18T21:00:00","4","60.1","24.9833333","6.4","HELSINKI HARMAJA, FI","FM-12","99999","V020","340,1,N,0070,1","99999,9,9,N","021000,1,N,1","+0007,1","+0000,1","10191,1","00,1","0,1,03,1",,"08,99,1,08,1,99,9,00150,1,99,9,99,9","99999,9,10183,1","2,1,013,1,+999,9","+054,9","SYN106AAXX  18211 02795 47271 83407 10007 20000 30183 40191 52013 70000 88/// 92039 222// 00054 555 795// 0/007;",
"02795099999","2010-11-19T00:00:00","4","60.1","24.9833333","6.4","HELSINKI HARMAJA, FI","FM-12","99999","V020","010,1,N,0080,1","99999,9,9,N","050000,1,N,1","+0001,1","-0008,1","10205,1","00,1","0,1,06,1",,"07,99,1,07,1,99,9,00250,1,99,9,99,9","99999,9,10197,1","2,1,013,1,+999,9","+054,9","SYN106AAXX  19001 02795 47399 70108 10001 21008 30197 40205 52013 70000 87/// 92339 222// 00054 555 793// 0/309;",
"02795099999","2010-11-19T03:00:00","4","60.1","24.9833333","6.4","HELSINKI HARMAJA, FI","FM-12","99999","V020","010,1,N,0080,1","99999,9,9,N","030000,1,N,1","-0006,1","-0015,1","10212,1","00,1","0,1,03,1",,"08,99,1,08,1,99,9,00250,1,99,9,99,9","99999,9,10204,1","2,1,008,1,+999,9","+053,9","SYN106AAXX  19031 02795 47380 80108 11006 21015 30204 40212 52008 70000 88/// 90239 222// 00053 555 793// 0/309;",
"02795099999","2010-11-19T09:00:00","4","60.1","24.9833333","6.4","HELSINKI HARMAJA, FI","FM-12","99999","V020","030,1,N,0060,1","99999,9,9,N","025000,1,N,1","-0023,1","-0033,1","10236,1","00,1","0,1,03,1",,"08,99,1,08,1,99,9,00150,1,99,9,99,9","99999,9,10228,1","2,1,009,1,+999,9","+051,9","SYN106AAXX  19091 02795 47275 80306 11023 21033 30228 40236 52009 70000 88/// 90839 222// 00051 555 793// 0/509;",
"02795099999","2010-11-19T12:00:00","4","60.1","24.9833333","6.4","HELSINKI HARMAJA, FI","FM-12","99999","V020","030,1,N,0070,1","99999,9,9,N","030000,1,N,1","-0025,1","-0039,1","10237,1","00,1","0,1,06,1",,"07,99,1,07,1,99,9,00250,1,99,9,99,9","99999,9,10229,1","4,1,000,1,+999,9","+052,9","SYN106AAXX  19121 02795 47380 70307 11025 21039 30229 40237 54001 70000 87/// 91139 222// 00052 555 790// 0/308;",
"02795099999","2010-11-19T15:00:00","4","60.1","24.9833333","6.4","HELSINKI HARMAJA, FI","FM-12","99999","V020","030,1,N,0070,1","99999,9,9,N","015000,1,N,1","-0024,1","-0035,1","10238,1","00,1","0,1,03,1",,"08,99,1,08,1,99,9,00250,1,99,9,99,9","99999,9,10230,1","4,1,000,1,+999,9","+050,9","SYN106AAXX  19151 02795 47365 80307 11024 21035 30230 40238 54001 70000 88/// 91439 222// 00050 555 793// 0/108;",
"02795099999","2010-11-19T21:00:00","4","60.1","24.9833333","6.4","HELSINKI HARMAJA, FI","FM-12","99999","V020","040,1,N,0080,1","99999,9,9,N","010000,1,N,1","-0024,1","-0034,1","10248,1","00,1","2,1,03,1",,"08,99,1,08,1,99,9,00150,1,99,9,99,9","99999,9,10240,1","2,1,005,1,+999,9","+050,9","SYN106AAXX  19211 02795 47260 80408 11024 21034 30240 40248 52005 70010 88/// 92039 222// 00050 555 793// 0/608;",
"02795099999","2010-11-20T00:00:00","4","60.1","24.9833333","6.4","HELSINKI HARMAJA, FI","FM-12","99999","V020","050,1,N,0080,1","99999,9,9,N","008000,1,N,1","-0019,1","-0027,1","10249,1","25,1","5,1,06,1",,"08,99,1,08,1,99,9,00150,1,99,9,99,9","99999,9,10241,1","4,1,000,1,+999,9","+050,9","SYN106AAXX  20001 02795 47258 80508 11019 21027 30241 40249 54001 72554 88/// 92339 222// 00050 555 795// 0/208;",
"02795099999","2010-11-20T03:00:00","4","60.1","24.9833333","6.4","HELSINKI HARMAJA, FI","FM-12","99999","V020","050,1,N,0100,1","99999,9,9,N","011000,1,N,1","-0015,1","-0024,1","10253,1","54,1","8,1,03,1",,"08,99,1,08,1,99,9,00150,1,99,9,99,9","99999,9,10245,1","2,1,004,1,+999,9","+050,9","SYN106AAXX  20031 02795 47261 80510 11015 21024 30245 40253 52004 75485 88/// 90239 222// 00050 555 794// 0/010;",
"02795099999","2010-11-20T09:00:00","4","60.1","24.9833333","6.4","HELSINKI HARMAJA, FI","FM-12","99999","V020","060,1,N,0110,1","99999,9,9,N","002100,1,N,1","-0003,1","-0008,1","10265,1","65,1","6,1,03,1",,"08,99,1,08,1,99,9,00150,1,99,9,99,9","99999,9,10257,1","2,1,010,1,+999,9","+048,9","SYN106AAXX  20091 02795 47221 80611 11003 21008 30257 40265 52010 76560 88/// 90839 222// 00048 555 797// 0/012;",
"02795099999","2010-11-20T12:00:00","4","60.1","24.9833333","6.4","HELSINKI HARMAJA, FI","FM-12","99999","V020","060,1,N,0090,1","99999,9,9,N","002200,1,N,1","-0001,1","-0005,1","10261,1","64,1","6,1,06,1",,"08,99,1,08,1,99,9,00150,1,99,9,99,9","99999,9,10253,1","7,1,004,1,+999,9","+048,9","SYN106AAXX  20121 02795 47222 80609 11001 21005 30253 40261 57004 76465 88/// 91139 222// 00048 555 797// 0/611;",
"02795099999","2010-11-20T15:00:00","4","60.1","24.9833333","6.4","HELSINKI HARMAJA, FI","FM-12","99999","V020","050,1,N,0080,1","99999,9,9,N","003500,1,N,1","+0004,1","+0001,1","10256,1","61,1","6,1,03,1",,"08,99,1,08,1,99,9,00075,1,99,9,99,9","99999,9,10248,1","7,1,005,1,+999,9","+046,9","SYN106AAXX  20151 02795 47135 80508 10004 20001 30248 40256 57005 76160 88/// 91439 222// 00046 555 798// 0/609;",
"02795099999","2010-11-20T21:00:00","4","60.1","24.9833333","6.4","HELSINKI HARMAJA, FI","FM-12","99999","V020","090,1,N,0100,1","99999,9,9,N","015000,1,N,1","+0028,1","+0012,1","10252,1","81,1","8,1,03,1",,"08,99,1,08,1,99,9,00450,1,99,9,99,9","99999,9,10244,1","7,1,003,1,+999,9","+046,9","SYN106AAXX  20211 02795 47465 80910 10028 20012 30244 40252 57003 78186 88/// 92039 222// 00046 555 789// 0/612;",
"02795099999","2010-11-21T00:00:00","4","60.1","24.9833333","6.4","HELSINKI HARMAJA, FI","FM-12","99999","V020","050,1,N,0070,1","99999,9,9,N","019000,1,N,1","+0004,1","-0004,1","10246,1","51,1","8,1,06,1",,"08,99,1,08,1,99,9,00150,1,99,9,99,9","99999,9,10238,1","7,1,005,1,+999,9","+047,9","SYN106AAXX  21001 02795 47269 80507 10004 21004 30238 40246 57005 75186 88/// 92339 222// 00047 555 794// 0/611;",
"02795099999","2010-11-21T03:00:00","4","60.1","24.9833333","6.4","HELSINKI HARMAJA, FI","FM-12","99999","V020","040,1,N,0080,1","99999,9,9,N","018000,1,N,1","-0004,1","-0014,1","10237,1","25,1","8,1,03,1",,"08,99,1,08,1,99,9,00250,1,99,9,99,9","99999,9,10229,1","7,1,009,1,+999,9","+048,9","SYN106AAXX  21031 02795 47368 80408 11004 21014 30229 40237 57009 72586 88/// 90239 222// 00048 555 793// 0/008;",
"02795099999","2010-11-21T09:00:00","4","60.1","24.9833333","6.4","HELSINKI HARMAJA, FI","FM-12","99999","V020","040,1,N,0080,1","99999,9,9,N","023000,1,N,1","-0003,1","-0013,1","10236,1","25,1","5,1,03,1",,"07,99,1,07,1,99,9,00150,1,99,9,99,9","99999,9,10228,1","2,1,004,1,+999,9","+047,9","SYN106AAXX  21091 02795 47273 70408 11003 21013 30228 40236 52004 72554 87/// 90839 222// 00047 555 793// 0/608;",
"02795099999","2010-11-21T12:00:00","4","60.1","24.9833333","6.4","HELSINKI HARMAJA, FI","FM-12","99999","V020","040,1,N,0080,1","99999,9,9,N","012000,1,N,1","-0003,1","-0014,1","10234,1","54,1","8,1,06,1",,"07,99,1,07,1,99,9,00250,1,99,9,99,9","99999,9,10225,1","7,1,003,1,+999,9","+047,9","SYN106AAXX  21121 02795 47362 70408 11003 21014 30225 40234 57003 75485 87/// 91139 222// 00047 555 792// 0/009;",
"02795099999","2010-11-21T15:00:00","4","60.1","24.9833333","6.4","HELSINKI HARMAJA, FI","FM-12","99999","V020","040,1,N,0070,1","99999,9,9,N","011000,1,N,1","-0008,1","-0019,1","10234,1","54,1","6,1,03,1",,"08,99,1,08,1,99,9,00250,1,99,9,99,9","99999,9,10226,1","4,1,000,1,+999,9","+047,9","SYN106AAXX  21151 02795 47361 80407 11008 21019 30226 40234 54001 75465 88/// 91439 222// 00047 555 793// 0/508;",
"02795099999","2010-11-21T21:00:00","4","60.1","24.9833333","6.4","HELSINKI HARMAJA, FI","FM-12","99999","V020","040,1,N,0080,1","99999,9,9,N","027000,1,N,1","-0027,1","-0037,1","10235,1","00,1","3,1,03,1",,"07,99,1,07,1,99,9,00250,1,99,9,99,9","99999,9,10227,1","4,1,000,1,+999,9","+046,9","SYN106AAXX  21211 02795 47377 70408 11027 21037 30227 40235 54001 70020 87/// 92039 222// 00046 555 793// 0/408;",
"02795099999","2010-11-22T00:00:00","4","60.1","24.9833333","6.4","HELSINKI HARMAJA, FI","FM-12","99999","V020","040,1,N,0070,1","99999,9,9,N","026000,1,N,1","-0030,1","-0040,1","10232,1","54,1","5,1,06,1",,"07,99,1,07,1,99,9,00250,1,99,9,99,9","99999,9,10224,1","7,1,003,1,+999,9","+045,9","SYN106AAXX  22001 02795 47376 70407 11030 21040 30224 40232 57003 75454 87/// 92339 222// 00045 555 792// 0/308;",
"02795099999","2010-11-22T03:00:00","4","60.1","24.9833333","6.4","HELSINKI HARMAJA, FI","FM-12","99999","V020","040,1,N,0060,1","99999,9,9,N","050000,1,N,1","-0033,1","-0045,1","10226,1","00,1","8,1,03,1",,"07,99,1,07,1,99,9,00800,1,99,9,99,9","99999,9,10218,1","7,1,006,1,+999,9","+045,9","SYN106AAXX  22031 02795 47599 70406 11033 21045 30218 40226 57006 70086 87/// 90239 222// 00045 555 792// 0/608;",
"02795099999","2010-11-22T09:00:00","4","60.1","24.9833333","6.4","HELSINKI HARMAJA, FI","FM-12","99999","V020","040,1,N,0060,1","99999,9,9,N","009000,1,N,1","-0059,1","-0067,1","10211,1","54,1","5,1,03,1",,"07,99,1,07,1,99,9,00150,1,99,9,99,9","99999,9,10202,1","7,1,007,1,+999,9","+044,9","SYN106AAXX  22091 02795 47259 70406 11059 21067 30202 40211 57007 75454 87/// 90839 222// 00044 555 794// 0/506;",
"02795099999","2010-11-22T12:00:00","4","60.1","24.9833333","6.4","HELSINKI HARMAJA, FI","FM-12","99999","V020","050,1,N,0060,1","99999,9,9,N","001300,1,N,1","-0048,1","-0055,1","10193,1","64,1","6,1,06,1",,"07,99,1,07,1,99,9,00075,1,99,9,99,9","99999,9,10185,1","7,1,018,1,+999,9","+042,9","SYN106AAXX  22121 02795 47113 70506 11048 21055 30185 40193 57018 76465 87/// 91139 222// 00042 555 795// 0/006;",
"02795099999","2010-11-22T15:00:00","4","60.1","24.9833333","6.4","HELSINKI HARMAJA, FI","FM-12","99999","V020","040,1,N,0050,1","99999,9,9,N","008000,1,N,1","-0035,1","-0041,1","10174,1","54,1","6,1,03,1",,"07,99,1,07,1,99,9,00150,1,99,9,99,9","99999,9,10166,1","7,1,019,1,+999,9","+042,9","SYN106AAXX  22151 02795 47258 70405 11035 21041 30166 40174 57019 75465 87/// 91439 222// 00042 555 796// 0/506;",
"02795099999","2010-11-22T21:00:00","4","60.1","24.9833333","6.4","HELSINKI HARMAJA, FI","FM-12","99999","V020","060,1,N,0070,1","99999,9,9,N","009000,1,N,1","-0013,1","-0017,1","10141,1","64,1","6,1,03,1",,"07,99,1,07,1,99,9,00150,1,99,9,99,9","99999,9,10133,1","7,1,013,1,+999,9","+042,9","SYN106AAXX  22211 02795 47259 70607 11013 21017 30133 40141 57013 76465 87/// 92039 222// 00042 555 797// 0/007;",
"02795099999","2010-11-23T00:00:00","4","60.1","24.9833333","6.4","HELSINKI HARMAJA, FI","FM-12","99999","V020","060,1,N,0070,1","99999,9,9,N","009000,1,N,1","-0011,1","-0015,1","10123,1","64,1","7,1,06,1",,"07,99,1,07,1,99,9,00150,1,99,9,99,9","99999,9,10115,1","7,1,018,1,+999,9","+042,9","SYN106AAXX  23001 02795 47259 70607 11011 21015 30115 40123 57018 76476 87/// 92339 222// 00042 555 797// 0/207;",
"02795099999","2010-11-23T03:00:00","4","60.1","24.9833333","6.4","HELSINKI HARMAJA, FI","FM-12","99999","V020","050,1,N,0080,1","99999,9,9,N","012000,1,N,1","-0024,1","-0044,1","10113,1","54,1","6,1,03,1",,"08,99,1,08,1,99,9,00450,1,99,9,99,9","99999,9,10105,1","7,1,010,1,+999,9","+042,9","SYN106AAXX  23031 02795 47462 80508 11024 21044 30105 40113 57010 75465 88/// 90239 222// 00042 555 786// 0/008;",
"02795099999","2010-11-23T09:00:00","4","60.1","24.9833333","6.4","HELSINKI HARMAJA, FI","FM-12","99999","V020","050,1,N,0090,1","99999,9,9,N","035000,1,N,1","-0017,1","-0047,1","10092,1","00,1","6,1,03,1",,"08,99,1,08,1,99,9,01250,1,99,9,99,9","99999,9,10084,1","7,1,012,1,+999,9","+043,9","SYN106AAXX  23091 02795 47681 80509 11017 21047 30084 40092 57012 70065 88/// 90839 222// 00043 555 780// 0/609;",
"02795099999","2010-11-23T12:00:00","4","60.1","24.9833333","6.4","HELSINKI HARMAJA, FI","FM-12","99999","V020","040,1,N,0090,1","99999,9,9,N","030000,1,N,1","-0017,1","-0046,1","10069,1","54,1","8,1,06,1",,"08,99,1,08,1,99,9,00800,1,99,9,99,9","99999,9,10060,1","7,1,024,1,+999,9","+043,9","SYN106AAXX  23121 02795 47580 80409 11017 21046 30060 40069 57024 75486 88/// 91139 222// 00043 555 781// 0/210;",
"02795099999","2010-11-23T15:00:00","4","60.1","24.9833333","6.4","HELSINKI HARMAJA, FI","FM-12","99999","V020","050,1,N,0110,1","99999,9,9,N","006000,1,N,1","-0022,1","-0037,1","10047,1","64,1","6,1,03,1",,"08,99,1,08,1,99,9,00450,1,99,9,99,9","99999,9,10039,1","7,1,022,1,+999,9","+041,9","SYN106AAXX  23151 02795 47456 80511 11022 21037 30039 40047 57022 76465 88/// 91439 222// 00041 555 789// 0/311;",
"02795099999","2010-11-23T21:00:00","4","60.1","24.9833333","6.4","HELSINKI HARMAJA, FI","FM-12","99999","V020","050,1,N,0120,1","99999,9,9,N","001700,1,N,1","-0014,1","-0021,1","10009,1","64,1","6,1,03,1",,"08,99,1,08,1,99,9,00250,1,99,9,99,9","99999,9,10001,1","7,1,018,1,+999,9","+039,9","SYN106AAXX  23211 02795 47317 80512 11014 21021 30001 40009 57018 76460 88/// 92039 222// 00039 555 795// 0/013;",
"02795099999","2010-11-24T00:00:00","4","60.1","24.9833333","6.4","HELSINKI HARMAJA, FI","FM-12","99999","V020","050,1,N,0110,1","99999,9,9,N","003900,1,N,1","-0018,1","-0027,1","09994,1","64,1","6,1,06,1",,"08,99,1,08,1,99,9,00450,1,99,9,99,9","99999,9,09986,1","7,1,015,1,+999,9","+038,9","SYN106AAXX  24001 02795 47439 80511 11018 21027 39986 49994 57015 76460 88/// 92339 222// 00038 555 793// 0/414;",
"02795099999","2010-11-24T03:00:00","4","60.1","24.9833333","6.4","HELSINKI HARMAJA, FI","FM-12","99999","V020","050,1,N,0130,1","00060,1,9,N","001000,1,N,1","-0012,1","-0017,1","09982,1","71,1","7,1,03,1","09,1,+99999,9,99,9","09,99,1,09,1,99,9,99999,9,99,9,99,9","99999,9,09974,1","7,1,012,1,+999,9","+038,9","SYN100AAXX  24031 02795 47210 90513 11012 21017 39974 49982 57012 77176 90239 222// 00038 555 797// 0/214;",
"02795099999","2010-11-24T09:00:00","4","60.1","24.9833333","6.4","HELSINKI HARMAJA, FI","FM-12","99999","V020","060,1,N,0120,1","99999,9,9,N","000900,1,N,1","-0011,1","-0015,1","09981,1","74,1","7,1,03,1",,"07,99,1,07,1,99,9,00150,1,99,9,99,9","99999,9,09973,1","2,1,006,1,+999,9","+035,9","SYN106AAXX  24091 02795 47209 70612 11011 21015 39973 49981 52006 77470 87/// 90839 222// 00035 555 797// 0/313;",
"02795099999","2010-11-24T12:00:00","4","60.1","24.9833333","6.4","HELSINKI HARMAJA, FI","FM-12","99999","V020","060,1,N,0120,1","99999,9,9,N","002400,1,N,1","-0009,1","-0014,1","09982,1","67,1","7,1,06,1",,"08,99,1,08,1,99,9,00250,1,99,9,99,9","99999,9,09974,1","4,1,000,1,+999,9","+037,9","SYN106AAXX  24121 02795 47324 80612 11009 21014 39974 49982 54001 76776 88/// 91139 222// 00037 555 796// 0/513;",
"02795099999","2010-11-24T21:00:00","4","60.1","24.9833333","6.4","HELSINKI HARMAJA, FI","FM-12","99999","V020","030,1,N,0140,1","99999,9,9,N","002400,1,N,1","-0040,1","-0055,1","09993,1","64,1","6,1,03,1",,"08,99,1,08,1,99,9,00450,1,99,9,99,9","99999,9,09985,1","2,1,005,1,+999,9","+036,9","SYN106AAXX  24211 02795 47424 80314 11040 21055 39985 49993 52005 76465 88/// 92039 222// 00036 555 790// 0/014;",
"02795099999","2010-11-25T00:00:00","4","60.1","24.9833333","6.4","HELSINKI HARMAJA, FI","FM-12","99999","V020","030,1,N,0130,1","99999,9,9,N","002900,1,N,1","-0041,1","-0056,1","09996,1","67,1","7,1,06,1",,"08,99,1,08,1,99,9,00800,1,99,9,99,9","99999,9,09988,1","2,1,003,1,+999,9","+036,9","SYN106AAXX  25001 02795 47529 80313 11041 21056 39988 49996 52003 76776 88/// 92339 222// 00036 555 789// 0/614;",
"02795099999","2010-11-25T03:00:00","4","60.1","24.9833333","6.4","HELSINKI HARMAJA, FI","FM-12","99999","V020","030,1,N,0110,1","99999,9,9,N","030000,1,N,1","-0049,1","-0079,1","09999,1","54,1","6,1,03,1",,"08,99,1,08,1,99,9,00800,1,99,9,99,9","99999,9,09991,1","2,1,003,1,+999,9","+035,9","SYN106AAXX  25031 02795 47580 80311 11049 21079 39991 49999 52003 75465 88/// 90239 222// 00035 555 779// 0/613;",
"02795099999","2010-11-25T09:00:00","4","60.1","24.9833333","6.4","HELSINKI HARMAJA, FI","FM-12","99999","V020","020,1,N,0080,1","99999,9,9,N","040000,1,N,1","-0062,1","-0087,1","10014,1","00,1","0,1,03,1",,"07,99,1,05,1,99,9,00800,1,99,9,99,9","99999,9,10005,1","2,1,012,1,+999,9","+035,9","SYN106AAXX  25091 02795 47582 70208 11062 21087 30005 40014 52012 70000 85/// 90839 222// 00035 555 782// 0/611;",
"02795099999","2010-11-25T12:00:00","4","60.1","24.9833333","6.4","HELSINKI HARMAJA, FI","FM-12","99999","V020","030,1,N,0100,1","99999,9,9,N","045000,1,N,1","-0061,1","-0089,1","10014,1","25,1","8,1,06,1",,"07,99,1,01,1,99,9,01750,1,99,9,99,9","99999,9,10006,1","4,1,000,1,+999,9","+035,9","SYN106AAXX  25121 02795 47783 70310 11061 21089 30006 40014 54001 72586 81/// 91139 222// 00035 555 781// 0/410;",
"02795099999","2010-11-25T15:00:00","4","60.1","24.9833333","6.4","HELSINKI HARMAJA, FI","FM-12","99999","V020","040,1,N,0090,1","99999,9,9,N","050000,1,N,1","-0070,1","-0094,1","10021,1","00,1","3,1,03,1",,"07,99,1,07,1,99,9,99999,9,99,9,99,9","99999,9,10013,1","2,1,007,1,+999,9","+034,9","SYN106AAXX  25151 02795 47999 70409 11070 21094 30013 40021 52007 70020 87/// 91439 222// 00034 555 783// 0/310;",
"02795099999","2010-11-25T21:00:00","4","60.1","24.9833333","6.4","HELSINKI HARMAJA, FI","FM-12","99999","V020","040,1,N,0080,1","22000,1,9,N","050000,1,N,1","-0089,1","-0111,1","10037,1","00,1","0,1,03,1","00,1,+99999,9,99,9","00,99,1,00,1,00,1,99999,9,00,1,00,1","99999,9,10029,1","2,1,009,1,+999,9","+030,9","SYN100AAXX  25211 02795 47999 00408 11089 21111 30029 40037 52009 70000 92039 222// 00030 555 784// 0/609;",
"02795099999","2010-11-26T00:00:00","4","60.1","24.9833333","6.4","HELSINKI HARMAJA, FI","FM-12","99999","V020","030,1,N,0070,1","22000,1,9,N","045000,1,N,1","-0098,1","-0120,1","10045,1","00,1","0,1,06,1",,"03,99,1,03,1,99,9,01250,1,99,9,99,9","99999,9,10037,1","2,1,008,1,+999,9","+030,9","SYN106AAXX  26001 02795 47683 30307 11098 21120 30037 40045 52008 70000 83/// 92339 222// 00030 555 784// 0/508;",
"02795099999","2010-11-26T03:00:00","4","60.1","24.9833333","6.4","HELSINKI HARMAJA, FI","FM-12","99999","V020","040,1,N,0070,1","22000,1,9,N","024000,1,N,1","-0105,1","-0126,1","10049,1","00,1","0,1,03,1","00,1,+99999,9,99,9","00,99,1,00,1,00,1,99999,9,00,1,00,1","99999,9,10041,1","2,1,004,1,+999,9","+030,9","SYN100AAXX  26031 02795 47974 00407 11105 21126 30041 40049 52004 70000 90239 222// 00030 555 784// 0/508;",
"02795099999","2010-11-26T09:00:00","4","60.1","24.9833333","6.4","HELSINKI HARMAJA, FI","FM-12","99999","V020","030,1,N,0070,1","22000,1,9,N","040000,1,N,1","-0103,1","-0125,1","10067,1","00,1","0,1,03,1","00,1,+99999,9,99,9","00,99,1,00,1,00,1,99999,9,00,1,00,1","99999,9,10059,1","2,1,015,1,+999,9","+027,9","SYN100AAXX  26091 02795 47982 00307 11103 21125 30059 40067 52015 70000 90839 222// 00027 555 785// 0/309;",
"02795099999","2010-11-26T12:00:00","4","60.1","24.9833333","6.4","HELSINKI HARMAJA, FI","FM-12","99999","V020","030,1,N,0080,1","99999,9,9,N","050000,1,N,1","-0100,1","-0125,1","10073,1","00,1","0,1,06,1",,"07,99,1,07,1,99,9,99999,9,99,9,99,9","99999,9,10065,1","2,1,006,1,+999,9","+029,9","SYN106AAXX  26121 02795 47999 70308 11100 21125 30065 40073 52006 70000 87/// 91139 222// 00029 555 782// 0/508;",
"02795099999","2010-11-26T15:00:00","4","60.1","24.9833333","6.4","HELSINKI HARMAJA, FI","FM-12","99999","V020","030,1,N,0070,1","22000,1,9,N","050000,1,N,1","-0099,1","-0123,1","10082,1","00,1","0,1,03,1","00,1,+99999,9,99,9","00,99,1,00,1,00,1,99999,9,00,1,00,1","99999,9,10074,1","2,1,009,1,+999,9","+029,9","SYN100AAXX  26151 02795 47999 00307 11099 21123 30074 40082 52009 70000 91439 222// 00029 555 782// 0/409;",
"02795099999","2010-11-26T21:00:00","4","60.1","24.9833333","6.4","HELSINKI HARMAJA, FI","FM-12","99999","V020","040,1,N,0060,1","22000,1,9,N","026000,1,N,1","-0104,1","-0120,1","10097,1","00,1","0,1,03,1","00,1,+99999,9,99,9","00,99,1,00,1,00,1,99999,9,00,1,00,1","99999,9,10088,1","2,1,009,1,+999,9","+026,9","SYN100AAXX  26211 02795 47976 00406 11104 21120 30088 40097 52009 70000 92039 222// 00026 555 788// 0/508;",
"02795099999","2010-11-27T03:00:00","4","60.1","24.9833333","6.4","HELSINKI HARMAJA, FI","FM-12","99999","V020","030,1,N,0070,1","99999,9,9,N","050000,1,N,1","-0087,1","-0108,1","10116,1","00,1","0,1,03,1",,"07,99,1,07,1,99,9,99999,9,99,9,99,9","99999,9,10108,1","2,1,010,1,+999,9","+026,9","SYN106AAXX  27031 02795 47999 70307 11087 21108 30108 40116 52010 70000 87/// 90239 222// 00026 555 785// 0/508;",
"02795099999","2010-11-27T09:00:00","4","60.1","24.9833333","6.4","HELSINKI HARMAJA, FI","FM-12","99999","V020","040,1,N,0070,1","99999,9,9,N","013000,1,N,1","-0090,1","-0109,1","10140,1","64,1","6,1,03,1",,"05,99,1,01,1,99,9,01750,1,99,9,99,9","99999,9,10132,1","2,1,019,1,+999,9","+024,9","SYN106AAXX  27091 02795 47763 50407 11090 21109 30132 40140 52019 76465 81/// 90839 222// 00024 555 786// 0/609;",
"02795099999","2010-11-27T12:00:00","4","60.1","24.9833333","6.4","HELSINKI HARMAJA, FI","FM-12","99999","V020","040,1,N,0070,1","99999,9,9,N","030000,1,N,1","-0087,1","-0115,1","10152,1","54,1","6,1,06,1",,"07,99,1,07,1,99,9,01750,1,99,9,99,9","99999,9,10144,1","2,1,012,1,+999,9","+024,9","SYN106AAXX  27121 02795 47780 70407 11087 21115 30144 40152 52012 75465 87/// 91139 222// 00024 555 781// 0/508;",
"02795099999","2010-11-27T15:00:00","4","60.1","24.9833333","6.4","HELSINKI HARMAJA, FI","FM-12","99999","V020","030,1,N,0080,1","99999,9,9,N","015000,1,N,1","-0090,1","-0113,1","10164,1","54,1","6,1,03,1",,"07,99,1,07,1,99,9,01750,1,99,9,99,9","99999,9,10156,1","2,1,012,1,+999,9","+024,9","SYN106AAXX  27151 02795 47765 70308 11090 21113 30156 40164 52012 75465 87/// 91439 222// 00024 555 783// 0/309;",
"02795099999","2010-11-27T21:00:00","4","60.1","24.9833333","6.4","HELSINKI HARMAJA, FI","FM-12","99999","V020","030,1,N,0070,1","22000,1,9,N","045000,1,N,1","-0107,1","-0128,1","10197,1","00,1","3,1,03,1","00,1,+99999,9,99,9","00,99,1,00,1,00,1,99999,9,00,1,00,1","99999,9,10188,1","2,1,017,1,+999,9","+019,9","SYN100AAXX  27211 02795 47983 00307 11107 21128 30188 40197 52017 70020 92039 222// 00019 555 784// 0/408;",
"02795099999","2010-11-28T00:00:00","4","60.1","24.9833333","6.4","HELSINKI HARMAJA, FI","FM-12","99999","V020","030,1,N,0080,1","22000,1,9,N","026000,1,N,1","-0112,1","-0131,1","10207,1","00,1","3,1,06,1","00,1,+99999,9,99,9","00,99,1,00,1,00,1,99999,9,00,1,00,1","99999,9,10199,1","2,1,010,1,+999,9","+018,9","SYN100AAXX  28001 02795 47976 00308 11112 21131 30199 40207 52010 70020 92339 222// 00018 555 786// 0/008;",
"02795099999","2010-11-28T03:00:00","4","60.1","24.9833333","6.4","HELSINKI HARMAJA, FI","FM-12","99999","V020","030,1,N,0080,1","22000,1,9,N","023000,1,N,1","-0120,1","-0139,1","10223,1","00,1","0,1,03,1","00,1,+99999,9,99,9","00,99,1,00,1,00,1,99999,9,00,1,00,1","99999,9,10214,1","2,1,015,1,+999,9","+019,9","SYN100AAXX  28031 02795 47973 00308 11120 21139 30214 40223 52015 70000 90239 222// 00019 555 785// 0/608;",
"02795099999","2010-11-28T09:00:00","4","60.1","24.9833333","6.4","HELSINKI HARMAJA, FI","FM-12","99999","V020","040,1,N,0070,1","22000,1,9,N","050000,1,N,1","-0109,1","-0131,1","10257,1","00,1","0,1,03,1","00,1,+99999,9,99,9","00,99,1,00,1,00,1,99999,9,00,1,00,1","99999,9,10249,1","2,1,023,1,+999,9","+019,9","SYN100AAXX  28091 02795 47999 00407 11109 21131 30249 40257 52023 70000 90839 222// 00019 555 784// 0/209;",
"02795099999","2010-11-28T12:00:00","4","60.1","24.9833333","6.4","HELSINKI HARMAJA, FI","FM-12","99999","V020","040,1,N,0070,1","22000,1,9,N","050000,1,N,1","-0096,1","-0119,1","10266,1","00,1","0,1,06,1",,"01,99,1,01,1,99,9,99999,9,99,9,99,9","99999,9,10258,1","2,1,009,1,+999,9","+019,9","SYN106AAXX  28121 02795 47999 10407 11096 21119 30258 40266 52009 70000 81/// 91139 222// 00019 555 784// 0/308;",
"02795099999","2010-11-28T15:00:00","4","60.1","24.9833333","6.4","HELSINKI HARMAJA, FI","FM-12","99999","V020","020,1,N,0070,1","22000,1,9,N","050000,1,N,1","-0104,1","-0127,1","10276,1","00,1","0,1,03,1","00,1,+99999,9,99,9","00,99,1,00,1,00,1,99999,9,00,1,00,1","99999,9,10268,1","2,1,010,1,+999,9","+017,9","SYN100AAXX  28151 02795 47999 00207 11104 21127 30268 40276 52010 70000 91439 222// 00017 555 783// 0/607;",
"02795099999","2010-11-28T21:00:00","4","60.1","24.9833333","6.4","HELSINKI HARMAJA, FI","FM-12","99999","V020","350,1,N,0030,1","22000,1,9,N","050000,1,N,1","-0097,1","-0138,1","10285,1","00,1","0,1,03,1","00,1,+99999,9,99,9","00,99,1,00,1,00,1,99999,9,00,1,00,1","99999,9,10276,1","4,1,000,1,+999,9","+011,9","SYN100AAXX  28211 02795 47999 03503 11097 21138 30276 40285 54001 70000 92039 222// 00011 555 772// 0/604;",
"02795099999","2010-11-29T00:00:00","4","60.1","24.9833333","6.4","HELSINKI HARMAJA, FI","FM-12","99999","V020","350,1,N,0050,1","22000,1,9,N","050000,1,N,1","-0097,1","-0121,1","10283,1","00,1","0,1,06,1","00,1,+99999,9,99,9","00,99,1,00,1,00,1,99999,9,00,1,00,1","99999,9,10275,1","4,1,000,1,+999,9","+008,9","SYN100AAXX  29001 02795 47999 03505 11097 21121 30275 40283 54002 70000 92339 222// 00008 555 783// 0/405;",
"02795099999","2010-11-29T03:00:00","4","60.1","24.9833333","6.4","HELSINKI HARMAJA, FI","FM-12","99999","V020","020,1,N,0070,1","99999,9,9,N","020000,1,N,1","-0103,1","-0117,1","10281,1","71,1","5,1,03,1",,"07,99,1,07,1,99,9,01750,1,99,9,99,9","99999,9,10272,1","7,1,003,1,+999,9","+014,9","SYN106AAXX  29031 02795 47770 70207 11103 21117 30272 40281 57003 77154 87/// 90239 222// 00014 555 789// 0/208;",
"02795099999","2010-11-29T09:00:00","4","60.1","24.9833333","6.4","HELSINKI HARMAJA, FI","FM-12","99999","V020","040,1,N,0060,1","22000,1,9,N","040000,1,N,1","-0113,1","-0134,1","10297,1","00,1","0,1,03,1","00,1,+99999,9,99,9","00,99,1,00,1,00,1,99999,9,00,1,00,1","99999,9,10289,1","2,1,011,1,+999,9","+013,9","SYN100AAXX  29091 02795 47982 00406 11113 21134 30289 40297 52011 70000 90839 222// 00013 555 785// 0/308;",
"02795099999","2010-11-29T12:00:00","4","60.1","24.9833333","6.4","HELSINKI HARMAJA, FI","FM-12","99999","V020","020,1,N,0060,1","22000,1,9,N","045000,1,N,1","-0105,1","-0130,1","10290,1","00,1","0,1,06,1","00,1,+99999,9,99,9","00,99,1,00,1,00,1,99999,9,00,1,00,1","99999,9,10282,1","7,1,007,1,+999,9","+012,9","SYN100AAXX  29121 02795 47983 00206 11105 21130 30282 40290 57007 70000 91139 222// 00012 555 782// 0/406;",
"02795099999","2010-11-29T15:00:00","4","60.1","24.9833333","6.4","HELSINKI HARMAJA, FI","FM-12","99999","V020","040,1,N,0070,1","22000,1,9,N","009000,1,N,1","-0120,1","-0136,1","10284,1","00,1","0,1,03,1","00,1,+99999,9,99,9","00,99,1,00,1,00,1,99999,9,00,1,00,1","99999,9,10275,1","7,1,007,1,+999,9","+017,9","SYN100AAXX  29151 02795 47959 00407 11120 21136 30275 40284 57007 70000 91439 222// 00017 555 788// 0/008;",
"02795099999","2010-11-29T21:00:00","4","60.1","24.9833333","6.4","HELSINKI HARMAJA, FI","FM-12","99999","V020","010,1,N,0080,1","22000,1,9,N","035000,1,N,1","-0118,1","-0138,1","10273,1","00,1","3,1,03,1","00,1,+99999,9,99,9","00,99,1,00,1,00,1,99999,9,00,1,00,1","99999,9,10265,1","7,1,007,1,+999,9","+014,9","SYN100AAXX  29211 02795 47981 00108 11118 21138 30265 40273 57007 70020 92039 222// 00014 555 785// 0/608;",
"02795099999","2010-11-30T00:00:00","4","60.1","24.9833333","6.4","HELSINKI HARMAJA, FI","FM-12","99999","V020","020,1,N,0080,1","22000,1,9,N","001000,1,N,1","-0120,1","-0135,1","10262,1","71,1","6,1,06,1",,"01,99,1,01,1,99,9,00150,1,99,9,99,9","99999,9,10253,1","7,1,011,1,+999,9","+010,9","SYN106AAXX  30001 02795 47210 10208 11120 21135 30253 40262 57011 77165 81/// 92339 222// 00010 555 789// 0/609;",
"02795099999","2010-11-30T03:00:00","4","60.1","24.9833333","6.4","HELSINKI HARMAJA, FI","FM-12","99999","V020","020,1,N,0080,1","22000,1,9,N","001500,1,N,1","-0123,1","-0139,1","10254,1","71,1","6,1,03,1","00,1,+99999,9,99,9","00,99,1,00,1,00,1,99999,9,00,1,00,1","99999,9,10246,1","7,1,008,1,+999,9","+014,9","SYN100AAXX  30031 02795 47915 00208 11123 21139 30246 40254 57008 77165 90239 222// 00014 555 788// 0/609;",
"02795099999","2010-11-30T09:00:00","4","60.1","24.9833333","6.4","HELSINKI HARMAJA, FI","FM-12","99999","V020","010,1,N,0060,1","22000,1,9,N","000300,1,N,1","-0114,1","-0129,1","10251,1","71,1","6,1,03,1","00,1,+99999,9,99,9","00,99,1,00,1,00,1,99999,9,00,1,00,1","99999,9,10243,1","2,1,004,1,+999,9","+007,9","SYN100AAXX  30091 02795 47903 00106 11114 21129 30243 40251 52004 77165 90839 222// 00007 555 789// 0/608;",
"02795099999","2010-11-30T12:00:00","4","60.1","24.9833333","6.4","HELSINKI HARMAJA, FI","FM-12","99999","V020","360,1,N,0040,1","99999,9,9,N","014000,1,N,1","-0113,1","-0128,1","10247,1","25,1","8,1,06,1",,,"99999,9,10238,1","7,1,004,1,+999,9","+008,9","SYN100AAXX  30121 02795 47/64 /3604 11113 21128 30238 40247 57004 72586 91139 222// 00008 555 789// 0/606;",
"02795099999","2010-11-30T15:00:00","4","60.1","24.9833333","6.4","HELSINKI HARMAJA, FI","FM-12","99999","V020","340,1,N,0070,1","22000,1,9,N","023000,1,N,1","-0094,1","-0107,1","10239,1","54,1","8,1,03,1",,"01,99,1,01,1,99,9,02250,1,99,9,99,9","99999,9,10230,1","7,1,008,1,+999,9","+007,9","SYN106AAXX  30151 02795 47873 13407 11094 21107 30230 40239 57008 75485 81/// 91439 222// 00007 555 790// 0/007;",
"02795099999","2010-11-30T21:00:00","4","60.1","24.9833333","6.4","HELSINKI HARMAJA, FI","FM-12","99999","V020","340,1,N,0070,1","22000,1,9,N","045000,1,N,1","-0071,1","-0085,1","10235,1","00,1","8,1,03,1","00,1,+99999,9,99,9","00,99,1,00,1,00,1,99999,9,00,1,00,1","99999,9,10226,1","2,1,003,1,+999,9","+007,9","SYN100AAXX  30211 02795 47983 03407 11071 21085 30226 40235 52003 70085 92039 222// 00007 555 790// 0/509;",
"02795099999","2010-12-01T00:00:00","4","60.1","24.9833333","6.4","HELSINKI HARMAJA, FI","FM-12","99999","V020","330,1,N,0080,1","99999,9,9,N","050000,1,N,1","-0070,1","-0099,1","10232,1","00,1","8,1,06,1",,"05,99,1,05,1,99,9,02250,1,99,9,99,9","99999,9,10223,1","7,1,003,1,+999,9","+006,9","SYN106AAXX  01001 02795 47899 53308 11070 21099 30223 40232 57003 70085 85/// 92339 222// 00006 555 780// 0/009;",
"02795099999","2010-12-01T03:00:00","4","60.1","24.9833333","6.4","HELSINKI HARMAJA, FI","FM-12","99999","V020","300,1,N,0080,1","99999,9,9,N","045000,1,N,1","-0060,1","-0090,1","10223,1","41,1","6,1,03,1",,"07,99,1,03,1,99,9,01750,1,99,9,99,9","99999,9,10214,1","7,1,009,1,+999,9","+010,9","SYN106AAXX  01031 02795 47783 73008 11060 21090 30214 40223 57009 74140 83/// 90239 222// 00010 555 779// 0/108;",
"02795099999","2010-12-01T09:00:00","4","60.1","24.9833333","6.4","HELSINKI HARMAJA, FI","FM-12","99999","V020","330,1,N,0030,1","99999,9,9,N","050000,1,N,1","-0060,1","-0078,1","10229,1","00,1",,,"07,99,1,01,1,99,9,01750,1,99,9,99,9","99999,9,10221,1","2,1,012,1,+999,9","+017,9","SYN106AAXX  01091 02795 47799 73303 11060 21078 30221 40229 52012 700// 81/// 90839 222// 00017 555 787// 0/608;",
"02795099999","2010-12-01T12:00:00","4","60.1","24.9833333","6.4","HELSINKI HARMAJA, FI","FM-12","99999","V020","310,1,N,0030,1","99999,9,9,N","045000,1,N,1","-0057,1","-0078,1","10240,1","25,1",,,"07,99,1,07,1,99,9,00450,1,99,9,99,9","99999,9,10232,1","2,1,011,1,+999,9","+017,9","SYN106AAXX  01121 02795 47483 73103 11057 21078 30232 40240 52011 725// 87/// 91139 222// 00017 555 785// 0/505;",
"02795099999","2010-12-01T15:00:00","4","60.1","24.9833333","6.4","HELSINKI HARMAJA, FI","FM-12","99999","V020","030,1,N,0010,1","99999,9,9,N","045000,1,N,1","-0054,1","-0071,1","10242,1","54,1","5,1,03,1",,"07,99,1,05,1,99,9,00250,1,99,9,99,9","99999,9,10233,1","4,1,000,1,+999,9","+020,9","SYN106AAXX  01151 02795 47383 70301 11054 21071 30233 40242 54002 75454 85/// 91439 222// 00020 555 788// 0/404;",
"02795099999","2010-12-01T21:00:00","4","60.1","24.9833333","6.4","HELSINKI HARMAJA, FI","FM-12","99999","V020","280,1,N,0050,1","99999,9,9,N","040000,1,N,1","-0019,1","-0034,1","10249,1","00,1","0,1,03,1",,"08,99,1,08,1,99,9,00450,1,99,9,99,9","99999,9,10241,1","2,1,009,1,+999,9","+019,9","SYN106AAXX  01211 02795 47482 82805 11019 21034 30241 40249 52009 70000 88/// 92039 222// 00019 555 790// 0/605;",
"02795099999","2010-12-02T00:00:00","4","60.1","24.9833333","6.4","HELSINKI HARMAJA, FI","FM-12","99999","V020","270,1,N,0060,1","99999,9,9,N","050000,1,N,1","-0013,1","-0031,1","10248,1","00,1","0,1,06,1",,"08,99,1,08,1,99,9,00450,1,99,9,99,9","99999,9,10240,1","4,1,000,1,+999,9","+023,9","SYN106AAXX  02001 02795 47499 82706 11013 21031 30240 40248 54001 70000 88/// 92339 222// 00023 555 788// 0/006;",
"02795099999","2010-12-02T03:00:00","4","60.1","24.9833333","6.4","HELSINKI HARMAJA, FI","FM-12","99999","V020","290,1,N,0040,1","99999,9,9,N","050000,1,N,1","-0015,1","-0036,1","10242,1","00,1","0,1,03,1",,"08,99,1,08,1,99,9,00450,1,99,9,99,9","99999,9,10234,1","7,1,006,1,+999,9","+021,9","SYN106AAXX  02031 02795 47499 82904 11015 21036 30234 40242 57006 70000 88/// 90239 222// 00021 555 785// 0/606;",
"02795099999","2010-12-02T09:00:00","4","60.1","24.9833333","6.4","HELSINKI HARMAJA, FI","FM-12","99999","V020","310,1,N,0010,1","99999,9,9,N","050000,1,N,1","-0016,1","-0039,1","10246,1","00,1","0,1,03,1",,"08,99,1,08,1,99,9,00450,1,99,9,99,9","99999,9,10238,1","2,1,003,1,+999,9","+022,9","SYN106AAXX  02091 02795 47499 83101 11016 21039 30238 40246 52003 70000 88/// 90839 222// 00022 555 784// 0/403;",
"02795099999","2010-12-02T12:00:00","4","60.1","24.9833333","6.4","HELSINKI HARMAJA, FI","FM-12","99999","V020","340,1,N,0010,1","99999,9,9,N","050000,1,N,1","-0014,1","-0038,1","10233,1","00,1","5,1,06,1",,"08,99,1,08,1,99,9,00800,1,99,9,99,9","99999,9,10225,1","7,1,013,1,+999,9","+022,9","SYN106AAXX  02121 02795 47599 83401 11014 21038 30225 40233 57013 70054 88/// 91139 222// 00022 555 784// 0/302;",
"02795099999","2010-12-02T15:00:00","4","60.1","24.9833333","6.4","HELSINKI HARMAJA, FI","FM-12","99999","V020","170,1,N,0060,1","99999,9,9,N","023000,1,N,1","-0013,1","-0034,1","10219,1","54,1","6,1,03,1",,"07,99,1,07,1,99,9,00450,1,99,9,99,9","99999,9,10211,1","7,1,014,1,+999,9","+024,9","SYN106AAXX  02151 02795 47473 71706 11013 21034 30211 40219 57014 75465 87/// 91439 222// 00024 555 786// 0/107;",
"02795099999","2010-12-02T21:00:00","4","60.1","24.9833333","6.4","HELSINKI HARMAJA, FI","FM-12","99999","V020","140,1,N,0090,1","99999,9,9,N","050000,1,N,1","-0041,1","-0131,1","10190,1","00,1","8,1,03,1",,"07,99,1,03,1,99,9,99999,9,99,9,99,9","99999,9,10182,1","7,1,015,1,+999,9","+023,9","SYN106AAXX  02211 02795 47999 71409 11041 21131 30182 40190 57015 70085 83/// 92039 222// 00023 555 749// 0/409;",
"02795099999","2010-12-03T00:00:00","4","60.1","24.9833333","6.4","HELSINKI HARMAJA, FI","FM-12","99999","V020","110,1,N,0090,1","99999,9,9,N","030000,1,N,1","-0034,1","-0076,1","10155,1","00,1","8,1,06,1",,"07,99,1,07,1,99,9,99999,9,99,9,99,9","99999,9,10146,1","7,1,036,1,+999,9","+018,9","SYN106AAXX  03001 02795 47980 71109 11034 21076 30146 40155 57036 70085 87/// 92339 222// 00018 555 773// 0/310;",
"02795099999","2010-12-03T03:00:00","4","60.1","24.9833333","6.4","HELSINKI HARMAJA, FI","FM-12","99999","V020","160,1,N,0080,1","99999,9,9,N","001300,1,N,1","-0074,1","-0090,1","10135,1","67,1","6,1,03,1",,"07,99,1,07,1,99,9,00450,1,99,9,99,9","99999,9,10126,1","7,1,020,1,+999,9","+017,9","SYN106AAXX  03031 02795 47413 71608 11074 21090 30126 40135 57020 76765 87/// 90239 222// 00017 555 788// 0/611;",
"02795099999","2010-12-03T09:00:00","4","60.1","24.9833333","6.4","HELSINKI HARMAJA, FI","FM-12","99999","V020","180,1,N,0080,1","99999,9,9,N","001700,1,N,1","-0059,1","-0071,1","10121,1","71,1","7,1,03,1",,"08,99,1,08,1,99,9,00250,1,99,9,99,9","99999,9,10113,1","4,1,000,1,+999,9","+013,9","SYN106AAXX  03091 02795 47317 81808 11059 21071 30113 40121 54001 77176 88/// 90839 222// 00013 555 791// 0/108;",
"02795099999","2010-12-03T12:00:00","4","60.1","24.9833333","6.4","HELSINKI HARMAJA, FI","FM-12","99999","V020","180,1,N,0090,1","99999,9,9,N","004900,1,N,1","-0045,1","-0056,1","10112,1","67,1","7,1,06,1",,"07,99,1,07,1,99,9,00450,1,99,9,99,9","99999,9,10104,1","7,1,009,1,+999,9","+012,9","SYN106AAXX  03121 02795 47449 71809 11045 21056 30104 40112 57009 76776 87/// 91139 222// 00012 555 791// 0/509;",
"02795099999","2010-12-03T15:00:00","4","60.1","24.9833333","6.4","HELSINKI HARMAJA, FI","FM-12","99999","V020","170,1,N,0090,1","99999,9,9,N","012000,1,N,1","-0046,1","-0065,1","10108,1","25,1","6,1,03,1",,"07,99,1,07,1,99,9,00250,1,99,9,99,9","99999,9,10099,1","7,1,005,1,+999,9","+012,9","SYN106AAXX  03151 02795 47362 71709 11046 21065 30099 40108 57005 72565 87/// 91439 222// 00012 555 786// 0/409;",
"02795099999","2010-12-03T21:00:00","4","60.1","24.9833333","6.4","HELSINKI HARMAJA, FI","FM-12","99999","V020","180,1,N,0090,1","99999,9,9,N","011000,1,N,1","-0048,1","-0071,1","10093,1","64,1","6,1,03,1",,"07,99,1,07,1,99,9,00450,1,99,9,99,9","99999,9,10084,1","7,1,008,1,+999,9","+010,9","SYN106AAXX  03211 02795 47461 71809 11048 21071 30084 40093 57008 76465 87/// 92039 222// 00010 555 784// 0/210;",
"02795099999","2010-12-04T00:00:00","4","60.1","24.9833333","6.4","HELSINKI HARMAJA, FI","FM-12","99999","V020","170,1,N,0080,1","99999,9,9,N","010000,1,N,1","-0043,1","-0062,1","10079,1","00,1","6,1,06,1",,"07,99,1,07,1,99,9,00250,1,99,9,99,9","99999,9,10071,1","7,1,013,1,+999,9","+010,9","SYN106AAXX  04001 02795 47360 71708 11043 21062 30071 40079 57013 70065 87/// 92339 222// 00010 555 786// 0/309;",
"02795099999","2010-12-04T03:00:00","4","60.1","24.9833333","6.4","HELSINKI HARMAJA, FI","FM-12","99999","V020","160,1,N,0070,1","99999,9,9,N","015000,1,N,1","-0039,1","-0073,1","10057,1","00,1","0,1,03,1",,"07,99,1,07,1,99,9,00450,1,99,9,99,9","99999,9,10049,1","7,1,022,1,+999,9","+012,9","SYN106AAXX  04031 02795 47465 71607 11039 21073 30049 40057 57022 70000 87/// 90239 222// 00012 555 777// 0/310;",
"02795099999","2010-12-04T09:00:00","4","60.1","24.9833333","6.4","HELSINKI HARMAJA, FI","FM-12","99999","V020","130,1,N,0070,1","99999,9,9,N","011000,1,N,1","-0042,1","-0067,1","10033,1","64,1","6,1,03,1",,"07,99,1,07,1,99,9,00450,1,99,9,99,9","99999,9,10025,1","7,1,011,1,+999,9","+013,9","SYN106AAXX  04091 02795 47461 71307 11042 21067 30025 40033 57011 76465 87/// 90839 222// 00013 555 783// 0/008;",
"02795099999","2010-12-04T12:00:00","4","60.1","24.9833333","6.4","HELSINKI HARMAJA, FI","FM-12","99999","V020","180,1,N,0060,1","99999,9,9,N","002300,1,N,1","-0035,1","-0044,1","10015,1","74,1","7,1,06,1",,"08,99,1,08,1,99,9,00150,1,99,9,99,9","99999,9,10007,1","7,1,018,1,+999,9","+013,9","SYN106AAXX  04121 02795 47223 81806 11035 21044 30007 40015 57018 77476 88/// 91139 222// 00013 555 794// 0/208;",
"02795099999","2010-12-04T15:00:00","4","60.1","24.9833333","6.4","HELSINKI HARMAJA, FI","FM-12","99999","V020","160,1,N,0050,1","99999,9,9,N","002100,1,N,1","-0021,1","-0027,1","10009,1","71,1","8,1,03,1",,"07,99,1,07,1,99,9,00075,1,99,9,99,9","99999,9,10001,1","7,1,006,1,+999,9","+014,9","SYN106AAXX  04151 02795 47121 71605 11021 21027 30001 40009 57006 77187 87/// 91439 222// 00014 555 795// 0/607;",
"02795099999","2010-12-04T21:00:00","4","60.1","24.9833333","6.4","HELSINKI HARMAJA, FI","FM-12","99999","V020","360,1,N,0020,1","22000,1,9,N","006000,1,N,1","-0040,1","-0048,1","10040,1","10,1","2,1,03,1",,"01,99,1,01,1,99,9,01250,1,99,9,99,9","99999,9,10032,1","2,1,016,1,+999,9","+014,9","SYN106AAXX  04211 02795 47656 13602 11040 21048 30032 40040 52016 71010 81/// 92039 222// 00014 555 794// 0/603;",
"02795099999","2010-12-05T00:00:00","4","60.1","24.9833333","6.4","HELSINKI HARMAJA, FI","FM-12","99999","V020","250,1,N,0040,1","99999,9,9,N","020000,1,N,1","-0026,1","-0034,1","10061,1","00,1","2,1,06,1",,"07,99,1,07,1,99,9,01250,1,99,9,99,9","99999,9,10053,1","2,1,021,1,+999,9","+012,9","SYN106AAXX  05001 02795 47670 72504 11026 21034 30053 40061 52021 70010 87/// 92339 222// 00012 555 794// 0/004;",
"02795099999","2010-12-05T03:00:00","4","60.1","24.9833333","6.4","HELSINKI HARMAJA, FI","FM-12","99999","V020","260,1,N,0060,1","99999,9,9,N","045000,1,N,1","-0014,1","-0045,1","10072,1","00,1","6,1,03,1",,"07,99,1,07,1,99,9,01750,1,99,9,99,9","99999,9,10064,1","2,1,010,1,+999,9","+012,9","SYN106AAXX  05031 02795 47783 72606 11014 21045 30064 40072 52010 70065 87/// 90239 222// 00012 555 779// 0/508;",
"02795099999","2010-12-05T09:00:00","4","60.1","24.9833333","6.4","HELSINKI HARMAJA, FI","FM-12","99999","V020","210,1,N,0030,1","99999,9,9,N","002600,1,N,1","-0003,1","-0006,1","10072,1","64,1","7,1,03,1",,"07,99,1,07,1,99,9,00800,1,99,9,99,9","99999,9,10064,1","2,1,007,1,+999,9","+012,9","SYN106AAXX  05091 02795 47526 72103 11003 21006 30064 40072 52007 76476 87/// 90839 222// 00012 555 797// 0/410;",
"02795099999","2010-12-05T12:00:00","4","60.1","24.9833333","6.4","HELSINKI HARMAJA, FI","FM-12","99999","V020","220,1,N,0110,1","99999,9,9,N","018000,1,N,1","+0015,1","-0002,1","10067,1","00,1","8,1,06,1",,"07,99,1,05,1,99,9,00450,1,99,9,99,9","99999,9,10059,1","7,1,005,1,+999,9","+012,9","SYN106AAXX  05121 02795 47468 72211 10015 21002 30059 40067 57005 70087 85/// 91139 222// 00012 555 789// 0/011;",
"02795099999","2010-12-05T15:00:00","4","60.1","24.9833333","6.4","HELSINKI HARMAJA, FI","FM-12","99999","V020","200,1,N,0130,1","99999,9,9,N","018000,1,N,1","+0002,1","-0024,1","10067,1","00,1","0,1,03,1",,"07,99,1,05,1,99,9,00450,1,99,9,99,9","99999,9,10059,1","4,1,000,1,+999,9","+012,9","SYN106AAXX  05151 02795 47468 72013 10002 21024 30059 40067 54000 70000 85/// 91439 222// 00012 555 783// 0/213;",
"02795099999","2010-12-05T21:00:00","4","60.1","24.9833333","6.4","HELSINKI HARMAJA, FI","FM-12","99999","V020","160,1,N,0110,1","99999,9,9,N","018000,1,N,1","-0023,1","-0049,1","10044,1","54,1","5,1,03,1",,"07,99,1,01,1,99,9,00450,1,99,9,99,9","99999,9,10036,1","7,1,017,1,+999,9","+014,9","SYN106AAXX  05211 02795 47468 71611 11023 21049 30036 40044 57017 75454 81/// 92039 222// 00014 555 782// 0/611;",
"02795099999","2010-12-06T00:00:00","4","60.1","24.9833333","6.4","HELSINKI HARMAJA, FI","FM-12","99999","V020","160,1,N,0130,1","99999,9,9,N","999999,9,N,1","-0031,1","-0037,1","10009,1",,,,"08,99,1,08,1,99,9,00150,1,99,9,99,9","99999,9,10001,1","7,1,035,1,+999,9","+013,9","SYN100AAXX  06001 02795 462// 81613 11031 21037 30001 40009 57035 88/// 92339 222// 00013 555 795// 0/213;",
"02795099999","2010-12-06T03:00:00","4","60.1","24.9833333","6.4","HELSINKI HARMAJA, FI","FM-12","99999","V020","160,1,N,0120,1","99999,9,9,N","999999,9,N,1","-0029,1","-0037,1","09984,1",,,,"08,99,1,08,1,99,9,00450,1,99,9,99,9","99999,9,09975,1","7,1,025,1,+999,9","+012,9","SYN100AAXX  06031 02795 464// 81612 11029 21037 39975 49984 57025 88/// 90239 222// 00012 555 794// 0/413;",
"02795099999","2010-12-06T09:00:00","4","60.1","24.9833333","6.4","HELSINKI HARMAJA, FI","FM-12","99999","V020","170,1,N,0110,1","99999,9,9,N","999999,9,N,1","-0042,1","-0051,1","09957,1",,,,"07,99,1,07,1,99,9,00250,1,99,9,99,9","99999,9,09949,1","7,1,009,1,+999,9","+012,9","SYN100AAXX  06091 02795 463// 71711 11042 21051 39949 49957 57009 87/// 90839 222// 00012 555 793// 0/612;",
"02795099999","2010-12-06T12:00:00","4","60.1","24.9833333","6.4","HELSINKI HARMAJA, FI","FM-12","99999","V020","160,1,N,0080,1","99999,9,9,N","999999,9,N,1","-0036,1","-0045,1","09947,1",,,,"07,99,1,07,1,99,9,00250,1,99,9,99,9","99999,9,09939,1","7,1,011,1,+999,9","+012,9","SYN100AAXX  06121 02795 463// 71608 11036 21045 39939 49947 57011 87/// 91139 222// 00012 555 793// 0/611;",
"02795099999","2010-12-06T15:00:00","4","60.1","24.9833333","6.4","HELSINKI HARMAJA, FI","FM-12","99999","V020","150,1,N,0080,1","99999,9,9,N","999999,9,N,1","-0026,1","-0032,1","09936,1",,,,"08,99,1,08,1,99,9,00250,1,99,9,99,9","99999,9,09928,1","7,1,010,1,+999,9","+011,9","SYN100AAXX  06151 02795 463// 81508 11026 21032 39928 49936 57010 88/// 91439 222// 00011 555 795// 0/609;",
"02795099999","2010-12-06T21:00:00","4","60.1","24.9833333","6.4","HELSINKI HARMAJA, FI","FM-12","99999","V020","200,1,N,0090,1","99999,9,9,N","006000,1,N,1","+0004,1","+0000,1","09918,1","52,1",,,"08,99,1,08,1,99,9,00150,1,99,9,99,9","99999,9,09910,1","7,1,006,1,+999,9","+013,9","SYN106AAXX  06211 02795 47256 82009 10004 20000 39910 49918 57006 752// 88/// 92039 222// 00013 555 797// 0/511;",
"02795099999","2010-12-07T00:00:00","4","60.1","24.9833333","6.4","HELSINKI HARMAJA, FI","FM-12","99999","V020","280,1,N,0090,1","22000,1,9,N","008000,1,N,1","-0024,1","-0030,1","09945,1","10,1",,,"01,99,1,01,1,99,9,00150,1,99,9,99,9","99999,9,09937,1","2,1,027,1,+999,9","+011,9","SYN106AAXX  07001 02795 47258 12809 11024 21030 39937 49945 52027 710// 81/// 92339 222// 00011 555 796// 0/609;",
"02795099999","2010-12-07T03:00:00","4","60.1","24.9833333","6.4","HELSINKI HARMAJA, FI","FM-12","99999","V020","280,1,N,0070,1","99999,9,9,N","012000,1,N,1","-0039,1","-0049,1","09976,1","00,1","2,1,03,1",,"07,99,1,07,1,99,9,00150,1,99,9,99,9","99999,9,09968,1","2,1,031,1,+999,9","+009,9","SYN106AAXX  07031 02795 47262 72807 11039 21049 39968 49976 52031 70010 87/// 90239 222// 00009 555 793// 0/609;",
"02795099999","2010-12-07T09:00:00","4","60.1","24.9833333","6.4","HELSINKI HARMAJA, FI","FM-12","99999","V020","999,9,C,0000,1","99999,9,9,N","011000,1,N,1","-0017,1","-0026,1","10008,1","25,1","6,1,03,1",,"07,99,1,07,1,99,9,00800,1,99,9,99,9","99999,9,10000,1","2,1,013,1,+999,9","+008,9","SYN106AAXX  07091 02795 47561 70000 11017 21026 30000 40008 52013 72564 87/// 90839 222// 00008 555 794// 0/203;",
"02795099999","2010-12-07T12:00:00","4","60.1","24.9833333","6.4","HELSINKI HARMAJA, FI","FM-12","99999","V020","240,1,N,0030,1","99999,9,9,N","035000,1,N,1","-0004,1","-0008,1","10007,1","24,1","8,1,06,1",,"07,99,1,07,1,99,9,01250,1,99,9,99,9","99999,9,09999,1","4,1,000,1,+999,9","+008,9","SYN106AAXX  07121 02795 47681 72403 11004 21008 39999 40007 54001 72487 87/// 91139 222// 00008 555 797// 0/207;",
"02795099999","2010-12-07T15:00:00","4","60.1","24.9833333","6.4","HELSINKI HARMAJA, FI","FM-12","99999","V020","210,1,N,0080,1","99999,9,9,N","001400,1,N,1","+0002,1","-0002,1","10004,1","71,1","8,1,03,1",,"08,99,1,08,1,99,9,00150,1,99,9,99,9","99999,9,09996,1","7,1,004,1,+999,9","+011,9","SYN106AAXX  07151 02795 47214 82108 10002 21002 39996 40004 57004 77187 88/// 91439 222// 00011 555 797// 0/211;",
"02795099999","2010-12-07T21:00:00","4","60.1","24.9833333","6.4","HELSINKI HARMAJA, FI","FM-12","99999","V020","280,1,N,0040,1","22000,1,9,N","030000,1,N,1","-0020,1","-0023,1","10019,1","00,1","6,1,03,1","00,1,+99999,9,99,9","00,99,1,00,1,00,1,99999,9,00,1,00,1","99999,9,10011,1","2,1,018,1,+999,9","+010,9","SYN100AAXX  07211 02795 47980 02804 11020 21023 30011 40019 52018 70065 92039 222// 00010 555 798// 0/105;",
"02795099999","2010-12-08T00:00:00","4","60.1","24.9833333","6.4","HELSINKI HARMAJA, FI","FM-12","99999","V020","250,1,N,0010,1","00030,1,9,N","000400,1,N,1","-0039,1","-0044,1","10032,1","54,1","6,1,06,1","09,1,+99999,9,99,9","09,99,1,09,1,99,9,99999,9,99,9,99,9","99999,9,10024,1","2,1,013,1,+999,9","+009,9","SYN100AAXX  08001 02795 47/04 92501 11039 21044 30024 40032 52013 75465 92339 222// 00009 555 796// 0/604;",
"02795099999","2010-12-08T03:00:00","4","60.1","24.9833333","6.4","HELSINKI HARMAJA, FI","FM-12","99999","V020","260,1,N,0020,1","22000,1,9,N","050000,1,N,1","-0032,1","-0037,1","10039,1","00,1","5,1,03,1","00,1,+99999,9,99,9","00,99,1,00,1,00,1,99999,9,00,1,00,1","99999,9,10031,1","2,1,007,1,+999,9","+008,9","SYN100AAXX  08031 02795 47999 02602 11032 21037 30031 40039 52007 70053 90239 222// 00008 555 797// 0/002;",
"02795099999","2010-12-08T09:00:00","4","60.1","24.9833333","6.4","HELSINKI HARMAJA, FI","FM-12","99999","V020","260,1,N,0020,1","99999,9,9,N","010000,1,N,1","-0032,1","-0037,1","10066,1","20,1","4,1,03,1",,"05,99,1,05,1,99,9,00450,1,99,9,99,9","99999,9,10058,1","2,1,014,1,+999,9","+008,9","SYN106AAXX  08091 02795 47460 52602 11032 21037 30058 40066 52014 72032 85/// 90839 222// 00008 555 796// 0/602;",
"02795099999","2010-12-08T12:00:00","4","60.1","24.9833333","6.4","HELSINKI HARMAJA, FI","FM-12","99999","V020","280,1,N,0020,1","99999,9,9,N","035000,1,N,1","-0021,1","-0025,1","10071,1","00,1","4,1,06,1",,"07,99,1,07,1,99,9,00450,1,99,9,99,9","99999,9,10063,1","2,1,005,1,+999,9","+010,9","SYN106AAXX  08121 02795 47481 72802 11021 21025 30063 40071 52005 70032 87/// 91139 222// 00010 555 797// 0/303;",
"02795099999","2010-12-08T15:00:00","4","60.1","24.9833333","6.4","HELSINKI HARMAJA, FI","FM-12","99999","V020","270,1,N,0050,1","99999,9,9,N","050000,1,N,1","-0014,1","-0019,1","10077,1","00,1","0,1,03,1",,"07,99,1,07,1,99,9,00450,1,99,9,99,9","99999,9,10068,1","2,1,005,1,+999,9","+010,9","SYN106AAXX  08151 02795 47499 72705 11014 21019 30068 40077 52005 70000 87/// 91439 222// 00010 555 797// 0/006;",
"02795099999","2010-12-08T21:00:00","4","60.1","24.9833333","6.4","HELSINKI HARMAJA, FI","FM-12","99999","V020","080,1,N,0010,1","99999,9,9,N","008000,1,N,1","-0021,1","-0025,1","10081,1","10,1","2,1,03,1",,"07,99,1,07,1,99,9,00075,1,99,9,99,9","99999,9,10073,1","4,1,000,1,+999,9","+010,9","SYN106AAXX  08211 02795 47158 70801 11021 21025 30073 40081 54000 71010 87/// 92039 222// 00010 555 797// 0/602;",
"02795099999","2010-12-09T00:00:00","4","60.1","24.9833333","6.4","HELSINKI HARMAJA, FI","FM-12","99999","V020","210,1,N,0050,1","99999,9,9,N","050000,1,N,1","-0004,1","-0009,1","10068,1","54,1","5,1,06,1",,"08,99,1,08,1,99,9,00450,1,99,9,99,9","99999,9,10060,1","7,1,013,1,+999,9","+010,9","SYN106AAXX  09001 02795 47499 82105 11004 21009 30060 40068 57013 75454 88/// 92339 222// 00010 555 797// 0/005;",
"02795099999","2010-12-09T03:00:00","4","60.1","24.9833333","6.4","HELSINKI HARMAJA, FI","FM-12","99999","V020","170,1,N,0040,1","99999,9,9,N","035000,1,N,1","-0008,1","-0017,1","10055,1","00,1","5,1,03,1",,"07,99,1,05,1,99,9,00450,1,99,9,99,9","99999,9,10047,1","7,1,013,1,+999,9","+009,9","SYN106AAXX  09031 02795 47481 71704 11008 21017 30047 40055 57013 70052 85/// 90239 222// 00009 555 794// 0/306;",
"02795099999","2010-12-09T09:00:00","4","60.1","24.9833333","6.4","HELSINKI HARMAJA, FI","FM-12","99999","V020","050,1,N,0050,1","99999,9,9,N","008000,1,N,1","-0022,1","-0029,1","10019,1","54,1","5,1,03,1",,"08,99,1,08,1,99,9,00150,1,99,9,99,9","99999,9,10010,1","7,1,016,1,+999,9","+011,9","SYN106AAXX  09091 02795 47258 80505 11022 21029 30010 40019 57016 75454 88/// 90839 222// 00011 555 795// 0/105;",
"02795099999","2010-12-09T12:00:00","4","60.1","24.9833333","6.4","HELSINKI HARMAJA, FI","FM-12","99999","V020","040,1,N,0080,1","99999,9,9,N","011000,1,N,1","-0025,1","-0036,1","09999,1","54,1","8,1,06,1",,"08,99,1,08,1,99,9,00250,1,99,9,99,9","99999,9,09991,1","7,1,019,1,+999,9","+011,9","SYN106AAXX  09121 02795 47361 80408 11025 21036 39991 49999 57019 75485 88/// 91139 222// 00011 555 793// 0/008;",
"02795099999","2010-12-09T15:00:00","4","60.1","24.9833333","6.4","HELSINKI HARMAJA, FI","FM-12","99999","V020","030,1,N,0100,1","99999,9,9,N","004500,1,N,1","-0033,1","-0042,1","09982,1","64,1","8,1,03,1",,"08,99,1,08,1,99,9,00250,1,99,9,99,9","99999,9,09973,1","7,1,018,1,+999,9","+012,9","SYN106AAXX  09151 02795 47345 80310 11033 21042 39973 49982 57018 76486 88/// 91439 222// 00012 555 793// 0/011;",
"02795099999","2010-12-09T21:00:00","4","60.1","24.9833333","6.4","HELSINKI HARMAJA, FI","FM-12","99999","V020","360,1,N,0130,1","99999,9,9,N","999999,9,N,1","-0037,1","-0048,1","09965,1",,,"09,1,+99999,9,99,9","09,99,1,09,1,99,9,99999,9,99,9,99,9","99999,9,09957,1","7,1,004,1,+999,9","+004,9","SYN094AAXX  09211 02795 464// 93613 11037 21048 39957 49965 57004 92039 222// 00004 555 792// 0/214;",
"02795099999","2010-12-10T00:00:00","4","60.1","24.9833333","6.4","HELSINKI HARMAJA, FI","FM-12","99999","V020","360,1,N,0150,1","99999,9,9,N","012000,1,N,1","-0038,1","-0057,1","09963,1","54,1",,,"07,99,1,07,1,99,9,00450,1,99,9,99,9","99999,9,09955,1","4,1,000,1,+999,9","+006,9","SYN106AAXX  10001 02795 47462 73615 11038 21057 39955 49963 54002 754// 87/// 92339 222// 00006 555 787// 0/016;",
"02795099999","2010-12-10T03:00:00","4","60.1","24.9833333","6.4","HELSINKI HARMAJA, FI","FM-12","99999","V020","360,1,N,0140,1","99999,9,9,N","025000,1,N,1","-0046,1","-0069,1","09969,1","00,1","5,1,03,1",,"07,99,1,07,1,99,9,00450,1,99,9,99,9","99999,9,09961,1","2,1,005,1,+999,9","+007,9","SYN106AAXX  10031 02795 47475 73614 11046 21069 39961 49969 52005 70052 87/// 90239 222// 00007 555 784// 0/616;",
"02795099999","2010-12-10T09:00:00","4","60.1","24.9833333","6.4","HELSINKI HARMAJA, FI","FM-12","99999","V020","340,1,N,0150,1","99999,9,9,N","040000,1,N,1","-0055,1","-0081,1","09977,1","00,1","0,1,03,1",,"07,99,1,07,1,99,9,99999,9,99,9,99,9","99999,9,09969,1","2,1,007,1,+999,9","+007,9","SYN106AAXX  10091 02795 47982 73415 11055 21081 39969 49977 52007 70000 87/// 90839 222// 00007 555 782// 0/115;",
"02795099999","2010-12-10T12:00:00","4","60.1","24.9833333","6.4","HELSINKI HARMAJA, FI","FM-12","99999","V020","340,1,N,0130,1","99999,9,9,N","035000,1,N,1","-0054,1","-0084,1","09990,1","00,1",,,"07,99,1,07,1,99,9,99999,9,99,9,99,9","99999,9,09981,1","2,1,013,1,+999,9","+007,9","SYN106AAXX  10121 02795 47981 73413 11054 21084 39981 49990 52013 700// 87/// 91139 222// 00007 555 780// 0/616;",
"02795099999","2010-12-10T15:00:00","4","60.1","24.9833333","6.4","HELSINKI HARMAJA, FI","FM-12","99999","V020","330,1,N,0110,1","22000,1,9,N","999999,9,N,1","-0063,1","-0087,1","10003,1",,,"00,1,+99999,9,99,9","00,99,1,00,1,00,1,99999,9,00,1,00,1","99999,9,09995,1","2,1,014,1,+999,9","+007,9","SYN094AAXX  10151 02795 469// 03311 11063 21087 39995 40003 52014 91439 222// 00007 555 783// 0/514;",
"02795099999","2010-12-10T21:00:00","4","60.1","24.9833333","6.4","HELSINKI HARMAJA, FI","FM-12","99999","V020","320,1,N,0090,1","22000,1,9,N","999999,9,N,1","-0075,1","-0094,1","10013,1",,,"00,1,+99999,9,99,9","00,99,1,00,1,00,1,99999,9,00,1,00,1","99999,9,10005,1","2,1,003,1,+999,9","+012,9","SYN094AAXX  10211 02795 469// 03209 11075 21094 30005 40013 52003 92039 222// 00012 555 786// 0/211;",
"02795099999","2010-12-11T00:00:00","4","60.1","24.9833333","6.4","HELSINKI HARMAJA, FI","FM-12","99999","V020","310,1,N,0060,1","99999,9,9,N","999999,9,N,1","-0088,1","-0108,1","10012,1",,,,"07,99,1,07,1,99,9,99999,9,99,9,99,9","99999,9,10004,1","4,1,000,1,+999,9","+009,9","SYN100AAXX  11001 02795 469// 73106 11088 21108 30004 40012 54001 87/// 92339 222// 00009 555 786// 0/609;",
"02795099999","2010-12-11T03:00:00","4","60.1","24.9833333","6.4","HELSINKI HARMAJA, FI","FM-12","99999","V020","280,1,N,0050,1","99999,9,9,N","999999,9,N,1","-0082,1","-0099,1","09998,1",,,,"05,99,1,05,1,99,9,99999,9,99,9,99,9","99999,9,09990,1","7,1,014,1,+999,9","+007,9","SYN100AAXX  11031 02795 469// 52805 11082 21099 39990 49998 57014 85/// 90239 222// 00007 555 788// 0/606;",
"02795099999","2010-12-11T09:00:00","4","60.1","24.9833333","6.4","HELSINKI HARMAJA, FI","FM-12","99999","V020","130,1,N,0050,1","99999,9,9,N","999999,9,N,1","-0024,1","-0030,1","09959,1",,,,"08,99,1,08,1,99,9,00150,1,99,9,99,9","99999,9,09951,1","7,1,018,1,+999,9","+005,9","SYN100AAXX  11091 02795 462// 81305 11024 21030 39951 49959 57018 88/// 90839 222// 00005 555 796// 0/006;",
"02795099999","2010-12-11T12:00:00","4","60.1","24.9833333","6.4","HELSINKI HARMAJA, FI","FM-12","99999","V020","210,1,N,0060,1","99999,9,9,N","001900,1,N,1","-0007,1","-0011,1","09945,1","71,1",,,"08,99,1,08,1,99,9,00075,1,99,9,99,9","99999,9,09938,1","7,1,014,1,+999,9","+005,9","SYN106AAXX  11121 02795 47119 82106 11007 21011 39938 49945 57014 771// 88/// 91139 222// 00005 555 798// 0/208;",
"02795099999","2010-12-11T15:00:00","4","60.1","24.9833333","6.4","HELSINKI HARMAJA, FI","FM-12","99999","V020","030,1,N,0060,1","99999,9,9,N","004200,1,N,1","-0049,1","-0056,1","09953,1","64,1",,,"08,99,1,08,1,99,9,00450,1,99,9,99,9","99999,9,09945,1","2,1,007,1,+999,9","+004,9","SYN106AAXX  11151 02795 47442 80306 11049 21056 39945 49953 52007 764// 88/// 91439 222// 00004 555 795// 0/606;",
"02795099999","2010-12-11T21:00:00","4","60.1","24.9833333","6.4","HELSINKI HARMAJA, FI","FM-12","99999","V020","040,1,N,0080,1","99999,9,9,N","050000,1,N,1","-0059,1","-0072,1","10008,1","64,1","8,1,03,1",,"08,99,1,08,1,99,9,02250,1,99,9,99,9","99999,9,10000,1","2,1,034,1,+999,9","+006,9","SYN106AAXX  11211 02795 47899 80408 11059 21072 30000 40008 52034 76486 88/// 92039 222// 00006 555 790// 0/308;",
"02795099999","2010-12-12T00:00:00","4","60.1","24.9833333","6.4","HELSINKI HARMAJA, FI","FM-12","99999","V020","020,1,N,0080,1","99999,9,9,N","050000,1,N,1","-0061,1","-0078,1","10036,1","00,1","8,1,06,1",,"07,99,1,07,1,99,9,02250,1,99,9,99,9","99999,9,10028,1","2,1,028,1,+999,9","+006,9","SYN106AAXX  12001 02795 47899 70208 11061 21078 30028 40036 52028 70086 87/// 92339 222// 00006 555 787// 0/008;",
"02795099999","2010-12-12T03:00:00","4","60.1","24.9833333","6.4","HELSINKI HARMAJA, FI","FM-12","99999","V020","020,1,N,0090,1","99999,9,9,N","999999,9,N,1","-0074,1","-0106,1","10062,1",,,,"07,99,1,07,1,99,9,02250,1,99,9,99,9","99999,9,10054,1","2,1,026,1,+999,9","+006,9","SYN100AAXX  12031 02795 468// 70209 11074 21106 30054 40062 52026 87/// 90239 222// 00006 555 778// 0/009;",
"02795099999","2010-12-12T09:00:00","4","60.1","24.9833333","6.4","HELSINKI HARMAJA, FI","FM-12","99999","V020","030,1,N,0080,1","99999,9,9,N","999999,9,N,1","-0100,1","-0120,1","10110,1",,,,"07,99,1,00,1,99,9,99999,9,99,9,99,9","99999,9,10101,1","2,1,028,1,+999,9","+002,9","SYN100AAXX  12091 02795 469// 70308 11100 21120 30101 40110 52028 80/// 90839 222// 00002 555 786// 0/610;",
"02795099999","2010-12-12T12:00:00","4","60.1","24.9833333","6.4","HELSINKI HARMAJA, FI","FM-12","99999","V020","030,1,N,0070,1","99999,9,9,N","999999,9,N,1","-0091,1","-0115,1","10121,1",,,,"07,99,1,07,1,99,9,99999,9,99,9,99,9","99999,9,10113,1","2,1,012,1,+999,9","+002,9","SYN100AAXX  12121 02795 469// 70307 11091 21115 30113 40121 52012 87/// 91139 222// 00002 555 783// 0/608;",
"02795099999","2010-12-12T15:00:00","4","60.1","24.9833333","6.4","HELSINKI HARMAJA, FI","FM-12","99999","V020","020,1,N,0080,1","99999,9,9,N","999999,9,N,1","-0095,1","-0112,1","10136,1",,,,"07,99,1,07,1,99,9,99999,9,99,9,99,9","99999,9,10128,1","2,1,015,1,+999,9","+001,9","SYN100AAXX  12151 02795 469// 70208 11095 21112 30128 40136 52015 87/// 91439 222// 00001 555 787// 0/108;",
"02795099999","2010-12-13T15:00:00","4","60.1","24.9833333","6.4","HELSINKI HARMAJA, FI","FM-12","99999","V020","030,1,N,0070,1","99999,9,9,N","999999,9,N,1","-0095,1","-0132,1","10252,1",,,,"07,99,1,07,1,99,9,99999,9,99,9,99,9","99999,9,10244,1","2,1,006,1,+999,9","-002,9","SYN100AAXX  13151 02795 469// 70307 11095 21132 30244 40252 52006 87/// 91439 222// 01002 555 774// 0/208;",
"02795099999","2010-12-13T21:00:00","4","60.1","24.9833333","6.4","HELSINKI HARMAJA, FI","FM-12","99999","V020","020,1,N,0080,1","99999,9,9,N","999999,9,N,1","-0082,1","-0103,1","10251,1",,,,"08,99,1,05,1,99,9,99999,9,99,9,99,9","99999,9,10242,1","4,1,000,1,+999,9","-003,9","SYN100AAXX  13211 02795 469// 80208 11082 21103 30242 40251 54002 85/// 92039 222// 01003 555 785// 0/109;",
"02795099999","2010-12-14T00:00:00","4","60.1","24.9833333","6.4","HELSINKI HARMAJA, FI","FM-12","99999","V020","020,1,N,0080,1","99999,9,9,N","999999,9,N,1","-0077,1","-0099,1","10241,1",,,,"07,99,1,07,1,99,9,99999,9,99,9,99,9","99999,9,10233,1","7,1,010,1,+999,9","-003,9","SYN100AAXX  14001 02795 469// 70208 11077 21099 30233 40241 57010 87/// 92339 222// 01003 555 784// 0/209;",
"02795099999","2010-12-14T03:00:00","4","60.1","24.9833333","6.4","HELSINKI HARMAJA, FI","FM-12","99999","V020","010,1,N,0090,1","99999,9,9,N","999999,9,N,1","-0073,1","-0095,1","10234,1",,,,"07,99,1,07,1,99,9,99999,9,99,9,99,9","99999,9,10225,1","7,1,007,1,+999,9","-003,9","SYN100AAXX  14031 02795 469// 70109 11073 21095 30225 40234 57007 87/// 90239 222// 01003 555 785// 0/009;",
"02795099999","2010-12-14T09:00:00","4","60.1","24.9833333","6.4","HELSINKI HARMAJA, FI","FM-12","99999","V020","010,1,N,0090,1","99999,9,9,N","999999,9,N,1","-0065,1","-0092,1","10231,1",,,,"07,99,1,07,1,99,9,02250,1,99,9,99,9","99999,9,10223,1","2,1,003,1,+999,9","-002,9","SYN100AAXX  14091 02795 468// 70109 11065 21092 30223 40231 52003 87/// 90839 222// 01002 555 781// 0/609;",
"02795099999","2010-12-14T12:00:00","4","60.1","24.9833333","6.4","HELSINKI HARMAJA, FI","FM-12","99999","V020","020,1,N,0090,1","99999,9,9,N","999999,9,N,1","-0063,1","-0097,1","10227,1",,,,"07,99,1,07,1,99,9,02250,1,99,9,99,9","99999,9,10219,1","7,1,004,1,+999,9","-003,9","SYN100AAXX  14121 02795 468// 70209 11063 21097 30219 40227 57004 87/// 91139 222// 01003 555 777// 0/310;",
"02795099999","2010-12-14T15:00:00","4","60.1","24.9833333","6.4","HELSINKI HARMAJA, FI","FM-12","99999","V020","020,1,N,0100,1","99999,9,9,N","999999,9,N,1","-0056,1","-0091,1","10227,1",,,,"08,99,1,08,1,99,9,02250,1,99,9,99,9","99999,9,10218,1","4,1,000,1,+999,9","-002,9","SYN100AAXX  14151 02795 468// 80210 11056 21091 30218 40227 54001 88/// 91439 222// 01002 555 777// 0/310;",
"02795099999","2010-12-14T21:00:00","4","60.1","24.9833333","6.4","HELSINKI HARMAJA, FI","FM-12","99999","V020","020,1,N,0080,1","99999,9,9,N","999999,9,N,1","-0057,1","-0095,1","10241,1",,,,"07,99,1,03,1,99,9,01750,1,99,9,99,9","99999,9,10233,1","2,1,008,1,+999,9","-003,9","SYN100AAXX  14211 02795 467// 70208 11057 21095 30233 40241 52008 83/// 92039 222// 01003 555 774// 0/610;",
"02795099999","2010-12-15T00:00:00","4","60.1","24.9833333","6.4","HELSINKI HARMAJA, FI","FM-12","99999","V020","030,1,N,0070,1","99999,9,9,N","999999,9,N,1","-0063,1","-0102,1","10243,1",,,,"07,99,1,07,1,99,9,02250,1,99,9,99,9","99999,9,10235,1","2,1,002,1,+999,9","-003,9","SYN100AAXX  15001 02795 468// 70307 11063 21102 30235 40243 52002 87/// 92339 222// 01003 555 774// 0/609;",
"02795099999","2010-12-15T03:00:00","4","60.1","24.9833333","6.4","HELSINKI HARMAJA, FI","FM-12","99999","V020","030,1,N,0070,1","99999,9,9,N","999999,9,N,1","-0066,1","-0096,1","10240,1",,,,"07,99,1,07,1,99,9,99999,9,99,9,99,9","99999,9,10232,1","7,1,004,1,+999,9","-003,9","SYN100AAXX  15031 02795 469// 70307 11066 21096 30232 40240 57004 87/// 90239 222// 01003 555 779// 0/607;",
"02795099999","2010-12-15T09:00:00","4","60.1","24.9833333","6.4","HELSINKI HARMAJA, FI","FM-12","99999","V020","030,1,N,0060,1","22000,1,9,N","999999,9,N,1","-0075,1","-0108,1","10239,1",,,,"03,99,1,03,1,99,9,99999,9,99,9,99,9","99999,9,10230,1","4,1,000,1,+999,9","+001,9","SYN100AAXX  15091 02795 469// 30306 11075 21108 30230 40239 54002 83/// 90839 222// 00001 555 777// 0/407;",
"02795099999","2010-12-15T12:00:00","4","60.1","24.9833333","6.4","HELSINKI HARMAJA, FI","FM-12","99999","V020","020,1,N,0060,1","22000,1,9,N","999999,9,N,1","-0076,1","-0109,1","10221,1",,,"00,1,+99999,9,99,9","00,99,1,00,1,00,1,99999,9,00,1,00,1","99999,9,10213,1","7,1,018,1,+999,9","+002,9","SYN094AAXX  15121 02795 469// 00206 11076 21109 30213 40221 57018 91139 222// 00002 555 777// 0/607;",
"02795099999","2010-12-15T15:00:00","4","60.1","24.9833333","6.4","HELSINKI HARMAJA, FI","FM-12","99999","V020","040,1,N,0050,1","22000,1,9,N","999999,9,N,1","-0092,1","-0119,1","10204,1",,,"00,1,+99999,9,99,9","00,99,1,00,1,00,1,99999,9,00,1,00,1","99999,9,10195,1","7,1,017,1,+999,9","+000,9","SYN094AAXX  15151 02795 469// 00405 11092 21119 30195 40204 57017 91439 222// 00000 555 781// 0/506;",
"02795099999","2010-12-15T21:00:00","4","60.1","24.9833333","6.4","HELSINKI HARMAJA, FI","FM-12","99999","V020","040,1,N,0020,1","99999,9,9,N","999999,9,N,1","-0085,1","-0097,1","10151,1",,,"09,1,+99999,9,99,9","09,99,1,09,1,99,9,99999,9,99,9,99,9","99999,9,10142,1","7,1,034,1,+999,9","+002,9","SYN094AAXX  15211 02795 46/// 90402 11085 21097 30142 40151 57034 92039 222// 00002 555 792// 0/604;",
"02795099999","2010-12-16T00:00:00","4","60.1","24.9833333","6.4","HELSINKI HARMAJA, FI","FM-12","99999","V020","040,1,N,0020,1","99999,9,9,N","999999,9,N,1","-0081,1","-0093,1","10117,1",,,"09,1,+99999,9,99,9","09,99,1,09,1,99,9,99999,9,99,9,99,9","99999,9,10109,1","7,1,033,1,+999,9","+001,9","SYN094AAXX  16001 02795 46/// 90402 11081 21093 30109 40117 57033 92339 222// 00001 555 792// 0/202;",
"02795099999","2010-12-16T03:00:00","4","60.1","24.9833333","6.4","HELSINKI HARMAJA, FI","FM-12","99999","V020","190,1,N,0060,1","99999,9,9,N","999999,9,N,1","-0042,1","-0058,1","10084,1",,,,"08,99,1,08,1,99,9,00250,1,99,9,99,9","99999,9,10075,1","7,1,034,1,+999,9","+000,9","SYN100AAXX  16031 02795 463// 81906 11042 21058 30075 40084 57034 88/// 90239 222// 00000 555 788// 0/006;",
"02795099999","2010-12-16T09:00:00","4","60.1","24.9833333","6.4","HELSINKI HARMAJA, FI","FM-12","99999","V020","180,1,N,0090,1","99999,9,9,N","999999,9,N,1","-0020,1","-0029,1","10031,1",,,,"08,99,1,08,1,99,9,00250,1,99,9,99,9","99999,9,10023,1","7,1,025,1,+999,9","+000,9","SYN100AAXX  16091 02795 463// 81809 11020 21029 30023 40031 57025 88/// 90839 222// 00000 555 793// 0/009;",
"02795099999","2010-12-16T12:00:00","4","60.1","24.9833333","6.4","HELSINKI HARMAJA, FI","FM-12","99999","V020","180,1,N,0110,1","99999,9,9,N","999999,9,N,1","-0016,1","-0028,1","10012,1",,,,"07,99,1,07,1,99,9,00250,1,99,9,99,9","99999,9,10004,1","7,1,019,1,+999,9","+001,9","SYN100AAXX  16121 02795 463// 71811 11016 21028 30004 40012 57019 87/// 91139 222// 00001 555 792// 0/211;",
"02795099999","2010-12-16T15:00:00","4","60.1","24.9833333","6.4","HELSINKI HARMAJA, FI","FM-12","99999","V020","170,1,N,0120,1","99999,9,9,N","999999,9,N,1","-0012,1","-0026,1","10010,1",,,,"07,99,1,07,1,99,9,00250,1,99,9,99,9","99999,9,10002,1","4,1,000,1,+999,9","+002,9","SYN100AAXX  16151 02795 463// 71712 11012 21026 30002 40010 54002 87/// 91439 222// 00002 555 791// 0/012;",
"02795099999","2010-12-16T21:00:00","4","60.1","24.9833333","6.4","HELSINKI HARMAJA, FI","FM-12","99999","V020","180,1,N,0110,1","99999,9,9,N","999999,9,N,1","-0020,1","-0035,1","10028,1",,,,"08,99,1,08,1,99,9,00250,1,99,9,99,9","99999,9,10020,1","2,1,013,1,+999,9","+003,9","SYN100AAXX  16211 02795 463// 81811 11020 21035 30020 40028 52013 88/// 92039 222// 00003 555 790// 0/313;",
"02795099999","2010-12-17T00:00:00","4","60.1","24.9833333","6.4","HELSINKI HARMAJA, FI","FM-12","99999","V020","190,1,N,0100,1","99999,9,9,N","999999,9,N,1","-0022,1","-0036,1","10046,1",,,,"08,99,1,08,1,99,9,00250,1,99,9,99,9","99999,9,10038,1","2,1,018,1,+999,9","+004,9","SYN100AAXX  17001 02795 463// 81910 11022 21036 30038 40046 52018 88/// 92339 222// 00004 555 790// 0/611;",
"02795099999","2010-12-17T03:00:00","4","60.1","24.9833333","6.4","HELSINKI HARMAJA, FI","FM-12","99999","V020","170,1,N,0070,1","99999,9,9,N","999999,9,N,1","-0029,1","-0046,1","10063,1",,,,"07,99,1,07,1,99,9,00250,1,99,9,99,9","99999,9,10055,1","2,1,017,1,+999,9","+005,9","SYN100AAXX  17031 02795 463// 71707 11029 21046 30055 40063 52017 87/// 90239 222// 00005 555 788// 0/610;",
"02795099999","2010-12-17T09:00:00","4","60.1","24.9833333","6.4","HELSINKI HARMAJA, FI","FM-12","99999","V020","140,1,N,0070,1","99999,9,9,N","999999,9,N,1","-0044,1","-0069,1","10098,1",,,,"08,99,1,08,1,99,9,00450,1,99,9,99,9","99999,9,10090,1","2,1,023,1,+999,9","+003,9","SYN100AAXX  17091 02795 464// 81407 11044 21069 30090 40098 52023 88/// 90839 222// 00003 555 783// 0/608;",
"02795099999","2010-12-17T12:00:00","4","60.1","24.9833333","6.4","HELSINKI HARMAJA, FI","FM-12","99999","V020","120,1,N,0070,1","99999,9,9,N","999999,9,N,1","-0050,1","-0074,1","10115,1",,,,"07,99,1,07,1,99,9,00450,1,99,9,99,9","99999,9,10107,1","2,1,018,1,+999,9","+002,9","SYN100AAXX  17121 02795 464// 71207 11050 21074 30107 40115 52018 87/// 91139 222// 00002 555 783// 0/608;",
"02795099999","2010-12-17T15:00:00","4","60.1","24.9833333","6.4","HELSINKI HARMAJA, FI","FM-12","99999","V020","120,1,N,0080,1","99999,9,9,N","999999,9,N,1","-0048,1","-0066,1","10128,1",,,,"07,99,1,07,1,99,9,00250,1,99,9,99,9","99999,9,10120,1","2,1,013,1,+999,9","+000,9","SYN100AAXX  17151 02795 463// 71208 11048 21066 30120 40128 52013 87/// 91439 222// 00000 555 787// 0/008;",
"02795099999","2010-12-17T21:00:00","4","60.1","24.9833333","6.4","HELSINKI HARMAJA, FI","FM-12","99999","V020","070,1,N,0090,1","99999,9,9,N","999999,9,N,1","-0054,1","-0064,1","10163,1",,,,"08,99,1,08,1,99,9,00150,1,99,9,99,9","99999,9,10154,1","2,1,017,1,+999,9","-002,9","SYN100AAXX  17211 02795 462// 80709 11054 21064 30154 40163 52017 88/// 92039 222// 01002 555 793// 0/009;",
"02795099999","2010-12-18T00:00:00","4","60.1","24.9833333","6.4","HELSINKI HARMAJA, FI","FM-12","99999","V020","060,1,N,0090,1","99999,9,9,N","999999,9,N,1","-0072,1","-0084,1","10162,1",,,,"07,99,1,07,1,99,9,00250,1,99,9,99,9","99999,9,10154,1","4,1,000,1,+999,9","-003,9","SYN100AAXX  18001 02795 463// 70609 11072 21084 30154 40162 54000 87/// 92339 222// 01003 555 791// 0/510;",
"02795099999","2010-12-18T03:00:00","4","60.1","24.9833333","6.4","HELSINKI HARMAJA, FI","FM-12","99999","V020","050,1,N,0090,1","99999,9,9,N","999999,9,N,1","-0090,1","-0103,1","10168,1",,,,"08,99,1,08,1,99,9,00450,1,99,9,99,9","99999,9,10160,1","2,1,006,1,+999,9","-004,9","SYN100AAXX  18031 02795 464// 80509 11090 21103 30160 40168 52006 88/// 90239 222// 01004 555 790// 0/310;",
"02795099999","2010-12-18T09:00:00","4","60.1","24.9833333","6.4","HELSINKI HARMAJA, FI","FM-12","99999","V020","060,1,N,0110,1","99999,9,9,N","999999,9,N,1","-0083,1","-0095,1","10183,1",,,,"08,99,1,08,1,99,9,00450,1,99,9,99,9","99999,9,10174,1","2,1,011,1,+999,9","-003,9","SYN100AAXX  18091 02795 464// 80611 11083 21095 30174 40183 52011 88/// 90839 222// 01003 555 791// 0/312;",
"02795099999","2010-12-18T12:00:00","4","60.1","24.9833333","6.4","HELSINKI HARMAJA, FI","FM-12","99999","V020","040,1,N,0110,1","99999,9,9,N","999999,9,N,1","-0093,1","-0106,1","10178,1",,,,"08,99,1,08,1,99,9,00450,1,99,9,99,9","99999,9,10169,1","7,1,005,1,+999,9","-003,9","SYN100AAXX  18121 02795 464// 80411 11093 21106 30169 40178 57005 88/// 91139 222// 01003 555 790// 0/312;",
"02795099999","2010-12-18T15:00:00","4","60.1","24.9833333","6.4","HELSINKI HARMAJA, FI","FM-12","99999","V020","060,1,N,0110,1","99999,9,9,N","999999,9,N,1","-0098,1","-0111,1","10169,1",,,,"08,99,1,08,1,99,9,00450,1,99,9,99,9","99999,9,10160,1","7,1,009,1,+999,9","-003,9","SYN100AAXX  18151 02795 464// 80611 11098 21111 30160 40169 57009 88/// 91439 222// 01003 555 790// 0/212;",
"02795099999","2010-12-18T21:00:00","4","60.1","24.9833333","6.4","HELSINKI HARMAJA, FI","FM-12","99999","V020","060,1,N,0110,1","99999,9,9,N","999999,9,N,1","-0089,1","-0105,1","10129,1",,,,"08,99,1,08,1,99,9,00450,1,99,9,99,9","99999,9,10120,1","7,1,015,1,+999,9","-003,9","SYN100AAXX  18211 02795 464// 80611 11089 21105 30120 40129 57015 88/// 92039 222// 01003 555 788// 0/113;",
"02795099999","2010-12-19T00:00:00","4","60.1","24.9833333","6.4","HELSINKI HARMAJA, FI","FM-12","99999","V020","050,1,N,0120,1","99999,9,9,N","999999,9,N,1","-0084,1","-0097,1","10101,1",,,,"08,99,1,08,1,99,9,00450,1,99,9,99,9","99999,9,10092,1","7,1,028,1,+999,9","-003,9","SYN100AAXX  19001 02795 464// 80512 11084 21097 30092 40101 57028 88/// 92339 222// 01003 555 790// 0/213;",
"02795099999","2010-12-19T03:00:00","4","60.1","24.9833333","6.4","HELSINKI HARMAJA, FI","FM-12","99999","V020","050,1,N,0110,1","99999,9,9,N","001400,1,N,1","-0078,1","-0091,1","10084,1","71,1",,,"08,99,1,08,1,99,9,00450,1,99,9,99,9","99999,9,10075,1","7,1,017,1,+999,9","-003,9","SYN106AAXX  19031 02795 47414 80511 11078 21091 30075 40084 57017 771// 88/// 90239 222// 01003 555 791// 0/612;",
"02795099999","2010-12-19T09:00:00","4","60.1","24.9833333","6.4","HELSINKI HARMAJA, FI","FM-12","99999","V020","100,1,N,0120,1","00060,1,9,N","000900,1,N,1","-0064,1","-0078,1","10074,1","72,1",,"09,1,+99999,9,99,9","09,99,1,09,1,99,9,99999,9,99,9,99,9","99999,9,10065,1","4,1,000,1,+999,9","-003,9","SYN100AAXX  19091 02795 47309 91012 11064 21078 30065 40074 54001 772// 90839 222// 01003 555 789// 0/615;",
"02795099999","2010-12-19T12:00:00","4","60.1","24.9833333","6.4","HELSINKI HARMAJA, FI","FM-12","99999","V020","110,1,N,0110,1","99999,9,9,N","999999,9,N,1","-0055,1","-0070,1","10066,1",,,,"07,99,1,07,1,99,9,00450,1,99,9,99,9","99999,9,10058,1","7,1,007,1,+999,9","-003,9","SYN100AAXX  19121 02795 464// 71111 11055 21070 30058 40066 57007 87/// 91139 222// 01003 555 790// 0/413;",
"02795099999","2010-12-19T15:00:00","4","60.1","24.9833333","6.4","HELSINKI HARMAJA, FI","FM-12","99999","V020","110,1,N,0110,1","99999,9,9,N","999999,9,N,1","-0052,1","-0071,1","10067,1",,,,"07,99,1,07,1,99,9,00450,1,99,9,99,9","99999,9,10058,1","4,1,000,1,+999,9","-003,9","SYN100AAXX  19151 02795 464// 71111 11052 21071 30058 40067 54000 87/// 91439 222// 01003 555 787// 0/412;",
"02795099999","2010-12-19T21:00:00","4","60.1","24.9833333","6.4","HELSINKI HARMAJA, FI","FM-12","99999","V020","050,1,N,0090,1","99999,9,9,N","001300,1,N,1","-0086,1","-0099,1","10059,1","67,1",,,"07,99,1,07,1,99,9,00450,1,99,9,99,9","99999,9,10051,1","4,1,000,1,+999,9","-003,9","SYN106AAXX  19211 02795 47413 70509 11086 21099 30051 40059 54001 767// 87/// 92039 222// 01003 555 790// 0/210;",
"02795099999","2010-12-20T00:00:00","4","60.1","24.9833333","6.4","HELSINKI HARMAJA, FI","FM-12","99999","V020","060,1,N,0080,1","00120,1,9,N","001300,1,N,1","-0092,1","-0105,1","10053,1","71,1",,"09,1,+99999,9,99,9","09,99,1,09,1,99,9,99999,9,99,9,99,9","99999,9,10045,1","7,1,006,1,+999,9","-003,9","SYN100AAXX  20001 02795 47313 90608 11092 21105 30045 40053 57006 771// 92339 222// 01003 555 790// 0/609;",
"02795099999","2010-12-20T03:00:00","4","60.1","24.9833333","6.4","HELSINKI HARMAJA, FI","FM-12","99999","V020","040,1,N,0070,1","99999,9,9,N","999999,9,N,1","-0085,1","-0098,1","10040,1",,,,"07,99,1,07,1,99,9,00250,1,99,9,99,9","99999,9,10032,1","7,1,013,1,+999,9","-003,9","SYN100AAXX  20031 02795 463// 70407 11085 21098 30032 40040 57013 87/// 90239 222// 01003 555 791// 0/508;",
"02795099999","2010-12-20T09:00:00","4","60.1","24.9833333","6.4","HELSINKI HARMAJA, FI","FM-12","99999","V020","140,1,N,0050,1","99999,9,9,N","006000,1,N,1","-0057,1","-0076,1","10038,1","64,1","8,1,03,1",,"07,99,1,07,1,99,9,00450,1,99,9,99,9","99999,9,10030,1","4,1,000,1,+999,9","-003,9","SYN106AAXX  20091 02795 47456 71405 11057 21076 30030 40038 54001 76486 87/// 90839 222// 01003 555 786// 0/607;",
"02795099999","2010-12-20T12:00:00","4","60.1","24.9833333","6.4","HELSINKI HARMAJA, FI","FM-12","99999","V020","140,1,N,0050,1","99999,9,9,N","008000,1,N,1","-0060,1","-0075,1","10033,1","64,1","8,1,06,1",,"07,99,1,07,1,99,9,00250,1,99,9,99,9","99999,9,10025,1","7,1,005,1,+999,9","-003,9","SYN106AAXX  20121 02795 47358 71405 11060 21075 30025 40033 57005 76486 87/// 91139 222// 01003 555 789// 0/305;",
"02795099999","2010-12-20T15:00:00","4","60.1","24.9833333","6.4","HELSINKI HARMAJA, FI","FM-12","99999","V020","110,1,N,0060,1","99999,9,9,N","009000,1,N,1","-0059,1","-0076,1","10022,1","54,1","8,1,03,1",,"07,99,1,07,1,99,9,00250,1,99,9,99,9","99999,9,10014,1","7,1,010,1,+999,9","-003,9","SYN106AAXX  20151 02795 47359 71106 11059 21076 30014 40022 57010 75486 87/// 91439 222// 01003 555 788// 0/006;",
"02795099999","2010-12-20T21:00:00","4","60.1","24.9833333","6.4","HELSINKI HARMAJA, FI","FM-12","99999","V020","100,1,N,0050,1","99999,9,9,N","004100,1,N,1","-0050,1","-0061,1","10013,1","10,1","6,1,03,1",,"07,99,1,07,1,99,9,00150,1,99,9,99,9","99999,9,10005,1","7,1,002,1,+999,9","-003,9","SYN106AAXX  20211 02795 47241 71005 11050 21061 30005 40013 57002 71065 87/// 92039 222// 01003 555 792// 0/206;",
"02795099999","2010-12-21T00:00:00","4","60.1","24.9833333","6.4","HELSINKI HARMAJA, FI","FM-12","99999","V020","040,1,N,0050,1","99999,9,9,N","010000,1,N,1","-0062,1","-0076,1","10014,1","54,1","6,1,06,1",,"08,99,1,08,1,99,9,00250,1,99,9,99,9","99999,9,10006,1","4,1,000,1,+999,9","-003,9","SYN106AAXX  21001 02795 47360 80405 11062 21076 30006 40014 54001 75465 88/// 92339 222// 01003 555 790// 0/606;",
"02795099999","2010-12-21T03:00:00","4","60.1","24.9833333","6.4","HELSINKI HARMAJA, FI","FM-12","99999","V020","040,1,N,0040,1","99999,9,9,N","009000,1,N,1","-0067,1","-0081,1","10019,1","64,1","8,1,03,1",,"08,99,1,08,1,99,9,00250,1,99,9,99,9","99999,9,10011,1","2,1,005,1,+999,9","-003,9","SYN106AAXX  21031 02795 47359 80404 11067 21081 30011 40019 52005 76486 88/// 90239 222// 01003 555 790// 0/305;",
"02795099999","2010-12-21T09:00:00","4","60.1","24.9833333","6.4","HELSINKI HARMAJA, FI","FM-12","99999","V020","060,1,N,0020,1","99999,9,9,N","006000,1,N,1","-0071,1","-0086,1","10041,1","64,1","8,1,03,1",,"08,99,1,08,1,99,9,00450,1,99,9,99,9","99999,9,10033,1","2,1,019,1,+999,9","-003,9","SYN106AAXX  21091 02795 47456 80602 11071 21086 30033 40041 52019 76486 88/// 90839 222// 01003 555 789// 0/604;",
"02795099999","2010-12-21T12:00:00","4","60.1","24.9833333","6.4","HELSINKI HARMAJA, FI","FM-12","99999","V020","040,1,N,0030,1","99999,9,9,N","002800,1,N,1","-0079,1","-0092,1","10054,1","64,1","8,1,06,1",,"08,99,1,08,1,99,9,00450,1,99,9,99,9","99999,9,10046,1","2,1,013,1,+999,9","-003,9","SYN106AAXX  21121 02795 47428 80403 11079 21092 30046 40054 52013 76487 88/// 91139 222// 01003 555 791// 0/303;",
"02795099999","2010-12-21T15:00:00","4","60.1","24.9833333","6.4","HELSINKI HARMAJA, FI","FM-12","99999","V020","070,1,N,0020,1","99999,9,9,N","009000,1,N,1","-0066,1","-0077,1","10066,1","64,1","6,1,03,1",,"07,99,1,07,1,99,9,00250,1,99,9,99,9","99999,9,10058,1","2,1,012,1,+999,9","-003,9","SYN106AAXX  21151 02795 47359 70702 11066 21077 30058 40066 52012 76460 87/// 91439 222// 01003 555 792// 0/603;",
"02795099999","2010-12-21T21:00:00","4","60.1","24.9833333","6.4","HELSINKI HARMAJA, FI","FM-12","99999","V020","140,1,N,0040,1","99999,9,9,N","005000,1,N,1","-0043,1","-0060,1","10082,1","64,1","6,1,03,1",,"08,99,1,08,1,99,9,00250,1,99,9,99,9","99999,9,10074,1","2,1,010,1,+999,9","-003,9","SYN106AAXX  21211 02795 47350 81404 11043 21060 30074 40082 52010 76465 88/// 92039 222// 01003 555 788// 0/305;",
"02795099999","2010-12-22T00:00:00","4","60.1","24.9833333","6.4","HELSINKI HARMAJA, FI","FM-12","99999","V020","050,1,N,0030,1","99999,9,9,N","004900,1,N,1","-0057,1","-0070,1","10094,1","64,1","6,1,06,1",,"08,99,1,08,1,99,9,00450,1,99,9,99,9","99999,9,10086,1","2,1,012,1,+999,9","-003,9","SYN106AAXX  22001 02795 47449 80503 11057 21070 30086 40094 52012 76465 88/// 92339 222// 01003 555 791// 0/604;",
"02795099999","2010-12-22T03:00:00","4","60.1","24.9833333","6.4","HELSINKI HARMAJA, FI","FM-12","99999","V020","040,1,N,0030,1","99999,9,9,N","003700,1,N,1","-0060,1","-0069,1","10100,1","64,1","7,1,03,1",,"08,99,1,08,1,99,9,00150,1,99,9,99,9","99999,9,10092,1","2,1,006,1,+999,9","-003,9","SYN106AAXX  22031 02795 47237 80403 11060 21069 30092 40100 52006 76476 88/// 90239 222// 01003 555 793// 0/205;",
"02795099999","2010-12-22T09:00:00","4","60.1","24.9833333","6.4","HELSINKI HARMAJA, FI","FM-12","99999","V020","030,1,N,0040,1","99999,9,9,N","010000,1,N,1","-0067,1","-0078,1","10124,1","54,1","8,1,03,1",,"08,99,1,03,1,99,9,01750,1,99,9,99,9","99999,9,10116,1","2,1,015,1,+999,9","-003,9","SYN106AAXX  22091 02795 47760 80304 11067 21078 30116 40124 52015 75486 83/// 90839 222// 01003 555 792// 0/004;",
"02795099999","2010-12-22T12:00:00","4","60.1","24.9833333","6.4","HELSINKI HARMAJA, FI","FM-12","99999","V020","010,1,N,0030,1","99999,9,9,N","008000,1,N,1","-0083,1","-0096,1","10141,1","64,1","8,1,06,1",,"07,99,1,07,1,99,9,00800,1,99,9,99,9","99999,9,10132,1","2,1,016,1,+999,9","-003,9","SYN106AAXX  22121 02795 47558 70103 11083 21096 30132 40141 52016 76486 87/// 91139 222// 01003 555 790// 0/404;",
"02795099999","2010-12-22T15:00:00","4","60.1","24.9833333","6.4","HELSINKI HARMAJA, FI","FM-12","99999","V020","030,1,N,0040,1","22000,1,9,N","007000,1,N,1","-0079,1","-0090,1","10151,1","10,1","6,1,03,1",,"01,99,1,01,1,99,9,00450,1,99,9,99,9","99999,9,10143,1","2,1,010,1,+999,9","-003,9","SYN106AAXX  22151 02795 47457 10304 11079 21090 30143 40151 52010 71065 81/// 91439 222// 01003 555 792// 0/205;",
"02795099999","2010-12-22T21:00:00","4","60.1","24.9833333","6.4","HELSINKI HARMAJA, FI","FM-12","99999","V020","010,1,N,0030,1","99999,9,9,N","999999,9,N,1","-0118,1","-0132,1","10183,1",,,,"07,99,1,07,1,99,9,00075,1,99,9,99,9","99999,9,10175,1","2,1,016,1,+999,9","-003,9","SYN100AAXX  22211 02795 461// 70103 11118 21132 30175 40183 52016 87/// 92039 222// 01003 555 789// 0/205;",
"02795099999","2010-12-23T00:00:00","4","60.1","24.9833333","6.4","HELSINKI HARMAJA, FI","FM-12","99999","V020","010,1,N,0040,1","99999,9,9,N","999999,9,N,1","-0135,1","-0151,1","10201,1",,,,"08,99,1,08,1,99,9,00150,1,99,9,99,9","99999,9,10192,1","2,1,018,1,+999,9","-003,9","SYN100AAXX  23001 02795 462// 80104 11135 21151 30192 40201 52018 88/// 92339 222// 01003 555 788// 0/305;",
"02795099999","2010-12-23T03:00:00","4","60.1","24.9833333","6.4","HELSINKI HARMAJA, FI","FM-12","99999","V020","020,1,N,0040,1","22000,1,9,N","999999,9,N,1","-0158,1","-0177,1","10207,1",,,"00,1,+99999,9,99,9","00,99,1,00,1,00,1,99999,9,00,1,00,1","99999,9,10198,1","2,1,006,1,+999,9","-003,9","SYN094AAXX  23031 02795 469// 00204 11158 21177 30198 40207 52006 90239 222// 01003 555 785// 0/104;",
"02795099999","2010-12-23T09:00:00","4","60.1","24.9833333","6.4","HELSINKI HARMAJA, FI","FM-12","99999","V020","030,1,N,0030,1","99999,9,9,N","999999,9,N,1","-0182,1","-0204,1","10229,1",,,,"05,99,1,05,1,99,9,00075,1,99,9,99,9","99999,9,10220,1","2,1,015,1,+999,9","-003,9","SYN100AAXX  23091 02795 461// 50303 11182 21204 30220 40229 52015 85/// 90839 222// 01003 555 782// 0/504;",
"02795099999","2010-12-23T12:00:00","4","60.1","24.9833333","6.4","HELSINKI HARMAJA, FI","FM-12","99999","V020","020,1,N,0020,1","22000,1,9,N","999999,9,N,1","-0174,1","-0196,1","10230,1",,,,"03,99,1,03,1,99,9,00075,1,99,9,99,9","99999,9,10221,1","4,1,000,1,+999,9","-003,9","SYN100AAXX  23121 02795 461// 30202 11174 21196 30221 40230 54001 83/// 91139 222// 01003 555 783// 0/603;",
"02795099999","2010-12-23T15:00:00","4","60.1","24.9833333","6.4","HELSINKI HARMAJA, FI","FM-12","99999","V020","030,1,N,0030,1","99999,9,9,N","999999,9,N,1","-0180,1","-0203,1","10234,1",,,,"05,99,1,05,1,99,9,00075,1,99,9,99,9","99999,9,10225,1","2,1,005,1,+999,9","-003,9","SYN100AAXX  23151 02795 461// 50303 11180 21203 30225 40234 52005 85/// 91439 222// 01003 555 782// 0/203;",
"02795099999","2010-12-23T21:00:00","4","60.1","24.9833333","6.4","HELSINKI HARMAJA, FI","FM-12","99999","V020","040,1,N,0020,1","22000,1,9,N","999999,9,N,1","-0194,1","-0218,1","10234,1",,,,"03,99,1,03,1,99,9,00025,1,99,9,99,9","99999,9,10225,1","4,1,000,1,+999,9","-003,9","SYN100AAXX  23211 02795 460// 30402 11194 21218 30225 40234 54000 83/// 92039 222// 01003 555 781// 0/203;",
"02795099999","2010-12-24T00:00:00","4","60.1","24.9833333","6.4","HELSINKI HARMAJA, FI","FM-12","99999","V020","030,1,N,0030,1","22000,1,9,N","999999,9,N,1","-0196,1","-0220,1","10228,1",,,"00,1,+99999,9,99,9","00,99,1,00,1,00,1,99999,9,00,1,00,1","99999,9,10220,1","7,1,005,1,+999,9","-003,9","SYN094AAXX  24001 02795 469// 00303 11196 21220 30220 40228 57005 92339 222// 01003 555 781// 0/003;",
"02795099999","2010-12-24T03:00:00","4","60.1","24.9833333","6.4","HELSINKI HARMAJA, FI","FM-12","99999","V020","030,1,N,0030,1","99999,9,9,N","999999,9,N,1","-0205,1","-0230,1","10222,1",,,,"05,99,1,05,1,99,9,99999,9,99,9,99,9","99999,9,10213,1","7,1,006,1,+999,9","-003,9","SYN100AAXX  24031 02795 469// 50303 11205 21230 30213 40222 57006 85/// 90239 222// 01003 555 780// 0/403;",
"02795099999","2010-12-24T12:00:00","4","60.1","24.9833333","6.4","HELSINKI HARMAJA, FI","FM-12","99999","V020","040,1,N,0050,1","99999,9,9,N","999999,9,N,1","-0145,1","-0164,1","10191,1",,,,"07,99,1,07,1,99,9,00250,1,99,9,99,9","99999,9,10183,1","7,1,014,1,+999,9","-003,9","SYN100AAXX  24121 02795 463// 70405 11145 21164 30183 40191 57014 87/// 91139 222// 01003 555 785// 0/005;",
"02795099999","2010-12-24T15:00:00","4","60.1","24.9833333","6.4","HELSINKI HARMAJA, FI","FM-12","99999","V020","050,1,N,0040,1","99999,9,9,N","999999,9,N,1","-0137,1","-0155,1","10180,1",,,,"05,99,1,05,1,99,9,99999,9,99,9,99,9","99999,9,10171,1","7,1,012,1,+999,9","-003,9","SYN100AAXX  24151 02795 469// 50504 11137 21155 30171 40180 57012 85/// 91439 222// 01003 555 786// 0/605;",
"02795099999","2010-12-24T21:00:00","4","60.1","24.9833333","6.4","HELSINKI HARMAJA, FI","FM-12","99999","V020","040,1,N,0060,1","99999,9,9,N","999999,9,N,1","-0125,1","-0141,1","10162,1",,,,"07,99,1,07,1,99,9,02250,1,99,9,99,9","99999,9,10154,1","7,1,010,1,+999,9","-003,9","SYN100AAXX  24211 02795 468// 70406 11125 21141 30154 40162 57010 87/// 92039 222// 01003 555 788// 0/007;",
"02795099999","2010-12-25T00:00:00","4","60.1","24.9833333","6.4","HELSINKI HARMAJA, FI","FM-12","99999","V020","050,1,N,0070,1","99999,9,9,N","999999,9,N,1","-0117,1","-0132,1","10152,1",,,,"07,99,1,07,1,99,9,99999,9,99,9,99,9","99999,9,10143,1","7,1,011,1,+999,9","-003,9","SYN100AAXX  25001 02795 469// 70507 11117 21132 30143 40152 57011 87/// 92339 222// 01003 555 788// 0/308;",
"02795099999","2010-12-25T03:00:00","4","60.1","24.9833333","6.4","HELSINKI HARMAJA, FI","FM-12","99999","V020","040,1,N,0080,1","99999,9,9,N","999999,9,N,1","-0110,1","-0125,1","10145,1",,,,"07,99,1,07,1,99,9,99999,9,99,9,99,9","99999,9,10137,1","7,1,007,1,+999,9","-003,9","SYN100AAXX  25031 02795 469// 70408 11110 21125 30137 40145 57007 87/// 90239 222// 01003 555 789// 0/309;",
"02795099999","2010-12-25T09:00:00","4","60.1","24.9833333","6.4","HELSINKI HARMAJA, FI","FM-12","99999","V020","040,1,N,0100,1","00240,1,9,N","002300,1,N,1","-0092,1","-0112,1","10142,1","64,1",,"09,1,+99999,9,99,9","09,99,1,09,1,99,9,99999,9,99,9,99,9","99999,9,10134,1","2,1,002,1,+999,9","-003,9","SYN100AAXX  25091 02795 47423 90410 11092 21112 30134 40142 52002 764// 90839 222// 01003 555 786// 0/011;",
"02795099999","2010-12-25T12:00:00","4","60.1","24.9833333","6.4","HELSINKI HARMAJA, FI","FM-12","99999","V020","040,1,N,0100,1","99999,9,9,N","011000,1,N,1","-0084,1","-0112,1","10133,1","54,1",,,"07,99,1,07,1,99,9,01250,1,99,9,99,9","99999,9,10125,1","7,1,009,1,+999,9","-003,9","SYN106AAXX  25121 02795 47661 70410 11084 21112 30125 40133 57009 754// 87/// 91139 222// 01003 555 780// 0/111;",
"02795099999","2010-12-25T15:00:00","4","60.1","24.9833333","6.4","HELSINKI HARMAJA, FI","FM-12","99999","V020","040,1,N,0110,1","99999,9,9,N","004900,1,N,1","-0080,1","-0108,1","10124,1","64,1",,,"07,99,1,07,1,99,9,00800,1,99,9,99,9","99999,9,10115,1","7,1,010,1,+999,9","-003,9","SYN106AAXX  25151 02795 47549 70411 11080 21108 30115 40124 57010 764// 87/// 91439 222// 01003 555 780// 0/011;",
"02795099999","2010-12-25T21:00:00","4","60.1","24.9833333","6.4","HELSINKI HARMAJA, FI","FM-12","99999","V020","050,1,N,0110,1","00120,1,9,N","001400,1,N,1","-0073,1","-0087,1","10105,1","67,1","6,1,03,1","09,1,+99999,9,99,9","09,99,1,09,1,99,9,99999,9,99,9,99,9","99999,9,10097,1","7,1,011,1,+999,9","-003,9","SYN100AAXX  25211 02795 47314 90511 11073 21087 30097 40105 57011 76765 92039 222// 01003 555 790// 0/513;",
"02795099999","2010-12-26T00:00:00","4","60.1","24.9833333","6.4","HELSINKI HARMAJA, FI","FM-12","99999","V020","060,1,N,0140,1","99999,9,9,N","001300,1,N,1","-0058,1","-0073,1","10093,1","64,1","7,1,06,1",,"07,99,1,07,1,99,9,00450,1,99,9,99,9","99999,9,10085,1","7,1,012,1,+999,9","-003,9","SYN106AAXX  26001 02795 47413 70614 11058 21073 30085 40093 57012 76476 87/// 92339 222// 01003 555 790// 0/214;",
"02795099999","2010-12-26T03:00:00","4","60.1","24.9833333","6.4","HELSINKI HARMAJA, FI","FM-12","99999","V020","070,1,N,0140,1","99999,9,9,N","000800,1,N,1","-0051,1","-0062,1","10083,1","74,1","7,1,03,1",,"08,99,1,08,1,99,9,00250,1,99,9,99,9","99999,9,10075,1","7,1,010,1,+999,9","-003,9","SYN106AAXX  26031 02795 47308 80714 11051 21062 30075 40083 57010 77476 88/// 90239 222// 01003 555 792// 0/514;",
"02795099999","2010-12-26T09:00:00","4","60.1","24.9833333","6.4","HELSINKI HARMAJA, FI","FM-12","99999","V020","100,1,N,0140,1","00120,1,9,N","001100,1,N,1","-0034,1","-0044,1","10092,1","67,1","6,1,03,1","09,1,+99999,9,99,9","09,99,1,09,1,99,9,99999,9,99,9,99,9","99999,9,10084,1","2,1,013,1,+999,9","-003,9","SYN100AAXX  26091 02795 47311 91014 11034 21044 30084 40092 52013 76764 90839 222// 01003 555 793// 0/617;",
"02795099999","2010-12-26T12:00:00","4","60.1","24.9833333","6.4","HELSINKI HARMAJA, FI","FM-12","99999","V020","090,1,N,0130,1","99999,9,9,N","001200,1,N,1","-0039,1","-0049,1","10101,1","67,1","6,1,06,1",,"07,99,1,07,1,99,9,00250,1,99,9,99,9","99999,9,10093,1","2,1,009,1,+999,9","-004,9","SYN106AAXX  26121 02795 47312 70913 11039 21049 30093 40101 52009 76765 87/// 91139 222// 01004 555 793// 0/214;",
"02795099999","2010-12-26T15:00:00","4","60.1","24.9833333","6.4","HELSINKI HARMAJA, FI","FM-12","99999","V020","090,1,N,0120,1","99999,9,9,N","005000,1,N,1","-0037,1","-0052,1","10109,1","54,1","6,1,03,1",,"07,99,1,07,1,99,9,00450,1,99,9,99,9","99999,9,10101,1","2,1,008,1,+999,9","-003,9","SYN106AAXX  26151 02795 47450 70912 11037 21052 30101 40109 52008 75465 87/// 91439 222// 01003 555 789// 0/613;",
"02795099999","2010-12-26T21:00:00","4","60.1","24.9833333","6.4","HELSINKI HARMAJA, FI","FM-12","99999","V020","100,1,N,0070,1","99999,9,9,N","005000,1,N,1","-0041,1","-0057,1","10136,1","54,1","6,1,03,1",,"07,99,1,07,1,99,9,00250,1,99,9,99,9","99999,9,10128,1","2,1,014,1,+999,9","-003,9","SYN106AAXX  26211 02795 47350 71007 11041 21057 30128 40136 52014 75465 87/// 92039 222// 01003 555 789// 0/610;",
"02795099999","2010-12-27T00:00:00","4","60.1","24.9833333","6.4","HELSINKI HARMAJA, FI","FM-12","99999","V020","050,1,N,0070,1","99999,9,9,N","010000,1,N,1","-0061,1","-0075,1","10146,1","54,1","6,1,06,1",,"07,99,1,07,1,99,9,00450,1,99,9,99,9","99999,9,10138,1","2,1,010,1,+999,9","-003,9","SYN106AAXX  27001 02795 47460 70507 11061 21075 30138 40146 52010 75465 87/// 92339 222// 01003 555 790// 0/507;",
"02795099999","2010-12-27T03:00:00","4","60.1","24.9833333","6.4","HELSINKI HARMAJA, FI","FM-12","99999","V020","060,1,N,0060,1","99999,9,9,N","006000,1,N,1","-0067,1","-0081,1","10158,1","64,1","6,1,03,1",,"08,99,1,08,1,99,9,00450,1,99,9,99,9","99999,9,10150,1","2,1,012,1,+999,9","-003,9","SYN106AAXX  27031 02795 47456 80606 11067 21081 30150 40158 52012 76465 88/// 90239 222// 01003 555 790// 0/607;",
"02795099999","2010-12-27T09:00:00","4","60.1","24.9833333","6.4","HELSINKI HARMAJA, FI","FM-12","99999","V020","060,1,N,0050,1","99999,9,9,N","008000,1,N,1","-0071,1","-0088,1","10190,1","54,1","5,1,03,1",,"08,99,1,08,1,99,9,00450,1,99,9,99,9","99999,9,10182,1","2,1,020,1,+999,9","-003,9","SYN106AAXX  27091 02795 47458 80605 11071 21088 30182 40190 52020 75454 88/// 90839 222// 01003 555 788// 0/607;",
"02795099999","2010-12-27T12:00:00","4","60.1","24.9833333","6.4","HELSINKI HARMAJA, FI","FM-12","99999","V020","050,1,N,0050,1","99999,9,9,N","013000,1,N,1","-0071,1","-0088,1","10200,1","00,1","5,1,06,1",,"08,99,1,08,1,99,9,00800,1,99,9,99,9","99999,9,10191,1","2,1,010,1,+999,9","-003,9","SYN106AAXX  27121 02795 47563 80505 11071 21088 30191 40200 52010 70054 88/// 91139 222// 01003 555 787// 0/606;",
"02795099999","2010-12-27T15:00:00","4","60.1","24.9833333","6.4","HELSINKI HARMAJA, FI","FM-12","99999","V020","040,1,N,0040,1","99999,9,9,N","040000,1,N,1","-0074,1","-0094,1","10211,1","00,1","0,1,03,1",,"08,99,1,08,1,99,9,00800,1,99,9,99,9","99999,9,10203,1","2,1,012,1,+999,9","-003,9","SYN106AAXX  27151 02795 47582 80404 11074 21094 30203 40211 52012 70000 88/// 91439 222// 01003 555 785// 0/505;",
"02795099999","2010-12-27T21:00:00","4","60.1","24.9833333","6.4","HELSINKI HARMAJA, FI","FM-12","99999","V020","030,1,N,0040,1","99999,9,9,N","050000,1,N,1","-0080,1","-0101,1","10235,1","54,1",,,"08,99,1,08,1,99,9,00800,1,99,9,99,9","99999,9,10227,1","2,1,011,1,+999,9","-003,9","SYN106AAXX  27211 02795 47599 80304 11080 21101 30227 40235 52011 754// 88/// 92039 222// 01003 555 785// 0/304;",
"02795099999","2010-12-28T00:00:00","4","60.1","24.9833333","6.4","HELSINKI HARMAJA, FI","FM-12","99999","V020","040,1,N,0040,1","99999,9,9,N","050000,1,N,1","-0081,1","-0101,1","10238,1","00,1",,,"08,99,1,08,1,99,9,01250,1,99,9,99,9","99999,9,10230,1","2,1,003,1,+999,9","-003,9","SYN106AAXX  28001 02795 47699 80404 11081 21101 30230 40238 52003 700// 88/// 92339 222// 01003 555 785// 0/304;",
"02795099999","2010-12-28T03:00:00","4","60.1","24.9833333","6.4","HELSINKI HARMAJA, FI","FM-12","99999","V020","030,1,N,0030,1","99999,9,9,N","999999,9,N,1","-0087,1","-0109,1","10245,1",,,,"08,99,1,08,1,99,9,01250,1,99,9,99,9","99999,9,10237,1","2,1,007,1,+999,9","-003,9","SYN100AAXX  28031 02795 466// 80303 11087 21109 30237 40245 52007 88/// 90239 222// 01003 555 784// 0/604;",
"02795099999","2010-12-28T09:00:00","4","60.1","24.9833333","6.4","HELSINKI HARMAJA, FI","FM-12","99999","V020","040,1,N,0030,1","99999,9,9,N","999999,9,N,1","-0097,1","-0119,1","10265,1",,,,"07,99,1,07,1,99,9,01250,1,99,9,99,9","99999,9,10257,1","2,1,015,1,+999,9","-003,9","SYN100AAXX  28091 02795 466// 70403 11097 21119 30257 40265 52015 87/// 90839 222// 01003 555 784// 0/605;",
"02795099999","2010-12-28T12:00:00","4","60.1","24.9833333","6.4","HELSINKI HARMAJA, FI","FM-12","99999","V020","040,1,N,0050,1","99999,9,9,N","999999,9,N,1","-0102,1","-0125,1","10267,1",,,,"08,99,1,08,1,99,9,00450,1,99,9,99,9","99999,9,10259,1","2,1,002,1,+999,9","-004,9","SYN100AAXX  28121 02795 464// 80405 11102 21125 30259 40267 52002 88/// 91139 222// 01004 555 783// 0/005;",
"02795099999","2010-12-28T15:00:00","4","60.1","24.9833333","6.4","HELSINKI HARMAJA, FI","FM-12","99999","V020","050,1,N,0050,1","99999,9,9,N","999999,9,N,1","-0101,1","-0123,1","10272,1",,,,"08,99,1,08,1,99,9,01250,1,99,9,99,9","99999,9,10263,1","2,1,004,1,+999,9","-003,9","SYN100AAXX  28151 02795 466// 80505 11101 21123 30263 40272 52004 88/// 91439 222// 01003 555 784// 0/005;",
"02795099999","2010-12-28T21:00:00","4","60.1","24.9833333","6.4","HELSINKI HARMAJA, FI","FM-12","99999","V020","040,1,N,0050,1","99999,9,9,N","999999,9,N,1","-0095,1","-0115,1","10284,1",,,,"08,99,1,08,1,99,9,00450,1,99,9,99,9","99999,9,10275,1","2,1,005,1,+999,9","-004,9","SYN100AAXX  28211 02795 464// 80405 11095 21115 30275 40284 52005 88/// 92039 222// 01004 555 785// 0/106;",
"02795099999","2010-12-29T00:00:00","4","60.1","24.9833333","6.4","HELSINKI HARMAJA, FI","FM-12","99999","V020","050,1,N,0050,1","99999,9,9,N","022000,1,N,1","-0088,1","-0107,1","10281,1","54,1",,,"08,99,1,08,1,99,9,00450,1,99,9,99,9","99999,9,10273,1","7,1,002,1,+999,9","-003,9","SYN106AAXX  29001 02795 47472 80505 11088 21107 30273 40281 57002 754// 88/// 92339 222// 01003 555 786// 0/206;",
"02795099999","2010-12-29T03:00:00","4","60.1","24.9833333","6.4","HELSINKI HARMAJA, FI","FM-12","99999","V020","040,1,N,0050,1","99999,9,9,N","023000,1,N,1","-0087,1","-0105,1","10281,1","25,1","6,1,03,1",,"08,99,1,08,1,99,9,00450,1,99,9,99,9","99999,9,10272,1","4,1,000,1,+999,9","-003,9","SYN106AAXX  29031 02795 47473 80405 11087 21105 30272 40281 54000 72565 88/// 90239 222// 01003 555 787// 0/506;",
"02795099999","2010-12-29T09:00:00","4","60.1","24.9833333","6.4","HELSINKI HARMAJA, FI","FM-12","99999","V020","030,1,N,0050,1","99999,9,9,N","023000,1,N,1","-0084,1","-0101,1","10277,1","00,1","2,1,03,1",,"08,99,1,08,1,99,9,00800,1,99,9,99,9","99999,9,10269,1","7,1,003,1,+999,9","-003,9","SYN106AAXX  29091 02795 47573 80305 11084 21101 30269 40277 57003 70010 88/// 90839 222// 01003 555 787// 0/606;",
"02795099999","2010-12-29T12:00:00","4","60.1","24.9833333","6.4","HELSINKI HARMAJA, FI","FM-12","99999","V020","040,1,N,0060,1","99999,9,9,N","018000,1,N,1","-0079,1","-0098,1","10260,1","00,1","2,1,06,1",,"07,99,1,07,1,99,9,00450,1,99,9,99,9","99999,9,10251,1","7,1,017,1,+999,9","-004,9","SYN106AAXX  29121 02795 47468 70406 11079 21098 30251 40260 57017 70010 87/// 91139 222// 01004 555 787// 0/306;",
"02795099999","2010-12-29T15:00:00","4","60.1","24.9833333","6.4","HELSINKI HARMAJA, FI","FM-12","99999","V020","020,1,N,0060,1","99999,9,9,N","021000,1,N,1","-0075,1","-0093,1","10240,1","00,1","0,1,03,1",,"07,99,1,07,1,99,9,00800,1,99,9,99,9","99999,9,10232,1","7,1,020,1,+999,9","-003,9","SYN106AAXX  29151 02795 47571 70206 11075 21093 30232 40240 57020 70000 87/// 91439 222// 01003 555 787// 0/206;",
"02795099999","2010-12-29T21:00:00","4","60.1","24.9833333","6.4","HELSINKI HARMAJA, FI","FM-12","99999","V020","010,1,N,0080,1","99999,9,9,N","010000,1,N,1","-0087,1","-0101,1","10205,1","54,1","6,1,03,1",,"07,99,1,07,1,99,9,00250,1,99,9,99,9","99999,9,10196,1","7,1,013,1,+999,9","-003,9","SYN106AAXX  29211 02795 47360 70108 11087 21101 30196 40205 57013 75465 87/// 92039 222// 01003 555 789// 0/008;",
"02795099999","2010-12-30T00:00:00","4","60.1","24.9833333","6.4","HELSINKI HARMAJA, FI","FM-12","99999","V020","020,1,N,0060,1","99999,9,9,N","011000,1,N,1","-0081,1","-0096,1","10180,1","00,1",,,"07,99,1,07,1,99,9,00450,1,99,9,99,9","99999,9,10171,1","7,1,025,1,+999,9","-003,9","SYN106AAXX  30001 02795 47461 70206 11081 21096 30171 40180 57025 700// 87/// 92339 222// 01003 555 789// 0/608;",
"02795099999","2010-12-30T03:00:00","4","60.1","24.9833333","6.4","HELSINKI HARMAJA, FI","FM-12","99999","V020","030,1,N,0060,1","99999,9,9,N","020000,1,N,1","-0078,1","-0095,1","10158,1","00,1","2,1,03,1",,"07,99,1,07,1,99,9,00450,1,99,9,99,9","99999,9,10150,1","7,1,021,1,+999,9","-003,9","SYN106AAXX  30031 02795 47470 70306 11078 21095 30150 40158 57021 70010 87/// 90239 222// 01003 555 788// 0/607;",
"02795099999","2010-12-30T09:00:00","4","60.1","24.9833333","6.4","HELSINKI HARMAJA, FI","FM-12","99999","V020","060,1,N,0030,1","99999,9,9,N","006000,1,N,1","-0075,1","-0088,1","10133,1","64,1","7,1,03,1",,"07,99,1,07,1,99,9,00450,1,99,9,99,9","99999,9,10125,1","7,1,010,1,+999,9","-003,9","SYN106AAXX  30091 02795 47456 70603 11075 21088 30125 40133 57010 76476 87/// 90839 222// 01003 555 790// 0/605;",
"02795099999","2010-12-30T12:00:00","4","60.1","24.9833333","6.4","HELSINKI HARMAJA, FI","FM-12","99999","V020","180,1,N,0050,1","00240,1,9,N","002200,1,N,1","-0059,1","-0069,1","10113,1","67,1","7,1,06,1","09,1,+99999,9,99,9","09,99,1,09,1,99,9,99999,9,99,9,99,9","99999,9,10105,1","7,1,020,1,+999,9","-003,9","SYN100AAXX  30121 02795 47322 91805 11059 21069 30105 40113 57020 76776 91139 222// 01003 555 793// 0/105;",
"02795099999","2010-12-30T15:00:00","4","60.1","24.9833333","6.4","HELSINKI HARMAJA, FI","FM-12","99999","V020","190,1,N,0030,1","99999,9,9,N","005000,1,N,1","-0061,1","-0075,1","10096,1","71,1",,,"07,99,1,07,1,99,9,00450,1,99,9,99,9","99999,9,10088,1","7,1,017,1,+999,9","-003,9","SYN106AAXX  30151 02795 47450 71903 11061 21075 30088 40096 57017 771// 87/// 91439 222// 01003 555 790// 0/305;",
"02795099999","2010-12-30T21:00:00","4","60.1","24.9833333","6.4","HELSINKI HARMAJA, FI","FM-12","99999","V020","190,1,N,0060,1","99999,9,9,N","002600,1,N,1","-0060,1","-0074,1","10063,1","67,1","7,1,03,1",,"07,99,1,07,1,99,9,00450,1,99,9,99,9","99999,9,10055,1","7,1,013,1,+999,9","-003,9","SYN106AAXX  30211 02795 47426 71906 11060 21074 30055 40063 57013 76776 87/// 92039 222// 01003 555 790// 0/606;",
"02795099999","2010-12-31T00:00:00","4","60.1","24.9833333","6.4","HELSINKI HARMAJA, FI","FM-12","99999","V020","170,1,N,0060,1","99999,9,9,N","002600,1,N,1","-0061,1","-0073,1","10046,1","64,1","7,1,06,1",,"07,99,1,07,1,99,9,00250,1,99,9,99,9","99999,9,10038,1","7,1,017,1,+999,9","-003,9","SYN106AAXX  31001 02795 47326 71706 11061 21073 30038 40046 57017 76476 87/// 92339 222// 01003 555 791// 0/506;",
"02795099999","2010-12-31T03:00:00","4","60.1","24.9833333","6.4","HELSINKI HARMAJA, FI","FM-12","99999","V020","160,1,N,0020,1","99999,9,9,N","008000,1,N,1","-0062,1","-0077,1","10035,1","54,1",,,"07,99,1,05,1,99,9,00450,1,99,9,99,9","99999,9,10026,1","7,1,012,1,+999,9","-003,9","SYN106AAXX  31031 02795 47458 71602 11062 21077 30026 40035 57012 754// 85/// 90239 222// 01003 555 789// 0/606;",
"02795099999","2010-12-31T09:00:00","4","60.1","24.9833333","6.4","HELSINKI HARMAJA, FI","FM-12","99999","V020","060,1,N,0020,1","99999,9,9,N","011000,1,N,1","-0064,1","-0079,1","10037,1","54,1",,,"08,99,1,08,1,99,9,00450,1,99,9,99,9","99999,9,10028,1","2,1,007,1,+999,9","-003,9","SYN106AAXX  31091 02795 47461 80602 11064 21079 30028 40037 52007 754// 88/// 90839 222// 01003 555 789// 0/503;",
"02795099999","2010-12-31T12:00:00","4","60.1","24.9833333","6.4","HELSINKI HARMAJA, FI","FM-12","99999","V020","030,1,N,0010,1","99999,9,9,N","013000,1,N,1","-0064,1","-0077,1","10031,1","00,1",,,"08,99,1,08,1,99,9,00450,1,99,9,99,9","99999,9,10023,1","7,1,005,1,+999,9","-003,9","SYN106AAXX  31121 02795 47463 80301 11064 21077 30023 40031 57005 700// 88/// 91139 222// 01003 555 790// 0/503;",
"02795099999","2010-12-31T15:00:00","4","60.1","24.9833333","6.4","HELSINKI HARMAJA, FI","FM-12","99999","V020","260,1,N,0040,1","99999,9,9,N","020000,1,N,1","-0052,1","-0067,1","10026,1","00,1","0,1,03,1",,"08,99,1,08,1,99,9,00250,1,99,9,99,9","99999,9,10018,1","7,1,005,1,+999,9","-003,9","SYN106AAXX  31151 02795 47370 82604 11052 21067 30018 40026 57005 70000 88/// 91439 222// 01003 555 790// 0/104;",
"02795099999","2010-12-31T21:00:00","4","60.1","24.9833333","6.4","HELSINKI HARMAJA, FI","FM-12","99999","V020","220,1,N,0030,1","99999,9,9,N","035000,1,N,1","-0016,1","-0039,1","09986,1","25,1","8,1,03,1",,"08,99,1,08,1,99,9,00800,1,99,9,99,9","99999,9,09978,1","7,1,020,1,+999,9","-003,9","SYN106AAXX  31211 02795 47581 82203 11016 21039 39978 49986 57020 72585 88/// 92039 222// 01003 555 784// 0/305;",
